{"updated":1784925764,"count":87,"data":{"SBCT":{"icaoId":"SBCT","flightCategory":"MVFR","rawOb":"METAR SBCT 241900Z 06005KT 9999 BKN013 OVC020 14/12 Q1021","temp":14,"dewp":12,"wdir":60,"wspd":5,"visib":"6+","altim":1021,"clouds":[{"cover":"BKN","base":1300},{"cover":"OVC","base":2000}],"obsTime":1784919600},"SBSG":{"icaoId":"SBSG","flightCategory":"VFR","rawOb":"METAR SBSG 241900Z 14004KT 090V190 9999 SCT015 BKN045 25/22 Q1014","temp":25,"dewp":22,"wdir":140,"wspd":4,"visib":"6+","altim":1014,"clouds":[{"cover":"SCT","base":1500},{"cover":"BKN","base":4500}],"obsTime":1784919600},"SBCP":{"icaoId":"SBCP","flightCategory":"MVFR","rawOb":"METAR SBCP 241900Z 18011KT 9999 BKN025 BKN090 24/19 Q1017","temp":24,"dewp":19,"wdir":180,"wspd":11,"visib":"6+","altim":1017,"clouds":[{"cover":"BKN","base":2500},{"cover":"BKN","base":9000}],"obsTime":1784919600},"SBUR":{"icaoId":"SBUR","flightCategory":"LIFR","rawOb":"METAR SBUR 241900Z 16024KT 1000 0500N FU DU SCT020 BKN070 22/16 Q1019","temp":22,"dewp":16,"wdir":160,"wspd":24,"visib":0.62,"altim":1019,"clouds":[{"cover":"SCT","base":2000},{"cover":"BKN","base":7000}],"obsTime":1784919600},"SBCZ":{"icaoId":"SBCZ","flightCategory":"MVFR","rawOb":"METAR SBCZ 241900Z 23004KT 180V270 9999 VCSH BKN030 SCT100 27/23 Q1012","temp":27,"dewp":23,"wdir":230,"wspd":4,"visib":"6+","altim":1012,"clouds":[{"cover":"BKN","base":3000},{"cover":"SCT","base":10000}],"obsTime":1784919600},"SBNT":{"icaoId":"SBNT","flightCategory":"MVFR","rawOb":"METAR SBNT 241900Z 15007KT 9999 FEW015 BKN025 BKN060 25/23 Q1014","temp":25,"dewp":23,"wdir":150,"wspd":7,"visib":"6+","altim":1014,"clouds":[{"cover":"FEW","base":1500},{"cover":"BKN","base":2500},{"cover":"BKN","base":6000}],"obsTime":1784919600},"SBCR":{"icaoId":"SBCR","flightCategory":"VFR","rawOb":"METAR SBCR 241900Z 03003KT 280V090 9999 FEW035 32/20 Q1011","temp":32,"dewp":20,"wdir":30,"wspd":3,"visib":"6+","altim":1011,"clouds":[{"cover":"FEW","base":3500}],"obsTime":1784919600},"SBBE":{"icaoId":"SBBE","flightCategory":"VFR","rawOb":"METAR SBBE 241900Z 03012G24KT 9999 2000S SHRA FEW010 BKN035 FEW040TCU 27/25 Q1012","temp":27,"dewp":25,"wdir":30,"wspd":12,"visib":"6+","altim":1012,"clouds":[{"cover":"FEW","base":1000},{"cover":"BKN","base":3500},{"cover":"FEW","base":4000}],"obsTime":1784919600},"SBRB":{"icaoId":"SBRB","flightCategory":"VFR","rawOb":"METAR SBRB 241900Z 30004KT 220V020 9999 SCT040 33/22 Q1012","temp":33,"dewp":22,"wdir":300,"wspd":4,"visib":"6+","altim":1012,"clouds":[{"cover":"SCT","base":4000}],"obsTime":1784919600},"SBMQ":{"icaoId":"SBMQ","flightCategory":"VFR","rawOb":"METAR SBMQ 241900Z 06012KT 9999 FEW030 FEW035TCU 32/25 Q1011","temp":32,"dewp":25,"wdir":60,"wspd":12,"visib":"6+","altim":1011,"clouds":[{"cover":"FEW","base":3000},{"cover":"FEW","base":3500}],"obsTime":1784919600},"SBKP":{"icaoId":"SBKP","flightCategory":"IFR","rawOb":"METAR SBKP 241900Z 00000KT 3500 -DZ BR BKN005 OVC013 17/16 Q1020","temp":17,"dewp":16,"wdir":0,"wspd":0,"visib":2.17,"altim":1020,"clouds":[{"cover":"BKN","base":500},{"cover":"OVC","base":1300}],"obsTime":1784919600},"SBGL":{"icaoId":"SBGL","flightCategory":"VFR","rawOb":"METAR SBGL 241900Z 05002KT 9999 FEW010 SCT030 OVC050 21/18 Q1018","temp":21,"dewp":18,"wdir":50,"wspd":2,"visib":"6+","altim":1018,"clouds":[{"cover":"FEW","base":1000},{"cover":"SCT","base":3000},{"cover":"OVC","base":5000}],"obsTime":1784919600},"SBFL":{"icaoId":"SBFL","flightCategory":"VFR","rawOb":"METAR SBFL 241900Z 09003KT 9999 FEW040 BKN050 BKN100 20/14 Q1020","temp":20,"dewp":14,"wdir":90,"wspd":3,"visib":"6+","altim":1020,"clouds":[{"cover":"FEW","base":4000},{"cover":"BKN","base":5000},{"cover":"BKN","base":10000}],"obsTime":1784919600},"SBTE":{"icaoId":"SBTE","flightCategory":"VFR","rawOb":"METAR SBTE 241900Z 27003KT 160V320 9999 VCSH SCT025 FEW030TCU 32/22 Q1010","temp":32,"dewp":22,"wdir":270,"wspd":3,"visib":"6+","altim":1010,"clouds":[{"cover":"SCT","base":2500},{"cover":"FEW","base":3000}],"obsTime":1784919600},"SBMG":{"icaoId":"SBMG","flightCategory":"VFR","rawOb":"METAR SBMG 241900Z 06007KT 9999 FEW015 BKN040 BKN100 19/16 Q1017","temp":19,"dewp":16,"wdir":60,"wspd":7,"visib":"6+","altim":1017,"clouds":[{"cover":"FEW","base":1500},{"cover":"BKN","base":4000},{"cover":"BKN","base":10000}],"obsTime":1784919600},"SBME":{"icaoId":"SBME","flightCategory":"MVFR","rawOb":"METAR SBME 241900Z 18010KT 9999 BKN025 OVC080 23/19 Q1017","temp":23,"dewp":19,"wdir":180,"wspd":10,"visib":"6+","altim":1017,"clouds":[{"cover":"BKN","base":2500},{"cover":"OVC","base":8000}],"obsTime":1784919600},"SBMK":{"icaoId":"SBMK","flightCategory":"VFR","rawOb":"METAR SBMK 241900Z 12003KT 9999 FEW036 31/12 Q1016","temp":31,"dewp":12,"wdir":120,"wspd":3,"visib":"6+","altim":1016,"clouds":[{"cover":"FEW","base":3600}],"obsTime":1784919600},"SBUL":{"icaoId":"SBUL","flightCategory":"VFR","rawOb":" SBUL 241900Z 03004KT 9999 SCT030 FEW040TCU 28/12 Q1018","temp":28,"dewp":12,"wdir":30,"wspd":4,"visib":"6+","altim":1018,"clouds":[{"cover":"SCT","base":3000},{"cover":"FEW","base":4000}],"obsTime":1784919600},"SBIL":{"icaoId":"SBIL","flightCategory":"VFR","rawOb":"METAR SBIL 241900Z 11007KT 9999 SCT023 26/22 Q1016","temp":26,"dewp":22,"wdir":110,"wspd":7,"visib":"6+","altim":1016,"clouds":[{"cover":"SCT","base":2300}],"obsTime":1784919600},"SBJU":{"icaoId":"SBJU","flightCategory":"MVFR","rawOb":"METAR SBJU 241900Z 12002KT 9999 BKN020 31/17 Q1014","temp":31,"dewp":17,"wdir":120,"wspd":2,"visib":"6+","altim":1014,"clouds":[{"cover":"BKN","base":2000}],"obsTime":1784919600},"SBAT":{"icaoId":"SBAT","flightCategory":"VFR","rawOb":"METAR SBAT 241900Z 01004KT 9999 FEW035 35/16 Q1011","temp":35,"dewp":16,"wdir":10,"wspd":4,"visib":"6+","altim":1011,"clouds":[{"cover":"FEW","base":3500}],"obsTime":1784919600},"SBHT":{"icaoId":"SBHT","flightCategory":"VFR","rawOb":"METAR SBHT 241900Z 09007KT 9999 SCT030 33/23 Q1011","temp":33,"dewp":23,"wdir":90,"wspd":7,"visib":"6+","altim":1011,"clouds":[{"cover":"SCT","base":3000}],"obsTime":1784919600},"SBFI":{"icaoId":"SBFI","flightCategory":"MVFR","rawOb":"METAR SBFI 241900Z 12006KT 7000 0600S R15/P2000N R33/P2000N BCFG BKN012 BKN035 FEW040TCU 19/19 Q1014","temp":19,"dewp":19,"wdir":120,"wspd":6,"visib":4.35,"altim":1014,"clouds":[{"cover":"BKN","base":1200},{"cover":"BKN","base":3500},{"cover":"FEW","base":4000}],"obsTime":1784919600},"SBRF":{"icaoId":"SBRF","flightCategory":"VFR","rawOb":"METAR SBRF 241900Z 16012KT 9999 SCT025 SCT100 27/22 Q1014","temp":27,"dewp":22,"wdir":160,"wspd":12,"visib":"6+","altim":1014,"clouds":[{"cover":"SCT","base":2500},{"cover":"SCT","base":10000}],"obsTime":1784919600},"SBGO":{"icaoId":"SBGO","flightCategory":"VFR","rawOb":"METAR SBGO 241900Z 33005KT 9999 SCT048 34/11 Q1015","temp":34,"dewp":11,"wdir":330,"wspd":5,"visib":"6+","altim":1015,"clouds":[{"cover":"SCT","base":4800}],"obsTime":1784919600},"SBPA":{"icaoId":"SBPA","flightCategory":"VFR","rawOb":"METAR SBPA 241900Z 10009KT 9999 FEW020 BKN060 21/15 Q1016","temp":21,"dewp":15,"wdir":100,"wspd":9,"visib":"6+","altim":1016,"clouds":[{"cover":"FEW","base":2000},{"cover":"BKN","base":6000}],"obsTime":1784919600},"SBEG":{"icaoId":"SBEG","flightCategory":"VFR","rawOb":"METAR SBEG 241900Z 07004KT 9999 SCT045 31/24 Q1010","temp":31,"dewp":24,"wdir":70,"wspd":4,"visib":"6+","altim":1010,"clouds":[{"cover":"SCT","base":4500}],"obsTime":1784919600},"SBMO":{"icaoId":"SBMO","flightCategory":"VFR","rawOb":"METAR SBMO 241900Z 13008KT 9999 FEW025 27/19 Q1015","temp":27,"dewp":19,"wdir":130,"wspd":8,"visib":"6+","altim":1015,"clouds":[{"cover":"FEW","base":2500}],"obsTime":1784919600},"SBFZ":{"icaoId":"SBFZ","flightCategory":"VFR","rawOb":"METAR SBFZ 241900Z 10013KT 9999 FEW025 29/23 Q1012","temp":29,"dewp":23,"wdir":100,"wspd":13,"visib":"6+","altim":1012,"clouds":[{"cover":"FEW","base":2500}],"obsTime":1784919600},"SBCB":{"icaoId":"SBCB","flightCategory":"VFR","rawOb":"METAR SBCB 241900Z 28002KT 9000 FEW015 SCT030 BKN050 22/18 Q1017","temp":22,"dewp":18,"wdir":280,"wspd":2,"visib":5.59,"altim":1017,"clouds":[{"cover":"FEW","base":1500},{"cover":"SCT","base":3000},{"cover":"BKN","base":5000}],"obsTime":1784919600},"SBSL":{"icaoId":"SBSL","flightCategory":"VFR","rawOb":"METAR SBSL 241900Z 07010KT 9999 FEW027 29/23 Q1011","temp":29,"dewp":23,"wdir":70,"wspd":10,"visib":"6+","altim":1011,"clouds":[{"cover":"FEW","base":2700}],"obsTime":1784919600},"SBPV":{"icaoId":"SBPV","flightCategory":"VFR","rawOb":"METAR SBPV 241900Z VRB05KT 9999 SCT045 34/19 Q1010","temp":34,"dewp":19,"wdir":"VRB","wspd":5,"visib":"6+","altim":1010,"clouds":[{"cover":"SCT","base":4500}],"obsTime":1784919600},"SBSV":{"icaoId":"SBSV","flightCategory":"VFR","rawOb":"METAR SBSV 241900Z 10009KT 9999 FEW024 27/20 Q1016","temp":27,"dewp":20,"wdir":100,"wspd":9,"visib":"6+","altim":1016,"clouds":[{"cover":"FEW","base":2400}],"obsTime":1784919600},"SBBV":{"icaoId":"SBBV","flightCategory":"VFR","rawOb":"METAR SBBV 241900Z 12007KT 9999 BKN040 SCT100 34/20 Q1010","temp":34,"dewp":20,"wdir":120,"wspd":7,"visib":"6+","altim":1010,"clouds":[{"cover":"BKN","base":4000},{"cover":"SCT","base":10000}],"obsTime":1784919600},"SBCF":{"icaoId":"SBCF","flightCategory":"VFR","rawOb":"METAR SBCF 241900Z 08004KT 9999 SCT045 28/11 Q1018","temp":28,"dewp":11,"wdir":80,"wspd":4,"visib":"6+","altim":1018,"clouds":[{"cover":"SCT","base":4500}],"obsTime":1784919600},"SBBR":{"icaoId":"SBBR","flightCategory":"VFR","rawOb":"METAR SBBR 241900Z 03005KT 330V080 CAVOK 30/08 Q1018","temp":30,"dewp":8,"wdir":30,"wspd":5,"visib":"6+","altim":1018,"clouds":[],"obsTime":1784919600},"SBCG":{"icaoId":"SBCG","flightCategory":"VFR","rawOb":"METAR SBCG 241900Z 32007KT 280V350 9999 SCT045 SCT090 29/18 Q1015","temp":29,"dewp":18,"wdir":320,"wspd":7,"visib":"6+","altim":1015,"clouds":[{"cover":"SCT","base":4500},{"cover":"SCT","base":9000}],"obsTime":1784919600},"SBMA":{"icaoId":"SBMA","flightCategory":"VFR","rawOb":"METAR SBMA 241900Z 08004KT 9999 FEW025 33/22 Q1011","temp":33,"dewp":22,"wdir":80,"wspd":4,"visib":"6+","altim":1011,"clouds":[{"cover":"FEW","base":2500}],"obsTime":1784919600},"SBSN":{"icaoId":"SBSN","flightCategory":"VFR","rawOb":"METAR SBSN 241900Z 10014KT 9999 FEW023 32/23 Q1010","temp":32,"dewp":23,"wdir":100,"wspd":14,"visib":"6+","altim":1010,"clouds":[{"cover":"FEW","base":2300}],"obsTime":1784919600},"SBGR":{"icaoId":"SBGR","flightCategory":"MVFR","rawOb":"METAR SBGR 241900Z 14003KT 7000 BKN015 OVC019 17/14 Q1021","temp":17,"dewp":14,"wdir":140,"wspd":3,"visib":4.35,"altim":1021,"clouds":[{"cover":"BKN","base":1500},{"cover":"OVC","base":1900}],"obsTime":1784919600},"SBVT":{"icaoId":"SBVT","flightCategory":"VFR","rawOb":"METAR SBVT 241900Z 16011KT 9999 SCT025 BKN040 BKN100 23/20 Q1017","temp":23,"dewp":20,"wdir":160,"wspd":11,"visib":"6+","altim":1017,"clouds":[{"cover":"SCT","base":2500},{"cover":"BKN","base":4000},{"cover":"BKN","base":10000}],"obsTime":1784919600},"SBLO":{"icaoId":"SBLO","flightCategory":"IFR","rawOb":"METAR SBLO 241900Z 12007KT 9999 -RA BKN008 BKN013 16/14 Q1019","temp":16,"dewp":14,"wdir":120,"wspd":7,"visib":"6+","altim":1019,"clouds":[{"cover":"BKN","base":800},{"cover":"BKN","base":1300}],"obsTime":1784919600},"SBPJ":{"icaoId":"SBPJ","flightCategory":"VFR","rawOb":"METAR SBPJ 241900Z 32007KT 280V340 9999 FEW040 BKN100 36/16 Q1011","temp":36,"dewp":16,"wdir":320,"wspd":7,"visib":"6+","altim":1011,"clouds":[{"cover":"FEW","base":4000},{"cover":"BKN","base":10000}],"obsTime":1784919600},"SBSP":{"icaoId":"SBSP","flightCategory":"IFR","rawOb":"METAR SBSP 241900Z 16006KT 6000 OVC009 15/14 Q1021","temp":15,"dewp":14,"wdir":160,"wspd":6,"visib":3.73,"altim":1021,"clouds":[{"cover":"OVC","base":900}],"obsTime":1784919600},"SBAX":{"icaoId":"SBAX","flightCategory":"VFR","rawOb":"METAR SBAX 241900Z AUTO 32004KT 270V350 9999 -RA NSC 26/13 Q1019","temp":26,"dewp":13,"wdir":320,"wspd":4,"visib":"6+","altim":1019,"clouds":[],"obsTime":1784919600},"SBPP":{"icaoId":"SBPP","flightCategory":"MVFR","rawOb":"METAR SBPP 241900Z 33008KT 9999 BKN023 25/19 Q1015","temp":25,"dewp":19,"wdir":330,"wspd":8,"visib":"6+","altim":1015,"clouds":[{"cover":"BKN","base":2300}],"obsTime":1784919600},"SBCJ":{"icaoId":"SBCJ","flightCategory":"VFR","rawOb":"METAR SBCJ 241900Z 00000KT 9999 SCT023 FEW025TCU 27/22 Q1014","temp":27,"dewp":22,"wdir":0,"wspd":0,"visib":"6+","altim":1014,"clouds":[{"cover":"SCT","base":2300},{"cover":"FEW","base":2500}],"obsTime":1784919600},"SBTF":{"icaoId":"SBTF","flightCategory":"VFR","rawOb":"METAR SBTF 241900Z 14005KT 9999 SCT020 34/24 Q1009","temp":34,"dewp":24,"wdir":140,"wspd":5,"visib":"6+","altim":1009,"clouds":[{"cover":"SCT","base":2000}],"obsTime":1784919600},"SBOI":{"icaoId":"SBOI","flightCategory":"VFR","rawOb":"METAR SBOI 241900Z AUTO 08007KT 030V150 9999 FEW042 32/23 Q1012","temp":32,"dewp":23,"wdir":80,"wspd":7,"visib":"6+","altim":1012,"clouds":[{"cover":"FEW","base":4200}],"obsTime":1784919600},"SBSJ":{"icaoId":"SBSJ","flightCategory":"IFR","rawOb":"METAR SBSJ 241900Z 25003KT 4000 BR BKN017 BKN027 17/15 Q1020","temp":17,"dewp":15,"wdir":250,"wspd":3,"visib":2.49,"altim":1020,"clouds":[{"cover":"BKN","base":1700},{"cover":"BKN","base":2700}],"obsTime":1784919600},"SBUY":{"icaoId":"SBUY","flightCategory":"VFR","rawOb":"METAR SBUY 241900Z 16006KT 9999 SCT025 33/23 Q1009","temp":33,"dewp":23,"wdir":160,"wspd":6,"visib":"6+","altim":1009,"clouds":[{"cover":"SCT","base":2500}],"obsTime":1784919600},"SBTT":{"icaoId":"SBTT","flightCategory":"VFR","rawOb":"METAR SBTT 241900Z 33005KT 9999 SCT020 FEW025TCU 27/24 Q1011","temp":27,"dewp":24,"wdir":330,"wspd":5,"visib":"6+","altim":1011,"clouds":[{"cover":"SCT","base":2000},{"cover":"FEW","base":2500}],"obsTime":1784919600},"SBTU":{"icaoId":"SBTU","flightCategory":"VFR","rawOb":"METAR SBTU 241900Z AUTO 22005KT 170V260 9999 // SCT028/// ///// Q1013","temp":null,"dewp":null,"wdir":220,"wspd":5,"visib":"6+","altim":1013,"clouds":[{"cover":"SCT","base":2800}],"obsTime":1784919600},"SBPL":{"icaoId":"SBPL","flightCategory":"VFR","rawOb":"METAR SBPL 241900Z 10006KT 9999 FEW030 BKN070 31/15 Q1014","temp":31,"dewp":15,"wdir":100,"wspd":6,"visib":"6+","altim":1014,"clouds":[{"cover":"FEW","base":3000},{"cover":"BKN","base":7000}],"obsTime":1784919600},"SBCA":{"icaoId":"SBCA","flightCategory":"IFR","rawOb":"METAR SBCA 241900Z 03014G24KT 9999 BKN005 FEW040TCU OVC100 17/15 Q1017","temp":17,"dewp":15,"wdir":30,"wspd":14,"visib":"6+","altim":1017,"clouds":[{"cover":"BKN","base":500},{"cover":"FEW","base":4000},{"cover":"OVC","base":10000}],"obsTime":1784919600},"SBCO":{"icaoId":"SBCO","flightCategory":"VFR","rawOb":"METAR SBCO 241900Z 12008KT 9999 BKN040 20/14 Q1017","temp":20,"dewp":14,"wdir":120,"wspd":8,"visib":"6+","altim":1017,"clouds":[{"cover":"BKN","base":4000}],"obsTime":1784919600},"SBSM":{"icaoId":"SBSM","flightCategory":"VFR","rawOb":"METAR SBSM 241900Z 13003KT 090V190 9999 FEW025 SCT100 18/15 Q1017","temp":18,"dewp":15,"wdir":130,"wspd":3,"visib":"6+","altim":1017,"clouds":[{"cover":"FEW","base":2500},{"cover":"SCT","base":10000}],"obsTime":1784919600},"SBBH":{"icaoId":"SBBH","flightCategory":"VFR","rawOb":"METAR SBBH 241900Z 07005KT 9999 SCT045 28/12 Q1017","temp":28,"dewp":12,"wdir":70,"wspd":5,"visib":"6+","altim":1017,"clouds":[{"cover":"SCT","base":4500}],"obsTime":1784919600},"SBBU":{"icaoId":"SBBU","flightCategory":"LIFR","rawOb":"METAR SBBU 241900Z 05006KT 4000 TSRA BR BKN003 BKN020 FEW035CB OVC100 16/16 Q1019","temp":16,"dewp":16,"wdir":50,"wspd":6,"visib":2.49,"altim":1019,"clouds":[{"cover":"BKN","base":300},{"cover":"BKN","base":2000},{"cover":"FEW","base":3500},{"cover":"OVC","base":10000}],"obsTime":1784919600},"SBDN":{"icaoId":"SBDN","flightCategory":"IFR","rawOb":"METAR SBDN 241900Z 11010KT 9999 BKN007 18/15 Q1017","temp":18,"dewp":15,"wdir":110,"wspd":10,"visib":"6+","altim":1017,"clouds":[{"cover":"BKN","base":700}],"obsTime":1784919600},"SBIP":{"icaoId":"SBIP","flightCategory":"VFR","rawOb":"METAR SBIP 241900Z AUTO 35005KT 310V050 CAVOK 30/17 Q1015","temp":30,"dewp":17,"wdir":350,"wspd":5,"visib":"6+","altim":1015,"clouds":[],"obsTime":1784919600},"SBSC":{"icaoId":"SBSC","flightCategory":"MVFR","rawOb":"METAR SBSC 241900Z COR 22004KT 8000 -DZ SCT025 OVC040 20/18 Q1018","temp":20,"dewp":18,"wdir":220,"wspd":4,"visib":4.97,"altim":1018,"clouds":[{"cover":"SCT","base":2500},{"cover":"OVC","base":4000}],"obsTime":1784919600},"SBSR":{"icaoId":"SBSR","flightCategory":"VFR","rawOb":"METAR SBSR 241900Z 13009KT 9999 VCSH FEW010 SCT035 FEW045TCU BKN080 18/17 Q1019 RETS","temp":18,"dewp":17,"wdir":130,"wspd":9,"visib":"6+","altim":1019,"clouds":[{"cover":"FEW","base":1000},{"cover":"SCT","base":3500},{"cover":"FEW","base":4500},{"cover":"BKN","base":8000}],"obsTime":1784919600},"SBKG":{"icaoId":"SBKG","flightCategory":"VFR","rawOb":"METAR SBKG 241900Z 12007KT 9999 FEW022 BKN080 26/19 Q1016","temp":26,"dewp":19,"wdir":120,"wspd":7,"visib":"6+","altim":1016,"clouds":[{"cover":"FEW","base":2200},{"cover":"BKN","base":8000}],"obsTime":1784919600},"SBCC":{"icaoId":"SBCC","flightCategory":"MVFR","rawOb":"METAR SBCC 241900Z 10008KT 9999 BKN020 SCT100 33/17 Q1012","temp":33,"dewp":17,"wdir":100,"wspd":8,"visib":"6+","altim":1012,"clouds":[{"cover":"BKN","base":2000},{"cover":"SCT","base":10000}],"obsTime":1784919600},"SBVH":{"icaoId":"SBVH","flightCategory":"VFR","rawOb":"METAR SBVH 241900Z 35002KT CAVOK 31/18 Q1014","temp":31,"dewp":18,"wdir":350,"wspd":2,"visib":"6+","altim":1014,"clouds":[],"obsTime":1784919600},"SBES":{"icaoId":"SBES","flightCategory":"MVFR","rawOb":"METAR SBES 241900Z VRB02KT 8000 -RA FEW010 SCT020 BKN040 21/// Q1017","temp":null,"dewp":null,"wdir":"VRB","wspd":2,"visib":4.97,"altim":1017,"clouds":[{"cover":"FEW","base":1000},{"cover":"SCT","base":2000},{"cover":"BKN","base":4000}],"obsTime":1784919600},"SBPB":{"icaoId":"SBPB","flightCategory":"VFR","rawOb":"METAR SBPB 241900Z 06013KT 9999 SCT020 29/24 Q1011","temp":29,"dewp":24,"wdir":60,"wspd":13,"visib":"6+","altim":1011,"clouds":[{"cover":"SCT","base":2000}],"obsTime":1784919600},"SBPS":{"icaoId":"SBPS","flightCategory":"VFR","rawOb":"METAR SBPS 241900Z 05008KT 9999 SCT020 BKN080 25/21 Q1016","temp":25,"dewp":21,"wdir":50,"wspd":8,"visib":"6+","altim":1016,"clouds":[{"cover":"SCT","base":2000},{"cover":"BKN","base":8000}],"obsTime":1784919600},"SBAR":{"icaoId":"SBAR","flightCategory":"VFR","rawOb":"METAR SBAR 241900Z 12008KT 9999 FEW023 BKN090 27/20 Q1015","temp":27,"dewp":20,"wdir":120,"wspd":8,"visib":"6+","altim":1015,"clouds":[{"cover":"FEW","base":2300},{"cover":"BKN","base":9000}],"obsTime":1784919600},"SBGM":{"icaoId":"SBGM","flightCategory":"VFR","rawOb":"METAR SBGM 241900Z 23004KT CAVOK 32/12 Q1011","temp":32,"dewp":12,"wdir":230,"wspd":4,"visib":"6+","altim":1011,"clouds":[],"obsTime":1784919600},"SBAU":{"icaoId":"SBAU","flightCategory":"VFR","rawOb":"METAR SBAU 241900Z 09010KT 9999 FEW010 FEW050TCU SCT080 20/17 Q1017 RETS","temp":20,"dewp":17,"wdir":90,"wspd":10,"visib":"6+","altim":1017,"clouds":[{"cover":"FEW","base":1000},{"cover":"FEW","base":5000},{"cover":"SCT","base":8000}],"obsTime":1784919600},"SBBQ":{"icaoId":"SBBQ","flightCategory":"VFR","rawOb":"METAR SBBQ 241900Z 23003KT 180V270 9999 SCT035 BKN100 19/14 Q1022","temp":19,"dewp":14,"wdir":230,"wspd":3,"visib":"6+","altim":1022,"clouds":[{"cover":"SCT","base":3500},{"cover":"BKN","base":10000}],"obsTime":1784919600},"SBJP":{"icaoId":"SBJP","flightCategory":"VFR","rawOb":"METAR SBJP 241900Z 14012KT CAVOK 27/22 Q1014","temp":27,"dewp":22,"wdir":140,"wspd":12,"visib":"6+","altim":1014,"clouds":[],"obsTime":1784919600},"SBAN":{"icaoId":"SBAN","flightCategory":"VFR","rawOb":"METAR SBAN 241900Z 34005KT CAVOK 29/10 Q1019","temp":29,"dewp":10,"wdir":340,"wspd":5,"visib":"6+","altim":1019,"clouds":[],"obsTime":1784919600},"SBJV":{"icaoId":"SBJV","flightCategory":"MVFR","rawOb":"METAR SBJV 241900Z 13004KT 9999 BKN025 BKN080 20/15 Q1020","temp":20,"dewp":15,"wdir":130,"wspd":4,"visib":"6+","altim":1020,"clouds":[{"cover":"BKN","base":2500},{"cover":"BKN","base":8000}],"obsTime":1784919600},"SBNM":{"icaoId":"SBNM","flightCategory":"VFR","rawOb":"METAR SBNM 241900Z AUTO 34004KT 9999 FEW012 19/16 Q1016","temp":19,"dewp":16,"wdir":340,"wspd":4,"visib":"6+","altim":1016,"clouds":[{"cover":"FEW","base":1200}],"obsTime":1784919600},"SBPF":{"icaoId":"SBPF","flightCategory":"VFR","rawOb":"METAR SBPF 241900Z 04010KT 9999 FEW030 BKN070 18/15 Q1018","temp":18,"dewp":15,"wdir":40,"wspd":10,"visib":"6+","altim":1018,"clouds":[{"cover":"FEW","base":3000},{"cover":"BKN","base":7000}],"obsTime":1784919600},"SBGW":{"icaoId":"SBGW","flightCategory":"IFR","rawOb":"METAR SBGW 241900Z 29003KT 250V320 4000 -RA BR SCT017 OVC025 19/16 Q1020","temp":19,"dewp":16,"wdir":290,"wspd":3,"visib":2.49,"altim":1020,"clouds":[{"cover":"SCT","base":1700},{"cover":"OVC","base":2500}],"obsTime":1784919600},"SBJR":{"icaoId":"SBJR","flightCategory":"VFR","rawOb":"METAR SBJR 241900Z 21002KT 9999 SCT018 OVC060 22/19 Q1018","temp":22,"dewp":19,"wdir":210,"wspd":2,"visib":"6+","altim":1018,"clouds":[{"cover":"SCT","base":1800},{"cover":"OVC","base":6000}],"obsTime":1784919600},"SBLS":{"icaoId":"SBLS","flightCategory":"VFR","rawOb":"METAR SBLS 241900Z 02003KT 290V080 9999 SCT045 SCT100 28/12 Q1017","temp":28,"dewp":12,"wdir":20,"wspd":3,"visib":"6+","altim":1017,"clouds":[{"cover":"SCT","base":4500},{"cover":"SCT","base":10000}],"obsTime":1784919600},"SBMT":{"icaoId":"SBMT","flightCategory":"IFR","rawOb":"METAR SBMT 241900Z 11002KT 4000 BR BKN012 OVC015 16/13 Q1021","temp":16,"dewp":13,"wdir":110,"wspd":2,"visib":2.49,"altim":1021,"clouds":[{"cover":"BKN","base":1200},{"cover":"OVC","base":1500}],"obsTime":1784919600},"SBST":{"icaoId":"SBST","flightCategory":"IFR","rawOb":"METAR SBST 241900Z 34004KT 6000 BKN009 OVC014 18/17 Q1019","temp":18,"dewp":17,"wdir":340,"wspd":4,"visib":3.73,"altim":1019,"clouds":[{"cover":"BKN","base":900},{"cover":"OVC","base":1400}],"obsTime":1784919600},"SBTA":{"icaoId":"SBTA","flightCategory":"MVFR","rawOb":"METAR SBTA 241900Z 27004KT 5000 -RA BR BKN015 OVC090 18/16 Q1020","temp":18,"dewp":16,"wdir":270,"wspd":4,"visib":3.11,"altim":1020,"clouds":[{"cover":"BKN","base":1500},{"cover":"OVC","base":9000}],"obsTime":1784919600},"SBAF":{"icaoId":"SBAF","flightCategory":"MVFR","rawOb":" SBAF 241900Z 18005KT 9000 FEW015 SCT020 BKN030 21/21 Q1018","temp":21,"dewp":21,"wdir":180,"wspd":5,"visib":5.59,"altim":1018,"clouds":[{"cover":"FEW","base":1500},{"cover":"SCT","base":2000},{"cover":"BKN","base":3000}],"obsTime":1784919600},"SBLE":{"icaoId":"SBLE","flightCategory":"VFR","rawOb":"METAR SBLE 241900Z AUTO 02003KT 350V070 CAVOK 29/16 Q1016","temp":29,"dewp":16,"wdir":20,"wspd":3,"visib":"6+","altim":1016,"clouds":[],"obsTime":1784919600},"SBIH":{"icaoId":"SBIH","flightCategory":"VFR","rawOb":"METAR SBIH 241900Z 04009KT 9999 SCT020 FEW025TCU 35/24 Q1009","temp":35,"dewp":24,"wdir":40,"wspd":9,"visib":"6+","altim":1009,"clouds":[{"cover":"SCT","base":2000},{"cover":"FEW","base":2500}],"obsTime":1784919600}}}