{"updated":1776609109,"count":84,"data":{"SBPV":{"icaoId":"SBPV","flightCategory":"VFR","rawOb":"METAR SBPV 191300Z 36003KT 9999 FEW030 BKN070 25/23 Q1011","temp":25,"dewp":23,"wdir":360,"wspd":3,"visib":"6+","altim":1011,"clouds":[{"cover":"FEW","base":3000},{"cover":"BKN","base":7000}],"obsTime":1776603600},"SBBE":{"icaoId":"SBBE","flightCategory":"IFR","rawOb":"SPECI SBBE 191235Z 25008KT 2000 -RA SCT009 BKN018 BKN040 25/25 Q1011","temp":25,"dewp":25,"wdir":250,"wspd":8,"visib":1.24,"altim":1011,"clouds":[{"cover":"SCT","base":900},{"cover":"BKN","base":1800},{"cover":"BKN","base":4000}],"obsTime":1776602100},"SBBR":{"icaoId":"SBBR","flightCategory":"VFR","rawOb":"METAR SBBR 191300Z 09004KT 030V140 CAVOK 25/16 Q1018","temp":25,"dewp":16,"wdir":90,"wspd":4,"visib":"6+","altim":1018,"clouds":[],"obsTime":1776603600},"SBBV":{"icaoId":"SBBV","flightCategory":"VFR","rawOb":"METAR SBBV 191300Z 12005KT 9999 FEW010 SCT020 FEW025TCU BKN100 28/23 Q1013","temp":28,"dewp":23,"wdir":120,"wspd":5,"visib":"6+","altim":1013,"clouds":[{"cover":"FEW","base":1000},{"cover":"SCT","base":2000},{"cover":"FEW","base":2500},{"cover":"BKN","base":10000}],"obsTime":1776603600},"SBCB":{"icaoId":"SBCB","flightCategory":"VFR","rawOb":"METAR SBCB 191300Z 25016KT CAVOK 26/22 Q1012","temp":26,"dewp":22,"wdir":250,"wspd":16,"visib":"6+","altim":1012,"clouds":[],"obsTime":1776603600},"SBCF":{"icaoId":"SBCF","flightCategory":"VFR","rawOb":"METAR SBCF 191300Z 02002KT 9999 FEW025 26/17 Q1017","temp":26,"dewp":17,"wdir":20,"wspd":2,"visib":"6+","altim":1017,"clouds":[{"cover":"FEW","base":2500}],"obsTime":1776603600},"SBCG":{"icaoId":"SBCG","flightCategory":"VFR","rawOb":"METAR SBCG 191300Z 05007KT CAVOK 29/22 Q1014","temp":29,"dewp":22,"wdir":50,"wspd":7,"visib":"6+","altim":1014,"clouds":[],"obsTime":1776603600},"SBCP":{"icaoId":"SBCP","flightCategory":"VFR","rawOb":"METAR SBCP 191300Z 25004KT 9999 FEW025 30/22 Q1011","temp":30,"dewp":22,"wdir":250,"wspd":4,"visib":"6+","altim":1011,"clouds":[{"cover":"FEW","base":2500}],"obsTime":1776603600},"SBCR":{"icaoId":"SBCR","flightCategory":"VFR","rawOb":"METAR SBCR 191300Z 02003KT 310V070 9999 FEW020 30/23 Q1010","temp":30,"dewp":23,"wdir":20,"wspd":3,"visib":"6+","altim":1010,"clouds":[{"cover":"FEW","base":2000}],"obsTime":1776603600},"SBCT":{"icaoId":"SBCT","flightCategory":"MVFR","rawOb":"METAR SBCT 191300Z 04003KT 9999 BKN014 20/18 Q1018","temp":20,"dewp":18,"wdir":40,"wspd":3,"visib":"6+","altim":1018,"clouds":[{"cover":"BKN","base":1400}],"obsTime":1776603600},"SBCZ":{"icaoId":"SBCZ","flightCategory":"VFR","rawOb":"METAR SBCZ 191300Z 03002KT 9999 SCT008 OVC100 25/24 Q1011","temp":25,"dewp":24,"wdir":30,"wspd":2,"visib":"6+","altim":1011,"clouds":[{"cover":"SCT","base":800},{"cover":"OVC","base":10000}],"obsTime":1776603600},"SBEG":{"icaoId":"SBEG","flightCategory":"VFR","rawOb":"METAR SBEG 191300Z 00000KT 9999 FEW009 26/23 Q1013","temp":26,"dewp":23,"wdir":0,"wspd":0,"visib":"6+","altim":1013,"clouds":[{"cover":"FEW","base":900}],"obsTime":1776603600},"SBFI":{"icaoId":"SBFI","flightCategory":"VFR","rawOb":"METAR SBFI 191300Z 08005KT 9999 SCT040 25/20 Q1013","temp":25,"dewp":20,"wdir":80,"wspd":5,"visib":"6+","altim":1013,"clouds":[{"cover":"SCT","base":4000}],"obsTime":1776603600},"SBFL":{"icaoId":"SBFL","flightCategory":"VFR","rawOb":"METAR SBFL 191300Z 27003KT 210V340 9999 FEW015 25/19 Q1014","temp":25,"dewp":19,"wdir":270,"wspd":3,"visib":"6+","altim":1014,"clouds":[{"cover":"FEW","base":1500}],"obsTime":1776603600},"SBFZ":{"icaoId":"SBFZ","flightCategory":"VFR","rawOb":"METAR SBFZ 191300Z 17005KT 9999 SCT018 BKN100 27/24 Q1011","temp":27,"dewp":24,"wdir":170,"wspd":5,"visib":"6+","altim":1011,"clouds":[{"cover":"SCT","base":1800},{"cover":"BKN","base":10000}],"obsTime":1776603600},"SBGL":{"icaoId":"SBGL","flightCategory":"VFR","rawOb":"METAR SBGL 191300Z 23005KT 180V340 9999 SCT030 SCT050 28/20 Q1013","temp":28,"dewp":20,"wdir":230,"wspd":5,"visib":"6+","altim":1013,"clouds":[{"cover":"SCT","base":3000},{"cover":"SCT","base":5000}],"obsTime":1776603600},"SBGO":{"icaoId":"SBGO","flightCategory":"VFR","rawOb":"METAR SBGO 191300Z 33003KT 260V030 CAVOK 26/20 Q1016","temp":26,"dewp":20,"wdir":330,"wspd":3,"visib":"6+","altim":1016,"clouds":[],"obsTime":1776603600},"SBGR":{"icaoId":"SBGR","flightCategory":"VFR","rawOb":"METAR SBGR 191300Z 10005KT 070V150 CAVOK 24/12 Q1018","temp":24,"dewp":12,"wdir":100,"wspd":5,"visib":"6+","altim":1018,"clouds":[],"obsTime":1776603600},"SBHT":{"icaoId":"SBHT","flightCategory":"VFR","rawOb":"METAR SBHT 191300Z 26004KT 9999 FEW010 OVC080 26/23 Q1013","temp":26,"dewp":23,"wdir":260,"wspd":4,"visib":"6+","altim":1013,"clouds":[{"cover":"FEW","base":1000},{"cover":"OVC","base":8000}],"obsTime":1776603600},"SBIL":{"icaoId":"SBIL","flightCategory":"VFR","rawOb":"METAR SBIL 191300Z 11004KT 9999 FEW023 30/24 Q1012","temp":30,"dewp":24,"wdir":110,"wspd":4,"visib":"6+","altim":1012,"clouds":[{"cover":"FEW","base":2300}],"obsTime":1776603600},"SBJU":{"icaoId":"SBJU","flightCategory":"MVFR","rawOb":"METAR SBJU 191300Z 12004KT 9999 BKN020 26/23 Q1014","temp":26,"dewp":23,"wdir":120,"wspd":4,"visib":"6+","altim":1014,"clouds":[{"cover":"BKN","base":2000}],"obsTime":1776603600},"SBKP":{"icaoId":"SBKP","flightCategory":"VFR","rawOb":"METAR SBKP 191300Z 12011KT CAVOK 26/13 Q1016","temp":26,"dewp":13,"wdir":120,"wspd":11,"visib":"6+","altim":1016,"clouds":[],"obsTime":1776603600},"SBLO":{"icaoId":"SBLO","flightCategory":"VFR","rawOb":"METAR SBLO 191300Z 10004KT CAVOK 24/19 Q1016","temp":24,"dewp":19,"wdir":100,"wspd":4,"visib":"6+","altim":1016,"clouds":[],"obsTime":1776603600},"SBMA":{"icaoId":"SBMA","flightCategory":"VFR","rawOb":"METAR SBMA 191300Z 22005KT 9999 -RA SCT010 OVC080 26/24 Q1013","temp":26,"dewp":24,"wdir":220,"wspd":5,"visib":"6+","altim":1013,"clouds":[{"cover":"SCT","base":1000},{"cover":"OVC","base":8000}],"obsTime":1776603600},"SBME":{"icaoId":"SBME","flightCategory":"VFR","rawOb":"METAR SBME 191300Z 23008KT 220V280 CAVOK 31/21 Q1011","temp":31,"dewp":21,"wdir":230,"wspd":8,"visib":"6+","altim":1011,"clouds":[],"obsTime":1776603600},"SBMG":{"icaoId":"SBMG","flightCategory":"VFR","rawOb":"METAR SBMG 191300Z 16004KT 130V190 CAVOK 24/21 Q1014","temp":24,"dewp":21,"wdir":160,"wspd":4,"visib":"6+","altim":1014,"clouds":[],"obsTime":1776603600},"SBMK":{"icaoId":"SBMK","flightCategory":"VFR","rawOb":"METAR SBMK 191300Z 04005KT CAVOK 26/17 Q1016","temp":26,"dewp":17,"wdir":40,"wspd":5,"visib":"6+","altim":1016,"clouds":[],"obsTime":1776603600},"SBMO":{"icaoId":"SBMO","flightCategory":"VFR","rawOb":"METAR SBMO 191300Z 08004KT 9999 FEW030 29/23 Q1011","temp":29,"dewp":23,"wdir":80,"wspd":4,"visib":"6+","altim":1011,"clouds":[{"cover":"FEW","base":3000}],"obsTime":1776603600},"SBMQ":{"icaoId":"SBMQ","flightCategory":"VFR","rawOb":"METAR SBMQ 191300Z 28004KT 9999 -RA FEW010 BKN042 25/25 Q1012","temp":25,"dewp":25,"wdir":280,"wspd":4,"visib":"6+","altim":1012,"clouds":[{"cover":"FEW","base":1000},{"cover":"BKN","base":4200}],"obsTime":1776603600},"SBNT":{"icaoId":"SBNT","flightCategory":"MVFR","rawOb":"METAR SBNT 191300Z 17005KT 130V200 9999 VCSH SCT008 BKN017 FEW030TCU BKN040 26/25 Q1011","temp":26,"dewp":25,"wdir":170,"wspd":5,"visib":"6+","altim":1011,"clouds":[{"cover":"SCT","base":800},{"cover":"BKN","base":1700},{"cover":"FEW","base":3000},{"cover":"BKN","base":4000}],"obsTime":1776603600},"SBPA":{"icaoId":"SBPA","flightCategory":"VFR","rawOb":"METAR SBPA 191300Z 28006KT 250V310 CAVOK 21/17 Q1014","temp":21,"dewp":17,"wdir":280,"wspd":6,"visib":"6+","altim":1014,"clouds":[],"obsTime":1776603600},"SBPJ":{"icaoId":"SBPJ","flightCategory":"VFR","rawOb":"METAR SBPJ 191300Z 16005KT 9999 FEW012 BKN100 26/23 Q1013","temp":26,"dewp":23,"wdir":160,"wspd":5,"visib":"6+","altim":1013,"clouds":[{"cover":"FEW","base":1200},{"cover":"BKN","base":10000}],"obsTime":1776603600},"SBAT":{"icaoId":"SBAT","flightCategory":"VFR","rawOb":"METAR SBAT 191300Z 00000KT 9999 -RA SCT005 BKN090 25/25 Q1014","temp":25,"dewp":25,"wdir":0,"wspd":0,"visib":"6+","altim":1014,"clouds":[{"cover":"SCT","base":500},{"cover":"BKN","base":9000}],"obsTime":1776603600},"SBRB":{"icaoId":"SBRB","flightCategory":"LIFR","rawOb":"METAR SBRB 191300Z 34004KT 8000 BKN003 BKN009 25/24 Q1012","temp":25,"dewp":24,"wdir":340,"wspd":4,"visib":4.97,"altim":1012,"clouds":[{"cover":"BKN","base":300},{"cover":"BKN","base":900}],"obsTime":1776603600},"SBRF":{"icaoId":"SBRF","flightCategory":"VFR","rawOb":"METAR SBRF 191300Z 14008KT 9999 SCT021 30/24 Q1010","temp":30,"dewp":24,"wdir":140,"wspd":8,"visib":"6+","altim":1010,"clouds":[{"cover":"SCT","base":2100}],"obsTime":1776603600},"SBSG":{"icaoId":"SBSG","flightCategory":"IFR","rawOb":"METAR SBSG 191300Z 17004KT 130V220 9999 VCSH BKN007 BKN023 BKN100 26/25 Q1011","temp":26,"dewp":25,"wdir":170,"wspd":4,"visib":"6+","altim":1011,"clouds":[{"cover":"BKN","base":700},{"cover":"BKN","base":2300},{"cover":"BKN","base":10000}],"obsTime":1776603600},"SBSL":{"icaoId":"SBSL","flightCategory":"IFR","rawOb":"METAR SBSL 191300Z 08004KT 9999 BKN008 BKN015 FEW020TCU BKN080 25/25 Q1011","temp":25,"dewp":25,"wdir":80,"wspd":4,"visib":"6+","altim":1011,"clouds":[{"cover":"BKN","base":800},{"cover":"BKN","base":1500},{"cover":"FEW","base":2000},{"cover":"BKN","base":8000}],"obsTime":1776603600},"SBSN":{"icaoId":"SBSN","flightCategory":"MVFR","rawOb":"METAR SBSN 191300Z 16002KT 9999 BKN015 BKN100 27/24 Q1012","temp":27,"dewp":24,"wdir":160,"wspd":2,"visib":"6+","altim":1012,"clouds":[{"cover":"BKN","base":1500},{"cover":"BKN","base":10000}],"obsTime":1776603600},"SBSP":{"icaoId":"SBSP","flightCategory":"VFR","rawOb":"METAR SBSP 191300Z 16007KT CAVOK 23/13 Q1018","temp":23,"dewp":13,"wdir":160,"wspd":7,"visib":"6+","altim":1018,"clouds":[],"obsTime":1776603600},"SBSV":{"icaoId":"SBSV","flightCategory":"MVFR","rawOb":"METAR SBSV 191300Z 09006KT 060V120 9999 VCSH BKN021 FEW023TCU 30/23 Q1012","temp":30,"dewp":23,"wdir":90,"wspd":6,"visib":"6+","altim":1012,"clouds":[{"cover":"BKN","base":2100},{"cover":"FEW","base":2300}],"obsTime":1776603600},"SBTE":{"icaoId":"SBTE","flightCategory":"MVFR","rawOb":"METAR SBTE 191300Z 34003KT 9999 BKN018 BKN080 27/24 Q1012","temp":27,"dewp":24,"wdir":340,"wspd":3,"visib":"6+","altim":1012,"clouds":[{"cover":"BKN","base":1800},{"cover":"BKN","base":8000}],"obsTime":1776603600},"SBUL":{"icaoId":"SBUL","flightCategory":"VFR","rawOb":"METAR SBUL 191300Z 13003KT CAVOK 27/16 Q1017","temp":27,"dewp":16,"wdir":130,"wspd":3,"visib":"6+","altim":1017,"clouds":[],"obsTime":1776603600},"SBUR":{"icaoId":"SBUR","flightCategory":"VFR","rawOb":"METAR SBUR 191300Z 34004KT CAVOK 27/17 Q1016","temp":27,"dewp":17,"wdir":340,"wspd":4,"visib":"6+","altim":1016,"clouds":[],"obsTime":1776603600},"SBVT":{"icaoId":"SBVT","flightCategory":"VFR","rawOb":"METAR SBVT 191300Z 34004KT CAVOK 30/22 Q1010","temp":30,"dewp":22,"wdir":340,"wspd":4,"visib":"6+","altim":1010,"clouds":[],"obsTime":1776603600},"SBOI":{"icaoId":"SBOI","flightCategory":"MVFR","rawOb":"SPECI SBOI 191309Z AUTO 35005KT 8000 RA FEW007 OVC010 25/25 Q1012","temp":25,"dewp":25,"wdir":350,"wspd":5,"visib":4.97,"altim":1012,"clouds":[{"cover":"FEW","base":700},{"cover":"OVC","base":1000}],"obsTime":1776604140},"SBBH":{"icaoId":"SBBH","flightCategory":"VFR","rawOb":"METAR SBBH 191300Z 00000KT CAVOK 26/17 Q1016","temp":26,"dewp":17,"wdir":0,"wspd":0,"visib":"6+","altim":1016,"clouds":[],"obsTime":1776603600},"SBKG":{"icaoId":"SBKG","flightCategory":"MVFR","rawOb":"METAR SBKG 191300Z 11007KT 9999 BKN018 BKN070 27/23 Q1013","temp":27,"dewp":23,"wdir":110,"wspd":7,"visib":"6+","altim":1013,"clouds":[{"cover":"BKN","base":1800},{"cover":"BKN","base":7000}],"obsTime":1776603600},"SBAR":{"icaoId":"SBAR","flightCategory":"VFR","rawOb":"METAR SBAR 191300Z 10004KT 020V130 9999 VCSH SCT020 FEW024TCU SCT040 29/24 Q1011","temp":29,"dewp":24,"wdir":100,"wspd":4,"visib":"6+","altim":1011,"clouds":[{"cover":"SCT","base":2000},{"cover":"FEW","base":2400},{"cover":"SCT","base":4000}],"obsTime":1776603600},"SBAX":{"icaoId":"SBAX","flightCategory":"VFR","rawOb":"METAR SBAX 191300Z AUTO VRB02KT CAVOK 25/18 Q1018","temp":25,"dewp":18,"wdir":"VRB","wspd":2,"visib":"6+","altim":1018,"clouds":[],"obsTime":1776603600},"SBPB":{"icaoId":"SBPB","flightCategory":"MVFR","rawOb":"METAR SBPB 191300Z 11014KT 9999 BKN020 27/23 Q1012","temp":27,"dewp":23,"wdir":110,"wspd":14,"visib":"6+","altim":1012,"clouds":[{"cover":"BKN","base":2000}],"obsTime":1776603600},"SBPL":{"icaoId":"SBPL","flightCategory":"VFR","rawOb":"METAR SBPL 191300Z 12008KT 9999 SCT025 29/21 Q1013","temp":29,"dewp":21,"wdir":120,"wspd":8,"visib":"6+","altim":1013,"clouds":[{"cover":"SCT","base":2500}],"obsTime":1776603600},"SBCJ":{"icaoId":"SBCJ","flightCategory":"LIFR","rawOb":"SPECI SBCJ 191235Z 09005KT 1200 RA BR SCT006 OVC080 21/20 Q1017","temp":21,"dewp":20,"wdir":90,"wspd":5,"visib":0.75,"altim":1017,"clouds":[{"cover":"SCT","base":600},{"cover":"OVC","base":8000}],"obsTime":1776602100},"SBPP":{"icaoId":"SBPP","flightCategory":"VFR","rawOb":"METAR SBPP 191300Z 03008KT CAVOK 26/22 Q1015","temp":26,"dewp":22,"wdir":30,"wspd":8,"visib":"6+","altim":1015,"clouds":[],"obsTime":1776603600},"SBCO":{"icaoId":"SBCO","flightCategory":"VFR","rawOb":"METAR SBCO 191300Z 28005KT CAVOK 21/15 Q1015","temp":21,"dewp":15,"wdir":280,"wspd":5,"visib":"6+","altim":1015,"clouds":[],"obsTime":1776603600},"SBPS":{"icaoId":"SBPS","flightCategory":"VFR","rawOb":"METAR SBPS 191300Z 29004KT 9999 FEW020 28/23 Q1012","temp":28,"dewp":23,"wdir":290,"wspd":4,"visib":"6+","altim":1012,"clouds":[{"cover":"FEW","base":2000}],"obsTime":1776603600},"SBSC":{"icaoId":"SBSC","flightCategory":"VFR","rawOb":"METAR SBSC 191300Z 19006KT 9999 FEW040 27/21 Q1013","temp":27,"dewp":21,"wdir":190,"wspd":6,"visib":"6+","altim":1013,"clouds":[{"cover":"FEW","base":4000}],"obsTime":1776603600},"SBBU":{"icaoId":"SBBU","flightCategory":"VFR","rawOb":"METAR SBBU 191300Z 09005KT CAVOK 26/20 Q1015","temp":26,"dewp":20,"wdir":90,"wspd":5,"visib":"6+","altim":1015,"clouds":[],"obsTime":1776603600},"SBDN":{"icaoId":"SBDN","flightCategory":"VFR","rawOb":"METAR SBDN 191300Z 06002KT CAVOK 30/19 Q1014","temp":30,"dewp":19,"wdir":60,"wspd":2,"visib":"6+","altim":1014,"clouds":[],"obsTime":1776603600},"SBSJ":{"icaoId":"SBSJ","flightCategory":"VFR","rawOb":"METAR SBSJ 191300Z 13003KT CAVOK 24/16 Q1017","temp":24,"dewp":16,"wdir":130,"wspd":3,"visib":"6+","altim":1017,"clouds":[],"obsTime":1776603600},"SBCA":{"icaoId":"SBCA","flightCategory":"VFR","rawOb":"METAR SBCA 191300Z 01007KT 340V040 CAVOK 25/17 Q1017","temp":25,"dewp":17,"wdir":10,"wspd":7,"visib":"6+","altim":1017,"clouds":[],"obsTime":1776603600},"SBSM":{"icaoId":"SBSM","flightCategory":"VFR","rawOb":"METAR SBSM 191300Z VRB02KT CAVOK 21/17 Q1015","temp":21,"dewp":17,"wdir":"VRB","wspd":2,"visib":"6+","altim":1015,"clouds":[],"obsTime":1776603600},"SBSR":{"icaoId":"SBSR","flightCategory":"VFR","rawOb":"METAR SBSR 191300Z 00000KT CAVOK 28/18 Q1015","temp":28,"dewp":18,"wdir":0,"wspd":0,"visib":"6+","altim":1015,"clouds":[],"obsTime":1776603600},"SBES":{"icaoId":"SBES","flightCategory":"VFR","rawOb":"METAR SBES 191300Z 24008KT 130V290 9999 FEW015 27/// Q1012","temp":null,"dewp":null,"wdir":240,"wspd":8,"visib":"6+","altim":1012,"clouds":[{"cover":"FEW","base":1500}],"obsTime":1776603600},"SBTF":{"icaoId":"SBTF","flightCategory":"VFR","rawOb":"METAR SBTF 191300Z 05002KT 9999 -RA SCT007 OVC100 25/25 Q1012","temp":25,"dewp":25,"wdir":50,"wspd":2,"visib":"6+","altim":1012,"clouds":[{"cover":"SCT","base":700},{"cover":"OVC","base":10000}],"obsTime":1776603600},"SBBQ":{"icaoId":"SBBQ","flightCategory":"VFR","rawOb":"METAR SBBQ 191300Z VRB03KT 9999 FEW015 23/17 Q1019","temp":23,"dewp":17,"wdir":"VRB","wspd":3,"visib":"6+","altim":1019,"clouds":[{"cover":"FEW","base":1500}],"obsTime":1776603600},"SBGM":{"icaoId":"SBGM","flightCategory":"VFR","rawOb":"METAR SBGM 191300Z 31005KT 280V350 9999 FEW020 27/23 Q1011","temp":27,"dewp":23,"wdir":310,"wspd":5,"visib":"6+","altim":1011,"clouds":[{"cover":"FEW","base":2000}],"obsTime":1776603600},"SBTT":{"icaoId":"SBTT","flightCategory":"VFR","rawOb":"METAR SBTT 191300Z 05003KT 9999 FEW010 BKN090 24/21 Q1012","temp":24,"dewp":21,"wdir":50,"wspd":3,"visib":"6+","altim":1012,"clouds":[{"cover":"FEW","base":1000},{"cover":"BKN","base":9000}],"obsTime":1776603600},"SBCC":{"icaoId":"SBCC","flightCategory":"MVFR","rawOb":"METAR SBCC 191300Z 31007KT 280V350 9999 SCT010 BKN020 BKN080 24/22 Q1014","temp":24,"dewp":22,"wdir":310,"wspd":7,"visib":"6+","altim":1014,"clouds":[{"cover":"SCT","base":1000},{"cover":"BKN","base":2000},{"cover":"BKN","base":8000}],"obsTime":1776603600},"SBUY":{"icaoId":"SBUY","flightCategory":"IFR","rawOb":"METAR SBUY 191300Z 05004KT 4000 -RA SCT025 BKN070 23/22 Q1011 RERA","temp":23,"dewp":22,"wdir":50,"wspd":4,"visib":2.49,"altim":1011,"clouds":[{"cover":"SCT","base":2500},{"cover":"BKN","base":7000}],"obsTime":1776603600},"SBVH":{"icaoId":"SBVH","flightCategory":"VFR","rawOb":"METAR SBVH 191300Z 32006KT 9999 SCT005 SCT020 BKN080 23/22 Q1014","temp":23,"dewp":22,"wdir":320,"wspd":6,"visib":"6+","altim":1014,"clouds":[{"cover":"SCT","base":500},{"cover":"SCT","base":2000},{"cover":"BKN","base":8000}],"obsTime":1776603600},"SBIP":{"icaoId":"SBIP","flightCategory":"VFR","rawOb":"METAR SBIP 191300Z AUTO 02005KT 330V050 CAVOK 27/19 Q1013","temp":27,"dewp":19,"wdir":20,"wspd":5,"visib":"6+","altim":1013,"clouds":[],"obsTime":1776603600},"SBJP":{"icaoId":"SBJP","flightCategory":"MVFR","rawOb":"METAR SBJP 191300Z 12004KT 9999 BKN020 27/24 Q1011","temp":27,"dewp":24,"wdir":120,"wspd":4,"visib":"6+","altim":1011,"clouds":[{"cover":"BKN","base":2000}],"obsTime":1776603600},"SBAN":{"icaoId":"SBAN","flightCategory":"VFR","rawOb":"METAR SBAN 191300Z 10004KT CAVOK 26/18 Q1019","temp":26,"dewp":18,"wdir":100,"wspd":4,"visib":"6+","altim":1019,"clouds":[],"obsTime":1776603600},"SBIH":{"icaoId":"SBIH","flightCategory":"VFR","rawOb":"METAR SBIH 191300Z 00000KT 9999 SCT016 27/24 Q1012","temp":27,"dewp":24,"wdir":0,"wspd":0,"visib":"6+","altim":1012,"clouds":[{"cover":"SCT","base":1600}],"obsTime":1776603600},"SBJV":{"icaoId":"SBJV","flightCategory":"VFR","rawOb":"METAR SBJV 191300Z 26002KT 9999 FEW020 26/20 Q1014","temp":26,"dewp":20,"wdir":260,"wspd":2,"visib":"6+","altim":1014,"clouds":[{"cover":"FEW","base":2000}],"obsTime":1776603600},"SBPF":{"icaoId":"SBPF","flightCategory":"VFR","rawOb":"METAR SBPF 191300Z 03010KT CAVOK 20/11 Q1017","temp":20,"dewp":11,"wdir":30,"wspd":10,"visib":"6+","altim":1017,"clouds":[],"obsTime":1776603600},"SBLE":{"icaoId":"SBLE","flightCategory":"MVFR","rawOb":"METAR SBLE 191300Z AUTO 22004KT 190V270 9999 FEW007 BKN017 OVC022 ///// Q////","temp":null,"dewp":null,"wdir":220,"wspd":4,"visib":"6+","altim":null,"clouds":[{"cover":"FEW","base":700},{"cover":"BKN","base":1700},{"cover":"OVC","base":2200}],"obsTime":1776603600},"SBAF":{"icaoId":"SBAF","flightCategory":"VFR","rawOb":"METAR SBAF 191300Z 12002KT 9999 FEW030 BKN060 27/22 Q1013","temp":27,"dewp":22,"wdir":120,"wspd":2,"visib":"6+","altim":1013,"clouds":[{"cover":"FEW","base":3000},{"cover":"BKN","base":6000}],"obsTime":1776603600},"SBGW":{"icaoId":"SBGW","flightCategory":"VFR","rawOb":"METAR SBGW 191300Z 24004KT 9999 SCT017 24/17 Q1016","temp":24,"dewp":17,"wdir":240,"wspd":4,"visib":"6+","altim":1016,"clouds":[{"cover":"SCT","base":1700}],"obsTime":1776603600},"SBJR":{"icaoId":"SBJR","flightCategory":"VFR","rawOb":"METAR SBJR 191300Z 25004KT 9999 SCT025 SCT060 29/22 Q1013","temp":29,"dewp":22,"wdir":250,"wspd":4,"visib":"6+","altim":1013,"clouds":[{"cover":"SCT","base":2500},{"cover":"SCT","base":6000}],"obsTime":1776603600},"SBLS":{"icaoId":"SBLS","flightCategory":"VFR","rawOb":"METAR SBLS 191300Z VRB02KT CAVOK 26/16 Q1016","temp":26,"dewp":16,"wdir":"VRB","wspd":2,"visib":"6+","altim":1016,"clouds":[],"obsTime":1776603600},"SBMT":{"icaoId":"SBMT","flightCategory":"VFR","rawOb":"METAR SBMT 191300Z 09007KT 050V130 CAVOK 23/13 Q1017","temp":23,"dewp":13,"wdir":90,"wspd":7,"visib":"6+","altim":1017,"clouds":[],"obsTime":1776603600},"SBST":{"icaoId":"SBST","flightCategory":"VFR","rawOb":"METAR SBST 191300Z 31003KT 9999 FEW025 25/23 Q1014","temp":25,"dewp":23,"wdir":310,"wspd":3,"visib":"6+","altim":1014,"clouds":[{"cover":"FEW","base":2500}],"obsTime":1776603600},"SBTA":{"icaoId":"SBTA","flightCategory":"VFR","rawOb":"METAR SBTA 191300Z 30003KT 240V350 9999 FEW025 25/17 Q1016","temp":25,"dewp":17,"wdir":300,"wspd":3,"visib":"6+","altim":1016,"clouds":[{"cover":"FEW","base":2500}],"obsTime":1776603600}}}