{"updated":1775205522,"count":51,"data":{"SBSV":{"icaoId":"SBSV","flightCategory":"VFR","rawOb":"METAR SBSV 030700Z 27003KT 9999 VCSH SCT023 FEW025TCU 24/23 Q1013","temp":24,"dewp":23,"wdir":270,"wspd":3,"visib":"6+","altim":1013,"clouds":[{"cover":"SCT","base":2300},{"cover":"FEW","base":2500}],"obsTime":1775199600},"SBSN":{"icaoId":"SBSN","flightCategory":"VFR","rawOb":"METAR SBSN 030700Z 12004KT CAVOK 24/23 Q1010","temp":24,"dewp":23,"wdir":120,"wspd":4,"visib":"6+","altim":1010,"clouds":[],"obsTime":1775199600},"SBMO":{"icaoId":"SBMO","flightCategory":"VFR","rawOb":"METAR SBMO 030700Z 28003KT 9999 SCT020 24/24 Q1013 RERA","temp":24,"dewp":24,"wdir":280,"wspd":3,"visib":"6+","altim":1013,"clouds":[{"cover":"SCT","base":2000}],"obsTime":1775199600},"SBMQ":{"icaoId":"SBMQ","flightCategory":"VFR","rawOb":"METAR SBMQ 030700Z 11002KT 9999 FEW013 25/24 Q1010","temp":25,"dewp":24,"wdir":110,"wspd":2,"visib":"6+","altim":1010,"clouds":[{"cover":"FEW","base":1300}],"obsTime":1775199600},"SBCT":{"icaoId":"SBCT","flightCategory":"MVFR","rawOb":"METAR SBCT 030700Z 02005KT 9999 BKN012 18/18 Q1017","temp":18,"dewp":18,"wdir":20,"wspd":5,"visib":"6+","altim":1017,"clouds":[{"cover":"BKN","base":1200}],"obsTime":1775199600},"SBNT":{"icaoId":"SBNT","flightCategory":"VFR","rawOb":"METAR SBNT 030700Z 17003KT 090V220 9999 VCSH SCT020 SCT070 25/24 Q1011","temp":25,"dewp":24,"wdir":170,"wspd":3,"visib":"6+","altim":1011,"clouds":[{"cover":"SCT","base":2000},{"cover":"SCT","base":7000}],"obsTime":1775199600},"SBGL":{"icaoId":"SBGL","flightCategory":"VFR","rawOb":"METAR SBGL 030700Z 03003KT 9999 FEW030 BKN100 23/21 Q1013","temp":23,"dewp":21,"wdir":30,"wspd":3,"visib":"6+","altim":1013,"clouds":[{"cover":"FEW","base":3000},{"cover":"BKN","base":10000}],"obsTime":1775199600},"SBBE":{"icaoId":"SBBE","flightCategory":"VFR","rawOb":"METAR SBBE 030700Z 10003KT CAVOK 24/24 Q1011","temp":24,"dewp":24,"wdir":100,"wspd":3,"visib":"6+","altim":1011,"clouds":[],"obsTime":1775199600},"SBPA":{"icaoId":"SBPA","flightCategory":"MVFR","rawOb":"METAR SBPA 030700Z 09003KT 8000 FEW009 22/21 Q1011","temp":22,"dewp":21,"wdir":90,"wspd":3,"visib":4.97,"altim":1011,"clouds":[{"cover":"FEW","base":900}],"obsTime":1775199600},"SBPJ":{"icaoId":"SBPJ","flightCategory":"VFR","rawOb":"METAR SBPJ 030700Z 14004KT 9999 FEW030 BKN100 23/21 Q1013","temp":23,"dewp":21,"wdir":140,"wspd":4,"visib":"6+","altim":1013,"clouds":[{"cover":"FEW","base":3000},{"cover":"BKN","base":10000}],"obsTime":1775199600},"SBGO":{"icaoId":"SBGO","flightCategory":"VFR","rawOb":"METAR SBGO 030700Z 13005KT 9999 FEW004 BKN100 21/20 Q1018","temp":21,"dewp":20,"wdir":130,"wspd":5,"visib":"6+","altim":1018,"clouds":[{"cover":"FEW","base":400},{"cover":"BKN","base":10000}],"obsTime":1775199600},"SBBR":{"icaoId":"SBBR","flightCategory":"VFR","rawOb":"METAR SBBR 030700Z 07003KT 9999 -RA SCT010 BKN090 20/19 Q1019","temp":20,"dewp":19,"wdir":70,"wspd":3,"visib":"6+","altim":1019,"clouds":[{"cover":"SCT","base":1000},{"cover":"BKN","base":9000}],"obsTime":1775199600},"SBPV":{"icaoId":"SBPV","flightCategory":"VFR","rawOb":"METAR SBPV 030700Z 14001KT CAVOK 24/23 Q1011","temp":24,"dewp":23,"wdir":140,"wspd":1,"visib":"6+","altim":1011,"clouds":[],"obsTime":1775199600},"SBGR":{"icaoId":"SBGR","flightCategory":"VFR","rawOb":"METAR SBGR 030700Z 07006KT 9999 FEW002 19/19 Q1017","temp":19,"dewp":19,"wdir":70,"wspd":6,"visib":"6+","altim":1017,"clouds":[{"cover":"FEW","base":200}],"obsTime":1775199600},"SBRB":{"icaoId":"SBRB","flightCategory":"VFR","rawOb":"METAR SBRB 030700Z 29004KT 9999 FEW025 SCT100 24/23 Q1011","temp":24,"dewp":23,"wdir":290,"wspd":4,"visib":"6+","altim":1011,"clouds":[{"cover":"FEW","base":2500},{"cover":"SCT","base":10000}],"obsTime":1775199600},"SBRF":{"icaoId":"SBRF","flightCategory":"VFR","rawOb":"METAR SBRF 030700Z 28001KT 9999 SCT022 SCT060 25/24 Q1012","temp":25,"dewp":24,"wdir":280,"wspd":1,"visib":"6+","altim":1012,"clouds":[{"cover":"SCT","base":2200},{"cover":"SCT","base":6000}],"obsTime":1775199600},"SBEG":{"icaoId":"SBEG","flightCategory":"VFR","rawOb":"METAR SBEG 030700Z 00000KT 9999 FEW010 BKN100 25/24 Q1010","temp":25,"dewp":24,"wdir":0,"wspd":0,"visib":"6+","altim":1010,"clouds":[{"cover":"FEW","base":1000},{"cover":"BKN","base":10000}],"obsTime":1775199600},"SBSG":{"icaoId":"SBSG","flightCategory":"MVFR","rawOb":"METAR SBSG 030700Z VRB02KT 9999 BKN023 SCT100 24/24 Q1012","temp":24,"dewp":24,"wdir":"VRB","wspd":2,"visib":"6+","altim":1012,"clouds":[{"cover":"BKN","base":2300},{"cover":"SCT","base":10000}],"obsTime":1775199600},"SBJU":{"icaoId":"SBJU","flightCategory":"MVFR","rawOb":"METAR SBJU 030700Z 00000KT 9999 BKN020 23/22 Q1014","temp":23,"dewp":22,"wdir":0,"wspd":0,"visib":"6+","altim":1014,"clouds":[{"cover":"BKN","base":2000}],"obsTime":1775199600},"SBSL":{"icaoId":"SBSL","flightCategory":"MVFR","rawOb":"METAR SBSL 030700Z 17005KT 6000 SCT003 SCT017 24/23 Q1011","temp":24,"dewp":23,"wdir":170,"wspd":5,"visib":3.73,"altim":1011,"clouds":[{"cover":"SCT","base":300},{"cover":"SCT","base":1700}],"obsTime":1775199600},"SBFI":{"icaoId":"SBFI","flightCategory":"VFR","rawOb":"METAR SBFI 030700Z 13003KT 9999 FEW030 22/22 Q1012","temp":22,"dewp":22,"wdir":130,"wspd":3,"visib":"6+","altim":1012,"clouds":[{"cover":"FEW","base":3000}],"obsTime":1775199600},"SBSP":{"icaoId":"SBSP","flightCategory":"VFR","rawOb":"METAR SBSP 030700Z AUTO 05004KT CAVOK 20/18 Q1018","temp":20,"dewp":18,"wdir":50,"wspd":4,"visib":"6+","altim":1018,"clouds":[],"obsTime":1775199600},"SBKP":{"icaoId":"SBKP","flightCategory":"VFR","rawOb":"METAR SBKP 030700Z 14002KT CAVOK 20/19 Q1017","temp":20,"dewp":19,"wdir":140,"wspd":2,"visib":"6+","altim":1017,"clouds":[],"obsTime":1775199600},"SBLO":{"icaoId":"SBLO","flightCategory":"VFR","rawOb":"METAR SBLO 030700Z 17004KT CAVOK 20/20 Q1015","temp":20,"dewp":20,"wdir":170,"wspd":4,"visib":"6+","altim":1015,"clouds":[],"obsTime":1775199600},"SBCG":{"icaoId":"SBCG","flightCategory":"VFR","rawOb":"METAR SBCG 030700Z 05006KT CAVOK 22/19 Q1014","temp":22,"dewp":19,"wdir":50,"wspd":6,"visib":"6+","altim":1014,"clouds":[],"obsTime":1775199600},"SBFZ":{"icaoId":"SBFZ","flightCategory":"VFR","rawOb":"METAR SBFZ 030700Z 19004KT CAVOK 25/23 Q1010","temp":25,"dewp":23,"wdir":190,"wspd":4,"visib":"6+","altim":1010,"clouds":[],"obsTime":1775199600},"SBMK":{"icaoId":"SBMK","flightCategory":"VFR","rawOb":"METAR SBMK 030800Z 00000KT CAVOK 19/17 Q1018","temp":19,"dewp":17,"wdir":0,"wspd":0,"visib":"6+","altim":1018,"clouds":[],"obsTime":1775203200},"SBCF":{"icaoId":"SBCF","flightCategory":"VFR","rawOb":"METAR SBCF 030700Z 09003KT CAVOK 21/18 Q1019","temp":21,"dewp":18,"wdir":90,"wspd":3,"visib":"6+","altim":1019,"clouds":[],"obsTime":1775199600},"SBTE":{"icaoId":"SBTE","flightCategory":"IFR","rawOb":"METAR SBTE 030700Z 08002KT 9999 -RA BKN005 24/23 Q1011","temp":24,"dewp":23,"wdir":80,"wspd":2,"visib":"6+","altim":1011,"clouds":[{"cover":"BKN","base":500}],"obsTime":1775199600},"SBUL":{"icaoId":"SBUL","flightCategory":"VFR","rawOb":"METAR SBUL 030700Z 20002KT 9999 FEW030 19/18 Q1020","temp":19,"dewp":18,"wdir":200,"wspd":2,"visib":"6+","altim":1020,"clouds":[{"cover":"FEW","base":3000}],"obsTime":1775199600},"SBFL":{"icaoId":"SBFL","flightCategory":"VFR","rawOb":"METAR SBFL 030700Z 30008KT CAVOK 23/19 Q1011","temp":23,"dewp":19,"wdir":300,"wspd":8,"visib":"6+","altim":1011,"clouds":[],"obsTime":1775199600},"SBUR":{"icaoId":"SBUR","flightCategory":"VFR","rawOb":"METAR SBUR 030700Z 05006KT 9999 -RA FEW042 20/19 Q1019 RETS","temp":20,"dewp":19,"wdir":50,"wspd":6,"visib":"6+","altim":1019,"clouds":[{"cover":"FEW","base":4200}],"obsTime":1775199600},"SBMA":{"icaoId":"SBMA","flightCategory":"LIFR","rawOb":"METAR SBMA 030700Z 36003KT 1600 BR VV002 23/23 Q1010","temp":23,"dewp":23,"wdir":360,"wspd":3,"visib":0.99,"altim":1010,"clouds":[{"cover":"OVX","base":200}],"obsTime":1775199600},"SBME":{"icaoId":"SBME","flightCategory":"VFR","rawOb":"METAR SBME 030700Z 05008KT CAVOK 25/23 Q1013","temp":25,"dewp":23,"wdir":50,"wspd":8,"visib":"6+","altim":1013,"clouds":[],"obsTime":1775199600},"SBBV":{"icaoId":"SBBV","flightCategory":"VFR","rawOb":"METAR SBBV 030700Z 09008KT 9999 FEW045 BKN090 27/23 Q1010","temp":27,"dewp":23,"wdir":90,"wspd":8,"visib":"6+","altim":1010,"clouds":[{"cover":"FEW","base":4500},{"cover":"BKN","base":9000}],"obsTime":1775199600},"SBMG":{"icaoId":"SBMG","flightCategory":"VFR","rawOb":"METAR SBMG 030700Z AUTO 03004KT CAVOK 22/19 Q1014","temp":22,"dewp":19,"wdir":30,"wspd":4,"visib":"6+","altim":1014,"clouds":[],"obsTime":1775199600},"SBVT":{"icaoId":"SBVT","flightCategory":"VFR","rawOb":"METAR SBVT 030700Z 33003KT CAVOK 23/22 Q1015","temp":23,"dewp":22,"wdir":330,"wspd":3,"visib":"6+","altim":1015,"clouds":[],"obsTime":1775199600},"SBSJ":{"icaoId":"SBSJ","flightCategory":"LIFR","rawOb":"SPECI SBSJ 030830Z 00000KT 4000 BR BKN003 18/18 Q1018","temp":18,"dewp":18,"wdir":0,"wspd":0,"visib":2.49,"altim":1018,"clouds":[{"cover":"BKN","base":300}],"obsTime":1775205000},"SBAX":{"icaoId":"SBAX","flightCategory":"MVFR","rawOb":"METAR SBAX 030700Z AUTO 06003KT 010V100 9999 -RA VCTS FEW001 BKN019 BKN040 //////CB ///// Q1020","temp":null,"dewp":null,"wdir":60,"wspd":3,"visib":"6+","altim":1020,"clouds":[{"cover":"FEW","base":100},{"cover":"BKN","base":1900},{"cover":"BKN","base":4000}],"obsTime":1775199600},"SBOI":{"icaoId":"SBOI","flightCategory":"LIFR","rawOb":"METAR SBOI 030700Z AUTO 17001KT 0550 // VV001 24/23 Q1010","temp":24,"dewp":23,"wdir":170,"wspd":1,"visib":0.34,"altim":1010,"clouds":[{"cover":"OVX","base":100}],"obsTime":1775199600},"SBIP":{"icaoId":"SBIP","flightCategory":"VFR","rawOb":"METAR SBIP 030700Z AUTO 21003KT CAVOK 21/21 Q1016","temp":21,"dewp":21,"wdir":210,"wspd":3,"visib":"6+","altim":1016,"clouds":[],"obsTime":1775199600},"SBSC":{"icaoId":"SBSC","flightCategory":"VFR","rawOb":"METAR SBSC 030700Z 01004KT 9999 FEW020 SCT050 BKN100 22/21 Q1012","temp":22,"dewp":21,"wdir":10,"wspd":4,"visib":"6+","altim":1012,"clouds":[{"cover":"FEW","base":2000},{"cover":"SCT","base":5000},{"cover":"BKN","base":10000}],"obsTime":1775199600},"SBSR":{"icaoId":"SBSR","flightCategory":"VFR","rawOb":"METAR SBSR 030700Z 03003KT 9999 FEW030 SCT070 23/20 Q1016","temp":23,"dewp":20,"wdir":30,"wspd":3,"visib":"6+","altim":1016,"clouds":[{"cover":"FEW","base":3000},{"cover":"SCT","base":7000}],"obsTime":1775199600},"SBKG":{"icaoId":"SBKG","flightCategory":"VFR","rawOb":"METAR SBKG 030700Z 12002KT 9999 SCT010 SCT070 22/22 Q1015","temp":22,"dewp":22,"wdir":120,"wspd":2,"visib":"6+","altim":1015,"clouds":[{"cover":"SCT","base":1000},{"cover":"SCT","base":7000}],"obsTime":1775199600},"SBPL":{"icaoId":"SBPL","flightCategory":"MVFR","rawOb":"METAR SBPL 030700Z 12001KT 9999 BKN020 SCT070 24/23 Q1015 RETS","temp":24,"dewp":23,"wdir":120,"wspd":1,"visib":"6+","altim":1015,"clouds":[{"cover":"BKN","base":2000},{"cover":"SCT","base":7000}],"obsTime":1775199600},"SBAR":{"icaoId":"SBAR","flightCategory":"VFR","rawOb":"METAR SBAR 030700Z VRB03KT 9999 SCT017 FEW023TCU SCT080 25/24 Q1012","temp":25,"dewp":24,"wdir":"VRB","wspd":3,"visib":"6+","altim":1012,"clouds":[{"cover":"SCT","base":1700},{"cover":"FEW","base":2300},{"cover":"SCT","base":8000}],"obsTime":1775199600},"SBPS":{"icaoId":"SBPS","flightCategory":"VFR","rawOb":"METAR SBPS 030700Z 25004KT 9999 FEW020 BKN050 23/23 Q1015","temp":23,"dewp":23,"wdir":250,"wspd":4,"visib":"6+","altim":1015,"clouds":[{"cover":"FEW","base":2000},{"cover":"BKN","base":5000}],"obsTime":1775199600},"SBDN":{"icaoId":"SBDN","flightCategory":"VFR","rawOb":"METAR SBDN 030700Z 06006KT CAVOK 23/18 Q1014","temp":23,"dewp":18,"wdir":60,"wspd":6,"visib":"6+","altim":1014,"clouds":[],"obsTime":1775199600},"SBLE":{"icaoId":"SBLE","flightCategory":"MVFR","rawOb":"METAR SBLE 030700Z AUTO 09003KT 9999 SCT016 BKN022 OVC031 ///// Q////","temp":null,"dewp":null,"wdir":90,"wspd":3,"visib":"6+","altim":null,"clouds":[{"cover":"SCT","base":1600},{"cover":"BKN","base":2200},{"cover":"OVC","base":3100}],"obsTime":1775199600},"SBAN":{"icaoId":"SBAN","flightCategory":"VFR","rawOb":"METAR SBAN 030700Z 10002KT 9999 FEW020 SCT100 17/16 Q1021","temp":17,"dewp":16,"wdir":100,"wspd":2,"visib":"6+","altim":1021,"clouds":[{"cover":"FEW","base":2000},{"cover":"SCT","base":10000}],"obsTime":1775199600},"SBJP":{"icaoId":"SBJP","flightCategory":"VFR","rawOb":"METAR SBJP 030700Z 18002KT CAVOK 24/23 Q1012","temp":24,"dewp":23,"wdir":180,"wspd":2,"visib":"6+","altim":1012,"clouds":[],"obsTime":1775199600}}}