{"updated":1774739931,"count":73,"data":{"SBMO":{"icaoId":"SBMO","flightCategory":"VFR","rawOb":"METAR SBMO 282200Z VRB02KT 9000 -RA SCT020 FEW025TCU SCT065 25/24 Q1012","temp":25,"dewp":24,"wdir":"VRB","wspd":2,"visib":5.59,"altim":1012,"clouds":[{"cover":"SCT","base":2000},{"cover":"FEW","base":2500},{"cover":"SCT","base":6500}],"obsTime":1774735200},"SBBE":{"icaoId":"SBBE","flightCategory":"VFR","rawOb":"METAR SBBE 282200Z 10003KT 9999 SCT025 BKN090 27/24 Q1010","temp":27,"dewp":24,"wdir":100,"wspd":3,"visib":"6+","altim":1010,"clouds":[{"cover":"SCT","base":2500},{"cover":"BKN","base":9000}],"obsTime":1774735200},"SBBR":{"icaoId":"SBBR","flightCategory":"VFR","rawOb":"METAR SBBR 282200Z 14008KT 9999 FEW045 24/17 Q1019","temp":24,"dewp":17,"wdir":140,"wspd":8,"visib":"6+","altim":1019,"clouds":[{"cover":"FEW","base":4500}],"obsTime":1774735200},"SBBV":{"icaoId":"SBBV","flightCategory":"VFR","rawOb":"METAR SBBV 282200Z 32003KT 9999 SCT030 FEW035TCU SCT100 27/24 Q1009","temp":27,"dewp":24,"wdir":320,"wspd":3,"visib":"6+","altim":1009,"clouds":[{"cover":"SCT","base":3000},{"cover":"FEW","base":3500},{"cover":"SCT","base":10000}],"obsTime":1774735200},"SBCF":{"icaoId":"SBCF","flightCategory":"VFR","rawOb":"METAR SBCF 282200Z 12009KT CAVOK 24/17 Q1021","temp":24,"dewp":17,"wdir":120,"wspd":9,"visib":"6+","altim":1021,"clouds":[],"obsTime":1774735200},"SBCG":{"icaoId":"SBCG","flightCategory":"VFR","rawOb":"METAR SBCG 282200Z 32004KT 9999 VCSH FEW050 FEW055TCU 27/21 Q1016","temp":27,"dewp":21,"wdir":320,"wspd":4,"visib":"6+","altim":1016,"clouds":[{"cover":"FEW","base":5000},{"cover":"FEW","base":5500}],"obsTime":1774735200},"SBCT":{"icaoId":"SBCT","flightCategory":"VFR","rawOb":"METAR SBCT 282200Z 10004KT CAVOK 20/18 Q1023","temp":20,"dewp":18,"wdir":100,"wspd":4,"visib":"6+","altim":1023,"clouds":[],"obsTime":1774735200},"SBCZ":{"icaoId":"SBCZ","flightCategory":"LIFR","rawOb":"METAR SBCZ 282200Z 08011KT 0500 +TSRA BKN010 FEW025CB OVC080 23/23 Q1009 RERA","temp":23,"dewp":23,"wdir":80,"wspd":11,"visib":0.31,"altim":1009,"clouds":[{"cover":"BKN","base":1000},{"cover":"FEW","base":2500},{"cover":"OVC","base":8000}],"obsTime":1774735200},"SBEG":{"icaoId":"SBEG","flightCategory":"VFR","rawOb":"METAR SBEG 282200Z 27004KT 9999 FEW009 SCT080 26/25 Q1008","temp":26,"dewp":25,"wdir":270,"wspd":4,"visib":"6+","altim":1008,"clouds":[{"cover":"FEW","base":900},{"cover":"SCT","base":8000}],"obsTime":1774735200},"SBFI":{"icaoId":"SBFI","flightCategory":"VFR","rawOb":"METAR SBFI 282200Z 26002KT 9999 FEW045 30/24 Q1015","temp":30,"dewp":24,"wdir":260,"wspd":2,"visib":"6+","altim":1015,"clouds":[{"cover":"FEW","base":4500}],"obsTime":1774735200},"SBFL":{"icaoId":"SBFL","flightCategory":"VFR","rawOb":"METAR SBFL 282200Z 35010KT CAVOK 27/22 Q1017","temp":27,"dewp":22,"wdir":350,"wspd":10,"visib":"6+","altim":1017,"clouds":[],"obsTime":1774735200},"SBFZ":{"icaoId":"SBFZ","flightCategory":"VFR","rawOb":"METAR SBFZ 282200Z 08006KT 9999 FEW020 28/23 Q1010","temp":28,"dewp":23,"wdir":80,"wspd":6,"visib":"6+","altim":1010,"clouds":[{"cover":"FEW","base":2000}],"obsTime":1774735200},"SBGL":{"icaoId":"SBGL","flightCategory":"VFR","rawOb":"METAR SBGL 282200Z 14007KT 9999 FEW040 26/21 Q1018","temp":26,"dewp":21,"wdir":140,"wspd":7,"visib":"6+","altim":1018,"clouds":[{"cover":"FEW","base":4000}],"obsTime":1774735200},"SBGO":{"icaoId":"SBGO","flightCategory":"VFR","rawOb":"METAR SBGO 282200Z 10007KT 9999 FEW045 27/18 Q1017","temp":27,"dewp":18,"wdir":100,"wspd":7,"visib":"6+","altim":1017,"clouds":[{"cover":"FEW","base":4500}],"obsTime":1774735200},"SBGR":{"icaoId":"SBGR","flightCategory":"MVFR","rawOb":"METAR SBGR 282200Z 17006KT 9000 OVC015 23/19 Q1022","temp":23,"dewp":19,"wdir":170,"wspd":6,"visib":5.59,"altim":1022,"clouds":[{"cover":"OVC","base":1500}],"obsTime":1774735200},"SBIL":{"icaoId":"SBIL","flightCategory":"VFR","rawOb":"METAR SBIL 282200Z 24005KT 9999 FEW020 FEW025TCU SCT070 25/22 Q1015","temp":25,"dewp":22,"wdir":240,"wspd":5,"visib":"6+","altim":1015,"clouds":[{"cover":"FEW","base":2000},{"cover":"FEW","base":2500},{"cover":"SCT","base":7000}],"obsTime":1774735200},"SBJU":{"icaoId":"SBJU","flightCategory":"VFR","rawOb":"METAR SBJU 282200Z 00000KT 9999 FEW020 27/23 Q1013","temp":27,"dewp":23,"wdir":0,"wspd":0,"visib":"6+","altim":1013,"clouds":[{"cover":"FEW","base":2000}],"obsTime":1774735200},"SBKP":{"icaoId":"SBKP","flightCategory":"VFR","rawOb":"METAR SBKP 282200Z 15013KT CAVOK 28/19 Q1019","temp":28,"dewp":19,"wdir":150,"wspd":13,"visib":"6+","altim":1019,"clouds":[],"obsTime":1774735200},"SBLO":{"icaoId":"SBLO","flightCategory":"VFR","rawOb":"METAR SBLO 282200Z 15003KT 9999 FEW045 SCT070 29/18 Q1018","temp":29,"dewp":18,"wdir":150,"wspd":3,"visib":"6+","altim":1018,"clouds":[{"cover":"FEW","base":4500},{"cover":"SCT","base":7000}],"obsTime":1774735200},"SBMA":{"icaoId":"SBMA","flightCategory":"VFR","rawOb":"METAR SBMA 282200Z 00000KT 9999 VCTS FEW023CB 29/25 Q1009","temp":29,"dewp":25,"wdir":0,"wspd":0,"visib":"6+","altim":1009,"clouds":[{"cover":"FEW","base":2300}],"obsTime":1774735200},"SBME":{"icaoId":"SBME","flightCategory":"VFR","rawOb":"METAR SBME 282200Z 12003KT CAVOK 26/23 Q1018","temp":26,"dewp":23,"wdir":120,"wspd":3,"visib":"6+","altim":1018,"clouds":[],"obsTime":1774735200},"SBMG":{"icaoId":"SBMG","flightCategory":"VFR","rawOb":"METAR SBMG 282200Z 18005KT CAVOK 28/19 Q1017","temp":28,"dewp":19,"wdir":180,"wspd":5,"visib":"6+","altim":1017,"clouds":[],"obsTime":1774735200},"SBMK":{"icaoId":"SBMK","flightCategory":"VFR","rawOb":"METAR SBMK 282200Z 10007KT 9999 FEW030 SCT080 25/18 Q1018","temp":25,"dewp":18,"wdir":100,"wspd":7,"visib":"6+","altim":1018,"clouds":[{"cover":"FEW","base":3000},{"cover":"SCT","base":8000}],"obsTime":1774735200},"SBMQ":{"icaoId":"SBMQ","flightCategory":"VFR","rawOb":"METAR SBMQ 282200Z 01005KT 9999 FEW015 29/26 Q1010","temp":29,"dewp":26,"wdir":10,"wspd":5,"visib":"6+","altim":1010,"clouds":[{"cover":"FEW","base":1500}],"obsTime":1774735200},"SBNT":{"icaoId":"SBNT","flightCategory":"VFR","rawOb":"METAR SBNT 282200Z 11004KT 9999 FEW023 27/22 Q1011","temp":27,"dewp":22,"wdir":110,"wspd":4,"visib":"6+","altim":1011,"clouds":[{"cover":"FEW","base":2300}],"obsTime":1774735200},"SBPA":{"icaoId":"SBPA","flightCategory":"VFR","rawOb":"METAR SBPA 282200Z 12007KT 090V160 CAVOK 30/23 Q1015","temp":30,"dewp":23,"wdir":120,"wspd":7,"visib":"6+","altim":1015,"clouds":[],"obsTime":1774735200},"SBPJ":{"icaoId":"SBPJ","flightCategory":"VFR","rawOb":"METAR SBPJ 282200Z 13002KT 9999 FEW030 28/24 Q1010","temp":28,"dewp":24,"wdir":130,"wspd":2,"visib":"6+","altim":1010,"clouds":[{"cover":"FEW","base":3000}],"obsTime":1774735200},"SBPV":{"icaoId":"SBPV","flightCategory":"MVFR","rawOb":"METAR SBPV 282200Z 25001KT 9999 BKN016 BKN025 FEW030TCU 25/23 Q1010","temp":25,"dewp":23,"wdir":250,"wspd":1,"visib":"6+","altim":1010,"clouds":[{"cover":"BKN","base":1600},{"cover":"BKN","base":2500},{"cover":"FEW","base":3000}],"obsTime":1774735200},"SBRB":{"icaoId":"SBRB","flightCategory":"MVFR","rawOb":"METAR SBRB 282200Z 09002KT 6000 SCT005 BKN015 FEW030TCU BKN100 23/22 Q1010","temp":23,"dewp":22,"wdir":90,"wspd":2,"visib":3.73,"altim":1010,"clouds":[{"cover":"SCT","base":500},{"cover":"BKN","base":1500},{"cover":"FEW","base":3000},{"cover":"BKN","base":10000}],"obsTime":1774735200},"SBRF":{"icaoId":"SBRF","flightCategory":"VFR","rawOb":"METAR SBRF 282200Z 11005KT 9999 FEW025 28/24 Q1012","temp":28,"dewp":24,"wdir":110,"wspd":5,"visib":"6+","altim":1012,"clouds":[{"cover":"FEW","base":2500}],"obsTime":1774735200},"SBSG":{"icaoId":"SBSG","flightCategory":"VFR","rawOb":"METAR SBSG 282200Z 11004KT 9999 SCT025 26/22 Q1012","temp":26,"dewp":22,"wdir":110,"wspd":4,"visib":"6+","altim":1012,"clouds":[{"cover":"SCT","base":2500}],"obsTime":1774735200},"SBSL":{"icaoId":"SBSL","flightCategory":"VFR","rawOb":"METAR SBSL 282200Z 10008KT 9999 FEW035 BKN080 27/24 Q1010","temp":27,"dewp":24,"wdir":100,"wspd":8,"visib":"6+","altim":1010,"clouds":[{"cover":"FEW","base":3500},{"cover":"BKN","base":8000}],"obsTime":1774735200},"SBSN":{"icaoId":"SBSN","flightCategory":"MVFR","rawOb":"METAR SBSN 282200Z 34002KT 9999 VCSH BKN017 FEW023TCU BKN100 27/25 Q1009","temp":27,"dewp":25,"wdir":340,"wspd":2,"visib":"6+","altim":1009,"clouds":[{"cover":"BKN","base":1700},{"cover":"FEW","base":2300},{"cover":"BKN","base":10000}],"obsTime":1774735200},"SBSP":{"icaoId":"SBSP","flightCategory":"MVFR","rawOb":"METAR SBSP 282200Z 17009KT 9999 BKN015 22/19 Q1023","temp":22,"dewp":19,"wdir":170,"wspd":9,"visib":"6+","altim":1023,"clouds":[{"cover":"BKN","base":1500}],"obsTime":1774735200},"SBSV":{"icaoId":"SBSV","flightCategory":"VFR","rawOb":"METAR SBSV 282200Z 12008KT 070V200 9999 SCT023 29/22 Q1013","temp":29,"dewp":22,"wdir":120,"wspd":8,"visib":"6+","altim":1013,"clouds":[{"cover":"SCT","base":2300}],"obsTime":1774735200},"SBTE":{"icaoId":"SBTE","flightCategory":"VFR","rawOb":"METAR SBTE 282200Z 17008KT 9999 FEW025 FEW030TCU 30/24 Q1009","temp":30,"dewp":24,"wdir":170,"wspd":8,"visib":"6+","altim":1009,"clouds":[{"cover":"FEW","base":2500},{"cover":"FEW","base":3000}],"obsTime":1774735200},"SBUL":{"icaoId":"SBUL","flightCategory":"VFR","rawOb":"METAR SBUL 282200Z 05003KT CAVOK 25/17 Q1009","temp":25,"dewp":17,"wdir":50,"wspd":3,"visib":"6+","altim":1009,"clouds":[],"obsTime":1774735200},"SBUR":{"icaoId":"SBUR","flightCategory":"VFR","rawOb":"METAR SBUR 282200Z 13007KT CAVOK 26/17 Q1019","temp":26,"dewp":17,"wdir":130,"wspd":7,"visib":"6+","altim":1019,"clouds":[],"obsTime":1774735200},"SBVT":{"icaoId":"SBVT","flightCategory":"VFR","rawOb":"SPECI SBVT 282120Z 18007KT 9999 VCTS FEW035 FEW040CB 26/22 Q1017","temp":26,"dewp":22,"wdir":180,"wspd":7,"visib":"6+","altim":1017,"clouds":[{"cover":"FEW","base":3500},{"cover":"FEW","base":4000}],"obsTime":1774732800},"SBCB":{"icaoId":"SBCB","flightCategory":"VFR","rawOb":"METAR SBCB 282200Z 08005KT CAVOK 25/23 Q1019","temp":25,"dewp":23,"wdir":80,"wspd":5,"visib":"6+","altim":1019,"clouds":[],"obsTime":1774735200},"SBCP":{"icaoId":"SBCP","flightCategory":"VFR","rawOb":"METAR SBCP 282200Z 14005KT CAVOK 24/23 Q1018","temp":24,"dewp":23,"wdir":140,"wspd":5,"visib":"6+","altim":1018,"clouds":[],"obsTime":1774735200},"SBKG":{"icaoId":"SBKG","flightCategory":"VFR","rawOb":"METAR SBKG 282200Z 09008KT 9999 SCT015 25/21 Q1014","temp":25,"dewp":21,"wdir":90,"wspd":8,"visib":"6+","altim":1014,"clouds":[{"cover":"SCT","base":1500}],"obsTime":1774735200},"SBOI":{"icaoId":"SBOI","flightCategory":"MVFR","rawOb":"METAR SBOI 282200Z AUTO VRB03KT 9999 -RA BKN014 25/25 Q1011","temp":25,"dewp":25,"wdir":"VRB","wspd":3,"visib":"6+","altim":1011,"clouds":[{"cover":"BKN","base":1400}],"obsTime":1774735200},"SBTT":{"icaoId":"SBTT","flightCategory":"VFR","rawOb":"METAR SBTT 282200Z 33003KT 290V350 9999 FEW017 BKN100 27/22 Q1008","temp":27,"dewp":22,"wdir":330,"wspd":3,"visib":"6+","altim":1008,"clouds":[{"cover":"FEW","base":1700},{"cover":"BKN","base":10000}],"obsTime":1774735200},"SBBH":{"icaoId":"SBBH","flightCategory":"VFR","rawOb":"METAR SBBH 282200Z 08002KT 9999 FEW040 24/18 Q1020","temp":24,"dewp":18,"wdir":80,"wspd":2,"visib":"6+","altim":1020,"clouds":[{"cover":"FEW","base":4000}],"obsTime":1774735200},"SBPL":{"icaoId":"SBPL","flightCategory":"VFR","rawOb":"METAR SBPL 282200Z 26002KT 9999 -RA SCT030 SCT070 26/24 Q1012 RERA","temp":26,"dewp":24,"wdir":260,"wspd":2,"visib":"6+","altim":1012,"clouds":[{"cover":"SCT","base":3000},{"cover":"SCT","base":7000}],"obsTime":1774735200},"SBCO":{"icaoId":"SBCO","flightCategory":"VFR","rawOb":"METAR SBCO 282200Z 11007KT CAVOK 29/24 Q1016","temp":29,"dewp":24,"wdir":110,"wspd":7,"visib":"6+","altim":1016,"clouds":[],"obsTime":1774735200},"SBPS":{"icaoId":"SBPS","flightCategory":"VFR","rawOb":"METAR SBPS 282200Z VRB02KT 9999 SCT020 SCT070 25/24 Q1016","temp":25,"dewp":24,"wdir":"VRB","wspd":2,"visib":"6+","altim":1016,"clouds":[{"cover":"SCT","base":2000},{"cover":"SCT","base":7000}],"obsTime":1774735200},"SBAX":{"icaoId":"SBAX","flightCategory":"VFR","rawOb":"METAR SBAX 282200Z AUTO 11007KT CAVOK 23/16 Q1020","temp":23,"dewp":16,"wdir":110,"wspd":7,"visib":"6+","altim":1020,"clouds":[],"obsTime":1774735200},"SBSC":{"icaoId":"SBSC","flightCategory":"VFR","rawOb":"METAR SBSC 282200Z 24003KT 9999 FEW035 SCT050 26/22 Q1018","temp":26,"dewp":22,"wdir":240,"wspd":3,"visib":"6+","altim":1018,"clouds":[{"cover":"FEW","base":3500},{"cover":"SCT","base":5000}],"obsTime":1774735200},"SBDN":{"icaoId":"SBDN","flightCategory":"VFR","rawOb":"METAR SBDN 282200Z 10005KT CAVOK 30/18 Q1016","temp":30,"dewp":18,"wdir":100,"wspd":5,"visib":"6+","altim":1016,"clouds":[],"obsTime":1774735200},"SBSJ":{"icaoId":"SBSJ","flightCategory":"VFR","rawOb":"METAR SBSJ 282200Z 15008KT CAVOK 23/19 Q1020","temp":23,"dewp":19,"wdir":150,"wspd":8,"visib":"6+","altim":1020,"clouds":[],"obsTime":1774735200},"SBBU":{"icaoId":"SBBU","flightCategory":"VFR","rawOb":"METAR SBBU 282200Z 12005KT 9999 SCT035 28/19 Q1018","temp":28,"dewp":19,"wdir":120,"wspd":5,"visib":"6+","altim":1018,"clouds":[{"cover":"SCT","base":3500}],"obsTime":1774735200},"SBSM":{"icaoId":"SBSM","flightCategory":"VFR","rawOb":"METAR SBSM 282200Z 03006KT 9999 VCTS SCT035 FEW040CB SCT100 29/23 Q1016 RETS","temp":29,"dewp":23,"wdir":30,"wspd":6,"visib":"6+","altim":1016,"clouds":[{"cover":"SCT","base":3500},{"cover":"FEW","base":4000},{"cover":"SCT","base":10000}],"obsTime":1774735200},"SBIP":{"icaoId":"SBIP","flightCategory":"VFR","rawOb":"METAR SBIP 282200Z AUTO 14004KT 090V210 9999 -RA FEW048 22/19 Q1018","temp":22,"dewp":19,"wdir":140,"wspd":4,"visib":"6+","altim":1018,"clouds":[{"cover":"FEW","base":4800}],"obsTime":1774735200},"SBSR":{"icaoId":"SBSR","flightCategory":"VFR","rawOb":"METAR SBSR 282200Z 12003KT 9999 FEW045 29/15 Q1017","temp":29,"dewp":15,"wdir":120,"wspd":3,"visib":"6+","altim":1017,"clouds":[{"cover":"FEW","base":4500}],"obsTime":1774735200},"SBVH":{"icaoId":"SBVH","flightCategory":"VFR","rawOb":"METAR SBVH 282200Z 10005KT 9999 SCT040 26/22 Q1013","temp":26,"dewp":22,"wdir":100,"wspd":5,"visib":"6+","altim":1013,"clouds":[{"cover":"SCT","base":4000}],"obsTime":1774735200},"SBAR":{"icaoId":"SBAR","flightCategory":"VFR","rawOb":"METAR SBAR 282200Z 14007KT 100V170 9999 4000N -SHRA FEW023 FEW026TCU SCT100 29/24 Q1012","temp":29,"dewp":24,"wdir":140,"wspd":7,"visib":"6+","altim":1012,"clouds":[{"cover":"FEW","base":2300},{"cover":"FEW","base":2600},{"cover":"SCT","base":10000}],"obsTime":1774735200},"SBTF":{"icaoId":"SBTF","flightCategory":"VFR","rawOb":"METAR SBTF 282200Z 00000KT 9999 FEW015 SCT090 27/26 Q1008","temp":27,"dewp":26,"wdir":0,"wspd":0,"visib":"6+","altim":1008,"clouds":[{"cover":"FEW","base":1500},{"cover":"SCT","base":9000}],"obsTime":1774735200},"SBCA":{"icaoId":"SBCA","flightCategory":"VFR","rawOb":"METAR SBCA 282200Z 36007KT CAVOK 28/18 Q1020","temp":28,"dewp":18,"wdir":360,"wspd":7,"visib":"6+","altim":1020,"clouds":[],"obsTime":1774735200},"SBUY":{"icaoId":"SBUY","flightCategory":"MVFR","rawOb":"METAR SBUY 282200Z 09006KT 5000 -RA FEW025 FEW030TCU SCT100 24/24 Q1008","temp":24,"dewp":24,"wdir":90,"wspd":6,"visib":3.11,"altim":1008,"clouds":[{"cover":"FEW","base":2500},{"cover":"FEW","base":3000},{"cover":"SCT","base":10000}],"obsTime":1774735200},"SBPB":{"icaoId":"SBPB","flightCategory":"MVFR","rawOb":"SPECI SBPB 282145Z 09006KT 9999 BKN016 BKN080 28/24 Q1009","temp":28,"dewp":24,"wdir":90,"wspd":6,"visib":"6+","altim":1009,"clouds":[{"cover":"BKN","base":1600},{"cover":"BKN","base":8000}],"obsTime":1774734300},"SBCJ":{"icaoId":"SBCJ","flightCategory":"VFR","rawOb":"SPECI SBCJ 282130Z 12005KT 9999 SCT027 27/21 Q1014","temp":27,"dewp":21,"wdir":120,"wspd":5,"visib":"6+","altim":1014,"clouds":[{"cover":"SCT","base":2700}],"obsTime":1774733400},"SBJP":{"icaoId":"SBJP","flightCategory":"VFR","rawOb":"METAR SBJP 282200Z 09005KT 060V120 9999 FEW021 27/23 Q1012","temp":27,"dewp":23,"wdir":90,"wspd":5,"visib":"6+","altim":1012,"clouds":[{"cover":"FEW","base":2100}],"obsTime":1774735200},"SBLE":{"icaoId":"SBLE","flightCategory":"VFR","rawOb":"METAR SBLE 282200Z AUTO 15007KT 110V170 9999 SCT029 24/24 Q1016","temp":24,"dewp":24,"wdir":150,"wspd":7,"visib":"6+","altim":1016,"clouds":[{"cover":"SCT","base":2900}],"obsTime":1774735200},"SBJV":{"icaoId":"SBJV","flightCategory":"VFR","rawOb":"METAR SBJV 282200Z 02002KT 9999 FEW030 27/22 Q1018","temp":27,"dewp":22,"wdir":20,"wspd":2,"visib":"6+","altim":1018,"clouds":[{"cover":"FEW","base":3000}],"obsTime":1774735200},"SBPF":{"icaoId":"SBPF","flightCategory":"VFR","rawOb":"METAR SBPF 282200Z 00000KT CAVOK 29/18 Q1020","temp":29,"dewp":18,"wdir":0,"wspd":0,"visib":"6+","altim":1020,"clouds":[],"obsTime":1774735200},"SBAN":{"icaoId":"SBAN","flightCategory":"VFR","rawOb":"METAR SBAN 282200Z 15006KT 9999 FEW030 23/15 Q1020","temp":23,"dewp":15,"wdir":150,"wspd":6,"visib":"6+","altim":1020,"clouds":[{"cover":"FEW","base":3000}],"obsTime":1774735200},"SBAF":{"icaoId":"SBAF","flightCategory":"VFR","rawOb":"METAR SBAF 282200Z 12008KT 9999 FEW035 28/21 Q1018","temp":28,"dewp":21,"wdir":120,"wspd":8,"visib":"6+","altim":1018,"clouds":[{"cover":"FEW","base":3500}],"obsTime":1774735200},"SBJR":{"icaoId":"SBJR","flightCategory":"VFR","rawOb":"METAR SBJR 282200Z 13009KT 9999 FEW040 28/20 Q1017","temp":28,"dewp":20,"wdir":130,"wspd":9,"visib":"6+","altim":1017,"clouds":[{"cover":"FEW","base":4000}],"obsTime":1774735200},"SBLS":{"icaoId":"SBLS","flightCategory":"VFR","rawOb":"METAR SBLS 282200Z 15007KT CAVOK 24/17 Q1020","temp":24,"dewp":17,"wdir":150,"wspd":7,"visib":"6+","altim":1020,"clouds":[],"obsTime":1774735200},"SBMT":{"icaoId":"SBMT","flightCategory":"MVFR","rawOb":"METAR SBMT 282200Z 15007KT 110V180 8000 BKN019 22/19 Q1021","temp":22,"dewp":19,"wdir":150,"wspd":7,"visib":4.97,"altim":1021,"clouds":[{"cover":"BKN","base":1900}],"obsTime":1774735200},"SBGW":{"icaoId":"SBGW","flightCategory":"VFR","rawOb":"METAR SBGW 282200Z 04003KT 010V070 CAVOK 25/15 Q1019","temp":25,"dewp":15,"wdir":40,"wspd":3,"visib":"6+","altim":1019,"clouds":[],"obsTime":1774735200}}}