{"updated":1774885665,"count":87,"data":{"SBSV":{"icaoId":"SBSV","flightCategory":"MVFR","rawOb":"METAR SBSV 301400Z 21008KT 180V250 9999 VCSH BKN023 FEW025TCU BKN080 28/23 Q1013","temp":28,"dewp":23,"wdir":210,"wspd":8,"visib":"6+","altim":1013,"clouds":[{"cover":"BKN","base":2300},{"cover":"FEW","base":2500},{"cover":"BKN","base":8000}],"obsTime":1774879200},"SBVT":{"icaoId":"SBVT","flightCategory":"VFR","rawOb":"METAR SBVT 301400Z 12005KT 080V150 9999 FEW030 28/22 Q1014","temp":28,"dewp":22,"wdir":120,"wspd":5,"visib":"6+","altim":1014,"clouds":[{"cover":"FEW","base":3000}],"obsTime":1774879200},"SBBE":{"icaoId":"SBBE","flightCategory":"VFR","rawOb":"METAR SBBE 301400Z 04003KT 9999 SCT025 31/24 Q1012","temp":31,"dewp":24,"wdir":40,"wspd":3,"visib":"6+","altim":1012,"clouds":[{"cover":"SCT","base":2500}],"obsTime":1774879200},"SBBR":{"icaoId":"SBBR","flightCategory":"VFR","rawOb":"METAR SBBR 301400Z 10009KT 070V140 9999 FEW035 25/17 Q1020","temp":25,"dewp":17,"wdir":100,"wspd":9,"visib":"6+","altim":1020,"clouds":[{"cover":"FEW","base":3500}],"obsTime":1774879200},"SBBV":{"icaoId":"SBBV","flightCategory":"MVFR","rawOb":"METAR SBBV 301400Z 09012KT 9999 BKN025 FEW030TCU BKN090 29/22 Q1013","temp":29,"dewp":22,"wdir":90,"wspd":12,"visib":"6+","altim":1013,"clouds":[{"cover":"BKN","base":2500},{"cover":"FEW","base":3000},{"cover":"BKN","base":9000}],"obsTime":1774879200},"SBCB":{"icaoId":"SBCB","flightCategory":"VFR","rawOb":"METAR SBCB 301400Z 20005KT 9999 FEW020 28/22 Q1015","temp":28,"dewp":22,"wdir":200,"wspd":5,"visib":"6+","altim":1015,"clouds":[{"cover":"FEW","base":2000}],"obsTime":1774879200},"SBCF":{"icaoId":"SBCF","flightCategory":"MVFR","rawOb":"METAR SBCF 301400Z 09004KT 9999 BKN030 25/18 Q1019","temp":25,"dewp":18,"wdir":90,"wspd":4,"visib":"6+","altim":1019,"clouds":[{"cover":"BKN","base":3000}],"obsTime":1774879200},"SBCG":{"icaoId":"SBCG","flightCategory":"VFR","rawOb":"METAR SBCG 301400Z 08008KT 030V110 CAVOK 30/18 Q1017","temp":30,"dewp":18,"wdir":80,"wspd":8,"visib":"6+","altim":1017,"clouds":[],"obsTime":1774879200},"SBCP":{"icaoId":"SBCP","flightCategory":"MVFR","rawOb":"METAR SBCP 301400Z 33004KT 9999 BKN020 28/24 Q1014","temp":28,"dewp":24,"wdir":330,"wspd":4,"visib":"6+","altim":1014,"clouds":[{"cover":"BKN","base":2000}],"obsTime":1774879200},"SBCR":{"icaoId":"SBCR","flightCategory":"VFR","rawOb":"METAR SBCR 301400Z VRB02KT CAVOK 31/23 Q1014","temp":31,"dewp":23,"wdir":"VRB","wspd":2,"visib":"6+","altim":1014,"clouds":[],"obsTime":1774879200},"SBCT":{"icaoId":"SBCT","flightCategory":"VFR","rawOb":"METAR SBCT 301400Z VRB02KT 9999 FEW015 24/18 Q1020","temp":24,"dewp":18,"wdir":"VRB","wspd":2,"visib":"6+","altim":1020,"clouds":[{"cover":"FEW","base":1500}],"obsTime":1774879200},"SBCZ":{"icaoId":"SBCZ","flightCategory":"MVFR","rawOb":"METAR SBCZ 301400Z 18005KT 9999 BKN010 BKN100 24/23 Q1015","temp":24,"dewp":23,"wdir":180,"wspd":5,"visib":"6+","altim":1015,"clouds":[{"cover":"BKN","base":1000},{"cover":"BKN","base":10000}],"obsTime":1774879200},"SBEG":{"icaoId":"SBEG","flightCategory":"VFR","rawOb":"METAR SBEG 301400Z 11004KT 9999 SCT019 FEW025TCU BKN100 28/24 Q1014","temp":28,"dewp":24,"wdir":110,"wspd":4,"visib":"6+","altim":1014,"clouds":[{"cover":"SCT","base":1900},{"cover":"FEW","base":2500},{"cover":"BKN","base":10000}],"obsTime":1774879200},"SBFI":{"icaoId":"SBFI","flightCategory":"VFR","rawOb":"METAR SBFI 301400Z 09003KT CAVOK 32/23 Q1016","temp":32,"dewp":23,"wdir":90,"wspd":3,"visib":"6+","altim":1016,"clouds":[],"obsTime":1774879200},"SBFL":{"icaoId":"SBFL","flightCategory":"VFR","rawOb":"METAR SBFL 301400Z 11007KT 9999 FEW030 BKN100 27/23 Q1015","temp":27,"dewp":23,"wdir":110,"wspd":7,"visib":"6+","altim":1015,"clouds":[{"cover":"FEW","base":3000},{"cover":"BKN","base":10000}],"obsTime":1774879200},"SBFZ":{"icaoId":"SBFZ","flightCategory":"MVFR","rawOb":"METAR SBFZ 301400Z 02006KT 9999 BKN020 SCT100 31/23 Q1011","temp":31,"dewp":23,"wdir":20,"wspd":6,"visib":"6+","altim":1011,"clouds":[{"cover":"BKN","base":2000},{"cover":"SCT","base":10000}],"obsTime":1774879200},"SBGL":{"icaoId":"SBGL","flightCategory":"VFR","rawOb":"METAR SBGL 301400Z 11007KT 9999 FEW020 30/22 Q1014","temp":30,"dewp":22,"wdir":110,"wspd":7,"visib":"6+","altim":1014,"clouds":[{"cover":"FEW","base":2000}],"obsTime":1774879200},"SBGO":{"icaoId":"SBGO","flightCategory":"VFR","rawOb":"METAR SBGO 301400Z 07009KT 9999 FEW025 29/17 Q1018","temp":29,"dewp":17,"wdir":70,"wspd":9,"visib":"6+","altim":1018,"clouds":[{"cover":"FEW","base":2500}],"obsTime":1774879200},"SBGR":{"icaoId":"SBGR","flightCategory":"VFR","rawOb":"METAR SBGR 301400Z 06003KT CAVOK 25/18 Q1018","temp":25,"dewp":18,"wdir":60,"wspd":3,"visib":"6+","altim":1018,"clouds":[],"obsTime":1774879200},"SBHT":{"icaoId":"SBHT","flightCategory":"MVFR","rawOb":"METAR SBHT 301400Z 09004KT 9999 BKN015 OVC090 27/24 Q1013","temp":27,"dewp":24,"wdir":90,"wspd":4,"visib":"6+","altim":1013,"clouds":[{"cover":"BKN","base":1500},{"cover":"OVC","base":9000}],"obsTime":1774879200},"SBIL":{"icaoId":"SBIL","flightCategory":"VFR","rawOb":"METAR SBIL 301400Z 20008KT 160V230 9999 SCT020 SCT040 28/24 Q1014","temp":28,"dewp":24,"wdir":200,"wspd":8,"visib":"6+","altim":1014,"clouds":[{"cover":"SCT","base":2000},{"cover":"SCT","base":4000}],"obsTime":1774879200},"SBJU":{"icaoId":"SBJU","flightCategory":"MVFR","rawOb":"METAR SBJU 301400Z 12009KT 9999 BKN020 28/22 Q1013","temp":28,"dewp":22,"wdir":120,"wspd":9,"visib":"6+","altim":1013,"clouds":[{"cover":"BKN","base":2000}],"obsTime":1774879200},"SBKP":{"icaoId":"SBKP","flightCategory":"VFR","rawOb":"METAR SBKP 301400Z 32005KT 270V030 CAVOK 27/18 Q1017","temp":27,"dewp":18,"wdir":320,"wspd":5,"visib":"6+","altim":1017,"clouds":[],"obsTime":1774879200},"SBLO":{"icaoId":"SBLO","flightCategory":"VFR","rawOb":"METAR SBLO 301400Z 05004KT CAVOK 28/19 Q1017","temp":28,"dewp":19,"wdir":50,"wspd":4,"visib":"6+","altim":1017,"clouds":[],"obsTime":1774879200},"SBMA":{"icaoId":"SBMA","flightCategory":"MVFR","rawOb":"METAR SBMA 301400Z 10002KT 9999 BKN012 BKN080 27/24 Q1013","temp":27,"dewp":24,"wdir":100,"wspd":2,"visib":"6+","altim":1013,"clouds":[{"cover":"BKN","base":1200},{"cover":"BKN","base":8000}],"obsTime":1774879200},"SBME":{"icaoId":"SBME","flightCategory":"VFR","rawOb":"METAR SBME 301400Z 13006KT 9999 FEW026 30/23 Q1014","temp":30,"dewp":23,"wdir":130,"wspd":6,"visib":"6+","altim":1014,"clouds":[{"cover":"FEW","base":2600}],"obsTime":1774879200},"SBMG":{"icaoId":"SBMG","flightCategory":"VFR","rawOb":"METAR SBMG 301400Z VRB02KT CAVOK 30/20 Q1016","temp":30,"dewp":20,"wdir":"VRB","wspd":2,"visib":"6+","altim":1016,"clouds":[],"obsTime":1774879200},"SBMK":{"icaoId":"SBMK","flightCategory":"VFR","rawOb":"METAR SBMK 301400Z 07007KT 9999 SCT036 28/19 Q1017","temp":28,"dewp":19,"wdir":70,"wspd":7,"visib":"6+","altim":1017,"clouds":[{"cover":"SCT","base":3600}],"obsTime":1774879200},"SBMO":{"icaoId":"SBMO","flightCategory":"IFR","rawOb":"METAR SBMO 301400Z 13011KT 5000 -SHRA BR BKN007 FEW020TCU BKN050 25/24 Q1013","temp":25,"dewp":24,"wdir":130,"wspd":11,"visib":3.11,"altim":1013,"clouds":[{"cover":"BKN","base":700},{"cover":"FEW","base":2000},{"cover":"BKN","base":5000}],"obsTime":1774879200},"SBMQ":{"icaoId":"SBMQ","flightCategory":"VFR","rawOb":"METAR SBMQ 301400Z VRB02KT 9999 FEW010 26/24 Q1013","temp":26,"dewp":24,"wdir":"VRB","wspd":2,"visib":"6+","altim":1013,"clouds":[{"cover":"FEW","base":1000}],"obsTime":1774879200},"SBNT":{"icaoId":"SBNT","flightCategory":"VFR","rawOb":"METAR SBNT 301400Z 09012KT 060V120 9999 SCT033 31/22 Q1010","temp":31,"dewp":22,"wdir":90,"wspd":12,"visib":"6+","altim":1010,"clouds":[{"cover":"SCT","base":3300}],"obsTime":1774879200},"SBPA":{"icaoId":"SBPA","flightCategory":"MVFR","rawOb":"METAR SBPA 301400Z 09004KT 040V130 9999 VCSH FEW010 BKN012 28/24 Q1016","temp":28,"dewp":24,"wdir":90,"wspd":4,"visib":"6+","altim":1016,"clouds":[{"cover":"FEW","base":1000},{"cover":"BKN","base":1200}],"obsTime":1774879200},"SBPJ":{"icaoId":"SBPJ","flightCategory":"VFR","rawOb":"METAR SBPJ 301400Z 27003KT 9999 FEW015 BKN100 27/23 Q1014","temp":27,"dewp":23,"wdir":270,"wspd":3,"visib":"6+","altim":1014,"clouds":[{"cover":"FEW","base":1500},{"cover":"BKN","base":10000}],"obsTime":1774879200},"SBPV":{"icaoId":"SBPV","flightCategory":"VFR","rawOb":"METAR SBPV 301400Z 11004KT 9999 SCT012 26/22 Q1014","temp":26,"dewp":22,"wdir":110,"wspd":4,"visib":"6+","altim":1014,"clouds":[{"cover":"SCT","base":1200}],"obsTime":1774879200},"SBRB":{"icaoId":"SBRB","flightCategory":"MVFR","rawOb":"METAR SBRB 301400Z 11005KT 9999 BKN010 25/23 Q1015","temp":25,"dewp":23,"wdir":110,"wspd":5,"visib":"6+","altim":1015,"clouds":[{"cover":"BKN","base":1000}],"obsTime":1774879200},"SBRF":{"icaoId":"SBRF","flightCategory":"VFR","rawOb":"METAR SBRF 301400Z 14012KT 9999 SCT023 30/25 Q1011","temp":30,"dewp":25,"wdir":140,"wspd":12,"visib":"6+","altim":1011,"clouds":[{"cover":"SCT","base":2300}],"obsTime":1774879200},"SBSG":{"icaoId":"SBSG","flightCategory":"VFR","rawOb":"METAR SBSG 301400Z 13006KT 080V180 9999 SCT027 32/23 Q1011","temp":32,"dewp":23,"wdir":130,"wspd":6,"visib":"6+","altim":1011,"clouds":[{"cover":"SCT","base":2700}],"obsTime":1774879200},"SBSL":{"icaoId":"SBSL","flightCategory":"VFR","rawOb":"METAR SBSL 301400Z 08006KT 9999 FEW030 30/24 Q1011","temp":30,"dewp":24,"wdir":80,"wspd":6,"visib":"6+","altim":1011,"clouds":[{"cover":"FEW","base":3000}],"obsTime":1774879200},"SBSN":{"icaoId":"SBSN","flightCategory":"VFR","rawOb":"METAR SBSN 301400Z 10014KT 9999 SCT017 OVC100 27/24 Q1012","temp":27,"dewp":24,"wdir":100,"wspd":14,"visib":"6+","altim":1012,"clouds":[{"cover":"SCT","base":1700},{"cover":"OVC","base":10000}],"obsTime":1774879200},"SBSP":{"icaoId":"SBSP","flightCategory":"VFR","rawOb":"METAR SBSP 301400Z 12004KT CAVOK 24/18 Q1020","temp":24,"dewp":18,"wdir":120,"wspd":4,"visib":"6+","altim":1020,"clouds":[],"obsTime":1774879200},"SBTE":{"icaoId":"SBTE","flightCategory":"MVFR","rawOb":"METAR SBTE 301400Z 36008KT 9999 BKN020 FEW025TCU 29/24 Q1011","temp":29,"dewp":24,"wdir":360,"wspd":8,"visib":"6+","altim":1011,"clouds":[{"cover":"BKN","base":2000},{"cover":"FEW","base":2500}],"obsTime":1774879200},"SBUL":{"icaoId":"SBUL","flightCategory":"VFR","rawOb":"METAR SBUL 301400Z 08006KT 020V180 9999 FEW030 28/18 Q1020","temp":28,"dewp":18,"wdir":80,"wspd":6,"visib":"6+","altim":1020,"clouds":[{"cover":"FEW","base":3000}],"obsTime":1774879200},"SBUR":{"icaoId":"SBUR","flightCategory":"VFR","rawOb":"METAR SBUR 301400Z 04005KT 9999 SCT040 28/17 Q1018","temp":28,"dewp":17,"wdir":40,"wspd":5,"visib":"6+","altim":1018,"clouds":[{"cover":"SCT","base":4000}],"obsTime":1774879200},"SBAT":{"icaoId":"SBAT","flightCategory":"VFR","rawOb":"METAR SBAT 301400Z 18002KT 9999 FEW015 30/24 Q1014","temp":30,"dewp":24,"wdir":180,"wspd":2,"visib":"6+","altim":1014,"clouds":[{"cover":"FEW","base":1500}],"obsTime":1774879200},"SBCC":{"icaoId":"SBCC","flightCategory":"MVFR","rawOb":"METAR SBCC 301400Z 07007KT 9999 VCSH BKN020 FEW025TCU SCT100 29/22 Q1015","temp":29,"dewp":22,"wdir":70,"wspd":7,"visib":"6+","altim":1015,"clouds":[{"cover":"BKN","base":2000},{"cover":"FEW","base":2500},{"cover":"SCT","base":10000}],"obsTime":1774879200},"SBOI":{"icaoId":"SBOI","flightCategory":"MVFR","rawOb":"METAR SBOI 301400Z AUTO 04004KT 010V070 9999 FEW008 BKN011 27/25 Q1013 RERA","temp":27,"dewp":25,"wdir":40,"wspd":4,"visib":"6+","altim":1013,"clouds":[{"cover":"FEW","base":800},{"cover":"BKN","base":1100}],"obsTime":1774879200},"SBPB":{"icaoId":"SBPB","flightCategory":"MVFR","rawOb":"METAR SBPB 301400Z 03006KT 9999 BKN020 BKN090 30/25 Q1011","temp":30,"dewp":25,"wdir":30,"wspd":6,"visib":"6+","altim":1011,"clouds":[{"cover":"BKN","base":2000},{"cover":"BKN","base":9000}],"obsTime":1774879200},"SBBH":{"icaoId":"SBBH","flightCategory":"MVFR","rawOb":"METAR SBBH 301400Z 11007KT 9999 BKN030 25/18 Q1019","temp":25,"dewp":18,"wdir":110,"wspd":7,"visib":"6+","altim":1019,"clouds":[{"cover":"BKN","base":3000}],"obsTime":1774879200},"SBAR":{"icaoId":"SBAR","flightCategory":"VFR","rawOb":"METAR SBAR 301400Z 12006KT 080V160 9999 FEW023 SCT060 27/24 Q1012","temp":27,"dewp":24,"wdir":120,"wspd":6,"visib":"6+","altim":1012,"clouds":[{"cover":"FEW","base":2300},{"cover":"SCT","base":6000}],"obsTime":1774879200},"SBPL":{"icaoId":"SBPL","flightCategory":"MVFR","rawOb":"METAR SBPL 301400Z 11009KT 9999 BKN025 28/23 Q1013","temp":28,"dewp":23,"wdir":110,"wspd":9,"visib":"6+","altim":1013,"clouds":[{"cover":"BKN","base":2500}],"obsTime":1774879200},"SBCJ":{"icaoId":"SBCJ","flightCategory":"VFR","rawOb":"METAR SBCJ 301400Z 32003KT 9999 SCT012 SCT080 26/21 Q1017","temp":26,"dewp":21,"wdir":320,"wspd":3,"visib":"6+","altim":1017,"clouds":[{"cover":"SCT","base":1200},{"cover":"SCT","base":8000}],"obsTime":1774879200},"SBPP":{"icaoId":"SBPP","flightCategory":"VFR","rawOb":"METAR SBPP 301400Z 03006KT CAVOK 30/19 Q1019","temp":30,"dewp":19,"wdir":30,"wspd":6,"visib":"6+","altim":1019,"clouds":[],"obsTime":1774879200},"SBPS":{"icaoId":"SBPS","flightCategory":"VFR","rawOb":"METAR SBPS 301400Z 14004KT 9999 SCT020 SCT050 28/22 Q1014","temp":28,"dewp":22,"wdir":140,"wspd":4,"visib":"6+","altim":1014,"clouds":[{"cover":"SCT","base":2000},{"cover":"SCT","base":5000}],"obsTime":1774879200},"SBCO":{"icaoId":"SBCO","flightCategory":"MVFR","rawOb":"METAR SBCO 301400Z 09004KT 050V130 8000 BKN010 BKN020 27/24 Q1016","temp":27,"dewp":24,"wdir":90,"wspd":4,"visib":4.97,"altim":1016,"clouds":[{"cover":"BKN","base":1000},{"cover":"BKN","base":2000}],"obsTime":1774879200},"SBSC":{"icaoId":"SBSC","flightCategory":"VFR","rawOb":"METAR SBSC 301400Z 03006KT 9999 FEW025 30/22 Q1014","temp":30,"dewp":22,"wdir":30,"wspd":6,"visib":"6+","altim":1014,"clouds":[{"cover":"FEW","base":2500}],"obsTime":1774879200},"SBAX":{"icaoId":"SBAX","flightCategory":"VFR","rawOb":"METAR SBAX 301400Z 01006KT 9999 SCT020 25/17 Q1020","temp":25,"dewp":17,"wdir":10,"wspd":6,"visib":"6+","altim":1020,"clouds":[{"cover":"SCT","base":2000}],"obsTime":1774879200},"SBDN":{"icaoId":"SBDN","flightCategory":"VFR","rawOb":"METAR SBDN 301400Z 30003KT CAVOK 32/19 Q1016","temp":32,"dewp":19,"wdir":300,"wspd":3,"visib":"6+","altim":1016,"clouds":[],"obsTime":1774879200},"SBSJ":{"icaoId":"SBSJ","flightCategory":"MVFR","rawOb":"METAR SBSJ 301400Z COR 09002KT 6000 BKN016 24/19 Q1018","temp":24,"dewp":19,"wdir":90,"wspd":2,"visib":3.73,"altim":1018,"clouds":[{"cover":"BKN","base":1600}],"obsTime":1774879200},"SBSM":{"icaoId":"SBSM","flightCategory":"VFR","rawOb":"METAR SBSM 301400Z 10005KT 060V150 9999 SCT011 SCT014 27/24 Q1016","temp":27,"dewp":24,"wdir":100,"wspd":5,"visib":"6+","altim":1016,"clouds":[{"cover":"SCT","base":1100},{"cover":"SCT","base":1400}],"obsTime":1774879200},"SBBQ":{"icaoId":"SBBQ","flightCategory":"MVFR","rawOb":"METAR SBBQ 301400Z 07005KT 9999 BKN028 23/16 Q1022","temp":23,"dewp":16,"wdir":70,"wspd":5,"visib":"6+","altim":1022,"clouds":[{"cover":"BKN","base":2800}],"obsTime":1774879200},"SBSR":{"icaoId":"SBSR","flightCategory":"VFR","rawOb":"METAR SBSR 301400Z 36003KT CAVOK 30/16 Q1017","temp":30,"dewp":16,"wdir":360,"wspd":3,"visib":"6+","altim":1017,"clouds":[],"obsTime":1774879200},"SBES":{"icaoId":"SBES","flightCategory":"VFR","rawOb":"METAR SBES 301400Z VRB05KT 9999 FEW020 30/// Q1015","temp":null,"dewp":null,"wdir":"VRB","wspd":5,"visib":"6+","altim":1015,"clouds":[{"cover":"FEW","base":2000}],"obsTime":1774879200},"SBTD":{"icaoId":"SBTD","flightCategory":"VFR","rawOb":"METAR SBTD 301400Z /////KT CAVOK 32/21 Q1018","temp":32,"dewp":21,"wdir":null,"wspd":null,"visib":"6+","altim":1018,"clouds":[],"obsTime":1774879200},"SBBU":{"icaoId":"SBBU","flightCategory":"VFR","rawOb":"METAR SBBU 301400Z /////KT 9999 FEW030 30/21 Q1017","temp":30,"dewp":21,"wdir":null,"wspd":null,"visib":"6+","altim":1017,"clouds":[{"cover":"FEW","base":3000}],"obsTime":1774879200},"SBTF":{"icaoId":"SBTF","flightCategory":"VFR","rawOb":"METAR SBTF 301400Z 18006KT 9999 SCT010 SCT100 29/25 Q1013","temp":29,"dewp":25,"wdir":180,"wspd":6,"visib":"6+","altim":1013,"clouds":[{"cover":"SCT","base":1000},{"cover":"SCT","base":10000}],"obsTime":1774879200},"SBGM":{"icaoId":"SBGM","flightCategory":"IFR","rawOb":"METAR SBGM 301400Z 09002KT 9999 BKN006 OVC020 26/23 Q1015","temp":26,"dewp":23,"wdir":90,"wspd":2,"visib":"6+","altim":1015,"clouds":[{"cover":"BKN","base":600},{"cover":"OVC","base":2000}],"obsTime":1774879200},"SBAU":{"icaoId":"SBAU","flightCategory":"VFR","rawOb":"METAR SBAU 301400Z 09006KT CAVOK 31/18 Q1016","temp":31,"dewp":18,"wdir":90,"wspd":6,"visib":"6+","altim":1016,"clouds":[],"obsTime":1774879200},"SBTT":{"icaoId":"SBTT","flightCategory":"IFR","rawOb":"METAR SBTT 301400Z 23004KT 9999 -RA BKN006 OVC070 26/23 Q1014","temp":26,"dewp":23,"wdir":230,"wspd":4,"visib":"6+","altim":1014,"clouds":[{"cover":"BKN","base":600},{"cover":"OVC","base":7000}],"obsTime":1774879200},"SBIP":{"icaoId":"SBIP","flightCategory":"MVFR","rawOb":"METAR SBIP 301400Z AUTO 01005KT 340V060 9999 BKN029 28/20 Q1016","temp":28,"dewp":20,"wdir":10,"wspd":5,"visib":"6+","altim":1016,"clouds":[{"cover":"BKN","base":2900}],"obsTime":1774879200},"SBUY":{"icaoId":"SBUY","flightCategory":"VFR","rawOb":"METAR SBUY 301400Z 17004KT 9999 FEW025 28/24 Q1012","temp":28,"dewp":24,"wdir":170,"wspd":4,"visib":"6+","altim":1012,"clouds":[{"cover":"FEW","base":2500}],"obsTime":1774879200},"SBVH":{"icaoId":"SBVH","flightCategory":"VFR","rawOb":"METAR SBVH 301400Z 11007KT CAVOK 28/22 Q1017","temp":28,"dewp":22,"wdir":110,"wspd":7,"visib":"6+","altim":1017,"clouds":[],"obsTime":1774879200},"SBCA":{"icaoId":"SBCA","flightCategory":"VFR","rawOb":"SPECI SBCA 301405Z 19006KT CAVOK 30/18 Q1019","temp":30,"dewp":18,"wdir":190,"wspd":6,"visib":"6+","altim":1019,"clouds":[],"obsTime":1774879500},"SBKG":{"icaoId":"SBKG","flightCategory":"MVFR","rawOb":"METAR SBKG 301400Z 13006KT 050V190 9999 BKN028 30/21 Q1013","temp":30,"dewp":21,"wdir":130,"wspd":6,"visib":"6+","altim":1013,"clouds":[{"cover":"BKN","base":2800}],"obsTime":1774879200},"SBST":{"icaoId":"SBST","flightCategory":"MVFR","rawOb":"METAR SBST 301400Z 25005KT 8000 NSC 26/21 Q1015","temp":26,"dewp":21,"wdir":250,"wspd":5,"visib":4.97,"altim":1015,"clouds":[],"obsTime":1774879200},"SBJP":{"icaoId":"SBJP","flightCategory":"VFR","rawOb":"METAR SBJP 301400Z 11010KT 070V150 9999 SCT030 32/23 Q1011","temp":32,"dewp":23,"wdir":110,"wspd":10,"visib":"6+","altim":1011,"clouds":[{"cover":"SCT","base":3000}],"obsTime":1774879200},"SBJV":{"icaoId":"SBJV","flightCategory":"MVFR","rawOb":"METAR SBJV 301400Z 11005KT 9999 SCT012 BKN030 28/24 Q1015","temp":28,"dewp":24,"wdir":110,"wspd":5,"visib":"6+","altim":1015,"clouds":[{"cover":"SCT","base":1200},{"cover":"BKN","base":3000}],"obsTime":1774879200},"SBTA":{"icaoId":"SBTA","flightCategory":"MVFR","rawOb":"METAR SBTA 301400Z VRB03KT 8000 FEW015 SCT100 23/22 Q1017","temp":23,"dewp":22,"wdir":"VRB","wspd":3,"visib":4.97,"altim":1017,"clouds":[{"cover":"FEW","base":1500},{"cover":"SCT","base":10000}],"obsTime":1774879200},"SBNM":{"icaoId":"SBNM","flightCategory":"VFR","rawOb":"METAR SBNM 301400Z 17002KT 9999 FEW015 29/23 Q1017","temp":29,"dewp":23,"wdir":170,"wspd":2,"visib":"6+","altim":1017,"clouds":[{"cover":"FEW","base":1500}],"obsTime":1774879200},"SBAN":{"icaoId":"SBAN","flightCategory":"VFR","rawOb":"METAR SBAN 301400Z 13009KT 9999 FEW015 25/16 Q1021","temp":25,"dewp":16,"wdir":130,"wspd":9,"visib":"6+","altim":1021,"clouds":[{"cover":"FEW","base":1500}],"obsTime":1774879200},"SBLE":{"icaoId":"SBLE","flightCategory":"MVFR","rawOb":"METAR SBLE 301400Z AUTO 15005KT 110V190 9999 SCT014 BKN018 25/25 Q1016","temp":25,"dewp":25,"wdir":150,"wspd":5,"visib":"6+","altim":1016,"clouds":[{"cover":"SCT","base":1400},{"cover":"BKN","base":1800}],"obsTime":1774879200},"SBAF":{"icaoId":"SBAF","flightCategory":"VFR","rawOb":"METAR SBAF 301400Z 21008KT 9999 FEW030 29/23 Q1014","temp":29,"dewp":23,"wdir":210,"wspd":8,"visib":"6+","altim":1014,"clouds":[{"cover":"FEW","base":3000}],"obsTime":1774879200},"SBGW":{"icaoId":"SBGW","flightCategory":"MVFR","rawOb":"METAR SBGW 301400Z VRB02KT 8000 FEW020 26/17 Q1017","temp":26,"dewp":17,"wdir":"VRB","wspd":2,"visib":4.97,"altim":1017,"clouds":[{"cover":"FEW","base":2000}],"obsTime":1774879200},"SBIH":{"icaoId":"SBIH","flightCategory":"VFR","rawOb":"METAR SBIH 301400Z 00000KT 9999 SCT015 BKN080 27/24 Q1013","temp":27,"dewp":24,"wdir":0,"wspd":0,"visib":"6+","altim":1013,"clouds":[{"cover":"SCT","base":1500},{"cover":"BKN","base":8000}],"obsTime":1774879200},"SBJR":{"icaoId":"SBJR","flightCategory":"VFR","rawOb":"METAR SBJR 301400Z 18006KT 9999 FEW030 31/22 Q1014","temp":31,"dewp":22,"wdir":180,"wspd":6,"visib":"6+","altim":1014,"clouds":[{"cover":"FEW","base":3000}],"obsTime":1774879200},"SBLS":{"icaoId":"SBLS","flightCategory":"MVFR","rawOb":"METAR SBLS 301400Z 17006KT 110V180 9999 BKN025 25/18 Q1019","temp":25,"dewp":18,"wdir":170,"wspd":6,"visib":"6+","altim":1019,"clouds":[{"cover":"BKN","base":2500}],"obsTime":1774879200},"SBMT":{"icaoId":"SBMT","flightCategory":"VFR","rawOb":"METAR SBMT 301400Z 17003KT 080V210 CAVOK 24/19 Q1018","temp":24,"dewp":19,"wdir":170,"wspd":3,"visib":"6+","altim":1018,"clouds":[],"obsTime":1774879200},"SBPF":{"icaoId":"SBPF","flightCategory":"VFR","rawOb":"METAR SBPF 301400Z 00000KT CAVOK 28/19 Q1019","temp":28,"dewp":19,"wdir":0,"wspd":0,"visib":"6+","altim":1019,"clouds":[],"obsTime":1774879200}}}