{"updated":1776384079,"count":68,"data":{"SBMA":{"icaoId":"SBMA","flightCategory":"IFR","rawOb":"METAR SBMA 162300Z 15013KT 2000 -TSRA SHRA FEW023 FEW025CB SCT080 25/24 Q1008","temp":25,"dewp":24,"wdir":150,"wspd":13,"visib":1.24,"altim":1008,"clouds":[{"cover":"FEW","base":2300},{"cover":"FEW","base":2500},{"cover":"SCT","base":8000}],"obsTime":1776380400},"SBFZ":{"icaoId":"SBFZ","flightCategory":"VFR","rawOb":"METAR SBFZ 162300Z 07004KT CAVOK 27/24 Q1009","temp":27,"dewp":24,"wdir":70,"wspd":4,"visib":"6+","altim":1009,"clouds":[],"obsTime":1776380400},"SBGL":{"icaoId":"SBGL","flightCategory":"VFR","rawOb":"METAR SBGL 162300Z 11005KT 9999 FEW040 24/20 Q1012","temp":24,"dewp":20,"wdir":110,"wspd":5,"visib":"6+","altim":1012,"clouds":[{"cover":"FEW","base":4000}],"obsTime":1776380400},"SBMO":{"icaoId":"SBMO","flightCategory":"VFR","rawOb":"METAR SBMO 162300Z 14003KT 9999 FEW021 26/23 Q1011","temp":26,"dewp":23,"wdir":140,"wspd":3,"visib":"6+","altim":1011,"clouds":[{"cover":"FEW","base":2100}],"obsTime":1776380400},"SBBV":{"icaoId":"SBBV","flightCategory":"VFR","rawOb":"METAR SBBV 162300Z 17006KT 9999 VCTS FEW040 FEW045CB SCT100 31/24 Q1006","temp":31,"dewp":24,"wdir":170,"wspd":6,"visib":"6+","altim":1006,"clouds":[{"cover":"FEW","base":4000},{"cover":"FEW","base":4500},{"cover":"SCT","base":10000}],"obsTime":1776380400},"SBMQ":{"icaoId":"SBMQ","flightCategory":"VFR","rawOb":"METAR SBMQ 162300Z 35003KT 9999 SCT007 SCT030 25/25 Q1008","temp":25,"dewp":25,"wdir":350,"wspd":3,"visib":"6+","altim":1008,"clouds":[{"cover":"SCT","base":700},{"cover":"SCT","base":3000}],"obsTime":1776380400},"SBCF":{"icaoId":"SBCF","flightCategory":"VFR","rawOb":"METAR SBCF 162300Z 11003KT 040V150 CAVOK 22/15 Q1016","temp":22,"dewp":15,"wdir":110,"wspd":3,"visib":"6+","altim":1016,"clouds":[],"obsTime":1776380400},"SBVT":{"icaoId":"SBVT","flightCategory":"VFR","rawOb":"METAR SBVT 162300Z 21006KT 9999 FEW015 SCT100 24/22 Q1012","temp":24,"dewp":22,"wdir":210,"wspd":6,"visib":"6+","altim":1012,"clouds":[{"cover":"FEW","base":1500},{"cover":"SCT","base":10000}],"obsTime":1776380400},"SBSV":{"icaoId":"SBSV","flightCategory":"VFR","rawOb":"METAR SBSV 162300Z 14007KT 9999 FEW019 27/22 Q1011","temp":27,"dewp":22,"wdir":140,"wspd":7,"visib":"6+","altim":1011,"clouds":[{"cover":"FEW","base":1900}],"obsTime":1776380400},"SBCT":{"icaoId":"SBCT","flightCategory":"VFR","rawOb":"METAR SBCT 162300Z 07005KT 9999 FEW010 BKN080 19/18 Q1015","temp":19,"dewp":18,"wdir":70,"wspd":5,"visib":"6+","altim":1015,"clouds":[{"cover":"FEW","base":1000},{"cover":"BKN","base":8000}],"obsTime":1776380400},"SBGO":{"icaoId":"SBGO","flightCategory":"IFR","rawOb":"SPECI SBGO 162217Z 32005KT 160V280 2000 +SHRA BKN025 SCT048 FEW049TCU 23/21 Q1013 RESHRA","temp":23,"dewp":21,"wdir":320,"wspd":5,"visib":1.24,"altim":1013,"clouds":[{"cover":"BKN","base":2500},{"cover":"SCT","base":4800},{"cover":"FEW","base":4900}],"obsTime":1776377820},"SBPA":{"icaoId":"SBPA","flightCategory":"VFR","rawOb":"METAR SBPA 162300Z 00000KT 9999 BKN040 24/22 Q1006 RETS","temp":24,"dewp":22,"wdir":0,"wspd":0,"visib":"6+","altim":1006,"clouds":[{"cover":"BKN","base":4000}],"obsTime":1776380400},"SBBR":{"icaoId":"SBBR","flightCategory":"VFR","rawOb":"METAR SBBR 162300Z 12006KT 9999 BKN040 BKN100 23/18 Q1015","temp":23,"dewp":18,"wdir":120,"wspd":6,"visib":"6+","altim":1015,"clouds":[{"cover":"BKN","base":4000},{"cover":"BKN","base":10000}],"obsTime":1776380400},"SBPJ":{"icaoId":"SBPJ","flightCategory":"VFR","rawOb":"METAR SBPJ 162300Z 09003KT 9999 FEW020 SCT050 25/25 Q1008","temp":25,"dewp":25,"wdir":90,"wspd":3,"visib":"6+","altim":1008,"clouds":[{"cover":"FEW","base":2000},{"cover":"SCT","base":5000}],"obsTime":1776380400},"SBGR":{"icaoId":"SBGR","flightCategory":"VFR","rawOb":"METAR SBGR 162300Z 16004KT CAVOK 21/18 Q1015","temp":21,"dewp":18,"wdir":160,"wspd":4,"visib":"6+","altim":1015,"clouds":[],"obsTime":1776380400},"SBPV":{"icaoId":"SBPV","flightCategory":"VFR","rawOb":"METAR SBPV 162300Z 36002KT 9999 -DZ FEW010 SCT030 FEW035TCU BKN040 26/23 Q1007","temp":26,"dewp":23,"wdir":360,"wspd":2,"visib":"6+","altim":1007,"clouds":[{"cover":"FEW","base":1000},{"cover":"SCT","base":3000},{"cover":"FEW","base":3500},{"cover":"BKN","base":4000}],"obsTime":1776380400},"SBTE":{"icaoId":"SBTE","flightCategory":"VFR","rawOb":"METAR SBTE 162300Z 02008KT 9999 SCT025 BKN080 25/23 Q1009","temp":25,"dewp":23,"wdir":20,"wspd":8,"visib":"6+","altim":1009,"clouds":[{"cover":"SCT","base":2500},{"cover":"BKN","base":8000}],"obsTime":1776380400},"SBEG":{"icaoId":"SBEG","flightCategory":"VFR","rawOb":"METAR SBEG 162300Z 17004KT 140V200 9999 VCTS SCT025 FEW030CB SCT080 29/25 Q1007","temp":29,"dewp":25,"wdir":170,"wspd":4,"visib":"6+","altim":1007,"clouds":[{"cover":"SCT","base":2500},{"cover":"FEW","base":3000},{"cover":"SCT","base":8000}],"obsTime":1776380400},"SBRB":{"icaoId":"SBRB","flightCategory":"MVFR","rawOb":"SPECI SBRB 162244Z 16009KT 130V200 5000 -RA SCT010 BKN025 FEW040TCU OVC060 22/21 Q1009","temp":22,"dewp":21,"wdir":160,"wspd":9,"visib":3.11,"altim":1009,"clouds":[{"cover":"SCT","base":1000},{"cover":"BKN","base":2500},{"cover":"FEW","base":4000},{"cover":"OVC","base":6000}],"obsTime":1776379440},"SBCG":{"icaoId":"SBCG","flightCategory":"VFR","rawOb":"METAR SBCG 162300Z 35003KT 9999 VCTS FEW040 FEW045CB BKN070 26/23 Q1011","temp":26,"dewp":23,"wdir":350,"wspd":3,"visib":"6+","altim":1011,"clouds":[{"cover":"FEW","base":4000},{"cover":"FEW","base":4500},{"cover":"BKN","base":7000}],"obsTime":1776380400},"SBRF":{"icaoId":"SBRF","flightCategory":"VFR","rawOb":"METAR SBRF 162300Z 15013KT 9999 SCT020 SCT080 27/24 Q1011","temp":27,"dewp":24,"wdir":150,"wspd":13,"visib":"6+","altim":1011,"clouds":[{"cover":"SCT","base":2000},{"cover":"SCT","base":8000}],"obsTime":1776380400},"SBKP":{"icaoId":"SBKP","flightCategory":"VFR","rawOb":"METAR SBKP 162300Z 07004KT CAVOK 24/15 Q1013","temp":24,"dewp":15,"wdir":70,"wspd":4,"visib":"6+","altim":1013,"clouds":[],"obsTime":1776380400},"SBSG":{"icaoId":"SBSG","flightCategory":"VFR","rawOb":"METAR SBSG 162300Z 13004KT 100V160 9999 FEW020 26/24 Q1010","temp":26,"dewp":24,"wdir":130,"wspd":4,"visib":"6+","altim":1010,"clouds":[{"cover":"FEW","base":2000}],"obsTime":1776380400},"SBFI":{"icaoId":"SBFI","flightCategory":"MVFR","rawOb":"METAR SBFI 162300Z 00000KT 9999 FEW020 BKN030 23/22 Q1009","temp":23,"dewp":22,"wdir":0,"wspd":0,"visib":"6+","altim":1009,"clouds":[{"cover":"FEW","base":2000},{"cover":"BKN","base":3000}],"obsTime":1776380400},"SBSL":{"icaoId":"SBSL","flightCategory":"VFR","rawOb":"METAR SBSL 162300Z 08006KT 9999 FEW027 SCT080 27/24 Q1009","temp":27,"dewp":24,"wdir":80,"wspd":6,"visib":"6+","altim":1009,"clouds":[{"cover":"FEW","base":2700},{"cover":"SCT","base":8000}],"obsTime":1776380400},"SBLO":{"icaoId":"SBLO","flightCategory":"VFR","rawOb":"METAR SBLO 162300Z 07002KT CAVOK 25/19 Q1012","temp":25,"dewp":19,"wdir":70,"wspd":2,"visib":"6+","altim":1012,"clouds":[],"obsTime":1776380400},"SBSN":{"icaoId":"SBSN","flightCategory":"VFR","rawOb":"METAR SBSN 162300Z 13004KT 9999 FEW040TCU SCT100 27/25 Q1006","temp":27,"dewp":25,"wdir":130,"wspd":4,"visib":"6+","altim":1006,"clouds":[{"cover":"FEW","base":4000},{"cover":"SCT","base":10000}],"obsTime":1776380400},"SBBE":{"icaoId":"SBBE","flightCategory":"VFR","rawOb":"METAR SBBE 162300Z 09004KT 9999 FEW049 26/24 Q1008","temp":26,"dewp":24,"wdir":90,"wspd":4,"visib":"6+","altim":1008,"clouds":[{"cover":"FEW","base":4900}],"obsTime":1776380400},"SBSP":{"icaoId":"SBSP","flightCategory":"VFR","rawOb":"METAR SBSP 162300Z 15003KT CAVOK 19/17 Q1016","temp":19,"dewp":17,"wdir":150,"wspd":3,"visib":"6+","altim":1016,"clouds":[],"obsTime":1776380400},"SBFL":{"icaoId":"SBFL","flightCategory":"VFR","rawOb":"METAR SBFL 162300Z 01008KT 9999 FEW013 OVC100 24/22 Q1010","temp":24,"dewp":22,"wdir":10,"wspd":8,"visib":"6+","altim":1010,"clouds":[{"cover":"FEW","base":1300},{"cover":"OVC","base":10000}],"obsTime":1776380400},"SBCZ":{"icaoId":"SBCZ","flightCategory":"MVFR","rawOb":"METAR SBCZ 162300Z 07008KT 9999 VCSH FEW018 BKN030 FEW035TCU BKN100 27/24 Q1007","temp":27,"dewp":24,"wdir":70,"wspd":8,"visib":"6+","altim":1007,"clouds":[{"cover":"FEW","base":1800},{"cover":"BKN","base":3000},{"cover":"FEW","base":3500},{"cover":"BKN","base":10000}],"obsTime":1776380400},"SBIL":{"icaoId":"SBIL","flightCategory":"VFR","rawOb":"METAR SBIL 162300Z 17007KT 9999 FEW023 28/23 Q1011","temp":28,"dewp":23,"wdir":170,"wspd":7,"visib":"6+","altim":1011,"clouds":[{"cover":"FEW","base":2300}],"obsTime":1776380400},"SBJU":{"icaoId":"SBJU","flightCategory":"VFR","rawOb":"METAR SBJU 162300Z 00000KT 9999 FEW022 26/22 Q1011","temp":26,"dewp":22,"wdir":0,"wspd":0,"visib":"6+","altim":1011,"clouds":[{"cover":"FEW","base":2200}],"obsTime":1776380400},"SBME":{"icaoId":"SBME","flightCategory":"VFR","rawOb":"METAR SBME 162300Z 16002KT CAVOK 24/21 Q1012","temp":24,"dewp":21,"wdir":160,"wspd":2,"visib":"6+","altim":1012,"clouds":[],"obsTime":1776380400},"SBMG":{"icaoId":"SBMG","flightCategory":"VFR","rawOb":"METAR SBMG 162300Z 04005KT CAVOK 25/19 Q1011","temp":25,"dewp":19,"wdir":40,"wspd":5,"visib":"6+","altim":1011,"clouds":[],"obsTime":1776380400},"SBMK":{"icaoId":"SBMK","flightCategory":"VFR","rawOb":"METAR SBMK 162300Z 19004KT CAVOK 22/16 Q1014","temp":22,"dewp":16,"wdir":190,"wspd":4,"visib":"6+","altim":1014,"clouds":[],"obsTime":1776380400},"SBNT":{"icaoId":"SBNT","flightCategory":"VFR","rawOb":"METAR SBNT 162300Z 13007KT 9999 FEW018 27/24 Q1010","temp":27,"dewp":24,"wdir":130,"wspd":7,"visib":"6+","altim":1010,"clouds":[{"cover":"FEW","base":1800}],"obsTime":1776380400},"SBUR":{"icaoId":"SBUR","flightCategory":"VFR","rawOb":"METAR SBUR 162300Z 15004KT CAVOK 25/14 Q1014","temp":25,"dewp":14,"wdir":150,"wspd":4,"visib":"6+","altim":1014,"clouds":[],"obsTime":1776380400},"SBUL":{"icaoId":"SBUL","flightCategory":"VFR","rawOb":"METAR SBUL 162300Z 09002KT 9999 SCT040 FEW050TCU 24/15 Q1017","temp":24,"dewp":15,"wdir":90,"wspd":2,"visib":"6+","altim":1017,"clouds":[{"cover":"SCT","base":4000},{"cover":"FEW","base":5000}],"obsTime":1776380400},"SBAR":{"icaoId":"SBAR","flightCategory":"VFR","rawOb":"METAR SBAR 162300Z 14007KT 9999 FEW024 28/22 Q1011","temp":28,"dewp":22,"wdir":140,"wspd":7,"visib":"6+","altim":1011,"clouds":[{"cover":"FEW","base":2400}],"obsTime":1776380400},"SBPL":{"icaoId":"SBPL","flightCategory":"VFR","rawOb":"METAR SBPL 162300Z 10005KT CAVOK 29/17 Q1010","temp":29,"dewp":17,"wdir":100,"wspd":5,"visib":"6+","altim":1010,"clouds":[],"obsTime":1776380400},"SBSJ":{"icaoId":"SBSJ","flightCategory":"VFR","rawOb":"METAR SBSJ 162300Z 12009KT CAVOK 20/17 Q1014","temp":20,"dewp":17,"wdir":120,"wspd":9,"visib":"6+","altim":1014,"clouds":[],"obsTime":1776380400},"SBPS":{"icaoId":"SBPS","flightCategory":"VFR","rawOb":"METAR SBPS 162300Z 17005KT 120V240 9999 FEW020 25/23 Q1012","temp":25,"dewp":23,"wdir":170,"wspd":5,"visib":"6+","altim":1012,"clouds":[{"cover":"FEW","base":2000}],"obsTime":1776380400},"SBOI":{"icaoId":"SBOI","flightCategory":"VFR","rawOb":"METAR SBOI 162300Z AUTO 11004KT 030V160 9999 -RA SCT015 SCT023 27/25 Q1009","temp":27,"dewp":25,"wdir":110,"wspd":4,"visib":"6+","altim":1009,"clouds":[{"cover":"SCT","base":1500},{"cover":"SCT","base":2300}],"obsTime":1776380400},"SBCO":{"icaoId":"SBCO","flightCategory":"VFR","rawOb":"METAR SBCO 162300Z VRB01KT 9999 FEW045 FEW050TCU BKN060 23/22 Q1006 RETS","temp":23,"dewp":22,"wdir":"VRB","wspd":1,"visib":"6+","altim":1006,"clouds":[{"cover":"FEW","base":4500},{"cover":"FEW","base":5000},{"cover":"BKN","base":6000}],"obsTime":1776380400},"SBDN":{"icaoId":"SBDN","flightCategory":"VFR","rawOb":"METAR SBDN 162300Z 00000KT CAVOK 26/18 Q1011","temp":26,"dewp":18,"wdir":0,"wspd":0,"visib":"6+","altim":1011,"clouds":[],"obsTime":1776380400},"SBES":{"icaoId":"SBES","flightCategory":"VFR","rawOb":"METAR SBES 162300Z VRB04KT CAVOK 23/// Q1012","temp":null,"dewp":null,"wdir":"VRB","wspd":4,"visib":"6+","altim":1012,"clouds":[],"obsTime":1776380400},"SBIP":{"icaoId":"SBIP","flightCategory":"VFR","rawOb":"METAR SBIP 162300Z AUTO 20001KT CAVOK 20/19 Q1012","temp":20,"dewp":19,"wdir":200,"wspd":1,"visib":"6+","altim":1012,"clouds":[],"obsTime":1776380400},"SBKG":{"icaoId":"SBKG","flightCategory":"VFR","rawOb":"METAR SBKG 162300Z 09008KT 9999 SCT018 24/22 Q1013","temp":24,"dewp":22,"wdir":90,"wspd":8,"visib":"6+","altim":1013,"clouds":[{"cover":"SCT","base":1800}],"obsTime":1776380400},"SBSC":{"icaoId":"SBSC","flightCategory":"VFR","rawOb":"METAR SBSC 162300Z 20003KT CAVOK 23/21 Q1012","temp":23,"dewp":21,"wdir":200,"wspd":3,"visib":"6+","altim":1012,"clouds":[],"obsTime":1776380400},"SBSM":{"icaoId":"SBSM","flightCategory":"VFR","rawOb":"METAR SBSM 162300Z 31006KT 9999 SCT030 BKN070 24/19 Q1007","temp":24,"dewp":19,"wdir":310,"wspd":6,"visib":"6+","altim":1007,"clouds":[{"cover":"SCT","base":3000},{"cover":"BKN","base":7000}],"obsTime":1776380400},"SBSR":{"icaoId":"SBSR","flightCategory":"VFR","rawOb":"METAR SBSR 162300Z 14004KT CAVOK 28/16 Q1012","temp":28,"dewp":16,"wdir":140,"wspd":4,"visib":"6+","altim":1012,"clouds":[],"obsTime":1776380400},"SBVH":{"icaoId":"SBVH","flightCategory":"VFR","rawOb":"METAR SBVH 162300Z 05004KT 9999 FEW006 SCT035 BKN080 22/22 Q1011","temp":22,"dewp":22,"wdir":50,"wspd":4,"visib":"6+","altim":1011,"clouds":[{"cover":"FEW","base":600},{"cover":"SCT","base":3500},{"cover":"BKN","base":8000}],"obsTime":1776380400},"SBAX":{"icaoId":"SBAX","flightCategory":"VFR","rawOb":"METAR SBAX 162300Z 12008KT CAVOK 23/14 Q1015","temp":23,"dewp":14,"wdir":120,"wspd":8,"visib":"6+","altim":1015,"clouds":[],"obsTime":1776380400},"SBBH":{"icaoId":"SBBH","flightCategory":"VFR","rawOb":"METAR SBBH 162300Z 00000KT CAVOK 20/17 Q1015","temp":20,"dewp":17,"wdir":0,"wspd":0,"visib":"6+","altim":1015,"clouds":[],"obsTime":1776380400},"SBBU":{"icaoId":"SBBU","flightCategory":"VFR","rawOb":"METAR SBBU 162300Z 11002KT CAVOK 27/17 Q1013","temp":27,"dewp":17,"wdir":110,"wspd":2,"visib":"6+","altim":1013,"clouds":[],"obsTime":1776380400},"SBCA":{"icaoId":"SBCA","flightCategory":"VFR","rawOb":"METAR SBCA 162300Z 01006KT 9999 SCT025 22/20 Q1013","temp":22,"dewp":20,"wdir":10,"wspd":6,"visib":"6+","altim":1013,"clouds":[{"cover":"SCT","base":2500}],"obsTime":1776380400},"SBTT":{"icaoId":"SBTT","flightCategory":"MVFR","rawOb":"METAR SBTT 162300Z 07003KT 9999 BKN020 BKN030 25/23 Q1007","temp":25,"dewp":23,"wdir":70,"wspd":3,"visib":"6+","altim":1007,"clouds":[{"cover":"BKN","base":2000},{"cover":"BKN","base":3000}],"obsTime":1776380400},"SBTF":{"icaoId":"SBTF","flightCategory":"VFR","rawOb":"SPECI SBTF 162245Z 00000KT 9999 SCT013 BKN090 29/26 Q1006","temp":29,"dewp":26,"wdir":0,"wspd":0,"visib":"6+","altim":1006,"clouds":[{"cover":"SCT","base":1300},{"cover":"BKN","base":9000}],"obsTime":1776379500},"SBJP":{"icaoId":"SBJP","flightCategory":"VFR","rawOb":"METAR SBJP 162300Z 14008KT CAVOK 26/24 Q1011","temp":26,"dewp":24,"wdir":140,"wspd":8,"visib":"6+","altim":1011,"clouds":[],"obsTime":1776380400},"SBAN":{"icaoId":"SBAN","flightCategory":"VFR","rawOb":"METAR SBAN 162300Z 16005KT 9999 VCSH FEW040 FEW045TCU BKN080 20/17 Q1016","temp":20,"dewp":17,"wdir":160,"wspd":5,"visib":"6+","altim":1016,"clouds":[{"cover":"FEW","base":4000},{"cover":"FEW","base":4500},{"cover":"BKN","base":8000}],"obsTime":1776380400},"SBAF":{"icaoId":"SBAF","flightCategory":"VFR","rawOb":"METAR SBAF 162300Z 25001KT CAVOK 23/22 Q1012","temp":23,"dewp":22,"wdir":250,"wspd":1,"visib":"6+","altim":1012,"clouds":[],"obsTime":1776380400},"SBJR":{"icaoId":"SBJR","flightCategory":"VFR","rawOb":"METAR SBJR 162300Z 25002KT 9999 SCT045 23/21 Q1012","temp":23,"dewp":21,"wdir":250,"wspd":2,"visib":"6+","altim":1012,"clouds":[{"cover":"SCT","base":4500}],"obsTime":1776380400},"SBLS":{"icaoId":"SBLS","flightCategory":"VFR","rawOb":"METAR SBLS 162300Z 13003KT CAVOK 22/14 Q1015","temp":22,"dewp":14,"wdir":130,"wspd":3,"visib":"6+","altim":1015,"clouds":[],"obsTime":1776380400},"SBJV":{"icaoId":"SBJV","flightCategory":"MVFR","rawOb":"METAR SBJV 162300Z 03003KT 9999 BKN025 25/21 Q1011","temp":25,"dewp":21,"wdir":30,"wspd":3,"visib":"6+","altim":1011,"clouds":[{"cover":"BKN","base":2500}],"obsTime":1776380400},"SBTA":{"icaoId":"SBTA","flightCategory":"VFR","rawOb":"METAR SBTA 162300Z VRB01KT CAVOK 20/16 Q1013","temp":20,"dewp":16,"wdir":"VRB","wspd":1,"visib":"6+","altim":1013,"clouds":[],"obsTime":1776380400},"SBLE":{"icaoId":"SBLE","flightCategory":"VFR","rawOb":"METAR SBLE 162300Z AUTO VRB02KT CAVOK ///// Q////","temp":null,"dewp":null,"wdir":"VRB","wspd":2,"visib":"6+","altim":null,"clouds":[],"obsTime":1776380400},"SBMT":{"icaoId":"SBMT","flightCategory":"VFR","rawOb":"METAR SBMT 162300Z 14004KT CAVOK 20/17 Q1014","temp":20,"dewp":17,"wdir":140,"wspd":4,"visib":"6+","altim":1014,"clouds":[],"obsTime":1776380400}}}