{"updated":1775924479,"count":85,"data":{"SBAT":{"icaoId":"SBAT","flightCategory":"VFR","rawOb":"METAR SBAT 111500Z 34002KT 9999 SCT025 31/24 Q1014","temp":31,"dewp":24,"wdir":340,"wspd":2,"visib":"6+","altim":1014,"clouds":[{"cover":"SCT","base":2500}],"obsTime":1775919600},"SBBE":{"icaoId":"SBBE","flightCategory":"VFR","rawOb":"METAR SBBE 111500Z 06006KT 9999 SCT025 BKN035 30/24 Q1013","temp":30,"dewp":24,"wdir":60,"wspd":6,"visib":"6+","altim":1013,"clouds":[{"cover":"SCT","base":2500},{"cover":"BKN","base":3500}],"obsTime":1775919600},"SBBR":{"icaoId":"SBBR","flightCategory":"VFR","rawOb":"METAR SBBR 111500Z 09011KT 040V110 9999 SCT020 25/19 Q1020","temp":25,"dewp":19,"wdir":90,"wspd":11,"visib":"6+","altim":1020,"clouds":[{"cover":"SCT","base":2000}],"obsTime":1775919600},"SBBV":{"icaoId":"SBBV","flightCategory":"VFR","rawOb":"METAR SBBV 111500Z 10013KT 9999 SCT030 31/21 Q1014","temp":31,"dewp":21,"wdir":100,"wspd":13,"visib":"6+","altim":1014,"clouds":[{"cover":"SCT","base":3000}],"obsTime":1775919600},"SBCB":{"icaoId":"SBCB","flightCategory":"VFR","rawOb":"METAR SBCB 111500Z 25010KT 9999 FEW020 BKN080 25/20 Q1020","temp":25,"dewp":20,"wdir":250,"wspd":10,"visib":"6+","altim":1020,"clouds":[{"cover":"FEW","base":2000},{"cover":"BKN","base":8000}],"obsTime":1775919600},"SBCF":{"icaoId":"SBCF","flightCategory":"MVFR","rawOb":"METAR SBCF 111500Z 11008KT 080V140 9999 BKN025 24/18 Q1021","temp":24,"dewp":18,"wdir":110,"wspd":8,"visib":"6+","altim":1021,"clouds":[{"cover":"BKN","base":2500}],"obsTime":1775919600},"SBCG":{"icaoId":"SBCG","flightCategory":"VFR","rawOb":"METAR SBCG 111500Z 09011KT 9999 FEW025 28/22 Q1017","temp":28,"dewp":22,"wdir":90,"wspd":11,"visib":"6+","altim":1017,"clouds":[{"cover":"FEW","base":2500}],"obsTime":1775919600},"SBCP":{"icaoId":"SBCP","flightCategory":"MVFR","rawOb":"METAR SBCP 111500Z 20009KT 9999 BKN020 27/20 Q1019","temp":27,"dewp":20,"wdir":200,"wspd":9,"visib":"6+","altim":1019,"clouds":[{"cover":"BKN","base":2000}],"obsTime":1775919600},"SBCR":{"icaoId":"SBCR","flightCategory":"VFR","rawOb":"METAR SBCR 111500Z 04008KT 360V120 9999 FEW030 SCT035 30/24 Q1013","temp":30,"dewp":24,"wdir":40,"wspd":8,"visib":"6+","altim":1013,"clouds":[{"cover":"FEW","base":3000},{"cover":"SCT","base":3500}],"obsTime":1775919600},"SBCT":{"icaoId":"SBCT","flightCategory":"MVFR","rawOb":"METAR SBCT 111500Z 09013KT 060V130 9999 SCT016 BKN025 20/14 Q1024","temp":20,"dewp":14,"wdir":90,"wspd":13,"visib":"6+","altim":1024,"clouds":[{"cover":"SCT","base":1600},{"cover":"BKN","base":2500}],"obsTime":1775919600},"SBCZ":{"icaoId":"SBCZ","flightCategory":"MVFR","rawOb":"METAR SBCZ 111500Z 20005KT 9999 BKN020 SCT100 28/24 Q1015","temp":28,"dewp":24,"wdir":200,"wspd":5,"visib":"6+","altim":1015,"clouds":[{"cover":"BKN","base":2000},{"cover":"SCT","base":10000}],"obsTime":1775919600},"SBEG":{"icaoId":"SBEG","flightCategory":"MVFR","rawOb":"METAR SBEG 111500Z 09002KT 9999 VCSH BKN020 FEW025TCU 29/25 Q1013","temp":29,"dewp":25,"wdir":90,"wspd":2,"visib":"6+","altim":1013,"clouds":[{"cover":"BKN","base":2000},{"cover":"FEW","base":2500}],"obsTime":1775919600},"SBFI":{"icaoId":"SBFI","flightCategory":"VFR","rawOb":"METAR SBFI 111500Z 03009KT 9999 SCT025 BKN100 25/20 Q1017","temp":25,"dewp":20,"wdir":30,"wspd":9,"visib":"6+","altim":1017,"clouds":[{"cover":"SCT","base":2500},{"cover":"BKN","base":10000}],"obsTime":1775919600},"SBFL":{"icaoId":"SBFL","flightCategory":"VFR","rawOb":"METAR SBFL 111500Z 26005KT 9999 SCT048 BKN080 25/18 Q1021","temp":25,"dewp":18,"wdir":260,"wspd":5,"visib":"6+","altim":1021,"clouds":[{"cover":"SCT","base":4800},{"cover":"BKN","base":8000}],"obsTime":1775919600},"SBFZ":{"icaoId":"SBFZ","flightCategory":"MVFR","rawOb":"METAR SBFZ 111500Z 04004KT 010V070 8000 -RA SCT015 FEW030TCU BKN060 25/24 Q1013","temp":25,"dewp":24,"wdir":40,"wspd":4,"visib":4.97,"altim":1013,"clouds":[{"cover":"SCT","base":1500},{"cover":"FEW","base":3000},{"cover":"BKN","base":6000}],"obsTime":1775919600},"SBGL":{"icaoId":"SBGL","flightCategory":"VFR","rawOb":"METAR SBGL 111500Z 03004KT 350V080 9999 FEW030 BKN080 26/19 Q1020","temp":26,"dewp":19,"wdir":30,"wspd":4,"visib":"6+","altim":1020,"clouds":[{"cover":"FEW","base":3000},{"cover":"BKN","base":8000}],"obsTime":1775919600},"SBGO":{"icaoId":"SBGO","flightCategory":"VFR","rawOb":"METAR SBGO 111500Z 09008KT 050V130 9999 SCT030 28/21 Q1018","temp":28,"dewp":21,"wdir":90,"wspd":8,"visib":"6+","altim":1018,"clouds":[{"cover":"SCT","base":3000}],"obsTime":1775919600},"SBGR":{"icaoId":"SBGR","flightCategory":"VFR","rawOb":"METAR SBGR 111500Z 08010KT 9999 FEW035 24/15 Q1022","temp":24,"dewp":15,"wdir":80,"wspd":10,"visib":"6+","altim":1022,"clouds":[{"cover":"FEW","base":3500}],"obsTime":1775919600},"SBHT":{"icaoId":"SBHT","flightCategory":"MVFR","rawOb":"METAR SBHT 111500Z 06008KT 9999 BKN025 30/24 Q1014","temp":30,"dewp":24,"wdir":60,"wspd":8,"visib":"6+","altim":1014,"clouds":[{"cover":"BKN","base":2500}],"obsTime":1775919600},"SBIL":{"icaoId":"SBIL","flightCategory":"VFR","rawOb":"METAR SBIL 111500Z 19008KT 150V220 9999 SCT020 29/25 Q1015","temp":29,"dewp":25,"wdir":190,"wspd":8,"visib":"6+","altim":1015,"clouds":[{"cover":"SCT","base":2000}],"obsTime":1775919600},"SBJU":{"icaoId":"SBJU","flightCategory":"VFR","rawOb":"METAR SBJU 111500Z 06008KT 9999 SCT020 30/22 Q1014","temp":30,"dewp":22,"wdir":60,"wspd":8,"visib":"6+","altim":1014,"clouds":[{"cover":"SCT","base":2000}],"obsTime":1775919600},"SBKP":{"icaoId":"SBKP","flightCategory":"VFR","rawOb":"METAR SBKP 111500Z 12007KT 070V160 CAVOK 26/16 Q1021","temp":26,"dewp":16,"wdir":120,"wspd":7,"visib":"6+","altim":1021,"clouds":[],"obsTime":1775919600},"SBLO":{"icaoId":"SBLO","flightCategory":"VFR","rawOb":"METAR SBLO 111500Z 09011KT CAVOK 25/16 Q1020","temp":25,"dewp":16,"wdir":90,"wspd":11,"visib":"6+","altim":1020,"clouds":[],"obsTime":1775919600},"SBMA":{"icaoId":"SBMA","flightCategory":"MVFR","rawOb":"METAR SBMA 111500Z 26003KT 9000 -RA SCT015 BKN020 BKN080 26/24 Q1014","temp":26,"dewp":24,"wdir":260,"wspd":3,"visib":5.59,"altim":1014,"clouds":[{"cover":"SCT","base":1500},{"cover":"BKN","base":2000},{"cover":"BKN","base":8000}],"obsTime":1775919600},"SBME":{"icaoId":"SBME","flightCategory":"VFR","rawOb":"METAR SBME 111500Z 17006KT 9999 SCT025 BKN100 29/20 Q1019","temp":29,"dewp":20,"wdir":170,"wspd":6,"visib":"6+","altim":1019,"clouds":[{"cover":"SCT","base":2500},{"cover":"BKN","base":10000}],"obsTime":1775919600},"SBMG":{"icaoId":"SBMG","flightCategory":"VFR","rawOb":"METAR SBMG 111500Z 08012KT 050V120 CAVOK 26/16 Q1019","temp":26,"dewp":16,"wdir":80,"wspd":12,"visib":"6+","altim":1019,"clouds":[],"obsTime":1775919600},"SBMK":{"icaoId":"SBMK","flightCategory":"VFR","rawOb":"METAR SBMK 111500Z 10010KT 9999 BKN035 28/20 Q1018","temp":28,"dewp":20,"wdir":100,"wspd":10,"visib":"6+","altim":1018,"clouds":[{"cover":"BKN","base":3500}],"obsTime":1775919600},"SBMO":{"icaoId":"SBMO","flightCategory":"VFR","rawOb":"METAR SBMO 111500Z 13008KT 070V180 9999 FEW030 31/21 Q1013","temp":31,"dewp":21,"wdir":130,"wspd":8,"visib":"6+","altim":1013,"clouds":[{"cover":"FEW","base":3000}],"obsTime":1775919600},"SBMQ":{"icaoId":"SBMQ","flightCategory":"VFR","rawOb":"METAR SBMQ 111500Z 02009KT 9999 VCSH BKN033 FEW034TCU 28/24 Q1014","temp":28,"dewp":24,"wdir":20,"wspd":9,"visib":"6+","altim":1014,"clouds":[{"cover":"BKN","base":3300},{"cover":"FEW","base":3400}],"obsTime":1775919600},"SBNT":{"icaoId":"SBNT","flightCategory":"VFR","rawOb":"METAR SBNT 111500Z 10012KT 070V140 9999 SCT026 SCT066 31/24 Q1012","temp":31,"dewp":24,"wdir":100,"wspd":12,"visib":"6+","altim":1012,"clouds":[{"cover":"SCT","base":2600},{"cover":"SCT","base":6600}],"obsTime":1775919600},"SBPA":{"icaoId":"SBPA","flightCategory":"VFR","rawOb":"METAR SBPA 111500Z 09006KT CAVOK 26/15 Q1019","temp":26,"dewp":15,"wdir":90,"wspd":6,"visib":"6+","altim":1019,"clouds":[],"obsTime":1775919600},"SBPJ":{"icaoId":"SBPJ","flightCategory":"VFR","rawOb":"METAR SBPJ 111500Z 20011KT 170V230 9999 3000NW -RA SCT023 FEW026TCU 26/22 Q1013","temp":26,"dewp":22,"wdir":200,"wspd":11,"visib":"6+","altim":1013,"clouds":[{"cover":"SCT","base":2300},{"cover":"FEW","base":2600}],"obsTime":1775919600},"SBPV":{"icaoId":"SBPV","flightCategory":"MVFR","rawOb":"METAR SBPV 111500Z 08002KT 9999 BKN020 32/25 Q1013","temp":32,"dewp":25,"wdir":80,"wspd":2,"visib":"6+","altim":1013,"clouds":[{"cover":"BKN","base":2000}],"obsTime":1775919600},"SBRB":{"icaoId":"SBRB","flightCategory":"MVFR","rawOb":"METAR SBRB 111500Z VRB03KT 9999 SCT010 BKN017 30/25 Q1015","temp":30,"dewp":25,"wdir":"VRB","wspd":3,"visib":"6+","altim":1015,"clouds":[{"cover":"SCT","base":1000},{"cover":"BKN","base":1700}],"obsTime":1775919600},"SBRF":{"icaoId":"SBRF","flightCategory":"VFR","rawOb":"METAR SBRF 111500Z 15009KT 9999 SCT025 30/24 Q1012","temp":30,"dewp":24,"wdir":150,"wspd":9,"visib":"6+","altim":1012,"clouds":[{"cover":"SCT","base":2500}],"obsTime":1775919600},"SBSG":{"icaoId":"SBSG","flightCategory":"MVFR","rawOb":"METAR SBSG 111500Z 12008KT 090V170 9999 BKN026 28/25 Q1012","temp":28,"dewp":25,"wdir":120,"wspd":8,"visib":"6+","altim":1012,"clouds":[{"cover":"BKN","base":2600}],"obsTime":1775919600},"SBSL":{"icaoId":"SBSL","flightCategory":"MVFR","rawOb":"METAR SBSL 111500Z 08010KT 9999 BKN020 BKN080 29/25 Q1012","temp":29,"dewp":25,"wdir":80,"wspd":10,"visib":"6+","altim":1012,"clouds":[{"cover":"BKN","base":2000},{"cover":"BKN","base":8000}],"obsTime":1775919600},"SBSN":{"icaoId":"SBSN","flightCategory":"VFR","rawOb":"METAR SBSN 111500Z 08011KT 9999 FEW020 FEW025TCU BKN070 30/25 Q1013","temp":30,"dewp":25,"wdir":80,"wspd":11,"visib":"6+","altim":1013,"clouds":[{"cover":"FEW","base":2000},{"cover":"FEW","base":2500},{"cover":"BKN","base":7000}],"obsTime":1775919600},"SBSP":{"icaoId":"SBSP","flightCategory":"VFR","rawOb":"METAR SBSP 111500Z 12008KT 030V150 9999 SCT030 24/13 Q1023","temp":24,"dewp":13,"wdir":120,"wspd":8,"visib":"6+","altim":1023,"clouds":[{"cover":"SCT","base":3000}],"obsTime":1775919600},"SBSV":{"icaoId":"SBSV","flightCategory":"MVFR","rawOb":"METAR SBSV 111500Z 08010KT 8000 VCSH SCT023 FEW025TCU BKN040 BKN060 28/24 Q1014","temp":28,"dewp":24,"wdir":80,"wspd":10,"visib":4.97,"altim":1014,"clouds":[{"cover":"SCT","base":2300},{"cover":"FEW","base":2500},{"cover":"BKN","base":4000},{"cover":"BKN","base":6000}],"obsTime":1775919600},"SBTE":{"icaoId":"SBTE","flightCategory":"MVFR","rawOb":"METAR SBTE 111500Z 12004KT 9999 BKN020 BKN100 31/24 Q1012","temp":31,"dewp":24,"wdir":120,"wspd":4,"visib":"6+","altim":1012,"clouds":[{"cover":"BKN","base":2000},{"cover":"BKN","base":10000}],"obsTime":1775919600},"SBUL":{"icaoId":"SBUL","flightCategory":"VFR","rawOb":"METAR SBUL 111500Z 10010KT 050V130 9999 SCT030 27/20 Q1020","temp":27,"dewp":20,"wdir":100,"wspd":10,"visib":"6+","altim":1020,"clouds":[{"cover":"SCT","base":3000}],"obsTime":1775919600},"SBUR":{"icaoId":"SBUR","flightCategory":"VFR","rawOb":"METAR SBUR 111500Z 05006KT 9999 FEW038 28/19 Q1019","temp":28,"dewp":19,"wdir":50,"wspd":6,"visib":"6+","altim":1019,"clouds":[{"cover":"FEW","base":3800}],"obsTime":1775919600},"SBVT":{"icaoId":"SBVT","flightCategory":"MVFR","rawOb":"METAR SBVT 111500Z 20015KT 5000 -RA SCT010 BKN020 OVC030 23/22 Q1018","temp":23,"dewp":22,"wdir":200,"wspd":15,"visib":3.11,"altim":1018,"clouds":[{"cover":"SCT","base":1000},{"cover":"BKN","base":2000},{"cover":"OVC","base":3000}],"obsTime":1775919600},"SBOI":{"icaoId":"SBOI","flightCategory":"VFR","rawOb":"METAR SBOI 111500Z AUTO 06008KT 020V100 9999 FEW031 BKN040 30/23 Q1014","temp":30,"dewp":23,"wdir":60,"wspd":8,"visib":"6+","altim":1014,"clouds":[{"cover":"FEW","base":3100},{"cover":"BKN","base":4000}],"obsTime":1775919600},"SBKG":{"icaoId":"SBKG","flightCategory":"MVFR","rawOb":"METAR SBKG 111500Z 09006KT 9999 BKN028 28/21 Q1015","temp":28,"dewp":21,"wdir":90,"wspd":6,"visib":"6+","altim":1015,"clouds":[{"cover":"BKN","base":2800}],"obsTime":1775919600},"SBBQ":{"icaoId":"SBBQ","flightCategory":"MVFR","rawOb":"METAR SBBQ 111500Z 08005KT 9999 BKN017 20/16 Q1025","temp":20,"dewp":16,"wdir":80,"wspd":5,"visib":"6+","altim":1025,"clouds":[{"cover":"BKN","base":1700}],"obsTime":1775919600},"SBCJ":{"icaoId":"SBCJ","flightCategory":"MVFR","rawOb":"METAR SBCJ 111500Z 09005KT 9999 SCT013 BKN023 25/22 Q1018","temp":25,"dewp":22,"wdir":90,"wspd":5,"visib":"6+","altim":1018,"clouds":[{"cover":"SCT","base":1300},{"cover":"BKN","base":2300}],"obsTime":1775919600},"SBPB":{"icaoId":"SBPB","flightCategory":"MVFR","rawOb":"METAR SBPB 111500Z 08008KT 9999 BKN018 30/26 Q1012","temp":30,"dewp":26,"wdir":80,"wspd":8,"visib":"6+","altim":1012,"clouds":[{"cover":"BKN","base":1800}],"obsTime":1775919600},"SBBH":{"icaoId":"SBBH","flightCategory":"MVFR","rawOb":"METAR SBBH 111500Z 10009KT 9999 BKN025 25/19 Q1021","temp":25,"dewp":19,"wdir":100,"wspd":9,"visib":"6+","altim":1021,"clouds":[{"cover":"BKN","base":2500}],"obsTime":1775919600},"SBPL":{"icaoId":"SBPL","flightCategory":"MVFR","rawOb":"METAR SBPL 111500Z 13004KT 9999 BKN030 31/19 Q1014","temp":31,"dewp":19,"wdir":130,"wspd":4,"visib":"6+","altim":1014,"clouds":[{"cover":"BKN","base":3000}],"obsTime":1775919600},"SBPP":{"icaoId":"SBPP","flightCategory":"IFR","rawOb":"METAR SBPP 111500Z 02014KT 5000 BR BKN007 22/20 Q1019","temp":22,"dewp":20,"wdir":20,"wspd":14,"visib":3.11,"altim":1019,"clouds":[{"cover":"BKN","base":700}],"obsTime":1775919600},"SBCO":{"icaoId":"SBCO","flightCategory":"VFR","rawOb":"METAR SBCO 111500Z 10005KT 040V170 CAVOK 26/15 Q1019","temp":26,"dewp":15,"wdir":100,"wspd":5,"visib":"6+","altim":1019,"clouds":[],"obsTime":1775919600},"SBBU":{"icaoId":"SBBU","flightCategory":"VFR","rawOb":"METAR SBBU 111500Z 10007KT CAVOK 27/20 Q1020","temp":27,"dewp":20,"wdir":100,"wspd":7,"visib":"6+","altim":1020,"clouds":[],"obsTime":1775919600},"SBPS":{"icaoId":"SBPS","flightCategory":"VFR","rawOb":"METAR SBPS 111500Z VRB06KT 9999 SCT020 BKN050 28/24 Q1016","temp":28,"dewp":24,"wdir":"VRB","wspd":6,"visib":"6+","altim":1016,"clouds":[{"cover":"SCT","base":2000},{"cover":"BKN","base":5000}],"obsTime":1775919600},"SBDN":{"icaoId":"SBDN","flightCategory":"VFR","rawOb":"METAR SBDN 111500Z 09007KT CAVOK 27/17 Q1018","temp":27,"dewp":17,"wdir":90,"wspd":7,"visib":"6+","altim":1018,"clouds":[],"obsTime":1775919600},"SBSC":{"icaoId":"SBSC","flightCategory":"VFR","rawOb":"METAR SBSC 111500Z 20006KT 9999 FEW030 SCT080 26/18 Q1020","temp":26,"dewp":18,"wdir":200,"wspd":6,"visib":"6+","altim":1020,"clouds":[{"cover":"FEW","base":3000},{"cover":"SCT","base":8000}],"obsTime":1775919600},"SBSJ":{"icaoId":"SBSJ","flightCategory":"VFR","rawOb":"METAR SBSJ 111500Z 06005KT 9999 FEW020 SCT070 24/14 Q1022","temp":24,"dewp":14,"wdir":60,"wspd":5,"visib":"6+","altim":1022,"clouds":[{"cover":"FEW","base":2000},{"cover":"SCT","base":7000}],"obsTime":1775919600},"SBES":{"icaoId":"SBES","flightCategory":"VFR","rawOb":"METAR SBES 111500Z 22008KT 100V260 9999 FEW020 BKN080 25/// Q1020","temp":null,"dewp":null,"wdir":220,"wspd":8,"visib":"6+","altim":1020,"clouds":[{"cover":"FEW","base":2000},{"cover":"BKN","base":8000}],"obsTime":1775919600},"SBAR":{"icaoId":"SBAR","flightCategory":"VFR","rawOb":"METAR SBAR 111500Z 11010KT 070V140 9999 SCT020 SCT040 BKN080 29/23 Q1013","temp":29,"dewp":23,"wdir":110,"wspd":10,"visib":"6+","altim":1013,"clouds":[{"cover":"SCT","base":2000},{"cover":"SCT","base":4000},{"cover":"BKN","base":8000}],"obsTime":1775919600},"SBSM":{"icaoId":"SBSM","flightCategory":"VFR","rawOb":"METAR SBSM 111500Z 12006KT 070V160 9999 FEW020 24/17 Q1018","temp":24,"dewp":17,"wdir":120,"wspd":6,"visib":"6+","altim":1018,"clouds":[{"cover":"FEW","base":2000}],"obsTime":1775919600},"SBSR":{"icaoId":"SBSR","flightCategory":"VFR","rawOb":"METAR SBSR 111500Z VRB05KT 9999 FEW030 29/20 Q1018","temp":29,"dewp":20,"wdir":"VRB","wspd":5,"visib":"6+","altim":1018,"clouds":[{"cover":"FEW","base":3000}],"obsTime":1775919600},"SBAX":{"icaoId":"SBAX","flightCategory":"MVFR","rawOb":"METAR SBAX 111500Z AUTO 10009KT 050V150 9999 BKN025 24/17 Q1021","temp":24,"dewp":17,"wdir":100,"wspd":9,"visib":"6+","altim":1021,"clouds":[{"cover":"BKN","base":2500}],"obsTime":1775919600},"SBGM":{"icaoId":"SBGM","flightCategory":"VFR","rawOb":"METAR SBGM 111500Z 04003KT 9999 FEW016 SCT021 31/24 Q1014","temp":31,"dewp":24,"wdir":40,"wspd":3,"visib":"6+","altim":1014,"clouds":[{"cover":"FEW","base":1600},{"cover":"SCT","base":2100}],"obsTime":1775919600},"SBTF":{"icaoId":"SBTF","flightCategory":"VFR","rawOb":"METAR SBTF 111500Z 06004KT 9999 FEW015 SCT100 33/26 Q1012","temp":33,"dewp":26,"wdir":60,"wspd":4,"visib":"6+","altim":1012,"clouds":[{"cover":"FEW","base":1500},{"cover":"SCT","base":10000}],"obsTime":1775919600},"SBTT":{"icaoId":"SBTT","flightCategory":"VFR","rawOb":"METAR SBTT 111500Z 33005KT 9999 SCT015 BKN090 29/23 Q1014","temp":29,"dewp":23,"wdir":330,"wspd":5,"visib":"6+","altim":1014,"clouds":[{"cover":"SCT","base":1500},{"cover":"BKN","base":9000}],"obsTime":1775919600},"SBIP":{"icaoId":"SBIP","flightCategory":"VFR","rawOb":"METAR SBIP 111500Z AUTO 19006KT 9999 SCT035 OVC041 25/20 Q1019","temp":25,"dewp":20,"wdir":190,"wspd":6,"visib":"6+","altim":1019,"clouds":[{"cover":"SCT","base":3500},{"cover":"OVC","base":4100}],"obsTime":1775919600},"SBCC":{"icaoId":"SBCC","flightCategory":"MVFR","rawOb":"METAR SBCC 111500Z 09006KT 9999 BKN020 FEW025TCU 30/21 Q1015","temp":30,"dewp":21,"wdir":90,"wspd":6,"visib":"6+","altim":1015,"clouds":[{"cover":"BKN","base":2000},{"cover":"FEW","base":2500}],"obsTime":1775919600},"SBUY":{"icaoId":"SBUY","flightCategory":"MVFR","rawOb":"METAR SBUY 111500Z 30004KT 9999 BKN030 29/25 Q1012","temp":29,"dewp":25,"wdir":300,"wspd":4,"visib":"6+","altim":1012,"clouds":[{"cover":"BKN","base":3000}],"obsTime":1775919600},"SBVH":{"icaoId":"SBVH","flightCategory":"VFR","rawOb":"METAR SBVH 111500Z 06006KT 9999 SCT025 29/23 Q1017","temp":29,"dewp":23,"wdir":60,"wspd":6,"visib":"6+","altim":1017,"clouds":[{"cover":"SCT","base":2500}],"obsTime":1775919600},"SBCA":{"icaoId":"SBCA","flightCategory":"VFR","rawOb":"METAR SBCA 111500Z 05018KT 9999 FEW020 BKN080 21/15 Q1021","temp":21,"dewp":15,"wdir":50,"wspd":18,"visib":"6+","altim":1021,"clouds":[{"cover":"FEW","base":2000},{"cover":"BKN","base":8000}],"obsTime":1775919600},"SBJP":{"icaoId":"SBJP","flightCategory":"MVFR","rawOb":"METAR SBJP 111500Z 10011KT 9999 BKN030 31/23 Q1012","temp":31,"dewp":23,"wdir":100,"wspd":11,"visib":"6+","altim":1012,"clouds":[{"cover":"BKN","base":3000}],"obsTime":1775919600},"SBJV":{"icaoId":"SBJV","flightCategory":"MVFR","rawOb":"METAR SBJV 111500Z 35006KT 8000 SCT013 BKN025 23/20 Q1022","temp":23,"dewp":20,"wdir":350,"wspd":6,"visib":4.97,"altim":1022,"clouds":[{"cover":"SCT","base":1300},{"cover":"BKN","base":2500}],"obsTime":1775919600},"SBNM":{"icaoId":"SBNM","flightCategory":"MVFR","rawOb":"METAR SBNM 111500Z 04012KT 9999 BKN020 BKN100 29/23 Q1017","temp":29,"dewp":23,"wdir":40,"wspd":12,"visib":"6+","altim":1017,"clouds":[{"cover":"BKN","base":2000},{"cover":"BKN","base":10000}],"obsTime":1775919600},"SBIH":{"icaoId":"SBIH","flightCategory":"VFR","rawOb":"METAR SBIH 111500Z 02004KT 9999 SCT016 30/25 Q1013","temp":30,"dewp":25,"wdir":20,"wspd":4,"visib":"6+","altim":1013,"clouds":[{"cover":"SCT","base":1600}],"obsTime":1775919600},"SBAN":{"icaoId":"SBAN","flightCategory":"MVFR","rawOb":"METAR SBAN 111500Z 13015KT 100V160 9999 SCT015 BKN030 27/19 Q1021","temp":27,"dewp":19,"wdir":130,"wspd":15,"visib":"6+","altim":1021,"clouds":[{"cover":"SCT","base":1500},{"cover":"BKN","base":3000}],"obsTime":1775919600},"SBLE":{"icaoId":"SBLE","flightCategory":"VFR","rawOb":"METAR SBLE 111500Z AUTO VRB05KT 9999 FEW040 29/19 Q1017","temp":29,"dewp":19,"wdir":"VRB","wspd":5,"visib":"6+","altim":1017,"clouds":[{"cover":"FEW","base":4000}],"obsTime":1775919600},"SBTC":{"icaoId":"SBTC","flightCategory":"VFR","rawOb":"METAR SBTC 111500Z 10003KT 9999 SCT030 27/23 Q1015","temp":27,"dewp":23,"wdir":100,"wspd":3,"visib":"6+","altim":1015,"clouds":[{"cover":"SCT","base":3000}],"obsTime":1775919600},"SBAF":{"icaoId":"SBAF","flightCategory":"VFR","rawOb":"METAR SBAF 111500Z 15002KT 9999 FEW030 SCT100 27/19 Q1020","temp":27,"dewp":19,"wdir":150,"wspd":2,"visib":"6+","altim":1020,"clouds":[{"cover":"FEW","base":3000},{"cover":"SCT","base":10000}],"obsTime":1775919600},"SBGW":{"icaoId":"SBGW","flightCategory":"VFR","rawOb":"METAR SBGW 111500Z 03005KT 9999 FEW020 BKN050 25/14 Q1022","temp":25,"dewp":14,"wdir":30,"wspd":5,"visib":"6+","altim":1022,"clouds":[{"cover":"FEW","base":2000},{"cover":"BKN","base":5000}],"obsTime":1775919600},"SBJR":{"icaoId":"SBJR","flightCategory":"VFR","rawOb":"METAR SBJR 111500Z 18005KT 9999 FEW030 SCT090 29/19 Q1020","temp":29,"dewp":19,"wdir":180,"wspd":5,"visib":"6+","altim":1020,"clouds":[{"cover":"FEW","base":3000},{"cover":"SCT","base":9000}],"obsTime":1775919600},"SBLS":{"icaoId":"SBLS","flightCategory":"MVFR","rawOb":"METAR SBLS 111500Z 14011KT 080V140 9999 BKN021 24/19 Q1021","temp":24,"dewp":19,"wdir":140,"wspd":11,"visib":"6+","altim":1021,"clouds":[{"cover":"BKN","base":2100}],"obsTime":1775919600},"SBMT":{"icaoId":"SBMT","flightCategory":"VFR","rawOb":"METAR SBMT 111500Z 09010KT 060V130 CAVOK 24/14 Q1022","temp":24,"dewp":14,"wdir":90,"wspd":10,"visib":"6+","altim":1022,"clouds":[],"obsTime":1775919600},"SBST":{"icaoId":"SBST","flightCategory":"VFR","rawOb":"METAR SBST 111500Z 15008KT 110V190 9999 FEW020 26/20 Q1020","temp":26,"dewp":20,"wdir":150,"wspd":8,"visib":"6+","altim":1020,"clouds":[{"cover":"FEW","base":2000}],"obsTime":1775919600},"SBTA":{"icaoId":"SBTA","flightCategory":"VFR","rawOb":"METAR SBTA 111500Z 08004KT 9999 FEW030 25/15 Q1021","temp":25,"dewp":15,"wdir":80,"wspd":4,"visib":"6+","altim":1021,"clouds":[{"cover":"FEW","base":3000}],"obsTime":1775919600}}}