{"updated":1774198296,"count":87,"data":{"SBVT":{"icaoId":"SBVT","flightCategory":"VFR","rawOb":"METAR SBVT 221500Z 16012KT 9999 FEW040 28/22 Q1012","temp":28,"dewp":22,"wdir":160,"wspd":12,"visib":"6+","altim":1012,"clouds":[{"cover":"FEW","base":4000}],"obsTime":1774191600},"SBBE":{"icaoId":"SBBE","flightCategory":"VFR","rawOb":"METAR SBBE 221500Z 09006KT 9999 SCT030 31/23 Q1011","temp":31,"dewp":23,"wdir":90,"wspd":6,"visib":"6+","altim":1011,"clouds":[{"cover":"SCT","base":3000}],"obsTime":1774191600},"SBBR":{"icaoId":"SBBR","flightCategory":"VFR","rawOb":"METAR SBBR 221500Z 36004KT 9999 TS FEW030 FEW035CB BKN100 24/21 Q1019 RETS","temp":24,"dewp":21,"wdir":360,"wspd":4,"visib":"6+","altim":1019,"clouds":[{"cover":"FEW","base":3000},{"cover":"FEW","base":3500},{"cover":"BKN","base":10000}],"obsTime":1774191600},"SBBV":{"icaoId":"SBBV","flightCategory":"VFR","rawOb":"METAR SBBV 221500Z 12008KT 9999 SCT035 32/21 Q1012","temp":32,"dewp":21,"wdir":120,"wspd":8,"visib":"6+","altim":1012,"clouds":[{"cover":"SCT","base":3500}],"obsTime":1774191600},"SBCB":{"icaoId":"SBCB","flightCategory":"VFR","rawOb":"METAR SBCB 221500Z 07009KT 9999 FEW020 SCT070 29/21 Q1013","temp":29,"dewp":21,"wdir":70,"wspd":9,"visib":"6+","altim":1013,"clouds":[{"cover":"FEW","base":2000},{"cover":"SCT","base":7000}],"obsTime":1774191600},"SBCF":{"icaoId":"SBCF","flightCategory":"VFR","rawOb":"METAR SBCF 221500Z VRB02KT 9999 SCT035 28/19 Q1017","temp":28,"dewp":19,"wdir":"VRB","wspd":2,"visib":"6+","altim":1017,"clouds":[{"cover":"SCT","base":3500}],"obsTime":1774191600},"SBCG":{"icaoId":"SBCG","flightCategory":"MVFR","rawOb":"METAR SBCG 221500Z 34011KT 320V020 9999 BKN030 31/23 Q1014","temp":31,"dewp":23,"wdir":340,"wspd":11,"visib":"6+","altim":1014,"clouds":[{"cover":"BKN","base":3000}],"obsTime":1774191600},"SBCP":{"icaoId":"SBCP","flightCategory":"MVFR","rawOb":"METAR SBCP 221500Z 07003KT 9999 SCT015 BKN025 32/22 Q1012","temp":32,"dewp":22,"wdir":70,"wspd":3,"visib":"6+","altim":1012,"clouds":[{"cover":"SCT","base":1500},{"cover":"BKN","base":2500}],"obsTime":1774191600},"SBCR":{"icaoId":"SBCR","flightCategory":"VFR","rawOb":"METAR SBCR 221500Z VRB04KT 9999 SCT016 32/25 Q1011","temp":32,"dewp":25,"wdir":"VRB","wspd":4,"visib":"6+","altim":1011,"clouds":[{"cover":"SCT","base":1600}],"obsTime":1774191600},"SBCT":{"icaoId":"SBCT","flightCategory":"VFR","rawOb":"METAR SBCT 221500Z 27009G19KT 9999 SCT025 SCT100 25/20 Q1018","temp":25,"dewp":20,"wdir":270,"wspd":9,"visib":"6+","altim":1018,"clouds":[{"cover":"SCT","base":2500},{"cover":"SCT","base":10000}],"obsTime":1774191600},"SBCZ":{"icaoId":"SBCZ","flightCategory":"MVFR","rawOb":"METAR SBCZ 221500Z 15002KT 8000 -RA SCT007 OVC100 24/23 Q1012","temp":24,"dewp":23,"wdir":150,"wspd":2,"visib":4.97,"altim":1012,"clouds":[{"cover":"SCT","base":700},{"cover":"OVC","base":10000}],"obsTime":1774191600},"SBEG":{"icaoId":"SBEG","flightCategory":"VFR","rawOb":"METAR SBEG 221500Z 05008KT 010V090 9999 SCT020 32/24 Q1011","temp":32,"dewp":24,"wdir":50,"wspd":8,"visib":"6+","altim":1011,"clouds":[{"cover":"SCT","base":2000}],"obsTime":1774191600},"SBFI":{"icaoId":"SBFI","flightCategory":"MVFR","rawOb":"METAR SBFI 221500Z 35005KT 9999 BKN030 SCT080 33/26 Q1011","temp":33,"dewp":26,"wdir":350,"wspd":5,"visib":"6+","altim":1011,"clouds":[{"cover":"BKN","base":3000},{"cover":"SCT","base":8000}],"obsTime":1774191600},"SBFL":{"icaoId":"SBFL","flightCategory":"VFR","rawOb":"METAR SBFL 221500Z 14014KT 9999 FEW033 30/23 Q1011","temp":30,"dewp":23,"wdir":140,"wspd":14,"visib":"6+","altim":1011,"clouds":[{"cover":"FEW","base":3300}],"obsTime":1774191600},"SBFZ":{"icaoId":"SBFZ","flightCategory":"MVFR","rawOb":"METAR SBFZ 221500Z 09012KT 9999 BKN025 SCT100 30/24 Q1011","temp":30,"dewp":24,"wdir":90,"wspd":12,"visib":"6+","altim":1011,"clouds":[{"cover":"BKN","base":2500},{"cover":"SCT","base":10000}],"obsTime":1774191600},"SBGL":{"icaoId":"SBGL","flightCategory":"VFR","rawOb":"METAR SBGL 221500Z 15006KT 9999 FEW020 30/22 Q1012","temp":30,"dewp":22,"wdir":150,"wspd":6,"visib":"6+","altim":1012,"clouds":[{"cover":"FEW","base":2000}],"obsTime":1774191600},"SBGO":{"icaoId":"SBGO","flightCategory":"VFR","rawOb":"METAR SBGO 221500Z VRB04KT 9999 SCT045 28/21 Q1017","temp":28,"dewp":21,"wdir":"VRB","wspd":4,"visib":"6+","altim":1017,"clouds":[{"cover":"SCT","base":4500}],"obsTime":1774191600},"SBGR":{"icaoId":"SBGR","flightCategory":"VFR","rawOb":"METAR SBGR 221500Z 06002KT CAVOK 26/16 Q1016","temp":26,"dewp":16,"wdir":60,"wspd":2,"visib":"6+","altim":1016,"clouds":[],"obsTime":1774191600},"SBHT":{"icaoId":"SBHT","flightCategory":"MVFR","rawOb":"METAR SBHT 221500Z 08010KT 9999 BKN025 32/24 Q1011","temp":32,"dewp":24,"wdir":80,"wspd":10,"visib":"6+","altim":1011,"clouds":[{"cover":"BKN","base":2500}],"obsTime":1774191600},"SBIL":{"icaoId":"SBIL","flightCategory":"VFR","rawOb":"METAR SBIL 221500Z 07009KT 9999 SCT023 32/26 Q1012","temp":32,"dewp":26,"wdir":70,"wspd":9,"visib":"6+","altim":1012,"clouds":[{"cover":"SCT","base":2300}],"obsTime":1774191600},"SBJU":{"icaoId":"SBJU","flightCategory":"MVFR","rawOb":"METAR SBJU 221500Z 00000KT 9999 BKN021 30/22 Q1013","temp":30,"dewp":22,"wdir":0,"wspd":0,"visib":"6+","altim":1013,"clouds":[{"cover":"BKN","base":2100}],"obsTime":1774191600},"SBKP":{"icaoId":"SBKP","flightCategory":"VFR","rawOb":"METAR SBKP 221500Z 28003KT 200V340 CAVOK 29/15 Q1016","temp":29,"dewp":15,"wdir":280,"wspd":3,"visib":"6+","altim":1016,"clouds":[],"obsTime":1774191600},"SBLO":{"icaoId":"SBLO","flightCategory":"VFR","rawOb":"METAR SBLO 221500Z 30008KT 9999 SCT040 31/21 Q1015","temp":31,"dewp":21,"wdir":300,"wspd":8,"visib":"6+","altim":1015,"clouds":[{"cover":"SCT","base":4000}],"obsTime":1774191600},"SBMA":{"icaoId":"SBMA","flightCategory":"VFR","rawOb":"METAR SBMA 221500Z 10003KT 9999 SCT020 31/23 Q1011","temp":31,"dewp":23,"wdir":100,"wspd":3,"visib":"6+","altim":1011,"clouds":[{"cover":"SCT","base":2000}],"obsTime":1774191600},"SBME":{"icaoId":"SBME","flightCategory":"VFR","rawOb":"METAR SBME 221500Z 14008KT 9999 SCT025 31/23 Q1012","temp":31,"dewp":23,"wdir":140,"wspd":8,"visib":"6+","altim":1012,"clouds":[{"cover":"SCT","base":2500}],"obsTime":1774191600},"SBMG":{"icaoId":"SBMG","flightCategory":"VFR","rawOb":"METAR SBMG 221500Z 35011KT 9999 VCSH SCT035 FEW050TCU SCT070 32/23 Q1013","temp":32,"dewp":23,"wdir":350,"wspd":11,"visib":"6+","altim":1013,"clouds":[{"cover":"SCT","base":3500},{"cover":"FEW","base":5000},{"cover":"SCT","base":7000}],"obsTime":1774191600},"SBMK":{"icaoId":"SBMK","flightCategory":"VFR","rawOb":"METAR SBMK 221500Z 14004KT 9999 SCT030 FEW035TCU 29/20 Q1015","temp":29,"dewp":20,"wdir":140,"wspd":4,"visib":"6+","altim":1015,"clouds":[{"cover":"SCT","base":3000},{"cover":"FEW","base":3500}],"obsTime":1774191600},"SBMO":{"icaoId":"SBMO","flightCategory":"VFR","rawOb":"METAR SBMO 221500Z 12011KT 060V150 9999 BKN035 FEW040TCU 33/23 Q1012","temp":33,"dewp":23,"wdir":120,"wspd":11,"visib":"6+","altim":1012,"clouds":[{"cover":"BKN","base":3500},{"cover":"FEW","base":4000}],"obsTime":1774191600},"SBMQ":{"icaoId":"SBMQ","flightCategory":"VFR","rawOb":"METAR SBMQ 221500Z 06011KT 9999 FEW023 31/23 Q1011","temp":31,"dewp":23,"wdir":60,"wspd":11,"visib":"6+","altim":1011,"clouds":[{"cover":"FEW","base":2300}],"obsTime":1774191600},"SBNT":{"icaoId":"SBNT","flightCategory":"MVFR","rawOb":"METAR SBNT 221500Z 10012KT 9999 BKN030 32/23 Q1011","temp":32,"dewp":23,"wdir":100,"wspd":12,"visib":"6+","altim":1011,"clouds":[{"cover":"BKN","base":3000}],"obsTime":1774191600},"SBPA":{"icaoId":"SBPA","flightCategory":"IFR","rawOb":"METAR SBPA 221500Z 15005KT 120V190 6000 -DZ BKN009 OVC019 23/22 Q1013","temp":23,"dewp":22,"wdir":150,"wspd":5,"visib":3.73,"altim":1013,"clouds":[{"cover":"BKN","base":900},{"cover":"OVC","base":1900}],"obsTime":1774191600},"SBPJ":{"icaoId":"SBPJ","flightCategory":"VFR","rawOb":"METAR SBPJ 221500Z 24007KT 9999 FEW027 BKN100 30/25 Q1013","temp":30,"dewp":25,"wdir":240,"wspd":7,"visib":"6+","altim":1013,"clouds":[{"cover":"FEW","base":2700},{"cover":"BKN","base":10000}],"obsTime":1774191600},"SBPV":{"icaoId":"SBPV","flightCategory":"VFR","rawOb":"METAR SBPV 221500Z 03007KT 9999 FEW028 32/24 Q1010","temp":32,"dewp":24,"wdir":30,"wspd":7,"visib":"6+","altim":1010,"clouds":[{"cover":"FEW","base":2800}],"obsTime":1774191600},"SBRB":{"icaoId":"SBRB","flightCategory":"IFR","rawOb":"METAR SBRB 221500Z 30004KT 3000 -TSRA BR BKN005 BKN020 FEW030CB BKN070 23/22 Q1013","temp":23,"dewp":22,"wdir":300,"wspd":4,"visib":1.86,"altim":1013,"clouds":[{"cover":"BKN","base":500},{"cover":"BKN","base":2000},{"cover":"FEW","base":3000},{"cover":"BKN","base":7000}],"obsTime":1774191600},"SBRF":{"icaoId":"SBRF","flightCategory":"VFR","rawOb":"METAR SBRF 221500Z 09010KT 9999 SCT020 31/25 Q1011","temp":31,"dewp":25,"wdir":90,"wspd":10,"visib":"6+","altim":1011,"clouds":[{"cover":"SCT","base":2000}],"obsTime":1774191600},"SBSG":{"icaoId":"SBSG","flightCategory":"VFR","rawOb":"METAR SBSG 221500Z 11009KT 070V160 9999 SCT030 FEW035TCU 32/24 Q1011","temp":32,"dewp":24,"wdir":110,"wspd":9,"visib":"6+","altim":1011,"clouds":[{"cover":"SCT","base":3000},{"cover":"FEW","base":3500}],"obsTime":1774191600},"SBSL":{"icaoId":"SBSL","flightCategory":"MVFR","rawOb":"METAR SBSL 221500Z 07007KT 9999 BKN025 30/24 Q1011","temp":30,"dewp":24,"wdir":70,"wspd":7,"visib":"6+","altim":1011,"clouds":[{"cover":"BKN","base":2500}],"obsTime":1774191600},"SBSN":{"icaoId":"SBSN","flightCategory":"VFR","rawOb":"METAR SBSN 221500Z 10012KT 9999 FEW023 30/25 Q1011","temp":30,"dewp":25,"wdir":100,"wspd":12,"visib":"6+","altim":1011,"clouds":[{"cover":"FEW","base":2300}],"obsTime":1774191600},"SBSP":{"icaoId":"SBSP","flightCategory":"VFR","rawOb":"METAR SBSP 221500Z VRB03KT CAVOK 26/16 Q1017","temp":26,"dewp":16,"wdir":"VRB","wspd":3,"visib":"6+","altim":1017,"clouds":[],"obsTime":1774191600},"SBSV":{"icaoId":"SBSV","flightCategory":"VFR","rawOb":"METAR SBSV 221500Z 10010KT 9999 SCT023 31/22 Q1012","temp":31,"dewp":22,"wdir":100,"wspd":10,"visib":"6+","altim":1012,"clouds":[{"cover":"SCT","base":2300}],"obsTime":1774191600},"SBTE":{"icaoId":"SBTE","flightCategory":"MVFR","rawOb":"METAR SBTE 221500Z 13004KT 9999 BKN025 31/23 Q1011","temp":31,"dewp":23,"wdir":130,"wspd":4,"visib":"6+","altim":1011,"clouds":[{"cover":"BKN","base":2500}],"obsTime":1774191600},"SBUL":{"icaoId":"SBUL","flightCategory":"VFR","rawOb":"METAR SBUL 221500Z VRB02KT 9999 SCT030 28/21 Q1018","temp":28,"dewp":21,"wdir":"VRB","wspd":2,"visib":"6+","altim":1018,"clouds":[{"cover":"SCT","base":3000}],"obsTime":1774191600},"SBUR":{"icaoId":"SBUR","flightCategory":"VFR","rawOb":"METAR SBUR 221500Z 13004KT CAVOK 32/12 Q1016","temp":32,"dewp":12,"wdir":130,"wspd":4,"visib":"6+","altim":1016,"clouds":[],"obsTime":1774191600},"SBAT":{"icaoId":"SBAT","flightCategory":"VFR","rawOb":"METAR SBAT 221500Z 07007KT 9999 SCT025 30/22 Q1013","temp":30,"dewp":22,"wdir":70,"wspd":7,"visib":"6+","altim":1013,"clouds":[{"cover":"SCT","base":2500}],"obsTime":1774191600},"SBPS":{"icaoId":"SBPS","flightCategory":"MVFR","rawOb":"METAR SBPS 221500Z 09005KT 9999 VCSH BKN017 FEW025TCU BKN070 28/24 Q1013","temp":28,"dewp":24,"wdir":90,"wspd":5,"visib":"6+","altim":1013,"clouds":[{"cover":"BKN","base":1700},{"cover":"FEW","base":2500},{"cover":"BKN","base":7000}],"obsTime":1774191600},"SBAR":{"icaoId":"SBAR","flightCategory":"VFR","rawOb":"METAR SBAR 221500Z 09010KT 9999 FEW024 31/24 Q1011","temp":31,"dewp":24,"wdir":90,"wspd":10,"visib":"6+","altim":1011,"clouds":[{"cover":"FEW","base":2400}],"obsTime":1774191600},"SBAU":{"icaoId":"SBAU","flightCategory":"VFR","rawOb":"METAR SBAU 221500Z 01006KT 9999 SCT040 34/22 Q1014","temp":34,"dewp":22,"wdir":10,"wspd":6,"visib":"6+","altim":1014,"clouds":[{"cover":"SCT","base":4000}],"obsTime":1774191600},"SBSC":{"icaoId":"SBSC","flightCategory":"VFR","rawOb":"METAR SBSC 221500Z 17008KT 9999 FEW030 30/23 Q1012","temp":30,"dewp":23,"wdir":170,"wspd":8,"visib":"6+","altim":1012,"clouds":[{"cover":"FEW","base":3000}],"obsTime":1774191600},"SBAX":{"icaoId":"SBAX","flightCategory":"VFR","rawOb":"METAR SBAX 221500Z AUTO 27006KT 180V300 CAVOK 28/14 Q1018","temp":28,"dewp":14,"wdir":270,"wspd":6,"visib":"6+","altim":1018,"clouds":[],"obsTime":1774191600},"SBBH":{"icaoId":"SBBH","flightCategory":"VFR","rawOb":"METAR SBBH 221500Z 22004KT 9999 BKN035 28/18 Q1016","temp":28,"dewp":18,"wdir":220,"wspd":4,"visib":"6+","altim":1016,"clouds":[{"cover":"BKN","base":3500}],"obsTime":1774191600},"SBBQ":{"icaoId":"SBBQ","flightCategory":"VFR","rawOb":"METAR SBBQ 221500Z 27006KT 9999 SCT035 27/16 Q1019","temp":27,"dewp":16,"wdir":270,"wspd":6,"visib":"6+","altim":1019,"clouds":[{"cover":"SCT","base":3500}],"obsTime":1774191600},"SBBU":{"icaoId":"SBBU","flightCategory":"VFR","rawOb":"METAR SBBU 221500Z 05008KT CAVOK 31/18 Q1015","temp":31,"dewp":18,"wdir":50,"wspd":8,"visib":"6+","altim":1015,"clouds":[],"obsTime":1774191600},"SBCA":{"icaoId":"SBCA","flightCategory":"MVFR","rawOb":"METAR SBCA 221500Z 33009KT 9999 BKN020 FEW025TCU 29/23 Q1016","temp":29,"dewp":23,"wdir":330,"wspd":9,"visib":"6+","altim":1016,"clouds":[{"cover":"BKN","base":2000},{"cover":"FEW","base":2500}],"obsTime":1774191600},"SBCC":{"icaoId":"SBCC","flightCategory":"MVFR","rawOb":"METAR SBCC 221500Z 05006KT 9999 BKN020 FEW025TCU 30/21 Q1014","temp":30,"dewp":21,"wdir":50,"wspd":6,"visib":"6+","altim":1014,"clouds":[{"cover":"BKN","base":2000},{"cover":"FEW","base":2500}],"obsTime":1774191600},"SBCJ":{"icaoId":"SBCJ","flightCategory":"VFR","rawOb":"METAR SBCJ 221500Z 11005KT 9999 SCT017 28/21 Q1016","temp":28,"dewp":21,"wdir":110,"wspd":5,"visib":"6+","altim":1016,"clouds":[{"cover":"SCT","base":1700}],"obsTime":1774191600},"SBCO":{"icaoId":"SBCO","flightCategory":"IFR","rawOb":"METAR SBCO 221500Z 14008KT 8000 -DZ BKN009 OVC030 23/22 Q1013","temp":23,"dewp":22,"wdir":140,"wspd":8,"visib":4.97,"altim":1013,"clouds":[{"cover":"BKN","base":900},{"cover":"OVC","base":3000}],"obsTime":1774191600},"SBDN":{"icaoId":"SBDN","flightCategory":"VFR","rawOb":"METAR SBDN 221500Z 34005KT 9999 BKN040 34/21 Q1014","temp":34,"dewp":21,"wdir":340,"wspd":5,"visib":"6+","altim":1014,"clouds":[{"cover":"BKN","base":4000}],"obsTime":1774191600},"SBES":{"icaoId":"SBES","flightCategory":"VFR","rawOb":"METAR SBES 221500Z 10007KT 050V160 9999 SCT020 29/// Q1013","temp":null,"dewp":null,"wdir":100,"wspd":7,"visib":"6+","altim":1013,"clouds":[{"cover":"SCT","base":2000}],"obsTime":1774191600},"SBGM":{"icaoId":"SBGM","flightCategory":"VFR","rawOb":"METAR SBGM 221500Z 19004KT 9999 FEW030 28/22 Q1012","temp":28,"dewp":22,"wdir":190,"wspd":4,"visib":"6+","altim":1012,"clouds":[{"cover":"FEW","base":3000}],"obsTime":1774191600},"SBIP":{"icaoId":"SBIP","flightCategory":"VFR","rawOb":"METAR SBIP 221500Z AUTO VRB05KT 9999 SCT030 SCT034 30/21 Q1013","temp":30,"dewp":21,"wdir":"VRB","wspd":5,"visib":"6+","altim":1013,"clouds":[{"cover":"SCT","base":3000},{"cover":"SCT","base":3400}],"obsTime":1774191600},"SBKG":{"icaoId":"SBKG","flightCategory":"MVFR","rawOb":"METAR SBKG 221500Z 08006KT 9999 BKN023 31/21 Q1014","temp":31,"dewp":21,"wdir":80,"wspd":6,"visib":"6+","altim":1014,"clouds":[{"cover":"BKN","base":2300}],"obsTime":1774191600},"SBOI":{"icaoId":"SBOI","flightCategory":"VFR","rawOb":"METAR SBOI 221500Z AUTO 14005KT 080V220 9999 FEW047 31/24 Q1012","temp":31,"dewp":24,"wdir":140,"wspd":5,"visib":"6+","altim":1012,"clouds":[{"cover":"FEW","base":4700}],"obsTime":1774191600},"SBPB":{"icaoId":"SBPB","flightCategory":"VFR","rawOb":"METAR SBPB 221500Z 09012KT 9999 SCT020 SCT100 31/24 Q1011","temp":31,"dewp":24,"wdir":90,"wspd":12,"visib":"6+","altim":1011,"clouds":[{"cover":"SCT","base":2000},{"cover":"SCT","base":10000}],"obsTime":1774191600},"SBPL":{"icaoId":"SBPL","flightCategory":"MVFR","rawOb":"METAR SBPL 221500Z 07005KT 9999 BKN030 32/21 Q1013","temp":32,"dewp":21,"wdir":70,"wspd":5,"visib":"6+","altim":1013,"clouds":[{"cover":"BKN","base":3000}],"obsTime":1774191600},"SBPP":{"icaoId":"SBPP","flightCategory":"VFR","rawOb":"METAR SBPP 221500Z 34012KT 9999 SCT020 31/21 Q1015","temp":31,"dewp":21,"wdir":340,"wspd":12,"visib":"6+","altim":1015,"clouds":[{"cover":"SCT","base":2000}],"obsTime":1774191600},"SBSJ":{"icaoId":"SBSJ","flightCategory":"VFR","rawOb":"METAR SBSJ 221500Z 29002KT 9999 FEW033 28/// Q1015","temp":null,"dewp":null,"wdir":290,"wspd":2,"visib":"6+","altim":1015,"clouds":[{"cover":"FEW","base":3300}],"obsTime":1774191600},"SBSM":{"icaoId":"SBSM","flightCategory":"MVFR","rawOb":"METAR SBSM 221500Z 13004KT 050V220 9999 BKN013 OVC025 23/21 Q1013","temp":23,"dewp":21,"wdir":130,"wspd":4,"visib":"6+","altim":1013,"clouds":[{"cover":"BKN","base":1300},{"cover":"OVC","base":2500}],"obsTime":1774191600},"SBSR":{"icaoId":"SBSR","flightCategory":"VFR","rawOb":"METAR SBSR 221500Z 03007KT CAVOK 32/17 Q1015","temp":32,"dewp":17,"wdir":30,"wspd":7,"visib":"6+","altim":1015,"clouds":[],"obsTime":1774191600},"SBTF":{"icaoId":"SBTF","flightCategory":"VFR","rawOb":"METAR SBTF 221500Z 12007KT 9999 FEW017 34/26 Q1009","temp":34,"dewp":26,"wdir":120,"wspd":7,"visib":"6+","altim":1009,"clouds":[{"cover":"FEW","base":1700}],"obsTime":1774191600},"SBTT":{"icaoId":"SBTT","flightCategory":"VFR","rawOb":"METAR SBTT 221500Z 13009KT CAVOK 32/24 Q1010","temp":32,"dewp":24,"wdir":130,"wspd":9,"visib":"6+","altim":1010,"clouds":[],"obsTime":1774191600},"SBUY":{"icaoId":"SBUY","flightCategory":"VFR","rawOb":"METAR SBUY 221500Z 09008KT 9999 FEW025 33/23 Q1009","temp":33,"dewp":23,"wdir":90,"wspd":8,"visib":"6+","altim":1009,"clouds":[{"cover":"FEW","base":2500}],"obsTime":1774191600},"SBVH":{"icaoId":"SBVH","flightCategory":"MVFR","rawOb":"METAR SBVH 221500Z 03007KT 9999 SCT015 BKN020 28/22 Q1015","temp":28,"dewp":22,"wdir":30,"wspd":7,"visib":"6+","altim":1015,"clouds":[{"cover":"SCT","base":1500},{"cover":"BKN","base":2000}],"obsTime":1774191600},"SBPF":{"icaoId":"SBPF","flightCategory":"MVFR","rawOb":"METAR SBPF 221600Z AUTO 25005KT 220V300 9999 BKN027 28/22 Q1015","temp":28,"dewp":22,"wdir":250,"wspd":5,"visib":"6+","altim":1015,"clouds":[{"cover":"BKN","base":2700}],"obsTime":1774195200},"SBAF":{"icaoId":"SBAF","flightCategory":"VFR","rawOb":"METAR SBAF 221500Z 29002KT 9999 SCT036 31/22 Q1012","temp":31,"dewp":22,"wdir":290,"wspd":2,"visib":"6+","altim":1012,"clouds":[{"cover":"SCT","base":3600}],"obsTime":1774191600},"SBAN":{"icaoId":"SBAN","flightCategory":"VFR","rawOb":"METAR SBAN 221500Z 28005KT 9999 SCT030 BKN100 26/19 Q1020","temp":26,"dewp":19,"wdir":280,"wspd":5,"visib":"6+","altim":1020,"clouds":[{"cover":"SCT","base":3000},{"cover":"BKN","base":10000}],"obsTime":1774191600},"SBGW":{"icaoId":"SBGW","flightCategory":"MVFR","rawOb":"METAR SBGW 221500Z VRB03KT 9999 SCT011 BKN023 27/17 Q1015","temp":27,"dewp":17,"wdir":"VRB","wspd":3,"visib":"6+","altim":1015,"clouds":[{"cover":"SCT","base":1100},{"cover":"BKN","base":2300}],"obsTime":1774191600},"SBTC":{"icaoId":"SBTC","flightCategory":"VFR","rawOb":"METAR SBTC 221500Z 05004KT 9999 FEW020 BKN100 30/24 Q1012","temp":30,"dewp":24,"wdir":50,"wspd":4,"visib":"6+","altim":1012,"clouds":[{"cover":"FEW","base":2000},{"cover":"BKN","base":10000}],"obsTime":1774191600},"SBIH":{"icaoId":"SBIH","flightCategory":"VFR","rawOb":"METAR SBIH 221500Z 02006KT 9999 FEW020 32/25 Q1010","temp":32,"dewp":25,"wdir":20,"wspd":6,"visib":"6+","altim":1010,"clouds":[{"cover":"FEW","base":2000}],"obsTime":1774191600},"SBJP":{"icaoId":"SBJP","flightCategory":"VFR","rawOb":"METAR SBJP 221500Z 09008KT 9999 SCT020 32/23 Q1011","temp":32,"dewp":23,"wdir":90,"wspd":8,"visib":"6+","altim":1011,"clouds":[{"cover":"SCT","base":2000}],"obsTime":1774191600},"SBJR":{"icaoId":"SBJR","flightCategory":"VFR","rawOb":"METAR SBJR 221500Z 17007KT 9999 FEW022 32/21 Q1012","temp":32,"dewp":21,"wdir":170,"wspd":7,"visib":"6+","altim":1012,"clouds":[{"cover":"FEW","base":2200}],"obsTime":1774191600},"SBJV":{"icaoId":"SBJV","flightCategory":"VFR","rawOb":"METAR SBJV 221500Z 00000KT 9999 FEW018 BKN100 30/25 Q1011","temp":30,"dewp":25,"wdir":0,"wspd":0,"visib":"6+","altim":1011,"clouds":[{"cover":"FEW","base":1800},{"cover":"BKN","base":10000}],"obsTime":1774191600},"SBLE":{"icaoId":"SBLE","flightCategory":"VFR","rawOb":"METAR SBLE 221500Z AUTO 17004KT 100V230 9999 FEW026 BKN040 29/21 Q1015","temp":29,"dewp":21,"wdir":170,"wspd":4,"visib":"6+","altim":1015,"clouds":[{"cover":"FEW","base":2600},{"cover":"BKN","base":4000}],"obsTime":1774191600},"SBLS":{"icaoId":"SBLS","flightCategory":"VFR","rawOb":"METAR SBLS 221500Z VRB03KT 9999 SCT028 27/19 Q1016","temp":27,"dewp":19,"wdir":"VRB","wspd":3,"visib":"6+","altim":1016,"clouds":[{"cover":"SCT","base":2800}],"obsTime":1774191600},"SBMT":{"icaoId":"SBMT","flightCategory":"VFR","rawOb":"METAR SBMT 221500Z 25004KT 190V330 CAVOK 26/13 Q1016","temp":26,"dewp":13,"wdir":250,"wspd":4,"visib":"6+","altim":1016,"clouds":[],"obsTime":1774191600},"SBNM":{"icaoId":"SBNM","flightCategory":"MVFR","rawOb":"METAR SBNM 221500Z 15002KT 9999 -RA SCT010 BKN020 27/24 Q1012","temp":27,"dewp":24,"wdir":150,"wspd":2,"visib":"6+","altim":1012,"clouds":[{"cover":"SCT","base":1000},{"cover":"BKN","base":2000}],"obsTime":1774191600},"SBST":{"icaoId":"SBST","flightCategory":"VFR","rawOb":"METAR SBST 221500Z 13003KT CAVOK 28/21 Q1011","temp":28,"dewp":21,"wdir":130,"wspd":3,"visib":"6+","altim":1011,"clouds":[],"obsTime":1774191600},"SBTA":{"icaoId":"SBTA","flightCategory":"VFR","rawOb":"METAR SBTA 221500Z 03003KT 290V090 9999 FEW025 26/20 Q1015","temp":26,"dewp":20,"wdir":30,"wspd":3,"visib":"6+","altim":1015,"clouds":[{"cover":"FEW","base":2500}],"obsTime":1774191600}}}