{"updated":1773811482,"count":52,"data":{"SBFL":{"icaoId":"SBFL","flightCategory":"VFR","rawOb":"METAR SBFL 180400Z 34008KT 9999 BKN043 26/22 Q1012","temp":26,"dewp":22,"wdir":340,"wspd":8,"visib":"6+","altim":1012,"clouds":[{"cover":"BKN","base":4300}],"obsTime":1773806400},"SBBE":{"icaoId":"SBBE","flightCategory":"VFR","rawOb":"METAR SBBE 180400Z 09005KT CAVOK 24/24 Q1010","temp":24,"dewp":24,"wdir":90,"wspd":5,"visib":"6+","altim":1010,"clouds":[],"obsTime":1773806400},"SBBR":{"icaoId":"SBBR","flightCategory":"VFR","rawOb":"METAR SBBR 180400Z 21003KT 9999 FEW020 21/19 Q1018","temp":21,"dewp":19,"wdir":210,"wspd":3,"visib":"6+","altim":1018,"clouds":[{"cover":"FEW","base":2000}],"obsTime":1773806400},"SBBV":{"icaoId":"SBBV","flightCategory":"VFR","rawOb":"METAR SBBV 180400Z 08010KT CAVOK 28/21 Q1010","temp":28,"dewp":21,"wdir":80,"wspd":10,"visib":"6+","altim":1010,"clouds":[],"obsTime":1773806400},"SBCF":{"icaoId":"SBCF","flightCategory":"VFR","rawOb":"METAR SBCF 180400Z VRB03KT 9999 FEW020 SCT100 21/20 Q1016","temp":21,"dewp":20,"wdir":"VRB","wspd":3,"visib":"6+","altim":1016,"clouds":[{"cover":"FEW","base":2000},{"cover":"SCT","base":10000}],"obsTime":1773806400},"SBCG":{"icaoId":"SBCG","flightCategory":"VFR","rawOb":"METAR SBCG 180400Z 05005KT CAVOK 23/20 Q1012","temp":23,"dewp":20,"wdir":50,"wspd":5,"visib":"6+","altim":1012,"clouds":[],"obsTime":1773806400},"SBCT":{"icaoId":"SBCT","flightCategory":"IFR","rawOb":"METAR SBCT 180400Z 07005KT 9999 OVC008 20/19 Q1017","temp":20,"dewp":19,"wdir":70,"wspd":5,"visib":"6+","altim":1017,"clouds":[{"cover":"OVC","base":800}],"obsTime":1773806400},"SBEG":{"icaoId":"SBEG","flightCategory":"VFR","rawOb":"METAR SBEG 180400Z 07004KT 9999 VCTS FEW010 SCT017 FEW025CB 25/24 Q1011","temp":25,"dewp":24,"wdir":70,"wspd":4,"visib":"6+","altim":1011,"clouds":[{"cover":"FEW","base":1000},{"cover":"SCT","base":1700},{"cover":"FEW","base":2500}],"obsTime":1773806400},"SBFI":{"icaoId":"SBFI","flightCategory":"VFR","rawOb":"METAR SBFI 180400Z 18003KT 9999 FEW030 BKN100 23/23 Q1010","temp":23,"dewp":23,"wdir":180,"wspd":3,"visib":"6+","altim":1010,"clouds":[{"cover":"FEW","base":3000},{"cover":"BKN","base":10000}],"obsTime":1773806400},"SBFZ":{"icaoId":"SBFZ","flightCategory":"MVFR","rawOb":"METAR SBFZ 180400Z VRB02KT 9999 BKN020 26/24 Q1010","temp":26,"dewp":24,"wdir":"VRB","wspd":2,"visib":"6+","altim":1010,"clouds":[{"cover":"BKN","base":2000}],"obsTime":1773806400},"SBGL":{"icaoId":"SBGL","flightCategory":"VFR","rawOb":"METAR SBGL 180400Z 13004KT 9999 SCT025 24/22 Q1012","temp":24,"dewp":22,"wdir":130,"wspd":4,"visib":"6+","altim":1012,"clouds":[{"cover":"SCT","base":2500}],"obsTime":1773806400},"SBGO":{"icaoId":"SBGO","flightCategory":"VFR","rawOb":"METAR SBGO 180400Z VRB02KT 9999 SCT006 SCT100 22/21 Q1016","temp":22,"dewp":21,"wdir":"VRB","wspd":2,"visib":"6+","altim":1016,"clouds":[{"cover":"SCT","base":600},{"cover":"SCT","base":10000}],"obsTime":1773806400},"SBGR":{"icaoId":"SBGR","flightCategory":"MVFR","rawOb":"METAR SBGR 180400Z 12003KT 8000 NSC 20/19 Q1016","temp":20,"dewp":19,"wdir":120,"wspd":3,"visib":4.97,"altim":1016,"clouds":[],"obsTime":1773806400},"SBJU":{"icaoId":"SBJU","flightCategory":"VFR","rawOb":"METAR SBJU 180400Z 06005KT 9999 TS SCT020 FEW020CB 22/22 Q1014","temp":22,"dewp":22,"wdir":60,"wspd":5,"visib":"6+","altim":1014,"clouds":[{"cover":"SCT","base":2000},{"cover":"FEW","base":2000}],"obsTime":1773806400},"SBKP":{"icaoId":"SBKP","flightCategory":"VFR","rawOb":"METAR SBKP 180400Z 12006KT CAVOK 23/20 Q1014","temp":23,"dewp":20,"wdir":120,"wspd":6,"visib":"6+","altim":1014,"clouds":[],"obsTime":1773806400},"SBLO":{"icaoId":"SBLO","flightCategory":"VFR","rawOb":"METAR SBLO 180400Z 19004KT 9999 FEW004 21/21 Q1012","temp":21,"dewp":21,"wdir":190,"wspd":4,"visib":"6+","altim":1012,"clouds":[{"cover":"FEW","base":400}],"obsTime":1773806400},"SBMA":{"icaoId":"SBMA","flightCategory":"MVFR","rawOb":"METAR SBMA 180400Z 17002KT 9999 BKN015 FEW025TCU BKN080 25/24 Q1011","temp":25,"dewp":24,"wdir":170,"wspd":2,"visib":"6+","altim":1011,"clouds":[{"cover":"BKN","base":1500},{"cover":"FEW","base":2500},{"cover":"BKN","base":8000}],"obsTime":1773806400},"SBME":{"icaoId":"SBME","flightCategory":"MVFR","rawOb":"METAR SBME 180400Z 05002KT 9999 BKN025 25/23 Q1012","temp":25,"dewp":23,"wdir":50,"wspd":2,"visib":"6+","altim":1012,"clouds":[{"cover":"BKN","base":2500}],"obsTime":1773806400},"SBMG":{"icaoId":"SBMG","flightCategory":"VFR","rawOb":"METAR SBMG 180400Z AUTO VRB02KT CAVOK 22/20 Q1012","temp":22,"dewp":20,"wdir":"VRB","wspd":2,"visib":"6+","altim":1012,"clouds":[],"obsTime":1773806400},"SBMO":{"icaoId":"SBMO","flightCategory":"VFR","rawOb":"METAR SBMO 180400Z 35003KT CAVOK 24/23 Q1012","temp":24,"dewp":23,"wdir":350,"wspd":3,"visib":"6+","altim":1012,"clouds":[],"obsTime":1773806400},"SBMQ":{"icaoId":"SBMQ","flightCategory":"VFR","rawOb":"METAR SBMQ 180400Z 01004KT CAVOK 24/23 Q1010","temp":24,"dewp":23,"wdir":10,"wspd":4,"visib":"6+","altim":1010,"clouds":[],"obsTime":1773806400},"SBNT":{"icaoId":"SBNT","flightCategory":"VFR","rawOb":"METAR SBNT 180400Z 11005KT 9999 FEW019 26/24 Q1010 RETS","temp":26,"dewp":24,"wdir":110,"wspd":5,"visib":"6+","altim":1010,"clouds":[{"cover":"FEW","base":1900}],"obsTime":1773806400},"SBPA":{"icaoId":"SBPA","flightCategory":"VFR","rawOb":"METAR SBPA 180400Z VRB02KT 9999 SCT030 BKN090 24/22 Q1010","temp":24,"dewp":22,"wdir":"VRB","wspd":2,"visib":"6+","altim":1010,"clouds":[{"cover":"SCT","base":3000},{"cover":"BKN","base":9000}],"obsTime":1773806400},"SBPJ":{"icaoId":"SBPJ","flightCategory":"VFR","rawOb":"METAR SBPJ 180400Z 09002KT 9999 FEW027 SCT100 24/24 Q1013","temp":24,"dewp":24,"wdir":90,"wspd":2,"visib":"6+","altim":1013,"clouds":[{"cover":"FEW","base":2700},{"cover":"SCT","base":10000}],"obsTime":1773806400},"SBPV":{"icaoId":"SBPV","flightCategory":"VFR","rawOb":"METAR SBPV 180400Z 08006KT 9999 SCT030 25/23 Q1009","temp":25,"dewp":23,"wdir":80,"wspd":6,"visib":"6+","altim":1009,"clouds":[{"cover":"SCT","base":3000}],"obsTime":1773806400},"SBRB":{"icaoId":"SBRB","flightCategory":"VFR","rawOb":"METAR SBRB 180400Z 00000KT 9999 FEW008 BKN100 25/25 Q1010","temp":25,"dewp":25,"wdir":0,"wspd":0,"visib":"6+","altim":1010,"clouds":[{"cover":"FEW","base":800},{"cover":"BKN","base":10000}],"obsTime":1773806400},"SBRF":{"icaoId":"SBRF","flightCategory":"VFR","rawOb":"METAR SBRF 180400Z 10006KT 9999 SCT025 28/23 Q1011","temp":28,"dewp":23,"wdir":100,"wspd":6,"visib":"6+","altim":1011,"clouds":[{"cover":"SCT","base":2500}],"obsTime":1773806400},"SBSG":{"icaoId":"SBSG","flightCategory":"VFR","rawOb":"METAR SBSG 180400Z VRB02KT 9999 VCTS SCT020 FEW030CB 25/25 Q1011 RETS","temp":25,"dewp":25,"wdir":"VRB","wspd":2,"visib":"6+","altim":1011,"clouds":[{"cover":"SCT","base":2000},{"cover":"FEW","base":3000}],"obsTime":1773806400},"SBSL":{"icaoId":"SBSL","flightCategory":"VFR","rawOb":"METAR SBSL 180400Z 09007KT 9999 SCT017 FEW020TCU SCT100 25/24 Q1010","temp":25,"dewp":24,"wdir":90,"wspd":7,"visib":"6+","altim":1010,"clouds":[{"cover":"SCT","base":1700},{"cover":"FEW","base":2000},{"cover":"SCT","base":10000}],"obsTime":1773806400},"SBSN":{"icaoId":"SBSN","flightCategory":"MVFR","rawOb":"METAR SBSN 180400Z 06010KT 9999 -RA SCT007 BKN014 BKN100 25/24 Q1011","temp":25,"dewp":24,"wdir":60,"wspd":10,"visib":"6+","altim":1011,"clouds":[{"cover":"SCT","base":700},{"cover":"BKN","base":1400},{"cover":"BKN","base":10000}],"obsTime":1773806400},"SBSP":{"icaoId":"SBSP","flightCategory":"VFR","rawOb":"METAR SBSP 180400Z AUTO 16004KT 9000 NCD 20/19 Q1016","temp":20,"dewp":19,"wdir":160,"wspd":4,"visib":5.59,"altim":1016,"clouds":[],"obsTime":1773806400},"SBSV":{"icaoId":"SBSV","flightCategory":"VFR","rawOb":"METAR SBSV 180400Z 10006KT CAVOK 27/22 Q1012","temp":27,"dewp":22,"wdir":100,"wspd":6,"visib":"6+","altim":1012,"clouds":[],"obsTime":1773806400},"SBTE":{"icaoId":"SBTE","flightCategory":"VFR","rawOb":"METAR SBTE 180400Z 14002KT 9999 FEW018 OVC100 24/23 Q1011","temp":24,"dewp":23,"wdir":140,"wspd":2,"visib":"6+","altim":1011,"clouds":[{"cover":"FEW","base":1800},{"cover":"OVC","base":10000}],"obsTime":1773806400},"SBUL":{"icaoId":"SBUL","flightCategory":"VFR","rawOb":"METAR SBUL 180400Z 06004KT 9999 FEW011 SCT100 21/20 Q1017","temp":21,"dewp":20,"wdir":60,"wspd":4,"visib":"6+","altim":1017,"clouds":[{"cover":"FEW","base":1100},{"cover":"SCT","base":10000}],"obsTime":1773806400},"SBUR":{"icaoId":"SBUR","flightCategory":"VFR","rawOb":"METAR SBUR 180400Z 04003KT CAVOK 22/20 Q1015","temp":22,"dewp":20,"wdir":40,"wspd":3,"visib":"6+","altim":1015,"clouds":[],"obsTime":1773806400},"SBVT":{"icaoId":"SBVT","flightCategory":"VFR","rawOb":"METAR SBVT 180400Z 31002KT 9999 OVC039 24/23 Q1012","temp":24,"dewp":23,"wdir":310,"wspd":2,"visib":"6+","altim":1012,"clouds":[{"cover":"OVC","base":3900}],"obsTime":1773806400},"SBMK":{"icaoId":"SBMK","flightCategory":"VFR","rawOb":"METAR SBMK 180400Z 00000KT CAVOK 22/21 Q1015","temp":22,"dewp":21,"wdir":0,"wspd":0,"visib":"6+","altim":1015,"clouds":[],"obsTime":1773806400},"SBCB":{"icaoId":"SBCB","flightCategory":"VFR","rawOb":"METAR SBCB 180400Z 00000KT 9999 FEW025 23/21 Q1013","temp":23,"dewp":21,"wdir":0,"wspd":0,"visib":"6+","altim":1013,"clouds":[{"cover":"FEW","base":2500}],"obsTime":1773806400},"SBSR":{"icaoId":"SBSR","flightCategory":"VFR","rawOb":"METAR SBSR 180400Z 09005KT 9999 FEW045 SCT070 24/20 Q1013","temp":24,"dewp":20,"wdir":90,"wspd":5,"visib":"6+","altim":1013,"clouds":[{"cover":"FEW","base":4500},{"cover":"SCT","base":7000}],"obsTime":1773806400},"SBAR":{"icaoId":"SBAR","flightCategory":"MVFR","rawOb":"SPECI SBAR 180343Z 09007KT 8000 3000S SHRA SCT020 FEW023TCU 27/23 Q1011","temp":27,"dewp":23,"wdir":90,"wspd":7,"visib":4.97,"altim":1011,"clouds":[{"cover":"SCT","base":2000},{"cover":"FEW","base":2300}],"obsTime":1773805380},"SBAX":{"icaoId":"SBAX","flightCategory":"VFR","rawOb":"METAR SBAX 180400Z AUTO 15002KT CAVOK ///// Q1017","temp":null,"dewp":null,"wdir":150,"wspd":2,"visib":"6+","altim":1017,"clouds":[],"obsTime":1773806400},"SBDN":{"icaoId":"SBDN","flightCategory":"VFR","rawOb":"METAR SBDN 180400Z 08006KT CAVOK 23/21 Q1012","temp":23,"dewp":21,"wdir":80,"wspd":6,"visib":"6+","altim":1012,"clouds":[],"obsTime":1773806400},"SBIP":{"icaoId":"SBIP","flightCategory":"VFR","rawOb":"METAR SBIP 180400Z AUTO 00000KT CAVOK 22/22 Q1012","temp":22,"dewp":22,"wdir":0,"wspd":0,"visib":"6+","altim":1012,"clouds":[],"obsTime":1773806400},"SBKG":{"icaoId":"SBKG","flightCategory":"VFR","rawOb":"METAR SBKG 180400Z 09009KT 9999 SCT012 23/22 Q1013","temp":23,"dewp":22,"wdir":90,"wspd":9,"visib":"6+","altim":1013,"clouds":[{"cover":"SCT","base":1200}],"obsTime":1773806400},"SBOI":{"icaoId":"SBOI","flightCategory":"VFR","rawOb":"METAR SBOI 180400Z AUTO 00000KT 9999 FEW022 24/23 Q1012","temp":24,"dewp":23,"wdir":0,"wspd":0,"visib":"6+","altim":1012,"clouds":[{"cover":"FEW","base":2200}],"obsTime":1773806400},"SBPL":{"icaoId":"SBPL","flightCategory":"VFR","rawOb":"METAR SBPL 180400Z 18002KT CAVOK 25/20 Q1012","temp":25,"dewp":20,"wdir":180,"wspd":2,"visib":"6+","altim":1012,"clouds":[],"obsTime":1773806400},"SBPS":{"icaoId":"SBPS","flightCategory":"VFR","rawOb":"METAR SBPS 180400Z 32003KT 9999 SCT020 25/24 Q1012","temp":25,"dewp":24,"wdir":320,"wspd":3,"visib":"6+","altim":1012,"clouds":[{"cover":"SCT","base":2000}],"obsTime":1773806400},"SBSC":{"icaoId":"SBSC","flightCategory":"MVFR","rawOb":"METAR SBSC 180400Z 18003KT 9999 BKN026 24/22 Q1012","temp":24,"dewp":22,"wdir":180,"wspd":3,"visib":"6+","altim":1012,"clouds":[{"cover":"BKN","base":2600}],"obsTime":1773806400},"SBJP":{"icaoId":"SBJP","flightCategory":"VFR","rawOb":"METAR SBJP 180400Z 00000KT 9999 FEW020 SCT070 26/24 Q1011","temp":26,"dewp":24,"wdir":0,"wspd":0,"visib":"6+","altim":1011,"clouds":[{"cover":"FEW","base":2000},{"cover":"SCT","base":7000}],"obsTime":1773806400},"SBAN":{"icaoId":"SBAN","flightCategory":"VFR","rawOb":"METAR SBAN 180400Z 09002KT 9999 FEW020 BKN100 19/19 Q1018","temp":19,"dewp":19,"wdir":90,"wspd":2,"visib":"6+","altim":1018,"clouds":[{"cover":"FEW","base":2000},{"cover":"BKN","base":10000}],"obsTime":1773806400},"SBLE":{"icaoId":"SBLE","flightCategory":"VFR","rawOb":"METAR SBLE 180400Z AUTO 01005KT CAVOK 20/19 Q1015","temp":20,"dewp":19,"wdir":10,"wspd":5,"visib":"6+","altim":1015,"clouds":[],"obsTime":1773806400},"SBTA":{"icaoId":"SBTA","flightCategory":"VFR","rawOb":"METAR SBTA 180400Z 00000KT CAVOK 19/19 Q1014","temp":19,"dewp":19,"wdir":0,"wspd":0,"visib":"6+","altim":1014,"clouds":[],"obsTime":1773806400}}}