{"updated":1783597288,"count":85,"data":{"SBBE":{"icaoId":"SBBE","flightCategory":"VFR","rawOb":"METAR SBBE 091000Z 13005KT CAVOK 25/25 Q1013","temp":25,"dewp":25,"wdir":130,"wspd":5,"visib":"6+","altim":1013,"clouds":[],"obsTime":1783591200},"SBGR":{"icaoId":"SBGR","flightCategory":"LIFR","rawOb":"METAR SBGR 091000Z 05007KT 0800 R10R/P2000 R10L/P2000 R28L/P2000 R28R/P2000 FG OVC002 11/11 Q1022","temp":11,"dewp":11,"wdir":50,"wspd":7,"visib":0.5,"altim":1022,"clouds":[{"cover":"OVC","base":200}],"obsTime":1783591200},"SBFZ":{"icaoId":"SBFZ","flightCategory":"VFR","rawOb":"METAR SBFZ 091000Z 12008KT 9000 VCSH SCT018 FEW025TCU 26/24 Q1016","temp":26,"dewp":24,"wdir":120,"wspd":8,"visib":5.59,"altim":1016,"clouds":[{"cover":"SCT","base":1800},{"cover":"FEW","base":2500}],"obsTime":1783591200},"SBKP":{"icaoId":"SBKP","flightCategory":"IFR","rawOb":"METAR SBKP 091000Z 11005KT 3000 BR NSC 10/09 Q1021","temp":10,"dewp":9,"wdir":110,"wspd":5,"visib":1.86,"altim":1021,"clouds":[],"obsTime":1783591200},"SBMG":{"icaoId":"SBMG","flightCategory":"VFR","rawOb":"METAR SBMG 091000Z 09007KT CAVOK 10/07 Q1019","temp":10,"dewp":7,"wdir":90,"wspd":7,"visib":"6+","altim":1019,"clouds":[],"obsTime":1783591200},"SBGL":{"icaoId":"SBGL","flightCategory":"MVFR","rawOb":"METAR SBGL 091000Z 33004KT 310V010 9000 FEW015 OVC030 19/15 Q1021","temp":19,"dewp":15,"wdir":330,"wspd":4,"visib":5.59,"altim":1021,"clouds":[{"cover":"FEW","base":1500},{"cover":"OVC","base":3000}],"obsTime":1783591200},"SBMQ":{"icaoId":"SBMQ","flightCategory":"VFR","rawOb":"METAR SBMQ 091000Z 01003KT 9999 SCT015 25/25 Q1013","temp":25,"dewp":25,"wdir":10,"wspd":3,"visib":"6+","altim":1013,"clouds":[{"cover":"SCT","base":1500}],"obsTime":1783591200},"SBGO":{"icaoId":"SBGO","flightCategory":"VFR","rawOb":"METAR SBGO 091000Z 13005KT CAVOK 15/13 Q1020","temp":15,"dewp":13,"wdir":130,"wspd":5,"visib":"6+","altim":1020,"clouds":[],"obsTime":1783591200},"SBSN":{"icaoId":"SBSN","flightCategory":"VFR","rawOb":"METAR SBSN 091000Z 08012KT 9999 FEW016 27/24 Q1013","temp":27,"dewp":24,"wdir":80,"wspd":12,"visib":"6+","altim":1013,"clouds":[{"cover":"FEW","base":1600}],"obsTime":1783591200},"SBNT":{"icaoId":"SBNT","flightCategory":"VFR","rawOb":"METAR SBNT 091000Z 22004KT 180V250 9999 SCT030 BKN070 23/22 Q1017","temp":23,"dewp":22,"wdir":220,"wspd":4,"visib":"6+","altim":1017,"clouds":[{"cover":"SCT","base":3000},{"cover":"BKN","base":7000}],"obsTime":1783591200},"SBTE":{"icaoId":"SBTE","flightCategory":"MVFR","rawOb":"METAR SBTE 091000Z 05003KT 9999 BKN015 26/23 Q1015","temp":26,"dewp":23,"wdir":50,"wspd":3,"visib":"6+","altim":1015,"clouds":[{"cover":"BKN","base":1500}],"obsTime":1783591200},"SBVT":{"icaoId":"SBVT","flightCategory":"VFR","rawOb":"METAR SBVT 091000Z 21006KT 9999 FEW025 BKN040 BKN060 20/17 Q1020","temp":20,"dewp":17,"wdir":210,"wspd":6,"visib":"6+","altim":1020,"clouds":[{"cover":"FEW","base":2500},{"cover":"BKN","base":4000},{"cover":"BKN","base":6000}],"obsTime":1783591200},"SBEG":{"icaoId":"SBEG","flightCategory":"VFR","rawOb":"METAR SBEG 091000Z 05004KT CAVOK 25/23 Q1012","temp":25,"dewp":23,"wdir":50,"wspd":4,"visib":"6+","altim":1012,"clouds":[],"obsTime":1783591200},"SBBR":{"icaoId":"SBBR","flightCategory":"VFR","rawOb":"METAR SBBR 091000Z 21003KT CAVOK 14/11 Q1022","temp":14,"dewp":11,"wdir":210,"wspd":3,"visib":"6+","altim":1022,"clouds":[],"obsTime":1783591200},"SBSL":{"icaoId":"SBSL","flightCategory":"VFR","rawOb":"METAR SBSL 091000Z 08007KT 9999 FEW020 26/24 Q1014","temp":26,"dewp":24,"wdir":80,"wspd":7,"visib":"6+","altim":1014,"clouds":[{"cover":"FEW","base":2000}],"obsTime":1783591200},"SBPV":{"icaoId":"SBPV","flightCategory":"VFR","rawOb":"METAR SBPV 091000Z VRB02KT CAVOK 23/22 Q1012","temp":23,"dewp":22,"wdir":"VRB","wspd":2,"visib":"6+","altim":1012,"clouds":[],"obsTime":1783591200},"SBCB":{"icaoId":"SBCB","flightCategory":"MVFR","rawOb":"METAR SBCB 091000Z 30006KT 9999 BKN020 20/13 Q1021","temp":20,"dewp":13,"wdir":300,"wspd":6,"visib":"6+","altim":1021,"clouds":[{"cover":"BKN","base":2000}],"obsTime":1783591200},"SBSV":{"icaoId":"SBSV","flightCategory":"VFR","rawOb":"METAR SBSV 091000Z 26002KT 9999 FEW024 22/21 Q1018","temp":22,"dewp":21,"wdir":260,"wspd":2,"visib":"6+","altim":1018,"clouds":[{"cover":"FEW","base":2400}],"obsTime":1783591200},"SBCF":{"icaoId":"SBCF","flightCategory":"VFR","rawOb":"METAR SBCF 091000Z 12002KT CAVOK 13/10 Q1022","temp":13,"dewp":10,"wdir":120,"wspd":2,"visib":"6+","altim":1022,"clouds":[],"obsTime":1783591200},"SBCT":{"icaoId":"SBCT","flightCategory":"MVFR","rawOb":"METAR SBCT 091000Z 08002KT 7000 MIFG NSC 03/03 Q1022","temp":3,"dewp":3,"wdir":80,"wspd":2,"visib":4.35,"altim":1022,"clouds":[],"obsTime":1783591200},"SBPJ":{"icaoId":"SBPJ","flightCategory":"VFR","rawOb":"METAR SBPJ 091000Z 21003KT CAVOK 22/18 Q1015","temp":22,"dewp":18,"wdir":210,"wspd":3,"visib":"6+","altim":1015,"clouds":[],"obsTime":1783591200},"SBBV":{"icaoId":"SBBV","flightCategory":"MVFR","rawOb":"METAR SBBV 091000Z 29002KT 9999 SCT003 BKN015 BKN100 25/24 Q1013","temp":25,"dewp":24,"wdir":290,"wspd":2,"visib":"6+","altim":1013,"clouds":[{"cover":"SCT","base":300},{"cover":"BKN","base":1500},{"cover":"BKN","base":10000}],"obsTime":1783591200},"SBMO":{"icaoId":"SBMO","flightCategory":"MVFR","rawOb":"METAR SBMO 091000Z 33006KT 9999 BKN030 23/22 Q1018","temp":23,"dewp":22,"wdir":330,"wspd":6,"visib":"6+","altim":1018,"clouds":[{"cover":"BKN","base":3000}],"obsTime":1783591200},"SBCG":{"icaoId":"SBCG","flightCategory":"VFR","rawOb":"METAR SBCG 091000Z 06011KT CAVOK 20/15 Q1017","temp":20,"dewp":15,"wdir":60,"wspd":11,"visib":"6+","altim":1017,"clouds":[],"obsTime":1783591200},"SBRB":{"icaoId":"SBRB","flightCategory":"MVFR","rawOb":"METAR SBRB 091000Z 26003KT 8000 FEW010 20/19 Q1013","temp":20,"dewp":19,"wdir":260,"wspd":3,"visib":4.97,"altim":1013,"clouds":[{"cover":"FEW","base":1000}],"obsTime":1783591200},"SBSG":{"icaoId":"SBSG","flightCategory":"VFR","rawOb":"METAR SBSG 091000Z 19004KT 140V230 9999 FEW020 BKN100 23/22 Q1018","temp":23,"dewp":22,"wdir":190,"wspd":4,"visib":"6+","altim":1018,"clouds":[{"cover":"FEW","base":2000},{"cover":"BKN","base":10000}],"obsTime":1783591200},"SBIL":{"icaoId":"SBIL","flightCategory":"VFR","rawOb":"METAR SBIL 091000Z 30004KT 9999 FEW020 21/21 Q1019","temp":21,"dewp":21,"wdir":300,"wspd":4,"visib":"6+","altim":1019,"clouds":[{"cover":"FEW","base":2000}],"obsTime":1783591200},"SBJU":{"icaoId":"SBJU","flightCategory":"MVFR","rawOb":"METAR SBJU 091000Z 08004KT 9999 BKN020 23/16 Q1019","temp":23,"dewp":16,"wdir":80,"wspd":4,"visib":"6+","altim":1019,"clouds":[{"cover":"BKN","base":2000}],"obsTime":1783591200},"SBAT":{"icaoId":"SBAT","flightCategory":"VFR","rawOb":"METAR SBAT 091100Z 00000KT CAVOK 23/19 Q1014","temp":23,"dewp":19,"wdir":0,"wspd":0,"visib":"6+","altim":1014,"clouds":[],"obsTime":1783594800},"SBHT":{"icaoId":"SBHT","flightCategory":"VFR","rawOb":"METAR SBHT 091000Z 07002KT 9999 SCT010 SCT080 25/24 Q1014","temp":25,"dewp":24,"wdir":70,"wspd":2,"visib":"6+","altim":1014,"clouds":[{"cover":"SCT","base":1000},{"cover":"SCT","base":8000}],"obsTime":1783591200},"SBME":{"icaoId":"SBME","flightCategory":"VFR","rawOb":"METAR SBME 091000Z 30002KT 9999 BKN035 18/16 Q1021","temp":18,"dewp":16,"wdir":300,"wspd":2,"visib":"6+","altim":1021,"clouds":[{"cover":"BKN","base":3500}],"obsTime":1783591200},"SBMK":{"icaoId":"SBMK","flightCategory":"VFR","rawOb":"METAR SBMK 091000Z 00000KT CAVOK 15/12 Q1021","temp":15,"dewp":12,"wdir":0,"wspd":0,"visib":"6+","altim":1021,"clouds":[],"obsTime":1783591200},"SBUL":{"icaoId":"SBUL","flightCategory":"VFR","rawOb":"METAR SBUL 091000Z 14008KT CAVOK 16/09 Q1022","temp":16,"dewp":9,"wdir":140,"wspd":8,"visib":"6+","altim":1022,"clouds":[],"obsTime":1783591200},"SBUR":{"icaoId":"SBUR","flightCategory":"MVFR","rawOb":"METAR SBUR 091000Z 06005KT 6000 NSC 17/09 Q1021","temp":17,"dewp":9,"wdir":60,"wspd":5,"visib":3.73,"altim":1021,"clouds":[],"obsTime":1783591200},"SBPA":{"icaoId":"SBPA","flightCategory":"VFR","rawOb":"METAR SBPA 091000Z 00000KT CAVOK 06/06 Q1018","temp":6,"dewp":6,"wdir":0,"wspd":0,"visib":"6+","altim":1018,"clouds":[],"obsTime":1783591200},"SBFL":{"icaoId":"SBFL","flightCategory":"VFR","rawOb":"METAR SBFL 091000Z 31004KT CAVOK 10/09 Q1020","temp":10,"dewp":9,"wdir":310,"wspd":4,"visib":"6+","altim":1020,"clouds":[],"obsTime":1783591200},"SBCR":{"icaoId":"SBCR","flightCategory":"VFR","rawOb":"METAR SBCR 091100Z 10008KT CAVOK 22/19 Q1014","temp":22,"dewp":19,"wdir":100,"wspd":8,"visib":"6+","altim":1014,"clouds":[],"obsTime":1783594800},"SBCP":{"icaoId":"SBCP","flightCategory":"VFR","rawOb":"METAR SBCP 091000Z 29003KT CAVOK 18/15 Q1021","temp":18,"dewp":15,"wdir":290,"wspd":3,"visib":"6+","altim":1021,"clouds":[],"obsTime":1783591200},"SBLO":{"icaoId":"SBLO","flightCategory":"VFR","rawOb":"METAR SBLO 091000Z 21003KT CAVOK 10/08 Q1020","temp":10,"dewp":8,"wdir":210,"wspd":3,"visib":"6+","altim":1020,"clouds":[],"obsTime":1783591200},"SBFI":{"icaoId":"SBFI","flightCategory":"VFR","rawOb":"METAR SBFI 091000Z 10007KT CAVOK 11/09 Q1017","temp":11,"dewp":9,"wdir":100,"wspd":7,"visib":"6+","altim":1017,"clouds":[],"obsTime":1783591200},"SBRF":{"icaoId":"SBRF","flightCategory":"MVFR","rawOb":"METAR SBRF 091000Z 20004KT 9999 BKN015 SCT020 BKN045 24/23 Q1017","temp":24,"dewp":23,"wdir":200,"wspd":4,"visib":"6+","altim":1017,"clouds":[{"cover":"BKN","base":1500},{"cover":"SCT","base":2000},{"cover":"BKN","base":4500}],"obsTime":1783591200},"SBMA":{"icaoId":"SBMA","flightCategory":"VFR","rawOb":"METAR SBMA 091000Z 02002KT CAVOK 25/23 Q1014","temp":25,"dewp":23,"wdir":20,"wspd":2,"visib":"6+","altim":1014,"clouds":[],"obsTime":1783591200},"SBSP":{"icaoId":"SBSP","flightCategory":"IFR","rawOb":"METAR SBSP 091000Z 03006KT 2700 BR OVC005 12/11 Q1023","temp":12,"dewp":11,"wdir":30,"wspd":6,"visib":1.68,"altim":1023,"clouds":[{"cover":"OVC","base":500}],"obsTime":1783591200},"SBPP":{"icaoId":"SBPP","flightCategory":"VFR","rawOb":"SPECI SBPP 091115Z 07005KT CAVOK 14/13 Q1019","temp":14,"dewp":13,"wdir":70,"wspd":5,"visib":"6+","altim":1019,"clouds":[],"obsTime":1783595700},"SBTF":{"icaoId":"SBTF","flightCategory":"VFR","rawOb":"SPECI SBTF 091115Z 00000KT 9999 FEW016 FEW025TCU 25/25 Q1012","temp":25,"dewp":25,"wdir":0,"wspd":0,"visib":"6+","altim":1012,"clouds":[{"cover":"FEW","base":1600},{"cover":"FEW","base":2500}],"obsTime":1783595700},"SBBU":{"icaoId":"SBBU","flightCategory":"MVFR","rawOb":"METAR SBBU 091000Z 10008KT 7000 NSC 14/12 Q1021","temp":14,"dewp":12,"wdir":100,"wspd":8,"visib":4.35,"altim":1021,"clouds":[],"obsTime":1783591200},"SBSJ":{"icaoId":"SBSJ","flightCategory":"LIFR","rawOb":"METAR SBSJ 091000Z 04001KT 3000 BR OVC004 12/12 Q1023","temp":12,"dewp":12,"wdir":40,"wspd":1,"visib":1.86,"altim":1023,"clouds":[{"cover":"OVC","base":400}],"obsTime":1783591200},"SBUY":{"icaoId":"SBUY","flightCategory":"MVFR","rawOb":"METAR SBUY 091100Z 00000KT 5000 BR NSC 23/22 Q1011","temp":23,"dewp":22,"wdir":0,"wspd":0,"visib":3.11,"altim":1011,"clouds":[],"obsTime":1783594800},"SBAX":{"icaoId":"SBAX","flightCategory":"VFR","rawOb":"METAR SBAX 091000Z COR 17002KT CAVOK 14/09 Q1022","temp":14,"dewp":9,"wdir":170,"wspd":2,"visib":"6+","altim":1022,"clouds":[],"obsTime":1783591200},"SBTT":{"icaoId":"SBTT","flightCategory":"VFR","rawOb":"METAR SBTT 091000Z 26003KT 9999 FEW003 22/21 Q1013","temp":22,"dewp":21,"wdir":260,"wspd":3,"visib":"6+","altim":1013,"clouds":[{"cover":"FEW","base":300}],"obsTime":1783591200},"SBCJ":{"icaoId":"SBCJ","flightCategory":"VFR","rawOb":"SPECI SBCJ 091015Z 08003KT 9999 SCT011 23/21 Q1017","temp":23,"dewp":21,"wdir":80,"wspd":3,"visib":"6+","altim":1017,"clouds":[{"cover":"SCT","base":1100}],"obsTime":1783592100},"SBOI":{"icaoId":"SBOI","flightCategory":"LIFR","rawOb":"METAR SBOI 091000Z AUTO 00000KT 0650 // VV001 23/23 Q1013","temp":23,"dewp":23,"wdir":0,"wspd":0,"visib":0.4,"altim":1013,"clouds":[{"cover":"OVX","base":100}],"obsTime":1783591200},"SBPS":{"icaoId":"SBPS","flightCategory":"VFR","rawOb":"METAR SBPS 091000Z 26004KT 9999 SCT020 SCT070 21/20 Q1020","temp":21,"dewp":20,"wdir":260,"wspd":4,"visib":"6+","altim":1020,"clouds":[{"cover":"SCT","base":2000},{"cover":"SCT","base":7000}],"obsTime":1783591200},"SBPB":{"icaoId":"SBPB","flightCategory":"MVFR","rawOb":"SPECI SBPB 091015Z 09014KT 9999 BKN016 BKN100 27/24 Q1014","temp":27,"dewp":24,"wdir":90,"wspd":14,"visib":"6+","altim":1014,"clouds":[{"cover":"BKN","base":1600},{"cover":"BKN","base":10000}],"obsTime":1783592100},"SBKG":{"icaoId":"SBKG","flightCategory":"MVFR","rawOb":"METAR SBKG 091000Z 07006KT 5000 -RA BR BKN010 SCT070 21/21 Q1020","temp":21,"dewp":21,"wdir":70,"wspd":6,"visib":3.11,"altim":1020,"clouds":[{"cover":"BKN","base":1000},{"cover":"SCT","base":7000}],"obsTime":1783591200},"SBCA":{"icaoId":"SBCA","flightCategory":"VFR","rawOb":"METAR SBCA 091000Z 05007KT CAVOK 15/06 Q1019","temp":15,"dewp":6,"wdir":50,"wspd":7,"visib":"6+","altim":1019,"clouds":[],"obsTime":1783591200},"SBCO":{"icaoId":"SBCO","flightCategory":"MVFR","rawOb":"METAR SBCO 091000Z VRB01KT 6000 NSC 04/03 Q1018","temp":4,"dewp":3,"wdir":"VRB","wspd":1,"visib":3.73,"altim":1018,"clouds":[],"obsTime":1783591200},"SBSM":{"icaoId":"SBSM","flightCategory":"VFR","rawOb":"METAR SBSM 091000Z VRB02KT 9999 BCFG NSC 04/04 Q1017","temp":4,"dewp":4,"wdir":"VRB","wspd":2,"visib":"6+","altim":1017,"clouds":[],"obsTime":1783591200},"SBCC":{"icaoId":"SBCC","flightCategory":"VFR","rawOb":"METAR SBCC 091100Z 03005KT CAVOK 22/17 Q1016","temp":22,"dewp":17,"wdir":30,"wspd":5,"visib":"6+","altim":1016,"clouds":[],"obsTime":1783594800},"SBVH":{"icaoId":"SBVH","flightCategory":"VFR","rawOb":"METAR SBVH 091100Z 00000KT CAVOK 20/17 Q1016","temp":20,"dewp":17,"wdir":0,"wspd":0,"visib":"6+","altim":1016,"clouds":[],"obsTime":1783594800},"SBBH":{"icaoId":"SBBH","flightCategory":"VFR","rawOb":"METAR SBBH 091000Z 11005KT CAVOK 12/10 Q1022","temp":12,"dewp":10,"wdir":110,"wspd":5,"visib":"6+","altim":1022,"clouds":[],"obsTime":1783591200},"SBDN":{"icaoId":"SBDN","flightCategory":"VFR","rawOb":"METAR SBDN 091000Z 10005KT CAVOK 13/09 Q1019","temp":13,"dewp":9,"wdir":100,"wspd":5,"visib":"6+","altim":1019,"clouds":[],"obsTime":1783591200},"SBIP":{"icaoId":"SBIP","flightCategory":"MVFR","rawOb":"METAR SBIP 091000Z AUTO 00000KT 9999 OVC023 18/17 Q1021","temp":18,"dewp":17,"wdir":0,"wspd":0,"visib":"6+","altim":1021,"clouds":[{"cover":"OVC","base":2300}],"obsTime":1783591200},"SBSC":{"icaoId":"SBSC","flightCategory":"MVFR","rawOb":"METAR SBSC 091000Z 36004KT 9999 FEW015 OVC030 18/16 Q1021","temp":18,"dewp":16,"wdir":360,"wspd":4,"visib":"6+","altim":1021,"clouds":[{"cover":"FEW","base":1500},{"cover":"OVC","base":3000}],"obsTime":1783591200},"SBSR":{"icaoId":"SBSR","flightCategory":"VFR","rawOb":"METAR SBSR 091000Z 13003KT CAVOK 15/10 Q1020","temp":15,"dewp":10,"wdir":130,"wspd":3,"visib":"6+","altim":1020,"clouds":[],"obsTime":1783591200},"SBTU":{"icaoId":"SBTU","flightCategory":"VFR","rawOb":"METAR SBTU 091000Z AUTO 20005KT 9999 // FEW004/// 23/23 Q1015","temp":23,"dewp":23,"wdir":200,"wspd":5,"visib":"6+","altim":1015,"clouds":[{"cover":"FEW","base":400}],"obsTime":1783591200},"SBES":{"icaoId":"SBES","flightCategory":"VFR","rawOb":"METAR SBES 091000Z 32003KT 270V020 9999 BKN033 18/// Q1021","temp":null,"dewp":null,"wdir":320,"wspd":3,"visib":"6+","altim":1021,"clouds":[{"cover":"BKN","base":3300}],"obsTime":1783591200},"SBPL":{"icaoId":"SBPL","flightCategory":"VFR","rawOb":"METAR SBPL 091000Z 09004KT CAVOK 23/17 Q1019","temp":23,"dewp":17,"wdir":90,"wspd":4,"visib":"6+","altim":1019,"clouds":[],"obsTime":1783591200},"SBAR":{"icaoId":"SBAR","flightCategory":"VFR","rawOb":"METAR SBAR 091000Z 31002KT 9999 SCT023 20/20 Q1018","temp":20,"dewp":20,"wdir":310,"wspd":2,"visib":"6+","altim":1018,"clouds":[{"cover":"SCT","base":2300}],"obsTime":1783591200},"SBTD":{"icaoId":"SBTD","flightCategory":"VFR","rawOb":"METAR SBTD 091100Z /////KT CAVOK 13/07 Q1019","temp":13,"dewp":7,"wdir":null,"wspd":null,"visib":"6+","altim":1019,"clouds":[],"obsTime":1783594800},"SBAU":{"icaoId":"SBAU","flightCategory":"VFR","rawOb":"METAR SBAU 091000Z 09006KT CAVOK 14/12 Q1019","temp":14,"dewp":12,"wdir":90,"wspd":6,"visib":"6+","altim":1019,"clouds":[],"obsTime":1783591200},"SBJP":{"icaoId":"SBJP","flightCategory":"MVFR","rawOb":"METAR SBJP 091000Z 22002KT 9999 BKN022 BKN070 23/23 Q1018","temp":23,"dewp":23,"wdir":220,"wspd":2,"visib":"6+","altim":1018,"clouds":[{"cover":"BKN","base":2200},{"cover":"BKN","base":7000}],"obsTime":1783591200},"SBPF":{"icaoId":"SBPF","flightCategory":"VFR","rawOb":"METAR SBPF 091000Z 05008KT CAVOK 09/04 Q1019","temp":9,"dewp":4,"wdir":50,"wspd":8,"visib":"6+","altim":1019,"clouds":[],"obsTime":1783591200},"SBIH":{"icaoId":"SBIH","flightCategory":"MVFR","rawOb":"METAR SBIH 091100Z 00000KT 8000 NSC 26/25 Q1013","temp":26,"dewp":25,"wdir":0,"wspd":0,"visib":4.97,"altim":1013,"clouds":[],"obsTime":1783594800},"SBLE":{"icaoId":"SBLE","flightCategory":"MVFR","rawOb":"METAR SBLE 091000Z AUTO 27002KT 9999 SCT020 BKN029 ///// Q1022","temp":null,"dewp":null,"wdir":270,"wspd":2,"visib":"6+","altim":1022,"clouds":[{"cover":"SCT","base":2000},{"cover":"BKN","base":2900}],"obsTime":1783591200},"SBAF":{"icaoId":"SBAF","flightCategory":"MVFR","rawOb":"METAR SBAF 091000Z 35002KT 9999 FEW015 BKN030 18/18 Q1021","temp":18,"dewp":18,"wdir":350,"wspd":2,"visib":"6+","altim":1021,"clouds":[{"cover":"FEW","base":1500},{"cover":"BKN","base":3000}],"obsTime":1783591200},"SBGW":{"icaoId":"SBGW","flightCategory":"IFR","rawOb":"METAR SBGW 091000Z 00000KT 2500 BR BKN005 OVC015 14/11 Q1023","temp":14,"dewp":11,"wdir":0,"wspd":0,"visib":1.55,"altim":1023,"clouds":[{"cover":"BKN","base":500},{"cover":"OVC","base":1500}],"obsTime":1783591200},"SBJR":{"icaoId":"SBJR","flightCategory":"MVFR","rawOb":"METAR SBJR 091000Z 02005KT 9999 FEW020 BKN030 18/16 Q1021","temp":18,"dewp":16,"wdir":20,"wspd":5,"visib":"6+","altim":1021,"clouds":[{"cover":"FEW","base":2000},{"cover":"BKN","base":3000}],"obsTime":1783591200},"SBLS":{"icaoId":"SBLS","flightCategory":"VFR","rawOb":"METAR SBLS 091000Z 17008KT CAVOK 14/10 Q1021","temp":14,"dewp":10,"wdir":170,"wspd":8,"visib":"6+","altim":1021,"clouds":[],"obsTime":1783591200},"SBMT":{"icaoId":"SBMT","flightCategory":"LIFR","rawOb":"METAR SBMT 091000Z 07002KT 1000 BR BKN007 11/11 Q1022","temp":11,"dewp":11,"wdir":70,"wspd":2,"visib":0.62,"altim":1022,"clouds":[{"cover":"BKN","base":700}],"obsTime":1783591200},"SBST":{"icaoId":"SBST","flightCategory":"VFR","rawOb":"METAR SBST 091100Z 01001KT CAVOK 14/13 Q1021","temp":14,"dewp":13,"wdir":10,"wspd":1,"visib":"6+","altim":1021,"clouds":[],"obsTime":1783594800},"SBTA":{"icaoId":"SBTA","flightCategory":"LIFR","rawOb":"METAR SBTA 091000Z 36002KT 0900 FG OVC004 14/13 Q1022","temp":14,"dewp":13,"wdir":360,"wspd":2,"visib":0.56,"altim":1022,"clouds":[{"cover":"OVC","base":400}],"obsTime":1783591200},"SBAN":{"icaoId":"SBAN","flightCategory":"VFR","rawOb":"METAR SBAN 091000Z 09005KT CAVOK 17/10 Q1022","temp":17,"dewp":10,"wdir":90,"wspd":5,"visib":"6+","altim":1022,"clouds":[],"obsTime":1783591200},"SBJV":{"icaoId":"SBJV","flightCategory":"LIFR","rawOb":"METAR SBJV 091000Z 25002KT 0100 R33/0800 FG VV002 10/10 Q1021","temp":10,"dewp":10,"wdir":250,"wspd":2,"visib":0.06,"altim":1021,"clouds":[{"cover":"OVX","base":200}],"obsTime":1783591200},"SBNM":{"icaoId":"SBNM","flightCategory":"VFR","rawOb":"METAR SBNM 091000Z AUTO 10009KT CAVOK 06/04 Q1017","temp":6,"dewp":4,"wdir":100,"wspd":9,"visib":"6+","altim":1017,"clouds":[],"obsTime":1783591200}}}