{"updated":1777214089,"count":86,"data":{"SBFI":{"icaoId":"SBFI","flightCategory":"IFR","rawOb":"METAR SBFI 261300Z 25002KT 9999 BKN007 OVC070 23/23 Q1012","temp":23,"dewp":23,"wdir":250,"wspd":2,"visib":"6+","altim":1012,"clouds":[{"cover":"BKN","base":700},{"cover":"OVC","base":7000}],"obsTime":1777208400},"SBLO":{"icaoId":"SBLO","flightCategory":"VFR","rawOb":"METAR SBLO 261300Z 14002KT CAVOK 25/19 Q1015","temp":25,"dewp":19,"wdir":140,"wspd":2,"visib":"6+","altim":1015,"clouds":[],"obsTime":1777208400},"SBBR":{"icaoId":"SBBR","flightCategory":"VFR","rawOb":"METAR SBBR 261300Z 08008KT 060V120 9999 SCT045 23/18 Q1020","temp":23,"dewp":18,"wdir":80,"wspd":8,"visib":"6+","altim":1020,"clouds":[{"cover":"SCT","base":4500}],"obsTime":1777208400},"SBMA":{"icaoId":"SBMA","flightCategory":"VFR","rawOb":"METAR SBMA 261300Z 19002KT 9999 SCT015 29/23 Q1013","temp":29,"dewp":23,"wdir":190,"wspd":2,"visib":"6+","altim":1013,"clouds":[{"cover":"SCT","base":1500}],"obsTime":1777208400},"SBCZ":{"icaoId":"SBCZ","flightCategory":"LIFR","rawOb":"METAR SBCZ 261300Z 09003KT 0800 0400E FG SCT001 24/24 Q1013","temp":24,"dewp":24,"wdir":90,"wspd":3,"visib":0.5,"altim":1013,"clouds":[{"cover":"SCT","base":100}],"obsTime":1777208400},"SBEG":{"icaoId":"SBEG","flightCategory":"VFR","rawOb":"METAR SBEG 261300Z 02003KT 320V080 9999 FEW013 27/24 Q1013","temp":27,"dewp":24,"wdir":20,"wspd":3,"visib":"6+","altim":1013,"clouds":[{"cover":"FEW","base":1300}],"obsTime":1777208400},"SBME":{"icaoId":"SBME","flightCategory":"VFR","rawOb":"METAR SBME 261300Z 32006KT CAVOK 34/18 Q1011","temp":34,"dewp":18,"wdir":320,"wspd":6,"visib":"6+","altim":1011,"clouds":[],"obsTime":1777208400},"SBCB":{"icaoId":"SBCB","flightCategory":"VFR","rawOb":"METAR SBCB 261300Z 01004KT CAVOK 31/21 Q1012","temp":31,"dewp":21,"wdir":10,"wspd":4,"visib":"6+","altim":1012,"clouds":[],"obsTime":1777208400},"SBMG":{"icaoId":"SBMG","flightCategory":"VFR","rawOb":"METAR SBMG 261300Z 34007KT CAVOK 27/20 Q1013","temp":27,"dewp":20,"wdir":340,"wspd":7,"visib":"6+","altim":1013,"clouds":[],"obsTime":1777208400},"SBMK":{"icaoId":"SBMK","flightCategory":"VFR","rawOb":"METAR SBMK 261300Z 00000KT CAVOK 27/19 Q1018","temp":27,"dewp":19,"wdir":0,"wspd":0,"visib":"6+","altim":1018,"clouds":[],"obsTime":1777208400},"SBMO":{"icaoId":"SBMO","flightCategory":"VFR","rawOb":"METAR SBMO 261300Z 14008KT 9999 VCSH FEW019 SCT030 FEW035TCU 29/23 Q1014","temp":29,"dewp":23,"wdir":140,"wspd":8,"visib":"6+","altim":1014,"clouds":[{"cover":"FEW","base":1900},{"cover":"SCT","base":3000},{"cover":"FEW","base":3500}],"obsTime":1777208400},"SBAT":{"icaoId":"SBAT","flightCategory":"VFR","rawOb":"METAR SBAT 261300Z 07004KT 9999 FEW020 30/24 Q1014","temp":30,"dewp":24,"wdir":70,"wspd":4,"visib":"6+","altim":1014,"clouds":[{"cover":"FEW","base":2000}],"obsTime":1777208400},"SBMQ":{"icaoId":"SBMQ","flightCategory":"VFR","rawOb":"METAR SBMQ 261300Z 06009KT 9999 SCT017 29/25 Q1012","temp":29,"dewp":25,"wdir":60,"wspd":9,"visib":"6+","altim":1012,"clouds":[{"cover":"SCT","base":1700}],"obsTime":1777208400},"SBNT":{"icaoId":"SBNT","flightCategory":"VFR","rawOb":"METAR SBNT 261300Z 15011KT 9999 SCT023 SCT100 30/23 Q1013","temp":30,"dewp":23,"wdir":150,"wspd":11,"visib":"6+","altim":1013,"clouds":[{"cover":"SCT","base":2300},{"cover":"SCT","base":10000}],"obsTime":1777208400},"SBVT":{"icaoId":"SBVT","flightCategory":"VFR","rawOb":"METAR SBVT 261300Z 35005KT CAVOK 31/21 Q1013","temp":31,"dewp":21,"wdir":350,"wspd":5,"visib":"6+","altim":1013,"clouds":[],"obsTime":1777208400},"SBFL":{"icaoId":"SBFL","flightCategory":"IFR","rawOb":"SPECI SBFL 261235Z 33007KT 4000 RA BR FEW008 BKN013 OVC060 20/20 Q1012","temp":20,"dewp":20,"wdir":330,"wspd":7,"visib":2.49,"altim":1012,"clouds":[{"cover":"FEW","base":800},{"cover":"BKN","base":1300},{"cover":"OVC","base":6000}],"obsTime":1777206900},"SBPA":{"icaoId":"SBPA","flightCategory":"LIFR","rawOb":"METAR SBPA 261300Z VRB04KT 3000 BR OVC002 20/19 Q1010","temp":20,"dewp":19,"wdir":"VRB","wspd":4,"visib":1.86,"altim":1010,"clouds":[{"cover":"OVC","base":200}],"obsTime":1777208400},"SBCF":{"icaoId":"SBCF","flightCategory":"VFR","rawOb":"METAR SBCF 261300Z 03004KT CAVOK 24/17 Q1020","temp":24,"dewp":17,"wdir":30,"wspd":4,"visib":"6+","altim":1020,"clouds":[],"obsTime":1777208400},"SBPJ":{"icaoId":"SBPJ","flightCategory":"VFR","rawOb":"METAR SBPJ 261300Z 30004KT 270V330 9999 FEW015 29/24 Q1014","temp":29,"dewp":24,"wdir":300,"wspd":4,"visib":"6+","altim":1014,"clouds":[{"cover":"FEW","base":1500}],"obsTime":1777208400},"SBFZ":{"icaoId":"SBFZ","flightCategory":"MVFR","rawOb":"METAR SBFZ 261300Z 14003KT 100V160 8000 -RA BKN025 FEW025TCU 26/23 Q1013","temp":26,"dewp":23,"wdir":140,"wspd":3,"visib":4.97,"altim":1013,"clouds":[{"cover":"BKN","base":2500},{"cover":"FEW","base":2500}],"obsTime":1777208400},"SBPV":{"icaoId":"SBPV","flightCategory":"VFR","rawOb":"METAR SBPV 261300Z VRB02KT 9999 FEW015 SCT050 26/25 Q1013","temp":26,"dewp":25,"wdir":"VRB","wspd":2,"visib":"6+","altim":1013,"clouds":[{"cover":"FEW","base":1500},{"cover":"SCT","base":5000}],"obsTime":1777208400},"SBRB":{"icaoId":"SBRB","flightCategory":"VFR","rawOb":"METAR SBRB 261300Z 32001KT 9999 FEW007 SCT065 27/23 Q1014","temp":27,"dewp":23,"wdir":320,"wspd":1,"visib":"6+","altim":1014,"clouds":[{"cover":"FEW","base":700},{"cover":"SCT","base":6500}],"obsTime":1777208400},"SBCG":{"icaoId":"SBCG","flightCategory":"VFR","rawOb":"METAR SBCG 261300Z 34009KT CAVOK 29/20 Q1015","temp":29,"dewp":20,"wdir":340,"wspd":9,"visib":"6+","altim":1015,"clouds":[],"obsTime":1777208400},"SBRF":{"icaoId":"SBRF","flightCategory":"VFR","rawOb":"METAR SBRF 261300Z 16013KT 9999 SCT025 29/24 Q1013","temp":29,"dewp":24,"wdir":160,"wspd":13,"visib":"6+","altim":1013,"clouds":[{"cover":"SCT","base":2500}],"obsTime":1777208400},"SBGL":{"icaoId":"SBGL","flightCategory":"VFR","rawOb":"METAR SBGL 261300Z 33004KT 270V010 CAVOK 30/20 Q1012","temp":30,"dewp":20,"wdir":330,"wspd":4,"visib":"6+","altim":1012,"clouds":[],"obsTime":1777208400},"SBCT":{"icaoId":"SBCT","flightCategory":"VFR","rawOb":"METAR SBCT 261300Z 32006KT 290V350 9000 FEW010 SCT040 BKN090 21/18 Q1016","temp":21,"dewp":18,"wdir":320,"wspd":6,"visib":5.59,"altim":1016,"clouds":[{"cover":"FEW","base":1000},{"cover":"SCT","base":4000},{"cover":"BKN","base":9000}],"obsTime":1777208400},"SBJU":{"icaoId":"SBJU","flightCategory":"VFR","rawOb":"METAR SBJU 261300Z 00000KT 9999 SCT020 28/21 Q1015","temp":28,"dewp":21,"wdir":0,"wspd":0,"visib":"6+","altim":1015,"clouds":[{"cover":"SCT","base":2000}],"obsTime":1777208400},"SBKP":{"icaoId":"SBKP","flightCategory":"VFR","rawOb":"METAR SBKP 261300Z 02008KT CAVOK 26/17 Q1017","temp":26,"dewp":17,"wdir":20,"wspd":8,"visib":"6+","altim":1017,"clouds":[],"obsTime":1777208400},"SBSG":{"icaoId":"SBSG","flightCategory":"VFR","rawOb":"METAR SBSG 261300Z 17006KT 120V230 9999 SCT023 FEW025TCU 29/24 Q1013","temp":29,"dewp":24,"wdir":170,"wspd":6,"visib":"6+","altim":1013,"clouds":[{"cover":"SCT","base":2300},{"cover":"FEW","base":2500}],"obsTime":1777208400},"SBSL":{"icaoId":"SBSL","flightCategory":"VFR","rawOb":"METAR SBSL 261300Z 06007KT 9999 SCT035 SCT100 28/24 Q1011","temp":28,"dewp":24,"wdir":60,"wspd":7,"visib":"6+","altim":1011,"clouds":[{"cover":"SCT","base":3500},{"cover":"SCT","base":10000}],"obsTime":1777208400},"SBCP":{"icaoId":"SBCP","flightCategory":"VFR","rawOb":"METAR SBCP 261300Z 34010KT CAVOK 30/21 Q1013","temp":30,"dewp":21,"wdir":340,"wspd":10,"visib":"6+","altim":1013,"clouds":[],"obsTime":1777208400},"SBSN":{"icaoId":"SBSN","flightCategory":"VFR","rawOb":"METAR SBSN 261300Z 08009KT 9999 SCT020 30/25 Q1012","temp":30,"dewp":25,"wdir":80,"wspd":9,"visib":"6+","altim":1012,"clouds":[{"cover":"SCT","base":2000}],"obsTime":1777208400},"SBGO":{"icaoId":"SBGO","flightCategory":"VFR","rawOb":"METAR SBGO 261300Z 14002KT CAVOK 27/19 Q1018","temp":27,"dewp":19,"wdir":140,"wspd":2,"visib":"6+","altim":1018,"clouds":[],"obsTime":1777208400},"SBBV":{"icaoId":"SBBV","flightCategory":"IFR","rawOb":"METAR SBBV 261300Z 04004KT 9999 BKN005 BKN012 FEW030TCU BKN090 24/24 Q1015","temp":24,"dewp":24,"wdir":40,"wspd":4,"visib":"6+","altim":1015,"clouds":[{"cover":"BKN","base":500},{"cover":"BKN","base":1200},{"cover":"FEW","base":3000},{"cover":"BKN","base":9000}],"obsTime":1777208400},"SBSP":{"icaoId":"SBSP","flightCategory":"VFR","rawOb":"METAR SBSP 261300Z 32011KT 280V360 CAVOK 26/16 Q1017","temp":26,"dewp":16,"wdir":320,"wspd":11,"visib":"6+","altim":1017,"clouds":[],"obsTime":1777208400},"SBGR":{"icaoId":"SBGR","flightCategory":"VFR","rawOb":"METAR SBGR 261300Z 33008KT CAVOK 28/17 Q1017","temp":28,"dewp":17,"wdir":330,"wspd":8,"visib":"6+","altim":1017,"clouds":[],"obsTime":1777208400},"SBSV":{"icaoId":"SBSV","flightCategory":"VFR","rawOb":"METAR SBSV 261300Z 08008KT 050V130 9999 SCT023 30/23 Q1015","temp":30,"dewp":23,"wdir":80,"wspd":8,"visib":"6+","altim":1015,"clouds":[{"cover":"SCT","base":2300}],"obsTime":1777208400},"SBTE":{"icaoId":"SBTE","flightCategory":"MVFR","rawOb":"METAR SBTE 261300Z 15009KT 9999 OVC013 26/23 Q1013","temp":26,"dewp":23,"wdir":150,"wspd":9,"visib":"6+","altim":1013,"clouds":[{"cover":"OVC","base":1300}],"obsTime":1777208400},"SBBE":{"icaoId":"SBBE","flightCategory":"VFR","rawOb":"METAR SBBE 261300Z 06007KT 9999 SCT020 29/23 Q1012","temp":29,"dewp":23,"wdir":60,"wspd":7,"visib":"6+","altim":1012,"clouds":[{"cover":"SCT","base":2000}],"obsTime":1777208400},"SBHT":{"icaoId":"SBHT","flightCategory":"MVFR","rawOb":"METAR SBHT 261300Z 15005KT 9999 BKN020 29/24 Q1013","temp":29,"dewp":24,"wdir":150,"wspd":5,"visib":"6+","altim":1013,"clouds":[{"cover":"BKN","base":2000}],"obsTime":1777208400},"SBUL":{"icaoId":"SBUL","flightCategory":"VFR","rawOb":"METAR SBUL 261300Z 06006KT CAVOK 25/16 Q1020","temp":25,"dewp":16,"wdir":60,"wspd":6,"visib":"6+","altim":1020,"clouds":[],"obsTime":1777208400},"SBCR":{"icaoId":"SBCR","flightCategory":"VFR","rawOb":"METAR SBCR 261300Z 04003KT CAVOK 29/23 Q1013","temp":29,"dewp":23,"wdir":40,"wspd":3,"visib":"6+","altim":1013,"clouds":[],"obsTime":1777208400},"SBUR":{"icaoId":"SBUR","flightCategory":"VFR","rawOb":"METAR SBUR 261300Z 01007KT CAVOK 27/17 Q1018","temp":27,"dewp":17,"wdir":10,"wspd":7,"visib":"6+","altim":1018,"clouds":[],"obsTime":1777208400},"SBIL":{"icaoId":"SBIL","flightCategory":"VFR","rawOb":"METAR SBIL 261300Z 11005KT 9999 SCT025 29/24 Q1016","temp":29,"dewp":24,"wdir":110,"wspd":5,"visib":"6+","altim":1016,"clouds":[{"cover":"SCT","base":2500}],"obsTime":1777208400},"SBCA":{"icaoId":"SBCA","flightCategory":"VFR","rawOb":"METAR SBCA 261300Z 31008KT 9999 FEW007 SCT020 FEW050TCU BKN100 22/20 Q1015","temp":22,"dewp":20,"wdir":310,"wspd":8,"visib":"6+","altim":1015,"clouds":[{"cover":"FEW","base":700},{"cover":"SCT","base":2000},{"cover":"FEW","base":5000},{"cover":"BKN","base":10000}],"obsTime":1777208400},"SBAR":{"icaoId":"SBAR","flightCategory":"VFR","rawOb":"METAR SBAR 261300Z 13010KT 9999 SCT025 SCT050 29/23 Q1014","temp":29,"dewp":23,"wdir":130,"wspd":10,"visib":"6+","altim":1014,"clouds":[{"cover":"SCT","base":2500},{"cover":"SCT","base":5000}],"obsTime":1777208400},"SBAU":{"icaoId":"SBAU","flightCategory":"VFR","rawOb":"METAR SBAU 261300Z 01004KT CAVOK 31/19 Q1015","temp":31,"dewp":19,"wdir":10,"wspd":4,"visib":"6+","altim":1015,"clouds":[],"obsTime":1777208400},"SBSC":{"icaoId":"SBSC","flightCategory":"VFR","rawOb":"METAR SBSC 261300Z 01008KT CAVOK 31/21 Q1012","temp":31,"dewp":21,"wdir":10,"wspd":8,"visib":"6+","altim":1012,"clouds":[],"obsTime":1777208400},"SBAX":{"icaoId":"SBAX","flightCategory":"VFR","rawOb":"METAR SBAX 261300Z AUTO 01005KT 330V050 CAVOK 25/16 Q1020","temp":25,"dewp":16,"wdir":10,"wspd":5,"visib":"6+","altim":1020,"clouds":[],"obsTime":1777208400},"SBBH":{"icaoId":"SBBH","flightCategory":"VFR","rawOb":"METAR SBBH 261300Z 03004KT CAVOK 25/17 Q1019","temp":25,"dewp":17,"wdir":30,"wspd":4,"visib":"6+","altim":1019,"clouds":[],"obsTime":1777208400},"SBBQ":{"icaoId":"SBBQ","flightCategory":"VFR","rawOb":"METAR SBBQ 261300Z 31008KT CAVOK 24/14 Q1022","temp":24,"dewp":14,"wdir":310,"wspd":8,"visib":"6+","altim":1022,"clouds":[],"obsTime":1777208400},"SBBU":{"icaoId":"SBBU","flightCategory":"VFR","rawOb":"METAR SBBU 261300Z 01005KT CAVOK 28/19 Q1016","temp":28,"dewp":19,"wdir":10,"wspd":5,"visib":"6+","altim":1016,"clouds":[],"obsTime":1777208400},"SBCC":{"icaoId":"SBCC","flightCategory":"VFR","rawOb":"METAR SBCC 261300Z 02009KT CAVOK 28/21 Q1015","temp":28,"dewp":21,"wdir":20,"wspd":9,"visib":"6+","altim":1015,"clouds":[],"obsTime":1777208400},"SBCJ":{"icaoId":"SBCJ","flightCategory":"VFR","rawOb":"METAR SBCJ 261300Z 00000KT 9999 SCT013 26/21 Q1017","temp":26,"dewp":21,"wdir":0,"wspd":0,"visib":"6+","altim":1017,"clouds":[{"cover":"SCT","base":1300}],"obsTime":1777208400},"SBCO":{"icaoId":"SBCO","flightCategory":"LIFR","rawOb":"METAR SBCO 261300Z 31005KT 0800 R13///// R31/1000 FG BKN003 19/19 Q1010","temp":19,"dewp":19,"wdir":310,"wspd":5,"visib":0.5,"altim":1010,"clouds":[{"cover":"BKN","base":300}],"obsTime":1777208400},"SBDN":{"icaoId":"SBDN","flightCategory":"VFR","rawOb":"METAR SBDN 261300Z 00000KT CAVOK 30/20 Q1014","temp":30,"dewp":20,"wdir":0,"wspd":0,"visib":"6+","altim":1014,"clouds":[],"obsTime":1777208400},"SBES":{"icaoId":"SBES","flightCategory":"VFR","rawOb":"METAR SBES 261300Z VRB05KT CAVOK 31/// Q1012","temp":null,"dewp":null,"wdir":"VRB","wspd":5,"visib":"6+","altim":1012,"clouds":[],"obsTime":1777208400},"SBGM":{"icaoId":"SBGM","flightCategory":"VFR","rawOb":"METAR SBGM 261300Z 29004KT CAVOK 26/25 Q1013","temp":26,"dewp":25,"wdir":290,"wspd":4,"visib":"6+","altim":1013,"clouds":[],"obsTime":1777208400},"SBIP":{"icaoId":"SBIP","flightCategory":"VFR","rawOb":"METAR SBIP 261300Z AUTO 07004KT 010V130 CAVOK 27/21 Q1016","temp":27,"dewp":21,"wdir":70,"wspd":4,"visib":"6+","altim":1016,"clouds":[],"obsTime":1777208400},"SBKG":{"icaoId":"SBKG","flightCategory":"VFR","rawOb":"METAR SBKG 261300Z 14012KT 9999 SCT010 SCT070 27/20 Q1015","temp":27,"dewp":20,"wdir":140,"wspd":12,"visib":"6+","altim":1015,"clouds":[{"cover":"SCT","base":1000},{"cover":"SCT","base":7000}],"obsTime":1777208400},"SBPB":{"icaoId":"SBPB","flightCategory":"VFR","rawOb":"METAR SBPB 261300Z 07006KT 9999 SCT020 28/24 Q1012","temp":28,"dewp":24,"wdir":70,"wspd":6,"visib":"6+","altim":1012,"clouds":[{"cover":"SCT","base":2000}],"obsTime":1777208400},"SBPL":{"icaoId":"SBPL","flightCategory":"VFR","rawOb":"METAR SBPL 261300Z 12008KT 9999 SCT030 28/20 Q1016","temp":28,"dewp":20,"wdir":120,"wspd":8,"visib":"6+","altim":1016,"clouds":[{"cover":"SCT","base":3000}],"obsTime":1777208400},"SBPP":{"icaoId":"SBPP","flightCategory":"VFR","rawOb":"METAR SBPP 261300Z 35009KT 9999 FEW018 BKN080 26/21 Q1015","temp":26,"dewp":21,"wdir":350,"wspd":9,"visib":"6+","altim":1015,"clouds":[{"cover":"FEW","base":1800},{"cover":"BKN","base":8000}],"obsTime":1777208400},"SBPS":{"icaoId":"SBPS","flightCategory":"VFR","rawOb":"METAR SBPS 261300Z VRB03KT 9999 SCT025 29/22 Q1016","temp":29,"dewp":22,"wdir":"VRB","wspd":3,"visib":"6+","altim":1016,"clouds":[{"cover":"SCT","base":2500}],"obsTime":1777208400},"SBSJ":{"icaoId":"SBSJ","flightCategory":"VFR","rawOb":"METAR SBSJ 261300Z 02005KT CAVOK 25/17 Q1017","temp":25,"dewp":17,"wdir":20,"wspd":5,"visib":"6+","altim":1017,"clouds":[],"obsTime":1777208400},"SBSM":{"icaoId":"SBSM","flightCategory":"VFR","rawOb":"METAR SBSM 261300Z 26002KT 9999 SCT003 SCT008 19/19 Q1011","temp":19,"dewp":19,"wdir":260,"wspd":2,"visib":"6+","altim":1011,"clouds":[{"cover":"SCT","base":300},{"cover":"SCT","base":800}],"obsTime":1777208400},"SBSR":{"icaoId":"SBSR","flightCategory":"VFR","rawOb":"METAR SBSR 261300Z 03005KT CAVOK 29/16 Q1016","temp":29,"dewp":16,"wdir":30,"wspd":5,"visib":"6+","altim":1016,"clouds":[],"obsTime":1777208400},"SBTF":{"icaoId":"SBTF","flightCategory":"VFR","rawOb":"METAR SBTF 261300Z 00000KT CAVOK 29/24 Q1013","temp":29,"dewp":24,"wdir":0,"wspd":0,"visib":"6+","altim":1013,"clouds":[],"obsTime":1777208400},"SBTT":{"icaoId":"SBTT","flightCategory":"VFR","rawOb":"METAR SBTT 261300Z 13004KT 9999 FEW010 26/23 Q1013","temp":26,"dewp":23,"wdir":130,"wspd":4,"visib":"6+","altim":1013,"clouds":[{"cover":"FEW","base":1000}],"obsTime":1777208400},"SBUY":{"icaoId":"SBUY","flightCategory":"VFR","rawOb":"METAR SBUY 261300Z 03002KT CAVOK 28/24 Q1012","temp":28,"dewp":24,"wdir":30,"wspd":2,"visib":"6+","altim":1012,"clouds":[],"obsTime":1777208400},"SBVH":{"icaoId":"SBVH","flightCategory":"VFR","rawOb":"METAR SBVH 261300Z 07008KT CAVOK 27/22 Q1016","temp":27,"dewp":22,"wdir":70,"wspd":8,"visib":"6+","altim":1016,"clouds":[],"obsTime":1777208400},"SBOI":{"icaoId":"SBOI","flightCategory":"VFR","rawOb":"METAR SBOI 261300Z AUTO 05005KT 010V100 9999 FEW016 29/25 Q1013","temp":29,"dewp":25,"wdir":50,"wspd":5,"visib":"6+","altim":1013,"clouds":[{"cover":"FEW","base":1600}],"obsTime":1777208400},"SBTA":{"icaoId":"SBTA","flightCategory":"VFR","rawOb":"METAR SBTA 261300Z 06003KT 330V110 CAVOK 25/18 Q1015","temp":25,"dewp":18,"wdir":60,"wspd":3,"visib":"6+","altim":1015,"clouds":[],"obsTime":1777208400},"SBAN":{"icaoId":"SBAN","flightCategory":"VFR","rawOb":"METAR SBAN 261300Z 11006KT 060V150 CAVOK 26/18 Q1021","temp":26,"dewp":18,"wdir":110,"wspd":6,"visib":"6+","altim":1021,"clouds":[],"obsTime":1777208400},"SBLE":{"icaoId":"SBLE","flightCategory":"MVFR","rawOb":"METAR SBLE 261300Z AUTO VRB02KT 9999 SCT020 BKN030 25/22 Q1018","temp":25,"dewp":22,"wdir":"VRB","wspd":2,"visib":"6+","altim":1018,"clouds":[{"cover":"SCT","base":2000},{"cover":"BKN","base":3000}],"obsTime":1777208400},"SBIH":{"icaoId":"SBIH","flightCategory":"VFR","rawOb":"METAR SBIH 261300Z 00000KT 9999 SCT015 30/25 Q1013","temp":30,"dewp":25,"wdir":0,"wspd":0,"visib":"6+","altim":1013,"clouds":[{"cover":"SCT","base":1500}],"obsTime":1777208400},"SBJV":{"icaoId":"SBJV","flightCategory":"MVFR","rawOb":"METAR SBJV 261300Z 23001KT 7000 SCT004 OVC080 24/23 Q1011","temp":24,"dewp":23,"wdir":230,"wspd":1,"visib":4.35,"altim":1011,"clouds":[{"cover":"SCT","base":400},{"cover":"OVC","base":8000}],"obsTime":1777208400},"SBNM":{"icaoId":"SBNM","flightCategory":"VFR","rawOb":"METAR SBNM 261400Z 20002KT 9999 SCT015 23/19 Q1013","temp":23,"dewp":19,"wdir":200,"wspd":2,"visib":"6+","altim":1013,"clouds":[{"cover":"SCT","base":1500}],"obsTime":1777212000},"SBPF":{"icaoId":"SBPF","flightCategory":"IFR","rawOb":"METAR SBPF 261300Z 23006KT 9999 BKN008 19/16 Q1013","temp":19,"dewp":16,"wdir":230,"wspd":6,"visib":"6+","altim":1013,"clouds":[{"cover":"BKN","base":800}],"obsTime":1777208400},"SBAF":{"icaoId":"SBAF","flightCategory":"VFR","rawOb":"METAR SBAF 261300Z 33004KT CAVOK 31/20 Q1012","temp":31,"dewp":20,"wdir":330,"wspd":4,"visib":"6+","altim":1012,"clouds":[],"obsTime":1777208400},"SBGW":{"icaoId":"SBGW","flightCategory":"VFR","rawOb":"METAR SBGW 261300Z 06003KT 010V130 CAVOK 26/16 Q1016","temp":26,"dewp":16,"wdir":60,"wspd":3,"visib":"6+","altim":1016,"clouds":[],"obsTime":1777208400},"SBJR":{"icaoId":"SBJR","flightCategory":"VFR","rawOb":"METAR SBJR 261300Z 02009KT CAVOK 33/20 Q1011","temp":33,"dewp":20,"wdir":20,"wspd":9,"visib":"6+","altim":1011,"clouds":[],"obsTime":1777208400},"SBLS":{"icaoId":"SBLS","flightCategory":"VFR","rawOb":"METAR SBLS 261300Z 02004KT 9999 FEW025 25/18 Q1019","temp":25,"dewp":18,"wdir":20,"wspd":4,"visib":"6+","altim":1019,"clouds":[{"cover":"FEW","base":2500}],"obsTime":1777208400},"SBMT":{"icaoId":"SBMT","flightCategory":"VFR","rawOb":"METAR SBMT 261300Z 35006KT CAVOK 26/16 Q1016","temp":26,"dewp":16,"wdir":350,"wspd":6,"visib":"6+","altim":1016,"clouds":[],"obsTime":1777208400},"SBST":{"icaoId":"SBST","flightCategory":"VFR","rawOb":"METAR SBST 261300Z 16003KT CAVOK 27/24 Q1011","temp":27,"dewp":24,"wdir":160,"wspd":3,"visib":"6+","altim":1011,"clouds":[],"obsTime":1777208400},"SBJP":{"icaoId":"SBJP","flightCategory":"MVFR","rawOb":"METAR SBJP 261300Z 13013KT 9999 BKN025 30/23 Q1013","temp":30,"dewp":23,"wdir":130,"wspd":13,"visib":"6+","altim":1013,"clouds":[{"cover":"BKN","base":2500}],"obsTime":1777208400}}}