{"updated":1775770573,"count":82,"data":{"SBBR":{"icaoId":"SBBR","flightCategory":"VFR","rawOb":"METAR SBBR 092000Z 17011KT 9999 SCT045 FEW050TCU BKN090 24/19 Q1016","temp":24,"dewp":19,"wdir":170,"wspd":11,"visib":"6+","altim":1016,"clouds":[{"cover":"SCT","base":4500},{"cover":"FEW","base":5000},{"cover":"BKN","base":9000}],"obsTime":1775764800},"SBCF":{"icaoId":"SBCF","flightCategory":"VFR","rawOb":"METAR SBCF 092000Z 24005KT 9999 SCT040 FEW045TCU 29/17 Q1015","temp":29,"dewp":17,"wdir":240,"wspd":5,"visib":"6+","altim":1015,"clouds":[{"cover":"SCT","base":4000},{"cover":"FEW","base":4500}],"obsTime":1775764800},"SBMA":{"icaoId":"SBMA","flightCategory":"MVFR","rawOb":"METAR SBMA 092000Z 31005KT 9999 BKN025 FEW030TCU 32/25 Q1009","temp":32,"dewp":25,"wdir":310,"wspd":5,"visib":"6+","altim":1009,"clouds":[{"cover":"BKN","base":2500},{"cover":"FEW","base":3000}],"obsTime":1775764800},"SBME":{"icaoId":"SBME","flightCategory":"VFR","rawOb":"METAR SBME 092000Z 21008KT 9999 SCT040 30/20 Q1010","temp":30,"dewp":20,"wdir":210,"wspd":8,"visib":"6+","altim":1010,"clouds":[{"cover":"SCT","base":4000}],"obsTime":1775764800},"SBMG":{"icaoId":"SBMG","flightCategory":"VFR","rawOb":"METAR SBMG 092000Z 27004KT 240V330 9999 FEW030 BKN100 25/18 Q1014","temp":25,"dewp":18,"wdir":270,"wspd":4,"visib":"6+","altim":1014,"clouds":[{"cover":"FEW","base":3000},{"cover":"BKN","base":10000}],"obsTime":1775764800},"SBEG":{"icaoId":"SBEG","flightCategory":"VFR","rawOb":"METAR SBEG 092000Z VRB02KT 9999 SCT008 SCT020 FEW025TCU 26/23 Q1010","temp":26,"dewp":23,"wdir":"VRB","wspd":2,"visib":"6+","altim":1010,"clouds":[{"cover":"SCT","base":800},{"cover":"SCT","base":2000},{"cover":"FEW","base":2500}],"obsTime":1775764800},"SBMK":{"icaoId":"SBMK","flightCategory":"MVFR","rawOb":"METAR SBMK 092000Z 28007KT 6000 -TSRA SCT030 FEW035CB BKN060 26/21 Q1014","temp":26,"dewp":21,"wdir":280,"wspd":7,"visib":3.73,"altim":1014,"clouds":[{"cover":"SCT","base":3000},{"cover":"FEW","base":3500},{"cover":"BKN","base":6000}],"obsTime":1775764800},"SBFI":{"icaoId":"SBFI","flightCategory":"VFR","rawOb":"METAR SBFI 092000Z 23006KT 9999 SCT035 25/17 Q1015","temp":25,"dewp":17,"wdir":230,"wspd":6,"visib":"6+","altim":1015,"clouds":[{"cover":"SCT","base":3500}],"obsTime":1775764800},"SBMO":{"icaoId":"SBMO","flightCategory":"VFR","rawOb":"METAR SBMO 092000Z 10007KT 9999 FEW030 28/22 Q1011","temp":28,"dewp":22,"wdir":100,"wspd":7,"visib":"6+","altim":1011,"clouds":[{"cover":"FEW","base":3000}],"obsTime":1775764800},"SBMQ":{"icaoId":"SBMQ","flightCategory":"VFR","rawOb":"METAR SBMQ 092000Z 05011KT 9999 FEW020 31/24 Q1009","temp":31,"dewp":24,"wdir":50,"wspd":11,"visib":"6+","altim":1009,"clouds":[{"cover":"FEW","base":2000}],"obsTime":1775764800},"SBCZ":{"icaoId":"SBCZ","flightCategory":"MVFR","rawOb":"METAR SBCZ 092000Z 27004KT 6000 -TSRA SCT016 BKN030 FEW030CB 25/25 Q1010 RERA","temp":25,"dewp":25,"wdir":270,"wspd":4,"visib":3.73,"altim":1010,"clouds":[{"cover":"SCT","base":1600},{"cover":"BKN","base":3000},{"cover":"FEW","base":3000}],"obsTime":1775764800},"SBLO":{"icaoId":"SBLO","flightCategory":"VFR","rawOb":"METAR SBLO 092000Z 28006KT 230V330 9999 FEW037 26/17 Q1014","temp":26,"dewp":17,"wdir":280,"wspd":6,"visib":"6+","altim":1014,"clouds":[{"cover":"FEW","base":3700}],"obsTime":1775764800},"SBNT":{"icaoId":"SBNT","flightCategory":"MVFR","rawOb":"METAR SBNT 092000Z 11014KT 9999 BKN020 FEW030TCU SCT080 27/23 Q1011","temp":27,"dewp":23,"wdir":110,"wspd":14,"visib":"6+","altim":1011,"clouds":[{"cover":"BKN","base":2000},{"cover":"FEW","base":3000},{"cover":"SCT","base":8000}],"obsTime":1775764800},"SBFL":{"icaoId":"SBFL","flightCategory":"VFR","rawOb":"METAR SBFL 092000Z 12011KT 9999 SCT040 24/17 Q1013","temp":24,"dewp":17,"wdir":120,"wspd":11,"visib":"6+","altim":1013,"clouds":[{"cover":"SCT","base":4000}],"obsTime":1775764800},"SBAT":{"icaoId":"SBAT","flightCategory":"VFR","rawOb":"METAR SBAT 092000Z 00000KT 9999 SCT030 34/24 Q1010","temp":34,"dewp":24,"wdir":0,"wspd":0,"visib":"6+","altim":1010,"clouds":[{"cover":"SCT","base":3000}],"obsTime":1775764800},"SBFZ":{"icaoId":"SBFZ","flightCategory":"VFR","rawOb":"METAR SBFZ 092000Z VRB02KT 9999 FEW025 28/24 Q1009","temp":28,"dewp":24,"wdir":"VRB","wspd":2,"visib":"6+","altim":1009,"clouds":[{"cover":"FEW","base":2500}],"obsTime":1775764800},"SBPA":{"icaoId":"SBPA","flightCategory":"VFR","rawOb":"SPECI SBPA 091940Z 23007KT 170V280 9999 FEW040 SCT045 24/14 Q1015","temp":24,"dewp":14,"wdir":230,"wspd":7,"visib":"6+","altim":1015,"clouds":[{"cover":"FEW","base":4000},{"cover":"SCT","base":4500}],"obsTime":1775763600},"SBCG":{"icaoId":"SBCG","flightCategory":"VFR","rawOb":"METAR SBCG 092000Z 18005KT 9999 SCT040 FEW050TCU 28/21 Q1014","temp":28,"dewp":21,"wdir":180,"wspd":5,"visib":"6+","altim":1014,"clouds":[{"cover":"SCT","base":4000},{"cover":"FEW","base":5000}],"obsTime":1775764800},"SBPJ":{"icaoId":"SBPJ","flightCategory":"VFR","rawOb":"METAR SBPJ 092000Z 18003KT 9999 FEW027 FEW033TCU 27/23 Q1011","temp":27,"dewp":23,"wdir":180,"wspd":3,"visib":"6+","altim":1011,"clouds":[{"cover":"FEW","base":2700},{"cover":"FEW","base":3300}],"obsTime":1775764800},"SBPV":{"icaoId":"SBPV","flightCategory":"VFR","rawOb":"METAR SBPV 092000Z 26001KT 9999 VCSH SCT030 FEW035TCU 27/25 Q1008 RESHRA","temp":27,"dewp":25,"wdir":260,"wspd":1,"visib":"6+","altim":1008,"clouds":[{"cover":"SCT","base":3000},{"cover":"FEW","base":3500}],"obsTime":1775764800},"SBBV":{"icaoId":"SBBV","flightCategory":"VFR","rawOb":"METAR SBBV 092000Z 11011KT 9999 BKN040 FEW045TCU BKN080 33/22 Q1009","temp":33,"dewp":22,"wdir":110,"wspd":11,"visib":"6+","altim":1009,"clouds":[{"cover":"BKN","base":4000},{"cover":"FEW","base":4500},{"cover":"BKN","base":8000}],"obsTime":1775764800},"SBRB":{"icaoId":"SBRB","flightCategory":"MVFR","rawOb":"METAR SBRB 092000Z 21002KT 8000 BKN030 FEW040TCU 30/23 Q1010","temp":30,"dewp":23,"wdir":210,"wspd":2,"visib":4.97,"altim":1010,"clouds":[{"cover":"BKN","base":3000},{"cover":"FEW","base":4000}],"obsTime":1775764800},"SBGL":{"icaoId":"SBGL","flightCategory":"VFR","rawOb":"METAR SBGL 092000Z 23012KT 9999 FEW025 BKN050 29/21 Q1012","temp":29,"dewp":21,"wdir":230,"wspd":12,"visib":"6+","altim":1012,"clouds":[{"cover":"FEW","base":2500},{"cover":"BKN","base":5000}],"obsTime":1775764800},"SBRF":{"icaoId":"SBRF","flightCategory":"VFR","rawOb":"METAR SBRF 092000Z 14009KT 9999 SCT023 29/24 Q1011","temp":29,"dewp":24,"wdir":140,"wspd":9,"visib":"6+","altim":1011,"clouds":[{"cover":"SCT","base":2300}],"obsTime":1775764800},"SBCP":{"icaoId":"SBCP","flightCategory":"VFR","rawOb":"METAR SBCP 092000Z 20013KT 9999 SCT025 29/22 Q1010","temp":29,"dewp":22,"wdir":200,"wspd":13,"visib":"6+","altim":1010,"clouds":[{"cover":"SCT","base":2500}],"obsTime":1775764800},"SBSG":{"icaoId":"SBSG","flightCategory":"MVFR","rawOb":"METAR SBSG 092000Z 13006KT 100V170 9999 BKN026 FEW030TCU BKN060 26/23 Q1011","temp":26,"dewp":23,"wdir":130,"wspd":6,"visib":"6+","altim":1011,"clouds":[{"cover":"BKN","base":2600},{"cover":"FEW","base":3000},{"cover":"BKN","base":6000}],"obsTime":1775764800},"SBGO":{"icaoId":"SBGO","flightCategory":"VFR","rawOb":"METAR SBGO 092000Z 12004KT 9999 SCT048 FEW050TCU 28/21 Q1014","temp":28,"dewp":21,"wdir":120,"wspd":4,"visib":"6+","altim":1014,"clouds":[{"cover":"SCT","base":4800},{"cover":"FEW","base":5000}],"obsTime":1775764800},"SBSL":{"icaoId":"SBSL","flightCategory":"MVFR","rawOb":"METAR SBSL 092000Z 03003KT 9999 BKN015 FEW025TCU BKN080 25/24 Q1010 RETS","temp":25,"dewp":24,"wdir":30,"wspd":3,"visib":"6+","altim":1010,"clouds":[{"cover":"BKN","base":1500},{"cover":"FEW","base":2500},{"cover":"BKN","base":8000}],"obsTime":1775764800},"SBBE":{"icaoId":"SBBE","flightCategory":"MVFR","rawOb":"METAR SBBE 092000Z 36011KT 9999 4000E VCSH BKN025 FEW030TCU 30/24 Q1009","temp":30,"dewp":24,"wdir":360,"wspd":11,"visib":"6+","altim":1009,"clouds":[{"cover":"BKN","base":2500},{"cover":"FEW","base":3000}],"obsTime":1775764800},"SBGR":{"icaoId":"SBGR","flightCategory":"VFR","rawOb":"METAR SBGR 092000Z 18004KT 9999 BKN033 FEW040TCU 24/18 Q1016","temp":24,"dewp":18,"wdir":180,"wspd":4,"visib":"6+","altim":1016,"clouds":[{"cover":"BKN","base":3300},{"cover":"FEW","base":4000}],"obsTime":1775764800},"SBSN":{"icaoId":"SBSN","flightCategory":"VFR","rawOb":"METAR SBSN 092000Z 09013KT 9999 FEW016 FEW023TCU SCT073 29/25 Q1009","temp":29,"dewp":25,"wdir":90,"wspd":13,"visib":"6+","altim":1009,"clouds":[{"cover":"FEW","base":1600},{"cover":"FEW","base":2300},{"cover":"SCT","base":7300}],"obsTime":1775764800},"SBHT":{"icaoId":"SBHT","flightCategory":"MVFR","rawOb":"METAR SBHT 092000Z 06006KT 9999 BKN020 BKN100 27/24 Q1010","temp":27,"dewp":24,"wdir":60,"wspd":6,"visib":"6+","altim":1010,"clouds":[{"cover":"BKN","base":2000},{"cover":"BKN","base":10000}],"obsTime":1775764800},"SBSP":{"icaoId":"SBSP","flightCategory":"VFR","rawOb":"METAR SBSP 092000Z 17011KT 9999 BKN040 22/18 Q1017","temp":22,"dewp":18,"wdir":170,"wspd":11,"visib":"6+","altim":1017,"clouds":[{"cover":"BKN","base":4000}],"obsTime":1775764800},"SBSV":{"icaoId":"SBSV","flightCategory":"VFR","rawOb":"METAR SBSV 092000Z 12007KT CAVOK 29/21 Q1011","temp":29,"dewp":21,"wdir":120,"wspd":7,"visib":"6+","altim":1011,"clouds":[],"obsTime":1775764800},"SBCR":{"icaoId":"SBCR","flightCategory":"VFR","rawOb":"METAR SBCR 092000Z 22007KT 9999 FEW013 BKN100 26/23 Q1012","temp":26,"dewp":23,"wdir":220,"wspd":7,"visib":"6+","altim":1012,"clouds":[{"cover":"FEW","base":1300},{"cover":"BKN","base":10000}],"obsTime":1775764800},"SBIL":{"icaoId":"SBIL","flightCategory":"VFR","rawOb":"METAR SBIL 092000Z 09008KT 9999 FEW018 29/24 Q1011","temp":29,"dewp":24,"wdir":90,"wspd":8,"visib":"6+","altim":1011,"clouds":[{"cover":"FEW","base":1800}],"obsTime":1775764800},"SBTE":{"icaoId":"SBTE","flightCategory":"VFR","rawOb":"METAR SBTE 092000Z 10003KT 9999 FEW020 FEW025TCU 32/22 Q1009","temp":32,"dewp":22,"wdir":100,"wspd":3,"visib":"6+","altim":1009,"clouds":[{"cover":"FEW","base":2000},{"cover":"FEW","base":2500}],"obsTime":1775764800},"SBUL":{"icaoId":"SBUL","flightCategory":"VFR","rawOb":"METAR SBUL 092000Z 25009KT 9999 FEW048 27/18 Q1016","temp":27,"dewp":18,"wdir":250,"wspd":9,"visib":"6+","altim":1016,"clouds":[{"cover":"FEW","base":4800}],"obsTime":1775764800},"SBCT":{"icaoId":"SBCT","flightCategory":"VFR","rawOb":"METAR SBCT 092000Z 20007KT 9999 FEW045 24/11 Q1017","temp":24,"dewp":11,"wdir":200,"wspd":7,"visib":"6+","altim":1017,"clouds":[{"cover":"FEW","base":4500}],"obsTime":1775764800},"SBUR":{"icaoId":"SBUR","flightCategory":"VFR","rawOb":"METAR SBUR 092000Z 21007KT 9999 SCT042 28/20 Q1016","temp":28,"dewp":20,"wdir":210,"wspd":7,"visib":"6+","altim":1016,"clouds":[{"cover":"SCT","base":4200}],"obsTime":1775764800},"SBJU":{"icaoId":"SBJU","flightCategory":"VFR","rawOb":"METAR SBJU 092000Z 12003KT 9999 SCT022 29/21 Q1012","temp":29,"dewp":21,"wdir":120,"wspd":3,"visib":"6+","altim":1012,"clouds":[{"cover":"SCT","base":2200}],"obsTime":1775764800},"SBVT":{"icaoId":"SBVT","flightCategory":"VFR","rawOb":"METAR SBVT 092000Z 36003KT 9999 VCSH VCTS FEW030 FEW040CB BKN100 25/22 Q1010","temp":25,"dewp":22,"wdir":360,"wspd":3,"visib":"6+","altim":1010,"clouds":[{"cover":"FEW","base":3000},{"cover":"FEW","base":4000},{"cover":"BKN","base":10000}],"obsTime":1775764800},"SBCB":{"icaoId":"SBCB","flightCategory":"VFR","rawOb":"METAR SBCB 092000Z 25011KT CAVOK 26/23 Q1011","temp":26,"dewp":23,"wdir":250,"wspd":11,"visib":"6+","altim":1011,"clouds":[],"obsTime":1775764800},"SBKP":{"icaoId":"SBKP","flightCategory":"VFR","rawOb":"METAR SBKP 092000Z 25008KT 9999 SCT035 28/20 Q1014","temp":28,"dewp":20,"wdir":250,"wspd":8,"visib":"6+","altim":1014,"clouds":[{"cover":"SCT","base":3500}],"obsTime":1775764800},"SBCJ":{"icaoId":"SBCJ","flightCategory":"VFR","rawOb":"METAR SBCJ 092000Z 02003KT 9999 SCT018 27/22 Q1014","temp":27,"dewp":22,"wdir":20,"wspd":3,"visib":"6+","altim":1014,"clouds":[{"cover":"SCT","base":1800}],"obsTime":1775764800},"SBAR":{"icaoId":"SBAR","flightCategory":"VFR","rawOb":"METAR SBAR 092000Z 12008KT 9999 FEW018 29/23 Q1011","temp":29,"dewp":23,"wdir":120,"wspd":8,"visib":"6+","altim":1011,"clouds":[{"cover":"FEW","base":1800}],"obsTime":1775764800},"SBAX":{"icaoId":"SBAX","flightCategory":"VFR","rawOb":"METAR SBAX 092000Z 34005KT 9999 SCT030 25/20 Q1016","temp":25,"dewp":20,"wdir":340,"wspd":5,"visib":"6+","altim":1016,"clouds":[{"cover":"SCT","base":3000}],"obsTime":1775764800},"SBBH":{"icaoId":"SBBH","flightCategory":"VFR","rawOb":"METAR SBBH 092000Z 28007KT 9999 FEW048TCU 29/18 Q1015","temp":29,"dewp":18,"wdir":280,"wspd":7,"visib":"6+","altim":1015,"clouds":[{"cover":"FEW","base":4800}],"obsTime":1775764800},"SBBU":{"icaoId":"SBBU","flightCategory":"VFR","rawOb":"METAR SBBU 092000Z 20006KT 9999 FEW030 29/21 Q1014","temp":29,"dewp":21,"wdir":200,"wspd":6,"visib":"6+","altim":1014,"clouds":[{"cover":"FEW","base":3000}],"obsTime":1775764800},"SBCA":{"icaoId":"SBCA","flightCategory":"VFR","rawOb":"METAR SBCA 092000Z 20007KT 9999 SCT030 22/14 Q1017","temp":22,"dewp":14,"wdir":200,"wspd":7,"visib":"6+","altim":1017,"clouds":[{"cover":"SCT","base":3000}],"obsTime":1775764800},"SBCC":{"icaoId":"SBCC","flightCategory":"MVFR","rawOb":"METAR SBCC 092000Z 34008KT 9999 TS VCSH BKN020 FEW025CB BKN100 29/21 Q1011","temp":29,"dewp":21,"wdir":340,"wspd":8,"visib":"6+","altim":1011,"clouds":[{"cover":"BKN","base":2000},{"cover":"FEW","base":2500},{"cover":"BKN","base":10000}],"obsTime":1775764800},"SBCO":{"icaoId":"SBCO","flightCategory":"VFR","rawOb":"METAR SBCO 092000Z 27008KT 9999 SCT045 24/13 Q1015","temp":24,"dewp":13,"wdir":270,"wspd":8,"visib":"6+","altim":1015,"clouds":[{"cover":"SCT","base":4500}],"obsTime":1775764800},"SBDN":{"icaoId":"SBDN","flightCategory":"VFR","rawOb":"METAR SBDN 092000Z 21007KT 9999 SCT040 29/19 Q1013","temp":29,"dewp":19,"wdir":210,"wspd":7,"visib":"6+","altim":1013,"clouds":[{"cover":"SCT","base":4000}],"obsTime":1775764800},"SBES":{"icaoId":"SBES","flightCategory":"VFR","rawOb":"METAR SBES 092000Z 24011KT 170V280 9999 FEW010 26/// Q1011","temp":null,"dewp":null,"wdir":240,"wspd":11,"visib":"6+","altim":1011,"clouds":[{"cover":"FEW","base":1000}],"obsTime":1775764800},"SBIP":{"icaoId":"SBIP","flightCategory":"VFR","rawOb":"METAR SBIP 092000Z AUTO VRB02KT CAVOK 27/22 Q1011","temp":27,"dewp":22,"wdir":"VRB","wspd":2,"visib":"6+","altim":1011,"clouds":[],"obsTime":1775764800},"SBKG":{"icaoId":"SBKG","flightCategory":"VFR","rawOb":"METAR SBKG 092000Z 08007KT 9999 FEW016 28/21 Q1013","temp":28,"dewp":21,"wdir":80,"wspd":7,"visib":"6+","altim":1013,"clouds":[{"cover":"FEW","base":1600}],"obsTime":1775764800},"SBOI":{"icaoId":"SBOI","flightCategory":"VFR","rawOb":"METAR SBOI 092000Z AUTO 08006KT 030V140 9999 FEW035 SCT040 29/23 Q1011","temp":29,"dewp":23,"wdir":80,"wspd":6,"visib":"6+","altim":1011,"clouds":[{"cover":"FEW","base":3500},{"cover":"SCT","base":4000}],"obsTime":1775764800},"SBPB":{"icaoId":"SBPB","flightCategory":"VFR","rawOb":"METAR SBPB 092000Z 04005KT 9999 FEW016 SCT090 29/25 Q1010","temp":29,"dewp":25,"wdir":40,"wspd":5,"visib":"6+","altim":1010,"clouds":[{"cover":"FEW","base":1600},{"cover":"SCT","base":9000}],"obsTime":1775764800},"SBPL":{"icaoId":"SBPL","flightCategory":"MVFR","rawOb":"METAR SBPL 092000Z 36004KT 9999 BKN030 SCT070 30/21 Q1011","temp":30,"dewp":21,"wdir":360,"wspd":4,"visib":"6+","altim":1011,"clouds":[{"cover":"BKN","base":3000},{"cover":"SCT","base":7000}],"obsTime":1775764800},"SBPP":{"icaoId":"SBPP","flightCategory":"MVFR","rawOb":"METAR SBPP 092000Z 16005KT 9999 OVC015 21/18 Q1016","temp":21,"dewp":18,"wdir":160,"wspd":5,"visib":"6+","altim":1016,"clouds":[{"cover":"OVC","base":1500}],"obsTime":1775764800},"SBPS":{"icaoId":"SBPS","flightCategory":"VFR","rawOb":"METAR SBPS 092000Z 04008KT 9999 FEW025 29/23 Q1011","temp":29,"dewp":23,"wdir":40,"wspd":8,"visib":"6+","altim":1011,"clouds":[{"cover":"FEW","base":2500}],"obsTime":1775764800},"SBSC":{"icaoId":"SBSC","flightCategory":"VFR","rawOb":"METAR SBSC 092000Z 22009KT 9999 BKN048 26/23 Q1012","temp":26,"dewp":23,"wdir":220,"wspd":9,"visib":"6+","altim":1012,"clouds":[{"cover":"BKN","base":4800}],"obsTime":1775764800},"SBSJ":{"icaoId":"SBSJ","flightCategory":"VFR","rawOb":"METAR SBSJ 092000Z 19008KT 9999 FEW040 FEW045TCU 25/19 Q1015","temp":25,"dewp":19,"wdir":190,"wspd":8,"visib":"6+","altim":1015,"clouds":[{"cover":"FEW","base":4000},{"cover":"FEW","base":4500}],"obsTime":1775764800},"SBSM":{"icaoId":"SBSM","flightCategory":"VFR","rawOb":"METAR SBSM 092000Z 23004KT 9999 SCT040 24/14 Q1016","temp":24,"dewp":14,"wdir":230,"wspd":4,"visib":"6+","altim":1016,"clouds":[{"cover":"SCT","base":4000}],"obsTime":1775764800},"SBSR":{"icaoId":"SBSR","flightCategory":"VFR","rawOb":"METAR SBSR 092000Z 24008KT 9999 SCT030 FEW035TCU BKN070 29/20 Q1014","temp":29,"dewp":20,"wdir":240,"wspd":8,"visib":"6+","altim":1014,"clouds":[{"cover":"SCT","base":3000},{"cover":"FEW","base":3500},{"cover":"BKN","base":7000}],"obsTime":1775764800},"SBTF":{"icaoId":"SBTF","flightCategory":"VFR","rawOb":"METAR SBTF 092000Z 10004KT 9999 SCT020 33/25 Q1007","temp":33,"dewp":25,"wdir":100,"wspd":4,"visib":"6+","altim":1007,"clouds":[{"cover":"SCT","base":2000}],"obsTime":1775764800},"SBTT":{"icaoId":"SBTT","flightCategory":"VFR","rawOb":"METAR SBTT 092000Z 01004KT 9999 SCT025 FEW030TCU 29/23 Q1010","temp":29,"dewp":23,"wdir":10,"wspd":4,"visib":"6+","altim":1010,"clouds":[{"cover":"SCT","base":2500},{"cover":"FEW","base":3000}],"obsTime":1775764800},"SBUY":{"icaoId":"SBUY","flightCategory":"VFR","rawOb":"METAR SBUY 092000Z 11004KT 9999 SCT025 FEW030TCU SCT100 32/24 Q1007","temp":32,"dewp":24,"wdir":110,"wspd":4,"visib":"6+","altim":1007,"clouds":[{"cover":"SCT","base":2500},{"cover":"FEW","base":3000},{"cover":"SCT","base":10000}],"obsTime":1775764800},"SBVH":{"icaoId":"SBVH","flightCategory":"IFR","rawOb":"METAR SBVH 092000Z 03004KT 340V100 3000 1000E TSRA BKN035 FEW040CB OVC100 23/22 Q1014","temp":23,"dewp":22,"wdir":30,"wspd":4,"visib":1.86,"altim":1014,"clouds":[{"cover":"BKN","base":3500},{"cover":"FEW","base":4000},{"cover":"OVC","base":10000}],"obsTime":1775764800},"SBJP":{"icaoId":"SBJP","flightCategory":"VFR","rawOb":"METAR SBJP 092000Z 11010KT 9999 FEW020 SCT100 28/23 Q1011","temp":28,"dewp":23,"wdir":110,"wspd":10,"visib":"6+","altim":1011,"clouds":[{"cover":"FEW","base":2000},{"cover":"SCT","base":10000}],"obsTime":1775764800},"SBPF":{"icaoId":"SBPF","flightCategory":"VFR","rawOb":"METAR SBPF 092000Z 22008KT CAVOK 20/12 Q1018","temp":20,"dewp":12,"wdir":220,"wspd":8,"visib":"6+","altim":1018,"clouds":[],"obsTime":1775764800},"SBAN":{"icaoId":"SBAN","flightCategory":"MVFR","rawOb":"METAR SBAN 092000Z 25004KT 9999 VCSH BKN030 FEW035TCU 27/18 Q1017","temp":27,"dewp":18,"wdir":250,"wspd":4,"visib":"6+","altim":1017,"clouds":[{"cover":"BKN","base":3000},{"cover":"FEW","base":3500}],"obsTime":1775764800},"SBAF":{"icaoId":"SBAF","flightCategory":"VFR","rawOb":"METAR SBAF 092000Z 24008KT 9999 FEW020 BKN053 27/21 Q1012","temp":27,"dewp":21,"wdir":240,"wspd":8,"visib":"6+","altim":1012,"clouds":[{"cover":"FEW","base":2000},{"cover":"BKN","base":5300}],"obsTime":1775764800},"SBGW":{"icaoId":"SBGW","flightCategory":"VFR","rawOb":"METAR SBGW 092000Z 33005KT 280V360 9999 SCT035 FEW040TCU 28/18 Q1013 RETS","temp":28,"dewp":18,"wdir":330,"wspd":5,"visib":"6+","altim":1013,"clouds":[{"cover":"SCT","base":3500},{"cover":"FEW","base":4000}],"obsTime":1775764800},"SBJR":{"icaoId":"SBJR","flightCategory":"VFR","rawOb":"METAR SBJR 092000Z 23006KT 9999 FEW015 SCT025 BKN050 27/23 Q1012","temp":27,"dewp":23,"wdir":230,"wspd":6,"visib":"6+","altim":1012,"clouds":[{"cover":"FEW","base":1500},{"cover":"SCT","base":2500},{"cover":"BKN","base":5000}],"obsTime":1775764800},"SBLS":{"icaoId":"SBLS","flightCategory":"VFR","rawOb":"METAR SBLS 092000Z 29005KT 9999 FEW040 FEW045TCU 29/18 Q1015","temp":29,"dewp":18,"wdir":290,"wspd":5,"visib":"6+","altim":1015,"clouds":[{"cover":"FEW","base":4000},{"cover":"FEW","base":4500}],"obsTime":1775764800},"SBMT":{"icaoId":"SBMT","flightCategory":"VFR","rawOb":"METAR SBMT 092000Z 15007KT 120V190 9999 SCT025 FEW035TCU 23/18 Q1016","temp":23,"dewp":18,"wdir":150,"wspd":7,"visib":"6+","altim":1016,"clouds":[{"cover":"SCT","base":2500},{"cover":"FEW","base":3500}],"obsTime":1775764800},"SBST":{"icaoId":"SBST","flightCategory":"MVFR","rawOb":"METAR SBST 092000Z 25004KT 9999 BKN030 25/19 Q1013","temp":25,"dewp":19,"wdir":250,"wspd":4,"visib":"6+","altim":1013,"clouds":[{"cover":"BKN","base":3000}],"obsTime":1775764800},"SBTA":{"icaoId":"SBTA","flightCategory":"VFR","rawOb":"METAR SBTA 092000Z 17006KT 9999 SCT040 FEW045TCU 28/20 Q1013","temp":28,"dewp":20,"wdir":170,"wspd":6,"visib":"6+","altim":1013,"clouds":[{"cover":"SCT","base":4000},{"cover":"FEW","base":4500}],"obsTime":1775764800},"SBLE":{"icaoId":"SBLE","flightCategory":"VFR","rawOb":"METAR SBLE 092000Z AUTO 17003KT CAVOK 27/19 Q1013","temp":27,"dewp":19,"wdir":170,"wspd":3,"visib":"6+","altim":1013,"clouds":[],"obsTime":1775764800},"SBIH":{"icaoId":"SBIH","flightCategory":"VFR","rawOb":"METAR SBIH 092000Z 06004KT 9999 FEW020 30/25 Q1008","temp":30,"dewp":25,"wdir":60,"wspd":4,"visib":"6+","altim":1008,"clouds":[{"cover":"FEW","base":2000}],"obsTime":1775764800},"SBJV":{"icaoId":"SBJV","flightCategory":"VFR","rawOb":"METAR SBJV 092000Z 11008KT 9999 SCT040 27/19 Q1013","temp":27,"dewp":19,"wdir":110,"wspd":8,"visib":"6+","altim":1013,"clouds":[{"cover":"SCT","base":4000}],"obsTime":1775764800}}}