{"updated":1782341830,"count":82,"data":{"SBRB":{"icaoId":"SBRB","flightCategory":"IFR","rawOb":"METAR SBRB 242100Z 17007KT 9999 BKN009 OVC100 16/15 Q1015","temp":16,"dewp":15,"wdir":170,"wspd":7,"visib":"6+","altim":1015,"clouds":[{"cover":"BKN","base":900},{"cover":"OVC","base":10000}],"obsTime":1782334800},"SBBE":{"icaoId":"SBBE","flightCategory":"VFR","rawOb":"METAR SBBE 242100Z 32004KT 9999 SCT049 BKN100 27/24 Q1009","temp":27,"dewp":24,"wdir":320,"wspd":4,"visib":"6+","altim":1009,"clouds":[{"cover":"SCT","base":4900},{"cover":"BKN","base":10000}],"obsTime":1782334800},"SBBR":{"icaoId":"SBBR","flightCategory":"VFR","rawOb":"METAR SBBR 242100Z 26005KT 9999 FEW045 SCT070 26/14 Q1019","temp":26,"dewp":14,"wdir":260,"wspd":5,"visib":"6+","altim":1019,"clouds":[{"cover":"FEW","base":4500},{"cover":"SCT","base":7000}],"obsTime":1782334800},"SBBV":{"icaoId":"SBBV","flightCategory":"MVFR","rawOb":"METAR SBBV 242100Z 16004KT 8000 SCT010 FEW030TCU BKN070 27/25 Q1011","temp":27,"dewp":25,"wdir":160,"wspd":4,"visib":4.97,"altim":1011,"clouds":[{"cover":"SCT","base":1000},{"cover":"FEW","base":3000},{"cover":"BKN","base":7000}],"obsTime":1782334800},"SBCF":{"icaoId":"SBCF","flightCategory":"VFR","rawOb":"METAR SBCF 242100Z 05005KT CAVOK 24/14 Q1018","temp":24,"dewp":14,"wdir":50,"wspd":5,"visib":"6+","altim":1018,"clouds":[],"obsTime":1782334800},"SBCG":{"icaoId":"SBCG","flightCategory":"VFR","rawOb":"METAR SBCG 242100Z 10005KT CAVOK 12/07 Q1020","temp":12,"dewp":7,"wdir":100,"wspd":5,"visib":"6+","altim":1020,"clouds":[],"obsTime":1782334800},"SBCP":{"icaoId":"SBCP","flightCategory":"VFR","rawOb":"METAR SBCP 242100Z 19004KT 9999 SCT030 24/20 Q1016","temp":24,"dewp":20,"wdir":190,"wspd":4,"visib":"6+","altim":1016,"clouds":[{"cover":"SCT","base":3000}],"obsTime":1782334800},"SBCT":{"icaoId":"SBCT","flightCategory":"VFR","rawOb":"METAR SBCT 242100Z 28004KT 9999 FEW020 08/04 Q1020","temp":8,"dewp":4,"wdir":280,"wspd":4,"visib":"6+","altim":1020,"clouds":[{"cover":"FEW","base":2000}],"obsTime":1782334800},"SBCZ":{"icaoId":"SBCZ","flightCategory":"MVFR","rawOb":"METAR SBCZ 242100Z 30003KT 9999 BKN030 30/25 Q1009","temp":30,"dewp":25,"wdir":300,"wspd":3,"visib":"6+","altim":1009,"clouds":[{"cover":"BKN","base":3000}],"obsTime":1782334800},"SBEG":{"icaoId":"SBEG","flightCategory":"VFR","rawOb":"METAR SBEG 242100Z 13005KT 090V160 9999 FEW030 FEW035TCU 32/23 Q1008","temp":32,"dewp":23,"wdir":130,"wspd":5,"visib":"6+","altim":1008,"clouds":[{"cover":"FEW","base":3000},{"cover":"FEW","base":3500}],"obsTime":1782334800},"SBFI":{"icaoId":"SBFI","flightCategory":"VFR","rawOb":"METAR SBFI 242100Z 24002KT CAVOK 12/09 Q1020","temp":12,"dewp":9,"wdir":240,"wspd":2,"visib":"6+","altim":1020,"clouds":[],"obsTime":1782334800},"SBFL":{"icaoId":"SBFL","flightCategory":"VFR","rawOb":"METAR SBFL 242100Z 11003KT 080V140 CAVOK 11/06 Q1020","temp":11,"dewp":6,"wdir":110,"wspd":3,"visib":"6+","altim":1020,"clouds":[],"obsTime":1782334800},"SBFZ":{"icaoId":"SBFZ","flightCategory":"VFR","rawOb":"METAR SBFZ 242100Z 10010KT 9999 FEW020 28/23 Q1010","temp":28,"dewp":23,"wdir":100,"wspd":10,"visib":"6+","altim":1010,"clouds":[{"cover":"FEW","base":2000}],"obsTime":1782334800},"SBGL":{"icaoId":"SBGL","flightCategory":"MVFR","rawOb":"METAR SBGL 242100Z 01004KT 5000 -RA SCT005 BKN012 OVC070 20/19 Q1017","temp":20,"dewp":19,"wdir":10,"wspd":4,"visib":3.11,"altim":1017,"clouds":[{"cover":"SCT","base":500},{"cover":"BKN","base":1200},{"cover":"OVC","base":7000}],"obsTime":1782334800},"SBGO":{"icaoId":"SBGO","flightCategory":"MVFR","rawOb":"METAR SBGO 242100Z 17010KT 9999 BKN017 21/17 Q1019","temp":21,"dewp":17,"wdir":170,"wspd":10,"visib":"6+","altim":1019,"clouds":[{"cover":"BKN","base":1700}],"obsTime":1782334800},"SBGR":{"icaoId":"SBGR","flightCategory":"IFR","rawOb":"METAR SBGR 242100Z 21003KT 8000 OVC007 13/12 Q1021","temp":13,"dewp":12,"wdir":210,"wspd":3,"visib":4.97,"altim":1021,"clouds":[{"cover":"OVC","base":700}],"obsTime":1782334800},"SBHT":{"icaoId":"SBHT","flightCategory":"VFR","rawOb":"METAR SBHT 242100Z 12003KT 9999 FEW025 30/25 Q1010","temp":30,"dewp":25,"wdir":120,"wspd":3,"visib":"6+","altim":1010,"clouds":[{"cover":"FEW","base":2500}],"obsTime":1782334800},"SBIL":{"icaoId":"SBIL","flightCategory":"VFR","rawOb":"METAR SBIL 242100Z 07006KT 9999 FEW023 BKN060 26/24 Q1016","temp":26,"dewp":24,"wdir":70,"wspd":6,"visib":"6+","altim":1016,"clouds":[{"cover":"FEW","base":2300},{"cover":"BKN","base":6000}],"obsTime":1782334800},"SBJU":{"icaoId":"SBJU","flightCategory":"VFR","rawOb":"METAR SBJU 242100Z 15003KT 9999 FEW022 29/17 Q1013","temp":29,"dewp":17,"wdir":150,"wspd":3,"visib":"6+","altim":1013,"clouds":[{"cover":"FEW","base":2200}],"obsTime":1782334800},"SBKP":{"icaoId":"SBKP","flightCategory":"LIFR","rawOb":"METAR SBKP 242100Z 00000KT 0400 R15/0700N FG VV001 13/12 Q1019","temp":13,"dewp":12,"wdir":0,"wspd":0,"visib":0.25,"altim":1019,"clouds":[{"cover":"OVX","base":100}],"obsTime":1782334800},"SBLO":{"icaoId":"SBLO","flightCategory":"VFR","rawOb":"METAR SBLO 242100Z 19002KT CAVOK 12/09 Q1019","temp":12,"dewp":9,"wdir":190,"wspd":2,"visib":"6+","altim":1019,"clouds":[],"obsTime":1782334800},"SBMA":{"icaoId":"SBMA","flightCategory":"VFR","rawOb":"METAR SBMA 242100Z 15003KT 9999 FEW020 SCT080 32/21 Q1009","temp":32,"dewp":21,"wdir":150,"wspd":3,"visib":"6+","altim":1009,"clouds":[{"cover":"FEW","base":2000},{"cover":"SCT","base":8000}],"obsTime":1782334800},"SBME":{"icaoId":"SBME","flightCategory":"VFR","rawOb":"METAR SBME 242100Z 20012KT 9999 SCT015 BKN100 22/19 Q1017","temp":22,"dewp":19,"wdir":200,"wspd":12,"visib":"6+","altim":1017,"clouds":[{"cover":"SCT","base":1500},{"cover":"BKN","base":10000}],"obsTime":1782334800},"SBMG":{"icaoId":"SBMG","flightCategory":"VFR","rawOb":"METAR SBMG 242100Z 14003KT CAVOK 13/07 Q1019","temp":13,"dewp":7,"wdir":140,"wspd":3,"visib":"6+","altim":1019,"clouds":[],"obsTime":1782334800},"SBMK":{"icaoId":"SBMK","flightCategory":"VFR","rawOb":"METAR SBMK 242100Z 13005KT CAVOK 26/12 Q1017","temp":26,"dewp":12,"wdir":130,"wspd":5,"visib":"6+","altim":1017,"clouds":[],"obsTime":1782334800},"SBMO":{"icaoId":"SBMO","flightCategory":"VFR","rawOb":"METAR SBMO 242100Z 10006KT 9999 FEW020 25/23 Q1014","temp":25,"dewp":23,"wdir":100,"wspd":6,"visib":"6+","altim":1014,"clouds":[{"cover":"FEW","base":2000}],"obsTime":1782334800},"SBMQ":{"icaoId":"SBMQ","flightCategory":"VFR","rawOb":"METAR SBMQ 242100Z 16006KT 9999 FEW020 FEW026TCU 29/24 Q1010","temp":29,"dewp":24,"wdir":160,"wspd":6,"visib":"6+","altim":1010,"clouds":[{"cover":"FEW","base":2000},{"cover":"FEW","base":2600}],"obsTime":1782334800},"SBNT":{"icaoId":"SBNT","flightCategory":"VFR","rawOb":"METAR SBNT 242100Z 13009KT 9999 FEW025 26/22 Q1013","temp":26,"dewp":22,"wdir":130,"wspd":9,"visib":"6+","altim":1013,"clouds":[{"cover":"FEW","base":2500}],"obsTime":1782334800},"SBPA":{"icaoId":"SBPA","flightCategory":"VFR","rawOb":"METAR SBPA 242100Z 31004KT CAVOK 12/05 Q1019","temp":12,"dewp":5,"wdir":310,"wspd":4,"visib":"6+","altim":1019,"clouds":[],"obsTime":1782334800},"SBPJ":{"icaoId":"SBPJ","flightCategory":"VFR","rawOb":"METAR SBPJ 242100Z 20003KT CAVOK 31/19 Q1011","temp":31,"dewp":19,"wdir":200,"wspd":3,"visib":"6+","altim":1011,"clouds":[],"obsTime":1782334800},"SBPV":{"icaoId":"SBPV","flightCategory":"MVFR","rawOb":"METAR SBPV 242100Z 18007KT 9999 BKN011 25/22 Q1010","temp":25,"dewp":22,"wdir":180,"wspd":7,"visib":"6+","altim":1010,"clouds":[{"cover":"BKN","base":1100}],"obsTime":1782334800},"SBRF":{"icaoId":"SBRF","flightCategory":"VFR","rawOb":"METAR SBRF 242100Z 15013KT 9999 FEW025 26/23 Q1013","temp":26,"dewp":23,"wdir":150,"wspd":13,"visib":"6+","altim":1013,"clouds":[{"cover":"FEW","base":2500}],"obsTime":1782334800},"SBSG":{"icaoId":"SBSG","flightCategory":"VFR","rawOb":"METAR SBSG 242100Z 13004KT 110V170 9999 FEW025 25/22 Q1013","temp":25,"dewp":22,"wdir":130,"wspd":4,"visib":"6+","altim":1013,"clouds":[{"cover":"FEW","base":2500}],"obsTime":1782334800},"SBSL":{"icaoId":"SBSL","flightCategory":"VFR","rawOb":"METAR SBSL 242100Z 15006KT 9999 SCT023 SCT070 BKN090 26/25 Q1010","temp":26,"dewp":25,"wdir":150,"wspd":6,"visib":"6+","altim":1010,"clouds":[{"cover":"SCT","base":2300},{"cover":"SCT","base":7000},{"cover":"BKN","base":9000}],"obsTime":1782334800},"SBSN":{"icaoId":"SBSN","flightCategory":"VFR","rawOb":"METAR SBSN 242100Z 16002KT 9999 FEW017 FEW025TCU 31/24 Q1009","temp":31,"dewp":24,"wdir":160,"wspd":2,"visib":"6+","altim":1009,"clouds":[{"cover":"FEW","base":1700},{"cover":"FEW","base":2500}],"obsTime":1782334800},"SBSP":{"icaoId":"SBSP","flightCategory":"IFR","rawOb":"METAR SBSP 242100Z 15006KT 120V180 9000 BKN007 12/11 Q1021","temp":12,"dewp":11,"wdir":150,"wspd":6,"visib":5.59,"altim":1021,"clouds":[{"cover":"BKN","base":700}],"obsTime":1782334800},"SBSV":{"icaoId":"SBSV","flightCategory":"VFR","rawOb":"METAR SBSV 242100Z 09008KT 9999 SCT023 26/21 Q1015","temp":26,"dewp":21,"wdir":90,"wspd":8,"visib":"6+","altim":1015,"clouds":[{"cover":"SCT","base":2300}],"obsTime":1782334800},"SBTE":{"icaoId":"SBTE","flightCategory":"VFR","rawOb":"METAR SBTE 242100Z 28004KT CAVOK 33/21 Q1009","temp":33,"dewp":21,"wdir":280,"wspd":4,"visib":"6+","altim":1009,"clouds":[],"obsTime":1782334800},"SBUL":{"icaoId":"SBUL","flightCategory":"MVFR","rawOb":"METAR SBUL 242100Z 17005KT 7000 -RA FEW004 SCT020 BKN040 14/14 Q1021","temp":14,"dewp":14,"wdir":170,"wspd":5,"visib":4.35,"altim":1021,"clouds":[{"cover":"FEW","base":400},{"cover":"SCT","base":2000},{"cover":"BKN","base":4000}],"obsTime":1782334800},"SBUR":{"icaoId":"SBUR","flightCategory":"IFR","rawOb":"METAR SBUR 242100Z 12002KT 4000 BR BKN006 OVC070 15/14 Q1020","temp":15,"dewp":14,"wdir":120,"wspd":2,"visib":2.49,"altim":1020,"clouds":[{"cover":"BKN","base":600},{"cover":"OVC","base":7000}],"obsTime":1782334800},"SBVT":{"icaoId":"SBVT","flightCategory":"MVFR","rawOb":"METAR SBVT 242100Z 05003KT 9999 BKN030 24/20 Q1015","temp":24,"dewp":20,"wdir":50,"wspd":3,"visib":"6+","altim":1015,"clouds":[{"cover":"BKN","base":3000}],"obsTime":1782334800},"SBAT":{"icaoId":"SBAT","flightCategory":"VFR","rawOb":"METAR SBAT 242100Z 20002KT 9999 FEW030 30/21 Q1011","temp":30,"dewp":21,"wdir":200,"wspd":2,"visib":"6+","altim":1011,"clouds":[{"cover":"FEW","base":3000}],"obsTime":1782334800},"SBCB":{"icaoId":"SBCB","flightCategory":"MVFR","rawOb":"METAR SBCB 242100Z 24010KT 9999 FEW015 BKN030 OVC060 22/19 Q1017","temp":22,"dewp":19,"wdir":240,"wspd":10,"visib":"6+","altim":1017,"clouds":[{"cover":"FEW","base":1500},{"cover":"BKN","base":3000},{"cover":"OVC","base":6000}],"obsTime":1782334800},"SBCR":{"icaoId":"SBCR","flightCategory":"VFR","rawOb":"METAR SBCR 242100Z VRB02KT 9999 FEW020 BKN100 16/10 Q1018","temp":16,"dewp":10,"wdir":"VRB","wspd":2,"visib":"6+","altim":1018,"clouds":[{"cover":"FEW","base":2000},{"cover":"BKN","base":10000}],"obsTime":1782334800},"SBTF":{"icaoId":"SBTF","flightCategory":"VFR","rawOb":"METAR SBTF 242100Z 33007KT 9999 FEW018 FEW025TCU 30/25 Q1008","temp":30,"dewp":25,"wdir":330,"wspd":7,"visib":"6+","altim":1008,"clouds":[{"cover":"FEW","base":1800},{"cover":"FEW","base":2500}],"obsTime":1782334800},"SBCJ":{"icaoId":"SBCJ","flightCategory":"VFR","rawOb":"METAR SBCJ 242100Z 00000KT CAVOK 24/21 Q1015","temp":24,"dewp":21,"wdir":0,"wspd":0,"visib":"6+","altim":1015,"clouds":[],"obsTime":1782334800},"SBAX":{"icaoId":"SBAX","flightCategory":"VFR","rawOb":"METAR SBAX 242100Z AUTO VRB03KT 9999 -RA OVC049 15/15 Q1021","temp":15,"dewp":15,"wdir":"VRB","wspd":3,"visib":"6+","altim":1021,"clouds":[{"cover":"OVC","base":4900}],"obsTime":1782334800},"SBBH":{"icaoId":"SBBH","flightCategory":"VFR","rawOb":"METAR SBBH 242100Z 00000KT CAVOK 22/15 Q1018","temp":22,"dewp":15,"wdir":0,"wspd":0,"visib":"6+","altim":1018,"clouds":[],"obsTime":1782334800},"SBSR":{"icaoId":"SBSR","flightCategory":"IFR","rawOb":"METAR SBSR 242100Z 24005KT 9999 BKN007 OVC070 13/12 Q1020","temp":13,"dewp":12,"wdir":240,"wspd":5,"visib":"6+","altim":1020,"clouds":[{"cover":"BKN","base":700},{"cover":"OVC","base":7000}],"obsTime":1782334800},"SBAR":{"icaoId":"SBAR","flightCategory":"VFR","rawOb":"METAR SBAR 242100Z 13005KT 9999 FEW020 26/22 Q1014","temp":26,"dewp":22,"wdir":130,"wspd":5,"visib":"6+","altim":1014,"clouds":[{"cover":"FEW","base":2000}],"obsTime":1782334800},"SBBU":{"icaoId":"SBBU","flightCategory":"VFR","rawOb":"METAR SBBU 242100Z 00000KT 9999 SCT003 SCT005 BKN090 14/14 Q1020","temp":14,"dewp":14,"wdir":0,"wspd":0,"visib":"6+","altim":1020,"clouds":[{"cover":"SCT","base":300},{"cover":"SCT","base":500},{"cover":"BKN","base":9000}],"obsTime":1782334800},"SBCA":{"icaoId":"SBCA","flightCategory":"VFR","rawOb":"METAR SBCA 242100Z 15005KT CAVOK 09/M01 Q1021","temp":9,"dewp":-1,"wdir":150,"wspd":5,"visib":"6+","altim":1021,"clouds":[],"obsTime":1782334800},"SBCO":{"icaoId":"SBCO","flightCategory":"VFR","rawOb":"METAR SBCO 242100Z 32002KT CAVOK 08/05 Q1019","temp":8,"dewp":5,"wdir":320,"wspd":2,"visib":"6+","altim":1019,"clouds":[],"obsTime":1782334800},"SBDN":{"icaoId":"SBDN","flightCategory":"VFR","rawOb":"METAR SBDN 242100Z 00000KT CAVOK 11/09 Q1019","temp":11,"dewp":9,"wdir":0,"wspd":0,"visib":"6+","altim":1019,"clouds":[],"obsTime":1782334800},"SBIP":{"icaoId":"SBIP","flightCategory":"VFR","rawOb":"METAR SBIP 242100Z AUTO 00000KT CAVOK 19/17 Q1016","temp":19,"dewp":17,"wdir":0,"wspd":0,"visib":"6+","altim":1016,"clouds":[],"obsTime":1782334800},"SBKG":{"icaoId":"SBKG","flightCategory":"VFR","rawOb":"METAR SBKG 242100Z 14006KT CAVOK 23/18 Q1015","temp":23,"dewp":18,"wdir":140,"wspd":6,"visib":"6+","altim":1015,"clouds":[],"obsTime":1782334800},"SBOI":{"icaoId":"SBOI","flightCategory":"VFR","rawOb":"METAR SBOI 242100Z AUTO VRB01KT 9999 FEW041 29/24 Q1010","temp":29,"dewp":24,"wdir":"VRB","wspd":1,"visib":"6+","altim":1010,"clouds":[{"cover":"FEW","base":4100}],"obsTime":1782334800},"SBPL":{"icaoId":"SBPL","flightCategory":"VFR","rawOb":"METAR SBPL 242100Z 12004KT CAVOK 29/14 Q1013","temp":29,"dewp":14,"wdir":120,"wspd":4,"visib":"6+","altim":1013,"clouds":[],"obsTime":1782334800},"SBPS":{"icaoId":"SBPS","flightCategory":"VFR","rawOb":"METAR SBPS 242100Z 03006KT 360V060 9999 SCT015 BKN050 24/21 Q1016","temp":24,"dewp":21,"wdir":30,"wspd":6,"visib":"6+","altim":1016,"clouds":[{"cover":"SCT","base":1500},{"cover":"BKN","base":5000}],"obsTime":1782334800},"SBSC":{"icaoId":"SBSC","flightCategory":"MVFR","rawOb":"METAR SBSC 242100Z 06003KT 9999 SCT010 OVC015 19/18 Q1018","temp":19,"dewp":18,"wdir":60,"wspd":3,"visib":"6+","altim":1018,"clouds":[{"cover":"SCT","base":1000},{"cover":"OVC","base":1500}],"obsTime":1782334800},"SBSJ":{"icaoId":"SBSJ","flightCategory":"IFR","rawOb":"METAR SBSJ 242100Z 21004KT 4000 -DZ BR BKN007 OVC011 14/14 Q1020","temp":14,"dewp":14,"wdir":210,"wspd":4,"visib":2.49,"altim":1020,"clouds":[{"cover":"BKN","base":700},{"cover":"OVC","base":1100}],"obsTime":1782334800},"SBSM":{"icaoId":"SBSM","flightCategory":"VFR","rawOb":"METAR SBSM 242100Z 33004KT CAVOK 12/03 Q1019","temp":12,"dewp":3,"wdir":330,"wspd":4,"visib":"6+","altim":1019,"clouds":[],"obsTime":1782334800},"SBTT":{"icaoId":"SBTT","flightCategory":"VFR","rawOb":"METAR SBTT 242100Z 11005KT 9999 -RA SCT025 SCT060 24/23 Q1010","temp":24,"dewp":23,"wdir":110,"wspd":5,"visib":"6+","altim":1010,"clouds":[{"cover":"SCT","base":2500},{"cover":"SCT","base":6000}],"obsTime":1782334800},"SBTU":{"icaoId":"SBTU","flightCategory":"VFR","rawOb":"METAR SBTU 242100Z AUTO 16002KT 9999 // NCD ///// Q1011","temp":null,"dewp":null,"wdir":160,"wspd":2,"visib":"6+","altim":1011,"clouds":[],"obsTime":1782334800},"SBUY":{"icaoId":"SBUY","flightCategory":"VFR","rawOb":"METAR SBUY 242100Z 13002KT 9999 FEW030 SCT100 31/23 Q1008","temp":31,"dewp":23,"wdir":130,"wspd":2,"visib":"6+","altim":1008,"clouds":[{"cover":"FEW","base":3000},{"cover":"SCT","base":10000}],"obsTime":1782334800},"SBVH":{"icaoId":"SBVH","flightCategory":"MVFR","rawOb":"METAR SBVH 242100Z 20009KT 7000 SCT004 OVC030 15/14 Q1016","temp":15,"dewp":14,"wdir":200,"wspd":9,"visib":4.35,"altim":1016,"clouds":[{"cover":"SCT","base":400},{"cover":"OVC","base":3000}],"obsTime":1782334800},"SBPB":{"icaoId":"SBPB","flightCategory":"VFR","rawOb":"METAR SBPB 242100Z 05004KT 9999 FEW016 SCT100 26/23 Q1009","temp":26,"dewp":23,"wdir":50,"wspd":4,"visib":"6+","altim":1009,"clouds":[{"cover":"FEW","base":1600},{"cover":"SCT","base":10000}],"obsTime":1782334800},"SBPP":{"icaoId":"SBPP","flightCategory":"VFR","rawOb":"METAR SBPP 242100Z 15006KT CAVOK 13/02 Q1020","temp":13,"dewp":2,"wdir":150,"wspd":6,"visib":"6+","altim":1020,"clouds":[],"obsTime":1782334800},"SBES":{"icaoId":"SBES","flightCategory":"MVFR","rawOb":"METAR SBES 242100Z 20009KT 9999 -DZ SCT010 BKN030 OVC060 21/// Q1017","temp":null,"dewp":null,"wdir":200,"wspd":9,"visib":"6+","altim":1017,"clouds":[{"cover":"SCT","base":1000},{"cover":"BKN","base":3000},{"cover":"OVC","base":6000}],"obsTime":1782334800},"SBJP":{"icaoId":"SBJP","flightCategory":"MVFR","rawOb":"METAR SBJP 242100Z 10007KT 9999 BKN020 25/23 Q1014","temp":25,"dewp":23,"wdir":100,"wspd":7,"visib":"6+","altim":1014,"clouds":[{"cover":"BKN","base":2000}],"obsTime":1782334800},"SBGW":{"icaoId":"SBGW","flightCategory":"IFR","rawOb":"METAR SBGW 242100Z 20005KT 4000 HZ BKN010 OVC023 16/12 Q1019","temp":16,"dewp":12,"wdir":200,"wspd":5,"visib":2.49,"altim":1019,"clouds":[{"cover":"BKN","base":1000},{"cover":"OVC","base":2300}],"obsTime":1782334800},"SBJV":{"icaoId":"SBJV","flightCategory":"VFR","rawOb":"METAR SBJV 242100Z 00000KT CAVOK 10/09 Q1020","temp":10,"dewp":9,"wdir":0,"wspd":0,"visib":"6+","altim":1020,"clouds":[],"obsTime":1782334800},"SBJR":{"icaoId":"SBJR","flightCategory":"MVFR","rawOb":"METAR SBJR 242100Z 00000KT 5000 -RA BR SCT015 OVC040 20/19 Q1017","temp":20,"dewp":19,"wdir":0,"wspd":0,"visib":3.11,"altim":1017,"clouds":[{"cover":"SCT","base":1500},{"cover":"OVC","base":4000}],"obsTime":1782334800},"SBLS":{"icaoId":"SBLS","flightCategory":"VFR","rawOb":"METAR SBLS 242100Z 08003KT CAVOK 23/14 Q1018","temp":23,"dewp":14,"wdir":80,"wspd":3,"visib":"6+","altim":1018,"clouds":[],"obsTime":1782334800},"SBMT":{"icaoId":"SBMT","flightCategory":"MVFR","rawOb":"METAR SBMT 242100Z 15003KT 110V270 7000 FEW010 OVC013 12/12 Q1020","temp":12,"dewp":12,"wdir":150,"wspd":3,"visib":4.35,"altim":1020,"clouds":[{"cover":"FEW","base":1000},{"cover":"OVC","base":1300}],"obsTime":1782334800},"SBTA":{"icaoId":"SBTA","flightCategory":"MVFR","rawOb":"METAR SBTA 242100Z 24003KT 6000 FEW010 BKN014 OVC100 15/15 Q1019","temp":15,"dewp":15,"wdir":240,"wspd":3,"visib":3.73,"altim":1019,"clouds":[{"cover":"FEW","base":1000},{"cover":"BKN","base":1400},{"cover":"OVC","base":10000}],"obsTime":1782334800},"SBPF":{"icaoId":"SBPF","flightCategory":"VFR","rawOb":"METAR SBPF 242100Z 00000KT CAVOK 08/01 Q1020","temp":8,"dewp":1,"wdir":0,"wspd":0,"visib":"6+","altim":1020,"clouds":[],"obsTime":1782334800},"SBAN":{"icaoId":"SBAN","flightCategory":"VFR","rawOb":"METAR SBAN 242100Z 19012KT 9999 SCT040 FEW045TCU SCT070 22/18 Q1020","temp":22,"dewp":18,"wdir":190,"wspd":12,"visib":"6+","altim":1020,"clouds":[{"cover":"SCT","base":4000},{"cover":"FEW","base":4500},{"cover":"SCT","base":7000}],"obsTime":1782334800},"SBAF":{"icaoId":"SBAF","flightCategory":"MVFR","rawOb":"METAR SBAF 242100Z 00000KT 6000 -RA FEW007 SCT011 OVC050 19/19 Q1018","temp":19,"dewp":19,"wdir":0,"wspd":0,"visib":3.73,"altim":1018,"clouds":[{"cover":"FEW","base":700},{"cover":"SCT","base":1100},{"cover":"OVC","base":5000}],"obsTime":1782334800},"SBLE":{"icaoId":"SBLE","flightCategory":"VFR","rawOb":"METAR SBLE 242100Z AUTO 00000KT CAVOK 22/18 Q1016","temp":22,"dewp":18,"wdir":0,"wspd":0,"visib":"6+","altim":1016,"clouds":[],"obsTime":1782334800},"SBST":{"icaoId":"SBST","flightCategory":"MVFR","rawOb":"METAR SBST 242100Z 33005KT 5000 BR BKN022 15/12 Q1020","temp":15,"dewp":12,"wdir":330,"wspd":5,"visib":3.11,"altim":1020,"clouds":[{"cover":"BKN","base":2200}],"obsTime":1782334800},"SBIH":{"icaoId":"SBIH","flightCategory":"VFR","rawOb":"METAR SBIH 242100Z 35004KT 9999 FEW020 FEW025TCU 33/25 Q1008","temp":33,"dewp":25,"wdir":350,"wspd":4,"visib":"6+","altim":1008,"clouds":[{"cover":"FEW","base":2000},{"cover":"FEW","base":2500}],"obsTime":1782334800}}}