{"updated":1774659721,"count":62,"data":{"SBFL":{"icaoId":"SBFL","flightCategory":"VFR","rawOb":"METAR SBFL 280000Z 36007KT 9999 SCT043 27/24 Q1018","temp":27,"dewp":24,"wdir":360,"wspd":7,"visib":"6+","altim":1018,"clouds":[{"cover":"SCT","base":4300}],"obsTime":1774656000},"SBBE":{"icaoId":"SBBE","flightCategory":"VFR","rawOb":"METAR SBBE 280000Z 07008KT 9999 FEW045 27/24 Q1009","temp":27,"dewp":24,"wdir":70,"wspd":8,"visib":"6+","altim":1009,"clouds":[{"cover":"FEW","base":4500}],"obsTime":1774656000},"SBBR":{"icaoId":"SBBR","flightCategory":"VFR","rawOb":"METAR SBBR 280000Z 12007KT CAVOK 22/18 Q1019","temp":22,"dewp":18,"wdir":120,"wspd":7,"visib":"6+","altim":1019,"clouds":[],"obsTime":1774656000},"SBBV":{"icaoId":"SBBV","flightCategory":"VFR","rawOb":"METAR SBBV 280000Z 28008KT 9999 SCT040 FEW045TCU BKN070 30/23 Q1008","temp":30,"dewp":23,"wdir":280,"wspd":8,"visib":"6+","altim":1008,"clouds":[{"cover":"SCT","base":4000},{"cover":"FEW","base":4500},{"cover":"BKN","base":7000}],"obsTime":1774656000},"SBCF":{"icaoId":"SBCF","flightCategory":"VFR","rawOb":"METAR SBCF 280000Z 13008KT CAVOK 23/15 Q1021","temp":23,"dewp":15,"wdir":130,"wspd":8,"visib":"6+","altim":1021,"clouds":[],"obsTime":1774656000},"SBCG":{"icaoId":"SBCG","flightCategory":"VFR","rawOb":"METAR SBCG 280000Z 06004KT 9999 VCTS FEW045 FEW050CB SCT080 24/21 Q1016","temp":24,"dewp":21,"wdir":60,"wspd":4,"visib":"6+","altim":1016,"clouds":[{"cover":"FEW","base":4500},{"cover":"FEW","base":5000},{"cover":"SCT","base":8000}],"obsTime":1774656000},"SBCT":{"icaoId":"SBCT","flightCategory":"VFR","rawOb":"METAR SBCT 280000Z 09004KT CAVOK 20/19 Q1023","temp":20,"dewp":19,"wdir":90,"wspd":4,"visib":"6+","altim":1023,"clouds":[],"obsTime":1774656000},"SBEG":{"icaoId":"SBEG","flightCategory":"VFR","rawOb":"METAR SBEG 280000Z 11003KT 9999 VCTS FEW030 FEW035CB 29/25 Q1008","temp":29,"dewp":25,"wdir":110,"wspd":3,"visib":"6+","altim":1008,"clouds":[{"cover":"FEW","base":3000},{"cover":"FEW","base":3500}],"obsTime":1774656000},"SBFI":{"icaoId":"SBFI","flightCategory":"VFR","rawOb":"METAR SBFI 280000Z 12005KT CAVOK 27/24 Q1014","temp":27,"dewp":24,"wdir":120,"wspd":5,"visib":"6+","altim":1014,"clouds":[],"obsTime":1774656000},"SBFZ":{"icaoId":"SBFZ","flightCategory":"VFR","rawOb":"METAR SBFZ 280000Z 08006KT 9999 SCT019 28/24 Q1010","temp":28,"dewp":24,"wdir":80,"wspd":6,"visib":"6+","altim":1010,"clouds":[{"cover":"SCT","base":1900}],"obsTime":1774656000},"SBGL":{"icaoId":"SBGL","flightCategory":"VFR","rawOb":"METAR SBGL 280000Z 10008KT 9999 FEW030 26/21 Q1018","temp":26,"dewp":21,"wdir":100,"wspd":8,"visib":"6+","altim":1018,"clouds":[{"cover":"FEW","base":3000}],"obsTime":1774656000},"SBGO":{"icaoId":"SBGO","flightCategory":"VFR","rawOb":"METAR SBGO 280000Z 11007KT 9999 FEW045 25/19 Q1017","temp":25,"dewp":19,"wdir":110,"wspd":7,"visib":"6+","altim":1017,"clouds":[{"cover":"FEW","base":4500}],"obsTime":1774656000},"SBGR":{"icaoId":"SBGR","flightCategory":"VFR","rawOb":"METAR SBGR 280000Z 14004KT 9999 FEW019 22/19 Q1022","temp":22,"dewp":19,"wdir":140,"wspd":4,"visib":"6+","altim":1022,"clouds":[{"cover":"FEW","base":1900}],"obsTime":1774656000},"SBKP":{"icaoId":"SBKP","flightCategory":"VFR","rawOb":"METAR SBKP 280000Z 13013KT CAVOK 24/19 Q1019","temp":24,"dewp":19,"wdir":130,"wspd":13,"visib":"6+","altim":1019,"clouds":[],"obsTime":1774656000},"SBLO":{"icaoId":"SBLO","flightCategory":"VFR","rawOb":"METAR SBLO 280000Z 16003KT 130V190 CAVOK 28/20 Q1017","temp":28,"dewp":20,"wdir":160,"wspd":3,"visib":"6+","altim":1017,"clouds":[],"obsTime":1774656000},"SBMA":{"icaoId":"SBMA","flightCategory":"VFR","rawOb":"METAR SBMA 280000Z 09003KT 9999 FEW012 SCT100 28/25 Q1009","temp":28,"dewp":25,"wdir":90,"wspd":3,"visib":"6+","altim":1009,"clouds":[{"cover":"FEW","base":1200},{"cover":"SCT","base":10000}],"obsTime":1774656000},"SBMO":{"icaoId":"SBMO","flightCategory":"IFR","rawOb":"METAR SBMO 280000Z 07006KT 030V130 3000 RA BKN007 BKN080 25/24 Q1013","temp":25,"dewp":24,"wdir":70,"wspd":6,"visib":1.86,"altim":1013,"clouds":[{"cover":"BKN","base":700},{"cover":"BKN","base":8000}],"obsTime":1774656000},"SBMQ":{"icaoId":"SBMQ","flightCategory":"VFR","rawOb":"METAR SBMQ 280000Z 03009KT 9999 SCT019 29/25 Q1009","temp":29,"dewp":25,"wdir":30,"wspd":9,"visib":"6+","altim":1009,"clouds":[{"cover":"SCT","base":1900}],"obsTime":1774656000},"SBPA":{"icaoId":"SBPA","flightCategory":"VFR","rawOb":"METAR SBPA 280000Z 10006KT 070V130 CAVOK 27/24 Q1015","temp":27,"dewp":24,"wdir":100,"wspd":6,"visib":"6+","altim":1015,"clouds":[],"obsTime":1774656000},"SBPJ":{"icaoId":"SBPJ","flightCategory":"VFR","rawOb":"METAR SBPJ 280000Z 12004KT 9999 SCT016 27/24 Q1011","temp":27,"dewp":24,"wdir":120,"wspd":4,"visib":"6+","altim":1011,"clouds":[{"cover":"SCT","base":1600}],"obsTime":1774656000},"SBPV":{"icaoId":"SBPV","flightCategory":"VFR","rawOb":"METAR SBPV 280000Z 11002KT CAVOK 26/23 Q1009","temp":26,"dewp":23,"wdir":110,"wspd":2,"visib":"6+","altim":1009,"clouds":[],"obsTime":1774656000},"SBRB":{"icaoId":"SBRB","flightCategory":"VFR","rawOb":"SPECI SBRB 272335Z 15002KT 9999 VCTS SCT034 FEW036CB BKN100 26/25 Q1007","temp":26,"dewp":25,"wdir":150,"wspd":2,"visib":"6+","altim":1007,"clouds":[{"cover":"SCT","base":3400},{"cover":"FEW","base":3600},{"cover":"BKN","base":10000}],"obsTime":1774654500},"SBRF":{"icaoId":"SBRF","flightCategory":"MVFR","rawOb":"SPECI SBRF 272340Z 17009KT 6000 2000S SHRA BKN018 FEW023TCU SCT050 26/24 Q1012","temp":26,"dewp":24,"wdir":170,"wspd":9,"visib":3.73,"altim":1012,"clouds":[{"cover":"BKN","base":1800},{"cover":"FEW","base":2300},{"cover":"SCT","base":5000}],"obsTime":1774654800},"SBSG":{"icaoId":"SBSG","flightCategory":"VFR","rawOb":"METAR SBSG 280000Z 11005KT 080V150 9999 SCT027 27/23 Q1012","temp":27,"dewp":23,"wdir":110,"wspd":5,"visib":"6+","altim":1012,"clouds":[{"cover":"SCT","base":2700}],"obsTime":1774656000},"SBSL":{"icaoId":"SBSL","flightCategory":"VFR","rawOb":"METAR SBSL 280000Z 10009KT 9999 VCTS FEW020 FEW025CB SCT100 26/25 Q1010","temp":26,"dewp":25,"wdir":100,"wspd":9,"visib":"6+","altim":1010,"clouds":[{"cover":"FEW","base":2000},{"cover":"FEW","base":2500},{"cover":"SCT","base":10000}],"obsTime":1774656000},"SBSN":{"icaoId":"SBSN","flightCategory":"VFR","rawOb":"METAR SBSN 280000Z 17004KT CAVOK 26/25 Q1008","temp":26,"dewp":25,"wdir":170,"wspd":4,"visib":"6+","altim":1008,"clouds":[],"obsTime":1774656000},"SBSP":{"icaoId":"SBSP","flightCategory":"VFR","rawOb":"METAR SBSP 280000Z 15008KT CAVOK 21/19 Q1023","temp":21,"dewp":19,"wdir":150,"wspd":8,"visib":"6+","altim":1023,"clouds":[],"obsTime":1774656000},"SBSV":{"icaoId":"SBSV","flightCategory":"VFR","rawOb":"METAR SBSV 280000Z COR 13005KT 9999 SCT022 27/24 Q1014","temp":27,"dewp":24,"wdir":130,"wspd":5,"visib":"6+","altim":1014,"clouds":[{"cover":"SCT","base":2200}],"obsTime":1774656000},"SBTE":{"icaoId":"SBTE","flightCategory":"VFR","rawOb":"METAR SBTE 280000Z 33002KT 9999 BKN040 26/23 Q1010","temp":26,"dewp":23,"wdir":330,"wspd":2,"visib":"6+","altim":1010,"clouds":[{"cover":"BKN","base":4000}],"obsTime":1774656000},"SBVT":{"icaoId":"SBVT","flightCategory":"VFR","rawOb":"METAR SBVT 280000Z 22005KT 9999 VCTS SCT015 SCT020 FEW030CB BKN040 24/23 Q1018","temp":24,"dewp":23,"wdir":220,"wspd":5,"visib":"6+","altim":1018,"clouds":[{"cover":"SCT","base":1500},{"cover":"SCT","base":2000},{"cover":"FEW","base":3000},{"cover":"BKN","base":4000}],"obsTime":1774656000},"SBUR":{"icaoId":"SBUR","flightCategory":"VFR","rawOb":"METAR SBUR 280000Z 08005KT CAVOK 26/19 Q1019","temp":26,"dewp":19,"wdir":80,"wspd":5,"visib":"6+","altim":1019,"clouds":[],"obsTime":1774656000},"SBME":{"icaoId":"SBME","flightCategory":"VFR","rawOb":"METAR SBME 280000Z 24001KT 9999 SCT030 25/22 Q1019","temp":25,"dewp":22,"wdir":240,"wspd":1,"visib":"6+","altim":1019,"clouds":[{"cover":"SCT","base":3000}],"obsTime":1774656000},"SBMG":{"icaoId":"SBMG","flightCategory":"VFR","rawOb":"METAR SBMG 280000Z 16003KT CAVOK 25/22 Q1016","temp":25,"dewp":22,"wdir":160,"wspd":3,"visib":"6+","altim":1016,"clouds":[],"obsTime":1774656000},"SBMK":{"icaoId":"SBMK","flightCategory":"VFR","rawOb":"METAR SBMK 280000Z 13006KT CAVOK 23/18 Q1018","temp":23,"dewp":18,"wdir":130,"wspd":6,"visib":"6+","altim":1018,"clouds":[],"obsTime":1774656000},"SBNT":{"icaoId":"SBNT","flightCategory":"VFR","rawOb":"METAR SBNT 280000Z 11009KT 9999 FEW020 28/23 Q1011","temp":28,"dewp":23,"wdir":110,"wspd":9,"visib":"6+","altim":1011,"clouds":[{"cover":"FEW","base":2000}],"obsTime":1774656000},"SBUL":{"icaoId":"SBUL","flightCategory":"VFR","rawOb":"METAR SBUL 280000Z 13004KT 9999 FEW035 SCT080 23/19 Q1020","temp":23,"dewp":19,"wdir":130,"wspd":4,"visib":"6+","altim":1020,"clouds":[{"cover":"FEW","base":3500},{"cover":"SCT","base":8000}],"obsTime":1774656000},"SBCZ":{"icaoId":"SBCZ","flightCategory":"VFR","rawOb":"METAR SBCZ 280000Z 01003KT 340V040 9999 FEW030 27/25 Q1007","temp":27,"dewp":25,"wdir":10,"wspd":3,"visib":"6+","altim":1007,"clouds":[{"cover":"FEW","base":3000}],"obsTime":1774656000},"SBIL":{"icaoId":"SBIL","flightCategory":"VFR","rawOb":"METAR SBIL 280000Z 26006KT 9999 SCT018 BKN050 26/25 Q1015","temp":26,"dewp":25,"wdir":260,"wspd":6,"visib":"6+","altim":1015,"clouds":[{"cover":"SCT","base":1800},{"cover":"BKN","base":5000}],"obsTime":1774656000},"SBJU":{"icaoId":"SBJU","flightCategory":"VFR","rawOb":"METAR SBJU 280000Z 16007KT 9999 SCT020 24/22 Q1014","temp":24,"dewp":22,"wdir":160,"wspd":7,"visib":"6+","altim":1014,"clouds":[{"cover":"SCT","base":2000}],"obsTime":1774656000},"SBPL":{"icaoId":"SBPL","flightCategory":"VFR","rawOb":"METAR SBPL 280000Z 07008KT 9999 FEW025 SCT070 25/22 Q1014","temp":25,"dewp":22,"wdir":70,"wspd":8,"visib":"6+","altim":1014,"clouds":[{"cover":"FEW","base":2500},{"cover":"SCT","base":7000}],"obsTime":1774656000},"SBSJ":{"icaoId":"SBSJ","flightCategory":"VFR","rawOb":"METAR SBSJ 280000Z 10010KT CAVOK 23/18 Q1021","temp":23,"dewp":18,"wdir":100,"wspd":10,"visib":"6+","altim":1021,"clouds":[],"obsTime":1774656000},"SBAR":{"icaoId":"SBAR","flightCategory":"VFR","rawOb":"METAR SBAR 280000Z 14007KT 9999 FEW022 29/24 Q1013","temp":29,"dewp":24,"wdir":140,"wspd":7,"visib":"6+","altim":1013,"clouds":[{"cover":"FEW","base":2200}],"obsTime":1774656000},"SBPS":{"icaoId":"SBPS","flightCategory":"MVFR","rawOb":"METAR SBPS 280000Z 25006KT 210V270 5000 -TSRA FEW006 BKN015 FEW025CB OVC070 24/23 Q1016","temp":24,"dewp":23,"wdir":250,"wspd":6,"visib":3.11,"altim":1016,"clouds":[{"cover":"FEW","base":600},{"cover":"BKN","base":1500},{"cover":"FEW","base":2500},{"cover":"OVC","base":7000}],"obsTime":1774656000},"SBAX":{"icaoId":"SBAX","flightCategory":"VFR","rawOb":"METAR SBAX 280000Z 12007KT CAVOK 21/17 Q1021","temp":21,"dewp":17,"wdir":120,"wspd":7,"visib":"6+","altim":1021,"clouds":[],"obsTime":1774656000},"SBDN":{"icaoId":"SBDN","flightCategory":"VFR","rawOb":"METAR SBDN 280000Z 08002KT CAVOK 27/18 Q1016","temp":27,"dewp":18,"wdir":80,"wspd":2,"visib":"6+","altim":1016,"clouds":[],"obsTime":1774656000},"SBIP":{"icaoId":"SBIP","flightCategory":"VFR","rawOb":"METAR SBIP 280000Z AUTO VRB01KT CAVOK 23/23 Q1018","temp":23,"dewp":23,"wdir":"VRB","wspd":1,"visib":"6+","altim":1018,"clouds":[],"obsTime":1774656000},"SBKG":{"icaoId":"SBKG","flightCategory":"MVFR","rawOb":"METAR SBKG 280000Z 12002KT 9999 BKN017 22/22 Q1015 RETSRA","temp":22,"dewp":22,"wdir":120,"wspd":2,"visib":"6+","altim":1015,"clouds":[{"cover":"BKN","base":1700}],"obsTime":1774656000},"SBOI":{"icaoId":"SBOI","flightCategory":"VFR","rawOb":"METAR SBOI 280000Z AUTO 00000KT 9999 // FEW019/// SCT096/// 24/24 Q1011","temp":24,"dewp":24,"wdir":0,"wspd":0,"visib":"6+","altim":1011,"clouds":[{"cover":"FEW","base":1900},{"cover":"SCT","base":9600}],"obsTime":1774656000},"SBSC":{"icaoId":"SBSC","flightCategory":"VFR","rawOb":"METAR SBSC 280000Z 35001KT CAVOK 24/22 Q1018","temp":24,"dewp":22,"wdir":350,"wspd":1,"visib":"6+","altim":1018,"clouds":[],"obsTime":1774656000},"SBSM":{"icaoId":"SBSM","flightCategory":"VFR","rawOb":"METAR SBSM 280000Z VRB02KT 9999 FEW040 SCT080 25/25 Q1015","temp":25,"dewp":25,"wdir":"VRB","wspd":2,"visib":"6+","altim":1015,"clouds":[{"cover":"FEW","base":4000},{"cover":"SCT","base":8000}],"obsTime":1774656000},"SBSR":{"icaoId":"SBSR","flightCategory":"VFR","rawOb":"METAR SBSR 280000Z 12003KT CAVOK 28/17 Q1017","temp":28,"dewp":17,"wdir":120,"wspd":3,"visib":"6+","altim":1017,"clouds":[],"obsTime":1774656000},"SBBH":{"icaoId":"SBBH","flightCategory":"VFR","rawOb":"METAR SBBH 280000Z 10006KT CAVOK 23/15 Q1021","temp":23,"dewp":15,"wdir":100,"wspd":6,"visib":"6+","altim":1021,"clouds":[],"obsTime":1774656000},"SBBU":{"icaoId":"SBBU","flightCategory":"VFR","rawOb":"METAR SBBU 280000Z 10007KT CAVOK 27/19 Q1018","temp":27,"dewp":19,"wdir":100,"wspd":7,"visib":"6+","altim":1018,"clouds":[],"obsTime":1774656000},"SBCO":{"icaoId":"SBCO","flightCategory":"VFR","rawOb":"METAR SBCO 280000Z 10006KT CAVOK 26/24 Q1016","temp":26,"dewp":24,"wdir":100,"wspd":6,"visib":"6+","altim":1016,"clouds":[],"obsTime":1774656000},"SBJP":{"icaoId":"SBJP","flightCategory":"VFR","rawOb":"METAR SBJP 280000Z 13005KT 9999 FEW020 26/24 Q1012","temp":26,"dewp":24,"wdir":130,"wspd":5,"visib":"6+","altim":1012,"clouds":[{"cover":"FEW","base":2000}],"obsTime":1774656000},"SBJV":{"icaoId":"SBJV","flightCategory":"MVFR","rawOb":"METAR SBJV 280000Z 36003KT 320V060 9999 SCT013 BKN030 26/25 Q1018","temp":26,"dewp":25,"wdir":360,"wspd":3,"visib":"6+","altim":1018,"clouds":[{"cover":"SCT","base":1300},{"cover":"BKN","base":3000}],"obsTime":1774656000},"SBLE":{"icaoId":"SBLE","flightCategory":"VFR","rawOb":"METAR SBLE 280000Z AUTO 17005KT 140V210 9999 FEW033 SCT040 24/24 Q1017","temp":24,"dewp":24,"wdir":170,"wspd":5,"visib":"6+","altim":1017,"clouds":[{"cover":"FEW","base":3300},{"cover":"SCT","base":4000}],"obsTime":1774656000},"SBJR":{"icaoId":"SBJR","flightCategory":"VFR","rawOb":"METAR SBJR 280000Z 21002KT 9999 FEW040 25/22 Q1018","temp":25,"dewp":22,"wdir":210,"wspd":2,"visib":"6+","altim":1018,"clouds":[{"cover":"FEW","base":4000}],"obsTime":1774656000},"SBAN":{"icaoId":"SBAN","flightCategory":"VFR","rawOb":"METAR SBAN 280000Z 14007KT CAVOK 21/16 Q1020","temp":21,"dewp":16,"wdir":140,"wspd":7,"visib":"6+","altim":1020,"clouds":[],"obsTime":1774656000},"SBMT":{"icaoId":"SBMT","flightCategory":"VFR","rawOb":"METAR SBMT 280000Z 13006KT 090V150 CAVOK 21/19 Q1022","temp":21,"dewp":19,"wdir":130,"wspd":6,"visib":"6+","altim":1022,"clouds":[],"obsTime":1774656000},"SBTA":{"icaoId":"SBTA","flightCategory":"VFR","rawOb":"METAR SBTA 280000Z 16006KT 9999 FEW030 SCT050 23/17 Q1020","temp":23,"dewp":17,"wdir":160,"wspd":6,"visib":"6+","altim":1020,"clouds":[{"cover":"FEW","base":3000},{"cover":"SCT","base":5000}],"obsTime":1774656000},"SBLS":{"icaoId":"SBLS","flightCategory":"VFR","rawOb":"METAR SBLS 280000Z 14005KT CAVOK 21/16 Q1021","temp":21,"dewp":16,"wdir":140,"wspd":5,"visib":"6+","altim":1021,"clouds":[],"obsTime":1774656000}}}