{"updated":1775942503,"count":82,"data":{"SBCZ":{"icaoId":"SBCZ","flightCategory":"LIFR","rawOb":"METAR SBCZ 112000Z 35008KT 320V060 1500 +TSRA SCT015 BKN030 FEW035CB 26/25 Q1009 RERA","temp":26,"dewp":25,"wdir":350,"wspd":8,"visib":0.93,"altim":1009,"clouds":[{"cover":"SCT","base":1500},{"cover":"BKN","base":3000},{"cover":"FEW","base":3500}],"obsTime":1775937600},"SBAT":{"icaoId":"SBAT","flightCategory":"VFR","rawOb":"METAR SBAT 112000Z 13004KT 9999 VCSH FEW035TCU 32/24 Q1009","temp":32,"dewp":24,"wdir":130,"wspd":4,"visib":"6+","altim":1009,"clouds":[{"cover":"FEW","base":3500}],"obsTime":1775937600},"SBBE":{"icaoId":"SBBE","flightCategory":"MVFR","rawOb":"SPECI SBBE 111940Z 06005KT 5000 -RA SCT007 BKN020 24/24 Q1011 RERA","temp":24,"dewp":24,"wdir":60,"wspd":5,"visib":3.11,"altim":1011,"clouds":[{"cover":"SCT","base":700},{"cover":"BKN","base":2000}],"obsTime":1775936400},"SBBR":{"icaoId":"SBBR","flightCategory":"VFR","rawOb":"METAR SBBR 112000Z 20006KT 170V230 9999 SCT040 FEW045TCU 25/20 Q1017","temp":25,"dewp":20,"wdir":200,"wspd":6,"visib":"6+","altim":1017,"clouds":[{"cover":"SCT","base":4000},{"cover":"FEW","base":4500}],"obsTime":1775937600},"SBBV":{"icaoId":"SBBV","flightCategory":"VFR","rawOb":"METAR SBBV 112000Z 09009KT 9999 SCT040 FEW045TCU 34/19 Q1008","temp":34,"dewp":19,"wdir":90,"wspd":9,"visib":"6+","altim":1008,"clouds":[{"cover":"SCT","base":4000},{"cover":"FEW","base":4500}],"obsTime":1775937600},"SBCB":{"icaoId":"SBCB","flightCategory":"VFR","rawOb":"METAR SBCB 112000Z 25007KT 9999 SCT025 BKN080 24/21 Q1020","temp":24,"dewp":21,"wdir":250,"wspd":7,"visib":"6+","altim":1020,"clouds":[{"cover":"SCT","base":2500},{"cover":"BKN","base":8000}],"obsTime":1775937600},"SBCF":{"icaoId":"SBCF","flightCategory":"VFR","rawOb":"METAR SBCF 112000Z 12010KT 9999 SCT030 24/18 Q1020","temp":24,"dewp":18,"wdir":120,"wspd":10,"visib":"6+","altim":1020,"clouds":[{"cover":"SCT","base":3000}],"obsTime":1775937600},"SBCG":{"icaoId":"SBCG","flightCategory":"VFR","rawOb":"METAR SBCG 112000Z 07007KT 9999 SCT040 FEW045TCU 30/21 Q1014","temp":30,"dewp":21,"wdir":70,"wspd":7,"visib":"6+","altim":1014,"clouds":[{"cover":"SCT","base":4000},{"cover":"FEW","base":4500}],"obsTime":1775937600},"SBCP":{"icaoId":"SBCP","flightCategory":"VFR","rawOb":"METAR SBCP 112000Z 21010KT 9999 FEW020 BKN090 25/20 Q1019","temp":25,"dewp":20,"wdir":210,"wspd":10,"visib":"6+","altim":1019,"clouds":[{"cover":"FEW","base":2000},{"cover":"BKN","base":9000}],"obsTime":1775937600},"SBCR":{"icaoId":"SBCR","flightCategory":"VFR","rawOb":"METAR SBCR 112000Z 06007KT 010V110 9999 SCT035 33/23 Q1009","temp":33,"dewp":23,"wdir":60,"wspd":7,"visib":"6+","altim":1009,"clouds":[{"cover":"SCT","base":3500}],"obsTime":1775937600},"SBCT":{"icaoId":"SBCT","flightCategory":"VFR","rawOb":"METAR SBCT 112000Z 10009KT 9999 FEW040 19/15 Q1023","temp":19,"dewp":15,"wdir":100,"wspd":9,"visib":"6+","altim":1023,"clouds":[{"cover":"FEW","base":4000}],"obsTime":1775937600},"SBEG":{"icaoId":"SBEG","flightCategory":"MVFR","rawOb":"SPECI SBEG 111926Z 36015G25KT 5000 2000W TSRA FEW007 BKN015 FEW025CB BKN080 24/24 Q1009 RERA","temp":24,"dewp":24,"wdir":360,"wspd":15,"visib":3.11,"altim":1009,"clouds":[{"cover":"FEW","base":700},{"cover":"BKN","base":1500},{"cover":"FEW","base":2500},{"cover":"BKN","base":8000}],"obsTime":1775935560},"SBFI":{"icaoId":"SBFI","flightCategory":"VFR","rawOb":"METAR SBFI 112000Z 04007KT 9999 FEW030 BKN090 28/20 Q1014","temp":28,"dewp":20,"wdir":40,"wspd":7,"visib":"6+","altim":1014,"clouds":[{"cover":"FEW","base":3000},{"cover":"BKN","base":9000}],"obsTime":1775937600},"SBFL":{"icaoId":"SBFL","flightCategory":"VFR","rawOb":"METAR SBFL 112000Z 10003KT 9999 SCT045 BKN066 24/19 Q1020","temp":24,"dewp":19,"wdir":100,"wspd":3,"visib":"6+","altim":1020,"clouds":[{"cover":"SCT","base":4500},{"cover":"BKN","base":6600}],"obsTime":1775937600},"SBFZ":{"icaoId":"SBFZ","flightCategory":"VFR","rawOb":"METAR SBFZ 112000Z VRB01KT 9999 FEW012 SCT100 27/24 Q1010","temp":27,"dewp":24,"wdir":"VRB","wspd":1,"visib":"6+","altim":1010,"clouds":[{"cover":"FEW","base":1200},{"cover":"SCT","base":10000}],"obsTime":1775937600},"SBGL":{"icaoId":"SBGL","flightCategory":"VFR","rawOb":"METAR SBGL 112000Z 13007KT 9999 FEW030 SCT050 BKN080 24/19 Q1020","temp":24,"dewp":19,"wdir":130,"wspd":7,"visib":"6+","altim":1020,"clouds":[{"cover":"FEW","base":3000},{"cover":"SCT","base":5000},{"cover":"BKN","base":8000}],"obsTime":1775937600},"SBGO":{"icaoId":"SBGO","flightCategory":"VFR","rawOb":"METAR SBGO 112000Z 09008KT 050V120 9999 FEW040 FEW050TCU 30/20 Q1015","temp":30,"dewp":20,"wdir":90,"wspd":8,"visib":"6+","altim":1015,"clouds":[{"cover":"FEW","base":4000},{"cover":"FEW","base":5000}],"obsTime":1775937600},"SBGR":{"icaoId":"SBGR","flightCategory":"VFR","rawOb":"METAR SBGR 112000Z 12009KT 9999 SCT040 22/15 Q1021","temp":22,"dewp":15,"wdir":120,"wspd":9,"visib":"6+","altim":1021,"clouds":[{"cover":"SCT","base":4000}],"obsTime":1775937600},"SBHT":{"icaoId":"SBHT","flightCategory":"VFR","rawOb":"METAR SBHT 112000Z 10005KT 9999 SCT030 31/24 Q1008","temp":31,"dewp":24,"wdir":100,"wspd":5,"visib":"6+","altim":1008,"clouds":[{"cover":"SCT","base":3000}],"obsTime":1775937600},"SBIL":{"icaoId":"SBIL","flightCategory":"VFR","rawOb":"METAR SBIL 112000Z 16006KT 130V190 9999 FEW020 SCT080 29/24 Q1014","temp":29,"dewp":24,"wdir":160,"wspd":6,"visib":"6+","altim":1014,"clouds":[{"cover":"FEW","base":2000},{"cover":"SCT","base":8000}],"obsTime":1775937600},"SBJU":{"icaoId":"SBJU","flightCategory":"VFR","rawOb":"METAR SBJU 112000Z 15005KT 9999 FEW022 29/21 Q1012","temp":29,"dewp":21,"wdir":150,"wspd":5,"visib":"6+","altim":1012,"clouds":[{"cover":"FEW","base":2200}],"obsTime":1775937600},"SBKP":{"icaoId":"SBKP","flightCategory":"VFR","rawOb":"METAR SBKP 112000Z 13012KT 9999 FEW045 27/16 Q1019","temp":27,"dewp":16,"wdir":130,"wspd":12,"visib":"6+","altim":1019,"clouds":[{"cover":"FEW","base":4500}],"obsTime":1775937600},"SBLO":{"icaoId":"SBLO","flightCategory":"VFR","rawOb":"METAR SBLO 112000Z 10009KT CAVOK 27/16 Q1017","temp":27,"dewp":16,"wdir":100,"wspd":9,"visib":"6+","altim":1017,"clouds":[],"obsTime":1775937600},"SBMA":{"icaoId":"SBMA","flightCategory":"VFR","rawOb":"METAR SBMA 112000Z 08003KT 9999 SCT020 SCT100 30/25 Q1009","temp":30,"dewp":25,"wdir":80,"wspd":3,"visib":"6+","altim":1009,"clouds":[{"cover":"SCT","base":2000},{"cover":"SCT","base":10000}],"obsTime":1775937600},"SBME":{"icaoId":"SBME","flightCategory":"VFR","rawOb":"METAR SBME 112000Z 20005KT 9999 FEW025 BKN050 25/20 Q1019","temp":25,"dewp":20,"wdir":200,"wspd":5,"visib":"6+","altim":1019,"clouds":[{"cover":"FEW","base":2500},{"cover":"BKN","base":5000}],"obsTime":1775937600},"SBMG":{"icaoId":"SBMG","flightCategory":"VFR","rawOb":"METAR SBMG 112000Z 10010KT CAVOK 27/16 Q1016","temp":27,"dewp":16,"wdir":100,"wspd":10,"visib":"6+","altim":1016,"clouds":[],"obsTime":1775937600},"SBMK":{"icaoId":"SBMK","flightCategory":"VFR","rawOb":"METAR SBMK 112000Z 34002KT 9999 VCSH SCT040 FEW045TCU 27/20 Q1016","temp":27,"dewp":20,"wdir":340,"wspd":2,"visib":"6+","altim":1016,"clouds":[{"cover":"SCT","base":4000},{"cover":"FEW","base":4500}],"obsTime":1775937600},"SBMO":{"icaoId":"SBMO","flightCategory":"VFR","rawOb":"METAR SBMO 112000Z 13010KT 9999 FEW040 28/21 Q1012","temp":28,"dewp":21,"wdir":130,"wspd":10,"visib":"6+","altim":1012,"clouds":[{"cover":"FEW","base":4000}],"obsTime":1775937600},"SBMQ":{"icaoId":"SBMQ","flightCategory":"VFR","rawOb":"METAR SBMQ 112000Z 02007KT 9999 SCT013 27/24 Q1010","temp":27,"dewp":24,"wdir":20,"wspd":7,"visib":"6+","altim":1010,"clouds":[{"cover":"SCT","base":1300}],"obsTime":1775937600},"SBNT":{"icaoId":"SBNT","flightCategory":"VFR","rawOb":"METAR SBNT 112000Z 11009KT 9999 FEW023 FEW028TCU SCT090 29/24 Q1011","temp":29,"dewp":24,"wdir":110,"wspd":9,"visib":"6+","altim":1011,"clouds":[{"cover":"FEW","base":2300},{"cover":"FEW","base":2800},{"cover":"SCT","base":9000}],"obsTime":1775937600},"SBPA":{"icaoId":"SBPA","flightCategory":"VFR","rawOb":"METAR SBPA 112000Z 10014KT 9999 FEW030 26/17 Q1016","temp":26,"dewp":17,"wdir":100,"wspd":14,"visib":"6+","altim":1016,"clouds":[{"cover":"FEW","base":3000}],"obsTime":1775937600},"SBPJ":{"icaoId":"SBPJ","flightCategory":"VFR","rawOb":"METAR SBPJ 112000Z 36003KT 320V050 9999 VCSH FEW015 FEW030TCU SCT080 26/24 Q1010 RETS","temp":26,"dewp":24,"wdir":360,"wspd":3,"visib":"6+","altim":1010,"clouds":[{"cover":"FEW","base":1500},{"cover":"FEW","base":3000},{"cover":"SCT","base":8000}],"obsTime":1775937600},"SBPV":{"icaoId":"SBPV","flightCategory":"VFR","rawOb":"METAR SBPV 112000Z 26001KT 9999 FEW045 SCT060 27/25 Q1007","temp":27,"dewp":25,"wdir":260,"wspd":1,"visib":"6+","altim":1007,"clouds":[{"cover":"FEW","base":4500},{"cover":"SCT","base":6000}],"obsTime":1775937600},"SBRB":{"icaoId":"SBRB","flightCategory":"MVFR","rawOb":"METAR SBRB 112000Z 10003KT 8000 -RA VCSH BKN025 FEW040TCU SCT080 29/25 Q1009","temp":29,"dewp":25,"wdir":100,"wspd":3,"visib":4.97,"altim":1009,"clouds":[{"cover":"BKN","base":2500},{"cover":"FEW","base":4000},{"cover":"SCT","base":8000}],"obsTime":1775937600},"SBRF":{"icaoId":"SBRF","flightCategory":"VFR","rawOb":"METAR SBRF 112000Z 13010KT 9999 FEW020 FEW025TCU BKN060 29/24 Q1011","temp":29,"dewp":24,"wdir":130,"wspd":10,"visib":"6+","altim":1011,"clouds":[{"cover":"FEW","base":2000},{"cover":"FEW","base":2500},{"cover":"BKN","base":6000}],"obsTime":1775937600},"SBSG":{"icaoId":"SBSG","flightCategory":"VFR","rawOb":"METAR SBSG 112000Z 11006KT 090V150 9999 SCT027 FEW030TCU 28/24 Q1011","temp":28,"dewp":24,"wdir":110,"wspd":6,"visib":"6+","altim":1011,"clouds":[{"cover":"SCT","base":2700},{"cover":"FEW","base":3000}],"obsTime":1775937600},"SBSL":{"icaoId":"SBSL","flightCategory":"MVFR","rawOb":"METAR SBSL 112000Z 07009KT 030V100 9999 VCSH FEW014 BKN020 FEW025TCU 28/24 Q1010","temp":28,"dewp":24,"wdir":70,"wspd":9,"visib":"6+","altim":1010,"clouds":[{"cover":"FEW","base":1400},{"cover":"BKN","base":2000},{"cover":"FEW","base":2500}],"obsTime":1775937600},"SBSN":{"icaoId":"SBSN","flightCategory":"VFR","rawOb":"METAR SBSN 112000Z 09008KT 9999 FEW023 FEW040TCU 31/25 Q1007","temp":31,"dewp":25,"wdir":90,"wspd":8,"visib":"6+","altim":1007,"clouds":[{"cover":"FEW","base":2300},{"cover":"FEW","base":4000}],"obsTime":1775937600},"SBSP":{"icaoId":"SBSP","flightCategory":"VFR","rawOb":"METAR SBSP 112000Z 15013KT CAVOK 21/15 Q1023","temp":21,"dewp":15,"wdir":150,"wspd":13,"visib":"6+","altim":1023,"clouds":[],"obsTime":1775937600},"SBSV":{"icaoId":"SBSV","flightCategory":"VFR","rawOb":"METAR SBSV 112000Z 15006KT 110V170 9999 SCT021 FEW023TCU 28/24 Q1013","temp":28,"dewp":24,"wdir":150,"wspd":6,"visib":"6+","altim":1013,"clouds":[{"cover":"SCT","base":2100},{"cover":"FEW","base":2300}],"obsTime":1775937600},"SBTE":{"icaoId":"SBTE","flightCategory":"VFR","rawOb":"METAR SBTE 112000Z 36007KT 9999 SCT025 FEW030TCU 32/24 Q1008","temp":32,"dewp":24,"wdir":360,"wspd":7,"visib":"6+","altim":1008,"clouds":[{"cover":"SCT","base":2500},{"cover":"FEW","base":3000}],"obsTime":1775937600},"SBUL":{"icaoId":"SBUL","flightCategory":"VFR","rawOb":"METAR SBUL 112000Z 13008KT 9999 -RA FEW035 FEW040TCU 27/18 Q1018","temp":27,"dewp":18,"wdir":130,"wspd":8,"visib":"6+","altim":1018,"clouds":[{"cover":"FEW","base":3500},{"cover":"FEW","base":4000}],"obsTime":1775937600},"SBUR":{"icaoId":"SBUR","flightCategory":"VFR","rawOb":"METAR SBUR 112000Z 09006KT 9999 SCT048 FEW050TCU 29/18 Q1017","temp":29,"dewp":18,"wdir":90,"wspd":6,"visib":"6+","altim":1017,"clouds":[{"cover":"SCT","base":4800},{"cover":"FEW","base":5000}],"obsTime":1775937600},"SBVT":{"icaoId":"SBVT","flightCategory":"MVFR","rawOb":"METAR SBVT 112000Z 21012KT 9999 VCSH SCT015 BKN025 OVC040 23/20 Q1018","temp":23,"dewp":20,"wdir":210,"wspd":12,"visib":"6+","altim":1018,"clouds":[{"cover":"SCT","base":1500},{"cover":"BKN","base":2500},{"cover":"OVC","base":4000}],"obsTime":1775937600},"SBCO":{"icaoId":"SBCO","flightCategory":"VFR","rawOb":"METAR SBCO 112000Z 11012KT CAVOK 27/18 Q1016","temp":27,"dewp":18,"wdir":110,"wspd":12,"visib":"6+","altim":1016,"clouds":[],"obsTime":1775937600},"SBPB":{"icaoId":"SBPB","flightCategory":"VFR","rawOb":"METAR SBPB 112000Z 06012KT 9999 SCT016 BKN090 28/25 Q1010","temp":28,"dewp":25,"wdir":60,"wspd":12,"visib":"6+","altim":1010,"clouds":[{"cover":"SCT","base":1600},{"cover":"BKN","base":9000}],"obsTime":1775937600},"SBBU":{"icaoId":"SBBU","flightCategory":"VFR","rawOb":"METAR SBBU 112000Z 10005KT 9999 FEW045 28/20 Q1018","temp":28,"dewp":20,"wdir":100,"wspd":5,"visib":"6+","altim":1018,"clouds":[{"cover":"FEW","base":4500}],"obsTime":1775937600},"SBPL":{"icaoId":"SBPL","flightCategory":"VFR","rawOb":"METAR SBPL 112000Z 31003KT 9999 SCT030 32/19 Q1011","temp":32,"dewp":19,"wdir":310,"wspd":3,"visib":"6+","altim":1011,"clouds":[{"cover":"SCT","base":3000}],"obsTime":1775937600},"SBCA":{"icaoId":"SBCA","flightCategory":"VFR","rawOb":"METAR SBCA 112000Z 04012KT CAVOK 23/16 Q1018","temp":23,"dewp":16,"wdir":40,"wspd":12,"visib":"6+","altim":1018,"clouds":[],"obsTime":1775937600},"SBPP":{"icaoId":"SBPP","flightCategory":"MVFR","rawOb":"METAR SBPP 112000Z 04010KT 9999 BKN015 27/21 Q1016","temp":27,"dewp":21,"wdir":40,"wspd":10,"visib":"6+","altim":1016,"clouds":[{"cover":"BKN","base":1500}],"obsTime":1775937600},"SBDN":{"icaoId":"SBDN","flightCategory":"VFR","rawOb":"METAR SBDN 112000Z 11008KT CAVOK 29/18 Q1016","temp":29,"dewp":18,"wdir":110,"wspd":8,"visib":"6+","altim":1016,"clouds":[],"obsTime":1775937600},"SBPS":{"icaoId":"SBPS","flightCategory":"VFR","rawOb":"METAR SBPS 112000Z 16005KT 110V240 9999 SCT020 FEW025TCU BKN100 27/24 Q1015","temp":27,"dewp":24,"wdir":160,"wspd":5,"visib":"6+","altim":1015,"clouds":[{"cover":"SCT","base":2000},{"cover":"FEW","base":2500},{"cover":"BKN","base":10000}],"obsTime":1775937600},"SBSC":{"icaoId":"SBSC","flightCategory":"VFR","rawOb":"METAR SBSC 112000Z 19005KT 9999 FEW020 SCT050 BKN080 24/19 Q1020","temp":24,"dewp":19,"wdir":190,"wspd":5,"visib":"6+","altim":1020,"clouds":[{"cover":"FEW","base":2000},{"cover":"SCT","base":5000},{"cover":"BKN","base":8000}],"obsTime":1775937600},"SBES":{"icaoId":"SBES","flightCategory":"VFR","rawOb":"METAR SBES 112000Z 23004KT 120V270 9999 FEW030 BKN080 24/// Q1020","temp":null,"dewp":null,"wdir":230,"wspd":4,"visib":"6+","altim":1020,"clouds":[{"cover":"FEW","base":3000},{"cover":"BKN","base":8000}],"obsTime":1775937600},"SBSJ":{"icaoId":"SBSJ","flightCategory":"VFR","rawOb":"METAR SBSJ 112000Z 12014KT 9999 SCT048 23/15 Q1021","temp":23,"dewp":15,"wdir":120,"wspd":14,"visib":"6+","altim":1021,"clouds":[{"cover":"SCT","base":4800}],"obsTime":1775937600},"SBBH":{"icaoId":"SBBH","flightCategory":"VFR","rawOb":"METAR SBBH 112000Z 11012KT 9999 FEW040 25/18 Q1020","temp":25,"dewp":18,"wdir":110,"wspd":12,"visib":"6+","altim":1020,"clouds":[{"cover":"FEW","base":4000}],"obsTime":1775937600},"SBSM":{"icaoId":"SBSM","flightCategory":"VFR","rawOb":"METAR SBSM 112000Z 11005KT 9999 SCT045 FEW050TCU BKN100 25/20 Q1015","temp":25,"dewp":20,"wdir":110,"wspd":5,"visib":"6+","altim":1015,"clouds":[{"cover":"SCT","base":4500},{"cover":"FEW","base":5000},{"cover":"BKN","base":10000}],"obsTime":1775937600},"SBIP":{"icaoId":"SBIP","flightCategory":"VFR","rawOb":"METAR SBIP 112000Z AUTO VRB02KT CAVOK 26/20 Q1017","temp":26,"dewp":20,"wdir":"VRB","wspd":2,"visib":"6+","altim":1017,"clouds":[],"obsTime":1775937600},"SBSR":{"icaoId":"SBSR","flightCategory":"VFR","rawOb":"METAR SBSR 112000Z 17005KT 9999 SCT030 BKN070 30/19 Q1015","temp":30,"dewp":19,"wdir":170,"wspd":5,"visib":"6+","altim":1015,"clouds":[{"cover":"SCT","base":3000},{"cover":"BKN","base":7000}],"obsTime":1775937600},"SBAR":{"icaoId":"SBAR","flightCategory":"VFR","rawOb":"METAR SBAR 112000Z 13009KT 9999 SCT020 SCT060 29/24 Q1012","temp":29,"dewp":24,"wdir":130,"wspd":9,"visib":"6+","altim":1012,"clouds":[{"cover":"SCT","base":2000},{"cover":"SCT","base":6000}],"obsTime":1775937600},"SBKG":{"icaoId":"SBKG","flightCategory":"VFR","rawOb":"METAR SBKG 112000Z 10008KT 9999 FEW025 28/21 Q1013","temp":28,"dewp":21,"wdir":100,"wspd":8,"visib":"6+","altim":1013,"clouds":[{"cover":"FEW","base":2500}],"obsTime":1775937600},"SBTF":{"icaoId":"SBTF","flightCategory":"VFR","rawOb":"METAR SBTF 112000Z 04008KT 9999 TS FEW021 FEW030CB 34/26 Q1007","temp":34,"dewp":26,"wdir":40,"wspd":8,"visib":"6+","altim":1007,"clouds":[{"cover":"FEW","base":2100},{"cover":"FEW","base":3000}],"obsTime":1775937600},"SBAX":{"icaoId":"SBAX","flightCategory":"VFR","rawOb":"METAR SBAX 112000Z AUTO 10007KT 060V130 CAVOK 26/17 Q1019","temp":26,"dewp":17,"wdir":100,"wspd":7,"visib":"6+","altim":1019,"clouds":[],"obsTime":1775937600},"SBTT":{"icaoId":"SBTT","flightCategory":"MVFR","rawOb":"METAR SBTT 112000Z 31004KT 230V340 9999 BKN024 FEW030TCU 25/23 Q1009 RETS","temp":25,"dewp":23,"wdir":310,"wspd":4,"visib":"6+","altim":1009,"clouds":[{"cover":"BKN","base":2400},{"cover":"FEW","base":3000}],"obsTime":1775937600},"SBUY":{"icaoId":"SBUY","flightCategory":"IFR","rawOb":"METAR SBUY 112000Z 00000KT 2800 -RA SCT012 FEW035TCU BKN080 24/24 Q1006 RETS","temp":24,"dewp":24,"wdir":0,"wspd":0,"visib":1.74,"altim":1006,"clouds":[{"cover":"SCT","base":1200},{"cover":"FEW","base":3500},{"cover":"BKN","base":8000}],"obsTime":1775937600},"SBOI":{"icaoId":"SBOI","flightCategory":"VFR","rawOb":"METAR SBOI 112000Z AUTO 04011KT 360V080 9999 FEW031 30/23 Q1011","temp":30,"dewp":23,"wdir":40,"wspd":11,"visib":"6+","altim":1011,"clouds":[{"cover":"FEW","base":3100}],"obsTime":1775937600},"SBVH":{"icaoId":"SBVH","flightCategory":"VFR","rawOb":"METAR SBVH 112000Z 01004KT 9999 BKN035 30/23 Q1012","temp":30,"dewp":23,"wdir":10,"wspd":4,"visib":"6+","altim":1012,"clouds":[{"cover":"BKN","base":3500}],"obsTime":1775937600},"SBCJ":{"icaoId":"SBCJ","flightCategory":"VFR","rawOb":"METAR SBCJ 112000Z 00000KT CAVOK 24/21 Q1013","temp":24,"dewp":21,"wdir":0,"wspd":0,"visib":"6+","altim":1013,"clouds":[],"obsTime":1775937600},"SBCC":{"icaoId":"SBCC","flightCategory":"MVFR","rawOb":"METAR SBCC 112000Z 30006KT 9999 VCSH VCTS BKN025 FEW030CB 29/22 Q1010","temp":29,"dewp":22,"wdir":300,"wspd":6,"visib":"6+","altim":1010,"clouds":[{"cover":"BKN","base":2500},{"cover":"FEW","base":3000}],"obsTime":1775937600},"SBJP":{"icaoId":"SBJP","flightCategory":"VFR","rawOb":"METAR SBJP 112000Z 12011KT 9999 FEW025 29/24 Q1011","temp":29,"dewp":24,"wdir":120,"wspd":11,"visib":"6+","altim":1011,"clouds":[{"cover":"FEW","base":2500}],"obsTime":1775937600},"SBAN":{"icaoId":"SBAN","flightCategory":"VFR","rawOb":"METAR SBAN 112000Z 16008KT 9999 SCT035 FEW040TCU 27/18 Q1018","temp":27,"dewp":18,"wdir":160,"wspd":8,"visib":"6+","altim":1018,"clouds":[{"cover":"SCT","base":3500},{"cover":"FEW","base":4000}],"obsTime":1775937600},"SBLE":{"icaoId":"SBLE","flightCategory":"VFR","rawOb":"METAR SBLE 112000Z AUTO 18003KT 140V210 CAVOK 28/19 Q1015","temp":28,"dewp":19,"wdir":180,"wspd":3,"visib":"6+","altim":1015,"clouds":[],"obsTime":1775937600},"SBJV":{"icaoId":"SBJV","flightCategory":"VFR","rawOb":"METAR SBJV 112000Z 12004KT 9999 FEW015 SCT030 24/21 Q1020","temp":24,"dewp":21,"wdir":120,"wspd":4,"visib":"6+","altim":1020,"clouds":[{"cover":"FEW","base":1500},{"cover":"SCT","base":3000}],"obsTime":1775937600},"SBIH":{"icaoId":"SBIH","flightCategory":"VFR","rawOb":"METAR SBIH 112000Z 04005KT 9999 SCT018 FEW023TCU 32/25 Q1006","temp":32,"dewp":25,"wdir":40,"wspd":5,"visib":"6+","altim":1006,"clouds":[{"cover":"SCT","base":1800},{"cover":"FEW","base":2300}],"obsTime":1775937600},"SBAF":{"icaoId":"SBAF","flightCategory":"VFR","rawOb":"METAR SBAF 112000Z 19009KT 9999 FEW025 SCT050 BKN080 24/21 Q1020","temp":24,"dewp":21,"wdir":190,"wspd":9,"visib":"6+","altim":1020,"clouds":[{"cover":"FEW","base":2500},{"cover":"SCT","base":5000},{"cover":"BKN","base":8000}],"obsTime":1775937600},"SBGW":{"icaoId":"SBGW","flightCategory":"VFR","rawOb":"METAR SBGW 112000Z 05008KT 010V100 9999 FEW045 BKN060 24/14 Q1020","temp":24,"dewp":14,"wdir":50,"wspd":8,"visib":"6+","altim":1020,"clouds":[{"cover":"FEW","base":4500},{"cover":"BKN","base":6000}],"obsTime":1775937600},"SBJR":{"icaoId":"SBJR","flightCategory":"VFR","rawOb":"METAR SBJR 112000Z 21003KT 9999 FEW030 BKN080 25/20 Q1020","temp":25,"dewp":20,"wdir":210,"wspd":3,"visib":"6+","altim":1020,"clouds":[{"cover":"FEW","base":3000},{"cover":"BKN","base":8000}],"obsTime":1775937600},"SBLS":{"icaoId":"SBLS","flightCategory":"VFR","rawOb":"METAR SBLS 112000Z 13012KT 9999 FEW025 24/18 Q1020","temp":24,"dewp":18,"wdir":130,"wspd":12,"visib":"6+","altim":1020,"clouds":[{"cover":"FEW","base":2500}],"obsTime":1775937600},"SBMT":{"icaoId":"SBMT","flightCategory":"VFR","rawOb":"METAR SBMT 112000Z 15011KT 9999 FEW020 22/15 Q1021","temp":22,"dewp":15,"wdir":150,"wspd":11,"visib":"6+","altim":1021,"clouds":[{"cover":"FEW","base":2000}],"obsTime":1775937600},"SBST":{"icaoId":"SBST","flightCategory":"VFR","rawOb":"METAR SBST 112000Z 16006KT 9999 SCT025 24/18 Q1019","temp":24,"dewp":18,"wdir":160,"wspd":6,"visib":"6+","altim":1019,"clouds":[{"cover":"SCT","base":2500}],"obsTime":1775937600},"SBTA":{"icaoId":"SBTA","flightCategory":"VFR","rawOb":"METAR SBTA 112000Z 17006KT 9999 BKN045 24/16 Q1020","temp":24,"dewp":16,"wdir":170,"wspd":6,"visib":"6+","altim":1020,"clouds":[{"cover":"BKN","base":4500}],"obsTime":1775937600},"SBTC":{"icaoId":"SBTC","flightCategory":"VFR","rawOb":"METAR SBTC 112000Z 14003KT 9999 SCT020 28/22 Q1014","temp":28,"dewp":22,"wdir":140,"wspd":3,"visib":"6+","altim":1014,"clouds":[{"cover":"SCT","base":2000}],"obsTime":1775937600}}}