{"updated":1774301752,"count":83,"data":{"SBFI":{"icaoId":"SBFI","flightCategory":"VFR","rawOb":"METAR SBFI 232000Z 07002KT 9999 VCSH SCT035 FEW040TCU 28/26 Q1007","temp":28,"dewp":26,"wdir":70,"wspd":2,"visib":"6+","altim":1007,"clouds":[{"cover":"SCT","base":3500},{"cover":"FEW","base":4000}],"obsTime":1774296000},"SBVT":{"icaoId":"SBVT","flightCategory":"VFR","rawOb":"METAR SBVT 232000Z 01010KT 340V040 9999 FEW030 27/21 Q1010","temp":27,"dewp":21,"wdir":10,"wspd":10,"visib":"6+","altim":1010,"clouds":[{"cover":"FEW","base":3000}],"obsTime":1774296000},"SBMA":{"icaoId":"SBMA","flightCategory":"IFR","rawOb":"SPECI SBMA 231936Z 16010KT 3000 -TSRA SCT020 FEW025CB BKN100 26/24 Q1007","temp":26,"dewp":24,"wdir":160,"wspd":10,"visib":1.86,"altim":1007,"clouds":[{"cover":"SCT","base":2000},{"cover":"FEW","base":2500},{"cover":"BKN","base":10000}],"obsTime":1774294560},"SBLO":{"icaoId":"SBLO","flightCategory":"VFR","rawOb":"METAR SBLO 232000Z 14011KT 9999 4000S TS VCSH BKN040 FEW050CB SCT100 26/21 Q1011","temp":26,"dewp":21,"wdir":140,"wspd":11,"visib":"6+","altim":1011,"clouds":[{"cover":"BKN","base":4000},{"cover":"FEW","base":5000},{"cover":"SCT","base":10000}],"obsTime":1774296000},"SBKP":{"icaoId":"SBKP","flightCategory":"VFR","rawOb":"METAR SBKP 232000Z 19008KT CAVOK 30/13 Q1011","temp":30,"dewp":13,"wdir":190,"wspd":8,"visib":"6+","altim":1011,"clouds":[],"obsTime":1774296000},"SBCG":{"icaoId":"SBCG","flightCategory":"VFR","rawOb":"METAR SBCG 232000Z 32008KT 9999 VCSH SCT045 FEW050TCU 33/20 Q1010","temp":33,"dewp":20,"wdir":320,"wspd":8,"visib":"6+","altim":1010,"clouds":[{"cover":"SCT","base":4500},{"cover":"FEW","base":5000}],"obsTime":1774296000},"SBME":{"icaoId":"SBME","flightCategory":"IFR","rawOb":"METAR SBME 232000Z 34006KT 4000 RA SCT015 OVC080 23/21 Q1011","temp":23,"dewp":21,"wdir":340,"wspd":6,"visib":2.49,"altim":1011,"clouds":[{"cover":"SCT","base":1500},{"cover":"OVC","base":8000}],"obsTime":1774296000},"SBMG":{"icaoId":"SBMG","flightCategory":"VFR","rawOb":"METAR SBMG 232000Z 33006KT 9999 FEW042 31/22 Q1010","temp":31,"dewp":22,"wdir":330,"wspd":6,"visib":"6+","altim":1010,"clouds":[{"cover":"FEW","base":4200}],"obsTime":1774296000},"SBBR":{"icaoId":"SBBR","flightCategory":"VFR","rawOb":"METAR SBBR 232000Z VRB03KT 9999 SCT040 FEW045TCU 30/17 Q1012","temp":30,"dewp":17,"wdir":"VRB","wspd":3,"visib":"6+","altim":1012,"clouds":[{"cover":"SCT","base":4000},{"cover":"FEW","base":4500}],"obsTime":1774296000},"SBMK":{"icaoId":"SBMK","flightCategory":"VFR","rawOb":"METAR SBMK 232000Z 02004KT 9999 FEW045 30/19 Q1010","temp":30,"dewp":19,"wdir":20,"wspd":4,"visib":"6+","altim":1010,"clouds":[{"cover":"FEW","base":4500}],"obsTime":1774296000},"SBFL":{"icaoId":"SBFL","flightCategory":"VFR","rawOb":"METAR SBFL 232000Z 36016KT 9999 FEW030 29/21 Q1008","temp":29,"dewp":21,"wdir":360,"wspd":16,"visib":"6+","altim":1008,"clouds":[{"cover":"FEW","base":3000}],"obsTime":1774296000},"SBMO":{"icaoId":"SBMO","flightCategory":"VFR","rawOb":"METAR SBMO 232000Z 09015KT 9999 SCT030 28/23 Q1010","temp":28,"dewp":23,"wdir":90,"wspd":15,"visib":"6+","altim":1010,"clouds":[{"cover":"SCT","base":3000}],"obsTime":1774296000},"SBMQ":{"icaoId":"SBMQ","flightCategory":"VFR","rawOb":"METAR SBMQ 232000Z 06010KT 9999 SCT023 FEW028TCU 32/25 Q1007","temp":32,"dewp":25,"wdir":60,"wspd":10,"visib":"6+","altim":1007,"clouds":[{"cover":"SCT","base":2300},{"cover":"FEW","base":2800}],"obsTime":1774296000},"SBCP":{"icaoId":"SBCP","flightCategory":"MVFR","rawOb":"METAR SBCP 232000Z 12009KT 9999 BKN015 BKN080 27/23 Q1011","temp":27,"dewp":23,"wdir":120,"wspd":9,"visib":"6+","altim":1011,"clouds":[{"cover":"BKN","base":1500},{"cover":"BKN","base":8000}],"obsTime":1774296000},"SBNT":{"icaoId":"SBNT","flightCategory":"VFR","rawOb":"METAR SBNT 232000Z 11010KT 9999 FEW023 29/23 Q1009","temp":29,"dewp":23,"wdir":110,"wspd":10,"visib":"6+","altim":1009,"clouds":[{"cover":"FEW","base":2300}],"obsTime":1774296000},"SBFZ":{"icaoId":"SBFZ","flightCategory":"VFR","rawOb":"METAR SBFZ 232000Z 10012KT 9999 SCT025 29/23 Q1008","temp":29,"dewp":23,"wdir":100,"wspd":12,"visib":"6+","altim":1008,"clouds":[{"cover":"SCT","base":2500}],"obsTime":1774296000},"SBBE":{"icaoId":"SBBE","flightCategory":"VFR","rawOb":"METAR SBBE 232000Z 03008KT 9999 SCT048 29/23 Q1007","temp":29,"dewp":23,"wdir":30,"wspd":8,"visib":"6+","altim":1007,"clouds":[{"cover":"SCT","base":4800}],"obsTime":1774296000},"SBPA":{"icaoId":"SBPA","flightCategory":"IFR","rawOb":"METAR SBPA 232000Z 23014G26KT 3000 TSRA BKN008 BKN030 FEW040CB OVC100 23/22 Q1007 RERA","temp":23,"dewp":22,"wdir":230,"wspd":14,"visib":1.86,"altim":1007,"clouds":[{"cover":"BKN","base":800},{"cover":"BKN","base":3000},{"cover":"FEW","base":4000},{"cover":"OVC","base":10000}],"obsTime":1774296000},"SBPJ":{"icaoId":"SBPJ","flightCategory":"VFR","rawOb":"METAR SBPJ 232000Z 10005KT 9999 TS SCT025 FEW030CB BKN090 29/22 Q1008","temp":29,"dewp":22,"wdir":100,"wspd":5,"visib":"6+","altim":1008,"clouds":[{"cover":"SCT","base":2500},{"cover":"FEW","base":3000},{"cover":"BKN","base":9000}],"obsTime":1774296000},"SBCR":{"icaoId":"SBCR","flightCategory":"MVFR","rawOb":"METAR SBCR 232000Z 15010KT 8000 -RA FEW023 SCT035 FEW040TCU BKN090 26/24 Q1007 RETS","temp":26,"dewp":24,"wdir":150,"wspd":10,"visib":4.97,"altim":1007,"clouds":[{"cover":"FEW","base":2300},{"cover":"SCT","base":3500},{"cover":"FEW","base":4000},{"cover":"BKN","base":9000}],"obsTime":1774296000},"SBPV":{"icaoId":"SBPV","flightCategory":"VFR","rawOb":"METAR SBPV 232000Z 06003KT CAVOK 28/23 Q1006","temp":28,"dewp":23,"wdir":60,"wspd":3,"visib":"6+","altim":1006,"clouds":[],"obsTime":1774296000},"SBGL":{"icaoId":"SBGL","flightCategory":"VFR","rawOb":"METAR SBGL 232000Z 05011KT 9999 FEW020 BKN060 25/21 Q1010","temp":25,"dewp":21,"wdir":50,"wspd":11,"visib":"6+","altim":1010,"clouds":[{"cover":"FEW","base":2000},{"cover":"BKN","base":6000}],"obsTime":1774296000},"SBRB":{"icaoId":"SBRB","flightCategory":"VFR","rawOb":"METAR SBRB 232000Z 36004KT 9999 SCT030 32/24 Q1006","temp":32,"dewp":24,"wdir":360,"wspd":4,"visib":"6+","altim":1006,"clouds":[{"cover":"SCT","base":3000}],"obsTime":1774296000},"SBGO":{"icaoId":"SBGO","flightCategory":"VFR","rawOb":"METAR SBGO 232000Z 15006KT 9999 FEW050 FEW060TCU 31/18 Q1011","temp":31,"dewp":18,"wdir":150,"wspd":6,"visib":"6+","altim":1011,"clouds":[{"cover":"FEW","base":5000},{"cover":"FEW","base":6000}],"obsTime":1774296000},"SBRF":{"icaoId":"SBRF","flightCategory":"VFR","rawOb":"METAR SBRF 232000Z 09008KT 050V130 9999 SCT023 29/23 Q1010","temp":29,"dewp":23,"wdir":90,"wspd":8,"visib":"6+","altim":1010,"clouds":[{"cover":"SCT","base":2300}],"obsTime":1774296000},"SBCB":{"icaoId":"SBCB","flightCategory":"VFR","rawOb":"METAR SBCB 232000Z 05007KT 9999 FEW020 SCT030 BKN070 25/20 Q1011","temp":25,"dewp":20,"wdir":50,"wspd":7,"visib":"6+","altim":1011,"clouds":[{"cover":"FEW","base":2000},{"cover":"SCT","base":3000},{"cover":"BKN","base":7000}],"obsTime":1774296000},"SBSG":{"icaoId":"SBSG","flightCategory":"VFR","rawOb":"METAR SBSG 232000Z 10012KT 9999 SCT030 29/23 Q1009","temp":29,"dewp":23,"wdir":100,"wspd":12,"visib":"6+","altim":1009,"clouds":[{"cover":"SCT","base":3000}],"obsTime":1774296000},"SBCT":{"icaoId":"SBCT","flightCategory":"VFR","rawOb":"METAR SBCT 232000Z 09007KT 070V130 9999 FEW020 SCT037 25/21 Q1014","temp":25,"dewp":21,"wdir":90,"wspd":7,"visib":"6+","altim":1014,"clouds":[{"cover":"FEW","base":2000},{"cover":"SCT","base":3700}],"obsTime":1774296000},"SBSL":{"icaoId":"SBSL","flightCategory":"VFR","rawOb":"METAR SBSL 232000Z 05013KT 9999 SCT025 29/24 Q1007","temp":29,"dewp":24,"wdir":50,"wspd":13,"visib":"6+","altim":1007,"clouds":[{"cover":"SCT","base":2500}],"obsTime":1774296000},"SBGR":{"icaoId":"SBGR","flightCategory":"VFR","rawOb":"METAR SBGR 232000Z 15009KT CAVOK 26/19 Q1013","temp":26,"dewp":19,"wdir":150,"wspd":9,"visib":"6+","altim":1013,"clouds":[],"obsTime":1774296000},"SBSN":{"icaoId":"SBSN","flightCategory":"VFR","rawOb":"METAR SBSN 232000Z 09011KT CAVOK 32/24 Q1005","temp":32,"dewp":24,"wdir":90,"wspd":11,"visib":"6+","altim":1005,"clouds":[],"obsTime":1774296000},"SBHT":{"icaoId":"SBHT","flightCategory":"VFR","rawOb":"METAR SBHT 232000Z 07003KT 9999 SCT030 33/24 Q1005","temp":33,"dewp":24,"wdir":70,"wspd":3,"visib":"6+","altim":1005,"clouds":[{"cover":"SCT","base":3000}],"obsTime":1774296000},"SBCF":{"icaoId":"SBCF","flightCategory":"VFR","rawOb":"METAR SBCF 232000Z 27005KT 9999 FEW045 30/18 Q1012","temp":30,"dewp":18,"wdir":270,"wspd":5,"visib":"6+","altim":1012,"clouds":[{"cover":"FEW","base":4500}],"obsTime":1774296000},"SBSP":{"icaoId":"SBSP","flightCategory":"VFR","rawOb":"METAR SBSP 232000Z 17011KT 140V200 CAVOK 24/18 Q1014","temp":24,"dewp":18,"wdir":170,"wspd":11,"visib":"6+","altim":1014,"clouds":[],"obsTime":1774296000},"SBSV":{"icaoId":"SBSV","flightCategory":"VFR","rawOb":"METAR SBSV 232000Z 08010KT 9999 FEW023 29/22 Q1010","temp":29,"dewp":22,"wdir":80,"wspd":10,"visib":"6+","altim":1010,"clouds":[{"cover":"FEW","base":2300}],"obsTime":1774296000},"SBIL":{"icaoId":"SBIL","flightCategory":"VFR","rawOb":"METAR SBIL 232000Z 11007KT 9999 FEW020 SCT090 29/23 Q1010","temp":29,"dewp":23,"wdir":110,"wspd":7,"visib":"6+","altim":1010,"clouds":[{"cover":"FEW","base":2000},{"cover":"SCT","base":9000}],"obsTime":1774296000},"SBTE":{"icaoId":"SBTE","flightCategory":"VFR","rawOb":"METAR SBTE 232000Z 02005KT 9999 SCT035 33/22 Q1006","temp":33,"dewp":22,"wdir":20,"wspd":5,"visib":"6+","altim":1006,"clouds":[{"cover":"SCT","base":3500}],"obsTime":1774296000},"SBCZ":{"icaoId":"SBCZ","flightCategory":"VFR","rawOb":"METAR SBCZ 232000Z 05006KT 9999 SCT025 SCT100 30/24 Q1007","temp":30,"dewp":24,"wdir":50,"wspd":6,"visib":"6+","altim":1007,"clouds":[{"cover":"SCT","base":2500},{"cover":"SCT","base":10000}],"obsTime":1774296000},"SBUL":{"icaoId":"SBUL","flightCategory":"VFR","rawOb":"METAR SBUL 232000Z 04003KT 9999 FEW030 SCT090 30/13 Q1013","temp":30,"dewp":13,"wdir":40,"wspd":3,"visib":"6+","altim":1013,"clouds":[{"cover":"FEW","base":3000},{"cover":"SCT","base":9000}],"obsTime":1774296000},"SBJU":{"icaoId":"SBJU","flightCategory":"MVFR","rawOb":"METAR SBJU 232000Z 14007KT 9999 BKN021 FEW021TCU 26/21 Q1011 RETS","temp":26,"dewp":21,"wdir":140,"wspd":7,"visib":"6+","altim":1011,"clouds":[{"cover":"BKN","base":2100},{"cover":"FEW","base":2100}],"obsTime":1774296000},"SBBV":{"icaoId":"SBBV","flightCategory":"VFR","rawOb":"METAR SBBV 232000Z 17010KT 9999 BKN040 FEW045TCU SCT070 34/21 Q1006","temp":34,"dewp":21,"wdir":170,"wspd":10,"visib":"6+","altim":1006,"clouds":[{"cover":"BKN","base":4000},{"cover":"FEW","base":4500},{"cover":"SCT","base":7000}],"obsTime":1774296000},"SBUR":{"icaoId":"SBUR","flightCategory":"VFR","rawOb":"METAR SBUR 232000Z 18006KT CAVOK 29/15 Q1012","temp":29,"dewp":15,"wdir":180,"wspd":6,"visib":"6+","altim":1012,"clouds":[],"obsTime":1774296000},"SBEG":{"icaoId":"SBEG","flightCategory":"VFR","rawOb":"METAR SBEG 232000Z 05005KT 9999 FEW020 FEW025TCU 29/23 Q1006","temp":29,"dewp":23,"wdir":50,"wspd":5,"visib":"6+","altim":1006,"clouds":[{"cover":"FEW","base":2000},{"cover":"FEW","base":2500}],"obsTime":1774296000},"SBAT":{"icaoId":"SBAT","flightCategory":"VFR","rawOb":"METAR SBAT 232000Z 05004KT 9999 FEW030 FEW035TCU 29/24 Q1007","temp":29,"dewp":24,"wdir":50,"wspd":4,"visib":"6+","altim":1007,"clouds":[{"cover":"FEW","base":3000},{"cover":"FEW","base":3500}],"obsTime":1774296000},"SBCJ":{"icaoId":"SBCJ","flightCategory":"VFR","rawOb":"METAR SBCJ 232000Z 06004KT 9999 FEW017 FEW025TCU 28/22 Q1012","temp":28,"dewp":22,"wdir":60,"wspd":4,"visib":"6+","altim":1012,"clouds":[{"cover":"FEW","base":1700},{"cover":"FEW","base":2500}],"obsTime":1774296000},"SBAR":{"icaoId":"SBAR","flightCategory":"VFR","rawOb":"METAR SBAR 232000Z 09013KT 9999 FEW025 29/22 Q1010","temp":29,"dewp":22,"wdir":90,"wspd":13,"visib":"6+","altim":1010,"clouds":[{"cover":"FEW","base":2500}],"obsTime":1774296000},"SBAX":{"icaoId":"SBAX","flightCategory":"VFR","rawOb":"METAR SBAX 232000Z 16003KT CAVOK 28/11 Q1013","temp":28,"dewp":11,"wdir":160,"wspd":3,"visib":"6+","altim":1013,"clouds":[],"obsTime":1774296000},"SBBH":{"icaoId":"SBBH","flightCategory":"VFR","rawOb":"METAR SBBH 232000Z 28008KT 9999 SCT045 29/17 Q1011","temp":29,"dewp":17,"wdir":280,"wspd":8,"visib":"6+","altim":1011,"clouds":[{"cover":"SCT","base":4500}],"obsTime":1774296000},"SBBU":{"icaoId":"SBBU","flightCategory":"VFR","rawOb":"METAR SBBU 232000Z 20006KT 9999 SCT030 32/20 Q1011","temp":32,"dewp":20,"wdir":200,"wspd":6,"visib":"6+","altim":1011,"clouds":[{"cover":"SCT","base":3000}],"obsTime":1774296000},"SBCA":{"icaoId":"SBCA","flightCategory":"VFR","rawOb":"METAR SBCA 232000Z 33009KT 9999 FEW030 BKN070 29/22 Q1012","temp":29,"dewp":22,"wdir":330,"wspd":9,"visib":"6+","altim":1012,"clouds":[{"cover":"FEW","base":3000},{"cover":"BKN","base":7000}],"obsTime":1774296000},"SBCO":{"icaoId":"SBCO","flightCategory":"LIFR","rawOb":"METAR SBCO 232000Z 25011KT 1500 R13///// R31/P2000 TSRA BR SQ FEW003 BKN008 FEW035CB BKN100 23/23 Q1008","temp":23,"dewp":23,"wdir":250,"wspd":11,"visib":0.93,"altim":1008,"clouds":[{"cover":"FEW","base":300},{"cover":"BKN","base":800},{"cover":"FEW","base":3500},{"cover":"BKN","base":10000}],"obsTime":1774296000},"SBDN":{"icaoId":"SBDN","flightCategory":"VFR","rawOb":"METAR SBDN 232000Z 00000KT 9999 VCSH VCTS FEW045 FEW050CB 28/21 Q1010","temp":28,"dewp":21,"wdir":0,"wspd":0,"visib":"6+","altim":1010,"clouds":[{"cover":"FEW","base":4500},{"cover":"FEW","base":5000}],"obsTime":1774296000},"SBES":{"icaoId":"SBES","flightCategory":"VFR","rawOb":"METAR SBES 232000Z 03005KT 350V090 9999 -RA FEW012 SCT025 BKN050 22/// Q1011","temp":null,"dewp":null,"wdir":30,"wspd":5,"visib":"6+","altim":1011,"clouds":[{"cover":"FEW","base":1200},{"cover":"SCT","base":2500},{"cover":"BKN","base":5000}],"obsTime":1774296000},"SBIP":{"icaoId":"SBIP","flightCategory":"VFR","rawOb":"METAR SBIP 232000Z AUTO 03006KT CAVOK 29/22 Q1009","temp":29,"dewp":22,"wdir":30,"wspd":6,"visib":"6+","altim":1009,"clouds":[],"obsTime":1774296000},"SBKG":{"icaoId":"SBKG","flightCategory":"MVFR","rawOb":"METAR SBKG 232000Z 08013KT 9999 BKN025 28/22 Q1011","temp":28,"dewp":22,"wdir":80,"wspd":13,"visib":"6+","altim":1011,"clouds":[{"cover":"BKN","base":2500}],"obsTime":1774296000},"SBOI":{"icaoId":"SBOI","flightCategory":"VFR","rawOb":"METAR SBOI 232000Z AUTO 05006KT 020V090 9999 BKN034 30/24 Q1008","temp":30,"dewp":24,"wdir":50,"wspd":6,"visib":"6+","altim":1008,"clouds":[{"cover":"BKN","base":3400}],"obsTime":1774296000},"SBPB":{"icaoId":"SBPB","flightCategory":"VFR","rawOb":"METAR SBPB 232000Z 03011KT 9999 SCT016 FEW025TCU 30/25 Q1007","temp":30,"dewp":25,"wdir":30,"wspd":11,"visib":"6+","altim":1007,"clouds":[{"cover":"SCT","base":1600},{"cover":"FEW","base":2500}],"obsTime":1774296000},"SBPL":{"icaoId":"SBPL","flightCategory":"VFR","rawOb":"METAR SBPL 232000Z 01004KT 9999 FEW030 FEW035TCU 32/22 Q1008","temp":32,"dewp":22,"wdir":10,"wspd":4,"visib":"6+","altim":1008,"clouds":[{"cover":"FEW","base":3000},{"cover":"FEW","base":3500}],"obsTime":1774296000},"SBPP":{"icaoId":"SBPP","flightCategory":"VFR","rawOb":"METAR SBPP 232000Z 16003KT 9999 -TSRA SCT020 FEW025CB 26/23 Q1011","temp":26,"dewp":23,"wdir":160,"wspd":3,"visib":"6+","altim":1011,"clouds":[{"cover":"SCT","base":2000},{"cover":"FEW","base":2500}],"obsTime":1774296000},"SBPS":{"icaoId":"SBPS","flightCategory":"VFR","rawOb":"METAR SBPS 232000Z 08007KT 9999 SCT020 BKN100 26/23 Q1011","temp":26,"dewp":23,"wdir":80,"wspd":7,"visib":"6+","altim":1011,"clouds":[{"cover":"SCT","base":2000},{"cover":"BKN","base":10000}],"obsTime":1774296000},"SBSC":{"icaoId":"SBSC","flightCategory":"VFR","rawOb":"METAR SBSC 232000Z 12009KT 9999 FEW030TCU BKN040 28/21 Q1010","temp":28,"dewp":21,"wdir":120,"wspd":9,"visib":"6+","altim":1010,"clouds":[{"cover":"FEW","base":3000},{"cover":"BKN","base":4000}],"obsTime":1774296000},"SBSJ":{"icaoId":"SBSJ","flightCategory":"VFR","rawOb":"METAR SBSJ 232000Z 12014KT 9999 FEW040 26/// Q1012","temp":null,"dewp":null,"wdir":120,"wspd":14,"visib":"6+","altim":1012,"clouds":[{"cover":"FEW","base":4000}],"obsTime":1774296000},"SBSM":{"icaoId":"SBSM","flightCategory":"VFR","rawOb":"METAR SBSM 232000Z 01003KT 9999 VCSH FEW007 SCT040 FEW045TCU 24/23 Q1007","temp":24,"dewp":23,"wdir":10,"wspd":3,"visib":"6+","altim":1007,"clouds":[{"cover":"FEW","base":700},{"cover":"SCT","base":4000},{"cover":"FEW","base":4500}],"obsTime":1774296000},"SBSR":{"icaoId":"SBSR","flightCategory":"VFR","rawOb":"METAR SBSR 232000Z VRB03KT 9999 FEW045 SCT100 32/17 Q1010","temp":32,"dewp":17,"wdir":"VRB","wspd":3,"visib":"6+","altim":1010,"clouds":[{"cover":"FEW","base":4500},{"cover":"SCT","base":10000}],"obsTime":1774296000},"SBTF":{"icaoId":"SBTF","flightCategory":"VFR","rawOb":"METAR SBTF 232000Z 14006KT 9999 SCT020 36/24 Q1004","temp":36,"dewp":24,"wdir":140,"wspd":6,"visib":"6+","altim":1004,"clouds":[{"cover":"SCT","base":2000}],"obsTime":1774296000},"SBTT":{"icaoId":"SBTT","flightCategory":"VFR","rawOb":"METAR SBTT 232000Z 33007KT 9999 FEW030 SCT090 28/20 Q1007","temp":28,"dewp":20,"wdir":330,"wspd":7,"visib":"6+","altim":1007,"clouds":[{"cover":"FEW","base":3000},{"cover":"SCT","base":9000}],"obsTime":1774296000},"SBUY":{"icaoId":"SBUY","flightCategory":"VFR","rawOb":"METAR SBUY 232000Z 02004KT 9999 -RA SCT025 BKN090 25/25 Q1004","temp":25,"dewp":25,"wdir":20,"wspd":4,"visib":"6+","altim":1004,"clouds":[{"cover":"SCT","base":2500},{"cover":"BKN","base":9000}],"obsTime":1774296000},"SBVH":{"icaoId":"SBVH","flightCategory":"VFR","rawOb":"METAR SBVH 232000Z 25007KT 9999 TS SCT030 FEW040CB BKN091 26/23 Q1010","temp":26,"dewp":23,"wdir":250,"wspd":7,"visib":"6+","altim":1010,"clouds":[{"cover":"SCT","base":3000},{"cover":"FEW","base":4000},{"cover":"BKN","base":9100}],"obsTime":1774296000},"SBCC":{"icaoId":"SBCC","flightCategory":"VFR","rawOb":"METAR SBCC 232000Z 08004KT 020V150 9999 SCT020 FEW025TCU SCT100 27/23 Q1008","temp":27,"dewp":23,"wdir":80,"wspd":4,"visib":"6+","altim":1008,"clouds":[{"cover":"SCT","base":2000},{"cover":"FEW","base":2500},{"cover":"SCT","base":10000}],"obsTime":1774296000},"SBMT":{"icaoId":"SBMT","flightCategory":"VFR","rawOb":"METAR SBMT 232000Z 14010KT 110V180 9999 FEW030 25/18 Q1013","temp":25,"dewp":18,"wdir":140,"wspd":10,"visib":"6+","altim":1013,"clouds":[{"cover":"FEW","base":3000}],"obsTime":1774296000},"SBST":{"icaoId":"SBST","flightCategory":"VFR","rawOb":"METAR SBST 232000Z 15006KT 9999 SCT023 26/22 Q1010","temp":26,"dewp":22,"wdir":150,"wspd":6,"visib":"6+","altim":1010,"clouds":[{"cover":"SCT","base":2300}],"obsTime":1774296000},"SBTA":{"icaoId":"SBTA","flightCategory":"VFR","rawOb":"METAR SBTA 232000Z 17007KT 110V200 9999 FEW045 28/17 Q1011","temp":28,"dewp":17,"wdir":170,"wspd":7,"visib":"6+","altim":1011,"clouds":[{"cover":"FEW","base":4500}],"obsTime":1774296000},"SBIH":{"icaoId":"SBIH","flightCategory":"VFR","rawOb":"METAR SBIH 232000Z COR 31017KT 9999 TS VCSH SCT020 FEW025CB 28/24 Q1006","temp":28,"dewp":24,"wdir":310,"wspd":17,"visib":"6+","altim":1006,"clouds":[{"cover":"SCT","base":2000},{"cover":"FEW","base":2500}],"obsTime":1774296000},"SBJP":{"icaoId":"SBJP","flightCategory":"VFR","rawOb":"METAR SBJP 232000Z 07010KT 9999 SCT030 29/24 Q1010","temp":29,"dewp":24,"wdir":70,"wspd":10,"visib":"6+","altim":1010,"clouds":[{"cover":"SCT","base":3000}],"obsTime":1774296000},"SBNM":{"icaoId":"SBNM","flightCategory":"MVFR","rawOb":"METAR SBNM 232000Z 30002KT 9999 VCSH FEW006 BKN020 FEW030TCU 26/25 Q1009","temp":26,"dewp":25,"wdir":300,"wspd":2,"visib":"6+","altim":1009,"clouds":[{"cover":"FEW","base":600},{"cover":"BKN","base":2000},{"cover":"FEW","base":3000}],"obsTime":1774296000},"SBPF":{"icaoId":"SBPF","flightCategory":"VFR","rawOb":"METAR SBPF 232000Z COR 24017KT 9999 VCTS SCT010 FEW040CB BKN050 26/20 Q1011","temp":26,"dewp":20,"wdir":240,"wspd":17,"visib":"6+","altim":1011,"clouds":[{"cover":"SCT","base":1000},{"cover":"FEW","base":4000},{"cover":"BKN","base":5000}],"obsTime":1774296000},"SBAF":{"icaoId":"SBAF","flightCategory":"VFR","rawOb":"METAR SBAF 232000Z 08010KT 9999 FEW025 BKN040 27/21 Q1011","temp":27,"dewp":21,"wdir":80,"wspd":10,"visib":"6+","altim":1011,"clouds":[{"cover":"FEW","base":2500},{"cover":"BKN","base":4000}],"obsTime":1774296000},"SBGW":{"icaoId":"SBGW","flightCategory":"VFR","rawOb":"METAR SBGW 232000Z 02003KT 340V060 9999 FEW035 29/15 Q1011","temp":29,"dewp":15,"wdir":20,"wspd":3,"visib":"6+","altim":1011,"clouds":[{"cover":"FEW","base":3500}],"obsTime":1774296000},"SBLE":{"icaoId":"SBLE","flightCategory":"VFR","rawOb":"METAR SBLE 232000Z AUTO VRB02KT CAVOK 25/23 Q1012","temp":25,"dewp":23,"wdir":"VRB","wspd":2,"visib":"6+","altim":1012,"clouds":[],"obsTime":1774296000},"SBJR":{"icaoId":"SBJR","flightCategory":"VFR","rawOb":"METAR SBJR 232000Z 04003KT 9999 SCT030 29/20 Q1010","temp":29,"dewp":20,"wdir":40,"wspd":3,"visib":"6+","altim":1010,"clouds":[{"cover":"SCT","base":3000}],"obsTime":1774296000},"SBAN":{"icaoId":"SBAN","flightCategory":"VFR","rawOb":"METAR SBAN 232000Z 28005KT 9999 SCT030 FEW040TCU 28/18 Q1014","temp":28,"dewp":18,"wdir":280,"wspd":5,"visib":"6+","altim":1014,"clouds":[{"cover":"SCT","base":3000},{"cover":"FEW","base":4000}],"obsTime":1774296000},"SBLS":{"icaoId":"SBLS","flightCategory":"VFR","rawOb":"METAR SBLS 232000Z VRB01KT 9999 SCT045 27/19 Q1011","temp":27,"dewp":19,"wdir":"VRB","wspd":1,"visib":"6+","altim":1011,"clouds":[{"cover":"SCT","base":4500}],"obsTime":1774296000},"SBJV":{"icaoId":"SBJV","flightCategory":"VFR","rawOb":"METAR SBJV 232000Z 05009KT 9999 FEW030 29/23 Q1009","temp":29,"dewp":23,"wdir":50,"wspd":9,"visib":"6+","altim":1009,"clouds":[{"cover":"FEW","base":3000}],"obsTime":1774296000}}}