{"updated":1775215715,"count":81,"data":{"SBVT":{"icaoId":"SBVT","flightCategory":"VFR","rawOb":"METAR SBVT 031000Z 33002KT CAVOK 23/23 Q1016","temp":23,"dewp":23,"wdir":330,"wspd":2,"visib":"6+","altim":1016,"clouds":[],"obsTime":1775210400},"SBBE":{"icaoId":"SBBE","flightCategory":"VFR","rawOb":"METAR SBBE 031000Z 10003KT CAVOK 24/24 Q1012","temp":24,"dewp":24,"wdir":100,"wspd":3,"visib":"6+","altim":1012,"clouds":[],"obsTime":1775210400},"SBBR":{"icaoId":"SBBR","flightCategory":"VFR","rawOb":"METAR SBBR 031000Z 14004KT 9999 SCT030 BKN100 20/19 Q1020","temp":20,"dewp":19,"wdir":140,"wspd":4,"visib":"6+","altim":1020,"clouds":[{"cover":"SCT","base":3000},{"cover":"BKN","base":10000}],"obsTime":1775210400},"SBBV":{"icaoId":"SBBV","flightCategory":"VFR","rawOb":"METAR SBBV 031000Z 08007KT CAVOK 26/23 Q1011","temp":26,"dewp":23,"wdir":80,"wspd":7,"visib":"6+","altim":1011,"clouds":[],"obsTime":1775210400},"SBCB":{"icaoId":"SBCB","flightCategory":"VFR","rawOb":"METAR SBCB 031000Z 04009KT 9999 SCT020 SCT050 25/23 Q1014","temp":25,"dewp":23,"wdir":40,"wspd":9,"visib":"6+","altim":1014,"clouds":[{"cover":"SCT","base":2000},{"cover":"SCT","base":5000}],"obsTime":1775210400},"SBCF":{"icaoId":"SBCF","flightCategory":"VFR","rawOb":"METAR SBCF 031000Z 16003KT CAVOK 20/18 Q1020","temp":20,"dewp":18,"wdir":160,"wspd":3,"visib":"6+","altim":1020,"clouds":[],"obsTime":1775210400},"SBCG":{"icaoId":"SBCG","flightCategory":"VFR","rawOb":"METAR SBCG 031000Z 27003KT 250V310 CAVOK 20/18 Q1016","temp":20,"dewp":18,"wdir":270,"wspd":3,"visib":"6+","altim":1016,"clouds":[],"obsTime":1775210400},"SBCP":{"icaoId":"SBCP","flightCategory":"VFR","rawOb":"METAR SBCP 031000Z 04004KT CAVOK 24/24 Q1015","temp":24,"dewp":24,"wdir":40,"wspd":4,"visib":"6+","altim":1015,"clouds":[],"obsTime":1775210400},"SBCR":{"icaoId":"SBCR","flightCategory":"VFR","rawOb":"METAR SBCR 031100Z 14004KT CAVOK 27/23 Q1013","temp":27,"dewp":23,"wdir":140,"wspd":4,"visib":"6+","altim":1013,"clouds":[],"obsTime":1775214000},"SBCT":{"icaoId":"SBCT","flightCategory":"VFR","rawOb":"METAR SBCT 031000Z 00000KT 9999 MIFG FEW005 17/17 Q1018","temp":17,"dewp":17,"wdir":0,"wspd":0,"visib":"6+","altim":1018,"clouds":[{"cover":"FEW","base":500}],"obsTime":1775210400},"SBEG":{"icaoId":"SBEG","flightCategory":"VFR","rawOb":"METAR SBEG 031000Z 07003KT CAVOK 24/23 Q1010","temp":24,"dewp":23,"wdir":70,"wspd":3,"visib":"6+","altim":1010,"clouds":[],"obsTime":1775210400},"SBFI":{"icaoId":"SBFI","flightCategory":"MVFR","rawOb":"METAR SBFI 031000Z 10006KT 8000 FEW005 21/21 Q1013","temp":21,"dewp":21,"wdir":100,"wspd":6,"visib":4.97,"altim":1013,"clouds":[{"cover":"FEW","base":500}],"obsTime":1775210400},"SBFL":{"icaoId":"SBFL","flightCategory":"VFR","rawOb":"METAR SBFL 031000Z 30012KT CAVOK 25/20 Q1012","temp":25,"dewp":20,"wdir":300,"wspd":12,"visib":"6+","altim":1012,"clouds":[],"obsTime":1775210400},"SBFZ":{"icaoId":"SBFZ","flightCategory":"VFR","rawOb":"METAR SBFZ 031000Z 19004KT 9999 VCSH FEW020TCU SCT045 25/24 Q1012","temp":25,"dewp":24,"wdir":190,"wspd":4,"visib":"6+","altim":1012,"clouds":[{"cover":"FEW","base":2000},{"cover":"SCT","base":4500}],"obsTime":1775210400},"SBGL":{"icaoId":"SBGL","flightCategory":"VFR","rawOb":"METAR SBGL 031000Z VRB02KT 9999 SCT040 25/22 Q1014","temp":25,"dewp":22,"wdir":"VRB","wspd":2,"visib":"6+","altim":1014,"clouds":[{"cover":"SCT","base":4000}],"obsTime":1775210400},"SBGO":{"icaoId":"SBGO","flightCategory":"VFR","rawOb":"SPECI SBGO 030930Z 13004KT 9999 FEW007 BKN100 20/20 Q1018","temp":20,"dewp":20,"wdir":130,"wspd":4,"visib":"6+","altim":1018,"clouds":[{"cover":"FEW","base":700},{"cover":"BKN","base":10000}],"obsTime":1775208600},"SBGR":{"icaoId":"SBGR","flightCategory":"IFR","rawOb":"SPECI SBGR 030940Z 10001KT 3500 BR FEW002 18/18 Q1018","temp":18,"dewp":18,"wdir":100,"wspd":1,"visib":2.17,"altim":1018,"clouds":[{"cover":"FEW","base":200}],"obsTime":1775209200},"SBHT":{"icaoId":"SBHT","flightCategory":"VFR","rawOb":"METAR SBHT 031000Z 00000KT 9999 FEW012 BKN090 24/23 Q1012","temp":24,"dewp":23,"wdir":0,"wspd":0,"visib":"6+","altim":1012,"clouds":[{"cover":"FEW","base":1200},{"cover":"BKN","base":9000}],"obsTime":1775210400},"SBIL":{"icaoId":"SBIL","flightCategory":"MVFR","rawOb":"SPECI SBIL 031005Z 32004KT 280V350 8000 -RA SCT015 BKN030 25/24 Q1015","temp":25,"dewp":24,"wdir":320,"wspd":4,"visib":4.97,"altim":1015,"clouds":[{"cover":"SCT","base":1500},{"cover":"BKN","base":3000}],"obsTime":1775210700},"SBJU":{"icaoId":"SBJU","flightCategory":"MVFR","rawOb":"METAR SBJU 031000Z 00000KT 9999 SCT007 BKN017 23/22 Q1016","temp":23,"dewp":22,"wdir":0,"wspd":0,"visib":"6+","altim":1016,"clouds":[{"cover":"SCT","base":700},{"cover":"BKN","base":1700}],"obsTime":1775210400},"SBKP":{"icaoId":"SBKP","flightCategory":"VFR","rawOb":"METAR SBKP 031000Z 10003KT 9999 FEW035 20/19 Q1018","temp":20,"dewp":19,"wdir":100,"wspd":3,"visib":"6+","altim":1018,"clouds":[{"cover":"FEW","base":3500}],"obsTime":1775210400},"SBLO":{"icaoId":"SBLO","flightCategory":"VFR","rawOb":"METAR SBLO 031000Z VRB01KT 9999 FEW040 SCT100 20/19 Q1017","temp":20,"dewp":19,"wdir":"VRB","wspd":1,"visib":"6+","altim":1017,"clouds":[{"cover":"FEW","base":4000},{"cover":"SCT","base":10000}],"obsTime":1775210400},"SBMA":{"icaoId":"SBMA","flightCategory":"IFR","rawOb":"METAR SBMA 031000Z 12004KT 3000 BR BKN005 OVC080 23/23 Q1013","temp":23,"dewp":23,"wdir":120,"wspd":4,"visib":1.86,"altim":1013,"clouds":[{"cover":"BKN","base":500},{"cover":"OVC","base":8000}],"obsTime":1775210400},"SBME":{"icaoId":"SBME","flightCategory":"VFR","rawOb":"METAR SBME 031000Z 05010KT CAVOK 26/23 Q1014","temp":26,"dewp":23,"wdir":50,"wspd":10,"visib":"6+","altim":1014,"clouds":[],"obsTime":1775210400},"SBMG":{"icaoId":"SBMG","flightCategory":"VFR","rawOb":"METAR SBMG 031000Z 18002KT CAVOK 22/19 Q1015","temp":22,"dewp":19,"wdir":180,"wspd":2,"visib":"6+","altim":1015,"clouds":[],"obsTime":1775210400},"SBMK":{"icaoId":"SBMK","flightCategory":"VFR","rawOb":"METAR SBMK 031000Z 00000KT CAVOK 20/18 Q1019","temp":20,"dewp":18,"wdir":0,"wspd":0,"visib":"6+","altim":1019,"clouds":[],"obsTime":1775210400},"SBMO":{"icaoId":"SBMO","flightCategory":"VFR","rawOb":"METAR SBMO 031000Z 30003KT 9999 SCT017 25/24 Q1014","temp":25,"dewp":24,"wdir":300,"wspd":3,"visib":"6+","altim":1014,"clouds":[{"cover":"SCT","base":1700}],"obsTime":1775210400},"SBMQ":{"icaoId":"SBMQ","flightCategory":"VFR","rawOb":"METAR SBMQ 031000Z 12002KT 9999 SCT009 SCT016 25/24 Q1011","temp":25,"dewp":24,"wdir":120,"wspd":2,"visib":"6+","altim":1011,"clouds":[{"cover":"SCT","base":900},{"cover":"SCT","base":1600}],"obsTime":1775210400},"SBNT":{"icaoId":"SBNT","flightCategory":"VFR","rawOb":"METAR SBNT 031000Z 17006KT 9999 FEW015 SCT023 26/24 Q1013","temp":26,"dewp":24,"wdir":170,"wspd":6,"visib":"6+","altim":1013,"clouds":[{"cover":"FEW","base":1500},{"cover":"SCT","base":2300}],"obsTime":1775210400},"SBPA":{"icaoId":"SBPA","flightCategory":"IFR","rawOb":"METAR SBPA 031000Z 08004KT 4000 BR FEW009 22/21 Q1012","temp":22,"dewp":21,"wdir":80,"wspd":4,"visib":2.49,"altim":1012,"clouds":[{"cover":"FEW","base":900}],"obsTime":1775210400},"SBPJ":{"icaoId":"SBPJ","flightCategory":"VFR","rawOb":"METAR SBPJ 031000Z 12003KT 9999 FEW030 SCT100 24/21 Q1014","temp":24,"dewp":21,"wdir":120,"wspd":3,"visib":"6+","altim":1014,"clouds":[{"cover":"FEW","base":3000},{"cover":"SCT","base":10000}],"obsTime":1775210400},"SBPV":{"icaoId":"SBPV","flightCategory":"VFR","rawOb":"METAR SBPV 031000Z 16001KT CAVOK 24/23 Q1011","temp":24,"dewp":23,"wdir":160,"wspd":1,"visib":"6+","altim":1011,"clouds":[],"obsTime":1775210400},"SBRB":{"icaoId":"SBRB","flightCategory":"VFR","rawOb":"METAR SBRB 031000Z 24002KT 9999 FEW007 BKN100 23/23 Q1011","temp":23,"dewp":23,"wdir":240,"wspd":2,"visib":"6+","altim":1011,"clouds":[{"cover":"FEW","base":700},{"cover":"BKN","base":10000}],"obsTime":1775210400},"SBRF":{"icaoId":"SBRF","flightCategory":"VFR","rawOb":"METAR SBRF 031000Z 23002KT 9999 FEW022 FEW025TCU 27/24 Q1013","temp":27,"dewp":24,"wdir":230,"wspd":2,"visib":"6+","altim":1013,"clouds":[{"cover":"FEW","base":2200},{"cover":"FEW","base":2500}],"obsTime":1775210400},"SBSG":{"icaoId":"SBSG","flightCategory":"VFR","rawOb":"METAR SBSG 031000Z 19004KT 160V220 9999 FEW022 25/24 Q1013","temp":25,"dewp":24,"wdir":190,"wspd":4,"visib":"6+","altim":1013,"clouds":[{"cover":"FEW","base":2200}],"obsTime":1775210400},"SBSL":{"icaoId":"SBSL","flightCategory":"VFR","rawOb":"METAR SBSL 031000Z 15005KT 9999 FEW017 25/24 Q1012","temp":25,"dewp":24,"wdir":150,"wspd":5,"visib":"6+","altim":1012,"clouds":[{"cover":"FEW","base":1700}],"obsTime":1775210400},"SBSN":{"icaoId":"SBSN","flightCategory":"VFR","rawOb":"METAR SBSN 031000Z 17003KT 9999 SCT010 SCT015 24/24 Q1010","temp":24,"dewp":24,"wdir":170,"wspd":3,"visib":"6+","altim":1010,"clouds":[{"cover":"SCT","base":1000},{"cover":"SCT","base":1500}],"obsTime":1775210400},"SBSP":{"icaoId":"SBSP","flightCategory":"VFR","rawOb":"METAR SBSP 031000Z VRB02KT CAVOK 21/18 Q1019","temp":21,"dewp":18,"wdir":"VRB","wspd":2,"visib":"6+","altim":1019,"clouds":[],"obsTime":1775210400},"SBSV":{"icaoId":"SBSV","flightCategory":"VFR","rawOb":"METAR SBSV 031000Z 31003KT 290V360 9999 VCSH FEW023 FEW025TCU SCT100 25/24 Q1015","temp":25,"dewp":24,"wdir":310,"wspd":3,"visib":"6+","altim":1015,"clouds":[{"cover":"FEW","base":2300},{"cover":"FEW","base":2500},{"cover":"SCT","base":10000}],"obsTime":1775210400},"SBTE":{"icaoId":"SBTE","flightCategory":"IFR","rawOb":"METAR SBTE 031000Z 17006KT 9999 BKN008 BKN100 24/23 Q1012","temp":24,"dewp":23,"wdir":170,"wspd":6,"visib":"6+","altim":1012,"clouds":[{"cover":"BKN","base":800},{"cover":"BKN","base":10000}],"obsTime":1775210400},"SBUL":{"icaoId":"SBUL","flightCategory":"VFR","rawOb":"METAR SBUL 031000Z 12003KT 9999 SCT020 BKN090 19/18 Q1021","temp":19,"dewp":18,"wdir":120,"wspd":3,"visib":"6+","altim":1021,"clouds":[{"cover":"SCT","base":2000},{"cover":"BKN","base":9000}],"obsTime":1775210400},"SBUR":{"icaoId":"SBUR","flightCategory":"VFR","rawOb":"METAR SBUR 031000Z 02006KT CAVOK 20/18 Q1019","temp":20,"dewp":18,"wdir":20,"wspd":6,"visib":"6+","altim":1019,"clouds":[],"obsTime":1775210400},"SBAT":{"icaoId":"SBAT","flightCategory":"VFR","rawOb":"METAR SBAT 031100Z 15003KT CAVOK 26/24 Q1014","temp":26,"dewp":24,"wdir":150,"wspd":3,"visib":"6+","altim":1014,"clouds":[],"obsTime":1775214000},"SBSJ":{"icaoId":"SBSJ","flightCategory":"LIFR","rawOb":"METAR SBSJ 031000Z VRB02KT 1500 R34///// R16///// BR BKN002 19/19 Q1018","temp":19,"dewp":19,"wdir":"VRB","wspd":2,"visib":0.93,"altim":1018,"clouds":[{"cover":"BKN","base":200}],"obsTime":1775210400},"SBTF":{"icaoId":"SBTF","flightCategory":"VFR","rawOb":"SPECI SBTF 031115Z 15003KT 9999 FEW010 BKN100 25/25 Q1010","temp":25,"dewp":25,"wdir":150,"wspd":3,"visib":"6+","altim":1010,"clouds":[{"cover":"FEW","base":1000},{"cover":"BKN","base":10000}],"obsTime":1775214900},"SBPP":{"icaoId":"SBPP","flightCategory":"VFR","rawOb":"SPECI SBPP 031115Z 01005KT CAVOK 23/19 Q1017","temp":23,"dewp":19,"wdir":10,"wspd":5,"visib":"6+","altim":1017,"clouds":[],"obsTime":1775214900},"SBOI":{"icaoId":"SBOI","flightCategory":"LIFR","rawOb":"METAR SBOI 031000Z AUTO VRB02KT 2400 // FEW001/// OVC004/// 24/23 Q1011","temp":24,"dewp":23,"wdir":"VRB","wspd":2,"visib":1.49,"altim":1011,"clouds":[{"cover":"FEW","base":100},{"cover":"OVC","base":400}],"obsTime":1775210400},"SBSC":{"icaoId":"SBSC","flightCategory":"VFR","rawOb":"METAR SBSC 031000Z 03008KT 9999 FEW030 BKN080 25/22 Q1014","temp":25,"dewp":22,"wdir":30,"wspd":8,"visib":"6+","altim":1014,"clouds":[{"cover":"FEW","base":3000},{"cover":"BKN","base":8000}],"obsTime":1775210400},"SBCO":{"icaoId":"SBCO","flightCategory":"LIFR","rawOb":"METAR SBCO 031000Z 11003KT 0800 R13///// R31/P2000 FG SCT004 20/20 Q1012","temp":20,"dewp":20,"wdir":110,"wspd":3,"visib":0.5,"altim":1012,"clouds":[{"cover":"SCT","base":400}],"obsTime":1775210400},"SBBH":{"icaoId":"SBBH","flightCategory":"VFR","rawOb":"METAR SBBH 031000Z 00000KT CAVOK 21/18 Q1020","temp":21,"dewp":18,"wdir":0,"wspd":0,"visib":"6+","altim":1020,"clouds":[],"obsTime":1775210400},"SBSM":{"icaoId":"SBSM","flightCategory":"VFR","rawOb":"METAR SBSM 031000Z 07003KT 9999 BCFG NSC 19/19 Q1013","temp":19,"dewp":19,"wdir":70,"wspd":3,"visib":"6+","altim":1013,"clouds":[],"obsTime":1775210400},"SBDN":{"icaoId":"SBDN","flightCategory":"VFR","rawOb":"METAR SBDN 031000Z 09001KT CAVOK 22/19 Q1015","temp":22,"dewp":19,"wdir":90,"wspd":1,"visib":"6+","altim":1015,"clouds":[],"obsTime":1775210400},"SBSR":{"icaoId":"SBSR","flightCategory":"VFR","rawOb":"METAR SBSR 031000Z 03005KT 9999 FEW030 SCT070 22/20 Q1017","temp":22,"dewp":20,"wdir":30,"wspd":5,"visib":"6+","altim":1017,"clouds":[{"cover":"FEW","base":3000},{"cover":"SCT","base":7000}],"obsTime":1775210400},"SBTT":{"icaoId":"SBTT","flightCategory":"MVFR","rawOb":"METAR SBTT 031100Z 34007KT 9999 BKN010 24/22 Q1011","temp":24,"dewp":22,"wdir":340,"wspd":7,"visib":"6+","altim":1011,"clouds":[{"cover":"BKN","base":1000}],"obsTime":1775214000},"SBUY":{"icaoId":"SBUY","flightCategory":"MVFR","rawOb":"METAR SBUY 031100Z 29001KT 5000 BR FEW002 BKN066 23/23 Q1010","temp":23,"dewp":23,"wdir":290,"wspd":1,"visib":3.11,"altim":1010,"clouds":[{"cover":"FEW","base":200},{"cover":"BKN","base":6600}],"obsTime":1775214000},"SBVH":{"icaoId":"SBVH","flightCategory":"VFR","rawOb":"METAR SBVH 031100Z 08005KT 9999 VCFG SCT003 SCT091 21/21 Q1015","temp":21,"dewp":21,"wdir":80,"wspd":5,"visib":"6+","altim":1015,"clouds":[{"cover":"SCT","base":300},{"cover":"SCT","base":9100}],"obsTime":1775214000},"SBAX":{"icaoId":"SBAX","flightCategory":"VFR","rawOb":"METAR SBAX 031000Z AUTO 19004KT 9999 -RA NSC ///// Q1021","temp":null,"dewp":null,"wdir":190,"wspd":4,"visib":"6+","altim":1021,"clouds":[],"obsTime":1775210400},"SBES":{"icaoId":"SBES","flightCategory":"VFR","rawOb":"METAR SBES 031000Z VRB05KT 9999 FEW010 SCT090 23/// Q1014","temp":null,"dewp":null,"wdir":"VRB","wspd":5,"visib":"6+","altim":1014,"clouds":[{"cover":"FEW","base":1000},{"cover":"SCT","base":9000}],"obsTime":1775210400},"SBBU":{"icaoId":"SBBU","flightCategory":"VFR","rawOb":"METAR SBBU 031000Z 03004KT CAVOK 22/21 Q1017","temp":22,"dewp":21,"wdir":30,"wspd":4,"visib":"6+","altim":1017,"clouds":[],"obsTime":1775210400},"SBIP":{"icaoId":"SBIP","flightCategory":"MVFR","rawOb":"METAR SBIP 031000Z AUTO 20002KT 9999 OVC030 22/22 Q1018","temp":22,"dewp":22,"wdir":200,"wspd":2,"visib":"6+","altim":1018,"clouds":[{"cover":"OVC","base":3000}],"obsTime":1775210400},"SBCA":{"icaoId":"SBCA","flightCategory":"VFR","rawOb":"METAR SBCA 031100Z 02007KT CAVOK 23/19 Q1018","temp":23,"dewp":19,"wdir":20,"wspd":7,"visib":"6+","altim":1018,"clouds":[],"obsTime":1775214000},"SBKG":{"icaoId":"SBKG","flightCategory":"VFR","rawOb":"METAR SBKG 031000Z 13005KT 9999 FEW015 24/22 Q1016","temp":24,"dewp":22,"wdir":130,"wspd":5,"visib":"6+","altim":1016,"clouds":[{"cover":"FEW","base":1500}],"obsTime":1775210400},"SBCC":{"icaoId":"SBCC","flightCategory":"MVFR","rawOb":"METAR SBCC 031100Z 08006KT 8000 FEW015 SCT020 BKN100 21/21 Q1015","temp":21,"dewp":21,"wdir":80,"wspd":6,"visib":4.97,"altim":1015,"clouds":[{"cover":"FEW","base":1500},{"cover":"SCT","base":2000},{"cover":"BKN","base":10000}],"obsTime":1775214000},"SBPL":{"icaoId":"SBPL","flightCategory":"VFR","rawOb":"METAR SBPL 031000Z 14003KT 9999 SCT018 SCT020 24/23 Q1016","temp":24,"dewp":23,"wdir":140,"wspd":3,"visib":"6+","altim":1016,"clouds":[{"cover":"SCT","base":1800},{"cover":"SCT","base":2000}],"obsTime":1775210400},"SBCJ":{"icaoId":"SBCJ","flightCategory":"VFR","rawOb":"SPECI SBCJ 031015Z 14005KT CAVOK 22/20 Q1016","temp":22,"dewp":20,"wdir":140,"wspd":5,"visib":"6+","altim":1016,"clouds":[],"obsTime":1775211300},"SBPS":{"icaoId":"SBPS","flightCategory":"VFR","rawOb":"METAR SBPS 031000Z 26004KT 9999 SCT017 BKN100 24/23 Q1016","temp":24,"dewp":23,"wdir":260,"wspd":4,"visib":"6+","altim":1016,"clouds":[{"cover":"SCT","base":1700},{"cover":"BKN","base":10000}],"obsTime":1775210400},"SBAR":{"icaoId":"SBAR","flightCategory":"VFR","rawOb":"METAR SBAR 031000Z 30003KT 9999 VCSH SCT020 FEW024TCU 25/24 Q1014","temp":25,"dewp":24,"wdir":300,"wspd":3,"visib":"6+","altim":1014,"clouds":[{"cover":"SCT","base":2000},{"cover":"FEW","base":2400}],"obsTime":1775210400},"SBPB":{"icaoId":"SBPB","flightCategory":"VFR","rawOb":"SPECI SBPB 031015Z 17003KT 9999 SCT018 BKN070 25/24 Q1012","temp":25,"dewp":24,"wdir":170,"wspd":3,"visib":"6+","altim":1012,"clouds":[{"cover":"SCT","base":1800},{"cover":"BKN","base":7000}],"obsTime":1775211300},"SBLE":{"icaoId":"SBLE","flightCategory":"VFR","rawOb":"METAR SBLE 031000Z AUTO VRB02KT 9999 FEW002 SCT028 BKN032 ///// Q////","temp":null,"dewp":null,"wdir":"VRB","wspd":2,"visib":"6+","altim":null,"clouds":[{"cover":"FEW","base":200},{"cover":"SCT","base":2800},{"cover":"BKN","base":3200}],"obsTime":1775210400},"SBJP":{"icaoId":"SBJP","flightCategory":"VFR","rawOb":"METAR SBJP 031000Z 18004KT 9999 FEW020 26/23 Q1014","temp":26,"dewp":23,"wdir":180,"wspd":4,"visib":"6+","altim":1014,"clouds":[{"cover":"FEW","base":2000}],"obsTime":1775210400},"SBAN":{"icaoId":"SBAN","flightCategory":"LIFR","rawOb":"METAR SBAN 031000Z 16009KT 0400 R24R/0400D R06L/0600D FG BKN001 18/17 Q1021","temp":18,"dewp":17,"wdir":160,"wspd":9,"visib":0.25,"altim":1021,"clouds":[{"cover":"BKN","base":100}],"obsTime":1775210400},"SBIH":{"icaoId":"SBIH","flightCategory":"VFR","rawOb":"METAR SBIH 031100Z 02007KT 9999 FEW007 25/24 Q1011","temp":25,"dewp":24,"wdir":20,"wspd":7,"visib":"6+","altim":1011,"clouds":[{"cover":"FEW","base":700}],"obsTime":1775214000},"SBJV":{"icaoId":"SBJV","flightCategory":"VFR","rawOb":"METAR SBJV 031000Z 16001KT CAVOK 22/22 Q1012","temp":22,"dewp":22,"wdir":160,"wspd":1,"visib":"6+","altim":1012,"clouds":[],"obsTime":1775210400},"SBPF":{"icaoId":"SBPF","flightCategory":"VFR","rawOb":"METAR SBPF 031000Z 07010KT CAVOK 19/17 Q1016","temp":19,"dewp":17,"wdir":70,"wspd":10,"visib":"6+","altim":1016,"clouds":[],"obsTime":1775210400},"SBAF":{"icaoId":"SBAF","flightCategory":"VFR","rawOb":"METAR SBAF 031000Z 26002KT 9999 SCT040 BKN080 23/23 Q1014","temp":23,"dewp":23,"wdir":260,"wspd":2,"visib":"6+","altim":1014,"clouds":[{"cover":"SCT","base":4000},{"cover":"BKN","base":8000}],"obsTime":1775210400},"SBGW":{"icaoId":"SBGW","flightCategory":"LIFR","rawOb":"METAR SBGW 031000Z VRB01KT 2000 BR BKN003 20/17 Q1017","temp":20,"dewp":17,"wdir":"VRB","wspd":1,"visib":1.24,"altim":1017,"clouds":[{"cover":"BKN","base":300}],"obsTime":1775210400},"SBJR":{"icaoId":"SBJR","flightCategory":"VFR","rawOb":"METAR SBJR 031000Z 03004KT 9999 SCT040 BKN080 25/22 Q1013","temp":25,"dewp":22,"wdir":30,"wspd":4,"visib":"6+","altim":1013,"clouds":[{"cover":"SCT","base":4000},{"cover":"BKN","base":8000}],"obsTime":1775210400},"SBLS":{"icaoId":"SBLS","flightCategory":"VFR","rawOb":"METAR SBLS 031000Z 16006KT 9999 FEW025 BKN100 20/18 Q1020","temp":20,"dewp":18,"wdir":160,"wspd":6,"visib":"6+","altim":1020,"clouds":[{"cover":"FEW","base":2500},{"cover":"BKN","base":10000}],"obsTime":1775210400},"SBMT":{"icaoId":"SBMT","flightCategory":"MVFR","rawOb":"METAR SBMT 031000Z VRB02KT 8000 NSC 19/19 Q1018","temp":19,"dewp":19,"wdir":"VRB","wspd":2,"visib":4.97,"altim":1018,"clouds":[],"obsTime":1775210400},"SBST":{"icaoId":"SBST","flightCategory":"VFR","rawOb":"METAR SBST 031100Z VRB02KT CAVOK 23/23 Q1014","temp":23,"dewp":23,"wdir":"VRB","wspd":2,"visib":"6+","altim":1014,"clouds":[],"obsTime":1775214000},"SBTA":{"icaoId":"SBTA","flightCategory":"VFR","rawOb":"METAR SBTA 031000Z 00000KT CAVOK 18/18 Q1017","temp":18,"dewp":18,"wdir":0,"wspd":0,"visib":"6+","altim":1017,"clouds":[],"obsTime":1775210400}}}