{"updated":1774470354,"count":84,"data":{"SBEG":{"icaoId":"SBEG","flightCategory":"LIFR","rawOb":"SPECI SBEG 251834Z 26015G26KT 0500 R29/1100U R11/1200N +TSRA SCT004 BKN008 FEW025CB BKN080 23/23 Q1012","temp":23,"dewp":23,"wdir":260,"wspd":15,"visib":0.31,"altim":1012,"clouds":[{"cover":"SCT","base":400},{"cover":"BKN","base":800},{"cover":"FEW","base":2500},{"cover":"BKN","base":8000}],"obsTime":1774463640},"SBAT":{"icaoId":"SBAT","flightCategory":"VFR","rawOb":"METAR SBAT 251900Z 13003KT 9999 VCSH SCT030 BKN100 25/23 Q1009 RETS","temp":25,"dewp":23,"wdir":130,"wspd":3,"visib":"6+","altim":1009,"clouds":[{"cover":"SCT","base":3000},{"cover":"BKN","base":10000}],"obsTime":1774465200},"SBJU":{"icaoId":"SBJU","flightCategory":"VFR","rawOb":"METAR SBJU 251900Z 10005KT 9999 SCT022 30/22 Q1011","temp":30,"dewp":22,"wdir":100,"wspd":5,"visib":"6+","altim":1011,"clouds":[{"cover":"SCT","base":2200}],"obsTime":1774465200},"SBCB":{"icaoId":"SBCB","flightCategory":"VFR","rawOb":"METAR SBCB 251900Z 07016KT CAVOK 29/23 Q1014","temp":29,"dewp":23,"wdir":70,"wspd":16,"visib":"6+","altim":1014,"clouds":[],"obsTime":1774465200},"SBKP":{"icaoId":"SBKP","flightCategory":"VFR","rawOb":"METAR SBKP 251900Z VRB02KT 9999 VCSH FEW030 FEW040TCU 28/18 Q1015","temp":28,"dewp":18,"wdir":"VRB","wspd":2,"visib":"6+","altim":1015,"clouds":[{"cover":"FEW","base":3000},{"cover":"FEW","base":4000}],"obsTime":1774465200},"SBLO":{"icaoId":"SBLO","flightCategory":"VFR","rawOb":"METAR SBLO 251900Z 08004KT 320V130 CAVOK 29/19 Q1013","temp":29,"dewp":19,"wdir":80,"wspd":4,"visib":"6+","altim":1013,"clouds":[],"obsTime":1774465200},"SBCT":{"icaoId":"SBCT","flightCategory":"VFR","rawOb":"METAR SBCT 251900Z 12010KT 9999 SCT030 25/20 Q1017","temp":25,"dewp":20,"wdir":120,"wspd":10,"visib":"6+","altim":1017,"clouds":[{"cover":"SCT","base":3000}],"obsTime":1774465200},"SBMA":{"icaoId":"SBMA","flightCategory":"VFR","rawOb":"METAR SBMA 251900Z 32005KT 9999 FEW020 FEW023TCU BKN100 30/25 Q1009","temp":30,"dewp":25,"wdir":320,"wspd":5,"visib":"6+","altim":1009,"clouds":[{"cover":"FEW","base":2000},{"cover":"FEW","base":2300},{"cover":"BKN","base":10000}],"obsTime":1774465200},"SBCF":{"icaoId":"SBCF","flightCategory":"VFR","rawOb":"METAR SBCF 251900Z 36008KT 340V040 9999 VCSH SCT036 FEW040TCU SCT080 24/20 Q1017","temp":24,"dewp":20,"wdir":360,"wspd":8,"visib":"6+","altim":1017,"clouds":[{"cover":"SCT","base":3600},{"cover":"FEW","base":4000},{"cover":"SCT","base":8000}],"obsTime":1774465200},"SBCZ":{"icaoId":"SBCZ","flightCategory":"MVFR","rawOb":"METAR SBCZ 251900Z 30006KT 9999 BKN030 33/24 Q1006","temp":33,"dewp":24,"wdir":300,"wspd":6,"visib":"6+","altim":1006,"clouds":[{"cover":"BKN","base":3000}],"obsTime":1774465200},"SBME":{"icaoId":"SBME","flightCategory":"VFR","rawOb":"METAR SBME 251900Z 11010KT 9999 FEW040 30/22 Q1013","temp":30,"dewp":22,"wdir":110,"wspd":10,"visib":"6+","altim":1013,"clouds":[{"cover":"FEW","base":4000}],"obsTime":1774465200},"SBMG":{"icaoId":"SBMG","flightCategory":"VFR","rawOb":"METAR SBMG 251900Z 19004KT 110V270 9999 SCT045 FEW050TCU 31/20 Q1012","temp":31,"dewp":20,"wdir":190,"wspd":4,"visib":"6+","altim":1012,"clouds":[{"cover":"SCT","base":4500},{"cover":"FEW","base":5000}],"obsTime":1774465200},"SBBR":{"icaoId":"SBBR","flightCategory":"VFR","rawOb":"METAR SBBR 251900Z 07009KT 040V110 9999 SCT040 FEW045TCU 25/17 Q1017","temp":25,"dewp":17,"wdir":70,"wspd":9,"visib":"6+","altim":1017,"clouds":[{"cover":"SCT","base":4000},{"cover":"FEW","base":4500}],"obsTime":1774465200},"SBTE":{"icaoId":"SBTE","flightCategory":"VFR","rawOb":"METAR SBTE 251900Z 13006KT 9999 SCT020 FEW025TCU 32/22 Q1008","temp":32,"dewp":22,"wdir":130,"wspd":6,"visib":"6+","altim":1008,"clouds":[{"cover":"SCT","base":2000},{"cover":"FEW","base":2500}],"obsTime":1774465200},"SBMO":{"icaoId":"SBMO","flightCategory":"VFR","rawOb":"METAR SBMO 251900Z 12013KT 9999 SCT030 30/23 Q1011","temp":30,"dewp":23,"wdir":120,"wspd":13,"visib":"6+","altim":1011,"clouds":[{"cover":"SCT","base":3000}],"obsTime":1774465200},"SBMQ":{"icaoId":"SBMQ","flightCategory":"VFR","rawOb":"METAR SBMQ 251900Z 09005KT 9999 SCT020 SCT090 29/24 Q1008","temp":29,"dewp":24,"wdir":90,"wspd":5,"visib":"6+","altim":1008,"clouds":[{"cover":"SCT","base":2000},{"cover":"SCT","base":9000}],"obsTime":1774465200},"SBCR":{"icaoId":"SBCR","flightCategory":"VFR","rawOb":"METAR SBCR 251900Z 29004KT 210V350 9999 SCT035 32/23 Q1008","temp":32,"dewp":23,"wdir":290,"wspd":4,"visib":"6+","altim":1008,"clouds":[{"cover":"SCT","base":3500}],"obsTime":1774465200},"SBHT":{"icaoId":"SBHT","flightCategory":"MVFR","rawOb":"METAR SBHT 251900Z 11005KT 9999 BKN030 32/23 Q1008","temp":32,"dewp":23,"wdir":110,"wspd":5,"visib":"6+","altim":1008,"clouds":[{"cover":"BKN","base":3000}],"obsTime":1774465200},"SBIL":{"icaoId":"SBIL","flightCategory":"VFR","rawOb":"METAR SBIL 251900Z VRB02KT 9999 SCT018 SCT050 BKN070 25/25 Q1013 RERA","temp":25,"dewp":25,"wdir":"VRB","wspd":2,"visib":"6+","altim":1013,"clouds":[{"cover":"SCT","base":1800},{"cover":"SCT","base":5000},{"cover":"BKN","base":7000}],"obsTime":1774465200},"SBNT":{"icaoId":"SBNT","flightCategory":"VFR","rawOb":"METAR SBNT 251900Z 11013KT 9999 FEW036 30/22 Q1010","temp":30,"dewp":22,"wdir":110,"wspd":13,"visib":"6+","altim":1010,"clouds":[{"cover":"FEW","base":3600}],"obsTime":1774465200},"SBPA":{"icaoId":"SBPA","flightCategory":"IFR","rawOb":"METAR SBPA 251900Z 18010KT 150V210 9999 4000S VCSH OVC007 24/22 Q1013","temp":24,"dewp":22,"wdir":180,"wspd":10,"visib":"6+","altim":1013,"clouds":[{"cover":"OVC","base":700}],"obsTime":1774465200},"SBFI":{"icaoId":"SBFI","flightCategory":"VFR","rawOb":"METAR SBFI 251900Z 31004KT 9999 VCSH SCT030 FEW035TCU 34/24 Q1010","temp":34,"dewp":24,"wdir":310,"wspd":4,"visib":"6+","altim":1010,"clouds":[{"cover":"SCT","base":3000},{"cover":"FEW","base":3500}],"obsTime":1774465200},"SBVT":{"icaoId":"SBVT","flightCategory":"VFR","rawOb":"METAR SBVT 251900Z 06009KT 9999 SCT025 SCT100 29/24 Q1015","temp":29,"dewp":24,"wdir":60,"wspd":9,"visib":"6+","altim":1015,"clouds":[{"cover":"SCT","base":2500},{"cover":"SCT","base":10000}],"obsTime":1774465200},"SBPJ":{"icaoId":"SBPJ","flightCategory":"VFR","rawOb":"METAR SBPJ 251900Z 24004KT 9999 FEW018 SCT050 BKN100 28/23 Q1011","temp":28,"dewp":23,"wdir":240,"wspd":4,"visib":"6+","altim":1011,"clouds":[{"cover":"FEW","base":1800},{"cover":"SCT","base":5000},{"cover":"BKN","base":10000}],"obsTime":1774465200},"SBPV":{"icaoId":"SBPV","flightCategory":"VFR","rawOb":"METAR SBPV 251900Z 21003KT 9999 SCT030 30/23 Q1007","temp":30,"dewp":23,"wdir":210,"wspd":3,"visib":"6+","altim":1007,"clouds":[{"cover":"SCT","base":3000}],"obsTime":1774465200},"SBUR":{"icaoId":"SBUR","flightCategory":"VFR","rawOb":"METAR SBUR 251900Z 03010KT 9000 -TSRA BKN040 FEW050CB BKN100 26/19 Q1016","temp":26,"dewp":19,"wdir":30,"wspd":10,"visib":5.59,"altim":1016,"clouds":[{"cover":"BKN","base":4000},{"cover":"FEW","base":5000},{"cover":"BKN","base":10000}],"obsTime":1774465200},"SBFL":{"icaoId":"SBFL","flightCategory":"VFR","rawOb":"METAR SBFL 251900Z 08011KT 9999 FEW030 29/23 Q1012","temp":29,"dewp":23,"wdir":80,"wspd":11,"visib":"6+","altim":1012,"clouds":[{"cover":"FEW","base":3000}],"obsTime":1774465200},"SBRB":{"icaoId":"SBRB","flightCategory":"VFR","rawOb":"METAR SBRB 251900Z VRB02KT 9999 FEW020 SCT100 31/25 Q1008","temp":31,"dewp":25,"wdir":"VRB","wspd":2,"visib":"6+","altim":1008,"clouds":[{"cover":"FEW","base":2000},{"cover":"SCT","base":10000}],"obsTime":1774465200},"SBUL":{"icaoId":"SBUL","flightCategory":"VFR","rawOb":"METAR SBUL 251900Z 06007KT 9999 -RA SCT040 FEW045TCU 21/19 Q1017 RETS RETSRA","temp":21,"dewp":19,"wdir":60,"wspd":7,"visib":"6+","altim":1017,"clouds":[{"cover":"SCT","base":4000},{"cover":"FEW","base":4500}],"obsTime":1774465200},"SBRF":{"icaoId":"SBRF","flightCategory":"VFR","rawOb":"METAR SBRF 251900Z 13010KT 9999 SCT025 30/24 Q1010","temp":30,"dewp":24,"wdir":130,"wspd":10,"visib":"6+","altim":1010,"clouds":[{"cover":"SCT","base":2500}],"obsTime":1774465200},"SBFZ":{"icaoId":"SBFZ","flightCategory":"VFR","rawOb":"METAR SBFZ 251900Z 09011KT 9999 FEW020 30/23 Q1008","temp":30,"dewp":23,"wdir":90,"wspd":11,"visib":"6+","altim":1008,"clouds":[{"cover":"FEW","base":2000}],"obsTime":1774465200},"SBSG":{"icaoId":"SBSG","flightCategory":"VFR","rawOb":"METAR SBSG 251900Z 11010KT 090V150 9999 FEW033 30/22 Q1010","temp":30,"dewp":22,"wdir":110,"wspd":10,"visib":"6+","altim":1010,"clouds":[{"cover":"FEW","base":3300}],"obsTime":1774465200},"SBBE":{"icaoId":"SBBE","flightCategory":"MVFR","rawOb":"METAR SBBE 251900Z 34007KT 9999 BKN025 28/25 Q1009","temp":28,"dewp":25,"wdir":340,"wspd":7,"visib":"6+","altim":1009,"clouds":[{"cover":"BKN","base":2500}],"obsTime":1774465200},"SBSL":{"icaoId":"SBSL","flightCategory":"VFR","rawOb":"METAR SBSL 251900Z 03010KT 9999 SCT015 FEW020TCU 29/24 Q1009","temp":29,"dewp":24,"wdir":30,"wspd":10,"visib":"6+","altim":1009,"clouds":[{"cover":"SCT","base":1500},{"cover":"FEW","base":2000}],"obsTime":1774465200},"SBSN":{"icaoId":"SBSN","flightCategory":"VFR","rawOb":"METAR SBSN 251900Z 09013KT 9999 FEW021 FEW025TCU 32/25 Q1007","temp":32,"dewp":25,"wdir":90,"wspd":13,"visib":"6+","altim":1007,"clouds":[{"cover":"FEW","base":2100},{"cover":"FEW","base":2500}],"obsTime":1774465200},"SBGL":{"icaoId":"SBGL","flightCategory":"VFR","rawOb":"METAR SBGL 251900Z 14011KT 9999 FEW035 31/21 Q1012","temp":31,"dewp":21,"wdir":140,"wspd":11,"visib":"6+","altim":1012,"clouds":[{"cover":"FEW","base":3500}],"obsTime":1774465200},"SBSP":{"icaoId":"SBSP","flightCategory":"VFR","rawOb":"METAR SBSP 251900Z 16010KT 9000 -RA FEW011 BKN036 23/22 Q1017","temp":23,"dewp":22,"wdir":160,"wspd":10,"visib":5.59,"altim":1017,"clouds":[{"cover":"FEW","base":1100},{"cover":"BKN","base":3600}],"obsTime":1774465200},"SBSV":{"icaoId":"SBSV","flightCategory":"VFR","rawOb":"METAR SBSV 251900Z 16008KT 9999 VCSH FEW024 FEW025TCU BKN090 29/22 Q1012","temp":29,"dewp":22,"wdir":160,"wspd":8,"visib":"6+","altim":1012,"clouds":[{"cover":"FEW","base":2400},{"cover":"FEW","base":2500},{"cover":"BKN","base":9000}],"obsTime":1774465200},"SBGO":{"icaoId":"SBGO","flightCategory":"VFR","rawOb":"METAR SBGO 251900Z 03007KT 9999 FEW010 FEW045TCU OVC070 21/19 Q1016","temp":21,"dewp":19,"wdir":30,"wspd":7,"visib":"6+","altim":1016,"clouds":[{"cover":"FEW","base":1000},{"cover":"FEW","base":4500},{"cover":"OVC","base":7000}],"obsTime":1774465200},"SBCG":{"icaoId":"SBCG","flightCategory":"LIFR","rawOb":"SPECI SBCG 251826Z 09007KT 060V160 1600 R24///// R06/P2000 TSRA SCT006 BKN020 FEW035CB BKN100 21/20 Q1014 RERA","temp":21,"dewp":20,"wdir":90,"wspd":7,"visib":0.99,"altim":1014,"clouds":[{"cover":"SCT","base":600},{"cover":"BKN","base":2000},{"cover":"FEW","base":3500},{"cover":"BKN","base":10000}],"obsTime":1774463160},"SBCP":{"icaoId":"SBCP","flightCategory":"VFR","rawOb":"METAR SBCP 251900Z 08015KT 9999 FEW025 29/22 Q1014","temp":29,"dewp":22,"wdir":80,"wspd":15,"visib":"6+","altim":1014,"clouds":[{"cover":"FEW","base":2500}],"obsTime":1774465200},"SBGR":{"icaoId":"SBGR","flightCategory":"VFR","rawOb":"METAR SBGR 251900Z 17003KT CAVOK 26/21 Q1016 RERA","temp":26,"dewp":21,"wdir":170,"wspd":3,"visib":"6+","altim":1016,"clouds":[],"obsTime":1774465200},"SBBV":{"icaoId":"SBBV","flightCategory":"VFR","rawOb":"METAR SBBV 251900Z 10012KT 9999 BKN040 FEW045TCU 35/20 Q1007","temp":35,"dewp":20,"wdir":100,"wspd":12,"visib":"6+","altim":1007,"clouds":[{"cover":"BKN","base":4000},{"cover":"FEW","base":4500}],"obsTime":1774465200},"SBMK":{"icaoId":"SBMK","flightCategory":"VFR","rawOb":"METAR SBMK 251900Z 21003KT 9999 SCT030 SCT070 25/20 Q1016","temp":25,"dewp":20,"wdir":210,"wspd":3,"visib":"6+","altim":1016,"clouds":[{"cover":"SCT","base":3000},{"cover":"SCT","base":7000}],"obsTime":1774465200},"SBIP":{"icaoId":"SBIP","flightCategory":"VFR","rawOb":"METAR SBIP 251900Z AUTO 36005KT CAVOK 28/21 Q1015","temp":28,"dewp":21,"wdir":360,"wspd":5,"visib":"6+","altim":1015,"clouds":[],"obsTime":1774465200},"SBAR":{"icaoId":"SBAR","flightCategory":"VFR","rawOb":"METAR SBAR 251900Z 12014KT 9999 SCT015 SCT025 BKN070 29/24 Q1012","temp":29,"dewp":24,"wdir":120,"wspd":14,"visib":"6+","altim":1012,"clouds":[{"cover":"SCT","base":1500},{"cover":"SCT","base":2500},{"cover":"BKN","base":7000}],"obsTime":1774465200},"SBVH":{"icaoId":"SBVH","flightCategory":"VFR","rawOb":"METAR SBVH 251900Z 03009KT 9999 TS VCSH FEW020 BKN040 FEW045CB BKN100 24/22 Q1011","temp":24,"dewp":22,"wdir":30,"wspd":9,"visib":"6+","altim":1011,"clouds":[{"cover":"FEW","base":2000},{"cover":"BKN","base":4000},{"cover":"FEW","base":4500},{"cover":"BKN","base":10000}],"obsTime":1774465200},"SBAX":{"icaoId":"SBAX","flightCategory":"VFR","rawOb":"METAR SBAX 251900Z 09004KT 9999 FEW020 SCT040 21/20 Q1018","temp":21,"dewp":20,"wdir":90,"wspd":4,"visib":"6+","altim":1018,"clouds":[{"cover":"FEW","base":2000},{"cover":"SCT","base":4000}],"obsTime":1774465200},"SBUY":{"icaoId":"SBUY","flightCategory":"VFR","rawOb":"METAR SBUY 251900Z 12005KT 9999 SCT025 BKN100 29/24 Q1008","temp":29,"dewp":24,"wdir":120,"wspd":5,"visib":"6+","altim":1008,"clouds":[{"cover":"SCT","base":2500},{"cover":"BKN","base":10000}],"obsTime":1774465200},"SBBH":{"icaoId":"SBBH","flightCategory":"VFR","rawOb":"METAR SBBH 251900Z 06005KT 9999 SCT048 FEW050TCU 27/18 Q1017","temp":27,"dewp":18,"wdir":60,"wspd":5,"visib":"6+","altim":1017,"clouds":[{"cover":"SCT","base":4800},{"cover":"FEW","base":5000}],"obsTime":1774465200},"SBTT":{"icaoId":"SBTT","flightCategory":"VFR","rawOb":"METAR SBTT 251900Z 10006KT 060V140 9999 SCT030 31/24 Q1007","temp":31,"dewp":24,"wdir":100,"wspd":6,"visib":"6+","altim":1007,"clouds":[{"cover":"SCT","base":3000}],"obsTime":1774465200},"SBTF":{"icaoId":"SBTF","flightCategory":"VFR","rawOb":"METAR SBTF 251900Z 10008KT 9999 SCT017 SCT100 29/24 Q1009","temp":29,"dewp":24,"wdir":100,"wspd":8,"visib":"6+","altim":1009,"clouds":[{"cover":"SCT","base":1700},{"cover":"SCT","base":10000}],"obsTime":1774465200},"SBBU":{"icaoId":"SBBU","flightCategory":"VFR","rawOb":"METAR SBBU 251900Z 25006KT 9999 SCT045 31/20 Q1013","temp":31,"dewp":20,"wdir":250,"wspd":6,"visib":"6+","altim":1013,"clouds":[{"cover":"SCT","base":4500}],"obsTime":1774465200},"SBSR":{"icaoId":"SBSR","flightCategory":"VFR","rawOb":"METAR SBSR 251900Z 05006KT 9999 FEW035 FEW040TCU 29/19 Q1013","temp":29,"dewp":19,"wdir":50,"wspd":6,"visib":"6+","altim":1013,"clouds":[{"cover":"FEW","base":3500},{"cover":"FEW","base":4000}],"obsTime":1774465200},"SBCA":{"icaoId":"SBCA","flightCategory":"VFR","rawOb":"METAR SBCA 251900Z 32007KT 280V020 9999 FEW025 29/20 Q1015","temp":29,"dewp":20,"wdir":320,"wspd":7,"visib":"6+","altim":1015,"clouds":[{"cover":"FEW","base":2500}],"obsTime":1774465200},"SBSM":{"icaoId":"SBSM","flightCategory":"IFR","rawOb":"METAR SBSM 251900Z 11005KT 9999 OVC008 21/20 Q1013","temp":21,"dewp":20,"wdir":110,"wspd":5,"visib":"6+","altim":1013,"clouds":[{"cover":"OVC","base":800}],"obsTime":1774465200},"SBCC":{"icaoId":"SBCC","flightCategory":"IFR","rawOb":"METAR SBCC 251900Z 05012KT 4000 SHRA BKN020 FEW025TCU BKN100 24/23 Q1011","temp":24,"dewp":23,"wdir":50,"wspd":12,"visib":2.49,"altim":1011,"clouds":[{"cover":"BKN","base":2000},{"cover":"FEW","base":2500},{"cover":"BKN","base":10000}],"obsTime":1774465200},"SBCJ":{"icaoId":"SBCJ","flightCategory":"VFR","rawOb":"METAR SBCJ 251900Z 00000KT CAVOK 23/19 Q1014","temp":23,"dewp":19,"wdir":0,"wspd":0,"visib":"6+","altim":1014,"clouds":[],"obsTime":1774465200},"SBSJ":{"icaoId":"SBSJ","flightCategory":"VFR","rawOb":"METAR SBSJ 251900Z 12004KT 9999 SCT030 FEW040TCU 30/// Q1015","temp":null,"dewp":null,"wdir":120,"wspd":4,"visib":"6+","altim":1015,"clouds":[{"cover":"SCT","base":3000},{"cover":"FEW","base":4000}],"obsTime":1774465200},"SBSC":{"icaoId":"SBSC","flightCategory":"VFR","rawOb":"METAR SBSC 251900Z 24008KT 9999 FEW045 29/23 Q1013","temp":29,"dewp":23,"wdir":240,"wspd":8,"visib":"6+","altim":1013,"clouds":[{"cover":"FEW","base":4500}],"obsTime":1774465200},"SBCO":{"icaoId":"SBCO","flightCategory":"IFR","rawOb":"METAR SBCO 251900Z 19007KT 160V220 9999 BKN008 OVC015 24/22 Q1013","temp":24,"dewp":22,"wdir":190,"wspd":7,"visib":"6+","altim":1013,"clouds":[{"cover":"BKN","base":800},{"cover":"OVC","base":1500}],"obsTime":1774465200},"SBPS":{"icaoId":"SBPS","flightCategory":"VFR","rawOb":"METAR SBPS 251900Z 15003KT 100V220 9999 FEW018 27/23 Q1014","temp":27,"dewp":23,"wdir":150,"wspd":3,"visib":"6+","altim":1014,"clouds":[{"cover":"FEW","base":1800}],"obsTime":1774465200},"SBDN":{"icaoId":"SBDN","flightCategory":"VFR","rawOb":"METAR SBDN 251900Z 11005KT 9999 SCT030 31/21 Q1012","temp":31,"dewp":21,"wdir":110,"wspd":5,"visib":"6+","altim":1012,"clouds":[{"cover":"SCT","base":3000}],"obsTime":1774465200},"SBPP":{"icaoId":"SBPP","flightCategory":"MVFR","rawOb":"METAR SBPP 251900Z 30009KT 9999 BKN020 FEW025TCU 23/21 Q1014","temp":23,"dewp":21,"wdir":300,"wspd":9,"visib":"6+","altim":1014,"clouds":[{"cover":"BKN","base":2000},{"cover":"FEW","base":2500}],"obsTime":1774465200},"SBES":{"icaoId":"SBES","flightCategory":"VFR","rawOb":"METAR SBES 251900Z 06017KT 020V080 9999 FEW030 29/// Q1013","temp":null,"dewp":null,"wdir":60,"wspd":17,"visib":"6+","altim":1013,"clouds":[{"cover":"FEW","base":3000}],"obsTime":1774465200},"SBPL":{"icaoId":"SBPL","flightCategory":"VFR","rawOb":"METAR SBPL 251900Z 12006KT 9999 SCT030 33/21 Q1010","temp":33,"dewp":21,"wdir":120,"wspd":6,"visib":"6+","altim":1010,"clouds":[{"cover":"SCT","base":3000}],"obsTime":1774465200},"SBPB":{"icaoId":"SBPB","flightCategory":"VFR","rawOb":"METAR SBPB 251900Z 04009KT 9999 FEW020 31/25 Q1008","temp":31,"dewp":25,"wdir":40,"wspd":9,"visib":"6+","altim":1008,"clouds":[{"cover":"FEW","base":2000}],"obsTime":1774465200},"SBKG":{"icaoId":"SBKG","flightCategory":"VFR","rawOb":"METAR SBKG 251900Z 10013KT 9999 SCT027 31/19 Q1012","temp":31,"dewp":19,"wdir":100,"wspd":13,"visib":"6+","altim":1012,"clouds":[{"cover":"SCT","base":2700}],"obsTime":1774465200},"SBGM":{"icaoId":"SBGM","flightCategory":"MVFR","rawOb":"METAR SBGM 251900Z 16004KT 130V200 9999 BKN013 30/21 Q1008","temp":30,"dewp":21,"wdir":160,"wspd":4,"visib":"6+","altim":1008,"clouds":[{"cover":"BKN","base":1300}],"obsTime":1774465200},"SBBQ":{"icaoId":"SBBQ","flightCategory":"VFR","rawOb":"METAR SBBQ 251900Z 08006KT 9999 SCT040 25/17 Q1021","temp":25,"dewp":17,"wdir":80,"wspd":6,"visib":"6+","altim":1021,"clouds":[{"cover":"SCT","base":4000}],"obsTime":1774465200},"SBIH":{"icaoId":"SBIH","flightCategory":"VFR","rawOb":"METAR SBIH 251900Z 03010KT 9999 SCT020 33/24 Q1007","temp":33,"dewp":24,"wdir":30,"wspd":10,"visib":"6+","altim":1007,"clouds":[{"cover":"SCT","base":2000}],"obsTime":1774465200},"SBLE":{"icaoId":"SBLE","flightCategory":"VFR","rawOb":"METAR SBLE 251900Z AUTO 14007KT 100V180 9999 FEW041 29/20 Q1014","temp":29,"dewp":20,"wdir":140,"wspd":7,"visib":"6+","altim":1014,"clouds":[{"cover":"FEW","base":4100}],"obsTime":1774465200},"SBJP":{"icaoId":"SBJP","flightCategory":"VFR","rawOb":"METAR SBJP 251900Z 10010KT 060V120 9999 FEW038 BKN070 31/22 Q1011","temp":31,"dewp":22,"wdir":100,"wspd":10,"visib":"6+","altim":1011,"clouds":[{"cover":"FEW","base":3800},{"cover":"BKN","base":7000}],"obsTime":1774465200},"SBLS":{"icaoId":"SBLS","flightCategory":"VFR","rawOb":"METAR SBLS 251900Z 08003KT 010V110 9999 VCSH SCT040 FEW045TCU 26/18 Q1017","temp":26,"dewp":18,"wdir":80,"wspd":3,"visib":"6+","altim":1017,"clouds":[{"cover":"SCT","base":4000},{"cover":"FEW","base":4500}],"obsTime":1774465200},"SBAF":{"icaoId":"SBAF","flightCategory":"VFR","rawOb":" SBAF 251900Z 20009KT 9999 SCT040 32/21 Q1012","temp":32,"dewp":21,"wdir":200,"wspd":9,"visib":"6+","altim":1012,"clouds":[{"cover":"SCT","base":4000}],"obsTime":1774465200},"SBMT":{"icaoId":"SBMT","flightCategory":"MVFR","rawOb":"METAR SBMT 251900Z 11009KT 9999 BKN030 FEW040TCU 27/18 Q1016","temp":27,"dewp":18,"wdir":110,"wspd":9,"visib":"6+","altim":1016,"clouds":[{"cover":"BKN","base":3000},{"cover":"FEW","base":4000}],"obsTime":1774465200},"SBGW":{"icaoId":"SBGW","flightCategory":"VFR","rawOb":"METAR SBGW 251900Z 04007KT 350V090 9999 FEW035 BKN090 32/17 Q1014","temp":32,"dewp":17,"wdir":40,"wspd":7,"visib":"6+","altim":1014,"clouds":[{"cover":"FEW","base":3500},{"cover":"BKN","base":9000}],"obsTime":1774465200},"SBNM":{"icaoId":"SBNM","flightCategory":"VFR","rawOb":"METAR SBNM 251900Z 23004KT 9999 SCT030 30/22 Q1013","temp":30,"dewp":22,"wdir":230,"wspd":4,"visib":"6+","altim":1013,"clouds":[{"cover":"SCT","base":3000}],"obsTime":1774465200},"SBJR":{"icaoId":"SBJR","flightCategory":"VFR","rawOb":"METAR SBJR 251900Z 17004KT 9999 FEW030 33/22 Q1012","temp":33,"dewp":22,"wdir":170,"wspd":4,"visib":"6+","altim":1012,"clouds":[{"cover":"FEW","base":3000}],"obsTime":1774465200},"SBPF":{"icaoId":"SBPF","flightCategory":"VFR","rawOb":"METAR SBPF 251900Z 16005KT 9999 SCT014 BKN040 22/20 Q1016 RETSRA","temp":22,"dewp":20,"wdir":160,"wspd":5,"visib":"6+","altim":1016,"clouds":[{"cover":"SCT","base":1400},{"cover":"BKN","base":4000}],"obsTime":1774465200},"SBAN":{"icaoId":"SBAN","flightCategory":"IFR","rawOb":"METAR SBAN 251900Z 25006KT 4000 -RA BR BKN030 FEW035TCU 20/18 Q1018","temp":20,"dewp":18,"wdir":250,"wspd":6,"visib":2.49,"altim":1018,"clouds":[{"cover":"BKN","base":3000},{"cover":"FEW","base":3500}],"obsTime":1774465200},"SBST":{"icaoId":"SBST","flightCategory":"MVFR","rawOb":"METAR SBST 251900Z 25003KT 8000 BKN020 25/22 Q1013","temp":25,"dewp":22,"wdir":250,"wspd":3,"visib":4.97,"altim":1013,"clouds":[{"cover":"BKN","base":2000}],"obsTime":1774465200},"SBJV":{"icaoId":"SBJV","flightCategory":"VFR","rawOb":"METAR SBJV 251900Z 12010KT 080V140 9999 SCT015 SCT040 29/23 Q1013","temp":29,"dewp":23,"wdir":120,"wspd":10,"visib":"6+","altim":1013,"clouds":[{"cover":"SCT","base":1500},{"cover":"SCT","base":4000}],"obsTime":1774465200},"SBTA":{"icaoId":"SBTA","flightCategory":"VFR","rawOb":"METAR SBTA 251900Z 28006KT 9999 SCT040 FEW045TCU 28/24 Q1014","temp":28,"dewp":24,"wdir":280,"wspd":6,"visib":"6+","altim":1014,"clouds":[{"cover":"SCT","base":4000},{"cover":"FEW","base":4500}],"obsTime":1774465200}}}