{"updated":1782309523,"count":88,"data":{"SBFI":{"icaoId":"SBFI","flightCategory":"LIFR","rawOb":"METAR SBFI 241200Z 00000KT 0800 R15///// R33///// FG SCT002 03/03 Q1023","temp":3,"dewp":3,"wdir":0,"wspd":0,"visib":0.5,"altim":1023,"clouds":[{"cover":"SCT","base":200}],"obsTime":1782302400},"SBEG":{"icaoId":"SBEG","flightCategory":"LIFR","rawOb":"METAR SBEG 241200Z VRB02KT 1500 0400W R11/0750U R29/P2000 BR BCFG BKN002 25/24 Q1014","temp":25,"dewp":24,"wdir":"VRB","wspd":2,"visib":0.93,"altim":1014,"clouds":[{"cover":"BKN","base":200}],"obsTime":1782302400},"SBME":{"icaoId":"SBME","flightCategory":"VFR","rawOb":"METAR SBME 241200Z 01002KT CAVOK 24/20 Q1016","temp":24,"dewp":20,"wdir":10,"wspd":2,"visib":"6+","altim":1016,"clouds":[],"obsTime":1782302400},"SBMG":{"icaoId":"SBMG","flightCategory":"VFR","rawOb":"METAR SBMG 241200Z 22005KT CAVOK 07/06 Q1020","temp":7,"dewp":6,"wdir":220,"wspd":5,"visib":"6+","altim":1020,"clouds":[],"obsTime":1782302400},"SBMK":{"icaoId":"SBMK","flightCategory":"VFR","rawOb":"METAR SBMK 241200Z 00000KT CAVOK 21/14 Q1019","temp":21,"dewp":14,"wdir":0,"wspd":0,"visib":"6+","altim":1019,"clouds":[],"obsTime":1782302400},"SBMO":{"icaoId":"SBMO","flightCategory":"VFR","rawOb":"METAR SBMO 241200Z 13006KT 110V170 9999 FEW025 BKN070 26/22 Q1017","temp":26,"dewp":22,"wdir":130,"wspd":6,"visib":"6+","altim":1017,"clouds":[{"cover":"FEW","base":2500},{"cover":"BKN","base":7000}],"obsTime":1782302400},"SBKP":{"icaoId":"SBKP","flightCategory":"IFR","rawOb":"METAR SBKP 241200Z 10007KT 3000 RA BR FEW010 BKN030 OVC070 14/13 Q1019","temp":14,"dewp":13,"wdir":100,"wspd":7,"visib":1.86,"altim":1019,"clouds":[{"cover":"FEW","base":1000},{"cover":"BKN","base":3000},{"cover":"OVC","base":7000}],"obsTime":1782302400},"SBLO":{"icaoId":"SBLO","flightCategory":"VFR","rawOb":"METAR SBLO 241200Z 23003KT 160V310 CAVOK 11/09 Q1020","temp":11,"dewp":9,"wdir":230,"wspd":3,"visib":"6+","altim":1020,"clouds":[],"obsTime":1782302400},"SBMA":{"icaoId":"SBMA","flightCategory":"VFR","rawOb":"METAR SBMA 241200Z 01007KT 9999 FEW015 BKN100 29/24 Q1014","temp":29,"dewp":24,"wdir":10,"wspd":7,"visib":"6+","altim":1014,"clouds":[{"cover":"FEW","base":1500},{"cover":"BKN","base":10000}],"obsTime":1782302400},"SBCT":{"icaoId":"SBCT","flightCategory":"IFR","rawOb":"METAR SBCT 241200Z 19002KT 9999 OVC007 07/06 Q1021","temp":7,"dewp":6,"wdir":190,"wspd":2,"visib":"6+","altim":1021,"clouds":[{"cover":"OVC","base":700}],"obsTime":1782302400},"SBIL":{"icaoId":"SBIL","flightCategory":"VFR","rawOb":"METAR SBIL 241200Z 30002KT 9999 SCT023 BKN070 25/22 Q1018","temp":25,"dewp":22,"wdir":300,"wspd":2,"visib":"6+","altim":1018,"clouds":[{"cover":"SCT","base":2300},{"cover":"BKN","base":7000}],"obsTime":1782302400},"SBCZ":{"icaoId":"SBCZ","flightCategory":"VFR","rawOb":"METAR SBCZ 241200Z 02002KT CAVOK 24/23 Q1013","temp":24,"dewp":23,"wdir":20,"wspd":2,"visib":"6+","altim":1013,"clouds":[],"obsTime":1782302400},"SBJU":{"icaoId":"SBJU","flightCategory":"VFR","rawOb":"METAR SBJU 241200Z 18005KT 9999 FEW020 27/19 Q1017","temp":27,"dewp":19,"wdir":180,"wspd":5,"visib":"6+","altim":1017,"clouds":[{"cover":"FEW","base":2000}],"obsTime":1782302400},"SBCF":{"icaoId":"SBCF","flightCategory":"VFR","rawOb":"METAR SBCF 241200Z 20004KT CAVOK 18/14 Q1021","temp":18,"dewp":14,"wdir":200,"wspd":4,"visib":"6+","altim":1021,"clouds":[],"obsTime":1782302400},"SBCG":{"icaoId":"SBCG","flightCategory":"VFR","rawOb":"METAR SBCG 241200Z 20004KT 9999 SCT009 SCT045 BKN100 09/07 Q1024","temp":9,"dewp":7,"wdir":200,"wspd":4,"visib":"6+","altim":1024,"clouds":[{"cover":"SCT","base":900},{"cover":"SCT","base":4500},{"cover":"BKN","base":10000}],"obsTime":1782302400},"SBMQ":{"icaoId":"SBMQ","flightCategory":"VFR","rawOb":"METAR SBMQ 241200Z 01007KT 310V050 9999 FEW020 SCT100 29/25 Q1013","temp":29,"dewp":25,"wdir":10,"wspd":7,"visib":"6+","altim":1013,"clouds":[{"cover":"FEW","base":2000},{"cover":"SCT","base":10000}],"obsTime":1782302400},"SBNT":{"icaoId":"SBNT","flightCategory":"VFR","rawOb":"METAR SBNT 241200Z 16014KT 9999 SCT025 27/21 Q1014","temp":27,"dewp":21,"wdir":160,"wspd":14,"visib":"6+","altim":1014,"clouds":[{"cover":"SCT","base":2500}],"obsTime":1782302400},"SBBE":{"icaoId":"SBBE","flightCategory":"VFR","rawOb":"METAR SBBE 241200Z 04005KT 9999 FEW015 BKN045 29/25 Q1013","temp":29,"dewp":25,"wdir":40,"wspd":5,"visib":"6+","altim":1013,"clouds":[{"cover":"FEW","base":1500},{"cover":"BKN","base":4500}],"obsTime":1782302400},"SBPA":{"icaoId":"SBPA","flightCategory":"VFR","rawOb":"METAR SBPA 241200Z 26004KT 9999 FEW007 06/06 Q1021","temp":6,"dewp":6,"wdir":260,"wspd":4,"visib":"6+","altim":1021,"clouds":[{"cover":"FEW","base":700}],"obsTime":1782302400},"SBPJ":{"icaoId":"SBPJ","flightCategory":"VFR","rawOb":"METAR SBPJ 241200Z 21005KT CAVOK 26/17 Q1015","temp":26,"dewp":17,"wdir":210,"wspd":5,"visib":"6+","altim":1015,"clouds":[],"obsTime":1782302400},"SBCP":{"icaoId":"SBCP","flightCategory":"VFR","rawOb":"METAR SBCP 241200Z 29003KT 9999 FEW020 23/19 Q1017","temp":23,"dewp":19,"wdir":290,"wspd":3,"visib":"6+","altim":1017,"clouds":[{"cover":"FEW","base":2000}],"obsTime":1782302400},"SBPV":{"icaoId":"SBPV","flightCategory":"MVFR","rawOb":"METAR SBPV 241200Z 19003KT 7000 -RA FEW013 BKN030 BKN100 24/23 Q1014","temp":24,"dewp":23,"wdir":190,"wspd":3,"visib":4.35,"altim":1014,"clouds":[{"cover":"FEW","base":1300},{"cover":"BKN","base":3000},{"cover":"BKN","base":10000}],"obsTime":1782302400},"SBRB":{"icaoId":"SBRB","flightCategory":"MVFR","rawOb":"METAR SBRB 241200Z 16006KT 130V190 5000 -DZ BR OVC012 18/17 Q1017","temp":18,"dewp":17,"wdir":160,"wspd":6,"visib":3.11,"altim":1017,"clouds":[{"cover":"OVC","base":1200}],"obsTime":1782302400},"SBFL":{"icaoId":"SBFL","flightCategory":"VFR","rawOb":"METAR SBFL 241200Z 26005KT 9999 FEW040 11/07 Q1021","temp":11,"dewp":7,"wdir":260,"wspd":5,"visib":"6+","altim":1021,"clouds":[{"cover":"FEW","base":4000}],"obsTime":1782302400},"SBRF":{"icaoId":"SBRF","flightCategory":"VFR","rawOb":"METAR SBRF 241200Z 15012KT 9999 SCT026 28/22 Q1015","temp":28,"dewp":22,"wdir":150,"wspd":12,"visib":"6+","altim":1015,"clouds":[{"cover":"SCT","base":2600}],"obsTime":1782302400},"SBFZ":{"icaoId":"SBFZ","flightCategory":"VFR","rawOb":"METAR SBFZ 241200Z 16015KT 9999 FEW025 28/21 Q1013","temp":28,"dewp":21,"wdir":160,"wspd":15,"visib":"6+","altim":1013,"clouds":[{"cover":"FEW","base":2500}],"obsTime":1782302400},"SBSG":{"icaoId":"SBSG","flightCategory":"VFR","rawOb":"METAR SBSG 241200Z 15008KT 100V180 9999 SCT020 27/23 Q1014","temp":27,"dewp":23,"wdir":150,"wspd":8,"visib":"6+","altim":1014,"clouds":[{"cover":"SCT","base":2000}],"obsTime":1782302400},"SBCB":{"icaoId":"SBCB","flightCategory":"VFR","rawOb":"METAR SBCB 241200Z 33002KT 9999 FEW010 SCT025 BKN060 23/21 Q1015","temp":23,"dewp":21,"wdir":330,"wspd":2,"visib":"6+","altim":1015,"clouds":[{"cover":"FEW","base":1000},{"cover":"SCT","base":2500},{"cover":"BKN","base":6000}],"obsTime":1782302400},"SBSL":{"icaoId":"SBSL","flightCategory":"VFR","rawOb":"METAR SBSL 241200Z 08008KT 9999 FEW016 SCT020 29/25 Q1012","temp":29,"dewp":25,"wdir":80,"wspd":8,"visib":"6+","altim":1012,"clouds":[{"cover":"FEW","base":1600},{"cover":"SCT","base":2000}],"obsTime":1782302400},"SBBR":{"icaoId":"SBBR","flightCategory":"VFR","rawOb":"METAR SBBR 241200Z VRB01KT CAVOK 22/14 Q1022","temp":22,"dewp":14,"wdir":"VRB","wspd":1,"visib":"6+","altim":1022,"clouds":[],"obsTime":1782302400},"SBSN":{"icaoId":"SBSN","flightCategory":"VFR","rawOb":"METAR SBSN 241200Z 16002KT CAVOK 28/26 Q1013","temp":28,"dewp":26,"wdir":160,"wspd":2,"visib":"6+","altim":1013,"clouds":[],"obsTime":1782302400},"SBAT":{"icaoId":"SBAT","flightCategory":"VFR","rawOb":"METAR SBAT 241200Z 15007KT CAVOK 26/22 Q1015","temp":26,"dewp":22,"wdir":150,"wspd":7,"visib":"6+","altim":1015,"clouds":[],"obsTime":1782302400},"SBSP":{"icaoId":"SBSP","flightCategory":"IFR","rawOb":"METAR SBSP 241200Z 20006KT 020V100 4500 -RA BKN005 OVC040 13/12 Q1021 RERA","temp":13,"dewp":12,"wdir":200,"wspd":6,"visib":2.8,"altim":1021,"clouds":[{"cover":"BKN","base":500},{"cover":"OVC","base":4000}],"obsTime":1782302400},"SBGL":{"icaoId":"SBGL","flightCategory":"MVFR","rawOb":"METAR SBGL 241200Z 26010KT 9000 SCT006 BKN019 BKN090 22/20 Q1016","temp":22,"dewp":20,"wdir":260,"wspd":10,"visib":5.59,"altim":1016,"clouds":[{"cover":"SCT","base":600},{"cover":"BKN","base":1900},{"cover":"BKN","base":9000}],"obsTime":1782302400},"SBSV":{"icaoId":"SBSV","flightCategory":"VFR","rawOb":"METAR SBSV 241200Z 07003KT 340V140 9999 SCT023 SCT050 27/22 Q1017","temp":27,"dewp":22,"wdir":70,"wspd":3,"visib":"6+","altim":1017,"clouds":[{"cover":"SCT","base":2300},{"cover":"SCT","base":5000}],"obsTime":1782302400},"SBGO":{"icaoId":"SBGO","flightCategory":"VFR","rawOb":"METAR SBGO 241200Z 14005KT CAVOK 21/19 Q1019","temp":21,"dewp":19,"wdir":140,"wspd":5,"visib":"6+","altim":1019,"clouds":[],"obsTime":1782302400},"SBTE":{"icaoId":"SBTE","flightCategory":"MVFR","rawOb":"METAR SBTE 241200Z 14002KT 9999 OVC013 27/24 Q1013","temp":27,"dewp":24,"wdir":140,"wspd":2,"visib":"6+","altim":1013,"clouds":[{"cover":"OVC","base":1300}],"obsTime":1782302400},"SBUL":{"icaoId":"SBUL","flightCategory":"VFR","rawOb":"METAR SBUL 241200Z 13003KT 060V180 9999 FEW006 BKN100 19/17 Q1020","temp":19,"dewp":17,"wdir":130,"wspd":3,"visib":"6+","altim":1020,"clouds":[{"cover":"FEW","base":600},{"cover":"BKN","base":10000}],"obsTime":1782302400},"SBCR":{"icaoId":"SBCR","flightCategory":"VFR","rawOb":"METAR SBCR 241200Z 20004KT 170V230 9999 FEW008 BKN050 BKN080 12/11 Q1023","temp":12,"dewp":11,"wdir":200,"wspd":4,"visib":"6+","altim":1023,"clouds":[{"cover":"FEW","base":800},{"cover":"BKN","base":5000},{"cover":"BKN","base":8000}],"obsTime":1782302400},"SBUR":{"icaoId":"SBUR","flightCategory":"LIFR","rawOb":"METAR SBUR 241200Z 25004KT 0050 FG VV001 16/16 Q1020","temp":16,"dewp":16,"wdir":250,"wspd":4,"visib":0.03,"altim":1020,"clouds":[{"cover":"OVX","base":100}],"obsTime":1782302400},"SBBV":{"icaoId":"SBBV","flightCategory":"VFR","rawOb":"METAR SBBV 241200Z 26002KT 9999 SCT030 BKN070 26/24 Q1014","temp":26,"dewp":24,"wdir":260,"wspd":2,"visib":"6+","altim":1014,"clouds":[{"cover":"SCT","base":3000},{"cover":"BKN","base":7000}],"obsTime":1782302400},"SBGR":{"icaoId":"SBGR","flightCategory":"IFR","rawOb":"METAR SBGR 241200Z 00000KT 2500 RA BR OVC007 13/13 Q1020 RERA","temp":13,"dewp":13,"wdir":0,"wspd":0,"visib":1.55,"altim":1020,"clouds":[{"cover":"OVC","base":700}],"obsTime":1782302400},"SBVT":{"icaoId":"SBVT","flightCategory":"VFR","rawOb":"METAR SBVT 241200Z 00000KT CAVOK 24/17 Q1017","temp":24,"dewp":17,"wdir":0,"wspd":0,"visib":"6+","altim":1017,"clouds":[],"obsTime":1782302400},"SBHT":{"icaoId":"SBHT","flightCategory":"MVFR","rawOb":"METAR SBHT 241200Z 10005KT 9999 BKN015 BKN080 26/25 Q1014","temp":26,"dewp":25,"wdir":100,"wspd":5,"visib":"6+","altim":1014,"clouds":[{"cover":"BKN","base":1500},{"cover":"BKN","base":8000}],"obsTime":1782302400},"SBSC":{"icaoId":"SBSC","flightCategory":"MVFR","rawOb":"METAR SBSC 241200Z 24008KT 9999 SCT015 OVC030 20/19 Q1017","temp":20,"dewp":19,"wdir":240,"wspd":8,"visib":"6+","altim":1017,"clouds":[{"cover":"SCT","base":1500},{"cover":"OVC","base":3000}],"obsTime":1782302400},"SBPB":{"icaoId":"SBPB","flightCategory":"VFR","rawOb":"METAR SBPB 241200Z 10008KT 9999 FEW020 BKN100 29/25 Q1012","temp":29,"dewp":25,"wdir":100,"wspd":8,"visib":"6+","altim":1012,"clouds":[{"cover":"FEW","base":2000},{"cover":"BKN","base":10000}],"obsTime":1782302400},"SBBQ":{"icaoId":"SBBQ","flightCategory":"MVFR","rawOb":"METAR SBBQ 241200Z 10003KT 7000 NSC 15/15 Q1023","temp":15,"dewp":15,"wdir":100,"wspd":3,"visib":4.35,"altim":1023,"clouds":[],"obsTime":1782302400},"SBCJ":{"icaoId":"SBCJ","flightCategory":"VFR","rawOb":"METAR SBCJ 241200Z 00000KT CAVOK 27/19 Q1019","temp":27,"dewp":19,"wdir":0,"wspd":0,"visib":"6+","altim":1019,"clouds":[],"obsTime":1782302400},"SBPL":{"icaoId":"SBPL","flightCategory":"MVFR","rawOb":"METAR SBPL 241200Z 08009KT 9999 BKN023 26/19 Q1018","temp":26,"dewp":19,"wdir":80,"wspd":9,"visib":"6+","altim":1018,"clouds":[{"cover":"BKN","base":2300}],"obsTime":1782302400},"SBAR":{"icaoId":"SBAR","flightCategory":"VFR","rawOb":"METAR SBAR 241200Z 11006KT 9999 FEW030 BKN040 25/23 Q1017","temp":25,"dewp":23,"wdir":110,"wspd":6,"visib":"6+","altim":1017,"clouds":[{"cover":"FEW","base":3000},{"cover":"BKN","base":4000}],"obsTime":1782302400},"SBPP":{"icaoId":"SBPP","flightCategory":"VFR","rawOb":"METAR SBPP 241200Z 20009KT CAVOK 07/03 Q1023","temp":7,"dewp":3,"wdir":200,"wspd":9,"visib":"6+","altim":1023,"clouds":[],"obsTime":1782302400},"SBPS":{"icaoId":"SBPS","flightCategory":"VFR","rawOb":"METAR SBPS 241200Z 25003KT 200V310 9999 SCT020 BKN070 25/21 Q1018","temp":25,"dewp":21,"wdir":250,"wspd":3,"visib":"6+","altim":1018,"clouds":[{"cover":"SCT","base":2000},{"cover":"BKN","base":7000}],"obsTime":1782302400},"SBCO":{"icaoId":"SBCO","flightCategory":"VFR","rawOb":"METAR SBCO 241200Z 27003KT CAVOK 06/05 Q1022","temp":6,"dewp":5,"wdir":270,"wspd":3,"visib":"6+","altim":1022,"clouds":[],"obsTime":1782302400},"SBDN":{"icaoId":"SBDN","flightCategory":"LIFR","rawOb":"METAR SBDN 241200Z 27005KT 9999 BKN004 OVC030 10/09 Q1020","temp":10,"dewp":9,"wdir":270,"wspd":5,"visib":"6+","altim":1020,"clouds":[{"cover":"BKN","base":400},{"cover":"OVC","base":3000}],"obsTime":1782302400},"SBBU":{"icaoId":"SBBU","flightCategory":"IFR","rawOb":"METAR SBBU 241200Z 24003KT 5000 BR BKN007 BKN020 OVC090 13/13 Q1019","temp":13,"dewp":13,"wdir":240,"wspd":3,"visib":3.11,"altim":1019,"clouds":[{"cover":"BKN","base":700},{"cover":"BKN","base":2000},{"cover":"OVC","base":9000}],"obsTime":1782302400},"SBSJ":{"icaoId":"SBSJ","flightCategory":"IFR","rawOb":"METAR SBSJ 241200Z 20006KT 4000 BR OVC005 14/13 Q1019 REDZ","temp":14,"dewp":13,"wdir":200,"wspd":6,"visib":2.49,"altim":1019,"clouds":[{"cover":"OVC","base":500}],"obsTime":1782302400},"SBSM":{"icaoId":"SBSM","flightCategory":"VFR","rawOb":"METAR SBSM 241200Z 12002KT CAVOK 08/06 Q1021","temp":8,"dewp":6,"wdir":120,"wspd":2,"visib":"6+","altim":1021,"clouds":[],"obsTime":1782302400},"SBES":{"icaoId":"SBES","flightCategory":"VFR","rawOb":"METAR SBES 241200Z 05010KT 010V080 9999 FEW011 BKN080 22/// Q1015","temp":null,"dewp":null,"wdir":50,"wspd":10,"visib":"6+","altim":1015,"clouds":[{"cover":"FEW","base":1100},{"cover":"BKN","base":8000}],"obsTime":1782302400},"SBSR":{"icaoId":"SBSR","flightCategory":"IFR","rawOb":"METAR SBSR 241200Z 27007KT 5000 -RA BR BKN005 OVC070 11/11 Q1020","temp":11,"dewp":11,"wdir":270,"wspd":7,"visib":3.11,"altim":1020,"clouds":[{"cover":"BKN","base":500},{"cover":"OVC","base":7000}],"obsTime":1782302400},"SBAX":{"icaoId":"SBAX","flightCategory":"MVFR","rawOb":"METAR SBAX 241200Z 09003KT 9999 BKN030 19/19 Q1021","temp":19,"dewp":19,"wdir":90,"wspd":3,"visib":"6+","altim":1021,"clouds":[{"cover":"BKN","base":3000}],"obsTime":1782302400},"SBTD":{"icaoId":"SBTD","flightCategory":"VFR","rawOb":"METAR SBTD 241200Z /////KT CAVOK 05/00 Q1023","temp":5,"dewp":0,"wdir":null,"wspd":null,"visib":"6+","altim":1023,"clouds":[],"obsTime":1782302400},"SBCA":{"icaoId":"SBCA","flightCategory":"VFR","rawOb":"METAR SBCA 241200Z 17010KT CAVOK 05/02 Q1022","temp":5,"dewp":2,"wdir":170,"wspd":10,"visib":"6+","altim":1022,"clouds":[],"obsTime":1782302400},"SBGM":{"icaoId":"SBGM","flightCategory":"MVFR","rawOb":"METAR SBGM 241200Z 12009KT 9999 OVC010 18/16 Q1017","temp":18,"dewp":16,"wdir":120,"wspd":9,"visib":"6+","altim":1017,"clouds":[{"cover":"OVC","base":1000}],"obsTime":1782302400},"SBTF":{"icaoId":"SBTF","flightCategory":"LIFR","rawOb":"METAR SBTF 241200Z 00000KT 7000 BKN004 25/25 Q1013","temp":25,"dewp":25,"wdir":0,"wspd":0,"visib":4.35,"altim":1013,"clouds":[{"cover":"BKN","base":400}],"obsTime":1782302400},"SBIP":{"icaoId":"SBIP","flightCategory":"VFR","rawOb":"METAR SBIP 241200Z AUTO 00000KT CAVOK 18/18 Q1019","temp":18,"dewp":18,"wdir":0,"wspd":0,"visib":"6+","altim":1019,"clouds":[],"obsTime":1782302400},"SBTT":{"icaoId":"SBTT","flightCategory":"VFR","rawOb":"METAR SBTT 241200Z 04004KT 9999 FEW030 24/23 Q1013","temp":24,"dewp":23,"wdir":40,"wspd":4,"visib":"6+","altim":1013,"clouds":[{"cover":"FEW","base":3000}],"obsTime":1782302400},"SBBH":{"icaoId":"SBBH","flightCategory":"VFR","rawOb":"METAR SBBH 241200Z 11003KT CAVOK 20/15 Q1020","temp":20,"dewp":15,"wdir":110,"wspd":3,"visib":"6+","altim":1020,"clouds":[],"obsTime":1782302400},"SBKG":{"icaoId":"SBKG","flightCategory":"MVFR","rawOb":"METAR SBKG 241200Z 14011KT 9999 BKN015 23/19 Q1018","temp":23,"dewp":19,"wdir":140,"wspd":11,"visib":"6+","altim":1018,"clouds":[{"cover":"BKN","base":1500}],"obsTime":1782302400},"SBUY":{"icaoId":"SBUY","flightCategory":"IFR","rawOb":"METAR SBUY 241200Z 36002KT 2000 BR FEW003 SCT090 23/22 Q1013","temp":23,"dewp":22,"wdir":360,"wspd":2,"visib":1.24,"altim":1013,"clouds":[{"cover":"FEW","base":300},{"cover":"SCT","base":9000}],"obsTime":1782302400},"SBVH":{"icaoId":"SBVH","flightCategory":"IFR","rawOb":"METAR SBVH 241200Z 17006KT 9999 -RA BKN006 OVC010 16/15 Q1019","temp":16,"dewp":15,"wdir":170,"wspd":6,"visib":"6+","altim":1019,"clouds":[{"cover":"BKN","base":600},{"cover":"OVC","base":1000}],"obsTime":1782302400},"SBCC":{"icaoId":"SBCC","flightCategory":"VFR","rawOb":"METAR SBCC 241200Z 16004KT CAVOK 23/19 Q1016","temp":23,"dewp":19,"wdir":160,"wspd":4,"visib":"6+","altim":1016,"clouds":[],"obsTime":1782302400},"SBOI":{"icaoId":"SBOI","flightCategory":"VFR","rawOb":"METAR SBOI 241200Z AUTO VRB01KT 9999 FEW008 28/25 Q1013","temp":28,"dewp":25,"wdir":"VRB","wspd":1,"visib":"6+","altim":1013,"clouds":[{"cover":"FEW","base":800}],"obsTime":1782302400},"SBAU":{"icaoId":"SBAU","flightCategory":"LIFR","rawOb":"METAR SBAU 241300Z 24006KT 3000 -RA BKN004 BKN010 BKN080 13/12 Q1021","temp":13,"dewp":12,"wdir":240,"wspd":6,"visib":1.86,"altim":1021,"clouds":[{"cover":"BKN","base":400},{"cover":"BKN","base":1000},{"cover":"BKN","base":8000}],"obsTime":1782306000},"SBTU":{"icaoId":"SBTU","flightCategory":"VFR","rawOb":"METAR SBTU 241200Z AUTO 02003KT 340V040 9999 // BKN084/// BKN100/// ///// Q1015","temp":null,"dewp":null,"wdir":20,"wspd":3,"visib":"6+","altim":1015,"clouds":[{"cover":"BKN","base":8400},{"cover":"BKN","base":10000}],"obsTime":1782302400},"SBIH":{"icaoId":"SBIH","flightCategory":"IFR","rawOb":"METAR SBIH 241200Z 00000KT 2000 BR FEW012 27/25 Q1013","temp":27,"dewp":25,"wdir":0,"wspd":0,"visib":1.24,"altim":1013,"clouds":[{"cover":"FEW","base":1200}],"obsTime":1782302400},"SBAN":{"icaoId":"SBAN","flightCategory":"VFR","rawOb":"METAR SBAN 241200Z 11004KT CAVOK 21/17 Q1022","temp":21,"dewp":17,"wdir":110,"wspd":4,"visib":"6+","altim":1022,"clouds":[],"obsTime":1782302400},"SBJV":{"icaoId":"SBJV","flightCategory":"VFR","rawOb":"METAR SBJV 241200Z 00000KT 9999 FEW030 OVC050 11/08 Q1021","temp":11,"dewp":8,"wdir":0,"wspd":0,"visib":"6+","altim":1021,"clouds":[{"cover":"FEW","base":3000},{"cover":"OVC","base":5000}],"obsTime":1782302400},"SBNM":{"icaoId":"SBNM","flightCategory":"VFR","rawOb":"METAR SBNM 241200Z AUTO 31004KT CAVOK 06/03 Q1023","temp":6,"dewp":3,"wdir":310,"wspd":4,"visib":"6+","altim":1023,"clouds":[],"obsTime":1782302400},"SBPF":{"icaoId":"SBPF","flightCategory":"VFR","rawOb":"METAR SBPF 241200Z 34006KT CAVOK 04/02 Q1021","temp":4,"dewp":2,"wdir":340,"wspd":6,"visib":"6+","altim":1021,"clouds":[],"obsTime":1782302400},"SBLE":{"icaoId":"SBLE","flightCategory":"VFR","rawOb":"METAR SBLE 241200Z AUTO VRB02KT 9999 OVC035 22/21 Q1020","temp":22,"dewp":21,"wdir":"VRB","wspd":2,"visib":"6+","altim":1020,"clouds":[{"cover":"OVC","base":3500}],"obsTime":1782302400},"SBGW":{"icaoId":"SBGW","flightCategory":"IFR","rawOb":"METAR SBGW 241200Z 24006KT 3000 BR OVC005 16/12 Q1019","temp":16,"dewp":12,"wdir":240,"wspd":6,"visib":1.86,"altim":1019,"clouds":[{"cover":"OVC","base":500}],"obsTime":1782302400},"SBJR":{"icaoId":"SBJR","flightCategory":"MVFR","rawOb":"METAR SBJR 241200Z 25006KT 8000 FEW006 BKN013 OVC030 21/20 Q1016","temp":21,"dewp":20,"wdir":250,"wspd":6,"visib":4.97,"altim":1016,"clouds":[{"cover":"FEW","base":600},{"cover":"BKN","base":1300},{"cover":"OVC","base":3000}],"obsTime":1782302400},"SBLS":{"icaoId":"SBLS","flightCategory":"VFR","rawOb":"METAR SBLS 241200Z 18005KT CAVOK 18/14 Q1020","temp":18,"dewp":14,"wdir":180,"wspd":5,"visib":"6+","altim":1020,"clouds":[],"obsTime":1782302400},"SBMT":{"icaoId":"SBMT","flightCategory":"IFR","rawOb":"METAR SBMT 241300Z 07003KT 6000 SCT004 BKN007 OVC020 13/13 Q1021 RERA","temp":13,"dewp":13,"wdir":70,"wspd":3,"visib":3.73,"altim":1021,"clouds":[{"cover":"SCT","base":400},{"cover":"BKN","base":700},{"cover":"OVC","base":2000}],"obsTime":1782306000},"SBST":{"icaoId":"SBST","flightCategory":"IFR","rawOb":"METAR SBST 241200Z 34006KT 3000 -RA OVC014 15/15 Q1019","temp":15,"dewp":15,"wdir":340,"wspd":6,"visib":1.86,"altim":1019,"clouds":[{"cover":"OVC","base":1400}],"obsTime":1782302400},"SBTA":{"icaoId":"SBTA","flightCategory":"IFR","rawOb":"METAR SBTA 241200Z 25003KT 3000 -DZ BR BKN005 OVC023 15/14 Q1018","temp":15,"dewp":14,"wdir":250,"wspd":3,"visib":1.86,"altim":1018,"clouds":[{"cover":"BKN","base":500},{"cover":"OVC","base":2300}],"obsTime":1782302400},"SBAF":{"icaoId":"SBAF","flightCategory":"MVFR","rawOb":"METAR SBAF 241200Z 28006KT 9000 BKN011 BKN020 21/21 Q1016","temp":21,"dewp":21,"wdir":280,"wspd":6,"visib":5.59,"altim":1016,"clouds":[{"cover":"BKN","base":1100},{"cover":"BKN","base":2000}],"obsTime":1782302400},"SBJP":{"icaoId":"SBJP","flightCategory":"MVFR","rawOb":"METAR SBJP 241200Z 13009KT 9999 BKN021 27/23 Q1016","temp":27,"dewp":23,"wdir":130,"wspd":9,"visib":"6+","altim":1016,"clouds":[{"cover":"BKN","base":2100}],"obsTime":1782302400}}}