{"updated":1779835426,"count":83,"data":{"SBRF":{"icaoId":"SBRF","flightCategory":"MVFR","rawOb":"METAR SBRF 262100Z 14011KT 8000 VCSH FEW015 SCT020 FEW023TCU BKN050 27/23 Q1014","temp":27,"dewp":23,"wdir":140,"wspd":11,"visib":4.97,"altim":1014,"clouds":[{"cover":"FEW","base":1500},{"cover":"SCT","base":2000},{"cover":"FEW","base":2300},{"cover":"BKN","base":5000}],"obsTime":1779829200},"SBMG":{"icaoId":"SBMG","flightCategory":"VFR","rawOb":"METAR SBMG 262100Z 23003KT 9999 FEW035 FEW035TCU BKN080 23/20 Q1019","temp":23,"dewp":20,"wdir":230,"wspd":3,"visib":"6+","altim":1019,"clouds":[{"cover":"FEW","base":3500},{"cover":"FEW","base":3500},{"cover":"BKN","base":8000}],"obsTime":1779829200},"SBMK":{"icaoId":"SBMK","flightCategory":"VFR","rawOb":"METAR SBMK 262100Z 08008KT CAVOK 25/16 Q1020","temp":25,"dewp":16,"wdir":80,"wspd":8,"visib":"6+","altim":1020,"clouds":[],"obsTime":1779829200},"SBFZ":{"icaoId":"SBFZ","flightCategory":"VFR","rawOb":"METAR SBFZ 262100Z 09008KT 9999 FEW025 28/23 Q1012","temp":28,"dewp":23,"wdir":90,"wspd":8,"visib":"6+","altim":1012,"clouds":[{"cover":"FEW","base":2500}],"obsTime":1779829200},"SBCP":{"icaoId":"SBCP","flightCategory":"VFR","rawOb":"METAR SBCP 262100Z 11005KT CAVOK 22/19 Q1019","temp":22,"dewp":19,"wdir":110,"wspd":5,"visib":"6+","altim":1019,"clouds":[],"obsTime":1779829200},"SBMO":{"icaoId":"SBMO","flightCategory":"VFR","rawOb":"METAR SBMO 262100Z 14006KT 9999 FEW025 26/23 Q1015","temp":26,"dewp":23,"wdir":140,"wspd":6,"visib":"6+","altim":1015,"clouds":[{"cover":"FEW","base":2500}],"obsTime":1779829200},"SBMQ":{"icaoId":"SBMQ","flightCategory":"VFR","rawOb":"METAR SBMQ 262100Z 07007KT 9999 FEW020 FEW040TCU 29/25 Q1011","temp":29,"dewp":25,"wdir":70,"wspd":7,"visib":"6+","altim":1011,"clouds":[{"cover":"FEW","base":2000},{"cover":"FEW","base":4000}],"obsTime":1779829200},"SBGL":{"icaoId":"SBGL","flightCategory":"VFR","rawOb":"METAR SBGL 262100Z 07009KT 9999 FEW030 24/19 Q1017","temp":24,"dewp":19,"wdir":70,"wspd":9,"visib":"6+","altim":1017,"clouds":[{"cover":"FEW","base":3000}],"obsTime":1779829200},"SBBR":{"icaoId":"SBBR","flightCategory":"VFR","rawOb":"METAR SBBR 262100Z 13007KT CAVOK 25/14 Q1021","temp":25,"dewp":14,"wdir":130,"wspd":7,"visib":"6+","altim":1021,"clouds":[],"obsTime":1779829200},"SBNT":{"icaoId":"SBNT","flightCategory":"VFR","rawOb":"METAR SBNT 262100Z 15007KT 9999 FEW020 26/24 Q1013","temp":26,"dewp":24,"wdir":150,"wspd":7,"visib":"6+","altim":1013,"clouds":[{"cover":"FEW","base":2000}],"obsTime":1779829200},"SBPA":{"icaoId":"SBPA","flightCategory":"IFR","rawOb":"METAR SBPA 262100Z 22007KT 190V250 9999 OVC008 17/16 Q1018","temp":17,"dewp":16,"wdir":220,"wspd":7,"visib":"6+","altim":1018,"clouds":[{"cover":"OVC","base":800}],"obsTime":1779829200},"SBGO":{"icaoId":"SBGO","flightCategory":"VFR","rawOb":"METAR SBGO 262100Z 14006KT CAVOK 28/16 Q1019","temp":28,"dewp":16,"wdir":140,"wspd":6,"visib":"6+","altim":1019,"clouds":[],"obsTime":1779829200},"SBCT":{"icaoId":"SBCT","flightCategory":"VFR","rawOb":"METAR SBCT 262100Z 29006KT 9999 SCT015 BKN080 18/17 Q1021","temp":18,"dewp":17,"wdir":290,"wspd":6,"visib":"6+","altim":1021,"clouds":[{"cover":"SCT","base":1500},{"cover":"BKN","base":8000}],"obsTime":1779829200},"SBPJ":{"icaoId":"SBPJ","flightCategory":"VFR","rawOb":"METAR SBPJ 262100Z 12004KT 9999 FEW045 31/18 Q1013","temp":31,"dewp":18,"wdir":120,"wspd":4,"visib":"6+","altim":1013,"clouds":[{"cover":"FEW","base":4500}],"obsTime":1779829200},"SBGR":{"icaoId":"SBGR","flightCategory":"VFR","rawOb":"METAR SBGR 262100Z 30005KT CAVOK 24/17 Q1021","temp":24,"dewp":17,"wdir":300,"wspd":5,"visib":"6+","altim":1021,"clouds":[],"obsTime":1779829200},"SBPV":{"icaoId":"SBPV","flightCategory":"VFR","rawOb":"METAR SBPV 262100Z 15006KT 130V210 9999 FEW030 BKN100 31/21 Q1011","temp":31,"dewp":21,"wdir":150,"wspd":6,"visib":"6+","altim":1011,"clouds":[{"cover":"FEW","base":3000},{"cover":"BKN","base":10000}],"obsTime":1779829200},"SBRB":{"icaoId":"SBRB","flightCategory":"VFR","rawOb":"METAR SBRB 262100Z 18002KT 9999 SCT030 28/22 Q1013","temp":28,"dewp":22,"wdir":180,"wspd":2,"visib":"6+","altim":1013,"clouds":[{"cover":"SCT","base":3000}],"obsTime":1779829200},"SBCF":{"icaoId":"SBCF","flightCategory":"VFR","rawOb":"METAR SBCF 262100Z 10009KT CAVOK 23/15 Q1022","temp":23,"dewp":15,"wdir":100,"wspd":9,"visib":"6+","altim":1022,"clouds":[],"obsTime":1779829200},"SBFI":{"icaoId":"SBFI","flightCategory":"MVFR","rawOb":"METAR SBFI 262100Z 20007KT 9999 FEW008 BKN015 BKN070 20/18 Q1019","temp":20,"dewp":18,"wdir":200,"wspd":7,"visib":"6+","altim":1019,"clouds":[{"cover":"FEW","base":800},{"cover":"BKN","base":1500},{"cover":"BKN","base":7000}],"obsTime":1779829200},"SBFL":{"icaoId":"SBFL","flightCategory":"VFR","rawOb":"METAR SBFL 262100Z 35011KT 9999 FEW014 20/18 Q1015","temp":20,"dewp":18,"wdir":350,"wspd":11,"visib":"6+","altim":1015,"clouds":[{"cover":"FEW","base":1400}],"obsTime":1779829200},"SBMA":{"icaoId":"SBMA","flightCategory":"VFR","rawOb":"METAR SBMA 262100Z 10003KT 9999 FEW025 31/20 Q1011","temp":31,"dewp":20,"wdir":100,"wspd":3,"visib":"6+","altim":1011,"clouds":[{"cover":"FEW","base":2500}],"obsTime":1779829200},"SBVT":{"icaoId":"SBVT","flightCategory":"VFR","rawOb":"METAR SBVT 262100Z 18007KT 9999 FEW012 SCT025 BKN050 24/21 Q1019","temp":24,"dewp":21,"wdir":180,"wspd":7,"visib":"6+","altim":1019,"clouds":[{"cover":"FEW","base":1200},{"cover":"SCT","base":2500},{"cover":"BKN","base":5000}],"obsTime":1779829200},"SBME":{"icaoId":"SBME","flightCategory":"VFR","rawOb":"METAR SBME 262100Z 09005KT 9999 FEW025 23/20 Q1019","temp":23,"dewp":20,"wdir":90,"wspd":5,"visib":"6+","altim":1019,"clouds":[{"cover":"FEW","base":2500}],"obsTime":1779829200},"SBCZ":{"icaoId":"SBCZ","flightCategory":"VFR","rawOb":"METAR SBCZ 262100Z 11006KT 9999 SCT040 31/20 Q1012","temp":31,"dewp":20,"wdir":110,"wspd":6,"visib":"6+","altim":1012,"clouds":[{"cover":"SCT","base":4000}],"obsTime":1779829200},"SBSG":{"icaoId":"SBSG","flightCategory":"VFR","rawOb":"METAR SBSG 262100Z 14004KT 100V170 9999 SCT025 26/23 Q1014","temp":26,"dewp":23,"wdir":140,"wspd":4,"visib":"6+","altim":1014,"clouds":[{"cover":"SCT","base":2500}],"obsTime":1779829200},"SBIL":{"icaoId":"SBIL","flightCategory":"VFR","rawOb":"METAR SBIL 262100Z 20008KT 9999 SCT023 27/24 Q1018","temp":27,"dewp":24,"wdir":200,"wspd":8,"visib":"6+","altim":1018,"clouds":[{"cover":"SCT","base":2300}],"obsTime":1779829200},"SBSL":{"icaoId":"SBSL","flightCategory":"MVFR","rawOb":"METAR SBSL 262100Z 13007KT 090V160 9999 BKN020 FEW027TCU BKN080 27/25 Q1012","temp":27,"dewp":25,"wdir":130,"wspd":7,"visib":"6+","altim":1012,"clouds":[{"cover":"BKN","base":2000},{"cover":"FEW","base":2700},{"cover":"BKN","base":8000}],"obsTime":1779829200},"SBBE":{"icaoId":"SBBE","flightCategory":"VFR","rawOb":"METAR SBBE 262100Z 34010KT 9999 SCT040 29/26 Q1011","temp":29,"dewp":26,"wdir":340,"wspd":10,"visib":"6+","altim":1011,"clouds":[{"cover":"SCT","base":4000}],"obsTime":1779829200},"SBJU":{"icaoId":"SBJU","flightCategory":"VFR","rawOb":"METAR SBJU 262100Z 00000KT 9999 FEW020 29/19 Q1014","temp":29,"dewp":19,"wdir":0,"wspd":0,"visib":"6+","altim":1014,"clouds":[{"cover":"FEW","base":2000}],"obsTime":1779829200},"SBSN":{"icaoId":"SBSN","flightCategory":"VFR","rawOb":"METAR SBSN 262100Z 08008KT 9999 FEW025 BKN100 30/26 Q1009","temp":30,"dewp":26,"wdir":80,"wspd":8,"visib":"6+","altim":1009,"clouds":[{"cover":"FEW","base":2500},{"cover":"BKN","base":10000}],"obsTime":1779829200},"SBBV":{"icaoId":"SBBV","flightCategory":"VFR","rawOb":"METAR SBBV 262100Z 12001KT 9999 SCT035 FEW040TCU SCT070 30/24 Q1010","temp":30,"dewp":24,"wdir":120,"wspd":1,"visib":"6+","altim":1010,"clouds":[{"cover":"SCT","base":3500},{"cover":"FEW","base":4000},{"cover":"SCT","base":7000}],"obsTime":1779829200},"SBSP":{"icaoId":"SBSP","flightCategory":"VFR","rawOb":"METAR SBSP 262100Z 31006KT 270V340 9999 FEW040 24/16 Q1022","temp":24,"dewp":16,"wdir":310,"wspd":6,"visib":"6+","altim":1022,"clouds":[{"cover":"FEW","base":4000}],"obsTime":1779829200},"SBSV":{"icaoId":"SBSV","flightCategory":"VFR","rawOb":"METAR SBSV 262100Z 14007KT 9999 SCT020 SCT023 BKN050 26/23 Q1016","temp":26,"dewp":23,"wdir":140,"wspd":7,"visib":"6+","altim":1016,"clouds":[{"cover":"SCT","base":2000},{"cover":"SCT","base":2300},{"cover":"BKN","base":5000}],"obsTime":1779829200},"SBEG":{"icaoId":"SBEG","flightCategory":"VFR","rawOb":"METAR SBEG 262100Z 13007KT 9999 FEW030 FEW035TCU 30/23 Q1010","temp":30,"dewp":23,"wdir":130,"wspd":7,"visib":"6+","altim":1010,"clouds":[{"cover":"FEW","base":3000},{"cover":"FEW","base":3500}],"obsTime":1779829200},"SBTE":{"icaoId":"SBTE","flightCategory":"VFR","rawOb":"METAR SBTE 262100Z 09002KT 9999 FEW025 32/20 Q1011","temp":32,"dewp":20,"wdir":90,"wspd":2,"visib":"6+","altim":1011,"clouds":[{"cover":"FEW","base":2500}],"obsTime":1779829200},"SBKP":{"icaoId":"SBKP","flightCategory":"VFR","rawOb":"METAR SBKP 262100Z 01003KT CAVOK 25/18 Q1020","temp":25,"dewp":18,"wdir":10,"wspd":3,"visib":"6+","altim":1020,"clouds":[],"obsTime":1779829200},"SBUL":{"icaoId":"SBUL","flightCategory":"VFR","rawOb":"METAR SBUL 262100Z 06008KT 9999 FEW030 23/16 Q1022","temp":23,"dewp":16,"wdir":60,"wspd":8,"visib":"6+","altim":1022,"clouds":[{"cover":"FEW","base":3000}],"obsTime":1779829200},"SBLO":{"icaoId":"SBLO","flightCategory":"VFR","rawOb":"METAR SBLO 262100Z 13002KT 9999 SCT030 23/21 Q1019","temp":23,"dewp":21,"wdir":130,"wspd":2,"visib":"6+","altim":1019,"clouds":[{"cover":"SCT","base":3000}],"obsTime":1779829200},"SBCG":{"icaoId":"SBCG","flightCategory":"VFR","rawOb":"METAR SBCG 262100Z 23005KT CAVOK 25/20 Q1018","temp":25,"dewp":20,"wdir":230,"wspd":5,"visib":"6+","altim":1018,"clouds":[],"obsTime":1779829200},"SBUR":{"icaoId":"SBUR","flightCategory":"VFR","rawOb":"METAR SBUR 262100Z 19005KT CAVOK 27/17 Q1020","temp":27,"dewp":17,"wdir":190,"wspd":5,"visib":"6+","altim":1020,"clouds":[],"obsTime":1779829200},"SBCB":{"icaoId":"SBCB","flightCategory":"VFR","rawOb":"METAR SBCB 262100Z /////KT CAVOK 23/20 Q1019","temp":23,"dewp":20,"wdir":null,"wspd":null,"visib":"6+","altim":1019,"clouds":[],"obsTime":1779829200},"SBCR":{"icaoId":"SBCR","flightCategory":"MVFR","rawOb":"METAR SBCR 262100Z 22010KT 190V260 9999 BKN030 24/19 Q1017","temp":24,"dewp":19,"wdir":220,"wspd":10,"visib":"6+","altim":1017,"clouds":[{"cover":"BKN","base":3000}],"obsTime":1779829200},"SBHT":{"icaoId":"SBHT","flightCategory":"VFR","rawOb":"METAR SBHT 262100Z 00000KT 9999 FEW025 31/24 Q1010","temp":31,"dewp":24,"wdir":0,"wspd":0,"visib":"6+","altim":1010,"clouds":[{"cover":"FEW","base":2500}],"obsTime":1779829200},"SBAT":{"icaoId":"SBAT","flightCategory":"VFR","rawOb":"METAR SBAT 262100Z 12003KT 9999 FEW030 32/20 Q1013","temp":32,"dewp":20,"wdir":120,"wspd":3,"visib":"6+","altim":1013,"clouds":[{"cover":"FEW","base":3000}],"obsTime":1779829200},"SBAR":{"icaoId":"SBAR","flightCategory":"VFR","rawOb":"METAR SBAR 262100Z 14009KT 9999 FEW025 27/21 Q1015","temp":27,"dewp":21,"wdir":140,"wspd":9,"visib":"6+","altim":1015,"clouds":[{"cover":"FEW","base":2500}],"obsTime":1779829200},"SBDN":{"icaoId":"SBDN","flightCategory":"VFR","rawOb":"METAR SBDN 262100Z 24004KT 9999 SCT043 26/20 Q1018","temp":26,"dewp":20,"wdir":240,"wspd":4,"visib":"6+","altim":1018,"clouds":[{"cover":"SCT","base":4300}],"obsTime":1779829200},"SBPL":{"icaoId":"SBPL","flightCategory":"MVFR","rawOb":"METAR SBPL 262100Z 10005KT 9999 BKN030 29/18 Q1015","temp":29,"dewp":18,"wdir":100,"wspd":5,"visib":"6+","altim":1015,"clouds":[{"cover":"BKN","base":3000}],"obsTime":1779829200},"SBCA":{"icaoId":"SBCA","flightCategory":"MVFR","rawOb":"METAR SBCA 262100Z 25003KT 210V270 9000 BKN020 19/18 Q1021","temp":19,"dewp":18,"wdir":250,"wspd":3,"visib":5.59,"altim":1021,"clouds":[{"cover":"BKN","base":2000}],"obsTime":1779829200},"SBPS":{"icaoId":"SBPS","flightCategory":"MVFR","rawOb":"METAR SBPS 262100Z VRB02KT 8000 VCSH SCT010 BKN020 BKN040 24/23 Q1018","temp":24,"dewp":23,"wdir":"VRB","wspd":2,"visib":4.97,"altim":1018,"clouds":[{"cover":"SCT","base":1000},{"cover":"BKN","base":2000},{"cover":"BKN","base":4000}],"obsTime":1779829200},"SBAX":{"icaoId":"SBAX","flightCategory":"VFR","rawOb":"METAR SBAX 262100Z 09004KT CAVOK 24/15 Q1022","temp":24,"dewp":15,"wdir":90,"wspd":4,"visib":"6+","altim":1022,"clouds":[],"obsTime":1779829200},"SBES":{"icaoId":"SBES","flightCategory":"VFR","rawOb":"METAR SBES 262100Z 00000KT 9999 FEW015 BKN040 21/// Q1019","temp":null,"dewp":null,"wdir":0,"wspd":0,"visib":"6+","altim":1019,"clouds":[{"cover":"FEW","base":1500},{"cover":"BKN","base":4000}],"obsTime":1779829200},"SBSC":{"icaoId":"SBSC","flightCategory":"VFR","rawOb":"METAR SBSC 262100Z 01006KT 9999 FEW030 BKN100 23/20 Q1017","temp":23,"dewp":20,"wdir":10,"wspd":6,"visib":"6+","altim":1017,"clouds":[{"cover":"FEW","base":3000},{"cover":"BKN","base":10000}],"obsTime":1779829200},"SBSJ":{"icaoId":"SBSJ","flightCategory":"VFR","rawOb":"METAR SBSJ 262100Z VRB02KT CAVOK 22/18 Q1020","temp":22,"dewp":18,"wdir":"VRB","wspd":2,"visib":"6+","altim":1020,"clouds":[],"obsTime":1779829200},"SBBU":{"icaoId":"SBBU","flightCategory":"VFR","rawOb":"METAR SBBU 262100Z 32002KT CAVOK 27/20 Q1019","temp":27,"dewp":20,"wdir":320,"wspd":2,"visib":"6+","altim":1019,"clouds":[],"obsTime":1779829200},"SBIP":{"icaoId":"SBIP","flightCategory":"VFR","rawOb":"METAR SBIP 262100Z AUTO 21002KT CAVOK 21/20 Q1019","temp":21,"dewp":20,"wdir":210,"wspd":2,"visib":"6+","altim":1019,"clouds":[],"obsTime":1779829200},"SBSM":{"icaoId":"SBSM","flightCategory":"VFR","rawOb":"METAR SBSM 262100Z 20003KT 9999 BKN040 18/15 Q1020","temp":18,"dewp":15,"wdir":200,"wspd":3,"visib":"6+","altim":1020,"clouds":[{"cover":"BKN","base":4000}],"obsTime":1779829200},"SBKG":{"icaoId":"SBKG","flightCategory":"MVFR","rawOb":"METAR SBKG 262100Z 11010KT 5000 -RA SCT006 BKN010 22/21 Q1017","temp":22,"dewp":21,"wdir":110,"wspd":10,"visib":3.11,"altim":1017,"clouds":[{"cover":"SCT","base":600},{"cover":"BKN","base":1000}],"obsTime":1779829200},"SBSR":{"icaoId":"SBSR","flightCategory":"VFR","rawOb":"METAR SBSR 262100Z 21007KT 9999 FEW030 BKN070 28/18 Q1019","temp":28,"dewp":18,"wdir":210,"wspd":7,"visib":"6+","altim":1019,"clouds":[{"cover":"FEW","base":3000},{"cover":"BKN","base":7000}],"obsTime":1779829200},"SBVH":{"icaoId":"SBVH","flightCategory":"VFR","rawOb":"METAR SBVH 262100Z 09005KT 060V120 9999 FEW040 28/19 Q1016","temp":28,"dewp":19,"wdir":90,"wspd":5,"visib":"6+","altim":1016,"clouds":[{"cover":"FEW","base":4000}],"obsTime":1779829200},"SBCO":{"icaoId":"SBCO","flightCategory":"IFR","rawOb":"METAR SBCO 262100Z 22005KT 190V260 9999 BKN009 OVC011 17/16 Q1019","temp":17,"dewp":16,"wdir":220,"wspd":5,"visib":"6+","altim":1019,"clouds":[{"cover":"BKN","base":900},{"cover":"OVC","base":1100}],"obsTime":1779829200},"SBTF":{"icaoId":"SBTF","flightCategory":"VFR","rawOb":"METAR SBTF 262100Z 36002KT 9999 FEW015 FEW030TCU 27/26 Q1010","temp":27,"dewp":26,"wdir":360,"wspd":2,"visib":"6+","altim":1010,"clouds":[{"cover":"FEW","base":1500},{"cover":"FEW","base":3000}],"obsTime":1779829200},"SBTT":{"icaoId":"SBTT","flightCategory":"VFR","rawOb":"METAR SBTT 262100Z 04002KT 9999 SCT025 BKN080 27/23 Q1011","temp":27,"dewp":23,"wdir":40,"wspd":2,"visib":"6+","altim":1011,"clouds":[{"cover":"SCT","base":2500},{"cover":"BKN","base":8000}],"obsTime":1779829200},"SBBH":{"icaoId":"SBBH","flightCategory":"VFR","rawOb":"METAR SBBH 262100Z 11006KT 9999 FEW045 22/15 Q1021","temp":22,"dewp":15,"wdir":110,"wspd":6,"visib":"6+","altim":1021,"clouds":[{"cover":"FEW","base":4500}],"obsTime":1779829200},"SBTU":{"icaoId":"SBTU","flightCategory":"VFR","rawOb":"METAR SBTU 262100Z AUTO 02004KT 9999 // NCD 29/24 Q1013","temp":29,"dewp":24,"wdir":20,"wspd":4,"visib":"6+","altim":1013,"clouds":[],"obsTime":1779829200},"SBOI":{"icaoId":"SBOI","flightCategory":"VFR","rawOb":"METAR SBOI 262100Z AUTO 36005KT 9999 FEW012 27/25 Q1011","temp":27,"dewp":25,"wdir":360,"wspd":5,"visib":"6+","altim":1011,"clouds":[{"cover":"FEW","base":1200}],"obsTime":1779829200},"SBUY":{"icaoId":"SBUY","flightCategory":"VFR","rawOb":"METAR SBUY 262100Z 18002KT 9999 FEW025 SCT100 27/24 Q1009","temp":27,"dewp":24,"wdir":180,"wspd":2,"visib":"6+","altim":1009,"clouds":[{"cover":"FEW","base":2500},{"cover":"SCT","base":10000}],"obsTime":1779829200},"SBPB":{"icaoId":"SBPB","flightCategory":"VFR","rawOb":"METAR SBPB 262100Z 06006KT 9999 FEW020 BKN100 29/25 Q1011","temp":29,"dewp":25,"wdir":60,"wspd":6,"visib":"6+","altim":1011,"clouds":[{"cover":"FEW","base":2000},{"cover":"BKN","base":10000}],"obsTime":1779829200},"SBCJ":{"icaoId":"SBCJ","flightCategory":"VFR","rawOb":"METAR SBCJ 262100Z 12005KT CAVOK 27/15 Q1016","temp":27,"dewp":15,"wdir":120,"wspd":5,"visib":"6+","altim":1016,"clouds":[],"obsTime":1779829200},"SBPP":{"icaoId":"SBPP","flightCategory":"VFR","rawOb":"METAR SBPP 262100Z 22009KT 9999 SCT015 20/17 Q1020","temp":20,"dewp":17,"wdir":220,"wspd":9,"visib":"6+","altim":1020,"clouds":[{"cover":"SCT","base":1500}],"obsTime":1779829200},"SBLE":{"icaoId":"SBLE","flightCategory":"VFR","rawOb":"METAR SBLE 262100Z AUTO 04004KT CAVOK 22/20 Q1018","temp":22,"dewp":20,"wdir":40,"wspd":4,"visib":"6+","altim":1018,"clouds":[],"obsTime":1779829200},"SBTA":{"icaoId":"SBTA","flightCategory":"VFR","rawOb":"METAR SBTA 262100Z 08004KT CAVOK 21/19 Q1019","temp":21,"dewp":19,"wdir":80,"wspd":4,"visib":"6+","altim":1019,"clouds":[],"obsTime":1779829200},"SBNM":{"icaoId":"SBNM","flightCategory":"MVFR","rawOb":"METAR SBNM 262100Z AUTO 21003KT 9999 -RA BKN014 BKN041 17/16 Q1020","temp":17,"dewp":16,"wdir":210,"wspd":3,"visib":"6+","altim":1020,"clouds":[{"cover":"BKN","base":1400},{"cover":"BKN","base":4100}],"obsTime":1779829200},"SBAF":{"icaoId":"SBAF","flightCategory":"VFR","rawOb":"METAR SBAF 262100Z 07006KT 9999 FEW030 SCT080 24/23 Q1018","temp":24,"dewp":23,"wdir":70,"wspd":6,"visib":"6+","altim":1018,"clouds":[{"cover":"FEW","base":3000},{"cover":"SCT","base":8000}],"obsTime":1779829200},"SBAN":{"icaoId":"SBAN","flightCategory":"VFR","rawOb":"METAR SBAN 262100Z 21006KT 9999 FEW040 23/14 Q1022","temp":23,"dewp":14,"wdir":210,"wspd":6,"visib":"6+","altim":1022,"clouds":[{"cover":"FEW","base":4000}],"obsTime":1779829200},"SBGW":{"icaoId":"SBGW","flightCategory":"VFR","rawOb":"METAR SBGW 262100Z VRB01KT 9999 FEW030 BKN100 22/15 Q1020","temp":22,"dewp":15,"wdir":"VRB","wspd":1,"visib":"6+","altim":1020,"clouds":[{"cover":"FEW","base":3000},{"cover":"BKN","base":10000}],"obsTime":1779829200},"SBJR":{"icaoId":"SBJR","flightCategory":"VFR","rawOb":"METAR SBJR 262100Z 01005KT 9999 FEW040 SCT080 24/20 Q1017","temp":24,"dewp":20,"wdir":10,"wspd":5,"visib":"6+","altim":1017,"clouds":[{"cover":"FEW","base":4000},{"cover":"SCT","base":8000}],"obsTime":1779829200},"SBLS":{"icaoId":"SBLS","flightCategory":"VFR","rawOb":"METAR SBLS 262100Z 13008KT CAVOK 22/15 Q1022","temp":22,"dewp":15,"wdir":130,"wspd":8,"visib":"6+","altim":1022,"clouds":[],"obsTime":1779829200},"SBJV":{"icaoId":"SBJV","flightCategory":"VFR","rawOb":"METAR SBJV 262100Z 31004KT 9999 FEW006 SCT100 19/18 Q1017","temp":19,"dewp":18,"wdir":310,"wspd":4,"visib":"6+","altim":1017,"clouds":[{"cover":"FEW","base":600},{"cover":"SCT","base":10000}],"obsTime":1779829200},"SBJP":{"icaoId":"SBJP","flightCategory":"MVFR","rawOb":"METAR SBJP 262100Z 14007KT 9999 SCT018 BKN022 BKN080 25/24 Q1014","temp":25,"dewp":24,"wdir":140,"wspd":7,"visib":"6+","altim":1014,"clouds":[{"cover":"SCT","base":1800},{"cover":"BKN","base":2200},{"cover":"BKN","base":8000}],"obsTime":1779829200},"SBMT":{"icaoId":"SBMT","flightCategory":"VFR","rawOb":"METAR SBMT 262100Z 28004KT 9999 SCT040 22/16 Q1020","temp":22,"dewp":16,"wdir":280,"wspd":4,"visib":"6+","altim":1020,"clouds":[{"cover":"SCT","base":4000}],"obsTime":1779829200},"SBST":{"icaoId":"SBST","flightCategory":"MVFR","rawOb":"METAR SBST 262100Z 27004KT 220V330 7000 OVC021 22/19 Q1018","temp":22,"dewp":19,"wdir":270,"wspd":4,"visib":4.35,"altim":1018,"clouds":[{"cover":"OVC","base":2100}],"obsTime":1779829200},"SBPF":{"icaoId":"SBPF","flightCategory":"LIFR","rawOb":"METAR SBPF 262100Z 24010KT 2000 -RA OVC002 17/16 Q1020","temp":17,"dewp":16,"wdir":240,"wspd":10,"visib":1.24,"altim":1020,"clouds":[{"cover":"OVC","base":200}],"obsTime":1779829200},"SBIH":{"icaoId":"SBIH","flightCategory":"VFR","rawOb":"METAR SBIH 262100Z 10002KT 9999 FEW020 31/27 Q1009","temp":31,"dewp":27,"wdir":100,"wspd":2,"visib":"6+","altim":1009,"clouds":[{"cover":"FEW","base":2000}],"obsTime":1779829200}}}