{"updated":1773941344,"count":86,"data":{"SBKP":{"icaoId":"SBKP","flightCategory":"MVFR","rawOb":"METAR SBKP 191600Z 31003KT 240V020 9999 BKN030 FEW040TCU 28/21 Q1010","temp":28,"dewp":21,"wdir":310,"wspd":3,"visib":"6+","altim":1010,"clouds":[{"cover":"BKN","base":3000},{"cover":"FEW","base":4000}],"obsTime":1773936000},"SBTE":{"icaoId":"SBTE","flightCategory":"MVFR","rawOb":"METAR SBTE 191600Z 29003KT 9999 BKN018 BKN100 29/24 Q1008","temp":29,"dewp":24,"wdir":290,"wspd":3,"visib":"6+","altim":1008,"clouds":[{"cover":"BKN","base":1800},{"cover":"BKN","base":10000}],"obsTime":1773936000},"SBCF":{"icaoId":"SBCF","flightCategory":"VFR","rawOb":"METAR SBCF 191600Z 16006KT 9999 SCT006 SCT090 24/21 Q1013","temp":24,"dewp":21,"wdir":160,"wspd":6,"visib":"6+","altim":1013,"clouds":[{"cover":"SCT","base":600},{"cover":"SCT","base":9000}],"obsTime":1773936000},"SBBR":{"icaoId":"SBBR","flightCategory":"VFR","rawOb":"METAR SBBR 191600Z 33008KT 9999 SCT040 FEW045TCU 27/17 Q1015","temp":27,"dewp":17,"wdir":330,"wspd":8,"visib":"6+","altim":1015,"clouds":[{"cover":"SCT","base":4000},{"cover":"FEW","base":4500}],"obsTime":1773936000},"SBBV":{"icaoId":"SBBV","flightCategory":"VFR","rawOb":"METAR SBBV 191600Z 10010KT 9999 SCT040 32/19 Q1011","temp":32,"dewp":19,"wdir":100,"wspd":10,"visib":"6+","altim":1011,"clouds":[{"cover":"SCT","base":4000}],"obsTime":1773936000},"SBVT":{"icaoId":"SBVT","flightCategory":"VFR","rawOb":"METAR SBVT 191600Z 06012KT 9999 TS FEW030 FEW040CB SCT090 29/24 Q1007","temp":29,"dewp":24,"wdir":60,"wspd":12,"visib":"6+","altim":1007,"clouds":[{"cover":"FEW","base":3000},{"cover":"FEW","base":4000},{"cover":"SCT","base":9000}],"obsTime":1773936000},"SBAT":{"icaoId":"SBAT","flightCategory":"VFR","rawOb":"METAR SBAT 191600Z 05002KT 9999 SCT018 24/23 Q1011","temp":24,"dewp":23,"wdir":50,"wspd":2,"visib":"6+","altim":1011,"clouds":[{"cover":"SCT","base":1800}],"obsTime":1773936000},"SBBE":{"icaoId":"SBBE","flightCategory":"VFR","rawOb":"METAR SBBE 191600Z 35009KT 9999 FEW015 SCT025 FEW030TCU BKN045 28/25 Q1009","temp":28,"dewp":25,"wdir":350,"wspd":9,"visib":"6+","altim":1009,"clouds":[{"cover":"FEW","base":1500},{"cover":"SCT","base":2500},{"cover":"FEW","base":3000},{"cover":"BKN","base":4500}],"obsTime":1773936000},"SBCB":{"icaoId":"SBCB","flightCategory":"VFR","rawOb":"METAR SBCB 191600Z 09012KT 9999 FEW015 SCT060 28/23 Q1008","temp":28,"dewp":23,"wdir":90,"wspd":12,"visib":"6+","altim":1008,"clouds":[{"cover":"FEW","base":1500},{"cover":"SCT","base":6000}],"obsTime":1773936000},"SBCG":{"icaoId":"SBCG","flightCategory":"VFR","rawOb":"METAR SBCG 191600Z 34006KT 290V020 9999 SCT023 28/22 Q1011","temp":28,"dewp":22,"wdir":340,"wspd":6,"visib":"6+","altim":1011,"clouds":[{"cover":"SCT","base":2300}],"obsTime":1773936000},"SBCP":{"icaoId":"SBCP","flightCategory":"MVFR","rawOb":"METAR SBCP 191600Z 07004KT 9999 BKN020 BKN100 32/25 Q1007","temp":32,"dewp":25,"wdir":70,"wspd":4,"visib":"6+","altim":1007,"clouds":[{"cover":"BKN","base":2000},{"cover":"BKN","base":10000}],"obsTime":1773936000},"SBCR":{"icaoId":"SBCR","flightCategory":"MVFR","rawOb":"METAR SBCR 191600Z 03007KT 350V080 9999 SCT020 BKN030 29/24 Q1008","temp":29,"dewp":24,"wdir":30,"wspd":7,"visib":"6+","altim":1008,"clouds":[{"cover":"SCT","base":2000},{"cover":"BKN","base":3000}],"obsTime":1773936000},"SBCT":{"icaoId":"SBCT","flightCategory":"VFR","rawOb":"METAR SBCT 191600Z 10006KT 070V170 9999 BKN035 FEW040TCU 27/19 Q1013","temp":27,"dewp":19,"wdir":100,"wspd":6,"visib":"6+","altim":1013,"clouds":[{"cover":"BKN","base":3500},{"cover":"FEW","base":4000}],"obsTime":1773936000},"SBCZ":{"icaoId":"SBCZ","flightCategory":"MVFR","rawOb":"METAR SBCZ 191600Z 00000KT 9999 BKN025 28/24 Q1011","temp":28,"dewp":24,"wdir":0,"wspd":0,"visib":"6+","altim":1011,"clouds":[{"cover":"BKN","base":2500}],"obsTime":1773936000},"SBEG":{"icaoId":"SBEG","flightCategory":"IFR","rawOb":"METAR SBEG 191600Z 25015KT 7000 -TSRA BKN007 FEW030CB BKN100 24/23 Q1013","temp":24,"dewp":23,"wdir":250,"wspd":15,"visib":4.35,"altim":1013,"clouds":[{"cover":"BKN","base":700},{"cover":"FEW","base":3000},{"cover":"BKN","base":10000}],"obsTime":1773936000},"SBFI":{"icaoId":"SBFI","flightCategory":"VFR","rawOb":"METAR SBFI 191600Z 03004KT 9999 FEW030 32/24 Q1008","temp":32,"dewp":24,"wdir":30,"wspd":4,"visib":"6+","altim":1008,"clouds":[{"cover":"FEW","base":3000}],"obsTime":1773936000},"SBFL":{"icaoId":"SBFL","flightCategory":"VFR","rawOb":"SPECI SBFL 191546Z 08006KT 9999 SCT011 FEW030TCU BKN035 26/25 Q1008 RESHRA","temp":26,"dewp":25,"wdir":80,"wspd":6,"visib":"6+","altim":1008,"clouds":[{"cover":"SCT","base":1100},{"cover":"FEW","base":3000},{"cover":"BKN","base":3500}],"obsTime":1773935160},"SBFZ":{"icaoId":"SBFZ","flightCategory":"VFR","rawOb":"METAR SBFZ 191600Z 10011KT 070V130 9999 SCT025 31/25 Q1008","temp":31,"dewp":25,"wdir":100,"wspd":11,"visib":"6+","altim":1008,"clouds":[{"cover":"SCT","base":2500}],"obsTime":1773936000},"SBGL":{"icaoId":"SBGL","flightCategory":"VFR","rawOb":"METAR SBGL 191600Z 13008KT 9999 FEW020 BKN100 29/23 Q1008","temp":29,"dewp":23,"wdir":130,"wspd":8,"visib":"6+","altim":1008,"clouds":[{"cover":"FEW","base":2000},{"cover":"BKN","base":10000}],"obsTime":1773936000},"SBGO":{"icaoId":"SBGO","flightCategory":"VFR","rawOb":"METAR SBGO 191600Z COR 29008KT 9999 VCSH BKN040 FEW050TCU 29/21 Q1013","temp":29,"dewp":21,"wdir":290,"wspd":8,"visib":"6+","altim":1013,"clouds":[{"cover":"BKN","base":4000},{"cover":"FEW","base":5000}],"obsTime":1773936000},"SBGR":{"icaoId":"SBGR","flightCategory":"MVFR","rawOb":"METAR SBGR 191600Z 07005KT 9000 4000SW VCSH BKN020 FEW050TCU BKN100 26/21 Q1012","temp":26,"dewp":21,"wdir":70,"wspd":5,"visib":5.59,"altim":1012,"clouds":[{"cover":"BKN","base":2000},{"cover":"FEW","base":5000},{"cover":"BKN","base":10000}],"obsTime":1773936000},"SBHT":{"icaoId":"SBHT","flightCategory":"MVFR","rawOb":"METAR SBHT 191600Z 09007KT 9999 BKN020 SCT100 30/23 Q1010","temp":30,"dewp":23,"wdir":90,"wspd":7,"visib":"6+","altim":1010,"clouds":[{"cover":"BKN","base":2000},{"cover":"SCT","base":10000}],"obsTime":1773936000},"SBIL":{"icaoId":"SBIL","flightCategory":"VFR","rawOb":"METAR SBIL 191600Z 07010KT 9999 FEW030 32/25 Q1009","temp":32,"dewp":25,"wdir":70,"wspd":10,"visib":"6+","altim":1009,"clouds":[{"cover":"FEW","base":3000}],"obsTime":1773936000},"SBJU":{"icaoId":"SBJU","flightCategory":"MVFR","rawOb":"METAR SBJU 191600Z 00000KT 9999 BKN020 27/23 Q1012","temp":27,"dewp":23,"wdir":0,"wspd":0,"visib":"6+","altim":1012,"clouds":[{"cover":"BKN","base":2000}],"obsTime":1773936000},"SBLO":{"icaoId":"SBLO","flightCategory":"VFR","rawOb":"METAR SBLO 191600Z VRB02KT 9999 FEW029TCU 29/22 Q1010","temp":29,"dewp":22,"wdir":"VRB","wspd":2,"visib":"6+","altim":1010,"clouds":[{"cover":"FEW","base":2900}],"obsTime":1773936000},"SBMA":{"icaoId":"SBMA","flightCategory":"MVFR","rawOb":"METAR SBMA 191600Z 20002KT 9999 BKN023 31/24 Q1010","temp":31,"dewp":24,"wdir":200,"wspd":2,"visib":"6+","altim":1010,"clouds":[{"cover":"BKN","base":2300}],"obsTime":1773936000},"SBME":{"icaoId":"SBME","flightCategory":"VFR","rawOb":"METAR SBME 191600Z 12011KT 9999 FEW030 31/24 Q1007","temp":31,"dewp":24,"wdir":120,"wspd":11,"visib":"6+","altim":1007,"clouds":[{"cover":"FEW","base":3000}],"obsTime":1773936000},"SBMG":{"icaoId":"SBMG","flightCategory":"VFR","rawOb":"METAR SBMG 191600Z 05002KT 9999 SCT040 32/21 Q1009","temp":32,"dewp":21,"wdir":50,"wspd":2,"visib":"6+","altim":1009,"clouds":[{"cover":"SCT","base":4000}],"obsTime":1773936000},"SBMK":{"icaoId":"SBMK","flightCategory":"VFR","rawOb":"METAR SBMK 191600Z 31004KT 9999 SCT040 FEW040TCU 30/21 Q1012","temp":30,"dewp":21,"wdir":310,"wspd":4,"visib":"6+","altim":1012,"clouds":[{"cover":"SCT","base":4000},{"cover":"FEW","base":4000}],"obsTime":1773936000},"SBMO":{"icaoId":"SBMO","flightCategory":"VFR","rawOb":"METAR SBMO 191600Z 10011KT 9999 SCT030 33/23 Q1009","temp":33,"dewp":23,"wdir":100,"wspd":11,"visib":"6+","altim":1009,"clouds":[{"cover":"SCT","base":3000}],"obsTime":1773936000},"SBMQ":{"icaoId":"SBMQ","flightCategory":"VFR","rawOb":"METAR SBMQ 191600Z 06014KT 9999 VCSH SCT020 FEW025TCU OVC063 29/24 Q1010","temp":29,"dewp":24,"wdir":60,"wspd":14,"visib":"6+","altim":1010,"clouds":[{"cover":"SCT","base":2000},{"cover":"FEW","base":2500},{"cover":"OVC","base":6300}],"obsTime":1773936000},"SBNT":{"icaoId":"SBNT","flightCategory":"VFR","rawOb":"METAR SBNT 191600Z 11011KT 080V140 9999 FEW039 32/21 Q1008","temp":32,"dewp":21,"wdir":110,"wspd":11,"visib":"6+","altim":1008,"clouds":[{"cover":"FEW","base":3900}],"obsTime":1773936000},"SBPA":{"icaoId":"SBPA","flightCategory":"MVFR","rawOb":"METAR SBPA 191600Z 18012KT 150V230 9999 BKN025 27/22 Q1010","temp":27,"dewp":22,"wdir":180,"wspd":12,"visib":"6+","altim":1010,"clouds":[{"cover":"BKN","base":2500}],"obsTime":1773936000},"SBPJ":{"icaoId":"SBPJ","flightCategory":"LIFR","rawOb":"METAR SBPJ 191600Z 07007KT 340V150 1000 R14/P2000 +TSRA FEW015 SCT025 FEW030CB BKN080 25/23 Q1011","temp":25,"dewp":23,"wdir":70,"wspd":7,"visib":0.62,"altim":1011,"clouds":[{"cover":"FEW","base":1500},{"cover":"SCT","base":2500},{"cover":"FEW","base":3000},{"cover":"BKN","base":8000}],"obsTime":1773936000},"SBPV":{"icaoId":"SBPV","flightCategory":"MVFR","rawOb":"METAR SBPV 191600Z 31002KT 9999 BKN020 30/24 Q1010","temp":30,"dewp":24,"wdir":310,"wspd":2,"visib":"6+","altim":1010,"clouds":[{"cover":"BKN","base":2000}],"obsTime":1773936000},"SBRB":{"icaoId":"SBRB","flightCategory":"MVFR","rawOb":"METAR SBRB 191600Z 34006KT 9999 BKN023 BKN050 30/25 Q1012","temp":30,"dewp":25,"wdir":340,"wspd":6,"visib":"6+","altim":1012,"clouds":[{"cover":"BKN","base":2300},{"cover":"BKN","base":5000}],"obsTime":1773936000},"SBRF":{"icaoId":"SBRF","flightCategory":"VFR","rawOb":"METAR SBRF 191600Z 10009KT 070V180 9999 SCT025 31/23 Q1009","temp":31,"dewp":23,"wdir":100,"wspd":9,"visib":"6+","altim":1009,"clouds":[{"cover":"SCT","base":2500}],"obsTime":1773936000},"SBSG":{"icaoId":"SBSG","flightCategory":"VFR","rawOb":"METAR SBSG 191600Z 13006KT 090V210 9999 SCT033 32/24 Q1008","temp":32,"dewp":24,"wdir":130,"wspd":6,"visib":"6+","altim":1008,"clouds":[{"cover":"SCT","base":3300}],"obsTime":1773936000},"SBSL":{"icaoId":"SBSL","flightCategory":"MVFR","rawOb":"METAR SBSL 191600Z 08013KT 9999 VCSH FEW012 BKN020 FEW025TCU 29/24 Q1008","temp":29,"dewp":24,"wdir":80,"wspd":13,"visib":"6+","altim":1008,"clouds":[{"cover":"FEW","base":1200},{"cover":"BKN","base":2000},{"cover":"FEW","base":2500}],"obsTime":1773936000},"SBSN":{"icaoId":"SBSN","flightCategory":"MVFR","rawOb":"METAR SBSN 191600Z 36003KT 7000 -RA SCT010 SCT020 OVC100 26/25 Q1010","temp":26,"dewp":25,"wdir":360,"wspd":3,"visib":4.35,"altim":1010,"clouds":[{"cover":"SCT","base":1000},{"cover":"SCT","base":2000},{"cover":"OVC","base":10000}],"obsTime":1773936000},"SBSP":{"icaoId":"SBSP","flightCategory":"MVFR","rawOb":"METAR SBSP 191600Z 06008KT 6000 -RA SCT030 BKN083 22/20 Q1013","temp":22,"dewp":20,"wdir":60,"wspd":8,"visib":3.73,"altim":1013,"clouds":[{"cover":"SCT","base":3000},{"cover":"BKN","base":8300}],"obsTime":1773936000},"SBSV":{"icaoId":"SBSV","flightCategory":"VFR","rawOb":"METAR SBSV 191600Z 11011KT 9999 SCT023 30/22 Q1009","temp":30,"dewp":22,"wdir":110,"wspd":11,"visib":"6+","altim":1009,"clouds":[{"cover":"SCT","base":2300}],"obsTime":1773936000},"SBUL":{"icaoId":"SBUL","flightCategory":"VFR","rawOb":"METAR SBUL 191600Z 01008KT 9999 VCSH SCT030 FEW040TCU SCT100 27/20 Q1013","temp":27,"dewp":20,"wdir":10,"wspd":8,"visib":"6+","altim":1013,"clouds":[{"cover":"SCT","base":3000},{"cover":"FEW","base":4000},{"cover":"SCT","base":10000}],"obsTime":1773936000},"SBUR":{"icaoId":"SBUR","flightCategory":"MVFR","rawOb":" SBUR 191600Z 30007KT 9999 BKN027 FEW030TCU 29/21 Q1011","temp":29,"dewp":21,"wdir":300,"wspd":7,"visib":"6+","altim":1011,"clouds":[{"cover":"BKN","base":2700},{"cover":"FEW","base":3000}],"obsTime":1773936000},"SBBQ":{"icaoId":"SBBQ","flightCategory":"MVFR","rawOb":"METAR SBBQ 191600Z 33006KT 9999 BKN030 BKN100 25/19 Q1016","temp":25,"dewp":19,"wdir":330,"wspd":6,"visib":"6+","altim":1016,"clouds":[{"cover":"BKN","base":3000},{"cover":"BKN","base":10000}],"obsTime":1773936000},"SBAU":{"icaoId":"SBAU","flightCategory":"VFR","rawOb":"METAR SBAU 191600Z 03004KT 9999 SCT030 31/22 Q1009","temp":31,"dewp":22,"wdir":30,"wspd":4,"visib":"6+","altim":1009,"clouds":[{"cover":"SCT","base":3000}],"obsTime":1773936000},"SBOI":{"icaoId":"SBOI","flightCategory":"VFR","rawOb":"METAR SBOI 191600Z AUTO 01008KT 9999 FEW029 BKN047 30/24 Q1010","temp":30,"dewp":24,"wdir":10,"wspd":8,"visib":"6+","altim":1010,"clouds":[{"cover":"FEW","base":2900},{"cover":"BKN","base":4700}],"obsTime":1773936000},"SBCC":{"icaoId":"SBCC","flightCategory":"MVFR","rawOb":"METAR SBCC 191600Z 18006KT 9999 FEW008 BKN015 BKN070 24/24 Q1011 RERA","temp":24,"dewp":24,"wdir":180,"wspd":6,"visib":"6+","altim":1011,"clouds":[{"cover":"FEW","base":800},{"cover":"BKN","base":1500},{"cover":"BKN","base":7000}],"obsTime":1773936000},"SBPB":{"icaoId":"SBPB","flightCategory":"VFR","rawOb":"METAR SBPB 191600Z 06006KT 9999 FEW010 BKN070 27/24 Q1009","temp":27,"dewp":24,"wdir":60,"wspd":6,"visib":"6+","altim":1009,"clouds":[{"cover":"FEW","base":1000},{"cover":"BKN","base":7000}],"obsTime":1773936000},"SBBH":{"icaoId":"SBBH","flightCategory":"VFR","rawOb":"METAR SBBH 191600Z 11007KT 9999 FEW030 24/21 Q1013","temp":24,"dewp":21,"wdir":110,"wspd":7,"visib":"6+","altim":1013,"clouds":[{"cover":"FEW","base":3000}],"obsTime":1773936000},"SBPL":{"icaoId":"SBPL","flightCategory":"VFR","rawOb":"METAR SBPL 191600Z 12004KT 9999 SCT030 31/21 Q1010","temp":31,"dewp":21,"wdir":120,"wspd":4,"visib":"6+","altim":1010,"clouds":[{"cover":"SCT","base":3000}],"obsTime":1773936000},"SBCJ":{"icaoId":"SBCJ","flightCategory":"MVFR","rawOb":"METAR SBCJ 191600Z 16003KT 9999 BKN013 24/21 Q1015","temp":24,"dewp":21,"wdir":160,"wspd":3,"visib":"6+","altim":1015,"clouds":[{"cover":"BKN","base":1300}],"obsTime":1773936000},"SBPP":{"icaoId":"SBPP","flightCategory":"VFR","rawOb":"METAR SBPP 191600Z 06005KT 9999 FEW020 28/21 Q1011","temp":28,"dewp":21,"wdir":60,"wspd":5,"visib":"6+","altim":1011,"clouds":[{"cover":"FEW","base":2000}],"obsTime":1773936000},"SBPS":{"icaoId":"SBPS","flightCategory":"VFR","rawOb":"METAR SBPS 191600Z 07013KT 030V090 9999 SCT025 31/24 Q1009","temp":31,"dewp":24,"wdir":70,"wspd":13,"visib":"6+","altim":1009,"clouds":[{"cover":"SCT","base":2500}],"obsTime":1773936000},"SBAR":{"icaoId":"SBAR","flightCategory":"VFR","rawOb":"METAR SBAR 191600Z 11010KT 9999 FEW020 31/23 Q1009","temp":31,"dewp":23,"wdir":110,"wspd":10,"visib":"6+","altim":1009,"clouds":[{"cover":"FEW","base":2000}],"obsTime":1773936000},"SBCO":{"icaoId":"SBCO","flightCategory":"MVFR","rawOb":"METAR SBCO 191600Z 18009KT 140V210 9999 BKN023 SCT030 28/23 Q1010","temp":28,"dewp":23,"wdir":180,"wspd":9,"visib":"6+","altim":1010,"clouds":[{"cover":"BKN","base":2300},{"cover":"SCT","base":3000}],"obsTime":1773936000},"SBSC":{"icaoId":"SBSC","flightCategory":"VFR","rawOb":"METAR SBSC 191600Z 25007KT 9999 SCT025 28/23 Q1008","temp":28,"dewp":23,"wdir":250,"wspd":7,"visib":"6+","altim":1008,"clouds":[{"cover":"SCT","base":2500}],"obsTime":1773936000},"SBSJ":{"icaoId":"SBSJ","flightCategory":"IFR","rawOb":"METAR SBSJ 191600Z 04004KT 4000 BR BKN015 BKN100 24/21 Q1012","temp":24,"dewp":21,"wdir":40,"wspd":4,"visib":2.49,"altim":1012,"clouds":[{"cover":"BKN","base":1500},{"cover":"BKN","base":10000}],"obsTime":1773936000},"SBDN":{"icaoId":"SBDN","flightCategory":"VFR","rawOb":"METAR SBDN 191600Z 00000KT 9999 BKN035 FEW050TCU 31/22 Q1009","temp":31,"dewp":22,"wdir":0,"wspd":0,"visib":"6+","altim":1009,"clouds":[{"cover":"BKN","base":3500},{"cover":"FEW","base":5000}],"obsTime":1773936000},"SBSM":{"icaoId":"SBSM","flightCategory":"MVFR","rawOb":"METAR SBSM 191600Z 11005KT 050V180 9999 SCT019 OVC023 25/20 Q1011","temp":25,"dewp":20,"wdir":110,"wspd":5,"visib":"6+","altim":1011,"clouds":[{"cover":"SCT","base":1900},{"cover":"OVC","base":2300}],"obsTime":1773936000},"SBSR":{"icaoId":"SBSR","flightCategory":"VFR","rawOb":"METAR SBSR 191600Z VRB03KT 9999 VCSH FEW015 SCT025 FEW035TCU BKN080 27/21 Q1010","temp":27,"dewp":21,"wdir":"VRB","wspd":3,"visib":"6+","altim":1010,"clouds":[{"cover":"FEW","base":1500},{"cover":"SCT","base":2500},{"cover":"FEW","base":3500},{"cover":"BKN","base":8000}],"obsTime":1773936000},"SBES":{"icaoId":"SBES","flightCategory":"VFR","rawOb":"METAR SBES 191600Z 08008KT 040V110 9999 SCT015 BKN100 28/// Q1008","temp":null,"dewp":null,"wdir":80,"wspd":8,"visib":"6+","altim":1008,"clouds":[{"cover":"SCT","base":1500},{"cover":"BKN","base":10000}],"obsTime":1773936000},"SBAX":{"icaoId":"SBAX","flightCategory":"VFR","rawOb":"METAR SBAX 191600Z 36007KT 9999 SCT023 27/20 Q1013","temp":27,"dewp":20,"wdir":360,"wspd":7,"visib":"6+","altim":1013,"clouds":[{"cover":"SCT","base":2300}],"obsTime":1773936000},"SBTF":{"icaoId":"SBTF","flightCategory":"VFR","rawOb":"METAR SBTF 191600Z 12007KT 9999 FEW012 OVC100 28/24 Q1011","temp":28,"dewp":24,"wdir":120,"wspd":7,"visib":"6+","altim":1011,"clouds":[{"cover":"FEW","base":1200},{"cover":"OVC","base":10000}],"obsTime":1773936000},"SBGM":{"icaoId":"SBGM","flightCategory":"VFR","rawOb":"METAR SBGM 191600Z VRB05KT 9999 FEW010 31/19 Q1010","temp":31,"dewp":19,"wdir":"VRB","wspd":5,"visib":"6+","altim":1010,"clouds":[{"cover":"FEW","base":1000}],"obsTime":1773936000},"SBTT":{"icaoId":"SBTT","flightCategory":"VFR","rawOb":"METAR SBTT 191600Z 26004KT 9999 FEW014 27/22 Q1012","temp":27,"dewp":22,"wdir":260,"wspd":4,"visib":"6+","altim":1012,"clouds":[{"cover":"FEW","base":1400}],"obsTime":1773936000},"SBUY":{"icaoId":"SBUY","flightCategory":"VFR","rawOb":"METAR SBUY 191600Z 15005KT 9999 SCT014 BKN090 26/23 Q1010","temp":26,"dewp":23,"wdir":150,"wspd":5,"visib":"6+","altim":1010,"clouds":[{"cover":"SCT","base":1400},{"cover":"BKN","base":9000}],"obsTime":1773936000},"SBBU":{"icaoId":"SBBU","flightCategory":"MVFR","rawOb":"METAR SBBU 191600Z 35004KT 9999 BKN020 SCT090 28/23 Q1010","temp":28,"dewp":23,"wdir":350,"wspd":4,"visib":"6+","altim":1010,"clouds":[{"cover":"BKN","base":2000},{"cover":"SCT","base":9000}],"obsTime":1773936000},"SBIP":{"icaoId":"SBIP","flightCategory":"VFR","rawOb":"METAR SBIP 191600Z AUTO 16005KT 120V200 9999 FEW036 SCT041 30/23 Q1009","temp":30,"dewp":23,"wdir":160,"wspd":5,"visib":"6+","altim":1009,"clouds":[{"cover":"FEW","base":3600},{"cover":"SCT","base":4100}],"obsTime":1773936000},"SBVH":{"icaoId":"SBVH","flightCategory":"MVFR","rawOb":"METAR SBVH 191600Z 08008KT 5000 1500SE -RA BKN013 BKN025 FEW035TCU 24/23 Q1012","temp":24,"dewp":23,"wdir":80,"wspd":8,"visib":3.11,"altim":1012,"clouds":[{"cover":"BKN","base":1300},{"cover":"BKN","base":2500},{"cover":"FEW","base":3500}],"obsTime":1773936000},"SBKG":{"icaoId":"SBKG","flightCategory":"VFR","rawOb":"METAR SBKG 191600Z 16006KT 120V210 9999 FEW025 29/19 Q1011","temp":29,"dewp":19,"wdir":160,"wspd":6,"visib":"6+","altim":1011,"clouds":[{"cover":"FEW","base":2500}],"obsTime":1773936000},"SBCA":{"icaoId":"SBCA","flightCategory":"MVFR","rawOb":"METAR SBCA 191700Z 35006KT 9999 BKN020 FEW025TCU 31/20 Q1011","temp":31,"dewp":20,"wdir":350,"wspd":6,"visib":"6+","altim":1011,"clouds":[{"cover":"BKN","base":2000},{"cover":"FEW","base":2500}],"obsTime":1773939600},"SBTD":{"icaoId":"SBTD","flightCategory":"VFR","rawOb":"METAR SBTD 191600Z /////KT 9999 SCT040 32/22 Q1010","temp":32,"dewp":22,"wdir":null,"wspd":null,"visib":"6+","altim":1010,"clouds":[{"cover":"SCT","base":4000}],"obsTime":1773936000},"SBTA":{"icaoId":"SBTA","flightCategory":"IFR","rawOb":"METAR SBTA 191600Z 10004KT 060V120 3500 -DZ BR SCT009 BKN014 BKN035 23/23 Q1011","temp":23,"dewp":23,"wdir":100,"wspd":4,"visib":2.17,"altim":1011,"clouds":[{"cover":"SCT","base":900},{"cover":"BKN","base":1400},{"cover":"BKN","base":3500}],"obsTime":1773936000},"SBAF":{"icaoId":"SBAF","flightCategory":"MVFR","rawOb":" SBAF 191600Z 18006KT 7000 FEW010 SCT030 BKN100 29/25 Q1008","temp":29,"dewp":25,"wdir":180,"wspd":6,"visib":4.35,"altim":1008,"clouds":[{"cover":"FEW","base":1000},{"cover":"SCT","base":3000},{"cover":"BKN","base":10000}],"obsTime":1773936000},"SBAN":{"icaoId":"SBAN","flightCategory":"MVFR","rawOb":"METAR SBAN 191600Z VRB04KT 9999 BKN030 28/18 Q1016","temp":28,"dewp":18,"wdir":"VRB","wspd":4,"visib":"6+","altim":1016,"clouds":[{"cover":"BKN","base":3000}],"obsTime":1773936000},"SBGW":{"icaoId":"SBGW","flightCategory":"IFR","rawOb":"METAR SBGW 191600Z 06003KT 350V110 3000 -RA HZ SCT014 BKN035 24/19 Q1011","temp":24,"dewp":19,"wdir":60,"wspd":3,"visib":1.86,"altim":1011,"clouds":[{"cover":"SCT","base":1400},{"cover":"BKN","base":3500}],"obsTime":1773936000},"SBIH":{"icaoId":"SBIH","flightCategory":"MVFR","rawOb":"METAR SBIH 191600Z 06008KT 7000 -RA SCT008 OVC080 25/24 Q1010","temp":25,"dewp":24,"wdir":60,"wspd":8,"visib":4.35,"altim":1010,"clouds":[{"cover":"SCT","base":800},{"cover":"OVC","base":8000}],"obsTime":1773936000},"SBJP":{"icaoId":"SBJP","flightCategory":"VFR","rawOb":"METAR SBJP 191600Z 11011KT 9999 SCT030 32/23 Q1009","temp":32,"dewp":23,"wdir":110,"wspd":11,"visib":"6+","altim":1009,"clouds":[{"cover":"SCT","base":3000}],"obsTime":1773936000},"SBJR":{"icaoId":"SBJR","flightCategory":"MVFR","rawOb":"METAR SBJR 191600Z 19004KT 8000 FEW020 BKN100 29/23 Q1008","temp":29,"dewp":23,"wdir":190,"wspd":4,"visib":4.97,"altim":1008,"clouds":[{"cover":"FEW","base":2000},{"cover":"BKN","base":10000}],"obsTime":1773936000},"SBJV":{"icaoId":"SBJV","flightCategory":"MVFR","rawOb":"METAR SBJV 191600Z 12008KT 9999 BKN030 30/24 Q1008","temp":30,"dewp":24,"wdir":120,"wspd":8,"visib":"6+","altim":1008,"clouds":[{"cover":"BKN","base":3000}],"obsTime":1773936000},"SBLE":{"icaoId":"SBLE","flightCategory":"VFR","rawOb":"METAR SBLE 191600Z AUTO 15005KT 100V230 CAVOK 30/20 Q1012","temp":30,"dewp":20,"wdir":150,"wspd":5,"visib":"6+","altim":1012,"clouds":[],"obsTime":1773936000},"SBLS":{"icaoId":"SBLS","flightCategory":"VFR","rawOb":"METAR SBLS 191600Z 15007KT 9999 FEW004 SCT030 23/20 Q1013","temp":23,"dewp":20,"wdir":150,"wspd":7,"visib":"6+","altim":1013,"clouds":[{"cover":"FEW","base":400},{"cover":"SCT","base":3000}],"obsTime":1773936000},"SBMT":{"icaoId":"SBMT","flightCategory":"MVFR","rawOb":"METAR SBMT 191600Z 12006KT 5000 RA BKN020 FEW040TCU BKN080 22/21 Q1012","temp":22,"dewp":21,"wdir":120,"wspd":6,"visib":3.11,"altim":1012,"clouds":[{"cover":"BKN","base":2000},{"cover":"FEW","base":4000},{"cover":"BKN","base":8000}],"obsTime":1773936000},"SBPF":{"icaoId":"SBPF","flightCategory":"VFR","rawOb":"METAR SBPF 191600Z 14006KT 9999 FEW033 28/18 Q1012","temp":28,"dewp":18,"wdir":140,"wspd":6,"visib":"6+","altim":1012,"clouds":[{"cover":"FEW","base":3300}],"obsTime":1773936000},"SBST":{"icaoId":"SBST","flightCategory":"MVFR","rawOb":"METAR SBST 191600Z 24003KT 7000 OVC023 26/23 Q1008","temp":26,"dewp":23,"wdir":240,"wspd":3,"visib":4.35,"altim":1008,"clouds":[{"cover":"OVC","base":2300}],"obsTime":1773936000}}}