{"updated":1777148691,"count":86,"data":{"SBEG":{"icaoId":"SBEG","flightCategory":"VFR","rawOb":"METAR SBEG 251900Z 27013KT 9999 TS VCSH SCT010 SCT025 FEW030CB 27/25 Q1009","temp":27,"dewp":25,"wdir":270,"wspd":13,"visib":"6+","altim":1009,"clouds":[{"cover":"SCT","base":1000},{"cover":"SCT","base":2500},{"cover":"FEW","base":3000}],"obsTime":1777143600},"SBBE":{"icaoId":"SBBE","flightCategory":"VFR","rawOb":"METAR SBBE 251900Z 08004KT 9999 VCSH SCT023 FEW024TCU 29/24 Q1009","temp":29,"dewp":24,"wdir":80,"wspd":4,"visib":"6+","altim":1009,"clouds":[{"cover":"SCT","base":2300},{"cover":"FEW","base":2400}],"obsTime":1777143600},"SBBR":{"icaoId":"SBBR","flightCategory":"VFR","rawOb":"METAR SBBR 251900Z 20008KT 160V230 9999 SCT045 29/15 Q1017","temp":29,"dewp":15,"wdir":200,"wspd":8,"visib":"6+","altim":1017,"clouds":[{"cover":"SCT","base":4500}],"obsTime":1777143600},"SBBV":{"icaoId":"SBBV","flightCategory":"VFR","rawOb":"METAR SBBV 251900Z 12008KT 9999 BKN035 FEW040TCU 31/22 Q1008","temp":31,"dewp":22,"wdir":120,"wspd":8,"visib":"6+","altim":1008,"clouds":[{"cover":"BKN","base":3500},{"cover":"FEW","base":4000}],"obsTime":1777143600},"SBCB":{"icaoId":"SBCB","flightCategory":"VFR","rawOb":"METAR SBCB 251900Z 08010KT 9999 FEW025 29/21 Q1010","temp":29,"dewp":21,"wdir":80,"wspd":10,"visib":"6+","altim":1010,"clouds":[{"cover":"FEW","base":2500}],"obsTime":1777143600},"SBCF":{"icaoId":"SBCF","flightCategory":"VFR","rawOb":"METAR SBCF 251900Z 26008KT 9999 SCT045 28/15 Q1016","temp":28,"dewp":15,"wdir":260,"wspd":8,"visib":"6+","altim":1016,"clouds":[{"cover":"SCT","base":4500}],"obsTime":1777143600},"SBCG":{"icaoId":"SBCG","flightCategory":"VFR","rawOb":"METAR SBCG 251900Z 30007KT 260V340 CAVOK 31/16 Q1013","temp":31,"dewp":16,"wdir":300,"wspd":7,"visib":"6+","altim":1013,"clouds":[],"obsTime":1777143600},"SBCP":{"icaoId":"SBCP","flightCategory":"VFR","rawOb":"METAR SBCP 251900Z 08012KT 9999 FEW020 29/21 Q1011","temp":29,"dewp":21,"wdir":80,"wspd":12,"visib":"6+","altim":1011,"clouds":[{"cover":"FEW","base":2000}],"obsTime":1777143600},"SBCR":{"icaoId":"SBCR","flightCategory":"VFR","rawOb":"METAR SBCR 251900Z 02007KT 340V060 9999 SCT040 34/21 Q1009","temp":34,"dewp":21,"wdir":20,"wspd":7,"visib":"6+","altim":1009,"clouds":[{"cover":"SCT","base":4000}],"obsTime":1777143600},"SBCT":{"icaoId":"SBCT","flightCategory":"VFR","rawOb":"METAR SBCT 251900Z 24009KT 9999 SCT045 BKN100 27/13 Q1015","temp":27,"dewp":13,"wdir":240,"wspd":9,"visib":"6+","altim":1015,"clouds":[{"cover":"SCT","base":4500},{"cover":"BKN","base":10000}],"obsTime":1777143600},"SBCZ":{"icaoId":"SBCZ","flightCategory":"MVFR","rawOb":"METAR SBCZ 251900Z 06005KT 9999 BKN030 FEW030TCU 30/23 Q1010","temp":30,"dewp":23,"wdir":60,"wspd":5,"visib":"6+","altim":1010,"clouds":[{"cover":"BKN","base":3000},{"cover":"FEW","base":3000}],"obsTime":1777143600},"SBAT":{"icaoId":"SBAT","flightCategory":"VFR","rawOb":"METAR SBAT 251900Z 10003KT 9999 VCSH SCT030 FEW035TCU 33/23 Q1009","temp":33,"dewp":23,"wdir":100,"wspd":3,"visib":"6+","altim":1009,"clouds":[{"cover":"SCT","base":3000},{"cover":"FEW","base":3500}],"obsTime":1777143600},"SBFI":{"icaoId":"SBFI","flightCategory":"VFR","rawOb":"METAR SBFI 251900Z 15002KT 9999 FEW030 BKN100 28/24 Q1011","temp":28,"dewp":24,"wdir":150,"wspd":2,"visib":"6+","altim":1011,"clouds":[{"cover":"FEW","base":3000},{"cover":"BKN","base":10000}],"obsTime":1777143600},"SBFL":{"icaoId":"SBFL","flightCategory":"VFR","rawOb":"METAR SBFL 251900Z 12006KT 080V150 9999 FEW040 26/21 Q1009","temp":26,"dewp":21,"wdir":120,"wspd":6,"visib":"6+","altim":1009,"clouds":[{"cover":"FEW","base":4000}],"obsTime":1777143600},"SBFZ":{"icaoId":"SBFZ","flightCategory":"VFR","rawOb":"METAR SBFZ 251900Z 09007KT 9999 VCSH SCT018 FEW025TCU BKN080 28/23 Q1010","temp":28,"dewp":23,"wdir":90,"wspd":7,"visib":"6+","altim":1010,"clouds":[{"cover":"SCT","base":1800},{"cover":"FEW","base":2500},{"cover":"BKN","base":8000}],"obsTime":1777143600},"SBGL":{"icaoId":"SBGL","flightCategory":"VFR","rawOb":"METAR SBGL 251900Z 12008KT 9999 FEW025 32/20 Q1010","temp":32,"dewp":20,"wdir":120,"wspd":8,"visib":"6+","altim":1010,"clouds":[{"cover":"FEW","base":2500}],"obsTime":1777143600},"SBGO":{"icaoId":"SBGO","flightCategory":"VFR","rawOb":"METAR SBGO 251900Z 14007KT 9999 FEW048 31/14 Q1015","temp":31,"dewp":14,"wdir":140,"wspd":7,"visib":"6+","altim":1015,"clouds":[{"cover":"FEW","base":4800}],"obsTime":1777143600},"SBGR":{"icaoId":"SBGR","flightCategory":"VFR","rawOb":"METAR SBGR 251900Z 30009KT CAVOK 29/16 Q1015","temp":29,"dewp":16,"wdir":300,"wspd":9,"visib":"6+","altim":1015,"clouds":[],"obsTime":1777143600},"SBHT":{"icaoId":"SBHT","flightCategory":"MVFR","rawOb":"METAR SBHT 251900Z 05005KT 9999 BKN030 30/23 Q1008","temp":30,"dewp":23,"wdir":50,"wspd":5,"visib":"6+","altim":1008,"clouds":[{"cover":"BKN","base":3000}],"obsTime":1777143600},"SBIL":{"icaoId":"SBIL","flightCategory":"VFR","rawOb":"METAR SBIL 251900Z 17006KT 9999 FEW025 29/24 Q1013","temp":29,"dewp":24,"wdir":170,"wspd":6,"visib":"6+","altim":1013,"clouds":[{"cover":"FEW","base":2500}],"obsTime":1777143600},"SBJU":{"icaoId":"SBJU","flightCategory":"VFR","rawOb":"METAR SBJU 251900Z 12003KT 9999 FEW022 30/22 Q1011","temp":30,"dewp":22,"wdir":120,"wspd":3,"visib":"6+","altim":1011,"clouds":[{"cover":"FEW","base":2200}],"obsTime":1777143600},"SBKP":{"icaoId":"SBKP","flightCategory":"VFR","rawOb":"METAR SBKP 251900Z 28007KT 260V330 CAVOK 30/16 Q1014","temp":30,"dewp":16,"wdir":280,"wspd":7,"visib":"6+","altim":1014,"clouds":[],"obsTime":1777143600},"SBLO":{"icaoId":"SBLO","flightCategory":"VFR","rawOb":"METAR SBLO 251900Z 28005KT 9999 SCT042 30/18 Q1013","temp":30,"dewp":18,"wdir":280,"wspd":5,"visib":"6+","altim":1013,"clouds":[{"cover":"SCT","base":4200}],"obsTime":1777143600},"SBMA":{"icaoId":"SBMA","flightCategory":"MVFR","rawOb":"METAR SBMA 251900Z 01009KT 9999 VCSH BKN020 FEW023TCU 29/24 Q1009","temp":29,"dewp":24,"wdir":10,"wspd":9,"visib":"6+","altim":1009,"clouds":[{"cover":"BKN","base":2000},{"cover":"FEW","base":2300}],"obsTime":1777143600},"SBME":{"icaoId":"SBME","flightCategory":"VFR","rawOb":"METAR SBME 251900Z 12005KT CAVOK 32/22 Q1010","temp":32,"dewp":22,"wdir":120,"wspd":5,"visib":"6+","altim":1010,"clouds":[],"obsTime":1777143600},"SBMG":{"icaoId":"SBMG","flightCategory":"VFR","rawOb":"METAR SBMG 251900Z 28006KT 9999 FEW045 31/17 Q1011","temp":31,"dewp":17,"wdir":280,"wspd":6,"visib":"6+","altim":1011,"clouds":[{"cover":"FEW","base":4500}],"obsTime":1777143600},"SBMK":{"icaoId":"SBMK","flightCategory":"VFR","rawOb":"METAR SBMK 251900Z 00000KT 9999 BKN045 30/16 Q1014","temp":30,"dewp":16,"wdir":0,"wspd":0,"visib":"6+","altim":1014,"clouds":[{"cover":"BKN","base":4500}],"obsTime":1777143600},"SBMO":{"icaoId":"SBMO","flightCategory":"VFR","rawOb":"METAR SBMO 251900Z 14010KT 9999 VCSH SCT026 FEW031TCU 28/23 Q1011","temp":28,"dewp":23,"wdir":140,"wspd":10,"visib":"6+","altim":1011,"clouds":[{"cover":"SCT","base":2600},{"cover":"FEW","base":3100}],"obsTime":1777143600},"SBMQ":{"icaoId":"SBMQ","flightCategory":"VFR","rawOb":"METAR SBMQ 251900Z 07005KT 9999 FEW035 32/23 Q1008","temp":32,"dewp":23,"wdir":70,"wspd":5,"visib":"6+","altim":1008,"clouds":[{"cover":"FEW","base":3500}],"obsTime":1777143600},"SBNT":{"icaoId":"SBNT","flightCategory":"VFR","rawOb":"METAR SBNT 251900Z 11011KT 9999 SCT023 29/24 Q1009","temp":29,"dewp":24,"wdir":110,"wspd":11,"visib":"6+","altim":1009,"clouds":[{"cover":"SCT","base":2300}],"obsTime":1777143600},"SBPA":{"icaoId":"SBPA","flightCategory":"VFR","rawOb":"METAR SBPA 251900Z VRB02KT 9999 SCT015 BKN040 23/19 Q1011","temp":23,"dewp":19,"wdir":"VRB","wspd":2,"visib":"6+","altim":1011,"clouds":[{"cover":"SCT","base":1500},{"cover":"BKN","base":4000}],"obsTime":1777143600},"SBPJ":{"icaoId":"SBPJ","flightCategory":"VFR","rawOb":"METAR SBPJ 251900Z VRB04KT 9999 FEW045 33/23 Q1010","temp":33,"dewp":23,"wdir":"VRB","wspd":4,"visib":"6+","altim":1010,"clouds":[{"cover":"FEW","base":4500}],"obsTime":1777143600},"SBPV":{"icaoId":"SBPV","flightCategory":"MVFR","rawOb":"METAR SBPV 251900Z 06006KT 9999 BKN025 FEW030TCU 31/28 Q1008","temp":31,"dewp":28,"wdir":60,"wspd":6,"visib":"6+","altim":1008,"clouds":[{"cover":"BKN","base":2500},{"cover":"FEW","base":3000}],"obsTime":1777143600},"SBRB":{"icaoId":"SBRB","flightCategory":"MVFR","rawOb":"METAR SBRB 251900Z 35003KT 9999 BKN025 SCT100 30/24 Q1011","temp":30,"dewp":24,"wdir":350,"wspd":3,"visib":"6+","altim":1011,"clouds":[{"cover":"BKN","base":2500},{"cover":"SCT","base":10000}],"obsTime":1777143600},"SBRF":{"icaoId":"SBRF","flightCategory":"VFR","rawOb":"METAR SBRF 251900Z 14012KT 9999 SCT024 FEW030TCU 29/24 Q1010","temp":29,"dewp":24,"wdir":140,"wspd":12,"visib":"6+","altim":1010,"clouds":[{"cover":"SCT","base":2400},{"cover":"FEW","base":3000}],"obsTime":1777143600},"SBSG":{"icaoId":"SBSG","flightCategory":"VFR","rawOb":"METAR SBSG 251900Z 10010KT 070V140 9999 SCT022 FEW027TCU 29/24 Q1010","temp":29,"dewp":24,"wdir":100,"wspd":10,"visib":"6+","altim":1010,"clouds":[{"cover":"SCT","base":2200},{"cover":"FEW","base":2700}],"obsTime":1777143600},"SBSL":{"icaoId":"SBSL","flightCategory":"VFR","rawOb":"METAR SBSL 251900Z 02007KT 9999 SCT030 BKN090 26/25 Q1010","temp":26,"dewp":25,"wdir":20,"wspd":7,"visib":"6+","altim":1010,"clouds":[{"cover":"SCT","base":3000},{"cover":"BKN","base":9000}],"obsTime":1777143600},"SBSN":{"icaoId":"SBSN","flightCategory":"VFR","rawOb":"METAR SBSN 251900Z 08008KT 9999 FEW021 FEW026TCU 30/24 Q1008","temp":30,"dewp":24,"wdir":80,"wspd":8,"visib":"6+","altim":1008,"clouds":[{"cover":"FEW","base":2100},{"cover":"FEW","base":2600}],"obsTime":1777143600},"SBSP":{"icaoId":"SBSP","flightCategory":"VFR","rawOb":"METAR SBSP 251900Z 30009KT 250V350 9999 SCT045 28/14 Q1015","temp":28,"dewp":14,"wdir":300,"wspd":9,"visib":"6+","altim":1015,"clouds":[{"cover":"SCT","base":4500}],"obsTime":1777143600},"SBSV":{"icaoId":"SBSV","flightCategory":"MVFR","rawOb":"METAR SBSV 251900Z 14007KT 110V170 9999 VCSH BKN023 FEW025TCU 28/23 Q1012","temp":28,"dewp":23,"wdir":140,"wspd":7,"visib":"6+","altim":1012,"clouds":[{"cover":"BKN","base":2300},{"cover":"FEW","base":2500}],"obsTime":1777143600},"SBTE":{"icaoId":"SBTE","flightCategory":"VFR","rawOb":"METAR SBTE 251900Z 01004KT 9999 SCT020 FEW025TCU 31/24 Q1008","temp":31,"dewp":24,"wdir":10,"wspd":4,"visib":"6+","altim":1008,"clouds":[{"cover":"SCT","base":2000},{"cover":"FEW","base":2500}],"obsTime":1777143600},"SBUL":{"icaoId":"SBUL","flightCategory":"VFR","rawOb":"METAR SBUL 251900Z 05004KT 9999 FEW048 26/15 Q1017","temp":26,"dewp":15,"wdir":50,"wspd":4,"visib":"6+","altim":1017,"clouds":[{"cover":"FEW","base":4800}],"obsTime":1777143600},"SBUR":{"icaoId":"SBUR","flightCategory":"VFR","rawOb":"METAR SBUR 251900Z 16003KT CAVOK 30/13 Q1015","temp":30,"dewp":13,"wdir":160,"wspd":3,"visib":"6+","altim":1015,"clouds":[],"obsTime":1777143600},"SBVT":{"icaoId":"SBVT","flightCategory":"VFR","rawOb":"METAR SBVT 251900Z 04012KT 9999 SCT030 29/22 Q1011","temp":29,"dewp":22,"wdir":40,"wspd":12,"visib":"6+","altim":1011,"clouds":[{"cover":"SCT","base":3000}],"obsTime":1777143600},"SBOI":{"icaoId":"SBOI","flightCategory":"VFR","rawOb":"METAR SBOI 251900Z AUTO 10004KT 050V150 9999 FEW037 28/25 Q1009","temp":28,"dewp":25,"wdir":100,"wspd":4,"visib":"6+","altim":1009,"clouds":[{"cover":"FEW","base":3700}],"obsTime":1777143600},"SBBH":{"icaoId":"SBBH","flightCategory":"VFR","rawOb":"METAR SBBH 251900Z 27007KT CAVOK 28/14 Q1016","temp":28,"dewp":14,"wdir":270,"wspd":7,"visib":"6+","altim":1016,"clouds":[],"obsTime":1777143600},"SBPB":{"icaoId":"SBPB","flightCategory":"VFR","rawOb":"METAR SBPB 251900Z 01005KT 9999 SCT016 BKN080 26/24 Q1010","temp":26,"dewp":24,"wdir":10,"wspd":5,"visib":"6+","altim":1010,"clouds":[{"cover":"SCT","base":1600},{"cover":"BKN","base":8000}],"obsTime":1777143600},"SBCO":{"icaoId":"SBCO","flightCategory":"VFR","rawOb":"METAR SBCO 251900Z 00000KT 9999 VCSH FEW020 BKN035 23/19 Q1011","temp":23,"dewp":19,"wdir":0,"wspd":0,"visib":"6+","altim":1011,"clouds":[{"cover":"FEW","base":2000},{"cover":"BKN","base":3500}],"obsTime":1777143600},"SBPL":{"icaoId":"SBPL","flightCategory":"VFR","rawOb":"METAR SBPL 251900Z 12005KT 9999 VCSH FEW022 FEW030TCU 30/21 Q1012","temp":30,"dewp":21,"wdir":120,"wspd":5,"visib":"6+","altim":1012,"clouds":[{"cover":"FEW","base":2200},{"cover":"FEW","base":3000}],"obsTime":1777143600},"SBPP":{"icaoId":"SBPP","flightCategory":"VFR","rawOb":"METAR SBPP 251900Z 29007KT 9999 SCT025 30/19 Q1013","temp":30,"dewp":19,"wdir":290,"wspd":7,"visib":"6+","altim":1013,"clouds":[{"cover":"SCT","base":2500}],"obsTime":1777143600},"SBDN":{"icaoId":"SBDN","flightCategory":"VFR","rawOb":"METAR SBDN 251900Z 32008KT CAVOK 34/18 Q1012","temp":34,"dewp":18,"wdir":320,"wspd":8,"visib":"6+","altim":1012,"clouds":[],"obsTime":1777143600},"SBAX":{"icaoId":"SBAX","flightCategory":"VFR","rawOb":"METAR SBAX 251900Z AUTO 32004KT 280V020 CAVOK 28/13 Q1017","temp":28,"dewp":13,"wdir":320,"wspd":4,"visib":"6+","altim":1017,"clouds":[],"obsTime":1777143600},"SBPS":{"icaoId":"SBPS","flightCategory":"VFR","rawOb":"METAR SBPS 251900Z 11006KT 9999 SCT020 28/24 Q1013","temp":28,"dewp":24,"wdir":110,"wspd":6,"visib":"6+","altim":1013,"clouds":[{"cover":"SCT","base":2000}],"obsTime":1777143600},"SBSC":{"icaoId":"SBSC","flightCategory":"VFR","rawOb":"METAR SBSC 251900Z 21004KT 9999 FEW030 33/16 Q1010","temp":33,"dewp":16,"wdir":210,"wspd":4,"visib":"6+","altim":1010,"clouds":[{"cover":"FEW","base":3000}],"obsTime":1777143600},"SBES":{"icaoId":"SBES","flightCategory":"VFR","rawOb":"METAR SBES 251900Z 07009KT 030V090 9999 FEW030 29/// Q1010","temp":null,"dewp":null,"wdir":70,"wspd":9,"visib":"6+","altim":1010,"clouds":[{"cover":"FEW","base":3000}],"obsTime":1777143600},"SBCA":{"icaoId":"SBCA","flightCategory":"VFR","rawOb":"METAR SBCA 251900Z 30005KT 9999 FEW030 27/17 Q1015","temp":27,"dewp":17,"wdir":300,"wspd":5,"visib":"6+","altim":1015,"clouds":[{"cover":"FEW","base":3000}],"obsTime":1777143600},"SBSJ":{"icaoId":"SBSJ","flightCategory":"VFR","rawOb":"METAR SBSJ 251900Z 28010KT CAVOK 29/15 Q1014","temp":29,"dewp":15,"wdir":280,"wspd":10,"visib":"6+","altim":1014,"clouds":[],"obsTime":1777143600},"SBCC":{"icaoId":"SBCC","flightCategory":"VFR","rawOb":"METAR SBCC 251900Z 08008KT 9999 SCT030 FEW035TCU SCT100 31/21 Q1010","temp":31,"dewp":21,"wdir":80,"wspd":8,"visib":"6+","altim":1010,"clouds":[{"cover":"SCT","base":3000},{"cover":"FEW","base":3500},{"cover":"SCT","base":10000}],"obsTime":1777143600},"SBSM":{"icaoId":"SBSM","flightCategory":"VFR","rawOb":"METAR SBSM 251900Z 06003KT 9999 SCT035 SCT050 24/19 Q1011","temp":24,"dewp":19,"wdir":60,"wspd":3,"visib":"6+","altim":1011,"clouds":[{"cover":"SCT","base":3500},{"cover":"SCT","base":5000}],"obsTime":1777143600},"SBSR":{"icaoId":"SBSR","flightCategory":"VFR","rawOb":"METAR SBSR 251900Z VRB04KT 9999 SCT040 32/14 Q1013","temp":32,"dewp":14,"wdir":"VRB","wspd":4,"visib":"6+","altim":1013,"clouds":[{"cover":"SCT","base":4000}],"obsTime":1777143600},"SBIP":{"icaoId":"SBIP","flightCategory":"VFR","rawOb":"METAR SBIP 251900Z AUTO 36006KT 320V020 CAVOK 29/19 Q1013","temp":29,"dewp":19,"wdir":360,"wspd":6,"visib":"6+","altim":1013,"clouds":[],"obsTime":1777143600},"SBAR":{"icaoId":"SBAR","flightCategory":"VFR","rawOb":"METAR SBAR 251900Z 12009KT 9999 FEW015 SCT020 29/23 Q1011","temp":29,"dewp":23,"wdir":120,"wspd":9,"visib":"6+","altim":1011,"clouds":[{"cover":"FEW","base":1500},{"cover":"SCT","base":2000}],"obsTime":1777143600},"SBTF":{"icaoId":"SBTF","flightCategory":"VFR","rawOb":"METAR SBTF 251900Z 29005KT 9999 FEW018 BKN090 29/24 Q1009","temp":29,"dewp":24,"wdir":290,"wspd":5,"visib":"6+","altim":1009,"clouds":[{"cover":"FEW","base":1800},{"cover":"BKN","base":9000}],"obsTime":1777143600},"SBKG":{"icaoId":"SBKG","flightCategory":"MVFR","rawOb":"METAR SBKG 251900Z 09009KT 9999 BKN020 27/23 Q1012","temp":27,"dewp":23,"wdir":90,"wspd":9,"visib":"6+","altim":1012,"clouds":[{"cover":"BKN","base":2000}],"obsTime":1777143600},"SBTT":{"icaoId":"SBTT","flightCategory":"VFR","rawOb":"METAR SBTT 251900Z 35005KT 9999 SCT017 BKN090 29/22 Q1010","temp":29,"dewp":22,"wdir":350,"wspd":5,"visib":"6+","altim":1010,"clouds":[{"cover":"SCT","base":1700},{"cover":"BKN","base":9000}],"obsTime":1777143600},"SBBU":{"icaoId":"SBBU","flightCategory":"VFR","rawOb":"METAR SBBU 251900Z 28008KT 9999 SCT040 31/18 Q1013","temp":31,"dewp":18,"wdir":280,"wspd":8,"visib":"6+","altim":1013,"clouds":[{"cover":"SCT","base":4000}],"obsTime":1777143600},"SBUY":{"icaoId":"SBUY","flightCategory":"VFR","rawOb":"METAR SBUY 251900Z 33005KT 9999 FEW025 BKN100 30/23 Q1008","temp":30,"dewp":23,"wdir":330,"wspd":5,"visib":"6+","altim":1008,"clouds":[{"cover":"FEW","base":2500},{"cover":"BKN","base":10000}],"obsTime":1777143600},"SBCJ":{"icaoId":"SBCJ","flightCategory":"VFR","rawOb":"METAR SBCJ 251900Z 12004KT 9999 TS SCT018 FEW020CB 27/22 Q1013","temp":27,"dewp":22,"wdir":120,"wspd":4,"visib":"6+","altim":1013,"clouds":[{"cover":"SCT","base":1800},{"cover":"FEW","base":2000}],"obsTime":1777143600},"SBVH":{"icaoId":"SBVH","flightCategory":"VFR","rawOb":"METAR SBVH 251900Z 11006KT 9999 SCT035 29/22 Q1012","temp":29,"dewp":22,"wdir":110,"wspd":6,"visib":"6+","altim":1012,"clouds":[{"cover":"SCT","base":3500}],"obsTime":1777143600},"SBBQ":{"icaoId":"SBBQ","flightCategory":"VFR","rawOb":"METAR SBBQ 251900Z 31007KT 270V350 9999 FEW040 25/12 Q1019","temp":25,"dewp":12,"wdir":310,"wspd":7,"visib":"6+","altim":1019,"clouds":[{"cover":"FEW","base":4000}],"obsTime":1777143600},"SBGM":{"icaoId":"SBGM","flightCategory":"VFR","rawOb":"METAR SBGM 251900Z 06006KT 9999 BKN043 32/23 Q1009","temp":32,"dewp":23,"wdir":60,"wspd":6,"visib":"6+","altim":1009,"clouds":[{"cover":"BKN","base":4300}],"obsTime":1777143600},"SBJP":{"icaoId":"SBJP","flightCategory":"VFR","rawOb":"METAR SBJP 251900Z 11013KT 9999 FEW025 29/24 Q1010","temp":29,"dewp":24,"wdir":110,"wspd":13,"visib":"6+","altim":1010,"clouds":[{"cover":"FEW","base":2500}],"obsTime":1777143600},"SBIH":{"icaoId":"SBIH","flightCategory":"VFR","rawOb":"METAR SBIH 251900Z 05006KT 9999 FEW017 FEW025TCU 32/23 Q1007","temp":32,"dewp":23,"wdir":50,"wspd":6,"visib":"6+","altim":1007,"clouds":[{"cover":"FEW","base":1700},{"cover":"FEW","base":2500}],"obsTime":1777143600},"SBAN":{"icaoId":"SBAN","flightCategory":"VFR","rawOb":"METAR SBAN 251900Z 29005KT 9999 SCT030 29/12 Q1018","temp":29,"dewp":12,"wdir":290,"wspd":5,"visib":"6+","altim":1018,"clouds":[{"cover":"SCT","base":3000}],"obsTime":1777143600},"SBJV":{"icaoId":"SBJV","flightCategory":"VFR","rawOb":"METAR SBJV 251900Z 13008KT CAVOK 29/23 Q1009","temp":29,"dewp":23,"wdir":130,"wspd":8,"visib":"6+","altim":1009,"clouds":[],"obsTime":1777143600},"SBPF":{"icaoId":"SBPF","flightCategory":"MVFR","rawOb":"METAR SBPF 251900Z 22004KT 9999 BKN012 19/16 Q1014","temp":19,"dewp":16,"wdir":220,"wspd":4,"visib":"6+","altim":1014,"clouds":[{"cover":"BKN","base":1200}],"obsTime":1777143600},"SBLE":{"icaoId":"SBLE","flightCategory":"VFR","rawOb":"METAR SBLE 251900Z AUTO VRB02KT CAVOK 27/21 Q1014","temp":27,"dewp":21,"wdir":"VRB","wspd":2,"visib":"6+","altim":1014,"clouds":[],"obsTime":1777143600},"SBTC":{"icaoId":"SBTC","flightCategory":"VFR","rawOb":"METAR SBTC 251900Z 14006KT 9999 FEW020 28/24 Q1013","temp":28,"dewp":24,"wdir":140,"wspd":6,"visib":"6+","altim":1013,"clouds":[{"cover":"FEW","base":2000}],"obsTime":1777143600},"SBAF":{"icaoId":"SBAF","flightCategory":"VFR","rawOb":"METAR SBAF 251900Z 21004KT 140V310 9999 FEW030 SCT070 32/18 Q1010","temp":32,"dewp":18,"wdir":210,"wspd":4,"visib":"6+","altim":1010,"clouds":[{"cover":"FEW","base":3000},{"cover":"SCT","base":7000}],"obsTime":1777143600},"SBGW":{"icaoId":"SBGW","flightCategory":"VFR","rawOb":"METAR SBGW 251900Z 25003KT 220V030 9999 SCT030 29/15 Q1013","temp":29,"dewp":15,"wdir":250,"wspd":3,"visib":"6+","altim":1013,"clouds":[{"cover":"SCT","base":3000}],"obsTime":1777143600},"SBJR":{"icaoId":"SBJR","flightCategory":"VFR","rawOb":"METAR SBJR 251900Z 19003KT 9999 FEW025 32/20 Q1009","temp":32,"dewp":20,"wdir":190,"wspd":3,"visib":"6+","altim":1009,"clouds":[{"cover":"FEW","base":2500}],"obsTime":1777143600},"SBLS":{"icaoId":"SBLS","flightCategory":"VFR","rawOb":"METAR SBLS 251900Z 27007KT 220V290 9999 SCT045 28/15 Q1016","temp":28,"dewp":15,"wdir":270,"wspd":7,"visib":"6+","altim":1016,"clouds":[{"cover":"SCT","base":4500}],"obsTime":1777143600},"SBMT":{"icaoId":"SBMT","flightCategory":"VFR","rawOb":"METAR SBMT 251900Z 31009KT 260V340 CAVOK 28/14 Q1014","temp":28,"dewp":14,"wdir":310,"wspd":9,"visib":"6+","altim":1014,"clouds":[],"obsTime":1777143600},"SBST":{"icaoId":"SBST","flightCategory":"VFR","rawOb":"METAR SBST 251900Z 22003KT CAVOK 30/23 Q1009","temp":30,"dewp":23,"wdir":220,"wspd":3,"visib":"6+","altim":1009,"clouds":[],"obsTime":1777143600},"SBTA":{"icaoId":"SBTA","flightCategory":"VFR","rawOb":"METAR SBTA 251900Z 35004KT 320V050 9999 FEW040 SCT080 30/15 Q1013","temp":30,"dewp":15,"wdir":350,"wspd":4,"visib":"6+","altim":1013,"clouds":[{"cover":"FEW","base":4000},{"cover":"SCT","base":8000}],"obsTime":1777143600},"SBNM":{"icaoId":"SBNM","flightCategory":"MVFR","rawOb":"METAR SBNM 251900Z 35002KT 9999 SCT016 BKN030 23/19 Q1012","temp":23,"dewp":19,"wdir":350,"wspd":2,"visib":"6+","altim":1012,"clouds":[{"cover":"SCT","base":1600},{"cover":"BKN","base":3000}],"obsTime":1777143600}}}