{"updated":1784272018,"count":49,"data":{"SBEG":{"icaoId":"SBEG","flightCategory":"VFR","rawOb":"METAR SBEG 170600Z 09006KT CAVOK 26/23 Q1013","temp":26,"dewp":23,"wdir":90,"wspd":6,"visib":"6+","altim":1013,"clouds":[],"obsTime":1784268000},"SBBE":{"icaoId":"SBBE","flightCategory":"MVFR","rawOb":"METAR SBBE 170600Z 09004KT 9999 BKN020 BKN040 26/24 Q1014","temp":26,"dewp":24,"wdir":90,"wspd":4,"visib":"6+","altim":1014,"clouds":[{"cover":"BKN","base":2000},{"cover":"BKN","base":4000}],"obsTime":1784268000},"SBFZ":{"icaoId":"SBFZ","flightCategory":"VFR","rawOb":"METAR SBFZ 170600Z 16007KT CAVOK 24/22 Q1014","temp":24,"dewp":22,"wdir":160,"wspd":7,"visib":"6+","altim":1014,"clouds":[],"obsTime":1784268000},"SBBR":{"icaoId":"SBBR","flightCategory":"VFR","rawOb":"METAR SBBR 170600Z 16003KT CAVOK 14/08 Q1024","temp":14,"dewp":8,"wdir":160,"wspd":3,"visib":"6+","altim":1024,"clouds":[],"obsTime":1784268000},"SBPV":{"icaoId":"SBPV","flightCategory":"VFR","rawOb":"METAR SBPV 170600Z 00000KT 9999 SCT040 24/23 Q1012","temp":24,"dewp":23,"wdir":0,"wspd":0,"visib":"6+","altim":1012,"clouds":[{"cover":"SCT","base":4000}],"obsTime":1784268000},"SBSG":{"icaoId":"SBSG","flightCategory":"VFR","rawOb":"METAR SBSG 170600Z 18006KT 140V230 9999 FEW011 22/21 Q1016","temp":22,"dewp":21,"wdir":180,"wspd":6,"visib":"6+","altim":1016,"clouds":[{"cover":"FEW","base":1100}],"obsTime":1784268000},"SBSL":{"icaoId":"SBSL","flightCategory":"VFR","rawOb":"METAR SBSL 170600Z 09003KT 9999 FEW020 SCT070 26/24 Q1014","temp":26,"dewp":24,"wdir":90,"wspd":3,"visib":"6+","altim":1014,"clouds":[{"cover":"FEW","base":2000},{"cover":"SCT","base":7000}],"obsTime":1784268000},"SBBV":{"icaoId":"SBBV","flightCategory":"VFR","rawOb":"METAR SBBV 170600Z 00000KT 9999 FEW045 25/24 Q1013","temp":25,"dewp":24,"wdir":0,"wspd":0,"visib":"6+","altim":1013,"clouds":[{"cover":"FEW","base":4500}],"obsTime":1784268000},"SBCF":{"icaoId":"SBCF","flightCategory":"VFR","rawOb":"METAR SBCF 170600Z 11003KT CAVOK 13/08 Q1026","temp":13,"dewp":8,"wdir":110,"wspd":3,"visib":"6+","altim":1026,"clouds":[],"obsTime":1784268000},"SBRB":{"icaoId":"SBRB","flightCategory":"MVFR","rawOb":"METAR SBRB 170600Z 36001KT 8000 NSC 23/23 Q1013","temp":23,"dewp":23,"wdir":360,"wspd":1,"visib":4.97,"altim":1013,"clouds":[],"obsTime":1784268000},"SBPJ":{"icaoId":"SBPJ","flightCategory":"VFR","rawOb":"METAR SBPJ 170600Z 12009KT CAVOK 26/14 Q1016","temp":26,"dewp":14,"wdir":120,"wspd":9,"visib":"6+","altim":1016,"clouds":[],"obsTime":1784268000},"SBGL":{"icaoId":"SBGL","flightCategory":"VFR","rawOb":"METAR SBGL 170600Z 06001KT CAVOK 14/12 Q1021","temp":14,"dewp":12,"wdir":60,"wspd":1,"visib":"6+","altim":1021,"clouds":[],"obsTime":1784268000},"SBSV":{"icaoId":"SBSV","flightCategory":"VFR","rawOb":"METAR SBSV 170600Z 12007KT 070V170 9999 FEW023 OVC060 23/18 Q1020","temp":23,"dewp":18,"wdir":120,"wspd":7,"visib":"6+","altim":1020,"clouds":[{"cover":"FEW","base":2300},{"cover":"OVC","base":6000}],"obsTime":1784268000},"SBMO":{"icaoId":"SBMO","flightCategory":"MVFR","rawOb":"METAR SBMO 170600Z 26006KT 9999 BKN019 21/21 Q1018","temp":21,"dewp":21,"wdir":260,"wspd":6,"visib":"6+","altim":1018,"clouds":[{"cover":"BKN","base":1900}],"obsTime":1784268000},"SBRF":{"icaoId":"SBRF","flightCategory":"MVFR","rawOb":"METAR SBRF 170600Z 20006KT 9999 BKN010 OVC050 23/22 Q1017","temp":23,"dewp":22,"wdir":200,"wspd":6,"visib":"6+","altim":1017,"clouds":[{"cover":"BKN","base":1000},{"cover":"OVC","base":5000}],"obsTime":1784268000},"SBNT":{"icaoId":"SBNT","flightCategory":"VFR","rawOb":"METAR SBNT 170600Z 19009KT 9999 FEW020 22/21 Q1016","temp":22,"dewp":21,"wdir":190,"wspd":9,"visib":"6+","altim":1016,"clouds":[{"cover":"FEW","base":2000}],"obsTime":1784268000},"SBMA":{"icaoId":"SBMA","flightCategory":"VFR","rawOb":"METAR SBMA 170600Z 00000KT CAVOK 24/22 Q1014","temp":24,"dewp":22,"wdir":0,"wspd":0,"visib":"6+","altim":1014,"clouds":[],"obsTime":1784268000},"SBPA":{"icaoId":"SBPA","flightCategory":"VFR","rawOb":"METAR SBPA 170600Z 08004KT CAVOK 14/13 Q1009","temp":14,"dewp":13,"wdir":80,"wspd":4,"visib":"6+","altim":1009,"clouds":[],"obsTime":1784268000},"SBTE":{"icaoId":"SBTE","flightCategory":"VFR","rawOb":"METAR SBTE 170600Z 14004KT CAVOK 27/17 Q1014","temp":27,"dewp":17,"wdir":140,"wspd":4,"visib":"6+","altim":1014,"clouds":[],"obsTime":1784268000},"SBKP":{"icaoId":"SBKP","flightCategory":"VFR","rawOb":"METAR SBKP 170600Z 10003KT CAVOK 15/08 Q1022","temp":15,"dewp":8,"wdir":100,"wspd":3,"visib":"6+","altim":1022,"clouds":[],"obsTime":1784268000},"SBSP":{"icaoId":"SBSP","flightCategory":"VFR","rawOb":"METAR SBSP 170600Z AUTO 03005KT CAVOK 15/08 Q1022","temp":15,"dewp":8,"wdir":30,"wspd":5,"visib":"6+","altim":1022,"clouds":[],"obsTime":1784268000},"SBLO":{"icaoId":"SBLO","flightCategory":"VFR","rawOb":"METAR SBLO 170600Z VRB02KT CAVOK 17/14 Q1018","temp":17,"dewp":14,"wdir":"VRB","wspd":2,"visib":"6+","altim":1018,"clouds":[],"obsTime":1784268000},"SBCG":{"icaoId":"SBCG","flightCategory":"VFR","rawOb":"METAR SBCG 170600Z 36009KT CAVOK 25/17 Q1014","temp":25,"dewp":17,"wdir":360,"wspd":9,"visib":"6+","altim":1014,"clouds":[],"obsTime":1784268000},"SBFI":{"icaoId":"SBFI","flightCategory":"VFR","rawOb":"METAR SBFI 170600Z 04014KT CAVOK 25/16 Q1009","temp":25,"dewp":16,"wdir":40,"wspd":14,"visib":"6+","altim":1009,"clouds":[],"obsTime":1784268000},"SBMQ":{"icaoId":"SBMQ","flightCategory":"VFR","rawOb":"METAR SBMQ 170600Z 36004KT CAVOK 25/24 Q1013","temp":25,"dewp":24,"wdir":360,"wspd":4,"visib":"6+","altim":1013,"clouds":[],"obsTime":1784268000},"SBFL":{"icaoId":"SBFL","flightCategory":"VFR","rawOb":"METAR SBFL 170600Z 03003KT 350V050 9999 FEW005 15/14 Q1017","temp":15,"dewp":14,"wdir":30,"wspd":3,"visib":"6+","altim":1017,"clouds":[{"cover":"FEW","base":500}],"obsTime":1784268000},"SBVT":{"icaoId":"SBVT","flightCategory":"VFR","rawOb":"METAR SBVT 170600Z 35004KT 9999 BKN049 18/15 Q1024","temp":18,"dewp":15,"wdir":350,"wspd":4,"visib":"6+","altim":1024,"clouds":[{"cover":"BKN","base":4900}],"obsTime":1784268000},"SBGO":{"icaoId":"SBGO","flightCategory":"VFR","rawOb":"METAR SBGO 170600Z 07007KT CAVOK 20/09 Q1021","temp":20,"dewp":9,"wdir":70,"wspd":7,"visib":"6+","altim":1021,"clouds":[],"obsTime":1784268000},"SBGR":{"icaoId":"SBGR","flightCategory":"VFR","rawOb":"METAR SBGR 170600Z 09002KT CAVOK 10/09 Q1022","temp":10,"dewp":9,"wdir":90,"wspd":2,"visib":"6+","altim":1022,"clouds":[],"obsTime":1784268000},"SBCT":{"icaoId":"SBCT","flightCategory":"VFR","rawOb":"METAR SBCT 170600Z 02003KT 9000 NSC 13/13 Q1021","temp":13,"dewp":13,"wdir":20,"wspd":3,"visib":5.59,"altim":1021,"clouds":[],"obsTime":1784268000},"SBSN":{"icaoId":"SBSN","flightCategory":"VFR","rawOb":"METAR SBSN 170600Z 13005KT CAVOK 26/24 Q1013","temp":26,"dewp":24,"wdir":130,"wspd":5,"visib":"6+","altim":1013,"clouds":[],"obsTime":1784268000},"SBUL":{"icaoId":"SBUL","flightCategory":"VFR","rawOb":"METAR SBUL 170600Z 10013KT CAVOK 16/07 Q1023","temp":16,"dewp":7,"wdir":100,"wspd":13,"visib":"6+","altim":1023,"clouds":[],"obsTime":1784268000},"SBUR":{"icaoId":"SBUR","flightCategory":"VFR","rawOb":"METAR SBUR 170600Z 03014KT CAVOK 16/08 Q1022","temp":16,"dewp":8,"wdir":30,"wspd":14,"visib":"6+","altim":1022,"clouds":[],"obsTime":1784268000},"SBJU":{"icaoId":"SBJU","flightCategory":"MVFR","rawOb":"METAR SBJU 170600Z 17007KT 9999 BKN020 21/17 Q1019","temp":21,"dewp":17,"wdir":170,"wspd":7,"visib":"6+","altim":1019,"clouds":[{"cover":"BKN","base":2000}],"obsTime":1784268000},"SBMG":{"icaoId":"SBMG","flightCategory":"VFR","rawOb":"METAR SBMG 170600Z AUTO 04012KT CAVOK 22/13 Q1015","temp":22,"dewp":13,"wdir":40,"wspd":12,"visib":"6+","altim":1015,"clouds":[],"obsTime":1784268000},"SBME":{"icaoId":"SBME","flightCategory":"VFR","rawOb":"METAR SBME 170600Z 02008KT CAVOK 16/13 Q1023","temp":16,"dewp":13,"wdir":20,"wspd":8,"visib":"6+","altim":1023,"clouds":[],"obsTime":1784268000},"SBPS":{"icaoId":"SBPS","flightCategory":"VFR","rawOb":"METAR SBPS 170600Z 14005KT 090V190 9999 FEW020 BKN070 22/16 Q1023","temp":22,"dewp":16,"wdir":140,"wspd":5,"visib":"6+","altim":1023,"clouds":[{"cover":"FEW","base":2000},{"cover":"BKN","base":7000}],"obsTime":1784268000},"SBOI":{"icaoId":"SBOI","flightCategory":"MVFR","rawOb":"METAR SBOI 170600Z AUTO VRB01KT 8000 NCD 23/22 Q1014","temp":23,"dewp":22,"wdir":"VRB","wspd":1,"visib":4.97,"altim":1014,"clouds":[],"obsTime":1784268000},"SBPL":{"icaoId":"SBPL","flightCategory":"VFR","rawOb":"METAR SBPL 170600Z 12009KT CAVOK 21/16 Q1020","temp":21,"dewp":16,"wdir":120,"wspd":9,"visib":"6+","altim":1020,"clouds":[],"obsTime":1784268000},"SBAR":{"icaoId":"SBAR","flightCategory":"VFR","rawOb":"METAR SBAR 170600Z 15010KT 9999 FEW025 BKN060 25/20 Q1018","temp":25,"dewp":20,"wdir":150,"wspd":10,"visib":"6+","altim":1018,"clouds":[{"cover":"FEW","base":2500},{"cover":"BKN","base":6000}],"obsTime":1784268000},"SBDN":{"icaoId":"SBDN","flightCategory":"VFR","rawOb":"METAR SBDN 170600Z 05013KT CAVOK 20/12 Q1016","temp":20,"dewp":12,"wdir":50,"wspd":13,"visib":"6+","altim":1016,"clouds":[],"obsTime":1784268000},"SBIP":{"icaoId":"SBIP","flightCategory":"VFR","rawOb":"METAR SBIP 170600Z AUTO 00000KT CAVOK 15/15 Q1025","temp":15,"dewp":15,"wdir":0,"wspd":0,"visib":"6+","altim":1025,"clouds":[],"obsTime":1784268000},"SBSC":{"icaoId":"SBSC","flightCategory":"VFR","rawOb":"METAR SBSC 170600Z 36013G25KT CAVOK 16/12 Q1021","temp":16,"dewp":12,"wdir":360,"wspd":13,"visib":"6+","altim":1021,"clouds":[],"obsTime":1784268000},"SBSR":{"icaoId":"SBSR","flightCategory":"VFR","rawOb":"METAR SBSR 170600Z 09011KT CAVOK 18/11 Q1019","temp":18,"dewp":11,"wdir":90,"wspd":11,"visib":"6+","altim":1019,"clouds":[],"obsTime":1784268000},"SBKG":{"icaoId":"SBKG","flightCategory":"IFR","rawOb":"METAR SBKG 170600Z 18007KT 5000 -RA BKN008 19/19 Q1019","temp":19,"dewp":19,"wdir":180,"wspd":7,"visib":3.11,"altim":1019,"clouds":[{"cover":"BKN","base":800}],"obsTime":1784268000},"SBJP":{"icaoId":"SBJP","flightCategory":"VFR","rawOb":"METAR SBJP 170600Z 19007KT 9999 FEW020 22/21 Q1016","temp":22,"dewp":21,"wdir":190,"wspd":7,"visib":"6+","altim":1016,"clouds":[{"cover":"FEW","base":2000}],"obsTime":1784268000},"SBLE":{"icaoId":"SBLE","flightCategory":"VFR","rawOb":"METAR SBLE 170600Z AUTO VRB02KT 9999 FEW043 ///// Q1023","temp":null,"dewp":null,"wdir":"VRB","wspd":2,"visib":"6+","altim":1023,"clouds":[{"cover":"FEW","base":4300}],"obsTime":1784268000},"SBAN":{"icaoId":"SBAN","flightCategory":"VFR","rawOb":"METAR SBAN 170600Z 10009KT CAVOK 16/08 Q1023","temp":16,"dewp":8,"wdir":100,"wspd":9,"visib":"6+","altim":1023,"clouds":[],"obsTime":1784268000},"SBNM":{"icaoId":"SBNM","flightCategory":"VFR","rawOb":"METAR SBNM 170600Z AUTO 05009KT CAVOK 20/14 Q1009","temp":20,"dewp":14,"wdir":50,"wspd":9,"visib":"6+","altim":1009,"clouds":[],"obsTime":1784268000}}}