{"updated":1774780078,"count":71,"data":{"SBEG":{"icaoId":"SBEG","flightCategory":"VFR","rawOb":"METAR SBEG 290900Z 00000KT 9999 FEW008 24/24 Q1011","temp":24,"dewp":24,"wdir":0,"wspd":0,"visib":"6+","altim":1011,"clouds":[{"cover":"FEW","base":800}],"obsTime":1774774800},"SBFL":{"icaoId":"SBFL","flightCategory":"VFR","rawOb":"METAR SBFL 290900Z 32009KT CAVOK 25/21 Q1017","temp":25,"dewp":21,"wdir":320,"wspd":9,"visib":"6+","altim":1017,"clouds":[],"obsTime":1774774800},"SBMK":{"icaoId":"SBMK","flightCategory":"VFR","rawOb":"METAR SBMK 290900Z 15006KT 9999 FEW020 19/16 Q1019","temp":19,"dewp":16,"wdir":150,"wspd":6,"visib":"6+","altim":1019,"clouds":[{"cover":"FEW","base":2000}],"obsTime":1774774800},"SBMO":{"icaoId":"SBMO","flightCategory":"IFR","rawOb":"METAR SBMO 290900Z 26003KT 4000 -RA BR SCT005 BKN025 24/23 Q1012","temp":24,"dewp":23,"wdir":260,"wspd":3,"visib":2.49,"altim":1012,"clouds":[{"cover":"SCT","base":500},{"cover":"BKN","base":2500}],"obsTime":1774774800},"SBFZ":{"icaoId":"SBFZ","flightCategory":"MVFR","rawOb":"METAR SBFZ 290900Z 19003KT 9999 VCSH BKN020 FEW025TCU 25/23 Q1010","temp":25,"dewp":23,"wdir":190,"wspd":3,"visib":"6+","altim":1010,"clouds":[{"cover":"BKN","base":2000},{"cover":"FEW","base":2500}],"obsTime":1774774800},"SBMQ":{"icaoId":"SBMQ","flightCategory":"VFR","rawOb":"METAR SBMQ 290900Z 31001KT 9999 SCT005 26/25 Q1010","temp":26,"dewp":25,"wdir":310,"wspd":1,"visib":"6+","altim":1010,"clouds":[{"cover":"SCT","base":500}],"obsTime":1774774800},"SBBV":{"icaoId":"SBBV","flightCategory":"VFR","rawOb":"METAR SBBV 290900Z 08006KT 9999 FEW030 FEW045TCU BKN100 25/23 Q1011","temp":25,"dewp":23,"wdir":80,"wspd":6,"visib":"6+","altim":1011,"clouds":[{"cover":"FEW","base":3000},{"cover":"FEW","base":4500},{"cover":"BKN","base":10000}],"obsTime":1774774800},"SBCG":{"icaoId":"SBCG","flightCategory":"VFR","rawOb":"METAR SBCG 290900Z 07006KT CAVOK 21/18 Q1017","temp":21,"dewp":18,"wdir":70,"wspd":6,"visib":"6+","altim":1017,"clouds":[],"obsTime":1774774800},"SBNT":{"icaoId":"SBNT","flightCategory":"VFR","rawOb":"METAR SBNT 290900Z 21003KT 160V240 9999 FEW028 24/21 Q1011","temp":24,"dewp":21,"wdir":210,"wspd":3,"visib":"6+","altim":1011,"clouds":[{"cover":"FEW","base":2800}],"obsTime":1774774800},"SBGL":{"icaoId":"SBGL","flightCategory":"VFR","rawOb":"METAR SBGL 290900Z 10002KT 9000 FEW015 22/21 Q1017","temp":22,"dewp":21,"wdir":100,"wspd":2,"visib":5.59,"altim":1017,"clouds":[{"cover":"FEW","base":1500}],"obsTime":1774774800},"SBFI":{"icaoId":"SBFI","flightCategory":"VFR","rawOb":"METAR SBFI 290900Z 11004KT CAVOK 23/22 Q1016","temp":23,"dewp":22,"wdir":110,"wspd":4,"visib":"6+","altim":1016,"clouds":[],"obsTime":1774774800},"SBME":{"icaoId":"SBME","flightCategory":"VFR","rawOb":"METAR SBME 290900Z 32004KT 9999 FEW020 22/20 Q1017","temp":22,"dewp":20,"wdir":320,"wspd":4,"visib":"6+","altim":1017,"clouds":[{"cover":"FEW","base":2000}],"obsTime":1774774800},"SBBR":{"icaoId":"SBBR","flightCategory":"VFR","rawOb":"METAR SBBR 290900Z 13003KT 9999 FEW040 18/17 Q1021","temp":18,"dewp":17,"wdir":130,"wspd":3,"visib":"6+","altim":1021,"clouds":[{"cover":"FEW","base":4000}],"obsTime":1774774800},"SBPA":{"icaoId":"SBPA","flightCategory":"MVFR","rawOb":"METAR SBPA 290900Z 08004KT 8000 FEW004 24/23 Q1016","temp":24,"dewp":23,"wdir":80,"wspd":4,"visib":4.97,"altim":1016,"clouds":[{"cover":"FEW","base":400}],"obsTime":1774774800},"SBPJ":{"icaoId":"SBPJ","flightCategory":"VFR","rawOb":"METAR SBPJ 290900Z 14004KT CAVOK 23/22 Q1012","temp":23,"dewp":22,"wdir":140,"wspd":4,"visib":"6+","altim":1012,"clouds":[],"obsTime":1774774800},"SBGO":{"icaoId":"SBGO","flightCategory":"VFR","rawOb":"METAR SBGO 290900Z 15003KT 100V180 CAVOK 20/17 Q1019","temp":20,"dewp":17,"wdir":150,"wspd":3,"visib":"6+","altim":1019,"clouds":[],"obsTime":1774774800},"SBCP":{"icaoId":"SBCP","flightCategory":"VFR","rawOb":"METAR SBCP 291000Z 24005KT 9999 SCT015 24/22 Q1018","temp":24,"dewp":22,"wdir":240,"wspd":5,"visib":"6+","altim":1018,"clouds":[{"cover":"SCT","base":1500}],"obsTime":1774778400},"SBPV":{"icaoId":"SBPV","flightCategory":"VFR","rawOb":"METAR SBPV 290900Z 00000KT CAVOK 24/23 Q1013","temp":24,"dewp":23,"wdir":0,"wspd":0,"visib":"6+","altim":1013,"clouds":[],"obsTime":1774774800},"SBCT":{"icaoId":"SBCT","flightCategory":"VFR","rawOb":"METAR SBCT 290900Z 14003KT CAVOK 15/15 Q1022","temp":15,"dewp":15,"wdir":140,"wspd":3,"visib":"6+","altim":1022,"clouds":[],"obsTime":1774774800},"SBRB":{"icaoId":"SBRB","flightCategory":"LIFR","rawOb":"METAR SBRB 290900Z 30002KT 0250 R25/M0050 R07///// FG BKN002 22/21 Q1012","temp":22,"dewp":21,"wdir":300,"wspd":2,"visib":0.16,"altim":1012,"clouds":[{"cover":"BKN","base":200}],"obsTime":1774774800},"SBGR":{"icaoId":"SBGR","flightCategory":"IFR","rawOb":"METAR SBGR 290900Z 07009KT 9999 OVC008 20/19 Q1021","temp":20,"dewp":19,"wdir":70,"wspd":9,"visib":"6+","altim":1021,"clouds":[{"cover":"OVC","base":800}],"obsTime":1774774800},"SBRF":{"icaoId":"SBRF","flightCategory":"VFR","rawOb":"METAR SBRF 290900Z 27001KT 9999 FEW020 24/23 Q1011","temp":24,"dewp":23,"wdir":270,"wspd":1,"visib":"6+","altim":1011,"clouds":[{"cover":"FEW","base":2000}],"obsTime":1774774800},"SBSG":{"icaoId":"SBSG","flightCategory":"VFR","rawOb":"METAR SBSG 290900Z 22003KT 9999 FEW025 22/21 Q1011","temp":22,"dewp":21,"wdir":220,"wspd":3,"visib":"6+","altim":1011,"clouds":[{"cover":"FEW","base":2500}],"obsTime":1774774800},"SBHT":{"icaoId":"SBHT","flightCategory":"MVFR","rawOb":"METAR SBHT 291000Z 00000KT 8000 -RA FEW012 BKN080 24/23 Q1012","temp":24,"dewp":23,"wdir":0,"wspd":0,"visib":4.97,"altim":1012,"clouds":[{"cover":"FEW","base":1200},{"cover":"BKN","base":8000}],"obsTime":1774778400},"SBIL":{"icaoId":"SBIL","flightCategory":"VFR","rawOb":"METAR SBIL 291000Z 24006KT 200V270 9999 VCSH FEW020 FEW025TCU BKN040 24/23 Q1014","temp":24,"dewp":23,"wdir":240,"wspd":6,"visib":"6+","altim":1014,"clouds":[{"cover":"FEW","base":2000},{"cover":"FEW","base":2500},{"cover":"BKN","base":4000}],"obsTime":1774778400},"SBSL":{"icaoId":"SBSL","flightCategory":"VFR","rawOb":"METAR SBSL 290900Z 14006KT 9999 FEW009 BKN080 25/24 Q1011","temp":25,"dewp":24,"wdir":140,"wspd":6,"visib":"6+","altim":1011,"clouds":[{"cover":"FEW","base":900},{"cover":"BKN","base":8000}],"obsTime":1774774800},"SBCB":{"icaoId":"SBCB","flightCategory":"VFR","rawOb":"METAR SBCB 290900Z 34004KT 9999 SCT025 23/21 Q1018","temp":23,"dewp":21,"wdir":340,"wspd":4,"visib":"6+","altim":1018,"clouds":[{"cover":"SCT","base":2500}],"obsTime":1774774800},"SBSN":{"icaoId":"SBSN","flightCategory":"VFR","rawOb":"METAR SBSN 290900Z 11002KT 9999 SCT011 25/24 Q1010","temp":25,"dewp":24,"wdir":110,"wspd":2,"visib":"6+","altim":1010,"clouds":[{"cover":"SCT","base":1100}],"obsTime":1774774800},"SBUR":{"icaoId":"SBUR","flightCategory":"VFR","rawOb":"METAR SBUR 290900Z 04005KT CAVOK 21/16 Q1019","temp":21,"dewp":16,"wdir":40,"wspd":5,"visib":"6+","altim":1019,"clouds":[],"obsTime":1774774800},"SBSP":{"icaoId":"SBSP","flightCategory":"VFR","rawOb":"SPECI SBSP 290829Z AUTO 09003KT 050V130 9999 SCT010 20/18 Q1021","temp":20,"dewp":18,"wdir":90,"wspd":3,"visib":"6+","altim":1021,"clouds":[{"cover":"SCT","base":1000}],"obsTime":1774772940},"SBJU":{"icaoId":"SBJU","flightCategory":"MVFR","rawOb":"METAR SBJU 290900Z 00000KT 9999 BKN020 23/22 Q1013","temp":23,"dewp":22,"wdir":0,"wspd":0,"visib":"6+","altim":1013,"clouds":[{"cover":"BKN","base":2000}],"obsTime":1774774800},"SBSV":{"icaoId":"SBSV","flightCategory":"VFR","rawOb":"METAR SBSV 290900Z 35002KT 9999 SCT018 SCT080 25/24 Q1012","temp":25,"dewp":24,"wdir":350,"wspd":2,"visib":"6+","altim":1012,"clouds":[{"cover":"SCT","base":1800},{"cover":"SCT","base":8000}],"obsTime":1774774800},"SBKP":{"icaoId":"SBKP","flightCategory":"VFR","rawOb":"METAR SBKP 290900Z 12007KT CAVOK 20/18 Q1020","temp":20,"dewp":18,"wdir":120,"wspd":7,"visib":"6+","altim":1020,"clouds":[],"obsTime":1774774800},"SBTE":{"icaoId":"SBTE","flightCategory":"VFR","rawOb":"METAR SBTE 290900Z 34003KT 9999 FEW020 SCT100 25/23 Q1010","temp":25,"dewp":23,"wdir":340,"wspd":3,"visib":"6+","altim":1010,"clouds":[{"cover":"FEW","base":2000},{"cover":"SCT","base":10000}],"obsTime":1774774800},"SBMG":{"icaoId":"SBMG","flightCategory":"VFR","rawOb":"METAR SBMG 290900Z AUTO 16004KT CAVOK 21/18 Q1018","temp":21,"dewp":18,"wdir":160,"wspd":4,"visib":"6+","altim":1018,"clouds":[],"obsTime":1774774800},"SBBE":{"icaoId":"SBBE","flightCategory":"VFR","rawOb":"METAR SBBE 290900Z 06006KT 9999 FEW015 26/24 Q1010","temp":26,"dewp":24,"wdir":60,"wspd":6,"visib":"6+","altim":1010,"clouds":[{"cover":"FEW","base":1500}],"obsTime":1774774800},"SBUL":{"icaoId":"SBUL","flightCategory":"VFR","rawOb":"METAR SBUL 290900Z 14005KT CAVOK 19/16 Q1021","temp":19,"dewp":16,"wdir":140,"wspd":5,"visib":"6+","altim":1021,"clouds":[],"obsTime":1774774800},"SBLO":{"icaoId":"SBLO","flightCategory":"VFR","rawOb":"METAR SBLO 290900Z 16002KT CAVOK 21/19 Q1019","temp":21,"dewp":19,"wdir":160,"wspd":2,"visib":"6+","altim":1019,"clouds":[],"obsTime":1774774800},"SBCF":{"icaoId":"SBCF","flightCategory":"VFR","rawOb":"METAR SBCF 290900Z 15005KT 9999 FEW020 18/17 Q1020","temp":18,"dewp":17,"wdir":150,"wspd":5,"visib":"6+","altim":1020,"clouds":[{"cover":"FEW","base":2000}],"obsTime":1774774800},"SBMA":{"icaoId":"SBMA","flightCategory":"MVFR","rawOb":"SPECI SBMA 290830Z 06006KT 5000 -RA BR BKN010 BKN100 25/24 Q1011","temp":25,"dewp":24,"wdir":60,"wspd":6,"visib":3.11,"altim":1011,"clouds":[{"cover":"BKN","base":1000},{"cover":"BKN","base":10000}],"obsTime":1774773000},"SBVT":{"icaoId":"SBVT","flightCategory":"VFR","rawOb":"METAR SBVT 290900Z 30002KT 9999 FEW010 SCT020 FEW030TCU BKN040 21/21 Q1017","temp":21,"dewp":21,"wdir":300,"wspd":2,"visib":"6+","altim":1017,"clouds":[{"cover":"FEW","base":1000},{"cover":"SCT","base":2000},{"cover":"FEW","base":3000},{"cover":"BKN","base":4000}],"obsTime":1774774800},"SBSJ":{"icaoId":"SBSJ","flightCategory":"VFR","rawOb":"SPECI SBSJ 290830Z 09002KT CAVOK 19/18 Q1021","temp":19,"dewp":18,"wdir":90,"wspd":2,"visib":"6+","altim":1021,"clouds":[],"obsTime":1774773000},"SBPB":{"icaoId":"SBPB","flightCategory":"MVFR","rawOb":"SPECI SBPB 291015Z 11005KT 9999 BKN016 BKN080 27/24 Q1011","temp":27,"dewp":24,"wdir":110,"wspd":5,"visib":"6+","altim":1011,"clouds":[{"cover":"BKN","base":1600},{"cover":"BKN","base":8000}],"obsTime":1774779300},"SBCJ":{"icaoId":"SBCJ","flightCategory":"MVFR","rawOb":"SPECI SBCJ 291015Z 06003KT 8000 NSC 23/21 Q1016","temp":23,"dewp":21,"wdir":60,"wspd":3,"visib":4.97,"altim":1016,"clouds":[],"obsTime":1774779300},"SBPS":{"icaoId":"SBPS","flightCategory":"MVFR","rawOb":"METAR SBPS 290900Z 22003KT 110V270 9999 -RA SCT004 BKN015 BKN020 22/22 Q1015","temp":22,"dewp":22,"wdir":220,"wspd":3,"visib":"6+","altim":1015,"clouds":[{"cover":"SCT","base":400},{"cover":"BKN","base":1500},{"cover":"BKN","base":2000}],"obsTime":1774774800},"SBBU":{"icaoId":"SBBU","flightCategory":"VFR","rawOb":"METAR SBBU 290900Z 12010KT CAVOK 21/18 Q1019","temp":21,"dewp":18,"wdir":120,"wspd":10,"visib":"6+","altim":1019,"clouds":[],"obsTime":1774774800},"SBSR":{"icaoId":"SBSR","flightCategory":"VFR","rawOb":"METAR SBSR 290900Z 09004KT CAVOK 22/16 Q1018","temp":22,"dewp":16,"wdir":90,"wspd":4,"visib":"6+","altim":1018,"clouds":[],"obsTime":1774774800},"SBAR":{"icaoId":"SBAR","flightCategory":"VFR","rawOb":"METAR SBAR 290900Z 15006KT 9999 VCSH SCT020 FEW023TCU 27/24 Q1011","temp":27,"dewp":24,"wdir":150,"wspd":6,"visib":"6+","altim":1011,"clouds":[{"cover":"SCT","base":2000},{"cover":"FEW","base":2300}],"obsTime":1774774800},"SBAX":{"icaoId":"SBAX","flightCategory":"VFR","rawOb":"METAR SBAX 290900Z AUTO 13005KT CAVOK 18/18 Q1021","temp":18,"dewp":18,"wdir":130,"wspd":5,"visib":"6+","altim":1021,"clouds":[],"obsTime":1774774800},"SBBH":{"icaoId":"SBBH","flightCategory":"VFR","rawOb":"METAR SBBH 290900Z 00000KT 9999 SCT025 18/17 Q1020","temp":18,"dewp":17,"wdir":0,"wspd":0,"visib":"6+","altim":1020,"clouds":[{"cover":"SCT","base":2500}],"obsTime":1774774800},"SBCO":{"icaoId":"SBCO","flightCategory":"MVFR","rawOb":"METAR SBCO 290900Z COR 07002KT 6000 NSC 22/22 Q1016","temp":22,"dewp":22,"wdir":70,"wspd":2,"visib":3.73,"altim":1016,"clouds":[],"obsTime":1774774800},"SBDN":{"icaoId":"SBDN","flightCategory":"VFR","rawOb":"METAR SBDN 290900Z 14006KT CAVOK 22/17 Q1017","temp":22,"dewp":17,"wdir":140,"wspd":6,"visib":"6+","altim":1017,"clouds":[],"obsTime":1774774800},"SBES":{"icaoId":"SBES","flightCategory":"VFR","rawOb":"METAR SBES 290900Z VRB02KT 9999 SCT015 SCT030 19/// Q1018","temp":null,"dewp":null,"wdir":"VRB","wspd":2,"visib":"6+","altim":1018,"clouds":[{"cover":"SCT","base":1500},{"cover":"SCT","base":3000}],"obsTime":1774774800},"SBIP":{"icaoId":"SBIP","flightCategory":"LIFR","rawOb":"METAR SBIP 290900Z AUTO 21002KT 0800 FG VV002 19/19 Q1018","temp":19,"dewp":19,"wdir":210,"wspd":2,"visib":0.5,"altim":1018,"clouds":[{"cover":"OVX","base":200}],"obsTime":1774774800},"SBKG":{"icaoId":"SBKG","flightCategory":"VFR","rawOb":"METAR SBKG 290900Z 10003KT 9999 SCT017 SCT080 22/22 Q1014","temp":22,"dewp":22,"wdir":100,"wspd":3,"visib":"6+","altim":1014,"clouds":[{"cover":"SCT","base":1700},{"cover":"SCT","base":8000}],"obsTime":1774774800},"SBOI":{"icaoId":"SBOI","flightCategory":"VFR","rawOb":"METAR SBOI 291000Z AUTO 02003KT 9999 // FEW005/// BKN033/// 24/23 Q1012","temp":24,"dewp":23,"wdir":20,"wspd":3,"visib":"6+","altim":1012,"clouds":[{"cover":"FEW","base":500},{"cover":"BKN","base":3300}],"obsTime":1774778400},"SBPL":{"icaoId":"SBPL","flightCategory":"VFR","rawOb":"METAR SBPL 290900Z 13004KT 9999 FEW020 23/22 Q1014","temp":23,"dewp":22,"wdir":130,"wspd":4,"visib":"6+","altim":1014,"clouds":[{"cover":"FEW","base":2000}],"obsTime":1774774800},"SBSC":{"icaoId":"SBSC","flightCategory":"VFR","rawOb":"METAR SBSC 290900Z 04003KT CAVOK 21/20 Q1017","temp":21,"dewp":20,"wdir":40,"wspd":3,"visib":"6+","altim":1017,"clouds":[],"obsTime":1774774800},"SBSM":{"icaoId":"SBSM","flightCategory":"MVFR","rawOb":"METAR SBSM 290900Z 00000KT 8000 SCT001 23/23 Q1016","temp":23,"dewp":23,"wdir":0,"wspd":0,"visib":4.97,"altim":1016,"clouds":[{"cover":"SCT","base":100}],"obsTime":1774774800},"SBTC":{"icaoId":"SBTC","flightCategory":"MVFR","rawOb":"METAR SBTC 290900Z 25005KT 8000 -RA BKN020 BKN060 23/22 Q1015","temp":23,"dewp":22,"wdir":250,"wspd":5,"visib":4.97,"altim":1015,"clouds":[{"cover":"BKN","base":2000},{"cover":"BKN","base":6000}],"obsTime":1774774800},"SBMT":{"icaoId":"SBMT","flightCategory":"MVFR","rawOb":"METAR SBMT 290900Z 10006KT 7000 BKN011 BKN013 20/18 Q1021","temp":20,"dewp":18,"wdir":100,"wspd":6,"visib":4.35,"altim":1021,"clouds":[{"cover":"BKN","base":1100},{"cover":"BKN","base":1300}],"obsTime":1774774800},"SBAF":{"icaoId":"SBAF","flightCategory":"VFR","rawOb":"METAR SBAF 291000Z 26004KT 9999 FEW015 22/22 Q1018","temp":22,"dewp":22,"wdir":260,"wspd":4,"visib":"6+","altim":1018,"clouds":[{"cover":"FEW","base":1500}],"obsTime":1774778400},"SBTA":{"icaoId":"SBTA","flightCategory":"VFR","rawOb":"METAR SBTA 290900Z VRB02KT 9999 FEW015 18/17 Q1020","temp":18,"dewp":17,"wdir":"VRB","wspd":2,"visib":"6+","altim":1020,"clouds":[{"cover":"FEW","base":1500}],"obsTime":1774774800},"SBLE":{"icaoId":"SBLE","flightCategory":"MVFR","rawOb":"METAR SBLE 290900Z AUTO 15003KT 110V180 9999 BKN023 OVC041 ///// Q////","temp":null,"dewp":null,"wdir":150,"wspd":3,"visib":"6+","altim":null,"clouds":[{"cover":"BKN","base":2300},{"cover":"OVC","base":4100}],"obsTime":1774774800},"SBJV":{"icaoId":"SBJV","flightCategory":"VFR","rawOb":"METAR SBJV 290900Z 00000KT 9999 FEW005 21/21 Q1018","temp":21,"dewp":21,"wdir":0,"wspd":0,"visib":"6+","altim":1018,"clouds":[{"cover":"FEW","base":500}],"obsTime":1774774800},"SBPF":{"icaoId":"SBPF","flightCategory":"VFR","rawOb":"METAR SBPF 291000Z 04010KT CAVOK 20/16 Q1021","temp":20,"dewp":16,"wdir":40,"wspd":10,"visib":"6+","altim":1021,"clouds":[],"obsTime":1774778400},"SBGW":{"icaoId":"SBGW","flightCategory":"IFR","rawOb":"METAR SBGW 290900Z 08003KT 3000 BR FEW005 20/16 Q1020","temp":20,"dewp":16,"wdir":80,"wspd":3,"visib":1.86,"altim":1020,"clouds":[{"cover":"FEW","base":500}],"obsTime":1774774800},"SBJP":{"icaoId":"SBJP","flightCategory":"VFR","rawOb":"METAR SBJP 290900Z 00000KT 9999 FEW025 24/23 Q1011","temp":24,"dewp":23,"wdir":0,"wspd":0,"visib":"6+","altim":1011,"clouds":[{"cover":"FEW","base":2500}],"obsTime":1774774800},"SBJR":{"icaoId":"SBJR","flightCategory":"VFR","rawOb":"METAR SBJR 291000Z 03004KT CAVOK 24/22 Q1017","temp":24,"dewp":22,"wdir":30,"wspd":4,"visib":"6+","altim":1017,"clouds":[],"obsTime":1774778400},"SBAN":{"icaoId":"SBAN","flightCategory":"VFR","rawOb":"METAR SBAN 290900Z 14006KT CAVOK 18/17 Q1021","temp":18,"dewp":17,"wdir":140,"wspd":6,"visib":"6+","altim":1021,"clouds":[],"obsTime":1774774800},"SBLS":{"icaoId":"SBLS","flightCategory":"VFR","rawOb":"METAR SBLS 290900Z 15008KT 9999 FEW015 19/17 Q1020","temp":19,"dewp":17,"wdir":150,"wspd":8,"visib":"6+","altim":1020,"clouds":[{"cover":"FEW","base":1500}],"obsTime":1774774800}}}