{"updated":1778067680,"count":82,"data":{"SBAT":{"icaoId":"SBAT","flightCategory":"MVFR","rawOb":"METAR SBAT 061100Z 00000KT 8000 NSC 25/24 Q1016","temp":25,"dewp":24,"wdir":0,"wspd":0,"visib":4.97,"altim":1016,"clouds":[],"obsTime":1778065200},"SBBE":{"icaoId":"SBBE","flightCategory":"VFR","rawOb":"METAR SBBE 061000Z 11003KT 9999 FEW017 BKN080 24/23 Q1012","temp":24,"dewp":23,"wdir":110,"wspd":3,"visib":"6+","altim":1012,"clouds":[{"cover":"FEW","base":1700},{"cover":"BKN","base":8000}],"obsTime":1778061600},"SBBR":{"icaoId":"SBBR","flightCategory":"VFR","rawOb":"METAR SBBR 061000Z 09005KT CAVOK 17/15 Q1023","temp":17,"dewp":15,"wdir":90,"wspd":5,"visib":"6+","altim":1023,"clouds":[],"obsTime":1778061600},"SBBV":{"icaoId":"SBBV","flightCategory":"VFR","rawOb":"METAR SBBV 061000Z 14004KT 9999 SCT025 FEW035TCU BKN070 23/22 Q1014","temp":23,"dewp":22,"wdir":140,"wspd":4,"visib":"6+","altim":1014,"clouds":[{"cover":"SCT","base":2500},{"cover":"FEW","base":3500},{"cover":"BKN","base":7000}],"obsTime":1778061600},"SBCB":{"icaoId":"SBCB","flightCategory":"VFR","rawOb":"METAR SBCB 061000Z 03004KT CAVOK 23/21 Q1020","temp":23,"dewp":21,"wdir":30,"wspd":4,"visib":"6+","altim":1020,"clouds":[],"obsTime":1778061600},"SBCF":{"icaoId":"SBCF","flightCategory":"VFR","rawOb":"METAR SBCF 061000Z 14008KT CAVOK 19/16 Q1023","temp":19,"dewp":16,"wdir":140,"wspd":8,"visib":"6+","altim":1023,"clouds":[],"obsTime":1778061600},"SBCG":{"icaoId":"SBCG","flightCategory":"VFR","rawOb":"METAR SBCG 061000Z 04010KT CAVOK 23/15 Q1018","temp":23,"dewp":15,"wdir":40,"wspd":10,"visib":"6+","altim":1018,"clouds":[],"obsTime":1778061600},"SBCP":{"icaoId":"SBCP","flightCategory":"VFR","rawOb":"METAR SBCP 061000Z 28003KT 9999 FEW020 20/20 Q1020","temp":20,"dewp":20,"wdir":280,"wspd":3,"visib":"6+","altim":1020,"clouds":[{"cover":"FEW","base":2000}],"obsTime":1778061600},"SBCR":{"icaoId":"SBCR","flightCategory":"VFR","rawOb":"METAR SBCR 061100Z 10004KT CAVOK 27/22 Q1014","temp":27,"dewp":22,"wdir":100,"wspd":4,"visib":"6+","altim":1014,"clouds":[],"obsTime":1778065200},"SBCT":{"icaoId":"SBCT","flightCategory":"MVFR","rawOb":"METAR SBCT 061000Z 13003KT 7000 MIFG NSC 15/15 Q1024","temp":15,"dewp":15,"wdir":130,"wspd":3,"visib":4.35,"altim":1024,"clouds":[],"obsTime":1778061600},"SBEG":{"icaoId":"SBEG","flightCategory":"VFR","rawOb":"METAR SBEG 061000Z 03006KT 9999 SCT010 FEW025TCU BKN070 24/23 Q1014","temp":24,"dewp":23,"wdir":30,"wspd":6,"visib":"6+","altim":1014,"clouds":[{"cover":"SCT","base":1000},{"cover":"FEW","base":2500},{"cover":"BKN","base":7000}],"obsTime":1778061600},"SBFI":{"icaoId":"SBFI","flightCategory":"VFR","rawOb":"METAR SBFI 061000Z 11007KT CAVOK 21/20 Q1016","temp":21,"dewp":20,"wdir":110,"wspd":7,"visib":"6+","altim":1016,"clouds":[],"obsTime":1778061600},"SBFL":{"icaoId":"SBFL","flightCategory":"MVFR","rawOb":"METAR SBFL 061000Z 31006KT 5000 BR SCT003 21/21 Q1018","temp":21,"dewp":21,"wdir":310,"wspd":6,"visib":3.11,"altim":1018,"clouds":[{"cover":"SCT","base":300}],"obsTime":1778061600},"SBFZ":{"icaoId":"SBFZ","flightCategory":"VFR","rawOb":"METAR SBFZ 061000Z 16009KT 9999 FEW020 26/24 Q1012","temp":26,"dewp":24,"wdir":160,"wspd":9,"visib":"6+","altim":1012,"clouds":[{"cover":"FEW","base":2000}],"obsTime":1778061600},"SBGL":{"icaoId":"SBGL","flightCategory":"VFR","rawOb":"METAR SBGL 061000Z 10003KT CAVOK 21/20 Q1019","temp":21,"dewp":20,"wdir":100,"wspd":3,"visib":"6+","altim":1019,"clouds":[],"obsTime":1778061600},"SBGO":{"icaoId":"SBGO","flightCategory":"VFR","rawOb":"METAR SBGO 061000Z 12006KT CAVOK 17/15 Q1021","temp":17,"dewp":15,"wdir":120,"wspd":6,"visib":"6+","altim":1021,"clouds":[],"obsTime":1778061600},"SBGR":{"icaoId":"SBGR","flightCategory":"VFR","rawOb":"METAR SBGR 061000Z 09002KT 9000 NSC 17/16 Q1023","temp":17,"dewp":16,"wdir":90,"wspd":2,"visib":5.59,"altim":1023,"clouds":[],"obsTime":1778061600},"SBHT":{"icaoId":"SBHT","flightCategory":"VFR","rawOb":"METAR SBHT 061000Z 00000KT 9999 SCT010 BKN080 23/23 Q1013","temp":23,"dewp":23,"wdir":0,"wspd":0,"visib":"6+","altim":1013,"clouds":[{"cover":"SCT","base":1000},{"cover":"BKN","base":8000}],"obsTime":1778061600},"SBIL":{"icaoId":"SBIL","flightCategory":"MVFR","rawOb":"METAR SBIL 061000Z 23005KT 8000 VCSH SCT021 FEW025TCU SCT050 25/24 Q1017","temp":25,"dewp":24,"wdir":230,"wspd":5,"visib":4.97,"altim":1017,"clouds":[{"cover":"SCT","base":2100},{"cover":"FEW","base":2500},{"cover":"SCT","base":5000}],"obsTime":1778061600},"SBJU":{"icaoId":"SBJU","flightCategory":"MVFR","rawOb":"METAR SBJU 061000Z 00000KT 9999 BKN020 24/20 Q1016","temp":24,"dewp":20,"wdir":0,"wspd":0,"visib":"6+","altim":1016,"clouds":[{"cover":"BKN","base":2000}],"obsTime":1778061600},"SBKP":{"icaoId":"SBKP","flightCategory":"VFR","rawOb":"METAR SBKP 061000Z 11006KT CAVOK 19/16 Q1022","temp":19,"dewp":16,"wdir":110,"wspd":6,"visib":"6+","altim":1022,"clouds":[],"obsTime":1778061600},"SBLO":{"icaoId":"SBLO","flightCategory":"VFR","rawOb":"METAR SBLO 061000Z 20003KT CAVOK 20/18 Q1021","temp":20,"dewp":18,"wdir":200,"wspd":3,"visib":"6+","altim":1021,"clouds":[],"obsTime":1778061600},"SBMA":{"icaoId":"SBMA","flightCategory":"VFR","rawOb":"METAR SBMA 061000Z 00000KT 9999 SCT012 OVC080 25/24 Q1013","temp":25,"dewp":24,"wdir":0,"wspd":0,"visib":"6+","altim":1013,"clouds":[{"cover":"SCT","base":1200},{"cover":"OVC","base":8000}],"obsTime":1778061600},"SBME":{"icaoId":"SBME","flightCategory":"VFR","rawOb":"METAR SBME 061000Z 04004KT CAVOK 22/19 Q1020","temp":22,"dewp":19,"wdir":40,"wspd":4,"visib":"6+","altim":1020,"clouds":[],"obsTime":1778061600},"SBMG":{"icaoId":"SBMG","flightCategory":"VFR","rawOb":"METAR SBMG 061000Z 07010KT 9999 4500SW BCFG NSC 23/18 Q1019","temp":23,"dewp":18,"wdir":70,"wspd":10,"visib":"6+","altim":1019,"clouds":[],"obsTime":1778061600},"SBMK":{"icaoId":"SBMK","flightCategory":"VFR","rawOb":"METAR SBMK 061000Z 00000KT CAVOK 21/18 Q1021","temp":21,"dewp":18,"wdir":0,"wspd":0,"visib":"6+","altim":1021,"clouds":[],"obsTime":1778061600},"SBMO":{"icaoId":"SBMO","flightCategory":"VFR","rawOb":"METAR SBMO 061000Z 15002KT 9999 FEW025 26/23 Q1014","temp":26,"dewp":23,"wdir":150,"wspd":2,"visib":"6+","altim":1014,"clouds":[{"cover":"FEW","base":2500}],"obsTime":1778061600},"SBMQ":{"icaoId":"SBMQ","flightCategory":"LIFR","rawOb":"METAR SBMQ 061000Z 28004KT 9999 BKN004 BKN025 24/24 Q1013","temp":24,"dewp":24,"wdir":280,"wspd":4,"visib":"6+","altim":1013,"clouds":[{"cover":"BKN","base":400},{"cover":"BKN","base":2500}],"obsTime":1778061600},"SBNT":{"icaoId":"SBNT","flightCategory":"VFR","rawOb":"METAR SBNT 061000Z 19006KT 160V220 9999 FEW026 25/23 Q1013","temp":25,"dewp":23,"wdir":190,"wspd":6,"visib":"6+","altim":1013,"clouds":[{"cover":"FEW","base":2600}],"obsTime":1778061600},"SBPA":{"icaoId":"SBPA","flightCategory":"VFR","rawOb":"METAR SBPA 061000Z VRB02KT CAVOK 20/19 Q1016","temp":20,"dewp":19,"wdir":"VRB","wspd":2,"visib":"6+","altim":1016,"clouds":[],"obsTime":1778061600},"SBPJ":{"icaoId":"SBPJ","flightCategory":"VFR","rawOb":"METAR SBPJ 061000Z 20005KT CAVOK 24/19 Q1015","temp":24,"dewp":19,"wdir":200,"wspd":5,"visib":"6+","altim":1015,"clouds":[],"obsTime":1778061600},"SBPV":{"icaoId":"SBPV","flightCategory":"VFR","rawOb":"METAR SBPV 061000Z 00000KT CAVOK 25/23 Q1012","temp":25,"dewp":23,"wdir":0,"wspd":0,"visib":"6+","altim":1012,"clouds":[],"obsTime":1778061600},"SBRB":{"icaoId":"SBRB","flightCategory":"VFR","rawOb":"METAR SBRB 061000Z 00000KT 9999 FEW020 BKN100 24/24 Q1014","temp":24,"dewp":24,"wdir":0,"wspd":0,"visib":"6+","altim":1014,"clouds":[{"cover":"FEW","base":2000},{"cover":"BKN","base":10000}],"obsTime":1778061600},"SBRF":{"icaoId":"SBRF","flightCategory":"VFR","rawOb":"METAR SBRF 061000Z 20006KT 9999 SCT021 26/23 Q1013","temp":26,"dewp":23,"wdir":200,"wspd":6,"visib":"6+","altim":1013,"clouds":[{"cover":"SCT","base":2100}],"obsTime":1778061600},"SBSG":{"icaoId":"SBSG","flightCategory":"VFR","rawOb":"METAR SBSG 061000Z 18004KT 130V220 9999 FEW025 24/23 Q1014","temp":24,"dewp":23,"wdir":180,"wspd":4,"visib":"6+","altim":1014,"clouds":[{"cover":"FEW","base":2500}],"obsTime":1778061600},"SBSL":{"icaoId":"SBSL","flightCategory":"VFR","rawOb":"METAR SBSL 061000Z 30002KT 9999 FEW017 SCT080 25/25 Q1012","temp":25,"dewp":25,"wdir":300,"wspd":2,"visib":"6+","altim":1012,"clouds":[{"cover":"FEW","base":1700},{"cover":"SCT","base":8000}],"obsTime":1778061600},"SBSN":{"icaoId":"SBSN","flightCategory":"VFR","rawOb":"METAR SBSN 061000Z 00000KT 9999 FEW015 BKN090 24/23 Q1013","temp":24,"dewp":23,"wdir":0,"wspd":0,"visib":"6+","altim":1013,"clouds":[{"cover":"FEW","base":1500},{"cover":"BKN","base":9000}],"obsTime":1778061600},"SBSP":{"icaoId":"SBSP","flightCategory":"VFR","rawOb":"METAR SBSP 061000Z 07004KT 040V120 CAVOK 20/17 Q1024","temp":20,"dewp":17,"wdir":70,"wspd":4,"visib":"6+","altim":1024,"clouds":[],"obsTime":1778061600},"SBSV":{"icaoId":"SBSV","flightCategory":"MVFR","rawOb":"METAR SBSV 061000Z 09010KT 9000 VCSH BKN022 FEW024TCU BKN055 27/24 Q1015","temp":27,"dewp":24,"wdir":90,"wspd":10,"visib":5.59,"altim":1015,"clouds":[{"cover":"BKN","base":2200},{"cover":"FEW","base":2400},{"cover":"BKN","base":5500}],"obsTime":1778061600},"SBTE":{"icaoId":"SBTE","flightCategory":"VFR","rawOb":"METAR SBTE 061000Z 34002KT 9999 FEW016 BKN080 26/24 Q1012","temp":26,"dewp":24,"wdir":340,"wspd":2,"visib":"6+","altim":1012,"clouds":[{"cover":"FEW","base":1600},{"cover":"BKN","base":8000}],"obsTime":1778061600},"SBUL":{"icaoId":"SBUL","flightCategory":"VFR","rawOb":"METAR SBUL 061000Z 12006KT CAVOK 18/15 Q1022","temp":18,"dewp":15,"wdir":120,"wspd":6,"visib":"6+","altim":1022,"clouds":[],"obsTime":1778061600},"SBUR":{"icaoId":"SBUR","flightCategory":"VFR","rawOb":"METAR SBUR 061000Z 03005KT CAVOK 20/12 Q1021","temp":20,"dewp":12,"wdir":30,"wspd":5,"visib":"6+","altim":1021,"clouds":[],"obsTime":1778061600},"SBVT":{"icaoId":"SBVT","flightCategory":"MVFR","rawOb":"METAR SBVT 061000Z 32002KT 9999 BKN016 BKN020 22/21 Q1020","temp":22,"dewp":21,"wdir":320,"wspd":2,"visib":"6+","altim":1020,"clouds":[{"cover":"BKN","base":1600},{"cover":"BKN","base":2000}],"obsTime":1778061600},"SBTF":{"icaoId":"SBTF","flightCategory":"VFR","rawOb":"SPECI SBTF 061115Z 00000KT 9999 FEW005 BKN090 25/25 Q1014","temp":25,"dewp":25,"wdir":0,"wspd":0,"visib":"6+","altim":1014,"clouds":[{"cover":"FEW","base":500},{"cover":"BKN","base":9000}],"obsTime":1778066100},"SBPP":{"icaoId":"SBPP","flightCategory":"VFR","rawOb":"SPECI SBPP 061115Z 06003KT CAVOK 21/18 Q1019","temp":21,"dewp":18,"wdir":60,"wspd":3,"visib":"6+","altim":1019,"clouds":[],"obsTime":1778066100},"SBBH":{"icaoId":"SBBH","flightCategory":"VFR","rawOb":"METAR SBBH 061000Z 11004KT CAVOK 18/16 Q1023","temp":18,"dewp":16,"wdir":110,"wspd":4,"visib":"6+","altim":1023,"clouds":[],"obsTime":1778061600},"SBSJ":{"icaoId":"SBSJ","flightCategory":"IFR","rawOb":"METAR SBSJ 061000Z 16002KT 4000 BR NSC 16/15 Q1023","temp":16,"dewp":15,"wdir":160,"wspd":2,"visib":2.49,"altim":1023,"clouds":[],"obsTime":1778061600},"SBAX":{"icaoId":"SBAX","flightCategory":"VFR","rawOb":"METAR SBAX 061000Z 12006KT CAVOK 17/16 Q1023","temp":17,"dewp":16,"wdir":120,"wspd":6,"visib":"6+","altim":1023,"clouds":[],"obsTime":1778061600},"SBCA":{"icaoId":"SBCA","flightCategory":"VFR","rawOb":"METAR SBCA 061000Z 06008KT CAVOK 20/17 Q1021","temp":20,"dewp":17,"wdir":60,"wspd":8,"visib":"6+","altim":1021,"clouds":[],"obsTime":1778061600},"SBCC":{"icaoId":"SBCC","flightCategory":"VFR","rawOb":"METAR SBCC 061100Z 03005KT CAVOK 23/19 Q1016","temp":23,"dewp":19,"wdir":30,"wspd":5,"visib":"6+","altim":1016,"clouds":[],"obsTime":1778065200},"SBCJ":{"icaoId":"SBCJ","flightCategory":"MVFR","rawOb":"SPECI SBCJ 061015Z 00000KT 8000 FEW006 22/21 Q1018","temp":22,"dewp":21,"wdir":0,"wspd":0,"visib":4.97,"altim":1018,"clouds":[{"cover":"FEW","base":600}],"obsTime":1778062500},"SBCO":{"icaoId":"SBCO","flightCategory":"MVFR","rawOb":"METAR SBCO 061000Z 09002KT 6000 FEW035 18/17 Q1016","temp":18,"dewp":17,"wdir":90,"wspd":2,"visib":3.73,"altim":1016,"clouds":[{"cover":"FEW","base":3500}],"obsTime":1778061600},"SBDN":{"icaoId":"SBDN","flightCategory":"VFR","rawOb":"METAR SBDN 061000Z 08007KT CAVOK 23/16 Q1019","temp":23,"dewp":16,"wdir":80,"wspd":7,"visib":"6+","altim":1019,"clouds":[],"obsTime":1778061600},"SBES":{"icaoId":"SBES","flightCategory":"VFR","rawOb":"METAR SBES 061000Z 05007KT 010V070 CAVOK 20/// Q1020","temp":null,"dewp":null,"wdir":50,"wspd":7,"visib":"6+","altim":1020,"clouds":[],"obsTime":1778061600},"SBIP":{"icaoId":"SBIP","flightCategory":"LIFR","rawOb":"METAR SBIP 061000Z AUTO 00000KT 0250 FG VV001 19/19 Q1021","temp":19,"dewp":19,"wdir":0,"wspd":0,"visib":0.16,"altim":1021,"clouds":[{"cover":"OVX","base":100}],"obsTime":1778061600},"SBKG":{"icaoId":"SBKG","flightCategory":"MVFR","rawOb":"METAR SBKG 061000Z 14007KT 9999 BKN018 22/21 Q1016","temp":22,"dewp":21,"wdir":140,"wspd":7,"visib":"6+","altim":1016,"clouds":[{"cover":"BKN","base":1800}],"obsTime":1778061600},"SBOI":{"icaoId":"SBOI","flightCategory":"MVFR","rawOb":"METAR SBOI 061000Z AUTO VRB02KT 8000 NCD 24/23 Q1014","temp":24,"dewp":23,"wdir":"VRB","wspd":2,"visib":4.97,"altim":1014,"clouds":[],"obsTime":1778061600},"SBPL":{"icaoId":"SBPL","flightCategory":"VFR","rawOb":"METAR SBPL 061000Z 13008KT 9999 FEW022 24/20 Q1016","temp":24,"dewp":20,"wdir":130,"wspd":8,"visib":"6+","altim":1016,"clouds":[{"cover":"FEW","base":2200}],"obsTime":1778061600},"SBPS":{"icaoId":"SBPS","flightCategory":"MVFR","rawOb":"METAR SBPS 061000Z 24004KT 9999 BKN020 23/22 Q1018","temp":23,"dewp":22,"wdir":240,"wspd":4,"visib":"6+","altim":1018,"clouds":[{"cover":"BKN","base":2000}],"obsTime":1778061600},"SBSC":{"icaoId":"SBSC","flightCategory":"VFR","rawOb":"METAR SBSC 061000Z 03004KT 9999 FEW020 23/20 Q1019","temp":23,"dewp":20,"wdir":30,"wspd":4,"visib":"6+","altim":1019,"clouds":[{"cover":"FEW","base":2000}],"obsTime":1778061600},"SBAR":{"icaoId":"SBAR","flightCategory":"VFR","rawOb":"METAR SBAR 061000Z 13008KT 9999 FEW020 28/22 Q1014","temp":28,"dewp":22,"wdir":130,"wspd":8,"visib":"6+","altim":1014,"clouds":[{"cover":"FEW","base":2000}],"obsTime":1778061600},"SBSM":{"icaoId":"SBSM","flightCategory":"VFR","rawOb":"METAR SBSM 061000Z 15004KT 100V200 9999 FEW045 SCT100 23/19 Q1015","temp":23,"dewp":19,"wdir":150,"wspd":4,"visib":"6+","altim":1015,"clouds":[{"cover":"FEW","base":4500},{"cover":"SCT","base":10000}],"obsTime":1778061600},"SBSR":{"icaoId":"SBSR","flightCategory":"VFR","rawOb":"METAR SBSR 061000Z 09004KT CAVOK 21/16 Q1020","temp":21,"dewp":16,"wdir":90,"wspd":4,"visib":"6+","altim":1020,"clouds":[],"obsTime":1778061600},"SBTD":{"icaoId":"SBTD","flightCategory":"VFR","rawOb":"METAR SBTD 061100Z /////KT CAVOK 20/17 Q1020","temp":20,"dewp":17,"wdir":null,"wspd":null,"visib":"6+","altim":1020,"clouds":[],"obsTime":1778065200},"SBTT":{"icaoId":"SBTT","flightCategory":"VFR","rawOb":"METAR SBTT 061100Z 11003KT 9999 SCT008 BKN070 23/22 Q1015","temp":23,"dewp":22,"wdir":110,"wspd":3,"visib":"6+","altim":1015,"clouds":[{"cover":"SCT","base":800},{"cover":"BKN","base":7000}],"obsTime":1778065200},"SBUY":{"icaoId":"SBUY","flightCategory":"LIFR","rawOb":"METAR SBUY 061100Z 28003KT 3000 BR BKN003 BKN070 23/23 Q1013","temp":23,"dewp":23,"wdir":280,"wspd":3,"visib":1.86,"altim":1013,"clouds":[{"cover":"BKN","base":300},{"cover":"BKN","base":7000}],"obsTime":1778065200},"SBVH":{"icaoId":"SBVH","flightCategory":"VFR","rawOb":"METAR SBVH 061100Z 06004KT CAVOK 23/22 Q1018","temp":23,"dewp":22,"wdir":60,"wspd":4,"visib":"6+","altim":1018,"clouds":[],"obsTime":1778065200},"SBBU":{"icaoId":"SBBU","flightCategory":"VFR","rawOb":"METAR SBBU 061000Z 11004KT CAVOK 21/18 Q1021","temp":21,"dewp":18,"wdir":110,"wspd":4,"visib":"6+","altim":1021,"clouds":[],"obsTime":1778061600},"SBJV":{"icaoId":"SBJV","flightCategory":"LIFR","rawOb":"METAR SBJV 061000Z 00000KT 0350 R33/0500 FG OVC001 21/21 Q1019","temp":21,"dewp":21,"wdir":0,"wspd":0,"visib":0.22,"altim":1019,"clouds":[{"cover":"OVC","base":100}],"obsTime":1778061600},"SBAN":{"icaoId":"SBAN","flightCategory":"VFR","rawOb":"METAR SBAN 061000Z 15008KT CAVOK 17/14 Q1023","temp":17,"dewp":14,"wdir":150,"wspd":8,"visib":"6+","altim":1023,"clouds":[],"obsTime":1778061600},"SBIH":{"icaoId":"SBIH","flightCategory":"VFR","rawOb":"METAR SBIH 061100Z 00000KT 9999 FEW008 SCT080 25/24 Q1014","temp":25,"dewp":24,"wdir":0,"wspd":0,"visib":"6+","altim":1014,"clouds":[{"cover":"FEW","base":800},{"cover":"SCT","base":8000}],"obsTime":1778065200},"SBNM":{"icaoId":"SBNM","flightCategory":"VFR","rawOb":"METAR SBNM 061000Z 03004KT 9999 FEW030 22/18 Q1017","temp":22,"dewp":18,"wdir":30,"wspd":4,"visib":"6+","altim":1017,"clouds":[{"cover":"FEW","base":3000}],"obsTime":1778061600},"SBPF":{"icaoId":"SBPF","flightCategory":"VFR","rawOb":"METAR SBPF 061100Z 04010KT CAVOK 19/16 Q1021","temp":19,"dewp":16,"wdir":40,"wspd":10,"visib":"6+","altim":1021,"clouds":[],"obsTime":1778065200},"SBGW":{"icaoId":"SBGW","flightCategory":"VFR","rawOb":"METAR SBGW 061000Z 00000KT CAVOK 17/14 Q1022","temp":17,"dewp":14,"wdir":0,"wspd":0,"visib":"6+","altim":1022,"clouds":[],"obsTime":1778061600},"SBJR":{"icaoId":"SBJR","flightCategory":"VFR","rawOb":"METAR SBJR 061000Z 03003KT CAVOK 22/21 Q1019","temp":22,"dewp":21,"wdir":30,"wspd":3,"visib":"6+","altim":1019,"clouds":[],"obsTime":1778061600},"SBLS":{"icaoId":"SBLS","flightCategory":"VFR","rawOb":"METAR SBLS 061000Z 15008KT CAVOK 18/16 Q1023","temp":18,"dewp":16,"wdir":150,"wspd":8,"visib":"6+","altim":1023,"clouds":[],"obsTime":1778061600},"SBMT":{"icaoId":"SBMT","flightCategory":"VFR","rawOb":"METAR SBMT 061000Z 09005KT CAVOK 18/17 Q1023","temp":18,"dewp":17,"wdir":90,"wspd":5,"visib":"6+","altim":1023,"clouds":[],"obsTime":1778061600},"SBTA":{"icaoId":"SBTA","flightCategory":"VFR","rawOb":"METAR SBTA 061000Z VRB02KT CAVOK 15/15 Q1022","temp":15,"dewp":15,"wdir":"VRB","wspd":2,"visib":"6+","altim":1022,"clouds":[],"obsTime":1778061600},"SBLE":{"icaoId":"SBLE","flightCategory":"VFR","rawOb":"METAR SBLE 061000Z AUTO VRB02KT 9999 BKN034 BKN039 ///// Q////","temp":null,"dewp":null,"wdir":"VRB","wspd":2,"visib":"6+","altim":null,"clouds":[{"cover":"BKN","base":3400},{"cover":"BKN","base":3900}],"obsTime":1778061600},"SBAF":{"icaoId":"SBAF","flightCategory":"VFR","rawOb":"METAR SBAF 061000Z /////KT CAVOK ///// Q1020","temp":null,"dewp":null,"wdir":null,"wspd":null,"visib":"6+","altim":1020,"clouds":[],"obsTime":1778061600},"SBST":{"icaoId":"SBST","flightCategory":"MVFR","rawOb":"METAR SBST 061100Z /////KT 8000 NSC ///// Q1019","temp":null,"dewp":null,"wdir":null,"wspd":null,"visib":4.97,"altim":1019,"clouds":[],"obsTime":1778065200},"SBJP":{"icaoId":"SBJP","flightCategory":"VFR","rawOb":"METAR SBJP 061000Z 19005KT 9999 FEW020 SCT070 25/24 Q1014","temp":25,"dewp":24,"wdir":190,"wspd":5,"visib":"6+","altim":1014,"clouds":[{"cover":"FEW","base":2000},{"cover":"SCT","base":7000}],"obsTime":1778061600}}}