{"updated":1773892676,"count":60,"data":{"SBMG":{"icaoId":"SBMG","flightCategory":"VFR","rawOb":"METAR SBMG 190200Z 29004KT CAVOK 24/21 Q1011","temp":24,"dewp":21,"wdir":290,"wspd":4,"visib":"6+","altim":1011,"clouds":[],"obsTime":1773885600},"SBMK":{"icaoId":"SBMK","flightCategory":"VFR","rawOb":"METAR SBMK 190200Z 30002KT CAVOK 23/21 Q1013","temp":23,"dewp":21,"wdir":300,"wspd":2,"visib":"6+","altim":1013,"clouds":[],"obsTime":1773885600},"SBGL":{"icaoId":"SBGL","flightCategory":"VFR","rawOb":"METAR SBGL 190200Z 14005KT 9999 SCT026 SCT036 25/21 Q1011","temp":25,"dewp":21,"wdir":140,"wspd":5,"visib":"6+","altim":1011,"clouds":[{"cover":"SCT","base":2600},{"cover":"SCT","base":3600}],"obsTime":1773885600},"SBMO":{"icaoId":"SBMO","flightCategory":"VFR","rawOb":"METAR SBMO 190200Z 01003KT 9999 FEW018 25/23 Q1011","temp":25,"dewp":23,"wdir":10,"wspd":3,"visib":"6+","altim":1011,"clouds":[{"cover":"FEW","base":1800}],"obsTime":1773885600},"SBCT":{"icaoId":"SBCT","flightCategory":"MVFR","rawOb":"METAR SBCT 190200Z 02002KT 9999 OVC012 21/20 Q1015","temp":21,"dewp":20,"wdir":20,"wspd":2,"visib":"6+","altim":1015,"clouds":[{"cover":"OVC","base":1200}],"obsTime":1773885600},"SBMQ":{"icaoId":"SBMQ","flightCategory":"VFR","rawOb":"METAR SBMQ 190200Z 35004KT 9999 FEW009 SCT027 BKN036 26/25 Q1011","temp":26,"dewp":25,"wdir":350,"wspd":4,"visib":"6+","altim":1011,"clouds":[{"cover":"FEW","base":900},{"cover":"SCT","base":2700},{"cover":"BKN","base":3600}],"obsTime":1773885600},"SBBV":{"icaoId":"SBBV","flightCategory":"VFR","rawOb":"METAR SBBV 190200Z 09008KT CAVOK 29/19 Q1010","temp":29,"dewp":19,"wdir":90,"wspd":8,"visib":"6+","altim":1010,"clouds":[],"obsTime":1773885600},"SBNT":{"icaoId":"SBNT","flightCategory":"VFR","rawOb":"METAR SBNT 190200Z 12007KT 9999 FEW020 27/23 Q1010","temp":27,"dewp":23,"wdir":120,"wspd":7,"visib":"6+","altim":1010,"clouds":[{"cover":"FEW","base":2000}],"obsTime":1773885600},"SBGO":{"icaoId":"SBGO","flightCategory":"VFR","rawOb":"METAR SBGO 190200Z 34001KT 9999 FEW040 SCT100 22/21 Q1015","temp":22,"dewp":21,"wdir":340,"wspd":1,"visib":"6+","altim":1015,"clouds":[{"cover":"FEW","base":4000},{"cover":"SCT","base":10000}],"obsTime":1773885600},"SBPA":{"icaoId":"SBPA","flightCategory":"MVFR","rawOb":"METAR SBPA 190200Z 21008KT 9999 BKN013 BKN030 24/22 Q1010","temp":24,"dewp":22,"wdir":210,"wspd":8,"visib":"6+","altim":1010,"clouds":[{"cover":"BKN","base":1300},{"cover":"BKN","base":3000}],"obsTime":1773885600},"SBPJ":{"icaoId":"SBPJ","flightCategory":"VFR","rawOb":"METAR SBPJ 190200Z 12003KT 9999 FEW025 26/25 Q1011","temp":26,"dewp":25,"wdir":120,"wspd":3,"visib":"6+","altim":1011,"clouds":[{"cover":"FEW","base":2500}],"obsTime":1773885600},"SBBR":{"icaoId":"SBBR","flightCategory":"VFR","rawOb":"METAR SBBR 190200Z 26005KT 9999 SCT025 22/20 Q1017","temp":22,"dewp":20,"wdir":260,"wspd":5,"visib":"6+","altim":1017,"clouds":[{"cover":"SCT","base":2500}],"obsTime":1773885600},"SBPV":{"icaoId":"SBPV","flightCategory":"VFR","rawOb":"METAR SBPV 190200Z 00000KT 9999 FEW030 FEW045TCU 25/22 Q1010","temp":25,"dewp":22,"wdir":0,"wspd":0,"visib":"6+","altim":1010,"clouds":[{"cover":"FEW","base":3000},{"cover":"FEW","base":4500}],"obsTime":1773885600},"SBGR":{"icaoId":"SBGR","flightCategory":"MVFR","rawOb":"METAR SBGR 190200Z 08004KT 9000 BKN015 BKN050 22/20 Q1014","temp":22,"dewp":20,"wdir":80,"wspd":4,"visib":5.59,"altim":1014,"clouds":[{"cover":"BKN","base":1500},{"cover":"BKN","base":5000}],"obsTime":1773885600},"SBEG":{"icaoId":"SBEG","flightCategory":"VFR","rawOb":"METAR SBEG 190200Z 08002KT 9999 FEW018 SCT100 26/25 Q1011","temp":26,"dewp":25,"wdir":80,"wspd":2,"visib":"6+","altim":1011,"clouds":[{"cover":"FEW","base":1800},{"cover":"SCT","base":10000}],"obsTime":1773885600},"SBRB":{"icaoId":"SBRB","flightCategory":"MVFR","rawOb":"METAR SBRB 190200Z 34002KT 8000 NSC 24/23 Q1011","temp":24,"dewp":23,"wdir":340,"wspd":2,"visib":4.97,"altim":1011,"clouds":[],"obsTime":1773885600},"SBJU":{"icaoId":"SBJU","flightCategory":"VFR","rawOb":"METAR SBJU 190200Z 00000KT 9999 SCT020 24/22 Q1012","temp":24,"dewp":22,"wdir":0,"wspd":0,"visib":"6+","altim":1012,"clouds":[{"cover":"SCT","base":2000}],"obsTime":1773885600},"SBRF":{"icaoId":"SBRF","flightCategory":"VFR","rawOb":"METAR SBRF 190200Z 10006KT 9999 SCT025 28/23 Q1010","temp":28,"dewp":23,"wdir":100,"wspd":6,"visib":"6+","altim":1010,"clouds":[{"cover":"SCT","base":2500}],"obsTime":1773885600},"SBKP":{"icaoId":"SBKP","flightCategory":"MVFR","rawOb":"METAR SBKP 190200Z 35006KT 6000 -RA FEW005 BKN020 OVC100 22/21 Q1014 RERA","temp":22,"dewp":21,"wdir":350,"wspd":6,"visib":3.73,"altim":1014,"clouds":[{"cover":"FEW","base":500},{"cover":"BKN","base":2000},{"cover":"OVC","base":10000}],"obsTime":1773885600},"SBSG":{"icaoId":"SBSG","flightCategory":"VFR","rawOb":"METAR SBSG 190200Z 00000KT 9999 SCT023 25/24 Q1011","temp":25,"dewp":24,"wdir":0,"wspd":0,"visib":"6+","altim":1011,"clouds":[{"cover":"SCT","base":2300}],"obsTime":1773885600},"SBSL":{"icaoId":"SBSL","flightCategory":"VFR","rawOb":"METAR SBSL 190200Z 10003KT 9999 SCT024 SCT080 26/24 Q1011","temp":26,"dewp":24,"wdir":100,"wspd":3,"visib":"6+","altim":1011,"clouds":[{"cover":"SCT","base":2400},{"cover":"SCT","base":8000}],"obsTime":1773885600},"SBFI":{"icaoId":"SBFI","flightCategory":"VFR","rawOb":"METAR SBFI 190200Z 00000KT 9999 FEW040 24/24 Q1010","temp":24,"dewp":24,"wdir":0,"wspd":0,"visib":"6+","altim":1010,"clouds":[{"cover":"FEW","base":4000}],"obsTime":1773885600},"SBCF":{"icaoId":"SBCF","flightCategory":"VFR","rawOb":"METAR SBCF 190200Z 00000KT CAVOK 22/21 Q1015","temp":22,"dewp":21,"wdir":0,"wspd":0,"visib":"6+","altim":1015,"clouds":[],"obsTime":1773885600},"SBSN":{"icaoId":"SBSN","flightCategory":"VFR","rawOb":"METAR SBSN 190200Z 00000KT 9999 FEW017 BKN100 25/25 Q1010","temp":25,"dewp":25,"wdir":0,"wspd":0,"visib":"6+","altim":1010,"clouds":[{"cover":"FEW","base":1700},{"cover":"BKN","base":10000}],"obsTime":1773885600},"SBLO":{"icaoId":"SBLO","flightCategory":"VFR","rawOb":"METAR SBLO 190200Z 25003KT CAVOK 24/21 Q1012","temp":24,"dewp":21,"wdir":250,"wspd":3,"visib":"6+","altim":1012,"clouds":[],"obsTime":1773885600},"SBFZ":{"icaoId":"SBFZ","flightCategory":"MVFR","rawOb":"METAR SBFZ 190200Z 18002KT 9999 BKN020 26/24 Q1010","temp":26,"dewp":24,"wdir":180,"wspd":2,"visib":"6+","altim":1010,"clouds":[{"cover":"BKN","base":2000}],"obsTime":1773885600},"SBSP":{"icaoId":"SBSP","flightCategory":"MVFR","rawOb":"METAR SBSP 190200Z 11004KT 9999 BKN013 BKN015 21/19 Q1015","temp":21,"dewp":19,"wdir":110,"wspd":4,"visib":"6+","altim":1015,"clouds":[{"cover":"BKN","base":1300},{"cover":"BKN","base":1500}],"obsTime":1773885600},"SBBE":{"icaoId":"SBBE","flightCategory":"VFR","rawOb":"METAR SBBE 190200Z 10002KT 9999 SCT020 BKN100 25/25 Q1011","temp":25,"dewp":25,"wdir":100,"wspd":2,"visib":"6+","altim":1011,"clouds":[{"cover":"SCT","base":2000},{"cover":"BKN","base":10000}],"obsTime":1773885600},"SBSV":{"icaoId":"SBSV","flightCategory":"VFR","rawOb":"METAR SBSV 190200Z 08007KT 9999 FEW023 27/22 Q1011","temp":27,"dewp":22,"wdir":80,"wspd":7,"visib":"6+","altim":1011,"clouds":[{"cover":"FEW","base":2300}],"obsTime":1773885600},"SBTE":{"icaoId":"SBTE","flightCategory":"VFR","rawOb":"METAR SBTE 190200Z 34005KT 9999 -RA FEW020 FEW025TCU BKN070 23/22 Q1011 RETS","temp":23,"dewp":22,"wdir":340,"wspd":5,"visib":"6+","altim":1011,"clouds":[{"cover":"FEW","base":2000},{"cover":"FEW","base":2500},{"cover":"BKN","base":7000}],"obsTime":1773885600},"SBMA":{"icaoId":"SBMA","flightCategory":"VFR","rawOb":"METAR SBMA 190200Z 09001KT 9999 VCTS FEW020CB SCT080 26/25 Q1011","temp":26,"dewp":25,"wdir":90,"wspd":1,"visib":"6+","altim":1011,"clouds":[{"cover":"FEW","base":2000},{"cover":"SCT","base":8000}],"obsTime":1773885600},"SBFL":{"icaoId":"SBFL","flightCategory":"MVFR","rawOb":"METAR SBFL 190200Z 01008KT 9999 OVC030 26/23 Q1010","temp":26,"dewp":23,"wdir":10,"wspd":8,"visib":"6+","altim":1010,"clouds":[{"cover":"OVC","base":3000}],"obsTime":1773885600},"SBUL":{"icaoId":"SBUL","flightCategory":"VFR","rawOb":"METAR SBUL 190200Z 04004KT CAVOK 22/20 Q1016","temp":22,"dewp":20,"wdir":40,"wspd":4,"visib":"6+","altim":1016,"clouds":[],"obsTime":1773885600},"SBME":{"icaoId":"SBME","flightCategory":"VFR","rawOb":"METAR SBME 190200Z 13005KT 9999 SCT030 BKN100 27/23 Q1010","temp":27,"dewp":23,"wdir":130,"wspd":5,"visib":"6+","altim":1010,"clouds":[{"cover":"SCT","base":3000},{"cover":"BKN","base":10000}],"obsTime":1773885600},"SBUR":{"icaoId":"SBUR","flightCategory":"VFR","rawOb":"METAR SBUR 190200Z 02005KT CAVOK 22/20 Q1014","temp":22,"dewp":20,"wdir":20,"wspd":5,"visib":"6+","altim":1014,"clouds":[],"obsTime":1773885600},"SBVT":{"icaoId":"SBVT","flightCategory":"VFR","rawOb":"METAR SBVT 190200Z 01007KT 340V040 9999 FEW030 BKN050 26/23 Q1010","temp":26,"dewp":23,"wdir":10,"wspd":7,"visib":"6+","altim":1010,"clouds":[{"cover":"FEW","base":3000},{"cover":"BKN","base":5000}],"obsTime":1773885600},"SBCG":{"icaoId":"SBCG","flightCategory":"VFR","rawOb":"METAR SBCG 190200Z 09004KT CAVOK 22/19 Q1013","temp":22,"dewp":19,"wdir":90,"wspd":4,"visib":"6+","altim":1013,"clouds":[],"obsTime":1773885600},"SBAR":{"icaoId":"SBAR","flightCategory":"VFR","rawOb":"METAR SBAR 190200Z 09008KT 9999 FEW015 28/23 Q1010","temp":28,"dewp":23,"wdir":90,"wspd":8,"visib":"6+","altim":1010,"clouds":[{"cover":"FEW","base":1500}],"obsTime":1773885600},"SBAX":{"icaoId":"SBAX","flightCategory":"VFR","rawOb":"METAR SBAX 190200Z AUTO 19004KT CAVOK ///// Q1016","temp":null,"dewp":null,"wdir":190,"wspd":4,"visib":"6+","altim":1016,"clouds":[],"obsTime":1773885600},"SBCO":{"icaoId":"SBCO","flightCategory":"MVFR","rawOb":"METAR SBCO 190200Z VRB04KT 9999 BKN012 24/23 Q1010","temp":24,"dewp":23,"wdir":"VRB","wspd":4,"visib":"6+","altim":1010,"clouds":[{"cover":"BKN","base":1200}],"obsTime":1773885600},"SBDN":{"icaoId":"SBDN","flightCategory":"VFR","rawOb":"METAR SBDN 190200Z 00000KT CAVOK 24/22 Q1011","temp":24,"dewp":22,"wdir":0,"wspd":0,"visib":"6+","altim":1011,"clouds":[],"obsTime":1773885600},"SBIP":{"icaoId":"SBIP","flightCategory":"VFR","rawOb":"METAR SBIP 190200Z AUTO 18002KT CAVOK 23/23 Q1011","temp":23,"dewp":23,"wdir":180,"wspd":2,"visib":"6+","altim":1011,"clouds":[],"obsTime":1773885600},"SBKG":{"icaoId":"SBKG","flightCategory":"VFR","rawOb":"METAR SBKG 190200Z 09008KT 9999 SCT010 23/21 Q1013","temp":23,"dewp":21,"wdir":90,"wspd":8,"visib":"6+","altim":1013,"clouds":[{"cover":"SCT","base":1000}],"obsTime":1773885600},"SBOI":{"icaoId":"SBOI","flightCategory":"VFR","rawOb":"METAR SBOI 190200Z AUTO 02005KT 350V050 9999 // BKN033/// OVC038/// 24/23 Q1012","temp":24,"dewp":23,"wdir":20,"wspd":5,"visib":"6+","altim":1012,"clouds":[{"cover":"BKN","base":3300},{"cover":"OVC","base":3800}],"obsTime":1773885600},"SBPL":{"icaoId":"SBPL","flightCategory":"VFR","rawOb":"METAR SBPL 190200Z 14004KT CAVOK 27/20 Q1011","temp":27,"dewp":20,"wdir":140,"wspd":4,"visib":"6+","altim":1011,"clouds":[],"obsTime":1773885600},"SBPS":{"icaoId":"SBPS","flightCategory":"VFR","rawOb":"METAR SBPS 190200Z 01003KT 9999 SCT020 26/24 Q1011","temp":26,"dewp":24,"wdir":10,"wspd":3,"visib":"6+","altim":1011,"clouds":[{"cover":"SCT","base":2000}],"obsTime":1773885600},"SBSC":{"icaoId":"SBSC","flightCategory":"VFR","rawOb":"METAR SBSC 190200Z 12004KT 9999 FEW040 25/22 Q1010","temp":25,"dewp":22,"wdir":120,"wspd":4,"visib":"6+","altim":1010,"clouds":[{"cover":"FEW","base":4000}],"obsTime":1773885600},"SBSM":{"icaoId":"SBSM","flightCategory":"VFR","rawOb":"METAR SBSM 190200Z VRB01KT 9999 FEW020 SCT045 23/21 Q1012","temp":23,"dewp":21,"wdir":"VRB","wspd":1,"visib":"6+","altim":1012,"clouds":[{"cover":"FEW","base":2000},{"cover":"SCT","base":4500}],"obsTime":1773885600},"SBSR":{"icaoId":"SBSR","flightCategory":"VFR","rawOb":"METAR SBSR 190200Z 03002KT 9999 SCT025 BKN070 24/23 Q1012","temp":24,"dewp":23,"wdir":30,"wspd":2,"visib":"6+","altim":1012,"clouds":[{"cover":"SCT","base":2500},{"cover":"BKN","base":7000}],"obsTime":1773885600},"SBSJ":{"icaoId":"SBSJ","flightCategory":"VFR","rawOb":"METAR SBSJ 190200Z 21005KT 9999 FEW035 22/// Q1014","temp":null,"dewp":null,"wdir":210,"wspd":5,"visib":"6+","altim":1014,"clouds":[{"cover":"FEW","base":3500}],"obsTime":1773885600},"SBBH":{"icaoId":"SBBH","flightCategory":"VFR","rawOb":"METAR SBBH 190200Z 11005KT CAVOK 23/21 Q1014","temp":23,"dewp":21,"wdir":110,"wspd":5,"visib":"6+","altim":1014,"clouds":[],"obsTime":1773885600},"SBBU":{"icaoId":"SBBU","flightCategory":"VFR","rawOb":"METAR SBBU 190200Z 11004KT 9999 FEW025 BKN100 24/22 Q1012","temp":24,"dewp":22,"wdir":110,"wspd":4,"visib":"6+","altim":1012,"clouds":[{"cover":"FEW","base":2500},{"cover":"BKN","base":10000}],"obsTime":1773885600},"SBUY":{"icaoId":"SBUY","flightCategory":"IFR","rawOb":"METAR SBUY 190200Z 34004KT 3000 RA BKN015 FEW025TCU BKN090 22/22 Q1012","temp":22,"dewp":22,"wdir":340,"wspd":4,"visib":1.86,"altim":1012,"clouds":[{"cover":"BKN","base":1500},{"cover":"FEW","base":2500},{"cover":"BKN","base":9000}],"obsTime":1773885600},"SBLE":{"icaoId":"SBLE","flightCategory":"VFR","rawOb":"METAR SBLE 190200Z AUTO 28005KT CAVOK 21/20 Q1014","temp":21,"dewp":20,"wdir":280,"wspd":5,"visib":"6+","altim":1014,"clouds":[],"obsTime":1773885600},"SBAN":{"icaoId":"SBAN","flightCategory":"VFR","rawOb":"METAR SBAN 190200Z 32002KT 9999 FEW030 SCT100 20/19 Q1018","temp":20,"dewp":19,"wdir":320,"wspd":2,"visib":"6+","altim":1018,"clouds":[{"cover":"FEW","base":3000},{"cover":"SCT","base":10000}],"obsTime":1773885600},"SBPF":{"icaoId":"SBPF","flightCategory":"VFR","rawOb":"METAR SBPF 190300Z AUTO 15003KT 110V180 9999 NSC 21/19 Q1013","temp":21,"dewp":19,"wdir":150,"wspd":3,"visib":"6+","altim":1013,"clouds":[],"obsTime":1773889200},"SBJP":{"icaoId":"SBJP","flightCategory":"VFR","rawOb":"METAR SBJP 190200Z 10006KT 9999 SCT020 27/23 Q1010","temp":27,"dewp":23,"wdir":100,"wspd":6,"visib":"6+","altim":1010,"clouds":[{"cover":"SCT","base":2000}],"obsTime":1773885600},"SBTA":{"icaoId":"SBTA","flightCategory":"VFR","rawOb":"METAR SBTA 190200Z 23003KT 210V270 9999 FEW045 SCT100 21/19 Q1013","temp":21,"dewp":19,"wdir":230,"wspd":3,"visib":"6+","altim":1013,"clouds":[{"cover":"FEW","base":4500},{"cover":"SCT","base":10000}],"obsTime":1773885600},"SBJV":{"icaoId":"SBJV","flightCategory":"VFR","rawOb":"METAR SBJV 190200Z 36002KT 9999 SCT025 26/24 Q1010","temp":26,"dewp":24,"wdir":360,"wspd":2,"visib":"6+","altim":1010,"clouds":[{"cover":"SCT","base":2500}],"obsTime":1773885600},"SBMT":{"icaoId":"SBMT","flightCategory":"MVFR","rawOb":"METAR SBMT 190200Z 09004KT 9999 FEW013 BKN017 22/19 Q1014","temp":22,"dewp":19,"wdir":90,"wspd":4,"visib":"6+","altim":1014,"clouds":[{"cover":"FEW","base":1300},{"cover":"BKN","base":1700}],"obsTime":1773885600}}}