{"updated":1784903436,"count":88,"data":{"SBSG":{"icaoId":"SBSG","flightCategory":"MVFR","rawOb":"METAR SBSG 241300Z 15004KT 100V180 5000 BR BKN010 BKN030 24/23 Q1016","temp":24,"dewp":23,"wdir":150,"wspd":4,"visib":3.11,"altim":1016,"clouds":[{"cover":"BKN","base":1000},{"cover":"BKN","base":3000}],"obsTime":1784898000},"SBMK":{"icaoId":"SBMK","flightCategory":"VFR","rawOb":"METAR SBMK 241300Z 02004KT CAVOK 25/14 Q1020","temp":25,"dewp":14,"wdir":20,"wspd":4,"visib":"6+","altim":1020,"clouds":[],"obsTime":1784898000},"SBUL":{"icaoId":"SBUL","flightCategory":"VFR","rawOb":"METAR SBUL 241300Z 08006KT CAVOK 24/12 Q1021","temp":24,"dewp":12,"wdir":80,"wspd":6,"visib":"6+","altim":1021,"clouds":[],"obsTime":1784898000},"SBMO":{"icaoId":"SBMO","flightCategory":"VFR","rawOb":"METAR SBMO 241300Z 13009KT 9999 SCT017 27/21 Q1017","temp":27,"dewp":21,"wdir":130,"wspd":9,"visib":"6+","altim":1017,"clouds":[{"cover":"SCT","base":1700}],"obsTime":1784898000},"SBUR":{"icaoId":"SBUR","flightCategory":"MVFR","rawOb":"METAR SBUR 241300Z 12010KT 7000 NSC 21/15 Q1021","temp":21,"dewp":15,"wdir":120,"wspd":10,"visib":4.35,"altim":1021,"clouds":[],"obsTime":1784898000},"SBFZ":{"icaoId":"SBFZ","flightCategory":"MVFR","rawOb":"METAR SBFZ 241300Z 16009KT 9999 FEW016 BKN020 27/23 Q1015","temp":27,"dewp":23,"wdir":160,"wspd":9,"visib":"6+","altim":1015,"clouds":[{"cover":"FEW","base":1600},{"cover":"BKN","base":2000}],"obsTime":1784898000},"SBBR":{"icaoId":"SBBR","flightCategory":"VFR","rawOb":"METAR SBBR 241300Z 08004KT 020V130 9999 FEW045 25/11 Q1022","temp":25,"dewp":11,"wdir":80,"wspd":4,"visib":"6+","altim":1022,"clouds":[{"cover":"FEW","base":4500}],"obsTime":1784898000},"SBBE":{"icaoId":"SBBE","flightCategory":"VFR","rawOb":"METAR SBBE 241300Z 06012KT 9999 SCT020 30/25 Q1014","temp":30,"dewp":25,"wdir":60,"wspd":12,"visib":"6+","altim":1014,"clouds":[{"cover":"SCT","base":2000}],"obsTime":1784898000},"SBMG":{"icaoId":"SBMG","flightCategory":"VFR","rawOb":"METAR SBMG 241300Z 10005KT 050V130 9999 -RA VCTS FEW009 OVC043 //////CB 17/16 Q1019 RETS","temp":17,"dewp":16,"wdir":100,"wspd":5,"visib":"6+","altim":1019,"clouds":[{"cover":"FEW","base":900},{"cover":"OVC","base":4300}],"obsTime":1784898000},"SBTE":{"icaoId":"SBTE","flightCategory":"VFR","rawOb":"METAR SBTE 241300Z 12006KT 060V170 9999 SCT025 30/22 Q1014","temp":30,"dewp":22,"wdir":120,"wspd":6,"visib":"6+","altim":1014,"clouds":[{"cover":"SCT","base":2500}],"obsTime":1784898000},"SBRB":{"icaoId":"SBRB","flightCategory":"LIFR","rawOb":"METAR SBRB 241300Z 14004KT 5000 BR BKN004 BKN009 24/24 Q1015","temp":24,"dewp":24,"wdir":140,"wspd":4,"visib":3.11,"altim":1015,"clouds":[{"cover":"BKN","base":400},{"cover":"BKN","base":900}],"obsTime":1784898000},"SBFI":{"icaoId":"SBFI","flightCategory":"LIFR","rawOb":"METAR SBFI 241300Z 08004KT 9999 BKN004 BKN030 18/18 Q1017","temp":18,"dewp":18,"wdir":80,"wspd":4,"visib":"6+","altim":1017,"clouds":[{"cover":"BKN","base":400},{"cover":"BKN","base":3000}],"obsTime":1784898000},"SBCF":{"icaoId":"SBCF","flightCategory":"VFR","rawOb":"METAR SBCF 241300Z 12005KT CAVOK 24/14 Q1022","temp":24,"dewp":14,"wdir":120,"wspd":5,"visib":"6+","altim":1022,"clouds":[],"obsTime":1784898000},"SBSL":{"icaoId":"SBSL","flightCategory":"MVFR","rawOb":"METAR SBSL 241300Z 07011KT 040V100 9999 BKN020 FEW025TCU 29/24 Q1014","temp":29,"dewp":24,"wdir":70,"wspd":11,"visib":"6+","altim":1014,"clouds":[{"cover":"BKN","base":2000},{"cover":"FEW","base":2500}],"obsTime":1784898000},"SBEG":{"icaoId":"SBEG","flightCategory":"VFR","rawOb":"METAR SBEG 241300Z 06009KT CAVOK 31/22 Q1013","temp":31,"dewp":22,"wdir":60,"wspd":9,"visib":"6+","altim":1013,"clouds":[],"obsTime":1784898000},"SBPV":{"icaoId":"SBPV","flightCategory":"VFR","rawOb":"METAR SBPV 241300Z 14001KT CAVOK 29/22 Q1013","temp":29,"dewp":22,"wdir":140,"wspd":1,"visib":"6+","altim":1013,"clouds":[],"obsTime":1784898000},"SBCB":{"icaoId":"SBCB","flightCategory":"VFR","rawOb":"METAR SBCB 241300Z 29010KT 9999 FEW015 BKN070 23/18 Q1020","temp":23,"dewp":18,"wdir":290,"wspd":10,"visib":"6+","altim":1020,"clouds":[{"cover":"FEW","base":1500},{"cover":"BKN","base":7000}],"obsTime":1784898000},"SBMQ":{"icaoId":"SBMQ","flightCategory":"MVFR","rawOb":"METAR SBMQ 241300Z 05010KT 020V080 9999 BKN016 30/26 Q1014","temp":30,"dewp":26,"wdir":50,"wspd":10,"visib":"6+","altim":1014,"clouds":[{"cover":"BKN","base":1600}],"obsTime":1784898000},"SBCZ":{"icaoId":"SBCZ","flightCategory":"VFR","rawOb":"METAR SBCZ 241300Z 00000KT CAVOK 25/24 Q1014","temp":25,"dewp":24,"wdir":0,"wspd":0,"visib":"6+","altim":1014,"clouds":[],"obsTime":1784898000},"SBKP":{"icaoId":"SBKP","flightCategory":"VFR","rawOb":"METAR SBKP 241300Z 11008KT 9000 NSC 17/15 Q1020","temp":17,"dewp":15,"wdir":110,"wspd":8,"visib":5.59,"altim":1020,"clouds":[],"obsTime":1784898000},"SBNT":{"icaoId":"SBNT","flightCategory":"MVFR","rawOb":"METAR SBNT 241300Z 18007KT 7000 -RA SCT009 BKN033 OVC046 25/23 Q1016","temp":25,"dewp":23,"wdir":180,"wspd":7,"visib":4.35,"altim":1016,"clouds":[{"cover":"SCT","base":900},{"cover":"BKN","base":3300},{"cover":"OVC","base":4600}],"obsTime":1784898000},"SBPJ":{"icaoId":"SBPJ","flightCategory":"VFR","rawOb":"METAR SBPJ 241300Z 28004KT CAVOK 31/21 Q1015","temp":31,"dewp":21,"wdir":280,"wspd":4,"visib":"6+","altim":1015,"clouds":[],"obsTime":1784898000},"SBHT":{"icaoId":"SBHT","flightCategory":"MVFR","rawOb":"METAR SBHT 241300Z 11010KT 9999 BKN015 28/26 Q1015","temp":28,"dewp":26,"wdir":110,"wspd":10,"visib":"6+","altim":1015,"clouds":[{"cover":"BKN","base":1500}],"obsTime":1784898000},"SBME":{"icaoId":"SBME","flightCategory":"VFR","rawOb":"METAR SBME 241300Z 21008KT 190V250 CAVOK 24/18 Q1020","temp":24,"dewp":18,"wdir":210,"wspd":8,"visib":"6+","altim":1020,"clouds":[],"obsTime":1784898000},"SBPA":{"icaoId":"SBPA","flightCategory":"IFR","rawOb":"METAR SBPA 241300Z 08008KT 9999 BKN007 16/16 Q1020","temp":16,"dewp":16,"wdir":80,"wspd":8,"visib":"6+","altim":1020,"clouds":[{"cover":"BKN","base":700}],"obsTime":1784898000},"SBBV":{"icaoId":"SBBV","flightCategory":"VFR","rawOb":"METAR SBBV 241300Z 07011KT CAVOK 30/23 Q1014","temp":30,"dewp":23,"wdir":70,"wspd":11,"visib":"6+","altim":1014,"clouds":[],"obsTime":1784898000},"SBCG":{"icaoId":"SBCG","flightCategory":"VFR","rawOb":"METAR SBCG 241300Z 06013KT CAVOK 23/18 Q1018","temp":23,"dewp":18,"wdir":60,"wspd":13,"visib":"6+","altim":1018,"clouds":[],"obsTime":1784898000},"SBMA":{"icaoId":"SBMA","flightCategory":"VFR","rawOb":"METAR SBMA 241300Z 35006KT 9999 FEW012 SCT020 29/24 Q1015","temp":29,"dewp":24,"wdir":350,"wspd":6,"visib":"6+","altim":1015,"clouds":[{"cover":"FEW","base":1200},{"cover":"SCT","base":2000}],"obsTime":1784898000},"SBSN":{"icaoId":"SBSN","flightCategory":"MVFR","rawOb":"METAR SBSN 241300Z 07015KT 9999 BKN017 30/24 Q1014","temp":30,"dewp":24,"wdir":70,"wspd":15,"visib":"6+","altim":1014,"clouds":[{"cover":"BKN","base":1700}],"obsTime":1784898000},"SBRF":{"icaoId":"SBRF","flightCategory":"VFR","rawOb":"METAR SBRF 241300Z 16015KT 9999 SCT023 SCT100 28/22 Q1016","temp":28,"dewp":22,"wdir":160,"wspd":15,"visib":"6+","altim":1016,"clouds":[{"cover":"SCT","base":2300},{"cover":"SCT","base":10000}],"obsTime":1784898000},"SBSV":{"icaoId":"SBSV","flightCategory":"VFR","rawOb":"METAR SBSV 241300Z 07006KT 050V110 9999 SCT023 BKN100 26/21 Q1018","temp":26,"dewp":21,"wdir":70,"wspd":6,"visib":"6+","altim":1018,"clouds":[{"cover":"SCT","base":2300},{"cover":"BKN","base":10000}],"obsTime":1784898000},"SBVT":{"icaoId":"SBVT","flightCategory":"MVFR","rawOb":"METAR SBVT 241300Z 17004KT 8000 SCT012 BKN015 OVC025 23/20 Q1019","temp":23,"dewp":20,"wdir":170,"wspd":4,"visib":4.97,"altim":1019,"clouds":[{"cover":"SCT","base":1200},{"cover":"BKN","base":1500},{"cover":"OVC","base":2500}],"obsTime":1784898000},"SBGR":{"icaoId":"SBGR","flightCategory":"MVFR","rawOb":"METAR SBGR 241300Z 11006KT 9999 OVC013 16/13 Q1022","temp":16,"dewp":13,"wdir":110,"wspd":6,"visib":"6+","altim":1022,"clouds":[{"cover":"OVC","base":1300}],"obsTime":1784898000},"SBCT":{"icaoId":"SBCT","flightCategory":"IFR","rawOb":"METAR SBCT 241300Z 11008KT 9999 BKN007 OVC011 13/11 Q1022","temp":13,"dewp":11,"wdir":110,"wspd":8,"visib":"6+","altim":1022,"clouds":[{"cover":"BKN","base":700},{"cover":"OVC","base":1100}],"obsTime":1784898000},"SBFL":{"icaoId":"SBFL","flightCategory":"VFR","rawOb":"METAR SBFL 241300Z 33003KT 9999 FEW025 SCT100 18/15 Q1022","temp":18,"dewp":15,"wdir":330,"wspd":3,"visib":"6+","altim":1022,"clouds":[{"cover":"FEW","base":2500},{"cover":"SCT","base":10000}],"obsTime":1784898000},"SBIL":{"icaoId":"SBIL","flightCategory":"VFR","rawOb":"METAR SBIL 241300Z 03005KT 350V080 9999 VCSH SCT020 FEW023TCU SCT070 27/23 Q1018","temp":27,"dewp":23,"wdir":30,"wspd":5,"visib":"6+","altim":1018,"clouds":[{"cover":"SCT","base":2000},{"cover":"FEW","base":2300},{"cover":"SCT","base":7000}],"obsTime":1784898000},"SBGL":{"icaoId":"SBGL","flightCategory":"VFR","rawOb":"METAR SBGL 241300Z 29006KT 9999 SCT020 BKN040 23/17 Q1020","temp":23,"dewp":17,"wdir":290,"wspd":6,"visib":"6+","altim":1020,"clouds":[{"cover":"SCT","base":2000},{"cover":"BKN","base":4000}],"obsTime":1784898000},"SBJU":{"icaoId":"SBJU","flightCategory":"VFR","rawOb":"METAR SBJU 241300Z 09003KT 9999 SCT020 BKN070 28/18 Q1018","temp":28,"dewp":18,"wdir":90,"wspd":3,"visib":"6+","altim":1018,"clouds":[{"cover":"SCT","base":2000},{"cover":"BKN","base":7000}],"obsTime":1784898000},"SBLO":{"icaoId":"SBLO","flightCategory":"LIFR","rawOb":"METAR SBLO 241300Z 12005KT 8000 -TSRA BKN003 BKN013 FEW030CB 14/14 Q1020","temp":14,"dewp":14,"wdir":120,"wspd":5,"visib":4.97,"altim":1020,"clouds":[{"cover":"BKN","base":300},{"cover":"BKN","base":1300},{"cover":"FEW","base":3000}],"obsTime":1784898000},"SBSP":{"icaoId":"SBSP","flightCategory":"IFR","rawOb":"METAR SBSP 241300Z 15007KT 9999 BKN009 15/14 Q1023","temp":15,"dewp":14,"wdir":150,"wspd":7,"visib":"6+","altim":1023,"clouds":[{"cover":"BKN","base":900}],"obsTime":1784898000},"SBGO":{"icaoId":"SBGO","flightCategory":"VFR","rawOb":"METAR SBGO 241300Z VRB03KT CAVOK 28/15 Q1019","temp":28,"dewp":15,"wdir":"VRB","wspd":3,"visib":"6+","altim":1019,"clouds":[],"obsTime":1784898000},"SBCP":{"icaoId":"SBCP","flightCategory":"VFR","rawOb":"METAR SBCP 241300Z 22009KT 9999 BKN035 BKN100 24/18 Q1020","temp":24,"dewp":18,"wdir":220,"wspd":9,"visib":"6+","altim":1020,"clouds":[{"cover":"BKN","base":3500},{"cover":"BKN","base":10000}],"obsTime":1784898000},"SBAT":{"icaoId":"SBAT","flightCategory":"VFR","rawOb":"METAR SBAT 241300Z 04002KT CAVOK 30/19 Q1015","temp":30,"dewp":19,"wdir":40,"wspd":2,"visib":"6+","altim":1015,"clouds":[],"obsTime":1784898000},"SBCR":{"icaoId":"SBCR","flightCategory":"VFR","rawOb":"METAR SBCR 241300Z VRB02KT 9999 SCT005 SCT070 19/17 Q1016","temp":19,"dewp":17,"wdir":"VRB","wspd":2,"visib":"6+","altim":1016,"clouds":[{"cover":"SCT","base":500},{"cover":"SCT","base":7000}],"obsTime":1784898000},"SBAX":{"icaoId":"SBAX","flightCategory":"VFR","rawOb":"METAR SBAX 241300Z 05002KT CAVOK 25/12 Q1021","temp":25,"dewp":12,"wdir":50,"wspd":2,"visib":"6+","altim":1021,"clouds":[],"obsTime":1784898000},"SBSJ":{"icaoId":"SBSJ","flightCategory":"MVFR","rawOb":"METAR SBSJ 241300Z 14004KT 080V170 7000 BKN011 BKN021 17/15 Q1022","temp":17,"dewp":15,"wdir":140,"wspd":4,"visib":4.35,"altim":1022,"clouds":[{"cover":"BKN","base":1100},{"cover":"BKN","base":2100}],"obsTime":1784898000},"SBPS":{"icaoId":"SBPS","flightCategory":"VFR","rawOb":"METAR SBPS 241300Z 33006KT 9999 SCT020 BKN080 24/21 Q1019","temp":24,"dewp":21,"wdir":330,"wspd":6,"visib":"6+","altim":1019,"clouds":[{"cover":"SCT","base":2000},{"cover":"BKN","base":8000}],"obsTime":1784898000},"SBOI":{"icaoId":"SBOI","flightCategory":"VFR","rawOb":"METAR SBOI 241300Z AUTO VRB05KT 9999 SCT026 30/24 Q1015","temp":30,"dewp":24,"wdir":"VRB","wspd":5,"visib":"6+","altim":1015,"clouds":[{"cover":"SCT","base":2600}],"obsTime":1784898000},"SBUY":{"icaoId":"SBUY","flightCategory":"VFR","rawOb":"METAR SBUY 241300Z 31001KT 9999 FEW019 BKN080 26/25 Q1012 RERA","temp":26,"dewp":25,"wdir":310,"wspd":1,"visib":"6+","altim":1012,"clouds":[{"cover":"FEW","base":1900},{"cover":"BKN","base":8000}],"obsTime":1784898000},"SBCA":{"icaoId":"SBCA","flightCategory":"IFR","rawOb":"METAR SBCA 241300Z 07007KT 9999 BKN005 BKN070 16/15 Q1020","temp":16,"dewp":15,"wdir":70,"wspd":7,"visib":"6+","altim":1020,"clouds":[{"cover":"BKN","base":500},{"cover":"BKN","base":7000}],"obsTime":1784898000},"SBCO":{"icaoId":"SBCO","flightCategory":"IFR","rawOb":"METAR SBCO 241300Z 11008KT 9999 BKN007 16/15 Q1020","temp":16,"dewp":15,"wdir":110,"wspd":8,"visib":"6+","altim":1020,"clouds":[{"cover":"BKN","base":700}],"obsTime":1784898000},"SBSM":{"icaoId":"SBSM","flightCategory":"VFR","rawOb":"METAR SBSM 241300Z 11007KT 9999 FEW011 15/13 Q1019","temp":15,"dewp":13,"wdir":110,"wspd":7,"visib":"6+","altim":1019,"clouds":[{"cover":"FEW","base":1100}],"obsTime":1784898000},"SBKG":{"icaoId":"SBKG","flightCategory":"VFR","rawOb":"METAR SBKG 241300Z 14009KT 110V170 9999 SCT022 BKN080 25/19 Q1018","temp":25,"dewp":19,"wdir":140,"wspd":9,"visib":"6+","altim":1018,"clouds":[{"cover":"SCT","base":2200},{"cover":"BKN","base":8000}],"obsTime":1784898000},"SBCC":{"icaoId":"SBCC","flightCategory":"VFR","rawOb":"METAR SBCC 241300Z 19003KT CAVOK 31/16 Q1016","temp":31,"dewp":16,"wdir":190,"wspd":3,"visib":"6+","altim":1016,"clouds":[],"obsTime":1784898000},"SBGM":{"icaoId":"SBGM","flightCategory":"LIFR","rawOb":"METAR SBGM 241300Z 12006KT 5000 BR OVC003 23/22 Q1015","temp":23,"dewp":22,"wdir":120,"wspd":6,"visib":3.11,"altim":1015,"clouds":[{"cover":"OVC","base":300}],"obsTime":1784898000},"SBVH":{"icaoId":"SBVH","flightCategory":"VFR","rawOb":"METAR SBVH 241300Z 30004KT 250V350 CAVOK 27/19 Q1017","temp":27,"dewp":19,"wdir":300,"wspd":4,"visib":"6+","altim":1017,"clouds":[],"obsTime":1784898000},"SBAU":{"icaoId":"SBAU","flightCategory":"VFR","rawOb":"METAR SBAU 241300Z 09012KT 9999 FEW040 SCT080 22/16 Q1018","temp":22,"dewp":16,"wdir":90,"wspd":12,"visib":"6+","altim":1018,"clouds":[{"cover":"FEW","base":4000},{"cover":"SCT","base":8000}],"obsTime":1784898000},"SBDN":{"icaoId":"SBDN","flightCategory":"VFR","rawOb":"METAR SBDN 241300Z 10008KT 9999 VCSH VCTS FEW011 BKN050 FEW060CB 17/15 Q1019","temp":17,"dewp":15,"wdir":100,"wspd":8,"visib":"6+","altim":1019,"clouds":[{"cover":"FEW","base":1100},{"cover":"BKN","base":5000},{"cover":"FEW","base":6000}],"obsTime":1784898000},"SBBH":{"icaoId":"SBBH","flightCategory":"VFR","rawOb":"METAR SBBH 241300Z 11008KT 9999 FEW035 24/15 Q1021","temp":24,"dewp":15,"wdir":110,"wspd":8,"visib":"6+","altim":1021,"clouds":[{"cover":"FEW","base":3500}],"obsTime":1784898000},"SBBQ":{"icaoId":"SBBQ","flightCategory":"IFR","rawOb":"METAR SBBQ 241300Z 09005KT 040V130 5000 BR OVC009 17/15 Q1025","temp":17,"dewp":15,"wdir":90,"wspd":5,"visib":3.11,"altim":1025,"clouds":[{"cover":"OVC","base":900}],"obsTime":1784898000},"SBBU":{"icaoId":"SBBU","flightCategory":"LIFR","rawOb":"METAR SBBU 241300Z 09011KT 4000 TSRA BR BKN002 SCT030 FEW045CB BKN100 16/16 Q1020","temp":16,"dewp":16,"wdir":90,"wspd":11,"visib":2.49,"altim":1020,"clouds":[{"cover":"BKN","base":200},{"cover":"SCT","base":3000},{"cover":"FEW","base":4500},{"cover":"BKN","base":10000}],"obsTime":1784898000},"SBIP":{"icaoId":"SBIP","flightCategory":"VFR","rawOb":"METAR SBIP 241300Z AUTO VRB04KT CAVOK 26/17 Q1020","temp":26,"dewp":17,"wdir":"VRB","wspd":4,"visib":"6+","altim":1020,"clouds":[],"obsTime":1784898000},"SBSC":{"icaoId":"SBSC","flightCategory":"MVFR","rawOb":"METAR SBSC 241300Z 20008KT 9999 BKN014 BKN044 21/18 Q1021","temp":21,"dewp":18,"wdir":200,"wspd":8,"visib":"6+","altim":1021,"clouds":[{"cover":"BKN","base":1400},{"cover":"BKN","base":4400}],"obsTime":1784898000},"SBSR":{"icaoId":"SBSR","flightCategory":"VFR","rawOb":"METAR SBSR 241300Z 09011KT 9999 SCT035 BKN080 21/16 Q1019","temp":21,"dewp":16,"wdir":90,"wspd":11,"visib":"6+","altim":1019,"clouds":[{"cover":"SCT","base":3500},{"cover":"BKN","base":8000}],"obsTime":1784898000},"SBES":{"icaoId":"SBES","flightCategory":"VFR","rawOb":"METAR SBES 241300Z 23008KT 200V270 9999 SCT020 SCT080 23/// Q1020","temp":null,"dewp":null,"wdir":230,"wspd":8,"visib":"6+","altim":1020,"clouds":[{"cover":"SCT","base":2000},{"cover":"SCT","base":8000}],"obsTime":1784898000},"SBTU":{"icaoId":"SBTU","flightCategory":"IFR","rawOb":"METAR SBTU 241300Z AUTO 21008KT 190V250 9999 // OVC005/// ///// Q1016","temp":null,"dewp":null,"wdir":210,"wspd":8,"visib":"6+","altim":1016,"clouds":[{"cover":"OVC","base":500}],"obsTime":1784898000},"SBAR":{"icaoId":"SBAR","flightCategory":"VFR","rawOb":"METAR SBAR 241300Z 10009KT 050V140 9999 FEW023 27/20 Q1017","temp":27,"dewp":20,"wdir":100,"wspd":9,"visib":"6+","altim":1017,"clouds":[{"cover":"FEW","base":2300}],"obsTime":1784898000},"SBPL":{"icaoId":"SBPL","flightCategory":"VFR","rawOb":"METAR SBPL 241300Z 09012KT 9999 FEW020 SCT070 26/19 Q1019","temp":26,"dewp":19,"wdir":90,"wspd":12,"visib":"6+","altim":1019,"clouds":[{"cover":"FEW","base":2000},{"cover":"SCT","base":7000}],"obsTime":1784898000},"SBPB":{"icaoId":"SBPB","flightCategory":"VFR","rawOb":"METAR SBPB 241300Z 06017KT 9999 SCT020 29/24 Q1014","temp":29,"dewp":24,"wdir":60,"wspd":17,"visib":"6+","altim":1014,"clouds":[{"cover":"SCT","base":2000}],"obsTime":1784898000},"SBTT":{"icaoId":"SBTT","flightCategory":"VFR","rawOb":"METAR SBTT 241300Z 29004KT 9999 FEW006 SCT020 27/24 Q1014","temp":27,"dewp":24,"wdir":290,"wspd":4,"visib":"6+","altim":1014,"clouds":[{"cover":"FEW","base":600},{"cover":"SCT","base":2000}],"obsTime":1784898000},"SBPP":{"icaoId":"SBPP","flightCategory":"VFR","rawOb":"METAR SBPP 241300Z 05013KT 9999 SCT008 19/17 Q1018","temp":19,"dewp":17,"wdir":50,"wspd":13,"visib":"6+","altim":1018,"clouds":[{"cover":"SCT","base":800}],"obsTime":1784898000},"SBCJ":{"icaoId":"SBCJ","flightCategory":"VFR","rawOb":"METAR SBCJ 241300Z 00000KT 9999 SCT011 BKN100 25/21 Q1018","temp":25,"dewp":21,"wdir":0,"wspd":0,"visib":"6+","altim":1018,"clouds":[{"cover":"SCT","base":1100},{"cover":"BKN","base":10000}],"obsTime":1784898000},"SBTF":{"icaoId":"SBTF","flightCategory":"VFR","rawOb":"METAR SBTF 241300Z 07002KT CAVOK 30/26 Q1013","temp":30,"dewp":26,"wdir":70,"wspd":2,"visib":"6+","altim":1013,"clouds":[],"obsTime":1784898000},"SBTD":{"icaoId":"SBTD","flightCategory":"MVFR","rawOb":"METAR SBTD 241300Z /////KT 9999 4000NE -RA SCT004 BKN020 BKN070 16/16 Q1019","temp":16,"dewp":16,"wdir":null,"wspd":null,"visib":"6+","altim":1019,"clouds":[{"cover":"SCT","base":400},{"cover":"BKN","base":2000},{"cover":"BKN","base":7000}],"obsTime":1784898000},"SBJV":{"icaoId":"SBJV","flightCategory":"MVFR","rawOb":"METAR SBJV 241300Z 35002KT 9999 FEW018 BKN030 OVC060 18/15 Q1022","temp":18,"dewp":15,"wdir":350,"wspd":2,"visib":"6+","altim":1022,"clouds":[{"cover":"FEW","base":1800},{"cover":"BKN","base":3000},{"cover":"OVC","base":6000}],"obsTime":1784898000},"SBNM":{"icaoId":"SBNM","flightCategory":"VFR","rawOb":"METAR SBNM 241300Z AUTO 10005KT CAVOK 13/12 Q1018","temp":13,"dewp":12,"wdir":100,"wspd":5,"visib":"6+","altim":1018,"clouds":[],"obsTime":1784898000},"SBPF":{"icaoId":"SBPF","flightCategory":"VFR","rawOb":"METAR SBPF 241300Z 04011KT 9999 FEW040 SCT070 14/11 Q1020","temp":14,"dewp":11,"wdir":40,"wspd":11,"visib":"6+","altim":1020,"clouds":[{"cover":"FEW","base":4000},{"cover":"SCT","base":7000}],"obsTime":1784898000},"SBAN":{"icaoId":"SBAN","flightCategory":"VFR","rawOb":"METAR SBAN 241300Z 02008KT CAVOK 27/11 Q1023","temp":27,"dewp":11,"wdir":20,"wspd":8,"visib":"6+","altim":1023,"clouds":[],"obsTime":1784898000},"SBLE":{"icaoId":"SBLE","flightCategory":"VFR","rawOb":"METAR SBLE 241300Z AUTO VRB04KT 9999 SCT023 23/18 Q1021","temp":23,"dewp":18,"wdir":"VRB","wspd":4,"visib":"6+","altim":1021,"clouds":[{"cover":"SCT","base":2300}],"obsTime":1784898000},"SBIH":{"icaoId":"SBIH","flightCategory":"VFR","rawOb":"METAR SBIH 241300Z 06005KT 9999 FEW013 30/25 Q1013","temp":30,"dewp":25,"wdir":60,"wspd":5,"visib":"6+","altim":1013,"clouds":[{"cover":"FEW","base":1300}],"obsTime":1784898000},"SBGW":{"icaoId":"SBGW","flightCategory":"IFR","rawOb":"METAR SBGW 241300Z 09005KT 020V150 3000 BR BKN006 OVC020 17/15 Q1021","temp":17,"dewp":15,"wdir":90,"wspd":5,"visib":1.86,"altim":1021,"clouds":[{"cover":"BKN","base":600},{"cover":"OVC","base":2000}],"obsTime":1784898000},"SBJR":{"icaoId":"SBJR","flightCategory":"MVFR","rawOb":"METAR SBJR 241300Z 22006KT 8000 BKN012 SCT035 OVC045 23/19 Q1020","temp":23,"dewp":19,"wdir":220,"wspd":6,"visib":4.97,"altim":1020,"clouds":[{"cover":"BKN","base":1200},{"cover":"SCT","base":3500},{"cover":"OVC","base":4500}],"obsTime":1784898000},"SBLS":{"icaoId":"SBLS","flightCategory":"VFR","rawOb":"METAR SBLS 241300Z 15006KT 060V160 CAVOK 23/14 Q1021","temp":23,"dewp":14,"wdir":150,"wspd":6,"visib":"6+","altim":1021,"clouds":[],"obsTime":1784898000},"SBMT":{"icaoId":"SBMT","flightCategory":"MVFR","rawOb":"METAR SBMT 241300Z 13006KT 8000 OVC013 16/13 Q1022","temp":16,"dewp":13,"wdir":130,"wspd":6,"visib":4.97,"altim":1022,"clouds":[{"cover":"OVC","base":1300}],"obsTime":1784898000},"SBST":{"icaoId":"SBST","flightCategory":"LIFR","rawOb":"METAR SBST 241300Z 01003KT 1000 BR BKN005 BKN007 17/17 Q1021 REDZ","temp":17,"dewp":17,"wdir":10,"wspd":3,"visib":0.62,"altim":1021,"clouds":[{"cover":"BKN","base":500},{"cover":"BKN","base":700}],"obsTime":1784898000},"SBTA":{"icaoId":"SBTA","flightCategory":"MVFR","rawOb":"METAR SBTA 241300Z VRB02KT 9999 BKN015 OVC100 17/15 Q1021","temp":17,"dewp":15,"wdir":"VRB","wspd":2,"visib":"6+","altim":1021,"clouds":[{"cover":"BKN","base":1500},{"cover":"OVC","base":10000}],"obsTime":1784898000},"SBAF":{"icaoId":"SBAF","flightCategory":"MVFR","rawOb":" SBAF 241300Z 24002KT 9999 SCT020 OVC030 22/20 Q1020","temp":22,"dewp":20,"wdir":240,"wspd":2,"visib":"6+","altim":1020,"clouds":[{"cover":"SCT","base":2000},{"cover":"OVC","base":3000}],"obsTime":1784898000},"SBJP":{"icaoId":"SBJP","flightCategory":"MVFR","rawOb":"METAR SBJP 241300Z 14012KT 9999 BKN020 BKN070 28/22 Q1016","temp":28,"dewp":22,"wdir":140,"wspd":12,"visib":"6+","altim":1016,"clouds":[{"cover":"BKN","base":2000},{"cover":"BKN","base":7000}],"obsTime":1784898000}}}