{"updated":1784485554,"count":88,"data":{"SBFI":{"icaoId":"SBFI","flightCategory":"VFR","rawOb":"SPECI SBFI 191626Z 02015G27KT 9999 FEW035 FEW040TCU BKN090 27/14 Q1007","temp":27,"dewp":14,"wdir":20,"wspd":15,"visib":"6+","altim":1007,"clouds":[{"cover":"FEW","base":3500},{"cover":"FEW","base":4000},{"cover":"BKN","base":9000}],"obsTime":1784478360},"SBMQ":{"icaoId":"SBMQ","flightCategory":"MVFR","rawOb":"METAR SBMQ 191700Z 04004KT 9999 BKN023 FEW046TCU BKN082 30/26 Q1010","temp":30,"dewp":26,"wdir":40,"wspd":4,"visib":"6+","altim":1010,"clouds":[{"cover":"BKN","base":2300},{"cover":"FEW","base":4600},{"cover":"BKN","base":8200}],"obsTime":1784480400},"SBGL":{"icaoId":"SBGL","flightCategory":"VFR","rawOb":"METAR SBGL 191700Z 03005KT CAVOK 30/13 Q1015","temp":30,"dewp":13,"wdir":30,"wspd":5,"visib":"6+","altim":1015,"clouds":[],"obsTime":1784480400},"SBGR":{"icaoId":"SBGR","flightCategory":"VFR","rawOb":"METAR SBGR 191700Z 36010KT 320V030 CAVOK 26/09 Q1018","temp":26,"dewp":9,"wdir":360,"wspd":10,"visib":"6+","altim":1018,"clouds":[],"obsTime":1784480400},"SBSP":{"icaoId":"SBSP","flightCategory":"VFR","rawOb":"METAR SBSP 191700Z 35013KT 320V020 CAVOK 24/08 Q1019","temp":24,"dewp":8,"wdir":350,"wspd":13,"visib":"6+","altim":1019,"clouds":[],"obsTime":1784480400},"SBCZ":{"icaoId":"SBCZ","flightCategory":"MVFR","rawOb":"METAR SBCZ 191700Z 30002KT 9999 BKN030 32/23 Q1012","temp":32,"dewp":23,"wdir":300,"wspd":2,"visib":"6+","altim":1012,"clouds":[{"cover":"BKN","base":3000}],"obsTime":1784480400},"SBNT":{"icaoId":"SBNT","flightCategory":"VFR","rawOb":"METAR SBNT 191700Z 14017KT 9999 BKN040 BKN066 28/20 Q1012","temp":28,"dewp":20,"wdir":140,"wspd":17,"visib":"6+","altim":1012,"clouds":[{"cover":"BKN","base":4000},{"cover":"BKN","base":6600}],"obsTime":1784480400},"SBGO":{"icaoId":"SBGO","flightCategory":"VFR","rawOb":"METAR SBGO 191700Z VRB05KT CAVOK 29/11 Q1017","temp":29,"dewp":11,"wdir":"VRB","wspd":5,"visib":"6+","altim":1017,"clouds":[],"obsTime":1784480400},"SBFZ":{"icaoId":"SBFZ","flightCategory":"VFR","rawOb":"METAR SBFZ 191700Z 11016KT CAVOK 32/20 Q1010","temp":32,"dewp":20,"wdir":110,"wspd":16,"visib":"6+","altim":1010,"clouds":[],"obsTime":1784480400},"SBMO":{"icaoId":"SBMO","flightCategory":"VFR","rawOb":"METAR SBMO 191700Z 10010KT 9999 SCT040 28/20 Q1014","temp":28,"dewp":20,"wdir":100,"wspd":10,"visib":"6+","altim":1014,"clouds":[{"cover":"SCT","base":4000}],"obsTime":1784480400},"SBCT":{"icaoId":"SBCT","flightCategory":"VFR","rawOb":"METAR SBCT 191700Z 32014KT CAVOK 24/11 Q1016","temp":24,"dewp":11,"wdir":320,"wspd":14,"visib":"6+","altim":1016,"clouds":[],"obsTime":1784480400},"SBBR":{"icaoId":"SBBR","flightCategory":"VFR","rawOb":"METAR SBBR 191700Z VRB07KT CAVOK 25/09 Q1019","temp":25,"dewp":9,"wdir":"VRB","wspd":7,"visib":"6+","altim":1019,"clouds":[],"obsTime":1784480400},"SBSG":{"icaoId":"SBSG","flightCategory":"VFR","rawOb":"METAR SBSG 191700Z 14008KT 110V180 9999 BKN045 28/21 Q1012","temp":28,"dewp":21,"wdir":140,"wspd":8,"visib":"6+","altim":1012,"clouds":[{"cover":"BKN","base":4500}],"obsTime":1784480400},"SBPV":{"icaoId":"SBPV","flightCategory":"VFR","rawOb":"METAR SBPV 191700Z 01007KT 9999 SCT045 33/22 Q1010","temp":33,"dewp":22,"wdir":10,"wspd":7,"visib":"6+","altim":1010,"clouds":[{"cover":"SCT","base":4500}],"obsTime":1784480400},"SBBE":{"icaoId":"SBBE","flightCategory":"VFR","rawOb":"METAR SBBE 191700Z 10010KT 9999 SCT030 BKN100 32/23 Q1010","temp":32,"dewp":23,"wdir":100,"wspd":10,"visib":"6+","altim":1010,"clouds":[{"cover":"SCT","base":3000},{"cover":"BKN","base":10000}],"obsTime":1784480400},"SBRB":{"icaoId":"SBRB","flightCategory":"VFR","rawOb":"METAR SBRB 191700Z 32007KT 9999 SCT030 32/23 Q1012","temp":32,"dewp":23,"wdir":320,"wspd":7,"visib":"6+","altim":1012,"clouds":[{"cover":"SCT","base":3000}],"obsTime":1784480400},"SBCR":{"icaoId":"SBCR","flightCategory":"VFR","rawOb":"METAR SBCR 191700Z 01012G23KT 9999 SCT045 34/20 Q1007","temp":34,"dewp":20,"wdir":10,"wspd":12,"visib":"6+","altim":1007,"clouds":[{"cover":"SCT","base":4500}],"obsTime":1784480400},"SBSL":{"icaoId":"SBSL","flightCategory":"VFR","rawOb":"METAR SBSL 191700Z 13006KT 9999 SCT025 FEW030TCU SCT080 31/22 Q1010","temp":31,"dewp":22,"wdir":130,"wspd":6,"visib":"6+","altim":1010,"clouds":[{"cover":"SCT","base":2500},{"cover":"FEW","base":3000},{"cover":"SCT","base":8000}],"obsTime":1784480400},"SBCF":{"icaoId":"SBCF","flightCategory":"VFR","rawOb":"METAR SBCF 191700Z 06006KT 9999 SCT040 24/12 Q1021","temp":24,"dewp":12,"wdir":60,"wspd":6,"visib":"6+","altim":1021,"clouds":[{"cover":"SCT","base":4000}],"obsTime":1784480400},"SBMG":{"icaoId":"SBMG","flightCategory":"VFR","rawOb":"METAR SBMG 191700Z 02016KT CAVOK 28/12 Q1013","temp":28,"dewp":12,"wdir":20,"wspd":16,"visib":"6+","altim":1013,"clouds":[],"obsTime":1784480400},"SBME":{"icaoId":"SBME","flightCategory":"VFR","rawOb":"METAR SBME 191700Z 03017KT 9999 SCT040 30/16 Q1016","temp":30,"dewp":16,"wdir":30,"wspd":17,"visib":"6+","altim":1016,"clouds":[{"cover":"SCT","base":4000}],"obsTime":1784480400},"SBMK":{"icaoId":"SBMK","flightCategory":"VFR","rawOb":"METAR SBMK 191700Z 06008KT CAVOK 27/08 Q1018","temp":27,"dewp":8,"wdir":60,"wspd":8,"visib":"6+","altim":1018,"clouds":[],"obsTime":1784480400},"SBUL":{"icaoId":"SBUL","flightCategory":"VFR","rawOb":"METAR SBUL 191700Z 06009KT 010V100 9999 FEW045 24/12 Q1020","temp":24,"dewp":12,"wdir":60,"wspd":9,"visib":"6+","altim":1020,"clouds":[{"cover":"FEW","base":4500}],"obsTime":1784480400},"SBUR":{"icaoId":"SBUR","flightCategory":"VFR","rawOb":"METAR SBUR 191700Z 33010KT CAVOK 26/10 Q1018","temp":26,"dewp":10,"wdir":330,"wspd":10,"visib":"6+","altim":1018,"clouds":[],"obsTime":1784480400},"SBIL":{"icaoId":"SBIL","flightCategory":"VFR","rawOb":"METAR SBIL 191700Z 18006KT 140V220 9999 SCT025 FEW027TCU 27/21 Q1017","temp":27,"dewp":21,"wdir":180,"wspd":6,"visib":"6+","altim":1017,"clouds":[{"cover":"SCT","base":2500},{"cover":"FEW","base":2700}],"obsTime":1784480400},"SBJU":{"icaoId":"SBJU","flightCategory":"VFR","rawOb":"METAR SBJU 191700Z 15010KT CAVOK 32/11 Q1014","temp":32,"dewp":11,"wdir":150,"wspd":10,"visib":"6+","altim":1014,"clouds":[],"obsTime":1784480400},"SBAT":{"icaoId":"SBAT","flightCategory":"VFR","rawOb":"METAR SBAT 191700Z 05008KT 9999 FEW035 34/18 Q1012","temp":34,"dewp":18,"wdir":50,"wspd":8,"visib":"6+","altim":1012,"clouds":[{"cover":"FEW","base":3500}],"obsTime":1784480400},"SBHT":{"icaoId":"SBHT","flightCategory":"MVFR","rawOb":"METAR SBHT 191700Z 09005KT 9999 BKN030 33/22 Q1010","temp":33,"dewp":22,"wdir":90,"wspd":5,"visib":"6+","altim":1010,"clouds":[{"cover":"BKN","base":3000}],"obsTime":1784480400},"SBBV":{"icaoId":"SBBV","flightCategory":"VFR","rawOb":"METAR SBBV 191700Z 07006KT 9999 BKN040 FEW045TCU 33/21 Q1011","temp":33,"dewp":21,"wdir":70,"wspd":6,"visib":"6+","altim":1011,"clouds":[{"cover":"BKN","base":4000},{"cover":"FEW","base":4500}],"obsTime":1784480400},"SBSN":{"icaoId":"SBSN","flightCategory":"VFR","rawOb":"METAR SBSN 191700Z 06009KT 9999 FEW023 FEW026TCU 32/25 Q1010","temp":32,"dewp":25,"wdir":60,"wspd":9,"visib":"6+","altim":1010,"clouds":[{"cover":"FEW","base":2300},{"cover":"FEW","base":2600}],"obsTime":1784480400},"SBKP":{"icaoId":"SBKP","flightCategory":"VFR","rawOb":"METAR SBKP 191700Z 01012G22KT CAVOK 25/11 Q1018","temp":25,"dewp":11,"wdir":10,"wspd":12,"visib":"6+","altim":1018,"clouds":[],"obsTime":1784480400},"SBMA":{"icaoId":"SBMA","flightCategory":"VFR","rawOb":"METAR SBMA 191700Z 06006KT 9999 SCT030 35/18 Q1010","temp":35,"dewp":18,"wdir":60,"wspd":6,"visib":"6+","altim":1010,"clouds":[{"cover":"SCT","base":3000}],"obsTime":1784480400},"SBCB":{"icaoId":"SBCB","flightCategory":"VFR","rawOb":"METAR SBCB 191700Z 10015KT CAVOK 26/19 Q1016","temp":26,"dewp":19,"wdir":100,"wspd":15,"visib":"6+","altim":1016,"clouds":[],"obsTime":1784480400},"SBCG":{"icaoId":"SBCG","flightCategory":"VFR","rawOb":"METAR SBCG 191700Z 34019KT CAVOK 31/13 Q1012","temp":31,"dewp":13,"wdir":340,"wspd":19,"visib":"6+","altim":1012,"clouds":[],"obsTime":1784480400},"SBPJ":{"icaoId":"SBPJ","flightCategory":"VFR","rawOb":"METAR SBPJ 191700Z 10006KT 070V150 CAVOK 33/15 Q1013","temp":33,"dewp":15,"wdir":100,"wspd":6,"visib":"6+","altim":1013,"clouds":[],"obsTime":1784480400},"SBLO":{"icaoId":"SBLO","flightCategory":"VFR","rawOb":"METAR SBLO 191700Z 04010KT CAVOK 26/13 Q1015","temp":26,"dewp":13,"wdir":40,"wspd":10,"visib":"6+","altim":1015,"clouds":[],"obsTime":1784480400},"SBPA":{"icaoId":"SBPA","flightCategory":"VFR","rawOb":"METAR SBPA 191700Z 27007KT 9999 -TSRA SCT018 FEW035CB BKN080 21/18 Q1005 RETS","temp":21,"dewp":18,"wdir":270,"wspd":7,"visib":"6+","altim":1005,"clouds":[{"cover":"SCT","base":1800},{"cover":"FEW","base":3500},{"cover":"BKN","base":8000}],"obsTime":1784480400},"SBTE":{"icaoId":"SBTE","flightCategory":"VFR","rawOb":"METAR SBTE 191700Z 12008KT 080V170 9999 FEW030 33/17 Q1010","temp":33,"dewp":17,"wdir":120,"wspd":8,"visib":"6+","altim":1010,"clouds":[{"cover":"FEW","base":3000}],"obsTime":1784480400},"SBEG":{"icaoId":"SBEG","flightCategory":"VFR","rawOb":"METAR SBEG 191700Z 08010KT 040V120 9999 SCT040 32/23 Q1011","temp":32,"dewp":23,"wdir":80,"wspd":10,"visib":"6+","altim":1011,"clouds":[{"cover":"SCT","base":4000}],"obsTime":1784480400},"SBFL":{"icaoId":"SBFL","flightCategory":"VFR","rawOb":"METAR SBFL 191700Z 01011KT CAVOK 29/14 Q1008","temp":29,"dewp":14,"wdir":10,"wspd":11,"visib":"6+","altim":1008,"clouds":[],"obsTime":1784480400},"SBSV":{"icaoId":"SBSV","flightCategory":"MVFR","rawOb":"METAR SBSV 191700Z 12013KT 090V150 9999 VCSH BKN028 FEW030TCU OVC055 26/20 Q1016","temp":26,"dewp":20,"wdir":120,"wspd":13,"visib":"6+","altim":1016,"clouds":[{"cover":"BKN","base":2800},{"cover":"FEW","base":3000},{"cover":"OVC","base":5500}],"obsTime":1784480400},"SBRF":{"icaoId":"SBRF","flightCategory":"VFR","rawOb":"METAR SBRF 191700Z 15009KT 9999 FEW025 28/19 Q1013","temp":28,"dewp":19,"wdir":150,"wspd":9,"visib":"6+","altim":1013,"clouds":[{"cover":"FEW","base":2500}],"obsTime":1784480400},"SBCP":{"icaoId":"SBCP","flightCategory":"VFR","rawOb":"METAR SBCP 191700Z 08018KT CAVOK 26/18 Q1018","temp":26,"dewp":18,"wdir":80,"wspd":18,"visib":"6+","altim":1018,"clouds":[],"obsTime":1784480400},"SBVT":{"icaoId":"SBVT","flightCategory":"VFR","rawOb":"METAR SBVT 191700Z 05012KT 010V080 9999 FEW030 SCT040 26/17 Q1019","temp":26,"dewp":17,"wdir":50,"wspd":12,"visib":"6+","altim":1019,"clouds":[{"cover":"FEW","base":3000},{"cover":"SCT","base":4000}],"obsTime":1784480400},"SBPS":{"icaoId":"SBPS","flightCategory":"MVFR","rawOb":"METAR SBPS 191700Z 04009KT 9000 -RA BKN020 FEW027TCU OVC050 22/21 Q1019","temp":22,"dewp":21,"wdir":40,"wspd":9,"visib":5.59,"altim":1019,"clouds":[{"cover":"BKN","base":2000},{"cover":"FEW","base":2700},{"cover":"OVC","base":5000}],"obsTime":1784480400},"SBUY":{"icaoId":"SBUY","flightCategory":"VFR","rawOb":"METAR SBUY 191700Z 13005KT 9999 SCT025 32/23 Q1009","temp":32,"dewp":23,"wdir":130,"wspd":5,"visib":"6+","altim":1009,"clouds":[{"cover":"SCT","base":2500}],"obsTime":1784480400},"SBES":{"icaoId":"SBES","flightCategory":"VFR","rawOb":"METAR SBES 191700Z 07016G26KT CAVOK 27/// Q1016","temp":null,"dewp":null,"wdir":70,"wspd":16,"visib":"6+","altim":1016,"clouds":[],"obsTime":1784480400},"SBAR":{"icaoId":"SBAR","flightCategory":"VFR","rawOb":"METAR SBAR 191700Z 12014KT 9999 FEW021 SCT035 BKN070 26/22 Q1015","temp":26,"dewp":22,"wdir":120,"wspd":14,"visib":"6+","altim":1015,"clouds":[{"cover":"FEW","base":2100},{"cover":"SCT","base":3500},{"cover":"BKN","base":7000}],"obsTime":1784480400},"SBPP":{"icaoId":"SBPP","flightCategory":"VFR","rawOb":"METAR SBPP 191700Z 36029KT CAVOK 29/15 Q1010","temp":29,"dewp":15,"wdir":360,"wspd":29,"visib":"6+","altim":1010,"clouds":[],"obsTime":1784480400},"SBPB":{"icaoId":"SBPB","flightCategory":"VFR","rawOb":"METAR SBPB 191700Z 11007KT 9999 SCT016 BKN080 31/22 Q1009","temp":31,"dewp":22,"wdir":110,"wspd":7,"visib":"6+","altim":1009,"clouds":[{"cover":"SCT","base":1600},{"cover":"BKN","base":8000}],"obsTime":1784480400},"SBTF":{"icaoId":"SBTF","flightCategory":"VFR","rawOb":"METAR SBTF 191700Z 12005KT 9999 SCT020 32/24 Q1010","temp":32,"dewp":24,"wdir":120,"wspd":5,"visib":"6+","altim":1010,"clouds":[{"cover":"SCT","base":2000}],"obsTime":1784480400},"SBSJ":{"icaoId":"SBSJ","flightCategory":"VFR","rawOb":"METAR SBSJ 191700Z 35006KT CAVOK 25/11 Q1018","temp":25,"dewp":11,"wdir":350,"wspd":6,"visib":"6+","altim":1018,"clouds":[],"obsTime":1784480400},"SBCA":{"icaoId":"SBCA","flightCategory":"VFR","rawOb":"METAR SBCA 191700Z 04020G30KT CAVOK 25/11 Q1012","temp":25,"dewp":11,"wdir":40,"wspd":20,"visib":"6+","altim":1012,"clouds":[],"obsTime":1784480400},"SBCJ":{"icaoId":"SBCJ","flightCategory":"MVFR","rawOb":"METAR SBCJ 191700Z 14005KT 9999 BKN025 29/19 Q1014","temp":29,"dewp":19,"wdir":140,"wspd":5,"visib":"6+","altim":1014,"clouds":[{"cover":"BKN","base":2500}],"obsTime":1784480400},"SBPL":{"icaoId":"SBPL","flightCategory":"MVFR","rawOb":"METAR SBPL 191700Z 11013KT 9999 BKN025 28/18 Q1015","temp":28,"dewp":18,"wdir":110,"wspd":13,"visib":"6+","altim":1015,"clouds":[{"cover":"BKN","base":2500}],"obsTime":1784480400},"SBTT":{"icaoId":"SBTT","flightCategory":"MVFR","rawOb":"METAR SBTT 191700Z 32004KT 280V360 9999 BKN020 FEW025TCU 29/26 Q1011","temp":29,"dewp":26,"wdir":320,"wspd":4,"visib":"6+","altim":1011,"clouds":[{"cover":"BKN","base":2000},{"cover":"FEW","base":2500}],"obsTime":1784480400},"SBTU":{"icaoId":"SBTU","flightCategory":"VFR","rawOb":"METAR SBTU 191700Z AUTO 29011KT 260V330 9999 // NCD 33/18 Q1011","temp":33,"dewp":18,"wdir":290,"wspd":11,"visib":"6+","altim":1011,"clouds":[],"obsTime":1784480400},"SBOI":{"icaoId":"SBOI","flightCategory":"VFR","rawOb":"METAR SBOI 191700Z AUTO 11004KT 050V170 CAVOK 33/22 Q1010","temp":33,"dewp":22,"wdir":110,"wspd":4,"visib":"6+","altim":1010,"clouds":[],"obsTime":1784480400},"SBVH":{"icaoId":"SBVH","flightCategory":"VFR","rawOb":"METAR SBVH 191700Z 35008KT 9999 BKN040 29/19 Q1014","temp":29,"dewp":19,"wdir":350,"wspd":8,"visib":"6+","altim":1014,"clouds":[{"cover":"BKN","base":4000}],"obsTime":1784480400},"SBGM":{"icaoId":"SBGM","flightCategory":"VFR","rawOb":"METAR SBGM 191700Z 26008KT 9999 BKN033 33/22 Q1011","temp":33,"dewp":22,"wdir":260,"wspd":8,"visib":"6+","altim":1011,"clouds":[{"cover":"BKN","base":3300}],"obsTime":1784480400},"SBCC":{"icaoId":"SBCC","flightCategory":"VFR","rawOb":"METAR SBCC 191700Z 03007KT 330V070 9999 SCT045 32/17 Q1014","temp":32,"dewp":17,"wdir":30,"wspd":7,"visib":"6+","altim":1014,"clouds":[{"cover":"SCT","base":4500}],"obsTime":1784480400},"SBKG":{"icaoId":"SBKG","flightCategory":"VFR","rawOb":"METAR SBKG 191700Z 14009KT 9999 FEW023 27/17 Q1015","temp":27,"dewp":17,"wdir":140,"wspd":9,"visib":"6+","altim":1015,"clouds":[{"cover":"FEW","base":2300}],"obsTime":1784480400},"SBSR":{"icaoId":"SBSR","flightCategory":"VFR","rawOb":"METAR SBSR 191700Z 02008KT 330V070 CAVOK 29/08 Q1016","temp":29,"dewp":8,"wdir":20,"wspd":8,"visib":"6+","altim":1016,"clouds":[],"obsTime":1784480400},"SBSC":{"icaoId":"SBSC","flightCategory":"VFR","rawOb":"METAR SBSC 191700Z 35014G28KT CAVOK 29/16 Q1015","temp":29,"dewp":16,"wdir":350,"wspd":14,"visib":"6+","altim":1015,"clouds":[],"obsTime":1784480400},"SBIP":{"icaoId":"SBIP","flightCategory":"VFR","rawOb":"METAR SBIP 191700Z AUTO 02008KT 330V050 CAVOK 28/12 Q1019","temp":28,"dewp":12,"wdir":20,"wspd":8,"visib":"6+","altim":1019,"clouds":[],"obsTime":1784480400},"SBDN":{"icaoId":"SBDN","flightCategory":"VFR","rawOb":"METAR SBDN 191700Z 02010KT CAVOK 28/12 Q1014","temp":28,"dewp":12,"wdir":20,"wspd":10,"visib":"6+","altim":1014,"clouds":[],"obsTime":1784480400},"SBBU":{"icaoId":"SBBU","flightCategory":"VFR","rawOb":"METAR SBBU 191700Z 01008KT CAVOK 28/12 Q1016","temp":28,"dewp":12,"wdir":10,"wspd":8,"visib":"6+","altim":1016,"clouds":[],"obsTime":1784480400},"SBBQ":{"icaoId":"SBBQ","flightCategory":"VFR","rawOb":"METAR SBBQ 191700Z 02006KT 320V090 9999 SCT035 21/13 Q1024","temp":21,"dewp":13,"wdir":20,"wspd":6,"visib":"6+","altim":1024,"clouds":[{"cover":"SCT","base":3500}],"obsTime":1784480400},"SBBH":{"icaoId":"SBBH","flightCategory":"VFR","rawOb":"METAR SBBH 191700Z 09008KT 9999 BKN040 24/13 Q1021","temp":24,"dewp":13,"wdir":90,"wspd":8,"visib":"6+","altim":1021,"clouds":[{"cover":"BKN","base":4000}],"obsTime":1784480400},"SBAX":{"icaoId":"SBAX","flightCategory":"VFR","rawOb":"METAR SBAX 191700Z AUTO 03007KT 360V070 CAVOK 24/11 Q1020","temp":24,"dewp":11,"wdir":30,"wspd":7,"visib":"6+","altim":1020,"clouds":[],"obsTime":1784480400},"SBAU":{"icaoId":"SBAU","flightCategory":"VFR","rawOb":"METAR SBAU 191700Z 03012KT CAVOK 31/10 Q1014","temp":31,"dewp":10,"wdir":30,"wspd":12,"visib":"6+","altim":1014,"clouds":[],"obsTime":1784480400},"SBSM":{"icaoId":"SBSM","flightCategory":"VFR","rawOb":"METAR SBSM 191700Z VRB03KT 9999 +TSRA FEW005 SCT045 FEW050CB BKN070 18/18 Q1004 RETSRA","temp":18,"dewp":18,"wdir":"VRB","wspd":3,"visib":"6+","altim":1004,"clouds":[{"cover":"FEW","base":500},{"cover":"SCT","base":4500},{"cover":"FEW","base":5000},{"cover":"BKN","base":7000}],"obsTime":1784480400},"SBCO":{"icaoId":"SBCO","flightCategory":"VFR","rawOb":"METAR SBCO 191700Z 28006KT 240V310 9999 TS VCSH FEW020 FEW035CB SCT040 BKN083 21/17 Q1005 RETS","temp":21,"dewp":17,"wdir":280,"wspd":6,"visib":"6+","altim":1005,"clouds":[{"cover":"FEW","base":2000},{"cover":"FEW","base":3500},{"cover":"SCT","base":4000},{"cover":"BKN","base":8300}],"obsTime":1784480400},"SBJP":{"icaoId":"SBJP","flightCategory":"VFR","rawOb":"METAR SBJP 191700Z 14014KT 9999 SCT033 29/20 Q1013","temp":29,"dewp":20,"wdir":140,"wspd":14,"visib":"6+","altim":1013,"clouds":[{"cover":"SCT","base":3300}],"obsTime":1784480400},"SBAN":{"icaoId":"SBAN","flightCategory":"VFR","rawOb":"METAR SBAN 191700Z 34005KT 9999 FEW030 25/09 Q1020","temp":25,"dewp":9,"wdir":340,"wspd":5,"visib":"6+","altim":1020,"clouds":[{"cover":"FEW","base":3000}],"obsTime":1784480400},"SBJV":{"icaoId":"SBJV","flightCategory":"VFR","rawOb":"METAR SBJV 191700Z 13005KT CAVOK 29/17 Q1009","temp":29,"dewp":17,"wdir":130,"wspd":5,"visib":"6+","altim":1009,"clouds":[],"obsTime":1784480400},"SBNM":{"icaoId":"SBNM","flightCategory":"VFR","rawOb":"METAR SBNM 191800Z AUTO 35024G34KT CAVOK 26/16 Q1003","temp":26,"dewp":16,"wdir":350,"wspd":24,"visib":"6+","altim":1003,"clouds":[],"obsTime":1784484000},"SBPF":{"icaoId":"SBPF","flightCategory":"VFR","rawOb":"METAR SBPF 191700Z 35018KT CAVOK 25/11 Q1009","temp":25,"dewp":11,"wdir":350,"wspd":18,"visib":"6+","altim":1009,"clouds":[],"obsTime":1784480400},"SBAF":{"icaoId":"SBAF","flightCategory":"VFR","rawOb":"METAR SBAF 191700Z 01007KT CAVOK 30/15 Q1015","temp":30,"dewp":15,"wdir":10,"wspd":7,"visib":"6+","altim":1015,"clouds":[],"obsTime":1784480400},"SBGW":{"icaoId":"SBGW","flightCategory":"VFR","rawOb":"METAR SBGW 191700Z VRB03KT CAVOK 27/10 Q1017","temp":27,"dewp":10,"wdir":"VRB","wspd":3,"visib":"6+","altim":1017,"clouds":[],"obsTime":1784480400},"SBJR":{"icaoId":"SBJR","flightCategory":"VFR","rawOb":"METAR SBJR 191700Z 22003KT CAVOK 32/16 Q1015","temp":32,"dewp":16,"wdir":220,"wspd":3,"visib":"6+","altim":1015,"clouds":[],"obsTime":1784480400},"SBLS":{"icaoId":"SBLS","flightCategory":"VFR","rawOb":"METAR SBLS 191700Z 14006KT 060V150 9999 SCT035 23/14 Q1021","temp":23,"dewp":14,"wdir":140,"wspd":6,"visib":"6+","altim":1021,"clouds":[{"cover":"SCT","base":3500}],"obsTime":1784480400},"SBMT":{"icaoId":"SBMT","flightCategory":"VFR","rawOb":"METAR SBMT 191700Z 32011KT CAVOK 24/06 Q1018","temp":24,"dewp":6,"wdir":320,"wspd":11,"visib":"6+","altim":1018,"clouds":[],"obsTime":1784480400},"SBST":{"icaoId":"SBST","flightCategory":"VFR","rawOb":"METAR SBST 191700Z 15006KT CAVOK 29/12 Q1013","temp":29,"dewp":12,"wdir":150,"wspd":6,"visib":"6+","altim":1013,"clouds":[],"obsTime":1784480400},"SBTA":{"icaoId":"SBTA","flightCategory":"VFR","rawOb":"METAR SBTA 191700Z VRB02KT CAVOK 27/12 Q1017","temp":27,"dewp":12,"wdir":"VRB","wspd":2,"visib":"6+","altim":1017,"clouds":[],"obsTime":1784480400},"SBLE":{"icaoId":"SBLE","flightCategory":"VFR","rawOb":"METAR SBLE 191700Z AUTO 13005KT 080V190 CAVOK 26/16 Q1018","temp":26,"dewp":16,"wdir":130,"wspd":5,"visib":"6+","altim":1018,"clouds":[],"obsTime":1784480400},"SBTC":{"icaoId":"SBTC","flightCategory":"VFR","rawOb":"METAR SBTC 191700Z 17008KT 9999 SCT025 26/21 Q1018","temp":26,"dewp":21,"wdir":170,"wspd":8,"visib":"6+","altim":1018,"clouds":[{"cover":"SCT","base":2500}],"obsTime":1784480400},"SBIH":{"icaoId":"SBIH","flightCategory":"VFR","rawOb":"METAR SBIH 191700Z 04006KT 9999 SCT020 34/23 Q1010","temp":34,"dewp":23,"wdir":40,"wspd":6,"visib":"6+","altim":1010,"clouds":[{"cover":"SCT","base":2000}],"obsTime":1784480400}}}