{"updated":1778030659,"count":63,"data":{"SBFL":{"icaoId":"SBFL","flightCategory":"VFR","rawOb":"METAR SBFL 060000Z 32005KT CAVOK 22/21 Q1018","temp":22,"dewp":21,"wdir":320,"wspd":5,"visib":"6+","altim":1018,"clouds":[],"obsTime":1778025600},"SBBR":{"icaoId":"SBBR","flightCategory":"VFR","rawOb":"METAR SBBR 060000Z 11006KT CAVOK 20/13 Q1024","temp":20,"dewp":13,"wdir":110,"wspd":6,"visib":"6+","altim":1024,"clouds":[],"obsTime":1778025600},"SBBV":{"icaoId":"SBBV","flightCategory":"VFR","rawOb":"METAR SBBV 060000Z 13007KT 9999 FEW040 FEW045TCU 30/24 Q1012","temp":30,"dewp":24,"wdir":130,"wspd":7,"visib":"6+","altim":1012,"clouds":[{"cover":"FEW","base":4000},{"cover":"FEW","base":4500}],"obsTime":1778025600},"SBCF":{"icaoId":"SBCF","flightCategory":"VFR","rawOb":"METAR SBCF 060000Z 13006KT CAVOK 22/17 Q1024","temp":22,"dewp":17,"wdir":130,"wspd":6,"visib":"6+","altim":1024,"clouds":[],"obsTime":1778025600},"SBCG":{"icaoId":"SBCG","flightCategory":"VFR","rawOb":"METAR SBCG 060000Z 06003KT CAVOK 24/18 Q1018","temp":24,"dewp":18,"wdir":60,"wspd":3,"visib":"6+","altim":1018,"clouds":[],"obsTime":1778025600},"SBCT":{"icaoId":"SBCT","flightCategory":"VFR","rawOb":"METAR SBCT 060000Z 09002KT CAVOK 19/18 Q1024","temp":19,"dewp":18,"wdir":90,"wspd":2,"visib":"6+","altim":1024,"clouds":[],"obsTime":1778025600},"SBEG":{"icaoId":"SBEG","flightCategory":"VFR","rawOb":"METAR SBEG 060000Z 05004KT 9999 -RA VCTS FEW008 SCT020 FEW025CB BKN060 24/24 Q1014","temp":24,"dewp":24,"wdir":50,"wspd":4,"visib":"6+","altim":1014,"clouds":[{"cover":"FEW","base":800},{"cover":"SCT","base":2000},{"cover":"FEW","base":2500},{"cover":"BKN","base":6000}],"obsTime":1778025600},"SBFI":{"icaoId":"SBFI","flightCategory":"VFR","rawOb":"METAR SBFI 060000Z 05005KT CAVOK 25/21 Q1016","temp":25,"dewp":21,"wdir":50,"wspd":5,"visib":"6+","altim":1016,"clouds":[],"obsTime":1778025600},"SBBE":{"icaoId":"SBBE","flightCategory":"VFR","rawOb":"METAR SBBE 060000Z 20004KT 9999 SCT008 23/23 Q1014","temp":23,"dewp":23,"wdir":200,"wspd":4,"visib":"6+","altim":1014,"clouds":[{"cover":"SCT","base":800}],"obsTime":1778025600},"SBFZ":{"icaoId":"SBFZ","flightCategory":"VFR","rawOb":"METAR SBFZ 060000Z 12005KT 9999 FEW020 28/24 Q1012","temp":28,"dewp":24,"wdir":120,"wspd":5,"visib":"6+","altim":1012,"clouds":[{"cover":"FEW","base":2000}],"obsTime":1778025600},"SBGL":{"icaoId":"SBGL","flightCategory":"VFR","rawOb":"METAR SBGL 060000Z 06001KT CAVOK 24/20 Q1020","temp":24,"dewp":20,"wdir":60,"wspd":1,"visib":"6+","altim":1020,"clouds":[],"obsTime":1778025600},"SBGO":{"icaoId":"SBGO","flightCategory":"VFR","rawOb":"METAR SBGO 060000Z 13007KT CAVOK 23/15 Q1021","temp":23,"dewp":15,"wdir":130,"wspd":7,"visib":"6+","altim":1021,"clouds":[],"obsTime":1778025600},"SBGR":{"icaoId":"SBGR","flightCategory":"VFR","rawOb":"METAR SBGR 060000Z 10001KT CAVOK 20/18 Q1024","temp":20,"dewp":18,"wdir":100,"wspd":1,"visib":"6+","altim":1024,"clouds":[],"obsTime":1778025600},"SBIL":{"icaoId":"SBIL","flightCategory":"VFR","rawOb":"METAR SBIL 060000Z 23006KT CAVOK 26/23 Q1018","temp":26,"dewp":23,"wdir":230,"wspd":6,"visib":"6+","altim":1018,"clouds":[],"obsTime":1778025600},"SBJU":{"icaoId":"SBJU","flightCategory":"MVFR","rawOb":"METAR SBJU 060000Z 14007KT 9999 BKN020 27/20 Q1016","temp":27,"dewp":20,"wdir":140,"wspd":7,"visib":"6+","altim":1016,"clouds":[{"cover":"BKN","base":2000}],"obsTime":1778025600},"SBKP":{"icaoId":"SBKP","flightCategory":"VFR","rawOb":"METAR SBKP 060000Z 12006KT CAVOK 24/18 Q1022","temp":24,"dewp":18,"wdir":120,"wspd":6,"visib":"6+","altim":1022,"clouds":[],"obsTime":1778025600},"SBLO":{"icaoId":"SBLO","flightCategory":"VFR","rawOb":"METAR SBLO 060000Z 13003KT CAVOK 24/20 Q1021","temp":24,"dewp":20,"wdir":130,"wspd":3,"visib":"6+","altim":1021,"clouds":[],"obsTime":1778025600},"SBMA":{"icaoId":"SBMA","flightCategory":"VFR","rawOb":"METAR SBMA 060000Z 00000KT CAVOK 27/26 Q1013","temp":27,"dewp":26,"wdir":0,"wspd":0,"visib":"6+","altim":1013,"clouds":[],"obsTime":1778025600},"SBME":{"icaoId":"SBME","flightCategory":"VFR","rawOb":"METAR SBME 060000Z 01004KT CAVOK 23/19 Q1021","temp":23,"dewp":19,"wdir":10,"wspd":4,"visib":"6+","altim":1021,"clouds":[],"obsTime":1778025600},"SBMG":{"icaoId":"SBMG","flightCategory":"VFR","rawOb":"METAR SBMG 060000Z 06009KT CAVOK 25/19 Q1019","temp":25,"dewp":19,"wdir":60,"wspd":9,"visib":"6+","altim":1019,"clouds":[],"obsTime":1778025600},"SBMK":{"icaoId":"SBMK","flightCategory":"VFR","rawOb":"METAR SBMK 060000Z 13006KT CAVOK 24/16 Q1022","temp":24,"dewp":16,"wdir":130,"wspd":6,"visib":"6+","altim":1022,"clouds":[],"obsTime":1778025600},"SBMO":{"icaoId":"SBMO","flightCategory":"VFR","rawOb":"METAR SBMO 060000Z 14006KT 9999 FEW025 SCT048 BKN060 26/23 Q1016","temp":26,"dewp":23,"wdir":140,"wspd":6,"visib":"6+","altim":1016,"clouds":[{"cover":"FEW","base":2500},{"cover":"SCT","base":4800},{"cover":"BKN","base":6000}],"obsTime":1778025600},"SBMQ":{"icaoId":"SBMQ","flightCategory":"MVFR","rawOb":"METAR SBMQ 060000Z 05003KT 9999 BKN028 25/24 Q1014","temp":25,"dewp":24,"wdir":50,"wspd":3,"visib":"6+","altim":1014,"clouds":[{"cover":"BKN","base":2800}],"obsTime":1778025600},"SBNT":{"icaoId":"SBNT","flightCategory":"VFR","rawOb":"METAR SBNT 060000Z 17007KT 9999 FEW025 26/23 Q1014","temp":26,"dewp":23,"wdir":170,"wspd":7,"visib":"6+","altim":1014,"clouds":[{"cover":"FEW","base":2500}],"obsTime":1778025600},"SBPA":{"icaoId":"SBPA","flightCategory":"VFR","rawOb":"METAR SBPA 060000Z 09006KT CAVOK 24/21 Q1016","temp":24,"dewp":21,"wdir":90,"wspd":6,"visib":"6+","altim":1016,"clouds":[],"obsTime":1778025600},"SBPJ":{"icaoId":"SBPJ","flightCategory":"VFR","rawOb":"METAR SBPJ 060000Z VRB01KT CAVOK 27/22 Q1014","temp":27,"dewp":22,"wdir":"VRB","wspd":1,"visib":"6+","altim":1014,"clouds":[],"obsTime":1778025600},"SBPV":{"icaoId":"SBPV","flightCategory":"VFR","rawOb":"METAR SBPV 060000Z 00000KT CAVOK 27/22 Q1011","temp":27,"dewp":22,"wdir":0,"wspd":0,"visib":"6+","altim":1011,"clouds":[],"obsTime":1778025600},"SBRB":{"icaoId":"SBRB","flightCategory":"VFR","rawOb":"METAR SBRB 060000Z 33003KT 9999 FEW030 BKN100 25/25 Q1013","temp":25,"dewp":25,"wdir":330,"wspd":3,"visib":"6+","altim":1013,"clouds":[{"cover":"FEW","base":3000},{"cover":"BKN","base":10000}],"obsTime":1778025600},"SBRF":{"icaoId":"SBRF","flightCategory":"VFR","rawOb":"METAR SBRF 060000Z 16009KT 9999 SCT023 26/23 Q1014","temp":26,"dewp":23,"wdir":160,"wspd":9,"visib":"6+","altim":1014,"clouds":[{"cover":"SCT","base":2300}],"obsTime":1778025600},"SBSG":{"icaoId":"SBSG","flightCategory":"VFR","rawOb":"METAR SBSG 060000Z 17005KT 9999 FEW025 25/23 Q1015","temp":25,"dewp":23,"wdir":170,"wspd":5,"visib":"6+","altim":1015,"clouds":[{"cover":"FEW","base":2500}],"obsTime":1778025600},"SBSL":{"icaoId":"SBSL","flightCategory":"VFR","rawOb":"METAR SBSL 060000Z 06004KT 9999 FEW008 SCT010 FEW020TCU BKN080 25/25 Q1013","temp":25,"dewp":25,"wdir":60,"wspd":4,"visib":"6+","altim":1013,"clouds":[{"cover":"FEW","base":800},{"cover":"SCT","base":1000},{"cover":"FEW","base":2000},{"cover":"BKN","base":8000}],"obsTime":1778025600},"SBSN":{"icaoId":"SBSN","flightCategory":"VFR","rawOb":"METAR SBSN 060000Z 12005KT 9999 -RA FEW007 SCT035 OVC080 24/24 Q1013","temp":24,"dewp":24,"wdir":120,"wspd":5,"visib":"6+","altim":1013,"clouds":[{"cover":"FEW","base":700},{"cover":"SCT","base":3500},{"cover":"OVC","base":8000}],"obsTime":1778025600},"SBSP":{"icaoId":"SBSP","flightCategory":"VFR","rawOb":"METAR SBSP 060000Z 07003KT 040V100 CAVOK 23/18 Q1024","temp":23,"dewp":18,"wdir":70,"wspd":3,"visib":"6+","altim":1024,"clouds":[],"obsTime":1778025600},"SBSV":{"icaoId":"SBSV","flightCategory":"MVFR","rawOb":"METAR SBSV 060000Z 15011KT 9999 BKN023 28/22 Q1016","temp":28,"dewp":22,"wdir":150,"wspd":11,"visib":"6+","altim":1016,"clouds":[{"cover":"BKN","base":2300}],"obsTime":1778025600},"SBTE":{"icaoId":"SBTE","flightCategory":"VFR","rawOb":"METAR SBTE 060000Z 32003KT CAVOK 28/25 Q1012","temp":28,"dewp":25,"wdir":320,"wspd":3,"visib":"6+","altim":1012,"clouds":[],"obsTime":1778025600},"SBUR":{"icaoId":"SBUR","flightCategory":"VFR","rawOb":"METAR SBUR 060000Z 09008KT CAVOK 25/15 Q1022","temp":25,"dewp":15,"wdir":90,"wspd":8,"visib":"6+","altim":1022,"clouds":[],"obsTime":1778025600},"SBVT":{"icaoId":"SBVT","flightCategory":"VFR","rawOb":"METAR SBVT 060000Z 28004KT 9999 BKN040 23/21 Q1021","temp":23,"dewp":21,"wdir":280,"wspd":4,"visib":"6+","altim":1021,"clouds":[{"cover":"BKN","base":4000}],"obsTime":1778025600},"SBCZ":{"icaoId":"SBCZ","flightCategory":"VFR","rawOb":"METAR SBCZ 060000Z 00000KT 9999 FEW030 26/25 Q1011","temp":26,"dewp":25,"wdir":0,"wspd":0,"visib":"6+","altim":1011,"clouds":[{"cover":"FEW","base":3000}],"obsTime":1778025600},"SBUL":{"icaoId":"SBUL","flightCategory":"VFR","rawOb":"METAR SBUL 060000Z 14004KT CAVOK 23/15 Q1023","temp":23,"dewp":15,"wdir":140,"wspd":4,"visib":"6+","altim":1023,"clouds":[],"obsTime":1778025600},"SBIP":{"icaoId":"SBIP","flightCategory":"VFR","rawOb":"METAR SBIP 060000Z AUTO 20002KT CAVOK 21/21 Q1021","temp":21,"dewp":21,"wdir":200,"wspd":2,"visib":"6+","altim":1021,"clouds":[],"obsTime":1778025600},"SBKG":{"icaoId":"SBKG","flightCategory":"VFR","rawOb":"METAR SBKG 060000Z 13006KT 9999 FEW018 BKN070 23/20 Q1017","temp":23,"dewp":20,"wdir":130,"wspd":6,"visib":"6+","altim":1017,"clouds":[{"cover":"FEW","base":1800},{"cover":"BKN","base":7000}],"obsTime":1778025600},"SBOI":{"icaoId":"SBOI","flightCategory":"VFR","rawOb":"METAR SBOI 060100Z AUTO 00000KT 9999 FEW026 24/24 Q1014","temp":24,"dewp":24,"wdir":0,"wspd":0,"visib":"6+","altim":1014,"clouds":[{"cover":"FEW","base":2600}],"obsTime":1778029200},"SBAR":{"icaoId":"SBAR","flightCategory":"VFR","rawOb":"METAR SBAR 060000Z 20005KT 9999 BKN040 25/24 Q1016","temp":25,"dewp":24,"wdir":200,"wspd":5,"visib":"6+","altim":1016,"clouds":[{"cover":"BKN","base":4000}],"obsTime":1778025600},"SBPL":{"icaoId":"SBPL","flightCategory":"VFR","rawOb":"METAR SBPL 060000Z 12006KT CAVOK 27/18 Q1016","temp":27,"dewp":18,"wdir":120,"wspd":6,"visib":"6+","altim":1016,"clouds":[],"obsTime":1778025600},"SBCO":{"icaoId":"SBCO","flightCategory":"VFR","rawOb":"METAR SBCO 060000Z 11004KT CAVOK 20/19 Q1016","temp":20,"dewp":19,"wdir":110,"wspd":4,"visib":"6+","altim":1016,"clouds":[],"obsTime":1778025600},"SBPS":{"icaoId":"SBPS","flightCategory":"VFR","rawOb":"METAR SBPS 060000Z 23002KT 9999 SCT015 24/23 Q1019","temp":24,"dewp":23,"wdir":230,"wspd":2,"visib":"6+","altim":1019,"clouds":[{"cover":"SCT","base":1500}],"obsTime":1778025600},"SBAX":{"icaoId":"SBAX","flightCategory":"VFR","rawOb":"METAR SBAX 060000Z 13009KT CAVOK 21/15 Q1024","temp":21,"dewp":15,"wdir":130,"wspd":9,"visib":"6+","altim":1024,"clouds":[],"obsTime":1778025600},"SBSC":{"icaoId":"SBSC","flightCategory":"VFR","rawOb":"METAR SBSC 060000Z 00000KT CAVOK 22/20 Q1020","temp":22,"dewp":20,"wdir":0,"wspd":0,"visib":"6+","altim":1020,"clouds":[],"obsTime":1778025600},"SBDN":{"icaoId":"SBDN","flightCategory":"VFR","rawOb":"METAR SBDN 060000Z 07006KT CAVOK 26/16 Q1019","temp":26,"dewp":16,"wdir":70,"wspd":6,"visib":"6+","altim":1019,"clouds":[],"obsTime":1778025600},"SBSJ":{"icaoId":"SBSJ","flightCategory":"VFR","rawOb":"METAR SBSJ 060000Z 15002KT CAVOK 21/17 Q1023","temp":21,"dewp":17,"wdir":150,"wspd":2,"visib":"6+","altim":1023,"clouds":[],"obsTime":1778025600},"SBES":{"icaoId":"SBES","flightCategory":"VFR","rawOb":"METAR SBES 060000Z 05008KT 320V070 CAVOK 22/// Q1021","temp":null,"dewp":null,"wdir":50,"wspd":8,"visib":"6+","altim":1021,"clouds":[],"obsTime":1778025600},"SBSM":{"icaoId":"SBSM","flightCategory":"VFR","rawOb":"METAR SBSM 060000Z 11003KT CAVOK 22/21 Q1015","temp":22,"dewp":21,"wdir":110,"wspd":3,"visib":"6+","altim":1015,"clouds":[],"obsTime":1778025600},"SBSR":{"icaoId":"SBSR","flightCategory":"VFR","rawOb":"METAR SBSR 060000Z 17001KT 9999 FEW040 27/16 Q1020","temp":27,"dewp":16,"wdir":170,"wspd":1,"visib":"6+","altim":1020,"clouds":[{"cover":"FEW","base":4000}],"obsTime":1778025600},"SBBH":{"icaoId":"SBBH","flightCategory":"VFR","rawOb":"METAR SBBH 060000Z 11008KT CAVOK 22/17 Q1024","temp":22,"dewp":17,"wdir":110,"wspd":8,"visib":"6+","altim":1024,"clouds":[],"obsTime":1778025600},"SBBU":{"icaoId":"SBBU","flightCategory":"VFR","rawOb":"METAR SBBU 060000Z 15003KT CAVOK 26/18 Q1021","temp":26,"dewp":18,"wdir":150,"wspd":3,"visib":"6+","altim":1021,"clouds":[],"obsTime":1778025600},"SBJP":{"icaoId":"SBJP","flightCategory":"VFR","rawOb":"METAR SBJP 060000Z 00000KT 9999 FEW025 25/24 Q1015","temp":25,"dewp":24,"wdir":0,"wspd":0,"visib":"6+","altim":1015,"clouds":[{"cover":"FEW","base":2500}],"obsTime":1778025600},"SBMT":{"icaoId":"SBMT","flightCategory":"VFR","rawOb":"METAR SBMT 060000Z 07003KT CAVOK 23/18 Q1023","temp":23,"dewp":18,"wdir":70,"wspd":3,"visib":"6+","altim":1023,"clouds":[],"obsTime":1778025600},"SBTA":{"icaoId":"SBTA","flightCategory":"VFR","rawOb":"METAR SBTA 060000Z VRB02KT CAVOK 19/17 Q1022","temp":19,"dewp":17,"wdir":"VRB","wspd":2,"visib":"6+","altim":1022,"clouds":[],"obsTime":1778025600},"SBAN":{"icaoId":"SBAN","flightCategory":"VFR","rawOb":"METAR SBAN 060000Z 20005KT CAVOK 20/13 Q1023","temp":20,"dewp":13,"wdir":200,"wspd":5,"visib":"6+","altim":1023,"clouds":[],"obsTime":1778025600},"SBLE":{"icaoId":"SBLE","flightCategory":"VFR","rawOb":"METAR SBLE 060000Z AUTO 16004KT 9999 FEW046 22/22 Q1019","temp":22,"dewp":22,"wdir":160,"wspd":4,"visib":"6+","altim":1019,"clouds":[{"cover":"FEW","base":4600}],"obsTime":1778025600},"SBJV":{"icaoId":"SBJV","flightCategory":"VFR","rawOb":"METAR SBJV 060000Z 31004KT CAVOK 21/21 Q1019","temp":21,"dewp":21,"wdir":310,"wspd":4,"visib":"6+","altim":1019,"clouds":[],"obsTime":1778025600},"SBLS":{"icaoId":"SBLS","flightCategory":"VFR","rawOb":"METAR SBLS 060000Z 14006KT CAVOK 21/17 Q1024","temp":21,"dewp":17,"wdir":140,"wspd":6,"visib":"6+","altim":1024,"clouds":[],"obsTime":1778025600},"SBJR":{"icaoId":"SBJR","flightCategory":"VFR","rawOb":"METAR SBJR 060000Z 00000KT CAVOK 22/21 Q1020","temp":22,"dewp":21,"wdir":0,"wspd":0,"visib":"6+","altim":1020,"clouds":[],"obsTime":1778025600}}}