{"updated":1777235934,"count":85,"data":{"SBCZ":{"icaoId":"SBCZ","flightCategory":"VFR","rawOb":"METAR SBCZ 261900Z VRB02KT 9999 SCT035 32/23 Q1009","temp":32,"dewp":23,"wdir":"VRB","wspd":2,"visib":"6+","altim":1009,"clouds":[{"cover":"SCT","base":3500}],"obsTime":1777230000},"SBBE":{"icaoId":"SBBE","flightCategory":"VFR","rawOb":"METAR SBBE 261900Z 01008KT 9999 SCT048 30/24 Q1009","temp":30,"dewp":24,"wdir":10,"wspd":8,"visib":"6+","altim":1009,"clouds":[{"cover":"SCT","base":4800}],"obsTime":1777230000},"SBBR":{"icaoId":"SBBR","flightCategory":"VFR","rawOb":"METAR SBBR 261900Z 02004KT 290V080 9999 SCT040 FEW045TCU 29/16 Q1016","temp":29,"dewp":16,"wdir":20,"wspd":4,"visib":"6+","altim":1016,"clouds":[{"cover":"SCT","base":4000},{"cover":"FEW","base":4500}],"obsTime":1777230000},"SBBV":{"icaoId":"SBBV","flightCategory":"VFR","rawOb":"METAR SBBV 261900Z 17005KT 9999 SCT008 SCT018 FEW030TCU BKN080 27/24 Q1010","temp":27,"dewp":24,"wdir":170,"wspd":5,"visib":"6+","altim":1010,"clouds":[{"cover":"SCT","base":800},{"cover":"SCT","base":1800},{"cover":"FEW","base":3000},{"cover":"BKN","base":8000}],"obsTime":1777230000},"SBCB":{"icaoId":"SBCB","flightCategory":"VFR","rawOb":"METAR SBCB 261900Z 09008KT CAVOK 29/21 Q1010","temp":29,"dewp":21,"wdir":90,"wspd":8,"visib":"6+","altim":1010,"clouds":[],"obsTime":1777230000},"SBCF":{"icaoId":"SBCF","flightCategory":"VFR","rawOb":"METAR SBCF 261900Z VRB02KT 9999 SCT035 28/14 Q1015","temp":28,"dewp":14,"wdir":"VRB","wspd":2,"visib":"6+","altim":1015,"clouds":[{"cover":"SCT","base":3500}],"obsTime":1777230000},"SBCG":{"icaoId":"SBCG","flightCategory":"VFR","rawOb":"METAR SBCG 261900Z 31011KT 280V350 CAVOK 31/19 Q1012","temp":31,"dewp":19,"wdir":310,"wspd":11,"visib":"6+","altim":1012,"clouds":[],"obsTime":1777230000},"SBCP":{"icaoId":"SBCP","flightCategory":"VFR","rawOb":"METAR SBCP 261900Z 31009KT 9999 FEW020 34/19 Q1009","temp":34,"dewp":19,"wdir":310,"wspd":9,"visib":"6+","altim":1009,"clouds":[{"cover":"FEW","base":2000}],"obsTime":1777230000},"SBCR":{"icaoId":"SBCR","flightCategory":"VFR","rawOb":"METAR SBCR 261900Z 17005KT 140V200 9999 VCSH BKN045 FEW050TCU 31/26 Q1008","temp":31,"dewp":26,"wdir":170,"wspd":5,"visib":"6+","altim":1008,"clouds":[{"cover":"BKN","base":4500},{"cover":"FEW","base":5000}],"obsTime":1777230000},"SBCT":{"icaoId":"SBCT","flightCategory":"VFR","rawOb":"METAR SBCT 261900Z 29015KT 9999 VCSH SCT025 BKN070 24/19 Q1013","temp":24,"dewp":19,"wdir":290,"wspd":15,"visib":"6+","altim":1013,"clouds":[{"cover":"SCT","base":2500},{"cover":"BKN","base":7000}],"obsTime":1777230000},"SBAT":{"icaoId":"SBAT","flightCategory":"VFR","rawOb":"METAR SBAT 261900Z 06001KT 9999 SCT035 35/24 Q1009","temp":35,"dewp":24,"wdir":60,"wspd":1,"visib":"6+","altim":1009,"clouds":[{"cover":"SCT","base":3500}],"obsTime":1777230000},"SBEG":{"icaoId":"SBEG","flightCategory":"VFR","rawOb":"METAR SBEG 261900Z 34004KT 290V020 9999 VCSH SCT025 FEW030TCU SCT100 31/24 Q1009","temp":31,"dewp":24,"wdir":340,"wspd":4,"visib":"6+","altim":1009,"clouds":[{"cover":"SCT","base":2500},{"cover":"FEW","base":3000},{"cover":"SCT","base":10000}],"obsTime":1777230000},"SBFI":{"icaoId":"SBFI","flightCategory":"LIFR","rawOb":"METAR SBFI 261900Z 21006KT 2000 TSRA BR BKN004 OVC015 //////CB 21/21 Q1009","temp":21,"dewp":21,"wdir":210,"wspd":6,"visib":1.24,"altim":1009,"clouds":[{"cover":"BKN","base":400},{"cover":"OVC","base":1500}],"obsTime":1777230000},"SBFL":{"icaoId":"SBFL","flightCategory":"VFR","rawOb":"METAR SBFL 261900Z 35007KT 9999 SCT010 23/21 Q1007","temp":23,"dewp":21,"wdir":350,"wspd":7,"visib":"6+","altim":1007,"clouds":[{"cover":"SCT","base":1000}],"obsTime":1777230000},"SBFZ":{"icaoId":"SBFZ","flightCategory":"VFR","rawOb":"METAR SBFZ 261900Z 08005KT 9999 SCT016 28/24 Q1010","temp":28,"dewp":24,"wdir":80,"wspd":5,"visib":"6+","altim":1010,"clouds":[{"cover":"SCT","base":1600}],"obsTime":1777230000},"SBGL":{"icaoId":"SBGL","flightCategory":"VFR","rawOb":"METAR SBGL 261900Z 12009KT CAVOK 31/19 Q1009","temp":31,"dewp":19,"wdir":120,"wspd":9,"visib":"6+","altim":1009,"clouds":[],"obsTime":1777230000},"SBGO":{"icaoId":"SBGO","flightCategory":"VFR","rawOb":"METAR SBGO 261900Z VRB04KT CAVOK 32/15 Q1014","temp":32,"dewp":15,"wdir":"VRB","wspd":4,"visib":"6+","altim":1014,"clouds":[],"obsTime":1777230000},"SBGR":{"icaoId":"SBGR","flightCategory":"VFR","rawOb":"METAR SBGR 261900Z 29010KT CAVOK 30/17 Q1013","temp":30,"dewp":17,"wdir":290,"wspd":10,"visib":"6+","altim":1013,"clouds":[],"obsTime":1777230000},"SBHT":{"icaoId":"SBHT","flightCategory":"VFR","rawOb":"METAR SBHT 261900Z 13004KT 9999 SCT030 33/22 Q1008","temp":33,"dewp":22,"wdir":130,"wspd":4,"visib":"6+","altim":1008,"clouds":[{"cover":"SCT","base":3000}],"obsTime":1777230000},"SBIL":{"icaoId":"SBIL","flightCategory":"VFR","rawOb":"METAR SBIL 261900Z 11007KT CAVOK 29/23 Q1012","temp":29,"dewp":23,"wdir":110,"wspd":7,"visib":"6+","altim":1012,"clouds":[],"obsTime":1777230000},"SBJU":{"icaoId":"SBJU","flightCategory":"VFR","rawOb":"METAR SBJU 261900Z 12005KT 9999 FEW020 31/19 Q1012","temp":31,"dewp":19,"wdir":120,"wspd":5,"visib":"6+","altim":1012,"clouds":[{"cover":"FEW","base":2000}],"obsTime":1777230000},"SBKP":{"icaoId":"SBKP","flightCategory":"VFR","rawOb":"METAR SBKP 261900Z 31013KT 280V340 9999 SCT045 31/16 Q1013","temp":31,"dewp":16,"wdir":310,"wspd":13,"visib":"6+","altim":1013,"clouds":[{"cover":"SCT","base":4500}],"obsTime":1777230000},"SBLO":{"icaoId":"SBLO","flightCategory":"VFR","rawOb":"METAR SBLO 261900Z 31014KT 9999 SCT040 31/18 Q1011","temp":31,"dewp":18,"wdir":310,"wspd":14,"visib":"6+","altim":1011,"clouds":[{"cover":"SCT","base":4000}],"obsTime":1777230000},"SBMA":{"icaoId":"SBMA","flightCategory":"MVFR","rawOb":"METAR SBMA 261900Z 31002KT 9999 BKN025 33/22 Q1009","temp":33,"dewp":22,"wdir":310,"wspd":2,"visib":"6+","altim":1009,"clouds":[{"cover":"BKN","base":2500}],"obsTime":1777230000},"SBME":{"icaoId":"SBME","flightCategory":"VFR","rawOb":"METAR SBME 261900Z 12005KT CAVOK 30/23 Q1009","temp":30,"dewp":23,"wdir":120,"wspd":5,"visib":"6+","altim":1009,"clouds":[],"obsTime":1777230000},"SBMG":{"icaoId":"SBMG","flightCategory":"VFR","rawOb":"METAR SBMG 261900Z 17008KT 9999 FEW045 25/21 Q1010","temp":25,"dewp":21,"wdir":170,"wspd":8,"visib":"6+","altim":1010,"clouds":[{"cover":"FEW","base":4500}],"obsTime":1777230000},"SBMK":{"icaoId":"SBMK","flightCategory":"VFR","rawOb":"METAR SBMK 261900Z 05002KT 9999 SCT045 31/17 Q1013","temp":31,"dewp":17,"wdir":50,"wspd":2,"visib":"6+","altim":1013,"clouds":[{"cover":"SCT","base":4500}],"obsTime":1777230000},"SBMO":{"icaoId":"SBMO","flightCategory":"VFR","rawOb":"METAR SBMO 261900Z 15009KT 9999 SCT030 29/23 Q1012","temp":29,"dewp":23,"wdir":150,"wspd":9,"visib":"6+","altim":1012,"clouds":[{"cover":"SCT","base":3000}],"obsTime":1777230000},"SBMQ":{"icaoId":"SBMQ","flightCategory":"VFR","rawOb":"METAR SBMQ 261900Z 08006KT 9999 SCT027 32/22 Q1009","temp":32,"dewp":22,"wdir":80,"wspd":6,"visib":"6+","altim":1009,"clouds":[{"cover":"SCT","base":2700}],"obsTime":1777230000},"SBNT":{"icaoId":"SBNT","flightCategory":"VFR","rawOb":"METAR SBNT 261900Z 14012KT 9999 FEW029 SCT100 29/24 Q1010","temp":29,"dewp":24,"wdir":140,"wspd":12,"visib":"6+","altim":1010,"clouds":[{"cover":"FEW","base":2900},{"cover":"SCT","base":10000}],"obsTime":1777230000},"SBPA":{"icaoId":"SBPA","flightCategory":"VFR","rawOb":"METAR SBPA 261900Z 29011KT 9999 FEW028 25/18 Q1007","temp":25,"dewp":18,"wdir":290,"wspd":11,"visib":"6+","altim":1007,"clouds":[{"cover":"FEW","base":2800}],"obsTime":1777230000},"SBPJ":{"icaoId":"SBPJ","flightCategory":"VFR","rawOb":"METAR SBPJ 261900Z 27004KT 9999 SCT030 33/23 Q1010","temp":33,"dewp":23,"wdir":270,"wspd":4,"visib":"6+","altim":1010,"clouds":[{"cover":"SCT","base":3000}],"obsTime":1777230000},"SBPV":{"icaoId":"SBPV","flightCategory":"VFR","rawOb":"METAR SBPV 261900Z 35005KT 270V010 9999 VCSH SCT030 FEW035TCU SCT070 31/26 Q1008","temp":31,"dewp":26,"wdir":350,"wspd":5,"visib":"6+","altim":1008,"clouds":[{"cover":"SCT","base":3000},{"cover":"FEW","base":3500},{"cover":"SCT","base":7000}],"obsTime":1777230000},"SBRB":{"icaoId":"SBRB","flightCategory":"MVFR","rawOb":"METAR SBRB 261900Z 21004KT 180V240 8000 VCSH BKN030 SCT090 29/25 Q1009","temp":29,"dewp":25,"wdir":210,"wspd":4,"visib":4.97,"altim":1009,"clouds":[{"cover":"BKN","base":3000},{"cover":"SCT","base":9000}],"obsTime":1777230000},"SBRF":{"icaoId":"SBRF","flightCategory":"VFR","rawOb":"METAR SBRF 261900Z 16011KT 9999 FEW025 29/23 Q1011","temp":29,"dewp":23,"wdir":160,"wspd":11,"visib":"6+","altim":1011,"clouds":[{"cover":"FEW","base":2500}],"obsTime":1777230000},"SBSG":{"icaoId":"SBSG","flightCategory":"VFR","rawOb":"METAR SBSG 261900Z 12007KT 9999 SCT030 FEW033TCU 28/23 Q1011","temp":28,"dewp":23,"wdir":120,"wspd":7,"visib":"6+","altim":1011,"clouds":[{"cover":"SCT","base":3000},{"cover":"FEW","base":3300}],"obsTime":1777230000},"SBSL":{"icaoId":"SBSL","flightCategory":"MVFR","rawOb":"METAR SBSL 261900Z 02011KT 9999 BKN020 28/24 Q1009","temp":28,"dewp":24,"wdir":20,"wspd":11,"visib":"6+","altim":1009,"clouds":[{"cover":"BKN","base":2000}],"obsTime":1777230000},"SBSN":{"icaoId":"SBSN","flightCategory":"VFR","rawOb":"METAR SBSN 261900Z 21004KT 140V240 9999 FEW021 FEW027TCU SCT100 28/24 Q1009","temp":28,"dewp":24,"wdir":210,"wspd":4,"visib":"6+","altim":1009,"clouds":[{"cover":"FEW","base":2100},{"cover":"FEW","base":2700},{"cover":"SCT","base":10000}],"obsTime":1777230000},"SBSP":{"icaoId":"SBSP","flightCategory":"VFR","rawOb":"METAR SBSP 261900Z 34011KT 300V020 CAVOK 29/15 Q1014","temp":29,"dewp":15,"wdir":340,"wspd":11,"visib":"6+","altim":1014,"clouds":[],"obsTime":1777230000},"SBSV":{"icaoId":"SBSV","flightCategory":"VFR","rawOb":"METAR SBSV 261900Z 12007KT 090V180 9999 VCSH SCT023 FEW025TCU 29/22 Q1012","temp":29,"dewp":22,"wdir":120,"wspd":7,"visib":"6+","altim":1012,"clouds":[{"cover":"SCT","base":2300},{"cover":"FEW","base":2500}],"obsTime":1777230000},"SBTE":{"icaoId":"SBTE","flightCategory":"VFR","rawOb":"METAR SBTE 261900Z 08003KT 9999 SCT035 31/24 Q1009","temp":31,"dewp":24,"wdir":80,"wspd":3,"visib":"6+","altim":1009,"clouds":[{"cover":"SCT","base":3500}],"obsTime":1777230000},"SBUL":{"icaoId":"SBUL","flightCategory":"VFR","rawOb":"METAR SBUL 261900Z 04007KT CAVOK 28/15 Q1016","temp":28,"dewp":15,"wdir":40,"wspd":7,"visib":"6+","altim":1016,"clouds":[],"obsTime":1777230000},"SBUR":{"icaoId":"SBUR","flightCategory":"VFR","rawOb":"METAR SBUR 261900Z 29006KT CAVOK 31/14 Q1014","temp":31,"dewp":14,"wdir":290,"wspd":6,"visib":"6+","altim":1014,"clouds":[],"obsTime":1777230000},"SBVT":{"icaoId":"SBVT","flightCategory":"VFR","rawOb":"METAR SBVT 261900Z 05011KT 9999 FEW040 30/24 Q1009","temp":30,"dewp":24,"wdir":50,"wspd":11,"visib":"6+","altim":1009,"clouds":[{"cover":"FEW","base":4000}],"obsTime":1777230000},"SBOI":{"icaoId":"SBOI","flightCategory":"VFR","rawOb":"METAR SBOI 261900Z AUTO 06008KT 020V090 9999 FEW038 31/24 Q1010","temp":31,"dewp":24,"wdir":60,"wspd":8,"visib":"6+","altim":1010,"clouds":[{"cover":"FEW","base":3800}],"obsTime":1777230000},"SBCO":{"icaoId":"SBCO","flightCategory":"VFR","rawOb":"METAR SBCO 261900Z 27011KT 250V310 9999 FEW027 25/18 Q1007","temp":25,"dewp":18,"wdir":270,"wspd":11,"visib":"6+","altim":1007,"clouds":[{"cover":"FEW","base":2700}],"obsTime":1777230000},"SBPB":{"icaoId":"SBPB","flightCategory":"VFR","rawOb":"METAR SBPB 261900Z 02009KT 9999 SCT020 FEW025TCU 28/26 Q1009","temp":28,"dewp":26,"wdir":20,"wspd":9,"visib":"6+","altim":1009,"clouds":[{"cover":"SCT","base":2000},{"cover":"FEW","base":2500}],"obsTime":1777230000},"SBBH":{"icaoId":"SBBH","flightCategory":"VFR","rawOb":"METAR SBBH 261900Z 25007KT CAVOK 28/16 Q1015","temp":28,"dewp":16,"wdir":250,"wspd":7,"visib":"6+","altim":1015,"clouds":[],"obsTime":1777230000},"SBPL":{"icaoId":"SBPL","flightCategory":"VFR","rawOb":"METAR SBPL 261900Z 15008KT 9999 FEW035 33/17 Q1011","temp":33,"dewp":17,"wdir":150,"wspd":8,"visib":"6+","altim":1011,"clouds":[{"cover":"FEW","base":3500}],"obsTime":1777230000},"SBDN":{"icaoId":"SBDN","flightCategory":"VFR","rawOb":"METAR SBDN 261900Z 29012KT CAVOK 34/17 Q1011","temp":34,"dewp":17,"wdir":290,"wspd":12,"visib":"6+","altim":1011,"clouds":[],"obsTime":1777230000},"SBPP":{"icaoId":"SBPP","flightCategory":"MVFR","rawOb":"METAR SBPP 261900Z 26006KT 9999 BKN020 26/18 Q1012","temp":26,"dewp":18,"wdir":260,"wspd":6,"visib":"6+","altim":1012,"clouds":[{"cover":"BKN","base":2000}],"obsTime":1777230000},"SBCA":{"icaoId":"SBCA","flightCategory":"LIFR","rawOb":"METAR SBCA 261900Z 35008KT 4000 BR BCFG SCT001 BKN003 20/20 Q1012","temp":20,"dewp":20,"wdir":350,"wspd":8,"visib":2.49,"altim":1012,"clouds":[{"cover":"SCT","base":100},{"cover":"BKN","base":300}],"obsTime":1777230000},"SBPS":{"icaoId":"SBPS","flightCategory":"VFR","rawOb":"METAR SBPS 261900Z 07011KT 9999 SCT020 28/23 Q1012","temp":28,"dewp":23,"wdir":70,"wspd":11,"visib":"6+","altim":1012,"clouds":[{"cover":"SCT","base":2000}],"obsTime":1777230000},"SBSC":{"icaoId":"SBSC","flightCategory":"VFR","rawOb":"METAR SBSC 261900Z 20008KT CAVOK 28/23 Q1009","temp":28,"dewp":23,"wdir":200,"wspd":8,"visib":"6+","altim":1009,"clouds":[],"obsTime":1777230000},"SBES":{"icaoId":"SBES","flightCategory":"VFR","rawOb":"METAR SBES 261900Z 18008KT 120V220 CAVOK 31/// Q1009","temp":null,"dewp":null,"wdir":180,"wspd":8,"visib":"6+","altim":1009,"clouds":[],"obsTime":1777230000},"SBSJ":{"icaoId":"SBSJ","flightCategory":"VFR","rawOb":"METAR SBSJ 261900Z 25010KT CAVOK 31/16 Q1013","temp":31,"dewp":16,"wdir":250,"wspd":10,"visib":"6+","altim":1013,"clouds":[],"obsTime":1777230000},"SBAX":{"icaoId":"SBAX","flightCategory":"VFR","rawOb":"METAR SBAX 261900Z AUTO 31004KT 280V010 CAVOK 29/12 Q1016","temp":29,"dewp":12,"wdir":310,"wspd":4,"visib":"6+","altim":1016,"clouds":[],"obsTime":1777230000},"SBSM":{"icaoId":"SBSM","flightCategory":"VFR","rawOb":"METAR SBSM 261900Z 26005KT 9999 SCT045 27/15 Q1008","temp":27,"dewp":15,"wdir":260,"wspd":5,"visib":"6+","altim":1008,"clouds":[{"cover":"SCT","base":4500}],"obsTime":1777230000},"SBCC":{"icaoId":"SBCC","flightCategory":"VFR","rawOb":"METAR SBCC 261900Z 06006KT 9999 SCT020 31/20 Q1011","temp":31,"dewp":20,"wdir":60,"wspd":6,"visib":"6+","altim":1011,"clouds":[{"cover":"SCT","base":2000}],"obsTime":1777230000},"SBSR":{"icaoId":"SBSR","flightCategory":"VFR","rawOb":"METAR SBSR 261900Z 28005KT 9999 SCT030 33/15 Q1012","temp":33,"dewp":15,"wdir":280,"wspd":5,"visib":"6+","altim":1012,"clouds":[{"cover":"SCT","base":3000}],"obsTime":1777230000},"SBIP":{"icaoId":"SBIP","flightCategory":"VFR","rawOb":"METAR SBIP 261900Z AUTO 12004KT 030V170 CAVOK 32/17 Q1011","temp":32,"dewp":17,"wdir":120,"wspd":4,"visib":"6+","altim":1011,"clouds":[],"obsTime":1777230000},"SBAR":{"icaoId":"SBAR","flightCategory":"VFR","rawOb":"METAR SBAR 261900Z 13008KT 9999 FEW025 29/22 Q1011","temp":29,"dewp":22,"wdir":130,"wspd":8,"visib":"6+","altim":1011,"clouds":[{"cover":"FEW","base":2500}],"obsTime":1777230000},"SBTF":{"icaoId":"SBTF","flightCategory":"VFR","rawOb":"METAR SBTF 261900Z 33008KT 9999 SCT020 FEW025TCU 33/26 Q1008","temp":33,"dewp":26,"wdir":330,"wspd":8,"visib":"6+","altim":1008,"clouds":[{"cover":"SCT","base":2000},{"cover":"FEW","base":2500}],"obsTime":1777230000},"SBKG":{"icaoId":"SBKG","flightCategory":"VFR","rawOb":"METAR SBKG 261900Z 13008KT 9999 FEW030 27/20 Q1013","temp":27,"dewp":20,"wdir":130,"wspd":8,"visib":"6+","altim":1013,"clouds":[{"cover":"FEW","base":3000}],"obsTime":1777230000},"SBTT":{"icaoId":"SBTT","flightCategory":"MVFR","rawOb":"METAR SBTT 261900Z 36002KT 6000 -RA BKN024 FEW030TCU 25/22 Q1010","temp":25,"dewp":22,"wdir":360,"wspd":2,"visib":3.73,"altim":1010,"clouds":[{"cover":"BKN","base":2400},{"cover":"FEW","base":3000}],"obsTime":1777230000},"SBCJ":{"icaoId":"SBCJ","flightCategory":"VFR","rawOb":"METAR SBCJ 261900Z 08002KT 9999 FEW030 28/21 Q1013","temp":28,"dewp":21,"wdir":80,"wspd":2,"visib":"6+","altim":1013,"clouds":[{"cover":"FEW","base":3000}],"obsTime":1777230000},"SBUY":{"icaoId":"SBUY","flightCategory":"VFR","rawOb":"METAR SBUY 261900Z 35003KT 9999 VCSH SCT025 FEW030TCU BKN090 32/24 Q1007","temp":32,"dewp":24,"wdir":350,"wspd":3,"visib":"6+","altim":1007,"clouds":[{"cover":"SCT","base":2500},{"cover":"FEW","base":3000},{"cover":"BKN","base":9000}],"obsTime":1777230000},"SBVH":{"icaoId":"SBVH","flightCategory":"VFR","rawOb":"METAR SBVH 261900Z 09002KT 9999 SCT035 FEW040TCU BKN088 26/23 Q1012","temp":26,"dewp":23,"wdir":90,"wspd":2,"visib":"6+","altim":1012,"clouds":[{"cover":"SCT","base":3500},{"cover":"FEW","base":4000},{"cover":"BKN","base":8800}],"obsTime":1777230000},"SBBU":{"icaoId":"SBBU","flightCategory":"VFR","rawOb":"METAR SBBU 261900Z /////KT 9999 SCT048 32/18 Q1012","temp":32,"dewp":18,"wdir":null,"wspd":null,"visib":"6+","altim":1012,"clouds":[{"cover":"SCT","base":4800}],"obsTime":1777230000},"SBBQ":{"icaoId":"SBBQ","flightCategory":"VFR","rawOb":"METAR SBBQ 261900Z 29006KT 9999 FEW045 27/13 Q1018","temp":27,"dewp":13,"wdir":290,"wspd":6,"visib":"6+","altim":1018,"clouds":[{"cover":"FEW","base":4500}],"obsTime":1777230000},"SBGM":{"icaoId":"SBGM","flightCategory":"VFR","rawOb":"METAR SBGM 261900Z 35003KT 9999 SCT020 SCT060 25/23 Q1009 RETS","temp":25,"dewp":23,"wdir":350,"wspd":3,"visib":"6+","altim":1009,"clouds":[{"cover":"SCT","base":2000},{"cover":"SCT","base":6000}],"obsTime":1777230000},"SBAN":{"icaoId":"SBAN","flightCategory":"VFR","rawOb":"METAR SBAN 261900Z VRB03KT 9999 SCT045 30/14 Q1017","temp":30,"dewp":14,"wdir":"VRB","wspd":3,"visib":"6+","altim":1017,"clouds":[{"cover":"SCT","base":4500}],"obsTime":1777230000},"SBIH":{"icaoId":"SBIH","flightCategory":"VFR","rawOb":"METAR SBIH 261900Z 32010KT 9999 TS SCT020 FEW025CB 30/25 Q1008","temp":30,"dewp":25,"wdir":320,"wspd":10,"visib":"6+","altim":1008,"clouds":[{"cover":"SCT","base":2000},{"cover":"FEW","base":2500}],"obsTime":1777230000},"SBJV":{"icaoId":"SBJV","flightCategory":"MVFR","rawOb":"METAR SBJV 261900Z 17005KT 140V210 7000 -RA BKN012 SCT030 23/22 Q1008","temp":23,"dewp":22,"wdir":170,"wspd":5,"visib":4.35,"altim":1008,"clouds":[{"cover":"BKN","base":1200},{"cover":"SCT","base":3000}],"obsTime":1777230000},"SBPF":{"icaoId":"SBPF","flightCategory":"VFR","rawOb":"METAR SBPF 261900Z AUTO 24008KT 190V290 //// BKN037/// 23/14 Q1012","temp":23,"dewp":14,"wdir":240,"wspd":8,"visib":"","altim":1012,"clouds":[{"cover":"BKN","base":3700}],"obsTime":1777230000},"SBLE":{"icaoId":"SBLE","flightCategory":"VFR","rawOb":"METAR SBLE 261900Z AUTO 14004KT 080V170 CAVOK 29/20 Q1014","temp":29,"dewp":20,"wdir":140,"wspd":4,"visib":"6+","altim":1014,"clouds":[],"obsTime":1777230000},"SBTC":{"icaoId":"SBTC","flightCategory":"VFR","rawOb":"METAR SBTC 261900Z 11005KT 9999 FEW025 28/23 Q1012","temp":28,"dewp":23,"wdir":110,"wspd":5,"visib":"6+","altim":1012,"clouds":[{"cover":"FEW","base":2500}],"obsTime":1777230000},"SBAF":{"icaoId":"SBAF","flightCategory":"VFR","rawOb":"METAR SBAF 261900Z 19008KT CAVOK 33/20 Q1009","temp":33,"dewp":20,"wdir":190,"wspd":8,"visib":"6+","altim":1009,"clouds":[],"obsTime":1777230000},"SBGW":{"icaoId":"SBGW","flightCategory":"VFR","rawOb":"METAR SBGW 261900Z 36003KT 250V060 9999 FEW025 31/14 Q1012","temp":31,"dewp":14,"wdir":360,"wspd":3,"visib":"6+","altim":1012,"clouds":[{"cover":"FEW","base":2500}],"obsTime":1777230000},"SBJR":{"icaoId":"SBJR","flightCategory":"VFR","rawOb":"METAR SBJR 261900Z 17007KT CAVOK 30/21 Q1009","temp":30,"dewp":21,"wdir":170,"wspd":7,"visib":"6+","altim":1009,"clouds":[],"obsTime":1777230000},"SBLS":{"icaoId":"SBLS","flightCategory":"VFR","rawOb":"METAR SBLS 261900Z VRB02KT 9999 SCT040 28/15 Q1015","temp":28,"dewp":15,"wdir":"VRB","wspd":2,"visib":"6+","altim":1015,"clouds":[{"cover":"SCT","base":4000}],"obsTime":1777230000},"SBMT":{"icaoId":"SBMT","flightCategory":"VFR","rawOb":"METAR SBMT 261900Z 31009KT 9999 SCT030 30/15 Q1013","temp":30,"dewp":15,"wdir":310,"wspd":9,"visib":"6+","altim":1013,"clouds":[{"cover":"SCT","base":3000}],"obsTime":1777230000},"SBST":{"icaoId":"SBST","flightCategory":"VFR","rawOb":"METAR SBST 261900Z 14007KT CAVOK 31/22 Q1007","temp":31,"dewp":22,"wdir":140,"wspd":7,"visib":"6+","altim":1007,"clouds":[],"obsTime":1777230000},"SBTA":{"icaoId":"SBTA","flightCategory":"VFR","rawOb":"METAR SBTA 261900Z VRB04KT 9999 FEW035 SCT070 31/16 Q1011","temp":31,"dewp":16,"wdir":"VRB","wspd":4,"visib":"6+","altim":1011,"clouds":[{"cover":"FEW","base":3500},{"cover":"SCT","base":7000}],"obsTime":1777230000},"SBJP":{"icaoId":"SBJP","flightCategory":"VFR","rawOb":"METAR SBJP 261900Z 12013KT 9999 FEW030 29/22 Q1011","temp":29,"dewp":22,"wdir":120,"wspd":13,"visib":"6+","altim":1011,"clouds":[{"cover":"FEW","base":3000}],"obsTime":1777230000}}}