{"updated":1774361429,"count":87,"data":{"SBMA":{"icaoId":"SBMA","flightCategory":"VFR","rawOb":"METAR SBMA 241300Z 21003KT 9999 FEW010 SCT012 BKN090 27/24 Q1013","temp":27,"dewp":24,"wdir":210,"wspd":3,"visib":"6+","altim":1013,"clouds":[{"cover":"FEW","base":1000},{"cover":"SCT","base":1200},{"cover":"BKN","base":9000}],"obsTime":1774357200},"SBFI":{"icaoId":"SBFI","flightCategory":"IFR","rawOb":"SPECI SBFI 241237Z 18004KT 9999 OVC007 27/25 Q1012","temp":27,"dewp":25,"wdir":180,"wspd":4,"visib":"6+","altim":1012,"clouds":[{"cover":"OVC","base":700}],"obsTime":1774355820},"SBCB":{"icaoId":"SBCB","flightCategory":"VFR","rawOb":"METAR SBCB 241300Z 04019KT 9999 FEW015 28/22 Q1013","temp":28,"dewp":22,"wdir":40,"wspd":19,"visib":"6+","altim":1013,"clouds":[{"cover":"FEW","base":1500}],"obsTime":1774357200},"SBFL":{"icaoId":"SBFL","flightCategory":"VFR","rawOb":"METAR SBFL 241300Z 34014KT 9999 FEW020 28/23 Q1010","temp":28,"dewp":23,"wdir":340,"wspd":14,"visib":"6+","altim":1010,"clouds":[{"cover":"FEW","base":2000}],"obsTime":1774357200},"SBMO":{"icaoId":"SBMO","flightCategory":"VFR","rawOb":"METAR SBMO 241300Z 09012KT 9999 SCT030 31/22 Q1013","temp":31,"dewp":22,"wdir":90,"wspd":12,"visib":"6+","altim":1013,"clouds":[{"cover":"SCT","base":3000}],"obsTime":1774357200},"SBCR":{"icaoId":"SBCR","flightCategory":"VFR","rawOb":"METAR SBCR 241300Z 21009KT 170V260 9999 SCT026 28/24 Q1011","temp":28,"dewp":24,"wdir":210,"wspd":9,"visib":"6+","altim":1011,"clouds":[{"cover":"SCT","base":2600}],"obsTime":1774357200},"SBFZ":{"icaoId":"SBFZ","flightCategory":"MVFR","rawOb":"METAR SBFZ 241300Z 11012KT 9999 BKN025 30/24 Q1011","temp":30,"dewp":24,"wdir":110,"wspd":12,"visib":"6+","altim":1011,"clouds":[{"cover":"BKN","base":2500}],"obsTime":1774357200},"SBMQ":{"icaoId":"SBMQ","flightCategory":"VFR","rawOb":"METAR SBMQ 241300Z 04011KT 9999 SCT016 BKN036 29/25 Q1013","temp":29,"dewp":25,"wdir":40,"wspd":11,"visib":"6+","altim":1013,"clouds":[{"cover":"SCT","base":1600},{"cover":"BKN","base":3600}],"obsTime":1774357200},"SBGL":{"icaoId":"SBGL","flightCategory":"VFR","rawOb":"METAR SBGL 241300Z 06007KT 030V090 CAVOK 28/22 Q1012","temp":28,"dewp":22,"wdir":60,"wspd":7,"visib":"6+","altim":1012,"clouds":[],"obsTime":1774357200},"SBNT":{"icaoId":"SBNT","flightCategory":"VFR","rawOb":"METAR SBNT 241300Z 11013KT 080V140 9999 SCT030 31/22 Q1012","temp":31,"dewp":22,"wdir":110,"wspd":13,"visib":"6+","altim":1012,"clouds":[{"cover":"SCT","base":3000}],"obsTime":1774357200},"SBPA":{"icaoId":"SBPA","flightCategory":"MVFR","rawOb":"METAR SBPA 241300Z VRB02KT 5000 -DZ BKN010 OVC030 21/19 Q1013","temp":21,"dewp":19,"wdir":"VRB","wspd":2,"visib":3.11,"altim":1013,"clouds":[{"cover":"BKN","base":1000},{"cover":"OVC","base":3000}],"obsTime":1774357200},"SBBE":{"icaoId":"SBBE","flightCategory":"MVFR","rawOb":"METAR SBBE 241300Z 03007KT 9999 BKN020 29/25 Q1013","temp":29,"dewp":25,"wdir":30,"wspd":7,"visib":"6+","altim":1013,"clouds":[{"cover":"BKN","base":2000}],"obsTime":1774357200},"SBVT":{"icaoId":"SBVT","flightCategory":"MVFR","rawOb":"METAR SBVT 241300Z 01009KT 9999 FEW009 BKN015 BKN080 26/23 Q1015","temp":26,"dewp":23,"wdir":10,"wspd":9,"visib":"6+","altim":1015,"clouds":[{"cover":"FEW","base":900},{"cover":"BKN","base":1500},{"cover":"BKN","base":8000}],"obsTime":1774357200},"SBCT":{"icaoId":"SBCT","flightCategory":"MVFR","rawOb":"METAR SBCT 241300Z 05005KT 010V080 9999 OVC010 22/20 Q1016","temp":22,"dewp":20,"wdir":50,"wspd":5,"visib":"6+","altim":1016,"clouds":[{"cover":"OVC","base":1000}],"obsTime":1774357200},"SBPJ":{"icaoId":"SBPJ","flightCategory":"VFR","rawOb":"METAR SBPJ 241300Z 30003KT 9999 SCT016 BKN100 28/23 Q1014","temp":28,"dewp":23,"wdir":300,"wspd":3,"visib":"6+","altim":1014,"clouds":[{"cover":"SCT","base":1600},{"cover":"BKN","base":10000}],"obsTime":1774357200},"SBPV":{"icaoId":"SBPV","flightCategory":"VFR","rawOb":"METAR SBPV 241300Z 07004KT 9999 FEW007 27/24 Q1010","temp":27,"dewp":24,"wdir":70,"wspd":4,"visib":"6+","altim":1010,"clouds":[{"cover":"FEW","base":700}],"obsTime":1774357200},"SBGO":{"icaoId":"SBGO","flightCategory":"VFR","rawOb":"METAR SBGO 241300Z 31011KT 280V340 9999 FEW026 26/21 Q1016","temp":26,"dewp":21,"wdir":310,"wspd":11,"visib":"6+","altim":1016,"clouds":[{"cover":"FEW","base":2600}],"obsTime":1774357200},"SBRB":{"icaoId":"SBRB","flightCategory":"VFR","rawOb":"METAR SBRB 241300Z 31002KT CAVOK 29/26 Q1011","temp":29,"dewp":26,"wdir":310,"wspd":2,"visib":"6+","altim":1011,"clouds":[],"obsTime":1774357200},"SBBV":{"icaoId":"SBBV","flightCategory":"VFR","rawOb":"METAR SBBV 241300Z 08013KT 9999 FEW035 SCT070 31/22 Q1011","temp":31,"dewp":22,"wdir":80,"wspd":13,"visib":"6+","altim":1011,"clouds":[{"cover":"FEW","base":3500},{"cover":"SCT","base":7000}],"obsTime":1774357200},"SBGR":{"icaoId":"SBGR","flightCategory":"VFR","rawOb":"METAR SBGR 241300Z 06009KT 9999 SCT020 23/18 Q1016","temp":23,"dewp":18,"wdir":60,"wspd":9,"visib":"6+","altim":1016,"clouds":[{"cover":"SCT","base":2000}],"obsTime":1774357200},"SBRF":{"icaoId":"SBRF","flightCategory":"VFR","rawOb":"METAR SBRF 241300Z 09007KT 9999 FEW025 31/23 Q1013","temp":31,"dewp":23,"wdir":90,"wspd":7,"visib":"6+","altim":1013,"clouds":[{"cover":"FEW","base":2500}],"obsTime":1774357200},"SBCF":{"icaoId":"SBCF","flightCategory":"VFR","rawOb":"METAR SBCF 241300Z 02006KT 9999 SCT025 24/17 Q1018","temp":24,"dewp":17,"wdir":20,"wspd":6,"visib":"6+","altim":1018,"clouds":[{"cover":"SCT","base":2500}],"obsTime":1774357200},"SBSG":{"icaoId":"SBSG","flightCategory":"MVFR","rawOb":"METAR SBSG 241300Z 13007KT 090V160 9999 BKN027 29/23 Q1013","temp":29,"dewp":23,"wdir":130,"wspd":7,"visib":"6+","altim":1013,"clouds":[{"cover":"BKN","base":2700}],"obsTime":1774357200},"SBCZ":{"icaoId":"SBCZ","flightCategory":"VFR","rawOb":"METAR SBCZ 241300Z VRB02KT 9999 FEW004 25/24 Q1011","temp":25,"dewp":24,"wdir":"VRB","wspd":2,"visib":"6+","altim":1011,"clouds":[{"cover":"FEW","base":400}],"obsTime":1774357200},"SBSL":{"icaoId":"SBSL","flightCategory":"VFR","rawOb":"METAR SBSL 241300Z 07010KT 9999 SCT020 SCT030 30/24 Q1012","temp":30,"dewp":24,"wdir":70,"wspd":10,"visib":"6+","altim":1012,"clouds":[{"cover":"SCT","base":2000},{"cover":"SCT","base":3000}],"obsTime":1774357200},"SBSN":{"icaoId":"SBSN","flightCategory":"VFR","rawOb":"METAR SBSN 241300Z 10015KT 9999 SCT017 SCT100 29/25 Q1011","temp":29,"dewp":25,"wdir":100,"wspd":15,"visib":"6+","altim":1011,"clouds":[{"cover":"SCT","base":1700},{"cover":"SCT","base":10000}],"obsTime":1774357200},"SBBR":{"icaoId":"SBBR","flightCategory":"VFR","rawOb":"METAR SBBR 241300Z 08006KT 010V110 9999 FEW020 SCT100 24/17 Q1018","temp":24,"dewp":17,"wdir":80,"wspd":6,"visib":"6+","altim":1018,"clouds":[{"cover":"FEW","base":2000},{"cover":"SCT","base":10000}],"obsTime":1774357200},"SBKP":{"icaoId":"SBKP","flightCategory":"VFR","rawOb":"METAR SBKP 241300Z 03004KT 330V100 CAVOK 25/17 Q1014","temp":25,"dewp":17,"wdir":30,"wspd":4,"visib":"6+","altim":1014,"clouds":[],"obsTime":1774357200},"SBSP":{"icaoId":"SBSP","flightCategory":"VFR","rawOb":"METAR SBSP 241300Z 10005KT CAVOK 24/17 Q1016","temp":24,"dewp":17,"wdir":100,"wspd":5,"visib":"6+","altim":1016,"clouds":[],"obsTime":1774357200},"SBSV":{"icaoId":"SBSV","flightCategory":"VFR","rawOb":"METAR SBSV 241300Z 09010KT 9999 VCSH SCT021 FEW025TCU BKN070 29/22 Q1013","temp":29,"dewp":22,"wdir":90,"wspd":10,"visib":"6+","altim":1013,"clouds":[{"cover":"SCT","base":2100},{"cover":"FEW","base":2500},{"cover":"BKN","base":7000}],"obsTime":1774357200},"SBEG":{"icaoId":"SBEG","flightCategory":"VFR","rawOb":"METAR SBEG 241300Z 09008KT 9999 FEW015 30/24 Q1011","temp":30,"dewp":24,"wdir":90,"wspd":8,"visib":"6+","altim":1011,"clouds":[{"cover":"FEW","base":1500}],"obsTime":1774357200},"SBTE":{"icaoId":"SBTE","flightCategory":"MVFR","rawOb":"METAR SBTE 241300Z 01003KT 9999 BKN018 29/24 Q1012","temp":29,"dewp":24,"wdir":10,"wspd":3,"visib":"6+","altim":1012,"clouds":[{"cover":"BKN","base":1800}],"obsTime":1774357200},"SBLO":{"icaoId":"SBLO","flightCategory":"VFR","rawOb":"METAR SBLO 241300Z 07005KT 010V140 9999 SCT013 26/22 Q1013","temp":26,"dewp":22,"wdir":70,"wspd":5,"visib":"6+","altim":1013,"clouds":[{"cover":"SCT","base":1300}],"obsTime":1774357200},"SBCG":{"icaoId":"SBCG","flightCategory":"VFR","rawOb":"METAR SBCG 241300Z 19003KT 150V240 CAVOK 30/21 Q1013","temp":30,"dewp":21,"wdir":190,"wspd":3,"visib":"6+","altim":1013,"clouds":[],"obsTime":1774357200},"SBUL":{"icaoId":"SBUL","flightCategory":"VFR","rawOb":"METAR SBUL 241300Z 09009KT 9999 SCT040 BKN080 25/18 Q1017","temp":25,"dewp":18,"wdir":90,"wspd":9,"visib":"6+","altim":1017,"clouds":[{"cover":"SCT","base":4000},{"cover":"BKN","base":8000}],"obsTime":1774357200},"SBUR":{"icaoId":"SBUR","flightCategory":"VFR","rawOb":"METAR SBUR 241300Z 10005KT 9999 FEW040 BKN094 28/19 Q1015","temp":28,"dewp":19,"wdir":100,"wspd":5,"visib":"6+","altim":1015,"clouds":[{"cover":"FEW","base":4000},{"cover":"BKN","base":9400}],"obsTime":1774357200},"SBCP":{"icaoId":"SBCP","flightCategory":"MVFR","rawOb":"METAR SBCP 241300Z 05013KT 9999 BKN015 29/23 Q1014","temp":29,"dewp":23,"wdir":50,"wspd":13,"visib":"6+","altim":1014,"clouds":[{"cover":"BKN","base":1500}],"obsTime":1774357200},"SBHT":{"icaoId":"SBHT","flightCategory":"VFR","rawOb":"METAR SBHT 241300Z 09005KT 9999 FEW015 BKN090 28/22 Q1013","temp":28,"dewp":22,"wdir":90,"wspd":5,"visib":"6+","altim":1013,"clouds":[{"cover":"FEW","base":1500},{"cover":"BKN","base":9000}],"obsTime":1774357200},"SBIL":{"icaoId":"SBIL","flightCategory":"MVFR","rawOb":"METAR SBIL 241300Z 12005KT 090V180 9999 2000SE -SHRA BKN018 FEW023TCU 29/25 Q1014","temp":29,"dewp":25,"wdir":120,"wspd":5,"visib":"6+","altim":1014,"clouds":[{"cover":"BKN","base":1800},{"cover":"FEW","base":2300}],"obsTime":1774357200},"SBJU":{"icaoId":"SBJU","flightCategory":"MVFR","rawOb":"METAR SBJU 241300Z COR 09007KT 9999 SCT011 BKN016 FEW020TCU 27/24 Q1015","temp":27,"dewp":24,"wdir":90,"wspd":7,"visib":"6+","altim":1015,"clouds":[{"cover":"SCT","base":1100},{"cover":"BKN","base":1600},{"cover":"FEW","base":2000}],"obsTime":1774357200},"SBME":{"icaoId":"SBME","flightCategory":"VFR","rawOb":"METAR SBME 241300Z 05011KT 9999 SCT020 30/23 Q1013","temp":30,"dewp":23,"wdir":50,"wspd":11,"visib":"6+","altim":1013,"clouds":[{"cover":"SCT","base":2000}],"obsTime":1774357200},"SBMG":{"icaoId":"SBMG","flightCategory":"VFR","rawOb":"METAR SBMG 241300Z VRB02KT CAVOK 29/22 Q1012","temp":29,"dewp":22,"wdir":"VRB","wspd":2,"visib":"6+","altim":1012,"clouds":[],"obsTime":1774357200},"SBMK":{"icaoId":"SBMK","flightCategory":"VFR","rawOb":"METAR SBMK 241300Z 06004KT CAVOK 24/19 Q1017","temp":24,"dewp":19,"wdir":60,"wspd":4,"visib":"6+","altim":1017,"clouds":[],"obsTime":1774357200},"SBAT":{"icaoId":"SBAT","flightCategory":"VFR","rawOb":"METAR SBAT 241300Z 00000KT 9999 FEW018 BKN080 25/23 Q1014","temp":25,"dewp":23,"wdir":0,"wspd":0,"visib":"6+","altim":1014,"clouds":[{"cover":"FEW","base":1800},{"cover":"BKN","base":8000}],"obsTime":1774357200},"SBOI":{"icaoId":"SBOI","flightCategory":"VFR","rawOb":"METAR SBOI 241300Z AUTO VRB02KT 9999 -RA FEW006 SCT014 24/24 Q1014 RERA","temp":24,"dewp":24,"wdir":"VRB","wspd":2,"visib":"6+","altim":1014,"clouds":[{"cover":"FEW","base":600},{"cover":"SCT","base":1400}],"obsTime":1774357200},"SBSJ":{"icaoId":"SBSJ","flightCategory":"MVFR","rawOb":"METAR SBSJ 241300Z 08005KT 040V120 6000 BKN013 24/// Q1015","temp":null,"dewp":null,"wdir":80,"wspd":5,"visib":3.73,"altim":1015,"clouds":[{"cover":"BKN","base":1300}],"obsTime":1774357200},"SBCJ":{"icaoId":"SBCJ","flightCategory":"IFR","rawOb":"METAR SBCJ 241300Z 09003KT 9999 BKN007 24/21 Q1018","temp":24,"dewp":21,"wdir":90,"wspd":3,"visib":"6+","altim":1018,"clouds":[{"cover":"BKN","base":700}],"obsTime":1774357200},"SBPL":{"icaoId":"SBPL","flightCategory":"VFR","rawOb":"METAR SBPL 241300Z 11007KT 9999 SCT030 BKN070 28/21 Q1015","temp":28,"dewp":21,"wdir":110,"wspd":7,"visib":"6+","altim":1015,"clouds":[{"cover":"SCT","base":3000},{"cover":"BKN","base":7000}],"obsTime":1774357200},"SBTD":{"icaoId":"SBTD","flightCategory":"VFR","rawOb":"METAR SBTD 241300Z /////KT 9999 FEW025 SCT040 28/21 Q1013","temp":28,"dewp":21,"wdir":null,"wspd":null,"visib":"6+","altim":1013,"clouds":[{"cover":"FEW","base":2500},{"cover":"SCT","base":4000}],"obsTime":1774357200},"SBAR":{"icaoId":"SBAR","flightCategory":"VFR","rawOb":"METAR SBAR 241300Z 09012KT 9999 FEW025 31/24 Q1013","temp":31,"dewp":24,"wdir":90,"wspd":12,"visib":"6+","altim":1013,"clouds":[{"cover":"FEW","base":2500}],"obsTime":1774357200},"SBPB":{"icaoId":"SBPB","flightCategory":"VFR","rawOb":"METAR SBPB 241300Z 08012KT 9999 SCT020 30/25 Q1011","temp":30,"dewp":25,"wdir":80,"wspd":12,"visib":"6+","altim":1011,"clouds":[{"cover":"SCT","base":2000}],"obsTime":1774357200},"SBTF":{"icaoId":"SBTF","flightCategory":"VFR","rawOb":"METAR SBTF 241300Z 25003KT 9999 FEW040 SCT100 29/25 Q1010","temp":29,"dewp":25,"wdir":250,"wspd":3,"visib":"6+","altim":1010,"clouds":[{"cover":"FEW","base":4000},{"cover":"SCT","base":10000}],"obsTime":1774357200},"SBPP":{"icaoId":"SBPP","flightCategory":"MVFR","rawOb":"METAR SBPP 241300Z 07004KT 9999 BKN015 26/23 Q1014","temp":26,"dewp":23,"wdir":70,"wspd":4,"visib":"6+","altim":1014,"clouds":[{"cover":"BKN","base":1500}],"obsTime":1774357200},"SBTT":{"icaoId":"SBTT","flightCategory":"VFR","rawOb":"METAR SBTT 241300Z 34004KT 9999 FEW004 25/22 Q1011","temp":25,"dewp":22,"wdir":340,"wspd":4,"visib":"6+","altim":1011,"clouds":[{"cover":"FEW","base":400}],"obsTime":1774357200},"SBPS":{"icaoId":"SBPS","flightCategory":"VFR","rawOb":"METAR SBPS 241300Z 10004KT 9999 SCT008 OVC050 28/25 Q1015","temp":28,"dewp":25,"wdir":100,"wspd":4,"visib":"6+","altim":1015,"clouds":[{"cover":"SCT","base":800},{"cover":"OVC","base":5000}],"obsTime":1774357200},"SBUY":{"icaoId":"SBUY","flightCategory":"VFR","rawOb":"METAR SBUY 241300Z 03003KT 9999 SCT020 BKN100 25/25 Q1010","temp":25,"dewp":25,"wdir":30,"wspd":3,"visib":"6+","altim":1010,"clouds":[{"cover":"SCT","base":2000},{"cover":"BKN","base":10000}],"obsTime":1774357200},"SBKG":{"icaoId":"SBKG","flightCategory":"VFR","rawOb":"METAR SBKG 241300Z 11004KT 9999 SCT020 29/19 Q1015","temp":29,"dewp":19,"wdir":110,"wspd":4,"visib":"6+","altim":1015,"clouds":[{"cover":"SCT","base":2000}],"obsTime":1774357200},"SBSC":{"icaoId":"SBSC","flightCategory":"VFR","rawOb":"METAR SBSC 241300Z 01007KT CAVOK 29/21 Q1012","temp":29,"dewp":21,"wdir":10,"wspd":7,"visib":"6+","altim":1012,"clouds":[],"obsTime":1774357200},"SBSM":{"icaoId":"SBSM","flightCategory":"VFR","rawOb":"METAR SBSM 241300Z 16004KT 9999 SCT023 BKN035 22/17 Q1014","temp":22,"dewp":17,"wdir":160,"wspd":4,"visib":"6+","altim":1014,"clouds":[{"cover":"SCT","base":2300},{"cover":"BKN","base":3500}],"obsTime":1774357200},"SBSR":{"icaoId":"SBSR","flightCategory":"VFR","rawOb":"METAR SBSR 241300Z VRB03KT 9999 SCT010 BKN070 25/22 Q1014","temp":25,"dewp":22,"wdir":"VRB","wspd":3,"visib":"6+","altim":1014,"clouds":[{"cover":"SCT","base":1000},{"cover":"BKN","base":7000}],"obsTime":1774357200},"SBVH":{"icaoId":"SBVH","flightCategory":"LIFR","rawOb":"METAR SBVH 241300Z 10007KT 8000 BKN004 OVC006 22/21 Q1015","temp":22,"dewp":21,"wdir":100,"wspd":7,"visib":4.97,"altim":1015,"clouds":[{"cover":"BKN","base":400},{"cover":"OVC","base":600}],"obsTime":1774357200},"SBAU":{"icaoId":"SBAU","flightCategory":"VFR","rawOb":"METAR SBAU 241300Z 03010KT 9999 FEW007 BKN071 26/22 Q1013","temp":26,"dewp":22,"wdir":30,"wspd":10,"visib":"6+","altim":1013,"clouds":[{"cover":"FEW","base":700},{"cover":"BKN","base":7100}],"obsTime":1774357200},"SBAX":{"icaoId":"SBAX","flightCategory":"VFR","rawOb":"METAR SBAX 241300Z 06005KT 9999 SCT025 SCT045 24/18 Q1017","temp":24,"dewp":18,"wdir":60,"wspd":5,"visib":"6+","altim":1017,"clouds":[{"cover":"SCT","base":2500},{"cover":"SCT","base":4500}],"obsTime":1774357200},"SBBH":{"icaoId":"SBBH","flightCategory":"VFR","rawOb":"METAR SBBH 241300Z 02004KT 9999 FEW030 SCT080 23/16 Q1018","temp":23,"dewp":16,"wdir":20,"wspd":4,"visib":"6+","altim":1018,"clouds":[{"cover":"FEW","base":3000},{"cover":"SCT","base":8000}],"obsTime":1774357200},"SBBQ":{"icaoId":"SBBQ","flightCategory":"VFR","rawOb":"METAR SBBQ 241300Z 10004KT 040V180 9999 FEW014 20/16 Q1020","temp":20,"dewp":16,"wdir":100,"wspd":4,"visib":"6+","altim":1020,"clouds":[{"cover":"FEW","base":1400}],"obsTime":1774357200},"SBBU":{"icaoId":"SBBU","flightCategory":"VFR","rawOb":"METAR SBBU 241300Z 11005KT CAVOK 29/20 Q1014","temp":29,"dewp":20,"wdir":110,"wspd":5,"visib":"6+","altim":1014,"clouds":[],"obsTime":1774357200},"SBCA":{"icaoId":"SBCA","flightCategory":"VFR","rawOb":"METAR SBCA 241300Z 28004KT 210V310 9999 BKN040 27/19 Q1015","temp":27,"dewp":19,"wdir":280,"wspd":4,"visib":"6+","altim":1015,"clouds":[{"cover":"BKN","base":4000}],"obsTime":1774357200},"SBCC":{"icaoId":"SBCC","flightCategory":"VFR","rawOb":"METAR SBCC 241300Z 32007KT 9999 SCT025 SCT100 27/21 Q1015","temp":27,"dewp":21,"wdir":320,"wspd":7,"visib":"6+","altim":1015,"clouds":[{"cover":"SCT","base":2500},{"cover":"SCT","base":10000}],"obsTime":1774357200},"SBCO":{"icaoId":"SBCO","flightCategory":"MVFR","rawOb":"METAR SBCO 241300Z 18003KT 140V240 9000 -DZ SCT008 BKN012 OVC033 20/19 Q1013","temp":20,"dewp":19,"wdir":180,"wspd":3,"visib":5.59,"altim":1013,"clouds":[{"cover":"SCT","base":800},{"cover":"BKN","base":1200},{"cover":"OVC","base":3300}],"obsTime":1774357200},"SBDN":{"icaoId":"SBDN","flightCategory":"VFR","rawOb":"METAR SBDN 241300Z 11003KT CAVOK 29/22 Q1012","temp":29,"dewp":22,"wdir":110,"wspd":3,"visib":"6+","altim":1012,"clouds":[],"obsTime":1774357200},"SBES":{"icaoId":"SBES","flightCategory":"VFR","rawOb":"METAR SBES 241300Z 05016G26KT 9999 FEW015 26/// Q1013","temp":null,"dewp":null,"wdir":50,"wspd":16,"visib":"6+","altim":1013,"clouds":[{"cover":"FEW","base":1500}],"obsTime":1774357200},"SBGM":{"icaoId":"SBGM","flightCategory":"VFR","rawOb":"METAR SBGM 241300Z 35006KT CAVOK 27/23 Q1011","temp":27,"dewp":23,"wdir":350,"wspd":6,"visib":"6+","altim":1011,"clouds":[],"obsTime":1774357200},"SBIP":{"icaoId":"SBIP","flightCategory":"MVFR","rawOb":"METAR SBIP 241300Z AUTO VRB01KT 8000 OVC024 22/19 Q1016","temp":22,"dewp":19,"wdir":"VRB","wspd":1,"visib":4.97,"altim":1016,"clouds":[{"cover":"OVC","base":2400}],"obsTime":1774357200},"SBJV":{"icaoId":"SBJV","flightCategory":"VFR","rawOb":"METAR SBJV 241300Z 05005KT 9999 FEW030 29/22 Q1011","temp":29,"dewp":22,"wdir":50,"wspd":5,"visib":"6+","altim":1011,"clouds":[{"cover":"FEW","base":3000}],"obsTime":1774357200},"SBPF":{"icaoId":"SBPF","flightCategory":"MVFR","rawOb":"METAR SBPF 241300Z COR AUTO 21003KT 160V240 9999 SCT005 BKN015 OVC021 22/20 Q1015","temp":22,"dewp":20,"wdir":210,"wspd":3,"visib":"6+","altim":1015,"clouds":[{"cover":"SCT","base":500},{"cover":"BKN","base":1500},{"cover":"OVC","base":2100}],"obsTime":1774357200},"SBNM":{"icaoId":"SBNM","flightCategory":"IFR","rawOb":"METAR SBNM 241300Z 16002KT 9999 OVC007 20/19 Q1014","temp":20,"dewp":19,"wdir":160,"wspd":2,"visib":"6+","altim":1014,"clouds":[{"cover":"OVC","base":700}],"obsTime":1774357200},"SBJP":{"icaoId":"SBJP","flightCategory":"VFR","rawOb":"METAR SBJP 241300Z 09011KT 060V120 9999 SCT036 31/22 Q1013","temp":31,"dewp":22,"wdir":90,"wspd":11,"visib":"6+","altim":1013,"clouds":[{"cover":"SCT","base":3600}],"obsTime":1774357200},"SBJR":{"icaoId":"SBJR","flightCategory":"VFR","rawOb":"METAR SBJR 241300Z 18006KT CAVOK 30/21 Q1012","temp":30,"dewp":21,"wdir":180,"wspd":6,"visib":"6+","altim":1012,"clouds":[],"obsTime":1774357200},"SBLE":{"icaoId":"SBLE","flightCategory":"VFR","rawOb":"METAR SBLE 241300Z AUTO 10005KT 050V150 9999 SCT019 26/21 Q1017","temp":26,"dewp":21,"wdir":100,"wspd":5,"visib":"6+","altim":1017,"clouds":[{"cover":"SCT","base":1900}],"obsTime":1774357200},"SBLS":{"icaoId":"SBLS","flightCategory":"VFR","rawOb":"METAR SBLS 241300Z 08004KT 340V130 9999 FEW049 SCT100 23/16 Q1018","temp":23,"dewp":16,"wdir":80,"wspd":4,"visib":"6+","altim":1018,"clouds":[{"cover":"FEW","base":4900},{"cover":"SCT","base":10000}],"obsTime":1774357200},"SBMT":{"icaoId":"SBMT","flightCategory":"VFR","rawOb":"METAR SBMT 241300Z 13003KT 9999 FEW020 23/18 Q1015","temp":23,"dewp":18,"wdir":130,"wspd":3,"visib":"6+","altim":1015,"clouds":[{"cover":"FEW","base":2000}],"obsTime":1774357200},"SBST":{"icaoId":"SBST","flightCategory":"VFR","rawOb":"METAR SBST 241300Z 13004KT 9999 FEW024 27/21 Q1012","temp":27,"dewp":21,"wdir":130,"wspd":4,"visib":"6+","altim":1012,"clouds":[{"cover":"FEW","base":2400}],"obsTime":1774357200},"SBAF":{"icaoId":"SBAF","flightCategory":"VFR","rawOb":"METAR SBAF 241300Z 29002KT CAVOK 29/20 Q1012","temp":29,"dewp":20,"wdir":290,"wspd":2,"visib":"6+","altim":1012,"clouds":[],"obsTime":1774357200},"SBTA":{"icaoId":"SBTA","flightCategory":"VFR","rawOb":"METAR SBTA 241300Z 05011KT 9999 SCT016 22/20 Q1015","temp":22,"dewp":20,"wdir":50,"wspd":11,"visib":"6+","altim":1015,"clouds":[{"cover":"SCT","base":1600}],"obsTime":1774357200},"SBAN":{"icaoId":"SBAN","flightCategory":"VFR","rawOb":"METAR SBAN 241300Z 02004KT 9999 FEW013 23/19 Q1019","temp":23,"dewp":19,"wdir":20,"wspd":4,"visib":"6+","altim":1019,"clouds":[{"cover":"FEW","base":1300}],"obsTime":1774357200},"SBGW":{"icaoId":"SBGW","flightCategory":"MVFR","rawOb":"METAR SBGW 241300Z VRB03KT 8000 BKN017 24/16 Q1015","temp":24,"dewp":16,"wdir":"VRB","wspd":3,"visib":4.97,"altim":1015,"clouds":[{"cover":"BKN","base":1700}],"obsTime":1774357200},"SBIH":{"icaoId":"SBIH","flightCategory":"VFR","rawOb":"METAR SBIH 241300Z 00000KT 9999 FEW008 BKN100 27/25 Q1011","temp":27,"dewp":25,"wdir":0,"wspd":0,"visib":"6+","altim":1011,"clouds":[{"cover":"FEW","base":800},{"cover":"BKN","base":10000}],"obsTime":1774357200}}}