{"updated":1778519186,"count":86,"data":{"SBCZ":{"icaoId":"SBCZ","flightCategory":"MVFR","rawOb":"METAR SBCZ 111600Z 18006KT 150V210 9999 BKN015 BKN080 19/16 Q1020","temp":19,"dewp":16,"wdir":180,"wspd":6,"visib":"6+","altim":1020,"clouds":[{"cover":"BKN","base":1500},{"cover":"BKN","base":8000}],"obsTime":1778515200},"SBBE":{"icaoId":"SBBE","flightCategory":"VFR","rawOb":"METAR SBBE 111600Z 14006KT 9999 BKN035 31/25 Q1010","temp":31,"dewp":25,"wdir":140,"wspd":6,"visib":"6+","altim":1010,"clouds":[{"cover":"BKN","base":3500}],"obsTime":1778515200},"SBBR":{"icaoId":"SBBR","flightCategory":"VFR","rawOb":"METAR SBBR 111600Z 05008KT 020V090 9999 FEW025 25/16 Q1020","temp":25,"dewp":16,"wdir":50,"wspd":8,"visib":"6+","altim":1020,"clouds":[{"cover":"FEW","base":2500}],"obsTime":1778515200},"SBBV":{"icaoId":"SBBV","flightCategory":"MVFR","rawOb":"METAR SBBV 111600Z 08010KT 9999 BKN025 FEW035TCU BKN100 32/22 Q1012","temp":32,"dewp":22,"wdir":80,"wspd":10,"visib":"6+","altim":1012,"clouds":[{"cover":"BKN","base":2500},{"cover":"FEW","base":3500},{"cover":"BKN","base":10000}],"obsTime":1778515200},"SBCB":{"icaoId":"SBCB","flightCategory":"VFR","rawOb":"METAR SBCB 111600Z 26016KT 9999 FEW020 BKN035 BKN060 22/18 Q1018","temp":22,"dewp":18,"wdir":260,"wspd":16,"visib":"6+","altim":1018,"clouds":[{"cover":"FEW","base":2000},{"cover":"BKN","base":3500},{"cover":"BKN","base":6000}],"obsTime":1778515200},"SBCF":{"icaoId":"SBCF","flightCategory":"MVFR","rawOb":"METAR SBCF 111600Z 20003KT 9999 BKN030 BKN100 26/18 Q1019","temp":26,"dewp":18,"wdir":200,"wspd":3,"visib":"6+","altim":1019,"clouds":[{"cover":"BKN","base":3000},{"cover":"BKN","base":10000}],"obsTime":1778515200},"SBCG":{"icaoId":"SBCG","flightCategory":"VFR","rawOb":"METAR SBCG 111600Z 13006KT 070V170 CAVOK 17/06 Q1021","temp":17,"dewp":6,"wdir":130,"wspd":6,"visib":"6+","altim":1021,"clouds":[],"obsTime":1778515200},"SBCP":{"icaoId":"SBCP","flightCategory":"MVFR","rawOb":"METAR SBCP 111600Z 23010KT 9999 BKN010 OVC090 21/19 Q1017","temp":21,"dewp":19,"wdir":230,"wspd":10,"visib":"6+","altim":1017,"clouds":[{"cover":"BKN","base":1000},{"cover":"OVC","base":9000}],"obsTime":1778515200},"SBCR":{"icaoId":"SBCR","flightCategory":"VFR","rawOb":"METAR SBCR 111600Z VRB05KT CAVOK 21/10 Q1021","temp":21,"dewp":10,"wdir":"VRB","wspd":5,"visib":"6+","altim":1021,"clouds":[],"obsTime":1778515200},"SBCT":{"icaoId":"SBCT","flightCategory":"VFR","rawOb":"METAR SBCT 111600Z 27005KT 230V330 CAVOK 15/01 Q1021","temp":15,"dewp":1,"wdir":270,"wspd":5,"visib":"6+","altim":1021,"clouds":[],"obsTime":1778515200},"SBEG":{"icaoId":"SBEG","flightCategory":"MVFR","rawOb":"METAR SBEG 111600Z 16005KT 9999 VCSH BKN020 FEW025TCU 28/24 Q1012","temp":28,"dewp":24,"wdir":160,"wspd":5,"visib":"6+","altim":1012,"clouds":[{"cover":"BKN","base":2000},{"cover":"FEW","base":2500}],"obsTime":1778515200},"SBFI":{"icaoId":"SBFI","flightCategory":"VFR","rawOb":"METAR SBFI 111600Z 21005KT CAVOK 16/08 Q1023","temp":16,"dewp":8,"wdir":210,"wspd":5,"visib":"6+","altim":1023,"clouds":[],"obsTime":1778515200},"SBFL":{"icaoId":"SBFL","flightCategory":"VFR","rawOb":"METAR SBFL 111600Z 31007KT 240V350 CAVOK 19/07 Q1019","temp":19,"dewp":7,"wdir":310,"wspd":7,"visib":"6+","altim":1019,"clouds":[],"obsTime":1778515200},"SBFZ":{"icaoId":"SBFZ","flightCategory":"VFR","rawOb":"METAR SBFZ 111600Z 09011KT 9999 FEW025 FEW030TCU 31/25 Q1010","temp":31,"dewp":25,"wdir":90,"wspd":11,"visib":"6+","altim":1010,"clouds":[{"cover":"FEW","base":2500},{"cover":"FEW","base":3000}],"obsTime":1778515200},"SBGL":{"icaoId":"SBGL","flightCategory":"MVFR","rawOb":"METAR SBGL 111600Z 23009KT 200V260 9999 BKN020 OVC045 22/14 Q1018","temp":22,"dewp":14,"wdir":230,"wspd":9,"visib":"6+","altim":1018,"clouds":[{"cover":"BKN","base":2000},{"cover":"OVC","base":4500}],"obsTime":1778515200},"SBGO":{"icaoId":"SBGO","flightCategory":"MVFR","rawOb":"METAR SBGO 111600Z 11006KT 050V160 9999 BKN010 19/16 Q1020","temp":19,"dewp":16,"wdir":110,"wspd":6,"visib":"6+","altim":1020,"clouds":[{"cover":"BKN","base":1000}],"obsTime":1778515200},"SBGR":{"icaoId":"SBGR","flightCategory":"VFR","rawOb":"METAR SBGR 111600Z 32003KT CAVOK 16/05 Q1021","temp":16,"dewp":5,"wdir":320,"wspd":3,"visib":"6+","altim":1021,"clouds":[],"obsTime":1778515200},"SBKP":{"icaoId":"SBKP","flightCategory":"VFR","rawOb":"METAR SBKP 111600Z 24007KT 190V280 CAVOK 15/10 Q1021","temp":15,"dewp":10,"wdir":240,"wspd":7,"visib":"6+","altim":1021,"clouds":[],"obsTime":1778515200},"SBLO":{"icaoId":"SBLO","flightCategory":"VFR","rawOb":"METAR SBLO 111600Z 06003KT CAVOK 15/07 Q1021","temp":15,"dewp":7,"wdir":60,"wspd":3,"visib":"6+","altim":1021,"clouds":[],"obsTime":1778515200},"SBMA":{"icaoId":"SBMA","flightCategory":"VFR","rawOb":"METAR SBMA 111600Z 07003KT 9999 SCT020 BKN080 30/24 Q1011","temp":30,"dewp":24,"wdir":70,"wspd":3,"visib":"6+","altim":1011,"clouds":[{"cover":"SCT","base":2000},{"cover":"BKN","base":8000}],"obsTime":1778515200},"SBMO":{"icaoId":"SBMO","flightCategory":"VFR","rawOb":"METAR SBMO 111600Z 15008KT 9999 SCT033 29/23 Q1012","temp":29,"dewp":23,"wdir":150,"wspd":8,"visib":"6+","altim":1012,"clouds":[{"cover":"SCT","base":3300}],"obsTime":1778515200},"SBMQ":{"icaoId":"SBMQ","flightCategory":"VFR","rawOb":"METAR SBMQ 111600Z 08005KT 9999 SCT025 FEW040TCU SCT043 30/25 Q1010","temp":30,"dewp":25,"wdir":80,"wspd":5,"visib":"6+","altim":1010,"clouds":[{"cover":"SCT","base":2500},{"cover":"FEW","base":4000},{"cover":"SCT","base":4300}],"obsTime":1778515200},"SBNT":{"icaoId":"SBNT","flightCategory":"MVFR","rawOb":"METAR SBNT 111600Z 16009KT 130V190 9000 -SHRA BKN030 29/25 Q1011","temp":29,"dewp":25,"wdir":160,"wspd":9,"visib":5.59,"altim":1011,"clouds":[{"cover":"BKN","base":3000}],"obsTime":1778515200},"SBPA":{"icaoId":"SBPA","flightCategory":"VFR","rawOb":"METAR SBPA 111600Z 28016KT CAVOK 16/06 Q1019","temp":16,"dewp":6,"wdir":280,"wspd":16,"visib":"6+","altim":1019,"clouds":[],"obsTime":1778515200},"SBPJ":{"icaoId":"SBPJ","flightCategory":"VFR","rawOb":"METAR SBPJ 111600Z 34005KT 290V040 9999 FEW020 34/20 Q1012","temp":34,"dewp":20,"wdir":340,"wspd":5,"visib":"6+","altim":1012,"clouds":[{"cover":"FEW","base":2000}],"obsTime":1778515200},"SBPV":{"icaoId":"SBPV","flightCategory":"MVFR","rawOb":"METAR SBPV 111600Z 16006KT 9999 BKN024 BKN100 23/19 Q1016","temp":23,"dewp":19,"wdir":160,"wspd":6,"visib":"6+","altim":1016,"clouds":[{"cover":"BKN","base":2400},{"cover":"BKN","base":10000}],"obsTime":1778515200},"SBRB":{"icaoId":"SBRB","flightCategory":"VFR","rawOb":"METAR SBRB 111600Z 14009KT 090V180 9000 FEW010 BKN100 20/14 Q1019","temp":20,"dewp":14,"wdir":140,"wspd":9,"visib":5.59,"altim":1019,"clouds":[{"cover":"FEW","base":1000},{"cover":"BKN","base":10000}],"obsTime":1778515200},"SBRF":{"icaoId":"SBRF","flightCategory":"VFR","rawOb":"METAR SBRF 111600Z 15014KT 9999 FEW025 BKN050 29/24 Q1011","temp":29,"dewp":24,"wdir":150,"wspd":14,"visib":"6+","altim":1011,"clouds":[{"cover":"FEW","base":2500},{"cover":"BKN","base":5000}],"obsTime":1778515200},"SBSG":{"icaoId":"SBSG","flightCategory":"MVFR","rawOb":"METAR SBSG 111600Z 13007KT 100V170 9999 BKN025 29/24 Q1011","temp":29,"dewp":24,"wdir":130,"wspd":7,"visib":"6+","altim":1011,"clouds":[{"cover":"BKN","base":2500}],"obsTime":1778515200},"SBSL":{"icaoId":"SBSL","flightCategory":"VFR","rawOb":"METAR SBSL 111600Z 05008KT 9999 SCT024 30/25 Q1010","temp":30,"dewp":25,"wdir":50,"wspd":8,"visib":"6+","altim":1010,"clouds":[{"cover":"SCT","base":2400}],"obsTime":1778515200},"SBSN":{"icaoId":"SBSN","flightCategory":"VFR","rawOb":"METAR SBSN 111600Z 08007KT 9999 FEW010 SCT013 BKN100 28/25 Q1012","temp":28,"dewp":25,"wdir":80,"wspd":7,"visib":"6+","altim":1012,"clouds":[{"cover":"FEW","base":1000},{"cover":"SCT","base":1300},{"cover":"BKN","base":10000}],"obsTime":1778515200},"SBSP":{"icaoId":"SBSP","flightCategory":"VFR","rawOb":"METAR SBSP 111600Z VRB03KT CAVOK 19/07 Q1021","temp":19,"dewp":7,"wdir":"VRB","wspd":3,"visib":"6+","altim":1021,"clouds":[],"obsTime":1778515200},"SBSV":{"icaoId":"SBSV","flightCategory":"MVFR","rawOb":"METAR SBSV 111600Z 13008KT 090V160 9999 SCT018 BKN025 BKN060 28/23 Q1013","temp":28,"dewp":23,"wdir":130,"wspd":8,"visib":"6+","altim":1013,"clouds":[{"cover":"SCT","base":1800},{"cover":"BKN","base":2500},{"cover":"BKN","base":6000}],"obsTime":1778515200},"SBTE":{"icaoId":"SBTE","flightCategory":"VFR","rawOb":"METAR SBTE 111600Z 14005KT 9999 SCT025 32/23 Q1010","temp":32,"dewp":23,"wdir":140,"wspd":5,"visib":"6+","altim":1010,"clouds":[{"cover":"SCT","base":2500}],"obsTime":1778515200},"SBVT":{"icaoId":"SBVT","flightCategory":"VFR","rawOb":"METAR SBVT 111600Z 17012KT 9999 FEW025 SCT070 26/21 Q1015","temp":26,"dewp":21,"wdir":170,"wspd":12,"visib":"6+","altim":1015,"clouds":[{"cover":"FEW","base":2500},{"cover":"SCT","base":7000}],"obsTime":1778515200},"SBHT":{"icaoId":"SBHT","flightCategory":"MVFR","rawOb":"METAR SBHT 111600Z 10004KT 9999 BKN023 BKN100 31/25 Q1011","temp":31,"dewp":25,"wdir":100,"wspd":4,"visib":"6+","altim":1011,"clouds":[{"cover":"BKN","base":2300},{"cover":"BKN","base":10000}],"obsTime":1778515200},"SBIL":{"icaoId":"SBIL","flightCategory":"VFR","rawOb":"METAR SBIL 111600Z 15007KT 120V190 9999 FEW025 29/22 Q1014","temp":29,"dewp":22,"wdir":150,"wspd":7,"visib":"6+","altim":1014,"clouds":[{"cover":"FEW","base":2500}],"obsTime":1778515200},"SBJU":{"icaoId":"SBJU","flightCategory":"MVFR","rawOb":"METAR SBJU 111600Z 12005KT 9999 BKN022 29/21 Q1013","temp":29,"dewp":21,"wdir":120,"wspd":5,"visib":"6+","altim":1013,"clouds":[{"cover":"BKN","base":2200}],"obsTime":1778515200},"SBME":{"icaoId":"SBME","flightCategory":"MVFR","rawOb":"METAR SBME 111600Z 25007KT 5000 -RA SCT015 BKN040 21/19 Q1017","temp":21,"dewp":19,"wdir":250,"wspd":7,"visib":3.11,"altim":1017,"clouds":[{"cover":"SCT","base":1500},{"cover":"BKN","base":4000}],"obsTime":1778515200},"SBMG":{"icaoId":"SBMG","flightCategory":"VFR","rawOb":"METAR SBMG 111600Z 16004KT CAVOK 15/06 Q1021","temp":15,"dewp":6,"wdir":160,"wspd":4,"visib":"6+","altim":1021,"clouds":[],"obsTime":1778515200},"SBMK":{"icaoId":"SBMK","flightCategory":"VFR","rawOb":"METAR SBMK 111600Z 10005KT 9999 FEW040 31/16 Q1016","temp":31,"dewp":16,"wdir":100,"wspd":5,"visib":"6+","altim":1016,"clouds":[{"cover":"FEW","base":4000}],"obsTime":1778515200},"SBUR":{"icaoId":"SBUR","flightCategory":"VFR","rawOb":"METAR SBUR 111600Z 19005KT CAVOK 20/12 Q1020","temp":20,"dewp":12,"wdir":190,"wspd":5,"visib":"6+","altim":1020,"clouds":[],"obsTime":1778515200},"SBAT":{"icaoId":"SBAT","flightCategory":"MVFR","rawOb":"METAR SBAT 111600Z 16006KT 9999 BKN025 29/21 Q1016","temp":29,"dewp":21,"wdir":160,"wspd":6,"visib":"6+","altim":1016,"clouds":[{"cover":"BKN","base":2500}],"obsTime":1778515200},"SBUL":{"icaoId":"SBUL","flightCategory":"VFR","rawOb":"METAR SBUL 111600Z 26006KT 200V290 CAVOK 21/15 Q1021","temp":21,"dewp":15,"wdir":260,"wspd":6,"visib":"6+","altim":1021,"clouds":[],"obsTime":1778515200},"SBCJ":{"icaoId":"SBCJ","flightCategory":"VFR","rawOb":"METAR SBCJ 111600Z 12002KT 9999 FEW012 BKN080 27/22 Q1015","temp":27,"dewp":22,"wdir":120,"wspd":2,"visib":"6+","altim":1015,"clouds":[{"cover":"FEW","base":1200},{"cover":"BKN","base":8000}],"obsTime":1778515200},"SBSJ":{"icaoId":"SBSJ","flightCategory":"VFR","rawOb":"METAR SBSJ 111600Z 23004KT 150V310 CAVOK 18/07 Q1021","temp":18,"dewp":7,"wdir":230,"wspd":4,"visib":"6+","altim":1021,"clouds":[],"obsTime":1778515200},"SBAR":{"icaoId":"SBAR","flightCategory":"VFR","rawOb":"METAR SBAR 111600Z 16009KT 120V200 9999 FEW020 29/24 Q1012","temp":29,"dewp":24,"wdir":160,"wspd":9,"visib":"6+","altim":1012,"clouds":[{"cover":"FEW","base":2000}],"obsTime":1778515200},"SBPL":{"icaoId":"SBPL","flightCategory":"MVFR","rawOb":"METAR SBPL 111600Z 10009KT 9999 BKN025 29/19 Q1014","temp":29,"dewp":19,"wdir":100,"wspd":9,"visib":"6+","altim":1014,"clouds":[{"cover":"BKN","base":2500}],"obsTime":1778515200},"SBPB":{"icaoId":"SBPB","flightCategory":"VFR","rawOb":"METAR SBPB 111600Z 07009KT 9999 FEW020 30/24 Q1010","temp":30,"dewp":24,"wdir":70,"wspd":9,"visib":"6+","altim":1010,"clouds":[{"cover":"FEW","base":2000}],"obsTime":1778515200},"SBTF":{"icaoId":"SBTF","flightCategory":"VFR","rawOb":"METAR SBTF 111600Z 15008KT 9999 SCT010 BKN090 26/23 Q1014","temp":26,"dewp":23,"wdir":150,"wspd":8,"visib":"6+","altim":1014,"clouds":[{"cover":"SCT","base":1000},{"cover":"BKN","base":9000}],"obsTime":1778515200},"SBPP":{"icaoId":"SBPP","flightCategory":"VFR","rawOb":"METAR SBPP 111600Z 19004KT CAVOK 13/05 Q1023","temp":13,"dewp":5,"wdir":190,"wspd":4,"visib":"6+","altim":1023,"clouds":[],"obsTime":1778515200},"SBUY":{"icaoId":"SBUY","flightCategory":"IFR","rawOb":"METAR SBUY 111600Z 27003KT 2000 -RA BR BKN010 BKN070 22/19 Q1014","temp":22,"dewp":19,"wdir":270,"wspd":3,"visib":1.24,"altim":1014,"clouds":[{"cover":"BKN","base":1000},{"cover":"BKN","base":7000}],"obsTime":1778515200},"SBTT":{"icaoId":"SBTT","flightCategory":"LIFR","rawOb":"SPECI SBTT 111521Z 25007KT 0800 FG BKN011 20/18 Q1018","temp":20,"dewp":18,"wdir":250,"wspd":7,"visib":0.5,"altim":1018,"clouds":[{"cover":"BKN","base":1100}],"obsTime":1778512860},"SBOI":{"icaoId":"SBOI","flightCategory":"MVFR","rawOb":"METAR SBOI 111600Z AUTO VRB02KT 9999 BKN029 27/26 Q1011 RERA","temp":27,"dewp":26,"wdir":"VRB","wspd":2,"visib":"6+","altim":1011,"clouds":[{"cover":"BKN","base":2900}],"obsTime":1778515200},"SBPS":{"icaoId":"SBPS","flightCategory":"VFR","rawOb":"METAR SBPS 111600Z 08008KT 9999 SCT020 29/21 Q1014","temp":29,"dewp":21,"wdir":80,"wspd":8,"visib":"6+","altim":1014,"clouds":[{"cover":"SCT","base":2000}],"obsTime":1778515200},"SBIP":{"icaoId":"SBIP","flightCategory":"VFR","rawOb":"METAR SBIP 111600Z AUTO VRB04KT CAVOK 30/19 Q1015","temp":30,"dewp":19,"wdir":"VRB","wspd":4,"visib":"6+","altim":1015,"clouds":[],"obsTime":1778515200},"SBKG":{"icaoId":"SBKG","flightCategory":"MVFR","rawOb":"METAR SBKG 111600Z 13007KT 9999 BKN025 SCT070 28/22 Q1014","temp":28,"dewp":22,"wdir":130,"wspd":7,"visib":"6+","altim":1014,"clouds":[{"cover":"BKN","base":2500},{"cover":"SCT","base":7000}],"obsTime":1778515200},"SBSC":{"icaoId":"SBSC","flightCategory":"MVFR","rawOb":"METAR SBSC 111600Z 23008KT 9999 FEW020 BKN030 OVC040 21/15 Q1019","temp":21,"dewp":15,"wdir":230,"wspd":8,"visib":"6+","altim":1019,"clouds":[{"cover":"FEW","base":2000},{"cover":"BKN","base":3000},{"cover":"OVC","base":4000}],"obsTime":1778515200},"SBSM":{"icaoId":"SBSM","flightCategory":"VFR","rawOb":"METAR SBSM 111600Z 28007KT CAVOK 16/04 Q1023","temp":16,"dewp":4,"wdir":280,"wspd":7,"visib":"6+","altim":1023,"clouds":[],"obsTime":1778515200},"SBSR":{"icaoId":"SBSR","flightCategory":"VFR","rawOb":"METAR SBSR 111600Z 21003KT 9999 FEW030 BKN070 20/09 Q1020","temp":20,"dewp":9,"wdir":210,"wspd":3,"visib":"6+","altim":1020,"clouds":[{"cover":"FEW","base":3000},{"cover":"BKN","base":7000}],"obsTime":1778515200},"SBTD":{"icaoId":"SBTD","flightCategory":"VFR","rawOb":"METAR SBTD 111600Z /////KT CAVOK 17/06 Q1022","temp":17,"dewp":6,"wdir":null,"wspd":null,"visib":"6+","altim":1022,"clouds":[],"obsTime":1778515200},"SBTU":{"icaoId":"SBTU","flightCategory":"VFR","rawOb":"METAR SBTU 111600Z AUTO 25005KT 200V280 9999 // ///////// ///// Q1013","temp":null,"dewp":null,"wdir":250,"wspd":5,"visib":"6+","altim":1013,"clouds":[],"obsTime":1778515200},"SBVH":{"icaoId":"SBVH","flightCategory":"VFR","rawOb":"METAR SBVH 111600Z 09007KT CAVOK 22/15 Q1019","temp":22,"dewp":15,"wdir":90,"wspd":7,"visib":"6+","altim":1019,"clouds":[],"obsTime":1778515200},"SBAU":{"icaoId":"SBAU","flightCategory":"VFR","rawOb":"METAR SBAU 111600Z 18005KT CAVOK 22/06 Q1020","temp":22,"dewp":6,"wdir":180,"wspd":5,"visib":"6+","altim":1020,"clouds":[],"obsTime":1778515200},"SBAX":{"icaoId":"SBAX","flightCategory":"VFR","rawOb":"METAR SBAX 111600Z 25004KT 9999 FEW020 23/16 Q1020","temp":23,"dewp":16,"wdir":250,"wspd":4,"visib":"6+","altim":1020,"clouds":[{"cover":"FEW","base":2000}],"obsTime":1778515200},"SBBH":{"icaoId":"SBBH","flightCategory":"VFR","rawOb":"METAR SBBH 111600Z 28008KT 9999 BKN040 FEW045TCU 27/17 Q1018","temp":27,"dewp":17,"wdir":280,"wspd":8,"visib":"6+","altim":1018,"clouds":[{"cover":"BKN","base":4000},{"cover":"FEW","base":4500}],"obsTime":1778515200},"SBBQ":{"icaoId":"SBBQ","flightCategory":"MVFR","rawOb":"METAR SBBQ 111600Z COR 09006KT 9999 -RA BKN010 20/17 Q1021","temp":20,"dewp":17,"wdir":90,"wspd":6,"visib":"6+","altim":1021,"clouds":[{"cover":"BKN","base":1000}],"obsTime":1778515200},"SBBU":{"icaoId":"SBBU","flightCategory":"VFR","rawOb":"METAR SBBU 111600Z 19003KT CAVOK 19/09 Q1020","temp":19,"dewp":9,"wdir":190,"wspd":3,"visib":"6+","altim":1020,"clouds":[],"obsTime":1778515200},"SBCC":{"icaoId":"SBCC","flightCategory":"MVFR","rawOb":"METAR SBCC 111600Z 10004KT 9999 BKN015 25/18 Q1016","temp":25,"dewp":18,"wdir":100,"wspd":4,"visib":"6+","altim":1016,"clouds":[{"cover":"BKN","base":1500}],"obsTime":1778515200},"SBCO":{"icaoId":"SBCO","flightCategory":"VFR","rawOb":"METAR SBCO 111600Z 28015KT 250V310 CAVOK 16/05 Q1021","temp":16,"dewp":5,"wdir":280,"wspd":15,"visib":"6+","altim":1021,"clouds":[],"obsTime":1778515200},"SBDN":{"icaoId":"SBDN","flightCategory":"VFR","rawOb":"METAR SBDN 111600Z 00000KT CAVOK 17/07 Q1021","temp":17,"dewp":7,"wdir":0,"wspd":0,"visib":"6+","altim":1021,"clouds":[],"obsTime":1778515200},"SBES":{"icaoId":"SBES","flightCategory":"VFR","rawOb":"METAR SBES 111600Z VRB08KT 9999 FEW020 BKN040 OVC090 21/// Q1018","temp":null,"dewp":null,"wdir":"VRB","wspd":8,"visib":"6+","altim":1018,"clouds":[{"cover":"FEW","base":2000},{"cover":"BKN","base":4000},{"cover":"OVC","base":9000}],"obsTime":1778515200},"SBGM":{"icaoId":"SBGM","flightCategory":"VFR","rawOb":"METAR SBGM 111600Z 13009KT CAVOK 23/12 Q1018","temp":23,"dewp":12,"wdir":130,"wspd":9,"visib":"6+","altim":1018,"clouds":[],"obsTime":1778515200},"SBJP":{"icaoId":"SBJP","flightCategory":"VFR","rawOb":"METAR SBJP 111600Z 16011KT 120V200 9999 FEW030 31/22 Q1011","temp":31,"dewp":22,"wdir":160,"wspd":11,"visib":"6+","altim":1011,"clouds":[{"cover":"FEW","base":3000}],"obsTime":1778515200},"SBJV":{"icaoId":"SBJV","flightCategory":"VFR","rawOb":"METAR SBJV 111600Z VRB03KT CAVOK 19/07 Q1020","temp":19,"dewp":7,"wdir":"VRB","wspd":3,"visib":"6+","altim":1020,"clouds":[],"obsTime":1778515200},"SBNM":{"icaoId":"SBNM","flightCategory":"VFR","rawOb":"METAR SBNM 111600Z 30004KT CAVOK 14/02 Q1023","temp":14,"dewp":2,"wdir":300,"wspd":4,"visib":"6+","altim":1023,"clouds":[],"obsTime":1778515200},"SBAF":{"icaoId":"SBAF","flightCategory":"VFR","rawOb":"METAR SBAF 111600Z 23008KT 9999 SCT026 BKN043 21/16 Q1018","temp":21,"dewp":16,"wdir":230,"wspd":8,"visib":"6+","altim":1018,"clouds":[{"cover":"SCT","base":2600},{"cover":"BKN","base":4300}],"obsTime":1778515200},"SBGW":{"icaoId":"SBGW","flightCategory":"MVFR","rawOb":"METAR SBGW 111600Z 24006KT 7000 FEW015 OVC030 18/09 Q1020","temp":18,"dewp":9,"wdir":240,"wspd":6,"visib":4.35,"altim":1020,"clouds":[{"cover":"FEW","base":1500},{"cover":"OVC","base":3000}],"obsTime":1778515200},"SBJR":{"icaoId":"SBJR","flightCategory":"VFR","rawOb":"METAR SBJR 111600Z 25006KT 9999 FEW020 SCT050 OVC090 24/15 Q1018","temp":24,"dewp":15,"wdir":250,"wspd":6,"visib":"6+","altim":1018,"clouds":[{"cover":"FEW","base":2000},{"cover":"SCT","base":5000},{"cover":"OVC","base":9000}],"obsTime":1778515200},"SBLS":{"icaoId":"SBLS","flightCategory":"VFR","rawOb":"METAR SBLS 111600Z VRB04KT 9999 SCT035 SCT100 27/18 Q1018","temp":27,"dewp":18,"wdir":"VRB","wspd":4,"visib":"6+","altim":1018,"clouds":[{"cover":"SCT","base":3500},{"cover":"SCT","base":10000}],"obsTime":1778515200},"SBLE":{"icaoId":"SBLE","flightCategory":"VFR","rawOb":"METAR SBLE 111600Z AUTO VRB04KT 9999 SCT037 28/19 Q1015","temp":28,"dewp":19,"wdir":"VRB","wspd":4,"visib":"6+","altim":1015,"clouds":[{"cover":"SCT","base":3700}],"obsTime":1778515200},"SBST":{"icaoId":"SBST","flightCategory":"VFR","rawOb":"METAR SBST 111600Z 23004KT 9999 SCT038 20/11 Q1019","temp":20,"dewp":11,"wdir":230,"wspd":4,"visib":"6+","altim":1019,"clouds":[{"cover":"SCT","base":3800}],"obsTime":1778515200},"SBTA":{"icaoId":"SBTA","flightCategory":"VFR","rawOb":"METAR SBTA 111600Z VRB03KT 9999 FEW015 SCT025 19/11 Q1019","temp":19,"dewp":11,"wdir":"VRB","wspd":3,"visib":"6+","altim":1019,"clouds":[{"cover":"FEW","base":1500},{"cover":"SCT","base":2500}],"obsTime":1778515200},"SBAN":{"icaoId":"SBAN","flightCategory":"VFR","rawOb":"METAR SBAN 111600Z 24007KT 200V280 9999 FEW015 23/16 Q1021","temp":23,"dewp":16,"wdir":240,"wspd":7,"visib":"6+","altim":1021,"clouds":[{"cover":"FEW","base":1500}],"obsTime":1778515200},"SBIH":{"icaoId":"SBIH","flightCategory":"VFR","rawOb":"METAR SBIH 111600Z 06012KT 9999 SCT018 BKN100 30/24 Q1012","temp":30,"dewp":24,"wdir":60,"wspd":12,"visib":"6+","altim":1012,"clouds":[{"cover":"SCT","base":1800},{"cover":"BKN","base":10000}],"obsTime":1778515200},"SBMT":{"icaoId":"SBMT","flightCategory":"VFR","rawOb":"METAR SBMT 111600Z VRB02KT CAVOK 17/06 Q1020","temp":17,"dewp":6,"wdir":"VRB","wspd":2,"visib":"6+","altim":1020,"clouds":[],"obsTime":1778515200}}}