{"updated":1784657117,"count":57,"data":{"SBPJ":{"icaoId":"SBPJ","flightCategory":"VFR","rawOb":"METAR SBPJ 211700Z 27007KT 9999 SCT045 32/18 Q1012","temp":32,"dewp":18,"wdir":270,"wspd":7,"visib":"6+","altim":1012,"clouds":[{"cover":"SCT","base":4500}],"obsTime":1784653200},"SBBV":{"icaoId":"SBBV","flightCategory":"VFR","rawOb":"METAR SBBV 211700Z 10010KT 9999 BKN040 32/22 Q1011","temp":32,"dewp":22,"wdir":100,"wspd":10,"visib":"6+","altim":1011,"clouds":[{"cover":"BKN","base":4000}],"obsTime":1784653200},"SBSG":{"icaoId":"SBSG","flightCategory":"MVFR","rawOb":"METAR SBSG 211700Z 14005KT 100V180 9999 VCSH SCT008 BKN025 24/23 Q1013 RERA","temp":24,"dewp":23,"wdir":140,"wspd":5,"visib":"6+","altim":1013,"clouds":[{"cover":"SCT","base":800},{"cover":"BKN","base":2500}],"obsTime":1784653200},"SBMO":{"icaoId":"SBMO","flightCategory":"VFR","rawOb":"METAR SBMO 211700Z 11011KT 9999 SCT025 BKN070 27/21 Q1014","temp":27,"dewp":21,"wdir":110,"wspd":11,"visib":"6+","altim":1014,"clouds":[{"cover":"SCT","base":2500},{"cover":"BKN","base":7000}],"obsTime":1784653200},"SBPV":{"icaoId":"SBPV","flightCategory":"VFR","rawOb":"METAR SBPV 211700Z 01007KT 320V060 9999 SCT045 33/21 Q1010","temp":33,"dewp":21,"wdir":10,"wspd":7,"visib":"6+","altim":1010,"clouds":[{"cover":"SCT","base":4500}],"obsTime":1784653200},"SBRB":{"icaoId":"SBRB","flightCategory":"VFR","rawOb":"METAR SBRB 211700Z 33006KT 280V360 9999 SCT040 33/22 Q1012","temp":33,"dewp":22,"wdir":330,"wspd":6,"visib":"6+","altim":1012,"clouds":[{"cover":"SCT","base":4000}],"obsTime":1784653200},"SBSP":{"icaoId":"SBSP","flightCategory":"VFR","rawOb":"METAR SBSP 211700Z 33011KT 290V360 CAVOK 26/09 Q1016","temp":26,"dewp":9,"wdir":330,"wspd":11,"visib":"6+","altim":1016,"clouds":[],"obsTime":1784653200},"SBSN":{"icaoId":"SBSN","flightCategory":"VFR","rawOb":"METAR SBSN 211700Z 07011KT 9999 SCT028 32/25 Q1011","temp":32,"dewp":25,"wdir":70,"wspd":11,"visib":"6+","altim":1011,"clouds":[{"cover":"SCT","base":2800}],"obsTime":1784653200},"SBCR":{"icaoId":"SBCR","flightCategory":"VFR","rawOb":"METAR SBCR 211700Z 36011G22KT 320V040 9999 FEW040 35/20 Q1008","temp":35,"dewp":20,"wdir":360,"wspd":11,"visib":"6+","altim":1008,"clouds":[{"cover":"FEW","base":4000}],"obsTime":1784653200},"SBGL":{"icaoId":"SBGL","flightCategory":"VFR","rawOb":"METAR SBGL 211700Z 04004KT 340V070 CAVOK 31/13 Q1012","temp":31,"dewp":13,"wdir":40,"wspd":4,"visib":"6+","altim":1012,"clouds":[],"obsTime":1784653200},"SBMQ":{"icaoId":"SBMQ","flightCategory":"VFR","rawOb":"METAR SBMQ 211700Z 05013KT 9999 SCT021 FEW030TCU 30/25 Q1011","temp":30,"dewp":25,"wdir":50,"wspd":13,"visib":"6+","altim":1011,"clouds":[{"cover":"SCT","base":2100},{"cover":"FEW","base":3000}],"obsTime":1784653200},"SBBE":{"icaoId":"SBBE","flightCategory":"VFR","rawOb":"METAR SBBE 211700Z 10008KT 9999 SCT035 FEW040TCU BKN090 32/23 Q1011","temp":32,"dewp":23,"wdir":100,"wspd":8,"visib":"6+","altim":1011,"clouds":[{"cover":"SCT","base":3500},{"cover":"FEW","base":4000},{"cover":"BKN","base":9000}],"obsTime":1784653200},"SBPA":{"icaoId":"SBPA","flightCategory":"IFR","rawOb":"SPECI SBPA 211640Z 01004KT 330V050 4000 -TSRA BR BKN011 BKN025 FEW035CB BKN060 20/20 Q1007 RETS","temp":20,"dewp":20,"wdir":10,"wspd":4,"visib":2.49,"altim":1007,"clouds":[{"cover":"BKN","base":1100},{"cover":"BKN","base":2500},{"cover":"FEW","base":3500},{"cover":"BKN","base":6000}],"obsTime":1784652000},"SBBR":{"icaoId":"SBBR","flightCategory":"VFR","rawOb":"METAR SBBR 211700Z 06005KT 350V130 CAVOK 27/10 Q1019","temp":27,"dewp":10,"wdir":60,"wspd":5,"visib":"6+","altim":1019,"clouds":[],"obsTime":1784653200},"SBEG":{"icaoId":"SBEG","flightCategory":"VFR","rawOb":"METAR SBEG 211700Z 07009KT 040V120 9999 SCT030 FEW035TCU 33/22 Q1011","temp":33,"dewp":22,"wdir":70,"wspd":9,"visib":"6+","altim":1011,"clouds":[{"cover":"SCT","base":3000},{"cover":"FEW","base":3500}],"obsTime":1784653200},"SBVT":{"icaoId":"SBVT","flightCategory":"MVFR","rawOb":"METAR SBVT 211700Z 04010KT 9999 VCSH SCT009 BKN025 BKN040 23/20 Q1017","temp":23,"dewp":20,"wdir":40,"wspd":10,"visib":"6+","altim":1017,"clouds":[{"cover":"SCT","base":900},{"cover":"BKN","base":2500},{"cover":"BKN","base":4000}],"obsTime":1784653200},"SBFZ":{"icaoId":"SBFZ","flightCategory":"VFR","rawOb":"METAR SBFZ 211700Z 12019KT 9999 SCT025 29/23 Q1012","temp":29,"dewp":23,"wdir":120,"wspd":19,"visib":"6+","altim":1012,"clouds":[{"cover":"SCT","base":2500}],"obsTime":1784653200},"SBGO":{"icaoId":"SBGO","flightCategory":"VFR","rawOb":"METAR SBGO 211700Z 08004KT CAVOK 30/10 Q1016","temp":30,"dewp":10,"wdir":80,"wspd":4,"visib":"6+","altim":1016,"clouds":[],"obsTime":1784653200},"SBMA":{"icaoId":"SBMA","flightCategory":"VFR","rawOb":"METAR SBMA 211700Z 08006KT 9999 SCT025 35/19 Q1010","temp":35,"dewp":19,"wdir":80,"wspd":6,"visib":"6+","altim":1010,"clouds":[{"cover":"SCT","base":2500}],"obsTime":1784653200},"SBCT":{"icaoId":"SBCT","flightCategory":"VFR","rawOb":"METAR SBCT 211700Z 33013KT CAVOK 25/13 Q1014","temp":25,"dewp":13,"wdir":330,"wspd":13,"visib":"6+","altim":1014,"clouds":[],"obsTime":1784653200},"SBSL":{"icaoId":"SBSL","flightCategory":"VFR","rawOb":"METAR SBSL 211700Z 08009KT 9999 SCT017 FEW025TCU BKN080 27/25 Q1011","temp":27,"dewp":25,"wdir":80,"wspd":9,"visib":"6+","altim":1011,"clouds":[{"cover":"SCT","base":1700},{"cover":"FEW","base":2500},{"cover":"BKN","base":8000}],"obsTime":1784653200},"SBCF":{"icaoId":"SBCF","flightCategory":"VFR","rawOb":"METAR SBCF 211700Z 05006KT 9999 BKN040 FEW045TCU 24/14 Q1019","temp":24,"dewp":14,"wdir":50,"wspd":6,"visib":"6+","altim":1019,"clouds":[{"cover":"BKN","base":4000},{"cover":"FEW","base":4500}],"obsTime":1784653200},"SBFI":{"icaoId":"SBFI","flightCategory":"VFR","rawOb":"METAR SBFI 211700Z 01017G27KT 9999 FEW030 28/20 Q1006","temp":28,"dewp":20,"wdir":10,"wspd":17,"visib":"6+","altim":1006,"clouds":[{"cover":"FEW","base":3000}],"obsTime":1784653200},"SBLO":{"icaoId":"SBLO","flightCategory":"VFR","rawOb":"METAR SBLO 211700Z 04009KT CAVOK 28/15 Q1014","temp":28,"dewp":15,"wdir":40,"wspd":9,"visib":"6+","altim":1014,"clouds":[],"obsTime":1784653200},"SBFL":{"icaoId":"SBFL","flightCategory":"VFR","rawOb":"METAR SBFL 211700Z VRB02KT CAVOK 29/18 Q1007","temp":29,"dewp":18,"wdir":"VRB","wspd":2,"visib":"6+","altim":1007,"clouds":[],"obsTime":1784653200},"SBGR":{"icaoId":"SBGR","flightCategory":"VFR","rawOb":"METAR SBGR 211700Z 36011KT CAVOK 28/10 Q1016","temp":28,"dewp":10,"wdir":360,"wspd":11,"visib":"6+","altim":1016,"clouds":[],"obsTime":1784653200},"SBRF":{"icaoId":"SBRF","flightCategory":"VFR","rawOb":"METAR SBRF 211700Z 12010KT 9999 SCT020 BKN050 27/22 Q1013","temp":27,"dewp":22,"wdir":120,"wspd":10,"visib":"6+","altim":1013,"clouds":[{"cover":"SCT","base":2000},{"cover":"BKN","base":5000}],"obsTime":1784653200},"SBCG":{"icaoId":"SBCG","flightCategory":"VFR","rawOb":"METAR SBCG 211700Z 33016KT CAVOK 31/16 Q1013","temp":31,"dewp":16,"wdir":330,"wspd":16,"visib":"6+","altim":1013,"clouds":[],"obsTime":1784653200},"SBSV":{"icaoId":"SBSV","flightCategory":"VFR","rawOb":"METAR SBSV 211700Z 12006KT 100V180 9000 VCSH SCT012 FEW021TCU BKN070 24/23 Q1015","temp":24,"dewp":23,"wdir":120,"wspd":6,"visib":5.59,"altim":1015,"clouds":[{"cover":"SCT","base":1200},{"cover":"FEW","base":2100},{"cover":"BKN","base":7000}],"obsTime":1784653200},"SBCB":{"icaoId":"SBCB","flightCategory":"VFR","rawOb":"METAR SBCB 211700Z 11013KT CAVOK 27/20 Q1014","temp":27,"dewp":20,"wdir":110,"wspd":13,"visib":"6+","altim":1014,"clouds":[],"obsTime":1784653200},"SBKP":{"icaoId":"SBKP","flightCategory":"VFR","rawOb":"METAR SBKP 211700Z 36009KT 320V030 CAVOK 27/10 Q1016","temp":27,"dewp":10,"wdir":360,"wspd":9,"visib":"6+","altim":1016,"clouds":[],"obsTime":1784653200},"SBCP":{"icaoId":"SBCP","flightCategory":"VFR","rawOb":"METAR SBCP 211700Z 08017KT CAVOK 27/19 Q1015","temp":27,"dewp":19,"wdir":80,"wspd":17,"visib":"6+","altim":1015,"clouds":[],"obsTime":1784653200},"SBTE":{"icaoId":"SBTE","flightCategory":"VFR","rawOb":"METAR SBTE 211700Z 07005KT 9999 SCT040 BKN070 32/21 Q1010","temp":32,"dewp":21,"wdir":70,"wspd":5,"visib":"6+","altim":1010,"clouds":[{"cover":"SCT","base":4000},{"cover":"BKN","base":7000}],"obsTime":1784653200},"SBCZ":{"icaoId":"SBCZ","flightCategory":"VFR","rawOb":"METAR SBCZ 211700Z 04006KT 360V080 9999 BKN036 32/24 Q1011","temp":32,"dewp":24,"wdir":40,"wspd":6,"visib":"6+","altim":1011,"clouds":[{"cover":"BKN","base":3600}],"obsTime":1784653200},"SBIL":{"icaoId":"SBIL","flightCategory":"VFR","rawOb":"METAR SBIL 211700Z 16007KT 9999 FEW020 FEW025TCU 27/22 Q1016","temp":27,"dewp":22,"wdir":160,"wspd":7,"visib":"6+","altim":1016,"clouds":[{"cover":"FEW","base":2000},{"cover":"FEW","base":2500}],"obsTime":1784653200},"SBJU":{"icaoId":"SBJU","flightCategory":"MVFR","rawOb":"METAR SBJU 211700Z 12008KT 9999 BKN022 31/17 Q1014","temp":31,"dewp":17,"wdir":120,"wspd":8,"visib":"6+","altim":1014,"clouds":[{"cover":"BKN","base":2200}],"obsTime":1784653200},"SBAT":{"icaoId":"SBAT","flightCategory":"VFR","rawOb":"METAR SBAT 211700Z 05008KT 9999 FEW030 34/16 Q1012","temp":34,"dewp":16,"wdir":50,"wspd":8,"visib":"6+","altim":1012,"clouds":[{"cover":"FEW","base":3000}],"obsTime":1784653200},"SBHT":{"icaoId":"SBHT","flightCategory":"MVFR","rawOb":"METAR SBHT 211700Z 13004KT 9999 BKN030 30/24 Q1011","temp":30,"dewp":24,"wdir":130,"wspd":4,"visib":"6+","altim":1011,"clouds":[{"cover":"BKN","base":3000}],"obsTime":1784653200},"SBMG":{"icaoId":"SBMG","flightCategory":"VFR","rawOb":"METAR SBMG 211700Z 01017KT CAVOK 30/13 Q1011","temp":30,"dewp":13,"wdir":10,"wspd":17,"visib":"6+","altim":1011,"clouds":[],"obsTime":1784653200},"SBME":{"icaoId":"SBME","flightCategory":"VFR","rawOb":"METAR SBME 211700Z 01009KT 9999 FEW040 31/16 Q1014","temp":31,"dewp":16,"wdir":10,"wspd":9,"visib":"6+","altim":1014,"clouds":[{"cover":"FEW","base":4000}],"obsTime":1784653200},"SBMK":{"icaoId":"SBMK","flightCategory":"VFR","rawOb":"METAR SBMK 211700Z 34005KT 9999 SCT040 28/10 Q1017","temp":28,"dewp":10,"wdir":340,"wspd":5,"visib":"6+","altim":1017,"clouds":[{"cover":"SCT","base":4000}],"obsTime":1784653200},"SBUL":{"icaoId":"SBUL","flightCategory":"VFR","rawOb":"METAR SBUL 211700Z 07005KT CAVOK 25/08 Q1018","temp":25,"dewp":8,"wdir":70,"wspd":5,"visib":"6+","altim":1018,"clouds":[],"obsTime":1784653200},"SBUR":{"icaoId":"SBUR","flightCategory":"VFR","rawOb":"METAR SBUR 211700Z 01006KT CAVOK 27/08 Q1017","temp":27,"dewp":8,"wdir":10,"wspd":6,"visib":"6+","altim":1017,"clouds":[],"obsTime":1784653200},"SBNT":{"icaoId":"SBNT","flightCategory":"IFR","rawOb":"METAR SBNT 211700Z 14015KT 3000 -DZ BR BKN009 BKN015 FEW024TCU OVC036 24/22 Q1013 REDZ","temp":24,"dewp":22,"wdir":140,"wspd":15,"visib":1.86,"altim":1013,"clouds":[{"cover":"BKN","base":900},{"cover":"BKN","base":1500},{"cover":"FEW","base":2400},{"cover":"OVC","base":3600}],"obsTime":1784653200},"SBJP":{"icaoId":"SBJP","flightCategory":"MVFR","rawOb":"METAR SBJP 211700Z 15008KT 9999 BKN018 BKN070 26/23 Q1014","temp":26,"dewp":23,"wdir":150,"wspd":8,"visib":"6+","altim":1014,"clouds":[{"cover":"BKN","base":1800},{"cover":"BKN","base":7000}],"obsTime":1784653200},"SBAN":{"icaoId":"SBAN","flightCategory":"VFR","rawOb":"METAR SBAN 211700Z 36004KT CAVOK 26/08 Q1019","temp":26,"dewp":8,"wdir":360,"wspd":4,"visib":"6+","altim":1019,"clouds":[],"obsTime":1784653200},"SBIH":{"icaoId":"SBIH","flightCategory":"VFR","rawOb":"METAR SBIH 211700Z 04008KT 9999 FEW020 33/23 Q1011","temp":33,"dewp":23,"wdir":40,"wspd":8,"visib":"6+","altim":1011,"clouds":[{"cover":"FEW","base":2000}],"obsTime":1784653200},"SBJV":{"icaoId":"SBJV","flightCategory":"VFR","rawOb":"METAR SBJV 211700Z 14006KT CAVOK 27/20 Q1008","temp":27,"dewp":20,"wdir":140,"wspd":6,"visib":"6+","altim":1008,"clouds":[],"obsTime":1784653200},"SBNM":{"icaoId":"SBNM","flightCategory":"IFR","rawOb":"METAR SBNM 211700Z 12002KT 1700 TSRA BR SCT005 FEW030CB BKN100 19/18 Q1007","temp":19,"dewp":18,"wdir":120,"wspd":2,"visib":1.06,"altim":1007,"clouds":[{"cover":"SCT","base":500},{"cover":"FEW","base":3000},{"cover":"BKN","base":10000}],"obsTime":1784653200},"SBAF":{"icaoId":"SBAF","flightCategory":"VFR","rawOb":"METAR SBAF 211700Z 36008KT CAVOK 32/12 Q1013","temp":32,"dewp":12,"wdir":360,"wspd":8,"visib":"6+","altim":1013,"clouds":[],"obsTime":1784653200},"SBGW":{"icaoId":"SBGW","flightCategory":"VFR","rawOb":"METAR SBGW 211700Z 35006KT CAVOK 29/07 Q1015","temp":29,"dewp":7,"wdir":350,"wspd":6,"visib":"6+","altim":1015,"clouds":[],"obsTime":1784653200},"SBLE":{"icaoId":"SBLE","flightCategory":"VFR","rawOb":"METAR SBLE 211700Z AUTO VRB03KT 9999 FEW034 25/18 Q1018","temp":25,"dewp":18,"wdir":"VRB","wspd":3,"visib":"6+","altim":1018,"clouds":[{"cover":"FEW","base":3400}],"obsTime":1784653200},"SBLS":{"icaoId":"SBLS","flightCategory":"VFR","rawOb":"METAR SBLS 211700Z VRB03KT 9999 BKN035 25/14 Q1018","temp":25,"dewp":14,"wdir":"VRB","wspd":3,"visib":"6+","altim":1018,"clouds":[{"cover":"BKN","base":3500}],"obsTime":1784653200},"SBMT":{"icaoId":"SBMT","flightCategory":"VFR","rawOb":"METAR SBMT 211700Z 31007KT 260V010 CAVOK 26/10 Q1016","temp":26,"dewp":10,"wdir":310,"wspd":7,"visib":"6+","altim":1016,"clouds":[],"obsTime":1784653200},"SBST":{"icaoId":"SBST","flightCategory":"VFR","rawOb":"METAR SBST 211700Z 02007KT 350V070 CAVOK 33/12 Q1010","temp":33,"dewp":12,"wdir":20,"wspd":7,"visib":"6+","altim":1010,"clouds":[],"obsTime":1784653200},"SBTA":{"icaoId":"SBTA","flightCategory":"VFR","rawOb":"METAR SBTA 211700Z 35005KT 300V050 CAVOK 28/12 Q1015","temp":28,"dewp":12,"wdir":350,"wspd":5,"visib":"6+","altim":1015,"clouds":[],"obsTime":1784653200},"SBJR":{"icaoId":"SBJR","flightCategory":"VFR","rawOb":"METAR SBJR 211700Z 36003KT CAVOK 34/13 Q1012","temp":34,"dewp":13,"wdir":360,"wspd":3,"visib":"6+","altim":1012,"clouds":[],"obsTime":1784653200}}}