{"updated":1781176152,"count":76,"data":{"SBKP":{"icaoId":"SBKP","flightCategory":"IFR","rawOb":"METAR SBKP 111000Z 04005KT 2700 -RA BR SCT003 BKN030 OVC100 16/16 Q1019","temp":16,"dewp":16,"wdir":40,"wspd":5,"visib":1.68,"altim":1019,"clouds":[{"cover":"SCT","base":300},{"cover":"BKN","base":3000},{"cover":"OVC","base":10000}],"obsTime":1781172000},"SBTE":{"icaoId":"SBTE","flightCategory":"VFR","rawOb":"METAR SBTE 111000Z 33003KT 9999 FEW015 26/24 Q1014","temp":26,"dewp":24,"wdir":330,"wspd":3,"visib":"6+","altim":1014,"clouds":[{"cover":"FEW","base":1500}],"obsTime":1781172000},"SBLO":{"icaoId":"SBLO","flightCategory":"LIFR","rawOb":"SPECI SBLO 110920Z 17003KT 4000 -RA BR BKN002 BKN007 15/15 Q1017 RERA","temp":15,"dewp":15,"wdir":170,"wspd":3,"visib":2.49,"altim":1017,"clouds":[{"cover":"BKN","base":200},{"cover":"BKN","base":700}],"obsTime":1781169600},"SBMA":{"icaoId":"SBMA","flightCategory":"VFR","rawOb":"METAR SBMA 111000Z 35005KT CAVOK 26/24 Q1014","temp":26,"dewp":24,"wdir":350,"wspd":5,"visib":"6+","altim":1014,"clouds":[],"obsTime":1781172000},"SBVT":{"icaoId":"SBVT","flightCategory":"VFR","rawOb":"METAR SBVT 111000Z 32002KT CAVOK 16/16 Q1017","temp":16,"dewp":16,"wdir":320,"wspd":2,"visib":"6+","altim":1017,"clouds":[],"obsTime":1781172000},"SBCB":{"icaoId":"SBCB","flightCategory":"MVFR","rawOb":"METAR SBCB 111000Z 03001KT 7000 FEW015 BKN035 20/19 Q1017","temp":20,"dewp":19,"wdir":30,"wspd":1,"visib":4.35,"altim":1017,"clouds":[{"cover":"FEW","base":1500},{"cover":"BKN","base":3500}],"obsTime":1781172000},"SBFI":{"icaoId":"SBFI","flightCategory":"VFR","rawOb":"SPECI SBFI 110920Z 10004KT 9999 -TSRA SCT010 FEW030CB BKN100 16/16 Q1013","temp":16,"dewp":16,"wdir":100,"wspd":4,"visib":"6+","altim":1013,"clouds":[{"cover":"SCT","base":1000},{"cover":"FEW","base":3000},{"cover":"BKN","base":10000}],"obsTime":1781169600},"SBCG":{"icaoId":"SBCG","flightCategory":"VFR","rawOb":"METAR SBCG 111000Z 06011KT 9999 SCT045 19/16 Q1015","temp":19,"dewp":16,"wdir":60,"wspd":11,"visib":"6+","altim":1015,"clouds":[{"cover":"SCT","base":4500}],"obsTime":1781172000},"SBFL":{"icaoId":"SBFL","flightCategory":"MVFR","rawOb":"METAR SBFL 111000Z VRB01KT 8000 SCT010 OVC030 16/16 Q1017","temp":16,"dewp":16,"wdir":"VRB","wspd":1,"visib":4.97,"altim":1017,"clouds":[{"cover":"SCT","base":1000},{"cover":"OVC","base":3000}],"obsTime":1781172000},"SBMO":{"icaoId":"SBMO","flightCategory":"VFR","rawOb":"METAR SBMO 111000Z VRB02KT 9999 FEW018 24/23 Q1016","temp":24,"dewp":23,"wdir":"VRB","wspd":2,"visib":"6+","altim":1016,"clouds":[{"cover":"FEW","base":1800}],"obsTime":1781172000},"SBFZ":{"icaoId":"SBFZ","flightCategory":"VFR","rawOb":"METAR SBFZ 111000Z 16008KT 9999 FEW025 26/23 Q1014","temp":26,"dewp":23,"wdir":160,"wspd":8,"visib":"6+","altim":1014,"clouds":[{"cover":"FEW","base":2500}],"obsTime":1781172000},"SBBE":{"icaoId":"SBBE","flightCategory":"VFR","rawOb":"METAR SBBE 111000Z 10006KT 9999 FEW015 25/25 Q1013","temp":25,"dewp":25,"wdir":100,"wspd":6,"visib":"6+","altim":1013,"clouds":[{"cover":"FEW","base":1500}],"obsTime":1781172000},"SBMQ":{"icaoId":"SBMQ","flightCategory":"MVFR","rawOb":"METAR SBMQ 111000Z 00000KT 9999 VCSH BKN015 FEW035TCU 25/25 Q1013","temp":25,"dewp":25,"wdir":0,"wspd":0,"visib":"6+","altim":1013,"clouds":[{"cover":"BKN","base":1500},{"cover":"FEW","base":3500}],"obsTime":1781172000},"SBBV":{"icaoId":"SBBV","flightCategory":"MVFR","rawOb":"METAR SBBV 111000Z 02005KT 8000 -SHRA FEW040 FEW045TCU BKN070 24/23 Q1014","temp":24,"dewp":23,"wdir":20,"wspd":5,"visib":4.97,"altim":1014,"clouds":[{"cover":"FEW","base":4000},{"cover":"FEW","base":4500},{"cover":"BKN","base":7000}],"obsTime":1781172000},"SBNT":{"icaoId":"SBNT","flightCategory":"VFR","rawOb":"METAR SBNT 111000Z 19007KT 160V240 9999 FEW040 25/23 Q1014","temp":25,"dewp":23,"wdir":190,"wspd":7,"visib":"6+","altim":1014,"clouds":[{"cover":"FEW","base":4000}],"obsTime":1781172000},"SBCP":{"icaoId":"SBCP","flightCategory":"MVFR","rawOb":"METAR SBCP 111000Z 33004KT 8000 SCT010 19/19 Q1017","temp":19,"dewp":19,"wdir":330,"wspd":4,"visib":4.97,"altim":1017,"clouds":[{"cover":"SCT","base":1000}],"obsTime":1781172000},"SBPA":{"icaoId":"SBPA","flightCategory":"MVFR","rawOb":"METAR SBPA 111000Z 06003KT 5000 BR BKN011 11/11 Q1016","temp":11,"dewp":11,"wdir":60,"wspd":3,"visib":3.11,"altim":1016,"clouds":[{"cover":"BKN","base":1100}],"obsTime":1781172000},"SBPJ":{"icaoId":"SBPJ","flightCategory":"VFR","rawOb":"METAR SBPJ 111000Z 12003KT CAVOK 22/19 Q1014","temp":22,"dewp":19,"wdir":120,"wspd":3,"visib":"6+","altim":1014,"clouds":[],"obsTime":1781172000},"SBGL":{"icaoId":"SBGL","flightCategory":"MVFR","rawOb":"METAR SBGL 111000Z 12002KT 6000 FEW013 BKN023 BKN100 20/18 Q1017","temp":20,"dewp":18,"wdir":120,"wspd":2,"visib":3.73,"altim":1017,"clouds":[{"cover":"FEW","base":1300},{"cover":"BKN","base":2300},{"cover":"BKN","base":10000}],"obsTime":1781172000},"SBPV":{"icaoId":"SBPV","flightCategory":"VFR","rawOb":"METAR SBPV 111000Z 00000KT 9999 FEW035 23/21 Q1013","temp":23,"dewp":21,"wdir":0,"wspd":0,"visib":"6+","altim":1013,"clouds":[{"cover":"FEW","base":3500}],"obsTime":1781172000},"SBCR":{"icaoId":"SBCR","flightCategory":"VFR","rawOb":"METAR SBCR 111100Z 12001KT CAVOK 22/20 Q1014","temp":22,"dewp":20,"wdir":120,"wspd":1,"visib":"6+","altim":1014,"clouds":[],"obsTime":1781175600},"SBGO":{"icaoId":"SBGO","flightCategory":"VFR","rawOb":"METAR SBGO 111000Z 31001KT 9999 FEW040 SCT100 20/17 Q1018","temp":20,"dewp":17,"wdir":310,"wspd":1,"visib":"6+","altim":1018,"clouds":[{"cover":"FEW","base":4000},{"cover":"SCT","base":10000}],"obsTime":1781172000},"SBRB":{"icaoId":"SBRB","flightCategory":"LIFR","rawOb":"METAR SBRB 111000Z 36002KT 0400 R07///// R25///// FG VV002 22/21 Q1012","temp":22,"dewp":21,"wdir":360,"wspd":2,"visib":0.25,"altim":1012,"clouds":[{"cover":"OVX","base":200}],"obsTime":1781172000},"SBRF":{"icaoId":"SBRF","flightCategory":"VFR","rawOb":"METAR SBRF 111000Z 16013KT 9999 FEW023 27/22 Q1014","temp":27,"dewp":22,"wdir":160,"wspd":13,"visib":"6+","altim":1014,"clouds":[{"cover":"FEW","base":2300}],"obsTime":1781172000},"SBGR":{"icaoId":"SBGR","flightCategory":"VFR","rawOb":"METAR SBGR 111000Z 05002KT 9999 -RA NSC 16/15 Q1019","temp":16,"dewp":15,"wdir":50,"wspd":2,"visib":"6+","altim":1019,"clouds":[],"obsTime":1781172000},"SBCF":{"icaoId":"SBCF","flightCategory":"VFR","rawOb":"METAR SBCF 111000Z 18001KT 9000 NSC 17/14 Q1019","temp":17,"dewp":14,"wdir":180,"wspd":1,"visib":5.59,"altim":1019,"clouds":[],"obsTime":1781172000},"SBSG":{"icaoId":"SBSG","flightCategory":"VFR","rawOb":"METAR SBSG 111000Z 19005KT 150V210 9999 FEW020 SCT100 24/23 Q1015","temp":24,"dewp":23,"wdir":190,"wspd":5,"visib":"6+","altim":1015,"clouds":[{"cover":"FEW","base":2000},{"cover":"SCT","base":10000}],"obsTime":1781172000},"SBSL":{"icaoId":"SBSL","flightCategory":"VFR","rawOb":"METAR SBSL 111000Z 16003KT 9999 FEW015 SCT080 25/24 Q1013","temp":25,"dewp":24,"wdir":160,"wspd":3,"visib":"6+","altim":1013,"clouds":[{"cover":"FEW","base":1500},{"cover":"SCT","base":8000}],"obsTime":1781172000},"SBCT":{"icaoId":"SBCT","flightCategory":"IFR","rawOb":"METAR SBCT 111000Z 20005KT 170V230 7000 BKN005 BKN014 BKN100 14/14 Q1018","temp":14,"dewp":14,"wdir":200,"wspd":5,"visib":4.35,"altim":1018,"clouds":[{"cover":"BKN","base":500},{"cover":"BKN","base":1400},{"cover":"BKN","base":10000}],"obsTime":1781172000},"SBEG":{"icaoId":"SBEG","flightCategory":"VFR","rawOb":"METAR SBEG 111000Z 21004KT 9999 SCT009 BKN090 24/24 Q1013","temp":24,"dewp":24,"wdir":210,"wspd":4,"visib":"6+","altim":1013,"clouds":[{"cover":"SCT","base":900},{"cover":"BKN","base":9000}],"obsTime":1781172000},"SBSN":{"icaoId":"SBSN","flightCategory":"VFR","rawOb":"METAR SBSN 111000Z VRB02KT 9999 SCT013 SCT018 FEW030TCU BKN080 24/24 Q1013","temp":24,"dewp":24,"wdir":"VRB","wspd":2,"visib":"6+","altim":1013,"clouds":[{"cover":"SCT","base":1300},{"cover":"SCT","base":1800},{"cover":"FEW","base":3000},{"cover":"BKN","base":8000}],"obsTime":1781172000},"SBBR":{"icaoId":"SBBR","flightCategory":"VFR","rawOb":"METAR SBBR 111000Z 00000KT CAVOK 17/14 Q1019","temp":17,"dewp":14,"wdir":0,"wspd":0,"visib":"6+","altim":1019,"clouds":[],"obsTime":1781172000},"SBSP":{"icaoId":"SBSP","flightCategory":"VFR","rawOb":"METAR SBSP 111000Z 34006KT 9999 -RA SCT007 OVC100 16/15 Q1019","temp":16,"dewp":15,"wdir":340,"wspd":6,"visib":"6+","altim":1019,"clouds":[{"cover":"SCT","base":700},{"cover":"OVC","base":10000}],"obsTime":1781172000},"SBSV":{"icaoId":"SBSV","flightCategory":"VFR","rawOb":"METAR SBSV 111000Z VRB02KT 9999 SCT023 23/21 Q1017","temp":23,"dewp":21,"wdir":"VRB","wspd":2,"visib":"6+","altim":1017,"clouds":[{"cover":"SCT","base":2300}],"obsTime":1781172000},"SBHT":{"icaoId":"SBHT","flightCategory":"MVFR","rawOb":"METAR SBHT 111000Z 00000KT 8000 -RA SCT012 BKN080 24/24 Q1014","temp":24,"dewp":24,"wdir":0,"wspd":0,"visib":4.97,"altim":1014,"clouds":[{"cover":"SCT","base":1200},{"cover":"BKN","base":8000}],"obsTime":1781172000},"SBIL":{"icaoId":"SBIL","flightCategory":"VFR","rawOb":"METAR SBIL 111000Z 30026KT 9999 SCT023 21/20 Q1018","temp":21,"dewp":20,"wdir":300,"wspd":26,"visib":"6+","altim":1018,"clouds":[{"cover":"SCT","base":2300}],"obsTime":1781172000},"SBJU":{"icaoId":"SBJU","flightCategory":"MVFR","rawOb":"METAR SBJU 111000Z 00000KT 9999 FEW010 BKN020 23/23 Q1017","temp":23,"dewp":23,"wdir":0,"wspd":0,"visib":"6+","altim":1017,"clouds":[{"cover":"FEW","base":1000},{"cover":"BKN","base":2000}],"obsTime":1781172000},"SBME":{"icaoId":"SBME","flightCategory":"VFR","rawOb":"METAR SBME 111000Z 35002KT 9999 FEW022 BKN090 17/17 Q1017","temp":17,"dewp":17,"wdir":350,"wspd":2,"visib":"6+","altim":1017,"clouds":[{"cover":"FEW","base":2200},{"cover":"BKN","base":9000}],"obsTime":1781172000},"SBMG":{"icaoId":"SBMG","flightCategory":"MVFR","rawOb":"METAR SBMG 111000Z 04009KT 9999 BCFG FEW003 BKN018 BKN050 16/15 Q1016","temp":16,"dewp":15,"wdir":40,"wspd":9,"visib":"6+","altim":1016,"clouds":[{"cover":"FEW","base":300},{"cover":"BKN","base":1800},{"cover":"BKN","base":5000}],"obsTime":1781172000},"SBMK":{"icaoId":"SBMK","flightCategory":"VFR","rawOb":"METAR SBMK 111000Z 00000KT 9999 FEW035 18/16 Q1019","temp":18,"dewp":16,"wdir":0,"wspd":0,"visib":"6+","altim":1019,"clouds":[{"cover":"FEW","base":3500}],"obsTime":1781172000},"SBUR":{"icaoId":"SBUR","flightCategory":"MVFR","rawOb":"METAR SBUR 111000Z 17008KT 6000 SCT025 OVC080 16/14 Q1019","temp":16,"dewp":14,"wdir":170,"wspd":8,"visib":3.73,"altim":1019,"clouds":[{"cover":"SCT","base":2500},{"cover":"OVC","base":8000}],"obsTime":1781172000},"SBUL":{"icaoId":"SBUL","flightCategory":"VFR","rawOb":"METAR SBUL 111000Z 23005KT CAVOK 18/15 Q1019","temp":18,"dewp":15,"wdir":230,"wspd":5,"visib":"6+","altim":1019,"clouds":[],"obsTime":1781172000},"SBAR":{"icaoId":"SBAR","flightCategory":"VFR","rawOb":"METAR SBAR 111000Z 15006KT 9999 SCT023 26/21 Q1016","temp":26,"dewp":21,"wdir":150,"wspd":6,"visib":"6+","altim":1016,"clouds":[{"cover":"SCT","base":2300}],"obsTime":1781172000},"SBCJ":{"icaoId":"SBCJ","flightCategory":"VFR","rawOb":"SPECI SBCJ 111015Z 00000KT CAVOK 22/21 Q1018","temp":22,"dewp":21,"wdir":0,"wspd":0,"visib":"6+","altim":1018,"clouds":[],"obsTime":1781172900},"SBOI":{"icaoId":"SBOI","flightCategory":"VFR","rawOb":"METAR SBOI 111000Z AUTO VRB02KT 9999 // FEW001/// 23/23 Q1013","temp":23,"dewp":23,"wdir":"VRB","wspd":2,"visib":"6+","altim":1013,"clouds":[{"cover":"FEW","base":100}],"obsTime":1781172000},"SBPB":{"icaoId":"SBPB","flightCategory":"VFR","rawOb":"SPECI SBPB 111015Z 09006KT 9999 FEW016 27/24 Q1014","temp":27,"dewp":24,"wdir":90,"wspd":6,"visib":"6+","altim":1014,"clouds":[{"cover":"FEW","base":1600}],"obsTime":1781172900},"SBPL":{"icaoId":"SBPL","flightCategory":"VFR","rawOb":"METAR SBPL 111000Z 11008KT CAVOK 23/17 Q1018","temp":23,"dewp":17,"wdir":110,"wspd":8,"visib":"6+","altim":1018,"clouds":[],"obsTime":1781172000},"SBPS":{"icaoId":"SBPS","flightCategory":"VFR","rawOb":"METAR SBPS 111000Z 26003KT 9999 SCT025 19/19 Q1017","temp":19,"dewp":19,"wdir":260,"wspd":3,"visib":"6+","altim":1017,"clouds":[{"cover":"SCT","base":2500}],"obsTime":1781172000},"SBSJ":{"icaoId":"SBSJ","flightCategory":"LIFR","rawOb":"METAR SBSJ 111000Z 07004KT 1500 R34///// R16/P2000 -RA BR SCT004 OVC025 16/15 Q1020 RERA","temp":16,"dewp":15,"wdir":70,"wspd":4,"visib":0.93,"altim":1020,"clouds":[{"cover":"SCT","base":400},{"cover":"OVC","base":2500}],"obsTime":1781172000},"SBTD":{"icaoId":"SBTD","flightCategory":"MVFR","rawOb":"METAR SBTD 111100Z /////KT 9999 -RA SCT005 BKN020 OVC070 15/14 Q1017","temp":15,"dewp":14,"wdir":null,"wspd":null,"visib":"6+","altim":1017,"clouds":[{"cover":"SCT","base":500},{"cover":"BKN","base":2000},{"cover":"OVC","base":7000}],"obsTime":1781175600},"SBTT":{"icaoId":"SBTT","flightCategory":"VFR","rawOb":"METAR SBTT 111100Z 16003KT 9999 FEW030 22/22 Q1013","temp":22,"dewp":22,"wdir":160,"wspd":3,"visib":"6+","altim":1013,"clouds":[{"cover":"FEW","base":3000}],"obsTime":1781175600},"SBUY":{"icaoId":"SBUY","flightCategory":"LIFR","rawOb":"METAR SBUY 111100Z 17003KT 0400 FG BKN003 23/22 Q1012","temp":23,"dewp":22,"wdir":170,"wspd":3,"visib":0.25,"altim":1012,"clouds":[{"cover":"BKN","base":300}],"obsTime":1781175600},"SBTU":{"icaoId":"SBTU","flightCategory":"VFR","rawOb":"METAR SBTU 111000Z AUTO 20005KT 9999 // FEW040/// ///// Q1015","temp":null,"dewp":null,"wdir":200,"wspd":5,"visib":"6+","altim":1015,"clouds":[{"cover":"FEW","base":4000}],"obsTime":1781172000},"SBSM":{"icaoId":"SBSM","flightCategory":"LIFR","rawOb":"METAR SBSM 111000Z VRB02KT 6000 OVC003 13/12 Q1016","temp":13,"dewp":12,"wdir":"VRB","wspd":2,"visib":3.73,"altim":1016,"clouds":[{"cover":"OVC","base":300}],"obsTime":1781172000},"SBSR":{"icaoId":"SBSR","flightCategory":"MVFR","rawOb":"METAR SBSR 111000Z COR 17004KT 6000 -RA BKN013 BKN020 OVC080 17/16 Q1019","temp":17,"dewp":16,"wdir":170,"wspd":4,"visib":3.73,"altim":1019,"clouds":[{"cover":"BKN","base":1300},{"cover":"BKN","base":2000},{"cover":"OVC","base":8000}],"obsTime":1781172000},"SBAX":{"icaoId":"SBAX","flightCategory":"VFR","rawOb":"METAR SBAX 111000Z AUTO 20004KT 9999 -RA FEW046 ///// Q1020","temp":null,"dewp":null,"wdir":200,"wspd":4,"visib":"6+","altim":1020,"clouds":[{"cover":"FEW","base":4600}],"obsTime":1781172000},"SBBU":{"icaoId":"SBBU","flightCategory":"LIFR","rawOb":"METAR SBBU 111000Z 06003KT 0050 FG VV001 17/17 Q1019","temp":17,"dewp":17,"wdir":60,"wspd":3,"visib":0.03,"altim":1019,"clouds":[{"cover":"OVX","base":100}],"obsTime":1781172000},"SBCA":{"icaoId":"SBCA","flightCategory":"MVFR","rawOb":"METAR SBCA 111000Z 05013KT 9999 FEW002 BKN030 FEW040TCU BKN070 14/13 Q1017","temp":14,"dewp":13,"wdir":50,"wspd":13,"visib":"6+","altim":1017,"clouds":[{"cover":"FEW","base":200},{"cover":"BKN","base":3000},{"cover":"FEW","base":4000},{"cover":"BKN","base":7000}],"obsTime":1781172000},"SBSC":{"icaoId":"SBSC","flightCategory":"VFR","rawOb":"METAR SBSC 111000Z 36001KT 9999 FEW030 BKN050 19/18 Q1017","temp":19,"dewp":18,"wdir":360,"wspd":1,"visib":"6+","altim":1017,"clouds":[{"cover":"FEW","base":3000},{"cover":"BKN","base":5000}],"obsTime":1781172000},"SBCO":{"icaoId":"SBCO","flightCategory":"LIFR","rawOb":"METAR SBCO 111000Z 07003KT 1200 R13///// R31/P2000 BR BCFG BKN003 BKN009 12/12 Q1016","temp":12,"dewp":12,"wdir":70,"wspd":3,"visib":0.75,"altim":1016,"clouds":[{"cover":"BKN","base":300},{"cover":"BKN","base":900}],"obsTime":1781172000},"SBDN":{"icaoId":"SBDN","flightCategory":"MVFR","rawOb":"METAR SBDN 111000Z 11006KT 5000 BR NSC 17/16 Q1017","temp":17,"dewp":16,"wdir":110,"wspd":6,"visib":3.11,"altim":1017,"clouds":[],"obsTime":1781172000},"SBIP":{"icaoId":"SBIP","flightCategory":"LIFR","rawOb":"METAR SBIP 111000Z AUTO 00000KT 0750 FG VV001 15/15 Q1018","temp":15,"dewp":15,"wdir":0,"wspd":0,"visib":0.47,"altim":1018,"clouds":[{"cover":"OVX","base":100}],"obsTime":1781172000},"SBES":{"icaoId":"SBES","flightCategory":"MVFR","rawOb":"METAR SBES 111000Z 00000KT 5000 BR FEW005 BKN040 17/// Q1017","temp":null,"dewp":null,"wdir":0,"wspd":0,"visib":3.11,"altim":1017,"clouds":[{"cover":"FEW","base":500},{"cover":"BKN","base":4000}],"obsTime":1781172000},"SBKG":{"icaoId":"SBKG","flightCategory":"MVFR","rawOb":"METAR SBKG 111000Z 15006KT 9999 BKN018 SCT070 22/20 Q1017","temp":22,"dewp":20,"wdir":150,"wspd":6,"visib":"6+","altim":1017,"clouds":[{"cover":"BKN","base":1800},{"cover":"SCT","base":7000}],"obsTime":1781172000},"SBJP":{"icaoId":"SBJP","flightCategory":"VFR","rawOb":"METAR SBJP 111000Z 18006KT CAVOK 24/23 Q1015","temp":24,"dewp":23,"wdir":180,"wspd":6,"visib":"6+","altim":1015,"clouds":[],"obsTime":1781172000},"SBAF":{"icaoId":"SBAF","flightCategory":"IFR","rawOb":"METAR SBAF 111000Z 00000KT 4000 BR FEW013 19/19 Q1017","temp":19,"dewp":19,"wdir":0,"wspd":0,"visib":2.49,"altim":1017,"clouds":[{"cover":"FEW","base":1300}],"obsTime":1781172000},"SBGW":{"icaoId":"SBGW","flightCategory":"LIFR","rawOb":"METAR SBGW 111000Z 25004KT 200V270 0900 RA FG BKN004 BKN012 FEW020TCU 17/16 Q1020","temp":17,"dewp":16,"wdir":250,"wspd":4,"visib":0.56,"altim":1020,"clouds":[{"cover":"BKN","base":400},{"cover":"BKN","base":1200},{"cover":"FEW","base":2000}],"obsTime":1781172000},"SBJR":{"icaoId":"SBJR","flightCategory":"MVFR","rawOb":"METAR SBJR 111000Z 00000KT 7000 NSC 20/19 Q1017","temp":20,"dewp":19,"wdir":0,"wspd":0,"visib":4.35,"altim":1017,"clouds":[],"obsTime":1781172000},"SBLS":{"icaoId":"SBLS","flightCategory":"VFR","rawOb":"METAR SBLS 111000Z 15004KT 9999 BCFG NSC 17/14 Q1019","temp":17,"dewp":14,"wdir":150,"wspd":4,"visib":"6+","altim":1019,"clouds":[],"obsTime":1781172000},"SBMT":{"icaoId":"SBMT","flightCategory":"IFR","rawOb":"METAR SBMT 111000Z 00000KT 4000 BR SCT020 OVC090 15/15 Q1019","temp":15,"dewp":15,"wdir":0,"wspd":0,"visib":2.49,"altim":1019,"clouds":[{"cover":"SCT","base":2000},{"cover":"OVC","base":9000}],"obsTime":1781172000},"SBTA":{"icaoId":"SBTA","flightCategory":"LIFR","rawOb":"METAR SBTA 111000Z VRB02KT 1200 RA BR BKN004 OVC020 17/16 Q1019 RERA","temp":17,"dewp":16,"wdir":"VRB","wspd":2,"visib":0.75,"altim":1019,"clouds":[{"cover":"BKN","base":400},{"cover":"OVC","base":2000}],"obsTime":1781172000},"SBJV":{"icaoId":"SBJV","flightCategory":"IFR","rawOb":"METAR SBJV 111000Z 23003KT 9999 OVC007 17/17 Q1017","temp":17,"dewp":17,"wdir":230,"wspd":3,"visib":"6+","altim":1017,"clouds":[{"cover":"OVC","base":700}],"obsTime":1781172000},"SBNM":{"icaoId":"SBNM","flightCategory":"MVFR","rawOb":"METAR SBNM 111000Z AUTO 10007KT 6000 BKN037 13/13 Q1015","temp":13,"dewp":13,"wdir":100,"wspd":7,"visib":3.73,"altim":1015,"clouds":[{"cover":"BKN","base":3700}],"obsTime":1781172000},"SBPF":{"icaoId":"SBPF","flightCategory":"VFR","rawOb":"METAR SBPF 111000Z 03005KT CAVOK 13/12 Q1016","temp":13,"dewp":12,"wdir":30,"wspd":5,"visib":"6+","altim":1016,"clouds":[],"obsTime":1781172000},"SBAN":{"icaoId":"SBAN","flightCategory":"VFR","rawOb":"METAR SBAN 111000Z 30001KT CAVOK 17/15 Q1021","temp":17,"dewp":15,"wdir":300,"wspd":1,"visib":"6+","altim":1021,"clouds":[],"obsTime":1781172000},"SBLE":{"icaoId":"SBLE","flightCategory":"VFR","rawOb":"METAR SBLE 111000Z AUTO VRB02KT CAVOK ///// Q////","temp":null,"dewp":null,"wdir":"VRB","wspd":2,"visib":"6+","altim":null,"clouds":[],"obsTime":1781172000}}}