{"updated":1775133705,"count":86,"data":{"SBCT":{"icaoId":"SBCT","flightCategory":"VFR","rawOb":"METAR SBCT 021100Z 32004KT 280V350 9999 FEW010 19/17 Q1017","temp":19,"dewp":17,"wdir":320,"wspd":4,"visib":"6+","altim":1017,"clouds":[{"cover":"FEW","base":1000}],"obsTime":1775127600},"SBFZ":{"icaoId":"SBFZ","flightCategory":"MVFR","rawOb":"METAR SBFZ 021100Z 17006KT 9999 FEW007 BKN022 25/24 Q1011","temp":25,"dewp":24,"wdir":170,"wspd":6,"visib":"6+","altim":1011,"clouds":[{"cover":"FEW","base":700},{"cover":"BKN","base":2200}],"obsTime":1775127600},"SBTE":{"icaoId":"SBTE","flightCategory":"MVFR","rawOb":"METAR SBTE 021100Z 28014KT 9999 BKN012 BKN080 25/24 Q1012","temp":25,"dewp":24,"wdir":280,"wspd":14,"visib":"6+","altim":1012,"clouds":[{"cover":"BKN","base":1200},{"cover":"BKN","base":8000}],"obsTime":1775127600},"SBCZ":{"icaoId":"SBCZ","flightCategory":"VFR","rawOb":"METAR SBCZ 021200Z VRB02KT 9000 FEW002 SCT040 BKN080 25/24 Q1011","temp":25,"dewp":24,"wdir":"VRB","wspd":2,"visib":5.59,"altim":1011,"clouds":[{"cover":"FEW","base":200},{"cover":"SCT","base":4000},{"cover":"BKN","base":8000}],"obsTime":1775131200},"SBBE":{"icaoId":"SBBE","flightCategory":"VFR","rawOb":"METAR SBBE 021100Z 12003KT 9999 -RA SCT040 26/26 Q1013","temp":26,"dewp":26,"wdir":120,"wspd":3,"visib":"6+","altim":1013,"clouds":[{"cover":"SCT","base":4000}],"obsTime":1775127600},"SBBR":{"icaoId":"SBBR","flightCategory":"IFR","rawOb":"METAR SBBR 021100Z 09004KT 060V120 5000 BR BKN005 19/19 Q1019","temp":19,"dewp":19,"wdir":90,"wspd":4,"visib":3.11,"altim":1019,"clouds":[{"cover":"BKN","base":500}],"obsTime":1775127600},"SBBV":{"icaoId":"SBBV","flightCategory":"VFR","rawOb":"METAR SBBV 021100Z 10009KT 9999 FEW040 FEW045TCU BKN100 25/22 Q1012","temp":25,"dewp":22,"wdir":100,"wspd":9,"visib":"6+","altim":1012,"clouds":[{"cover":"FEW","base":4000},{"cover":"FEW","base":4500},{"cover":"BKN","base":10000}],"obsTime":1775127600},"SBCB":{"icaoId":"SBCB","flightCategory":"VFR","rawOb":"METAR SBCB 021100Z 04013KT 9999 FEW015 SCT050 26/23 Q1014","temp":26,"dewp":23,"wdir":40,"wspd":13,"visib":"6+","altim":1014,"clouds":[{"cover":"FEW","base":1500},{"cover":"SCT","base":5000}],"obsTime":1775127600},"SBCF":{"icaoId":"SBCF","flightCategory":"VFR","rawOb":"METAR SBCF 021100Z 19003KT 9999 FEW025 21/20 Q1019","temp":21,"dewp":20,"wdir":190,"wspd":3,"visib":"6+","altim":1019,"clouds":[{"cover":"FEW","base":2500}],"obsTime":1775127600},"SBCG":{"icaoId":"SBCG","flightCategory":"VFR","rawOb":"METAR SBCG 021100Z 03008KT CAVOK 24/19 Q1014","temp":24,"dewp":19,"wdir":30,"wspd":8,"visib":"6+","altim":1014,"clouds":[],"obsTime":1775127600},"SBCP":{"icaoId":"SBCP","flightCategory":"VFR","rawOb":"METAR SBCP 021100Z 04008KT 9999 FEW030 SCT090 26/23 Q1015","temp":26,"dewp":23,"wdir":40,"wspd":8,"visib":"6+","altim":1015,"clouds":[{"cover":"FEW","base":3000},{"cover":"SCT","base":9000}],"obsTime":1775127600},"SBCR":{"icaoId":"SBCR","flightCategory":"VFR","rawOb":"METAR SBCR 021100Z 16004KT CAVOK 27/23 Q1011","temp":27,"dewp":23,"wdir":160,"wspd":4,"visib":"6+","altim":1011,"clouds":[],"obsTime":1775127600},"SBAT":{"icaoId":"SBAT","flightCategory":"VFR","rawOb":"METAR SBAT 021100Z 10002KT 9999 -RA FEW012 OVC100 24/24 Q1014","temp":24,"dewp":24,"wdir":100,"wspd":2,"visib":"6+","altim":1014,"clouds":[{"cover":"FEW","base":1200},{"cover":"OVC","base":10000}],"obsTime":1775127600},"SBEG":{"icaoId":"SBEG","flightCategory":"VFR","rawOb":"METAR SBEG 021100Z 06005KT 9999 FEW012 BKN100 24/23 Q1012","temp":24,"dewp":23,"wdir":60,"wspd":5,"visib":"6+","altim":1012,"clouds":[{"cover":"FEW","base":1200},{"cover":"BKN","base":10000}],"obsTime":1775127600},"SBFI":{"icaoId":"SBFI","flightCategory":"VFR","rawOb":"METAR SBFI 021100Z 07002KT 9999 FEW015 23/21 Q1012","temp":23,"dewp":21,"wdir":70,"wspd":2,"visib":"6+","altim":1012,"clouds":[{"cover":"FEW","base":1500}],"obsTime":1775127600},"SBFL":{"icaoId":"SBFL","flightCategory":"VFR","rawOb":"METAR SBFL 021100Z 33006KT CAVOK 25/22 Q1012","temp":25,"dewp":22,"wdir":330,"wspd":6,"visib":"6+","altim":1012,"clouds":[],"obsTime":1775127600},"SBGL":{"icaoId":"SBGL","flightCategory":"VFR","rawOb":"METAR SBGL 021100Z 36004KT 9999 FEW040 SCT100 25/23 Q1013","temp":25,"dewp":23,"wdir":360,"wspd":4,"visib":"6+","altim":1013,"clouds":[{"cover":"FEW","base":4000},{"cover":"SCT","base":10000}],"obsTime":1775127600},"SBGO":{"icaoId":"SBGO","flightCategory":"VFR","rawOb":"METAR SBGO 021100Z VRB02KT CAVOK 22/19 Q1017","temp":22,"dewp":19,"wdir":"VRB","wspd":2,"visib":"6+","altim":1017,"clouds":[],"obsTime":1775127600},"SBGR":{"icaoId":"SBGR","flightCategory":"VFR","rawOb":"METAR SBGR 021100Z 07007KT 9999 FEW010 BKN100 21/19 Q1017","temp":21,"dewp":19,"wdir":70,"wspd":7,"visib":"6+","altim":1017,"clouds":[{"cover":"FEW","base":1000},{"cover":"BKN","base":10000}],"obsTime":1775127600},"SBHT":{"icaoId":"SBHT","flightCategory":"LIFR","rawOb":"METAR SBHT 021100Z 00000KT 0500 FG SCT010 BKN080 25/24 Q1012","temp":25,"dewp":24,"wdir":0,"wspd":0,"visib":0.31,"altim":1012,"clouds":[{"cover":"SCT","base":1000},{"cover":"BKN","base":8000}],"obsTime":1775127600},"SBIL":{"icaoId":"SBIL","flightCategory":"MVFR","rawOb":"METAR SBIL 021100Z 30004KT 240V330 8000 VCSH BKN018 BKN100 26/24 Q1014","temp":26,"dewp":24,"wdir":300,"wspd":4,"visib":4.97,"altim":1014,"clouds":[{"cover":"BKN","base":1800},{"cover":"BKN","base":10000}],"obsTime":1775127600},"SBJU":{"icaoId":"SBJU","flightCategory":"IFR","rawOb":"METAR SBJU 021100Z 00000KT 9999 BKN007 BKN015 24/22 Q1015","temp":24,"dewp":22,"wdir":0,"wspd":0,"visib":"6+","altim":1015,"clouds":[{"cover":"BKN","base":700},{"cover":"BKN","base":1500}],"obsTime":1775127600},"SBKP":{"icaoId":"SBKP","flightCategory":"VFR","rawOb":"METAR SBKP 021100Z 00000KT CAVOK 23/19 Q1017","temp":23,"dewp":19,"wdir":0,"wspd":0,"visib":"6+","altim":1017,"clouds":[],"obsTime":1775127600},"SBLO":{"icaoId":"SBLO","flightCategory":"LIFR","rawOb":"METAR SBLO 021100Z 13004KT 4000 BR BKN004 19/19 Q1016","temp":19,"dewp":19,"wdir":130,"wspd":4,"visib":2.49,"altim":1016,"clouds":[{"cover":"BKN","base":400}],"obsTime":1775127600},"SBMA":{"icaoId":"SBMA","flightCategory":"LIFR","rawOb":"METAR SBMA 021100Z 32002KT 1600 RA BR BKN007 FEW020TCU OVC080 24/24 Q1013 RETSRA","temp":24,"dewp":24,"wdir":320,"wspd":2,"visib":0.99,"altim":1013,"clouds":[{"cover":"BKN","base":700},{"cover":"FEW","base":2000},{"cover":"OVC","base":8000}],"obsTime":1775127600},"SBME":{"icaoId":"SBME","flightCategory":"VFR","rawOb":"METAR SBME 021100Z 06009KT 9999 FEW030 27/23 Q1015","temp":27,"dewp":23,"wdir":60,"wspd":9,"visib":"6+","altim":1015,"clouds":[{"cover":"FEW","base":3000}],"obsTime":1775127600},"SBMG":{"icaoId":"SBMG","flightCategory":"VFR","rawOb":"METAR SBMG 021100Z 07002KT CAVOK 22/18 Q1014","temp":22,"dewp":18,"wdir":70,"wspd":2,"visib":"6+","altim":1014,"clouds":[],"obsTime":1775127600},"SBMK":{"icaoId":"SBMK","flightCategory":"VFR","rawOb":"METAR SBMK 021100Z 35002KT 9999 FEW032 SCT070 22/20 Q1018","temp":22,"dewp":20,"wdir":350,"wspd":2,"visib":"6+","altim":1018,"clouds":[{"cover":"FEW","base":3200},{"cover":"SCT","base":7000}],"obsTime":1775127600},"SBMO":{"icaoId":"SBMO","flightCategory":"VFR","rawOb":"METAR SBMO 021100Z 36003KT 310V080 9999 SCT021 SCT040 26/24 Q1013","temp":26,"dewp":24,"wdir":360,"wspd":3,"visib":"6+","altim":1013,"clouds":[{"cover":"SCT","base":2100},{"cover":"SCT","base":4000}],"obsTime":1775127600},"SBMQ":{"icaoId":"SBMQ","flightCategory":"VFR","rawOb":"METAR SBMQ 021100Z 25005KT 9999 -RA SCT015 BKN045 OVC080 25/24 Q1012","temp":25,"dewp":24,"wdir":250,"wspd":5,"visib":"6+","altim":1012,"clouds":[{"cover":"SCT","base":1500},{"cover":"BKN","base":4500},{"cover":"OVC","base":8000}],"obsTime":1775127600},"SBNT":{"icaoId":"SBNT","flightCategory":"VFR","rawOb":"METAR SBNT 021100Z 17004KT 080V220 9999 SCT020 SCT060 27/25 Q1012","temp":27,"dewp":25,"wdir":170,"wspd":4,"visib":"6+","altim":1012,"clouds":[{"cover":"SCT","base":2000},{"cover":"SCT","base":6000}],"obsTime":1775127600},"SBPA":{"icaoId":"SBPA","flightCategory":"VFR","rawOb":"METAR SBPA 021100Z 04003KT 360V080 CAVOK 23/21 Q1010","temp":23,"dewp":21,"wdir":40,"wspd":3,"visib":"6+","altim":1010,"clouds":[],"obsTime":1775127600},"SBPJ":{"icaoId":"SBPJ","flightCategory":"VFR","rawOb":"METAR SBPJ 021100Z VRB02KT 9999 FEW007 BKN080 23/23 Q1014","temp":23,"dewp":23,"wdir":"VRB","wspd":2,"visib":"6+","altim":1014,"clouds":[{"cover":"FEW","base":700},{"cover":"BKN","base":8000}],"obsTime":1775127600},"SBPV":{"icaoId":"SBPV","flightCategory":"VFR","rawOb":"METAR SBPV 021100Z VRB02KT 9999 SCT015 23/22 Q1010","temp":23,"dewp":22,"wdir":"VRB","wspd":2,"visib":"6+","altim":1010,"clouds":[{"cover":"SCT","base":1500}],"obsTime":1775127600},"SBRB":{"icaoId":"SBRB","flightCategory":"MVFR","rawOb":"METAR SBRB 021100Z 11002KT 5000 BR NSC 22/22 Q1011","temp":22,"dewp":22,"wdir":110,"wspd":2,"visib":3.11,"altim":1011,"clouds":[],"obsTime":1775127600},"SBRF":{"icaoId":"SBRF","flightCategory":"MVFR","rawOb":"METAR SBRF 021100Z 33003KT 9999 BKN017 BKN060 26/23 Q1012","temp":26,"dewp":23,"wdir":330,"wspd":3,"visib":"6+","altim":1012,"clouds":[{"cover":"BKN","base":1700},{"cover":"BKN","base":6000}],"obsTime":1775127600},"SBSG":{"icaoId":"SBSG","flightCategory":"VFR","rawOb":"METAR SBSG 021100Z VRB02KT 9999 FEW020 28/25 Q1012","temp":28,"dewp":25,"wdir":"VRB","wspd":2,"visib":"6+","altim":1012,"clouds":[{"cover":"FEW","base":2000}],"obsTime":1775127600},"SBSL":{"icaoId":"SBSL","flightCategory":"IFR","rawOb":"SPECI SBSL 021050Z 11008KT 3000 -RA BR SCT004 BKN012 OVC080 24/23 Q1012","temp":24,"dewp":23,"wdir":110,"wspd":8,"visib":1.86,"altim":1012,"clouds":[{"cover":"SCT","base":400},{"cover":"BKN","base":1200},{"cover":"OVC","base":8000}],"obsTime":1775127000},"SBSN":{"icaoId":"SBSN","flightCategory":"VFR","rawOb":"METAR SBSN 021100Z 19005KT CAVOK 24/22 Q1012","temp":24,"dewp":22,"wdir":190,"wspd":5,"visib":"6+","altim":1012,"clouds":[],"obsTime":1775127600},"SBSP":{"icaoId":"SBSP","flightCategory":"VFR","rawOb":"METAR SBSP 021100Z 03003KT 350V100 CAVOK 23/19 Q1018","temp":23,"dewp":19,"wdir":30,"wspd":3,"visib":"6+","altim":1018,"clouds":[],"obsTime":1775127600},"SBSV":{"icaoId":"SBSV","flightCategory":"VFR","rawOb":"METAR SBSV 021100Z 10008KT 9999 SCT023 SCT100 28/22 Q1013","temp":28,"dewp":22,"wdir":100,"wspd":8,"visib":"6+","altim":1013,"clouds":[{"cover":"SCT","base":2300},{"cover":"SCT","base":10000}],"obsTime":1775127600},"SBUL":{"icaoId":"SBUL","flightCategory":"VFR","rawOb":"METAR SBUL 021100Z 08008KT CAVOK 21/19 Q1019","temp":21,"dewp":19,"wdir":80,"wspd":8,"visib":"6+","altim":1019,"clouds":[],"obsTime":1775127600},"SBUR":{"icaoId":"SBUR","flightCategory":"VFR","rawOb":"METAR SBUR 021100Z 03008KT CAVOK 22/18 Q1017","temp":22,"dewp":18,"wdir":30,"wspd":8,"visib":"6+","altim":1017,"clouds":[],"obsTime":1775127600},"SBVT":{"icaoId":"SBVT","flightCategory":"VFR","rawOb":"METAR SBVT 021100Z 32004KT 9999 SCT025 25/23 Q1016","temp":25,"dewp":23,"wdir":320,"wspd":4,"visib":"6+","altim":1016,"clouds":[{"cover":"SCT","base":2500}],"obsTime":1775127600},"SBTT":{"icaoId":"SBTT","flightCategory":"VFR","rawOb":"METAR SBTT 021100Z 33002KT 9999 SCT006 BKN038 BKN080 24/23 Q1010","temp":24,"dewp":23,"wdir":330,"wspd":2,"visib":"6+","altim":1010,"clouds":[{"cover":"SCT","base":600},{"cover":"BKN","base":3800},{"cover":"BKN","base":8000}],"obsTime":1775127600},"SBVH":{"icaoId":"SBVH","flightCategory":"VFR","rawOb":"METAR SBVH 021100Z 01003KT CAVOK 22/21 Q1014","temp":22,"dewp":21,"wdir":10,"wspd":3,"visib":"6+","altim":1014,"clouds":[],"obsTime":1775127600},"SBAX":{"icaoId":"SBAX","flightCategory":"VFR","rawOb":"METAR SBAX 021100Z 11007KT CAVOK 21/20 Q1019","temp":21,"dewp":20,"wdir":110,"wspd":7,"visib":"6+","altim":1019,"clouds":[],"obsTime":1775127600},"SBBH":{"icaoId":"SBBH","flightCategory":"VFR","rawOb":"METAR SBBH 021100Z 10007KT 9999 FEW026 23/19 Q1019","temp":23,"dewp":19,"wdir":100,"wspd":7,"visib":"6+","altim":1019,"clouds":[{"cover":"FEW","base":2600}],"obsTime":1775127600},"SBBQ":{"icaoId":"SBBQ","flightCategory":"VFR","rawOb":"METAR SBBQ 021200Z 35005KT 9999 SCT014 21/18 Q1022","temp":21,"dewp":18,"wdir":350,"wspd":5,"visib":"6+","altim":1022,"clouds":[{"cover":"SCT","base":1400}],"obsTime":1775131200},"SBBU":{"icaoId":"SBBU","flightCategory":"VFR","rawOb":"METAR SBBU 021100Z 04003KT CAVOK 22/19 Q1016","temp":22,"dewp":19,"wdir":40,"wspd":3,"visib":"6+","altim":1016,"clouds":[],"obsTime":1775127600},"SBCA":{"icaoId":"SBCA","flightCategory":"LIFR","rawOb":"METAR SBCA 021100Z 04013KT 4000 BR BCFG BKN001 20/19 Q1015","temp":20,"dewp":19,"wdir":40,"wspd":13,"visib":2.49,"altim":1015,"clouds":[{"cover":"BKN","base":100}],"obsTime":1775127600},"SBCC":{"icaoId":"SBCC","flightCategory":"LIFR","rawOb":"METAR SBCC 021100Z 36005KT 6000 -RA BKN003 OVC100 20/20 Q1015","temp":20,"dewp":20,"wdir":360,"wspd":5,"visib":3.73,"altim":1015,"clouds":[{"cover":"BKN","base":300},{"cover":"OVC","base":10000}],"obsTime":1775127600},"SBCJ":{"icaoId":"SBCJ","flightCategory":"VFR","rawOb":"METAR SBCJ 021100Z 27003KT CAVOK 22/20 Q1016","temp":22,"dewp":20,"wdir":270,"wspd":3,"visib":"6+","altim":1016,"clouds":[],"obsTime":1775127600},"SBCO":{"icaoId":"SBCO","flightCategory":"VFR","rawOb":"METAR SBCO 021100Z VRB02KT 9999 FEW006 23/21 Q1011","temp":23,"dewp":21,"wdir":"VRB","wspd":2,"visib":"6+","altim":1011,"clouds":[{"cover":"FEW","base":600}],"obsTime":1775127600},"SBDN":{"icaoId":"SBDN","flightCategory":"VFR","rawOb":"METAR SBDN 021100Z 04004KT CAVOK 22/19 Q1014","temp":22,"dewp":19,"wdir":40,"wspd":4,"visib":"6+","altim":1014,"clouds":[],"obsTime":1775127600},"SBES":{"icaoId":"SBES","flightCategory":"VFR","rawOb":"METAR SBES 021100Z 05010KT 010V070 CAVOK 24/// Q1014","temp":null,"dewp":null,"wdir":50,"wspd":10,"visib":"6+","altim":1014,"clouds":[],"obsTime":1775127600},"SBGM":{"icaoId":"SBGM","flightCategory":"VFR","rawOb":"METAR SBGM 021200Z 34005KT 310V010 CAVOK 26/20 Q1011","temp":26,"dewp":20,"wdir":340,"wspd":5,"visib":"6+","altim":1011,"clouds":[],"obsTime":1775131200},"SBIP":{"icaoId":"SBIP","flightCategory":"VFR","rawOb":"METAR SBIP 021100Z AUTO 34004KT 300V010 9999 FEW030 BKN045 24/21 Q1017","temp":24,"dewp":21,"wdir":340,"wspd":4,"visib":"6+","altim":1017,"clouds":[{"cover":"FEW","base":3000},{"cover":"BKN","base":4500}],"obsTime":1775127600},"SBKG":{"icaoId":"SBKG","flightCategory":"VFR","rawOb":"METAR SBKG 021100Z 07007KT 9999 SCT015 BKN070 25/22 Q1015","temp":25,"dewp":22,"wdir":70,"wspd":7,"visib":"6+","altim":1015,"clouds":[{"cover":"SCT","base":1500},{"cover":"BKN","base":7000}],"obsTime":1775127600},"SBOI":{"icaoId":"SBOI","flightCategory":"VFR","rawOb":"METAR SBOI 021100Z AUTO VRB01KT 9999 FEW004 25/24 Q1012","temp":25,"dewp":24,"wdir":"VRB","wspd":1,"visib":"6+","altim":1012,"clouds":[{"cover":"FEW","base":400}],"obsTime":1775127600},"SBPB":{"icaoId":"SBPB","flightCategory":"VFR","rawOb":"METAR SBPB 021100Z 09004KT 9999 SCT015 FEW025TCU OVC080 26/24 Q1011 RETS","temp":26,"dewp":24,"wdir":90,"wspd":4,"visib":"6+","altim":1011,"clouds":[{"cover":"SCT","base":1500},{"cover":"FEW","base":2500},{"cover":"OVC","base":8000}],"obsTime":1775127600},"SBPL":{"icaoId":"SBPL","flightCategory":"VFR","rawOb":"METAR SBPL 021100Z 11009KT 9999 FEW020 SCT070 26/22 Q1014","temp":26,"dewp":22,"wdir":110,"wspd":9,"visib":"6+","altim":1014,"clouds":[{"cover":"FEW","base":2000},{"cover":"SCT","base":7000}],"obsTime":1775127600},"SBPP":{"icaoId":"SBPP","flightCategory":"MVFR","rawOb":"SPECI SBPP 021115Z 13004KT 5000 -RA BR SCT025 OVC070 ///// Q1015","temp":null,"dewp":null,"wdir":130,"wspd":4,"visib":3.11,"altim":1015,"clouds":[{"cover":"SCT","base":2500},{"cover":"OVC","base":7000}],"obsTime":1775128500},"SBPS":{"icaoId":"SBPS","flightCategory":"MVFR","rawOb":"METAR SBPS 021100Z 23003KT 200V280 9999 BKN020 BKN070 25/24 Q1014","temp":25,"dewp":24,"wdir":230,"wspd":3,"visib":"6+","altim":1014,"clouds":[{"cover":"BKN","base":2000},{"cover":"BKN","base":7000}],"obsTime":1775127600},"SBSC":{"icaoId":"SBSC","flightCategory":"VFR","rawOb":"METAR SBSC 021100Z 33010KT 9999 FEW040 SCT100 27/22 Q1013","temp":27,"dewp":22,"wdir":330,"wspd":10,"visib":"6+","altim":1013,"clouds":[{"cover":"FEW","base":4000},{"cover":"SCT","base":10000}],"obsTime":1775127600},"SBSJ":{"icaoId":"SBSJ","flightCategory":"VFR","rawOb":"METAR SBSJ 021100Z 33002KT CAVOK 21/19 Q1017","temp":21,"dewp":19,"wdir":330,"wspd":2,"visib":"6+","altim":1017,"clouds":[],"obsTime":1775127600},"SBSM":{"icaoId":"SBSM","flightCategory":"VFR","rawOb":"METAR SBSM 021100Z 11003KT 9999 2000E BCFG FEW001 21/21 Q1010","temp":21,"dewp":21,"wdir":110,"wspd":3,"visib":"6+","altim":1010,"clouds":[{"cover":"FEW","base":100}],"obsTime":1775127600},"SBSR":{"icaoId":"SBSR","flightCategory":"VFR","rawOb":"METAR SBSR 021100Z 07008KT 030V110 9999 SCT035 SCT070 22/19 Q1015","temp":22,"dewp":19,"wdir":70,"wspd":8,"visib":"6+","altim":1015,"clouds":[{"cover":"SCT","base":3500},{"cover":"SCT","base":7000}],"obsTime":1775127600},"SBTD":{"icaoId":"SBTD","flightCategory":"IFR","rawOb":"METAR SBTD 021100Z /////KT 3000 BR SCT003 20/20 Q1014","temp":20,"dewp":20,"wdir":null,"wspd":null,"visib":1.86,"altim":1014,"clouds":[{"cover":"SCT","base":300}],"obsTime":1775127600},"SBTF":{"icaoId":"SBTF","flightCategory":"VFR","rawOb":"SPECI SBTF 021115Z 11003KT 9999 SCT035 24/24 Q1010","temp":24,"dewp":24,"wdir":110,"wspd":3,"visib":"6+","altim":1010,"clouds":[{"cover":"SCT","base":3500}],"obsTime":1775128500},"SBUY":{"icaoId":"SBUY","flightCategory":"VFR","rawOb":"METAR SBUY 021100Z 00000KT CAVOK 22/22 Q1009","temp":22,"dewp":22,"wdir":0,"wspd":0,"visib":"6+","altim":1009,"clouds":[],"obsTime":1775127600},"SBAR":{"icaoId":"SBAR","flightCategory":"MVFR","rawOb":"METAR SBAR 021100Z 12010KT 5000 2000E -RA BR SCT010 BKN017 OVC045 27/23 Q1013","temp":27,"dewp":23,"wdir":120,"wspd":10,"visib":3.11,"altim":1013,"clouds":[{"cover":"SCT","base":1000},{"cover":"BKN","base":1700},{"cover":"OVC","base":4500}],"obsTime":1775127600},"SBJP":{"icaoId":"SBJP","flightCategory":"MVFR","rawOb":"METAR SBJP 021100Z 28005KT 230V340 9999 FEW008 BKN017 26/24 Q1012","temp":26,"dewp":24,"wdir":280,"wspd":5,"visib":"6+","altim":1012,"clouds":[{"cover":"FEW","base":800},{"cover":"BKN","base":1700}],"obsTime":1775127600},"SBIH":{"icaoId":"SBIH","flightCategory":"VFR","rawOb":"METAR SBIH 021100Z 00000KT 9000 SCT007 BKN100 24/24 Q1012","temp":24,"dewp":24,"wdir":0,"wspd":0,"visib":5.59,"altim":1012,"clouds":[{"cover":"SCT","base":700},{"cover":"BKN","base":10000}],"obsTime":1775127600},"SBST":{"icaoId":"SBST","flightCategory":"MVFR","rawOb":"METAR SBST 021100Z 33003KT 8000 SCT040 22/22 Q1013","temp":22,"dewp":22,"wdir":330,"wspd":3,"visib":4.97,"altim":1013,"clouds":[{"cover":"SCT","base":4000}],"obsTime":1775127600},"SBLE":{"icaoId":"SBLE","flightCategory":"MVFR","rawOb":"METAR SBLE 021100Z AUTO 15004KT 120V190 9999 OVC022 ///// Q////","temp":null,"dewp":null,"wdir":150,"wspd":4,"visib":"6+","altim":null,"clouds":[{"cover":"OVC","base":2200}],"obsTime":1775127600},"SBTA":{"icaoId":"SBTA","flightCategory":"VFR","rawOb":"METAR SBTA 021100Z VRB02KT 9999 FEW010 BKN100 21/21 Q1016","temp":21,"dewp":21,"wdir":"VRB","wspd":2,"visib":"6+","altim":1016,"clouds":[{"cover":"FEW","base":1000},{"cover":"BKN","base":10000}],"obsTime":1775127600},"SBJV":{"icaoId":"SBJV","flightCategory":"VFR","rawOb":"METAR SBJV 021100Z 31002KT CAVOK 22/22 Q1012","temp":22,"dewp":22,"wdir":310,"wspd":2,"visib":"6+","altim":1012,"clouds":[],"obsTime":1775127600},"SBNM":{"icaoId":"SBNM","flightCategory":"VFR","rawOb":"METAR SBNM 021200Z 05002KT CAVOK 26/22 Q1012","temp":26,"dewp":22,"wdir":50,"wspd":2,"visib":"6+","altim":1012,"clouds":[],"obsTime":1775131200},"SBPF":{"icaoId":"SBPF","flightCategory":"VFR","rawOb":"METAR SBPF 021100Z 04010KT CAVOK 19/17 Q1014","temp":19,"dewp":17,"wdir":40,"wspd":10,"visib":"6+","altim":1014,"clouds":[],"obsTime":1775127600},"SBAF":{"icaoId":"SBAF","flightCategory":"VFR","rawOb":"METAR SBAF 021100Z 36003KT 9999 FEW040 SCT100 25/25 Q1014","temp":25,"dewp":25,"wdir":360,"wspd":3,"visib":"6+","altim":1014,"clouds":[{"cover":"FEW","base":4000},{"cover":"SCT","base":10000}],"obsTime":1775127600},"SBGW":{"icaoId":"SBGW","flightCategory":"VFR","rawOb":"METAR SBGW 021100Z 05004KT 9999 FEW018 BKN100 23/17 Q1016","temp":23,"dewp":17,"wdir":50,"wspd":4,"visib":"6+","altim":1016,"clouds":[{"cover":"FEW","base":1800},{"cover":"BKN","base":10000}],"obsTime":1775127600},"SBAN":{"icaoId":"SBAN","flightCategory":"MVFR","rawOb":"METAR SBAN 021100Z 08003KT 050V110 8000 FEW004 BKN100 19/18 Q1020","temp":19,"dewp":18,"wdir":80,"wspd":3,"visib":4.97,"altim":1020,"clouds":[{"cover":"FEW","base":400},{"cover":"BKN","base":10000}],"obsTime":1775127600},"SBJR":{"icaoId":"SBJR","flightCategory":"VFR","rawOb":"METAR SBJR 021100Z 04004KT 9999 FEW040 SCT100 27/23 Q1013","temp":27,"dewp":23,"wdir":40,"wspd":4,"visib":"6+","altim":1013,"clouds":[{"cover":"FEW","base":4000},{"cover":"SCT","base":10000}],"obsTime":1775127600},"SBLS":{"icaoId":"SBLS","flightCategory":"VFR","rawOb":"METAR SBLS 021100Z 15008KT 9999 FEW015 21/19 Q1019","temp":21,"dewp":19,"wdir":150,"wspd":8,"visib":"6+","altim":1019,"clouds":[{"cover":"FEW","base":1500}],"obsTime":1775127600},"SBMT":{"icaoId":"SBMT","flightCategory":"VFR","rawOb":"METAR SBMT 021100Z 10003KT CAVOK 22/19 Q1017","temp":22,"dewp":19,"wdir":100,"wspd":3,"visib":"6+","altim":1017,"clouds":[],"obsTime":1775127600}}}