{"updated":1778186662,"count":86,"data":{"SBMO":{"icaoId":"SBMO","flightCategory":"VFR","rawOb":"METAR SBMO 071900Z 16009KT 9999 SCT020 FEW030TCU 28/23 Q1011","temp":28,"dewp":23,"wdir":160,"wspd":9,"visib":"6+","altim":1011,"clouds":[{"cover":"SCT","base":2000},{"cover":"FEW","base":3000}],"obsTime":1778180400},"SBAT":{"icaoId":"SBAT","flightCategory":"VFR","rawOb":"METAR SBAT 071900Z 07001KT 9999 SCT040 34/22 Q1010","temp":34,"dewp":22,"wdir":70,"wspd":1,"visib":"6+","altim":1010,"clouds":[{"cover":"SCT","base":4000}],"obsTime":1778180400},"SBBE":{"icaoId":"SBBE","flightCategory":"MVFR","rawOb":"METAR SBBE 071900Z 35014KT 9999 BKN020 FEW025TCU 29/26 Q1008","temp":29,"dewp":26,"wdir":350,"wspd":14,"visib":"6+","altim":1008,"clouds":[{"cover":"BKN","base":2000},{"cover":"FEW","base":2500}],"obsTime":1778180400},"SBBR":{"icaoId":"SBBR","flightCategory":"VFR","rawOb":"METAR SBBR 071900Z 04007KT 010V090 9999 SCT045 27/13 Q1017","temp":27,"dewp":13,"wdir":40,"wspd":7,"visib":"6+","altim":1017,"clouds":[{"cover":"SCT","base":4500}],"obsTime":1778180400},"SBVT":{"icaoId":"SBVT","flightCategory":"VFR","rawOb":"METAR SBVT 071900Z 07010KT 9999 FEW030 28/22 Q1015","temp":28,"dewp":22,"wdir":70,"wspd":10,"visib":"6+","altim":1015,"clouds":[{"cover":"FEW","base":3000}],"obsTime":1778180400},"SBBV":{"icaoId":"SBBV","flightCategory":"VFR","rawOb":"METAR SBBV 071900Z 07012KT 9999 SCT040 FEW045TCU SCT100 33/20 Q1009","temp":33,"dewp":20,"wdir":70,"wspd":12,"visib":"6+","altim":1009,"clouds":[{"cover":"SCT","base":4000},{"cover":"FEW","base":4500},{"cover":"SCT","base":10000}],"obsTime":1778180400},"SBCB":{"icaoId":"SBCB","flightCategory":"VFR","rawOb":"METAR SBCB 071900Z 07019KT CAVOK 27/23 Q1013","temp":27,"dewp":23,"wdir":70,"wspd":19,"visib":"6+","altim":1013,"clouds":[],"obsTime":1778180400},"SBCF":{"icaoId":"SBCF","flightCategory":"VFR","rawOb":"METAR SBCF 071900Z 04008KT 020V080 9999 BKN045 26/16 Q1018","temp":26,"dewp":16,"wdir":40,"wspd":8,"visib":"6+","altim":1018,"clouds":[{"cover":"BKN","base":4500}],"obsTime":1778180400},"SBCG":{"icaoId":"SBCG","flightCategory":"VFR","rawOb":"METAR SBCG 071900Z 34014KT CAVOK 30/14 Q1010","temp":30,"dewp":14,"wdir":340,"wspd":14,"visib":"6+","altim":1010,"clouds":[],"obsTime":1778180400},"SBCP":{"icaoId":"SBCP","flightCategory":"VFR","rawOb":"METAR SBCP 071900Z 08015KT 9999 FEW020 29/21 Q1014","temp":29,"dewp":21,"wdir":80,"wspd":15,"visib":"6+","altim":1014,"clouds":[{"cover":"FEW","base":2000}],"obsTime":1778180400},"SBCR":{"icaoId":"SBCR","flightCategory":"VFR","rawOb":"METAR SBCR 071900Z 36011KT 320V040 9999 SCT040 33/18 Q1005","temp":33,"dewp":18,"wdir":360,"wspd":11,"visib":"6+","altim":1005,"clouds":[{"cover":"SCT","base":4000}],"obsTime":1778180400},"SBCT":{"icaoId":"SBCT","flightCategory":"VFR","rawOb":"METAR SBCT 071900Z 34013KT 9999 SCT045 26/15 Q1013","temp":26,"dewp":15,"wdir":340,"wspd":13,"visib":"6+","altim":1013,"clouds":[{"cover":"SCT","base":4500}],"obsTime":1778180400},"SBCZ":{"icaoId":"SBCZ","flightCategory":"VFR","rawOb":"METAR SBCZ 071900Z 33007KT 9999 SCT025 30/24 Q1010","temp":30,"dewp":24,"wdir":330,"wspd":7,"visib":"6+","altim":1010,"clouds":[{"cover":"SCT","base":2500}],"obsTime":1778180400},"SBEG":{"icaoId":"SBEG","flightCategory":"VFR","rawOb":"METAR SBEG 071900Z 14006KT 9999 VCSH FEW008 SCT025 FEW030TCU BKN090 26/24 Q1010","temp":26,"dewp":24,"wdir":140,"wspd":6,"visib":"6+","altim":1010,"clouds":[{"cover":"FEW","base":800},{"cover":"SCT","base":2500},{"cover":"FEW","base":3000},{"cover":"BKN","base":9000}],"obsTime":1778180400},"SBFI":{"icaoId":"SBFI","flightCategory":"VFR","rawOb":"METAR SBFI 071900Z 01010KT 9999 FEW030 29/22 Q1005","temp":29,"dewp":22,"wdir":10,"wspd":10,"visib":"6+","altim":1005,"clouds":[{"cover":"FEW","base":3000}],"obsTime":1778180400},"SBFL":{"icaoId":"SBFL","flightCategory":"VFR","rawOb":"METAR SBFL 071900Z 36014KT 9999 FEW025 25/21 Q1007","temp":25,"dewp":21,"wdir":360,"wspd":14,"visib":"6+","altim":1007,"clouds":[{"cover":"FEW","base":2500}],"obsTime":1778180400},"SBFZ":{"icaoId":"SBFZ","flightCategory":"VFR","rawOb":"METAR SBFZ 071900Z 09010KT 9999 FEW025 29/22 Q1009","temp":29,"dewp":22,"wdir":90,"wspd":10,"visib":"6+","altim":1009,"clouds":[{"cover":"FEW","base":2500}],"obsTime":1778180400},"SBGL":{"icaoId":"SBGL","flightCategory":"VFR","rawOb":"METAR SBGL 071900Z COR 06005KT 9999 FEW017 30/21 Q1011","temp":30,"dewp":21,"wdir":60,"wspd":5,"visib":"6+","altim":1011,"clouds":[{"cover":"FEW","base":1700}],"obsTime":1778180400},"SBGO":{"icaoId":"SBGO","flightCategory":"VFR","rawOb":"METAR SBGO 071900Z 33011KT 9999 SCT049 30/16 Q1014","temp":30,"dewp":16,"wdir":330,"wspd":11,"visib":"6+","altim":1014,"clouds":[{"cover":"SCT","base":4900}],"obsTime":1778180400},"SBGR":{"icaoId":"SBGR","flightCategory":"VFR","rawOb":"METAR SBGR 071900Z 35012KT CAVOK 29/13 Q1014","temp":29,"dewp":13,"wdir":350,"wspd":12,"visib":"6+","altim":1014,"clouds":[],"obsTime":1778180400},"SBHT":{"icaoId":"SBHT","flightCategory":"MVFR","rawOb":"METAR SBHT 071900Z 10003KT 9999 BKN025 31/24 Q1008","temp":31,"dewp":24,"wdir":100,"wspd":3,"visib":"6+","altim":1008,"clouds":[{"cover":"BKN","base":2500}],"obsTime":1778180400},"SBIL":{"icaoId":"SBIL","flightCategory":"VFR","rawOb":"METAR SBIL 071900Z 16009KT 9999 SCT023 FEW025TCU SCT090 29/24 Q1014","temp":29,"dewp":24,"wdir":160,"wspd":9,"visib":"6+","altim":1014,"clouds":[{"cover":"SCT","base":2300},{"cover":"FEW","base":2500},{"cover":"SCT","base":9000}],"obsTime":1778180400},"SBJU":{"icaoId":"SBJU","flightCategory":"VFR","rawOb":"METAR SBJU 071900Z 05005KT 9999 FEW022 31/19 Q1011","temp":31,"dewp":19,"wdir":50,"wspd":5,"visib":"6+","altim":1011,"clouds":[{"cover":"FEW","base":2200}],"obsTime":1778180400},"SBKP":{"icaoId":"SBKP","flightCategory":"VFR","rawOb":"METAR SBKP 071900Z 34011KT 320V020 CAVOK 30/14 Q1014","temp":30,"dewp":14,"wdir":340,"wspd":11,"visib":"6+","altim":1014,"clouds":[],"obsTime":1778180400},"SBLO":{"icaoId":"SBLO","flightCategory":"VFR","rawOb":"METAR SBLO 071900Z 35012KT 9999 SCT020 29/16 Q1011","temp":29,"dewp":16,"wdir":350,"wspd":12,"visib":"6+","altim":1011,"clouds":[{"cover":"SCT","base":2000}],"obsTime":1778180400},"SBMA":{"icaoId":"SBMA","flightCategory":"VFR","rawOb":"METAR SBMA 071900Z 00000KT 9999 SCT020 FEW023TCU 33/23 Q1008","temp":33,"dewp":23,"wdir":0,"wspd":0,"visib":"6+","altim":1008,"clouds":[{"cover":"SCT","base":2000},{"cover":"FEW","base":2300}],"obsTime":1778180400},"SBME":{"icaoId":"SBME","flightCategory":"VFR","rawOb":"METAR SBME 071900Z 05014KT 9999 SCT040 30/20 Q1013","temp":30,"dewp":20,"wdir":50,"wspd":14,"visib":"6+","altim":1013,"clouds":[{"cover":"SCT","base":4000}],"obsTime":1778180400},"SBMG":{"icaoId":"SBMG","flightCategory":"VFR","rawOb":"METAR SBMG 071900Z 36014KT 330V030 9999 SCT049 29/17 Q1010","temp":29,"dewp":17,"wdir":360,"wspd":14,"visib":"6+","altim":1010,"clouds":[{"cover":"SCT","base":4900}],"obsTime":1778180400},"SBMK":{"icaoId":"SBMK","flightCategory":"VFR","rawOb":"METAR SBMK 071900Z 08009KT 9999 SCT040 29/16 Q1016","temp":29,"dewp":16,"wdir":80,"wspd":9,"visib":"6+","altim":1016,"clouds":[{"cover":"SCT","base":4000}],"obsTime":1778180400},"SBMQ":{"icaoId":"SBMQ","flightCategory":"MVFR","rawOb":"METAR SBMQ 071900Z 01005KT 9999 SCT014 BKN030 26/24 Q1010","temp":26,"dewp":24,"wdir":10,"wspd":5,"visib":"6+","altim":1010,"clouds":[{"cover":"SCT","base":1400},{"cover":"BKN","base":3000}],"obsTime":1778180400},"SBNT":{"icaoId":"SBNT","flightCategory":"MVFR","rawOb":"METAR SBNT 071900Z 12012KT 9999 BKN020 FEW025TCU BKN080 28/24 Q1010","temp":28,"dewp":24,"wdir":120,"wspd":12,"visib":"6+","altim":1010,"clouds":[{"cover":"BKN","base":2000},{"cover":"FEW","base":2500},{"cover":"BKN","base":8000}],"obsTime":1778180400},"SBPA":{"icaoId":"SBPA","flightCategory":"VFR","rawOb":"METAR SBPA 071900Z 33009KT CAVOK 31/16 Q1001","temp":31,"dewp":16,"wdir":330,"wspd":9,"visib":"6+","altim":1001,"clouds":[],"obsTime":1778180400},"SBPJ":{"icaoId":"SBPJ","flightCategory":"VFR","rawOb":"METAR SBPJ 071900Z 25003KT CAVOK 33/22 Q1010","temp":33,"dewp":22,"wdir":250,"wspd":3,"visib":"6+","altim":1010,"clouds":[],"obsTime":1778180400},"SBPV":{"icaoId":"SBPV","flightCategory":"VFR","rawOb":"METAR SBPV 071900Z 35004KT 9999 SCT030 31/27 Q1009","temp":31,"dewp":27,"wdir":350,"wspd":4,"visib":"6+","altim":1009,"clouds":[{"cover":"SCT","base":3000}],"obsTime":1778180400},"SBRB":{"icaoId":"SBRB","flightCategory":"MVFR","rawOb":"METAR SBRB 071900Z 29003KT 8000 SCT025 SCT083 30/25 Q1009","temp":30,"dewp":25,"wdir":290,"wspd":3,"visib":4.97,"altim":1009,"clouds":[{"cover":"SCT","base":2500},{"cover":"SCT","base":8300}],"obsTime":1778180400},"SBRF":{"icaoId":"SBRF","flightCategory":"MVFR","rawOb":"METAR SBRF 071900Z 10005KT 9999 VCSH BKN018 BKN050 26/24 Q1011","temp":26,"dewp":24,"wdir":100,"wspd":5,"visib":"6+","altim":1011,"clouds":[{"cover":"BKN","base":1800},{"cover":"BKN","base":5000}],"obsTime":1778180400},"SBSG":{"icaoId":"SBSG","flightCategory":"VFR","rawOb":"METAR SBSG 071900Z 12010KT 9999 SCT021 FEW025TCU 27/25 Q1011","temp":27,"dewp":25,"wdir":120,"wspd":10,"visib":"6+","altim":1011,"clouds":[{"cover":"SCT","base":2100},{"cover":"FEW","base":2500}],"obsTime":1778180400},"SBSL":{"icaoId":"SBSL","flightCategory":"IFR","rawOb":"METAR SBSL 071900Z 31008KT 2500 -TSRA BR BKN013 BKN020 FEW025CB 23/22 Q1009 RERA","temp":23,"dewp":22,"wdir":310,"wspd":8,"visib":1.55,"altim":1009,"clouds":[{"cover":"BKN","base":1300},{"cover":"BKN","base":2000},{"cover":"FEW","base":2500}],"obsTime":1778180400},"SBSN":{"icaoId":"SBSN","flightCategory":"VFR","rawOb":"METAR SBSN 071900Z 04006KT 9999 FEW020 30/25 Q1008","temp":30,"dewp":25,"wdir":40,"wspd":6,"visib":"6+","altim":1008,"clouds":[{"cover":"FEW","base":2000}],"obsTime":1778180400},"SBSP":{"icaoId":"SBSP","flightCategory":"VFR","rawOb":"METAR SBSP 071900Z 32014KT 300V360 CAVOK 28/12 Q1015","temp":28,"dewp":12,"wdir":320,"wspd":14,"visib":"6+","altim":1015,"clouds":[],"obsTime":1778180400},"SBSV":{"icaoId":"SBSV","flightCategory":"VFR","rawOb":"METAR SBSV 071900Z 16009KT 120V190 9999 SCT030 SCT055 28/22 Q1013","temp":28,"dewp":22,"wdir":160,"wspd":9,"visib":"6+","altim":1013,"clouds":[{"cover":"SCT","base":3000},{"cover":"SCT","base":5500}],"obsTime":1778180400},"SBTE":{"icaoId":"SBTE","flightCategory":"VFR","rawOb":"METAR SBTE 071900Z 11005KT 060V170 9999 SCT025 32/21 Q1008","temp":32,"dewp":21,"wdir":110,"wspd":5,"visib":"6+","altim":1008,"clouds":[{"cover":"SCT","base":2500}],"obsTime":1778180400},"SBUL":{"icaoId":"SBUL","flightCategory":"VFR","rawOb":"METAR SBUL 071900Z 06012KT 9999 SCT030 27/16 Q1016","temp":27,"dewp":16,"wdir":60,"wspd":12,"visib":"6+","altim":1016,"clouds":[{"cover":"SCT","base":3000}],"obsTime":1778180400},"SBUR":{"icaoId":"SBUR","flightCategory":"VFR","rawOb":"METAR SBUR 071900Z 02010KT CAVOK 29/14 Q1015","temp":29,"dewp":14,"wdir":20,"wspd":10,"visib":"6+","altim":1015,"clouds":[],"obsTime":1778180400},"SBPB":{"icaoId":"SBPB","flightCategory":"VFR","rawOb":"METAR SBPB 071900Z 04011KT 9999 FEW016 30/25 Q1008","temp":30,"dewp":25,"wdir":40,"wspd":11,"visib":"6+","altim":1008,"clouds":[{"cover":"FEW","base":1600}],"obsTime":1778180400},"SBCO":{"icaoId":"SBCO","flightCategory":"VFR","rawOb":"METAR SBCO 071900Z 34011KT 310V030 CAVOK 31/16 Q1001","temp":31,"dewp":16,"wdir":340,"wspd":11,"visib":"6+","altim":1001,"clouds":[],"obsTime":1778180400},"SBBH":{"icaoId":"SBBH","flightCategory":"VFR","rawOb":"METAR SBBH 071900Z 09006KT 9999 SCT045 26/16 Q1017","temp":26,"dewp":16,"wdir":90,"wspd":6,"visib":"6+","altim":1017,"clouds":[{"cover":"SCT","base":4500}],"obsTime":1778180400},"SBPL":{"icaoId":"SBPL","flightCategory":"MVFR","rawOb":"METAR SBPL 071900Z 13009KT 9999 BKN025 32/20 Q1011","temp":32,"dewp":20,"wdir":130,"wspd":9,"visib":"6+","altim":1011,"clouds":[{"cover":"BKN","base":2500}],"obsTime":1778180400},"SBPP":{"icaoId":"SBPP","flightCategory":"VFR","rawOb":"METAR SBPP 071900Z 01013KT CAVOK 27/16 Q1009","temp":27,"dewp":16,"wdir":10,"wspd":13,"visib":"6+","altim":1009,"clouds":[],"obsTime":1778180400},"SBDN":{"icaoId":"SBDN","flightCategory":"VFR","rawOb":"METAR SBDN 071900Z 35008KT CAVOK 32/15 Q1010","temp":32,"dewp":15,"wdir":350,"wspd":8,"visib":"6+","altim":1010,"clouds":[],"obsTime":1778180400},"SBCA":{"icaoId":"SBCA","flightCategory":"VFR","rawOb":"METAR SBCA 071900Z 01021G31KT 9999 SCT025 27/14 Q1010","temp":27,"dewp":14,"wdir":10,"wspd":21,"visib":"6+","altim":1010,"clouds":[{"cover":"SCT","base":2500}],"obsTime":1778180400},"SBPS":{"icaoId":"SBPS","flightCategory":"VFR","rawOb":"METAR SBPS 071900Z 11008KT 9999 SCT030 28/22 Q1014","temp":28,"dewp":22,"wdir":110,"wspd":8,"visib":"6+","altim":1014,"clouds":[{"cover":"SCT","base":3000}],"obsTime":1778180400},"SBSC":{"icaoId":"SBSC","flightCategory":"VFR","rawOb":"METAR SBSC 071900Z 03010KT CAVOK 32/19 Q1011","temp":32,"dewp":19,"wdir":30,"wspd":10,"visib":"6+","altim":1011,"clouds":[],"obsTime":1778180400},"SBAX":{"icaoId":"SBAX","flightCategory":"VFR","rawOb":"METAR SBAX 071900Z 03008KT 9999 SCT030 26/13 Q1017","temp":26,"dewp":13,"wdir":30,"wspd":8,"visib":"6+","altim":1017,"clouds":[{"cover":"SCT","base":3000}],"obsTime":1778180400},"SBES":{"icaoId":"SBES","flightCategory":"VFR","rawOb":"METAR SBES 071900Z 06016G27KT 020V130 9999 FEW020 27/// Q1013","temp":null,"dewp":null,"wdir":60,"wspd":16,"visib":"6+","altim":1013,"clouds":[{"cover":"FEW","base":2000}],"obsTime":1778180400},"SBSJ":{"icaoId":"SBSJ","flightCategory":"VFR","rawOb":"METAR SBSJ 071900Z 34007KT 9999 FEW045 29/15 Q1014","temp":29,"dewp":15,"wdir":340,"wspd":7,"visib":"6+","altim":1014,"clouds":[{"cover":"FEW","base":4500}],"obsTime":1778180400},"SBCC":{"icaoId":"SBCC","flightCategory":"VFR","rawOb":"METAR SBCC 071900Z 01005KT 310V050 9999 SCT030 32/20 Q1011","temp":32,"dewp":20,"wdir":10,"wspd":5,"visib":"6+","altim":1011,"clouds":[{"cover":"SCT","base":3000}],"obsTime":1778180400},"SBSM":{"icaoId":"SBSM","flightCategory":"VFR","rawOb":"METAR SBSM 071900Z 34011G22KT 9999 FEW040 BKN070 31/18 Q0999 WS ALL RWY","temp":31,"dewp":18,"wdir":340,"wspd":11,"visib":"6+","altim":999,"clouds":[{"cover":"FEW","base":4000},{"cover":"BKN","base":7000}],"obsTime":1778180400},"SBSR":{"icaoId":"SBSR","flightCategory":"VFR","rawOb":"METAR SBSR 071900Z 04008KT 9999 FEW035 31/13 Q1012","temp":31,"dewp":13,"wdir":40,"wspd":8,"visib":"6+","altim":1012,"clouds":[{"cover":"FEW","base":3500}],"obsTime":1778180400},"SBIP":{"icaoId":"SBIP","flightCategory":"VFR","rawOb":"METAR SBIP 071900Z AUTO 01008KT CAVOK 29/19 Q1015","temp":29,"dewp":19,"wdir":10,"wspd":8,"visib":"6+","altim":1015,"clouds":[],"obsTime":1778180400},"SBTF":{"icaoId":"SBTF","flightCategory":"VFR","rawOb":"METAR SBTF 071900Z 03004KT 9999 FEW020 32/25 Q1008","temp":32,"dewp":25,"wdir":30,"wspd":4,"visib":"6+","altim":1008,"clouds":[{"cover":"FEW","base":2000}],"obsTime":1778180400},"SBAR":{"icaoId":"SBAR","flightCategory":"VFR","rawOb":"METAR SBAR 071900Z 13010KT 9999 FEW026 29/23 Q1012","temp":29,"dewp":23,"wdir":130,"wspd":10,"visib":"6+","altim":1012,"clouds":[{"cover":"FEW","base":2600}],"obsTime":1778180400},"SBTT":{"icaoId":"SBTT","flightCategory":"VFR","rawOb":"METAR SBTT 071900Z 31004KT 9999 FEW030 29/23 Q1010","temp":29,"dewp":23,"wdir":310,"wspd":4,"visib":"6+","altim":1010,"clouds":[{"cover":"FEW","base":3000}],"obsTime":1778180400},"SBKG":{"icaoId":"SBKG","flightCategory":"MVFR","rawOb":"METAR SBKG 071900Z 09008KT 9999 SCT008 BKN017 BKN070 24/23 Q1013","temp":24,"dewp":23,"wdir":90,"wspd":8,"visib":"6+","altim":1013,"clouds":[{"cover":"SCT","base":800},{"cover":"BKN","base":1700},{"cover":"BKN","base":7000}],"obsTime":1778180400},"SBCJ":{"icaoId":"SBCJ","flightCategory":"VFR","rawOb":"METAR SBCJ 071900Z 14004KT 9999 SCT030 29/20 Q1013","temp":29,"dewp":20,"wdir":140,"wspd":4,"visib":"6+","altim":1013,"clouds":[{"cover":"SCT","base":3000}],"obsTime":1778180400},"SBTU":{"icaoId":"SBTU","flightCategory":"VFR","rawOb":"METAR SBTU 071900Z AUTO 31004KT 270V350 9999 // ///////// 30/22 Q1010","temp":30,"dewp":22,"wdir":310,"wspd":4,"visib":"6+","altim":1010,"clouds":[],"obsTime":1778180400},"SBBU":{"icaoId":"SBBU","flightCategory":"VFR","rawOb":"METAR SBBU 071900Z 04012KT 9999 FEW047 31/15 Q1012","temp":31,"dewp":15,"wdir":40,"wspd":12,"visib":"6+","altim":1012,"clouds":[{"cover":"FEW","base":4700}],"obsTime":1778180400},"SBUY":{"icaoId":"SBUY","flightCategory":"VFR","rawOb":"METAR SBUY 071900Z 15002KT 9999 SCT025 FEW030TCU BKN090 30/24 Q1008","temp":30,"dewp":24,"wdir":150,"wspd":2,"visib":"6+","altim":1008,"clouds":[{"cover":"SCT","base":2500},{"cover":"FEW","base":3000},{"cover":"BKN","base":9000}],"obsTime":1778180400},"SBVH":{"icaoId":"SBVH","flightCategory":"VFR","rawOb":"METAR SBVH 071900Z 36007KT 9999 SCT040 29/19 Q1012","temp":29,"dewp":19,"wdir":360,"wspd":7,"visib":"6+","altim":1012,"clouds":[{"cover":"SCT","base":4000}],"obsTime":1778180400},"SBOI":{"icaoId":"SBOI","flightCategory":"VFR","rawOb":"METAR SBOI 071900Z AUTO 17006KT 150V210 9999 -RA FEW004 BKN031 25/24 Q1010","temp":25,"dewp":24,"wdir":170,"wspd":6,"visib":"6+","altim":1010,"clouds":[{"cover":"FEW","base":400},{"cover":"BKN","base":3100}],"obsTime":1778180400},"SBBQ":{"icaoId":"SBBQ","flightCategory":"VFR","rawOb":"METAR SBBQ 071900Z 03007KT 9999 FEW040 23/15 Q1021","temp":23,"dewp":15,"wdir":30,"wspd":7,"visib":"6+","altim":1021,"clouds":[{"cover":"FEW","base":4000}],"obsTime":1778180400},"SBGM":{"icaoId":"SBGM","flightCategory":"MVFR","rawOb":"METAR SBGM 071900Z 29007KT 9999 BKN030 31/19 Q1009","temp":31,"dewp":19,"wdir":290,"wspd":7,"visib":"6+","altim":1009,"clouds":[{"cover":"BKN","base":3000}],"obsTime":1778180400},"SBST":{"icaoId":"SBST","flightCategory":"VFR","rawOb":"METAR SBST 071900Z /////KT CAVOK ///// Q1008","temp":null,"dewp":null,"wdir":null,"wspd":null,"visib":"6+","altim":1008,"clouds":[],"obsTime":1778180400},"SBJV":{"icaoId":"SBJV","flightCategory":"VFR","rawOb":"METAR SBJV 071900Z 36004KT 9999 FEW015 28/23 Q1007","temp":28,"dewp":23,"wdir":360,"wspd":4,"visib":"6+","altim":1007,"clouds":[{"cover":"FEW","base":1500}],"obsTime":1778180400},"SBNM":{"icaoId":"SBNM","flightCategory":"VFR","rawOb":"METAR SBNM 072000Z 35016KT 9999 SCT035 29/18 Q1001","temp":29,"dewp":18,"wdir":350,"wspd":16,"visib":"6+","altim":1001,"clouds":[{"cover":"SCT","base":3500}],"obsTime":1778184000},"SBPF":{"icaoId":"SBPF","flightCategory":"VFR","rawOb":"METAR SBPF 072000Z 34014KT CAVOK 25/15 Q1006","temp":25,"dewp":15,"wdir":340,"wspd":14,"visib":"6+","altim":1006,"clouds":[],"obsTime":1778184000},"SBTA":{"icaoId":"SBTA","flightCategory":"VFR","rawOb":"METAR SBTA 071900Z 02009KT 9999 SCT040 29/13 Q1013","temp":29,"dewp":13,"wdir":20,"wspd":9,"visib":"6+","altim":1013,"clouds":[{"cover":"SCT","base":4000}],"obsTime":1778180400},"SBLE":{"icaoId":"SBLE","flightCategory":"VFR","rawOb":"METAR SBLE 071900Z AUTO 15006KT 120V190 9999 SCT046 27/19 Q1014","temp":27,"dewp":19,"wdir":150,"wspd":6,"visib":"6+","altim":1014,"clouds":[{"cover":"SCT","base":4600}],"obsTime":1778180400},"SBIH":{"icaoId":"SBIH","flightCategory":"VFR","rawOb":"METAR SBIH 071900Z 09011KT 9999 FEW020 FEW025TCU SCT100 30/23 Q1008","temp":30,"dewp":23,"wdir":90,"wspd":11,"visib":"6+","altim":1008,"clouds":[{"cover":"FEW","base":2000},{"cover":"FEW","base":2500},{"cover":"SCT","base":10000}],"obsTime":1778180400},"SBAF":{"icaoId":"SBAF","flightCategory":"VFR","rawOb":"METAR SBAF 071900Z 06007KT CAVOK 32/19 Q1011","temp":32,"dewp":19,"wdir":60,"wspd":7,"visib":"6+","altim":1011,"clouds":[],"obsTime":1778180400},"SBGW":{"icaoId":"SBGW","flightCategory":"VFR","rawOb":"METAR SBGW 071900Z 03008KT 340V060 9999 FEW033 29/17 Q1013","temp":29,"dewp":17,"wdir":30,"wspd":8,"visib":"6+","altim":1013,"clouds":[{"cover":"FEW","base":3300}],"obsTime":1778180400},"SBJR":{"icaoId":"SBJR","flightCategory":"VFR","rawOb":"METAR SBJR 071900Z 04005KT 9999 FEW025 32/19 Q1011","temp":32,"dewp":19,"wdir":40,"wspd":5,"visib":"6+","altim":1011,"clouds":[{"cover":"FEW","base":2500}],"obsTime":1778180400},"SBLS":{"icaoId":"SBLS","flightCategory":"VFR","rawOb":"METAR SBLS 071900Z 12005KT 030V150 9999 SCT043 26/17 Q1017","temp":26,"dewp":17,"wdir":120,"wspd":5,"visib":"6+","altim":1017,"clouds":[{"cover":"SCT","base":4300}],"obsTime":1778180400},"SBMT":{"icaoId":"SBMT","flightCategory":"VFR","rawOb":"METAR SBMT 071900Z 34007KT 9999 SCT040 27/13 Q1014","temp":27,"dewp":13,"wdir":340,"wspd":7,"visib":"6+","altim":1014,"clouds":[{"cover":"SCT","base":4000}],"obsTime":1778180400},"SBAN":{"icaoId":"SBAN","flightCategory":"VFR","rawOb":"METAR SBAN 071900Z VRB04KT 9999 SCT040 BKN047 27/13 Q1018","temp":27,"dewp":13,"wdir":"VRB","wspd":4,"visib":"6+","altim":1018,"clouds":[{"cover":"SCT","base":4000},{"cover":"BKN","base":4700}],"obsTime":1778180400},"SBJP":{"icaoId":"SBJP","flightCategory":"MVFR","rawOb":"METAR SBJP 071900Z 11013KT 9999 FEW013 BKN020 28/24 Q1011","temp":28,"dewp":24,"wdir":110,"wspd":13,"visib":"6+","altim":1011,"clouds":[{"cover":"FEW","base":1300},{"cover":"BKN","base":2000}],"obsTime":1778180400}}}