{"updated":1780683473,"count":86,"data":{"SBAT":{"icaoId":"SBAT","flightCategory":"VFR","rawOb":"METAR SBAT 051700Z 13009KT 080V140 9999 FEW030 34/18 Q1015","temp":34,"dewp":18,"wdir":130,"wspd":9,"visib":"6+","altim":1015,"clouds":[{"cover":"FEW","base":3000}],"obsTime":1780678800},"SBBE":{"icaoId":"SBBE","flightCategory":"MVFR","rawOb":"METAR SBBE 051700Z 12010KT 9999 BKN030 FEW035TCU 32/24 Q1012","temp":32,"dewp":24,"wdir":120,"wspd":10,"visib":"6+","altim":1012,"clouds":[{"cover":"BKN","base":3000},{"cover":"FEW","base":3500}],"obsTime":1780678800},"SBBR":{"icaoId":"SBBR","flightCategory":"VFR","rawOb":"METAR SBBR 051700Z 12012KT 090V150 CAVOK 23/10 Q1022","temp":23,"dewp":10,"wdir":120,"wspd":12,"visib":"6+","altim":1022,"clouds":[],"obsTime":1780678800},"SBBV":{"icaoId":"SBBV","flightCategory":"MVFR","rawOb":"METAR SBBV 051700Z 20004KT 9999 SCT010 BKN020 FEW030TCU BKN070 27/24 Q1014","temp":27,"dewp":24,"wdir":200,"wspd":4,"visib":"6+","altim":1014,"clouds":[{"cover":"SCT","base":1000},{"cover":"BKN","base":2000},{"cover":"FEW","base":3000},{"cover":"BKN","base":7000}],"obsTime":1780678800},"SBCB":{"icaoId":"SBCB","flightCategory":"VFR","rawOb":"METAR SBCB 051700Z 16010KT 9999 SCT025 23/14 Q1024","temp":23,"dewp":14,"wdir":160,"wspd":10,"visib":"6+","altim":1024,"clouds":[{"cover":"SCT","base":2500}],"obsTime":1780678800},"SBCF":{"icaoId":"SBCF","flightCategory":"VFR","rawOb":"METAR SBCF 051700Z 13008KT 9999 SCT040 21/09 Q1024","temp":21,"dewp":9,"wdir":130,"wspd":8,"visib":"6+","altim":1024,"clouds":[{"cover":"SCT","base":4000}],"obsTime":1780678800},"SBCG":{"icaoId":"SBCG","flightCategory":"VFR","rawOb":"METAR SBCG 051700Z 06008KT 010V080 CAVOK 27/12 Q1021 WS R24","temp":27,"dewp":12,"wdir":60,"wspd":8,"visib":"6+","altim":1021,"clouds":[],"obsTime":1780678800},"SBCP":{"icaoId":"SBCP","flightCategory":"MVFR","rawOb":"METAR SBCP 051700Z 30005KT 9999 BKN015 22/18 Q1023","temp":22,"dewp":18,"wdir":300,"wspd":5,"visib":"6+","altim":1023,"clouds":[{"cover":"BKN","base":1500}],"obsTime":1780678800},"SBCR":{"icaoId":"SBCR","flightCategory":"VFR","rawOb":"METAR SBCR 051700Z 07009KT 030V100 CAVOK 30/16 Q1017","temp":30,"dewp":16,"wdir":70,"wspd":9,"visib":"6+","altim":1017,"clouds":[],"obsTime":1780678800},"SBCT":{"icaoId":"SBCT","flightCategory":"MVFR","rawOb":"METAR SBCT 051700Z 09004KT 050V130 9999 BKN025 17/12 Q1026","temp":17,"dewp":12,"wdir":90,"wspd":4,"visib":"6+","altim":1026,"clouds":[{"cover":"BKN","base":2500}],"obsTime":1780678800},"SBCZ":{"icaoId":"SBCZ","flightCategory":"VFR","rawOb":"METAR SBCZ 051700Z 12006KT 9999 SCT025 BKN100 31/22 Q1016","temp":31,"dewp":22,"wdir":120,"wspd":6,"visib":"6+","altim":1016,"clouds":[{"cover":"SCT","base":2500},{"cover":"BKN","base":10000}],"obsTime":1780678800},"SBEG":{"icaoId":"SBEG","flightCategory":"VFR","rawOb":"METAR SBEG 051700Z 26005KT 9999 SCT030 30/25 Q1013","temp":30,"dewp":25,"wdir":260,"wspd":5,"visib":"6+","altim":1013,"clouds":[{"cover":"SCT","base":3000}],"obsTime":1780678800},"SBFI":{"icaoId":"SBFI","flightCategory":"VFR","rawOb":"METAR SBFI 051700Z 05005KT CAVOK 25/17 Q1021","temp":25,"dewp":17,"wdir":50,"wspd":5,"visib":"6+","altim":1021,"clouds":[],"obsTime":1780678800},"SBFL":{"icaoId":"SBFL","flightCategory":"VFR","rawOb":"METAR SBFL 051700Z 35009KT 9999 FEW033 BKN050 22/15 Q1024","temp":22,"dewp":15,"wdir":350,"wspd":9,"visib":"6+","altim":1024,"clouds":[{"cover":"FEW","base":3300},{"cover":"BKN","base":5000}],"obsTime":1780678800},"SBFZ":{"icaoId":"SBFZ","flightCategory":"MVFR","rawOb":"METAR SBFZ 051700Z 14011KT 110V170 9999 BKN023 31/22 Q1012","temp":31,"dewp":22,"wdir":140,"wspd":11,"visib":"6+","altim":1012,"clouds":[{"cover":"BKN","base":2300}],"obsTime":1780678800},"SBGL":{"icaoId":"SBGL","flightCategory":"MVFR","rawOb":"METAR SBGL 051700Z 12006KT 9999 BKN030 BKN080 23/15 Q1023","temp":23,"dewp":15,"wdir":120,"wspd":6,"visib":"6+","altim":1023,"clouds":[{"cover":"BKN","base":3000},{"cover":"BKN","base":8000}],"obsTime":1780678800},"SBGO":{"icaoId":"SBGO","flightCategory":"VFR","rawOb":"METAR SBGO 051700Z 10008KT 050V150 CAVOK 27/12 Q1021","temp":27,"dewp":12,"wdir":100,"wspd":8,"visib":"6+","altim":1021,"clouds":[],"obsTime":1780678800},"SBGR":{"icaoId":"SBGR","flightCategory":"VFR","rawOb":"METAR SBGR 051700Z 07008KT 9999 BKN040 21/11 Q1025","temp":21,"dewp":11,"wdir":70,"wspd":8,"visib":"6+","altim":1025,"clouds":[{"cover":"BKN","base":4000}],"obsTime":1780678800},"SBHT":{"icaoId":"SBHT","flightCategory":"MVFR","rawOb":"METAR SBHT 051700Z 08005KT 9999 BKN030 32/26 Q1012","temp":32,"dewp":26,"wdir":80,"wspd":5,"visib":"6+","altim":1012,"clouds":[{"cover":"BKN","base":3000}],"obsTime":1780678800},"SBIL":{"icaoId":"SBIL","flightCategory":"VFR","rawOb":"METAR SBIL 051700Z 22011KT 170V250 9999 SCT023 SCT090 26/20 Q1019","temp":26,"dewp":20,"wdir":220,"wspd":11,"visib":"6+","altim":1019,"clouds":[{"cover":"SCT","base":2300},{"cover":"SCT","base":9000}],"obsTime":1780678800},"SBJU":{"icaoId":"SBJU","flightCategory":"MVFR","rawOb":"METAR SBJU 051700Z 15005KT 9999 BKN020 27/20 Q1015","temp":27,"dewp":20,"wdir":150,"wspd":5,"visib":"6+","altim":1015,"clouds":[{"cover":"BKN","base":2000}],"obsTime":1780678800},"SBKP":{"icaoId":"SBKP","flightCategory":"VFR","rawOb":"METAR SBKP 051700Z 11006KT 040V160 CAVOK 22/12 Q1024","temp":22,"dewp":12,"wdir":110,"wspd":6,"visib":"6+","altim":1024,"clouds":[],"obsTime":1780678800},"SBLO":{"icaoId":"SBLO","flightCategory":"VFR","rawOb":"METAR SBLO 051700Z 09005KT 9999 FEW030 22/14 Q1023","temp":22,"dewp":14,"wdir":90,"wspd":5,"visib":"6+","altim":1023,"clouds":[{"cover":"FEW","base":3000}],"obsTime":1780678800},"SBMA":{"icaoId":"SBMA","flightCategory":"VFR","rawOb":"METAR SBMA 051700Z 06005KT 9999 SCT025 33/22 Q1012","temp":33,"dewp":22,"wdir":60,"wspd":5,"visib":"6+","altim":1012,"clouds":[{"cover":"SCT","base":2500}],"obsTime":1780678800},"SBME":{"icaoId":"SBME","flightCategory":"VFR","rawOb":"METAR SBME 051700Z 17007KT 9999 FEW040 BKN070 23/15 Q1023","temp":23,"dewp":15,"wdir":170,"wspd":7,"visib":"6+","altim":1023,"clouds":[{"cover":"FEW","base":4000},{"cover":"BKN","base":7000}],"obsTime":1780678800},"SBMG":{"icaoId":"SBMG","flightCategory":"VFR","rawOb":"METAR SBMG 051700Z 03007KT 350V090 9999 FEW040 24/13 Q1022","temp":24,"dewp":13,"wdir":30,"wspd":7,"visib":"6+","altim":1022,"clouds":[{"cover":"FEW","base":4000}],"obsTime":1780678800},"SBMK":{"icaoId":"SBMK","flightCategory":"VFR","rawOb":"METAR SBMK 051700Z 09006KT 9999 SCT035 24/11 Q1022","temp":24,"dewp":11,"wdir":90,"wspd":6,"visib":"6+","altim":1022,"clouds":[{"cover":"SCT","base":3500}],"obsTime":1780678800},"SBMO":{"icaoId":"SBMO","flightCategory":"VFR","rawOb":"METAR SBMO 051700Z 16011KT 9999 VCSH SCT025 BKN080 28/23 Q1015","temp":28,"dewp":23,"wdir":160,"wspd":11,"visib":"6+","altim":1015,"clouds":[{"cover":"SCT","base":2500},{"cover":"BKN","base":8000}],"obsTime":1780678800},"SBMQ":{"icaoId":"SBMQ","flightCategory":"VFR","rawOb":"METAR SBMQ 051700Z 02004KT 9999 SCT020 BKN100 30/25 Q1011","temp":30,"dewp":25,"wdir":20,"wspd":4,"visib":"6+","altim":1011,"clouds":[{"cover":"SCT","base":2000},{"cover":"BKN","base":10000}],"obsTime":1780678800},"SBNT":{"icaoId":"SBNT","flightCategory":"VFR","rawOb":"METAR SBNT 051700Z 14016KT 9999 SCT033 30/22 Q1013","temp":30,"dewp":22,"wdir":140,"wspd":16,"visib":"6+","altim":1013,"clouds":[{"cover":"SCT","base":3300}],"obsTime":1780678800},"SBPA":{"icaoId":"SBPA","flightCategory":"VFR","rawOb":"METAR SBPA 051700Z 34004KT 300V030 CAVOK 25/15 Q1021","temp":25,"dewp":15,"wdir":340,"wspd":4,"visib":"6+","altim":1021,"clouds":[],"obsTime":1780678800},"SBPJ":{"icaoId":"SBPJ","flightCategory":"VFR","rawOb":"METAR SBPJ 051700Z 16010KT 080V180 CAVOK 33/18 Q1015","temp":33,"dewp":18,"wdir":160,"wspd":10,"visib":"6+","altim":1015,"clouds":[],"obsTime":1780678800},"SBPV":{"icaoId":"SBPV","flightCategory":"VFR","rawOb":"METAR SBPV 051700Z 09005KT 9999 SCT020 33/21 Q1014","temp":33,"dewp":21,"wdir":90,"wspd":5,"visib":"6+","altim":1014,"clouds":[{"cover":"SCT","base":2000}],"obsTime":1780678800},"SBRB":{"icaoId":"SBRB","flightCategory":"VFR","rawOb":"METAR SBRB 051700Z 12005KT 9999 SCT030 32/20 Q1016","temp":32,"dewp":20,"wdir":120,"wspd":5,"visib":"6+","altim":1016,"clouds":[{"cover":"SCT","base":3000}],"obsTime":1780678800},"SBRF":{"icaoId":"SBRF","flightCategory":"VFR","rawOb":"METAR SBRF 051700Z 15016KT 9999 SCT025 SCT050 28/23 Q1013","temp":28,"dewp":23,"wdir":150,"wspd":16,"visib":"6+","altim":1013,"clouds":[{"cover":"SCT","base":2500},{"cover":"SCT","base":5000}],"obsTime":1780678800},"SBSG":{"icaoId":"SBSG","flightCategory":"VFR","rawOb":"METAR SBSG 051700Z 16007KT 100V190 9999 BKN033 FEW035TCU 29/22 Q1013","temp":29,"dewp":22,"wdir":160,"wspd":7,"visib":"6+","altim":1013,"clouds":[{"cover":"BKN","base":3300},{"cover":"FEW","base":3500}],"obsTime":1780678800},"SBSL":{"icaoId":"SBSL","flightCategory":"VFR","rawOb":"METAR SBSL 051700Z 11009KT 070V160 9999 BKN035 32/24 Q1011","temp":32,"dewp":24,"wdir":110,"wspd":9,"visib":"6+","altim":1011,"clouds":[{"cover":"BKN","base":3500}],"obsTime":1780678800},"SBSN":{"icaoId":"SBSN","flightCategory":"VFR","rawOb":"METAR SBSN 051700Z 08008KT 9999 SCT017 BKN100 29/25 Q1012","temp":29,"dewp":25,"wdir":80,"wspd":8,"visib":"6+","altim":1012,"clouds":[{"cover":"SCT","base":1700},{"cover":"BKN","base":10000}],"obsTime":1780678800},"SBSP":{"icaoId":"SBSP","flightCategory":"VFR","rawOb":"METAR SBSP 051700Z 13008KT 9999 SCT036 19/10 Q1026","temp":19,"dewp":10,"wdir":130,"wspd":8,"visib":"6+","altim":1026,"clouds":[{"cover":"SCT","base":3600}],"obsTime":1780678800},"SBSV":{"icaoId":"SBSV","flightCategory":"VFR","rawOb":"METAR SBSV 051700Z 17016KT 9999 SCT025 BKN080 28/18 Q1017","temp":28,"dewp":18,"wdir":170,"wspd":16,"visib":"6+","altim":1017,"clouds":[{"cover":"SCT","base":2500},{"cover":"BKN","base":8000}],"obsTime":1780678800},"SBTE":{"icaoId":"SBTE","flightCategory":"VFR","rawOb":"METAR SBTE 051700Z 11006KT 9999 SCT030 32/21 Q1012","temp":32,"dewp":21,"wdir":110,"wspd":6,"visib":"6+","altim":1012,"clouds":[{"cover":"SCT","base":3000}],"obsTime":1780678800},"SBUL":{"icaoId":"SBUL","flightCategory":"VFR","rawOb":"METAR SBUL 051700Z 14007KT 9999 FEW040 23/10 Q1024","temp":23,"dewp":10,"wdir":140,"wspd":7,"visib":"6+","altim":1024,"clouds":[{"cover":"FEW","base":4000}],"obsTime":1780678800},"SBUR":{"icaoId":"SBUR","flightCategory":"VFR","rawOb":"METAR SBUR 051700Z 08009KT 9999 FEW046 23/11 Q1023","temp":23,"dewp":11,"wdir":80,"wspd":9,"visib":"6+","altim":1023,"clouds":[{"cover":"FEW","base":4600}],"obsTime":1780678800},"SBVT":{"icaoId":"SBVT","flightCategory":"IFR","rawOb":"METAR SBVT 051700Z 15012KT 4000 -RA BR SCT012 BKN015 OVC025 19/16 Q1023","temp":19,"dewp":16,"wdir":150,"wspd":12,"visib":2.49,"altim":1023,"clouds":[{"cover":"SCT","base":1200},{"cover":"BKN","base":1500},{"cover":"OVC","base":2500}],"obsTime":1780678800},"SBOI":{"icaoId":"SBOI","flightCategory":"VFR","rawOb":"METAR SBOI 051700Z AUTO VRB03KT 9999 SCT021 SCT024 BKN039 30/25 Q1012","temp":30,"dewp":25,"wdir":"VRB","wspd":3,"visib":"6+","altim":1012,"clouds":[{"cover":"SCT","base":2100},{"cover":"SCT","base":2400},{"cover":"BKN","base":3900}],"obsTime":1780678800},"SBTU":{"icaoId":"SBTU","flightCategory":"VFR","rawOb":"METAR SBTU 051700Z AUTO 30005KT 250V350 9999 // SCT082/// ///// Q1014","temp":null,"dewp":null,"wdir":300,"wspd":5,"visib":"6+","altim":1014,"clouds":[{"cover":"SCT","base":8200}],"obsTime":1780678800},"SBCA":{"icaoId":"SBCA","flightCategory":"VFR","rawOb":"METAR SBCA 051700Z 05006G16KT CAVOK 21/12 Q1025","temp":21,"dewp":12,"wdir":50,"wspd":6,"visib":"6+","altim":1025,"clouds":[],"obsTime":1780678800},"SBAR":{"icaoId":"SBAR","flightCategory":"IFR","rawOb":"SPECI SBAR 051626Z 15014G27KT 4000 SHRA FEW010 OVC015 24/23 Q1016","temp":24,"dewp":23,"wdir":150,"wspd":14,"visib":2.49,"altim":1016,"clouds":[{"cover":"FEW","base":1000},{"cover":"OVC","base":1500}],"obsTime":1780676760},"SBAU":{"icaoId":"SBAU","flightCategory":"VFR","rawOb":"METAR SBAU 051700Z 06008KT CAVOK 28/13 Q1021","temp":28,"dewp":13,"wdir":60,"wspd":8,"visib":"6+","altim":1021,"clouds":[],"obsTime":1780678800},"SBAX":{"icaoId":"SBAX","flightCategory":"VFR","rawOb":"METAR SBAX 051700Z AUTO 11007KT 040V150 9999 FEW038 21/11 Q1024","temp":21,"dewp":11,"wdir":110,"wspd":7,"visib":"6+","altim":1024,"clouds":[{"cover":"FEW","base":3800}],"obsTime":1780678800},"SBBH":{"icaoId":"SBBH","flightCategory":"VFR","rawOb":"METAR SBBH 051700Z 10006KT 9999 BKN045 22/10 Q1024","temp":22,"dewp":10,"wdir":100,"wspd":6,"visib":"6+","altim":1024,"clouds":[{"cover":"BKN","base":4500}],"obsTime":1780678800},"SBBQ":{"icaoId":"SBBQ","flightCategory":"VFR","rawOb":"METAR SBBQ 051700Z 10006KT 030V130 9999 BKN040 16/09 Q1028","temp":16,"dewp":9,"wdir":100,"wspd":6,"visib":"6+","altim":1028,"clouds":[{"cover":"BKN","base":4000}],"obsTime":1780678800},"SBBU":{"icaoId":"SBBU","flightCategory":"VFR","rawOb":"METAR SBBU 051700Z 12005KT 9999 FEW030 24/15 Q1023","temp":24,"dewp":15,"wdir":120,"wspd":5,"visib":"6+","altim":1023,"clouds":[{"cover":"FEW","base":3000}],"obsTime":1780678800},"SBCC":{"icaoId":"SBCC","flightCategory":"VFR","rawOb":"METAR SBCC 051700Z 09012KT 9999 SCT045 31/17 Q1016","temp":31,"dewp":17,"wdir":90,"wspd":12,"visib":"6+","altim":1016,"clouds":[{"cover":"SCT","base":4500}],"obsTime":1780678800},"SBCJ":{"icaoId":"SBCJ","flightCategory":"VFR","rawOb":"METAR SBCJ 051700Z 12005KT 9999 SCT025 28/19 Q1017","temp":28,"dewp":19,"wdir":120,"wspd":5,"visib":"6+","altim":1017,"clouds":[{"cover":"SCT","base":2500}],"obsTime":1780678800},"SBCO":{"icaoId":"SBCO","flightCategory":"VFR","rawOb":"METAR SBCO 051700Z 33005KT 280V030 CAVOK 25/15 Q1021","temp":25,"dewp":15,"wdir":330,"wspd":5,"visib":"6+","altim":1021,"clouds":[],"obsTime":1780678800},"SBDN":{"icaoId":"SBDN","flightCategory":"VFR","rawOb":"METAR SBDN 051700Z 04005KT CAVOK 26/14 Q1022","temp":26,"dewp":14,"wdir":40,"wspd":5,"visib":"6+","altim":1022,"clouds":[],"obsTime":1780678800},"SBES":{"icaoId":"SBES","flightCategory":"VFR","rawOb":"METAR SBES 051700Z 14007KT 100V180 9999 SCT020 SCT040 23/// Q1024","temp":null,"dewp":null,"wdir":140,"wspd":7,"visib":"6+","altim":1024,"clouds":[{"cover":"SCT","base":2000},{"cover":"SCT","base":4000}],"obsTime":1780678800},"SBGM":{"icaoId":"SBGM","flightCategory":"VFR","rawOb":"METAR SBGM 051700Z 13007KT CAVOK 32/10 Q1015","temp":32,"dewp":10,"wdir":130,"wspd":7,"visib":"6+","altim":1015,"clouds":[],"obsTime":1780678800},"SBIP":{"icaoId":"SBIP","flightCategory":"VFR","rawOb":"METAR SBIP 051700Z AUTO 24004KT 170V300 CAVOK 25/12 Q1022","temp":25,"dewp":12,"wdir":240,"wspd":4,"visib":"6+","altim":1022,"clouds":[],"obsTime":1780678800},"SBKG":{"icaoId":"SBKG","flightCategory":"VFR","rawOb":"METAR SBKG 051700Z 11012KT 9999 SCT020 27/21 Q1016","temp":27,"dewp":21,"wdir":110,"wspd":12,"visib":"6+","altim":1016,"clouds":[{"cover":"SCT","base":2000}],"obsTime":1780678800},"SBPB":{"icaoId":"SBPB","flightCategory":"VFR","rawOb":"METAR SBPB 051700Z 08009KT 9999 SCT020 33/23 Q1011","temp":33,"dewp":23,"wdir":80,"wspd":9,"visib":"6+","altim":1011,"clouds":[{"cover":"SCT","base":2000}],"obsTime":1780678800},"SBPL":{"icaoId":"SBPL","flightCategory":"VFR","rawOb":"METAR SBPL 051700Z 12013KT 9999 SCT030 BKN070 28/18 Q1016","temp":28,"dewp":18,"wdir":120,"wspd":13,"visib":"6+","altim":1016,"clouds":[{"cover":"SCT","base":3000},{"cover":"BKN","base":7000}],"obsTime":1780678800},"SBPP":{"icaoId":"SBPP","flightCategory":"VFR","rawOb":"METAR SBPP 051700Z 08010KT CAVOK 23/17 Q1022","temp":23,"dewp":17,"wdir":80,"wspd":10,"visib":"6+","altim":1022,"clouds":[],"obsTime":1780678800},"SBPS":{"icaoId":"SBPS","flightCategory":"VFR","rawOb":"METAR SBPS 051700Z VRB08G18KT 9999 SCT025 25/19 Q1020","temp":25,"dewp":19,"wdir":"VRB","wspd":8,"visib":"6+","altim":1020,"clouds":[{"cover":"SCT","base":2500}],"obsTime":1780678800},"SBSC":{"icaoId":"SBSC","flightCategory":"VFR","rawOb":"METAR SBSC 051700Z 19005KT 9999 FEW020 BKN035 23/17 Q1024","temp":23,"dewp":17,"wdir":190,"wspd":5,"visib":"6+","altim":1024,"clouds":[{"cover":"FEW","base":2000},{"cover":"BKN","base":3500}],"obsTime":1780678800},"SBSJ":{"icaoId":"SBSJ","flightCategory":"VFR","rawOb":"METAR SBSJ 051700Z 06005KT 9999 BKN040 21/11 Q1025","temp":21,"dewp":11,"wdir":60,"wspd":5,"visib":"6+","altim":1025,"clouds":[{"cover":"BKN","base":4000}],"obsTime":1780678800},"SBSM":{"icaoId":"SBSM","flightCategory":"VFR","rawOb":"METAR SBSM 051700Z 03005KT CAVOK 25/16 Q1021","temp":25,"dewp":16,"wdir":30,"wspd":5,"visib":"6+","altim":1021,"clouds":[],"obsTime":1780678800},"SBSR":{"icaoId":"SBSR","flightCategory":"VFR","rawOb":"METAR SBSR 051700Z 12007KT 080V210 CAVOK 26/10 Q1022","temp":26,"dewp":10,"wdir":120,"wspd":7,"visib":"6+","altim":1022,"clouds":[],"obsTime":1780678800},"SBTF":{"icaoId":"SBTF","flightCategory":"VFR","rawOb":"METAR SBTF 051700Z 28004KT 9999 SCT013 BKN090 26/24 Q1014","temp":26,"dewp":24,"wdir":280,"wspd":4,"visib":"6+","altim":1014,"clouds":[{"cover":"SCT","base":1300},{"cover":"BKN","base":9000}],"obsTime":1780678800},"SBTT":{"icaoId":"SBTT","flightCategory":"MVFR","rawOb":"METAR SBTT 051700Z 10003KT 9999 BKN016 BKN090 28/23 Q1016","temp":28,"dewp":23,"wdir":100,"wspd":3,"visib":"6+","altim":1016,"clouds":[{"cover":"BKN","base":1600},{"cover":"BKN","base":9000}],"obsTime":1780678800},"SBUY":{"icaoId":"SBUY","flightCategory":"IFR","rawOb":"METAR SBUY 051700Z 29002KT 2500 -RA BR VCSH BKN020 FEW025TCU BKN090 25/25 Q1013","temp":25,"dewp":25,"wdir":290,"wspd":2,"visib":1.55,"altim":1013,"clouds":[{"cover":"BKN","base":2000},{"cover":"FEW","base":2500},{"cover":"BKN","base":9000}],"obsTime":1780678800},"SBVH":{"icaoId":"SBVH","flightCategory":"VFR","rawOb":"METAR SBVH 051700Z 09009KT CAVOK 29/19 Q1018","temp":29,"dewp":19,"wdir":90,"wspd":9,"visib":"6+","altim":1018,"clouds":[],"obsTime":1780678800},"SBJP":{"icaoId":"SBJP","flightCategory":"MVFR","rawOb":"METAR SBJP 051700Z 13017G30KT 5000 -RA BKN023 BKN070 26/23 Q1014","temp":26,"dewp":23,"wdir":130,"wspd":17,"visib":3.11,"altim":1014,"clouds":[{"cover":"BKN","base":2300},{"cover":"BKN","base":7000}],"obsTime":1780678800},"SBLE":{"icaoId":"SBLE","flightCategory":"VFR","rawOb":"METAR SBLE 051700Z AUTO 14006KT 100V180 9999 OVC047 23/16 Q1020","temp":23,"dewp":16,"wdir":140,"wspd":6,"visib":"6+","altim":1020,"clouds":[{"cover":"OVC","base":4700}],"obsTime":1780678800},"SBJV":{"icaoId":"SBJV","flightCategory":"VFR","rawOb":"METAR SBJV 051700Z 02004KT 9999 SCT020 BKN050 21/17 Q1024","temp":21,"dewp":17,"wdir":20,"wspd":4,"visib":"6+","altim":1024,"clouds":[{"cover":"SCT","base":2000},{"cover":"BKN","base":5000}],"obsTime":1780678800},"SBNM":{"icaoId":"SBNM","flightCategory":"VFR","rawOb":"METAR SBNM 051700Z AUTO 35011KT 320V020 CAVOK 25/15 Q1021","temp":25,"dewp":15,"wdir":350,"wspd":11,"visib":"6+","altim":1021,"clouds":[],"obsTime":1780678800},"SBAN":{"icaoId":"SBAN","flightCategory":"VFR","rawOb":"METAR SBAN 051700Z 08008KT CAVOK 23/10 Q1023","temp":23,"dewp":10,"wdir":80,"wspd":8,"visib":"6+","altim":1023,"clouds":[],"obsTime":1780678800},"SBIH":{"icaoId":"SBIH","flightCategory":"VFR","rawOb":"METAR SBIH 051700Z 03005KT 9999 TS SCT016 FEW025CB BKN080 26/23 Q1011","temp":26,"dewp":23,"wdir":30,"wspd":5,"visib":"6+","altim":1011,"clouds":[{"cover":"SCT","base":1600},{"cover":"FEW","base":2500},{"cover":"BKN","base":8000}],"obsTime":1780678800},"SBAF":{"icaoId":"SBAF","flightCategory":"VFR","rawOb":"METAR SBAF 051700Z 22003KT 9999 FEW015 SCT040 22/17 Q1024","temp":22,"dewp":17,"wdir":220,"wspd":3,"visib":"6+","altim":1024,"clouds":[{"cover":"FEW","base":1500},{"cover":"SCT","base":4000}],"obsTime":1780678800},"SBGW":{"icaoId":"SBGW","flightCategory":"VFR","rawOb":"METAR SBGW 051700Z VRB04KT 9999 SCT030 BKN070 22/09 Q1024","temp":22,"dewp":9,"wdir":"VRB","wspd":4,"visib":"6+","altim":1024,"clouds":[{"cover":"SCT","base":3000},{"cover":"BKN","base":7000}],"obsTime":1780678800},"SBJR":{"icaoId":"SBJR","flightCategory":"VFR","rawOb":"METAR SBJR 051700Z 30002KT 9999 FEW020 SCT050 26/16 Q1024","temp":26,"dewp":16,"wdir":300,"wspd":2,"visib":"6+","altim":1024,"clouds":[{"cover":"FEW","base":2000},{"cover":"SCT","base":5000}],"obsTime":1780678800},"SBLS":{"icaoId":"SBLS","flightCategory":"VFR","rawOb":"METAR SBLS 051700Z 14009KT 080V150 9999 SCT040 20/09 Q1024","temp":20,"dewp":9,"wdir":140,"wspd":9,"visib":"6+","altim":1024,"clouds":[{"cover":"SCT","base":4000}],"obsTime":1780678800},"SBMT":{"icaoId":"SBMT","flightCategory":"VFR","rawOb":"METAR SBMT 051700Z 11008KT 9999 SCT025 19/09 Q1025","temp":19,"dewp":9,"wdir":110,"wspd":8,"visib":"6+","altim":1025,"clouds":[{"cover":"SCT","base":2500}],"obsTime":1780678800},"SBST":{"icaoId":"SBST","flightCategory":"VFR","rawOb":"METAR SBST 051700Z 17009KT 9999 FEW030 23/15 Q1023","temp":23,"dewp":15,"wdir":170,"wspd":9,"visib":"6+","altim":1023,"clouds":[{"cover":"FEW","base":3000}],"obsTime":1780678800},"SBTA":{"icaoId":"SBTA","flightCategory":"VFR","rawOb":"METAR SBTA 051700Z 02005KT 310V080 9999 BKN035 22/11 Q1024","temp":22,"dewp":11,"wdir":20,"wspd":5,"visib":"6+","altim":1024,"clouds":[{"cover":"BKN","base":3500}],"obsTime":1780678800}}}