{"updated":1779662624,"count":83,"data":{"SBBE":{"icaoId":"SBBE","flightCategory":"VFR","rawOb":"METAR SBBE 242100Z 35006KT 9999 FEW040 FEW045TCU 29/24 Q1010","temp":29,"dewp":24,"wdir":350,"wspd":6,"visib":"6+","altim":1010,"clouds":[{"cover":"FEW","base":4000},{"cover":"FEW","base":4500}],"obsTime":1779656400},"SBGR":{"icaoId":"SBGR","flightCategory":"MVFR","rawOb":"METAR SBGR 242100Z 18003KT 6000 BKN023 20/17 Q1021","temp":20,"dewp":17,"wdir":180,"wspd":3,"visib":3.73,"altim":1021,"clouds":[{"cover":"BKN","base":2300}],"obsTime":1779656400},"SBMA":{"icaoId":"SBMA","flightCategory":"VFR","rawOb":"METAR SBMA 242100Z 07002KT CAVOK 31/21 Q1011","temp":31,"dewp":21,"wdir":70,"wspd":2,"visib":"6+","altim":1011,"clouds":[],"obsTime":1779656400},"SBBR":{"icaoId":"SBBR","flightCategory":"VFR","rawOb":"METAR SBBR 242100Z 16005KT 9999 FEW040 BKN080 23/17 Q1022","temp":23,"dewp":17,"wdir":160,"wspd":5,"visib":"6+","altim":1022,"clouds":[{"cover":"FEW","base":4000},{"cover":"BKN","base":8000}],"obsTime":1779656400},"SBME":{"icaoId":"SBME","flightCategory":"VFR","rawOb":"METAR SBME 242100Z 00000KT CAVOK 23/21 Q1018","temp":23,"dewp":21,"wdir":0,"wspd":0,"visib":"6+","altim":1018,"clouds":[],"obsTime":1779656400},"SBCG":{"icaoId":"SBCG","flightCategory":"VFR","rawOb":"METAR SBCG 242100Z 14005KT 9999 FEW035 BKN100 22/20 Q1017","temp":22,"dewp":20,"wdir":140,"wspd":5,"visib":"6+","altim":1017,"clouds":[{"cover":"FEW","base":3500},{"cover":"BKN","base":10000}],"obsTime":1779656400},"SBMG":{"icaoId":"SBMG","flightCategory":"VFR","rawOb":"METAR SBMG 242100Z 01003KT 9999 FEW020 BKN090 22/19 Q1018","temp":22,"dewp":19,"wdir":10,"wspd":3,"visib":"6+","altim":1018,"clouds":[{"cover":"FEW","base":2000},{"cover":"BKN","base":9000}],"obsTime":1779656400},"SBFL":{"icaoId":"SBFL","flightCategory":"VFR","rawOb":"METAR SBFL 242100Z 19009KT 170V230 9999 FEW009 SCT045 OVC055 17/16 Q1021","temp":17,"dewp":16,"wdir":190,"wspd":9,"visib":"6+","altim":1021,"clouds":[{"cover":"FEW","base":900},{"cover":"SCT","base":4500},{"cover":"OVC","base":5500}],"obsTime":1779656400},"SBMK":{"icaoId":"SBMK","flightCategory":"VFR","rawOb":"METAR SBMK 242100Z 07006KT CAVOK 24/16 Q1020","temp":24,"dewp":16,"wdir":70,"wspd":6,"visib":"6+","altim":1020,"clouds":[],"obsTime":1779656400},"SBMO":{"icaoId":"SBMO","flightCategory":"VFR","rawOb":"METAR SBMO 242100Z VRB02KT 9999 SCT020 BKN050 23/23 Q1015","temp":23,"dewp":23,"wdir":"VRB","wspd":2,"visib":"6+","altim":1015,"clouds":[{"cover":"SCT","base":2000},{"cover":"BKN","base":5000}],"obsTime":1779656400},"SBMQ":{"icaoId":"SBMQ","flightCategory":"VFR","rawOb":"METAR SBMQ 242100Z 07003KT 9999 SCT030 28/25 Q1011","temp":28,"dewp":25,"wdir":70,"wspd":3,"visib":"6+","altim":1011,"clouds":[{"cover":"SCT","base":3000}],"obsTime":1779656400},"SBFZ":{"icaoId":"SBFZ","flightCategory":"VFR","rawOb":"METAR SBFZ 242100Z 10008KT 9999 FEW020 28/22 Q1012","temp":28,"dewp":22,"wdir":100,"wspd":8,"visib":"6+","altim":1012,"clouds":[{"cover":"FEW","base":2000}],"obsTime":1779656400},"SBCP":{"icaoId":"SBCP","flightCategory":"VFR","rawOb":"METAR SBCP 242100Z 07006KT 9999 FEW020 23/19 Q1018","temp":23,"dewp":19,"wdir":70,"wspd":6,"visib":"6+","altim":1018,"clouds":[{"cover":"FEW","base":2000}],"obsTime":1779656400},"SBNT":{"icaoId":"SBNT","flightCategory":"VFR","rawOb":"METAR SBNT 242100Z 15006KT 9999 SCT024 26/23 Q1013","temp":26,"dewp":23,"wdir":150,"wspd":6,"visib":"6+","altim":1013,"clouds":[{"cover":"SCT","base":2400}],"obsTime":1779656400},"SBGL":{"icaoId":"SBGL","flightCategory":"VFR","rawOb":"METAR SBGL 242100Z 20007KT 9999 FEW020 SCT030 24/20 Q1018","temp":24,"dewp":20,"wdir":200,"wspd":7,"visib":"6+","altim":1018,"clouds":[{"cover":"FEW","base":2000},{"cover":"SCT","base":3000}],"obsTime":1779656400},"SBPA":{"icaoId":"SBPA","flightCategory":"VFR","rawOb":"METAR SBPA 242100Z 10009KT 9999 FEW025 17/15 Q1021","temp":17,"dewp":15,"wdir":100,"wspd":9,"visib":"6+","altim":1021,"clouds":[{"cover":"FEW","base":2500}],"obsTime":1779656400},"SBBV":{"icaoId":"SBBV","flightCategory":"VFR","rawOb":"METAR SBBV 242100Z 32006KT 9999 SCT040 FEW045TCU SCT100 31/23 Q1010","temp":31,"dewp":23,"wdir":320,"wspd":6,"visib":"6+","altim":1010,"clouds":[{"cover":"SCT","base":4000},{"cover":"FEW","base":4500},{"cover":"SCT","base":10000}],"obsTime":1779656400},"SBPJ":{"icaoId":"SBPJ","flightCategory":"VFR","rawOb":"METAR SBPJ 242100Z 10003KT CAVOK 30/20 Q1013","temp":30,"dewp":20,"wdir":100,"wspd":3,"visib":"6+","altim":1013,"clouds":[],"obsTime":1779656400},"SBGO":{"icaoId":"SBGO","flightCategory":"VFR","rawOb":"METAR SBGO 242100Z 09007KT 9999 SCT045 SCT070 26/18 Q1019","temp":26,"dewp":18,"wdir":90,"wspd":7,"visib":"6+","altim":1019,"clouds":[{"cover":"SCT","base":4500},{"cover":"SCT","base":7000}],"obsTime":1779656400},"SBPV":{"icaoId":"SBPV","flightCategory":"VFR","rawOb":"METAR SBPV 242100Z 34003KT 9999 SCT025 29/23 Q1011","temp":29,"dewp":23,"wdir":340,"wspd":3,"visib":"6+","altim":1011,"clouds":[{"cover":"SCT","base":2500}],"obsTime":1779656400},"SBCT":{"icaoId":"SBCT","flightCategory":"IFR","rawOb":"METAR SBCT 242100Z 11005KT 6000 OVC005 15/15 Q1022","temp":15,"dewp":15,"wdir":110,"wspd":5,"visib":3.73,"altim":1022,"clouds":[{"cover":"OVC","base":500}],"obsTime":1779656400},"SBRB":{"icaoId":"SBRB","flightCategory":"VFR","rawOb":"METAR SBRB 242100Z 12002KT 9999 SCT030 27/20 Q1013","temp":27,"dewp":20,"wdir":120,"wspd":2,"visib":"6+","altim":1013,"clouds":[{"cover":"SCT","base":3000}],"obsTime":1779656400},"SBRF":{"icaoId":"SBRF","flightCategory":"VFR","rawOb":"METAR SBRF 242100Z 20008KT 9999 SCT025 SCT060 24/23 Q1014","temp":24,"dewp":23,"wdir":200,"wspd":8,"visib":"6+","altim":1014,"clouds":[{"cover":"SCT","base":2500},{"cover":"SCT","base":6000}],"obsTime":1779656400},"SBSG":{"icaoId":"SBSG","flightCategory":"VFR","rawOb":"METAR SBSG 242100Z 13004KT 100V170 9999 FEW025 26/23 Q1013","temp":26,"dewp":23,"wdir":130,"wspd":4,"visib":"6+","altim":1013,"clouds":[{"cover":"FEW","base":2500}],"obsTime":1779656400},"SBSL":{"icaoId":"SBSL","flightCategory":"MVFR","rawOb":"METAR SBSL 242100Z 27002KT 9999 BKN025 BKN070 26/25 Q1011","temp":26,"dewp":25,"wdir":270,"wspd":2,"visib":"6+","altim":1011,"clouds":[{"cover":"BKN","base":2500},{"cover":"BKN","base":7000}],"obsTime":1779656400},"SBVT":{"icaoId":"SBVT","flightCategory":"VFR","rawOb":"METAR SBVT 242100Z 03003KT 9999 SCT040 23/18 Q1018","temp":23,"dewp":18,"wdir":30,"wspd":3,"visib":"6+","altim":1018,"clouds":[{"cover":"SCT","base":4000}],"obsTime":1779656400},"SBLO":{"icaoId":"SBLO","flightCategory":"VFR","rawOb":"METAR SBLO 242100Z 09002KT CAVOK 20/19 Q1018","temp":20,"dewp":19,"wdir":90,"wspd":2,"visib":"6+","altim":1018,"clouds":[],"obsTime":1779656400},"SBFI":{"icaoId":"SBFI","flightCategory":"VFR","rawOb":"METAR SBFI 242100Z 13005KT 9999 FEW040 BKN100 20/18 Q1017","temp":20,"dewp":18,"wdir":130,"wspd":5,"visib":"6+","altim":1017,"clouds":[{"cover":"FEW","base":4000},{"cover":"BKN","base":10000}],"obsTime":1779656400},"SBEG":{"icaoId":"SBEG","flightCategory":"VFR","rawOb":"METAR SBEG 242100Z 26005KT 9999 SCT016 27/24 Q1011","temp":27,"dewp":24,"wdir":260,"wspd":5,"visib":"6+","altim":1011,"clouds":[{"cover":"SCT","base":1600}],"obsTime":1779656400},"SBSN":{"icaoId":"SBSN","flightCategory":"VFR","rawOb":"METAR SBSN 242100Z 00000KT 9999 FEW018 FEW021TCU BKN100 26/25 Q1011","temp":26,"dewp":25,"wdir":0,"wspd":0,"visib":"6+","altim":1011,"clouds":[{"cover":"FEW","base":1800},{"cover":"FEW","base":2100},{"cover":"BKN","base":10000}],"obsTime":1779656400},"SBSP":{"icaoId":"SBSP","flightCategory":"LIFR","rawOb":"METAR SBSP 242100Z 19006KT 150V220 5000 BR OVC004 17/17 Q1022","temp":17,"dewp":17,"wdir":190,"wspd":6,"visib":3.11,"altim":1022,"clouds":[{"cover":"OVC","base":400}],"obsTime":1779656400},"SBIL":{"icaoId":"SBIL","flightCategory":"VFR","rawOb":"METAR SBIL 242100Z 22009KT 9999 SCT023 BKN070 27/22 Q1017","temp":27,"dewp":22,"wdir":220,"wspd":9,"visib":"6+","altim":1017,"clouds":[{"cover":"SCT","base":2300},{"cover":"BKN","base":7000}],"obsTime":1779656400},"SBSV":{"icaoId":"SBSV","flightCategory":"MVFR","rawOb":"METAR SBSV 242100Z 11015KT 080V150 5000 -SHRA SCT015 BKN021 FEW025TCU OVC050 26/23 Q1016","temp":26,"dewp":23,"wdir":110,"wspd":15,"visib":3.11,"altim":1016,"clouds":[{"cover":"SCT","base":1500},{"cover":"BKN","base":2100},{"cover":"FEW","base":2500},{"cover":"OVC","base":5000}],"obsTime":1779656400},"SBCZ":{"icaoId":"SBCZ","flightCategory":"MVFR","rawOb":"METAR SBCZ 242100Z 12003KT 9999 BKN030 27/19 Q1013","temp":27,"dewp":19,"wdir":120,"wspd":3,"visib":"6+","altim":1013,"clouds":[{"cover":"BKN","base":3000}],"obsTime":1779656400},"SBUL":{"icaoId":"SBUL","flightCategory":"VFR","rawOb":"METAR SBUL 242100Z 08004KT 040V100 9999 FEW048 SCT070 23/17 Q1022","temp":23,"dewp":17,"wdir":80,"wspd":4,"visib":"6+","altim":1022,"clouds":[{"cover":"FEW","base":4800},{"cover":"SCT","base":7000}],"obsTime":1779656400},"SBJU":{"icaoId":"SBJU","flightCategory":"VFR","rawOb":"METAR SBJU 242100Z 16002KT 9999 FEW020 27/16 Q1014","temp":27,"dewp":16,"wdir":160,"wspd":2,"visib":"6+","altim":1014,"clouds":[{"cover":"FEW","base":2000}],"obsTime":1779656400},"SBUR":{"icaoId":"SBUR","flightCategory":"VFR","rawOb":"METAR SBUR 242100Z 35005KT CAVOK 25/17 Q1020","temp":25,"dewp":17,"wdir":350,"wspd":5,"visib":"6+","altim":1020,"clouds":[],"obsTime":1779656400},"SBCF":{"icaoId":"SBCF","flightCategory":"VFR","rawOb":"METAR SBCF 242100Z 11007KT 9999 FEW040 SCT100 23/17 Q1021","temp":23,"dewp":17,"wdir":110,"wspd":7,"visib":"6+","altim":1021,"clouds":[{"cover":"FEW","base":4000},{"cover":"SCT","base":10000}],"obsTime":1779656400},"SBKP":{"icaoId":"SBKP","flightCategory":"VFR","rawOb":"METAR SBKP 242100Z 19003KT 150V210 CAVOK 23/19 Q1020","temp":23,"dewp":19,"wdir":190,"wspd":3,"visib":"6+","altim":1020,"clouds":[],"obsTime":1779656400},"SBCB":{"icaoId":"SBCB","flightCategory":"VFR","rawOb":"METAR SBCB 242100Z 18003KT CAVOK 23/20 Q1019","temp":23,"dewp":20,"wdir":180,"wspd":3,"visib":"6+","altim":1019,"clouds":[],"obsTime":1779656400},"SBCR":{"icaoId":"SBCR","flightCategory":"VFR","rawOb":"METAR SBCR 242100Z 05007KT 9999 FEW030 SCT100 26/19 Q1013","temp":26,"dewp":19,"wdir":50,"wspd":7,"visib":"6+","altim":1013,"clouds":[{"cover":"FEW","base":3000},{"cover":"SCT","base":10000}],"obsTime":1779656400},"SBHT":{"icaoId":"SBHT","flightCategory":"MVFR","rawOb":"METAR SBHT 242100Z 00000KT 9999 BKN020 BKN090 26/24 Q1011","temp":26,"dewp":24,"wdir":0,"wspd":0,"visib":"6+","altim":1011,"clouds":[{"cover":"BKN","base":2000},{"cover":"BKN","base":9000}],"obsTime":1779656400},"SBAT":{"icaoId":"SBAT","flightCategory":"VFR","rawOb":"METAR SBAT 242100Z 12003KT 9999 SCT035 32/21 Q1012","temp":32,"dewp":21,"wdir":120,"wspd":3,"visib":"6+","altim":1012,"clouds":[{"cover":"SCT","base":3500}],"obsTime":1779656400},"SBTE":{"icaoId":"SBTE","flightCategory":"VFR","rawOb":"METAR SBTE 242100Z 12003KT CAVOK 31/22 Q1010","temp":31,"dewp":22,"wdir":120,"wspd":3,"visib":"6+","altim":1010,"clouds":[],"obsTime":1779656400},"SBOI":{"icaoId":"SBOI","flightCategory":"IFR","rawOb":"METAR SBOI 242100Z AUTO 03007G17KT 350V080 6000 RA BKN009 25/24 Q1012 RERA REDZ","temp":25,"dewp":24,"wdir":30,"wspd":7,"visib":3.73,"altim":1012,"clouds":[{"cover":"BKN","base":900}],"obsTime":1779656400},"SBTU":{"icaoId":"SBTU","flightCategory":"VFR","rawOb":"METAR SBTU 242100Z AUTO 31003KT 220V340 9999 // SCT048/// SCT056/// BKN074/// 29/24 Q1012","temp":29,"dewp":24,"wdir":310,"wspd":3,"visib":"6+","altim":1012,"clouds":[{"cover":"SCT","base":4800},{"cover":"SCT","base":5600},{"cover":"BKN","base":7400}],"obsTime":1779656400},"SBAX":{"icaoId":"SBAX","flightCategory":"VFR","rawOb":"METAR SBAX 242100Z AUTO 35004KT CAVOK 22/15 Q1022","temp":22,"dewp":15,"wdir":350,"wspd":4,"visib":"6+","altim":1022,"clouds":[],"obsTime":1779656400},"SBBH":{"icaoId":"SBBH","flightCategory":"VFR","rawOb":"METAR SBBH 242100Z 07005KT CAVOK 23/17 Q1021","temp":23,"dewp":17,"wdir":70,"wspd":5,"visib":"6+","altim":1021,"clouds":[],"obsTime":1779656400},"SBBU":{"icaoId":"SBBU","flightCategory":"VFR","rawOb":"METAR SBBU 242100Z 00000KT 9999 FEW030 BKN100 24/21 Q1019","temp":24,"dewp":21,"wdir":0,"wspd":0,"visib":"6+","altim":1019,"clouds":[{"cover":"FEW","base":3000},{"cover":"BKN","base":10000}],"obsTime":1779656400},"SBCA":{"icaoId":"SBCA","flightCategory":"MVFR","rawOb":"METAR SBCA 242100Z 02004KT 9999 BKN025 20/17 Q1020","temp":20,"dewp":17,"wdir":20,"wspd":4,"visib":"6+","altim":1020,"clouds":[{"cover":"BKN","base":2500}],"obsTime":1779656400},"SBTT":{"icaoId":"SBTT","flightCategory":"MVFR","rawOb":"METAR SBTT 242100Z 19003KT 9999 BKN020 OVC032 24/21 Q1014","temp":24,"dewp":21,"wdir":190,"wspd":3,"visib":"6+","altim":1014,"clouds":[{"cover":"BKN","base":2000},{"cover":"OVC","base":3200}],"obsTime":1779656400},"SBTF":{"icaoId":"SBTF","flightCategory":"VFR","rawOb":"METAR SBTF 242100Z 30004KT 9999 SCT015 BKN100 27/24 Q1011","temp":27,"dewp":24,"wdir":300,"wspd":4,"visib":"6+","altim":1011,"clouds":[{"cover":"SCT","base":1500},{"cover":"BKN","base":10000}],"obsTime":1779656400},"SBSR":{"icaoId":"SBSR","flightCategory":"VFR","rawOb":"METAR SBSR 242100Z 24003KT 9999 FEW030 FEW040TCU BKN070 26/17 Q1018","temp":26,"dewp":17,"wdir":240,"wspd":3,"visib":"6+","altim":1018,"clouds":[{"cover":"FEW","base":3000},{"cover":"FEW","base":4000},{"cover":"BKN","base":7000}],"obsTime":1779656400},"SBCO":{"icaoId":"SBCO","flightCategory":"VFR","rawOb":"METAR SBCO 242100Z 10008KT 9999 FEW023 17/14 Q1021","temp":17,"dewp":14,"wdir":100,"wspd":8,"visib":"6+","altim":1021,"clouds":[{"cover":"FEW","base":2300}],"obsTime":1779656400},"SBDN":{"icaoId":"SBDN","flightCategory":"VFR","rawOb":"METAR SBDN 242100Z 07002KT CAVOK 23/19 Q1017","temp":23,"dewp":19,"wdir":70,"wspd":2,"visib":"6+","altim":1017,"clouds":[],"obsTime":1779656400},"SBSM":{"icaoId":"SBSM","flightCategory":"VFR","rawOb":"METAR SBSM 242100Z 11004KT 9999 SCT032 16/13 Q1020","temp":16,"dewp":13,"wdir":110,"wspd":4,"visib":"6+","altim":1020,"clouds":[{"cover":"SCT","base":3200}],"obsTime":1779656400},"SBSJ":{"icaoId":"SBSJ","flightCategory":"MVFR","rawOb":"METAR SBSJ 242100Z 16006KT 130V190 8000 NSC 21/19 Q1020","temp":21,"dewp":19,"wdir":160,"wspd":6,"visib":4.97,"altim":1020,"clouds":[],"obsTime":1779656400},"SBSC":{"icaoId":"SBSC","flightCategory":"MVFR","rawOb":"METAR SBSC 242100Z 18005KT 9999 SCT015 BKN020 23/20 Q1019","temp":23,"dewp":20,"wdir":180,"wspd":5,"visib":"6+","altim":1019,"clouds":[{"cover":"SCT","base":1500},{"cover":"BKN","base":2000}],"obsTime":1779656400},"SBIP":{"icaoId":"SBIP","flightCategory":"VFR","rawOb":"METAR SBIP 242100Z AUTO 00000KT CAVOK 20/19 Q1019","temp":20,"dewp":19,"wdir":0,"wspd":0,"visib":"6+","altim":1019,"clouds":[],"obsTime":1779656400},"SBPS":{"icaoId":"SBPS","flightCategory":"VFR","rawOb":"METAR SBPS 242100Z 07002KT 9999 SCT025 23/19 Q1018","temp":23,"dewp":19,"wdir":70,"wspd":2,"visib":"6+","altim":1018,"clouds":[{"cover":"SCT","base":2500}],"obsTime":1779656400},"SBKG":{"icaoId":"SBKG","flightCategory":"VFR","rawOb":"METAR SBKG 242100Z 10006KT 9999 SCT020 24/20 Q1016","temp":24,"dewp":20,"wdir":100,"wspd":6,"visib":"6+","altim":1016,"clouds":[{"cover":"SCT","base":2000}],"obsTime":1779656400},"SBPL":{"icaoId":"SBPL","flightCategory":"VFR","rawOb":"METAR SBPL 242100Z 32002KT 9999 SCT030 28/19 Q1014","temp":28,"dewp":19,"wdir":320,"wspd":2,"visib":"6+","altim":1014,"clouds":[{"cover":"SCT","base":3000}],"obsTime":1779656400},"SBAR":{"icaoId":"SBAR","flightCategory":"VFR","rawOb":"METAR SBAR 242100Z 12006KT 9999 FEW034 27/20 Q1015","temp":27,"dewp":20,"wdir":120,"wspd":6,"visib":"6+","altim":1015,"clouds":[{"cover":"FEW","base":3400}],"obsTime":1779656400},"SBVH":{"icaoId":"SBVH","flightCategory":"VFR","rawOb":"METAR SBVH 242100Z 09004KT CAVOK 26/20 Q1015","temp":26,"dewp":20,"wdir":90,"wspd":4,"visib":"6+","altim":1015,"clouds":[],"obsTime":1779656400},"SBUY":{"icaoId":"SBUY","flightCategory":"VFR","rawOb":"METAR SBUY 242100Z 28002KT 9999 SCT025 BKN052 25/23 Q1011","temp":25,"dewp":23,"wdir":280,"wspd":2,"visib":"6+","altim":1011,"clouds":[{"cover":"SCT","base":2500},{"cover":"BKN","base":5200}],"obsTime":1779656400},"SBPB":{"icaoId":"SBPB","flightCategory":"VFR","rawOb":"METAR SBPB 242100Z 06006KT 9999 FEW020 29/25 Q1011","temp":29,"dewp":25,"wdir":60,"wspd":6,"visib":"6+","altim":1011,"clouds":[{"cover":"FEW","base":2000}],"obsTime":1779656400},"SBCJ":{"icaoId":"SBCJ","flightCategory":"VFR","rawOb":"METAR SBCJ 242100Z 00000KT 9999 FEW015 27/19 Q1016","temp":27,"dewp":19,"wdir":0,"wspd":0,"visib":"6+","altim":1016,"clouds":[{"cover":"FEW","base":1500}],"obsTime":1779656400},"SBPP":{"icaoId":"SBPP","flightCategory":"VFR","rawOb":"METAR SBPP 242100Z 09006KT 9999 SCT017 20/19 Q1017","temp":20,"dewp":19,"wdir":90,"wspd":6,"visib":"6+","altim":1017,"clouds":[{"cover":"SCT","base":1700}],"obsTime":1779656400},"SBES":{"icaoId":"SBES","flightCategory":"VFR","rawOb":"METAR SBES 242100Z 21004KT 120V250 CAVOK 21/// Q1019","temp":null,"dewp":null,"wdir":210,"wspd":4,"visib":"6+","altim":1019,"clouds":[],"obsTime":1779656400},"SBLE":{"icaoId":"SBLE","flightCategory":"MVFR","rawOb":"METAR SBLE 242100Z AUTO 13003KT 100V160 9999 FEW002 BKN025 OVC036 ///// Q////","temp":null,"dewp":null,"wdir":130,"wspd":3,"visib":"6+","altim":null,"clouds":[{"cover":"FEW","base":200},{"cover":"BKN","base":2500},{"cover":"OVC","base":3600}],"obsTime":1779656400},"SBJP":{"icaoId":"SBJP","flightCategory":"VFR","rawOb":"METAR SBJP 242100Z 15005KT 9999 FEW016 BKN080 25/23 Q1014","temp":25,"dewp":23,"wdir":150,"wspd":5,"visib":"6+","altim":1014,"clouds":[{"cover":"FEW","base":1600},{"cover":"BKN","base":8000}],"obsTime":1779656400},"SBAN":{"icaoId":"SBAN","flightCategory":"VFR","rawOb":"METAR SBAN 242100Z 19007KT 9999 FEW035 SCT070 22/16 Q1022","temp":22,"dewp":16,"wdir":190,"wspd":7,"visib":"6+","altim":1022,"clouds":[{"cover":"FEW","base":3500},{"cover":"SCT","base":7000}],"obsTime":1779656400},"SBJV":{"icaoId":"SBJV","flightCategory":"MVFR","rawOb":"METAR SBJV 242100Z 32003KT 9000 -RA FEW003 BKN025 BKN040 17/17 Q1021","temp":17,"dewp":17,"wdir":320,"wspd":3,"visib":5.59,"altim":1021,"clouds":[{"cover":"FEW","base":300},{"cover":"BKN","base":2500},{"cover":"BKN","base":4000}],"obsTime":1779656400},"SBLS":{"icaoId":"SBLS","flightCategory":"VFR","rawOb":"METAR SBLS 242100Z 13008KT 9999 FEW040 22/17 Q1021","temp":22,"dewp":17,"wdir":130,"wspd":8,"visib":"6+","altim":1021,"clouds":[{"cover":"FEW","base":4000}],"obsTime":1779656400},"SBAF":{"icaoId":"SBAF","flightCategory":"MVFR","rawOb":"METAR SBAF 242100Z 19006KT 9999 SCT017 BKN023 23/23 Q1019","temp":23,"dewp":23,"wdir":190,"wspd":6,"visib":"6+","altim":1019,"clouds":[{"cover":"SCT","base":1700},{"cover":"BKN","base":2300}],"obsTime":1779656400},"SBGW":{"icaoId":"SBGW","flightCategory":"VFR","rawOb":"METAR SBGW 242100Z 34002KT 9999 FEW030 BKN100 22/18 Q1019","temp":22,"dewp":18,"wdir":340,"wspd":2,"visib":"6+","altim":1019,"clouds":[{"cover":"FEW","base":3000},{"cover":"BKN","base":10000}],"obsTime":1779656400},"SBJR":{"icaoId":"SBJR","flightCategory":"MVFR","rawOb":"METAR SBJR 242100Z 19003KT 9999 BKN013 BKN030 24/21 Q1019","temp":24,"dewp":21,"wdir":190,"wspd":3,"visib":"6+","altim":1019,"clouds":[{"cover":"BKN","base":1300},{"cover":"BKN","base":3000}],"obsTime":1779656400},"SBNM":{"icaoId":"SBNM","flightCategory":"VFR","rawOb":"METAR SBNM 242100Z AUTO 11005KT CAVOK 18/11 Q1018","temp":18,"dewp":11,"wdir":110,"wspd":5,"visib":"6+","altim":1018,"clouds":[],"obsTime":1779656400},"SBMT":{"icaoId":"SBMT","flightCategory":"IFR","rawOb":"METAR SBMT 242100Z 14005KT 4000 BR FEW014 BKN020 18/17 Q1021","temp":18,"dewp":17,"wdir":140,"wspd":5,"visib":2.49,"altim":1021,"clouds":[{"cover":"FEW","base":1400},{"cover":"BKN","base":2000}],"obsTime":1779656400},"SBST":{"icaoId":"SBST","flightCategory":"IFR","rawOb":"METAR SBST 242100Z 04001KT 5000 -DZ BR OVC007 18/18 Q1019","temp":18,"dewp":18,"wdir":40,"wspd":1,"visib":3.11,"altim":1019,"clouds":[{"cover":"OVC","base":700}],"obsTime":1779656400},"SBTA":{"icaoId":"SBTA","flightCategory":"VFR","rawOb":"METAR SBTA 242100Z VRB01KT 9999 FEW035 SCT050 BKN100 22/21 Q1019","temp":22,"dewp":21,"wdir":"VRB","wspd":1,"visib":"6+","altim":1019,"clouds":[{"cover":"FEW","base":3500},{"cover":"SCT","base":5000},{"cover":"BKN","base":10000}],"obsTime":1779656400},"SBPF":{"icaoId":"SBPF","flightCategory":"VFR","rawOb":"METAR SBPF 242100Z 13007KT CAVOK 18/11 Q1020","temp":18,"dewp":11,"wdir":130,"wspd":7,"visib":"6+","altim":1020,"clouds":[],"obsTime":1779656400},"SBIH":{"icaoId":"SBIH","flightCategory":"VFR","rawOb":"METAR SBIH 242100Z 04001KT 9999 FEW010 BKN100 25/24 Q1011","temp":25,"dewp":24,"wdir":40,"wspd":1,"visib":"6+","altim":1011,"clouds":[{"cover":"FEW","base":1000},{"cover":"BKN","base":10000}],"obsTime":1779656400}}}