{"updated":1779050478,"count":85,"data":{"SBCZ":{"icaoId":"SBCZ","flightCategory":"VFR","rawOb":"METAR SBCZ 171900Z 28003KT 9999 SCT022 32/23 Q1010","temp":32,"dewp":23,"wdir":280,"wspd":3,"visib":"6+","altim":1010,"clouds":[{"cover":"SCT","base":2200}],"obsTime":1779044400},"SBLO":{"icaoId":"SBLO","flightCategory":"IFR","rawOb":"METAR SBLO 171900Z 02007KT 9999 BKN005 OVC070 18/17 Q1015","temp":18,"dewp":17,"wdir":20,"wspd":7,"visib":"6+","altim":1015,"clouds":[{"cover":"BKN","base":500},{"cover":"OVC","base":7000}],"obsTime":1779044400},"SBAT":{"icaoId":"SBAT","flightCategory":"VFR","rawOb":"METAR SBAT 171900Z 32002KT 9999 SCT035 FEW040TCU 34/24 Q1010","temp":34,"dewp":24,"wdir":320,"wspd":2,"visib":"6+","altim":1010,"clouds":[{"cover":"SCT","base":3500},{"cover":"FEW","base":4000}],"obsTime":1779044400},"SBMA":{"icaoId":"SBMA","flightCategory":"VFR","rawOb":"METAR SBMA 171900Z 11001KT 9999 SCT025 FEW027TCU 34/23 Q1009","temp":34,"dewp":23,"wdir":110,"wspd":1,"visib":"6+","altim":1009,"clouds":[{"cover":"SCT","base":2500},{"cover":"FEW","base":2700}],"obsTime":1779044400},"SBEG":{"icaoId":"SBEG","flightCategory":"VFR","rawOb":"METAR SBEG 171900Z 34007KT 9999 FEW008 SCT020 FEW025TCU 26/24 Q1010","temp":26,"dewp":24,"wdir":340,"wspd":7,"visib":"6+","altim":1010,"clouds":[{"cover":"FEW","base":800},{"cover":"SCT","base":2000},{"cover":"FEW","base":2500}],"obsTime":1779044400},"SBME":{"icaoId":"SBME","flightCategory":"VFR","rawOb":"METAR SBME 171900Z 07010KT CAVOK 31/21 Q1011","temp":31,"dewp":21,"wdir":70,"wspd":10,"visib":"6+","altim":1011,"clouds":[],"obsTime":1779044400},"SBFI":{"icaoId":"SBFI","flightCategory":"MVFR","rawOb":"METAR SBFI 171900Z 22007KT 9999 BKN025 BKN100 23/19 Q1013","temp":23,"dewp":19,"wdir":220,"wspd":7,"visib":"6+","altim":1013,"clouds":[{"cover":"BKN","base":2500},{"cover":"BKN","base":10000}],"obsTime":1779044400},"SBMG":{"icaoId":"SBMG","flightCategory":"VFR","rawOb":"METAR SBMG 171900Z 01012KT 9999 FEW010 BKN083 20/18 Q1013","temp":20,"dewp":18,"wdir":10,"wspd":12,"visib":"6+","altim":1013,"clouds":[{"cover":"FEW","base":1000},{"cover":"BKN","base":8300}],"obsTime":1779044400},"SBCF":{"icaoId":"SBCF","flightCategory":"VFR","rawOb":"METAR SBCF 171900Z 05006KT 9999 SCT040 26/17 Q1017","temp":26,"dewp":17,"wdir":50,"wspd":6,"visib":"6+","altim":1017,"clouds":[{"cover":"SCT","base":4000}],"obsTime":1779044400},"SBMK":{"icaoId":"SBMK","flightCategory":"VFR","rawOb":"METAR SBMK 171900Z 08007KT CAVOK 30/13 Q1015","temp":30,"dewp":13,"wdir":80,"wspd":7,"visib":"6+","altim":1015,"clouds":[],"obsTime":1779044400},"SBBR":{"icaoId":"SBBR","flightCategory":"VFR","rawOb":"METAR SBBR 171900Z VRB03KT 9999 SCT045 28/15 Q1018","temp":28,"dewp":15,"wdir":"VRB","wspd":3,"visib":"6+","altim":1018,"clouds":[{"cover":"SCT","base":4500}],"obsTime":1779044400},"SBMO":{"icaoId":"SBMO","flightCategory":"VFR","rawOb":"METAR SBMO 171900Z 10010KT 9999 FEW024 BKN055 27/23 Q1013","temp":27,"dewp":23,"wdir":100,"wspd":10,"visib":"6+","altim":1013,"clouds":[{"cover":"FEW","base":2400},{"cover":"BKN","base":5500}],"obsTime":1779044400},"SBFL":{"icaoId":"SBFL","flightCategory":"VFR","rawOb":"METAR SBFL 171900Z 11006KT 9000 FEW030 BKN050 21/18 Q1012","temp":21,"dewp":18,"wdir":110,"wspd":6,"visib":5.59,"altim":1012,"clouds":[{"cover":"FEW","base":3000},{"cover":"BKN","base":5000}],"obsTime":1779044400},"SBMQ":{"icaoId":"SBMQ","flightCategory":"VFR","rawOb":"METAR SBMQ 171900Z 07008KT 9999 SCT025 FEW032TCU 30/26 Q1010","temp":30,"dewp":26,"wdir":70,"wspd":8,"visib":"6+","altim":1010,"clouds":[{"cover":"SCT","base":2500},{"cover":"FEW","base":3200}],"obsTime":1779044400},"SBCG":{"icaoId":"SBCG","flightCategory":"VFR","rawOb":"METAR SBCG 171900Z 17003KT 9999 VCSH VCTS SCT010 BKN040 FEW050CB BKN070 23/21 Q1014","temp":23,"dewp":21,"wdir":170,"wspd":3,"visib":"6+","altim":1014,"clouds":[{"cover":"SCT","base":1000},{"cover":"BKN","base":4000},{"cover":"FEW","base":5000},{"cover":"BKN","base":7000}],"obsTime":1779044400},"SBNT":{"icaoId":"SBNT","flightCategory":"VFR","rawOb":"METAR SBNT 171900Z 16004KT 9000 VCSH SCT015 FEW027TCU BKN033 BKN060 25/24 Q1012","temp":25,"dewp":24,"wdir":160,"wspd":4,"visib":5.59,"altim":1012,"clouds":[{"cover":"SCT","base":1500},{"cover":"FEW","base":2700},{"cover":"BKN","base":3300},{"cover":"BKN","base":6000}],"obsTime":1779044400},"SBFZ":{"icaoId":"SBFZ","flightCategory":"MVFR","rawOb":"METAR SBFZ 171900Z 10012KT 9999 BKN017 BKN100 28/24 Q1011","temp":28,"dewp":24,"wdir":100,"wspd":12,"visib":"6+","altim":1011,"clouds":[{"cover":"BKN","base":1700},{"cover":"BKN","base":10000}],"obsTime":1779044400},"SBPA":{"icaoId":"SBPA","flightCategory":"IFR","rawOb":"METAR SBPA 171900Z 19009KT 150V230 9999 OVC009 17/15 Q1016","temp":17,"dewp":15,"wdir":190,"wspd":9,"visib":"6+","altim":1016,"clouds":[{"cover":"OVC","base":900}],"obsTime":1779044400},"SBPJ":{"icaoId":"SBPJ","flightCategory":"VFR","rawOb":"METAR SBPJ 171900Z 32004KT 9999 FEW040 SCT080 35/21 Q1011","temp":35,"dewp":21,"wdir":320,"wspd":4,"visib":"6+","altim":1011,"clouds":[{"cover":"FEW","base":4000},{"cover":"SCT","base":8000}],"obsTime":1779044400},"SBCP":{"icaoId":"SBCP","flightCategory":"VFR","rawOb":"METAR SBCP 171900Z 05005KT 9999 FEW020 29/22 Q1012","temp":29,"dewp":22,"wdir":50,"wspd":5,"visib":"6+","altim":1012,"clouds":[{"cover":"FEW","base":2000}],"obsTime":1779044400},"SBGL":{"icaoId":"SBGL","flightCategory":"MVFR","rawOb":"METAR SBGL 171900Z 12003KT 8000 SCT030 27/22 Q1011","temp":27,"dewp":22,"wdir":120,"wspd":3,"visib":4.97,"altim":1011,"clouds":[{"cover":"SCT","base":3000}],"obsTime":1779044400},"SBPV":{"icaoId":"SBPV","flightCategory":"MVFR","rawOb":"METAR SBPV 171900Z 18006KT 9999 BKN020 FEW035TCU 31/26 Q1009","temp":31,"dewp":26,"wdir":180,"wspd":6,"visib":"6+","altim":1009,"clouds":[{"cover":"BKN","base":2000},{"cover":"FEW","base":3500}],"obsTime":1779044400},"SBRB":{"icaoId":"SBRB","flightCategory":"VFR","rawOb":"METAR SBRB 171900Z 03004KT 9999 SCT025 FEW030TCU SCT100 32/23 Q1010","temp":32,"dewp":23,"wdir":30,"wspd":4,"visib":"6+","altim":1010,"clouds":[{"cover":"SCT","base":2500},{"cover":"FEW","base":3000},{"cover":"SCT","base":10000}],"obsTime":1779044400},"SBGO":{"icaoId":"SBGO","flightCategory":"VFR","rawOb":"METAR SBGO 171900Z 34006KT 9999 FEW049 32/17 Q1015","temp":32,"dewp":17,"wdir":340,"wspd":6,"visib":"6+","altim":1015,"clouds":[{"cover":"FEW","base":4900}],"obsTime":1779044400},"SBBE":{"icaoId":"SBBE","flightCategory":"VFR","rawOb":"METAR SBBE 171900Z 01010KT 9999 VCSH SCT035 FEW040TCU SCT100 29/25 Q1009","temp":29,"dewp":25,"wdir":10,"wspd":10,"visib":"6+","altim":1009,"clouds":[{"cover":"SCT","base":3500},{"cover":"FEW","base":4000},{"cover":"SCT","base":10000}],"obsTime":1779044400},"SBRF":{"icaoId":"SBRF","flightCategory":"VFR","rawOb":"METAR SBRF 171900Z 10008KT 9999 SCT023 28/22 Q1012","temp":28,"dewp":22,"wdir":100,"wspd":8,"visib":"6+","altim":1012,"clouds":[{"cover":"SCT","base":2300}],"obsTime":1779044400},"SBBV":{"icaoId":"SBBV","flightCategory":"VFR","rawOb":"METAR SBBV 171900Z 09011KT 9999 SCT040 FEW045TCU 32/20 Q1009","temp":32,"dewp":20,"wdir":90,"wspd":11,"visib":"6+","altim":1009,"clouds":[{"cover":"SCT","base":4000},{"cover":"FEW","base":4500}],"obsTime":1779044400},"SBSG":{"icaoId":"SBSG","flightCategory":"VFR","rawOb":"METAR SBSG 171900Z 16004KT 9999 SCT025 BKN100 25/24 Q1012","temp":25,"dewp":24,"wdir":160,"wspd":4,"visib":"6+","altim":1012,"clouds":[{"cover":"SCT","base":2500},{"cover":"BKN","base":10000}],"obsTime":1779044400},"SBGR":{"icaoId":"SBGR","flightCategory":"VFR","rawOb":"METAR SBGR 171900Z 24005KT CAVOK 21/17 Q1017","temp":21,"dewp":17,"wdir":240,"wspd":5,"visib":"6+","altim":1017,"clouds":[],"obsTime":1779044400},"SBSL":{"icaoId":"SBSL","flightCategory":"MVFR","rawOb":"METAR SBSL 171900Z 05011KT 9999 BKN025 29/24 Q1010","temp":29,"dewp":24,"wdir":50,"wspd":11,"visib":"6+","altim":1010,"clouds":[{"cover":"BKN","base":2500}],"obsTime":1779044400},"SBCR":{"icaoId":"SBCR","flightCategory":"MVFR","rawOb":"METAR SBCR 171900Z 23009KT 180V260 9999 OVC010 21/18 Q1013","temp":21,"dewp":18,"wdir":230,"wspd":9,"visib":"6+","altim":1013,"clouds":[{"cover":"OVC","base":1000}],"obsTime":1779044400},"SBSN":{"icaoId":"SBSN","flightCategory":"VFR","rawOb":"METAR SBSN 171900Z 08009KT 9999 FEW020 31/24 Q1009","temp":31,"dewp":24,"wdir":80,"wspd":9,"visib":"6+","altim":1009,"clouds":[{"cover":"FEW","base":2000}],"obsTime":1779044400},"SBSP":{"icaoId":"SBSP","flightCategory":"VFR","rawOb":"METAR SBSP 171900Z 27007KT 210V350 9999 FEW040 BKN100 20/16 Q1018","temp":20,"dewp":16,"wdir":270,"wspd":7,"visib":"6+","altim":1018,"clouds":[{"cover":"FEW","base":4000},{"cover":"BKN","base":10000}],"obsTime":1779044400},"SBHT":{"icaoId":"SBHT","flightCategory":"VFR","rawOb":"METAR SBHT 171900Z 12005KT 9999 SCT030 30/24 Q1009","temp":30,"dewp":24,"wdir":120,"wspd":5,"visib":"6+","altim":1009,"clouds":[{"cover":"SCT","base":3000}],"obsTime":1779044400},"SBCB":{"icaoId":"SBCB","flightCategory":"VFR","rawOb":"METAR SBCB 171900Z 06007KT CAVOK 28/22 Q1012","temp":28,"dewp":22,"wdir":60,"wspd":7,"visib":"6+","altim":1012,"clouds":[],"obsTime":1779044400},"SBSV":{"icaoId":"SBSV","flightCategory":"IFR","rawOb":"METAR SBSV 171900Z 24004KT 210V270 4000 -RA BR FEW009 SCT011 BKN017 FEW023TCU 25/24 Q1013 RERA","temp":25,"dewp":24,"wdir":240,"wspd":4,"visib":2.49,"altim":1013,"clouds":[{"cover":"FEW","base":900},{"cover":"SCT","base":1100},{"cover":"BKN","base":1700},{"cover":"FEW","base":2300}],"obsTime":1779044400},"SBIL":{"icaoId":"SBIL","flightCategory":"VFR","rawOb":"METAR SBIL 171900Z 19003KT 130V250 9999 SCT020 28/25 Q1013","temp":28,"dewp":25,"wdir":190,"wspd":3,"visib":"6+","altim":1013,"clouds":[{"cover":"SCT","base":2000}],"obsTime":1779044400},"SBTE":{"icaoId":"SBTE","flightCategory":"VFR","rawOb":"METAR SBTE 171900Z 14005KT 100V200 9999 SCT025 32/22 Q1009","temp":32,"dewp":22,"wdir":140,"wspd":5,"visib":"6+","altim":1009,"clouds":[{"cover":"SCT","base":2500}],"obsTime":1779044400},"SBCT":{"icaoId":"SBCT","flightCategory":"VFR","rawOb":"METAR SBCT 171900Z 32008KT 9999 BKN045 18/15 Q1016","temp":18,"dewp":15,"wdir":320,"wspd":8,"visib":"6+","altim":1016,"clouds":[{"cover":"BKN","base":4500}],"obsTime":1779044400},"SBUL":{"icaoId":"SBUL","flightCategory":"VFR","rawOb":"METAR SBUL 171900Z 01009KT 9999 FEW035 BKN090 26/17 Q1018","temp":26,"dewp":17,"wdir":10,"wspd":9,"visib":"6+","altim":1018,"clouds":[{"cover":"FEW","base":3500},{"cover":"BKN","base":9000}],"obsTime":1779044400},"SBJU":{"icaoId":"SBJU","flightCategory":"VFR","rawOb":"METAR SBJU 171900Z 04006KT 9999 FEW022 31/19 Q1012","temp":31,"dewp":19,"wdir":40,"wspd":6,"visib":"6+","altim":1012,"clouds":[{"cover":"FEW","base":2200}],"obsTime":1779044400},"SBUR":{"icaoId":"SBUR","flightCategory":"VFR","rawOb":"METAR SBUR 171900Z 33013KT 9999 SCT049 29/16 Q1016","temp":29,"dewp":16,"wdir":330,"wspd":13,"visib":"6+","altim":1016,"clouds":[{"cover":"SCT","base":4900}],"obsTime":1779044400},"SBVT":{"icaoId":"SBVT","flightCategory":"VFR","rawOb":"METAR SBVT 171900Z 05009KT 9999 FEW040 27/22 Q1013","temp":27,"dewp":22,"wdir":50,"wspd":9,"visib":"6+","altim":1013,"clouds":[{"cover":"FEW","base":4000}],"obsTime":1779044400},"SBKP":{"icaoId":"SBKP","flightCategory":"MVFR","rawOb":"METAR SBKP 171900Z 23014KT 6000 -RA FEW007 BKN030 18/17 Q1017 RETSRA","temp":18,"dewp":17,"wdir":230,"wspd":14,"visib":3.73,"altim":1017,"clouds":[{"cover":"FEW","base":700},{"cover":"BKN","base":3000}],"obsTime":1779044400},"SBSC":{"icaoId":"SBSC","flightCategory":"MVFR","rawOb":"METAR SBSC 171900Z 18006KT 8000 FEW020 SCT100 27/23 Q1011","temp":27,"dewp":23,"wdir":180,"wspd":6,"visib":4.97,"altim":1011,"clouds":[{"cover":"FEW","base":2000},{"cover":"SCT","base":10000}],"obsTime":1779044400},"SBAR":{"icaoId":"SBAR","flightCategory":"VFR","rawOb":"METAR SBAR 171900Z 06007KT 9999 3000NW -RA SCT020 FEW024TCU BKN038 25/24 Q1013","temp":25,"dewp":24,"wdir":60,"wspd":7,"visib":"6+","altim":1013,"clouds":[{"cover":"SCT","base":2000},{"cover":"FEW","base":2400},{"cover":"BKN","base":3800}],"obsTime":1779044400},"SBAX":{"icaoId":"SBAX","flightCategory":"VFR","rawOb":"METAR SBAX 171900Z AUTO 02008KT 340V050 9999 FEW041 27/16 Q1018","temp":27,"dewp":16,"wdir":20,"wspd":8,"visib":"6+","altim":1018,"clouds":[{"cover":"FEW","base":4100}],"obsTime":1779044400},"SBBH":{"icaoId":"SBBH","flightCategory":"VFR","rawOb":"METAR SBBH 171900Z 10005KT 9999 BKN040 26/18 Q1017","temp":26,"dewp":18,"wdir":100,"wspd":5,"visib":"6+","altim":1017,"clouds":[{"cover":"BKN","base":4000}],"obsTime":1779044400},"SBBQ":{"icaoId":"SBBQ","flightCategory":"VFR","rawOb":"METAR SBBQ 171900Z 02005KT 9999 SCT040 23/15 Q1020","temp":23,"dewp":15,"wdir":20,"wspd":5,"visib":"6+","altim":1020,"clouds":[{"cover":"SCT","base":4000}],"obsTime":1779044400},"SBBU":{"icaoId":"SBBU","flightCategory":"MVFR","rawOb":"METAR SBBU 171900Z 20007KT 7000 -RA SCT040 SCT070 OVC100 18/18 Q1018","temp":18,"dewp":18,"wdir":200,"wspd":7,"visib":4.35,"altim":1018,"clouds":[{"cover":"SCT","base":4000},{"cover":"SCT","base":7000},{"cover":"OVC","base":10000}],"obsTime":1779044400},"SBCA":{"icaoId":"SBCA","flightCategory":"LIFR","rawOb":"METAR SBCA 171900Z 23005KT 2000 -RA BR BKN002 OVC020 17/17 Q0190","temp":17,"dewp":17,"wdir":230,"wspd":5,"visib":1.24,"altim":190,"clouds":[{"cover":"BKN","base":200},{"cover":"OVC","base":2000}],"obsTime":1779044400},"SBCC":{"icaoId":"SBCC","flightCategory":"MVFR","rawOb":"METAR SBCC 171900Z /////KT 9999 TS BKN020 FEW030CB ///// Q1013 RETS","temp":null,"dewp":null,"wdir":null,"wspd":null,"visib":"6+","altim":1013,"clouds":[{"cover":"BKN","base":2000},{"cover":"FEW","base":3000}],"obsTime":1779044400},"SBCJ":{"icaoId":"SBCJ","flightCategory":"VFR","rawOb":"METAR SBCJ 171900Z 02003KT 9999 FEW023 29/21 Q1014","temp":29,"dewp":21,"wdir":20,"wspd":3,"visib":"6+","altim":1014,"clouds":[{"cover":"FEW","base":2300}],"obsTime":1779044400},"SBCO":{"icaoId":"SBCO","flightCategory":"IFR","rawOb":"METAR SBCO 171900Z 18007KT 130V210 9000 -DZ OVC009 17/15 Q1016","temp":17,"dewp":15,"wdir":180,"wspd":7,"visib":5.59,"altim":1016,"clouds":[{"cover":"OVC","base":900}],"obsTime":1779044400},"SBDN":{"icaoId":"SBDN","flightCategory":"MVFR","rawOb":"METAR SBDN 171900Z 04009KT 5000 -RA SCT003 BKN025 OVC070 18/17 Q1015","temp":18,"dewp":17,"wdir":40,"wspd":9,"visib":3.11,"altim":1015,"clouds":[{"cover":"SCT","base":300},{"cover":"BKN","base":2500},{"cover":"OVC","base":7000}],"obsTime":1779044400},"SBES":{"icaoId":"SBES","flightCategory":"VFR","rawOb":"METAR SBES 171900Z VRB07KT CAVOK 27/// Q1012","temp":null,"dewp":null,"wdir":"VRB","wspd":7,"visib":"6+","altim":1012,"clouds":[],"obsTime":1779044400},"SBIP":{"icaoId":"SBIP","flightCategory":"VFR","rawOb":"METAR SBIP 171900Z AUTO 36007KT 330V030 CAVOK 28/18 Q1015","temp":28,"dewp":18,"wdir":360,"wspd":7,"visib":"6+","altim":1015,"clouds":[],"obsTime":1779044400},"SBKG":{"icaoId":"SBKG","flightCategory":"MVFR","rawOb":"METAR SBKG 171900Z 09007KT 8000 -RA BKN010 BKN080 22/22 Q1015","temp":22,"dewp":22,"wdir":90,"wspd":7,"visib":4.97,"altim":1015,"clouds":[{"cover":"BKN","base":1000},{"cover":"BKN","base":8000}],"obsTime":1779044400},"SBOI":{"icaoId":"SBOI","flightCategory":"VFR","rawOb":"METAR SBOI 171900Z AUTO 02007KT 9999 -RA FEW024 SCT035 BKN043 26/24 Q1011 RERA","temp":26,"dewp":24,"wdir":20,"wspd":7,"visib":"6+","altim":1011,"clouds":[{"cover":"FEW","base":2400},{"cover":"SCT","base":3500},{"cover":"BKN","base":4300}],"obsTime":1779044400},"SBPB":{"icaoId":"SBPB","flightCategory":"VFR","rawOb":"METAR SBPB 171900Z 05012KT 9999 FEW016 FEW025TCU 30/25 Q1009","temp":30,"dewp":25,"wdir":50,"wspd":12,"visib":"6+","altim":1009,"clouds":[{"cover":"FEW","base":1600},{"cover":"FEW","base":2500}],"obsTime":1779044400},"SBPL":{"icaoId":"SBPL","flightCategory":"VFR","rawOb":"METAR SBPL 171900Z 11006KT CAVOK 33/15 Q1011","temp":33,"dewp":15,"wdir":110,"wspd":6,"visib":"6+","altim":1011,"clouds":[],"obsTime":1779044400},"SBPP":{"icaoId":"SBPP","flightCategory":"LIFR","rawOb":"METAR SBPP 171900Z 23010KT 0500 FG VV000 18/18 Q1015","temp":18,"dewp":18,"wdir":230,"wspd":10,"visib":0.31,"altim":1015,"clouds":[{"cover":"OVX","base":0}],"obsTime":1779044400},"SBPS":{"icaoId":"SBPS","flightCategory":"VFR","rawOb":"METAR SBPS 171900Z 09006KT 9999 SCT020 BKN090 26/23 Q1014","temp":26,"dewp":23,"wdir":90,"wspd":6,"visib":"6+","altim":1014,"clouds":[{"cover":"SCT","base":2000},{"cover":"BKN","base":9000}],"obsTime":1779044400},"SBSJ":{"icaoId":"SBSJ","flightCategory":"MVFR","rawOb":"METAR SBSJ 171900Z 21003KT 7000 NSC 23/20 Q1016","temp":23,"dewp":20,"wdir":210,"wspd":3,"visib":4.35,"altim":1016,"clouds":[],"obsTime":1779044400},"SBSM":{"icaoId":"SBSM","flightCategory":"IFR","rawOb":"METAR SBSM 171900Z 13004KT 090V200 3000 -DZ BR BKN007 OVC010 15/15 Q1017","temp":15,"dewp":15,"wdir":130,"wspd":4,"visib":1.86,"altim":1017,"clouds":[{"cover":"BKN","base":700},{"cover":"OVC","base":1000}],"obsTime":1779044400},"SBSR":{"icaoId":"SBSR","flightCategory":"MVFR","rawOb":"METAR SBSR 171900Z 21017KT 9999 SCT015 BKN025 FEW030TCU BKN070 19/17 Q1017 RETS","temp":19,"dewp":17,"wdir":210,"wspd":17,"visib":"6+","altim":1017,"clouds":[{"cover":"SCT","base":1500},{"cover":"BKN","base":2500},{"cover":"FEW","base":3000},{"cover":"BKN","base":7000}],"obsTime":1779044400},"SBTF":{"icaoId":"SBTF","flightCategory":"VFR","rawOb":"METAR SBTF 171900Z 18007KT 9999 FEW012 FEW030TCU 30/26 Q1009","temp":30,"dewp":26,"wdir":180,"wspd":7,"visib":"6+","altim":1009,"clouds":[{"cover":"FEW","base":1200},{"cover":"FEW","base":3000}],"obsTime":1779044400},"SBTT":{"icaoId":"SBTT","flightCategory":"VFR","rawOb":"METAR SBTT 171900Z 32003KT 9999 SCT027 30/24 Q1009","temp":30,"dewp":24,"wdir":320,"wspd":3,"visib":"6+","altim":1009,"clouds":[{"cover":"SCT","base":2700}],"obsTime":1779044400},"SBUY":{"icaoId":"SBUY","flightCategory":"VFR","rawOb":"METAR SBUY 171900Z 20002KT 9999 SCT012 BKN100 27/24 Q1010","temp":27,"dewp":24,"wdir":200,"wspd":2,"visib":"6+","altim":1010,"clouds":[{"cover":"SCT","base":1200},{"cover":"BKN","base":10000}],"obsTime":1779044400},"SBVH":{"icaoId":"SBVH","flightCategory":"VFR","rawOb":"METAR SBVH 171900Z 23008KT 9999 SCT035 FEW040TCU BKN071 27/23 Q1013","temp":27,"dewp":23,"wdir":230,"wspd":8,"visib":"6+","altim":1013,"clouds":[{"cover":"SCT","base":3500},{"cover":"FEW","base":4000},{"cover":"BKN","base":7100}],"obsTime":1779044400},"SBGM":{"icaoId":"SBGM","flightCategory":"VFR","rawOb":"METAR SBGM 171900Z 01006KT 9999 BKN033 32/22 Q1010","temp":32,"dewp":22,"wdir":10,"wspd":6,"visib":"6+","altim":1010,"clouds":[{"cover":"BKN","base":3300}],"obsTime":1779044400},"SBJP":{"icaoId":"SBJP","flightCategory":"VFR","rawOb":"METAR SBJP 171900Z 08005KT 9999 SCT020 28/24 Q1012","temp":28,"dewp":24,"wdir":80,"wspd":5,"visib":"6+","altim":1012,"clouds":[{"cover":"SCT","base":2000}],"obsTime":1779044400},"SBJV":{"icaoId":"SBJV","flightCategory":"MVFR","rawOb":"METAR SBJV 171900Z 03003KT 340V070 9000 BKN012 BKN040 21/20 Q1012","temp":21,"dewp":20,"wdir":30,"wspd":3,"visib":5.59,"altim":1012,"clouds":[{"cover":"BKN","base":1200},{"cover":"BKN","base":4000}],"obsTime":1779044400},"SBNM":{"icaoId":"SBNM","flightCategory":"IFR","rawOb":"METAR SBNM 171900Z AUTO 19008KT 9999 BKN007 17/16 Q1015","temp":17,"dewp":16,"wdir":190,"wspd":8,"visib":"6+","altim":1015,"clouds":[{"cover":"BKN","base":700}],"obsTime":1779044400},"SBLE":{"icaoId":"SBLE","flightCategory":"VFR","rawOb":"METAR SBLE 171900Z AUTO 15004KT 090V200 CAVOK 29/17 Q1014","temp":29,"dewp":17,"wdir":150,"wspd":4,"visib":"6+","altim":1014,"clouds":[],"obsTime":1779044400},"SBTC":{"icaoId":"SBTC","flightCategory":"VFR","rawOb":"METAR SBTC 171900Z 15005KT 9999 SCT020 27/24 Q1013","temp":27,"dewp":24,"wdir":150,"wspd":5,"visib":"6+","altim":1013,"clouds":[{"cover":"SCT","base":2000}],"obsTime":1779044400},"SBAN":{"icaoId":"SBAN","flightCategory":"VFR","rawOb":"METAR SBAN 171900Z 08003KT 9999 VCSH BKN045 FEW050TCU 28/16 Q1019","temp":28,"dewp":16,"wdir":80,"wspd":3,"visib":"6+","altim":1019,"clouds":[{"cover":"BKN","base":4500},{"cover":"FEW","base":5000}],"obsTime":1779044400},"SBIH":{"icaoId":"SBIH","flightCategory":"VFR","rawOb":"METAR SBIH 171900Z COR 06008KT 9999 TS SCT018 FEW025CB 32/23 Q1008","temp":32,"dewp":23,"wdir":60,"wspd":8,"visib":"6+","altim":1008,"clouds":[{"cover":"SCT","base":1800},{"cover":"FEW","base":2500}],"obsTime":1779044400},"SBAF":{"icaoId":"SBAF","flightCategory":"VFR","rawOb":"METAR SBAF 171900Z 06004KT CAVOK 30/23 Q1011","temp":30,"dewp":23,"wdir":60,"wspd":4,"visib":"6+","altim":1011,"clouds":[],"obsTime":1779044400},"SBGW":{"icaoId":"SBGW","flightCategory":"VFR","rawOb":"METAR SBGW 171900Z VRB02KT 9999 FEW030 OVC100 24/17 Q1015","temp":24,"dewp":17,"wdir":"VRB","wspd":2,"visib":"6+","altim":1015,"clouds":[{"cover":"FEW","base":3000},{"cover":"OVC","base":10000}],"obsTime":1779044400},"SBJR":{"icaoId":"SBJR","flightCategory":"MVFR","rawOb":"METAR SBJR 171900Z 20006KT 8000 NSC 27/22 Q1011","temp":27,"dewp":22,"wdir":200,"wspd":6,"visib":4.97,"altim":1011,"clouds":[],"obsTime":1779044400},"SBLS":{"icaoId":"SBLS","flightCategory":"VFR","rawOb":"METAR SBLS 171900Z 08004KT 340V120 9999 FEW040 26/17 Q1017","temp":26,"dewp":17,"wdir":80,"wspd":4,"visib":"6+","altim":1017,"clouds":[{"cover":"FEW","base":4000}],"obsTime":1779044400},"SBMT":{"icaoId":"SBMT","flightCategory":"VFR","rawOb":"METAR SBMT 171900Z 26013KT 9999 FEW025 SCT040 OVC080 17/16 Q1017","temp":17,"dewp":16,"wdir":260,"wspd":13,"visib":"6+","altim":1017,"clouds":[{"cover":"FEW","base":2500},{"cover":"SCT","base":4000},{"cover":"OVC","base":8000}],"obsTime":1779044400},"SBST":{"icaoId":"SBST","flightCategory":"MVFR","rawOb":"METAR SBST 171900Z 03005KT 8000 FEW030 BKN050 23/20 Q1013","temp":23,"dewp":20,"wdir":30,"wspd":5,"visib":4.97,"altim":1013,"clouds":[{"cover":"FEW","base":3000},{"cover":"BKN","base":5000}],"obsTime":1779044400},"SBTA":{"icaoId":"SBTA","flightCategory":"VFR","rawOb":"METAR SBTA 171900Z VRB02KT 9999 FEW030 SCT100 24/18 Q1014","temp":24,"dewp":18,"wdir":"VRB","wspd":2,"visib":"6+","altim":1014,"clouds":[{"cover":"FEW","base":3000},{"cover":"SCT","base":10000}],"obsTime":1779044400}}}