{"updated":1784149002,"count":86,"data":{"SBPA":{"icaoId":"SBPA","flightCategory":"VFR","rawOb":"METAR SBPA 151900Z VRB02KT CAVOK 23/11 Q1015","temp":23,"dewp":11,"wdir":"VRB","wspd":2,"visib":"6+","altim":1015,"clouds":[],"obsTime":1784142000},"SBFZ":{"icaoId":"SBFZ","flightCategory":"VFR","rawOb":"METAR SBFZ 151900Z 10014KT 9999 SCT023 29/23 Q1013","temp":29,"dewp":23,"wdir":100,"wspd":14,"visib":"6+","altim":1013,"clouds":[{"cover":"SCT","base":2300}],"obsTime":1784142000},"SBBV":{"icaoId":"SBBV","flightCategory":"VFR","rawOb":"METAR SBBV 151900Z 09008KT 9999 BKN040 FEW045TCU 33/22 Q1011","temp":33,"dewp":22,"wdir":90,"wspd":8,"visib":"6+","altim":1011,"clouds":[{"cover":"BKN","base":4000},{"cover":"FEW","base":4500}],"obsTime":1784142000},"SBCT":{"icaoId":"SBCT","flightCategory":"VFR","rawOb":"METAR SBCT 151900Z 02007KT CAVOK 19/08 Q1022","temp":19,"dewp":8,"wdir":20,"wspd":7,"visib":"6+","altim":1022,"clouds":[],"obsTime":1784142000},"SBCZ":{"icaoId":"SBCZ","flightCategory":"MVFR","rawOb":"METAR SBCZ 151900Z 29004KT 9999 BKN030 30/23 Q1013","temp":30,"dewp":23,"wdir":290,"wspd":4,"visib":"6+","altim":1013,"clouds":[{"cover":"BKN","base":3000}],"obsTime":1784142000},"SBNT":{"icaoId":"SBNT","flightCategory":"MVFR","rawOb":"METAR SBNT 151900Z 14019KT 9999 BKN022 28/21 Q1015","temp":28,"dewp":21,"wdir":140,"wspd":19,"visib":"6+","altim":1015,"clouds":[{"cover":"BKN","base":2200}],"obsTime":1784142000},"SBEG":{"icaoId":"SBEG","flightCategory":"VFR","rawOb":"METAR SBEG 151900Z 01006KT 320V060 9999 SCT030 FEW040TCU 27/24 Q1011 RERA","temp":27,"dewp":24,"wdir":10,"wspd":6,"visib":"6+","altim":1011,"clouds":[{"cover":"SCT","base":3000},{"cover":"FEW","base":4000}],"obsTime":1784142000},"SBBR":{"icaoId":"SBBR","flightCategory":"VFR","rawOb":"METAR SBBR 151900Z 10010KT CAVOK 26/15 Q1021","temp":26,"dewp":15,"wdir":100,"wspd":10,"visib":"6+","altim":1021,"clouds":[],"obsTime":1784142000},"SBSG":{"icaoId":"SBSG","flightCategory":"MVFR","rawOb":"METAR SBSG 151900Z 13009G19KT 100V210 9999 BKN030 28/22 Q1015","temp":28,"dewp":22,"wdir":130,"wspd":9,"visib":"6+","altim":1015,"clouds":[{"cover":"BKN","base":3000}],"obsTime":1784142000},"SBGL":{"icaoId":"SBGL","flightCategory":"VFR","rawOb":"METAR SBGL 151900Z 14007KT 110V170 CAVOK 23/13 Q1022","temp":23,"dewp":13,"wdir":140,"wspd":7,"visib":"6+","altim":1022,"clouds":[],"obsTime":1784142000},"SBRB":{"icaoId":"SBRB","flightCategory":"VFR","rawOb":"METAR SBRB 151900Z 02004KT 9999 BKN043 31/21 Q1013","temp":31,"dewp":21,"wdir":20,"wspd":4,"visib":"6+","altim":1013,"clouds":[{"cover":"BKN","base":4300}],"obsTime":1784142000},"SBCF":{"icaoId":"SBCF","flightCategory":"VFR","rawOb":"METAR SBCF 151900Z 14009KT CAVOK 22/10 Q1024","temp":22,"dewp":10,"wdir":140,"wspd":9,"visib":"6+","altim":1024,"clouds":[],"obsTime":1784142000},"SBCR":{"icaoId":"SBCR","flightCategory":"VFR","rawOb":"METAR SBCR 151900Z 04010KT 360V070 9999 FEW025 32/18 Q1011","temp":32,"dewp":18,"wdir":40,"wspd":10,"visib":"6+","altim":1011,"clouds":[{"cover":"FEW","base":2500}],"obsTime":1784142000},"SBTE":{"icaoId":"SBTE","flightCategory":"VFR","rawOb":"METAR SBTE 151900Z 29003KT 9999 SCT025 BKN080 25/23 Q1013","temp":25,"dewp":23,"wdir":290,"wspd":3,"visib":"6+","altim":1013,"clouds":[{"cover":"SCT","base":2500},{"cover":"BKN","base":8000}],"obsTime":1784142000},"SBKP":{"icaoId":"SBKP","flightCategory":"VFR","rawOb":"METAR SBKP 151900Z 03004KT 330V060 CAVOK 24/06 Q1021","temp":24,"dewp":6,"wdir":30,"wspd":4,"visib":"6+","altim":1021,"clouds":[],"obsTime":1784142000},"SBGR":{"icaoId":"SBGR","flightCategory":"VFR","rawOb":"METAR SBGR 151900Z 06008KT CAVOK 21/10 Q1022","temp":21,"dewp":10,"wdir":60,"wspd":8,"visib":"6+","altim":1022,"clouds":[],"obsTime":1784142000},"SBMQ":{"icaoId":"SBMQ","flightCategory":"VFR","rawOb":"METAR SBMQ 151900Z 06010KT 9999 FEW035 32/23 Q1012","temp":32,"dewp":23,"wdir":60,"wspd":10,"visib":"6+","altim":1012,"clouds":[{"cover":"FEW","base":3500}],"obsTime":1784142000},"SBRF":{"icaoId":"SBRF","flightCategory":"MVFR","rawOb":"METAR SBRF 151900Z 17016KT 9999 -SHRA BKN021 SCT065 27/22 Q1016","temp":27,"dewp":22,"wdir":170,"wspd":16,"visib":"6+","altim":1016,"clouds":[{"cover":"BKN","base":2100},{"cover":"SCT","base":6500}],"obsTime":1784142000},"SBFL":{"icaoId":"SBFL","flightCategory":"VFR","rawOb":"METAR SBFL 151900Z 35015KT 9999 SCT045 20/15 Q1020","temp":20,"dewp":15,"wdir":350,"wspd":15,"visib":"6+","altim":1020,"clouds":[{"cover":"SCT","base":4500}],"obsTime":1784142000},"SBSN":{"icaoId":"SBSN","flightCategory":"VFR","rawOb":"METAR SBSN 151900Z 06008KT 9999 FEW023 31/24 Q1011","temp":31,"dewp":24,"wdir":60,"wspd":8,"visib":"6+","altim":1011,"clouds":[{"cover":"FEW","base":2300}],"obsTime":1784142000},"SBVT":{"icaoId":"SBVT","flightCategory":"VFR","rawOb":"METAR SBVT 151900Z 15009KT CAVOK 22/13 Q1024","temp":22,"dewp":13,"wdir":150,"wspd":9,"visib":"6+","altim":1024,"clouds":[],"obsTime":1784142000},"SBAT":{"icaoId":"SBAT","flightCategory":"VFR","rawOb":"METAR SBAT 151900Z 07007KT 9999 SCT040 FEW045TCU 35/21 Q1012","temp":35,"dewp":21,"wdir":70,"wspd":7,"visib":"6+","altim":1012,"clouds":[{"cover":"SCT","base":4000},{"cover":"FEW","base":4500}],"obsTime":1784142000},"SBHT":{"icaoId":"SBHT","flightCategory":"MVFR","rawOb":"METAR SBHT 151900Z 13005KT 9999 BKN030 32/23 Q1012","temp":32,"dewp":23,"wdir":130,"wspd":5,"visib":"6+","altim":1012,"clouds":[{"cover":"BKN","base":3000}],"obsTime":1784142000},"SBMG":{"icaoId":"SBMG","flightCategory":"VFR","rawOb":"METAR SBMG 151900Z 05008KT 010V090 CAVOK 24/12 Q1018","temp":24,"dewp":12,"wdir":50,"wspd":8,"visib":"6+","altim":1018,"clouds":[],"obsTime":1784142000},"SBIL":{"icaoId":"SBIL","flightCategory":"VFR","rawOb":"METAR SBIL 151900Z 18011KT 9999 SCT020 BKN060 26/17 Q1021","temp":26,"dewp":17,"wdir":180,"wspd":11,"visib":"6+","altim":1021,"clouds":[{"cover":"SCT","base":2000},{"cover":"BKN","base":6000}],"obsTime":1784142000},"SBJU":{"icaoId":"SBJU","flightCategory":"VFR","rawOb":"METAR SBJU 151900Z 18007KT 9999 SCT022 32/15 Q1016","temp":32,"dewp":15,"wdir":180,"wspd":7,"visib":"6+","altim":1016,"clouds":[{"cover":"SCT","base":2200}],"obsTime":1784142000},"SBME":{"icaoId":"SBME","flightCategory":"VFR","rawOb":"METAR SBME 151900Z 08011KT CAVOK 23/13 Q1023","temp":23,"dewp":13,"wdir":80,"wspd":11,"visib":"6+","altim":1023,"clouds":[],"obsTime":1784142000},"SBMK":{"icaoId":"SBMK","flightCategory":"VFR","rawOb":"METAR SBMK 151900Z 06009KT 9999 FEW049 24/12 Q1021","temp":24,"dewp":12,"wdir":60,"wspd":9,"visib":"6+","altim":1021,"clouds":[{"cover":"FEW","base":4900}],"obsTime":1784142000},"SBUL":{"icaoId":"SBUL","flightCategory":"VFR","rawOb":"METAR SBUL 151900Z 11004KT CAVOK 25/11 Q1021","temp":25,"dewp":11,"wdir":110,"wspd":4,"visib":"6+","altim":1021,"clouds":[],"obsTime":1784142000},"SBUR":{"icaoId":"SBUR","flightCategory":"VFR","rawOb":"METAR SBUR 151900Z 32003KT CAVOK 28/07 Q1020","temp":28,"dewp":7,"wdir":320,"wspd":3,"visib":"6+","altim":1020,"clouds":[],"obsTime":1784142000},"SBCG":{"icaoId":"SBCG","flightCategory":"VFR","rawOb":"METAR SBCG 151900Z 35010KT 310V020 CAVOK 30/14 Q1015","temp":30,"dewp":14,"wdir":350,"wspd":10,"visib":"6+","altim":1015,"clouds":[],"obsTime":1784142000},"SBPV":{"icaoId":"SBPV","flightCategory":"VFR","rawOb":"METAR SBPV 151900Z 34005KT 9999 SCT045 33/21 Q1010","temp":33,"dewp":21,"wdir":340,"wspd":5,"visib":"6+","altim":1010,"clouds":[{"cover":"SCT","base":4500}],"obsTime":1784142000},"SBSP":{"icaoId":"SBSP","flightCategory":"VFR","rawOb":"METAR SBSP 151900Z 04005KT CAVOK 21/07 Q1023","temp":21,"dewp":7,"wdir":40,"wspd":5,"visib":"6+","altim":1023,"clouds":[],"obsTime":1784142000},"SBGO":{"icaoId":"SBGO","flightCategory":"VFR","rawOb":"METAR SBGO 151900Z 10006KT 050V140 CAVOK 30/14 Q1018","temp":30,"dewp":14,"wdir":100,"wspd":6,"visib":"6+","altim":1018,"clouds":[],"obsTime":1784142000},"SBCB":{"icaoId":"SBCB","flightCategory":"VFR","rawOb":"METAR SBCB 151900Z 10014KT CAVOK 22/12 Q1023","temp":22,"dewp":12,"wdir":100,"wspd":14,"visib":"6+","altim":1023,"clouds":[],"obsTime":1784142000},"SBLO":{"icaoId":"SBLO","flightCategory":"VFR","rawOb":"METAR SBLO 151900Z 03006KT CAVOK 22/11 Q1019","temp":22,"dewp":11,"wdir":30,"wspd":6,"visib":"6+","altim":1019,"clouds":[],"obsTime":1784142000},"SBPJ":{"icaoId":"SBPJ","flightCategory":"VFR","rawOb":"METAR SBPJ 151900Z 11007KT 9999 FEW027TCU SCT040 30/22 Q1014","temp":30,"dewp":22,"wdir":110,"wspd":7,"visib":"6+","altim":1014,"clouds":[{"cover":"FEW","base":2700},{"cover":"SCT","base":4000}],"obsTime":1784142000},"SBFI":{"icaoId":"SBFI","flightCategory":"VFR","rawOb":"METAR SBFI 151900Z 03010KT CAVOK 26/09 Q1014","temp":26,"dewp":9,"wdir":30,"wspd":10,"visib":"6+","altim":1014,"clouds":[],"obsTime":1784142000},"SBSL":{"icaoId":"SBSL","flightCategory":"MVFR","rawOb":"METAR SBSL 151900Z 05009KT 9999 BKN025 FEW030TCU 29/24 Q1012","temp":29,"dewp":24,"wdir":50,"wspd":9,"visib":"6+","altim":1012,"clouds":[{"cover":"BKN","base":2500},{"cover":"FEW","base":3000}],"obsTime":1784142000},"SBSV":{"icaoId":"SBSV","flightCategory":"VFR","rawOb":"METAR SBSV 151900Z 15005KT 9999 SCT027 26/17 Q1020","temp":26,"dewp":17,"wdir":150,"wspd":5,"visib":"6+","altim":1020,"clouds":[{"cover":"SCT","base":2700}],"obsTime":1784142000},"SBCP":{"icaoId":"SBCP","flightCategory":"VFR","rawOb":"METAR SBCP 151900Z 09009KT CAVOK 24/09 Q1024","temp":24,"dewp":9,"wdir":90,"wspd":9,"visib":"6+","altim":1024,"clouds":[],"obsTime":1784142000},"SBMA":{"icaoId":"SBMA","flightCategory":"VFR","rawOb":"METAR SBMA 151900Z 01004KT 9999 FEW026 BKN080 32/24 Q1012","temp":32,"dewp":24,"wdir":10,"wspd":4,"visib":"6+","altim":1012,"clouds":[{"cover":"FEW","base":2600},{"cover":"BKN","base":8000}],"obsTime":1784142000},"SBMO":{"icaoId":"SBMO","flightCategory":"VFR","rawOb":"METAR SBMO 151900Z 08003KT 050V120 9999 VCSH SCT017 BKN070 23/23 Q1018","temp":23,"dewp":23,"wdir":80,"wspd":3,"visib":"6+","altim":1018,"clouds":[{"cover":"SCT","base":1700},{"cover":"BKN","base":7000}],"obsTime":1784142000},"SBBE":{"icaoId":"SBBE","flightCategory":"VFR","rawOb":"METAR SBBE 151900Z 29005KT 9999 BKN040 FEW045TCU 30/25 Q1012","temp":30,"dewp":25,"wdir":290,"wspd":5,"visib":"6+","altim":1012,"clouds":[{"cover":"BKN","base":4000},{"cover":"FEW","base":4500}],"obsTime":1784142000},"SBTU":{"icaoId":"SBTU","flightCategory":"VFR","rawOb":"METAR SBTU 151900Z AUTO 21007KT 160V240 9999 // FEW031/// SCT035/// 30/23 Q1014","temp":30,"dewp":23,"wdir":210,"wspd":7,"visib":"6+","altim":1014,"clouds":[{"cover":"FEW","base":3100},{"cover":"SCT","base":3500}],"obsTime":1784142000},"SBBU":{"icaoId":"SBBU","flightCategory":"VFR","rawOb":"METAR SBBU 151900Z 11005KT CAVOK 25/11 Q1020","temp":25,"dewp":11,"wdir":110,"wspd":5,"visib":"6+","altim":1020,"clouds":[],"obsTime":1784142000},"SBDN":{"icaoId":"SBDN","flightCategory":"VFR","rawOb":"METAR SBDN 151900Z 07008KT CAVOK 26/11 Q1018","temp":26,"dewp":11,"wdir":70,"wspd":8,"visib":"6+","altim":1018,"clouds":[],"obsTime":1784142000},"SBIP":{"icaoId":"SBIP","flightCategory":"VFR","rawOb":"METAR SBIP 152000Z AUTO VRB02KT CAVOK 22/12 Q1023","temp":22,"dewp":12,"wdir":"VRB","wspd":2,"visib":"6+","altim":1023,"clouds":[],"obsTime":1784145600},"SBTT":{"icaoId":"SBTT","flightCategory":"VFR","rawOb":"METAR SBTT 151900Z 07005KT 000V110 9999 SCT020 FEW025TCU BKN100 25/24 Q1012","temp":25,"dewp":24,"wdir":70,"wspd":5,"visib":"6+","altim":1012,"clouds":[{"cover":"SCT","base":2000},{"cover":"FEW","base":2500},{"cover":"BKN","base":10000}],"obsTime":1784142000},"SBSC":{"icaoId":"SBSC","flightCategory":"VFR","rawOb":"METAR SBSC 151900Z 05006KT CAVOK 24/12 Q1022","temp":24,"dewp":12,"wdir":50,"wspd":6,"visib":"6+","altim":1022,"clouds":[],"obsTime":1784142000},"SBSR":{"icaoId":"SBSR","flightCategory":"VFR","rawOb":"METAR SBSR 151900Z 03003KT CAVOK 28/05 Q1018","temp":28,"dewp":5,"wdir":30,"wspd":3,"visib":"6+","altim":1018,"clouds":[],"obsTime":1784142000},"SBSJ":{"icaoId":"SBSJ","flightCategory":"VFR","rawOb":"METAR SBSJ 151900Z 34007KT 300V020 CAVOK 21/09 Q1022","temp":21,"dewp":9,"wdir":340,"wspd":7,"visib":"6+","altim":1022,"clouds":[],"obsTime":1784142000},"SBPP":{"icaoId":"SBPP","flightCategory":"VFR","rawOb":"METAR SBPP 151900Z 04013KT CAVOK 26/12 Q1015","temp":26,"dewp":12,"wdir":40,"wspd":13,"visib":"6+","altim":1015,"clouds":[],"obsTime":1784142000},"SBAR":{"icaoId":"SBAR","flightCategory":"IFR","rawOb":"METAR SBAR 151900Z 12010KT 3000 -RA BR SCT008 BKN020 OVC050 23/22 Q1019 RERA","temp":23,"dewp":22,"wdir":120,"wspd":10,"visib":1.86,"altim":1019,"clouds":[{"cover":"SCT","base":800},{"cover":"BKN","base":2000},{"cover":"OVC","base":5000}],"obsTime":1784142000},"SBOI":{"icaoId":"SBOI","flightCategory":"VFR","rawOb":"METAR SBOI 151900Z AUTO 12006KT 060V160 9999 FEW047 33/22 Q1012","temp":33,"dewp":22,"wdir":120,"wspd":6,"visib":"6+","altim":1012,"clouds":[{"cover":"FEW","base":4700}],"obsTime":1784142000},"SBPB":{"icaoId":"SBPB","flightCategory":"VFR","rawOb":"METAR SBPB 151900Z 04013KT 9999 SCT020 29/25 Q1013","temp":29,"dewp":25,"wdir":40,"wspd":13,"visib":"6+","altim":1013,"clouds":[{"cover":"SCT","base":2000}],"obsTime":1784142000},"SBCJ":{"icaoId":"SBCJ","flightCategory":"VFR","rawOb":"METAR SBCJ 151900Z 00000KT 9999 FEW015 FEW040TCU 27/21 Q1015","temp":27,"dewp":21,"wdir":0,"wspd":0,"visib":"6+","altim":1015,"clouds":[{"cover":"FEW","base":1500},{"cover":"FEW","base":4000}],"obsTime":1784142000},"SBPS":{"icaoId":"SBPS","flightCategory":"VFR","rawOb":"METAR SBPS 151900Z 16008KT 070V210 9999 SCT020 SCT070 23/14 Q1022","temp":23,"dewp":14,"wdir":160,"wspd":8,"visib":"6+","altim":1022,"clouds":[{"cover":"SCT","base":2000},{"cover":"SCT","base":7000}],"obsTime":1784142000},"SBES":{"icaoId":"SBES","flightCategory":"VFR","rawOb":"METAR SBES 151900Z 08012KT 9999 FEW020 22/// Q1023","temp":null,"dewp":null,"wdir":80,"wspd":12,"visib":"6+","altim":1023,"clouds":[{"cover":"FEW","base":2000}],"obsTime":1784142000},"SBPL":{"icaoId":"SBPL","flightCategory":"VFR","rawOb":"METAR SBPL 151900Z 13011KT 9999 SCT020 SCT030 BKN070 25/21 Q1018","temp":25,"dewp":21,"wdir":130,"wspd":11,"visib":"6+","altim":1018,"clouds":[{"cover":"SCT","base":2000},{"cover":"SCT","base":3000},{"cover":"BKN","base":7000}],"obsTime":1784142000},"SBCC":{"icaoId":"SBCC","flightCategory":"VFR","rawOb":"METAR SBCC 151900Z VRB02KT 9999 SCT030 FEW035TCU BKN100 28/22 Q1014 RESHRA","temp":28,"dewp":22,"wdir":"VRB","wspd":2,"visib":"6+","altim":1014,"clouds":[{"cover":"SCT","base":3000},{"cover":"FEW","base":3500},{"cover":"BKN","base":10000}],"obsTime":1784142000},"SBAX":{"icaoId":"SBAX","flightCategory":"VFR","rawOb":"METAR SBAX 151900Z 11006KT CAVOK 25/08 Q1022","temp":25,"dewp":8,"wdir":110,"wspd":6,"visib":"6+","altim":1022,"clouds":[],"obsTime":1784142000},"SBBH":{"icaoId":"SBBH","flightCategory":"VFR","rawOb":"METAR SBBH 151900Z 13013KT CAVOK 21/10 Q1024","temp":21,"dewp":10,"wdir":130,"wspd":13,"visib":"6+","altim":1024,"clouds":[],"obsTime":1784142000},"SBVH":{"icaoId":"SBVH","flightCategory":"VFR","rawOb":"METAR SBVH 151900Z 02003KT 9999 BKN040 30/19 Q1014","temp":30,"dewp":19,"wdir":20,"wspd":3,"visib":"6+","altim":1014,"clouds":[{"cover":"BKN","base":4000}],"obsTime":1784142000},"SBCA":{"icaoId":"SBCA","flightCategory":"VFR","rawOb":"METAR SBCA 151900Z 04008G19KT CAVOK 22/06 Q1018","temp":22,"dewp":6,"wdir":40,"wspd":8,"visib":"6+","altim":1018,"clouds":[],"obsTime":1784142000},"SBTF":{"icaoId":"SBTF","flightCategory":"VFR","rawOb":"METAR SBTF 151900Z 12006KT 9999 SCT020 32/25 Q1010","temp":32,"dewp":25,"wdir":120,"wspd":6,"visib":"6+","altim":1010,"clouds":[{"cover":"SCT","base":2000}],"obsTime":1784142000},"SBCO":{"icaoId":"SBCO","flightCategory":"VFR","rawOb":"METAR SBCO 151900Z VRB02KT CAVOK 23/10 Q1016","temp":23,"dewp":10,"wdir":"VRB","wspd":2,"visib":"6+","altim":1016,"clouds":[],"obsTime":1784142000},"SBSM":{"icaoId":"SBSM","flightCategory":"VFR","rawOb":"METAR SBSM 151900Z 04006KT 350V080 CAVOK 23/11 Q1014","temp":23,"dewp":11,"wdir":40,"wspd":6,"visib":"6+","altim":1014,"clouds":[],"obsTime":1784142000},"SBKG":{"icaoId":"SBKG","flightCategory":"VFR","rawOb":"METAR SBKG 151900Z 11007KT CAVOK 25/18 Q1018","temp":25,"dewp":18,"wdir":110,"wspd":7,"visib":"6+","altim":1018,"clouds":[],"obsTime":1784142000},"SBUY":{"icaoId":"SBUY","flightCategory":"VFR","rawOb":"METAR SBUY 151900Z 07001KT 9999 SCT025 FEW030TCU 28/25 Q1009","temp":28,"dewp":25,"wdir":70,"wspd":1,"visib":"6+","altim":1009,"clouds":[{"cover":"SCT","base":2500},{"cover":"FEW","base":3000}],"obsTime":1784142000},"SBGM":{"icaoId":"SBGM","flightCategory":"VFR","rawOb":"METAR SBGM 151900Z VRB02KT 9999 SCT013 31/15 Q1012","temp":31,"dewp":15,"wdir":"VRB","wspd":2,"visib":"6+","altim":1012,"clouds":[{"cover":"SCT","base":1300}],"obsTime":1784142000},"SBBQ":{"icaoId":"SBBQ","flightCategory":"VFR","rawOb":"METAR SBBQ 151900Z 10008KT 9999 FEW030 15/09 Q1027","temp":15,"dewp":9,"wdir":100,"wspd":8,"visib":"6+","altim":1027,"clouds":[{"cover":"FEW","base":3000}],"obsTime":1784142000},"SBMT":{"icaoId":"SBMT","flightCategory":"VFR","rawOb":"METAR SBMT 151900Z 06004KT CAVOK 21/08 Q1022","temp":21,"dewp":8,"wdir":60,"wspd":4,"visib":"6+","altim":1022,"clouds":[],"obsTime":1784142000},"SBST":{"icaoId":"SBST","flightCategory":"VFR","rawOb":"METAR SBST 151900Z 14007KT CAVOK 22/13 Q1020","temp":22,"dewp":13,"wdir":140,"wspd":7,"visib":"6+","altim":1020,"clouds":[],"obsTime":1784142000},"SBTA":{"icaoId":"SBTA","flightCategory":"VFR","rawOb":"METAR SBTA 151900Z 03006KT CAVOK 22/10 Q1022","temp":22,"dewp":10,"wdir":30,"wspd":6,"visib":"6+","altim":1022,"clouds":[],"obsTime":1784142000},"SBJP":{"icaoId":"SBJP","flightCategory":"VFR","rawOb":"METAR SBJP 151900Z 12014KT 9999 FEW030 27/22 Q1016","temp":27,"dewp":22,"wdir":120,"wspd":14,"visib":"6+","altim":1016,"clouds":[{"cover":"FEW","base":3000}],"obsTime":1784142000},"SBLE":{"icaoId":"SBLE","flightCategory":"VFR","rawOb":"METAR SBLE 151900Z AUTO 18003KT 130V250 9999 SCT030 OVC042 21/21 Q1022","temp":21,"dewp":21,"wdir":180,"wspd":3,"visib":"6+","altim":1022,"clouds":[{"cover":"SCT","base":3000},{"cover":"OVC","base":4200}],"obsTime":1784142000},"SBNM":{"icaoId":"SBNM","flightCategory":"VFR","rawOb":"METAR SBNM 151900Z AUTO 03009KT 350V060 CAVOK 22/10 Q1015","temp":22,"dewp":10,"wdir":30,"wspd":9,"visib":"6+","altim":1015,"clouds":[],"obsTime":1784142000},"SBIH":{"icaoId":"SBIH","flightCategory":"VFR","rawOb":"METAR SBIH 151900Z 05003KT 9999 FEW020 31/24 Q1011","temp":31,"dewp":24,"wdir":50,"wspd":3,"visib":"6+","altim":1011,"clouds":[{"cover":"FEW","base":2000}],"obsTime":1784142000},"SBPF":{"icaoId":"SBPF","flightCategory":"VFR","rawOb":"METAR SBPF 151900Z 08011KT CAVOK 19/08 Q1018","temp":19,"dewp":8,"wdir":80,"wspd":11,"visib":"6+","altim":1018,"clouds":[],"obsTime":1784142000},"SBAN":{"icaoId":"SBAN","flightCategory":"VFR","rawOb":"METAR SBAN 151900Z 13008KT 9999 SCT045 27/14 Q1021","temp":27,"dewp":14,"wdir":130,"wspd":8,"visib":"6+","altim":1021,"clouds":[{"cover":"SCT","base":4500}],"obsTime":1784142000},"SBJV":{"icaoId":"SBJV","flightCategory":"VFR","rawOb":"METAR SBJV 151900Z 06007KT 9999 FEW025 SCT050 21/15 Q1020","temp":21,"dewp":15,"wdir":60,"wspd":7,"visib":"6+","altim":1020,"clouds":[{"cover":"FEW","base":2500},{"cover":"SCT","base":5000}],"obsTime":1784142000},"SBAF":{"icaoId":"SBAF","flightCategory":"VFR","rawOb":"METAR SBAF 151900Z 10006KT CAVOK 24/12 Q1022","temp":24,"dewp":12,"wdir":100,"wspd":6,"visib":"6+","altim":1022,"clouds":[],"obsTime":1784142000},"SBGW":{"icaoId":"SBGW","flightCategory":"VFR","rawOb":"METAR SBGW 151900Z 03005KT 340V070 CAVOK 21/10 Q1022","temp":21,"dewp":10,"wdir":30,"wspd":5,"visib":"6+","altim":1022,"clouds":[],"obsTime":1784142000},"SBJR":{"icaoId":"SBJR","flightCategory":"VFR","rawOb":"METAR SBJR 151900Z 11009KT CAVOK 24/13 Q1022","temp":24,"dewp":13,"wdir":110,"wspd":9,"visib":"6+","altim":1022,"clouds":[],"obsTime":1784142000},"SBLS":{"icaoId":"SBLS","flightCategory":"VFR","rawOb":"METAR SBLS 151900Z 14011KT 9999 FEW048 21/10 Q1023","temp":21,"dewp":10,"wdir":140,"wspd":11,"visib":"6+","altim":1023,"clouds":[{"cover":"FEW","base":4800}],"obsTime":1784142000}}}