{"updated":1777709721,"count":52,"data":{"SBMG":{"icaoId":"SBMG","flightCategory":"VFR","rawOb":"METAR SBMG 020700Z AUTO 04008KT CAVOK 21/19 Q1015","temp":21,"dewp":19,"wdir":40,"wspd":8,"visib":"6+","altim":1015,"clouds":[],"obsTime":1777705200},"SBMK":{"icaoId":"SBMK","flightCategory":"VFR","rawOb":"METAR SBMK 020800Z 10002KT CAVOK 19/17 Q1019","temp":19,"dewp":17,"wdir":100,"wspd":2,"visib":"6+","altim":1019,"clouds":[],"obsTime":1777708800},"SBFZ":{"icaoId":"SBFZ","flightCategory":"VFR","rawOb":"METAR SBFZ 020700Z 19005KT 9999 SCT020 BKN070 25/23 Q1010","temp":25,"dewp":23,"wdir":190,"wspd":5,"visib":"6+","altim":1010,"clouds":[{"cover":"SCT","base":2000},{"cover":"BKN","base":7000}],"obsTime":1777705200},"SBMO":{"icaoId":"SBMO","flightCategory":"MVFR","rawOb":"METAR SBMO 020700Z 11006KT 8000 -RA SCT005 BKN015 BKN060 23/23 Q1013 RERA","temp":23,"dewp":23,"wdir":110,"wspd":6,"visib":4.97,"altim":1013,"clouds":[{"cover":"SCT","base":500},{"cover":"BKN","base":1500},{"cover":"BKN","base":6000}],"obsTime":1777705200},"SBCT":{"icaoId":"SBCT","flightCategory":"IFR","rawOb":"METAR SBCT 020700Z 27001KT 4000 BR FEW005 16/16 Q1019","temp":16,"dewp":16,"wdir":270,"wspd":1,"visib":2.49,"altim":1019,"clouds":[{"cover":"FEW","base":500}],"obsTime":1777705200},"SBMQ":{"icaoId":"SBMQ","flightCategory":"VFR","rawOb":"METAR SBMQ 020700Z 36004KT 9999 -RA FEW005 SCT025 OVC066 25/25 Q1010","temp":25,"dewp":25,"wdir":360,"wspd":4,"visib":"6+","altim":1010,"clouds":[{"cover":"FEW","base":500},{"cover":"SCT","base":2500},{"cover":"OVC","base":6600}],"obsTime":1777705200},"SBGL":{"icaoId":"SBGL","flightCategory":"MVFR","rawOb":"METAR SBGL 020700Z 14003KT 8000 FEW030 23/22 Q1014","temp":23,"dewp":22,"wdir":140,"wspd":3,"visib":4.97,"altim":1014,"clouds":[{"cover":"FEW","base":3000}],"obsTime":1777705200},"SBNT":{"icaoId":"SBNT","flightCategory":"MVFR","rawOb":"METAR SBNT 020700Z 20006KT 9999 BKN020 BKN040 23/22 Q1011","temp":23,"dewp":22,"wdir":200,"wspd":6,"visib":"6+","altim":1011,"clouds":[{"cover":"BKN","base":2000},{"cover":"BKN","base":4000}],"obsTime":1777705200},"SBBV":{"icaoId":"SBBV","flightCategory":"VFR","rawOb":"METAR SBBV 020700Z 10008KT 9999 SCT030 FEW035TCU BKN100 26/23 Q1011","temp":26,"dewp":23,"wdir":100,"wspd":8,"visib":"6+","altim":1011,"clouds":[{"cover":"SCT","base":3000},{"cover":"FEW","base":3500},{"cover":"BKN","base":10000}],"obsTime":1777705200},"SBPA":{"icaoId":"SBPA","flightCategory":"VFR","rawOb":"METAR SBPA 020700Z 27004KT 240V300 9999 FEW010 SCT040 BKN090 19/19 Q1009","temp":19,"dewp":19,"wdir":270,"wspd":4,"visib":"6+","altim":1009,"clouds":[{"cover":"FEW","base":1000},{"cover":"SCT","base":4000},{"cover":"BKN","base":9000}],"obsTime":1777705200},"SBGO":{"icaoId":"SBGO","flightCategory":"VFR","rawOb":"METAR SBGO 020700Z 26003KT 230V290 CAVOK 20/18 Q1018","temp":20,"dewp":18,"wdir":260,"wspd":3,"visib":"6+","altim":1018,"clouds":[],"obsTime":1777705200},"SBPJ":{"icaoId":"SBPJ","flightCategory":"VFR","rawOb":"METAR SBPJ 020700Z 17003KT CAVOK 25/23 Q1013","temp":25,"dewp":23,"wdir":170,"wspd":3,"visib":"6+","altim":1013,"clouds":[],"obsTime":1777705200},"SBGR":{"icaoId":"SBGR","flightCategory":"LIFR","rawOb":"METAR SBGR 020700Z 06005KT 0900 R10L/1600D R28R/1700U R28L/1800D R10R/P2000 FG OVC002 19/19 Q1018","temp":19,"dewp":19,"wdir":60,"wspd":5,"visib":0.56,"altim":1018,"clouds":[{"cover":"OVC","base":200}],"obsTime":1777705200},"SBPV":{"icaoId":"SBPV","flightCategory":"VFR","rawOb":"METAR SBPV 020700Z 34003KT CAVOK 25/22 Q1011","temp":25,"dewp":22,"wdir":340,"wspd":3,"visib":"6+","altim":1011,"clouds":[],"obsTime":1777705200},"SBBR":{"icaoId":"SBBR","flightCategory":"VFR","rawOb":"METAR SBBR 020700Z 10002KT CAVOK 19/17 Q1020","temp":19,"dewp":17,"wdir":100,"wspd":2,"visib":"6+","altim":1020,"clouds":[],"obsTime":1777705200},"SBRB":{"icaoId":"SBRB","flightCategory":"MVFR","rawOb":"METAR SBRB 020700Z 02001KT 8000 TS VCSH FEW015 FEW030CB BKN100 25/24 Q1011","temp":25,"dewp":24,"wdir":20,"wspd":1,"visib":4.97,"altim":1011,"clouds":[{"cover":"FEW","base":1500},{"cover":"FEW","base":3000},{"cover":"BKN","base":10000}],"obsTime":1777705200},"SBJU":{"icaoId":"SBJU","flightCategory":"MVFR","rawOb":"METAR SBJU 020700Z 15005KT 9999 BKN020 23/20 Q1013","temp":23,"dewp":20,"wdir":150,"wspd":5,"visib":"6+","altim":1013,"clouds":[{"cover":"BKN","base":2000}],"obsTime":1777705200},"SBRF":{"icaoId":"SBRF","flightCategory":"VFR","rawOb":"METAR SBRF 020700Z 22005KT 9999 SCT009 SCT013 23/23 Q1012","temp":23,"dewp":23,"wdir":220,"wspd":5,"visib":"6+","altim":1012,"clouds":[{"cover":"SCT","base":900},{"cover":"SCT","base":1300}],"obsTime":1777705200},"SBEG":{"icaoId":"SBEG","flightCategory":"VFR","rawOb":"METAR SBEG 020700Z 04002KT 9999 FEW010 BKN100 25/25 Q1011","temp":25,"dewp":25,"wdir":40,"wspd":2,"visib":"6+","altim":1011,"clouds":[{"cover":"FEW","base":1000},{"cover":"BKN","base":10000}],"obsTime":1777705200},"SBSG":{"icaoId":"SBSG","flightCategory":"VFR","rawOb":"METAR SBSG 020700Z 20005KT 160V230 9999 FEW007 SCT021 23/23 Q1012","temp":23,"dewp":23,"wdir":200,"wspd":5,"visib":"6+","altim":1012,"clouds":[{"cover":"FEW","base":700},{"cover":"SCT","base":2100}],"obsTime":1777705200},"SBCF":{"icaoId":"SBCF","flightCategory":"VFR","rawOb":"METAR SBCF 020700Z 21002KT CAVOK 16/15 Q1020","temp":16,"dewp":15,"wdir":210,"wspd":2,"visib":"6+","altim":1020,"clouds":[],"obsTime":1777705200},"SBSL":{"icaoId":"SBSL","flightCategory":"VFR","rawOb":"METAR SBSL 020700Z 17004KT 9999 FEW015 BKN080 25/24 Q1010","temp":25,"dewp":24,"wdir":170,"wspd":4,"visib":"6+","altim":1010,"clouds":[{"cover":"FEW","base":1500},{"cover":"BKN","base":8000}],"obsTime":1777705200},"SBKP":{"icaoId":"SBKP","flightCategory":"VFR","rawOb":"METAR SBKP 020700Z 00000KT CAVOK 21/18 Q1018","temp":21,"dewp":18,"wdir":0,"wspd":0,"visib":"6+","altim":1018,"clouds":[],"obsTime":1777705200},"SBSN":{"icaoId":"SBSN","flightCategory":"IFR","rawOb":"METAR SBSN 020700Z 11002KT 9999 -RA BKN009 SCT015 FEW020TCU OVC080 25/25 Q1010 RETS","temp":25,"dewp":25,"wdir":110,"wspd":2,"visib":"6+","altim":1010,"clouds":[{"cover":"BKN","base":900},{"cover":"SCT","base":1500},{"cover":"FEW","base":2000},{"cover":"OVC","base":8000}],"obsTime":1777705200},"SBFI":{"icaoId":"SBFI","flightCategory":"VFR","rawOb":"METAR SBFI 020700Z 07004KT CAVOK 22/22 Q1013","temp":22,"dewp":22,"wdir":70,"wspd":4,"visib":"6+","altim":1013,"clouds":[],"obsTime":1777705200},"SBSP":{"icaoId":"SBSP","flightCategory":"VFR","rawOb":"METAR SBSP 020700Z AUTO 04003KT CAVOK 21/19 Q1019","temp":21,"dewp":19,"wdir":40,"wspd":3,"visib":"6+","altim":1019,"clouds":[],"obsTime":1777705200},"SBLO":{"icaoId":"SBLO","flightCategory":"VFR","rawOb":"METAR SBLO 020700Z 24004KT CAVOK 20/19 Q1016","temp":20,"dewp":19,"wdir":240,"wspd":4,"visib":"6+","altim":1016,"clouds":[],"obsTime":1777705200},"SBSV":{"icaoId":"SBSV","flightCategory":"VFR","rawOb":"METAR SBSV 020700Z 12009KT 9999 FEW021 SCT090 26/23 Q1014","temp":26,"dewp":23,"wdir":120,"wspd":9,"visib":"6+","altim":1014,"clouds":[{"cover":"FEW","base":2100},{"cover":"SCT","base":9000}],"obsTime":1777705200},"SBTE":{"icaoId":"SBTE","flightCategory":"VFR","rawOb":"METAR SBTE 020700Z 33003KT 9999 FEW015 BKN100 26/24 Q1010","temp":26,"dewp":24,"wdir":330,"wspd":3,"visib":"6+","altim":1010,"clouds":[{"cover":"FEW","base":1500},{"cover":"BKN","base":10000}],"obsTime":1777705200},"SBMA":{"icaoId":"SBMA","flightCategory":"VFR","rawOb":"METAR SBMA 020700Z 00000KT 9999 FEW015 BKN080 25/25 Q1011","temp":25,"dewp":25,"wdir":0,"wspd":0,"visib":"6+","altim":1011,"clouds":[{"cover":"FEW","base":1500},{"cover":"BKN","base":8000}],"obsTime":1777705200},"SBUL":{"icaoId":"SBUL","flightCategory":"VFR","rawOb":"METAR SBUL 020700Z 12006KT 070V150 CAVOK 19/14 Q1020","temp":19,"dewp":14,"wdir":120,"wspd":6,"visib":"6+","altim":1020,"clouds":[],"obsTime":1777705200},"SBBE":{"icaoId":"SBBE","flightCategory":"VFR","rawOb":"METAR SBBE 020700Z 00000KT CAVOK 24/23 Q1011","temp":24,"dewp":23,"wdir":0,"wspd":0,"visib":"6+","altim":1011,"clouds":[],"obsTime":1777705200},"SBFL":{"icaoId":"SBFL","flightCategory":"MVFR","rawOb":"METAR SBFL 020700Z 17007KT 120V230 9999 -RA FEW018 BKN030 BKN060 22/19 Q1014","temp":22,"dewp":19,"wdir":170,"wspd":7,"visib":"6+","altim":1014,"clouds":[{"cover":"FEW","base":1800},{"cover":"BKN","base":3000},{"cover":"BKN","base":6000}],"obsTime":1777705200},"SBUR":{"icaoId":"SBUR","flightCategory":"VFR","rawOb":"METAR SBUR 020700Z 03006KT CAVOK 20/13 Q1019","temp":20,"dewp":13,"wdir":30,"wspd":6,"visib":"6+","altim":1019,"clouds":[],"obsTime":1777705200},"SBME":{"icaoId":"SBME","flightCategory":"VFR","rawOb":"METAR SBME 020700Z 01005KT CAVOK 22/21 Q1015","temp":22,"dewp":21,"wdir":10,"wspd":5,"visib":"6+","altim":1015,"clouds":[],"obsTime":1777705200},"SBVT":{"icaoId":"SBVT","flightCategory":"VFR","rawOb":"METAR SBVT 020700Z 00000KT 9999 FEW015 20/20 Q1016","temp":20,"dewp":20,"wdir":0,"wspd":0,"visib":"6+","altim":1016,"clouds":[{"cover":"FEW","base":1500}],"obsTime":1777705200},"SBCG":{"icaoId":"SBCG","flightCategory":"VFR","rawOb":"METAR SBCG 020700Z 01005KT CAVOK 22/17 Q1015","temp":22,"dewp":17,"wdir":10,"wspd":5,"visib":"6+","altim":1015,"clouds":[],"obsTime":1777705200},"SBOI":{"icaoId":"SBOI","flightCategory":"LIFR","rawOb":"METAR SBOI 020700Z AUTO 20001KT 1200 // VV001 24/24 Q1011","temp":24,"dewp":24,"wdir":200,"wspd":1,"visib":0.75,"altim":1011,"clouds":[{"cover":"OVX","base":100}],"obsTime":1777705200},"SBAR":{"icaoId":"SBAR","flightCategory":"VFR","rawOb":"METAR SBAR 020700Z 11008KT 9999 FEW015 SCT020 BKN050 27/24 Q1012","temp":27,"dewp":24,"wdir":110,"wspd":8,"visib":"6+","altim":1012,"clouds":[{"cover":"FEW","base":1500},{"cover":"SCT","base":2000},{"cover":"BKN","base":5000}],"obsTime":1777705200},"SBAX":{"icaoId":"SBAX","flightCategory":"VFR","rawOb":"METAR SBAX 020700Z AUTO 11003KT CAVOK 17/13 Q1020","temp":17,"dewp":13,"wdir":110,"wspd":3,"visib":"6+","altim":1020,"clouds":[],"obsTime":1777705200},"SBSR":{"icaoId":"SBSR","flightCategory":"VFR","rawOb":"METAR SBSR 020700Z 09003KT CAVOK 22/17 Q1017","temp":22,"dewp":17,"wdir":90,"wspd":3,"visib":"6+","altim":1017,"clouds":[],"obsTime":1777705200},"SBDN":{"icaoId":"SBDN","flightCategory":"VFR","rawOb":"METAR SBDN 020700Z 06004KT CAVOK 21/17 Q1015","temp":21,"dewp":17,"wdir":60,"wspd":4,"visib":"6+","altim":1015,"clouds":[],"obsTime":1777705200},"SBSC":{"icaoId":"SBSC","flightCategory":"MVFR","rawOb":"METAR SBSC 020700Z 21002KT 6000 SCT020 22/21 Q1016","temp":22,"dewp":21,"wdir":210,"wspd":2,"visib":3.73,"altim":1016,"clouds":[{"cover":"SCT","base":2000}],"obsTime":1777705200},"SBPS":{"icaoId":"SBPS","flightCategory":"MVFR","rawOb":"METAR SBPS 020700Z 25005KT 8000 BKN015 BKN070 23/23 Q1016","temp":23,"dewp":23,"wdir":250,"wspd":5,"visib":4.97,"altim":1016,"clouds":[{"cover":"BKN","base":1500},{"cover":"BKN","base":7000}],"obsTime":1777705200},"SBIP":{"icaoId":"SBIP","flightCategory":"MVFR","rawOb":"METAR SBIP 020700Z AUTO 00000KT 9999 BKN026 18/18 Q1017","temp":18,"dewp":18,"wdir":0,"wspd":0,"visib":"6+","altim":1017,"clouds":[{"cover":"BKN","base":2600}],"obsTime":1777705200},"SBKG":{"icaoId":"SBKG","flightCategory":"VFR","rawOb":"METAR SBKG 020700Z 00000KT CAVOK 21/20 Q1014","temp":21,"dewp":20,"wdir":0,"wspd":0,"visib":"6+","altim":1014,"clouds":[],"obsTime":1777705200},"SBPL":{"icaoId":"SBPL","flightCategory":"VFR","rawOb":"METAR SBPL 020700Z 12008KT CAVOK 24/21 Q1014","temp":24,"dewp":21,"wdir":120,"wspd":8,"visib":"6+","altim":1014,"clouds":[],"obsTime":1777705200},"SBTF":{"icaoId":"SBTF","flightCategory":"VFR","rawOb":"METAR SBTF 020700Z 20002KT 9999 FEW025 SCT090 25/25 Q1010","temp":25,"dewp":25,"wdir":200,"wspd":2,"visib":"6+","altim":1010,"clouds":[{"cover":"FEW","base":2500},{"cover":"SCT","base":9000}],"obsTime":1777705200},"SBLE":{"icaoId":"SBLE","flightCategory":"LIFR","rawOb":"METAR SBLE 020700Z AUTO 16004KT 120V210 2900 BR BKN002 OVC005 ///// Q////","temp":null,"dewp":null,"wdir":160,"wspd":4,"visib":1.8,"altim":null,"clouds":[{"cover":"BKN","base":200},{"cover":"OVC","base":500}],"obsTime":1777705200},"SBAN":{"icaoId":"SBAN","flightCategory":"VFR","rawOb":"METAR SBAN 020700Z 11004KT CAVOK 18/15 Q1021","temp":18,"dewp":15,"wdir":110,"wspd":4,"visib":"6+","altim":1021,"clouds":[],"obsTime":1777705200},"SBIH":{"icaoId":"SBIH","flightCategory":"MVFR","rawOb":"METAR SBIH 020800Z 00000KT 5000 BR FEW015 24/24 Q1010","temp":24,"dewp":24,"wdir":0,"wspd":0,"visib":3.11,"altim":1010,"clouds":[{"cover":"FEW","base":1500}],"obsTime":1777708800},"SBJP":{"icaoId":"SBJP","flightCategory":"VFR","rawOb":"METAR SBJP 020700Z 19005KT 9999 SCT007 BKN070 23/23 Q1012","temp":23,"dewp":23,"wdir":190,"wspd":5,"visib":"6+","altim":1012,"clouds":[{"cover":"SCT","base":700},{"cover":"BKN","base":7000}],"obsTime":1777705200}}}