{"updated":1780984625,"count":52,"data":{"SBSN":{"icaoId":"SBSN","flightCategory":"VFR","rawOb":"METAR SBSN 090400Z 00000KT 9999 FEW013 BKN090 24/23 Q1014","temp":24,"dewp":23,"wdir":0,"wspd":0,"visib":"6+","altim":1014,"clouds":[{"cover":"FEW","base":1300},{"cover":"BKN","base":9000}],"obsTime":1780977600},"SBMO":{"icaoId":"SBMO","flightCategory":"VFR","rawOb":"METAR SBMO 090400Z 16003KT 9999 SCT025 BKN050 25/22 Q1017","temp":25,"dewp":22,"wdir":160,"wspd":3,"visib":"6+","altim":1017,"clouds":[{"cover":"SCT","base":2500},{"cover":"BKN","base":5000}],"obsTime":1780977600},"SBGL":{"icaoId":"SBGL","flightCategory":"VFR","rawOb":"METAR SBGL 090400Z 04001KT CAVOK 17/15 Q1018","temp":17,"dewp":15,"wdir":40,"wspd":1,"visib":"6+","altim":1018,"clouds":[],"obsTime":1780977600},"SBMQ":{"icaoId":"SBMQ","flightCategory":"VFR","rawOb":"METAR SBMQ 090400Z 26002KT 9999 FEW004 25/25 Q1014","temp":25,"dewp":25,"wdir":260,"wspd":2,"visib":"6+","altim":1014,"clouds":[{"cover":"FEW","base":400}],"obsTime":1780977600},"SBNT":{"icaoId":"SBNT","flightCategory":"VFR","rawOb":"METAR SBNT 090400Z 19008KT 9999 FEW013 SCT050 25/23 Q1015","temp":25,"dewp":23,"wdir":190,"wspd":8,"visib":"6+","altim":1015,"clouds":[{"cover":"FEW","base":1300},{"cover":"SCT","base":5000}],"obsTime":1780977600},"SBGO":{"icaoId":"SBGO","flightCategory":"VFR","rawOb":"METAR SBGO 090400Z 31002KT CAVOK 16/14 Q1020","temp":16,"dewp":14,"wdir":310,"wspd":2,"visib":"6+","altim":1020,"clouds":[],"obsTime":1780977600},"SBPA":{"icaoId":"SBPA","flightCategory":"MVFR","rawOb":"METAR SBPA 090400Z 27004KT 9999 FEW005 BKN013 BKN040 16/16 Q1016","temp":16,"dewp":16,"wdir":270,"wspd":4,"visib":"6+","altim":1016,"clouds":[{"cover":"FEW","base":500},{"cover":"BKN","base":1300},{"cover":"BKN","base":4000}],"obsTime":1780977600},"SBCT":{"icaoId":"SBCT","flightCategory":"VFR","rawOb":"METAR SBCT 090400Z 34003KT 9999 FEW040 SCT080 14/12 Q1020","temp":14,"dewp":12,"wdir":340,"wspd":3,"visib":"6+","altim":1020,"clouds":[{"cover":"FEW","base":4000},{"cover":"SCT","base":8000}],"obsTime":1780977600},"SBBR":{"icaoId":"SBBR","flightCategory":"VFR","rawOb":"METAR SBBR 090400Z 32002KT CAVOK 14/12 Q1021","temp":14,"dewp":12,"wdir":320,"wspd":2,"visib":"6+","altim":1021,"clouds":[],"obsTime":1780977600},"SBPJ":{"icaoId":"SBPJ","flightCategory":"VFR","rawOb":"METAR SBPJ 090400Z 13004KT 9999 FEW016 SCT100 23/19 Q1015","temp":23,"dewp":19,"wdir":130,"wspd":4,"visib":"6+","altim":1015,"clouds":[{"cover":"FEW","base":1600},{"cover":"SCT","base":10000}],"obsTime":1780977600},"SBGR":{"icaoId":"SBGR","flightCategory":"VFR","rawOb":"METAR SBGR 090400Z 08002KT CAVOK 11/10 Q1021","temp":11,"dewp":10,"wdir":80,"wspd":2,"visib":"6+","altim":1021,"clouds":[],"obsTime":1780977600},"SBPV":{"icaoId":"SBPV","flightCategory":"VFR","rawOb":"METAR SBPV 090400Z 05004KT 9999 FEW030 25/23 Q1014","temp":25,"dewp":23,"wdir":50,"wspd":4,"visib":"6+","altim":1014,"clouds":[{"cover":"FEW","base":3000}],"obsTime":1780977600},"SBEG":{"icaoId":"SBEG","flightCategory":"VFR","rawOb":"METAR SBEG 090400Z 22003KT 9999 SCT020 25/24 Q1015","temp":25,"dewp":24,"wdir":220,"wspd":3,"visib":"6+","altim":1015,"clouds":[{"cover":"SCT","base":2000}],"obsTime":1780977600},"SBFZ":{"icaoId":"SBFZ","flightCategory":"VFR","rawOb":"METAR SBFZ 090400Z 19004KT 9999 SCT020 SCT070 25/24 Q1014","temp":25,"dewp":24,"wdir":190,"wspd":4,"visib":"6+","altim":1014,"clouds":[{"cover":"SCT","base":2000},{"cover":"SCT","base":7000}],"obsTime":1780977600},"SBMG":{"icaoId":"SBMG","flightCategory":"VFR","rawOb":"METAR SBMG 090400Z AUTO 04005KT CAVOK 19/11 Q1018","temp":19,"dewp":11,"wdir":40,"wspd":5,"visib":"6+","altim":1018,"clouds":[],"obsTime":1780977600},"SBBV":{"icaoId":"SBBV","flightCategory":"VFR","rawOb":"METAR SBBV 090400Z 15007KT 9999 SCT025 FEW030TCU 27/24 Q1015","temp":27,"dewp":24,"wdir":150,"wspd":7,"visib":"6+","altim":1015,"clouds":[{"cover":"SCT","base":2500},{"cover":"FEW","base":3000}],"obsTime":1780977600},"SBRB":{"icaoId":"SBRB","flightCategory":"VFR","rawOb":"METAR SBRB 090400Z 08003KT 9999 FEW025 SCT100 22/22 Q1015","temp":22,"dewp":22,"wdir":80,"wspd":3,"visib":"6+","altim":1015,"clouds":[{"cover":"FEW","base":2500},{"cover":"SCT","base":10000}],"obsTime":1780977600},"SBJU":{"icaoId":"SBJU","flightCategory":"VFR","rawOb":"METAR SBJU 090400Z 00000KT CAVOK 22/19 Q1018","temp":22,"dewp":19,"wdir":0,"wspd":0,"visib":"6+","altim":1018,"clouds":[],"obsTime":1780977600},"SBRF":{"icaoId":"SBRF","flightCategory":"MVFR","rawOb":"METAR SBRF 090400Z 21005KT 5000 BR SCT005 BKN012 BKN050 23/23 Q1016","temp":23,"dewp":23,"wdir":210,"wspd":5,"visib":3.11,"altim":1016,"clouds":[{"cover":"SCT","base":500},{"cover":"BKN","base":1200},{"cover":"BKN","base":5000}],"obsTime":1780977600},"SBCF":{"icaoId":"SBCF","flightCategory":"VFR","rawOb":"METAR SBCF 090400Z 15003KT CAVOK 14/11 Q1022","temp":14,"dewp":11,"wdir":150,"wspd":3,"visib":"6+","altim":1022,"clouds":[],"obsTime":1780977600},"SBSG":{"icaoId":"SBSG","flightCategory":"VFR","rawOb":"METAR SBSG 090400Z 19005KT 150V240 9999 SCT011 SCT030 24/23 Q1015","temp":24,"dewp":23,"wdir":190,"wspd":5,"visib":"6+","altim":1015,"clouds":[{"cover":"SCT","base":1100},{"cover":"SCT","base":3000}],"obsTime":1780977600},"SBKP":{"icaoId":"SBKP","flightCategory":"VFR","rawOb":"METAR SBKP 090400Z 12008KT CAVOK 14/10 Q1020","temp":14,"dewp":10,"wdir":120,"wspd":8,"visib":"6+","altim":1020,"clouds":[],"obsTime":1780977600},"SBSL":{"icaoId":"SBSL","flightCategory":"VFR","rawOb":"METAR SBSL 090400Z 09003KT CAVOK 27/25 Q1013","temp":27,"dewp":25,"wdir":90,"wspd":3,"visib":"6+","altim":1013,"clouds":[],"obsTime":1780977600},"SBFI":{"icaoId":"SBFI","flightCategory":"IFR","rawOb":"METAR SBFI 090400Z 21004KT 2000 BR FEW030 BKN100 18/18 Q1018","temp":18,"dewp":18,"wdir":210,"wspd":4,"visib":1.24,"altim":1018,"clouds":[{"cover":"FEW","base":3000},{"cover":"BKN","base":10000}],"obsTime":1780977600},"SBSP":{"icaoId":"SBSP","flightCategory":"VFR","rawOb":"METAR SBSP 090400Z AUTO 03002KT CAVOK 16/10 Q1021","temp":16,"dewp":10,"wdir":30,"wspd":2,"visib":"6+","altim":1021,"clouds":[],"obsTime":1780977600},"SBLO":{"icaoId":"SBLO","flightCategory":"VFR","rawOb":"METAR SBLO 090400Z 20002KT CAVOK 15/13 Q1019","temp":15,"dewp":13,"wdir":200,"wspd":2,"visib":"6+","altim":1019,"clouds":[],"obsTime":1780977600},"SBBE":{"icaoId":"SBBE","flightCategory":"VFR","rawOb":"METAR SBBE 090400Z 00000KT CAVOK 25/25 Q1014","temp":25,"dewp":25,"wdir":0,"wspd":0,"visib":"6+","altim":1014,"clouds":[],"obsTime":1780977600},"SBSV":{"icaoId":"SBSV","flightCategory":"VFR","rawOb":"METAR SBSV 090400Z 12006KT 080V150 CAVOK 25/19 Q1018","temp":25,"dewp":19,"wdir":120,"wspd":6,"visib":"6+","altim":1018,"clouds":[],"obsTime":1780977600},"SBMA":{"icaoId":"SBMA","flightCategory":"VFR","rawOb":"METAR SBMA 090400Z 00000KT CAVOK 26/24 Q1013","temp":26,"dewp":24,"wdir":0,"wspd":0,"visib":"6+","altim":1013,"clouds":[],"obsTime":1780977600},"SBTE":{"icaoId":"SBTE","flightCategory":"VFR","rawOb":"METAR SBTE 090400Z 11004KT CAVOK 28/20 Q1013","temp":28,"dewp":20,"wdir":110,"wspd":4,"visib":"6+","altim":1013,"clouds":[],"obsTime":1780977600},"SBFL":{"icaoId":"SBFL","flightCategory":"VFR","rawOb":"METAR SBFL 090400Z 33008KT CAVOK 19/18 Q1015","temp":19,"dewp":18,"wdir":330,"wspd":8,"visib":"6+","altim":1015,"clouds":[],"obsTime":1780977600},"SBUL":{"icaoId":"SBUL","flightCategory":"VFR","rawOb":"METAR SBUL 090400Z 21001KT CAVOK 18/08 Q1021","temp":18,"dewp":8,"wdir":210,"wspd":1,"visib":"6+","altim":1021,"clouds":[],"obsTime":1780977600},"SBME":{"icaoId":"SBME","flightCategory":"VFR","rawOb":"METAR SBME 090400Z 35004KT CAVOK 17/16 Q1018","temp":17,"dewp":16,"wdir":350,"wspd":4,"visib":"6+","altim":1018,"clouds":[],"obsTime":1780977600},"SBUR":{"icaoId":"SBUR","flightCategory":"VFR","rawOb":"METAR SBUR 090400Z 03004KT CAVOK 17/10 Q1020","temp":17,"dewp":10,"wdir":30,"wspd":4,"visib":"6+","altim":1020,"clouds":[],"obsTime":1780977600},"SBCG":{"icaoId":"SBCG","flightCategory":"VFR","rawOb":"METAR SBCG 090400Z 06005KT CAVOK 18/13 Q1018","temp":18,"dewp":13,"wdir":60,"wspd":5,"visib":"6+","altim":1018,"clouds":[],"obsTime":1780977600},"SBVT":{"icaoId":"SBVT","flightCategory":"VFR","rawOb":"METAR SBVT 090400Z VRB02KT CAVOK 15/15 Q1019","temp":15,"dewp":15,"wdir":"VRB","wspd":2,"visib":"6+","altim":1019,"clouds":[],"obsTime":1780977600},"SBMK":{"icaoId":"SBMK","flightCategory":"VFR","rawOb":"METAR SBMK 090400Z 25002KT CAVOK 16/13 Q1020","temp":16,"dewp":13,"wdir":250,"wspd":2,"visib":"6+","altim":1020,"clouds":[],"obsTime":1780977600},"SBOI":{"icaoId":"SBOI","flightCategory":"LIFR","rawOb":"METAR SBOI 090400Z AUTO 29002KT 9000 // SCT001/// BKN004/// 23/23 Q1014","temp":23,"dewp":23,"wdir":290,"wspd":2,"visib":5.59,"altim":1014,"clouds":[{"cover":"SCT","base":100},{"cover":"BKN","base":400}],"obsTime":1780977600},"SBIP":{"icaoId":"SBIP","flightCategory":"VFR","rawOb":"METAR SBIP 090400Z AUTO VRB02KT CAVOK 12/12 Q1020","temp":12,"dewp":12,"wdir":"VRB","wspd":2,"visib":"6+","altim":1020,"clouds":[],"obsTime":1780977600},"SBAR":{"icaoId":"SBAR","flightCategory":"VFR","rawOb":"METAR SBAR 090400Z 15009KT 9999 SCT023 BKN040 26/22 Q1017","temp":26,"dewp":22,"wdir":150,"wspd":9,"visib":"6+","altim":1017,"clouds":[{"cover":"SCT","base":2300},{"cover":"BKN","base":4000}],"obsTime":1780977600},"SBAX":{"icaoId":"SBAX","flightCategory":"VFR","rawOb":"METAR SBAX 090400Z AUTO 10005KT CAVOK 16/08 Q1021","temp":16,"dewp":8,"wdir":100,"wspd":5,"visib":"6+","altim":1021,"clouds":[],"obsTime":1780977600},"SBDN":{"icaoId":"SBDN","flightCategory":"VFR","rawOb":"METAR SBDN 090400Z 09003KT CAVOK 15/11 Q1018","temp":15,"dewp":11,"wdir":90,"wspd":3,"visib":"6+","altim":1018,"clouds":[],"obsTime":1780977600},"SBKG":{"icaoId":"SBKG","flightCategory":"IFR","rawOb":"METAR SBKG 090400Z VRB02KT 9999 BKN006 BKN070 20/20 Q1018","temp":20,"dewp":20,"wdir":"VRB","wspd":2,"visib":"6+","altim":1018,"clouds":[{"cover":"BKN","base":600},{"cover":"BKN","base":7000}],"obsTime":1780977600},"SBPL":{"icaoId":"SBPL","flightCategory":"MVFR","rawOb":"METAR SBPL 090400Z 08007KT 9999 -RA BKN015 22/21 Q1019","temp":22,"dewp":21,"wdir":80,"wspd":7,"visib":"6+","altim":1019,"clouds":[{"cover":"BKN","base":1500}],"obsTime":1780977600},"SBPS":{"icaoId":"SBPS","flightCategory":"VFR","rawOb":"METAR SBPS 090400Z 33001KT 9999 FEW025 SCT050 21/20 Q1019","temp":21,"dewp":20,"wdir":330,"wspd":1,"visib":"6+","altim":1019,"clouds":[{"cover":"FEW","base":2500},{"cover":"SCT","base":5000}],"obsTime":1780977600},"SBSC":{"icaoId":"SBSC","flightCategory":"VFR","rawOb":"METAR SBSC 090400Z 06004KT CAVOK 16/15 Q1018","temp":16,"dewp":15,"wdir":60,"wspd":4,"visib":"6+","altim":1018,"clouds":[],"obsTime":1780977600},"SBSR":{"icaoId":"SBSR","flightCategory":"VFR","rawOb":"METAR SBSR 090400Z VRB01KT CAVOK 19/08 Q1019","temp":19,"dewp":8,"wdir":"VRB","wspd":1,"visib":"6+","altim":1019,"clouds":[],"obsTime":1780977600},"SBTU":{"icaoId":"SBTU","flightCategory":"VFR","rawOb":"METAR SBTU 090400Z AUTO 23003KT 9999 // NCD ///// Q1015","temp":null,"dewp":null,"wdir":230,"wspd":3,"visib":"6+","altim":1015,"clouds":[],"obsTime":1780977600},"SBNM":{"icaoId":"SBNM","flightCategory":"VFR","rawOb":"METAR SBNM 090400Z AUTO 28003KT 250V310 9999 FEW031 BKN042 14/13 Q1019","temp":14,"dewp":13,"wdir":280,"wspd":3,"visib":"6+","altim":1019,"clouds":[{"cover":"FEW","base":3100},{"cover":"BKN","base":4200}],"obsTime":1780977600},"SBLE":{"icaoId":"SBLE","flightCategory":"VFR","rawOb":"METAR SBLE 090400Z AUTO VRB02KT 9999 FEW044 ///// Q////","temp":null,"dewp":null,"wdir":"VRB","wspd":2,"visib":"6+","altim":null,"clouds":[{"cover":"FEW","base":4400}],"obsTime":1780977600},"SBJP":{"icaoId":"SBJP","flightCategory":"IFR","rawOb":"METAR SBJP 090400Z 18007KT 9999 BKN006 23/23 Q1016","temp":23,"dewp":23,"wdir":180,"wspd":7,"visib":"6+","altim":1016,"clouds":[{"cover":"BKN","base":600}],"obsTime":1780977600},"SBAN":{"icaoId":"SBAN","flightCategory":"VFR","rawOb":"METAR SBAN 090400Z 36004KT CAVOK 14/10 Q1022","temp":14,"dewp":10,"wdir":360,"wspd":4,"visib":"6+","altim":1022,"clouds":[],"obsTime":1780977600}}}