{"updated":1777493117,"count":83,"data":{"SBVT":{"icaoId":"SBVT","flightCategory":"VFR","rawOb":"METAR SBVT 291900Z 04011KT 9999 FEW023 BKN070 27/21 Q1013","temp":27,"dewp":21,"wdir":40,"wspd":11,"visib":"6+","altim":1013,"clouds":[{"cover":"FEW","base":2300},{"cover":"BKN","base":7000}],"obsTime":1777489200},"SBLO":{"icaoId":"SBLO","flightCategory":"VFR","rawOb":"METAR SBLO 291900Z 03008KT 360V060 9999 FEW020 26/22 Q1012","temp":26,"dewp":22,"wdir":30,"wspd":8,"visib":"6+","altim":1012,"clouds":[{"cover":"FEW","base":2000}],"obsTime":1777489200},"SBBV":{"icaoId":"SBBV","flightCategory":"VFR","rawOb":"METAR SBBV 291900Z 11010KT 9999 VCSH SCT035 FEW040TCU SCT080 30/24 Q1007","temp":30,"dewp":24,"wdir":110,"wspd":10,"visib":"6+","altim":1007,"clouds":[{"cover":"SCT","base":3500},{"cover":"FEW","base":4000},{"cover":"SCT","base":8000}],"obsTime":1777489200},"SBMA":{"icaoId":"SBMA","flightCategory":"VFR","rawOb":"METAR SBMA 291900Z 00000KT 9999 SCT020 31/24 Q1007","temp":31,"dewp":24,"wdir":0,"wspd":0,"visib":"6+","altim":1007,"clouds":[{"cover":"SCT","base":2000}],"obsTime":1777489200},"SBFI":{"icaoId":"SBFI","flightCategory":"IFR","rawOb":"METAR SBFI 291900Z 25005KT 9999 BKN009 OVC015 21/20 Q1012","temp":21,"dewp":20,"wdir":250,"wspd":5,"visib":"6+","altim":1012,"clouds":[{"cover":"BKN","base":900},{"cover":"OVC","base":1500}],"obsTime":1777489200},"SBCG":{"icaoId":"SBCG","flightCategory":"VFR","rawOb":"METAR SBCG 291900Z 32009KT 280V340 9999 SCT040 FEW045TCU 31/21 Q1012","temp":31,"dewp":21,"wdir":320,"wspd":9,"visib":"6+","altim":1012,"clouds":[{"cover":"SCT","base":4000},{"cover":"FEW","base":4500}],"obsTime":1777489200},"SBCP":{"icaoId":"SBCP","flightCategory":"VFR","rawOb":"METAR SBCP 291900Z 08012KT 9999 FEW020 29/21 Q1012","temp":29,"dewp":21,"wdir":80,"wspd":12,"visib":"6+","altim":1012,"clouds":[{"cover":"FEW","base":2000}],"obsTime":1777489200},"SBFL":{"icaoId":"SBFL","flightCategory":"MVFR","rawOb":"METAR SBFL 291900Z 03003KT 360V080 9999 BKN011 BKN070 21/19 Q1012","temp":21,"dewp":19,"wdir":30,"wspd":3,"visib":"6+","altim":1012,"clouds":[{"cover":"BKN","base":1100},{"cover":"BKN","base":7000}],"obsTime":1777489200},"SBFZ":{"icaoId":"SBFZ","flightCategory":"VFR","rawOb":"METAR SBFZ 291900Z 09014KT 9999 FEW023 BKN100 29/25 Q1007","temp":29,"dewp":25,"wdir":90,"wspd":14,"visib":"6+","altim":1007,"clouds":[{"cover":"FEW","base":2300},{"cover":"BKN","base":10000}],"obsTime":1777489200},"SBMO":{"icaoId":"SBMO","flightCategory":"VFR","rawOb":"METAR SBMO 291900Z 13010KT 9999 SCT030 28/22 Q1011","temp":28,"dewp":22,"wdir":130,"wspd":10,"visib":"6+","altim":1011,"clouds":[{"cover":"SCT","base":3000}],"obsTime":1777489200},"SBMQ":{"icaoId":"SBMQ","flightCategory":"VFR","rawOb":"METAR SBMQ 291900Z 06009KT 030V090 9999 SCT020 FEW040TCU SCT090 31/24 Q1007","temp":31,"dewp":24,"wdir":60,"wspd":9,"visib":"6+","altim":1007,"clouds":[{"cover":"SCT","base":2000},{"cover":"FEW","base":4000},{"cover":"SCT","base":9000}],"obsTime":1777489200},"SBBE":{"icaoId":"SBBE","flightCategory":"VFR","rawOb":"METAR SBBE 291900Z 01010KT 9999 SCT037 FEW041TCU 30/27 Q1006","temp":30,"dewp":27,"wdir":10,"wspd":10,"visib":"6+","altim":1006,"clouds":[{"cover":"SCT","base":3700},{"cover":"FEW","base":4100}],"obsTime":1777489200},"SBGL":{"icaoId":"SBGL","flightCategory":"VFR","rawOb":"METAR SBGL 291900Z 13008KT CAVOK 29/23 Q1011","temp":29,"dewp":23,"wdir":130,"wspd":8,"visib":"6+","altim":1011,"clouds":[],"obsTime":1777489200},"SBPA":{"icaoId":"SBPA","flightCategory":"VFR","rawOb":"METAR SBPA 291900Z 06004KT 010V100 CAVOK 22/09 Q1013","temp":22,"dewp":9,"wdir":60,"wspd":4,"visib":"6+","altim":1013,"clouds":[],"obsTime":1777489200},"SBCR":{"icaoId":"SBCR","flightCategory":"VFR","rawOb":"METAR SBCR 291900Z 03003KT 320V090 9999 SCT020 30/24 Q1009","temp":30,"dewp":24,"wdir":30,"wspd":3,"visib":"6+","altim":1009,"clouds":[{"cover":"SCT","base":2000}],"obsTime":1777489200},"SBPJ":{"icaoId":"SBPJ","flightCategory":"VFR","rawOb":"METAR SBPJ 291900Z 21006KT 9999 SCT030 FEW040TCU 31/25 Q1009","temp":31,"dewp":25,"wdir":210,"wspd":6,"visib":"6+","altim":1009,"clouds":[{"cover":"SCT","base":3000},{"cover":"FEW","base":4000}],"obsTime":1777489200},"SBGO":{"icaoId":"SBGO","flightCategory":"VFR","rawOb":"METAR SBGO 291900Z 12006KT CAVOK 31/14 Q1014","temp":31,"dewp":14,"wdir":120,"wspd":6,"visib":"6+","altim":1014,"clouds":[],"obsTime":1777489200},"SBPV":{"icaoId":"SBPV","flightCategory":"VFR","rawOb":"METAR SBPV 291900Z 28002KT 9999 VCSH SCT030 FEW035TCU 33/26 Q1007","temp":33,"dewp":26,"wdir":280,"wspd":2,"visib":"6+","altim":1007,"clouds":[{"cover":"SCT","base":3000},{"cover":"FEW","base":3500}],"obsTime":1777489200},"SBCB":{"icaoId":"SBCB","flightCategory":"VFR","rawOb":"METAR SBCB 291900Z 08012KT 9999 FEW020 29/22 Q1011","temp":29,"dewp":22,"wdir":80,"wspd":12,"visib":"6+","altim":1011,"clouds":[{"cover":"FEW","base":2000}],"obsTime":1777489200},"SBTE":{"icaoId":"SBTE","flightCategory":"MVFR","rawOb":"METAR SBTE 291900Z 11004KT 9999 BKN020 FEW025TCU 32/23 Q1006","temp":32,"dewp":23,"wdir":110,"wspd":4,"visib":"6+","altim":1006,"clouds":[{"cover":"BKN","base":2000},{"cover":"FEW","base":2500}],"obsTime":1777489200},"SBRB":{"icaoId":"SBRB","flightCategory":"VFR","rawOb":"METAR SBRB 291900Z 24004KT 9999 SCT025 FEW030TCU 31/24 Q1009","temp":31,"dewp":24,"wdir":240,"wspd":4,"visib":"6+","altim":1009,"clouds":[{"cover":"SCT","base":2500},{"cover":"FEW","base":3000}],"obsTime":1777489200},"SBRF":{"icaoId":"SBRF","flightCategory":"VFR","rawOb":"METAR SBRF 291900Z 16011KT 9999 SCT025 28/24 Q1010","temp":28,"dewp":24,"wdir":160,"wspd":11,"visib":"6+","altim":1010,"clouds":[{"cover":"SCT","base":2500}],"obsTime":1777489200},"SBGR":{"icaoId":"SBGR","flightCategory":"MVFR","rawOb":"SPECI SBGR 291830Z 18011KT 7000 BKN011 OVC100 22/19 Q1016","temp":22,"dewp":19,"wdir":180,"wspd":11,"visib":4.35,"altim":1016,"clouds":[{"cover":"BKN","base":1100},{"cover":"OVC","base":10000}],"obsTime":1777487400},"SBCF":{"icaoId":"SBCF","flightCategory":"VFR","rawOb":"METAR SBCF 291900Z 05006KT 9999 SCT045 27/13 Q1017","temp":27,"dewp":13,"wdir":50,"wspd":6,"visib":"6+","altim":1017,"clouds":[{"cover":"SCT","base":4500}],"obsTime":1777489200},"SBSG":{"icaoId":"SBSG","flightCategory":"VFR","rawOb":"METAR SBSG 291900Z 13007KT 090V180 9999 FEW033 29/22 Q1009","temp":29,"dewp":22,"wdir":130,"wspd":7,"visib":"6+","altim":1009,"clouds":[{"cover":"FEW","base":3300}],"obsTime":1777489200},"SBCT":{"icaoId":"SBCT","flightCategory":"IFR","rawOb":"METAR SBCT 291900Z 06005KT 4000 RA BKN005 OVC050 16/16 Q1017","temp":16,"dewp":16,"wdir":60,"wspd":5,"visib":2.49,"altim":1017,"clouds":[{"cover":"BKN","base":500},{"cover":"OVC","base":5000}],"obsTime":1777489200},"SBSL":{"icaoId":"SBSL","flightCategory":"MVFR","rawOb":"METAR SBSL 291900Z 33005KT 9000 TSRA BKN018 FEW020CB 25/24 Q1008","temp":25,"dewp":24,"wdir":330,"wspd":5,"visib":5.59,"altim":1008,"clouds":[{"cover":"BKN","base":1800},{"cover":"FEW","base":2000}],"obsTime":1777489200},"SBBR":{"icaoId":"SBBR","flightCategory":"VFR","rawOb":"METAR SBBR 291900Z 09008KT 030V130 CAVOK 28/12 Q1016","temp":28,"dewp":12,"wdir":90,"wspd":8,"visib":"6+","altim":1016,"clouds":[],"obsTime":1777489200},"SBSN":{"icaoId":"SBSN","flightCategory":"VFR","rawOb":"METAR SBSN 291900Z 08009KT 9999 SCT025 FEW030TCU 30/25 Q1006","temp":30,"dewp":25,"wdir":80,"wspd":9,"visib":"6+","altim":1006,"clouds":[{"cover":"SCT","base":2500},{"cover":"FEW","base":3000}],"obsTime":1777489200},"SBSP":{"icaoId":"SBSP","flightCategory":"IFR","rawOb":"METAR SBSP 291900Z 18013KT 9999 BKN009 SCT040 20/17 Q1018","temp":20,"dewp":17,"wdir":180,"wspd":13,"visib":"6+","altim":1018,"clouds":[{"cover":"BKN","base":900},{"cover":"SCT","base":4000}],"obsTime":1777489200},"SBEG":{"icaoId":"SBEG","flightCategory":"MVFR","rawOb":"SPECI SBEG 291840Z 36006KT 8000 3500E +SHRA BKN030 FEW040TCU BKN100 26/24 Q1008","temp":26,"dewp":24,"wdir":360,"wspd":6,"visib":4.97,"altim":1008,"clouds":[{"cover":"BKN","base":3000},{"cover":"FEW","base":4000},{"cover":"BKN","base":10000}],"obsTime":1777488000},"SBKP":{"icaoId":"SBKP","flightCategory":"VFR","rawOb":"METAR SBKP 291900Z 23005KT 190V270 9999 FEW040 29/21 Q1015","temp":29,"dewp":21,"wdir":230,"wspd":5,"visib":"6+","altim":1015,"clouds":[{"cover":"FEW","base":4000}],"obsTime":1777489200},"SBSV":{"icaoId":"SBSV","flightCategory":"VFR","rawOb":"METAR SBSV 291900Z 11009KT 080V140 CAVOK 30/21 Q1012","temp":30,"dewp":21,"wdir":110,"wspd":9,"visib":"6+","altim":1012,"clouds":[],"obsTime":1777489200},"SBCZ":{"icaoId":"SBCZ","flightCategory":"MVFR","rawOb":"METAR SBCZ 291900Z 12006KT 9999 BKN030 30/23 Q1009","temp":30,"dewp":23,"wdir":120,"wspd":6,"visib":"6+","altim":1009,"clouds":[{"cover":"BKN","base":3000}],"obsTime":1777489200},"SBHT":{"icaoId":"SBHT","flightCategory":"VFR","rawOb":"METAR SBHT 291900Z 12006KT 9999 SCT030 33/23 Q1007","temp":33,"dewp":23,"wdir":120,"wspd":6,"visib":"6+","altim":1007,"clouds":[{"cover":"SCT","base":3000}],"obsTime":1777489200},"SBIL":{"icaoId":"SBIL","flightCategory":"VFR","rawOb":"METAR SBIL 291900Z 16007KT 120V200 9999 FEW020 30/24 Q1014","temp":30,"dewp":24,"wdir":160,"wspd":7,"visib":"6+","altim":1014,"clouds":[{"cover":"FEW","base":2000}],"obsTime":1777489200},"SBJU":{"icaoId":"SBJU","flightCategory":"VFR","rawOb":"METAR SBJU 291900Z 10008KT 9999 SCT022 31/21 Q1010","temp":31,"dewp":21,"wdir":100,"wspd":8,"visib":"6+","altim":1010,"clouds":[{"cover":"SCT","base":2200}],"obsTime":1777489200},"SBME":{"icaoId":"SBME","flightCategory":"VFR","rawOb":"METAR SBME 291900Z 02009KT CAVOK 34/18 Q1010","temp":34,"dewp":18,"wdir":20,"wspd":9,"visib":"6+","altim":1010,"clouds":[],"obsTime":1777489200},"SBMG":{"icaoId":"SBMG","flightCategory":"VFR","rawOb":"METAR SBMG 291900Z 36011KT 9999 SCT030 BKN100 27/23 Q1011","temp":27,"dewp":23,"wdir":360,"wspd":11,"visib":"6+","altim":1011,"clouds":[{"cover":"SCT","base":3000},{"cover":"BKN","base":10000}],"obsTime":1777489200},"SBMK":{"icaoId":"SBMK","flightCategory":"VFR","rawOb":"METAR SBMK 291900Z 09010KT 9999 FEW034 29/15 Q1015","temp":29,"dewp":15,"wdir":90,"wspd":10,"visib":"6+","altim":1015,"clouds":[{"cover":"FEW","base":3400}],"obsTime":1777489200},"SBNT":{"icaoId":"SBNT","flightCategory":"VFR","rawOb":"METAR SBNT 291900Z 15015KT 120V180 9999 FEW033 30/23 Q1009","temp":30,"dewp":23,"wdir":150,"wspd":15,"visib":"6+","altim":1009,"clouds":[{"cover":"FEW","base":3300}],"obsTime":1777489200},"SBUR":{"icaoId":"SBUR","flightCategory":"VFR","rawOb":"METAR SBUR 291900Z 04005KT 9999 FEW049 31/15 Q1015","temp":31,"dewp":15,"wdir":40,"wspd":5,"visib":"6+","altim":1015,"clouds":[{"cover":"FEW","base":4900}],"obsTime":1777489200},"SBAT":{"icaoId":"SBAT","flightCategory":"VFR","rawOb":"METAR SBAT 291900Z 05002KT 9999 SCT035 33/24 Q1008","temp":33,"dewp":24,"wdir":50,"wspd":2,"visib":"6+","altim":1008,"clouds":[{"cover":"SCT","base":3500}],"obsTime":1777489200},"SBUL":{"icaoId":"SBUL","flightCategory":"VFR","rawOb":"METAR SBUL 291900Z 12007KT 9999 FEW045 28/14 Q1017","temp":28,"dewp":14,"wdir":120,"wspd":7,"visib":"6+","altim":1017,"clouds":[{"cover":"FEW","base":4500}],"obsTime":1777489200},"SBCJ":{"icaoId":"SBCJ","flightCategory":"VFR","rawOb":"METAR SBCJ 291900Z 15005KT 9999 SCT018 28/22 Q1012","temp":28,"dewp":22,"wdir":150,"wspd":5,"visib":"6+","altim":1012,"clouds":[{"cover":"SCT","base":1800}],"obsTime":1777489200},"SBPL":{"icaoId":"SBPL","flightCategory":"VFR","rawOb":"METAR SBPL 291900Z 12007KT 9999 FEW030 31/20 Q1011","temp":31,"dewp":20,"wdir":120,"wspd":7,"visib":"6+","altim":1011,"clouds":[{"cover":"FEW","base":3000}],"obsTime":1777489200},"SBSJ":{"icaoId":"SBSJ","flightCategory":"VFR","rawOb":"METAR SBSJ 291900Z 20003KT 170V230 9999 FEW035 BKN080 28/21 Q1015","temp":28,"dewp":21,"wdir":200,"wspd":3,"visib":"6+","altim":1015,"clouds":[{"cover":"FEW","base":3500},{"cover":"BKN","base":8000}],"obsTime":1777489200},"SBAR":{"icaoId":"SBAR","flightCategory":"VFR","rawOb":"METAR SBAR 291900Z 14010KT 9999 SCT029 29/22 Q1011","temp":29,"dewp":22,"wdir":140,"wspd":10,"visib":"6+","altim":1011,"clouds":[{"cover":"SCT","base":2900}],"obsTime":1777489200},"SBOI":{"icaoId":"SBOI","flightCategory":"VFR","rawOb":"METAR SBOI 292000Z AUTO VRB02KT 9999 FEW023 BKN031 BKN044 27/25 Q1008","temp":27,"dewp":25,"wdir":"VRB","wspd":2,"visib":"6+","altim":1008,"clouds":[{"cover":"FEW","base":2300},{"cover":"BKN","base":3100},{"cover":"BKN","base":4400}],"obsTime":1777492800},"SBTF":{"icaoId":"SBTF","flightCategory":"VFR","rawOb":"METAR SBTF 291900Z 36003KT 9999 FEW016 29/25 Q1008","temp":29,"dewp":25,"wdir":360,"wspd":3,"visib":"6+","altim":1008,"clouds":[{"cover":"FEW","base":1600}],"obsTime":1777489200},"SBPP":{"icaoId":"SBPP","flightCategory":"MVFR","rawOb":"METAR SBPP 291900Z 28009KT 9999 BKN020 26/22 Q1013","temp":26,"dewp":22,"wdir":280,"wspd":9,"visib":"6+","altim":1013,"clouds":[{"cover":"BKN","base":2000}],"obsTime":1777489200},"SBPS":{"icaoId":"SBPS","flightCategory":"VFR","rawOb":"METAR SBPS 291900Z 07007KT 9999 SCT020 28/23 Q1014","temp":28,"dewp":23,"wdir":70,"wspd":7,"visib":"6+","altim":1014,"clouds":[{"cover":"SCT","base":2000}],"obsTime":1777489200},"SBTT":{"icaoId":"SBTT","flightCategory":"VFR","rawOb":"METAR SBTT 291900Z 02003KT 9999 SCT015 30/23 Q1009","temp":30,"dewp":23,"wdir":20,"wspd":3,"visib":"6+","altim":1009,"clouds":[{"cover":"SCT","base":1500}],"obsTime":1777489200},"SBPB":{"icaoId":"SBPB","flightCategory":"VFR","rawOb":"METAR SBPB 291900Z 34006KT 9999 SCT016 FEW025TCU BKN080 30/25 Q1007","temp":30,"dewp":25,"wdir":340,"wspd":6,"visib":"6+","altim":1007,"clouds":[{"cover":"SCT","base":1600},{"cover":"FEW","base":2500},{"cover":"BKN","base":8000}],"obsTime":1777489200},"SBUY":{"icaoId":"SBUY","flightCategory":"VFR","rawOb":"METAR SBUY 291900Z 06003KT 9999 VCSH SCT025 FEW030TCU SCT100 28/25 Q1007","temp":28,"dewp":25,"wdir":60,"wspd":3,"visib":"6+","altim":1007,"clouds":[{"cover":"SCT","base":2500},{"cover":"FEW","base":3000},{"cover":"SCT","base":10000}],"obsTime":1777489200},"SBIP":{"icaoId":"SBIP","flightCategory":"VFR","rawOb":"METAR SBIP 291900Z AUTO 36004KT 320V030 CAVOK 30/18 Q1014","temp":30,"dewp":18,"wdir":360,"wspd":4,"visib":"6+","altim":1014,"clouds":[],"obsTime":1777489200},"SBKG":{"icaoId":"SBKG","flightCategory":"VFR","rawOb":"METAR SBKG 291900Z 10005KT 9999 FEW020 BKN070 25/21 Q1012","temp":25,"dewp":21,"wdir":100,"wspd":5,"visib":"6+","altim":1012,"clouds":[{"cover":"FEW","base":2000},{"cover":"BKN","base":7000}],"obsTime":1777489200},"SBSC":{"icaoId":"SBSC","flightCategory":"VFR","rawOb":"METAR SBSC 291900Z 21009KT 9999 FEW012 27/23 Q1012","temp":27,"dewp":23,"wdir":210,"wspd":9,"visib":"6+","altim":1012,"clouds":[{"cover":"FEW","base":1200}],"obsTime":1777489200},"SBSM":{"icaoId":"SBSM","flightCategory":"VFR","rawOb":"METAR SBSM 291900Z 11004KT 080V170 CAVOK 23/08 Q1013","temp":23,"dewp":8,"wdir":110,"wspd":4,"visib":"6+","altim":1013,"clouds":[],"obsTime":1777489200},"SBSR":{"icaoId":"SBSR","flightCategory":"VFR","rawOb":"METAR SBSR 291900Z VRB03KT 9999 FEW035 SCT045 32/14 Q1013","temp":32,"dewp":14,"wdir":"VRB","wspd":3,"visib":"6+","altim":1013,"clouds":[{"cover":"FEW","base":3500},{"cover":"SCT","base":4500}],"obsTime":1777489200},"SBVH":{"icaoId":"SBVH","flightCategory":"VFR","rawOb":"METAR SBVH 291900Z 23007KT 9999 TS SCT025 FEW030CB BKN078 23/22 Q1012","temp":23,"dewp":22,"wdir":230,"wspd":7,"visib":"6+","altim":1012,"clouds":[{"cover":"SCT","base":2500},{"cover":"FEW","base":3000},{"cover":"BKN","base":7800}],"obsTime":1777489200},"SBAX":{"icaoId":"SBAX","flightCategory":"VFR","rawOb":"METAR SBAX 291900Z 12005KT 9999 SCT035 29/14 Q1017","temp":29,"dewp":14,"wdir":120,"wspd":5,"visib":"6+","altim":1017,"clouds":[{"cover":"SCT","base":3500}],"obsTime":1777489200},"SBBH":{"icaoId":"SBBH","flightCategory":"VFR","rawOb":"METAR SBBH 291900Z 07004KT 9999 FEW045 27/14 Q1017","temp":27,"dewp":14,"wdir":70,"wspd":4,"visib":"6+","altim":1017,"clouds":[{"cover":"FEW","base":4500}],"obsTime":1777489200},"SBBQ":{"icaoId":"SBBQ","flightCategory":"VFR","rawOb":"METAR SBBQ 291900Z 08006KT 9999 FEW035 24/16 Q1020","temp":24,"dewp":16,"wdir":80,"wspd":6,"visib":"6+","altim":1020,"clouds":[{"cover":"FEW","base":3500}],"obsTime":1777489200},"SBBU":{"icaoId":"SBBU","flightCategory":"VFR","rawOb":"METAR SBBU 291900Z 32006KT 9999 FEW040 31/20 Q1013","temp":31,"dewp":20,"wdir":320,"wspd":6,"visib":"6+","altim":1013,"clouds":[{"cover":"FEW","base":4000}],"obsTime":1777489200},"SBCA":{"icaoId":"SBCA","flightCategory":"LIFR","rawOb":"METAR SBCA 291900Z 18003KT 1600 RA BR BCFG BKN002 BKN010 OVC070 18/18 Q1014","temp":18,"dewp":18,"wdir":180,"wspd":3,"visib":0.99,"altim":1014,"clouds":[{"cover":"BKN","base":200},{"cover":"BKN","base":1000},{"cover":"OVC","base":7000}],"obsTime":1777489200},"SBCC":{"icaoId":"SBCC","flightCategory":"VFR","rawOb":"METAR SBCC 291900Z 10009KT 9999 SCT030 FEW035TCU 29/21 Q1010","temp":29,"dewp":21,"wdir":100,"wspd":9,"visib":"6+","altim":1010,"clouds":[{"cover":"SCT","base":3000},{"cover":"FEW","base":3500}],"obsTime":1777489200},"SBCO":{"icaoId":"SBCO","flightCategory":"VFR","rawOb":"METAR SBCO 291900Z 13004KT 100V160 CAVOK 22/09 Q1013","temp":22,"dewp":9,"wdir":130,"wspd":4,"visib":"6+","altim":1013,"clouds":[],"obsTime":1777489200},"SBDN":{"icaoId":"SBDN","flightCategory":"VFR","rawOb":"METAR SBDN 291900Z 33004KT 9999 FEW040 FEW050TCU 31/22 Q1012","temp":31,"dewp":22,"wdir":330,"wspd":4,"visib":"6+","altim":1012,"clouds":[{"cover":"FEW","base":4000},{"cover":"FEW","base":5000}],"obsTime":1777489200},"SBES":{"icaoId":"SBES","flightCategory":"VFR","rawOb":"METAR SBES 291900Z 06010KT 300V090 9999 FEW025 30/// Q1011","temp":null,"dewp":null,"wdir":60,"wspd":10,"visib":"6+","altim":1011,"clouds":[{"cover":"FEW","base":2500}],"obsTime":1777489200},"SBGM":{"icaoId":"SBGM","flightCategory":"MVFR","rawOb":"METAR SBGM 291900Z VRB02KT 9999 BKN010 30/20 Q1009","temp":30,"dewp":20,"wdir":"VRB","wspd":2,"visib":"6+","altim":1009,"clouds":[{"cover":"BKN","base":1000}],"obsTime":1777489200},"SBJP":{"icaoId":"SBJP","flightCategory":"VFR","rawOb":"METAR SBJP 291900Z 12012KT 9999 FEW030 29/22 Q1010","temp":29,"dewp":22,"wdir":120,"wspd":12,"visib":"6+","altim":1010,"clouds":[{"cover":"FEW","base":3000}],"obsTime":1777489200},"SBJV":{"icaoId":"SBJV","flightCategory":"MVFR","rawOb":"METAR SBJV 291900Z 05004KT 010V110 8000 -RA SCT006 SCT020 BKN050 20/20 Q1013","temp":20,"dewp":20,"wdir":50,"wspd":4,"visib":4.97,"altim":1013,"clouds":[{"cover":"SCT","base":600},{"cover":"SCT","base":2000},{"cover":"BKN","base":5000}],"obsTime":1777489200},"SBAN":{"icaoId":"SBAN","flightCategory":"VFR","rawOb":"METAR SBAN 291900Z 17006KT 9999 FEW045 28/12 Q1017","temp":28,"dewp":12,"wdir":170,"wspd":6,"visib":"6+","altim":1017,"clouds":[{"cover":"FEW","base":4500}],"obsTime":1777489200},"SBLE":{"icaoId":"SBLE","flightCategory":"VFR","rawOb":"METAR SBLE 291900Z AUTO VRB02KT CAVOK 26/20 Q1015","temp":26,"dewp":20,"wdir":"VRB","wspd":2,"visib":"6+","altim":1015,"clouds":[],"obsTime":1777489200},"SBIH":{"icaoId":"SBIH","flightCategory":"VFR","rawOb":"METAR SBIH 291900Z 06007KT 9999 SCT020 FEW023TCU 30/25 Q1006","temp":30,"dewp":25,"wdir":60,"wspd":7,"visib":"6+","altim":1006,"clouds":[{"cover":"SCT","base":2000},{"cover":"FEW","base":2300}],"obsTime":1777489200},"SBAF":{"icaoId":"SBAF","flightCategory":"MVFR","rawOb":"METAR SBAF 291900Z 19011KT 8000 NSC 29/26 Q1011","temp":29,"dewp":26,"wdir":190,"wspd":11,"visib":4.97,"altim":1011,"clouds":[],"obsTime":1777489200},"SBGW":{"icaoId":"SBGW","flightCategory":"VFR","rawOb":"METAR SBGW 291900Z 17002KT 9999 FEW025 31/18 Q1014","temp":31,"dewp":18,"wdir":170,"wspd":2,"visib":"6+","altim":1014,"clouds":[{"cover":"FEW","base":2500}],"obsTime":1777489200},"SBJR":{"icaoId":"SBJR","flightCategory":"IFR","rawOb":"METAR SBJR 291900Z 20005KT 4000 HZ FEW010 29/24 Q1012","temp":29,"dewp":24,"wdir":200,"wspd":5,"visib":2.49,"altim":1012,"clouds":[{"cover":"FEW","base":1000}],"obsTime":1777489200},"SBLS":{"icaoId":"SBLS","flightCategory":"VFR","rawOb":"METAR SBLS 291900Z 12006KT 050V130 9999 SCT048 26/15 Q1017","temp":26,"dewp":15,"wdir":120,"wspd":6,"visib":"6+","altim":1017,"clouds":[{"cover":"SCT","base":4800}],"obsTime":1777489200},"SBMT":{"icaoId":"SBMT","flightCategory":"IFR","rawOb":"SPECI SBMT 291808Z 15011G22KT 100V200 4000 BR BKN009 BKN040 BKN100 22/20 Q1016","temp":22,"dewp":20,"wdir":150,"wspd":11,"visib":2.49,"altim":1016,"clouds":[{"cover":"BKN","base":900},{"cover":"BKN","base":4000},{"cover":"BKN","base":10000}],"obsTime":1777486080},"SBTA":{"icaoId":"SBTA","flightCategory":"VFR","rawOb":"METAR SBTA 291900Z 10004KT 9999 SCT035 SCT070 30/19 Q1013","temp":30,"dewp":19,"wdir":100,"wspd":4,"visib":"6+","altim":1013,"clouds":[{"cover":"SCT","base":3500},{"cover":"SCT","base":7000}],"obsTime":1777489200},"SBST":{"icaoId":"SBST","flightCategory":"MVFR","rawOb":"METAR SBST 291900Z /////KT 7000 -DZ BKN013 OVC020 ///// Q1015 REDZ","temp":null,"dewp":null,"wdir":null,"wspd":null,"visib":4.35,"altim":1015,"clouds":[{"cover":"BKN","base":1300},{"cover":"OVC","base":2000}],"obsTime":1777489200}}}