{"updated":1780797997,"count":62,"data":{"SBBE":{"icaoId":"SBBE","flightCategory":"VFR","rawOb":"METAR SBBE 070100Z 08005KT 9999 SCT015 BKN040 25/25 Q1013","temp":25,"dewp":25,"wdir":80,"wspd":5,"visib":"6+","altim":1013,"clouds":[{"cover":"SCT","base":1500},{"cover":"BKN","base":4000}],"obsTime":1780794000},"SBBR":{"icaoId":"SBBR","flightCategory":"VFR","rawOb":"METAR SBBR 070100Z 11006KT CAVOK 17/08 Q1021","temp":17,"dewp":8,"wdir":110,"wspd":6,"visib":"6+","altim":1021,"clouds":[],"obsTime":1780794000},"SBBV":{"icaoId":"SBBV","flightCategory":"MVFR","rawOb":"METAR SBBV 070100Z 22002KT 9999 BKN015 FEW030TCU BKN070 25/24 Q1013","temp":25,"dewp":24,"wdir":220,"wspd":2,"visib":"6+","altim":1013,"clouds":[{"cover":"BKN","base":1500},{"cover":"FEW","base":3000},{"cover":"BKN","base":7000}],"obsTime":1780794000},"SBCF":{"icaoId":"SBCF","flightCategory":"VFR","rawOb":"METAR SBCF 070100Z 09001KT CAVOK 15/10 Q1021","temp":15,"dewp":10,"wdir":90,"wspd":1,"visib":"6+","altim":1021,"clouds":[],"obsTime":1780794000},"SBCG":{"icaoId":"SBCG","flightCategory":"VFR","rawOb":"METAR SBCG 070100Z 11004KT CAVOK 19/12 Q1018","temp":19,"dewp":12,"wdir":110,"wspd":4,"visib":"6+","altim":1018,"clouds":[],"obsTime":1780794000},"SBCT":{"icaoId":"SBCT","flightCategory":"MVFR","rawOb":"METAR SBCT 070100Z 12003KT 8000 NSC 11/11 Q1021","temp":11,"dewp":11,"wdir":120,"wspd":3,"visib":4.97,"altim":1021,"clouds":[],"obsTime":1780794000},"SBEG":{"icaoId":"SBEG","flightCategory":"VFR","rawOb":"METAR SBEG 070100Z VRB01KT 9999 FEW020 SCT100 25/24 Q1013","temp":25,"dewp":24,"wdir":"VRB","wspd":1,"visib":"6+","altim":1013,"clouds":[{"cover":"FEW","base":2000},{"cover":"SCT","base":10000}],"obsTime":1780794000},"SBFI":{"icaoId":"SBFI","flightCategory":"VFR","rawOb":"METAR SBFI 070100Z 00000KT CAVOK 15/14 Q1017","temp":15,"dewp":14,"wdir":0,"wspd":0,"visib":"6+","altim":1017,"clouds":[],"obsTime":1780794000},"SBFL":{"icaoId":"SBFL","flightCategory":"VFR","rawOb":"METAR SBFL 070100Z VRB02KT CAVOK 19/14 Q1017","temp":19,"dewp":14,"wdir":"VRB","wspd":2,"visib":"6+","altim":1017,"clouds":[],"obsTime":1780794000},"SBFZ":{"icaoId":"SBFZ","flightCategory":"VFR","rawOb":"METAR SBFZ 070100Z 13003KT 090V180 CAVOK 27/24 Q1013","temp":27,"dewp":24,"wdir":130,"wspd":3,"visib":"6+","altim":1013,"clouds":[],"obsTime":1780794000},"SBGL":{"icaoId":"SBGL","flightCategory":"VFR","rawOb":"METAR SBGL 070100Z 10003KT CAVOK 18/15 Q1017","temp":18,"dewp":15,"wdir":100,"wspd":3,"visib":"6+","altim":1017,"clouds":[],"obsTime":1780794000},"SBGO":{"icaoId":"SBGO","flightCategory":"VFR","rawOb":"METAR SBGO 070100Z 13007KT CAVOK 17/11 Q1019","temp":17,"dewp":11,"wdir":130,"wspd":7,"visib":"6+","altim":1019,"clouds":[],"obsTime":1780794000},"SBGR":{"icaoId":"SBGR","flightCategory":"VFR","rawOb":"METAR SBGR 070100Z VRB02KT CAVOK 14/10 Q1020","temp":14,"dewp":10,"wdir":"VRB","wspd":2,"visib":"6+","altim":1020,"clouds":[],"obsTime":1780794000},"SBKP":{"icaoId":"SBKP","flightCategory":"VFR","rawOb":"METAR SBKP 070100Z 14006KT CAVOK 13/10 Q1020","temp":13,"dewp":10,"wdir":140,"wspd":6,"visib":"6+","altim":1020,"clouds":[],"obsTime":1780794000},"SBLO":{"icaoId":"SBLO","flightCategory":"VFR","rawOb":"METAR SBLO 070100Z 21002KT CAVOK 16/14 Q1019","temp":16,"dewp":14,"wdir":210,"wspd":2,"visib":"6+","altim":1019,"clouds":[],"obsTime":1780794000},"SBMA":{"icaoId":"SBMA","flightCategory":"VFR","rawOb":"METAR SBMA 070100Z 00000KT CAVOK 26/24 Q1013","temp":26,"dewp":24,"wdir":0,"wspd":0,"visib":"6+","altim":1013,"clouds":[],"obsTime":1780794000},"SBMO":{"icaoId":"SBMO","flightCategory":"VFR","rawOb":"METAR SBMO 070100Z 15004G15KT 9999 FEW027 BKN065 24/21 Q1016","temp":24,"dewp":21,"wdir":150,"wspd":4,"visib":"6+","altim":1016,"clouds":[{"cover":"FEW","base":2700},{"cover":"BKN","base":6500}],"obsTime":1780794000},"SBMQ":{"icaoId":"SBMQ","flightCategory":"VFR","rawOb":"METAR SBMQ 070100Z 01005KT 9999 FEW023 27/25 Q1013","temp":27,"dewp":25,"wdir":10,"wspd":5,"visib":"6+","altim":1013,"clouds":[{"cover":"FEW","base":2300}],"obsTime":1780794000},"SBNT":{"icaoId":"SBNT","flightCategory":"VFR","rawOb":"METAR SBNT 070100Z 19007KT 9999 VCSH FEW010 SCT017 24/23 Q1014","temp":24,"dewp":23,"wdir":190,"wspd":7,"visib":"6+","altim":1014,"clouds":[{"cover":"FEW","base":1000},{"cover":"SCT","base":1700}],"obsTime":1780794000},"SBPA":{"icaoId":"SBPA","flightCategory":"IFR","rawOb":"METAR SBPA 070100Z 11007KT 9999 FEW005 OVC007 16/15 Q1017","temp":16,"dewp":15,"wdir":110,"wspd":7,"visib":"6+","altim":1017,"clouds":[{"cover":"FEW","base":500},{"cover":"OVC","base":700}],"obsTime":1780794000},"SBPJ":{"icaoId":"SBPJ","flightCategory":"VFR","rawOb":"METAR SBPJ 070100Z 12005KT CAVOK 24/19 Q1015","temp":24,"dewp":19,"wdir":120,"wspd":5,"visib":"6+","altim":1015,"clouds":[],"obsTime":1780794000},"SBPV":{"icaoId":"SBPV","flightCategory":"VFR","rawOb":"METAR SBPV 070100Z 32002KT 9999 FEW030 25/23 Q1012","temp":25,"dewp":23,"wdir":320,"wspd":2,"visib":"6+","altim":1012,"clouds":[{"cover":"FEW","base":3000}],"obsTime":1780794000},"SBRB":{"icaoId":"SBRB","flightCategory":"VFR","rawOb":"METAR SBRB 070100Z 33002KT CAVOK 24/22 Q1013","temp":24,"dewp":22,"wdir":330,"wspd":2,"visib":"6+","altim":1013,"clouds":[],"obsTime":1780794000},"SBRF":{"icaoId":"SBRF","flightCategory":"MVFR","rawOb":"METAR SBRF 070100Z 18010KT 8000 VCSH BKN010 OVC050 24/23 Q1015","temp":24,"dewp":23,"wdir":180,"wspd":10,"visib":4.97,"altim":1015,"clouds":[{"cover":"BKN","base":1000},{"cover":"OVC","base":5000}],"obsTime":1780794000},"SBSG":{"icaoId":"SBSG","flightCategory":"MVFR","rawOb":"METAR SBSG 070100Z 19003KT 160V220 9999 VCSH SCT004 BKN020 FEW025TCU 24/23 Q1014","temp":24,"dewp":23,"wdir":190,"wspd":3,"visib":"6+","altim":1014,"clouds":[{"cover":"SCT","base":400},{"cover":"BKN","base":2000},{"cover":"FEW","base":2500}],"obsTime":1780794000},"SBSL":{"icaoId":"SBSL","flightCategory":"MVFR","rawOb":"METAR SBSL 070100Z 19004KT 6000 -RA FEW010 BKN020 FEW025TCU 25/25 Q1013","temp":25,"dewp":25,"wdir":190,"wspd":4,"visib":3.73,"altim":1013,"clouds":[{"cover":"FEW","base":1000},{"cover":"BKN","base":2000},{"cover":"FEW","base":2500}],"obsTime":1780794000},"SBSN":{"icaoId":"SBSN","flightCategory":"VFR","rawOb":"METAR SBSN 070100Z 18003KT 9999 FEW020 25/24 Q1012","temp":25,"dewp":24,"wdir":180,"wspd":3,"visib":"6+","altim":1012,"clouds":[{"cover":"FEW","base":2000}],"obsTime":1780794000},"SBSP":{"icaoId":"SBSP","flightCategory":"VFR","rawOb":"METAR SBSP 070100Z 25003KT CAVOK 16/11 Q1021","temp":16,"dewp":11,"wdir":250,"wspd":3,"visib":"6+","altim":1021,"clouds":[],"obsTime":1780794000},"SBSV":{"icaoId":"SBSV","flightCategory":"VFR","rawOb":"METAR SBSV 070100Z 18007KT 150V210 9999 SCT025 BKN040 BKN080 24/21 Q1017","temp":24,"dewp":21,"wdir":180,"wspd":7,"visib":"6+","altim":1017,"clouds":[{"cover":"SCT","base":2500},{"cover":"BKN","base":4000},{"cover":"BKN","base":8000}],"obsTime":1780794000},"SBTE":{"icaoId":"SBTE","flightCategory":"MVFR","rawOb":"METAR SBTE 070100Z 36001KT 9999 BKN025 BKN090 29/22 Q1012","temp":29,"dewp":22,"wdir":360,"wspd":1,"visib":"6+","altim":1012,"clouds":[{"cover":"BKN","base":2500},{"cover":"BKN","base":9000}],"obsTime":1780794000},"SBVT":{"icaoId":"SBVT","flightCategory":"VFR","rawOb":"METAR SBVT 070100Z 33002KT CAVOK 16/15 Q1018","temp":16,"dewp":15,"wdir":330,"wspd":2,"visib":"6+","altim":1018,"clouds":[],"obsTime":1780794000},"SBME":{"icaoId":"SBME","flightCategory":"VFR","rawOb":"METAR SBME 070100Z 01003KT CAVOK 16/15 Q1018","temp":16,"dewp":15,"wdir":10,"wspd":3,"visib":"6+","altim":1018,"clouds":[],"obsTime":1780794000},"SBMG":{"icaoId":"SBMG","flightCategory":"VFR","rawOb":"METAR SBMG 070100Z 11006KT CAVOK 17/12 Q1018","temp":17,"dewp":12,"wdir":110,"wspd":6,"visib":"6+","altim":1018,"clouds":[],"obsTime":1780794000},"SBMK":{"icaoId":"SBMK","flightCategory":"VFR","rawOb":"METAR SBMK 070100Z 21002KT CAVOK 16/11 Q1020","temp":16,"dewp":11,"wdir":210,"wspd":2,"visib":"6+","altim":1020,"clouds":[],"obsTime":1780794000},"SBCZ":{"icaoId":"SBCZ","flightCategory":"VFR","rawOb":"METAR SBCZ 070100Z 00000KT CAVOK 24/23 Q1012","temp":24,"dewp":23,"wdir":0,"wspd":0,"visib":"6+","altim":1012,"clouds":[],"obsTime":1780794000},"SBUL":{"icaoId":"SBUL","flightCategory":"VFR","rawOb":"METAR SBUL 070100Z 11004KT CAVOK 17/09 Q1021","temp":17,"dewp":9,"wdir":110,"wspd":4,"visib":"6+","altim":1021,"clouds":[],"obsTime":1780794000},"SBIL":{"icaoId":"SBIL","flightCategory":"VFR","rawOb":"METAR SBIL 070100Z 24005KT 9999 FEW020 BKN050 21/19 Q1019","temp":21,"dewp":19,"wdir":240,"wspd":5,"visib":"6+","altim":1019,"clouds":[{"cover":"FEW","base":2000},{"cover":"BKN","base":5000}],"obsTime":1780794000},"SBJU":{"icaoId":"SBJU","flightCategory":"MVFR","rawOb":"METAR SBJU 070100Z 00000KT 9999 BKN020 24/18 Q1017","temp":24,"dewp":18,"wdir":0,"wspd":0,"visib":"6+","altim":1017,"clouds":[{"cover":"BKN","base":2000}],"obsTime":1780794000},"SBUR":{"icaoId":"SBUR","flightCategory":"VFR","rawOb":"METAR SBUR 070100Z 07003KT CAVOK 18/08 Q1020","temp":18,"dewp":8,"wdir":70,"wspd":3,"visib":"6+","altim":1020,"clouds":[],"obsTime":1780794000},"SBSJ":{"icaoId":"SBSJ","flightCategory":"VFR","rawOb":"METAR SBSJ 070100Z 21002KT CAVOK 13/11 Q1020","temp":13,"dewp":11,"wdir":210,"wspd":2,"visib":"6+","altim":1020,"clouds":[],"obsTime":1780794000},"SBPL":{"icaoId":"SBPL","flightCategory":"VFR","rawOb":"METAR SBPL 070100Z 11008KT 9999 FEW025 SCT070 25/18 Q1017","temp":25,"dewp":18,"wdir":110,"wspd":8,"visib":"6+","altim":1017,"clouds":[{"cover":"FEW","base":2500},{"cover":"SCT","base":7000}],"obsTime":1780794000},"SBPS":{"icaoId":"SBPS","flightCategory":"VFR","rawOb":"METAR SBPS 070100Z 26004KT 9999 SCT025 SCT070 20/18 Q1018","temp":20,"dewp":18,"wdir":260,"wspd":4,"visib":"6+","altim":1018,"clouds":[{"cover":"SCT","base":2500},{"cover":"SCT","base":7000}],"obsTime":1780794000},"SBAR":{"icaoId":"SBAR","flightCategory":"VFR","rawOb":"METAR SBAR 070100Z 15008KT 9999 SCT030 BKN080 26/20 Q1016","temp":26,"dewp":20,"wdir":150,"wspd":8,"visib":"6+","altim":1016,"clouds":[{"cover":"SCT","base":3000},{"cover":"BKN","base":8000}],"obsTime":1780794000},"SBBU":{"icaoId":"SBBU","flightCategory":"VFR","rawOb":"METAR SBBU 070100Z 11002KT CAVOK 19/13 Q1020","temp":19,"dewp":13,"wdir":110,"wspd":2,"visib":"6+","altim":1020,"clouds":[],"obsTime":1780794000},"SBCO":{"icaoId":"SBCO","flightCategory":"IFR","rawOb":"METAR SBCO 070100Z 15004KT 8000 OVC005 16/15 Q1018","temp":16,"dewp":15,"wdir":150,"wspd":4,"visib":4.97,"altim":1018,"clouds":[{"cover":"OVC","base":500}],"obsTime":1780794000},"SBDN":{"icaoId":"SBDN","flightCategory":"VFR","rawOb":"METAR SBDN 070100Z 11006KT CAVOK 17/12 Q1018","temp":17,"dewp":12,"wdir":110,"wspd":6,"visib":"6+","altim":1018,"clouds":[],"obsTime":1780794000},"SBIP":{"icaoId":"SBIP","flightCategory":"VFR","rawOb":"METAR SBIP 070100Z AUTO 18003KT CAVOK 14/14 Q1019","temp":14,"dewp":14,"wdir":180,"wspd":3,"visib":"6+","altim":1019,"clouds":[],"obsTime":1780794000},"SBKG":{"icaoId":"SBKG","flightCategory":"IFR","rawOb":"METAR SBKG 070100Z 14004KT 5000 BR SCT004 BKN007 21/21 Q1017","temp":21,"dewp":21,"wdir":140,"wspd":4,"visib":3.11,"altim":1017,"clouds":[{"cover":"SCT","base":400},{"cover":"BKN","base":700}],"obsTime":1780794000},"SBOI":{"icaoId":"SBOI","flightCategory":"VFR","rawOb":"METAR SBOI 070100Z AUTO VRB01KT CAVOK 25/25 Q1013","temp":25,"dewp":25,"wdir":"VRB","wspd":1,"visib":"6+","altim":1013,"clouds":[],"obsTime":1780794000},"SBSC":{"icaoId":"SBSC","flightCategory":"VFR","rawOb":"METAR SBSC 070100Z 05004KT CAVOK 15/14 Q1017","temp":15,"dewp":14,"wdir":50,"wspd":4,"visib":"6+","altim":1017,"clouds":[],"obsTime":1780794000},"SBSM":{"icaoId":"SBSM","flightCategory":"VFR","rawOb":"METAR SBSM 070100Z VRB01KT CAVOK 17/17 Q1016","temp":17,"dewp":17,"wdir":"VRB","wspd":1,"visib":"6+","altim":1016,"clouds":[],"obsTime":1780794000},"SBSR":{"icaoId":"SBSR","flightCategory":"VFR","rawOb":"METAR SBSR 070100Z 17001KT CAVOK 19/10 Q1019","temp":19,"dewp":10,"wdir":170,"wspd":1,"visib":"6+","altim":1019,"clouds":[],"obsTime":1780794000},"SBTU":{"icaoId":"SBTU","flightCategory":"VFR","rawOb":"METAR SBTU 070100Z AUTO 25003KT 9999 // BKN080/// ///// Q1014","temp":null,"dewp":null,"wdir":250,"wspd":3,"visib":"6+","altim":1014,"clouds":[{"cover":"BKN","base":8000}],"obsTime":1780794000},"SBAX":{"icaoId":"SBAX","flightCategory":"VFR","rawOb":"METAR SBAX 070100Z AUTO 14010KT CAVOK 15/08 Q1021","temp":15,"dewp":8,"wdir":140,"wspd":10,"visib":"6+","altim":1021,"clouds":[],"obsTime":1780794000},"SBBH":{"icaoId":"SBBH","flightCategory":"VFR","rawOb":"METAR SBBH 070100Z 00000KT CAVOK 13/12 Q1021","temp":13,"dewp":12,"wdir":0,"wspd":0,"visib":"6+","altim":1021,"clouds":[],"obsTime":1780794000},"SBJP":{"icaoId":"SBJP","flightCategory":"MVFR","rawOb":"METAR SBJP 070100Z 16008KT 9999 SCT011 BKN018 24/24 Q1015","temp":24,"dewp":24,"wdir":160,"wspd":8,"visib":"6+","altim":1015,"clouds":[{"cover":"SCT","base":1100},{"cover":"BKN","base":1800}],"obsTime":1780794000},"SBJV":{"icaoId":"SBJV","flightCategory":"VFR","rawOb":"METAR SBJV 070100Z 34001KT CAVOK 16/15 Q1017","temp":16,"dewp":15,"wdir":340,"wspd":1,"visib":"6+","altim":1017,"clouds":[],"obsTime":1780794000},"SBNM":{"icaoId":"SBNM","flightCategory":"VFR","rawOb":"METAR SBNM 070100Z AUTO 02004KT CAVOK 19/16 Q1017","temp":19,"dewp":16,"wdir":20,"wspd":4,"visib":"6+","altim":1017,"clouds":[],"obsTime":1780794000},"SBLE":{"icaoId":"SBLE","flightCategory":"VFR","rawOb":"METAR SBLE 070100Z AUTO 28003KT 260V330 CAVOK 19/19 Q1019","temp":19,"dewp":19,"wdir":280,"wspd":3,"visib":"6+","altim":1019,"clouds":[],"obsTime":1780794000},"SBAN":{"icaoId":"SBAN","flightCategory":"VFR","rawOb":"METAR SBAN 070100Z 09004KT CAVOK 16/07 Q1021","temp":16,"dewp":7,"wdir":90,"wspd":4,"visib":"6+","altim":1021,"clouds":[],"obsTime":1780794000},"SBLS":{"icaoId":"SBLS","flightCategory":"VFR","rawOb":"METAR SBLS 070100Z 14003KT 040V150 CAVOK 15/10 Q1021","temp":15,"dewp":10,"wdir":140,"wspd":3,"visib":"6+","altim":1021,"clouds":[],"obsTime":1780794000},"SBMT":{"icaoId":"SBMT","flightCategory":"VFR","rawOb":"METAR SBMT 070100Z 00000KT CAVOK 09/07 Q1021","temp":9,"dewp":7,"wdir":0,"wspd":0,"visib":"6+","altim":1021,"clouds":[],"obsTime":1780794000}}}