{"updated":1775562174,"count":80,"data":{"SBTE":{"icaoId":"SBTE","flightCategory":"LIFR","rawOb":"METAR SBTE 071000Z 00000KT 0500 FG VV002 24/24 Q1012","temp":24,"dewp":24,"wdir":0,"wspd":0,"visib":0.31,"altim":1012,"clouds":[{"cover":"OVX","base":200}],"obsTime":1775556000},"SBRF":{"icaoId":"SBRF","flightCategory":"MVFR","rawOb":"METAR SBRF 071000Z 19002KT 5000 -RA BR SCT013 BKN018 FEW021TCU OVC060 25/24 Q1014","temp":25,"dewp":24,"wdir":190,"wspd":2,"visib":3.11,"altim":1014,"clouds":[{"cover":"SCT","base":1300},{"cover":"BKN","base":1800},{"cover":"FEW","base":2100},{"cover":"OVC","base":6000}],"obsTime":1775556000},"SBBR":{"icaoId":"SBBR","flightCategory":"VFR","rawOb":"METAR SBBR 071000Z 21003KT CAVOK 20/18 Q1021","temp":20,"dewp":18,"wdir":210,"wspd":3,"visib":"6+","altim":1021,"clouds":[],"obsTime":1775556000},"SBBV":{"icaoId":"SBBV","flightCategory":"VFR","rawOb":"METAR SBBV 071000Z 10010KT CAVOK 26/22 Q1012","temp":26,"dewp":22,"wdir":100,"wspd":10,"visib":"6+","altim":1012,"clouds":[],"obsTime":1775556000},"SBSV":{"icaoId":"SBSV","flightCategory":"VFR","rawOb":"METAR SBSV 071000Z 10006KT 070V130 9999 SCT021 28/23 Q1015","temp":28,"dewp":23,"wdir":100,"wspd":6,"visib":"6+","altim":1015,"clouds":[{"cover":"SCT","base":2100}],"obsTime":1775556000},"SBBE":{"icaoId":"SBBE","flightCategory":"VFR","rawOb":"METAR SBBE 071000Z 09003KT CAVOK 25/25 Q1012","temp":25,"dewp":25,"wdir":90,"wspd":3,"visib":"6+","altim":1012,"clouds":[],"obsTime":1775556000},"SBCB":{"icaoId":"SBCB","flightCategory":"VFR","rawOb":"METAR SBCB 071000Z 06006KT 9999 FEW020 24/22 Q1017","temp":24,"dewp":22,"wdir":60,"wspd":6,"visib":"6+","altim":1017,"clouds":[{"cover":"FEW","base":2000}],"obsTime":1775556000},"SBCF":{"icaoId":"SBCF","flightCategory":"VFR","rawOb":"METAR SBCF 071000Z VRB01KT 9999 FEW025 20/18 Q1021","temp":20,"dewp":18,"wdir":"VRB","wspd":1,"visib":"6+","altim":1021,"clouds":[{"cover":"FEW","base":2500}],"obsTime":1775556000},"SBCG":{"icaoId":"SBCG","flightCategory":"VFR","rawOb":"METAR SBCG 071000Z 36004KT CAVOK 23/20 Q1015","temp":23,"dewp":20,"wdir":360,"wspd":4,"visib":"6+","altim":1015,"clouds":[],"obsTime":1775556000},"SBCP":{"icaoId":"SBCP","flightCategory":"VFR","rawOb":"METAR SBCP 071000Z 00000KT 9999 SCT020 24/24 Q1018","temp":24,"dewp":24,"wdir":0,"wspd":0,"visib":"6+","altim":1018,"clouds":[{"cover":"SCT","base":2000}],"obsTime":1775556000},"SBCR":{"icaoId":"SBCR","flightCategory":"VFR","rawOb":"METAR SBCR 071100Z VRB01KT 9999 FEW020 BKN100 26/22 Q1013","temp":26,"dewp":22,"wdir":"VRB","wspd":1,"visib":"6+","altim":1013,"clouds":[{"cover":"FEW","base":2000},{"cover":"BKN","base":10000}],"obsTime":1775559600},"SBCT":{"icaoId":"SBCT","flightCategory":"VFR","rawOb":"METAR SBCT 071000Z 00000KT CAVOK 19/18 Q1019","temp":19,"dewp":18,"wdir":0,"wspd":0,"visib":"6+","altim":1019,"clouds":[],"obsTime":1775556000},"SBEG":{"icaoId":"SBEG","flightCategory":"VFR","rawOb":"METAR SBEG 071000Z 06004KT CAVOK 24/24 Q1011","temp":24,"dewp":24,"wdir":60,"wspd":4,"visib":"6+","altim":1011,"clouds":[],"obsTime":1775556000},"SBFI":{"icaoId":"SBFI","flightCategory":"VFR","rawOb":"METAR SBFI 071000Z 04008KT 9999 FEW030 BKN100 25/22 Q1011","temp":25,"dewp":22,"wdir":40,"wspd":8,"visib":"6+","altim":1011,"clouds":[{"cover":"FEW","base":3000},{"cover":"BKN","base":10000}],"obsTime":1775556000},"SBFL":{"icaoId":"SBFL","flightCategory":"MVFR","rawOb":"METAR SBFL 071000Z 16003KT 8000 -RA FEW004 SCT043 BKN053 23/22 Q1016 RETS","temp":23,"dewp":22,"wdir":160,"wspd":3,"visib":4.97,"altim":1016,"clouds":[{"cover":"FEW","base":400},{"cover":"SCT","base":4300},{"cover":"BKN","base":5300}],"obsTime":1775556000},"SBFZ":{"icaoId":"SBFZ","flightCategory":"VFR","rawOb":"METAR SBFZ 071000Z 19002KT 9999 FEW020 BKN100 25/23 Q1012","temp":25,"dewp":23,"wdir":190,"wspd":2,"visib":"6+","altim":1012,"clouds":[{"cover":"FEW","base":2000},{"cover":"BKN","base":10000}],"obsTime":1775556000},"SBGL":{"icaoId":"SBGL","flightCategory":"VFR","rawOb":"METAR SBGL 071000Z 11003KT 9999 FEW019 24/22 Q1016","temp":24,"dewp":22,"wdir":110,"wspd":3,"visib":"6+","altim":1016,"clouds":[{"cover":"FEW","base":1900}],"obsTime":1775556000},"SBGO":{"icaoId":"SBGO","flightCategory":"MVFR","rawOb":"METAR SBGO 071000Z 02004KT 350V050 8000 FEW040 SCT100 22/20 Q1019","temp":22,"dewp":20,"wdir":20,"wspd":4,"visib":4.97,"altim":1019,"clouds":[{"cover":"FEW","base":4000},{"cover":"SCT","base":10000}],"obsTime":1775556000},"SBGR":{"icaoId":"SBGR","flightCategory":"VFR","rawOb":"METAR SBGR 071000Z 06005KT CAVOK 22/20 Q1020","temp":22,"dewp":20,"wdir":60,"wspd":5,"visib":"6+","altim":1020,"clouds":[],"obsTime":1775556000},"SBHT":{"icaoId":"SBHT","flightCategory":"VFR","rawOb":"METAR SBHT 071000Z 00000KT 9999 FEW010 BKN080 24/24 Q1011","temp":24,"dewp":24,"wdir":0,"wspd":0,"visib":"6+","altim":1011,"clouds":[{"cover":"FEW","base":1000},{"cover":"BKN","base":8000}],"obsTime":1775556000},"SBIL":{"icaoId":"SBIL","flightCategory":"VFR","rawOb":"METAR SBIL 071000Z 27006KT 9999 SCT020 25/24 Q1016","temp":25,"dewp":24,"wdir":270,"wspd":6,"visib":"6+","altim":1016,"clouds":[{"cover":"SCT","base":2000}],"obsTime":1775556000},"SBJU":{"icaoId":"SBJU","flightCategory":"VFR","rawOb":"METAR SBJU 071000Z 00000KT 9999 FEW020 24/23 Q1015","temp":24,"dewp":23,"wdir":0,"wspd":0,"visib":"6+","altim":1015,"clouds":[{"cover":"FEW","base":2000}],"obsTime":1775556000},"SBKP":{"icaoId":"SBKP","flightCategory":"VFR","rawOb":"METAR SBKP 071000Z 11002KT 9999 FEW040 SCT080 21/20 Q1019","temp":21,"dewp":20,"wdir":110,"wspd":2,"visib":"6+","altim":1019,"clouds":[{"cover":"FEW","base":4000},{"cover":"SCT","base":8000}],"obsTime":1775556000},"SBLO":{"icaoId":"SBLO","flightCategory":"VFR","rawOb":"METAR SBLO 071000Z 14003KT 9999 FEW008 21/20 Q1017","temp":21,"dewp":20,"wdir":140,"wspd":3,"visib":"6+","altim":1017,"clouds":[{"cover":"FEW","base":800}],"obsTime":1775556000},"SBMA":{"icaoId":"SBMA","flightCategory":"VFR","rawOb":"METAR SBMA 071000Z 00000KT 9999 FEW008 25/24 Q1012","temp":25,"dewp":24,"wdir":0,"wspd":0,"visib":"6+","altim":1012,"clouds":[{"cover":"FEW","base":800}],"obsTime":1775556000},"SBME":{"icaoId":"SBME","flightCategory":"VFR","rawOb":"METAR SBME 071000Z 03002KT 9999 FEW030 23/22 Q1017","temp":23,"dewp":22,"wdir":30,"wspd":2,"visib":"6+","altim":1017,"clouds":[{"cover":"FEW","base":3000}],"obsTime":1775556000},"SBMG":{"icaoId":"SBMG","flightCategory":"VFR","rawOb":"METAR SBMG 071000Z 03014KT CAVOK 22/20 Q1015","temp":22,"dewp":20,"wdir":30,"wspd":14,"visib":"6+","altim":1015,"clouds":[],"obsTime":1775556000},"SBMK":{"icaoId":"SBMK","flightCategory":"VFR","rawOb":"METAR SBMK 071000Z 00000KT CAVOK 21/19 Q1019","temp":21,"dewp":19,"wdir":0,"wspd":0,"visib":"6+","altim":1019,"clouds":[],"obsTime":1775556000},"SBMO":{"icaoId":"SBMO","flightCategory":"IFR","rawOb":"METAR SBMO 071000Z 05005KT 4500 -RA BKN019 BKN070 23/23 Q1016","temp":23,"dewp":23,"wdir":50,"wspd":5,"visib":2.8,"altim":1016,"clouds":[{"cover":"BKN","base":1900},{"cover":"BKN","base":7000}],"obsTime":1775556000},"SBMQ":{"icaoId":"SBMQ","flightCategory":"VFR","rawOb":"METAR SBMQ 071000Z 01005KT 9999 SCT013 27/25 Q1011","temp":27,"dewp":25,"wdir":10,"wspd":5,"visib":"6+","altim":1011,"clouds":[{"cover":"SCT","base":1300}],"obsTime":1775556000},"SBNT":{"icaoId":"SBNT","flightCategory":"MVFR","rawOb":"METAR SBNT 071000Z 17008KT 8000 -RA SCT027 FEW030TCU BKN050 BKN100 24/23 Q1014","temp":24,"dewp":23,"wdir":170,"wspd":8,"visib":4.97,"altim":1014,"clouds":[{"cover":"SCT","base":2700},{"cover":"FEW","base":3000},{"cover":"BKN","base":5000},{"cover":"BKN","base":10000}],"obsTime":1775556000},"SBPA":{"icaoId":"SBPA","flightCategory":"VFR","rawOb":"METAR SBPA 071000Z 09009KT 9999 SCT040 BKN100 23/21 Q1010","temp":23,"dewp":21,"wdir":90,"wspd":9,"visib":"6+","altim":1010,"clouds":[{"cover":"SCT","base":4000},{"cover":"BKN","base":10000}],"obsTime":1775556000},"SBPJ":{"icaoId":"SBPJ","flightCategory":"VFR","rawOb":"METAR SBPJ 071000Z 10003KT 9999 FEW014 SCT100 24/23 Q1014","temp":24,"dewp":23,"wdir":100,"wspd":3,"visib":"6+","altim":1014,"clouds":[{"cover":"FEW","base":1400},{"cover":"SCT","base":10000}],"obsTime":1775556000},"SBPV":{"icaoId":"SBPV","flightCategory":"MVFR","rawOb":"METAR SBPV 071000Z 00000KT 9999 BKN030 BKN070 24/23 Q1011","temp":24,"dewp":23,"wdir":0,"wspd":0,"visib":"6+","altim":1011,"clouds":[{"cover":"BKN","base":3000},{"cover":"BKN","base":7000}],"obsTime":1775556000},"SBRB":{"icaoId":"SBRB","flightCategory":"VFR","rawOb":"METAR SBRB 071100Z 00000KT 9999 FEW011 SCT080 22/22 Q1012","temp":22,"dewp":22,"wdir":0,"wspd":0,"visib":"6+","altim":1012,"clouds":[{"cover":"FEW","base":1100},{"cover":"SCT","base":8000}],"obsTime":1775559600},"SBSG":{"icaoId":"SBSG","flightCategory":"MVFR","rawOb":"METAR SBSG 071000Z 16005KT 130V190 8000 -RA BKN013 SCT023 FEW026TCU 24/23 Q1014","temp":24,"dewp":23,"wdir":160,"wspd":5,"visib":4.97,"altim":1014,"clouds":[{"cover":"BKN","base":1300},{"cover":"SCT","base":2300},{"cover":"FEW","base":2600}],"obsTime":1775556000},"SBSL":{"icaoId":"SBSL","flightCategory":"VFR","rawOb":"METAR SBSL 071000Z 13003KT CAVOK 26/25 Q1011","temp":26,"dewp":25,"wdir":130,"wspd":3,"visib":"6+","altim":1011,"clouds":[],"obsTime":1775556000},"SBSN":{"icaoId":"SBSN","flightCategory":"VFR","rawOb":"METAR SBSN 071000Z 12005KT 9999 SCT009 BKN100 25/24 Q1011","temp":25,"dewp":24,"wdir":120,"wspd":5,"visib":"6+","altim":1011,"clouds":[{"cover":"SCT","base":900},{"cover":"BKN","base":10000}],"obsTime":1775556000},"SBSP":{"icaoId":"SBSP","flightCategory":"VFR","rawOb":"METAR SBSP 071000Z 03005KT 360V060 9999 FEW011 BKN100 22/20 Q1020","temp":22,"dewp":20,"wdir":30,"wspd":5,"visib":"6+","altim":1020,"clouds":[{"cover":"FEW","base":1100},{"cover":"BKN","base":10000}],"obsTime":1775556000},"SBAT":{"icaoId":"SBAT","flightCategory":"VFR","rawOb":"METAR SBAT 071100Z 00000KT CAVOK 27/25 Q1014","temp":27,"dewp":25,"wdir":0,"wspd":0,"visib":"6+","altim":1014,"clouds":[],"obsTime":1775559600},"SBUL":{"icaoId":"SBUL","flightCategory":"VFR","rawOb":"METAR SBUL 071000Z 16007KT CAVOK 20/18 Q1020","temp":20,"dewp":18,"wdir":160,"wspd":7,"visib":"6+","altim":1020,"clouds":[],"obsTime":1775556000},"SBUR":{"icaoId":"SBUR","flightCategory":"VFR","rawOb":"METAR SBUR 071000Z 12006KT 9999 FEW002 20/19 Q1019","temp":20,"dewp":19,"wdir":120,"wspd":6,"visib":"6+","altim":1019,"clouds":[{"cover":"FEW","base":200}],"obsTime":1775556000},"SBVT":{"icaoId":"SBVT","flightCategory":"VFR","rawOb":"METAR SBVT 071000Z 31002KT 9999 SCT020 BKN048 23/22 Q1017","temp":23,"dewp":22,"wdir":310,"wspd":2,"visib":"6+","altim":1017,"clouds":[{"cover":"SCT","base":2000},{"cover":"BKN","base":4800}],"obsTime":1775556000},"SBTF":{"icaoId":"SBTF","flightCategory":"VFR","rawOb":"SPECI SBTF 071115Z 21004KT 9999 FEW006 OVC100 25/25 Q1012","temp":25,"dewp":25,"wdir":210,"wspd":4,"visib":"6+","altim":1012,"clouds":[{"cover":"FEW","base":600},{"cover":"OVC","base":10000}],"obsTime":1775560500},"SBPP":{"icaoId":"SBPP","flightCategory":"VFR","rawOb":"SPECI SBPP 071115Z 36006KT CAVOK 23/21 Q1016","temp":23,"dewp":21,"wdir":360,"wspd":6,"visib":"6+","altim":1016,"clouds":[],"obsTime":1775560500},"SBAX":{"icaoId":"SBAX","flightCategory":"VFR","rawOb":"METAR SBAX 071000Z 10005KT 9999 SCT045 SCT100 20/19 Q1021","temp":20,"dewp":19,"wdir":100,"wspd":5,"visib":"6+","altim":1021,"clouds":[{"cover":"SCT","base":4500},{"cover":"SCT","base":10000}],"obsTime":1775556000},"SBUY":{"icaoId":"SBUY","flightCategory":"LIFR","rawOb":"METAR SBUY 071100Z 02002KT 2000 BR BKN004 BKN018 FEW020TCU 24/24 Q1011 RETS","temp":24,"dewp":24,"wdir":20,"wspd":2,"visib":1.24,"altim":1011,"clouds":[{"cover":"BKN","base":400},{"cover":"BKN","base":1800},{"cover":"FEW","base":2000}],"obsTime":1775559600},"SBBH":{"icaoId":"SBBH","flightCategory":"VFR","rawOb":"METAR SBBH 071000Z 11006KT CAVOK 20/18 Q1021","temp":20,"dewp":18,"wdir":110,"wspd":6,"visib":"6+","altim":1021,"clouds":[],"obsTime":1775556000},"SBTT":{"icaoId":"SBTT","flightCategory":"MVFR","rawOb":"METAR SBTT 071100Z 00000KT 8000 SCT005 23/22 Q1011","temp":23,"dewp":22,"wdir":0,"wspd":0,"visib":4.97,"altim":1011,"clouds":[{"cover":"SCT","base":500}],"obsTime":1775559600},"SBBU":{"icaoId":"SBBU","flightCategory":"LIFR","rawOb":"METAR SBBU 071000Z 05007KT 9999 OVC004 22/21 Q1018","temp":22,"dewp":21,"wdir":50,"wspd":7,"visib":"6+","altim":1018,"clouds":[{"cover":"OVC","base":400}],"obsTime":1775556000},"SBCA":{"icaoId":"SBCA","flightCategory":"VFR","rawOb":"METAR SBCA 071100Z 04019G29KT 9999 FEW030 SCT100 21/19 Q1016","temp":21,"dewp":19,"wdir":40,"wspd":19,"visib":"6+","altim":1016,"clouds":[{"cover":"FEW","base":3000},{"cover":"SCT","base":10000}],"obsTime":1775559600},"SBCC":{"icaoId":"SBCC","flightCategory":"VFR","rawOb":"METAR SBCC 071100Z 05006KT CAVOK 24/22 Q1015","temp":24,"dewp":22,"wdir":50,"wspd":6,"visib":"6+","altim":1015,"clouds":[],"obsTime":1775559600},"SBAR":{"icaoId":"SBAR","flightCategory":"VFR","rawOb":"METAR SBAR 071000Z 12009KT 9999 FEW017 BKN035 28/24 Q1014","temp":28,"dewp":24,"wdir":120,"wspd":9,"visib":"6+","altim":1014,"clouds":[{"cover":"FEW","base":1700},{"cover":"BKN","base":3500}],"obsTime":1775556000},"SBCJ":{"icaoId":"SBCJ","flightCategory":"VFR","rawOb":"SPECI SBCJ 071015Z 09004KT CAVOK 22/20 Q1016","temp":22,"dewp":20,"wdir":90,"wspd":4,"visib":"6+","altim":1016,"clouds":[],"obsTime":1775556900},"SBTD":{"icaoId":"SBTD","flightCategory":"VFR","rawOb":"METAR SBTD 071100Z /////KT CAVOK 23/19 Q1016","temp":23,"dewp":19,"wdir":null,"wspd":null,"visib":"6+","altim":1016,"clouds":[],"obsTime":1775559600},"SBCO":{"icaoId":"SBCO","flightCategory":"VFR","rawOb":"METAR SBCO 071000Z 10006KT 9999 FEW030TCU SCT040 OVC090 21/20 Q1010","temp":21,"dewp":20,"wdir":100,"wspd":6,"visib":"6+","altim":1010,"clouds":[{"cover":"FEW","base":3000},{"cover":"SCT","base":4000},{"cover":"OVC","base":9000}],"obsTime":1775556000},"SBSR":{"icaoId":"SBSR","flightCategory":"VFR","rawOb":"METAR SBSR 071000Z 09006KT CAVOK 21/20 Q1017","temp":21,"dewp":20,"wdir":90,"wspd":6,"visib":"6+","altim":1017,"clouds":[],"obsTime":1775556000},"SBDN":{"icaoId":"SBDN","flightCategory":"VFR","rawOb":"METAR SBDN 071000Z 05007KT CAVOK 22/19 Q1016","temp":22,"dewp":19,"wdir":50,"wspd":7,"visib":"6+","altim":1016,"clouds":[],"obsTime":1775556000},"SBSM":{"icaoId":"SBSM","flightCategory":"MVFR","rawOb":"METAR SBSM 071000Z 04005KT 6000 RA VCTS FEW040 FEW045CB OVC100 21/21 Q1010 RERA","temp":21,"dewp":21,"wdir":40,"wspd":5,"visib":3.73,"altim":1010,"clouds":[{"cover":"FEW","base":4000},{"cover":"FEW","base":4500},{"cover":"OVC","base":10000}],"obsTime":1775556000},"SBES":{"icaoId":"SBES","flightCategory":"VFR","rawOb":"METAR SBES 071000Z 05004KT 270V080 9999 FEW010 22/// Q1017","temp":null,"dewp":null,"wdir":50,"wspd":4,"visib":"6+","altim":1017,"clouds":[{"cover":"FEW","base":1000}],"obsTime":1775556000},"SBKG":{"icaoId":"SBKG","flightCategory":"IFR","rawOb":"METAR SBKG 071000Z 11008KT 9999 OVC008 22/22 Q1017","temp":22,"dewp":22,"wdir":110,"wspd":8,"visib":"6+","altim":1017,"clouds":[{"cover":"OVC","base":800}],"obsTime":1775556000},"SBSJ":{"icaoId":"SBSJ","flightCategory":"IFR","rawOb":"METAR SBSJ 071000Z 02003KT 2000 BR SCT009 BKN022 21/20 Q1019","temp":21,"dewp":20,"wdir":20,"wspd":3,"visib":1.24,"altim":1019,"clouds":[{"cover":"SCT","base":900},{"cover":"BKN","base":2200}],"obsTime":1775556000},"SBOI":{"icaoId":"SBOI","flightCategory":"VFR","rawOb":"METAR SBOI 071100Z AUTO 04003KT 360V080 9999 FEW003 27/25 Q1013","temp":27,"dewp":25,"wdir":40,"wspd":3,"visib":"6+","altim":1013,"clouds":[{"cover":"FEW","base":300}],"obsTime":1775559600},"SBVH":{"icaoId":"SBVH","flightCategory":"VFR","rawOb":"METAR SBVH 071100Z 03002KT 9999 FEW015 23/21 Q1016","temp":23,"dewp":21,"wdir":30,"wspd":2,"visib":"6+","altim":1016,"clouds":[{"cover":"FEW","base":1500}],"obsTime":1775559600},"SBPB":{"icaoId":"SBPB","flightCategory":"VFR","rawOb":"SPECI SBPB 071015Z 10006KT 9999 FEW016 27/24 Q1012","temp":27,"dewp":24,"wdir":100,"wspd":6,"visib":"6+","altim":1012,"clouds":[{"cover":"FEW","base":1600}],"obsTime":1775556900},"SBSC":{"icaoId":"SBSC","flightCategory":"MVFR","rawOb":"METAR SBSC 071000Z 05005KT 6000 FEW040 24/24 Q1016","temp":24,"dewp":24,"wdir":50,"wspd":5,"visib":3.73,"altim":1016,"clouds":[{"cover":"FEW","base":4000}],"obsTime":1775556000},"SBPL":{"icaoId":"SBPL","flightCategory":"VFR","rawOb":"METAR SBPL 071000Z 11009KT 9999 FEW025 25/21 Q1016","temp":25,"dewp":21,"wdir":110,"wspd":9,"visib":"6+","altim":1016,"clouds":[{"cover":"FEW","base":2500}],"obsTime":1775556000},"SBPS":{"icaoId":"SBPS","flightCategory":"VFR","rawOb":"METAR SBPS 071000Z 25004KT 9999 SCT015 24/24 Q1016","temp":24,"dewp":24,"wdir":250,"wspd":4,"visib":"6+","altim":1016,"clouds":[{"cover":"SCT","base":1500}],"obsTime":1775556000},"SBAN":{"icaoId":"SBAN","flightCategory":"VFR","rawOb":"METAR SBAN 071000Z 08003KT 9999 FEW020 BKN040 20/18 Q1021","temp":20,"dewp":18,"wdir":80,"wspd":3,"visib":"6+","altim":1021,"clouds":[{"cover":"FEW","base":2000},{"cover":"BKN","base":4000}],"obsTime":1775556000},"SBLS":{"icaoId":"SBLS","flightCategory":"VFR","rawOb":"METAR SBLS 071000Z 14008KT CAVOK 20/18 Q1021","temp":20,"dewp":18,"wdir":140,"wspd":8,"visib":"6+","altim":1021,"clouds":[],"obsTime":1775556000},"SBAF":{"icaoId":"SBAF","flightCategory":"VFR","rawOb":"METAR SBAF 071000Z 08003KT 9999 FEW010 SCT030 25/25 Q1017","temp":25,"dewp":25,"wdir":80,"wspd":3,"visib":"6+","altim":1017,"clouds":[{"cover":"FEW","base":1000},{"cover":"SCT","base":3000}],"obsTime":1775556000},"SBMT":{"icaoId":"SBMT","flightCategory":"MVFR","rawOb":"METAR SBMT 071000Z VRB02KT 7000 SCT020 FEW030TCU BKN070 21/20 Q1019","temp":21,"dewp":20,"wdir":"VRB","wspd":2,"visib":4.35,"altim":1019,"clouds":[{"cover":"SCT","base":2000},{"cover":"FEW","base":3000},{"cover":"BKN","base":7000}],"obsTime":1775556000},"SBST":{"icaoId":"SBST","flightCategory":"VFR","rawOb":"METAR SBST 071100Z 00000KT 9999 FEW030 25/24 Q1015","temp":25,"dewp":24,"wdir":0,"wspd":0,"visib":"6+","altim":1015,"clouds":[{"cover":"FEW","base":3000}],"obsTime":1775559600},"SBJV":{"icaoId":"SBJV","flightCategory":"VFR","rawOb":"METAR SBJV 071000Z 00000KT 9999 SCT004 22/22 Q1015","temp":22,"dewp":22,"wdir":0,"wspd":0,"visib":"6+","altim":1015,"clouds":[{"cover":"SCT","base":400}],"obsTime":1775556000},"SBTA":{"icaoId":"SBTA","flightCategory":"IFR","rawOb":"METAR SBTA 071000Z 00000KT 4000 BR SCT011 BKN018 20/20 Q1019","temp":20,"dewp":20,"wdir":0,"wspd":0,"visib":2.49,"altim":1019,"clouds":[{"cover":"SCT","base":1100},{"cover":"BKN","base":1800}],"obsTime":1775556000},"SBGW":{"icaoId":"SBGW","flightCategory":"IFR","rawOb":"METAR SBGW 071000Z VRB02KT 3000 HZ OVC015 22/18 Q1019","temp":22,"dewp":18,"wdir":"VRB","wspd":2,"visib":1.86,"altim":1019,"clouds":[{"cover":"OVC","base":1500}],"obsTime":1775556000},"SBJP":{"icaoId":"SBJP","flightCategory":"MVFR","rawOb":"METAR SBJP 071000Z 14008KT 9999 -RA BKN020 OVC070 24/24 Q1015","temp":24,"dewp":24,"wdir":140,"wspd":8,"visib":"6+","altim":1015,"clouds":[{"cover":"BKN","base":2000},{"cover":"OVC","base":7000}],"obsTime":1775556000},"SBIH":{"icaoId":"SBIH","flightCategory":"VFR","rawOb":"METAR SBIH 071100Z 01003KT CAVOK 25/24 Q1012","temp":25,"dewp":24,"wdir":10,"wspd":3,"visib":"6+","altim":1012,"clouds":[],"obsTime":1775559600},"SBJR":{"icaoId":"SBJR","flightCategory":"VFR","rawOb":"METAR SBJR 071000Z 03001KT 9999 FEW035 24/23 Q1016","temp":24,"dewp":23,"wdir":30,"wspd":1,"visib":"6+","altim":1016,"clouds":[{"cover":"FEW","base":3500}],"obsTime":1775556000},"SBPF":{"icaoId":"SBPF","flightCategory":"VFR","rawOb":"METAR SBPF 071000Z 05010KT CAVOK 19/17 Q1014","temp":19,"dewp":17,"wdir":50,"wspd":10,"visib":"6+","altim":1014,"clouds":[],"obsTime":1775556000}}}