{"updated":1783270255,"count":87,"data":{"SBMQ":{"icaoId":"SBMQ","flightCategory":"VFR","rawOb":"METAR SBMQ 051500Z 06008KT 9999 VCSH SCT021 FEW038TCU 30/26 Q1014","temp":30,"dewp":26,"wdir":60,"wspd":8,"visib":"6+","altim":1014,"clouds":[{"cover":"SCT","base":2100},{"cover":"FEW","base":3800}],"obsTime":1783263600},"SBMO":{"icaoId":"SBMO","flightCategory":"MVFR","rawOb":"METAR SBMO 051500Z 16008KT 130V200 9999 BKN024 BKN034 28/19 Q1017","temp":28,"dewp":19,"wdir":160,"wspd":8,"visib":"6+","altim":1017,"clouds":[{"cover":"BKN","base":2400},{"cover":"BKN","base":3400}],"obsTime":1783263600},"SBRB":{"icaoId":"SBRB","flightCategory":"VFR","rawOb":"METAR SBRB 051500Z 12005KT 050V160 CAVOK 26/19 Q1018","temp":26,"dewp":19,"wdir":120,"wspd":5,"visib":"6+","altim":1018,"clouds":[],"obsTime":1783263600},"SBSV":{"icaoId":"SBSV","flightCategory":"MVFR","rawOb":"METAR SBSV 051500Z 13008KT 9000 VCSH SCT012 BKN030 OVC060 25/22 Q1018","temp":25,"dewp":22,"wdir":130,"wspd":8,"visib":5.59,"altim":1018,"clouds":[{"cover":"SCT","base":1200},{"cover":"BKN","base":3000},{"cover":"OVC","base":6000}],"obsTime":1783263600},"SBFZ":{"icaoId":"SBFZ","flightCategory":"VFR","rawOb":"METAR SBFZ 051500Z 13014KT 9999 SCT020 30/22 Q1014","temp":30,"dewp":22,"wdir":130,"wspd":14,"visib":"6+","altim":1014,"clouds":[{"cover":"SCT","base":2000}],"obsTime":1783263600},"SBCF":{"icaoId":"SBCF","flightCategory":"VFR","rawOb":"METAR SBCF 051500Z 09004KT 9999 FEW040 24/13 Q1022","temp":24,"dewp":13,"wdir":90,"wspd":4,"visib":"6+","altim":1022,"clouds":[{"cover":"FEW","base":4000}],"obsTime":1783263600},"SBSP":{"icaoId":"SBSP","flightCategory":"VFR","rawOb":"METAR SBSP 051500Z COR AUTO 09004KT 050V130 CAVOK 18/13 Q1023","temp":18,"dewp":13,"wdir":90,"wspd":4,"visib":"6+","altim":1023,"clouds":[],"obsTime":1783263600},"SBGO":{"icaoId":"SBGO","flightCategory":"VFR","rawOb":"METAR SBGO 051500Z VRB05KT CAVOK 28/13 Q1021","temp":28,"dewp":13,"wdir":"VRB","wspd":5,"visib":"6+","altim":1021,"clouds":[],"obsTime":1783263600},"SBCP":{"icaoId":"SBCP","flightCategory":"VFR","rawOb":"METAR SBCP 051500Z 23012KT 9999 SCT015 SCT090 24/18 Q1021","temp":24,"dewp":18,"wdir":230,"wspd":12,"visib":"6+","altim":1021,"clouds":[{"cover":"SCT","base":1500},{"cover":"SCT","base":9000}],"obsTime":1783263600},"SBBE":{"icaoId":"SBBE","flightCategory":"VFR","rawOb":"METAR SBBE 051500Z 10010KT 9999 SCT028 BKN080 30/24 Q1014","temp":30,"dewp":24,"wdir":100,"wspd":10,"visib":"6+","altim":1014,"clouds":[{"cover":"SCT","base":2800},{"cover":"BKN","base":8000}],"obsTime":1783263600},"SBCT":{"icaoId":"SBCT","flightCategory":"VFR","rawOb":"METAR SBCT 051500Z VRB02KT 9000 FEW012 SCT100 17/13 Q1023","temp":17,"dewp":13,"wdir":"VRB","wspd":2,"visib":5.59,"altim":1023,"clouds":[{"cover":"FEW","base":1200},{"cover":"SCT","base":10000}],"obsTime":1783263600},"SBFI":{"icaoId":"SBFI","flightCategory":"VFR","rawOb":"METAR SBFI 051500Z 01006KT CAVOK 24/15 Q1019","temp":24,"dewp":15,"wdir":10,"wspd":6,"visib":"6+","altim":1019,"clouds":[],"obsTime":1783263600},"SBBR":{"icaoId":"SBBR","flightCategory":"VFR","rawOb":"METAR SBBR 051500Z 36007KT 330V030 9999 FEW030 24/10 Q1023","temp":24,"dewp":10,"wdir":360,"wspd":7,"visib":"6+","altim":1023,"clouds":[{"cover":"FEW","base":3000}],"obsTime":1783263600},"SBCZ":{"icaoId":"SBCZ","flightCategory":"VFR","rawOb":"METAR SBCZ 051500Z 03003KT 9999 FEW020 27/21 Q1017","temp":27,"dewp":21,"wdir":30,"wspd":3,"visib":"6+","altim":1017,"clouds":[{"cover":"FEW","base":2000}],"obsTime":1783263600},"SBNT":{"icaoId":"SBNT","flightCategory":"MVFR","rawOb":"METAR SBNT 051500Z 16009KT 9999 SCT013 BKN020 BKN066 28/23 Q1015","temp":28,"dewp":23,"wdir":160,"wspd":9,"visib":"6+","altim":1015,"clouds":[{"cover":"SCT","base":1300},{"cover":"BKN","base":2000},{"cover":"BKN","base":6600}],"obsTime":1783263600},"SBRF":{"icaoId":"SBRF","flightCategory":"MVFR","rawOb":"METAR SBRF 051500Z 12012KT 5000 BR SCT013 BKN023 OVC050 25/23 Q1016","temp":25,"dewp":23,"wdir":120,"wspd":12,"visib":3.11,"altim":1016,"clouds":[{"cover":"SCT","base":1300},{"cover":"BKN","base":2300},{"cover":"OVC","base":5000}],"obsTime":1783263600},"SBBV":{"icaoId":"SBBV","flightCategory":"IFR","rawOb":"METAR SBBV 051500Z 33005KT 9999 VCSH BKN009 BKN015 FEW030TCU BKN100 26/23 Q1016","temp":26,"dewp":23,"wdir":330,"wspd":5,"visib":"6+","altim":1016,"clouds":[{"cover":"BKN","base":900},{"cover":"BKN","base":1500},{"cover":"FEW","base":3000},{"cover":"BKN","base":10000}],"obsTime":1783263600},"SBGR":{"icaoId":"SBGR","flightCategory":"VFR","rawOb":"METAR SBGR 051500Z 09008KT 9999 SCT011 18/14 Q1023","temp":18,"dewp":14,"wdir":90,"wspd":8,"visib":"6+","altim":1023,"clouds":[{"cover":"SCT","base":1100}],"obsTime":1783263600},"SBGL":{"icaoId":"SBGL","flightCategory":"VFR","rawOb":"METAR SBGL 051500Z 33005KT 290V010 9999 SCT018 BKN045 22/17 Q1021","temp":22,"dewp":17,"wdir":330,"wspd":5,"visib":"6+","altim":1021,"clouds":[{"cover":"SCT","base":1800},{"cover":"BKN","base":4500}],"obsTime":1783263600},"SBEG":{"icaoId":"SBEG","flightCategory":"VFR","rawOb":"METAR SBEG 051500Z 27004KT 9999 SCT020 31/24 Q1014","temp":31,"dewp":24,"wdir":270,"wspd":4,"visib":"6+","altim":1014,"clouds":[{"cover":"SCT","base":2000}],"obsTime":1783263600},"SBSN":{"icaoId":"SBSN","flightCategory":"VFR","rawOb":"METAR SBSN 051500Z 07010KT 9999 SCT017 31/25 Q1014","temp":31,"dewp":25,"wdir":70,"wspd":10,"visib":"6+","altim":1014,"clouds":[{"cover":"SCT","base":1700}],"obsTime":1783263600},"SBKP":{"icaoId":"SBKP","flightCategory":"VFR","rawOb":"METAR SBKP 051500Z 12005KT 050V170 CAVOK 20/14 Q1022","temp":20,"dewp":14,"wdir":120,"wspd":5,"visib":"6+","altim":1022,"clouds":[],"obsTime":1783263600},"SBPA":{"icaoId":"SBPA","flightCategory":"IFR","rawOb":"METAR SBPA 051500Z 10005KT 060V130 9999 OVC009 13/12 Q1022","temp":13,"dewp":12,"wdir":100,"wspd":5,"visib":"6+","altim":1022,"clouds":[{"cover":"OVC","base":900}],"obsTime":1783263600},"SBFL":{"icaoId":"SBFL","flightCategory":"VFR","rawOb":"METAR SBFL 051500Z 31007KT 280V350 CAVOK 16/11 Q1023","temp":16,"dewp":11,"wdir":310,"wspd":7,"visib":"6+","altim":1023,"clouds":[],"obsTime":1783263600},"SBLO":{"icaoId":"SBLO","flightCategory":"VFR","rawOb":"METAR SBLO 051500Z VRB04KT 9999 FEW013 21/17 Q1021","temp":21,"dewp":17,"wdir":"VRB","wspd":4,"visib":"6+","altim":1021,"clouds":[{"cover":"FEW","base":1300}],"obsTime":1783263600},"SBCG":{"icaoId":"SBCG","flightCategory":"VFR","rawOb":"METAR SBCG 051500Z 05009KT 9999 FEW049 27/14 Q1020","temp":27,"dewp":14,"wdir":50,"wspd":9,"visib":"6+","altim":1020,"clouds":[{"cover":"FEW","base":4900}],"obsTime":1783263600},"SBVT":{"icaoId":"SBVT","flightCategory":"MVFR","rawOb":"METAR SBVT 051500Z 17013KT 9999 BKN020 BKN045 24/20 Q1020","temp":24,"dewp":20,"wdir":170,"wspd":13,"visib":"6+","altim":1020,"clouds":[{"cover":"BKN","base":2000},{"cover":"BKN","base":4500}],"obsTime":1783263600},"SBME":{"icaoId":"SBME","flightCategory":"MVFR","rawOb":"METAR SBME 051500Z 22009KT 9999 BKN015 23/18 Q1021","temp":23,"dewp":18,"wdir":220,"wspd":9,"visib":"6+","altim":1021,"clouds":[{"cover":"BKN","base":1500}],"obsTime":1783263600},"SBMK":{"icaoId":"SBMK","flightCategory":"VFR","rawOb":"METAR SBMK 051500Z 08005KT CAVOK 27/13 Q1021","temp":27,"dewp":13,"wdir":80,"wspd":5,"visib":"6+","altim":1021,"clouds":[],"obsTime":1783263600},"SBUL":{"icaoId":"SBUL","flightCategory":"VFR","rawOb":"METAR SBUL 051500Z 08005KT 310V120 9999 FEW049 25/10 Q1022","temp":25,"dewp":10,"wdir":80,"wspd":5,"visib":"6+","altim":1022,"clouds":[{"cover":"FEW","base":4900}],"obsTime":1783263600},"SBUR":{"icaoId":"SBUR","flightCategory":"VFR","rawOb":"METAR SBUR 051500Z 23003KT CAVOK 26/13 Q1021","temp":26,"dewp":13,"wdir":230,"wspd":3,"visib":"6+","altim":1021,"clouds":[],"obsTime":1783263600},"SBIL":{"icaoId":"SBIL","flightCategory":"MVFR","rawOb":"METAR SBIL 051500Z 18008KT 150V210 8000 VCSH SCT025 FEW027TCU BKN070 26/22 Q1019","temp":26,"dewp":22,"wdir":180,"wspd":8,"visib":4.97,"altim":1019,"clouds":[{"cover":"SCT","base":2500},{"cover":"FEW","base":2700},{"cover":"BKN","base":7000}],"obsTime":1783263600},"SBJU":{"icaoId":"SBJU","flightCategory":"VFR","rawOb":"METAR SBJU 051500Z 24002KT CAVOK 30/16 Q1017","temp":30,"dewp":16,"wdir":240,"wspd":2,"visib":"6+","altim":1017,"clouds":[],"obsTime":1783263600},"SBCR":{"icaoId":"SBCR","flightCategory":"IFR","rawOb":"METAR SBCR 051500Z 06003KT 320V110 4000 BR FEW004 BKN008 19/17 Q1019","temp":19,"dewp":17,"wdir":60,"wspd":3,"visib":2.49,"altim":1019,"clouds":[{"cover":"FEW","base":400},{"cover":"BKN","base":800}],"obsTime":1783263600},"SBMG":{"icaoId":"SBMG","flightCategory":"VFR","rawOb":"METAR SBMG 051500Z 16004KT 100V210 9999 FEW020 22/18 Q1020","temp":22,"dewp":18,"wdir":160,"wspd":4,"visib":"6+","altim":1020,"clouds":[{"cover":"FEW","base":2000}],"obsTime":1783263600},"SBAT":{"icaoId":"SBAT","flightCategory":"VFR","rawOb":"METAR SBAT 051500Z 15004KT CAVOK 32/18 Q1016","temp":32,"dewp":18,"wdir":150,"wspd":4,"visib":"6+","altim":1016,"clouds":[],"obsTime":1783263600},"SBHT":{"icaoId":"SBHT","flightCategory":"VFR","rawOb":"METAR SBHT 051500Z 11007KT 9999 SCT025 31/24 Q1014","temp":31,"dewp":24,"wdir":110,"wspd":7,"visib":"6+","altim":1014,"clouds":[{"cover":"SCT","base":2500}],"obsTime":1783263600},"SBPJ":{"icaoId":"SBPJ","flightCategory":"VFR","rawOb":"METAR SBPJ 051500Z VRB05KT CAVOK 31/19 Q1015","temp":31,"dewp":19,"wdir":"VRB","wspd":5,"visib":"6+","altim":1015,"clouds":[],"obsTime":1783263600},"SBSG":{"icaoId":"SBSG","flightCategory":"MVFR","rawOb":"METAR SBSG 051500Z 16004KT 090V210 8000 VCSH SCT019 BKN040 27/25 Q1015","temp":27,"dewp":25,"wdir":160,"wspd":4,"visib":4.97,"altim":1015,"clouds":[{"cover":"SCT","base":1900},{"cover":"BKN","base":4000}],"obsTime":1783263600},"SBPV":{"icaoId":"SBPV","flightCategory":"VFR","rawOb":"METAR SBPV 051500Z COR 13006KT CAVOK 28/19 Q1016","temp":28,"dewp":19,"wdir":130,"wspd":6,"visib":"6+","altim":1016,"clouds":[],"obsTime":1783263600},"SBTE":{"icaoId":"SBTE","flightCategory":"MVFR","rawOb":"METAR SBTE 051500Z 12006KT 9999 BKN030 31/20 Q1014","temp":31,"dewp":20,"wdir":120,"wspd":6,"visib":"6+","altim":1014,"clouds":[{"cover":"BKN","base":3000}],"obsTime":1783263600},"SBSL":{"icaoId":"SBSL","flightCategory":"VFR","rawOb":"METAR SBSL 051500Z 08010KT 9999 SCT020 31/24 Q1013","temp":31,"dewp":24,"wdir":80,"wspd":10,"visib":"6+","altim":1013,"clouds":[{"cover":"SCT","base":2000}],"obsTime":1783263600},"SBCB":{"icaoId":"SBCB","flightCategory":"MVFR","rawOb":"METAR SBCB 051500Z 27007KT 9999 BKN010 OVC030 21/18 Q1021","temp":21,"dewp":18,"wdir":270,"wspd":7,"visib":"6+","altim":1021,"clouds":[{"cover":"BKN","base":1000},{"cover":"OVC","base":3000}],"obsTime":1783263600},"SBMA":{"icaoId":"SBMA","flightCategory":"VFR","rawOb":"METAR SBMA 051500Z 04008KT 9999 FEW020 33/19 Q1013","temp":33,"dewp":19,"wdir":40,"wspd":8,"visib":"6+","altim":1013,"clouds":[{"cover":"FEW","base":2000}],"obsTime":1783263600},"SBOI":{"icaoId":"SBOI","flightCategory":"MVFR","rawOb":"METAR SBOI 051500Z AUTO 16009KT 130V190 8000 +RA OVC030 26/25 Q1015","temp":26,"dewp":25,"wdir":160,"wspd":9,"visib":4.97,"altim":1015,"clouds":[{"cover":"OVC","base":3000}],"obsTime":1783263600},"SBUY":{"icaoId":"SBUY","flightCategory":"VFR","rawOb":"METAR SBUY 051500Z 20007KT 9999 SCT025 29/22 Q1014","temp":29,"dewp":22,"wdir":200,"wspd":7,"visib":"6+","altim":1014,"clouds":[{"cover":"SCT","base":2500}],"obsTime":1783263600},"SBPS":{"icaoId":"SBPS","flightCategory":"VFR","rawOb":"METAR SBPS 051500Z 14005KT 080V190 9999 SCT025 BKN070 27/21 Q1019","temp":27,"dewp":21,"wdir":140,"wspd":5,"visib":"6+","altim":1019,"clouds":[{"cover":"SCT","base":2500},{"cover":"BKN","base":7000}],"obsTime":1783263600},"SBTT":{"icaoId":"SBTT","flightCategory":"VFR","rawOb":"METAR SBTT 051500Z 23005KT 180V270 9999 FEW017 27/22 Q1016","temp":27,"dewp":22,"wdir":230,"wspd":5,"visib":"6+","altim":1016,"clouds":[{"cover":"FEW","base":1700}],"obsTime":1783263600},"SBCJ":{"icaoId":"SBCJ","flightCategory":"VFR","rawOb":"METAR SBCJ 051500Z 10005KT 9999 FEW015 29/18 Q1017","temp":29,"dewp":18,"wdir":100,"wspd":5,"visib":"6+","altim":1017,"clouds":[{"cover":"FEW","base":1500}],"obsTime":1783263600},"SBES":{"icaoId":"SBES","flightCategory":"MVFR","rawOb":"METAR SBES 051500Z VRB05KT 7000 3000E -DZ BKN012 19/// Q1021","temp":null,"dewp":null,"wdir":"VRB","wspd":5,"visib":4.35,"altim":1021,"clouds":[{"cover":"BKN","base":1200}],"obsTime":1783263600},"SBSJ":{"icaoId":"SBSJ","flightCategory":"MVFR","rawOb":"METAR SBSJ 051500Z 28002KT 9000 BKN013 17/13 Q1023","temp":17,"dewp":13,"wdir":280,"wspd":2,"visib":5.59,"altim":1023,"clouds":[{"cover":"BKN","base":1300}],"obsTime":1783263600},"SBTU":{"icaoId":"SBTU","flightCategory":"VFR","rawOb":"METAR SBTU 051500Z AUTO 21005KT 170V290 9999 // FEW018/// OVC090/// ///// Q1016","temp":null,"dewp":null,"wdir":210,"wspd":5,"visib":"6+","altim":1016,"clouds":[{"cover":"FEW","base":1800},{"cover":"OVC","base":9000}],"obsTime":1783263600},"SBAR":{"icaoId":"SBAR","flightCategory":"VFR","rawOb":"METAR SBAR 051500Z 12006KT 9999 FEW020 27/23 Q1017","temp":27,"dewp":23,"wdir":120,"wspd":6,"visib":"6+","altim":1017,"clouds":[{"cover":"FEW","base":2000}],"obsTime":1783263600},"SBPL":{"icaoId":"SBPL","flightCategory":"VFR","rawOb":"METAR SBPL 051500Z 09009KT 9999 SCT028 27/18 Q1018","temp":27,"dewp":18,"wdir":90,"wspd":9,"visib":"6+","altim":1018,"clouds":[{"cover":"SCT","base":2800}],"obsTime":1783263600},"SBTF":{"icaoId":"SBTF","flightCategory":"VFR","rawOb":"METAR SBTF 051500Z 14007KT 9999 SCT018 31/24 Q1015","temp":31,"dewp":24,"wdir":140,"wspd":7,"visib":"6+","altim":1015,"clouds":[{"cover":"SCT","base":1800}],"obsTime":1783263600},"SBPB":{"icaoId":"SBPB","flightCategory":"VFR","rawOb":"METAR SBPB 051500Z 09013KT 9999 SCT020 31/24 Q1013","temp":31,"dewp":24,"wdir":90,"wspd":13,"visib":"6+","altim":1013,"clouds":[{"cover":"SCT","base":2000}],"obsTime":1783263600},"SBPP":{"icaoId":"SBPP","flightCategory":"VFR","rawOb":"METAR SBPP 051500Z 04016KT CAVOK 23/15 Q1021","temp":23,"dewp":15,"wdir":40,"wspd":16,"visib":"6+","altim":1021,"clouds":[],"obsTime":1783263600},"SBBU":{"icaoId":"SBBU","flightCategory":"VFR","rawOb":"METAR SBBU 051500Z 14007KT CAVOK 20/16 Q1022","temp":20,"dewp":16,"wdir":140,"wspd":7,"visib":"6+","altim":1022,"clouds":[],"obsTime":1783263600},"SBDN":{"icaoId":"SBDN","flightCategory":"VFR","rawOb":"METAR SBDN 051500Z 08005KT CAVOK 24/17 Q1021","temp":24,"dewp":17,"wdir":80,"wspd":5,"visib":"6+","altim":1021,"clouds":[],"obsTime":1783263600},"SBIP":{"icaoId":"SBIP","flightCategory":"MVFR","rawOb":"METAR SBIP 051500Z AUTO VRB01KT 9999 FEW024 BKN027 24/17 Q1021","temp":24,"dewp":17,"wdir":"VRB","wspd":1,"visib":"6+","altim":1021,"clouds":[{"cover":"FEW","base":2400},{"cover":"BKN","base":2700}],"obsTime":1783263600},"SBSC":{"icaoId":"SBSC","flightCategory":"MVFR","rawOb":"METAR SBSC 051500Z 22006KT 9999 FEW018 BKN022 20/16 Q1022","temp":20,"dewp":16,"wdir":220,"wspd":6,"visib":"6+","altim":1022,"clouds":[{"cover":"FEW","base":1800},{"cover":"BKN","base":2200}],"obsTime":1783263600},"SBSR":{"icaoId":"SBSR","flightCategory":"VFR","rawOb":"METAR SBSR 051500Z 10006KT CAVOK 26/12 Q1020","temp":26,"dewp":12,"wdir":100,"wspd":6,"visib":"6+","altim":1020,"clouds":[],"obsTime":1783263600},"SBKG":{"icaoId":"SBKG","flightCategory":"MVFR","rawOb":"METAR SBKG 051500Z 17008KT 130V210 9999 BKN020 BKN070 25/20 Q1018","temp":25,"dewp":20,"wdir":170,"wspd":8,"visib":"6+","altim":1018,"clouds":[{"cover":"BKN","base":2000},{"cover":"BKN","base":7000}],"obsTime":1783263600},"SBCA":{"icaoId":"SBCA","flightCategory":"VFR","rawOb":"METAR SBCA 051500Z 02009KT 9999 SCT030 22/14 Q1022","temp":22,"dewp":14,"wdir":20,"wspd":9,"visib":"6+","altim":1022,"clouds":[{"cover":"SCT","base":3000}],"obsTime":1783263600},"SBCO":{"icaoId":"SBCO","flightCategory":"IFR","rawOb":"METAR SBCO 051500Z 10005KT 9999 OVC009 13/11 Q1022","temp":13,"dewp":11,"wdir":100,"wspd":5,"visib":"6+","altim":1022,"clouds":[{"cover":"OVC","base":900}],"obsTime":1783263600},"SBSM":{"icaoId":"SBSM","flightCategory":"VFR","rawOb":"METAR SBSM 051500Z 11007KT 9999 FEW010 BKN050 OVC070 12/09 Q1021","temp":12,"dewp":9,"wdir":110,"wspd":7,"visib":"6+","altim":1021,"clouds":[{"cover":"FEW","base":1000},{"cover":"BKN","base":5000},{"cover":"OVC","base":7000}],"obsTime":1783263600},"SBCC":{"icaoId":"SBCC","flightCategory":"VFR","rawOb":"METAR SBCC 051500Z 05010KT 020V110 CAVOK 31/15 Q1017","temp":31,"dewp":15,"wdir":50,"wspd":10,"visib":"6+","altim":1017,"clouds":[],"obsTime":1783263600},"SBGM":{"icaoId":"SBGM","flightCategory":"VFR","rawOb":"METAR SBGM 051500Z 12007KT CAVOK 27/18 Q1017","temp":27,"dewp":18,"wdir":120,"wspd":7,"visib":"6+","altim":1017,"clouds":[],"obsTime":1783263600},"SBVH":{"icaoId":"SBVH","flightCategory":"VFR","rawOb":"METAR SBVH 051500Z 08008KT CAVOK 28/13 Q1019","temp":28,"dewp":13,"wdir":80,"wspd":8,"visib":"6+","altim":1019,"clouds":[],"obsTime":1783263600},"SBAX":{"icaoId":"SBAX","flightCategory":"VFR","rawOb":"METAR SBAX 051500Z AUTO VRB03KT CAVOK 25/12 Q1022","temp":25,"dewp":12,"wdir":"VRB","wspd":3,"visib":"6+","altim":1022,"clouds":[],"obsTime":1783263600},"SBBH":{"icaoId":"SBBH","flightCategory":"VFR","rawOb":"METAR SBBH 051500Z 12008KT 9999 FEW030 25/14 Q1022","temp":25,"dewp":14,"wdir":120,"wspd":8,"visib":"6+","altim":1022,"clouds":[{"cover":"FEW","base":3000}],"obsTime":1783263600},"SBBQ":{"icaoId":"SBBQ","flightCategory":"MVFR","rawOb":"METAR SBBQ 051500Z 10006KT 080V140 5000 HZ BKN015 19/13 Q1026","temp":19,"dewp":13,"wdir":100,"wspd":6,"visib":3.11,"altim":1026,"clouds":[{"cover":"BKN","base":1500}],"obsTime":1783263600},"SBNM":{"icaoId":"SBNM","flightCategory":"VFR","rawOb":"METAR SBNM 051500Z 11007KT 9999 SCT035 BKN080 13/11 Q1019","temp":13,"dewp":11,"wdir":110,"wspd":7,"visib":"6+","altim":1019,"clouds":[{"cover":"SCT","base":3500},{"cover":"BKN","base":8000}],"obsTime":1783263600},"SBAF":{"icaoId":"SBAF","flightCategory":"MVFR","rawOb":"METAR SBAF 051500Z 27002KT 9999 BKN016 OVC040 21/19 Q1021","temp":21,"dewp":19,"wdir":270,"wspd":2,"visib":"6+","altim":1021,"clouds":[{"cover":"BKN","base":1600},{"cover":"OVC","base":4000}],"obsTime":1783263600},"SBGW":{"icaoId":"SBGW","flightCategory":"IFR","rawOb":"METAR SBGW 051500Z 08003KT 4000 HZ SCT008 BKN013 19/12 Q1023","temp":19,"dewp":12,"wdir":80,"wspd":3,"visib":2.49,"altim":1023,"clouds":[{"cover":"SCT","base":800},{"cover":"BKN","base":1300}],"obsTime":1783263600},"SBJR":{"icaoId":"SBJR","flightCategory":"MVFR","rawOb":"METAR SBJR 051500Z 22005KT 9000 FEW010 BKN015 BKN040 22/18 Q1021","temp":22,"dewp":18,"wdir":220,"wspd":5,"visib":5.59,"altim":1021,"clouds":[{"cover":"FEW","base":1000},{"cover":"BKN","base":1500},{"cover":"BKN","base":4000}],"obsTime":1783263600},"SBLS":{"icaoId":"SBLS","flightCategory":"VFR","rawOb":"METAR SBLS 051500Z 15006KT 100V170 9999 FEW025 24/13 Q1022","temp":24,"dewp":13,"wdir":150,"wspd":6,"visib":"6+","altim":1022,"clouds":[{"cover":"FEW","base":2500}],"obsTime":1783263600},"SBMT":{"icaoId":"SBMT","flightCategory":"VFR","rawOb":"METAR SBMT 051500Z 05007KT CAVOK 18/11 Q1023","temp":18,"dewp":11,"wdir":50,"wspd":7,"visib":"6+","altim":1023,"clouds":[],"obsTime":1783263600},"SBST":{"icaoId":"SBST","flightCategory":"MVFR","rawOb":"METAR SBST 051500Z 27004KT 9999 BKN014 OVC020 17/15 Q1022","temp":17,"dewp":15,"wdir":270,"wspd":4,"visib":"6+","altim":1022,"clouds":[{"cover":"BKN","base":1400},{"cover":"OVC","base":2000}],"obsTime":1783263600},"SBTA":{"icaoId":"SBTA","flightCategory":"MVFR","rawOb":"METAR SBTA 051500Z 06003KT 300V100 7000 SCT010 BKN020 19/15 Q1022","temp":19,"dewp":15,"wdir":60,"wspd":3,"visib":4.35,"altim":1022,"clouds":[{"cover":"SCT","base":1000},{"cover":"BKN","base":2000}],"obsTime":1783263600},"SBLE":{"icaoId":"SBLE","flightCategory":"MVFR","rawOb":"METAR SBLE 051500Z AUTO 18004KT 110V240 9999 BKN026 BKN047 ///// Q1020","temp":null,"dewp":null,"wdir":180,"wspd":4,"visib":"6+","altim":1020,"clouds":[{"cover":"BKN","base":2600},{"cover":"BKN","base":4700}],"obsTime":1783263600},"SBTC":{"icaoId":"SBTC","flightCategory":"MVFR","rawOb":"METAR SBTC 051500Z 18008KT 9999 FEW010 BKN018 BKN060 23/20 Q1019","temp":23,"dewp":20,"wdir":180,"wspd":8,"visib":"6+","altim":1019,"clouds":[{"cover":"FEW","base":1000},{"cover":"BKN","base":1800},{"cover":"BKN","base":6000}],"obsTime":1783263600},"SBAN":{"icaoId":"SBAN","flightCategory":"VFR","rawOb":"METAR SBAN 051500Z 05006KT CAVOK 25/10 Q1023","temp":25,"dewp":10,"wdir":50,"wspd":6,"visib":"6+","altim":1023,"clouds":[],"obsTime":1783263600},"SBJV":{"icaoId":"SBJV","flightCategory":"MVFR","rawOb":"METAR SBJV 051500Z 12001KT 9999 OVC015 15/13 Q1023","temp":15,"dewp":13,"wdir":120,"wspd":1,"visib":"6+","altim":1023,"clouds":[{"cover":"OVC","base":1500}],"obsTime":1783263600},"SBPF":{"icaoId":"SBPF","flightCategory":"VFR","rawOb":"METAR SBPF 051500Z AUTO 03009KT 9999 NSC 15/10 Q1022","temp":15,"dewp":10,"wdir":30,"wspd":9,"visib":"6+","altim":1022,"clouds":[],"obsTime":1783263600},"SBIH":{"icaoId":"SBIH","flightCategory":"VFR","rawOb":"METAR SBIH 051500Z 00000KT CAVOK 32/22 Q1013","temp":32,"dewp":22,"wdir":0,"wspd":0,"visib":"6+","altim":1013,"clouds":[],"obsTime":1783263600},"SBJP":{"icaoId":"SBJP","flightCategory":"MVFR","rawOb":"METAR SBJP 051500Z 16014KT 5000 -RA BKN010 BKN040 26/23 Q1016","temp":26,"dewp":23,"wdir":160,"wspd":14,"visib":3.11,"altim":1016,"clouds":[{"cover":"BKN","base":1000},{"cover":"BKN","base":4000}],"obsTime":1783263600}}}