{"updated":1784290143,"count":84,"data":{"SBSV":{"icaoId":"SBSV","flightCategory":"VFR","rawOb":"SPECI SBSV 171030Z 12015G25KT 9999 VCSH SCT023 FEW025TCU BKN060 25/19 Q1021","temp":25,"dewp":19,"wdir":120,"wspd":15,"visib":"6+","altim":1021,"clouds":[{"cover":"SCT","base":2300},{"cover":"FEW","base":2500},{"cover":"BKN","base":6000}],"obsTime":1784284200},"SBBE":{"icaoId":"SBBE","flightCategory":"VFR","rawOb":"METAR SBBE 171100Z 10005KT 9999 FEW020 27/25 Q1014","temp":27,"dewp":25,"wdir":100,"wspd":5,"visib":"6+","altim":1014,"clouds":[{"cover":"FEW","base":2000}],"obsTime":1784286000},"SBEG":{"icaoId":"SBEG","flightCategory":"VFR","rawOb":"METAR SBEG 171100Z 09005KT CAVOK 26/23 Q1013","temp":26,"dewp":23,"wdir":90,"wspd":5,"visib":"6+","altim":1013,"clouds":[],"obsTime":1784286000},"SBRF":{"icaoId":"SBRF","flightCategory":"VFR","rawOb":"METAR SBRF 171100Z 17012KT 9999 FEW020 SCT040 26/22 Q1018","temp":26,"dewp":22,"wdir":170,"wspd":12,"visib":"6+","altim":1018,"clouds":[{"cover":"FEW","base":2000},{"cover":"SCT","base":4000}],"obsTime":1784286000},"SBCT":{"icaoId":"SBCT","flightCategory":"VFR","rawOb":"METAR SBCT 171100Z 03004KT CAVOK 11/11 Q1022","temp":11,"dewp":11,"wdir":30,"wspd":4,"visib":"6+","altim":1022,"clouds":[],"obsTime":1784286000},"SBPV":{"icaoId":"SBPV","flightCategory":"VFR","rawOb":"METAR SBPV 171100Z 06001KT 9999 FEW030 24/23 Q1013","temp":24,"dewp":23,"wdir":60,"wspd":1,"visib":"6+","altim":1013,"clouds":[{"cover":"FEW","base":3000}],"obsTime":1784286000},"SBFZ":{"icaoId":"SBFZ","flightCategory":"VFR","rawOb":"METAR SBFZ 171100Z 16014KT 9999 FEW020 SCT080 26/20 Q1015","temp":26,"dewp":20,"wdir":160,"wspd":14,"visib":"6+","altim":1015,"clouds":[{"cover":"FEW","base":2000},{"cover":"SCT","base":8000}],"obsTime":1784286000},"SBSL":{"icaoId":"SBSL","flightCategory":"VFR","rawOb":"METAR SBSL 171100Z 10009KT 9999 FEW012 SCT080 27/24 Q1014","temp":27,"dewp":24,"wdir":100,"wspd":9,"visib":"6+","altim":1014,"clouds":[{"cover":"FEW","base":1200},{"cover":"SCT","base":8000}],"obsTime":1784286000},"SBBR":{"icaoId":"SBBR","flightCategory":"VFR","rawOb":"METAR SBBR 171100Z 11008KT CAVOK 13/08 Q1025","temp":13,"dewp":8,"wdir":110,"wspd":8,"visib":"6+","altim":1025,"clouds":[],"obsTime":1784286000},"SBTE":{"icaoId":"SBTE","flightCategory":"VFR","rawOb":"METAR SBTE 171100Z 14009KT CAVOK 26/18 Q1016","temp":26,"dewp":18,"wdir":140,"wspd":9,"visib":"6+","altim":1016,"clouds":[],"obsTime":1784286000},"SBSP":{"icaoId":"SBSP","flightCategory":"VFR","rawOb":"METAR SBSP 171100Z 05005KT 010V080 CAVOK 14/09 Q1025","temp":14,"dewp":9,"wdir":50,"wspd":5,"visib":"6+","altim":1025,"clouds":[],"obsTime":1784286000},"SBCF":{"icaoId":"SBCF","flightCategory":"VFR","rawOb":"METAR SBCF 171100Z VRB02KT CAVOK 11/08 Q1027","temp":11,"dewp":8,"wdir":"VRB","wspd":2,"visib":"6+","altim":1027,"clouds":[],"obsTime":1784286000},"SBSN":{"icaoId":"SBSN","flightCategory":"MVFR","rawOb":"METAR SBSN 171100Z 08010KT 9999 VCSH SCT010 BKN021 FEW025TCU BKN100 26/24 Q1014","temp":26,"dewp":24,"wdir":80,"wspd":10,"visib":"6+","altim":1014,"clouds":[{"cover":"SCT","base":1000},{"cover":"BKN","base":2100},{"cover":"FEW","base":2500},{"cover":"BKN","base":10000}],"obsTime":1784286000},"SBCR":{"icaoId":"SBCR","flightCategory":"VFR","rawOb":"METAR SBCR 171100Z 04003KT CAVOK 25/22 Q1011","temp":25,"dewp":22,"wdir":40,"wspd":3,"visib":"6+","altim":1011,"clouds":[],"obsTime":1784286000},"SBRB":{"icaoId":"SBRB","flightCategory":"VFR","rawOb":"METAR SBRB 171100Z 02001KT CAVOK 22/22 Q1013","temp":22,"dewp":22,"wdir":20,"wspd":1,"visib":"6+","altim":1013,"clouds":[],"obsTime":1784286000},"SBMO":{"icaoId":"SBMO","flightCategory":"VFR","rawOb":"METAR SBMO 171100Z 15010KT 9999 FEW019 SCT070 25/21 Q1020","temp":25,"dewp":21,"wdir":150,"wspd":10,"visib":"6+","altim":1020,"clouds":[{"cover":"FEW","base":1900},{"cover":"SCT","base":7000}],"obsTime":1784286000},"SBFI":{"icaoId":"SBFI","flightCategory":"VFR","rawOb":"METAR SBFI 171100Z 03012KT CAVOK 24/15 Q1011","temp":24,"dewp":15,"wdir":30,"wspd":12,"visib":"6+","altim":1011,"clouds":[],"obsTime":1784286000},"SBBV":{"icaoId":"SBBV","flightCategory":"VFR","rawOb":"METAR SBBV 171100Z 00000KT 9999 FEW026 26/24 Q1014","temp":26,"dewp":24,"wdir":0,"wspd":0,"visib":"6+","altim":1014,"clouds":[{"cover":"FEW","base":2600}],"obsTime":1784286000},"SBPJ":{"icaoId":"SBPJ","flightCategory":"VFR","rawOb":"METAR SBPJ 171100Z VRB02KT CAVOK 25/12 Q1018","temp":25,"dewp":12,"wdir":"VRB","wspd":2,"visib":"6+","altim":1018,"clouds":[],"obsTime":1784286000},"SBMA":{"icaoId":"SBMA","flightCategory":"VFR","rawOb":"METAR SBMA 171100Z 00000KT CAVOK 25/22 Q1015","temp":25,"dewp":22,"wdir":0,"wspd":0,"visib":"6+","altim":1015,"clouds":[],"obsTime":1784286000},"SBLO":{"icaoId":"SBLO","flightCategory":"VFR","rawOb":"METAR SBLO 171100Z 11004KT CAVOK 15/13 Q1021","temp":15,"dewp":13,"wdir":110,"wspd":4,"visib":"6+","altim":1021,"clouds":[],"obsTime":1784286000},"SBCB":{"icaoId":"SBCB","flightCategory":"VFR","rawOb":"METAR SBCB 171100Z 09015KT CAVOK 22/12 Q1023","temp":22,"dewp":12,"wdir":90,"wspd":15,"visib":"6+","altim":1023,"clouds":[],"obsTime":1784286000},"SBPA":{"icaoId":"SBPA","flightCategory":"VFR","rawOb":"METAR SBPA 171100Z 07003KT CAVOK 16/14 Q1010","temp":16,"dewp":14,"wdir":70,"wspd":3,"visib":"6+","altim":1010,"clouds":[],"obsTime":1784286000},"SBCP":{"icaoId":"SBCP","flightCategory":"VFR","rawOb":"METAR SBCP 171100Z 36006KT 9999 BKN040 20/13 Q1025","temp":20,"dewp":13,"wdir":360,"wspd":6,"visib":"6+","altim":1025,"clouds":[{"cover":"BKN","base":4000}],"obsTime":1784286000},"SBCZ":{"icaoId":"SBCZ","flightCategory":"VFR","rawOb":"METAR SBCZ 171200Z 30001KT CAVOK 24/24 Q1015","temp":24,"dewp":24,"wdir":300,"wspd":1,"visib":"6+","altim":1015,"clouds":[],"obsTime":1784289600},"SBNT":{"icaoId":"SBNT","flightCategory":"MVFR","rawOb":"METAR SBNT 171100Z 18010KT 150V210 8000 VCSH SCT013 FEW027TCU BKN033 OVC070 25/22 Q1017","temp":25,"dewp":22,"wdir":180,"wspd":10,"visib":4.97,"altim":1017,"clouds":[{"cover":"SCT","base":1300},{"cover":"FEW","base":2700},{"cover":"BKN","base":3300},{"cover":"OVC","base":7000}],"obsTime":1784286000},"SBGL":{"icaoId":"SBGL","flightCategory":"VFR","rawOb":"METAR SBGL 171100Z 08004KT CAVOK 18/16 Q1022","temp":18,"dewp":16,"wdir":80,"wspd":4,"visib":"6+","altim":1022,"clouds":[],"obsTime":1784286000},"SBMQ":{"icaoId":"SBMQ","flightCategory":"MVFR","rawOb":"METAR SBMQ 171100Z 32003KT 9999 BKN017 FEW035TCU 26/24 Q1014","temp":26,"dewp":24,"wdir":320,"wspd":3,"visib":"6+","altim":1014,"clouds":[{"cover":"BKN","base":1700},{"cover":"FEW","base":3500}],"obsTime":1784286000},"SBGR":{"icaoId":"SBGR","flightCategory":"MVFR","rawOb":"METAR SBGR 171100Z 08007KT 8000 NSC 13/09 Q1024","temp":13,"dewp":9,"wdir":80,"wspd":7,"visib":4.97,"altim":1024,"clouds":[],"obsTime":1784286000},"SBVT":{"icaoId":"SBVT","flightCategory":"VFR","rawOb":"METAR SBVT 171100Z 31003KT CAVOK 20/16 Q1026","temp":20,"dewp":16,"wdir":310,"wspd":3,"visib":"6+","altim":1026,"clouds":[],"obsTime":1784286000},"SBFL":{"icaoId":"SBFL","flightCategory":"VFR","rawOb":"METAR SBFL 171100Z 10002KT CAVOK 15/14 Q1018","temp":15,"dewp":14,"wdir":100,"wspd":2,"visib":"6+","altim":1018,"clouds":[],"obsTime":1784286000},"SBCG":{"icaoId":"SBCG","flightCategory":"VFR","rawOb":"METAR SBCG 171100Z 36010KT 9999 FEW020 SCT060 24/18 Q1016","temp":24,"dewp":18,"wdir":360,"wspd":10,"visib":"6+","altim":1016,"clouds":[{"cover":"FEW","base":2000},{"cover":"SCT","base":6000}],"obsTime":1784286000},"SBSG":{"icaoId":"SBSG","flightCategory":"MVFR","rawOb":"METAR SBSG 171100Z 16008KT 130V240 9999 VCSH SCT013 BKN030 24/22 Q1017","temp":24,"dewp":22,"wdir":160,"wspd":8,"visib":"6+","altim":1017,"clouds":[{"cover":"SCT","base":1300},{"cover":"BKN","base":3000}],"obsTime":1784286000},"SBKP":{"icaoId":"SBKP","flightCategory":"VFR","rawOb":"METAR SBKP 171100Z 05002KT CAVOK 14/09 Q1024","temp":14,"dewp":9,"wdir":50,"wspd":2,"visib":"6+","altim":1024,"clouds":[],"obsTime":1784286000},"SBGO":{"icaoId":"SBGO","flightCategory":"VFR","rawOb":"METAR SBGO 171100Z 10005KT 060V130 CAVOK 18/09 Q1023","temp":18,"dewp":9,"wdir":100,"wspd":5,"visib":"6+","altim":1023,"clouds":[],"obsTime":1784286000},"SBAT":{"icaoId":"SBAT","flightCategory":"VFR","rawOb":"METAR SBAT 171100Z 00000KT CAVOK 24/22 Q1016","temp":24,"dewp":22,"wdir":0,"wspd":0,"visib":"6+","altim":1016,"clouds":[],"obsTime":1784286000},"SBHT":{"icaoId":"SBHT","flightCategory":"VFR","rawOb":"METAR SBHT 171100Z 00000KT 9999 FEW015 SCT080 26/25 Q1014","temp":26,"dewp":25,"wdir":0,"wspd":0,"visib":"6+","altim":1014,"clouds":[{"cover":"FEW","base":1500},{"cover":"SCT","base":8000}],"obsTime":1784286000},"SBMG":{"icaoId":"SBMG","flightCategory":"VFR","rawOb":"METAR SBMG 171100Z 03016G26KT CAVOK 20/12 Q1017","temp":20,"dewp":12,"wdir":30,"wspd":16,"visib":"6+","altim":1017,"clouds":[],"obsTime":1784286000},"SBME":{"icaoId":"SBME","flightCategory":"VFR","rawOb":"METAR SBME 171100Z 01009KT CAVOK 19/12 Q1024","temp":19,"dewp":12,"wdir":10,"wspd":9,"visib":"6+","altim":1024,"clouds":[],"obsTime":1784286000},"SBMK":{"icaoId":"SBMK","flightCategory":"VFR","rawOb":"METAR SBMK 171100Z 07006KT 9999 FEW030 17/11 Q1025","temp":17,"dewp":11,"wdir":70,"wspd":6,"visib":"6+","altim":1025,"clouds":[{"cover":"FEW","base":3000}],"obsTime":1784286000},"SBUL":{"icaoId":"SBUL","flightCategory":"VFR","rawOb":"METAR SBUL 171100Z 09018KT CAVOK 14/08 Q1025","temp":14,"dewp":8,"wdir":90,"wspd":18,"visib":"6+","altim":1025,"clouds":[],"obsTime":1784286000},"SBUR":{"icaoId":"SBUR","flightCategory":"VFR","rawOb":"METAR SBUR 171100Z 05012KT CAVOK 15/08 Q1024","temp":15,"dewp":8,"wdir":50,"wspd":12,"visib":"6+","altim":1024,"clouds":[],"obsTime":1784286000},"SBIL":{"icaoId":"SBIL","flightCategory":"VFR","rawOb":"METAR SBIL 171100Z 24004KT 210V310 9999 VCSH SCT017 SCT020 BKN070 21/19 Q1023","temp":21,"dewp":19,"wdir":240,"wspd":4,"visib":"6+","altim":1023,"clouds":[{"cover":"SCT","base":1700},{"cover":"SCT","base":2000},{"cover":"BKN","base":7000}],"obsTime":1784286000},"SBJU":{"icaoId":"SBJU","flightCategory":"VFR","rawOb":"METAR SBJU 171100Z 18005KT 9999 SCT020 24/17 Q1020","temp":24,"dewp":17,"wdir":180,"wspd":5,"visib":"6+","altim":1020,"clouds":[{"cover":"SCT","base":2000}],"obsTime":1784286000},"SBTD":{"icaoId":"SBTD","flightCategory":"VFR","rawOb":"METAR SBTD 171100Z /////KT CAVOK 20/12 Q1016","temp":20,"dewp":12,"wdir":null,"wspd":null,"visib":"6+","altim":1016,"clouds":[],"obsTime":1784286000},"SBSJ":{"icaoId":"SBSJ","flightCategory":"VFR","rawOb":"METAR SBSJ 171100Z 02002KT CAVOK 13/09 Q1025","temp":13,"dewp":9,"wdir":20,"wspd":2,"visib":"6+","altim":1025,"clouds":[],"obsTime":1784286000},"SBOI":{"icaoId":"SBOI","flightCategory":"IFR","rawOb":"METAR SBOI 171100Z AUTO 00000KT 2100 BR VV002 23/23 Q1014","temp":23,"dewp":23,"wdir":0,"wspd":0,"visib":1.3,"altim":1014,"clouds":[{"cover":"OVX","base":200}],"obsTime":1784286000},"SBUY":{"icaoId":"SBUY","flightCategory":"IFR","rawOb":"METAR SBUY 171100Z 00000KT 2000 BR FEW010 22/22 Q1012","temp":22,"dewp":22,"wdir":0,"wspd":0,"visib":1.24,"altim":1012,"clouds":[{"cover":"FEW","base":1000}],"obsTime":1784286000},"SBPB":{"icaoId":"SBPB","flightCategory":"VFR","rawOb":"SPECI SBPB 171015Z 11006KT 9999 FEW020 27/23 Q1014","temp":27,"dewp":23,"wdir":110,"wspd":6,"visib":"6+","altim":1014,"clouds":[{"cover":"FEW","base":2000}],"obsTime":1784283300},"SBCJ":{"icaoId":"SBCJ","flightCategory":"VFR","rawOb":"SPECI SBCJ 171015Z 09003KT CAVOK 22/19 Q1017","temp":22,"dewp":19,"wdir":90,"wspd":3,"visib":"6+","altim":1017,"clouds":[],"obsTime":1784283300},"SBAR":{"icaoId":"SBAR","flightCategory":"VFR","rawOb":"METAR SBAR 171100Z 13012KT 100V170 9999 FEW025 SCT050 26/19 Q1020","temp":26,"dewp":19,"wdir":130,"wspd":12,"visib":"6+","altim":1020,"clouds":[{"cover":"FEW","base":2500},{"cover":"SCT","base":5000}],"obsTime":1784286000},"SBTF":{"icaoId":"SBTF","flightCategory":"VFR","rawOb":"SPECI SBTF 171112Z 00000KT CAVOK 24/24 Q1012","temp":24,"dewp":24,"wdir":0,"wspd":0,"visib":"6+","altim":1012,"clouds":[],"obsTime":1784286720},"SBPS":{"icaoId":"SBPS","flightCategory":"IFR","rawOb":"SPECI SBPS 171033Z VRB04KT 3000 -RA BR BKN015 BKN070 19/17 Q1024","temp":19,"dewp":17,"wdir":"VRB","wspd":4,"visib":1.86,"altim":1024,"clouds":[{"cover":"BKN","base":1500},{"cover":"BKN","base":7000}],"obsTime":1784284380},"SBPL":{"icaoId":"SBPL","flightCategory":"VFR","rawOb":"METAR SBPL 171100Z 13010KT 9999 SCT020 23/16 Q1021","temp":23,"dewp":16,"wdir":130,"wspd":10,"visib":"6+","altim":1021,"clouds":[{"cover":"SCT","base":2000}],"obsTime":1784286000},"SBTT":{"icaoId":"SBTT","flightCategory":"VFR","rawOb":"METAR SBTT 171100Z 00000KT 9999 FEW017 SCT060 23/22 Q1014","temp":23,"dewp":22,"wdir":0,"wspd":0,"visib":"6+","altim":1014,"clouds":[{"cover":"FEW","base":1700},{"cover":"SCT","base":6000}],"obsTime":1784286000},"SBPP":{"icaoId":"SBPP","flightCategory":"VFR","rawOb":"SPECI SBPP 171115Z 05007KT CAVOK 19/16 Q1014","temp":19,"dewp":16,"wdir":50,"wspd":7,"visib":"6+","altim":1014,"clouds":[],"obsTime":1784286900},"SBKG":{"icaoId":"SBKG","flightCategory":"MVFR","rawOb":"METAR SBKG 171100Z 16008KT 9999 BKN010 BKN070 21/19 Q1020","temp":21,"dewp":19,"wdir":160,"wspd":8,"visib":"6+","altim":1020,"clouds":[{"cover":"BKN","base":1000},{"cover":"BKN","base":7000}],"obsTime":1784286000},"SBSM":{"icaoId":"SBSM","flightCategory":"VFR","rawOb":"METAR SBSM 171100Z 03016G26KT CAVOK 24/14 Q1006 WS ALL RWY","temp":24,"dewp":14,"wdir":30,"wspd":16,"visib":"6+","altim":1006,"clouds":[],"obsTime":1784286000},"SBES":{"icaoId":"SBES","flightCategory":"VFR","rawOb":"METAR SBES 171100Z 04008KT 360V070 CAVOK 20/// Q1023","temp":null,"dewp":null,"wdir":40,"wspd":8,"visib":"6+","altim":1023,"clouds":[],"obsTime":1784286000},"SBTU":{"icaoId":"SBTU","flightCategory":"VFR","rawOb":"METAR SBTU 171100Z AUTO 25006KT 9999 // NCD ///// Q1016","temp":null,"dewp":null,"wdir":250,"wspd":6,"visib":"6+","altim":1016,"clouds":[],"obsTime":1784286000},"SBCC":{"icaoId":"SBCC","flightCategory":"VFR","rawOb":"METAR SBCC 171100Z VRB02KT CAVOK 22/20 Q1017","temp":22,"dewp":20,"wdir":"VRB","wspd":2,"visib":"6+","altim":1017,"clouds":[],"obsTime":1784286000},"SBVH":{"icaoId":"SBVH","flightCategory":"VFR","rawOb":"METAR SBVH 171100Z 01005KT CAVOK 22/21 Q1017","temp":22,"dewp":21,"wdir":10,"wspd":5,"visib":"6+","altim":1017,"clouds":[],"obsTime":1784286000},"SBCA":{"icaoId":"SBCA","flightCategory":"VFR","rawOb":"METAR SBCA 171100Z 03023G33KT CAVOK 19/12 Q1016","temp":19,"dewp":12,"wdir":30,"wspd":23,"visib":"6+","altim":1016,"clouds":[],"obsTime":1784286000},"SBCO":{"icaoId":"SBCO","flightCategory":"VFR","rawOb":"METAR SBCO 171100Z 07002KT CAVOK 14/13 Q1010","temp":14,"dewp":13,"wdir":70,"wspd":2,"visib":"6+","altim":1010,"clouds":[],"obsTime":1784286000},"SBBH":{"icaoId":"SBBH","flightCategory":"VFR","rawOb":"METAR SBBH 171100Z 09006KT CAVOK 16/09 Q1027","temp":16,"dewp":9,"wdir":90,"wspd":6,"visib":"6+","altim":1027,"clouds":[],"obsTime":1784286000},"SBBU":{"icaoId":"SBBU","flightCategory":"VFR","rawOb":"METAR SBBU 171100Z 04008KT CAVOK 17/11 Q1022","temp":17,"dewp":11,"wdir":40,"wspd":8,"visib":"6+","altim":1022,"clouds":[],"obsTime":1784286000},"SBDN":{"icaoId":"SBDN","flightCategory":"VFR","rawOb":"METAR SBDN 171100Z 05011KT CAVOK 18/11 Q1019","temp":18,"dewp":11,"wdir":50,"wspd":11,"visib":"6+","altim":1019,"clouds":[],"obsTime":1784286000},"SBIP":{"icaoId":"SBIP","flightCategory":"VFR","rawOb":"METAR SBIP 171100Z AUTO 00000KT 9999 SCT043 18/15 Q1026","temp":18,"dewp":15,"wdir":0,"wspd":0,"visib":"6+","altim":1026,"clouds":[{"cover":"SCT","base":4300}],"obsTime":1784286000},"SBSC":{"icaoId":"SBSC","flightCategory":"VFR","rawOb":"METAR SBSC 171100Z 35013G24KT CAVOK 19/12 Q1022","temp":19,"dewp":12,"wdir":350,"wspd":13,"visib":"6+","altim":1022,"clouds":[],"obsTime":1784286000},"SBSR":{"icaoId":"SBSR","flightCategory":"VFR","rawOb":"METAR SBSR 171100Z 07013KT CAVOK 17/09 Q1022","temp":17,"dewp":9,"wdir":70,"wspd":13,"visib":"6+","altim":1022,"clouds":[],"obsTime":1784286000},"SBJP":{"icaoId":"SBJP","flightCategory":"MVFR","rawOb":"METAR SBJP 171100Z 21008KT 9999 SCT010 BKN018 BKN070 23/22 Q1017","temp":23,"dewp":22,"wdir":210,"wspd":8,"visib":"6+","altim":1017,"clouds":[{"cover":"SCT","base":1000},{"cover":"BKN","base":1800},{"cover":"BKN","base":7000}],"obsTime":1784286000},"SBIH":{"icaoId":"SBIH","flightCategory":"VFR","rawOb":"METAR SBIH 171100Z 00000KT 9999 FEW005 25/24 Q1013","temp":25,"dewp":24,"wdir":0,"wspd":0,"visib":"6+","altim":1013,"clouds":[{"cover":"FEW","base":500}],"obsTime":1784286000},"SBNM":{"icaoId":"SBNM","flightCategory":"VFR","rawOb":"METAR SBNM 171100Z AUTO 04011KT CAVOK 19/15 Q1009","temp":19,"dewp":15,"wdir":40,"wspd":11,"visib":"6+","altim":1009,"clouds":[],"obsTime":1784286000},"SBPF":{"icaoId":"SBPF","flightCategory":"VFR","rawOb":"METAR SBPF 171100Z 07009KT CAVOK 17/11 Q1014","temp":17,"dewp":11,"wdir":70,"wspd":9,"visib":"6+","altim":1014,"clouds":[],"obsTime":1784286000},"SBAF":{"icaoId":"SBAF","flightCategory":"VFR","rawOb":"METAR SBAF 171100Z 00000KT CAVOK 15/15 Q1022","temp":15,"dewp":15,"wdir":0,"wspd":0,"visib":"6+","altim":1022,"clouds":[],"obsTime":1784286000},"SBGW":{"icaoId":"SBGW","flightCategory":"VFR","rawOb":"METAR SBGW 171100Z 05002KT CAVOK 12/09 Q1025","temp":12,"dewp":9,"wdir":50,"wspd":2,"visib":"6+","altim":1025,"clouds":[],"obsTime":1784286000},"SBJR":{"icaoId":"SBJR","flightCategory":"VFR","rawOb":"METAR SBJR 171100Z 36004KT CAVOK 21/14 Q1022","temp":21,"dewp":14,"wdir":360,"wspd":4,"visib":"6+","altim":1022,"clouds":[],"obsTime":1784286000},"SBAN":{"icaoId":"SBAN","flightCategory":"VFR","rawOb":"METAR SBAN 171100Z 11007KT CAVOK 14/08 Q1024","temp":14,"dewp":8,"wdir":110,"wspd":7,"visib":"6+","altim":1024,"clouds":[],"obsTime":1784286000},"SBMT":{"icaoId":"SBMT","flightCategory":"VFR","rawOb":"METAR SBMT 171100Z 11003KT CAVOK 13/10 Q1024","temp":13,"dewp":10,"wdir":110,"wspd":3,"visib":"6+","altim":1024,"clouds":[],"obsTime":1784286000},"SBST":{"icaoId":"SBST","flightCategory":"VFR","rawOb":"METAR SBST 171100Z 10001KT CAVOK 14/14 Q1020","temp":14,"dewp":14,"wdir":100,"wspd":1,"visib":"6+","altim":1020,"clouds":[],"obsTime":1784286000},"SBTA":{"icaoId":"SBTA","flightCategory":"VFR","rawOb":"METAR SBTA 171100Z 00000KT CAVOK 09/08 Q1024","temp":9,"dewp":8,"wdir":0,"wspd":0,"visib":"6+","altim":1024,"clouds":[],"obsTime":1784286000},"SBJV":{"icaoId":"SBJV","flightCategory":"LIFR","rawOb":"METAR SBJV 171100Z 00000KT 1600 R33/P2000 BR OVC002 16/16 Q1019","temp":16,"dewp":16,"wdir":0,"wspd":0,"visib":0.99,"altim":1019,"clouds":[{"cover":"OVC","base":200}],"obsTime":1784286000},"SBLE":{"icaoId":"SBLE","flightCategory":"MVFR","rawOb":"METAR SBLE 171100Z AUTO 14005KT 120V190 9999 SCT005 BKN026 OVC049 ///// Q1025","temp":null,"dewp":null,"wdir":140,"wspd":5,"visib":"6+","altim":1025,"clouds":[{"cover":"SCT","base":500},{"cover":"BKN","base":2600},{"cover":"OVC","base":4900}],"obsTime":1784286000},"SBLS":{"icaoId":"SBLS","flightCategory":"VFR","rawOb":"METAR SBLS 171100Z 11004KT 050V120 9999 FEW035 15/09 Q1027","temp":15,"dewp":9,"wdir":110,"wspd":4,"visib":"6+","altim":1027,"clouds":[{"cover":"FEW","base":3500}],"obsTime":1784286000}}}