{"updated":1782192854,"count":53,"data":{"SBFZ":{"icaoId":"SBFZ","flightCategory":"MVFR","rawOb":"METAR SBFZ 230400Z 11010KT 9999 BKN016 27/24 Q1012","temp":27,"dewp":24,"wdir":110,"wspd":10,"visib":"6+","altim":1012,"clouds":[{"cover":"BKN","base":1600}],"obsTime":1782187200},"SBBR":{"icaoId":"SBBR","flightCategory":"VFR","rawOb":"METAR SBBR 230400Z 22003KT 200V270 CAVOK 18/14 Q1021","temp":18,"dewp":14,"wdir":220,"wspd":3,"visib":"6+","altim":1021,"clouds":[],"obsTime":1782187200},"SBBV":{"icaoId":"SBBV","flightCategory":"VFR","rawOb":"METAR SBBV 230400Z 06006KT 9999 SCT040 FEW045TCU BKN080 27/24 Q1013","temp":27,"dewp":24,"wdir":60,"wspd":6,"visib":"6+","altim":1013,"clouds":[{"cover":"SCT","base":4000},{"cover":"FEW","base":4500},{"cover":"BKN","base":8000}],"obsTime":1782187200},"SBCF":{"icaoId":"SBCF","flightCategory":"VFR","rawOb":"METAR SBCF 230400Z 15003KT CAVOK 16/14 Q1020","temp":16,"dewp":14,"wdir":150,"wspd":3,"visib":"6+","altim":1020,"clouds":[],"obsTime":1782187200},"SBCG":{"icaoId":"SBCG","flightCategory":"IFR","rawOb":"METAR SBCG 230400Z 14011KT 9999 OVC007 15/14 Q1017","temp":15,"dewp":14,"wdir":140,"wspd":11,"visib":"6+","altim":1017,"clouds":[{"cover":"OVC","base":700}],"obsTime":1782187200},"SBCT":{"icaoId":"SBCT","flightCategory":"IFR","rawOb":"METAR SBCT 230400Z 23007KT 9999 BKN008 BKN030 14/13 Q1016","temp":14,"dewp":13,"wdir":230,"wspd":7,"visib":"6+","altim":1016,"clouds":[{"cover":"BKN","base":800},{"cover":"BKN","base":3000}],"obsTime":1782187200},"SBEG":{"icaoId":"SBEG","flightCategory":"VFR","rawOb":"METAR SBEG 230400Z 05002KT CAVOK 25/24 Q1013","temp":25,"dewp":24,"wdir":50,"wspd":2,"visib":"6+","altim":1013,"clouds":[],"obsTime":1782187200},"SBFI":{"icaoId":"SBFI","flightCategory":"VFR","rawOb":"METAR SBFI 230400Z 02002KT CAVOK 08/08 Q1019","temp":8,"dewp":8,"wdir":20,"wspd":2,"visib":"6+","altim":1019,"clouds":[],"obsTime":1782187200},"SBFL":{"icaoId":"SBFL","flightCategory":"MVFR","rawOb":"METAR SBFL 230400Z 13005KT 090V150 9999 SCT010 BKN018 16/14 Q1013","temp":16,"dewp":14,"wdir":130,"wspd":5,"visib":"6+","altim":1013,"clouds":[{"cover":"SCT","base":1000},{"cover":"BKN","base":1800}],"obsTime":1782187200},"SBBE":{"icaoId":"SBBE","flightCategory":"VFR","rawOb":"METAR SBBE 230400Z 07007KT 9999 FEW045 26/24 Q1013","temp":26,"dewp":24,"wdir":70,"wspd":7,"visib":"6+","altim":1013,"clouds":[{"cover":"FEW","base":4500}],"obsTime":1782187200},"SBGL":{"icaoId":"SBGL","flightCategory":"MVFR","rawOb":"METAR SBGL 230400Z 12003KT 7000 NSC 19/18 Q1013","temp":19,"dewp":18,"wdir":120,"wspd":3,"visib":4.35,"altim":1013,"clouds":[],"obsTime":1782187200},"SBGO":{"icaoId":"SBGO","flightCategory":"VFR","rawOb":"METAR SBGO 230400Z 30003KT CAVOK 18/17 Q1017","temp":18,"dewp":17,"wdir":300,"wspd":3,"visib":"6+","altim":1017,"clouds":[],"obsTime":1782187200},"SBGR":{"icaoId":"SBGR","flightCategory":"VFR","rawOb":"METAR SBGR 230400Z 01010KT CAVOK 21/11 Q1016","temp":21,"dewp":11,"wdir":10,"wspd":10,"visib":"6+","altim":1016,"clouds":[],"obsTime":1782187200},"SBJU":{"icaoId":"SBJU","flightCategory":"VFR","rawOb":"METAR SBJU 230400Z 00000KT 9999 FEW020 24/17 Q1015","temp":24,"dewp":17,"wdir":0,"wspd":0,"visib":"6+","altim":1015,"clouds":[{"cover":"FEW","base":2000}],"obsTime":1782187200},"SBKP":{"icaoId":"SBKP","flightCategory":"VFR","rawOb":"METAR SBKP 230400Z 34006KT 9999 -RA FEW030 BKN070 OVC100 21/12 Q1016","temp":21,"dewp":12,"wdir":340,"wspd":6,"visib":"6+","altim":1016,"clouds":[{"cover":"FEW","base":3000},{"cover":"BKN","base":7000},{"cover":"OVC","base":10000}],"obsTime":1782187200},"SBLO":{"icaoId":"SBLO","flightCategory":"VFR","rawOb":"METAR SBLO 230400Z 28003KT 9999 FEW030 17/16 Q1015","temp":17,"dewp":16,"wdir":280,"wspd":3,"visib":"6+","altim":1015,"clouds":[{"cover":"FEW","base":3000}],"obsTime":1782187200},"SBMA":{"icaoId":"SBMA","flightCategory":"VFR","rawOb":"METAR SBMA 230400Z 00000KT CAVOK 25/23 Q1012","temp":25,"dewp":23,"wdir":0,"wspd":0,"visib":"6+","altim":1012,"clouds":[],"obsTime":1782187200},"SBMG":{"icaoId":"SBMG","flightCategory":"MVFR","rawOb":"METAR SBMG 230400Z AUTO 26008KT 9999 FEW003 OVC018 13/13 Q1016","temp":13,"dewp":13,"wdir":260,"wspd":8,"visib":"6+","altim":1016,"clouds":[{"cover":"FEW","base":300},{"cover":"OVC","base":1800}],"obsTime":1782187200},"SBMO":{"icaoId":"SBMO","flightCategory":"MVFR","rawOb":"METAR SBMO 230400Z 26002KT 9999 BKN020 22/22 Q1016","temp":22,"dewp":22,"wdir":260,"wspd":2,"visib":"6+","altim":1016,"clouds":[{"cover":"BKN","base":2000}],"obsTime":1782187200},"SBMQ":{"icaoId":"SBMQ","flightCategory":"VFR","rawOb":"METAR SBMQ 230400Z 02005KT 9999 FEW012 27/25 Q1013","temp":27,"dewp":25,"wdir":20,"wspd":5,"visib":"6+","altim":1013,"clouds":[{"cover":"FEW","base":1200}],"obsTime":1782187200},"SBNT":{"icaoId":"SBNT","flightCategory":"VFR","rawOb":"METAR SBNT 230400Z 13005KT 090V170 9999 FEW007 SCT017 24/23 Q1014","temp":24,"dewp":23,"wdir":130,"wspd":5,"visib":"6+","altim":1014,"clouds":[{"cover":"FEW","base":700},{"cover":"SCT","base":1700}],"obsTime":1782187200},"SBPA":{"icaoId":"SBPA","flightCategory":"VFR","rawOb":"METAR SBPA 230400Z 30007KT CAVOK 09/08 Q1016","temp":9,"dewp":8,"wdir":300,"wspd":7,"visib":"6+","altim":1016,"clouds":[],"obsTime":1782187200},"SBPJ":{"icaoId":"SBPJ","flightCategory":"VFR","rawOb":"METAR SBPJ 230400Z 15005KT CAVOK 22/16 Q1014","temp":22,"dewp":16,"wdir":150,"wspd":5,"visib":"6+","altim":1014,"clouds":[],"obsTime":1782187200},"SBPV":{"icaoId":"SBPV","flightCategory":"MVFR","rawOb":"METAR SBPV 230400Z 00000KT 8000 FEW035 25/23 Q1013","temp":25,"dewp":23,"wdir":0,"wspd":0,"visib":4.97,"altim":1013,"clouds":[{"cover":"FEW","base":3500}],"obsTime":1782187200},"SBRB":{"icaoId":"SBRB","flightCategory":"VFR","rawOb":"METAR SBRB 230400Z 00000KT CAVOK 22/22 Q1013","temp":22,"dewp":22,"wdir":0,"wspd":0,"visib":"6+","altim":1013,"clouds":[],"obsTime":1782187200},"SBRF":{"icaoId":"SBRF","flightCategory":"MVFR","rawOb":"METAR SBRF 230400Z 08004KT 9000 VCSH BKN018 OVC040 24/23 Q1014","temp":24,"dewp":23,"wdir":80,"wspd":4,"visib":5.59,"altim":1014,"clouds":[{"cover":"BKN","base":1800},{"cover":"OVC","base":4000}],"obsTime":1782187200},"SBSG":{"icaoId":"SBSG","flightCategory":"VFR","rawOb":"METAR SBSG 230400Z 14003KT 090V180 9999 -RA SCT010 SCT025 23/23 Q1014","temp":23,"dewp":23,"wdir":140,"wspd":3,"visib":"6+","altim":1014,"clouds":[{"cover":"SCT","base":1000},{"cover":"SCT","base":2500}],"obsTime":1782187200},"SBSL":{"icaoId":"SBSL","flightCategory":"VFR","rawOb":"METAR SBSL 230400Z 14004KT 9999 FEW017 BKN080 26/24 Q1012","temp":26,"dewp":24,"wdir":140,"wspd":4,"visib":"6+","altim":1012,"clouds":[{"cover":"FEW","base":1700},{"cover":"BKN","base":8000}],"obsTime":1782187200},"SBSN":{"icaoId":"SBSN","flightCategory":"VFR","rawOb":"METAR SBSN 230400Z 14004KT CAVOK 25/24 Q1012","temp":25,"dewp":24,"wdir":140,"wspd":4,"visib":"6+","altim":1012,"clouds":[],"obsTime":1782187200},"SBSP":{"icaoId":"SBSP","flightCategory":"VFR","rawOb":"METAR SBSP 230400Z AUTO 34009KT CAVOK 21/11 Q1016","temp":21,"dewp":11,"wdir":340,"wspd":9,"visib":"6+","altim":1016,"clouds":[],"obsTime":1782187200},"SBSV":{"icaoId":"SBSV","flightCategory":"VFR","rawOb":"METAR SBSV 230400Z 00000KT CAVOK 20/19 Q1016","temp":20,"dewp":19,"wdir":0,"wspd":0,"visib":"6+","altim":1016,"clouds":[],"obsTime":1782187200},"SBTE":{"icaoId":"SBTE","flightCategory":"VFR","rawOb":"METAR SBTE 230400Z 05003KT 9999 FEW040 SCT070 27/23 Q1012","temp":27,"dewp":23,"wdir":50,"wspd":3,"visib":"6+","altim":1012,"clouds":[{"cover":"FEW","base":4000},{"cover":"SCT","base":7000}],"obsTime":1782187200},"SBUL":{"icaoId":"SBUL","flightCategory":"VFR","rawOb":"METAR SBUL 230400Z 10007KT CAVOK 20/12 Q1019","temp":20,"dewp":12,"wdir":100,"wspd":7,"visib":"6+","altim":1019,"clouds":[],"obsTime":1782187200},"SBUR":{"icaoId":"SBUR","flightCategory":"VFR","rawOb":"METAR SBUR 230400Z 03006KT CAVOK 20/13 Q1018","temp":20,"dewp":13,"wdir":30,"wspd":6,"visib":"6+","altim":1018,"clouds":[],"obsTime":1782187200},"SBVT":{"icaoId":"SBVT","flightCategory":"VFR","rawOb":"METAR SBVT 230400Z 31004KT CAVOK 19/17 Q1017","temp":19,"dewp":17,"wdir":310,"wspd":4,"visib":"6+","altim":1017,"clouds":[],"obsTime":1782187200},"SBMK":{"icaoId":"SBMK","flightCategory":"VFR","rawOb":"METAR SBMK 230400Z 25002KT CAVOK 16/14 Q1019","temp":16,"dewp":14,"wdir":250,"wspd":2,"visib":"6+","altim":1019,"clouds":[],"obsTime":1782187200},"SBME":{"icaoId":"SBME","flightCategory":"VFR","rawOb":"METAR SBME 230400Z 03009KT CAVOK 20/18 Q1015","temp":20,"dewp":18,"wdir":30,"wspd":9,"visib":"6+","altim":1015,"clouds":[],"obsTime":1782187200},"SBOI":{"icaoId":"SBOI","flightCategory":"VFR","rawOb":"METAR SBOI 230400Z AUTO VRB02KT 9999 // FEW002/// 24/24 Q1013","temp":24,"dewp":24,"wdir":"VRB","wspd":2,"visib":"6+","altim":1013,"clouds":[{"cover":"FEW","base":200}],"obsTime":1782187200},"SBTU":{"icaoId":"SBTU","flightCategory":"VFR","rawOb":"METAR SBTU 230400Z AUTO 00000KT 9999 // NCD ///// Q1014","temp":null,"dewp":null,"wdir":0,"wspd":0,"visib":"6+","altim":1014,"clouds":[],"obsTime":1782187200},"SBAX":{"icaoId":"SBAX","flightCategory":"VFR","rawOb":"METAR SBAX 230400Z AUTO 13003KT CAVOK 16/12 Q1020","temp":16,"dewp":12,"wdir":130,"wspd":3,"visib":"6+","altim":1020,"clouds":[],"obsTime":1782187200},"SBDN":{"icaoId":"SBDN","flightCategory":"MVFR","rawOb":"METAR SBDN 230400Z 24006KT 9999 SCT005 OVC010 18/16 Q1016","temp":18,"dewp":16,"wdir":240,"wspd":6,"visib":"6+","altim":1016,"clouds":[{"cover":"SCT","base":500},{"cover":"OVC","base":1000}],"obsTime":1782187200},"SBES":{"icaoId":"SBES","flightCategory":"VFR","rawOb":"METAR SBES 230400Z 05008KT 9000 NSC 20/// Q1014","temp":null,"dewp":null,"wdir":50,"wspd":8,"visib":5.59,"altim":1014,"clouds":[],"obsTime":1782187200},"SBIP":{"icaoId":"SBIP","flightCategory":"VFR","rawOb":"METAR SBIP 230400Z AUTO VRB01KT 9000 FEW001 SCT004 15/15 Q1018","temp":15,"dewp":15,"wdir":"VRB","wspd":1,"visib":5.59,"altim":1018,"clouds":[{"cover":"FEW","base":100},{"cover":"SCT","base":400}],"obsTime":1782187200},"SBKG":{"icaoId":"SBKG","flightCategory":"IFR","rawOb":"METAR SBKG 230400Z 10006KT 4000 BR SCT004 BKN006 21/21 Q1017","temp":21,"dewp":21,"wdir":100,"wspd":6,"visib":2.49,"altim":1017,"clouds":[{"cover":"SCT","base":400},{"cover":"BKN","base":600}],"obsTime":1782187200},"SBPL":{"icaoId":"SBPL","flightCategory":"VFR","rawOb":"METAR SBPL 230400Z 12005KT CAVOK 23/13 Q1016","temp":23,"dewp":13,"wdir":120,"wspd":5,"visib":"6+","altim":1016,"clouds":[],"obsTime":1782187200},"SBPS":{"icaoId":"SBPS","flightCategory":"VFR","rawOb":"METAR SBPS 230400Z 27003KT 9999 FEW025 19/18 Q1018","temp":19,"dewp":18,"wdir":270,"wspd":3,"visib":"6+","altim":1018,"clouds":[{"cover":"FEW","base":2500}],"obsTime":1782187200},"SBSC":{"icaoId":"SBSC","flightCategory":"VFR","rawOb":"METAR SBSC 230400Z 03008KT CAVOK 20/17 Q1013","temp":20,"dewp":17,"wdir":30,"wspd":8,"visib":"6+","altim":1013,"clouds":[],"obsTime":1782187200},"SBSR":{"icaoId":"SBSR","flightCategory":"VFR","rawOb":"METAR SBSR 230400Z 24006KT 9999 FEW035 SCT070 21/17 Q1016","temp":21,"dewp":17,"wdir":240,"wspd":6,"visib":"6+","altim":1016,"clouds":[{"cover":"FEW","base":3500},{"cover":"SCT","base":7000}],"obsTime":1782187200},"SBAR":{"icaoId":"SBAR","flightCategory":"VFR","rawOb":"METAR SBAR 230400Z 10003KT 9999 FEW015 BKN045 BKN070 25/21 Q1015","temp":25,"dewp":21,"wdir":100,"wspd":3,"visib":"6+","altim":1015,"clouds":[{"cover":"FEW","base":1500},{"cover":"BKN","base":4500},{"cover":"BKN","base":7000}],"obsTime":1782187200},"SBLE":{"icaoId":"SBLE","flightCategory":"VFR","rawOb":"METAR SBLE 230400Z AUTO 30004KT CAVOK ///// Q////","temp":null,"dewp":null,"wdir":300,"wspd":4,"visib":"6+","altim":null,"clouds":[],"obsTime":1782187200},"SBJP":{"icaoId":"SBJP","flightCategory":"LIFR","rawOb":"METAR SBJP 230400Z 15008KT 3500 -RA BKN004 BKN012 OVC018 23/23 Q1015","temp":23,"dewp":23,"wdir":150,"wspd":8,"visib":2.17,"altim":1015,"clouds":[{"cover":"BKN","base":400},{"cover":"BKN","base":1200},{"cover":"OVC","base":1800}],"obsTime":1782187200},"SBNM":{"icaoId":"SBNM","flightCategory":"VFR","rawOb":"METAR SBNM 230400Z AUTO 33003KT CAVOK 07/06 Q1019","temp":7,"dewp":6,"wdir":330,"wspd":3,"visib":"6+","altim":1019,"clouds":[],"obsTime":1782187200},"SBAN":{"icaoId":"SBAN","flightCategory":"VFR","rawOb":"METAR SBAN 230400Z 02002KT CAVOK 17/14 Q1021","temp":17,"dewp":14,"wdir":20,"wspd":2,"visib":"6+","altim":1021,"clouds":[],"obsTime":1782187200}}}