{"updated":1774054590,"count":69,"data":{"SBGR":{"icaoId":"SBGR","flightCategory":"VFR","rawOb":"METAR SBGR 202300Z 12003KT 9999 BKN036 21/18 Q1014","temp":21,"dewp":18,"wdir":120,"wspd":3,"visib":"6+","altim":1014,"clouds":[{"cover":"BKN","base":3600}],"obsTime":1774047600},"SBBR":{"icaoId":"SBBR","flightCategory":"VFR","rawOb":"METAR SBBR 202300Z VRB02KT 9999 -RA FEW010 BKN060 20/18 Q1016","temp":20,"dewp":18,"wdir":"VRB","wspd":2,"visib":"6+","altim":1016,"clouds":[{"cover":"FEW","base":1000},{"cover":"BKN","base":6000}],"obsTime":1774047600},"SBMG":{"icaoId":"SBMG","flightCategory":"VFR","rawOb":"METAR SBMG 202300Z 06005KT CAVOK 28/21 Q1008","temp":28,"dewp":21,"wdir":60,"wspd":5,"visib":"6+","altim":1008,"clouds":[],"obsTime":1774047600},"SBFZ":{"icaoId":"SBFZ","flightCategory":"VFR","rawOb":"METAR SBFZ 202300Z 07011KT 030V090 9999 SCT020 27/25 Q1009","temp":27,"dewp":25,"wdir":70,"wspd":11,"visib":"6+","altim":1009,"clouds":[{"cover":"SCT","base":2000}],"obsTime":1774047600},"SBMK":{"icaoId":"SBMK","flightCategory":"VFR","rawOb":"METAR SBMK 202300Z 28004KT 9999 SCT035 BKN080 25/20 Q1013","temp":25,"dewp":20,"wdir":280,"wspd":4,"visib":"6+","altim":1013,"clouds":[{"cover":"SCT","base":3500},{"cover":"BKN","base":8000}],"obsTime":1774047600},"SBCT":{"icaoId":"SBCT","flightCategory":"MVFR","rawOb":"METAR SBCT 202300Z 09006KT 9999 BKN010 20/19 Q1014","temp":20,"dewp":19,"wdir":90,"wspd":6,"visib":"6+","altim":1014,"clouds":[{"cover":"BKN","base":1000}],"obsTime":1774047600},"SBMO":{"icaoId":"SBMO","flightCategory":"VFR","rawOb":"METAR SBMO 202300Z 06004KT 9999 FEW023 26/23 Q1010","temp":26,"dewp":23,"wdir":60,"wspd":4,"visib":"6+","altim":1010,"clouds":[{"cover":"FEW","base":2300}],"obsTime":1774047600},"SBGL":{"icaoId":"SBGL","flightCategory":"MVFR","rawOb":"METAR SBGL 202300Z 14002KT 9999 BKN030 OVC070 24/23 Q1010","temp":24,"dewp":23,"wdir":140,"wspd":2,"visib":"6+","altim":1010,"clouds":[{"cover":"BKN","base":3000},{"cover":"OVC","base":7000}],"obsTime":1774047600},"SBMQ":{"icaoId":"SBMQ","flightCategory":"LIFR","rawOb":"METAR SBMQ 202300Z 36005KT 9999 -RA BKN004 24/24 Q1011","temp":24,"dewp":24,"wdir":360,"wspd":5,"visib":"6+","altim":1011,"clouds":[{"cover":"BKN","base":400}],"obsTime":1774047600},"SBGO":{"icaoId":"SBGO","flightCategory":"VFR","rawOb":"METAR SBGO 202300Z 35005KT 9999 FEW015 SCT100 22/20 Q1014","temp":22,"dewp":20,"wdir":350,"wspd":5,"visib":"6+","altim":1014,"clouds":[{"cover":"FEW","base":1500},{"cover":"SCT","base":10000}],"obsTime":1774047600},"SBNT":{"icaoId":"SBNT","flightCategory":"VFR","rawOb":"METAR SBNT 202300Z 12008KT 9999 FEW021 28/24 Q1009","temp":28,"dewp":24,"wdir":120,"wspd":8,"visib":"6+","altim":1009,"clouds":[{"cover":"FEW","base":2100}],"obsTime":1774047600},"SBCF":{"icaoId":"SBCF","flightCategory":"VFR","rawOb":"METAR SBCF 202300Z 03005KT 9999 TS BKN040 FEW040CB BKN070 23/21 Q1014","temp":23,"dewp":21,"wdir":30,"wspd":5,"visib":"6+","altim":1014,"clouds":[{"cover":"BKN","base":4000},{"cover":"FEW","base":4000},{"cover":"BKN","base":7000}],"obsTime":1774047600},"SBPA":{"icaoId":"SBPA","flightCategory":"VFR","rawOb":"METAR SBPA 202300Z 10014KT CAVOK 24/21 Q1008","temp":24,"dewp":21,"wdir":100,"wspd":14,"visib":"6+","altim":1008,"clouds":[],"obsTime":1774047600},"SBPJ":{"icaoId":"SBPJ","flightCategory":"VFR","rawOb":"METAR SBPJ 202300Z 33004KT 9999 VCTS FEW027 FEW035CB 26/24 Q1011","temp":26,"dewp":24,"wdir":330,"wspd":4,"visib":"6+","altim":1011,"clouds":[{"cover":"FEW","base":2700},{"cover":"FEW","base":3500}],"obsTime":1774047600},"SBCZ":{"icaoId":"SBCZ","flightCategory":"MVFR","rawOb":"METAR SBCZ 202300Z 00000KT 7000 FEW022 FEW025TCU SCT050 BKN080 26/25 Q1004","temp":26,"dewp":25,"wdir":0,"wspd":0,"visib":4.35,"altim":1004,"clouds":[{"cover":"FEW","base":2200},{"cover":"FEW","base":2500},{"cover":"SCT","base":5000},{"cover":"BKN","base":8000}],"obsTime":1774047600},"SBPV":{"icaoId":"SBPV","flightCategory":"VFR","rawOb":"METAR SBPV 202300Z 35002KT 9999 VCTS FEW035 FEW040CB 27/24 Q1005","temp":27,"dewp":24,"wdir":350,"wspd":2,"visib":"6+","altim":1005,"clouds":[{"cover":"FEW","base":3500},{"cover":"FEW","base":4000}],"obsTime":1774047600},"SBRB":{"icaoId":"SBRB","flightCategory":"VFR","rawOb":"METAR SBRB 202300Z 00000KT 9999 SCT034 BKN100 29/24 Q1004","temp":29,"dewp":24,"wdir":0,"wspd":0,"visib":"6+","altim":1004,"clouds":[{"cover":"SCT","base":3400},{"cover":"BKN","base":10000}],"obsTime":1774047600},"SBIL":{"icaoId":"SBIL","flightCategory":"VFR","rawOb":"METAR SBIL 202300Z 08008KT CAVOK 29/25 Q1010","temp":29,"dewp":25,"wdir":80,"wspd":8,"visib":"6+","altim":1010,"clouds":[],"obsTime":1774047600},"SBRF":{"icaoId":"SBRF","flightCategory":"VFR","rawOb":"METAR SBRF 202300Z 09008KT 9999 SCT023 29/24 Q1010","temp":29,"dewp":24,"wdir":90,"wspd":8,"visib":"6+","altim":1010,"clouds":[{"cover":"SCT","base":2300}],"obsTime":1774047600},"SBBE":{"icaoId":"SBBE","flightCategory":"VFR","rawOb":"METAR SBBE 202300Z 33003KT 9999 -RA FEW009 SCT013 OVC100 24/24 Q1012","temp":24,"dewp":24,"wdir":330,"wspd":3,"visib":"6+","altim":1012,"clouds":[{"cover":"FEW","base":900},{"cover":"SCT","base":1300},{"cover":"OVC","base":10000}],"obsTime":1774047600},"SBSG":{"icaoId":"SBSG","flightCategory":"VFR","rawOb":"METAR SBSG 202300Z 12006KT 9999 FEW023 27/24 Q1010","temp":27,"dewp":24,"wdir":120,"wspd":6,"visib":"6+","altim":1010,"clouds":[{"cover":"FEW","base":2300}],"obsTime":1774047600},"SBJU":{"icaoId":"SBJU","flightCategory":"VFR","rawOb":"METAR SBJU 202300Z 00000KT 9999 SCT020 27/22 Q1011","temp":27,"dewp":22,"wdir":0,"wspd":0,"visib":"6+","altim":1011,"clouds":[{"cover":"SCT","base":2000}],"obsTime":1774047600},"SBSL":{"icaoId":"SBSL","flightCategory":"VFR","rawOb":"METAR SBSL 202300Z 02006KT 9999 FEW020 BKN080 28/25 Q1009","temp":28,"dewp":25,"wdir":20,"wspd":6,"visib":"6+","altim":1009,"clouds":[{"cover":"FEW","base":2000},{"cover":"BKN","base":8000}],"obsTime":1774047600},"SBEG":{"icaoId":"SBEG","flightCategory":"VFR","rawOb":"METAR SBEG 202300Z 09002KT 9999 FEW030 27/23 Q1008","temp":27,"dewp":23,"wdir":90,"wspd":2,"visib":"6+","altim":1008,"clouds":[{"cover":"FEW","base":3000}],"obsTime":1774047600},"SBSN":{"icaoId":"SBSN","flightCategory":"MVFR","rawOb":"METAR SBSN 202300Z VRB02KT 9999 SCT013 BKN019 BKN100 26/24 Q1009","temp":26,"dewp":24,"wdir":"VRB","wspd":2,"visib":"6+","altim":1009,"clouds":[{"cover":"SCT","base":1300},{"cover":"BKN","base":1900},{"cover":"BKN","base":10000}],"obsTime":1774047600},"SBBV":{"icaoId":"SBBV","flightCategory":"VFR","rawOb":"METAR SBBV 202300Z 09008KT CAVOK 32/20 Q1007","temp":32,"dewp":20,"wdir":90,"wspd":8,"visib":"6+","altim":1007,"clouds":[],"obsTime":1774047600},"SBSP":{"icaoId":"SBSP","flightCategory":"VFR","rawOb":"METAR SBSP 202300Z 15007KT 9999 SCT017 21/18 Q1015","temp":21,"dewp":18,"wdir":150,"wspd":7,"visib":"6+","altim":1015,"clouds":[{"cover":"SCT","base":1700}],"obsTime":1774047600},"SBKP":{"icaoId":"SBKP","flightCategory":"VFR","rawOb":"METAR SBKP 202300Z 13009KT CAVOK 24/19 Q1012","temp":24,"dewp":19,"wdir":130,"wspd":9,"visib":"6+","altim":1012,"clouds":[],"obsTime":1774047600},"SBSV":{"icaoId":"SBSV","flightCategory":"VFR","rawOb":"METAR SBSV 202300Z 08010KT 9999 FEW023 28/23 Q1010","temp":28,"dewp":23,"wdir":80,"wspd":10,"visib":"6+","altim":1010,"clouds":[{"cover":"FEW","base":2300}],"obsTime":1774047600},"SBFI":{"icaoId":"SBFI","flightCategory":"VFR","rawOb":"METAR SBFI 202300Z 06002KT 9999 FEW040 29/22 Q1005","temp":29,"dewp":22,"wdir":60,"wspd":2,"visib":"6+","altim":1005,"clouds":[{"cover":"FEW","base":4000}],"obsTime":1774047600},"SBTE":{"icaoId":"SBTE","flightCategory":"VFR","rawOb":"METAR SBTE 202300Z 27001KT 9999 FEW020 29/24 Q1007","temp":29,"dewp":24,"wdir":270,"wspd":1,"visib":"6+","altim":1007,"clouds":[{"cover":"FEW","base":2000}],"obsTime":1774047600},"SBUL":{"icaoId":"SBUL","flightCategory":"VFR","rawOb":"METAR SBUL 202300Z VRB03KT 9999 VCTS FEW040 FEW045CB BKN080 22/20 Q1015","temp":22,"dewp":20,"wdir":"VRB","wspd":3,"visib":"6+","altim":1015,"clouds":[{"cover":"FEW","base":4000},{"cover":"FEW","base":4500},{"cover":"BKN","base":8000}],"obsTime":1774047600},"SBLO":{"icaoId":"SBLO","flightCategory":"VFR","rawOb":"METAR SBLO 202300Z 08005KT 9999 FEW030 28/21 Q1009","temp":28,"dewp":21,"wdir":80,"wspd":5,"visib":"6+","altim":1009,"clouds":[{"cover":"FEW","base":3000}],"obsTime":1774047600},"SBCG":{"icaoId":"SBCG","flightCategory":"VFR","rawOb":"METAR SBCG 202300Z 27005KT 240V320 9999 -TSRA SCT012 BKN040 FEW045CB BKN100 24/23 Q1010","temp":24,"dewp":23,"wdir":270,"wspd":5,"visib":"6+","altim":1010,"clouds":[{"cover":"SCT","base":1200},{"cover":"BKN","base":4000},{"cover":"FEW","base":4500},{"cover":"BKN","base":10000}],"obsTime":1774047600},"SBUR":{"icaoId":"SBUR","flightCategory":"VFR","rawOb":"METAR SBUR 202300Z 30006KT CAVOK 23/21 Q1013","temp":23,"dewp":21,"wdir":300,"wspd":6,"visib":"6+","altim":1013,"clouds":[],"obsTime":1774047600},"SBMA":{"icaoId":"SBMA","flightCategory":"VFR","rawOb":"METAR SBMA 202300Z 05003KT 9999 FEW015 26/23 Q1010","temp":26,"dewp":23,"wdir":50,"wspd":3,"visib":"6+","altim":1010,"clouds":[{"cover":"FEW","base":1500}],"obsTime":1774047600},"SBVT":{"icaoId":"SBVT","flightCategory":"VFR","rawOb":"METAR SBVT 202300Z 02003KT 9999 SCT030 OVC090 25/24 Q1009","temp":25,"dewp":24,"wdir":20,"wspd":3,"visib":"6+","altim":1009,"clouds":[{"cover":"SCT","base":3000},{"cover":"OVC","base":9000}],"obsTime":1774047600},"SBME":{"icaoId":"SBME","flightCategory":"MVFR","rawOb":"METAR SBME 202300Z 28003KT 9000 FEW005 OVC010 24/22 Q1010","temp":24,"dewp":22,"wdir":280,"wspd":3,"visib":5.59,"altim":1010,"clouds":[{"cover":"FEW","base":500},{"cover":"OVC","base":1000}],"obsTime":1774047600},"SBFL":{"icaoId":"SBFL","flightCategory":"VFR","rawOb":"METAR SBFL 202300Z 07006KT 9999 BKN035 26/22 Q1010","temp":26,"dewp":22,"wdir":70,"wspd":6,"visib":"6+","altim":1010,"clouds":[{"cover":"BKN","base":3500}],"obsTime":1774047600},"SBOI":{"icaoId":"SBOI","flightCategory":"MVFR","rawOb":"METAR SBOI 202300Z AUTO VRB02KT 9999 FEW012 BKN024 OVC031 24/23 Q1011","temp":24,"dewp":23,"wdir":"VRB","wspd":2,"visib":"6+","altim":1011,"clouds":[{"cover":"FEW","base":1200},{"cover":"BKN","base":2400},{"cover":"OVC","base":3100}],"obsTime":1774047600},"SBCO":{"icaoId":"SBCO","flightCategory":"VFR","rawOb":"METAR SBCO 202300Z 11009KT CAVOK 23/21 Q1009","temp":23,"dewp":21,"wdir":110,"wspd":9,"visib":"6+","altim":1009,"clouds":[],"obsTime":1774047600},"SBPL":{"icaoId":"SBPL","flightCategory":"VFR","rawOb":"METAR SBPL 202300Z 16002KT CAVOK 28/23 Q1009","temp":28,"dewp":23,"wdir":160,"wspd":2,"visib":"6+","altim":1009,"clouds":[],"obsTime":1774047600},"SBBH":{"icaoId":"SBBH","flightCategory":"IFR","rawOb":"METAR SBBH 202300Z 30003KT 5000 -TSRA BKN009 BKN020 FEW030CB BKN065 23/21 Q1013","temp":23,"dewp":21,"wdir":300,"wspd":3,"visib":3.11,"altim":1013,"clouds":[{"cover":"BKN","base":900},{"cover":"BKN","base":2000},{"cover":"FEW","base":3000},{"cover":"BKN","base":6500}],"obsTime":1774047600},"SBPS":{"icaoId":"SBPS","flightCategory":"VFR","rawOb":"METAR SBPS 202300Z 03009KT 9999 SCT025 27/24 Q1010","temp":27,"dewp":24,"wdir":30,"wspd":9,"visib":"6+","altim":1010,"clouds":[{"cover":"SCT","base":2500}],"obsTime":1774047600},"SBSC":{"icaoId":"SBSC","flightCategory":"MVFR","rawOb":"METAR SBSC 202300Z 11008KT 8000 2200S -RA FEW010 BKN016 BKN040 24/23 Q1010","temp":24,"dewp":23,"wdir":110,"wspd":8,"visib":4.97,"altim":1010,"clouds":[{"cover":"FEW","base":1000},{"cover":"BKN","base":1600},{"cover":"BKN","base":4000}],"obsTime":1774047600},"SBDN":{"icaoId":"SBDN","flightCategory":"VFR","rawOb":"METAR SBDN 202300Z 05004KT CAVOK 28/22 Q1009","temp":28,"dewp":22,"wdir":50,"wspd":4,"visib":"6+","altim":1009,"clouds":[],"obsTime":1774047600},"SBBU":{"icaoId":"SBBU","flightCategory":"VFR","rawOb":"METAR SBBU 202300Z 09004KT CAVOK 28/22 Q1011","temp":28,"dewp":22,"wdir":90,"wspd":4,"visib":"6+","altim":1011,"clouds":[],"obsTime":1774047600},"SBSM":{"icaoId":"SBSM","flightCategory":"VFR","rawOb":"METAR SBSM 202300Z 13003KT CAVOK 25/23 Q1006","temp":25,"dewp":23,"wdir":130,"wspd":3,"visib":"6+","altim":1006,"clouds":[],"obsTime":1774047600},"SBAX":{"icaoId":"SBAX","flightCategory":"VFR","rawOb":"METAR SBAX 202300Z 30005KT 9999 SCT035 SCT090 22/20 Q1014","temp":22,"dewp":20,"wdir":300,"wspd":5,"visib":"6+","altim":1014,"clouds":[{"cover":"SCT","base":3500},{"cover":"SCT","base":9000}],"obsTime":1774047600},"SBIP":{"icaoId":"SBIP","flightCategory":"MVFR","rawOb":"METAR SBIP 202300Z AUTO 00000KT 9999 OVC020 23/23 Q1010","temp":23,"dewp":23,"wdir":0,"wspd":0,"visib":"6+","altim":1010,"clouds":[{"cover":"OVC","base":2000}],"obsTime":1774047600},"SBSR":{"icaoId":"SBSR","flightCategory":"VFR","rawOb":"METAR SBSR 202300Z 35003KT 280V040 CAVOK 27/22 Q1010","temp":27,"dewp":22,"wdir":350,"wspd":3,"visib":"6+","altim":1010,"clouds":[],"obsTime":1774047600},"SBAR":{"icaoId":"SBAR","flightCategory":"VFR","rawOb":"METAR SBAR 202300Z 08010KT CAVOK 28/24 Q1010","temp":28,"dewp":24,"wdir":80,"wspd":10,"visib":"6+","altim":1010,"clouds":[],"obsTime":1774047600},"SBKG":{"icaoId":"SBKG","flightCategory":"VFR","rawOb":"METAR SBKG 202300Z 08015KT 9999 SCT015 25/21 Q1012","temp":25,"dewp":21,"wdir":80,"wspd":15,"visib":"6+","altim":1012,"clouds":[{"cover":"SCT","base":1500}],"obsTime":1774047600},"SBUY":{"icaoId":"SBUY","flightCategory":"VFR","rawOb":"METAR SBUY 202300Z 00000KT 9999 FEW025 26/24 Q1005","temp":26,"dewp":24,"wdir":0,"wspd":0,"visib":"6+","altim":1005,"clouds":[{"cover":"FEW","base":2500}],"obsTime":1774047600},"SBSJ":{"icaoId":"SBSJ","flightCategory":"VFR","rawOb":"METAR SBSJ 202300Z 18007KT 9999 SCT045 SCT080 22/// Q1013","temp":null,"dewp":null,"wdir":180,"wspd":7,"visib":"6+","altim":1013,"clouds":[{"cover":"SCT","base":4500},{"cover":"SCT","base":8000}],"obsTime":1774047600},"SBCA":{"icaoId":"SBCA","flightCategory":"VFR","rawOb":"METAR SBCA 202300Z 01004KT CAVOK 27/21 Q1010","temp":27,"dewp":21,"wdir":10,"wspd":4,"visib":"6+","altim":1010,"clouds":[],"obsTime":1774047600},"SBVH":{"icaoId":"SBVH","flightCategory":"VFR","rawOb":"METAR SBVH 202300Z 21006KT 9999 SCT035 SCT090 24/23 Q1009","temp":24,"dewp":23,"wdir":210,"wspd":6,"visib":"6+","altim":1009,"clouds":[{"cover":"SCT","base":3500},{"cover":"SCT","base":9000}],"obsTime":1774047600},"SBTT":{"icaoId":"SBTT","flightCategory":"VFR","rawOb":"METAR SBTT 202300Z 13003KT 9999 FEW027 29/24 Q1005","temp":29,"dewp":24,"wdir":130,"wspd":3,"visib":"6+","altim":1005,"clouds":[{"cover":"FEW","base":2700}],"obsTime":1774047600},"SBAF":{"icaoId":"SBAF","flightCategory":"MVFR","rawOb":"METAR SBAF 202300Z 22003KT 8000 FEW015 SCT027 BKN058 24/24 Q1010","temp":24,"dewp":24,"wdir":220,"wspd":3,"visib":4.97,"altim":1010,"clouds":[{"cover":"FEW","base":1500},{"cover":"SCT","base":2700},{"cover":"BKN","base":5800}],"obsTime":1774047600},"SBAN":{"icaoId":"SBAN","flightCategory":"LIFR","rawOb":"METAR SBAN 202300Z 10003KT 5000 0900N R06L/P2000N R24R/P2000N BR BCFG BKN003 BKN100 19/18 Q1017","temp":19,"dewp":18,"wdir":100,"wspd":3,"visib":3.11,"altim":1017,"clouds":[{"cover":"BKN","base":300},{"cover":"BKN","base":10000}],"obsTime":1774047600},"SBJP":{"icaoId":"SBJP","flightCategory":"VFR","rawOb":"METAR SBJP 202300Z 10009KT 9999 FEW020 28/24 Q1010","temp":28,"dewp":24,"wdir":100,"wspd":9,"visib":"6+","altim":1010,"clouds":[{"cover":"FEW","base":2000}],"obsTime":1774047600},"SBJR":{"icaoId":"SBJR","flightCategory":"MVFR","rawOb":"METAR SBJR 202300Z 30001KT 8000 BKN012 BKN020 BKN040 25/23 Q1010","temp":25,"dewp":23,"wdir":300,"wspd":1,"visib":4.97,"altim":1010,"clouds":[{"cover":"BKN","base":1200},{"cover":"BKN","base":2000},{"cover":"BKN","base":4000}],"obsTime":1774047600},"SBJV":{"icaoId":"SBJV","flightCategory":"MVFR","rawOb":"METAR SBJV 202300Z 12005KT 9999 BKN020 26/24 Q1010","temp":26,"dewp":24,"wdir":120,"wspd":5,"visib":"6+","altim":1010,"clouds":[{"cover":"BKN","base":2000}],"obsTime":1774047600},"SBLE":{"icaoId":"SBLE","flightCategory":"VFR","rawOb":"METAR SBLE 202300Z AUTO 00000KT CAVOK 22/22 Q1012","temp":22,"dewp":22,"wdir":0,"wspd":0,"visib":"6+","altim":1012,"clouds":[],"obsTime":1774047600},"SBLS":{"icaoId":"SBLS","flightCategory":"VFR","rawOb":"METAR SBLS 202300Z 05003KT 340V080 9999 TS SCT036 FEW040CB BKN080 23/21 Q1013","temp":23,"dewp":21,"wdir":50,"wspd":3,"visib":"6+","altim":1013,"clouds":[{"cover":"SCT","base":3600},{"cover":"FEW","base":4000},{"cover":"BKN","base":8000}],"obsTime":1774047600},"SBMT":{"icaoId":"SBMT","flightCategory":"VFR","rawOb":"METAR SBMT 202300Z 11006KT 080V140 9999 FEW021 21/18 Q1014","temp":21,"dewp":18,"wdir":110,"wspd":6,"visib":"6+","altim":1014,"clouds":[{"cover":"FEW","base":2100}],"obsTime":1774047600},"SBPF":{"icaoId":"SBPF","flightCategory":"VFR","rawOb":"METAR SBPF 202300Z AUTO 03005KT 9999 NSC 27/15 Q1011","temp":27,"dewp":15,"wdir":30,"wspd":5,"visib":"6+","altim":1011,"clouds":[],"obsTime":1774047600},"SBTA":{"icaoId":"SBTA","flightCategory":"VFR","rawOb":"METAR SBTA 202300Z 16005KT 9999 FEW035 SCT080 22/17 Q1012","temp":22,"dewp":17,"wdir":160,"wspd":5,"visib":"6+","altim":1012,"clouds":[{"cover":"FEW","base":3500},{"cover":"SCT","base":8000}],"obsTime":1774047600},"SBNM":{"icaoId":"SBNM","flightCategory":"VFR","rawOb":"METAR SBNM 202300Z 14002KT CAVOK 28/19 Q1006","temp":28,"dewp":19,"wdir":140,"wspd":2,"visib":"6+","altim":1006,"clouds":[],"obsTime":1774047600}}}