{"updated":1776888888,"count":84,"data":{"SBEG":{"icaoId":"SBEG","flightCategory":"IFR","rawOb":"METAR SBEG 221900Z 23009KT 9999 SCT005 BKN008 FEW040TCU BKN100 25/23 Q1011","temp":25,"dewp":23,"wdir":230,"wspd":9,"visib":"6+","altim":1011,"clouds":[{"cover":"SCT","base":500},{"cover":"BKN","base":800},{"cover":"FEW","base":4000},{"cover":"BKN","base":10000}],"obsTime":1776884400},"SBLO":{"icaoId":"SBLO","flightCategory":"VFR","rawOb":"METAR SBLO 221900Z 14004KT CAVOK 28/15 Q1016","temp":28,"dewp":15,"wdir":140,"wspd":4,"visib":"6+","altim":1016,"clouds":[],"obsTime":1776884400},"SBCF":{"icaoId":"SBCF","flightCategory":"VFR","rawOb":"METAR SBCF 221900Z 04003KT 350V090 9999 SCT045 27/15 Q1018","temp":27,"dewp":15,"wdir":40,"wspd":3,"visib":"6+","altim":1018,"clouds":[{"cover":"SCT","base":4500}],"obsTime":1776884400},"SBMA":{"icaoId":"SBMA","flightCategory":"VFR","rawOb":"METAR SBMA 221900Z 09004KT 9999 SCT020 FEW023TCU 32/23 Q1008","temp":32,"dewp":23,"wdir":90,"wspd":4,"visib":"6+","altim":1008,"clouds":[{"cover":"SCT","base":2000},{"cover":"FEW","base":2300}],"obsTime":1776884400},"SBME":{"icaoId":"SBME","flightCategory":"VFR","rawOb":"METAR SBME 221900Z 14006KT 9999 FEW025 26/21 Q1015","temp":26,"dewp":21,"wdir":140,"wspd":6,"visib":"6+","altim":1015,"clouds":[{"cover":"FEW","base":2500}],"obsTime":1776884400},"SBAT":{"icaoId":"SBAT","flightCategory":"VFR","rawOb":"METAR SBAT 221900Z 10003KT 9999 VCSH FEW035 FEW040TCU 32/24 Q1009","temp":32,"dewp":24,"wdir":100,"wspd":3,"visib":"6+","altim":1009,"clouds":[{"cover":"FEW","base":3500},{"cover":"FEW","base":4000}],"obsTime":1776884400},"SBMG":{"icaoId":"SBMG","flightCategory":"VFR","rawOb":"METAR SBMG 221900Z 17008KT 130V200 CAVOK 28/16 Q1015","temp":28,"dewp":16,"wdir":170,"wspd":8,"visib":"6+","altim":1015,"clouds":[],"obsTime":1776884400},"SBFI":{"icaoId":"SBFI","flightCategory":"VFR","rawOb":"METAR SBFI 221900Z 20005KT 9999 SCT025 30/22 Q1014","temp":30,"dewp":22,"wdir":200,"wspd":5,"visib":"6+","altim":1014,"clouds":[{"cover":"SCT","base":2500}],"obsTime":1776884400},"SBCG":{"icaoId":"SBCG","flightCategory":"VFR","rawOb":"METAR SBCG 221900Z 16006KT 120V180 CAVOK 30/16 Q1015","temp":30,"dewp":16,"wdir":160,"wspd":6,"visib":"6+","altim":1015,"clouds":[],"obsTime":1776884400},"SBMK":{"icaoId":"SBMK","flightCategory":"VFR","rawOb":"METAR SBMK 221900Z 09005KT 9999 FEW046 SCT080 29/15 Q1015","temp":29,"dewp":15,"wdir":90,"wspd":5,"visib":"6+","altim":1015,"clouds":[{"cover":"FEW","base":4600},{"cover":"SCT","base":8000}],"obsTime":1776884400},"SBFL":{"icaoId":"SBFL","flightCategory":"VFR","rawOb":"METAR SBFL 221900Z 01009G19KT 9999 FEW020 28/20 Q1014","temp":28,"dewp":20,"wdir":10,"wspd":9,"visib":"6+","altim":1014,"clouds":[{"cover":"FEW","base":2000}],"obsTime":1776884400},"SBMO":{"icaoId":"SBMO","flightCategory":"VFR","rawOb":"METAR SBMO 221900Z 19008KT 9999 VCSH SCT016 SCT021 FEW027TCU 28/25 Q1011","temp":28,"dewp":25,"wdir":190,"wspd":8,"visib":"6+","altim":1011,"clouds":[{"cover":"SCT","base":1600},{"cover":"SCT","base":2100},{"cover":"FEW","base":2700}],"obsTime":1776884400},"SBMQ":{"icaoId":"SBMQ","flightCategory":"MVFR","rawOb":"METAR SBMQ 221900Z 00000KT 9999 -RA BKN020 FEW020TCU BKN100 28/25 Q1008 RETS","temp":28,"dewp":25,"wdir":0,"wspd":0,"visib":"6+","altim":1008,"clouds":[{"cover":"BKN","base":2000},{"cover":"FEW","base":2000},{"cover":"BKN","base":10000}],"obsTime":1776884400},"SBFZ":{"icaoId":"SBFZ","flightCategory":"VFR","rawOb":"METAR SBFZ 221900Z 08009KT 9999 SCT025 30/24 Q1008","temp":30,"dewp":24,"wdir":80,"wspd":9,"visib":"6+","altim":1008,"clouds":[{"cover":"SCT","base":2500}],"obsTime":1776884400},"SBBV":{"icaoId":"SBBV","flightCategory":"IFR","rawOb":"METAR SBBV 221900Z 29009KT 5000 -SHRA BKN008 BKN030 FEW035TCU BKN080 24/23 Q1012","temp":24,"dewp":23,"wdir":290,"wspd":9,"visib":3.11,"altim":1012,"clouds":[{"cover":"BKN","base":800},{"cover":"BKN","base":3000},{"cover":"FEW","base":3500},{"cover":"BKN","base":8000}],"obsTime":1776884400},"SBNT":{"icaoId":"SBNT","flightCategory":"VFR","rawOb":"METAR SBNT 221900Z 11012KT 9999 FEW028 29/23 Q1009","temp":29,"dewp":23,"wdir":110,"wspd":12,"visib":"6+","altim":1009,"clouds":[{"cover":"FEW","base":2800}],"obsTime":1776884400},"SBCP":{"icaoId":"SBCP","flightCategory":"VFR","rawOb":"METAR SBCP 221900Z 14010KT 9999 FEW030 27/19 Q1015","temp":27,"dewp":19,"wdir":140,"wspd":10,"visib":"6+","altim":1015,"clouds":[{"cover":"FEW","base":3000}],"obsTime":1776884400},"SBPA":{"icaoId":"SBPA","flightCategory":"VFR","rawOb":"METAR SBPA 221900Z 26006KT 220V290 9999 FEW040 29/20 Q1014","temp":29,"dewp":20,"wdir":260,"wspd":6,"visib":"6+","altim":1014,"clouds":[{"cover":"FEW","base":4000}],"obsTime":1776884400},"SBGL":{"icaoId":"SBGL","flightCategory":"VFR","rawOb":"METAR SBGL 221900Z 14012KT 9999 FEW030 26/19 Q1015","temp":26,"dewp":19,"wdir":140,"wspd":12,"visib":"6+","altim":1015,"clouds":[{"cover":"FEW","base":3000}],"obsTime":1776884400},"SBPJ":{"icaoId":"SBPJ","flightCategory":"VFR","rawOb":"METAR SBPJ 221900Z 10004KT 9999 FEW023 SCT045 33/22 Q1010","temp":33,"dewp":22,"wdir":100,"wspd":4,"visib":"6+","altim":1010,"clouds":[{"cover":"FEW","base":2300},{"cover":"SCT","base":4500}],"obsTime":1776884400},"SBPV":{"icaoId":"SBPV","flightCategory":"MVFR","rawOb":"METAR SBPV 221900Z 22003KT 9999 -RA BKN025 FEW030TCU 30/26 Q1008","temp":30,"dewp":26,"wdir":220,"wspd":3,"visib":"6+","altim":1008,"clouds":[{"cover":"BKN","base":2500},{"cover":"FEW","base":3000}],"obsTime":1776884400},"SBGO":{"icaoId":"SBGO","flightCategory":"VFR","rawOb":"METAR SBGO 221900Z 34007KT 9999 VCSH SCT049 FEW053TCU 30/19 Q1014","temp":30,"dewp":19,"wdir":340,"wspd":7,"visib":"6+","altim":1014,"clouds":[{"cover":"SCT","base":4900},{"cover":"FEW","base":5300}],"obsTime":1776884400},"SBCR":{"icaoId":"SBCR","flightCategory":"VFR","rawOb":"METAR SBCR 221900Z 31005KT 9999 SCT035 32/24 Q1010","temp":32,"dewp":24,"wdir":310,"wspd":5,"visib":"6+","altim":1010,"clouds":[{"cover":"SCT","base":3500}],"obsTime":1776884400},"SBRB":{"icaoId":"SBRB","flightCategory":"VFR","rawOb":"METAR SBRB 221900Z 26004KT 9999 SCT025 FEW030TCU 31/23 Q1009","temp":31,"dewp":23,"wdir":260,"wspd":4,"visib":"6+","altim":1009,"clouds":[{"cover":"SCT","base":2500},{"cover":"FEW","base":3000}],"obsTime":1776884400},"SBRF":{"icaoId":"SBRF","flightCategory":"VFR","rawOb":"METAR SBRF 221900Z 15011KT 9999 FEW025 29/24 Q1010","temp":29,"dewp":24,"wdir":150,"wspd":11,"visib":"6+","altim":1010,"clouds":[{"cover":"FEW","base":2500}],"obsTime":1776884400},"SBGR":{"icaoId":"SBGR","flightCategory":"VFR","rawOb":"METAR SBGR 221900Z 17008KT CAVOK 25/18 Q1017","temp":25,"dewp":18,"wdir":170,"wspd":8,"visib":"6+","altim":1017,"clouds":[],"obsTime":1776884400},"SBSG":{"icaoId":"SBSG","flightCategory":"VFR","rawOb":"METAR SBSG 221900Z 12009KT 100V160 9999 SCT035 30/23 Q1009","temp":30,"dewp":23,"wdir":120,"wspd":9,"visib":"6+","altim":1009,"clouds":[{"cover":"SCT","base":3500}],"obsTime":1776884400},"SBBE":{"icaoId":"SBBE","flightCategory":"VFR","rawOb":"METAR SBBE 221900Z 09009KT 9999 BKN035 FEW040TCU 30/24 Q1008","temp":30,"dewp":24,"wdir":90,"wspd":9,"visib":"6+","altim":1008,"clouds":[{"cover":"BKN","base":3500},{"cover":"FEW","base":4000}],"obsTime":1776884400},"SBCB":{"icaoId":"SBCB","flightCategory":"VFR","rawOb":"METAR SBCB 221900Z 09009KT CAVOK 26/19 Q1016","temp":26,"dewp":19,"wdir":90,"wspd":9,"visib":"6+","altim":1016,"clouds":[],"obsTime":1776884400},"SBSL":{"icaoId":"SBSL","flightCategory":"VFR","rawOb":"METAR SBSL 221900Z 04013KT 9999 VCSH FEW020 FEW025TCU 28/24 Q1008","temp":28,"dewp":24,"wdir":40,"wspd":13,"visib":"6+","altim":1008,"clouds":[{"cover":"FEW","base":2000},{"cover":"FEW","base":2500}],"obsTime":1776884400},"SBHT":{"icaoId":"SBHT","flightCategory":"MVFR","rawOb":"METAR SBHT 221900Z 17003KT 9999 BKN030 32/23 Q1008","temp":32,"dewp":23,"wdir":170,"wspd":3,"visib":"6+","altim":1008,"clouds":[{"cover":"BKN","base":3000}],"obsTime":1776884400},"SBSN":{"icaoId":"SBSN","flightCategory":"VFR","rawOb":"METAR SBSN 221900Z 07009KT 9999 FEW032 FEW040TCU 30/25 Q1007","temp":30,"dewp":25,"wdir":70,"wspd":9,"visib":"6+","altim":1007,"clouds":[{"cover":"FEW","base":3200},{"cover":"FEW","base":4000}],"obsTime":1776884400},"SBCT":{"icaoId":"SBCT","flightCategory":"VFR","rawOb":"METAR SBCT 221900Z 15004KT 090V230 CAVOK 26/12 Q1019","temp":26,"dewp":12,"wdir":150,"wspd":4,"visib":"6+","altim":1019,"clouds":[],"obsTime":1776884400},"SBSP":{"icaoId":"SBSP","flightCategory":"VFR","rawOb":"METAR SBSP 221900Z 16012KT 9999 FEW030 23/17 Q1019","temp":23,"dewp":17,"wdir":160,"wspd":12,"visib":"6+","altim":1019,"clouds":[{"cover":"FEW","base":3000}],"obsTime":1776884400},"SBIL":{"icaoId":"SBIL","flightCategory":"VFR","rawOb":"METAR SBIL 221900Z 18011KT 9999 FEW030 SCT090 30/23 Q1014","temp":30,"dewp":23,"wdir":180,"wspd":11,"visib":"6+","altim":1014,"clouds":[{"cover":"FEW","base":3000},{"cover":"SCT","base":9000}],"obsTime":1776884400},"SBSV":{"icaoId":"SBSV","flightCategory":"VFR","rawOb":"METAR SBSV 221900Z 19006KT 160V220 9999 SCT011 FEW020TCU SCT060 26/24 Q1012","temp":26,"dewp":24,"wdir":190,"wspd":6,"visib":"6+","altim":1012,"clouds":[{"cover":"SCT","base":1100},{"cover":"FEW","base":2000},{"cover":"SCT","base":6000}],"obsTime":1776884400},"SBJU":{"icaoId":"SBJU","flightCategory":"VFR","rawOb":"METAR SBJU 221900Z 20004KT 9999 SCT020 29/24 Q1011","temp":29,"dewp":24,"wdir":200,"wspd":4,"visib":"6+","altim":1011,"clouds":[{"cover":"SCT","base":2000}],"obsTime":1776884400},"SBTE":{"icaoId":"SBTE","flightCategory":"VFR","rawOb":"METAR SBTE 221900Z 13006KT 9999 FEW020 32/23 Q1008","temp":32,"dewp":23,"wdir":130,"wspd":6,"visib":"6+","altim":1008,"clouds":[{"cover":"FEW","base":2000}],"obsTime":1776884400},"SBUL":{"icaoId":"SBUL","flightCategory":"VFR","rawOb":"METAR SBUL 221900Z 03003KT 9999 SCT030 FEW035TCU SCT090 28/16 Q1017","temp":28,"dewp":16,"wdir":30,"wspd":3,"visib":"6+","altim":1017,"clouds":[{"cover":"SCT","base":3000},{"cover":"FEW","base":3500},{"cover":"SCT","base":9000}],"obsTime":1776884400},"SBBR":{"icaoId":"SBBR","flightCategory":"VFR","rawOb":"METAR SBBR 221900Z 14010KT CAVOK 29/14 Q1017","temp":29,"dewp":14,"wdir":140,"wspd":10,"visib":"6+","altim":1017,"clouds":[],"obsTime":1776884400},"SBCZ":{"icaoId":"SBCZ","flightCategory":"VFR","rawOb":"METAR SBCZ 221900Z 31002KT 9999 SCT027 30/24 Q1009","temp":30,"dewp":24,"wdir":310,"wspd":2,"visib":"6+","altim":1009,"clouds":[{"cover":"SCT","base":2700}],"obsTime":1776884400},"SBUR":{"icaoId":"SBUR","flightCategory":"VFR","rawOb":"METAR SBUR 221900Z 24004KT CAVOK 31/16 Q1015","temp":31,"dewp":16,"wdir":240,"wspd":4,"visib":"6+","altim":1015,"clouds":[],"obsTime":1776884400},"SBKP":{"icaoId":"SBKP","flightCategory":"VFR","rawOb":"METAR SBKP 221900Z 25007KT 200V290 9999 FEW035 28/14 Q1016","temp":28,"dewp":14,"wdir":250,"wspd":7,"visib":"6+","altim":1016,"clouds":[{"cover":"FEW","base":3500}],"obsTime":1776884400},"SBVT":{"icaoId":"SBVT","flightCategory":"VFR","rawOb":"METAR SBVT 221900Z 16009KT 9999 FEW040 26/22 Q1015","temp":26,"dewp":22,"wdir":160,"wspd":9,"visib":"6+","altim":1015,"clouds":[{"cover":"FEW","base":4000}],"obsTime":1776884400},"SBAR":{"icaoId":"SBAR","flightCategory":"IFR","rawOb":"SPECI SBAR 221836Z 14015KT 9999 3000W -SHRA BKN009 FEW023TCU BKN040 BKN100 26/24 Q1012","temp":26,"dewp":24,"wdir":140,"wspd":15,"visib":"6+","altim":1012,"clouds":[{"cover":"BKN","base":900},{"cover":"FEW","base":2300},{"cover":"BKN","base":4000},{"cover":"BKN","base":10000}],"obsTime":1776882960},"SBKG":{"icaoId":"SBKG","flightCategory":"VFR","rawOb":"METAR SBKG 221900Z 11008KT 9999 FEW015 29/19 Q1012","temp":29,"dewp":19,"wdir":110,"wspd":8,"visib":"6+","altim":1012,"clouds":[{"cover":"FEW","base":1500}],"obsTime":1776884400},"SBBQ":{"icaoId":"SBBQ","flightCategory":"VFR","rawOb":"METAR SBBQ 221900Z 10005KT 070V150 9999 BKN035 23/16 Q1021","temp":23,"dewp":16,"wdir":100,"wspd":5,"visib":"6+","altim":1021,"clouds":[{"cover":"BKN","base":3500}],"obsTime":1776884400},"SBIP":{"icaoId":"SBIP","flightCategory":"VFR","rawOb":"METAR SBIP 221900Z AUTO 36004KT 300V050 CAVOK 30/17 Q1015","temp":30,"dewp":17,"wdir":360,"wspd":4,"visib":"6+","altim":1015,"clouds":[],"obsTime":1776884400},"SBBU":{"icaoId":"SBBU","flightCategory":"VFR","rawOb":"METAR SBBU 221900Z 14005KT CAVOK 31/13 Q1015","temp":31,"dewp":13,"wdir":140,"wspd":5,"visib":"6+","altim":1015,"clouds":[],"obsTime":1776884400},"SBOI":{"icaoId":"SBOI","flightCategory":"VFR","rawOb":"METAR SBOI 221900Z AUTO 01011KT 9999 FEW046 29/25 Q1008","temp":29,"dewp":25,"wdir":10,"wspd":11,"visib":"6+","altim":1008,"clouds":[{"cover":"FEW","base":4600}],"obsTime":1776884400},"SBCA":{"icaoId":"SBCA","flightCategory":"VFR","rawOb":"METAR SBCA 221900Z VRB02KT 9999 BKN040 26/18 Q1018","temp":26,"dewp":18,"wdir":"VRB","wspd":2,"visib":"6+","altim":1018,"clouds":[{"cover":"BKN","base":4000}],"obsTime":1776884400},"SBPB":{"icaoId":"SBPB","flightCategory":"VFR","rawOb":"METAR SBPB 221900Z 03009KT 9999 FEW016 FEW025TCU 30/24 Q1008","temp":30,"dewp":24,"wdir":30,"wspd":9,"visib":"6+","altim":1008,"clouds":[{"cover":"FEW","base":1600},{"cover":"FEW","base":2500}],"obsTime":1776884400},"SBAX":{"icaoId":"SBAX","flightCategory":"VFR","rawOb":"METAR SBAX 221900Z 01005KT 9999 SCT030 28/16 Q1017","temp":28,"dewp":16,"wdir":10,"wspd":5,"visib":"6+","altim":1017,"clouds":[{"cover":"SCT","base":3000}],"obsTime":1776884400},"SBPL":{"icaoId":"SBPL","flightCategory":"VFR","rawOb":"METAR SBPL 221900Z 15008KT 9999 FEW030 SCT070 32/19 Q1011","temp":32,"dewp":19,"wdir":150,"wspd":8,"visib":"6+","altim":1011,"clouds":[{"cover":"FEW","base":3000},{"cover":"SCT","base":7000}],"obsTime":1776884400},"SBCC":{"icaoId":"SBCC","flightCategory":"VFR","rawOb":"METAR SBCC 221900Z 06010KT 9999 SCT025 29/21 Q1010","temp":29,"dewp":21,"wdir":60,"wspd":10,"visib":"6+","altim":1010,"clouds":[{"cover":"SCT","base":2500}],"obsTime":1776884400},"SBPP":{"icaoId":"SBPP","flightCategory":"VFR","rawOb":"METAR SBPP 221900Z 01004KT CAVOK 27/20 Q1016","temp":27,"dewp":20,"wdir":10,"wspd":4,"visib":"6+","altim":1016,"clouds":[],"obsTime":1776884400},"SBCJ":{"icaoId":"SBCJ","flightCategory":"VFR","rawOb":"METAR SBCJ 221900Z 11005KT 9999 SCT025 28/21 Q1013","temp":28,"dewp":21,"wdir":110,"wspd":5,"visib":"6+","altim":1013,"clouds":[{"cover":"SCT","base":2500}],"obsTime":1776884400},"SBPS":{"icaoId":"SBPS","flightCategory":"VFR","rawOb":"METAR SBPS 221900Z VRB05KT 9999 SCT020 27/22 Q1014","temp":27,"dewp":22,"wdir":"VRB","wspd":5,"visib":"6+","altim":1014,"clouds":[{"cover":"SCT","base":2000}],"obsTime":1776884400},"SBSC":{"icaoId":"SBSC","flightCategory":"VFR","rawOb":"METAR SBSC 221900Z 17009KT CAVOK 27/20 Q1015","temp":27,"dewp":20,"wdir":170,"wspd":9,"visib":"6+","altim":1015,"clouds":[],"obsTime":1776884400},"SBVH":{"icaoId":"SBVH","flightCategory":"MVFR","rawOb":"METAR SBVH 221900Z 08007KT 9999 BKN030 29/22 Q1011","temp":29,"dewp":22,"wdir":80,"wspd":7,"visib":"6+","altim":1011,"clouds":[{"cover":"BKN","base":3000}],"obsTime":1776884400},"SBSJ":{"icaoId":"SBSJ","flightCategory":"VFR","rawOb":"METAR SBSJ 221900Z 20004KT 150V230 9999 SCT040 26/17 Q1017","temp":26,"dewp":17,"wdir":200,"wspd":4,"visib":"6+","altim":1017,"clouds":[{"cover":"SCT","base":4000}],"obsTime":1776884400},"SBCO":{"icaoId":"SBCO","flightCategory":"VFR","rawOb":"METAR SBCO 221900Z 27005KT 9999 FEW035 29/20 Q1014","temp":29,"dewp":20,"wdir":270,"wspd":5,"visib":"6+","altim":1014,"clouds":[{"cover":"FEW","base":3500}],"obsTime":1776884400},"SBBH":{"icaoId":"SBBH","flightCategory":"VFR","rawOb":"METAR SBBH 221900Z 06005KT 9999 SCT049 SCT080 26/17 Q1017","temp":26,"dewp":17,"wdir":60,"wspd":5,"visib":"6+","altim":1017,"clouds":[{"cover":"SCT","base":4900},{"cover":"SCT","base":8000}],"obsTime":1776884400},"SBSM":{"icaoId":"SBSM","flightCategory":"VFR","rawOb":"METAR SBSM 221900Z VRB02KT 9999 SCT035 29/20 Q1015","temp":29,"dewp":20,"wdir":"VRB","wspd":2,"visib":"6+","altim":1015,"clouds":[{"cover":"SCT","base":3500}],"obsTime":1776884400},"SBDN":{"icaoId":"SBDN","flightCategory":"VFR","rawOb":"METAR SBDN 221900Z 15007KT CAVOK 30/14 Q1014","temp":30,"dewp":14,"wdir":150,"wspd":7,"visib":"6+","altim":1014,"clouds":[],"obsTime":1776884400},"SBSR":{"icaoId":"SBSR","flightCategory":"VFR","rawOb":"METAR SBSR 221900Z 25003KT 9999 FEW040 31/14 Q1014","temp":31,"dewp":14,"wdir":250,"wspd":3,"visib":"6+","altim":1014,"clouds":[{"cover":"FEW","base":4000}],"obsTime":1776884400},"SBTF":{"icaoId":"SBTF","flightCategory":"VFR","rawOb":"METAR SBTF 221900Z 18003KT 9999 SCT015 BKN090 29/26 Q1009","temp":29,"dewp":26,"wdir":180,"wspd":3,"visib":"6+","altim":1009,"clouds":[{"cover":"SCT","base":1500},{"cover":"BKN","base":9000}],"obsTime":1776884400},"SBTT":{"icaoId":"SBTT","flightCategory":"VFR","rawOb":"METAR SBTT 221900Z 25005KT 9999 FEW040 30/22 Q1010","temp":30,"dewp":22,"wdir":250,"wspd":5,"visib":"6+","altim":1010,"clouds":[{"cover":"FEW","base":4000}],"obsTime":1776884400},"SBES":{"icaoId":"SBES","flightCategory":"VFR","rawOb":"METAR SBES 221900Z 10007KT 040V130 9999 FEW045 26/// Q1015","temp":null,"dewp":null,"wdir":100,"wspd":7,"visib":"6+","altim":1015,"clouds":[{"cover":"FEW","base":4500}],"obsTime":1776884400},"SBUY":{"icaoId":"SBUY","flightCategory":"VFR","rawOb":"METAR SBUY 221900Z 32002KT 9999 FEW030 BKN100 28/24 Q1009","temp":28,"dewp":24,"wdir":320,"wspd":2,"visib":"6+","altim":1009,"clouds":[{"cover":"FEW","base":3000},{"cover":"BKN","base":10000}],"obsTime":1776884400},"SBGM":{"icaoId":"SBGM","flightCategory":"MVFR","rawOb":"METAR SBGM 221900Z 14003KT 9999 BKN025 29/23 Q1009","temp":29,"dewp":23,"wdir":140,"wspd":3,"visib":"6+","altim":1009,"clouds":[{"cover":"BKN","base":2500}],"obsTime":1776884400},"SBMT":{"icaoId":"SBMT","flightCategory":"VFR","rawOb":"METAR SBMT 221900Z 14009KT 110V190 CAVOK 24/17 Q1017","temp":24,"dewp":17,"wdir":140,"wspd":9,"visib":"6+","altim":1017,"clouds":[],"obsTime":1776884400},"SBST":{"icaoId":"SBST","flightCategory":"MVFR","rawOb":"METAR SBST 221900Z 14005KT 9999 BKN027 25/19 Q1015","temp":25,"dewp":19,"wdir":140,"wspd":5,"visib":"6+","altim":1015,"clouds":[{"cover":"BKN","base":2700}],"obsTime":1776884400},"SBTA":{"icaoId":"SBTA","flightCategory":"VFR","rawOb":"METAR SBTA 221900Z 14003KT 9999 SCT040 26/16 Q1015","temp":26,"dewp":16,"wdir":140,"wspd":3,"visib":"6+","altim":1015,"clouds":[{"cover":"SCT","base":4000}],"obsTime":1776884400},"SBLE":{"icaoId":"SBLE","flightCategory":"VFR","rawOb":"METAR SBLE 221900Z AUTO 17004KT 120V210 CAVOK 29/19 Q1014","temp":29,"dewp":19,"wdir":170,"wspd":4,"visib":"6+","altim":1014,"clouds":[],"obsTime":1776884400},"SBIH":{"icaoId":"SBIH","flightCategory":"VFR","rawOb":"METAR SBIH 221900Z 06005KT 9999 SCT020 FEW023TCU 32/24 Q1007","temp":32,"dewp":24,"wdir":60,"wspd":5,"visib":"6+","altim":1007,"clouds":[{"cover":"SCT","base":2000},{"cover":"FEW","base":2300}],"obsTime":1776884400},"SBJP":{"icaoId":"SBJP","flightCategory":"VFR","rawOb":"METAR SBJP 221900Z 11010KT CAVOK 29/23 Q1010","temp":29,"dewp":23,"wdir":110,"wspd":10,"visib":"6+","altim":1010,"clouds":[],"obsTime":1776884400},"SBJV":{"icaoId":"SBJV","flightCategory":"VFR","rawOb":"METAR SBJV 221900Z 10003KT 9999 FEW030 29/20 Q1015","temp":29,"dewp":20,"wdir":100,"wspd":3,"visib":"6+","altim":1015,"clouds":[{"cover":"FEW","base":3000}],"obsTime":1776884400},"SBPF":{"icaoId":"SBPF","flightCategory":"VFR","rawOb":"METAR SBPF 222000Z 24006KT CAVOK 24/18 Q1018","temp":24,"dewp":18,"wdir":240,"wspd":6,"visib":"6+","altim":1018,"clouds":[],"obsTime":1776888000},"SBAF":{"icaoId":"SBAF","flightCategory":"VFR","rawOb":"METAR SBAF 221900Z 20012KT 9999 FEW030 26/20 Q1015","temp":26,"dewp":20,"wdir":200,"wspd":12,"visib":"6+","altim":1015,"clouds":[{"cover":"FEW","base":3000}],"obsTime":1776884400},"SBGW":{"icaoId":"SBGW","flightCategory":"VFR","rawOb":"METAR SBGW 221900Z 36003KT 9999 FEW030 28/16 Q1016","temp":28,"dewp":16,"wdir":360,"wspd":3,"visib":"6+","altim":1016,"clouds":[{"cover":"FEW","base":3000}],"obsTime":1776884400},"SBJR":{"icaoId":"SBJR","flightCategory":"VFR","rawOb":"METAR SBJR 221900Z 16010KT CAVOK 27/20 Q1015","temp":27,"dewp":20,"wdir":160,"wspd":10,"visib":"6+","altim":1015,"clouds":[],"obsTime":1776884400},"SBAN":{"icaoId":"SBAN","flightCategory":"VFR","rawOb":"METAR SBAN 221900Z 02003KT 9999 SCT040 FEW045TCU 27/18 Q1018","temp":27,"dewp":18,"wdir":20,"wspd":3,"visib":"6+","altim":1018,"clouds":[{"cover":"SCT","base":4000},{"cover":"FEW","base":4500}],"obsTime":1776884400},"SBLS":{"icaoId":"SBLS","flightCategory":"VFR","rawOb":"METAR SBLS 221900Z 10003KT 020V130 9999 SCT040 26/17 Q1017","temp":26,"dewp":17,"wdir":100,"wspd":3,"visib":"6+","altim":1017,"clouds":[{"cover":"SCT","base":4000}],"obsTime":1776884400}}}