{"updated":1782144519,"count":83,"data":{"SBCF":{"icaoId":"SBCF","flightCategory":"VFR","rawOb":"METAR SBCF 221500Z 04005KT 360V100 9999 SCT035 23/13 Q1022","temp":23,"dewp":13,"wdir":40,"wspd":5,"visib":"6+","altim":1022,"clouds":[{"cover":"SCT","base":3500}],"obsTime":1782140400},"SBKP":{"icaoId":"SBKP","flightCategory":"VFR","rawOb":"METAR SBKP 221500Z 02011KT 340V040 CAVOK 25/11 Q1019","temp":25,"dewp":11,"wdir":20,"wspd":11,"visib":"6+","altim":1019,"clouds":[],"obsTime":1782140400},"SBLO":{"icaoId":"SBLO","flightCategory":"VFR","rawOb":"METAR SBLO 221500Z 03008KT 350V060 CAVOK 20/14 Q1016","temp":20,"dewp":14,"wdir":30,"wspd":8,"visib":"6+","altim":1016,"clouds":[],"obsTime":1782140400},"SBEG":{"icaoId":"SBEG","flightCategory":"VFR","rawOb":"METAR SBEG 221500Z 04009KT 020V080 9999 SCT025 31/23 Q1014","temp":31,"dewp":23,"wdir":40,"wspd":9,"visib":"6+","altim":1014,"clouds":[{"cover":"SCT","base":2500}],"obsTime":1782140400},"SBBV":{"icaoId":"SBBV","flightCategory":"MVFR","rawOb":"METAR SBBV 221500Z 08010KT 9999 BKN030 31/22 Q1014","temp":31,"dewp":22,"wdir":80,"wspd":10,"visib":"6+","altim":1014,"clouds":[{"cover":"BKN","base":3000}],"obsTime":1782140400},"SBMA":{"icaoId":"SBMA","flightCategory":"MVFR","rawOb":"METAR SBMA 221500Z 29006KT 9999 BKN025 31/23 Q1014","temp":31,"dewp":23,"wdir":290,"wspd":6,"visib":"6+","altim":1014,"clouds":[{"cover":"BKN","base":2500}],"obsTime":1782140400},"SBFI":{"icaoId":"SBFI","flightCategory":"IFR","rawOb":"SPECI SBFI 221432Z 23010KT 5000 -RA BR BKN006 FEW025TCU BKN080 15/15 Q1013","temp":15,"dewp":15,"wdir":230,"wspd":10,"visib":3.11,"altim":1013,"clouds":[{"cover":"BKN","base":600},{"cover":"FEW","base":2500},{"cover":"BKN","base":8000}],"obsTime":1782138720},"SBSV":{"icaoId":"SBSV","flightCategory":"VFR","rawOb":"METAR SBSV 221500Z 20007KT 150V240 9999 SCT026 28/20 Q1018","temp":28,"dewp":20,"wdir":200,"wspd":7,"visib":"6+","altim":1018,"clouds":[{"cover":"SCT","base":2600}],"obsTime":1782140400},"SBCZ":{"icaoId":"SBCZ","flightCategory":"VFR","rawOb":"METAR SBCZ 221500Z 33004KT 290V050 9999 SCT016 29/24 Q1015","temp":29,"dewp":24,"wdir":330,"wspd":4,"visib":"6+","altim":1015,"clouds":[{"cover":"SCT","base":1600}],"obsTime":1782140400},"SBVT":{"icaoId":"SBVT","flightCategory":"VFR","rawOb":"METAR SBVT 221500Z 13010KT 9999 FEW030 25/20 Q1019","temp":25,"dewp":20,"wdir":130,"wspd":10,"visib":"6+","altim":1019,"clouds":[{"cover":"FEW","base":3000}],"obsTime":1782140400},"SBMO":{"icaoId":"SBMO","flightCategory":"MVFR","rawOb":"METAR SBMO 221500Z 13010KT 9999 BKN025 28/23 Q1016","temp":28,"dewp":23,"wdir":130,"wspd":10,"visib":"6+","altim":1016,"clouds":[{"cover":"BKN","base":2500}],"obsTime":1782140400},"SBCG":{"icaoId":"SBCG","flightCategory":"MVFR","rawOb":"METAR SBCG 221500Z 32016KT 9999 BKN025 SCT050 26/20 Q1016","temp":26,"dewp":20,"wdir":320,"wspd":16,"visib":"6+","altim":1016,"clouds":[{"cover":"BKN","base":2500},{"cover":"SCT","base":5000}],"obsTime":1782140400},"SBTE":{"icaoId":"SBTE","flightCategory":"MVFR","rawOb":"METAR SBTE 221500Z 06003KT 9999 BKN025 31/24 Q1014","temp":31,"dewp":24,"wdir":60,"wspd":3,"visib":"6+","altim":1014,"clouds":[{"cover":"BKN","base":2500}],"obsTime":1782140400},"SBMQ":{"icaoId":"SBMQ","flightCategory":"VFR","rawOb":"METAR SBMQ 221500Z 05010KT 9999 SCT023 31/25 Q1013","temp":31,"dewp":25,"wdir":50,"wspd":10,"visib":"6+","altim":1013,"clouds":[{"cover":"SCT","base":2300}],"obsTime":1782140400},"SBFL":{"icaoId":"SBFL","flightCategory":"MVFR","rawOb":"SPECI SBFL 221444Z 36014G24KT 9999 BKN017 OVC030 19/16 Q1012","temp":19,"dewp":16,"wdir":360,"wspd":14,"visib":"6+","altim":1012,"clouds":[{"cover":"BKN","base":1700},{"cover":"OVC","base":3000}],"obsTime":1782139440},"SBNT":{"icaoId":"SBNT","flightCategory":"MVFR","rawOb":"METAR SBNT 221500Z 13014KT 9999 VCSH BKN025 FEW030TCU SCT073 29/22 Q1014","temp":29,"dewp":22,"wdir":130,"wspd":14,"visib":"6+","altim":1014,"clouds":[{"cover":"BKN","base":2500},{"cover":"FEW","base":3000},{"cover":"SCT","base":7300}],"obsTime":1782140400},"SBPA":{"icaoId":"SBPA","flightCategory":"IFR","rawOb":"METAR SBPA 221500Z 14004KT 100V170 9000 OVC007 13/13 Q1009 RETS","temp":13,"dewp":13,"wdir":140,"wspd":4,"visib":5.59,"altim":1009,"clouds":[{"cover":"OVC","base":700}],"obsTime":1782140400},"SBBE":{"icaoId":"SBBE","flightCategory":"VFR","rawOb":"METAR SBBE 221500Z 07009KT 9999 BKN034 31/24 Q1013","temp":31,"dewp":24,"wdir":70,"wspd":9,"visib":"6+","altim":1013,"clouds":[{"cover":"BKN","base":3400}],"obsTime":1782140400},"SBPJ":{"icaoId":"SBPJ","flightCategory":"VFR","rawOb":"METAR SBPJ 221500Z 32008KT CAVOK 30/22 Q1016","temp":30,"dewp":22,"wdir":320,"wspd":8,"visib":"6+","altim":1016,"clouds":[],"obsTime":1782140400},"SBFZ":{"icaoId":"SBFZ","flightCategory":"VFR","rawOb":"METAR SBFZ 221500Z 10015KT 9999 SCT025 30/24 Q1013","temp":30,"dewp":24,"wdir":100,"wspd":15,"visib":"6+","altim":1013,"clouds":[{"cover":"SCT","base":2500}],"obsTime":1782140400},"SBPV":{"icaoId":"SBPV","flightCategory":"VFR","rawOb":"METAR SBPV 221500Z 35003KT 9999 SCT035 30/23 Q1014","temp":30,"dewp":23,"wdir":350,"wspd":3,"visib":"6+","altim":1014,"clouds":[{"cover":"SCT","base":3500}],"obsTime":1782140400},"SBGL":{"icaoId":"SBGL","flightCategory":"VFR","rawOb":"METAR SBGL 221500Z 34003KT 9999 FEW020 25/17 Q1017","temp":25,"dewp":17,"wdir":340,"wspd":3,"visib":"6+","altim":1017,"clouds":[{"cover":"FEW","base":2000}],"obsTime":1782140400},"SBRB":{"icaoId":"SBRB","flightCategory":"VFR","rawOb":"METAR SBRB 221500Z 01004KT 9999 FEW025 31/24 Q1015","temp":31,"dewp":24,"wdir":10,"wspd":4,"visib":"6+","altim":1015,"clouds":[{"cover":"FEW","base":2500}],"obsTime":1782140400},"SBCP":{"icaoId":"SBCP","flightCategory":"MVFR","rawOb":"METAR SBCP 221500Z 06007KT 9999 BKN020 26/18 Q1019","temp":26,"dewp":18,"wdir":60,"wspd":7,"visib":"6+","altim":1019,"clouds":[{"cover":"BKN","base":2000}],"obsTime":1782140400},"SBGO":{"icaoId":"SBGO","flightCategory":"VFR","rawOb":"METAR SBGO 221500Z 05006KT 010V080 9999 FEW045 SCT070 28/14 Q1021","temp":28,"dewp":14,"wdir":50,"wspd":6,"visib":"6+","altim":1021,"clouds":[{"cover":"FEW","base":4500},{"cover":"SCT","base":7000}],"obsTime":1782140400},"SBRF":{"icaoId":"SBRF","flightCategory":"MVFR","rawOb":"METAR SBRF 221500Z 19010KT 9999 BKN017 27/24 Q1015","temp":27,"dewp":24,"wdir":190,"wspd":10,"visib":"6+","altim":1015,"clouds":[{"cover":"BKN","base":1700}],"obsTime":1782140400},"SBSG":{"icaoId":"SBSG","flightCategory":"MVFR","rawOb":"METAR SBSG 221500Z 14005KT 080V190 9999 -SHRA BKN023 FEW030TCU 29/24 Q1015","temp":29,"dewp":24,"wdir":140,"wspd":5,"visib":"6+","altim":1015,"clouds":[{"cover":"BKN","base":2300},{"cover":"FEW","base":3000}],"obsTime":1782140400},"SBCR":{"icaoId":"SBCR","flightCategory":"VFR","rawOb":"METAR SBCR 221500Z 31013KT 9999 BKN040 SCT070 30/20 Q1014","temp":30,"dewp":20,"wdir":310,"wspd":13,"visib":"6+","altim":1014,"clouds":[{"cover":"BKN","base":4000},{"cover":"SCT","base":7000}],"obsTime":1782140400},"SBSL":{"icaoId":"SBSL","flightCategory":"VFR","rawOb":"METAR SBSL 221500Z 08006KT 9999 FEW030 31/24 Q1013","temp":31,"dewp":24,"wdir":80,"wspd":6,"visib":"6+","altim":1013,"clouds":[{"cover":"FEW","base":3000}],"obsTime":1782140400},"SBGR":{"icaoId":"SBGR","flightCategory":"VFR","rawOb":"METAR SBGR 221500Z 05007KT CAVOK 24/13 Q1019","temp":24,"dewp":13,"wdir":50,"wspd":7,"visib":"6+","altim":1019,"clouds":[],"obsTime":1782140400},"SBCB":{"icaoId":"SBCB","flightCategory":"VFR","rawOb":"METAR SBCB 221500Z /////KT CAVOK 25/18 Q1018","temp":25,"dewp":18,"wdir":null,"wspd":null,"visib":"6+","altim":1018,"clouds":[],"obsTime":1782140400},"SBSN":{"icaoId":"SBSN","flightCategory":"VFR","rawOb":"METAR SBSN 221500Z 09011KT 9999 FEW016 BKN100 28/24 Q1014","temp":28,"dewp":24,"wdir":90,"wspd":11,"visib":"6+","altim":1014,"clouds":[{"cover":"FEW","base":1600},{"cover":"BKN","base":10000}],"obsTime":1782140400},"SBSP":{"icaoId":"SBSP","flightCategory":"VFR","rawOb":"METAR SBSP 221500Z 01007KT 330V040 CAVOK 23/13 Q1020","temp":23,"dewp":13,"wdir":10,"wspd":7,"visib":"6+","altim":1020,"clouds":[],"obsTime":1782140400},"SBBR":{"icaoId":"SBBR","flightCategory":"VFR","rawOb":"METAR SBBR 221500Z 10007KT 040V160 CAVOK 25/12 Q1023","temp":25,"dewp":12,"wdir":100,"wspd":7,"visib":"6+","altim":1023,"clouds":[],"obsTime":1782140400},"SBCT":{"icaoId":"SBCT","flightCategory":"VFR","rawOb":"METAR SBCT 221500Z 34018KT 300V010 9999 FEW040 22/13 Q1016","temp":22,"dewp":13,"wdir":340,"wspd":18,"visib":"6+","altim":1016,"clouds":[{"cover":"FEW","base":4000}],"obsTime":1782140400},"SBHT":{"icaoId":"SBHT","flightCategory":"MVFR","rawOb":"METAR SBHT 221500Z 13005KT 9999 BKN025 30/24 Q1014","temp":30,"dewp":24,"wdir":130,"wspd":5,"visib":"6+","altim":1014,"clouds":[{"cover":"BKN","base":2500}],"obsTime":1782140400},"SBIL":{"icaoId":"SBIL","flightCategory":"VFR","rawOb":"METAR SBIL 221500Z 16005KT 9999 FEW025 28/19 Q1017","temp":28,"dewp":19,"wdir":160,"wspd":5,"visib":"6+","altim":1017,"clouds":[{"cover":"FEW","base":2500}],"obsTime":1782140400},"SBJU":{"icaoId":"SBJU","flightCategory":"MVFR","rawOb":"METAR SBJU 221500Z 15008KT 9999 BKN022 31/18 Q1017","temp":31,"dewp":18,"wdir":150,"wspd":8,"visib":"6+","altim":1017,"clouds":[{"cover":"BKN","base":2200}],"obsTime":1782140400},"SBME":{"icaoId":"SBME","flightCategory":"VFR","rawOb":"METAR SBME 221500Z 03014KT CAVOK 26/18 Q1018","temp":26,"dewp":18,"wdir":30,"wspd":14,"visib":"6+","altim":1018,"clouds":[],"obsTime":1782140400},"SBMG":{"icaoId":"SBMG","flightCategory":"VFR","rawOb":"METAR SBMG 221500Z 02016KT 9999 TS VCSH FEW035 FEW040CB BKN100 22/16 Q1013","temp":22,"dewp":16,"wdir":20,"wspd":16,"visib":"6+","altim":1013,"clouds":[{"cover":"FEW","base":3500},{"cover":"FEW","base":4000},{"cover":"BKN","base":10000}],"obsTime":1782140400},"SBMK":{"icaoId":"SBMK","flightCategory":"VFR","rawOb":"METAR SBMK 221500Z 05006KT CAVOK 26/11 Q1021","temp":26,"dewp":11,"wdir":50,"wspd":6,"visib":"6+","altim":1021,"clouds":[],"obsTime":1782140400},"SBAT":{"icaoId":"SBAT","flightCategory":"VFR","rawOb":"METAR SBAT 221500Z 02001KT 9999 SCT025 32/22 Q1015","temp":32,"dewp":22,"wdir":20,"wspd":1,"visib":"6+","altim":1015,"clouds":[{"cover":"SCT","base":2500}],"obsTime":1782140400},"SBUR":{"icaoId":"SBUR","flightCategory":"VFR","rawOb":"METAR SBUR 221500Z 01006KT CAVOK 28/11 Q1020","temp":28,"dewp":11,"wdir":10,"wspd":6,"visib":"6+","altim":1020,"clouds":[],"obsTime":1782140400},"SBUL":{"icaoId":"SBUL","flightCategory":"VFR","rawOb":"METAR SBUL 221500Z 09009KT CAVOK 25/13 Q1022","temp":25,"dewp":13,"wdir":90,"wspd":9,"visib":"6+","altim":1022,"clouds":[],"obsTime":1782140400},"SBSJ":{"icaoId":"SBSJ","flightCategory":"MVFR","rawOb":"METAR SBSJ 221500Z 33002KT 8000 NSC 22/14 Q1019","temp":22,"dewp":14,"wdir":330,"wspd":2,"visib":4.97,"altim":1019,"clouds":[],"obsTime":1782140400},"SBPL":{"icaoId":"SBPL","flightCategory":"VFR","rawOb":"METAR SBPL 221500Z 13008KT CAVOK 29/16 Q1017","temp":29,"dewp":16,"wdir":130,"wspd":8,"visib":"6+","altim":1017,"clouds":[],"obsTime":1782140400},"SBUY":{"icaoId":"SBUY","flightCategory":"VFR","rawOb":"METAR SBUY 221500Z 36001KT 9999 FEW025 30/24 Q1013","temp":30,"dewp":24,"wdir":360,"wspd":1,"visib":"6+","altim":1013,"clouds":[{"cover":"FEW","base":2500}],"obsTime":1782140400},"SBPB":{"icaoId":"SBPB","flightCategory":"VFR","rawOb":"METAR SBPB 221500Z 09010KT 9999 FEW020 31/25 Q1013","temp":31,"dewp":25,"wdir":90,"wspd":10,"visib":"6+","altim":1013,"clouds":[{"cover":"FEW","base":2000}],"obsTime":1782140400},"SBTD":{"icaoId":"SBTD","flightCategory":"MVFR","rawOb":"METAR SBTD 221500Z /////KT 9999 BKN010 SCT025 FEW035TCU BKN080 18/17 Q1013","temp":18,"dewp":17,"wdir":null,"wspd":null,"visib":"6+","altim":1013,"clouds":[{"cover":"BKN","base":1000},{"cover":"SCT","base":2500},{"cover":"FEW","base":3500},{"cover":"BKN","base":8000}],"obsTime":1782140400},"SBPP":{"icaoId":"SBPP","flightCategory":"MVFR","rawOb":"METAR SBPP 221500Z 31014KT 9999 OVC015 24/19 Q1014","temp":24,"dewp":19,"wdir":310,"wspd":14,"visib":"6+","altim":1014,"clouds":[{"cover":"OVC","base":1500}],"obsTime":1782140400},"SBOI":{"icaoId":"SBOI","flightCategory":"MVFR","rawOb":"METAR SBOI 221500Z AUTO 15005KT 120V190 7000 +RA BKN013 24/23 Q1014","temp":24,"dewp":23,"wdir":150,"wspd":5,"visib":4.35,"altim":1014,"clouds":[{"cover":"BKN","base":1300}],"obsTime":1782140400},"SBTF":{"icaoId":"SBTF","flightCategory":"VFR","rawOb":"METAR SBTF 221500Z 00000KT 9999 FEW018 31/26 Q1013","temp":31,"dewp":26,"wdir":0,"wspd":0,"visib":"6+","altim":1013,"clouds":[{"cover":"FEW","base":1800}],"obsTime":1782140400},"SBTT":{"icaoId":"SBTT","flightCategory":"VFR","rawOb":"METAR SBTT 221500Z 32003KT 9999 FEW013 28/22 Q1015","temp":28,"dewp":22,"wdir":320,"wspd":3,"visib":"6+","altim":1015,"clouds":[{"cover":"FEW","base":1300}],"obsTime":1782140400},"SBPS":{"icaoId":"SBPS","flightCategory":"VFR","rawOb":"METAR SBPS 221500Z 13005KT 9999 SCT025 SCT070 26/20 Q1020","temp":26,"dewp":20,"wdir":130,"wspd":5,"visib":"6+","altim":1020,"clouds":[{"cover":"SCT","base":2500},{"cover":"SCT","base":7000}],"obsTime":1782140400},"SBCJ":{"icaoId":"SBCJ","flightCategory":"VFR","rawOb":"METAR SBCJ 221500Z 00000KT 9999 SCT015 28/20 Q1019","temp":28,"dewp":20,"wdir":0,"wspd":0,"visib":"6+","altim":1019,"clouds":[{"cover":"SCT","base":1500}],"obsTime":1782140400},"SBAR":{"icaoId":"SBAR","flightCategory":"VFR","rawOb":"METAR SBAR 221500Z 16007KT 9999 FEW028 28/20 Q1017","temp":28,"dewp":20,"wdir":160,"wspd":7,"visib":"6+","altim":1017,"clouds":[{"cover":"FEW","base":2800}],"obsTime":1782140400},"SBSM":{"icaoId":"SBSM","flightCategory":"LIFR","rawOb":"METAR SBSM 221500Z 26003KT 190V310 5000 -DZ BKN004 BKN040 11/11 Q1013","temp":11,"dewp":11,"wdir":260,"wspd":3,"visib":3.11,"altim":1013,"clouds":[{"cover":"BKN","base":400},{"cover":"BKN","base":4000}],"obsTime":1782140400},"SBSC":{"icaoId":"SBSC","flightCategory":"VFR","rawOb":"METAR SBSC 221500Z 36010KT CAVOK 27/18 Q1016","temp":27,"dewp":18,"wdir":360,"wspd":10,"visib":"6+","altim":1016,"clouds":[],"obsTime":1782140400},"SBSR":{"icaoId":"SBSR","flightCategory":"VFR","rawOb":"METAR SBSR 221500Z 05009KT CAVOK 27/14 Q1018","temp":27,"dewp":14,"wdir":50,"wspd":9,"visib":"6+","altim":1018,"clouds":[],"obsTime":1782140400},"SBTU":{"icaoId":"SBTU","flightCategory":"VFR","rawOb":"METAR SBTU 221500Z AUTO 20003KT 130V260 9999 // SCT024/// ///// Q1016","temp":null,"dewp":null,"wdir":200,"wspd":3,"visib":"6+","altim":1016,"clouds":[{"cover":"SCT","base":2400}],"obsTime":1782140400},"SBVH":{"icaoId":"SBVH","flightCategory":"VFR","rawOb":"METAR SBVH 221500Z 34005KT 9999 SCT030 28/20 Q1018","temp":28,"dewp":20,"wdir":340,"wspd":5,"visib":"6+","altim":1018,"clouds":[{"cover":"SCT","base":3000}],"obsTime":1782140400},"SBAX":{"icaoId":"SBAX","flightCategory":"VFR","rawOb":"METAR SBAX 221500Z 04005KT CAVOK 25/11 Q1022","temp":25,"dewp":11,"wdir":40,"wspd":5,"visib":"6+","altim":1022,"clouds":[],"obsTime":1782140400},"SBBH":{"icaoId":"SBBH","flightCategory":"VFR","rawOb":"METAR SBBH 221500Z 03003KT 9999 SCT040 24/14 Q1022","temp":24,"dewp":14,"wdir":30,"wspd":3,"visib":"6+","altim":1022,"clouds":[{"cover":"SCT","base":4000}],"obsTime":1782140400},"SBBQ":{"icaoId":"SBBQ","flightCategory":"VFR","rawOb":"METAR SBBQ 221500Z 28008KT 9999 SCT040 22/12 Q1025","temp":22,"dewp":12,"wdir":280,"wspd":8,"visib":"6+","altim":1025,"clouds":[{"cover":"SCT","base":4000}],"obsTime":1782140400},"SBBU":{"icaoId":"SBBU","flightCategory":"VFR","rawOb":"METAR SBBU 221500Z 01009KT CAVOK 27/15 Q1018","temp":27,"dewp":15,"wdir":10,"wspd":9,"visib":"6+","altim":1018,"clouds":[],"obsTime":1782140400},"SBCA":{"icaoId":"SBCA","flightCategory":"LIFR","rawOb":"METAR SBCA 221500Z 35017KT 4000 0500W -RA BKN002 BKN010 16/16 Q1014","temp":16,"dewp":16,"wdir":350,"wspd":17,"visib":2.49,"altim":1014,"clouds":[{"cover":"BKN","base":200},{"cover":"BKN","base":1000}],"obsTime":1782140400},"SBCC":{"icaoId":"SBCC","flightCategory":"VFR","rawOb":"METAR SBCC 221500Z 07008KT 020V110 9999 SCT030 FEW035TCU 30/20 Q1016","temp":30,"dewp":20,"wdir":70,"wspd":8,"visib":"6+","altim":1016,"clouds":[{"cover":"SCT","base":3000},{"cover":"FEW","base":3500}],"obsTime":1782140400},"SBCO":{"icaoId":"SBCO","flightCategory":"IFR","rawOb":"METAR SBCO 221500Z VRB02KT 9999 OVC006 13/12 Q1010","temp":13,"dewp":12,"wdir":"VRB","wspd":2,"visib":"6+","altim":1010,"clouds":[{"cover":"OVC","base":600}],"obsTime":1782140400},"SBDN":{"icaoId":"SBDN","flightCategory":"VFR","rawOb":"METAR SBDN 221500Z 02012G22KT CAVOK 27/17 Q1015","temp":27,"dewp":17,"wdir":20,"wspd":12,"visib":"6+","altim":1015,"clouds":[],"obsTime":1782140400},"SBES":{"icaoId":"SBES","flightCategory":"VFR","rawOb":"METAR SBES 221500Z 05012KT 020V080 CAVOK 24/// Q1018","temp":null,"dewp":null,"wdir":50,"wspd":12,"visib":"6+","altim":1018,"clouds":[],"obsTime":1782140400},"SBGM":{"icaoId":"SBGM","flightCategory":"VFR","rawOb":"METAR SBGM 221500Z 28003KT 9999 FEW030 30/22 Q1015","temp":30,"dewp":22,"wdir":280,"wspd":3,"visib":"6+","altim":1015,"clouds":[{"cover":"FEW","base":3000}],"obsTime":1782140400},"SBIP":{"icaoId":"SBIP","flightCategory":"VFR","rawOb":"METAR SBIP 221500Z AUTO 35007KT 300V020 CAVOK 25/15 Q1020","temp":25,"dewp":15,"wdir":350,"wspd":7,"visib":"6+","altim":1020,"clouds":[],"obsTime":1782140400},"SBKG":{"icaoId":"SBKG","flightCategory":"MVFR","rawOb":"METAR SBKG 221500Z 17008KT 140V210 9999 BKN022 26/21 Q1017","temp":26,"dewp":21,"wdir":170,"wspd":8,"visib":"6+","altim":1017,"clouds":[{"cover":"BKN","base":2200}],"obsTime":1782140400},"SBJP":{"icaoId":"SBJP","flightCategory":"MVFR","rawOb":"METAR SBJP 212300Z 15010KT 9999 SCT010 BKN020 24/23 Q1016","temp":24,"dewp":23,"wdir":150,"wspd":10,"visib":"6+","altim":1016,"clouds":[{"cover":"SCT","base":1000},{"cover":"BKN","base":2000}],"obsTime":1782082800},"SBLE":{"icaoId":"SBLE","flightCategory":"VFR","rawOb":"METAR SBLE 212300Z AUTO VRB01KT CAVOK ///// Q////","temp":null,"dewp":null,"wdir":"VRB","wspd":1,"visib":"6+","altim":null,"clouds":[],"obsTime":1782082800},"SBAN":{"icaoId":"SBAN","flightCategory":"VFR","rawOb":"METAR SBAN 212300Z 17004KT CAVOK 21/16 Q1021","temp":21,"dewp":16,"wdir":170,"wspd":4,"visib":"6+","altim":1021,"clouds":[],"obsTime":1782082800},"SBJV":{"icaoId":"SBJV","flightCategory":"VFR","rawOb":"METAR SBJV 212300Z 00000KT 9999 FEW015 SCT035 14/14 Q1017","temp":14,"dewp":14,"wdir":0,"wspd":0,"visib":"6+","altim":1017,"clouds":[{"cover":"FEW","base":1500},{"cover":"SCT","base":3500}],"obsTime":1782082800},"SBNM":{"icaoId":"SBNM","flightCategory":"VFR","rawOb":"SPECI SBNM 212204Z AUTO 11007KT CAVOK 12/10 Q1013","temp":12,"dewp":10,"wdir":110,"wspd":7,"visib":"6+","altim":1013,"clouds":[],"obsTime":1782079440},"SBPF":{"icaoId":"SBPF","flightCategory":"VFR","rawOb":"METAR SBPF 212300Z 00000KT CAVOK 12/10 Q1015","temp":12,"dewp":10,"wdir":0,"wspd":0,"visib":"6+","altim":1015,"clouds":[],"obsTime":1782082800},"SBAF":{"icaoId":"SBAF","flightCategory":"VFR","rawOb":"METAR SBAF 212300Z VRB01KT 9999 SCT026 OVC033 20/20 Q1019","temp":20,"dewp":20,"wdir":"VRB","wspd":1,"visib":"6+","altim":1019,"clouds":[{"cover":"SCT","base":2600},{"cover":"OVC","base":3300}],"obsTime":1782082800},"SBJR":{"icaoId":"SBJR","flightCategory":"MVFR","rawOb":"METAR SBJR 212300Z 00000KT 9999 BKN025 BKN040 20/19 Q1018","temp":20,"dewp":19,"wdir":0,"wspd":0,"visib":"6+","altim":1018,"clouds":[{"cover":"BKN","base":2500},{"cover":"BKN","base":4000}],"obsTime":1782082800},"SBLS":{"icaoId":"SBLS","flightCategory":"VFR","rawOb":"METAR SBLS 212300Z 02002KT CAVOK 21/13 Q1020","temp":21,"dewp":13,"wdir":20,"wspd":2,"visib":"6+","altim":1020,"clouds":[],"obsTime":1782082800},"SBMT":{"icaoId":"SBMT","flightCategory":"VFR","rawOb":"METAR SBMT 212300Z 32001KT CAVOK 14/11 Q1019","temp":14,"dewp":11,"wdir":320,"wspd":1,"visib":"6+","altim":1019,"clouds":[],"obsTime":1782082800}}}