{"updated":1781968744,"count":88,"data":{"SBKP":{"icaoId":"SBKP","flightCategory":"VFR","rawOb":"METAR SBKP 201400Z 02008KT 9999 FEW045 SCT070 BKN100 22/14 Q1019","temp":22,"dewp":14,"wdir":20,"wspd":8,"visib":"6+","altim":1019,"clouds":[{"cover":"FEW","base":4500},{"cover":"SCT","base":7000},{"cover":"BKN","base":10000}],"obsTime":1781964000},"SBCF":{"icaoId":"SBCF","flightCategory":"VFR","rawOb":"METAR SBCF 201400Z 03005KT CAVOK 20/10 Q1022","temp":20,"dewp":10,"wdir":30,"wspd":5,"visib":"6+","altim":1022,"clouds":[],"obsTime":1781964000},"SBBR":{"icaoId":"SBBR","flightCategory":"VFR","rawOb":"METAR SBBR 201400Z 08004KT 020V130 CAVOK 23/14 Q1023","temp":23,"dewp":14,"wdir":80,"wspd":4,"visib":"6+","altim":1023,"clouds":[],"obsTime":1781964000},"SBLO":{"icaoId":"SBLO","flightCategory":"LIFR","rawOb":"METAR SBLO 201400Z 27008KT 230V310 6000 -RA BKN004 OVC013 15/14 Q1015","temp":15,"dewp":14,"wdir":270,"wspd":8,"visib":3.73,"altim":1015,"clouds":[{"cover":"BKN","base":400},{"cover":"OVC","base":1300}],"obsTime":1781964000},"SBEG":{"icaoId":"SBEG","flightCategory":"VFR","rawOb":"METAR SBEG 201400Z 11003KT 070V170 9999 SCT012 SCT020 29/25 Q1016","temp":29,"dewp":25,"wdir":110,"wspd":3,"visib":"6+","altim":1016,"clouds":[{"cover":"SCT","base":1200},{"cover":"SCT","base":2000}],"obsTime":1781964000},"SBMA":{"icaoId":"SBMA","flightCategory":"VFR","rawOb":"METAR SBMA 201400Z 00000KT 9999 FEW020 31/23 Q1015","temp":31,"dewp":23,"wdir":0,"wspd":0,"visib":"6+","altim":1015,"clouds":[{"cover":"FEW","base":2000}],"obsTime":1781964000},"SBAT":{"icaoId":"SBAT","flightCategory":"VFR","rawOb":"METAR SBAT 201400Z 13006KT 9999 FEW020 BKN100 25/22 Q1018","temp":25,"dewp":22,"wdir":130,"wspd":6,"visib":"6+","altim":1018,"clouds":[{"cover":"FEW","base":2000},{"cover":"BKN","base":10000}],"obsTime":1781964000},"SBME":{"icaoId":"SBME","flightCategory":"VFR","rawOb":"METAR SBME 201400Z 02010KT CAVOK 27/14 Q1016","temp":27,"dewp":14,"wdir":20,"wspd":10,"visib":"6+","altim":1016,"clouds":[],"obsTime":1781964000},"SBMG":{"icaoId":"SBMG","flightCategory":"IFR","rawOb":"METAR SBMG 201400Z 23008KT 6000 -RA SCT002 BKN009 BKN040 13/13 Q1016","temp":13,"dewp":13,"wdir":230,"wspd":8,"visib":3.73,"altim":1016,"clouds":[{"cover":"SCT","base":200},{"cover":"BKN","base":900},{"cover":"BKN","base":4000}],"obsTime":1781964000},"SBVT":{"icaoId":"SBVT","flightCategory":"VFR","rawOb":"METAR SBVT 201400Z 00000KT CAVOK 26/14 Q1018","temp":26,"dewp":14,"wdir":0,"wspd":0,"visib":"6+","altim":1018,"clouds":[],"obsTime":1781964000},"SBFI":{"icaoId":"SBFI","flightCategory":"LIFR","rawOb":"SPECI SBFI 201324Z 23004KT 7000 OVC004 12/12 Q1017","temp":12,"dewp":12,"wdir":230,"wspd":4,"visib":4.35,"altim":1017,"clouds":[{"cover":"OVC","base":400}],"obsTime":1781961840},"SBMK":{"icaoId":"SBMK","flightCategory":"VFR","rawOb":"METAR SBMK 201400Z 09005KT CAVOK 22/11 Q1022","temp":22,"dewp":11,"wdir":90,"wspd":5,"visib":"6+","altim":1022,"clouds":[],"obsTime":1781964000},"SBMO":{"icaoId":"SBMO","flightCategory":"VFR","rawOb":"METAR SBMO 201400Z 15009KT 9999 SCT025 28/23 Q1016","temp":28,"dewp":23,"wdir":150,"wspd":9,"visib":"6+","altim":1016,"clouds":[{"cover":"SCT","base":2500}],"obsTime":1781964000},"SBFL":{"icaoId":"SBFL","flightCategory":"MVFR","rawOb":"METAR SBFL 201400Z 20007KT 5000 -RA BR SCT013 BKN018 OVC050 15/14 Q1017","temp":15,"dewp":14,"wdir":200,"wspd":7,"visib":3.11,"altim":1017,"clouds":[{"cover":"SCT","base":1300},{"cover":"BKN","base":1800},{"cover":"OVC","base":5000}],"obsTime":1781964000},"SBMQ":{"icaoId":"SBMQ","flightCategory":"VFR","rawOb":"METAR SBMQ 201400Z 09006KT 9999 FEW015 29/23 Q1015","temp":29,"dewp":23,"wdir":90,"wspd":6,"visib":"6+","altim":1015,"clouds":[{"cover":"FEW","base":1500}],"obsTime":1781964000},"SBCG":{"icaoId":"SBCG","flightCategory":"IFR","rawOb":"METAR SBCG 201400Z 15004KT 120V180 9999 BKN005 OVC011 15/13 Q1019","temp":15,"dewp":13,"wdir":150,"wspd":4,"visib":"6+","altim":1019,"clouds":[{"cover":"BKN","base":500},{"cover":"OVC","base":1100}],"obsTime":1781964000},"SBNT":{"icaoId":"SBNT","flightCategory":"VFR","rawOb":"METAR SBNT 201400Z 16011KT 9999 SCT026 BKN038 29/22 Q1014","temp":29,"dewp":22,"wdir":160,"wspd":11,"visib":"6+","altim":1014,"clouds":[{"cover":"SCT","base":2600},{"cover":"BKN","base":3800}],"obsTime":1781964000},"SBFZ":{"icaoId":"SBFZ","flightCategory":"VFR","rawOb":"METAR SBFZ 201400Z 16014KT 9999 SCT025 29/21 Q1014","temp":29,"dewp":21,"wdir":160,"wspd":14,"visib":"6+","altim":1014,"clouds":[{"cover":"SCT","base":2500}],"obsTime":1781964000},"SBPA":{"icaoId":"SBPA","flightCategory":"MVFR","rawOb":"METAR SBPA 201400Z 17003KT 140V220 9999 OVC030 12/08 Q1019","temp":12,"dewp":8,"wdir":170,"wspd":3,"visib":"6+","altim":1019,"clouds":[{"cover":"OVC","base":3000}],"obsTime":1781964000},"SBPJ":{"icaoId":"SBPJ","flightCategory":"VFR","rawOb":"METAR SBPJ 201400Z 01003KT 330V060 9999 VCSH FEW040 SCT060 BKN080 28/20 Q1018","temp":28,"dewp":20,"wdir":10,"wspd":3,"visib":"6+","altim":1018,"clouds":[{"cover":"FEW","base":4000},{"cover":"SCT","base":6000},{"cover":"BKN","base":8000}],"obsTime":1781964000},"SBBV":{"icaoId":"SBBV","flightCategory":"VFR","rawOb":"METAR SBBV 201400Z 15004KT 9999 SCT025 FEW035TCU SCT100 29/23 Q1015","temp":29,"dewp":23,"wdir":150,"wspd":4,"visib":"6+","altim":1015,"clouds":[{"cover":"SCT","base":2500},{"cover":"FEW","base":3500},{"cover":"SCT","base":10000}],"obsTime":1781964000},"SBCP":{"icaoId":"SBCP","flightCategory":"VFR","rawOb":"METAR SBCP 201400Z 33010KT CAVOK 25/15 Q1017","temp":25,"dewp":15,"wdir":330,"wspd":10,"visib":"6+","altim":1017,"clouds":[],"obsTime":1781964000},"SBPV":{"icaoId":"SBPV","flightCategory":"VFR","rawOb":"METAR SBPV 201400Z 14008KT CAVOK 29/22 Q1015","temp":29,"dewp":22,"wdir":140,"wspd":8,"visib":"6+","altim":1015,"clouds":[],"obsTime":1781964000},"SBGL":{"icaoId":"SBGL","flightCategory":"VFR","rawOb":"METAR SBGL 201400Z 01003KT CAVOK 24/15 Q1015","temp":24,"dewp":15,"wdir":10,"wspd":3,"visib":"6+","altim":1015,"clouds":[],"obsTime":1781964000},"SBRB":{"icaoId":"SBRB","flightCategory":"VFR","rawOb":"METAR SBRB 201400Z 13005KT 9999 FEW015 28/23 Q1017","temp":28,"dewp":23,"wdir":130,"wspd":5,"visib":"6+","altim":1017,"clouds":[{"cover":"FEW","base":1500}],"obsTime":1781964000},"SBCR":{"icaoId":"SBCR","flightCategory":"VFR","rawOb":"METAR SBCR 201400Z VRB03KT 9999 FEW020 20/12 Q1019","temp":20,"dewp":12,"wdir":"VRB","wspd":3,"visib":"6+","altim":1019,"clouds":[{"cover":"FEW","base":2000}],"obsTime":1781964000},"SBRF":{"icaoId":"SBRF","flightCategory":"MVFR","rawOb":"METAR SBRF 201400Z 15017KT 9999 BKN018 27/24 Q1015","temp":27,"dewp":24,"wdir":150,"wspd":17,"visib":"6+","altim":1015,"clouds":[{"cover":"BKN","base":1800}],"obsTime":1781964000},"SBSG":{"icaoId":"SBSG","flightCategory":"MVFR","rawOb":"METAR SBSG 201400Z 17008KT 140V210 9999 VCSH BKN023 BKN040 27/23 Q1015","temp":27,"dewp":23,"wdir":170,"wspd":8,"visib":"6+","altim":1015,"clouds":[{"cover":"BKN","base":2300},{"cover":"BKN","base":4000}],"obsTime":1781964000},"SBGO":{"icaoId":"SBGO","flightCategory":"VFR","rawOb":"METAR SBGO 201400Z 31004KT CAVOK 25/17 Q1022","temp":25,"dewp":17,"wdir":310,"wspd":4,"visib":"6+","altim":1022,"clouds":[],"obsTime":1781964000},"SBBE":{"icaoId":"SBBE","flightCategory":"VFR","rawOb":"METAR SBBE 201400Z 28005KT 9999 SCT030 29/24 Q1015","temp":29,"dewp":24,"wdir":280,"wspd":5,"visib":"6+","altim":1015,"clouds":[{"cover":"SCT","base":3000}],"obsTime":1781964000},"SBSL":{"icaoId":"SBSL","flightCategory":"MVFR","rawOb":"METAR SBSL 201400Z 09005KT 030V160 9999 VCSH BKN025 FEW030TCU 30/24 Q1014","temp":30,"dewp":24,"wdir":90,"wspd":5,"visib":"6+","altim":1014,"clouds":[{"cover":"BKN","base":2500},{"cover":"FEW","base":3000}],"obsTime":1781964000},"SBGR":{"icaoId":"SBGR","flightCategory":"VFR","rawOb":"METAR SBGR 201400Z 08007KT CAVOK 21/14 Q1018","temp":21,"dewp":14,"wdir":80,"wspd":7,"visib":"6+","altim":1018,"clouds":[],"obsTime":1781964000},"SBSN":{"icaoId":"SBSN","flightCategory":"VFR","rawOb":"METAR SBSN 201400Z 09007KT 9999 SCT020 FEW025TCU 30/24 Q1015 RETS","temp":30,"dewp":24,"wdir":90,"wspd":7,"visib":"6+","altim":1015,"clouds":[{"cover":"SCT","base":2000},{"cover":"FEW","base":2500}],"obsTime":1781964000},"SBCB":{"icaoId":"SBCB","flightCategory":"VFR","rawOb":"METAR SBCB 201400Z /////KT CAVOK 26/17 Q1016","temp":26,"dewp":17,"wdir":null,"wspd":null,"visib":"6+","altim":1016,"clouds":[],"obsTime":1781964000},"SBSP":{"icaoId":"SBSP","flightCategory":"VFR","rawOb":"METAR SBSP 201400Z 36006KT 320V030 9999 FEW020 BKN100 21/13 Q1019","temp":21,"dewp":13,"wdir":360,"wspd":6,"visib":"6+","altim":1019,"clouds":[{"cover":"FEW","base":2000},{"cover":"BKN","base":10000}],"obsTime":1781964000},"SBHT":{"icaoId":"SBHT","flightCategory":"VFR","rawOb":"METAR SBHT 201400Z 09006KT 9999 FEW025 33/24 Q1016","temp":33,"dewp":24,"wdir":90,"wspd":6,"visib":"6+","altim":1016,"clouds":[{"cover":"FEW","base":2500}],"obsTime":1781964000},"SBSV":{"icaoId":"SBSV","flightCategory":"VFR","rawOb":"METAR SBSV 201400Z 17010KT 9999 SCT023 BKN060 28/17 Q1018","temp":28,"dewp":17,"wdir":170,"wspd":10,"visib":"6+","altim":1018,"clouds":[{"cover":"SCT","base":2300},{"cover":"BKN","base":6000}],"obsTime":1781964000},"SBCT":{"icaoId":"SBCT","flightCategory":"LIFR","rawOb":"METAR SBCT 201400Z 09007KT 5000 -RADZ BR BKN004 OVC010 13/13 Q1016","temp":13,"dewp":13,"wdir":90,"wspd":7,"visib":3.11,"altim":1016,"clouds":[{"cover":"BKN","base":400},{"cover":"OVC","base":1000}],"obsTime":1781964000},"SBTE":{"icaoId":"SBTE","flightCategory":"VFR","rawOb":"METAR SBTE 201400Z 13008KT 090V180 9999 FEW025 31/19 Q1015","temp":31,"dewp":19,"wdir":130,"wspd":8,"visib":"6+","altim":1015,"clouds":[{"cover":"FEW","base":2500}],"obsTime":1781964000},"SBIL":{"icaoId":"SBIL","flightCategory":"VFR","rawOb":"METAR SBIL 201400Z 19007KT 140V210 9999 FEW020 SCT070 27/17 Q1019","temp":27,"dewp":17,"wdir":190,"wspd":7,"visib":"6+","altim":1019,"clouds":[{"cover":"FEW","base":2000},{"cover":"SCT","base":7000}],"obsTime":1781964000},"SBUL":{"icaoId":"SBUL","flightCategory":"VFR","rawOb":"METAR SBUL 201400Z 03007KT 350V060 9999 FEW045 BKN070 20/13 Q1023","temp":20,"dewp":13,"wdir":30,"wspd":7,"visib":"6+","altim":1023,"clouds":[{"cover":"FEW","base":4500},{"cover":"BKN","base":7000}],"obsTime":1781964000},"SBCZ":{"icaoId":"SBCZ","flightCategory":"VFR","rawOb":"METAR SBCZ 201400Z 12004KT CAVOK 27/24 Q1016","temp":27,"dewp":24,"wdir":120,"wspd":4,"visib":"6+","altim":1016,"clouds":[],"obsTime":1781964000},"SBUR":{"icaoId":"SBUR","flightCategory":"VFR","rawOb":"METAR SBUR 201400Z 32014KT 9999 FEW040 24/15 Q1021","temp":24,"dewp":15,"wdir":320,"wspd":14,"visib":"6+","altim":1021,"clouds":[{"cover":"FEW","base":4000}],"obsTime":1781964000},"SBJU":{"icaoId":"SBJU","flightCategory":"VFR","rawOb":"METAR SBJU 201400Z 00000KT CAVOK 28/16 Q1018","temp":28,"dewp":16,"wdir":0,"wspd":0,"visib":"6+","altim":1018,"clouds":[],"obsTime":1781964000},"SBVH":{"icaoId":"SBVH","flightCategory":"IFR","rawOb":"METAR SBVH 201400Z 10010KT 9999 OVC005 21/19 Q1020","temp":21,"dewp":19,"wdir":100,"wspd":10,"visib":"6+","altim":1020,"clouds":[{"cover":"OVC","base":500}],"obsTime":1781964000},"SBAR":{"icaoId":"SBAR","flightCategory":"VFR","rawOb":"METAR SBAR 201400Z 18006KT 120V290 9999 FEW015 SCT025 BKN040 25/22 Q1017","temp":25,"dewp":22,"wdir":180,"wspd":6,"visib":"6+","altim":1017,"clouds":[{"cover":"FEW","base":1500},{"cover":"SCT","base":2500},{"cover":"BKN","base":4000}],"obsTime":1781964000},"SBAX":{"icaoId":"SBAX","flightCategory":"VFR","rawOb":"METAR SBAX 201400Z AUTO 32006KT 280V350 CAVOK 20/11 Q1022","temp":20,"dewp":11,"wdir":320,"wspd":6,"visib":"6+","altim":1022,"clouds":[],"obsTime":1781964000},"SBBH":{"icaoId":"SBBH","flightCategory":"VFR","rawOb":"METAR SBBH 201400Z 00000KT CAVOK 21/11 Q1022","temp":21,"dewp":11,"wdir":0,"wspd":0,"visib":"6+","altim":1022,"clouds":[],"obsTime":1781964000},"SBBQ":{"icaoId":"SBBQ","flightCategory":"VFR","rawOb":"METAR SBBQ 201400Z 30006KT CAVOK 19/11 Q1024","temp":19,"dewp":11,"wdir":300,"wspd":6,"visib":"6+","altim":1024,"clouds":[],"obsTime":1781964000},"SBBU":{"icaoId":"SBBU","flightCategory":"VFR","rawOb":"METAR SBBU 201400Z 03004KT 9999 SCT006 BKN070 20/18 Q1018","temp":20,"dewp":18,"wdir":30,"wspd":4,"visib":"6+","altim":1018,"clouds":[{"cover":"SCT","base":600},{"cover":"BKN","base":7000}],"obsTime":1781964000},"SBCA":{"icaoId":"SBCA","flightCategory":"MVFR","rawOb":"METAR SBCA 201400Z 16004KT 110V210 9999 BKN015 14/12 Q1017","temp":14,"dewp":12,"wdir":160,"wspd":4,"visib":"6+","altim":1017,"clouds":[{"cover":"BKN","base":1500}],"obsTime":1781964000},"SBCC":{"icaoId":"SBCC","flightCategory":"VFR","rawOb":"METAR SBCC 201400Z 07012KT 9999 SCT040 FEW045TCU BKN100 23/19 Q1020","temp":23,"dewp":19,"wdir":70,"wspd":12,"visib":"6+","altim":1020,"clouds":[{"cover":"SCT","base":4000},{"cover":"FEW","base":4500},{"cover":"BKN","base":10000}],"obsTime":1781964000},"SBCJ":{"icaoId":"SBCJ","flightCategory":"VFR","rawOb":"METAR SBCJ 201400Z 00000KT 9999 FEW020 28/22 Q1019","temp":28,"dewp":22,"wdir":0,"wspd":0,"visib":"6+","altim":1019,"clouds":[{"cover":"FEW","base":2000}],"obsTime":1781964000},"SBCO":{"icaoId":"SBCO","flightCategory":"MVFR","rawOb":"METAR SBCO 201400Z VRB02KT 9999 BKN030 12/08 Q1019","temp":12,"dewp":8,"wdir":"VRB","wspd":2,"visib":"6+","altim":1019,"clouds":[{"cover":"BKN","base":3000}],"obsTime":1781964000},"SBDN":{"icaoId":"SBDN","flightCategory":"LIFR","rawOb":"METAR SBDN 201400Z 25009KT 3000 -RA BR BKN003 15/13 Q1017","temp":15,"dewp":13,"wdir":250,"wspd":9,"visib":1.86,"altim":1017,"clouds":[{"cover":"BKN","base":300}],"obsTime":1781964000},"SBES":{"icaoId":"SBES","flightCategory":"VFR","rawOb":"METAR SBES 201400Z 05006KT 360V090 CAVOK 25/// Q1016","temp":null,"dewp":null,"wdir":50,"wspd":6,"visib":"6+","altim":1016,"clouds":[],"obsTime":1781964000},"SBGM":{"icaoId":"SBGM","flightCategory":"IFR","rawOb":"METAR SBGM 201400Z 11009KT 9999 BKN005 OVC013 24/22 Q1017","temp":24,"dewp":22,"wdir":110,"wspd":9,"visib":"6+","altim":1017,"clouds":[{"cover":"BKN","base":500},{"cover":"OVC","base":1300}],"obsTime":1781964000},"SBIP":{"icaoId":"SBIP","flightCategory":"VFR","rawOb":"METAR SBIP 201400Z AUTO 05005KT 330V130 CAVOK 23/15 Q1020","temp":23,"dewp":15,"wdir":50,"wspd":5,"visib":"6+","altim":1020,"clouds":[],"obsTime":1781964000},"SBKG":{"icaoId":"SBKG","flightCategory":"MVFR","rawOb":"METAR SBKG 201400Z 15008KT 9999 SCT007 BKN015 24/20 Q1017","temp":24,"dewp":20,"wdir":150,"wspd":8,"visib":"6+","altim":1017,"clouds":[{"cover":"SCT","base":700},{"cover":"BKN","base":1500}],"obsTime":1781964000},"SBOI":{"icaoId":"SBOI","flightCategory":"VFR","rawOb":"METAR SBOI 201400Z AUTO 11004KT 040V160 9999 SCT021 30/25 Q1015","temp":30,"dewp":25,"wdir":110,"wspd":4,"visib":"6+","altim":1015,"clouds":[{"cover":"SCT","base":2100}],"obsTime":1781964000},"SBPB":{"icaoId":"SBPB","flightCategory":"VFR","rawOb":"METAR SBPB 201400Z 10005KT 9999 SCT016 32/23 Q1014","temp":32,"dewp":23,"wdir":100,"wspd":5,"visib":"6+","altim":1014,"clouds":[{"cover":"SCT","base":1600}],"obsTime":1781964000},"SBPL":{"icaoId":"SBPL","flightCategory":"VFR","rawOb":"METAR SBPL 201400Z 14007KT 9999 SCT025 27/17 Q1019","temp":27,"dewp":17,"wdir":140,"wspd":7,"visib":"6+","altim":1019,"clouds":[{"cover":"SCT","base":2500}],"obsTime":1781964000},"SBPP":{"icaoId":"SBPP","flightCategory":"MVFR","rawOb":"SPECI SBPP 201325Z 34005KT 5000 BR OVC015 12/10 Q1018","temp":12,"dewp":10,"wdir":340,"wspd":5,"visib":3.11,"altim":1018,"clouds":[{"cover":"OVC","base":1500}],"obsTime":1781961900},"SBPS":{"icaoId":"SBPS","flightCategory":"VFR","rawOb":"METAR SBPS 201400Z VRB02KT 9999 SCT025 BKN070 26/17 Q1019","temp":26,"dewp":17,"wdir":"VRB","wspd":2,"visib":"6+","altim":1019,"clouds":[{"cover":"SCT","base":2500},{"cover":"BKN","base":7000}],"obsTime":1781964000},"SBSC":{"icaoId":"SBSC","flightCategory":"VFR","rawOb":"METAR SBSC 201400Z 34013KT CAVOK 26/16 Q1015","temp":26,"dewp":16,"wdir":340,"wspd":13,"visib":"6+","altim":1015,"clouds":[],"obsTime":1781964000},"SBSJ":{"icaoId":"SBSJ","flightCategory":"VFR","rawOb":"METAR SBSJ 201400Z 03004KT 350V070 CAVOK 20/13 Q1018","temp":20,"dewp":13,"wdir":30,"wspd":4,"visib":"6+","altim":1018,"clouds":[],"obsTime":1781964000},"SBSM":{"icaoId":"SBSM","flightCategory":"VFR","rawOb":"METAR SBSM 201400Z 10003KT 9999 SCT010 BKN033 11/09 Q1020","temp":11,"dewp":9,"wdir":100,"wspd":3,"visib":"6+","altim":1020,"clouds":[{"cover":"SCT","base":1000},{"cover":"BKN","base":3300}],"obsTime":1781964000},"SBSR":{"icaoId":"SBSR","flightCategory":"VFR","rawOb":"METAR SBSR 201400Z 03006KT 9999 SCT035 BKN070 22/17 Q1018","temp":22,"dewp":17,"wdir":30,"wspd":6,"visib":"6+","altim":1018,"clouds":[{"cover":"SCT","base":3500},{"cover":"BKN","base":7000}],"obsTime":1781964000},"SBTF":{"icaoId":"SBTF","flightCategory":"VFR","rawOb":"METAR SBTF 201400Z 33002KT 9999 SCT015 29/24 Q1015","temp":29,"dewp":24,"wdir":330,"wspd":2,"visib":"6+","altim":1015,"clouds":[{"cover":"SCT","base":1500}],"obsTime":1781964000},"SBTT":{"icaoId":"SBTT","flightCategory":"VFR","rawOb":"METAR SBTT 201400Z 16006KT 9999 FEW020 BKN080 26/23 Q1016","temp":26,"dewp":23,"wdir":160,"wspd":6,"visib":"6+","altim":1016,"clouds":[{"cover":"FEW","base":2000},{"cover":"BKN","base":8000}],"obsTime":1781964000},"SBUY":{"icaoId":"SBUY","flightCategory":"VFR","rawOb":"METAR SBUY 201400Z 15004KT 9999 SCT025 27/24 Q1015","temp":27,"dewp":24,"wdir":150,"wspd":4,"visib":"6+","altim":1015,"clouds":[{"cover":"SCT","base":2500}],"obsTime":1781964000},"SBTU":{"icaoId":"SBTU","flightCategory":"VFR","rawOb":"METAR SBTU 201400Z AUTO 20006KT 170V230 9999 // SCT013/// SCT017/// ///// Q1017","temp":null,"dewp":null,"wdir":200,"wspd":6,"visib":"6+","altim":1017,"clouds":[{"cover":"SCT","base":1300},{"cover":"SCT","base":1700}],"obsTime":1781964000},"SBAU":{"icaoId":"SBAU","flightCategory":"VFR","rawOb":"METAR SBAU 201400Z 33004KT CAVOK 22/19 Q1016","temp":22,"dewp":19,"wdir":330,"wspd":4,"visib":"6+","altim":1016,"clouds":[],"obsTime":1781964000},"SBJP":{"icaoId":"SBJP","flightCategory":"MVFR","rawOb":"METAR SBJP 201400Z 17010KT 9999 BKN020 BKN070 27/24 Q1015","temp":27,"dewp":24,"wdir":170,"wspd":10,"visib":"6+","altim":1015,"clouds":[{"cover":"BKN","base":2000},{"cover":"BKN","base":7000}],"obsTime":1781964000},"SBAN":{"icaoId":"SBAN","flightCategory":"VFR","rawOb":"METAR SBAN 201400Z 29004KT 9999 FEW045 24/16 Q1023","temp":24,"dewp":16,"wdir":290,"wspd":4,"visib":"6+","altim":1023,"clouds":[{"cover":"FEW","base":4500}],"obsTime":1781964000},"SBIH":{"icaoId":"SBIH","flightCategory":"VFR","rawOb":"METAR SBIH 201400Z 03003KT 9999 FEW016 FEW023TCU SCT100 27/24 Q1015","temp":27,"dewp":24,"wdir":30,"wspd":3,"visib":"6+","altim":1015,"clouds":[{"cover":"FEW","base":1600},{"cover":"FEW","base":2300},{"cover":"SCT","base":10000}],"obsTime":1781964000},"SBLE":{"icaoId":"SBLE","flightCategory":"VFR","rawOb":"METAR SBLE 201400Z AUTO 18003KT 150V220 9999 FEW034 SCT046 22/15 Q1021","temp":22,"dewp":15,"wdir":180,"wspd":3,"visib":"6+","altim":1021,"clouds":[{"cover":"FEW","base":3400},{"cover":"SCT","base":4600}],"obsTime":1781964000},"SBTC":{"icaoId":"SBTC","flightCategory":"VFR","rawOb":"METAR SBTC 201500Z 18007KT 9999 SCT025 28/15 Q1018","temp":28,"dewp":15,"wdir":180,"wspd":7,"visib":"6+","altim":1018,"clouds":[{"cover":"SCT","base":2500}],"obsTime":1781967600},"SBJV":{"icaoId":"SBJV","flightCategory":"MVFR","rawOb":"METAR SBJV 201400Z 34003KT 5000 -RA BR FEW005 BKN010 OVC020 16/15 Q1016","temp":16,"dewp":15,"wdir":340,"wspd":3,"visib":3.11,"altim":1016,"clouds":[{"cover":"FEW","base":500},{"cover":"BKN","base":1000},{"cover":"OVC","base":2000}],"obsTime":1781964000},"SBNM":{"icaoId":"SBNM","flightCategory":"MVFR","rawOb":"METAR SBNM 201400Z 34002KT 9999 SCT005 OVC020 11/09 Q1018","temp":11,"dewp":9,"wdir":340,"wspd":2,"visib":"6+","altim":1018,"clouds":[{"cover":"SCT","base":500},{"cover":"OVC","base":2000}],"obsTime":1781964000},"SBPF":{"icaoId":"SBPF","flightCategory":"LIFR","rawOb":"METAR SBPF 201400Z 18003KT 9999 BKN004 09/09 Q1017","temp":9,"dewp":9,"wdir":180,"wspd":3,"visib":"6+","altim":1017,"clouds":[{"cover":"BKN","base":400}],"obsTime":1781964000},"SBAF":{"icaoId":"SBAF","flightCategory":"VFR","rawOb":"METAR SBAF 201400Z 36004KT 330V060 CAVOK 26/15 Q1016","temp":26,"dewp":15,"wdir":360,"wspd":4,"visib":"6+","altim":1016,"clouds":[],"obsTime":1781964000},"SBGW":{"icaoId":"SBGW","flightCategory":"VFR","rawOb":"METAR SBGW 201400Z 06004KT CAVOK 20/11 Q1018","temp":20,"dewp":11,"wdir":60,"wspd":4,"visib":"6+","altim":1018,"clouds":[],"obsTime":1781964000},"SBJR":{"icaoId":"SBJR","flightCategory":"VFR","rawOb":"METAR SBJR 201400Z 35009KT CAVOK 28/15 Q1015","temp":28,"dewp":15,"wdir":350,"wspd":9,"visib":"6+","altim":1015,"clouds":[],"obsTime":1781964000},"SBLS":{"icaoId":"SBLS","flightCategory":"VFR","rawOb":"METAR SBLS 201400Z 02003KT CAVOK 21/10 Q1022","temp":21,"dewp":10,"wdir":20,"wspd":3,"visib":"6+","altim":1022,"clouds":[],"obsTime":1781964000},"SBMT":{"icaoId":"SBMT","flightCategory":"VFR","rawOb":"METAR SBMT 201400Z 01003KT CAVOK 21/11 Q1018","temp":21,"dewp":11,"wdir":10,"wspd":3,"visib":"6+","altim":1018,"clouds":[],"obsTime":1781964000},"SBST":{"icaoId":"SBST","flightCategory":"VFR","rawOb":"METAR SBST 201400Z 25005KT 9999 FEW011 24/19 Q1015","temp":24,"dewp":19,"wdir":250,"wspd":5,"visib":"6+","altim":1015,"clouds":[{"cover":"FEW","base":1100}],"obsTime":1781964000},"SBTA":{"icaoId":"SBTA","flightCategory":"VFR","rawOb":"METAR SBTA 201400Z 08008KT CAVOK 21/14 Q1018","temp":21,"dewp":14,"wdir":80,"wspd":8,"visib":"6+","altim":1018,"clouds":[],"obsTime":1781964000}}}