{"updated":1781908852,"count":82,"data":{"SBPA":{"icaoId":"SBPA","flightCategory":"IFR","rawOb":"METAR SBPA 192100Z 27006KT 9999 FEW003 BKN008 BKN035 15/14 Q1015","temp":15,"dewp":14,"wdir":270,"wspd":6,"visib":"6+","altim":1015,"clouds":[{"cover":"FEW","base":300},{"cover":"BKN","base":800},{"cover":"BKN","base":3500}],"obsTime":1781902800},"SBCG":{"icaoId":"SBCG","flightCategory":"MVFR","rawOb":"METAR SBCG 192100Z 36006KT 5000 -TSRA BR BKN045 FEW050CB OVC080 20/19 Q1017","temp":20,"dewp":19,"wdir":360,"wspd":6,"visib":3.11,"altim":1017,"clouds":[{"cover":"BKN","base":4500},{"cover":"FEW","base":5000},{"cover":"OVC","base":8000}],"obsTime":1781902800},"SBBR":{"icaoId":"SBBR","flightCategory":"VFR","rawOb":"METAR SBBR 192100Z 15007KT CAVOK 24/15 Q1021","temp":24,"dewp":15,"wdir":150,"wspd":7,"visib":"6+","altim":1021,"clouds":[],"obsTime":1781902800},"SBPV":{"icaoId":"SBPV","flightCategory":"VFR","rawOb":"METAR SBPV 192100Z 34003KT CAVOK 31/22 Q1012","temp":31,"dewp":22,"wdir":340,"wspd":3,"visib":"6+","altim":1012,"clouds":[],"obsTime":1781902800},"SBBE":{"icaoId":"SBBE","flightCategory":"MVFR","rawOb":"SPECI SBBE 192049Z 08005KT 5000 -TSRA FEW007 BKN025 FEW030CB BKN070 23/23 Q1014 RERA","temp":23,"dewp":23,"wdir":80,"wspd":5,"visib":3.11,"altim":1014,"clouds":[{"cover":"FEW","base":700},{"cover":"BKN","base":2500},{"cover":"FEW","base":3000},{"cover":"BKN","base":7000}],"obsTime":1781902140},"SBBV":{"icaoId":"SBBV","flightCategory":"VFR","rawOb":"METAR SBBV 192100Z 18006KT 9999 VCSH SCT025 FEW030TCU BKN080 29/24 Q1012","temp":29,"dewp":24,"wdir":180,"wspd":6,"visib":"6+","altim":1012,"clouds":[{"cover":"SCT","base":2500},{"cover":"FEW","base":3000},{"cover":"BKN","base":8000}],"obsTime":1781902800},"SBCB":{"icaoId":"SBCB","flightCategory":"VFR","rawOb":"METAR SBCB 192100Z /////KT CAVOK 22/18 Q1019","temp":22,"dewp":18,"wdir":null,"wspd":null,"visib":"6+","altim":1019,"clouds":[],"obsTime":1781902800},"SBCF":{"icaoId":"SBCF","flightCategory":"VFR","rawOb":"METAR SBCF 192100Z 13009KT CAVOK 19/11 Q1022","temp":19,"dewp":11,"wdir":130,"wspd":9,"visib":"6+","altim":1022,"clouds":[],"obsTime":1781902800},"SBCP":{"icaoId":"SBCP","flightCategory":"VFR","rawOb":"METAR SBCP 192100Z 10007KT 9999 FEW020 20/17 Q1019","temp":20,"dewp":17,"wdir":100,"wspd":7,"visib":"6+","altim":1019,"clouds":[{"cover":"FEW","base":2000}],"obsTime":1781902800},"SBCT":{"icaoId":"SBCT","flightCategory":"VFR","rawOb":"METAR SBCT 192100Z 22015KT 9999 FEW033 SCT045 BKN100 16/13 Q1020","temp":16,"dewp":13,"wdir":220,"wspd":15,"visib":"6+","altim":1020,"clouds":[{"cover":"FEW","base":3300},{"cover":"SCT","base":4500},{"cover":"BKN","base":10000}],"obsTime":1781902800},"SBCZ":{"icaoId":"SBCZ","flightCategory":"MVFR","rawOb":"METAR SBCZ 192100Z 34002KT 9999 BKN030 29/24 Q1012","temp":29,"dewp":24,"wdir":340,"wspd":2,"visib":"6+","altim":1012,"clouds":[{"cover":"BKN","base":3000}],"obsTime":1781902800},"SBEG":{"icaoId":"SBEG","flightCategory":"VFR","rawOb":"METAR SBEG 192100Z VRB02KT 9999 FEW025 FEW030TCU 28/26 Q1012","temp":28,"dewp":26,"wdir":"VRB","wspd":2,"visib":"6+","altim":1012,"clouds":[{"cover":"FEW","base":2500},{"cover":"FEW","base":3000}],"obsTime":1781902800},"SBFI":{"icaoId":"SBFI","flightCategory":"VFR","rawOb":"METAR SBFI 192100Z 06006KT 9999 SCT007 OVC040 14/14 Q1015","temp":14,"dewp":14,"wdir":60,"wspd":6,"visib":"6+","altim":1015,"clouds":[{"cover":"SCT","base":700},{"cover":"OVC","base":4000}],"obsTime":1781902800},"SBFL":{"icaoId":"SBFL","flightCategory":"VFR","rawOb":"METAR SBFL 192100Z 34011KT 9999 FEW036 SCT095 19/15 Q1015","temp":19,"dewp":15,"wdir":340,"wspd":11,"visib":"6+","altim":1015,"clouds":[{"cover":"FEW","base":3600},{"cover":"SCT","base":9500}],"obsTime":1781902800},"SBFZ":{"icaoId":"SBFZ","flightCategory":"VFR","rawOb":"METAR SBFZ 192100Z 09007KT 9999 FEW023 28/23 Q1012","temp":28,"dewp":23,"wdir":90,"wspd":7,"visib":"6+","altim":1012,"clouds":[{"cover":"FEW","base":2300}],"obsTime":1781902800},"SBGL":{"icaoId":"SBGL","flightCategory":"VFR","rawOb":"METAR SBGL 192100Z 13006KT CAVOK 22/18 Q1017","temp":22,"dewp":18,"wdir":130,"wspd":6,"visib":"6+","altim":1017,"clouds":[],"obsTime":1781902800},"SBGO":{"icaoId":"SBGO","flightCategory":"VFR","rawOb":"METAR SBGO 192100Z 14004KT CAVOK 28/15 Q1018","temp":28,"dewp":15,"wdir":140,"wspd":4,"visib":"6+","altim":1018,"clouds":[],"obsTime":1781902800},"SBGR":{"icaoId":"SBGR","flightCategory":"VFR","rawOb":"METAR SBGR 192100Z 01006KT 330V030 CAVOK 22/12 Q1020","temp":22,"dewp":12,"wdir":10,"wspd":6,"visib":"6+","altim":1020,"clouds":[],"obsTime":1781902800},"SBIL":{"icaoId":"SBIL","flightCategory":"VFR","rawOb":"METAR SBIL 192100Z 19009KT CAVOK 25/18 Q1018","temp":25,"dewp":18,"wdir":190,"wspd":9,"visib":"6+","altim":1018,"clouds":[],"obsTime":1781902800},"SBJU":{"icaoId":"SBJU","flightCategory":"MVFR","rawOb":"METAR SBJU 192100Z 18009KT 9999 BKN020 26/19 Q1016","temp":26,"dewp":19,"wdir":180,"wspd":9,"visib":"6+","altim":1016,"clouds":[{"cover":"BKN","base":2000}],"obsTime":1781902800},"SBKP":{"icaoId":"SBKP","flightCategory":"VFR","rawOb":"METAR SBKP 192100Z 01006KT CAVOK 23/13 Q1019","temp":23,"dewp":13,"wdir":10,"wspd":6,"visib":"6+","altim":1019,"clouds":[],"obsTime":1781902800},"SBLO":{"icaoId":"SBLO","flightCategory":"VFR","rawOb":"METAR SBLO 192100Z 22004KT 9999 FEW045 OVC060 21/16 Q1017","temp":21,"dewp":16,"wdir":220,"wspd":4,"visib":"6+","altim":1017,"clouds":[{"cover":"FEW","base":4500},{"cover":"OVC","base":6000}],"obsTime":1781902800},"SBMA":{"icaoId":"SBMA","flightCategory":"VFR","rawOb":"METAR SBMA 192100Z 07003KT 9999 SCT025 FEW030TCU 32/22 Q1011","temp":32,"dewp":22,"wdir":70,"wspd":3,"visib":"6+","altim":1011,"clouds":[{"cover":"SCT","base":2500},{"cover":"FEW","base":3000}],"obsTime":1781902800},"SBME":{"icaoId":"SBME","flightCategory":"VFR","rawOb":"METAR SBME 192100Z 06012KT CAVOK 22/18 Q1019","temp":22,"dewp":18,"wdir":60,"wspd":12,"visib":"6+","altim":1019,"clouds":[],"obsTime":1781902800},"SBMG":{"icaoId":"SBMG","flightCategory":"VFR","rawOb":"METAR SBMG 192100Z 22003KT 9000 -RA BKN045 OVC070 20/15 Q1016","temp":20,"dewp":15,"wdir":220,"wspd":3,"visib":5.59,"altim":1016,"clouds":[{"cover":"BKN","base":4500},{"cover":"OVC","base":7000}],"obsTime":1781902800},"SBMK":{"icaoId":"SBMK","flightCategory":"VFR","rawOb":"METAR SBMK 192100Z 08007KT CAVOK 21/12 Q1020","temp":21,"dewp":12,"wdir":80,"wspd":7,"visib":"6+","altim":1020,"clouds":[],"obsTime":1781902800},"SBMO":{"icaoId":"SBMO","flightCategory":"MVFR","rawOb":"METAR SBMO 192100Z 14010KT 9999 SCT015 BKN020 24/22 Q1015","temp":24,"dewp":22,"wdir":140,"wspd":10,"visib":"6+","altim":1015,"clouds":[{"cover":"SCT","base":1500},{"cover":"BKN","base":2000}],"obsTime":1781902800},"SBMQ":{"icaoId":"SBMQ","flightCategory":"VFR","rawOb":"METAR SBMQ 192100Z 07004KT 9999 FEW040 FEW050TCU 31/22 Q1011","temp":31,"dewp":22,"wdir":70,"wspd":4,"visib":"6+","altim":1011,"clouds":[{"cover":"FEW","base":4000},{"cover":"FEW","base":5000}],"obsTime":1781902800},"SBNT":{"icaoId":"SBNT","flightCategory":"VFR","rawOb":"METAR SBNT 192100Z 15008KT 9999 FEW021 SCT090 26/22 Q1013","temp":26,"dewp":22,"wdir":150,"wspd":8,"visib":"6+","altim":1013,"clouds":[{"cover":"FEW","base":2100},{"cover":"SCT","base":9000}],"obsTime":1781902800},"SBPJ":{"icaoId":"SBPJ","flightCategory":"VFR","rawOb":"METAR SBPJ 192100Z VRB01KT CAVOK 30/21 Q1013","temp":30,"dewp":21,"wdir":"VRB","wspd":1,"visib":"6+","altim":1013,"clouds":[],"obsTime":1781902800},"SBRB":{"icaoId":"SBRB","flightCategory":"VFR","rawOb":"METAR SBRB 192100Z 35004KT 9999 SCT036 31/21 Q1013","temp":31,"dewp":21,"wdir":350,"wspd":4,"visib":"6+","altim":1013,"clouds":[{"cover":"SCT","base":3600}],"obsTime":1781902800},"SBRF":{"icaoId":"SBRF","flightCategory":"MVFR","rawOb":"METAR SBRF 192100Z 19008KT 9999 SCT010 BKN017 BKN050 25/23 Q1014 RERA","temp":25,"dewp":23,"wdir":190,"wspd":8,"visib":"6+","altim":1014,"clouds":[{"cover":"SCT","base":1000},{"cover":"BKN","base":1700},{"cover":"BKN","base":5000}],"obsTime":1781902800},"SBSG":{"icaoId":"SBSG","flightCategory":"VFR","rawOb":"METAR SBSG 192100Z 13006KT 090V180 9999 FEW025 26/23 Q1013","temp":26,"dewp":23,"wdir":130,"wspd":6,"visib":"6+","altim":1013,"clouds":[{"cover":"FEW","base":2500}],"obsTime":1781902800},"SBSL":{"icaoId":"SBSL","flightCategory":"VFR","rawOb":"METAR SBSL 192100Z 06007KT 9999 SCT020 BKN070 28/23 Q1012","temp":28,"dewp":23,"wdir":60,"wspd":7,"visib":"6+","altim":1012,"clouds":[{"cover":"SCT","base":2000},{"cover":"BKN","base":7000}],"obsTime":1781902800},"SBSN":{"icaoId":"SBSN","flightCategory":"VFR","rawOb":"METAR SBSN 192100Z 07006KT 9999 FEW020 31/24 Q1011","temp":31,"dewp":24,"wdir":70,"wspd":6,"visib":"6+","altim":1011,"clouds":[{"cover":"FEW","base":2000}],"obsTime":1781902800},"SBSP":{"icaoId":"SBSP","flightCategory":"VFR","rawOb":"METAR SBSP 192100Z 35006KT CAVOK 21/11 Q1020","temp":21,"dewp":11,"wdir":350,"wspd":6,"visib":"6+","altim":1020,"clouds":[],"obsTime":1781902800},"SBSV":{"icaoId":"SBSV","flightCategory":"VFR","rawOb":"METAR SBSV 192100Z 14012KT 120V180 9999 SCT023 BKN040 25/19 Q1017","temp":25,"dewp":19,"wdir":140,"wspd":12,"visib":"6+","altim":1017,"clouds":[{"cover":"SCT","base":2300},{"cover":"BKN","base":4000}],"obsTime":1781902800},"SBTE":{"icaoId":"SBTE","flightCategory":"VFR","rawOb":"METAR SBTE 192100Z 24005KT 9999 FEW025 31/20 Q1011","temp":31,"dewp":20,"wdir":240,"wspd":5,"visib":"6+","altim":1011,"clouds":[{"cover":"FEW","base":2500}],"obsTime":1781902800},"SBUL":{"icaoId":"SBUL","flightCategory":"VFR","rawOb":"METAR SBUL 192100Z 08005KT CAVOK 23/14 Q1021","temp":23,"dewp":14,"wdir":80,"wspd":5,"visib":"6+","altim":1021,"clouds":[],"obsTime":1781902800},"SBUR":{"icaoId":"SBUR","flightCategory":"VFR","rawOb":"METAR SBUR 192100Z 29003KT CAVOK 25/13 Q1019","temp":25,"dewp":13,"wdir":290,"wspd":3,"visib":"6+","altim":1019,"clouds":[],"obsTime":1781902800},"SBVT":{"icaoId":"SBVT","flightCategory":"VFR","rawOb":"METAR SBVT 192100Z 12004KT CAVOK 21/18 Q1020","temp":21,"dewp":18,"wdir":120,"wspd":4,"visib":"6+","altim":1020,"clouds":[],"obsTime":1781902800},"SBCR":{"icaoId":"SBCR","flightCategory":"MVFR","rawOb":"METAR SBCR 192100Z 23012KT 200V260 9999 BKN020 BKN070 19/14 Q1018","temp":19,"dewp":14,"wdir":230,"wspd":12,"visib":"6+","altim":1018,"clouds":[{"cover":"BKN","base":2000},{"cover":"BKN","base":7000}],"obsTime":1781902800},"SBAT":{"icaoId":"SBAT","flightCategory":"VFR","rawOb":"METAR SBAT 192100Z 01001KT 9999 SCT035 31/22 Q1013","temp":31,"dewp":22,"wdir":10,"wspd":1,"visib":"6+","altim":1013,"clouds":[{"cover":"SCT","base":3500}],"obsTime":1781902800},"SBHT":{"icaoId":"SBHT","flightCategory":"VFR","rawOb":"METAR SBHT 192100Z 00000KT 9999 FEW025 30/26 Q1011","temp":30,"dewp":26,"wdir":0,"wspd":0,"visib":"6+","altim":1011,"clouds":[{"cover":"FEW","base":2500}],"obsTime":1781902800},"SBAR":{"icaoId":"SBAR","flightCategory":"VFR","rawOb":"METAR SBAR 192100Z 17007KT 9999 FEW035 26/19 Q1016","temp":26,"dewp":19,"wdir":170,"wspd":7,"visib":"6+","altim":1016,"clouds":[{"cover":"FEW","base":3500}],"obsTime":1781902800},"SBAX":{"icaoId":"SBAX","flightCategory":"VFR","rawOb":"METAR SBAX 192100Z 01003KT CAVOK 22/12 Q1021","temp":22,"dewp":12,"wdir":10,"wspd":3,"visib":"6+","altim":1021,"clouds":[],"obsTime":1781902800},"SBBH":{"icaoId":"SBBH","flightCategory":"VFR","rawOb":"METAR SBBH 192100Z 10005KT CAVOK 19/11 Q1021","temp":19,"dewp":11,"wdir":100,"wspd":5,"visib":"6+","altim":1021,"clouds":[],"obsTime":1781902800},"SBBU":{"icaoId":"SBBU","flightCategory":"VFR","rawOb":"METAR SBBU 192100Z 00000KT CAVOK 26/16 Q1017","temp":26,"dewp":16,"wdir":0,"wspd":0,"visib":"6+","altim":1017,"clouds":[],"obsTime":1781902800},"SBCA":{"icaoId":"SBCA","flightCategory":"IFR","rawOb":"METAR SBCA 192100Z 12014KT 4000 -RA BR SCT003 BKN030 OVC080 11/11 Q1019","temp":11,"dewp":11,"wdir":120,"wspd":14,"visib":2.49,"altim":1019,"clouds":[{"cover":"SCT","base":300},{"cover":"BKN","base":3000},{"cover":"OVC","base":8000}],"obsTime":1781902800},"SBCO":{"icaoId":"SBCO","flightCategory":"MVFR","rawOb":"METAR SBCO 192100Z 27003KT 240V300 9999 BKN025 15/13 Q1015","temp":15,"dewp":13,"wdir":270,"wspd":3,"visib":"6+","altim":1015,"clouds":[{"cover":"BKN","base":2500}],"obsTime":1781902800},"SBDN":{"icaoId":"SBDN","flightCategory":"VFR","rawOb":"METAR SBDN 192100Z 22003KT CAVOK 25/17 Q1016","temp":25,"dewp":17,"wdir":220,"wspd":3,"visib":"6+","altim":1016,"clouds":[],"obsTime":1781902800},"SBIP":{"icaoId":"SBIP","flightCategory":"VFR","rawOb":"METAR SBIP 192100Z AUTO 00000KT CAVOK 17/14 Q1020","temp":17,"dewp":14,"wdir":0,"wspd":0,"visib":"6+","altim":1020,"clouds":[],"obsTime":1781902800},"SBKG":{"icaoId":"SBKG","flightCategory":"MVFR","rawOb":"METAR SBKG 192100Z 16008KT 9999 BKN015 SCT020 22/21 Q1017","temp":22,"dewp":21,"wdir":160,"wspd":8,"visib":"6+","altim":1017,"clouds":[{"cover":"BKN","base":1500},{"cover":"SCT","base":2000}],"obsTime":1781902800},"SBOI":{"icaoId":"SBOI","flightCategory":"VFR","rawOb":"METAR SBOI 192100Z AUTO VRB02KT CAVOK 24/22 Q1012","temp":24,"dewp":22,"wdir":"VRB","wspd":2,"visib":"6+","altim":1012,"clouds":[],"obsTime":1781902800},"SBPL":{"icaoId":"SBPL","flightCategory":"VFR","rawOb":"METAR SBPL 192100Z 14008KT 9999 FEW025 26/18 Q1016","temp":26,"dewp":18,"wdir":140,"wspd":8,"visib":"6+","altim":1016,"clouds":[{"cover":"FEW","base":2500}],"obsTime":1781902800},"SBPS":{"icaoId":"SBPS","flightCategory":"VFR","rawOb":"METAR SBPS 192100Z VRB02KT 9999 SCT030 22/17 Q1019","temp":22,"dewp":17,"wdir":"VRB","wspd":2,"visib":"6+","altim":1019,"clouds":[{"cover":"SCT","base":3000}],"obsTime":1781902800},"SBSC":{"icaoId":"SBSC","flightCategory":"VFR","rawOb":"METAR SBSC 192100Z 02005KT CAVOK 23/15 Q1017","temp":23,"dewp":15,"wdir":20,"wspd":5,"visib":"6+","altim":1017,"clouds":[],"obsTime":1781902800},"SBSJ":{"icaoId":"SBSJ","flightCategory":"VFR","rawOb":"METAR SBSJ 192100Z 07003KT CAVOK 20/12 Q1020","temp":20,"dewp":12,"wdir":70,"wspd":3,"visib":"6+","altim":1020,"clouds":[],"obsTime":1781902800},"SBSM":{"icaoId":"SBSM","flightCategory":"LIFR","rawOb":"METAR SBSM 192100Z 24006KT 1600 R29///// R11/P2000 -RA BR BKN006 OVC012 11/11 Q1018","temp":11,"dewp":11,"wdir":240,"wspd":6,"visib":0.99,"altim":1018,"clouds":[{"cover":"BKN","base":600},{"cover":"OVC","base":1200}],"obsTime":1781902800},"SBSR":{"icaoId":"SBSR","flightCategory":"VFR","rawOb":"METAR SBSR 192100Z 05002KT CAVOK 27/13 Q1017","temp":27,"dewp":13,"wdir":50,"wspd":2,"visib":"6+","altim":1017,"clouds":[],"obsTime":1781902800},"SBTF":{"icaoId":"SBTF","flightCategory":"VFR","rawOb":"METAR SBTF 192100Z 11004KT 9999 FEW020 32/24 Q1011","temp":32,"dewp":24,"wdir":110,"wspd":4,"visib":"6+","altim":1011,"clouds":[{"cover":"FEW","base":2000}],"obsTime":1781902800},"SBTT":{"icaoId":"SBTT","flightCategory":"VFR","rawOb":"METAR SBTT 192100Z 09003KT 9999 SCT022 FEW025TCU 27/23 Q1012","temp":27,"dewp":23,"wdir":90,"wspd":3,"visib":"6+","altim":1012,"clouds":[{"cover":"SCT","base":2200},{"cover":"FEW","base":2500}],"obsTime":1781902800},"SBUY":{"icaoId":"SBUY","flightCategory":"VFR","rawOb":"METAR SBUY 192100Z 08002KT 9999 FEW025 31/22 Q1010","temp":31,"dewp":22,"wdir":80,"wspd":2,"visib":"6+","altim":1010,"clouds":[{"cover":"FEW","base":2500}],"obsTime":1781902800},"SBVH":{"icaoId":"SBVH","flightCategory":"VFR","rawOb":"METAR SBVH 192100Z 25005KT 9999 FEW011 27/21 Q1017","temp":27,"dewp":21,"wdir":250,"wspd":5,"visib":"6+","altim":1017,"clouds":[{"cover":"FEW","base":1100}],"obsTime":1781902800},"SBPB":{"icaoId":"SBPB","flightCategory":"VFR","rawOb":"METAR SBPB 192100Z 06004KT 9999 FEW020 29/25 Q1012","temp":29,"dewp":25,"wdir":60,"wspd":4,"visib":"6+","altim":1012,"clouds":[{"cover":"FEW","base":2000}],"obsTime":1781902800},"SBCJ":{"icaoId":"SBCJ","flightCategory":"VFR","rawOb":"METAR SBCJ 192100Z 00000KT 9999 FEW020 25/21 Q1017","temp":25,"dewp":21,"wdir":0,"wspd":0,"visib":"6+","altim":1017,"clouds":[{"cover":"FEW","base":2000}],"obsTime":1781902800},"SBPP":{"icaoId":"SBPP","flightCategory":"LIFR","rawOb":"METAR SBPP 192100Z 18015KT 0200 FG VV000 14/14 Q1018","temp":14,"dewp":14,"wdir":180,"wspd":15,"visib":0.12,"altim":1018,"clouds":[{"cover":"OVX","base":0}],"obsTime":1781902800},"SBES":{"icaoId":"SBES","flightCategory":"VFR","rawOb":"METAR SBES 192100Z 07008KT CAVOK 20/// Q1019","temp":null,"dewp":null,"wdir":70,"wspd":8,"visib":"6+","altim":1019,"clouds":[],"obsTime":1781902800},"SBNM":{"icaoId":"SBNM","flightCategory":"LIFR","rawOb":"METAR SBNM 192100Z AUTO 24008KT 9000 -RA BKN002 OVC005 12/12 Q1017","temp":12,"dewp":12,"wdir":240,"wspd":8,"visib":5.59,"altim":1017,"clouds":[{"cover":"BKN","base":200},{"cover":"OVC","base":500}],"obsTime":1781902800},"SBJP":{"icaoId":"SBJP","flightCategory":"MVFR","rawOb":"METAR SBJP 192100Z 13008KT 9999 BKN015 25/23 Q1014","temp":25,"dewp":23,"wdir":130,"wspd":8,"visib":"6+","altim":1014,"clouds":[{"cover":"BKN","base":1500}],"obsTime":1781902800},"SBPF":{"icaoId":"SBPF","flightCategory":"IFR","rawOb":"METAR SBPF 192100Z 35007KT 9999 BKN006 11/10 Q1018","temp":11,"dewp":10,"wdir":350,"wspd":7,"visib":"6+","altim":1018,"clouds":[{"cover":"BKN","base":600}],"obsTime":1781902800},"SBLE":{"icaoId":"SBLE","flightCategory":"VFR","rawOb":"METAR SBLE 192100Z AUTO VRB02KT CAVOK 19/19 Q1019","temp":19,"dewp":19,"wdir":"VRB","wspd":2,"visib":"6+","altim":1019,"clouds":[],"obsTime":1781902800},"SBAF":{"icaoId":"SBAF","flightCategory":"VFR","rawOb":"METAR SBAF 192100Z 25003KT CAVOK 18/17 Q1018","temp":18,"dewp":17,"wdir":250,"wspd":3,"visib":"6+","altim":1018,"clouds":[],"obsTime":1781902800},"SBGW":{"icaoId":"SBGW","flightCategory":"VFR","rawOb":"METAR SBGW 192100Z 03003KT CAVOK 19/09 Q1020","temp":19,"dewp":9,"wdir":30,"wspd":3,"visib":"6+","altim":1020,"clouds":[],"obsTime":1781902800},"SBJR":{"icaoId":"SBJR","flightCategory":"VFR","rawOb":"METAR SBJR 192100Z 10004KT CAVOK 22/17 Q1017","temp":22,"dewp":17,"wdir":100,"wspd":4,"visib":"6+","altim":1017,"clouds":[],"obsTime":1781902800},"SBLS":{"icaoId":"SBLS","flightCategory":"VFR","rawOb":"METAR SBLS 192100Z 15006KT CAVOK 19/11 Q1021","temp":19,"dewp":11,"wdir":150,"wspd":6,"visib":"6+","altim":1021,"clouds":[],"obsTime":1781902800},"SBMT":{"icaoId":"SBMT","flightCategory":"VFR","rawOb":"METAR SBMT 192100Z 00000KT CAVOK 15/11 Q1019","temp":15,"dewp":11,"wdir":0,"wspd":0,"visib":"6+","altim":1019,"clouds":[],"obsTime":1781902800},"SBTA":{"icaoId":"SBTA","flightCategory":"VFR","rawOb":"METAR SBTA 192100Z VRB01KT CAVOK 19/12 Q1019","temp":19,"dewp":12,"wdir":"VRB","wspd":1,"visib":"6+","altim":1019,"clouds":[],"obsTime":1781902800},"SBAN":{"icaoId":"SBAN","flightCategory":"VFR","rawOb":"METAR SBAN 192100Z 16004KT 9999 FEW030 23/14 Q1021","temp":23,"dewp":14,"wdir":160,"wspd":4,"visib":"6+","altim":1021,"clouds":[{"cover":"FEW","base":3000}],"obsTime":1781902800},"SBJV":{"icaoId":"SBJV","flightCategory":"VFR","rawOb":"METAR SBJV 192100Z 10001KT 9999 FEW010 SCT040 16/15 Q1017","temp":16,"dewp":15,"wdir":100,"wspd":1,"visib":"6+","altim":1017,"clouds":[{"cover":"FEW","base":1000},{"cover":"SCT","base":4000}],"obsTime":1781902800},"SBIH":{"icaoId":"SBIH","flightCategory":"VFR","rawOb":"METAR SBIH 192100Z 05002KT 9999 SCT020 33/24 Q1011","temp":33,"dewp":24,"wdir":50,"wspd":2,"visib":"6+","altim":1011,"clouds":[{"cover":"SCT","base":2000}],"obsTime":1781902800},"SBST":{"icaoId":"SBST","flightCategory":"VFR","rawOb":"METAR SBST 192100Z 15001KT CAVOK 18/15 Q1016","temp":18,"dewp":15,"wdir":150,"wspd":1,"visib":"6+","altim":1016,"clouds":[],"obsTime":1781902800}}}