{"updated":1773960733,"count":81,"data":{"SBEG":{"icaoId":"SBEG","flightCategory":"VFR","rawOb":"METAR SBEG 192100Z 24003KT 200V280 9999 SCT011 FEW030TCU BKN100 25/23 Q1009","temp":25,"dewp":23,"wdir":240,"wspd":3,"visib":"6+","altim":1009,"clouds":[{"cover":"SCT","base":1100},{"cover":"FEW","base":3000},{"cover":"BKN","base":10000}],"obsTime":1773954000},"SBAT":{"icaoId":"SBAT","flightCategory":"VFR","rawOb":"METAR SBAT 192100Z 06005KT 9999 SCT030 FEW035TCU 28/24 Q1007","temp":28,"dewp":24,"wdir":60,"wspd":5,"visib":"6+","altim":1007,"clouds":[{"cover":"SCT","base":3000},{"cover":"FEW","base":3500}],"obsTime":1773954000},"SBBE":{"icaoId":"SBBE","flightCategory":"MVFR","rawOb":"METAR SBBE 192100Z 08006KT 9999 BKN012 BKN070 25/23 Q1007","temp":25,"dewp":23,"wdir":80,"wspd":6,"visib":"6+","altim":1007,"clouds":[{"cover":"BKN","base":1200},{"cover":"BKN","base":7000}],"obsTime":1773954000},"SBBR":{"icaoId":"SBBR","flightCategory":"VFR","rawOb":"METAR SBBR 192100Z 02008KT 9999 SCT040 FEW045TCU BKN090 25/18 Q1012","temp":25,"dewp":18,"wdir":20,"wspd":8,"visib":"6+","altim":1012,"clouds":[{"cover":"SCT","base":4000},{"cover":"FEW","base":4500},{"cover":"BKN","base":9000}],"obsTime":1773954000},"SBBV":{"icaoId":"SBBV","flightCategory":"VFR","rawOb":"METAR SBBV 192100Z 14003KT 9999 -SHRA SCT030 FEW035TCU BKN070 27/24 Q1008","temp":27,"dewp":24,"wdir":140,"wspd":3,"visib":"6+","altim":1008,"clouds":[{"cover":"SCT","base":3000},{"cover":"FEW","base":3500},{"cover":"BKN","base":7000}],"obsTime":1773954000},"SBCF":{"icaoId":"SBCF","flightCategory":"VFR","rawOb":"METAR SBCF 192100Z 36003KT 9999 SCT040 BKN100 23/22 Q1012","temp":23,"dewp":22,"wdir":360,"wspd":3,"visib":"6+","altim":1012,"clouds":[{"cover":"SCT","base":4000},{"cover":"BKN","base":10000}],"obsTime":1773954000},"SBCG":{"icaoId":"SBCG","flightCategory":"VFR","rawOb":"METAR SBCG 192100Z 30007G17KT 270V010 9999 FEW030 28/21 Q1008","temp":28,"dewp":21,"wdir":300,"wspd":7,"visib":"6+","altim":1008,"clouds":[{"cover":"FEW","base":3000}],"obsTime":1773954000},"SBCP":{"icaoId":"SBCP","flightCategory":"VFR","rawOb":"METAR SBCP 192100Z 15004KT 9999 TS BKN035 FEW040CB OVC100 25/24 Q1007","temp":25,"dewp":24,"wdir":150,"wspd":4,"visib":"6+","altim":1007,"clouds":[{"cover":"BKN","base":3500},{"cover":"FEW","base":4000},{"cover":"OVC","base":10000}],"obsTime":1773954000},"SBCT":{"icaoId":"SBCT","flightCategory":"VFR","rawOb":"METAR SBCT 192100Z 10006KT 9999 SCT013 22/20 Q1011","temp":22,"dewp":20,"wdir":100,"wspd":6,"visib":"6+","altim":1011,"clouds":[{"cover":"SCT","base":1300}],"obsTime":1773954000},"SBCZ":{"icaoId":"SBCZ","flightCategory":"VFR","rawOb":"METAR SBCZ 192100Z 33007KT 9999 FEW030 FEW030TCU BKN100 29/24 Q1006","temp":29,"dewp":24,"wdir":330,"wspd":7,"visib":"6+","altim":1006,"clouds":[{"cover":"FEW","base":3000},{"cover":"FEW","base":3000},{"cover":"BKN","base":10000}],"obsTime":1773954000},"SBFI":{"icaoId":"SBFI","flightCategory":"VFR","rawOb":"METAR SBFI 192100Z 22005KT 9999 FEW030 FEW040TCU 33/23 Q1005","temp":33,"dewp":23,"wdir":220,"wspd":5,"visib":"6+","altim":1005,"clouds":[{"cover":"FEW","base":3000},{"cover":"FEW","base":4000}],"obsTime":1773954000},"SBFL":{"icaoId":"SBFL","flightCategory":"VFR","rawOb":"METAR SBFL 192100Z 09007KT 9999 SCT020 BKN040 26/24 Q1007","temp":26,"dewp":24,"wdir":90,"wspd":7,"visib":"6+","altim":1007,"clouds":[{"cover":"SCT","base":2000},{"cover":"BKN","base":4000}],"obsTime":1773954000},"SBFZ":{"icaoId":"SBFZ","flightCategory":"VFR","rawOb":"METAR SBFZ 192100Z 10008KT 9999 FEW020 28/24 Q1007","temp":28,"dewp":24,"wdir":100,"wspd":8,"visib":"6+","altim":1007,"clouds":[{"cover":"FEW","base":2000}],"obsTime":1773954000},"SBGL":{"icaoId":"SBGL","flightCategory":"MVFR","rawOb":"METAR SBGL 192100Z 15006KT 9999 BKN030 BKN100 25/23 Q1007","temp":25,"dewp":23,"wdir":150,"wspd":6,"visib":"6+","altim":1007,"clouds":[{"cover":"BKN","base":3000},{"cover":"BKN","base":10000}],"obsTime":1773954000},"SBGO":{"icaoId":"SBGO","flightCategory":"VFR","rawOb":"METAR SBGO 192100Z COR 04008G18KT 9999 VCSH SCT035 FEW050TCU SCT080 23/22 Q1010 RERA","temp":23,"dewp":22,"wdir":40,"wspd":8,"visib":"6+","altim":1010,"clouds":[{"cover":"SCT","base":3500},{"cover":"FEW","base":5000},{"cover":"SCT","base":8000}],"obsTime":1773954000},"SBGR":{"icaoId":"SBGR","flightCategory":"IFR","rawOb":"METAR SBGR 192100Z 07005KT 4000 RA BKN011 OVC050 21/20 Q1011","temp":21,"dewp":20,"wdir":70,"wspd":5,"visib":2.49,"altim":1011,"clouds":[{"cover":"BKN","base":1100},{"cover":"OVC","base":5000}],"obsTime":1773954000},"SBIL":{"icaoId":"SBIL","flightCategory":"VFR","rawOb":"METAR SBIL 192100Z 08008KT CAVOK 29/24 Q1007","temp":29,"dewp":24,"wdir":80,"wspd":8,"visib":"6+","altim":1007,"clouds":[],"obsTime":1773954000},"SBJU":{"icaoId":"SBJU","flightCategory":"MVFR","rawOb":"METAR SBJU 192100Z 00000KT 9999 BKN022 27/23 Q1010","temp":27,"dewp":23,"wdir":0,"wspd":0,"visib":"6+","altim":1010,"clouds":[{"cover":"BKN","base":2200}],"obsTime":1773954000},"SBKP":{"icaoId":"SBKP","flightCategory":"MVFR","rawOb":"METAR SBKP 192100Z 13012KT 9999 VCSH BKN015 FEW040TCU BKN080 23/20 Q1010","temp":23,"dewp":20,"wdir":130,"wspd":12,"visib":"6+","altim":1010,"clouds":[{"cover":"BKN","base":1500},{"cover":"FEW","base":4000},{"cover":"BKN","base":8000}],"obsTime":1773954000},"SBLO":{"icaoId":"SBLO","flightCategory":"VFR","rawOb":"METAR SBLO 192100Z 19004KT 150V230 9999 FEW045TCU 28/22 Q1007","temp":28,"dewp":22,"wdir":190,"wspd":4,"visib":"6+","altim":1007,"clouds":[{"cover":"FEW","base":4500}],"obsTime":1773954000},"SBMA":{"icaoId":"SBMA","flightCategory":"VFR","rawOb":"METAR SBMA 192100Z 20005KT 9999 FEW027TCU 30/22 Q1006","temp":30,"dewp":22,"wdir":200,"wspd":5,"visib":"6+","altim":1006,"clouds":[{"cover":"FEW","base":2700}],"obsTime":1773954000},"SBME":{"icaoId":"SBME","flightCategory":"MVFR","rawOb":"METAR SBME 192100Z 12006KT 9999 BKN010 BKN027 OVC100 28/25 Q1007","temp":28,"dewp":25,"wdir":120,"wspd":6,"visib":"6+","altim":1007,"clouds":[{"cover":"BKN","base":1000},{"cover":"BKN","base":2700},{"cover":"OVC","base":10000}],"obsTime":1773954000},"SBMG":{"icaoId":"SBMG","flightCategory":"VFR","rawOb":"METAR SBMG 192100Z 11014KT 9999 -TSRA FEW033 FEW050CB BKN070 24/21 Q1006","temp":24,"dewp":21,"wdir":110,"wspd":14,"visib":"6+","altim":1006,"clouds":[{"cover":"FEW","base":3300},{"cover":"FEW","base":5000},{"cover":"BKN","base":7000}],"obsTime":1773954000},"SBMK":{"icaoId":"SBMK","flightCategory":"VFR","rawOb":"METAR SBMK 192100Z 24002KT 9999 SCT045 FEW046TCU BKN070 25/21 Q1009","temp":25,"dewp":21,"wdir":240,"wspd":2,"visib":"6+","altim":1009,"clouds":[{"cover":"SCT","base":4500},{"cover":"FEW","base":4600},{"cover":"BKN","base":7000}],"obsTime":1773954000},"SBMO":{"icaoId":"SBMO","flightCategory":"VFR","rawOb":"METAR SBMO 192100Z 08009KT 9999 FEW025 27/24 Q1008","temp":27,"dewp":24,"wdir":80,"wspd":9,"visib":"6+","altim":1008,"clouds":[{"cover":"FEW","base":2500}],"obsTime":1773954000},"SBMQ":{"icaoId":"SBMQ","flightCategory":"VFR","rawOb":"METAR SBMQ 192100Z 08005KT 9999 FEW020 28/24 Q1007","temp":28,"dewp":24,"wdir":80,"wspd":5,"visib":"6+","altim":1007,"clouds":[{"cover":"FEW","base":2000}],"obsTime":1773954000},"SBNT":{"icaoId":"SBNT","flightCategory":"VFR","rawOb":"METAR SBNT 192100Z 11009KT CAVOK 28/23 Q1008","temp":28,"dewp":23,"wdir":110,"wspd":9,"visib":"6+","altim":1008,"clouds":[],"obsTime":1773954000},"SBPA":{"icaoId":"SBPA","flightCategory":"VFR","rawOb":"METAR SBPA 192100Z 13010KT 9999 FEW020 26/19 Q1008","temp":26,"dewp":19,"wdir":130,"wspd":10,"visib":"6+","altim":1008,"clouds":[{"cover":"FEW","base":2000}],"obsTime":1773954000},"SBPJ":{"icaoId":"SBPJ","flightCategory":"VFR","rawOb":"METAR SBPJ 192100Z 36003KT 9999 FEW025 30/25 Q1006","temp":30,"dewp":25,"wdir":360,"wspd":3,"visib":"6+","altim":1006,"clouds":[{"cover":"FEW","base":2500}],"obsTime":1773954000},"SBPV":{"icaoId":"SBPV","flightCategory":"VFR","rawOb":"METAR SBPV 192100Z 34002KT 9999 SCT030 FEW035TCU BKN100 30/24 Q1006","temp":30,"dewp":24,"wdir":340,"wspd":2,"visib":"6+","altim":1006,"clouds":[{"cover":"SCT","base":3000},{"cover":"FEW","base":3500},{"cover":"BKN","base":10000}],"obsTime":1773954000},"SBRB":{"icaoId":"SBRB","flightCategory":"VFR","rawOb":"METAR SBRB 192100Z 34004KT 9999 FEW030 FEW035TCU SCT100 30/25 Q1006","temp":30,"dewp":25,"wdir":340,"wspd":4,"visib":"6+","altim":1006,"clouds":[{"cover":"FEW","base":3000},{"cover":"FEW","base":3500},{"cover":"SCT","base":10000}],"obsTime":1773954000},"SBRF":{"icaoId":"SBRF","flightCategory":"VFR","rawOb":"METAR SBRF 192100Z 12009KT 9999 FEW023 29/23 Q1008","temp":29,"dewp":23,"wdir":120,"wspd":9,"visib":"6+","altim":1008,"clouds":[{"cover":"FEW","base":2300}],"obsTime":1773954000},"SBSG":{"icaoId":"SBSG","flightCategory":"VFR","rawOb":"METAR SBSG 192100Z 12006KT 9999 FEW024 FEW027TCU 27/23 Q1009","temp":27,"dewp":23,"wdir":120,"wspd":6,"visib":"6+","altim":1009,"clouds":[{"cover":"FEW","base":2400},{"cover":"FEW","base":2700}],"obsTime":1773954000},"SBSL":{"icaoId":"SBSL","flightCategory":"VFR","rawOb":"METAR SBSL 192100Z 06008KT 9999 FEW020 BKN070 27/25 Q1007","temp":27,"dewp":25,"wdir":60,"wspd":8,"visib":"6+","altim":1007,"clouds":[{"cover":"FEW","base":2000},{"cover":"BKN","base":7000}],"obsTime":1773954000},"SBSN":{"icaoId":"SBSN","flightCategory":"VFR","rawOb":"METAR SBSN 192100Z 22002KT 9999 SCT020 BKN100 27/25 Q1007","temp":27,"dewp":25,"wdir":220,"wspd":2,"visib":"6+","altim":1007,"clouds":[{"cover":"SCT","base":2000},{"cover":"BKN","base":10000}],"obsTime":1773954000},"SBSP":{"icaoId":"SBSP","flightCategory":"MVFR","rawOb":"METAR SBSP 192100Z 11004KT 9000 FEW009 BKN023 OVC100 21/20 Q1012","temp":21,"dewp":20,"wdir":110,"wspd":4,"visib":5.59,"altim":1012,"clouds":[{"cover":"FEW","base":900},{"cover":"BKN","base":2300},{"cover":"OVC","base":10000}],"obsTime":1773954000},"SBSV":{"icaoId":"SBSV","flightCategory":"VFR","rawOb":"METAR SBSV 192100Z 09009KT CAVOK 28/21 Q1007","temp":28,"dewp":21,"wdir":90,"wspd":9,"visib":"6+","altim":1007,"clouds":[],"obsTime":1773954000},"SBTE":{"icaoId":"SBTE","flightCategory":"VFR","rawOb":"METAR SBTE 192100Z 18008KT 9999 -RA FEW025TCU BKN100 28/25 Q1007","temp":28,"dewp":25,"wdir":180,"wspd":8,"visib":"6+","altim":1007,"clouds":[{"cover":"FEW","base":2500},{"cover":"BKN","base":10000}],"obsTime":1773954000},"SBUL":{"icaoId":"SBUL","flightCategory":"VFR","rawOb":"METAR SBUL 192100Z 35005KT 9999 SCT045 FEW050TCU SCT100 24/19 Q1011","temp":24,"dewp":19,"wdir":350,"wspd":5,"visib":"6+","altim":1011,"clouds":[{"cover":"SCT","base":4500},{"cover":"FEW","base":5000},{"cover":"SCT","base":10000}],"obsTime":1773954000},"SBUR":{"icaoId":"SBUR","flightCategory":"VFR","rawOb":" SBUR 192100Z 35005KT 9999 TS VCSH SCT038 FEW040CB 25/21 Q1009","temp":25,"dewp":21,"wdir":350,"wspd":5,"visib":"6+","altim":1009,"clouds":[{"cover":"SCT","base":3800},{"cover":"FEW","base":4000}],"obsTime":1773954000},"SBVT":{"icaoId":"SBVT","flightCategory":"MVFR","rawOb":"METAR SBVT 192100Z 00000KT 9999 -RA FEW005 BKN025 24/24 Q1007 RETS","temp":24,"dewp":24,"wdir":0,"wspd":0,"visib":"6+","altim":1007,"clouds":[{"cover":"FEW","base":500},{"cover":"BKN","base":2500}],"obsTime":1773954000},"SBCB":{"icaoId":"SBCB","flightCategory":"VFR","rawOb":"METAR SBCB 192100Z COR 10007KT 9000 FEW007 SCT012 BKN050 26/23 Q1008","temp":26,"dewp":23,"wdir":100,"wspd":7,"visib":5.59,"altim":1008,"clouds":[{"cover":"FEW","base":700},{"cover":"SCT","base":1200},{"cover":"BKN","base":5000}],"obsTime":1773954000},"SBCR":{"icaoId":"SBCR","flightCategory":"VFR","rawOb":"METAR SBCR 192100Z 06007KT 9999 SCT035 FEW040TCU 32/23 Q1003","temp":32,"dewp":23,"wdir":60,"wspd":7,"visib":"6+","altim":1003,"clouds":[{"cover":"SCT","base":3500},{"cover":"FEW","base":4000}],"obsTime":1773954000},"SBHT":{"icaoId":"SBHT","flightCategory":"MVFR","rawOb":"METAR SBHT 192100Z 00000KT 9999 BKN025 29/25 Q1006","temp":29,"dewp":25,"wdir":0,"wspd":0,"visib":"6+","altim":1006,"clouds":[{"cover":"BKN","base":2500}],"obsTime":1773954000},"SBTF":{"icaoId":"SBTF","flightCategory":"VFR","rawOb":"METAR SBTF 192100Z 01003KT 9999 SCT010 BKN080 27/25 Q1008","temp":27,"dewp":25,"wdir":10,"wspd":3,"visib":"6+","altim":1008,"clouds":[{"cover":"SCT","base":1000},{"cover":"BKN","base":8000}],"obsTime":1773954000},"SBAR":{"icaoId":"SBAR","flightCategory":"VFR","rawOb":"METAR SBAR 192100Z 08011KT 9999 FEW020 29/23 Q1007","temp":29,"dewp":23,"wdir":80,"wspd":11,"visib":"6+","altim":1007,"clouds":[{"cover":"FEW","base":2000}],"obsTime":1773954000},"SBAX":{"icaoId":"SBAX","flightCategory":"IFR","rawOb":"METAR SBAX 192100Z 26013KT 210V320 3000 +TSRA BR BKN006 BKN011 FEW020CB OVC025 23/23 Q1012","temp":23,"dewp":23,"wdir":260,"wspd":13,"visib":1.86,"altim":1012,"clouds":[{"cover":"BKN","base":600},{"cover":"BKN","base":1100},{"cover":"FEW","base":2000},{"cover":"OVC","base":2500}],"obsTime":1773954000},"SBVH":{"icaoId":"SBVH","flightCategory":"VFR","rawOb":"METAR SBVH 192100Z 31007KT 9999 SCT006 SCT013 BKN070 24/22 Q1008","temp":24,"dewp":22,"wdir":310,"wspd":7,"visib":"6+","altim":1008,"clouds":[{"cover":"SCT","base":600},{"cover":"SCT","base":1300},{"cover":"BKN","base":7000}],"obsTime":1773954000},"SBBH":{"icaoId":"SBBH","flightCategory":"VFR","rawOb":"METAR SBBH 192100Z 10002KT 9999 SCT040 FEW045TCU BKN100 23/21 Q1011","temp":23,"dewp":21,"wdir":100,"wspd":2,"visib":"6+","altim":1011,"clouds":[{"cover":"SCT","base":4000},{"cover":"FEW","base":4500},{"cover":"BKN","base":10000}],"obsTime":1773954000},"SBBU":{"icaoId":"SBBU","flightCategory":"VFR","rawOb":"METAR SBBU 192100Z 04004KT 9999 FEW009 SCT030 24/22 Q1008 RETS","temp":24,"dewp":22,"wdir":40,"wspd":4,"visib":"6+","altim":1008,"clouds":[{"cover":"FEW","base":900},{"cover":"SCT","base":3000}],"obsTime":1773954000},"SBCA":{"icaoId":"SBCA","flightCategory":"VFR","rawOb":"METAR SBCA 192100Z 29010KT 9999 FEW025 25/18 Q1009","temp":25,"dewp":18,"wdir":290,"wspd":10,"visib":"6+","altim":1009,"clouds":[{"cover":"FEW","base":2500}],"obsTime":1773954000},"SBCO":{"icaoId":"SBCO","flightCategory":"VFR","rawOb":"METAR SBCO 192100Z 13007KT 9999 FEW020 SCT050 26/20 Q1009","temp":26,"dewp":20,"wdir":130,"wspd":7,"visib":"6+","altim":1009,"clouds":[{"cover":"FEW","base":2000},{"cover":"SCT","base":5000}],"obsTime":1773954000},"SBDN":{"icaoId":"SBDN","flightCategory":"VFR","rawOb":"METAR SBDN 192100Z 25004KT 9999 FEW040 FEW050TCU 31/22 Q1006","temp":31,"dewp":22,"wdir":250,"wspd":4,"visib":"6+","altim":1006,"clouds":[{"cover":"FEW","base":4000},{"cover":"FEW","base":5000}],"obsTime":1773954000},"SBIP":{"icaoId":"SBIP","flightCategory":"VFR","rawOb":"METAR SBIP 192100Z AUTO 19005KT 9999 VCTS //////CB 26/21 Q1008","temp":26,"dewp":21,"wdir":190,"wspd":5,"visib":"6+","altim":1008,"clouds":[],"obsTime":1773954000},"SBKG":{"icaoId":"SBKG","flightCategory":"VFR","rawOb":"METAR SBKG 192100Z 10012KT 9999 SCT020 27/21 Q1011","temp":27,"dewp":21,"wdir":100,"wspd":12,"visib":"6+","altim":1011,"clouds":[{"cover":"SCT","base":2000}],"obsTime":1773954000},"SBOI":{"icaoId":"SBOI","flightCategory":"IFR","rawOb":"METAR SBOI 192100Z AUTO 02010KT 3800 -RA SCT010 BKN022 25/24 Q1009","temp":25,"dewp":24,"wdir":20,"wspd":10,"visib":2.36,"altim":1009,"clouds":[{"cover":"SCT","base":1000},{"cover":"BKN","base":2200}],"obsTime":1773954000},"SBPL":{"icaoId":"SBPL","flightCategory":"VFR","rawOb":"METAR SBPL 192100Z 32002KT 9999 FEW030 29/22 Q1008","temp":29,"dewp":22,"wdir":320,"wspd":2,"visib":"6+","altim":1008,"clouds":[{"cover":"FEW","base":3000}],"obsTime":1773954000},"SBPS":{"icaoId":"SBPS","flightCategory":"VFR","rawOb":"METAR SBPS 192100Z 05012KT CAVOK 27/24 Q1007","temp":27,"dewp":24,"wdir":50,"wspd":12,"visib":"6+","altim":1007,"clouds":[],"obsTime":1773954000},"SBSC":{"icaoId":"SBSC","flightCategory":"MVFR","rawOb":"METAR SBSC 192100Z 20003KT 9999 BKN025 BKN040 26/23 Q1008","temp":26,"dewp":23,"wdir":200,"wspd":3,"visib":"6+","altim":1008,"clouds":[{"cover":"BKN","base":2500},{"cover":"BKN","base":4000}],"obsTime":1773954000},"SBSJ":{"icaoId":"SBSJ","flightCategory":"IFR","rawOb":"METAR SBSJ 192100Z 16005KT 130V200 4000 RA BKN033 BKN050 OVC066 20/18 Q1011 RETSRA","temp":20,"dewp":18,"wdir":160,"wspd":5,"visib":2.49,"altim":1011,"clouds":[{"cover":"BKN","base":3300},{"cover":"BKN","base":5000},{"cover":"OVC","base":6600}],"obsTime":1773954000},"SBSM":{"icaoId":"SBSM","flightCategory":"VFR","rawOb":"METAR SBSM 192100Z 11004KT 9999 FEW033 27/21 Q1008","temp":27,"dewp":21,"wdir":110,"wspd":4,"visib":"6+","altim":1008,"clouds":[{"cover":"FEW","base":3300}],"obsTime":1773954000},"SBSR":{"icaoId":"SBSR","flightCategory":"VFR","rawOb":"METAR SBSR 192100Z 28003KT 210V020 9999 FEW030 FEW040TCU 28/20 Q1007","temp":28,"dewp":20,"wdir":280,"wspd":3,"visib":"6+","altim":1007,"clouds":[{"cover":"FEW","base":3000},{"cover":"FEW","base":4000}],"obsTime":1773954000},"SBTT":{"icaoId":"SBTT","flightCategory":"VFR","rawOb":"METAR SBTT 192100Z 24003KT 9999 FEW003 30/21 Q1008","temp":30,"dewp":21,"wdir":240,"wspd":3,"visib":"6+","altim":1008,"clouds":[{"cover":"FEW","base":300}],"obsTime":1773954000},"SBUY":{"icaoId":"SBUY","flightCategory":"VFR","rawOb":"METAR SBUY 192100Z 09002KT 9999 FEW012 26/23 Q1007","temp":26,"dewp":23,"wdir":90,"wspd":2,"visib":"6+","altim":1007,"clouds":[{"cover":"FEW","base":1200}],"obsTime":1773954000},"SBPB":{"icaoId":"SBPB","flightCategory":"MVFR","rawOb":"METAR SBPB 192100Z 09003KT 9999 BKN015 OVC070 27/25 Q1007","temp":27,"dewp":25,"wdir":90,"wspd":3,"visib":"6+","altim":1007,"clouds":[{"cover":"BKN","base":1500},{"cover":"OVC","base":7000}],"obsTime":1773954000},"SBCJ":{"icaoId":"SBCJ","flightCategory":"VFR","rawOb":"METAR SBCJ 192100Z 00000KT 9999 FEW014 SCT070 25/21 Q1011","temp":25,"dewp":21,"wdir":0,"wspd":0,"visib":"6+","altim":1011,"clouds":[{"cover":"FEW","base":1400},{"cover":"SCT","base":7000}],"obsTime":1773954000},"SBPP":{"icaoId":"SBPP","flightCategory":"VFR","rawOb":"METAR SBPP 192100Z 27006KT 9999 SCT020 29/22 Q1008","temp":29,"dewp":22,"wdir":270,"wspd":6,"visib":"6+","altim":1008,"clouds":[{"cover":"SCT","base":2000}],"obsTime":1773954000},"SBES":{"icaoId":"SBES","flightCategory":"VFR","rawOb":"METAR SBES 192100Z 09006KT 060V120 9999 FEW020 SCT040 BKN100 25/// Q1008","temp":null,"dewp":null,"wdir":90,"wspd":6,"visib":"6+","altim":1008,"clouds":[{"cover":"FEW","base":2000},{"cover":"SCT","base":4000},{"cover":"BKN","base":10000}],"obsTime":1773954000},"SBTA":{"icaoId":"SBTA","flightCategory":"IFR","rawOb":"METAR SBTA 192100Z 17011KT 140V200 3000 -RA BR BKN020 FEW025TCU OVC090 20/20 Q1010 RETSRA","temp":20,"dewp":20,"wdir":170,"wspd":11,"visib":1.86,"altim":1010,"clouds":[{"cover":"BKN","base":2000},{"cover":"FEW","base":2500},{"cover":"OVC","base":9000}],"obsTime":1773954000},"SBAF":{"icaoId":"SBAF","flightCategory":"MVFR","rawOb":" SBAF 192100Z 22003KT 8000 FEW020 BKN030 BKN100 26/24 Q1008","temp":26,"dewp":24,"wdir":220,"wspd":3,"visib":4.97,"altim":1008,"clouds":[{"cover":"FEW","base":2000},{"cover":"BKN","base":3000},{"cover":"BKN","base":10000}],"obsTime":1773954000},"SBAN":{"icaoId":"SBAN","flightCategory":"VFR","rawOb":"METAR SBAN 192100Z VRB03KT 9999 VCSH SCT035 FEW040TCU 25/18 Q1012","temp":25,"dewp":18,"wdir":"VRB","wspd":3,"visib":"6+","altim":1012,"clouds":[{"cover":"SCT","base":3500},{"cover":"FEW","base":4000}],"obsTime":1773954000},"SBGW":{"icaoId":"SBGW","flightCategory":"IFR","rawOb":"METAR SBGW 192100Z 01003KT 3000 -RA BKN022 BKN080 22/19 Q1010","temp":22,"dewp":19,"wdir":10,"wspd":3,"visib":1.86,"altim":1010,"clouds":[{"cover":"BKN","base":2200},{"cover":"BKN","base":8000}],"obsTime":1773954000},"SBJP":{"icaoId":"SBJP","flightCategory":"VFR","rawOb":"METAR SBJP 192100Z 09007KT 9999 FEW020 28/23 Q1009","temp":28,"dewp":23,"wdir":90,"wspd":7,"visib":"6+","altim":1009,"clouds":[{"cover":"FEW","base":2000}],"obsTime":1773954000},"SBJR":{"icaoId":"SBJR","flightCategory":"VFR","rawOb":"METAR SBJR 192100Z 18002KT 9999 FEW018 SCT040 OVC100 26/23 Q1007","temp":26,"dewp":23,"wdir":180,"wspd":2,"visib":"6+","altim":1007,"clouds":[{"cover":"FEW","base":1800},{"cover":"SCT","base":4000},{"cover":"OVC","base":10000}],"obsTime":1773954000},"SBJV":{"icaoId":"SBJV","flightCategory":"VFR","rawOb":"METAR SBJV 192100Z 10007KT 9999 SCT025 28/23 Q1007","temp":28,"dewp":23,"wdir":100,"wspd":7,"visib":"6+","altim":1007,"clouds":[{"cover":"SCT","base":2500}],"obsTime":1773954000},"SBLE":{"icaoId":"SBLE","flightCategory":"VFR","rawOb":"METAR SBLE 192100Z AUTO 07003KT CAVOK 28/19 Q1009","temp":28,"dewp":19,"wdir":70,"wspd":3,"visib":"6+","altim":1009,"clouds":[],"obsTime":1773954000},"SBLS":{"icaoId":"SBLS","flightCategory":"VFR","rawOb":"METAR SBLS 192100Z VRB01KT 9999 FEW036 SCT050 23/22 Q1011","temp":23,"dewp":22,"wdir":"VRB","wspd":1,"visib":"6+","altim":1011,"clouds":[{"cover":"FEW","base":3600},{"cover":"SCT","base":5000}],"obsTime":1773954000},"SBMT":{"icaoId":"SBMT","flightCategory":"IFR","rawOb":"METAR SBMT 192100Z 09004KT 4000 -RA SCT010 BKN017 FEW040TCU 21/20 Q1011","temp":21,"dewp":20,"wdir":90,"wspd":4,"visib":2.49,"altim":1011,"clouds":[{"cover":"SCT","base":1000},{"cover":"BKN","base":1700},{"cover":"FEW","base":4000}],"obsTime":1773954000},"SBPF":{"icaoId":"SBPF","flightCategory":"VFR","rawOb":"METAR SBPF 192100Z 16012KT CAVOK 26/19 Q1010","temp":26,"dewp":19,"wdir":160,"wspd":12,"visib":"6+","altim":1010,"clouds":[],"obsTime":1773954000},"SBST":{"icaoId":"SBST","flightCategory":"MVFR","rawOb":"METAR SBST 192100Z 00000KT 5000 BR FEW015 SCT040 24/23 Q1007","temp":24,"dewp":23,"wdir":0,"wspd":0,"visib":3.11,"altim":1007,"clouds":[{"cover":"FEW","base":1500},{"cover":"SCT","base":4000}],"obsTime":1773954000},"SBIH":{"icaoId":"SBIH","flightCategory":"VFR","rawOb":"METAR SBIH 192100Z 30003KT 9999 FEW012 FEW025TCU BKN100 27/25 Q1007","temp":27,"dewp":25,"wdir":300,"wspd":3,"visib":"6+","altim":1007,"clouds":[{"cover":"FEW","base":1200},{"cover":"FEW","base":2500},{"cover":"BKN","base":10000}],"obsTime":1773954000}}}