{"updated":1782757654,"count":87,"data":{"SBRF":{"icaoId":"SBRF","flightCategory":"MVFR","rawOb":"METAR SBRF 291700Z 08011KT 5000 -RA BR SCT015 SCT060 26/21 Q1015","temp":26,"dewp":21,"wdir":80,"wspd":11,"visib":3.11,"altim":1015,"clouds":[{"cover":"SCT","base":1500},{"cover":"SCT","base":6000}],"obsTime":1782752400},"SBEG":{"icaoId":"SBEG","flightCategory":"VFR","rawOb":"METAR SBEG 291700Z 11011KT 9999 SCT035 SCT100 31/24 Q1012","temp":31,"dewp":24,"wdir":110,"wspd":11,"visib":"6+","altim":1012,"clouds":[{"cover":"SCT","base":3500},{"cover":"SCT","base":10000}],"obsTime":1782752400},"SBSL":{"icaoId":"SBSL","flightCategory":"MVFR","rawOb":"METAR SBSL 291700Z 12005KT 9999 VCSH BKN020 FEW025TCU 30/24 Q1011","temp":30,"dewp":24,"wdir":120,"wspd":5,"visib":"6+","altim":1011,"clouds":[{"cover":"BKN","base":2000},{"cover":"FEW","base":2500}],"obsTime":1782752400},"SBRB":{"icaoId":"SBRB","flightCategory":"VFR","rawOb":"METAR SBRB 291700Z 19005KT 9999 FEW030 31/22 Q1015","temp":31,"dewp":22,"wdir":190,"wspd":5,"visib":"6+","altim":1015,"clouds":[{"cover":"FEW","base":3000}],"obsTime":1782752400},"SBSV":{"icaoId":"SBSV","flightCategory":"VFR","rawOb":"METAR SBSV 291700Z 13009KT 9999 SCT030 SCT050 28/21 Q1017","temp":28,"dewp":21,"wdir":130,"wspd":9,"visib":"6+","altim":1017,"clouds":[{"cover":"SCT","base":3000},{"cover":"SCT","base":5000}],"obsTime":1782752400},"SBFZ":{"icaoId":"SBFZ","flightCategory":"VFR","rawOb":"METAR SBFZ 291700Z 10015KT CAVOK 30/19 Q1012","temp":30,"dewp":19,"wdir":100,"wspd":15,"visib":"6+","altim":1012,"clouds":[],"obsTime":1782752400},"SBBV":{"icaoId":"SBBV","flightCategory":"MVFR","rawOb":"METAR SBBV 291700Z 07005KT 9999 BKN025 FEW030TCU BKN080 31/23 Q1012","temp":31,"dewp":23,"wdir":70,"wspd":5,"visib":"6+","altim":1012,"clouds":[{"cover":"BKN","base":2500},{"cover":"FEW","base":3000},{"cover":"BKN","base":8000}],"obsTime":1782752400},"SBBE":{"icaoId":"SBBE","flightCategory":"VFR","rawOb":"METAR SBBE 291700Z 06013KT 9999 BKN032 FEW037TCU BKN090 31/23 Q1012","temp":31,"dewp":23,"wdir":60,"wspd":13,"visib":"6+","altim":1012,"clouds":[{"cover":"BKN","base":3200},{"cover":"FEW","base":3700},{"cover":"BKN","base":9000}],"obsTime":1782752400},"SBCF":{"icaoId":"SBCF","flightCategory":"VFR","rawOb":"METAR SBCF 291700Z 14004KT CAVOK 26/12 Q1022","temp":26,"dewp":12,"wdir":140,"wspd":4,"visib":"6+","altim":1022,"clouds":[],"obsTime":1782752400},"SBSG":{"icaoId":"SBSG","flightCategory":"MVFR","rawOb":"METAR SBSG 291700Z 13010KT 100V170 9999 VCSH BKN025 FEW030TCU BKN070 28/23 Q1014","temp":28,"dewp":23,"wdir":130,"wspd":10,"visib":"6+","altim":1014,"clouds":[{"cover":"BKN","base":2500},{"cover":"FEW","base":3000},{"cover":"BKN","base":7000}],"obsTime":1782752400},"SBBR":{"icaoId":"SBBR","flightCategory":"VFR","rawOb":"METAR SBBR 291700Z 11007KT 040V160 CAVOK 25/13 Q1022","temp":25,"dewp":13,"wdir":110,"wspd":7,"visib":"6+","altim":1022,"clouds":[],"obsTime":1782752400},"SBIL":{"icaoId":"SBIL","flightCategory":"VFR","rawOb":"METAR SBIL 291700Z 18009KT 9999 FEW025 28/22 Q1018","temp":28,"dewp":22,"wdir":180,"wspd":9,"visib":"6+","altim":1018,"clouds":[{"cover":"FEW","base":2500}],"obsTime":1782752400},"SBJU":{"icaoId":"SBJU","flightCategory":"VFR","rawOb":"METAR SBJU 291700Z 03003KT CAVOK 32/15 Q1014","temp":32,"dewp":15,"wdir":30,"wspd":3,"visib":"6+","altim":1014,"clouds":[],"obsTime":1782752400},"SBMG":{"icaoId":"SBMG","flightCategory":"VFR","rawOb":"METAR SBMG 291700Z 31009KT 9999 BKN035 27/18 Q1016","temp":27,"dewp":18,"wdir":310,"wspd":9,"visib":"6+","altim":1016,"clouds":[{"cover":"BKN","base":3500}],"obsTime":1782752400},"SBAT":{"icaoId":"SBAT","flightCategory":"VFR","rawOb":"METAR SBAT 291700Z 11010KT 9999 FEW030 35/16 Q1014","temp":35,"dewp":16,"wdir":110,"wspd":10,"visib":"6+","altim":1014,"clouds":[{"cover":"FEW","base":3000}],"obsTime":1782752400},"SBHT":{"icaoId":"SBHT","flightCategory":"MVFR","rawOb":"METAR SBHT 291700Z 09005KT 9999 BKN025 BKN100 29/25 Q1012","temp":29,"dewp":25,"wdir":90,"wspd":5,"visib":"6+","altim":1012,"clouds":[{"cover":"BKN","base":2500},{"cover":"BKN","base":10000}],"obsTime":1782752400},"SBME":{"icaoId":"SBME","flightCategory":"VFR","rawOb":"METAR SBME 291700Z 01008KT CAVOK 30/17 Q1017","temp":30,"dewp":17,"wdir":10,"wspd":8,"visib":"6+","altim":1017,"clouds":[],"obsTime":1782752400},"SBMK":{"icaoId":"SBMK","flightCategory":"VFR","rawOb":"METAR SBMK 291700Z 08005KT 9999 FEW040 26/12 Q1021","temp":26,"dewp":12,"wdir":80,"wspd":5,"visib":"6+","altim":1021,"clouds":[{"cover":"FEW","base":4000}],"obsTime":1782752400},"SBUL":{"icaoId":"SBUL","flightCategory":"VFR","rawOb":"METAR SBUL 291700Z 06008KT 010V110 CAVOK 24/12 Q1022","temp":24,"dewp":12,"wdir":60,"wspd":8,"visib":"6+","altim":1022,"clouds":[],"obsTime":1782752400},"SBUR":{"icaoId":"SBUR","flightCategory":"VFR","rawOb":"METAR SBUR 291700Z 02008KT CAVOK 26/13 Q1020","temp":26,"dewp":13,"wdir":20,"wspd":8,"visib":"6+","altim":1020,"clouds":[],"obsTime":1782752400},"SBPV":{"icaoId":"SBPV","flightCategory":"VFR","rawOb":"METAR SBPV 291700Z 20003KT 9999 SCT030 31/22 Q1013","temp":31,"dewp":22,"wdir":200,"wspd":3,"visib":"6+","altim":1013,"clouds":[{"cover":"SCT","base":3000}],"obsTime":1782752400},"SBCB":{"icaoId":"SBCB","flightCategory":"VFR","rawOb":"METAR SBCB 291700Z 12008KT CAVOK 29/20 Q1018","temp":29,"dewp":20,"wdir":120,"wspd":8,"visib":"6+","altim":1018,"clouds":[],"obsTime":1782752400},"SBPA":{"icaoId":"SBPA","flightCategory":"VFR","rawOb":"METAR SBPA 291700Z 20004KT 150V230 9999 SCT030 16/10 Q1020","temp":16,"dewp":10,"wdir":200,"wspd":4,"visib":"6+","altim":1020,"clouds":[{"cover":"SCT","base":3000}],"obsTime":1782752400},"SBTE":{"icaoId":"SBTE","flightCategory":"VFR","rawOb":"METAR SBTE 291700Z VRB06KT 9999 SCT025 32/19 Q1011","temp":32,"dewp":19,"wdir":"VRB","wspd":6,"visib":"6+","altim":1011,"clouds":[{"cover":"SCT","base":2500}],"obsTime":1782752400},"SBMQ":{"icaoId":"SBMQ","flightCategory":"VFR","rawOb":"METAR SBMQ 291700Z 05012KT 9999 FEW018 FEW050TCU 30/25 Q1012","temp":30,"dewp":25,"wdir":50,"wspd":12,"visib":"6+","altim":1012,"clouds":[{"cover":"FEW","base":1800},{"cover":"FEW","base":5000}],"obsTime":1782752400},"SBCZ":{"icaoId":"SBCZ","flightCategory":"MVFR","rawOb":"METAR SBCZ 291700Z 16007KT 9999 BKN026 BKN100 29/22 Q1015","temp":29,"dewp":22,"wdir":160,"wspd":7,"visib":"6+","altim":1015,"clouds":[{"cover":"BKN","base":2600},{"cover":"BKN","base":10000}],"obsTime":1782752400},"SBNT":{"icaoId":"SBNT","flightCategory":"MVFR","rawOb":"METAR SBNT 291700Z 10011KT 9000 -RA BKN023 FEW027TCU BKN033 BKN060 26/23 Q1014","temp":26,"dewp":23,"wdir":100,"wspd":11,"visib":5.59,"altim":1014,"clouds":[{"cover":"BKN","base":2300},{"cover":"FEW","base":2700},{"cover":"BKN","base":3300},{"cover":"BKN","base":6000}],"obsTime":1782752400},"SBGL":{"icaoId":"SBGL","flightCategory":"VFR","rawOb":"METAR SBGL 291700Z 04007KT CAVOK 30/17 Q1016","temp":30,"dewp":17,"wdir":40,"wspd":7,"visib":"6+","altim":1016,"clouds":[],"obsTime":1782752400},"SBSN":{"icaoId":"SBSN","flightCategory":"VFR","rawOb":"METAR SBSN 291700Z 11011KT 9999 SCT020 FEW025TCU 30/25 Q1012","temp":30,"dewp":25,"wdir":110,"wspd":11,"visib":"6+","altim":1012,"clouds":[{"cover":"SCT","base":2000},{"cover":"FEW","base":2500}],"obsTime":1782752400},"SBGO":{"icaoId":"SBGO","flightCategory":"VFR","rawOb":"METAR SBGO 291700Z 10005KT 9999 FEW040 29/14 Q1019","temp":29,"dewp":14,"wdir":100,"wspd":5,"visib":"6+","altim":1019,"clouds":[{"cover":"FEW","base":4000}],"obsTime":1782752400},"SBKP":{"icaoId":"SBKP","flightCategory":"VFR","rawOb":"METAR SBKP 291700Z 35008KT 320V020 9999 FEW045 27/17 Q1019","temp":27,"dewp":17,"wdir":350,"wspd":8,"visib":"6+","altim":1019,"clouds":[{"cover":"FEW","base":4500}],"obsTime":1782752400},"SBMA":{"icaoId":"SBMA","flightCategory":"VFR","rawOb":"METAR SBMA 291700Z 08004KT 9999 FEW020 FEW025TCU SCT080 32/22 Q1012","temp":32,"dewp":22,"wdir":80,"wspd":4,"visib":"6+","altim":1012,"clouds":[{"cover":"FEW","base":2000},{"cover":"FEW","base":2500},{"cover":"SCT","base":8000}],"obsTime":1782752400},"SBCT":{"icaoId":"SBCT","flightCategory":"IFR","rawOb":"METAR SBCT 291700Z 02003KT 350V060 4500 -TSRA BR SCT012 SCT030 FEW035CB OVC080 15/15 Q1021 RERA","temp":15,"dewp":15,"wdir":20,"wspd":3,"visib":2.8,"altim":1021,"clouds":[{"cover":"SCT","base":1200},{"cover":"SCT","base":3000},{"cover":"FEW","base":3500},{"cover":"OVC","base":8000}],"obsTime":1782752400},"SBCR":{"icaoId":"SBCR","flightCategory":"VFR","rawOb":"METAR SBCR 291700Z 35005KT 300V030 CAVOK 28/20 Q1015","temp":28,"dewp":20,"wdir":350,"wspd":5,"visib":"6+","altim":1015,"clouds":[],"obsTime":1782752400},"SBLO":{"icaoId":"SBLO","flightCategory":"VFR","rawOb":"METAR SBLO 291700Z 36006KT 9999 SCT030 27/19 Q1017","temp":27,"dewp":19,"wdir":360,"wspd":6,"visib":"6+","altim":1017,"clouds":[{"cover":"SCT","base":3000}],"obsTime":1782752400},"SBFL":{"icaoId":"SBFL","flightCategory":"VFR","rawOb":"METAR SBFL 291700Z 16006KT 130V220 9999 OVC033 17/11 Q1020","temp":17,"dewp":11,"wdir":160,"wspd":6,"visib":"6+","altim":1020,"clouds":[{"cover":"OVC","base":3300}],"obsTime":1782752400},"SBPJ":{"icaoId":"SBPJ","flightCategory":"VFR","rawOb":"METAR SBPJ 291700Z 11008KT 060V140 9999 FEW045 34/16 Q1014","temp":34,"dewp":16,"wdir":110,"wspd":8,"visib":"6+","altim":1014,"clouds":[{"cover":"FEW","base":4500}],"obsTime":1782752400},"SBMO":{"icaoId":"SBMO","flightCategory":"VFR","rawOb":"METAR SBMO 291700Z 05013KT 9999 SCT025 28/23 Q1015","temp":28,"dewp":23,"wdir":50,"wspd":13,"visib":"6+","altim":1015,"clouds":[{"cover":"SCT","base":2500}],"obsTime":1782752400},"SBGR":{"icaoId":"SBGR","flightCategory":"VFR","rawOb":"METAR SBGR 291700Z 34005KT 9999 SCT040 27/16 Q1020","temp":27,"dewp":16,"wdir":340,"wspd":5,"visib":"6+","altim":1020,"clouds":[{"cover":"SCT","base":4000}],"obsTime":1782752400},"SBVT":{"icaoId":"SBVT","flightCategory":"VFR","rawOb":"METAR SBVT 291700Z 08011KT 9999 FEW040 28/21 Q1018","temp":28,"dewp":21,"wdir":80,"wspd":11,"visib":"6+","altim":1018,"clouds":[{"cover":"FEW","base":4000}],"obsTime":1782752400},"SBCP":{"icaoId":"SBCP","flightCategory":"VFR","rawOb":"METAR SBCP 291700Z 02006KT 9999 FEW020 30/17 Q1018","temp":30,"dewp":17,"wdir":20,"wspd":6,"visib":"6+","altim":1018,"clouds":[{"cover":"FEW","base":2000}],"obsTime":1782752400},"SBCG":{"icaoId":"SBCG","flightCategory":"VFR","rawOb":"METAR SBCG 291700Z 31008KT 280V010 9999 FEW040 28/17 Q1017","temp":28,"dewp":17,"wdir":310,"wspd":8,"visib":"6+","altim":1017,"clouds":[{"cover":"FEW","base":4000}],"obsTime":1782752400},"SBSP":{"icaoId":"SBSP","flightCategory":"VFR","rawOb":"METAR SBSP 291700Z 33007KT 290V040 9999 FEW040 26/16 Q1021","temp":26,"dewp":16,"wdir":330,"wspd":7,"visib":"6+","altim":1021,"clouds":[{"cover":"FEW","base":4000}],"obsTime":1782752400},"SBFI":{"icaoId":"SBFI","flightCategory":"IFR","rawOb":"METAR SBFI 291700Z 21007KT 5000 BR BKN005 SCT017 18/17 Q1016","temp":18,"dewp":17,"wdir":210,"wspd":7,"visib":3.11,"altim":1016,"clouds":[{"cover":"BKN","base":500},{"cover":"SCT","base":1700}],"obsTime":1782752400},"SBKG":{"icaoId":"SBKG","flightCategory":"VFR","rawOb":"METAR SBKG 291700Z 10013KT 9999 SCT020 27/18 Q1017","temp":27,"dewp":18,"wdir":100,"wspd":13,"visib":"6+","altim":1017,"clouds":[{"cover":"SCT","base":2000}],"obsTime":1782752400},"SBGM":{"icaoId":"SBGM","flightCategory":"VFR","rawOb":"METAR SBGM 291700Z 12006KT CAVOK 31/16 Q1014","temp":31,"dewp":16,"wdir":120,"wspd":6,"visib":"6+","altim":1014,"clouds":[],"obsTime":1782752400},"SBCA":{"icaoId":"SBCA","flightCategory":"IFR","rawOb":"METAR SBCA 291700Z 03004KT 9999 BKN007 FEW050TCU 20/18 Q1018","temp":20,"dewp":18,"wdir":30,"wspd":4,"visib":"6+","altim":1018,"clouds":[{"cover":"BKN","base":700},{"cover":"FEW","base":5000}],"obsTime":1782752400},"SBVH":{"icaoId":"SBVH","flightCategory":"VFR","rawOb":"METAR SBVH 291700Z 12006KT 090V150 9999 FEW033 30/19 Q1017","temp":30,"dewp":19,"wdir":120,"wspd":6,"visib":"6+","altim":1017,"clouds":[{"cover":"FEW","base":3300}],"obsTime":1782752400},"SBAU":{"icaoId":"SBAU","flightCategory":"VFR","rawOb":"METAR SBAU 291700Z 01008KT CAVOK 32/14 Q1016","temp":32,"dewp":14,"wdir":10,"wspd":8,"visib":"6+","altim":1016,"clouds":[],"obsTime":1782752400},"SBAX":{"icaoId":"SBAX","flightCategory":"VFR","rawOb":"METAR SBAX 291700Z AUTO 04004KT 320V090 CAVOK 24/13 Q1022","temp":24,"dewp":13,"wdir":40,"wspd":4,"visib":"6+","altim":1022,"clouds":[],"obsTime":1782752400},"SBBH":{"icaoId":"SBBH","flightCategory":"VFR","rawOb":"METAR SBBH 291700Z 07003KT 9999 FEW045 25/11 Q1022","temp":25,"dewp":11,"wdir":70,"wspd":3,"visib":"6+","altim":1022,"clouds":[{"cover":"FEW","base":4500}],"obsTime":1782752400},"SBBQ":{"icaoId":"SBBQ","flightCategory":"VFR","rawOb":"METAR SBBQ 291700Z VRB03KT CAVOK 23/12 Q1025","temp":23,"dewp":12,"wdir":"VRB","wspd":3,"visib":"6+","altim":1025,"clouds":[],"obsTime":1782752400},"SBUY":{"icaoId":"SBUY","flightCategory":"MVFR","rawOb":"METAR SBUY 291700Z COR 15001KT 9999 BKN020 SCT100 29/24 Q1012","temp":29,"dewp":24,"wdir":150,"wspd":1,"visib":"6+","altim":1012,"clouds":[{"cover":"BKN","base":2000},{"cover":"SCT","base":10000}],"obsTime":1782752400},"SBCO":{"icaoId":"SBCO","flightCategory":"VFR","rawOb":"METAR SBCO 291700Z 34003KT 9999 SCT030 17/09 Q1020","temp":17,"dewp":9,"wdir":340,"wspd":3,"visib":"6+","altim":1020,"clouds":[{"cover":"SCT","base":3000}],"obsTime":1782752400},"SBOI":{"icaoId":"SBOI","flightCategory":"VFR","rawOb":"METAR SBOI 291700Z AUTO 10006KT 060V160 9999 FEW042 31/23 Q1013","temp":31,"dewp":23,"wdir":100,"wspd":6,"visib":"6+","altim":1013,"clouds":[{"cover":"FEW","base":4200}],"obsTime":1782752400},"SBES":{"icaoId":"SBES","flightCategory":"VFR","rawOb":"METAR SBES 291700Z 07006KT 030V110 CAVOK 28/// Q1017","temp":null,"dewp":null,"wdir":70,"wspd":6,"visib":"6+","altim":1017,"clouds":[],"obsTime":1782752400},"SBTU":{"icaoId":"SBTU","flightCategory":"VFR","rawOb":"METAR SBTU 291700Z AUTO 27007KT 9999 // FEW025/// BKN067/// ///// Q1014","temp":null,"dewp":null,"wdir":270,"wspd":7,"visib":"6+","altim":1014,"clouds":[{"cover":"FEW","base":2500},{"cover":"BKN","base":6700}],"obsTime":1782752400},"SBTT":{"icaoId":"SBTT","flightCategory":"MVFR","rawOb":"METAR SBTT 291700Z 18006KT 9000 BKN011 BKN070 25/23 Q1016","temp":25,"dewp":23,"wdir":180,"wspd":6,"visib":5.59,"altim":1016,"clouds":[{"cover":"BKN","base":1100},{"cover":"BKN","base":7000}],"obsTime":1782752400},"SBBU":{"icaoId":"SBBU","flightCategory":"VFR","rawOb":"METAR SBBU 291700Z 32006KT CAVOK 29/19 Q1019","temp":29,"dewp":19,"wdir":320,"wspd":6,"visib":"6+","altim":1019,"clouds":[],"obsTime":1782752400},"SBPB":{"icaoId":"SBPB","flightCategory":"VFR","rawOb":"METAR SBPB 291700Z 07008KT 9999 FEW020 SCT100 31/24 Q1011","temp":31,"dewp":24,"wdir":70,"wspd":8,"visib":"6+","altim":1011,"clouds":[{"cover":"FEW","base":2000},{"cover":"SCT","base":10000}],"obsTime":1782752400},"SBPL":{"icaoId":"SBPL","flightCategory":"MVFR","rawOb":"METAR SBPL 291700Z 11009KT 9999 SCT025 BKN030 29/20 Q1016","temp":29,"dewp":20,"wdir":110,"wspd":9,"visib":"6+","altim":1016,"clouds":[{"cover":"SCT","base":2500},{"cover":"BKN","base":3000}],"obsTime":1782752400},"SBPS":{"icaoId":"SBPS","flightCategory":"VFR","rawOb":"METAR SBPS 291700Z 14006KT 090V190 9999 SCT021 BKN060 26/22 Q1019","temp":26,"dewp":22,"wdir":140,"wspd":6,"visib":"6+","altim":1019,"clouds":[{"cover":"SCT","base":2100},{"cover":"BKN","base":6000}],"obsTime":1782752400},"SBSM":{"icaoId":"SBSM","flightCategory":"VFR","rawOb":"METAR SBSM 291700Z 13004KT 080V220 9999 SCT015 SCT018 13/10 Q1020","temp":13,"dewp":10,"wdir":130,"wspd":4,"visib":"6+","altim":1020,"clouds":[{"cover":"SCT","base":1500},{"cover":"SCT","base":1800}],"obsTime":1782752400},"SBPP":{"icaoId":"SBPP","flightCategory":"VFR","rawOb":"METAR SBPP 291700Z 31010KT 9999 SCT020 26/19 Q1017","temp":26,"dewp":19,"wdir":310,"wspd":10,"visib":"6+","altim":1017,"clouds":[{"cover":"SCT","base":2000}],"obsTime":1782752400},"SBDN":{"icaoId":"SBDN","flightCategory":"VFR","rawOb":"METAR SBDN 291700Z 35007KT CAVOK 30/17 Q1016","temp":30,"dewp":17,"wdir":350,"wspd":7,"visib":"6+","altim":1016,"clouds":[],"obsTime":1782752400},"SBSJ":{"icaoId":"SBSJ","flightCategory":"VFR","rawOb":"METAR SBSJ 291700Z 30004KT 270V020 CAVOK 27/17 Q1019","temp":27,"dewp":17,"wdir":300,"wspd":4,"visib":"6+","altim":1019,"clouds":[],"obsTime":1782752400},"SBCJ":{"icaoId":"SBCJ","flightCategory":"MVFR","rawOb":"METAR SBCJ 291700Z 10004KT 9999 BKN030 28/20 Q1017","temp":28,"dewp":20,"wdir":100,"wspd":4,"visib":"6+","altim":1017,"clouds":[{"cover":"BKN","base":3000}],"obsTime":1782752400},"SBIP":{"icaoId":"SBIP","flightCategory":"VFR","rawOb":"METAR SBIP 291700Z AUTO 02007KT 330V070 9999 FEW047 27/15 Q1020","temp":27,"dewp":15,"wdir":20,"wspd":7,"visib":"6+","altim":1020,"clouds":[{"cover":"FEW","base":4700}],"obsTime":1782752400},"SBTF":{"icaoId":"SBTF","flightCategory":"VFR","rawOb":"METAR SBTF 291700Z 15004KT 9999 VCSH SCT018 FEW025TCU 30/26 Q1012","temp":30,"dewp":26,"wdir":150,"wspd":4,"visib":"6+","altim":1012,"clouds":[{"cover":"SCT","base":1800},{"cover":"FEW","base":2500}],"obsTime":1782752400},"SBAR":{"icaoId":"SBAR","flightCategory":"VFR","rawOb":"METAR SBAR 291700Z 11010KT 9999 FEW019 BKN080 28/24 Q1016","temp":28,"dewp":24,"wdir":110,"wspd":10,"visib":"6+","altim":1016,"clouds":[{"cover":"FEW","base":1900},{"cover":"BKN","base":8000}],"obsTime":1782752400},"SBSC":{"icaoId":"SBSC","flightCategory":"VFR","rawOb":"METAR SBSC 291700Z 22012KT 9999 FEW007 24/21 Q1018","temp":24,"dewp":21,"wdir":220,"wspd":12,"visib":"6+","altim":1018,"clouds":[{"cover":"FEW","base":700}],"obsTime":1782752400},"SBSR":{"icaoId":"SBSR","flightCategory":"VFR","rawOb":"METAR SBSR 291700Z 04008KT CAVOK 28/15 Q1018","temp":28,"dewp":15,"wdir":40,"wspd":8,"visib":"6+","altim":1018,"clouds":[],"obsTime":1782752400},"SBCC":{"icaoId":"SBCC","flightCategory":"VFR","rawOb":"METAR SBCC 291700Z 10009KT 060V150 CAVOK 32/14 Q1015","temp":32,"dewp":14,"wdir":100,"wspd":9,"visib":"6+","altim":1015,"clouds":[],"obsTime":1782752400},"SBAN":{"icaoId":"SBAN","flightCategory":"VFR","rawOb":"METAR SBAN 291700Z 06005KT 9999 FEW030 26/13 Q1022","temp":26,"dewp":13,"wdir":60,"wspd":5,"visib":"6+","altim":1022,"clouds":[{"cover":"FEW","base":3000}],"obsTime":1782752400},"SBLE":{"icaoId":"SBLE","flightCategory":"VFR","rawOb":"METAR SBLE 291700Z AUTO 16004KT 120V190 9999 OVC033 ///// Q////","temp":null,"dewp":null,"wdir":160,"wspd":4,"visib":"6+","altim":null,"clouds":[{"cover":"OVC","base":3300}],"obsTime":1782752400},"SBJV":{"icaoId":"SBJV","flightCategory":"MVFR","rawOb":"METAR SBJV 291700Z 31004KT 9999 SCT007 OVC030 17/16 Q1020","temp":17,"dewp":16,"wdir":310,"wspd":4,"visib":"6+","altim":1020,"clouds":[{"cover":"SCT","base":700},{"cover":"OVC","base":3000}],"obsTime":1782752400},"SBNM":{"icaoId":"SBNM","flightCategory":"VFR","rawOb":"METAR SBNM 291800Z AUTO 19004KT 140V230 CAVOK 17/10 Q1018","temp":17,"dewp":10,"wdir":190,"wspd":4,"visib":"6+","altim":1018,"clouds":[],"obsTime":1782756000},"SBPF":{"icaoId":"SBPF","flightCategory":"MVFR","rawOb":"METAR SBPF 291800Z 14005KT 9999 BKN015 15/12 Q1019","temp":15,"dewp":12,"wdir":140,"wspd":5,"visib":"6+","altim":1019,"clouds":[{"cover":"BKN","base":1500}],"obsTime":1782756000},"SBIH":{"icaoId":"SBIH","flightCategory":"VFR","rawOb":"METAR SBIH 291700Z 04010KT 9999 FEW020 FEW025TCU 32/24 Q1011","temp":32,"dewp":24,"wdir":40,"wspd":10,"visib":"6+","altim":1011,"clouds":[{"cover":"FEW","base":2000},{"cover":"FEW","base":2500}],"obsTime":1782752400},"SBAF":{"icaoId":"SBAF","flightCategory":"VFR","rawOb":"METAR SBAF 291700Z VRB02KT CAVOK 31/16 Q1017","temp":31,"dewp":16,"wdir":"VRB","wspd":2,"visib":"6+","altim":1017,"clouds":[],"obsTime":1782752400},"SBGW":{"icaoId":"SBGW","flightCategory":"VFR","rawOb":"METAR SBGW 291700Z 05007KT CAVOK 28/14 Q1019","temp":28,"dewp":14,"wdir":50,"wspd":7,"visib":"6+","altim":1019,"clouds":[],"obsTime":1782752400},"SBJR":{"icaoId":"SBJR","flightCategory":"VFR","rawOb":"METAR SBJR 291700Z 35003KT CAVOK 34/17 Q1017","temp":34,"dewp":17,"wdir":350,"wspd":3,"visib":"6+","altim":1017,"clouds":[],"obsTime":1782752400},"SBLS":{"icaoId":"SBLS","flightCategory":"VFR","rawOb":"METAR SBLS 291700Z VRB04KT 9999 FEW045 26/12 Q1022","temp":26,"dewp":12,"wdir":"VRB","wspd":4,"visib":"6+","altim":1022,"clouds":[{"cover":"FEW","base":4500}],"obsTime":1782752400},"SBMT":{"icaoId":"SBMT","flightCategory":"VFR","rawOb":"METAR SBMT 291700Z 04006KT 9999 SCT040 28/18 Q1020","temp":28,"dewp":18,"wdir":40,"wspd":6,"visib":"6+","altim":1020,"clouds":[{"cover":"SCT","base":4000}],"obsTime":1782752400},"SBST":{"icaoId":"SBST","flightCategory":"MVFR","rawOb":"METAR SBST 291700Z 20005KT 170V250 9999 OVC023 22/17 Q1018","temp":22,"dewp":17,"wdir":200,"wspd":5,"visib":"6+","altim":1018,"clouds":[{"cover":"OVC","base":2300}],"obsTime":1782752400},"SBTA":{"icaoId":"SBTA","flightCategory":"VFR","rawOb":"METAR SBTA 291700Z 04007KT 360V070 CAVOK 28/16 Q1018","temp":28,"dewp":16,"wdir":40,"wspd":7,"visib":"6+","altim":1018,"clouds":[],"obsTime":1782752400},"SBJP":{"icaoId":"SBJP","flightCategory":"MVFR","rawOb":"METAR SBJP 291700Z 10010KT 070V130 9999 BKN030 30/23 Q1014","temp":30,"dewp":23,"wdir":100,"wspd":10,"visib":"6+","altim":1014,"clouds":[{"cover":"BKN","base":3000}],"obsTime":1782752400}}}