{"updated":1783472217,"count":70,"data":{"SBNT":{"icaoId":"SBNT","flightCategory":"VFR","rawOb":"METAR SBNT 072300Z 15008KT 9999 SCT034 SCT066 26/22 Q1016","temp":26,"dewp":22,"wdir":150,"wspd":8,"visib":"6+","altim":1016,"clouds":[{"cover":"SCT","base":3400},{"cover":"SCT","base":6600}],"obsTime":1783465200},"SBLO":{"icaoId":"SBLO","flightCategory":"VFR","rawOb":"METAR SBLO 072300Z 23004KT 180V290 CAVOK 16/09 Q1020","temp":16,"dewp":9,"wdir":230,"wspd":4,"visib":"6+","altim":1020,"clouds":[],"obsTime":1783465200},"SBGR":{"icaoId":"SBGR","flightCategory":"MVFR","rawOb":"METAR SBGR 072300Z 13003KT 9999 OVC010 15/12 Q1022","temp":15,"dewp":12,"wdir":130,"wspd":3,"visib":"6+","altim":1022,"clouds":[{"cover":"OVC","base":1000}],"obsTime":1783465200},"SBFI":{"icaoId":"SBFI","flightCategory":"VFR","rawOb":"METAR SBFI 072300Z 07002KT CAVOK 08/07 Q1021","temp":8,"dewp":7,"wdir":70,"wspd":2,"visib":"6+","altim":1021,"clouds":[],"obsTime":1783465200},"SBMQ":{"icaoId":"SBMQ","flightCategory":"VFR","rawOb":"METAR SBMQ 072300Z 10005KT 060V180 CAVOK 29/25 Q1014","temp":29,"dewp":25,"wdir":100,"wspd":5,"visib":"6+","altim":1014,"clouds":[],"obsTime":1783465200},"SBMA":{"icaoId":"SBMA","flightCategory":"VFR","rawOb":"METAR SBMA 072300Z 24003KT 9999 FEW023TCU 29/22 Q1013","temp":29,"dewp":22,"wdir":240,"wspd":3,"visib":"6+","altim":1013,"clouds":[{"cover":"FEW","base":2300}],"obsTime":1783465200},"SBCF":{"icaoId":"SBCF","flightCategory":"VFR","rawOb":"METAR SBCF 072300Z 25002KT CAVOK 21/08 Q1021","temp":21,"dewp":8,"wdir":250,"wspd":2,"visib":"6+","altim":1021,"clouds":[],"obsTime":1783465200},"SBSG":{"icaoId":"SBSG","flightCategory":"VFR","rawOb":"METAR SBSG 072300Z 15004KT 080V190 9999 SCT049 25/22 Q1017","temp":25,"dewp":22,"wdir":150,"wspd":4,"visib":"6+","altim":1017,"clouds":[{"cover":"SCT","base":4900}],"obsTime":1783465200},"SBGL":{"icaoId":"SBGL","flightCategory":"VFR","rawOb":"METAR SBGL 072300Z 24010KT 9999 SCT020 BKN040 22/17 Q1019","temp":22,"dewp":17,"wdir":240,"wspd":10,"visib":"6+","altim":1019,"clouds":[{"cover":"SCT","base":2000},{"cover":"BKN","base":4000}],"obsTime":1783465200},"SBPV":{"icaoId":"SBPV","flightCategory":"VFR","rawOb":"METAR SBPV 072300Z 00000KT CAVOK 27/21 Q1012","temp":27,"dewp":21,"wdir":0,"wspd":0,"visib":"6+","altim":1012,"clouds":[],"obsTime":1783465200},"SBCZ":{"icaoId":"SBCZ","flightCategory":"VFR","rawOb":"METAR SBCZ 072300Z 00000KT 9999 FEW030 28/24 Q1013","temp":28,"dewp":24,"wdir":0,"wspd":0,"visib":"6+","altim":1013,"clouds":[{"cover":"FEW","base":3000}],"obsTime":1783465200},"SBSN":{"icaoId":"SBSN","flightCategory":"VFR","rawOb":"METAR SBSN 072300Z 18005KT 9999 VCTS FEW021CB SCT100 26/23 Q1013","temp":26,"dewp":23,"wdir":180,"wspd":5,"visib":"6+","altim":1013,"clouds":[{"cover":"FEW","base":2100},{"cover":"SCT","base":10000}],"obsTime":1783465200},"SBMO":{"icaoId":"SBMO","flightCategory":"VFR","rawOb":"METAR SBMO 072300Z 13001KT CAVOK 22/20 Q1018","temp":22,"dewp":20,"wdir":130,"wspd":1,"visib":"6+","altim":1018,"clouds":[],"obsTime":1783465200},"SBBE":{"icaoId":"SBBE","flightCategory":"VFR","rawOb":"METAR SBBE 072300Z 05007KT 9999 SCT040 26/24 Q1014","temp":26,"dewp":24,"wdir":50,"wspd":7,"visib":"6+","altim":1014,"clouds":[{"cover":"SCT","base":4000}],"obsTime":1783465200},"SBCT":{"icaoId":"SBCT","flightCategory":"VFR","rawOb":"METAR SBCT 072300Z 25003KT 230V340 CAVOK 13/03 Q1022","temp":13,"dewp":3,"wdir":250,"wspd":3,"visib":"6+","altim":1022,"clouds":[],"obsTime":1783465200},"SBSL":{"icaoId":"SBSL","flightCategory":"VFR","rawOb":"METAR SBSL 072300Z 04008KT CAVOK 27/24 Q1014","temp":27,"dewp":24,"wdir":40,"wspd":8,"visib":"6+","altim":1014,"clouds":[],"obsTime":1783465200},"SBKP":{"icaoId":"SBKP","flightCategory":"VFR","rawOb":"METAR SBKP 072300Z 12009KT CAVOK 17/14 Q1020","temp":17,"dewp":14,"wdir":120,"wspd":9,"visib":"6+","altim":1020,"clouds":[],"obsTime":1783465200},"SBSV":{"icaoId":"SBSV","flightCategory":"VFR","rawOb":"METAR SBSV 072300Z 10005KT 9999 SCT013 SCT060 24/22 Q1018","temp":24,"dewp":22,"wdir":100,"wspd":5,"visib":"6+","altim":1018,"clouds":[{"cover":"SCT","base":1300},{"cover":"SCT","base":6000}],"obsTime":1783465200},"SBBV":{"icaoId":"SBBV","flightCategory":"VFR","rawOb":"METAR SBBV 072300Z 09002KT 9999 FEW040 FEW045TCU SCT100 28/23 Q1012","temp":28,"dewp":23,"wdir":90,"wspd":2,"visib":"6+","altim":1012,"clouds":[{"cover":"FEW","base":4000},{"cover":"FEW","base":4500},{"cover":"SCT","base":10000}],"obsTime":1783465200},"SBEG":{"icaoId":"SBEG","flightCategory":"VFR","rawOb":"METAR SBEG 072300Z 22002KT 9999 FEW030 SCT100 27/25 Q1013","temp":27,"dewp":25,"wdir":220,"wspd":2,"visib":"6+","altim":1013,"clouds":[{"cover":"FEW","base":3000},{"cover":"SCT","base":10000}],"obsTime":1783465200},"SBBR":{"icaoId":"SBBR","flightCategory":"VFR","rawOb":"METAR SBBR 072300Z 17006KT 140V210 CAVOK 22/09 Q1022","temp":22,"dewp":9,"wdir":170,"wspd":6,"visib":"6+","altim":1022,"clouds":[],"obsTime":1783465200},"SBIL":{"icaoId":"SBIL","flightCategory":"VFR","rawOb":"METAR SBIL 072300Z 09004KT 9999 FEW020 25/21 Q1018","temp":25,"dewp":21,"wdir":90,"wspd":4,"visib":"6+","altim":1018,"clouds":[{"cover":"FEW","base":2000}],"obsTime":1783465200},"SBJU":{"icaoId":"SBJU","flightCategory":"VFR","rawOb":"METAR SBJU 072300Z 19005KT CAVOK 25/14 Q1017","temp":25,"dewp":14,"wdir":190,"wspd":5,"visib":"6+","altim":1017,"clouds":[],"obsTime":1783465200},"SBMG":{"icaoId":"SBMG","flightCategory":"VFR","rawOb":"METAR SBMG 072300Z 27004KT CAVOK 16/05 Q1020","temp":16,"dewp":5,"wdir":270,"wspd":4,"visib":"6+","altim":1020,"clouds":[],"obsTime":1783465200},"SBME":{"icaoId":"SBME","flightCategory":"VFR","rawOb":"METAR SBME 072300Z 22010KT 9999 SCT040 22/18 Q1018","temp":22,"dewp":18,"wdir":220,"wspd":10,"visib":"6+","altim":1018,"clouds":[{"cover":"SCT","base":4000}],"obsTime":1783465200},"SBMK":{"icaoId":"SBMK","flightCategory":"VFR","rawOb":"METAR SBMK 072300Z 19003KT CAVOK 23/11 Q1019","temp":23,"dewp":11,"wdir":190,"wspd":3,"visib":"6+","altim":1019,"clouds":[],"obsTime":1783465200},"SBUL":{"icaoId":"SBUL","flightCategory":"VFR","rawOb":"METAR SBUL 072300Z 21005KT CAVOK 19/12 Q1022","temp":19,"dewp":12,"wdir":210,"wspd":5,"visib":"6+","altim":1022,"clouds":[],"obsTime":1783465200},"SBUR":{"icaoId":"SBUR","flightCategory":"VFR","rawOb":"METAR SBUR 072300Z 20002KT CAVOK 21/13 Q1021","temp":21,"dewp":13,"wdir":200,"wspd":2,"visib":"6+","altim":1021,"clouds":[],"obsTime":1783465200},"SBFZ":{"icaoId":"SBFZ","flightCategory":"VFR","rawOb":"METAR SBFZ 072300Z 11006KT 9999 FEW023 BKN090 27/23 Q1014","temp":27,"dewp":23,"wdir":110,"wspd":6,"visib":"6+","altim":1014,"clouds":[{"cover":"FEW","base":2300},{"cover":"BKN","base":9000}],"obsTime":1783465200},"SBRB":{"icaoId":"SBRB","flightCategory":"MVFR","rawOb":"METAR SBRB 072300Z 19004KT 9999 BKN015 21/19 Q1016","temp":21,"dewp":19,"wdir":190,"wspd":4,"visib":"6+","altim":1016,"clouds":[{"cover":"BKN","base":1500}],"obsTime":1783465200},"SBVT":{"icaoId":"SBVT","flightCategory":"VFR","rawOb":"METAR SBVT 072300Z 02005KT CAVOK 24/17 Q1016","temp":24,"dewp":17,"wdir":20,"wspd":5,"visib":"6+","altim":1016,"clouds":[],"obsTime":1783465200},"SBRF":{"icaoId":"SBRF","flightCategory":"VFR","rawOb":"METAR SBRF 072300Z 16009KT 9999 FEW025 SCT080 26/21 Q1017","temp":26,"dewp":21,"wdir":160,"wspd":9,"visib":"6+","altim":1017,"clouds":[{"cover":"FEW","base":2500},{"cover":"SCT","base":8000}],"obsTime":1783465200},"SBGO":{"icaoId":"SBGO","flightCategory":"VFR","rawOb":"METAR SBGO 072300Z 13006KT CAVOK 23/13 Q1020","temp":23,"dewp":13,"wdir":130,"wspd":6,"visib":"6+","altim":1020,"clouds":[],"obsTime":1783465200},"SBPA":{"icaoId":"SBPA","flightCategory":"VFR","rawOb":"METAR SBPA 072300Z 27003KT CAVOK 10/06 Q1021","temp":10,"dewp":6,"wdir":270,"wspd":3,"visib":"6+","altim":1021,"clouds":[],"obsTime":1783465200},"SBPJ":{"icaoId":"SBPJ","flightCategory":"VFR","rawOb":"METAR SBPJ 072300Z 13005KT CAVOK 28/18 Q1014","temp":28,"dewp":18,"wdir":130,"wspd":5,"visib":"6+","altim":1014,"clouds":[],"obsTime":1783465200},"SBFL":{"icaoId":"SBFL","flightCategory":"VFR","rawOb":"METAR SBFL 072300Z 07002KT 9999 BKN031 13/09 Q1021","temp":13,"dewp":9,"wdir":70,"wspd":2,"visib":"6+","altim":1021,"clouds":[{"cover":"BKN","base":3100}],"obsTime":1783465200},"SBTE":{"icaoId":"SBTE","flightCategory":"VFR","rawOb":"METAR SBTE 072300Z 25003KT CAVOK 29/21 Q1013","temp":29,"dewp":21,"wdir":250,"wspd":3,"visib":"6+","altim":1013,"clouds":[],"obsTime":1783465200},"SBCG":{"icaoId":"SBCG","flightCategory":"VFR","rawOb":"METAR SBCG 072300Z 16003KT CAVOK 17/15 Q1020","temp":17,"dewp":15,"wdir":160,"wspd":3,"visib":"6+","altim":1020,"clouds":[],"obsTime":1783465200},"SBSP":{"icaoId":"SBSP","flightCategory":"IFR","rawOb":"METAR SBSP 072300Z 15007KT 9999 BKN006 14/13 Q1023","temp":14,"dewp":13,"wdir":150,"wspd":7,"visib":"6+","altim":1023,"clouds":[{"cover":"BKN","base":600}],"obsTime":1783465200},"SBES":{"icaoId":"SBES","flightCategory":"VFR","rawOb":"METAR SBES 072300Z 25008KT 190V310 9999 FEW015 SCT030 21/// Q1019","temp":null,"dewp":null,"wdir":250,"wspd":8,"visib":"6+","altim":1019,"clouds":[{"cover":"FEW","base":1500},{"cover":"SCT","base":3000}],"obsTime":1783465200},"SBPS":{"icaoId":"SBPS","flightCategory":"VFR","rawOb":"METAR SBPS 072300Z 04004KT 9999 FEW020 23/20 Q1018","temp":23,"dewp":20,"wdir":40,"wspd":4,"visib":"6+","altim":1018,"clouds":[{"cover":"FEW","base":2000}],"obsTime":1783465200},"SBKG":{"icaoId":"SBKG","flightCategory":"VFR","rawOb":"METAR SBKG 072300Z 10006KT CAVOK 22/20 Q1019","temp":22,"dewp":20,"wdir":100,"wspd":6,"visib":"6+","altim":1019,"clouds":[],"obsTime":1783465200},"SBCO":{"icaoId":"SBCO","flightCategory":"VFR","rawOb":"METAR SBCO 072300Z 31005KT CAVOK 10/05 Q1021","temp":10,"dewp":5,"wdir":310,"wspd":5,"visib":"6+","altim":1021,"clouds":[],"obsTime":1783465200},"SBSM":{"icaoId":"SBSM","flightCategory":"VFR","rawOb":"METAR SBSM 072300Z 01003KT CAVOK 08/07 Q1021","temp":8,"dewp":7,"wdir":10,"wspd":3,"visib":"6+","altim":1021,"clouds":[],"obsTime":1783465200},"SBAX":{"icaoId":"SBAX","flightCategory":"VFR","rawOb":"METAR SBAX 072300Z 22005KT CAVOK 19/11 Q1022","temp":19,"dewp":11,"wdir":220,"wspd":5,"visib":"6+","altim":1022,"clouds":[],"obsTime":1783465200},"SBBH":{"icaoId":"SBBH","flightCategory":"VFR","rawOb":"METAR SBBH 072300Z 00000KT CAVOK 18/12 Q1021","temp":18,"dewp":12,"wdir":0,"wspd":0,"visib":"6+","altim":1021,"clouds":[],"obsTime":1783465200},"SBBU":{"icaoId":"SBBU","flightCategory":"VFR","rawOb":"METAR SBBU 072300Z 23003KT CAVOK 21/15 Q1020","temp":21,"dewp":15,"wdir":230,"wspd":3,"visib":"6+","altim":1020,"clouds":[],"obsTime":1783465200},"SBDN":{"icaoId":"SBDN","flightCategory":"VFR","rawOb":"METAR SBDN 072300Z 00000KT CAVOK 16/11 Q1020","temp":16,"dewp":11,"wdir":0,"wspd":0,"visib":"6+","altim":1020,"clouds":[],"obsTime":1783465200},"SBIP":{"icaoId":"SBIP","flightCategory":"VFR","rawOb":"METAR SBIP 072300Z AUTO VRB01KT CAVOK 20/18 Q1017","temp":20,"dewp":18,"wdir":"VRB","wspd":1,"visib":"6+","altim":1017,"clouds":[],"obsTime":1783465200},"SBSC":{"icaoId":"SBSC","flightCategory":"MVFR","rawOb":"METAR SBSC 072300Z 20010KT 8000 SCT015 BKN028 OVC039 21/18 Q1020","temp":21,"dewp":18,"wdir":200,"wspd":10,"visib":4.97,"altim":1020,"clouds":[{"cover":"SCT","base":1500},{"cover":"BKN","base":2800},{"cover":"OVC","base":3900}],"obsTime":1783465200},"SBSR":{"icaoId":"SBSR","flightCategory":"VFR","rawOb":"METAR SBSR 072300Z 24004KT 9999 FEW035 20/15 Q1020","temp":20,"dewp":15,"wdir":240,"wspd":4,"visib":"6+","altim":1020,"clouds":[{"cover":"FEW","base":3500}],"obsTime":1783465200},"SBTU":{"icaoId":"SBTU","flightCategory":"VFR","rawOb":"METAR SBTU 072300Z AUTO 29013KT 250V330 9999 // FEW015/// SCT042/// 26/23 Q1016","temp":26,"dewp":23,"wdir":290,"wspd":13,"visib":"6+","altim":1016,"clouds":[{"cover":"FEW","base":1500},{"cover":"SCT","base":4200}],"obsTime":1783465200},"SBOI":{"icaoId":"SBOI","flightCategory":"VFR","rawOb":"METAR SBOI 072300Z AUTO VRB01KT CAVOK 27/25 Q1014","temp":27,"dewp":25,"wdir":"VRB","wspd":1,"visib":"6+","altim":1014,"clouds":[],"obsTime":1783465200},"SBSJ":{"icaoId":"SBSJ","flightCategory":"MVFR","rawOb":"METAR SBSJ 072300Z 24003KT 190V280 9999 OVC023 16/13 Q1022","temp":16,"dewp":13,"wdir":240,"wspd":3,"visib":"6+","altim":1022,"clouds":[{"cover":"OVC","base":2300}],"obsTime":1783465200},"SBPL":{"icaoId":"SBPL","flightCategory":"VFR","rawOb":"METAR SBPL 072300Z 10006KT CAVOK 27/15 Q1017","temp":27,"dewp":15,"wdir":100,"wspd":6,"visib":"6+","altim":1017,"clouds":[],"obsTime":1783465200},"SBAR":{"icaoId":"SBAR","flightCategory":"VFR","rawOb":"METAR SBAR 072300Z 11002KT 9999 FEW026 25/20 Q1017","temp":25,"dewp":20,"wdir":110,"wspd":2,"visib":"6+","altim":1017,"clouds":[{"cover":"FEW","base":2600}],"obsTime":1783465200},"SBCA":{"icaoId":"SBCA","flightCategory":"VFR","rawOb":"METAR SBCA 072300Z 17007KT CAVOK 09/05 Q1021","temp":9,"dewp":5,"wdir":170,"wspd":7,"visib":"6+","altim":1021,"clouds":[],"obsTime":1783465200},"SBTT":{"icaoId":"SBTT","flightCategory":"VFR","rawOb":"METAR SBTT 072300Z 32003KT 9999 FEW020 BKN100 26/24 Q1013","temp":26,"dewp":24,"wdir":320,"wspd":3,"visib":"6+","altim":1013,"clouds":[{"cover":"FEW","base":2000},{"cover":"BKN","base":10000}],"obsTime":1783465200},"SBVH":{"icaoId":"SBVH","flightCategory":"VFR","rawOb":"METAR SBVH 072300Z 19006KT CAVOK 23/19 Q1018","temp":23,"dewp":19,"wdir":190,"wspd":6,"visib":"6+","altim":1018,"clouds":[],"obsTime":1783465200},"SBLE":{"icaoId":"SBLE","flightCategory":"VFR","rawOb":"METAR SBLE 072300Z AUTO 04003KT CAVOK ///// Q1019","temp":null,"dewp":null,"wdir":40,"wspd":3,"visib":"6+","altim":1019,"clouds":[],"obsTime":1783465200},"SBJP":{"icaoId":"SBJP","flightCategory":"VFR","rawOb":"METAR SBJP 072300Z 14010KT 9999 FEW020 BKN070 25/22 Q1017","temp":25,"dewp":22,"wdir":140,"wspd":10,"visib":"6+","altim":1017,"clouds":[{"cover":"FEW","base":2000},{"cover":"BKN","base":7000}],"obsTime":1783465200},"SBAN":{"icaoId":"SBAN","flightCategory":"VFR","rawOb":"METAR SBAN 072300Z 18006KT CAVOK 21/09 Q1022","temp":21,"dewp":9,"wdir":180,"wspd":6,"visib":"6+","altim":1022,"clouds":[],"obsTime":1783465200},"SBJV":{"icaoId":"SBJV","flightCategory":"MVFR","rawOb":"METAR SBJV 072300Z 19001KT 9999 FEW010 BKN015 15/13 Q1021","temp":15,"dewp":13,"wdir":190,"wspd":1,"visib":"6+","altim":1021,"clouds":[{"cover":"FEW","base":1000},{"cover":"BKN","base":1500}],"obsTime":1783465200},"SBNM":{"icaoId":"SBNM","flightCategory":"VFR","rawOb":"METAR SBNM 072300Z AUTO 08003KT CAVOK 11/03 Q1022","temp":11,"dewp":3,"wdir":80,"wspd":3,"visib":"6+","altim":1022,"clouds":[],"obsTime":1783465200},"SBPF":{"icaoId":"SBPF","flightCategory":"VFR","rawOb":"METAR SBPF 072300Z 00000KT CAVOK 06/03 Q1022","temp":6,"dewp":3,"wdir":0,"wspd":0,"visib":"6+","altim":1022,"clouds":[],"obsTime":1783465200},"SBJR":{"icaoId":"SBJR","flightCategory":"MVFR","rawOb":"METAR SBJR 072300Z 22007KT 9999 BKN018 BKN030 22/18 Q1019","temp":22,"dewp":18,"wdir":220,"wspd":7,"visib":"6+","altim":1019,"clouds":[{"cover":"BKN","base":1800},{"cover":"BKN","base":3000}],"obsTime":1783465200},"SBLS":{"icaoId":"SBLS","flightCategory":"VFR","rawOb":"METAR SBLS 072300Z 24004KT CAVOK 21/09 Q1020","temp":21,"dewp":9,"wdir":240,"wspd":4,"visib":"6+","altim":1020,"clouds":[],"obsTime":1783465200},"SBMT":{"icaoId":"SBMT","flightCategory":"MVFR","rawOb":"METAR SBMT 072300Z 10006KT 9999 SCT011 OVC013 15/11 Q1022","temp":15,"dewp":11,"wdir":100,"wspd":6,"visib":"6+","altim":1022,"clouds":[{"cover":"SCT","base":1100},{"cover":"OVC","base":1300}],"obsTime":1783465200},"SBTA":{"icaoId":"SBTA","flightCategory":"MVFR","rawOb":"METAR SBTA 072300Z 17004KT 9999 BKN025 SCT090 17/14 Q1020","temp":17,"dewp":14,"wdir":170,"wspd":4,"visib":"6+","altim":1020,"clouds":[{"cover":"BKN","base":2500},{"cover":"SCT","base":9000}],"obsTime":1783465200},"SBAF":{"icaoId":"SBAF","flightCategory":"MVFR","rawOb":"METAR SBAF 072300Z 23006KT 9999 BKN026 OVC036 21/19 Q1019","temp":21,"dewp":19,"wdir":230,"wspd":6,"visib":"6+","altim":1019,"clouds":[{"cover":"BKN","base":2600},{"cover":"OVC","base":3600}],"obsTime":1783465200}}}