{"updated":1776029403,"count":83,"data":{"SBSV":{"icaoId":"SBSV","flightCategory":"VFR","rawOb":"METAR SBSV 122000Z 22004KT 180V250 9000 VCSH SCT021 FEW023TCU BKN070 26/24 Q1013","temp":26,"dewp":24,"wdir":220,"wspd":4,"visib":5.59,"altim":1013,"clouds":[{"cover":"SCT","base":2100},{"cover":"FEW","base":2300},{"cover":"BKN","base":7000}],"obsTime":1776024000},"SBBE":{"icaoId":"SBBE","flightCategory":"MVFR","rawOb":"SPECI SBBE 121942Z 34006KT 9999 2000SW -RA FEW011 BKN025 FEW030TCU BKN035 25/25 Q1009 RETSRA","temp":25,"dewp":25,"wdir":340,"wspd":6,"visib":"6+","altim":1009,"clouds":[{"cover":"FEW","base":1100},{"cover":"BKN","base":2500},{"cover":"FEW","base":3000},{"cover":"BKN","base":3500}],"obsTime":1776022920},"SBCZ":{"icaoId":"SBCZ","flightCategory":"VFR","rawOb":"METAR SBCZ 122000Z 31004KT 260V030 9999 SCT027 30/24 Q1008","temp":30,"dewp":24,"wdir":310,"wspd":4,"visib":"6+","altim":1008,"clouds":[{"cover":"SCT","base":2700}],"obsTime":1776024000},"SBBR":{"icaoId":"SBBR","flightCategory":"VFR","rawOb":"METAR SBBR 122000Z 14011KT 9999 SCT040 FEW045TCU 26/16 Q1018","temp":26,"dewp":16,"wdir":140,"wspd":11,"visib":"6+","altim":1018,"clouds":[{"cover":"SCT","base":4000},{"cover":"FEW","base":4500}],"obsTime":1776024000},"SBBV":{"icaoId":"SBBV","flightCategory":"VFR","rawOb":"METAR SBBV 122000Z 12006KT 9999 SCT040 FEW045TCU 33/20 Q1008","temp":33,"dewp":20,"wdir":120,"wspd":6,"visib":"6+","altim":1008,"clouds":[{"cover":"SCT","base":4000},{"cover":"FEW","base":4500}],"obsTime":1776024000},"SBCB":{"icaoId":"SBCB","flightCategory":"VFR","rawOb":"METAR SBCB 122000Z 10008KT 9999 FEW025 SCT050 26/21 Q1019","temp":26,"dewp":21,"wdir":100,"wspd":8,"visib":"6+","altim":1019,"clouds":[{"cover":"FEW","base":2500},{"cover":"SCT","base":5000}],"obsTime":1776024000},"SBCF":{"icaoId":"SBCF","flightCategory":"VFR","rawOb":"METAR SBCF 122000Z 09009KT 9999 SCT036 24/16 Q1020","temp":24,"dewp":16,"wdir":90,"wspd":9,"visib":"6+","altim":1020,"clouds":[{"cover":"SCT","base":3600}],"obsTime":1776024000},"SBCG":{"icaoId":"SBCG","flightCategory":"VFR","rawOb":"METAR SBCG 122000Z 33006KT 9999 VCSH VCTS SCT045 FEW050CB SCT100 30/21 Q1013","temp":30,"dewp":21,"wdir":330,"wspd":6,"visib":"6+","altim":1013,"clouds":[{"cover":"SCT","base":4500},{"cover":"FEW","base":5000},{"cover":"SCT","base":10000}],"obsTime":1776024000},"SBCP":{"icaoId":"SBCP","flightCategory":"VFR","rawOb":"METAR SBCP 122000Z 18008KT 9999 FEW020 SCT040 25/21 Q1018","temp":25,"dewp":21,"wdir":180,"wspd":8,"visib":"6+","altim":1018,"clouds":[{"cover":"FEW","base":2000},{"cover":"SCT","base":4000}],"obsTime":1776024000},"SBCR":{"icaoId":"SBCR","flightCategory":"VFR","rawOb":"METAR SBCR 122000Z 01004KT 300V060 9999 FEW035 BKN100 32/24 Q1009","temp":32,"dewp":24,"wdir":10,"wspd":4,"visib":"6+","altim":1009,"clouds":[{"cover":"FEW","base":3500},{"cover":"BKN","base":10000}],"obsTime":1776024000},"SBCT":{"icaoId":"SBCT","flightCategory":"VFR","rawOb":"METAR SBCT 122000Z 10007KT 9999 FEW030 20/16 Q1022","temp":20,"dewp":16,"wdir":100,"wspd":7,"visib":"6+","altim":1022,"clouds":[{"cover":"FEW","base":3000}],"obsTime":1776024000},"SBAT":{"icaoId":"SBAT","flightCategory":"VFR","rawOb":"METAR SBAT 122000Z 15003KT 9999 VCSH FEW030 FEW035TCU SCT100 26/26 Q1010","temp":26,"dewp":26,"wdir":150,"wspd":3,"visib":"6+","altim":1010,"clouds":[{"cover":"FEW","base":3000},{"cover":"FEW","base":3500},{"cover":"SCT","base":10000}],"obsTime":1776024000},"SBEG":{"icaoId":"SBEG","flightCategory":"VFR","rawOb":"METAR SBEG 122000Z 03004KT 9999 FEW020 FEW025TCU SCT100 30/24 Q1008","temp":30,"dewp":24,"wdir":30,"wspd":4,"visib":"6+","altim":1008,"clouds":[{"cover":"FEW","base":2000},{"cover":"FEW","base":2500},{"cover":"SCT","base":10000}],"obsTime":1776024000},"SBFI":{"icaoId":"SBFI","flightCategory":"VFR","rawOb":"METAR SBFI 122000Z 12011KT 9999 SCT005 OVC070 19/19 Q1017","temp":19,"dewp":19,"wdir":120,"wspd":11,"visib":"6+","altim":1017,"clouds":[{"cover":"SCT","base":500},{"cover":"OVC","base":7000}],"obsTime":1776024000},"SBFL":{"icaoId":"SBFL","flightCategory":"VFR","rawOb":"METAR SBFL 122000Z 03007KT 9999 FEW025 SCT060 25/19 Q1017","temp":25,"dewp":19,"wdir":30,"wspd":7,"visib":"6+","altim":1017,"clouds":[{"cover":"FEW","base":2500},{"cover":"SCT","base":6000}],"obsTime":1776024000},"SBFZ":{"icaoId":"SBFZ","flightCategory":"VFR","rawOb":"METAR SBFZ 122000Z 10006KT 9999 SCT020 BKN090 27/25 Q1010","temp":27,"dewp":25,"wdir":100,"wspd":6,"visib":"6+","altim":1010,"clouds":[{"cover":"SCT","base":2000},{"cover":"BKN","base":9000}],"obsTime":1776024000},"SBGL":{"icaoId":"SBGL","flightCategory":"VFR","rawOb":"METAR SBGL 122000Z 15011KT 9999 FEW020 SCT040 26/20 Q1017","temp":26,"dewp":20,"wdir":150,"wspd":11,"visib":"6+","altim":1017,"clouds":[{"cover":"FEW","base":2000},{"cover":"SCT","base":4000}],"obsTime":1776024000},"SBGO":{"icaoId":"SBGO","flightCategory":"VFR","rawOb":"METAR SBGO 122000Z 09010KT 9999 FEW048 29/19 Q1016","temp":29,"dewp":19,"wdir":90,"wspd":10,"visib":"6+","altim":1016,"clouds":[{"cover":"FEW","base":4800}],"obsTime":1776024000},"SBGR":{"icaoId":"SBGR","flightCategory":"VFR","rawOb":"METAR SBGR 122000Z 15008KT CAVOK 24/17 Q1020","temp":24,"dewp":17,"wdir":150,"wspd":8,"visib":"6+","altim":1020,"clouds":[],"obsTime":1776024000},"SBHT":{"icaoId":"SBHT","flightCategory":"VFR","rawOb":"METAR SBHT 122000Z 11004KT 9999 SCT030 32/24 Q1008","temp":32,"dewp":24,"wdir":110,"wspd":4,"visib":"6+","altim":1008,"clouds":[{"cover":"SCT","base":3000}],"obsTime":1776024000},"SBIL":{"icaoId":"SBIL","flightCategory":"VFR","rawOb":"METAR SBIL 122000Z 20010KT 9999 SCT025 28/24 Q1014","temp":28,"dewp":24,"wdir":200,"wspd":10,"visib":"6+","altim":1014,"clouds":[{"cover":"SCT","base":2500}],"obsTime":1776024000},"SBJU":{"icaoId":"SBJU","flightCategory":"VFR","rawOb":"METAR SBJU 122000Z 15005KT CAVOK 30/20 Q1011","temp":30,"dewp":20,"wdir":150,"wspd":5,"visib":"6+","altim":1011,"clouds":[],"obsTime":1776024000},"SBKP":{"icaoId":"SBKP","flightCategory":"VFR","rawOb":"METAR SBKP 122000Z 22006KT 160V260 CAVOK 29/13 Q1018","temp":29,"dewp":13,"wdir":220,"wspd":6,"visib":"6+","altim":1018,"clouds":[],"obsTime":1776024000},"SBLO":{"icaoId":"SBLO","flightCategory":"VFR","rawOb":"METAR SBLO 122000Z 10008KT 9999 FEW040 BKN100 28/19 Q1017","temp":28,"dewp":19,"wdir":100,"wspd":8,"visib":"6+","altim":1017,"clouds":[{"cover":"FEW","base":4000},{"cover":"BKN","base":10000}],"obsTime":1776024000},"SBMA":{"icaoId":"SBMA","flightCategory":"VFR","rawOb":"METAR SBMA 122000Z 12003KT 9999 SCT025 32/24 Q1009","temp":32,"dewp":24,"wdir":120,"wspd":3,"visib":"6+","altim":1009,"clouds":[{"cover":"SCT","base":2500}],"obsTime":1776024000},"SBME":{"icaoId":"SBME","flightCategory":"VFR","rawOb":"METAR SBME 122000Z 16003KT 9999 FEW025 BKN080 26/20 Q1018","temp":26,"dewp":20,"wdir":160,"wspd":3,"visib":"6+","altim":1018,"clouds":[{"cover":"FEW","base":2500},{"cover":"BKN","base":8000}],"obsTime":1776024000},"SBMG":{"icaoId":"SBMG","flightCategory":"VFR","rawOb":"METAR SBMG 122000Z 04003KT 350V070 9999 SCT045 FEW050TCU 29/20 Q1015","temp":29,"dewp":20,"wdir":40,"wspd":3,"visib":"6+","altim":1015,"clouds":[{"cover":"SCT","base":4500},{"cover":"FEW","base":5000}],"obsTime":1776024000},"SBMK":{"icaoId":"SBMK","flightCategory":"VFR","rawOb":"METAR SBMK 122000Z 17010KT 9999 VCSH SCT044 FEW046TCU 26/19 Q1017","temp":26,"dewp":19,"wdir":170,"wspd":10,"visib":"6+","altim":1017,"clouds":[{"cover":"SCT","base":4400},{"cover":"FEW","base":4600}],"obsTime":1776024000},"SBMO":{"icaoId":"SBMO","flightCategory":"VFR","rawOb":"METAR SBMO 122000Z 11008KT 9999 FEW023 28/23 Q1012","temp":28,"dewp":23,"wdir":110,"wspd":8,"visib":"6+","altim":1012,"clouds":[{"cover":"FEW","base":2300}],"obsTime":1776024000},"SBMQ":{"icaoId":"SBMQ","flightCategory":"MVFR","rawOb":"METAR SBMQ 122000Z 04013KT 9999 VCSH BKN015 FEW032TCU BKN035 29/26 Q1010 RETS","temp":29,"dewp":26,"wdir":40,"wspd":13,"visib":"6+","altim":1010,"clouds":[{"cover":"BKN","base":1500},{"cover":"FEW","base":3200},{"cover":"BKN","base":3500}],"obsTime":1776024000},"SBNT":{"icaoId":"SBNT","flightCategory":"IFR","rawOb":"METAR SBNT 122000Z 14008KT 4000 -RA BR FEW005 BKN015 FEW025TCU BKN100 24/24 Q1011","temp":24,"dewp":24,"wdir":140,"wspd":8,"visib":2.49,"altim":1011,"clouds":[{"cover":"FEW","base":500},{"cover":"BKN","base":1500},{"cover":"FEW","base":2500},{"cover":"BKN","base":10000}],"obsTime":1776024000},"SBPA":{"icaoId":"SBPA","flightCategory":"VFR","rawOb":"METAR SBPA 122000Z 30004KT CAVOK 25/18 Q1016","temp":25,"dewp":18,"wdir":300,"wspd":4,"visib":"6+","altim":1016,"clouds":[],"obsTime":1776024000},"SBPJ":{"icaoId":"SBPJ","flightCategory":"VFR","rawOb":"METAR SBPJ 122000Z 23005KT 9999 SCT033 31/25 Q1011","temp":31,"dewp":25,"wdir":230,"wspd":5,"visib":"6+","altim":1011,"clouds":[{"cover":"SCT","base":3300}],"obsTime":1776024000},"SBPV":{"icaoId":"SBPV","flightCategory":"VFR","rawOb":"METAR SBPV 122000Z 19003KT 9999 VCSH SCT030 FEW035TCU 30/24 Q1007","temp":30,"dewp":24,"wdir":190,"wspd":3,"visib":"6+","altim":1007,"clouds":[{"cover":"SCT","base":3000},{"cover":"FEW","base":3500}],"obsTime":1776024000},"SBRB":{"icaoId":"SBRB","flightCategory":"MVFR","rawOb":"METAR SBRB 122000Z 21005KT 8000 2000NE -TSRA SCT005 FEW034CB SCT045 26/24 Q1009","temp":26,"dewp":24,"wdir":210,"wspd":5,"visib":4.97,"altim":1009,"clouds":[{"cover":"SCT","base":500},{"cover":"FEW","base":3400},{"cover":"SCT","base":4500}],"obsTime":1776024000},"SBRF":{"icaoId":"SBRF","flightCategory":"IFR","rawOb":"METAR SBRF 122000Z 22003KT 3500 -RA BR BKN008 BKN014 OVC050 24/23 Q1011 RERA","temp":24,"dewp":23,"wdir":220,"wspd":3,"visib":2.17,"altim":1011,"clouds":[{"cover":"BKN","base":800},{"cover":"BKN","base":1400},{"cover":"OVC","base":5000}],"obsTime":1776024000},"SBSG":{"icaoId":"SBSG","flightCategory":"MVFR","rawOb":"METAR SBSG 122000Z 13003KT 100V180 5000 -RA BKN010 FEW020TCU BKN070 24/24 Q1011 RERA","temp":24,"dewp":24,"wdir":130,"wspd":3,"visib":3.11,"altim":1011,"clouds":[{"cover":"BKN","base":1000},{"cover":"FEW","base":2000},{"cover":"BKN","base":7000}],"obsTime":1776024000},"SBSL":{"icaoId":"SBSL","flightCategory":"VFR","rawOb":"METAR SBSL 122000Z 04009KT 9999 FEW035 SCT080 29/25 Q1009","temp":29,"dewp":25,"wdir":40,"wspd":9,"visib":"6+","altim":1009,"clouds":[{"cover":"FEW","base":3500},{"cover":"SCT","base":8000}],"obsTime":1776024000},"SBSN":{"icaoId":"SBSN","flightCategory":"VFR","rawOb":"METAR SBSN 122000Z 07006KT 020V080 9999 FEW023 FEW040TCU 31/25 Q1008","temp":31,"dewp":25,"wdir":70,"wspd":6,"visib":"6+","altim":1008,"clouds":[{"cover":"FEW","base":2300},{"cover":"FEW","base":4000}],"obsTime":1776024000},"SBSP":{"icaoId":"SBSP","flightCategory":"VFR","rawOb":"METAR SBSP 122000Z 18011KT CAVOK 21/17 Q1021","temp":21,"dewp":17,"wdir":180,"wspd":11,"visib":"6+","altim":1021,"clouds":[],"obsTime":1776024000},"SBTE":{"icaoId":"SBTE","flightCategory":"VFR","rawOb":"METAR SBTE 122000Z VRB02KT 9999 FEW025 FEW025TCU 32/23 Q1008","temp":32,"dewp":23,"wdir":"VRB","wspd":2,"visib":"6+","altim":1008,"clouds":[{"cover":"FEW","base":2500},{"cover":"FEW","base":2500}],"obsTime":1776024000},"SBUL":{"icaoId":"SBUL","flightCategory":"VFR","rawOb":"METAR SBUL 122000Z 06007KT 9999 SCT025 SCT040 26/17 Q1019","temp":26,"dewp":17,"wdir":60,"wspd":7,"visib":"6+","altim":1019,"clouds":[{"cover":"SCT","base":2500},{"cover":"SCT","base":4000}],"obsTime":1776024000},"SBUR":{"icaoId":"SBUR","flightCategory":"VFR","rawOb":"METAR SBUR 122000Z 08004KT CAVOK 28/16 Q1018","temp":28,"dewp":16,"wdir":80,"wspd":4,"visib":"6+","altim":1018,"clouds":[],"obsTime":1776024000},"SBVT":{"icaoId":"SBVT","flightCategory":"VFR","rawOb":"METAR SBVT 122000Z 19005KT 9999 SCT020 BKN080 26/21 Q1017","temp":26,"dewp":21,"wdir":190,"wspd":5,"visib":"6+","altim":1017,"clouds":[{"cover":"SCT","base":2000},{"cover":"BKN","base":8000}],"obsTime":1776024000},"SBPP":{"icaoId":"SBPP","flightCategory":"MVFR","rawOb":"METAR SBPP 122000Z 03006KT 8000 -TSRA BKN020 FEW025CB 28/26 Q1014","temp":28,"dewp":26,"wdir":30,"wspd":6,"visib":4.97,"altim":1014,"clouds":[{"cover":"BKN","base":2000},{"cover":"FEW","base":2500}],"obsTime":1776024000},"SBAR":{"icaoId":"SBAR","flightCategory":"VFR","rawOb":"METAR SBAR 122000Z 14009KT 9999 FEW021 SCT070 29/23 Q1012","temp":29,"dewp":23,"wdir":140,"wspd":9,"visib":"6+","altim":1012,"clouds":[{"cover":"FEW","base":2100},{"cover":"SCT","base":7000}],"obsTime":1776024000},"SBAX":{"icaoId":"SBAX","flightCategory":"VFR","rawOb":"METAR SBAX 122000Z AUTO 10007KT 070V130 CAVOK 25/16 Q1020","temp":25,"dewp":16,"wdir":100,"wspd":7,"visib":"6+","altim":1020,"clouds":[],"obsTime":1776024000},"SBBH":{"icaoId":"SBBH","flightCategory":"VFR","rawOb":"METAR SBBH 122000Z 05006KT 9999 FEW040 25/17 Q1020","temp":25,"dewp":17,"wdir":50,"wspd":6,"visib":"6+","altim":1020,"clouds":[{"cover":"FEW","base":4000}],"obsTime":1776024000},"SBBU":{"icaoId":"SBBU","flightCategory":"VFR","rawOb":"METAR SBBU 122000Z 12003KT 9999 FEW045 29/19 Q1017","temp":29,"dewp":19,"wdir":120,"wspd":3,"visib":"6+","altim":1017,"clouds":[{"cover":"FEW","base":4500}],"obsTime":1776024000},"SBCA":{"icaoId":"SBCA","flightCategory":"LIFR","rawOb":"METAR SBCA 122000Z 16014KT 9999 -TSRA BKN003 SCT020 FEW035CB BKN080 16/16 Q1022","temp":16,"dewp":16,"wdir":160,"wspd":14,"visib":"6+","altim":1022,"clouds":[{"cover":"BKN","base":300},{"cover":"SCT","base":2000},{"cover":"FEW","base":3500},{"cover":"BKN","base":8000}],"obsTime":1776024000},"SBCJ":{"icaoId":"SBCJ","flightCategory":"VFR","rawOb":"METAR SBCJ 122000Z 09003KT 9999 FEW015 26/22 Q1014","temp":26,"dewp":22,"wdir":90,"wspd":3,"visib":"6+","altim":1014,"clouds":[{"cover":"FEW","base":1500}],"obsTime":1776024000},"SBCO":{"icaoId":"SBCO","flightCategory":"VFR","rawOb":"METAR SBCO 122000Z 30004KT CAVOK 25/18 Q1016","temp":25,"dewp":18,"wdir":300,"wspd":4,"visib":"6+","altim":1016,"clouds":[],"obsTime":1776024000},"SBDN":{"icaoId":"SBDN","flightCategory":"VFR","rawOb":"METAR SBDN 122000Z 09005KT 9999 FEW040 31/21 Q1015","temp":31,"dewp":21,"wdir":90,"wspd":5,"visib":"6+","altim":1015,"clouds":[{"cover":"FEW","base":4000}],"obsTime":1776024000},"SBES":{"icaoId":"SBES","flightCategory":"VFR","rawOb":"METAR SBES 122000Z VRB07KT 9999 FEW020 24/// Q1019","temp":null,"dewp":null,"wdir":"VRB","wspd":7,"visib":"6+","altim":1019,"clouds":[{"cover":"FEW","base":2000}],"obsTime":1776024000},"SBIP":{"icaoId":"SBIP","flightCategory":"VFR","rawOb":"METAR SBIP 122000Z AUTO 23002KT CAVOK 26/20 Q1017","temp":26,"dewp":20,"wdir":230,"wspd":2,"visib":"6+","altim":1017,"clouds":[],"obsTime":1776024000},"SBKG":{"icaoId":"SBKG","flightCategory":"IFR","rawOb":"METAR SBKG 122000Z 11006KT 4000 -RA BR BKN018 OVC080 21/21 Q1014","temp":21,"dewp":21,"wdir":110,"wspd":6,"visib":2.49,"altim":1014,"clouds":[{"cover":"BKN","base":1800},{"cover":"OVC","base":8000}],"obsTime":1776024000},"SBOI":{"icaoId":"SBOI","flightCategory":"VFR","rawOb":"METAR SBOI 122000Z AUTO 04013KT 360V060 9999 SCT032 31/24 Q1009","temp":31,"dewp":24,"wdir":40,"wspd":13,"visib":"6+","altim":1009,"clouds":[{"cover":"SCT","base":3200}],"obsTime":1776024000},"SBPB":{"icaoId":"SBPB","flightCategory":"VFR","rawOb":"METAR SBPB 122000Z 05010KT 9999 FEW016 FEW025TCU BKN080 29/25 Q1009","temp":29,"dewp":25,"wdir":50,"wspd":10,"visib":"6+","altim":1009,"clouds":[{"cover":"FEW","base":1600},{"cover":"FEW","base":2500},{"cover":"BKN","base":8000}],"obsTime":1776024000},"SBPL":{"icaoId":"SBPL","flightCategory":"VFR","rawOb":"METAR SBPL 122000Z 13007KT 9999 SCT025 32/20 Q1011","temp":32,"dewp":20,"wdir":130,"wspd":7,"visib":"6+","altim":1011,"clouds":[{"cover":"SCT","base":2500}],"obsTime":1776024000},"SBPS":{"icaoId":"SBPS","flightCategory":"VFR","rawOb":"METAR SBPS 122000Z VRB05KT 9999 SCT018 26/23 Q1015","temp":26,"dewp":23,"wdir":"VRB","wspd":5,"visib":"6+","altim":1015,"clouds":[{"cover":"SCT","base":1800}],"obsTime":1776024000},"SBSC":{"icaoId":"SBSC","flightCategory":"VFR","rawOb":"METAR SBSC 122000Z 13008KT 9999 FEW030 SCT070 26/21 Q1018","temp":26,"dewp":21,"wdir":130,"wspd":8,"visib":"6+","altim":1018,"clouds":[{"cover":"FEW","base":3000},{"cover":"SCT","base":7000}],"obsTime":1776024000},"SBSJ":{"icaoId":"SBSJ","flightCategory":"VFR","rawOb":"METAR SBSJ 122000Z 12009KT 9999 SCT030 24/18 Q1019","temp":24,"dewp":18,"wdir":120,"wspd":9,"visib":"6+","altim":1019,"clouds":[{"cover":"SCT","base":3000}],"obsTime":1776024000},"SBSM":{"icaoId":"SBSM","flightCategory":"MVFR","rawOb":"METAR SBSM 122000Z 34008KT 290V020 9999 BKN030 SCT100 25/18 Q1015","temp":25,"dewp":18,"wdir":340,"wspd":8,"visib":"6+","altim":1015,"clouds":[{"cover":"BKN","base":3000},{"cover":"SCT","base":10000}],"obsTime":1776024000},"SBSR":{"icaoId":"SBSR","flightCategory":"VFR","rawOb":"METAR SBSR 122000Z 36002KT 9999 SCT030 29/18 Q1016","temp":29,"dewp":18,"wdir":360,"wspd":2,"visib":"6+","altim":1016,"clouds":[{"cover":"SCT","base":3000}],"obsTime":1776024000},"SBTF":{"icaoId":"SBTF","flightCategory":"VFR","rawOb":"METAR SBTF 122000Z 06003KT 9999 -RA SCT008 OVC080 25/24 Q1008","temp":25,"dewp":24,"wdir":60,"wspd":3,"visib":"6+","altim":1008,"clouds":[{"cover":"SCT","base":800},{"cover":"OVC","base":8000}],"obsTime":1776024000},"SBTT":{"icaoId":"SBTT","flightCategory":"VFR","rawOb":"METAR SBTT 122000Z 36003KT 9999 SCT030 SCT080 27/23 Q1009","temp":27,"dewp":23,"wdir":360,"wspd":3,"visib":"6+","altim":1009,"clouds":[{"cover":"SCT","base":3000},{"cover":"SCT","base":8000}],"obsTime":1776024000},"SBUY":{"icaoId":"SBUY","flightCategory":"VFR","rawOb":"METAR SBUY 122000Z 34003KT 9999 TS SCT025 FEW030CB BKN100 30/25 Q1006","temp":30,"dewp":25,"wdir":340,"wspd":3,"visib":"6+","altim":1006,"clouds":[{"cover":"SCT","base":2500},{"cover":"FEW","base":3000},{"cover":"BKN","base":10000}],"obsTime":1776024000},"SBVH":{"icaoId":"SBVH","flightCategory":"VFR","rawOb":"METAR SBVH 122000Z 27003KT 9999 SCT030 FEW035TCU SCT081 25/24 Q1012","temp":25,"dewp":24,"wdir":270,"wspd":3,"visib":"6+","altim":1012,"clouds":[{"cover":"SCT","base":3000},{"cover":"FEW","base":3500},{"cover":"SCT","base":8100}],"obsTime":1776024000},"SBCC":{"icaoId":"SBCC","flightCategory":"VFR","rawOb":"METAR SBCC 122000Z 27006KT 9999 SCT030 FEW035TCU SCT100 27/22 Q1011","temp":27,"dewp":22,"wdir":270,"wspd":6,"visib":"6+","altim":1011,"clouds":[{"cover":"SCT","base":3000},{"cover":"FEW","base":3500},{"cover":"SCT","base":10000}],"obsTime":1776024000},"SBST":{"icaoId":"SBST","flightCategory":"VFR","rawOb":"METAR SBST 122000Z 14004KT 9999 SCT025 25/19 Q1017","temp":25,"dewp":19,"wdir":140,"wspd":4,"visib":"6+","altim":1017,"clouds":[{"cover":"SCT","base":2500}],"obsTime":1776024000},"SBGW":{"icaoId":"SBGW","flightCategory":"VFR","rawOb":"METAR SBGW 122000Z 02005KT 340V070 9999 FEW030 26/15 Q1018","temp":26,"dewp":15,"wdir":20,"wspd":5,"visib":"6+","altim":1018,"clouds":[{"cover":"FEW","base":3000}],"obsTime":1776024000},"SBTA":{"icaoId":"SBTA","flightCategory":"VFR","rawOb":"METAR SBTA 122000Z 04004KT 9999 FEW035 SCT060 26/15 Q1018","temp":26,"dewp":15,"wdir":40,"wspd":4,"visib":"6+","altim":1018,"clouds":[{"cover":"FEW","base":3500},{"cover":"SCT","base":6000}],"obsTime":1776024000},"SBLE":{"icaoId":"SBLE","flightCategory":"VFR","rawOb":"METAR SBLE 122000Z AUTO 15005KT 120V180 CAVOK 28/20 Q1015","temp":28,"dewp":20,"wdir":150,"wspd":5,"visib":"6+","altim":1015,"clouds":[],"obsTime":1776024000},"SBIH":{"icaoId":"SBIH","flightCategory":"VFR","rawOb":"METAR SBIH 122000Z 06005KT 9999 FEW020 FEW025TCU 32/25 Q1007","temp":32,"dewp":25,"wdir":60,"wspd":5,"visib":"6+","altim":1007,"clouds":[{"cover":"FEW","base":2000},{"cover":"FEW","base":2500}],"obsTime":1776024000},"SBJR":{"icaoId":"SBJR","flightCategory":"VFR","rawOb":"METAR SBJR 122000Z 11008KT 9999 SCT035 27/20 Q1018","temp":27,"dewp":20,"wdir":110,"wspd":8,"visib":"6+","altim":1018,"clouds":[{"cover":"SCT","base":3500}],"obsTime":1776024000},"SBJV":{"icaoId":"SBJV","flightCategory":"VFR","rawOb":"METAR SBJV 122000Z 05005KT 9999 FEW020 26/20 Q1018","temp":26,"dewp":20,"wdir":50,"wspd":5,"visib":"6+","altim":1018,"clouds":[{"cover":"FEW","base":2000}],"obsTime":1776024000},"SBLS":{"icaoId":"SBLS","flightCategory":"VFR","rawOb":"METAR SBLS 122000Z 11006KT 040V120 9999 FEW045 24/17 Q1020","temp":24,"dewp":17,"wdir":110,"wspd":6,"visib":"6+","altim":1020,"clouds":[{"cover":"FEW","base":4500}],"obsTime":1776024000},"SBAN":{"icaoId":"SBAN","flightCategory":"VFR","rawOb":"METAR SBAN 122000Z 16008KT 9999 VCSH SCT035 FEW040TCU 26/17 Q1019","temp":26,"dewp":17,"wdir":160,"wspd":8,"visib":"6+","altim":1019,"clouds":[{"cover":"SCT","base":3500},{"cover":"FEW","base":4000}],"obsTime":1776024000},"SBMT":{"icaoId":"SBMT","flightCategory":"VFR","rawOb":"METAR SBMT 122000Z 15009KT CAVOK 23/17 Q1020","temp":23,"dewp":17,"wdir":150,"wspd":9,"visib":"6+","altim":1020,"clouds":[],"obsTime":1776024000},"SBAF":{"icaoId":"SBAF","flightCategory":"VFR","rawOb":"METAR SBAF 122000Z 13008KT 9999 SCT025 SCT060 26/21 Q1018","temp":26,"dewp":21,"wdir":130,"wspd":8,"visib":"6+","altim":1018,"clouds":[{"cover":"SCT","base":2500},{"cover":"SCT","base":6000}],"obsTime":1776024000},"SBJP":{"icaoId":"SBJP","flightCategory":"MVFR","rawOb":"METAR SBJP 122000Z 16004KT 9999 -RA SCT006 BKN010 BKN070 24/24 Q1012 RERA","temp":24,"dewp":24,"wdir":160,"wspd":4,"visib":"6+","altim":1012,"clouds":[{"cover":"SCT","base":600},{"cover":"BKN","base":1000},{"cover":"BKN","base":7000}],"obsTime":1776024000},"SBTC":{"icaoId":"SBTC","flightCategory":"VFR","rawOb":"METAR SBTC 122000Z 17008KT 9999 FEW020 27/23 Q1014","temp":27,"dewp":23,"wdir":170,"wspd":8,"visib":"6+","altim":1014,"clouds":[{"cover":"FEW","base":2000}],"obsTime":1776024000},"SBPF":{"icaoId":"SBPF","flightCategory":"MVFR","rawOb":"METAR SBPF 122000Z 36007KT 9999 BKN020 18/15 Q1019","temp":18,"dewp":15,"wdir":360,"wspd":7,"visib":"6+","altim":1019,"clouds":[{"cover":"BKN","base":2000}],"obsTime":1776024000}}}