{"updated":1777879767,"count":50,"data":{"SBCF":{"icaoId":"SBCF","flightCategory":"VFR","rawOb":"METAR SBCF 040600Z 12004KT 090V150 9999 FEW020 SCT080 19/16 Q1021","temp":19,"dewp":16,"wdir":120,"wspd":4,"visib":"6+","altim":1021,"clouds":[{"cover":"FEW","base":2000},{"cover":"SCT","base":8000}],"obsTime":1777874400},"SBFL":{"icaoId":"SBFL","flightCategory":"VFR","rawOb":"METAR SBFL 040600Z 28002KT 9999 BKN040 17/14 Q1019","temp":17,"dewp":14,"wdir":280,"wspd":2,"visib":"6+","altim":1019,"clouds":[{"cover":"BKN","base":4000}],"obsTime":1777874400},"SBMG":{"icaoId":"SBMG","flightCategory":"VFR","rawOb":"METAR SBMG 040600Z AUTO 09006KT CAVOK 18/15 Q1016","temp":18,"dewp":15,"wdir":90,"wspd":6,"visib":"6+","altim":1016,"clouds":[],"obsTime":1777874400},"SBBR":{"icaoId":"SBBR","flightCategory":"VFR","rawOb":"METAR SBBR 040600Z VRB01KT CAVOK 19/13 Q1019","temp":19,"dewp":13,"wdir":"VRB","wspd":1,"visib":"6+","altim":1019,"clouds":[],"obsTime":1777874400},"SBMO":{"icaoId":"SBMO","flightCategory":"VFR","rawOb":"METAR SBMO 040600Z 30003KT 9999 FEW019 22/22 Q1013","temp":22,"dewp":22,"wdir":300,"wspd":3,"visib":"6+","altim":1013,"clouds":[{"cover":"FEW","base":1900}],"obsTime":1777874400},"SBMQ":{"icaoId":"SBMQ","flightCategory":"VFR","rawOb":"METAR SBMQ 040600Z 36004KT 9999 SCT016 25/24 Q1011","temp":25,"dewp":24,"wdir":360,"wspd":4,"visib":"6+","altim":1011,"clouds":[{"cover":"SCT","base":1600}],"obsTime":1777874400},"SBFZ":{"icaoId":"SBFZ","flightCategory":"MVFR","rawOb":"METAR SBFZ 040600Z 17007KT 9999 FEW004 BKN020 BKN100 24/24 Q1011","temp":24,"dewp":24,"wdir":170,"wspd":7,"visib":"6+","altim":1011,"clouds":[{"cover":"FEW","base":400},{"cover":"BKN","base":2000},{"cover":"BKN","base":10000}],"obsTime":1777874400},"SBNT":{"icaoId":"SBNT","flightCategory":"VFR","rawOb":"METAR SBNT 040600Z 20005KT 9999 FEW018 24/23 Q1011","temp":24,"dewp":23,"wdir":200,"wspd":5,"visib":"6+","altim":1011,"clouds":[{"cover":"FEW","base":1800}],"obsTime":1777874400},"SBGL":{"icaoId":"SBGL","flightCategory":"MVFR","rawOb":"METAR SBGL 040600Z 32005KT 8000 SCT008 BKN015 OVC050 20/19 Q1020","temp":20,"dewp":19,"wdir":320,"wspd":5,"visib":4.97,"altim":1020,"clouds":[{"cover":"SCT","base":800},{"cover":"BKN","base":1500},{"cover":"OVC","base":5000}],"obsTime":1777874400},"SBPA":{"icaoId":"SBPA","flightCategory":"VFR","rawOb":"METAR SBPA 040600Z 07003KT CAVOK 11/10 Q1017","temp":11,"dewp":10,"wdir":70,"wspd":3,"visib":"6+","altim":1017,"clouds":[],"obsTime":1777874400},"SBBV":{"icaoId":"SBBV","flightCategory":"VFR","rawOb":"METAR SBBV 040600Z 09010KT 9999 SCT035 FEW040TCU BKN070 26/23 Q1012","temp":26,"dewp":23,"wdir":90,"wspd":10,"visib":"6+","altim":1012,"clouds":[{"cover":"SCT","base":3500},{"cover":"FEW","base":4000},{"cover":"BKN","base":7000}],"obsTime":1777874400},"SBPJ":{"icaoId":"SBPJ","flightCategory":"VFR","rawOb":"METAR SBPJ 040600Z 14003KT 9999 FEW025 BKN070 26/23 Q1012","temp":26,"dewp":23,"wdir":140,"wspd":3,"visib":"6+","altim":1012,"clouds":[{"cover":"FEW","base":2500},{"cover":"BKN","base":7000}],"obsTime":1777874400},"SBPV":{"icaoId":"SBPV","flightCategory":"VFR","rawOb":"METAR SBPV 040600Z 00000KT CAVOK 25/22 Q1011","temp":25,"dewp":22,"wdir":0,"wspd":0,"visib":"6+","altim":1011,"clouds":[],"obsTime":1777874400},"SBGO":{"icaoId":"SBGO","flightCategory":"VFR","rawOb":"METAR SBGO 040600Z 18005KT CAVOK 22/14 Q1016","temp":22,"dewp":14,"wdir":180,"wspd":5,"visib":"6+","altim":1016,"clouds":[],"obsTime":1777874400},"SBRB":{"icaoId":"SBRB","flightCategory":"MVFR","rawOb":"METAR SBRB 040600Z 22002KT 8000 SCT030 SCT100 24/24 Q1012","temp":24,"dewp":24,"wdir":220,"wspd":2,"visib":4.97,"altim":1012,"clouds":[{"cover":"SCT","base":3000},{"cover":"SCT","base":10000}],"obsTime":1777874400},"SBCG":{"icaoId":"SBCG","flightCategory":"VFR","rawOb":"METAR SBCG 040600Z 07009KT CAVOK 22/17 Q1015","temp":22,"dewp":17,"wdir":70,"wspd":9,"visib":"6+","altim":1015,"clouds":[],"obsTime":1777874400},"SBRF":{"icaoId":"SBRF","flightCategory":"MVFR","rawOb":"METAR SBRF 040600Z 21005KT 8000 -RA SCT021 BKN060 25/23 Q1011","temp":25,"dewp":23,"wdir":210,"wspd":5,"visib":4.97,"altim":1011,"clouds":[{"cover":"SCT","base":2100},{"cover":"BKN","base":6000}],"obsTime":1777874400},"SBBE":{"icaoId":"SBBE","flightCategory":"VFR","rawOb":"METAR SBBE 040600Z 11001KT CAVOK 24/24 Q1010","temp":24,"dewp":24,"wdir":110,"wspd":1,"visib":"6+","altim":1010,"clouds":[],"obsTime":1777874400},"SBME":{"icaoId":"SBME","flightCategory":"VFR","rawOb":"METAR SBME 040600Z 28003KT 9999 FEW040 OVC080 21/18 Q1019","temp":21,"dewp":18,"wdir":280,"wspd":3,"visib":"6+","altim":1019,"clouds":[{"cover":"FEW","base":4000},{"cover":"OVC","base":8000}],"obsTime":1777874400},"SBSG":{"icaoId":"SBSG","flightCategory":"VFR","rawOb":"METAR SBSG 040600Z 20003KT 9999 FEW020 23/23 Q1011","temp":23,"dewp":23,"wdir":200,"wspd":3,"visib":"6+","altim":1011,"clouds":[{"cover":"FEW","base":2000}],"obsTime":1777874400},"SBSL":{"icaoId":"SBSL","flightCategory":"VFR","rawOb":"METAR SBSL 040600Z 08003KT CAVOK 25/23 Q1011","temp":25,"dewp":23,"wdir":80,"wspd":3,"visib":"6+","altim":1011,"clouds":[],"obsTime":1777874400},"SBCT":{"icaoId":"SBCT","flightCategory":"VFR","rawOb":"METAR SBCT 040600Z 10004KT 9999 SCT009 BKN100 12/12 Q1021","temp":12,"dewp":12,"wdir":100,"wspd":4,"visib":"6+","altim":1021,"clouds":[{"cover":"SCT","base":900},{"cover":"BKN","base":10000}],"obsTime":1777874400},"SBJU":{"icaoId":"SBJU","flightCategory":"VFR","rawOb":"METAR SBJU 040600Z 00000KT 9999 SCT020 23/22 Q1014","temp":23,"dewp":22,"wdir":0,"wspd":0,"visib":"6+","altim":1014,"clouds":[{"cover":"SCT","base":2000}],"obsTime":1777874400},"SBSN":{"icaoId":"SBSN","flightCategory":"MVFR","rawOb":"METAR SBSN 040600Z 08008KT 7000 -RA SCT007 SCT013 OVC100 25/24 Q1011 RERA","temp":25,"dewp":24,"wdir":80,"wspd":8,"visib":4.35,"altim":1011,"clouds":[{"cover":"SCT","base":700},{"cover":"SCT","base":1300},{"cover":"OVC","base":10000}],"obsTime":1777874400},"SBKP":{"icaoId":"SBKP","flightCategory":"VFR","rawOb":"METAR SBKP 040600Z 12013KT CAVOK 16/13 Q1020","temp":16,"dewp":13,"wdir":120,"wspd":13,"visib":"6+","altim":1020,"clouds":[],"obsTime":1777874400},"SBSP":{"icaoId":"SBSP","flightCategory":"VFR","rawOb":"METAR SBSP 040600Z AUTO 11007KT 080V140 9999 FEW014 SCT029 16/13 Q1022","temp":16,"dewp":13,"wdir":110,"wspd":7,"visib":"6+","altim":1022,"clouds":[{"cover":"FEW","base":1400},{"cover":"SCT","base":2900}],"obsTime":1777874400},"SBEG":{"icaoId":"SBEG","flightCategory":"VFR","rawOb":"METAR SBEG 040600Z 00000KT CAVOK 24/23 Q1012","temp":24,"dewp":23,"wdir":0,"wspd":0,"visib":"6+","altim":1012,"clouds":[],"obsTime":1777874400},"SBSV":{"icaoId":"SBSV","flightCategory":"VFR","rawOb":"METAR SBSV 040600Z 15010KT 9999 FEW022 27/22 Q1014","temp":27,"dewp":22,"wdir":150,"wspd":10,"visib":"6+","altim":1014,"clouds":[{"cover":"FEW","base":2200}],"obsTime":1777874400},"SBCB":{"icaoId":"SBCB","flightCategory":"MVFR","rawOb":"METAR SBCB 040600Z 33006KT 8000 SCT015 BKN030 21/18 Q1020","temp":21,"dewp":18,"wdir":330,"wspd":6,"visib":4.97,"altim":1020,"clouds":[{"cover":"SCT","base":1500},{"cover":"BKN","base":3000}],"obsTime":1777874400},"SBTE":{"icaoId":"SBTE","flightCategory":"VFR","rawOb":"METAR SBTE 040600Z 35002KT 9999 FEW013 SCT080 25/24 Q1011","temp":25,"dewp":24,"wdir":350,"wspd":2,"visib":"6+","altim":1011,"clouds":[{"cover":"FEW","base":1300},{"cover":"SCT","base":8000}],"obsTime":1777874400},"SBLO":{"icaoId":"SBLO","flightCategory":"VFR","rawOb":"METAR SBLO 040600Z 12006KT CAVOK 15/13 Q1018","temp":15,"dewp":13,"wdir":120,"wspd":6,"visib":"6+","altim":1018,"clouds":[],"obsTime":1777874400},"SBUL":{"icaoId":"SBUL","flightCategory":"VFR","rawOb":"METAR SBUL 040600Z 12004KT CAVOK 20/14 Q1019","temp":20,"dewp":14,"wdir":120,"wspd":4,"visib":"6+","altim":1019,"clouds":[],"obsTime":1777874400},"SBFI":{"icaoId":"SBFI","flightCategory":"MVFR","rawOb":"METAR SBFI 040600Z 08006KT 7000 -TSRA SCT030 FEW040CB BKN070 20/20 Q1014","temp":20,"dewp":20,"wdir":80,"wspd":6,"visib":4.35,"altim":1014,"clouds":[{"cover":"SCT","base":3000},{"cover":"FEW","base":4000},{"cover":"BKN","base":7000}],"obsTime":1777874400},"SBUR":{"icaoId":"SBUR","flightCategory":"VFR","rawOb":"METAR SBUR 040600Z 08003KT CAVOK 22/15 Q1018","temp":22,"dewp":15,"wdir":80,"wspd":3,"visib":"6+","altim":1018,"clouds":[],"obsTime":1777874400},"SBVT":{"icaoId":"SBVT","flightCategory":"VFR","rawOb":"METAR SBVT 040600Z 23009KT 9999 BKN035 22/20 Q1018","temp":22,"dewp":20,"wdir":230,"wspd":9,"visib":"6+","altim":1018,"clouds":[{"cover":"BKN","base":3500}],"obsTime":1777874400},"SBMA":{"icaoId":"SBMA","flightCategory":"VFR","rawOb":"METAR SBMA 040600Z 33004KT 9999 SCT013 25/24 Q1011","temp":25,"dewp":24,"wdir":330,"wspd":4,"visib":"6+","altim":1011,"clouds":[{"cover":"SCT","base":1300}],"obsTime":1777874400},"SBGR":{"icaoId":"SBGR","flightCategory":"VFR","rawOb":"METAR SBGR 040600Z 09004KT 9999 SCT010 SCT050 15/14 Q1022","temp":15,"dewp":14,"wdir":90,"wspd":4,"visib":"6+","altim":1022,"clouds":[{"cover":"SCT","base":1000},{"cover":"SCT","base":5000}],"obsTime":1777874400},"SBOI":{"icaoId":"SBOI","flightCategory":"VFR","rawOb":"METAR SBOI 040600Z AUTO 00000KT 9999 // FEW024/// 24/24 Q1011","temp":24,"dewp":24,"wdir":0,"wspd":0,"visib":"6+","altim":1011,"clouds":[{"cover":"FEW","base":2400}],"obsTime":1777874400},"SBAX":{"icaoId":"SBAX","flightCategory":"VFR","rawOb":"METAR SBAX 040600Z AUTO 10008KT CAVOK 19/15 Q1020","temp":19,"dewp":15,"wdir":100,"wspd":8,"visib":"6+","altim":1020,"clouds":[],"obsTime":1777874400},"SBDN":{"icaoId":"SBDN","flightCategory":"VFR","rawOb":"METAR SBDN 040600Z 11008KT CAVOK 17/13 Q1017","temp":17,"dewp":13,"wdir":110,"wspd":8,"visib":"6+","altim":1017,"clouds":[],"obsTime":1777874400},"SBSR":{"icaoId":"SBSR","flightCategory":"VFR","rawOb":"METAR SBSR 040600Z 17007KT 120V210 CAVOK 18/15 Q1017","temp":18,"dewp":15,"wdir":170,"wspd":7,"visib":"6+","altim":1017,"clouds":[],"obsTime":1777874400},"SBAR":{"icaoId":"SBAR","flightCategory":"VFR","rawOb":"METAR SBAR 040600Z 15004KT 9999 VCSH FEW010 FEW025TCU SCT040 26/23 Q1013","temp":26,"dewp":23,"wdir":150,"wspd":4,"visib":"6+","altim":1013,"clouds":[{"cover":"FEW","base":1000},{"cover":"FEW","base":2500},{"cover":"SCT","base":4000}],"obsTime":1777874400},"SBIP":{"icaoId":"SBIP","flightCategory":"VFR","rawOb":"METAR SBIP 040600Z AUTO VRB02KT CAVOK 22/22 Q1018","temp":22,"dewp":22,"wdir":"VRB","wspd":2,"visib":"6+","altim":1018,"clouds":[],"obsTime":1777874400},"SBKG":{"icaoId":"SBKG","flightCategory":"VFR","rawOb":"METAR SBKG 040600Z 18007KT CAVOK 22/21 Q1014","temp":22,"dewp":21,"wdir":180,"wspd":7,"visib":"6+","altim":1014,"clouds":[],"obsTime":1777874400},"SBPL":{"icaoId":"SBPL","flightCategory":"VFR","rawOb":"METAR SBPL 040600Z 10005KT CAVOK 25/21 Q1015","temp":25,"dewp":21,"wdir":100,"wspd":5,"visib":"6+","altim":1015,"clouds":[],"obsTime":1777874400},"SBPS":{"icaoId":"SBPS","flightCategory":"VFR","rawOb":"METAR SBPS 040600Z 24004KT 9999 SCT017 23/22 Q1015","temp":23,"dewp":22,"wdir":240,"wspd":4,"visib":"6+","altim":1015,"clouds":[{"cover":"SCT","base":1700}],"obsTime":1777874400},"SBSC":{"icaoId":"SBSC","flightCategory":"MVFR","rawOb":"METAR SBSC 040600Z 03005KT 5000 BR FEW005 BKN015 OVC030 20/19 Q1020","temp":20,"dewp":19,"wdir":30,"wspd":5,"visib":3.11,"altim":1020,"clouds":[{"cover":"FEW","base":500},{"cover":"BKN","base":1500},{"cover":"OVC","base":3000}],"obsTime":1777874400},"SBJP":{"icaoId":"SBJP","flightCategory":"VFR","rawOb":"METAR SBJP 040600Z 19004KT 9999 FEW020 23/23 Q1012","temp":23,"dewp":23,"wdir":190,"wspd":4,"visib":"6+","altim":1012,"clouds":[{"cover":"FEW","base":2000}],"obsTime":1777874400},"SBAN":{"icaoId":"SBAN","flightCategory":"VFR","rawOb":"METAR SBAN 040600Z 16005KT CAVOK 19/13 Q1019","temp":19,"dewp":13,"wdir":160,"wspd":5,"visib":"6+","altim":1019,"clouds":[],"obsTime":1777874400},"SBLE":{"icaoId":"SBLE","flightCategory":"VFR","rawOb":"METAR SBLE 040600Z AUTO 04003KT 9999 FEW031 ///// Q////","temp":null,"dewp":null,"wdir":40,"wspd":3,"visib":"6+","altim":null,"clouds":[{"cover":"FEW","base":3100}],"obsTime":1777874400}}}