{"updated":1775580183,"count":85,"data":{"SBFL":{"icaoId":"SBFL","flightCategory":"MVFR","rawOb":"METAR SBFL 071500Z 33009KT 9999 SCT023 BKN030 27/24 Q1014","temp":27,"dewp":24,"wdir":330,"wspd":9,"visib":"6+","altim":1014,"clouds":[{"cover":"SCT","base":2300},{"cover":"BKN","base":3000}],"obsTime":1775574000},"SBBE":{"icaoId":"SBBE","flightCategory":"VFR","rawOb":"METAR SBBE 071500Z 06009KT 9999 BKN035 32/23 Q1012","temp":32,"dewp":23,"wdir":60,"wspd":9,"visib":"6+","altim":1012,"clouds":[{"cover":"BKN","base":3500}],"obsTime":1775574000},"SBVT":{"icaoId":"SBVT","flightCategory":"VFR","rawOb":"METAR SBVT 071500Z 16007KT 9999 SCT020 BKN100 28/24 Q1017","temp":28,"dewp":24,"wdir":160,"wspd":7,"visib":"6+","altim":1017,"clouds":[{"cover":"SCT","base":2000},{"cover":"BKN","base":10000}],"obsTime":1775574000},"SBBR":{"icaoId":"SBBR","flightCategory":"VFR","rawOb":"METAR SBBR 071500Z 09009KT 9999 BKN040 FEW045TCU 27/18 Q1021","temp":27,"dewp":18,"wdir":90,"wspd":9,"visib":"6+","altim":1021,"clouds":[{"cover":"BKN","base":4000},{"cover":"FEW","base":4500}],"obsTime":1775574000},"SBBV":{"icaoId":"SBBV","flightCategory":"VFR","rawOb":"METAR SBBV 071500Z 09014KT 9999 BKN040 FEW045TCU SCT070 30/21 Q1014","temp":30,"dewp":21,"wdir":90,"wspd":14,"visib":"6+","altim":1014,"clouds":[{"cover":"BKN","base":4000},{"cover":"FEW","base":4500},{"cover":"SCT","base":7000}],"obsTime":1775574000},"SBCB":{"icaoId":"SBCB","flightCategory":"VFR","rawOb":"METAR SBCB 071500Z 06014KT 9999 SCT025 29/23 Q1017","temp":29,"dewp":23,"wdir":60,"wspd":14,"visib":"6+","altim":1017,"clouds":[{"cover":"SCT","base":2500}],"obsTime":1775574000},"SBCF":{"icaoId":"SBCF","flightCategory":"VFR","rawOb":"METAR SBCF 071500Z 13006KT 9999 SCT035 26/19 Q1021","temp":26,"dewp":19,"wdir":130,"wspd":6,"visib":"6+","altim":1021,"clouds":[{"cover":"SCT","base":3500}],"obsTime":1775574000},"SBCG":{"icaoId":"SBCG","flightCategory":"VFR","rawOb":"METAR SBCG 071500Z 35011KT 9999 VCSH BKN048 29/22 Q1017","temp":29,"dewp":22,"wdir":350,"wspd":11,"visib":"6+","altim":1017,"clouds":[{"cover":"BKN","base":4800}],"obsTime":1775574000},"SBCP":{"icaoId":"SBCP","flightCategory":"MVFR","rawOb":"METAR SBCP 071500Z /////KT 9999 BKN020 ///// Q1017","temp":null,"dewp":null,"wdir":null,"wspd":null,"visib":"6+","altim":1017,"clouds":[{"cover":"BKN","base":2000}],"obsTime":1775574000},"SBCR":{"icaoId":"SBCR","flightCategory":"VFR","rawOb":"METAR SBCR 071500Z 31007KT 270V350 9999 FEW040 BKN100 31/24 Q1014","temp":31,"dewp":24,"wdir":310,"wspd":7,"visib":"6+","altim":1014,"clouds":[{"cover":"FEW","base":4000},{"cover":"BKN","base":10000}],"obsTime":1775574000},"SBCT":{"icaoId":"SBCT","flightCategory":"VFR","rawOb":"METAR SBCT 071500Z 34009KT 9999 BKN035 27/18 Q1019","temp":27,"dewp":18,"wdir":340,"wspd":9,"visib":"6+","altim":1019,"clouds":[{"cover":"BKN","base":3500}],"obsTime":1775574000},"SBCZ":{"icaoId":"SBCZ","flightCategory":"MVFR","rawOb":"METAR SBCZ 071500Z VRB02KT 9999 SCT015 BKN020 27/24 Q1014","temp":27,"dewp":24,"wdir":"VRB","wspd":2,"visib":"6+","altim":1014,"clouds":[{"cover":"SCT","base":1500},{"cover":"BKN","base":2000}],"obsTime":1775574000},"SBEG":{"icaoId":"SBEG","flightCategory":"VFR","rawOb":"METAR SBEG 071500Z 05004KT 340V110 9999 SCT020 30/25 Q1013","temp":30,"dewp":25,"wdir":50,"wspd":4,"visib":"6+","altim":1013,"clouds":[{"cover":"SCT","base":2000}],"obsTime":1775574000},"SBFI":{"icaoId":"SBFI","flightCategory":"VFR","rawOb":"METAR SBFI 071500Z 02011KT 9999 SCT030 FEW040TCU BKN080 29/24 Q1012","temp":29,"dewp":24,"wdir":20,"wspd":11,"visib":"6+","altim":1012,"clouds":[{"cover":"SCT","base":3000},{"cover":"FEW","base":4000},{"cover":"BKN","base":8000}],"obsTime":1775574000},"SBFZ":{"icaoId":"SBFZ","flightCategory":"VFR","rawOb":"METAR SBFZ 071500Z 11009KT 9999 SCT020 BKN070 25/24 Q1013","temp":25,"dewp":24,"wdir":110,"wspd":9,"visib":"6+","altim":1013,"clouds":[{"cover":"SCT","base":2000},{"cover":"BKN","base":7000}],"obsTime":1775574000},"SBGL":{"icaoId":"SBGL","flightCategory":"VFR","rawOb":"METAR SBGL 071500Z 07005KT 9999 FEW020 31/21 Q1016","temp":31,"dewp":21,"wdir":70,"wspd":5,"visib":"6+","altim":1016,"clouds":[{"cover":"FEW","base":2000}],"obsTime":1775574000},"SBGO":{"icaoId":"SBGO","flightCategory":"VFR","rawOb":"METAR SBGO 071500Z 01007KT 300V070 9999 SCT035 SCT100 30/21 Q1019","temp":30,"dewp":21,"wdir":10,"wspd":7,"visib":"6+","altim":1019,"clouds":[{"cover":"SCT","base":3500},{"cover":"SCT","base":10000}],"obsTime":1775574000},"SBGR":{"icaoId":"SBGR","flightCategory":"VFR","rawOb":"METAR SBGR 071500Z 02006KT 310V060 9999 SCT024 BKN100 27/20 Q1020","temp":27,"dewp":20,"wdir":20,"wspd":6,"visib":"6+","altim":1020,"clouds":[{"cover":"SCT","base":2400},{"cover":"BKN","base":10000}],"obsTime":1775574000},"SBHT":{"icaoId":"SBHT","flightCategory":"MVFR","rawOb":"METAR SBHT 071500Z 13006KT 9999 BKN020 29/24 Q1014","temp":29,"dewp":24,"wdir":130,"wspd":6,"visib":"6+","altim":1014,"clouds":[{"cover":"BKN","base":2000}],"obsTime":1775574000},"SBIL":{"icaoId":"SBIL","flightCategory":"VFR","rawOb":"METAR SBIL 071500Z 17008KT 9999 SCT025 30/25 Q1016","temp":30,"dewp":25,"wdir":170,"wspd":8,"visib":"6+","altim":1016,"clouds":[{"cover":"SCT","base":2500}],"obsTime":1775574000},"SBJU":{"icaoId":"SBJU","flightCategory":"VFR","rawOb":"METAR SBJU 071500Z 12010KT 9999 SCT022 30/22 Q1015","temp":30,"dewp":22,"wdir":120,"wspd":10,"visib":"6+","altim":1015,"clouds":[{"cover":"SCT","base":2200}],"obsTime":1775574000},"SBKP":{"icaoId":"SBKP","flightCategory":"VFR","rawOb":"METAR SBKP 071500Z 01006KT 320V060 9999 FEW035 SCT100 27/20 Q1019","temp":27,"dewp":20,"wdir":10,"wspd":6,"visib":"6+","altim":1019,"clouds":[{"cover":"FEW","base":3500},{"cover":"SCT","base":10000}],"obsTime":1775574000},"SBLO":{"icaoId":"SBLO","flightCategory":"VFR","rawOb":"METAR SBLO 071500Z 02009KT 9999 FEW020 28/21 Q1017","temp":28,"dewp":21,"wdir":20,"wspd":9,"visib":"6+","altim":1017,"clouds":[{"cover":"FEW","base":2000}],"obsTime":1775574000},"SBMA":{"icaoId":"SBMA","flightCategory":"MVFR","rawOb":"METAR SBMA 071500Z 22004KT 9999 BKN022 32/23 Q1013","temp":32,"dewp":23,"wdir":220,"wspd":4,"visib":"6+","altim":1013,"clouds":[{"cover":"BKN","base":2200}],"obsTime":1775574000},"SBME":{"icaoId":"SBME","flightCategory":"VFR","rawOb":"METAR SBME 071500Z 13006KT 9999 FEW030 BKN070 29/23 Q1017","temp":29,"dewp":23,"wdir":130,"wspd":6,"visib":"6+","altim":1017,"clouds":[{"cover":"FEW","base":3000},{"cover":"BKN","base":7000}],"obsTime":1775574000},"SBMG":{"icaoId":"SBMG","flightCategory":"VFR","rawOb":"METAR SBMG 071500Z 02014KT 350V050 9999 FEW030 29/21 Q1015","temp":29,"dewp":21,"wdir":20,"wspd":14,"visib":"6+","altim":1015,"clouds":[{"cover":"FEW","base":3000}],"obsTime":1775574000},"SBMK":{"icaoId":"SBMK","flightCategory":"VFR","rawOb":"METAR SBMK 071500Z 12005KT 9999 BKN040 28/19 Q1019","temp":28,"dewp":19,"wdir":120,"wspd":5,"visib":"6+","altim":1019,"clouds":[{"cover":"BKN","base":4000}],"obsTime":1775574000},"SBMO":{"icaoId":"SBMO","flightCategory":"MVFR","rawOb":"METAR SBMO 071500Z 09011KT 9999 VCSH BKN030 BKN080 30/24 Q1014","temp":30,"dewp":24,"wdir":90,"wspd":11,"visib":"6+","altim":1014,"clouds":[{"cover":"BKN","base":3000},{"cover":"BKN","base":8000}],"obsTime":1775574000},"SBMQ":{"icaoId":"SBMQ","flightCategory":"MVFR","rawOb":"METAR SBMQ 071500Z 15004KT 6000 -RA BKN011 BKN020 27/26 Q1013","temp":27,"dewp":26,"wdir":150,"wspd":4,"visib":3.73,"altim":1013,"clouds":[{"cover":"BKN","base":1100},{"cover":"BKN","base":2000}],"obsTime":1775574000},"SBNT":{"icaoId":"SBNT","flightCategory":"MVFR","rawOb":"METAR SBNT 071500Z 13009KT 9999 BKN025 FEW035TCU BKN100 29/24 Q1013","temp":29,"dewp":24,"wdir":130,"wspd":9,"visib":"6+","altim":1013,"clouds":[{"cover":"BKN","base":2500},{"cover":"FEW","base":3500},{"cover":"BKN","base":10000}],"obsTime":1775574000},"SBPA":{"icaoId":"SBPA","flightCategory":"VFR","rawOb":"METAR SBPA 071500Z VRB02KT 9999 FEW010 FEW040TCU BKN050 21/20 Q1011","temp":21,"dewp":20,"wdir":"VRB","wspd":2,"visib":"6+","altim":1011,"clouds":[{"cover":"FEW","base":1000},{"cover":"FEW","base":4000},{"cover":"BKN","base":5000}],"obsTime":1775574000},"SBPJ":{"icaoId":"SBPJ","flightCategory":"VFR","rawOb":"METAR SBPJ 071500Z 23006KT 9999 SCT033 30/24 Q1014","temp":30,"dewp":24,"wdir":230,"wspd":6,"visib":"6+","altim":1014,"clouds":[{"cover":"SCT","base":3300}],"obsTime":1775574000},"SBPV":{"icaoId":"SBPV","flightCategory":"VFR","rawOb":"METAR SBPV 071500Z VRB03KT 9999 SCT030 BKN070 30/25 Q1013","temp":30,"dewp":25,"wdir":"VRB","wspd":3,"visib":"6+","altim":1013,"clouds":[{"cover":"SCT","base":3000},{"cover":"BKN","base":7000}],"obsTime":1775574000},"SBRB":{"icaoId":"SBRB","flightCategory":"MVFR","rawOb":"METAR SBRB 071500Z 09002KT 9999 BKN024 SCT100 31/25 Q1014","temp":31,"dewp":25,"wdir":90,"wspd":2,"visib":"6+","altim":1014,"clouds":[{"cover":"BKN","base":2400},{"cover":"SCT","base":10000}],"obsTime":1775574000},"SBRF":{"icaoId":"SBRF","flightCategory":"VFR","rawOb":"METAR SBRF 071500Z 14010KT 9999 SCT012 SCT018 OVC060 29/25 Q1013","temp":29,"dewp":25,"wdir":140,"wspd":10,"visib":"6+","altim":1013,"clouds":[{"cover":"SCT","base":1200},{"cover":"SCT","base":1800},{"cover":"OVC","base":6000}],"obsTime":1775574000},"SBSG":{"icaoId":"SBSG","flightCategory":"MVFR","rawOb":"METAR SBSG 071500Z 13007KT 010V180 9000 -RA FEW010 BKN018 FEW023TCU 28/25 Q1013","temp":28,"dewp":25,"wdir":130,"wspd":7,"visib":5.59,"altim":1013,"clouds":[{"cover":"FEW","base":1000},{"cover":"BKN","base":1800},{"cover":"FEW","base":2300}],"obsTime":1775574000},"SBSL":{"icaoId":"SBSL","flightCategory":"VFR","rawOb":"METAR SBSL 071500Z 07010KT 9999 SCT025 31/25 Q1012","temp":31,"dewp":25,"wdir":70,"wspd":10,"visib":"6+","altim":1012,"clouds":[{"cover":"SCT","base":2500}],"obsTime":1775574000},"SBSN":{"icaoId":"SBSN","flightCategory":"MVFR","rawOb":"METAR SBSN 071500Z 11008KT 9999 -RA BKN020 28/25 Q1013","temp":28,"dewp":25,"wdir":110,"wspd":8,"visib":"6+","altim":1013,"clouds":[{"cover":"BKN","base":2000}],"obsTime":1775574000},"SBSP":{"icaoId":"SBSP","flightCategory":"VFR","rawOb":"METAR SBSP 071500Z 35008KT 9999 SCT030 27/20 Q1020","temp":27,"dewp":20,"wdir":350,"wspd":8,"visib":"6+","altim":1020,"clouds":[{"cover":"SCT","base":3000}],"obsTime":1775574000},"SBSV":{"icaoId":"SBSV","flightCategory":"VFR","rawOb":"METAR SBSV 071500Z 11008KT 9999 SCT023 30/23 Q1015","temp":30,"dewp":23,"wdir":110,"wspd":8,"visib":"6+","altim":1015,"clouds":[{"cover":"SCT","base":2300}],"obsTime":1775574000},"SBTE":{"icaoId":"SBTE","flightCategory":"VFR","rawOb":"METAR SBTE 071500Z 14003KT 9999 SCT025 31/25 Q1012","temp":31,"dewp":25,"wdir":140,"wspd":3,"visib":"6+","altim":1012,"clouds":[{"cover":"SCT","base":2500}],"obsTime":1775574000},"SBUL":{"icaoId":"SBUL","flightCategory":"VFR","rawOb":"METAR SBUL 071500Z 06011KT 9999 SCT020 SCT100 27/18 Q1021","temp":27,"dewp":18,"wdir":60,"wspd":11,"visib":"6+","altim":1021,"clouds":[{"cover":"SCT","base":2000},{"cover":"SCT","base":10000}],"obsTime":1775574000},"SBUR":{"icaoId":"SBUR","flightCategory":"VFR","rawOb":"METAR SBUR 071500Z 03006KT 9999 SCT049 28/21 Q1019","temp":28,"dewp":21,"wdir":30,"wspd":6,"visib":"6+","altim":1019,"clouds":[{"cover":"SCT","base":4900}],"obsTime":1775574000},"SBAT":{"icaoId":"SBAT","flightCategory":"VFR","rawOb":"METAR SBAT 071500Z 06004KT 9999 SCT028 32/24 Q1014","temp":32,"dewp":24,"wdir":60,"wspd":4,"visib":"6+","altim":1014,"clouds":[{"cover":"SCT","base":2800}],"obsTime":1775574000},"SBTF":{"icaoId":"SBTF","flightCategory":"VFR","rawOb":"METAR SBTF 071500Z 24004KT 9999 SCT009 BKN100 28/26 Q1013","temp":28,"dewp":26,"wdir":240,"wspd":4,"visib":"6+","altim":1013,"clouds":[{"cover":"SCT","base":900},{"cover":"BKN","base":10000}],"obsTime":1775574000},"SBAR":{"icaoId":"SBAR","flightCategory":"VFR","rawOb":"METAR SBAR 071500Z 12011KT 9999 VCSH SCT030 BKN048 29/23 Q1014","temp":29,"dewp":23,"wdir":120,"wspd":11,"visib":"6+","altim":1014,"clouds":[{"cover":"SCT","base":3000},{"cover":"BKN","base":4800}],"obsTime":1775574000},"SBAU":{"icaoId":"SBAU","flightCategory":"VFR","rawOb":"METAR SBAU 071600Z 06008KT CAVOK 32/21 Q1016","temp":32,"dewp":21,"wdir":60,"wspd":8,"visib":"6+","altim":1016,"clouds":[],"obsTime":1775577600},"SBVH":{"icaoId":"SBVH","flightCategory":"MVFR","rawOb":"METAR SBVH 071500Z 34008KT 9999 BKN025 SCT070 28/23 Q1017","temp":28,"dewp":23,"wdir":340,"wspd":8,"visib":"6+","altim":1017,"clouds":[{"cover":"BKN","base":2500},{"cover":"SCT","base":7000}],"obsTime":1775574000},"SBAX":{"icaoId":"SBAX","flightCategory":"MVFR","rawOb":"METAR SBAX 071500Z 08006KT 9999 BKN020 26/19 Q1021","temp":26,"dewp":19,"wdir":80,"wspd":6,"visib":"6+","altim":1021,"clouds":[{"cover":"BKN","base":2000}],"obsTime":1775574000},"SBBH":{"icaoId":"SBBH","flightCategory":"VFR","rawOb":"METAR SBBH 071500Z 04006KT 9999 BKN036 28/18 Q1021","temp":28,"dewp":18,"wdir":40,"wspd":6,"visib":"6+","altim":1021,"clouds":[{"cover":"BKN","base":3600}],"obsTime":1775574000},"SBUY":{"icaoId":"SBUY","flightCategory":"MVFR","rawOb":"METAR SBUY 071500Z 22002KT 6000 -RA SCT004 SCT018 BKN100 24/23 Q1014","temp":24,"dewp":23,"wdir":220,"wspd":2,"visib":3.73,"altim":1014,"clouds":[{"cover":"SCT","base":400},{"cover":"SCT","base":1800},{"cover":"BKN","base":10000}],"obsTime":1775574000},"SBBQ":{"icaoId":"SBBQ","flightCategory":"MVFR","rawOb":"METAR SBBQ 071500Z 03004KT 340V070 9999 SCT012 OVC019 22/17 Q1025","temp":22,"dewp":17,"wdir":30,"wspd":4,"visib":"6+","altim":1025,"clouds":[{"cover":"SCT","base":1200},{"cover":"OVC","base":1900}],"obsTime":1775574000},"SBTT":{"icaoId":"SBTT","flightCategory":"VFR","rawOb":"METAR SBTT 071500Z 15004KT 9999 FEW015 28/22 Q1014","temp":28,"dewp":22,"wdir":150,"wspd":4,"visib":"6+","altim":1014,"clouds":[{"cover":"FEW","base":1500}],"obsTime":1775574000},"SBBU":{"icaoId":"SBBU","flightCategory":"VFR","rawOb":"METAR SBBU 071500Z 04010KT 9999 FEW033 30/22 Q1018","temp":30,"dewp":22,"wdir":40,"wspd":10,"visib":"6+","altim":1018,"clouds":[{"cover":"FEW","base":3300}],"obsTime":1775574000},"SBCC":{"icaoId":"SBCC","flightCategory":"VFR","rawOb":"METAR SBCC 071500Z 05010KT 9999 SCT020 30/21 Q1015","temp":30,"dewp":21,"wdir":50,"wspd":10,"visib":"6+","altim":1015,"clouds":[{"cover":"SCT","base":2000}],"obsTime":1775574000},"SBTD":{"icaoId":"SBTD","flightCategory":"VFR","rawOb":"METAR SBTD 071500Z /////KT 9999 SCT020 29/20 Q1016","temp":29,"dewp":20,"wdir":null,"wspd":null,"visib":"6+","altim":1016,"clouds":[{"cover":"SCT","base":2000}],"obsTime":1775574000},"SBSM":{"icaoId":"SBSM","flightCategory":"IFR","rawOb":"METAR SBSM 071500Z 07006KT 3000 RA BR SCT040 OVC070 21/21 Q1008 RERA","temp":21,"dewp":21,"wdir":70,"wspd":6,"visib":1.86,"altim":1008,"clouds":[{"cover":"SCT","base":4000},{"cover":"OVC","base":7000}],"obsTime":1775574000},"SBCJ":{"icaoId":"SBCJ","flightCategory":"MVFR","rawOb":"METAR SBCJ 071500Z 10012KT 9999 BKN019 27/22 Q1018","temp":27,"dewp":22,"wdir":100,"wspd":12,"visib":"6+","altim":1018,"clouds":[{"cover":"BKN","base":1900}],"obsTime":1775574000},"SBCO":{"icaoId":"SBCO","flightCategory":"VFR","rawOb":"METAR SBCO 071500Z VRB02KT 9999 -DZ FEW030TCU OVC045 21/20 Q1011","temp":21,"dewp":20,"wdir":"VRB","wspd":2,"visib":"6+","altim":1011,"clouds":[{"cover":"FEW","base":3000},{"cover":"OVC","base":4500}],"obsTime":1775574000},"SBSJ":{"icaoId":"SBSJ","flightCategory":"VFR","rawOb":"METAR SBSJ 071500Z VRB04KT 9000 SCT028 BKN083 28/20 Q1019","temp":28,"dewp":20,"wdir":"VRB","wspd":4,"visib":5.59,"altim":1019,"clouds":[{"cover":"SCT","base":2800},{"cover":"BKN","base":8300}],"obsTime":1775574000},"SBDN":{"icaoId":"SBDN","flightCategory":"VFR","rawOb":"METAR SBDN 071500Z 36007KT 9999 FEW030 30/21 Q1016","temp":30,"dewp":21,"wdir":360,"wspd":7,"visib":"6+","altim":1016,"clouds":[{"cover":"FEW","base":3000}],"obsTime":1775574000},"SBSC":{"icaoId":"SBSC","flightCategory":"VFR","rawOb":"METAR SBSC 071500Z 02010KT CAVOK 32/21 Q1015","temp":32,"dewp":21,"wdir":20,"wspd":10,"visib":"6+","altim":1015,"clouds":[],"obsTime":1775574000},"SBPS":{"icaoId":"SBPS","flightCategory":"VFR","rawOb":"METAR SBPS 071500Z 12006KT 080V190 9999 FEW017 29/24 Q1016","temp":29,"dewp":24,"wdir":120,"wspd":6,"visib":"6+","altim":1016,"clouds":[{"cover":"FEW","base":1700}],"obsTime":1775574000},"SBES":{"icaoId":"SBES","flightCategory":"VFR","rawOb":"METAR SBES 071500Z 06015KT 020V080 9999 FEW020 29/// Q1017","temp":null,"dewp":null,"wdir":60,"wspd":15,"visib":"6+","altim":1017,"clouds":[{"cover":"FEW","base":2000}],"obsTime":1775574000},"SBGM":{"icaoId":"SBGM","flightCategory":"VFR","rawOb":"METAR SBGM 071500Z 35005KT 260V050 9999 SCT043 31/22 Q1013","temp":31,"dewp":22,"wdir":350,"wspd":5,"visib":"6+","altim":1013,"clouds":[{"cover":"SCT","base":4300}],"obsTime":1775574000},"SBPP":{"icaoId":"SBPP","flightCategory":"VFR","rawOb":"METAR SBPP 071500Z 30010KT 9999 SCT025 29/20 Q1016","temp":29,"dewp":20,"wdir":300,"wspd":10,"visib":"6+","altim":1016,"clouds":[{"cover":"SCT","base":2500}],"obsTime":1775574000},"SBPL":{"icaoId":"SBPL","flightCategory":"MVFR","rawOb":"METAR SBPL 071500Z 11009KT 9999 BKN025 30/21 Q1015","temp":30,"dewp":21,"wdir":110,"wspd":9,"visib":"6+","altim":1015,"clouds":[{"cover":"BKN","base":2500}],"obsTime":1775574000},"SBKG":{"icaoId":"SBKG","flightCategory":"VFR","rawOb":"METAR SBKG 071500Z 11011KT 9999 FEW018 BKN090 25/22 Q1016","temp":25,"dewp":22,"wdir":110,"wspd":11,"visib":"6+","altim":1016,"clouds":[{"cover":"FEW","base":1800},{"cover":"BKN","base":9000}],"obsTime":1775574000},"SBPB":{"icaoId":"SBPB","flightCategory":"VFR","rawOb":"METAR SBPB 071500Z 05012KT 9999 SCT020 31/25 Q1012","temp":31,"dewp":25,"wdir":50,"wspd":12,"visib":"6+","altim":1012,"clouds":[{"cover":"SCT","base":2000}],"obsTime":1775574000},"SBOI":{"icaoId":"SBOI","flightCategory":"VFR","rawOb":"METAR SBOI 071500Z AUTO 05010KT 010V100 9999 SCT030 31/24 Q1013","temp":31,"dewp":24,"wdir":50,"wspd":10,"visib":"6+","altim":1013,"clouds":[{"cover":"SCT","base":3000}],"obsTime":1775574000},"SBSR":{"icaoId":"SBSR","flightCategory":"VFR","rawOb":"METAR SBSR 071500Z VRB05KT 9999 FEW040 29/19 Q1018","temp":29,"dewp":19,"wdir":"VRB","wspd":5,"visib":"6+","altim":1018,"clouds":[{"cover":"FEW","base":4000}],"obsTime":1775574000},"SBCA":{"icaoId":"SBCA","flightCategory":"MVFR","rawOb":"METAR SBCA 071500Z 36013G23KT 9999 SCT010 BKN015 27/21 Q1017","temp":27,"dewp":21,"wdir":360,"wspd":13,"visib":"6+","altim":1017,"clouds":[{"cover":"SCT","base":1000},{"cover":"BKN","base":1500}],"obsTime":1775574000},"SBJP":{"icaoId":"SBJP","flightCategory":"MVFR","rawOb":"METAR SBJP 071500Z 17006KT 9999 BKN010 OVC070 26/25 Q1014","temp":26,"dewp":25,"wdir":170,"wspd":6,"visib":"6+","altim":1014,"clouds":[{"cover":"BKN","base":1000},{"cover":"OVC","base":7000}],"obsTime":1775574000},"SBNM":{"icaoId":"SBNM","flightCategory":"MVFR","rawOb":"METAR SBNM 071500Z 06012KT 5000 -TSRA SCT006 BKN013 FEW035CB OVC060 22/21 Q1009","temp":22,"dewp":21,"wdir":60,"wspd":12,"visib":3.11,"altim":1009,"clouds":[{"cover":"SCT","base":600},{"cover":"BKN","base":1300},{"cover":"FEW","base":3500},{"cover":"OVC","base":6000}],"obsTime":1775574000},"SBIH":{"icaoId":"SBIH","flightCategory":"VFR","rawOb":"METAR SBIH 071500Z 03010KT 9999 SCT016 30/24 Q1013","temp":30,"dewp":24,"wdir":30,"wspd":10,"visib":"6+","altim":1013,"clouds":[{"cover":"SCT","base":1600}],"obsTime":1775574000},"SBAN":{"icaoId":"SBAN","flightCategory":"MVFR","rawOb":"METAR SBAN 071500Z 07009KT 9999 BKN030 FEW035TCU 27/19 Q1022","temp":27,"dewp":19,"wdir":70,"wspd":9,"visib":"6+","altim":1022,"clouds":[{"cover":"BKN","base":3000},{"cover":"FEW","base":3500}],"obsTime":1775574000},"SBAF":{"icaoId":"SBAF","flightCategory":"VFR","rawOb":"METAR SBAF 071500Z 09004KT 9999 FEW030 32/22 Q1016","temp":32,"dewp":22,"wdir":90,"wspd":4,"visib":"6+","altim":1016,"clouds":[{"cover":"FEW","base":3000}],"obsTime":1775574000},"SBGW":{"icaoId":"SBGW","flightCategory":"VFR","rawOb":"METAR SBGW 071500Z 02005KT 330V080 9999 SCT025 29/18 Q1018","temp":29,"dewp":18,"wdir":20,"wspd":5,"visib":"6+","altim":1018,"clouds":[{"cover":"SCT","base":2500}],"obsTime":1775574000},"SBJR":{"icaoId":"SBJR","flightCategory":"VFR","rawOb":"METAR SBJR 071500Z 14007KT 9999 FEW035 33/23 Q1015","temp":33,"dewp":23,"wdir":140,"wspd":7,"visib":"6+","altim":1015,"clouds":[{"cover":"FEW","base":3500}],"obsTime":1775574000},"SBLS":{"icaoId":"SBLS","flightCategory":"MVFR","rawOb":"METAR SBLS 071500Z 14007KT 060V160 9999 BKN030 26/18 Q1021","temp":26,"dewp":18,"wdir":140,"wspd":7,"visib":"6+","altim":1021,"clouds":[{"cover":"BKN","base":3000}],"obsTime":1775574000},"SBMT":{"icaoId":"SBMT","flightCategory":"VFR","rawOb":"METAR SBMT 071500Z 35005KT 260V030 9999 SCT025 BKN100 27/20 Q1019","temp":27,"dewp":20,"wdir":350,"wspd":5,"visib":"6+","altim":1019,"clouds":[{"cover":"SCT","base":2500},{"cover":"BKN","base":10000}],"obsTime":1775574000},"SBST":{"icaoId":"SBST","flightCategory":"VFR","rawOb":"METAR SBST 071500Z 11003KT 9999 FEW015 BKN100 27/25 Q1015","temp":27,"dewp":25,"wdir":110,"wspd":3,"visib":"6+","altim":1015,"clouds":[{"cover":"FEW","base":1500},{"cover":"BKN","base":10000}],"obsTime":1775574000},"SBTA":{"icaoId":"SBTA","flightCategory":"VFR","rawOb":"METAR SBTA 071500Z 07005KT 010V130 9999 FEW025 SCT100 28/20 Q1018","temp":28,"dewp":20,"wdir":70,"wspd":5,"visib":"6+","altim":1018,"clouds":[{"cover":"FEW","base":2500},{"cover":"SCT","base":10000}],"obsTime":1775574000},"SBJV":{"icaoId":"SBJV","flightCategory":"VFR","rawOb":"METAR SBJV 071500Z 08005KT 9999 SCT020 29/25 Q1014","temp":29,"dewp":25,"wdir":80,"wspd":5,"visib":"6+","altim":1014,"clouds":[{"cover":"SCT","base":2000}],"obsTime":1775574000},"SBPF":{"icaoId":"SBPF","flightCategory":"MVFR","rawOb":"METAR SBPF 071500Z 17002KT 9999 BKN025 21/18 Q1014","temp":21,"dewp":18,"wdir":170,"wspd":2,"visib":"6+","altim":1014,"clouds":[{"cover":"BKN","base":2500}],"obsTime":1775574000}}}