{"updated":1780357613,"count":73,"data":{"SBVT":{"icaoId":"SBVT","flightCategory":"VFR","rawOb":"METAR SBVT 012200Z 18004KT 9999 FEW013 SCT030 BKN080 23/21 Q1018","temp":23,"dewp":21,"wdir":180,"wspd":4,"visib":"6+","altim":1018,"clouds":[{"cover":"FEW","base":1300},{"cover":"SCT","base":3000},{"cover":"BKN","base":8000}],"obsTime":1780351200},"SBBE":{"icaoId":"SBBE","flightCategory":"VFR","rawOb":"METAR SBBE 012200Z 05005KT 9999 BKN035 FEW040TCU 26/24 Q1012","temp":26,"dewp":24,"wdir":50,"wspd":5,"visib":"6+","altim":1012,"clouds":[{"cover":"BKN","base":3500},{"cover":"FEW","base":4000}],"obsTime":1780351200},"SBBR":{"icaoId":"SBBR","flightCategory":"VFR","rawOb":"METAR SBBR 012200Z 34004KT 250V040 9999 -TSRA SCT040 FEW043CB BKN070 18/16 Q1021","temp":18,"dewp":16,"wdir":340,"wspd":4,"visib":"6+","altim":1021,"clouds":[{"cover":"SCT","base":4000},{"cover":"FEW","base":4300},{"cover":"BKN","base":7000}],"obsTime":1780351200},"SBBV":{"icaoId":"SBBV","flightCategory":"VFR","rawOb":"METAR SBBV 012200Z 11004KT 9999 SCT030 FEW035TCU BKN100 30/23 Q1011","temp":30,"dewp":23,"wdir":110,"wspd":4,"visib":"6+","altim":1011,"clouds":[{"cover":"SCT","base":3000},{"cover":"FEW","base":3500},{"cover":"BKN","base":10000}],"obsTime":1780351200},"SBCF":{"icaoId":"SBCF","flightCategory":"VFR","rawOb":"METAR SBCF 012200Z 15006KT 110V200 9999 VCTS FEW045 FEW050CB BKN080 22/15 Q1020","temp":22,"dewp":15,"wdir":150,"wspd":6,"visib":"6+","altim":1020,"clouds":[{"cover":"FEW","base":4500},{"cover":"FEW","base":5000},{"cover":"BKN","base":8000}],"obsTime":1780351200},"SBCG":{"icaoId":"SBCG","flightCategory":"VFR","rawOb":"METAR SBCG 012200Z 14004KT CAVOK 22/15 Q1019","temp":22,"dewp":15,"wdir":140,"wspd":4,"visib":"6+","altim":1019,"clouds":[],"obsTime":1780351200},"SBCT":{"icaoId":"SBCT","flightCategory":"VFR","rawOb":"METAR SBCT 012200Z 10005KT 9999 FEW010 SCT060 12/11 Q1023","temp":12,"dewp":11,"wdir":100,"wspd":5,"visib":"6+","altim":1023,"clouds":[{"cover":"FEW","base":1000},{"cover":"SCT","base":6000}],"obsTime":1780351200},"SBCZ":{"icaoId":"SBCZ","flightCategory":"VFR","rawOb":"METAR SBCZ 012200Z 12002KT 9999 FEW035 31/23 Q1011","temp":31,"dewp":23,"wdir":120,"wspd":2,"visib":"6+","altim":1011,"clouds":[{"cover":"FEW","base":3500}],"obsTime":1780351200},"SBEG":{"icaoId":"SBEG","flightCategory":"VFR","rawOb":"METAR SBEG 012200Z 11005KT 9999 FEW020 FEW025TCU 29/24 Q1012","temp":29,"dewp":24,"wdir":110,"wspd":5,"visib":"6+","altim":1012,"clouds":[{"cover":"FEW","base":2000},{"cover":"FEW","base":2500}],"obsTime":1780351200},"SBFI":{"icaoId":"SBFI","flightCategory":"VFR","rawOb":"METAR SBFI 012200Z 16003KT 9999 FEW020 18/16 Q1020","temp":18,"dewp":16,"wdir":160,"wspd":3,"visib":"6+","altim":1020,"clouds":[{"cover":"FEW","base":2000}],"obsTime":1780351200},"SBFL":{"icaoId":"SBFL","flightCategory":"MVFR","rawOb":"METAR SBFL 012200Z 14008KT 9999 BKN026 18/14 Q1022","temp":18,"dewp":14,"wdir":140,"wspd":8,"visib":"6+","altim":1022,"clouds":[{"cover":"BKN","base":2600}],"obsTime":1780351200},"SBFZ":{"icaoId":"SBFZ","flightCategory":"VFR","rawOb":"METAR SBFZ 012200Z 09006KT 9999 SCT020 BKN090 27/24 Q1012","temp":27,"dewp":24,"wdir":90,"wspd":6,"visib":"6+","altim":1012,"clouds":[{"cover":"SCT","base":2000},{"cover":"BKN","base":9000}],"obsTime":1780351200},"SBGL":{"icaoId":"SBGL","flightCategory":"VFR","rawOb":"METAR SBGL 012200Z 24007KT 9999 SCT030 BKN040 22/17 Q1019","temp":22,"dewp":17,"wdir":240,"wspd":7,"visib":"6+","altim":1019,"clouds":[{"cover":"SCT","base":3000},{"cover":"BKN","base":4000}],"obsTime":1780351200},"SBGO":{"icaoId":"SBGO","flightCategory":"VFR","rawOb":"METAR SBGO 012200Z 14004KT CAVOK 25/13 Q1019","temp":25,"dewp":13,"wdir":140,"wspd":4,"visib":"6+","altim":1019,"clouds":[],"obsTime":1780351200},"SBGR":{"icaoId":"SBGR","flightCategory":"VFR","rawOb":"METAR SBGR 012200Z 16004KT 110V190 9999 SCT015 BKN036 15/13 Q1023","temp":15,"dewp":13,"wdir":160,"wspd":4,"visib":"6+","altim":1023,"clouds":[{"cover":"SCT","base":1500},{"cover":"BKN","base":3600}],"obsTime":1780351200},"SBIL":{"icaoId":"SBIL","flightCategory":"VFR","rawOb":"METAR SBIL 012200Z 23005KT 9999 FEW020 SCT070 25/23 Q1017","temp":25,"dewp":23,"wdir":230,"wspd":5,"visib":"6+","altim":1017,"clouds":[{"cover":"FEW","base":2000},{"cover":"SCT","base":7000}],"obsTime":1780351200},"SBJU":{"icaoId":"SBJU","flightCategory":"VFR","rawOb":"METAR SBJU 012200Z 00000KT CAVOK 26/18 Q1015","temp":26,"dewp":18,"wdir":0,"wspd":0,"visib":"6+","altim":1015,"clouds":[],"obsTime":1780351200},"SBKP":{"icaoId":"SBKP","flightCategory":"VFR","rawOb":"METAR SBKP 012200Z 14010KT CAVOK 19/12 Q1021","temp":19,"dewp":12,"wdir":140,"wspd":10,"visib":"6+","altim":1021,"clouds":[],"obsTime":1780351200},"SBLO":{"icaoId":"SBLO","flightCategory":"VFR","rawOb":"METAR SBLO 012200Z 01001KT 9999 SCT049 22/13 Q1020","temp":22,"dewp":13,"wdir":10,"wspd":1,"visib":"6+","altim":1020,"clouds":[{"cover":"SCT","base":4900}],"obsTime":1780351200},"SBMA":{"icaoId":"SBMA","flightCategory":"VFR","rawOb":"METAR SBMA 012200Z 00000KT 9999 FEW023 BKN100 28/25 Q1012","temp":28,"dewp":25,"wdir":0,"wspd":0,"visib":"6+","altim":1012,"clouds":[{"cover":"FEW","base":2300},{"cover":"BKN","base":10000}],"obsTime":1780351200},"SBME":{"icaoId":"SBME","flightCategory":"VFR","rawOb":"METAR SBME 012200Z 22007KT 9999 FEW025 22/19 Q1019","temp":22,"dewp":19,"wdir":220,"wspd":7,"visib":"6+","altim":1019,"clouds":[{"cover":"FEW","base":2500}],"obsTime":1780351200},"SBMG":{"icaoId":"SBMG","flightCategory":"VFR","rawOb":"METAR SBMG 012200Z 07004KT CAVOK 20/12 Q1019","temp":20,"dewp":12,"wdir":70,"wspd":4,"visib":"6+","altim":1019,"clouds":[],"obsTime":1780351200},"SBMK":{"icaoId":"SBMK","flightCategory":"VFR","rawOb":"METAR SBMK 012200Z 05002KT 9999 FEW046 22/16 Q1019","temp":22,"dewp":16,"wdir":50,"wspd":2,"visib":"6+","altim":1019,"clouds":[{"cover":"FEW","base":4600}],"obsTime":1780351200},"SBMO":{"icaoId":"SBMO","flightCategory":"VFR","rawOb":"METAR SBMO 012200Z 15004KT 9999 FEW025 25/21 Q1016","temp":25,"dewp":21,"wdir":150,"wspd":4,"visib":"6+","altim":1016,"clouds":[{"cover":"FEW","base":2500}],"obsTime":1780351200},"SBMQ":{"icaoId":"SBMQ","flightCategory":"VFR","rawOb":"METAR SBMQ 012200Z 07004KT 9999 FEW025 28/25 Q1013","temp":28,"dewp":25,"wdir":70,"wspd":4,"visib":"6+","altim":1013,"clouds":[{"cover":"FEW","base":2500}],"obsTime":1780351200},"SBNT":{"icaoId":"SBNT","flightCategory":"VFR","rawOb":"METAR SBNT 012200Z 14007KT CAVOK 26/23 Q1014","temp":26,"dewp":23,"wdir":140,"wspd":7,"visib":"6+","altim":1014,"clouds":[],"obsTime":1780351200},"SBPA":{"icaoId":"SBPA","flightCategory":"VFR","rawOb":"METAR SBPA 012200Z 16007KT 9999 BKN045 15/12 Q1023","temp":15,"dewp":12,"wdir":160,"wspd":7,"visib":"6+","altim":1023,"clouds":[{"cover":"BKN","base":4500}],"obsTime":1780351200},"SBPJ":{"icaoId":"SBPJ","flightCategory":"VFR","rawOb":"METAR SBPJ 012200Z 17002KT 9999 FEW035 28/23 Q1014","temp":28,"dewp":23,"wdir":170,"wspd":2,"visib":"6+","altim":1014,"clouds":[{"cover":"FEW","base":3500}],"obsTime":1780351200},"SBPV":{"icaoId":"SBPV","flightCategory":"VFR","rawOb":"METAR SBPV 012200Z 19002KT 9999 FEW040 28/22 Q1012","temp":28,"dewp":22,"wdir":190,"wspd":2,"visib":"6+","altim":1012,"clouds":[{"cover":"FEW","base":4000}],"obsTime":1780351200},"SBRB":{"icaoId":"SBRB","flightCategory":"VFR","rawOb":"METAR SBRB 012200Z 16002KT 9999 FEW035 29/24 Q1013","temp":29,"dewp":24,"wdir":160,"wspd":2,"visib":"6+","altim":1013,"clouds":[{"cover":"FEW","base":3500}],"obsTime":1780351200},"SBRF":{"icaoId":"SBRF","flightCategory":"VFR","rawOb":"METAR SBRF 012200Z 17008KT 9999 SCT024 SCT100 27/21 Q1015","temp":27,"dewp":21,"wdir":170,"wspd":8,"visib":"6+","altim":1015,"clouds":[{"cover":"SCT","base":2400},{"cover":"SCT","base":10000}],"obsTime":1780351200},"SBSG":{"icaoId":"SBSG","flightCategory":"VFR","rawOb":"METAR SBSG 012200Z 13004KT 9999 FEW023 25/23 Q1014","temp":25,"dewp":23,"wdir":130,"wspd":4,"visib":"6+","altim":1014,"clouds":[{"cover":"FEW","base":2300}],"obsTime":1780351200},"SBSL":{"icaoId":"SBSL","flightCategory":"VFR","rawOb":"METAR SBSL 012200Z 09003KT 9999 FEW020 BKN080 25/24 Q1012","temp":25,"dewp":24,"wdir":90,"wspd":3,"visib":"6+","altim":1012,"clouds":[{"cover":"FEW","base":2000},{"cover":"BKN","base":8000}],"obsTime":1780351200},"SBSN":{"icaoId":"SBSN","flightCategory":"VFR","rawOb":"METAR SBSN 012200Z 10009KT 9999 FEW010 FEW025TCU BKN070 28/25 Q1012","temp":28,"dewp":25,"wdir":100,"wspd":9,"visib":"6+","altim":1012,"clouds":[{"cover":"FEW","base":1000},{"cover":"FEW","base":2500},{"cover":"BKN","base":7000}],"obsTime":1780351200},"SBSP":{"icaoId":"SBSP","flightCategory":"VFR","rawOb":"METAR SBSP 012200Z 16008KT 9999 FEW009 14/13 Q1023","temp":14,"dewp":13,"wdir":160,"wspd":8,"visib":"6+","altim":1023,"clouds":[{"cover":"FEW","base":900}],"obsTime":1780351200},"SBSV":{"icaoId":"SBSV","flightCategory":"VFR","rawOb":"METAR SBSV 012200Z 18004KT 100V200 9999 SCT015 SCT070 25/22 Q1016","temp":25,"dewp":22,"wdir":180,"wspd":4,"visib":"6+","altim":1016,"clouds":[{"cover":"SCT","base":1500},{"cover":"SCT","base":7000}],"obsTime":1780351200},"SBTE":{"icaoId":"SBTE","flightCategory":"VFR","rawOb":"METAR SBTE 012200Z 33005KT 9999 FEW025 30/23 Q1011","temp":30,"dewp":23,"wdir":330,"wspd":5,"visib":"6+","altim":1011,"clouds":[{"cover":"FEW","base":2500}],"obsTime":1780351200},"SBUL":{"icaoId":"SBUL","flightCategory":"VFR","rawOb":"METAR SBUL 012200Z 25007KT CAVOK 21/08 Q1021","temp":21,"dewp":8,"wdir":250,"wspd":7,"visib":"6+","altim":1021,"clouds":[],"obsTime":1780351200},"SBUR":{"icaoId":"SBUR","flightCategory":"VFR","rawOb":"METAR SBUR 012200Z 21005KT CAVOK 21/11 Q1020","temp":21,"dewp":11,"wdir":210,"wspd":5,"visib":"6+","altim":1020,"clouds":[],"obsTime":1780351200},"SBCP":{"icaoId":"SBCP","flightCategory":"MVFR","rawOb":"METAR SBCP 012200Z 17006KT 9999 BKN020 22/19 Q1019","temp":22,"dewp":19,"wdir":170,"wspd":6,"visib":"6+","altim":1019,"clouds":[{"cover":"BKN","base":2000}],"obsTime":1780351200},"SBCA":{"icaoId":"SBCA","flightCategory":"VFR","rawOb":"METAR SBCA 012200Z 20005KT 9999 FEW001 13/13 Q1022","temp":13,"dewp":13,"wdir":200,"wspd":5,"visib":"6+","altim":1022,"clouds":[{"cover":"FEW","base":100}],"obsTime":1780351200},"SBAR":{"icaoId":"SBAR","flightCategory":"VFR","rawOb":"METAR SBAR 012200Z 11006KT CAVOK 26/21 Q1016","temp":26,"dewp":21,"wdir":110,"wspd":6,"visib":"6+","altim":1016,"clouds":[],"obsTime":1780351200},"SBAX":{"icaoId":"SBAX","flightCategory":"VFR","rawOb":"METAR SBAX 012200Z 22004KT CAVOK 20/12 Q1021","temp":20,"dewp":12,"wdir":220,"wspd":4,"visib":"6+","altim":1021,"clouds":[],"obsTime":1780351200},"SBBH":{"icaoId":"SBBH","flightCategory":"VFR","rawOb":"METAR SBBH 012200Z 10008KT 9999 SCT045 21/15 Q1020","temp":21,"dewp":15,"wdir":100,"wspd":8,"visib":"6+","altim":1020,"clouds":[{"cover":"SCT","base":4500}],"obsTime":1780351200},"SBBU":{"icaoId":"SBBU","flightCategory":"VFR","rawOb":"METAR SBBU 012200Z 16006KT CAVOK 20/10 Q1020","temp":20,"dewp":10,"wdir":160,"wspd":6,"visib":"6+","altim":1020,"clouds":[],"obsTime":1780351200},"SBCO":{"icaoId":"SBCO","flightCategory":"VFR","rawOb":"METAR SBCO 012200Z 13004KT 9999 BKN045 15/12 Q1024","temp":15,"dewp":12,"wdir":130,"wspd":4,"visib":"6+","altim":1024,"clouds":[{"cover":"BKN","base":4500}],"obsTime":1780351200},"SBDN":{"icaoId":"SBDN","flightCategory":"VFR","rawOb":"METAR SBDN 012200Z 13005KT CAVOK 20/12 Q1019","temp":20,"dewp":12,"wdir":130,"wspd":5,"visib":"6+","altim":1019,"clouds":[],"obsTime":1780351200},"SBES":{"icaoId":"SBES","flightCategory":"VFR","rawOb":"METAR SBES 012200Z 23007KT 200V260 9999 SCT030 22/// Q1019","temp":null,"dewp":null,"wdir":230,"wspd":7,"visib":"6+","altim":1019,"clouds":[{"cover":"SCT","base":3000}],"obsTime":1780351200},"SBIP":{"icaoId":"SBIP","flightCategory":"VFR","rawOb":"METAR SBIP 012200Z AUTO VRB01KT CAVOK 19/18 Q1018","temp":19,"dewp":18,"wdir":"VRB","wspd":1,"visib":"6+","altim":1018,"clouds":[],"obsTime":1780351200},"SBKG":{"icaoId":"SBKG","flightCategory":"VFR","rawOb":"METAR SBKG 012200Z 10005KT CAVOK 24/19 Q1017","temp":24,"dewp":19,"wdir":100,"wspd":5,"visib":"6+","altim":1017,"clouds":[],"obsTime":1780351200},"SBPL":{"icaoId":"SBPL","flightCategory":"VFR","rawOb":"METAR SBPL 012200Z 11004KT CAVOK 29/15 Q1015","temp":29,"dewp":15,"wdir":110,"wspd":4,"visib":"6+","altim":1015,"clouds":[],"obsTime":1780351200},"SBPS":{"icaoId":"SBPS","flightCategory":"VFR","rawOb":"METAR SBPS 012200Z 22001KT 9999 SCT020 BKN090 23/22 Q1018","temp":23,"dewp":22,"wdir":220,"wspd":1,"visib":"6+","altim":1018,"clouds":[{"cover":"SCT","base":2000},{"cover":"BKN","base":9000}],"obsTime":1780351200},"SBSC":{"icaoId":"SBSC","flightCategory":"MVFR","rawOb":"METAR SBSC 012200Z 21007KT 9999 FEW015 SCT023 BKN030 22/19 Q1019","temp":22,"dewp":19,"wdir":210,"wspd":7,"visib":"6+","altim":1019,"clouds":[{"cover":"FEW","base":1500},{"cover":"SCT","base":2300},{"cover":"BKN","base":3000}],"obsTime":1780351200},"SBSJ":{"icaoId":"SBSJ","flightCategory":"MVFR","rawOb":"METAR SBSJ 012200Z 20004KT 9999 OVC025 17/14 Q1021","temp":17,"dewp":14,"wdir":200,"wspd":4,"visib":"6+","altim":1021,"clouds":[{"cover":"OVC","base":2500}],"obsTime":1780351200},"SBSM":{"icaoId":"SBSM","flightCategory":"VFR","rawOb":"METAR SBSM 012200Z 18002KT 9999 FEW025 11/11 Q1023","temp":11,"dewp":11,"wdir":180,"wspd":2,"visib":"6+","altim":1023,"clouds":[{"cover":"FEW","base":2500}],"obsTime":1780351200},"SBSR":{"icaoId":"SBSR","flightCategory":"VFR","rawOb":"METAR SBSR 012200Z 22004KT CAVOK 22/11 Q1019","temp":22,"dewp":11,"wdir":220,"wspd":4,"visib":"6+","altim":1019,"clouds":[],"obsTime":1780351200},"SBTT":{"icaoId":"SBTT","flightCategory":"VFR","rawOb":"METAR SBTT 012200Z 22003KT 9999 FEW003 SCT040 24/23 Q1012 RETS","temp":24,"dewp":23,"wdir":220,"wspd":3,"visib":"6+","altim":1012,"clouds":[{"cover":"FEW","base":300},{"cover":"SCT","base":4000}],"obsTime":1780351200},"SBVH":{"icaoId":"SBVH","flightCategory":"VFR","rawOb":"METAR SBVH 012200Z 08004KT 9999 SCT040 25/20 Q1017","temp":25,"dewp":20,"wdir":80,"wspd":4,"visib":"6+","altim":1017,"clouds":[{"cover":"SCT","base":4000}],"obsTime":1780351200},"SBTF":{"icaoId":"SBTF","flightCategory":"VFR","rawOb":"METAR SBTF 012200Z 14002KT CAVOK 30/24 Q1011","temp":30,"dewp":24,"wdir":140,"wspd":2,"visib":"6+","altim":1011,"clouds":[],"obsTime":1780351200},"SBOI":{"icaoId":"SBOI","flightCategory":"MVFR","rawOb":"METAR SBOI 012200Z AUTO 01007KT 350V070 9999 // FEW008/// BKN023/// BKN030/// 26/25 Q1013","temp":26,"dewp":25,"wdir":10,"wspd":7,"visib":"6+","altim":1013,"clouds":[{"cover":"FEW","base":800},{"cover":"BKN","base":2300},{"cover":"BKN","base":3000}],"obsTime":1780351200},"SBTU":{"icaoId":"SBTU","flightCategory":"VFR","rawOb":"METAR SBTU 012200Z AUTO VRB02KT 9999 // FEW059/// ///// Q1014","temp":null,"dewp":null,"wdir":"VRB","wspd":2,"visib":"6+","altim":1014,"clouds":[{"cover":"FEW","base":5900}],"obsTime":1780351200},"SBUY":{"icaoId":"SBUY","flightCategory":"VFR","rawOb":"METAR SBUY 012200Z 00000KT 9999 FEW025 FEW035TCU 27/25 Q1011","temp":27,"dewp":25,"wdir":0,"wspd":0,"visib":"6+","altim":1011,"clouds":[{"cover":"FEW","base":2500},{"cover":"FEW","base":3500}],"obsTime":1780351200},"SBLE":{"icaoId":"SBLE","flightCategory":"VFR","rawOb":"METAR SBLE 012200Z AUTO 00000KT CAVOK ///// Q////","temp":null,"dewp":null,"wdir":0,"wspd":0,"visib":"6+","altim":null,"clouds":[],"obsTime":1780351200},"SBNM":{"icaoId":"SBNM","flightCategory":"VFR","rawOb":"METAR SBNM 012200Z AUTO 14004KT CAVOK 17/11 Q1021","temp":17,"dewp":11,"wdir":140,"wspd":4,"visib":"6+","altim":1021,"clouds":[],"obsTime":1780351200},"SBAN":{"icaoId":"SBAN","flightCategory":"VFR","rawOb":"METAR SBAN 012200Z 25004KT 9999 VCSH VCTS SCT040 FEW045CB SCT070 19/15 Q1022","temp":19,"dewp":15,"wdir":250,"wspd":4,"visib":"6+","altim":1022,"clouds":[{"cover":"SCT","base":4000},{"cover":"FEW","base":4500},{"cover":"SCT","base":7000}],"obsTime":1780351200},"SBAF":{"icaoId":"SBAF","flightCategory":"VFR","rawOb":"METAR SBAF 012200Z 22007KT 9999 SCT026 BKN058 22/21 Q1019","temp":22,"dewp":21,"wdir":220,"wspd":7,"visib":"6+","altim":1019,"clouds":[{"cover":"SCT","base":2600},{"cover":"BKN","base":5800}],"obsTime":1780351200},"SBJR":{"icaoId":"SBJR","flightCategory":"MVFR","rawOb":"METAR SBJR 012200Z 29001KT 8000 SCT030 BKN050 21/20 Q1019","temp":21,"dewp":20,"wdir":290,"wspd":1,"visib":4.97,"altim":1019,"clouds":[{"cover":"SCT","base":3000},{"cover":"BKN","base":5000}],"obsTime":1780351200},"SBLS":{"icaoId":"SBLS","flightCategory":"VFR","rawOb":"METAR SBLS 012200Z 15010KT 9999 VCTS SCT040 FEW045CB BKN070 22/16 Q1020","temp":22,"dewp":16,"wdir":150,"wspd":10,"visib":"6+","altim":1020,"clouds":[{"cover":"SCT","base":4000},{"cover":"FEW","base":4500},{"cover":"BKN","base":7000}],"obsTime":1780351200},"SBMT":{"icaoId":"SBMT","flightCategory":"VFR","rawOb":"METAR SBMT 012200Z 13006KT 9999 BKN036 16/12 Q1022","temp":16,"dewp":12,"wdir":130,"wspd":6,"visib":"6+","altim":1022,"clouds":[{"cover":"BKN","base":3600}],"obsTime":1780351200},"SBTA":{"icaoId":"SBTA","flightCategory":"MVFR","rawOb":"METAR SBTA 012200Z 18006KT 140V220 8000 BKN022 BKN033 18/14 Q1020","temp":18,"dewp":14,"wdir":180,"wspd":6,"visib":4.97,"altim":1020,"clouds":[{"cover":"BKN","base":2200},{"cover":"BKN","base":3300}],"obsTime":1780351200},"SBJP":{"icaoId":"SBJP","flightCategory":"VFR","rawOb":"METAR SBJP 012200Z 13008KT 9999 FEW020 BKN070 26/22 Q1015","temp":26,"dewp":22,"wdir":130,"wspd":8,"visib":"6+","altim":1015,"clouds":[{"cover":"FEW","base":2000},{"cover":"BKN","base":7000}],"obsTime":1780351200},"SBJV":{"icaoId":"SBJV","flightCategory":"VFR","rawOb":"METAR SBJV 012200Z 12006KT 9999 FEW015 BKN050 19/17 Q1022","temp":19,"dewp":17,"wdir":120,"wspd":6,"visib":"6+","altim":1022,"clouds":[{"cover":"FEW","base":1500},{"cover":"BKN","base":5000}],"obsTime":1780351200},"SBGW":{"icaoId":"SBGW","flightCategory":"MVFR","rawOb":"METAR SBGW 012200Z 22004KT 6000 BKN025 BKN035 19/13 Q1021","temp":19,"dewp":13,"wdir":220,"wspd":4,"visib":3.73,"altim":1021,"clouds":[{"cover":"BKN","base":2500},{"cover":"BKN","base":3500}],"obsTime":1780351200}}}