{"updated":1783084631,"count":87,"data":{"SBNT":{"icaoId":"SBNT","flightCategory":"IFR","rawOb":"METAR SBNT 031200Z 17008KT 3000 -RA BR BKN007 BKN015 OVC024 24/23 Q1016","temp":24,"dewp":23,"wdir":170,"wspd":8,"visib":1.86,"altim":1016,"clouds":[{"cover":"BKN","base":700},{"cover":"BKN","base":1500},{"cover":"OVC","base":2400}],"obsTime":1783080000},"SBCP":{"icaoId":"SBCP","flightCategory":"VFR","rawOb":"METAR SBCP 031200Z 04007KT CAVOK 23/19 Q1020","temp":23,"dewp":19,"wdir":40,"wspd":7,"visib":"6+","altim":1020,"clouds":[],"obsTime":1783080000},"SBSP":{"icaoId":"SBSP","flightCategory":"VFR","rawOb":"METAR SBSP 031200Z 32004KT 220V010 CAVOK 20/14 Q1024","temp":20,"dewp":14,"wdir":320,"wspd":4,"visib":"6+","altim":1024,"clouds":[],"obsTime":1783080000},"SBIL":{"icaoId":"SBIL","flightCategory":"MVFR","rawOb":"METAR SBIL 031200Z 32003KT 9999 VCSH BKN018 BKN050 23/23 Q1019","temp":23,"dewp":23,"wdir":320,"wspd":3,"visib":"6+","altim":1019,"clouds":[{"cover":"BKN","base":1800},{"cover":"BKN","base":5000}],"obsTime":1783080000},"SBFZ":{"icaoId":"SBFZ","flightCategory":"VFR","rawOb":"METAR SBFZ 031200Z 16012KT 9999 FEW030 BKN060 27/21 Q1015","temp":27,"dewp":21,"wdir":160,"wspd":12,"visib":"6+","altim":1015,"clouds":[{"cover":"FEW","base":3000},{"cover":"BKN","base":6000}],"obsTime":1783080000},"SBMO":{"icaoId":"SBMO","flightCategory":"VFR","rawOb":"METAR SBMO 031200Z 09014KT 9999 SCT030 27/21 Q1018","temp":27,"dewp":21,"wdir":90,"wspd":14,"visib":"6+","altim":1018,"clouds":[{"cover":"SCT","base":3000}],"obsTime":1783080000},"SBPJ":{"icaoId":"SBPJ","flightCategory":"VFR","rawOb":"METAR SBPJ 031200Z 09003KT CAVOK 29/15 Q1017","temp":29,"dewp":15,"wdir":90,"wspd":3,"visib":"6+","altim":1017,"clouds":[],"obsTime":1783080000},"SBEG":{"icaoId":"SBEG","flightCategory":"VFR","rawOb":"METAR SBEG 031200Z 22002KT CAVOK 28/25 Q1014","temp":28,"dewp":25,"wdir":220,"wspd":2,"visib":"6+","altim":1014,"clouds":[],"obsTime":1783080000},"SBCB":{"icaoId":"SBCB","flightCategory":"VFR","rawOb":"METAR SBCB 031200Z 03004KT 9999 SCT010 22/20 Q1019","temp":22,"dewp":20,"wdir":30,"wspd":4,"visib":"6+","altim":1019,"clouds":[{"cover":"SCT","base":1000}],"obsTime":1783080000},"SBSL":{"icaoId":"SBSL","flightCategory":"VFR","rawOb":"METAR SBSL 031200Z 09008KT 9999 FEW025 29/24 Q1013","temp":29,"dewp":24,"wdir":90,"wspd":8,"visib":"6+","altim":1013,"clouds":[{"cover":"FEW","base":2500}],"obsTime":1783080000},"SBPV":{"icaoId":"SBPV","flightCategory":"VFR","rawOb":"METAR SBPV 031200Z 16012KT CAVOK 26/21 Q1014","temp":26,"dewp":21,"wdir":160,"wspd":12,"visib":"6+","altim":1014,"clouds":[],"obsTime":1783080000},"SBCZ":{"icaoId":"SBCZ","flightCategory":"VFR","rawOb":"METAR SBCZ 031200Z 00000KT 9999 SCT030 24/23 Q1015","temp":24,"dewp":23,"wdir":0,"wspd":0,"visib":"6+","altim":1015,"clouds":[{"cover":"SCT","base":3000}],"obsTime":1783080000},"SBFL":{"icaoId":"SBFL","flightCategory":"MVFR","rawOb":"METAR SBFL 031200Z 14009KT 9999 SCT015 BKN023 13/09 Q1022","temp":13,"dewp":9,"wdir":140,"wspd":9,"visib":"6+","altim":1022,"clouds":[{"cover":"SCT","base":1500},{"cover":"BKN","base":2300}],"obsTime":1783080000},"SBBV":{"icaoId":"SBBV","flightCategory":"VFR","rawOb":"METAR SBBV 031200Z 06004KT 9999 -RA SCT004 SCT030 FEW035TCU BKN100 24/23 Q1015","temp":24,"dewp":23,"wdir":60,"wspd":4,"visib":"6+","altim":1015,"clouds":[{"cover":"SCT","base":400},{"cover":"SCT","base":3000},{"cover":"FEW","base":3500},{"cover":"BKN","base":10000}],"obsTime":1783080000},"SBBE":{"icaoId":"SBBE","flightCategory":"VFR","rawOb":"METAR SBBE 031200Z 10006KT CAVOK 28/24 Q1013","temp":28,"dewp":24,"wdir":100,"wspd":6,"visib":"6+","altim":1013,"clouds":[],"obsTime":1783080000},"SBGL":{"icaoId":"SBGL","flightCategory":"IFR","rawOb":"SPECI SBGL 031136Z 35003KT 310V040 4000 BR FEW002 22/20 Q1019","temp":22,"dewp":20,"wdir":350,"wspd":3,"visib":2.49,"altim":1019,"clouds":[{"cover":"FEW","base":200}],"obsTime":1783078560},"SBSN":{"icaoId":"SBSN","flightCategory":"VFR","rawOb":"METAR SBSN 031200Z 11004KT 9999 FEW017 29/25 Q1013","temp":29,"dewp":25,"wdir":110,"wspd":4,"visib":"6+","altim":1013,"clouds":[{"cover":"FEW","base":1700}],"obsTime":1783080000},"SBPA":{"icaoId":"SBPA","flightCategory":"VFR","rawOb":"METAR SBPA 031200Z 28012KT CAVOK 05/01 Q1027","temp":5,"dewp":1,"wdir":280,"wspd":12,"visib":"6+","altim":1027,"clouds":[],"obsTime":1783080000},"SBVT":{"icaoId":"SBVT","flightCategory":"VFR","rawOb":"METAR SBVT 031200Z 01003KT 310V040 9999 SCT030 24/20 Q1020","temp":24,"dewp":20,"wdir":10,"wspd":3,"visib":"6+","altim":1020,"clouds":[{"cover":"SCT","base":3000}],"obsTime":1783080000},"SBCR":{"icaoId":"SBCR","flightCategory":"VFR","rawOb":"METAR SBCR 031200Z 21007KT 160V250 9999 FEW008 SCT016 BKN066 14/13 Q1024","temp":14,"dewp":13,"wdir":210,"wspd":7,"visib":"6+","altim":1024,"clouds":[{"cover":"FEW","base":800},{"cover":"SCT","base":1600},{"cover":"BKN","base":6600}],"obsTime":1783080000},"SBSG":{"icaoId":"SBSG","flightCategory":"IFR","rawOb":"METAR SBSG 031200Z 16006KT 130V210 3000 -RA BR SCT003 BKN005 23/23 Q1016","temp":23,"dewp":23,"wdir":160,"wspd":6,"visib":1.86,"altim":1016,"clouds":[{"cover":"SCT","base":300},{"cover":"BKN","base":500}],"obsTime":1783080000},"SBMA":{"icaoId":"SBMA","flightCategory":"VFR","rawOb":"METAR SBMA 031200Z 20004KT 9999 FEW015 27/19 Q1014","temp":27,"dewp":19,"wdir":200,"wspd":4,"visib":"6+","altim":1014,"clouds":[{"cover":"FEW","base":1500}],"obsTime":1783080000},"SBTE":{"icaoId":"SBTE","flightCategory":"VFR","rawOb":"METAR SBTE 031200Z 13008KT CAVOK 27/15 Q1015","temp":27,"dewp":15,"wdir":130,"wspd":8,"visib":"6+","altim":1015,"clouds":[],"obsTime":1783080000},"SBCT":{"icaoId":"SBCT","flightCategory":"IFR","rawOb":"METAR SBCT 031200Z 11003KT 070V130 8000 BKN009 OVC015 15/15 Q1023","temp":15,"dewp":15,"wdir":110,"wspd":3,"visib":4.97,"altim":1023,"clouds":[{"cover":"BKN","base":900},{"cover":"OVC","base":1500}],"obsTime":1783080000},"SBBR":{"icaoId":"SBBR","flightCategory":"VFR","rawOb":"METAR SBBR 031200Z 11007KT CAVOK 20/11 Q1025","temp":20,"dewp":11,"wdir":110,"wspd":7,"visib":"6+","altim":1025,"clouds":[],"obsTime":1783080000},"SBSV":{"icaoId":"SBSV","flightCategory":"VFR","rawOb":"METAR SBSV 031200Z 10013KT 9999 SCT025 SCT050 27/20 Q1019","temp":27,"dewp":20,"wdir":100,"wspd":13,"visib":"6+","altim":1019,"clouds":[{"cover":"SCT","base":2500},{"cover":"SCT","base":5000}],"obsTime":1783080000},"SBCF":{"icaoId":"SBCF","flightCategory":"VFR","rawOb":"METAR SBCF 031200Z 20003KT CAVOK 16/14 Q1025","temp":16,"dewp":14,"wdir":200,"wspd":3,"visib":"6+","altim":1025,"clouds":[],"obsTime":1783080000},"SBJU":{"icaoId":"SBJU","flightCategory":"VFR","rawOb":"METAR SBJU 031200Z 15010KT CAVOK 26/15 Q1018","temp":26,"dewp":15,"wdir":150,"wspd":10,"visib":"6+","altim":1018,"clouds":[],"obsTime":1783080000},"SBAT":{"icaoId":"SBAT","flightCategory":"VFR","rawOb":"METAR SBAT 031200Z 13010KT CAVOK 26/17 Q1017","temp":26,"dewp":17,"wdir":130,"wspd":10,"visib":"6+","altim":1017,"clouds":[],"obsTime":1783080000},"SBFI":{"icaoId":"SBFI","flightCategory":"IFR","rawOb":"METAR SBFI 031200Z 20007KT 9999 BKN009 SCT020 10/09 Q1026","temp":10,"dewp":9,"wdir":200,"wspd":7,"visib":"6+","altim":1026,"clouds":[{"cover":"BKN","base":900},{"cover":"SCT","base":2000}],"obsTime":1783080000},"SBKP":{"icaoId":"SBKP","flightCategory":"VFR","rawOb":"METAR SBKP 031200Z 10004KT 9999 4000E BCFG NSC 18/14 Q1023","temp":18,"dewp":14,"wdir":100,"wspd":4,"visib":"6+","altim":1023,"clouds":[],"obsTime":1783080000},"SBRF":{"icaoId":"SBRF","flightCategory":"MVFR","rawOb":"METAR SBRF 031200Z 15017KT 8000 VCSH SCT010 SCT020 BKN060 27/22 Q1017","temp":27,"dewp":22,"wdir":150,"wspd":17,"visib":4.97,"altim":1017,"clouds":[{"cover":"SCT","base":1000},{"cover":"SCT","base":2000},{"cover":"BKN","base":6000}],"obsTime":1783080000},"SBRB":{"icaoId":"SBRB","flightCategory":"MVFR","rawOb":"METAR SBRB 031200Z 16008KT 8000 FEW010 BKN100 20/18 Q1018","temp":20,"dewp":18,"wdir":160,"wspd":8,"visib":4.97,"altim":1018,"clouds":[{"cover":"FEW","base":1000},{"cover":"BKN","base":10000}],"obsTime":1783080000},"SBGR":{"icaoId":"SBGR","flightCategory":"VFR","rawOb":"METAR SBGR 031200Z 09002KT CAVOK 20/15 Q1024","temp":20,"dewp":15,"wdir":90,"wspd":2,"visib":"6+","altim":1024,"clouds":[],"obsTime":1783080000},"SBLO":{"icaoId":"SBLO","flightCategory":"LIFR","rawOb":"METAR SBLO 031200Z 21006KT 3500 BR OVC002 18/17 Q1022","temp":18,"dewp":17,"wdir":210,"wspd":6,"visib":2.17,"altim":1022,"clouds":[{"cover":"OVC","base":200}],"obsTime":1783080000},"SBCG":{"icaoId":"SBCG","flightCategory":"LIFR","rawOb":"METAR SBCG 031200Z 14009KT 2500 BR OVC002 14/14 Q1023","temp":14,"dewp":14,"wdir":140,"wspd":9,"visib":1.55,"altim":1023,"clouds":[{"cover":"OVC","base":200}],"obsTime":1783080000},"SBMQ":{"icaoId":"SBMQ","flightCategory":"VFR","rawOb":"SPECI SBMQ 031138Z 17008KT 9999 VCSH FEW006 SCT035 BKN065 25/24 Q1014","temp":25,"dewp":24,"wdir":170,"wspd":8,"visib":"6+","altim":1014,"clouds":[{"cover":"FEW","base":600},{"cover":"SCT","base":3500},{"cover":"BKN","base":6500}],"obsTime":1783078680},"SBGO":{"icaoId":"SBGO","flightCategory":"VFR","rawOb":"METAR SBGO 031200Z 14003KT 060V180 CAVOK 21/15 Q1023","temp":21,"dewp":15,"wdir":140,"wspd":3,"visib":"6+","altim":1023,"clouds":[],"obsTime":1783080000},"SBHT":{"icaoId":"SBHT","flightCategory":"VFR","rawOb":"METAR SBHT 031200Z 00000KT 9999 FEW015 SCT080 28/25 Q1014","temp":28,"dewp":25,"wdir":0,"wspd":0,"visib":"6+","altim":1014,"clouds":[{"cover":"FEW","base":1500},{"cover":"SCT","base":8000}],"obsTime":1783080000},"SBMG":{"icaoId":"SBMG","flightCategory":"LIFR","rawOb":"METAR SBMG 031200Z 27004KT 0200 R10/0400N FG VV001 16/16 Q1022","temp":16,"dewp":16,"wdir":270,"wspd":4,"visib":0.12,"altim":1022,"clouds":[{"cover":"OVX","base":100}],"obsTime":1783080000},"SBME":{"icaoId":"SBME","flightCategory":"VFR","rawOb":"METAR SBME 031200Z 31002KT CAVOK 20/19 Q1019","temp":20,"dewp":19,"wdir":310,"wspd":2,"visib":"6+","altim":1019,"clouds":[],"obsTime":1783080000},"SBMK":{"icaoId":"SBMK","flightCategory":"VFR","rawOb":"METAR SBMK 031200Z 24004KT CAVOK 21/15 Q1023","temp":21,"dewp":15,"wdir":240,"wspd":4,"visib":"6+","altim":1023,"clouds":[],"obsTime":1783080000},"SBUL":{"icaoId":"SBUL","flightCategory":"VFR","rawOb":"METAR SBUL 031200Z 11007KT CAVOK 20/13 Q1025","temp":20,"dewp":13,"wdir":110,"wspd":7,"visib":"6+","altim":1025,"clouds":[],"obsTime":1783080000},"SBUR":{"icaoId":"SBUR","flightCategory":"VFR","rawOb":"METAR SBUR 031200Z 02006KT CAVOK 21/14 Q1023","temp":21,"dewp":14,"wdir":20,"wspd":6,"visib":"6+","altim":1023,"clouds":[],"obsTime":1783080000},"SBDN":{"icaoId":"SBDN","flightCategory":"LIFR","rawOb":"METAR SBDN 031200Z 20005KT 0600 FG OVC002 18/18 Q1022","temp":18,"dewp":18,"wdir":200,"wspd":5,"visib":0.37,"altim":1022,"clouds":[{"cover":"OVC","base":200}],"obsTime":1783080000},"SBAR":{"icaoId":"SBAR","flightCategory":"VFR","rawOb":"METAR SBAR 031200Z 11015KT 9999 SCT024 27/22 Q1018","temp":27,"dewp":22,"wdir":110,"wspd":15,"visib":"6+","altim":1018,"clouds":[{"cover":"SCT","base":2400}],"obsTime":1783080000},"SBKG":{"icaoId":"SBKG","flightCategory":"MVFR","rawOb":"METAR SBKG 031200Z 13010KT 9999 SCT010 BKN030 23/20 Q1019","temp":23,"dewp":20,"wdir":130,"wspd":10,"visib":"6+","altim":1019,"clouds":[{"cover":"SCT","base":1000},{"cover":"BKN","base":3000}],"obsTime":1783080000},"SBCC":{"icaoId":"SBCC","flightCategory":"VFR","rawOb":"METAR SBCC 031200Z 12004KT CAVOK 25/14 Q1018","temp":25,"dewp":14,"wdir":120,"wspd":4,"visib":"6+","altim":1018,"clouds":[],"obsTime":1783080000},"SBGM":{"icaoId":"SBGM","flightCategory":"MVFR","rawOb":"METAR SBGM 031200Z 13011KT 9999 OVC013 21/16 Q1017","temp":21,"dewp":16,"wdir":130,"wspd":11,"visib":"6+","altim":1017,"clouds":[{"cover":"OVC","base":1300}],"obsTime":1783080000},"SBVH":{"icaoId":"SBVH","flightCategory":"IFR","rawOb":"METAR SBVH 031200Z 18008KT 9999 BKN005 18/17 Q1020","temp":18,"dewp":17,"wdir":180,"wspd":8,"visib":"6+","altim":1020,"clouds":[{"cover":"BKN","base":500}],"obsTime":1783080000},"SBCA":{"icaoId":"SBCA","flightCategory":"LIFR","rawOb":"METAR SBCA 031200Z 19011KT 0000 FG VV000 10/10 Q1025","temp":10,"dewp":10,"wdir":190,"wspd":11,"visib":0,"altim":1025,"clouds":[{"cover":"OVX","base":0}],"obsTime":1783080000},"SBCO":{"icaoId":"SBCO","flightCategory":"VFR","rawOb":"METAR SBCO 031200Z 28012KT CAVOK 05/01 Q1028","temp":5,"dewp":1,"wdir":280,"wspd":12,"visib":"6+","altim":1028,"clouds":[],"obsTime":1783080000},"SBSM":{"icaoId":"SBSM","flightCategory":"VFR","rawOb":"METAR SBSM 031200Z 28005KT CAVOK 03/01 Q1030","temp":3,"dewp":1,"wdir":280,"wspd":5,"visib":"6+","altim":1030,"clouds":[],"obsTime":1783080000},"SBAX":{"icaoId":"SBAX","flightCategory":"VFR","rawOb":"METAR SBAX 031200Z 08004KT CAVOK 20/15 Q1025","temp":20,"dewp":15,"wdir":80,"wspd":4,"visib":"6+","altim":1025,"clouds":[],"obsTime":1783080000},"SBBH":{"icaoId":"SBBH","flightCategory":"VFR","rawOb":"METAR SBBH 031200Z 00000KT CAVOK 20/13 Q1024","temp":20,"dewp":13,"wdir":0,"wspd":0,"visib":"6+","altim":1024,"clouds":[],"obsTime":1783080000},"SBBQ":{"icaoId":"SBBQ","flightCategory":"VFR","rawOb":"METAR SBBQ 031200Z 00000KT CAVOK 13/13 Q1027","temp":13,"dewp":13,"wdir":0,"wspd":0,"visib":"6+","altim":1027,"clouds":[],"obsTime":1783080000},"SBBU":{"icaoId":"SBBU","flightCategory":"VFR","rawOb":"METAR SBBU 031200Z 07003KT CAVOK 22/15 Q1023","temp":22,"dewp":15,"wdir":70,"wspd":3,"visib":"6+","altim":1023,"clouds":[],"obsTime":1783080000},"SBES":{"icaoId":"SBES","flightCategory":"IFR","rawOb":"METAR SBES 031200Z 00000KT 3500 BR FEW004 BKN009 20/// Q1019","temp":null,"dewp":null,"wdir":0,"wspd":0,"visib":2.17,"altim":1019,"clouds":[{"cover":"FEW","base":400},{"cover":"BKN","base":900}],"obsTime":1783080000},"SBIP":{"icaoId":"SBIP","flightCategory":"VFR","rawOb":"METAR SBIP 031200Z AUTO VRB01KT CAVOK 20/15 Q1022","temp":20,"dewp":15,"wdir":"VRB","wspd":1,"visib":"6+","altim":1022,"clouds":[],"obsTime":1783080000},"SBSC":{"icaoId":"SBSC","flightCategory":"VFR","rawOb":"METAR SBSC 031200Z 08005KT CAVOK 25/21 Q1020","temp":25,"dewp":21,"wdir":80,"wspd":5,"visib":"6+","altim":1020,"clouds":[],"obsTime":1783080000},"SBSR":{"icaoId":"SBSR","flightCategory":"VFR","rawOb":"METAR SBSR 031200Z VRB02KT CAVOK 21/13 Q1022","temp":21,"dewp":13,"wdir":"VRB","wspd":2,"visib":"6+","altim":1022,"clouds":[],"obsTime":1783080000},"SBCJ":{"icaoId":"SBCJ","flightCategory":"VFR","rawOb":"METAR SBCJ 031200Z 13004KT 080V190 CAVOK 26/11 Q1018","temp":26,"dewp":11,"wdir":130,"wspd":4,"visib":"6+","altim":1018,"clouds":[],"obsTime":1783080000},"SBSJ":{"icaoId":"SBSJ","flightCategory":"IFR","rawOb":"SPECI SBSJ 031136Z 25002KT 2500 BR FEW001 14/14 Q1024","temp":14,"dewp":14,"wdir":250,"wspd":2,"visib":1.55,"altim":1024,"clouds":[{"cover":"FEW","base":100}],"obsTime":1783078560},"SBPB":{"icaoId":"SBPB","flightCategory":"VFR","rawOb":"METAR SBPB 031200Z 11008KT 9999 FEW020 29/19 Q1013","temp":29,"dewp":19,"wdir":110,"wspd":8,"visib":"6+","altim":1013,"clouds":[{"cover":"FEW","base":2000}],"obsTime":1783080000},"SBTT":{"icaoId":"SBTT","flightCategory":"VFR","rawOb":"METAR SBTT 031200Z 20002KT 9999 FEW007 OVC100 24/23 Q1014","temp":24,"dewp":23,"wdir":200,"wspd":2,"visib":"6+","altim":1014,"clouds":[{"cover":"FEW","base":700},{"cover":"OVC","base":10000}],"obsTime":1783080000},"SBUY":{"icaoId":"SBUY","flightCategory":"VFR","rawOb":"METAR SBUY 031200Z 00000KT CAVOK 24/23 Q1013","temp":24,"dewp":23,"wdir":0,"wspd":0,"visib":"6+","altim":1013,"clouds":[],"obsTime":1783080000},"SBPS":{"icaoId":"SBPS","flightCategory":"VFR","rawOb":"METAR SBPS 031200Z 11007KT 090V160 9999 SCT020 26/20 Q1020","temp":26,"dewp":20,"wdir":110,"wspd":7,"visib":"6+","altim":1020,"clouds":[{"cover":"SCT","base":2000}],"obsTime":1783080000},"SBOI":{"icaoId":"SBOI","flightCategory":"VFR","rawOb":"METAR SBOI 031200Z AUTO VRB01KT CAVOK 28/25 Q1014","temp":28,"dewp":25,"wdir":"VRB","wspd":1,"visib":"6+","altim":1014,"clouds":[],"obsTime":1783080000},"SBPL":{"icaoId":"SBPL","flightCategory":"VFR","rawOb":"METAR SBPL 031200Z 11009KT 9999 FEW020 SCT030 25/20 Q1018","temp":25,"dewp":20,"wdir":110,"wspd":9,"visib":"6+","altim":1018,"clouds":[{"cover":"FEW","base":2000},{"cover":"SCT","base":3000}],"obsTime":1783080000},"SBTU":{"icaoId":"SBTU","flightCategory":"VFR","rawOb":"METAR SBTU 031200Z AUTO 25006KT 220V280 9999 // NCD ///// Q1016","temp":null,"dewp":null,"wdir":250,"wspd":6,"visib":"6+","altim":1016,"clouds":[],"obsTime":1783080000},"SBTD":{"icaoId":"SBTD","flightCategory":"LIFR","rawOb":"METAR SBTD 031200Z /////KT 9999 BKN004 BKN015 12/10 Q1024","temp":12,"dewp":10,"wdir":null,"wspd":null,"visib":"6+","altim":1024,"clouds":[{"cover":"BKN","base":400},{"cover":"BKN","base":1500}],"obsTime":1783080000},"SBPP":{"icaoId":"SBPP","flightCategory":"LIFR","rawOb":"METAR SBPP 031200Z 21009KT 0000 FG VV000 10/10 Q1014","temp":10,"dewp":10,"wdir":210,"wspd":9,"visib":0,"altim":1014,"clouds":[{"cover":"OVX","base":0}],"obsTime":1783080000},"SBTF":{"icaoId":"SBTF","flightCategory":"VFR","rawOb":"METAR SBTF 031200Z 17003KT 9999 SCT025 SCT100 26/25 Q1013","temp":26,"dewp":25,"wdir":170,"wspd":3,"visib":"6+","altim":1013,"clouds":[{"cover":"SCT","base":2500},{"cover":"SCT","base":10000}],"obsTime":1783080000},"SBJP":{"icaoId":"SBJP","flightCategory":"IFR","rawOb":"METAR SBJP 031200Z 14008KT 9999 BKN008 BKN015 OVC070 24/24 Q1017 RERA","temp":24,"dewp":24,"wdir":140,"wspd":8,"visib":"6+","altim":1017,"clouds":[{"cover":"BKN","base":800},{"cover":"BKN","base":1500},{"cover":"OVC","base":7000}],"obsTime":1783080000},"SBAN":{"icaoId":"SBAN","flightCategory":"VFR","rawOb":"METAR SBAN 031200Z 08007KT CAVOK 20/13 Q1025","temp":20,"dewp":13,"wdir":80,"wspd":7,"visib":"6+","altim":1025,"clouds":[],"obsTime":1783080000},"SBLE":{"icaoId":"SBLE","flightCategory":"MVFR","rawOb":"METAR SBLE 031200Z AUTO VRB03KT 9999 FEW003 BKN020 OVC027 ///// Q1022","temp":null,"dewp":null,"wdir":"VRB","wspd":3,"visib":"6+","altim":1022,"clouds":[{"cover":"FEW","base":300},{"cover":"BKN","base":2000},{"cover":"OVC","base":2700}],"obsTime":1783080000},"SBIH":{"icaoId":"SBIH","flightCategory":"VFR","rawOb":"METAR SBIH 031200Z 23003KT CAVOK 28/25 Q1013","temp":28,"dewp":25,"wdir":230,"wspd":3,"visib":"6+","altim":1013,"clouds":[],"obsTime":1783080000},"SBJV":{"icaoId":"SBJV","flightCategory":"LIFR","rawOb":"METAR SBJV 031200Z 11007KT 2000 -DZ BR BKN004 OVC010 15/14 Q1023","temp":15,"dewp":14,"wdir":110,"wspd":7,"visib":1.24,"altim":1023,"clouds":[{"cover":"BKN","base":400},{"cover":"OVC","base":1000}],"obsTime":1783080000},"SBNM":{"icaoId":"SBNM","flightCategory":"VFR","rawOb":"METAR SBNM 031200Z AUTO 13007KT CAVOK 03/01 Q1029","temp":3,"dewp":1,"wdir":130,"wspd":7,"visib":"6+","altim":1029,"clouds":[],"obsTime":1783080000},"SBPF":{"icaoId":"SBPF","flightCategory":"MVFR","rawOb":"METAR SBPF 031200Z 24009KT 9999 SCT003 OVC018 04/02 Q1026","temp":4,"dewp":2,"wdir":240,"wspd":9,"visib":"6+","altim":1026,"clouds":[{"cover":"SCT","base":300},{"cover":"OVC","base":1800}],"obsTime":1783080000},"SBAF":{"icaoId":"SBAF","flightCategory":"MVFR","rawOb":"METAR SBAF 031200Z 32001KT 5000 BR FEW008 23/23 Q1020","temp":23,"dewp":23,"wdir":320,"wspd":1,"visib":3.11,"altim":1020,"clouds":[{"cover":"FEW","base":800}],"obsTime":1783080000},"SBGW":{"icaoId":"SBGW","flightCategory":"LIFR","rawOb":"METAR SBGW 031200Z VRB01KT 4000 0800N BCFG BKN004 15/12 Q1023","temp":15,"dewp":12,"wdir":"VRB","wspd":1,"visib":2.49,"altim":1023,"clouds":[{"cover":"BKN","base":400}],"obsTime":1783080000},"SBJR":{"icaoId":"SBJR","flightCategory":"VFR","rawOb":"METAR SBJR 031200Z 02002KT CAVOK 25/22 Q1019","temp":25,"dewp":22,"wdir":20,"wspd":2,"visib":"6+","altim":1019,"clouds":[],"obsTime":1783080000},"SBLS":{"icaoId":"SBLS","flightCategory":"VFR","rawOb":"METAR SBLS 031200Z 20003KT 120V230 CAVOK 17/14 Q1024","temp":17,"dewp":14,"wdir":200,"wspd":3,"visib":"6+","altim":1024,"clouds":[],"obsTime":1783080000},"SBMT":{"icaoId":"SBMT","flightCategory":"VFR","rawOb":"METAR SBMT 031200Z 00000KT CAVOK 19/13 Q1024","temp":19,"dewp":13,"wdir":0,"wspd":0,"visib":"6+","altim":1024,"clouds":[],"obsTime":1783080000},"SBST":{"icaoId":"SBST","flightCategory":"MVFR","rawOb":"METAR SBST 031200Z 33003KT 5000 BR OVC012 20/17 Q1021","temp":20,"dewp":17,"wdir":330,"wspd":3,"visib":3.11,"altim":1021,"clouds":[{"cover":"OVC","base":1200}],"obsTime":1783080000},"SBTA":{"icaoId":"SBTA","flightCategory":"VFR","rawOb":"METAR SBTA 031200Z 28002KT CAVOK 18/15 Q1023","temp":18,"dewp":15,"wdir":280,"wspd":2,"visib":"6+","altim":1023,"clouds":[],"obsTime":1783080000}}}