{"updated":1781117121,"count":86,"data":{"SBSN":{"icaoId":"SBSN","flightCategory":"VFR","rawOb":"METAR SBSN 101700Z 02004KT 330V030 9999 -TSRA SCT020 FEW030CB BKN090 29/25 Q1012","temp":29,"dewp":25,"wdir":20,"wspd":4,"visib":"6+","altim":1012,"clouds":[{"cover":"SCT","base":2000},{"cover":"FEW","base":3000},{"cover":"BKN","base":9000}],"obsTime":1781110800},"SBMA":{"icaoId":"SBMA","flightCategory":"VFR","rawOb":"METAR SBMA 101700Z 12004KT 9999 SCT025 FEW030TCU 33/23 Q1011","temp":33,"dewp":23,"wdir":120,"wspd":4,"visib":"6+","altim":1011,"clouds":[{"cover":"SCT","base":2500},{"cover":"FEW","base":3000}],"obsTime":1781110800},"SBEG":{"icaoId":"SBEG","flightCategory":"VFR","rawOb":"METAR SBEG 101700Z 21003KT 9999 SCT016 FEW025TCU SCT100 28/24 Q1013","temp":28,"dewp":24,"wdir":210,"wspd":3,"visib":"6+","altim":1013,"clouds":[{"cover":"SCT","base":1600},{"cover":"FEW","base":2500},{"cover":"SCT","base":10000}],"obsTime":1781110800},"SBBR":{"icaoId":"SBBR","flightCategory":"VFR","rawOb":"METAR SBBR 101700Z VRB02KT 9999 SCT045 26/13 Q1018","temp":26,"dewp":13,"wdir":"VRB","wspd":2,"visib":"6+","altim":1018,"clouds":[{"cover":"SCT","base":4500}],"obsTime":1781110800},"SBME":{"icaoId":"SBME","flightCategory":"VFR","rawOb":"METAR SBME 101700Z 15008KT CAVOK 24/19 Q1015","temp":24,"dewp":19,"wdir":150,"wspd":8,"visib":"6+","altim":1015,"clouds":[],"obsTime":1781110800},"SBFI":{"icaoId":"SBFI","flightCategory":"IFR","rawOb":"METAR SBFI 101700Z 05006KT 3000 -TSRA SCT003 BKN010 FEW030CB OVC100 17/17 Q1014","temp":17,"dewp":17,"wdir":50,"wspd":6,"visib":1.86,"altim":1014,"clouds":[{"cover":"SCT","base":300},{"cover":"BKN","base":1000},{"cover":"FEW","base":3000},{"cover":"OVC","base":10000}],"obsTime":1781110800},"SBMG":{"icaoId":"SBMG","flightCategory":"LIFR","rawOb":"METAR SBMG 101700Z 17007KT 140V230 0200 R10/1800U -RA FG BKN001 OVC050 17/16 Q1016 RERA","temp":17,"dewp":16,"wdir":170,"wspd":7,"visib":0.12,"altim":1016,"clouds":[{"cover":"BKN","base":100},{"cover":"OVC","base":5000}],"obsTime":1781110800},"SBCF":{"icaoId":"SBCF","flightCategory":"VFR","rawOb":"METAR SBCF 101700Z 34005KT 9999 FEW025 25/11 Q1018","temp":25,"dewp":11,"wdir":340,"wspd":5,"visib":"6+","altim":1018,"clouds":[{"cover":"FEW","base":2500}],"obsTime":1781110800},"SBMK":{"icaoId":"SBMK","flightCategory":"VFR","rawOb":"METAR SBMK 101700Z 01005KT 9999 SCT045 29/14 Q1016","temp":29,"dewp":14,"wdir":10,"wspd":5,"visib":"6+","altim":1016,"clouds":[{"cover":"SCT","base":4500}],"obsTime":1781110800},"SBMO":{"icaoId":"SBMO","flightCategory":"MVFR","rawOb":"METAR SBMO 101700Z 12008KT 9999 VCSH BKN016 BKN050 26/25 Q1014","temp":26,"dewp":25,"wdir":120,"wspd":8,"visib":"6+","altim":1014,"clouds":[{"cover":"BKN","base":1600},{"cover":"BKN","base":5000}],"obsTime":1781110800},"SBCG":{"icaoId":"SBCG","flightCategory":"VFR","rawOb":"METAR SBCG 101700Z 33008KT 9999 -RA FEW040 BKN090 23/15 Q1014","temp":23,"dewp":15,"wdir":330,"wspd":8,"visib":"6+","altim":1014,"clouds":[{"cover":"FEW","base":4000},{"cover":"BKN","base":9000}],"obsTime":1781110800},"SBFL":{"icaoId":"SBFL","flightCategory":"VFR","rawOb":"METAR SBFL 101700Z 11005KT 060V150 9999 FEW023 SCT100 19/14 Q1016","temp":19,"dewp":14,"wdir":110,"wspd":5,"visib":"6+","altim":1016,"clouds":[{"cover":"FEW","base":2300},{"cover":"SCT","base":10000}],"obsTime":1781110800},"SBMQ":{"icaoId":"SBMQ","flightCategory":"VFR","rawOb":"METAR SBMQ 101700Z 05011KT 9999 FEW015 30/25 Q1011","temp":30,"dewp":25,"wdir":50,"wspd":11,"visib":"6+","altim":1011,"clouds":[{"cover":"FEW","base":1500}],"obsTime":1781110800},"SBBE":{"icaoId":"SBBE","flightCategory":"MVFR","rawOb":"METAR SBBE 101700Z 06007KT 9999 VCSH BKN030 FEW040TCU 31/24 Q1011","temp":31,"dewp":24,"wdir":60,"wspd":7,"visib":"6+","altim":1011,"clouds":[{"cover":"BKN","base":3000},{"cover":"FEW","base":4000}],"obsTime":1781110800},"SBNT":{"icaoId":"SBNT","flightCategory":"VFR","rawOb":"METAR SBNT 101700Z 14016KT 9999 FEW025 30/23 Q1012","temp":30,"dewp":23,"wdir":140,"wspd":16,"visib":"6+","altim":1012,"clouds":[{"cover":"FEW","base":2500}],"obsTime":1781110800},"SBPA":{"icaoId":"SBPA","flightCategory":"MVFR","rawOb":"METAR SBPA 101700Z 07004KT 050V110 9999 BKN020 16/12 Q1016","temp":16,"dewp":12,"wdir":70,"wspd":4,"visib":"6+","altim":1016,"clouds":[{"cover":"BKN","base":2000}],"obsTime":1781110800},"SBFZ":{"icaoId":"SBFZ","flightCategory":"MVFR","rawOb":"METAR SBFZ 101700Z 14012KT 9999 BKN025 BKN070 29/24 Q1012","temp":29,"dewp":24,"wdir":140,"wspd":12,"visib":"6+","altim":1012,"clouds":[{"cover":"BKN","base":2500},{"cover":"BKN","base":7000}],"obsTime":1781110800},"SBGL":{"icaoId":"SBGL","flightCategory":"VFR","rawOb":"METAR SBGL 101700Z 13010KT 9999 FEW045 25/18 Q1015","temp":25,"dewp":18,"wdir":130,"wspd":10,"visib":"6+","altim":1015,"clouds":[{"cover":"FEW","base":4500}],"obsTime":1781110800},"SBPJ":{"icaoId":"SBPJ","flightCategory":"VFR","rawOb":"METAR SBPJ 101700Z 33009KT 9999 SCT040 34/20 Q1012","temp":34,"dewp":20,"wdir":330,"wspd":9,"visib":"6+","altim":1012,"clouds":[{"cover":"SCT","base":4000}],"obsTime":1781110800},"SBPV":{"icaoId":"SBPV","flightCategory":"VFR","rawOb":"METAR SBPV 101700Z 20006KT 9999 SCT015 BKN100 27/21 Q1015","temp":27,"dewp":21,"wdir":200,"wspd":6,"visib":"6+","altim":1015,"clouds":[{"cover":"SCT","base":1500},{"cover":"BKN","base":10000}],"obsTime":1781110800},"SBBV":{"icaoId":"SBBV","flightCategory":"VFR","rawOb":"METAR SBBV 101700Z 10007KT 9999 SCT025 FEW035TCU BKN100 30/23 Q1013","temp":30,"dewp":23,"wdir":100,"wspd":7,"visib":"6+","altim":1013,"clouds":[{"cover":"SCT","base":2500},{"cover":"FEW","base":3500},{"cover":"BKN","base":10000}],"obsTime":1781110800},"SBRB":{"icaoId":"SBRB","flightCategory":"MVFR","rawOb":"METAR SBRB 101700Z 35005KT 9999 BKN017 SCT100 27/22 Q1015","temp":27,"dewp":22,"wdir":350,"wspd":5,"visib":"6+","altim":1015,"clouds":[{"cover":"BKN","base":1700},{"cover":"SCT","base":10000}],"obsTime":1781110800},"SBGO":{"icaoId":"SBGO","flightCategory":"VFR","rawOb":"METAR SBGO 101700Z 34012KT 310V010 CAVOK 30/15 Q1016","temp":30,"dewp":15,"wdir":340,"wspd":12,"visib":"6+","altim":1016,"clouds":[],"obsTime":1781110800},"SBCP":{"icaoId":"SBCP","flightCategory":"VFR","rawOb":"METAR SBCP 101700Z 20004KT CAVOK 28/14 Q1014","temp":28,"dewp":14,"wdir":200,"wspd":4,"visib":"6+","altim":1014,"clouds":[],"obsTime":1781110800},"SBRF":{"icaoId":"SBRF","flightCategory":"VFR","rawOb":"METAR SBRF 101700Z 12010KT 090V150 9999 FEW025 28/23 Q1013","temp":28,"dewp":23,"wdir":120,"wspd":10,"visib":"6+","altim":1013,"clouds":[{"cover":"FEW","base":2500}],"obsTime":1781110800},"SBSG":{"icaoId":"SBSG","flightCategory":"VFR","rawOb":"METAR SBSG 101700Z 12009KT 090V160 9999 SCT025 29/24 Q1012","temp":29,"dewp":24,"wdir":120,"wspd":9,"visib":"6+","altim":1012,"clouds":[{"cover":"SCT","base":2500}],"obsTime":1781110800},"SBGR":{"icaoId":"SBGR","flightCategory":"VFR","rawOb":"METAR SBGR 101700Z 03006KT CAVOK 23/12 Q1017","temp":23,"dewp":12,"wdir":30,"wspd":6,"visib":"6+","altim":1017,"clouds":[],"obsTime":1781110800},"SBSL":{"icaoId":"SBSL","flightCategory":"VFR","rawOb":"METAR SBSL 101700Z 06006KT 9999 SCT025 FEW030TCU 28/26 Q1011","temp":28,"dewp":26,"wdir":60,"wspd":6,"visib":"6+","altim":1011,"clouds":[{"cover":"SCT","base":2500},{"cover":"FEW","base":3000}],"obsTime":1781110800},"SBCR":{"icaoId":"SBCR","flightCategory":"VFR","rawOb":"METAR SBCR 101700Z 01004KT CAVOK 26/20 Q1011","temp":26,"dewp":20,"wdir":10,"wspd":4,"visib":"6+","altim":1011,"clouds":[],"obsTime":1781110800},"SBAT":{"icaoId":"SBAT","flightCategory":"VFR","rawOb":"METAR SBAT 101700Z 28005KT 9999 FEW030 32/22 Q1013","temp":32,"dewp":22,"wdir":280,"wspd":5,"visib":"6+","altim":1013,"clouds":[{"cover":"FEW","base":3000}],"obsTime":1781110800},"SBHT":{"icaoId":"SBHT","flightCategory":"MVFR","rawOb":"METAR SBHT 101700Z 10007KT 9999 BKN030 30/25 Q1012","temp":30,"dewp":25,"wdir":100,"wspd":7,"visib":"6+","altim":1012,"clouds":[{"cover":"BKN","base":3000}],"obsTime":1781110800},"SBSP":{"icaoId":"SBSP","flightCategory":"VFR","rawOb":"METAR SBSP 101700Z 07004KT 010V150 CAVOK 23/10 Q1018","temp":23,"dewp":10,"wdir":70,"wspd":4,"visib":"6+","altim":1018,"clouds":[],"obsTime":1781110800},"SBCT":{"icaoId":"SBCT","flightCategory":"MVFR","rawOb":"METAR SBCT 101700Z 07004KT 5000 -RA BR BKN010 OVC015 15/15 Q1018","temp":15,"dewp":15,"wdir":70,"wspd":4,"visib":3.11,"altim":1018,"clouds":[{"cover":"BKN","base":1000},{"cover":"OVC","base":1500}],"obsTime":1781110800},"SBSV":{"icaoId":"SBSV","flightCategory":"VFR","rawOb":"METAR SBSV 101700Z 17006KT 120V220 9999 SCT030 27/20 Q1015","temp":27,"dewp":20,"wdir":170,"wspd":6,"visib":"6+","altim":1015,"clouds":[{"cover":"SCT","base":3000}],"obsTime":1781110800},"SBIL":{"icaoId":"SBIL","flightCategory":"VFR","rawOb":"METAR SBIL 101700Z 10007KT 9999 FEW025 28/21 Q1015","temp":28,"dewp":21,"wdir":100,"wspd":7,"visib":"6+","altim":1015,"clouds":[{"cover":"FEW","base":2500}],"obsTime":1781110800},"SBTE":{"icaoId":"SBTE","flightCategory":"VFR","rawOb":"METAR SBTE 101700Z VRB04KT 9999 BKN033 SCT070 32/22 Q1011","temp":32,"dewp":22,"wdir":"VRB","wspd":4,"visib":"6+","altim":1011,"clouds":[{"cover":"BKN","base":3300},{"cover":"SCT","base":7000}],"obsTime":1781110800},"SBCB":{"icaoId":"SBCB","flightCategory":"VFR","rawOb":"METAR SBCB 101700Z 24008KT 9999 FEW040 24/20 Q1015","temp":24,"dewp":20,"wdir":240,"wspd":8,"visib":"6+","altim":1015,"clouds":[{"cover":"FEW","base":4000}],"obsTime":1781110800},"SBUL":{"icaoId":"SBUL","flightCategory":"VFR","rawOb":"METAR SBUL 101700Z 06009KT 350V100 9999 FEW040 26/13 Q1017","temp":26,"dewp":13,"wdir":60,"wspd":9,"visib":"6+","altim":1017,"clouds":[{"cover":"FEW","base":4000}],"obsTime":1781110800},"SBJU":{"icaoId":"SBJU","flightCategory":"MVFR","rawOb":"METAR SBJU 101700Z 13009KT 9999 BKN022 29/19 Q1014","temp":29,"dewp":19,"wdir":130,"wspd":9,"visib":"6+","altim":1014,"clouds":[{"cover":"BKN","base":2200}],"obsTime":1781110800},"SBUR":{"icaoId":"SBUR","flightCategory":"VFR","rawOb":"METAR SBUR 101700Z 34007KT CAVOK 29/10 Q1016","temp":29,"dewp":10,"wdir":340,"wspd":7,"visib":"6+","altim":1016,"clouds":[],"obsTime":1781110800},"SBKP":{"icaoId":"SBKP","flightCategory":"VFR","rawOb":"METAR SBKP 101700Z 36004KT CAVOK 25/11 Q1016","temp":25,"dewp":11,"wdir":360,"wspd":4,"visib":"6+","altim":1016,"clouds":[],"obsTime":1781110800},"SBVT":{"icaoId":"SBVT","flightCategory":"VFR","rawOb":"METAR SBVT 101700Z 15007KT 9999 FEW030 SCT100 24/19 Q1015","temp":24,"dewp":19,"wdir":150,"wspd":7,"visib":"6+","altim":1015,"clouds":[{"cover":"FEW","base":3000},{"cover":"SCT","base":10000}],"obsTime":1781110800},"SBLO":{"icaoId":"SBLO","flightCategory":"MVFR","rawOb":"METAR SBLO 101700Z 10004KT 8000 -RA SCT006 SCT030 OVC080 17/16 Q1016","temp":17,"dewp":16,"wdir":100,"wspd":4,"visib":4.97,"altim":1016,"clouds":[{"cover":"SCT","base":600},{"cover":"SCT","base":3000},{"cover":"OVC","base":8000}],"obsTime":1781110800},"SBCZ":{"icaoId":"SBCZ","flightCategory":"MVFR","rawOb":"METAR SBCZ 101700Z 02006KT 340V060 9999 BKN022 BKN100 28/23 Q1015","temp":28,"dewp":23,"wdir":20,"wspd":6,"visib":"6+","altim":1015,"clouds":[{"cover":"BKN","base":2200},{"cover":"BKN","base":10000}],"obsTime":1781110800},"SBTU":{"icaoId":"SBTU","flightCategory":"VFR","rawOb":"METAR SBTU 101700Z AUTO 20003KT 120V250 9999 // FEW028/// BKN048/// BKN064/// ///// Q1013","temp":null,"dewp":null,"wdir":200,"wspd":3,"visib":"6+","altim":1013,"clouds":[{"cover":"FEW","base":2800},{"cover":"BKN","base":4800},{"cover":"BKN","base":6400}],"obsTime":1781110800},"SBOI":{"icaoId":"SBOI","flightCategory":"MVFR","rawOb":"METAR SBOI 101700Z AUTO 01005KT 350V070 9999 SCT008 BKN010 26/25 Q1013","temp":26,"dewp":25,"wdir":10,"wspd":5,"visib":"6+","altim":1013,"clouds":[{"cover":"SCT","base":800},{"cover":"BKN","base":1000}],"obsTime":1781110800},"SBCJ":{"icaoId":"SBCJ","flightCategory":"MVFR","rawOb":"METAR SBCJ 101700Z 00000KT 9999 BKN023 27/22 Q1016","temp":27,"dewp":22,"wdir":0,"wspd":0,"visib":"6+","altim":1016,"clouds":[{"cover":"BKN","base":2300}],"obsTime":1781110800},"SBPB":{"icaoId":"SBPB","flightCategory":"VFR","rawOb":"METAR SBPB 101700Z 05010KT 9999 SCT016 FEW025TCU BKN090 31/26 Q1011","temp":31,"dewp":26,"wdir":50,"wspd":10,"visib":"6+","altim":1011,"clouds":[{"cover":"SCT","base":1600},{"cover":"FEW","base":2500},{"cover":"BKN","base":9000}],"obsTime":1781110800},"SBAR":{"icaoId":"SBAR","flightCategory":"VFR","rawOb":"METAR SBAR 101700Z 17007KT 130V220 9999 VCSH FEW015 SCT020 BKN050 27/22 Q1014","temp":27,"dewp":22,"wdir":170,"wspd":7,"visib":"6+","altim":1014,"clouds":[{"cover":"FEW","base":1500},{"cover":"SCT","base":2000},{"cover":"BKN","base":5000}],"obsTime":1781110800},"SBPL":{"icaoId":"SBPL","flightCategory":"VFR","rawOb":"METAR SBPL 101700Z 09008KT 9999 BKN035 31/17 Q1014","temp":31,"dewp":17,"wdir":90,"wspd":8,"visib":"6+","altim":1014,"clouds":[{"cover":"BKN","base":3500}],"obsTime":1781110800},"SBPP":{"icaoId":"SBPP","flightCategory":"MVFR","rawOb":"METAR SBPP 101700Z 05005KT 9999 BKN025 OVC070 20/17 Q1014","temp":20,"dewp":17,"wdir":50,"wspd":5,"visib":"6+","altim":1014,"clouds":[{"cover":"BKN","base":2500},{"cover":"OVC","base":7000}],"obsTime":1781110800},"SBBQ":{"icaoId":"SBBQ","flightCategory":"VFR","rawOb":"METAR SBBQ 101700Z 29008KT 9999 FEW035 23/10 Q1021","temp":23,"dewp":10,"wdir":290,"wspd":8,"visib":"6+","altim":1021,"clouds":[{"cover":"FEW","base":3500}],"obsTime":1781110800},"SBPS":{"icaoId":"SBPS","flightCategory":"VFR","rawOb":"METAR SBPS 101700Z 08008KT 9999 FEW025 27/22 Q1015","temp":27,"dewp":22,"wdir":80,"wspd":8,"visib":"6+","altim":1015,"clouds":[{"cover":"FEW","base":2500}],"obsTime":1781110800},"SBCO":{"icaoId":"SBCO","flightCategory":"VFR","rawOb":"METAR SBCO 101700Z 08005KT 050V110 9999 FEW019 16/12 Q1017","temp":16,"dewp":12,"wdir":80,"wspd":5,"visib":"6+","altim":1017,"clouds":[{"cover":"FEW","base":1900}],"obsTime":1781110800},"SBAX":{"icaoId":"SBAX","flightCategory":"VFR","rawOb":"METAR SBAX 101700Z AUTO 33007KT 280V020 CAVOK 26/11 Q1018","temp":26,"dewp":11,"wdir":330,"wspd":7,"visib":"6+","altim":1018,"clouds":[],"obsTime":1781110800},"SBSC":{"icaoId":"SBSC","flightCategory":"VFR","rawOb":"METAR SBSC 101700Z 20007KT CAVOK 24/19 Q1016","temp":24,"dewp":19,"wdir":200,"wspd":7,"visib":"6+","altim":1016,"clouds":[],"obsTime":1781110800},"SBSJ":{"icaoId":"SBSJ","flightCategory":"VFR","rawOb":"METAR SBSJ 101700Z 10004KT 060V150 9000 NSC 23/12 Q1017","temp":23,"dewp":12,"wdir":100,"wspd":4,"visib":5.59,"altim":1017,"clouds":[],"obsTime":1781110800},"SBDN":{"icaoId":"SBDN","flightCategory":"MVFR","rawOb":"METAR SBDN 101700Z 11006KT 8000 NSC 20/15 Q1015","temp":20,"dewp":15,"wdir":110,"wspd":6,"visib":4.97,"altim":1015,"clouds":[],"obsTime":1781110800},"SBES":{"icaoId":"SBES","flightCategory":"VFR","rawOb":"METAR SBES 101700Z 22008KT 190V250 9000 FEW020 23/// Q1015","temp":null,"dewp":null,"wdir":220,"wspd":8,"visib":5.59,"altim":1015,"clouds":[{"cover":"FEW","base":2000}],"obsTime":1781110800},"SBSM":{"icaoId":"SBSM","flightCategory":"MVFR","rawOb":"METAR SBSM 101700Z 11005KT 070V170 9999 BKN017 17/13 Q1015","temp":17,"dewp":13,"wdir":110,"wspd":5,"visib":"6+","altim":1015,"clouds":[{"cover":"BKN","base":1700}],"obsTime":1781110800},"SBBU":{"icaoId":"SBBU","flightCategory":"VFR","rawOb":"METAR SBBU 101700Z 06004KT CAVOK 26/13 Q1015","temp":26,"dewp":13,"wdir":60,"wspd":4,"visib":"6+","altim":1015,"clouds":[],"obsTime":1781110800},"SBSR":{"icaoId":"SBSR","flightCategory":"VFR","rawOb":"METAR SBSR 101700Z 02005KT CAVOK 29/09 Q1015","temp":29,"dewp":9,"wdir":20,"wspd":5,"visib":"6+","altim":1015,"clouds":[],"obsTime":1781110800},"SBAU":{"icaoId":"SBAU","flightCategory":"VFR","rawOb":"METAR SBAU 101700Z 03006KT CAVOK 30/10 Q1014","temp":30,"dewp":10,"wdir":30,"wspd":6,"visib":"6+","altim":1014,"clouds":[],"obsTime":1781110800},"SBTF":{"icaoId":"SBTF","flightCategory":"VFR","rawOb":"METAR SBTF 101700Z 30006KT 9999 SCT010 FEW025TCU BKN080 28/26 Q1013","temp":28,"dewp":26,"wdir":300,"wspd":6,"visib":"6+","altim":1013,"clouds":[{"cover":"SCT","base":1000},{"cover":"FEW","base":2500},{"cover":"BKN","base":8000}],"obsTime":1781110800},"SBTT":{"icaoId":"SBTT","flightCategory":"MVFR","rawOb":"METAR SBTT 101700Z 15006KT 110V180 9999 BKN010 25/23 Q1015","temp":25,"dewp":23,"wdir":150,"wspd":6,"visib":"6+","altim":1015,"clouds":[{"cover":"BKN","base":1000}],"obsTime":1781110800},"SBGM":{"icaoId":"SBGM","flightCategory":"MVFR","rawOb":"METAR SBGM 101700Z 34010KT 9000 BKN010 BKN100 24/22 Q1014","temp":24,"dewp":22,"wdir":340,"wspd":10,"visib":5.59,"altim":1014,"clouds":[{"cover":"BKN","base":1000},{"cover":"BKN","base":10000}],"obsTime":1781110800},"SBCA":{"icaoId":"SBCA","flightCategory":"LIFR","rawOb":"METAR SBCA 101700Z 14004KT 1200 RA BKN002 BKN025 BKN070 15/15 Q1017","temp":15,"dewp":15,"wdir":140,"wspd":4,"visib":0.75,"altim":1017,"clouds":[{"cover":"BKN","base":200},{"cover":"BKN","base":2500},{"cover":"BKN","base":7000}],"obsTime":1781110800},"SBUY":{"icaoId":"SBUY","flightCategory":"MVFR","rawOb":"METAR SBUY 101700Z 17002KT 9999 BKN020 BKN100 28/24 Q1013","temp":28,"dewp":24,"wdir":170,"wspd":2,"visib":"6+","altim":1013,"clouds":[{"cover":"BKN","base":2000},{"cover":"BKN","base":10000}],"obsTime":1781110800},"SBIP":{"icaoId":"SBIP","flightCategory":"VFR","rawOb":"METAR SBIP 101700Z AUTO 04004KT 360V080 CAVOK 28/17 Q1015","temp":28,"dewp":17,"wdir":40,"wspd":4,"visib":"6+","altim":1015,"clouds":[],"obsTime":1781110800},"SBBH":{"icaoId":"SBBH","flightCategory":"VFR","rawOb":"METAR SBBH 101700Z 28004KT CAVOK 26/13 Q1018","temp":26,"dewp":13,"wdir":280,"wspd":4,"visib":"6+","altim":1018,"clouds":[],"obsTime":1781110800},"SBVH":{"icaoId":"SBVH","flightCategory":"VFR","rawOb":"METAR SBVH 101700Z 32007KT CAVOK 25/20 Q1016","temp":25,"dewp":20,"wdir":320,"wspd":7,"visib":"6+","altim":1016,"clouds":[],"obsTime":1781110800},"SBCC":{"icaoId":"SBCC","flightCategory":"IFR","rawOb":"METAR SBCC 101700Z 08005KT 3000 -TSRA SCT025 FEW030CB BKN100 26/19 Q1014","temp":26,"dewp":19,"wdir":80,"wspd":5,"visib":1.86,"altim":1014,"clouds":[{"cover":"SCT","base":2500},{"cover":"FEW","base":3000},{"cover":"BKN","base":10000}],"obsTime":1781110800},"SBKG":{"icaoId":"SBKG","flightCategory":"VFR","rawOb":"METAR SBKG 101700Z 11007KT 9999 SCT026 28/20 Q1015","temp":28,"dewp":20,"wdir":110,"wspd":7,"visib":"6+","altim":1015,"clouds":[{"cover":"SCT","base":2600}],"obsTime":1781110800},"SBLE":{"icaoId":"SBLE","flightCategory":"VFR","rawOb":"METAR SBLE 101700Z AUTO VRB03KT CAVOK 27/17 Q1017","temp":27,"dewp":17,"wdir":"VRB","wspd":3,"visib":"6+","altim":1017,"clouds":[],"obsTime":1781110800},"SBJP":{"icaoId":"SBJP","flightCategory":"VFR","rawOb":"METAR SBJP 101700Z 12012KT 080V150 9999 SCT030 29/22 Q1013","temp":29,"dewp":22,"wdir":120,"wspd":12,"visib":"6+","altim":1013,"clouds":[{"cover":"SCT","base":3000}],"obsTime":1781110800},"SBJV":{"icaoId":"SBJV","flightCategory":"IFR","rawOb":"METAR SBJV 101700Z 13005KT 4000 -DZ BR BKN007 BKN013 18/17 Q1016","temp":18,"dewp":17,"wdir":130,"wspd":5,"visib":2.49,"altim":1016,"clouds":[{"cover":"BKN","base":700},{"cover":"BKN","base":1300}],"obsTime":1781110800},"SBNM":{"icaoId":"SBNM","flightCategory":"VFR","rawOb":"METAR SBNM 101700Z AUTO 10005KT 9999 SCT018 19/15 Q1014","temp":19,"dewp":15,"wdir":100,"wspd":5,"visib":"6+","altim":1014,"clouds":[{"cover":"SCT","base":1800}],"obsTime":1781110800},"SBAN":{"icaoId":"SBAN","flightCategory":"VFR","rawOb":"METAR SBAN 101700Z VRB05KT 9999 BKN045 28/12 Q1019","temp":28,"dewp":12,"wdir":"VRB","wspd":5,"visib":"6+","altim":1019,"clouds":[{"cover":"BKN","base":4500}],"obsTime":1781110800},"SBAF":{"icaoId":"SBAF","flightCategory":"VFR","rawOb":"METAR SBAF 101700Z 17008KT 9999 FEW030 25/20 Q1015","temp":25,"dewp":20,"wdir":170,"wspd":8,"visib":"6+","altim":1015,"clouds":[{"cover":"FEW","base":3000}],"obsTime":1781110800},"SBGW":{"icaoId":"SBGW","flightCategory":"VFR","rawOb":"METAR SBGW 101700Z VRB02KT CAVOK 25/15 Q1016","temp":25,"dewp":15,"wdir":"VRB","wspd":2,"visib":"6+","altim":1016,"clouds":[],"obsTime":1781110800},"SBJR":{"icaoId":"SBJR","flightCategory":"VFR","rawOb":"METAR SBJR 101700Z 20008KT 9999 FEW020 26/20 Q1015","temp":26,"dewp":20,"wdir":200,"wspd":8,"visib":"6+","altim":1015,"clouds":[{"cover":"FEW","base":2000}],"obsTime":1781110800},"SBLS":{"icaoId":"SBLS","flightCategory":"VFR","rawOb":"METAR SBLS 101700Z 33004KT 250V360 9999 FEW035 26/12 Q1018","temp":26,"dewp":12,"wdir":330,"wspd":4,"visib":"6+","altim":1018,"clouds":[{"cover":"FEW","base":3500}],"obsTime":1781110800},"SBMT":{"icaoId":"SBMT","flightCategory":"VFR","rawOb":"METAR SBMT 101700Z 10002KT CAVOK 26/13 Q1017","temp":26,"dewp":13,"wdir":100,"wspd":2,"visib":"6+","altim":1017,"clouds":[],"obsTime":1781110800},"SBST":{"icaoId":"SBST","flightCategory":"MVFR","rawOb":"METAR SBST 101700Z 18007KT 9999 BKN024 21/17 Q1015","temp":21,"dewp":17,"wdir":180,"wspd":7,"visib":"6+","altim":1015,"clouds":[{"cover":"BKN","base":2400}],"obsTime":1781110800},"SBTA":{"icaoId":"SBTA","flightCategory":"VFR","rawOb":"METAR SBTA 101700Z 05004KT 020V100 CAVOK 24/13 Q1016","temp":24,"dewp":13,"wdir":50,"wspd":4,"visib":"6+","altim":1016,"clouds":[],"obsTime":1781110800},"SBIH":{"icaoId":"SBIH","flightCategory":"VFR","rawOb":"METAR SBIH 101700Z 21005KT 9999 SCT018 FEW025TCU 30/25 Q1011","temp":30,"dewp":25,"wdir":210,"wspd":5,"visib":"6+","altim":1011,"clouds":[{"cover":"SCT","base":1800},{"cover":"FEW","base":2500}],"obsTime":1781110800}}}