{"updated":1774864288,"count":62,"data":{"SBCT":{"icaoId":"SBCT","flightCategory":"IFR","rawOb":"METAR SBCT 300800Z 00000KT 9999 BKN005 18/18 Q1019","temp":18,"dewp":18,"wdir":0,"wspd":0,"visib":"6+","altim":1019,"clouds":[{"cover":"BKN","base":500}],"obsTime":1774857600},"SBTE":{"icaoId":"SBTE","flightCategory":"VFR","rawOb":"METAR SBTE 300800Z 32003KT 9999 FEW020 25/24 Q1009","temp":25,"dewp":24,"wdir":320,"wspd":3,"visib":"6+","altim":1009,"clouds":[{"cover":"FEW","base":2000}],"obsTime":1774857600},"SBSV":{"icaoId":"SBSV","flightCategory":"VFR","rawOb":"METAR SBSV 300800Z 28003KT 250V360 9000 -RA SCT022 BKN031 24/24 Q1012","temp":24,"dewp":24,"wdir":280,"wspd":3,"visib":5.59,"altim":1012,"clouds":[{"cover":"SCT","base":2200},{"cover":"BKN","base":3100}],"obsTime":1774857600},"SBPA":{"icaoId":"SBPA","flightCategory":"VFR","rawOb":"METAR SBPA 300800Z 00000KT 9999 SCT010 25/23 Q1014","temp":25,"dewp":23,"wdir":0,"wspd":0,"visib":"6+","altim":1014,"clouds":[{"cover":"SCT","base":1000}],"obsTime":1774857600},"SBCG":{"icaoId":"SBCG","flightCategory":"VFR","rawOb":"METAR SBCG 300800Z 11005KT CAVOK 22/17 Q1016","temp":22,"dewp":17,"wdir":110,"wspd":5,"visib":"6+","altim":1016,"clouds":[],"obsTime":1774857600},"SBPJ":{"icaoId":"SBPJ","flightCategory":"VFR","rawOb":"METAR SBPJ 300800Z 27004KT 9999 -RA SCT016 OVC100 25/24 Q1012","temp":25,"dewp":24,"wdir":270,"wspd":4,"visib":"6+","altim":1012,"clouds":[{"cover":"SCT","base":1600},{"cover":"OVC","base":10000}],"obsTime":1774857600},"SBPV":{"icaoId":"SBPV","flightCategory":"VFR","rawOb":"METAR SBPV 300800Z 09003KT CAVOK 23/21 Q1011","temp":23,"dewp":21,"wdir":90,"wspd":3,"visib":"6+","altim":1011,"clouds":[],"obsTime":1774857600},"SBGO":{"icaoId":"SBGO","flightCategory":"VFR","rawOb":"METAR SBGO 300800Z 09002KT CAVOK 20/18 Q1017","temp":20,"dewp":18,"wdir":90,"wspd":2,"visib":"6+","altim":1017,"clouds":[],"obsTime":1774857600},"SBBR":{"icaoId":"SBBR","flightCategory":"VFR","rawOb":"METAR SBBR 300800Z VRB01KT CAVOK 16/15 Q1018","temp":16,"dewp":15,"wdir":"VRB","wspd":1,"visib":"6+","altim":1018,"clouds":[],"obsTime":1774857600},"SBRB":{"icaoId":"SBRB","flightCategory":"LIFR","rawOb":"METAR SBRB 300800Z 16003KT 6000 BKN004 BKN013 BKN100 23/23 Q1012","temp":23,"dewp":23,"wdir":160,"wspd":3,"visib":3.73,"altim":1012,"clouds":[{"cover":"BKN","base":400},{"cover":"BKN","base":1300},{"cover":"BKN","base":10000}],"obsTime":1774857600},"SBGR":{"icaoId":"SBGR","flightCategory":"IFR","rawOb":"METAR SBGR 300800Z 09002KT 7000 BKN009 18/17 Q1018","temp":18,"dewp":17,"wdir":90,"wspd":2,"visib":4.35,"altim":1018,"clouds":[{"cover":"BKN","base":900}],"obsTime":1774857600},"SBRF":{"icaoId":"SBRF","flightCategory":"VFR","rawOb":"METAR SBRF 300800Z 25002KT 9999 FEW014 SCT018 BKN100 25/24 Q1010","temp":25,"dewp":24,"wdir":250,"wspd":2,"visib":"6+","altim":1010,"clouds":[{"cover":"FEW","base":1400},{"cover":"SCT","base":1800},{"cover":"BKN","base":10000}],"obsTime":1774857600},"SBSG":{"icaoId":"SBSG","flightCategory":"VFR","rawOb":"METAR SBSG 300800Z 20004KT 9999 SCT023 23/23 Q1010","temp":23,"dewp":23,"wdir":200,"wspd":4,"visib":"6+","altim":1010,"clouds":[{"cover":"SCT","base":2300}],"obsTime":1774857600},"SBJU":{"icaoId":"SBJU","flightCategory":"VFR","rawOb":"METAR SBJU 300800Z 16004KT 9999 FEW020 24/21 Q1013","temp":24,"dewp":21,"wdir":160,"wspd":4,"visib":"6+","altim":1013,"clouds":[{"cover":"FEW","base":2000}],"obsTime":1774857600},"SBSL":{"icaoId":"SBSL","flightCategory":"VFR","rawOb":"METAR SBSL 300800Z 14005KT 9999 FEW020 SCT080 24/23 Q1010","temp":24,"dewp":23,"wdir":140,"wspd":5,"visib":"6+","altim":1010,"clouds":[{"cover":"FEW","base":2000},{"cover":"SCT","base":8000}],"obsTime":1774857600},"SBCB":{"icaoId":"SBCB","flightCategory":"VFR","rawOb":"METAR SBCB 300900Z 01003KT CAVOK 22/21 Q1015","temp":22,"dewp":21,"wdir":10,"wspd":3,"visib":"6+","altim":1015,"clouds":[],"obsTime":1774861200},"SBSN":{"icaoId":"SBSN","flightCategory":"VFR","rawOb":"METAR SBSN 300800Z 17003KT 9999 -RA SCT010 OVC100 23/23 Q1011","temp":23,"dewp":23,"wdir":170,"wspd":3,"visib":"6+","altim":1011,"clouds":[{"cover":"SCT","base":1000},{"cover":"OVC","base":10000}],"obsTime":1774857600},"SBKP":{"icaoId":"SBKP","flightCategory":"VFR","rawOb":"METAR SBKP 300800Z 12005KT 9000 NSC 20/18 Q1016","temp":20,"dewp":18,"wdir":120,"wspd":5,"visib":5.59,"altim":1016,"clouds":[],"obsTime":1774857600},"SBSP":{"icaoId":"SBSP","flightCategory":"VFR","rawOb":"METAR SBSP 300800Z AUTO VRB02KT CAVOK 19/17 Q1018","temp":19,"dewp":17,"wdir":"VRB","wspd":2,"visib":"6+","altim":1018,"clouds":[],"obsTime":1774857600},"SBBV":{"icaoId":"SBBV","flightCategory":"VFR","rawOb":"METAR SBBV 300800Z 11004KT 9999 BKN040 FEW045TCU BKN070 26/24 Q1010","temp":26,"dewp":24,"wdir":110,"wspd":4,"visib":"6+","altim":1010,"clouds":[{"cover":"BKN","base":4000},{"cover":"FEW","base":4500},{"cover":"BKN","base":7000}],"obsTime":1774857600},"SBMQ":{"icaoId":"SBMQ","flightCategory":"MVFR","rawOb":"METAR SBMQ 300800Z 29002KT 7000 -RA FEW005 BKN010 OVC013 25/25 Q1010","temp":25,"dewp":25,"wdir":290,"wspd":2,"visib":4.35,"altim":1010,"clouds":[{"cover":"FEW","base":500},{"cover":"BKN","base":1000},{"cover":"OVC","base":1300}],"obsTime":1774857600},"SBNT":{"icaoId":"SBNT","flightCategory":"VFR","rawOb":"METAR SBNT 300800Z 20003KT 9999 SCT018 24/22 Q1010","temp":24,"dewp":22,"wdir":200,"wspd":3,"visib":"6+","altim":1010,"clouds":[{"cover":"SCT","base":1800}],"obsTime":1774857600},"SBGL":{"icaoId":"SBGL","flightCategory":"VFR","rawOb":"METAR SBGL 300800Z 09002KT 9999 FEW012 SCT040 24/22 Q1014","temp":24,"dewp":22,"wdir":90,"wspd":2,"visib":"6+","altim":1014,"clouds":[{"cover":"FEW","base":1200},{"cover":"SCT","base":4000}],"obsTime":1774857600},"SBMO":{"icaoId":"SBMO","flightCategory":"VFR","rawOb":"METAR SBMO 300800Z 28002KT 9999 FEW011 SCT018 FEW023TCU BKN070 24/24 Q1011","temp":24,"dewp":24,"wdir":280,"wspd":2,"visib":"6+","altim":1011,"clouds":[{"cover":"FEW","base":1100},{"cover":"SCT","base":1800},{"cover":"FEW","base":2300},{"cover":"BKN","base":7000}],"obsTime":1774857600},"SBFZ":{"icaoId":"SBFZ","flightCategory":"VFR","rawOb":"METAR SBFZ 300800Z 28003KT 9999 SCT020 26/24 Q1009","temp":26,"dewp":24,"wdir":280,"wspd":3,"visib":"6+","altim":1009,"clouds":[{"cover":"SCT","base":2000}],"obsTime":1774857600},"SBEG":{"icaoId":"SBEG","flightCategory":"VFR","rawOb":"METAR SBEG 300800Z 36003KT 9999 SCT015 24/24 Q1011","temp":24,"dewp":24,"wdir":360,"wspd":3,"visib":"6+","altim":1011,"clouds":[{"cover":"SCT","base":1500}],"obsTime":1774857600},"SBLO":{"icaoId":"SBLO","flightCategory":"VFR","rawOb":"METAR SBLO 300800Z 09003KT CAVOK 21/18 Q1016","temp":21,"dewp":18,"wdir":90,"wspd":3,"visib":"6+","altim":1016,"clouds":[],"obsTime":1774857600},"SBUL":{"icaoId":"SBUL","flightCategory":"VFR","rawOb":"METAR SBUL 300800Z 12005KT CAVOK 20/16 Q1019","temp":20,"dewp":16,"wdir":120,"wspd":5,"visib":"6+","altim":1019,"clouds":[],"obsTime":1774857600},"SBFI":{"icaoId":"SBFI","flightCategory":"VFR","rawOb":"METAR SBFI 300800Z 07001KT CAVOK 20/20 Q1014","temp":20,"dewp":20,"wdir":70,"wspd":1,"visib":"6+","altim":1014,"clouds":[],"obsTime":1774857600},"SBUR":{"icaoId":"SBUR","flightCategory":"VFR","rawOb":"METAR SBUR 300800Z 03005KT CAVOK 21/16 Q1017","temp":21,"dewp":16,"wdir":30,"wspd":5,"visib":"6+","altim":1017,"clouds":[],"obsTime":1774857600},"SBMA":{"icaoId":"SBMA","flightCategory":"MVFR","rawOb":"METAR SBMA 300800Z 00000KT 8000 SCT008 SCT012 BKN080 25/24 Q1011","temp":25,"dewp":24,"wdir":0,"wspd":0,"visib":4.97,"altim":1011,"clouds":[{"cover":"SCT","base":800},{"cover":"SCT","base":1200},{"cover":"BKN","base":8000}],"obsTime":1774857600},"SBBE":{"icaoId":"SBBE","flightCategory":"VFR","rawOb":"METAR SBBE 300800Z 32002KT CAVOK 25/25 Q1010","temp":25,"dewp":25,"wdir":320,"wspd":2,"visib":"6+","altim":1010,"clouds":[],"obsTime":1774857600},"SBVT":{"icaoId":"SBVT","flightCategory":"VFR","rawOb":"METAR SBVT 300800Z 30003KT 9999 SCT025 22/22 Q1014","temp":22,"dewp":22,"wdir":300,"wspd":3,"visib":"6+","altim":1014,"clouds":[{"cover":"SCT","base":2500}],"obsTime":1774857600},"SBME":{"icaoId":"SBME","flightCategory":"VFR","rawOb":"METAR SBME 300800Z 32004KT CAVOK 22/21 Q1014","temp":22,"dewp":21,"wdir":320,"wspd":4,"visib":"6+","altim":1014,"clouds":[],"obsTime":1774857600},"SBFL":{"icaoId":"SBFL","flightCategory":"VFR","rawOb":"METAR SBFL 300800Z 31006KT 9999 FEW020 SCT040 BKN100 25/23 Q1014","temp":25,"dewp":23,"wdir":310,"wspd":6,"visib":"6+","altim":1014,"clouds":[{"cover":"FEW","base":2000},{"cover":"SCT","base":4000},{"cover":"BKN","base":10000}],"obsTime":1774857600},"SBMG":{"icaoId":"SBMG","flightCategory":"VFR","rawOb":"METAR SBMG 300800Z AUTO 16003KT CAVOK 25/17 Q1015","temp":25,"dewp":17,"wdir":160,"wspd":3,"visib":"6+","altim":1015,"clouds":[],"obsTime":1774857600},"SBMK":{"icaoId":"SBMK","flightCategory":"VFR","rawOb":"METAR SBMK 300800Z 00000KT CAVOK 18/17 Q1017","temp":18,"dewp":17,"wdir":0,"wspd":0,"visib":"6+","altim":1017,"clouds":[],"obsTime":1774857600},"SBCF":{"icaoId":"SBCF","flightCategory":"VFR","rawOb":"METAR SBCF 300800Z 15007KT CAVOK 19/18 Q1018","temp":19,"dewp":18,"wdir":150,"wspd":7,"visib":"6+","altim":1018,"clouds":[],"obsTime":1774857600},"SBCO":{"icaoId":"SBCO","flightCategory":"MVFR","rawOb":"METAR SBCO 300900Z VRB02KT 8000 BKN013 BKN016 24/23 Q1015","temp":24,"dewp":23,"wdir":"VRB","wspd":2,"visib":4.97,"altim":1015,"clouds":[{"cover":"BKN","base":1300},{"cover":"BKN","base":1600}],"obsTime":1774861200},"SBPS":{"icaoId":"SBPS","flightCategory":"VFR","rawOb":"METAR SBPS 300800Z 23004KT 200V260 9999 SCT002 OVC070 23/22 Q1013","temp":23,"dewp":22,"wdir":230,"wspd":4,"visib":"6+","altim":1013,"clouds":[{"cover":"SCT","base":200},{"cover":"OVC","base":7000}],"obsTime":1774857600},"SBAX":{"icaoId":"SBAX","flightCategory":"VFR","rawOb":"METAR SBAX 300800Z AUTO 16002KT CAVOK 18/16 Q1019","temp":18,"dewp":16,"wdir":160,"wspd":2,"visib":"6+","altim":1019,"clouds":[],"obsTime":1774857600},"SBSC":{"icaoId":"SBSC","flightCategory":"VFR","rawOb":"METAR SBSC 300800Z 36005KT CAVOK 22/21 Q1014","temp":22,"dewp":21,"wdir":360,"wspd":5,"visib":"6+","altim":1014,"clouds":[],"obsTime":1774857600},"SBDN":{"icaoId":"SBDN","flightCategory":"VFR","rawOb":"METAR SBDN 300800Z 00000KT CAVOK 22/16 Q1015","temp":22,"dewp":16,"wdir":0,"wspd":0,"visib":"6+","altim":1015,"clouds":[],"obsTime":1774857600},"SBPL":{"icaoId":"SBPL","flightCategory":"MVFR","rawOb":"METAR SBPL 300800Z 10006KT 9999 BKN020 OVC070 24/23 Q1013","temp":24,"dewp":23,"wdir":100,"wspd":6,"visib":"6+","altim":1013,"clouds":[{"cover":"BKN","base":2000},{"cover":"OVC","base":7000}],"obsTime":1774857600},"SBSJ":{"icaoId":"SBSJ","flightCategory":"IFR","rawOb":"SPECI SBSJ 300830Z 15002KT 4000 BR BKN013 17/17 Q1017","temp":17,"dewp":17,"wdir":150,"wspd":2,"visib":2.49,"altim":1017,"clouds":[{"cover":"BKN","base":1300}],"obsTime":1774859400},"SBSM":{"icaoId":"SBSM","flightCategory":"LIFR","rawOb":"METAR SBSM 300900Z 11005KT 080V150 1200 R29///// R11/P2000 BR OVC002 23/23 Q1016","temp":23,"dewp":23,"wdir":110,"wspd":5,"visib":0.75,"altim":1016,"clouds":[{"cover":"OVC","base":200}],"obsTime":1774861200},"SBSR":{"icaoId":"SBSR","flightCategory":"VFR","rawOb":"METAR SBSR 300800Z 00000KT CAVOK 22/18 Q1016","temp":22,"dewp":18,"wdir":0,"wspd":0,"visib":"6+","altim":1016,"clouds":[],"obsTime":1774857600},"SBAR":{"icaoId":"SBAR","flightCategory":"VFR","rawOb":"METAR SBAR 300800Z 27003KT 9999 SCT040 BKN080 24/23 Q1011","temp":24,"dewp":23,"wdir":270,"wspd":3,"visib":"6+","altim":1011,"clouds":[{"cover":"SCT","base":4000},{"cover":"BKN","base":8000}],"obsTime":1774857600},"SBES":{"icaoId":"SBES","flightCategory":"VFR","rawOb":"METAR SBES 300800Z 00000KT 9999 BCFG NSC 18/// Q1015","temp":null,"dewp":null,"wdir":0,"wspd":0,"visib":"6+","altim":1015,"clouds":[],"obsTime":1774857600},"SBIP":{"icaoId":"SBIP","flightCategory":"VFR","rawOb":"METAR SBIP 300800Z AUTO 00000KT 9999 BKN036 21/21 Q1016","temp":21,"dewp":21,"wdir":0,"wspd":0,"visib":"6+","altim":1016,"clouds":[{"cover":"BKN","base":3600}],"obsTime":1774857600},"SBBH":{"icaoId":"SBBH","flightCategory":"VFR","rawOb":"METAR SBBH 300900Z 12004KT CAVOK 20/18 Q1018","temp":20,"dewp":18,"wdir":120,"wspd":4,"visib":"6+","altim":1018,"clouds":[],"obsTime":1774861200},"SBBU":{"icaoId":"SBBU","flightCategory":"MVFR","rawOb":"METAR SBBU 300900Z 11006KT 6000 NSC 22/20 Q1016","temp":22,"dewp":20,"wdir":110,"wspd":6,"visib":3.73,"altim":1016,"clouds":[],"obsTime":1774861200},"SBKG":{"icaoId":"SBKG","flightCategory":"VFR","rawOb":"METAR SBKG 300800Z 25002KT CAVOK 22/21 Q1013","temp":22,"dewp":21,"wdir":250,"wspd":2,"visib":"6+","altim":1013,"clouds":[],"obsTime":1774857600},"SBJP":{"icaoId":"SBJP","flightCategory":"MVFR","rawOb":"METAR SBJP 300800Z 16004KT 9999 BKN020 25/24 Q1011","temp":25,"dewp":24,"wdir":160,"wspd":4,"visib":"6+","altim":1011,"clouds":[{"cover":"BKN","base":2000}],"obsTime":1774857600},"SBLS":{"icaoId":"SBLS","flightCategory":"VFR","rawOb":"METAR SBLS 300900Z 14009KT 9999 FEW020 19/17 Q1018","temp":19,"dewp":17,"wdir":140,"wspd":9,"visib":"6+","altim":1018,"clouds":[{"cover":"FEW","base":2000}],"obsTime":1774861200},"SBMT":{"icaoId":"SBMT","flightCategory":"MVFR","rawOb":"METAR SBMT 300900Z 09005KT 6000 SCT011 19/17 Q1018","temp":19,"dewp":17,"wdir":90,"wspd":5,"visib":3.73,"altim":1018,"clouds":[{"cover":"SCT","base":1100}],"obsTime":1774861200},"SBTA":{"icaoId":"SBTA","flightCategory":"VFR","rawOb":"METAR SBTA 300900Z 17003KT 120V210 9999 FEW010 18/16 Q1017","temp":18,"dewp":16,"wdir":170,"wspd":3,"visib":"6+","altim":1017,"clouds":[{"cover":"FEW","base":1000}],"obsTime":1774861200},"SBGW":{"icaoId":"SBGW","flightCategory":"VFR","rawOb":"METAR SBGW 300900Z 04003KT 340V080 9999 4500N FEW005 19/15 Q1017","temp":19,"dewp":15,"wdir":40,"wspd":3,"visib":"6+","altim":1017,"clouds":[{"cover":"FEW","base":500}],"obsTime":1774861200},"SBAN":{"icaoId":"SBAN","flightCategory":"VFR","rawOb":"METAR SBAN 300800Z 11007KT CAVOK 19/16 Q1021","temp":19,"dewp":16,"wdir":110,"wspd":7,"visib":"6+","altim":1021,"clouds":[],"obsTime":1774857600},"SBLE":{"icaoId":"SBLE","flightCategory":"MVFR","rawOb":"METAR SBLE 300800Z AUTO VRB02KT 9999 FEW002 BKN012 OVC026 ///// Q////","temp":null,"dewp":null,"wdir":"VRB","wspd":2,"visib":"6+","altim":null,"clouds":[{"cover":"FEW","base":200},{"cover":"BKN","base":1200},{"cover":"OVC","base":2600}],"obsTime":1774857600},"SBJV":{"icaoId":"SBJV","flightCategory":"VFR","rawOb":"METAR SBJV 300900Z 27001KT CAVOK 22/22 Q1015","temp":22,"dewp":22,"wdir":270,"wspd":1,"visib":"6+","altim":1015,"clouds":[],"obsTime":1774861200},"SBPF":{"icaoId":"SBPF","flightCategory":"VFR","rawOb":"METAR SBPF 300900Z 11010KT CAVOK 20/18 Q1019","temp":20,"dewp":18,"wdir":110,"wspd":10,"visib":"6+","altim":1019,"clouds":[],"obsTime":1774861200}}}