{"updated":1777238759,"count":83,"data":{"SBCZ":{"icaoId":"SBCZ","flightCategory":"VFR","rawOb":"METAR SBCZ 262000Z VRB02KT 9999 VCSH SCT036 FEW040TCU 32/22 Q1008","temp":32,"dewp":22,"wdir":"VRB","wspd":2,"visib":"6+","altim":1008,"clouds":[{"cover":"SCT","base":3600},{"cover":"FEW","base":4000}],"obsTime":1777233600},"SBAT":{"icaoId":"SBAT","flightCategory":"VFR","rawOb":"METAR SBAT 262000Z 11003KT 9999 VCSH FEW030 FEW035TCU SCT090 32/24 Q1009","temp":32,"dewp":24,"wdir":110,"wspd":3,"visib":"6+","altim":1009,"clouds":[{"cover":"FEW","base":3000},{"cover":"FEW","base":3500},{"cover":"SCT","base":9000}],"obsTime":1777233600},"SBBE":{"icaoId":"SBBE","flightCategory":"VFR","rawOb":"METAR SBBE 262000Z 01009KT 9999 BKN048 BKN090 29/24 Q1009","temp":29,"dewp":24,"wdir":10,"wspd":9,"visib":"6+","altim":1009,"clouds":[{"cover":"BKN","base":4800},{"cover":"BKN","base":9000}],"obsTime":1777233600},"SBBR":{"icaoId":"SBBR","flightCategory":"VFR","rawOb":"METAR SBBR 262000Z 14007KT 9999 SCT040 FEW045TCU 27/16 Q1016","temp":27,"dewp":16,"wdir":140,"wspd":7,"visib":"6+","altim":1016,"clouds":[{"cover":"SCT","base":4000},{"cover":"FEW","base":4500}],"obsTime":1777233600},"SBBV":{"icaoId":"SBBV","flightCategory":"VFR","rawOb":"METAR SBBV 262000Z 10002KT 9999 FEW008 SCT018 FEW030TCU BKN080 27/23 Q1010","temp":27,"dewp":23,"wdir":100,"wspd":2,"visib":"6+","altim":1010,"clouds":[{"cover":"FEW","base":800},{"cover":"SCT","base":1800},{"cover":"FEW","base":3000},{"cover":"BKN","base":8000}],"obsTime":1777233600},"SBCB":{"icaoId":"SBCB","flightCategory":"VFR","rawOb":"METAR SBCB 262000Z 10008KT CAVOK 28/22 Q1010","temp":28,"dewp":22,"wdir":100,"wspd":8,"visib":"6+","altim":1010,"clouds":[],"obsTime":1777233600},"SBCF":{"icaoId":"SBCF","flightCategory":"VFR","rawOb":"METAR SBCF 262000Z 24004KT 9999 FEW035 28/15 Q1016","temp":28,"dewp":15,"wdir":240,"wspd":4,"visib":"6+","altim":1016,"clouds":[{"cover":"FEW","base":3500}],"obsTime":1777233600},"SBCG":{"icaoId":"SBCG","flightCategory":"VFR","rawOb":"METAR SBCG 262000Z 31010KT CAVOK 31/19 Q1012","temp":31,"dewp":19,"wdir":310,"wspd":10,"visib":"6+","altim":1012,"clouds":[],"obsTime":1777233600},"SBCP":{"icaoId":"SBCP","flightCategory":"VFR","rawOb":"METAR SBCP 262000Z 32005KT CAVOK 32/20 Q1010","temp":32,"dewp":20,"wdir":320,"wspd":5,"visib":"6+","altim":1010,"clouds":[],"obsTime":1777233600},"SBCR":{"icaoId":"SBCR","flightCategory":"VFR","rawOb":"METAR SBCR 262000Z 36005KT 280V060 9999 SCT045 33/24 Q1008","temp":33,"dewp":24,"wdir":360,"wspd":5,"visib":"6+","altim":1008,"clouds":[{"cover":"SCT","base":4500}],"obsTime":1777233600},"SBCT":{"icaoId":"SBCT","flightCategory":"MVFR","rawOb":"SPECI SBCT 261935Z 29015KT 7000 -RA BKN013 21/20 Q1014","temp":21,"dewp":20,"wdir":290,"wspd":15,"visib":4.35,"altim":1014,"clouds":[{"cover":"BKN","base":1300}],"obsTime":1777232100},"SBEG":{"icaoId":"SBEG","flightCategory":"VFR","rawOb":"METAR SBEG 262000Z 32008KT 9999 VCSH SCT025 FEW030TCU SCT100 30/24 Q1009","temp":30,"dewp":24,"wdir":320,"wspd":8,"visib":"6+","altim":1009,"clouds":[{"cover":"SCT","base":2500},{"cover":"FEW","base":3000},{"cover":"SCT","base":10000}],"obsTime":1777233600},"SBFI":{"icaoId":"SBFI","flightCategory":"LIFR","rawOb":"SPECI SBFI 261928Z 24005KT 5000 -TSRA BR BKN004 OVC020 //////CB 22/22 Q1010 RERA","temp":22,"dewp":22,"wdir":240,"wspd":5,"visib":3.11,"altim":1010,"clouds":[{"cover":"BKN","base":400},{"cover":"OVC","base":2000}],"obsTime":1777231680},"SBFL":{"icaoId":"SBFL","flightCategory":"VFR","rawOb":"METAR SBFL 262000Z 34006KT 9999 FEW010 BKN100 23/21 Q1008","temp":23,"dewp":21,"wdir":340,"wspd":6,"visib":"6+","altim":1008,"clouds":[{"cover":"FEW","base":1000},{"cover":"BKN","base":10000}],"obsTime":1777233600},"SBFZ":{"icaoId":"SBFZ","flightCategory":"VFR","rawOb":"METAR SBFZ 262000Z 10004KT 9999 SCT016 27/24 Q1010","temp":27,"dewp":24,"wdir":100,"wspd":4,"visib":"6+","altim":1010,"clouds":[{"cover":"SCT","base":1600}],"obsTime":1777233600},"SBGL":{"icaoId":"SBGL","flightCategory":"VFR","rawOb":"METAR SBGL 262000Z 13009KT CAVOK 29/21 Q1009","temp":29,"dewp":21,"wdir":130,"wspd":9,"visib":"6+","altim":1009,"clouds":[],"obsTime":1777233600},"SBGO":{"icaoId":"SBGO","flightCategory":"VFR","rawOb":"METAR SBGO 262000Z 14006KT CAVOK 31/14 Q1014","temp":31,"dewp":14,"wdir":140,"wspd":6,"visib":"6+","altim":1014,"clouds":[],"obsTime":1777233600},"SBGR":{"icaoId":"SBGR","flightCategory":"VFR","rawOb":"METAR SBGR 262000Z 33008KT CAVOK 29/17 Q1014","temp":29,"dewp":17,"wdir":330,"wspd":8,"visib":"6+","altim":1014,"clouds":[],"obsTime":1777233600},"SBHT":{"icaoId":"SBHT","flightCategory":"VFR","rawOb":"METAR SBHT 262000Z 06005KT 9999 SCT030 33/22 Q1008","temp":33,"dewp":22,"wdir":60,"wspd":5,"visib":"6+","altim":1008,"clouds":[{"cover":"SCT","base":3000}],"obsTime":1777233600},"SBIL":{"icaoId":"SBIL","flightCategory":"VFR","rawOb":"METAR SBIL 262000Z 10006KT CAVOK 29/23 Q1013","temp":29,"dewp":23,"wdir":100,"wspd":6,"visib":"6+","altim":1013,"clouds":[],"obsTime":1777233600},"SBJU":{"icaoId":"SBJU","flightCategory":"VFR","rawOb":"METAR SBJU 262000Z 12005KT 9999 FEW020 29/19 Q1012","temp":29,"dewp":19,"wdir":120,"wspd":5,"visib":"6+","altim":1012,"clouds":[{"cover":"FEW","base":2000}],"obsTime":1777233600},"SBKP":{"icaoId":"SBKP","flightCategory":"VFR","rawOb":"METAR SBKP 262000Z 31008KT 9999 FEW045 31/17 Q1013","temp":31,"dewp":17,"wdir":310,"wspd":8,"visib":"6+","altim":1013,"clouds":[{"cover":"FEW","base":4500}],"obsTime":1777233600},"SBLO":{"icaoId":"SBLO","flightCategory":"VFR","rawOb":"METAR SBLO 262000Z 30014KT 9999 SCT040 30/17 Q1011","temp":30,"dewp":17,"wdir":300,"wspd":14,"visib":"6+","altim":1011,"clouds":[{"cover":"SCT","base":4000}],"obsTime":1777233600},"SBMA":{"icaoId":"SBMA","flightCategory":"VFR","rawOb":"METAR SBMA 262000Z 00000KT 9999 SCT020 FEW023TCU 30/23 Q1009","temp":30,"dewp":23,"wdir":0,"wspd":0,"visib":"6+","altim":1009,"clouds":[{"cover":"SCT","base":2000},{"cover":"FEW","base":2300}],"obsTime":1777233600},"SBME":{"icaoId":"SBME","flightCategory":"VFR","rawOb":"METAR SBME 262000Z 11005KT CAVOK 29/24 Q1010","temp":29,"dewp":24,"wdir":110,"wspd":5,"visib":"6+","altim":1010,"clouds":[],"obsTime":1777233600},"SBMG":{"icaoId":"SBMG","flightCategory":"VFR","rawOb":"METAR SBMG 262000Z 15008KT CAVOK 24/21 Q1011","temp":24,"dewp":21,"wdir":150,"wspd":8,"visib":"6+","altim":1011,"clouds":[],"obsTime":1777233600},"SBMK":{"icaoId":"SBMK","flightCategory":"VFR","rawOb":"METAR SBMK 262000Z 12006KT 9999 FEW045 30/17 Q1014","temp":30,"dewp":17,"wdir":120,"wspd":6,"visib":"6+","altim":1014,"clouds":[{"cover":"FEW","base":4500}],"obsTime":1777233600},"SBMO":{"icaoId":"SBMO","flightCategory":"VFR","rawOb":"METAR SBMO 262000Z 12009KT 9999 SCT030 28/23 Q1012","temp":28,"dewp":23,"wdir":120,"wspd":9,"visib":"6+","altim":1012,"clouds":[{"cover":"SCT","base":3000}],"obsTime":1777233600},"SBMQ":{"icaoId":"SBMQ","flightCategory":"VFR","rawOb":"METAR SBMQ 262000Z 07008KT 9999 FEW027 32/23 Q1008","temp":32,"dewp":23,"wdir":70,"wspd":8,"visib":"6+","altim":1008,"clouds":[{"cover":"FEW","base":2700}],"obsTime":1777233600},"SBNT":{"icaoId":"SBNT","flightCategory":"VFR","rawOb":"METAR SBNT 262000Z 13010KT 9999 FEW025 SCT100 28/24 Q1011","temp":28,"dewp":24,"wdir":130,"wspd":10,"visib":"6+","altim":1011,"clouds":[{"cover":"FEW","base":2500},{"cover":"SCT","base":10000}],"obsTime":1777233600},"SBPA":{"icaoId":"SBPA","flightCategory":"VFR","rawOb":"METAR SBPA 262000Z 29010KT 9999 FEW030 25/17 Q1007","temp":25,"dewp":17,"wdir":290,"wspd":10,"visib":"6+","altim":1007,"clouds":[{"cover":"FEW","base":3000}],"obsTime":1777233600},"SBPJ":{"icaoId":"SBPJ","flightCategory":"VFR","rawOb":"METAR SBPJ 262000Z 23004KT 9999 FEW030 32/24 Q1010","temp":32,"dewp":24,"wdir":230,"wspd":4,"visib":"6+","altim":1010,"clouds":[{"cover":"FEW","base":3000}],"obsTime":1777233600},"SBPV":{"icaoId":"SBPV","flightCategory":"VFR","rawOb":"METAR SBPV 262000Z 34004KT 270V030 9999 3000N -SHRA SCT030 FEW035TCU SCT070 31/26 Q1007","temp":31,"dewp":26,"wdir":340,"wspd":4,"visib":"6+","altim":1007,"clouds":[{"cover":"SCT","base":3000},{"cover":"FEW","base":3500},{"cover":"SCT","base":7000}],"obsTime":1777233600},"SBRB":{"icaoId":"SBRB","flightCategory":"MVFR","rawOb":"METAR SBRB 262000Z 21003KT 9999 BKN030 SCT090 30/24 Q1008","temp":30,"dewp":24,"wdir":210,"wspd":3,"visib":"6+","altim":1008,"clouds":[{"cover":"BKN","base":3000},{"cover":"SCT","base":9000}],"obsTime":1777233600},"SBRF":{"icaoId":"SBRF","flightCategory":"VFR","rawOb":"METAR SBRF 262000Z 15013KT 9999 FEW025 28/23 Q1011","temp":28,"dewp":23,"wdir":150,"wspd":13,"visib":"6+","altim":1011,"clouds":[{"cover":"FEW","base":2500}],"obsTime":1777233600},"SBSG":{"icaoId":"SBSG","flightCategory":"VFR","rawOb":"METAR SBSG 262000Z 13007KT 100V160 9999 SCT040 27/23 Q1011","temp":27,"dewp":23,"wdir":130,"wspd":7,"visib":"6+","altim":1011,"clouds":[{"cover":"SCT","base":4000}],"obsTime":1777233600},"SBSL":{"icaoId":"SBSL","flightCategory":"VFR","rawOb":"METAR SBSL 262000Z 03011KT 9999 SCT020 29/24 Q1009","temp":29,"dewp":24,"wdir":30,"wspd":11,"visib":"6+","altim":1009,"clouds":[{"cover":"SCT","base":2000}],"obsTime":1777233600},"SBSN":{"icaoId":"SBSN","flightCategory":"VFR","rawOb":"METAR SBSN 262000Z 19003KT 130V210 9999 FEW022 FEW027TCU 30/24 Q1008","temp":30,"dewp":24,"wdir":190,"wspd":3,"visib":"6+","altim":1008,"clouds":[{"cover":"FEW","base":2200},{"cover":"FEW","base":2700}],"obsTime":1777233600},"SBSP":{"icaoId":"SBSP","flightCategory":"VFR","rawOb":"METAR SBSP 262000Z 32009KT 290V360 CAVOK 29/15 Q1014","temp":29,"dewp":15,"wdir":320,"wspd":9,"visib":"6+","altim":1014,"clouds":[],"obsTime":1777233600},"SBSV":{"icaoId":"SBSV","flightCategory":"VFR","rawOb":"METAR SBSV 262000Z 07009KT 9999 SCT023 27/23 Q1012","temp":27,"dewp":23,"wdir":70,"wspd":9,"visib":"6+","altim":1012,"clouds":[{"cover":"SCT","base":2300}],"obsTime":1777233600},"SBTE":{"icaoId":"SBTE","flightCategory":"VFR","rawOb":"METAR SBTE 262000Z 08004KT 9999 FEW030 31/24 Q1009","temp":31,"dewp":24,"wdir":80,"wspd":4,"visib":"6+","altim":1009,"clouds":[{"cover":"FEW","base":3000}],"obsTime":1777233600},"SBUL":{"icaoId":"SBUL","flightCategory":"VFR","rawOb":"METAR SBUL 262000Z 03006KT CAVOK 28/15 Q1016","temp":28,"dewp":15,"wdir":30,"wspd":6,"visib":"6+","altim":1016,"clouds":[],"obsTime":1777233600},"SBUR":{"icaoId":"SBUR","flightCategory":"VFR","rawOb":"METAR SBUR 262000Z 30006KT CAVOK 30/14 Q1015","temp":30,"dewp":14,"wdir":300,"wspd":6,"visib":"6+","altim":1015,"clouds":[],"obsTime":1777233600},"SBVT":{"icaoId":"SBVT","flightCategory":"VFR","rawOb":"METAR SBVT 262000Z 05010KT 9999 FEW040 28/23 Q1010","temp":28,"dewp":23,"wdir":50,"wspd":10,"visib":"6+","altim":1010,"clouds":[{"cover":"FEW","base":4000}],"obsTime":1777233600},"SBVH":{"icaoId":"SBVH","flightCategory":"VFR","rawOb":"METAR SBVH 262000Z 31002KT 9999 BKN035 FEW040TCU OVC091 25/22 Q1012","temp":25,"dewp":22,"wdir":310,"wspd":2,"visib":"6+","altim":1012,"clouds":[{"cover":"BKN","base":3500},{"cover":"FEW","base":4000},{"cover":"OVC","base":9100}],"obsTime":1777233600},"SBAX":{"icaoId":"SBAX","flightCategory":"VFR","rawOb":"METAR SBAX 262000Z AUTO 31004KT 270V340 CAVOK 28/12 Q1017","temp":28,"dewp":12,"wdir":310,"wspd":4,"visib":"6+","altim":1017,"clouds":[],"obsTime":1777233600},"SBBH":{"icaoId":"SBBH","flightCategory":"VFR","rawOb":"METAR SBBH 262000Z 26005KT CAVOK 28/16 Q1015","temp":28,"dewp":16,"wdir":260,"wspd":5,"visib":"6+","altim":1015,"clouds":[],"obsTime":1777233600},"SBBU":{"icaoId":"SBBU","flightCategory":"VFR","rawOb":"METAR SBBU 262000Z 29011KT 9999 FEW048 32/18 Q1012","temp":32,"dewp":18,"wdir":290,"wspd":11,"visib":"6+","altim":1012,"clouds":[{"cover":"FEW","base":4800}],"obsTime":1777233600},"SBCA":{"icaoId":"SBCA","flightCategory":"LIFR","rawOb":"METAR SBCA 262000Z 32012KT 4000 -RA BR SCT001 BKN003 FEW050TCU 20/20 Q1013","temp":20,"dewp":20,"wdir":320,"wspd":12,"visib":2.49,"altim":1013,"clouds":[{"cover":"SCT","base":100},{"cover":"BKN","base":300},{"cover":"FEW","base":5000}],"obsTime":1777233600},"SBCJ":{"icaoId":"SBCJ","flightCategory":"VFR","rawOb":"METAR SBCJ 262000Z 12004KT 9999 FEW023 27/22 Q1014","temp":27,"dewp":22,"wdir":120,"wspd":4,"visib":"6+","altim":1014,"clouds":[{"cover":"FEW","base":2300}],"obsTime":1777233600},"SBCO":{"icaoId":"SBCO","flightCategory":"VFR","rawOb":"METAR SBCO 262000Z 27008KT 9999 FEW030 25/18 Q1008","temp":25,"dewp":18,"wdir":270,"wspd":8,"visib":"6+","altim":1008,"clouds":[{"cover":"FEW","base":3000}],"obsTime":1777233600},"SBDN":{"icaoId":"SBDN","flightCategory":"VFR","rawOb":"METAR SBDN 262000Z 29009KT CAVOK 33/18 Q1011","temp":33,"dewp":18,"wdir":290,"wspd":9,"visib":"6+","altim":1011,"clouds":[],"obsTime":1777233600},"SBES":{"icaoId":"SBES","flightCategory":"VFR","rawOb":"METAR SBES 262000Z 14005KT 100V190 CAVOK 30/28 Q1010","temp":30,"dewp":28,"wdir":140,"wspd":5,"visib":"6+","altim":1010,"clouds":[],"obsTime":1777233600},"SBIP":{"icaoId":"SBIP","flightCategory":"VFR","rawOb":"METAR SBIP 262000Z AUTO 22002KT CAVOK 28/20 Q1012","temp":28,"dewp":20,"wdir":220,"wspd":2,"visib":"6+","altim":1012,"clouds":[],"obsTime":1777233600},"SBKG":{"icaoId":"SBKG","flightCategory":"VFR","rawOb":"METAR SBKG 262000Z 10006KT CAVOK 26/21 Q1013","temp":26,"dewp":21,"wdir":100,"wspd":6,"visib":"6+","altim":1013,"clouds":[],"obsTime":1777233600},"SBOI":{"icaoId":"SBOI","flightCategory":"VFR","rawOb":"METAR SBOI 262000Z AUTO 05008KT CAVOK 30/23 Q1010","temp":30,"dewp":23,"wdir":50,"wspd":8,"visib":"6+","altim":1010,"clouds":[],"obsTime":1777233600},"SBPB":{"icaoId":"SBPB","flightCategory":"VFR","rawOb":"METAR SBPB 262000Z 01007KT 9999 FEW020 29/24 Q1009","temp":29,"dewp":24,"wdir":10,"wspd":7,"visib":"6+","altim":1009,"clouds":[{"cover":"FEW","base":2000}],"obsTime":1777233600},"SBPL":{"icaoId":"SBPL","flightCategory":"VFR","rawOb":"METAR SBPL 262000Z 16008KT 9999 FEW035 32/17 Q1012","temp":32,"dewp":17,"wdir":160,"wspd":8,"visib":"6+","altim":1012,"clouds":[{"cover":"FEW","base":3500}],"obsTime":1777233600},"SBPP":{"icaoId":"SBPP","flightCategory":"MVFR","rawOb":"METAR SBPP 262000Z 19008KT 9999 BKN020 25/19 Q1012","temp":25,"dewp":19,"wdir":190,"wspd":8,"visib":"6+","altim":1012,"clouds":[{"cover":"BKN","base":2000}],"obsTime":1777233600},"SBPS":{"icaoId":"SBPS","flightCategory":"VFR","rawOb":"METAR SBPS 262000Z 05009KT 9999 SCT020 28/23 Q1012","temp":28,"dewp":23,"wdir":50,"wspd":9,"visib":"6+","altim":1012,"clouds":[{"cover":"SCT","base":2000}],"obsTime":1777233600},"SBSC":{"icaoId":"SBSC","flightCategory":"VFR","rawOb":"METAR SBSC 262000Z 16008KT CAVOK 28/22 Q1009","temp":28,"dewp":22,"wdir":160,"wspd":8,"visib":"6+","altim":1009,"clouds":[],"obsTime":1777233600},"SBSJ":{"icaoId":"SBSJ","flightCategory":"VFR","rawOb":"METAR SBSJ 262000Z 25007KT CAVOK 30/17 Q1013","temp":30,"dewp":17,"wdir":250,"wspd":7,"visib":"6+","altim":1013,"clouds":[],"obsTime":1777233600},"SBSM":{"icaoId":"SBSM","flightCategory":"VFR","rawOb":"METAR SBSM 262000Z 27007KT 9999 SCT045 26/14 Q1009","temp":26,"dewp":14,"wdir":270,"wspd":7,"visib":"6+","altim":1009,"clouds":[{"cover":"SCT","base":4500}],"obsTime":1777233600},"SBSR":{"icaoId":"SBSR","flightCategory":"VFR","rawOb":"METAR SBSR 262000Z 35003KT 9999 FEW030 32/15 Q1012","temp":32,"dewp":15,"wdir":350,"wspd":3,"visib":"6+","altim":1012,"clouds":[{"cover":"FEW","base":3000}],"obsTime":1777233600},"SBTF":{"icaoId":"SBTF","flightCategory":"VFR","rawOb":"METAR SBTF 262000Z 02003KT 9999 SCT020 FEW025TCU 33/26 Q1007","temp":33,"dewp":26,"wdir":20,"wspd":3,"visib":"6+","altim":1007,"clouds":[{"cover":"SCT","base":2000},{"cover":"FEW","base":2500}],"obsTime":1777233600},"SBTT":{"icaoId":"SBTT","flightCategory":"VFR","rawOb":"METAR SBTT 262000Z 36005KT 9999 SCT024 FEW030TCU 26/23 Q1009","temp":26,"dewp":23,"wdir":360,"wspd":5,"visib":"6+","altim":1009,"clouds":[{"cover":"SCT","base":2400},{"cover":"FEW","base":3000}],"obsTime":1777233600},"SBUY":{"icaoId":"SBUY","flightCategory":"VFR","rawOb":"METAR SBUY 262000Z 22002KT 9999 FEW025 FEW030TCU SCT090 25/24 Q1007 RERA","temp":25,"dewp":24,"wdir":220,"wspd":2,"visib":"6+","altim":1007,"clouds":[{"cover":"FEW","base":2500},{"cover":"FEW","base":3000},{"cover":"SCT","base":9000}],"obsTime":1777233600},"SBAR":{"icaoId":"SBAR","flightCategory":"VFR","rawOb":"METAR SBAR 262000Z 12007KT 9999 FEW025 29/23 Q1012","temp":29,"dewp":23,"wdir":120,"wspd":7,"visib":"6+","altim":1012,"clouds":[{"cover":"FEW","base":2500}],"obsTime":1777233600},"SBCC":{"icaoId":"SBCC","flightCategory":"VFR","rawOb":"METAR SBCC 262000Z 06009KT 9999 SCT020 30/20 Q1011","temp":30,"dewp":20,"wdir":60,"wspd":9,"visib":"6+","altim":1011,"clouds":[{"cover":"SCT","base":2000}],"obsTime":1777233600},"SBTC":{"icaoId":"SBTC","flightCategory":"VFR","rawOb":"METAR SBTC 262000Z 09004KT 9999 FEW020 28/24 Q1012","temp":28,"dewp":24,"wdir":90,"wspd":4,"visib":"6+","altim":1012,"clouds":[{"cover":"FEW","base":2000}],"obsTime":1777233600},"SBJV":{"icaoId":"SBJV","flightCategory":"IFR","rawOb":"METAR SBJV 262000Z 20005KT 130V300 4000 -TSRA BR SCT013 BKN035 FEW040CB 21/21 Q1010 RERA","temp":21,"dewp":21,"wdir":200,"wspd":5,"visib":2.49,"altim":1010,"clouds":[{"cover":"SCT","base":1300},{"cover":"BKN","base":3500},{"cover":"FEW","base":4000}],"obsTime":1777233600},"SBAF":{"icaoId":"SBAF","flightCategory":"VFR","rawOb":"METAR SBAF 262000Z 19007KT CAVOK 30/20 Q1009","temp":30,"dewp":20,"wdir":190,"wspd":7,"visib":"6+","altim":1009,"clouds":[],"obsTime":1777233600},"SBIH":{"icaoId":"SBIH","flightCategory":"VFR","rawOb":"METAR SBIH 262000Z 26004KT 9999 TS SCT018 FEW025CB 30/25 Q1008","temp":30,"dewp":25,"wdir":260,"wspd":4,"visib":"6+","altim":1008,"clouds":[{"cover":"SCT","base":1800},{"cover":"FEW","base":2500}],"obsTime":1777233600},"SBGW":{"icaoId":"SBGW","flightCategory":"VFR","rawOb":"METAR SBGW 262000Z 02004KT 350V060 CAVOK 30/14 Q1012","temp":30,"dewp":14,"wdir":20,"wspd":4,"visib":"6+","altim":1012,"clouds":[],"obsTime":1777233600},"SBJR":{"icaoId":"SBJR","flightCategory":"VFR","rawOb":"METAR SBJR 262000Z 19004KT CAVOK 29/19 Q1009","temp":29,"dewp":19,"wdir":190,"wspd":4,"visib":"6+","altim":1009,"clouds":[],"obsTime":1777233600},"SBLS":{"icaoId":"SBLS","flightCategory":"VFR","rawOb":"METAR SBLS 262000Z VRB02KT 9999 FEW040 28/15 Q1015","temp":28,"dewp":15,"wdir":"VRB","wspd":2,"visib":"6+","altim":1015,"clouds":[{"cover":"FEW","base":4000}],"obsTime":1777233600},"SBLE":{"icaoId":"SBLE","flightCategory":"VFR","rawOb":"METAR SBLE 262000Z AUTO VRB02KT CAVOK 28/20 Q1014","temp":28,"dewp":20,"wdir":"VRB","wspd":2,"visib":"6+","altim":1014,"clouds":[],"obsTime":1777233600},"SBMT":{"icaoId":"SBMT","flightCategory":"VFR","rawOb":"METAR SBMT 262000Z 32009KT 9999 SCT030 29/16 Q1013","temp":29,"dewp":16,"wdir":320,"wspd":9,"visib":"6+","altim":1013,"clouds":[{"cover":"SCT","base":3000}],"obsTime":1777233600},"SBST":{"icaoId":"SBST","flightCategory":"VFR","rawOb":"METAR SBST 262000Z 13006KT CAVOK 29/21 Q1007","temp":29,"dewp":21,"wdir":130,"wspd":6,"visib":"6+","altim":1007,"clouds":[],"obsTime":1777233600},"SBTA":{"icaoId":"SBTA","flightCategory":"VFR","rawOb":"METAR SBTA 262000Z 35004KT 310V020 9999 FEW035 SCT070 30/16 Q1012","temp":30,"dewp":16,"wdir":350,"wspd":4,"visib":"6+","altim":1012,"clouds":[{"cover":"FEW","base":3500},{"cover":"SCT","base":7000}],"obsTime":1777233600},"SBAN":{"icaoId":"SBAN","flightCategory":"VFR","rawOb":"METAR SBAN 262000Z VRB03KT 9999 FEW045 28/14 Q1017","temp":28,"dewp":14,"wdir":"VRB","wspd":3,"visib":"6+","altim":1017,"clouds":[{"cover":"FEW","base":4500}],"obsTime":1777233600},"SBJP":{"icaoId":"SBJP","flightCategory":"VFR","rawOb":"METAR SBJP 262000Z 13012KT 9999 FEW029 28/22 Q1011","temp":28,"dewp":22,"wdir":130,"wspd":12,"visib":"6+","altim":1011,"clouds":[{"cover":"FEW","base":2900}],"obsTime":1777233600},"SBPF":{"icaoId":"SBPF","flightCategory":"VFR","rawOb":"METAR SBPF 262000Z AUTO 24007KT 9999 NSC 21/14 Q1012","temp":21,"dewp":14,"wdir":240,"wspd":7,"visib":"6+","altim":1012,"clouds":[],"obsTime":1777233600}}}