{"updated":1773876022,"count":76,"data":{"SBFI":{"icaoId":"SBFI","flightCategory":"VFR","rawOb":"METAR SBFI 182200Z 14001KT 9999 FEW035 FEW040TCU 28/23 Q1008","temp":28,"dewp":23,"wdir":140,"wspd":1,"visib":"6+","altim":1008,"clouds":[{"cover":"FEW","base":3500},{"cover":"FEW","base":4000}],"obsTime":1773871200},"SBBE":{"icaoId":"SBBE","flightCategory":"VFR","rawOb":"METAR SBBE 182200Z 34003KT 9999 SCT046 BKN100 26/25 Q1009","temp":26,"dewp":25,"wdir":340,"wspd":3,"visib":"6+","altim":1009,"clouds":[{"cover":"SCT","base":4600},{"cover":"BKN","base":10000}],"obsTime":1773871200},"SBME":{"icaoId":"SBME","flightCategory":"VFR","rawOb":"METAR SBME 182200Z 12005KT 9999 SCT030 BKN100 27/23 Q1010","temp":27,"dewp":23,"wdir":120,"wspd":5,"visib":"6+","altim":1010,"clouds":[{"cover":"SCT","base":3000},{"cover":"BKN","base":10000}],"obsTime":1773871200},"SBFL":{"icaoId":"SBFL","flightCategory":"VFR","rawOb":"METAR SBFL 182200Z 36009KT 9999 FEW026 27/22 Q1008","temp":27,"dewp":22,"wdir":360,"wspd":9,"visib":"6+","altim":1008,"clouds":[{"cover":"FEW","base":2600}],"obsTime":1773871200},"SBMG":{"icaoId":"SBMG","flightCategory":"VFR","rawOb":"METAR SBMG 182200Z 24006KT 9999 FEW030TCU 28/21 Q1009","temp":28,"dewp":21,"wdir":240,"wspd":6,"visib":"6+","altim":1009,"clouds":[{"cover":"FEW","base":3000}],"obsTime":1773871200},"SBBR":{"icaoId":"SBBR","flightCategory":"VFR","rawOb":"METAR SBBR 182200Z 01004KT 9999 FEW040 FEW050TCU 25/18 Q1014","temp":25,"dewp":18,"wdir":10,"wspd":4,"visib":"6+","altim":1014,"clouds":[{"cover":"FEW","base":4000},{"cover":"FEW","base":5000}],"obsTime":1773871200},"SBMK":{"icaoId":"SBMK","flightCategory":"VFR","rawOb":"METAR SBMK 182200Z 16003KT 9999 SCT040 SCT090 26/21 Q1012","temp":26,"dewp":21,"wdir":160,"wspd":3,"visib":"6+","altim":1012,"clouds":[{"cover":"SCT","base":4000},{"cover":"SCT","base":9000}],"obsTime":1773871200},"SBMO":{"icaoId":"SBMO","flightCategory":"VFR","rawOb":"METAR SBMO 182200Z 07005KT CAVOK 26/23 Q1010","temp":26,"dewp":23,"wdir":70,"wspd":5,"visib":"6+","altim":1010,"clouds":[],"obsTime":1773871200},"SBFZ":{"icaoId":"SBFZ","flightCategory":"VFR","rawOb":"METAR SBFZ 182200Z 10003KT 9999 FEW020 27/24 Q1009","temp":27,"dewp":24,"wdir":100,"wspd":3,"visib":"6+","altim":1009,"clouds":[{"cover":"FEW","base":2000}],"obsTime":1773871200},"SBMQ":{"icaoId":"SBMQ","flightCategory":"VFR","rawOb":"METAR SBMQ 182200Z 35006KT 9999 SCT020 FEW025TCU 26/24 Q1009","temp":26,"dewp":24,"wdir":350,"wspd":6,"visib":"6+","altim":1009,"clouds":[{"cover":"SCT","base":2000},{"cover":"FEW","base":2500}],"obsTime":1773871200},"SBMA":{"icaoId":"SBMA","flightCategory":"VFR","rawOb":"METAR SBMA 182200Z 04001KT 9999 FEW020 FEW023TCU 26/25 Q1007","temp":26,"dewp":25,"wdir":40,"wspd":1,"visib":"6+","altim":1007,"clouds":[{"cover":"FEW","base":2000},{"cover":"FEW","base":2300}],"obsTime":1773871200},"SBGL":{"icaoId":"SBGL","flightCategory":"VFR","rawOb":"METAR SBGL 182200Z 14010KT 9999 SCT030 BKN040 26/21 Q1009","temp":26,"dewp":21,"wdir":140,"wspd":10,"visib":"6+","altim":1009,"clouds":[{"cover":"SCT","base":3000},{"cover":"BKN","base":4000}],"obsTime":1773871200},"SBNT":{"icaoId":"SBNT","flightCategory":"VFR","rawOb":"METAR SBNT 182200Z 13011KT 9999 FEW020 28/24 Q1009","temp":28,"dewp":24,"wdir":130,"wspd":11,"visib":"6+","altim":1009,"clouds":[{"cover":"FEW","base":2000}],"obsTime":1773871200},"SBGO":{"icaoId":"SBGO","flightCategory":"VFR","rawOb":"METAR SBGO 182200Z 28006KT 9999 VCTS FEW035 FEW050CB BKN080 24/21 Q1012","temp":24,"dewp":21,"wdir":280,"wspd":6,"visib":"6+","altim":1012,"clouds":[{"cover":"FEW","base":3500},{"cover":"FEW","base":5000},{"cover":"BKN","base":8000}],"obsTime":1773871200},"SBPA":{"icaoId":"SBPA","flightCategory":"VFR","rawOb":"METAR SBPA 182200Z 19005KT 9999 VCTS FEW010 SCT035 FEW040CB 25/23 Q1008 RETS","temp":25,"dewp":23,"wdir":190,"wspd":5,"visib":"6+","altim":1008,"clouds":[{"cover":"FEW","base":1000},{"cover":"SCT","base":3500},{"cover":"FEW","base":4000}],"obsTime":1773871200},"SBPJ":{"icaoId":"SBPJ","flightCategory":"VFR","rawOb":"METAR SBPJ 182200Z 12003KT 9999 FEW025 FEW030TCU 27/25 Q1008","temp":27,"dewp":25,"wdir":120,"wspd":3,"visib":"6+","altim":1008,"clouds":[{"cover":"FEW","base":2500},{"cover":"FEW","base":3000}],"obsTime":1773871200},"SBCT":{"icaoId":"SBCT","flightCategory":"VFR","rawOb":"METAR SBCT 182200Z 07003KT 9999 SCT025 BKN100 20/20 Q1013","temp":20,"dewp":20,"wdir":70,"wspd":3,"visib":"6+","altim":1013,"clouds":[{"cover":"SCT","base":2500},{"cover":"BKN","base":10000}],"obsTime":1773871200},"SBVT":{"icaoId":"SBVT","flightCategory":"VFR","rawOb":"METAR SBVT 182200Z 06006KT 9999 SCT020 26/24 Q1009","temp":26,"dewp":24,"wdir":60,"wspd":6,"visib":"6+","altim":1009,"clouds":[{"cover":"SCT","base":2000}],"obsTime":1773871200},"SBPV":{"icaoId":"SBPV","flightCategory":"VFR","rawOb":"METAR SBPV 182200Z 24001KT CAVOK 27/22 Q1007","temp":27,"dewp":22,"wdir":240,"wspd":1,"visib":"6+","altim":1007,"clouds":[],"obsTime":1773871200},"SBGR":{"icaoId":"SBGR","flightCategory":"IFR","rawOb":"SPECI SBGR 182122Z 18006KT 4000 BR BKN013 24/21 Q1012","temp":24,"dewp":21,"wdir":180,"wspd":6,"visib":2.49,"altim":1012,"clouds":[{"cover":"BKN","base":1300}],"obsTime":1773868920},"SBRB":{"icaoId":"SBRB","flightCategory":"VFR","rawOb":"METAR SBRB 182200Z 34003KT 9999 FEW005 SCT100 27/23 Q1009","temp":27,"dewp":23,"wdir":340,"wspd":3,"visib":"6+","altim":1009,"clouds":[{"cover":"FEW","base":500},{"cover":"SCT","base":10000}],"obsTime":1773871200},"SBCF":{"icaoId":"SBCF","flightCategory":"VFR","rawOb":"METAR SBCF 182200Z VRB01KT 9999 VCTS FEW040 FEW045CB SCT090 24/20 Q1013","temp":24,"dewp":20,"wdir":"VRB","wspd":1,"visib":"6+","altim":1013,"clouds":[{"cover":"FEW","base":4000},{"cover":"FEW","base":4500},{"cover":"SCT","base":9000}],"obsTime":1773871200},"SBRF":{"icaoId":"SBRF","flightCategory":"VFR","rawOb":"METAR SBRF 182200Z 12010KT 9999 FEW025 29/23 Q1009","temp":29,"dewp":23,"wdir":120,"wspd":10,"visib":"6+","altim":1009,"clouds":[{"cover":"FEW","base":2500}],"obsTime":1773871200},"SBCZ":{"icaoId":"SBCZ","flightCategory":"VFR","rawOb":"METAR SBCZ 182200Z 05002KT 9999 FEW020 FEW025TCU BKN100 28/24 Q1008","temp":28,"dewp":24,"wdir":50,"wspd":2,"visib":"6+","altim":1008,"clouds":[{"cover":"FEW","base":2000},{"cover":"FEW","base":2500},{"cover":"BKN","base":10000}],"obsTime":1773871200},"SBSG":{"icaoId":"SBSG","flightCategory":"VFR","rawOb":"METAR SBSG 182200Z 13006KT 090V160 9999 SCT025 27/23 Q1009","temp":27,"dewp":23,"wdir":130,"wspd":6,"visib":"6+","altim":1009,"clouds":[{"cover":"SCT","base":2500}],"obsTime":1773871200},"SBSL":{"icaoId":"SBSL","flightCategory":"VFR","rawOb":"METAR SBSL 182200Z 11003KT 080V150 9999 SCT025 FEW030TCU BKN080 26/24 Q1009","temp":26,"dewp":24,"wdir":110,"wspd":3,"visib":"6+","altim":1009,"clouds":[{"cover":"SCT","base":2500},{"cover":"FEW","base":3000},{"cover":"BKN","base":8000}],"obsTime":1773871200},"SBIL":{"icaoId":"SBIL","flightCategory":"VFR","rawOb":"METAR SBIL 182200Z 08008KT CAVOK 29/24 Q1009","temp":29,"dewp":24,"wdir":80,"wspd":8,"visib":"6+","altim":1009,"clouds":[],"obsTime":1773871200},"SBEG":{"icaoId":"SBEG","flightCategory":"VFR","rawOb":"METAR SBEG 182200Z 04004KT 9999 SCT018 FEW030TCU SCT100 26/23 Q1007","temp":26,"dewp":23,"wdir":40,"wspd":4,"visib":"6+","altim":1007,"clouds":[{"cover":"SCT","base":1800},{"cover":"FEW","base":3000},{"cover":"SCT","base":10000}],"obsTime":1773871200},"SBSN":{"icaoId":"SBSN","flightCategory":"VFR","rawOb":"METAR SBSN 182200Z 00000KT CAVOK 27/26 Q1007","temp":27,"dewp":26,"wdir":0,"wspd":0,"visib":"6+","altim":1007,"clouds":[],"obsTime":1773871200},"SBJU":{"icaoId":"SBJU","flightCategory":"MVFR","rawOb":"METAR SBJU 182200Z 00000KT 9999 BKN020 FEW022TCU 24/21 Q1011 RETS","temp":24,"dewp":21,"wdir":0,"wspd":0,"visib":"6+","altim":1011,"clouds":[{"cover":"BKN","base":2000},{"cover":"FEW","base":2200}],"obsTime":1773871200},"SBSP":{"icaoId":"SBSP","flightCategory":"IFR","rawOb":"METAR SBSP 182200Z 20008KT 8000 BKN006 BKN010 22/20 Q1014","temp":22,"dewp":20,"wdir":200,"wspd":8,"visib":4.97,"altim":1014,"clouds":[{"cover":"BKN","base":600},{"cover":"BKN","base":1000}],"obsTime":1773871200},"SBSV":{"icaoId":"SBSV","flightCategory":"VFR","rawOb":"METAR SBSV 182200Z 09009KT 9999 FEW023 28/22 Q1010","temp":28,"dewp":22,"wdir":90,"wspd":9,"visib":"6+","altim":1010,"clouds":[{"cover":"FEW","base":2300}],"obsTime":1773871200},"SBBV":{"icaoId":"SBBV","flightCategory":"VFR","rawOb":"METAR SBBV 182200Z 10012KT 9999 FEW040 FEW045TCU SCT090 33/19 Q1007","temp":33,"dewp":19,"wdir":100,"wspd":12,"visib":"6+","altim":1007,"clouds":[{"cover":"FEW","base":4000},{"cover":"FEW","base":4500},{"cover":"SCT","base":9000}],"obsTime":1773871200},"SBTE":{"icaoId":"SBTE","flightCategory":"MVFR","rawOb":"METAR SBTE 182200Z 09001KT 9999 BKN020 OVC070 25/23 Q1008","temp":25,"dewp":23,"wdir":90,"wspd":1,"visib":"6+","altim":1008,"clouds":[{"cover":"BKN","base":2000},{"cover":"OVC","base":7000}],"obsTime":1773871200},"SBKP":{"icaoId":"SBKP","flightCategory":"VFR","rawOb":"METAR SBKP 182200Z VRB05KT 9999 FEW040 FEW045TCU 28/22 Q1011","temp":28,"dewp":22,"wdir":"VRB","wspd":5,"visib":"6+","altim":1011,"clouds":[{"cover":"FEW","base":4000},{"cover":"FEW","base":4500}],"obsTime":1773871200},"SBCG":{"icaoId":"SBCG","flightCategory":"VFR","rawOb":"METAR SBCG 182200Z 01005KT 9999 VCSH FEW035 FEW040TCU BKN100 23/21 Q1010","temp":23,"dewp":21,"wdir":10,"wspd":5,"visib":"6+","altim":1010,"clouds":[{"cover":"FEW","base":3500},{"cover":"FEW","base":4000},{"cover":"BKN","base":10000}],"obsTime":1773871200},"SBUL":{"icaoId":"SBUL","flightCategory":"VFR","rawOb":"METAR SBUL 182200Z 25003KT 9999 TS FEW030 FEW040CB BKN080 23/21 Q1014","temp":23,"dewp":21,"wdir":250,"wspd":3,"visib":"6+","altim":1014,"clouds":[{"cover":"FEW","base":3000},{"cover":"FEW","base":4000},{"cover":"BKN","base":8000}],"obsTime":1773871200},"SBLO":{"icaoId":"SBLO","flightCategory":"VFR","rawOb":"METAR SBLO 182200Z 20011KT 9000 -RA SCT030 FEW050TCU SCT100 24/21 Q1010","temp":24,"dewp":21,"wdir":200,"wspd":11,"visib":5.59,"altim":1010,"clouds":[{"cover":"SCT","base":3000},{"cover":"FEW","base":5000},{"cover":"SCT","base":10000}],"obsTime":1773871200},"SBUR":{"icaoId":"SBUR","flightCategory":"VFR","rawOb":"METAR SBUR 182200Z 03005KT 9999 SCT035 SCT040 22/21 Q1013","temp":22,"dewp":21,"wdir":30,"wspd":5,"visib":"6+","altim":1013,"clouds":[{"cover":"SCT","base":3500},{"cover":"SCT","base":4000}],"obsTime":1773871200},"SBCP":{"icaoId":"SBCP","flightCategory":"VFR","rawOb":"METAR SBCP 182200Z 11005KT 9999 FEW020 SCT070 26/24 Q1009","temp":26,"dewp":24,"wdir":110,"wspd":5,"visib":"6+","altim":1009,"clouds":[{"cover":"FEW","base":2000},{"cover":"SCT","base":7000}],"obsTime":1773871200},"SBCA":{"icaoId":"SBCA","flightCategory":"VFR","rawOb":"METAR SBCA 182200Z 28005KT 9999 FEW020 25/20 Q1012","temp":25,"dewp":20,"wdir":280,"wspd":5,"visib":"6+","altim":1012,"clouds":[{"cover":"FEW","base":2000}],"obsTime":1773871200},"SBAR":{"icaoId":"SBAR","flightCategory":"VFR","rawOb":"METAR SBAR 182200Z 10010KT 9999 FEW015 28/23 Q1009","temp":28,"dewp":23,"wdir":100,"wspd":10,"visib":"6+","altim":1009,"clouds":[{"cover":"FEW","base":1500}],"obsTime":1773871200},"SBAX":{"icaoId":"SBAX","flightCategory":"VFR","rawOb":"METAR SBAX 182200Z 04004KT 9999 SCT045 SCT100 25/19 Q1014","temp":25,"dewp":19,"wdir":40,"wspd":4,"visib":"6+","altim":1014,"clouds":[{"cover":"SCT","base":4500},{"cover":"SCT","base":10000}],"obsTime":1773871200},"SBBH":{"icaoId":"SBBH","flightCategory":"VFR","rawOb":"METAR SBBH 182200Z 10003KT 9999 FEW040 25/20 Q1013","temp":25,"dewp":20,"wdir":100,"wspd":3,"visib":"6+","altim":1013,"clouds":[{"cover":"FEW","base":4000}],"obsTime":1773871200},"SBBU":{"icaoId":"SBBU","flightCategory":"VFR","rawOb":"METAR SBBU 182200Z 24005KT 9999 FEW004 SCT030 OVC100 25/24 Q1012","temp":25,"dewp":24,"wdir":240,"wspd":5,"visib":"6+","altim":1012,"clouds":[{"cover":"FEW","base":400},{"cover":"SCT","base":3000},{"cover":"OVC","base":10000}],"obsTime":1773871200},"SBCO":{"icaoId":"SBCO","flightCategory":"VFR","rawOb":"METAR SBCO 182200Z 17004KT 130V210 9999 VCTS FEW030 FEW030CB SCT050 BKN090 25/23 Q1009 RETS","temp":25,"dewp":23,"wdir":170,"wspd":4,"visib":"6+","altim":1009,"clouds":[{"cover":"FEW","base":3000},{"cover":"FEW","base":3000},{"cover":"SCT","base":5000},{"cover":"BKN","base":9000}],"obsTime":1773871200},"SBDN":{"icaoId":"SBDN","flightCategory":"VFR","rawOb":"METAR SBDN 182200Z 00000KT 9999 SCT035 27/22 Q1009","temp":27,"dewp":22,"wdir":0,"wspd":0,"visib":"6+","altim":1009,"clouds":[{"cover":"SCT","base":3500}],"obsTime":1773871200},"SBIP":{"icaoId":"SBIP","flightCategory":"VFR","rawOb":"METAR SBIP 182200Z AUTO VRB02KT CAVOK 25/23 Q1009","temp":25,"dewp":23,"wdir":"VRB","wspd":2,"visib":"6+","altim":1009,"clouds":[],"obsTime":1773871200},"SBKG":{"icaoId":"SBKG","flightCategory":"VFR","rawOb":"METAR SBKG 182200Z 10011KT 9999 FEW025 25/20 Q1012","temp":25,"dewp":20,"wdir":100,"wspd":11,"visib":"6+","altim":1012,"clouds":[{"cover":"FEW","base":2500}],"obsTime":1773871200},"SBOI":{"icaoId":"SBOI","flightCategory":"MVFR","rawOb":"METAR SBOI 182200Z AUTO 06004KT 010V080 9999 -RA FEW008 BKN011 OVC024 25/24 Q1010","temp":25,"dewp":24,"wdir":60,"wspd":4,"visib":"6+","altim":1010,"clouds":[{"cover":"FEW","base":800},{"cover":"BKN","base":1100},{"cover":"OVC","base":2400}],"obsTime":1773871200},"SBPL":{"icaoId":"SBPL","flightCategory":"VFR","rawOb":"METAR SBPL 182200Z 12004KT CAVOK 30/20 Q1009","temp":30,"dewp":20,"wdir":120,"wspd":4,"visib":"6+","altim":1009,"clouds":[],"obsTime":1773871200},"SBPS":{"icaoId":"SBPS","flightCategory":"VFR","rawOb":"METAR SBPS 182200Z 06007KT 9999 FEW020 SCT090 27/24 Q1010","temp":27,"dewp":24,"wdir":60,"wspd":7,"visib":"6+","altim":1010,"clouds":[{"cover":"FEW","base":2000},{"cover":"SCT","base":9000}],"obsTime":1773871200},"SBSC":{"icaoId":"SBSC","flightCategory":"VFR","rawOb":"METAR SBSC 182200Z 16008KT 9999 FEW040 27/22 Q1009","temp":27,"dewp":22,"wdir":160,"wspd":8,"visib":"6+","altim":1009,"clouds":[{"cover":"FEW","base":4000}],"obsTime":1773871200},"SBSJ":{"icaoId":"SBSJ","flightCategory":"VFR","rawOb":"METAR SBSJ 182200Z 24003KT 9999 FEW035 FEW040TCU 25/// Q1012","temp":null,"dewp":null,"wdir":240,"wspd":3,"visib":"6+","altim":1012,"clouds":[{"cover":"FEW","base":3500},{"cover":"FEW","base":4000}],"obsTime":1773871200},"SBSM":{"icaoId":"SBSM","flightCategory":"VFR","rawOb":"METAR SBSM 182200Z VRB01KT 9999 FEW030 26/22 Q1010","temp":26,"dewp":22,"wdir":"VRB","wspd":1,"visib":"6+","altim":1010,"clouds":[{"cover":"FEW","base":3000}],"obsTime":1773871200},"SBSR":{"icaoId":"SBSR","flightCategory":"VFR","rawOb":"METAR SBSR 182200Z 00000KT 9999 SCT025 FEW035TCU BKN070 27/21 Q1010","temp":27,"dewp":21,"wdir":0,"wspd":0,"visib":"6+","altim":1010,"clouds":[{"cover":"SCT","base":2500},{"cover":"FEW","base":3500},{"cover":"BKN","base":7000}],"obsTime":1773871200},"SBTF":{"icaoId":"SBTF","flightCategory":"VFR","rawOb":"METAR SBTF 182200Z 21002KT 9999 SCT030 BKN100 26/26 Q1008","temp":26,"dewp":26,"wdir":210,"wspd":2,"visib":"6+","altim":1008,"clouds":[{"cover":"SCT","base":3000},{"cover":"BKN","base":10000}],"obsTime":1773871200},"SBTT":{"icaoId":"SBTT","flightCategory":"MVFR","rawOb":"METAR SBTT 182200Z 14003KT 6000 -RA FEW009 SCT050 BKN090 24/22 Q1010","temp":24,"dewp":22,"wdir":140,"wspd":3,"visib":3.73,"altim":1010,"clouds":[{"cover":"FEW","base":900},{"cover":"SCT","base":5000},{"cover":"BKN","base":9000}],"obsTime":1773871200},"SBUY":{"icaoId":"SBUY","flightCategory":"VFR","rawOb":"METAR SBUY 182200Z 01004KT 9999 FEW030TCU BKN080 25/25 Q1007","temp":25,"dewp":25,"wdir":10,"wspd":4,"visib":"6+","altim":1007,"clouds":[{"cover":"FEW","base":3000},{"cover":"BKN","base":8000}],"obsTime":1773871200},"SBVH":{"icaoId":"SBVH","flightCategory":"VFR","rawOb":"METAR SBVH 182200Z 21006KT 9999 FEW020 BKN035 FEW040TCU 23/22 Q1011","temp":23,"dewp":22,"wdir":210,"wspd":6,"visib":"6+","altim":1011,"clouds":[{"cover":"FEW","base":2000},{"cover":"BKN","base":3500},{"cover":"FEW","base":4000}],"obsTime":1773871200},"SBES":{"icaoId":"SBES","flightCategory":"VFR","rawOb":"METAR SBES 182200Z 08004KT 040V120 9999 SCT030 24/// Q1010","temp":null,"dewp":null,"wdir":80,"wspd":4,"visib":"6+","altim":1010,"clouds":[{"cover":"SCT","base":3000}],"obsTime":1773871200},"SBPB":{"icaoId":"SBPB","flightCategory":"MVFR","rawOb":"SPECI SBPB 182145Z COR 36003KT 8000 -RA BKN016 FEW025TCU OVC080 24/23 Q1009 RERA","temp":24,"dewp":23,"wdir":360,"wspd":3,"visib":4.97,"altim":1009,"clouds":[{"cover":"BKN","base":1600},{"cover":"FEW","base":2500},{"cover":"OVC","base":8000}],"obsTime":1773870300},"SBCJ":{"icaoId":"SBCJ","flightCategory":"VFR","rawOb":"SPECI SBCJ 182130Z 09002KT 9999 SCT021 24/22 Q1012","temp":24,"dewp":22,"wdir":90,"wspd":2,"visib":"6+","altim":1012,"clouds":[{"cover":"SCT","base":2100}],"obsTime":1773869400},"SBTC":{"icaoId":"SBTC","flightCategory":"VFR","rawOb":"METAR SBTC 182200Z 05002KT CAVOK 27/23 Q1010","temp":27,"dewp":23,"wdir":50,"wspd":2,"visib":"6+","altim":1010,"clouds":[],"obsTime":1773871200},"SBAF":{"icaoId":"SBAF","flightCategory":"VFR","rawOb":"METAR SBAF 182200Z 19002KT 9999 SCT020 BKN040 26/24 Q1009","temp":26,"dewp":24,"wdir":190,"wspd":2,"visib":"6+","altim":1009,"clouds":[{"cover":"SCT","base":2000},{"cover":"BKN","base":4000}],"obsTime":1773871200},"SBAN":{"icaoId":"SBAN","flightCategory":"VFR","rawOb":"METAR SBAN 182200Z 34002KT 9999 VCTS SCT030 FEW035CB 21/20 Q1015","temp":21,"dewp":20,"wdir":340,"wspd":2,"visib":"6+","altim":1015,"clouds":[{"cover":"SCT","base":3000},{"cover":"FEW","base":3500}],"obsTime":1773871200},"SBJP":{"icaoId":"SBJP","flightCategory":"VFR","rawOb":"METAR SBJP 182200Z 10010KT 070V130 9999 FEW023 28/24 Q1010","temp":28,"dewp":24,"wdir":100,"wspd":10,"visib":"6+","altim":1010,"clouds":[{"cover":"FEW","base":2300}],"obsTime":1773871200},"SBJR":{"icaoId":"SBJR","flightCategory":"VFR","rawOb":"METAR SBJR 182200Z 15005KT 9999 FEW018 SCT040 26/22 Q1009","temp":26,"dewp":22,"wdir":150,"wspd":5,"visib":"6+","altim":1009,"clouds":[{"cover":"FEW","base":1800},{"cover":"SCT","base":4000}],"obsTime":1773871200},"SBJV":{"icaoId":"SBJV","flightCategory":"VFR","rawOb":"METAR SBJV 182200Z 36002KT 9999 FEW015 BKN035 27/24 Q1008","temp":27,"dewp":24,"wdir":360,"wspd":2,"visib":"6+","altim":1008,"clouds":[{"cover":"FEW","base":1500},{"cover":"BKN","base":3500}],"obsTime":1773871200},"SBLE":{"icaoId":"SBLE","flightCategory":"VFR","rawOb":"METAR SBLE 182200Z AUTO 04003KT CAVOK 24/19 Q1011","temp":24,"dewp":19,"wdir":40,"wspd":3,"visib":"6+","altim":1011,"clouds":[],"obsTime":1773871200},"SBLS":{"icaoId":"SBLS","flightCategory":"VFR","rawOb":"METAR SBLS 182200Z VRB01KT 9999 VCTS SCT024 FEW035CB BKN090 23/21 Q1013","temp":23,"dewp":21,"wdir":"VRB","wspd":1,"visib":"6+","altim":1013,"clouds":[{"cover":"SCT","base":2400},{"cover":"FEW","base":3500},{"cover":"BKN","base":9000}],"obsTime":1773871200},"SBMT":{"icaoId":"SBMT","flightCategory":"MVFR","rawOb":"METAR SBMT 182200Z 15006KT 110V170 8000 FEW013 BKN015 22/20 Q1013","temp":22,"dewp":20,"wdir":150,"wspd":6,"visib":4.97,"altim":1013,"clouds":[{"cover":"FEW","base":1300},{"cover":"BKN","base":1500}],"obsTime":1773871200},"SBNM":{"icaoId":"SBNM","flightCategory":"VFR","rawOb":"METAR SBNM 182200Z 22002KT 9999 FEW040 28/21 Q1009","temp":28,"dewp":21,"wdir":220,"wspd":2,"visib":"6+","altim":1009,"clouds":[{"cover":"FEW","base":4000}],"obsTime":1773871200},"SBTA":{"icaoId":"SBTA","flightCategory":"VFR","rawOb":"METAR SBTA 182200Z 22005KT 9999 -RA SCT040 BKN060 24/23 Q1010","temp":24,"dewp":23,"wdir":220,"wspd":5,"visib":"6+","altim":1010,"clouds":[{"cover":"SCT","base":4000},{"cover":"BKN","base":6000}],"obsTime":1773871200},"SBPF":{"icaoId":"SBPF","flightCategory":"VFR","rawOb":"METAR SBPF 182200Z COR AUTO 21006KT 9999 NSC 24/20 Q1012","temp":24,"dewp":20,"wdir":210,"wspd":6,"visib":"6+","altim":1012,"clouds":[],"obsTime":1773871200},"SBGW":{"icaoId":"SBGW","flightCategory":"VFR","rawOb":"METAR SBGW 182200Z 33004KT 9999 FEW030 26/18 Q1010","temp":26,"dewp":18,"wdir":330,"wspd":4,"visib":"6+","altim":1010,"clouds":[{"cover":"FEW","base":3000}],"obsTime":1773871200}}}