{"updated":1778970798,"count":82,"data":{"SBLO":{"icaoId":"SBLO","flightCategory":"VFR","rawOb":"METAR SBLO 162100Z 10002KT 9999 SCT040 20/19 Q1016","temp":20,"dewp":19,"wdir":100,"wspd":2,"visib":"6+","altim":1016,"clouds":[{"cover":"SCT","base":4000}],"obsTime":1778965200},"SBFI":{"icaoId":"SBFI","flightCategory":"VFR","rawOb":"METAR SBFI 162100Z 00000KT 9999 FEW035 22/17 Q1013","temp":22,"dewp":17,"wdir":0,"wspd":0,"visib":"6+","altim":1013,"clouds":[{"cover":"FEW","base":3500}],"obsTime":1778965200},"SBME":{"icaoId":"SBME","flightCategory":"MVFR","rawOb":"METAR SBME 162100Z 13001KT 8000 NSC 23/21 Q1015","temp":23,"dewp":21,"wdir":130,"wspd":1,"visib":4.97,"altim":1015,"clouds":[],"obsTime":1778965200},"SBMG":{"icaoId":"SBMG","flightCategory":"IFR","rawOb":"METAR SBMG 162100Z COR 08007KT 2500 +TSRA BKN006 SCT045 FEW050CB OVC080 20/20 Q1013","temp":20,"dewp":20,"wdir":80,"wspd":7,"visib":1.55,"altim":1013,"clouds":[{"cover":"BKN","base":600},{"cover":"SCT","base":4500},{"cover":"FEW","base":5000},{"cover":"OVC","base":8000}],"obsTime":1778965200},"SBFL":{"icaoId":"SBFL","flightCategory":"VFR","rawOb":"METAR SBFL 162100Z 35003KT 9999 FEW030 BKN083 21/17 Q1014","temp":21,"dewp":17,"wdir":350,"wspd":3,"visib":"6+","altim":1014,"clouds":[{"cover":"FEW","base":3000},{"cover":"BKN","base":8300}],"obsTime":1778965200},"SBMK":{"icaoId":"SBMK","flightCategory":"VFR","rawOb":"METAR SBMK 162100Z 14005KT 9999 FEW045 28/17 Q1017","temp":28,"dewp":17,"wdir":140,"wspd":5,"visib":"6+","altim":1017,"clouds":[{"cover":"FEW","base":4500}],"obsTime":1778965200},"SBCG":{"icaoId":"SBCG","flightCategory":"VFR","rawOb":"METAR SBCG 162100Z 33004KT 9999 FEW035 SCT080 26/20 Q1013","temp":26,"dewp":20,"wdir":330,"wspd":4,"visib":"6+","altim":1013,"clouds":[{"cover":"FEW","base":3500},{"cover":"SCT","base":8000}],"obsTime":1778965200},"SBCP":{"icaoId":"SBCP","flightCategory":"VFR","rawOb":"METAR SBCP 162100Z 15004KT 9999 FEW020 23/22 Q1015","temp":23,"dewp":22,"wdir":150,"wspd":4,"visib":"6+","altim":1015,"clouds":[{"cover":"FEW","base":2000}],"obsTime":1778965200},"SBMO":{"icaoId":"SBMO","flightCategory":"VFR","rawOb":"METAR SBMO 162100Z 11004KT 9999 SCT027 25/22 Q1013","temp":25,"dewp":22,"wdir":110,"wspd":4,"visib":"6+","altim":1013,"clouds":[{"cover":"SCT","base":2700}],"obsTime":1778965200},"SBFZ":{"icaoId":"SBFZ","flightCategory":"MVFR","rawOb":"METAR SBFZ 162100Z 21004KT 150V240 8000 SCT012 BKN020 BKN070 26/25 Q1011","temp":26,"dewp":25,"wdir":210,"wspd":4,"visib":4.97,"altim":1011,"clouds":[{"cover":"SCT","base":1200},{"cover":"BKN","base":2000},{"cover":"BKN","base":7000}],"obsTime":1778965200},"SBMQ":{"icaoId":"SBMQ","flightCategory":"VFR","rawOb":"METAR SBMQ 162100Z 35006KT 9999 SCT015 27/25 Q1011","temp":27,"dewp":25,"wdir":350,"wspd":6,"visib":"6+","altim":1011,"clouds":[{"cover":"SCT","base":1500}],"obsTime":1778965200},"SBBV":{"icaoId":"SBBV","flightCategory":"VFR","rawOb":"METAR SBBV 162100Z 08009KT 9999 SCT040 FEW045TCU BKN090 31/22 Q1009","temp":31,"dewp":22,"wdir":80,"wspd":9,"visib":"6+","altim":1009,"clouds":[{"cover":"SCT","base":4000},{"cover":"FEW","base":4500},{"cover":"BKN","base":9000}],"obsTime":1778965200},"SBNT":{"icaoId":"SBNT","flightCategory":"VFR","rawOb":"METAR SBNT 162100Z 14006KT 9999 FEW020 BKN066 26/23 Q1012","temp":26,"dewp":23,"wdir":140,"wspd":6,"visib":"6+","altim":1012,"clouds":[{"cover":"FEW","base":2000},{"cover":"BKN","base":6600}],"obsTime":1778965200},"SBGL":{"icaoId":"SBGL","flightCategory":"VFR","rawOb":"METAR SBGL 162100Z 13007KT 9999 SCT020 24/21 Q1015","temp":24,"dewp":21,"wdir":130,"wspd":7,"visib":"6+","altim":1015,"clouds":[{"cover":"SCT","base":2000}],"obsTime":1778965200},"SBPA":{"icaoId":"SBPA","flightCategory":"VFR","rawOb":"METAR SBPA 162100Z 14007KT 9999 FEW020 20/16 Q1014","temp":20,"dewp":16,"wdir":140,"wspd":7,"visib":"6+","altim":1014,"clouds":[{"cover":"FEW","base":2000}],"obsTime":1778965200},"SBVT":{"icaoId":"SBVT","flightCategory":"VFR","rawOb":"METAR SBVT 162100Z 15004KT CAVOK 24/22 Q1015","temp":24,"dewp":22,"wdir":150,"wspd":4,"visib":"6+","altim":1015,"clouds":[],"obsTime":1778965200},"SBPJ":{"icaoId":"SBPJ","flightCategory":"VFR","rawOb":"METAR SBPJ 162100Z VRB02KT 9999 FEW030 31/23 Q1011","temp":31,"dewp":23,"wdir":"VRB","wspd":2,"visib":"6+","altim":1011,"clouds":[{"cover":"FEW","base":3000}],"obsTime":1778965200},"SBGO":{"icaoId":"SBGO","flightCategory":"VFR","rawOb":"METAR SBGO 162100Z 36004KT 9999 SCT040 FEW045TCU BKN100 29/17 Q1016","temp":29,"dewp":17,"wdir":360,"wspd":4,"visib":"6+","altim":1016,"clouds":[{"cover":"SCT","base":4000},{"cover":"FEW","base":4500},{"cover":"BKN","base":10000}],"obsTime":1778965200},"SBPV":{"icaoId":"SBPV","flightCategory":"VFR","rawOb":"METAR SBPV 162100Z 33002KT 9999 FEW020 30/25 Q1009","temp":30,"dewp":25,"wdir":330,"wspd":2,"visib":"6+","altim":1009,"clouds":[{"cover":"FEW","base":2000}],"obsTime":1778965200},"SBBR":{"icaoId":"SBBR","flightCategory":"VFR","rawOb":"SPECI SBBR 162038Z 30011KT 9999 2000W RA BKN045 BKN080 23/18 Q1019","temp":23,"dewp":18,"wdir":300,"wspd":11,"visib":"6+","altim":1019,"clouds":[{"cover":"BKN","base":4500},{"cover":"BKN","base":8000}],"obsTime":1778963880},"SBRB":{"icaoId":"SBRB","flightCategory":"MVFR","rawOb":"METAR SBRB 162100Z 00000KT 9999 BKN030 FEW035TCU 28/25 Q1010","temp":28,"dewp":25,"wdir":0,"wspd":0,"visib":"6+","altim":1010,"clouds":[{"cover":"BKN","base":3000},{"cover":"FEW","base":3500}],"obsTime":1778965200},"SBGR":{"icaoId":"SBGR","flightCategory":"VFR","rawOb":"METAR SBGR 162100Z 07008KT CAVOK 22/19 Q1017","temp":22,"dewp":19,"wdir":70,"wspd":8,"visib":"6+","altim":1017,"clouds":[],"obsTime":1778965200},"SBRF":{"icaoId":"SBRF","flightCategory":"VFR","rawOb":"METAR SBRF 162100Z 21003KT 9999 FEW018 SCT050 25/24 Q1013","temp":25,"dewp":24,"wdir":210,"wspd":3,"visib":"6+","altim":1013,"clouds":[{"cover":"FEW","base":1800},{"cover":"SCT","base":5000}],"obsTime":1778965200},"SBSG":{"icaoId":"SBSG","flightCategory":"VFR","rawOb":"METAR SBSG 162100Z 15003KT 9999 FEW021 SCT050 25/23 Q1013","temp":25,"dewp":23,"wdir":150,"wspd":3,"visib":"6+","altim":1013,"clouds":[{"cover":"FEW","base":2100},{"cover":"SCT","base":5000}],"obsTime":1778965200},"SBCT":{"icaoId":"SBCT","flightCategory":"VFR","rawOb":"METAR SBCT 162100Z 01002KT 9999 -RA FEW020 BKN040 18/17 Q1017","temp":18,"dewp":17,"wdir":10,"wspd":2,"visib":"6+","altim":1017,"clouds":[{"cover":"FEW","base":2000},{"cover":"BKN","base":4000}],"obsTime":1778965200},"SBBE":{"icaoId":"SBBE","flightCategory":"VFR","rawOb":"METAR SBBE 162100Z 07013KT 9999 -TSRA SCT035 FEW040CB 26/25 Q1010","temp":26,"dewp":25,"wdir":70,"wspd":13,"visib":"6+","altim":1010,"clouds":[{"cover":"SCT","base":3500},{"cover":"FEW","base":4000}],"obsTime":1778965200},"SBSL":{"icaoId":"SBSL","flightCategory":"VFR","rawOb":"METAR SBSL 162100Z 03007KT 9999 SCT020 SCT100 28/24 Q1011","temp":28,"dewp":24,"wdir":30,"wspd":7,"visib":"6+","altim":1011,"clouds":[{"cover":"SCT","base":2000},{"cover":"SCT","base":10000}],"obsTime":1778965200},"SBSN":{"icaoId":"SBSN","flightCategory":"VFR","rawOb":"METAR SBSN 162100Z 08008KT 9999 FEW023 FEW028TCU 30/24 Q1009","temp":30,"dewp":24,"wdir":80,"wspd":8,"visib":"6+","altim":1009,"clouds":[{"cover":"FEW","base":2300},{"cover":"FEW","base":2800}],"obsTime":1778965200},"SBIL":{"icaoId":"SBIL","flightCategory":"VFR","rawOb":"METAR SBIL 162100Z 17006KT 140V200 CAVOK 28/21 Q1015","temp":28,"dewp":21,"wdir":170,"wspd":6,"visib":"6+","altim":1015,"clouds":[],"obsTime":1778965200},"SBJU":{"icaoId":"SBJU","flightCategory":"VFR","rawOb":"METAR SBJU 162100Z 00000KT 9999 SCT022 28/20 Q1013","temp":28,"dewp":20,"wdir":0,"wspd":0,"visib":"6+","altim":1013,"clouds":[{"cover":"SCT","base":2200}],"obsTime":1778965200},"SBSP":{"icaoId":"SBSP","flightCategory":"VFR","rawOb":"METAR SBSP 162100Z 27004KT 230V300 CAVOK 24/16 Q1018","temp":24,"dewp":16,"wdir":270,"wspd":4,"visib":"6+","altim":1018,"clouds":[],"obsTime":1778965200},"SBCZ":{"icaoId":"SBCZ","flightCategory":"VFR","rawOb":"METAR SBCZ 162100Z VRB01KT 9999 SCT030 31/24 Q1009","temp":31,"dewp":24,"wdir":"VRB","wspd":1,"visib":"6+","altim":1009,"clouds":[{"cover":"SCT","base":3000}],"obsTime":1778965200},"SBSV":{"icaoId":"SBSV","flightCategory":"VFR","rawOb":"METAR SBSV 162100Z 17008KT 9999 FEW025 27/21 Q1014","temp":27,"dewp":21,"wdir":170,"wspd":8,"visib":"6+","altim":1014,"clouds":[{"cover":"FEW","base":2500}],"obsTime":1778965200},"SBTE":{"icaoId":"SBTE","flightCategory":"VFR","rawOb":"METAR SBTE 162100Z 28003KT 9999 FEW025 30/24 Q1010","temp":30,"dewp":24,"wdir":280,"wspd":3,"visib":"6+","altim":1010,"clouds":[{"cover":"FEW","base":2500}],"obsTime":1778965200},"SBCF":{"icaoId":"SBCF","flightCategory":"VFR","rawOb":"METAR SBCF 162100Z 00000KT 9999 SCT040 SCT060 24/18 Q1019","temp":24,"dewp":18,"wdir":0,"wspd":0,"visib":"6+","altim":1019,"clouds":[{"cover":"SCT","base":4000},{"cover":"SCT","base":6000}],"obsTime":1778965200},"SBEG":{"icaoId":"SBEG","flightCategory":"VFR","rawOb":"METAR SBEG 162100Z 04002KT 9999 SCT020 FEW025TCU 28/26 Q1009","temp":28,"dewp":26,"wdir":40,"wspd":2,"visib":"6+","altim":1009,"clouds":[{"cover":"SCT","base":2000},{"cover":"FEW","base":2500}],"obsTime":1778965200},"SBUL":{"icaoId":"SBUL","flightCategory":"VFR","rawOb":"METAR SBUL 162100Z 05003KT 9999 FEW030 26/15 Q1019","temp":26,"dewp":15,"wdir":50,"wspd":3,"visib":"6+","altim":1019,"clouds":[{"cover":"FEW","base":3000}],"obsTime":1778965200},"SBUR":{"icaoId":"SBUR","flightCategory":"VFR","rawOb":"METAR SBUR 162100Z 17006KT CAVOK 25/18 Q1017","temp":25,"dewp":18,"wdir":170,"wspd":6,"visib":"6+","altim":1017,"clouds":[],"obsTime":1778965200},"SBKP":{"icaoId":"SBKP","flightCategory":"VFR","rawOb":"METAR SBKP 162100Z VRB02KT 9999 SCT040 SCT070 26/16 Q1017","temp":26,"dewp":16,"wdir":"VRB","wspd":2,"visib":"6+","altim":1017,"clouds":[{"cover":"SCT","base":4000},{"cover":"SCT","base":7000}],"obsTime":1778965200},"SBMA":{"icaoId":"SBMA","flightCategory":"VFR","rawOb":"METAR SBMA 162100Z 00000KT 9999 SCT020 FEW023TCU BKN100 28/24 Q1010","temp":28,"dewp":24,"wdir":0,"wspd":0,"visib":"6+","altim":1010,"clouds":[{"cover":"SCT","base":2000},{"cover":"FEW","base":2300},{"cover":"BKN","base":10000}],"obsTime":1778965200},"SBCB":{"icaoId":"SBCB","flightCategory":"VFR","rawOb":"METAR SBCB 162100Z COR 14004KT CAVOK 24/22 Q1016","temp":24,"dewp":22,"wdir":140,"wspd":4,"visib":"6+","altim":1016,"clouds":[],"obsTime":1778965200},"SBCR":{"icaoId":"SBCR","flightCategory":"VFR","rawOb":"METAR SBCR 162100Z 04006KT 010V070 9999 FEW035 SCT080 28/23 Q1009","temp":28,"dewp":23,"wdir":40,"wspd":6,"visib":"6+","altim":1009,"clouds":[{"cover":"FEW","base":3500},{"cover":"SCT","base":8000}],"obsTime":1778965200},"SBHT":{"icaoId":"SBHT","flightCategory":"VFR","rawOb":"METAR SBHT 162100Z 00000KT 9999 SCT025 BKN100 28/24 Q1010","temp":28,"dewp":24,"wdir":0,"wspd":0,"visib":"6+","altim":1010,"clouds":[{"cover":"SCT","base":2500},{"cover":"BKN","base":10000}],"obsTime":1778965200},"SBAT":{"icaoId":"SBAT","flightCategory":"VFR","rawOb":"METAR SBAT 162100Z 06001KT 9999 SCT030 BKN100 29/25 Q1011","temp":29,"dewp":25,"wdir":60,"wspd":1,"visib":"6+","altim":1011,"clouds":[{"cover":"SCT","base":3000},{"cover":"BKN","base":10000}],"obsTime":1778965200},"SBOI":{"icaoId":"SBOI","flightCategory":"VFR","rawOb":"METAR SBOI 162100Z AUTO 03006KT 010V070 9999 FEW030 28/24 Q1011","temp":28,"dewp":24,"wdir":30,"wspd":6,"visib":"6+","altim":1011,"clouds":[{"cover":"FEW","base":3000}],"obsTime":1778965200},"SBVH":{"icaoId":"SBVH","flightCategory":"VFR","rawOb":"METAR SBVH 162100Z 30002KT 9999 SCT030 BKN088 25/22 Q1013","temp":25,"dewp":22,"wdir":300,"wspd":2,"visib":"6+","altim":1013,"clouds":[{"cover":"SCT","base":3000},{"cover":"BKN","base":8800}],"obsTime":1778965200},"SBAX":{"icaoId":"SBAX","flightCategory":"VFR","rawOb":"METAR SBAX 162100Z AUTO VRB02KT CAVOK 24/16 Q1019","temp":24,"dewp":16,"wdir":"VRB","wspd":2,"visib":"6+","altim":1019,"clouds":[],"obsTime":1778965200},"SBUY":{"icaoId":"SBUY","flightCategory":"VFR","rawOb":"METAR SBUY 162100Z 17004KT 9999 FEW025 SCT100 28/24 Q1008","temp":28,"dewp":24,"wdir":170,"wspd":4,"visib":"6+","altim":1008,"clouds":[{"cover":"FEW","base":2500},{"cover":"SCT","base":10000}],"obsTime":1778965200},"SBBH":{"icaoId":"SBBH","flightCategory":"VFR","rawOb":"METAR SBBH 162100Z 06004KT 9999 FEW040 SCT080 25/19 Q1018","temp":25,"dewp":19,"wdir":60,"wspd":4,"visib":"6+","altim":1018,"clouds":[{"cover":"FEW","base":4000},{"cover":"SCT","base":8000}],"obsTime":1778965200},"SBTT":{"icaoId":"SBTT","flightCategory":"VFR","rawOb":"METAR SBTT 162100Z 24002KT CAVOK 30/22 Q1009","temp":30,"dewp":22,"wdir":240,"wspd":2,"visib":"6+","altim":1009,"clouds":[],"obsTime":1778965200},"SBBU":{"icaoId":"SBBU","flightCategory":"VFR","rawOb":"METAR SBBU 162100Z 33003KT 9999 VCSH SCT040 FEW045TCU BKN085 25/21 Q1016","temp":25,"dewp":21,"wdir":330,"wspd":3,"visib":"6+","altim":1016,"clouds":[{"cover":"SCT","base":4000},{"cover":"FEW","base":4500},{"cover":"BKN","base":8500}],"obsTime":1778965200},"SBTF":{"icaoId":"SBTF","flightCategory":"VFR","rawOb":"METAR SBTF 162100Z 05004KT 9999 FEW020 32/23 Q1008","temp":32,"dewp":23,"wdir":50,"wspd":4,"visib":"6+","altim":1008,"clouds":[{"cover":"FEW","base":2000}],"obsTime":1778965200},"SBSR":{"icaoId":"SBSR","flightCategory":"VFR","rawOb":"METAR SBSR 162100Z 00000KT 9999 FEW045 SCT100 26/18 Q1016","temp":26,"dewp":18,"wdir":0,"wspd":0,"visib":"6+","altim":1016,"clouds":[{"cover":"FEW","base":4500},{"cover":"SCT","base":10000}],"obsTime":1778965200},"SBCA":{"icaoId":"SBCA","flightCategory":"MVFR","rawOb":"METAR SBCA 162100Z 32003KT 9999 BKN020 19/17 Q1016","temp":19,"dewp":17,"wdir":320,"wspd":3,"visib":"6+","altim":1016,"clouds":[{"cover":"BKN","base":2000}],"obsTime":1778965200},"SBAR":{"icaoId":"SBAR","flightCategory":"VFR","rawOb":"METAR SBAR 162100Z 14006KT CAVOK 27/22 Q1013","temp":27,"dewp":22,"wdir":140,"wspd":6,"visib":"6+","altim":1013,"clouds":[],"obsTime":1778965200},"SBSM":{"icaoId":"SBSM","flightCategory":"VFR","rawOb":"METAR SBSM 162100Z 00000KT CAVOK 16/15 Q1014","temp":16,"dewp":15,"wdir":0,"wspd":0,"visib":"6+","altim":1014,"clouds":[],"obsTime":1778965200},"SBCO":{"icaoId":"SBCO","flightCategory":"VFR","rawOb":"METAR SBCO 162100Z 12008KT 9999 FEW025 19/16 Q1014","temp":19,"dewp":16,"wdir":120,"wspd":8,"visib":"6+","altim":1014,"clouds":[{"cover":"FEW","base":2500}],"obsTime":1778965200},"SBSJ":{"icaoId":"SBSJ","flightCategory":"VFR","rawOb":"METAR SBSJ 162100Z VRB02KT CAVOK 22/18 Q1017","temp":22,"dewp":18,"wdir":"VRB","wspd":2,"visib":"6+","altim":1017,"clouds":[],"obsTime":1778965200},"SBDN":{"icaoId":"SBDN","flightCategory":"VFR","rawOb":"METAR SBDN 162100Z 13006KT CAVOK 21/18 Q1014","temp":21,"dewp":18,"wdir":130,"wspd":6,"visib":"6+","altim":1014,"clouds":[],"obsTime":1778965200},"SBSC":{"icaoId":"SBSC","flightCategory":"MVFR","rawOb":"METAR SBSC 162100Z 20004KT 8000 SCT030 23/21 Q1015","temp":23,"dewp":21,"wdir":200,"wspd":4,"visib":4.97,"altim":1015,"clouds":[{"cover":"SCT","base":3000}],"obsTime":1778965200},"SBPS":{"icaoId":"SBPS","flightCategory":"VFR","rawOb":"METAR SBPS 162100Z 14003KT CAVOK 25/21 Q1015","temp":25,"dewp":21,"wdir":140,"wspd":3,"visib":"6+","altim":1015,"clouds":[],"obsTime":1778965200},"SBIP":{"icaoId":"SBIP","flightCategory":"VFR","rawOb":"METAR SBIP 162100Z AUTO 22002KT CAVOK 23/21 Q1016","temp":23,"dewp":21,"wdir":220,"wspd":2,"visib":"6+","altim":1016,"clouds":[],"obsTime":1778965200},"SBPL":{"icaoId":"SBPL","flightCategory":"VFR","rawOb":"METAR SBPL 162100Z 11005KT CAVOK 31/14 Q1012","temp":31,"dewp":14,"wdir":110,"wspd":5,"visib":"6+","altim":1012,"clouds":[],"obsTime":1778965200},"SBKG":{"icaoId":"SBKG","flightCategory":"MVFR","rawOb":"METAR SBKG 162100Z 08009KT 6000 SCT007 SCT012 BKN070 23/22 Q1015","temp":23,"dewp":22,"wdir":80,"wspd":9,"visib":3.73,"altim":1015,"clouds":[{"cover":"SCT","base":700},{"cover":"SCT","base":1200},{"cover":"BKN","base":7000}],"obsTime":1778965200},"SBPB":{"icaoId":"SBPB","flightCategory":"MVFR","rawOb":"METAR SBPB 162100Z 03006KT 9999 BKN016 28/24 Q1011","temp":28,"dewp":24,"wdir":30,"wspd":6,"visib":"6+","altim":1011,"clouds":[{"cover":"BKN","base":1600}],"obsTime":1778965200},"SBCJ":{"icaoId":"SBCJ","flightCategory":"VFR","rawOb":"METAR SBCJ 162100Z 00000KT 9999 FEW020 FEW023TCU BKN100 25/22 Q1015","temp":25,"dewp":22,"wdir":0,"wspd":0,"visib":"6+","altim":1015,"clouds":[{"cover":"FEW","base":2000},{"cover":"FEW","base":2300},{"cover":"BKN","base":10000}],"obsTime":1778965200},"SBPP":{"icaoId":"SBPP","flightCategory":"MVFR","rawOb":"METAR SBPP 162100Z 00000KT 9999 BKN010 20/19 Q1014","temp":20,"dewp":19,"wdir":0,"wspd":0,"visib":"6+","altim":1014,"clouds":[{"cover":"BKN","base":1000}],"obsTime":1778965200},"SBES":{"icaoId":"SBES","flightCategory":"VFR","rawOb":"METAR SBES 162100Z 00000KT 9999 FEW020 SCT100 22/// Q1016","temp":null,"dewp":null,"wdir":0,"wspd":0,"visib":"6+","altim":1016,"clouds":[{"cover":"FEW","base":2000},{"cover":"SCT","base":10000}],"obsTime":1778965200},"SBJV":{"icaoId":"SBJV","flightCategory":"MVFR","rawOb":"METAR SBJV 162100Z 14002KT 9999 SCT010 BKN013 20/19 Q1014","temp":20,"dewp":19,"wdir":140,"wspd":2,"visib":"6+","altim":1014,"clouds":[{"cover":"SCT","base":1000},{"cover":"BKN","base":1300}],"obsTime":1778965200},"SBNM":{"icaoId":"SBNM","flightCategory":"VFR","rawOb":"METAR SBNM 162100Z 06002KT 9999 SCT020 21/16 Q1013","temp":21,"dewp":16,"wdir":60,"wspd":2,"visib":"6+","altim":1013,"clouds":[{"cover":"SCT","base":2000}],"obsTime":1778965200},"SBLE":{"icaoId":"SBLE","flightCategory":"VFR","rawOb":"METAR SBLE 162100Z AUTO VRB02KT CAVOK 23/18 Q1016","temp":23,"dewp":18,"wdir":"VRB","wspd":2,"visib":"6+","altim":1016,"clouds":[],"obsTime":1778965200},"SBAN":{"icaoId":"SBAN","flightCategory":"VFR","rawOb":"METAR SBAN 162100Z 12002KT 9999 SCT030 FEW040TCU SCT100 22/17 Q1020","temp":22,"dewp":17,"wdir":120,"wspd":2,"visib":"6+","altim":1020,"clouds":[{"cover":"SCT","base":3000},{"cover":"FEW","base":4000},{"cover":"SCT","base":10000}],"obsTime":1778965200},"SBAF":{"icaoId":"SBAF","flightCategory":"MVFR","rawOb":"METAR SBAF 162100Z 17004KT 140V210 7000 NSC 24/23 Q1015","temp":24,"dewp":23,"wdir":170,"wspd":4,"visib":4.35,"altim":1015,"clouds":[],"obsTime":1778965200},"SBGW":{"icaoId":"SBGW","flightCategory":"VFR","rawOb":"METAR SBGW 162100Z 02004KT 350V050 9999 FEW035 24/16 Q1016","temp":24,"dewp":16,"wdir":20,"wspd":4,"visib":"6+","altim":1016,"clouds":[{"cover":"FEW","base":3500}],"obsTime":1778965200},"SBJR":{"icaoId":"SBJR","flightCategory":"MVFR","rawOb":"METAR SBJR 162100Z 21004KT 5000 BR BKN015 23/22 Q1015","temp":23,"dewp":22,"wdir":210,"wspd":4,"visib":3.11,"altim":1015,"clouds":[{"cover":"BKN","base":1500}],"obsTime":1778965200},"SBLS":{"icaoId":"SBLS","flightCategory":"VFR","rawOb":"METAR SBLS 162100Z 12004KT 9999 SCT040 23/19 Q1019","temp":23,"dewp":19,"wdir":120,"wspd":4,"visib":"6+","altim":1019,"clouds":[{"cover":"SCT","base":4000}],"obsTime":1778965200},"SBMT":{"icaoId":"SBMT","flightCategory":"VFR","rawOb":"METAR SBMT 162100Z 27003KT CAVOK 22/17 Q1017","temp":22,"dewp":17,"wdir":270,"wspd":3,"visib":"6+","altim":1017,"clouds":[],"obsTime":1778965200},"SBJP":{"icaoId":"SBJP","flightCategory":"VFR","rawOb":"METAR SBJP 162100Z 18004KT 9999 FEW020 26/23 Q1013","temp":26,"dewp":23,"wdir":180,"wspd":4,"visib":"6+","altim":1013,"clouds":[{"cover":"FEW","base":2000}],"obsTime":1778965200},"SBST":{"icaoId":"SBST","flightCategory":"MVFR","rawOb":"METAR SBST 162100Z 00000KT 9000 OVC017 21/20 Q1015","temp":21,"dewp":20,"wdir":0,"wspd":0,"visib":5.59,"altim":1015,"clouds":[{"cover":"OVC","base":1700}],"obsTime":1778965200},"SBTA":{"icaoId":"SBTA","flightCategory":"VFR","rawOb":"METAR SBTA 162100Z 00000KT 9999 FEW040 22/17 Q1016","temp":22,"dewp":17,"wdir":0,"wspd":0,"visib":"6+","altim":1016,"clouds":[{"cover":"FEW","base":4000}],"obsTime":1778965200},"SBIH":{"icaoId":"SBIH","flightCategory":"VFR","rawOb":"METAR SBIH 162100Z 06005KT 9999 FEW018 FEW023TCU 31/25 Q1009","temp":31,"dewp":25,"wdir":60,"wspd":5,"visib":"6+","altim":1009,"clouds":[{"cover":"FEW","base":1800},{"cover":"FEW","base":2300}],"obsTime":1778965200},"SBPF":{"icaoId":"SBPF","flightCategory":"VFR","rawOb":"METAR SBPF 162100Z 24002KT 9999 SCT020 BKN060 18/16 Q1015","temp":18,"dewp":16,"wdir":240,"wspd":2,"visib":"6+","altim":1015,"clouds":[{"cover":"SCT","base":2000},{"cover":"BKN","base":6000}],"obsTime":1778965200}}}