{"updated":1775764545,"count":84,"data":{"SBPA":{"icaoId":"SBPA","flightCategory":"VFR","rawOb":"METAR SBPA 091800Z 27009KT 230V310 9999 BKN045 24/13 Q1015","temp":24,"dewp":13,"wdir":270,"wspd":9,"visib":"6+","altim":1015,"clouds":[{"cover":"BKN","base":4500}],"obsTime":1775757600},"SBPV":{"icaoId":"SBPV","flightCategory":"MVFR","rawOb":"METAR SBPV 091800Z 14003KT 9999 VCSH BKN025 FEW030TCU 29/24 Q1010","temp":29,"dewp":24,"wdir":140,"wspd":3,"visib":"6+","altim":1010,"clouds":[{"cover":"BKN","base":2500},{"cover":"FEW","base":3000}],"obsTime":1775757600},"SBSL":{"icaoId":"SBSL","flightCategory":"MVFR","rawOb":"METAR SBSL 091800Z 23007KT 9999 VCSH BKN015 FEW025TCU 26/24 Q1010","temp":26,"dewp":24,"wdir":230,"wspd":7,"visib":"6+","altim":1010,"clouds":[{"cover":"BKN","base":1500},{"cover":"FEW","base":2500}],"obsTime":1775757600},"SBBV":{"icaoId":"SBBV","flightCategory":"VFR","rawOb":"METAR SBBV 091800Z 16006KT 9999 FEW030 FEW035TCU BKN080 30/23 Q1010","temp":30,"dewp":23,"wdir":160,"wspd":6,"visib":"6+","altim":1010,"clouds":[{"cover":"FEW","base":3000},{"cover":"FEW","base":3500},{"cover":"BKN","base":8000}],"obsTime":1775757600},"SBVT":{"icaoId":"SBVT","flightCategory":"VFR","rawOb":"METAR SBVT 091800Z 29004KT 9000 VCSH VCTS FEW030 FEW040CB SCT100 29/24 Q1009","temp":29,"dewp":24,"wdir":290,"wspd":4,"visib":5.59,"altim":1009,"clouds":[{"cover":"FEW","base":3000},{"cover":"FEW","base":4000},{"cover":"SCT","base":10000}],"obsTime":1775757600},"SBAT":{"icaoId":"SBAT","flightCategory":"MVFR","rawOb":"METAR SBAT 091800Z 36005KT 9999 BKN030 32/24 Q1011","temp":32,"dewp":24,"wdir":360,"wspd":5,"visib":"6+","altim":1011,"clouds":[{"cover":"BKN","base":3000}],"obsTime":1775757600},"SBBE":{"icaoId":"SBBE","flightCategory":"VFR","rawOb":"METAR SBBE 091800Z 34012KT 9999 VCSH SCT030 FEW035TCU 30/25 Q1010","temp":30,"dewp":25,"wdir":340,"wspd":12,"visib":"6+","altim":1010,"clouds":[{"cover":"SCT","base":3000},{"cover":"FEW","base":3500}],"obsTime":1775757600},"SBBR":{"icaoId":"SBBR","flightCategory":"VFR","rawOb":"METAR SBBR 091800Z 06003KT 360V140 9999 TS BKN040 FEW045CB BKN100 22/20 Q1017 RETSRA","temp":22,"dewp":20,"wdir":60,"wspd":3,"visib":"6+","altim":1017,"clouds":[{"cover":"BKN","base":4000},{"cover":"FEW","base":4500},{"cover":"BKN","base":10000}],"obsTime":1775757600},"SBCB":{"icaoId":"SBCB","flightCategory":"VFR","rawOb":"METAR SBCB 091800Z 25017KT CAVOK 28/23 Q1010","temp":28,"dewp":23,"wdir":250,"wspd":17,"visib":"6+","altim":1010,"clouds":[],"obsTime":1775757600},"SBCF":{"icaoId":"SBCF","flightCategory":"VFR","rawOb":"METAR SBCF 091800Z 23008KT 9999 BKN040 FEW040TCU 30/18 Q1015","temp":30,"dewp":18,"wdir":230,"wspd":8,"visib":"6+","altim":1015,"clouds":[{"cover":"BKN","base":4000},{"cover":"FEW","base":4000}],"obsTime":1775757600},"SBCG":{"icaoId":"SBCG","flightCategory":"VFR","rawOb":"METAR SBCG 091800Z 21007KT 9999 VCSH VCTS SCT030 SCT040 FEW050CB 28/21 Q1015","temp":28,"dewp":21,"wdir":210,"wspd":7,"visib":"6+","altim":1015,"clouds":[{"cover":"SCT","base":3000},{"cover":"SCT","base":4000},{"cover":"FEW","base":5000}],"obsTime":1775757600},"SBCP":{"icaoId":"SBCP","flightCategory":"VFR","rawOb":"METAR SBCP 091800Z 21015KT 9999 SCT025 32/22 Q1009","temp":32,"dewp":22,"wdir":210,"wspd":15,"visib":"6+","altim":1009,"clouds":[{"cover":"SCT","base":2500}],"obsTime":1775757600},"SBCR":{"icaoId":"SBCR","flightCategory":"VFR","rawOb":"METAR SBCR 091800Z 22005KT 180V280 9999 FEW018 BKN045 25/23 Q1013","temp":25,"dewp":23,"wdir":220,"wspd":5,"visib":"6+","altim":1013,"clouds":[{"cover":"FEW","base":1800},{"cover":"BKN","base":4500}],"obsTime":1775757600},"SBCT":{"icaoId":"SBCT","flightCategory":"VFR","rawOb":"METAR SBCT 091800Z 20007KT 9999 SCT045 24/12 Q1016","temp":24,"dewp":12,"wdir":200,"wspd":7,"visib":"6+","altim":1016,"clouds":[{"cover":"SCT","base":4500}],"obsTime":1775757600},"SBCZ":{"icaoId":"SBCZ","flightCategory":"MVFR","rawOb":"METAR SBCZ 091800Z 00000KT 9999 BKN030 31/24 Q1012","temp":31,"dewp":24,"wdir":0,"wspd":0,"visib":"6+","altim":1012,"clouds":[{"cover":"BKN","base":3000}],"obsTime":1775757600},"SBEG":{"icaoId":"SBEG","flightCategory":"VFR","rawOb":"METAR SBEG 091800Z 34003KT 9999 VCSH FEW007 SCT020 FEW025TCU BKN100 24/23 Q1011 RETS","temp":24,"dewp":23,"wdir":340,"wspd":3,"visib":"6+","altim":1011,"clouds":[{"cover":"FEW","base":700},{"cover":"SCT","base":2000},{"cover":"FEW","base":2500},{"cover":"BKN","base":10000}],"obsTime":1775757600},"SBFI":{"icaoId":"SBFI","flightCategory":"MVFR","rawOb":"METAR SBFI 091800Z 26003KT 9999 BKN030 27/16 Q1015","temp":27,"dewp":16,"wdir":260,"wspd":3,"visib":"6+","altim":1015,"clouds":[{"cover":"BKN","base":3000}],"obsTime":1775757600},"SBFL":{"icaoId":"SBFL","flightCategory":"VFR","rawOb":"METAR SBFL 091800Z 13013KT 9999 FEW030 25/18 Q1012","temp":25,"dewp":18,"wdir":130,"wspd":13,"visib":"6+","altim":1012,"clouds":[{"cover":"FEW","base":3000}],"obsTime":1775757600},"SBFZ":{"icaoId":"SBFZ","flightCategory":"MVFR","rawOb":"METAR SBFZ 091800Z 09009KT 9000 VCSH BKN017 FEW025TCU 29/25 Q1009","temp":29,"dewp":25,"wdir":90,"wspd":9,"visib":5.59,"altim":1009,"clouds":[{"cover":"BKN","base":1700},{"cover":"FEW","base":2500}],"obsTime":1775757600},"SBGL":{"icaoId":"SBGL","flightCategory":"VFR","rawOb":"METAR SBGL 091800Z 21015KT 9999 FEW025 SCT050 30/21 Q1011","temp":30,"dewp":21,"wdir":210,"wspd":15,"visib":"6+","altim":1011,"clouds":[{"cover":"FEW","base":2500},{"cover":"SCT","base":5000}],"obsTime":1775757600},"SBGO":{"icaoId":"SBGO","flightCategory":"VFR","rawOb":"METAR SBGO 091800Z 07003KT 350V150 9999 BKN045 FEW048TCU 31/20 Q1014","temp":31,"dewp":20,"wdir":70,"wspd":3,"visib":"6+","altim":1014,"clouds":[{"cover":"BKN","base":4500},{"cover":"FEW","base":4800}],"obsTime":1775757600},"SBGR":{"icaoId":"SBGR","flightCategory":"VFR","rawOb":"METAR SBGR 091800Z 24010KT 9999 BKN036 27/19 Q1015","temp":27,"dewp":19,"wdir":240,"wspd":10,"visib":"6+","altim":1015,"clouds":[{"cover":"BKN","base":3600}],"obsTime":1775757600},"SBHT":{"icaoId":"SBHT","flightCategory":"MVFR","rawOb":"METAR SBHT 091800Z 17003KT 9999 BKN025 SCT100 29/26 Q1010","temp":29,"dewp":26,"wdir":170,"wspd":3,"visib":"6+","altim":1010,"clouds":[{"cover":"BKN","base":2500},{"cover":"SCT","base":10000}],"obsTime":1775757600},"SBIL":{"icaoId":"SBIL","flightCategory":"VFR","rawOb":"METAR SBIL 091800Z 10009KT 9999 FEW025 30/25 Q1012","temp":30,"dewp":25,"wdir":100,"wspd":9,"visib":"6+","altim":1012,"clouds":[{"cover":"FEW","base":2500}],"obsTime":1775757600},"SBJU":{"icaoId":"SBJU","flightCategory":"MVFR","rawOb":"METAR SBJU 091800Z 15008KT 9999 BKN022 30/22 Q1012","temp":30,"dewp":22,"wdir":150,"wspd":8,"visib":"6+","altim":1012,"clouds":[{"cover":"BKN","base":2200}],"obsTime":1775757600},"SBKP":{"icaoId":"SBKP","flightCategory":"MVFR","rawOb":"METAR SBKP 091800Z 28009KT 9999 BKN030 29/20 Q1014","temp":29,"dewp":20,"wdir":280,"wspd":9,"visib":"6+","altim":1014,"clouds":[{"cover":"BKN","base":3000}],"obsTime":1775757600},"SBLO":{"icaoId":"SBLO","flightCategory":"VFR","rawOb":"METAR SBLO 091800Z 26007KT 200V320 9999 SCT037 27/18 Q1015","temp":27,"dewp":18,"wdir":260,"wspd":7,"visib":"6+","altim":1015,"clouds":[{"cover":"SCT","base":3700}],"obsTime":1775757600},"SBMA":{"icaoId":"SBMA","flightCategory":"MVFR","rawOb":"METAR SBMA 091800Z 16006KT 9999 BKN025 32/23 Q1010","temp":32,"dewp":23,"wdir":160,"wspd":6,"visib":"6+","altim":1010,"clouds":[{"cover":"BKN","base":2500}],"obsTime":1775757600},"SBME":{"icaoId":"SBME","flightCategory":"VFR","rawOb":"METAR SBME 091800Z 21017KT 9999 FEW040 32/21 Q1009","temp":32,"dewp":21,"wdir":210,"wspd":17,"visib":"6+","altim":1009,"clouds":[{"cover":"FEW","base":4000}],"obsTime":1775757600},"SBMG":{"icaoId":"SBMG","flightCategory":"VFR","rawOb":"METAR SBMG 091800Z 27007KT 240V350 9999 FEW035 25/16 Q1014","temp":25,"dewp":16,"wdir":270,"wspd":7,"visib":"6+","altim":1014,"clouds":[{"cover":"FEW","base":3500}],"obsTime":1775757600},"SBMK":{"icaoId":"SBMK","flightCategory":"VFR","rawOb":"METAR SBMK 091800Z 30003KT 9999 FEW045 SCT100 30/20 Q1013","temp":30,"dewp":20,"wdir":300,"wspd":3,"visib":"6+","altim":1013,"clouds":[{"cover":"FEW","base":4500},{"cover":"SCT","base":10000}],"obsTime":1775757600},"SBMO":{"icaoId":"SBMO","flightCategory":"VFR","rawOb":"METAR SBMO 091800Z 14008KT 9999 SCT030 30/22 Q1011","temp":30,"dewp":22,"wdir":140,"wspd":8,"visib":"6+","altim":1011,"clouds":[{"cover":"SCT","base":3000}],"obsTime":1775757600},"SBMQ":{"icaoId":"SBMQ","flightCategory":"VFR","rawOb":"METAR SBMQ 091800Z 05014KT 9999 SCT025 FEW050TCU SCT090 32/25 Q1010 RETS","temp":32,"dewp":25,"wdir":50,"wspd":14,"visib":"6+","altim":1010,"clouds":[{"cover":"SCT","base":2500},{"cover":"FEW","base":5000},{"cover":"SCT","base":9000}],"obsTime":1775757600},"SBNT":{"icaoId":"SBNT","flightCategory":"MVFR","rawOb":"METAR SBNT 091800Z 17011KT 9999 BKN020 FEW030TCU SCT080 28/24 Q1010","temp":28,"dewp":24,"wdir":170,"wspd":11,"visib":"6+","altim":1010,"clouds":[{"cover":"BKN","base":2000},{"cover":"FEW","base":3000},{"cover":"SCT","base":8000}],"obsTime":1775757600},"SBPJ":{"icaoId":"SBPJ","flightCategory":"VFR","rawOb":"METAR SBPJ 091800Z 29005KT 9999 VCSH FEW027 FEW033TCU BKN070 28/23 Q1011","temp":28,"dewp":23,"wdir":290,"wspd":5,"visib":"6+","altim":1011,"clouds":[{"cover":"FEW","base":2700},{"cover":"FEW","base":3300},{"cover":"BKN","base":7000}],"obsTime":1775757600},"SBRB":{"icaoId":"SBRB","flightCategory":"VFR","rawOb":"METAR SBRB 091800Z 26003KT 9999 FEW020 SCT030 31/24 Q1013","temp":31,"dewp":24,"wdir":260,"wspd":3,"visib":"6+","altim":1013,"clouds":[{"cover":"FEW","base":2000},{"cover":"SCT","base":3000}],"obsTime":1775757600},"SBRF":{"icaoId":"SBRF","flightCategory":"VFR","rawOb":"METAR SBRF 091800Z 14011KT 9999 FEW025 29/24 Q1010","temp":29,"dewp":24,"wdir":140,"wspd":11,"visib":"6+","altim":1010,"clouds":[{"cover":"FEW","base":2500}],"obsTime":1775757600},"SBSG":{"icaoId":"SBSG","flightCategory":"MVFR","rawOb":"METAR SBSG 091800Z 13010KT 090V180 9999 VCSH FEW018 BKN026 FEW030TCU 28/24 Q1010","temp":28,"dewp":24,"wdir":130,"wspd":10,"visib":"6+","altim":1010,"clouds":[{"cover":"FEW","base":1800},{"cover":"BKN","base":2600},{"cover":"FEW","base":3000}],"obsTime":1775757600},"SBSN":{"icaoId":"SBSN","flightCategory":"VFR","rawOb":"METAR SBSN 091800Z 10014KT 9999 R10/M0050 SCT020 FEW023TCU SCT100 29/23 Q1010","temp":29,"dewp":23,"wdir":100,"wspd":14,"visib":"6+","altim":1010,"clouds":[{"cover":"SCT","base":2000},{"cover":"FEW","base":2300},{"cover":"SCT","base":10000}],"obsTime":1775757600},"SBSP":{"icaoId":"SBSP","flightCategory":"MVFR","rawOb":"METAR SBSP 091800Z 20009KT 160V240 9999 BKN030 25/19 Q1016","temp":25,"dewp":19,"wdir":200,"wspd":9,"visib":"6+","altim":1016,"clouds":[{"cover":"BKN","base":3000}],"obsTime":1775757600},"SBSV":{"icaoId":"SBSV","flightCategory":"VFR","rawOb":"METAR SBSV 091800Z 12008KT 080V170 9999 FEW023 30/21 Q1011","temp":30,"dewp":21,"wdir":120,"wspd":8,"visib":"6+","altim":1011,"clouds":[{"cover":"FEW","base":2300}],"obsTime":1775757600},"SBTE":{"icaoId":"SBTE","flightCategory":"MVFR","rawOb":"METAR SBTE 091800Z 21004KT 9999 BKN020 32/23 Q1009","temp":32,"dewp":23,"wdir":210,"wspd":4,"visib":"6+","altim":1009,"clouds":[{"cover":"BKN","base":2000}],"obsTime":1775757600},"SBUL":{"icaoId":"SBUL","flightCategory":"VFR","rawOb":"METAR SBUL 091800Z 23008KT 9999 SCT040 28/18 Q1016","temp":28,"dewp":18,"wdir":230,"wspd":8,"visib":"6+","altim":1016,"clouds":[{"cover":"SCT","base":4000}],"obsTime":1775757600},"SBUR":{"icaoId":"SBUR","flightCategory":"VFR","rawOb":"METAR SBUR 091800Z 23008KT 9999 SCT042 28/19 Q1015","temp":28,"dewp":19,"wdir":230,"wspd":8,"visib":"6+","altim":1015,"clouds":[{"cover":"SCT","base":4200}],"obsTime":1775757600},"SBCC":{"icaoId":"SBCC","flightCategory":"MVFR","rawOb":"METAR SBCC 091800Z 10005KT 9999 TS BKN020 FEW025CB BKN100 30/22 Q1012 RETS","temp":30,"dewp":22,"wdir":100,"wspd":5,"visib":"6+","altim":1012,"clouds":[{"cover":"BKN","base":2000},{"cover":"FEW","base":2500},{"cover":"BKN","base":10000}],"obsTime":1775757600},"SBAX":{"icaoId":"SBAX","flightCategory":"VFR","rawOb":"METAR SBAX 091800Z AUTO 33004KT 290V010 CAVOK 25/18 Q1017","temp":25,"dewp":18,"wdir":330,"wspd":4,"visib":"6+","altim":1017,"clouds":[],"obsTime":1775757600},"SBBH":{"icaoId":"SBBH","flightCategory":"VFR","rawOb":"METAR SBBH 091800Z 24009KT 9999 SCT048 SCT100 30/18 Q1014","temp":30,"dewp":18,"wdir":240,"wspd":9,"visib":"6+","altim":1014,"clouds":[{"cover":"SCT","base":4800},{"cover":"SCT","base":10000}],"obsTime":1775757600},"SBBQ":{"icaoId":"SBBQ","flightCategory":"VFR","rawOb":"METAR SBBQ 091800Z 24005KT 9999 BKN035 26/17 Q1018","temp":26,"dewp":17,"wdir":240,"wspd":5,"visib":"6+","altim":1018,"clouds":[{"cover":"BKN","base":3500}],"obsTime":1775757600},"SBBU":{"icaoId":"SBBU","flightCategory":"MVFR","rawOb":"METAR SBBU 091800Z 24010KT 9999 BKN030 FEW035TCU 29/21 Q1014","temp":29,"dewp":21,"wdir":240,"wspd":10,"visib":"6+","altim":1014,"clouds":[{"cover":"BKN","base":3000},{"cover":"FEW","base":3500}],"obsTime":1775757600},"SBCA":{"icaoId":"SBCA","flightCategory":"VFR","rawOb":"METAR SBCA 091800Z 16008KT 9999 SCT020 23/15 Q1017","temp":23,"dewp":15,"wdir":160,"wspd":8,"visib":"6+","altim":1017,"clouds":[{"cover":"SCT","base":2000}],"obsTime":1775757600},"SBAR":{"icaoId":"SBAR","flightCategory":"VFR","rawOb":"METAR SBAR 091800Z 16009KT 9999 FEW020 BKN070 29/23 Q1011","temp":29,"dewp":23,"wdir":160,"wspd":9,"visib":"6+","altim":1011,"clouds":[{"cover":"FEW","base":2000},{"cover":"BKN","base":7000}],"obsTime":1775757600},"SBCJ":{"icaoId":"SBCJ","flightCategory":"VFR","rawOb":"METAR SBCJ 091800Z 06003KT 9999 SCT018 26/22 Q1015","temp":26,"dewp":22,"wdir":60,"wspd":3,"visib":"6+","altim":1015,"clouds":[{"cover":"SCT","base":1800}],"obsTime":1775757600},"SBCO":{"icaoId":"SBCO","flightCategory":"VFR","rawOb":"METAR SBCO 091800Z 26010KT 240V310 9999 SCT040 25/14 Q1015","temp":25,"dewp":14,"wdir":260,"wspd":10,"visib":"6+","altim":1015,"clouds":[{"cover":"SCT","base":4000}],"obsTime":1775757600},"SBDN":{"icaoId":"SBDN","flightCategory":"VFR","rawOb":"METAR SBDN 091800Z 21010KT 9999 BKN040 29/19 Q1014","temp":29,"dewp":19,"wdir":210,"wspd":10,"visib":"6+","altim":1014,"clouds":[{"cover":"BKN","base":4000}],"obsTime":1775757600},"SBES":{"icaoId":"SBES","flightCategory":"VFR","rawOb":"METAR SBES 091800Z 23013G23KT 190V280 9999 FEW025 28/// Q1010","temp":null,"dewp":null,"wdir":230,"wspd":13,"visib":"6+","altim":1010,"clouds":[{"cover":"FEW","base":2500}],"obsTime":1775757600},"SBGM":{"icaoId":"SBGM","flightCategory":"VFR","rawOb":"METAR SBGM 091800Z 03004KT 360V080 9999 TS FEW026CB SCT036 BKN043 29/21 Q1012","temp":29,"dewp":21,"wdir":30,"wspd":4,"visib":"6+","altim":1012,"clouds":[{"cover":"FEW","base":2600},{"cover":"SCT","base":3600},{"cover":"BKN","base":4300}],"obsTime":1775757600},"SBIP":{"icaoId":"SBIP","flightCategory":"VFR","rawOb":"METAR SBIP 091800Z AUTO 27008KT 9999 -RA FEW043 28/21 Q1011","temp":28,"dewp":21,"wdir":270,"wspd":8,"visib":"6+","altim":1011,"clouds":[{"cover":"FEW","base":4300}],"obsTime":1775757600},"SBKG":{"icaoId":"SBKG","flightCategory":"VFR","rawOb":"METAR SBKG 091800Z 16004KT 9999 SCT025 29/20 Q1013","temp":29,"dewp":20,"wdir":160,"wspd":4,"visib":"6+","altim":1013,"clouds":[{"cover":"SCT","base":2500}],"obsTime":1775757600},"SBOI":{"icaoId":"SBOI","flightCategory":"VFR","rawOb":"METAR SBOI 091800Z AUTO 08005KT 010V130 9999 FEW040 31/23 Q1012","temp":31,"dewp":23,"wdir":80,"wspd":5,"visib":"6+","altim":1012,"clouds":[{"cover":"FEW","base":4000}],"obsTime":1775757600},"SBPB":{"icaoId":"SBPB","flightCategory":"VFR","rawOb":"METAR SBPB 091800Z 05012KT 9999 SCT016 SCT025TCU 30/25 Q1009","temp":30,"dewp":25,"wdir":50,"wspd":12,"visib":"6+","altim":1009,"clouds":[{"cover":"SCT","base":1600},{"cover":"SCT","base":2500}],"obsTime":1775757600},"SBPL":{"icaoId":"SBPL","flightCategory":"MVFR","rawOb":"METAR SBPL 091800Z 34004KT 9999 BKN030 32/20 Q1012","temp":32,"dewp":20,"wdir":340,"wspd":4,"visib":"6+","altim":1012,"clouds":[{"cover":"BKN","base":3000}],"obsTime":1775757600},"SBPP":{"icaoId":"SBPP","flightCategory":"MVFR","rawOb":"METAR SBPP 091800Z 05002KT 9999 OVC015 21/18 Q1014","temp":21,"dewp":18,"wdir":50,"wspd":2,"visib":"6+","altim":1014,"clouds":[{"cover":"OVC","base":1500}],"obsTime":1775757600},"SBPS":{"icaoId":"SBPS","flightCategory":"VFR","rawOb":"METAR SBPS 091800Z 06013KT 9999 FEW030 30/23 Q1011","temp":30,"dewp":23,"wdir":60,"wspd":13,"visib":"6+","altim":1011,"clouds":[{"cover":"FEW","base":3000}],"obsTime":1775757600},"SBSC":{"icaoId":"SBSC","flightCategory":"VFR","rawOb":"METAR SBSC 091800Z 22011KT 9999 BKN038 28/23 Q1011","temp":28,"dewp":23,"wdir":220,"wspd":11,"visib":"6+","altim":1011,"clouds":[{"cover":"BKN","base":3800}],"obsTime":1775757600},"SBSJ":{"icaoId":"SBSJ","flightCategory":"VFR","rawOb":"METAR SBSJ 091800Z 18009KT 9999 BKN033 27/20 Q1014","temp":27,"dewp":20,"wdir":180,"wspd":9,"visib":"6+","altim":1014,"clouds":[{"cover":"BKN","base":3300}],"obsTime":1775757600},"SBSM":{"icaoId":"SBSM","flightCategory":"VFR","rawOb":"METAR SBSM 091800Z 27004KT 9999 BKN035 23/13 Q1016","temp":23,"dewp":13,"wdir":270,"wspd":4,"visib":"6+","altim":1016,"clouds":[{"cover":"BKN","base":3500}],"obsTime":1775757600},"SBSR":{"icaoId":"SBSR","flightCategory":"MVFR","rawOb":"METAR SBSR 091800Z 25006KT 210V290 9999 BKN030 30/20 Q1014","temp":30,"dewp":20,"wdir":250,"wspd":6,"visib":"6+","altim":1014,"clouds":[{"cover":"BKN","base":3000}],"obsTime":1775757600},"SBTF":{"icaoId":"SBTF","flightCategory":"VFR","rawOb":"METAR SBTF 091800Z 03003KT 9999 SCT020 33/26 Q1010","temp":33,"dewp":26,"wdir":30,"wspd":3,"visib":"6+","altim":1010,"clouds":[{"cover":"SCT","base":2000}],"obsTime":1775757600},"SBTT":{"icaoId":"SBTT","flightCategory":"MVFR","rawOb":"METAR SBTT 091800Z 16005KT 130V200 8000 FEW025 FEW030TCU SCT090 25/23 Q1012 RETSRA","temp":25,"dewp":23,"wdir":160,"wspd":5,"visib":4.97,"altim":1012,"clouds":[{"cover":"FEW","base":2500},{"cover":"FEW","base":3000},{"cover":"SCT","base":9000}],"obsTime":1775757600},"SBUY":{"icaoId":"SBUY","flightCategory":"VFR","rawOb":"METAR SBUY 091800Z 17004KT 9999 SCT025 FEW030TCU 31/24 Q1009","temp":31,"dewp":24,"wdir":170,"wspd":4,"visib":"6+","altim":1009,"clouds":[{"cover":"SCT","base":2500},{"cover":"FEW","base":3000}],"obsTime":1775757600},"SBVH":{"icaoId":"SBVH","flightCategory":"MVFR","rawOb":"METAR SBVH 091800Z 03011KT 9999 4000N -SHRA BKN030 FEW035TCU BKN100 29/24 Q1013","temp":29,"dewp":24,"wdir":30,"wspd":11,"visib":"6+","altim":1013,"clouds":[{"cover":"BKN","base":3000},{"cover":"FEW","base":3500},{"cover":"BKN","base":10000}],"obsTime":1775757600},"SBGW":{"icaoId":"SBGW","flightCategory":"VFR","rawOb":"METAR SBGW 091800Z 21004KT 150V260 9999 SCT030 31/19 Q1013","temp":31,"dewp":19,"wdir":210,"wspd":4,"visib":"6+","altim":1013,"clouds":[{"cover":"SCT","base":3000}],"obsTime":1775757600},"SBNM":{"icaoId":"SBNM","flightCategory":"VFR","rawOb":"METAR SBNM 091800Z 26007KT 9999 SCT020 SCT030 25/16 Q1016","temp":25,"dewp":16,"wdir":260,"wspd":7,"visib":"6+","altim":1016,"clouds":[{"cover":"SCT","base":2000},{"cover":"SCT","base":3000}],"obsTime":1775757600},"SBAN":{"icaoId":"SBAN","flightCategory":"MVFR","rawOb":"METAR SBAN 091800Z 27003KT 9999 VCSH BKN030 FEW035TCU 28/18 Q1017","temp":28,"dewp":18,"wdir":270,"wspd":3,"visib":"6+","altim":1017,"clouds":[{"cover":"BKN","base":3000},{"cover":"FEW","base":3500}],"obsTime":1775757600},"SBLE":{"icaoId":"SBLE","flightCategory":"VFR","rawOb":"METAR SBLE 091800Z AUTO VRB02KT CAVOK 30/20 Q1013","temp":30,"dewp":20,"wdir":"VRB","wspd":2,"visib":"6+","altim":1013,"clouds":[],"obsTime":1775757600},"SBIH":{"icaoId":"SBIH","flightCategory":"VFR","rawOb":"METAR SBIH 091800Z 04008KT 9999 SCT020 30/25 Q1010","temp":30,"dewp":25,"wdir":40,"wspd":8,"visib":"6+","altim":1010,"clouds":[{"cover":"SCT","base":2000}],"obsTime":1775757600},"SBAF":{"icaoId":"SBAF","flightCategory":"VFR","rawOb":"METAR SBAF 091800Z 23012KT 9999 BKN043 BKN083 29/21 Q1011","temp":29,"dewp":21,"wdir":230,"wspd":12,"visib":"6+","altim":1011,"clouds":[{"cover":"BKN","base":4300},{"cover":"BKN","base":8300}],"obsTime":1775757600},"SBJV":{"icaoId":"SBJV","flightCategory":"VFR","rawOb":"METAR SBJV 091800Z 15007KT CAVOK 29/17 Q1012","temp":29,"dewp":17,"wdir":150,"wspd":7,"visib":"6+","altim":1012,"clouds":[],"obsTime":1775757600},"SBJR":{"icaoId":"SBJR","flightCategory":"VFR","rawOb":"METAR SBJR 091800Z 23011KT 9999 SCT016 SCT025 BKN050 29/23 Q1011","temp":29,"dewp":23,"wdir":230,"wspd":11,"visib":"6+","altim":1011,"clouds":[{"cover":"SCT","base":1600},{"cover":"SCT","base":2500},{"cover":"BKN","base":5000}],"obsTime":1775757600},"SBLS":{"icaoId":"SBLS","flightCategory":"VFR","rawOb":"METAR SBLS 091800Z 29008KT 220V310 9999 SCT040 FEW045TCU 30/18 Q1014","temp":30,"dewp":18,"wdir":290,"wspd":8,"visib":"6+","altim":1014,"clouds":[{"cover":"SCT","base":4000},{"cover":"FEW","base":4500}],"obsTime":1775757600},"SBMT":{"icaoId":"SBMT","flightCategory":"MVFR","rawOb":"METAR SBMT 091800Z 26008KT 220V300 9999 BKN030 FEW035TCU 27/19 Q1015","temp":27,"dewp":19,"wdir":260,"wspd":8,"visib":"6+","altim":1015,"clouds":[{"cover":"BKN","base":3000},{"cover":"FEW","base":3500}],"obsTime":1775757600},"SBST":{"icaoId":"SBST","flightCategory":"VFR","rawOb":"METAR SBST 091800Z 26005KT 200V320 9999 SCT030 26/19 Q1012","temp":26,"dewp":19,"wdir":260,"wspd":5,"visib":"6+","altim":1012,"clouds":[{"cover":"SCT","base":3000}],"obsTime":1775757600},"SBTA":{"icaoId":"SBTA","flightCategory":"VFR","rawOb":"METAR SBTA 091800Z 23009KT 200V260 9999 BKN040 FEW045TCU 30/20 Q1012","temp":30,"dewp":20,"wdir":230,"wspd":9,"visib":"6+","altim":1012,"clouds":[{"cover":"BKN","base":4000},{"cover":"FEW","base":4500}],"obsTime":1775757600},"SBJP":{"icaoId":"SBJP","flightCategory":"VFR","rawOb":"METAR SBJP 091800Z 10012KT 9999 SCT020 BKN100 30/23 Q1011","temp":30,"dewp":23,"wdir":100,"wspd":12,"visib":"6+","altim":1011,"clouds":[{"cover":"SCT","base":2000},{"cover":"BKN","base":10000}],"obsTime":1775757600}}}