{"updated":1774957137,"count":82,"data":{"SBEG":{"icaoId":"SBEG","flightCategory":"LIFR","rawOb":"METAR SBEG 311000Z 00000KT 0900 0600W R11/1400D R29/P2000N FG BKN001 SCT100 23/23 Q1010","temp":23,"dewp":23,"wdir":0,"wspd":0,"visib":0.56,"altim":1010,"clouds":[{"cover":"BKN","base":100},{"cover":"SCT","base":10000}],"obsTime":1774951200},"SBBV":{"icaoId":"SBBV","flightCategory":"IFR","rawOb":"METAR SBBV 311000Z 35002KT 9999 BKN005 SCT020 OVC100 22/22 Q1010","temp":22,"dewp":22,"wdir":350,"wspd":2,"visib":"6+","altim":1010,"clouds":[{"cover":"BKN","base":500},{"cover":"SCT","base":2000},{"cover":"OVC","base":10000}],"obsTime":1774951200},"SBBR":{"icaoId":"SBBR","flightCategory":"VFR","rawOb":"METAR SBBR 311000Z 27001KT CAVOK 18/17 Q1016","temp":18,"dewp":17,"wdir":270,"wspd":1,"visib":"6+","altim":1016,"clouds":[],"obsTime":1774951200},"SBBE":{"icaoId":"SBBE","flightCategory":"MVFR","rawOb":"METAR SBBE 311000Z 14003KT 9999 SCT012 BKN025 24/24 Q1010","temp":24,"dewp":24,"wdir":140,"wspd":3,"visib":"6+","altim":1010,"clouds":[{"cover":"SCT","base":1200},{"cover":"BKN","base":2500}],"obsTime":1774951200},"SBCB":{"icaoId":"SBCB","flightCategory":"VFR","rawOb":"METAR SBCB 311000Z 07007KT 9999 SCT040 SCT100 25/22 Q1012","temp":25,"dewp":22,"wdir":70,"wspd":7,"visib":"6+","altim":1012,"clouds":[{"cover":"SCT","base":4000},{"cover":"SCT","base":10000}],"obsTime":1774951200},"SBCF":{"icaoId":"SBCF","flightCategory":"VFR","rawOb":"METAR SBCF 311000Z 09005KT 9999 SCT040 FEW043TCU SCT070 21/17 Q1016","temp":21,"dewp":17,"wdir":90,"wspd":5,"visib":"6+","altim":1016,"clouds":[{"cover":"SCT","base":4000},{"cover":"FEW","base":4300},{"cover":"SCT","base":7000}],"obsTime":1774951200},"SBCG":{"icaoId":"SBCG","flightCategory":"VFR","rawOb":"METAR SBCG 311000Z 01004KT CAVOK 22/18 Q1013","temp":22,"dewp":18,"wdir":10,"wspd":4,"visib":"6+","altim":1013,"clouds":[],"obsTime":1774951200},"SBCP":{"icaoId":"SBCP","flightCategory":"VFR","rawOb":"METAR SBCP 311000Z 34001KT 9999 SCT020 BKN100 24/23 Q1012","temp":24,"dewp":23,"wdir":340,"wspd":1,"visib":"6+","altim":1012,"clouds":[{"cover":"SCT","base":2000},{"cover":"BKN","base":10000}],"obsTime":1774951200},"SBCR":{"icaoId":"SBCR","flightCategory":"VFR","rawOb":"METAR SBCR 311100Z VRB01KT CAVOK 25/22 Q1011","temp":25,"dewp":22,"wdir":"VRB","wspd":1,"visib":"6+","altim":1011,"clouds":[],"obsTime":1774954800},"SBCT":{"icaoId":"SBCT","flightCategory":"LIFR","rawOb":"METAR SBCT 311000Z 08002KT 4000 BR OVC003 17/17 Q1017","temp":17,"dewp":17,"wdir":80,"wspd":2,"visib":2.49,"altim":1017,"clouds":[{"cover":"OVC","base":300}],"obsTime":1774951200},"SBAT":{"icaoId":"SBAT","flightCategory":"VFR","rawOb":"METAR SBAT 311100Z 00000KT 9999 FEW010 SCT070 25/24 Q1012","temp":25,"dewp":24,"wdir":0,"wspd":0,"visib":"6+","altim":1012,"clouds":[{"cover":"FEW","base":1000},{"cover":"SCT","base":7000}],"obsTime":1774954800},"SBFI":{"icaoId":"SBFI","flightCategory":"VFR","rawOb":"METAR SBFI 311000Z 12004KT CAVOK 21/21 Q1010","temp":21,"dewp":21,"wdir":120,"wspd":4,"visib":"6+","altim":1010,"clouds":[],"obsTime":1774951200},"SBFL":{"icaoId":"SBFL","flightCategory":"MVFR","rawOb":"METAR SBFL 311000Z 00000KT 9999 VCSH BKN030 22/22 Q1014","temp":22,"dewp":22,"wdir":0,"wspd":0,"visib":"6+","altim":1014,"clouds":[{"cover":"BKN","base":3000}],"obsTime":1774951200},"SBFZ":{"icaoId":"SBFZ","flightCategory":"VFR","rawOb":"METAR SBFZ 311000Z 23002KT 9999 FEW030 26/24 Q1010","temp":26,"dewp":24,"wdir":230,"wspd":2,"visib":"6+","altim":1010,"clouds":[{"cover":"FEW","base":3000}],"obsTime":1774951200},"SBGL":{"icaoId":"SBGL","flightCategory":"MVFR","rawOb":"METAR SBGL 311000Z 01002KT 5000 BR FEW016 BKN100 24/22 Q1011","temp":24,"dewp":22,"wdir":10,"wspd":2,"visib":3.11,"altim":1011,"clouds":[{"cover":"FEW","base":1600},{"cover":"BKN","base":10000}],"obsTime":1774951200},"SBGO":{"icaoId":"SBGO","flightCategory":"VFR","rawOb":"METAR SBGO 311000Z VRB01KT CAVOK 20/18 Q1014","temp":20,"dewp":18,"wdir":"VRB","wspd":1,"visib":"6+","altim":1014,"clouds":[],"obsTime":1774951200},"SBGR":{"icaoId":"SBGR","flightCategory":"MVFR","rawOb":"METAR SBGR 311000Z 11003KT 9999 FEW009 BKN017 BKN080 19/18 Q1015","temp":19,"dewp":18,"wdir":110,"wspd":3,"visib":"6+","altim":1015,"clouds":[{"cover":"FEW","base":900},{"cover":"BKN","base":1700},{"cover":"BKN","base":8000}],"obsTime":1774951200},"SBHT":{"icaoId":"SBHT","flightCategory":"VFR","rawOb":"METAR SBHT 311000Z 27002KT 9999 SCT010 BKN080 24/24 Q1010","temp":24,"dewp":24,"wdir":270,"wspd":2,"visib":"6+","altim":1010,"clouds":[{"cover":"SCT","base":1000},{"cover":"BKN","base":8000}],"obsTime":1774951200},"SBIL":{"icaoId":"SBIL","flightCategory":"VFR","rawOb":"METAR SBIL 311000Z 28004KT 9999 SCT020 BKN070 25/24 Q1013","temp":25,"dewp":24,"wdir":280,"wspd":4,"visib":"6+","altim":1013,"clouds":[{"cover":"SCT","base":2000},{"cover":"BKN","base":7000}],"obsTime":1774951200},"SBJU":{"icaoId":"SBJU","flightCategory":"MVFR","rawOb":"METAR SBJU 311000Z 00000KT 9999 OVC020 23/22 Q1013","temp":23,"dewp":22,"wdir":0,"wspd":0,"visib":"6+","altim":1013,"clouds":[{"cover":"OVC","base":2000}],"obsTime":1774951200},"SBKP":{"icaoId":"SBKP","flightCategory":"VFR","rawOb":"METAR SBKP 311000Z 15009KT CAVOK 21/17 Q1014","temp":21,"dewp":17,"wdir":150,"wspd":9,"visib":"6+","altim":1014,"clouds":[],"obsTime":1774951200},"SBLO":{"icaoId":"SBLO","flightCategory":"VFR","rawOb":"METAR SBLO 311000Z 14003KT CAVOK 20/19 Q1013","temp":20,"dewp":19,"wdir":140,"wspd":3,"visib":"6+","altim":1013,"clouds":[],"obsTime":1774951200},"SBMA":{"icaoId":"SBMA","flightCategory":"VFR","rawOb":"METAR SBMA 311000Z 21003KT CAVOK 25/24 Q1010","temp":25,"dewp":24,"wdir":210,"wspd":3,"visib":"6+","altim":1010,"clouds":[],"obsTime":1774951200},"SBME":{"icaoId":"SBME","flightCategory":"VFR","rawOb":"METAR SBME 311000Z 05004KT CAVOK 25/22 Q1011","temp":25,"dewp":22,"wdir":50,"wspd":4,"visib":"6+","altim":1011,"clouds":[],"obsTime":1774951200},"SBMG":{"icaoId":"SBMG","flightCategory":"VFR","rawOb":"METAR SBMG 311000Z 10003KT CAVOK 20/19 Q1012","temp":20,"dewp":19,"wdir":100,"wspd":3,"visib":"6+","altim":1012,"clouds":[],"obsTime":1774951200},"SBMK":{"icaoId":"SBMK","flightCategory":"VFR","rawOb":"METAR SBMK 311000Z 19002KT CAVOK 20/18 Q1015","temp":20,"dewp":18,"wdir":190,"wspd":2,"visib":"6+","altim":1015,"clouds":[],"obsTime":1774951200},"SBMO":{"icaoId":"SBMO","flightCategory":"MVFR","rawOb":"METAR SBMO 311000Z 01004KT 9999 BKN020 BKN050 25/24 Q1011","temp":25,"dewp":24,"wdir":10,"wspd":4,"visib":"6+","altim":1011,"clouds":[{"cover":"BKN","base":2000},{"cover":"BKN","base":5000}],"obsTime":1774951200},"SBMQ":{"icaoId":"SBMQ","flightCategory":"IFR","rawOb":"METAR SBMQ 311000Z 33004KT 9999 BKN005 SCT080 26/25 Q1010","temp":26,"dewp":25,"wdir":330,"wspd":4,"visib":"6+","altim":1010,"clouds":[{"cover":"BKN","base":500},{"cover":"SCT","base":8000}],"obsTime":1774951200},"SBNT":{"icaoId":"SBNT","flightCategory":"VFR","rawOb":"METAR SBNT 311000Z 19006KT 170V230 9999 VCSH SCT021 FEW027TCU BKN080 26/24 Q1010","temp":26,"dewp":24,"wdir":190,"wspd":6,"visib":"6+","altim":1010,"clouds":[{"cover":"SCT","base":2100},{"cover":"FEW","base":2700},{"cover":"BKN","base":8000}],"obsTime":1774951200},"SBPA":{"icaoId":"SBPA","flightCategory":"VFR","rawOb":"METAR SBPA 311000Z 10004KT CAVOK 21/20 Q1013","temp":21,"dewp":20,"wdir":100,"wspd":4,"visib":"6+","altim":1013,"clouds":[],"obsTime":1774951200},"SBPJ":{"icaoId":"SBPJ","flightCategory":"VFR","rawOb":"METAR SBPJ 311000Z 14002KT 9999 VCSH FEW023 BKN043 25/23 Q1012","temp":25,"dewp":23,"wdir":140,"wspd":2,"visib":"6+","altim":1012,"clouds":[{"cover":"FEW","base":2300},{"cover":"BKN","base":4300}],"obsTime":1774951200},"SBPV":{"icaoId":"SBPV","flightCategory":"VFR","rawOb":"METAR SBPV 311000Z 00000KT CAVOK 25/22 Q1011","temp":25,"dewp":22,"wdir":0,"wspd":0,"visib":"6+","altim":1011,"clouds":[],"obsTime":1774951200},"SBRB":{"icaoId":"SBRB","flightCategory":"VFR","rawOb":"METAR SBRB 311000Z 16002KT 9999 FEW040 22/21 Q1011","temp":22,"dewp":21,"wdir":160,"wspd":2,"visib":"6+","altim":1011,"clouds":[{"cover":"FEW","base":4000}],"obsTime":1774951200},"SBRF":{"icaoId":"SBRF","flightCategory":"MVFR","rawOb":"METAR SBRF 311000Z 21003KT 9000 VCSH FEW007 BKN018 FEW023TCU BKN050 25/24 Q1011","temp":25,"dewp":24,"wdir":210,"wspd":3,"visib":5.59,"altim":1011,"clouds":[{"cover":"FEW","base":700},{"cover":"BKN","base":1800},{"cover":"FEW","base":2300},{"cover":"BKN","base":5000}],"obsTime":1774951200},"SBSG":{"icaoId":"SBSG","flightCategory":"VFR","rawOb":"METAR SBSG 311000Z 18005KT 150V220 9999 VCSH FEW004 SCT020 FEW030TCU 25/24 Q1011","temp":25,"dewp":24,"wdir":180,"wspd":5,"visib":"6+","altim":1011,"clouds":[{"cover":"FEW","base":400},{"cover":"SCT","base":2000},{"cover":"FEW","base":3000}],"obsTime":1774951200},"SBSL":{"icaoId":"SBSL","flightCategory":"VFR","rawOb":"METAR SBSL 311000Z 13006KT 9999 FEW020 SCT080 25/24 Q1011","temp":25,"dewp":24,"wdir":130,"wspd":6,"visib":"6+","altim":1011,"clouds":[{"cover":"FEW","base":2000},{"cover":"SCT","base":8000}],"obsTime":1774951200},"SBSN":{"icaoId":"SBSN","flightCategory":"VFR","rawOb":"METAR SBSN 311000Z 00000KT 9999 FEW017 BKN100 24/24 Q1010","temp":24,"dewp":24,"wdir":0,"wspd":0,"visib":"6+","altim":1010,"clouds":[{"cover":"FEW","base":1700},{"cover":"BKN","base":10000}],"obsTime":1774951200},"SBSP":{"icaoId":"SBSP","flightCategory":"IFR","rawOb":"METAR SBSP 311000Z 17004KT 9000 -DZ BKN009 19/18 Q1016","temp":19,"dewp":18,"wdir":170,"wspd":4,"visib":5.59,"altim":1016,"clouds":[{"cover":"BKN","base":900}],"obsTime":1774951200},"SBSV":{"icaoId":"SBSV","flightCategory":"VFR","rawOb":"METAR SBSV 311000Z 27005KT 9999 SCT021 SCT040 BKN060 25/23 Q1012","temp":25,"dewp":23,"wdir":270,"wspd":5,"visib":"6+","altim":1012,"clouds":[{"cover":"SCT","base":2100},{"cover":"SCT","base":4000},{"cover":"BKN","base":6000}],"obsTime":1774951200},"SBTE":{"icaoId":"SBTE","flightCategory":"VFR","rawOb":"METAR SBTE 311000Z 22001KT 9999 SCT007 BKN090 24/23 Q1011","temp":24,"dewp":23,"wdir":220,"wspd":1,"visib":"6+","altim":1011,"clouds":[{"cover":"SCT","base":700},{"cover":"BKN","base":9000}],"obsTime":1774951200},"SBUL":{"icaoId":"SBUL","flightCategory":"VFR","rawOb":"METAR SBUL 311000Z 07006KT CAVOK 20/17 Q1016","temp":20,"dewp":17,"wdir":70,"wspd":6,"visib":"6+","altim":1016,"clouds":[],"obsTime":1774951200},"SBUR":{"icaoId":"SBUR","flightCategory":"VFR","rawOb":"METAR SBUR 311000Z 03007KT CAVOK 21/16 Q1014","temp":21,"dewp":16,"wdir":30,"wspd":7,"visib":"6+","altim":1014,"clouds":[],"obsTime":1774951200},"SBVT":{"icaoId":"SBVT","flightCategory":"VFR","rawOb":"METAR SBVT 311000Z 34003KT 9999 FEW040 SCT100 24/23 Q1013","temp":24,"dewp":23,"wdir":340,"wspd":3,"visib":"6+","altim":1013,"clouds":[{"cover":"FEW","base":4000},{"cover":"SCT","base":10000}],"obsTime":1774951200},"SBSJ":{"icaoId":"SBSJ","flightCategory":"MVFR","rawOb":"METAR SBSJ 311000Z 16002KT 6000 NSC 19/19 Q1015","temp":19,"dewp":19,"wdir":160,"wspd":2,"visib":3.73,"altim":1015,"clouds":[],"obsTime":1774951200},"SBPP":{"icaoId":"SBPP","flightCategory":"VFR","rawOb":"SPECI SBPP 311115Z 03002KT CAVOK 27/19 Q1014","temp":27,"dewp":19,"wdir":30,"wspd":2,"visib":"6+","altim":1014,"clouds":[],"obsTime":1774955700},"SBTF":{"icaoId":"SBTF","flightCategory":"VFR","rawOb":"SPECI SBTF 311115Z 07005KT 9999 FEW005 26/25 Q1010","temp":26,"dewp":25,"wdir":70,"wspd":5,"visib":"6+","altim":1010,"clouds":[{"cover":"FEW","base":500}],"obsTime":1774955700},"SBOI":{"icaoId":"SBOI","flightCategory":"LIFR","rawOb":"SPECI SBOI 311002Z AUTO VRB02KT 3300 // BKN004/// OVC006/// 24/24 Q1011","temp":24,"dewp":24,"wdir":"VRB","wspd":2,"visib":2.05,"altim":1011,"clouds":[{"cover":"BKN","base":400},{"cover":"OVC","base":600}],"obsTime":1774951320},"SBBU":{"icaoId":"SBBU","flightCategory":"VFR","rawOb":"METAR SBBU 311000Z 12010KT CAVOK 21/18 Q1013","temp":21,"dewp":18,"wdir":120,"wspd":10,"visib":"6+","altim":1013,"clouds":[],"obsTime":1774951200},"SBCA":{"icaoId":"SBCA","flightCategory":"VFR","rawOb":"METAR SBCA 311100Z 08007KT CAVOK 22/18 Q1015","temp":22,"dewp":18,"wdir":80,"wspd":7,"visib":"6+","altim":1015,"clouds":[],"obsTime":1774954800},"SBCC":{"icaoId":"SBCC","flightCategory":"VFR","rawOb":"METAR SBCC 311100Z 02003KT CAVOK 24/22 Q1012","temp":24,"dewp":22,"wdir":20,"wspd":3,"visib":"6+","altim":1012,"clouds":[],"obsTime":1774954800},"SBCJ":{"icaoId":"SBCJ","flightCategory":"VFR","rawOb":"SPECI SBCJ 311015Z 00000KT 9999 FEW015 BKN080 22/21 Q1015","temp":22,"dewp":21,"wdir":0,"wspd":0,"visib":"6+","altim":1015,"clouds":[{"cover":"FEW","base":1500},{"cover":"BKN","base":8000}],"obsTime":1774952100},"SBCO":{"icaoId":"SBCO","flightCategory":"VFR","rawOb":"METAR SBCO 311000Z 10005KT CAVOK 20/19 Q1014","temp":20,"dewp":19,"wdir":100,"wspd":5,"visib":"6+","altim":1014,"clouds":[],"obsTime":1774951200},"SBVH":{"icaoId":"SBVH","flightCategory":"VFR","rawOb":"METAR SBVH 311100Z 31005KT 9999 FEW020 BKN040 BKN100 22/20 Q1014","temp":22,"dewp":20,"wdir":310,"wspd":5,"visib":"6+","altim":1014,"clouds":[{"cover":"FEW","base":2000},{"cover":"BKN","base":4000},{"cover":"BKN","base":10000}],"obsTime":1774954800},"SBAR":{"icaoId":"SBAR","flightCategory":"VFR","rawOb":"METAR SBAR 311000Z 28002KT 9999 VCSH FEW015 SCT020 BKN040 25/24 Q1011","temp":25,"dewp":24,"wdir":280,"wspd":2,"visib":"6+","altim":1011,"clouds":[{"cover":"FEW","base":1500},{"cover":"SCT","base":2000},{"cover":"BKN","base":4000}],"obsTime":1774951200},"SBAX":{"icaoId":"SBAX","flightCategory":"VFR","rawOb":"METAR SBAX 311000Z 12005KT 9999 SCT045 19/18 Q1016","temp":19,"dewp":18,"wdir":120,"wspd":5,"visib":"6+","altim":1016,"clouds":[{"cover":"SCT","base":4500}],"obsTime":1774951200},"SBBH":{"icaoId":"SBBH","flightCategory":"VFR","rawOb":"METAR SBBH 311000Z 10004KT CAVOK 21/18 Q1016","temp":21,"dewp":18,"wdir":100,"wspd":4,"visib":"6+","altim":1016,"clouds":[],"obsTime":1774951200},"SBDN":{"icaoId":"SBDN","flightCategory":"VFR","rawOb":"METAR SBDN 311000Z 12004KT CAVOK 21/17 Q1012","temp":21,"dewp":17,"wdir":120,"wspd":4,"visib":"6+","altim":1012,"clouds":[],"obsTime":1774951200},"SBES":{"icaoId":"SBES","flightCategory":"VFR","rawOb":"METAR SBES 311000Z 06004KT 010V100 9999 FEW015 SCT100 23/// Q1012","temp":null,"dewp":null,"wdir":60,"wspd":4,"visib":"6+","altim":1012,"clouds":[{"cover":"FEW","base":1500},{"cover":"SCT","base":10000}],"obsTime":1774951200},"SBIP":{"icaoId":"SBIP","flightCategory":"VFR","rawOb":"METAR SBIP 311000Z AUTO 01004KT 9999 FEW023 SCT026 23/21 Q1014","temp":23,"dewp":21,"wdir":10,"wspd":4,"visib":"6+","altim":1014,"clouds":[{"cover":"FEW","base":2300},{"cover":"SCT","base":2600}],"obsTime":1774951200},"SBKG":{"icaoId":"SBKG","flightCategory":"MVFR","rawOb":"METAR SBKG 311000Z 16004KT 9999 BKN012 BKN018 23/22 Q1014","temp":23,"dewp":22,"wdir":160,"wspd":4,"visib":"6+","altim":1014,"clouds":[{"cover":"BKN","base":1200},{"cover":"BKN","base":1800}],"obsTime":1774951200},"SBPB":{"icaoId":"SBPB","flightCategory":"VFR","rawOb":"SPECI SBPB 311015Z 00000KT 9999 FEW020 SCT100 27/23 Q1011","temp":27,"dewp":23,"wdir":0,"wspd":0,"visib":"6+","altim":1011,"clouds":[{"cover":"FEW","base":2000},{"cover":"SCT","base":10000}],"obsTime":1774952100},"SBPL":{"icaoId":"SBPL","flightCategory":"VFR","rawOb":"METAR SBPL 311000Z 12003KT 9999 FEW020 BKN070 25/23 Q1013","temp":25,"dewp":23,"wdir":120,"wspd":3,"visib":"6+","altim":1013,"clouds":[{"cover":"FEW","base":2000},{"cover":"BKN","base":7000}],"obsTime":1774951200},"SBPS":{"icaoId":"SBPS","flightCategory":"MVFR","rawOb":"METAR SBPS 311000Z 04003KT 360V080 9999 BKN016 BKN060 24/23 Q1013","temp":24,"dewp":23,"wdir":40,"wspd":3,"visib":"6+","altim":1013,"clouds":[{"cover":"BKN","base":1600},{"cover":"BKN","base":6000}],"obsTime":1774951200},"SBSC":{"icaoId":"SBSC","flightCategory":"VFR","rawOb":"METAR SBSC 311000Z 02003KT 9999 SCT033 FEW035TCU 24/22 Q1011","temp":24,"dewp":22,"wdir":20,"wspd":3,"visib":"6+","altim":1011,"clouds":[{"cover":"SCT","base":3300},{"cover":"FEW","base":3500}],"obsTime":1774951200},"SBSM":{"icaoId":"SBSM","flightCategory":"MVFR","rawOb":"METAR SBSM 311000Z 11006KT 9999 SCT007 OVC012 22/22 Q1013","temp":22,"dewp":22,"wdir":110,"wspd":6,"visib":"6+","altim":1013,"clouds":[{"cover":"SCT","base":700},{"cover":"OVC","base":1200}],"obsTime":1774951200},"SBSR":{"icaoId":"SBSR","flightCategory":"VFR","rawOb":"METAR SBSR 311000Z 00000KT CAVOK 22/17 Q1012","temp":22,"dewp":17,"wdir":0,"wspd":0,"visib":"6+","altim":1012,"clouds":[],"obsTime":1774951200},"SBTD":{"icaoId":"SBTD","flightCategory":"VFR","rawOb":"METAR SBTD 311100Z /////KT CAVOK 23/20 Q1013","temp":23,"dewp":20,"wdir":null,"wspd":null,"visib":"6+","altim":1013,"clouds":[],"obsTime":1774954800},"SBTT":{"icaoId":"SBTT","flightCategory":"MVFR","rawOb":"METAR SBTT 311100Z 08005KT 9999 BKN010 BKN060 22/21 Q1012","temp":22,"dewp":21,"wdir":80,"wspd":5,"visib":"6+","altim":1012,"clouds":[{"cover":"BKN","base":1000},{"cover":"BKN","base":6000}],"obsTime":1774954800},"SBUY":{"icaoId":"SBUY","flightCategory":"LIFR","rawOb":"METAR SBUY 311100Z 00000KT 0200 FG VV002 24/24 Q1009","temp":24,"dewp":24,"wdir":0,"wspd":0,"visib":0.12,"altim":1009,"clouds":[{"cover":"OVX","base":200}],"obsTime":1774954800},"SBIH":{"icaoId":"SBIH","flightCategory":"IFR","rawOb":"METAR SBIH 311100Z 00000KT 4000 1000NE TSRA BKN005 SCT015 FEW025CB BKN080 25/24 Q1011","temp":25,"dewp":24,"wdir":0,"wspd":0,"visib":2.49,"altim":1011,"clouds":[{"cover":"BKN","base":500},{"cover":"SCT","base":1500},{"cover":"FEW","base":2500},{"cover":"BKN","base":8000}],"obsTime":1774954800},"SBJP":{"icaoId":"SBJP","flightCategory":"VFR","rawOb":"METAR SBJP 311000Z 18002KT 9999 FEW020 26/24 Q1011","temp":26,"dewp":24,"wdir":180,"wspd":2,"visib":"6+","altim":1011,"clouds":[{"cover":"FEW","base":2000}],"obsTime":1774951200},"SBPF":{"icaoId":"SBPF","flightCategory":"VFR","rawOb":"METAR SBPF 311000Z 10009KT CAVOK 19/17 Q1015","temp":19,"dewp":17,"wdir":100,"wspd":9,"visib":"6+","altim":1015,"clouds":[],"obsTime":1774951200},"SBAN":{"icaoId":"SBAN","flightCategory":"VFR","rawOb":"METAR SBAN 311000Z 13005KT CAVOK 19/16 Q1017","temp":19,"dewp":16,"wdir":130,"wspd":5,"visib":"6+","altim":1017,"clouds":[],"obsTime":1774951200},"SBLE":{"icaoId":"SBLE","flightCategory":"VFR","rawOb":"METAR SBLE 311000Z AUTO 00000KT 9999 FEW021 ///// Q////","temp":null,"dewp":null,"wdir":0,"wspd":0,"visib":"6+","altim":null,"clouds":[{"cover":"FEW","base":2100}],"obsTime":1774951200},"SBAF":{"icaoId":"SBAF","flightCategory":"VFR","rawOb":"METAR SBAF 311000Z 31001KT 9999 FEW025 23/23 Q1011","temp":23,"dewp":23,"wdir":310,"wspd":1,"visib":"6+","altim":1011,"clouds":[{"cover":"FEW","base":2500}],"obsTime":1774951200},"SBGW":{"icaoId":"SBGW","flightCategory":"IFR","rawOb":"METAR SBGW 311000Z 36002KT 4000 BR BKN017 BKN025 21/17 Q1014","temp":21,"dewp":17,"wdir":360,"wspd":2,"visib":2.49,"altim":1014,"clouds":[{"cover":"BKN","base":1700},{"cover":"BKN","base":2500}],"obsTime":1774951200},"SBJR":{"icaoId":"SBJR","flightCategory":"VFR","rawOb":"METAR SBJR 311000Z 00000KT 9999 FEW030 BKN090 25/22 Q1011","temp":25,"dewp":22,"wdir":0,"wspd":0,"visib":"6+","altim":1011,"clouds":[{"cover":"FEW","base":3000},{"cover":"BKN","base":9000}],"obsTime":1774951200},"SBLS":{"icaoId":"SBLS","flightCategory":"VFR","rawOb":"METAR SBLS 311000Z 13005KT 9999 FEW035 SCT080 20/18 Q1016","temp":20,"dewp":18,"wdir":130,"wspd":5,"visib":"6+","altim":1016,"clouds":[{"cover":"FEW","base":3500},{"cover":"SCT","base":8000}],"obsTime":1774951200},"SBMT":{"icaoId":"SBMT","flightCategory":"VFR","rawOb":"METAR SBMT 311000Z 09003KT 9999 FEW014 BKN040 BKN090 19/17 Q1015 RERA","temp":19,"dewp":17,"wdir":90,"wspd":3,"visib":"6+","altim":1015,"clouds":[{"cover":"FEW","base":1400},{"cover":"BKN","base":4000},{"cover":"BKN","base":9000}],"obsTime":1774951200},"SBST":{"icaoId":"SBST","flightCategory":"MVFR","rawOb":"METAR SBST 311100Z 28001KT 6000 FEW004 BKN020 BKN046 22/22 Q1013","temp":22,"dewp":22,"wdir":280,"wspd":1,"visib":3.73,"altim":1013,"clouds":[{"cover":"FEW","base":400},{"cover":"BKN","base":2000},{"cover":"BKN","base":4600}],"obsTime":1774954800},"SBTA":{"icaoId":"SBTA","flightCategory":"IFR","rawOb":"METAR SBTA 311000Z 27003KT 220V300 2000 RA BR BKN015 OVC070 20/18 Q1014","temp":20,"dewp":18,"wdir":270,"wspd":3,"visib":1.24,"altim":1014,"clouds":[{"cover":"BKN","base":1500},{"cover":"OVC","base":7000}],"obsTime":1774951200},"SBJV":{"icaoId":"SBJV","flightCategory":"IFR","rawOb":"METAR SBJV 311000Z 17002KT 3000 -RADZ BR BKN005 OVC020 22/22 Q1014 RESHRA","temp":22,"dewp":22,"wdir":170,"wspd":2,"visib":1.86,"altim":1014,"clouds":[{"cover":"BKN","base":500},{"cover":"OVC","base":2000}],"obsTime":1774951200}}}