{"updated":1783403707,"count":50,"data":{"SBLO":{"icaoId":"SBLO","flightCategory":"VFR","rawOb":"METAR SBLO 070400Z 24004KT CAVOK 17/16 Q1019","temp":17,"dewp":16,"wdir":240,"wspd":4,"visib":"6+","altim":1019,"clouds":[],"obsTime":1783396800},"SBMG":{"icaoId":"SBMG","flightCategory":"MVFR","rawOb":"METAR SBMG 070400Z AUTO 26004KT 9999 BKN030 15/15 Q1020","temp":15,"dewp":15,"wdir":260,"wspd":4,"visib":"6+","altim":1020,"clouds":[{"cover":"BKN","base":3000}],"obsTime":1783396800},"SBCF":{"icaoId":"SBCF","flightCategory":"VFR","rawOb":"METAR SBCF 070400Z 14004KT CAVOK 19/15 Q0102","temp":19,"dewp":15,"wdir":140,"wspd":4,"visib":"6+","altim":102,"clouds":[],"obsTime":1783396800},"SBGL":{"icaoId":"SBGL","flightCategory":"VFR","rawOb":"METAR SBGL 070400Z 13003KT 9999 SCT030 BKN080 20/17 Q1018","temp":20,"dewp":17,"wdir":130,"wspd":3,"visib":"6+","altim":1018,"clouds":[{"cover":"SCT","base":3000},{"cover":"BKN","base":8000}],"obsTime":1783396800},"SBGR":{"icaoId":"SBGR","flightCategory":"VFR","rawOb":"METAR SBGR 070400Z 00000KT CAVOK 13/12 Q1020","temp":13,"dewp":12,"wdir":0,"wspd":0,"visib":"6+","altim":1020,"clouds":[],"obsTime":1783396800},"SBKP":{"icaoId":"SBKP","flightCategory":"VFR","rawOb":"METAR SBKP 070400Z 10006KT CAVOK 15/12 Q1019","temp":15,"dewp":12,"wdir":100,"wspd":6,"visib":"6+","altim":1019,"clouds":[],"obsTime":1783396800},"SBME":{"icaoId":"SBME","flightCategory":"VFR","rawOb":"METAR SBME 070400Z 02006KT 9999 BKN033 20/17 Q1019","temp":20,"dewp":17,"wdir":20,"wspd":6,"visib":"6+","altim":1019,"clouds":[{"cover":"BKN","base":3300}],"obsTime":1783396800},"SBSP":{"icaoId":"SBSP","flightCategory":"VFR","rawOb":"METAR SBSP 070400Z AUTO 33002KT CAVOK 16/14 Q1020","temp":16,"dewp":14,"wdir":330,"wspd":2,"visib":"6+","altim":1020,"clouds":[],"obsTime":1783396800},"SBUL":{"icaoId":"SBUL","flightCategory":"VFR","rawOb":"METAR SBUL 070400Z 19007KT CAVOK 19/11 Q1022","temp":19,"dewp":11,"wdir":190,"wspd":7,"visib":"6+","altim":1022,"clouds":[],"obsTime":1783396800},"SBUR":{"icaoId":"SBUR","flightCategory":"VFR","rawOb":"METAR SBUR 070400Z 18002KT CAVOK 19/11 Q1021","temp":19,"dewp":11,"wdir":180,"wspd":2,"visib":"6+","altim":1021,"clouds":[],"obsTime":1783396800},"SBVT":{"icaoId":"SBVT","flightCategory":"VFR","rawOb":"METAR SBVT 070400Z 32003KT 9999 SCT025 17/17 Q1019","temp":17,"dewp":17,"wdir":320,"wspd":3,"visib":"6+","altim":1019,"clouds":[{"cover":"SCT","base":2500}],"obsTime":1783396800},"SBBE":{"icaoId":"SBBE","flightCategory":"VFR","rawOb":"METAR SBBE 070400Z 03003KT CAVOK 26/24 Q1015","temp":26,"dewp":24,"wdir":30,"wspd":3,"visib":"6+","altim":1015,"clouds":[],"obsTime":1783396800},"SBBV":{"icaoId":"SBBV","flightCategory":"VFR","rawOb":"METAR SBBV 070400Z 20004KT 9999 FEW040 FEW045TCU BKN100 25/24 Q1016","temp":25,"dewp":24,"wdir":200,"wspd":4,"visib":"6+","altim":1016,"clouds":[{"cover":"FEW","base":4000},{"cover":"FEW","base":4500},{"cover":"BKN","base":10000}],"obsTime":1783396800},"SBEG":{"icaoId":"SBEG","flightCategory":"VFR","rawOb":"METAR SBEG 070400Z 00000KT CAVOK 24/24 Q1015","temp":24,"dewp":24,"wdir":0,"wspd":0,"visib":"6+","altim":1015,"clouds":[],"obsTime":1783396800},"SBMQ":{"icaoId":"SBMQ","flightCategory":"VFR","rawOb":"METAR SBMQ 070400Z 02004KT CAVOK 26/25 Q1015","temp":26,"dewp":25,"wdir":20,"wspd":4,"visib":"6+","altim":1015,"clouds":[],"obsTime":1783396800},"SBCG":{"icaoId":"SBCG","flightCategory":"VFR","rawOb":"METAR SBCG 070400Z 15010KT 9999 FEW020 16/14 Q1021","temp":16,"dewp":14,"wdir":150,"wspd":10,"visib":"6+","altim":1021,"clouds":[{"cover":"FEW","base":2000}],"obsTime":1783396800},"SBSN":{"icaoId":"SBSN","flightCategory":"VFR","rawOb":"METAR SBSN 070400Z 00000KT CAVOK 24/24 Q1015","temp":24,"dewp":24,"wdir":0,"wspd":0,"visib":"6+","altim":1015,"clouds":[],"obsTime":1783396800},"SBPA":{"icaoId":"SBPA","flightCategory":"VFR","rawOb":"METAR SBPA 070400Z 29007KT CAVOK 08/07 Q1022","temp":8,"dewp":7,"wdir":290,"wspd":7,"visib":"6+","altim":1022,"clouds":[],"obsTime":1783396800},"SBBR":{"icaoId":"SBBR","flightCategory":"VFR","rawOb":"METAR SBBR 070400Z 21004KT CAVOK 17/11 Q1023","temp":17,"dewp":11,"wdir":210,"wspd":4,"visib":"6+","altim":1023,"clouds":[],"obsTime":1783396800},"SBFZ":{"icaoId":"SBFZ","flightCategory":"MVFR","rawOb":"METAR SBFZ 070400Z 13008KT 9999 BKN014 27/25 Q1014","temp":27,"dewp":25,"wdir":130,"wspd":8,"visib":"6+","altim":1014,"clouds":[{"cover":"BKN","base":1400}],"obsTime":1783396800},"SBMA":{"icaoId":"SBMA","flightCategory":"VFR","rawOb":"METAR SBMA 070400Z 01002KT CAVOK 25/23 Q1015","temp":25,"dewp":23,"wdir":10,"wspd":2,"visib":"6+","altim":1015,"clouds":[],"obsTime":1783396800},"SBJU":{"icaoId":"SBJU","flightCategory":"VFR","rawOb":"METAR SBJU 070400Z 00000KT CAVOK 22/15 Q1018","temp":22,"dewp":15,"wdir":0,"wspd":0,"visib":"6+","altim":1018,"clouds":[],"obsTime":1783396800},"SBMO":{"icaoId":"SBMO","flightCategory":"VFR","rawOb":"METAR SBMO 070400Z 26004KT 9999 FEW020 20/19 Q1018","temp":20,"dewp":19,"wdir":260,"wspd":4,"visib":"6+","altim":1018,"clouds":[{"cover":"FEW","base":2000}],"obsTime":1783396800},"SBNT":{"icaoId":"SBNT","flightCategory":"VFR","rawOb":"METAR SBNT 070400Z 18009KT 9999 SCT020 BKN090 24/21 Q1016","temp":24,"dewp":21,"wdir":180,"wspd":9,"visib":"6+","altim":1016,"clouds":[{"cover":"SCT","base":2000},{"cover":"BKN","base":9000}],"obsTime":1783396800},"SBPV":{"icaoId":"SBPV","flightCategory":"VFR","rawOb":"METAR SBPV 070400Z 19002KT CAVOK 25/21 Q1015","temp":25,"dewp":21,"wdir":190,"wspd":2,"visib":"6+","altim":1015,"clouds":[],"obsTime":1783396800},"SBRF":{"icaoId":"SBRF","flightCategory":"VFR","rawOb":"METAR SBRF 070400Z 23005KT 9999 FEW020 23/20 Q1016","temp":23,"dewp":20,"wdir":230,"wspd":5,"visib":"6+","altim":1016,"clouds":[{"cover":"FEW","base":2000}],"obsTime":1783396800},"SBRB":{"icaoId":"SBRB","flightCategory":"VFR","rawOb":"METAR SBRB 070400Z 00000KT CAVOK 21/20 Q1017","temp":21,"dewp":20,"wdir":0,"wspd":0,"visib":"6+","altim":1017,"clouds":[],"obsTime":1783396800},"SBSV":{"icaoId":"SBSV","flightCategory":"VFR","rawOb":"METAR SBSV 070400Z 14005KT 120V230 9999 FEW020 24/20 Q1018","temp":24,"dewp":20,"wdir":140,"wspd":5,"visib":"6+","altim":1018,"clouds":[{"cover":"FEW","base":2000}],"obsTime":1783396800},"SBTE":{"icaoId":"SBTE","flightCategory":"VFR","rawOb":"METAR SBTE 070400Z 04004KT CAVOK 26/21 Q1014","temp":26,"dewp":21,"wdir":40,"wspd":4,"visib":"6+","altim":1014,"clouds":[],"obsTime":1783396800},"SBGO":{"icaoId":"SBGO","flightCategory":"VFR","rawOb":"METAR SBGO 070400Z VRB01KT CAVOK 17/14 Q1021","temp":17,"dewp":14,"wdir":"VRB","wspd":1,"visib":"6+","altim":1021,"clouds":[],"obsTime":1783396800},"SBPJ":{"icaoId":"SBPJ","flightCategory":"VFR","rawOb":"METAR SBPJ 070400Z 14003KT CAVOK 23/18 Q1016","temp":23,"dewp":18,"wdir":140,"wspd":3,"visib":"6+","altim":1016,"clouds":[],"obsTime":1783396800},"SBCT":{"icaoId":"SBCT","flightCategory":"IFR","rawOb":"METAR SBCT 070400Z 20003KT 8000 BKN008 BKN030 15/15 Q1020","temp":15,"dewp":15,"wdir":200,"wspd":3,"visib":4.97,"altim":1020,"clouds":[{"cover":"BKN","base":800},{"cover":"BKN","base":3000}],"obsTime":1783396800},"SBSL":{"icaoId":"SBSL","flightCategory":"VFR","rawOb":"METAR SBSL 070400Z 04004KT 9999 FEW020 SCT070 26/24 Q1014","temp":26,"dewp":24,"wdir":40,"wspd":4,"visib":"6+","altim":1014,"clouds":[{"cover":"FEW","base":2000},{"cover":"SCT","base":7000}],"obsTime":1783396800},"SBFI":{"icaoId":"SBFI","flightCategory":"VFR","rawOb":"METAR SBFI 070400Z 19005KT 9999 SCT020 BKN070 08/08 Q1023","temp":8,"dewp":8,"wdir":190,"wspd":5,"visib":"6+","altim":1023,"clouds":[{"cover":"SCT","base":2000},{"cover":"BKN","base":7000}],"obsTime":1783396800},"SBFL":{"icaoId":"SBFL","flightCategory":"IFR","rawOb":"METAR SBFL 070400Z 12003KT 080V190 4000 SHRA FEW009 SCT013 OVC020 14/13 Q1019 RESHRA","temp":14,"dewp":13,"wdir":120,"wspd":3,"visib":2.49,"altim":1019,"clouds":[{"cover":"FEW","base":900},{"cover":"SCT","base":1300},{"cover":"OVC","base":2000}],"obsTime":1783396800},"SBMK":{"icaoId":"SBMK","flightCategory":"VFR","rawOb":"METAR SBMK 070400Z 18002KT CAVOK 18/13 Q1020","temp":18,"dewp":13,"wdir":180,"wspd":2,"visib":"6+","altim":1020,"clouds":[],"obsTime":1783396800},"SBPS":{"icaoId":"SBPS","flightCategory":"VFR","rawOb":"METAR SBPS 070400Z 27005KT 9999 FEW017 BKN080 20/19 Q1019","temp":20,"dewp":19,"wdir":270,"wspd":5,"visib":"6+","altim":1019,"clouds":[{"cover":"FEW","base":1700},{"cover":"BKN","base":8000}],"obsTime":1783396800},"SBTU":{"icaoId":"SBTU","flightCategory":"VFR","rawOb":"METAR SBTU 070400Z AUTO 15003KT 9999 // NCD 26/23 Q1017","temp":26,"dewp":23,"wdir":150,"wspd":3,"visib":"6+","altim":1017,"clouds":[],"obsTime":1783396800},"SBAX":{"icaoId":"SBAX","flightCategory":"VFR","rawOb":"METAR SBAX 070400Z AUTO 00000KT CAVOK 16/09 Q1022","temp":16,"dewp":9,"wdir":0,"wspd":0,"visib":"6+","altim":1022,"clouds":[],"obsTime":1783396800},"SBDN":{"icaoId":"SBDN","flightCategory":"VFR","rawOb":"METAR SBDN 070400Z 24003KT CAVOK 16/15 Q1019","temp":16,"dewp":15,"wdir":240,"wspd":3,"visib":"6+","altim":1019,"clouds":[],"obsTime":1783396800},"SBIP":{"icaoId":"SBIP","flightCategory":"VFR","rawOb":"METAR SBIP 070400Z AUTO 02003KT CAVOK 17/17 Q1019","temp":17,"dewp":17,"wdir":20,"wspd":3,"visib":"6+","altim":1019,"clouds":[],"obsTime":1783396800},"SBSC":{"icaoId":"SBSC","flightCategory":"MVFR","rawOb":"METAR SBSC 070400Z 02004KT 8000 SCT030 BKN100 18/17 Q1018","temp":18,"dewp":17,"wdir":20,"wspd":4,"visib":4.97,"altim":1018,"clouds":[{"cover":"SCT","base":3000},{"cover":"BKN","base":10000}],"obsTime":1783396800},"SBSR":{"icaoId":"SBSR","flightCategory":"VFR","rawOb":"METAR SBSR 070400Z 17001KT CAVOK 17/13 Q1020","temp":17,"dewp":13,"wdir":170,"wspd":1,"visib":"6+","altim":1020,"clouds":[],"obsTime":1783396800},"SBPL":{"icaoId":"SBPL","flightCategory":"VFR","rawOb":"METAR SBPL 070400Z 08009KT CAVOK 24/18 Q1018","temp":24,"dewp":18,"wdir":80,"wspd":9,"visib":"6+","altim":1018,"clouds":[],"obsTime":1783396800},"SBAR":{"icaoId":"SBAR","flightCategory":"VFR","rawOb":"METAR SBAR 070400Z 15005KT 9999 FEW030 24/20 Q1018","temp":24,"dewp":20,"wdir":150,"wspd":5,"visib":"6+","altim":1018,"clouds":[{"cover":"FEW","base":3000}],"obsTime":1783396800},"SBKG":{"icaoId":"SBKG","flightCategory":"VFR","rawOb":"METAR SBKG 070400Z 00000KT CAVOK 18/17 Q1019","temp":18,"dewp":17,"wdir":0,"wspd":0,"visib":"6+","altim":1019,"clouds":[],"obsTime":1783396800},"SBJP":{"icaoId":"SBJP","flightCategory":"VFR","rawOb":"METAR SBJP 070400Z 17010KT CAVOK 23/21 Q1016","temp":23,"dewp":21,"wdir":170,"wspd":10,"visib":"6+","altim":1016,"clouds":[],"obsTime":1783396800},"SBLE":{"icaoId":"SBLE","flightCategory":"MVFR","rawOb":"METAR SBLE 070400Z AUTO VRB02KT 9999 OVC014 ///// Q1021","temp":null,"dewp":null,"wdir":"VRB","wspd":2,"visib":"6+","altim":1021,"clouds":[{"cover":"OVC","base":1400}],"obsTime":1783396800},"SBAN":{"icaoId":"SBAN","flightCategory":"VFR","rawOb":"METAR SBAN 070400Z 12005KT CAVOK 19/10 Q1023","temp":19,"dewp":10,"wdir":120,"wspd":5,"visib":"6+","altim":1023,"clouds":[],"obsTime":1783396800},"SBNM":{"icaoId":"SBNM","flightCategory":"VFR","rawOb":"METAR SBNM 070400Z AUTO 33002KT CAVOK 04/03 Q1024","temp":4,"dewp":3,"wdir":330,"wspd":2,"visib":"6+","altim":1024,"clouds":[],"obsTime":1783396800}}}