{"updated":1773607794,"count":85,"data":{"SBEG":{"icaoId":"SBEG","flightCategory":"VFR","rawOb":"METAR SBEG 151900Z 08009KT 9999 VCSH SCT025 FEW030TCU 32/24 Q1007","temp":32,"dewp":24,"wdir":80,"wspd":9,"visib":"6+","altim":1007,"clouds":[{"cover":"SCT","base":2500},{"cover":"FEW","base":3000}],"obsTime":1773601200},"SBMA":{"icaoId":"SBMA","flightCategory":"VFR","rawOb":"METAR SBMA 151900Z 14004KT 9999 FEW020 FEW023TCU 31/24 Q1008","temp":31,"dewp":24,"wdir":140,"wspd":4,"visib":"6+","altim":1008,"clouds":[{"cover":"FEW","base":2000},{"cover":"FEW","base":2300}],"obsTime":1773601200},"SBCB":{"icaoId":"SBCB","flightCategory":"VFR","rawOb":"METAR SBCB 151900Z 13008KT CAVOK 28/22 Q1010","temp":28,"dewp":22,"wdir":130,"wspd":8,"visib":"6+","altim":1010,"clouds":[],"obsTime":1773601200},"SBME":{"icaoId":"SBME","flightCategory":"VFR","rawOb":"METAR SBME 151900Z 15007KT 9999 FEW030 29/22 Q1009","temp":29,"dewp":22,"wdir":150,"wspd":7,"visib":"6+","altim":1009,"clouds":[{"cover":"FEW","base":3000}],"obsTime":1773601200},"SBMG":{"icaoId":"SBMG","flightCategory":"VFR","rawOb":"METAR SBMG 151900Z 36011KT 290V040 9999 FEW050 FEW050TCU 34/17 Q1009","temp":34,"dewp":17,"wdir":360,"wspd":11,"visib":"6+","altim":1009,"clouds":[{"cover":"FEW","base":5000},{"cover":"FEW","base":5000}],"obsTime":1773601200},"SBMK":{"icaoId":"SBMK","flightCategory":"VFR","rawOb":"METAR SBMK 151900Z 14002KT 9999 VCSH FEW040 BKN090 24/21 Q1012","temp":24,"dewp":21,"wdir":140,"wspd":2,"visib":"6+","altim":1012,"clouds":[{"cover":"FEW","base":4000},{"cover":"BKN","base":9000}],"obsTime":1773601200},"SBBE":{"icaoId":"SBBE","flightCategory":"MVFR","rawOb":"METAR SBBE 151900Z 01008KT 9999 TS BKN020 FEW030CB BKN045 28/24 Q1008","temp":28,"dewp":24,"wdir":10,"wspd":8,"visib":"6+","altim":1008,"clouds":[{"cover":"BKN","base":2000},{"cover":"FEW","base":3000},{"cover":"BKN","base":4500}],"obsTime":1773601200},"SBJU":{"icaoId":"SBJU","flightCategory":"VFR","rawOb":"METAR SBJU 151900Z 00000KT 9999 SCT022 30/22 Q1009","temp":30,"dewp":22,"wdir":0,"wspd":0,"visib":"6+","altim":1009,"clouds":[{"cover":"SCT","base":2200}],"obsTime":1773601200},"SBCT":{"icaoId":"SBCT","flightCategory":"VFR","rawOb":"METAR SBCT 151900Z 26006KT 9999 SCT045 31/14 Q1013","temp":31,"dewp":14,"wdir":260,"wspd":6,"visib":"6+","altim":1013,"clouds":[{"cover":"SCT","base":4500}],"obsTime":1773601200},"SBKP":{"icaoId":"SBKP","flightCategory":"VFR","rawOb":"METAR SBKP 151900Z 25004KT 210V300 9999 SCT045 31/18 Q1012","temp":31,"dewp":18,"wdir":250,"wspd":4,"visib":"6+","altim":1012,"clouds":[{"cover":"SCT","base":4500}],"obsTime":1773601200},"SBLO":{"icaoId":"SBLO","flightCategory":"VFR","rawOb":"METAR SBLO 151900Z 32004KT 9999 SCT040 33/16 Q1010","temp":33,"dewp":16,"wdir":320,"wspd":4,"visib":"6+","altim":1010,"clouds":[{"cover":"SCT","base":4000}],"obsTime":1773601200},"SBCZ":{"icaoId":"SBCZ","flightCategory":"MVFR","rawOb":"METAR SBCZ 151900Z 34006KT 9999 BKN016 BKN100 27/25 Q1009","temp":27,"dewp":25,"wdir":340,"wspd":6,"visib":"6+","altim":1009,"clouds":[{"cover":"BKN","base":1600},{"cover":"BKN","base":10000}],"obsTime":1773601200},"SBMO":{"icaoId":"SBMO","flightCategory":"VFR","rawOb":"METAR SBMO 151900Z 08012KT CAVOK 31/22 Q1008","temp":31,"dewp":22,"wdir":80,"wspd":12,"visib":"6+","altim":1008,"clouds":[],"obsTime":1773601200},"SBFI":{"icaoId":"SBFI","flightCategory":"IFR","rawOb":"METAR SBFI 151900Z 24024KT 3000 -TSRA SCT040 FEW045CB 30/22 Q1007","temp":30,"dewp":22,"wdir":240,"wspd":24,"visib":1.86,"altim":1007,"clouds":[{"cover":"SCT","base":4000},{"cover":"FEW","base":4500}],"obsTime":1773601200},"SBMQ":{"icaoId":"SBMQ","flightCategory":"VFR","rawOb":"METAR SBMQ 151900Z 06008KT 9999 FEW015 SCT020 29/25 Q1009","temp":29,"dewp":25,"wdir":60,"wspd":8,"visib":"6+","altim":1009,"clouds":[{"cover":"FEW","base":1500},{"cover":"SCT","base":2000}],"obsTime":1773601200},"SBAT":{"icaoId":"SBAT","flightCategory":"VFR","rawOb":"METAR SBAT 151900Z 01003KT 9999 SCT030 34/25 Q1008","temp":34,"dewp":25,"wdir":10,"wspd":3,"visib":"6+","altim":1008,"clouds":[{"cover":"SCT","base":3000}],"obsTime":1773601200},"SBNT":{"icaoId":"SBNT","flightCategory":"VFR","rawOb":"METAR SBNT 151900Z 09011KT 060V130 9999 SCT026 30/24 Q1009","temp":30,"dewp":24,"wdir":90,"wspd":11,"visib":"6+","altim":1009,"clouds":[{"cover":"SCT","base":2600}],"obsTime":1773601200},"SBFL":{"icaoId":"SBFL","flightCategory":"VFR","rawOb":"METAR SBFL 151900Z 34010KT 9999 SCT040 30/24 Q1007","temp":30,"dewp":24,"wdir":340,"wspd":10,"visib":"6+","altim":1007,"clouds":[{"cover":"SCT","base":4000}],"obsTime":1773601200},"SBPA":{"icaoId":"SBPA","flightCategory":"VFR","rawOb":"METAR SBPA 151900Z 27004KT 9999 FEW045 32/18 Q1007","temp":32,"dewp":18,"wdir":270,"wspd":4,"visib":"6+","altim":1007,"clouds":[{"cover":"FEW","base":4500}],"obsTime":1773601200},"SBCF":{"icaoId":"SBCF","flightCategory":"VFR","rawOb":"METAR SBCF 151900Z 04004KT 360V090 9999 SCT040 SCT100 29/20 Q1012","temp":29,"dewp":20,"wdir":40,"wspd":4,"visib":"6+","altim":1012,"clouds":[{"cover":"SCT","base":4000},{"cover":"SCT","base":10000}],"obsTime":1773601200},"SBPJ":{"icaoId":"SBPJ","flightCategory":"VFR","rawOb":"METAR SBPJ 151900Z 32004KT 9999 FEW027 SCT050 31/24 Q1009","temp":31,"dewp":24,"wdir":320,"wspd":4,"visib":"6+","altim":1009,"clouds":[{"cover":"FEW","base":2700},{"cover":"SCT","base":5000}],"obsTime":1773601200},"SBBR":{"icaoId":"SBBR","flightCategory":"VFR","rawOb":"METAR SBBR 151900Z VRB06KT 9999 2000N SHRA BKN040 FEW045TCU SCT090 23/19 Q1014","temp":23,"dewp":19,"wdir":"VRB","wspd":6,"visib":"6+","altim":1014,"clouds":[{"cover":"BKN","base":4000},{"cover":"FEW","base":4500},{"cover":"SCT","base":9000}],"obsTime":1773601200},"SBPV":{"icaoId":"SBPV","flightCategory":"VFR","rawOb":"METAR SBPV 151900Z 05004KT 9999 SCT030 33/23 Q1006","temp":33,"dewp":23,"wdir":50,"wspd":4,"visib":"6+","altim":1006,"clouds":[{"cover":"SCT","base":3000}],"obsTime":1773601200},"SBFZ":{"icaoId":"SBFZ","flightCategory":"VFR","rawOb":"METAR SBFZ 151900Z 27003KT 240V310 9999 FEW018 BKN080 28/24 Q1008 RETS","temp":28,"dewp":24,"wdir":270,"wspd":3,"visib":"6+","altim":1008,"clouds":[{"cover":"FEW","base":1800},{"cover":"BKN","base":8000}],"obsTime":1773601200},"SBRB":{"icaoId":"SBRB","flightCategory":"IFR","rawOb":"METAR SBRB 151900Z 32017KT 4000 -RA BR BKN020 FEW030TCU BKN050 24/22 Q1008","temp":24,"dewp":22,"wdir":320,"wspd":17,"visib":2.49,"altim":1008,"clouds":[{"cover":"BKN","base":2000},{"cover":"FEW","base":3000},{"cover":"BKN","base":5000}],"obsTime":1773601200},"SBCG":{"icaoId":"SBCG","flightCategory":"VFR","rawOb":"METAR SBCG 151900Z 34007KT 9999 BKN040 31/21 Q1009","temp":31,"dewp":21,"wdir":340,"wspd":7,"visib":"6+","altim":1009,"clouds":[{"cover":"BKN","base":4000}],"obsTime":1773601200},"SBRF":{"icaoId":"SBRF","flightCategory":"VFR","rawOb":"METAR SBRF 151900Z 08008KT 9999 FEW020 30/24 Q1008","temp":30,"dewp":24,"wdir":80,"wspd":8,"visib":"6+","altim":1008,"clouds":[{"cover":"FEW","base":2000}],"obsTime":1773601200},"SBGL":{"icaoId":"SBGL","flightCategory":"VFR","rawOb":"METAR SBGL 151900Z 13013KT 9999 FEW030 29/22 Q1009","temp":29,"dewp":22,"wdir":130,"wspd":13,"visib":"6+","altim":1009,"clouds":[{"cover":"FEW","base":3000}],"obsTime":1773601200},"SBSG":{"icaoId":"SBSG","flightCategory":"VFR","rawOb":"METAR SBSG 151900Z 08014KT 9999 SCT027 31/23 Q1009","temp":31,"dewp":23,"wdir":80,"wspd":14,"visib":"6+","altim":1009,"clouds":[{"cover":"SCT","base":2700}],"obsTime":1773601200},"SBSL":{"icaoId":"SBSL","flightCategory":"MVFR","rawOb":"METAR SBSL 151900Z 02004KT 9999 VCSH BKN015 FEW025TCU BKN080 27/25 Q1009","temp":27,"dewp":25,"wdir":20,"wspd":4,"visib":"6+","altim":1009,"clouds":[{"cover":"BKN","base":1500},{"cover":"FEW","base":2500},{"cover":"BKN","base":8000}],"obsTime":1773601200},"SBSN":{"icaoId":"SBSN","flightCategory":"VFR","rawOb":"METAR SBSN 151900Z 03007KT 9999 SCT020 FEW023TCU 31/25 Q1007","temp":31,"dewp":25,"wdir":30,"wspd":7,"visib":"6+","altim":1007,"clouds":[{"cover":"SCT","base":2000},{"cover":"FEW","base":2300}],"obsTime":1773601200},"SBGO":{"icaoId":"SBGO","flightCategory":"VFR","rawOb":"METAR SBGO 151900Z 33007KT 300V010 9999 FEW036 FEW045TCU 28/21 Q1012","temp":28,"dewp":21,"wdir":330,"wspd":7,"visib":"6+","altim":1012,"clouds":[{"cover":"FEW","base":3600},{"cover":"FEW","base":4500}],"obsTime":1773601200},"SBCP":{"icaoId":"SBCP","flightCategory":"VFR","rawOb":"METAR SBCP 151900Z 12011KT 9999 FEW020 30/23 Q1009","temp":30,"dewp":23,"wdir":120,"wspd":11,"visib":"6+","altim":1009,"clouds":[{"cover":"FEW","base":2000}],"obsTime":1773601200},"SBSP":{"icaoId":"SBSP","flightCategory":"VFR","rawOb":"METAR SBSP 151900Z 16005KT 9999 VCSH BKN035 FEW040TCU 24/20 Q1014","temp":24,"dewp":20,"wdir":160,"wspd":5,"visib":"6+","altim":1014,"clouds":[{"cover":"BKN","base":3500},{"cover":"FEW","base":4000}],"obsTime":1773601200},"SBGR":{"icaoId":"SBGR","flightCategory":"VFR","rawOb":"METAR SBGR 151900Z COR 16008KT 9999 -RA NSC 25/20 Q1013","temp":25,"dewp":20,"wdir":160,"wspd":8,"visib":"6+","altim":1013,"clouds":[],"obsTime":1773601200},"SBSV":{"icaoId":"SBSV","flightCategory":"VFR","rawOb":"METAR SBSV 151900Z 08012KT CAVOK 30/23 Q1008","temp":30,"dewp":23,"wdir":80,"wspd":12,"visib":"6+","altim":1008,"clouds":[],"obsTime":1773601200},"SBTE":{"icaoId":"SBTE","flightCategory":"MVFR","rawOb":"METAR SBTE 151900Z 36008KT 9999 BKN020 FEW025TCU 30/25 Q1007","temp":30,"dewp":25,"wdir":360,"wspd":8,"visib":"6+","altim":1007,"clouds":[{"cover":"BKN","base":2000},{"cover":"FEW","base":2500}],"obsTime":1773601200},"SBHT":{"icaoId":"SBHT","flightCategory":"MVFR","rawOb":"METAR SBHT 151900Z 15002KT 9999 BKN025 32/24 Q1008","temp":32,"dewp":24,"wdir":150,"wspd":2,"visib":"6+","altim":1008,"clouds":[{"cover":"BKN","base":2500}],"obsTime":1773601200},"SBUL":{"icaoId":"SBUL","flightCategory":"VFR","rawOb":"METAR SBUL 151900Z 23004KT 190V270 9999 SCT040 FEW045TCU BKN100 25/20 Q1013 RETS","temp":25,"dewp":20,"wdir":230,"wspd":4,"visib":"6+","altim":1013,"clouds":[{"cover":"SCT","base":4000},{"cover":"FEW","base":4500},{"cover":"BKN","base":10000}],"obsTime":1773601200},"SBCR":{"icaoId":"SBCR","flightCategory":"VFR","rawOb":"METAR SBCR 151900Z 03003KT 340V070 9999 VCSH VCTS BKN040 FEW045CB 29/24 Q1005 RETS","temp":29,"dewp":24,"wdir":30,"wspd":3,"visib":"6+","altim":1005,"clouds":[{"cover":"BKN","base":4000},{"cover":"FEW","base":4500}],"obsTime":1773601200},"SBUR":{"icaoId":"SBUR","flightCategory":"VFR","rawOb":"METAR SBUR 151900Z 17007KT 9999 SCT045 FEW050TCU 31/18 Q1012","temp":31,"dewp":18,"wdir":170,"wspd":7,"visib":"6+","altim":1012,"clouds":[{"cover":"SCT","base":4500},{"cover":"FEW","base":5000}],"obsTime":1773601200},"SBIL":{"icaoId":"SBIL","flightCategory":"VFR","rawOb":"METAR SBIL 151900Z 04008KT CAVOK 30/26 Q1008","temp":30,"dewp":26,"wdir":40,"wspd":8,"visib":"6+","altim":1008,"clouds":[],"obsTime":1773601200},"SBVT":{"icaoId":"SBVT","flightCategory":"VFR","rawOb":"METAR SBVT 151900Z 16008KT 9999 SCT040 26/23 Q1009","temp":26,"dewp":23,"wdir":160,"wspd":8,"visib":"6+","altim":1009,"clouds":[{"cover":"SCT","base":4000}],"obsTime":1773601200},"SBBV":{"icaoId":"SBBV","flightCategory":"MVFR","rawOb":"METAR SBBV 151900Z 11006KT 9999 BKN030 FEW040TCU 35/20 Q1008","temp":35,"dewp":20,"wdir":110,"wspd":6,"visib":"6+","altim":1008,"clouds":[{"cover":"BKN","base":3000},{"cover":"FEW","base":4000}],"obsTime":1773601200},"SBOI":{"icaoId":"SBOI","flightCategory":"VFR","rawOb":"METAR SBOI 151900Z AUTO 05006KT 020V080 9999 FEW025 28/25 Q1009","temp":28,"dewp":25,"wdir":50,"wspd":6,"visib":"6+","altim":1009,"clouds":[{"cover":"FEW","base":2500}],"obsTime":1773601200},"SBBU":{"icaoId":"SBBU","flightCategory":"VFR","rawOb":"METAR SBBU 151900Z 33006KT CAVOK 34/16 Q1011","temp":34,"dewp":16,"wdir":330,"wspd":6,"visib":"6+","altim":1011,"clouds":[],"obsTime":1773601200},"SBPB":{"icaoId":"SBPB","flightCategory":"MVFR","rawOb":"METAR SBPB 151900Z 04008KT 9999 BKN017 29/24 Q1008","temp":29,"dewp":24,"wdir":40,"wspd":8,"visib":"6+","altim":1008,"clouds":[{"cover":"BKN","base":1700}],"obsTime":1773601200},"SBCO":{"icaoId":"SBCO","flightCategory":"VFR","rawOb":"METAR SBCO 151900Z VRB03KT 9999 FEW045 32/17 Q1008","temp":32,"dewp":17,"wdir":"VRB","wspd":3,"visib":"6+","altim":1008,"clouds":[{"cover":"FEW","base":4500}],"obsTime":1773601200},"SBPL":{"icaoId":"SBPL","flightCategory":"VFR","rawOb":"METAR SBPL 151900Z 10004KT 9999 SCT030 35/18 Q1008","temp":35,"dewp":18,"wdir":100,"wspd":4,"visib":"6+","altim":1008,"clouds":[{"cover":"SCT","base":3000}],"obsTime":1773601200},"SBPP":{"icaoId":"SBPP","flightCategory":"MVFR","rawOb":"METAR SBPP 151900Z 35008KT 9999 BKN025 32/19 Q1009","temp":32,"dewp":19,"wdir":350,"wspd":8,"visib":"6+","altim":1009,"clouds":[{"cover":"BKN","base":2500}],"obsTime":1773601200},"SBBH":{"icaoId":"SBBH","flightCategory":"VFR","rawOb":"METAR SBBH 151900Z 30004KT 9999 SCT048 30/17 Q1012","temp":30,"dewp":17,"wdir":300,"wspd":4,"visib":"6+","altim":1012,"clouds":[{"cover":"SCT","base":4800}],"obsTime":1773601200},"SBPS":{"icaoId":"SBPS","flightCategory":"VFR","rawOb":"METAR SBPS 151900Z 11005KT 9999 SCT018 BKN060 27/24 Q1009","temp":27,"dewp":24,"wdir":110,"wspd":5,"visib":"6+","altim":1009,"clouds":[{"cover":"SCT","base":1800},{"cover":"BKN","base":6000}],"obsTime":1773601200},"SBDN":{"icaoId":"SBDN","flightCategory":"VFR","rawOb":"METAR SBDN 151900Z 36002KT CAVOK 34/17 Q1009","temp":34,"dewp":17,"wdir":360,"wspd":2,"visib":"6+","altim":1009,"clouds":[],"obsTime":1773601200},"SBES":{"icaoId":"SBES","flightCategory":"VFR","rawOb":"METAR SBES 151900Z VRB06KT CAVOK 28/// Q1010","temp":null,"dewp":null,"wdir":"VRB","wspd":6,"visib":"6+","altim":1010,"clouds":[],"obsTime":1773601200},"SBSC":{"icaoId":"SBSC","flightCategory":"VFR","rawOb":"METAR SBSC 151900Z 19006KT 9999 FEW030 30/23 Q1009","temp":30,"dewp":23,"wdir":190,"wspd":6,"visib":"6+","altim":1009,"clouds":[{"cover":"FEW","base":3000}],"obsTime":1773601200},"SBCA":{"icaoId":"SBCA","flightCategory":"VFR","rawOb":"METAR SBCA 151900Z 32009KT 9999 SCT040 FEW050TCU 31/16 Q1011","temp":31,"dewp":16,"wdir":320,"wspd":9,"visib":"6+","altim":1011,"clouds":[{"cover":"SCT","base":4000},{"cover":"FEW","base":5000}],"obsTime":1773601200},"SBSJ":{"icaoId":"SBSJ","flightCategory":"VFR","rawOb":"METAR SBSJ 151900Z 19003KT 150V250 9999 VCSH FEW033 31/15 Q1011","temp":31,"dewp":15,"wdir":190,"wspd":3,"visib":"6+","altim":1011,"clouds":[{"cover":"FEW","base":3300}],"obsTime":1773601200},"SBAX":{"icaoId":"SBAX","flightCategory":"VFR","rawOb":"METAR SBAX 151900Z AUTO 22005KT 160V290 CAVOK 30/15 Q1013","temp":30,"dewp":15,"wdir":220,"wspd":5,"visib":"6+","altim":1013,"clouds":[],"obsTime":1773601200},"SBSM":{"icaoId":"SBSM","flightCategory":"VFR","rawOb":"METAR SBSM 151900Z 09005KT 050V210 9999 FEW040 33/20 Q1007","temp":33,"dewp":20,"wdir":90,"wspd":5,"visib":"6+","altim":1007,"clouds":[{"cover":"FEW","base":4000}],"obsTime":1773601200},"SBCC":{"icaoId":"SBCC","flightCategory":"VFR","rawOb":"METAR SBCC 151900Z 11003KT 9999 SCT025 BKN040 BKN100 24/23 Q1010 RETS","temp":24,"dewp":23,"wdir":110,"wspd":3,"visib":"6+","altim":1010,"clouds":[{"cover":"SCT","base":2500},{"cover":"BKN","base":4000},{"cover":"BKN","base":10000}],"obsTime":1773601200},"SBSR":{"icaoId":"SBSR","flightCategory":"VFR","rawOb":"METAR SBSR 151900Z 31003KT 250V030 9999 SCT030 33/16 Q1010","temp":33,"dewp":16,"wdir":310,"wspd":3,"visib":"6+","altim":1010,"clouds":[{"cover":"SCT","base":3000}],"obsTime":1773601200},"SBIP":{"icaoId":"SBIP","flightCategory":"VFR","rawOb":"METAR SBIP 151900Z AUTO VRB02KT CAVOK 31/21 Q1009","temp":31,"dewp":21,"wdir":"VRB","wspd":2,"visib":"6+","altim":1009,"clouds":[],"obsTime":1773601200},"SBTF":{"icaoId":"SBTF","flightCategory":"VFR","rawOb":"METAR SBTF 151900Z 15005KT 9999 FEW016 SCT100 31/26 Q1006","temp":31,"dewp":26,"wdir":150,"wspd":5,"visib":"6+","altim":1006,"clouds":[{"cover":"FEW","base":1600},{"cover":"SCT","base":10000}],"obsTime":1773601200},"SBAR":{"icaoId":"SBAR","flightCategory":"VFR","rawOb":"METAR SBAR 151900Z 10014KT 9999 FEW027 31/24 Q1008","temp":31,"dewp":24,"wdir":100,"wspd":14,"visib":"6+","altim":1008,"clouds":[{"cover":"FEW","base":2700}],"obsTime":1773601200},"SBTT":{"icaoId":"SBTT","flightCategory":"VFR","rawOb":"METAR SBTT 151900Z VRB02KT 9999 SCT030 29/23 Q1008","temp":29,"dewp":23,"wdir":"VRB","wspd":2,"visib":"6+","altim":1008,"clouds":[{"cover":"SCT","base":3000}],"obsTime":1773601200},"SBKG":{"icaoId":"SBKG","flightCategory":"VFR","rawOb":"METAR SBKG 151900Z 09014KT 9999 SCT030 30/22 Q1010","temp":30,"dewp":22,"wdir":90,"wspd":14,"visib":"6+","altim":1010,"clouds":[{"cover":"SCT","base":3000}],"obsTime":1773601200},"SBUY":{"icaoId":"SBUY","flightCategory":"VFR","rawOb":"METAR SBUY 151900Z 12008KT 9999 SCT025 SCT100 33/23 Q1004","temp":33,"dewp":23,"wdir":120,"wspd":8,"visib":"6+","altim":1004,"clouds":[{"cover":"SCT","base":2500},{"cover":"SCT","base":10000}],"obsTime":1773601200},"SBCJ":{"icaoId":"SBCJ","flightCategory":"VFR","rawOb":"METAR SBCJ 151900Z 00000KT 9999 SCT020 28/21 Q1013","temp":28,"dewp":21,"wdir":0,"wspd":0,"visib":"6+","altim":1013,"clouds":[{"cover":"SCT","base":2000}],"obsTime":1773601200},"SBVH":{"icaoId":"SBVH","flightCategory":"MVFR","rawOb":"METAR SBVH 151900Z 31011KT 9999 VCSH BKN030 FEW035TCU 29/21 Q1010","temp":29,"dewp":21,"wdir":310,"wspd":11,"visib":"6+","altim":1010,"clouds":[{"cover":"BKN","base":3000},{"cover":"FEW","base":3500}],"obsTime":1773601200},"SBBQ":{"icaoId":"SBBQ","flightCategory":"VFR","rawOb":"METAR SBBQ 151900Z 07004KT 020V110 9999 SCT040 24/19 Q1016","temp":24,"dewp":19,"wdir":70,"wspd":4,"visib":"6+","altim":1016,"clouds":[{"cover":"SCT","base":4000}],"obsTime":1773601200},"SBGM":{"icaoId":"SBGM","flightCategory":"VFR","rawOb":"METAR SBGM 151900Z 33007KT 9999 SCT033 33/17 Q1006","temp":33,"dewp":17,"wdir":330,"wspd":7,"visib":"6+","altim":1006,"clouds":[{"cover":"SCT","base":3300}],"obsTime":1773601200},"SBTC":{"icaoId":"SBTC","flightCategory":"VFR","rawOb":"METAR SBTC 151900Z 04007KT 9999 FEW020 SCT070 29/24 Q1009","temp":29,"dewp":24,"wdir":40,"wspd":7,"visib":"6+","altim":1009,"clouds":[{"cover":"FEW","base":2000},{"cover":"SCT","base":7000}],"obsTime":1773601200},"SBAF":{"icaoId":"SBAF","flightCategory":"VFR","rawOb":"METAR SBAF 151900Z 19009KT 9999 FEW025 31/23 Q1009","temp":31,"dewp":23,"wdir":190,"wspd":9,"visib":"6+","altim":1009,"clouds":[{"cover":"FEW","base":2500}],"obsTime":1773601200},"SBAN":{"icaoId":"SBAN","flightCategory":"VFR","rawOb":"METAR SBAN 151900Z 32002KT 9999 FEW004 SCT030 FEW035TCU BKN100 23/19 Q1016","temp":23,"dewp":19,"wdir":320,"wspd":2,"visib":"6+","altim":1016,"clouds":[{"cover":"FEW","base":400},{"cover":"SCT","base":3000},{"cover":"FEW","base":3500},{"cover":"BKN","base":10000}],"obsTime":1773601200},"SBGW":{"icaoId":"SBGW","flightCategory":"VFR","rawOb":"METAR SBGW 151900Z VRB04KT 9999 SCT030 32/14 Q1011","temp":32,"dewp":14,"wdir":"VRB","wspd":4,"visib":"6+","altim":1011,"clouds":[{"cover":"SCT","base":3000}],"obsTime":1773601200},"SBIH":{"icaoId":"SBIH","flightCategory":"VFR","rawOb":"METAR SBIH 151900Z 36007KT 9999 FEW017 BKN100 29/25 Q1007","temp":29,"dewp":25,"wdir":360,"wspd":7,"visib":"6+","altim":1007,"clouds":[{"cover":"FEW","base":1700},{"cover":"BKN","base":10000}],"obsTime":1773601200},"SBJP":{"icaoId":"SBJP","flightCategory":"VFR","rawOb":"METAR SBJP 151900Z 07009KT 020V100 9999 FEW030 30/23 Q1009","temp":30,"dewp":23,"wdir":70,"wspd":9,"visib":"6+","altim":1009,"clouds":[{"cover":"FEW","base":3000}],"obsTime":1773601200},"SBJR":{"icaoId":"SBJR","flightCategory":"VFR","rawOb":"METAR SBJR 151900Z 16007KT CAVOK 31/23 Q1009","temp":31,"dewp":23,"wdir":160,"wspd":7,"visib":"6+","altim":1009,"clouds":[],"obsTime":1773601200},"SBJV":{"icaoId":"SBJV","flightCategory":"VFR","rawOb":"METAR SBJV 151900Z 09004KT 9999 SCT035 31/25 Q1007","temp":31,"dewp":25,"wdir":90,"wspd":4,"visib":"6+","altim":1007,"clouds":[{"cover":"SCT","base":3500}],"obsTime":1773601200},"SBLE":{"icaoId":"SBLE","flightCategory":"VFR","rawOb":"METAR SBLE 151900Z AUTO 15006KT 110V180 9999 SCT047 32/22 Q1010","temp":32,"dewp":22,"wdir":150,"wspd":6,"visib":"6+","altim":1010,"clouds":[{"cover":"SCT","base":4700}],"obsTime":1773601200},"SBLS":{"icaoId":"SBLS","flightCategory":"VFR","rawOb":"METAR SBLS 151900Z VRB02KT 9999 BKN040 FEW042TCU 30/19 Q1012","temp":30,"dewp":19,"wdir":"VRB","wspd":2,"visib":"6+","altim":1012,"clouds":[{"cover":"BKN","base":4000},{"cover":"FEW","base":4200}],"obsTime":1773601200},"SBMT":{"icaoId":"SBMT","flightCategory":"VFR","rawOb":"METAR SBMT 151900Z 15007KT 9999 SCT030 FEW040TCU 27/18 Q1012","temp":27,"dewp":18,"wdir":150,"wspd":7,"visib":"6+","altim":1012,"clouds":[{"cover":"SCT","base":3000},{"cover":"FEW","base":4000}],"obsTime":1773601200},"SBPF":{"icaoId":"SBPF","flightCategory":"VFR","rawOb":"METAR SBPF 152000Z 29005KT 9999 FEW040 30/17 Q1012","temp":30,"dewp":17,"wdir":290,"wspd":5,"visib":"6+","altim":1012,"clouds":[{"cover":"FEW","base":4000}],"obsTime":1773604800},"SBST":{"icaoId":"SBST","flightCategory":"VFR","rawOb":"METAR SBST 151900Z 11005KT 9999 SCT025 28/22 Q1008","temp":28,"dewp":22,"wdir":110,"wspd":5,"visib":"6+","altim":1008,"clouds":[{"cover":"SCT","base":2500}],"obsTime":1773601200},"SBTA":{"icaoId":"SBTA","flightCategory":"VFR","rawOb":"METAR SBTA 151900Z 26003KT 170V330 9999 SCT035 FEW040TCU 32/12 Q1010","temp":32,"dewp":12,"wdir":260,"wspd":3,"visib":"6+","altim":1010,"clouds":[{"cover":"SCT","base":3500},{"cover":"FEW","base":4000}],"obsTime":1773601200}}}