{"updated":1778582677,"count":73,"data":{"SBKP":{"icaoId":"SBKP","flightCategory":"MVFR","rawOb":"METAR SBKP 120900Z 13008KT 5000 BR FEW001 09/08 Q1020","temp":9,"dewp":8,"wdir":130,"wspd":8,"visib":3.11,"altim":1020,"clouds":[{"cover":"FEW","base":100}],"obsTime":1778576400},"SBBV":{"icaoId":"SBBV","flightCategory":"LIFR","rawOb":"METAR SBBV 120900Z 03003KT 8000 -RA BKN004 BKN020 FEW035TCU BKN070 23/22 Q1013","temp":23,"dewp":22,"wdir":30,"wspd":3,"visib":4.97,"altim":1013,"clouds":[{"cover":"BKN","base":400},{"cover":"BKN","base":2000},{"cover":"FEW","base":3500},{"cover":"BKN","base":7000}],"obsTime":1778576400},"SBMQ":{"icaoId":"SBMQ","flightCategory":"VFR","rawOb":"METAR SBMQ 120900Z 36003KT 9999 FEW019 SCT080 26/25 Q1010","temp":26,"dewp":25,"wdir":360,"wspd":3,"visib":"6+","altim":1010,"clouds":[{"cover":"FEW","base":1900},{"cover":"SCT","base":8000}],"obsTime":1778576400},"SBFZ":{"icaoId":"SBFZ","flightCategory":"MVFR","rawOb":"METAR SBFZ 120900Z 17005KT 8000 SCT018 26/25 Q1011","temp":26,"dewp":25,"wdir":170,"wspd":5,"visib":4.97,"altim":1011,"clouds":[{"cover":"SCT","base":1800}],"obsTime":1778576400},"SBGL":{"icaoId":"SBGL","flightCategory":"MVFR","rawOb":"METAR SBGL 120900Z 31006KT 8000 SCT046 17/15 Q1020","temp":17,"dewp":15,"wdir":310,"wspd":6,"visib":4.97,"altim":1020,"clouds":[{"cover":"SCT","base":4600}],"obsTime":1778576400},"SBNT":{"icaoId":"SBNT","flightCategory":"VFR","rawOb":"METAR SBNT 120900Z 16005KT 9999 FEW022 24/23 Q1012","temp":24,"dewp":23,"wdir":160,"wspd":5,"visib":"6+","altim":1012,"clouds":[{"cover":"FEW","base":2200}],"obsTime":1778576400},"SBCG":{"icaoId":"SBCG","flightCategory":"VFR","rawOb":"METAR SBCG 120900Z 09006KT CAVOK 10/07 Q1019","temp":10,"dewp":7,"wdir":90,"wspd":6,"visib":"6+","altim":1019,"clouds":[],"obsTime":1778576400},"SBPA":{"icaoId":"SBPA","flightCategory":"VFR","rawOb":"METAR SBPA 120900Z VRB02KT CAVOK 07/06 Q1020","temp":7,"dewp":6,"wdir":"VRB","wspd":2,"visib":"6+","altim":1020,"clouds":[],"obsTime":1778576400},"SBCP":{"icaoId":"SBCP","flightCategory":"VFR","rawOb":"METAR SBCP 121000Z 22010KT CAVOK 20/15 Q1020","temp":20,"dewp":15,"wdir":220,"wspd":10,"visib":"6+","altim":1020,"clouds":[],"obsTime":1778580000},"SBPJ":{"icaoId":"SBPJ","flightCategory":"VFR","rawOb":"METAR SBPJ 120900Z 12004KT 090V150 CAVOK 22/20 Q1012","temp":22,"dewp":20,"wdir":120,"wspd":4,"visib":"6+","altim":1012,"clouds":[],"obsTime":1778576400},"SBGO":{"icaoId":"SBGO","flightCategory":"MVFR","rawOb":"METAR SBGO 120900Z 14005KT 8000 NSC 16/15 Q1019","temp":16,"dewp":15,"wdir":140,"wspd":5,"visib":4.97,"altim":1019,"clouds":[],"obsTime":1778576400},"SBPV":{"icaoId":"SBPV","flightCategory":"VFR","rawOb":"METAR SBPV 120900Z 00000KT 9999 SCT020 22/20 Q1016","temp":22,"dewp":20,"wdir":0,"wspd":0,"visib":"6+","altim":1016,"clouds":[{"cover":"SCT","base":2000}],"obsTime":1778576400},"SBRB":{"icaoId":"SBRB","flightCategory":"VFR","rawOb":"METAR SBRB 120900Z 20003KT 9000 NSC 17/16 Q1015","temp":17,"dewp":16,"wdir":200,"wspd":3,"visib":5.59,"altim":1015,"clouds":[],"obsTime":1778576400},"SBGR":{"icaoId":"SBGR","flightCategory":"IFR","rawOb":"METAR SBGR 120900Z 08006KT 7000 OVC006 11/09 Q1022","temp":11,"dewp":9,"wdir":80,"wspd":6,"visib":4.35,"altim":1022,"clouds":[{"cover":"OVC","base":600}],"obsTime":1778576400},"SBCB":{"icaoId":"SBCB","flightCategory":"VFR","rawOb":"METAR SBCB 120900Z 27014KT 9999 FEW010 20/16 Q1020","temp":20,"dewp":16,"wdir":270,"wspd":14,"visib":"6+","altim":1020,"clouds":[{"cover":"FEW","base":1000}],"obsTime":1778576400},"SBRF":{"icaoId":"SBRF","flightCategory":"MVFR","rawOb":"METAR SBRF 120900Z 19007KT 8000 SCT008 BKN020 BKN060 24/24 Q1013","temp":24,"dewp":24,"wdir":190,"wspd":7,"visib":4.97,"altim":1013,"clouds":[{"cover":"SCT","base":800},{"cover":"BKN","base":2000},{"cover":"BKN","base":6000}],"obsTime":1778576400},"SBLO":{"icaoId":"SBLO","flightCategory":"VFR","rawOb":"METAR SBLO 120900Z 19003KT CAVOK 08/07 Q1020","temp":8,"dewp":7,"wdir":190,"wspd":3,"visib":"6+","altim":1020,"clouds":[],"obsTime":1778576400},"SBBE":{"icaoId":"SBBE","flightCategory":"LIFR","rawOb":"METAR SBBE 120900Z 16004KT 9999 BKN003 25/24 Q1010","temp":25,"dewp":24,"wdir":160,"wspd":4,"visib":"6+","altim":1010,"clouds":[{"cover":"BKN","base":300}],"obsTime":1778576400},"SBME":{"icaoId":"SBME","flightCategory":"VFR","rawOb":"METAR SBME 120900Z 23007KT CAVOK 19/15 Q1019","temp":19,"dewp":15,"wdir":230,"wspd":7,"visib":"6+","altim":1019,"clouds":[],"obsTime":1778576400},"SBMG":{"icaoId":"SBMG","flightCategory":"VFR","rawOb":"METAR SBMG 120900Z AUTO 13005KT CAVOK 10/07 Q1019","temp":10,"dewp":7,"wdir":130,"wspd":5,"visib":"6+","altim":1019,"clouds":[],"obsTime":1778576400},"SBCF":{"icaoId":"SBCF","flightCategory":"MVFR","rawOb":"METAR SBCF 120900Z 14006KT 6000 NSC 18/17 Q1020","temp":18,"dewp":17,"wdir":140,"wspd":6,"visib":3.73,"altim":1020,"clouds":[],"obsTime":1778576400},"SBMK":{"icaoId":"SBMK","flightCategory":"VFR","rawOb":"METAR SBMK 120900Z 00000KT CAVOK 17/16 Q1018","temp":17,"dewp":16,"wdir":0,"wspd":0,"visib":"6+","altim":1018,"clouds":[],"obsTime":1778576400},"SBFL":{"icaoId":"SBFL","flightCategory":"VFR","rawOb":"METAR SBFL 120900Z 31005KT CAVOK 12/08 Q1020","temp":12,"dewp":8,"wdir":310,"wspd":5,"visib":"6+","altim":1020,"clouds":[],"obsTime":1778576400},"SBHT":{"icaoId":"SBHT","flightCategory":"VFR","rawOb":"METAR SBHT 121000Z 00000KT 9999 SCT010 BKN080 25/24 Q1012","temp":25,"dewp":24,"wdir":0,"wspd":0,"visib":"6+","altim":1012,"clouds":[{"cover":"SCT","base":1000},{"cover":"BKN","base":8000}],"obsTime":1778580000},"SBSG":{"icaoId":"SBSG","flightCategory":"VFR","rawOb":"METAR SBSG 120900Z 16004KT 120V190 9999 FEW020 SCT070 24/23 Q1012","temp":24,"dewp":23,"wdir":160,"wspd":4,"visib":"6+","altim":1012,"clouds":[{"cover":"FEW","base":2000},{"cover":"SCT","base":7000}],"obsTime":1778576400},"SBSL":{"icaoId":"SBSL","flightCategory":"VFR","rawOb":"METAR SBSL 120900Z 12003KT 9999 FEW025 SCT080 25/25 Q1010","temp":25,"dewp":25,"wdir":120,"wspd":3,"visib":"6+","altim":1010,"clouds":[{"cover":"FEW","base":2500},{"cover":"SCT","base":8000}],"obsTime":1778576400},"SBIL":{"icaoId":"SBIL","flightCategory":"VFR","rawOb":"METAR SBIL 121000Z 30007KT 9999 FEW020 23/23 Q1016","temp":23,"dewp":23,"wdir":300,"wspd":7,"visib":"6+","altim":1016,"clouds":[{"cover":"FEW","base":2000}],"obsTime":1778580000},"SBJU":{"icaoId":"SBJU","flightCategory":"VFR","rawOb":"METAR SBJU 120900Z 00000KT 9999 SCT020 24/21 Q1015","temp":24,"dewp":21,"wdir":0,"wspd":0,"visib":"6+","altim":1015,"clouds":[{"cover":"SCT","base":2000}],"obsTime":1778576400},"SBSN":{"icaoId":"SBSN","flightCategory":"MVFR","rawOb":"METAR SBSN 120900Z COR 16006KT 7000 -RA BKN010 OVC100 23/23 Q1012 RETSRA","temp":23,"dewp":23,"wdir":160,"wspd":6,"visib":4.35,"altim":1012,"clouds":[{"cover":"BKN","base":1000},{"cover":"OVC","base":10000}],"obsTime":1778576400},"SBVT":{"icaoId":"SBVT","flightCategory":"VFR","rawOb":"METAR SBVT 120900Z 23006KT 200V270 9999 FEW030 BKN040 21/17 Q1018","temp":21,"dewp":17,"wdir":230,"wspd":6,"visib":"6+","altim":1018,"clouds":[{"cover":"FEW","base":3000},{"cover":"BKN","base":4000}],"obsTime":1778576400},"SBCT":{"icaoId":"SBCT","flightCategory":"VFR","rawOb":"METAR SBCT 120900Z 00000KT CAVOK 03/03 Q1022","temp":3,"dewp":3,"wdir":0,"wspd":0,"visib":"6+","altim":1022,"clouds":[],"obsTime":1778576400},"SBSP":{"icaoId":"SBSP","flightCategory":"VFR","rawOb":"SPECI SBSP 120847Z AUTO 10003KT 040V160 9999 FEW006 10/09 Q1022","temp":10,"dewp":9,"wdir":100,"wspd":3,"visib":"6+","altim":1022,"clouds":[{"cover":"FEW","base":600}],"obsTime":1778575620},"SBSV":{"icaoId":"SBSV","flightCategory":"VFR","rawOb":"METAR SBSV 120900Z 15005KT 9999 VCSH SCT021 FEW023TCU BKN060 26/23 Q1014","temp":26,"dewp":23,"wdir":150,"wspd":5,"visib":"6+","altim":1014,"clouds":[{"cover":"SCT","base":2100},{"cover":"FEW","base":2300},{"cover":"BKN","base":6000}],"obsTime":1778576400},"SBTE":{"icaoId":"SBTE","flightCategory":"VFR","rawOb":"METAR SBTE 120900Z 33003KT 9999 FEW015 SCT100 25/24 Q1011","temp":25,"dewp":24,"wdir":330,"wspd":3,"visib":"6+","altim":1011,"clouds":[{"cover":"FEW","base":1500},{"cover":"SCT","base":10000}],"obsTime":1778576400},"SBUL":{"icaoId":"SBUL","flightCategory":"VFR","rawOb":"METAR SBUL 120900Z 16006KT 120V180 CAVOK 14/10 Q1020","temp":14,"dewp":10,"wdir":160,"wspd":6,"visib":"6+","altim":1020,"clouds":[],"obsTime":1778576400},"SBBR":{"icaoId":"SBBR","flightCategory":"VFR","rawOb":"METAR SBBR 120900Z COR VRB02KT 9999 BCFG NSC 15/15 Q1020","temp":15,"dewp":15,"wdir":"VRB","wspd":2,"visib":"6+","altim":1020,"clouds":[],"obsTime":1778576400},"SBMO":{"icaoId":"SBMO","flightCategory":"VFR","rawOb":"METAR SBMO 120900Z 32004KT 9999 VCSH FEW015 SCT030 23/22 Q1014","temp":23,"dewp":22,"wdir":320,"wspd":4,"visib":"6+","altim":1014,"clouds":[{"cover":"FEW","base":1500},{"cover":"SCT","base":3000}],"obsTime":1778576400},"SBUR":{"icaoId":"SBUR","flightCategory":"VFR","rawOb":"METAR SBUR 120900Z 03002KT CAVOK 13/10 Q1019","temp":13,"dewp":10,"wdir":30,"wspd":2,"visib":"6+","altim":1019,"clouds":[],"obsTime":1778576400},"SBEG":{"icaoId":"SBEG","flightCategory":"IFR","rawOb":"METAR SBEG 120900Z 21004KT 9999 BKN009 BKN070 24/23 Q1013","temp":24,"dewp":23,"wdir":210,"wspd":4,"visib":"6+","altim":1013,"clouds":[{"cover":"BKN","base":900},{"cover":"BKN","base":7000}],"obsTime":1778576400},"SBFI":{"icaoId":"SBFI","flightCategory":"LIFR","rawOb":"METAR SBFI 120900Z 18003KT 0800 R33/0350 R15/0800 FG VV003 05/05 Q1020","temp":5,"dewp":5,"wdir":180,"wspd":3,"visib":0.5,"altim":1020,"clouds":[{"cover":"OVX","base":300}],"obsTime":1778576400},"SBMA":{"icaoId":"SBMA","flightCategory":"VFR","rawOb":"METAR SBMA 120900Z 00000KT 9999 FEW012 BKN080 25/24 Q1011","temp":25,"dewp":24,"wdir":0,"wspd":0,"visib":"6+","altim":1011,"clouds":[{"cover":"FEW","base":1200},{"cover":"BKN","base":8000}],"obsTime":1778576400},"SBPB":{"icaoId":"SBPB","flightCategory":"VFR","rawOb":"SPECI SBPB 121015Z 09003KT 9999 FEW016 27/25 Q1011","temp":27,"dewp":25,"wdir":90,"wspd":3,"visib":"6+","altim":1011,"clouds":[{"cover":"FEW","base":1600}],"obsTime":1778580900},"SBCJ":{"icaoId":"SBCJ","flightCategory":"VFR","rawOb":"SPECI SBCJ 121015Z 00000KT CAVOK 22/21 Q1016","temp":22,"dewp":21,"wdir":0,"wspd":0,"visib":"6+","altim":1016,"clouds":[],"obsTime":1778580900},"SBTU":{"icaoId":"SBTU","flightCategory":"VFR","rawOb":"METAR SBTU 120900Z AUTO 28003KT 250V310 9999 // ///////// ///// Q1013","temp":null,"dewp":null,"wdir":280,"wspd":3,"visib":"6+","altim":1013,"clouds":[],"obsTime":1778576400},"SBCO":{"icaoId":"SBCO","flightCategory":"VFR","rawOb":"METAR SBCO 120900Z 26003KT CAVOK 05/04 Q1020","temp":5,"dewp":4,"wdir":260,"wspd":3,"visib":"6+","altim":1020,"clouds":[],"obsTime":1778576400},"SBSC":{"icaoId":"SBSC","flightCategory":"VFR","rawOb":"METAR SBSC 120900Z 34004KT 9999 FEW020 SCT050 17/15 Q1020","temp":17,"dewp":15,"wdir":340,"wspd":4,"visib":"6+","altim":1020,"clouds":[{"cover":"FEW","base":2000},{"cover":"SCT","base":5000}],"obsTime":1778576400},"SBBH":{"icaoId":"SBBH","flightCategory":"VFR","rawOb":"METAR SBBH 120900Z 11005KT CAVOK 19/17 Q1019","temp":19,"dewp":17,"wdir":110,"wspd":5,"visib":"6+","altim":1019,"clouds":[],"obsTime":1778576400},"SBSJ":{"icaoId":"SBSJ","flightCategory":"IFR","rawOb":"METAR SBSJ 120900Z 14003KT 3000 BR BKN006 OVC020 10/09 Q1022","temp":10,"dewp":9,"wdir":140,"wspd":3,"visib":1.86,"altim":1022,"clouds":[{"cover":"BKN","base":600},{"cover":"OVC","base":2000}],"obsTime":1778576400},"SBAX":{"icaoId":"SBAX","flightCategory":"MVFR","rawOb":"METAR SBAX 120900Z AUTO 05005KT 5000 BR NSC ///// Q1020","temp":null,"dewp":null,"wdir":50,"wspd":5,"visib":3.11,"altim":1020,"clouds":[],"obsTime":1778576400},"SBSM":{"icaoId":"SBSM","flightCategory":"VFR","rawOb":"METAR SBSM 120900Z 00000KT CAVOK 04/04 Q1020","temp":4,"dewp":4,"wdir":0,"wspd":0,"visib":"6+","altim":1020,"clouds":[],"obsTime":1778576400},"SBSR":{"icaoId":"SBSR","flightCategory":"VFR","rawOb":"METAR SBSR 120900Z 18002KT CAVOK 12/08 Q1019","temp":12,"dewp":8,"wdir":180,"wspd":2,"visib":"6+","altim":1019,"clouds":[],"obsTime":1778576400},"SBDN":{"icaoId":"SBDN","flightCategory":"VFR","rawOb":"METAR SBDN 120900Z 07003KT CAVOK 08/07 Q1019","temp":8,"dewp":7,"wdir":70,"wspd":3,"visib":"6+","altim":1019,"clouds":[],"obsTime":1778576400},"SBCA":{"icaoId":"SBCA","flightCategory":"VFR","rawOb":"METAR SBCA 120900Z 03007KT CAVOK 11/04 Q1020","temp":11,"dewp":4,"wdir":30,"wspd":7,"visib":"6+","altim":1020,"clouds":[],"obsTime":1778576400},"SBPL":{"icaoId":"SBPL","flightCategory":"MVFR","rawOb":"METAR SBPL 120900Z 10007KT 9999 BKN020 25/21 Q1015","temp":25,"dewp":21,"wdir":100,"wspd":7,"visib":"6+","altim":1015,"clouds":[{"cover":"BKN","base":2000}],"obsTime":1778576400},"SBPS":{"icaoId":"SBPS","flightCategory":"VFR","rawOb":"METAR SBPS 120900Z 26005KT 9999 SCT025 21/20 Q1016","temp":21,"dewp":20,"wdir":260,"wspd":5,"visib":"6+","altim":1016,"clouds":[{"cover":"SCT","base":2500}],"obsTime":1778576400},"SBOI":{"icaoId":"SBOI","flightCategory":"VFR","rawOb":"METAR SBOI 121000Z AUTO VRB01KT 9999 // BKN058/// OVC071/// 25/25 Q1012","temp":25,"dewp":25,"wdir":"VRB","wspd":1,"visib":"6+","altim":1012,"clouds":[{"cover":"BKN","base":5800},{"cover":"OVC","base":7100}],"obsTime":1778580000},"SBES":{"icaoId":"SBES","flightCategory":"VFR","rawOb":"METAR SBES 120900Z VRB04KT 9999 FEW020 17/// Q1020","temp":null,"dewp":null,"wdir":"VRB","wspd":4,"visib":"6+","altim":1020,"clouds":[{"cover":"FEW","base":2000}],"obsTime":1778576400},"SBAR":{"icaoId":"SBAR","flightCategory":"MVFR","rawOb":"METAR SBAR 120900Z 26003KT 230V290 9999 VCSH BKN023 SCT050 25/24 Q1014","temp":25,"dewp":24,"wdir":260,"wspd":3,"visib":"6+","altim":1014,"clouds":[{"cover":"BKN","base":2300},{"cover":"SCT","base":5000}],"obsTime":1778576400},"SBBU":{"icaoId":"SBBU","flightCategory":"VFR","rawOb":"METAR SBBU 120900Z 08004KT CAVOK 10/08 Q1020","temp":10,"dewp":8,"wdir":80,"wspd":4,"visib":"6+","altim":1020,"clouds":[],"obsTime":1778576400},"SBIP":{"icaoId":"SBIP","flightCategory":"MVFR","rawOb":"METAR SBIP 120900Z AUTO VRB02KT 8000 -RA SCT023 SCT028 21/20 Q1018","temp":21,"dewp":20,"wdir":"VRB","wspd":2,"visib":4.97,"altim":1018,"clouds":[{"cover":"SCT","base":2300},{"cover":"SCT","base":2800}],"obsTime":1778576400},"SBKG":{"icaoId":"SBKG","flightCategory":"VFR","rawOb":"METAR SBKG 120900Z 00000KT 9999 SCT018 BKN080 22/21 Q1016","temp":22,"dewp":21,"wdir":0,"wspd":0,"visib":"6+","altim":1016,"clouds":[{"cover":"SCT","base":1800},{"cover":"BKN","base":8000}],"obsTime":1778576400},"SBJV":{"icaoId":"SBJV","flightCategory":"VFR","rawOb":"METAR SBJV 120900Z 00000KT CAVOK 06/06 Q1021","temp":6,"dewp":6,"wdir":0,"wspd":0,"visib":"6+","altim":1021,"clouds":[],"obsTime":1778576400},"SBPF":{"icaoId":"SBPF","flightCategory":"VFR","rawOb":"METAR SBPF 120900Z 05008KT CAVOK 06/03 Q1020","temp":6,"dewp":3,"wdir":50,"wspd":8,"visib":"6+","altim":1020,"clouds":[],"obsTime":1778576400},"SBLE":{"icaoId":"SBLE","flightCategory":"MVFR","rawOb":"METAR SBLE 120900Z AUTO 08003KT 9999 SCT017 OVC021 ///// Q////","temp":null,"dewp":null,"wdir":80,"wspd":3,"visib":"6+","altim":null,"clouds":[{"cover":"SCT","base":1700},{"cover":"OVC","base":2100}],"obsTime":1778576400},"SBAN":{"icaoId":"SBAN","flightCategory":"LIFR","rawOb":"METAR SBAN 120900Z 24008KT 0700 0300NE R24R/P2000N R06L/P2000N FG FEW003 15/15 Q1021","temp":15,"dewp":15,"wdir":240,"wspd":8,"visib":0.43,"altim":1021,"clouds":[{"cover":"FEW","base":300}],"obsTime":1778576400},"SBAF":{"icaoId":"SBAF","flightCategory":"VFR","rawOb":"METAR SBAF 121000Z 24002KT CAVOK 14/14 Q1021","temp":14,"dewp":14,"wdir":240,"wspd":2,"visib":"6+","altim":1021,"clouds":[],"obsTime":1778580000},"SBGW":{"icaoId":"SBGW","flightCategory":"LIFR","rawOb":"METAR SBGW 120900Z 25003KT 0400 FG VV002 11/08 Q1022","temp":11,"dewp":8,"wdir":250,"wspd":3,"visib":0.25,"altim":1022,"clouds":[{"cover":"OVX","base":200}],"obsTime":1778576400},"SBJR":{"icaoId":"SBJR","flightCategory":"VFR","rawOb":"METAR SBJR 121000Z 35002KT 9999 FEW020 16/15 Q1021","temp":16,"dewp":15,"wdir":350,"wspd":2,"visib":"6+","altim":1021,"clouds":[{"cover":"FEW","base":2000}],"obsTime":1778580000},"SBLS":{"icaoId":"SBLS","flightCategory":"VFR","rawOb":"METAR SBLS 120900Z 14011KT 9000 FEW010 18/17 Q1019","temp":18,"dewp":17,"wdir":140,"wspd":11,"visib":5.59,"altim":1019,"clouds":[{"cover":"FEW","base":1000}],"obsTime":1778576400},"SBMT":{"icaoId":"SBMT","flightCategory":"IFR","rawOb":"METAR SBMT 120900Z 13002KT 9000 BKN009 10/09 Q1022","temp":10,"dewp":9,"wdir":130,"wspd":2,"visib":5.59,"altim":1022,"clouds":[{"cover":"BKN","base":900}],"obsTime":1778576400},"SBTA":{"icaoId":"SBTA","flightCategory":"LIFR","rawOb":"METAR SBTA 120900Z 19003KT 140V230 3000 BR OVC004 10/10 Q1022","temp":10,"dewp":10,"wdir":190,"wspd":3,"visib":1.86,"altim":1022,"clouds":[{"cover":"OVC","base":400}],"obsTime":1778576400},"SBJP":{"icaoId":"SBJP","flightCategory":"MVFR","rawOb":"METAR SBJP 120900Z 19010KT 9999 BKN015 BKN070 23/23 Q1013","temp":23,"dewp":23,"wdir":190,"wspd":10,"visib":"6+","altim":1013,"clouds":[{"cover":"BKN","base":1500},{"cover":"BKN","base":7000}],"obsTime":1778576400},"SBNM":{"icaoId":"SBNM","flightCategory":"VFR","rawOb":"METAR SBNM 120900Z AUTO 05006KT CAVOK 04/02 Q1021","temp":4,"dewp":2,"wdir":50,"wspd":6,"visib":"6+","altim":1021,"clouds":[],"obsTime":1778576400}}}