{"updated":1780438471,"count":83,"data":{"SBVT":{"icaoId":"SBVT","flightCategory":"VFR","rawOb":"METAR SBVT 022100Z 21011KT CAVOK 23/18 Q1020","temp":23,"dewp":18,"wdir":210,"wspd":11,"visib":"6+","altim":1020,"clouds":[],"obsTime":1780434000},"SBEG":{"icaoId":"SBEG","flightCategory":"VFR","rawOb":"METAR SBEG 022100Z 11006KT 9999 FEW025 FEW030TCU 31/23 Q1011","temp":31,"dewp":23,"wdir":110,"wspd":6,"visib":"6+","altim":1011,"clouds":[{"cover":"FEW","base":2500},{"cover":"FEW","base":3000}],"obsTime":1780434000},"SBMA":{"icaoId":"SBMA","flightCategory":"VFR","rawOb":"METAR SBMA 022100Z 00000KT 9999 FEW025TCU BKN070 28/24 Q1011","temp":28,"dewp":24,"wdir":0,"wspd":0,"visib":"6+","altim":1011,"clouds":[{"cover":"FEW","base":2500},{"cover":"BKN","base":7000}],"obsTime":1780434000},"SBME":{"icaoId":"SBME","flightCategory":"VFR","rawOb":"METAR SBME 022100Z 19006KT 9999 SCT021 BKN090 22/19 Q1022","temp":22,"dewp":19,"wdir":190,"wspd":6,"visib":"6+","altim":1022,"clouds":[{"cover":"SCT","base":2100},{"cover":"BKN","base":9000}],"obsTime":1780434000},"SBBE":{"icaoId":"SBBE","flightCategory":"MVFR","rawOb":"METAR SBBE 022100Z 01005KT 9999 VCSH BKN030 FEW035TCU 29/25 Q1012","temp":29,"dewp":25,"wdir":10,"wspd":5,"visib":"6+","altim":1012,"clouds":[{"cover":"BKN","base":3000},{"cover":"FEW","base":3500}],"obsTime":1780434000},"SBMG":{"icaoId":"SBMG","flightCategory":"VFR","rawOb":"METAR SBMG 022100Z 21005KT CAVOK 19/13 Q1022","temp":19,"dewp":13,"wdir":210,"wspd":5,"visib":"6+","altim":1022,"clouds":[],"obsTime":1780434000},"SBFI":{"icaoId":"SBFI","flightCategory":"VFR","rawOb":"METAR SBFI 022100Z 16002KT CAVOK 21/17 Q1021","temp":21,"dewp":17,"wdir":160,"wspd":2,"visib":"6+","altim":1021,"clouds":[],"obsTime":1780434000},"SBCG":{"icaoId":"SBCG","flightCategory":"VFR","rawOb":"METAR SBCG 022100Z 09009KT CAVOK 23/11 Q1020","temp":23,"dewp":11,"wdir":90,"wspd":9,"visib":"6+","altim":1020,"clouds":[],"obsTime":1780434000},"SBMK":{"icaoId":"SBMK","flightCategory":"VFR","rawOb":"METAR SBMK 022100Z 04004KT 9999 FEW046 23/15 Q1020","temp":23,"dewp":15,"wdir":40,"wspd":4,"visib":"6+","altim":1020,"clouds":[{"cover":"FEW","base":4600}],"obsTime":1780434000},"SBFL":{"icaoId":"SBFL","flightCategory":"VFR","rawOb":"METAR SBFL 022100Z 12007KT 9999 FEW035 BKN065 17/14 Q1025","temp":17,"dewp":14,"wdir":120,"wspd":7,"visib":"6+","altim":1025,"clouds":[{"cover":"FEW","base":3500},{"cover":"BKN","base":6500}],"obsTime":1780434000},"SBMO":{"icaoId":"SBMO","flightCategory":"VFR","rawOb":"METAR SBMO 022100Z 17003KT 9999 FEW025 BKN080 26/22 Q1016","temp":26,"dewp":22,"wdir":170,"wspd":3,"visib":"6+","altim":1016,"clouds":[{"cover":"FEW","base":2500},{"cover":"BKN","base":8000}],"obsTime":1780434000},"SBKP":{"icaoId":"SBKP","flightCategory":"VFR","rawOb":"METAR SBKP 022100Z 14012KT CAVOK 19/13 Q1023","temp":19,"dewp":13,"wdir":140,"wspd":12,"visib":"6+","altim":1023,"clouds":[],"obsTime":1780434000},"SBUR":{"icaoId":"SBUR","flightCategory":"VFR","rawOb":"METAR SBUR 022100Z 18004KT CAVOK 22/11 Q1021","temp":22,"dewp":11,"wdir":180,"wspd":4,"visib":"6+","altim":1021,"clouds":[],"obsTime":1780434000},"SBLO":{"icaoId":"SBLO","flightCategory":"VFR","rawOb":"METAR SBLO 022100Z 11005KT CAVOK 18/11 Q1022","temp":18,"dewp":11,"wdir":110,"wspd":5,"visib":"6+","altim":1022,"clouds":[],"obsTime":1780434000},"SBCF":{"icaoId":"SBCF","flightCategory":"VFR","rawOb":"METAR SBCF 022100Z 14008KT 9999 VCTS FEW035 FEW040CB 21/16 Q1022","temp":21,"dewp":16,"wdir":140,"wspd":8,"visib":"6+","altim":1022,"clouds":[{"cover":"FEW","base":3500},{"cover":"FEW","base":4000}],"obsTime":1780434000},"SBMQ":{"icaoId":"SBMQ","flightCategory":"VFR","rawOb":"METAR SBMQ 022100Z 08005KT 9999 VCTS FEW030 FEW040CB 29/26 Q1012","temp":29,"dewp":26,"wdir":80,"wspd":5,"visib":"6+","altim":1012,"clouds":[{"cover":"FEW","base":3000},{"cover":"FEW","base":4000}],"obsTime":1780434000},"SBNT":{"icaoId":"SBNT","flightCategory":"VFR","rawOb":"METAR SBNT 022100Z 14009KT 9999 FEW030 BKN090 27/24 Q1014","temp":27,"dewp":24,"wdir":140,"wspd":9,"visib":"6+","altim":1014,"clouds":[{"cover":"FEW","base":3000},{"cover":"BKN","base":9000}],"obsTime":1780434000},"SBFZ":{"icaoId":"SBFZ","flightCategory":"VFR","rawOb":"METAR SBFZ 022100Z 08008KT 9999 FEW020 28/23 Q1013","temp":28,"dewp":23,"wdir":80,"wspd":8,"visib":"6+","altim":1013,"clouds":[{"cover":"FEW","base":2000}],"obsTime":1780434000},"SBCP":{"icaoId":"SBCP","flightCategory":"MVFR","rawOb":"METAR SBCP 022100Z 20007KT 9999 BKN020 22/19 Q1022","temp":22,"dewp":19,"wdir":200,"wspd":7,"visib":"6+","altim":1022,"clouds":[{"cover":"BKN","base":2000}],"obsTime":1780434000},"SBPA":{"icaoId":"SBPA","flightCategory":"VFR","rawOb":"METAR SBPA 022100Z 13009KT 9999 FEW015 SCT040 17/15 Q1025","temp":17,"dewp":15,"wdir":130,"wspd":9,"visib":"6+","altim":1025,"clouds":[{"cover":"FEW","base":1500},{"cover":"SCT","base":4000}],"obsTime":1780434000},"SBGL":{"icaoId":"SBGL","flightCategory":"VFR","rawOb":"METAR SBGL 022100Z 22004KT 9999 FEW015 SCT040 21/17 Q1022","temp":21,"dewp":17,"wdir":220,"wspd":4,"visib":"6+","altim":1022,"clouds":[{"cover":"FEW","base":1500},{"cover":"SCT","base":4000}],"obsTime":1780434000},"SBPJ":{"icaoId":"SBPJ","flightCategory":"VFR","rawOb":"METAR SBPJ 022100Z 00000KT 9999 FEW045 30/22 Q1013","temp":30,"dewp":22,"wdir":0,"wspd":0,"visib":"6+","altim":1013,"clouds":[{"cover":"FEW","base":4500}],"obsTime":1780434000},"SBBV":{"icaoId":"SBBV","flightCategory":"VFR","rawOb":"METAR SBBV 022100Z 05004KT 9999 FEW030 FEW035TCU SCT080 30/23 Q1011","temp":30,"dewp":23,"wdir":50,"wspd":4,"visib":"6+","altim":1011,"clouds":[{"cover":"FEW","base":3000},{"cover":"FEW","base":3500},{"cover":"SCT","base":8000}],"obsTime":1780434000},"SBPV":{"icaoId":"SBPV","flightCategory":"VFR","rawOb":"METAR SBPV 022100Z 10005KT 9999 FEW040 33/19 Q1011","temp":33,"dewp":19,"wdir":100,"wspd":5,"visib":"6+","altim":1011,"clouds":[{"cover":"FEW","base":4000}],"obsTime":1780434000},"SBGO":{"icaoId":"SBGO","flightCategory":"VFR","rawOb":"METAR SBGO 022100Z 15005KT CAVOK 26/09 Q1020","temp":26,"dewp":9,"wdir":150,"wspd":5,"visib":"6+","altim":1020,"clouds":[],"obsTime":1780434000},"SBRB":{"icaoId":"SBRB","flightCategory":"VFR","rawOb":"METAR SBRB 022100Z 06004KT 9999 SCT040 31/22 Q1012","temp":31,"dewp":22,"wdir":60,"wspd":4,"visib":"6+","altim":1012,"clouds":[{"cover":"SCT","base":4000}],"obsTime":1780434000},"SBRF":{"icaoId":"SBRF","flightCategory":"IFR","rawOb":"METAR SBRF 022100Z 18008KT 4000 -RA BR BKN015 BKN060 25/24 Q1015","temp":25,"dewp":24,"wdir":180,"wspd":8,"visib":2.49,"altim":1015,"clouds":[{"cover":"BKN","base":1500},{"cover":"BKN","base":6000}],"obsTime":1780434000},"SBGR":{"icaoId":"SBGR","flightCategory":"VFR","rawOb":"METAR SBGR 022100Z 15007KT 9999 SCT017 BKN033 16/13 Q1025","temp":16,"dewp":13,"wdir":150,"wspd":7,"visib":"6+","altim":1025,"clouds":[{"cover":"SCT","base":1700},{"cover":"BKN","base":3300}],"obsTime":1780434000},"SBSG":{"icaoId":"SBSG","flightCategory":"VFR","rawOb":"METAR SBSG 022100Z 12004KT 100V160 9999 VCSH SCT025 BKN080 27/24 Q1014","temp":27,"dewp":24,"wdir":120,"wspd":4,"visib":"6+","altim":1014,"clouds":[{"cover":"SCT","base":2500},{"cover":"BKN","base":8000}],"obsTime":1780434000},"SBSL":{"icaoId":"SBSL","flightCategory":"VFR","rawOb":"METAR SBSL 022100Z 09005KT 9999 FEW020 FEW025TCU SCT100 25/24 Q1013","temp":25,"dewp":24,"wdir":90,"wspd":5,"visib":"6+","altim":1013,"clouds":[{"cover":"FEW","base":2000},{"cover":"FEW","base":2500},{"cover":"SCT","base":10000}],"obsTime":1780434000},"SBSN":{"icaoId":"SBSN","flightCategory":"MVFR","rawOb":"METAR SBSN 022100Z 17008KT 9999 VCSH VCTS BKN015 FEW025CB 27/23 Q1012","temp":27,"dewp":23,"wdir":170,"wspd":8,"visib":"6+","altim":1012,"clouds":[{"cover":"BKN","base":1500},{"cover":"FEW","base":2500}],"obsTime":1780434000},"SBIL":{"icaoId":"SBIL","flightCategory":"MVFR","rawOb":"METAR SBIL 022100Z 18004KT 5000 -RA SCT016 BKN020 BKN070 26/24 Q1019","temp":26,"dewp":24,"wdir":180,"wspd":4,"visib":3.11,"altim":1019,"clouds":[{"cover":"SCT","base":1600},{"cover":"BKN","base":2000},{"cover":"BKN","base":7000}],"obsTime":1780434000},"SBCT":{"icaoId":"SBCT","flightCategory":"VFR","rawOb":"METAR SBCT 022100Z 10005KT 9999 SCT006 12/11 Q1026","temp":12,"dewp":11,"wdir":100,"wspd":5,"visib":"6+","altim":1026,"clouds":[{"cover":"SCT","base":600}],"obsTime":1780434000},"SBSP":{"icaoId":"SBSP","flightCategory":"MVFR","rawOb":"METAR SBSP 022100Z 14010KT 9999 BKN013 16/13 Q1026","temp":16,"dewp":13,"wdir":140,"wspd":10,"visib":"6+","altim":1026,"clouds":[{"cover":"BKN","base":1300}],"obsTime":1780434000},"SBJU":{"icaoId":"SBJU","flightCategory":"VFR","rawOb":"METAR SBJU 022100Z 00000KT CAVOK 28/20 Q1015","temp":28,"dewp":20,"wdir":0,"wspd":0,"visib":"6+","altim":1015,"clouds":[],"obsTime":1780434000},"SBSV":{"icaoId":"SBSV","flightCategory":"VFR","rawOb":"METAR SBSV 022100Z 14005KT 110V210 9999 SCT020 SCT070 26/23 Q1017","temp":26,"dewp":23,"wdir":140,"wspd":5,"visib":"6+","altim":1017,"clouds":[{"cover":"SCT","base":2000},{"cover":"SCT","base":7000}],"obsTime":1780434000},"SBCZ":{"icaoId":"SBCZ","flightCategory":"VFR","rawOb":"METAR SBCZ 022100Z 36004KT 9999 SCT030 30/24 Q1011","temp":30,"dewp":24,"wdir":360,"wspd":4,"visib":"6+","altim":1011,"clouds":[{"cover":"SCT","base":3000}],"obsTime":1780434000},"SBTE":{"icaoId":"SBTE","flightCategory":"VFR","rawOb":"METAR SBTE 022100Z 17003KT 9999 FEW025 32/22 Q1012","temp":32,"dewp":22,"wdir":170,"wspd":3,"visib":"6+","altim":1012,"clouds":[{"cover":"FEW","base":2500}],"obsTime":1780434000},"SBUL":{"icaoId":"SBUL","flightCategory":"VFR","rawOb":"METAR SBUL 022100Z 24006KT 200V260 CAVOK 22/09 Q1022","temp":22,"dewp":9,"wdir":240,"wspd":6,"visib":"6+","altim":1022,"clouds":[],"obsTime":1780434000},"SBBR":{"icaoId":"SBBR","flightCategory":"VFR","rawOb":"METAR SBBR 022100Z 15004KT 120V180 CAVOK 24/13 Q1021","temp":24,"dewp":13,"wdir":150,"wspd":4,"visib":"6+","altim":1021,"clouds":[],"obsTime":1780434000},"SBCB":{"icaoId":"SBCB","flightCategory":"MVFR","rawOb":"METAR SBCB 022100Z /////KT 9999 BKN025 21/16 Q1022","temp":21,"dewp":16,"wdir":null,"wspd":null,"visib":"6+","altim":1022,"clouds":[{"cover":"BKN","base":2500}],"obsTime":1780434000},"SBCR":{"icaoId":"SBCR","flightCategory":"VFR","rawOb":"METAR SBCR 022100Z 10006KT CAVOK 30/16 Q1016","temp":30,"dewp":16,"wdir":100,"wspd":6,"visib":"6+","altim":1016,"clouds":[],"obsTime":1780434000},"SBHT":{"icaoId":"SBHT","flightCategory":"VFR","rawOb":"METAR SBHT 022100Z 10008KT 9999 SCT030 29/24 Q1012","temp":29,"dewp":24,"wdir":100,"wspd":8,"visib":"6+","altim":1012,"clouds":[{"cover":"SCT","base":3000}],"obsTime":1780434000},"SBAT":{"icaoId":"SBAT","flightCategory":"VFR","rawOb":"METAR SBAT 022100Z 00000KT 9999 SCT035 29/21 Q1013","temp":29,"dewp":21,"wdir":0,"wspd":0,"visib":"6+","altim":1013,"clouds":[{"cover":"SCT","base":3500}],"obsTime":1780434000},"SBCO":{"icaoId":"SBCO","flightCategory":"VFR","rawOb":"METAR SBCO 022100Z 12007KT 9999 FEW010 SCT036 16/14 Q1025","temp":16,"dewp":14,"wdir":120,"wspd":7,"visib":"6+","altim":1025,"clouds":[{"cover":"FEW","base":1000},{"cover":"SCT","base":3600}],"obsTime":1780434000},"SBBU":{"icaoId":"SBBU","flightCategory":"VFR","rawOb":"METAR SBBU 022100Z 13006KT CAVOK 19/13 Q1022","temp":19,"dewp":13,"wdir":130,"wspd":6,"visib":"6+","altim":1022,"clouds":[],"obsTime":1780434000},"SBPL":{"icaoId":"SBPL","flightCategory":"VFR","rawOb":"METAR SBPL 022100Z 12010KT 9999 FEW030 29/18 Q1015","temp":29,"dewp":18,"wdir":120,"wspd":10,"visib":"6+","altim":1015,"clouds":[{"cover":"FEW","base":3000}],"obsTime":1780434000},"SBDN":{"icaoId":"SBDN","flightCategory":"VFR","rawOb":"METAR SBDN 022100Z 15003KT 9999 FEW045 20/11 Q1022","temp":20,"dewp":11,"wdir":150,"wspd":3,"visib":"6+","altim":1022,"clouds":[{"cover":"FEW","base":4500}],"obsTime":1780434000},"SBAR":{"icaoId":"SBAR","flightCategory":"VFR","rawOb":"METAR SBAR 022100Z 12006KT 9999 FEW026 27/21 Q1016","temp":27,"dewp":21,"wdir":120,"wspd":6,"visib":"6+","altim":1016,"clouds":[{"cover":"FEW","base":2600}],"obsTime":1780434000},"SBPS":{"icaoId":"SBPS","flightCategory":"VFR","rawOb":"METAR SBPS 022100Z 16004KT 090V220 9999 SCT020 BKN100 25/21 Q1020","temp":25,"dewp":21,"wdir":160,"wspd":4,"visib":"6+","altim":1020,"clouds":[{"cover":"SCT","base":2000},{"cover":"BKN","base":10000}],"obsTime":1780434000},"SBCA":{"icaoId":"SBCA","flightCategory":"VFR","rawOb":"METAR SBCA 022100Z 07003KT CAVOK 19/13 Q1024","temp":19,"dewp":13,"wdir":70,"wspd":3,"visib":"6+","altim":1024,"clouds":[],"obsTime":1780434000},"SBSC":{"icaoId":"SBSC","flightCategory":"MVFR","rawOb":"METAR SBSC 022100Z 00000KT 8000 SCT020 BKN030 OVC040 20/18 Q1023","temp":20,"dewp":18,"wdir":0,"wspd":0,"visib":4.97,"altim":1023,"clouds":[{"cover":"SCT","base":2000},{"cover":"BKN","base":3000},{"cover":"OVC","base":4000}],"obsTime":1780434000},"SBIP":{"icaoId":"SBIP","flightCategory":"VFR","rawOb":"METAR SBIP 022100Z AUTO 22001KT CAVOK 19/18 Q1020","temp":19,"dewp":18,"wdir":220,"wspd":1,"visib":"6+","altim":1020,"clouds":[],"obsTime":1780434000},"SBSJ":{"icaoId":"SBSJ","flightCategory":"VFR","rawOb":"METAR SBSJ 022100Z 18009KT 9999 BKN040 18/13 Q1024","temp":18,"dewp":13,"wdir":180,"wspd":9,"visib":"6+","altim":1024,"clouds":[{"cover":"BKN","base":4000}],"obsTime":1780434000},"SBSM":{"icaoId":"SBSM","flightCategory":"VFR","rawOb":"METAR SBSM 022100Z 11003KT 9999 FEW025 14/12 Q1024","temp":14,"dewp":12,"wdir":110,"wspd":3,"visib":"6+","altim":1024,"clouds":[{"cover":"FEW","base":2500}],"obsTime":1780434000},"SBBH":{"icaoId":"SBBH","flightCategory":"VFR","rawOb":"METAR SBBH 022100Z 10006KT CAVOK 21/15 Q1022","temp":21,"dewp":15,"wdir":100,"wspd":6,"visib":"6+","altim":1022,"clouds":[],"obsTime":1780434000},"SBSR":{"icaoId":"SBSR","flightCategory":"VFR","rawOb":"METAR SBSR 022100Z 21005KT 180V240 CAVOK 22/08 Q1021","temp":22,"dewp":8,"wdir":210,"wspd":5,"visib":"6+","altim":1021,"clouds":[],"obsTime":1780434000},"SBKG":{"icaoId":"SBKG","flightCategory":"VFR","rawOb":"METAR SBKG 022100Z 15008KT 110V170 9999 FEW020 BKN080 24/21 Q1017","temp":24,"dewp":21,"wdir":150,"wspd":8,"visib":"6+","altim":1017,"clouds":[{"cover":"FEW","base":2000},{"cover":"BKN","base":8000}],"obsTime":1780434000},"SBAX":{"icaoId":"SBAX","flightCategory":"VFR","rawOb":"METAR SBAX 022100Z 24004KT CAVOK 22/08 Q1022","temp":22,"dewp":8,"wdir":240,"wspd":4,"visib":"6+","altim":1022,"clouds":[],"obsTime":1780434000},"SBTF":{"icaoId":"SBTF","flightCategory":"VFR","rawOb":"METAR SBTF 022100Z 27003KT 9999 FEW020 27/25 Q1010","temp":27,"dewp":25,"wdir":270,"wspd":3,"visib":"6+","altim":1010,"clouds":[{"cover":"FEW","base":2000}],"obsTime":1780434000},"SBCJ":{"icaoId":"SBCJ","flightCategory":"VFR","rawOb":"METAR SBCJ 022100Z 00000KT CAVOK 26/21 Q1016","temp":26,"dewp":21,"wdir":0,"wspd":0,"visib":"6+","altim":1016,"clouds":[],"obsTime":1780434000},"SBTT":{"icaoId":"SBTT","flightCategory":"VFR","rawOb":"METAR SBTT 022100Z 25003KT 9999 FEW030 BKN100 28/23 Q1011","temp":28,"dewp":23,"wdir":250,"wspd":3,"visib":"6+","altim":1011,"clouds":[{"cover":"FEW","base":3000},{"cover":"BKN","base":10000}],"obsTime":1780434000},"SBTU":{"icaoId":"SBTU","flightCategory":"VFR","rawOb":"METAR SBTU 022200Z AUTO 12002KT 9999 // FEW058/// ///// Q1014","temp":null,"dewp":null,"wdir":120,"wspd":2,"visib":"6+","altim":1014,"clouds":[{"cover":"FEW","base":5800}],"obsTime":1780437600},"SBOI":{"icaoId":"SBOI","flightCategory":"VFR","rawOb":"METAR SBOI 022100Z AUTO 01006KT 9999 FEW026 SCT030 27/25 Q1012","temp":27,"dewp":25,"wdir":10,"wspd":6,"visib":"6+","altim":1012,"clouds":[{"cover":"FEW","base":2600},{"cover":"SCT","base":3000}],"obsTime":1780434000},"SBUY":{"icaoId":"SBUY","flightCategory":"VFR","rawOb":"METAR SBUY 022100Z 19002KT 9999 VCSH SCT030 FEW035TCU 27/26 Q1009","temp":27,"dewp":26,"wdir":190,"wspd":2,"visib":"6+","altim":1009,"clouds":[{"cover":"SCT","base":3000},{"cover":"FEW","base":3500}],"obsTime":1780434000},"SBVH":{"icaoId":"SBVH","flightCategory":"VFR","rawOb":"METAR SBVH 022100Z 07004KT 9999 FEW030 26/19 Q1016","temp":26,"dewp":19,"wdir":70,"wspd":4,"visib":"6+","altim":1016,"clouds":[{"cover":"FEW","base":3000}],"obsTime":1780434000},"SBPB":{"icaoId":"SBPB","flightCategory":"VFR","rawOb":"METAR SBPB 022100Z 08008KT 9999 FEW020 29/25 Q1013","temp":29,"dewp":25,"wdir":80,"wspd":8,"visib":"6+","altim":1013,"clouds":[{"cover":"FEW","base":2000}],"obsTime":1780434000},"SBES":{"icaoId":"SBES","flightCategory":"MVFR","rawOb":"METAR SBES 022100Z VRB02KT 8000 -RA BKN018 OVC030 19/// Q1022","temp":null,"dewp":null,"wdir":"VRB","wspd":2,"visib":4.97,"altim":1022,"clouds":[{"cover":"BKN","base":1800},{"cover":"OVC","base":3000}],"obsTime":1780434000},"SBPP":{"icaoId":"SBPP","flightCategory":"VFR","rawOb":"METAR SBPP 022100Z 20006KT CAVOK 20/15 Q1021","temp":20,"dewp":15,"wdir":200,"wspd":6,"visib":"6+","altim":1021,"clouds":[],"obsTime":1780434000},"SBAN":{"icaoId":"SBAN","flightCategory":"VFR","rawOb":"METAR SBAN 022100Z 18005KT CAVOK 22/09 Q1022","temp":22,"dewp":9,"wdir":180,"wspd":5,"visib":"6+","altim":1022,"clouds":[],"obsTime":1780434000},"SBAF":{"icaoId":"SBAF","flightCategory":"VFR","rawOb":"METAR SBAF 022100Z 23003KT 9999 SCT011 BKN060 20/20 Q1023","temp":20,"dewp":20,"wdir":230,"wspd":3,"visib":"6+","altim":1023,"clouds":[{"cover":"SCT","base":1100},{"cover":"BKN","base":6000}],"obsTime":1780434000},"SBGW":{"icaoId":"SBGW","flightCategory":"VFR","rawOb":"METAR SBGW 022100Z 09002KT 9999 BKN040 18/12 Q1023","temp":18,"dewp":12,"wdir":90,"wspd":2,"visib":"6+","altim":1023,"clouds":[{"cover":"BKN","base":4000}],"obsTime":1780434000},"SBJR":{"icaoId":"SBJR","flightCategory":"VFR","rawOb":"METAR SBJR 022100Z 21002KT 9999 FEW012 SCT015 BKN050 21/19 Q1023","temp":21,"dewp":19,"wdir":210,"wspd":2,"visib":"6+","altim":1023,"clouds":[{"cover":"FEW","base":1200},{"cover":"SCT","base":1500},{"cover":"BKN","base":5000}],"obsTime":1780434000},"SBLS":{"icaoId":"SBLS","flightCategory":"VFR","rawOb":"METAR SBLS 022100Z 15008KT 9999 VCTS FEW030 FEW035CB SCT080 20/16 Q1022","temp":20,"dewp":16,"wdir":150,"wspd":8,"visib":"6+","altim":1022,"clouds":[{"cover":"FEW","base":3000},{"cover":"FEW","base":3500},{"cover":"SCT","base":8000}],"obsTime":1780434000},"SBMT":{"icaoId":"SBMT","flightCategory":"MVFR","rawOb":"METAR SBMT 022100Z 15008KT 9999 BKN020 16/12 Q1025","temp":16,"dewp":12,"wdir":150,"wspd":8,"visib":"6+","altim":1025,"clouds":[{"cover":"BKN","base":2000}],"obsTime":1780434000},"SBTA":{"icaoId":"SBTA","flightCategory":"VFR","rawOb":"METAR SBTA 022100Z 16006KT 9999 FEW035 BKN050 BKN070 19/13 Q1023","temp":19,"dewp":13,"wdir":160,"wspd":6,"visib":"6+","altim":1023,"clouds":[{"cover":"FEW","base":3500},{"cover":"BKN","base":5000},{"cover":"BKN","base":7000}],"obsTime":1780434000},"SBJV":{"icaoId":"SBJV","flightCategory":"VFR","rawOb":"METAR SBJV 022100Z 14004KT 9999 FEW025 BKN060 18/14 Q1025","temp":18,"dewp":14,"wdir":140,"wspd":4,"visib":"6+","altim":1025,"clouds":[{"cover":"FEW","base":2500},{"cover":"BKN","base":6000}],"obsTime":1780434000},"SBNM":{"icaoId":"SBNM","flightCategory":"VFR","rawOb":"METAR SBNM 022100Z AUTO 14005KT CAVOK 16/14 Q1023","temp":16,"dewp":14,"wdir":140,"wspd":5,"visib":"6+","altim":1023,"clouds":[],"obsTime":1780434000},"SBPF":{"icaoId":"SBPF","flightCategory":"VFR","rawOb":"METAR SBPF 022100Z 16007KT CAVOK 16/12 Q1025","temp":16,"dewp":12,"wdir":160,"wspd":7,"visib":"6+","altim":1025,"clouds":[],"obsTime":1780434000},"SBLE":{"icaoId":"SBLE","flightCategory":"VFR","rawOb":"METAR SBLE 022100Z AUTO VRB01KT 9999 SCT039 BKN047 25/23 Q1019","temp":25,"dewp":23,"wdir":"VRB","wspd":1,"visib":"6+","altim":1019,"clouds":[{"cover":"SCT","base":3900},{"cover":"BKN","base":4700}],"obsTime":1780434000},"SBJP":{"icaoId":"SBJP","flightCategory":"VFR","rawOb":"METAR SBJP 022100Z 15008KT CAVOK 25/23 Q1015","temp":25,"dewp":23,"wdir":150,"wspd":8,"visib":"6+","altim":1015,"clouds":[],"obsTime":1780434000},"SBST":{"icaoId":"SBST","flightCategory":"MVFR","rawOb":"METAR SBST 022100Z 11002KT 5000 BR OVC013 19/19 Q1023","temp":19,"dewp":19,"wdir":110,"wspd":2,"visib":3.11,"altim":1023,"clouds":[{"cover":"OVC","base":1300}],"obsTime":1780434000},"SBIH":{"icaoId":"SBIH","flightCategory":"VFR","rawOb":"METAR SBIH 022100Z 00000KT 9999 FEW018 27/25 Q1011","temp":27,"dewp":25,"wdir":0,"wspd":0,"visib":"6+","altim":1011,"clouds":[{"cover":"FEW","base":1800}],"obsTime":1780434000}}}