{"updated":1776157051,"count":51,"data":{"SBMG":{"icaoId":"SBMG","flightCategory":"VFR","rawOb":"METAR SBMG 140700Z AUTO 16004KT CAVOK 19/18 Q1015","temp":19,"dewp":18,"wdir":160,"wspd":4,"visib":"6+","altim":1015,"clouds":[],"obsTime":1776150000},"SBFZ":{"icaoId":"SBFZ","flightCategory":"MVFR","rawOb":"METAR SBFZ 140700Z 19006KT 9999 BKN020 BKN090 25/24 Q1008","temp":25,"dewp":24,"wdir":190,"wspd":6,"visib":"6+","altim":1008,"clouds":[{"cover":"BKN","base":2000},{"cover":"BKN","base":9000}],"obsTime":1776150000},"SBMO":{"icaoId":"SBMO","flightCategory":"VFR","rawOb":"METAR SBMO 140700Z 31003KT 9999 SCT017 23/23 Q1010","temp":23,"dewp":23,"wdir":310,"wspd":3,"visib":"6+","altim":1010,"clouds":[{"cover":"SCT","base":1700}],"obsTime":1776150000},"SBBV":{"icaoId":"SBBV","flightCategory":"VFR","rawOb":"METAR SBBV 140700Z 09011KT 9999 FEW040 BKN100 27/22 Q1009","temp":27,"dewp":22,"wdir":90,"wspd":11,"visib":"6+","altim":1009,"clouds":[{"cover":"FEW","base":4000},{"cover":"BKN","base":10000}],"obsTime":1776150000},"SBMQ":{"icaoId":"SBMQ","flightCategory":"MVFR","rawOb":"METAR SBMQ 140700Z 22003KT 9999 -RA FEW003 BKN015 OVC026 25/25 Q1009","temp":25,"dewp":25,"wdir":220,"wspd":3,"visib":"6+","altim":1009,"clouds":[{"cover":"FEW","base":300},{"cover":"BKN","base":1500},{"cover":"OVC","base":2600}],"obsTime":1776150000},"SBGL":{"icaoId":"SBGL","flightCategory":"VFR","rawOb":"METAR SBGL 140700Z 06002KT 9999 FEW030 21/19 Q1015","temp":21,"dewp":19,"wdir":60,"wspd":2,"visib":"6+","altim":1015,"clouds":[{"cover":"FEW","base":3000}],"obsTime":1776150000},"SBNT":{"icaoId":"SBNT","flightCategory":"MVFR","rawOb":"METAR SBNT 140700Z 17005KT 9999 BKN020 BKN100 25/24 Q1014","temp":25,"dewp":24,"wdir":170,"wspd":5,"visib":"6+","altim":1014,"clouds":[{"cover":"BKN","base":2000},{"cover":"BKN","base":10000}],"obsTime":1776150000},"SBPA":{"icaoId":"SBPA","flightCategory":"LIFR","rawOb":"METAR SBPA 140700Z 09006KT 2800 BR OVC003 21/20 Q1015","temp":21,"dewp":20,"wdir":90,"wspd":6,"visib":1.74,"altim":1015,"clouds":[{"cover":"OVC","base":300}],"obsTime":1776150000},"SBCT":{"icaoId":"SBCT","flightCategory":"IFR","rawOb":"METAR SBCT 140700Z 10003KT 4000 BR BKN012 15/15 Q1020","temp":15,"dewp":15,"wdir":100,"wspd":3,"visib":2.49,"altim":1020,"clouds":[{"cover":"BKN","base":1200}],"obsTime":1776150000},"SBGO":{"icaoId":"SBGO","flightCategory":"VFR","rawOb":"METAR SBGO 140700Z VRB02KT CAVOK 20/19 Q1015","temp":20,"dewp":19,"wdir":"VRB","wspd":2,"visib":"6+","altim":1015,"clouds":[],"obsTime":1776150000},"SBPJ":{"icaoId":"SBPJ","flightCategory":"VFR","rawOb":"METAR SBPJ 140700Z VRB06KT 9000 TS VCSH FEW027CB SCT033 27/23 Q1010","temp":27,"dewp":23,"wdir":"VRB","wspd":6,"visib":5.59,"altim":1010,"clouds":[{"cover":"FEW","base":2700},{"cover":"SCT","base":3300}],"obsTime":1776150000},"SBBR":{"icaoId":"SBBR","flightCategory":"MVFR","rawOb":"METAR SBBR 140700Z 00000KT 7000 FEW015 18/17 Q1017","temp":18,"dewp":17,"wdir":0,"wspd":0,"visib":4.35,"altim":1017,"clouds":[{"cover":"FEW","base":1500}],"obsTime":1776150000},"SBPV":{"icaoId":"SBPV","flightCategory":"IFR","rawOb":"METAR SBPV 140700Z 00000KT 9999 BKN006 SCT030 FEW040TCU 24/23 Q1009","temp":24,"dewp":23,"wdir":0,"wspd":0,"visib":"6+","altim":1009,"clouds":[{"cover":"BKN","base":600},{"cover":"SCT","base":3000},{"cover":"FEW","base":4000}],"obsTime":1776150000},"SBGR":{"icaoId":"SBGR","flightCategory":"IFR","rawOb":"METAR SBGR 140700Z 00000KT 7000 BKN008 16/16 Q1018","temp":16,"dewp":16,"wdir":0,"wspd":0,"visib":4.35,"altim":1018,"clouds":[{"cover":"BKN","base":800}],"obsTime":1776150000},"SBRB":{"icaoId":"SBRB","flightCategory":"IFR","rawOb":"METAR SBRB 140700Z 35003KT 9999 BKN005 BKN090 24/24 Q1009","temp":24,"dewp":24,"wdir":350,"wspd":3,"visib":"6+","altim":1009,"clouds":[{"cover":"BKN","base":500},{"cover":"BKN","base":9000}],"obsTime":1776150000},"SBJU":{"icaoId":"SBJU","flightCategory":"VFR","rawOb":"METAR SBJU 140700Z 18007KT 9999 SCT018 24/22 Q1011","temp":24,"dewp":22,"wdir":180,"wspd":7,"visib":"6+","altim":1011,"clouds":[{"cover":"SCT","base":1800}],"obsTime":1776150000},"SBRF":{"icaoId":"SBRF","flightCategory":"MVFR","rawOb":"METAR SBRF 140700Z 21005KT 7000 -RA BKN020 FEW025TCU BKN050 25/24 Q1009","temp":25,"dewp":24,"wdir":210,"wspd":5,"visib":4.35,"altim":1009,"clouds":[{"cover":"BKN","base":2000},{"cover":"FEW","base":2500},{"cover":"BKN","base":5000}],"obsTime":1776150000},"SBEG":{"icaoId":"SBEG","flightCategory":"VFR","rawOb":"METAR SBEG 140700Z 33002KT 9999 FEW010 SCT100 24/24 Q1009","temp":24,"dewp":24,"wdir":330,"wspd":2,"visib":"6+","altim":1009,"clouds":[{"cover":"FEW","base":1000},{"cover":"SCT","base":10000}],"obsTime":1776150000},"SBSG":{"icaoId":"SBSG","flightCategory":"VFR","rawOb":"METAR SBSG 140700Z 18003KT 9999 FEW004 SCT023 24/24 Q1009","temp":24,"dewp":24,"wdir":180,"wspd":3,"visib":"6+","altim":1009,"clouds":[{"cover":"FEW","base":400},{"cover":"SCT","base":2300}],"obsTime":1776150000},"SBCF":{"icaoId":"SBCF","flightCategory":"VFR","rawOb":"METAR SBCF 140700Z 18002KT CAVOK 17/16 Q1018","temp":17,"dewp":16,"wdir":180,"wspd":2,"visib":"6+","altim":1018,"clouds":[],"obsTime":1776150000},"SBSL":{"icaoId":"SBSL","flightCategory":"VFR","rawOb":"METAR SBSL 140700Z 13002KT 9999 SCT020 BKN100 25/25 Q1008","temp":25,"dewp":25,"wdir":130,"wspd":2,"visib":"6+","altim":1008,"clouds":[{"cover":"SCT","base":2000},{"cover":"BKN","base":10000}],"obsTime":1776150000},"SBMK":{"icaoId":"SBMK","flightCategory":"VFR","rawOb":"METAR SBMK 140800Z 00000KT CAVOK 17/16 Q1016","temp":17,"dewp":16,"wdir":0,"wspd":0,"visib":"6+","altim":1016,"clouds":[],"obsTime":1776153600},"SBKP":{"icaoId":"SBKP","flightCategory":"VFR","rawOb":"METAR SBKP 140700Z 13009KT CAVOK 19/17 Q1016","temp":19,"dewp":17,"wdir":130,"wspd":9,"visib":"6+","altim":1016,"clouds":[],"obsTime":1776150000},"SBSN":{"icaoId":"SBSN","flightCategory":"VFR","rawOb":"METAR SBSN 140700Z 13005KT 080V140 9999 FEW007 SCT035 BKN100 25/24 Q1009","temp":25,"dewp":24,"wdir":130,"wspd":5,"visib":"6+","altim":1009,"clouds":[{"cover":"FEW","base":700},{"cover":"SCT","base":3500},{"cover":"BKN","base":10000}],"obsTime":1776150000},"SBSP":{"icaoId":"SBSP","flightCategory":"VFR","rawOb":"METAR SBSP 140700Z AUTO 16005KT 9000 NCD 17/16 Q1018","temp":17,"dewp":16,"wdir":160,"wspd":5,"visib":5.59,"altim":1018,"clouds":[],"obsTime":1776150000},"SBFI":{"icaoId":"SBFI","flightCategory":"VFR","rawOb":"METAR SBFI 140700Z 13004KT CAVOK 21/21 Q1012","temp":21,"dewp":21,"wdir":130,"wspd":4,"visib":"6+","altim":1012,"clouds":[],"obsTime":1776150000},"SBLO":{"icaoId":"SBLO","flightCategory":"VFR","rawOb":"METAR SBLO 140700Z 14004KT CAVOK 19/18 Q1016","temp":19,"dewp":18,"wdir":140,"wspd":4,"visib":"6+","altim":1016,"clouds":[],"obsTime":1776150000},"SBSV":{"icaoId":"SBSV","flightCategory":"VFR","rawOb":"METAR SBSV 140700Z 15020KT 130V200 9999 FEW015 BKN060 26/22 Q1011","temp":26,"dewp":22,"wdir":150,"wspd":20,"visib":"6+","altim":1011,"clouds":[{"cover":"FEW","base":1500},{"cover":"BKN","base":6000}],"obsTime":1776150000},"SBMA":{"icaoId":"SBMA","flightCategory":"VFR","rawOb":"METAR SBMA 140700Z 14003KT 9999 FEW008 SCT012 FEW023TCU BKN080 25/24 Q1009","temp":25,"dewp":24,"wdir":140,"wspd":3,"visib":"6+","altim":1009,"clouds":[{"cover":"FEW","base":800},{"cover":"SCT","base":1200},{"cover":"FEW","base":2300},{"cover":"BKN","base":8000}],"obsTime":1776150000},"SBTE":{"icaoId":"SBTE","flightCategory":"VFR","rawOb":"METAR SBTE 140700Z 00000KT 9999 FEW010 BKN070 24/23 Q1008","temp":24,"dewp":23,"wdir":0,"wspd":0,"visib":"6+","altim":1008,"clouds":[{"cover":"FEW","base":1000},{"cover":"BKN","base":7000}],"obsTime":1776150000},"SBBE":{"icaoId":"SBBE","flightCategory":"VFR","rawOb":"METAR SBBE 140700Z 12002KT CAVOK 24/24 Q1008","temp":24,"dewp":24,"wdir":120,"wspd":2,"visib":"6+","altim":1008,"clouds":[],"obsTime":1776150000},"SBUL":{"icaoId":"SBUL","flightCategory":"VFR","rawOb":"METAR SBUL 140700Z 13006KT 9999 FEW030 19/16 Q1017","temp":19,"dewp":16,"wdir":130,"wspd":6,"visib":"6+","altim":1017,"clouds":[{"cover":"FEW","base":3000}],"obsTime":1776150000},"SBFL":{"icaoId":"SBFL","flightCategory":"VFR","rawOb":"METAR SBFL 140700Z 32002KT 9999 FEW020 BKN055 21/21 Q1016","temp":21,"dewp":21,"wdir":320,"wspd":2,"visib":"6+","altim":1016,"clouds":[{"cover":"FEW","base":2000},{"cover":"BKN","base":5500}],"obsTime":1776150000},"SBUR":{"icaoId":"SBUR","flightCategory":"VFR","rawOb":"METAR SBUR 140700Z 26003KT CAVOK 19/15 Q1016","temp":19,"dewp":15,"wdir":260,"wspd":3,"visib":"6+","altim":1016,"clouds":[],"obsTime":1776150000},"SBME":{"icaoId":"SBME","flightCategory":"VFR","rawOb":"METAR SBME 140700Z 31004KT CAVOK 20/19 Q1014","temp":20,"dewp":19,"wdir":310,"wspd":4,"visib":"6+","altim":1014,"clouds":[],"obsTime":1776150000},"SBVT":{"icaoId":"SBVT","flightCategory":"VFR","rawOb":"METAR SBVT 140700Z 00000KT CAVOK 19/19 Q1014","temp":19,"dewp":19,"wdir":0,"wspd":0,"visib":"6+","altim":1014,"clouds":[],"obsTime":1776150000},"SBCG":{"icaoId":"SBCG","flightCategory":"VFR","rawOb":"METAR SBCG 140700Z 07009KT 9999 FEW005 22/20 Q1014","temp":22,"dewp":20,"wdir":70,"wspd":9,"visib":"6+","altim":1014,"clouds":[{"cover":"FEW","base":500}],"obsTime":1776150000},"SBSJ":{"icaoId":"SBSJ","flightCategory":"MVFR","rawOb":"SPECI SBSJ 140830Z 11006KT 7000 BKN020 19/16 Q1018","temp":19,"dewp":16,"wdir":110,"wspd":6,"visib":4.35,"altim":1018,"clouds":[{"cover":"BKN","base":2000}],"obsTime":1776155400},"SBAR":{"icaoId":"SBAR","flightCategory":"VFR","rawOb":"METAR SBAR 140700Z 06005KT 9999 VCSH FEW007 SCT040 OVC070 24/23 Q1010 RESHRA","temp":24,"dewp":23,"wdir":60,"wspd":5,"visib":"6+","altim":1010,"clouds":[{"cover":"FEW","base":700},{"cover":"SCT","base":4000},{"cover":"OVC","base":7000}],"obsTime":1776150000},"SBPL":{"icaoId":"SBPL","flightCategory":"VFR","rawOb":"METAR SBPL 140700Z 13008KT CAVOK 24/20 Q1012","temp":24,"dewp":20,"wdir":130,"wspd":8,"visib":"6+","altim":1012,"clouds":[],"obsTime":1776150000},"SBES":{"icaoId":"SBES","flightCategory":"VFR","rawOb":"METAR SBES 140700Z 00000KT 9999 FEW030 16/// Q1015","temp":null,"dewp":null,"wdir":0,"wspd":0,"visib":"6+","altim":1015,"clouds":[{"cover":"FEW","base":3000}],"obsTime":1776150000},"SBPS":{"icaoId":"SBPS","flightCategory":"MVFR","rawOb":"METAR SBPS 140700Z 24004KT 9999 BKN025 22/21 Q1013","temp":22,"dewp":21,"wdir":240,"wspd":4,"visib":"6+","altim":1013,"clouds":[{"cover":"BKN","base":2500}],"obsTime":1776150000},"SBSC":{"icaoId":"SBSC","flightCategory":"MVFR","rawOb":"METAR SBSC 140700Z 36006KT 8000 FEW015 SCT040 19/18 Q1015","temp":19,"dewp":18,"wdir":360,"wspd":6,"visib":4.97,"altim":1015,"clouds":[{"cover":"FEW","base":1500},{"cover":"SCT","base":4000}],"obsTime":1776150000},"SBAX":{"icaoId":"SBAX","flightCategory":"VFR","rawOb":"METAR SBAX 140700Z AUTO 18002KT CAVOK 17/14 Q1018","temp":17,"dewp":14,"wdir":180,"wspd":2,"visib":"6+","altim":1018,"clouds":[],"obsTime":1776150000},"SBSR":{"icaoId":"SBSR","flightCategory":"VFR","rawOb":"METAR SBSR 140700Z 00000KT CAVOK 21/18 Q1015","temp":21,"dewp":18,"wdir":0,"wspd":0,"visib":"6+","altim":1015,"clouds":[],"obsTime":1776150000},"SBIP":{"icaoId":"SBIP","flightCategory":"MVFR","rawOb":"METAR SBIP 140700Z AUTO 31001KT 9999 BKN025 OVC031 20/20 Q1015","temp":20,"dewp":20,"wdir":310,"wspd":1,"visib":"6+","altim":1015,"clouds":[{"cover":"BKN","base":2500},{"cover":"OVC","base":3100}],"obsTime":1776150000},"SBDN":{"icaoId":"SBDN","flightCategory":"VFR","rawOb":"METAR SBDN 140700Z 15002KT CAVOK 20/17 Q1015","temp":20,"dewp":17,"wdir":150,"wspd":2,"visib":"6+","altim":1015,"clouds":[],"obsTime":1776150000},"SBKG":{"icaoId":"SBKG","flightCategory":"IFR","rawOb":"METAR SBKG 140700Z 16004KT 9999 BKN007 22/22 Q1012","temp":22,"dewp":22,"wdir":160,"wspd":4,"visib":"6+","altim":1012,"clouds":[{"cover":"BKN","base":700}],"obsTime":1776150000},"SBAN":{"icaoId":"SBAN","flightCategory":"VFR","rawOb":"METAR SBAN 140700Z 17005KT CAVOK 18/16 Q1019","temp":18,"dewp":16,"wdir":170,"wspd":5,"visib":"6+","altim":1019,"clouds":[],"obsTime":1776150000},"SBLE":{"icaoId":"SBLE","flightCategory":"VFR","rawOb":"METAR SBLE 140700Z AUTO 15003KT 9999 FEW005 BKN032 OVC042 ///// Q////","temp":null,"dewp":null,"wdir":150,"wspd":3,"visib":"6+","altim":null,"clouds":[{"cover":"FEW","base":500},{"cover":"BKN","base":3200},{"cover":"OVC","base":4200}],"obsTime":1776150000},"SBJP":{"icaoId":"SBJP","flightCategory":"VFR","rawOb":"METAR SBJP 140700Z 15002KT 9999 FEW020 25/24 Q1009","temp":25,"dewp":24,"wdir":150,"wspd":2,"visib":"6+","altim":1009,"clouds":[{"cover":"FEW","base":2000}],"obsTime":1776150000}}}