{"updated":1782863698,"count":75,"data":{"SBFI":{"icaoId":"SBFI","flightCategory":"LIFR","rawOb":"METAR SBFI 302200Z 15004KT 2000 BR BKN004 18/18 Q1013","temp":18,"dewp":18,"wdir":150,"wspd":4,"visib":1.24,"altim":1013,"clouds":[{"cover":"BKN","base":400}],"obsTime":1782856800},"SBCT":{"icaoId":"SBCT","flightCategory":"VFR","rawOb":"METAR SBCT 302200Z 05002KT 9999 FEW020 BKN100 19/17 Q1019","temp":19,"dewp":17,"wdir":50,"wspd":2,"visib":"6+","altim":1019,"clouds":[{"cover":"FEW","base":2000},{"cover":"BKN","base":10000}],"obsTime":1782856800},"SBGL":{"icaoId":"SBGL","flightCategory":"VFR","rawOb":"METAR SBGL 302200Z 15006KT CAVOK 23/21 Q1016","temp":23,"dewp":21,"wdir":150,"wspd":6,"visib":"6+","altim":1016,"clouds":[],"obsTime":1782856800},"SBGR":{"icaoId":"SBGR","flightCategory":"VFR","rawOb":"METAR SBGR 302200Z 08003KT CAVOK 20/16 Q1020","temp":20,"dewp":16,"wdir":80,"wspd":3,"visib":"6+","altim":1020,"clouds":[],"obsTime":1782856800},"SBBR":{"icaoId":"SBBR","flightCategory":"VFR","rawOb":"METAR SBBR 302200Z 13007KT CAVOK 22/11 Q1021","temp":22,"dewp":11,"wdir":130,"wspd":7,"visib":"6+","altim":1021,"clouds":[],"obsTime":1782856800},"SBSP":{"icaoId":"SBSP","flightCategory":"VFR","rawOb":"METAR SBSP 302200Z 32004KT 270V350 CAVOK 24/14 Q1021","temp":24,"dewp":14,"wdir":320,"wspd":4,"visib":"6+","altim":1021,"clouds":[],"obsTime":1782856800},"SBCG":{"icaoId":"SBCG","flightCategory":"VFR","rawOb":"METAR SBCG 302200Z 01004KT 9999 FEW049 25/19 Q1015","temp":25,"dewp":19,"wdir":10,"wspd":4,"visib":"6+","altim":1015,"clouds":[{"cover":"FEW","base":4900}],"obsTime":1782856800},"SBMQ":{"icaoId":"SBMQ","flightCategory":"VFR","rawOb":"METAR SBMQ 302200Z 07005KT 9999 FEW023 FEW030TCU 29/24 Q1010","temp":29,"dewp":24,"wdir":70,"wspd":5,"visib":"6+","altim":1010,"clouds":[{"cover":"FEW","base":2300},{"cover":"FEW","base":3000}],"obsTime":1782856800},"SBTE":{"icaoId":"SBTE","flightCategory":"VFR","rawOb":"METAR SBTE 302200Z 13003KT CAVOK 31/21 Q1011","temp":31,"dewp":21,"wdir":130,"wspd":3,"visib":"6+","altim":1011,"clouds":[],"obsTime":1782856800},"SBLO":{"icaoId":"SBLO","flightCategory":"VFR","rawOb":"METAR SBLO 302200Z 04003KT CAVOK 24/18 Q1016","temp":24,"dewp":18,"wdir":40,"wspd":3,"visib":"6+","altim":1016,"clouds":[],"obsTime":1782856800},"SBGO":{"icaoId":"SBGO","flightCategory":"VFR","rawOb":"METAR SBGO 302200Z 08006KT CAVOK 26/13 Q1018","temp":26,"dewp":13,"wdir":80,"wspd":6,"visib":"6+","altim":1018,"clouds":[],"obsTime":1782856800},"SBVT":{"icaoId":"SBVT","flightCategory":"VFR","rawOb":"METAR SBVT 302200Z 32002KT 9999 SCT016 BKN063 22/19 Q1020","temp":22,"dewp":19,"wdir":320,"wspd":2,"visib":"6+","altim":1020,"clouds":[{"cover":"SCT","base":1600},{"cover":"BKN","base":6300}],"obsTime":1782856800},"SBKP":{"icaoId":"SBKP","flightCategory":"VFR","rawOb":"METAR SBKP 302200Z 01002KT CAVOK 23/15 Q1019","temp":23,"dewp":15,"wdir":10,"wspd":2,"visib":"6+","altim":1019,"clouds":[],"obsTime":1782856800},"SBFL":{"icaoId":"SBFL","flightCategory":"LIFR","rawOb":"METAR SBFL 302200Z 12004KT 2000 -DZ BR OVC003 16/16 Q1017","temp":16,"dewp":16,"wdir":120,"wspd":4,"visib":1.24,"altim":1017,"clouds":[{"cover":"OVC","base":300}],"obsTime":1782856800},"SBMA":{"icaoId":"SBMA","flightCategory":"VFR","rawOb":"METAR SBMA 302200Z 06004KT CAVOK 31/20 Q1010","temp":31,"dewp":20,"wdir":60,"wspd":4,"visib":"6+","altim":1010,"clouds":[],"obsTime":1782856800},"SBBE":{"icaoId":"SBBE","flightCategory":"VFR","rawOb":"METAR SBBE 302200Z 34004KT 9999 SCT045 29/26 Q1010","temp":29,"dewp":26,"wdir":340,"wspd":4,"visib":"6+","altim":1010,"clouds":[{"cover":"SCT","base":4500}],"obsTime":1782856800},"SBFZ":{"icaoId":"SBFZ","flightCategory":"VFR","rawOb":"METAR SBFZ 302200Z 12008KT 9999 FEW023 27/23 Q1012","temp":27,"dewp":23,"wdir":120,"wspd":8,"visib":"6+","altim":1012,"clouds":[{"cover":"FEW","base":2300}],"obsTime":1782856800},"SBPV":{"icaoId":"SBPV","flightCategory":"VFR","rawOb":"METAR SBPV 302200Z 06004KT CAVOK 31/21 Q1008","temp":31,"dewp":21,"wdir":60,"wspd":4,"visib":"6+","altim":1008,"clouds":[],"obsTime":1782856800},"SBSG":{"icaoId":"SBSG","flightCategory":"VFR","rawOb":"METAR SBSG 302200Z 17004KT 140V220 9999 FEW023 BKN070 25/22 Q1014","temp":25,"dewp":22,"wdir":170,"wspd":4,"visib":"6+","altim":1014,"clouds":[{"cover":"FEW","base":2300},{"cover":"BKN","base":7000}],"obsTime":1782856800},"SBRB":{"icaoId":"SBRB","flightCategory":"VFR","rawOb":"METAR SBRB 302200Z 24005KT 9999 SCT030 28/23 Q1010","temp":28,"dewp":23,"wdir":240,"wspd":5,"visib":"6+","altim":1010,"clouds":[{"cover":"SCT","base":3000}],"obsTime":1782856800},"SBBV":{"icaoId":"SBBV","flightCategory":"VFR","rawOb":"METAR SBBV 302200Z 04003KT 9999 SCT030 FEW035TCU 31/23 Q1009","temp":31,"dewp":23,"wdir":40,"wspd":3,"visib":"6+","altim":1009,"clouds":[{"cover":"SCT","base":3000},{"cover":"FEW","base":3500}],"obsTime":1782856800},"SBSL":{"icaoId":"SBSL","flightCategory":"VFR","rawOb":"METAR SBSL 302200Z 06004KT 9999 FEW030 28/24 Q1011","temp":28,"dewp":24,"wdir":60,"wspd":4,"visib":"6+","altim":1011,"clouds":[{"cover":"FEW","base":3000}],"obsTime":1782856800},"SBPA":{"icaoId":"SBPA","flightCategory":"IFR","rawOb":"METAR SBPA 302200Z 13008KT 100V160 9999 BKN007 OVC011 14/12 Q1016","temp":14,"dewp":12,"wdir":130,"wspd":8,"visib":"6+","altim":1016,"clouds":[{"cover":"BKN","base":700},{"cover":"OVC","base":1100}],"obsTime":1782856800},"SBCZ":{"icaoId":"SBCZ","flightCategory":"MVFR","rawOb":"METAR SBCZ 302200Z 27007KT 8000 -TSRA FEW013 FEW030CB OVC100 23/23 Q1011","temp":23,"dewp":23,"wdir":270,"wspd":7,"visib":4.97,"altim":1011,"clouds":[{"cover":"FEW","base":1300},{"cover":"FEW","base":3000},{"cover":"OVC","base":10000}],"obsTime":1782856800},"SBNT":{"icaoId":"SBNT","flightCategory":"VFR","rawOb":"METAR SBNT 302200Z 19007KT 9999 FEW020 SCT050 25/21 Q1014","temp":25,"dewp":21,"wdir":190,"wspd":7,"visib":"6+","altim":1014,"clouds":[{"cover":"FEW","base":2000},{"cover":"SCT","base":5000}],"obsTime":1782856800},"SBSN":{"icaoId":"SBSN","flightCategory":"VFR","rawOb":"METAR SBSN 302200Z 09002KT CAVOK 26/24 Q1010","temp":26,"dewp":24,"wdir":90,"wspd":2,"visib":"6+","altim":1010,"clouds":[],"obsTime":1782856800},"SBSV":{"icaoId":"SBSV","flightCategory":"VFR","rawOb":"METAR SBSV 302200Z 12009KT 9999 SCT020 26/19 Q1017","temp":26,"dewp":19,"wdir":120,"wspd":9,"visib":"6+","altim":1017,"clouds":[{"cover":"SCT","base":2000}],"obsTime":1782856800},"SBRF":{"icaoId":"SBRF","flightCategory":"VFR","rawOb":"METAR SBRF 302200Z 16008KT 100V180 9999 SCT025 26/21 Q1015","temp":26,"dewp":21,"wdir":160,"wspd":8,"visib":"6+","altim":1015,"clouds":[{"cover":"SCT","base":2500}],"obsTime":1782856800},"SBMO":{"icaoId":"SBMO","flightCategory":"VFR","rawOb":"METAR SBMO 302200Z 11004KT 9999 FEW019 SCT050 BKN070 24/22 Q1016","temp":24,"dewp":22,"wdir":110,"wspd":4,"visib":"6+","altim":1016,"clouds":[{"cover":"FEW","base":1900},{"cover":"SCT","base":5000},{"cover":"BKN","base":7000}],"obsTime":1782856800},"SBEG":{"icaoId":"SBEG","flightCategory":"VFR","rawOb":"METAR SBEG 302200Z 04002KT 9999 FEW025 SCT100 28/24 Q1013","temp":28,"dewp":24,"wdir":40,"wspd":2,"visib":"6+","altim":1013,"clouds":[{"cover":"FEW","base":2500},{"cover":"SCT","base":10000}],"obsTime":1782856800},"SBCF":{"icaoId":"SBCF","flightCategory":"VFR","rawOb":"METAR SBCF 302200Z 10005KT 9999 FEW045 21/15 Q1022","temp":21,"dewp":15,"wdir":100,"wspd":5,"visib":"6+","altim":1022,"clouds":[{"cover":"FEW","base":4500}],"obsTime":1782856800},"SBPJ":{"icaoId":"SBPJ","flightCategory":"VFR","rawOb":"METAR SBPJ 302200Z 00000KT CAVOK 30/17 Q1012","temp":30,"dewp":17,"wdir":0,"wspd":0,"visib":"6+","altim":1012,"clouds":[],"obsTime":1782856800},"SBUR":{"icaoId":"SBUR","flightCategory":"VFR","rawOb":"METAR SBUR 302200Z 04003KT CAVOK 24/11 Q1019","temp":24,"dewp":11,"wdir":40,"wspd":3,"visib":"6+","altim":1019,"clouds":[],"obsTime":1782856800},"SBUL":{"icaoId":"SBUL","flightCategory":"VFR","rawOb":"METAR SBUL 302200Z 10005KT CAVOK 22/13 Q1020","temp":22,"dewp":13,"wdir":100,"wspd":5,"visib":"6+","altim":1020,"clouds":[],"obsTime":1782856800},"SBMK":{"icaoId":"SBMK","flightCategory":"VFR","rawOb":"METAR SBMK 302200Z 08006KT CAVOK 23/15 Q1020","temp":23,"dewp":15,"wdir":80,"wspd":6,"visib":"6+","altim":1020,"clouds":[],"obsTime":1782856800},"SBME":{"icaoId":"SBME","flightCategory":"VFR","rawOb":"METAR SBME 302200Z 04008KT CAVOK 24/20 Q1018","temp":24,"dewp":20,"wdir":40,"wspd":8,"visib":"6+","altim":1018,"clouds":[],"obsTime":1782856800},"SBMG":{"icaoId":"SBMG","flightCategory":"VFR","rawOb":"METAR SBMG 302200Z 02008KT CAVOK 23/18 Q1015","temp":23,"dewp":18,"wdir":20,"wspd":8,"visib":"6+","altim":1015,"clouds":[],"obsTime":1782856800},"SBIL":{"icaoId":"SBIL","flightCategory":"VFR","rawOb":"METAR SBIL 302200Z 25003KT CAVOK 23/22 Q1018","temp":23,"dewp":22,"wdir":250,"wspd":3,"visib":"6+","altim":1018,"clouds":[],"obsTime":1782856800},"SBJU":{"icaoId":"SBJU","flightCategory":"VFR","rawOb":"METAR SBJU 302200Z 18005KT 9999 FEW020 26/13 Q1015","temp":26,"dewp":13,"wdir":180,"wspd":5,"visib":"6+","altim":1015,"clouds":[{"cover":"FEW","base":2000}],"obsTime":1782856800},"SBCP":{"icaoId":"SBCP","flightCategory":"VFR","rawOb":"METAR SBCP 302200Z 07006KT CAVOK 23/21 Q1019","temp":23,"dewp":21,"wdir":70,"wspd":6,"visib":"6+","altim":1019,"clouds":[],"obsTime":1782856800},"SBIP":{"icaoId":"SBIP","flightCategory":"VFR","rawOb":"METAR SBIP 302200Z AUTO 00000KT CAVOK 19/19 Q1020","temp":19,"dewp":19,"wdir":0,"wspd":0,"visib":"6+","altim":1020,"clouds":[],"obsTime":1782856800},"SBSR":{"icaoId":"SBSR","flightCategory":"VFR","rawOb":"METAR SBSR 302200Z 10004KT CAVOK 25/14 Q1017","temp":25,"dewp":14,"wdir":100,"wspd":4,"visib":"6+","altim":1017,"clouds":[],"obsTime":1782856800},"SBES":{"icaoId":"SBES","flightCategory":"VFR","rawOb":"METAR SBES 302200Z 04010KT 010V090 CAVOK 22/// Q1017","temp":null,"dewp":null,"wdir":40,"wspd":10,"visib":"6+","altim":1017,"clouds":[],"obsTime":1782856800},"SBTU":{"icaoId":"SBTU","flightCategory":"VFR","rawOb":"METAR SBTU 302200Z AUTO 01003KT 330V040 9999 // FEW039/// SCT050/// ///// Q1012","temp":null,"dewp":null,"wdir":10,"wspd":3,"visib":"6+","altim":1012,"clouds":[{"cover":"FEW","base":3900},{"cover":"SCT","base":5000}],"obsTime":1782856800},"SBPS":{"icaoId":"SBPS","flightCategory":"MVFR","rawOb":"METAR SBPS 302200Z 17002KT 9999 SCT003 BKN020 22/21 Q1020","temp":22,"dewp":21,"wdir":170,"wspd":2,"visib":"6+","altim":1020,"clouds":[{"cover":"SCT","base":300},{"cover":"BKN","base":2000}],"obsTime":1782856800},"SBTT":{"icaoId":"SBTT","flightCategory":"VFR","rawOb":"METAR SBTT 302200Z 22003KT 9999 VCSH FEW021 FEW023TCU BKN100 28/23 Q1009","temp":28,"dewp":23,"wdir":220,"wspd":3,"visib":"6+","altim":1009,"clouds":[{"cover":"FEW","base":2100},{"cover":"FEW","base":2300},{"cover":"BKN","base":10000}],"obsTime":1782856800},"SBKG":{"icaoId":"SBKG","flightCategory":"VFR","rawOb":"METAR SBKG 302200Z 11006KT CAVOK 22/19 Q1017","temp":22,"dewp":19,"wdir":110,"wspd":6,"visib":"6+","altim":1017,"clouds":[],"obsTime":1782856800},"SBAR":{"icaoId":"SBAR","flightCategory":"VFR","rawOb":"METAR SBAR 302200Z 12007KT 9999 FEW025 SCT050 26/21 Q1016","temp":26,"dewp":21,"wdir":120,"wspd":7,"visib":"6+","altim":1016,"clouds":[{"cover":"FEW","base":2500},{"cover":"SCT","base":5000}],"obsTime":1782856800},"SBPL":{"icaoId":"SBPL","flightCategory":"VFR","rawOb":"METAR SBPL 302200Z 12010KT 9999 FEW025 SCT070 27/18 Q1016","temp":27,"dewp":18,"wdir":120,"wspd":10,"visib":"6+","altim":1016,"clouds":[{"cover":"FEW","base":2500},{"cover":"SCT","base":7000}],"obsTime":1782856800},"SBSC":{"icaoId":"SBSC","flightCategory":"VFR","rawOb":"METAR SBSC 302200Z 25003KT CAVOK 22/21 Q1017","temp":22,"dewp":21,"wdir":250,"wspd":3,"visib":"6+","altim":1017,"clouds":[],"obsTime":1782856800},"SBCA":{"icaoId":"SBCA","flightCategory":"VFR","rawOb":"METAR SBCA 302200Z 36009KT 9999 TS FEW007 FEW040CB SCT100 20/18 Q1015","temp":20,"dewp":18,"wdir":360,"wspd":9,"visib":"6+","altim":1015,"clouds":[{"cover":"FEW","base":700},{"cover":"FEW","base":4000},{"cover":"SCT","base":10000}],"obsTime":1782856800},"SBCO":{"icaoId":"SBCO","flightCategory":"IFR","rawOb":"METAR SBCO 302200Z 12007KT 9999 OVC008 14/13 Q1016","temp":14,"dewp":13,"wdir":120,"wspd":7,"visib":"6+","altim":1016,"clouds":[{"cover":"OVC","base":800}],"obsTime":1782856800},"SBSM":{"icaoId":"SBSM","flightCategory":"MVFR","rawOb":"METAR SBSM 302200Z 10007KT 9999 OVC010 12/11 Q1016","temp":12,"dewp":11,"wdir":100,"wspd":7,"visib":"6+","altim":1016,"clouds":[{"cover":"OVC","base":1000}],"obsTime":1782856800},"SBVH":{"icaoId":"SBVH","flightCategory":"VFR","rawOb":"METAR SBVH 302200Z 12006KT CAVOK 24/18 Q1014","temp":24,"dewp":18,"wdir":120,"wspd":6,"visib":"6+","altim":1014,"clouds":[],"obsTime":1782856800},"SBAX":{"icaoId":"SBAX","flightCategory":"VFR","rawOb":"METAR SBAX 302200Z 09002KT CAVOK 21/11 Q1021","temp":21,"dewp":11,"wdir":90,"wspd":2,"visib":"6+","altim":1021,"clouds":[],"obsTime":1782856800},"SBSJ":{"icaoId":"SBSJ","flightCategory":"VFR","rawOb":"METAR SBSJ 302200Z VRB01KT CAVOK 20/16 Q1019","temp":20,"dewp":16,"wdir":"VRB","wspd":1,"visib":"6+","altim":1019,"clouds":[],"obsTime":1782856800},"SBBH":{"icaoId":"SBBH","flightCategory":"VFR","rawOb":"METAR SBBH 302200Z 09005KT CAVOK 22/15 Q1022","temp":22,"dewp":15,"wdir":90,"wspd":5,"visib":"6+","altim":1022,"clouds":[],"obsTime":1782856800},"SBBU":{"icaoId":"SBBU","flightCategory":"VFR","rawOb":"METAR SBBU 302200Z 03002KT CAVOK 26/16 Q1018","temp":26,"dewp":16,"wdir":30,"wspd":2,"visib":"6+","altim":1018,"clouds":[],"obsTime":1782856800},"SBOI":{"icaoId":"SBOI","flightCategory":"VFR","rawOb":"METAR SBOI 302200Z AUTO VRB02KT CAVOK 27/23 Q1010","temp":27,"dewp":23,"wdir":"VRB","wspd":2,"visib":"6+","altim":1010,"clouds":[],"obsTime":1782856800},"SBDN":{"icaoId":"SBDN","flightCategory":"VFR","rawOb":"METAR SBDN 302200Z 03003KT CAVOK 24/17 Q1015","temp":24,"dewp":17,"wdir":30,"wspd":3,"visib":"6+","altim":1015,"clouds":[],"obsTime":1782856800},"SBTF":{"icaoId":"SBTF","flightCategory":"VFR","rawOb":"METAR SBTF 302200Z 13005KT 9999 FEW008 SCT080 24/23 Q1010","temp":24,"dewp":23,"wdir":130,"wspd":5,"visib":"6+","altim":1010,"clouds":[{"cover":"FEW","base":800},{"cover":"SCT","base":8000}],"obsTime":1782856800},"SBUY":{"icaoId":"SBUY","flightCategory":"VFR","rawOb":"METAR SBUY 302200Z 00000KT 9999 FEW020 FEW025TCU 25/24 Q1008","temp":25,"dewp":24,"wdir":0,"wspd":0,"visib":"6+","altim":1008,"clouds":[{"cover":"FEW","base":2000},{"cover":"FEW","base":2500}],"obsTime":1782856800},"SBJV":{"icaoId":"SBJV","flightCategory":"LIFR","rawOb":"METAR SBJV 302200Z 26002KT 2000 -DZ BR BKN003 BKN018 17/16 Q1017","temp":17,"dewp":16,"wdir":260,"wspd":2,"visib":1.24,"altim":1017,"clouds":[{"cover":"BKN","base":300},{"cover":"BKN","base":1800}],"obsTime":1782856800},"SBNM":{"icaoId":"SBNM","flightCategory":"LIFR","rawOb":"METAR SBNM 302200Z AUTO 18003KT 1500 RA BR FEW003 SCT006 OVC029 14/14 Q1015","temp":14,"dewp":14,"wdir":180,"wspd":3,"visib":0.93,"altim":1015,"clouds":[{"cover":"FEW","base":300},{"cover":"SCT","base":600},{"cover":"OVC","base":2900}],"obsTime":1782856800},"SBPF":{"icaoId":"SBPF","flightCategory":"LIFR","rawOb":"METAR SBPF 302200Z 19003KT 9000 -RA BKN004 BKN017 14/13 Q1015","temp":14,"dewp":13,"wdir":190,"wspd":3,"visib":5.59,"altim":1015,"clouds":[{"cover":"BKN","base":400},{"cover":"BKN","base":1700}],"obsTime":1782856800},"SBAN":{"icaoId":"SBAN","flightCategory":"VFR","rawOb":"METAR SBAN 302200Z 11004KT 9999 FEW045 21/13 Q1021","temp":21,"dewp":13,"wdir":110,"wspd":4,"visib":"6+","altim":1021,"clouds":[{"cover":"FEW","base":4500}],"obsTime":1782856800},"SBAF":{"icaoId":"SBAF","flightCategory":"VFR","rawOb":"METAR SBAF 302200Z 24002KT CAVOK 20/20 Q1017","temp":20,"dewp":20,"wdir":240,"wspd":2,"visib":"6+","altim":1017,"clouds":[],"obsTime":1782856800},"SBJR":{"icaoId":"SBJR","flightCategory":"VFR","rawOb":"METAR SBJR 302200Z 00000KT CAVOK 21/20 Q1016","temp":21,"dewp":20,"wdir":0,"wspd":0,"visib":"6+","altim":1016,"clouds":[],"obsTime":1782856800},"SBLS":{"icaoId":"SBLS","flightCategory":"VFR","rawOb":"METAR SBLS 302200Z 14006KT 9999 FEW048 20/15 Q1022","temp":20,"dewp":15,"wdir":140,"wspd":6,"visib":"6+","altim":1022,"clouds":[{"cover":"FEW","base":4800}],"obsTime":1782856800},"SBMT":{"icaoId":"SBMT","flightCategory":"VFR","rawOb":"METAR SBMT 302200Z 35003KT CAVOK 21/13 Q1019","temp":21,"dewp":13,"wdir":350,"wspd":3,"visib":"6+","altim":1019,"clouds":[],"obsTime":1782856800},"SBTA":{"icaoId":"SBTA","flightCategory":"VFR","rawOb":"METAR SBTA 302200Z VRB01KT CAVOK 18/16 Q1018","temp":18,"dewp":16,"wdir":"VRB","wspd":1,"visib":"6+","altim":1018,"clouds":[],"obsTime":1782856800},"SBLE":{"icaoId":"SBLE","flightCategory":"VFR","rawOb":"METAR SBLE 302200Z AUTO 05007KT CAVOK ///// Q////","temp":null,"dewp":null,"wdir":50,"wspd":7,"visib":"6+","altim":null,"clouds":[],"obsTime":1782856800},"SBJP":{"icaoId":"SBJP","flightCategory":"VFR","rawOb":"METAR SBJP 302200Z 14007KT 9999 FEW020 24/22 Q1015","temp":24,"dewp":22,"wdir":140,"wspd":7,"visib":"6+","altim":1015,"clouds":[{"cover":"FEW","base":2000}],"obsTime":1782856800},"SBIH":{"icaoId":"SBIH","flightCategory":"VFR","rawOb":"METAR SBIH 302200Z 32003KT 9999 FEW013 FEW025TCU SCT100 24/23 Q1009","temp":24,"dewp":23,"wdir":320,"wspd":3,"visib":"6+","altim":1009,"clouds":[{"cover":"FEW","base":1300},{"cover":"FEW","base":2500},{"cover":"SCT","base":10000}],"obsTime":1782856800},"SBGW":{"icaoId":"SBGW","flightCategory":"VFR","rawOb":"METAR SBGW 302200Z 35003KT CAVOK 19/13 Q1019","temp":19,"dewp":13,"wdir":350,"wspd":3,"visib":"6+","altim":1019,"clouds":[],"obsTime":1782856800}}}