{"updated":1775233874,"count":83,"data":{"SBPV":{"icaoId":"SBPV","flightCategory":"VFR","rawOb":"METAR SBPV 031500Z 35005KT 9999 SCT025 30/24 Q1013","temp":30,"dewp":24,"wdir":350,"wspd":5,"visib":"6+","altim":1013,"clouds":[{"cover":"SCT","base":2500}],"obsTime":1775228400},"SBAT":{"icaoId":"SBAT","flightCategory":"MVFR","rawOb":"METAR SBAT 031500Z 11005KT 9999 BKN030 33/24 Q1014","temp":33,"dewp":24,"wdir":110,"wspd":5,"visib":"6+","altim":1014,"clouds":[{"cover":"BKN","base":3000}],"obsTime":1775228400},"SBBE":{"icaoId":"SBBE","flightCategory":"VFR","rawOb":"METAR SBBE 031500Z 08007KT 9999 SCT036 31/23 Q1013","temp":31,"dewp":23,"wdir":80,"wspd":7,"visib":"6+","altim":1013,"clouds":[{"cover":"SCT","base":3600}],"obsTime":1775228400},"SBBR":{"icaoId":"SBBR","flightCategory":"MVFR","rawOb":"METAR SBBR 031500Z 07008KT 9999 BKN020 BKN100 23/19 Q1022","temp":23,"dewp":19,"wdir":70,"wspd":8,"visib":"6+","altim":1022,"clouds":[{"cover":"BKN","base":2000},{"cover":"BKN","base":10000}],"obsTime":1775228400},"SBBV":{"icaoId":"SBBV","flightCategory":"MVFR","rawOb":"METAR SBBV 031500Z 15006KT 9999 BKN030 FEW035TCU SCT090 30/22 Q1013","temp":30,"dewp":22,"wdir":150,"wspd":6,"visib":"6+","altim":1013,"clouds":[{"cover":"BKN","base":3000},{"cover":"FEW","base":3500},{"cover":"SCT","base":9000}],"obsTime":1775228400},"SBCB":{"icaoId":"SBCB","flightCategory":"VFR","rawOb":"METAR SBCB 031500Z 04008KT 9999 SCT020 SCT060 31/23 Q1014","temp":31,"dewp":23,"wdir":40,"wspd":8,"visib":"6+","altim":1014,"clouds":[{"cover":"SCT","base":2000},{"cover":"SCT","base":6000}],"obsTime":1775228400},"SBCF":{"icaoId":"SBCF","flightCategory":"VFR","rawOb":"METAR SBCF 031500Z 03005KT 320V080 9999 BKN035 SCT100 27/18 Q1021","temp":27,"dewp":18,"wdir":30,"wspd":5,"visib":"6+","altim":1021,"clouds":[{"cover":"BKN","base":3500},{"cover":"SCT","base":10000}],"obsTime":1775228400},"SBCG":{"icaoId":"SBCG","flightCategory":"VFR","rawOb":"METAR SBCG 031500Z VRB05G15KT 9999 FEW040 29/21 Q1017","temp":29,"dewp":21,"wdir":"VRB","wspd":5,"visib":"6+","altim":1017,"clouds":[{"cover":"FEW","base":4000}],"obsTime":1775228400},"SBCP":{"icaoId":"SBCP","flightCategory":"VFR","rawOb":"METAR SBCP 031500Z 04008KT 9999 FEW015 SCT100 33/23 Q1015","temp":33,"dewp":23,"wdir":40,"wspd":8,"visib":"6+","altim":1015,"clouds":[{"cover":"FEW","base":1500},{"cover":"SCT","base":10000}],"obsTime":1775228400},"SBCR":{"icaoId":"SBCR","flightCategory":"VFR","rawOb":"METAR SBCR 031500Z 05004KT 340V130 9999 FEW035 32/24 Q1014","temp":32,"dewp":24,"wdir":50,"wspd":4,"visib":"6+","altim":1014,"clouds":[{"cover":"FEW","base":3500}],"obsTime":1775228400},"SBCT":{"icaoId":"SBCT","flightCategory":"VFR","rawOb":"METAR SBCT 031500Z 32011KT 290V350 9999 SCT030 26/17 Q1019","temp":26,"dewp":17,"wdir":320,"wspd":11,"visib":"6+","altim":1019,"clouds":[{"cover":"SCT","base":3000}],"obsTime":1775228400},"SBCZ":{"icaoId":"SBCZ","flightCategory":"MVFR","rawOb":"METAR SBCZ 031500Z 15007KT 9999 BKN015 BKN100 28/25 Q1014","temp":28,"dewp":25,"wdir":150,"wspd":7,"visib":"6+","altim":1014,"clouds":[{"cover":"BKN","base":1500},{"cover":"BKN","base":10000}],"obsTime":1775228400},"SBEG":{"icaoId":"SBEG","flightCategory":"VFR","rawOb":"METAR SBEG 031500Z 11008KT 9999 SCT025 32/24 Q1012","temp":32,"dewp":24,"wdir":110,"wspd":8,"visib":"6+","altim":1012,"clouds":[{"cover":"SCT","base":2500}],"obsTime":1775228400},"SBFI":{"icaoId":"SBFI","flightCategory":"VFR","rawOb":"METAR SBFI 031500Z 36006KT 9999 FEW035 31/24 Q1014","temp":31,"dewp":24,"wdir":360,"wspd":6,"visib":"6+","altim":1014,"clouds":[{"cover":"FEW","base":3500}],"obsTime":1775228400},"SBFL":{"icaoId":"SBFL","flightCategory":"VFR","rawOb":"METAR SBFL 031500Z 11009KT 9999 FEW020 30/20 Q1012","temp":30,"dewp":20,"wdir":110,"wspd":9,"visib":"6+","altim":1012,"clouds":[{"cover":"FEW","base":2000}],"obsTime":1775228400},"SBFZ":{"icaoId":"SBFZ","flightCategory":"MVFR","rawOb":"METAR SBFZ 031500Z 11011KT 9999 VCSH BKN020 FEW025TCU 30/25 Q1012","temp":30,"dewp":25,"wdir":110,"wspd":11,"visib":"6+","altim":1012,"clouds":[{"cover":"BKN","base":2000},{"cover":"FEW","base":2500}],"obsTime":1775228400},"SBGL":{"icaoId":"SBGL","flightCategory":"VFR","rawOb":"METAR SBGL 031500Z 32002KT CAVOK 33/21 Q1014","temp":33,"dewp":21,"wdir":320,"wspd":2,"visib":"6+","altim":1014,"clouds":[],"obsTime":1775228400},"SBGO":{"icaoId":"SBGO","flightCategory":"VFR","rawOb":"METAR SBGO 031500Z VRB07KT 9999 SCT036 29/21 Q1019","temp":29,"dewp":21,"wdir":"VRB","wspd":7,"visib":"6+","altim":1019,"clouds":[{"cover":"SCT","base":3600}],"obsTime":1775228400},"SBGR":{"icaoId":"SBGR","flightCategory":"MVFR","rawOb":"METAR SBGR 031500Z 28010KT 9999 BKN030 28/20 Q1019","temp":28,"dewp":20,"wdir":280,"wspd":10,"visib":"6+","altim":1019,"clouds":[{"cover":"BKN","base":3000}],"obsTime":1775228400},"SBHT":{"icaoId":"SBHT","flightCategory":"VFR","rawOb":"METAR SBHT 031500Z 10007KT 9999 SCT030 30/23 Q1013","temp":30,"dewp":23,"wdir":100,"wspd":7,"visib":"6+","altim":1013,"clouds":[{"cover":"SCT","base":3000}],"obsTime":1775228400},"SBIL":{"icaoId":"SBIL","flightCategory":"VFR","rawOb":"METAR SBIL 031500Z 23003KT 190V270 9999 VCSH SCT020 FEW025TCU 28/24 Q1016","temp":28,"dewp":24,"wdir":230,"wspd":3,"visib":"6+","altim":1016,"clouds":[{"cover":"SCT","base":2000},{"cover":"FEW","base":2500}],"obsTime":1775228400},"SBJU":{"icaoId":"SBJU","flightCategory":"MVFR","rawOb":"METAR SBJU 031500Z 10007KT 9999 BKN020 30/22 Q1015","temp":30,"dewp":22,"wdir":100,"wspd":7,"visib":"6+","altim":1015,"clouds":[{"cover":"BKN","base":2000}],"obsTime":1775228400},"SBKP":{"icaoId":"SBKP","flightCategory":"VFR","rawOb":"METAR SBKP 031500Z 31005KT 210V360 9999 SCT030 28/21 Q1019","temp":28,"dewp":21,"wdir":310,"wspd":5,"visib":"6+","altim":1019,"clouds":[{"cover":"SCT","base":3000}],"obsTime":1775228400},"SBLO":{"icaoId":"SBLO","flightCategory":"VFR","rawOb":"METAR SBLO 031500Z COR 01010KT 9999 SCT030 29/21 Q1017","temp":29,"dewp":21,"wdir":10,"wspd":10,"visib":"6+","altim":1017,"clouds":[{"cover":"SCT","base":3000}],"obsTime":1775228400},"SBMA":{"icaoId":"SBMA","flightCategory":"MVFR","rawOb":"METAR SBMA 031500Z 06004KT 9999 BKN020 BKN100 29/23 Q1013","temp":29,"dewp":23,"wdir":60,"wspd":4,"visib":"6+","altim":1013,"clouds":[{"cover":"BKN","base":2000},{"cover":"BKN","base":10000}],"obsTime":1775228400},"SBME":{"icaoId":"SBME","flightCategory":"VFR","rawOb":"METAR SBME 031500Z 01009KT CAVOK 34/22 Q1014","temp":34,"dewp":22,"wdir":10,"wspd":9,"visib":"6+","altim":1014,"clouds":[],"obsTime":1775228400},"SBMG":{"icaoId":"SBMG","flightCategory":"VFR","rawOb":"METAR SBMG 031500Z 36008KT 320V070 9999 BKN033 29/21 Q1016","temp":29,"dewp":21,"wdir":360,"wspd":8,"visib":"6+","altim":1016,"clouds":[{"cover":"BKN","base":3300}],"obsTime":1775228400},"SBMK":{"icaoId":"SBMK","flightCategory":"MVFR","rawOb":"METAR SBMK 031500Z 06004KT 9999 BKN030 28/19 Q1019","temp":28,"dewp":19,"wdir":60,"wspd":4,"visib":"6+","altim":1019,"clouds":[{"cover":"BKN","base":3000}],"obsTime":1775228400},"SBMO":{"icaoId":"SBMO","flightCategory":"MVFR","rawOb":"METAR SBMO 031500Z 01009KT 070V130 9999 BKN023 31/24 Q1014","temp":31,"dewp":24,"wdir":10,"wspd":9,"visib":"6+","altim":1014,"clouds":[{"cover":"BKN","base":2300}],"obsTime":1775228400},"SBMQ":{"icaoId":"SBMQ","flightCategory":"VFR","rawOb":"METAR SBMQ 031500Z 07006KT 9999 SCT023 30/24 Q1012","temp":30,"dewp":24,"wdir":70,"wspd":6,"visib":"6+","altim":1012,"clouds":[{"cover":"SCT","base":2300}],"obsTime":1775228400},"SBNT":{"icaoId":"SBNT","flightCategory":"MVFR","rawOb":"METAR SBNT 031500Z 11014KT 9999 BKN027 FEW033TCU BKN036 BKN070 31/24 Q1012","temp":31,"dewp":24,"wdir":110,"wspd":14,"visib":"6+","altim":1012,"clouds":[{"cover":"BKN","base":2700},{"cover":"FEW","base":3300},{"cover":"BKN","base":3600},{"cover":"BKN","base":7000}],"obsTime":1775228400},"SBPA":{"icaoId":"SBPA","flightCategory":"MVFR","rawOb":"METAR SBPA 031500Z VRB02KT 9999 BKN025 29/22 Q1013","temp":29,"dewp":22,"wdir":"VRB","wspd":2,"visib":"6+","altim":1013,"clouds":[{"cover":"BKN","base":2500}],"obsTime":1775228400},"SBPJ":{"icaoId":"SBPJ","flightCategory":"VFR","rawOb":"METAR SBPJ 031500Z 15007KT 9999 SCT030 SCT100 32/24 Q1014","temp":32,"dewp":24,"wdir":150,"wspd":7,"visib":"6+","altim":1014,"clouds":[{"cover":"SCT","base":3000},{"cover":"SCT","base":10000}],"obsTime":1775228400},"SBRB":{"icaoId":"SBRB","flightCategory":"MVFR","rawOb":"METAR SBRB 031500Z 35004KT 9999 FEW006 BKN012 FEW030TCU BKN100 28/24 Q1015","temp":28,"dewp":24,"wdir":350,"wspd":4,"visib":"6+","altim":1015,"clouds":[{"cover":"FEW","base":600},{"cover":"BKN","base":1200},{"cover":"FEW","base":3000},{"cover":"BKN","base":10000}],"obsTime":1775228400},"SBRF":{"icaoId":"SBRF","flightCategory":"VFR","rawOb":"METAR SBRF 031500Z 12010KT 070V140 9999 SCT025 SCT070 30/24 Q1013","temp":30,"dewp":24,"wdir":120,"wspd":10,"visib":"6+","altim":1013,"clouds":[{"cover":"SCT","base":2500},{"cover":"SCT","base":7000}],"obsTime":1775228400},"SBSG":{"icaoId":"SBSG","flightCategory":"MVFR","rawOb":"METAR SBSG 031500Z 10012KT 080V140 9999 BKN027 FEW030TCU 30/24 Q1013","temp":30,"dewp":24,"wdir":100,"wspd":12,"visib":"6+","altim":1013,"clouds":[{"cover":"BKN","base":2700},{"cover":"FEW","base":3000}],"obsTime":1775228400},"SBSL":{"icaoId":"SBSL","flightCategory":"VFR","rawOb":"METAR SBSL 031500Z 08005KT 9999 SCT030 BKN100 30/25 Q1013","temp":30,"dewp":25,"wdir":80,"wspd":5,"visib":"6+","altim":1013,"clouds":[{"cover":"SCT","base":3000},{"cover":"BKN","base":10000}],"obsTime":1775228400},"SBSN":{"icaoId":"SBSN","flightCategory":"MVFR","rawOb":"METAR SBSN 031500Z 09012KT 9999 VCSH BKN015 29/25 Q1012","temp":29,"dewp":25,"wdir":90,"wspd":12,"visib":"6+","altim":1012,"clouds":[{"cover":"BKN","base":1500}],"obsTime":1775228400},"SBSP":{"icaoId":"SBSP","flightCategory":"VFR","rawOb":"METAR SBSP 031500Z 32009KT 280V350 9999 SCT033 27/19 Q1020","temp":27,"dewp":19,"wdir":320,"wspd":9,"visib":"6+","altim":1020,"clouds":[{"cover":"SCT","base":3300}],"obsTime":1775228400},"SBSV":{"icaoId":"SBSV","flightCategory":"VFR","rawOb":"METAR SBSV 031500Z 17007KT 130V200 9999 VCSH FEW019 FEW024TCU BKN050 BKN100 28/22 Q1015","temp":28,"dewp":22,"wdir":170,"wspd":7,"visib":"6+","altim":1015,"clouds":[{"cover":"FEW","base":1900},{"cover":"FEW","base":2400},{"cover":"BKN","base":5000},{"cover":"BKN","base":10000}],"obsTime":1775228400},"SBTE":{"icaoId":"SBTE","flightCategory":"VFR","rawOb":"METAR SBTE 031500Z VRB04KT 9999 SCT020 30/23 Q1013","temp":30,"dewp":23,"wdir":"VRB","wspd":4,"visib":"6+","altim":1013,"clouds":[{"cover":"SCT","base":2000}],"obsTime":1775228400},"SBUL":{"icaoId":"SBUL","flightCategory":"MVFR","rawOb":"METAR SBUL 031500Z 09007KT 9999 SCT018 BKN025 BKN070 24/19 Q1021","temp":24,"dewp":19,"wdir":90,"wspd":7,"visib":"6+","altim":1021,"clouds":[{"cover":"SCT","base":1800},{"cover":"BKN","base":2500},{"cover":"BKN","base":7000}],"obsTime":1775228400},"SBUR":{"icaoId":"SBUR","flightCategory":"VFR","rawOb":"METAR SBUR 031500Z 35003KT CAVOK 27/20 Q1019","temp":27,"dewp":20,"wdir":350,"wspd":3,"visib":"6+","altim":1019,"clouds":[],"obsTime":1775228400},"SBVT":{"icaoId":"SBVT","flightCategory":"VFR","rawOb":"METAR SBVT 031500Z 01008KT 330V040 9999 SCT040 30/23 Q1016","temp":30,"dewp":23,"wdir":10,"wspd":8,"visib":"6+","altim":1016,"clouds":[{"cover":"SCT","base":4000}],"obsTime":1775228400},"SBAR":{"icaoId":"SBAR","flightCategory":"VFR","rawOb":"METAR SBAR 031500Z 12006KT 070V200 9999 SCT023 30/25 Q1014","temp":30,"dewp":25,"wdir":120,"wspd":6,"visib":"6+","altim":1014,"clouds":[{"cover":"SCT","base":2300}],"obsTime":1775228400},"SBAX":{"icaoId":"SBAX","flightCategory":"VFR","rawOb":"METAR SBAX 031500Z AUTO 03005KT 350V070 9999 FEW024 25/19 Q1021","temp":25,"dewp":19,"wdir":30,"wspd":5,"visib":"6+","altim":1021,"clouds":[{"cover":"FEW","base":2400}],"obsTime":1775228400},"SBBH":{"icaoId":"SBBH","flightCategory":"VFR","rawOb":"METAR SBBH 031500Z 00000KT 9999 BKN035 27/18 Q1020","temp":27,"dewp":18,"wdir":0,"wspd":0,"visib":"6+","altim":1020,"clouds":[{"cover":"BKN","base":3500}],"obsTime":1775228400},"SBBQ":{"icaoId":"SBBQ","flightCategory":"MVFR","rawOb":"METAR SBBQ 031500Z 28005KT 9999 BKN023 24/19 Q1024","temp":24,"dewp":19,"wdir":280,"wspd":5,"visib":"6+","altim":1024,"clouds":[{"cover":"BKN","base":2300}],"obsTime":1775228400},"SBBU":{"icaoId":"SBBU","flightCategory":"VFR","rawOb":"METAR SBBU 031500Z 34006KT 9999 BKN035 29/22 Q1018","temp":29,"dewp":22,"wdir":340,"wspd":6,"visib":"6+","altim":1018,"clouds":[{"cover":"BKN","base":3500}],"obsTime":1775228400},"SBCC":{"icaoId":"SBCC","flightCategory":"VFR","rawOb":"METAR SBCC 031500Z 09008KT 9999 SCT020 BKN100 28/21 Q1015","temp":28,"dewp":21,"wdir":90,"wspd":8,"visib":"6+","altim":1015,"clouds":[{"cover":"SCT","base":2000},{"cover":"BKN","base":10000}],"obsTime":1775228400},"SBCJ":{"icaoId":"SBCJ","flightCategory":"VFR","rawOb":"METAR SBCJ 031500Z 12010KT 9999 SCT017 26/21 Q1017","temp":26,"dewp":21,"wdir":120,"wspd":10,"visib":"6+","altim":1017,"clouds":[{"cover":"SCT","base":1700}],"obsTime":1775228400},"SBCO":{"icaoId":"SBCO","flightCategory":"MVFR","rawOb":"METAR SBCO 031500Z 05004KT 340V110 9999 BKN026 29/21 Q1013","temp":29,"dewp":21,"wdir":50,"wspd":4,"visib":"6+","altim":1013,"clouds":[{"cover":"BKN","base":2600}],"obsTime":1775228400},"SBDN":{"icaoId":"SBDN","flightCategory":"VFR","rawOb":"METAR SBDN 031500Z 00000KT 9999 FEW030 30/21 Q1017","temp":30,"dewp":21,"wdir":0,"wspd":0,"visib":"6+","altim":1017,"clouds":[{"cover":"FEW","base":3000}],"obsTime":1775228400},"SBES":{"icaoId":"SBES","flightCategory":"VFR","rawOb":"METAR SBES 031500Z 05007KT 360V090 CAVOK 29/// Q1014","temp":null,"dewp":null,"wdir":50,"wspd":7,"visib":"6+","altim":1014,"clouds":[],"obsTime":1775228400},"SBGM":{"icaoId":"SBGM","flightCategory":"VFR","rawOb":"METAR SBGM 031500Z 33006KT 300V020 9999 BKN043 30/20 Q1013","temp":30,"dewp":20,"wdir":330,"wspd":6,"visib":"6+","altim":1013,"clouds":[{"cover":"BKN","base":4300}],"obsTime":1775228400},"SBIP":{"icaoId":"SBIP","flightCategory":"VFR","rawOb":"METAR SBIP 031500Z AUTO 05006KT 340V110 9999 FEW030 SCT041 29/20 Q1018","temp":29,"dewp":20,"wdir":50,"wspd":6,"visib":"6+","altim":1018,"clouds":[{"cover":"FEW","base":3000},{"cover":"SCT","base":4100}],"obsTime":1775228400},"SBKG":{"icaoId":"SBKG","flightCategory":"MVFR","rawOb":"METAR SBKG 031500Z 14008KT 9999 BKN028 29/17 Q1015","temp":29,"dewp":17,"wdir":140,"wspd":8,"visib":"6+","altim":1015,"clouds":[{"cover":"BKN","base":2800}],"obsTime":1775228400},"SBOI":{"icaoId":"SBOI","flightCategory":"VFR","rawOb":"METAR SBOI 031500Z AUTO 11003KT 050V210 9999 BKN035 31/24 Q1012","temp":31,"dewp":24,"wdir":110,"wspd":3,"visib":"6+","altim":1012,"clouds":[{"cover":"BKN","base":3500}],"obsTime":1775228400},"SBPB":{"icaoId":"SBPB","flightCategory":"VFR","rawOb":"METAR SBPB 031500Z 05008KT 9999 SCT020 30/24 Q1013","temp":30,"dewp":24,"wdir":50,"wspd":8,"visib":"6+","altim":1013,"clouds":[{"cover":"SCT","base":2000}],"obsTime":1775228400},"SBPL":{"icaoId":"SBPL","flightCategory":"MVFR","rawOb":"METAR SBPL 031500Z 09006KT 9999 BKN025 28/22 Q1016","temp":28,"dewp":22,"wdir":90,"wspd":6,"visib":"6+","altim":1016,"clouds":[{"cover":"BKN","base":2500}],"obsTime":1775228400},"SBPP":{"icaoId":"SBPP","flightCategory":"VFR","rawOb":"METAR SBPP 031500Z 35008KT 9999 SCT020 29/22 Q1018","temp":29,"dewp":22,"wdir":350,"wspd":8,"visib":"6+","altim":1018,"clouds":[{"cover":"SCT","base":2000}],"obsTime":1775228400},"SBPS":{"icaoId":"SBPS","flightCategory":"MVFR","rawOb":"SPECI SBPS 031443Z 06015KT 5000 -RA BKN015 OVC080 26/23 Q1017","temp":26,"dewp":23,"wdir":60,"wspd":15,"visib":3.11,"altim":1017,"clouds":[{"cover":"BKN","base":1500},{"cover":"OVC","base":8000}],"obsTime":1775227380},"SBSC":{"icaoId":"SBSC","flightCategory":"VFR","rawOb":"METAR SBSC 031500Z 01009KT CAVOK 32/23 Q1013","temp":32,"dewp":23,"wdir":10,"wspd":9,"visib":"6+","altim":1013,"clouds":[],"obsTime":1775228400},"SBSJ":{"icaoId":"SBSJ","flightCategory":"VFR","rawOb":"METAR SBSJ 031500Z VRB03KT 9999 FEW025 28/20 Q1018","temp":28,"dewp":20,"wdir":"VRB","wspd":3,"visib":"6+","altim":1018,"clouds":[{"cover":"FEW","base":2500}],"obsTime":1775228400},"SBSM":{"icaoId":"SBSM","flightCategory":"VFR","rawOb":"METAR SBSM 031500Z 09003KT 9999 FEW025 29/22 Q1013","temp":29,"dewp":22,"wdir":90,"wspd":3,"visib":"6+","altim":1013,"clouds":[{"cover":"FEW","base":2500}],"obsTime":1775228400},"SBSR":{"icaoId":"SBSR","flightCategory":"VFR","rawOb":"METAR SBSR 031500Z 01005KT 9999 FEW035 29/19 Q1018","temp":29,"dewp":19,"wdir":10,"wspd":5,"visib":"6+","altim":1018,"clouds":[{"cover":"FEW","base":3500}],"obsTime":1775228400},"SBTF":{"icaoId":"SBTF","flightCategory":"VFR","rawOb":"METAR SBTF 031500Z 12005KT 9999 FEW017 32/26 Q1012","temp":32,"dewp":26,"wdir":120,"wspd":5,"visib":"6+","altim":1012,"clouds":[{"cover":"FEW","base":1700}],"obsTime":1775228400},"SBTT":{"icaoId":"SBTT","flightCategory":"MVFR","rawOb":"METAR SBTT 031500Z 00000KT 5000 -RA BKN014 BKN070 23/22 Q1014","temp":23,"dewp":22,"wdir":0,"wspd":0,"visib":3.11,"altim":1014,"clouds":[{"cover":"BKN","base":1400},{"cover":"BKN","base":7000}],"obsTime":1775228400},"SBUY":{"icaoId":"SBUY","flightCategory":"VFR","rawOb":"METAR SBUY 031500Z 18003KT 9999 SCT020 SCT090 29/25 Q1012","temp":29,"dewp":25,"wdir":180,"wspd":3,"visib":"6+","altim":1012,"clouds":[{"cover":"SCT","base":2000},{"cover":"SCT","base":9000}],"obsTime":1775228400},"SBVH":{"icaoId":"SBVH","flightCategory":"VFR","rawOb":"METAR SBVH 031500Z 08008KT 9999 FEW015 26/22 Q1017","temp":26,"dewp":22,"wdir":80,"wspd":8,"visib":"6+","altim":1017,"clouds":[{"cover":"FEW","base":1500}],"obsTime":1775228400},"SBCA":{"icaoId":"SBCA","flightCategory":"VFR","rawOb":"METAR SBCA 031500Z 36009KT 9999 SCT030 27/17 Q1019","temp":27,"dewp":17,"wdir":360,"wspd":9,"visib":"6+","altim":1019,"clouds":[{"cover":"SCT","base":3000}],"obsTime":1775228400},"SBGW":{"icaoId":"SBGW","flightCategory":"VFR","rawOb":"METAR SBGW 031500Z 01004KT 300V070 9999 SCT030 BKN100 30/18 Q1017","temp":30,"dewp":18,"wdir":10,"wspd":4,"visib":"6+","altim":1017,"clouds":[{"cover":"SCT","base":3000},{"cover":"BKN","base":10000}],"obsTime":1775228400},"SBJR":{"icaoId":"SBJR","flightCategory":"VFR","rawOb":"METAR SBJR 031500Z 02005KT CAVOK 35/23 Q1013","temp":35,"dewp":23,"wdir":20,"wspd":5,"visib":"6+","altim":1013,"clouds":[],"obsTime":1775228400},"SBLS":{"icaoId":"SBLS","flightCategory":"MVFR","rawOb":"METAR SBLS 031500Z VRB03KT 9999 BKN030 27/19 Q1021","temp":27,"dewp":19,"wdir":"VRB","wspd":3,"visib":"6+","altim":1021,"clouds":[{"cover":"BKN","base":3000}],"obsTime":1775228400},"SBMT":{"icaoId":"SBMT","flightCategory":"VFR","rawOb":"METAR SBMT 031500Z 31009G19KT 270V360 9999 SCT033 28/20 Q1019","temp":28,"dewp":20,"wdir":310,"wspd":9,"visib":"6+","altim":1019,"clouds":[{"cover":"SCT","base":3300}],"obsTime":1775228400},"SBST":{"icaoId":"SBST","flightCategory":"VFR","rawOb":"METAR SBST 031500Z 17006KT CAVOK 29/24 Q1013","temp":29,"dewp":24,"wdir":170,"wspd":6,"visib":"6+","altim":1013,"clouds":[],"obsTime":1775228400},"SBTA":{"icaoId":"SBTA","flightCategory":"VFR","rawOb":"METAR SBTA 031500Z 01005KT 320V080 CAVOK 29/19 Q1017","temp":29,"dewp":19,"wdir":10,"wspd":5,"visib":"6+","altim":1017,"clouds":[],"obsTime":1775228400},"SBJP":{"icaoId":"SBJP","flightCategory":"VFR","rawOb":"METAR SBJP 031500Z 10010KT 9999 SCT020 31/22 Q1013","temp":31,"dewp":22,"wdir":100,"wspd":10,"visib":"6+","altim":1013,"clouds":[{"cover":"SCT","base":2000}],"obsTime":1775228400},"SBIH":{"icaoId":"SBIH","flightCategory":"VFR","rawOb":"METAR SBIH 031500Z 03007KT 9999 SCT020 31/24 Q1012","temp":31,"dewp":24,"wdir":30,"wspd":7,"visib":"6+","altim":1012,"clouds":[{"cover":"SCT","base":2000}],"obsTime":1775228400},"SBJV":{"icaoId":"SBJV","flightCategory":"VFR","rawOb":"METAR SBJV 031500Z 12004KT 9999 FEW040 30/24 Q1013","temp":30,"dewp":24,"wdir":120,"wspd":4,"visib":"6+","altim":1013,"clouds":[{"cover":"FEW","base":4000}],"obsTime":1775228400},"SBAN":{"icaoId":"SBAN","flightCategory":"MVFR","rawOb":"METAR SBAN 031500Z 10010KT 9999 BKN018 SCT100 26/19 Q1022","temp":26,"dewp":19,"wdir":100,"wspd":10,"visib":"6+","altim":1022,"clouds":[{"cover":"BKN","base":1800},{"cover":"SCT","base":10000}],"obsTime":1775228400},"SBLE":{"icaoId":"SBLE","flightCategory":"VFR","rawOb":"METAR SBLE 031500Z AUTO 20004KT 150V310 9999 BKN046 26/23 Q1018","temp":26,"dewp":23,"wdir":200,"wspd":4,"visib":"6+","altim":1018,"clouds":[{"cover":"BKN","base":4600}],"obsTime":1775228400},"SBAF":{"icaoId":"SBAF","flightCategory":"VFR","rawOb":"METAR SBAF 031500Z 32003KT 9999 FEW030 32/23 Q1014","temp":32,"dewp":23,"wdir":320,"wspd":3,"visib":"6+","altim":1014,"clouds":[{"cover":"FEW","base":3000}],"obsTime":1775228400}}}