{"updated":1778004598,"count":85,"data":{"SBLO":{"icaoId":"SBLO","flightCategory":"VFR","rawOb":"METAR SBLO 051700Z 04006KT 9999 FEW030 29/19 Q1020","temp":29,"dewp":19,"wdir":40,"wspd":6,"visib":"6+","altim":1020,"clouds":[{"cover":"FEW","base":3000}],"obsTime":1778000400},"SBVT":{"icaoId":"SBVT","flightCategory":"VFR","rawOb":"METAR SBVT 051700Z 17010KT 9999 FEW040 27/20 Q1020","temp":27,"dewp":20,"wdir":170,"wspd":10,"visib":"6+","altim":1020,"clouds":[{"cover":"FEW","base":4000}],"obsTime":1778000400},"SBGO":{"icaoId":"SBGO","flightCategory":"VFR","rawOb":"METAR SBGO 051700Z 08009KT 030V130 CAVOK 30/15 Q1020","temp":30,"dewp":15,"wdir":80,"wspd":9,"visib":"6+","altim":1020,"clouds":[],"obsTime":1778000400},"SBMA":{"icaoId":"SBMA","flightCategory":"MVFR","rawOb":"METAR SBMA 051700Z 11004KT 9999 -RA BKN020 FEW023TCU 27/24 Q1012","temp":27,"dewp":24,"wdir":110,"wspd":4,"visib":"6+","altim":1012,"clouds":[{"cover":"BKN","base":2000},{"cover":"FEW","base":2300}],"obsTime":1778000400},"SBGR":{"icaoId":"SBGR","flightCategory":"VFR","rawOb":"METAR SBGR 051700Z 07007KT 9999 FEW035 29/16 Q1022","temp":29,"dewp":16,"wdir":70,"wspd":7,"visib":"6+","altim":1022,"clouds":[{"cover":"FEW","base":3500}],"obsTime":1778000400},"SBKP":{"icaoId":"SBKP","flightCategory":"VFR","rawOb":"METAR SBKP 051700Z VRB02KT 9999 SCT040 31/16 Q1021","temp":31,"dewp":16,"wdir":"VRB","wspd":2,"visib":"6+","altim":1021,"clouds":[{"cover":"SCT","base":4000}],"obsTime":1778000400},"SBBE":{"icaoId":"SBBE","flightCategory":"MVFR","rawOb":"METAR SBBE 051700Z 26005KT 9999 VCSH BKN025 FEW030TCU 27/25 Q1012","temp":27,"dewp":25,"wdir":260,"wspd":5,"visib":"6+","altim":1012,"clouds":[{"cover":"BKN","base":2500},{"cover":"FEW","base":3000}],"obsTime":1778000400},"SBBR":{"icaoId":"SBBR","flightCategory":"VFR","rawOb":"METAR SBBR 051700Z 11010KT 9999 SCT045 SCT070 26/13 Q1024","temp":26,"dewp":13,"wdir":110,"wspd":10,"visib":"6+","altim":1024,"clouds":[{"cover":"SCT","base":4500},{"cover":"SCT","base":7000}],"obsTime":1778000400},"SBTE":{"icaoId":"SBTE","flightCategory":"VFR","rawOb":"METAR SBTE 051700Z 16009KT 9999 SCT025 32/22 Q1011","temp":32,"dewp":22,"wdir":160,"wspd":9,"visib":"6+","altim":1011,"clouds":[{"cover":"SCT","base":2500}],"obsTime":1778000400},"SBBV":{"icaoId":"SBBV","flightCategory":"VFR","rawOb":"METAR SBBV 051700Z 10013KT 9999 BKN040 FEW045TCU 32/21 Q1013","temp":32,"dewp":21,"wdir":100,"wspd":13,"visib":"6+","altim":1013,"clouds":[{"cover":"BKN","base":4000},{"cover":"FEW","base":4500}],"obsTime":1778000400},"SBSV":{"icaoId":"SBSV","flightCategory":"VFR","rawOb":"METAR SBSV 051700Z 17009KT 9999 SCT024 FEW026TCU 30/22 Q1016","temp":30,"dewp":22,"wdir":170,"wspd":9,"visib":"6+","altim":1016,"clouds":[{"cover":"SCT","base":2400},{"cover":"FEW","base":2600}],"obsTime":1778000400},"SBCB":{"icaoId":"SBCB","flightCategory":"VFR","rawOb":"METAR SBCB 051700Z 07012KT CAVOK 27/20 Q1019","temp":27,"dewp":20,"wdir":70,"wspd":12,"visib":"6+","altim":1019,"clouds":[],"obsTime":1778000400},"SBSP":{"icaoId":"SBSP","flightCategory":"VFR","rawOb":"METAR SBSP 051700Z 03004KT 320V060 9999 SCT045 29/15 Q1023","temp":29,"dewp":15,"wdir":30,"wspd":4,"visib":"6+","altim":1023,"clouds":[{"cover":"SCT","base":4500}],"obsTime":1778000400},"SBSN":{"icaoId":"SBSN","flightCategory":"MVFR","rawOb":"SPECI SBSN 051610Z 10012KT 7000 2000W RA BKN015 FEW025TCU BKN073 27/25 Q1013","temp":27,"dewp":25,"wdir":100,"wspd":12,"visib":4.35,"altim":1013,"clouds":[{"cover":"BKN","base":1500},{"cover":"FEW","base":2500},{"cover":"BKN","base":7300}],"obsTime":1777997400},"SBCF":{"icaoId":"SBCF","flightCategory":"VFR","rawOb":"METAR SBCF 051700Z 10006KT 9999 FEW040 27/17 Q1022","temp":27,"dewp":17,"wdir":100,"wspd":6,"visib":"6+","altim":1022,"clouds":[{"cover":"FEW","base":4000}],"obsTime":1778000400},"SBSL":{"icaoId":"SBSL","flightCategory":"VFR","rawOb":"METAR SBSL 051700Z 29002KT 9999 VCSH SCT015 FEW025TCU BKN100 26/25 Q1011","temp":26,"dewp":25,"wdir":290,"wspd":2,"visib":"6+","altim":1011,"clouds":[{"cover":"SCT","base":1500},{"cover":"FEW","base":2500},{"cover":"BKN","base":10000}],"obsTime":1778000400},"SBCG":{"icaoId":"SBCG","flightCategory":"VFR","rawOb":"METAR SBCG 051700Z 32009KT CAVOK 32/16 Q1017","temp":32,"dewp":16,"wdir":320,"wspd":9,"visib":"6+","altim":1017,"clouds":[],"obsTime":1778000400},"SBSG":{"icaoId":"SBSG","flightCategory":"VFR","rawOb":"METAR SBSG 051700Z 14008KT 9999 SCT033 31/24 Q1011","temp":31,"dewp":24,"wdir":140,"wspd":8,"visib":"6+","altim":1011,"clouds":[{"cover":"SCT","base":3300}],"obsTime":1778000400},"SBCP":{"icaoId":"SBCP","flightCategory":"VFR","rawOb":"METAR SBCP 051700Z 09010KT 9999 FEW020 29/17 Q1019","temp":29,"dewp":17,"wdir":90,"wspd":10,"visib":"6+","altim":1019,"clouds":[{"cover":"FEW","base":2000}],"obsTime":1778000400},"SBRF":{"icaoId":"SBRF","flightCategory":"VFR","rawOb":"METAR SBRF 051700Z 17014KT 9999 SCT017 BKN100 29/24 Q1012","temp":29,"dewp":24,"wdir":170,"wspd":14,"visib":"6+","altim":1012,"clouds":[{"cover":"SCT","base":1700},{"cover":"BKN","base":10000}],"obsTime":1778000400},"SBCR":{"icaoId":"SBCR","flightCategory":"VFR","rawOb":"METAR SBCR 051700Z 01010KT 320V050 9999 SCT040 34/19 Q1013","temp":34,"dewp":19,"wdir":10,"wspd":10,"visib":"6+","altim":1013,"clouds":[{"cover":"SCT","base":4000}],"obsTime":1778000400},"SBCT":{"icaoId":"SBCT","flightCategory":"VFR","rawOb":"METAR SBCT 051700Z 30006KT 240V360 9999 SCT045 27/15 Q1023","temp":27,"dewp":15,"wdir":300,"wspd":6,"visib":"6+","altim":1023,"clouds":[{"cover":"SCT","base":4500}],"obsTime":1778000400},"SBRB":{"icaoId":"SBRB","flightCategory":"MVFR","rawOb":"METAR SBRB 051700Z 07004KT 9999 BKN025 SCT100 30/24 Q1014","temp":30,"dewp":24,"wdir":70,"wspd":4,"visib":"6+","altim":1014,"clouds":[{"cover":"BKN","base":2500},{"cover":"SCT","base":10000}],"obsTime":1778000400},"SBPV":{"icaoId":"SBPV","flightCategory":"VFR","rawOb":"METAR SBPV 051700Z 06004KT 9999 SCT025 30/27 Q1013","temp":30,"dewp":27,"wdir":60,"wspd":4,"visib":"6+","altim":1013,"clouds":[{"cover":"SCT","base":2500}],"obsTime":1778000400},"SBCZ":{"icaoId":"SBCZ","flightCategory":"MVFR","rawOb":"METAR SBCZ 051700Z 33003KT 9999 VCSH BKN025 SCT100 30/24 Q1014","temp":30,"dewp":24,"wdir":330,"wspd":3,"visib":"6+","altim":1014,"clouds":[{"cover":"BKN","base":2500},{"cover":"SCT","base":10000}],"obsTime":1778000400},"SBEG":{"icaoId":"SBEG","flightCategory":"VFR","rawOb":"METAR SBEG 051700Z 10004KT 9999 SCT015 BKN100 26/24 Q1013","temp":26,"dewp":24,"wdir":100,"wspd":4,"visib":"6+","altim":1013,"clouds":[{"cover":"SCT","base":1500},{"cover":"BKN","base":10000}],"obsTime":1778000400},"SBPJ":{"icaoId":"SBPJ","flightCategory":"VFR","rawOb":"METAR SBPJ 051700Z 11007KT 080V150 9999 FEW022 34/20 Q1014","temp":34,"dewp":20,"wdir":110,"wspd":7,"visib":"6+","altim":1014,"clouds":[{"cover":"FEW","base":2200}],"obsTime":1778000400},"SBPA":{"icaoId":"SBPA","flightCategory":"VFR","rawOb":"METAR SBPA 051700Z 28007KT 240V330 CAVOK 29/21 Q1015","temp":29,"dewp":21,"wdir":280,"wspd":7,"visib":"6+","altim":1015,"clouds":[],"obsTime":1778000400},"SBFI":{"icaoId":"SBFI","flightCategory":"VFR","rawOb":"METAR SBFI 051700Z 04008KT CAVOK 30/22 Q1016","temp":30,"dewp":22,"wdir":40,"wspd":8,"visib":"6+","altim":1016,"clouds":[],"obsTime":1778000400},"SBNT":{"icaoId":"SBNT","flightCategory":"VFR","rawOb":"METAR SBNT 051700Z 14016KT 9999 SCT030 SCT090 31/24 Q1011","temp":31,"dewp":24,"wdir":140,"wspd":16,"visib":"6+","altim":1011,"clouds":[{"cover":"SCT","base":3000},{"cover":"SCT","base":9000}],"obsTime":1778000400},"SBFL":{"icaoId":"SBFL","flightCategory":"VFR","rawOb":"METAR SBFL 051700Z 32008KT CAVOK 28/21 Q1017","temp":28,"dewp":21,"wdir":320,"wspd":8,"visib":"6+","altim":1017,"clouds":[],"obsTime":1778000400},"SBFZ":{"icaoId":"SBFZ","flightCategory":"VFR","rawOb":"METAR SBFZ 051700Z 15011KT 9999 SCT030 32/23 Q1010","temp":32,"dewp":23,"wdir":150,"wspd":11,"visib":"6+","altim":1010,"clouds":[{"cover":"SCT","base":3000}],"obsTime":1778000400},"SBMQ":{"icaoId":"SBMQ","flightCategory":"VFR","rawOb":"METAR SBMQ 051700Z 07007KT 9999 SCT016 FEW020TCU 29/25 Q1013","temp":29,"dewp":25,"wdir":70,"wspd":7,"visib":"6+","altim":1013,"clouds":[{"cover":"SCT","base":1600},{"cover":"FEW","base":2000}],"obsTime":1778000400},"SBGL":{"icaoId":"SBGL","flightCategory":"VFR","rawOb":"METAR SBGL 051700Z VRB06KT 9999 FEW025 30/19 Q1018","temp":30,"dewp":19,"wdir":"VRB","wspd":6,"visib":"6+","altim":1018,"clouds":[{"cover":"FEW","base":2500}],"obsTime":1778000400},"SBMO":{"icaoId":"SBMO","flightCategory":"MVFR","rawOb":"METAR SBMO 051700Z 17011KT 140V200 7000 VCSH SCT019 BKN025 FEW035TCU BKN080 27/24 Q1014","temp":27,"dewp":24,"wdir":170,"wspd":11,"visib":4.35,"altim":1014,"clouds":[{"cover":"SCT","base":1900},{"cover":"BKN","base":2500},{"cover":"FEW","base":3500},{"cover":"BKN","base":8000}],"obsTime":1778000400},"SBIL":{"icaoId":"SBIL","flightCategory":"VFR","rawOb":"METAR SBIL 051700Z 18008KT 9999 FEW020 29/23 Q1017","temp":29,"dewp":23,"wdir":180,"wspd":8,"visib":"6+","altim":1017,"clouds":[{"cover":"FEW","base":2000}],"obsTime":1778000400},"SBHT":{"icaoId":"SBHT","flightCategory":"VFR","rawOb":"METAR SBHT 051700Z 12003KT 9999 -RA SCT012 OVC080 26/24 Q1013","temp":26,"dewp":24,"wdir":120,"wspd":3,"visib":"6+","altim":1013,"clouds":[{"cover":"SCT","base":1200},{"cover":"OVC","base":8000}],"obsTime":1778000400},"SBME":{"icaoId":"SBME","flightCategory":"VFR","rawOb":"METAR SBME 051700Z 10012KT CAVOK 28/19 Q1019","temp":28,"dewp":19,"wdir":100,"wspd":12,"visib":"6+","altim":1019,"clouds":[],"obsTime":1778000400},"SBMG":{"icaoId":"SBMG","flightCategory":"VFR","rawOb":"METAR SBMG 051700Z 03005KT 9999 SCT040 29/20 Q1019","temp":29,"dewp":20,"wdir":30,"wspd":5,"visib":"6+","altim":1019,"clouds":[{"cover":"SCT","base":4000}],"obsTime":1778000400},"SBMK":{"icaoId":"SBMK","flightCategory":"VFR","rawOb":"METAR SBMK 051700Z 08010KT 9999 SCT040 29/15 Q1020","temp":29,"dewp":15,"wdir":80,"wspd":10,"visib":"6+","altim":1020,"clouds":[{"cover":"SCT","base":4000}],"obsTime":1778000400},"SBAT":{"icaoId":"SBAT","flightCategory":"VFR","rawOb":"METAR SBAT 051700Z 15002KT 9999 FEW030 SCT080 32/24 Q1014","temp":32,"dewp":24,"wdir":150,"wspd":2,"visib":"6+","altim":1014,"clouds":[{"cover":"FEW","base":3000},{"cover":"SCT","base":8000}],"obsTime":1778000400},"SBUR":{"icaoId":"SBUR","flightCategory":"VFR","rawOb":"METAR SBUR 051700Z 12007KT CAVOK 29/14 Q1021","temp":29,"dewp":14,"wdir":120,"wspd":7,"visib":"6+","altim":1021,"clouds":[],"obsTime":1778000400},"SBJU":{"icaoId":"SBJU","flightCategory":"VFR","rawOb":"METAR SBJU 051700Z 18005KT CAVOK 31/20 Q1013","temp":31,"dewp":20,"wdir":180,"wspd":5,"visib":"6+","altim":1013,"clouds":[],"obsTime":1778000400},"SBUL":{"icaoId":"SBUL","flightCategory":"VFR","rawOb":"METAR SBUL 051700Z 11008KT 9999 SCT045 27/15 Q1022","temp":27,"dewp":15,"wdir":110,"wspd":8,"visib":"6+","altim":1022,"clouds":[{"cover":"SCT","base":4500}],"obsTime":1778000400},"SBAR":{"icaoId":"SBAR","flightCategory":"VFR","rawOb":"METAR SBAR 051700Z 16011KT 9999 FEW025 30/23 Q1014","temp":30,"dewp":23,"wdir":160,"wspd":11,"visib":"6+","altim":1014,"clouds":[{"cover":"FEW","base":2500}],"obsTime":1778000400},"SBCJ":{"icaoId":"SBCJ","flightCategory":"VFR","rawOb":"METAR SBCJ 051700Z 14005KT 9999 SCT020 29/22 Q1016","temp":29,"dewp":22,"wdir":140,"wspd":5,"visib":"6+","altim":1016,"clouds":[{"cover":"SCT","base":2000}],"obsTime":1778000400},"SBOI":{"icaoId":"SBOI","flightCategory":"VFR","rawOb":"METAR SBOI 051700Z AUTO 05006KT 030V090 9999 FEW037 31/23 Q1013","temp":31,"dewp":23,"wdir":50,"wspd":6,"visib":"6+","altim":1013,"clouds":[{"cover":"FEW","base":3700}],"obsTime":1778000400},"SBPB":{"icaoId":"SBPB","flightCategory":"VFR","rawOb":"METAR SBPB 051700Z 01003KT 9999 TS SCT015 FEW026CB BKN080 26/25 Q1010 RERA","temp":26,"dewp":25,"wdir":10,"wspd":3,"visib":"6+","altim":1010,"clouds":[{"cover":"SCT","base":1500},{"cover":"FEW","base":2600},{"cover":"BKN","base":8000}],"obsTime":1778000400},"SBPL":{"icaoId":"SBPL","flightCategory":"VFR","rawOb":"METAR SBPL 051700Z 12013KT 9999 SCT030 31/19 Q1015","temp":31,"dewp":19,"wdir":120,"wspd":13,"visib":"6+","altim":1015,"clouds":[{"cover":"SCT","base":3000}],"obsTime":1778000400},"SBPP":{"icaoId":"SBPP","flightCategory":"VFR","rawOb":"METAR SBPP 051700Z 05013KT 9999 FEW020 28/20 Q1018","temp":28,"dewp":20,"wdir":50,"wspd":13,"visib":"6+","altim":1018,"clouds":[{"cover":"FEW","base":2000}],"obsTime":1778000400},"SBPS":{"icaoId":"SBPS","flightCategory":"VFR","rawOb":"METAR SBPS 051700Z 16004KT 9999 SCT025 28/22 Q1018","temp":28,"dewp":22,"wdir":160,"wspd":4,"visib":"6+","altim":1018,"clouds":[{"cover":"SCT","base":2500}],"obsTime":1778000400},"SBSJ":{"icaoId":"SBSJ","flightCategory":"VFR","rawOb":"METAR SBSJ 051700Z VRB03KT 9999 FEW040 29/18 Q1021","temp":29,"dewp":18,"wdir":"VRB","wspd":3,"visib":"6+","altim":1021,"clouds":[{"cover":"FEW","base":4000}],"obsTime":1778000400},"SBTF":{"icaoId":"SBTF","flightCategory":"VFR","rawOb":"METAR SBTF 051700Z 17003KT 9999 SCT015 OVC080 31/25 Q1012","temp":31,"dewp":25,"wdir":170,"wspd":3,"visib":"6+","altim":1012,"clouds":[{"cover":"SCT","base":1500},{"cover":"OVC","base":8000}],"obsTime":1778000400},"SBTT":{"icaoId":"SBTT","flightCategory":"MVFR","rawOb":"SPECI SBTT 051618Z 09002KT 7000 BKN030 OVC060 26/24 Q1014","temp":26,"dewp":24,"wdir":90,"wspd":2,"visib":4.35,"altim":1014,"clouds":[{"cover":"BKN","base":3000},{"cover":"OVC","base":6000}],"obsTime":1777997880},"SBUY":{"icaoId":"SBUY","flightCategory":"VFR","rawOb":"METAR SBUY 051700Z 11007KT 9999 SCT020 FEW030TCU BKN090 27/24 Q1012","temp":27,"dewp":24,"wdir":110,"wspd":7,"visib":"6+","altim":1012,"clouds":[{"cover":"SCT","base":2000},{"cover":"FEW","base":3000},{"cover":"BKN","base":9000}],"obsTime":1778000400},"SBSM":{"icaoId":"SBSM","flightCategory":"VFR","rawOb":"METAR SBSM 051700Z 30006KT 240V350 9999 FEW040 32/20 Q1015","temp":32,"dewp":20,"wdir":300,"wspd":6,"visib":"6+","altim":1015,"clouds":[{"cover":"FEW","base":4000}],"obsTime":1778000400},"SBDN":{"icaoId":"SBDN","flightCategory":"VFR","rawOb":"METAR SBDN 051700Z 04008KT CAVOK 33/18 Q1019","temp":33,"dewp":18,"wdir":40,"wspd":8,"visib":"6+","altim":1019,"clouds":[],"obsTime":1778000400},"SBES":{"icaoId":"SBES","flightCategory":"VFR","rawOb":"METAR SBES 051700Z VRB11KT CAVOK 28/// Q1019","temp":null,"dewp":null,"wdir":"VRB","wspd":11,"visib":"6+","altim":1019,"clouds":[],"obsTime":1778000400},"SBGM":{"icaoId":"SBGM","flightCategory":"VFR","rawOb":"METAR SBGM 051700Z 34005KT 9999 SCT030 BKN100 32/22 Q1013","temp":32,"dewp":22,"wdir":340,"wspd":5,"visib":"6+","altim":1013,"clouds":[{"cover":"SCT","base":3000},{"cover":"BKN","base":10000}],"obsTime":1778000400},"SBIP":{"icaoId":"SBIP","flightCategory":"VFR","rawOb":"METAR SBIP 051700Z AUTO 02005KT 340V060 9999 FEW044 29/17 Q1020","temp":29,"dewp":17,"wdir":20,"wspd":5,"visib":"6+","altim":1020,"clouds":[{"cover":"FEW","base":4400}],"obsTime":1778000400},"SBKG":{"icaoId":"SBKG","flightCategory":"MVFR","rawOb":"METAR SBKG 051700Z 17011KT 9999 BKN020 SCT080 28/22 Q1015","temp":28,"dewp":22,"wdir":170,"wspd":11,"visib":"6+","altim":1015,"clouds":[{"cover":"BKN","base":2000},{"cover":"SCT","base":8000}],"obsTime":1778000400},"SBSR":{"icaoId":"SBSR","flightCategory":"VFR","rawOb":"METAR SBSR 051700Z 10005KT 9999 FEW035 31/14 Q1019","temp":31,"dewp":14,"wdir":100,"wspd":5,"visib":"6+","altim":1019,"clouds":[{"cover":"FEW","base":3500}],"obsTime":1778000400},"SBVH":{"icaoId":"SBVH","flightCategory":"VFR","rawOb":"METAR SBVH 051700Z 12005KT 9999 BKN040 BKN091 29/22 Q1017","temp":29,"dewp":22,"wdir":120,"wspd":5,"visib":"6+","altim":1017,"clouds":[{"cover":"BKN","base":4000},{"cover":"BKN","base":9100}],"obsTime":1778000400},"SBCO":{"icaoId":"SBCO","flightCategory":"VFR","rawOb":"METAR SBCO 051700Z 29006KT 260V330 CAVOK 30/21 Q1016","temp":30,"dewp":21,"wdir":290,"wspd":6,"visib":"6+","altim":1016,"clouds":[],"obsTime":1778000400},"SBSC":{"icaoId":"SBSC","flightCategory":"VFR","rawOb":"METAR SBSC 051700Z 36005KT CAVOK 31/20 Q1018","temp":31,"dewp":20,"wdir":360,"wspd":5,"visib":"6+","altim":1018,"clouds":[],"obsTime":1778000400},"SBAU":{"icaoId":"SBAU","flightCategory":"VFR","rawOb":"METAR SBAU 051700Z 06008KT 9999 FEW030 33/16 Q1018","temp":33,"dewp":16,"wdir":60,"wspd":8,"visib":"6+","altim":1018,"clouds":[{"cover":"FEW","base":3000}],"obsTime":1778000400},"SBAX":{"icaoId":"SBAX","flightCategory":"VFR","rawOb":"METAR SBAX 051700Z AUTO 11008KT 070V140 CAVOK 28/13 Q1023","temp":28,"dewp":13,"wdir":110,"wspd":8,"visib":"6+","altim":1023,"clouds":[],"obsTime":1778000400},"SBBH":{"icaoId":"SBBH","flightCategory":"VFR","rawOb":"METAR SBBH 051700Z 08007KT 9999 FEW035 28/17 Q1022","temp":28,"dewp":17,"wdir":80,"wspd":7,"visib":"6+","altim":1022,"clouds":[{"cover":"FEW","base":3500}],"obsTime":1778000400},"SBBQ":{"icaoId":"SBBQ","flightCategory":"VFR","rawOb":"METAR SBBQ 051700Z 09008KT 9999 FEW040 25/14 Q1026","temp":25,"dewp":14,"wdir":90,"wspd":8,"visib":"6+","altim":1026,"clouds":[{"cover":"FEW","base":4000}],"obsTime":1778000400},"SBBU":{"icaoId":"SBBU","flightCategory":"VFR","rawOb":"METAR SBBU 051700Z 01002KT CAVOK 31/18 Q1020","temp":31,"dewp":18,"wdir":10,"wspd":2,"visib":"6+","altim":1020,"clouds":[],"obsTime":1778000400},"SBCA":{"icaoId":"SBCA","flightCategory":"VFR","rawOb":"METAR SBCA 051700Z 02012KT 9999 FEW030 28/18 Q1021","temp":28,"dewp":18,"wdir":20,"wspd":12,"visib":"6+","altim":1021,"clouds":[{"cover":"FEW","base":3000}],"obsTime":1778000400},"SBCC":{"icaoId":"SBCC","flightCategory":"VFR","rawOb":"METAR SBCC 051700Z 06009KT 030V110 9999 SCT030 FEW035TCU SCT100 30/20 Q1015","temp":30,"dewp":20,"wdir":60,"wspd":9,"visib":"6+","altim":1015,"clouds":[{"cover":"SCT","base":3000},{"cover":"FEW","base":3500},{"cover":"SCT","base":10000}],"obsTime":1778000400},"SBJP":{"icaoId":"SBJP","flightCategory":"VFR","rawOb":"METAR SBJP 051700Z 14014KT 9999 SCT025 BKN100 29/24 Q1012","temp":29,"dewp":24,"wdir":140,"wspd":14,"visib":"6+","altim":1012,"clouds":[{"cover":"SCT","base":2500},{"cover":"BKN","base":10000}],"obsTime":1778000400},"SBLE":{"icaoId":"SBLE","flightCategory":"VFR","rawOb":"METAR SBLE 051700Z AUTO 17006KT 140V210 9999 SCT033 26/19 Q1018","temp":26,"dewp":19,"wdir":170,"wspd":6,"visib":"6+","altim":1018,"clouds":[{"cover":"SCT","base":3300}],"obsTime":1778000400},"SBJV":{"icaoId":"SBJV","flightCategory":"VFR","rawOb":"METAR SBJV 051700Z 11005KT CAVOK 27/21 Q1018","temp":27,"dewp":21,"wdir":110,"wspd":5,"visib":"6+","altim":1018,"clouds":[],"obsTime":1778000400},"SBNM":{"icaoId":"SBNM","flightCategory":"VFR","rawOb":"METAR SBNM 051700Z 01010KT 9999 SCT020 31/20 Q1016","temp":31,"dewp":20,"wdir":10,"wspd":10,"visib":"6+","altim":1016,"clouds":[{"cover":"SCT","base":2000}],"obsTime":1778000400},"SBIH":{"icaoId":"SBIH","flightCategory":"VFR","rawOb":"METAR SBIH 051700Z 09005KT 9999 SCT018 FEW023TCU 28/26 Q1011 RERA","temp":28,"dewp":26,"wdir":90,"wspd":5,"visib":"6+","altim":1011,"clouds":[{"cover":"SCT","base":1800},{"cover":"FEW","base":2300}],"obsTime":1778000400},"SBAN":{"icaoId":"SBAN","flightCategory":"VFR","rawOb":"METAR SBAN 051700Z 20009KT 160V230 9999 SCT040 26/14 Q1023","temp":26,"dewp":14,"wdir":200,"wspd":9,"visib":"6+","altim":1023,"clouds":[{"cover":"SCT","base":4000}],"obsTime":1778000400},"SBAF":{"icaoId":"SBAF","flightCategory":"VFR","rawOb":"METAR SBAF 051700Z 05004KT CAVOK 32/18 Q1018","temp":32,"dewp":18,"wdir":50,"wspd":4,"visib":"6+","altim":1018,"clouds":[],"obsTime":1778000400},"SBGW":{"icaoId":"SBGW","flightCategory":"VFR","rawOb":"METAR SBGW 051700Z 05003KT 9999 FEW025 29/14 Q1021","temp":29,"dewp":14,"wdir":50,"wspd":3,"visib":"6+","altim":1021,"clouds":[{"cover":"FEW","base":2500}],"obsTime":1778000400},"SBJR":{"icaoId":"SBJR","flightCategory":"VFR","rawOb":"METAR SBJR 051700Z 16008KT CAVOK 29/21 Q1018","temp":29,"dewp":21,"wdir":160,"wspd":8,"visib":"6+","altim":1018,"clouds":[],"obsTime":1778000400},"SBLS":{"icaoId":"SBLS","flightCategory":"VFR","rawOb":"METAR SBLS 051700Z 14006KT 050V150 9999 FEW040 26/16 Q1022","temp":26,"dewp":16,"wdir":140,"wspd":6,"visib":"6+","altim":1022,"clouds":[{"cover":"FEW","base":4000}],"obsTime":1778000400},"SBMT":{"icaoId":"SBMT","flightCategory":"VFR","rawOb":"METAR SBMT 051700Z 09004KT 050V170 CAVOK 28/16 Q1022","temp":28,"dewp":16,"wdir":90,"wspd":4,"visib":"6+","altim":1022,"clouds":[],"obsTime":1778000400},"SBST":{"icaoId":"SBST","flightCategory":"VFR","rawOb":"METAR SBST 051700Z /////KT 9000 NSC ///// Q1018","temp":null,"dewp":null,"wdir":null,"wspd":null,"visib":5.59,"altim":1018,"clouds":[],"obsTime":1778000400},"SBTA":{"icaoId":"SBTA","flightCategory":"VFR","rawOb":"METAR SBTA 051700Z 03004KT 320V090 9999 FEW035 29/15 Q1021","temp":29,"dewp":15,"wdir":30,"wspd":4,"visib":"6+","altim":1021,"clouds":[{"cover":"FEW","base":3500}],"obsTime":1778000400}}}