{"updated":1775017430,"count":53,"data":{"SBSP":{"icaoId":"SBSP","flightCategory":"VFR","rawOb":"METAR SBSP 010300Z AUTO VRB02KT 9999 FEW015 19/17 Q1017","temp":19,"dewp":17,"wdir":"VRB","wspd":2,"visib":"6+","altim":1017,"clouds":[{"cover":"FEW","base":1500}],"obsTime":1775012400},"SBLO":{"icaoId":"SBLO","flightCategory":"VFR","rawOb":"METAR SBLO 010300Z 11006KT 9999 -TSRA BKN040 FEW050CB 19/17 Q1014","temp":19,"dewp":17,"wdir":110,"wspd":6,"visib":"6+","altim":1014,"clouds":[{"cover":"BKN","base":4000},{"cover":"FEW","base":5000}],"obsTime":1775012400},"SBBV":{"icaoId":"SBBV","flightCategory":"VFR","rawOb":"METAR SBBV 010300Z 32006KT 9999 VCTS FEW040 FEW045CB SCT070 27/23 Q1012","temp":27,"dewp":23,"wdir":320,"wspd":6,"visib":"6+","altim":1012,"clouds":[{"cover":"FEW","base":4000},{"cover":"FEW","base":4500},{"cover":"SCT","base":7000}],"obsTime":1775012400},"SBMO":{"icaoId":"SBMO","flightCategory":"VFR","rawOb":"METAR SBMO 010300Z 30003KT 9999 FEW007 SCT017 BKN050 24/23 Q1011","temp":24,"dewp":23,"wdir":300,"wspd":3,"visib":"6+","altim":1011,"clouds":[{"cover":"FEW","base":700},{"cover":"SCT","base":1700},{"cover":"BKN","base":5000}],"obsTime":1775012400},"SBMQ":{"icaoId":"SBMQ","flightCategory":"VFR","rawOb":"METAR SBMQ 010300Z 26003KT 9999 -RA NSC 25/24 Q1011","temp":25,"dewp":24,"wdir":260,"wspd":3,"visib":"6+","altim":1011,"clouds":[],"obsTime":1775012400},"SBGL":{"icaoId":"SBGL","flightCategory":"MVFR","rawOb":"METAR SBGL 010300Z 08003KT 040V110 7000 FEW005 BKN010 23/22 Q1012","temp":23,"dewp":22,"wdir":80,"wspd":3,"visib":4.35,"altim":1012,"clouds":[{"cover":"FEW","base":500},{"cover":"BKN","base":1000}],"obsTime":1775012400},"SBGO":{"icaoId":"SBGO","flightCategory":"VFR","rawOb":"METAR SBGO 010300Z 12006KT 070V170 9999 VCTS FEW043 FEW045CB BKN060 OVC100 22/19 Q1016","temp":22,"dewp":19,"wdir":120,"wspd":6,"visib":"6+","altim":1016,"clouds":[{"cover":"FEW","base":4300},{"cover":"FEW","base":4500},{"cover":"BKN","base":6000},{"cover":"OVC","base":10000}],"obsTime":1775012400},"SBNT":{"icaoId":"SBNT","flightCategory":"MVFR","rawOb":"METAR SBNT 010300Z 12011KT 9000 4000E +RA SCT015 BKN027 FEW030TCU OVC040 25/24 Q1011","temp":25,"dewp":24,"wdir":120,"wspd":11,"visib":5.59,"altim":1011,"clouds":[{"cover":"SCT","base":1500},{"cover":"BKN","base":2700},{"cover":"FEW","base":3000},{"cover":"OVC","base":4000}],"obsTime":1775012400},"SBPA":{"icaoId":"SBPA","flightCategory":"VFR","rawOb":"METAR SBPA 010300Z 10011KT CAVOK 23/19 Q1011","temp":23,"dewp":19,"wdir":100,"wspd":11,"visib":"6+","altim":1011,"clouds":[],"obsTime":1775012400},"SBCT":{"icaoId":"SBCT","flightCategory":"VFR","rawOb":"METAR SBCT 010300Z 11004KT 9999 BKN045 BKN065 16/16 Q1017","temp":16,"dewp":16,"wdir":110,"wspd":4,"visib":"6+","altim":1017,"clouds":[{"cover":"BKN","base":4500},{"cover":"BKN","base":6500}],"obsTime":1775012400},"SBGR":{"icaoId":"SBGR","flightCategory":"MVFR","rawOb":"METAR SBGR 010300Z 10003KT 9999 BKN011 19/18 Q1016","temp":19,"dewp":18,"wdir":100,"wspd":3,"visib":"6+","altim":1016,"clouds":[{"cover":"BKN","base":1100}],"obsTime":1775012400},"SBPJ":{"icaoId":"SBPJ","flightCategory":"VFR","rawOb":"METAR SBPJ 010300Z 09003KT 060V120 CAVOK 23/21 Q1012","temp":23,"dewp":21,"wdir":90,"wspd":3,"visib":"6+","altim":1012,"clouds":[],"obsTime":1775012400},"SBBR":{"icaoId":"SBBR","flightCategory":"VFR","rawOb":"METAR SBBR 010300Z VRB01KT CAVOK 20/18 Q1017","temp":20,"dewp":18,"wdir":"VRB","wspd":1,"visib":"6+","altim":1017,"clouds":[],"obsTime":1775012400},"SBPV":{"icaoId":"SBPV","flightCategory":"VFR","rawOb":"METAR SBPV 010300Z 33003KT 9999 FEW040 FEW045TCU BKN100 25/23 Q1009","temp":25,"dewp":23,"wdir":330,"wspd":3,"visib":"6+","altim":1009,"clouds":[{"cover":"FEW","base":4000},{"cover":"FEW","base":4500},{"cover":"BKN","base":10000}],"obsTime":1775012400},"SBEG":{"icaoId":"SBEG","flightCategory":"VFR","rawOb":"METAR SBEG 010300Z 36002KT 9999 VCTS FEW020 FEW025CB SCT080 24/24 Q1011","temp":24,"dewp":24,"wdir":360,"wspd":2,"visib":"6+","altim":1011,"clouds":[{"cover":"FEW","base":2000},{"cover":"FEW","base":2500},{"cover":"SCT","base":8000}],"obsTime":1775012400},"SBRB":{"icaoId":"SBRB","flightCategory":"MVFR","rawOb":"METAR SBRB 010300Z 26004KT 8000 VCTS FEW030CB SCT100 24/23 Q1010","temp":24,"dewp":23,"wdir":260,"wspd":4,"visib":4.97,"altim":1010,"clouds":[{"cover":"FEW","base":3000},{"cover":"SCT","base":10000}],"obsTime":1775012400},"SBJU":{"icaoId":"SBJU","flightCategory":"MVFR","rawOb":"METAR SBJU 010300Z 01003KT 9999 BKN020 24/23 Q1013 RETS","temp":24,"dewp":23,"wdir":10,"wspd":3,"visib":"6+","altim":1013,"clouds":[{"cover":"BKN","base":2000}],"obsTime":1775012400},"SBRF":{"icaoId":"SBRF","flightCategory":"MVFR","rawOb":"METAR SBRF 010300Z 20003KT 160V240 8000 FEW007 BKN011 BKN015 25/24 Q1010","temp":25,"dewp":24,"wdir":200,"wspd":3,"visib":4.97,"altim":1010,"clouds":[{"cover":"FEW","base":700},{"cover":"BKN","base":1100},{"cover":"BKN","base":1500}],"obsTime":1775012400},"SBKP":{"icaoId":"SBKP","flightCategory":"VFR","rawOb":"METAR SBKP 010300Z 00000KT 9999 FEW040 20/18 Q1015","temp":20,"dewp":18,"wdir":0,"wspd":0,"visib":"6+","altim":1015,"clouds":[{"cover":"FEW","base":4000}],"obsTime":1775012400},"SBSG":{"icaoId":"SBSG","flightCategory":"VFR","rawOb":"METAR SBSG 010300Z VRB02KT 9999 SCT018 FEW023TCU 25/24 Q1010","temp":25,"dewp":24,"wdir":"VRB","wspd":2,"visib":"6+","altim":1010,"clouds":[{"cover":"SCT","base":1800},{"cover":"FEW","base":2300}],"obsTime":1775012400},"SBFI":{"icaoId":"SBFI","flightCategory":"VFR","rawOb":"METAR SBFI 010300Z 00000KT 9999 FEW030 22/21 Q1009","temp":22,"dewp":21,"wdir":0,"wspd":0,"visib":"6+","altim":1009,"clouds":[{"cover":"FEW","base":3000}],"obsTime":1775012400},"SBSL":{"icaoId":"SBSL","flightCategory":"VFR","rawOb":"METAR SBSL 010300Z 13007KT 9999 FEW020 SCT080 26/24 Q1011","temp":26,"dewp":24,"wdir":130,"wspd":7,"visib":"6+","altim":1011,"clouds":[{"cover":"FEW","base":2000},{"cover":"SCT","base":8000}],"obsTime":1775012400},"SBCF":{"icaoId":"SBCF","flightCategory":"VFR","rawOb":"METAR SBCF 010300Z 19004KT 9999 SCT040 BKN090 18/17 Q1017","temp":18,"dewp":17,"wdir":190,"wspd":4,"visib":"6+","altim":1017,"clouds":[{"cover":"SCT","base":4000},{"cover":"BKN","base":9000}],"obsTime":1775012400},"SBSN":{"icaoId":"SBSN","flightCategory":"VFR","rawOb":"METAR SBSN 010300Z 15003KT 9999 -RA SCT013 BKN090 26/24 Q1011","temp":26,"dewp":24,"wdir":150,"wspd":3,"visib":"6+","altim":1011,"clouds":[{"cover":"SCT","base":1300},{"cover":"BKN","base":9000}],"obsTime":1775012400},"SBSV":{"icaoId":"SBSV","flightCategory":"VFR","rawOb":"METAR SBSV 010300Z VRB02KT 9999 FEW021 SCT032 25/23 Q1012","temp":25,"dewp":23,"wdir":"VRB","wspd":2,"visib":"6+","altim":1012,"clouds":[{"cover":"FEW","base":2100},{"cover":"SCT","base":3200}],"obsTime":1775012400},"SBMG":{"icaoId":"SBMG","flightCategory":"VFR","rawOb":"METAR SBMG 010300Z 10008KT 9999 FEW030 BKN090 20/19 Q1012","temp":20,"dewp":19,"wdir":100,"wspd":8,"visib":"6+","altim":1012,"clouds":[{"cover":"FEW","base":3000},{"cover":"BKN","base":9000}],"obsTime":1775012400},"SBMK":{"icaoId":"SBMK","flightCategory":"VFR","rawOb":"METAR SBMK 010300Z 00000KT CAVOK 21/19 Q1016","temp":21,"dewp":19,"wdir":0,"wspd":0,"visib":"6+","altim":1016,"clouds":[],"obsTime":1775012400},"SBFZ":{"icaoId":"SBFZ","flightCategory":"VFR","rawOb":"METAR SBFZ 010300Z 08007KT 040V130 9999 SCT020 27/23 Q1010","temp":27,"dewp":23,"wdir":80,"wspd":7,"visib":"6+","altim":1010,"clouds":[{"cover":"SCT","base":2000}],"obsTime":1775012400},"SBFL":{"icaoId":"SBFL","flightCategory":"VFR","rawOb":"METAR SBFL 010300Z 26005KT CAVOK 22/20 Q1012","temp":22,"dewp":20,"wdir":260,"wspd":5,"visib":"6+","altim":1012,"clouds":[],"obsTime":1775012400},"SBMA":{"icaoId":"SBMA","flightCategory":"VFR","rawOb":"METAR SBMA 010300Z 00000KT CAVOK 25/24 Q1011","temp":25,"dewp":24,"wdir":0,"wspd":0,"visib":"6+","altim":1011,"clouds":[],"obsTime":1775012400},"SBUL":{"icaoId":"SBUL","flightCategory":"VFR","rawOb":"METAR SBUL 010300Z 14010KT 9999 FEW049 20/17 Q1016","temp":20,"dewp":17,"wdir":140,"wspd":10,"visib":"6+","altim":1016,"clouds":[{"cover":"FEW","base":4900}],"obsTime":1775012400},"SBBE":{"icaoId":"SBBE","flightCategory":"VFR","rawOb":"METAR SBBE 010300Z 07006KT 9999 FEW041 SCT055 BKN080 25/25 Q1011","temp":25,"dewp":25,"wdir":70,"wspd":6,"visib":"6+","altim":1011,"clouds":[{"cover":"FEW","base":4100},{"cover":"SCT","base":5500},{"cover":"BKN","base":8000}],"obsTime":1775012400},"SBUR":{"icaoId":"SBUR","flightCategory":"VFR","rawOb":"METAR SBUR 010300Z 10006KT CAVOK 21/17 Q1015","temp":21,"dewp":17,"wdir":100,"wspd":6,"visib":"6+","altim":1015,"clouds":[],"obsTime":1775012400},"SBVT":{"icaoId":"SBVT","flightCategory":"VFR","rawOb":"METAR SBVT 010300Z 01005KT 9999 FEW018 SCT050 25/23 Q1014","temp":25,"dewp":23,"wdir":10,"wspd":5,"visib":"6+","altim":1014,"clouds":[{"cover":"FEW","base":1800},{"cover":"SCT","base":5000}],"obsTime":1775012400},"SBME":{"icaoId":"SBME","flightCategory":"MVFR","rawOb":"METAR SBME 010300Z 07004KT 6000 -RA BKN015 OVC080 24/22 Q1013","temp":24,"dewp":22,"wdir":70,"wspd":4,"visib":3.73,"altim":1013,"clouds":[{"cover":"BKN","base":1500},{"cover":"OVC","base":8000}],"obsTime":1775012400},"SBCG":{"icaoId":"SBCG","flightCategory":"VFR","rawOb":"METAR SBCG 010300Z 06006KT 9999 VCTS FEW045 FEW050CB 23/17 Q1012","temp":23,"dewp":17,"wdir":60,"wspd":6,"visib":"6+","altim":1012,"clouds":[{"cover":"FEW","base":4500},{"cover":"FEW","base":5000}],"obsTime":1775012400},"SBTE":{"icaoId":"SBTE","flightCategory":"VFR","rawOb":"METAR SBTE 010300Z 34004KT 9999 SCT020 26/24 Q1010","temp":26,"dewp":24,"wdir":340,"wspd":4,"visib":"6+","altim":1010,"clouds":[{"cover":"SCT","base":2000}],"obsTime":1775012400},"SBSR":{"icaoId":"SBSR","flightCategory":"VFR","rawOb":"METAR SBSR 010300Z 09006KT 9999 SCT035 BKN080 22/18 Q1014","temp":22,"dewp":18,"wdir":90,"wspd":6,"visib":"6+","altim":1014,"clouds":[{"cover":"SCT","base":3500},{"cover":"BKN","base":8000}],"obsTime":1775012400},"SBAR":{"icaoId":"SBAR","flightCategory":"VFR","rawOb":"METAR SBAR 010300Z 10009KT 9999 SCT022 28/24 Q1011","temp":28,"dewp":24,"wdir":100,"wspd":9,"visib":"6+","altim":1011,"clouds":[{"cover":"SCT","base":2200}],"obsTime":1775012400},"SBAX":{"icaoId":"SBAX","flightCategory":"VFR","rawOb":"METAR SBAX 010300Z AUTO 10009KT CAVOK ///// Q1017","temp":null,"dewp":null,"wdir":100,"wspd":9,"visib":"6+","altim":1017,"clouds":[],"obsTime":1775012400},"SBDN":{"icaoId":"SBDN","flightCategory":"VFR","rawOb":"METAR SBDN 010300Z 08004KT CAVOK 22/18 Q1012","temp":22,"dewp":18,"wdir":80,"wspd":4,"visib":"6+","altim":1012,"clouds":[],"obsTime":1775012400},"SBIP":{"icaoId":"SBIP","flightCategory":"VFR","rawOb":"METAR SBIP 010300Z AUTO VRB02KT CAVOK 21/21 Q1014","temp":21,"dewp":21,"wdir":"VRB","wspd":2,"visib":"6+","altim":1014,"clouds":[],"obsTime":1775012400},"SBKG":{"icaoId":"SBKG","flightCategory":"IFR","rawOb":"METAR SBKG 010300Z 10007KT 9999 SCT004 BKN005 23/23 Q1013","temp":23,"dewp":23,"wdir":100,"wspd":7,"visib":"6+","altim":1013,"clouds":[{"cover":"SCT","base":400},{"cover":"BKN","base":500}],"obsTime":1775012400},"SBPL":{"icaoId":"SBPL","flightCategory":"VFR","rawOb":"METAR SBPL 010300Z 10006KT 9999 FEW020 BKN070 26/22 Q1013","temp":26,"dewp":22,"wdir":100,"wspd":6,"visib":"6+","altim":1013,"clouds":[{"cover":"FEW","base":2000},{"cover":"BKN","base":7000}],"obsTime":1775012400},"SBPS":{"icaoId":"SBPS","flightCategory":"VFR","rawOb":"METAR SBPS 010300Z 09005KT 9999 FEW020 SCT100 26/23 Q1014","temp":26,"dewp":23,"wdir":90,"wspd":5,"visib":"6+","altim":1014,"clouds":[{"cover":"FEW","base":2000},{"cover":"SCT","base":10000}],"obsTime":1775012400},"SBSC":{"icaoId":"SBSC","flightCategory":"VFR","rawOb":"METAR SBSC 010300Z 04004KT 9999 FEW040 21/21 Q1012","temp":21,"dewp":21,"wdir":40,"wspd":4,"visib":"6+","altim":1012,"clouds":[{"cover":"FEW","base":4000}],"obsTime":1775012400},"SBSM":{"icaoId":"SBSM","flightCategory":"VFR","rawOb":"METAR SBSM 010300Z 11007KT CAVOK 22/20 Q1011","temp":22,"dewp":20,"wdir":110,"wspd":7,"visib":"6+","altim":1011,"clouds":[],"obsTime":1775012400},"SBCO":{"icaoId":"SBCO","flightCategory":"VFR","rawOb":"METAR SBCO 010300Z 10009KT CAVOK 21/19 Q1012","temp":21,"dewp":19,"wdir":100,"wspd":9,"visib":"6+","altim":1012,"clouds":[],"obsTime":1775012400},"SBSJ":{"icaoId":"SBSJ","flightCategory":"VFR","rawOb":"SPECI SBSJ 010230Z VRB02KT CAVOK 18/17 Q1016","temp":18,"dewp":17,"wdir":"VRB","wspd":2,"visib":"6+","altim":1016,"clouds":[],"obsTime":1775010600},"SBJP":{"icaoId":"SBJP","flightCategory":"IFR","rawOb":"METAR SBJP 010300Z 14003KT 3000 -RA BKN010 SCT018 BKN070 25/24 Q1011","temp":25,"dewp":24,"wdir":140,"wspd":3,"visib":1.86,"altim":1011,"clouds":[{"cover":"BKN","base":1000},{"cover":"SCT","base":1800},{"cover":"BKN","base":7000}],"obsTime":1775012400},"SBAN":{"icaoId":"SBAN","flightCategory":"VFR","rawOb":"METAR SBAN 010300Z 11001KT 9999 FEW040 SCT100 19/17 Q1018","temp":19,"dewp":17,"wdir":110,"wspd":1,"visib":"6+","altim":1018,"clouds":[{"cover":"FEW","base":4000},{"cover":"SCT","base":10000}],"obsTime":1775012400},"SBLE":{"icaoId":"SBLE","flightCategory":"VFR","rawOb":"METAR SBLE 010300Z AUTO 13004KT CAVOK ///// Q////","temp":null,"dewp":null,"wdir":130,"wspd":4,"visib":"6+","altim":null,"clouds":[],"obsTime":1775012400},"SBTA":{"icaoId":"SBTA","flightCategory":"MVFR","rawOb":"METAR SBTA 010300Z 32002KT 9999 BKN030 19/19 Q1014","temp":19,"dewp":19,"wdir":320,"wspd":2,"visib":"6+","altim":1014,"clouds":[{"cover":"BKN","base":3000}],"obsTime":1775012400}}}