{"updated":1773786560,"count":81,"data":{"SBRB":{"icaoId":"SBRB","flightCategory":"MVFR","rawOb":"METAR SBRB 172100Z 36008KT 8000 VCSH SCT030 FEW035TCU SCT100 29/25 Q1005","temp":29,"dewp":25,"wdir":360,"wspd":8,"visib":4.97,"altim":1005,"clouds":[{"cover":"SCT","base":3000},{"cover":"FEW","base":3500},{"cover":"SCT","base":10000}],"obsTime":1773781200},"SBTE":{"icaoId":"SBTE","flightCategory":"VFR","rawOb":"METAR SBTE 172100Z 35007KT 9999 VCTS FEW025 FEW030CB SCT080 29/25 Q1008","temp":29,"dewp":25,"wdir":350,"wspd":7,"visib":"6+","altim":1008,"clouds":[{"cover":"FEW","base":2500},{"cover":"FEW","base":3000},{"cover":"SCT","base":8000}],"obsTime":1773781200},"SBBR":{"icaoId":"SBBR","flightCategory":"VFR","rawOb":"METAR SBBR 172100Z 24003KT 9999 VCTS SCT030 FEW040CB BKN100 23/18 Q1016 RETS","temp":23,"dewp":18,"wdir":240,"wspd":3,"visib":"6+","altim":1016,"clouds":[{"cover":"SCT","base":3000},{"cover":"FEW","base":4000},{"cover":"BKN","base":10000}],"obsTime":1773781200},"SBVT":{"icaoId":"SBVT","flightCategory":"VFR","rawOb":"METAR SBVT 172100Z 05006KT 9999 SCT049 26/21 Q1011","temp":26,"dewp":21,"wdir":50,"wspd":6,"visib":"6+","altim":1011,"clouds":[{"cover":"SCT","base":4900}],"obsTime":1773781200},"SBBE":{"icaoId":"SBBE","flightCategory":"VFR","rawOb":"METAR SBBE 172100Z 06007KT 9999 FEW049 BKN100 24/24 Q1009","temp":24,"dewp":24,"wdir":60,"wspd":7,"visib":"6+","altim":1009,"clouds":[{"cover":"FEW","base":4900},{"cover":"BKN","base":10000}],"obsTime":1773781200},"SBBV":{"icaoId":"SBBV","flightCategory":"VFR","rawOb":"METAR SBBV 172100Z 10014KT 9999 BKN040 FEW045TCU 33/19 Q1007","temp":33,"dewp":19,"wdir":100,"wspd":14,"visib":"6+","altim":1007,"clouds":[{"cover":"BKN","base":4000},{"cover":"FEW","base":4500}],"obsTime":1773781200},"SBCF":{"icaoId":"SBCF","flightCategory":"VFR","rawOb":"METAR SBCF 172100Z 02008KT 9999 TS BKN040 FEW045CB 24/20 Q1015","temp":24,"dewp":20,"wdir":20,"wspd":8,"visib":"6+","altim":1015,"clouds":[{"cover":"BKN","base":4000},{"cover":"FEW","base":4500}],"obsTime":1773781200},"SBCG":{"icaoId":"SBCG","flightCategory":"VFR","rawOb":"METAR SBCG 172100Z 31007KT 260V350 9999 VCSH VCTS FEW015 SCT030 FEW035CB 24/20 Q1010","temp":24,"dewp":20,"wdir":310,"wspd":7,"visib":"6+","altim":1010,"clouds":[{"cover":"FEW","base":1500},{"cover":"SCT","base":3000},{"cover":"FEW","base":3500}],"obsTime":1773781200},"SBCP":{"icaoId":"SBCP","flightCategory":"VFR","rawOb":"METAR SBCP 172100Z 09006KT CAVOK 26/21 Q1011","temp":26,"dewp":21,"wdir":90,"wspd":6,"visib":"6+","altim":1011,"clouds":[],"obsTime":1773781200},"SBCT":{"icaoId":"SBCT","flightCategory":"VFR","rawOb":"METAR SBCT 172100Z 09007KT 9999 FEW030 24/20 Q1014","temp":24,"dewp":20,"wdir":90,"wspd":7,"visib":"6+","altim":1014,"clouds":[{"cover":"FEW","base":3000}],"obsTime":1773781200},"SBCZ":{"icaoId":"SBCZ","flightCategory":"MVFR","rawOb":"METAR SBCZ 172100Z 30003KT 5000 -TSRA SCT015 FEW030CB BKN090 23/22 Q1006 RERA","temp":23,"dewp":22,"wdir":300,"wspd":3,"visib":3.11,"altim":1006,"clouds":[{"cover":"SCT","base":1500},{"cover":"FEW","base":3000},{"cover":"BKN","base":9000}],"obsTime":1773781200},"SBEG":{"icaoId":"SBEG","flightCategory":"VFR","rawOb":"METAR SBEG 172100Z 10006KT 9999 FEW010 FEW025TCU BKN080 26/25 Q1007","temp":26,"dewp":25,"wdir":100,"wspd":6,"visib":"6+","altim":1007,"clouds":[{"cover":"FEW","base":1000},{"cover":"FEW","base":2500},{"cover":"BKN","base":8000}],"obsTime":1773781200},"SBFI":{"icaoId":"SBFI","flightCategory":"VFR","rawOb":"METAR SBFI 172100Z 11004KT 9999 FEW020 BKN100 25/24 Q1008","temp":25,"dewp":24,"wdir":110,"wspd":4,"visib":"6+","altim":1008,"clouds":[{"cover":"FEW","base":2000},{"cover":"BKN","base":10000}],"obsTime":1773781200},"SBFL":{"icaoId":"SBFL","flightCategory":"VFR","rawOb":"METAR SBFL 172100Z 36008KT 9999 FEW037 28/22 Q1010","temp":28,"dewp":22,"wdir":360,"wspd":8,"visib":"6+","altim":1010,"clouds":[{"cover":"FEW","base":3700}],"obsTime":1773781200},"SBFZ":{"icaoId":"SBFZ","flightCategory":"MVFR","rawOb":"METAR SBFZ 172100Z 08006KT 9999 BKN020 28/24 Q1009","temp":28,"dewp":24,"wdir":80,"wspd":6,"visib":"6+","altim":1009,"clouds":[{"cover":"BKN","base":2000}],"obsTime":1773781200},"SBGL":{"icaoId":"SBGL","flightCategory":"VFR","rawOb":"METAR SBGL 172100Z 15011KT 9999 FEW020 26/22 Q1010","temp":26,"dewp":22,"wdir":150,"wspd":11,"visib":"6+","altim":1010,"clouds":[{"cover":"FEW","base":2000}],"obsTime":1773781200},"SBGO":{"icaoId":"SBGO","flightCategory":"VFR","rawOb":"METAR SBGO 172100Z 01004KT 9999 RA FEW008 SCT020 FEW035TCU OVC060 22/21 Q1014 RETS","temp":22,"dewp":21,"wdir":10,"wspd":4,"visib":"6+","altim":1014,"clouds":[{"cover":"FEW","base":800},{"cover":"SCT","base":2000},{"cover":"FEW","base":3500},{"cover":"OVC","base":6000}],"obsTime":1773781200},"SBGR":{"icaoId":"SBGR","flightCategory":"VFR","rawOb":"METAR SBGR 172100Z 16009KT CAVOK 26/21 Q1014","temp":26,"dewp":21,"wdir":160,"wspd":9,"visib":"6+","altim":1014,"clouds":[],"obsTime":1773781200},"SBHT":{"icaoId":"SBHT","flightCategory":"VFR","rawOb":"METAR SBHT 172100Z 06003KT 9999 FEW025 SCT100 30/25 Q1007","temp":30,"dewp":25,"wdir":60,"wspd":3,"visib":"6+","altim":1007,"clouds":[{"cover":"FEW","base":2500},{"cover":"SCT","base":10000}],"obsTime":1773781200},"SBIL":{"icaoId":"SBIL","flightCategory":"VFR","rawOb":"METAR SBIL 172100Z 11006KT CAVOK 29/24 Q1011","temp":29,"dewp":24,"wdir":110,"wspd":6,"visib":"6+","altim":1011,"clouds":[],"obsTime":1773781200},"SBJU":{"icaoId":"SBJU","flightCategory":"MVFR","rawOb":"METAR SBJU 172100Z 00000KT 9999 BKN021 28/22 Q1012","temp":28,"dewp":22,"wdir":0,"wspd":0,"visib":"6+","altim":1012,"clouds":[{"cover":"BKN","base":2100}],"obsTime":1773781200},"SBKP":{"icaoId":"SBKP","flightCategory":"VFR","rawOb":"METAR SBKP 172100Z 17005KT 9999 FEW045 31/19 Q1012","temp":31,"dewp":19,"wdir":170,"wspd":5,"visib":"6+","altim":1012,"clouds":[{"cover":"FEW","base":4500}],"obsTime":1773781200},"SBLO":{"icaoId":"SBLO","flightCategory":"VFR","rawOb":"METAR SBLO 172100Z 06004KT 9999 SCT040 30/20 Q1010","temp":30,"dewp":20,"wdir":60,"wspd":4,"visib":"6+","altim":1010,"clouds":[{"cover":"SCT","base":4000}],"obsTime":1773781200},"SBMA":{"icaoId":"SBMA","flightCategory":"VFR","rawOb":"METAR SBMA 172100Z 08002KT 9999 SCT020 BKN100 28/24 Q1008","temp":28,"dewp":24,"wdir":80,"wspd":2,"visib":"6+","altim":1008,"clouds":[{"cover":"SCT","base":2000},{"cover":"BKN","base":10000}],"obsTime":1773781200},"SBME":{"icaoId":"SBME","flightCategory":"VFR","rawOb":"METAR SBME 172100Z 12005KT 9999 FEW025 27/22 Q1011","temp":27,"dewp":22,"wdir":120,"wspd":5,"visib":"6+","altim":1011,"clouds":[{"cover":"FEW","base":2500}],"obsTime":1773781200},"SBMG":{"icaoId":"SBMG","flightCategory":"MVFR","rawOb":"METAR SBMG 172100Z 21023G33KT 180V320 9999 4500NW BLDU VCSH TS SCT010 BKN025 FEW040CB BKN090 28/21 Q1011","temp":28,"dewp":21,"wdir":210,"wspd":23,"visib":"6+","altim":1011,"clouds":[{"cover":"SCT","base":1000},{"cover":"BKN","base":2500},{"cover":"FEW","base":4000},{"cover":"BKN","base":9000}],"obsTime":1773781200},"SBMK":{"icaoId":"SBMK","flightCategory":"VFR","rawOb":"METAR SBMK 172100Z 20006KT 9999 BKN035 FEW045TCU 27/21 Q1013","temp":27,"dewp":21,"wdir":200,"wspd":6,"visib":"6+","altim":1013,"clouds":[{"cover":"BKN","base":3500},{"cover":"FEW","base":4500}],"obsTime":1773781200},"SBMO":{"icaoId":"SBMO","flightCategory":"VFR","rawOb":"METAR SBMO 172100Z 09009KT 9999 SCT025 27/23 Q1011","temp":27,"dewp":23,"wdir":90,"wspd":9,"visib":"6+","altim":1011,"clouds":[{"cover":"SCT","base":2500}],"obsTime":1773781200},"SBMQ":{"icaoId":"SBMQ","flightCategory":"VFR","rawOb":"METAR SBMQ 172100Z 35003KT 9999 SCT011 SCT045 27/25 Q1009","temp":27,"dewp":25,"wdir":350,"wspd":3,"visib":"6+","altim":1009,"clouds":[{"cover":"SCT","base":1100},{"cover":"SCT","base":4500}],"obsTime":1773781200},"SBNT":{"icaoId":"SBNT","flightCategory":"VFR","rawOb":"METAR SBNT 172100Z 09008KT 9999 FEW019 SCT080 28/24 Q1009","temp":28,"dewp":24,"wdir":90,"wspd":8,"visib":"6+","altim":1009,"clouds":[{"cover":"FEW","base":1900},{"cover":"SCT","base":8000}],"obsTime":1773781200},"SBPA":{"icaoId":"SBPA","flightCategory":"IFR","rawOb":"METAR SBPA 172100Z 10008KT 4000 -TSRA BKN013 BKN040 FEW045CB 27/24 Q1009","temp":27,"dewp":24,"wdir":100,"wspd":8,"visib":2.49,"altim":1009,"clouds":[{"cover":"BKN","base":1300},{"cover":"BKN","base":4000},{"cover":"FEW","base":4500}],"obsTime":1773781200},"SBPJ":{"icaoId":"SBPJ","flightCategory":"VFR","rawOb":"METAR SBPJ 172100Z 35006KT 310V040 9999 FEW012 SCT080 26/23 Q1010","temp":26,"dewp":23,"wdir":350,"wspd":6,"visib":"6+","altim":1010,"clouds":[{"cover":"FEW","base":1200},{"cover":"SCT","base":8000}],"obsTime":1773781200},"SBPV":{"icaoId":"SBPV","flightCategory":"VFR","rawOb":"METAR SBPV 172100Z 08004KT 9999 SCT020 FEW040TCU 29/23 Q1005","temp":29,"dewp":23,"wdir":80,"wspd":4,"visib":"6+","altim":1005,"clouds":[{"cover":"SCT","base":2000},{"cover":"FEW","base":4000}],"obsTime":1773781200},"SBRF":{"icaoId":"SBRF","flightCategory":"VFR","rawOb":"METAR SBRF 172100Z 09008KT 9999 SCT024 29/24 Q1010","temp":29,"dewp":24,"wdir":90,"wspd":8,"visib":"6+","altim":1010,"clouds":[{"cover":"SCT","base":2400}],"obsTime":1773781200},"SBSG":{"icaoId":"SBSG","flightCategory":"VFR","rawOb":"METAR SBSG 172100Z 11006KT 9999 VCSH SCT025 FEW035TCU SCT100 27/25 Q1010","temp":27,"dewp":25,"wdir":110,"wspd":6,"visib":"6+","altim":1010,"clouds":[{"cover":"SCT","base":2500},{"cover":"FEW","base":3500},{"cover":"SCT","base":10000}],"obsTime":1773781200},"SBSL":{"icaoId":"SBSL","flightCategory":"VFR","rawOb":"METAR SBSL 172100Z 06006KT 9999 FEW020 BKN070 27/24 Q1009","temp":27,"dewp":24,"wdir":60,"wspd":6,"visib":"6+","altim":1009,"clouds":[{"cover":"FEW","base":2000},{"cover":"BKN","base":7000}],"obsTime":1773781200},"SBSN":{"icaoId":"SBSN","flightCategory":"VFR","rawOb":"METAR SBSN 172100Z 13004KT 9999 SCT020 BKN100 28/25 Q1006","temp":28,"dewp":25,"wdir":130,"wspd":4,"visib":"6+","altim":1006,"clouds":[{"cover":"SCT","base":2000},{"cover":"BKN","base":10000}],"obsTime":1773781200},"SBSP":{"icaoId":"SBSP","flightCategory":"VFR","rawOb":"METAR SBSP 172100Z 17011KT CAVOK 23/19 Q1015","temp":23,"dewp":19,"wdir":170,"wspd":11,"visib":"6+","altim":1015,"clouds":[],"obsTime":1773781200},"SBSV":{"icaoId":"SBSV","flightCategory":"VFR","rawOb":"METAR SBSV 172100Z 10007KT 9999 FEW025 28/22 Q1010","temp":28,"dewp":22,"wdir":100,"wspd":7,"visib":"6+","altim":1010,"clouds":[{"cover":"FEW","base":2500}],"obsTime":1773781200},"SBUL":{"icaoId":"SBUL","flightCategory":"MVFR","rawOb":"METAR SBUL 172100Z 05013KT 9999 -TSRA BKN030 FEW040CB SCT070 24/19 Q1015","temp":24,"dewp":19,"wdir":50,"wspd":13,"visib":"6+","altim":1015,"clouds":[{"cover":"BKN","base":3000},{"cover":"FEW","base":4000},{"cover":"SCT","base":7000}],"obsTime":1773781200},"SBUR":{"icaoId":"SBUR","flightCategory":"VFR","rawOb":"METAR SBUR 172100Z 04005KT 9999 VCSH FEW050TCU 22/19 Q1014","temp":22,"dewp":19,"wdir":40,"wspd":5,"visib":"6+","altim":1014,"clouds":[{"cover":"FEW","base":5000}],"obsTime":1773781200},"SBCB":{"icaoId":"SBCB","flightCategory":"VFR","rawOb":"METAR SBCB 172100Z 10010KT CAVOK 26/21 Q1012","temp":26,"dewp":21,"wdir":100,"wspd":10,"visib":"6+","altim":1012,"clouds":[],"obsTime":1773781200},"SBCR":{"icaoId":"SBCR","flightCategory":"VFR","rawOb":"METAR SBCR 172100Z 35006KT 310V030 9999 FEW045 35/23 Q1005","temp":35,"dewp":23,"wdir":350,"wspd":6,"visib":"6+","altim":1005,"clouds":[{"cover":"FEW","base":4500}],"obsTime":1773781200},"SBAT":{"icaoId":"SBAT","flightCategory":"VFR","rawOb":"METAR SBAT 172100Z 10005KT 9999 VCSH SCT040 FEW045TCU BKN100 30/23 Q1008","temp":30,"dewp":23,"wdir":100,"wspd":5,"visib":"6+","altim":1008,"clouds":[{"cover":"SCT","base":4000},{"cover":"FEW","base":4500},{"cover":"BKN","base":10000}],"obsTime":1773781200},"SBOI":{"icaoId":"SBOI","flightCategory":"VFR","rawOb":"METAR SBOI 172100Z AUTO 03008KT CAVOK 27/23 Q1010","temp":27,"dewp":23,"wdir":30,"wspd":8,"visib":"6+","altim":1010,"clouds":[],"obsTime":1773781200},"SBVH":{"icaoId":"SBVH","flightCategory":"VFR","rawOb":"METAR SBVH 172100Z 02004KT 9999 TS SCT035 FEW040CB BKN100 26/22 Q1010","temp":26,"dewp":22,"wdir":20,"wspd":4,"visib":"6+","altim":1010,"clouds":[{"cover":"SCT","base":3500},{"cover":"FEW","base":4000},{"cover":"BKN","base":10000}],"obsTime":1773781200},"SBBU":{"icaoId":"SBBU","flightCategory":"VFR","rawOb":"METAR SBBU 172100Z 08002KT CAVOK 31/21 Q1011","temp":31,"dewp":21,"wdir":80,"wspd":2,"visib":"6+","altim":1011,"clouds":[],"obsTime":1773781200},"SBCO":{"icaoId":"SBCO","flightCategory":"IFR","rawOb":"METAR SBCO 172100Z 10009KT 3000 -TSRA SCT015 FEW040CB BKN100 25/24 Q1010","temp":25,"dewp":24,"wdir":100,"wspd":9,"visib":1.86,"altim":1010,"clouds":[{"cover":"SCT","base":1500},{"cover":"FEW","base":4000},{"cover":"BKN","base":10000}],"obsTime":1773781200},"SBPL":{"icaoId":"SBPL","flightCategory":"VFR","rawOb":"METAR SBPL 172100Z 15005KT CAVOK 31/15 Q1010","temp":31,"dewp":15,"wdir":150,"wspd":5,"visib":"6+","altim":1010,"clouds":[],"obsTime":1773781200},"SBAR":{"icaoId":"SBAR","flightCategory":"VFR","rawOb":"METAR SBAR 172100Z 12007KT 9999 FEW021 29/23 Q1010","temp":29,"dewp":23,"wdir":120,"wspd":7,"visib":"6+","altim":1010,"clouds":[{"cover":"FEW","base":2100}],"obsTime":1773781200},"SBDN":{"icaoId":"SBDN","flightCategory":"VFR","rawOb":"METAR SBDN 172100Z 30001KT CAVOK 33/21 Q1009","temp":33,"dewp":21,"wdir":300,"wspd":1,"visib":"6+","altim":1009,"clouds":[],"obsTime":1773781200},"SBPS":{"icaoId":"SBPS","flightCategory":"VFR","rawOb":"METAR SBPS 172100Z 08006KT 9999 SCT020 OVC100 27/24 Q1011","temp":27,"dewp":24,"wdir":80,"wspd":6,"visib":"6+","altim":1011,"clouds":[{"cover":"SCT","base":2000},{"cover":"OVC","base":10000}],"obsTime":1773781200},"SBES":{"icaoId":"SBES","flightCategory":"VFR","rawOb":"METAR SBES 172100Z 09006KT 050V120 CAVOK 25/// Q1011","temp":null,"dewp":null,"wdir":90,"wspd":6,"visib":"6+","altim":1011,"clouds":[],"obsTime":1773781200},"SBSC":{"icaoId":"SBSC","flightCategory":"VFR","rawOb":"METAR SBSC 172100Z 16009KT CAVOK 27/22 Q1011","temp":27,"dewp":22,"wdir":160,"wspd":9,"visib":"6+","altim":1011,"clouds":[],"obsTime":1773781200},"SBSJ":{"icaoId":"SBSJ","flightCategory":"VFR","rawOb":"METAR SBSJ 172100Z 17012KT 9999 FEW045 FEW050TCU 27/// Q1012","temp":null,"dewp":null,"wdir":170,"wspd":12,"visib":"6+","altim":1012,"clouds":[{"cover":"FEW","base":4500},{"cover":"FEW","base":5000}],"obsTime":1773781200},"SBBH":{"icaoId":"SBBH","flightCategory":"VFR","rawOb":"METAR SBBH 172100Z 06005KT 9999 FEW040TCU SCT100 27/19 Q1015","temp":27,"dewp":19,"wdir":60,"wspd":5,"visib":"6+","altim":1015,"clouds":[{"cover":"FEW","base":4000},{"cover":"SCT","base":10000}],"obsTime":1773781200},"SBSM":{"icaoId":"SBSM","flightCategory":"VFR","rawOb":"METAR SBSM 172100Z 07003KT 9999 FEW003 SCT100 26/23 Q1008","temp":26,"dewp":23,"wdir":70,"wspd":3,"visib":"6+","altim":1008,"clouds":[{"cover":"FEW","base":300},{"cover":"SCT","base":10000}],"obsTime":1773781200},"SBCA":{"icaoId":"SBCA","flightCategory":"VFR","rawOb":"METAR SBCA 172100Z 33006KT 300V360 9999 FEW020 SCT030 BKN080 24/20 Q1013","temp":24,"dewp":20,"wdir":330,"wspd":6,"visib":"6+","altim":1013,"clouds":[{"cover":"FEW","base":2000},{"cover":"SCT","base":3000},{"cover":"BKN","base":8000}],"obsTime":1773781200},"SBSR":{"icaoId":"SBSR","flightCategory":"VFR","rawOb":"METAR SBSR 172100Z 03004KT 9999 FEW030 FEW040TCU SCT080 29/21 Q1011","temp":29,"dewp":21,"wdir":30,"wspd":4,"visib":"6+","altim":1011,"clouds":[{"cover":"FEW","base":3000},{"cover":"FEW","base":4000},{"cover":"SCT","base":8000}],"obsTime":1773781200},"SBIP":{"icaoId":"SBIP","flightCategory":"VFR","rawOb":"METAR SBIP 172100Z AUTO 31003KT CAVOK 26/21 Q1011","temp":26,"dewp":21,"wdir":310,"wspd":3,"visib":"6+","altim":1011,"clouds":[],"obsTime":1773781200},"SBAX":{"icaoId":"SBAX","flightCategory":"VFR","rawOb":"METAR SBAX 172100Z 12008KT 9999 SCT030 BKN100 23/21 Q1015","temp":23,"dewp":21,"wdir":120,"wspd":8,"visib":"6+","altim":1015,"clouds":[{"cover":"SCT","base":3000},{"cover":"BKN","base":10000}],"obsTime":1773781200},"SBTF":{"icaoId":"SBTF","flightCategory":"VFR","rawOb":"METAR SBTF 172100Z 03004KT 9999 FEW020 SCT090 30/27 Q1005","temp":30,"dewp":27,"wdir":30,"wspd":4,"visib":"6+","altim":1005,"clouds":[{"cover":"FEW","base":2000},{"cover":"SCT","base":9000}],"obsTime":1773781200},"SBTT":{"icaoId":"SBTT","flightCategory":"VFR","rawOb":"METAR SBTT 172100Z 09002KT 9999 FEW035 32/22 Q1004","temp":32,"dewp":22,"wdir":90,"wspd":2,"visib":"6+","altim":1004,"clouds":[{"cover":"FEW","base":3500}],"obsTime":1773781200},"SBKG":{"icaoId":"SBKG","flightCategory":"VFR","rawOb":"METAR SBKG 172100Z 09013KT CAVOK 27/21 Q1012","temp":27,"dewp":21,"wdir":90,"wspd":13,"visib":"6+","altim":1012,"clouds":[],"obsTime":1773781200},"SBUY":{"icaoId":"SBUY","flightCategory":"MVFR","rawOb":"METAR SBUY 172100Z 34011KT 7000 -TSRA SCT010 FEW015CB BKN090 26/25 Q1005","temp":26,"dewp":25,"wdir":340,"wspd":11,"visib":4.35,"altim":1005,"clouds":[{"cover":"SCT","base":1000},{"cover":"FEW","base":1500},{"cover":"BKN","base":9000}],"obsTime":1773781200},"SBPB":{"icaoId":"SBPB","flightCategory":"VFR","rawOb":"METAR SBPB 172100Z 02002KT 9999 SCT015 OVC080 27/25 Q1008 RETS","temp":27,"dewp":25,"wdir":20,"wspd":2,"visib":"6+","altim":1008,"clouds":[{"cover":"SCT","base":1500},{"cover":"OVC","base":8000}],"obsTime":1773781200},"SBCJ":{"icaoId":"SBCJ","flightCategory":"VFR","rawOb":"METAR SBCJ 172100Z 00000KT CAVOK 22/20 Q1013","temp":22,"dewp":20,"wdir":0,"wspd":0,"visib":"6+","altim":1013,"clouds":[],"obsTime":1773781200},"SBPP":{"icaoId":"SBPP","flightCategory":"MVFR","rawOb":"METAR SBPP 172100Z 35005KT 9999 BKN020 30/21 Q1009","temp":30,"dewp":21,"wdir":350,"wspd":5,"visib":"6+","altim":1009,"clouds":[{"cover":"BKN","base":2000}],"obsTime":1773781200},"SBLE":{"icaoId":"SBLE","flightCategory":"VFR","rawOb":"METAR SBLE 172100Z AUTO 09004KT CAVOK 27/18 Q1012","temp":27,"dewp":18,"wdir":90,"wspd":4,"visib":"6+","altim":1012,"clouds":[],"obsTime":1773781200},"SBAN":{"icaoId":"SBAN","flightCategory":"VFR","rawOb":"METAR SBAN 172100Z 31002KT 9999 FEW020 FEW025TCU SCT100 20/19 Q1016","temp":20,"dewp":19,"wdir":310,"wspd":2,"visib":"6+","altim":1016,"clouds":[{"cover":"FEW","base":2000},{"cover":"FEW","base":2500},{"cover":"SCT","base":10000}],"obsTime":1773781200},"SBJP":{"icaoId":"SBJP","flightCategory":"VFR","rawOb":"METAR SBJP 172100Z 08008KT 9999 VCTS SCT015 FEW020CB 27/24 Q1010","temp":27,"dewp":24,"wdir":80,"wspd":8,"visib":"6+","altim":1010,"clouds":[{"cover":"SCT","base":1500},{"cover":"FEW","base":2000}],"obsTime":1773781200},"SBLS":{"icaoId":"SBLS","flightCategory":"VFR","rawOb":"METAR SBLS 172100Z 05005KT 340V090 9999 VCSH FEW035 FEW040TCU SCT100 24/20 Q1015 RETS","temp":24,"dewp":20,"wdir":50,"wspd":5,"visib":"6+","altim":1015,"clouds":[{"cover":"FEW","base":3500},{"cover":"FEW","base":4000},{"cover":"SCT","base":10000}],"obsTime":1773781200},"SBJR":{"icaoId":"SBJR","flightCategory":"VFR","rawOb":"METAR SBJR 172100Z 21002KT CAVOK 27/22 Q1010","temp":27,"dewp":22,"wdir":210,"wspd":2,"visib":"6+","altim":1010,"clouds":[],"obsTime":1773781200},"SBMT":{"icaoId":"SBMT","flightCategory":"VFR","rawOb":"METAR SBMT 172100Z 16007KT CAVOK 24/20 Q1014","temp":24,"dewp":20,"wdir":160,"wspd":7,"visib":"6+","altim":1014,"clouds":[],"obsTime":1773781200},"SBPF":{"icaoId":"SBPF","flightCategory":"VFR","rawOb":"METAR SBPF 172100Z 05008KT 9999 SCT012 BKN040 20/19 Q1013 RERA","temp":20,"dewp":19,"wdir":50,"wspd":8,"visib":"6+","altim":1013,"clouds":[{"cover":"SCT","base":1200},{"cover":"BKN","base":4000}],"obsTime":1773781200},"SBGW":{"icaoId":"SBGW","flightCategory":"VFR","rawOb":"METAR SBGW 172100Z 33003KT CAVOK 28/19 Q1012","temp":28,"dewp":19,"wdir":330,"wspd":3,"visib":"6+","altim":1012,"clouds":[],"obsTime":1773781200},"SBJV":{"icaoId":"SBJV","flightCategory":"MVFR","rawOb":"METAR SBJV 172100Z 05005KT 010V090 9999 SCT013 BKN030 27/23 Q1010","temp":27,"dewp":23,"wdir":50,"wspd":5,"visib":"6+","altim":1010,"clouds":[{"cover":"SCT","base":1300},{"cover":"BKN","base":3000}],"obsTime":1773781200},"SBTA":{"icaoId":"SBTA","flightCategory":"VFR","rawOb":"METAR SBTA 172100Z 14005KT 070V210 9999 FEW045 29/19 Q1011","temp":29,"dewp":19,"wdir":140,"wspd":5,"visib":"6+","altim":1011,"clouds":[{"cover":"FEW","base":4500}],"obsTime":1773781200},"SBAF":{"icaoId":"SBAF","flightCategory":"VFR","rawOb":"METAR SBAF 172100Z 19005KT CAVOK 28/22 Q1010","temp":28,"dewp":22,"wdir":190,"wspd":5,"visib":"6+","altim":1010,"clouds":[],"obsTime":1773781200},"SBST":{"icaoId":"SBST","flightCategory":"VFR","rawOb":"METAR SBST 172100Z 18004KT 9999 FEW032 25/22 Q1010","temp":25,"dewp":22,"wdir":180,"wspd":4,"visib":"6+","altim":1010,"clouds":[{"cover":"FEW","base":3200}],"obsTime":1773781200},"SBIH":{"icaoId":"SBIH","flightCategory":"VFR","rawOb":"METAR SBIH 172100Z 07005KT 9999 FEW020 30/24 Q1006","temp":30,"dewp":24,"wdir":70,"wspd":5,"visib":"6+","altim":1006,"clouds":[{"cover":"FEW","base":2000}],"obsTime":1773781200}}}