{"updated":1774902758,"count":84,"data":{"SBBR":{"icaoId":"SBBR","flightCategory":"VFR","rawOb":"METAR SBBR 301900Z VRB05KT 9999 SCT045 28/13 Q1015","temp":28,"dewp":13,"wdir":"VRB","wspd":5,"visib":"6+","altim":1015,"clouds":[{"cover":"SCT","base":4500}],"obsTime":1774897200},"SBLO":{"icaoId":"SBLO","flightCategory":"VFR","rawOb":"METAR SBLO 301900Z 12004KT 060V190 9999 VCSH FEW030TCU 33/18 Q1012","temp":33,"dewp":18,"wdir":120,"wspd":4,"visib":"6+","altim":1012,"clouds":[{"cover":"FEW","base":3000}],"obsTime":1774897200},"SBMA":{"icaoId":"SBMA","flightCategory":"VFR","rawOb":"METAR SBMA 301900Z 10003KT 9999 SCT020 FEW023TCU BKN100 29/25 Q1008","temp":29,"dewp":25,"wdir":100,"wspd":3,"visib":"6+","altim":1008,"clouds":[{"cover":"SCT","base":2000},{"cover":"FEW","base":2300},{"cover":"BKN","base":10000}],"obsTime":1774897200},"SBEG":{"icaoId":"SBEG","flightCategory":"VFR","rawOb":"METAR SBEG 301900Z 12006KT 070V150 9999 SCT020 FEW025TCU SCT100 31/23 Q1009","temp":31,"dewp":23,"wdir":120,"wspd":6,"visib":"6+","altim":1009,"clouds":[{"cover":"SCT","base":2000},{"cover":"FEW","base":2500},{"cover":"SCT","base":10000}],"obsTime":1774897200},"SBFI":{"icaoId":"SBFI","flightCategory":"VFR","rawOb":"METAR SBFI 301900Z 22006KT 9999 FEW035 35/18 Q1011","temp":35,"dewp":18,"wdir":220,"wspd":6,"visib":"6+","altim":1011,"clouds":[{"cover":"FEW","base":3500}],"obsTime":1774897200},"SBME":{"icaoId":"SBME","flightCategory":"VFR","rawOb":"METAR SBME 301900Z 16009KT 9999 SCT030 29/22 Q1011","temp":29,"dewp":22,"wdir":160,"wspd":9,"visib":"6+","altim":1011,"clouds":[{"cover":"SCT","base":3000}],"obsTime":1774897200},"SBAT":{"icaoId":"SBAT","flightCategory":"VFR","rawOb":"METAR SBAT 301900Z 13003KT 9999 SCT030 FEW035TCU 32/22 Q1009","temp":32,"dewp":22,"wdir":130,"wspd":3,"visib":"6+","altim":1009,"clouds":[{"cover":"SCT","base":3000},{"cover":"FEW","base":3500}],"obsTime":1774897200},"SBMG":{"icaoId":"SBMG","flightCategory":"VFR","rawOb":"METAR SBMG 301900Z 25010KT 210V280 9999 FEW045 FEW050TCU 33/15 Q1012","temp":33,"dewp":15,"wdir":250,"wspd":10,"visib":"6+","altim":1012,"clouds":[{"cover":"FEW","base":4500},{"cover":"FEW","base":5000}],"obsTime":1774897200},"SBCG":{"icaoId":"SBCG","flightCategory":"VFR","rawOb":"METAR SBCG 301900Z 02003KT 330V130 CAVOK 32/16 Q1013","temp":32,"dewp":16,"wdir":20,"wspd":3,"visib":"6+","altim":1013,"clouds":[],"obsTime":1774897200},"SBMK":{"icaoId":"SBMK","flightCategory":"VFR","rawOb":"METAR SBMK 301900Z 05006KT 9999 FEW044 29/17 Q1013","temp":29,"dewp":17,"wdir":50,"wspd":6,"visib":"6+","altim":1013,"clouds":[{"cover":"FEW","base":4400}],"obsTime":1774897200},"SBMO":{"icaoId":"SBMO","flightCategory":"MVFR","rawOb":"METAR SBMO 301900Z 09005KT 9999 VCSH BKN020 FEW025TCU 26/24 Q1010","temp":26,"dewp":24,"wdir":90,"wspd":5,"visib":"6+","altim":1010,"clouds":[{"cover":"BKN","base":2000},{"cover":"FEW","base":2500}],"obsTime":1774897200},"SBFL":{"icaoId":"SBFL","flightCategory":"MVFR","rawOb":"METAR SBFL 301900Z 08016KT 9999 BKN015 BKN100 24/22 Q1014","temp":24,"dewp":22,"wdir":80,"wspd":16,"visib":"6+","altim":1014,"clouds":[{"cover":"BKN","base":1500},{"cover":"BKN","base":10000}],"obsTime":1774897200},"SBMQ":{"icaoId":"SBMQ","flightCategory":"MVFR","rawOb":"METAR SBMQ 301900Z 31005KT 260V360 9999 VCTS BKN026 FEW050CB 31/25 Q1008","temp":31,"dewp":25,"wdir":310,"wspd":5,"visib":"6+","altim":1008,"clouds":[{"cover":"BKN","base":2600},{"cover":"FEW","base":5000}],"obsTime":1774897200},"SBBV":{"icaoId":"SBBV","flightCategory":"IFR","rawOb":"METAR SBBV 301900Z 18010KT 4000 -RA VCSH BKN030 FEW035TCU OVC080 27/24 Q1010","temp":27,"dewp":24,"wdir":180,"wspd":10,"visib":2.49,"altim":1010,"clouds":[{"cover":"BKN","base":3000},{"cover":"FEW","base":3500},{"cover":"OVC","base":8000}],"obsTime":1774897200},"SBFZ":{"icaoId":"SBFZ","flightCategory":"VFR","rawOb":"METAR SBFZ 301900Z 09006KT 9999 FEW020 FEW025TCU 28/24 Q1008 RETS","temp":28,"dewp":24,"wdir":90,"wspd":6,"visib":"6+","altim":1008,"clouds":[{"cover":"FEW","base":2000},{"cover":"FEW","base":2500}],"obsTime":1774897200},"SBNT":{"icaoId":"SBNT","flightCategory":"VFR","rawOb":"METAR SBNT 301900Z 08010KT 050V110 9999 FEW022 SCT033 FEW036TCU BKN074 30/23 Q1009","temp":30,"dewp":23,"wdir":80,"wspd":10,"visib":"6+","altim":1009,"clouds":[{"cover":"FEW","base":2200},{"cover":"SCT","base":3300},{"cover":"FEW","base":3600},{"cover":"BKN","base":7400}],"obsTime":1774897200},"SBCP":{"icaoId":"SBCP","flightCategory":"MVFR","rawOb":"METAR SBCP 301900Z 14010KT 9999 BKN020 29/22 Q1011","temp":29,"dewp":22,"wdir":140,"wspd":10,"visib":"6+","altim":1011,"clouds":[{"cover":"BKN","base":2000}],"obsTime":1774897200},"SBPA":{"icaoId":"SBPA","flightCategory":"MVFR","rawOb":"METAR SBPA 301900Z 11010KT 9999 FEW015 BKN025 BKN100 27/22 Q1014","temp":27,"dewp":22,"wdir":110,"wspd":10,"visib":"6+","altim":1014,"clouds":[{"cover":"FEW","base":1500},{"cover":"BKN","base":2500},{"cover":"BKN","base":10000}],"obsTime":1774897200},"SBPJ":{"icaoId":"SBPJ","flightCategory":"VFR","rawOb":"METAR SBPJ 301900Z 21005KT 9999 SCT033 SCT100 31/23 Q1009","temp":31,"dewp":23,"wdir":210,"wspd":5,"visib":"6+","altim":1009,"clouds":[{"cover":"SCT","base":3300},{"cover":"SCT","base":10000}],"obsTime":1774897200},"SBGL":{"icaoId":"SBGL","flightCategory":"VFR","rawOb":"METAR SBGL 301900Z 13012KT 9999 FEW030 FEW030TCU 27/20 Q1012","temp":27,"dewp":20,"wdir":130,"wspd":12,"visib":"6+","altim":1012,"clouds":[{"cover":"FEW","base":3000},{"cover":"FEW","base":3000}],"obsTime":1774897200},"SBCB":{"icaoId":"SBCB","flightCategory":"VFR","rawOb":"METAR SBCB 301900Z 15010KT 9999 SCT030 28/22 Q1012","temp":28,"dewp":22,"wdir":150,"wspd":10,"visib":"6+","altim":1012,"clouds":[{"cover":"SCT","base":3000}],"obsTime":1774897200},"SBPV":{"icaoId":"SBPV","flightCategory":"VFR","rawOb":"METAR SBPV 301900Z 10004KT 9999 BKN035 31/21 Q1009","temp":31,"dewp":21,"wdir":100,"wspd":4,"visib":"6+","altim":1009,"clouds":[{"cover":"BKN","base":3500}],"obsTime":1774897200},"SBGO":{"icaoId":"SBGO","flightCategory":"VFR","rawOb":"METAR SBGO 301900Z 14007KT 9999 FEW048 29/17 Q1014","temp":29,"dewp":17,"wdir":140,"wspd":7,"visib":"6+","altim":1014,"clouds":[{"cover":"FEW","base":4800}],"obsTime":1774897200},"SBRB":{"icaoId":"SBRB","flightCategory":"VFR","rawOb":"METAR SBRB 301900Z 14007KT 9999 SCT025 FEW030TCU 29/24 Q1011","temp":29,"dewp":24,"wdir":140,"wspd":7,"visib":"6+","altim":1011,"clouds":[{"cover":"SCT","base":2500},{"cover":"FEW","base":3000}],"obsTime":1774897200},"SBCR":{"icaoId":"SBCR","flightCategory":"VFR","rawOb":"METAR SBCR 301900Z VRB02KT 9999 SCT036 34/20 Q1010","temp":34,"dewp":20,"wdir":"VRB","wspd":2,"visib":"6+","altim":1010,"clouds":[{"cover":"SCT","base":3600}],"obsTime":1774897200},"SBRF":{"icaoId":"SBRF","flightCategory":"VFR","rawOb":"METAR SBRF 301900Z 13011KT 9999 SCT023 29/24 Q1009","temp":29,"dewp":24,"wdir":130,"wspd":11,"visib":"6+","altim":1009,"clouds":[{"cover":"SCT","base":2300}],"obsTime":1774897200},"SBGR":{"icaoId":"SBGR","flightCategory":"VFR","rawOb":"METAR SBGR 301900Z 17010KT 9999 FEW030 25/19 Q1016","temp":25,"dewp":19,"wdir":170,"wspd":10,"visib":"6+","altim":1016,"clouds":[{"cover":"FEW","base":3000}],"obsTime":1774897200},"SBSG":{"icaoId":"SBSG","flightCategory":"VFR","rawOb":"METAR SBSG 301900Z 07012KT 9999 SCT033 FEW036TCU 30/24 Q1009","temp":30,"dewp":24,"wdir":70,"wspd":12,"visib":"6+","altim":1009,"clouds":[{"cover":"SCT","base":3300},{"cover":"FEW","base":3600}],"obsTime":1774897200},"SBCT":{"icaoId":"SBCT","flightCategory":"VFR","rawOb":"METAR SBCT 301900Z 11008KT 9999 FEW017 SCT030 BKN100 23/20 Q1017 RETS","temp":23,"dewp":20,"wdir":110,"wspd":8,"visib":"6+","altim":1017,"clouds":[{"cover":"FEW","base":1700},{"cover":"SCT","base":3000},{"cover":"BKN","base":10000}],"obsTime":1774897200},"SBSL":{"icaoId":"SBSL","flightCategory":"VFR","rawOb":"METAR SBSL 301900Z 04011KT 9999 SCT020 FEW025TCU SCT100 29/24 Q1008","temp":29,"dewp":24,"wdir":40,"wspd":11,"visib":"6+","altim":1008,"clouds":[{"cover":"SCT","base":2000},{"cover":"FEW","base":2500},{"cover":"SCT","base":10000}],"obsTime":1774897200},"SBHT":{"icaoId":"SBHT","flightCategory":"MVFR","rawOb":"METAR SBHT 301900Z 18001KT 9999 BKN023 BKN100 29/25 Q1008","temp":29,"dewp":25,"wdir":180,"wspd":1,"visib":"6+","altim":1008,"clouds":[{"cover":"BKN","base":2300},{"cover":"BKN","base":10000}],"obsTime":1774897200},"SBSN":{"icaoId":"SBSN","flightCategory":"VFR","rawOb":"METAR SBSN 301900Z 06006KT 9999 FEW016 SCT020 BKN090 29/25 Q1008","temp":29,"dewp":25,"wdir":60,"wspd":6,"visib":"6+","altim":1008,"clouds":[{"cover":"FEW","base":1600},{"cover":"SCT","base":2000},{"cover":"BKN","base":9000}],"obsTime":1774897200},"SBBE":{"icaoId":"SBBE","flightCategory":"VFR","rawOb":"METAR SBBE 301900Z 01008KT 9999 SCT035 FEW037TCU BKN079 28/25 Q1007","temp":28,"dewp":25,"wdir":10,"wspd":8,"visib":"6+","altim":1007,"clouds":[{"cover":"SCT","base":3500},{"cover":"FEW","base":3700},{"cover":"BKN","base":7900}],"obsTime":1774897200},"SBSP":{"icaoId":"SBSP","flightCategory":"VFR","rawOb":"METAR SBSP 301900Z 16011KT 9999 SCT017 23/18 Q1017","temp":23,"dewp":18,"wdir":160,"wspd":11,"visib":"6+","altim":1017,"clouds":[{"cover":"SCT","base":1700}],"obsTime":1774897200},"SBSV":{"icaoId":"SBSV","flightCategory":"VFR","rawOb":"METAR SBSV 301900Z 19007KT 160V230 9999 SCT020 BKN060 27/23 Q1010","temp":27,"dewp":23,"wdir":190,"wspd":7,"visib":"6+","altim":1010,"clouds":[{"cover":"SCT","base":2000},{"cover":"BKN","base":6000}],"obsTime":1774897200},"SBIL":{"icaoId":"SBIL","flightCategory":"VFR","rawOb":"METAR SBIL 301900Z 18006KT 9999 FEW020 28/23 Q1011","temp":28,"dewp":23,"wdir":180,"wspd":6,"visib":"6+","altim":1011,"clouds":[{"cover":"FEW","base":2000}],"obsTime":1774897200},"SBCF":{"icaoId":"SBCF","flightCategory":"VFR","rawOb":"METAR SBCF 301900Z 07006KT 9999 BKN040 FEW040TCU 26/16 Q1015","temp":26,"dewp":16,"wdir":70,"wspd":6,"visib":"6+","altim":1015,"clouds":[{"cover":"BKN","base":4000},{"cover":"FEW","base":4000}],"obsTime":1774897200},"SBTE":{"icaoId":"SBTE","flightCategory":"VFR","rawOb":"METAR SBTE 301900Z 11005KT 9999 VCSH SCT016 FEW025TCU BKN090 29/23 Q1007","temp":29,"dewp":23,"wdir":110,"wspd":5,"visib":"6+","altim":1007,"clouds":[{"cover":"SCT","base":1600},{"cover":"FEW","base":2500},{"cover":"BKN","base":9000}],"obsTime":1774897200},"SBJU":{"icaoId":"SBJU","flightCategory":"MVFR","rawOb":"METAR SBJU 301900Z 00000KT 9999 BKN020 30/22 Q1009","temp":30,"dewp":22,"wdir":0,"wspd":0,"visib":"6+","altim":1009,"clouds":[{"cover":"BKN","base":2000}],"obsTime":1774897200},"SBUL":{"icaoId":"SBUL","flightCategory":"VFR","rawOb":"METAR SBUL 301900Z 09005KT 9999 SCT048 29/14 Q1015","temp":29,"dewp":14,"wdir":90,"wspd":5,"visib":"6+","altim":1015,"clouds":[{"cover":"SCT","base":4800}],"obsTime":1774897200},"SBCZ":{"icaoId":"SBCZ","flightCategory":"MVFR","rawOb":"METAR SBCZ 301900Z 30002KT 9999 BKN030 30/23 Q1010","temp":30,"dewp":23,"wdir":300,"wspd":2,"visib":"6+","altim":1010,"clouds":[{"cover":"BKN","base":3000}],"obsTime":1774897200},"SBUR":{"icaoId":"SBUR","flightCategory":"VFR","rawOb":"METAR SBUR 301900Z 16008KT 9999 VCSH SCT047 SCT070 29/14 Q1014","temp":29,"dewp":14,"wdir":160,"wspd":8,"visib":"6+","altim":1014,"clouds":[{"cover":"SCT","base":4700},{"cover":"SCT","base":7000}],"obsTime":1774897200},"SBKP":{"icaoId":"SBKP","flightCategory":"VFR","rawOb":"METAR SBKP 301900Z 20007KT 170V230 9999 FEW045 30/15 Q1014","temp":30,"dewp":15,"wdir":200,"wspd":7,"visib":"6+","altim":1014,"clouds":[{"cover":"FEW","base":4500}],"obsTime":1774897200},"SBVT":{"icaoId":"SBVT","flightCategory":"VFR","rawOb":"METAR SBVT 301900Z 10007KT 9999 FEW030 28/23 Q1011","temp":28,"dewp":23,"wdir":100,"wspd":7,"visib":"6+","altim":1011,"clouds":[{"cover":"FEW","base":3000}],"obsTime":1774897200},"SBAR":{"icaoId":"SBAR","flightCategory":"VFR","rawOb":"METAR SBAR 301900Z 11007KT 060V150 9999 SCT020 FEW023TCU SCT050 29/24 Q1009","temp":29,"dewp":24,"wdir":110,"wspd":7,"visib":"6+","altim":1009,"clouds":[{"cover":"SCT","base":2000},{"cover":"FEW","base":2300},{"cover":"SCT","base":5000}],"obsTime":1774897200},"SBAX":{"icaoId":"SBAX","flightCategory":"VFR","rawOb":"METAR SBAX 301900Z 08004KT CAVOK 27/16 Q1016","temp":27,"dewp":16,"wdir":80,"wspd":4,"visib":"6+","altim":1016,"clouds":[],"obsTime":1774897200},"SBBH":{"icaoId":"SBBH","flightCategory":"VFR","rawOb":"METAR SBBH 301900Z 36004KT 9999 SCT040 SCT070 28/16 Q1015","temp":28,"dewp":16,"wdir":360,"wspd":4,"visib":"6+","altim":1015,"clouds":[{"cover":"SCT","base":4000},{"cover":"SCT","base":7000}],"obsTime":1774897200},"SBBU":{"icaoId":"SBBU","flightCategory":"VFR","rawOb":"METAR SBBU 301900Z 17007KT 9999 FEW045 33/19 Q1013","temp":33,"dewp":19,"wdir":170,"wspd":7,"visib":"6+","altim":1013,"clouds":[{"cover":"FEW","base":4500}],"obsTime":1774897200},"SBCA":{"icaoId":"SBCA","flightCategory":"VFR","rawOb":"METAR SBCA 301900Z 17008KT 9999 SCT030 31/15 Q1016","temp":31,"dewp":15,"wdir":170,"wspd":8,"visib":"6+","altim":1016,"clouds":[{"cover":"SCT","base":3000}],"obsTime":1774897200},"SBCC":{"icaoId":"SBCC","flightCategory":"VFR","rawOb":"METAR SBCC 301900Z 06008KT 9999 TS SCT020 FEW025CB BKN100 25/21 Q1011","temp":25,"dewp":21,"wdir":60,"wspd":8,"visib":"6+","altim":1011,"clouds":[{"cover":"SCT","base":2000},{"cover":"FEW","base":2500},{"cover":"BKN","base":10000}],"obsTime":1774897200},"SBCJ":{"icaoId":"SBCJ","flightCategory":"VFR","rawOb":"METAR SBCJ 301900Z 04003KT 9999 FEW010 SCT020 23/21 Q1012 RETS","temp":23,"dewp":21,"wdir":40,"wspd":3,"visib":"6+","altim":1012,"clouds":[{"cover":"FEW","base":1000},{"cover":"SCT","base":2000}],"obsTime":1774897200},"SBCO":{"icaoId":"SBCO","flightCategory":"VFR","rawOb":"METAR SBCO 301900Z 11011KT 9999 VCTS SCT016 FEW030CB BKN048 BKN090 26/23 Q1014","temp":26,"dewp":23,"wdir":110,"wspd":11,"visib":"6+","altim":1014,"clouds":[{"cover":"SCT","base":1600},{"cover":"FEW","base":3000},{"cover":"BKN","base":4800},{"cover":"BKN","base":9000}],"obsTime":1774897200},"SBDN":{"icaoId":"SBDN","flightCategory":"VFR","rawOb":"METAR SBDN 301900Z 28005KT CAVOK 35/17 Q1012","temp":35,"dewp":17,"wdir":280,"wspd":5,"visib":"6+","altim":1012,"clouds":[],"obsTime":1774897200},"SBES":{"icaoId":"SBES","flightCategory":"VFR","rawOb":"METAR SBES 301900Z VRB08KT 9999 FEW025 27/// Q1012","temp":null,"dewp":null,"wdir":"VRB","wspd":8,"visib":"6+","altim":1012,"clouds":[{"cover":"FEW","base":2500}],"obsTime":1774897200},"SBIP":{"icaoId":"SBIP","flightCategory":"VFR","rawOb":"METAR SBIP 301900Z AUTO 35006KT 310V020 CAVOK 31/19 Q1012","temp":31,"dewp":19,"wdir":350,"wspd":6,"visib":"6+","altim":1012,"clouds":[],"obsTime":1774897200},"SBKG":{"icaoId":"SBKG","flightCategory":"VFR","rawOb":"METAR SBKG 301900Z 08010KT 9999 SCT028 FEW030TCU SCT090 28/21 Q1011","temp":28,"dewp":21,"wdir":80,"wspd":10,"visib":"6+","altim":1011,"clouds":[{"cover":"SCT","base":2800},{"cover":"FEW","base":3000},{"cover":"SCT","base":9000}],"obsTime":1774897200},"SBOI":{"icaoId":"SBOI","flightCategory":"VFR","rawOb":"METAR SBOI 301900Z AUTO 32003KT 9999 -RA FEW008 BKN044 26/25 Q1010","temp":26,"dewp":25,"wdir":320,"wspd":3,"visib":"6+","altim":1010,"clouds":[{"cover":"FEW","base":800},{"cover":"BKN","base":4400}],"obsTime":1774897200},"SBPB":{"icaoId":"SBPB","flightCategory":"VFR","rawOb":"METAR SBPB 301900Z 04008KT 9999 SCT020 BKN100 29/24 Q1008","temp":29,"dewp":24,"wdir":40,"wspd":8,"visib":"6+","altim":1008,"clouds":[{"cover":"SCT","base":2000},{"cover":"BKN","base":10000}],"obsTime":1774897200},"SBPL":{"icaoId":"SBPL","flightCategory":"VFR","rawOb":"METAR SBPL 301900Z 11009KT 9999 SCT030 30/22 Q1009","temp":30,"dewp":22,"wdir":110,"wspd":9,"visib":"6+","altim":1009,"clouds":[{"cover":"SCT","base":3000}],"obsTime":1774897200},"SBPP":{"icaoId":"SBPP","flightCategory":"VFR","rawOb":"METAR SBPP 301900Z 22004KT 9999 SCT025 31/17 Q1015","temp":31,"dewp":17,"wdir":220,"wspd":4,"visib":"6+","altim":1015,"clouds":[{"cover":"SCT","base":2500}],"obsTime":1774897200},"SBPS":{"icaoId":"SBPS","flightCategory":"VFR","rawOb":"METAR SBPS 301900Z 13004KT 9999 FEW020 SCT100 26/23 Q1012","temp":26,"dewp":23,"wdir":130,"wspd":4,"visib":"6+","altim":1012,"clouds":[{"cover":"FEW","base":2000},{"cover":"SCT","base":10000}],"obsTime":1774897200},"SBSC":{"icaoId":"SBSC","flightCategory":"VFR","rawOb":"METAR SBSC 301900Z 20010KT 9999 FEW040 26/22 Q1012","temp":26,"dewp":22,"wdir":200,"wspd":10,"visib":"6+","altim":1012,"clouds":[{"cover":"FEW","base":4000}],"obsTime":1774897200},"SBSJ":{"icaoId":"SBSJ","flightCategory":"VFR","rawOb":"METAR SBSJ 301900Z 13010KT 100V160 9999 FEW045 27/18 Q1014","temp":27,"dewp":18,"wdir":130,"wspd":10,"visib":"6+","altim":1014,"clouds":[{"cover":"FEW","base":4500}],"obsTime":1774897200},"SBSM":{"icaoId":"SBSM","flightCategory":"VFR","rawOb":"METAR SBSM 301900Z 13004KT 080V180 9999 FEW040TCU 29/24 Q1013","temp":29,"dewp":24,"wdir":130,"wspd":4,"visib":"6+","altim":1013,"clouds":[{"cover":"FEW","base":4000}],"obsTime":1774897200},"SBSR":{"icaoId":"SBSR","flightCategory":"MVFR","rawOb":"METAR SBSR 301900Z 25005KT 180V310 9999 BKN030 32/14 Q1013","temp":32,"dewp":14,"wdir":250,"wspd":5,"visib":"6+","altim":1013,"clouds":[{"cover":"BKN","base":3000}],"obsTime":1774897200},"SBTF":{"icaoId":"SBTF","flightCategory":"VFR","rawOb":"METAR SBTF 301900Z 08005KT 9999 SCT020 FEW025TCU 33/25 Q1007","temp":33,"dewp":25,"wdir":80,"wspd":5,"visib":"6+","altim":1007,"clouds":[{"cover":"SCT","base":2000},{"cover":"FEW","base":2500}],"obsTime":1774897200},"SBTT":{"icaoId":"SBTT","flightCategory":"MVFR","rawOb":"METAR SBTT 301900Z 24004KT 9999 BKN024 SCT070 31/23 Q1009","temp":31,"dewp":23,"wdir":240,"wspd":4,"visib":"6+","altim":1009,"clouds":[{"cover":"BKN","base":2400},{"cover":"SCT","base":7000}],"obsTime":1774897200},"SBUY":{"icaoId":"SBUY","flightCategory":"VFR","rawOb":"METAR SBUY 301900Z 19004KT 9999 SCT025 FEW030TCU SCT100 31/24 Q1007","temp":31,"dewp":24,"wdir":190,"wspd":4,"visib":"6+","altim":1007,"clouds":[{"cover":"SCT","base":2500},{"cover":"FEW","base":3000},{"cover":"SCT","base":10000}],"obsTime":1774897200},"SBVH":{"icaoId":"SBVH","flightCategory":"VFR","rawOb":"METAR SBVH 301900Z 11006KT 9999 SCT040 31/20 Q1012","temp":31,"dewp":20,"wdir":110,"wspd":6,"visib":"6+","altim":1012,"clouds":[{"cover":"SCT","base":4000}],"obsTime":1774897200},"SBBQ":{"icaoId":"SBBQ","flightCategory":"VFR","rawOb":"METAR SBBQ 301900Z VRB04KT 9999 SCT040 25/15 Q1018","temp":25,"dewp":15,"wdir":"VRB","wspd":4,"visib":"6+","altim":1018,"clouds":[{"cover":"SCT","base":4000}],"obsTime":1774897200},"SBGM":{"icaoId":"SBGM","flightCategory":"VFR","rawOb":"METAR SBGM 301900Z 10006KT 9999 SCT040 32/22 Q1010","temp":32,"dewp":22,"wdir":100,"wspd":6,"visib":"6+","altim":1010,"clouds":[{"cover":"SCT","base":4000}],"obsTime":1774897200},"SBJP":{"icaoId":"SBJP","flightCategory":"VFR","rawOb":"METAR SBJP 301900Z 11010KT 070V140 9999 BKN036 30/23 Q1009","temp":30,"dewp":23,"wdir":110,"wspd":10,"visib":"6+","altim":1009,"clouds":[{"cover":"BKN","base":3600}],"obsTime":1774897200},"SBIH":{"icaoId":"SBIH","flightCategory":"VFR","rawOb":"METAR SBIH 301900Z 24006KT 9999 SCT016 28/25 Q1008","temp":28,"dewp":25,"wdir":240,"wspd":6,"visib":"6+","altim":1008,"clouds":[{"cover":"SCT","base":1600}],"obsTime":1774897200},"SBJV":{"icaoId":"SBJV","flightCategory":"VFR","rawOb":"METAR SBJV 301900Z 07007KT 9999 SCT025 BKN080 29/23 Q1012","temp":29,"dewp":23,"wdir":70,"wspd":7,"visib":"6+","altim":1012,"clouds":[{"cover":"SCT","base":2500},{"cover":"BKN","base":8000}],"obsTime":1774897200},"SBPF":{"icaoId":"SBPF","flightCategory":"VFR","rawOb":"METAR SBPF 301900Z 22008KT 9999 FEW040 31/17 Q1015","temp":31,"dewp":17,"wdir":220,"wspd":8,"visib":"6+","altim":1015,"clouds":[{"cover":"FEW","base":4000}],"obsTime":1774897200},"SBAN":{"icaoId":"SBAN","flightCategory":"VFR","rawOb":"METAR SBAN 301900Z 15003KT 9999 BKN040 27/13 Q1016","temp":27,"dewp":13,"wdir":150,"wspd":3,"visib":"6+","altim":1016,"clouds":[{"cover":"BKN","base":4000}],"obsTime":1774897200},"SBAF":{"icaoId":"SBAF","flightCategory":"VFR","rawOb":"METAR SBAF 301900Z 20014KT 9999 FEW025 FEW030TCU 27/21 Q1012","temp":27,"dewp":21,"wdir":200,"wspd":14,"visib":"6+","altim":1012,"clouds":[{"cover":"FEW","base":2500},{"cover":"FEW","base":3000}],"obsTime":1774897200},"SBGW":{"icaoId":"SBGW","flightCategory":"VFR","rawOb":"METAR SBGW 301900Z 26004KT 170V320 9999 SCT025 FEW030TCU 30/17 Q1013","temp":30,"dewp":17,"wdir":260,"wspd":4,"visib":"6+","altim":1013,"clouds":[{"cover":"SCT","base":2500},{"cover":"FEW","base":3000}],"obsTime":1774897200},"SBJR":{"icaoId":"SBJR","flightCategory":"VFR","rawOb":"METAR SBJR 301900Z 18007KT 9999 FEW025 FEW030TCU 28/20 Q1012","temp":28,"dewp":20,"wdir":180,"wspd":7,"visib":"6+","altim":1012,"clouds":[{"cover":"FEW","base":2500},{"cover":"FEW","base":3000}],"obsTime":1774897200},"SBLS":{"icaoId":"SBLS","flightCategory":"VFR","rawOb":"METAR SBLS 301900Z 09003KT 020V120 9999 VCSH SCT035 FEW040TCU 26/17 Q1015","temp":26,"dewp":17,"wdir":90,"wspd":3,"visib":"6+","altim":1015,"clouds":[{"cover":"SCT","base":3500},{"cover":"FEW","base":4000}],"obsTime":1774897200},"SBMT":{"icaoId":"SBMT","flightCategory":"VFR","rawOb":"METAR SBMT 301900Z 16009KT 120V190 CAVOK 24/18 Q1016","temp":24,"dewp":18,"wdir":160,"wspd":9,"visib":"6+","altim":1016,"clouds":[],"obsTime":1774897200},"SBST":{"icaoId":"SBST","flightCategory":"VFR","rawOb":"METAR SBST 301900Z 22002KT 9999 FEW023 26/20 Q1013","temp":26,"dewp":20,"wdir":220,"wspd":2,"visib":"6+","altim":1013,"clouds":[{"cover":"FEW","base":2300}],"obsTime":1774897200},"SBTA":{"icaoId":"SBTA","flightCategory":"VFR","rawOb":"METAR SBTA 301900Z 19006KT 160V240 9999 VCSH SCT030 FEW035TCU SCT100 27/25 Q1013 RETS","temp":27,"dewp":25,"wdir":190,"wspd":6,"visib":"6+","altim":1013,"clouds":[{"cover":"SCT","base":3000},{"cover":"FEW","base":3500},{"cover":"SCT","base":10000}],"obsTime":1774897200},"SBLE":{"icaoId":"SBLE","flightCategory":"VFR","rawOb":"METAR SBLE 301900Z AUTO 15004KT 100V190 CAVOK 27/22 Q1012","temp":27,"dewp":22,"wdir":150,"wspd":4,"visib":"6+","altim":1012,"clouds":[],"obsTime":1774897200}}}