{"updated":1776714705,"count":84,"data":{"SBCG":{"icaoId":"SBCG","flightCategory":"VFR","rawOb":"METAR SBCG 201800Z 28009KT 230V300 9999 VCSH VCTS BKN045 FEW050CB BKN100 31/21 Q1013","temp":31,"dewp":21,"wdir":280,"wspd":9,"visib":"6+","altim":1013,"clouds":[{"cover":"BKN","base":4500},{"cover":"FEW","base":5000},{"cover":"BKN","base":10000}],"obsTime":1776708000},"SBRB":{"icaoId":"SBRB","flightCategory":"VFR","rawOb":"METAR SBRB 201800Z 36003KT 9999 -RA SCT035 BKN094 27/25 Q1012","temp":27,"dewp":25,"wdir":360,"wspd":3,"visib":"6+","altim":1012,"clouds":[{"cover":"SCT","base":3500},{"cover":"BKN","base":9400}],"obsTime":1776708000},"SBBE":{"icaoId":"SBBE","flightCategory":"VFR","rawOb":"METAR SBBE 201800Z 27005KT 9999 SCT040 30/24 Q1009","temp":30,"dewp":24,"wdir":270,"wspd":5,"visib":"6+","altim":1009,"clouds":[{"cover":"SCT","base":4000}],"obsTime":1776708000},"SBBR":{"icaoId":"SBBR","flightCategory":"VFR","rawOb":"METAR SBBR 201800Z VRB04KT 9999 SCT045 29/14 Q1017","temp":29,"dewp":14,"wdir":"VRB","wspd":4,"visib":"6+","altim":1017,"clouds":[{"cover":"SCT","base":4500}],"obsTime":1776708000},"SBBV":{"icaoId":"SBBV","flightCategory":"MVFR","rawOb":"METAR SBBV 201800Z 14008KT 9999 BKN030 FEW035TCU BKN090 31/23 Q1010","temp":31,"dewp":23,"wdir":140,"wspd":8,"visib":"6+","altim":1010,"clouds":[{"cover":"BKN","base":3000},{"cover":"FEW","base":3500},{"cover":"BKN","base":9000}],"obsTime":1776708000},"SBCB":{"icaoId":"SBCB","flightCategory":"VFR","rawOb":"METAR SBCB 201800Z 24012KT CAVOK 26/20 Q1014","temp":26,"dewp":20,"wdir":240,"wspd":12,"visib":"6+","altim":1014,"clouds":[],"obsTime":1776708000},"SBCF":{"icaoId":"SBCF","flightCategory":"VFR","rawOb":"METAR SBCF 201800Z 15003KT 9999 BKN035 FEW040TCU 18/18 Q1016","temp":18,"dewp":18,"wdir":150,"wspd":3,"visib":"6+","altim":1016,"clouds":[{"cover":"BKN","base":3500},{"cover":"FEW","base":4000}],"obsTime":1776708000},"SBCP":{"icaoId":"SBCP","flightCategory":"VFR","rawOb":"METAR SBCP 201800Z 20008KT 9999 FEW020 30/18 Q1013","temp":30,"dewp":18,"wdir":200,"wspd":8,"visib":"6+","altim":1013,"clouds":[{"cover":"FEW","base":2000}],"obsTime":1776708000},"SBCR":{"icaoId":"SBCR","flightCategory":"VFR","rawOb":"METAR SBCR 201800Z 02009KT 340V070 9999 BKN045 34/24 Q1009","temp":34,"dewp":24,"wdir":20,"wspd":9,"visib":"6+","altim":1009,"clouds":[{"cover":"BKN","base":4500}],"obsTime":1776708000},"SBCT":{"icaoId":"SBCT","flightCategory":"VFR","rawOb":"METAR SBCT 201800Z 10007KT 060V180 CAVOK 25/15 Q1019","temp":25,"dewp":15,"wdir":100,"wspd":7,"visib":"6+","altim":1019,"clouds":[],"obsTime":1776708000},"SBCZ":{"icaoId":"SBCZ","flightCategory":"MVFR","rawOb":"METAR SBCZ 201800Z 06007KT 9999 BKN025 FEW025TCU BKN100 30/24 Q1011","temp":30,"dewp":24,"wdir":60,"wspd":7,"visib":"6+","altim":1011,"clouds":[{"cover":"BKN","base":2500},{"cover":"FEW","base":2500},{"cover":"BKN","base":10000}],"obsTime":1776708000},"SBEG":{"icaoId":"SBEG","flightCategory":"VFR","rawOb":"METAR SBEG 201800Z 06008KT 9999 SCT020 FEW025TCU BKN100 26/23 Q1011","temp":26,"dewp":23,"wdir":60,"wspd":8,"visib":"6+","altim":1011,"clouds":[{"cover":"SCT","base":2000},{"cover":"FEW","base":2500},{"cover":"BKN","base":10000}],"obsTime":1776708000},"SBFI":{"icaoId":"SBFI","flightCategory":"VFR","rawOb":"METAR SBFI 201800Z 35006KT 9999 FEW030 30/23 Q1012","temp":30,"dewp":23,"wdir":350,"wspd":6,"visib":"6+","altim":1012,"clouds":[{"cover":"FEW","base":3000}],"obsTime":1776708000},"SBFL":{"icaoId":"SBFL","flightCategory":"VFR","rawOb":"METAR SBFL 201800Z 09009KT CAVOK 26/19 Q1015","temp":26,"dewp":19,"wdir":90,"wspd":9,"visib":"6+","altim":1015,"clouds":[],"obsTime":1776708000},"SBFZ":{"icaoId":"SBFZ","flightCategory":"VFR","rawOb":"METAR SBFZ 201800Z 10008KT 9999 SCT015 27/25 Q1009","temp":27,"dewp":25,"wdir":100,"wspd":8,"visib":"6+","altim":1009,"clouds":[{"cover":"SCT","base":1500}],"obsTime":1776708000},"SBGL":{"icaoId":"SBGL","flightCategory":"VFR","rawOb":"METAR SBGL 201800Z 12010KT 9999 SCT035 27/18 Q1014","temp":27,"dewp":18,"wdir":120,"wspd":10,"visib":"6+","altim":1014,"clouds":[{"cover":"SCT","base":3500}],"obsTime":1776708000},"SBGO":{"icaoId":"SBGO","flightCategory":"VFR","rawOb":"METAR SBGO 201800Z VRB04KT 9999 SCT045 32/19 Q1014","temp":32,"dewp":19,"wdir":"VRB","wspd":4,"visib":"6+","altim":1014,"clouds":[{"cover":"SCT","base":4500}],"obsTime":1776708000},"SBGR":{"icaoId":"SBGR","flightCategory":"VFR","rawOb":"METAR SBGR 201800Z 18007KT CAVOK 26/12 Q1018","temp":26,"dewp":12,"wdir":180,"wspd":7,"visib":"6+","altim":1018,"clouds":[],"obsTime":1776708000},"SBHT":{"icaoId":"SBHT","flightCategory":"MVFR","rawOb":"METAR SBHT 201800Z 17002KT 9999 BKN025 BKN100 31/25 Q1009","temp":31,"dewp":25,"wdir":170,"wspd":2,"visib":"6+","altim":1009,"clouds":[{"cover":"BKN","base":2500},{"cover":"BKN","base":10000}],"obsTime":1776708000},"SBIL":{"icaoId":"SBIL","flightCategory":"VFR","rawOb":"METAR SBIL 201800Z 16007KT 130V200 9999 SCT025 30/24 Q1012","temp":30,"dewp":24,"wdir":160,"wspd":7,"visib":"6+","altim":1012,"clouds":[{"cover":"SCT","base":2500}],"obsTime":1776708000},"SBJU":{"icaoId":"SBJU","flightCategory":"MVFR","rawOb":"METAR SBJU 201800Z 10010KT 9999 BKN020 30/22 Q1010","temp":30,"dewp":22,"wdir":100,"wspd":10,"visib":"6+","altim":1010,"clouds":[{"cover":"BKN","base":2000}],"obsTime":1776708000},"SBKP":{"icaoId":"SBKP","flightCategory":"VFR","rawOb":"METAR SBKP 201800Z 18006KT 120V230 CAVOK 29/10 Q1017","temp":29,"dewp":10,"wdir":180,"wspd":6,"visib":"6+","altim":1017,"clouds":[],"obsTime":1776708000},"SBLO":{"icaoId":"SBLO","flightCategory":"VFR","rawOb":"METAR SBLO 201800Z 12005KT CAVOK 28/18 Q1016","temp":28,"dewp":18,"wdir":120,"wspd":5,"visib":"6+","altim":1016,"clouds":[],"obsTime":1776708000},"SBMA":{"icaoId":"SBMA","flightCategory":"MVFR","rawOb":"METAR SBMA 201800Z 17004KT 9999 BKN020 FEW025TCU BKN100 29/25 Q1009","temp":29,"dewp":25,"wdir":170,"wspd":4,"visib":"6+","altim":1009,"clouds":[{"cover":"BKN","base":2000},{"cover":"FEW","base":2500},{"cover":"BKN","base":10000}],"obsTime":1776708000},"SBME":{"icaoId":"SBME","flightCategory":"VFR","rawOb":"METAR SBME 201800Z 19007KT 9999 SCT040 28/17 Q1013","temp":28,"dewp":17,"wdir":190,"wspd":7,"visib":"6+","altim":1013,"clouds":[{"cover":"SCT","base":4000}],"obsTime":1776708000},"SBMG":{"icaoId":"SBMG","flightCategory":"VFR","rawOb":"METAR SBMG 201800Z 03007KT 360V070 CAVOK 30/17 Q1014","temp":30,"dewp":17,"wdir":30,"wspd":7,"visib":"6+","altim":1014,"clouds":[],"obsTime":1776708000},"SBMK":{"icaoId":"SBMK","flightCategory":"VFR","rawOb":"METAR SBMK 201800Z 04003KT 9999 BKN045 31/16 Q1014","temp":31,"dewp":16,"wdir":40,"wspd":3,"visib":"6+","altim":1014,"clouds":[{"cover":"BKN","base":4500}],"obsTime":1776708000},"SBMO":{"icaoId":"SBMO","flightCategory":"MVFR","rawOb":"METAR SBMO 201800Z 06005KT 9999 BKN025 26/24 Q1011","temp":26,"dewp":24,"wdir":60,"wspd":5,"visib":"6+","altim":1011,"clouds":[{"cover":"BKN","base":2500}],"obsTime":1776708000},"SBMQ":{"icaoId":"SBMQ","flightCategory":"VFR","rawOb":"METAR SBMQ 201800Z 10004KT 9999 SCT026 30/25 Q1009","temp":30,"dewp":25,"wdir":100,"wspd":4,"visib":"6+","altim":1009,"clouds":[{"cover":"SCT","base":2600}],"obsTime":1776708000},"SBNT":{"icaoId":"SBNT","flightCategory":"VFR","rawOb":"METAR SBNT 201800Z 13007KT 9999 FEW012 SCT030 FEW031TCU BKN100 27/25 Q1009","temp":27,"dewp":25,"wdir":130,"wspd":7,"visib":"6+","altim":1009,"clouds":[{"cover":"FEW","base":1200},{"cover":"SCT","base":3000},{"cover":"FEW","base":3100},{"cover":"BKN","base":10000}],"obsTime":1776708000},"SBPA":{"icaoId":"SBPA","flightCategory":"VFR","rawOb":"METAR SBPA 201800Z 13006KT 090V180 CAVOK 29/15 Q1014","temp":29,"dewp":15,"wdir":130,"wspd":6,"visib":"6+","altim":1014,"clouds":[],"obsTime":1776708000},"SBPJ":{"icaoId":"SBPJ","flightCategory":"VFR","rawOb":"METAR SBPJ 201800Z 01003KT 330V060 9999 SCT025 FEW030TCU SCT090 30/23 Q1011","temp":30,"dewp":23,"wdir":10,"wspd":3,"visib":"6+","altim":1011,"clouds":[{"cover":"SCT","base":2500},{"cover":"FEW","base":3000},{"cover":"SCT","base":9000}],"obsTime":1776708000},"SBPV":{"icaoId":"SBPV","flightCategory":"VFR","rawOb":"METAR SBPV 201800Z 25002KT 9999 FEW020 28/26 Q1011","temp":28,"dewp":26,"wdir":250,"wspd":2,"visib":"6+","altim":1011,"clouds":[{"cover":"FEW","base":2000}],"obsTime":1776708000},"SBAT":{"icaoId":"SBAT","flightCategory":"VFR","rawOb":"METAR SBAT 201800Z 09004KT 9999 SCT030 FEW032TCU 32/24 Q1011","temp":32,"dewp":24,"wdir":90,"wspd":4,"visib":"6+","altim":1011,"clouds":[{"cover":"SCT","base":3000},{"cover":"FEW","base":3200}],"obsTime":1776708000},"SBRF":{"icaoId":"SBRF","flightCategory":"VFR","rawOb":"METAR SBRF 201800Z 17013KT 9999 VCSH SCT017 FEW023TCU BKN060 29/24 Q1010","temp":29,"dewp":24,"wdir":170,"wspd":13,"visib":"6+","altim":1010,"clouds":[{"cover":"SCT","base":1700},{"cover":"FEW","base":2300},{"cover":"BKN","base":6000}],"obsTime":1776708000},"SBSG":{"icaoId":"SBSG","flightCategory":"VFR","rawOb":"METAR SBSG 201800Z 14003KT 100V200 9999 VCSH FEW011 SCT025 FEW030TCU BKN100 27/25 Q1010","temp":27,"dewp":25,"wdir":140,"wspd":3,"visib":"6+","altim":1010,"clouds":[{"cover":"FEW","base":1100},{"cover":"SCT","base":2500},{"cover":"FEW","base":3000},{"cover":"BKN","base":10000}],"obsTime":1776708000},"SBSL":{"icaoId":"SBSL","flightCategory":"MVFR","rawOb":"METAR SBSL 201800Z 19006KT 9999 VCSH SCT017 BKN023 FEW025TCU 26/25 Q1009","temp":26,"dewp":25,"wdir":190,"wspd":6,"visib":"6+","altim":1009,"clouds":[{"cover":"SCT","base":1700},{"cover":"BKN","base":2300},{"cover":"FEW","base":2500}],"obsTime":1776708000},"SBSN":{"icaoId":"SBSN","flightCategory":"VFR","rawOb":"METAR SBSN 201800Z 03006KT 9999 SCT020 FEW023TCU 29/24 Q1010","temp":29,"dewp":24,"wdir":30,"wspd":6,"visib":"6+","altim":1010,"clouds":[{"cover":"SCT","base":2000},{"cover":"FEW","base":2300}],"obsTime":1776708000},"SBSP":{"icaoId":"SBSP","flightCategory":"VFR","rawOb":"METAR SBSP 201800Z 18010KT CAVOK 24/13 Q1019","temp":24,"dewp":13,"wdir":180,"wspd":10,"visib":"6+","altim":1019,"clouds":[],"obsTime":1776708000},"SBSV":{"icaoId":"SBSV","flightCategory":"VFR","rawOb":"METAR SBSV 201800Z 14009KT 100V180 9999 SCT017 BKN100 29/24 Q1011","temp":29,"dewp":24,"wdir":140,"wspd":9,"visib":"6+","altim":1011,"clouds":[{"cover":"SCT","base":1700},{"cover":"BKN","base":10000}],"obsTime":1776708000},"SBTE":{"icaoId":"SBTE","flightCategory":"VFR","rawOb":"METAR SBTE 201800Z 05002KT 9999 SCT018 SCT100 28/25 Q1008","temp":28,"dewp":25,"wdir":50,"wspd":2,"visib":"6+","altim":1008,"clouds":[{"cover":"SCT","base":1800},{"cover":"SCT","base":10000}],"obsTime":1776708000},"SBUL":{"icaoId":"SBUL","flightCategory":"VFR","rawOb":"METAR SBUL 201800Z VRB05KT 9999 SCT049 FEW050TCU SCT070 29/16 Q1017","temp":29,"dewp":16,"wdir":"VRB","wspd":5,"visib":"6+","altim":1017,"clouds":[{"cover":"SCT","base":4900},{"cover":"FEW","base":5000},{"cover":"SCT","base":7000}],"obsTime":1776708000},"SBUR":{"icaoId":"SBUR","flightCategory":"VFR","rawOb":"METAR SBUR 201800Z 17008KT CAVOK 30/19 Q1016","temp":30,"dewp":19,"wdir":170,"wspd":8,"visib":"6+","altim":1016,"clouds":[],"obsTime":1776708000},"SBVT":{"icaoId":"SBVT","flightCategory":"VFR","rawOb":"METAR SBVT 201800Z 16012KT 9999 SCT045 26/21 Q1014","temp":26,"dewp":21,"wdir":160,"wspd":12,"visib":"6+","altim":1014,"clouds":[{"cover":"SCT","base":4500}],"obsTime":1776708000},"SBCJ":{"icaoId":"SBCJ","flightCategory":"VFR","rawOb":"METAR SBCJ 201800Z 22003KT 9999 FEW015 SCT025 28/21 Q1014","temp":28,"dewp":21,"wdir":220,"wspd":3,"visib":"6+","altim":1014,"clouds":[{"cover":"FEW","base":1500},{"cover":"SCT","base":2500}],"obsTime":1776708000},"SBOI":{"icaoId":"SBOI","flightCategory":"VFR","rawOb":"METAR SBOI 201800Z AUTO 20003KT 140V240 CAVOK 32/24 Q1009","temp":32,"dewp":24,"wdir":200,"wspd":3,"visib":"6+","altim":1009,"clouds":[],"obsTime":1776708000},"SBPB":{"icaoId":"SBPB","flightCategory":"MVFR","rawOb":"METAR SBPB 201800Z 04010KT 9999 BKN016 BKN090 30/25 Q1008 RETS","temp":30,"dewp":25,"wdir":40,"wspd":10,"visib":"6+","altim":1008,"clouds":[{"cover":"BKN","base":1600},{"cover":"BKN","base":9000}],"obsTime":1776708000},"SBBU":{"icaoId":"SBBU","flightCategory":"VFR","rawOb":"METAR SBBU 201800Z 16010KT CAVOK 30/11 Q1016","temp":30,"dewp":11,"wdir":160,"wspd":10,"visib":"6+","altim":1016,"clouds":[],"obsTime":1776708000},"SBPL":{"icaoId":"SBPL","flightCategory":"VFR","rawOb":"METAR SBPL 201800Z 12004KT 9999 SCT030 FEW035TCU 33/20 Q1009","temp":33,"dewp":20,"wdir":120,"wspd":4,"visib":"6+","altim":1009,"clouds":[{"cover":"SCT","base":3000},{"cover":"FEW","base":3500}],"obsTime":1776708000},"SBCO":{"icaoId":"SBCO","flightCategory":"VFR","rawOb":"METAR SBCO 201800Z 28005KT CAVOK 28/19 Q1014","temp":28,"dewp":19,"wdir":280,"wspd":5,"visib":"6+","altim":1014,"clouds":[],"obsTime":1776708000},"SBPP":{"icaoId":"SBPP","flightCategory":"VFR","rawOb":"METAR SBPP 201800Z 03013KT 9999 SCT020 29/23 Q1013","temp":29,"dewp":23,"wdir":30,"wspd":13,"visib":"6+","altim":1013,"clouds":[{"cover":"SCT","base":2000}],"obsTime":1776708000},"SBDN":{"icaoId":"SBDN","flightCategory":"VFR","rawOb":"METAR SBDN 201800Z 03007KT CAVOK 32/16 Q1014","temp":32,"dewp":16,"wdir":30,"wspd":7,"visib":"6+","altim":1014,"clouds":[],"obsTime":1776708000},"SBPS":{"icaoId":"SBPS","flightCategory":"VFR","rawOb":"METAR SBPS 201800Z 13006KT 9999 SCT020 28/23 Q1012","temp":28,"dewp":23,"wdir":130,"wspd":6,"visib":"6+","altim":1012,"clouds":[{"cover":"SCT","base":2000}],"obsTime":1776708000},"SBBH":{"icaoId":"SBBH","flightCategory":"VFR","rawOb":"METAR SBBH 201800Z 06004KT 9999 SCT040 29/18 Q1016","temp":29,"dewp":18,"wdir":60,"wspd":4,"visib":"6+","altim":1016,"clouds":[{"cover":"SCT","base":4000}],"obsTime":1776708000},"SBSC":{"icaoId":"SBSC","flightCategory":"VFR","rawOb":"METAR SBSC 201800Z 19010KT CAVOK 27/20 Q1015","temp":27,"dewp":20,"wdir":190,"wspd":10,"visib":"6+","altim":1015,"clouds":[],"obsTime":1776708000},"SBES":{"icaoId":"SBES","flightCategory":"VFR","rawOb":"METAR SBES 201800Z 23011KT 170V270 9999 FEW030 26/// Q1014","temp":null,"dewp":null,"wdir":230,"wspd":11,"visib":"6+","altim":1014,"clouds":[{"cover":"FEW","base":3000}],"obsTime":1776708000},"SBSJ":{"icaoId":"SBSJ","flightCategory":"VFR","rawOb":"METAR SBSJ 201800Z 06002KT CAVOK 26/12 Q1017","temp":26,"dewp":12,"wdir":60,"wspd":2,"visib":"6+","altim":1017,"clouds":[],"obsTime":1776708000},"SBAX":{"icaoId":"SBAX","flightCategory":"VFR","rawOb":"METAR SBAX 201800Z AUTO VRB03KT CAVOK 29/14 Q1017","temp":29,"dewp":14,"wdir":"VRB","wspd":3,"visib":"6+","altim":1017,"clouds":[],"obsTime":1776708000},"SBSM":{"icaoId":"SBSM","flightCategory":"VFR","rawOb":"METAR SBSM 201800Z 12006KT CAVOK 26/19 Q1013","temp":26,"dewp":19,"wdir":120,"wspd":6,"visib":"6+","altim":1013,"clouds":[],"obsTime":1776708000},"SBGM":{"icaoId":"SBGM","flightCategory":"VFR","rawOb":"METAR SBGM 201800Z 34004KT 9999 SCT023 BKN100 30/23 Q1011","temp":30,"dewp":23,"wdir":340,"wspd":4,"visib":"6+","altim":1011,"clouds":[{"cover":"SCT","base":2300},{"cover":"BKN","base":10000}],"obsTime":1776708000},"SBSR":{"icaoId":"SBSR","flightCategory":"VFR","rawOb":"METAR SBSR 201800Z VRB05KT CAVOK 31/13 Q1014","temp":31,"dewp":13,"wdir":"VRB","wspd":5,"visib":"6+","altim":1014,"clouds":[],"obsTime":1776708000},"SBCC":{"icaoId":"SBCC","flightCategory":"MVFR","rawOb":"METAR SBCC 201800Z 02005KT 9999 BKN025 29/22 Q1012","temp":29,"dewp":22,"wdir":20,"wspd":5,"visib":"6+","altim":1012,"clouds":[{"cover":"BKN","base":2500}],"obsTime":1776708000},"SBTF":{"icaoId":"SBTF","flightCategory":"VFR","rawOb":"METAR SBTF 201800Z 12006KT 9999 SCT020 SCT100 31/26 Q1010","temp":31,"dewp":26,"wdir":120,"wspd":6,"visib":"6+","altim":1010,"clouds":[{"cover":"SCT","base":2000},{"cover":"SCT","base":10000}],"obsTime":1776708000},"SBIP":{"icaoId":"SBIP","flightCategory":"VFR","rawOb":"METAR SBIP 201800Z AUTO VRB04KT CAVOK 31/19 Q1013","temp":31,"dewp":19,"wdir":"VRB","wspd":4,"visib":"6+","altim":1013,"clouds":[],"obsTime":1776708000},"SBAR":{"icaoId":"SBAR","flightCategory":"VFR","rawOb":"METAR SBAR 201800Z 12008KT 9999 SCT028 30/23 Q1010","temp":30,"dewp":23,"wdir":120,"wspd":8,"visib":"6+","altim":1010,"clouds":[{"cover":"SCT","base":2800}],"obsTime":1776708000},"SBTT":{"icaoId":"SBTT","flightCategory":"VFR","rawOb":"METAR SBTT 201800Z 17005KT 9999 SCT010 FEW020TCU 29/23 Q1011","temp":29,"dewp":23,"wdir":170,"wspd":5,"visib":"6+","altim":1011,"clouds":[{"cover":"SCT","base":1000},{"cover":"FEW","base":2000}],"obsTime":1776708000},"SBBQ":{"icaoId":"SBBQ","flightCategory":"VFR","rawOb":"METAR SBBQ 201800Z 31002KT 9999 SCT040 25/17 Q1020","temp":25,"dewp":17,"wdir":310,"wspd":2,"visib":"6+","altim":1020,"clouds":[{"cover":"SCT","base":4000}],"obsTime":1776708000},"SBKG":{"icaoId":"SBKG","flightCategory":"VFR","rawOb":"METAR SBKG 201800Z 10014KT 9999 FEW025 29/24 Q1011","temp":29,"dewp":24,"wdir":100,"wspd":14,"visib":"6+","altim":1011,"clouds":[{"cover":"FEW","base":2500}],"obsTime":1776708000},"SBUY":{"icaoId":"SBUY","flightCategory":"VFR","rawOb":"METAR SBUY 201800Z 15002KT 9999 SCT025 BKN100 29/24 Q1010","temp":29,"dewp":24,"wdir":150,"wspd":2,"visib":"6+","altim":1010,"clouds":[{"cover":"SCT","base":2500},{"cover":"BKN","base":10000}],"obsTime":1776708000},"SBVH":{"icaoId":"SBVH","flightCategory":"MVFR","rawOb":"METAR SBVH 201800Z 28005KT 9999 TS BKN025 FEW030CB BKN100 29/22 Q1013","temp":29,"dewp":22,"wdir":280,"wspd":5,"visib":"6+","altim":1013,"clouds":[{"cover":"BKN","base":2500},{"cover":"FEW","base":3000},{"cover":"BKN","base":10000}],"obsTime":1776708000},"SBAU":{"icaoId":"SBAU","flightCategory":"VFR","rawOb":"METAR SBAU 201800Z 12006KT CAVOK 32/15 Q1014","temp":32,"dewp":15,"wdir":120,"wspd":6,"visib":"6+","altim":1014,"clouds":[],"obsTime":1776708000},"SBCA":{"icaoId":"SBCA","flightCategory":"VFR","rawOb":"METAR SBCA 201800Z 03014KT CAVOK 27/18 Q1016","temp":27,"dewp":18,"wdir":30,"wspd":14,"visib":"6+","altim":1016,"clouds":[],"obsTime":1776708000},"SBLE":{"icaoId":"SBLE","flightCategory":"VFR","rawOb":"METAR SBLE 201800Z AUTO 15007KT 120V200 CAVOK 30/19 Q1013","temp":30,"dewp":19,"wdir":150,"wspd":7,"visib":"6+","altim":1013,"clouds":[],"obsTime":1776708000},"SBAN":{"icaoId":"SBAN","flightCategory":"MVFR","rawOb":"METAR SBAN 201800Z 32003KT 9999 VCSH BKN030 FEW035TCU 27/17 Q1018","temp":27,"dewp":17,"wdir":320,"wspd":3,"visib":"6+","altim":1018,"clouds":[{"cover":"BKN","base":3000},{"cover":"FEW","base":3500}],"obsTime":1776708000},"SBIH":{"icaoId":"SBIH","flightCategory":"VFR","rawOb":"METAR SBIH 201800Z 14012KT 9999 SCT020 FEW025TCU 32/25 Q1009","temp":32,"dewp":25,"wdir":140,"wspd":12,"visib":"6+","altim":1009,"clouds":[{"cover":"SCT","base":2000},{"cover":"FEW","base":2500}],"obsTime":1776708000},"SBJV":{"icaoId":"SBJV","flightCategory":"VFR","rawOb":"METAR SBJV 201800Z 12009KT 9999 FEW030 28/21 Q1015","temp":28,"dewp":21,"wdir":120,"wspd":9,"visib":"6+","altim":1015,"clouds":[{"cover":"FEW","base":3000}],"obsTime":1776708000},"SBAF":{"icaoId":"SBAF","flightCategory":"VFR","rawOb":"METAR SBAF 201800Z 20013KT 9999 FEW040 27/17 Q1015","temp":27,"dewp":17,"wdir":200,"wspd":13,"visib":"6+","altim":1015,"clouds":[{"cover":"FEW","base":4000}],"obsTime":1776708000},"SBGW":{"icaoId":"SBGW","flightCategory":"VFR","rawOb":"METAR SBGW 201800Z VRB03KT 9999 FEW030 29/12 Q1016","temp":29,"dewp":12,"wdir":"VRB","wspd":3,"visib":"6+","altim":1016,"clouds":[{"cover":"FEW","base":3000}],"obsTime":1776708000},"SBJR":{"icaoId":"SBJR","flightCategory":"VFR","rawOb":"METAR SBJR 201800Z 20007KT 9999 FEW025 28/20 Q1015","temp":28,"dewp":20,"wdir":200,"wspd":7,"visib":"6+","altim":1015,"clouds":[{"cover":"FEW","base":2500}],"obsTime":1776708000},"SBLS":{"icaoId":"SBLS","flightCategory":"VFR","rawOb":"METAR SBLS 201800Z VRB03KT 9999 SCT036 FEW040TCU 27/18 Q1016","temp":27,"dewp":18,"wdir":"VRB","wspd":3,"visib":"6+","altim":1016,"clouds":[{"cover":"SCT","base":3600},{"cover":"FEW","base":4000}],"obsTime":1776708000},"SBMT":{"icaoId":"SBMT","flightCategory":"VFR","rawOb":"METAR SBMT 201800Z 17007KT 080V210 CAVOK 25/12 Q1018","temp":25,"dewp":12,"wdir":170,"wspd":7,"visib":"6+","altim":1018,"clouds":[],"obsTime":1776708000},"SBST":{"icaoId":"SBST","flightCategory":"VFR","rawOb":"METAR SBST 201800Z 26005KT 9999 SCT045 26/17 Q1015","temp":26,"dewp":17,"wdir":260,"wspd":5,"visib":"6+","altim":1015,"clouds":[{"cover":"SCT","base":4500}],"obsTime":1776708000},"SBTA":{"icaoId":"SBTA","flightCategory":"VFR","rawOb":"METAR SBTA 201800Z 13004KT 090V190 CAVOK 27/13 Q1015","temp":27,"dewp":13,"wdir":130,"wspd":4,"visib":"6+","altim":1015,"clouds":[],"obsTime":1776708000},"SBJP":{"icaoId":"SBJP","flightCategory":"VFR","rawOb":"METAR SBJP 201800Z 09011KT 060V130 9999 SCT025 BKN070 30/24 Q1010","temp":30,"dewp":24,"wdir":90,"wspd":11,"visib":"6+","altim":1010,"clouds":[{"cover":"SCT","base":2500},{"cover":"BKN","base":7000}],"obsTime":1776708000}}}