{"updated":1780920694,"count":87,"data":{"SBAT":{"icaoId":"SBAT","flightCategory":"VFR","rawOb":"METAR SBAT 081100Z 00000KT CAVOK 22/20 Q1016","temp":22,"dewp":20,"wdir":0,"wspd":0,"visib":"6+","altim":1016,"clouds":[],"obsTime":1780916400},"SBBE":{"icaoId":"SBBE","flightCategory":"VFR","rawOb":"METAR SBBE 081100Z 10006KT 9999 FEW020 27/25 Q1014","temp":27,"dewp":25,"wdir":100,"wspd":6,"visib":"6+","altim":1014,"clouds":[{"cover":"FEW","base":2000}],"obsTime":1780916400},"SBBR":{"icaoId":"SBBR","flightCategory":"VFR","rawOb":"METAR SBBR 081100Z 28003KT CAVOK 14/11 Q1023","temp":14,"dewp":11,"wdir":280,"wspd":3,"visib":"6+","altim":1023,"clouds":[],"obsTime":1780916400},"SBBV":{"icaoId":"SBBV","flightCategory":"VFR","rawOb":"METAR SBBV 081100Z 10003KT 9999 -RA SCT007 SCT030 FEW035TCU BKN100 24/24 Q1015","temp":24,"dewp":24,"wdir":100,"wspd":3,"visib":"6+","altim":1015,"clouds":[{"cover":"SCT","base":700},{"cover":"SCT","base":3000},{"cover":"FEW","base":3500},{"cover":"BKN","base":10000}],"obsTime":1780916400},"SBCB":{"icaoId":"SBCB","flightCategory":"VFR","rawOb":"METAR SBCB 081100Z 00000KT CAVOK 19/16 Q1021","temp":19,"dewp":16,"wdir":0,"wspd":0,"visib":"6+","altim":1021,"clouds":[],"obsTime":1780916400},"SBCF":{"icaoId":"SBCF","flightCategory":"VFR","rawOb":"METAR SBCF 081100Z 20003KT 9000 NSC 12/10 Q1023","temp":12,"dewp":10,"wdir":200,"wspd":3,"visib":5.59,"altim":1023,"clouds":[],"obsTime":1780916400},"SBCG":{"icaoId":"SBCG","flightCategory":"VFR","rawOb":"METAR SBCG 081100Z 07009KT CAVOK 18/11 Q1019","temp":18,"dewp":11,"wdir":70,"wspd":9,"visib":"6+","altim":1019,"clouds":[],"obsTime":1780916400},"SBCP":{"icaoId":"SBCP","flightCategory":"VFR","rawOb":"METAR SBCP 081100Z 34003KT CAVOK 18/16 Q1021","temp":18,"dewp":16,"wdir":340,"wspd":3,"visib":"6+","altim":1021,"clouds":[],"obsTime":1780916400},"SBCR":{"icaoId":"SBCR","flightCategory":"VFR","rawOb":"METAR SBCR 081100Z VRB01KT CAVOK 22/15 Q1016","temp":22,"dewp":15,"wdir":"VRB","wspd":1,"visib":"6+","altim":1016,"clouds":[],"obsTime":1780916400},"SBCT":{"icaoId":"SBCT","flightCategory":"MVFR","rawOb":"METAR SBCT 081100Z 01005KT 9999 BKN011 13/12 Q1022","temp":13,"dewp":12,"wdir":10,"wspd":5,"visib":"6+","altim":1022,"clouds":[{"cover":"BKN","base":1100}],"obsTime":1780916400},"SBCZ":{"icaoId":"SBCZ","flightCategory":"MVFR","rawOb":"METAR SBCZ 081200Z 04001KT 6000 NSC 23/22 Q1015","temp":23,"dewp":22,"wdir":40,"wspd":1,"visib":3.73,"altim":1015,"clouds":[],"obsTime":1780920000},"SBEG":{"icaoId":"SBEG","flightCategory":"LIFR","rawOb":"METAR SBEG 081100Z 00000KT 9999 BKN004 BKN080 24/24 Q1014","temp":24,"dewp":24,"wdir":0,"wspd":0,"visib":"6+","altim":1014,"clouds":[{"cover":"BKN","base":400},{"cover":"BKN","base":8000}],"obsTime":1780916400},"SBFI":{"icaoId":"SBFI","flightCategory":"VFR","rawOb":"METAR SBFI 081100Z 06004KT 9999 FEW010 BKN080 16/16 Q1018","temp":16,"dewp":16,"wdir":60,"wspd":4,"visib":"6+","altim":1018,"clouds":[{"cover":"FEW","base":1000},{"cover":"BKN","base":8000}],"obsTime":1780916400},"SBFL":{"icaoId":"SBFL","flightCategory":"VFR","rawOb":"METAR SBFL 081100Z 30008KT 9999 SCT010 SCT030 18/17 Q1018","temp":18,"dewp":17,"wdir":300,"wspd":8,"visib":"6+","altim":1018,"clouds":[{"cover":"SCT","base":1000},{"cover":"SCT","base":3000}],"obsTime":1780916400},"SBFZ":{"icaoId":"SBFZ","flightCategory":"VFR","rawOb":"METAR SBFZ 081100Z 15013KT 9999 FEW020 27/21 Q1015","temp":27,"dewp":21,"wdir":150,"wspd":13,"visib":"6+","altim":1015,"clouds":[{"cover":"FEW","base":2000}],"obsTime":1780916400},"SBGL":{"icaoId":"SBGL","flightCategory":"VFR","rawOb":"METAR SBGL 081100Z VRB01KT CAVOK 18/14 Q1021","temp":18,"dewp":14,"wdir":"VRB","wspd":1,"visib":"6+","altim":1021,"clouds":[],"obsTime":1780916400},"SBGO":{"icaoId":"SBGO","flightCategory":"VFR","rawOb":"METAR SBGO 081100Z 00000KT CAVOK 15/13 Q1021","temp":15,"dewp":13,"wdir":0,"wspd":0,"visib":"6+","altim":1021,"clouds":[],"obsTime":1780916400},"SBGR":{"icaoId":"SBGR","flightCategory":"VFR","rawOb":"METAR SBGR 081100Z 07004KT CAVOK 12/10 Q1023","temp":12,"dewp":10,"wdir":70,"wspd":4,"visib":"6+","altim":1023,"clouds":[],"obsTime":1780916400},"SBHT":{"icaoId":"SBHT","flightCategory":"VFR","rawOb":"METAR SBHT 081100Z 08004KT 9999 SCT012 BKN080 26/26 Q1014","temp":26,"dewp":26,"wdir":80,"wspd":4,"visib":"6+","altim":1014,"clouds":[{"cover":"SCT","base":1200},{"cover":"BKN","base":8000}],"obsTime":1780916400},"SBIL":{"icaoId":"SBIL","flightCategory":"VFR","rawOb":"METAR SBIL 081100Z 30005KT 9999 SCT020 BKN070 21/20 Q1020","temp":21,"dewp":20,"wdir":300,"wspd":5,"visib":"6+","altim":1020,"clouds":[{"cover":"SCT","base":2000},{"cover":"BKN","base":7000}],"obsTime":1780916400},"SBJU":{"icaoId":"SBJU","flightCategory":"VFR","rawOb":"METAR SBJU 081100Z 18010KT 9999 FEW020 24/18 Q1019","temp":24,"dewp":18,"wdir":180,"wspd":10,"visib":"6+","altim":1019,"clouds":[{"cover":"FEW","base":2000}],"obsTime":1780916400},"SBKP":{"icaoId":"SBKP","flightCategory":"VFR","rawOb":"METAR SBKP 081100Z 10005KT CAVOK 12/09 Q1022","temp":12,"dewp":9,"wdir":100,"wspd":5,"visib":"6+","altim":1022,"clouds":[],"obsTime":1780916400},"SBLO":{"icaoId":"SBLO","flightCategory":"VFR","rawOb":"METAR SBLO 081100Z 23003KT 190V280 CAVOK 13/11 Q1021","temp":13,"dewp":11,"wdir":230,"wspd":3,"visib":"6+","altim":1021,"clouds":[],"obsTime":1780916400},"SBMA":{"icaoId":"SBMA","flightCategory":"VFR","rawOb":"METAR SBMA 081100Z 32002KT 9999 FEW020 27/23 Q1014","temp":27,"dewp":23,"wdir":320,"wspd":2,"visib":"6+","altim":1014,"clouds":[{"cover":"FEW","base":2000}],"obsTime":1780916400},"SBME":{"icaoId":"SBME","flightCategory":"VFR","rawOb":"METAR SBME 081100Z 30003KT 270V360 CAVOK 17/16 Q1021","temp":17,"dewp":16,"wdir":300,"wspd":3,"visib":"6+","altim":1021,"clouds":[],"obsTime":1780916400},"SBMG":{"icaoId":"SBMG","flightCategory":"VFR","rawOb":"METAR SBMG 081100Z 10004KT CAVOK 14/12 Q1019","temp":14,"dewp":12,"wdir":100,"wspd":4,"visib":"6+","altim":1019,"clouds":[],"obsTime":1780916400},"SBMK":{"icaoId":"SBMK","flightCategory":"VFR","rawOb":"METAR SBMK 081100Z 31002KT CAVOK 16/12 Q1022","temp":16,"dewp":12,"wdir":310,"wspd":2,"visib":"6+","altim":1022,"clouds":[],"obsTime":1780916400},"SBMO":{"icaoId":"SBMO","flightCategory":"MVFR","rawOb":"METAR SBMO 081100Z 23004KT 9999 BKN023 25/23 Q1018","temp":25,"dewp":23,"wdir":230,"wspd":4,"visib":"6+","altim":1018,"clouds":[{"cover":"BKN","base":2300}],"obsTime":1780916400},"SBMQ":{"icaoId":"SBMQ","flightCategory":"VFR","rawOb":"METAR SBMQ 081100Z 32004KT 9999 FEW005 SCT025 26/25 Q1014","temp":26,"dewp":25,"wdir":320,"wspd":4,"visib":"6+","altim":1014,"clouds":[{"cover":"FEW","base":500},{"cover":"SCT","base":2500}],"obsTime":1780916400},"SBNT":{"icaoId":"SBNT","flightCategory":"MVFR","rawOb":"METAR SBNT 081100Z 18010KT 140V200 9999 VCSH BKN011 25/22 Q1016","temp":25,"dewp":22,"wdir":180,"wspd":10,"visib":"6+","altim":1016,"clouds":[{"cover":"BKN","base":1100}],"obsTime":1780916400},"SBPA":{"icaoId":"SBPA","flightCategory":"LIFR","rawOb":"METAR SBPA 081100Z 08004KT 4000 -RA BR BKN003 OVC007 16/16 Q1017","temp":16,"dewp":16,"wdir":80,"wspd":4,"visib":2.49,"altim":1017,"clouds":[{"cover":"BKN","base":300},{"cover":"OVC","base":700}],"obsTime":1780916400},"SBPJ":{"icaoId":"SBPJ","flightCategory":"VFR","rawOb":"METAR SBPJ 081100Z 17005KT CAVOK 25/18 Q1017","temp":25,"dewp":18,"wdir":170,"wspd":5,"visib":"6+","altim":1017,"clouds":[],"obsTime":1780916400},"SBPV":{"icaoId":"SBPV","flightCategory":"VFR","rawOb":"METAR SBPV 081100Z 17001KT CAVOK 24/22 Q1014","temp":24,"dewp":22,"wdir":170,"wspd":1,"visib":"6+","altim":1014,"clouds":[],"obsTime":1780916400},"SBRB":{"icaoId":"SBRB","flightCategory":"MVFR","rawOb":"METAR SBRB 081100Z 00000KT 9999 BKN015 SCT100 22/22 Q1014","temp":22,"dewp":22,"wdir":0,"wspd":0,"visib":"6+","altim":1014,"clouds":[{"cover":"BKN","base":1500},{"cover":"SCT","base":10000}],"obsTime":1780916400},"SBRF":{"icaoId":"SBRF","flightCategory":"MVFR","rawOb":"METAR SBRF 081100Z 20008KT 5000 BR BKN017 BKN060 24/23 Q1017","temp":24,"dewp":23,"wdir":200,"wspd":8,"visib":3.11,"altim":1017,"clouds":[{"cover":"BKN","base":1700},{"cover":"BKN","base":6000}],"obsTime":1780916400},"SBSG":{"icaoId":"SBSG","flightCategory":"MVFR","rawOb":"METAR SBSG 081100Z 17009KT 140V200 9999 BKN011 25/23 Q1016","temp":25,"dewp":23,"wdir":170,"wspd":9,"visib":"6+","altim":1016,"clouds":[{"cover":"BKN","base":1100}],"obsTime":1780916400},"SBSL":{"icaoId":"SBSL","flightCategory":"VFR","rawOb":"METAR SBSL 081100Z 10009KT CAVOK 28/24 Q1014","temp":28,"dewp":24,"wdir":100,"wspd":9,"visib":"6+","altim":1014,"clouds":[],"obsTime":1780916400},"SBSN":{"icaoId":"SBSN","flightCategory":"VFR","rawOb":"METAR SBSN 081100Z 15003KT 9999 FEW025TCU BKN090 26/25 Q1014","temp":26,"dewp":25,"wdir":150,"wspd":3,"visib":"6+","altim":1014,"clouds":[{"cover":"FEW","base":2500},{"cover":"BKN","base":9000}],"obsTime":1780916400},"SBSP":{"icaoId":"SBSP","flightCategory":"VFR","rawOb":"METAR SBSP 081100Z 06003KT 020V100 CAVOK 14/11 Q1023","temp":14,"dewp":11,"wdir":60,"wspd":3,"visib":"6+","altim":1023,"clouds":[],"obsTime":1780916400},"SBSV":{"icaoId":"SBSV","flightCategory":"MVFR","rawOb":"METAR SBSV 081100Z VRB02KT 9999 -RA BKN030 OVC044 24/21 Q1019","temp":24,"dewp":21,"wdir":"VRB","wspd":2,"visib":"6+","altim":1019,"clouds":[{"cover":"BKN","base":3000},{"cover":"OVC","base":4400}],"obsTime":1780916400},"SBTE":{"icaoId":"SBTE","flightCategory":"VFR","rawOb":"METAR SBTE 081100Z 11006KT CAVOK 28/22 Q1014","temp":28,"dewp":22,"wdir":110,"wspd":6,"visib":"6+","altim":1014,"clouds":[],"obsTime":1780916400},"SBUL":{"icaoId":"SBUL","flightCategory":"VFR","rawOb":"METAR SBUL 081100Z 10007KT CAVOK 16/07 Q1023","temp":16,"dewp":7,"wdir":100,"wspd":7,"visib":"6+","altim":1023,"clouds":[],"obsTime":1780916400},"SBUR":{"icaoId":"SBUR","flightCategory":"VFR","rawOb":"METAR SBUR 081100Z 03006KT CAVOK 16/08 Q1021","temp":16,"dewp":8,"wdir":30,"wspd":6,"visib":"6+","altim":1021,"clouds":[],"obsTime":1780916400},"SBVT":{"icaoId":"SBVT","flightCategory":"VFR","rawOb":"METAR SBVT 081100Z 29004KT CAVOK 17/15 Q1021","temp":17,"dewp":15,"wdir":290,"wspd":4,"visib":"6+","altim":1021,"clouds":[],"obsTime":1780916400},"SBCO":{"icaoId":"SBCO","flightCategory":"LIFR","rawOb":"METAR SBCO 081100Z 07002KT 2500 -RA BR OVC004 15/15 Q1018","temp":15,"dewp":15,"wdir":70,"wspd":2,"visib":1.55,"altim":1018,"clouds":[{"cover":"OVC","base":400}],"obsTime":1780916400},"SBAR":{"icaoId":"SBAR","flightCategory":"MVFR","rawOb":"METAR SBAR 081100Z 18004KT 9999 VCSH BKN025 BKN040 25/21 Q1018","temp":25,"dewp":21,"wdir":180,"wspd":4,"visib":"6+","altim":1018,"clouds":[{"cover":"BKN","base":2500},{"cover":"BKN","base":4000}],"obsTime":1780916400},"SBAX":{"icaoId":"SBAX","flightCategory":"VFR","rawOb":"METAR SBAX 081100Z 14002KT CAVOK 16/08 Q1023","temp":16,"dewp":8,"wdir":140,"wspd":2,"visib":"6+","altim":1023,"clouds":[],"obsTime":1780916400},"SBBH":{"icaoId":"SBBH","flightCategory":"VFR","rawOb":"METAR SBBH 081100Z 00000KT CAVOK 14/10 Q1023","temp":14,"dewp":10,"wdir":0,"wspd":0,"visib":"6+","altim":1023,"clouds":[],"obsTime":1780916400},"SBBQ":{"icaoId":"SBBQ","flightCategory":"VFR","rawOb":"METAR SBBQ 081200Z 13004KT 100V180 CAVOK 13/11 Q1027","temp":13,"dewp":11,"wdir":130,"wspd":4,"visib":"6+","altim":1027,"clouds":[],"obsTime":1780920000},"SBBU":{"icaoId":"SBBU","flightCategory":"VFR","rawOb":"METAR SBBU 081100Z 08007KT 9000 NSC 16/12 Q1021","temp":16,"dewp":12,"wdir":80,"wspd":7,"visib":5.59,"altim":1021,"clouds":[],"obsTime":1780916400},"SBCA":{"icaoId":"SBCA","flightCategory":"VFR","rawOb":"METAR SBCA 081200Z 05004KT 9999 FEW020 BKN080 15/12 Q1021","temp":15,"dewp":12,"wdir":50,"wspd":4,"visib":"6+","altim":1021,"clouds":[{"cover":"FEW","base":2000},{"cover":"BKN","base":8000}],"obsTime":1780920000},"SBCC":{"icaoId":"SBCC","flightCategory":"VFR","rawOb":"METAR SBCC 081100Z 05005KT CAVOK 24/19 Q1017","temp":24,"dewp":19,"wdir":50,"wspd":5,"visib":"6+","altim":1017,"clouds":[],"obsTime":1780916400},"SBCJ":{"icaoId":"SBCJ","flightCategory":"VFR","rawOb":"METAR SBCJ 081100Z 00000KT CAVOK 24/20 Q1019","temp":24,"dewp":20,"wdir":0,"wspd":0,"visib":"6+","altim":1019,"clouds":[],"obsTime":1780916400},"SBDN":{"icaoId":"SBDN","flightCategory":"VFR","rawOb":"METAR SBDN 081100Z 09005KT 9000 NSC 16/11 Q1020","temp":16,"dewp":11,"wdir":90,"wspd":5,"visib":5.59,"altim":1020,"clouds":[],"obsTime":1780916400},"SBES":{"icaoId":"SBES","flightCategory":"VFR","rawOb":"METAR SBES 081100Z VRB02KT CAVOK 17/// Q1021","temp":null,"dewp":null,"wdir":"VRB","wspd":2,"visib":"6+","altim":1021,"clouds":[],"obsTime":1780916400},"SBGM":{"icaoId":"SBGM","flightCategory":"VFR","rawOb":"METAR SBGM 081200Z 09001KT CAVOK 24/22 Q1015","temp":24,"dewp":22,"wdir":90,"wspd":1,"visib":"6+","altim":1015,"clouds":[],"obsTime":1780920000},"SBIP":{"icaoId":"SBIP","flightCategory":"VFR","rawOb":"METAR SBIP 081100Z AUTO 00000KT 9999 SCT001 14/14 Q1022","temp":14,"dewp":14,"wdir":0,"wspd":0,"visib":"6+","altim":1022,"clouds":[{"cover":"SCT","base":100}],"obsTime":1780916400},"SBKG":{"icaoId":"SBKG","flightCategory":"MVFR","rawOb":"METAR SBKG 081100Z 17006KT 7000 SCT006 BKN010 21/20 Q1019","temp":21,"dewp":20,"wdir":170,"wspd":6,"visib":4.35,"altim":1019,"clouds":[{"cover":"SCT","base":600},{"cover":"BKN","base":1000}],"obsTime":1780916400},"SBOI":{"icaoId":"SBOI","flightCategory":"MVFR","rawOb":"METAR SBOI 081100Z AUTO 21003KT 150V260 5000 // FEW004/// OVC029/// 23/23 Q1015","temp":23,"dewp":23,"wdir":210,"wspd":3,"visib":3.11,"altim":1015,"clouds":[{"cover":"FEW","base":400},{"cover":"OVC","base":2900}],"obsTime":1780916400},"SBPB":{"icaoId":"SBPB","flightCategory":"VFR","rawOb":"SPECI SBPB 081015Z 11004KT 9999 FEW020 26/22 Q1014","temp":26,"dewp":22,"wdir":110,"wspd":4,"visib":"6+","altim":1014,"clouds":[{"cover":"FEW","base":2000}],"obsTime":1780913700},"SBPL":{"icaoId":"SBPL","flightCategory":"MVFR","rawOb":"METAR SBPL 081100Z 09007KT 9999 BKN016 BKN070 24/19 Q1019","temp":24,"dewp":19,"wdir":90,"wspd":7,"visib":"6+","altim":1019,"clouds":[{"cover":"BKN","base":1600},{"cover":"BKN","base":7000}],"obsTime":1780916400},"SBPP":{"icaoId":"SBPP","flightCategory":"VFR","rawOb":"SPECI SBPP 081115Z 06005KT CAVOK 15/11 Q1020","temp":15,"dewp":11,"wdir":60,"wspd":5,"visib":"6+","altim":1020,"clouds":[],"obsTime":1780917300},"SBPS":{"icaoId":"SBPS","flightCategory":"VFR","rawOb":"METAR SBPS 081100Z 26004KT 9999 FEW020 21/20 Q1020","temp":21,"dewp":20,"wdir":260,"wspd":4,"visib":"6+","altim":1020,"clouds":[{"cover":"FEW","base":2000}],"obsTime":1780916400},"SBSC":{"icaoId":"SBSC","flightCategory":"VFR","rawOb":"METAR SBSC 081100Z 04006KT CAVOK 16/14 Q1021","temp":16,"dewp":14,"wdir":40,"wspd":6,"visib":"6+","altim":1021,"clouds":[],"obsTime":1780916400},"SBSJ":{"icaoId":"SBSJ","flightCategory":"MVFR","rawOb":"SPECI SBSJ 081025Z 29003KT 5000 1300SW R34///// R16/0400D BR NSC 08/07 Q1023","temp":8,"dewp":7,"wdir":290,"wspd":3,"visib":3.11,"altim":1023,"clouds":[],"obsTime":1780914300},"SBSM":{"icaoId":"SBSM","flightCategory":"LIFR","rawOb":"METAR SBSM 081100Z 17003KT 9999 BKN003 OVC040 14/14 Q1017","temp":14,"dewp":14,"wdir":170,"wspd":3,"visib":"6+","altim":1017,"clouds":[{"cover":"BKN","base":300},{"cover":"OVC","base":4000}],"obsTime":1780916400},"SBSR":{"icaoId":"SBSR","flightCategory":"VFR","rawOb":"METAR SBSR 081100Z 11004KT CAVOK 16/07 Q1020","temp":16,"dewp":7,"wdir":110,"wspd":4,"visib":"6+","altim":1020,"clouds":[],"obsTime":1780916400},"SBTD":{"icaoId":"SBTD","flightCategory":"VFR","rawOb":"METAR SBTD 081100Z /////KT CAVOK 15/12 Q1020","temp":15,"dewp":12,"wdir":null,"wspd":null,"visib":"6+","altim":1020,"clouds":[],"obsTime":1780916400},"SBTF":{"icaoId":"SBTF","flightCategory":"VFR","rawOb":"SPECI SBTF 081115Z 22002KT 9999 FEW008 26/25 Q1014","temp":26,"dewp":25,"wdir":220,"wspd":2,"visib":"6+","altim":1014,"clouds":[{"cover":"FEW","base":800}],"obsTime":1780917300},"SBTT":{"icaoId":"SBTT","flightCategory":"MVFR","rawOb":"METAR SBTT 081100Z 05003KT 9999 BKN017 24/23 Q1015","temp":24,"dewp":23,"wdir":50,"wspd":3,"visib":"6+","altim":1015,"clouds":[{"cover":"BKN","base":1700}],"obsTime":1780916400},"SBTU":{"icaoId":"SBTU","flightCategory":"VFR","rawOb":"METAR SBTU 081100Z AUTO 19008KT 9999 // FEW074/// ///// Q1016","temp":null,"dewp":null,"wdir":190,"wspd":8,"visib":"6+","altim":1016,"clouds":[{"cover":"FEW","base":7400}],"obsTime":1780916400},"SBUY":{"icaoId":"SBUY","flightCategory":"LIFR","rawOb":"METAR SBUY 081100Z 05001KT 2000 BR BKN004 BKN070 23/22 Q1014","temp":23,"dewp":22,"wdir":50,"wspd":1,"visib":1.24,"altim":1014,"clouds":[{"cover":"BKN","base":400},{"cover":"BKN","base":7000}],"obsTime":1780916400},"SBVH":{"icaoId":"SBVH","flightCategory":"VFR","rawOb":"METAR SBVH 081100Z 09005KT CAVOK 18/16 Q1018","temp":18,"dewp":16,"wdir":90,"wspd":5,"visib":"6+","altim":1018,"clouds":[],"obsTime":1780916400},"SBST":{"icaoId":"SBST","flightCategory":"VFR","rawOb":"METAR SBST 081100Z 00000KT CAVOK 14/14 Q1020","temp":14,"dewp":14,"wdir":0,"wspd":0,"visib":"6+","altim":1020,"clouds":[],"obsTime":1780916400},"SBTA":{"icaoId":"SBTA","flightCategory":"VFR","rawOb":"METAR SBTA 081100Z VRB01KT CAVOK 11/09 Q1022","temp":11,"dewp":9,"wdir":"VRB","wspd":1,"visib":"6+","altim":1022,"clouds":[],"obsTime":1780916400},"SBIH":{"icaoId":"SBIH","flightCategory":"IFR","rawOb":"METAR SBIH 081100Z 21001KT 8000 BKN005 25/25 Q1014","temp":25,"dewp":25,"wdir":210,"wspd":1,"visib":4.97,"altim":1014,"clouds":[{"cover":"BKN","base":500}],"obsTime":1780916400},"SBAN":{"icaoId":"SBAN","flightCategory":"VFR","rawOb":"METAR SBAN 081100Z 11003KT CAVOK 17/11 Q1023","temp":17,"dewp":11,"wdir":110,"wspd":3,"visib":"6+","altim":1023,"clouds":[],"obsTime":1780916400},"SBLE":{"icaoId":"SBLE","flightCategory":"VFR","rawOb":"METAR SBLE 081100Z AUTO VRB02KT 9999 FEW019 SCT027 OVC036 ///// Q////","temp":null,"dewp":null,"wdir":"VRB","wspd":2,"visib":"6+","altim":null,"clouds":[{"cover":"FEW","base":1900},{"cover":"SCT","base":2700},{"cover":"OVC","base":3600}],"obsTime":1780916400},"SBJV":{"icaoId":"SBJV","flightCategory":"IFR","rawOb":"METAR SBJV 081100Z 28003KT 3000 BR BKN025 17/17 Q1019","temp":17,"dewp":17,"wdir":280,"wspd":3,"visib":1.86,"altim":1019,"clouds":[{"cover":"BKN","base":2500}],"obsTime":1780916400},"SBAF":{"icaoId":"SBAF","flightCategory":"VFR","rawOb":"METAR SBAF 081100Z 00000KT CAVOK 15/15 Q1021","temp":15,"dewp":15,"wdir":0,"wspd":0,"visib":"6+","altim":1021,"clouds":[],"obsTime":1780916400},"SBGW":{"icaoId":"SBGW","flightCategory":"VFR","rawOb":"METAR SBGW 081100Z 00000KT CAVOK 11/08 Q1023","temp":11,"dewp":8,"wdir":0,"wspd":0,"visib":"6+","altim":1023,"clouds":[],"obsTime":1780916400},"SBNM":{"icaoId":"SBNM","flightCategory":"VFR","rawOb":"METAR SBNM 081100Z AUTO 36005KT CAVOK 16/15 Q1017","temp":16,"dewp":15,"wdir":360,"wspd":5,"visib":"6+","altim":1017,"clouds":[],"obsTime":1780916400},"SBJR":{"icaoId":"SBJR","flightCategory":"VFR","rawOb":"METAR SBJR 081100Z 01004KT CAVOK 20/16 Q1020","temp":20,"dewp":16,"wdir":10,"wspd":4,"visib":"6+","altim":1020,"clouds":[],"obsTime":1780916400},"SBLS":{"icaoId":"SBLS","flightCategory":"VFR","rawOb":"METAR SBLS 081100Z 18005KT 9999 BCFG NSC 13/10 Q1023","temp":13,"dewp":10,"wdir":180,"wspd":5,"visib":"6+","altim":1023,"clouds":[],"obsTime":1780916400},"SBJP":{"icaoId":"SBJP","flightCategory":"IFR","rawOb":"METAR SBJP 081100Z 17008KT 9999 BKN008 OVC018 24/23 Q1017","temp":24,"dewp":23,"wdir":170,"wspd":8,"visib":"6+","altim":1017,"clouds":[{"cover":"BKN","base":800},{"cover":"OVC","base":1800}],"obsTime":1780916400},"SBMT":{"icaoId":"SBMT","flightCategory":"VFR","rawOb":"METAR SBMT 081100Z 00000KT CAVOK 12/08 Q1023","temp":12,"dewp":8,"wdir":0,"wspd":0,"visib":"6+","altim":1023,"clouds":[],"obsTime":1780916400},"SBPF":{"icaoId":"SBPF","flightCategory":"VFR","rawOb":"METAR SBPF 081100Z 02007KT CAVOK 13/10 Q1019","temp":13,"dewp":10,"wdir":20,"wspd":7,"visib":"6+","altim":1019,"clouds":[],"obsTime":1780916400}}}