{"updated":1775634962,"count":49,"data":{"SBRF":{"icaoId":"SBRF","flightCategory":"VFR","rawOb":"METAR SBRF 080600Z 31002KT 9999 FEW008 SCT017 BKN050 25/24 Q1011","temp":25,"dewp":24,"wdir":310,"wspd":2,"visib":"6+","altim":1011,"clouds":[{"cover":"FEW","base":800},{"cover":"SCT","base":1700},{"cover":"BKN","base":5000}],"obsTime":1775628000},"SBMO":{"icaoId":"SBMO","flightCategory":"VFR","rawOb":"METAR SBMO 080600Z 29001KT 9999 FEW017 24/23 Q1012","temp":24,"dewp":23,"wdir":290,"wspd":1,"visib":"6+","altim":1012,"clouds":[{"cover":"FEW","base":1700}],"obsTime":1775628000},"SBSN":{"icaoId":"SBSN","flightCategory":"MVFR","rawOb":"METAR SBSN 080600Z 07010KT 9999 BKN017 25/24 Q1011","temp":25,"dewp":24,"wdir":70,"wspd":10,"visib":"6+","altim":1011,"clouds":[{"cover":"BKN","base":1700}],"obsTime":1775628000},"SBCG":{"icaoId":"SBCG","flightCategory":"VFR","rawOb":"METAR SBCG 080600Z 35003KT 9999 FEW035 22/20 Q1015","temp":22,"dewp":20,"wdir":350,"wspd":3,"visib":"6+","altim":1015,"clouds":[{"cover":"FEW","base":3500}],"obsTime":1775628000},"SBCT":{"icaoId":"SBCT","flightCategory":"IFR","rawOb":"METAR SBCT 080600Z 36009KT 4500 -RA SCT014 BKN070 18/18 Q1015 RETS","temp":18,"dewp":18,"wdir":360,"wspd":9,"visib":2.8,"altim":1015,"clouds":[{"cover":"SCT","base":1400},{"cover":"BKN","base":7000}],"obsTime":1775628000},"SBEG":{"icaoId":"SBEG","flightCategory":"VFR","rawOb":"METAR SBEG 080600Z 00000KT 9999 FEW015 BKN100 25/24 Q1011","temp":25,"dewp":24,"wdir":0,"wspd":0,"visib":"6+","altim":1011,"clouds":[{"cover":"FEW","base":1500},{"cover":"BKN","base":10000}],"obsTime":1775628000},"SBFZ":{"icaoId":"SBFZ","flightCategory":"VFR","rawOb":"METAR SBFZ 080600Z VRB02KT 9999 FEW023 25/24 Q1011","temp":25,"dewp":24,"wdir":"VRB","wspd":2,"visib":"6+","altim":1011,"clouds":[{"cover":"FEW","base":2300}],"obsTime":1775628000},"SBBE":{"icaoId":"SBBE","flightCategory":"VFR","rawOb":"METAR SBBE 080600Z 08005KT CAVOK 25/24 Q1011","temp":25,"dewp":24,"wdir":80,"wspd":5,"visib":"6+","altim":1011,"clouds":[],"obsTime":1775628000},"SBBR":{"icaoId":"SBBR","flightCategory":"VFR","rawOb":"METAR SBBR 080600Z 13003KT CAVOK 21/19 Q1019","temp":21,"dewp":19,"wdir":130,"wspd":3,"visib":"6+","altim":1019,"clouds":[],"obsTime":1775628000},"SBBV":{"icaoId":"SBBV","flightCategory":"VFR","rawOb":"METAR SBBV 080600Z 08012KT 9999 SCT040 FEW045TCU SCT070 27/23 Q1011","temp":27,"dewp":23,"wdir":80,"wspd":12,"visib":"6+","altim":1011,"clouds":[{"cover":"SCT","base":4000},{"cover":"FEW","base":4500},{"cover":"SCT","base":7000}],"obsTime":1775628000},"SBCF":{"icaoId":"SBCF","flightCategory":"VFR","rawOb":"METAR SBCF 080600Z 14002KT CAVOK 20/17 Q1019","temp":20,"dewp":17,"wdir":140,"wspd":2,"visib":"6+","altim":1019,"clouds":[],"obsTime":1775628000},"SBFI":{"icaoId":"SBFI","flightCategory":"MVFR","rawOb":"METAR SBFI 080600Z 27005KT 8000 SCT007 BKN020 20/19 Q1012","temp":20,"dewp":19,"wdir":270,"wspd":5,"visib":4.97,"altim":1012,"clouds":[{"cover":"SCT","base":700},{"cover":"BKN","base":2000}],"obsTime":1775628000},"SBFL":{"icaoId":"SBFL","flightCategory":"VFR","rawOb":"METAR SBFL 080600Z 35006KT 9999 FEW015 OVC100 23/22 Q1008","temp":23,"dewp":22,"wdir":350,"wspd":6,"visib":"6+","altim":1008,"clouds":[{"cover":"FEW","base":1500},{"cover":"OVC","base":10000}],"obsTime":1775628000},"SBGL":{"icaoId":"SBGL","flightCategory":"VFR","rawOb":"METAR SBGL 080600Z 15003KT CAVOK 24/22 Q1011","temp":24,"dewp":22,"wdir":150,"wspd":3,"visib":"6+","altim":1011,"clouds":[],"obsTime":1775628000},"SBGO":{"icaoId":"SBGO","flightCategory":"VFR","rawOb":"METAR SBGO 080600Z VRB02KT CAVOK 20/19 Q1017","temp":20,"dewp":19,"wdir":"VRB","wspd":2,"visib":"6+","altim":1017,"clouds":[],"obsTime":1775628000},"SBGR":{"icaoId":"SBGR","flightCategory":"VFR","rawOb":"METAR SBGR 080600Z 25004KT 200V340 CAVOK 20/19 Q1016","temp":20,"dewp":19,"wdir":250,"wspd":4,"visib":"6+","altim":1016,"clouds":[],"obsTime":1775628000},"SBJU":{"icaoId":"SBJU","flightCategory":"VFR","rawOb":"METAR SBJU 080600Z 00000KT 9999 SCT020 23/22 Q1014","temp":23,"dewp":22,"wdir":0,"wspd":0,"visib":"6+","altim":1014,"clouds":[{"cover":"SCT","base":2000}],"obsTime":1775628000},"SBKP":{"icaoId":"SBKP","flightCategory":"VFR","rawOb":"METAR SBKP 080600Z 01006KT CAVOK 23/20 Q1016","temp":23,"dewp":20,"wdir":10,"wspd":6,"visib":"6+","altim":1016,"clouds":[],"obsTime":1775628000},"SBLO":{"icaoId":"SBLO","flightCategory":"LIFR","rawOb":"METAR SBLO 080600Z 02006KT 5000 BR BKN002 21/20 Q1015","temp":21,"dewp":20,"wdir":20,"wspd":6,"visib":3.11,"altim":1015,"clouds":[{"cover":"BKN","base":200}],"obsTime":1775628000},"SBMA":{"icaoId":"SBMA","flightCategory":"VFR","rawOb":"METAR SBMA 080600Z 00000KT 9999 FEW025TCU SCT100 26/25 Q1011","temp":26,"dewp":25,"wdir":0,"wspd":0,"visib":"6+","altim":1011,"clouds":[{"cover":"FEW","base":2500},{"cover":"SCT","base":10000}],"obsTime":1775628000},"SBME":{"icaoId":"SBME","flightCategory":"VFR","rawOb":"METAR SBME 080600Z 05010KT CAVOK 25/23 Q1013","temp":25,"dewp":23,"wdir":50,"wspd":10,"visib":"6+","altim":1013,"clouds":[],"obsTime":1775628000},"SBMG":{"icaoId":"SBMG","flightCategory":"VFR","rawOb":"METAR SBMG 080600Z AUTO 01011KT 9999 FEW039 21/21 Q1014","temp":21,"dewp":21,"wdir":10,"wspd":11,"visib":"6+","altim":1014,"clouds":[{"cover":"FEW","base":3900}],"obsTime":1775628000},"SBMQ":{"icaoId":"SBMQ","flightCategory":"VFR","rawOb":"METAR SBMQ 080600Z 36004KT 9999 SCT017 26/26 Q1011","temp":26,"dewp":26,"wdir":360,"wspd":4,"visib":"6+","altim":1011,"clouds":[{"cover":"SCT","base":1700}],"obsTime":1775628000},"SBNT":{"icaoId":"SBNT","flightCategory":"VFR","rawOb":"METAR SBNT 080600Z 18003KT 9999 FEW020 24/23 Q1011","temp":24,"dewp":23,"wdir":180,"wspd":3,"visib":"6+","altim":1011,"clouds":[{"cover":"FEW","base":2000}],"obsTime":1775628000},"SBPA":{"icaoId":"SBPA","flightCategory":"VFR","rawOb":"METAR SBPA 080600Z 32006KT 9999 FEW035 22/19 Q1005","temp":22,"dewp":19,"wdir":320,"wspd":6,"visib":"6+","altim":1005,"clouds":[{"cover":"FEW","base":3500}],"obsTime":1775628000},"SBPJ":{"icaoId":"SBPJ","flightCategory":"VFR","rawOb":"METAR SBPJ 080600Z 13003KT CAVOK 25/24 Q1012","temp":25,"dewp":24,"wdir":130,"wspd":3,"visib":"6+","altim":1012,"clouds":[],"obsTime":1775628000},"SBPV":{"icaoId":"SBPV","flightCategory":"VFR","rawOb":"METAR SBPV 080600Z 00000KT CAVOK 24/23 Q1011","temp":24,"dewp":23,"wdir":0,"wspd":0,"visib":"6+","altim":1011,"clouds":[],"obsTime":1775628000},"SBRB":{"icaoId":"SBRB","flightCategory":"VFR","rawOb":"METAR SBRB 080600Z 00000KT 9000 FEW015 BKN080 23/23 Q1011","temp":23,"dewp":23,"wdir":0,"wspd":0,"visib":5.59,"altim":1011,"clouds":[{"cover":"FEW","base":1500},{"cover":"BKN","base":8000}],"obsTime":1775628000},"SBSG":{"icaoId":"SBSG","flightCategory":"VFR","rawOb":"METAR SBSG 080600Z 17003KT 140V200 9999 SCT020 24/23 Q1011","temp":24,"dewp":23,"wdir":170,"wspd":3,"visib":"6+","altim":1011,"clouds":[{"cover":"SCT","base":2000}],"obsTime":1775628000},"SBSL":{"icaoId":"SBSL","flightCategory":"VFR","rawOb":"METAR SBSL 080600Z 08005KT 9999 SCT017 SCT080 26/25 Q1011","temp":26,"dewp":25,"wdir":80,"wspd":5,"visib":"6+","altim":1011,"clouds":[{"cover":"SCT","base":1700},{"cover":"SCT","base":8000}],"obsTime":1775628000},"SBSP":{"icaoId":"SBSP","flightCategory":"VFR","rawOb":"METAR SBSP 080700Z AUTO 33008KT CAVOK 22/19 Q1017","temp":22,"dewp":19,"wdir":330,"wspd":8,"visib":"6+","altim":1017,"clouds":[],"obsTime":1775631600},"SBSV":{"icaoId":"SBSV","flightCategory":"MVFR","rawOb":"METAR SBSV 080600Z 35005KT 320V040 8000 VCSH BKN021 FEW025TCU OVC050 25/24 Q1013","temp":25,"dewp":24,"wdir":350,"wspd":5,"visib":4.97,"altim":1013,"clouds":[{"cover":"BKN","base":2100},{"cover":"FEW","base":2500},{"cover":"OVC","base":5000}],"obsTime":1775628000},"SBTE":{"icaoId":"SBTE","flightCategory":"VFR","rawOb":"METAR SBTE 080600Z 34003KT 9999 FEW010 25/24 Q1011","temp":25,"dewp":24,"wdir":340,"wspd":3,"visib":"6+","altim":1011,"clouds":[{"cover":"FEW","base":1000}],"obsTime":1775628000},"SBUL":{"icaoId":"SBUL","flightCategory":"VFR","rawOb":"METAR SBUL 080600Z VRB02KT CAVOK 21/18 Q1019","temp":21,"dewp":18,"wdir":"VRB","wspd":2,"visib":"6+","altim":1019,"clouds":[],"obsTime":1775628000},"SBUR":{"icaoId":"SBUR","flightCategory":"VFR","rawOb":"METAR SBUR 080600Z 04004KT CAVOK 22/19 Q1017","temp":22,"dewp":19,"wdir":40,"wspd":4,"visib":"6+","altim":1017,"clouds":[],"obsTime":1775628000},"SBVT":{"icaoId":"SBVT","flightCategory":"VFR","rawOb":"METAR SBVT 080600Z 00000KT CAVOK 22/22 Q1014","temp":22,"dewp":22,"wdir":0,"wspd":0,"visib":"6+","altim":1014,"clouds":[],"obsTime":1775628000},"SBSR":{"icaoId":"SBSR","flightCategory":"VFR","rawOb":"METAR SBSR 080600Z 00000KT 9999 SCT030 SCT070 23/21 Q1016","temp":23,"dewp":21,"wdir":0,"wspd":0,"visib":"6+","altim":1016,"clouds":[{"cover":"SCT","base":3000},{"cover":"SCT","base":7000}],"obsTime":1775628000},"SBAX":{"icaoId":"SBAX","flightCategory":"VFR","rawOb":"METAR SBAX 080600Z AUTO 10002KT CAVOK ///// Q1019","temp":null,"dewp":null,"wdir":100,"wspd":2,"visib":"6+","altim":1019,"clouds":[],"obsTime":1775628000},"SBCC":{"icaoId":"SBCC","flightCategory":"VFR","rawOb":"METAR SBCC 080700Z 06004KT CAVOK 23/21 Q1014","temp":23,"dewp":21,"wdir":60,"wspd":4,"visib":"6+","altim":1014,"clouds":[],"obsTime":1775631600},"SBDN":{"icaoId":"SBDN","flightCategory":"LIFR","rawOb":"METAR SBDN 080600Z 05008KT 9999 BKN004 21/20 Q1015","temp":21,"dewp":20,"wdir":50,"wspd":8,"visib":"6+","altim":1015,"clouds":[{"cover":"BKN","base":400}],"obsTime":1775628000},"SBIP":{"icaoId":"SBIP","flightCategory":"VFR","rawOb":"METAR SBIP 080600Z AUTO 00000KT CAVOK 20/20 Q1016","temp":20,"dewp":20,"wdir":0,"wspd":0,"visib":"6+","altim":1016,"clouds":[],"obsTime":1775628000},"SBKG":{"icaoId":"SBKG","flightCategory":"VFR","rawOb":"METAR SBKG 080600Z 00000KT 9999 FEW007 SCT010 22/21 Q1014","temp":22,"dewp":21,"wdir":0,"wspd":0,"visib":"6+","altim":1014,"clouds":[{"cover":"FEW","base":700},{"cover":"SCT","base":1000}],"obsTime":1775628000},"SBOI":{"icaoId":"SBOI","flightCategory":"LIFR","rawOb":"METAR SBOI 080600Z AUTO VRB01KT 0750 // VV002 25/24 Q1011","temp":25,"dewp":24,"wdir":"VRB","wspd":1,"visib":0.47,"altim":1011,"clouds":[{"cover":"OVX","base":200}],"obsTime":1775628000},"SBPL":{"icaoId":"SBPL","flightCategory":"VFR","rawOb":"METAR SBPL 080600Z 12006KT CAVOK 26/22 Q1014","temp":26,"dewp":22,"wdir":120,"wspd":6,"visib":"6+","altim":1014,"clouds":[],"obsTime":1775628000},"SBPS":{"icaoId":"SBPS","flightCategory":"VFR","rawOb":"METAR SBPS 080600Z 26004KT 9999 FEW020 24/23 Q1014","temp":24,"dewp":23,"wdir":260,"wspd":4,"visib":"6+","altim":1014,"clouds":[{"cover":"FEW","base":2000}],"obsTime":1775628000},"SBSC":{"icaoId":"SBSC","flightCategory":"MVFR","rawOb":"METAR SBSC 080600Z 03005KT 7000 BKN020 24/23 Q1011","temp":24,"dewp":23,"wdir":30,"wspd":5,"visib":4.35,"altim":1011,"clouds":[{"cover":"BKN","base":2000}],"obsTime":1775628000},"SBAR":{"icaoId":"SBAR","flightCategory":"VFR","rawOb":"METAR SBAR 080600Z 09004KT 9999 FEW019 BKN050 27/24 Q1012","temp":27,"dewp":24,"wdir":90,"wspd":4,"visib":"6+","altim":1012,"clouds":[{"cover":"FEW","base":1900},{"cover":"BKN","base":5000}],"obsTime":1775628000},"SBAN":{"icaoId":"SBAN","flightCategory":"VFR","rawOb":"METAR SBAN 080600Z 15002KT 9999 FEW030 SCT100 18/17 Q1021","temp":18,"dewp":17,"wdir":150,"wspd":2,"visib":"6+","altim":1021,"clouds":[{"cover":"FEW","base":3000},{"cover":"SCT","base":10000}],"obsTime":1775628000},"SBJP":{"icaoId":"SBJP","flightCategory":"VFR","rawOb":"METAR SBJP 080600Z 30004KT 9999 FEW017 24/24 Q1012","temp":24,"dewp":24,"wdir":300,"wspd":4,"visib":"6+","altim":1012,"clouds":[{"cover":"FEW","base":1700}],"obsTime":1775628000}}}