{"updated":1782317819,"count":88,"data":{"SBCF":{"icaoId":"SBCF","flightCategory":"VFR","rawOb":"METAR SBCF 241500Z 35004KT CAVOK 25/13 Q1019","temp":25,"dewp":13,"wdir":350,"wspd":4,"visib":"6+","altim":1019,"clouds":[],"obsTime":1782313200},"SBMA":{"icaoId":"SBMA","flightCategory":"VFR","rawOb":"METAR SBMA 241500Z 31004KT 9999 SCT025 SCT100 32/24 Q1013","temp":32,"dewp":24,"wdir":310,"wspd":4,"visib":"6+","altim":1013,"clouds":[{"cover":"SCT","base":2500},{"cover":"SCT","base":10000}],"obsTime":1782313200},"SBME":{"icaoId":"SBME","flightCategory":"VFR","rawOb":"METAR SBME 241500Z 02010KT CAVOK 28/19 Q1014","temp":28,"dewp":19,"wdir":20,"wspd":10,"visib":"6+","altim":1014,"clouds":[],"obsTime":1782313200},"SBBE":{"icaoId":"SBBE","flightCategory":"VFR","rawOb":"METAR SBBE 241500Z 32004KT 9999 SCT025 BKN045 30/25 Q1012","temp":30,"dewp":25,"wdir":320,"wspd":4,"visib":"6+","altim":1012,"clouds":[{"cover":"SCT","base":2500},{"cover":"BKN","base":4500}],"obsTime":1782313200},"SBFI":{"icaoId":"SBFI","flightCategory":"VFR","rawOb":"METAR SBFI 241500Z 19005KT 9999 FEW010 12/06 Q1023","temp":12,"dewp":6,"wdir":190,"wspd":5,"visib":"6+","altim":1023,"clouds":[{"cover":"FEW","base":1000}],"obsTime":1782313200},"SBMG":{"icaoId":"SBMG","flightCategory":"VFR","rawOb":"METAR SBMG 241500Z 23006KT 9999 FEW045 10/08 Q1021","temp":10,"dewp":8,"wdir":230,"wspd":6,"visib":"6+","altim":1021,"clouds":[{"cover":"FEW","base":4500}],"obsTime":1782313200},"SBMK":{"icaoId":"SBMK","flightCategory":"VFR","rawOb":"METAR SBMK 241500Z 20003KT CAVOK 27/12 Q1018","temp":27,"dewp":12,"wdir":200,"wspd":3,"visib":"6+","altim":1018,"clouds":[],"obsTime":1782313200},"SBFL":{"icaoId":"SBFL","flightCategory":"VFR","rawOb":"METAR SBFL 241500Z 24004KT 9999 FEW030 14/04 Q1020","temp":14,"dewp":4,"wdir":240,"wspd":4,"visib":"6+","altim":1020,"clouds":[{"cover":"FEW","base":3000}],"obsTime":1782313200},"SBCG":{"icaoId":"SBCG","flightCategory":"VFR","rawOb":"METAR SBCG 241500Z 14011KT 9999 SCT012 BKN100 11/07 Q1022","temp":11,"dewp":7,"wdir":140,"wspd":11,"visib":"6+","altim":1022,"clouds":[{"cover":"SCT","base":1200},{"cover":"BKN","base":10000}],"obsTime":1782313200},"SBMO":{"icaoId":"SBMO","flightCategory":"MVFR","rawOb":"METAR SBMO 241500Z 14010KT 9999 BKN030 28/21 Q1015","temp":28,"dewp":21,"wdir":140,"wspd":10,"visib":"6+","altim":1015,"clouds":[{"cover":"BKN","base":3000}],"obsTime":1782313200},"SBBV":{"icaoId":"SBBV","flightCategory":"MVFR","rawOb":"METAR SBBV 241500Z 04003KT 9999 BKN025 BKN070 29/24 Q1014","temp":29,"dewp":24,"wdir":40,"wspd":3,"visib":"6+","altim":1014,"clouds":[{"cover":"BKN","base":2500},{"cover":"BKN","base":7000}],"obsTime":1782313200},"SBMQ":{"icaoId":"SBMQ","flightCategory":"VFR","rawOb":"METAR SBMQ 241500Z 05012KT 9999 SCT023 FEW025TCU SCT083 32/24 Q1013","temp":32,"dewp":24,"wdir":50,"wspd":12,"visib":"6+","altim":1013,"clouds":[{"cover":"SCT","base":2300},{"cover":"FEW","base":2500},{"cover":"SCT","base":8300}],"obsTime":1782313200},"SBFZ":{"icaoId":"SBFZ","flightCategory":"VFR","rawOb":"METAR SBFZ 241500Z 15013KT 130V190 9999 BKN033 30/22 Q1011","temp":30,"dewp":22,"wdir":150,"wspd":13,"visib":"6+","altim":1011,"clouds":[{"cover":"BKN","base":3300}],"obsTime":1782313200},"SBNT":{"icaoId":"SBNT","flightCategory":"MVFR","rawOb":"METAR SBNT 241500Z 14016KT 9999 BKN030 30/20 Q1013","temp":30,"dewp":20,"wdir":140,"wspd":16,"visib":"6+","altim":1013,"clouds":[{"cover":"BKN","base":3000}],"obsTime":1782313200},"SBPA":{"icaoId":"SBPA","flightCategory":"VFR","rawOb":"METAR SBPA 241500Z 30008KT 270V330 9999 FEW030 SCT070 12/05 Q1021","temp":12,"dewp":5,"wdir":300,"wspd":8,"visib":"6+","altim":1021,"clouds":[{"cover":"FEW","base":3000},{"cover":"SCT","base":7000}],"obsTime":1782313200},"SBCP":{"icaoId":"SBCP","flightCategory":"VFR","rawOb":"METAR SBCP 241500Z 04006KT 9999 FEW020 28/18 Q1014","temp":28,"dewp":18,"wdir":40,"wspd":6,"visib":"6+","altim":1014,"clouds":[{"cover":"FEW","base":2000}],"obsTime":1782313200},"SBGL":{"icaoId":"SBGL","flightCategory":"MVFR","rawOb":"METAR SBGL 241500Z 26013KT 9999 SCT010 BKN020 BKN090 23/18 Q1015","temp":23,"dewp":18,"wdir":260,"wspd":13,"visib":"6+","altim":1015,"clouds":[{"cover":"SCT","base":1000},{"cover":"BKN","base":2000},{"cover":"BKN","base":9000}],"obsTime":1782313200},"SBPJ":{"icaoId":"SBPJ","flightCategory":"VFR","rawOb":"METAR SBPJ 241500Z 23007KT CAVOK 31/20 Q1014","temp":31,"dewp":20,"wdir":230,"wspd":7,"visib":"6+","altim":1014,"clouds":[],"obsTime":1782313200},"SBAT":{"icaoId":"SBAT","flightCategory":"VFR","rawOb":"METAR SBAT 241500Z 17003KT 9999 SCT025 30/23 Q1015","temp":30,"dewp":23,"wdir":170,"wspd":3,"visib":"6+","altim":1015,"clouds":[{"cover":"SCT","base":2500}],"obsTime":1782313200},"SBPV":{"icaoId":"SBPV","flightCategory":"MVFR","rawOb":"METAR SBPV 241500Z 18006KT 9999 BKN017 BKN030 BKN100 28/22 Q1014","temp":28,"dewp":22,"wdir":180,"wspd":6,"visib":"6+","altim":1014,"clouds":[{"cover":"BKN","base":1700},{"cover":"BKN","base":3000},{"cover":"BKN","base":10000}],"obsTime":1782313200},"SBGO":{"icaoId":"SBGO","flightCategory":"VFR","rawOb":"METAR SBGO 241500Z VRB03KT 9999 FEW030 26/19 Q1019","temp":26,"dewp":19,"wdir":"VRB","wspd":3,"visib":"6+","altim":1019,"clouds":[{"cover":"FEW","base":3000}],"obsTime":1782313200},"SBLO":{"icaoId":"SBLO","flightCategory":"VFR","rawOb":"METAR SBLO 241500Z 20004KT 160V240 CAVOK 13/09 Q1020","temp":13,"dewp":9,"wdir":200,"wspd":4,"visib":"6+","altim":1020,"clouds":[],"obsTime":1782313200},"SBEG":{"icaoId":"SBEG","flightCategory":"MVFR","rawOb":"METAR SBEG 241500Z 27004KT 210V310 9999 BKN020 29/25 Q1014","temp":29,"dewp":25,"wdir":270,"wspd":4,"visib":"6+","altim":1014,"clouds":[{"cover":"BKN","base":2000}],"obsTime":1782313200},"SBRB":{"icaoId":"SBRB","flightCategory":"IFR","rawOb":"METAR SBRB 241500Z 16008KT 6000 BKN007 OVC100 18/17 Q1018","temp":18,"dewp":17,"wdir":160,"wspd":8,"visib":3.73,"altim":1018,"clouds":[{"cover":"BKN","base":700},{"cover":"OVC","base":10000}],"obsTime":1782313200},"SBCR":{"icaoId":"SBCR","flightCategory":"MVFR","rawOb":"METAR SBCR 241500Z 13004KT 070V220 9999 BKN017 SCT100 16/11 Q1023","temp":16,"dewp":11,"wdir":130,"wspd":4,"visib":"6+","altim":1023,"clouds":[{"cover":"BKN","base":1700},{"cover":"SCT","base":10000}],"obsTime":1782313200},"SBRF":{"icaoId":"SBRF","flightCategory":"VFR","rawOb":"METAR SBRF 241500Z 16014KT 9999 SCT027 28/23 Q1014","temp":28,"dewp":23,"wdir":160,"wspd":14,"visib":"6+","altim":1014,"clouds":[{"cover":"SCT","base":2700}],"obsTime":1782313200},"SBGR":{"icaoId":"SBGR","flightCategory":"IFR","rawOb":"METAR SBGR 241500Z 14003KT 5000 -RA BR OVC009 14/13 Q1020","temp":14,"dewp":13,"wdir":140,"wspd":3,"visib":3.11,"altim":1020,"clouds":[{"cover":"OVC","base":900}],"obsTime":1782313200},"SBSG":{"icaoId":"SBSG","flightCategory":"MVFR","rawOb":"METAR SBSG 241500Z 14010KT 100V180 9999 BKN030 29/21 Q1013","temp":29,"dewp":21,"wdir":140,"wspd":10,"visib":"6+","altim":1013,"clouds":[{"cover":"BKN","base":3000}],"obsTime":1782313200},"SBHT":{"icaoId":"SBHT","flightCategory":"VFR","rawOb":"METAR SBHT 241500Z 08006KT 9999 SCT023 BKN090 29/24 Q1013","temp":29,"dewp":24,"wdir":80,"wspd":6,"visib":"6+","altim":1013,"clouds":[{"cover":"SCT","base":2300},{"cover":"BKN","base":9000}],"obsTime":1782313200},"SBSL":{"icaoId":"SBSL","flightCategory":"MVFR","rawOb":"METAR SBSL 241500Z 09003KT 360V160 9999 VCSH BKN020 FEW025TCU 29/26 Q1011","temp":29,"dewp":26,"wdir":90,"wspd":3,"visib":"6+","altim":1011,"clouds":[{"cover":"BKN","base":2000},{"cover":"FEW","base":2500}],"obsTime":1782313200},"SBCB":{"icaoId":"SBCB","flightCategory":"VFR","rawOb":"METAR SBCB 241500Z 28004KT 9999 SCT020 BKN060 24/21 Q1015","temp":24,"dewp":21,"wdir":280,"wspd":4,"visib":"6+","altim":1015,"clouds":[{"cover":"SCT","base":2000},{"cover":"BKN","base":6000}],"obsTime":1782313200},"SBSN":{"icaoId":"SBSN","flightCategory":"VFR","rawOb":"METAR SBSN 241500Z 07007KT 9999 SCT016 FEW023TCU 30/26 Q1013","temp":30,"dewp":26,"wdir":70,"wspd":7,"visib":"6+","altim":1013,"clouds":[{"cover":"SCT","base":1600},{"cover":"FEW","base":2300}],"obsTime":1782313200},"SBIL":{"icaoId":"SBIL","flightCategory":"VFR","rawOb":"METAR SBIL 241500Z 08006KT 050V110 9999 SCT025 BKN070 27/22 Q1017","temp":27,"dewp":22,"wdir":80,"wspd":6,"visib":"6+","altim":1017,"clouds":[{"cover":"SCT","base":2500},{"cover":"BKN","base":7000}],"obsTime":1782313200},"SBSP":{"icaoId":"SBSP","flightCategory":"IFR","rawOb":"METAR SBSP 241500Z 19006KT 9999 -RA BKN008 OVC040 13/12 Q1021","temp":13,"dewp":12,"wdir":190,"wspd":6,"visib":"6+","altim":1021,"clouds":[{"cover":"BKN","base":800},{"cover":"OVC","base":4000}],"obsTime":1782313200},"SBCT":{"icaoId":"SBCT","flightCategory":"IFR","rawOb":"METAR SBCT 241500Z 22005KT 9999 OVC009 08/05 Q1021","temp":8,"dewp":5,"wdir":220,"wspd":5,"visib":"6+","altim":1021,"clouds":[{"cover":"OVC","base":900}],"obsTime":1782313200},"SBSV":{"icaoId":"SBSV","flightCategory":"VFR","rawOb":"METAR SBSV 241500Z 12006KT 9999 SCT023 28/22 Q1016","temp":28,"dewp":22,"wdir":120,"wspd":6,"visib":"6+","altim":1016,"clouds":[{"cover":"SCT","base":2300}],"obsTime":1782313200},"SBTE":{"icaoId":"SBTE","flightCategory":"MVFR","rawOb":"METAR SBTE 241500Z 19005KT 9999 BKN025 32/24 Q1011","temp":32,"dewp":24,"wdir":190,"wspd":5,"visib":"6+","altim":1011,"clouds":[{"cover":"BKN","base":2500}],"obsTime":1782313200},"SBJU":{"icaoId":"SBJU","flightCategory":"VFR","rawOb":"METAR SBJU 241500Z 18007KT 9999 FEW022 31/16 Q1015","temp":31,"dewp":16,"wdir":180,"wspd":7,"visib":"6+","altim":1015,"clouds":[{"cover":"FEW","base":2200}],"obsTime":1782313200},"SBUL":{"icaoId":"SBUL","flightCategory":"MVFR","rawOb":"METAR SBUL 241500Z 34006KT 9999 BKN010 BKN045 BKN100 22/17 Q1020","temp":22,"dewp":17,"wdir":340,"wspd":6,"visib":"6+","altim":1020,"clouds":[{"cover":"BKN","base":1000},{"cover":"BKN","base":4500},{"cover":"BKN","base":10000}],"obsTime":1782313200},"SBBR":{"icaoId":"SBBR","flightCategory":"VFR","rawOb":"METAR SBBR 241500Z VRB04KT 9999 FEW035 26/13 Q1020","temp":26,"dewp":13,"wdir":"VRB","wspd":4,"visib":"6+","altim":1020,"clouds":[{"cover":"FEW","base":3500}],"obsTime":1782313200},"SBUR":{"icaoId":"SBUR","flightCategory":"LIFR","rawOb":"METAR SBUR 241500Z 23008KT 0050 -DZ FG BKN001 OVC070 16/16 Q1020","temp":16,"dewp":16,"wdir":230,"wspd":8,"visib":0.03,"altim":1020,"clouds":[{"cover":"BKN","base":100},{"cover":"OVC","base":7000}],"obsTime":1782313200},"SBCZ":{"icaoId":"SBCZ","flightCategory":"MVFR","rawOb":"METAR SBCZ 241500Z 33005KT 9999 BKN020 BKN100 28/25 Q1014","temp":28,"dewp":25,"wdir":330,"wspd":5,"visib":"6+","altim":1014,"clouds":[{"cover":"BKN","base":2000},{"cover":"BKN","base":10000}],"obsTime":1782313200},"SBKP":{"icaoId":"SBKP","flightCategory":"IFR","rawOb":"METAR SBKP 241500Z 12002KT 9000 -RA BKN009 OVC020 15/14 Q1019","temp":15,"dewp":14,"wdir":120,"wspd":2,"visib":5.59,"altim":1019,"clouds":[{"cover":"BKN","base":900},{"cover":"OVC","base":2000}],"obsTime":1782313200},"SBVT":{"icaoId":"SBVT","flightCategory":"VFR","rawOb":"METAR SBVT 241500Z 15011KT CAVOK 25/19 Q1016","temp":25,"dewp":19,"wdir":150,"wspd":11,"visib":"6+","altim":1016,"clouds":[],"obsTime":1782313200},"SBTU":{"icaoId":"SBTU","flightCategory":"VFR","rawOb":"METAR SBTU 241600Z AUTO 28004KT 220V330 9999 // NCD 30/22 Q1014","temp":30,"dewp":22,"wdir":280,"wspd":4,"visib":"6+","altim":1014,"clouds":[],"obsTime":1782316800},"SBAX":{"icaoId":"SBAX","flightCategory":"VFR","rawOb":"METAR SBAX 241500Z 05003KT 9999 SCT030 22/17 Q1020","temp":22,"dewp":17,"wdir":50,"wspd":3,"visib":"6+","altim":1020,"clouds":[{"cover":"SCT","base":3000}],"obsTime":1782313200},"SBBH":{"icaoId":"SBBH","flightCategory":"VFR","rawOb":"METAR SBBH 241500Z 34004KT CAVOK 25/14 Q1018","temp":25,"dewp":14,"wdir":340,"wspd":4,"visib":"6+","altim":1018,"clouds":[],"obsTime":1782313200},"SBPL":{"icaoId":"SBPL","flightCategory":"MVFR","rawOb":"METAR SBPL 241500Z 09008KT 9999 BKN030 30/18 Q1016","temp":30,"dewp":18,"wdir":90,"wspd":8,"visib":"6+","altim":1016,"clouds":[{"cover":"BKN","base":3000}],"obsTime":1782313200},"SBBQ":{"icaoId":"SBBQ","flightCategory":"MVFR","rawOb":"METAR SBBQ 241500Z 08004KT 9999 BKN025 22/16 Q1021","temp":22,"dewp":16,"wdir":80,"wspd":4,"visib":"6+","altim":1021,"clouds":[{"cover":"BKN","base":2500}],"obsTime":1782313200},"SBPP":{"icaoId":"SBPP","flightCategory":"VFR","rawOb":"METAR SBPP 241500Z 14008KT CAVOK 12/02 Q1023","temp":12,"dewp":2,"wdir":140,"wspd":8,"visib":"6+","altim":1023,"clouds":[],"obsTime":1782313200},"SBCO":{"icaoId":"SBCO","flightCategory":"VFR","rawOb":"METAR SBCO 241500Z 29008KT 9999 FEW027 SCT070 11/04 Q1021","temp":11,"dewp":4,"wdir":290,"wspd":8,"visib":"6+","altim":1021,"clouds":[{"cover":"FEW","base":2700},{"cover":"SCT","base":7000}],"obsTime":1782313200},"SBPS":{"icaoId":"SBPS","flightCategory":"MVFR","rawOb":"METAR SBPS 241500Z 09008KT 9999 SCT010 BKN020 OVC050 24/22 Q1017","temp":24,"dewp":22,"wdir":90,"wspd":8,"visib":"6+","altim":1017,"clouds":[{"cover":"SCT","base":1000},{"cover":"BKN","base":2000},{"cover":"OVC","base":5000}],"obsTime":1782313200},"SBSC":{"icaoId":"SBSC","flightCategory":"IFR","rawOb":"METAR SBSC 241500Z 22009KT 9999 -RA BKN008 BKN033 20/19 Q1017","temp":20,"dewp":19,"wdir":220,"wspd":9,"visib":"6+","altim":1017,"clouds":[{"cover":"BKN","base":800},{"cover":"BKN","base":3300}],"obsTime":1782313200},"SBDN":{"icaoId":"SBDN","flightCategory":"IFR","rawOb":"METAR SBDN 241500Z 28006KT 9999 BKN009 12/08 Q1022","temp":12,"dewp":8,"wdir":280,"wspd":6,"visib":"6+","altim":1022,"clouds":[{"cover":"BKN","base":900}],"obsTime":1782313200},"SBAR":{"icaoId":"SBAR","flightCategory":"MVFR","rawOb":"METAR SBAR 241500Z 11006KT 9999 BKN023 27/23 Q1015","temp":27,"dewp":23,"wdir":110,"wspd":6,"visib":"6+","altim":1015,"clouds":[{"cover":"BKN","base":2300}],"obsTime":1782313200},"SBSJ":{"icaoId":"SBSJ","flightCategory":"LIFR","rawOb":"METAR SBSJ 241500Z 26006KT 3000 -RA BR BKN004 OVC008 14/14 Q1019","temp":14,"dewp":14,"wdir":260,"wspd":6,"visib":1.86,"altim":1019,"clouds":[{"cover":"BKN","base":400},{"cover":"OVC","base":800}],"obsTime":1782313200},"SBES":{"icaoId":"SBES","flightCategory":"VFR","rawOb":"METAR SBES 241500Z 22005KT 200V260 9999 SCT018 BKN100 23/// Q1014","temp":null,"dewp":null,"wdir":220,"wspd":5,"visib":"6+","altim":1014,"clouds":[{"cover":"SCT","base":1800},{"cover":"BKN","base":10000}],"obsTime":1782313200},"SBSM":{"icaoId":"SBSM","flightCategory":"VFR","rawOb":"METAR SBSM 241500Z 31007KT CAVOK 14/02 Q1021","temp":14,"dewp":2,"wdir":310,"wspd":7,"visib":"6+","altim":1021,"clouds":[],"obsTime":1782313200},"SBSR":{"icaoId":"SBSR","flightCategory":"IFR","rawOb":"METAR SBSR 241500Z 27009KT 5000 -RA BR BKN006 OVC070 12/12 Q1021","temp":12,"dewp":12,"wdir":270,"wspd":9,"visib":3.11,"altim":1021,"clouds":[{"cover":"BKN","base":600},{"cover":"OVC","base":7000}],"obsTime":1782313200},"SBBU":{"icaoId":"SBBU","flightCategory":"LIFR","rawOb":"METAR SBBU 241500Z 22002KT 5000 BR OVC003 14/14 Q1020","temp":14,"dewp":14,"wdir":220,"wspd":2,"visib":3.11,"altim":1020,"clouds":[{"cover":"OVC","base":300}],"obsTime":1782313200},"SBGM":{"icaoId":"SBGM","flightCategory":"MVFR","rawOb":"METAR SBGM 241500Z 12010KT 9999 OVC011 20/16 Q1018","temp":20,"dewp":16,"wdir":120,"wspd":10,"visib":"6+","altim":1018,"clouds":[{"cover":"OVC","base":1100}],"obsTime":1782313200},"SBTD":{"icaoId":"SBTD","flightCategory":"VFR","rawOb":"METAR SBTD 241500Z /////KT CAVOK 13/03 Q1023","temp":13,"dewp":3,"wdir":null,"wspd":null,"visib":"6+","altim":1023,"clouds":[],"obsTime":1782313200},"SBTF":{"icaoId":"SBTF","flightCategory":"VFR","rawOb":"METAR SBTF 241500Z 28003KT 9999 SCT015 29/25 Q1014","temp":29,"dewp":25,"wdir":280,"wspd":3,"visib":"6+","altim":1014,"clouds":[{"cover":"SCT","base":1500}],"obsTime":1782313200},"SBTT":{"icaoId":"SBTT","flightCategory":"VFR","rawOb":"METAR SBTT 241500Z 31004KT 9999 FEW013 SCT080 28/24 Q1015","temp":28,"dewp":24,"wdir":310,"wspd":4,"visib":"6+","altim":1015,"clouds":[{"cover":"FEW","base":1300},{"cover":"SCT","base":8000}],"obsTime":1782313200},"SBIP":{"icaoId":"SBIP","flightCategory":"VFR","rawOb":"METAR SBIP 241500Z AUTO 05006KT 340V090 CAVOK 26/16 Q1017","temp":26,"dewp":16,"wdir":50,"wspd":6,"visib":"6+","altim":1017,"clouds":[],"obsTime":1782313200},"SBUY":{"icaoId":"SBUY","flightCategory":"VFR","rawOb":"METAR SBUY 241500Z 01002KT CAVOK 30/23 Q1013","temp":30,"dewp":23,"wdir":10,"wspd":2,"visib":"6+","altim":1013,"clouds":[],"obsTime":1782313200},"SBVH":{"icaoId":"SBVH","flightCategory":"MVFR","rawOb":"METAR SBVH 241500Z 15007KT 9999 OVC011 18/16 Q1019","temp":18,"dewp":16,"wdir":150,"wspd":7,"visib":"6+","altim":1019,"clouds":[{"cover":"OVC","base":1100}],"obsTime":1782313200},"SBKG":{"icaoId":"SBKG","flightCategory":"MVFR","rawOb":"METAR SBKG 241500Z 14008KT 9999 BKN020 BKN070 25/20 Q1017","temp":25,"dewp":20,"wdir":140,"wspd":8,"visib":"6+","altim":1017,"clouds":[{"cover":"BKN","base":2000},{"cover":"BKN","base":7000}],"obsTime":1782313200},"SBCC":{"icaoId":"SBCC","flightCategory":"VFR","rawOb":"METAR SBCC 241500Z 10004KT 9999 FEW025 30/19 Q1016","temp":30,"dewp":19,"wdir":100,"wspd":4,"visib":"6+","altim":1016,"clouds":[{"cover":"FEW","base":2500}],"obsTime":1782313200},"SBAU":{"icaoId":"SBAU","flightCategory":"LIFR","rawOb":"METAR SBAU 241600Z 23008KT 5000 BR BKN004 BKN010 BKN080 14/12 Q1021","temp":14,"dewp":12,"wdir":230,"wspd":8,"visib":3.11,"altim":1021,"clouds":[{"cover":"BKN","base":400},{"cover":"BKN","base":1000},{"cover":"BKN","base":8000}],"obsTime":1782316800},"SBCJ":{"icaoId":"SBCJ","flightCategory":"VFR","rawOb":"METAR SBCJ 241500Z 11003KT 9999 FEW020 29/19 Q1018","temp":29,"dewp":19,"wdir":110,"wspd":3,"visib":"6+","altim":1018,"clouds":[{"cover":"FEW","base":2000}],"obsTime":1782313200},"SBOI":{"icaoId":"SBOI","flightCategory":"VFR","rawOb":"METAR SBOI 241500Z AUTO 12003KT 060V200 9999 SCT048 31/24 Q1013","temp":31,"dewp":24,"wdir":120,"wspd":3,"visib":"6+","altim":1013,"clouds":[{"cover":"SCT","base":4800}],"obsTime":1782313200},"SBPB":{"icaoId":"SBPB","flightCategory":"VFR","rawOb":"METAR SBPB 241500Z 06008KT 9999 SCT020 SCT100 31/23 Q1011","temp":31,"dewp":23,"wdir":60,"wspd":8,"visib":"6+","altim":1011,"clouds":[{"cover":"SCT","base":2000},{"cover":"SCT","base":10000}],"obsTime":1782313200},"SBCA":{"icaoId":"SBCA","flightCategory":"VFR","rawOb":"METAR SBCA 241500Z 18009KT CAVOK 09/01 Q1023","temp":9,"dewp":1,"wdir":180,"wspd":9,"visib":"6+","altim":1023,"clouds":[],"obsTime":1782313200},"SBJV":{"icaoId":"SBJV","flightCategory":"VFR","rawOb":"METAR SBJV 241500Z 18004KT 9999 FEW030 OVC050 13/06 Q1021","temp":13,"dewp":6,"wdir":180,"wspd":4,"visib":"6+","altim":1021,"clouds":[{"cover":"FEW","base":3000},{"cover":"OVC","base":5000}],"obsTime":1782313200},"SBNM":{"icaoId":"SBNM","flightCategory":"VFR","rawOb":"METAR SBNM 241500Z 30004KT CAVOK 13/05 Q1022","temp":13,"dewp":5,"wdir":300,"wspd":4,"visib":"6+","altim":1022,"clouds":[],"obsTime":1782313200},"SBJR":{"icaoId":"SBJR","flightCategory":"IFR","rawOb":"METAR SBJR 241500Z 26007KT 4000 -RA BR BKN007 OVC030 21/20 Q1016","temp":21,"dewp":20,"wdir":260,"wspd":7,"visib":2.49,"altim":1016,"clouds":[{"cover":"BKN","base":700},{"cover":"OVC","base":3000}],"obsTime":1782313200},"SBLS":{"icaoId":"SBLS","flightCategory":"VFR","rawOb":"METAR SBLS 241500Z 31002KT CAVOK 25/13 Q1019","temp":25,"dewp":13,"wdir":310,"wspd":2,"visib":"6+","altim":1019,"clouds":[],"obsTime":1782313200},"SBMT":{"icaoId":"SBMT","flightCategory":"IFR","rawOb":"METAR SBMT 241500Z 15002KT 7000 -RA SCT006 OVC009 13/11 Q1019","temp":13,"dewp":11,"wdir":150,"wspd":2,"visib":4.35,"altim":1019,"clouds":[{"cover":"SCT","base":600},{"cover":"OVC","base":900}],"obsTime":1782313200},"SBAN":{"icaoId":"SBAN","flightCategory":"VFR","rawOb":"METAR SBAN 241500Z 30004KT 9999 SCT040 25/15 Q1021","temp":25,"dewp":15,"wdir":300,"wspd":4,"visib":"6+","altim":1021,"clouds":[{"cover":"SCT","base":4000}],"obsTime":1782313200},"SBST":{"icaoId":"SBST","flightCategory":"IFR","rawOb":"METAR SBST 241500Z 34007KT 2000 -RA OVC006 15/15 Q1018","temp":15,"dewp":15,"wdir":340,"wspd":7,"visib":1.24,"altim":1018,"clouds":[{"cover":"OVC","base":600}],"obsTime":1782313200},"SBTA":{"icaoId":"SBTA","flightCategory":"IFR","rawOb":"METAR SBTA 241500Z 11004KT 3000 -RA BR SCT005 OVC015 15/15 Q1018","temp":15,"dewp":15,"wdir":110,"wspd":4,"visib":1.86,"altim":1018,"clouds":[{"cover":"SCT","base":500},{"cover":"OVC","base":1500}],"obsTime":1782313200},"SBIH":{"icaoId":"SBIH","flightCategory":"VFR","rawOb":"METAR SBIH 241500Z 14004KT 9999 SCT020 32/25 Q1013","temp":32,"dewp":25,"wdir":140,"wspd":4,"visib":"6+","altim":1013,"clouds":[{"cover":"SCT","base":2000}],"obsTime":1782313200},"SBAF":{"icaoId":"SBAF","flightCategory":"VFR","rawOb":"METAR SBAF 241500Z 28013KT 9999 SCT013 BKN033 21/21 Q1016","temp":21,"dewp":21,"wdir":280,"wspd":13,"visib":"6+","altim":1016,"clouds":[{"cover":"SCT","base":1300},{"cover":"BKN","base":3300}],"obsTime":1782313200},"SBLE":{"icaoId":"SBLE","flightCategory":"VFR","rawOb":"METAR SBLE 241500Z AUTO VRB03KT 9999 FEW035 26/17 Q1018","temp":26,"dewp":17,"wdir":"VRB","wspd":3,"visib":"6+","altim":1018,"clouds":[{"cover":"FEW","base":3500}],"obsTime":1782313200},"SBGW":{"icaoId":"SBGW","flightCategory":"IFR","rawOb":"METAR SBGW 241500Z 24009KT 4000 -RA FEW006 BKN013 OVC023 16/12 Q1019 RERA","temp":16,"dewp":12,"wdir":240,"wspd":9,"visib":2.49,"altim":1019,"clouds":[{"cover":"FEW","base":600},{"cover":"BKN","base":1300},{"cover":"OVC","base":2300}],"obsTime":1782313200},"SBJP":{"icaoId":"SBJP","flightCategory":"MVFR","rawOb":"METAR SBJP 241500Z 13012KT 9999 BKN030 29/21 Q1014","temp":29,"dewp":21,"wdir":130,"wspd":12,"visib":"6+","altim":1014,"clouds":[{"cover":"BKN","base":3000}],"obsTime":1782313200},"SBPF":{"icaoId":"SBPF","flightCategory":"VFR","rawOb":"METAR SBPF 241500Z AUTO 28013KT 240V320 //// // FEW033/// 08/00 Q1022","temp":8,"dewp":0,"wdir":280,"wspd":13,"visib":null,"altim":1022,"clouds":[{"cover":"FEW","base":3300}],"obsTime":1782313200}}}