{"updated":1783982474,"count":83,"data":{"SBIL":{"icaoId":"SBIL","flightCategory":"VFR","rawOb":"METAR SBIL 132100Z 09004KT 9999 FEW022 BKN070 27/24 Q1013","temp":27,"dewp":24,"wdir":90,"wspd":4,"visib":"6+","altim":1013,"clouds":[{"cover":"FEW","base":2200},{"cover":"BKN","base":7000}],"obsTime":1783976400},"SBJU":{"icaoId":"SBJU","flightCategory":"VFR","rawOb":"METAR SBJU 132100Z 02004KT 9999 FEW021 30/18 Q1014","temp":30,"dewp":18,"wdir":20,"wspd":4,"visib":"6+","altim":1014,"clouds":[{"cover":"FEW","base":2100}],"obsTime":1783976400},"SBBV":{"icaoId":"SBBV","flightCategory":"VFR","rawOb":"METAR SBBV 132100Z 35002KT 9999 FEW030 FEW035TCU SCT040 29/24 Q1011","temp":29,"dewp":24,"wdir":350,"wspd":2,"visib":"6+","altim":1011,"clouds":[{"cover":"FEW","base":3000},{"cover":"FEW","base":3500},{"cover":"SCT","base":4000}],"obsTime":1783976400},"SBME":{"icaoId":"SBME","flightCategory":"VFR","rawOb":"METAR SBME 132100Z 24012KT CAVOK 19/13 Q1017","temp":19,"dewp":13,"wdir":240,"wspd":12,"visib":"6+","altim":1017,"clouds":[],"obsTime":1783976400},"SBTE":{"icaoId":"SBTE","flightCategory":"VFR","rawOb":"METAR SBTE 132100Z 32005KT 9999 FEW030 32/23 Q1011","temp":32,"dewp":23,"wdir":320,"wspd":5,"visib":"6+","altim":1011,"clouds":[{"cover":"FEW","base":3000}],"obsTime":1783976400},"SBMK":{"icaoId":"SBMK","flightCategory":"VFR","rawOb":"METAR SBMK 132100Z 25006KT CAVOK 28/14 Q1015","temp":28,"dewp":14,"wdir":250,"wspd":6,"visib":"6+","altim":1015,"clouds":[],"obsTime":1783976400},"SBMA":{"icaoId":"SBMA","flightCategory":"VFR","rawOb":"METAR SBMA 132100Z 36007KT 9999 FEW020 31/23 Q1011","temp":31,"dewp":23,"wdir":360,"wspd":7,"visib":"6+","altim":1011,"clouds":[{"cover":"FEW","base":2000}],"obsTime":1783976400},"SBUL":{"icaoId":"SBUL","flightCategory":"VFR","rawOb":"METAR SBUL 132100Z 25007KT CAVOK 21/07 Q1020","temp":21,"dewp":7,"wdir":250,"wspd":7,"visib":"6+","altim":1020,"clouds":[],"obsTime":1783976400},"SBKP":{"icaoId":"SBKP","flightCategory":"VFR","rawOb":"METAR SBKP 132100Z 13011KT CAVOK 16/08 Q1020","temp":16,"dewp":8,"wdir":130,"wspd":11,"visib":"6+","altim":1020,"clouds":[],"obsTime":1783976400},"SBUR":{"icaoId":"SBUR","flightCategory":"VFR","rawOb":"METAR SBUR 132100Z 20005KT CAVOK 21/09 Q1019","temp":21,"dewp":9,"wdir":200,"wspd":5,"visib":"6+","altim":1019,"clouds":[],"obsTime":1783976400},"SBGO":{"icaoId":"SBGO","flightCategory":"VFR","rawOb":"METAR SBGO 132100Z 18008KT 9999 FEW045 26/17 Q1018","temp":26,"dewp":17,"wdir":180,"wspd":8,"visib":"6+","altim":1018,"clouds":[{"cover":"FEW","base":4500}],"obsTime":1783976400},"SBMQ":{"icaoId":"SBMQ","flightCategory":"VFR","rawOb":"METAR SBMQ 132100Z 05010KT 9999 SCT020 SCT100 29/25 Q1012 RETS","temp":29,"dewp":25,"wdir":50,"wspd":10,"visib":"6+","altim":1012,"clouds":[{"cover":"SCT","base":2000},{"cover":"SCT","base":10000}],"obsTime":1783976400},"SBPJ":{"icaoId":"SBPJ","flightCategory":"VFR","rawOb":"METAR SBPJ 132100Z 18004KT CAVOK 33/19 Q1012","temp":33,"dewp":19,"wdir":180,"wspd":4,"visib":"6+","altim":1012,"clouds":[],"obsTime":1783976400},"SBFI":{"icaoId":"SBFI","flightCategory":"VFR","rawOb":"METAR SBFI 132100Z 20005KT CAVOK 16/10 Q1020","temp":16,"dewp":10,"wdir":200,"wspd":5,"visib":"6+","altim":1020,"clouds":[],"obsTime":1783976400},"SBGR":{"icaoId":"SBGR","flightCategory":"VFR","rawOb":"METAR SBGR 132100Z 17005KT 9999 BKN043 12/08 Q1022","temp":12,"dewp":8,"wdir":170,"wspd":5,"visib":"6+","altim":1022,"clouds":[{"cover":"BKN","base":4300}],"obsTime":1783976400},"SBLO":{"icaoId":"SBLO","flightCategory":"VFR","rawOb":"METAR SBLO 132100Z 13005KT CAVOK 17/07 Q1019","temp":17,"dewp":7,"wdir":130,"wspd":5,"visib":"6+","altim":1019,"clouds":[],"obsTime":1783976400},"SBCZ":{"icaoId":"SBCZ","flightCategory":"VFR","rawOb":"METAR SBCZ 132100Z 04002KT 9999 SCT030 SCT100 27/24 Q1013","temp":27,"dewp":24,"wdir":40,"wspd":2,"visib":"6+","altim":1013,"clouds":[{"cover":"SCT","base":3000},{"cover":"SCT","base":10000}],"obsTime":1783976400},"SBPA":{"icaoId":"SBPA","flightCategory":"VFR","rawOb":"METAR SBPA 132100Z 29004KT 9999 BKN037 14/10 Q1023","temp":14,"dewp":10,"wdir":290,"wspd":4,"visib":"6+","altim":1023,"clouds":[{"cover":"BKN","base":3700}],"obsTime":1783976400},"SBSG":{"icaoId":"SBSG","flightCategory":"VFR","rawOb":"METAR SBSG 132100Z 09010KT 9999 FEW025 27/23 Q1014","temp":27,"dewp":23,"wdir":90,"wspd":10,"visib":"6+","altim":1014,"clouds":[{"cover":"FEW","base":2500}],"obsTime":1783976400},"SBCP":{"icaoId":"SBCP","flightCategory":"MVFR","rawOb":"METAR SBCP 132100Z 22014KT 9999 BKN020 20/12 Q1017","temp":20,"dewp":12,"wdir":220,"wspd":14,"visib":"6+","altim":1017,"clouds":[{"cover":"BKN","base":2000}],"obsTime":1783976400},"SBMG":{"icaoId":"SBMG","flightCategory":"VFR","rawOb":"METAR SBMG 132100Z 16006KT CAVOK 16/06 Q1019","temp":16,"dewp":6,"wdir":160,"wspd":6,"visib":"6+","altim":1019,"clouds":[],"obsTime":1783976400},"SBFL":{"icaoId":"SBFL","flightCategory":"VFR","rawOb":"METAR SBFL 132100Z 14010KT 9999 FEW025 15/11 Q1022","temp":15,"dewp":11,"wdir":140,"wspd":10,"visib":"6+","altim":1022,"clouds":[{"cover":"FEW","base":2500}],"obsTime":1783976400},"SBCT":{"icaoId":"SBCT","flightCategory":"VFR","rawOb":"METAR SBCT 132100Z 11008KT 9999 FEW020 09/08 Q1023","temp":9,"dewp":8,"wdir":110,"wspd":8,"visib":"6+","altim":1023,"clouds":[{"cover":"FEW","base":2000}],"obsTime":1783976400},"SBSP":{"icaoId":"SBSP","flightCategory":"MVFR","rawOb":"METAR SBSP 132100Z 17010KT 9999 BKN013 11/09 Q1023","temp":11,"dewp":9,"wdir":170,"wspd":10,"visib":"6+","altim":1023,"clouds":[{"cover":"BKN","base":1300}],"obsTime":1783976400},"SBNT":{"icaoId":"SBNT","flightCategory":"VFR","rawOb":"METAR SBNT 132100Z 09005KT CAVOK 26/22 Q1014","temp":26,"dewp":22,"wdir":90,"wspd":5,"visib":"6+","altim":1014,"clouds":[],"obsTime":1783976400},"SBEG":{"icaoId":"SBEG","flightCategory":"VFR","rawOb":"METAR SBEG 132100Z 04004KT 350V070 9999 FEW030 FEW035TCU 31/22 Q1011","temp":31,"dewp":22,"wdir":40,"wspd":4,"visib":"6+","altim":1011,"clouds":[{"cover":"FEW","base":3000},{"cover":"FEW","base":3500}],"obsTime":1783976400},"SBBR":{"icaoId":"SBBR","flightCategory":"VFR","rawOb":"METAR SBBR 132100Z 27004KT CAVOK 25/14 Q1019","temp":25,"dewp":14,"wdir":270,"wspd":4,"visib":"6+","altim":1019,"clouds":[],"obsTime":1783976400},"SBGL":{"icaoId":"SBGL","flightCategory":"VFR","rawOb":"METAR SBGL 132100Z 23009KT 9000 SCT035 BKN080 20/12 Q1019","temp":20,"dewp":12,"wdir":230,"wspd":9,"visib":5.59,"altim":1019,"clouds":[{"cover":"SCT","base":3500},{"cover":"BKN","base":8000}],"obsTime":1783976400},"SBMO":{"icaoId":"SBMO","flightCategory":"VFR","rawOb":"METAR SBMO 132100Z 08006KT CAVOK 24/22 Q1014","temp":24,"dewp":22,"wdir":80,"wspd":6,"visib":"6+","altim":1014,"clouds":[],"obsTime":1783976400},"SBCF":{"icaoId":"SBCF","flightCategory":"VFR","rawOb":"METAR SBCF 132100Z 25005KT 9999 SCT045 23/14 Q1017","temp":23,"dewp":14,"wdir":250,"wspd":5,"visib":"6+","altim":1017,"clouds":[{"cover":"SCT","base":4500}],"obsTime":1783976400},"SBSL":{"icaoId":"SBSL","flightCategory":"MVFR","rawOb":"METAR SBSL 132100Z 04011KT 9999 BKN020 BKN080 28/24 Q1012","temp":28,"dewp":24,"wdir":40,"wspd":11,"visib":"6+","altim":1012,"clouds":[{"cover":"BKN","base":2000},{"cover":"BKN","base":8000}],"obsTime":1783976400},"SBFZ":{"icaoId":"SBFZ","flightCategory":"VFR","rawOb":"METAR SBFZ 132100Z 08006KT 9999 FEW020 27/23 Q1013","temp":27,"dewp":23,"wdir":80,"wspd":6,"visib":"6+","altim":1013,"clouds":[{"cover":"FEW","base":2000}],"obsTime":1783976400},"SBBE":{"icaoId":"SBBE","flightCategory":"VFR","rawOb":"METAR SBBE 132100Z 01006KT 9999 SCT028 30/25 Q1012","temp":30,"dewp":25,"wdir":10,"wspd":6,"visib":"6+","altim":1012,"clouds":[{"cover":"SCT","base":2800}],"obsTime":1783976400},"SBRF":{"icaoId":"SBRF","flightCategory":"VFR","rawOb":"METAR SBRF 132100Z 07006KT CAVOK 27/23 Q1014","temp":27,"dewp":23,"wdir":70,"wspd":6,"visib":"6+","altim":1014,"clouds":[],"obsTime":1783976400},"SBRB":{"icaoId":"SBRB","flightCategory":"VFR","rawOb":"METAR SBRB 132100Z 19005KT 9999 VCSH SCT013 FEW030TCU BKN080 24/22 Q1015","temp":24,"dewp":22,"wdir":190,"wspd":5,"visib":"6+","altim":1015,"clouds":[{"cover":"SCT","base":1300},{"cover":"FEW","base":3000},{"cover":"BKN","base":8000}],"obsTime":1783976400},"SBVT":{"icaoId":"SBVT","flightCategory":"MVFR","rawOb":"METAR SBVT 132100Z COR 25005KT 9999 BKN030 OVC040 20/15 Q1017","temp":20,"dewp":15,"wdir":250,"wspd":5,"visib":"6+","altim":1017,"clouds":[{"cover":"BKN","base":3000},{"cover":"OVC","base":4000}],"obsTime":1783976400},"SBCG":{"icaoId":"SBCG","flightCategory":"VFR","rawOb":"METAR SBCG 132100Z 17005KT CAVOK 20/09 Q1019","temp":20,"dewp":9,"wdir":170,"wspd":5,"visib":"6+","altim":1019,"clouds":[],"obsTime":1783976400},"SBPV":{"icaoId":"SBPV","flightCategory":"VFR","rawOb":"METAR SBPV 132100Z VRB03KT 9999 SCT045 FEW050TCU SCT100 31/21 Q1012","temp":31,"dewp":21,"wdir":"VRB","wspd":3,"visib":"6+","altim":1012,"clouds":[{"cover":"SCT","base":4500},{"cover":"FEW","base":5000},{"cover":"SCT","base":10000}],"obsTime":1783976400},"SBSV":{"icaoId":"SBSV","flightCategory":"VFR","rawOb":"METAR SBSV 132100Z 05008KT CAVOK 26/22 Q1013","temp":26,"dewp":22,"wdir":50,"wspd":8,"visib":"6+","altim":1013,"clouds":[],"obsTime":1783976400},"SBSN":{"icaoId":"SBSN","flightCategory":"VFR","rawOb":"METAR SBSN 132100Z 07005KT 9999 FEW026TCU 31/23 Q1011","temp":31,"dewp":23,"wdir":70,"wspd":5,"visib":"6+","altim":1011,"clouds":[{"cover":"FEW","base":2600}],"obsTime":1783976400},"SBAT":{"icaoId":"SBAT","flightCategory":"VFR","rawOb":"METAR SBAT 132100Z 24002KT 9999 SCT035 29/23 Q1013","temp":29,"dewp":23,"wdir":240,"wspd":2,"visib":"6+","altim":1013,"clouds":[{"cover":"SCT","base":3500}],"obsTime":1783976400},"SBHT":{"icaoId":"SBHT","flightCategory":"VFR","rawOb":"METAR SBHT 132100Z 00000KT 9999 FEW030 31/27 Q1011","temp":31,"dewp":27,"wdir":0,"wspd":0,"visib":"6+","altim":1011,"clouds":[{"cover":"FEW","base":3000}],"obsTime":1783976400},"SBCR":{"icaoId":"SBCR","flightCategory":"VFR","rawOb":"METAR SBCR 132100Z 05003KT 360V070 CAVOK 26/15 Q1016","temp":26,"dewp":15,"wdir":50,"wspd":3,"visib":"6+","altim":1016,"clouds":[],"obsTime":1783976400},"SBCB":{"icaoId":"SBCB","flightCategory":"MVFR","rawOb":"METAR SBCB 132100Z 28012KT 9999 FEW015 BKN030 20/14 Q1018","temp":20,"dewp":14,"wdir":280,"wspd":12,"visib":"6+","altim":1018,"clouds":[{"cover":"FEW","base":1500},{"cover":"BKN","base":3000}],"obsTime":1783976400},"SBUY":{"icaoId":"SBUY","flightCategory":"VFR","rawOb":"METAR SBUY 132100Z 00000KT 9999 FEW025 27/24 Q1011","temp":27,"dewp":24,"wdir":0,"wspd":0,"visib":"6+","altim":1011,"clouds":[{"cover":"FEW","base":2500}],"obsTime":1783976400},"SBAR":{"icaoId":"SBAR","flightCategory":"VFR","rawOb":"METAR SBAR 132100Z 08007KT CAVOK 26/23 Q1013","temp":26,"dewp":23,"wdir":80,"wspd":7,"visib":"6+","altim":1013,"clouds":[],"obsTime":1783976400},"SBBU":{"icaoId":"SBBU","flightCategory":"VFR","rawOb":"METAR SBBU 132100Z 10005KT CAVOK 18/12 Q1020","temp":18,"dewp":12,"wdir":100,"wspd":5,"visib":"6+","altim":1020,"clouds":[],"obsTime":1783976400},"SBSJ":{"icaoId":"SBSJ","flightCategory":"VFR","rawOb":"METAR SBSJ 132100Z 16009KT 120V190 9999 BKN048 13/09 Q1022","temp":13,"dewp":9,"wdir":160,"wspd":9,"visib":"6+","altim":1022,"clouds":[{"cover":"BKN","base":4800}],"obsTime":1783976400},"SBDN":{"icaoId":"SBDN","flightCategory":"VFR","rawOb":"METAR SBDN 132100Z 13005KT CAVOK 18/08 Q1019","temp":18,"dewp":8,"wdir":130,"wspd":5,"visib":"6+","altim":1019,"clouds":[],"obsTime":1783976400},"SBPS":{"icaoId":"SBPS","flightCategory":"MVFR","rawOb":"METAR SBPS 132100Z 17007G17KT 120V220 9999 BKN015 BKN070 25/22 Q1014","temp":25,"dewp":22,"wdir":170,"wspd":7,"visib":"6+","altim":1014,"clouds":[{"cover":"BKN","base":1500},{"cover":"BKN","base":7000}],"obsTime":1783976400},"SBAX":{"icaoId":"SBAX","flightCategory":"VFR","rawOb":"METAR SBAX 132100Z 26005KT CAVOK 20/03 Q1019","temp":20,"dewp":3,"wdir":260,"wspd":5,"visib":"6+","altim":1019,"clouds":[],"obsTime":1783976400},"SBTT":{"icaoId":"SBTT","flightCategory":"LIFR","rawOb":"METAR SBTT 132100Z 16012KT 1200 SHRA BR BKN030 FEW040TCU 27/24 Q1012","temp":27,"dewp":24,"wdir":160,"wspd":12,"visib":0.75,"altim":1012,"clouds":[{"cover":"BKN","base":3000},{"cover":"FEW","base":4000}],"obsTime":1783976400},"SBBH":{"icaoId":"SBBH","flightCategory":"VFR","rawOb":"METAR SBBH 132100Z 27004KT 9999 FEW049 22/11 Q1017","temp":22,"dewp":11,"wdir":270,"wspd":4,"visib":"6+","altim":1017,"clouds":[{"cover":"FEW","base":4900}],"obsTime":1783976400},"SBIP":{"icaoId":"SBIP","flightCategory":"VFR","rawOb":"METAR SBIP 132100Z AUTO VRB01KT CAVOK 20/20 Q1014","temp":20,"dewp":20,"wdir":"VRB","wspd":1,"visib":"6+","altim":1014,"clouds":[],"obsTime":1783976400},"SBCA":{"icaoId":"SBCA","flightCategory":"VFR","rawOb":"METAR SBCA 132100Z 18005KT CAVOK 12/06 Q1021","temp":12,"dewp":6,"wdir":180,"wspd":5,"visib":"6+","altim":1021,"clouds":[],"obsTime":1783976400},"SBSC":{"icaoId":"SBSC","flightCategory":"MVFR","rawOb":"METAR SBSC 132100Z 22010KT 9999 BKN030 19/13 Q1019","temp":19,"dewp":13,"wdir":220,"wspd":10,"visib":"6+","altim":1019,"clouds":[{"cover":"BKN","base":3000}],"obsTime":1783976400},"SBOI":{"icaoId":"SBOI","flightCategory":"VFR","rawOb":"METAR SBOI 132100Z AUTO 09004KT 060V130 CAVOK 30/24 Q1013","temp":30,"dewp":24,"wdir":90,"wspd":4,"visib":"6+","altim":1013,"clouds":[],"obsTime":1783976400},"SBSR":{"icaoId":"SBSR","flightCategory":"VFR","rawOb":"METAR SBSR 132100Z 20007KT CAVOK 20/09 Q1019","temp":20,"dewp":9,"wdir":200,"wspd":7,"visib":"6+","altim":1019,"clouds":[],"obsTime":1783976400},"SBCO":{"icaoId":"SBCO","flightCategory":"VFR","rawOb":"METAR SBCO 132100Z VRB01KT 9999 FEW020 BKN035 13/10 Q1024","temp":13,"dewp":10,"wdir":"VRB","wspd":1,"visib":"6+","altim":1024,"clouds":[{"cover":"FEW","base":2000},{"cover":"BKN","base":3500}],"obsTime":1783976400},"SBES":{"icaoId":"SBES","flightCategory":"VFR","rawOb":"METAR SBES 132100Z 25008KT 200V310 9999 SCT025 19/// Q1018","temp":null,"dewp":null,"wdir":250,"wspd":8,"visib":"6+","altim":1018,"clouds":[{"cover":"SCT","base":2500}],"obsTime":1783976400},"SBSM":{"icaoId":"SBSM","flightCategory":"MVFR","rawOb":"METAR SBSM 132100Z 14002KT 9999 BKN030 11/09 Q1024","temp":11,"dewp":9,"wdir":140,"wspd":2,"visib":"6+","altim":1024,"clouds":[{"cover":"BKN","base":3000}],"obsTime":1783976400},"SBPL":{"icaoId":"SBPL","flightCategory":"VFR","rawOb":"METAR SBPL 132100Z 35002KT CAVOK 32/16 Q1013","temp":32,"dewp":16,"wdir":350,"wspd":2,"visib":"6+","altim":1013,"clouds":[],"obsTime":1783976400},"SBCJ":{"icaoId":"SBCJ","flightCategory":"VFR","rawOb":"METAR SBCJ 132100Z 00000KT 9999 VCSH FEW030 FEW030TCU 28/22 Q1015","temp":28,"dewp":22,"wdir":0,"wspd":0,"visib":"6+","altim":1015,"clouds":[{"cover":"FEW","base":3000},{"cover":"FEW","base":3000}],"obsTime":1783976400},"SBKG":{"icaoId":"SBKG","flightCategory":"VFR","rawOb":"METAR SBKG 132100Z 09010KT CAVOK 25/19 Q1016","temp":25,"dewp":19,"wdir":90,"wspd":10,"visib":"6+","altim":1016,"clouds":[],"obsTime":1783976400},"SBTF":{"icaoId":"SBTF","flightCategory":"VFR","rawOb":"METAR SBTF 132100Z 00000KT 9999 FEW019 31/25 Q1011","temp":31,"dewp":25,"wdir":0,"wspd":0,"visib":"6+","altim":1011,"clouds":[{"cover":"FEW","base":1900}],"obsTime":1783976400},"SBVH":{"icaoId":"SBVH","flightCategory":"VFR","rawOb":"METAR SBVH 132100Z 17004KT 9999 FEW035 FEW040TCU 26/19 Q1017","temp":26,"dewp":19,"wdir":170,"wspd":4,"visib":"6+","altim":1017,"clouds":[{"cover":"FEW","base":3500},{"cover":"FEW","base":4000}],"obsTime":1783976400},"SBPB":{"icaoId":"SBPB","flightCategory":"VFR","rawOb":"METAR SBPB 132100Z 06008KT 9999 SCT020 BKN100 28/24 Q1012","temp":28,"dewp":24,"wdir":60,"wspd":8,"visib":"6+","altim":1012,"clouds":[{"cover":"SCT","base":2000},{"cover":"BKN","base":10000}],"obsTime":1783976400},"SBPP":{"icaoId":"SBPP","flightCategory":"VFR","rawOb":"METAR SBPP 132100Z 13003KT CAVOK 19/07 Q1020","temp":19,"dewp":7,"wdir":130,"wspd":3,"visib":"6+","altim":1020,"clouds":[],"obsTime":1783976400},"SBTU":{"icaoId":"SBTU","flightCategory":"VFR","rawOb":"METAR SBTU 132100Z AUTO 29005KT 230V360 9999 // SCT038/// BKN063/// BKN088/// 29/23 Q1013","temp":29,"dewp":23,"wdir":290,"wspd":5,"visib":"6+","altim":1013,"clouds":[{"cover":"SCT","base":3800},{"cover":"BKN","base":6300},{"cover":"BKN","base":8800}],"obsTime":1783976400},"SBJP":{"icaoId":"SBJP","flightCategory":"VFR","rawOb":"METAR SBJP 132100Z 04005KT CAVOK 26/23 Q1014","temp":26,"dewp":23,"wdir":40,"wspd":5,"visib":"6+","altim":1014,"clouds":[],"obsTime":1783976400},"SBAN":{"icaoId":"SBAN","flightCategory":"VFR","rawOb":"METAR SBAN 132100Z 22005KT 9999 FEW045 23/15 Q1020","temp":23,"dewp":15,"wdir":220,"wspd":5,"visib":"6+","altim":1020,"clouds":[{"cover":"FEW","base":4500}],"obsTime":1783976400},"SBNM":{"icaoId":"SBNM","flightCategory":"MVFR","rawOb":"METAR SBNM 132100Z AUTO 11004KT 9999 BKN026 11/07 Q1022","temp":11,"dewp":7,"wdir":110,"wspd":4,"visib":"6+","altim":1022,"clouds":[{"cover":"BKN","base":2600}],"obsTime":1783976400},"SBPF":{"icaoId":"SBPF","flightCategory":"VFR","rawOb":"METAR SBPF 132100Z 15005KT CAVOK 11/07 Q1022","temp":11,"dewp":7,"wdir":150,"wspd":5,"visib":"6+","altim":1022,"clouds":[],"obsTime":1783976400},"SBLE":{"icaoId":"SBLE","flightCategory":"VFR","rawOb":"METAR SBLE 132100Z AUTO 00000KT CAVOK 26/21 Q1015","temp":26,"dewp":21,"wdir":0,"wspd":0,"visib":"6+","altim":1015,"clouds":[],"obsTime":1783976400},"SBAF":{"icaoId":"SBAF","flightCategory":"VFR","rawOb":"METAR SBAF 132100Z 24006KT 9999 SCT025 BKN050 18/15 Q1019","temp":18,"dewp":15,"wdir":240,"wspd":6,"visib":"6+","altim":1019,"clouds":[{"cover":"SCT","base":2500},{"cover":"BKN","base":5000}],"obsTime":1783976400},"SBGW":{"icaoId":"SBGW","flightCategory":"VFR","rawOb":"METAR SBGW 132100Z 21005KT 180V250 9999 BKN035 16/07 Q1020","temp":16,"dewp":7,"wdir":210,"wspd":5,"visib":"6+","altim":1020,"clouds":[{"cover":"BKN","base":3500}],"obsTime":1783976400},"SBJR":{"icaoId":"SBJR","flightCategory":"MVFR","rawOb":"METAR SBJR 132100Z 23009KT 9999 BKN030 19/13 Q1019","temp":19,"dewp":13,"wdir":230,"wspd":9,"visib":"6+","altim":1019,"clouds":[{"cover":"BKN","base":3000}],"obsTime":1783976400},"SBLS":{"icaoId":"SBLS","flightCategory":"VFR","rawOb":"METAR SBLS 132100Z 29004KT 9999 FEW045 23/14 Q1016","temp":23,"dewp":14,"wdir":290,"wspd":4,"visib":"6+","altim":1016,"clouds":[{"cover":"FEW","base":4500}],"obsTime":1783976400},"SBMT":{"icaoId":"SBMT","flightCategory":"VFR","rawOb":"METAR SBMT 132100Z 16009KT 120V180 9999 SCT030 BKN040 12/08 Q1022","temp":12,"dewp":8,"wdir":160,"wspd":9,"visib":"6+","altim":1022,"clouds":[{"cover":"SCT","base":3000},{"cover":"BKN","base":4000}],"obsTime":1783976400},"SBTA":{"icaoId":"SBTA","flightCategory":"VFR","rawOb":"METAR SBTA 132100Z 19005KT 140V230 9999 BKN045 15/09 Q1020","temp":15,"dewp":9,"wdir":190,"wspd":5,"visib":"6+","altim":1020,"clouds":[{"cover":"BKN","base":4500}],"obsTime":1783976400},"SBJV":{"icaoId":"SBJV","flightCategory":"VFR","rawOb":"METAR SBJV 132100Z 10002KT 9999 FEW030 13/10 Q1023","temp":13,"dewp":10,"wdir":100,"wspd":2,"visib":"6+","altim":1023,"clouds":[{"cover":"FEW","base":3000}],"obsTime":1783976400},"SBIH":{"icaoId":"SBIH","flightCategory":"VFR","rawOb":"METAR SBIH 132100Z 12005KT 9999 FEW020 32/24 Q1010","temp":32,"dewp":24,"wdir":120,"wspd":5,"visib":"6+","altim":1010,"clouds":[{"cover":"FEW","base":2000}],"obsTime":1783976400},"SBST":{"icaoId":"SBST","flightCategory":"MVFR","rawOb":"METAR SBST 132100Z 24005KT 9000 BKN025 16/11 Q1022","temp":16,"dewp":11,"wdir":240,"wspd":5,"visib":5.59,"altim":1022,"clouds":[{"cover":"BKN","base":2500}],"obsTime":1783976400}}}