{"updated":1780588287,"count":88,"data":{"SBLO":{"icaoId":"SBLO","flightCategory":"VFR","rawOb":"METAR SBLO 041400Z 13006KT 090V160 CAVOK 19/14 Q1027","temp":19,"dewp":14,"wdir":130,"wspd":6,"visib":"6+","altim":1027,"clouds":[],"obsTime":1780581600},"SBEG":{"icaoId":"SBEG","flightCategory":"VFR","rawOb":"METAR SBEG 041400Z 10009KT 9999 SCT030 BKN100 29/25 Q1015","temp":29,"dewp":25,"wdir":100,"wspd":9,"visib":"6+","altim":1015,"clouds":[{"cover":"SCT","base":3000},{"cover":"BKN","base":10000}],"obsTime":1780581600},"SBFI":{"icaoId":"SBFI","flightCategory":"VFR","rawOb":"METAR SBFI 041400Z 07006KT CAVOK 20/15 Q1025","temp":20,"dewp":15,"wdir":70,"wspd":6,"visib":"6+","altim":1025,"clouds":[],"obsTime":1780581600},"SBMA":{"icaoId":"SBMA","flightCategory":"VFR","rawOb":"METAR SBMA 041400Z 09005KT 9999 SCT020 31/23 Q1015","temp":31,"dewp":23,"wdir":90,"wspd":5,"visib":"6+","altim":1015,"clouds":[{"cover":"SCT","base":2000}],"obsTime":1780581600},"SBME":{"icaoId":"SBME","flightCategory":"VFR","rawOb":"METAR SBME 041400Z 22005KT 9999 FEW013 SCT017 BKN070 22/18 Q1027","temp":22,"dewp":18,"wdir":220,"wspd":5,"visib":"6+","altim":1027,"clouds":[{"cover":"FEW","base":1300},{"cover":"SCT","base":1700},{"cover":"BKN","base":7000}],"obsTime":1780581600},"SBCG":{"icaoId":"SBCG","flightCategory":"VFR","rawOb":"METAR SBCG 041400Z 05012KT CAVOK 24/14 Q1024","temp":24,"dewp":14,"wdir":50,"wspd":12,"visib":"6+","altim":1024,"clouds":[],"obsTime":1780581600},"SBBR":{"icaoId":"SBBR","flightCategory":"VFR","rawOb":"METAR SBBR 041400Z 12014KT 9999 FEW030 22/13 Q1027","temp":22,"dewp":13,"wdir":120,"wspd":14,"visib":"6+","altim":1027,"clouds":[{"cover":"FEW","base":3000}],"obsTime":1780581600},"SBMG":{"icaoId":"SBMG","flightCategory":"VFR","rawOb":"METAR SBMG 041400Z 07010KT CAVOK 22/14 Q1026","temp":22,"dewp":14,"wdir":70,"wspd":10,"visib":"6+","altim":1026,"clouds":[],"obsTime":1780581600},"SBMK":{"icaoId":"SBMK","flightCategory":"VFR","rawOb":"METAR SBMK 041400Z 10008KT 9999 FEW030 24/13 Q1026","temp":24,"dewp":13,"wdir":100,"wspd":8,"visib":"6+","altim":1026,"clouds":[{"cover":"FEW","base":3000}],"obsTime":1780581600},"SBFL":{"icaoId":"SBFL","flightCategory":"VFR","rawOb":"METAR SBFL 041400Z 26003KT 210V300 9999 FEW025 BKN060 21/18 Q1030","temp":21,"dewp":18,"wdir":260,"wspd":3,"visib":"6+","altim":1030,"clouds":[{"cover":"FEW","base":2500},{"cover":"BKN","base":6000}],"obsTime":1780581600},"SBCP":{"icaoId":"SBCP","flightCategory":"VFR","rawOb":"METAR SBCP 041400Z 20007KT 9999 SCT010 SCT020 BKN080 23/19 Q1027","temp":23,"dewp":19,"wdir":200,"wspd":7,"visib":"6+","altim":1027,"clouds":[{"cover":"SCT","base":1000},{"cover":"SCT","base":2000},{"cover":"BKN","base":8000}],"obsTime":1780581600},"SBMO":{"icaoId":"SBMO","flightCategory":"MVFR","rawOb":"METAR SBMO 041400Z 16007KT 9999 BKN015 25/24 Q1018","temp":25,"dewp":24,"wdir":160,"wspd":7,"visib":"6+","altim":1018,"clouds":[{"cover":"BKN","base":1500}],"obsTime":1780581600},"SBMQ":{"icaoId":"SBMQ","flightCategory":"MVFR","rawOb":"METAR SBMQ 041400Z 06009KT 9999 BKN019 31/25 Q1014","temp":31,"dewp":25,"wdir":60,"wspd":9,"visib":"6+","altim":1014,"clouds":[{"cover":"BKN","base":1900}],"obsTime":1780581600},"SBFZ":{"icaoId":"SBFZ","flightCategory":"MVFR","rawOb":"METAR SBFZ 041400Z 11015KT 9999 BKN027 29/23 Q1015","temp":29,"dewp":23,"wdir":110,"wspd":15,"visib":"6+","altim":1015,"clouds":[{"cover":"BKN","base":2700}],"obsTime":1780581600},"SBGL":{"icaoId":"SBGL","flightCategory":"MVFR","rawOb":"METAR SBGL 041400Z 06002KT 9999 BKN020 FEW025TCU BKN070 21/18 Q1028","temp":21,"dewp":18,"wdir":60,"wspd":2,"visib":"6+","altim":1028,"clouds":[{"cover":"BKN","base":2000},{"cover":"FEW","base":2500},{"cover":"BKN","base":7000}],"obsTime":1780581600},"SBNT":{"icaoId":"SBNT","flightCategory":"VFR","rawOb":"METAR SBNT 041400Z 15012KT 9999 FEW039 SCT046 30/23 Q1015","temp":30,"dewp":23,"wdir":150,"wspd":12,"visib":"6+","altim":1015,"clouds":[{"cover":"FEW","base":3900},{"cover":"SCT","base":4600}],"obsTime":1780581600},"SBCB":{"icaoId":"SBCB","flightCategory":"MVFR","rawOb":"METAR SBCB 041400Z 13008KT 9999 BKN010 BKN030 24/17 Q1028","temp":24,"dewp":17,"wdir":130,"wspd":8,"visib":"6+","altim":1028,"clouds":[{"cover":"BKN","base":1000},{"cover":"BKN","base":3000}],"obsTime":1780581600},"SBPA":{"icaoId":"SBPA","flightCategory":"VFR","rawOb":"METAR SBPA 041400Z 08005KT 9999 FEW008 20/16 Q1027","temp":20,"dewp":16,"wdir":80,"wspd":5,"visib":"6+","altim":1027,"clouds":[{"cover":"FEW","base":800}],"obsTime":1780581600},"SBCR":{"icaoId":"SBCR","flightCategory":"VFR","rawOb":"METAR SBCR 041400Z 08009KT CAVOK 27/11 Q1021","temp":27,"dewp":11,"wdir":80,"wspd":9,"visib":"6+","altim":1021,"clouds":[],"obsTime":1780581600},"SBPJ":{"icaoId":"SBPJ","flightCategory":"VFR","rawOb":"METAR SBPJ 041400Z 14008KT CAVOK 31/19 Q1018","temp":31,"dewp":19,"wdir":140,"wspd":8,"visib":"6+","altim":1018,"clouds":[],"obsTime":1780581600},"SBPV":{"icaoId":"SBPV","flightCategory":"VFR","rawOb":"METAR SBPV 041400Z 12006KT CAVOK 30/19 Q1016","temp":30,"dewp":19,"wdir":120,"wspd":6,"visib":"6+","altim":1016,"clouds":[],"obsTime":1780581600},"SBGO":{"icaoId":"SBGO","flightCategory":"VFR","rawOb":"METAR SBGO 041400Z 09012KT 050V130 CAVOK 26/14 Q1025","temp":26,"dewp":14,"wdir":90,"wspd":12,"visib":"6+","altim":1025,"clouds":[],"obsTime":1780581600},"SBCF":{"icaoId":"SBCF","flightCategory":"VFR","rawOb":"METAR SBCF 041400Z 11010KT 9999 SCT025 22/13 Q1028","temp":22,"dewp":13,"wdir":110,"wspd":10,"visib":"6+","altim":1028,"clouds":[{"cover":"SCT","base":2500}],"obsTime":1780581600},"SBRB":{"icaoId":"SBRB","flightCategory":"VFR","rawOb":"METAR SBRB 041400Z 13006KT CAVOK 28/23 Q1018","temp":28,"dewp":23,"wdir":130,"wspd":6,"visib":"6+","altim":1018,"clouds":[],"obsTime":1780581600},"SBGR":{"icaoId":"SBGR","flightCategory":"MVFR","rawOb":"METAR SBGR 041400Z 06011KT 9999 BKN020 20/13 Q1030","temp":20,"dewp":13,"wdir":60,"wspd":11,"visib":"6+","altim":1030,"clouds":[{"cover":"BKN","base":2000}],"obsTime":1780581600},"SBRF":{"icaoId":"SBRF","flightCategory":"MVFR","rawOb":"METAR SBRF 041400Z 17015KT 9999 VCSH SCT013 BKN025 BKN050 28/24 Q1017","temp":28,"dewp":24,"wdir":170,"wspd":15,"visib":"6+","altim":1017,"clouds":[{"cover":"SCT","base":1300},{"cover":"BKN","base":2500},{"cover":"BKN","base":5000}],"obsTime":1780581600},"SBCT":{"icaoId":"SBCT","flightCategory":"IFR","rawOb":"METAR SBCT 041400Z 09006KT 060V130 9000 -DZ BKN007 OVC014 16/15 Q1031","temp":16,"dewp":15,"wdir":90,"wspd":6,"visib":5.59,"altim":1031,"clouds":[{"cover":"BKN","base":700},{"cover":"OVC","base":1400}],"obsTime":1780581600},"SBSG":{"icaoId":"SBSG","flightCategory":"MVFR","rawOb":"METAR SBSG 041400Z 14007KT 110V190 9999 BKN026 30/24 Q1016","temp":30,"dewp":24,"wdir":140,"wspd":7,"visib":"6+","altim":1016,"clouds":[{"cover":"BKN","base":2600}],"obsTime":1780581600},"SBHT":{"icaoId":"SBHT","flightCategory":"VFR","rawOb":"METAR SBHT 041400Z 10006KT 9999 SCT020 SCT100 30/26 Q1015","temp":30,"dewp":26,"wdir":100,"wspd":6,"visib":"6+","altim":1015,"clouds":[{"cover":"SCT","base":2000},{"cover":"SCT","base":10000}],"obsTime":1780581600},"SBSL":{"icaoId":"SBSL","flightCategory":"VFR","rawOb":"METAR SBSL 041400Z 09007KT 9999 FEW018 30/24 Q1014","temp":30,"dewp":24,"wdir":90,"wspd":7,"visib":"6+","altim":1014,"clouds":[{"cover":"FEW","base":1800}],"obsTime":1780581600},"SBSN":{"icaoId":"SBSN","flightCategory":"MVFR","rawOb":"METAR SBSN 041400Z 11009KT 9999 FEW013 BKN016 FEW023TCU 29/26 Q1014","temp":29,"dewp":26,"wdir":110,"wspd":9,"visib":"6+","altim":1014,"clouds":[{"cover":"FEW","base":1300},{"cover":"BKN","base":1600},{"cover":"FEW","base":2300}],"obsTime":1780581600},"SBBE":{"icaoId":"SBBE","flightCategory":"VFR","rawOb":"METAR SBBE 041400Z 08011KT 9999 SCT025 30/24 Q1015","temp":30,"dewp":24,"wdir":80,"wspd":11,"visib":"6+","altim":1015,"clouds":[{"cover":"SCT","base":2500}],"obsTime":1780581600},"SBIL":{"icaoId":"SBIL","flightCategory":"VFR","rawOb":"METAR SBIL 041400Z 21012KT 9999 SCT020 27/22 Q1022","temp":27,"dewp":22,"wdir":210,"wspd":12,"visib":"6+","altim":1022,"clouds":[{"cover":"SCT","base":2000}],"obsTime":1780581600},"SBSP":{"icaoId":"SBSP","flightCategory":"MVFR","rawOb":"METAR SBSP 041400Z 10007KT 060V140 9999 BKN023 19/13 Q1031","temp":19,"dewp":13,"wdir":100,"wspd":7,"visib":"6+","altim":1031,"clouds":[{"cover":"BKN","base":2300}],"obsTime":1780581600},"SBJU":{"icaoId":"SBJU","flightCategory":"VFR","rawOb":"METAR SBJU 041400Z 15014KT 9999 SCT022 27/20 Q1019","temp":27,"dewp":20,"wdir":150,"wspd":14,"visib":"6+","altim":1019,"clouds":[{"cover":"SCT","base":2200}],"obsTime":1780581600},"SBSV":{"icaoId":"SBSV","flightCategory":"VFR","rawOb":"METAR SBSV 041400Z 18011KT 150V230 9999 VCSH SCT023 FEW025TCU BKN070 28/22 Q1020","temp":28,"dewp":22,"wdir":180,"wspd":11,"visib":"6+","altim":1020,"clouds":[{"cover":"SCT","base":2300},{"cover":"FEW","base":2500},{"cover":"BKN","base":7000}],"obsTime":1780581600},"SBCZ":{"icaoId":"SBCZ","flightCategory":"VFR","rawOb":"METAR SBCZ 041400Z 15003KT 9999 FEW015 BKN100 26/24 Q1018","temp":26,"dewp":24,"wdir":150,"wspd":3,"visib":"6+","altim":1018,"clouds":[{"cover":"FEW","base":1500},{"cover":"BKN","base":10000}],"obsTime":1780581600},"SBTE":{"icaoId":"SBTE","flightCategory":"VFR","rawOb":"METAR SBTE 041400Z 12009KT 090V170 9999 FEW020 31/22 Q1015","temp":31,"dewp":22,"wdir":120,"wspd":9,"visib":"6+","altim":1015,"clouds":[{"cover":"FEW","base":2000}],"obsTime":1780581600},"SBUL":{"icaoId":"SBUL","flightCategory":"VFR","rawOb":"METAR SBUL 041400Z 12009KT 060V170 9999 FEW025 22/14 Q1028","temp":22,"dewp":14,"wdir":120,"wspd":9,"visib":"6+","altim":1028,"clouds":[{"cover":"FEW","base":2500}],"obsTime":1780581600},"SBKP":{"icaoId":"SBKP","flightCategory":"VFR","rawOb":"METAR SBKP 041400Z 12008KT CAVOK 21/14 Q1028","temp":21,"dewp":14,"wdir":120,"wspd":8,"visib":"6+","altim":1028,"clouds":[],"obsTime":1780581600},"SBUR":{"icaoId":"SBUR","flightCategory":"VFR","rawOb":"METAR SBUR 041400Z 06008KT CAVOK 24/14 Q1027","temp":24,"dewp":14,"wdir":60,"wspd":8,"visib":"6+","altim":1027,"clouds":[],"obsTime":1780581600},"SBBV":{"icaoId":"SBBV","flightCategory":"MVFR","rawOb":"METAR SBBV 041400Z 10008KT 9999 BKN015 FEW030TCU BKN070 28/25 Q1015","temp":28,"dewp":25,"wdir":100,"wspd":8,"visib":"6+","altim":1015,"clouds":[{"cover":"BKN","base":1500},{"cover":"FEW","base":3000},{"cover":"BKN","base":7000}],"obsTime":1780581600},"SBVT":{"icaoId":"SBVT","flightCategory":"MVFR","rawOb":"METAR SBVT 041400Z 22002KT 5000 -RA BR SCT003 BKN013 OVC033 20/19 Q1026 RERA","temp":20,"dewp":19,"wdir":220,"wspd":2,"visib":3.11,"altim":1026,"clouds":[{"cover":"SCT","base":300},{"cover":"BKN","base":1300},{"cover":"OVC","base":3300}],"obsTime":1780581600},"SBAT":{"icaoId":"SBAT","flightCategory":"VFR","rawOb":"METAR SBAT 041400Z 13010KT CAVOK 32/21 Q1017","temp":32,"dewp":21,"wdir":130,"wspd":10,"visib":"6+","altim":1017,"clouds":[],"obsTime":1780581600},"SBOI":{"icaoId":"SBOI","flightCategory":"VFR","rawOb":"METAR SBOI 041400Z AUTO 17005KT 140V200 CAVOK 28/25 Q1015","temp":28,"dewp":25,"wdir":170,"wspd":5,"visib":"6+","altim":1015,"clouds":[],"obsTime":1780581600},"SBPB":{"icaoId":"SBPB","flightCategory":"VFR","rawOb":"METAR SBPB 041400Z 12010KT 9999 SCT020 30/25 Q1014","temp":30,"dewp":25,"wdir":120,"wspd":10,"visib":"6+","altim":1014,"clouds":[{"cover":"SCT","base":2000}],"obsTime":1780581600},"SBBU":{"icaoId":"SBBU","flightCategory":"VFR","rawOb":"METAR SBBU 041400Z 11007KT CAVOK 23/16 Q1027","temp":23,"dewp":16,"wdir":110,"wspd":7,"visib":"6+","altim":1027,"clouds":[],"obsTime":1780581600},"SBPL":{"icaoId":"SBPL","flightCategory":"VFR","rawOb":"METAR SBPL 041400Z 12013KT 9999 SCT025 29/17 Q1019","temp":29,"dewp":17,"wdir":120,"wspd":13,"visib":"6+","altim":1019,"clouds":[{"cover":"SCT","base":2500}],"obsTime":1780581600},"SBDN":{"icaoId":"SBDN","flightCategory":"VFR","rawOb":"METAR SBDN 041400Z 09011KT CAVOK 22/14 Q1026","temp":22,"dewp":14,"wdir":90,"wspd":11,"visib":"6+","altim":1026,"clouds":[],"obsTime":1780581600},"SBCO":{"icaoId":"SBCO","flightCategory":"VFR","rawOb":"METAR SBCO 041400Z 10004KT 060V140 CAVOK 20/16 Q1028","temp":20,"dewp":16,"wdir":100,"wspd":4,"visib":"6+","altim":1028,"clouds":[],"obsTime":1780581600},"SBPP":{"icaoId":"SBPP","flightCategory":"IFR","rawOb":"METAR SBPP 041400Z 05014KT 3000 BR OVC005 16/15 Q1024","temp":16,"dewp":15,"wdir":50,"wspd":14,"visib":1.86,"altim":1024,"clouds":[{"cover":"OVC","base":500}],"obsTime":1780581600},"SBBH":{"icaoId":"SBBH","flightCategory":"VFR","rawOb":"METAR SBBH 041400Z 11009KT 9999 FEW040 21/13 Q1028","temp":21,"dewp":13,"wdir":110,"wspd":9,"visib":"6+","altim":1028,"clouds":[{"cover":"FEW","base":4000}],"obsTime":1780581600},"SBPS":{"icaoId":"SBPS","flightCategory":"VFR","rawOb":"METAR SBPS 041400Z 23004KT 9999 SCT020 BKN070 27/21 Q1022","temp":27,"dewp":21,"wdir":230,"wspd":4,"visib":"6+","altim":1022,"clouds":[{"cover":"SCT","base":2000},{"cover":"BKN","base":7000}],"obsTime":1780581600},"SBSC":{"icaoId":"SBSC","flightCategory":"MVFR","rawOb":"METAR SBSC 041400Z 14003KT 8000 SCT015 BKN030 OVC050 21/18 Q1028","temp":21,"dewp":18,"wdir":140,"wspd":3,"visib":4.97,"altim":1028,"clouds":[{"cover":"SCT","base":1500},{"cover":"BKN","base":3000},{"cover":"OVC","base":5000}],"obsTime":1780581600},"SBES":{"icaoId":"SBES","flightCategory":"VFR","rawOb":"METAR SBES 041400Z VRB01KT 9999 FEW015 SCT033 BKN050 21/// Q1028","temp":null,"dewp":null,"wdir":"VRB","wspd":1,"visib":"6+","altim":1028,"clouds":[{"cover":"FEW","base":1500},{"cover":"SCT","base":3300},{"cover":"BKN","base":5000}],"obsTime":1780581600},"SBAX":{"icaoId":"SBAX","flightCategory":"VFR","rawOb":"METAR SBAX 041400Z AUTO 10009KT 070V130 9999 SCT019 20/14 Q1028","temp":20,"dewp":14,"wdir":100,"wspd":9,"visib":"6+","altim":1028,"clouds":[{"cover":"SCT","base":1900}],"obsTime":1780581600},"SBSJ":{"icaoId":"SBSJ","flightCategory":"MVFR","rawOb":"METAR SBSJ 041400Z 36003KT 9999 FEW020 BKN030 19/14 Q1030","temp":19,"dewp":14,"wdir":360,"wspd":3,"visib":"6+","altim":1030,"clouds":[{"cover":"FEW","base":2000},{"cover":"BKN","base":3000}],"obsTime":1780581600},"SBAR":{"icaoId":"SBAR","flightCategory":"MVFR","rawOb":"METAR SBAR 041400Z 15009KT 110V180 9999 BKN023 SCT070 29/22 Q1018","temp":29,"dewp":22,"wdir":150,"wspd":9,"visib":"6+","altim":1018,"clouds":[{"cover":"BKN","base":2300},{"cover":"SCT","base":7000}],"obsTime":1780581600},"SBSM":{"icaoId":"SBSM","flightCategory":"LIFR","rawOb":"METAR SBSM 041400Z 11004KT 4000 BR BKN003 14/14 Q1027","temp":14,"dewp":14,"wdir":110,"wspd":4,"visib":2.49,"altim":1027,"clouds":[{"cover":"BKN","base":300}],"obsTime":1780581600},"SBSR":{"icaoId":"SBSR","flightCategory":"VFR","rawOb":"METAR SBSR 041400Z 09006KT CAVOK 23/14 Q1026","temp":23,"dewp":14,"wdir":90,"wspd":6,"visib":"6+","altim":1026,"clouds":[],"obsTime":1780581600},"SBGM":{"icaoId":"SBGM","flightCategory":"VFR","rawOb":"METAR SBGM 041400Z 11008KT CAVOK 29/17 Q1018","temp":29,"dewp":17,"wdir":110,"wspd":8,"visib":"6+","altim":1018,"clouds":[],"obsTime":1780581600},"SBIP":{"icaoId":"SBIP","flightCategory":"VFR","rawOb":"METAR SBIP 041400Z AUTO 23004KT 180V280 CAVOK 24/15 Q1026","temp":24,"dewp":15,"wdir":230,"wspd":4,"visib":"6+","altim":1026,"clouds":[],"obsTime":1780581600},"SBTD":{"icaoId":"SBTD","flightCategory":"VFR","rawOb":"METAR SBTD 041400Z /////KT CAVOK 22/10 Q1026","temp":22,"dewp":10,"wdir":null,"wspd":null,"visib":"6+","altim":1026,"clouds":[],"obsTime":1780581600},"SBTF":{"icaoId":"SBTF","flightCategory":"VFR","rawOb":"METAR SBTF 041400Z 13009KT 9999 FEW008 BKN090 28/25 Q1015","temp":28,"dewp":25,"wdir":130,"wspd":9,"visib":"6+","altim":1015,"clouds":[{"cover":"FEW","base":800},{"cover":"BKN","base":9000}],"obsTime":1780581600},"SBCC":{"icaoId":"SBCC","flightCategory":"VFR","rawOb":"METAR SBCC 041400Z 07014KT CAVOK 30/19 Q1018","temp":30,"dewp":19,"wdir":70,"wspd":14,"visib":"6+","altim":1018,"clouds":[],"obsTime":1780581600},"SBKG":{"icaoId":"SBKG","flightCategory":"MVFR","rawOb":"METAR SBKG 041400Z 11009KT 9999 VCSH FEW012 BKN015 25/22 Q1019","temp":25,"dewp":22,"wdir":110,"wspd":9,"visib":"6+","altim":1019,"clouds":[{"cover":"FEW","base":1200},{"cover":"BKN","base":1500}],"obsTime":1780581600},"SBTT":{"icaoId":"SBTT","flightCategory":"VFR","rawOb":"METAR SBTT 041400Z 24003KT CAVOK 27/23 Q1016","temp":27,"dewp":23,"wdir":240,"wspd":3,"visib":"6+","altim":1016,"clouds":[],"obsTime":1780581600},"SBTU":{"icaoId":"SBTU","flightCategory":"VFR","rawOb":"METAR SBTU 041400Z AUTO 23006KT 190V290 9999 // FEW018/// ///// Q1016","temp":null,"dewp":null,"wdir":230,"wspd":6,"visib":"6+","altim":1016,"clouds":[{"cover":"FEW","base":1800}],"obsTime":1780581600},"SBBQ":{"icaoId":"SBBQ","flightCategory":"MVFR","rawOb":"METAR SBBQ 041400Z 09007KT 050V190 9999 OVC021 17/11 Q1032","temp":17,"dewp":11,"wdir":90,"wspd":7,"visib":"6+","altim":1032,"clouds":[{"cover":"OVC","base":2100}],"obsTime":1780581600},"SBUY":{"icaoId":"SBUY","flightCategory":"VFR","rawOb":"METAR SBUY 041400Z 19004KT CAVOK 29/23 Q1014","temp":29,"dewp":23,"wdir":190,"wspd":4,"visib":"6+","altim":1014,"clouds":[],"obsTime":1780581600},"SBCJ":{"icaoId":"SBCJ","flightCategory":"VFR","rawOb":"METAR SBCJ 041400Z 12009KT 9999 FEW020 28/20 Q1020","temp":28,"dewp":20,"wdir":120,"wspd":9,"visib":"6+","altim":1020,"clouds":[{"cover":"FEW","base":2000}],"obsTime":1780581600},"SBVH":{"icaoId":"SBVH","flightCategory":"VFR","rawOb":"METAR SBVH 041400Z 10011KT CAVOK 26/17 Q1021","temp":26,"dewp":17,"wdir":100,"wspd":11,"visib":"6+","altim":1021,"clouds":[],"obsTime":1780581600},"SBAU":{"icaoId":"SBAU","flightCategory":"VFR","rawOb":"METAR SBAU 041400Z 12014KT CAVOK 24/17 Q1025","temp":24,"dewp":17,"wdir":120,"wspd":14,"visib":"6+","altim":1025,"clouds":[],"obsTime":1780581600},"SBCA":{"icaoId":"SBCA","flightCategory":"VFR","rawOb":"METAR SBCA 041400Z 07007G17KT CAVOK 19/12 Q1027","temp":19,"dewp":12,"wdir":70,"wspd":7,"visib":"6+","altim":1027,"clouds":[],"obsTime":1780581600},"SBLE":{"icaoId":"SBLE","flightCategory":"MVFR","rawOb":"METAR SBLE 041400Z AUTO 15007KT 080V190 9999 FEW019 BKN022 22/22 Q1024","temp":22,"dewp":22,"wdir":150,"wspd":7,"visib":"6+","altim":1024,"clouds":[{"cover":"FEW","base":1900},{"cover":"BKN","base":2200}],"obsTime":1780581600},"SBST":{"icaoId":"SBST","flightCategory":"VFR","rawOb":"METAR SBST 041400Z 15006KT 9999 SCT043 22/17 Q1028","temp":22,"dewp":17,"wdir":150,"wspd":6,"visib":"6+","altim":1028,"clouds":[{"cover":"SCT","base":4300}],"obsTime":1780581600},"SBTA":{"icaoId":"SBTA","flightCategory":"VFR","rawOb":"METAR SBTA 041400Z 14003KT 080V190 9999 SCT025 BKN035 20/14 Q1028","temp":20,"dewp":14,"wdir":140,"wspd":3,"visib":"6+","altim":1028,"clouds":[{"cover":"SCT","base":2500},{"cover":"BKN","base":3500}],"obsTime":1780581600},"SBJV":{"icaoId":"SBJV","flightCategory":"LIFR","rawOb":"METAR SBJV 041400Z 26002KT 5000 -RA BR BKN004 OVC020 19/19 Q1029","temp":19,"dewp":19,"wdir":260,"wspd":2,"visib":3.11,"altim":1029,"clouds":[{"cover":"BKN","base":400},{"cover":"OVC","base":2000}],"obsTime":1780581600},"SBNM":{"icaoId":"SBNM","flightCategory":"VFR","rawOb":"METAR SBNM 041400Z 06005KT CAVOK 19/13 Q1027","temp":19,"dewp":13,"wdir":60,"wspd":5,"visib":"6+","altim":1027,"clouds":[],"obsTime":1780581600},"SBAN":{"icaoId":"SBAN","flightCategory":"VFR","rawOb":"METAR SBAN 041400Z 11013KT CAVOK 22/14 Q1028","temp":22,"dewp":14,"wdir":110,"wspd":13,"visib":"6+","altim":1028,"clouds":[],"obsTime":1780581600},"SBAF":{"icaoId":"SBAF","flightCategory":"VFR","rawOb":"METAR SBAF 041400Z 09003KT 9999 DZ FEW013 SCT023 BKN050 21/21 Q1028","temp":21,"dewp":21,"wdir":90,"wspd":3,"visib":"6+","altim":1028,"clouds":[{"cover":"FEW","base":1300},{"cover":"SCT","base":2300},{"cover":"BKN","base":5000}],"obsTime":1780581600},"SBJP":{"icaoId":"SBJP","flightCategory":"MVFR","rawOb":"METAR SBJP 041400Z 13012KT 100V170 8000 VCSH SCT015 BKN017 28/25 Q1017","temp":28,"dewp":25,"wdir":130,"wspd":12,"visib":4.97,"altim":1017,"clouds":[{"cover":"SCT","base":1500},{"cover":"BKN","base":1700}],"obsTime":1780581600},"SBGW":{"icaoId":"SBGW","flightCategory":"VFR","rawOb":"METAR SBGW 041400Z 06005KT 9999 BKN040 21/12 Q1029","temp":21,"dewp":12,"wdir":60,"wspd":5,"visib":"6+","altim":1029,"clouds":[{"cover":"BKN","base":4000}],"obsTime":1780581600},"SBJR":{"icaoId":"SBJR","flightCategory":"VFR","rawOb":"METAR SBJR 041400Z 29001KT 9000 VCSH FEW010 SCT030 BKN070 23/20 Q1028","temp":23,"dewp":20,"wdir":290,"wspd":1,"visib":5.59,"altim":1028,"clouds":[{"cover":"FEW","base":1000},{"cover":"SCT","base":3000},{"cover":"BKN","base":7000}],"obsTime":1780581600},"SBLS":{"icaoId":"SBLS","flightCategory":"VFR","rawOb":"METAR SBLS 041400Z 14010KT 070V150 9999 SCT025 21/13 Q1028","temp":21,"dewp":13,"wdir":140,"wspd":10,"visib":"6+","altim":1028,"clouds":[{"cover":"SCT","base":2500}],"obsTime":1780581600},"SBIH":{"icaoId":"SBIH","flightCategory":"VFR","rawOb":"METAR SBIH 041400Z 05007KT 9999 SCT018 30/26 Q1014","temp":30,"dewp":26,"wdir":50,"wspd":7,"visib":"6+","altim":1014,"clouds":[{"cover":"SCT","base":1800}],"obsTime":1780581600},"SBMT":{"icaoId":"SBMT","flightCategory":"MVFR","rawOb":"METAR SBMT 041400Z 09009KT 9999 BKN023 18/13 Q1030","temp":18,"dewp":13,"wdir":90,"wspd":9,"visib":"6+","altim":1030,"clouds":[{"cover":"BKN","base":2300}],"obsTime":1780581600},"SBPF":{"icaoId":"SBPF","flightCategory":"VFR","rawOb":"METAR SBPF 041400Z 03015KT CAVOK 16/10 Q1029","temp":16,"dewp":10,"wdir":30,"wspd":15,"visib":"6+","altim":1029,"clouds":[],"obsTime":1780581600}}}