{"updated":1774460859,"count":87,"data":{"SBEG":{"icaoId":"SBEG","flightCategory":"MVFR","rawOb":"METAR SBEG 251600Z 09013KT 7000 -TSRA BKN020 FEW025CB 25/24 Q1010 RERA","temp":25,"dewp":24,"wdir":90,"wspd":13,"visib":4.35,"altim":1010,"clouds":[{"cover":"BKN","base":2000},{"cover":"FEW","base":2500}],"obsTime":1774454400},"SBCG":{"icaoId":"SBCG","flightCategory":"MVFR","rawOb":"METAR SBCG 251600Z 27006KT 220V320 9999 VCSH BKN030 FEW035TCU SCT100 30/23 Q1014","temp":30,"dewp":23,"wdir":270,"wspd":6,"visib":"6+","altim":1014,"clouds":[{"cover":"BKN","base":3000},{"cover":"FEW","base":3500},{"cover":"SCT","base":10000}],"obsTime":1774454400},"SBMQ":{"icaoId":"SBMQ","flightCategory":"VFR","rawOb":"METAR SBMQ 251600Z 05014KT 020V080 9999 VCTS SCT020 FEW025CB SCT070 32/24 Q1011","temp":32,"dewp":24,"wdir":50,"wspd":14,"visib":"6+","altim":1011,"clouds":[{"cover":"SCT","base":2000},{"cover":"FEW","base":2500},{"cover":"SCT","base":7000}],"obsTime":1774454400},"SBBR":{"icaoId":"SBBR","flightCategory":"MVFR","rawOb":"METAR SBBR 251600Z 05008KT 350V090 9999 BKN020 FEW030TCU SCT090 24/18 Q1019","temp":24,"dewp":18,"wdir":50,"wspd":8,"visib":"6+","altim":1019,"clouds":[{"cover":"BKN","base":2000},{"cover":"FEW","base":3000},{"cover":"SCT","base":9000}],"obsTime":1774454400},"SBBV":{"icaoId":"SBBV","flightCategory":"VFR","rawOb":"METAR SBBV 251600Z 11014KT 9999 BKN040 FEW045TCU 32/20 Q1009","temp":32,"dewp":20,"wdir":110,"wspd":14,"visib":"6+","altim":1009,"clouds":[{"cover":"BKN","base":4000},{"cover":"FEW","base":4500}],"obsTime":1774454400},"SBCT":{"icaoId":"SBCT","flightCategory":"VFR","rawOb":"METAR SBCT 251600Z 06006KT 350V130 9999 SCT030 26/19 Q1019","temp":26,"dewp":19,"wdir":60,"wspd":6,"visib":"6+","altim":1019,"clouds":[{"cover":"SCT","base":3000}],"obsTime":1774454400},"SBAT":{"icaoId":"SBAT","flightCategory":"VFR","rawOb":"METAR SBAT 251600Z 06006KT 9999 SCT025 BKN100 30/24 Q1012","temp":30,"dewp":24,"wdir":60,"wspd":6,"visib":"6+","altim":1012,"clouds":[{"cover":"SCT","base":2500},{"cover":"BKN","base":10000}],"obsTime":1774454400},"SBBE":{"icaoId":"SBBE","flightCategory":"VFR","rawOb":"METAR SBBE 251600Z 08008KT 9999 SCT029 30/23 Q1011","temp":30,"dewp":23,"wdir":80,"wspd":8,"visib":"6+","altim":1011,"clouds":[{"cover":"SCT","base":2900}],"obsTime":1774454400},"SBCB":{"icaoId":"SBCB","flightCategory":"VFR","rawOb":"METAR SBCB 251600Z 07015KT 9999 FEW025 30/23 Q1014","temp":30,"dewp":23,"wdir":70,"wspd":15,"visib":"6+","altim":1014,"clouds":[{"cover":"FEW","base":2500}],"obsTime":1774454400},"SBCF":{"icaoId":"SBCF","flightCategory":"VFR","rawOb":"METAR SBCF 251600Z 05006KT 9999 BKN040 27/18 Q1019","temp":27,"dewp":18,"wdir":50,"wspd":6,"visib":"6+","altim":1019,"clouds":[{"cover":"BKN","base":4000}],"obsTime":1774454400},"SBCP":{"icaoId":"SBCP","flightCategory":"VFR","rawOb":"METAR SBCP 251600Z 08014KT CAVOK 31/22 Q1015","temp":31,"dewp":22,"wdir":80,"wspd":14,"visib":"6+","altim":1015,"clouds":[],"obsTime":1774454400},"SBCR":{"icaoId":"SBCR","flightCategory":"MVFR","rawOb":"METAR SBCR 251600Z 01005KT 340V060 9999 BKN020 BKN080 29/24 Q1012","temp":29,"dewp":24,"wdir":10,"wspd":5,"visib":"6+","altim":1012,"clouds":[{"cover":"BKN","base":2000},{"cover":"BKN","base":8000}],"obsTime":1774454400},"SBCZ":{"icaoId":"SBCZ","flightCategory":"MVFR","rawOb":"METAR SBCZ 251600Z 30003KT 9999 BKN025 31/24 Q1010","temp":31,"dewp":24,"wdir":300,"wspd":3,"visib":"6+","altim":1010,"clouds":[{"cover":"BKN","base":2500}],"obsTime":1774454400},"SBFI":{"icaoId":"SBFI","flightCategory":"VFR","rawOb":"METAR SBFI 251600Z 06003KT 9999 SCT030 32/25 Q1012","temp":32,"dewp":25,"wdir":60,"wspd":3,"visib":"6+","altim":1012,"clouds":[{"cover":"SCT","base":3000}],"obsTime":1774454400},"SBFL":{"icaoId":"SBFL","flightCategory":"VFR","rawOb":"METAR SBFL 251600Z 01005KT 9999 FEW030 30/22 Q1014","temp":30,"dewp":22,"wdir":10,"wspd":5,"visib":"6+","altim":1014,"clouds":[{"cover":"FEW","base":3000}],"obsTime":1774454400},"SBFZ":{"icaoId":"SBFZ","flightCategory":"VFR","rawOb":"METAR SBFZ 251600Z 09011KT 9999 SCT025 31/23 Q1010","temp":31,"dewp":23,"wdir":90,"wspd":11,"visib":"6+","altim":1010,"clouds":[{"cover":"SCT","base":2500}],"obsTime":1774454400},"SBGL":{"icaoId":"SBGL","flightCategory":"VFR","rawOb":"METAR SBGL 251600Z 13007KT 9999 FEW035 33/22 Q1013","temp":33,"dewp":22,"wdir":130,"wspd":7,"visib":"6+","altim":1013,"clouds":[{"cover":"FEW","base":3500}],"obsTime":1774454400},"SBGO":{"icaoId":"SBGO","flightCategory":"MVFR","rawOb":"METAR SBGO 251600Z 30008KT 260V330 9999 BKN030 FEW035TCU BKN100 28/21 Q1016","temp":28,"dewp":21,"wdir":300,"wspd":8,"visib":"6+","altim":1016,"clouds":[{"cover":"BKN","base":3000},{"cover":"FEW","base":3500},{"cover":"BKN","base":10000}],"obsTime":1774454400},"SBGR":{"icaoId":"SBGR","flightCategory":"VFR","rawOb":"METAR SBGR 251600Z 32007KT 260V040 9999 BKN048 30/18 Q1017","temp":30,"dewp":18,"wdir":320,"wspd":7,"visib":"6+","altim":1017,"clouds":[{"cover":"BKN","base":4800}],"obsTime":1774454400},"SBHT":{"icaoId":"SBHT","flightCategory":"MVFR","rawOb":"METAR SBHT 251600Z 11008KT 9999 BKN025 31/24 Q1012","temp":31,"dewp":24,"wdir":110,"wspd":8,"visib":"6+","altim":1012,"clouds":[{"cover":"BKN","base":2500}],"obsTime":1774454400},"SBIL":{"icaoId":"SBIL","flightCategory":"MVFR","rawOb":"METAR SBIL 251600Z 18009KT 150V210 8000 VCSH BKN024 FEW027TCU BKN070 29/25 Q1014","temp":29,"dewp":25,"wdir":180,"wspd":9,"visib":4.97,"altim":1014,"clouds":[{"cover":"BKN","base":2400},{"cover":"FEW","base":2700},{"cover":"BKN","base":7000}],"obsTime":1774454400},"SBJU":{"icaoId":"SBJU","flightCategory":"MVFR","rawOb":"METAR SBJU 251600Z 09005KT 9999 BKN022 30/22 Q1013","temp":30,"dewp":22,"wdir":90,"wspd":5,"visib":"6+","altim":1013,"clouds":[{"cover":"BKN","base":2200}],"obsTime":1774454400},"SBKP":{"icaoId":"SBKP","flightCategory":"VFR","rawOb":"METAR SBKP 251600Z 01008KT 330V060 9999 BKN040 30/18 Q1016","temp":30,"dewp":18,"wdir":10,"wspd":8,"visib":"6+","altim":1016,"clouds":[{"cover":"BKN","base":4000}],"obsTime":1774454400},"SBLO":{"icaoId":"SBLO","flightCategory":"VFR","rawOb":"METAR SBLO 251600Z 04004KT 320V110 9999 FEW035 BKN072 28/20 Q1015","temp":28,"dewp":20,"wdir":40,"wspd":4,"visib":"6+","altim":1015,"clouds":[{"cover":"FEW","base":3500},{"cover":"BKN","base":7200}],"obsTime":1774454400},"SBMA":{"icaoId":"SBMA","flightCategory":"MVFR","rawOb":"METAR SBMA 251600Z 03006KT 9999 FEW015 BKN020 BKN100 28/25 Q1012","temp":28,"dewp":25,"wdir":30,"wspd":6,"visib":"6+","altim":1012,"clouds":[{"cover":"FEW","base":1500},{"cover":"BKN","base":2000},{"cover":"BKN","base":10000}],"obsTime":1774454400},"SBME":{"icaoId":"SBME","flightCategory":"VFR","rawOb":"METAR SBME 251600Z 05011KT 050V120 9999 FEW040 34/21 Q1014","temp":34,"dewp":21,"wdir":50,"wspd":11,"visib":"6+","altim":1014,"clouds":[{"cover":"FEW","base":4000}],"obsTime":1774454400},"SBMG":{"icaoId":"SBMG","flightCategory":"VFR","rawOb":"METAR SBMG 251600Z VRB03KT 9999 FEW025 29/20 Q1014","temp":29,"dewp":20,"wdir":"VRB","wspd":3,"visib":"6+","altim":1014,"clouds":[{"cover":"FEW","base":2500}],"obsTime":1774454400},"SBMK":{"icaoId":"SBMK","flightCategory":"VFR","rawOb":"METAR SBMK 251600Z 23003KT 9999 -RA FEW020 24/21 Q1018","temp":24,"dewp":21,"wdir":230,"wspd":3,"visib":"6+","altim":1018,"clouds":[{"cover":"FEW","base":2000}],"obsTime":1774454400},"SBMO":{"icaoId":"SBMO","flightCategory":"VFR","rawOb":"METAR SBMO 251600Z 11010KT 060V150 9999 SCT040 32/22 Q1011","temp":32,"dewp":22,"wdir":110,"wspd":10,"visib":"6+","altim":1011,"clouds":[{"cover":"SCT","base":4000}],"obsTime":1774454400},"SBNT":{"icaoId":"SBNT","flightCategory":"VFR","rawOb":"METAR SBNT 251600Z 10013KT 9999 FEW030 32/22 Q1010","temp":32,"dewp":22,"wdir":100,"wspd":13,"visib":"6+","altim":1010,"clouds":[{"cover":"FEW","base":3000}],"obsTime":1774454400},"SBPA":{"icaoId":"SBPA","flightCategory":"MVFR","rawOb":"METAR SBPA 251600Z 22007KT 190V250 9999 BKN017 26/23 Q1013","temp":26,"dewp":23,"wdir":220,"wspd":7,"visib":"6+","altim":1013,"clouds":[{"cover":"BKN","base":1700}],"obsTime":1774454400},"SBPJ":{"icaoId":"SBPJ","flightCategory":"VFR","rawOb":"METAR SBPJ 251600Z 20006KT 9999 FEW020 SCT050 BKN100 27/24 Q1014","temp":27,"dewp":24,"wdir":200,"wspd":6,"visib":"6+","altim":1014,"clouds":[{"cover":"FEW","base":2000},{"cover":"SCT","base":5000},{"cover":"BKN","base":10000}],"obsTime":1774454400},"SBPV":{"icaoId":"SBPV","flightCategory":"VFR","rawOb":"METAR SBPV 251600Z 06004KT 020V150 9999 SCT030 29/22 Q1009","temp":29,"dewp":22,"wdir":60,"wspd":4,"visib":"6+","altim":1009,"clouds":[{"cover":"SCT","base":3000}],"obsTime":1774454400},"SBRB":{"icaoId":"SBRB","flightCategory":"MVFR","rawOb":"METAR SBRB 251600Z VRB03KT 9999 BKN020 29/25 Q1011","temp":29,"dewp":25,"wdir":"VRB","wspd":3,"visib":"6+","altim":1011,"clouds":[{"cover":"BKN","base":2000}],"obsTime":1774454400},"SBRF":{"icaoId":"SBRF","flightCategory":"VFR","rawOb":"METAR SBRF 251600Z 25003KT 180V290 9999 SCT025 BKN070 28/22 Q1011","temp":28,"dewp":22,"wdir":250,"wspd":3,"visib":"6+","altim":1011,"clouds":[{"cover":"SCT","base":2500},{"cover":"BKN","base":7000}],"obsTime":1774454400},"SBSG":{"icaoId":"SBSG","flightCategory":"VFR","rawOb":"METAR SBSG 251600Z 12009KT 090V160 9999 SCT030 32/21 Q1011","temp":32,"dewp":21,"wdir":120,"wspd":9,"visib":"6+","altim":1011,"clouds":[{"cover":"SCT","base":3000}],"obsTime":1774454400},"SBSL":{"icaoId":"SBSL","flightCategory":"VFR","rawOb":"METAR SBSL 251600Z 04011KT 9999 SCT030 30/26 Q1010","temp":30,"dewp":26,"wdir":40,"wspd":11,"visib":"6+","altim":1010,"clouds":[{"cover":"SCT","base":3000}],"obsTime":1774454400},"SBSN":{"icaoId":"SBSN","flightCategory":"VFR","rawOb":"METAR SBSN 251600Z 09019KT 9999 SCT020 31/25 Q1010","temp":31,"dewp":25,"wdir":90,"wspd":19,"visib":"6+","altim":1010,"clouds":[{"cover":"SCT","base":2000}],"obsTime":1774454400},"SBSP":{"icaoId":"SBSP","flightCategory":"VFR","rawOb":"METAR SBSP 251600Z 01005KT 280V070 9999 SCT043 SCT100 29/17 Q1018","temp":29,"dewp":17,"wdir":10,"wspd":5,"visib":"6+","altim":1018,"clouds":[{"cover":"SCT","base":4300},{"cover":"SCT","base":10000}],"obsTime":1774454400},"SBSV":{"icaoId":"SBSV","flightCategory":"VFR","rawOb":"METAR SBSV 251600Z COR 14009KT 110V170 9999 VCSH SCT024 FEW025TCU BKN080 30/22 Q1013","temp":30,"dewp":22,"wdir":140,"wspd":9,"visib":"6+","altim":1013,"clouds":[{"cover":"SCT","base":2400},{"cover":"FEW","base":2500},{"cover":"BKN","base":8000}],"obsTime":1774454400},"SBTE":{"icaoId":"SBTE","flightCategory":"MVFR","rawOb":"METAR SBTE 251600Z 21008KT 9999 BKN020 30/24 Q1010","temp":30,"dewp":24,"wdir":210,"wspd":8,"visib":"6+","altim":1010,"clouds":[{"cover":"BKN","base":2000}],"obsTime":1774454400},"SBUL":{"icaoId":"SBUL","flightCategory":"VFR","rawOb":"METAR SBUL 251600Z 08010KT 020V120 9999 SCT026 FEW030TCU BKN100 27/19 Q1018","temp":27,"dewp":19,"wdir":80,"wspd":10,"visib":"6+","altim":1018,"clouds":[{"cover":"SCT","base":2600},{"cover":"FEW","base":3000},{"cover":"BKN","base":10000}],"obsTime":1774454400},"SBUR":{"icaoId":"SBUR","flightCategory":"VFR","rawOb":"METAR SBUR 251600Z COR 02009KT 9999 VCSH SCT036 FEW038TCU 27/19 Q1017","temp":27,"dewp":19,"wdir":20,"wspd":9,"visib":"6+","altim":1017,"clouds":[{"cover":"SCT","base":3600},{"cover":"FEW","base":3800}],"obsTime":1774454400},"SBVT":{"icaoId":"SBVT","flightCategory":"VFR","rawOb":"METAR SBVT 251600Z 06011KT 9999 FEW030 SCT080 30/23 Q1015","temp":30,"dewp":23,"wdir":60,"wspd":11,"visib":"6+","altim":1015,"clouds":[{"cover":"FEW","base":3000},{"cover":"SCT","base":8000}],"obsTime":1774454400},"SBVH":{"icaoId":"SBVH","flightCategory":"VFR","rawOb":"METAR SBVH 251600Z 07009KT 9999 SCT020 BKN040 28/22 Q1013","temp":28,"dewp":22,"wdir":70,"wspd":9,"visib":"6+","altim":1013,"clouds":[{"cover":"SCT","base":2000},{"cover":"BKN","base":4000}],"obsTime":1774454400},"SBOI":{"icaoId":"SBOI","flightCategory":"VFR","rawOb":"METAR SBOI 251600Z AUTO 16006KT 130V190 9999 FEW017 SCT030 27/25 Q1011","temp":27,"dewp":25,"wdir":160,"wspd":6,"visib":"6+","altim":1011,"clouds":[{"cover":"FEW","base":1700},{"cover":"SCT","base":3000}],"obsTime":1774454400},"SBAX":{"icaoId":"SBAX","flightCategory":"MVFR","rawOb":"METAR SBAX 251600Z 34009KT 9999 -RA BKN011 BKN030 BKN070 24/17 Q1019","temp":24,"dewp":17,"wdir":340,"wspd":9,"visib":"6+","altim":1019,"clouds":[{"cover":"BKN","base":1100},{"cover":"BKN","base":3000},{"cover":"BKN","base":7000}],"obsTime":1774454400},"SBSJ":{"icaoId":"SBSJ","flightCategory":"VFR","rawOb":"METAR SBSJ 251600Z 08006KT 9999 FEW030 30/// Q1017","temp":null,"dewp":null,"wdir":80,"wspd":6,"visib":"6+","altim":1017,"clouds":[{"cover":"FEW","base":3000}],"obsTime":1774454400},"SBAR":{"icaoId":"SBAR","flightCategory":"VFR","rawOb":"METAR SBAR 251600Z 12012KT 080V160 9999 SCT025 SCT100 31/23 Q1012","temp":31,"dewp":23,"wdir":120,"wspd":12,"visib":"6+","altim":1012,"clouds":[{"cover":"SCT","base":2500},{"cover":"SCT","base":10000}],"obsTime":1774454400},"SBAU":{"icaoId":"SBAU","flightCategory":"VFR","rawOb":"METAR SBAU 251600Z 36004KT 9999 SCT030 32/22 Q1014","temp":32,"dewp":22,"wdir":360,"wspd":4,"visib":"6+","altim":1014,"clouds":[{"cover":"SCT","base":3000}],"obsTime":1774454400},"SBBH":{"icaoId":"SBBH","flightCategory":"VFR","rawOb":"METAR SBBH 251600Z 03005KT 9999 BKN045 28/17 Q1019","temp":28,"dewp":17,"wdir":30,"wspd":5,"visib":"6+","altim":1019,"clouds":[{"cover":"BKN","base":4500}],"obsTime":1774454400},"SBBQ":{"icaoId":"SBBQ","flightCategory":"MVFR","rawOb":"METAR SBBQ 251600Z 06004KT 9999 BKN030 24/17 Q1022","temp":24,"dewp":17,"wdir":60,"wspd":4,"visib":"6+","altim":1022,"clouds":[{"cover":"BKN","base":3000}],"obsTime":1774454400},"SBBU":{"icaoId":"SBBU","flightCategory":"MVFR","rawOb":"METAR SBBU 251600Z 02006KT 9999 BKN030 30/21 Q1015","temp":30,"dewp":21,"wdir":20,"wspd":6,"visib":"6+","altim":1015,"clouds":[{"cover":"BKN","base":3000}],"obsTime":1774454400},"SBCA":{"icaoId":"SBCA","flightCategory":"VFR","rawOb":"METAR SBCA 251700Z VRB04KT 9999 SCT025 29/19 Q1016","temp":29,"dewp":19,"wdir":"VRB","wspd":4,"visib":"6+","altim":1016,"clouds":[{"cover":"SCT","base":2500}],"obsTime":1774458000},"SBCC":{"icaoId":"SBCC","flightCategory":"MVFR","rawOb":"METAR SBCC 251600Z 02010KT 9999 BKN020 FEW025TCU BKN100 29/21 Q1014","temp":29,"dewp":21,"wdir":20,"wspd":10,"visib":"6+","altim":1014,"clouds":[{"cover":"BKN","base":2000},{"cover":"FEW","base":2500},{"cover":"BKN","base":10000}],"obsTime":1774454400},"SBCJ":{"icaoId":"SBCJ","flightCategory":"MVFR","rawOb":"METAR SBCJ 251600Z 26002KT 5000 BR FEW001 BKN080 22/20 Q1017","temp":22,"dewp":20,"wdir":260,"wspd":2,"visib":3.11,"altim":1017,"clouds":[{"cover":"FEW","base":100},{"cover":"BKN","base":8000}],"obsTime":1774454400},"SBCO":{"icaoId":"SBCO","flightCategory":"MVFR","rawOb":"METAR SBCO 251600Z 20006KT 160V240 9999 BKN013 BKN023 28/23 Q1014","temp":28,"dewp":23,"wdir":200,"wspd":6,"visib":"6+","altim":1014,"clouds":[{"cover":"BKN","base":1300},{"cover":"BKN","base":2300}],"obsTime":1774454400},"SBDN":{"icaoId":"SBDN","flightCategory":"VFR","rawOb":"METAR SBDN 251600Z 07006KT 9999 FEW030 BKN045 29/22 Q1014","temp":29,"dewp":22,"wdir":70,"wspd":6,"visib":"6+","altim":1014,"clouds":[{"cover":"FEW","base":3000},{"cover":"BKN","base":4500}],"obsTime":1774454400},"SBES":{"icaoId":"SBES","flightCategory":"VFR","rawOb":"METAR SBES 251600Z 06017KT 9999 FEW020 30/// Q1014","temp":null,"dewp":null,"wdir":60,"wspd":17,"visib":"6+","altim":1014,"clouds":[{"cover":"FEW","base":2000}],"obsTime":1774454400},"SBGM":{"icaoId":"SBGM","flightCategory":"MVFR","rawOb":"METAR SBGM 251600Z 34004KT 260V070 9999 BKN013 28/21 Q1011","temp":28,"dewp":21,"wdir":340,"wspd":4,"visib":"6+","altim":1011,"clouds":[{"cover":"BKN","base":1300}],"obsTime":1774454400},"SBIP":{"icaoId":"SBIP","flightCategory":"VFR","rawOb":"METAR SBIP 251600Z AUTO 06006KT 020V110 9999 FEW025 29/21 Q1016","temp":29,"dewp":21,"wdir":60,"wspd":6,"visib":"6+","altim":1016,"clouds":[{"cover":"FEW","base":2500}],"obsTime":1774454400},"SBKG":{"icaoId":"SBKG","flightCategory":"VFR","rawOb":"METAR SBKG 251600Z 12006KT 9999 SCT025 31/17 Q1013","temp":31,"dewp":17,"wdir":120,"wspd":6,"visib":"6+","altim":1013,"clouds":[{"cover":"SCT","base":2500}],"obsTime":1774454400},"SBPB":{"icaoId":"SBPB","flightCategory":"VFR","rawOb":"METAR SBPB 251600Z 08011KT 9999 FEW020 32/24 Q1010","temp":32,"dewp":24,"wdir":80,"wspd":11,"visib":"6+","altim":1010,"clouds":[{"cover":"FEW","base":2000}],"obsTime":1774454400},"SBPL":{"icaoId":"SBPL","flightCategory":"VFR","rawOb":"METAR SBPL 251600Z 13004KT 9999 SCT030 BKN070 31/20 Q1013","temp":31,"dewp":20,"wdir":130,"wspd":4,"visib":"6+","altim":1013,"clouds":[{"cover":"SCT","base":3000},{"cover":"BKN","base":7000}],"obsTime":1774454400},"SBPP":{"icaoId":"SBPP","flightCategory":"VFR","rawOb":"METAR SBPP 251600Z 07009KT 9999 FEW020 30/22 Q1015","temp":30,"dewp":22,"wdir":70,"wspd":9,"visib":"6+","altim":1015,"clouds":[{"cover":"FEW","base":2000}],"obsTime":1774454400},"SBPS":{"icaoId":"SBPS","flightCategory":"VFR","rawOb":"METAR SBPS 251600Z 13006KT 9999 SCT020 SCT100 29/24 Q1015","temp":29,"dewp":24,"wdir":130,"wspd":6,"visib":"6+","altim":1015,"clouds":[{"cover":"SCT","base":2000},{"cover":"SCT","base":10000}],"obsTime":1774454400},"SBSC":{"icaoId":"SBSC","flightCategory":"VFR","rawOb":"METAR SBSC 251600Z 01006KT CAVOK 34/21 Q1013","temp":34,"dewp":21,"wdir":10,"wspd":6,"visib":"6+","altim":1013,"clouds":[],"obsTime":1774454400},"SBSM":{"icaoId":"SBSM","flightCategory":"IFR","rawOb":"METAR SBSM 251600Z 13005KT 090V170 9999 OVC007 20/19 Q1016","temp":20,"dewp":19,"wdir":130,"wspd":5,"visib":"6+","altim":1016,"clouds":[{"cover":"OVC","base":700}],"obsTime":1774454400},"SBSR":{"icaoId":"SBSR","flightCategory":"VFR","rawOb":"METAR SBSR 251600Z 03006KT 300V100 9999 VCSH SCT030 FEW040TCU 29/20 Q1015","temp":29,"dewp":20,"wdir":30,"wspd":6,"visib":"6+","altim":1015,"clouds":[{"cover":"SCT","base":3000},{"cover":"FEW","base":4000}],"obsTime":1774454400},"SBTF":{"icaoId":"SBTF","flightCategory":"VFR","rawOb":"METAR SBTF 251600Z 09006KT 9999 FEW015 BKN100 29/24 Q1011","temp":29,"dewp":24,"wdir":90,"wspd":6,"visib":"6+","altim":1011,"clouds":[{"cover":"FEW","base":1500},{"cover":"BKN","base":10000}],"obsTime":1774454400},"SBTT":{"icaoId":"SBTT","flightCategory":"VFR","rawOb":"METAR SBTT 251600Z VRB03KT 9999 SCT022 30/24 Q1011","temp":30,"dewp":24,"wdir":"VRB","wspd":3,"visib":"6+","altim":1011,"clouds":[{"cover":"SCT","base":2200}],"obsTime":1774454400},"SBUY":{"icaoId":"SBUY","flightCategory":"VFR","rawOb":"METAR SBUY 251600Z 14006KT 9999 SCT020 BKN100 28/23 Q1009","temp":28,"dewp":23,"wdir":140,"wspd":6,"visib":"6+","altim":1009,"clouds":[{"cover":"SCT","base":2000},{"cover":"BKN","base":10000}],"obsTime":1774454400},"SBTD":{"icaoId":"SBTD","flightCategory":"VFR","rawOb":"METAR SBTD 251600Z /////KT 9999 SCT025 SCT080 29/21 Q1015","temp":29,"dewp":21,"wdir":null,"wspd":null,"visib":"6+","altim":1015,"clouds":[{"cover":"SCT","base":2500},{"cover":"SCT","base":8000}],"obsTime":1774454400},"SBIH":{"icaoId":"SBIH","flightCategory":"VFR","rawOb":"METAR SBIH 251600Z 07012KT 9999 SCT018 31/24 Q1010","temp":31,"dewp":24,"wdir":70,"wspd":12,"visib":"6+","altim":1010,"clouds":[{"cover":"SCT","base":1800}],"obsTime":1774454400},"SBJP":{"icaoId":"SBJP","flightCategory":"VFR","rawOb":"METAR SBJP 251600Z 10010KT 060V130 9999 FEW036 32/22 Q1011","temp":32,"dewp":22,"wdir":100,"wspd":10,"visib":"6+","altim":1011,"clouds":[{"cover":"FEW","base":3600}],"obsTime":1774454400},"SBNM":{"icaoId":"SBNM","flightCategory":"VFR","rawOb":"METAR SBNM 251600Z 28002KT 9999 SCT020 29/23 Q1014","temp":29,"dewp":23,"wdir":280,"wspd":2,"visib":"6+","altim":1014,"clouds":[{"cover":"SCT","base":2000}],"obsTime":1774454400},"SBPF":{"icaoId":"SBPF","flightCategory":"MVFR","rawOb":"METAR SBPF 251600Z 02006KT 9999 BKN025 29/21 Q1016","temp":29,"dewp":21,"wdir":20,"wspd":6,"visib":"6+","altim":1016,"clouds":[{"cover":"BKN","base":2500}],"obsTime":1774454400},"SBJV":{"icaoId":"SBJV","flightCategory":"MVFR","rawOb":"METAR SBJV 251600Z 12007KT 9999 BKN030 30/24 Q1014","temp":30,"dewp":24,"wdir":120,"wspd":7,"visib":"6+","altim":1014,"clouds":[{"cover":"BKN","base":3000}],"obsTime":1774454400},"SBAN":{"icaoId":"SBAN","flightCategory":"MVFR","rawOb":"METAR SBAN 251600Z 04003KT 9999 BKN030 FEW035TCU 25/18 Q1019","temp":25,"dewp":18,"wdir":40,"wspd":3,"visib":"6+","altim":1019,"clouds":[{"cover":"BKN","base":3000},{"cover":"FEW","base":3500}],"obsTime":1774454400},"SBGW":{"icaoId":"SBGW","flightCategory":"VFR","rawOb":"METAR SBGW 251600Z 01005KT 310V070 9999 FEW033 31/16 Q1016","temp":31,"dewp":16,"wdir":10,"wspd":5,"visib":"6+","altim":1016,"clouds":[{"cover":"FEW","base":3300}],"obsTime":1774454400},"SBJR":{"icaoId":"SBJR","flightCategory":"VFR","rawOb":"METAR SBJR 251600Z 20004KT 9999 FEW025 34/22 Q1013","temp":34,"dewp":22,"wdir":200,"wspd":4,"visib":"6+","altim":1013,"clouds":[{"cover":"FEW","base":2500}],"obsTime":1774454400},"SBMT":{"icaoId":"SBMT","flightCategory":"VFR","rawOb":"METAR SBMT 251600Z VRB03KT CAVOK 29/19 Q1017","temp":29,"dewp":19,"wdir":"VRB","wspd":3,"visib":"6+","altim":1017,"clouds":[],"obsTime":1774454400},"SBST":{"icaoId":"SBST","flightCategory":"MVFR","rawOb":"METAR SBST 251600Z 26005KT 8000 BKN027 27/22 Q1014","temp":27,"dewp":22,"wdir":260,"wspd":5,"visib":4.97,"altim":1014,"clouds":[{"cover":"BKN","base":2700}],"obsTime":1774454400},"SBTA":{"icaoId":"SBTA","flightCategory":"VFR","rawOb":"METAR SBTA 251600Z 06006KT 350V130 9999 SCT040 28/20 Q1016","temp":28,"dewp":20,"wdir":60,"wspd":6,"visib":"6+","altim":1016,"clouds":[{"cover":"SCT","base":4000}],"obsTime":1774454400},"SBAF":{"icaoId":"SBAF","flightCategory":"VFR","rawOb":" SBAF 251600Z 18007KT 9999 FEW025 34/21 Q1013","temp":34,"dewp":21,"wdir":180,"wspd":7,"visib":"6+","altim":1013,"clouds":[{"cover":"FEW","base":2500}],"obsTime":1774454400},"SBLE":{"icaoId":"SBLE","flightCategory":"VFR","rawOb":"METAR SBLE 251600Z AUTO 14005KT 070V200 CAVOK 28/20 Q1016","temp":28,"dewp":20,"wdir":140,"wspd":5,"visib":"6+","altim":1016,"clouds":[],"obsTime":1774454400},"SBLS":{"icaoId":"SBLS","flightCategory":"VFR","rawOb":"METAR SBLS 251600Z 08004KT 9999 VCSH BKN040 FEW043TCU 26/18 Q1019","temp":26,"dewp":18,"wdir":80,"wspd":4,"visib":"6+","altim":1019,"clouds":[{"cover":"BKN","base":4000},{"cover":"FEW","base":4300}],"obsTime":1774454400}}}