{"updated":1777661559,"count":86,"data":{"SBPA":{"icaoId":"SBPA","flightCategory":"VFR","rawOb":"METAR SBPA 011700Z 08010KT 9999 FEW040 SCT100 26/16 Q1011","temp":26,"dewp":16,"wdir":80,"wspd":10,"visib":"6+","altim":1011,"clouds":[{"cover":"FEW","base":4000},{"cover":"SCT","base":10000}],"obsTime":1777654800},"SBBE":{"icaoId":"SBBE","flightCategory":"MVFR","rawOb":"METAR SBBE 011700Z 01005KT 9999 BKN030 FEW035TCU 28/25 Q1010","temp":28,"dewp":25,"wdir":10,"wspd":5,"visib":"6+","altim":1010,"clouds":[{"cover":"BKN","base":3000},{"cover":"FEW","base":3500}],"obsTime":1777654800},"SBBR":{"icaoId":"SBBR","flightCategory":"VFR","rawOb":"METAR SBBR 011700Z 08012KT 040V110 9999 SCT040 26/14 Q1020","temp":26,"dewp":14,"wdir":80,"wspd":12,"visib":"6+","altim":1020,"clouds":[{"cover":"SCT","base":4000}],"obsTime":1777654800},"SBPV":{"icaoId":"SBPV","flightCategory":"VFR","rawOb":"METAR SBPV 011700Z 05007KT 9999 FEW030 32/29 Q1011","temp":32,"dewp":29,"wdir":50,"wspd":7,"visib":"6+","altim":1011,"clouds":[{"cover":"FEW","base":3000}],"obsTime":1777654800},"SBAT":{"icaoId":"SBAT","flightCategory":"VFR","rawOb":"METAR SBAT 011700Z 11006KT 9999 SCT035 34/24 Q1012","temp":34,"dewp":24,"wdir":110,"wspd":6,"visib":"6+","altim":1012,"clouds":[{"cover":"SCT","base":3500}],"obsTime":1777654800},"SBBV":{"icaoId":"SBBV","flightCategory":"MVFR","rawOb":"METAR SBBV 011700Z 15010KT 9999 BKN030 FEW035TCU BKN080 30/23 Q1012","temp":30,"dewp":23,"wdir":150,"wspd":10,"visib":"6+","altim":1012,"clouds":[{"cover":"BKN","base":3000},{"cover":"FEW","base":3500},{"cover":"BKN","base":8000}],"obsTime":1777654800},"SBCB":{"icaoId":"SBCB","flightCategory":"VFR","rawOb":"METAR SBCB 011700Z 17008KT 9999 SCT020 BKN070 28/22 Q1017","temp":28,"dewp":22,"wdir":170,"wspd":8,"visib":"6+","altim":1017,"clouds":[{"cover":"SCT","base":2000},{"cover":"BKN","base":7000}],"obsTime":1777654800},"SBCF":{"icaoId":"SBCF","flightCategory":"VFR","rawOb":"METAR SBCF 011700Z 12005KT 9999 SCT045 27/14 Q1021","temp":27,"dewp":14,"wdir":120,"wspd":5,"visib":"6+","altim":1021,"clouds":[{"cover":"SCT","base":4500}],"obsTime":1777654800},"SBCG":{"icaoId":"SBCG","flightCategory":"VFR","rawOb":"METAR SBCG 011700Z 03013KT 360V060 CAVOK 30/18 Q1015","temp":30,"dewp":18,"wdir":30,"wspd":13,"visib":"6+","altim":1015,"clouds":[],"obsTime":1777654800},"SBCP":{"icaoId":"SBCP","flightCategory":"VFR","rawOb":"METAR SBCP 011700Z 10010KT CAVOK 32/18 Q1016","temp":32,"dewp":18,"wdir":100,"wspd":10,"visib":"6+","altim":1016,"clouds":[],"obsTime":1777654800},"SBCR":{"icaoId":"SBCR","flightCategory":"VFR","rawOb":"METAR SBCR 011700Z 02013KT 9999 SCT035 34/19 Q1011","temp":34,"dewp":19,"wdir":20,"wspd":13,"visib":"6+","altim":1011,"clouds":[{"cover":"SCT","base":3500}],"obsTime":1777654800},"SBCT":{"icaoId":"SBCT","flightCategory":"VFR","rawOb":"METAR SBCT 011700Z 30005KT 210V020 9999 FEW025 25/16 Q1020","temp":25,"dewp":16,"wdir":300,"wspd":5,"visib":"6+","altim":1020,"clouds":[{"cover":"FEW","base":2500}],"obsTime":1777654800},"SBCZ":{"icaoId":"SBCZ","flightCategory":"MVFR","rawOb":"METAR SBCZ 011700Z 13004KT 9999 BKN025 30/24 Q1013","temp":30,"dewp":24,"wdir":130,"wspd":4,"visib":"6+","altim":1013,"clouds":[{"cover":"BKN","base":2500}],"obsTime":1777654800},"SBEG":{"icaoId":"SBEG","flightCategory":"VFR","rawOb":"METAR SBEG 011700Z 05006KT 9999 SCT030 FEW035TCU 29/25 Q1011","temp":29,"dewp":25,"wdir":50,"wspd":6,"visib":"6+","altim":1011,"clouds":[{"cover":"SCT","base":3000},{"cover":"FEW","base":3500}],"obsTime":1777654800},"SBFI":{"icaoId":"SBFI","flightCategory":"VFR","rawOb":"METAR SBFI 011700Z 35010KT CAVOK 30/23 Q1013","temp":30,"dewp":23,"wdir":350,"wspd":10,"visib":"6+","altim":1013,"clouds":[],"obsTime":1777654800},"SBFL":{"icaoId":"SBFL","flightCategory":"VFR","rawOb":"METAR SBFL 011700Z 35011KT 9999 FEW030 27/20 Q1015","temp":27,"dewp":20,"wdir":350,"wspd":11,"visib":"6+","altim":1015,"clouds":[{"cover":"FEW","base":3000}],"obsTime":1777654800},"SBFZ":{"icaoId":"SBFZ","flightCategory":"MVFR","rawOb":"METAR SBFZ 011700Z 10007KT 9999 BKN020 FEW025TCU 29/24 Q1010","temp":29,"dewp":24,"wdir":100,"wspd":7,"visib":"6+","altim":1010,"clouds":[{"cover":"BKN","base":2000},{"cover":"FEW","base":2500}],"obsTime":1777654800},"SBGL":{"icaoId":"SBGL","flightCategory":"VFR","rawOb":"METAR SBGL 011700Z 13011KT 9999 FEW024 BKN080 28/23 Q1017","temp":28,"dewp":23,"wdir":130,"wspd":11,"visib":"6+","altim":1017,"clouds":[{"cover":"FEW","base":2400},{"cover":"BKN","base":8000}],"obsTime":1777654800},"SBGO":{"icaoId":"SBGO","flightCategory":"VFR","rawOb":"METAR SBGO 011700Z 06009KT 030V090 CAVOK 29/16 Q1018","temp":29,"dewp":16,"wdir":60,"wspd":9,"visib":"6+","altim":1018,"clouds":[],"obsTime":1777654800},"SBGR":{"icaoId":"SBGR","flightCategory":"VFR","rawOb":"METAR SBGR 011700Z 09004KT 9999 SCT026 26/19 Q1020","temp":26,"dewp":19,"wdir":90,"wspd":4,"visib":"6+","altim":1020,"clouds":[{"cover":"SCT","base":2600}],"obsTime":1777654800},"SBHT":{"icaoId":"SBHT","flightCategory":"MVFR","rawOb":"METAR SBHT 011700Z 09007KT 9999 BKN030 31/24 Q1011","temp":31,"dewp":24,"wdir":90,"wspd":7,"visib":"6+","altim":1011,"clouds":[{"cover":"BKN","base":3000}],"obsTime":1777654800},"SBIL":{"icaoId":"SBIL","flightCategory":"VFR","rawOb":"METAR SBIL 011700Z 17009KT 9999 SCT023 30/25 Q1015","temp":30,"dewp":25,"wdir":170,"wspd":9,"visib":"6+","altim":1015,"clouds":[{"cover":"SCT","base":2300}],"obsTime":1777654800},"SBJU":{"icaoId":"SBJU","flightCategory":"MVFR","rawOb":"METAR SBJU 011700Z 13010KT 9999 BKN020 27/23 Q1014","temp":27,"dewp":23,"wdir":130,"wspd":10,"visib":"6+","altim":1014,"clouds":[{"cover":"BKN","base":2000}],"obsTime":1777654800},"SBKP":{"icaoId":"SBKP","flightCategory":"VFR","rawOb":"METAR SBKP 011700Z 01007KT 330V050 9999 SCT045 28/18 Q1019","temp":28,"dewp":18,"wdir":10,"wspd":7,"visib":"6+","altim":1019,"clouds":[{"cover":"SCT","base":4500}],"obsTime":1777654800},"SBLO":{"icaoId":"SBLO","flightCategory":"VFR","rawOb":"METAR SBLO 011700Z 08007KT CAVOK 26/20 Q1018","temp":26,"dewp":20,"wdir":80,"wspd":7,"visib":"6+","altim":1018,"clouds":[],"obsTime":1777654800},"SBMA":{"icaoId":"SBMA","flightCategory":"VFR","rawOb":"METAR SBMA 011700Z 09005KT 9999 SCT020 32/23 Q1011","temp":32,"dewp":23,"wdir":90,"wspd":5,"visib":"6+","altim":1011,"clouds":[{"cover":"SCT","base":2000}],"obsTime":1777654800},"SBME":{"icaoId":"SBME","flightCategory":"VFR","rawOb":"METAR SBME 011700Z 13006KT 9999 FEW030 29/23 Q1016","temp":29,"dewp":23,"wdir":130,"wspd":6,"visib":"6+","altim":1016,"clouds":[{"cover":"FEW","base":3000}],"obsTime":1777654800},"SBMG":{"icaoId":"SBMG","flightCategory":"VFR","rawOb":"METAR SBMG 011700Z 03011KT 360V060 CAVOK 28/21 Q1016","temp":28,"dewp":21,"wdir":30,"wspd":11,"visib":"6+","altim":1016,"clouds":[],"obsTime":1777654800},"SBMK":{"icaoId":"SBMK","flightCategory":"VFR","rawOb":"METAR SBMK 011700Z 10012KT 9999 BKN049 28/16 Q1019","temp":28,"dewp":16,"wdir":100,"wspd":12,"visib":"6+","altim":1019,"clouds":[{"cover":"BKN","base":4900}],"obsTime":1777654800},"SBMO":{"icaoId":"SBMO","flightCategory":"MVFR","rawOb":"METAR SBMO 011700Z 13009KT 9999 BKN030 BKN100 29/23 Q1013","temp":29,"dewp":23,"wdir":130,"wspd":9,"visib":"6+","altim":1013,"clouds":[{"cover":"BKN","base":3000},{"cover":"BKN","base":10000}],"obsTime":1777654800},"SBMQ":{"icaoId":"SBMQ","flightCategory":"VFR","rawOb":"METAR SBMQ 011700Z 06007KT 9999 SCT020 BKN100 29/25 Q1011","temp":29,"dewp":25,"wdir":60,"wspd":7,"visib":"6+","altim":1011,"clouds":[{"cover":"SCT","base":2000},{"cover":"BKN","base":10000}],"obsTime":1777654800},"SBNT":{"icaoId":"SBNT","flightCategory":"MVFR","rawOb":"METAR SBNT 011700Z 19009KT 9999 FEW010 BKN017 FEW020TCU 26/25 Q1011","temp":26,"dewp":25,"wdir":190,"wspd":9,"visib":"6+","altim":1011,"clouds":[{"cover":"FEW","base":1000},{"cover":"BKN","base":1700},{"cover":"FEW","base":2000}],"obsTime":1777654800},"SBPJ":{"icaoId":"SBPJ","flightCategory":"VFR","rawOb":"METAR SBPJ 011700Z 11005KT 9999 SCT025 33/20 Q1012","temp":33,"dewp":20,"wdir":110,"wspd":5,"visib":"6+","altim":1012,"clouds":[{"cover":"SCT","base":2500}],"obsTime":1777654800},"SBRB":{"icaoId":"SBRB","flightCategory":"MVFR","rawOb":"METAR SBRB 011700Z 14004KT 9999 BKN030 32/25 Q1012","temp":32,"dewp":25,"wdir":140,"wspd":4,"visib":"6+","altim":1012,"clouds":[{"cover":"BKN","base":3000}],"obsTime":1777654800},"SBRF":{"icaoId":"SBRF","flightCategory":"IFR","rawOb":"METAR SBRF 011700Z 24004KT 4000 -RA BR SCT006 BKN012 OVC060 23/23 Q1012","temp":23,"dewp":23,"wdir":240,"wspd":4,"visib":2.49,"altim":1012,"clouds":[{"cover":"SCT","base":600},{"cover":"BKN","base":1200},{"cover":"OVC","base":6000}],"obsTime":1777654800},"SBSG":{"icaoId":"SBSG","flightCategory":"MVFR","rawOb":"METAR SBSG 011700Z 17005KT 140V200 8000 VCSH SCT015 BKN020 BKN100 26/25 Q1012","temp":26,"dewp":25,"wdir":170,"wspd":5,"visib":4.97,"altim":1012,"clouds":[{"cover":"SCT","base":1500},{"cover":"BKN","base":2000},{"cover":"BKN","base":10000}],"obsTime":1777654800},"SBSL":{"icaoId":"SBSL","flightCategory":"VFR","rawOb":"METAR SBSL 011700Z 05007KT 020V100 9999 VCSH SCT030 FEW035TCU 31/26 Q1009","temp":31,"dewp":26,"wdir":50,"wspd":7,"visib":"6+","altim":1009,"clouds":[{"cover":"SCT","base":3000},{"cover":"FEW","base":3500}],"obsTime":1777654800},"SBSN":{"icaoId":"SBSN","flightCategory":"VFR","rawOb":"METAR SBSN 011700Z 09010KT 9999 SCT020 FEW025TCU 30/25 Q1011","temp":30,"dewp":25,"wdir":90,"wspd":10,"visib":"6+","altim":1011,"clouds":[{"cover":"SCT","base":2000},{"cover":"FEW","base":2500}],"obsTime":1777654800},"SBSP":{"icaoId":"SBSP","flightCategory":"VFR","rawOb":"METAR SBSP 011700Z 05005KT 350V110 9999 SCT030 26/18 Q1021","temp":26,"dewp":18,"wdir":50,"wspd":5,"visib":"6+","altim":1021,"clouds":[{"cover":"SCT","base":3000}],"obsTime":1777654800},"SBSV":{"icaoId":"SBSV","flightCategory":"VFR","rawOb":"METAR SBSV 011700Z 13010KT 9999 SCT025 SCT060 30/24 Q1013","temp":30,"dewp":24,"wdir":130,"wspd":10,"visib":"6+","altim":1013,"clouds":[{"cover":"SCT","base":2500},{"cover":"SCT","base":6000}],"obsTime":1777654800},"SBTE":{"icaoId":"SBTE","flightCategory":"VFR","rawOb":"METAR SBTE 011700Z 06004KT 9999 SCT025 BKN100 32/23 Q1010","temp":32,"dewp":23,"wdir":60,"wspd":4,"visib":"6+","altim":1010,"clouds":[{"cover":"SCT","base":2500},{"cover":"BKN","base":10000}],"obsTime":1777654800},"SBUL":{"icaoId":"SBUL","flightCategory":"VFR","rawOb":"METAR SBUL 011700Z 07011KT 020V100 9999 FEW045 27/15 Q1021","temp":27,"dewp":15,"wdir":70,"wspd":11,"visib":"6+","altim":1021,"clouds":[{"cover":"FEW","base":4500}],"obsTime":1777654800},"SBUR":{"icaoId":"SBUR","flightCategory":"VFR","rawOb":"METAR SBUR 011700Z 03008KT CAVOK 29/15 Q1019","temp":29,"dewp":15,"wdir":30,"wspd":8,"visib":"6+","altim":1019,"clouds":[],"obsTime":1777654800},"SBVT":{"icaoId":"SBVT","flightCategory":"VFR","rawOb":"METAR SBVT 011700Z 14009KT 9999 FEW040 29/22 Q1017","temp":29,"dewp":22,"wdir":140,"wspd":9,"visib":"6+","altim":1017,"clouds":[{"cover":"FEW","base":4000}],"obsTime":1777654800},"SBCO":{"icaoId":"SBCO","flightCategory":"VFR","rawOb":"METAR SBCO 011700Z 10005KT 9999 FEW035TCU SCT100 26/17 Q1012","temp":26,"dewp":17,"wdir":100,"wspd":5,"visib":"6+","altim":1012,"clouds":[{"cover":"FEW","base":3500},{"cover":"SCT","base":10000}],"obsTime":1777654800},"SBAR":{"icaoId":"SBAR","flightCategory":"VFR","rawOb":"METAR SBAR 011700Z 11010KT 9999 SCT026 30/23 Q1013","temp":30,"dewp":23,"wdir":110,"wspd":10,"visib":"6+","altim":1013,"clouds":[{"cover":"SCT","base":2600}],"obsTime":1777654800},"SBAU":{"icaoId":"SBAU","flightCategory":"VFR","rawOb":"METAR SBAU 011700Z 03012KT 9999 FEW040 33/18 Q1016","temp":33,"dewp":18,"wdir":30,"wspd":12,"visib":"6+","altim":1016,"clouds":[{"cover":"FEW","base":4000}],"obsTime":1777654800},"SBAX":{"icaoId":"SBAX","flightCategory":"VFR","rawOb":"METAR SBAX 011700Z AUTO 06009KT 340V120 CAVOK 27/13 Q1021","temp":27,"dewp":13,"wdir":60,"wspd":9,"visib":"6+","altim":1021,"clouds":[],"obsTime":1777654800},"SBBH":{"icaoId":"SBBH","flightCategory":"VFR","rawOb":"METAR SBBH 011700Z 07007KT 9999 SCT048 28/16 Q1020","temp":28,"dewp":16,"wdir":70,"wspd":7,"visib":"6+","altim":1020,"clouds":[{"cover":"SCT","base":4800}],"obsTime":1777654800},"SBBQ":{"icaoId":"SBBQ","flightCategory":"VFR","rawOb":"METAR SBBQ 011700Z 10006KT 040V170 9999 FEW036 24/13 Q1024","temp":24,"dewp":13,"wdir":100,"wspd":6,"visib":"6+","altim":1024,"clouds":[{"cover":"FEW","base":3600}],"obsTime":1777654800},"SBBU":{"icaoId":"SBBU","flightCategory":"VFR","rawOb":"METAR SBBU 011700Z 02009KT 9999 SCT045 31/19 Q1018","temp":31,"dewp":19,"wdir":20,"wspd":9,"visib":"6+","altim":1018,"clouds":[{"cover":"SCT","base":4500}],"obsTime":1777654800},"SBCA":{"icaoId":"SBCA","flightCategory":"VFR","rawOb":"METAR SBCA 011700Z 04010G20KT 9999 FEW015 27/20 Q1018","temp":27,"dewp":20,"wdir":40,"wspd":10,"visib":"6+","altim":1018,"clouds":[{"cover":"FEW","base":1500}],"obsTime":1777654800},"SBCC":{"icaoId":"SBCC","flightCategory":"VFR","rawOb":"METAR SBCC 011700Z 05010KT 9999 SCT030 FEW035TCU SCT100 31/19 Q1013","temp":31,"dewp":19,"wdir":50,"wspd":10,"visib":"6+","altim":1013,"clouds":[{"cover":"SCT","base":3000},{"cover":"FEW","base":3500},{"cover":"SCT","base":10000}],"obsTime":1777654800},"SBCJ":{"icaoId":"SBCJ","flightCategory":"VFR","rawOb":"METAR SBCJ 011700Z 15006KT 9999 FEW013 27/21 Q1016","temp":27,"dewp":21,"wdir":150,"wspd":6,"visib":"6+","altim":1016,"clouds":[{"cover":"FEW","base":1300}],"obsTime":1777654800},"SBDN":{"icaoId":"SBDN","flightCategory":"VFR","rawOb":"METAR SBDN 011700Z 03008KT 9999 FEW040 31/20 Q1016","temp":31,"dewp":20,"wdir":30,"wspd":8,"visib":"6+","altim":1016,"clouds":[{"cover":"FEW","base":4000}],"obsTime":1777654800},"SBES":{"icaoId":"SBES","flightCategory":"VFR","rawOb":"METAR SBES 011700Z 16008KT 100V180 9999 FEW015 SCT030 28/// Q1017","temp":null,"dewp":null,"wdir":160,"wspd":8,"visib":"6+","altim":1017,"clouds":[{"cover":"FEW","base":1500},{"cover":"SCT","base":3000}],"obsTime":1777654800},"SBGM":{"icaoId":"SBGM","flightCategory":"VFR","rawOb":"METAR SBGM 011700Z 12003KT 9999 SCT030 SCT040 BKN060 32/24 Q1011","temp":32,"dewp":24,"wdir":120,"wspd":3,"visib":"6+","altim":1011,"clouds":[{"cover":"SCT","base":3000},{"cover":"SCT","base":4000},{"cover":"BKN","base":6000}],"obsTime":1777654800},"SBIP":{"icaoId":"SBIP","flightCategory":"VFR","rawOb":"METAR SBIP 011700Z AUTO VRB05KT CAVOK 31/17 Q1017","temp":31,"dewp":17,"wdir":"VRB","wspd":5,"visib":"6+","altim":1017,"clouds":[],"obsTime":1777654800},"SBKG":{"icaoId":"SBKG","flightCategory":"IFR","rawOb":"METAR SBKG 011700Z 20004KT 6000 -RA FEW005 BKN007 OVC070 23/22 Q1016","temp":23,"dewp":22,"wdir":200,"wspd":4,"visib":3.73,"altim":1016,"clouds":[{"cover":"FEW","base":500},{"cover":"BKN","base":700},{"cover":"OVC","base":7000}],"obsTime":1777654800},"SBOI":{"icaoId":"SBOI","flightCategory":"VFR","rawOb":"METAR SBOI 011700Z AUTO 09006KT 030V170 CAVOK 30/24 Q1011","temp":30,"dewp":24,"wdir":90,"wspd":6,"visib":"6+","altim":1011,"clouds":[],"obsTime":1777654800},"SBPB":{"icaoId":"SBPB","flightCategory":"VFR","rawOb":"METAR SBPB 011700Z 05007KT 9999 SCT020 BKN100 31/25 Q1010","temp":31,"dewp":25,"wdir":50,"wspd":7,"visib":"6+","altim":1010,"clouds":[{"cover":"SCT","base":2000},{"cover":"BKN","base":10000}],"obsTime":1777654800},"SBPL":{"icaoId":"SBPL","flightCategory":"VFR","rawOb":"METAR SBPL 011700Z 08010KT 9999 SCT035 32/19 Q1013","temp":32,"dewp":19,"wdir":80,"wspd":10,"visib":"6+","altim":1013,"clouds":[{"cover":"SCT","base":3500}],"obsTime":1777654800},"SBPP":{"icaoId":"SBPP","flightCategory":"VFR","rawOb":"METAR SBPP 011700Z 06011KT 9999 FEW015 29/22 Q1018","temp":29,"dewp":22,"wdir":60,"wspd":11,"visib":"6+","altim":1018,"clouds":[{"cover":"FEW","base":1500}],"obsTime":1777654800},"SBPS":{"icaoId":"SBPS","flightCategory":"VFR","rawOb":"METAR SBPS 011700Z 13007KT 090V180 9999 SCT020 FEW025TCU BKN070 28/24 Q1016","temp":28,"dewp":24,"wdir":130,"wspd":7,"visib":"6+","altim":1016,"clouds":[{"cover":"SCT","base":2000},{"cover":"FEW","base":2500},{"cover":"BKN","base":7000}],"obsTime":1777654800},"SBSC":{"icaoId":"SBSC","flightCategory":"MVFR","rawOb":"METAR SBSC 011700Z 19005KT 8000 FEW010 SCT050 BKN070 27/23 Q1017","temp":27,"dewp":23,"wdir":190,"wspd":5,"visib":4.97,"altim":1017,"clouds":[{"cover":"FEW","base":1000},{"cover":"SCT","base":5000},{"cover":"BKN","base":7000}],"obsTime":1777654800},"SBSJ":{"icaoId":"SBSJ","flightCategory":"VFR","rawOb":"METAR SBSJ 011700Z VRB02KT 9999 FEW030 SCT050 BKN060 26/19 Q1019","temp":26,"dewp":19,"wdir":"VRB","wspd":2,"visib":"6+","altim":1019,"clouds":[{"cover":"FEW","base":3000},{"cover":"SCT","base":5000},{"cover":"BKN","base":6000}],"obsTime":1777654800},"SBSM":{"icaoId":"SBSM","flightCategory":"VFR","rawOb":"METAR SBSM 011700Z 19006G16KT 9999 -TSRA SCT007 BKN045 FEW050CB BKN100 17/16 Q1013 RERA RETS","temp":17,"dewp":16,"wdir":190,"wspd":6,"visib":"6+","altim":1013,"clouds":[{"cover":"SCT","base":700},{"cover":"BKN","base":4500},{"cover":"FEW","base":5000},{"cover":"BKN","base":10000}],"obsTime":1777654800},"SBSR":{"icaoId":"SBSR","flightCategory":"VFR","rawOb":"METAR SBSR 011700Z 04012KT 9999 FEW035 31/13 Q1017","temp":31,"dewp":13,"wdir":40,"wspd":12,"visib":"6+","altim":1017,"clouds":[{"cover":"FEW","base":3500}],"obsTime":1777654800},"SBTF":{"icaoId":"SBTF","flightCategory":"VFR","rawOb":"METAR SBTF 011700Z 07003KT 9999 SCT019 32/25 Q1010","temp":32,"dewp":25,"wdir":70,"wspd":3,"visib":"6+","altim":1010,"clouds":[{"cover":"SCT","base":1900}],"obsTime":1777654800},"SBTT":{"icaoId":"SBTT","flightCategory":"MVFR","rawOb":"METAR SBTT 011700Z 20004KT 150V240 9999 BKN016 SCT100 26/24 Q1012","temp":26,"dewp":24,"wdir":200,"wspd":4,"visib":"6+","altim":1012,"clouds":[{"cover":"BKN","base":1600},{"cover":"SCT","base":10000}],"obsTime":1777654800},"SBUY":{"icaoId":"SBUY","flightCategory":"VFR","rawOb":"METAR SBUY 011700Z 13002KT 9999 SCT025 31/25 Q1009","temp":31,"dewp":25,"wdir":130,"wspd":2,"visib":"6+","altim":1009,"clouds":[{"cover":"SCT","base":2500}],"obsTime":1777654800},"SBVH":{"icaoId":"SBVH","flightCategory":"VFR","rawOb":"METAR SBVH 011700Z 07008KT 9999 SCT030 BKN100 29/23 Q1014","temp":29,"dewp":23,"wdir":70,"wspd":8,"visib":"6+","altim":1014,"clouds":[{"cover":"SCT","base":3000},{"cover":"BKN","base":10000}],"obsTime":1777654800},"SBGW":{"icaoId":"SBGW","flightCategory":"MVFR","rawOb":"METAR SBGW 011700Z 07005KT 9999 BKN030 26/17 Q1019","temp":26,"dewp":17,"wdir":70,"wspd":5,"visib":"6+","altim":1019,"clouds":[{"cover":"BKN","base":3000}],"obsTime":1777654800},"SBJR":{"icaoId":"SBJR","flightCategory":"VFR","rawOb":"METAR SBJR 011700Z 19005KT 9999 FEW018 SCT060 27/24 Q1017","temp":27,"dewp":24,"wdir":190,"wspd":5,"visib":"6+","altim":1017,"clouds":[{"cover":"FEW","base":1800},{"cover":"SCT","base":6000}],"obsTime":1777654800},"SBAN":{"icaoId":"SBAN","flightCategory":"VFR","rawOb":"METAR SBAN 011700Z 13010KT 100V160 9999 BKN045 27/14 Q1021","temp":27,"dewp":14,"wdir":130,"wspd":10,"visib":"6+","altim":1021,"clouds":[{"cover":"BKN","base":4500}],"obsTime":1777654800},"SBLS":{"icaoId":"SBLS","flightCategory":"VFR","rawOb":"METAR SBLS 011700Z 11005KT 9999 FEW048 27/14 Q1020","temp":27,"dewp":14,"wdir":110,"wspd":5,"visib":"6+","altim":1020,"clouds":[{"cover":"FEW","base":4800}],"obsTime":1777654800},"SBJV":{"icaoId":"SBJV","flightCategory":"VFR","rawOb":"METAR SBJV 011700Z 13005KT 9999 SCT025 26/21 Q1016","temp":26,"dewp":21,"wdir":130,"wspd":5,"visib":"6+","altim":1016,"clouds":[{"cover":"SCT","base":2500}],"obsTime":1777654800},"SBMT":{"icaoId":"SBMT","flightCategory":"VFR","rawOb":"METAR SBMT 011700Z 10007KT 070V140 9999 SCT026 26/19 Q1020","temp":26,"dewp":19,"wdir":100,"wspd":7,"visib":"6+","altim":1020,"clouds":[{"cover":"SCT","base":2600}],"obsTime":1777654800},"SBPF":{"icaoId":"SBPF","flightCategory":"VFR","rawOb":"METAR SBPF 011800Z 36014KT CAVOK 28/16 Q1015","temp":28,"dewp":16,"wdir":360,"wspd":14,"visib":"6+","altim":1015,"clouds":[],"obsTime":1777658400},"SBTA":{"icaoId":"SBTA","flightCategory":"VFR","rawOb":"METAR SBTA 011700Z 06006KT 030V090 9999 SCT030 BKN040 27/18 Q1018","temp":27,"dewp":18,"wdir":60,"wspd":6,"visib":"6+","altim":1018,"clouds":[{"cover":"SCT","base":3000},{"cover":"BKN","base":4000}],"obsTime":1777654800},"SBST":{"icaoId":"SBST","flightCategory":"VFR","rawOb":"METAR SBST 011700Z /////KT 9000 SCT035 ///// Q1017","temp":null,"dewp":null,"wdir":null,"wspd":null,"visib":5.59,"altim":1017,"clouds":[{"cover":"SCT","base":3500}],"obsTime":1777654800},"SBLE":{"icaoId":"SBLE","flightCategory":"VFR","rawOb":"METAR SBLE 011700Z AUTO 15006KT 120V210 9999 FEW039 28/19 Q1016","temp":28,"dewp":19,"wdir":150,"wspd":6,"visib":"6+","altim":1016,"clouds":[{"cover":"FEW","base":3900}],"obsTime":1777654800},"SBJP":{"icaoId":"SBJP","flightCategory":"IFR","rawOb":"METAR SBJP 011700Z 19009KT 9999 BKN007 BKN070 24/23 Q1012 RERA","temp":24,"dewp":23,"wdir":190,"wspd":9,"visib":"6+","altim":1012,"clouds":[{"cover":"BKN","base":700},{"cover":"BKN","base":7000}],"obsTime":1777654800},"SBAF":{"icaoId":"SBAF","flightCategory":"VFR","rawOb":"METAR SBAF 011700Z 19009KT 9999 FEW010 SCT030 BKN060 28/25 Q1017","temp":28,"dewp":25,"wdir":190,"wspd":9,"visib":"6+","altim":1017,"clouds":[{"cover":"FEW","base":1000},{"cover":"SCT","base":3000},{"cover":"BKN","base":6000}],"obsTime":1777654800},"SBIH":{"icaoId":"SBIH","flightCategory":"VFR","rawOb":"METAR SBIH 011700Z 03011KT 9999 SCT020 FEW023TCU 31/24 Q1011","temp":31,"dewp":24,"wdir":30,"wspd":11,"visib":"6+","altim":1011,"clouds":[{"cover":"SCT","base":2000},{"cover":"FEW","base":2300}],"obsTime":1777654800},"SBNM":{"icaoId":"SBNM","flightCategory":"VFR","rawOb":"METAR SBNM 011700Z 01010KT 9999 SCT030 BKN070 29/21 Q1012","temp":29,"dewp":21,"wdir":10,"wspd":10,"visib":"6+","altim":1012,"clouds":[{"cover":"SCT","base":3000},{"cover":"BKN","base":7000}],"obsTime":1777654800}}}