{"updated":1775863430,"count":76,"data":{"SBRF":{"icaoId":"SBRF","flightCategory":"VFR","rawOb":"METAR SBRF 102200Z 12005KT 9999 FEW025 28/23 Q1012","temp":28,"dewp":23,"wdir":120,"wspd":5,"visib":"6+","altim":1012,"clouds":[{"cover":"FEW","base":2500}],"obsTime":1775858400},"SBBE":{"icaoId":"SBBE","flightCategory":"VFR","rawOb":"METAR SBBE 102200Z 06010KT 9999 FEW010 SCT056 27/24 Q1011","temp":27,"dewp":24,"wdir":60,"wspd":10,"visib":"6+","altim":1011,"clouds":[{"cover":"FEW","base":1000},{"cover":"SCT","base":5600}],"obsTime":1775858400},"SBBR":{"icaoId":"SBBR","flightCategory":"VFR","rawOb":"METAR SBBR 102200Z 11005KT 9999 SCT030 SCT080 24/19 Q1018","temp":24,"dewp":19,"wdir":110,"wspd":5,"visib":"6+","altim":1018,"clouds":[{"cover":"SCT","base":3000},{"cover":"SCT","base":8000}],"obsTime":1775858400},"SBBV":{"icaoId":"SBBV","flightCategory":"VFR","rawOb":"METAR SBBV 102200Z 10009KT 9999 FEW035 FEW045TCU 32/21 Q1009","temp":32,"dewp":21,"wdir":100,"wspd":9,"visib":"6+","altim":1009,"clouds":[{"cover":"FEW","base":3500},{"cover":"FEW","base":4500}],"obsTime":1775858400},"SBCF":{"icaoId":"SBCF","flightCategory":"VFR","rawOb":"METAR SBCF 102200Z 12010KT 9999 VCTS FEW040 FEW045CB SCT100 25/19 Q1017","temp":25,"dewp":19,"wdir":120,"wspd":10,"visib":"6+","altim":1017,"clouds":[{"cover":"FEW","base":4000},{"cover":"FEW","base":4500},{"cover":"SCT","base":10000}],"obsTime":1775858400},"SBCG":{"icaoId":"SBCG","flightCategory":"VFR","rawOb":"METAR SBCG 102200Z 12005KT 9999 FEW035 FEW045TCU SCT100 26/21 Q1015","temp":26,"dewp":21,"wdir":120,"wspd":5,"visib":"6+","altim":1015,"clouds":[{"cover":"FEW","base":3500},{"cover":"FEW","base":4500},{"cover":"SCT","base":10000}],"obsTime":1775858400},"SBCT":{"icaoId":"SBCT","flightCategory":"MVFR","rawOb":"METAR SBCT 102200Z 11005KT 9999 BKN012 15/13 Q1022","temp":15,"dewp":13,"wdir":110,"wspd":5,"visib":"6+","altim":1022,"clouds":[{"cover":"BKN","base":1200}],"obsTime":1775858400},"SBCZ":{"icaoId":"SBCZ","flightCategory":"VFR","rawOb":"METAR SBCZ 102200Z 21003KT 9999 SCT025 FEW025TCU SCT050 BKN090 27/24 Q1009","temp":27,"dewp":24,"wdir":210,"wspd":3,"visib":"6+","altim":1009,"clouds":[{"cover":"SCT","base":2500},{"cover":"FEW","base":2500},{"cover":"SCT","base":5000},{"cover":"BKN","base":9000}],"obsTime":1775858400},"SBEG":{"icaoId":"SBEG","flightCategory":"VFR","rawOb":"METAR SBEG 102200Z VRB02KT 9999 VCSH FEW025 FEW030TCU SCT100 28/24 Q1009","temp":28,"dewp":24,"wdir":"VRB","wspd":2,"visib":"6+","altim":1009,"clouds":[{"cover":"FEW","base":2500},{"cover":"FEW","base":3000},{"cover":"SCT","base":10000}],"obsTime":1775858400},"SBFI":{"icaoId":"SBFI","flightCategory":"VFR","rawOb":"METAR SBFI 102200Z 21004KT CAVOK 24/19 Q1014","temp":24,"dewp":19,"wdir":210,"wspd":4,"visib":"6+","altim":1014,"clouds":[],"obsTime":1775858400},"SBFL":{"icaoId":"SBFL","flightCategory":"VFR","rawOb":"METAR SBFL 102200Z 18005KT 9999 SCT048 BKN070 22/16 Q1019","temp":22,"dewp":16,"wdir":180,"wspd":5,"visib":"6+","altim":1019,"clouds":[{"cover":"SCT","base":4800},{"cover":"BKN","base":7000}],"obsTime":1775858400},"SBFZ":{"icaoId":"SBFZ","flightCategory":"VFR","rawOb":"METAR SBFZ 102200Z 11004KT 9999 FEW017 27/24 Q1011","temp":27,"dewp":24,"wdir":110,"wspd":4,"visib":"6+","altim":1011,"clouds":[{"cover":"FEW","base":1700}],"obsTime":1775858400},"SBGL":{"icaoId":"SBGL","flightCategory":"VFR","rawOb":"METAR SBGL 102200Z 20005KT 9999 FEW030 BKN070 24/20 Q1018","temp":24,"dewp":20,"wdir":200,"wspd":5,"visib":"6+","altim":1018,"clouds":[{"cover":"FEW","base":3000},{"cover":"BKN","base":7000}],"obsTime":1775858400},"SBGO":{"icaoId":"SBGO","flightCategory":"VFR","rawOb":"METAR SBGO 102200Z 32005KT 9999 FEW048 26/21 Q1015","temp":26,"dewp":21,"wdir":320,"wspd":5,"visib":"6+","altim":1015,"clouds":[{"cover":"FEW","base":4800}],"obsTime":1775858400},"SBGR":{"icaoId":"SBGR","flightCategory":"VFR","rawOb":"METAR SBGR 102200Z 13005KT 9999 SCT012 OVC036 18/15 Q1021","temp":18,"dewp":15,"wdir":130,"wspd":5,"visib":"6+","altim":1021,"clouds":[{"cover":"SCT","base":1200},{"cover":"OVC","base":3600}],"obsTime":1775858400},"SBIL":{"icaoId":"SBIL","flightCategory":"VFR","rawOb":"METAR SBIL 102200Z 13005KT 9999 SCT018 28/24 Q1014","temp":28,"dewp":24,"wdir":130,"wspd":5,"visib":"6+","altim":1014,"clouds":[{"cover":"SCT","base":1800}],"obsTime":1775858400},"SBJU":{"icaoId":"SBJU","flightCategory":"VFR","rawOb":"METAR SBJU 102200Z 00000KT CAVOK 27/21 Q1013","temp":27,"dewp":21,"wdir":0,"wspd":0,"visib":"6+","altim":1013,"clouds":[],"obsTime":1775858400},"SBKP":{"icaoId":"SBKP","flightCategory":"VFR","rawOb":"METAR SBKP 102200Z 14014KT 9999 SCT035 BKN070 20/15 Q1019","temp":20,"dewp":15,"wdir":140,"wspd":14,"visib":"6+","altim":1019,"clouds":[{"cover":"SCT","base":3500},{"cover":"BKN","base":7000}],"obsTime":1775858400},"SBLO":{"icaoId":"SBLO","flightCategory":"VFR","rawOb":"METAR SBLO 102200Z 09006KT 9999 SCT030 23/19 Q1017","temp":23,"dewp":19,"wdir":90,"wspd":6,"visib":"6+","altim":1017,"clouds":[{"cover":"SCT","base":3000}],"obsTime":1775858400},"SBMA":{"icaoId":"SBMA","flightCategory":"VFR","rawOb":"METAR SBMA 102200Z 32002KT 9999 FEW020 BKN100 30/25 Q1009","temp":30,"dewp":25,"wdir":320,"wspd":2,"visib":"6+","altim":1009,"clouds":[{"cover":"FEW","base":2000},{"cover":"BKN","base":10000}],"obsTime":1775858400},"SBME":{"icaoId":"SBME","flightCategory":"VFR","rawOb":"METAR SBME 102200Z 31004KT 270V350 9999 SCT030 OVC070 22/20 Q1017","temp":22,"dewp":20,"wdir":310,"wspd":4,"visib":"6+","altim":1017,"clouds":[{"cover":"SCT","base":3000},{"cover":"OVC","base":7000}],"obsTime":1775858400},"SBMG":{"icaoId":"SBMG","flightCategory":"VFR","rawOb":"METAR SBMG 102200Z 15005KT CAVOK 25/19 Q1015","temp":25,"dewp":19,"wdir":150,"wspd":5,"visib":"6+","altim":1015,"clouds":[],"obsTime":1775858400},"SBMK":{"icaoId":"SBMK","flightCategory":"VFR","rawOb":"METAR SBMK 102200Z 11003KT 9999 FEW040 BKN090 25/20 Q1016","temp":25,"dewp":20,"wdir":110,"wspd":3,"visib":"6+","altim":1016,"clouds":[{"cover":"FEW","base":4000},{"cover":"BKN","base":9000}],"obsTime":1775858400},"SBMO":{"icaoId":"SBMO","flightCategory":"VFR","rawOb":"METAR SBMO 102200Z 09005KT 9999 FEW020 SCT070 26/24 Q1013","temp":26,"dewp":24,"wdir":90,"wspd":5,"visib":"6+","altim":1013,"clouds":[{"cover":"FEW","base":2000},{"cover":"SCT","base":7000}],"obsTime":1775858400},"SBMQ":{"icaoId":"SBMQ","flightCategory":"VFR","rawOb":"METAR SBMQ 102200Z 06007KT 9999 FEW040 SCT100 26/23 Q1010","temp":26,"dewp":23,"wdir":60,"wspd":7,"visib":"6+","altim":1010,"clouds":[{"cover":"FEW","base":4000},{"cover":"SCT","base":10000}],"obsTime":1775858400},"SBNT":{"icaoId":"SBNT","flightCategory":"VFR","rawOb":"METAR SBNT 102200Z 13007KT 9999 FEW020 28/23 Q1012","temp":28,"dewp":23,"wdir":130,"wspd":7,"visib":"6+","altim":1012,"clouds":[{"cover":"FEW","base":2000}],"obsTime":1775858400},"SBPA":{"icaoId":"SBPA","flightCategory":"VFR","rawOb":"METAR SBPA 102200Z 12005KT CAVOK 20/13 Q1018","temp":20,"dewp":13,"wdir":120,"wspd":5,"visib":"6+","altim":1018,"clouds":[],"obsTime":1775858400},"SBPJ":{"icaoId":"SBPJ","flightCategory":"VFR","rawOb":"METAR SBPJ 102200Z 19004KT 150V230 9999 VCTS FEW035 FEW040CB 28/24 Q1012","temp":28,"dewp":24,"wdir":190,"wspd":4,"visib":"6+","altim":1012,"clouds":[{"cover":"FEW","base":3500},{"cover":"FEW","base":4000}],"obsTime":1775858400},"SBPV":{"icaoId":"SBPV","flightCategory":"VFR","rawOb":"METAR SBPV 102200Z 27002KT 9999 FEW030 FEW035TCU 29/23 Q1008","temp":29,"dewp":23,"wdir":270,"wspd":2,"visib":"6+","altim":1008,"clouds":[{"cover":"FEW","base":3000},{"cover":"FEW","base":3500}],"obsTime":1775858400},"SBRB":{"icaoId":"SBRB","flightCategory":"VFR","rawOb":"METAR SBRB 102200Z 16002KT 9999 VCSH SCT030 FEW040TCU 28/26 Q1009","temp":28,"dewp":26,"wdir":160,"wspd":2,"visib":"6+","altim":1009,"clouds":[{"cover":"SCT","base":3000},{"cover":"FEW","base":4000}],"obsTime":1775858400},"SBSG":{"icaoId":"SBSG","flightCategory":"VFR","rawOb":"METAR SBSG 102200Z 13004KT 100V170 9999 SCT027 27/23 Q1013","temp":27,"dewp":23,"wdir":130,"wspd":4,"visib":"6+","altim":1013,"clouds":[{"cover":"SCT","base":2700}],"obsTime":1775858400},"SBSL":{"icaoId":"SBSL","flightCategory":"VFR","rawOb":"METAR SBSL 102200Z 05012KT 9999 -RA FEW017 BKN080 26/23 Q1010","temp":26,"dewp":23,"wdir":50,"wspd":12,"visib":"6+","altim":1010,"clouds":[{"cover":"FEW","base":1700},{"cover":"BKN","base":8000}],"obsTime":1775858400},"SBSN":{"icaoId":"SBSN","flightCategory":"VFR","rawOb":"METAR SBSN 102200Z 07002KT 9999 FEW020 27/25 Q1008","temp":27,"dewp":25,"wdir":70,"wspd":2,"visib":"6+","altim":1008,"clouds":[{"cover":"FEW","base":2000}],"obsTime":1775858400},"SBSP":{"icaoId":"SBSP","flightCategory":"VFR","rawOb":"METAR SBSP 102200Z 13006KT 9999 BKN040 17/15 Q1022","temp":17,"dewp":15,"wdir":130,"wspd":6,"visib":"6+","altim":1022,"clouds":[{"cover":"BKN","base":4000}],"obsTime":1775858400},"SBSV":{"icaoId":"SBSV","flightCategory":"VFR","rawOb":"METAR SBSV 102200Z 11009KT 9999 SCT023 28/23 Q1013","temp":28,"dewp":23,"wdir":110,"wspd":9,"visib":"6+","altim":1013,"clouds":[{"cover":"SCT","base":2300}],"obsTime":1775858400},"SBTE":{"icaoId":"SBTE","flightCategory":"VFR","rawOb":"METAR SBTE 102200Z 28002KT 9999 FEW020 30/25 Q1009","temp":30,"dewp":25,"wdir":280,"wspd":2,"visib":"6+","altim":1009,"clouds":[{"cover":"FEW","base":2000}],"obsTime":1775858400},"SBUL":{"icaoId":"SBUL","flightCategory":"VFR","rawOb":"METAR SBUL 102200Z 21005KT 9999 VCTS FEW045 FEW049CB 25/19 Q1017","temp":25,"dewp":19,"wdir":210,"wspd":5,"visib":"6+","altim":1017,"clouds":[{"cover":"FEW","base":4500},{"cover":"FEW","base":4900}],"obsTime":1775858400},"SBUR":{"icaoId":"SBUR","flightCategory":"VFR","rawOb":"METAR SBUR 102200Z 19006KT 9999 VCTS FEW045 FEW055CB 27/20 Q1016","temp":27,"dewp":20,"wdir":190,"wspd":6,"visib":"6+","altim":1016,"clouds":[{"cover":"FEW","base":4500},{"cover":"FEW","base":5500}],"obsTime":1775858400},"SBVT":{"icaoId":"SBVT","flightCategory":"VFR","rawOb":"METAR SBVT 102200Z 19011KT 9999 BKN036 BKN050 25/20 Q1016","temp":25,"dewp":20,"wdir":190,"wspd":11,"visib":"6+","altim":1016,"clouds":[{"cover":"BKN","base":3600},{"cover":"BKN","base":5000}],"obsTime":1775858400},"SBCP":{"icaoId":"SBCP","flightCategory":"MVFR","rawOb":"METAR SBCP 102200Z 24007KT 9999 BKN020 OVC090 22/22 Q1017","temp":22,"dewp":22,"wdir":240,"wspd":7,"visib":"6+","altim":1017,"clouds":[{"cover":"BKN","base":2000},{"cover":"OVC","base":9000}],"obsTime":1775858400},"SBAX":{"icaoId":"SBAX","flightCategory":"VFR","rawOb":"METAR SBAX 102200Z 17004KT CAVOK 23/19 Q1018","temp":23,"dewp":19,"wdir":170,"wspd":4,"visib":"6+","altim":1018,"clouds":[],"obsTime":1775858400},"SBKG":{"icaoId":"SBKG","flightCategory":"VFR","rawOb":"METAR SBKG 102200Z 09010KT 9999 SCT025 24/22 Q1015","temp":24,"dewp":22,"wdir":90,"wspd":10,"visib":"6+","altim":1015,"clouds":[{"cover":"SCT","base":2500}],"obsTime":1775858400},"SBVH":{"icaoId":"SBVH","flightCategory":"VFR","rawOb":"METAR SBVH 102200Z 20006KT CAVOK 24/22 Q1013","temp":24,"dewp":22,"wdir":200,"wspd":6,"visib":"6+","altim":1013,"clouds":[],"obsTime":1775858400},"SBOI":{"icaoId":"SBOI","flightCategory":"VFR","rawOb":"METAR SBOI 102200Z AUTO 04003KT 9999 FEW033 27/23 Q1011","temp":27,"dewp":23,"wdir":40,"wspd":3,"visib":"6+","altim":1011,"clouds":[{"cover":"FEW","base":3300}],"obsTime":1775858400},"SBTT":{"icaoId":"SBTT","flightCategory":"VFR","rawOb":"METAR SBTT 102200Z 09006KT 050V120 9999 SCT033 FEW040TCU 29/23 Q1008","temp":29,"dewp":23,"wdir":90,"wspd":6,"visib":"6+","altim":1008,"clouds":[{"cover":"SCT","base":3300},{"cover":"FEW","base":4000}],"obsTime":1775858400},"SBBU":{"icaoId":"SBBU","flightCategory":"VFR","rawOb":"METAR SBBU 102200Z 11009KT 9999 SCT040 BKN100 24/21 Q1017","temp":24,"dewp":21,"wdir":110,"wspd":9,"visib":"6+","altim":1017,"clouds":[{"cover":"SCT","base":4000},{"cover":"BKN","base":10000}],"obsTime":1775858400},"SBPL":{"icaoId":"SBPL","flightCategory":"VFR","rawOb":"METAR SBPL 102200Z 14004KT CAVOK 29/17 Q1012","temp":29,"dewp":17,"wdir":140,"wspd":4,"visib":"6+","altim":1012,"clouds":[],"obsTime":1775858400},"SBCO":{"icaoId":"SBCO","flightCategory":"VFR","rawOb":"METAR SBCO 102200Z 09006KT CAVOK 18/13 Q1019","temp":18,"dewp":13,"wdir":90,"wspd":6,"visib":"6+","altim":1019,"clouds":[],"obsTime":1775858400},"SBPS":{"icaoId":"SBPS","flightCategory":"VFR","rawOb":"METAR SBPS 102200Z 08008KT 9999 SCT020 27/23 Q1014","temp":27,"dewp":23,"wdir":80,"wspd":8,"visib":"6+","altim":1014,"clouds":[{"cover":"SCT","base":2000}],"obsTime":1775858400},"SBSC":{"icaoId":"SBSC","flightCategory":"MVFR","rawOb":"METAR SBSC 102200Z 21005KT 8000 FEW020 BKN030 OVC050 24/20 Q1018","temp":24,"dewp":20,"wdir":210,"wspd":5,"visib":4.97,"altim":1018,"clouds":[{"cover":"FEW","base":2000},{"cover":"BKN","base":3000},{"cover":"OVC","base":5000}],"obsTime":1775858400},"SBDN":{"icaoId":"SBDN","flightCategory":"VFR","rawOb":"METAR SBDN 102200Z 24004KT 9999 SCT039 FEW045TCU BKN082 24/20 Q1016","temp":24,"dewp":20,"wdir":240,"wspd":4,"visib":"6+","altim":1016,"clouds":[{"cover":"SCT","base":3900},{"cover":"FEW","base":4500},{"cover":"BKN","base":8200}],"obsTime":1775858400},"SBAR":{"icaoId":"SBAR","flightCategory":"VFR","rawOb":"METAR SBAR 102200Z 11010KT 9999 SCT025 29/23 Q1013","temp":29,"dewp":23,"wdir":110,"wspd":10,"visib":"6+","altim":1013,"clouds":[{"cover":"SCT","base":2500}],"obsTime":1775858400},"SBSJ":{"icaoId":"SBSJ","flightCategory":"VFR","rawOb":"METAR SBSJ 102200Z 10006KT 070V140 9999 FEW023 OVC040 18/16 Q1021","temp":18,"dewp":16,"wdir":100,"wspd":6,"visib":"6+","altim":1021,"clouds":[{"cover":"FEW","base":2300},{"cover":"OVC","base":4000}],"obsTime":1775858400},"SBBH":{"icaoId":"SBBH","flightCategory":"VFR","rawOb":"METAR SBBH 102200Z 12004KT 9999 TS SCT025 FEW045CB SCT090 23/20 Q1017","temp":23,"dewp":20,"wdir":120,"wspd":4,"visib":"6+","altim":1017,"clouds":[{"cover":"SCT","base":2500},{"cover":"FEW","base":4500},{"cover":"SCT","base":9000}],"obsTime":1775858400},"SBSM":{"icaoId":"SBSM","flightCategory":"VFR","rawOb":"METAR SBSM 102200Z 12003KT CAVOK 17/13 Q1018","temp":17,"dewp":13,"wdir":120,"wspd":3,"visib":"6+","altim":1018,"clouds":[],"obsTime":1775858400},"SBSR":{"icaoId":"SBSR","flightCategory":"VFR","rawOb":"METAR SBSR 102200Z 19009KT 140V220 9999 SCT025 FEW030TCU BKN070 27/20 Q1015","temp":27,"dewp":20,"wdir":190,"wspd":9,"visib":"6+","altim":1015,"clouds":[{"cover":"SCT","base":2500},{"cover":"FEW","base":3000},{"cover":"BKN","base":7000}],"obsTime":1775858400},"SBCA":{"icaoId":"SBCA","flightCategory":"VFR","rawOb":"METAR SBCA 102200Z 35006KT CAVOK 23/14 Q1018","temp":23,"dewp":14,"wdir":350,"wspd":6,"visib":"6+","altim":1018,"clouds":[],"obsTime":1775858400},"SBIP":{"icaoId":"SBIP","flightCategory":"VFR","rawOb":"METAR SBIP 102200Z AUTO 12003KT 070V150 CAVOK 27/21 Q1014","temp":27,"dewp":21,"wdir":120,"wspd":3,"visib":"6+","altim":1014,"clouds":[],"obsTime":1775858400},"SBTF":{"icaoId":"SBTF","flightCategory":"VFR","rawOb":"METAR SBTF 102200Z 07003KT 9999 FEW020 31/25 Q1008","temp":31,"dewp":25,"wdir":70,"wspd":3,"visib":"6+","altim":1008,"clouds":[{"cover":"FEW","base":2000}],"obsTime":1775858400},"SBCC":{"icaoId":"SBCC","flightCategory":"VFR","rawOb":"METAR SBCC 102200Z 20003KT 9999 SCT020 FEW025TCU BKN100 23/22 Q1013","temp":23,"dewp":22,"wdir":200,"wspd":3,"visib":"6+","altim":1013,"clouds":[{"cover":"SCT","base":2000},{"cover":"FEW","base":2500},{"cover":"BKN","base":10000}],"obsTime":1775858400},"SBES":{"icaoId":"SBES","flightCategory":"VFR","rawOb":"METAR SBES 102200Z VRB02KT 9999 FEW020 SCT045 OVC060 22/// Q1018","temp":null,"dewp":null,"wdir":"VRB","wspd":2,"visib":"6+","altim":1018,"clouds":[{"cover":"FEW","base":2000},{"cover":"SCT","base":4500},{"cover":"OVC","base":6000}],"obsTime":1775858400},"SBUY":{"icaoId":"SBUY","flightCategory":"VFR","rawOb":"METAR SBUY 102200Z 00000KT 9999 FEW025 28/25 Q1007","temp":28,"dewp":25,"wdir":0,"wspd":0,"visib":"6+","altim":1007,"clouds":[{"cover":"FEW","base":2500}],"obsTime":1775858400},"SBPB":{"icaoId":"SBPB","flightCategory":"VFR","rawOb":"SPECI SBPB 102145Z 06006KT 9999 SCT020 BKN100 28/25 Q1010 RETS","temp":28,"dewp":25,"wdir":60,"wspd":6,"visib":"6+","altim":1010,"clouds":[{"cover":"SCT","base":2000},{"cover":"BKN","base":10000}],"obsTime":1775857500},"SBCJ":{"icaoId":"SBCJ","flightCategory":"VFR","rawOb":"SPECI SBCJ 102130Z 00000KT CAVOK 24/22 Q1014","temp":24,"dewp":22,"wdir":0,"wspd":0,"visib":"6+","altim":1014,"clouds":[],"obsTime":1775856600},"SBAF":{"icaoId":"SBAF","flightCategory":"MVFR","rawOb":"METAR SBAF 102200Z VRB02KT 7000 FEW026 OVC060 23/23 Q1018","temp":23,"dewp":23,"wdir":"VRB","wspd":2,"visib":4.35,"altim":1018,"clouds":[{"cover":"FEW","base":2600},{"cover":"OVC","base":6000}],"obsTime":1775858400},"SBJR":{"icaoId":"SBJR","flightCategory":"VFR","rawOb":"METAR SBJR 102200Z 25003KT 9999 -RA FEW017 OVC060 23/21 Q1018","temp":23,"dewp":21,"wdir":250,"wspd":3,"visib":"6+","altim":1018,"clouds":[{"cover":"FEW","base":1700},{"cover":"OVC","base":6000}],"obsTime":1775858400},"SBLS":{"icaoId":"SBLS","flightCategory":"VFR","rawOb":"METAR SBLS 102200Z 15007KT CAVOK 25/20 Q1017 RETS","temp":25,"dewp":20,"wdir":150,"wspd":7,"visib":"6+","altim":1017,"clouds":[],"obsTime":1775858400},"SBMT":{"icaoId":"SBMT","flightCategory":"VFR","rawOb":"METAR SBMT 102200Z 11007KT 080V140 9999 FEW015 BKN070 17/15 Q1021","temp":17,"dewp":15,"wdir":110,"wspd":7,"visib":"6+","altim":1021,"clouds":[{"cover":"FEW","base":1500},{"cover":"BKN","base":7000}],"obsTime":1775858400},"SBST":{"icaoId":"SBST","flightCategory":"VFR","rawOb":"METAR SBST 102200Z 05002KT 9999 FEW015 BKN070 20/19 Q1018","temp":20,"dewp":19,"wdir":50,"wspd":2,"visib":"6+","altim":1018,"clouds":[{"cover":"FEW","base":1500},{"cover":"BKN","base":7000}],"obsTime":1775858400},"SBTA":{"icaoId":"SBTA","flightCategory":"VFR","rawOb":"METAR SBTA 102200Z 17005KT 9999 FEW020 OVC040 19/14 Q1019","temp":19,"dewp":14,"wdir":170,"wspd":5,"visib":"6+","altim":1019,"clouds":[{"cover":"FEW","base":2000},{"cover":"OVC","base":4000}],"obsTime":1775858400},"SBJV":{"icaoId":"SBJV","flightCategory":"MVFR","rawOb":"METAR SBJV 102200Z 00000KT 9999 BKN030 19/16 Q1019","temp":19,"dewp":16,"wdir":0,"wspd":0,"visib":"6+","altim":1019,"clouds":[{"cover":"BKN","base":3000}],"obsTime":1775858400},"SBLE":{"icaoId":"SBLE","flightCategory":"VFR","rawOb":"METAR SBLE 102200Z AUTO VRB02KT CAVOK 22/22 Q1015","temp":22,"dewp":22,"wdir":"VRB","wspd":2,"visib":"6+","altim":1015,"clouds":[],"obsTime":1775858400},"SBAN":{"icaoId":"SBAN","flightCategory":"VFR","rawOb":"METAR SBAN 102200Z 15003KT 9999 VCTS SCT030 FEW035CB 24/19 Q1019","temp":24,"dewp":19,"wdir":150,"wspd":3,"visib":"6+","altim":1019,"clouds":[{"cover":"SCT","base":3000},{"cover":"FEW","base":3500}],"obsTime":1775858400},"SBJP":{"icaoId":"SBJP","flightCategory":"VFR","rawOb":"METAR SBJP 102200Z 12006KT 9999 FEW025 26/23 Q1013","temp":26,"dewp":23,"wdir":120,"wspd":6,"visib":"6+","altim":1013,"clouds":[{"cover":"FEW","base":2500}],"obsTime":1775858400},"SBGW":{"icaoId":"SBGW","flightCategory":"MVFR","rawOb":"METAR SBGW 102200Z 33001KT 7000 FEW008 OVC042 19/15 Q1020","temp":19,"dewp":15,"wdir":330,"wspd":1,"visib":4.35,"altim":1020,"clouds":[{"cover":"FEW","base":800},{"cover":"OVC","base":4200}],"obsTime":1775858400},"SBPF":{"icaoId":"SBPF","flightCategory":"VFR","rawOb":"METAR SBPF 102200Z 14010KT CAVOK 17/11 Q1019","temp":17,"dewp":11,"wdir":140,"wspd":10,"visib":"6+","altim":1019,"clouds":[],"obsTime":1775858400}}}