{"updated":1780242250,"count":88,"data":{"SBEG":{"icaoId":"SBEG","flightCategory":"VFR","rawOb":"METAR SBEG 311400Z 13004KT 9999 SCT006 BKN045 BKN060 26/24 Q1016","temp":26,"dewp":24,"wdir":130,"wspd":4,"visib":"6+","altim":1016,"clouds":[{"cover":"SCT","base":600},{"cover":"BKN","base":4500},{"cover":"BKN","base":6000}],"obsTime":1780236000},"SBBR":{"icaoId":"SBBR","flightCategory":"VFR","rawOb":"METAR SBBR 311400Z 10007KT 030V150 9999 SCT020 23/17 Q1023","temp":23,"dewp":17,"wdir":100,"wspd":7,"visib":"6+","altim":1023,"clouds":[{"cover":"SCT","base":2000}],"obsTime":1780236000},"SBBV":{"icaoId":"SBBV","flightCategory":"MVFR","rawOb":"METAR SBBV 311400Z 11005KT 9999 VCSH BKN025 FEW030TCU BKN070 28/24 Q1017","temp":28,"dewp":24,"wdir":110,"wspd":5,"visib":"6+","altim":1017,"clouds":[{"cover":"BKN","base":2500},{"cover":"FEW","base":3000},{"cover":"BKN","base":7000}],"obsTime":1780236000},"SBCB":{"icaoId":"SBCB","flightCategory":"VFR","rawOb":"METAR SBCB 311400Z /////KT 9999 FEW020 24/19 Q1019","temp":24,"dewp":19,"wdir":null,"wspd":null,"visib":"6+","altim":1019,"clouds":[{"cover":"FEW","base":2000}],"obsTime":1780236000},"SBAT":{"icaoId":"SBAT","flightCategory":"VFR","rawOb":"METAR SBAT 311400Z 11008KT CAVOK 32/21 Q1017","temp":32,"dewp":21,"wdir":110,"wspd":8,"visib":"6+","altim":1017,"clouds":[],"obsTime":1780236000},"SBBE":{"icaoId":"SBBE","flightCategory":"VFR","rawOb":"METAR SBBE 311400Z 10008KT 9999 SCT025 BKN100 30/24 Q1015","temp":30,"dewp":24,"wdir":100,"wspd":8,"visib":"6+","altim":1015,"clouds":[{"cover":"SCT","base":2500},{"cover":"BKN","base":10000}],"obsTime":1780236000},"SBCF":{"icaoId":"SBCF","flightCategory":"VFR","rawOb":"METAR SBCF 311400Z 20003KT CAVOK 24/15 Q1023","temp":24,"dewp":15,"wdir":200,"wspd":3,"visib":"6+","altim":1023,"clouds":[],"obsTime":1780236000},"SBCG":{"icaoId":"SBCG","flightCategory":"VFR","rawOb":"METAR SBCG 311400Z 09008KT CAVOK 24/18 Q1021","temp":24,"dewp":18,"wdir":90,"wspd":8,"visib":"6+","altim":1021,"clouds":[],"obsTime":1780236000},"SBCP":{"icaoId":"SBCP","flightCategory":"VFR","rawOb":"METAR SBCP 311400Z 21005KT 9999 FEW020 27/17 Q1019","temp":27,"dewp":17,"wdir":210,"wspd":5,"visib":"6+","altim":1019,"clouds":[{"cover":"FEW","base":2000}],"obsTime":1780236000},"SBCR":{"icaoId":"SBCR","flightCategory":"VFR","rawOb":"METAR SBCR 311400Z 34004KT 280V010 9999 FEW011 23/20 Q1019","temp":23,"dewp":20,"wdir":340,"wspd":4,"visib":"6+","altim":1019,"clouds":[{"cover":"FEW","base":1100}],"obsTime":1780236000},"SBCT":{"icaoId":"SBCT","flightCategory":"VFR","rawOb":"METAR SBCT 311400Z 20004KT 140V300 9999 SCT009 15/12 Q1024","temp":15,"dewp":12,"wdir":200,"wspd":4,"visib":"6+","altim":1024,"clouds":[{"cover":"SCT","base":900}],"obsTime":1780236000},"SBCZ":{"icaoId":"SBCZ","flightCategory":"VFR","rawOb":"METAR SBCZ 311400Z 16007KT CAVOK 28/23 Q1017","temp":28,"dewp":23,"wdir":160,"wspd":7,"visib":"6+","altim":1017,"clouds":[],"obsTime":1780236000},"SBFI":{"icaoId":"SBFI","flightCategory":"LIFR","rawOb":"METAR SBFI 311400Z 12004KT 5000 BR BKN003 OVC008 16/16 Q1022","temp":16,"dewp":16,"wdir":120,"wspd":4,"visib":3.11,"altim":1022,"clouds":[{"cover":"BKN","base":300},{"cover":"OVC","base":800}],"obsTime":1780236000},"SBFL":{"icaoId":"SBFL","flightCategory":"VFR","rawOb":"METAR SBFL 311400Z VRB02KT CAVOK 20/14 Q1021","temp":20,"dewp":14,"wdir":"VRB","wspd":2,"visib":"6+","altim":1021,"clouds":[],"obsTime":1780236000},"SBFZ":{"icaoId":"SBFZ","flightCategory":"VFR","rawOb":"METAR SBFZ 311400Z 14012KT 9999 SCT027 30/22 Q1014","temp":30,"dewp":22,"wdir":140,"wspd":12,"visib":"6+","altim":1014,"clouds":[{"cover":"SCT","base":2700}],"obsTime":1780236000},"SBGL":{"icaoId":"SBGL","flightCategory":"VFR","rawOb":"METAR SBGL 311400Z 24006KT 9999 SCT022 SCT030 26/18 Q1019","temp":26,"dewp":18,"wdir":240,"wspd":6,"visib":"6+","altim":1019,"clouds":[{"cover":"SCT","base":2200},{"cover":"SCT","base":3000}],"obsTime":1780236000},"SBGO":{"icaoId":"SBGO","flightCategory":"VFR","rawOb":"METAR SBGO 311400Z 09007KT CAVOK 27/15 Q1022","temp":27,"dewp":15,"wdir":90,"wspd":7,"visib":"6+","altim":1022,"clouds":[],"obsTime":1780236000},"SBGR":{"icaoId":"SBGR","flightCategory":"MVFR","rawOb":"METAR SBGR 311400Z 20003KT 9999 BKN020 OVC030 18/14 Q1024","temp":18,"dewp":14,"wdir":200,"wspd":3,"visib":"6+","altim":1024,"clouds":[{"cover":"BKN","base":2000},{"cover":"OVC","base":3000}],"obsTime":1780236000},"SBHT":{"icaoId":"SBHT","flightCategory":"MVFR","rawOb":"METAR SBHT 311400Z 07007KT 9999 BKN020 BKN100 28/25 Q1015","temp":28,"dewp":25,"wdir":70,"wspd":7,"visib":"6+","altim":1015,"clouds":[{"cover":"BKN","base":2000},{"cover":"BKN","base":10000}],"obsTime":1780236000},"SBIL":{"icaoId":"SBIL","flightCategory":"VFR","rawOb":"METAR SBIL 311400Z COR 21005KT 9999 SCT023 SCT050 BKN070 27/22 Q1018","temp":27,"dewp":22,"wdir":210,"wspd":5,"visib":"6+","altim":1018,"clouds":[{"cover":"SCT","base":2300},{"cover":"SCT","base":5000},{"cover":"BKN","base":7000}],"obsTime":1780236000},"SBJU":{"icaoId":"SBJU","flightCategory":"VFR","rawOb":"METAR SBJU 311400Z 24005KT 9999 FEW022 28/17 Q1018","temp":28,"dewp":17,"wdir":240,"wspd":5,"visib":"6+","altim":1018,"clouds":[{"cover":"FEW","base":2200}],"obsTime":1780236000},"SBKP":{"icaoId":"SBKP","flightCategory":"VFR","rawOb":"METAR SBKP 311400Z VRB02KT 9999 FEW030 21/15 Q1023","temp":21,"dewp":15,"wdir":"VRB","wspd":2,"visib":"6+","altim":1023,"clouds":[{"cover":"FEW","base":3000}],"obsTime":1780236000},"SBLO":{"icaoId":"SBLO","flightCategory":"VFR","rawOb":"METAR SBLO 311400Z 11005KT CAVOK 19/14 Q1023","temp":19,"dewp":14,"wdir":110,"wspd":5,"visib":"6+","altim":1023,"clouds":[],"obsTime":1780236000},"SBMA":{"icaoId":"SBMA","flightCategory":"VFR","rawOb":"METAR SBMA 311400Z 36004KT 9999 SCT020 BKN100 29/24 Q1015","temp":29,"dewp":24,"wdir":360,"wspd":4,"visib":"6+","altim":1015,"clouds":[{"cover":"SCT","base":2000},{"cover":"BKN","base":10000}],"obsTime":1780236000},"SBME":{"icaoId":"SBME","flightCategory":"VFR","rawOb":"METAR SBME 311400Z 18008KT CAVOK 26/19 Q1019","temp":26,"dewp":19,"wdir":180,"wspd":8,"visib":"6+","altim":1019,"clouds":[],"obsTime":1780236000},"SBMG":{"icaoId":"SBMG","flightCategory":"VFR","rawOb":"METAR SBMG 311400Z 15003KT 070V220 9999 FEW015 19/15 Q1022","temp":19,"dewp":15,"wdir":150,"wspd":3,"visib":"6+","altim":1022,"clouds":[{"cover":"FEW","base":1500}],"obsTime":1780236000},"SBMK":{"icaoId":"SBMK","flightCategory":"VFR","rawOb":"METAR SBMK 311400Z 20003KT CAVOK 25/16 Q1021","temp":25,"dewp":16,"wdir":200,"wspd":3,"visib":"6+","altim":1021,"clouds":[],"obsTime":1780236000},"SBMO":{"icaoId":"SBMO","flightCategory":"VFR","rawOb":"METAR SBMO 311400Z 19005KT 9999 SCT025 28/22 Q1016","temp":28,"dewp":22,"wdir":190,"wspd":5,"visib":"6+","altim":1016,"clouds":[{"cover":"SCT","base":2500}],"obsTime":1780236000},"SBMQ":{"icaoId":"SBMQ","flightCategory":"MVFR","rawOb":"METAR SBMQ 311400Z 14002KT 9999 BKN015 FEW036TCU 31/27 Q1015","temp":31,"dewp":27,"wdir":140,"wspd":2,"visib":"6+","altim":1015,"clouds":[{"cover":"BKN","base":1500},{"cover":"FEW","base":3600}],"obsTime":1780236000},"SBNT":{"icaoId":"SBNT","flightCategory":"VFR","rawOb":"METAR SBNT 311400Z 14011KT 9999 SCT030 30/23 Q1015","temp":30,"dewp":23,"wdir":140,"wspd":11,"visib":"6+","altim":1015,"clouds":[{"cover":"SCT","base":3000}],"obsTime":1780236000},"SBPA":{"icaoId":"SBPA","flightCategory":"IFR","rawOb":"METAR SBPA 311400Z COR 28007KT 7000 BKN007 18/17 Q1021","temp":18,"dewp":17,"wdir":280,"wspd":7,"visib":4.35,"altim":1021,"clouds":[{"cover":"BKN","base":700}],"obsTime":1780236000},"SBPJ":{"icaoId":"SBPJ","flightCategory":"VFR","rawOb":"METAR SBPJ 311400Z VRB03KT CAVOK 31/19 Q1016","temp":31,"dewp":19,"wdir":"VRB","wspd":3,"visib":"6+","altim":1016,"clouds":[],"obsTime":1780236000},"SBPV":{"icaoId":"SBPV","flightCategory":"VFR","rawOb":"METAR SBPV 311400Z 14007KT CAVOK 30/21 Q1015","temp":30,"dewp":21,"wdir":140,"wspd":7,"visib":"6+","altim":1015,"clouds":[],"obsTime":1780236000},"SBRB":{"icaoId":"SBRB","flightCategory":"VFR","rawOb":"METAR SBRB 311400Z 13007KT CAVOK 28/23 Q1017","temp":28,"dewp":23,"wdir":130,"wspd":7,"visib":"6+","altim":1017,"clouds":[],"obsTime":1780236000},"SBRF":{"icaoId":"SBRF","flightCategory":"VFR","rawOb":"METAR SBRF 311400Z 18009KT 9999 VCSH FEW015 SCT020 FEW025TCU 28/24 Q1015","temp":28,"dewp":24,"wdir":180,"wspd":9,"visib":"6+","altim":1015,"clouds":[{"cover":"FEW","base":1500},{"cover":"SCT","base":2000},{"cover":"FEW","base":2500}],"obsTime":1780236000},"SBSG":{"icaoId":"SBSG","flightCategory":"MVFR","rawOb":"METAR SBSG 311400Z 15006KT 090V180 9999 BKN030 29/23 Q1015","temp":29,"dewp":23,"wdir":150,"wspd":6,"visib":"6+","altim":1015,"clouds":[{"cover":"BKN","base":3000}],"obsTime":1780236000},"SBSL":{"icaoId":"SBSL","flightCategory":"VFR","rawOb":"METAR SBSL 311400Z 11010KT 070V140 9999 FEW025 SCT100 31/25 Q1014","temp":31,"dewp":25,"wdir":110,"wspd":10,"visib":"6+","altim":1014,"clouds":[{"cover":"FEW","base":2500},{"cover":"SCT","base":10000}],"obsTime":1780236000},"SBSN":{"icaoId":"SBSN","flightCategory":"VFR","rawOb":"METAR SBSN 311400Z 10011KT 9999 VCSH SCT013 FEW040TCU OVC080 27/25 Q1015","temp":27,"dewp":25,"wdir":100,"wspd":11,"visib":"6+","altim":1015,"clouds":[{"cover":"SCT","base":1300},{"cover":"FEW","base":4000},{"cover":"OVC","base":8000}],"obsTime":1780236000},"SBSP":{"icaoId":"SBSP","flightCategory":"IFR","rawOb":"METAR SBSP 311400Z VRB03KT 9999 BKN009 BKN015 17/15 Q1024","temp":17,"dewp":15,"wdir":"VRB","wspd":3,"visib":"6+","altim":1024,"clouds":[{"cover":"BKN","base":900},{"cover":"BKN","base":1500}],"obsTime":1780236000},"SBSV":{"icaoId":"SBSV","flightCategory":"MVFR","rawOb":"METAR SBSV 311400Z 21013KT 180V240 9999 FEW012 BKN020 BKN055 26/23 Q1017","temp":26,"dewp":23,"wdir":210,"wspd":13,"visib":"6+","altim":1017,"clouds":[{"cover":"FEW","base":1200},{"cover":"BKN","base":2000},{"cover":"BKN","base":5500}],"obsTime":1780236000},"SBTE":{"icaoId":"SBTE","flightCategory":"VFR","rawOb":"METAR SBTE 311400Z 10008KT 9999 SCT020 31/22 Q1014","temp":31,"dewp":22,"wdir":100,"wspd":8,"visib":"6+","altim":1014,"clouds":[{"cover":"SCT","base":2000}],"obsTime":1780236000},"SBUL":{"icaoId":"SBUL","flightCategory":"VFR","rawOb":"METAR SBUL 311400Z 07004KT 010V170 9999 FEW025 23/14 Q1023","temp":23,"dewp":14,"wdir":70,"wspd":4,"visib":"6+","altim":1023,"clouds":[{"cover":"FEW","base":2500}],"obsTime":1780236000},"SBUR":{"icaoId":"SBUR","flightCategory":"VFR","rawOb":"METAR SBUR 311400Z 35005KT 9999 FEW034 25/16 Q1022","temp":25,"dewp":16,"wdir":350,"wspd":5,"visib":"6+","altim":1022,"clouds":[{"cover":"FEW","base":3400}],"obsTime":1780236000},"SBVT":{"icaoId":"SBVT","flightCategory":"VFR","rawOb":"METAR SBVT 311400Z 09002KT CAVOK 27/17 Q1018","temp":27,"dewp":17,"wdir":90,"wspd":2,"visib":"6+","altim":1018,"clouds":[],"obsTime":1780236000},"SBGM":{"icaoId":"SBGM","flightCategory":"VFR","rawOb":"METAR SBGM 311400Z 11009KT 9999 FEW040 29/23 Q1016","temp":29,"dewp":23,"wdir":110,"wspd":9,"visib":"6+","altim":1016,"clouds":[{"cover":"FEW","base":4000}],"obsTime":1780236000},"SBAR":{"icaoId":"SBAR","flightCategory":"MVFR","rawOb":"METAR SBAR 311400Z 15008KT 9999 BKN023 28/23 Q1016","temp":28,"dewp":23,"wdir":150,"wspd":8,"visib":"6+","altim":1016,"clouds":[{"cover":"BKN","base":2300}],"obsTime":1780236000},"SBVH":{"icaoId":"SBVH","flightCategory":"VFR","rawOb":"METAR SBVH 311400Z 09011KT CAVOK 26/20 Q1019","temp":26,"dewp":20,"wdir":90,"wspd":11,"visib":"6+","altim":1019,"clouds":[],"obsTime":1780236000},"SBUY":{"icaoId":"SBUY","flightCategory":"VFR","rawOb":"METAR SBUY 311400Z 08001KT 9999 SCT017 SCT100 28/24 Q1014","temp":28,"dewp":24,"wdir":80,"wspd":1,"visib":"6+","altim":1014,"clouds":[{"cover":"SCT","base":1700},{"cover":"SCT","base":10000}],"obsTime":1780236000},"SBTU":{"icaoId":"SBTU","flightCategory":"VFR","rawOb":"METAR SBTU 311400Z AUTO 26007KT 230V290 9999 // NCD ///// Q1017","temp":null,"dewp":null,"wdir":260,"wspd":7,"visib":"6+","altim":1017,"clouds":[],"obsTime":1780236000},"SBTT":{"icaoId":"SBTT","flightCategory":"MVFR","rawOb":"METAR SBTT 311400Z 35002KT 9999 BKN010 25/24 Q1017","temp":25,"dewp":24,"wdir":350,"wspd":2,"visib":"6+","altim":1017,"clouds":[{"cover":"BKN","base":1000}],"obsTime":1780236000},"SBTF":{"icaoId":"SBTF","flightCategory":"MVFR","rawOb":"METAR SBTF 311400Z 29007KT 9999 BKN011 BKN100 27/25 Q1015","temp":27,"dewp":25,"wdir":290,"wspd":7,"visib":"6+","altim":1015,"clouds":[{"cover":"BKN","base":1100},{"cover":"BKN","base":10000}],"obsTime":1780236000},"SBAX":{"icaoId":"SBAX","flightCategory":"VFR","rawOb":"METAR SBAX 311400Z AUTO 35004KT 300V040 CAVOK 23/14 Q1023","temp":23,"dewp":14,"wdir":350,"wspd":4,"visib":"6+","altim":1023,"clouds":[],"obsTime":1780236000},"SBSR":{"icaoId":"SBSR","flightCategory":"VFR","rawOb":"METAR SBSR 311400Z 12004KT CAVOK 24/15 Q1022","temp":24,"dewp":15,"wdir":120,"wspd":4,"visib":"6+","altim":1022,"clouds":[],"obsTime":1780236000},"SBBH":{"icaoId":"SBBH","flightCategory":"VFR","rawOb":"METAR SBBH 311400Z 00000KT 9999 FEW030 24/14 Q1022","temp":24,"dewp":14,"wdir":0,"wspd":0,"visib":"6+","altim":1022,"clouds":[{"cover":"FEW","base":3000}],"obsTime":1780236000},"SBSM":{"icaoId":"SBSM","flightCategory":"VFR","rawOb":"METAR SBSM 311400Z 26005KT 9999 FEW017 BKN035 19/13 Q1023","temp":19,"dewp":13,"wdir":260,"wspd":5,"visib":"6+","altim":1023,"clouds":[{"cover":"FEW","base":1700},{"cover":"BKN","base":3500}],"obsTime":1780236000},"SBBQ":{"icaoId":"SBBQ","flightCategory":"VFR","rawOb":"METAR SBBQ 311400Z 22004KT 190V270 CAVOK 19/15 Q1026","temp":19,"dewp":15,"wdir":220,"wspd":4,"visib":"6+","altim":1026,"clouds":[],"obsTime":1780236000},"SBSJ":{"icaoId":"SBSJ","flightCategory":"MVFR","rawOb":"METAR SBSJ 311400Z VRB02KT 9999 BKN022 20/14 Q1023","temp":20,"dewp":14,"wdir":"VRB","wspd":2,"visib":"6+","altim":1023,"clouds":[{"cover":"BKN","base":2200}],"obsTime":1780236000},"SBBU":{"icaoId":"SBBU","flightCategory":"VFR","rawOb":"METAR SBBU 311400Z 19005KT CAVOK 21/15 Q1023","temp":21,"dewp":15,"wdir":190,"wspd":5,"visib":"6+","altim":1023,"clouds":[],"obsTime":1780236000},"SBSC":{"icaoId":"SBSC","flightCategory":"VFR","rawOb":"METAR SBSC 311400Z 19005KT 9999 SCT020 BKN050 24/19 Q1020","temp":24,"dewp":19,"wdir":190,"wspd":5,"visib":"6+","altim":1020,"clouds":[{"cover":"SCT","base":2000},{"cover":"BKN","base":5000}],"obsTime":1780236000},"SBPS":{"icaoId":"SBPS","flightCategory":"MVFR","rawOb":"METAR SBPS 311400Z VRB05KT 9999 BKN015 25/21 Q1018","temp":25,"dewp":21,"wdir":"VRB","wspd":5,"visib":"6+","altim":1018,"clouds":[{"cover":"BKN","base":1500}],"obsTime":1780236000},"SBCC":{"icaoId":"SBCC","flightCategory":"VFR","rawOb":"METAR SBCC 311400Z 07011KT 9999 FEW025 SCT100 28/18 Q1018","temp":28,"dewp":18,"wdir":70,"wspd":11,"visib":"6+","altim":1018,"clouds":[{"cover":"FEW","base":2500},{"cover":"SCT","base":10000}],"obsTime":1780236000},"SBPP":{"icaoId":"SBPP","flightCategory":"VFR","rawOb":"METAR SBPP 311400Z 08009KT CAVOK 20/16 Q1022","temp":20,"dewp":16,"wdir":80,"wspd":9,"visib":"6+","altim":1022,"clouds":[],"obsTime":1780236000},"SBCJ":{"icaoId":"SBCJ","flightCategory":"VFR","rawOb":"METAR SBCJ 311400Z 11005KT CAVOK 28/19 Q1019","temp":28,"dewp":19,"wdir":110,"wspd":5,"visib":"6+","altim":1019,"clouds":[],"obsTime":1780236000},"SBPL":{"icaoId":"SBPL","flightCategory":"VFR","rawOb":"METAR SBPL 311400Z 10011KT 9999 SCT025 28/19 Q1018","temp":28,"dewp":19,"wdir":100,"wspd":11,"visib":"6+","altim":1018,"clouds":[{"cover":"SCT","base":2500}],"obsTime":1780236000},"SBCO":{"icaoId":"SBCO","flightCategory":"IFR","rawOb":"METAR SBCO 311400Z 28007KT 7000 BKN009 OVC070 19/16 Q1022","temp":19,"dewp":16,"wdir":280,"wspd":7,"visib":4.35,"altim":1022,"clouds":[{"cover":"BKN","base":900},{"cover":"OVC","base":7000}],"obsTime":1780236000},"SBPB":{"icaoId":"SBPB","flightCategory":"VFR","rawOb":"METAR SBPB 311400Z 10012KT 9999 FEW020 SCT100 31/23 Q1014","temp":31,"dewp":23,"wdir":100,"wspd":12,"visib":"6+","altim":1014,"clouds":[{"cover":"FEW","base":2000},{"cover":"SCT","base":10000}],"obsTime":1780236000},"SBDN":{"icaoId":"SBDN","flightCategory":"VFR","rawOb":"METAR SBDN 311400Z 11006KT CAVOK 22/15 Q1022","temp":22,"dewp":15,"wdir":110,"wspd":6,"visib":"6+","altim":1022,"clouds":[],"obsTime":1780236000},"SBKG":{"icaoId":"SBKG","flightCategory":"MVFR","rawOb":"METAR SBKG 311400Z 11006KT 9999 BKN020 26/21 Q1018","temp":26,"dewp":21,"wdir":110,"wspd":6,"visib":"6+","altim":1018,"clouds":[{"cover":"BKN","base":2000}],"obsTime":1780236000},"SBES":{"icaoId":"SBES","flightCategory":"VFR","rawOb":"METAR SBES 311400Z 23010KT 200V260 9999 FEW020 25/// Q1019","temp":null,"dewp":null,"wdir":230,"wspd":10,"visib":"6+","altim":1019,"clouds":[{"cover":"FEW","base":2000}],"obsTime":1780236000},"SBIP":{"icaoId":"SBIP","flightCategory":"VFR","rawOb":"METAR SBIP 311400Z AUTO VRB03KT CAVOK 25/17 Q1020","temp":25,"dewp":17,"wdir":"VRB","wspd":3,"visib":"6+","altim":1020,"clouds":[],"obsTime":1780236000},"SBOI":{"icaoId":"SBOI","flightCategory":"VFR","rawOb":"METAR SBOI 311400Z AUTO 14003KT 060V230 9999 FEW014 SCT018 28/25 Q1014","temp":28,"dewp":25,"wdir":140,"wspd":3,"visib":"6+","altim":1014,"clouds":[{"cover":"FEW","base":1400},{"cover":"SCT","base":1800}],"obsTime":1780236000},"SBCA":{"icaoId":"SBCA","flightCategory":"VFR","rawOb":"METAR SBCA 311400Z 13003KT 030V190 9999 FEW020 20/14 Q1023","temp":20,"dewp":14,"wdir":130,"wspd":3,"visib":"6+","altim":1023,"clouds":[{"cover":"FEW","base":2000}],"obsTime":1780236000},"SBAU":{"icaoId":"SBAU","flightCategory":"VFR","rawOb":"METAR SBAU 311400Z 09012KT CAVOK 23/14 Q1021","temp":23,"dewp":14,"wdir":90,"wspd":12,"visib":"6+","altim":1021,"clouds":[],"obsTime":1780236000},"SBTA":{"icaoId":"SBTA","flightCategory":"MVFR","rawOb":"METAR SBTA 311400Z 25006KT 9999 BKN025 20/14 Q1022","temp":20,"dewp":14,"wdir":250,"wspd":6,"visib":"6+","altim":1022,"clouds":[{"cover":"BKN","base":2500}],"obsTime":1780236000},"SBPF":{"icaoId":"SBPF","flightCategory":"IFR","rawOb":"METAR SBPF 311400Z 28002KT 9999 BKN007 14/13 Q1024","temp":14,"dewp":13,"wdir":280,"wspd":2,"visib":"6+","altim":1024,"clouds":[{"cover":"BKN","base":700}],"obsTime":1780236000},"SBJP":{"icaoId":"SBJP","flightCategory":"MVFR","rawOb":"METAR SBJP 311400Z 14008KT 110V180 9999 BKN020 30/23 Q1015","temp":30,"dewp":23,"wdir":140,"wspd":8,"visib":"6+","altim":1015,"clouds":[{"cover":"BKN","base":2000}],"obsTime":1780236000},"SBLE":{"icaoId":"SBLE","flightCategory":"VFR","rawOb":"METAR SBLE 311400Z AUTO 18006KT 140V230 9999 SCT015 22/21 Q1021","temp":22,"dewp":21,"wdir":180,"wspd":6,"visib":"6+","altim":1021,"clouds":[{"cover":"SCT","base":1500}],"obsTime":1780236000},"SBTC":{"icaoId":"SBTC","flightCategory":"MVFR","rawOb":"METAR SBTC 311500Z 22007KT 9999 BKN020 BKN070 26/22 Q1017","temp":26,"dewp":22,"wdir":220,"wspd":7,"visib":"6+","altim":1017,"clouds":[{"cover":"BKN","base":2000},{"cover":"BKN","base":7000}],"obsTime":1780239600},"SBAN":{"icaoId":"SBAN","flightCategory":"VFR","rawOb":"METAR SBAN 311400Z 16009KT 130V210 CAVOK 23/14 Q1024","temp":23,"dewp":14,"wdir":160,"wspd":9,"visib":"6+","altim":1024,"clouds":[],"obsTime":1780236000},"SBJV":{"icaoId":"SBJV","flightCategory":"VFR","rawOb":"METAR SBJV 311400Z 09003KT 9999 FEW018 20/16 Q1021","temp":20,"dewp":16,"wdir":90,"wspd":3,"visib":"6+","altim":1021,"clouds":[{"cover":"FEW","base":1800}],"obsTime":1780236000},"SBNM":{"icaoId":"SBNM","flightCategory":"MVFR","rawOb":"METAR SBNM 311400Z 29004KT 8000 SCT010 BKN015 17/16 Q1023","temp":17,"dewp":16,"wdir":290,"wspd":4,"visib":4.97,"altim":1023,"clouds":[{"cover":"SCT","base":1000},{"cover":"BKN","base":1500}],"obsTime":1780236000},"SBIH":{"icaoId":"SBIH","flightCategory":"VFR","rawOb":"METAR SBIH 311400Z 05005KT 9999 SCT016 28/26 Q1015","temp":28,"dewp":26,"wdir":50,"wspd":5,"visib":"6+","altim":1015,"clouds":[{"cover":"SCT","base":1600}],"obsTime":1780236000},"SBAF":{"icaoId":"SBAF","flightCategory":"MVFR","rawOb":"METAR SBAF 311400Z 21010KT 9999 SCT020 BKN030 25/22 Q1020","temp":25,"dewp":22,"wdir":210,"wspd":10,"visib":"6+","altim":1020,"clouds":[{"cover":"SCT","base":2000},{"cover":"BKN","base":3000}],"obsTime":1780236000},"SBGW":{"icaoId":"SBGW","flightCategory":"MVFR","rawOb":"METAR SBGW 311400Z 21004KT 150V250 5000 HZ SCT030 OVC036 21/14 Q1022","temp":21,"dewp":14,"wdir":210,"wspd":4,"visib":3.11,"altim":1022,"clouds":[{"cover":"SCT","base":3000},{"cover":"OVC","base":3600}],"obsTime":1780236000},"SBJR":{"icaoId":"SBJR","flightCategory":"VFR","rawOb":"METAR SBJR 311400Z 26005KT 9999 FEW015 SCT020 BKN040 26/21 Q1019","temp":26,"dewp":21,"wdir":260,"wspd":5,"visib":"6+","altim":1019,"clouds":[{"cover":"FEW","base":1500},{"cover":"SCT","base":2000},{"cover":"BKN","base":4000}],"obsTime":1780236000},"SBLS":{"icaoId":"SBLS","flightCategory":"VFR","rawOb":"METAR SBLS 311400Z 17003KT 080V210 9999 FEW040 23/15 Q1022","temp":23,"dewp":15,"wdir":170,"wspd":3,"visib":"6+","altim":1022,"clouds":[{"cover":"FEW","base":4000}],"obsTime":1780236000},"SBMT":{"icaoId":"SBMT","flightCategory":"MVFR","rawOb":"METAR SBMT 311400Z 15004KT 9999 BKN020 18/14 Q1023","temp":18,"dewp":14,"wdir":150,"wspd":4,"visib":"6+","altim":1023,"clouds":[{"cover":"BKN","base":2000}],"obsTime":1780236000},"SBST":{"icaoId":"SBST","flightCategory":"IFR","rawOb":"METAR SBST 311400Z 14002KT 3000 -RA OVC007 19/18 Q1022","temp":19,"dewp":18,"wdir":140,"wspd":2,"visib":1.86,"altim":1022,"clouds":[{"cover":"OVC","base":700}],"obsTime":1780236000}}}