{"updated":1780676572,"count":87,"data":{"SBLO":{"icaoId":"SBLO","flightCategory":"VFR","rawOb":"METAR SBLO 051500Z 08009KT 9999 FEW020 21/14 Q1025","temp":21,"dewp":14,"wdir":80,"wspd":9,"visib":"6+","altim":1025,"clouds":[{"cover":"FEW","base":2000}],"obsTime":1780671600},"SBEG":{"icaoId":"SBEG","flightCategory":"VFR","rawOb":"METAR SBEG 051500Z 21003KT 9999 SCT030 29/26 Q1015","temp":29,"dewp":26,"wdir":210,"wspd":3,"visib":"6+","altim":1015,"clouds":[{"cover":"SCT","base":3000}],"obsTime":1780671600},"SBFI":{"icaoId":"SBFI","flightCategory":"VFR","rawOb":"METAR SBFI 051500Z 04008KT CAVOK 23/16 Q1023","temp":23,"dewp":16,"wdir":40,"wspd":8,"visib":"6+","altim":1023,"clouds":[],"obsTime":1780671600},"SBMA":{"icaoId":"SBMA","flightCategory":"VFR","rawOb":"METAR SBMA 051500Z 09006KT 9999 FEW020 32/20 Q1014","temp":32,"dewp":20,"wdir":90,"wspd":6,"visib":"6+","altim":1014,"clouds":[{"cover":"FEW","base":2000}],"obsTime":1780671600},"SBME":{"icaoId":"SBME","flightCategory":"VFR","rawOb":"METAR SBME 051500Z 20006KT 9999 SCT035 BKN070 23/12 Q1025","temp":23,"dewp":12,"wdir":200,"wspd":6,"visib":"6+","altim":1025,"clouds":[{"cover":"SCT","base":3500},{"cover":"BKN","base":7000}],"obsTime":1780671600},"SBCG":{"icaoId":"SBCG","flightCategory":"VFR","rawOb":"METAR SBCG 051500Z 08012KT CAVOK 25/14 Q1022","temp":25,"dewp":14,"wdir":80,"wspd":12,"visib":"6+","altim":1022,"clouds":[],"obsTime":1780671600},"SBMG":{"icaoId":"SBMG","flightCategory":"VFR","rawOb":"METAR SBMG 051500Z 04010KT CAVOK 22/14 Q1024","temp":22,"dewp":14,"wdir":40,"wspd":10,"visib":"6+","altim":1024,"clouds":[],"obsTime":1780671600},"SBCP":{"icaoId":"SBCP","flightCategory":"VFR","rawOb":"METAR SBCP 051500Z 16009KT 9999 -RA SCT015 SCT090 21/18 Q1024","temp":21,"dewp":18,"wdir":160,"wspd":9,"visib":"6+","altim":1024,"clouds":[{"cover":"SCT","base":1500},{"cover":"SCT","base":9000}],"obsTime":1780671600},"SBFL":{"icaoId":"SBFL","flightCategory":"VFR","rawOb":"METAR SBFL 051500Z 33012KT 300V360 9999 SCT040 23/16 Q1025","temp":23,"dewp":16,"wdir":330,"wspd":12,"visib":"6+","altim":1025,"clouds":[{"cover":"SCT","base":4000}],"obsTime":1780671600},"SBMK":{"icaoId":"SBMK","flightCategory":"VFR","rawOb":"METAR SBMK 051500Z 09011KT 9999 SCT035 22/11 Q1024","temp":22,"dewp":11,"wdir":90,"wspd":11,"visib":"6+","altim":1024,"clouds":[{"cover":"SCT","base":3500}],"obsTime":1780671600},"SBMO":{"icaoId":"SBMO","flightCategory":"VFR","rawOb":"METAR SBMO 051500Z 18015KT 9999 SCT010 SCT025 26/23 Q1016","temp":26,"dewp":23,"wdir":180,"wspd":15,"visib":"6+","altim":1016,"clouds":[{"cover":"SCT","base":1000},{"cover":"SCT","base":2500}],"obsTime":1780671600},"SBFZ":{"icaoId":"SBFZ","flightCategory":"MVFR","rawOb":"METAR SBFZ 051500Z 16011KT 9999 BKN025 30/22 Q1014","temp":30,"dewp":22,"wdir":160,"wspd":11,"visib":"6+","altim":1014,"clouds":[{"cover":"BKN","base":2500}],"obsTime":1780671600},"SBCB":{"icaoId":"SBCB","flightCategory":"VFR","rawOb":"METAR SBCB 051500Z 17007KT 9999 SCT025 BKN070 23/13 Q1025","temp":23,"dewp":13,"wdir":170,"wspd":7,"visib":"6+","altim":1025,"clouds":[{"cover":"SCT","base":2500},{"cover":"BKN","base":7000}],"obsTime":1780671600},"SBMQ":{"icaoId":"SBMQ","flightCategory":"VFR","rawOb":"METAR SBMQ 051500Z 33007KT 9999 FEW015 FEW025TCU BKN081 29/25 Q1014","temp":29,"dewp":25,"wdir":330,"wspd":7,"visib":"6+","altim":1014,"clouds":[{"cover":"FEW","base":1500},{"cover":"FEW","base":2500},{"cover":"BKN","base":8100}],"obsTime":1780671600},"SBNT":{"icaoId":"SBNT","flightCategory":"VFR","rawOb":"METAR SBNT 051500Z 15016KT 9999 SCT036 SCT100 30/21 Q1014","temp":30,"dewp":21,"wdir":150,"wspd":16,"visib":"6+","altim":1014,"clouds":[{"cover":"SCT","base":3600},{"cover":"SCT","base":10000}],"obsTime":1780671600},"SBCR":{"icaoId":"SBCR","flightCategory":"VFR","rawOb":"METAR SBCR 051500Z 09011KT CAVOK 29/15 Q1019","temp":29,"dewp":15,"wdir":90,"wspd":11,"visib":"6+","altim":1019,"clouds":[],"obsTime":1780671600},"SBPA":{"icaoId":"SBPA","flightCategory":"VFR","rawOb":"METAR SBPA 051500Z 04006KT CAVOK 23/15 Q1023","temp":23,"dewp":15,"wdir":40,"wspd":6,"visib":"6+","altim":1023,"clouds":[],"obsTime":1780671600},"SBGL":{"icaoId":"SBGL","flightCategory":"MVFR","rawOb":"METAR SBGL 051500Z 08003KT 8000 VCSH SCT040 BKN080 23/15 Q1025","temp":23,"dewp":15,"wdir":80,"wspd":3,"visib":4.97,"altim":1025,"clouds":[{"cover":"SCT","base":4000},{"cover":"BKN","base":8000}],"obsTime":1780671600},"SBBE":{"icaoId":"SBBE","flightCategory":"MVFR","rawOb":"METAR SBBE 051500Z 12008KT 9999 SCT025 BKN030 31/25 Q1013","temp":31,"dewp":25,"wdir":120,"wspd":8,"visib":"6+","altim":1013,"clouds":[{"cover":"SCT","base":2500},{"cover":"BKN","base":3000}],"obsTime":1780671600},"SBPJ":{"icaoId":"SBPJ","flightCategory":"VFR","rawOb":"METAR SBPJ 051500Z 11011KT 080V140 CAVOK 31/18 Q1017","temp":31,"dewp":18,"wdir":110,"wspd":11,"visib":"6+","altim":1017,"clouds":[],"obsTime":1780671600},"SBGO":{"icaoId":"SBGO","flightCategory":"VFR","rawOb":"METAR SBGO 051500Z 09013KT 040V120 CAVOK 25/12 Q1023","temp":25,"dewp":12,"wdir":90,"wspd":13,"visib":"6+","altim":1023,"clouds":[],"obsTime":1780671600},"SBPV":{"icaoId":"SBPV","flightCategory":"VFR","rawOb":"METAR SBPV 051500Z 24002KT 9999 FEW020 SCT100 30/22 Q1015","temp":30,"dewp":22,"wdir":240,"wspd":2,"visib":"6+","altim":1015,"clouds":[{"cover":"FEW","base":2000},{"cover":"SCT","base":10000}],"obsTime":1780671600},"SBGR":{"icaoId":"SBGR","flightCategory":"MVFR","rawOb":"METAR SBGR 051500Z 08007KT 9999 BKN025 18/11 Q1027","temp":18,"dewp":11,"wdir":80,"wspd":7,"visib":"6+","altim":1027,"clouds":[{"cover":"BKN","base":2500}],"obsTime":1780671600},"SBRB":{"icaoId":"SBRB","flightCategory":"VFR","rawOb":"METAR SBRB 051500Z 12006KT CAVOK 30/22 Q1018","temp":30,"dewp":22,"wdir":120,"wspd":6,"visib":"6+","altim":1018,"clouds":[],"obsTime":1780671600},"SBRF":{"icaoId":"SBRF","flightCategory":"VFR","rawOb":"METAR SBRF 051500Z 15014KT 9999 FEW023 BKN050 29/24 Q1015","temp":29,"dewp":24,"wdir":150,"wspd":14,"visib":"6+","altim":1015,"clouds":[{"cover":"FEW","base":2300},{"cover":"BKN","base":5000}],"obsTime":1780671600},"SBCT":{"icaoId":"SBCT","flightCategory":"MVFR","rawOb":"METAR SBCT 051500Z 06008KT 030V090 9999 SCT017 BKN022 16/11 Q1028","temp":16,"dewp":11,"wdir":60,"wspd":8,"visib":"6+","altim":1028,"clouds":[{"cover":"SCT","base":1700},{"cover":"BKN","base":2200}],"obsTime":1780671600},"SBSG":{"icaoId":"SBSG","flightCategory":"VFR","rawOb":"METAR SBSG 051500Z 14009KT 100V190 9999 BKN033 30/22 Q1014","temp":30,"dewp":22,"wdir":140,"wspd":9,"visib":"6+","altim":1014,"clouds":[{"cover":"BKN","base":3300}],"obsTime":1780671600},"SBHT":{"icaoId":"SBHT","flightCategory":"VFR","rawOb":"METAR SBHT 051500Z 11006KT 9999 SCT025 SCT100 29/25 Q1014","temp":29,"dewp":25,"wdir":110,"wspd":6,"visib":"6+","altim":1014,"clouds":[{"cover":"SCT","base":2500},{"cover":"SCT","base":10000}],"obsTime":1780671600},"SBCF":{"icaoId":"SBCF","flightCategory":"MVFR","rawOb":"METAR SBCF 051500Z 11010KT 9999 BKN030 20/11 Q1026","temp":20,"dewp":11,"wdir":110,"wspd":10,"visib":"6+","altim":1026,"clouds":[{"cover":"BKN","base":3000}],"obsTime":1780671600},"SBSL":{"icaoId":"SBSL","flightCategory":"VFR","rawOb":"METAR SBSL 051500Z 14010KT 9999 SCT025 31/23 Q1013","temp":31,"dewp":23,"wdir":140,"wspd":10,"visib":"6+","altim":1013,"clouds":[{"cover":"SCT","base":2500}],"obsTime":1780671600},"SBSN":{"icaoId":"SBSN","flightCategory":"VFR","rawOb":"METAR SBSN 051500Z 06010KT 9999 SCT013 BKN080 27/25 Q1014","temp":27,"dewp":25,"wdir":60,"wspd":10,"visib":"6+","altim":1014,"clouds":[{"cover":"SCT","base":1300},{"cover":"BKN","base":8000}],"obsTime":1780671600},"SBCZ":{"icaoId":"SBCZ","flightCategory":"VFR","rawOb":"METAR SBCZ 051500Z 12006KT 9999 FEW018 SCT100 28/24 Q1017","temp":28,"dewp":24,"wdir":120,"wspd":6,"visib":"6+","altim":1017,"clouds":[{"cover":"FEW","base":1800},{"cover":"SCT","base":10000}],"obsTime":1780671600},"SBIL":{"icaoId":"SBIL","flightCategory":"VFR","rawOb":"METAR SBIL 051500Z 20011G22KT 9999 FEW018 SCT023 26/19 Q1020","temp":26,"dewp":19,"wdir":200,"wspd":11,"visib":"6+","altim":1020,"clouds":[{"cover":"FEW","base":1800},{"cover":"SCT","base":2300}],"obsTime":1780671600},"SBSP":{"icaoId":"SBSP","flightCategory":"VFR","rawOb":"METAR SBSP 051500Z 09006KT 030V170 9999 SCT030 19/11 Q1028","temp":19,"dewp":11,"wdir":90,"wspd":6,"visib":"6+","altim":1028,"clouds":[{"cover":"SCT","base":3000}],"obsTime":1780671600},"SBSV":{"icaoId":"SBSV","flightCategory":"VFR","rawOb":"METAR SBSV 051500Z 16016KT 9999 SCT023 BKN050 28/19 Q1018","temp":28,"dewp":19,"wdir":160,"wspd":16,"visib":"6+","altim":1018,"clouds":[{"cover":"SCT","base":2300},{"cover":"BKN","base":5000}],"obsTime":1780671600},"SBBV":{"icaoId":"SBBV","flightCategory":"IFR","rawOb":"METAR SBBV 051500Z 17006KT 9999 BKN008 BKN020 FEW030TCU BKN080 26/24 Q1016","temp":26,"dewp":24,"wdir":170,"wspd":6,"visib":"6+","altim":1016,"clouds":[{"cover":"BKN","base":800},{"cover":"BKN","base":2000},{"cover":"FEW","base":3000},{"cover":"BKN","base":8000}],"obsTime":1780671600},"SBTE":{"icaoId":"SBTE","flightCategory":"VFR","rawOb":"METAR SBTE 051500Z 14009KT 9999 SCT020 31/21 Q1014","temp":31,"dewp":21,"wdir":140,"wspd":9,"visib":"6+","altim":1014,"clouds":[{"cover":"SCT","base":2000}],"obsTime":1780671600},"SBJU":{"icaoId":"SBJU","flightCategory":"MVFR","rawOb":"METAR SBJU 051500Z 15010KT 9999 BKN020 28/20 Q1017","temp":28,"dewp":20,"wdir":150,"wspd":10,"visib":"6+","altim":1017,"clouds":[{"cover":"BKN","base":2000}],"obsTime":1780671600},"SBUL":{"icaoId":"SBUL","flightCategory":"VFR","rawOb":"METAR SBUL 051500Z 12010KT 050V160 9999 FEW030 22/11 Q1026","temp":22,"dewp":11,"wdir":120,"wspd":10,"visib":"6+","altim":1026,"clouds":[{"cover":"FEW","base":3000}],"obsTime":1780671600},"SBKP":{"icaoId":"SBKP","flightCategory":"VFR","rawOb":"METAR SBKP 051500Z VRB10KT CAVOK 21/11 Q1026","temp":21,"dewp":11,"wdir":"VRB","wspd":10,"visib":"6+","altim":1026,"clouds":[],"obsTime":1780671600},"SBUR":{"icaoId":"SBUR","flightCategory":"VFR","rawOb":"METAR SBUR 051500Z 04009KT CAVOK 22/12 Q1025","temp":22,"dewp":12,"wdir":40,"wspd":9,"visib":"6+","altim":1025,"clouds":[],"obsTime":1780671600},"SBBR":{"icaoId":"SBBR","flightCategory":"VFR","rawOb":"METAR SBBR 051500Z 10013KT 060V130 CAVOK 21/11 Q1024","temp":21,"dewp":11,"wdir":100,"wspd":13,"visib":"6+","altim":1024,"clouds":[],"obsTime":1780671600},"SBVT":{"icaoId":"SBVT","flightCategory":"MVFR","rawOb":"METAR SBVT 051500Z 22012KT 9999 -RA SCT015 OVC030 20/17 Q1024","temp":20,"dewp":17,"wdir":220,"wspd":12,"visib":"6+","altim":1024,"clouds":[{"cover":"SCT","base":1500},{"cover":"OVC","base":3000}],"obsTime":1780671600},"SBAT":{"icaoId":"SBAT","flightCategory":"VFR","rawOb":"METAR SBAT 051500Z 13011KT CAVOK 33/17 Q1017","temp":33,"dewp":17,"wdir":130,"wspd":11,"visib":"6+","altim":1017,"clouds":[],"obsTime":1780671600},"SBAU":{"icaoId":"SBAU","flightCategory":"VFR","rawOb":"METAR SBAU 051600Z 06012KT CAVOK 26/13 Q1023","temp":26,"dewp":13,"wdir":60,"wspd":12,"visib":"6+","altim":1023,"clouds":[],"obsTime":1780675200},"SBOI":{"icaoId":"SBOI","flightCategory":"VFR","rawOb":"METAR SBOI 051500Z AUTO VRB01KT CAVOK 26/25 Q1014","temp":26,"dewp":25,"wdir":"VRB","wspd":1,"visib":"6+","altim":1014,"clouds":[],"obsTime":1780671600},"SBCJ":{"icaoId":"SBCJ","flightCategory":"VFR","rawOb":"METAR SBCJ 051500Z 14008KT 9999 FEW020 28/19 Q1019","temp":28,"dewp":19,"wdir":140,"wspd":8,"visib":"6+","altim":1019,"clouds":[{"cover":"FEW","base":2000}],"obsTime":1780671600},"SBPB":{"icaoId":"SBPB","flightCategory":"VFR","rawOb":"METAR SBPB 051500Z 13006KT 9999 FEW020 32/23 Q1013","temp":32,"dewp":23,"wdir":130,"wspd":6,"visib":"6+","altim":1013,"clouds":[{"cover":"FEW","base":2000}],"obsTime":1780671600},"SBBQ":{"icaoId":"SBBQ","flightCategory":"MVFR","rawOb":"METAR SBBQ 051500Z 06006KT 020V120 9999 BKN026 17/10 Q1029","temp":17,"dewp":10,"wdir":60,"wspd":6,"visib":"6+","altim":1029,"clouds":[{"cover":"BKN","base":2600}],"obsTime":1780671600},"SBPL":{"icaoId":"SBPL","flightCategory":"MVFR","rawOb":"METAR SBPL 051500Z 11011KT 9999 BKN030 29/17 Q1018","temp":29,"dewp":17,"wdir":110,"wspd":11,"visib":"6+","altim":1018,"clouds":[{"cover":"BKN","base":3000}],"obsTime":1780671600},"SBCO":{"icaoId":"SBCO","flightCategory":"VFR","rawOb":"METAR SBCO 051500Z VRB02KT CAVOK 23/15 Q1023","temp":23,"dewp":15,"wdir":"VRB","wspd":2,"visib":"6+","altim":1023,"clouds":[],"obsTime":1780671600},"SBPP":{"icaoId":"SBPP","flightCategory":"VFR","rawOb":"METAR SBPP 051500Z 05013KT CAVOK 21/15 Q1024","temp":21,"dewp":15,"wdir":50,"wspd":13,"visib":"6+","altim":1024,"clouds":[],"obsTime":1780671600},"SBPS":{"icaoId":"SBPS","flightCategory":"VFR","rawOb":"METAR SBPS 051500Z VRB08KT 9999 SCT025 25/17 Q1021","temp":25,"dewp":17,"wdir":"VRB","wspd":8,"visib":"6+","altim":1021,"clouds":[{"cover":"SCT","base":2500}],"obsTime":1780671600},"SBAX":{"icaoId":"SBAX","flightCategory":"MVFR","rawOb":"METAR SBAX 051500Z 11010KT 9999 BKN020 BKN030 18/11 Q1026","temp":18,"dewp":11,"wdir":110,"wspd":10,"visib":"6+","altim":1026,"clouds":[{"cover":"BKN","base":2000},{"cover":"BKN","base":3000}],"obsTime":1780671600},"SBSC":{"icaoId":"SBSC","flightCategory":"VFR","rawOb":"METAR SBSC 051500Z 17002KT 9999 FEW015 BKN035 21/17 Q1026","temp":21,"dewp":17,"wdir":170,"wspd":2,"visib":"6+","altim":1026,"clouds":[{"cover":"FEW","base":1500},{"cover":"BKN","base":3500}],"obsTime":1780671600},"SBDN":{"icaoId":"SBDN","flightCategory":"VFR","rawOb":"METAR SBDN 051500Z 05009KT CAVOK 24/14 Q1023","temp":24,"dewp":14,"wdir":50,"wspd":9,"visib":"6+","altim":1023,"clouds":[],"obsTime":1780671600},"SBSJ":{"icaoId":"SBSJ","flightCategory":"VFR","rawOb":"METAR SBSJ 051500Z 12007KT 9999 SCT030 BKN040 19/11 Q1027","temp":19,"dewp":11,"wdir":120,"wspd":7,"visib":"6+","altim":1027,"clouds":[{"cover":"SCT","base":3000},{"cover":"BKN","base":4000}],"obsTime":1780671600},"SBBU":{"icaoId":"SBBU","flightCategory":"VFR","rawOb":"METAR SBBU 051500Z 06007KT CAVOK 22/15 Q1026","temp":22,"dewp":15,"wdir":60,"wspd":7,"visib":"6+","altim":1026,"clouds":[],"obsTime":1780671600},"SBAR":{"icaoId":"SBAR","flightCategory":"VFR","rawOb":"METAR SBAR 051500Z 16009KT 9999 FEW023 SCT050 28/23 Q1016","temp":28,"dewp":23,"wdir":160,"wspd":9,"visib":"6+","altim":1016,"clouds":[{"cover":"FEW","base":2300},{"cover":"SCT","base":5000}],"obsTime":1780671600},"SBSM":{"icaoId":"SBSM","flightCategory":"VFR","rawOb":"METAR SBSM 051500Z 03008KT CAVOK 23/16 Q1022","temp":23,"dewp":16,"wdir":30,"wspd":8,"visib":"6+","altim":1022,"clouds":[],"obsTime":1780671600},"SBSR":{"icaoId":"SBSR","flightCategory":"VFR","rawOb":"METAR SBSR 051500Z 08007KT CAVOK 23/11 Q1024","temp":23,"dewp":11,"wdir":80,"wspd":7,"visib":"6+","altim":1024,"clouds":[],"obsTime":1780671600},"SBES":{"icaoId":"SBES","flightCategory":"VFR","rawOb":"METAR SBES 051500Z 16007KT 120V200 9999 SCT020 SCT040 22/// Q1025","temp":null,"dewp":null,"wdir":160,"wspd":7,"visib":"6+","altim":1025,"clouds":[{"cover":"SCT","base":2000},{"cover":"SCT","base":4000}],"obsTime":1780671600},"SBGM":{"icaoId":"SBGM","flightCategory":"VFR","rawOb":"METAR SBGM 051500Z 11008KT 080V140 CAVOK 31/11 Q1017","temp":31,"dewp":11,"wdir":110,"wspd":8,"visib":"6+","altim":1017,"clouds":[],"obsTime":1780671600},"SBCA":{"icaoId":"SBCA","flightCategory":"VFR","rawOb":"METAR SBCA 051500Z 06007G17KT CAVOK 20/12 Q1026","temp":20,"dewp":12,"wdir":60,"wspd":7,"visib":"6+","altim":1026,"clouds":[],"obsTime":1780671600},"SBTF":{"icaoId":"SBTF","flightCategory":"IFR","rawOb":"METAR SBTF 051500Z 08007KT 9999 -RA BKN008 BKN080 23/23 Q1016","temp":23,"dewp":23,"wdir":80,"wspd":7,"visib":"6+","altim":1016,"clouds":[{"cover":"BKN","base":800},{"cover":"BKN","base":8000}],"obsTime":1780671600},"SBIP":{"icaoId":"SBIP","flightCategory":"VFR","rawOb":"METAR SBIP 051500Z AUTO 10004KT 030V130 CAVOK 24/12 Q1024","temp":24,"dewp":12,"wdir":100,"wspd":4,"visib":"6+","altim":1024,"clouds":[],"obsTime":1780671600},"SBTT":{"icaoId":"SBTT","flightCategory":"VFR","rawOb":"METAR SBTT 051500Z 10003KT 9999 SCT010 BKN090 27/23 Q1017","temp":27,"dewp":23,"wdir":100,"wspd":3,"visib":"6+","altim":1017,"clouds":[{"cover":"SCT","base":1000},{"cover":"BKN","base":9000}],"obsTime":1780671600},"SBBH":{"icaoId":"SBBH","flightCategory":"MVFR","rawOb":"METAR SBBH 051500Z 07005KT 9999 BKN030 20/10 Q1026","temp":20,"dewp":10,"wdir":70,"wspd":5,"visib":"6+","altim":1026,"clouds":[{"cover":"BKN","base":3000}],"obsTime":1780671600},"SBTU":{"icaoId":"SBTU","flightCategory":"VFR","rawOb":"METAR SBTU 051500Z AUTO VRB04KT 9999 // SCT016/// BKN061/// BKN070/// ///// Q1016","temp":null,"dewp":null,"wdir":"VRB","wspd":4,"visib":"6+","altim":1016,"clouds":[{"cover":"SCT","base":1600},{"cover":"BKN","base":6100},{"cover":"BKN","base":7000}],"obsTime":1780671600},"SBUY":{"icaoId":"SBUY","flightCategory":"VFR","rawOb":"METAR SBUY 051500Z 00000KT 9999 FEW025 BKN090 29/24 Q1015","temp":29,"dewp":24,"wdir":0,"wspd":0,"visib":"6+","altim":1015,"clouds":[{"cover":"FEW","base":2500},{"cover":"BKN","base":9000}],"obsTime":1780671600},"SBKG":{"icaoId":"SBKG","flightCategory":"VFR","rawOb":"METAR SBKG 051500Z 15010KT 9999 SCT025 28/20 Q1017","temp":28,"dewp":20,"wdir":150,"wspd":10,"visib":"6+","altim":1017,"clouds":[{"cover":"SCT","base":2500}],"obsTime":1780671600},"SBVH":{"icaoId":"SBVH","flightCategory":"VFR","rawOb":"METAR SBVH 051500Z 09011KT CAVOK 27/18 Q1020","temp":27,"dewp":18,"wdir":90,"wspd":11,"visib":"6+","altim":1020,"clouds":[],"obsTime":1780671600},"SBCC":{"icaoId":"SBCC","flightCategory":"VFR","rawOb":"METAR SBCC 051500Z 06015KT 9999 SCT040 31/16 Q1017","temp":31,"dewp":16,"wdir":60,"wspd":15,"visib":"6+","altim":1017,"clouds":[{"cover":"SCT","base":4000}],"obsTime":1780671600},"SBTD":{"icaoId":"SBTD","flightCategory":"VFR","rawOb":"METAR SBTD 051500Z /////KT CAVOK 22/13 Q1025","temp":22,"dewp":13,"wdir":null,"wspd":null,"visib":"6+","altim":1025,"clouds":[],"obsTime":1780671600},"SBTA":{"icaoId":"SBTA","flightCategory":"MVFR","rawOb":"METAR SBTA 051500Z 27003KT 190V360 9999 BKN030 20/11 Q1026","temp":20,"dewp":11,"wdir":270,"wspd":3,"visib":"6+","altim":1026,"clouds":[{"cover":"BKN","base":3000}],"obsTime":1780671600},"SBIH":{"icaoId":"SBIH","flightCategory":"VFR","rawOb":"METAR SBIH 051500Z 35005KT 9999 VCSH SCT016 FEW023TCU 31/26 Q1013","temp":31,"dewp":26,"wdir":350,"wspd":5,"visib":"6+","altim":1013,"clouds":[{"cover":"SCT","base":1600},{"cover":"FEW","base":2300}],"obsTime":1780671600},"SBJP":{"icaoId":"SBJP","flightCategory":"MVFR","rawOb":"METAR SBJP 051500Z 12015KT 9999 BKN025 30/23 Q1015","temp":30,"dewp":23,"wdir":120,"wspd":15,"visib":"6+","altim":1015,"clouds":[{"cover":"BKN","base":2500}],"obsTime":1780671600},"SBAN":{"icaoId":"SBAN","flightCategory":"VFR","rawOb":"METAR SBAN 051500Z 09012KT CAVOK 22/10 Q1025","temp":22,"dewp":10,"wdir":90,"wspd":12,"visib":"6+","altim":1025,"clouds":[],"obsTime":1780671600},"SBAF":{"icaoId":"SBAF","flightCategory":"MVFR","rawOb":"METAR SBAF 051500Z 25003KT 8000 -RA SCT015 BKN040 20/20 Q1026","temp":20,"dewp":20,"wdir":250,"wspd":3,"visib":4.97,"altim":1026,"clouds":[{"cover":"SCT","base":1500},{"cover":"BKN","base":4000}],"obsTime":1780671600},"SBGW":{"icaoId":"SBGW","flightCategory":"VFR","rawOb":"METAR SBGW 051500Z VRB02KT 9999 SCT030 BKN060 21/09 Q1027","temp":21,"dewp":9,"wdir":"VRB","wspd":2,"visib":"6+","altim":1027,"clouds":[{"cover":"SCT","base":3000},{"cover":"BKN","base":6000}],"obsTime":1780671600},"SBJR":{"icaoId":"SBJR","flightCategory":"VFR","rawOb":"METAR SBJR 051500Z 14008KT 9999 SCT015 BKN050 23/16 Q1025","temp":23,"dewp":16,"wdir":140,"wspd":8,"visib":"6+","altim":1025,"clouds":[{"cover":"SCT","base":1500},{"cover":"BKN","base":5000}],"obsTime":1780671600},"SBLE":{"icaoId":"SBLE","flightCategory":"VFR","rawOb":"METAR SBLE 051500Z AUTO 16006KT 120V190 9999 FEW027 BKN031 OVC040 22/18 Q1022","temp":22,"dewp":18,"wdir":160,"wspd":6,"visib":"6+","altim":1022,"clouds":[{"cover":"FEW","base":2700},{"cover":"BKN","base":3100},{"cover":"OVC","base":4000}],"obsTime":1780671600},"SBLS":{"icaoId":"SBLS","flightCategory":"VFR","rawOb":"METAR SBLS 051500Z 14009KT 060V160 9999 SCT033 20/10 Q1026","temp":20,"dewp":10,"wdir":140,"wspd":9,"visib":"6+","altim":1026,"clouds":[{"cover":"SCT","base":3300}],"obsTime":1780671600},"SBMT":{"icaoId":"SBMT","flightCategory":"MVFR","rawOb":"METAR SBMT 051500Z 08010KT 040V110 9999 BKN023 19/10 Q1027","temp":19,"dewp":10,"wdir":80,"wspd":10,"visib":"6+","altim":1027,"clouds":[{"cover":"BKN","base":2300}],"obsTime":1780671600},"SBST":{"icaoId":"SBST","flightCategory":"VFR","rawOb":"METAR SBST 051500Z 14007KT 9999 FEW025 23/14 Q1025","temp":23,"dewp":14,"wdir":140,"wspd":7,"visib":"6+","altim":1025,"clouds":[{"cover":"FEW","base":2500}],"obsTime":1780671600},"SBJV":{"icaoId":"SBJV","flightCategory":"VFR","rawOb":"METAR SBJV 051500Z 04006KT 9999 SCT018 BKN050 21/17 Q1026","temp":21,"dewp":17,"wdir":40,"wspd":6,"visib":"6+","altim":1026,"clouds":[{"cover":"SCT","base":1800},{"cover":"BKN","base":5000}],"obsTime":1780671600},"SBNM":{"icaoId":"SBNM","flightCategory":"VFR","rawOb":"METAR SBNM 051600Z AUTO 36012KT 330V030 CAVOK 23/14 Q1022","temp":23,"dewp":14,"wdir":360,"wspd":12,"visib":"6+","altim":1022,"clouds":[],"obsTime":1780675200}}}