{"updated":1773581209,"count":85,"data":{"SBPV":{"icaoId":"SBPV","flightCategory":"VFR","rawOb":"METAR SBPV 151200Z 03003KT 9999 FEW005 25/24 Q1010","temp":25,"dewp":24,"wdir":30,"wspd":3,"visib":"6+","altim":1010,"clouds":[{"cover":"FEW","base":500}],"obsTime":1773576000},"SBAT":{"icaoId":"SBAT","flightCategory":"VFR","rawOb":"METAR SBAT 151200Z 12003KT 9999 FEW016 BKN095 25/24 Q1013","temp":25,"dewp":24,"wdir":120,"wspd":3,"visib":"6+","altim":1013,"clouds":[{"cover":"FEW","base":1600},{"cover":"BKN","base":9500}],"obsTime":1773576000},"SBBE":{"icaoId":"SBBE","flightCategory":"IFR","rawOb":"METAR SBBE 151200Z 35005KT 9999 BKN008 BKN017 26/25 Q1013","temp":26,"dewp":25,"wdir":350,"wspd":5,"visib":"6+","altim":1013,"clouds":[{"cover":"BKN","base":800},{"cover":"BKN","base":1700}],"obsTime":1773576000},"SBBR":{"icaoId":"SBBR","flightCategory":"VFR","rawOb":"METAR SBBR 151200Z VRB02KT CAVOK 23/19 Q1018","temp":23,"dewp":19,"wdir":"VRB","wspd":2,"visib":"6+","altim":1018,"clouds":[],"obsTime":1773576000},"SBBV":{"icaoId":"SBBV","flightCategory":"VFR","rawOb":"METAR SBBV 151200Z 07012KT CAVOK 27/22 Q1012","temp":27,"dewp":22,"wdir":70,"wspd":12,"visib":"6+","altim":1012,"clouds":[],"obsTime":1773576000},"SBCB":{"icaoId":"SBCB","flightCategory":"VFR","rawOb":"METAR SBCB 151200Z 35005KT 9999 FEW015 26/22 Q1012","temp":26,"dewp":22,"wdir":350,"wspd":5,"visib":"6+","altim":1012,"clouds":[{"cover":"FEW","base":1500}],"obsTime":1773576000},"SBCF":{"icaoId":"SBCF","flightCategory":"MVFR","rawOb":"METAR SBCF 151200Z 18006KT 9999 BKN015 24/21 Q1017","temp":24,"dewp":21,"wdir":180,"wspd":6,"visib":"6+","altim":1017,"clouds":[{"cover":"BKN","base":1500}],"obsTime":1773576000},"SBCG":{"icaoId":"SBCG","flightCategory":"VFR","rawOb":"METAR SBCG 151200Z 34009KT CAVOK 25/20 Q1013","temp":25,"dewp":20,"wdir":340,"wspd":9,"visib":"6+","altim":1013,"clouds":[],"obsTime":1773576000},"SBCP":{"icaoId":"SBCP","flightCategory":"VFR","rawOb":"METAR SBCP 151200Z 08002KT 9999 SCT020 SCT090 29/22 Q1012","temp":29,"dewp":22,"wdir":80,"wspd":2,"visib":"6+","altim":1012,"clouds":[{"cover":"SCT","base":2000},{"cover":"SCT","base":9000}],"obsTime":1773576000},"SBCR":{"icaoId":"SBCR","flightCategory":"VFR","rawOb":"METAR SBCR 151200Z 06003KT 350V100 9999 FEW020 28/24 Q1009","temp":28,"dewp":24,"wdir":60,"wspd":3,"visib":"6+","altim":1009,"clouds":[{"cover":"FEW","base":2000}],"obsTime":1773576000},"SBCT":{"icaoId":"SBCT","flightCategory":"IFR","rawOb":"SPECI SBCT 151135Z 34003KT 6000 BKN005 20/20 Q1015","temp":20,"dewp":20,"wdir":340,"wspd":3,"visib":3.73,"altim":1015,"clouds":[{"cover":"BKN","base":500}],"obsTime":1773574500},"SBCZ":{"icaoId":"SBCZ","flightCategory":"LIFR","rawOb":"METAR SBCZ 151200Z 33004KT 3000 -RA BKN004 OVC090 22/22 Q1012","temp":22,"dewp":22,"wdir":330,"wspd":4,"visib":1.86,"altim":1012,"clouds":[{"cover":"BKN","base":400},{"cover":"OVC","base":9000}],"obsTime":1773576000},"SBEG":{"icaoId":"SBEG","flightCategory":"VFR","rawOb":"METAR SBEG 151200Z VRB02KT 9999 FEW010 SCT090 27/23 Q1011","temp":27,"dewp":23,"wdir":"VRB","wspd":2,"visib":"6+","altim":1011,"clouds":[{"cover":"FEW","base":1000},{"cover":"SCT","base":9000}],"obsTime":1773576000},"SBFI":{"icaoId":"SBFI","flightCategory":"VFR","rawOb":"METAR SBFI 151200Z 11005KT CAVOK 27/21 Q1009","temp":27,"dewp":21,"wdir":110,"wspd":5,"visib":"6+","altim":1009,"clouds":[],"obsTime":1773576000},"SBFL":{"icaoId":"SBFL","flightCategory":"VFR","rawOb":"METAR SBFL 151200Z 30005KT 9999 FEW020 26/23 Q1010","temp":26,"dewp":23,"wdir":300,"wspd":5,"visib":"6+","altim":1010,"clouds":[{"cover":"FEW","base":2000}],"obsTime":1773576000},"SBFZ":{"icaoId":"SBFZ","flightCategory":"MVFR","rawOb":"METAR SBFZ 151200Z 36005KT 9999 FEW017 BKN030 29/24 Q1012","temp":29,"dewp":24,"wdir":360,"wspd":5,"visib":"6+","altim":1012,"clouds":[{"cover":"FEW","base":1700},{"cover":"BKN","base":3000}],"obsTime":1773576000},"SBGL":{"icaoId":"SBGL","flightCategory":"IFR","rawOb":"METAR SBGL 151200Z 07004KT 030V110 9000 BKN005 25/22 Q1011","temp":25,"dewp":22,"wdir":70,"wspd":4,"visib":5.59,"altim":1011,"clouds":[{"cover":"BKN","base":500}],"obsTime":1773576000},"SBGO":{"icaoId":"SBGO","flightCategory":"VFR","rawOb":"METAR SBGO 151200Z 33004KT 290V360 CAVOK 26/21 Q1016","temp":26,"dewp":21,"wdir":330,"wspd":4,"visib":"6+","altim":1016,"clouds":[],"obsTime":1773576000},"SBGR":{"icaoId":"SBGR","flightCategory":"IFR","rawOb":"METAR SBGR 151200Z 06006KT 6000 BKN006 20/19 Q1016","temp":20,"dewp":19,"wdir":60,"wspd":6,"visib":3.73,"altim":1016,"clouds":[{"cover":"BKN","base":600}],"obsTime":1773576000},"SBHT":{"icaoId":"SBHT","flightCategory":"MVFR","rawOb":"METAR SBHT 151200Z 07006KT 9999 BKN015 25/24 Q1012","temp":25,"dewp":24,"wdir":70,"wspd":6,"visib":"6+","altim":1012,"clouds":[{"cover":"BKN","base":1500}],"obsTime":1773576000},"SBIL":{"icaoId":"SBIL","flightCategory":"VFR","rawOb":"METAR SBIL 151200Z 04008KT 9999 SCT023 SCT050 BKN074 30/26 Q1012","temp":30,"dewp":26,"wdir":40,"wspd":8,"visib":"6+","altim":1012,"clouds":[{"cover":"SCT","base":2300},{"cover":"SCT","base":5000},{"cover":"BKN","base":7400}],"obsTime":1773576000},"SBJU":{"icaoId":"SBJU","flightCategory":"MVFR","rawOb":"METAR SBJU 151200Z 00000KT 9999 BKN020 27/23 Q1015","temp":27,"dewp":23,"wdir":0,"wspd":0,"visib":"6+","altim":1015,"clouds":[{"cover":"BKN","base":2000}],"obsTime":1773576000},"SBKP":{"icaoId":"SBKP","flightCategory":"VFR","rawOb":"METAR SBKP 151200Z 02003KT CAVOK 25/18 Q1015","temp":25,"dewp":18,"wdir":20,"wspd":3,"visib":"6+","altim":1015,"clouds":[],"obsTime":1773576000},"SBLO":{"icaoId":"SBLO","flightCategory":"VFR","rawOb":"METAR SBLO 151200Z VRB02KT CAVOK 25/19 Q1014","temp":25,"dewp":19,"wdir":"VRB","wspd":2,"visib":"6+","altim":1014,"clouds":[],"obsTime":1773576000},"SBMA":{"icaoId":"SBMA","flightCategory":"VFR","rawOb":"METAR SBMA 151200Z 16006KT 9999 FEW010 BKN080 27/24 Q1012","temp":27,"dewp":24,"wdir":160,"wspd":6,"visib":"6+","altim":1012,"clouds":[{"cover":"FEW","base":1000},{"cover":"BKN","base":8000}],"obsTime":1773576000},"SBME":{"icaoId":"SBME","flightCategory":"VFR","rawOb":"METAR SBME 151200Z VRB02KT 9999 FEW020 28/21 Q1012","temp":28,"dewp":21,"wdir":"VRB","wspd":2,"visib":"6+","altim":1012,"clouds":[{"cover":"FEW","base":2000}],"obsTime":1773576000},"SBMG":{"icaoId":"SBMG","flightCategory":"VFR","rawOb":"METAR SBMG 151200Z 36010KT CAVOK 27/20 Q1012","temp":27,"dewp":20,"wdir":360,"wspd":10,"visib":"6+","altim":1012,"clouds":[],"obsTime":1773576000},"SBMK":{"icaoId":"SBMK","flightCategory":"VFR","rawOb":"METAR SBMK 151200Z 25001KT 9999 FEW040 25/21 Q1015","temp":25,"dewp":21,"wdir":250,"wspd":1,"visib":"6+","altim":1015,"clouds":[{"cover":"FEW","base":4000}],"obsTime":1773576000},"SBMO":{"icaoId":"SBMO","flightCategory":"VFR","rawOb":"METAR SBMO 151200Z 10007KT 9999 SCT025 29/24 Q1012","temp":29,"dewp":24,"wdir":100,"wspd":7,"visib":"6+","altim":1012,"clouds":[{"cover":"SCT","base":2500}],"obsTime":1773576000},"SBMQ":{"icaoId":"SBMQ","flightCategory":"MVFR","rawOb":"METAR SBMQ 151200Z 02006KT 9999 VCSH BKN015 FEW018TCU SCT100 27/25 Q1012","temp":27,"dewp":25,"wdir":20,"wspd":6,"visib":"6+","altim":1012,"clouds":[{"cover":"BKN","base":1500},{"cover":"FEW","base":1800},{"cover":"SCT","base":10000}],"obsTime":1773576000},"SBNT":{"icaoId":"SBNT","flightCategory":"MVFR","rawOb":"METAR SBNT 151200Z 10007KT 070V130 9999 BKN021 29/24 Q1012","temp":29,"dewp":24,"wdir":100,"wspd":7,"visib":"6+","altim":1012,"clouds":[{"cover":"BKN","base":2100}],"obsTime":1773576000},"SBPA":{"icaoId":"SBPA","flightCategory":"VFR","rawOb":"METAR SBPA 151200Z 31004KT 250V060 CAVOK 24/20 Q1009","temp":24,"dewp":20,"wdir":310,"wspd":4,"visib":"6+","altim":1009,"clouds":[],"obsTime":1773576000},"SBPJ":{"icaoId":"SBPJ","flightCategory":"IFR","rawOb":"METAR SBPJ 151200Z 11010KT 3000 TSRA FEW010 SCT025 FEW030CB OVC070 22/21 Q1015","temp":22,"dewp":21,"wdir":110,"wspd":10,"visib":1.86,"altim":1015,"clouds":[{"cover":"FEW","base":1000},{"cover":"SCT","base":2500},{"cover":"FEW","base":3000},{"cover":"OVC","base":7000}],"obsTime":1773576000},"SBRB":{"icaoId":"SBRB","flightCategory":"VFR","rawOb":"METAR SBRB 151200Z 35003KT 9999 FEW006 BKN070 25/24 Q1011","temp":25,"dewp":24,"wdir":350,"wspd":3,"visib":"6+","altim":1011,"clouds":[{"cover":"FEW","base":600},{"cover":"BKN","base":7000}],"obsTime":1773576000},"SBRF":{"icaoId":"SBRF","flightCategory":"VFR","rawOb":"METAR SBRF 151200Z 10007KT 070V130 9999 SCT020 30/24 Q1012","temp":30,"dewp":24,"wdir":100,"wspd":7,"visib":"6+","altim":1012,"clouds":[{"cover":"SCT","base":2000}],"obsTime":1773576000},"SBSG":{"icaoId":"SBSG","flightCategory":"MVFR","rawOb":"METAR SBSG 151200Z 10004KT 040V140 9999 BKN023 29/25 Q1012","temp":29,"dewp":25,"wdir":100,"wspd":4,"visib":"6+","altim":1012,"clouds":[{"cover":"BKN","base":2300}],"obsTime":1773576000},"SBSL":{"icaoId":"SBSL","flightCategory":"VFR","rawOb":"METAR SBSL 151200Z 05006KT 010V070 9999 VCSH SCT016 FEW025TCU BKN080 29/26 Q1012","temp":29,"dewp":26,"wdir":50,"wspd":6,"visib":"6+","altim":1012,"clouds":[{"cover":"SCT","base":1600},{"cover":"FEW","base":2500},{"cover":"BKN","base":8000}],"obsTime":1773576000},"SBSN":{"icaoId":"SBSN","flightCategory":"VFR","rawOb":"METAR SBSN 151200Z 10008KT 9999 SCT015 BKN100 27/25 Q1012","temp":27,"dewp":25,"wdir":100,"wspd":8,"visib":"6+","altim":1012,"clouds":[{"cover":"SCT","base":1500},{"cover":"BKN","base":10000}],"obsTime":1773576000},"SBSP":{"icaoId":"SBSP","flightCategory":"VFR","rawOb":"METAR SBSP 151200Z 01006KT CAVOK 23/17 Q1016","temp":23,"dewp":17,"wdir":10,"wspd":6,"visib":"6+","altim":1016,"clouds":[],"obsTime":1773576000},"SBSV":{"icaoId":"SBSV","flightCategory":"VFR","rawOb":"METAR SBSV 151200Z 34008KT 9999 SCT019 29/23 Q1012","temp":29,"dewp":23,"wdir":340,"wspd":8,"visib":"6+","altim":1012,"clouds":[{"cover":"SCT","base":1900}],"obsTime":1773576000},"SBTE":{"icaoId":"SBTE","flightCategory":"MVFR","rawOb":"METAR SBTE 151200Z 31003KT 9999 BKN020 27/24 Q1012","temp":27,"dewp":24,"wdir":310,"wspd":3,"visib":"6+","altim":1012,"clouds":[{"cover":"BKN","base":2000}],"obsTime":1773576000},"SBUL":{"icaoId":"SBUL","flightCategory":"VFR","rawOb":"METAR SBUL 151200Z 24003KT 9999 SCT010 23/21 Q1017","temp":23,"dewp":21,"wdir":240,"wspd":3,"visib":"6+","altim":1017,"clouds":[{"cover":"SCT","base":1000}],"obsTime":1773576000},"SBUR":{"icaoId":"SBUR","flightCategory":"VFR","rawOb":"METAR SBUR 151200Z 35003KT CAVOK 24/20 Q1016","temp":24,"dewp":20,"wdir":350,"wspd":3,"visib":"6+","altim":1016,"clouds":[],"obsTime":1773576000},"SBVT":{"icaoId":"SBVT","flightCategory":"VFR","rawOb":"METAR SBVT 151200Z 29003KT 9999 SCT023 BKN100 26/23 Q1012","temp":26,"dewp":23,"wdir":290,"wspd":3,"visib":"6+","altim":1012,"clouds":[{"cover":"SCT","base":2300},{"cover":"BKN","base":10000}],"obsTime":1773576000},"SBCA":{"icaoId":"SBCA","flightCategory":"VFR","rawOb":"METAR SBCA 151200Z 01014KT CAVOK 25/18 Q1014","temp":25,"dewp":18,"wdir":10,"wspd":14,"visib":"6+","altim":1014,"clouds":[],"obsTime":1773576000},"SBAU":{"icaoId":"SBAU","flightCategory":"VFR","rawOb":"METAR SBAU 151300Z 33004KT CAVOK 30/21 Q1013","temp":30,"dewp":21,"wdir":330,"wspd":4,"visib":"6+","altim":1013,"clouds":[],"obsTime":1773579600},"SBAX":{"icaoId":"SBAX","flightCategory":"VFR","rawOb":"METAR SBAX 151200Z AUTO 07003KT 040V100 CAVOK ///// Q1017","temp":null,"dewp":null,"wdir":70,"wspd":3,"visib":"6+","altim":1017,"clouds":[],"obsTime":1773576000},"SBBH":{"icaoId":"SBBH","flightCategory":"VFR","rawOb":"METAR SBBH 151200Z 10005KT 9999 FEW012 SCT020 24/21 Q1016","temp":24,"dewp":21,"wdir":100,"wspd":5,"visib":"6+","altim":1016,"clouds":[{"cover":"FEW","base":1200},{"cover":"SCT","base":2000}],"obsTime":1773576000},"SBBQ":{"icaoId":"SBBQ","flightCategory":"VFR","rawOb":"METAR SBBQ 151200Z 02002KT 9999 FEW010 BKN090 22/19 Q1019","temp":22,"dewp":19,"wdir":20,"wspd":2,"visib":"6+","altim":1019,"clouds":[{"cover":"FEW","base":1000},{"cover":"BKN","base":9000}],"obsTime":1773576000},"SBBU":{"icaoId":"SBBU","flightCategory":"VFR","rawOb":"METAR SBBU 151200Z 02004KT CAVOK 27/20 Q1014","temp":27,"dewp":20,"wdir":20,"wspd":4,"visib":"6+","altim":1014,"clouds":[],"obsTime":1773576000},"SBAR":{"icaoId":"SBAR","flightCategory":"VFR","rawOb":"METAR SBAR 151200Z 05009KT 9999 FEW020 30/22 Q1012","temp":30,"dewp":22,"wdir":50,"wspd":9,"visib":"6+","altim":1012,"clouds":[{"cover":"FEW","base":2000}],"obsTime":1773576000},"SBCC":{"icaoId":"SBCC","flightCategory":"VFR","rawOb":"METAR SBCC 151200Z 06001KT CAVOK 25/22 Q1014","temp":25,"dewp":22,"wdir":60,"wspd":1,"visib":"6+","altim":1014,"clouds":[],"obsTime":1773576000},"SBCJ":{"icaoId":"SBCJ","flightCategory":"VFR","rawOb":"METAR SBCJ 151200Z 06004KT 9999 SCT009 BKN080 23/20 Q1016","temp":23,"dewp":20,"wdir":60,"wspd":4,"visib":"6+","altim":1016,"clouds":[{"cover":"SCT","base":900},{"cover":"BKN","base":8000}],"obsTime":1773576000},"SBCO":{"icaoId":"SBCO","flightCategory":"VFR","rawOb":"METAR SBCO 151200Z 30003KT 270V340 CAVOK 24/20 Q1010","temp":24,"dewp":20,"wdir":300,"wspd":3,"visib":"6+","altim":1010,"clouds":[],"obsTime":1773576000},"SBDN":{"icaoId":"SBDN","flightCategory":"VFR","rawOb":"METAR SBDN 151200Z 01007KT CAVOK 28/20 Q1013","temp":28,"dewp":20,"wdir":10,"wspd":7,"visib":"6+","altim":1013,"clouds":[],"obsTime":1773576000},"SBES":{"icaoId":"SBES","flightCategory":"VFR","rawOb":"METAR SBES 151200Z 00000KT 9999 FEW018 25/// Q1012","temp":null,"dewp":null,"wdir":0,"wspd":0,"visib":"6+","altim":1012,"clouds":[{"cover":"FEW","base":1800}],"obsTime":1773576000},"SBGM":{"icaoId":"SBGM","flightCategory":"VFR","rawOb":"METAR SBGM 151200Z 33007KT 9999 FEW030 27/23 Q1010","temp":27,"dewp":23,"wdir":330,"wspd":7,"visib":"6+","altim":1010,"clouds":[{"cover":"FEW","base":3000}],"obsTime":1773576000},"SBIP":{"icaoId":"SBIP","flightCategory":"VFR","rawOb":"METAR SBIP 151200Z AUTO 18003KT 120V240 9999 FEW012 OVC034 25/22 Q1014","temp":25,"dewp":22,"wdir":180,"wspd":3,"visib":"6+","altim":1014,"clouds":[{"cover":"FEW","base":1200},{"cover":"OVC","base":3400}],"obsTime":1773576000},"SBKG":{"icaoId":"SBKG","flightCategory":"MVFR","rawOb":"METAR SBKG 151200Z 09008KT 9999 BKN020 27/21 Q1015","temp":27,"dewp":21,"wdir":90,"wspd":8,"visib":"6+","altim":1015,"clouds":[{"cover":"BKN","base":2000}],"obsTime":1773576000},"SBOI":{"icaoId":"SBOI","flightCategory":"MVFR","rawOb":"METAR SBOI 151200Z AUTO 04004KT 350V080 9999 FEW009 BKN012 BKN027 27/25 Q1012","temp":27,"dewp":25,"wdir":40,"wspd":4,"visib":"6+","altim":1012,"clouds":[{"cover":"FEW","base":900},{"cover":"BKN","base":1200},{"cover":"BKN","base":2700}],"obsTime":1773576000},"SBPB":{"icaoId":"SBPB","flightCategory":"MVFR","rawOb":"METAR SBPB 151200Z 03004KT 9999 BKN016 BKN080 28/25 Q1012","temp":28,"dewp":25,"wdir":30,"wspd":4,"visib":"6+","altim":1012,"clouds":[{"cover":"BKN","base":1600},{"cover":"BKN","base":8000}],"obsTime":1773576000},"SBPL":{"icaoId":"SBPL","flightCategory":"VFR","rawOb":"METAR SBPL 151200Z 31006KT 9999 SCT030 30/23 Q1014","temp":30,"dewp":23,"wdir":310,"wspd":6,"visib":"6+","altim":1014,"clouds":[{"cover":"SCT","base":3000}],"obsTime":1773576000},"SBPP":{"icaoId":"SBPP","flightCategory":"VFR","rawOb":"METAR SBPP 151200Z 32002KT CAVOK 25/22 Q1013","temp":25,"dewp":22,"wdir":320,"wspd":2,"visib":"6+","altim":1013,"clouds":[],"obsTime":1773576000},"SBPS":{"icaoId":"SBPS","flightCategory":"MVFR","rawOb":"METAR SBPS 151200Z 07007KT 5000 BR SCT008 OVC015 23/22 Q1014","temp":23,"dewp":22,"wdir":70,"wspd":7,"visib":3.11,"altim":1014,"clouds":[{"cover":"SCT","base":800},{"cover":"OVC","base":1500}],"obsTime":1773576000},"SBSC":{"icaoId":"SBSC","flightCategory":"VFR","rawOb":"METAR SBSC 151200Z 02011KT CAVOK 27/20 Q1011","temp":27,"dewp":20,"wdir":20,"wspd":11,"visib":"6+","altim":1011,"clouds":[],"obsTime":1773576000},"SBSJ":{"icaoId":"SBSJ","flightCategory":"MVFR","rawOb":"METAR SBSJ 151200Z 36004KT 5000 BR BKN010 21/18 Q1015","temp":21,"dewp":18,"wdir":360,"wspd":4,"visib":3.11,"altim":1015,"clouds":[{"cover":"BKN","base":1000}],"obsTime":1773576000},"SBSM":{"icaoId":"SBSM","flightCategory":"VFR","rawOb":"METAR SBSM 151200Z VRB03KT CAVOK 21/18 Q1009","temp":21,"dewp":18,"wdir":"VRB","wspd":3,"visib":"6+","altim":1009,"clouds":[],"obsTime":1773576000},"SBSR":{"icaoId":"SBSR","flightCategory":"VFR","rawOb":"METAR SBSR 151200Z 03003KT CAVOK 25/20 Q1014","temp":25,"dewp":20,"wdir":30,"wspd":3,"visib":"6+","altim":1014,"clouds":[],"obsTime":1773576000},"SBTF":{"icaoId":"SBTF","flightCategory":"VFR","rawOb":"METAR SBTF 151200Z 16005KT CAVOK 27/25 Q1010","temp":27,"dewp":25,"wdir":160,"wspd":5,"visib":"6+","altim":1010,"clouds":[],"obsTime":1773576000},"SBTT":{"icaoId":"SBTT","flightCategory":"VFR","rawOb":"METAR SBTT 151200Z 24003KT 210V290 9999 SCT006 OVC100 24/22 Q1011","temp":24,"dewp":22,"wdir":240,"wspd":3,"visib":"6+","altim":1011,"clouds":[{"cover":"SCT","base":600},{"cover":"OVC","base":10000}],"obsTime":1773576000},"SBUY":{"icaoId":"SBUY","flightCategory":"IFR","rawOb":"METAR SBUY 151200Z 10001KT 3000 0900E BR SCT002 SCT070 24/24 Q1009","temp":24,"dewp":24,"wdir":100,"wspd":1,"visib":1.86,"altim":1009,"clouds":[{"cover":"SCT","base":200},{"cover":"SCT","base":7000}],"obsTime":1773576000},"SBVH":{"icaoId":"SBVH","flightCategory":"VFR","rawOb":"METAR SBVH 151200Z 05006KT CAVOK 23/21 Q1013","temp":23,"dewp":21,"wdir":50,"wspd":6,"visib":"6+","altim":1013,"clouds":[],"obsTime":1773576000},"SBTA":{"icaoId":"SBTA","flightCategory":"IFR","rawOb":"METAR SBTA 151200Z 18004KT 4000 BR OVC005 20/19 Q1014","temp":20,"dewp":19,"wdir":180,"wspd":4,"visib":2.49,"altim":1014,"clouds":[{"cover":"OVC","base":500}],"obsTime":1773576000},"SBAF":{"icaoId":"SBAF","flightCategory":"VFR","rawOb":"METAR SBAF 151200Z VRB03KT 9999 FEW010 26/24 Q1012","temp":26,"dewp":24,"wdir":"VRB","wspd":3,"visib":"6+","altim":1012,"clouds":[{"cover":"FEW","base":1000}],"obsTime":1773576000},"SBAN":{"icaoId":"SBAN","flightCategory":"VFR","rawOb":"METAR SBAN 151200Z 02003KT 9999 FEW015 24/17 Q1019","temp":24,"dewp":17,"wdir":20,"wspd":3,"visib":"6+","altim":1019,"clouds":[{"cover":"FEW","base":1500}],"obsTime":1773576000},"SBGW":{"icaoId":"SBGW","flightCategory":"IFR","rawOb":"METAR SBGW 151200Z 06003KT 4000 HZ BKN007 20/16 Q1015","temp":20,"dewp":16,"wdir":60,"wspd":3,"visib":2.49,"altim":1015,"clouds":[{"cover":"BKN","base":700}],"obsTime":1773576000},"SBIH":{"icaoId":"SBIH","flightCategory":"VFR","rawOb":"METAR SBIH 151200Z 12002KT 9999 SCT008 FEW025TCU OVC080 25/24 Q1012 RERA","temp":25,"dewp":24,"wdir":120,"wspd":2,"visib":"6+","altim":1012,"clouds":[{"cover":"SCT","base":800},{"cover":"FEW","base":2500},{"cover":"OVC","base":8000}],"obsTime":1773576000},"SBJP":{"icaoId":"SBJP","flightCategory":"MVFR","rawOb":"METAR SBJP 151200Z 06004KT 300V090 9999 BKN020 29/25 Q1012","temp":29,"dewp":25,"wdir":60,"wspd":4,"visib":"6+","altim":1012,"clouds":[{"cover":"BKN","base":2000}],"obsTime":1773576000},"SBJR":{"icaoId":"SBJR","flightCategory":"VFR","rawOb":"METAR SBJR 151200Z 01007KT 9000 NSC 29/22 Q1011","temp":29,"dewp":22,"wdir":10,"wspd":7,"visib":5.59,"altim":1011,"clouds":[],"obsTime":1773576000},"SBJV":{"icaoId":"SBJV","flightCategory":"VFR","rawOb":"METAR SBJV 151200Z 30005KT 9999 SCT035 SCT100 27/23 Q1011","temp":27,"dewp":23,"wdir":300,"wspd":5,"visib":"6+","altim":1011,"clouds":[{"cover":"SCT","base":3500},{"cover":"SCT","base":10000}],"obsTime":1773576000},"SBLE":{"icaoId":"SBLE","flightCategory":"VFR","rawOb":"METAR SBLE 151200Z AUTO 10005KT 050V150 9999 FEW015 27/25 Q1015","temp":27,"dewp":25,"wdir":100,"wspd":5,"visib":"6+","altim":1015,"clouds":[{"cover":"FEW","base":1500}],"obsTime":1773576000},"SBLS":{"icaoId":"SBLS","flightCategory":"VFR","rawOb":"METAR SBLS 151200Z COR 14005KT 9999 SCT012 SCT020 24/21 Q1016","temp":24,"dewp":21,"wdir":140,"wspd":5,"visib":"6+","altim":1016,"clouds":[{"cover":"SCT","base":1200},{"cover":"SCT","base":2000}],"obsTime":1773576000},"SBMT":{"icaoId":"SBMT","flightCategory":"VFR","rawOb":"METAR SBMT 151200Z 09004KT 050V130 CAVOK 22/18 Q1015","temp":22,"dewp":18,"wdir":90,"wspd":4,"visib":"6+","altim":1015,"clouds":[],"obsTime":1773576000},"SBPF":{"icaoId":"SBPF","flightCategory":"VFR","rawOb":"METAR SBPF 151200Z 03010KT CAVOK 22/16 Q1013","temp":22,"dewp":16,"wdir":30,"wspd":10,"visib":"6+","altim":1013,"clouds":[],"obsTime":1773576000},"SBST":{"icaoId":"SBST","flightCategory":"VFR","rawOb":"METAR SBST 151200Z 16001KT CAVOK 26/20 Q1011","temp":26,"dewp":20,"wdir":160,"wspd":1,"visib":"6+","altim":1011,"clouds":[],"obsTime":1773576000}}}