{"updated":1776745410,"count":54,"data":{"SBVT":{"icaoId":"SBVT","flightCategory":"VFR","rawOb":"METAR SBVT 210300Z 24005KT 9999 SCT040 SCT070 24/19 Q1016","temp":24,"dewp":19,"wdir":240,"wspd":5,"visib":"6+","altim":1016,"clouds":[{"cover":"SCT","base":4000},{"cover":"SCT","base":7000}],"obsTime":1776740400},"SBBE":{"icaoId":"SBBE","flightCategory":"MVFR","rawOb":"METAR SBBE 210300Z 30002KT 8000 -RA SCT030 BKN074 23/23 Q1012 RETS","temp":23,"dewp":23,"wdir":300,"wspd":2,"visib":4.97,"altim":1012,"clouds":[{"cover":"SCT","base":3000},{"cover":"BKN","base":7400}],"obsTime":1776740400},"SBBR":{"icaoId":"SBBR","flightCategory":"VFR","rawOb":"METAR SBBR 210300Z 21003KT 9999 FEW045 22/16 Q1018","temp":22,"dewp":16,"wdir":210,"wspd":3,"visib":"6+","altim":1018,"clouds":[{"cover":"FEW","base":4500}],"obsTime":1776740400},"SBBV":{"icaoId":"SBBV","flightCategory":"VFR","rawOb":"METAR SBBV 210300Z 14006KT 9999 FEW040 27/23 Q1011","temp":27,"dewp":23,"wdir":140,"wspd":6,"visib":"6+","altim":1011,"clouds":[{"cover":"FEW","base":4000}],"obsTime":1776740400},"SBCF":{"icaoId":"SBCF","flightCategory":"VFR","rawOb":"METAR SBCF 210300Z 16004KT 9999 SCT040 SCT090 20/19 Q1018","temp":20,"dewp":19,"wdir":160,"wspd":4,"visib":"6+","altim":1018,"clouds":[{"cover":"SCT","base":4000},{"cover":"SCT","base":9000}],"obsTime":1776740400},"SBCG":{"icaoId":"SBCG","flightCategory":"VFR","rawOb":"METAR SBCG 210300Z 08006KT 9999 FEW045 24/21 Q1014","temp":24,"dewp":21,"wdir":80,"wspd":6,"visib":"6+","altim":1014,"clouds":[{"cover":"FEW","base":4500}],"obsTime":1776740400},"SBCT":{"icaoId":"SBCT","flightCategory":"MVFR","rawOb":"METAR SBCT 210300Z 11003KT 8000 NSC 15/14 Q1021","temp":15,"dewp":14,"wdir":110,"wspd":3,"visib":4.97,"altim":1021,"clouds":[],"obsTime":1776740400},"SBEG":{"icaoId":"SBEG","flightCategory":"VFR","rawOb":"METAR SBEG 210300Z 13003KT 9999 FEW006 SCT100 24/24 Q1011","temp":24,"dewp":24,"wdir":130,"wspd":3,"visib":"6+","altim":1011,"clouds":[{"cover":"FEW","base":600},{"cover":"SCT","base":10000}],"obsTime":1776740400},"SBFI":{"icaoId":"SBFI","flightCategory":"MVFR","rawOb":"METAR SBFI 210300Z 24006KT 8000 -TSRA SCT005 SCT011 FEW035CB BKN070 21/21 Q1015","temp":21,"dewp":21,"wdir":240,"wspd":6,"visib":4.97,"altim":1015,"clouds":[{"cover":"SCT","base":500},{"cover":"SCT","base":1100},{"cover":"FEW","base":3500},{"cover":"BKN","base":7000}],"obsTime":1776740400},"SBFL":{"icaoId":"SBFL","flightCategory":"VFR","rawOb":"METAR SBFL 210300Z 26006KT CAVOK 21/19 Q1017","temp":21,"dewp":19,"wdir":260,"wspd":6,"visib":"6+","altim":1017,"clouds":[],"obsTime":1776740400},"SBFZ":{"icaoId":"SBFZ","flightCategory":"MVFR","rawOb":"METAR SBFZ 210300Z 27002KT 8000 NSC 25/24 Q1011","temp":25,"dewp":24,"wdir":270,"wspd":2,"visib":4.97,"altim":1011,"clouds":[],"obsTime":1776740400},"SBGL":{"icaoId":"SBGL","flightCategory":"VFR","rawOb":"METAR SBGL 210300Z 33006KT 310V020 9999 FEW020 SCT045 23/19 Q1016","temp":23,"dewp":19,"wdir":330,"wspd":6,"visib":"6+","altim":1016,"clouds":[{"cover":"FEW","base":2000},{"cover":"SCT","base":4500}],"obsTime":1776740400},"SBGO":{"icaoId":"SBGO","flightCategory":"VFR","rawOb":"METAR SBGO 210300Z 00000KT 9999 FEW045 22/21 Q1016","temp":22,"dewp":21,"wdir":0,"wspd":0,"visib":"6+","altim":1016,"clouds":[{"cover":"FEW","base":4500}],"obsTime":1776740400},"SBGR":{"icaoId":"SBGR","flightCategory":"VFR","rawOb":"METAR SBGR 210300Z 13002KT CAVOK 15/13 Q1020","temp":15,"dewp":13,"wdir":130,"wspd":2,"visib":"6+","altim":1020,"clouds":[],"obsTime":1776740400},"SBJU":{"icaoId":"SBJU","flightCategory":"VFR","rawOb":"METAR SBJU 210300Z 00000KT 9999 SCT020 23/22 Q1014","temp":23,"dewp":22,"wdir":0,"wspd":0,"visib":"6+","altim":1014,"clouds":[{"cover":"SCT","base":2000}],"obsTime":1776740400},"SBKP":{"icaoId":"SBKP","flightCategory":"VFR","rawOb":"METAR SBKP 210300Z 13012KT CAVOK 17/14 Q1018","temp":17,"dewp":14,"wdir":130,"wspd":12,"visib":"6+","altim":1018,"clouds":[],"obsTime":1776740400},"SBLO":{"icaoId":"SBLO","flightCategory":"VFR","rawOb":"METAR SBLO 210300Z 19003KT CAVOK 21/16 Q1016","temp":21,"dewp":16,"wdir":190,"wspd":3,"visib":"6+","altim":1016,"clouds":[],"obsTime":1776740400},"SBMA":{"icaoId":"SBMA","flightCategory":"VFR","rawOb":"METAR SBMA 210300Z 05004KT 9999 FEW020 BKN100 26/24 Q1012","temp":26,"dewp":24,"wdir":50,"wspd":4,"visib":"6+","altim":1012,"clouds":[{"cover":"FEW","base":2000},{"cover":"BKN","base":10000}],"obsTime":1776740400},"SBME":{"icaoId":"SBME","flightCategory":"VFR","rawOb":"METAR SBME 210300Z 32004KT CAVOK 21/17 Q1016","temp":21,"dewp":17,"wdir":320,"wspd":4,"visib":"6+","altim":1016,"clouds":[],"obsTime":1776740400},"SBMG":{"icaoId":"SBMG","flightCategory":"VFR","rawOb":"METAR SBMG 210300Z 06009KT CAVOK 24/16 Q1015","temp":24,"dewp":16,"wdir":60,"wspd":9,"visib":"6+","altim":1015,"clouds":[],"obsTime":1776740400},"SBMK":{"icaoId":"SBMK","flightCategory":"VFR","rawOb":"METAR SBMK 210300Z 00000KT CAVOK 21/19 Q1016","temp":21,"dewp":19,"wdir":0,"wspd":0,"visib":"6+","altim":1016,"clouds":[],"obsTime":1776740400},"SBMO":{"icaoId":"SBMO","flightCategory":"VFR","rawOb":"METAR SBMO 210300Z 29002KT 9999 FEW020 SCT100 24/24 Q1012","temp":24,"dewp":24,"wdir":290,"wspd":2,"visib":"6+","altim":1012,"clouds":[{"cover":"FEW","base":2000},{"cover":"SCT","base":10000}],"obsTime":1776740400},"SBMQ":{"icaoId":"SBMQ","flightCategory":"VFR","rawOb":"METAR SBMQ 210300Z 03003KT 9999 FEW015 26/25 Q1011","temp":26,"dewp":25,"wdir":30,"wspd":3,"visib":"6+","altim":1011,"clouds":[{"cover":"FEW","base":1500}],"obsTime":1776740400},"SBNT":{"icaoId":"SBNT","flightCategory":"VFR","rawOb":"METAR SBNT 210300Z 17003KT 9999 FEW018 25/24 Q1011","temp":25,"dewp":24,"wdir":170,"wspd":3,"visib":"6+","altim":1011,"clouds":[{"cover":"FEW","base":1800}],"obsTime":1776740400},"SBPA":{"icaoId":"SBPA","flightCategory":"VFR","rawOb":"METAR SBPA 210300Z 13005KT CAVOK 21/19 Q1014","temp":21,"dewp":19,"wdir":130,"wspd":5,"visib":"6+","altim":1014,"clouds":[],"obsTime":1776740400},"SBPJ":{"icaoId":"SBPJ","flightCategory":"VFR","rawOb":"METAR SBPJ 210300Z 13003KT 9999 FEW030 24/23 Q1012","temp":24,"dewp":23,"wdir":130,"wspd":3,"visib":"6+","altim":1012,"clouds":[{"cover":"FEW","base":3000}],"obsTime":1776740400},"SBPV":{"icaoId":"SBPV","flightCategory":"VFR","rawOb":"METAR SBPV 210300Z 00000KT CAVOK 26/24 Q1011","temp":26,"dewp":24,"wdir":0,"wspd":0,"visib":"6+","altim":1011,"clouds":[],"obsTime":1776740400},"SBRB":{"icaoId":"SBRB","flightCategory":"MVFR","rawOb":"METAR SBRB 210300Z 34003KT 8000 SCT027 SCT100 23/22 Q1012","temp":23,"dewp":22,"wdir":340,"wspd":3,"visib":4.97,"altim":1012,"clouds":[{"cover":"SCT","base":2700},{"cover":"SCT","base":10000}],"obsTime":1776740400},"SBRF":{"icaoId":"SBRF","flightCategory":"VFR","rawOb":"METAR SBRF 210300Z 22004KT 9999 SCT018 26/24 Q1011","temp":26,"dewp":24,"wdir":220,"wspd":4,"visib":"6+","altim":1011,"clouds":[{"cover":"SCT","base":1800}],"obsTime":1776740400},"SBSG":{"icaoId":"SBSG","flightCategory":"VFR","rawOb":"METAR SBSG 210300Z 22002KT 9999 SCT020 24/24 Q1011","temp":24,"dewp":24,"wdir":220,"wspd":2,"visib":"6+","altim":1011,"clouds":[{"cover":"SCT","base":2000}],"obsTime":1776740400},"SBSL":{"icaoId":"SBSL","flightCategory":"VFR","rawOb":"METAR SBSL 210300Z 05003KT 9999 FEW012 SCT025 BKN070 25/24 Q1012","temp":25,"dewp":24,"wdir":50,"wspd":3,"visib":"6+","altim":1012,"clouds":[{"cover":"FEW","base":1200},{"cover":"SCT","base":2500},{"cover":"BKN","base":7000}],"obsTime":1776740400},"SBSN":{"icaoId":"SBSN","flightCategory":"VFR","rawOb":"METAR SBSN 210300Z 00000KT 9999 VCTS FEW021 FEW028CB 25/25 Q1012","temp":25,"dewp":25,"wdir":0,"wspd":0,"visib":"6+","altim":1012,"clouds":[{"cover":"FEW","base":2100},{"cover":"FEW","base":2800}],"obsTime":1776740400},"SBSP":{"icaoId":"SBSP","flightCategory":"VFR","rawOb":"METAR SBSP 210300Z AUTO 15007KT CAVOK 16/15 Q1020","temp":16,"dewp":15,"wdir":150,"wspd":7,"visib":"6+","altim":1020,"clouds":[],"obsTime":1776740400},"SBSV":{"icaoId":"SBSV","flightCategory":"VFR","rawOb":"METAR SBSV 210300Z 12007KT 9999 SCT023 27/23 Q1013","temp":27,"dewp":23,"wdir":120,"wspd":7,"visib":"6+","altim":1013,"clouds":[{"cover":"SCT","base":2300}],"obsTime":1776740400},"SBTE":{"icaoId":"SBTE","flightCategory":"VFR","rawOb":"METAR SBTE 210300Z 31002KT 9999 SCT012 BKN100 24/23 Q1011","temp":24,"dewp":23,"wdir":310,"wspd":2,"visib":"6+","altim":1011,"clouds":[{"cover":"SCT","base":1200},{"cover":"BKN","base":10000}],"obsTime":1776740400},"SBUL":{"icaoId":"SBUL","flightCategory":"VFR","rawOb":"METAR SBUL 210300Z 19010KT CAVOK 23/14 Q1017","temp":23,"dewp":14,"wdir":190,"wspd":10,"visib":"6+","altim":1017,"clouds":[],"obsTime":1776740400},"SBUR":{"icaoId":"SBUR","flightCategory":"VFR","rawOb":"METAR SBUR 210300Z 12004KT CAVOK 23/15 Q1016","temp":23,"dewp":15,"wdir":120,"wspd":4,"visib":"6+","altim":1016,"clouds":[],"obsTime":1776740400},"SBIL":{"icaoId":"SBIL","flightCategory":"VFR","rawOb":"METAR SBIL 210300Z 24004KT 9999 SCT023 25/23 Q1014","temp":25,"dewp":23,"wdir":240,"wspd":4,"visib":"6+","altim":1014,"clouds":[{"cover":"SCT","base":2300}],"obsTime":1776740400},"SBAR":{"icaoId":"SBAR","flightCategory":"VFR","rawOb":"METAR SBAR 210300Z 12006KT 9999 FEW040 BKN095 26/23 Q1012","temp":26,"dewp":23,"wdir":120,"wspd":6,"visib":"6+","altim":1012,"clouds":[{"cover":"FEW","base":4000},{"cover":"BKN","base":9500}],"obsTime":1776740400},"SBDN":{"icaoId":"SBDN","flightCategory":"VFR","rawOb":"METAR SBDN 210300Z 11006KT CAVOK 22/13 Q1015","temp":22,"dewp":13,"wdir":110,"wspd":6,"visib":"6+","altim":1015,"clouds":[],"obsTime":1776740400},"SBIP":{"icaoId":"SBIP","flightCategory":"VFR","rawOb":"METAR SBIP 210300Z AUTO 02003KT 9999 SCT040 BKN045 22/22 Q1015","temp":22,"dewp":22,"wdir":20,"wspd":3,"visib":"6+","altim":1015,"clouds":[{"cover":"SCT","base":4000},{"cover":"BKN","base":4500}],"obsTime":1776740400},"SBKG":{"icaoId":"SBKG","flightCategory":"VFR","rawOb":"METAR SBKG 210300Z 09003KT CAVOK 23/21 Q1014","temp":23,"dewp":21,"wdir":90,"wspd":3,"visib":"6+","altim":1014,"clouds":[],"obsTime":1776740400},"SBOI":{"icaoId":"SBOI","flightCategory":"LIFR","rawOb":"METAR SBOI 210400Z AUTO 14002KT 9999 // BKN003/// 24/24 Q1011","temp":24,"dewp":24,"wdir":140,"wspd":2,"visib":"6+","altim":1011,"clouds":[{"cover":"BKN","base":300}],"obsTime":1776744000},"SBPL":{"icaoId":"SBPL","flightCategory":"VFR","rawOb":"METAR SBPL 210300Z 10006KT 9999 FEW020 SCT070 26/21 Q1013","temp":26,"dewp":21,"wdir":100,"wspd":6,"visib":"6+","altim":1013,"clouds":[{"cover":"FEW","base":2000},{"cover":"SCT","base":7000}],"obsTime":1776740400},"SBPS":{"icaoId":"SBPS","flightCategory":"VFR","rawOb":"METAR SBPS 210300Z 24002KT 9999 SCT020 25/23 Q1014","temp":25,"dewp":23,"wdir":240,"wspd":2,"visib":"6+","altim":1014,"clouds":[{"cover":"SCT","base":2000}],"obsTime":1776740400},"SBSC":{"icaoId":"SBSC","flightCategory":"VFR","rawOb":"METAR SBSC 210300Z 25002KT 9999 FEW015 21/20 Q1016","temp":21,"dewp":20,"wdir":250,"wspd":2,"visib":"6+","altim":1016,"clouds":[{"cover":"FEW","base":1500}],"obsTime":1776740400},"SBSJ":{"icaoId":"SBSJ","flightCategory":"VFR","rawOb":"METAR SBSJ 210300Z 17002KT 9999 BKN033 16/15 Q1019","temp":16,"dewp":15,"wdir":170,"wspd":2,"visib":"6+","altim":1019,"clouds":[{"cover":"BKN","base":3300}],"obsTime":1776740400},"SBSR":{"icaoId":"SBSR","flightCategory":"VFR","rawOb":"METAR SBSR 210300Z 16005KT 100V200 CAVOK 22/13 Q1015","temp":22,"dewp":13,"wdir":160,"wspd":5,"visib":"6+","altim":1015,"clouds":[],"obsTime":1776740400},"SBCO":{"icaoId":"SBCO","flightCategory":"VFR","rawOb":"METAR SBCO 210300Z 11003KT CAVOK 19/18 Q1015","temp":19,"dewp":18,"wdir":110,"wspd":3,"visib":"6+","altim":1015,"clouds":[],"obsTime":1776740400},"SBSM":{"icaoId":"SBSM","flightCategory":"MVFR","rawOb":"METAR SBSM 210300Z VRB01KT 6000 -RA VCTS FEW040 FEW045CB OVC080 20/19 Q1016 RETS","temp":20,"dewp":19,"wdir":"VRB","wspd":1,"visib":3.73,"altim":1016,"clouds":[{"cover":"FEW","base":4000},{"cover":"FEW","base":4500},{"cover":"OVC","base":8000}],"obsTime":1776740400},"SBAN":{"icaoId":"SBAN","flightCategory":"VFR","rawOb":"METAR SBAN 210300Z 22004KT 9999 FEW030 21/17 Q1019","temp":21,"dewp":17,"wdir":220,"wspd":4,"visib":"6+","altim":1019,"clouds":[{"cover":"FEW","base":3000}],"obsTime":1776740400},"SBLE":{"icaoId":"SBLE","flightCategory":"VFR","rawOb":"METAR SBLE 210300Z AUTO VRB01KT 9999 FEW034 ///// Q////","temp":null,"dewp":null,"wdir":"VRB","wspd":1,"visib":"6+","altim":null,"clouds":[{"cover":"FEW","base":3400}],"obsTime":1776740400},"SBJP":{"icaoId":"SBJP","flightCategory":"VFR","rawOb":"METAR SBJP 210300Z 20002KT 9999 FEW020 25/24 Q1012","temp":25,"dewp":24,"wdir":200,"wspd":2,"visib":"6+","altim":1012,"clouds":[{"cover":"FEW","base":2000}],"obsTime":1776740400},"SBTA":{"icaoId":"SBTA","flightCategory":"VFR","rawOb":"METAR SBTA 210300Z VRB02KT CAVOK 16/16 Q1018","temp":16,"dewp":16,"wdir":"VRB","wspd":2,"visib":"6+","altim":1018,"clouds":[],"obsTime":1776740400}}}