{"updated":1778371684,"count":68,"data":{"SBFI":{"icaoId":"SBFI","flightCategory":"VFR","rawOb":"METAR SBFI 092300Z 21004KT 9999 FEW030 BKN090 12/09 Q1022","temp":12,"dewp":9,"wdir":210,"wspd":4,"visib":"6+","altim":1022,"clouds":[{"cover":"FEW","base":3000},{"cover":"BKN","base":9000}],"obsTime":1778367600},"SBBR":{"icaoId":"SBBR","flightCategory":"VFR","rawOb":"METAR SBBR 092300Z 09005KT CAVOK 23/15 Q1019","temp":23,"dewp":15,"wdir":90,"wspd":5,"visib":"6+","altim":1019,"clouds":[],"obsTime":1778367600},"SBBV":{"icaoId":"SBBV","flightCategory":"VFR","rawOb":"METAR SBBV 092300Z 10006KT 9999 SCT040 FEW045TCU SCT080 31/22 Q1009","temp":31,"dewp":22,"wdir":100,"wspd":6,"visib":"6+","altim":1009,"clouds":[{"cover":"SCT","base":4000},{"cover":"FEW","base":4500},{"cover":"SCT","base":8000}],"obsTime":1778367600},"SBCF":{"icaoId":"SBCF","flightCategory":"VFR","rawOb":"METAR SBCF 092300Z 09005KT CAVOK 23/16 Q1020","temp":23,"dewp":16,"wdir":90,"wspd":5,"visib":"6+","altim":1020,"clouds":[],"obsTime":1778367600},"SBCG":{"icaoId":"SBCG","flightCategory":"IFR","rawOb":"SPECI SBCG 092227Z 14014KT 6000 TSRA BKN007 FEW040CB OVC070 10/09 Q1020 RERA","temp":10,"dewp":9,"wdir":140,"wspd":14,"visib":3.73,"altim":1020,"clouds":[{"cover":"BKN","base":700},{"cover":"FEW","base":4000},{"cover":"OVC","base":7000}],"obsTime":1778365620},"SBCT":{"icaoId":"SBCT","flightCategory":"IFR","rawOb":"METAR SBCT 092300Z 23011KT 4000 -RA BR BKN005 OVC009 08/08 Q1021","temp":8,"dewp":8,"wdir":230,"wspd":11,"visib":2.49,"altim":1021,"clouds":[{"cover":"BKN","base":500},{"cover":"OVC","base":900}],"obsTime":1778367600},"SBCZ":{"icaoId":"SBCZ","flightCategory":"VFR","rawOb":"METAR SBCZ 092300Z 02002KT 9999 FEW030TCU SCT100 27/26 Q1008","temp":27,"dewp":26,"wdir":20,"wspd":2,"visib":"6+","altim":1008,"clouds":[{"cover":"FEW","base":3000},{"cover":"SCT","base":10000}],"obsTime":1778367600},"SBEG":{"icaoId":"SBEG","flightCategory":"VFR","rawOb":"METAR SBEG 092300Z 00000KT 9999 FEW030 27/25 Q1009","temp":27,"dewp":25,"wdir":0,"wspd":0,"visib":"6+","altim":1009,"clouds":[{"cover":"FEW","base":3000}],"obsTime":1778367600},"SBBE":{"icaoId":"SBBE","flightCategory":"VFR","rawOb":"METAR SBBE 092300Z 12008KT 9999 FEW008 24/24 Q1012","temp":24,"dewp":24,"wdir":120,"wspd":8,"visib":"6+","altim":1012,"clouds":[{"cover":"FEW","base":800}],"obsTime":1778367600},"SBFL":{"icaoId":"SBFL","flightCategory":"IFR","rawOb":"METAR SBFL 092300Z 29004KT 3500 RA FEW014 SCT030 BKN080 14/13 Q1019","temp":14,"dewp":13,"wdir":290,"wspd":4,"visib":2.17,"altim":1019,"clouds":[{"cover":"FEW","base":1400},{"cover":"SCT","base":3000},{"cover":"BKN","base":8000}],"obsTime":1778367600},"SBFZ":{"icaoId":"SBFZ","flightCategory":"VFR","rawOb":"METAR SBFZ 092300Z 09004KT CAVOK 27/25 Q1012","temp":27,"dewp":25,"wdir":90,"wspd":4,"visib":"6+","altim":1012,"clouds":[],"obsTime":1778367600},"SBGL":{"icaoId":"SBGL","flightCategory":"VFR","rawOb":"METAR SBGL 092300Z 22003KT 9999 FEW040 SCT070 26/21 Q1013","temp":26,"dewp":21,"wdir":220,"wspd":3,"visib":"6+","altim":1013,"clouds":[{"cover":"FEW","base":4000},{"cover":"SCT","base":7000}],"obsTime":1778367600},"SBGO":{"icaoId":"SBGO","flightCategory":"VFR","rawOb":"METAR SBGO 092300Z 34003KT CAVOK 26/16 Q1017","temp":26,"dewp":16,"wdir":340,"wspd":3,"visib":"6+","altim":1017,"clouds":[],"obsTime":1778367600},"SBGR":{"icaoId":"SBGR","flightCategory":"MVFR","rawOb":"SPECI SBGR 092235Z 15006KT 8000 BKN010 22/20 Q1018","temp":22,"dewp":20,"wdir":150,"wspd":6,"visib":4.97,"altim":1018,"clouds":[{"cover":"BKN","base":1000}],"obsTime":1778366100},"SBKP":{"icaoId":"SBKP","flightCategory":"VFR","rawOb":"METAR SBKP 092300Z 21010KT CAVOK 22/18 Q1016","temp":22,"dewp":18,"wdir":210,"wspd":10,"visib":"6+","altim":1016,"clouds":[],"obsTime":1778367600},"SBLO":{"icaoId":"SBLO","flightCategory":"IFR","rawOb":"METAR SBLO 092300Z 21010KT 9000 -RA FEW006 BKN008 OVC029 14/13 Q1018","temp":14,"dewp":13,"wdir":210,"wspd":10,"visib":5.59,"altim":1018,"clouds":[{"cover":"FEW","base":600},{"cover":"BKN","base":800},{"cover":"OVC","base":2900}],"obsTime":1778367600},"SBMA":{"icaoId":"SBMA","flightCategory":"VFR","rawOb":"METAR SBMA 092300Z 36002KT CAVOK 28/25 Q1011","temp":28,"dewp":25,"wdir":360,"wspd":2,"visib":"6+","altim":1011,"clouds":[],"obsTime":1778367600},"SBMO":{"icaoId":"SBMO","flightCategory":"IFR","rawOb":"METAR SBMO 092300Z 11009KT 2000 RA BR OVC005 24/24 Q1015","temp":24,"dewp":24,"wdir":110,"wspd":9,"visib":1.24,"altim":1015,"clouds":[{"cover":"OVC","base":500}],"obsTime":1778367600},"SBMQ":{"icaoId":"SBMQ","flightCategory":"VFR","rawOb":"METAR SBMQ 092300Z 04004KT 9999 FEW030 BKN083 28/25 Q1011","temp":28,"dewp":25,"wdir":40,"wspd":4,"visib":"6+","altim":1011,"clouds":[{"cover":"FEW","base":3000},{"cover":"BKN","base":8300}],"obsTime":1778367600},"SBNT":{"icaoId":"SBNT","flightCategory":"VFR","rawOb":"METAR SBNT 092300Z 10005KT 9999 FEW030 27/25 Q1013","temp":27,"dewp":25,"wdir":100,"wspd":5,"visib":"6+","altim":1013,"clouds":[{"cover":"FEW","base":3000}],"obsTime":1778367600},"SBPA":{"icaoId":"SBPA","flightCategory":"VFR","rawOb":"METAR SBPA 092300Z 27011KT CAVOK 13/06 Q1018","temp":13,"dewp":6,"wdir":270,"wspd":11,"visib":"6+","altim":1018,"clouds":[],"obsTime":1778367600},"SBPJ":{"icaoId":"SBPJ","flightCategory":"VFR","rawOb":"METAR SBPJ 092300Z 13003KT CAVOK 27/24 Q1012","temp":27,"dewp":24,"wdir":130,"wspd":3,"visib":"6+","altim":1012,"clouds":[],"obsTime":1778367600},"SBPV":{"icaoId":"SBPV","flightCategory":"VFR","rawOb":"METAR SBPV 092300Z 01003KT 9999 FEW030 27/22 Q1008","temp":27,"dewp":22,"wdir":10,"wspd":3,"visib":"6+","altim":1008,"clouds":[{"cover":"FEW","base":3000}],"obsTime":1778367600},"SBRB":{"icaoId":"SBRB","flightCategory":"VFR","rawOb":"METAR SBRB 092300Z 22003KT 9999 SCT030 26/25 Q1009","temp":26,"dewp":25,"wdir":220,"wspd":3,"visib":"6+","altim":1009,"clouds":[{"cover":"SCT","base":3000}],"obsTime":1778367600},"SBRF":{"icaoId":"SBRF","flightCategory":"VFR","rawOb":"METAR SBRF 092300Z 09008KT 9999 SCT015 27/24 Q1013","temp":27,"dewp":24,"wdir":90,"wspd":8,"visib":"6+","altim":1013,"clouds":[{"cover":"SCT","base":1500}],"obsTime":1778367600},"SBSG":{"icaoId":"SBSG","flightCategory":"VFR","rawOb":"METAR SBSG 092300Z 11008KT 070V130 9999 SCT023 FEW026TCU 26/24 Q1013","temp":26,"dewp":24,"wdir":110,"wspd":8,"visib":"6+","altim":1013,"clouds":[{"cover":"SCT","base":2300},{"cover":"FEW","base":2600}],"obsTime":1778367600},"SBSL":{"icaoId":"SBSL","flightCategory":"VFR","rawOb":"METAR SBSL 092300Z 09004KT 9999 SCT017 FEW025TCU BKN080 25/24 Q1012","temp":25,"dewp":24,"wdir":90,"wspd":4,"visib":"6+","altim":1012,"clouds":[{"cover":"SCT","base":1700},{"cover":"FEW","base":2500},{"cover":"BKN","base":8000}],"obsTime":1778367600},"SBSN":{"icaoId":"SBSN","flightCategory":"VFR","rawOb":"METAR SBSN 092300Z 10004KT CAVOK 28/25 Q1009","temp":28,"dewp":25,"wdir":100,"wspd":4,"visib":"6+","altim":1009,"clouds":[],"obsTime":1778367600},"SBSP":{"icaoId":"SBSP","flightCategory":"MVFR","rawOb":"METAR SBSP 092300Z 17011KT 9999 BKN011 21/19 Q1019","temp":21,"dewp":19,"wdir":170,"wspd":11,"visib":"6+","altim":1019,"clouds":[{"cover":"BKN","base":1100}],"obsTime":1778367600},"SBSV":{"icaoId":"SBSV","flightCategory":"VFR","rawOb":"METAR SBSV 092300Z 11009KT 090V160 9999 FEW025 SCT060 27/23 Q1016","temp":27,"dewp":23,"wdir":110,"wspd":9,"visib":"6+","altim":1016,"clouds":[{"cover":"FEW","base":2500},{"cover":"SCT","base":6000}],"obsTime":1778367600},"SBTE":{"icaoId":"SBTE","flightCategory":"VFR","rawOb":"METAR SBTE 092300Z 18004KT CAVOK 28/23 Q1011","temp":28,"dewp":23,"wdir":180,"wspd":4,"visib":"6+","altim":1011,"clouds":[],"obsTime":1778367600},"SBVT":{"icaoId":"SBVT","flightCategory":"VFR","rawOb":"METAR SBVT 092300Z 01003KT CAVOK 25/22 Q1017","temp":25,"dewp":22,"wdir":10,"wspd":3,"visib":"6+","altim":1017,"clouds":[],"obsTime":1778367600},"SBIL":{"icaoId":"SBIL","flightCategory":"VFR","rawOb":"METAR SBIL 092300Z 14006KT CAVOK 28/22 Q1017","temp":28,"dewp":22,"wdir":140,"wspd":6,"visib":"6+","altim":1017,"clouds":[],"obsTime":1778367600},"SBUR":{"icaoId":"SBUR","flightCategory":"VFR","rawOb":"METAR SBUR 092300Z 01004KT CAVOK 25/16 Q1018","temp":25,"dewp":16,"wdir":10,"wspd":4,"visib":"6+","altim":1018,"clouds":[],"obsTime":1778367600},"SBME":{"icaoId":"SBME","flightCategory":"VFR","rawOb":"METAR SBME 092300Z 05012KT CAVOK 26/21 Q1015","temp":26,"dewp":21,"wdir":50,"wspd":12,"visib":"6+","altim":1015,"clouds":[],"obsTime":1778367600},"SBMG":{"icaoId":"SBMG","flightCategory":"LIFR","rawOb":"METAR SBMG 092300Z 16019G29KT 4500 -RA BR BCFG BKN002 OVC006 11/11 Q1019","temp":11,"dewp":11,"wdir":160,"wspd":19,"visib":2.8,"altim":1019,"clouds":[{"cover":"BKN","base":200},{"cover":"OVC","base":600}],"obsTime":1778367600},"SBMK":{"icaoId":"SBMK","flightCategory":"VFR","rawOb":"METAR SBMK 092300Z 09005KT CAVOK 24/17 Q1018","temp":24,"dewp":17,"wdir":90,"wspd":5,"visib":"6+","altim":1018,"clouds":[],"obsTime":1778367600},"SBHT":{"icaoId":"SBHT","flightCategory":"VFR","rawOb":"METAR SBHT 092300Z 00000KT CAVOK 26/24 Q1011","temp":26,"dewp":24,"wdir":0,"wspd":0,"visib":"6+","altim":1011,"clouds":[],"obsTime":1778367600},"SBJU":{"icaoId":"SBJU","flightCategory":"VFR","rawOb":"METAR SBJU 092300Z 21002KT 9999 FEW020 26/23 Q1014","temp":26,"dewp":23,"wdir":210,"wspd":2,"visib":"6+","altim":1014,"clouds":[{"cover":"FEW","base":2000}],"obsTime":1778367600},"SBUL":{"icaoId":"SBUL","flightCategory":"VFR","rawOb":"METAR SBUL 092300Z 09005KT CAVOK 24/16 Q1019","temp":24,"dewp":16,"wdir":90,"wspd":5,"visib":"6+","altim":1019,"clouds":[],"obsTime":1778367600},"SBAR":{"icaoId":"SBAR","flightCategory":"VFR","rawOb":"METAR SBAR 092300Z 14011KT 9999 FEW033 28/22 Q1014","temp":28,"dewp":22,"wdir":140,"wspd":11,"visib":"6+","altim":1014,"clouds":[{"cover":"FEW","base":3300}],"obsTime":1778367600},"SBOI":{"icaoId":"SBOI","flightCategory":"VFR","rawOb":"METAR SBOI 092300Z AUTO VRB02KT CAVOK 26/24 Q1012","temp":26,"dewp":24,"wdir":"VRB","wspd":2,"visib":"6+","altim":1012,"clouds":[],"obsTime":1778367600},"SBPL":{"icaoId":"SBPL","flightCategory":"VFR","rawOb":"METAR SBPL 092300Z 12008KT 9999 FEW020 SCT070 26/22 Q1015","temp":26,"dewp":22,"wdir":120,"wspd":8,"visib":"6+","altim":1015,"clouds":[{"cover":"FEW","base":2000},{"cover":"SCT","base":7000}],"obsTime":1778367600},"SBPS":{"icaoId":"SBPS","flightCategory":"VFR","rawOb":"METAR SBPS 092300Z 09004KT 9999 FEW025 25/22 Q1017","temp":25,"dewp":22,"wdir":90,"wspd":4,"visib":"6+","altim":1017,"clouds":[{"cover":"FEW","base":2500}],"obsTime":1778367600},"SBSJ":{"icaoId":"SBSJ","flightCategory":"VFR","rawOb":"METAR SBSJ 092300Z 13002KT CAVOK 24/17 Q1017","temp":24,"dewp":17,"wdir":130,"wspd":2,"visib":"6+","altim":1017,"clouds":[],"obsTime":1778367600},"SBCA":{"icaoId":"SBCA","flightCategory":"VFR","rawOb":"METAR SBCA 092300Z 18006KT CAVOK 07/05 Q1022","temp":7,"dewp":5,"wdir":180,"wspd":6,"visib":"6+","altim":1022,"clouds":[],"obsTime":1778367600},"SBDN":{"icaoId":"SBDN","flightCategory":"IFR","rawOb":"METAR SBDN 092300Z 22014KT 9999 -RA OVC005 13/12 Q1017","temp":13,"dewp":12,"wdir":220,"wspd":14,"visib":"6+","altim":1017,"clouds":[{"cover":"OVC","base":500}],"obsTime":1778367600},"SBIP":{"icaoId":"SBIP","flightCategory":"VFR","rawOb":"METAR SBIP 092300Z AUTO 20002KT CAVOK 21/20 Q1017","temp":21,"dewp":20,"wdir":200,"wspd":2,"visib":"6+","altim":1017,"clouds":[],"obsTime":1778367600},"SBKG":{"icaoId":"SBKG","flightCategory":"VFR","rawOb":"METAR SBKG 092300Z 10006KT CAVOK 23/22 Q1015","temp":23,"dewp":22,"wdir":100,"wspd":6,"visib":"6+","altim":1015,"clouds":[],"obsTime":1778367600},"SBCO":{"icaoId":"SBCO","flightCategory":"VFR","rawOb":"METAR SBCO 092300Z 28010KT CAVOK 13/05 Q1018","temp":13,"dewp":5,"wdir":280,"wspd":10,"visib":"6+","altim":1018,"clouds":[],"obsTime":1778367600},"SBTT":{"icaoId":"SBTT","flightCategory":"VFR","rawOb":"METAR SBTT 092300Z 16002KT 9999 FEW017 26/23 Q1008","temp":26,"dewp":23,"wdir":160,"wspd":2,"visib":"6+","altim":1008,"clouds":[{"cover":"FEW","base":1700}],"obsTime":1778367600},"SBTU":{"icaoId":"SBTU","flightCategory":"VFR","rawOb":"METAR SBTU 092300Z AUTO 26002KT 9999 // ///////// ///// Q1013","temp":null,"dewp":null,"wdir":260,"wspd":2,"visib":"6+","altim":1013,"clouds":[],"obsTime":1778367600},"SBSC":{"icaoId":"SBSC","flightCategory":"VFR","rawOb":"METAR SBSC 092300Z 23006KT 9999 FEW040 25/22 Q1014","temp":25,"dewp":22,"wdir":230,"wspd":6,"visib":"6+","altim":1014,"clouds":[{"cover":"FEW","base":4000}],"obsTime":1778367600},"SBVH":{"icaoId":"SBVH","flightCategory":"VFR","rawOb":"METAR SBVH 092300Z 30002KT 9999 FEW040 25/22 Q1014","temp":25,"dewp":22,"wdir":300,"wspd":2,"visib":"6+","altim":1014,"clouds":[{"cover":"FEW","base":4000}],"obsTime":1778367600},"SBSM":{"icaoId":"SBSM","flightCategory":"VFR","rawOb":"METAR SBSM 092300Z 27006KT 9999 BKN040 11/06 Q1021","temp":11,"dewp":6,"wdir":270,"wspd":6,"visib":"6+","altim":1021,"clouds":[{"cover":"BKN","base":4000}],"obsTime":1778367600},"SBSR":{"icaoId":"SBSR","flightCategory":"VFR","rawOb":"METAR SBSR 092300Z 35001KT 9999 FEW035 SCT100 27/15 Q1015","temp":27,"dewp":15,"wdir":350,"wspd":1,"visib":"6+","altim":1015,"clouds":[{"cover":"FEW","base":3500},{"cover":"SCT","base":10000}],"obsTime":1778367600},"SBBH":{"icaoId":"SBBH","flightCategory":"VFR","rawOb":"METAR SBBH 092300Z 10004KT CAVOK 22/16 Q1020","temp":22,"dewp":16,"wdir":100,"wspd":4,"visib":"6+","altim":1020,"clouds":[],"obsTime":1778367600},"SBBU":{"icaoId":"SBBU","flightCategory":"VFR","rawOb":"METAR SBBU 092300Z 20003KT 9999 SCT030 23/19 Q1015","temp":23,"dewp":19,"wdir":200,"wspd":3,"visib":"6+","altim":1015,"clouds":[{"cover":"SCT","base":3000}],"obsTime":1778367600},"SBTF":{"icaoId":"SBTF","flightCategory":"VFR","rawOb":"SPECI SBTF 092245Z 14004KT 9999 FEW015 27/24 Q1008","temp":27,"dewp":24,"wdir":140,"wspd":4,"visib":"6+","altim":1008,"clouds":[{"cover":"FEW","base":1500}],"obsTime":1778366700},"SBJP":{"icaoId":"SBJP","flightCategory":"VFR","rawOb":"METAR SBJP 092300Z 00000KT CAVOK 26/24 Q1013","temp":26,"dewp":24,"wdir":0,"wspd":0,"visib":"6+","altim":1013,"clouds":[],"obsTime":1778367600},"SBJV":{"icaoId":"SBJV","flightCategory":"IFR","rawOb":"METAR SBJV 092300Z 24005KT 170V290 4000 -RA BR SCT007 BKN012 BKN040 13/11 Q1020","temp":13,"dewp":11,"wdir":240,"wspd":5,"visib":2.49,"altim":1020,"clouds":[{"cover":"SCT","base":700},{"cover":"BKN","base":1200},{"cover":"BKN","base":4000}],"obsTime":1778367600},"SBNM":{"icaoId":"SBNM","flightCategory":"VFR","rawOb":"METAR SBNM 092300Z 27008KT 9999 FEW030 11/05 Q1022","temp":11,"dewp":5,"wdir":270,"wspd":8,"visib":"6+","altim":1022,"clouds":[{"cover":"FEW","base":3000}],"obsTime":1778367600},"SBAF":{"icaoId":"SBAF","flightCategory":"VFR","rawOb":"METAR SBAF 092300Z 29007KT 9999 FEW040 27/22 Q1014","temp":27,"dewp":22,"wdir":290,"wspd":7,"visib":"6+","altim":1014,"clouds":[{"cover":"FEW","base":4000}],"obsTime":1778367600},"SBJR":{"icaoId":"SBJR","flightCategory":"VFR","rawOb":"METAR SBJR 092300Z 27003KT 9999 FEW025 25/22 Q1013","temp":25,"dewp":22,"wdir":270,"wspd":3,"visib":"6+","altim":1013,"clouds":[{"cover":"FEW","base":2500}],"obsTime":1778367600},"SBAN":{"icaoId":"SBAN","flightCategory":"VFR","rawOb":"METAR SBAN 092300Z 32001KT CAVOK 19/15 Q1020","temp":19,"dewp":15,"wdir":320,"wspd":1,"visib":"6+","altim":1020,"clouds":[],"obsTime":1778367600},"SBMT":{"icaoId":"SBMT","flightCategory":"MVFR","rawOb":"METAR SBMT 092300Z 15006KT 9999 BKN012 21/19 Q1018","temp":21,"dewp":19,"wdir":150,"wspd":6,"visib":"6+","altim":1018,"clouds":[{"cover":"BKN","base":1200}],"obsTime":1778367600},"SBLE":{"icaoId":"SBLE","flightCategory":"VFR","rawOb":"METAR SBLE 092300Z AUTO 04002KT 9999 BKN039 ///// Q////","temp":null,"dewp":null,"wdir":40,"wspd":2,"visib":"6+","altim":null,"clouds":[{"cover":"BKN","base":3900}],"obsTime":1778367600},"SBLS":{"icaoId":"SBLS","flightCategory":"VFR","rawOb":"METAR SBLS 092300Z 13006KT CAVOK 22/16 Q1020","temp":22,"dewp":16,"wdir":130,"wspd":6,"visib":"6+","altim":1020,"clouds":[],"obsTime":1778367600}}}