{"updated":1774986292,"count":86,"data":{"SBPV":{"icaoId":"SBPV","flightCategory":"VFR","rawOb":"METAR SBPV 311800Z 36005KT 9999 FEW030 BKN070 32/24 Q1007","temp":32,"dewp":24,"wdir":360,"wspd":5,"visib":"6+","altim":1007,"clouds":[{"cover":"FEW","base":3000},{"cover":"BKN","base":7000}],"obsTime":1774980000},"SBGR":{"icaoId":"SBGR","flightCategory":"MVFR","rawOb":"METAR SBGR 311800Z 29003KT 9999 BKN030 BKN070 25/18 Q1013","temp":25,"dewp":18,"wdir":290,"wspd":3,"visib":"6+","altim":1013,"clouds":[{"cover":"BKN","base":3000},{"cover":"BKN","base":7000}],"obsTime":1774980000},"SBBV":{"icaoId":"SBBV","flightCategory":"VFR","rawOb":"METAR SBBV 311800Z 13003KT 9999 BKN040 FEW045TCU SCT100 32/21 Q1009","temp":32,"dewp":21,"wdir":130,"wspd":3,"visib":"6+","altim":1009,"clouds":[{"cover":"BKN","base":4000},{"cover":"FEW","base":4500},{"cover":"SCT","base":10000}],"obsTime":1774980000},"SBCB":{"icaoId":"SBCB","flightCategory":"VFR","rawOb":"METAR SBCB 311800Z 07014KT 9999 TS FEW020CB SCT035 28/23 Q1010 RETS","temp":28,"dewp":23,"wdir":70,"wspd":14,"visib":"6+","altim":1010,"clouds":[{"cover":"FEW","base":2000},{"cover":"SCT","base":3500}],"obsTime":1774980000},"SBVT":{"icaoId":"SBVT","flightCategory":"VFR","rawOb":"METAR SBVT 311800Z 05011KT 9999 SCT030 SCT100 29/24 Q1010","temp":29,"dewp":24,"wdir":50,"wspd":11,"visib":"6+","altim":1010,"clouds":[{"cover":"SCT","base":3000},{"cover":"SCT","base":10000}],"obsTime":1774980000},"SBAT":{"icaoId":"SBAT","flightCategory":"VFR","rawOb":"METAR SBAT 311800Z 36001KT 9999 SCT030 34/22 Q1008","temp":34,"dewp":22,"wdir":360,"wspd":1,"visib":"6+","altim":1008,"clouds":[{"cover":"SCT","base":3000}],"obsTime":1774980000},"SBBE":{"icaoId":"SBBE","flightCategory":"MVFR","rawOb":"METAR SBBE 311800Z 35010KT 9999 4000E TS VCSH SCT020 BKN030 FEW035CB 29/25 Q1008","temp":29,"dewp":25,"wdir":350,"wspd":10,"visib":"6+","altim":1008,"clouds":[{"cover":"SCT","base":2000},{"cover":"BKN","base":3000},{"cover":"FEW","base":3500}],"obsTime":1774980000},"SBBR":{"icaoId":"SBBR","flightCategory":"MVFR","rawOb":"METAR SBBR 311800Z 08007KT 9999 4000W VCSH VCTS FEW020 BKN030 FEW035CB BKN100 23/20 Q1014 RETS","temp":23,"dewp":20,"wdir":80,"wspd":7,"visib":"6+","altim":1014,"clouds":[{"cover":"FEW","base":2000},{"cover":"BKN","base":3000},{"cover":"FEW","base":3500},{"cover":"BKN","base":10000}],"obsTime":1774980000},"SBCF":{"icaoId":"SBCF","flightCategory":"VFR","rawOb":"METAR SBCF 311800Z 06006KT 030V090 9999 TS SCT040 FEW045CB BKN100 27/17 Q1013","temp":27,"dewp":17,"wdir":60,"wspd":6,"visib":"6+","altim":1013,"clouds":[{"cover":"SCT","base":4000},{"cover":"FEW","base":4500},{"cover":"BKN","base":10000}],"obsTime":1774980000},"SBCG":{"icaoId":"SBCG","flightCategory":"VFR","rawOb":"METAR SBCG 311800Z 21007KT 9999 -TSRA BKN045 FEW050CB BKN100 29/21 Q1011","temp":29,"dewp":21,"wdir":210,"wspd":7,"visib":"6+","altim":1011,"clouds":[{"cover":"BKN","base":4500},{"cover":"FEW","base":5000},{"cover":"BKN","base":10000}],"obsTime":1774980000},"SBCP":{"icaoId":"SBCP","flightCategory":"VFR","rawOb":"METAR SBCP 311800Z 07016KT CAVOK 30/22 Q1009","temp":30,"dewp":22,"wdir":70,"wspd":16,"visib":"6+","altim":1009,"clouds":[],"obsTime":1774980000},"SBCR":{"icaoId":"SBCR","flightCategory":"VFR","rawOb":"METAR SBCR 311800Z VRB06KT 9999 SCT035 35/19 Q1007","temp":35,"dewp":19,"wdir":"VRB","wspd":6,"visib":"6+","altim":1007,"clouds":[{"cover":"SCT","base":3500}],"obsTime":1774980000},"SBCT":{"icaoId":"SBCT","flightCategory":"MVFR","rawOb":"METAR SBCT 311800Z 11009KT 9999 VCSH BKN023 21/17 Q1015","temp":21,"dewp":17,"wdir":110,"wspd":9,"visib":"6+","altim":1015,"clouds":[{"cover":"BKN","base":2300}],"obsTime":1774980000},"SBCZ":{"icaoId":"SBCZ","flightCategory":"VFR","rawOb":"METAR SBCZ 311800Z 12004KT 9999 SCT017 BKN100 29/25 Q1010","temp":29,"dewp":25,"wdir":120,"wspd":4,"visib":"6+","altim":1010,"clouds":[{"cover":"SCT","base":1700},{"cover":"BKN","base":10000}],"obsTime":1774980000},"SBEG":{"icaoId":"SBEG","flightCategory":"MVFR","rawOb":"METAR SBEG 311800Z 12006KT 050V170 9999 3000NE SHRA BKN020 FEW025TCU 29/24 Q1008","temp":29,"dewp":24,"wdir":120,"wspd":6,"visib":"6+","altim":1008,"clouds":[{"cover":"BKN","base":2000},{"cover":"FEW","base":2500}],"obsTime":1774980000},"SBFI":{"icaoId":"SBFI","flightCategory":"VFR","rawOb":"METAR SBFI 311800Z 27005KT 9999 FEW030 FEW035TCU SCT100 35/21 Q1007","temp":35,"dewp":21,"wdir":270,"wspd":5,"visib":"6+","altim":1007,"clouds":[{"cover":"FEW","base":3000},{"cover":"FEW","base":3500},{"cover":"SCT","base":10000}],"obsTime":1774980000},"SBFL":{"icaoId":"SBFL","flightCategory":"VFR","rawOb":"METAR SBFL 311800Z 12010KT 100V160 9999 SCT035 28/20 Q1012","temp":28,"dewp":20,"wdir":120,"wspd":10,"visib":"6+","altim":1012,"clouds":[{"cover":"SCT","base":3500}],"obsTime":1774980000},"SBFZ":{"icaoId":"SBFZ","flightCategory":"MVFR","rawOb":"METAR SBFZ 311800Z 04007KT 9999 BKN030 30/23 Q1008","temp":30,"dewp":23,"wdir":40,"wspd":7,"visib":"6+","altim":1008,"clouds":[{"cover":"BKN","base":3000}],"obsTime":1774980000},"SBGL":{"icaoId":"SBGL","flightCategory":"MVFR","rawOb":"METAR SBGL 311800Z 13006KT 6000 -TSRA BKN012 SCT018 FEW025CB BKN100 23/22 Q1011","temp":23,"dewp":22,"wdir":130,"wspd":6,"visib":3.73,"altim":1011,"clouds":[{"cover":"BKN","base":1200},{"cover":"SCT","base":1800},{"cover":"FEW","base":2500},{"cover":"BKN","base":10000}],"obsTime":1774980000},"SBGO":{"icaoId":"SBGO","flightCategory":"VFR","rawOb":"METAR SBGO 311800Z 33007KT 9999 TS VCSH SCT040 FEW045CB 31/18 Q1011","temp":31,"dewp":18,"wdir":330,"wspd":7,"visib":"6+","altim":1011,"clouds":[{"cover":"SCT","base":4000},{"cover":"FEW","base":4500}],"obsTime":1774980000},"SBHT":{"icaoId":"SBHT","flightCategory":"VFR","rawOb":"METAR SBHT 311800Z 00000KT 9999 SCT015 BKN090 26/23 Q1009","temp":26,"dewp":23,"wdir":0,"wspd":0,"visib":"6+","altim":1009,"clouds":[{"cover":"SCT","base":1500},{"cover":"BKN","base":9000}],"obsTime":1774980000},"SBIL":{"icaoId":"SBIL","flightCategory":"VFR","rawOb":"METAR SBIL 311800Z 11008KT 9999 VCSH FEW023 FEW025TCU SCT070 30/24 Q1011","temp":30,"dewp":24,"wdir":110,"wspd":8,"visib":"6+","altim":1011,"clouds":[{"cover":"FEW","base":2300},{"cover":"FEW","base":2500},{"cover":"SCT","base":7000}],"obsTime":1774980000},"SBJU":{"icaoId":"SBJU","flightCategory":"VFR","rawOb":"METAR SBJU 311800Z 09008KT 9999 FEW020 31/22 Q1010","temp":31,"dewp":22,"wdir":90,"wspd":8,"visib":"6+","altim":1010,"clouds":[{"cover":"FEW","base":2000}],"obsTime":1774980000},"SBKP":{"icaoId":"SBKP","flightCategory":"VFR","rawOb":"METAR SBKP 311800Z 18006KT 130V220 9999 FEW035 FEW045TCU BKN100 26/18 Q1012","temp":26,"dewp":18,"wdir":180,"wspd":6,"visib":"6+","altim":1012,"clouds":[{"cover":"FEW","base":3500},{"cover":"FEW","base":4500},{"cover":"BKN","base":10000}],"obsTime":1774980000},"SBLO":{"icaoId":"SBLO","flightCategory":"VFR","rawOb":"METAR SBLO 311800Z 16003KT 9999 SCT040 FEW050TCU 29/20 Q1011","temp":29,"dewp":20,"wdir":160,"wspd":3,"visib":"6+","altim":1011,"clouds":[{"cover":"SCT","base":4000},{"cover":"FEW","base":5000}],"obsTime":1774980000},"SBMA":{"icaoId":"SBMA","flightCategory":"VFR","rawOb":"METAR SBMA 311800Z 26003KT 9999 VCSH SCT020 SCT025TCU 31/24 Q1007","temp":31,"dewp":24,"wdir":260,"wspd":3,"visib":"6+","altim":1007,"clouds":[{"cover":"SCT","base":2000},{"cover":"SCT","base":2500}],"obsTime":1774980000},"SBME":{"icaoId":"SBME","flightCategory":"VFR","rawOb":"METAR SBME 311800Z 11010KT 9999 FEW030 SCT040TCU 31/22 Q1009","temp":31,"dewp":22,"wdir":110,"wspd":10,"visib":"6+","altim":1009,"clouds":[{"cover":"FEW","base":3000},{"cover":"SCT","base":4000}],"obsTime":1774980000},"SBMG":{"icaoId":"SBMG","flightCategory":"VFR","rawOb":"METAR SBMG 311800Z 22004KT 150V250 9999 BKN045 29/18 Q1010","temp":29,"dewp":18,"wdir":220,"wspd":4,"visib":"6+","altim":1010,"clouds":[{"cover":"BKN","base":4500}],"obsTime":1774980000},"SBMK":{"icaoId":"SBMK","flightCategory":"VFR","rawOb":"METAR SBMK 311800Z 02008KT 9999 SCT040 FEW045TCU 30/19 Q1012","temp":30,"dewp":19,"wdir":20,"wspd":8,"visib":"6+","altim":1012,"clouds":[{"cover":"SCT","base":4000},{"cover":"FEW","base":4500}],"obsTime":1774980000},"SBMO":{"icaoId":"SBMO","flightCategory":"IFR","rawOb":"METAR SBMO 311800Z 11012KT 3000 -RA BR FEW007 SCT012 OVC018 25/24 Q1010","temp":25,"dewp":24,"wdir":110,"wspd":12,"visib":1.86,"altim":1010,"clouds":[{"cover":"FEW","base":700},{"cover":"SCT","base":1200},{"cover":"OVC","base":1800}],"obsTime":1774980000},"SBMQ":{"icaoId":"SBMQ","flightCategory":"VFR","rawOb":"METAR SBMQ 311800Z 01005KT 9999 -TSRA SCT015 FEW025CB 27/25 Q1008","temp":27,"dewp":25,"wdir":10,"wspd":5,"visib":"6+","altim":1008,"clouds":[{"cover":"SCT","base":1500},{"cover":"FEW","base":2500}],"obsTime":1774980000},"SBNT":{"icaoId":"SBNT","flightCategory":"MVFR","rawOb":"METAR SBNT 311800Z 09009KT 9999 BKN025 FEW030TCU BKN070 30/24 Q1008","temp":30,"dewp":24,"wdir":90,"wspd":9,"visib":"6+","altim":1008,"clouds":[{"cover":"BKN","base":2500},{"cover":"FEW","base":3000},{"cover":"BKN","base":7000}],"obsTime":1774980000},"SBPA":{"icaoId":"SBPA","flightCategory":"VFR","rawOb":"METAR SBPA 311800Z 10015KT 9999 SCT040 30/19 Q1010","temp":30,"dewp":19,"wdir":100,"wspd":15,"visib":"6+","altim":1010,"clouds":[{"cover":"SCT","base":4000}],"obsTime":1774980000},"SBPJ":{"icaoId":"SBPJ","flightCategory":"VFR","rawOb":"METAR SBPJ 311800Z 09009KT 9999 VCSH FEW012 SCT030 FEW033TCU BKN070 27/22 Q1010","temp":27,"dewp":22,"wdir":90,"wspd":9,"visib":"6+","altim":1010,"clouds":[{"cover":"FEW","base":1200},{"cover":"SCT","base":3000},{"cover":"FEW","base":3300},{"cover":"BKN","base":7000}],"obsTime":1774980000},"SBRB":{"icaoId":"SBRB","flightCategory":"MVFR","rawOb":"METAR SBRB 311800Z 20002KT 9999 BKN030 FEW030TCU BKN100 31/22 Q1009","temp":31,"dewp":22,"wdir":200,"wspd":2,"visib":"6+","altim":1009,"clouds":[{"cover":"BKN","base":3000},{"cover":"FEW","base":3000},{"cover":"BKN","base":10000}],"obsTime":1774980000},"SBRF":{"icaoId":"SBRF","flightCategory":"VFR","rawOb":"METAR SBRF 311800Z 11008KT 9999 SCT018 FEW026TCU SCT060 28/24 Q1009","temp":28,"dewp":24,"wdir":110,"wspd":8,"visib":"6+","altim":1009,"clouds":[{"cover":"SCT","base":1800},{"cover":"FEW","base":2600},{"cover":"SCT","base":6000}],"obsTime":1774980000},"SBSG":{"icaoId":"SBSG","flightCategory":"MVFR","rawOb":"METAR SBSG 311800Z 05003KT 360V120 9999 VCSH BKN021 FEW027TCU BKN050 29/25 Q1009","temp":29,"dewp":25,"wdir":50,"wspd":3,"visib":"6+","altim":1009,"clouds":[{"cover":"BKN","base":2100},{"cover":"FEW","base":2700},{"cover":"BKN","base":5000}],"obsTime":1774980000},"SBSL":{"icaoId":"SBSL","flightCategory":"MVFR","rawOb":"METAR SBSL 311800Z 06012KT 9999 VCSH BKN025 FEW026TCU 29/24 Q1007","temp":29,"dewp":24,"wdir":60,"wspd":12,"visib":"6+","altim":1007,"clouds":[{"cover":"BKN","base":2500},{"cover":"FEW","base":2600}],"obsTime":1774980000},"SBSN":{"icaoId":"SBSN","flightCategory":"MVFR","rawOb":"METAR SBSN 311800Z 08011KT 030V100 6000 RA BKN019 FEW026TCU SCT100 29/25 Q1007","temp":29,"dewp":25,"wdir":80,"wspd":11,"visib":3.73,"altim":1007,"clouds":[{"cover":"BKN","base":1900},{"cover":"FEW","base":2600},{"cover":"SCT","base":10000}],"obsTime":1774980000},"SBSP":{"icaoId":"SBSP","flightCategory":"VFR","rawOb":"METAR SBSP 311800Z 17006KT 9999 BKN033 BKN100 25/17 Q1014","temp":25,"dewp":17,"wdir":170,"wspd":6,"visib":"6+","altim":1014,"clouds":[{"cover":"BKN","base":3300},{"cover":"BKN","base":10000}],"obsTime":1774980000},"SBSV":{"icaoId":"SBSV","flightCategory":"VFR","rawOb":"METAR SBSV 311800Z 15006KT 9999 FEW023 BKN100 27/22 Q1010","temp":27,"dewp":22,"wdir":150,"wspd":6,"visib":"6+","altim":1010,"clouds":[{"cover":"FEW","base":2300},{"cover":"BKN","base":10000}],"obsTime":1774980000},"SBTE":{"icaoId":"SBTE","flightCategory":"MVFR","rawOb":"METAR SBTE 311800Z 06005KT 9999 BKN020 32/23 Q1007","temp":32,"dewp":23,"wdir":60,"wspd":5,"visib":"6+","altim":1007,"clouds":[{"cover":"BKN","base":2000}],"obsTime":1774980000},"SBUL":{"icaoId":"SBUL","flightCategory":"VFR","rawOb":" SBUL 311800Z VRB06KT 9999 VCSH SCT040 FEW045TCU SCT070 28/18 Q1013","temp":28,"dewp":18,"wdir":"VRB","wspd":6,"visib":"6+","altim":1013,"clouds":[{"cover":"SCT","base":4000},{"cover":"FEW","base":4500},{"cover":"SCT","base":7000}],"obsTime":1774980000},"SBUR":{"icaoId":"SBUR","flightCategory":"VFR","rawOb":"METAR SBUR 311800Z 13010KT 9999 TS VCSH SCT040 FEW050CB 24/19 Q1012","temp":24,"dewp":19,"wdir":130,"wspd":10,"visib":"6+","altim":1012,"clouds":[{"cover":"SCT","base":4000},{"cover":"FEW","base":5000}],"obsTime":1774980000},"SBVH":{"icaoId":"SBVH","flightCategory":"VFR","rawOb":"METAR SBVH 311800Z 07003KT 9999 FEW030 30/22 Q1011","temp":30,"dewp":22,"wdir":70,"wspd":3,"visib":"6+","altim":1011,"clouds":[{"cover":"FEW","base":3000}],"obsTime":1774980000},"SBBQ":{"icaoId":"SBBQ","flightCategory":"IFR","rawOb":"METAR SBBQ 311800Z 17006KT 4000 -TSRA SCT015 BKN030 FEW033CB 18/16 Q1017 RETS","temp":18,"dewp":16,"wdir":170,"wspd":6,"visib":2.49,"altim":1017,"clouds":[{"cover":"SCT","base":1500},{"cover":"BKN","base":3000},{"cover":"FEW","base":3300}],"obsTime":1774980000},"SBKG":{"icaoId":"SBKG","flightCategory":"VFR","rawOb":"METAR SBKG 311800Z 10008KT 070V150 9999 SCT025 FEW030TCU 31/21 Q1010","temp":31,"dewp":21,"wdir":100,"wspd":8,"visib":"6+","altim":1010,"clouds":[{"cover":"SCT","base":2500},{"cover":"FEW","base":3000}],"obsTime":1774980000},"SBOI":{"icaoId":"SBOI","flightCategory":"IFR","rawOb":"METAR SBOI 311800Z AUTO 35003KT 320V040 9999 -RA BKN009 BKN034 OVC039 25/24 Q1010 RERA","temp":25,"dewp":24,"wdir":350,"wspd":3,"visib":"6+","altim":1010,"clouds":[{"cover":"BKN","base":900},{"cover":"BKN","base":3400},{"cover":"OVC","base":3900}],"obsTime":1774980000},"SBCJ":{"icaoId":"SBCJ","flightCategory":"MVFR","rawOb":"METAR SBCJ 311800Z 02004KT 5000 -RA BR FEW006 SCT020 FEW025TCU 22/21 Q1012","temp":22,"dewp":21,"wdir":20,"wspd":4,"visib":3.11,"altim":1012,"clouds":[{"cover":"FEW","base":600},{"cover":"SCT","base":2000},{"cover":"FEW","base":2500}],"obsTime":1774980000},"SBPB":{"icaoId":"SBPB","flightCategory":"VFR","rawOb":"METAR SBPB 311800Z 34008KT 9999 SCT020 BKN100 31/25 Q1008","temp":31,"dewp":25,"wdir":340,"wspd":8,"visib":"6+","altim":1008,"clouds":[{"cover":"SCT","base":2000},{"cover":"BKN","base":10000}],"obsTime":1774980000},"SBPL":{"icaoId":"SBPL","flightCategory":"MVFR","rawOb":"METAR SBPL 311800Z 06008KT 9999 VCSH BKN025 FEW030TCU 30/21 Q1010","temp":30,"dewp":21,"wdir":60,"wspd":8,"visib":"6+","altim":1010,"clouds":[{"cover":"BKN","base":2500},{"cover":"FEW","base":3000}],"obsTime":1774980000},"SBBU":{"icaoId":"SBBU","flightCategory":"VFR","rawOb":"METAR SBBU 311800Z 13006KT 9999 FEW040 27/20 Q1011","temp":27,"dewp":20,"wdir":130,"wspd":6,"visib":"6+","altim":1011,"clouds":[{"cover":"FEW","base":4000}],"obsTime":1774980000},"SBPP":{"icaoId":"SBPP","flightCategory":"VFR","rawOb":"METAR SBPP 311800Z 20007KT 9999 SCT025 31/18 Q1011","temp":31,"dewp":18,"wdir":200,"wspd":7,"visib":"6+","altim":1011,"clouds":[{"cover":"SCT","base":2500}],"obsTime":1774980000},"SBCO":{"icaoId":"SBCO","flightCategory":"VFR","rawOb":"METAR SBCO 311800Z 10013KT 070V130 9999 FEW040 30/19 Q1011","temp":30,"dewp":19,"wdir":100,"wspd":13,"visib":"6+","altim":1011,"clouds":[{"cover":"FEW","base":4000}],"obsTime":1774980000},"SBAR":{"icaoId":"SBAR","flightCategory":"VFR","rawOb":"METAR SBAR 311800Z 13010KT 9999 FEW026 30/24 Q1009","temp":30,"dewp":24,"wdir":130,"wspd":10,"visib":"6+","altim":1009,"clouds":[{"cover":"FEW","base":2600}],"obsTime":1774980000},"SBPS":{"icaoId":"SBPS","flightCategory":"VFR","rawOb":"METAR SBPS 311800Z 07009KT 9999 SCT025 29/23 Q1011","temp":29,"dewp":23,"wdir":70,"wspd":9,"visib":"6+","altim":1011,"clouds":[{"cover":"SCT","base":2500}],"obsTime":1774980000},"SBDN":{"icaoId":"SBDN","flightCategory":"VFR","rawOb":"METAR SBDN 311800Z 00000KT 9999 SCT045 32/19 Q1010","temp":32,"dewp":19,"wdir":0,"wspd":0,"visib":"6+","altim":1010,"clouds":[{"cover":"SCT","base":4500}],"obsTime":1774980000},"SBSC":{"icaoId":"SBSC","flightCategory":"IFR","rawOb":"METAR SBSC 311800Z 03004KT 2500 TSRA BR BKN008 BKN014 FEW040CB BKN050 23/22 Q1011 RETSRA","temp":23,"dewp":22,"wdir":30,"wspd":4,"visib":1.55,"altim":1011,"clouds":[{"cover":"BKN","base":800},{"cover":"BKN","base":1400},{"cover":"FEW","base":4000},{"cover":"BKN","base":5000}],"obsTime":1774980000},"SBSJ":{"icaoId":"SBSJ","flightCategory":"VFR","rawOb":"METAR SBSJ 311800Z 30004KT 9999 BKN036 BKN082 24/18 Q1012","temp":24,"dewp":18,"wdir":300,"wspd":4,"visib":"6+","altim":1012,"clouds":[{"cover":"BKN","base":3600},{"cover":"BKN","base":8200}],"obsTime":1774980000},"SBBH":{"icaoId":"SBBH","flightCategory":"MVFR","rawOb":"METAR SBBH 311800Z 30002KT 9999 4000E -TSRA BKN015 SCT035 FEW040CB 23/16 Q1013","temp":23,"dewp":16,"wdir":300,"wspd":2,"visib":"6+","altim":1013,"clouds":[{"cover":"BKN","base":1500},{"cover":"SCT","base":3500},{"cover":"FEW","base":4000}],"obsTime":1774980000},"SBES":{"icaoId":"SBES","flightCategory":"VFR","rawOb":"METAR SBES 311800Z 06011KT 030V090 9999 TS FEW015 FEW020CB SCT040 27/// Q1010 RETS","temp":null,"dewp":null,"wdir":60,"wspd":11,"visib":"6+","altim":1010,"clouds":[{"cover":"FEW","base":1500},{"cover":"FEW","base":2000},{"cover":"SCT","base":4000}],"obsTime":1774980000},"SBSM":{"icaoId":"SBSM","flightCategory":"VFR","rawOb":"METAR SBSM 311800Z 11007KT 080V150 9999 SCT035 30/22 Q1009","temp":30,"dewp":22,"wdir":110,"wspd":7,"visib":"6+","altim":1009,"clouds":[{"cover":"SCT","base":3500}],"obsTime":1774980000},"SBCA":{"icaoId":"SBCA","flightCategory":"MVFR","rawOb":"METAR SBCA 311800Z 11014G24KT 7000 -TSRA SCT005 SCT020 FEW040CB 19/17 Q1013","temp":19,"dewp":17,"wdir":110,"wspd":14,"visib":4.35,"altim":1013,"clouds":[{"cover":"SCT","base":500},{"cover":"SCT","base":2000},{"cover":"FEW","base":4000}],"obsTime":1774980000},"SBSR":{"icaoId":"SBSR","flightCategory":"VFR","rawOb":"METAR SBSR 311800Z 25016KT 9000 RA SCT035 SCT040 FEW050TCU BKN100 21/19 Q1011","temp":21,"dewp":19,"wdir":250,"wspd":16,"visib":5.59,"altim":1011,"clouds":[{"cover":"SCT","base":3500},{"cover":"SCT","base":4000},{"cover":"FEW","base":5000},{"cover":"BKN","base":10000}],"obsTime":1774980000},"SBTF":{"icaoId":"SBTF","flightCategory":"VFR","rawOb":"METAR SBTF 311800Z 36004KT 9999 SCT015 BKN100 28/24 Q1009","temp":28,"dewp":24,"wdir":360,"wspd":4,"visib":"6+","altim":1009,"clouds":[{"cover":"SCT","base":1500},{"cover":"BKN","base":10000}],"obsTime":1774980000},"SBGM":{"icaoId":"SBGM","flightCategory":"VFR","rawOb":"METAR SBGM 311800Z 26004KT 210V340 CAVOK 33/16 Q1008","temp":33,"dewp":16,"wdir":260,"wspd":4,"visib":"6+","altim":1008,"clouds":[],"obsTime":1774980000},"SBAX":{"icaoId":"SBAX","flightCategory":"VFR","rawOb":"METAR SBAX 311800Z 32006KT 9999 SCT040 27/15 Q1013","temp":27,"dewp":15,"wdir":320,"wspd":6,"visib":"6+","altim":1013,"clouds":[{"cover":"SCT","base":4000}],"obsTime":1774980000},"SBTT":{"icaoId":"SBTT","flightCategory":"MVFR","rawOb":"METAR SBTT 311800Z 01007KT 9999 BKN018 28/23 Q1011","temp":28,"dewp":23,"wdir":10,"wspd":7,"visib":"6+","altim":1011,"clouds":[{"cover":"BKN","base":1800}],"obsTime":1774980000},"SBIP":{"icaoId":"SBIP","flightCategory":"VFR","rawOb":"METAR SBIP 311800Z AUTO 03010KT 360V070 CAVOK 30/20 Q1011","temp":30,"dewp":20,"wdir":30,"wspd":10,"visib":"6+","altim":1011,"clouds":[],"obsTime":1774980000},"SBUY":{"icaoId":"SBUY","flightCategory":"MVFR","rawOb":"METAR SBUY 311800Z 07006KT 9999 BKN025 28/24 Q1008","temp":28,"dewp":24,"wdir":70,"wspd":6,"visib":"6+","altim":1008,"clouds":[{"cover":"BKN","base":2500}],"obsTime":1774980000},"SBCC":{"icaoId":"SBCC","flightCategory":"MVFR","rawOb":"METAR SBCC 311800Z 32007KT 9999 -SHRA VCTS BKN025 FEW030CB 27/22 Q1009","temp":27,"dewp":22,"wdir":320,"wspd":7,"visib":"6+","altim":1009,"clouds":[{"cover":"BKN","base":2500},{"cover":"FEW","base":3000}],"obsTime":1774980000},"SBAU":{"icaoId":"SBAU","flightCategory":"VFR","rawOb":"METAR SBAU 311800Z 18008KT 9999 TS FEW030 FEW045CB SCT090 27/22 Q1010","temp":27,"dewp":22,"wdir":180,"wspd":8,"visib":"6+","altim":1010,"clouds":[{"cover":"FEW","base":3000},{"cover":"FEW","base":4500},{"cover":"SCT","base":9000}],"obsTime":1774980000},"SBJV":{"icaoId":"SBJV","flightCategory":"VFR","rawOb":"METAR SBJV 311800Z 11005KT 9999 SCT015 BKN045 27/23 Q1012","temp":27,"dewp":23,"wdir":110,"wspd":5,"visib":"6+","altim":1012,"clouds":[{"cover":"SCT","base":1500},{"cover":"BKN","base":4500}],"obsTime":1774980000},"SBLE":{"icaoId":"SBLE","flightCategory":"VFR","rawOb":"METAR SBLE 311900Z AUTO 11004KT 070V160 CAVOK 27/21 Q1012","temp":27,"dewp":21,"wdir":110,"wspd":4,"visib":"6+","altim":1012,"clouds":[],"obsTime":1774983600},"SBIH":{"icaoId":"SBIH","flightCategory":"VFR","rawOb":"METAR SBIH 311800Z 10003KT 9999 FEW018 FEW025TCU 31/24 Q1007","temp":31,"dewp":24,"wdir":100,"wspd":3,"visib":"6+","altim":1007,"clouds":[{"cover":"FEW","base":1800},{"cover":"FEW","base":2500}],"obsTime":1774980000},"SBLS":{"icaoId":"SBLS","flightCategory":"MVFR","rawOb":"METAR SBLS 311800Z 11004KT 050V120 9999 VCSH BKN024 FEW035TCU 25/19 Q1013","temp":25,"dewp":19,"wdir":110,"wspd":4,"visib":"6+","altim":1013,"clouds":[{"cover":"BKN","base":2400},{"cover":"FEW","base":3500}],"obsTime":1774980000},"SBAF":{"icaoId":"SBAF","flightCategory":"IFR","rawOb":" SBAF 311800Z 19010KT 4500 -TSRA BR SCT008 BKN040 FEW040CB 22/22 Q1011 RERA","temp":22,"dewp":22,"wdir":190,"wspd":10,"visib":2.8,"altim":1011,"clouds":[{"cover":"SCT","base":800},{"cover":"BKN","base":4000},{"cover":"FEW","base":4000}],"obsTime":1774980000},"SBMT":{"icaoId":"SBMT","flightCategory":"MVFR","rawOb":"METAR SBMT 311800Z 23002KT 9999 BKN030 24/18 Q1012","temp":24,"dewp":18,"wdir":230,"wspd":2,"visib":"6+","altim":1012,"clouds":[{"cover":"BKN","base":3000}],"obsTime":1774980000},"SBJP":{"icaoId":"SBJP","flightCategory":"MVFR","rawOb":"METAR SBJP 311800Z 06008KT 9999 BKN020 30/24 Q1009","temp":30,"dewp":24,"wdir":60,"wspd":8,"visib":"6+","altim":1009,"clouds":[{"cover":"BKN","base":2000}],"obsTime":1774980000},"SBPF":{"icaoId":"SBPF","flightCategory":"VFR","rawOb":"METAR SBPF 311900Z 08009KT 9999 FEW043 28/16 Q1012","temp":28,"dewp":16,"wdir":80,"wspd":9,"visib":"6+","altim":1012,"clouds":[{"cover":"FEW","base":4300}],"obsTime":1774983600},"SBGW":{"icaoId":"SBGW","flightCategory":"MVFR","rawOb":"METAR SBGW 311800Z 02002KT 6000 SCT010 BKN030 24/18 Q1012","temp":24,"dewp":18,"wdir":20,"wspd":2,"visib":3.73,"altim":1012,"clouds":[{"cover":"SCT","base":1000},{"cover":"BKN","base":3000}],"obsTime":1774980000},"SBST":{"icaoId":"SBST","flightCategory":"MVFR","rawOb":"METAR SBST 311800Z 23004KT 8000 BKN019 BKN043 25/21 Q1010","temp":25,"dewp":21,"wdir":230,"wspd":4,"visib":4.97,"altim":1010,"clouds":[{"cover":"BKN","base":1900},{"cover":"BKN","base":4300}],"obsTime":1774980000},"SBJR":{"icaoId":"SBJR","flightCategory":"IFR","rawOb":"METAR SBJR 311800Z 16005KT 7000 -RA SCT005 BKN007 OVC050 23/22 Q1011","temp":23,"dewp":22,"wdir":160,"wspd":5,"visib":4.35,"altim":1011,"clouds":[{"cover":"SCT","base":500},{"cover":"BKN","base":700},{"cover":"OVC","base":5000}],"obsTime":1774980000},"SBTA":{"icaoId":"SBTA","flightCategory":"MVFR","rawOb":"METAR SBTA 311800Z 08003KT 030V150 8000 BKN025 BKN100 22/22 Q1012","temp":22,"dewp":22,"wdir":80,"wspd":3,"visib":4.97,"altim":1012,"clouds":[{"cover":"BKN","base":2500},{"cover":"BKN","base":10000}],"obsTime":1774980000},"SBAN":{"icaoId":"SBAN","flightCategory":"VFR","rawOb":"METAR SBAN 311800Z 01002KT 9999 SCT030 FEW040TCU 24/19 Q1015 RERA","temp":24,"dewp":19,"wdir":10,"wspd":2,"visib":"6+","altim":1015,"clouds":[{"cover":"SCT","base":3000},{"cover":"FEW","base":4000}],"obsTime":1774980000},"SBNM":{"icaoId":"SBNM","flightCategory":"VFR","rawOb":"METAR SBNM 311800Z 25002KT 9999 SCT035 32/20 Q1009","temp":32,"dewp":20,"wdir":250,"wspd":2,"visib":"6+","altim":1009,"clouds":[{"cover":"SCT","base":3500}],"obsTime":1774980000}}}