{"updated":1782439175,"count":65,"data":{"SBSV":{"icaoId":"SBSV","flightCategory":"MVFR","rawOb":"METAR SBSV 260000Z 15011KT 120V180 7000 -RA FEW012 BKN016 BKN025 24/22 Q1019","temp":24,"dewp":22,"wdir":150,"wspd":11,"visib":4.35,"altim":1019,"clouds":[{"cover":"FEW","base":1200},{"cover":"BKN","base":1600},{"cover":"BKN","base":2500}],"obsTime":1782432000},"SBGR":{"icaoId":"SBGR","flightCategory":"IFR","rawOb":"METAR SBGR 260000Z 14002KT 6000 OVC007 12/12 Q1028","temp":12,"dewp":12,"wdir":140,"wspd":2,"visib":3.73,"altim":1028,"clouds":[{"cover":"OVC","base":700}],"obsTime":1782432000},"SBCT":{"icaoId":"SBCT","flightCategory":"IFR","rawOb":"METAR SBCT 260000Z 04006KT 9999 BKN008 09/08 Q1027","temp":9,"dewp":8,"wdir":40,"wspd":6,"visib":"6+","altim":1027,"clouds":[{"cover":"BKN","base":800}],"obsTime":1782432000},"SBPJ":{"icaoId":"SBPJ","flightCategory":"VFR","rawOb":"METAR SBPJ 260000Z 14005KT CAVOK 25/18 Q1015","temp":25,"dewp":18,"wdir":140,"wspd":5,"visib":"6+","altim":1015,"clouds":[],"obsTime":1782432000},"SBCZ":{"icaoId":"SBCZ","flightCategory":"IFR","rawOb":"METAR SBCZ 260000Z 15005KT 8000 FEW003 OVC009 20/20 Q1015","temp":20,"dewp":20,"wdir":150,"wspd":5,"visib":4.97,"altim":1015,"clouds":[{"cover":"FEW","base":300},{"cover":"OVC","base":900}],"obsTime":1782432000},"SBFZ":{"icaoId":"SBFZ","flightCategory":"VFR","rawOb":"METAR SBFZ 260000Z 10011KT 9999 FEW018 BKN090 28/23 Q1015","temp":28,"dewp":23,"wdir":100,"wspd":11,"visib":"6+","altim":1015,"clouds":[{"cover":"FEW","base":1800},{"cover":"BKN","base":9000}],"obsTime":1782432000},"SBGL":{"icaoId":"SBGL","flightCategory":"LIFR","rawOb":"METAR SBGL 260000Z 19005KT 1500 R10/2000U R28/2000U R15/2000U R33/2000U -RA BR BKN004 OVC011 19/18 Q1025","temp":19,"dewp":18,"wdir":190,"wspd":5,"visib":0.93,"altim":1025,"clouds":[{"cover":"BKN","base":400},{"cover":"OVC","base":1100}],"obsTime":1782432000},"SBBE":{"icaoId":"SBBE","flightCategory":"VFR","rawOb":"METAR SBBE 260000Z 08004KT 9999 BKN040 BKN100 25/24 Q1014","temp":25,"dewp":24,"wdir":80,"wspd":4,"visib":"6+","altim":1014,"clouds":[{"cover":"BKN","base":4000},{"cover":"BKN","base":10000}],"obsTime":1782432000},"SBKP":{"icaoId":"SBKP","flightCategory":"VFR","rawOb":"METAR SBKP 260000Z 12011KT 9999 SCT020 BKN100 13/12 Q1026","temp":13,"dewp":12,"wdir":120,"wspd":11,"visib":"6+","altim":1026,"clouds":[{"cover":"SCT","base":2000},{"cover":"BKN","base":10000}],"obsTime":1782432000},"SBPA":{"icaoId":"SBPA","flightCategory":"MVFR","rawOb":"METAR SBPA 260000Z 08003KT 060V140 7000 NSC 09/07 Q1024","temp":9,"dewp":7,"wdir":80,"wspd":3,"visib":4.35,"altim":1024,"clouds":[],"obsTime":1782432000},"SBSN":{"icaoId":"SBSN","flightCategory":"VFR","rawOb":"METAR SBSN 260000Z 17003KT CAVOK 25/23 Q1013","temp":25,"dewp":23,"wdir":170,"wspd":3,"visib":"6+","altim":1013,"clouds":[],"obsTime":1782432000},"SBGO":{"icaoId":"SBGO","flightCategory":"VFR","rawOb":"METAR SBGO 260000Z 13007KT CAVOK 21/17 Q1023","temp":21,"dewp":17,"wdir":130,"wspd":7,"visib":"6+","altim":1023,"clouds":[],"obsTime":1782432000},"SBCG":{"icaoId":"SBCG","flightCategory":"VFR","rawOb":"METAR SBCG 260000Z 09007KT 060V120 9999 FEW035 15/10 Q1023","temp":15,"dewp":10,"wdir":90,"wspd":7,"visib":"6+","altim":1023,"clouds":[{"cover":"FEW","base":3500}],"obsTime":1782432000},"SBBR":{"icaoId":"SBBR","flightCategory":"VFR","rawOb":"METAR SBBR 260000Z 15008KT CAVOK 22/14 Q1024","temp":22,"dewp":14,"wdir":150,"wspd":8,"visib":"6+","altim":1024,"clouds":[],"obsTime":1782432000},"SBNT":{"icaoId":"SBNT","flightCategory":"VFR","rawOb":"METAR SBNT 260000Z 16005KT CAVOK 24/22 Q1016","temp":24,"dewp":22,"wdir":160,"wspd":5,"visib":"6+","altim":1016,"clouds":[],"obsTime":1782432000},"SBMG":{"icaoId":"SBMG","flightCategory":"VFR","rawOb":"METAR SBMG 260000Z 07011KT CAVOK 13/09 Q1023","temp":13,"dewp":9,"wdir":70,"wspd":11,"visib":"6+","altim":1023,"clouds":[],"obsTime":1782432000},"SBME":{"icaoId":"SBME","flightCategory":"IFR","rawOb":"METAR SBME 260000Z 24002KT 9999 OVC006 20/19 Q1025 RERA","temp":20,"dewp":19,"wdir":240,"wspd":2,"visib":"6+","altim":1025,"clouds":[{"cover":"OVC","base":600}],"obsTime":1782432000},"SBMK":{"icaoId":"SBMK","flightCategory":"VFR","rawOb":"METAR SBMK 260000Z 12006KT CAVOK 22/14 Q1023","temp":22,"dewp":14,"wdir":120,"wspd":6,"visib":"6+","altim":1023,"clouds":[],"obsTime":1782432000},"SBUR":{"icaoId":"SBUR","flightCategory":"VFR","rawOb":"METAR SBUR 260000Z 08008KT 9999 -RA NSC 17/15 Q1024","temp":17,"dewp":15,"wdir":80,"wspd":8,"visib":"6+","altim":1024,"clouds":[],"obsTime":1782432000},"SBUL":{"icaoId":"SBUL","flightCategory":"VFR","rawOb":"METAR SBUL 260000Z 14010KT 9999 FEW005 SCT100 16/16 Q1025","temp":16,"dewp":16,"wdir":140,"wspd":10,"visib":"6+","altim":1025,"clouds":[{"cover":"FEW","base":500},{"cover":"SCT","base":10000}],"obsTime":1782432000},"SBIL":{"icaoId":"SBIL","flightCategory":"VFR","rawOb":"METAR SBIL 260000Z 24005KT 9999 SCT020 BKN050 24/23 Q1021","temp":24,"dewp":23,"wdir":240,"wspd":5,"visib":"6+","altim":1021,"clouds":[{"cover":"SCT","base":2000},{"cover":"BKN","base":5000}],"obsTime":1782432000},"SBJU":{"icaoId":"SBJU","flightCategory":"VFR","rawOb":"METAR SBJU 260100Z 15009KT 9999 SCT020 25/19 Q1019","temp":25,"dewp":19,"wdir":150,"wspd":9,"visib":"6+","altim":1019,"clouds":[{"cover":"SCT","base":2000}],"obsTime":1782435600},"SBLO":{"icaoId":"SBLO","flightCategory":"VFR","rawOb":"METAR SBLO 260000Z 15005KT CAVOK 12/09 Q1025","temp":12,"dewp":9,"wdir":150,"wspd":5,"visib":"6+","altim":1025,"clouds":[],"obsTime":1782432000},"SBFL":{"icaoId":"SBFL","flightCategory":"VFR","rawOb":"METAR SBFL 260000Z 32004KT CAVOK 12/09 Q1026","temp":12,"dewp":9,"wdir":320,"wspd":4,"visib":"6+","altim":1026,"clouds":[],"obsTime":1782432000},"SBPV":{"icaoId":"SBPV","flightCategory":"MVFR","rawOb":"METAR SBPV 260000Z 20003KT 9999 BKN026 22/20 Q1015","temp":22,"dewp":20,"wdir":200,"wspd":3,"visib":"6+","altim":1015,"clouds":[{"cover":"BKN","base":2600}],"obsTime":1782432000},"SBVT":{"icaoId":"SBVT","flightCategory":"VFR","rawOb":"METAR SBVT 260000Z 21007KT 9999 FEW015 SCT030 21/20 Q1024","temp":21,"dewp":20,"wdir":210,"wspd":7,"visib":"6+","altim":1024,"clouds":[{"cover":"FEW","base":1500},{"cover":"SCT","base":3000}],"obsTime":1782432000},"SBRF":{"icaoId":"SBRF","flightCategory":"MVFR","rawOb":"METAR SBRF 260000Z 23005KT 9999 -RA SCT012 BKN017 24/24 Q1017","temp":24,"dewp":24,"wdir":230,"wspd":5,"visib":"6+","altim":1017,"clouds":[{"cover":"SCT","base":1200},{"cover":"BKN","base":1700}],"obsTime":1782432000},"SBBV":{"icaoId":"SBBV","flightCategory":"MVFR","rawOb":"METAR SBBV 260000Z 08007KT 9999 VCTS BKN025 FEW035CB BKN100 26/24 Q1013","temp":26,"dewp":24,"wdir":80,"wspd":7,"visib":"6+","altim":1013,"clouds":[{"cover":"BKN","base":2500},{"cover":"FEW","base":3500},{"cover":"BKN","base":10000}],"obsTime":1782432000},"SBSP":{"icaoId":"SBSP","flightCategory":"LIFR","rawOb":"METAR SBSP 260000Z 19005KT 150V230 2000 RA BR OVC001 11/11 Q1028 REDZ","temp":11,"dewp":11,"wdir":190,"wspd":5,"visib":1.24,"altim":1028,"clouds":[{"cover":"OVC","base":100}],"obsTime":1782432000},"SBMQ":{"icaoId":"SBMQ","flightCategory":"VFR","rawOb":"METAR SBMQ 260000Z 03004KT 9999 FEW020 BKN043 28/25 Q1013","temp":28,"dewp":25,"wdir":30,"wspd":4,"visib":"6+","altim":1013,"clouds":[{"cover":"FEW","base":2000},{"cover":"BKN","base":4300}],"obsTime":1782432000},"SBFI":{"icaoId":"SBFI","flightCategory":"VFR","rawOb":"METAR SBFI 260000Z 11003KT CAVOK 08/07 Q1023","temp":8,"dewp":7,"wdir":110,"wspd":3,"visib":"6+","altim":1023,"clouds":[],"obsTime":1782432000},"SBMA":{"icaoId":"SBMA","flightCategory":"VFR","rawOb":"METAR SBMA 260000Z 00000KT CAVOK 27/22 Q1013","temp":27,"dewp":22,"wdir":0,"wspd":0,"visib":"6+","altim":1013,"clouds":[],"obsTime":1782432000},"SBRB":{"icaoId":"SBRB","flightCategory":"MVFR","rawOb":"METAR SBRB 260000Z VRB02KT 8000 BKN015 18/17 Q1017","temp":18,"dewp":17,"wdir":"VRB","wspd":2,"visib":4.97,"altim":1017,"clouds":[{"cover":"BKN","base":1500}],"obsTime":1782432000},"SBEG":{"icaoId":"SBEG","flightCategory":"VFR","rawOb":"METAR SBEG 260000Z 17003KT 9999 FEW012 SCT100 25/24 Q1013","temp":25,"dewp":24,"wdir":170,"wspd":3,"visib":"6+","altim":1013,"clouds":[{"cover":"FEW","base":1200},{"cover":"SCT","base":10000}],"obsTime":1782432000},"SBSL":{"icaoId":"SBSL","flightCategory":"VFR","rawOb":"METAR SBSL 260000Z 08009KT 9999 FEW017 BKN080 27/24 Q1014","temp":27,"dewp":24,"wdir":80,"wspd":9,"visib":"6+","altim":1014,"clouds":[{"cover":"FEW","base":1700},{"cover":"BKN","base":8000}],"obsTime":1782432000},"SBSG":{"icaoId":"SBSG","flightCategory":"VFR","rawOb":"METAR SBSG 260000Z 17003KT 9999 FEW022 24/23 Q1016","temp":24,"dewp":23,"wdir":170,"wspd":3,"visib":"6+","altim":1016,"clouds":[{"cover":"FEW","base":2200}],"obsTime":1782432000},"SBTE":{"icaoId":"SBTE","flightCategory":"VFR","rawOb":"METAR SBTE 260000Z 04004KT CAVOK 28/21 Q1013","temp":28,"dewp":21,"wdir":40,"wspd":4,"visib":"6+","altim":1013,"clouds":[],"obsTime":1782432000},"SBMO":{"icaoId":"SBMO","flightCategory":"MVFR","rawOb":"METAR SBMO 260000Z 08007KT 050V110 9999 -DZ SCT004 OVC012 23/23 Q1018","temp":23,"dewp":23,"wdir":80,"wspd":7,"visib":"6+","altim":1018,"clouds":[{"cover":"SCT","base":400},{"cover":"OVC","base":1200}],"obsTime":1782432000},"SBCF":{"icaoId":"SBCF","flightCategory":"VFR","rawOb":"METAR SBCF 260000Z 12010KT CAVOK 19/15 Q1025","temp":19,"dewp":15,"wdir":120,"wspd":10,"visib":"6+","altim":1025,"clouds":[],"obsTime":1782432000},"SBPS":{"icaoId":"SBPS","flightCategory":"VFR","rawOb":"METAR SBPS 260000Z VRB02KT 9999 SCT025 BKN050 22/21 Q1022","temp":22,"dewp":21,"wdir":"VRB","wspd":2,"visib":"6+","altim":1022,"clouds":[{"cover":"SCT","base":2500},{"cover":"BKN","base":5000}],"obsTime":1782432000},"SBCC":{"icaoId":"SBCC","flightCategory":"VFR","rawOb":"METAR SBCC 260000Z 05005KT CAVOK 24/18 Q1016","temp":24,"dewp":18,"wdir":50,"wspd":5,"visib":"6+","altim":1016,"clouds":[],"obsTime":1782432000},"SBBU":{"icaoId":"SBBU","flightCategory":"MVFR","rawOb":"METAR SBBU 260000Z 11010KT 8000 SCT004 OVC010 15/14 Q1025","temp":15,"dewp":14,"wdir":110,"wspd":10,"visib":4.97,"altim":1025,"clouds":[{"cover":"SCT","base":400},{"cover":"OVC","base":1000}],"obsTime":1782432000},"SBDN":{"icaoId":"SBDN","flightCategory":"VFR","rawOb":"METAR SBDN 260000Z 09005KT 9999 SCT020 13/11 Q1024","temp":13,"dewp":11,"wdir":90,"wspd":5,"visib":"6+","altim":1024,"clouds":[{"cover":"SCT","base":2000}],"obsTime":1782432000},"SBAR":{"icaoId":"SBAR","flightCategory":"MVFR","rawOb":"METAR SBAR 260000Z 06008KT 9999 -RA FEW006 BKN011 BKN050 25/24 Q1018","temp":25,"dewp":24,"wdir":60,"wspd":8,"visib":"6+","altim":1018,"clouds":[{"cover":"FEW","base":600},{"cover":"BKN","base":1100},{"cover":"BKN","base":5000}],"obsTime":1782432000},"SBBH":{"icaoId":"SBBH","flightCategory":"VFR","rawOb":"METAR SBBH 260000Z 10007KT CAVOK 20/15 Q1025","temp":20,"dewp":15,"wdir":100,"wspd":7,"visib":"6+","altim":1025,"clouds":[],"obsTime":1782432000},"SBIP":{"icaoId":"SBIP","flightCategory":"VFR","rawOb":"METAR SBIP 260000Z AUTO 21003KT CAVOK 18/18 Q1024","temp":18,"dewp":18,"wdir":210,"wspd":3,"visib":"6+","altim":1024,"clouds":[],"obsTime":1782432000},"SBAX":{"icaoId":"SBAX","flightCategory":"MVFR","rawOb":"METAR SBAX 260000Z 19008KT 9999 -TSRA SCT011 FEW020CB BKN025 17/17 Q1026","temp":17,"dewp":17,"wdir":190,"wspd":8,"visib":"6+","altim":1026,"clouds":[{"cover":"SCT","base":1100},{"cover":"FEW","base":2000},{"cover":"BKN","base":2500}],"obsTime":1782432000},"SBCO":{"icaoId":"SBCO","flightCategory":"VFR","rawOb":"METAR SBCO 260000Z 06002KT CAVOK 06/06 Q1025","temp":6,"dewp":6,"wdir":60,"wspd":2,"visib":"6+","altim":1025,"clouds":[],"obsTime":1782432000},"SBSC":{"icaoId":"SBSC","flightCategory":"IFR","rawOb":"METAR SBSC 260000Z 22003KT 2500 -RA BR SCT003 BKN008 OVC020 18/18 Q1026","temp":18,"dewp":18,"wdir":220,"wspd":3,"visib":1.55,"altim":1026,"clouds":[{"cover":"SCT","base":300},{"cover":"BKN","base":800},{"cover":"OVC","base":2000}],"obsTime":1782432000},"SBSR":{"icaoId":"SBSR","flightCategory":"IFR","rawOb":"METAR SBSR 260000Z 16004KT 5000 BR BKN005 OVC070 15/15 Q1024","temp":15,"dewp":15,"wdir":160,"wspd":4,"visib":3.11,"altim":1024,"clouds":[{"cover":"BKN","base":500},{"cover":"OVC","base":7000}],"obsTime":1782432000},"SBSJ":{"icaoId":"SBSJ","flightCategory":"IFR","rawOb":"METAR SBSJ 260000Z VRB02KT 2200 -RA BR BKN005 BKN023 OVC100 13/13 Q1026","temp":13,"dewp":13,"wdir":"VRB","wspd":2,"visib":1.37,"altim":1026,"clouds":[{"cover":"BKN","base":500},{"cover":"BKN","base":2300},{"cover":"OVC","base":10000}],"obsTime":1782432000},"SBOI":{"icaoId":"SBOI","flightCategory":"VFR","rawOb":"METAR SBOI 260000Z AUTO VRB01KT CAVOK 24/24 Q1014","temp":24,"dewp":24,"wdir":"VRB","wspd":1,"visib":"6+","altim":1014,"clouds":[],"obsTime":1782432000},"SBPL":{"icaoId":"SBPL","flightCategory":"VFR","rawOb":"METAR SBPL 260000Z 10008KT CAVOK 27/16 Q1018","temp":27,"dewp":16,"wdir":100,"wspd":8,"visib":"6+","altim":1018,"clouds":[],"obsTime":1782432000},"SBKG":{"icaoId":"SBKG","flightCategory":"VFR","rawOb":"METAR SBKG 260000Z 16004KT 9999 SCT006 BKN070 21/21 Q1019","temp":21,"dewp":21,"wdir":160,"wspd":4,"visib":"6+","altim":1019,"clouds":[{"cover":"SCT","base":600},{"cover":"BKN","base":7000}],"obsTime":1782432000},"SBSM":{"icaoId":"SBSM","flightCategory":"VFR","rawOb":"METAR SBSM 260000Z VRB02KT CAVOK 07/07 Q1024","temp":7,"dewp":7,"wdir":"VRB","wspd":2,"visib":"6+","altim":1024,"clouds":[],"obsTime":1782432000},"SBPP":{"icaoId":"SBPP","flightCategory":"VFR","rawOb":"METAR SBPP 260000Z 06007KT CAVOK 13/07 Q1022","temp":13,"dewp":7,"wdir":60,"wspd":7,"visib":"6+","altim":1022,"clouds":[],"obsTime":1782432000},"SBJP":{"icaoId":"SBJP","flightCategory":"VFR","rawOb":"METAR SBJP 260000Z 18007KT 9999 FEW020 BKN070 24/23 Q1017","temp":24,"dewp":23,"wdir":180,"wspd":7,"visib":"6+","altim":1017,"clouds":[{"cover":"FEW","base":2000},{"cover":"BKN","base":7000}],"obsTime":1782432000},"SBJV":{"icaoId":"SBJV","flightCategory":"VFR","rawOb":"METAR SBJV 260000Z 12001KT CAVOK 08/08 Q1027","temp":8,"dewp":8,"wdir":120,"wspd":1,"visib":"6+","altim":1027,"clouds":[],"obsTime":1782432000},"SBNM":{"icaoId":"SBNM","flightCategory":"VFR","rawOb":"METAR SBNM 260000Z AUTO 18003KT CAVOK 10/06 Q1025","temp":10,"dewp":6,"wdir":180,"wspd":3,"visib":"6+","altim":1025,"clouds":[],"obsTime":1782432000},"SBLS":{"icaoId":"SBLS","flightCategory":"VFR","rawOb":"METAR SBLS 260000Z 14009KT CAVOK 18/15 Q1025","temp":18,"dewp":15,"wdir":140,"wspd":9,"visib":"6+","altim":1025,"clouds":[],"obsTime":1782432000},"SBMT":{"icaoId":"SBMT","flightCategory":"IFR","rawOb":"METAR SBMT 260000Z 11006KT 3000 -RA OVC007 11/11 Q1028","temp":11,"dewp":11,"wdir":110,"wspd":6,"visib":1.86,"altim":1028,"clouds":[{"cover":"OVC","base":700}],"obsTime":1782432000},"SBTA":{"icaoId":"SBTA","flightCategory":"MVFR","rawOb":"METAR SBTA 260000Z VRB01KT 8000 -RA BKN023 OVC100 15/14 Q1026","temp":15,"dewp":14,"wdir":"VRB","wspd":1,"visib":4.97,"altim":1026,"clouds":[{"cover":"BKN","base":2300},{"cover":"OVC","base":10000}],"obsTime":1782432000},"SBLE":{"icaoId":"SBLE","flightCategory":"VFR","rawOb":"METAR SBLE 260000Z AUTO VRB02KT CAVOK ///// Q////","temp":null,"dewp":null,"wdir":"VRB","wspd":2,"visib":"6+","altim":null,"clouds":[],"obsTime":1782432000},"SBAN":{"icaoId":"SBAN","flightCategory":"VFR","rawOb":"METAR SBAN 260000Z 15007KT 9999 FEW045 SCT100 20/16 Q1025","temp":20,"dewp":16,"wdir":150,"wspd":7,"visib":"6+","altim":1025,"clouds":[{"cover":"FEW","base":4500},{"cover":"SCT","base":10000}],"obsTime":1782432000},"SBJR":{"icaoId":"SBJR","flightCategory":"IFR","rawOb":"METAR SBJR 260000Z 22002KT 3000 -RA BR BKN005 OVC030 20/19 Q1025","temp":20,"dewp":19,"wdir":220,"wspd":2,"visib":1.86,"altim":1025,"clouds":[{"cover":"BKN","base":500},{"cover":"OVC","base":3000}],"obsTime":1782432000}}}