{"updated":1784929884,"count":84,"data":{"SBPV":{"icaoId":"SBPV","flightCategory":"VFR","rawOb":"METAR SBPV 242000Z 33004KT 200V010 9999 SCT045 FEW048TCU 34/20 Q1010","temp":34,"dewp":20,"wdir":330,"wspd":4,"visib":"6+","altim":1010,"clouds":[{"cover":"SCT","base":4500},{"cover":"FEW","base":4800}],"obsTime":1784923200},"SBNT":{"icaoId":"SBNT","flightCategory":"MVFR","rawOb":"METAR SBNT 242000Z 15011KT 9999 FEW011 BKN025 BKN040 24/22 Q1014","temp":24,"dewp":22,"wdir":150,"wspd":11,"visib":"6+","altim":1014,"clouds":[{"cover":"FEW","base":1100},{"cover":"BKN","base":2500},{"cover":"BKN","base":4000}],"obsTime":1784923200},"SBCB":{"icaoId":"SBCB","flightCategory":"MVFR","rawOb":"METAR SBCB 242000Z 28005KT 8000 SCT015 BKN020 22/18 Q1018","temp":22,"dewp":18,"wdir":280,"wspd":5,"visib":4.97,"altim":1018,"clouds":[{"cover":"SCT","base":1500},{"cover":"BKN","base":2000}],"obsTime":1784923200},"SBMO":{"icaoId":"SBMO","flightCategory":"VFR","rawOb":"METAR SBMO 242000Z 12007KT 9999 FEW025 26/19 Q1015","temp":26,"dewp":19,"wdir":120,"wspd":7,"visib":"6+","altim":1015,"clouds":[{"cover":"FEW","base":2500}],"obsTime":1784923200},"SBFZ":{"icaoId":"SBFZ","flightCategory":"VFR","rawOb":"METAR SBFZ 242000Z 10013KT 9999 FEW025 27/23 Q1012","temp":27,"dewp":23,"wdir":100,"wspd":13,"visib":"6+","altim":1012,"clouds":[{"cover":"FEW","base":2500}],"obsTime":1784923200},"SBBR":{"icaoId":"SBBR","flightCategory":"VFR","rawOb":"METAR SBBR 242000Z 04004KT 010V110 CAVOK 29/08 Q1018","temp":29,"dewp":8,"wdir":40,"wspd":4,"visib":"6+","altim":1018,"clouds":[],"obsTime":1784923200},"SBSL":{"icaoId":"SBSL","flightCategory":"VFR","rawOb":"METAR SBSL 242000Z 06014KT 9999 FEW027 29/23 Q1012","temp":29,"dewp":23,"wdir":60,"wspd":14,"visib":"6+","altim":1012,"clouds":[{"cover":"FEW","base":2700}],"obsTime":1784923200},"SBPA":{"icaoId":"SBPA","flightCategory":"VFR","rawOb":"METAR SBPA 242000Z 10009KT 9999 FEW020 SCT050 20/15 Q1017","temp":20,"dewp":15,"wdir":100,"wspd":9,"visib":"6+","altim":1017,"clouds":[{"cover":"FEW","base":2000},{"cover":"SCT","base":5000}],"obsTime":1784923200},"SBSP":{"icaoId":"SBSP","flightCategory":"IFR","rawOb":"METAR SBSP 242000Z 16006KT 8000 OVC008 15/14 Q1021","temp":15,"dewp":14,"wdir":160,"wspd":6,"visib":4.97,"altim":1021,"clouds":[{"cover":"OVC","base":800}],"obsTime":1784923200},"SBEG":{"icaoId":"SBEG","flightCategory":"VFR","rawOb":"METAR SBEG 242000Z 08003KT 9999 SCT045 34/22 Q1010","temp":34,"dewp":22,"wdir":80,"wspd":3,"visib":"6+","altim":1010,"clouds":[{"cover":"SCT","base":4500}],"obsTime":1784923200},"SBFL":{"icaoId":"SBFL","flightCategory":"VFR","rawOb":"METAR SBFL 242000Z 12006KT 9999 FEW040 SCT050 BKN100 18/15 Q1019","temp":18,"dewp":15,"wdir":120,"wspd":6,"visib":"6+","altim":1019,"clouds":[{"cover":"FEW","base":4000},{"cover":"SCT","base":5000},{"cover":"BKN","base":10000}],"obsTime":1784923200},"SBSV":{"icaoId":"SBSV","flightCategory":"VFR","rawOb":"METAR SBSV 242000Z 10008KT 9999 FEW024 SCT060 26/20 Q1016","temp":26,"dewp":20,"wdir":100,"wspd":8,"visib":"6+","altim":1016,"clouds":[{"cover":"FEW","base":2400},{"cover":"SCT","base":6000}],"obsTime":1784923200},"SBAT":{"icaoId":"SBAT","flightCategory":"VFR","rawOb":"METAR SBAT 242000Z 04004KT 9999 FEW040 35/18 Q1011","temp":35,"dewp":18,"wdir":40,"wspd":4,"visib":"6+","altim":1011,"clouds":[{"cover":"FEW","base":4000}],"obsTime":1784923200},"SBHT":{"icaoId":"SBHT","flightCategory":"VFR","rawOb":"METAR SBHT 242000Z 09005KT 9999 SCT030 33/23 Q1011","temp":33,"dewp":23,"wdir":90,"wspd":5,"visib":"6+","altim":1011,"clouds":[{"cover":"SCT","base":3000}],"obsTime":1784923200},"SBMG":{"icaoId":"SBMG","flightCategory":"VFR","rawOb":"METAR SBMG 242000Z 05005KT 9999 FEW015 BKN036 BKN090 18/16 Q1017","temp":18,"dewp":16,"wdir":50,"wspd":5,"visib":"6+","altim":1017,"clouds":[{"cover":"FEW","base":1500},{"cover":"BKN","base":3600},{"cover":"BKN","base":9000}],"obsTime":1784923200},"SBIL":{"icaoId":"SBIL","flightCategory":"MVFR","rawOb":"METAR SBIL 242000Z 09008KT 9999 BKN023 SCT080 26/21 Q1016","temp":26,"dewp":21,"wdir":90,"wspd":8,"visib":"6+","altim":1016,"clouds":[{"cover":"BKN","base":2300},{"cover":"SCT","base":8000}],"obsTime":1784923200},"SBJU":{"icaoId":"SBJU","flightCategory":"MVFR","rawOb":"METAR SBJU 242000Z 04005KT 9999 BKN020 30/17 Q1014","temp":30,"dewp":17,"wdir":40,"wspd":5,"visib":"6+","altim":1014,"clouds":[{"cover":"BKN","base":2000}],"obsTime":1784923200},"SBUL":{"icaoId":"SBUL","flightCategory":"MVFR","rawOb":" SBUL 242000Z 20012KT 7000 TS SCT030 SCT040CB 28/12 Q1019","temp":28,"dewp":12,"wdir":200,"wspd":12,"visib":4.35,"altim":1019,"clouds":[{"cover":"SCT","base":3000},{"cover":"SCT","base":4000}],"obsTime":1784923200},"SBME":{"icaoId":"SBME","flightCategory":"MVFR","rawOb":"METAR SBME 242000Z 22006KT 9999 BKN020 OVC080 21/19 Q1018","temp":21,"dewp":19,"wdir":220,"wspd":6,"visib":"6+","altim":1018,"clouds":[{"cover":"BKN","base":2000},{"cover":"OVC","base":8000}],"obsTime":1784923200},"SBMK":{"icaoId":"SBMK","flightCategory":"VFR","rawOb":"METAR SBMK 242000Z 05003KT 9999 SCT040 30/11 Q1016","temp":30,"dewp":11,"wdir":50,"wspd":3,"visib":"6+","altim":1016,"clouds":[{"cover":"SCT","base":4000}],"obsTime":1784923200},"SBCF":{"icaoId":"SBCF","flightCategory":"VFR","rawOb":"METAR SBCF 242000Z 07002KT 9999 FEW045 BKN100 27/12 Q1018","temp":27,"dewp":12,"wdir":70,"wspd":2,"visib":"6+","altim":1018,"clouds":[{"cover":"FEW","base":4500},{"cover":"BKN","base":10000}],"obsTime":1784923200},"SBVT":{"icaoId":"SBVT","flightCategory":"VFR","rawOb":"METAR SBVT 242000Z 17008KT 9999 SCT025 OVC045 23/20 Q1018","temp":23,"dewp":20,"wdir":170,"wspd":8,"visib":"6+","altim":1018,"clouds":[{"cover":"SCT","base":2500},{"cover":"OVC","base":4500}],"obsTime":1784923200},"SBBE":{"icaoId":"SBBE","flightCategory":"VFR","rawOb":"METAR SBBE 242000Z 03006KT 9999 SCT030 SCT100 26/24 Q1012","temp":26,"dewp":24,"wdir":30,"wspd":6,"visib":"6+","altim":1012,"clouds":[{"cover":"SCT","base":3000},{"cover":"SCT","base":10000}],"obsTime":1784923200},"SBCP":{"icaoId":"SBCP","flightCategory":"MVFR","rawOb":"METAR SBCP 242000Z 18008KT 9999 BKN025 BKN090 23/19 Q1018","temp":23,"dewp":19,"wdir":180,"wspd":8,"visib":"6+","altim":1018,"clouds":[{"cover":"BKN","base":2500},{"cover":"BKN","base":9000}],"obsTime":1784923200},"SBBV":{"icaoId":"SBBV","flightCategory":"VFR","rawOb":"METAR SBBV 242000Z 12007KT 9999 BKN040 FEW041TCU SCT100 34/21 Q1010","temp":34,"dewp":21,"wdir":120,"wspd":7,"visib":"6+","altim":1010,"clouds":[{"cover":"BKN","base":4000},{"cover":"FEW","base":4100},{"cover":"SCT","base":10000}],"obsTime":1784923200},"SBCT":{"icaoId":"SBCT","flightCategory":"IFR","rawOb":"METAR SBCT 242000Z 09004KT 9999 BKN008 13/12 Q1021","temp":13,"dewp":12,"wdir":90,"wspd":4,"visib":"6+","altim":1021,"clouds":[{"cover":"BKN","base":800}],"obsTime":1784923200},"SBFI":{"icaoId":"SBFI","flightCategory":"MVFR","rawOb":"METAR SBFI 242000Z 10005KT 8000 BKN012 BKN035 FEW040TCU 19/19 Q1014","temp":19,"dewp":19,"wdir":100,"wspd":5,"visib":4.97,"altim":1014,"clouds":[{"cover":"BKN","base":1200},{"cover":"BKN","base":3500},{"cover":"FEW","base":4000}],"obsTime":1784923200},"SBGR":{"icaoId":"SBGR","flightCategory":"MVFR","rawOb":"METAR SBGR 242000Z 14003KT 7000 BKN013 OVC015 16/14 Q1020","temp":16,"dewp":14,"wdir":140,"wspd":3,"visib":4.35,"altim":1020,"clouds":[{"cover":"BKN","base":1300},{"cover":"OVC","base":1500}],"obsTime":1784923200},"SBSG":{"icaoId":"SBSG","flightCategory":"MVFR","rawOb":"METAR SBSG 242000Z 12004KT 100V170 9999 BKN015 BKN045 24/23 Q1015","temp":24,"dewp":23,"wdir":120,"wspd":4,"visib":"6+","altim":1015,"clouds":[{"cover":"BKN","base":1500},{"cover":"BKN","base":4500}],"obsTime":1784923200},"SBTE":{"icaoId":"SBTE","flightCategory":"VFR","rawOb":"METAR SBTE 242000Z 03004KT 360V060 9999 VCSH SCT025 FEW030TCU SCT080 33/20 Q1010","temp":33,"dewp":20,"wdir":30,"wspd":4,"visib":"6+","altim":1010,"clouds":[{"cover":"SCT","base":2500},{"cover":"FEW","base":3000},{"cover":"SCT","base":8000}],"obsTime":1784923200},"SBCG":{"icaoId":"SBCG","flightCategory":"VFR","rawOb":"METAR SBCG 242000Z 29007KT 270V330 9999 FEW045 SCT095 29/18 Q1015","temp":29,"dewp":18,"wdir":290,"wspd":7,"visib":"6+","altim":1015,"clouds":[{"cover":"FEW","base":4500},{"cover":"SCT","base":9500}],"obsTime":1784923200},"SBMA":{"icaoId":"SBMA","flightCategory":"VFR","rawOb":"METAR SBMA 242000Z 35006KT 9999 FEW025 33/22 Q1011","temp":33,"dewp":22,"wdir":350,"wspd":6,"visib":"6+","altim":1011,"clouds":[{"cover":"FEW","base":2500}],"obsTime":1784923200},"SBRF":{"icaoId":"SBRF","flightCategory":"VFR","rawOb":"METAR SBRF 242000Z 17009KT 140V200 9999 FEW025 SCT100 26/21 Q1015","temp":26,"dewp":21,"wdir":170,"wspd":9,"visib":"6+","altim":1015,"clouds":[{"cover":"FEW","base":2500},{"cover":"SCT","base":10000}],"obsTime":1784923200},"SBSN":{"icaoId":"SBSN","flightCategory":"VFR","rawOb":"METAR SBSN 242000Z 10012KT 9999 FEW023 32/23 Q1010","temp":32,"dewp":23,"wdir":100,"wspd":12,"visib":"6+","altim":1010,"clouds":[{"cover":"FEW","base":2300}],"obsTime":1784923200},"SBKP":{"icaoId":"SBKP","flightCategory":"IFR","rawOb":"METAR SBKP 242000Z 00000KT 4000 BR SCT006 BKN021 17/16 Q1020","temp":17,"dewp":16,"wdir":0,"wspd":0,"visib":2.49,"altim":1020,"clouds":[{"cover":"SCT","base":600},{"cover":"BKN","base":2100}],"obsTime":1784923200},"SBRB":{"icaoId":"SBRB","flightCategory":"VFR","rawOb":"METAR SBRB 242000Z 02006KT 9999 SCT040 32/21 Q1011","temp":32,"dewp":21,"wdir":20,"wspd":6,"visib":"6+","altim":1011,"clouds":[{"cover":"SCT","base":4000}],"obsTime":1784923200},"SBCZ":{"icaoId":"SBCZ","flightCategory":"VFR","rawOb":"METAR SBCZ 242000Z 28007KT 220V310 9999 FEW030 FEW030TCU SCT100 29/23 Q1011","temp":29,"dewp":23,"wdir":280,"wspd":7,"visib":"6+","altim":1011,"clouds":[{"cover":"FEW","base":3000},{"cover":"FEW","base":3000},{"cover":"SCT","base":10000}],"obsTime":1784923200},"SBMQ":{"icaoId":"SBMQ","flightCategory":"VFR","rawOb":"METAR SBMQ 242000Z 05014KT 9999 FEW030 FEW035TCU 32/25 Q1011","temp":32,"dewp":25,"wdir":50,"wspd":14,"visib":"6+","altim":1011,"clouds":[{"cover":"FEW","base":3000},{"cover":"FEW","base":3500}],"obsTime":1784923200},"SBGL":{"icaoId":"SBGL","flightCategory":"VFR","rawOb":"METAR SBGL 242000Z 05004KT 9999 SCT020 SCT030 OVC050 21/19 Q1018","temp":21,"dewp":19,"wdir":50,"wspd":4,"visib":"6+","altim":1018,"clouds":[{"cover":"SCT","base":2000},{"cover":"SCT","base":3000},{"cover":"OVC","base":5000}],"obsTime":1784923200},"SBPJ":{"icaoId":"SBPJ","flightCategory":"VFR","rawOb":"METAR SBPJ 242000Z COR VRB02KT 9999 FEW040 BKN100 34/17 Q1012","temp":34,"dewp":17,"wdir":"VRB","wspd":2,"visib":"6+","altim":1012,"clouds":[{"cover":"FEW","base":4000},{"cover":"BKN","base":10000}],"obsTime":1784923200},"SBLO":{"icaoId":"SBLO","flightCategory":"IFR","rawOb":"METAR SBLO 242000Z 07005KT 9999 BKN006 BKN040 16/15 Q1018","temp":16,"dewp":15,"wdir":70,"wspd":5,"visib":"6+","altim":1018,"clouds":[{"cover":"BKN","base":600},{"cover":"BKN","base":4000}],"obsTime":1784923200},"SBGO":{"icaoId":"SBGO","flightCategory":"VFR","rawOb":"METAR SBGO 242000Z 32005KT CAVOK 32/11 Q1016","temp":32,"dewp":11,"wdir":320,"wspd":5,"visib":"6+","altim":1016,"clouds":[],"obsTime":1784923200},"SBCR":{"icaoId":"SBCR","flightCategory":"VFR","rawOb":"METAR SBCR 242000Z 04006KT 010V070 9999 SCT035 31/20 Q1011","temp":31,"dewp":20,"wdir":40,"wspd":6,"visib":"6+","altim":1011,"clouds":[{"cover":"SCT","base":3500}],"obsTime":1784923200},"SBUR":{"icaoId":"SBUR","flightCategory":"MVFR","rawOb":"METAR SBUR 242000Z 16030KT 5000 1500N BLDU TS SCT020 FEW030CB BKN070 18/13 Q1021","temp":18,"dewp":13,"wdir":160,"wspd":30,"visib":3.11,"altim":1021,"clouds":[{"cover":"SCT","base":2000},{"cover":"FEW","base":3000},{"cover":"BKN","base":7000}],"obsTime":1784923200},"SBPB":{"icaoId":"SBPB","flightCategory":"VFR","rawOb":"METAR SBPB 242000Z 06015KT 9999 FEW020 29/24 Q1012","temp":29,"dewp":24,"wdir":60,"wspd":15,"visib":"6+","altim":1012,"clouds":[{"cover":"FEW","base":2000}],"obsTime":1784923200},"SBCJ":{"icaoId":"SBCJ","flightCategory":"VFR","rawOb":"METAR SBCJ 242000Z 05005KT 9999 SCT025 FEW030TCU 23/20 Q1014","temp":23,"dewp":20,"wdir":50,"wspd":5,"visib":"6+","altim":1014,"clouds":[{"cover":"SCT","base":2500},{"cover":"FEW","base":3000}],"obsTime":1784923200},"SBAX":{"icaoId":"SBAX","flightCategory":"VFR","rawOb":"SPECI SBAX 242001Z AUTO 25010KT 200V280 9999 VCTS //////CB 20/17 Q1021","temp":20,"dewp":17,"wdir":250,"wspd":10,"visib":"6+","altim":1021,"clouds":[],"obsTime":1784923260},"SBUY":{"icaoId":"SBUY","flightCategory":"VFR","rawOb":"METAR SBUY 242000Z 13004KT 9999 SCT025 BKN100 33/23 Q1008","temp":33,"dewp":23,"wdir":130,"wspd":4,"visib":"6+","altim":1008,"clouds":[{"cover":"SCT","base":2500},{"cover":"BKN","base":10000}],"obsTime":1784923200},"SBSM":{"icaoId":"SBSM","flightCategory":"VFR","rawOb":"METAR SBSM 242000Z 14003KT 100V180 9999 SCT020 SCT100 17/15 Q1018","temp":17,"dewp":15,"wdir":140,"wspd":3,"visib":"6+","altim":1018,"clouds":[{"cover":"SCT","base":2000},{"cover":"SCT","base":10000}],"obsTime":1784923200},"SBPP":{"icaoId":"SBPP","flightCategory":"MVFR","rawOb":"METAR SBPP 242000Z 30007KT 9999 BKN025 25/19 Q1015","temp":25,"dewp":19,"wdir":300,"wspd":7,"visib":"6+","altim":1015,"clouds":[{"cover":"BKN","base":2500}],"obsTime":1784923200},"SBKG":{"icaoId":"SBKG","flightCategory":"VFR","rawOb":"METAR SBKG 242000Z 11006KT 9999 FEW022 BKN080 25/19 Q1017","temp":25,"dewp":19,"wdir":110,"wspd":6,"visib":"6+","altim":1017,"clouds":[{"cover":"FEW","base":2200},{"cover":"BKN","base":8000}],"obsTime":1784923200},"SBVH":{"icaoId":"SBVH","flightCategory":"VFR","rawOb":"METAR SBVH 242000Z 01004KT CAVOK 30/19 Q1014","temp":30,"dewp":19,"wdir":10,"wspd":4,"visib":"6+","altim":1014,"clouds":[],"obsTime":1784923200},"SBOI":{"icaoId":"SBOI","flightCategory":"VFR","rawOb":"METAR SBOI 242000Z AUTO 10005KT 040V150 9999 FEW041 32/23 Q1012","temp":32,"dewp":23,"wdir":100,"wspd":5,"visib":"6+","altim":1012,"clouds":[{"cover":"FEW","base":4100}],"obsTime":1784923200},"SBTF":{"icaoId":"SBTF","flightCategory":"VFR","rawOb":"METAR SBTF 242000Z 13006KT 9999 SCT020 34/24 Q1009","temp":34,"dewp":24,"wdir":130,"wspd":6,"visib":"6+","altim":1009,"clouds":[{"cover":"SCT","base":2000}],"obsTime":1784923200},"SBTT":{"icaoId":"SBTT","flightCategory":"VFR","rawOb":"METAR SBTT 242000Z 36004KT 330V040 9999 4000SE -TSRA SCT020 FEW025CB BKN070 28/24 Q1011","temp":28,"dewp":24,"wdir":360,"wspd":4,"visib":"6+","altim":1011,"clouds":[{"cover":"SCT","base":2000},{"cover":"FEW","base":2500},{"cover":"BKN","base":7000}],"obsTime":1784923200},"SBAR":{"icaoId":"SBAR","flightCategory":"VFR","rawOb":"METAR SBAR 242000Z 13007KT 9999 FEW025 BKN090 26/20 Q1016","temp":26,"dewp":20,"wdir":130,"wspd":7,"visib":"6+","altim":1016,"clouds":[{"cover":"FEW","base":2500},{"cover":"BKN","base":9000}],"obsTime":1784923200},"SBSR":{"icaoId":"SBSR","flightCategory":"VFR","rawOb":"METAR SBSR 242000Z 11011KT 9999 FEW035 FEW040TCU BKN080 18/16 Q1018","temp":18,"dewp":16,"wdir":110,"wspd":11,"visib":"6+","altim":1018,"clouds":[{"cover":"FEW","base":3500},{"cover":"FEW","base":4000},{"cover":"BKN","base":8000}],"obsTime":1784923200},"SBPL":{"icaoId":"SBPL","flightCategory":"VFR","rawOb":"METAR SBPL 242000Z 10006KT 9999 FEW030 BKN070 31/15 Q1014","temp":31,"dewp":15,"wdir":100,"wspd":6,"visib":"6+","altim":1014,"clouds":[{"cover":"FEW","base":3000},{"cover":"BKN","base":7000}],"obsTime":1784923200},"SBSJ":{"icaoId":"SBSJ","flightCategory":"MVFR","rawOb":"METAR SBSJ 242000Z 25003KT 210V280 5000 BR BKN025 OVC035 17/15 Q1021","temp":17,"dewp":15,"wdir":250,"wspd":3,"visib":3.11,"altim":1021,"clouds":[{"cover":"BKN","base":2500},{"cover":"OVC","base":3500}],"obsTime":1784923200},"SBDN":{"icaoId":"SBDN","flightCategory":"MVFR","rawOb":"METAR SBDN 242000Z 11008KT 9999 BKN012 BKN082 18/15 Q1017","temp":18,"dewp":15,"wdir":110,"wspd":8,"visib":"6+","altim":1017,"clouds":[{"cover":"BKN","base":1200},{"cover":"BKN","base":8200}],"obsTime":1784923200},"SBIP":{"icaoId":"SBIP","flightCategory":"VFR","rawOb":"METAR SBIP 242000Z AUTO 35004KT 330V030 CAVOK 29/17 Q1015","temp":29,"dewp":17,"wdir":350,"wspd":4,"visib":"6+","altim":1015,"clouds":[],"obsTime":1784923200},"SBCO":{"icaoId":"SBCO","flightCategory":"VFR","rawOb":"METAR SBCO 242000Z 12008KT 9999 SCT046 19/15 Q1017","temp":19,"dewp":15,"wdir":120,"wspd":8,"visib":"6+","altim":1017,"clouds":[{"cover":"SCT","base":4600}],"obsTime":1784923200},"SBSC":{"icaoId":"SBSC","flightCategory":"VFR","rawOb":"METAR SBSC 242000Z 22004KT 9999 SCT025 OVC040 20/18 Q1019","temp":20,"dewp":18,"wdir":220,"wspd":4,"visib":"6+","altim":1019,"clouds":[{"cover":"SCT","base":2500},{"cover":"OVC","base":4000}],"obsTime":1784923200},"SBPS":{"icaoId":"SBPS","flightCategory":"VFR","rawOb":"METAR SBPS 242000Z 04007KT 9999 SCT020 BKN080 24/21 Q1017","temp":24,"dewp":21,"wdir":40,"wspd":7,"visib":"6+","altim":1017,"clouds":[{"cover":"SCT","base":2000},{"cover":"BKN","base":8000}],"obsTime":1784923200},"SBES":{"icaoId":"SBES","flightCategory":"MVFR","rawOb":"METAR SBES 242000Z VRB02KT 8000 FEW010 SCT040 BKN100 21/// Q1018","temp":null,"dewp":null,"wdir":"VRB","wspd":2,"visib":4.97,"altim":1018,"clouds":[{"cover":"FEW","base":1000},{"cover":"SCT","base":4000},{"cover":"BKN","base":10000}],"obsTime":1784923200},"SBTU":{"icaoId":"SBTU","flightCategory":"VFR","rawOb":"METAR SBTU 242000Z AUTO 24003KT 190V310 9999 // BKN031/// ///// Q1013","temp":null,"dewp":null,"wdir":240,"wspd":3,"visib":"6+","altim":1013,"clouds":[{"cover":"BKN","base":3100}],"obsTime":1784923200},"SBBH":{"icaoId":"SBBH","flightCategory":"VFR","rawOb":"METAR SBBH 242000Z 32002KT CAVOK 26/12 Q1018","temp":26,"dewp":12,"wdir":320,"wspd":2,"visib":"6+","altim":1018,"clouds":[],"obsTime":1784923200},"SBBU":{"icaoId":"SBBU","flightCategory":"LIFR","rawOb":"METAR SBBU 242000Z 30004KT 3000 TSRA BR BKN003 BKN020 FEW035CB OVC100 16/16 Q1020","temp":16,"dewp":16,"wdir":300,"wspd":4,"visib":1.86,"altim":1020,"clouds":[{"cover":"BKN","base":300},{"cover":"BKN","base":2000},{"cover":"FEW","base":3500},{"cover":"OVC","base":10000}],"obsTime":1784923200},"SBCA":{"icaoId":"SBCA","flightCategory":"IFR","rawOb":"METAR SBCA 242000Z 03015KT 9999 BKN005 FEW040TCU OVC100 17/15 Q1017","temp":17,"dewp":15,"wdir":30,"wspd":15,"visib":"6+","altim":1017,"clouds":[{"cover":"BKN","base":500},{"cover":"FEW","base":4000},{"cover":"OVC","base":10000}],"obsTime":1784923200},"SBCC":{"icaoId":"SBCC","flightCategory":"VFR","rawOb":"METAR SBCC 242000Z 04006KT 9999 SCT020 31/17 Q1013","temp":31,"dewp":17,"wdir":40,"wspd":6,"visib":"6+","altim":1013,"clouds":[{"cover":"SCT","base":2000}],"obsTime":1784923200},"SBPF":{"icaoId":"SBPF","flightCategory":"VFR","rawOb":"METAR SBPF 242000Z 07008KT 9999 -TSRA FEW030 FEW045CB BKN070 17/15 Q1018","temp":17,"dewp":15,"wdir":70,"wspd":8,"visib":"6+","altim":1018,"clouds":[{"cover":"FEW","base":3000},{"cover":"FEW","base":4500},{"cover":"BKN","base":7000}],"obsTime":1784923200},"SBJR":{"icaoId":"SBJR","flightCategory":"VFR","rawOb":"METAR SBJR 242000Z 26004KT 9999 SCT018 OVC050 21/19 Q1019","temp":21,"dewp":19,"wdir":260,"wspd":4,"visib":"6+","altim":1019,"clouds":[{"cover":"SCT","base":1800},{"cover":"OVC","base":5000}],"obsTime":1784923200},"SBIH":{"icaoId":"SBIH","flightCategory":"VFR","rawOb":"METAR SBIH 242000Z 07010KT 9999 FEW020 FEW025TCU 34/24 Q1009","temp":34,"dewp":24,"wdir":70,"wspd":10,"visib":"6+","altim":1009,"clouds":[{"cover":"FEW","base":2000},{"cover":"FEW","base":2500}],"obsTime":1784923200},"SBLS":{"icaoId":"SBLS","flightCategory":"VFR","rawOb":"METAR SBLS 242000Z 12004KT 9999 SCT045 SCT080 26/14 Q1018","temp":26,"dewp":14,"wdir":120,"wspd":4,"visib":"6+","altim":1018,"clouds":[{"cover":"SCT","base":4500},{"cover":"SCT","base":8000}],"obsTime":1784923200},"SBLE":{"icaoId":"SBLE","flightCategory":"VFR","rawOb":"METAR SBLE 242000Z AUTO 08002KT CAVOK 28/18 Q1016","temp":28,"dewp":18,"wdir":80,"wspd":2,"visib":"6+","altim":1016,"clouds":[],"obsTime":1784923200},"SBMT":{"icaoId":"SBMT","flightCategory":"IFR","rawOb":"METAR SBMT 242000Z 12004KT 2000 BR BKN012 OVC015 16/14 Q1020","temp":16,"dewp":14,"wdir":120,"wspd":4,"visib":1.24,"altim":1020,"clouds":[{"cover":"BKN","base":1200},{"cover":"OVC","base":1500}],"obsTime":1784923200},"SBNM":{"icaoId":"SBNM","flightCategory":"MVFR","rawOb":"METAR SBNM 242000Z AUTO 24003KT 9999 BKN012 OVC048 19/16 Q1017","temp":19,"dewp":16,"wdir":240,"wspd":3,"visib":"6+","altim":1017,"clouds":[{"cover":"BKN","base":1200},{"cover":"OVC","base":4800}],"obsTime":1784923200},"SBAF":{"icaoId":"SBAF","flightCategory":"MVFR","rawOb":" SBAF 242000Z 20004KT 9000 FEW010 BKN025 OVC040 21/21 Q1019","temp":21,"dewp":21,"wdir":200,"wspd":4,"visib":5.59,"altim":1019,"clouds":[{"cover":"FEW","base":1000},{"cover":"BKN","base":2500},{"cover":"OVC","base":4000}],"obsTime":1784923200},"SBST":{"icaoId":"SBST","flightCategory":"IFR","rawOb":"METAR SBST 242000Z 03005KT 3000 -DZ BR BKN013 OVC019 17/17 Q1019","temp":17,"dewp":17,"wdir":30,"wspd":5,"visib":1.86,"altim":1019,"clouds":[{"cover":"BKN","base":1300},{"cover":"OVC","base":1900}],"obsTime":1784923200},"SBJV":{"icaoId":"SBJV","flightCategory":"MVFR","rawOb":"METAR SBJV 242000Z 13005KT 9999 BKN025 OVC080 19/16 Q1020","temp":19,"dewp":16,"wdir":130,"wspd":5,"visib":"6+","altim":1020,"clouds":[{"cover":"BKN","base":2500},{"cover":"OVC","base":8000}],"obsTime":1784923200},"SBTA":{"icaoId":"SBTA","flightCategory":"MVFR","rawOb":"METAR SBTA 242000Z VRB02KT 6000 SCT015 OVC090 17/16 Q1020","temp":17,"dewp":16,"wdir":"VRB","wspd":2,"visib":3.73,"altim":1020,"clouds":[{"cover":"SCT","base":1500},{"cover":"OVC","base":9000}],"obsTime":1784923200},"SBGW":{"icaoId":"SBGW","flightCategory":"IFR","rawOb":"METAR SBGW 242000Z VRB02KT 4000 -RA BR BKN018 OVC033 18/16 Q1021","temp":18,"dewp":16,"wdir":"VRB","wspd":2,"visib":2.49,"altim":1021,"clouds":[{"cover":"BKN","base":1800},{"cover":"OVC","base":3300}],"obsTime":1784923200},"SBJP":{"icaoId":"SBJP","flightCategory":"VFR","rawOb":"METAR SBJP 242000Z 14012KT CAVOK 26/21 Q1015","temp":26,"dewp":21,"wdir":140,"wspd":12,"visib":"6+","altim":1015,"clouds":[],"obsTime":1784923200},"SBAN":{"icaoId":"SBAN","flightCategory":"VFR","rawOb":"METAR SBAN 242000Z 32003KT CAVOK 29/10 Q1019","temp":29,"dewp":10,"wdir":320,"wspd":3,"visib":"6+","altim":1019,"clouds":[],"obsTime":1784923200}}}