{"updated":1774477396,"count":80,"data":{"SBEG":{"icaoId":"SBEG","flightCategory":"MVFR","rawOb":"METAR SBEG 252100Z 24008KT 5000 -TSRA SCT007 BKN020 FEW025CB BKN060 23/22 Q1011","temp":23,"dewp":22,"wdir":240,"wspd":8,"visib":3.11,"altim":1011,"clouds":[{"cover":"SCT","base":700},{"cover":"BKN","base":2000},{"cover":"FEW","base":2500},{"cover":"BKN","base":6000}],"obsTime":1774472400},"SBKP":{"icaoId":"SBKP","flightCategory":"VFR","rawOb":"SPECI SBKP 252040Z 36012KT 9999 FEW040 FEW045TCU SCT100 26/19 Q1016","temp":26,"dewp":19,"wdir":360,"wspd":12,"visib":"6+","altim":1016,"clouds":[{"cover":"FEW","base":4000},{"cover":"FEW","base":4500},{"cover":"SCT","base":10000}],"obsTime":1774471200},"SBLO":{"icaoId":"SBLO","flightCategory":"VFR","rawOb":"METAR SBLO 252100Z 10003KT CAVOK 28/20 Q1013","temp":28,"dewp":20,"wdir":100,"wspd":3,"visib":"6+","altim":1013,"clouds":[],"obsTime":1774472400},"SBMA":{"icaoId":"SBMA","flightCategory":"VFR","rawOb":"METAR SBMA 252100Z 29004KT 9999 FEW020 FEW023TCU SCT100 30/25 Q1009","temp":30,"dewp":25,"wdir":290,"wspd":4,"visib":"6+","altim":1009,"clouds":[{"cover":"FEW","base":2000},{"cover":"FEW","base":2300},{"cover":"SCT","base":10000}],"obsTime":1774472400},"SBCG":{"icaoId":"SBCG","flightCategory":"VFR","rawOb":"METAR SBCG 252100Z 12004KT 9999 SCT030 FEW040TCU BKN100 23/22 Q1012","temp":23,"dewp":22,"wdir":120,"wspd":4,"visib":"6+","altim":1012,"clouds":[{"cover":"SCT","base":3000},{"cover":"FEW","base":4000},{"cover":"BKN","base":10000}],"obsTime":1774472400},"SBME":{"icaoId":"SBME","flightCategory":"VFR","rawOb":"METAR SBME 252100Z 06010KT 9999 FEW040 29/21 Q1014","temp":29,"dewp":21,"wdir":60,"wspd":10,"visib":"6+","altim":1014,"clouds":[{"cover":"FEW","base":4000}],"obsTime":1774472400},"SBFI":{"icaoId":"SBFI","flightCategory":"VFR","rawOb":"METAR SBFI 252100Z 25006KT 9000 -TSRA BKN035 FEW040CB 25/24 Q1011","temp":25,"dewp":24,"wdir":250,"wspd":6,"visib":5.59,"altim":1011,"clouds":[{"cover":"BKN","base":3500},{"cover":"FEW","base":4000}],"obsTime":1774472400},"SBMG":{"icaoId":"SBMG","flightCategory":"VFR","rawOb":"METAR SBMG 252100Z 16006KT 9999 FEW045 FEW050TCU 28/22 Q1012","temp":28,"dewp":22,"wdir":160,"wspd":6,"visib":"6+","altim":1012,"clouds":[{"cover":"FEW","base":4500},{"cover":"FEW","base":5000}],"obsTime":1774472400},"SBBE":{"icaoId":"SBBE","flightCategory":"MVFR","rawOb":"METAR SBBE 252100Z 07005KT 9999 -TSRA SCT010 BKN017 FEW025CB 25/24 Q1010","temp":25,"dewp":24,"wdir":70,"wspd":5,"visib":"6+","altim":1010,"clouds":[{"cover":"SCT","base":1000},{"cover":"BKN","base":1700},{"cover":"FEW","base":2500}],"obsTime":1774472400},"SBMO":{"icaoId":"SBMO","flightCategory":"VFR","rawOb":"METAR SBMO 252100Z 12012KT 9999 FEW023 SCT100 28/23 Q1012","temp":28,"dewp":23,"wdir":120,"wspd":12,"visib":"6+","altim":1012,"clouds":[{"cover":"FEW","base":2300},{"cover":"SCT","base":10000}],"obsTime":1774472400},"SBFL":{"icaoId":"SBFL","flightCategory":"VFR","rawOb":"METAR SBFL 252100Z 07007KT 9999 FEW030 27/23 Q1013","temp":27,"dewp":23,"wdir":70,"wspd":7,"visib":"6+","altim":1013,"clouds":[{"cover":"FEW","base":3000}],"obsTime":1774472400},"SBMQ":{"icaoId":"SBMQ","flightCategory":"VFR","rawOb":"METAR SBMQ 252100Z 09006KT 060V120 9999 SCT017 SCT100 28/24 Q1008","temp":28,"dewp":24,"wdir":90,"wspd":6,"visib":"6+","altim":1008,"clouds":[{"cover":"SCT","base":1700},{"cover":"SCT","base":10000}],"obsTime":1774472400},"SBNT":{"icaoId":"SBNT","flightCategory":"VFR","rawOb":"METAR SBNT 252100Z 12011KT 9999 FEW030 28/23 Q1010","temp":28,"dewp":23,"wdir":120,"wspd":11,"visib":"6+","altim":1010,"clouds":[{"cover":"FEW","base":3000}],"obsTime":1774472400},"SBBV":{"icaoId":"SBBV","flightCategory":"VFR","rawOb":"METAR SBBV 252100Z 12012KT 9999 SCT040 FEW045TCU 35/20 Q1006","temp":35,"dewp":20,"wdir":120,"wspd":12,"visib":"6+","altim":1006,"clouds":[{"cover":"SCT","base":4000},{"cover":"FEW","base":4500}],"obsTime":1774472400},"SBBR":{"icaoId":"SBBR","flightCategory":"VFR","rawOb":"METAR SBBR 252100Z 07007KT 040V100 9999 FEW030 23/17 Q1018","temp":23,"dewp":17,"wdir":70,"wspd":7,"visib":"6+","altim":1018,"clouds":[{"cover":"FEW","base":3000}],"obsTime":1774472400},"SBPA":{"icaoId":"SBPA","flightCategory":"IFR","rawOb":"METAR SBPA 252100Z 17006KT 8000 BKN009 BKN020 24/22 Q1013","temp":24,"dewp":22,"wdir":170,"wspd":6,"visib":4.97,"altim":1013,"clouds":[{"cover":"BKN","base":900},{"cover":"BKN","base":2000}],"obsTime":1774472400},"SBFZ":{"icaoId":"SBFZ","flightCategory":"VFR","rawOb":"METAR SBFZ 252100Z 08007KT 9999 FEW020 28/24 Q1009","temp":28,"dewp":24,"wdir":80,"wspd":7,"visib":"6+","altim":1009,"clouds":[{"cover":"FEW","base":2000}],"obsTime":1774472400},"SBPJ":{"icaoId":"SBPJ","flightCategory":"VFR","rawOb":"METAR SBPJ 252100Z 22002KT 9999 FEW017 FEW025TCU SCT045 27/23 Q1011","temp":27,"dewp":23,"wdir":220,"wspd":2,"visib":"6+","altim":1011,"clouds":[{"cover":"FEW","base":1700},{"cover":"FEW","base":2500},{"cover":"SCT","base":4500}],"obsTime":1774472400},"SBPV":{"icaoId":"SBPV","flightCategory":"VFR","rawOb":"METAR SBPV 252100Z 20002KT 9999 FEW030 FEW035TCU 30/23 Q1006","temp":30,"dewp":23,"wdir":200,"wspd":2,"visib":"6+","altim":1006,"clouds":[{"cover":"FEW","base":3000},{"cover":"FEW","base":3500}],"obsTime":1774472400},"SBCP":{"icaoId":"SBCP","flightCategory":"VFR","rawOb":"METAR SBCP 252100Z 08007KT CAVOK 26/24 Q1015","temp":26,"dewp":24,"wdir":80,"wspd":7,"visib":"6+","altim":1015,"clouds":[],"obsTime":1774472400},"SBGL":{"icaoId":"SBGL","flightCategory":"VFR","rawOb":"METAR SBGL 252100Z 13004KT 9999 FEW030 29/22 Q1012","temp":29,"dewp":22,"wdir":130,"wspd":4,"visib":"6+","altim":1012,"clouds":[{"cover":"FEW","base":3000}],"obsTime":1774472400},"SBRB":{"icaoId":"SBRB","flightCategory":"VFR","rawOb":"METAR SBRB 252100Z 00000KT 9999 SCT020 BKN100 29/25 Q1007","temp":29,"dewp":25,"wdir":0,"wspd":0,"visib":"6+","altim":1007,"clouds":[{"cover":"SCT","base":2000},{"cover":"BKN","base":10000}],"obsTime":1774472400},"SBCB":{"icaoId":"SBCB","flightCategory":"VFR","rawOb":"METAR SBCB 252100Z 06014KT 9999 FEW030 28/22 Q1014","temp":28,"dewp":22,"wdir":60,"wspd":14,"visib":"6+","altim":1014,"clouds":[{"cover":"FEW","base":3000}],"obsTime":1774472400},"SBRF":{"icaoId":"SBRF","flightCategory":"VFR","rawOb":"METAR SBRF 252100Z 12008KT 9999 FEW025 29/23 Q1011","temp":29,"dewp":23,"wdir":120,"wspd":8,"visib":"6+","altim":1011,"clouds":[{"cover":"FEW","base":2500}],"obsTime":1774472400},"SBGO":{"icaoId":"SBGO","flightCategory":"VFR","rawOb":"METAR SBGO 252100Z 01004KT 9999 FEW030 FEW045TCU 22/19 Q1016","temp":22,"dewp":19,"wdir":10,"wspd":4,"visib":"6+","altim":1016,"clouds":[{"cover":"FEW","base":3000},{"cover":"FEW","base":4500}],"obsTime":1774472400},"SBSG":{"icaoId":"SBSG","flightCategory":"VFR","rawOb":"METAR SBSG 252100Z 12008KT 090V150 9999 FEW025 28/23 Q1010","temp":28,"dewp":23,"wdir":120,"wspd":8,"visib":"6+","altim":1010,"clouds":[{"cover":"FEW","base":2500}],"obsTime":1774472400},"SBCT":{"icaoId":"SBCT","flightCategory":"VFR","rawOb":"METAR SBCT 252100Z 12009KT 9999 FEW020 22/19 Q1017","temp":22,"dewp":19,"wdir":120,"wspd":9,"visib":"6+","altim":1017,"clouds":[{"cover":"FEW","base":2000}],"obsTime":1774472400},"SBSL":{"icaoId":"SBSL","flightCategory":"VFR","rawOb":"METAR SBSL 252100Z 02009KT 9999 SCT017 FEW020TCU 28/24 Q1009","temp":28,"dewp":24,"wdir":20,"wspd":9,"visib":"6+","altim":1009,"clouds":[{"cover":"SCT","base":1700},{"cover":"FEW","base":2000}],"obsTime":1774472400},"SBSN":{"icaoId":"SBSN","flightCategory":"VFR","rawOb":"METAR SBSN 252100Z 09010KT 9999 FEW021 FEW025TCU 31/25 Q1007","temp":31,"dewp":25,"wdir":90,"wspd":10,"visib":"6+","altim":1007,"clouds":[{"cover":"FEW","base":2100},{"cover":"FEW","base":2500}],"obsTime":1774472400},"SBUR":{"icaoId":"SBUR","flightCategory":"VFR","rawOb":"METAR SBUR 252100Z 02003KT 9999 VCSH FEW040 FEW048TCU BKN100 22/19 Q1016","temp":22,"dewp":19,"wdir":20,"wspd":3,"visib":"6+","altim":1016,"clouds":[{"cover":"FEW","base":4000},{"cover":"FEW","base":4800},{"cover":"BKN","base":10000}],"obsTime":1774472400},"SBJU":{"icaoId":"SBJU","flightCategory":"VFR","rawOb":"METAR SBJU 252100Z 00000KT 9999 SCT022 28/23 Q1011","temp":28,"dewp":23,"wdir":0,"wspd":0,"visib":"6+","altim":1011,"clouds":[{"cover":"SCT","base":2200}],"obsTime":1774472400},"SBVT":{"icaoId":"SBVT","flightCategory":"VFR","rawOb":"METAR SBVT 252100Z 03004KT 9999 SCT025 SCT100 26/24 Q1016","temp":26,"dewp":24,"wdir":30,"wspd":4,"visib":"6+","altim":1016,"clouds":[{"cover":"SCT","base":2500},{"cover":"SCT","base":10000}],"obsTime":1774472400},"SBSP":{"icaoId":"SBSP","flightCategory":"VFR","rawOb":"METAR SBSP 252100Z 16010KT 9999 SCT046 23/20 Q1018","temp":23,"dewp":20,"wdir":160,"wspd":10,"visib":"6+","altim":1018,"clouds":[{"cover":"SCT","base":4600}],"obsTime":1774472400},"SBGR":{"icaoId":"SBGR","flightCategory":"VFR","rawOb":"METAR SBGR 252100Z 12005KT 9000 NSC 24/21 Q1017","temp":24,"dewp":21,"wdir":120,"wspd":5,"visib":5.59,"altim":1017,"clouds":[],"obsTime":1774472400},"SBCF":{"icaoId":"SBCF","flightCategory":"VFR","rawOb":"SPECI SBCF 252039Z 35004KT 320V060 9999 4000S TS VCSH SCT036 FEW045CB BKN080 24/18 Q1018","temp":24,"dewp":18,"wdir":350,"wspd":4,"visib":"6+","altim":1018,"clouds":[{"cover":"SCT","base":3600},{"cover":"FEW","base":4500},{"cover":"BKN","base":8000}],"obsTime":1774471140},"SBSV":{"icaoId":"SBSV","flightCategory":"VFR","rawOb":"METAR SBSV 252100Z 10010KT 9999 VCSH FEW030 BKN050 27/23 Q1012","temp":27,"dewp":23,"wdir":100,"wspd":10,"visib":"6+","altim":1012,"clouds":[{"cover":"FEW","base":3000},{"cover":"BKN","base":5000}],"obsTime":1774472400},"SBTE":{"icaoId":"SBTE","flightCategory":"VFR","rawOb":"METAR SBTE 252100Z 03004KT 9999 SCT020 FEW025TCU 29/24 Q1008","temp":29,"dewp":24,"wdir":30,"wspd":4,"visib":"6+","altim":1008,"clouds":[{"cover":"SCT","base":2000},{"cover":"FEW","base":2500}],"obsTime":1774472400},"SBCZ":{"icaoId":"SBCZ","flightCategory":"VFR","rawOb":"METAR SBCZ 252100Z 34004KT 9999 SCT030 32/24 Q1005","temp":32,"dewp":24,"wdir":340,"wspd":4,"visib":"6+","altim":1005,"clouds":[{"cover":"SCT","base":3000}],"obsTime":1774472400},"SBIL":{"icaoId":"SBIL","flightCategory":"MVFR","rawOb":"METAR SBIL 252100Z 30005KT 8000 VCSH NSC 26/25 Q1014","temp":26,"dewp":25,"wdir":300,"wspd":5,"visib":4.97,"altim":1014,"clouds":[],"obsTime":1774472400},"SBUL":{"icaoId":"SBUL","flightCategory":"VFR","rawOb":"METAR SBUL 252100Z 06007KT 9999 VCSH FEW045 FEW050TCU 21/20 Q1017","temp":21,"dewp":20,"wdir":60,"wspd":7,"visib":"6+","altim":1017,"clouds":[{"cover":"FEW","base":4500},{"cover":"FEW","base":5000}],"obsTime":1774472400},"SBCR":{"icaoId":"SBCR","flightCategory":"VFR","rawOb":"METAR SBCR 252100Z 11003KT 020V160 9999 BKN040 31/23 Q1008","temp":31,"dewp":23,"wdir":110,"wspd":3,"visib":"6+","altim":1008,"clouds":[{"cover":"BKN","base":4000}],"obsTime":1774472400},"SBHT":{"icaoId":"SBHT","flightCategory":"MVFR","rawOb":"METAR SBHT 252100Z 14002KT 9999 BKN030 31/25 Q1008","temp":31,"dewp":25,"wdir":140,"wspd":2,"visib":"6+","altim":1008,"clouds":[{"cover":"BKN","base":3000}],"obsTime":1774472400},"SBAR":{"icaoId":"SBAR","flightCategory":"VFR","rawOb":"METAR SBAR 252100Z 11013KT 9999 FEW015 SCT025 BKN070 28/23 Q1012","temp":28,"dewp":23,"wdir":110,"wspd":13,"visib":"6+","altim":1012,"clouds":[{"cover":"FEW","base":1500},{"cover":"SCT","base":2500},{"cover":"BKN","base":7000}],"obsTime":1774472400},"SBAX":{"icaoId":"SBAX","flightCategory":"VFR","rawOb":"METAR SBAX 252100Z 09004KT 9999 FEW020 20/20 Q1018","temp":20,"dewp":20,"wdir":90,"wspd":4,"visib":"6+","altim":1018,"clouds":[{"cover":"FEW","base":2000}],"obsTime":1774472400},"SBBH":{"icaoId":"SBBH","flightCategory":"VFR","rawOb":"METAR SBBH 252100Z 05005G15KT 9999 -TSRA BKN048 FEW050CB 26/18 Q1018","temp":26,"dewp":18,"wdir":50,"wspd":5,"visib":"6+","altim":1018,"clouds":[{"cover":"BKN","base":4800},{"cover":"FEW","base":5000}],"obsTime":1774472400},"SBBU":{"icaoId":"SBBU","flightCategory":"IFR","rawOb":"METAR SBBU 252100Z 18007G20KT 2000 +TSRA SCT030 FEW035CB SCT100 20/20 Q1015","temp":20,"dewp":20,"wdir":180,"wspd":7,"visib":1.24,"altim":1015,"clouds":[{"cover":"SCT","base":3000},{"cover":"FEW","base":3500},{"cover":"SCT","base":10000}],"obsTime":1774472400},"SBCA":{"icaoId":"SBCA","flightCategory":"VFR","rawOb":"METAR SBCA 252100Z 24003KT 200V300 9999 FEW025 FEW030TCU 28/21 Q1015","temp":28,"dewp":21,"wdir":240,"wspd":3,"visib":"6+","altim":1015,"clouds":[{"cover":"FEW","base":2500},{"cover":"FEW","base":3000}],"obsTime":1774472400},"SBCO":{"icaoId":"SBCO","flightCategory":"MVFR","rawOb":"METAR SBCO 252100Z 15003KT 120V180 9999 BKN012 BKN040 24/22 Q1013","temp":24,"dewp":22,"wdir":150,"wspd":3,"visib":"6+","altim":1013,"clouds":[{"cover":"BKN","base":1200},{"cover":"BKN","base":4000}],"obsTime":1774472400},"SBDN":{"icaoId":"SBDN","flightCategory":"VFR","rawOb":"METAR SBDN 252100Z 09004KT 9999 FEW030 30/21 Q1011","temp":30,"dewp":21,"wdir":90,"wspd":4,"visib":"6+","altim":1011,"clouds":[{"cover":"FEW","base":3000}],"obsTime":1774472400},"SBES":{"icaoId":"SBES","flightCategory":"VFR","rawOb":"METAR SBES 252100Z 05014KT 9999 FEW040 26/// Q1014","temp":null,"dewp":null,"wdir":50,"wspd":14,"visib":"6+","altim":1014,"clouds":[{"cover":"FEW","base":4000}],"obsTime":1774472400},"SBIP":{"icaoId":"SBIP","flightCategory":"VFR","rawOb":"METAR SBIP 252100Z AUTO 04004KT 340V080 9999 SCT035 27/23 Q1015","temp":27,"dewp":23,"wdir":40,"wspd":4,"visib":"6+","altim":1015,"clouds":[{"cover":"SCT","base":3500}],"obsTime":1774472400},"SBKG":{"icaoId":"SBKG","flightCategory":"VFR","rawOb":"METAR SBKG 252100Z 10012KT CAVOK 27/20 Q1013","temp":27,"dewp":20,"wdir":100,"wspd":12,"visib":"6+","altim":1013,"clouds":[],"obsTime":1774472400},"SBOI":{"icaoId":"SBOI","flightCategory":"VFR","rawOb":"METAR SBOI 252100Z AUTO 36003KT 320V050 CAVOK 26/25 Q1010","temp":26,"dewp":25,"wdir":360,"wspd":3,"visib":"6+","altim":1010,"clouds":[],"obsTime":1774472400},"SBPL":{"icaoId":"SBPL","flightCategory":"VFR","rawOb":"METAR SBPL 252100Z 11003KT 9999 SCT030 30/20 Q1011","temp":30,"dewp":20,"wdir":110,"wspd":3,"visib":"6+","altim":1011,"clouds":[{"cover":"SCT","base":3000}],"obsTime":1774472400},"SBPS":{"icaoId":"SBPS","flightCategory":"VFR","rawOb":"METAR SBPS 252100Z 00000KT 9999 FEW017 26/24 Q1015","temp":26,"dewp":24,"wdir":0,"wspd":0,"visib":"6+","altim":1015,"clouds":[{"cover":"FEW","base":1700}],"obsTime":1774472400},"SBSC":{"icaoId":"SBSC","flightCategory":"VFR","rawOb":"METAR SBSC 252100Z 22006KT 9999 FEW045 27/22 Q1013","temp":27,"dewp":22,"wdir":220,"wspd":6,"visib":"6+","altim":1013,"clouds":[{"cover":"FEW","base":4500}],"obsTime":1774472400},"SBSJ":{"icaoId":"SBSJ","flightCategory":"VFR","rawOb":"METAR SBSJ 252100Z 12012KT 9999 FEW040 FEW048TCU SCT100 26/20 Q1016","temp":26,"dewp":20,"wdir":120,"wspd":12,"visib":"6+","altim":1016,"clouds":[{"cover":"FEW","base":4000},{"cover":"FEW","base":4800},{"cover":"SCT","base":10000}],"obsTime":1774472400},"SBSM":{"icaoId":"SBSM","flightCategory":"IFR","rawOb":"METAR SBSM 252100Z 12004KT 090V170 9999 3500E -DZ SCT006 OVC008 21/20 Q1014","temp":21,"dewp":20,"wdir":120,"wspd":4,"visib":"6+","altim":1014,"clouds":[{"cover":"SCT","base":600},{"cover":"OVC","base":800}],"obsTime":1774472400},"SBSR":{"icaoId":"SBSR","flightCategory":"VFR","rawOb":"METAR SBSR 252100Z 11008KT 9999 FEW035 FEW040TCU SCT070 28/20 Q1013","temp":28,"dewp":20,"wdir":110,"wspd":8,"visib":"6+","altim":1013,"clouds":[{"cover":"FEW","base":3500},{"cover":"FEW","base":4000},{"cover":"SCT","base":7000}],"obsTime":1774472400},"SBTF":{"icaoId":"SBTF","flightCategory":"VFR","rawOb":"METAR SBTF 252100Z 12002KT 9999 SCT017 29/24 Q1008","temp":29,"dewp":24,"wdir":120,"wspd":2,"visib":"6+","altim":1008,"clouds":[{"cover":"SCT","base":1700}],"obsTime":1774472400},"SBTT":{"icaoId":"SBTT","flightCategory":"VFR","rawOb":"METAR SBTT 252100Z 13004KT 9999 VCSH SCT033 FEW040TCU 31/24 Q1006","temp":31,"dewp":24,"wdir":130,"wspd":4,"visib":"6+","altim":1006,"clouds":[{"cover":"SCT","base":3300},{"cover":"FEW","base":4000}],"obsTime":1774472400},"SBUY":{"icaoId":"SBUY","flightCategory":"VFR","rawOb":"METAR SBUY 252100Z 12006KT 9999 FEW030 BKN100 29/24 Q1006","temp":29,"dewp":24,"wdir":120,"wspd":6,"visib":"6+","altim":1006,"clouds":[{"cover":"FEW","base":3000},{"cover":"BKN","base":10000}],"obsTime":1774472400},"SBVH":{"icaoId":"SBVH","flightCategory":"VFR","rawOb":"METAR SBVH 252100Z 31003KT 9999 FEW020 SCT040 24/23 Q1011","temp":24,"dewp":23,"wdir":310,"wspd":3,"visib":"6+","altim":1011,"clouds":[{"cover":"FEW","base":2000},{"cover":"SCT","base":4000}],"obsTime":1774472400},"SBPB":{"icaoId":"SBPB","flightCategory":"VFR","rawOb":"METAR SBPB 252100Z 04005KT 9999 FEW020 29/25 Q1009","temp":29,"dewp":25,"wdir":40,"wspd":5,"visib":"6+","altim":1009,"clouds":[{"cover":"FEW","base":2000}],"obsTime":1774472400},"SBCJ":{"icaoId":"SBCJ","flightCategory":"VFR","rawOb":"METAR SBCJ 252100Z 00000KT CAVOK 23/20 Q1013","temp":23,"dewp":20,"wdir":0,"wspd":0,"visib":"6+","altim":1013,"clouds":[],"obsTime":1774472400},"SBPP":{"icaoId":"SBPP","flightCategory":"VFR","rawOb":"METAR SBPP 252100Z 15007KT 9999 FEW020 SCT080 26/21 Q1014","temp":26,"dewp":21,"wdir":150,"wspd":7,"visib":"6+","altim":1014,"clouds":[{"cover":"FEW","base":2000},{"cover":"SCT","base":8000}],"obsTime":1774472400},"SBLE":{"icaoId":"SBLE","flightCategory":"VFR","rawOb":"METAR SBLE 252100Z AUTO 00000KT CAVOK ///// Q////","temp":null,"dewp":null,"wdir":0,"wspd":0,"visib":"6+","altim":null,"clouds":[],"obsTime":1774472400},"SBJV":{"icaoId":"SBJV","flightCategory":"VFR","rawOb":"METAR SBJV 252100Z 09002KT 9999 FEW030 28/23 Q1013","temp":28,"dewp":23,"wdir":90,"wspd":2,"visib":"6+","altim":1013,"clouds":[{"cover":"FEW","base":3000}],"obsTime":1774472400},"SBAF":{"icaoId":"SBAF","flightCategory":"VFR","rawOb":"METAR SBAF 252100Z 23004KT 9999 FEW040 29/22 Q1013","temp":29,"dewp":22,"wdir":230,"wspd":4,"visib":"6+","altim":1013,"clouds":[{"cover":"FEW","base":4000}],"obsTime":1774472400},"SBNM":{"icaoId":"SBNM","flightCategory":"VFR","rawOb":"METAR SBNM 252100Z 22002KT 9999 FEW040 29/22 Q1013","temp":29,"dewp":22,"wdir":220,"wspd":2,"visib":"6+","altim":1013,"clouds":[{"cover":"FEW","base":4000}],"obsTime":1774472400},"SBGW":{"icaoId":"SBGW","flightCategory":"VFR","rawOb":"METAR SBGW 252100Z 02005KT 9999 FEW030 BKN090 27/18 Q1015","temp":27,"dewp":18,"wdir":20,"wspd":5,"visib":"6+","altim":1015,"clouds":[{"cover":"FEW","base":3000},{"cover":"BKN","base":9000}],"obsTime":1774472400},"SBAN":{"icaoId":"SBAN","flightCategory":"VFR","rawOb":"METAR SBAN 252100Z 14004KT 9999 FEW002 SCT030 FEW035TCU 20/19 Q1018","temp":20,"dewp":19,"wdir":140,"wspd":4,"visib":"6+","altim":1018,"clouds":[{"cover":"FEW","base":200},{"cover":"SCT","base":3000},{"cover":"FEW","base":3500}],"obsTime":1774472400},"SBJR":{"icaoId":"SBJR","flightCategory":"VFR","rawOb":"METAR SBJR 252100Z 26004KT 9999 FEW040 28/22 Q1012","temp":28,"dewp":22,"wdir":260,"wspd":4,"visib":"6+","altim":1012,"clouds":[{"cover":"FEW","base":4000}],"obsTime":1774472400},"SBLS":{"icaoId":"SBLS","flightCategory":"IFR","rawOb":"METAR SBLS 252100Z 27005KT 4000 -TSRA BR SCT012 SCT025 FEW035CB 20/19 Q1018 RERA","temp":20,"dewp":19,"wdir":270,"wspd":5,"visib":2.49,"altim":1018,"clouds":[{"cover":"SCT","base":1200},{"cover":"SCT","base":2500},{"cover":"FEW","base":3500}],"obsTime":1774472400},"SBPF":{"icaoId":"SBPF","flightCategory":"VFR","rawOb":"METAR SBPF 252100Z 17006KT 9999 FEW040 23/21 Q1016","temp":23,"dewp":21,"wdir":170,"wspd":6,"visib":"6+","altim":1016,"clouds":[{"cover":"FEW","base":4000}],"obsTime":1774472400},"SBMT":{"icaoId":"SBMT","flightCategory":"VFR","rawOb":"METAR SBMT 252100Z 14008KT 9999 SCT030 24/20 Q1017","temp":24,"dewp":20,"wdir":140,"wspd":8,"visib":"6+","altim":1017,"clouds":[{"cover":"SCT","base":3000}],"obsTime":1774472400},"SBTA":{"icaoId":"SBTA","flightCategory":"VFR","rawOb":"METAR SBTA 252100Z 17005KT 9999 VCSH BKN035 FEW040TCU 24/20 Q1015","temp":24,"dewp":20,"wdir":170,"wspd":5,"visib":"6+","altim":1015,"clouds":[{"cover":"BKN","base":3500},{"cover":"FEW","base":4000}],"obsTime":1774472400},"SBJP":{"icaoId":"SBJP","flightCategory":"VFR","rawOb":"METAR SBJP 252100Z 11008KT CAVOK 28/23 Q1011","temp":28,"dewp":23,"wdir":110,"wspd":8,"visib":"6+","altim":1011,"clouds":[],"obsTime":1774472400},"SBIH":{"icaoId":"SBIH","flightCategory":"VFR","rawOb":"METAR SBIH 252100Z 01004KT 9999 FEW020 FEW025TCU 31/25 Q1006","temp":31,"dewp":25,"wdir":10,"wspd":4,"visib":"6+","altim":1006,"clouds":[{"cover":"FEW","base":2000},{"cover":"FEW","base":2500}],"obsTime":1774472400},"SBST":{"icaoId":"SBST","flightCategory":"MVFR","rawOb":"METAR SBST 252100Z 19002KT 8000 BKN023 25/23 Q1013","temp":25,"dewp":23,"wdir":190,"wspd":2,"visib":4.97,"altim":1013,"clouds":[{"cover":"BKN","base":2300}],"obsTime":1774472400}}}