{"updated":1781562678,"count":84,"data":{"SBUR":{"icaoId":"SBUR","flightCategory":"VFR","rawOb":"METAR SBUR 152100Z 19003KT 9999 FEW040 FEW049TCU 23/19 Q1019","temp":23,"dewp":19,"wdir":190,"wspd":3,"visib":"6+","altim":1019,"clouds":[{"cover":"FEW","base":4000},{"cover":"FEW","base":4900}],"obsTime":1781557200},"SBLO":{"icaoId":"SBLO","flightCategory":"VFR","rawOb":"METAR SBLO 152100Z 24003KT 9999 SCT020 21/18 Q1018","temp":21,"dewp":18,"wdir":240,"wspd":3,"visib":"6+","altim":1018,"clouds":[{"cover":"SCT","base":2000}],"obsTime":1781557200},"SBMA":{"icaoId":"SBMA","flightCategory":"VFR","rawOb":"METAR SBMA 152100Z 05004KT CAVOK 33/22 Q1011","temp":33,"dewp":22,"wdir":50,"wspd":4,"visib":"6+","altim":1011,"clouds":[],"obsTime":1781557200},"SBCP":{"icaoId":"SBCP","flightCategory":"VFR","rawOb":"METAR SBCP 152100Z 21009KT 9999 FEW020 BKN080 23/21 Q1015","temp":23,"dewp":21,"wdir":210,"wspd":9,"visib":"6+","altim":1015,"clouds":[{"cover":"FEW","base":2000},{"cover":"BKN","base":8000}],"obsTime":1781557200},"SBFL":{"icaoId":"SBFL","flightCategory":"MVFR","rawOb":"METAR SBFL 152100Z 17007KT 130V200 9999 OVC030 15/09 Q1021","temp":15,"dewp":9,"wdir":170,"wspd":7,"visib":"6+","altim":1021,"clouds":[{"cover":"OVC","base":3000}],"obsTime":1781557200},"SBME":{"icaoId":"SBME","flightCategory":"MVFR","rawOb":"METAR SBME 152100Z 19008KT 9999 BKN015 OVC080 23/21 Q1016","temp":23,"dewp":21,"wdir":190,"wspd":8,"visib":"6+","altim":1016,"clouds":[{"cover":"BKN","base":1500},{"cover":"OVC","base":8000}],"obsTime":1781557200},"SBBV":{"icaoId":"SBBV","flightCategory":"MVFR","rawOb":"METAR SBBV 152100Z 02007KT 9999 BKN020 FEW025TCU BKN090 27/23 Q1012","temp":27,"dewp":23,"wdir":20,"wspd":7,"visib":"6+","altim":1012,"clouds":[{"cover":"BKN","base":2000},{"cover":"FEW","base":2500},{"cover":"BKN","base":9000}],"obsTime":1781557200},"SBMG":{"icaoId":"SBMG","flightCategory":"MVFR","rawOb":"METAR SBMG 152100Z 30006KT 9999 SCT015 BKN025 18/17 Q1018","temp":18,"dewp":17,"wdir":300,"wspd":6,"visib":"6+","altim":1018,"clouds":[{"cover":"SCT","base":1500},{"cover":"BKN","base":2500}],"obsTime":1781557200},"SBFZ":{"icaoId":"SBFZ","flightCategory":"VFR","rawOb":"METAR SBFZ 152100Z 08008KT 9999 FEW020 28/23 Q1012","temp":28,"dewp":23,"wdir":80,"wspd":8,"visib":"6+","altim":1012,"clouds":[{"cover":"FEW","base":2000}],"obsTime":1781557200},"SBMK":{"icaoId":"SBMK","flightCategory":"VFR","rawOb":"METAR SBMK 152100Z 11003KT CAVOK 25/18 Q1017","temp":25,"dewp":18,"wdir":110,"wspd":3,"visib":"6+","altim":1017,"clouds":[],"obsTime":1781557200},"SBCT":{"icaoId":"SBCT","flightCategory":"IFR","rawOb":"METAR SBCT 152100Z 06005KT 8000 -DZ BKN006 OVC013 11/11 Q1021","temp":11,"dewp":11,"wdir":60,"wspd":5,"visib":4.97,"altim":1021,"clouds":[{"cover":"BKN","base":600},{"cover":"OVC","base":1300}],"obsTime":1781557200},"SBMO":{"icaoId":"SBMO","flightCategory":"VFR","rawOb":"METAR SBMO 152100Z 19003KT 9999 SCT025 24/24 Q1015","temp":24,"dewp":24,"wdir":190,"wspd":3,"visib":"6+","altim":1015,"clouds":[{"cover":"SCT","base":2500}],"obsTime":1781557200},"SBMQ":{"icaoId":"SBMQ","flightCategory":"VFR","rawOb":"METAR SBMQ 152100Z 05008KT 9999 FEW030 30/25 Q1011","temp":30,"dewp":25,"wdir":50,"wspd":8,"visib":"6+","altim":1011,"clouds":[{"cover":"FEW","base":3000}],"obsTime":1781557200},"SBGL":{"icaoId":"SBGL","flightCategory":"IFR","rawOb":"SPECI SBGL 152033Z 15009KT 2500 -RA BR BKN013 BKN019 OVC080 22/20 Q1016","temp":22,"dewp":20,"wdir":150,"wspd":9,"visib":1.55,"altim":1016,"clouds":[{"cover":"BKN","base":1300},{"cover":"BKN","base":1900},{"cover":"OVC","base":8000}],"obsTime":1781555580},"SBKP":{"icaoId":"SBKP","flightCategory":"MVFR","rawOb":"METAR SBKP 152100Z 15008KT 6000 -RA FEW009 BKN021 17/16 Q1019","temp":17,"dewp":16,"wdir":150,"wspd":8,"visib":3.73,"altim":1019,"clouds":[{"cover":"FEW","base":900},{"cover":"BKN","base":2100}],"obsTime":1781557200},"SBBE":{"icaoId":"SBBE","flightCategory":"VFR","rawOb":"METAR SBBE 152100Z 35008KT 9999 FEW040 30/26 Q1011","temp":30,"dewp":26,"wdir":350,"wspd":8,"visib":"6+","altim":1011,"clouds":[{"cover":"FEW","base":4000}],"obsTime":1781557200},"SBNT":{"icaoId":"SBNT","flightCategory":"VFR","rawOb":"METAR SBNT 152100Z 13008KT 9999 FEW030 26/23 Q1013","temp":26,"dewp":23,"wdir":130,"wspd":8,"visib":"6+","altim":1013,"clouds":[{"cover":"FEW","base":3000}],"obsTime":1781557200},"SBPA":{"icaoId":"SBPA","flightCategory":"VFR","rawOb":"METAR SBPA 152100Z 24002KT 9999 SCT045 11/06 Q1021","temp":11,"dewp":6,"wdir":240,"wspd":2,"visib":"6+","altim":1021,"clouds":[{"cover":"SCT","base":4500}],"obsTime":1781557200},"SBVT":{"icaoId":"SBVT","flightCategory":"VFR","rawOb":"METAR SBVT 152100Z 07006KT 9999 SCT030 BKN100 25/23 Q1014","temp":25,"dewp":23,"wdir":70,"wspd":6,"visib":"6+","altim":1014,"clouds":[{"cover":"SCT","base":3000},{"cover":"BKN","base":10000}],"obsTime":1781557200},"SBPJ":{"icaoId":"SBPJ","flightCategory":"VFR","rawOb":"METAR SBPJ 152100Z 22003KT CAVOK 32/23 Q1012","temp":32,"dewp":23,"wdir":220,"wspd":3,"visib":"6+","altim":1012,"clouds":[],"obsTime":1781557200},"SBCF":{"icaoId":"SBCF","flightCategory":"VFR","rawOb":"METAR SBCF 152100Z 29003KT 9999 FEW045 BKN070 24/15 Q1019","temp":24,"dewp":15,"wdir":290,"wspd":3,"visib":"6+","altim":1019,"clouds":[{"cover":"FEW","base":4500},{"cover":"BKN","base":7000}],"obsTime":1781557200},"SBPV":{"icaoId":"SBPV","flightCategory":"VFR","rawOb":"METAR SBPV 152100Z 09005KT 9999 FEW030 FEW035TCU 34/20 Q1010","temp":34,"dewp":20,"wdir":90,"wspd":5,"visib":"6+","altim":1010,"clouds":[{"cover":"FEW","base":3000},{"cover":"FEW","base":3500}],"obsTime":1781557200},"SBGO":{"icaoId":"SBGO","flightCategory":"VFR","rawOb":"METAR SBGO 152100Z 13005KT 9999 FEW049 27/19 Q1018","temp":27,"dewp":19,"wdir":130,"wspd":5,"visib":"6+","altim":1018,"clouds":[{"cover":"FEW","base":4900}],"obsTime":1781557200},"SBRB":{"icaoId":"SBRB","flightCategory":"VFR","rawOb":"METAR SBRB 152100Z 13001KT 9999 VCSH SCT030 30/25 Q1012","temp":30,"dewp":25,"wdir":130,"wspd":1,"visib":"6+","altim":1012,"clouds":[{"cover":"SCT","base":3000}],"obsTime":1781557200},"SBBR":{"icaoId":"SBBR","flightCategory":"VFR","rawOb":"METAR SBBR 152100Z 19005KT CAVOK 25/16 Q1020","temp":25,"dewp":16,"wdir":190,"wspd":5,"visib":"6+","altim":1020,"clouds":[],"obsTime":1781557200},"SBRF":{"icaoId":"SBRF","flightCategory":"VFR","rawOb":"METAR SBRF 152100Z 13010KT 9999 SCT020 SCT050 27/23 Q1014","temp":27,"dewp":23,"wdir":130,"wspd":10,"visib":"6+","altim":1014,"clouds":[{"cover":"SCT","base":2000},{"cover":"SCT","base":5000}],"obsTime":1781557200},"SBSG":{"icaoId":"SBSG","flightCategory":"VFR","rawOb":"METAR SBSG 152100Z 13004KT 090V180 9999 SCT025 26/23 Q1014","temp":26,"dewp":23,"wdir":130,"wspd":4,"visib":"6+","altim":1014,"clouds":[{"cover":"SCT","base":2500}],"obsTime":1781557200},"SBGR":{"icaoId":"SBGR","flightCategory":"IFR","rawOb":"METAR SBGR 152100Z 17002KT 6000 RA OVC008 15/14 Q1020","temp":15,"dewp":14,"wdir":170,"wspd":2,"visib":3.73,"altim":1020,"clouds":[{"cover":"OVC","base":800}],"obsTime":1781557200},"SBSL":{"icaoId":"SBSL","flightCategory":"VFR","rawOb":"METAR SBSL 152100Z 05011KT 9999 SCT030 29/24 Q1011","temp":29,"dewp":24,"wdir":50,"wspd":11,"visib":"6+","altim":1011,"clouds":[{"cover":"SCT","base":3000}],"obsTime":1781557200},"SBCZ":{"icaoId":"SBCZ","flightCategory":"VFR","rawOb":"METAR SBCZ 152100Z 21004KT 160V250 9999 SCT040 32/22 Q1012","temp":32,"dewp":22,"wdir":210,"wspd":4,"visib":"6+","altim":1012,"clouds":[{"cover":"SCT","base":4000}],"obsTime":1781557200},"SBCG":{"icaoId":"SBCG","flightCategory":"MVFR","rawOb":"METAR SBCG 152100Z 10002KT 9999 SCT013 OVC017 19/17 Q1018","temp":19,"dewp":17,"wdir":100,"wspd":2,"visib":"6+","altim":1018,"clouds":[{"cover":"SCT","base":1300},{"cover":"OVC","base":1700}],"obsTime":1781557200},"SBSN":{"icaoId":"SBSN","flightCategory":"VFR","rawOb":"METAR SBSN 152100Z 07005KT CAVOK 31/25 Q1010","temp":31,"dewp":25,"wdir":70,"wspd":5,"visib":"6+","altim":1010,"clouds":[],"obsTime":1781557200},"SBIL":{"icaoId":"SBIL","flightCategory":"VFR","rawOb":"METAR SBIL 152100Z 13004KT CAVOK 26/23 Q1016","temp":26,"dewp":23,"wdir":130,"wspd":4,"visib":"6+","altim":1016,"clouds":[],"obsTime":1781557200},"SBSP":{"icaoId":"SBSP","flightCategory":"IFR","rawOb":"METAR SBSP 152100Z 15007KT 9999 OVC007 14/14 Q1021","temp":14,"dewp":14,"wdir":150,"wspd":7,"visib":"6+","altim":1021,"clouds":[{"cover":"OVC","base":700}],"obsTime":1781557200},"SBEG":{"icaoId":"SBEG","flightCategory":"VFR","rawOb":"METAR SBEG 152100Z 14006KT 090V160 9999 FEW030 FEW035TCU 31/24 Q1011","temp":31,"dewp":24,"wdir":140,"wspd":6,"visib":"6+","altim":1011,"clouds":[{"cover":"FEW","base":3000},{"cover":"FEW","base":3500}],"obsTime":1781557200},"SBSV":{"icaoId":"SBSV","flightCategory":"VFR","rawOb":"METAR SBSV 152100Z 12006KT 9999 FEW021 26/21 Q1015","temp":26,"dewp":21,"wdir":120,"wspd":6,"visib":"6+","altim":1015,"clouds":[{"cover":"FEW","base":2100}],"obsTime":1781557200},"SBTE":{"icaoId":"SBTE","flightCategory":"VFR","rawOb":"METAR SBTE 152100Z 24003KT CAVOK 33/21 Q1010","temp":33,"dewp":21,"wdir":240,"wspd":3,"visib":"6+","altim":1010,"clouds":[],"obsTime":1781557200},"SBJU":{"icaoId":"SBJU","flightCategory":"MVFR","rawOb":"METAR SBJU 152100Z 00000KT 9999 BKN022 30/19 Q1014","temp":30,"dewp":19,"wdir":0,"wspd":0,"visib":"6+","altim":1014,"clouds":[{"cover":"BKN","base":2200}],"obsTime":1781557200},"SBFI":{"icaoId":"SBFI","flightCategory":"VFR","rawOb":"METAR SBFI 152100Z 22004KT CAVOK 16/11 Q1019","temp":16,"dewp":11,"wdir":220,"wspd":4,"visib":"6+","altim":1019,"clouds":[],"obsTime":1781557200},"SBUL":{"icaoId":"SBUL","flightCategory":"VFR","rawOb":"METAR SBUL 152100Z 28007KT 9999 FEW030 23/18 Q1020","temp":23,"dewp":18,"wdir":280,"wspd":7,"visib":"6+","altim":1020,"clouds":[{"cover":"FEW","base":3000}],"obsTime":1781557200},"SBCB":{"icaoId":"SBCB","flightCategory":"IFR","rawOb":"METAR SBCB 152100Z 10004KT 5000 BR BKN009 OVC040 23/20 Q1016","temp":23,"dewp":20,"wdir":100,"wspd":4,"visib":3.11,"altim":1016,"clouds":[{"cover":"BKN","base":900},{"cover":"OVC","base":4000}],"obsTime":1781557200},"SBCR":{"icaoId":"SBCR","flightCategory":"MVFR","rawOb":"METAR SBCR 152100Z 20005KT 160V240 9999 BKN030 BKN070 20/15 Q1018","temp":20,"dewp":15,"wdir":200,"wspd":5,"visib":"6+","altim":1018,"clouds":[{"cover":"BKN","base":3000},{"cover":"BKN","base":7000}],"obsTime":1781557200},"SBHT":{"icaoId":"SBHT","flightCategory":"VFR","rawOb":"METAR SBHT 152100Z 00000KT CAVOK 30/26 Q1011","temp":30,"dewp":26,"wdir":0,"wspd":0,"visib":"6+","altim":1011,"clouds":[],"obsTime":1781557200},"SBAT":{"icaoId":"SBAT","flightCategory":"VFR","rawOb":"METAR SBAT 152100Z 08001KT 9999 SCT040 33/21 Q1012","temp":33,"dewp":21,"wdir":80,"wspd":1,"visib":"6+","altim":1012,"clouds":[{"cover":"SCT","base":4000}],"obsTime":1781557200},"SBSJ":{"icaoId":"SBSJ","flightCategory":"IFR","rawOb":"METAR SBSJ 152100Z 17007KT 4000 BR OVC013 16/14 Q1020","temp":16,"dewp":14,"wdir":170,"wspd":7,"visib":2.49,"altim":1020,"clouds":[{"cover":"OVC","base":1300}],"obsTime":1781557200},"SBAR":{"icaoId":"SBAR","flightCategory":"VFR","rawOb":"METAR SBAR 152100Z 14006KT 110V170 9999 FEW020 27/22 Q1014","temp":27,"dewp":22,"wdir":140,"wspd":6,"visib":"6+","altim":1014,"clouds":[{"cover":"FEW","base":2000}],"obsTime":1781557200},"SBBH":{"icaoId":"SBBH","flightCategory":"VFR","rawOb":"METAR SBBH 152100Z 00000KT CAVOK 23/17 Q1018","temp":23,"dewp":17,"wdir":0,"wspd":0,"visib":"6+","altim":1018,"clouds":[],"obsTime":1781557200},"SBBU":{"icaoId":"SBBU","flightCategory":"VFR","rawOb":"METAR SBBU 152100Z 22004KT 9999 SCT004 SCT018 BKN100 20/20 Q1018","temp":20,"dewp":20,"wdir":220,"wspd":4,"visib":"6+","altim":1018,"clouds":[{"cover":"SCT","base":400},{"cover":"SCT","base":1800},{"cover":"BKN","base":10000}],"obsTime":1781557200},"SBCA":{"icaoId":"SBCA","flightCategory":"VFR","rawOb":"METAR SBCA 152100Z 19006KT CAVOK 14/12 Q1020","temp":14,"dewp":12,"wdir":190,"wspd":6,"visib":"6+","altim":1020,"clouds":[],"obsTime":1781557200},"SBCC":{"icaoId":"SBCC","flightCategory":"VFR","rawOb":"METAR SBCC 152100Z 05006KT CAVOK 31/17 Q1014","temp":31,"dewp":17,"wdir":50,"wspd":6,"visib":"6+","altim":1014,"clouds":[],"obsTime":1781557200},"SBCO":{"icaoId":"SBCO","flightCategory":"VFR","rawOb":"METAR SBCO 152100Z 06001KT 9999 SCT045 09/08 Q1022","temp":9,"dewp":8,"wdir":60,"wspd":1,"visib":"6+","altim":1022,"clouds":[{"cover":"SCT","base":4500}],"obsTime":1781557200},"SBDN":{"icaoId":"SBDN","flightCategory":"VFR","rawOb":"METAR SBDN 152100Z 28005KT 9999 SCT020 BKN040 20/17 Q1018","temp":20,"dewp":17,"wdir":280,"wspd":5,"visib":"6+","altim":1018,"clouds":[{"cover":"SCT","base":2000},{"cover":"BKN","base":4000}],"obsTime":1781557200},"SBES":{"icaoId":"SBES","flightCategory":"MVFR","rawOb":"METAR SBES 152100Z 15006KT 130V190 9999 SCT009 BKN030 OVC070 22/// Q1016","temp":null,"dewp":null,"wdir":150,"wspd":6,"visib":"6+","altim":1016,"clouds":[{"cover":"SCT","base":900},{"cover":"BKN","base":3000},{"cover":"OVC","base":7000}],"obsTime":1781557200},"SBIP":{"icaoId":"SBIP","flightCategory":"VFR","rawOb":"METAR SBIP 152100Z AUTO VRB01KT CAVOK 23/21 Q1015","temp":23,"dewp":21,"wdir":"VRB","wspd":1,"visib":"6+","altim":1015,"clouds":[],"obsTime":1781557200},"SBKG":{"icaoId":"SBKG","flightCategory":"MVFR","rawOb":"METAR SBKG 152100Z 09005KT 9999 -RA BKN012 BKN020 22/22 Q1017","temp":22,"dewp":22,"wdir":90,"wspd":5,"visib":"6+","altim":1017,"clouds":[{"cover":"BKN","base":1200},{"cover":"BKN","base":2000}],"obsTime":1781557200},"SBOI":{"icaoId":"SBOI","flightCategory":"VFR","rawOb":"METAR SBOI 152100Z AUTO 11004KT 080V160 CAVOK 30/23 Q1012","temp":30,"dewp":23,"wdir":110,"wspd":4,"visib":"6+","altim":1012,"clouds":[],"obsTime":1781557200},"SBPL":{"icaoId":"SBPL","flightCategory":"VFR","rawOb":"METAR SBPL 152100Z 11006KT CAVOK 31/14 Q1014","temp":31,"dewp":14,"wdir":110,"wspd":6,"visib":"6+","altim":1014,"clouds":[],"obsTime":1781557200},"SBPS":{"icaoId":"SBPS","flightCategory":"VFR","rawOb":"METAR SBPS 152100Z 04006KT 9999 FEW025 25/22 Q1016","temp":25,"dewp":22,"wdir":40,"wspd":6,"visib":"6+","altim":1016,"clouds":[{"cover":"FEW","base":2500}],"obsTime":1781557200},"SBSC":{"icaoId":"SBSC","flightCategory":"IFR","rawOb":"METAR SBSC 152100Z 22009KT 2500 -RA BR BKN005 OVC020 20/19 Q1018 RERA","temp":20,"dewp":19,"wdir":220,"wspd":9,"visib":1.55,"altim":1018,"clouds":[{"cover":"BKN","base":500},{"cover":"OVC","base":2000}],"obsTime":1781557200},"SBSM":{"icaoId":"SBSM","flightCategory":"VFR","rawOb":"METAR SBSM 152100Z 19003KT CAVOK 09/07 Q1022","temp":9,"dewp":7,"wdir":190,"wspd":3,"visib":"6+","altim":1022,"clouds":[],"obsTime":1781557200},"SBSR":{"icaoId":"SBSR","flightCategory":"VFR","rawOb":"METAR SBSR 152100Z 26004KT 9999 FEW025 FEW045TCU SCT080 23/20 Q1017","temp":23,"dewp":20,"wdir":260,"wspd":4,"visib":"6+","altim":1017,"clouds":[{"cover":"FEW","base":2500},{"cover":"FEW","base":4500},{"cover":"SCT","base":8000}],"obsTime":1781557200},"SBTF":{"icaoId":"SBTF","flightCategory":"VFR","rawOb":"METAR SBTF 152100Z 20004KT 9999 FEW020 30/25 Q1010","temp":30,"dewp":25,"wdir":200,"wspd":4,"visib":"6+","altim":1010,"clouds":[{"cover":"FEW","base":2000}],"obsTime":1781557200},"SBTT":{"icaoId":"SBTT","flightCategory":"VFR","rawOb":"METAR SBTT 152100Z 02002KT 9999 FEW014 SCT022 BKN100 25/23 Q1012","temp":25,"dewp":23,"wdir":20,"wspd":2,"visib":"6+","altim":1012,"clouds":[{"cover":"FEW","base":1400},{"cover":"SCT","base":2200},{"cover":"BKN","base":10000}],"obsTime":1781557200},"SBTU":{"icaoId":"SBTU","flightCategory":"VFR","rawOb":"METAR SBTU 152100Z AUTO 00000KT 9999 // SCT048/// SCT056/// ///// Q1013","temp":null,"dewp":null,"wdir":0,"wspd":0,"visib":"6+","altim":1013,"clouds":[{"cover":"SCT","base":4800},{"cover":"SCT","base":5600}],"obsTime":1781557200},"SBUY":{"icaoId":"SBUY","flightCategory":"VFR","rawOb":"METAR SBUY 152100Z 28002KT 9999 FEW025 FEW030TCU BKN100 25/25 Q1010","temp":25,"dewp":25,"wdir":280,"wspd":2,"visib":"6+","altim":1010,"clouds":[{"cover":"FEW","base":2500},{"cover":"FEW","base":3000},{"cover":"BKN","base":10000}],"obsTime":1781557200},"SBVH":{"icaoId":"SBVH","flightCategory":"VFR","rawOb":"METAR SBVH 152100Z 21009KT 9999 FEW040 25/22 Q1016","temp":25,"dewp":22,"wdir":210,"wspd":9,"visib":"6+","altim":1016,"clouds":[{"cover":"FEW","base":4000}],"obsTime":1781557200},"SBPB":{"icaoId":"SBPB","flightCategory":"VFR","rawOb":"METAR SBPB 152100Z 05010KT 9999 FEW020 29/25 Q1011","temp":29,"dewp":25,"wdir":50,"wspd":10,"visib":"6+","altim":1011,"clouds":[{"cover":"FEW","base":2000}],"obsTime":1781557200},"SBCJ":{"icaoId":"SBCJ","flightCategory":"VFR","rawOb":"METAR SBCJ 152100Z 08004KT 9999 FEW027 28/20 Q1016","temp":28,"dewp":20,"wdir":80,"wspd":4,"visib":"6+","altim":1016,"clouds":[{"cover":"FEW","base":2700}],"obsTime":1781557200},"SBPP":{"icaoId":"SBPP","flightCategory":"VFR","rawOb":"METAR SBPP 152100Z 20009KT CAVOK 16/12 Q1020","temp":16,"dewp":12,"wdir":200,"wspd":9,"visib":"6+","altim":1020,"clouds":[],"obsTime":1781557200},"SBAX":{"icaoId":"SBAX","flightCategory":"VFR","rawOb":"METAR SBAX 152100Z 25005KT 9999 SCT023 22/18 Q1020","temp":22,"dewp":18,"wdir":250,"wspd":5,"visib":"6+","altim":1020,"clouds":[{"cover":"SCT","base":2300}],"obsTime":1781557200},"SBTA":{"icaoId":"SBTA","flightCategory":"IFR","rawOb":"METAR SBTA 152100Z 14004KT 080V200 3000 -RA BR SCT010 BKN025 OVC030 17/16 Q1018","temp":17,"dewp":16,"wdir":140,"wspd":4,"visib":1.86,"altim":1018,"clouds":[{"cover":"SCT","base":1000},{"cover":"BKN","base":2500},{"cover":"OVC","base":3000}],"obsTime":1781557200},"SBJP":{"icaoId":"SBJP","flightCategory":"VFR","rawOb":"METAR SBJP 152100Z 13007KT 9999 FEW025 26/24 Q1014","temp":26,"dewp":24,"wdir":130,"wspd":7,"visib":"6+","altim":1014,"clouds":[{"cover":"FEW","base":2500}],"obsTime":1781557200},"SBLE":{"icaoId":"SBLE","flightCategory":"VFR","rawOb":"METAR SBLE 152100Z AUTO 01001KT CAVOK 22/22 Q1017","temp":22,"dewp":22,"wdir":10,"wspd":1,"visib":"6+","altim":1017,"clouds":[],"obsTime":1781557200},"SBJV":{"icaoId":"SBJV","flightCategory":"MVFR","rawOb":"METAR SBJV 152100Z 28002KT 9999 BKN015 BKN023 15/14 Q1021","temp":15,"dewp":14,"wdir":280,"wspd":2,"visib":"6+","altim":1021,"clouds":[{"cover":"BKN","base":1500},{"cover":"BKN","base":2300}],"obsTime":1781557200},"SBNM":{"icaoId":"SBNM","flightCategory":"VFR","rawOb":"METAR SBNM 152100Z AUTO 23002KT CAVOK 10/07 Q1021","temp":10,"dewp":7,"wdir":230,"wspd":2,"visib":"6+","altim":1021,"clouds":[],"obsTime":1781557200},"SBPF":{"icaoId":"SBPF","flightCategory":"VFR","rawOb":"METAR SBPF 152100Z 23005KT CAVOK 09/06 Q1021","temp":9,"dewp":6,"wdir":230,"wspd":5,"visib":"6+","altim":1021,"clouds":[],"obsTime":1781557200},"SBAN":{"icaoId":"SBAN","flightCategory":"VFR","rawOb":"METAR SBAN 152100Z 22004KT 9999 FEW030 23/17 Q1021","temp":23,"dewp":17,"wdir":220,"wspd":4,"visib":"6+","altim":1021,"clouds":[{"cover":"FEW","base":3000}],"obsTime":1781557200},"SBAF":{"icaoId":"SBAF","flightCategory":"IFR","rawOb":"METAR SBAF 152100Z 19012KT 3000 -RA BR BKN007 OVC025 21/21 Q1017","temp":21,"dewp":21,"wdir":190,"wspd":12,"visib":1.86,"altim":1017,"clouds":[{"cover":"BKN","base":700},{"cover":"OVC","base":2500}],"obsTime":1781557200},"SBGW":{"icaoId":"SBGW","flightCategory":"VFR","rawOb":"METAR SBGW 152100Z 21006KT 9999 SCT015 BKN035 19/15 Q1018","temp":19,"dewp":15,"wdir":210,"wspd":6,"visib":"6+","altim":1018,"clouds":[{"cover":"SCT","base":1500},{"cover":"BKN","base":3500}],"obsTime":1781557200},"SBJR":{"icaoId":"SBJR","flightCategory":"IFR","rawOb":"METAR SBJR 152100Z 17007KT 3000 -RA BR BKN005 OVC030 21/20 Q1017","temp":21,"dewp":20,"wdir":170,"wspd":7,"visib":1.86,"altim":1017,"clouds":[{"cover":"BKN","base":500},{"cover":"OVC","base":3000}],"obsTime":1781557200},"SBLS":{"icaoId":"SBLS","flightCategory":"VFR","rawOb":"METAR SBLS 152100Z 28003KT 9999 SCT040 BKN080 24/15 Q1019","temp":24,"dewp":15,"wdir":280,"wspd":3,"visib":"6+","altim":1019,"clouds":[{"cover":"SCT","base":4000},{"cover":"BKN","base":8000}],"obsTime":1781557200},"SBMT":{"icaoId":"SBMT","flightCategory":"IFR","rawOb":"METAR SBMT 152100Z 18005KT 5000 -RA BR BKN009 OVC011 14/14 Q1020","temp":14,"dewp":14,"wdir":180,"wspd":5,"visib":3.11,"altim":1020,"clouds":[{"cover":"BKN","base":900},{"cover":"OVC","base":1100}],"obsTime":1781557200},"SBIH":{"icaoId":"SBIH","flightCategory":"VFR","rawOb":"METAR SBIH 152100Z 00000KT 9999 FEW020 29/24 Q1010","temp":29,"dewp":24,"wdir":0,"wspd":0,"visib":"6+","altim":1010,"clouds":[{"cover":"FEW","base":2000}],"obsTime":1781557200},"SBST":{"icaoId":"SBST","flightCategory":"IFR","rawOb":"METAR SBST 152100Z 20002KT 4000 -RA BR BKN006 OVC012 17/17 Q1019","temp":17,"dewp":17,"wdir":200,"wspd":2,"visib":2.49,"altim":1019,"clouds":[{"cover":"BKN","base":600},{"cover":"OVC","base":1200}],"obsTime":1781557200}}}