{"updated":1782204746,"count":53,"data":{"SBFI":{"icaoId":"SBFI","flightCategory":"VFR","rawOb":"METAR SBFI 230700Z 25002KT CAVOK 06/06 Q1020","temp":6,"dewp":6,"wdir":250,"wspd":2,"visib":"6+","altim":1020,"clouds":[],"obsTime":1782198000},"SBBR":{"icaoId":"SBBR","flightCategory":"VFR","rawOb":"METAR SBBR 230700Z 00000KT CAVOK 15/13 Q1019","temp":15,"dewp":13,"wdir":0,"wspd":0,"visib":"6+","altim":1019,"clouds":[],"obsTime":1782198000},"SBRF":{"icaoId":"SBRF","flightCategory":"MVFR","rawOb":"METAR SBRF 230700Z 24006KT 9999 BKN017 BKN050 23/22 Q1014","temp":23,"dewp":22,"wdir":240,"wspd":6,"visib":"6+","altim":1014,"clouds":[{"cover":"BKN","base":1700},{"cover":"BKN","base":5000}],"obsTime":1782198000},"SBBV":{"icaoId":"SBBV","flightCategory":"VFR","rawOb":"METAR SBBV 230700Z 08005KT 9999 SCT040 FEW045TCU BKN100 26/24 Q1012","temp":26,"dewp":24,"wdir":80,"wspd":5,"visib":"6+","altim":1012,"clouds":[{"cover":"SCT","base":4000},{"cover":"FEW","base":4500},{"cover":"BKN","base":10000}],"obsTime":1782198000},"SBCF":{"icaoId":"SBCF","flightCategory":"VFR","rawOb":"METAR SBCF 230700Z VRB02KT CAVOK 14/13 Q1019","temp":14,"dewp":13,"wdir":"VRB","wspd":2,"visib":"6+","altim":1019,"clouds":[],"obsTime":1782198000},"SBCG":{"icaoId":"SBCG","flightCategory":"IFR","rawOb":"METAR SBCG 230700Z 13010KT 9999 BKN009 13/12 Q1017","temp":13,"dewp":12,"wdir":130,"wspd":10,"visib":"6+","altim":1017,"clouds":[{"cover":"BKN","base":900}],"obsTime":1782198000},"SBCT":{"icaoId":"SBCT","flightCategory":"MVFR","rawOb":"METAR SBCT 230700Z 26005KT 9999 BKN013 BKN025 13/11 Q1015","temp":13,"dewp":11,"wdir":260,"wspd":5,"visib":"6+","altim":1015,"clouds":[{"cover":"BKN","base":1300},{"cover":"BKN","base":2500}],"obsTime":1782198000},"SBEG":{"icaoId":"SBEG","flightCategory":"VFR","rawOb":"METAR SBEG 230700Z 30001KT CAVOK 25/23 Q1012","temp":25,"dewp":23,"wdir":300,"wspd":1,"visib":"6+","altim":1012,"clouds":[],"obsTime":1782198000},"SBFL":{"icaoId":"SBFL","flightCategory":"VFR","rawOb":"METAR SBFL 230700Z 15006KT 9999 SCT015 14/12 Q1013","temp":14,"dewp":12,"wdir":150,"wspd":6,"visib":"6+","altim":1013,"clouds":[{"cover":"SCT","base":1500}],"obsTime":1782198000},"SBFZ":{"icaoId":"SBFZ","flightCategory":"MVFR","rawOb":"METAR SBFZ 230700Z 13008KT 9999 BKN016 27/23 Q1012","temp":27,"dewp":23,"wdir":130,"wspd":8,"visib":"6+","altim":1012,"clouds":[{"cover":"BKN","base":1600}],"obsTime":1782198000},"SBGL":{"icaoId":"SBGL","flightCategory":"MVFR","rawOb":"METAR SBGL 230700Z 27003KT 7000 NSC 18/17 Q1012","temp":18,"dewp":17,"wdir":270,"wspd":3,"visib":4.35,"altim":1012,"clouds":[],"obsTime":1782198000},"SBGO":{"icaoId":"SBGO","flightCategory":"VFR","rawOb":"METAR SBGO 230700Z 28003KT CAVOK 17/16 Q1017","temp":17,"dewp":16,"wdir":280,"wspd":3,"visib":"6+","altim":1017,"clouds":[],"obsTime":1782198000},"SBGR":{"icaoId":"SBGR","flightCategory":"VFR","rawOb":"METAR SBGR 230700Z 28007KT CAVOK 21/12 Q1016","temp":21,"dewp":12,"wdir":280,"wspd":7,"visib":"6+","altim":1016,"clouds":[],"obsTime":1782198000},"SBJU":{"icaoId":"SBJU","flightCategory":"VFR","rawOb":"METAR SBJU 230700Z 00000KT 9999 FEW020 21/17 Q1015","temp":21,"dewp":17,"wdir":0,"wspd":0,"visib":"6+","altim":1015,"clouds":[{"cover":"FEW","base":2000}],"obsTime":1782198000},"SBKP":{"icaoId":"SBKP","flightCategory":"VFR","rawOb":"METAR SBKP 230700Z 00000KT 9999 FEW045 BKN070 19/13 Q1016","temp":19,"dewp":13,"wdir":0,"wspd":0,"visib":"6+","altim":1016,"clouds":[{"cover":"FEW","base":4500},{"cover":"BKN","base":7000}],"obsTime":1782198000},"SBLO":{"icaoId":"SBLO","flightCategory":"MVFR","rawOb":"METAR SBLO 230700Z 27005KT 9999 FEW005 BKN013 16/15 Q1015","temp":16,"dewp":15,"wdir":270,"wspd":5,"visib":"6+","altim":1015,"clouds":[{"cover":"FEW","base":500},{"cover":"BKN","base":1300}],"obsTime":1782198000},"SBMA":{"icaoId":"SBMA","flightCategory":"VFR","rawOb":"METAR SBMA 230700Z 21003KT CAVOK 24/23 Q1011","temp":24,"dewp":23,"wdir":210,"wspd":3,"visib":"6+","altim":1011,"clouds":[],"obsTime":1782198000},"SBME":{"icaoId":"SBME","flightCategory":"VFR","rawOb":"METAR SBME 230700Z 03007KT CAVOK 18/17 Q1013","temp":18,"dewp":17,"wdir":30,"wspd":7,"visib":"6+","altim":1013,"clouds":[],"obsTime":1782198000},"SBMG":{"icaoId":"SBMG","flightCategory":"MVFR","rawOb":"METAR SBMG 230700Z AUTO 27005KT 9999 FEW001 BKN019 11/10 Q1015","temp":11,"dewp":10,"wdir":270,"wspd":5,"visib":"6+","altim":1015,"clouds":[{"cover":"FEW","base":100},{"cover":"BKN","base":1900}],"obsTime":1782198000},"SBMK":{"icaoId":"SBMK","flightCategory":"VFR","rawOb":"METAR SBMK 230800Z 36002KT CAVOK 13/12 Q1018","temp":13,"dewp":12,"wdir":360,"wspd":2,"visib":"6+","altim":1018,"clouds":[],"obsTime":1782201600},"SBMO":{"icaoId":"SBMO","flightCategory":"VFR","rawOb":"METAR SBMO 230700Z 28004KT 9999 FEW020 BKN060 22/22 Q1015","temp":22,"dewp":22,"wdir":280,"wspd":4,"visib":"6+","altim":1015,"clouds":[{"cover":"FEW","base":2000},{"cover":"BKN","base":6000}],"obsTime":1782198000},"SBMQ":{"icaoId":"SBMQ","flightCategory":"VFR","rawOb":"METAR SBMQ 230700Z 36002KT 9999 SCT017 26/25 Q1012","temp":26,"dewp":25,"wdir":360,"wspd":2,"visib":"6+","altim":1012,"clouds":[{"cover":"SCT","base":1700}],"obsTime":1782198000},"SBNT":{"icaoId":"SBNT","flightCategory":"VFR","rawOb":"METAR SBNT 230700Z 17005KT 9999 SCT020 SCT040 24/22 Q1012","temp":24,"dewp":22,"wdir":170,"wspd":5,"visib":"6+","altim":1012,"clouds":[{"cover":"SCT","base":2000},{"cover":"SCT","base":4000}],"obsTime":1782198000},"SBPA":{"icaoId":"SBPA","flightCategory":"VFR","rawOb":"METAR SBPA 230700Z 29007KT CAVOK 08/07 Q1017","temp":8,"dewp":7,"wdir":290,"wspd":7,"visib":"6+","altim":1017,"clouds":[],"obsTime":1782198000},"SBPJ":{"icaoId":"SBPJ","flightCategory":"VFR","rawOb":"METAR SBPJ 230700Z 13003KT CAVOK 20/16 Q1013","temp":20,"dewp":16,"wdir":130,"wspd":3,"visib":"6+","altim":1013,"clouds":[],"obsTime":1782198000},"SBPV":{"icaoId":"SBPV","flightCategory":"MVFR","rawOb":"METAR SBPV 230700Z 00000KT 8000 FEW035 24/23 Q1013","temp":24,"dewp":23,"wdir":0,"wspd":0,"visib":4.97,"altim":1013,"clouds":[{"cover":"FEW","base":3500}],"obsTime":1782198000},"SBRB":{"icaoId":"SBRB","flightCategory":"VFR","rawOb":"METAR SBRB 230700Z 36001KT CAVOK 23/22 Q1012","temp":23,"dewp":22,"wdir":360,"wspd":1,"visib":"6+","altim":1012,"clouds":[],"obsTime":1782198000},"SBBE":{"icaoId":"SBBE","flightCategory":"VFR","rawOb":"METAR SBBE 230700Z 07005KT 9999 FEW045 26/24 Q1012","temp":26,"dewp":24,"wdir":70,"wspd":5,"visib":"6+","altim":1012,"clouds":[{"cover":"FEW","base":4500}],"obsTime":1782198000},"SBSG":{"icaoId":"SBSG","flightCategory":"MVFR","rawOb":"METAR SBSG 230700Z 17003KT 9999 BKN020 23/22 Q1013","temp":23,"dewp":22,"wdir":170,"wspd":3,"visib":"6+","altim":1013,"clouds":[{"cover":"BKN","base":2000}],"obsTime":1782198000},"SBSL":{"icaoId":"SBSL","flightCategory":"VFR","rawOb":"METAR SBSL 230700Z 14008KT 9999 FEW017 BKN080 26/24 Q1011","temp":26,"dewp":24,"wdir":140,"wspd":8,"visib":"6+","altim":1011,"clouds":[{"cover":"FEW","base":1700},{"cover":"BKN","base":8000}],"obsTime":1782198000},"SBSN":{"icaoId":"SBSN","flightCategory":"VFR","rawOb":"METAR SBSN 230700Z 16002KT CAVOK 24/23 Q1011","temp":24,"dewp":23,"wdir":160,"wspd":2,"visib":"6+","altim":1011,"clouds":[],"obsTime":1782198000},"SBSP":{"icaoId":"SBSP","flightCategory":"VFR","rawOb":"METAR SBSP 230700Z AUTO 35003KT 320V030 CAVOK 19/13 Q1016","temp":19,"dewp":13,"wdir":350,"wspd":3,"visib":"6+","altim":1016,"clouds":[],"obsTime":1782198000},"SBSV":{"icaoId":"SBSV","flightCategory":"VFR","rawOb":"METAR SBSV 230700Z 28001KT CAVOK 20/19 Q1016","temp":20,"dewp":19,"wdir":280,"wspd":1,"visib":"6+","altim":1016,"clouds":[],"obsTime":1782198000},"SBTE":{"icaoId":"SBTE","flightCategory":"VFR","rawOb":"METAR SBTE 230700Z 00000KT CAVOK 26/23 Q1011","temp":26,"dewp":23,"wdir":0,"wspd":0,"visib":"6+","altim":1011,"clouds":[],"obsTime":1782198000},"SBUL":{"icaoId":"SBUL","flightCategory":"VFR","rawOb":"METAR SBUL 230700Z 09006KT CAVOK 18/12 Q1018","temp":18,"dewp":12,"wdir":90,"wspd":6,"visib":"6+","altim":1018,"clouds":[],"obsTime":1782198000},"SBUR":{"icaoId":"SBUR","flightCategory":"VFR","rawOb":"METAR SBUR 230700Z 03006KT CAVOK 19/12 Q1016","temp":19,"dewp":12,"wdir":30,"wspd":6,"visib":"6+","altim":1016,"clouds":[],"obsTime":1782198000},"SBVT":{"icaoId":"SBVT","flightCategory":"VFR","rawOb":"METAR SBVT 230700Z VRB02KT CAVOK 16/16 Q1016","temp":16,"dewp":16,"wdir":"VRB","wspd":2,"visib":"6+","altim":1016,"clouds":[],"obsTime":1782198000},"SBSJ":{"icaoId":"SBSJ","flightCategory":"VFR","rawOb":"SPECI SBSJ 230830Z VRB02KT CAVOK 16/13 Q1016","temp":16,"dewp":13,"wdir":"VRB","wspd":2,"visib":"6+","altim":1016,"clouds":[],"obsTime":1782203400},"SBOI":{"icaoId":"SBOI","flightCategory":"LIFR","rawOb":"METAR SBOI 230700Z AUTO VRB01KT 0650 FG VV001 23/23 Q1012","temp":23,"dewp":23,"wdir":"VRB","wspd":1,"visib":0.4,"altim":1012,"clouds":[{"cover":"OVX","base":100}],"obsTime":1782198000},"SBPS":{"icaoId":"SBPS","flightCategory":"VFR","rawOb":"METAR SBPS 230700Z 26004KT 9999 FEW025 18/17 Q1017","temp":18,"dewp":17,"wdir":260,"wspd":4,"visib":"6+","altim":1017,"clouds":[{"cover":"FEW","base":2500}],"obsTime":1782198000},"SBSC":{"icaoId":"SBSC","flightCategory":"VFR","rawOb":"METAR SBSC 230700Z 02007KT CAVOK 18/16 Q1012","temp":18,"dewp":16,"wdir":20,"wspd":7,"visib":"6+","altim":1012,"clouds":[],"obsTime":1782198000},"SBAR":{"icaoId":"SBAR","flightCategory":"VFR","rawOb":"METAR SBAR 230700Z 27004KT 9999 FEW017 SCT045 22/21 Q1015","temp":22,"dewp":21,"wdir":270,"wspd":4,"visib":"6+","altim":1015,"clouds":[{"cover":"FEW","base":1700},{"cover":"SCT","base":4500}],"obsTime":1782198000},"SBSR":{"icaoId":"SBSR","flightCategory":"VFR","rawOb":"METAR SBSR 230700Z 21003KT 9999 FEW035 SCT070 20/18 Q1015","temp":20,"dewp":18,"wdir":210,"wspd":3,"visib":"6+","altim":1015,"clouds":[{"cover":"FEW","base":3500},{"cover":"SCT","base":7000}],"obsTime":1782198000},"SBKG":{"icaoId":"SBKG","flightCategory":"IFR","rawOb":"METAR SBKG 230700Z 13004KT 6000 BKN007 21/21 Q1016","temp":21,"dewp":21,"wdir":130,"wspd":4,"visib":3.73,"altim":1016,"clouds":[{"cover":"BKN","base":700}],"obsTime":1782198000},"SBTU":{"icaoId":"SBTU","flightCategory":"VFR","rawOb":"METAR SBTU 230700Z AUTO VRB01KT 9999 // NCD ///// Q1013","temp":null,"dewp":null,"wdir":"VRB","wspd":1,"visib":"6+","altim":1013,"clouds":[],"obsTime":1782198000},"SBPL":{"icaoId":"SBPL","flightCategory":"VFR","rawOb":"METAR SBPL 230700Z 12007KT CAVOK 21/16 Q1016","temp":21,"dewp":16,"wdir":120,"wspd":7,"visib":"6+","altim":1016,"clouds":[],"obsTime":1782198000},"SBDN":{"icaoId":"SBDN","flightCategory":"IFR","rawOb":"METAR SBDN 230700Z 22006KT 9999 SCT004 OVC008 15/14 Q1014","temp":15,"dewp":14,"wdir":220,"wspd":6,"visib":"6+","altim":1014,"clouds":[{"cover":"SCT","base":400},{"cover":"OVC","base":800}],"obsTime":1782198000},"SBAX":{"icaoId":"SBAX","flightCategory":"VFR","rawOb":"METAR SBAX 230700Z AUTO 12005KT CAVOK 15/12 Q1019","temp":15,"dewp":12,"wdir":120,"wspd":5,"visib":"6+","altim":1019,"clouds":[],"obsTime":1782198000},"SBIP":{"icaoId":"SBIP","flightCategory":"LIFR","rawOb":"METAR SBIP 230700Z AUTO 03002KT 0650 FG VV001 14/14 Q1017","temp":14,"dewp":14,"wdir":30,"wspd":2,"visib":0.4,"altim":1017,"clouds":[{"cover":"OVX","base":100}],"obsTime":1782198000},"SBNM":{"icaoId":"SBNM","flightCategory":"VFR","rawOb":"METAR SBNM 230800Z AUTO 30004KT CAVOK 06/06 Q1020","temp":6,"dewp":6,"wdir":300,"wspd":4,"visib":"6+","altim":1020,"clouds":[],"obsTime":1782201600},"SBLE":{"icaoId":"SBLE","flightCategory":"VFR","rawOb":"METAR SBLE 230700Z AUTO 31002KT CAVOK ///// Q////","temp":null,"dewp":null,"wdir":310,"wspd":2,"visib":"6+","altim":null,"clouds":[],"obsTime":1782198000},"SBAN":{"icaoId":"SBAN","flightCategory":"VFR","rawOb":"METAR SBAN 230700Z 04003KT CAVOK 16/13 Q1022","temp":16,"dewp":13,"wdir":40,"wspd":3,"visib":"6+","altim":1022,"clouds":[],"obsTime":1782198000},"SBJP":{"icaoId":"SBJP","flightCategory":"MVFR","rawOb":"METAR SBJP 230700Z 18006KT 9999 BKN018 23/23 Q1014","temp":23,"dewp":23,"wdir":180,"wspd":6,"visib":"6+","altim":1014,"clouds":[{"cover":"BKN","base":1800}],"obsTime":1782198000}}}