{"updated":1777448206,"count":50,"data":{"SBMA":{"icaoId":"SBMA","flightCategory":"VFR","rawOb":"METAR SBMA 290600Z 00000KT 9999 FEW016 25/24 Q1010","temp":25,"dewp":24,"wdir":0,"wspd":0,"visib":"6+","altim":1010,"clouds":[{"cover":"FEW","base":1600}],"obsTime":1777442400},"SBSP":{"icaoId":"SBSP","flightCategory":"MVFR","rawOb":"SPECI SBSP 290546Z AUTO 19002KT 9999 OVC010 20/19 Q1018","temp":20,"dewp":19,"wdir":190,"wspd":2,"visib":"6+","altim":1018,"clouds":[{"cover":"OVC","base":1000}],"obsTime":1777441560},"SBVT":{"icaoId":"SBVT","flightCategory":"MVFR","rawOb":"METAR SBVT 290600Z 27003KT 9999 BKN020 22/21 Q1015","temp":22,"dewp":21,"wdir":270,"wspd":3,"visib":"6+","altim":1015,"clouds":[{"cover":"BKN","base":2000}],"obsTime":1777442400},"SBBR":{"icaoId":"SBBR","flightCategory":"VFR","rawOb":"METAR SBBR 290600Z 30003KT CAVOK 17/15 Q1018","temp":17,"dewp":15,"wdir":300,"wspd":3,"visib":"6+","altim":1018,"clouds":[],"obsTime":1777442400},"SBUR":{"icaoId":"SBUR","flightCategory":"VFR","rawOb":"METAR SBUR 290600Z 03004KT CAVOK 23/16 Q1017","temp":23,"dewp":16,"wdir":30,"wspd":4,"visib":"6+","altim":1017,"clouds":[],"obsTime":1777442400},"SBBV":{"icaoId":"SBBV","flightCategory":"VFR","rawOb":"METAR SBBV 290600Z 10004KT CAVOK 26/23 Q1010","temp":26,"dewp":23,"wdir":100,"wspd":4,"visib":"6+","altim":1010,"clouds":[],"obsTime":1777442400},"SBUL":{"icaoId":"SBUL","flightCategory":"VFR","rawOb":"METAR SBUL 290600Z 13006KT CAVOK 21/16 Q1018","temp":21,"dewp":16,"wdir":130,"wspd":6,"visib":"6+","altim":1018,"clouds":[],"obsTime":1777442400},"SBCF":{"icaoId":"SBCF","flightCategory":"VFR","rawOb":"METAR SBCF 290600Z 12006KT CAVOK 20/17 Q1019","temp":20,"dewp":17,"wdir":120,"wspd":6,"visib":"6+","altim":1019,"clouds":[],"obsTime":1777442400},"SBTE":{"icaoId":"SBTE","flightCategory":"VFR","rawOb":"METAR SBTE 290600Z 33003KT 9999 SCT007 25/24 Q1009","temp":25,"dewp":24,"wdir":330,"wspd":3,"visib":"6+","altim":1009,"clouds":[{"cover":"SCT","base":700}],"obsTime":1777442400},"SBCG":{"icaoId":"SBCG","flightCategory":"VFR","rawOb":"METAR SBCG 290600Z 06006KT 9999 FEW045 22/20 Q1014","temp":22,"dewp":20,"wdir":60,"wspd":6,"visib":"6+","altim":1014,"clouds":[{"cover":"FEW","base":4500}],"obsTime":1777442400},"SBCT":{"icaoId":"SBCT","flightCategory":"LIFR","rawOb":"METAR SBCT 290600Z 03004KT 360V060 7000 OVC004 16/16 Q1017","temp":16,"dewp":16,"wdir":30,"wspd":4,"visib":4.35,"altim":1017,"clouds":[{"cover":"OVC","base":400}],"obsTime":1777442400},"SBSV":{"icaoId":"SBSV","flightCategory":"VFR","rawOb":"METAR SBSV 290600Z 09011KT 9999 SCT021 FEW025TCU BKN060 27/22 Q1013","temp":27,"dewp":22,"wdir":90,"wspd":11,"visib":"6+","altim":1013,"clouds":[{"cover":"SCT","base":2100},{"cover":"FEW","base":2500},{"cover":"BKN","base":6000}],"obsTime":1777442400},"SBEG":{"icaoId":"SBEG","flightCategory":"VFR","rawOb":"METAR SBEG 290600Z 09003KT 9999 FEW010 SCT100 26/25 Q1010","temp":26,"dewp":25,"wdir":90,"wspd":3,"visib":"6+","altim":1010,"clouds":[{"cover":"FEW","base":1000},{"cover":"SCT","base":10000}],"obsTime":1777442400},"SBFI":{"icaoId":"SBFI","flightCategory":"VFR","rawOb":"METAR SBFI 290600Z 09005KT 9999 SCT020 BKN070 15/15 Q1013","temp":15,"dewp":15,"wdir":90,"wspd":5,"visib":"6+","altim":1013,"clouds":[{"cover":"SCT","base":2000},{"cover":"BKN","base":7000}],"obsTime":1777442400},"SBFL":{"icaoId":"SBFL","flightCategory":"VFR","rawOb":"METAR SBFL 290600Z 30007KT 9999 SCT010 BKN100 18/17 Q1014","temp":18,"dewp":17,"wdir":300,"wspd":7,"visib":"6+","altim":1014,"clouds":[{"cover":"SCT","base":1000},{"cover":"BKN","base":10000}],"obsTime":1777442400},"SBSN":{"icaoId":"SBSN","flightCategory":"VFR","rawOb":"METAR SBSN 290600Z 16003KT 9999 FEW020 BKN070 25/24 Q1009","temp":25,"dewp":24,"wdir":160,"wspd":3,"visib":"6+","altim":1009,"clouds":[{"cover":"FEW","base":2000},{"cover":"BKN","base":7000}],"obsTime":1777442400},"SBFZ":{"icaoId":"SBFZ","flightCategory":"VFR","rawOb":"METAR SBFZ 290600Z 17005KT 9999 SCT025 25/24 Q1009","temp":25,"dewp":24,"wdir":170,"wspd":5,"visib":"6+","altim":1009,"clouds":[{"cover":"SCT","base":2500}],"obsTime":1777442400},"SBSL":{"icaoId":"SBSL","flightCategory":"VFR","rawOb":"METAR SBSL 290600Z 00000KT 9999 FEW025 BKN080 25/24 Q1009","temp":25,"dewp":24,"wdir":0,"wspd":0,"visib":"6+","altim":1009,"clouds":[{"cover":"FEW","base":2500},{"cover":"BKN","base":8000}],"obsTime":1777442400},"SBGL":{"icaoId":"SBGL","flightCategory":"MVFR","rawOb":"METAR SBGL 290600Z VRB02KT 7000 FEW015 24/22 Q1013","temp":24,"dewp":22,"wdir":"VRB","wspd":2,"visib":4.35,"altim":1013,"clouds":[{"cover":"FEW","base":1500}],"obsTime":1777442400},"SBSG":{"icaoId":"SBSG","flightCategory":"VFR","rawOb":"METAR SBSG 290600Z 19003KT 160V230 9999 FEW020 24/24 Q1010","temp":24,"dewp":24,"wdir":190,"wspd":3,"visib":"6+","altim":1010,"clouds":[{"cover":"FEW","base":2000}],"obsTime":1777442400},"SBGO":{"icaoId":"SBGO","flightCategory":"VFR","rawOb":"METAR SBGO 290600Z 35003KT CAVOK 21/19 Q1016","temp":21,"dewp":19,"wdir":350,"wspd":3,"visib":"6+","altim":1016,"clouds":[],"obsTime":1777442400},"SBRF":{"icaoId":"SBRF","flightCategory":"MVFR","rawOb":"METAR SBRF 290600Z 10002KT 8000 VCSH BKN020 FEW025TCU BKN050 24/22 Q1011 RERA","temp":24,"dewp":22,"wdir":100,"wspd":2,"visib":4.97,"altim":1011,"clouds":[{"cover":"BKN","base":2000},{"cover":"FEW","base":2500},{"cover":"BKN","base":5000}],"obsTime":1777442400},"SBGR":{"icaoId":"SBGR","flightCategory":"IFR","rawOb":"METAR SBGR 290600Z 03003KT 8000 OVC005 21/20 Q1017","temp":21,"dewp":20,"wdir":30,"wspd":3,"visib":4.97,"altim":1017,"clouds":[{"cover":"OVC","base":500}],"obsTime":1777442400},"SBRB":{"icaoId":"SBRB","flightCategory":"MVFR","rawOb":"METAR SBRB 290600Z 23004KT 8000 FEW004 BKN023 23/23 Q1011","temp":23,"dewp":23,"wdir":230,"wspd":4,"visib":4.97,"altim":1011,"clouds":[{"cover":"FEW","base":400},{"cover":"BKN","base":2300}],"obsTime":1777442400},"SBJU":{"icaoId":"SBJU","flightCategory":"MVFR","rawOb":"METAR SBJU 290600Z 00000KT 9999 FEW010 BKN018 22/22 Q1013","temp":22,"dewp":22,"wdir":0,"wspd":0,"visib":"6+","altim":1013,"clouds":[{"cover":"FEW","base":1000},{"cover":"BKN","base":1800}],"obsTime":1777442400},"SBKP":{"icaoId":"SBKP","flightCategory":"MVFR","rawOb":"METAR SBKP 290600Z 12006KT 5000 BR NSC 21/20 Q1016","temp":21,"dewp":20,"wdir":120,"wspd":6,"visib":3.11,"altim":1016,"clouds":[],"obsTime":1777442400},"SBPV":{"icaoId":"SBPV","flightCategory":"VFR","rawOb":"METAR SBPV 290600Z 00000KT CAVOK 25/23 Q1011","temp":25,"dewp":23,"wdir":0,"wspd":0,"visib":"6+","altim":1011,"clouds":[],"obsTime":1777442400},"SBMG":{"icaoId":"SBMG","flightCategory":"VFR","rawOb":"METAR SBMG 290600Z AUTO 07005KT CAVOK 20/20 Q1013","temp":20,"dewp":20,"wdir":70,"wspd":5,"visib":"6+","altim":1013,"clouds":[],"obsTime":1777442400},"SBLO":{"icaoId":"SBLO","flightCategory":"LIFR","rawOb":"METAR SBLO 290600Z VRB02KT 0400 R13/0300N FG BKN002 21/21 Q1015","temp":21,"dewp":21,"wdir":"VRB","wspd":2,"visib":0.25,"altim":1015,"clouds":[{"cover":"BKN","base":200}],"obsTime":1777442400},"SBPJ":{"icaoId":"SBPJ","flightCategory":"VFR","rawOb":"METAR SBPJ 290600Z 14006KT 9000 -TSRA FEW018 FEW027CB BKN050 25/24 Q1012","temp":25,"dewp":24,"wdir":140,"wspd":6,"visib":5.59,"altim":1012,"clouds":[{"cover":"FEW","base":1800},{"cover":"FEW","base":2700},{"cover":"BKN","base":5000}],"obsTime":1777442400},"SBBE":{"icaoId":"SBBE","flightCategory":"VFR","rawOb":"METAR SBBE 290600Z 17004KT CAVOK 24/24 Q1009","temp":24,"dewp":24,"wdir":170,"wspd":4,"visib":"6+","altim":1009,"clouds":[],"obsTime":1777442400},"SBNT":{"icaoId":"SBNT","flightCategory":"VFR","rawOb":"METAR SBNT 290600Z 18004KT 9999 SCT017 BKN090 25/24 Q1010","temp":25,"dewp":24,"wdir":180,"wspd":4,"visib":"6+","altim":1010,"clouds":[{"cover":"SCT","base":1700},{"cover":"BKN","base":9000}],"obsTime":1777442400},"SBMQ":{"icaoId":"SBMQ","flightCategory":"VFR","rawOb":"METAR SBMQ 290600Z 36003KT 9999 SCT036 BKN046 26/26 Q1010","temp":26,"dewp":26,"wdir":360,"wspd":3,"visib":"6+","altim":1010,"clouds":[{"cover":"SCT","base":3600},{"cover":"BKN","base":4600}],"obsTime":1777442400},"SBMO":{"icaoId":"SBMO","flightCategory":"VFR","rawOb":"METAR SBMO 290600Z 07002KT 9999 FEW027 SCT033 BKN060 24/23 Q1012","temp":24,"dewp":23,"wdir":70,"wspd":2,"visib":"6+","altim":1012,"clouds":[{"cover":"FEW","base":2700},{"cover":"SCT","base":3300},{"cover":"BKN","base":6000}],"obsTime":1777442400},"SBPA":{"icaoId":"SBPA","flightCategory":"VFR","rawOb":"METAR SBPA 290600Z VRB01KT CAVOK 10/08 Q1014","temp":10,"dewp":8,"wdir":"VRB","wspd":1,"visib":"6+","altim":1014,"clouds":[],"obsTime":1777442400},"SBME":{"icaoId":"SBME","flightCategory":"VFR","rawOb":"METAR SBME 290600Z 05005KT CAVOK 24/22 Q1013","temp":24,"dewp":22,"wdir":50,"wspd":5,"visib":"6+","altim":1013,"clouds":[],"obsTime":1777442400},"SBIP":{"icaoId":"SBIP","flightCategory":"VFR","rawOb":"METAR SBIP 290600Z AUTO 00000KT CAVOK 19/19 Q1016","temp":19,"dewp":19,"wdir":0,"wspd":0,"visib":"6+","altim":1016,"clouds":[],"obsTime":1777442400},"SBOI":{"icaoId":"SBOI","flightCategory":"LIFR","rawOb":"METAR SBOI 290600Z AUTO 27002KT 8000 // FEW001/// BKN003/// BKN049/// 24/24 Q1010","temp":24,"dewp":24,"wdir":270,"wspd":2,"visib":4.97,"altim":1010,"clouds":[{"cover":"FEW","base":100},{"cover":"BKN","base":300},{"cover":"BKN","base":4900}],"obsTime":1777442400},"SBPS":{"icaoId":"SBPS","flightCategory":"MVFR","rawOb":"METAR SBPS 290600Z 27004KT 230V310 9999 VCSH SCT002 BKN025 23/22 Q1014","temp":23,"dewp":22,"wdir":270,"wspd":4,"visib":"6+","altim":1014,"clouds":[{"cover":"SCT","base":200},{"cover":"BKN","base":2500}],"obsTime":1777442400},"SBAR":{"icaoId":"SBAR","flightCategory":"VFR","rawOb":"METAR SBAR 290600Z 09010KT 9999 VCSH FEW027 FEW030TCU BKN050 27/22 Q1012","temp":27,"dewp":22,"wdir":90,"wspd":10,"visib":"6+","altim":1012,"clouds":[{"cover":"FEW","base":2700},{"cover":"FEW","base":3000},{"cover":"BKN","base":5000}],"obsTime":1777442400},"SBSC":{"icaoId":"SBSC","flightCategory":"MVFR","rawOb":"METAR SBSC 290600Z 35005KT 5000 BR SCT010 BKN015 OVC050 23/22 Q1013","temp":23,"dewp":22,"wdir":350,"wspd":5,"visib":3.11,"altim":1013,"clouds":[{"cover":"SCT","base":1000},{"cover":"BKN","base":1500},{"cover":"OVC","base":5000}],"obsTime":1777442400},"SBSR":{"icaoId":"SBSR","flightCategory":"VFR","rawOb":"METAR SBSR 290600Z 15002KT CAVOK 24/20 Q1014","temp":24,"dewp":20,"wdir":150,"wspd":2,"visib":"6+","altim":1014,"clouds":[],"obsTime":1777442400},"SBCA":{"icaoId":"SBCA","flightCategory":"LIFR","rawOb":"METAR SBCA 290600Z 15004KT 3000 -RA BR BCFG SCT002 BKN004 FEW040TCU BKN070 13/13 Q1014 RERA","temp":13,"dewp":13,"wdir":150,"wspd":4,"visib":1.86,"altim":1014,"clouds":[{"cover":"SCT","base":200},{"cover":"BKN","base":400},{"cover":"FEW","base":4000},{"cover":"BKN","base":7000}],"obsTime":1777442400},"SBKG":{"icaoId":"SBKG","flightCategory":"IFR","rawOb":"METAR SBKG 290600Z 14005KT 9999 BKN006 SCT070 22/21 Q1013","temp":22,"dewp":21,"wdir":140,"wspd":5,"visib":"6+","altim":1013,"clouds":[{"cover":"BKN","base":600},{"cover":"SCT","base":7000}],"obsTime":1777442400},"SBAX":{"icaoId":"SBAX","flightCategory":"VFR","rawOb":"METAR SBAX 290600Z AUTO 11002KT CAVOK 21/15 Q1018","temp":21,"dewp":15,"wdir":110,"wspd":2,"visib":"6+","altim":1018,"clouds":[],"obsTime":1777442400},"SBDN":{"icaoId":"SBDN","flightCategory":"VFR","rawOb":"METAR SBDN 290600Z 08003KT CAVOK 21/20 Q1013","temp":21,"dewp":20,"wdir":80,"wspd":3,"visib":"6+","altim":1013,"clouds":[],"obsTime":1777442400},"SBPL":{"icaoId":"SBPL","flightCategory":"VFR","rawOb":"METAR SBPL 290600Z 10008KT CAVOK 25/21 Q1013","temp":25,"dewp":21,"wdir":100,"wspd":8,"visib":"6+","altim":1013,"clouds":[],"obsTime":1777442400},"SBJP":{"icaoId":"SBJP","flightCategory":"MVFR","rawOb":"METAR SBJP 290600Z 18004KT 9999 SCT010 BKN020 24/24 Q1011","temp":24,"dewp":24,"wdir":180,"wspd":4,"visib":"6+","altim":1011,"clouds":[{"cover":"SCT","base":1000},{"cover":"BKN","base":2000}],"obsTime":1777442400},"SBLE":{"icaoId":"SBLE","flightCategory":"MVFR","rawOb":"METAR SBLE 290600Z AUTO 00000KT 9999 BKN030 ///// Q////","temp":null,"dewp":null,"wdir":0,"wspd":0,"visib":"6+","altim":null,"clouds":[{"cover":"BKN","base":3000}],"obsTime":1777442400},"SBAN":{"icaoId":"SBAN","flightCategory":"VFR","rawOb":"METAR SBAN 290600Z 16006KT CAVOK 19/14 Q1019","temp":19,"dewp":14,"wdir":160,"wspd":6,"visib":"6+","altim":1019,"clouds":[],"obsTime":1777442400}}}