{"updated":1775940919,"count":85,"data":{"SBAT":{"icaoId":"SBAT","flightCategory":"VFR","rawOb":"METAR SBAT 111900Z 09003KT 9999 VCSH FEW025 FEW035TCU SCT100 32/24 Q1009","temp":32,"dewp":24,"wdir":90,"wspd":3,"visib":"6+","altim":1009,"clouds":[{"cover":"FEW","base":2500},{"cover":"FEW","base":3500},{"cover":"SCT","base":10000}],"obsTime":1775934000},"SBBE":{"icaoId":"SBBE","flightCategory":"MVFR","rawOb":"METAR SBBE 111900Z 10006KT 9999 -RA SCT012 BKN030 FEW035TCU 26/26 Q1010","temp":26,"dewp":26,"wdir":100,"wspd":6,"visib":"6+","altim":1010,"clouds":[{"cover":"SCT","base":1200},{"cover":"BKN","base":3000},{"cover":"FEW","base":3500}],"obsTime":1775934000},"SBBR":{"icaoId":"SBBR","flightCategory":"VFR","rawOb":"METAR SBBR 111900Z 11010KT 9999 SCT040 FEW045TCU 28/18 Q1017","temp":28,"dewp":18,"wdir":110,"wspd":10,"visib":"6+","altim":1017,"clouds":[{"cover":"SCT","base":4000},{"cover":"FEW","base":4500}],"obsTime":1775934000},"SBBV":{"icaoId":"SBBV","flightCategory":"VFR","rawOb":"METAR SBBV 111900Z 10008KT 9999 BKN040 FEW045TCU 34/19 Q1009","temp":34,"dewp":19,"wdir":100,"wspd":8,"visib":"6+","altim":1009,"clouds":[{"cover":"BKN","base":4000},{"cover":"FEW","base":4500}],"obsTime":1775934000},"SBCB":{"icaoId":"SBCB","flightCategory":"VFR","rawOb":"METAR SBCB 111900Z 21006KT 9999 FEW025 BKN080 25/20 Q1020","temp":25,"dewp":20,"wdir":210,"wspd":6,"visib":"6+","altim":1020,"clouds":[{"cover":"FEW","base":2500},{"cover":"BKN","base":8000}],"obsTime":1775934000},"SBCF":{"icaoId":"SBCF","flightCategory":"VFR","rawOb":"METAR SBCF 111900Z 12009KT 9999 SCT030 25/18 Q1020","temp":25,"dewp":18,"wdir":120,"wspd":9,"visib":"6+","altim":1020,"clouds":[{"cover":"SCT","base":3000}],"obsTime":1775934000},"SBCG":{"icaoId":"SBCG","flightCategory":"VFR","rawOb":"METAR SBCG 111900Z 05009KT 9999 BKN040 FEW045TCU 31/21 Q1014","temp":31,"dewp":21,"wdir":50,"wspd":9,"visib":"6+","altim":1014,"clouds":[{"cover":"BKN","base":4000},{"cover":"FEW","base":4500}],"obsTime":1775934000},"SBCP":{"icaoId":"SBCP","flightCategory":"VFR","rawOb":"METAR SBCP 111900Z 21010KT 9999 FEW020 BKN090 25/20 Q1019","temp":25,"dewp":20,"wdir":210,"wspd":10,"visib":"6+","altim":1019,"clouds":[{"cover":"FEW","base":2000},{"cover":"BKN","base":9000}],"obsTime":1775934000},"SBCR":{"icaoId":"SBCR","flightCategory":"VFR","rawOb":"METAR SBCR 111900Z 03010KT 340V050 9999 BKN035 33/22 Q1010","temp":33,"dewp":22,"wdir":30,"wspd":10,"visib":"6+","altim":1010,"clouds":[{"cover":"BKN","base":3500}],"obsTime":1775934000},"SBCT":{"icaoId":"SBCT","flightCategory":"VFR","rawOb":"METAR SBCT 111900Z 08011KT 9999 FEW020 BKN040 21/15 Q1023","temp":21,"dewp":15,"wdir":80,"wspd":11,"visib":"6+","altim":1023,"clouds":[{"cover":"FEW","base":2000},{"cover":"BKN","base":4000}],"obsTime":1775934000},"SBCZ":{"icaoId":"SBCZ","flightCategory":"VFR","rawOb":"METAR SBCZ 111900Z VRB03KT 9999 VCSH SCT030 FEW035TCU 31/24 Q1009","temp":31,"dewp":24,"wdir":"VRB","wspd":3,"visib":"6+","altim":1009,"clouds":[{"cover":"SCT","base":3000},{"cover":"FEW","base":3500}],"obsTime":1775934000},"SBEG":{"icaoId":"SBEG","flightCategory":"VFR","rawOb":"METAR SBEG 111900Z 10005KT 9999 2000N SHRA SCT020 FEW025TCU SCT080 28/26 Q1008","temp":28,"dewp":26,"wdir":100,"wspd":5,"visib":"6+","altim":1008,"clouds":[{"cover":"SCT","base":2000},{"cover":"FEW","base":2500},{"cover":"SCT","base":8000}],"obsTime":1775934000},"SBFI":{"icaoId":"SBFI","flightCategory":"VFR","rawOb":"METAR SBFI 111900Z 03007KT 9999 FEW030 BKN090 28/20 Q1014","temp":28,"dewp":20,"wdir":30,"wspd":7,"visib":"6+","altim":1014,"clouds":[{"cover":"FEW","base":3000},{"cover":"BKN","base":9000}],"obsTime":1775934000},"SBFL":{"icaoId":"SBFL","flightCategory":"VFR","rawOb":"METAR SBFL 111900Z 06004KT 020V090 9999 FEW040 BKN060 24/19 Q1020","temp":24,"dewp":19,"wdir":60,"wspd":4,"visib":"6+","altim":1020,"clouds":[{"cover":"FEW","base":4000},{"cover":"BKN","base":6000}],"obsTime":1775934000},"SBFZ":{"icaoId":"SBFZ","flightCategory":"VFR","rawOb":"METAR SBFZ 111900Z VRB02KT 9999 FEW015 27/24 Q1010","temp":27,"dewp":24,"wdir":"VRB","wspd":2,"visib":"6+","altim":1010,"clouds":[{"cover":"FEW","base":1500}],"obsTime":1775934000},"SBGL":{"icaoId":"SBGL","flightCategory":"VFR","rawOb":"METAR SBGL 111900Z 12009KT 9999 FEW030 SCT050 BKN080 25/18 Q1019","temp":25,"dewp":18,"wdir":120,"wspd":9,"visib":"6+","altim":1019,"clouds":[{"cover":"FEW","base":3000},{"cover":"SCT","base":5000},{"cover":"BKN","base":8000}],"obsTime":1775934000},"SBGO":{"icaoId":"SBGO","flightCategory":"VFR","rawOb":"METAR SBGO 111900Z 08007KT 050V110 9999 SCT040 31/20 Q1015","temp":31,"dewp":20,"wdir":80,"wspd":7,"visib":"6+","altim":1015,"clouds":[{"cover":"SCT","base":4000}],"obsTime":1775934000},"SBGR":{"icaoId":"SBGR","flightCategory":"VFR","rawOb":"METAR SBGR 111900Z 11011KT 9999 SCT035 24/16 Q1021","temp":24,"dewp":16,"wdir":110,"wspd":11,"visib":"6+","altim":1021,"clouds":[{"cover":"SCT","base":3500}],"obsTime":1775934000},"SBHT":{"icaoId":"SBHT","flightCategory":"VFR","rawOb":"METAR SBHT 111900Z 10008KT 9999 SCT030 31/24 Q1008","temp":31,"dewp":24,"wdir":100,"wspd":8,"visib":"6+","altim":1008,"clouds":[{"cover":"SCT","base":3000}],"obsTime":1775934000},"SBIL":{"icaoId":"SBIL","flightCategory":"VFR","rawOb":"METAR SBIL 111900Z 16006KT 120V190 9999 FEW020 FEW023TCU 29/24 Q1014","temp":29,"dewp":24,"wdir":160,"wspd":6,"visib":"6+","altim":1014,"clouds":[{"cover":"FEW","base":2000},{"cover":"FEW","base":2300}],"obsTime":1775934000},"SBJU":{"icaoId":"SBJU","flightCategory":"VFR","rawOb":"METAR SBJU 111900Z 16007KT 9999 FEW022 31/20 Q1012","temp":31,"dewp":20,"wdir":160,"wspd":7,"visib":"6+","altim":1012,"clouds":[{"cover":"FEW","base":2200}],"obsTime":1775934000},"SBKP":{"icaoId":"SBKP","flightCategory":"VFR","rawOb":"METAR SBKP 111900Z 13011KT 9999 FEW045 27/16 Q1019","temp":27,"dewp":16,"wdir":130,"wspd":11,"visib":"6+","altim":1019,"clouds":[{"cover":"FEW","base":4500}],"obsTime":1775934000},"SBLO":{"icaoId":"SBLO","flightCategory":"VFR","rawOb":"METAR SBLO 111900Z 08008KT CAVOK 27/16 Q1017","temp":27,"dewp":16,"wdir":80,"wspd":8,"visib":"6+","altim":1017,"clouds":[],"obsTime":1775934000},"SBMA":{"icaoId":"SBMA","flightCategory":"VFR","rawOb":"METAR SBMA 111900Z 12003KT 9999 SCT020 SCT100 30/25 Q1009","temp":30,"dewp":25,"wdir":120,"wspd":3,"visib":"6+","altim":1009,"clouds":[{"cover":"SCT","base":2000},{"cover":"SCT","base":10000}],"obsTime":1775934000},"SBME":{"icaoId":"SBME","flightCategory":"VFR","rawOb":"METAR SBME 111900Z 19004KT 9999 FEW025 BKN050 25/20 Q1019","temp":25,"dewp":20,"wdir":190,"wspd":4,"visib":"6+","altim":1019,"clouds":[{"cover":"FEW","base":2500},{"cover":"BKN","base":5000}],"obsTime":1775934000},"SBMG":{"icaoId":"SBMG","flightCategory":"VFR","rawOb":"METAR SBMG 111900Z 10012KT CAVOK 28/16 Q1016","temp":28,"dewp":16,"wdir":100,"wspd":12,"visib":"6+","altim":1016,"clouds":[],"obsTime":1775934000},"SBMK":{"icaoId":"SBMK","flightCategory":"VFR","rawOb":"METAR SBMK 111900Z 17007KT 9999 SCT040 27/20 Q1016","temp":27,"dewp":20,"wdir":170,"wspd":7,"visib":"6+","altim":1016,"clouds":[{"cover":"SCT","base":4000}],"obsTime":1775934000},"SBMO":{"icaoId":"SBMO","flightCategory":"VFR","rawOb":"METAR SBMO 111900Z 11008KT 070V170 9999 FEW040 30/21 Q1012","temp":30,"dewp":21,"wdir":110,"wspd":8,"visib":"6+","altim":1012,"clouds":[{"cover":"FEW","base":4000}],"obsTime":1775934000},"SBMQ":{"icaoId":"SBMQ","flightCategory":"VFR","rawOb":"METAR SBMQ 111900Z 01006KT 9999 FEW008 SCT011 OVC100 27/25 Q1010","temp":27,"dewp":25,"wdir":10,"wspd":6,"visib":"6+","altim":1010,"clouds":[{"cover":"FEW","base":800},{"cover":"SCT","base":1100},{"cover":"OVC","base":10000}],"obsTime":1775934000},"SBNT":{"icaoId":"SBNT","flightCategory":"VFR","rawOb":"METAR SBNT 111900Z 10012KT 9999 FEW025 FEW030TCU SCT090 29/24 Q1010","temp":29,"dewp":24,"wdir":100,"wspd":12,"visib":"6+","altim":1010,"clouds":[{"cover":"FEW","base":2500},{"cover":"FEW","base":3000},{"cover":"SCT","base":9000}],"obsTime":1775934000},"SBPA":{"icaoId":"SBPA","flightCategory":"VFR","rawOb":"METAR SBPA 111900Z 10010KT 070V130 CAVOK 28/17 Q1016","temp":28,"dewp":17,"wdir":100,"wspd":10,"visib":"6+","altim":1016,"clouds":[],"obsTime":1775934000},"SBPJ":{"icaoId":"SBPJ","flightCategory":"VFR","rawOb":"METAR SBPJ 111900Z 07005KT 9999 -TSRA FEW015 SCT025 FEW030CB 26/24 Q1011","temp":26,"dewp":24,"wdir":70,"wspd":5,"visib":"6+","altim":1011,"clouds":[{"cover":"FEW","base":1500},{"cover":"SCT","base":2500},{"cover":"FEW","base":3000}],"obsTime":1775934000},"SBPV":{"icaoId":"SBPV","flightCategory":"VFR","rawOb":"METAR SBPV 111900Z 20002KT 9999 BKN040 28/25 Q1008","temp":28,"dewp":25,"wdir":200,"wspd":2,"visib":"6+","altim":1008,"clouds":[{"cover":"BKN","base":4000}],"obsTime":1775934000},"SBRB":{"icaoId":"SBRB","flightCategory":"MVFR","rawOb":"METAR SBRB 111900Z VRB04KT 9999 -RA VCSH BKN025 FEW040TCU SCT080 29/24 Q1010","temp":29,"dewp":24,"wdir":"VRB","wspd":4,"visib":"6+","altim":1010,"clouds":[{"cover":"BKN","base":2500},{"cover":"FEW","base":4000},{"cover":"SCT","base":8000}],"obsTime":1775934000},"SBRF":{"icaoId":"SBRF","flightCategory":"VFR","rawOb":"METAR SBRF 111900Z 09009KT 9999 SCT020 FEW025TCU 28/24 Q1011","temp":28,"dewp":24,"wdir":90,"wspd":9,"visib":"6+","altim":1011,"clouds":[{"cover":"SCT","base":2000},{"cover":"FEW","base":2500}],"obsTime":1775934000},"SBSG":{"icaoId":"SBSG","flightCategory":"VFR","rawOb":"METAR SBSG 111900Z 11009KT 9999 VCSH SCT027 FEW030TCU 29/23 Q1011","temp":29,"dewp":23,"wdir":110,"wspd":9,"visib":"6+","altim":1011,"clouds":[{"cover":"SCT","base":2700},{"cover":"FEW","base":3000}],"obsTime":1775934000},"SBSL":{"icaoId":"SBSL","flightCategory":"MVFR","rawOb":"METAR SBSL 111900Z 05011KT 020V090 9999 VCSH SCT016 BKN020 FEW025TCU 28/24 Q1010","temp":28,"dewp":24,"wdir":50,"wspd":11,"visib":"6+","altim":1010,"clouds":[{"cover":"SCT","base":1600},{"cover":"BKN","base":2000},{"cover":"FEW","base":2500}],"obsTime":1775934000},"SBSN":{"icaoId":"SBSN","flightCategory":"VFR","rawOb":"METAR SBSN 111900Z 09011KT 9999 FEW023 FEW040TCU 30/25 Q1008","temp":30,"dewp":25,"wdir":90,"wspd":11,"visib":"6+","altim":1008,"clouds":[{"cover":"FEW","base":2300},{"cover":"FEW","base":4000}],"obsTime":1775934000},"SBSP":{"icaoId":"SBSP","flightCategory":"VFR","rawOb":"METAR SBSP 111900Z 16013KT 9999 SCT040 22/15 Q1022","temp":22,"dewp":15,"wdir":160,"wspd":13,"visib":"6+","altim":1022,"clouds":[{"cover":"SCT","base":4000}],"obsTime":1775934000},"SBSV":{"icaoId":"SBSV","flightCategory":"VFR","rawOb":"METAR SBSV 111900Z 15005KT 090V190 9999 VCSH SCT021 FEW023TCU 28/24 Q1013","temp":28,"dewp":24,"wdir":150,"wspd":5,"visib":"6+","altim":1013,"clouds":[{"cover":"SCT","base":2100},{"cover":"FEW","base":2300}],"obsTime":1775934000},"SBTE":{"icaoId":"SBTE","flightCategory":"VFR","rawOb":"METAR SBTE 111900Z 04005KT 9999 SCT030 32/24 Q1008","temp":32,"dewp":24,"wdir":40,"wspd":5,"visib":"6+","altim":1008,"clouds":[{"cover":"SCT","base":3000}],"obsTime":1775934000},"SBUL":{"icaoId":"SBUL","flightCategory":"VFR","rawOb":"METAR SBUL 111900Z 06006KT 010V120 9999 FEW035 FEW040TCU 28/19 Q1018","temp":28,"dewp":19,"wdir":60,"wspd":6,"visib":"6+","altim":1018,"clouds":[{"cover":"FEW","base":3500},{"cover":"FEW","base":4000}],"obsTime":1775934000},"SBUR":{"icaoId":"SBUR","flightCategory":"VFR","rawOb":"METAR SBUR 111900Z 12006KT 9999 BKN040 FEW050TCU 29/19 Q1017","temp":29,"dewp":19,"wdir":120,"wspd":6,"visib":"6+","altim":1017,"clouds":[{"cover":"BKN","base":4000},{"cover":"FEW","base":5000}],"obsTime":1775934000},"SBVT":{"icaoId":"SBVT","flightCategory":"MVFR","rawOb":"METAR SBVT 111900Z 19014KT 9999 SCT009 BKN025 OVC040 23/20 Q1018","temp":23,"dewp":20,"wdir":190,"wspd":14,"visib":"6+","altim":1018,"clouds":[{"cover":"SCT","base":900},{"cover":"BKN","base":2500},{"cover":"OVC","base":4000}],"obsTime":1775934000},"SBOI":{"icaoId":"SBOI","flightCategory":"VFR","rawOb":"METAR SBOI 111900Z AUTO 02011KT 350V050 9999 SCT034 31/24 Q1010","temp":31,"dewp":24,"wdir":20,"wspd":11,"visib":"6+","altim":1010,"clouds":[{"cover":"SCT","base":3400}],"obsTime":1775934000},"SBVH":{"icaoId":"SBVH","flightCategory":"VFR","rawOb":"METAR SBVH 111900Z 09003KT 9999 SCT035 30/21 Q1012","temp":30,"dewp":21,"wdir":90,"wspd":3,"visib":"6+","altim":1012,"clouds":[{"cover":"SCT","base":3500}],"obsTime":1775934000},"SBAX":{"icaoId":"SBAX","flightCategory":"VFR","rawOb":"METAR SBAX 111900Z AUTO 11006KT 050V140 9999 FEW040 26/18 Q1019","temp":26,"dewp":18,"wdir":110,"wspd":6,"visib":"6+","altim":1019,"clouds":[{"cover":"FEW","base":4000}],"obsTime":1775934000},"SBUY":{"icaoId":"SBUY","flightCategory":"LIFR","rawOb":"METAR SBUY 111900Z 13006KT 1000 TSRA BR BKN006 FEW035CB BKN080 25/24 Q1008","temp":25,"dewp":24,"wdir":130,"wspd":6,"visib":0.62,"altim":1008,"clouds":[{"cover":"BKN","base":600},{"cover":"FEW","base":3500},{"cover":"BKN","base":8000}],"obsTime":1775934000},"SBBH":{"icaoId":"SBBH","flightCategory":"VFR","rawOb":"METAR SBBH 111900Z 10009KT 9999 FEW035 24/18 Q1019","temp":24,"dewp":18,"wdir":100,"wspd":9,"visib":"6+","altim":1019,"clouds":[{"cover":"FEW","base":3500}],"obsTime":1775934000},"SBTT":{"icaoId":"SBTT","flightCategory":"MVFR","rawOb":"METAR SBTT 111900Z 04014KT 9999 BKN020 FEW027TCU BKN090 27/23 Q1009","temp":27,"dewp":23,"wdir":40,"wspd":14,"visib":"6+","altim":1009,"clouds":[{"cover":"BKN","base":2000},{"cover":"FEW","base":2700},{"cover":"BKN","base":9000}],"obsTime":1775934000},"SBAR":{"icaoId":"SBAR","flightCategory":"VFR","rawOb":"METAR SBAR 111900Z 13007KT 9999 FEW019 SCT060 29/24 Q1012","temp":29,"dewp":24,"wdir":130,"wspd":7,"visib":"6+","altim":1012,"clouds":[{"cover":"FEW","base":1900},{"cover":"SCT","base":6000}],"obsTime":1775934000},"SBBU":{"icaoId":"SBBU","flightCategory":"VFR","rawOb":"METAR SBBU 111900Z 12004KT 9999 SCT040 28/20 Q1018","temp":28,"dewp":20,"wdir":120,"wspd":4,"visib":"6+","altim":1018,"clouds":[{"cover":"SCT","base":4000}],"obsTime":1775934000},"SBTF":{"icaoId":"SBTF","flightCategory":"VFR","rawOb":"METAR SBTF 111900Z 31007KT 9999 SCT020 FEW030TCU 34/26 Q1007","temp":34,"dewp":26,"wdir":310,"wspd":7,"visib":"6+","altim":1007,"clouds":[{"cover":"SCT","base":2000},{"cover":"FEW","base":3000}],"obsTime":1775934000},"SBSR":{"icaoId":"SBSR","flightCategory":"VFR","rawOb":"METAR SBSR 111900Z 16004KT 110V250 9999 SCT030 SCT070 30/18 Q1016","temp":30,"dewp":18,"wdir":160,"wspd":4,"visib":"6+","altim":1016,"clouds":[{"cover":"SCT","base":3000},{"cover":"SCT","base":7000}],"obsTime":1775934000},"SBCA":{"icaoId":"SBCA","flightCategory":"VFR","rawOb":"METAR SBCA 111900Z 04012KT CAVOK 24/16 Q1018","temp":24,"dewp":16,"wdir":40,"wspd":12,"visib":"6+","altim":1018,"clouds":[],"obsTime":1775934000},"SBSM":{"icaoId":"SBSM","flightCategory":"VFR","rawOb":"METAR SBSM 111900Z 10009KT 080V140 9999 FEW040 FEW045TCU SCT100 27/19 Q1015","temp":27,"dewp":19,"wdir":100,"wspd":9,"visib":"6+","altim":1015,"clouds":[{"cover":"FEW","base":4000},{"cover":"FEW","base":4500},{"cover":"SCT","base":10000}],"obsTime":1775934000},"SBCC":{"icaoId":"SBCC","flightCategory":"MVFR","rawOb":"METAR SBCC 111900Z 36005KT 9999 VCSH BKN025 FEW030TCU 31/21 Q1011","temp":31,"dewp":21,"wdir":360,"wspd":5,"visib":"6+","altim":1011,"clouds":[{"cover":"BKN","base":2500},{"cover":"FEW","base":3000}],"obsTime":1775934000},"SBSJ":{"icaoId":"SBSJ","flightCategory":"VFR","rawOb":"METAR SBSJ 111900Z 11014KT 9999 SCT049 25/15 Q1020","temp":25,"dewp":15,"wdir":110,"wspd":14,"visib":"6+","altim":1020,"clouds":[{"cover":"SCT","base":4900}],"obsTime":1775934000},"SBCJ":{"icaoId":"SBCJ","flightCategory":"VFR","rawOb":"METAR SBCJ 111900Z 00000KT 9999 FEW005 SCT090 24/21 Q1013","temp":24,"dewp":21,"wdir":0,"wspd":0,"visib":"6+","altim":1013,"clouds":[{"cover":"FEW","base":500},{"cover":"SCT","base":9000}],"obsTime":1775934000},"SBCO":{"icaoId":"SBCO","flightCategory":"VFR","rawOb":"METAR SBCO 111900Z 11011KT CAVOK 29/17 Q1016","temp":29,"dewp":17,"wdir":110,"wspd":11,"visib":"6+","altim":1016,"clouds":[],"obsTime":1775934000},"SBSC":{"icaoId":"SBSC","flightCategory":"VFR","rawOb":"METAR SBSC 111900Z 19008KT 9999 FEW020 SCT050 BKN080 24/19 Q1020","temp":24,"dewp":19,"wdir":190,"wspd":8,"visib":"6+","altim":1020,"clouds":[{"cover":"FEW","base":2000},{"cover":"SCT","base":5000},{"cover":"BKN","base":8000}],"obsTime":1775934000},"SBDN":{"icaoId":"SBDN","flightCategory":"VFR","rawOb":"METAR SBDN 111900Z 14007KT CAVOK 30/18 Q1016","temp":30,"dewp":18,"wdir":140,"wspd":7,"visib":"6+","altim":1016,"clouds":[],"obsTime":1775934000},"SBPS":{"icaoId":"SBPS","flightCategory":"VFR","rawOb":"METAR SBPS 111900Z VRB05KT 9999 SCT020 FEW025TCU BKN066 27/22 Q1015","temp":27,"dewp":22,"wdir":"VRB","wspd":5,"visib":"6+","altim":1015,"clouds":[{"cover":"SCT","base":2000},{"cover":"FEW","base":2500},{"cover":"BKN","base":6600}],"obsTime":1775934000},"SBES":{"icaoId":"SBES","flightCategory":"VFR","rawOb":"METAR SBES 111900Z 22007KT 180V260 9999 FEW020 BKN080 25/// Q1019","temp":null,"dewp":null,"wdir":220,"wspd":7,"visib":"6+","altim":1019,"clouds":[{"cover":"FEW","base":2000},{"cover":"BKN","base":8000}],"obsTime":1775934000},"SBPP":{"icaoId":"SBPP","flightCategory":"MVFR","rawOb":"METAR SBPP 111900Z 02011KT 9999 BKN015 26/21 Q1016","temp":26,"dewp":21,"wdir":20,"wspd":11,"visib":"6+","altim":1016,"clouds":[{"cover":"BKN","base":1500}],"obsTime":1775934000},"SBPL":{"icaoId":"SBPL","flightCategory":"VFR","rawOb":"METAR SBPL 111900Z 08005KT 9999 SCT030 33/20 Q1012","temp":33,"dewp":20,"wdir":80,"wspd":5,"visib":"6+","altim":1012,"clouds":[{"cover":"SCT","base":3000}],"obsTime":1775934000},"SBIP":{"icaoId":"SBIP","flightCategory":"VFR","rawOb":"METAR SBIP 111900Z AUTO 23004KT 200V270 CAVOK 28/19 Q1017","temp":28,"dewp":19,"wdir":230,"wspd":4,"visib":"6+","altim":1017,"clouds":[],"obsTime":1775934000},"SBPB":{"icaoId":"SBPB","flightCategory":"VFR","rawOb":"METAR SBPB 111900Z 06004KT 9999 SCT016 BKN080 27/25 Q1010","temp":27,"dewp":25,"wdir":60,"wspd":4,"visib":"6+","altim":1010,"clouds":[{"cover":"SCT","base":1600},{"cover":"BKN","base":8000}],"obsTime":1775934000},"SBKG":{"icaoId":"SBKG","flightCategory":"VFR","rawOb":"METAR SBKG 111900Z 11006KT 9999 FEW028 29/21 Q1013","temp":29,"dewp":21,"wdir":110,"wspd":6,"visib":"6+","altim":1013,"clouds":[{"cover":"FEW","base":2800}],"obsTime":1775934000},"SBGM":{"icaoId":"SBGM","flightCategory":"VFR","rawOb":"METAR SBGM 111900Z 22004KT 9999 SCT040 33/23 Q1008","temp":33,"dewp":23,"wdir":220,"wspd":4,"visib":"6+","altim":1008,"clouds":[{"cover":"SCT","base":4000}],"obsTime":1775934000},"SBBQ":{"icaoId":"SBBQ","flightCategory":"VFR","rawOb":"METAR SBBQ 111900Z 09006KT 9999 SCT020 OVC045 20/15 Q1024","temp":20,"dewp":15,"wdir":90,"wspd":6,"visib":"6+","altim":1024,"clouds":[{"cover":"SCT","base":2000},{"cover":"OVC","base":4500}],"obsTime":1775934000},"SBJP":{"icaoId":"SBJP","flightCategory":"VFR","rawOb":"METAR SBJP 111900Z 12014KT 080V160 9999 FEW030 30/24 Q1011","temp":30,"dewp":24,"wdir":120,"wspd":14,"visib":"6+","altim":1011,"clouds":[{"cover":"FEW","base":3000}],"obsTime":1775934000},"SBST":{"icaoId":"SBST","flightCategory":"VFR","rawOb":"METAR SBST 111900Z 15007KT 9999 SCT030 25/18 Q1019","temp":25,"dewp":18,"wdir":150,"wspd":7,"visib":"6+","altim":1019,"clouds":[{"cover":"SCT","base":3000}],"obsTime":1775934000},"SBTA":{"icaoId":"SBTA","flightCategory":"VFR","rawOb":"METAR SBTA 111900Z 07006KT 030V090 9999 SCT045 BKN060 25/15 Q1019","temp":25,"dewp":15,"wdir":70,"wspd":6,"visib":"6+","altim":1019,"clouds":[{"cover":"SCT","base":4500},{"cover":"BKN","base":6000}],"obsTime":1775934000},"SBLE":{"icaoId":"SBLE","flightCategory":"VFR","rawOb":"METAR SBLE 111900Z AUTO 16003KT 120V210 CAVOK 29/19 Q1015","temp":29,"dewp":19,"wdir":160,"wspd":3,"visib":"6+","altim":1015,"clouds":[],"obsTime":1775934000},"SBTC":{"icaoId":"SBTC","flightCategory":"VFR","rawOb":"METAR SBTC 111900Z 14007KT 9999 SCT020 29/23 Q1014","temp":29,"dewp":23,"wdir":140,"wspd":7,"visib":"6+","altim":1014,"clouds":[{"cover":"SCT","base":2000}],"obsTime":1775934000},"SBAN":{"icaoId":"SBAN","flightCategory":"VFR","rawOb":"METAR SBAN 111900Z 15008KT 120V190 9999 BKN035 FEW035TCU 27/18 Q1018","temp":27,"dewp":18,"wdir":150,"wspd":8,"visib":"6+","altim":1018,"clouds":[{"cover":"BKN","base":3500},{"cover":"FEW","base":3500}],"obsTime":1775934000},"SBJV":{"icaoId":"SBJV","flightCategory":"VFR","rawOb":"METAR SBJV 111900Z 13003KT 9999 FEW015 SCT040 24/20 Q1020","temp":24,"dewp":20,"wdir":130,"wspd":3,"visib":"6+","altim":1020,"clouds":[{"cover":"FEW","base":1500},{"cover":"SCT","base":4000}],"obsTime":1775934000},"SBIH":{"icaoId":"SBIH","flightCategory":"VFR","rawOb":"METAR SBIH 111900Z 08005KT 9999 SCT018 FEW023TCU 32/25 Q1007","temp":32,"dewp":25,"wdir":80,"wspd":5,"visib":"6+","altim":1007,"clouds":[{"cover":"SCT","base":1800},{"cover":"FEW","base":2300}],"obsTime":1775934000},"SBAF":{"icaoId":"SBAF","flightCategory":"VFR","rawOb":"METAR SBAF 111900Z 19010KT 9999 FEW020 SCT050 BKN080 25/21 Q1019","temp":25,"dewp":21,"wdir":190,"wspd":10,"visib":"6+","altim":1019,"clouds":[{"cover":"FEW","base":2000},{"cover":"SCT","base":5000},{"cover":"BKN","base":8000}],"obsTime":1775934000},"SBGW":{"icaoId":"SBGW","flightCategory":"VFR","rawOb":"METAR SBGW 111900Z 03006KT 360V060 9999 FEW040 BKN060 25/14 Q1020","temp":25,"dewp":14,"wdir":30,"wspd":6,"visib":"6+","altim":1020,"clouds":[{"cover":"FEW","base":4000},{"cover":"BKN","base":6000}],"obsTime":1775934000},"SBJR":{"icaoId":"SBJR","flightCategory":"VFR","rawOb":"METAR SBJR 111900Z 21004KT 9999 FEW030 BKN080 26/20 Q1019","temp":26,"dewp":20,"wdir":210,"wspd":4,"visib":"6+","altim":1019,"clouds":[{"cover":"FEW","base":3000},{"cover":"BKN","base":8000}],"obsTime":1775934000},"SBLS":{"icaoId":"SBLS","flightCategory":"VFR","rawOb":"METAR SBLS 111900Z 13008KT 060V140 9999 SCT026 25/19 Q1019","temp":25,"dewp":19,"wdir":130,"wspd":8,"visib":"6+","altim":1019,"clouds":[{"cover":"SCT","base":2600}],"obsTime":1775934000},"SBMT":{"icaoId":"SBMT","flightCategory":"VFR","rawOb":"METAR SBMT 111900Z 12009KT 090V160 9999 SCT020 23/14 Q1021","temp":23,"dewp":14,"wdir":120,"wspd":9,"visib":"6+","altim":1021,"clouds":[{"cover":"SCT","base":2000}],"obsTime":1775934000},"SBNM":{"icaoId":"SBNM","flightCategory":"MVFR","rawOb":"METAR SBNM 111900Z 04008KT 9999 BKN015 OVC080 26/21 Q1016","temp":26,"dewp":21,"wdir":40,"wspd":8,"visib":"6+","altim":1016,"clouds":[{"cover":"BKN","base":1500},{"cover":"OVC","base":8000}],"obsTime":1775934000}}}