{"updated":1775514188,"count":80,"data":{"SBKP":{"icaoId":"SBKP","flightCategory":"VFR","rawOb":"SPECI SBKP 062030Z 19005KT 160V250 9999 VCTS FEW030CB SCT035 25/21 Q1016 RETS","temp":25,"dewp":21,"wdir":190,"wspd":5,"visib":"6+","altim":1016,"clouds":[{"cover":"FEW","base":3000},{"cover":"SCT","base":3500}],"obsTime":1775507400},"SBLO":{"icaoId":"SBLO","flightCategory":"VFR","rawOb":"METAR SBLO 062100Z 10005KT 9999 SCT040 29/20 Q1014","temp":29,"dewp":20,"wdir":100,"wspd":5,"visib":"6+","altim":1014,"clouds":[{"cover":"SCT","base":4000}],"obsTime":1775509200},"SBCG":{"icaoId":"SBCG","flightCategory":"VFR","rawOb":"METAR SBCG 062100Z 31006KT 9999 VCTS SCT045 FEW050CB 30/20 Q1012","temp":30,"dewp":20,"wdir":310,"wspd":6,"visib":"6+","altim":1012,"clouds":[{"cover":"SCT","base":4500},{"cover":"FEW","base":5000}],"obsTime":1775509200},"SBMA":{"icaoId":"SBMA","flightCategory":"VFR","rawOb":"METAR SBMA 062100Z 29003KT 9999 FEW020 BKN100 29/24 Q1010","temp":29,"dewp":24,"wdir":290,"wspd":3,"visib":"6+","altim":1010,"clouds":[{"cover":"FEW","base":2000},{"cover":"BKN","base":10000}],"obsTime":1775509200},"SBFI":{"icaoId":"SBFI","flightCategory":"VFR","rawOb":"METAR SBFI 062100Z 03006KT 9999 FEW030 FEW030TCU 31/23 Q1010","temp":31,"dewp":23,"wdir":30,"wspd":6,"visib":"6+","altim":1010,"clouds":[{"cover":"FEW","base":3000},{"cover":"FEW","base":3000}],"obsTime":1775509200},"SBME":{"icaoId":"SBME","flightCategory":"VFR","rawOb":"METAR SBME 062100Z 10003KT 9999 SCT036 26/23 Q1016 RETS","temp":26,"dewp":23,"wdir":100,"wspd":3,"visib":"6+","altim":1016,"clouds":[{"cover":"SCT","base":3600}],"obsTime":1775509200},"SBBV":{"icaoId":"SBBV","flightCategory":"VFR","rawOb":"METAR SBBV 062100Z 11012KT 9999 SCT040 FEW045TCU 33/21 Q1007","temp":33,"dewp":21,"wdir":110,"wspd":12,"visib":"6+","altim":1007,"clouds":[{"cover":"SCT","base":4000},{"cover":"FEW","base":4500}],"obsTime":1775509200},"SBMG":{"icaoId":"SBMG","flightCategory":"VFR","rawOb":"METAR SBMG 062100Z 17006KT 9999 SCT048 FEW050TCU SCT070 27/21 Q1013","temp":27,"dewp":21,"wdir":170,"wspd":6,"visib":"6+","altim":1013,"clouds":[{"cover":"SCT","base":4800},{"cover":"FEW","base":5000},{"cover":"SCT","base":7000}],"obsTime":1775509200},"SBFL":{"icaoId":"SBFL","flightCategory":"IFR","rawOb":"METAR SBFL 062100Z VRB02KT 4000 -DZ OVC014 24/23 Q1017","temp":24,"dewp":23,"wdir":"VRB","wspd":2,"visib":2.49,"altim":1017,"clouds":[{"cover":"OVC","base":1400}],"obsTime":1775509200},"SBMK":{"icaoId":"SBMK","flightCategory":"VFR","rawOb":"METAR SBMK 062100Z COR 10005KT CAVOK 28/19 Q1016","temp":28,"dewp":19,"wdir":100,"wspd":5,"visib":"6+","altim":1016,"clouds":[],"obsTime":1775509200},"SBCP":{"icaoId":"SBCP","flightCategory":"VFR","rawOb":"METAR SBCP 062100Z 08005KT 9999 FEW020 25/23 Q1016","temp":25,"dewp":23,"wdir":80,"wspd":5,"visib":"6+","altim":1016,"clouds":[{"cover":"FEW","base":2000}],"obsTime":1775509200},"SBMO":{"icaoId":"SBMO","flightCategory":"VFR","rawOb":"METAR SBMO 062100Z 12009KT 9999 FEW026 28/25 Q1013","temp":28,"dewp":25,"wdir":120,"wspd":9,"visib":"6+","altim":1013,"clouds":[{"cover":"FEW","base":2600}],"obsTime":1775509200},"SBMQ":{"icaoId":"SBMQ","flightCategory":"VFR","rawOb":"METAR SBMQ 062100Z 05007KT 9999 FEW020 FEW050TCU 29/25 Q1010","temp":29,"dewp":25,"wdir":50,"wspd":7,"visib":"6+","altim":1010,"clouds":[{"cover":"FEW","base":2000},{"cover":"FEW","base":5000}],"obsTime":1775509200},"SBFZ":{"icaoId":"SBFZ","flightCategory":"VFR","rawOb":"METAR SBFZ 062100Z 09006KT 9999 FEW030 28/24 Q1011","temp":28,"dewp":24,"wdir":90,"wspd":6,"visib":"6+","altim":1011,"clouds":[{"cover":"FEW","base":3000}],"obsTime":1775509200},"SBBR":{"icaoId":"SBBR","flightCategory":"VFR","rawOb":"METAR SBBR 062100Z 14004KT 100V190 9999 SCT040 FEW045TCU BKN100 26/19 Q1018","temp":26,"dewp":19,"wdir":140,"wspd":4,"visib":"6+","altim":1018,"clouds":[{"cover":"SCT","base":4000},{"cover":"FEW","base":4500},{"cover":"BKN","base":10000}],"obsTime":1775509200},"SBNT":{"icaoId":"SBNT","flightCategory":"VFR","rawOb":"METAR SBNT 062100Z 15010KT 9999 FEW025 SCT080 27/24 Q1012","temp":27,"dewp":24,"wdir":150,"wspd":10,"visib":"6+","altim":1012,"clouds":[{"cover":"FEW","base":2500},{"cover":"SCT","base":8000}],"obsTime":1775509200},"SBGL":{"icaoId":"SBGL","flightCategory":"VFR","rawOb":"METAR SBGL 062100Z 14009KT 9999 FEW026 26/22 Q1015","temp":26,"dewp":22,"wdir":140,"wspd":9,"visib":"6+","altim":1015,"clouds":[{"cover":"FEW","base":2600}],"obsTime":1775509200},"SBPA":{"icaoId":"SBPA","flightCategory":"VFR","rawOb":"METAR SBPA 062100Z 10017KT 9999 FEW040 25/19 Q1013","temp":25,"dewp":19,"wdir":100,"wspd":17,"visib":"6+","altim":1013,"clouds":[{"cover":"FEW","base":4000}],"obsTime":1775509200},"SBCF":{"icaoId":"SBCF","flightCategory":"VFR","rawOb":"METAR SBCF 062100Z 13011KT 9999 VCTS SCT040 FEW045CB 26/18 Q1018","temp":26,"dewp":18,"wdir":130,"wspd":11,"visib":"6+","altim":1018,"clouds":[{"cover":"SCT","base":4000},{"cover":"FEW","base":4500}],"obsTime":1775509200},"SBPJ":{"icaoId":"SBPJ","flightCategory":"VFR","rawOb":"METAR SBPJ 062100Z 35004KT 9999 FEW016 28/25 Q1012","temp":28,"dewp":25,"wdir":350,"wspd":4,"visib":"6+","altim":1012,"clouds":[{"cover":"FEW","base":1600}],"obsTime":1775509200},"SBGO":{"icaoId":"SBGO","flightCategory":"VFR","rawOb":"METAR SBGO 062100Z 33007KT 9999 FEW040 FEW045TCU 25/19 Q1016","temp":25,"dewp":19,"wdir":330,"wspd":7,"visib":"6+","altim":1016,"clouds":[{"cover":"FEW","base":4000},{"cover":"FEW","base":4500}],"obsTime":1775509200},"SBPV":{"icaoId":"SBPV","flightCategory":"VFR","rawOb":"METAR SBPV 062100Z 06002KT 9999 FEW030 30/24 Q1007","temp":30,"dewp":24,"wdir":60,"wspd":2,"visib":"6+","altim":1007,"clouds":[{"cover":"FEW","base":3000}],"obsTime":1775509200},"SBBE":{"icaoId":"SBBE","flightCategory":"IFR","rawOb":"SPECI SBBE 062028Z 04007KT 3000 -RA BR FEW007 FEW027TCU BKN049 BKN096 25/25 Q1011","temp":25,"dewp":25,"wdir":40,"wspd":7,"visib":1.86,"altim":1011,"clouds":[{"cover":"FEW","base":700},{"cover":"FEW","base":2700},{"cover":"BKN","base":4900},{"cover":"BKN","base":9600}],"obsTime":1775507280},"SBUR":{"icaoId":"SBUR","flightCategory":"LIFR","rawOb":"METAR SBUR 062100Z 11013KT 1500 -TSRA FEW040CB BKN040 21/19 Q1018","temp":21,"dewp":19,"wdir":110,"wspd":13,"visib":0.93,"altim":1018,"clouds":[{"cover":"FEW","base":4000},{"cover":"BKN","base":4000}],"obsTime":1775509200},"SBEG":{"icaoId":"SBEG","flightCategory":"VFR","rawOb":"METAR SBEG 062100Z 05003KT 9999 SCT025 FEW030TCU SCT090 26/24 Q1008","temp":26,"dewp":24,"wdir":50,"wspd":3,"visib":"6+","altim":1008,"clouds":[{"cover":"SCT","base":2500},{"cover":"FEW","base":3000},{"cover":"SCT","base":9000}],"obsTime":1775509200},"SBRB":{"icaoId":"SBRB","flightCategory":"MVFR","rawOb":"METAR SBRB 062100Z 21004KT 8000 VCSH SCT033 FEW035TCU BKN070 29/25 Q1008","temp":29,"dewp":25,"wdir":210,"wspd":4,"visib":4.97,"altim":1008,"clouds":[{"cover":"SCT","base":3300},{"cover":"FEW","base":3500},{"cover":"BKN","base":7000}],"obsTime":1775509200},"SBUL":{"icaoId":"SBUL","flightCategory":"VFR","rawOb":"METAR SBUL 062100Z 07007KT 9999 FEW045 FEW050TCU BKN100 24/19 Q1018","temp":24,"dewp":19,"wdir":70,"wspd":7,"visib":"6+","altim":1018,"clouds":[{"cover":"FEW","base":4500},{"cover":"FEW","base":5000},{"cover":"BKN","base":10000}],"obsTime":1775509200},"SBGR":{"icaoId":"SBGR","flightCategory":"VFR","rawOb":"METAR SBGR 062100Z 11008KT 9999 SCT020 SCT060 25/20 Q1018","temp":25,"dewp":20,"wdir":110,"wspd":8,"visib":"6+","altim":1018,"clouds":[{"cover":"SCT","base":2000},{"cover":"SCT","base":6000}],"obsTime":1775509200},"SBRF":{"icaoId":"SBRF","flightCategory":"MVFR","rawOb":"SPECI SBRF 062040Z 17007G23KT 5000 -RA BR BKN010 SCT019 FEW025TCU BKN040 27/25 Q1013","temp":27,"dewp":25,"wdir":170,"wspd":7,"visib":3.11,"altim":1013,"clouds":[{"cover":"BKN","base":1000},{"cover":"SCT","base":1900},{"cover":"FEW","base":2500},{"cover":"BKN","base":4000}],"obsTime":1775508000},"SBCT":{"icaoId":"SBCT","flightCategory":"VFR","rawOb":"METAR SBCT 062100Z 10008KT 9999 SCT015 21/18 Q1019","temp":21,"dewp":18,"wdir":100,"wspd":8,"visib":"6+","altim":1019,"clouds":[{"cover":"SCT","base":1500}],"obsTime":1775509200},"SBSG":{"icaoId":"SBSG","flightCategory":"VFR","rawOb":"METAR SBSG 062100Z 15005KT 100V190 9999 SCT030 SCT070 27/24 Q1012","temp":27,"dewp":24,"wdir":150,"wspd":5,"visib":"6+","altim":1012,"clouds":[{"cover":"SCT","base":3000},{"cover":"SCT","base":7000}],"obsTime":1775509200},"SBVT":{"icaoId":"SBVT","flightCategory":"VFR","rawOb":"METAR SBVT 062100Z 09008KT 9999 FEW045 27/23 Q1016","temp":27,"dewp":23,"wdir":90,"wspd":8,"visib":"6+","altim":1016,"clouds":[{"cover":"FEW","base":4500}],"obsTime":1775509200},"SBSL":{"icaoId":"SBSL","flightCategory":"VFR","rawOb":"METAR SBSL 062100Z VRB02KT 9999 SCT017 BKN080 27/25 Q1011","temp":27,"dewp":25,"wdir":"VRB","wspd":2,"visib":"6+","altim":1011,"clouds":[{"cover":"SCT","base":1700},{"cover":"BKN","base":8000}],"obsTime":1775509200},"SBIL":{"icaoId":"SBIL","flightCategory":"VFR","rawOb":"METAR SBIL 062100Z 14006KT 9999 SCT025 29/25 Q1014","temp":29,"dewp":25,"wdir":140,"wspd":6,"visib":"6+","altim":1014,"clouds":[{"cover":"SCT","base":2500}],"obsTime":1775509200},"SBSN":{"icaoId":"SBSN","flightCategory":"VFR","rawOb":"METAR SBSN 062100Z 06005KT 9999 FEW020 FEW025TCU 30/25 Q1008","temp":30,"dewp":25,"wdir":60,"wspd":5,"visib":"6+","altim":1008,"clouds":[{"cover":"FEW","base":2000},{"cover":"FEW","base":2500}],"obsTime":1775509200},"SBCZ":{"icaoId":"SBCZ","flightCategory":"VFR","rawOb":"METAR SBCZ 062100Z 04004KT 9999 TS SCT030 FEW035CB BKN100 29/26 Q1008","temp":29,"dewp":26,"wdir":40,"wspd":4,"visib":"6+","altim":1008,"clouds":[{"cover":"SCT","base":3000},{"cover":"FEW","base":3500},{"cover":"BKN","base":10000}],"obsTime":1775509200},"SBSP":{"icaoId":"SBSP","flightCategory":"MVFR","rawOb":"METAR SBSP 062100Z 15011KT 9999 BKN015 23/20 Q1020","temp":23,"dewp":20,"wdir":150,"wspd":11,"visib":"6+","altim":1020,"clouds":[{"cover":"BKN","base":1500}],"obsTime":1775509200},"SBJU":{"icaoId":"SBJU","flightCategory":"VFR","rawOb":"METAR SBJU 062100Z 06002KT 9999 FEW021 FEW023TCU 28/24 Q1014","temp":28,"dewp":24,"wdir":60,"wspd":2,"visib":"6+","altim":1014,"clouds":[{"cover":"FEW","base":2100},{"cover":"FEW","base":2300}],"obsTime":1775509200},"SBSV":{"icaoId":"SBSV","flightCategory":"VFR","rawOb":"METAR SBSV 062100Z 14006KT 9999 SCT022 FEW025TCU SCT070 28/23 Q1014","temp":28,"dewp":23,"wdir":140,"wspd":6,"visib":"6+","altim":1014,"clouds":[{"cover":"SCT","base":2200},{"cover":"FEW","base":2500},{"cover":"SCT","base":7000}],"obsTime":1775509200},"SBTE":{"icaoId":"SBTE","flightCategory":"VFR","rawOb":"METAR SBTE 062100Z 20003KT 9999 FEW020 27/25 Q1011","temp":27,"dewp":25,"wdir":200,"wspd":3,"visib":"6+","altim":1011,"clouds":[{"cover":"FEW","base":2000}],"obsTime":1775509200},"SBCB":{"icaoId":"SBCB","flightCategory":"VFR","rawOb":"METAR SBCB 062100Z 08008KT 9999 FEW020 26/23 Q1016","temp":26,"dewp":23,"wdir":80,"wspd":8,"visib":"6+","altim":1016,"clouds":[{"cover":"FEW","base":2000}],"obsTime":1775509200},"SBCR":{"icaoId":"SBCR","flightCategory":"VFR","rawOb":"METAR SBCR 062100Z 05009KT 020V080 9999 FEW040 31/23 Q1008","temp":31,"dewp":23,"wdir":50,"wspd":9,"visib":"6+","altim":1008,"clouds":[{"cover":"FEW","base":4000}],"obsTime":1775509200},"SBHT":{"icaoId":"SBHT","flightCategory":"VFR","rawOb":"METAR SBHT 062100Z 14003KT 9999 FEW030 32/23 Q1009","temp":32,"dewp":23,"wdir":140,"wspd":3,"visib":"6+","altim":1009,"clouds":[{"cover":"FEW","base":3000}],"obsTime":1775509200},"SBAT":{"icaoId":"SBAT","flightCategory":"VFR","rawOb":"METAR SBAT 062100Z 12005KT 9999 VCSH SCT035 FEW038TCU 33/24 Q1010","temp":33,"dewp":24,"wdir":120,"wspd":5,"visib":"6+","altim":1010,"clouds":[{"cover":"SCT","base":3500},{"cover":"FEW","base":3800}],"obsTime":1775509200},"SBVH":{"icaoId":"SBVH","flightCategory":"VFR","rawOb":"METAR SBVH 062100Z 09003KT 9999 FEW030 BKN040 FEW045TCU 27/23 Q1012","temp":27,"dewp":23,"wdir":90,"wspd":3,"visib":"6+","altim":1012,"clouds":[{"cover":"FEW","base":3000},{"cover":"BKN","base":4000},{"cover":"FEW","base":4500}],"obsTime":1775509200},"SBAX":{"icaoId":"SBAX","flightCategory":"VFR","rawOb":"METAR SBAX 062100Z 36002KT 9999 -RA SCT030 22/22 Q1019","temp":22,"dewp":22,"wdir":360,"wspd":2,"visib":"6+","altim":1019,"clouds":[{"cover":"SCT","base":3000}],"obsTime":1775509200},"SBCO":{"icaoId":"SBCO","flightCategory":"VFR","rawOb":"METAR SBCO 062100Z 10012KT 9999 FEW040 25/20 Q1013","temp":25,"dewp":20,"wdir":100,"wspd":12,"visib":"6+","altim":1013,"clouds":[{"cover":"FEW","base":4000}],"obsTime":1775509200},"SBBU":{"icaoId":"SBBU","flightCategory":"VFR","rawOb":"METAR SBBU 062100Z 08004KT 9999 -RA VCSH VCTS FEW045 FEW050CB SCT100 25/21 Q1015","temp":25,"dewp":21,"wdir":80,"wspd":4,"visib":"6+","altim":1015,"clouds":[{"cover":"FEW","base":4500},{"cover":"FEW","base":5000},{"cover":"SCT","base":10000}],"obsTime":1775509200},"SBPS":{"icaoId":"SBPS","flightCategory":"VFR","rawOb":"METAR SBPS 062100Z 13005KT 070V180 9999 FEW015 SCT020 27/24 Q1015","temp":27,"dewp":24,"wdir":130,"wspd":5,"visib":"6+","altim":1015,"clouds":[{"cover":"FEW","base":1500},{"cover":"SCT","base":2000}],"obsTime":1775509200},"SBDN":{"icaoId":"SBDN","flightCategory":"VFR","rawOb":"METAR SBDN 062100Z 04006KT 9999 SCT045 FEW050TCU SCT080 27/19 Q1014","temp":27,"dewp":19,"wdir":40,"wspd":6,"visib":"6+","altim":1014,"clouds":[{"cover":"SCT","base":4500},{"cover":"FEW","base":5000},{"cover":"SCT","base":8000}],"obsTime":1775509200},"SBSC":{"icaoId":"SBSC","flightCategory":"MVFR","rawOb":"METAR SBSC 062100Z 19006KT 9999 FEW010 BKN030 26/23 Q1016","temp":26,"dewp":23,"wdir":190,"wspd":6,"visib":"6+","altim":1016,"clouds":[{"cover":"FEW","base":1000},{"cover":"BKN","base":3000}],"obsTime":1775509200},"SBAR":{"icaoId":"SBAR","flightCategory":"VFR","rawOb":"METAR SBAR 062100Z 13008KT 9999 FEW025 29/23 Q1013","temp":29,"dewp":23,"wdir":130,"wspd":8,"visib":"6+","altim":1013,"clouds":[{"cover":"FEW","base":2500}],"obsTime":1775509200},"SBSJ":{"icaoId":"SBSJ","flightCategory":"VFR","rawOb":"METAR SBSJ 062100Z 12011KT 9999 SCT040 FEW045TCU 24/20 Q1017","temp":24,"dewp":20,"wdir":120,"wspd":11,"visib":"6+","altim":1017,"clouds":[{"cover":"SCT","base":4000},{"cover":"FEW","base":4500}],"obsTime":1775509200},"SBCA":{"icaoId":"SBCA","flightCategory":"VFR","rawOb":"METAR SBCA 062100Z 03012KT 9999 FEW020 SCT035 FEW040TCU 27/20 Q1015","temp":27,"dewp":20,"wdir":30,"wspd":12,"visib":"6+","altim":1015,"clouds":[{"cover":"FEW","base":2000},{"cover":"SCT","base":3500},{"cover":"FEW","base":4000}],"obsTime":1775509200},"SBSM":{"icaoId":"SBSM","flightCategory":"IFR","rawOb":"METAR SBSM 062100Z 30007G18KT 210V020 4000 TSRA BKN030 FEW040CB BKN070 21/20 Q1013 RERA","temp":21,"dewp":20,"wdir":300,"wspd":7,"visib":2.49,"altim":1013,"clouds":[{"cover":"BKN","base":3000},{"cover":"FEW","base":4000},{"cover":"BKN","base":7000}],"obsTime":1775509200},"SBKG":{"icaoId":"SBKG","flightCategory":"MVFR","rawOb":"METAR SBKG 062100Z 09007KT 9999 BKN018 26/23 Q1015","temp":26,"dewp":23,"wdir":90,"wspd":7,"visib":"6+","altim":1015,"clouds":[{"cover":"BKN","base":1800}],"obsTime":1775509200},"SBSR":{"icaoId":"SBSR","flightCategory":"VFR","rawOb":"METAR SBSR 062100Z 02002KT 9999 FEW030 30/19 Q1014","temp":30,"dewp":19,"wdir":20,"wspd":2,"visib":"6+","altim":1014,"clouds":[{"cover":"FEW","base":3000}],"obsTime":1775509200},"SBTF":{"icaoId":"SBTF","flightCategory":"VFR","rawOb":"METAR SBTF 062100Z 13002KT 9999 FEW023 33/25 Q1006","temp":33,"dewp":25,"wdir":130,"wspd":2,"visib":"6+","altim":1006,"clouds":[{"cover":"FEW","base":2300}],"obsTime":1775509200},"SBBH":{"icaoId":"SBBH","flightCategory":"VFR","rawOb":"METAR SBBH 062100Z 11012KT 9999 SCT040 26/18 Q1018","temp":26,"dewp":18,"wdir":110,"wspd":12,"visib":"6+","altim":1018,"clouds":[{"cover":"SCT","base":4000}],"obsTime":1775509200},"SBTT":{"icaoId":"SBTT","flightCategory":"VFR","rawOb":"METAR SBTT 062100Z 33003KT 290V030 9999 FEW020 BKN100 27/23 Q1008","temp":27,"dewp":23,"wdir":330,"wspd":3,"visib":"6+","altim":1008,"clouds":[{"cover":"FEW","base":2000},{"cover":"BKN","base":10000}],"obsTime":1775509200},"SBOI":{"icaoId":"SBOI","flightCategory":"MVFR","rawOb":"METAR SBOI 062100Z AUTO 35004KT 9999 FEW010 BKN025 BKN030 26/24 Q1011","temp":26,"dewp":24,"wdir":350,"wspd":4,"visib":"6+","altim":1011,"clouds":[{"cover":"FEW","base":1000},{"cover":"BKN","base":2500},{"cover":"BKN","base":3000}],"obsTime":1775509200},"SBUY":{"icaoId":"SBUY","flightCategory":"VFR","rawOb":"METAR SBUY 062100Z 17002KT 9999 FEW030 SCT100 31/26 Q1005","temp":31,"dewp":26,"wdir":170,"wspd":2,"visib":"6+","altim":1005,"clouds":[{"cover":"FEW","base":3000},{"cover":"SCT","base":10000}],"obsTime":1775509200},"SBPL":{"icaoId":"SBPL","flightCategory":"VFR","rawOb":"METAR SBPL 062100Z 02003KT 9999 FEW030 SCT070 29/22 Q1013","temp":29,"dewp":22,"wdir":20,"wspd":3,"visib":"6+","altim":1013,"clouds":[{"cover":"FEW","base":3000},{"cover":"SCT","base":7000}],"obsTime":1775509200},"SBPB":{"icaoId":"SBPB","flightCategory":"VFR","rawOb":"METAR SBPB 062100Z 09004KT 9999 SCT016 28/24 Q1011","temp":28,"dewp":24,"wdir":90,"wspd":4,"visib":"6+","altim":1011,"clouds":[{"cover":"SCT","base":1600}],"obsTime":1775509200},"SBCJ":{"icaoId":"SBCJ","flightCategory":"VFR","rawOb":"METAR SBCJ 062100Z 15003KT CAVOK 24/22 Q1014","temp":24,"dewp":22,"wdir":150,"wspd":3,"visib":"6+","altim":1014,"clouds":[],"obsTime":1775509200},"SBES":{"icaoId":"SBES","flightCategory":"VFR","rawOb":"METAR SBES 062100Z 05004KT 350V080 9999 VCSH FEW020 FEW025TCU 24/// Q1016","temp":null,"dewp":null,"wdir":50,"wspd":4,"visib":"6+","altim":1016,"clouds":[{"cover":"FEW","base":2000},{"cover":"FEW","base":2500}],"obsTime":1775509200},"SBPP":{"icaoId":"SBPP","flightCategory":"VFR","rawOb":"METAR SBPP 062100Z 03008KT 9999 SCT020 29/23 Q1013","temp":29,"dewp":23,"wdir":30,"wspd":8,"visib":"6+","altim":1013,"clouds":[{"cover":"SCT","base":2000}],"obsTime":1775509200},"SBJP":{"icaoId":"SBJP","flightCategory":"MVFR","rawOb":"METAR SBJP 062100Z 02009KT 010V150 5000 -RA BKN020 BKN070 25/24 Q1013","temp":25,"dewp":24,"wdir":20,"wspd":9,"visib":3.11,"altim":1013,"clouds":[{"cover":"BKN","base":2000},{"cover":"BKN","base":7000}],"obsTime":1775509200},"SBAN":{"icaoId":"SBAN","flightCategory":"VFR","rawOb":"METAR SBAN 062100Z 05003KT 9999 FEW030 FEW040TCU BKN100 23/19 Q1019","temp":23,"dewp":19,"wdir":50,"wspd":3,"visib":"6+","altim":1019,"clouds":[{"cover":"FEW","base":3000},{"cover":"FEW","base":4000},{"cover":"BKN","base":10000}],"obsTime":1775509200},"SBJV":{"icaoId":"SBJV","flightCategory":"IFR","rawOb":"METAR SBJV 062100Z 11002KT 3000 RA BKN006 BKN013 23/23 Q1016","temp":23,"dewp":23,"wdir":110,"wspd":2,"visib":1.86,"altim":1016,"clouds":[{"cover":"BKN","base":600},{"cover":"BKN","base":1300}],"obsTime":1775509200},"SBNM":{"icaoId":"SBNM","flightCategory":"VFR","rawOb":"METAR SBNM 062200Z 06002KT 9999 SCT025 FEW030TCU SCT100 28/18 Q1010","temp":28,"dewp":18,"wdir":60,"wspd":2,"visib":"6+","altim":1010,"clouds":[{"cover":"SCT","base":2500},{"cover":"FEW","base":3000},{"cover":"SCT","base":10000}],"obsTime":1775512800},"SBPF":{"icaoId":"SBPF","flightCategory":"VFR","rawOb":"METAR SBPF 062100Z 30010KT 9999 FEW040 FEW050TCU 26/18 Q1016","temp":26,"dewp":18,"wdir":300,"wspd":10,"visib":"6+","altim":1016,"clouds":[{"cover":"FEW","base":4000},{"cover":"FEW","base":5000}],"obsTime":1775509200},"SBAF":{"icaoId":"SBAF","flightCategory":"VFR","rawOb":"METAR SBAF 062100Z 18006KT 9000 FEW040 26/25 Q1015","temp":26,"dewp":25,"wdir":180,"wspd":6,"visib":5.59,"altim":1015,"clouds":[{"cover":"FEW","base":4000}],"obsTime":1775509200},"SBGW":{"icaoId":"SBGW","flightCategory":"VFR","rawOb":"METAR SBGW 062100Z 03004KT 350V070 9999 SCT040 FEW045TCU BKN100 26/18 Q1017","temp":26,"dewp":18,"wdir":30,"wspd":4,"visib":"6+","altim":1017,"clouds":[{"cover":"SCT","base":4000},{"cover":"FEW","base":4500},{"cover":"BKN","base":10000}],"obsTime":1775509200},"SBJR":{"icaoId":"SBJR","flightCategory":"VFR","rawOb":"METAR SBJR 062100Z 21004KT 9999 FEW010 25/23 Q1015","temp":25,"dewp":23,"wdir":210,"wspd":4,"visib":"6+","altim":1015,"clouds":[{"cover":"FEW","base":1000}],"obsTime":1775509200},"SBLS":{"icaoId":"SBLS","flightCategory":"VFR","rawOb":"METAR SBLS 062100Z 14010KT 9999 FEW043 FEW046TCU 26/19 Q1018","temp":26,"dewp":19,"wdir":140,"wspd":10,"visib":"6+","altim":1018,"clouds":[{"cover":"FEW","base":4300},{"cover":"FEW","base":4600}],"obsTime":1775509200},"SBMT":{"icaoId":"SBMT","flightCategory":"VFR","rawOb":"METAR SBMT 062100Z 14008KT 100V190 9999 SCT023 FEW036TCU 24/20 Q1018","temp":24,"dewp":20,"wdir":140,"wspd":8,"visib":"6+","altim":1018,"clouds":[{"cover":"SCT","base":2300},{"cover":"FEW","base":3600}],"obsTime":1775509200},"SBST":{"icaoId":"SBST","flightCategory":"VFR","rawOb":"METAR SBST 062100Z 15007KT 9000 SCT015 BKN036 26/23 Q1015","temp":26,"dewp":23,"wdir":150,"wspd":7,"visib":5.59,"altim":1015,"clouds":[{"cover":"SCT","base":1500},{"cover":"BKN","base":3600}],"obsTime":1775509200},"SBTA":{"icaoId":"SBTA","flightCategory":"VFR","rawOb":"METAR SBTA 062100Z 17006KT 9999 SCT040 FEW045TCU SCT050 23/19 Q1016 RETS","temp":23,"dewp":19,"wdir":170,"wspd":6,"visib":"6+","altim":1016,"clouds":[{"cover":"SCT","base":4000},{"cover":"FEW","base":4500},{"cover":"SCT","base":5000}],"obsTime":1775509200},"SBIH":{"icaoId":"SBIH","flightCategory":"VFR","rawOb":"METAR SBIH 062100Z 04006GP99KT 9999 FEW020 FEW025TCU 32/24 Q1007","temp":32,"dewp":24,"wdir":null,"wspd":null,"visib":"6+","altim":1007,"clouds":[{"cover":"FEW","base":2000},{"cover":"FEW","base":2500}],"obsTime":1775509200}}}