{"updated":1779623119,"count":82,"data":{"SBFI":{"icaoId":"SBFI","flightCategory":"LIFR","rawOb":"METAR SBFI 241000Z 23002KT 0800 R15///// R33///// FG SCT002 BKN070 14/14 Q1019","temp":14,"dewp":14,"wdir":230,"wspd":2,"visib":0.5,"altim":1019,"clouds":[{"cover":"SCT","base":200},{"cover":"BKN","base":7000}],"obsTime":1779616800},"SBME":{"icaoId":"SBME","flightCategory":"VFR","rawOb":"METAR SBME 241000Z 04008KT CAVOK 22/17 Q1019","temp":22,"dewp":17,"wdir":40,"wspd":8,"visib":"6+","altim":1019,"clouds":[],"obsTime":1779616800},"SBMG":{"icaoId":"SBMG","flightCategory":"MVFR","rawOb":"METAR SBMG 241000Z VRB02KT 8000 2000W BCFG NSC 17/16 Q1019","temp":17,"dewp":16,"wdir":"VRB","wspd":2,"visib":4.97,"altim":1019,"clouds":[],"obsTime":1779616800},"SBEG":{"icaoId":"SBEG","flightCategory":"IFR","rawOb":"METAR SBEG 241000Z 19004KT 9999 BKN007 BKN100 24/23 Q1014","temp":24,"dewp":23,"wdir":190,"wspd":4,"visib":"6+","altim":1014,"clouds":[{"cover":"BKN","base":700},{"cover":"BKN","base":10000}],"obsTime":1779616800},"SBLO":{"icaoId":"SBLO","flightCategory":"LIFR","rawOb":"METAR SBLO 241000Z 18003KT 0100 R13/0100D FG OVC002 16/16 Q1021","temp":16,"dewp":16,"wdir":180,"wspd":3,"visib":0.06,"altim":1021,"clouds":[{"cover":"OVC","base":200}],"obsTime":1779616800},"SBMA":{"icaoId":"SBMA","flightCategory":"VFR","rawOb":"METAR SBMA 241000Z 00000KT CAVOK 24/23 Q1013","temp":24,"dewp":23,"wdir":0,"wspd":0,"visib":"6+","altim":1013,"clouds":[],"obsTime":1779616800},"SBMK":{"icaoId":"SBMK","flightCategory":"VFR","rawOb":"METAR SBMK 241000Z 12003KT 9999 SCT015 SCT030 20/18 Q1022","temp":20,"dewp":18,"wdir":120,"wspd":3,"visib":"6+","altim":1022,"clouds":[{"cover":"SCT","base":1500},{"cover":"SCT","base":3000}],"obsTime":1779616800},"SBCF":{"icaoId":"SBCF","flightCategory":"VFR","rawOb":"METAR SBCF 241000Z 17004KT CAVOK 16/15 Q1023","temp":16,"dewp":15,"wdir":170,"wspd":4,"visib":"6+","altim":1023,"clouds":[],"obsTime":1779616800},"SBMO":{"icaoId":"SBMO","flightCategory":"VFR","rawOb":"METAR SBMO 241000Z 12006KT 9999 FEW023 26/21 Q1015","temp":26,"dewp":21,"wdir":120,"wspd":6,"visib":"6+","altim":1015,"clouds":[{"cover":"FEW","base":2300}],"obsTime":1779616800},"SBFL":{"icaoId":"SBFL","flightCategory":"VFR","rawOb":"METAR SBFL 241000Z 23001KT 9999 FEW007 SCT100 13/13 Q1020","temp":13,"dewp":13,"wdir":230,"wspd":1,"visib":"6+","altim":1020,"clouds":[{"cover":"FEW","base":700},{"cover":"SCT","base":10000}],"obsTime":1779616800},"SBMQ":{"icaoId":"SBMQ","flightCategory":"VFR","rawOb":"METAR SBMQ 241000Z 35003KT 9999 -RA FEW019 24/24 Q1014","temp":24,"dewp":24,"wdir":350,"wspd":3,"visib":"6+","altim":1014,"clouds":[{"cover":"FEW","base":1900}],"obsTime":1779616800},"SBNT":{"icaoId":"SBNT","flightCategory":"VFR","rawOb":"METAR SBNT 241000Z 17006KT 140V200 9999 VCSH SCT023 SCT040 24/23 Q1013","temp":24,"dewp":23,"wdir":170,"wspd":6,"visib":"6+","altim":1013,"clouds":[{"cover":"SCT","base":2300},{"cover":"SCT","base":4000}],"obsTime":1779616800},"SBBR":{"icaoId":"SBBR","flightCategory":"IFR","rawOb":"METAR SBBR 241000Z 13009KT 3000 -DZ OVC008 18/17 Q1023","temp":18,"dewp":17,"wdir":130,"wspd":9,"visib":1.86,"altim":1023,"clouds":[{"cover":"OVC","base":800}],"obsTime":1779616800},"SBFZ":{"icaoId":"SBFZ","flightCategory":"VFR","rawOb":"METAR SBFZ 241000Z 16010KT 9999 FEW020 25/21 Q1013","temp":25,"dewp":21,"wdir":160,"wspd":10,"visib":"6+","altim":1013,"clouds":[{"cover":"FEW","base":2000}],"obsTime":1779616800},"SBPA":{"icaoId":"SBPA","flightCategory":"MVFR","rawOb":"METAR SBPA 241000Z VRB02KT 9999 FEW008 BKN016 15/14 Q1022","temp":15,"dewp":14,"wdir":"VRB","wspd":2,"visib":"6+","altim":1022,"clouds":[{"cover":"FEW","base":800},{"cover":"BKN","base":1600}],"obsTime":1779616800},"SBPJ":{"icaoId":"SBPJ","flightCategory":"VFR","rawOb":"METAR SBPJ 241000Z 11001KT CAVOK 23/19 Q1015","temp":23,"dewp":19,"wdir":110,"wspd":1,"visib":"6+","altim":1015,"clouds":[],"obsTime":1779616800},"SBCG":{"icaoId":"SBCG","flightCategory":"VFR","rawOb":"METAR SBCG 241000Z 10009KT 9999 FEW035 BKN100 19/17 Q1019","temp":19,"dewp":17,"wdir":100,"wspd":9,"visib":"6+","altim":1019,"clouds":[{"cover":"FEW","base":3500},{"cover":"BKN","base":10000}],"obsTime":1779616800},"SBPV":{"icaoId":"SBPV","flightCategory":"VFR","rawOb":"METAR SBPV 241000Z 21002KT 9999 FEW030 21/18 Q1015","temp":21,"dewp":18,"wdir":210,"wspd":2,"visib":"6+","altim":1015,"clouds":[{"cover":"FEW","base":3000}],"obsTime":1779616800},"SBGL":{"icaoId":"SBGL","flightCategory":"IFR","rawOb":"METAR SBGL 241000Z 02003KT 4000 BR BKN008 21/20 Q1019","temp":21,"dewp":20,"wdir":20,"wspd":3,"visib":2.49,"altim":1019,"clouds":[{"cover":"BKN","base":800}],"obsTime":1779616800},"SBGO":{"icaoId":"SBGO","flightCategory":"VFR","rawOb":"METAR SBGO 241000Z 09005KT 9999 FEW015 BKN060 21/17 Q1021","temp":21,"dewp":17,"wdir":90,"wspd":5,"visib":"6+","altim":1021,"clouds":[{"cover":"FEW","base":1500},{"cover":"BKN","base":6000}],"obsTime":1779616800},"SBRB":{"icaoId":"SBRB","flightCategory":"VFR","rawOb":"METAR SBRB 241000Z 18002KT 9999 BKN033 19/17 Q1016","temp":19,"dewp":17,"wdir":180,"wspd":2,"visib":"6+","altim":1016,"clouds":[{"cover":"BKN","base":3300}],"obsTime":1779616800},"SBRF":{"icaoId":"SBRF","flightCategory":"MVFR","rawOb":"METAR SBRF 241000Z 13012KT 9999 BKN023 SCT060 28/22 Q1014","temp":28,"dewp":22,"wdir":130,"wspd":12,"visib":"6+","altim":1014,"clouds":[{"cover":"BKN","base":2300},{"cover":"SCT","base":6000}],"obsTime":1779616800},"SBBV":{"icaoId":"SBBV","flightCategory":"MVFR","rawOb":"METAR SBBV 241000Z 18003KT 9999 SCT006 BKN018 FEW030TCU OVC070 25/24 Q1014","temp":25,"dewp":24,"wdir":180,"wspd":3,"visib":"6+","altim":1014,"clouds":[{"cover":"SCT","base":600},{"cover":"BKN","base":1800},{"cover":"FEW","base":3000},{"cover":"OVC","base":7000}],"obsTime":1779616800},"SBCP":{"icaoId":"SBCP","flightCategory":"VFR","rawOb":"METAR SBCP 241000Z 02005KT 9999 FEW020 SCT090 19/19 Q1020","temp":19,"dewp":19,"wdir":20,"wspd":5,"visib":"6+","altim":1020,"clouds":[{"cover":"FEW","base":2000},{"cover":"SCT","base":9000}],"obsTime":1779616800},"SBSG":{"icaoId":"SBSG","flightCategory":"VFR","rawOb":"METAR SBSG 241000Z 18005KT 140V230 9999 SCT005 24/23 Q1013","temp":24,"dewp":23,"wdir":180,"wspd":5,"visib":"6+","altim":1013,"clouds":[{"cover":"SCT","base":500}],"obsTime":1779616800},"SBSL":{"icaoId":"SBSL","flightCategory":"VFR","rawOb":"METAR SBSL 241000Z 31001KT 9999 FEW020 SCT100 26/25 Q1012","temp":26,"dewp":25,"wdir":310,"wspd":1,"visib":"6+","altim":1012,"clouds":[{"cover":"FEW","base":2000},{"cover":"SCT","base":10000}],"obsTime":1779616800},"SBGR":{"icaoId":"SBGR","flightCategory":"MVFR","rawOb":"METAR SBGR 241000Z 00000KT 7000 3000SW FEW002 BKN070 16/16 Q1022","temp":16,"dewp":16,"wdir":0,"wspd":0,"visib":4.35,"altim":1022,"clouds":[{"cover":"FEW","base":200},{"cover":"BKN","base":7000}],"obsTime":1779616800},"SBSN":{"icaoId":"SBSN","flightCategory":"VFR","rawOb":"METAR SBSN 241000Z 18004KT 9999 SCT010 BKN070 24/23 Q1012","temp":24,"dewp":23,"wdir":180,"wspd":4,"visib":"6+","altim":1012,"clouds":[{"cover":"SCT","base":1000},{"cover":"BKN","base":7000}],"obsTime":1779616800},"SBAT":{"icaoId":"SBAT","flightCategory":"VFR","rawOb":"METAR SBAT 241100Z 15002KT CAVOK 22/21 Q1015","temp":22,"dewp":21,"wdir":150,"wspd":2,"visib":"6+","altim":1015,"clouds":[],"obsTime":1779620400},"SBSP":{"icaoId":"SBSP","flightCategory":"VFR","rawOb":"METAR SBSP 241000Z COR 05003KT 9999 FEW015 SCT080 16/16 Q1023","temp":16,"dewp":16,"wdir":50,"wspd":3,"visib":"6+","altim":1023,"clouds":[{"cover":"FEW","base":1500},{"cover":"SCT","base":8000}],"obsTime":1779616800},"SBCR":{"icaoId":"SBCR","flightCategory":"VFR","rawOb":"METAR SBCR 241100Z VRB02KT CAVOK 17/13 Q1018","temp":17,"dewp":13,"wdir":"VRB","wspd":2,"visib":"6+","altim":1018,"clouds":[],"obsTime":1779620400},"SBSV":{"icaoId":"SBSV","flightCategory":"MVFR","rawOb":"METAR SBSV 241000Z 10007KT 9999 VCSH BKN020 FEW023TCU BKN090 26/23 Q1016","temp":26,"dewp":23,"wdir":100,"wspd":7,"visib":"6+","altim":1016,"clouds":[{"cover":"BKN","base":2000},{"cover":"FEW","base":2300},{"cover":"BKN","base":9000}],"obsTime":1779616800},"SBHT":{"icaoId":"SBHT","flightCategory":"MVFR","rawOb":"METAR SBHT 241000Z 00000KT 5000 0500W BCFG NSC 25/24 Q1013","temp":25,"dewp":24,"wdir":0,"wspd":0,"visib":3.11,"altim":1013,"clouds":[],"obsTime":1779616800},"SBTE":{"icaoId":"SBTE","flightCategory":"VFR","rawOb":"METAR SBTE 241000Z 05002KT 9999 SCT020 28/22 Q1013","temp":28,"dewp":22,"wdir":50,"wspd":2,"visib":"6+","altim":1013,"clouds":[{"cover":"SCT","base":2000}],"obsTime":1779616800},"SBIL":{"icaoId":"SBIL","flightCategory":"VFR","rawOb":"METAR SBIL 241000Z 23009KT 9999 SCT023 24/23 Q1018","temp":24,"dewp":23,"wdir":230,"wspd":9,"visib":"6+","altim":1018,"clouds":[{"cover":"SCT","base":2300}],"obsTime":1779616800},"SBUL":{"icaoId":"SBUL","flightCategory":"VFR","rawOb":"METAR SBUL 241000Z 12006KT CAVOK 18/16 Q1023","temp":18,"dewp":16,"wdir":120,"wspd":6,"visib":"6+","altim":1023,"clouds":[],"obsTime":1779616800},"SBUR":{"icaoId":"SBUR","flightCategory":"VFR","rawOb":"METAR SBUR 241000Z 04008KT CAVOK 19/16 Q1021","temp":19,"dewp":16,"wdir":40,"wspd":8,"visib":"6+","altim":1021,"clouds":[],"obsTime":1779616800},"SBCB":{"icaoId":"SBCB","flightCategory":"VFR","rawOb":"METAR SBCB 241000Z 06004KT 9999 FEW030 22/18 Q1019","temp":22,"dewp":18,"wdir":60,"wspd":4,"visib":"6+","altim":1019,"clouds":[{"cover":"FEW","base":3000}],"obsTime":1779616800},"SBCT":{"icaoId":"SBCT","flightCategory":"IFR","rawOb":"METAR SBCT 241000Z VRB02KT 1800 R33/P2000 R15/P2000 -RA BKN005 OVC050 14/14 Q1022","temp":14,"dewp":14,"wdir":"VRB","wspd":2,"visib":1.12,"altim":1022,"clouds":[{"cover":"BKN","base":500},{"cover":"OVC","base":5000}],"obsTime":1779616800},"SBVT":{"icaoId":"SBVT","flightCategory":"VFR","rawOb":"METAR SBVT 241000Z 30003KT 9999 OVC048 21/20 Q1020","temp":21,"dewp":20,"wdir":300,"wspd":3,"visib":"6+","altim":1020,"clouds":[{"cover":"OVC","base":4800}],"obsTime":1779616800},"SBJU":{"icaoId":"SBJU","flightCategory":"VFR","rawOb":"METAR SBJU 241000Z 15008KT CAVOK 23/18 Q1017","temp":23,"dewp":18,"wdir":150,"wspd":8,"visib":"6+","altim":1017,"clouds":[],"obsTime":1779616800},"SBKP":{"icaoId":"SBKP","flightCategory":"VFR","rawOb":"METAR SBKP 241000Z 12002KT 9999 4000E BCFG FEW045 17/17 Q1022","temp":17,"dewp":17,"wdir":120,"wspd":2,"visib":"6+","altim":1022,"clouds":[{"cover":"FEW","base":4500}],"obsTime":1779616800},"SBBE":{"icaoId":"SBBE","flightCategory":"VFR","rawOb":"METAR SBBE 241000Z 06007KT 9999 FEW015 SCT100 25/25 Q1013","temp":25,"dewp":25,"wdir":60,"wspd":7,"visib":"6+","altim":1013,"clouds":[{"cover":"FEW","base":1500},{"cover":"SCT","base":10000}],"obsTime":1779616800},"SBTF":{"icaoId":"SBTF","flightCategory":"VFR","rawOb":"SPECI SBTF 241115Z 17003KT 9999 FEW005 SCT090 23/22 Q1015","temp":23,"dewp":22,"wdir":170,"wspd":3,"visib":"6+","altim":1015,"clouds":[{"cover":"FEW","base":500},{"cover":"SCT","base":9000}],"obsTime":1779621300},"SBPP":{"icaoId":"SBPP","flightCategory":"IFR","rawOb":"SPECI SBPP 241115Z 03002KT 2000 BR BKN020 14/14 Q1020","temp":14,"dewp":14,"wdir":30,"wspd":2,"visib":1.24,"altim":1020,"clouds":[{"cover":"BKN","base":2000}],"obsTime":1779621300},"SBCC":{"icaoId":"SBCC","flightCategory":"VFR","rawOb":"METAR SBCC 241100Z 20003KT CAVOK 22/19 Q1017","temp":22,"dewp":19,"wdir":200,"wspd":3,"visib":"6+","altim":1017,"clouds":[],"obsTime":1779620400},"SBAX":{"icaoId":"SBAX","flightCategory":"VFR","rawOb":"METAR SBAX 241000Z AUTO 09004KT CAVOK 17/17 Q1024","temp":17,"dewp":17,"wdir":90,"wspd":4,"visib":"6+","altim":1024,"clouds":[],"obsTime":1779616800},"SBBU":{"icaoId":"SBBU","flightCategory":"LIFR","rawOb":"METAR SBBU 241000Z 10004KT 1200 BR BKN002 18/18 Q1021","temp":18,"dewp":18,"wdir":100,"wspd":4,"visib":0.75,"altim":1021,"clouds":[{"cover":"BKN","base":200}],"obsTime":1779616800},"SBCA":{"icaoId":"SBCA","flightCategory":"MVFR","rawOb":"METAR SBCA 241000Z 07004KT 7000 VCFG BKN030 14/14 Q1021","temp":14,"dewp":14,"wdir":70,"wspd":4,"visib":4.35,"altim":1021,"clouds":[{"cover":"BKN","base":3000}],"obsTime":1779616800},"SBAR":{"icaoId":"SBAR","flightCategory":"VFR","rawOb":"METAR SBAR 241000Z 13011KT 9999 FEW025 SCT060 27/22 Q1015","temp":27,"dewp":22,"wdir":130,"wspd":11,"visib":"6+","altim":1015,"clouds":[{"cover":"FEW","base":2500},{"cover":"SCT","base":6000}],"obsTime":1779616800},"SBCJ":{"icaoId":"SBCJ","flightCategory":"VFR","rawOb":"SPECI SBCJ 241015Z 12005KT CAVOK 24/15 Q1018","temp":24,"dewp":15,"wdir":120,"wspd":5,"visib":"6+","altim":1018,"clouds":[],"obsTime":1779617700},"SBCO":{"icaoId":"SBCO","flightCategory":"MVFR","rawOb":"METAR SBCO 241000Z 00000KT 9999 BKN015 BKN021 14/13 Q1022","temp":14,"dewp":13,"wdir":0,"wspd":0,"visib":"6+","altim":1022,"clouds":[{"cover":"BKN","base":1500},{"cover":"BKN","base":2100}],"obsTime":1779616800},"SBDN":{"icaoId":"SBDN","flightCategory":"LIFR","rawOb":"METAR SBDN 241000Z 14002KT 3000 BR BKN003 BKN049 18/16 Q1020","temp":18,"dewp":16,"wdir":140,"wspd":2,"visib":1.86,"altim":1020,"clouds":[{"cover":"BKN","base":300},{"cover":"BKN","base":4900}],"obsTime":1779616800},"SBES":{"icaoId":"SBES","flightCategory":"VFR","rawOb":"METAR SBES 241000Z 00000KT CAVOK 18/// Q1019","temp":null,"dewp":null,"wdir":0,"wspd":0,"visib":"6+","altim":1019,"clouds":[],"obsTime":1779616800},"SBIP":{"icaoId":"SBIP","flightCategory":"MVFR","rawOb":"METAR SBIP 241000Z AUTO 00000KT 9999 FEW018 OVC024 21/21 Q1022","temp":21,"dewp":21,"wdir":0,"wspd":0,"visib":"6+","altim":1022,"clouds":[{"cover":"FEW","base":1800},{"cover":"OVC","base":2400}],"obsTime":1779616800},"SBKG":{"icaoId":"SBKG","flightCategory":"MVFR","rawOb":"METAR SBKG 241000Z 10006KT 9999 BKN012 SCT015 21/21 Q1016","temp":21,"dewp":21,"wdir":100,"wspd":6,"visib":"6+","altim":1016,"clouds":[{"cover":"BKN","base":1200},{"cover":"SCT","base":1500}],"obsTime":1779616800},"SBOI":{"icaoId":"SBOI","flightCategory":"LIFR","rawOb":"METAR SBOI 241000Z AUTO 34003KT 1300 // VV001 24/23 Q1013","temp":24,"dewp":23,"wdir":340,"wspd":3,"visib":0.81,"altim":1013,"clouds":[{"cover":"OVX","base":100}],"obsTime":1779616800},"SBPB":{"icaoId":"SBPB","flightCategory":"VFR","rawOb":"SPECI SBPB 241015Z 10006KT 9999 FEW020 27/24 Q1013","temp":27,"dewp":24,"wdir":100,"wspd":6,"visib":"6+","altim":1013,"clouds":[{"cover":"FEW","base":2000}],"obsTime":1779617700},"SBPL":{"icaoId":"SBPL","flightCategory":"VFR","rawOb":"METAR SBPL 241000Z 10006KT 9999 FEW020 24/20 Q1017","temp":24,"dewp":20,"wdir":100,"wspd":6,"visib":"6+","altim":1017,"clouds":[{"cover":"FEW","base":2000}],"obsTime":1779616800},"SBPS":{"icaoId":"SBPS","flightCategory":"VFR","rawOb":"METAR SBPS 241000Z 24005KT 9999 SCT025 21/20 Q1019","temp":21,"dewp":20,"wdir":240,"wspd":5,"visib":"6+","altim":1019,"clouds":[{"cover":"SCT","base":2500}],"obsTime":1779616800},"SBSC":{"icaoId":"SBSC","flightCategory":"MVFR","rawOb":"METAR SBSC 241000Z COR 09001KT 8000 FEW015 SCT050 21/19 Q1020","temp":21,"dewp":19,"wdir":90,"wspd":1,"visib":4.97,"altim":1020,"clouds":[{"cover":"FEW","base":1500},{"cover":"SCT","base":5000}],"obsTime":1779616800},"SBSJ":{"icaoId":"SBSJ","flightCategory":"LIFR","rawOb":"METAR SBSJ 241000Z 00000KT 0900 R34///// R16/P2000 FG OVC002 17/17 Q1022","temp":17,"dewp":17,"wdir":0,"wspd":0,"visib":0.56,"altim":1022,"clouds":[{"cover":"OVC","base":200}],"obsTime":1779616800},"SBSM":{"icaoId":"SBSM","flightCategory":"VFR","rawOb":"METAR SBSM 241000Z 11005KT 9999 FEW010 SCT020 13/12 Q1022","temp":13,"dewp":12,"wdir":110,"wspd":5,"visib":"6+","altim":1022,"clouds":[{"cover":"FEW","base":1000},{"cover":"SCT","base":2000}],"obsTime":1779616800},"SBSR":{"icaoId":"SBSR","flightCategory":"VFR","rawOb":"METAR SBSR 241000Z 12004KT CAVOK 19/18 Q1020","temp":19,"dewp":18,"wdir":120,"wspd":4,"visib":"6+","altim":1020,"clouds":[],"obsTime":1779616800},"SBTT":{"icaoId":"SBTT","flightCategory":"VFR","rawOb":"METAR SBTT 241100Z 18002KT 9999 SCT012 BKN080 22/20 Q1015","temp":22,"dewp":20,"wdir":180,"wspd":2,"visib":"6+","altim":1015,"clouds":[{"cover":"SCT","base":1200},{"cover":"BKN","base":8000}],"obsTime":1779620400},"SBTU":{"icaoId":"SBTU","flightCategory":"LIFR","rawOb":"METAR SBTU 241000Z AUTO 23004KT 200V260 9999 // BKN001/// 24/24 Q1015","temp":24,"dewp":24,"wdir":230,"wspd":4,"visib":"6+","altim":1015,"clouds":[{"cover":"BKN","base":100}],"obsTime":1779616800},"SBUY":{"icaoId":"SBUY","flightCategory":"MVFR","rawOb":"METAR SBUY 241100Z 35002KT 5000 BR SCT005 SCT018 BKN070 22/21 Q1014","temp":22,"dewp":21,"wdir":350,"wspd":2,"visib":3.11,"altim":1014,"clouds":[{"cover":"SCT","base":500},{"cover":"SCT","base":1800},{"cover":"BKN","base":7000}],"obsTime":1779620400},"SBVH":{"icaoId":"SBVH","flightCategory":"VFR","rawOb":"METAR SBVH 241100Z 11006KT CAVOK 17/16 Q1018","temp":17,"dewp":16,"wdir":110,"wspd":6,"visib":"6+","altim":1018,"clouds":[],"obsTime":1779620400},"SBBH":{"icaoId":"SBBH","flightCategory":"VFR","rawOb":"METAR SBBH 241000Z 10004KT CAVOK 16/15 Q1023","temp":16,"dewp":15,"wdir":100,"wspd":4,"visib":"6+","altim":1023,"clouds":[],"obsTime":1779616800},"SBIH":{"icaoId":"SBIH","flightCategory":"MVFR","rawOb":"METAR SBIH 241100Z 00000KT 9999 SCT006 BKN018 FEW025TCU BKN080 24/24 Q1013","temp":24,"dewp":24,"wdir":0,"wspd":0,"visib":"6+","altim":1013,"clouds":[{"cover":"SCT","base":600},{"cover":"BKN","base":1800},{"cover":"FEW","base":2500},{"cover":"BKN","base":8000}],"obsTime":1779620400},"SBLE":{"icaoId":"SBLE","flightCategory":"LIFR","rawOb":"METAR SBLE 241000Z AUTO 17005KT 140V200 9999 OVC002 ///// Q////","temp":null,"dewp":null,"wdir":170,"wspd":5,"visib":"6+","altim":null,"clouds":[{"cover":"OVC","base":200}],"obsTime":1779616800},"SBAN":{"icaoId":"SBAN","flightCategory":"MVFR","rawOb":"METAR SBAN 241000Z 18007KT 9999 BKN010 SCT035 17/16 Q1024","temp":17,"dewp":16,"wdir":180,"wspd":7,"visib":"6+","altim":1024,"clouds":[{"cover":"BKN","base":1000},{"cover":"SCT","base":3500}],"obsTime":1779616800},"SBJV":{"icaoId":"SBJV","flightCategory":"VFR","rawOb":"METAR SBJV 241000Z 32004KT CAVOK 15/15 Q1020","temp":15,"dewp":15,"wdir":320,"wspd":4,"visib":"6+","altim":1020,"clouds":[],"obsTime":1779616800},"SBPF":{"icaoId":"SBPF","flightCategory":"LIFR","rawOb":"METAR SBPF 241000Z 14008KT 2000 BR OVC002 11/10 Q1022","temp":11,"dewp":10,"wdir":140,"wspd":8,"visib":1.24,"altim":1022,"clouds":[{"cover":"OVC","base":200}],"obsTime":1779616800},"SBAF":{"icaoId":"SBAF","flightCategory":"MVFR","rawOb":"METAR SBAF 241000Z VRB01KT 6000 NSC 18/18 Q1020","temp":18,"dewp":18,"wdir":"VRB","wspd":1,"visib":3.73,"altim":1020,"clouds":[],"obsTime":1779616800},"SBJR":{"icaoId":"SBJR","flightCategory":"VFR","rawOb":"METAR SBJR 241000Z 00000KT CAVOK 19/19 Q1019","temp":19,"dewp":19,"wdir":0,"wspd":0,"visib":"6+","altim":1019,"clouds":[],"obsTime":1779616800},"SBLS":{"icaoId":"SBLS","flightCategory":"VFR","rawOb":"METAR SBLS 241000Z 16006KT 9999 BCFG FEW010 16/15 Q1023","temp":16,"dewp":15,"wdir":160,"wspd":6,"visib":"6+","altim":1023,"clouds":[{"cover":"FEW","base":1000}],"obsTime":1779616800},"SBMT":{"icaoId":"SBMT","flightCategory":"MVFR","rawOb":"METAR SBMT 241000Z 03002KT 5000 BR NSC 15/15 Q1022","temp":15,"dewp":15,"wdir":30,"wspd":2,"visib":3.11,"altim":1022,"clouds":[],"obsTime":1779616800},"SBST":{"icaoId":"SBST","flightCategory":"MVFR","rawOb":"METAR SBST 241100Z 06004KT 030V090 6000 FEW002 OVC016 18/18 Q1020","temp":18,"dewp":18,"wdir":60,"wspd":4,"visib":3.73,"altim":1020,"clouds":[{"cover":"FEW","base":200},{"cover":"OVC","base":1600}],"obsTime":1779620400},"SBTA":{"icaoId":"SBTA","flightCategory":"LIFR","rawOb":"METAR SBTA 241000Z VRB01KT 0800 FG VV003 16/16 Q1021","temp":16,"dewp":16,"wdir":"VRB","wspd":1,"visib":0.5,"altim":1021,"clouds":[{"cover":"OVX","base":300}],"obsTime":1779616800},"SBGW":{"icaoId":"SBGW","flightCategory":"LIFR","rawOb":"METAR SBGW 241000Z VRB02KT 0050 FG OVC001 17/13 Q1021","temp":17,"dewp":13,"wdir":"VRB","wspd":2,"visib":0.03,"altim":1021,"clouds":[{"cover":"OVC","base":100}],"obsTime":1779616800},"SBJP":{"icaoId":"SBJP","flightCategory":"VFR","rawOb":"METAR SBJP 241000Z 00000KT 9999 SCT020 24/23 Q1014","temp":24,"dewp":23,"wdir":0,"wspd":0,"visib":"6+","altim":1014,"clouds":[{"cover":"SCT","base":2000}],"obsTime":1779616800}}}