{"updated":1783277672,"count":87,"data":{"SBSP":{"icaoId":"SBSP","flightCategory":"VFR","rawOb":"METAR SBSP 051700Z 14006KT 100V210 CAVOK 20/14 Q1022","temp":20,"dewp":14,"wdir":140,"wspd":6,"visib":"6+","altim":1022,"clouds":[],"obsTime":1783270800},"SBBE":{"icaoId":"SBBE","flightCategory":"VFR","rawOb":"METAR SBBE 051700Z 10007KT 9999 SCT030 FEW035TCU 31/24 Q1012","temp":31,"dewp":24,"wdir":100,"wspd":7,"visib":"6+","altim":1012,"clouds":[{"cover":"SCT","base":3000},{"cover":"FEW","base":3500}],"obsTime":1783270800},"SBGR":{"icaoId":"SBGR","flightCategory":"VFR","rawOb":"METAR SBGR 051700Z 12006KT 9999 SCT020 20/14 Q1021","temp":20,"dewp":14,"wdir":120,"wspd":6,"visib":"6+","altim":1021,"clouds":[{"cover":"SCT","base":2000}],"obsTime":1783270800},"SBRB":{"icaoId":"SBRB","flightCategory":"VFR","rawOb":"METAR SBRB 051700Z 17003KT CAVOK 29/19 Q1016","temp":29,"dewp":19,"wdir":170,"wspd":3,"visib":"6+","altim":1016,"clouds":[],"obsTime":1783270800},"SBCF":{"icaoId":"SBCF","flightCategory":"VFR","rawOb":"METAR SBCF 051700Z 21003KT 9999 SCT045 25/13 Q1021","temp":25,"dewp":13,"wdir":210,"wspd":3,"visib":"6+","altim":1021,"clouds":[{"cover":"SCT","base":4500}],"obsTime":1783270800},"SBSL":{"icaoId":"SBSL","flightCategory":"VFR","rawOb":"METAR SBSL 051700Z 08009KT 040V100 9999 FEW030 31/23 Q1012","temp":31,"dewp":23,"wdir":80,"wspd":9,"visib":"6+","altim":1012,"clouds":[{"cover":"FEW","base":3000}],"obsTime":1783270800},"SBPV":{"icaoId":"SBPV","flightCategory":"VFR","rawOb":"METAR SBPV 051700Z 03004KT 9999 FEW030 31/19 Q1014","temp":31,"dewp":19,"wdir":30,"wspd":4,"visib":"6+","altim":1014,"clouds":[{"cover":"FEW","base":3000}],"obsTime":1783270800},"SBLO":{"icaoId":"SBLO","flightCategory":"VFR","rawOb":"METAR SBLO 051700Z 07005KT 9999 FEW020 23/17 Q1020","temp":23,"dewp":17,"wdir":70,"wspd":5,"visib":"6+","altim":1020,"clouds":[{"cover":"FEW","base":2000}],"obsTime":1783270800},"SBCB":{"icaoId":"SBCB","flightCategory":"VFR","rawOb":"METAR SBCB 051700Z 29008KT 9999 SCT010 SCT030 22/17 Q1019","temp":22,"dewp":17,"wdir":290,"wspd":8,"visib":"6+","altim":1019,"clouds":[{"cover":"SCT","base":1000},{"cover":"SCT","base":3000}],"obsTime":1783270800},"SBGO":{"icaoId":"SBGO","flightCategory":"VFR","rawOb":"METAR SBGO 051700Z 16006KT 100V250 CAVOK 28/13 Q1019","temp":28,"dewp":13,"wdir":160,"wspd":6,"visib":"6+","altim":1019,"clouds":[],"obsTime":1783270800},"SBCR":{"icaoId":"SBCR","flightCategory":"VFR","rawOb":"METAR SBCR 051700Z 10005KT 050V140 CAVOK 25/18 Q1017","temp":25,"dewp":18,"wdir":100,"wspd":5,"visib":"6+","altim":1017,"clouds":[],"obsTime":1783270800},"SBCZ":{"icaoId":"SBCZ","flightCategory":"MVFR","rawOb":"METAR SBCZ 051700Z 17003KT 9999 BKN030 28/21 Q1016","temp":28,"dewp":21,"wdir":170,"wspd":3,"visib":"6+","altim":1016,"clouds":[{"cover":"BKN","base":3000}],"obsTime":1783270800},"SBGL":{"icaoId":"SBGL","flightCategory":"MVFR","rawOb":"METAR SBGL 051700Z 25004KT 170V300 9999 BKN030 23/16 Q1019","temp":23,"dewp":16,"wdir":250,"wspd":4,"visib":"6+","altim":1019,"clouds":[{"cover":"BKN","base":3000}],"obsTime":1783270800},"SBNT":{"icaoId":"SBNT","flightCategory":"MVFR","rawOb":"METAR SBNT 051700Z 17010KT 9999 BKN020 29/22 Q1014","temp":29,"dewp":22,"wdir":170,"wspd":10,"visib":"6+","altim":1014,"clouds":[{"cover":"BKN","base":2000}],"obsTime":1783270800},"SBHT":{"icaoId":"SBHT","flightCategory":"MVFR","rawOb":"METAR SBHT 051700Z 12005KT 9999 BKN030 32/24 Q1013","temp":32,"dewp":24,"wdir":120,"wspd":5,"visib":"6+","altim":1013,"clouds":[{"cover":"BKN","base":3000}],"obsTime":1783270800},"SBSV":{"icaoId":"SBSV","flightCategory":"MVFR","rawOb":"METAR SBSV 051700Z 14010KT 9999 BKN030 BKN050 25/20 Q1017","temp":25,"dewp":20,"wdir":140,"wspd":10,"visib":"6+","altim":1017,"clouds":[{"cover":"BKN","base":3000},{"cover":"BKN","base":5000}],"obsTime":1783270800},"SBME":{"icaoId":"SBME","flightCategory":"MVFR","rawOb":"METAR SBME 051700Z 20010KT 9999 BKN017 22/18 Q1019","temp":22,"dewp":18,"wdir":200,"wspd":10,"visib":"6+","altim":1019,"clouds":[{"cover":"BKN","base":1700}],"obsTime":1783270800},"SBMK":{"icaoId":"SBMK","flightCategory":"VFR","rawOb":"METAR SBMK 051700Z 05003KT 9999 FEW040 28/11 Q1018","temp":28,"dewp":11,"wdir":50,"wspd":3,"visib":"6+","altim":1018,"clouds":[{"cover":"FEW","base":4000}],"obsTime":1783270800},"SBMA":{"icaoId":"SBMA","flightCategory":"VFR","rawOb":"METAR SBMA 051700Z 07005KT 9999 FEW015 35/18 Q1012","temp":35,"dewp":18,"wdir":70,"wspd":5,"visib":"6+","altim":1012,"clouds":[{"cover":"FEW","base":1500}],"obsTime":1783270800},"SBAT":{"icaoId":"SBAT","flightCategory":"VFR","rawOb":"METAR SBAT 051700Z 14005KT 9999 FEW035 35/16 Q1014","temp":35,"dewp":16,"wdir":140,"wspd":5,"visib":"6+","altim":1014,"clouds":[{"cover":"FEW","base":3500}],"obsTime":1783270800},"SBUL":{"icaoId":"SBUL","flightCategory":"VFR","rawOb":"METAR SBUL 051700Z VRB04KT 9999 FEW049 26/12 Q1020","temp":26,"dewp":12,"wdir":"VRB","wspd":4,"visib":"6+","altim":1020,"clouds":[{"cover":"FEW","base":4900}],"obsTime":1783270800},"SBIL":{"icaoId":"SBIL","flightCategory":"VFR","rawOb":"METAR SBIL 051700Z 20008KT 170V240 9999 VCSH SCT020 FEW025TCU BKN070 25/22 Q1017","temp":25,"dewp":22,"wdir":200,"wspd":8,"visib":"6+","altim":1017,"clouds":[{"cover":"SCT","base":2000},{"cover":"FEW","base":2500},{"cover":"BKN","base":7000}],"obsTime":1783270800},"SBPA":{"icaoId":"SBPA","flightCategory":"MVFR","rawOb":"METAR SBPA 051700Z 12003KT 070V150 9999 BKN013 14/11 Q1019","temp":14,"dewp":11,"wdir":120,"wspd":3,"visib":"6+","altim":1019,"clouds":[{"cover":"BKN","base":1300}],"obsTime":1783270800},"SBTE":{"icaoId":"SBTE","flightCategory":"VFR","rawOb":"METAR SBTE 051700Z 09004KT 9999 SCT040 BKN070 32/21 Q1012","temp":32,"dewp":21,"wdir":90,"wspd":4,"visib":"6+","altim":1012,"clouds":[{"cover":"SCT","base":4000},{"cover":"BKN","base":7000}],"obsTime":1783270800},"SBUR":{"icaoId":"SBUR","flightCategory":"VFR","rawOb":"METAR SBUR 051700Z 19004KT CAVOK 17/12 Q1019","temp":17,"dewp":12,"wdir":190,"wspd":4,"visib":"6+","altim":1019,"clouds":[],"obsTime":1783270800},"SBFL":{"icaoId":"SBFL","flightCategory":"VFR","rawOb":"METAR SBFL 051700Z 33006KT CAVOK 19/10 Q1021","temp":19,"dewp":10,"wdir":330,"wspd":6,"visib":"6+","altim":1021,"clouds":[],"obsTime":1783270800},"SBMG":{"icaoId":"SBMG","flightCategory":"VFR","rawOb":"METAR SBMG 051700Z 35004KT 9999 FEW045 25/14 Q1018","temp":25,"dewp":14,"wdir":350,"wspd":4,"visib":"6+","altim":1018,"clouds":[{"cover":"FEW","base":4500}],"obsTime":1783270800},"SBFZ":{"icaoId":"SBFZ","flightCategory":"VFR","rawOb":"METAR SBFZ 051700Z 10017KT 9999 FEW020 29/22 Q1013","temp":29,"dewp":22,"wdir":100,"wspd":17,"visib":"6+","altim":1013,"clouds":[{"cover":"FEW","base":2000}],"obsTime":1783270800},"SBCT":{"icaoId":"SBCT","flightCategory":"VFR","rawOb":"METAR SBCT 051700Z VRB02KT 9999 FEW012 BKN100 19/13 Q1022","temp":19,"dewp":13,"wdir":"VRB","wspd":2,"visib":"6+","altim":1022,"clouds":[{"cover":"FEW","base":1200},{"cover":"BKN","base":10000}],"obsTime":1783270800},"SBCG":{"icaoId":"SBCG","flightCategory":"VFR","rawOb":"METAR SBCG 051700Z VRB05KT 9999 SCT049 27/13 Q1018","temp":27,"dewp":13,"wdir":"VRB","wspd":5,"visib":"6+","altim":1018,"clouds":[{"cover":"SCT","base":4900}],"obsTime":1783270800},"SBPJ":{"icaoId":"SBPJ","flightCategory":"VFR","rawOb":"METAR SBPJ 051700Z VRB07KT CAVOK 34/18 Q1013","temp":34,"dewp":18,"wdir":"VRB","wspd":7,"visib":"6+","altim":1013,"clouds":[],"obsTime":1783270800},"SBKP":{"icaoId":"SBKP","flightCategory":"VFR","rawOb":"METAR SBKP 051700Z 13003KT 040V190 CAVOK 23/13 Q1020","temp":23,"dewp":13,"wdir":130,"wspd":3,"visib":"6+","altim":1020,"clouds":[],"obsTime":1783270800},"SBSG":{"icaoId":"SBSG","flightCategory":"MVFR","rawOb":"METAR SBSG 051700Z 15007KT 110V190 9999 BKN023 FEW025TCU 28/24 Q1014","temp":28,"dewp":24,"wdir":150,"wspd":7,"visib":"6+","altim":1014,"clouds":[{"cover":"BKN","base":2300},{"cover":"FEW","base":2500}],"obsTime":1783270800},"SBVT":{"icaoId":"SBVT","flightCategory":"VFR","rawOb":"METAR SBVT 051700Z 17014KT 9999 SCT025 24/20 Q1018","temp":24,"dewp":20,"wdir":170,"wspd":14,"visib":"6+","altim":1018,"clouds":[{"cover":"SCT","base":2500}],"obsTime":1783270800},"SBJU":{"icaoId":"SBJU","flightCategory":"VFR","rawOb":"METAR SBJU 051700Z 00000KT 9999 SCT021 32/16 Q1015","temp":32,"dewp":16,"wdir":0,"wspd":0,"visib":"6+","altim":1015,"clouds":[{"cover":"SCT","base":2100}],"obsTime":1783270800},"SBMO":{"icaoId":"SBMO","flightCategory":"VFR","rawOb":"METAR SBMO 051700Z 14010KT 9999 BKN033 27/21 Q1015","temp":27,"dewp":21,"wdir":140,"wspd":10,"visib":"6+","altim":1015,"clouds":[{"cover":"BKN","base":3300}],"obsTime":1783270800},"SBBV":{"icaoId":"SBBV","flightCategory":"MVFR","rawOb":"METAR SBBV 051700Z 35005KT 9999 VCSH BKN012 FEW030TCU BKN100 27/24 Q1014","temp":27,"dewp":24,"wdir":350,"wspd":5,"visib":"6+","altim":1014,"clouds":[{"cover":"BKN","base":1200},{"cover":"FEW","base":3000},{"cover":"BKN","base":10000}],"obsTime":1783270800},"SBBR":{"icaoId":"SBBR","flightCategory":"VFR","rawOb":"METAR SBBR 051700Z VRB04KT CAVOK 26/10 Q1021","temp":26,"dewp":10,"wdir":"VRB","wspd":4,"visib":"6+","altim":1021,"clouds":[],"obsTime":1783270800},"SBSN":{"icaoId":"SBSN","flightCategory":"VFR","rawOb":"METAR SBSN 051700Z 04006KT 9999 FEW020 32/25 Q1012","temp":32,"dewp":25,"wdir":40,"wspd":6,"visib":"6+","altim":1012,"clouds":[{"cover":"FEW","base":2000}],"obsTime":1783270800},"SBEG":{"icaoId":"SBEG","flightCategory":"VFR","rawOb":"METAR SBEG 051700Z 26005KT 9999 SCT025 32/22 Q1013","temp":32,"dewp":22,"wdir":260,"wspd":5,"visib":"6+","altim":1013,"clouds":[{"cover":"SCT","base":2500}],"obsTime":1783270800},"SBRF":{"icaoId":"SBRF","flightCategory":"VFR","rawOb":"METAR SBRF 051700Z 18007KT 9999 VCSH FEW015 SCT025 BKN050 26/22 Q1015","temp":26,"dewp":22,"wdir":180,"wspd":7,"visib":"6+","altim":1015,"clouds":[{"cover":"FEW","base":1500},{"cover":"SCT","base":2500},{"cover":"BKN","base":5000}],"obsTime":1783270800},"SBFI":{"icaoId":"SBFI","flightCategory":"VFR","rawOb":"METAR SBFI 051700Z 36009KT 9999 FEW030 SCT100 26/16 Q1017","temp":26,"dewp":16,"wdir":360,"wspd":9,"visib":"6+","altim":1017,"clouds":[{"cover":"FEW","base":3000},{"cover":"SCT","base":10000}],"obsTime":1783270800},"SBCP":{"icaoId":"SBCP","flightCategory":"VFR","rawOb":"METAR SBCP 051700Z 18009KT 9999 SCT020 25/18 Q1018","temp":25,"dewp":18,"wdir":180,"wspd":9,"visib":"6+","altim":1018,"clouds":[{"cover":"SCT","base":2000}],"obsTime":1783270800},"SBMQ":{"icaoId":"SBMQ","flightCategory":"VFR","rawOb":"METAR SBMQ 051700Z 06004KT 9999 SCT020 BKN100 27/25 Q1013 RETSRA","temp":27,"dewp":25,"wdir":60,"wspd":4,"visib":"6+","altim":1013,"clouds":[{"cover":"SCT","base":2000},{"cover":"BKN","base":10000}],"obsTime":1783270800},"SBOI":{"icaoId":"SBOI","flightCategory":"VFR","rawOb":"METAR SBOI 051700Z AUTO VRB02KT 9999 SCT039 29/25 Q1014 RERA","temp":29,"dewp":25,"wdir":"VRB","wspd":2,"visib":"6+","altim":1014,"clouds":[{"cover":"SCT","base":3900}],"obsTime":1783270800},"SBTU":{"icaoId":"SBTU","flightCategory":"VFR","rawOb":"METAR SBTU 051700Z AUTO 26006KT 210V300 9999 // FEW031/// 31/23 Q1014","temp":31,"dewp":23,"wdir":260,"wspd":6,"visib":"6+","altim":1014,"clouds":[{"cover":"FEW","base":3100}],"obsTime":1783270800},"SBCC":{"icaoId":"SBCC","flightCategory":"VFR","rawOb":"METAR SBCC 051700Z VRB07KT 9999 FEW020 32/14 Q1016","temp":32,"dewp":14,"wdir":"VRB","wspd":7,"visib":"6+","altim":1016,"clouds":[{"cover":"FEW","base":2000}],"obsTime":1783270800},"SBGM":{"icaoId":"SBGM","flightCategory":"VFR","rawOb":"METAR SBGM 051700Z 12005KT 9999 SCT030 29/19 Q1015","temp":29,"dewp":19,"wdir":120,"wspd":5,"visib":"6+","altim":1015,"clouds":[{"cover":"SCT","base":3000}],"obsTime":1783270800},"SBVH":{"icaoId":"SBVH","flightCategory":"VFR","rawOb":"METAR SBVH 051700Z 08007KT CAVOK 28/16 Q1018","temp":28,"dewp":16,"wdir":80,"wspd":7,"visib":"6+","altim":1018,"clouds":[],"obsTime":1783270800},"SBKG":{"icaoId":"SBKG","flightCategory":"VFR","rawOb":"METAR SBKG 051700Z 12007KT 9999 SCT023 BKN090 26/20 Q1017","temp":26,"dewp":20,"wdir":120,"wspd":7,"visib":"6+","altim":1017,"clouds":[{"cover":"SCT","base":2300},{"cover":"BKN","base":9000}],"obsTime":1783270800},"SBAX":{"icaoId":"SBAX","flightCategory":"VFR","rawOb":"METAR SBAX 051700Z AUTO 05003KT 020V100 CAVOK 25/12 Q1020","temp":25,"dewp":12,"wdir":50,"wspd":3,"visib":"6+","altim":1020,"clouds":[],"obsTime":1783270800},"SBBH":{"icaoId":"SBBH","flightCategory":"VFR","rawOb":"METAR SBBH 051700Z 06003KT 9999 BKN040 26/14 Q1020","temp":26,"dewp":14,"wdir":60,"wspd":3,"visib":"6+","altim":1020,"clouds":[{"cover":"BKN","base":4000}],"obsTime":1783270800},"SBBQ":{"icaoId":"SBBQ","flightCategory":"VFR","rawOb":"METAR SBBQ 051700Z 09005KT 060V120 9999 SCT020 21/12 Q1024","temp":21,"dewp":12,"wdir":90,"wspd":5,"visib":"6+","altim":1024,"clouds":[{"cover":"SCT","base":2000}],"obsTime":1783270800},"SBBU":{"icaoId":"SBBU","flightCategory":"VFR","rawOb":"METAR SBBU 051700Z 12007KT CAVOK 24/17 Q1020","temp":24,"dewp":17,"wdir":120,"wspd":7,"visib":"6+","altim":1020,"clouds":[],"obsTime":1783270800},"SBDN":{"icaoId":"SBDN","flightCategory":"VFR","rawOb":"METAR SBDN 051700Z 10005KT CAVOK 25/16 Q1019","temp":25,"dewp":16,"wdir":100,"wspd":5,"visib":"6+","altim":1019,"clouds":[],"obsTime":1783270800},"SBES":{"icaoId":"SBES","flightCategory":"MVFR","rawOb":"METAR SBES 051700Z VRB07KT 9999 BKN015 21/// Q1019","temp":null,"dewp":null,"wdir":"VRB","wspd":7,"visib":"6+","altim":1019,"clouds":[{"cover":"BKN","base":1500}],"obsTime":1783270800},"SBIP":{"icaoId":"SBIP","flightCategory":"VFR","rawOb":"METAR SBIP 051700Z AUTO VRB03KT CAVOK 27/16 Q1019","temp":27,"dewp":16,"wdir":"VRB","wspd":3,"visib":"6+","altim":1019,"clouds":[],"obsTime":1783270800},"SBSC":{"icaoId":"SBSC","flightCategory":"MVFR","rawOb":"METAR SBSC 051700Z 21006KT 9999 FEW020 BKN025 21/16 Q1020","temp":21,"dewp":16,"wdir":210,"wspd":6,"visib":"6+","altim":1020,"clouds":[{"cover":"FEW","base":2000},{"cover":"BKN","base":2500}],"obsTime":1783270800},"SBSR":{"icaoId":"SBSR","flightCategory":"VFR","rawOb":"METAR SBSR 051700Z VRB02KT 9999 FEW035 28/11 Q1018","temp":28,"dewp":11,"wdir":"VRB","wspd":2,"visib":"6+","altim":1018,"clouds":[{"cover":"FEW","base":3500}],"obsTime":1783270800},"SBTF":{"icaoId":"SBTF","flightCategory":"VFR","rawOb":"METAR SBTF 051700Z 09005KT 9999 SCT020 32/24 Q1013","temp":32,"dewp":24,"wdir":90,"wspd":5,"visib":"6+","altim":1013,"clouds":[{"cover":"SCT","base":2000}],"obsTime":1783270800},"SBPL":{"icaoId":"SBPL","flightCategory":"VFR","rawOb":"METAR SBPL 051700Z 11008KT 9999 FEW030 29/17 Q1016","temp":29,"dewp":17,"wdir":110,"wspd":8,"visib":"6+","altim":1016,"clouds":[{"cover":"FEW","base":3000}],"obsTime":1783270800},"SBPB":{"icaoId":"SBPB","flightCategory":"VFR","rawOb":"METAR SBPB 051700Z 05013KT 9999 SCT020 FEW025TCU 31/24 Q1012","temp":31,"dewp":24,"wdir":50,"wspd":13,"visib":"6+","altim":1012,"clouds":[{"cover":"SCT","base":2000},{"cover":"FEW","base":2500}],"obsTime":1783270800},"SBAR":{"icaoId":"SBAR","flightCategory":"VFR","rawOb":"METAR SBAR 051700Z 12009KT 080V160 9999 FEW023 27/21 Q1015","temp":27,"dewp":21,"wdir":120,"wspd":9,"visib":"6+","altim":1015,"clouds":[{"cover":"FEW","base":2300}],"obsTime":1783270800},"SBUY":{"icaoId":"SBUY","flightCategory":"VFR","rawOb":"METAR SBUY 051700Z 15004KT 9999 SCT025 30/22 Q1013","temp":30,"dewp":22,"wdir":150,"wspd":4,"visib":"6+","altim":1013,"clouds":[{"cover":"SCT","base":2500}],"obsTime":1783270800},"SBPS":{"icaoId":"SBPS","flightCategory":"VFR","rawOb":"METAR SBPS 051700Z 14004KT 070V240 9999 FEW018 BKN050 25/21 Q1018","temp":25,"dewp":21,"wdir":140,"wspd":4,"visib":"6+","altim":1018,"clouds":[{"cover":"FEW","base":1800},{"cover":"BKN","base":5000}],"obsTime":1783270800},"SBPP":{"icaoId":"SBPP","flightCategory":"VFR","rawOb":"METAR SBPP 051700Z 03010KT 9999 FEW025 25/14 Q1019","temp":25,"dewp":14,"wdir":30,"wspd":10,"visib":"6+","altim":1019,"clouds":[{"cover":"FEW","base":2500}],"obsTime":1783270800},"SBCJ":{"icaoId":"SBCJ","flightCategory":"VFR","rawOb":"METAR SBCJ 051700Z 12003KT 040V140 9999 SCT021 30/15 Q1016","temp":30,"dewp":15,"wdir":120,"wspd":3,"visib":"6+","altim":1016,"clouds":[{"cover":"SCT","base":2100}],"obsTime":1783270800},"SBCA":{"icaoId":"SBCA","flightCategory":"MVFR","rawOb":"METAR SBCA 051700Z 02008KT 9999 BKN030 23/13 Q1020","temp":23,"dewp":13,"wdir":20,"wspd":8,"visib":"6+","altim":1020,"clouds":[{"cover":"BKN","base":3000}],"obsTime":1783270800},"SBCO":{"icaoId":"SBCO","flightCategory":"MVFR","rawOb":"METAR SBCO 051700Z 13004KT 060V150 9999 BKN013 BKN100 15/11 Q1020","temp":15,"dewp":11,"wdir":130,"wspd":4,"visib":"6+","altim":1020,"clouds":[{"cover":"BKN","base":1300},{"cover":"BKN","base":10000}],"obsTime":1783270800},"SBSM":{"icaoId":"SBSM","flightCategory":"VFR","rawOb":"METAR SBSM 051700Z 12005KT 9999 FEW010 BKN050 14/10 Q1019","temp":14,"dewp":10,"wdir":120,"wspd":5,"visib":"6+","altim":1019,"clouds":[{"cover":"FEW","base":1000},{"cover":"BKN","base":5000}],"obsTime":1783270800},"SBSJ":{"icaoId":"SBSJ","flightCategory":"MVFR","rawOb":"METAR SBSJ 051700Z 21003KT 9000 BKN022 20/14 Q1022","temp":20,"dewp":14,"wdir":210,"wspd":3,"visib":5.59,"altim":1022,"clouds":[{"cover":"BKN","base":2200}],"obsTime":1783270800},"SBTT":{"icaoId":"SBTT","flightCategory":"VFR","rawOb":"METAR SBTT 051700Z 18004KT 110V270 9999 SCT026 28/22 Q1015","temp":28,"dewp":22,"wdir":180,"wspd":4,"visib":"6+","altim":1015,"clouds":[{"cover":"SCT","base":2600}],"obsTime":1783270800},"SBAN":{"icaoId":"SBAN","flightCategory":"VFR","rawOb":"METAR SBAN 051700Z 06004KT CAVOK 26/11 Q1022","temp":26,"dewp":11,"wdir":60,"wspd":4,"visib":"6+","altim":1022,"clouds":[],"obsTime":1783270800},"SBLE":{"icaoId":"SBLE","flightCategory":"VFR","rawOb":"METAR SBLE 051700Z AUTO VRB04KT 9999 FEW030 SCT034 BKN045 ///// Q1018","temp":null,"dewp":null,"wdir":"VRB","wspd":4,"visib":"6+","altim":1018,"clouds":[{"cover":"FEW","base":3000},{"cover":"SCT","base":3400},{"cover":"BKN","base":4500}],"obsTime":1783270800},"SBTC":{"icaoId":"SBTC","flightCategory":"VFR","rawOb":"METAR SBTC 051700Z 21004KT 9999 SCT025 BKN070 25/21 Q1018","temp":25,"dewp":21,"wdir":210,"wspd":4,"visib":"6+","altim":1018,"clouds":[{"cover":"SCT","base":2500},{"cover":"BKN","base":7000}],"obsTime":1783270800},"SBAF":{"icaoId":"SBAF","flightCategory":"VFR","rawOb":"METAR SBAF 051700Z 24005KT 9999 SCT016 BKN040 22/19 Q1020","temp":22,"dewp":19,"wdir":240,"wspd":5,"visib":"6+","altim":1020,"clouds":[{"cover":"SCT","base":1600},{"cover":"BKN","base":4000}],"obsTime":1783270800},"SBGW":{"icaoId":"SBGW","flightCategory":"MVFR","rawOb":"METAR SBGW 051700Z VRB03KT 8000 BKN020 20/12 Q1021","temp":20,"dewp":12,"wdir":"VRB","wspd":3,"visib":4.97,"altim":1021,"clouds":[{"cover":"BKN","base":2000}],"obsTime":1783270800},"SBJR":{"icaoId":"SBJR","flightCategory":"VFR","rawOb":"METAR SBJR 051700Z 22006KT 9999 SCT018 BKN040 23/17 Q1020","temp":23,"dewp":17,"wdir":220,"wspd":6,"visib":"6+","altim":1020,"clouds":[{"cover":"SCT","base":1800},{"cover":"BKN","base":4000}],"obsTime":1783270800},"SBLS":{"icaoId":"SBLS","flightCategory":"VFR","rawOb":"METAR SBLS 051700Z VRB04KT 9999 SCT035 26/14 Q1020","temp":26,"dewp":14,"wdir":"VRB","wspd":4,"visib":"6+","altim":1020,"clouds":[{"cover":"SCT","base":3500}],"obsTime":1783270800},"SBMT":{"icaoId":"SBMT","flightCategory":"VFR","rawOb":"METAR SBMT 051700Z 17005KT CAVOK 23/16 Q1021","temp":23,"dewp":16,"wdir":170,"wspd":5,"visib":"6+","altim":1021,"clouds":[],"obsTime":1783270800},"SBST":{"icaoId":"SBST","flightCategory":"IFR","rawOb":"METAR SBST 051700Z 21003KT 2000 BR BKN014 OVC017 17/15 Q1021","temp":17,"dewp":15,"wdir":210,"wspd":3,"visib":1.24,"altim":1021,"clouds":[{"cover":"BKN","base":1400},{"cover":"OVC","base":1700}],"obsTime":1783270800},"SBTA":{"icaoId":"SBTA","flightCategory":"VFR","rawOb":"METAR SBTA 051700Z 02005KT 350V090 9999 SCT020 21/15 Q1020","temp":21,"dewp":15,"wdir":20,"wspd":5,"visib":"6+","altim":1020,"clouds":[{"cover":"SCT","base":2000}],"obsTime":1783270800},"SBJP":{"icaoId":"SBJP","flightCategory":"MVFR","rawOb":"METAR SBJP 051700Z 15012KT 9999 BKN020 BKN070 26/23 Q1015","temp":26,"dewp":23,"wdir":150,"wspd":12,"visib":"6+","altim":1015,"clouds":[{"cover":"BKN","base":2000},{"cover":"BKN","base":7000}],"obsTime":1783270800},"SBJV":{"icaoId":"SBJV","flightCategory":"MVFR","rawOb":"METAR SBJV 051700Z 34004KT 8000 OVC012 15/13 Q1022","temp":15,"dewp":13,"wdir":340,"wspd":4,"visib":4.97,"altim":1022,"clouds":[{"cover":"OVC","base":1200}],"obsTime":1783270800},"SBNM":{"icaoId":"SBNM","flightCategory":"VFR","rawOb":"METAR SBNM 051700Z AUTO 08003KT 030V130 CAVOK 18/13 Q1018","temp":18,"dewp":13,"wdir":80,"wspd":3,"visib":"6+","altim":1018,"clouds":[],"obsTime":1783270800},"SBPF":{"icaoId":"SBPF","flightCategory":"VFR","rawOb":"METAR SBPF 051800Z 03007KT CAVOK 18/11 Q1019","temp":18,"dewp":11,"wdir":30,"wspd":7,"visib":"6+","altim":1019,"clouds":[],"obsTime":1783274400},"SBIH":{"icaoId":"SBIH","flightCategory":"VFR","rawOb":"METAR SBIH 051700Z 06003KT 9999 FEW020 34/21 Q1012","temp":34,"dewp":21,"wdir":60,"wspd":3,"visib":"6+","altim":1012,"clouds":[{"cover":"FEW","base":2000}],"obsTime":1783270800}}}