{"updated":1781821653,"count":84,"data":{"SBEG":{"icaoId":"SBEG","flightCategory":"VFR","rawOb":"METAR SBEG 182100Z 03003KT 9999 FEW020 FEW030TCU SCT100 24/23 Q1012","temp":24,"dewp":23,"wdir":30,"wspd":3,"visib":"6+","altim":1012,"clouds":[{"cover":"FEW","base":2000},{"cover":"FEW","base":3000},{"cover":"SCT","base":10000}],"obsTime":1781816400},"SBBE":{"icaoId":"SBBE","flightCategory":"VFR","rawOb":"METAR SBBE 182100Z 35009KT 9999 SCT030 29/24 Q1012","temp":29,"dewp":24,"wdir":350,"wspd":9,"visib":"6+","altim":1012,"clouds":[{"cover":"SCT","base":3000}],"obsTime":1781816400},"SBBR":{"icaoId":"SBBR","flightCategory":"VFR","rawOb":"METAR SBBR 182100Z 16006KT CAVOK 25/12 Q1022","temp":25,"dewp":12,"wdir":160,"wspd":6,"visib":"6+","altim":1022,"clouds":[],"obsTime":1781816400},"SBBV":{"icaoId":"SBBV","flightCategory":"VFR","rawOb":"METAR SBBV 182100Z 26002KT 9999 VCSH SCT030 FEW040TCU BKN080 31/22 Q1012","temp":31,"dewp":22,"wdir":260,"wspd":2,"visib":"6+","altim":1012,"clouds":[{"cover":"SCT","base":3000},{"cover":"FEW","base":4000},{"cover":"BKN","base":8000}],"obsTime":1781816400},"SBCF":{"icaoId":"SBCF","flightCategory":"VFR","rawOb":"METAR SBCF 182100Z 12010KT CAVOK 19/12 Q1023","temp":19,"dewp":12,"wdir":120,"wspd":10,"visib":"6+","altim":1023,"clouds":[],"obsTime":1781816400},"SBCG":{"icaoId":"SBCG","flightCategory":"VFR","rawOb":"METAR SBCG 182100Z 08006KT CAVOK 23/15 Q1016","temp":23,"dewp":15,"wdir":80,"wspd":6,"visib":"6+","altim":1016,"clouds":[],"obsTime":1781816400},"SBCP":{"icaoId":"SBCP","flightCategory":"VFR","rawOb":"METAR SBCP 182100Z 19008KT CAVOK 20/15 Q1023","temp":20,"dewp":15,"wdir":190,"wspd":8,"visib":"6+","altim":1023,"clouds":[],"obsTime":1781816400},"SBCT":{"icaoId":"SBCT","flightCategory":"VFR","rawOb":"METAR SBCT 182100Z 10005KT CAVOK 10/08 Q1025","temp":10,"dewp":8,"wdir":100,"wspd":5,"visib":"6+","altim":1025,"clouds":[],"obsTime":1781816400},"SBCZ":{"icaoId":"SBCZ","flightCategory":"VFR","rawOb":"METAR SBCZ 182100Z 29003KT 9999 SCT030 27/25 Q1012","temp":27,"dewp":25,"wdir":290,"wspd":3,"visib":"6+","altim":1012,"clouds":[{"cover":"SCT","base":3000}],"obsTime":1781816400},"SBFI":{"icaoId":"SBFI","flightCategory":"VFR","rawOb":"METAR SBFI 182100Z 08006KT CAVOK 18/14 Q1016","temp":18,"dewp":14,"wdir":80,"wspd":6,"visib":"6+","altim":1016,"clouds":[],"obsTime":1781816400},"SBFL":{"icaoId":"SBFL","flightCategory":"MVFR","rawOb":"METAR SBFL 182100Z 32005KT 9000 SCT006 BKN030 17/14 Q1024","temp":17,"dewp":14,"wdir":320,"wspd":5,"visib":5.59,"altim":1024,"clouds":[{"cover":"SCT","base":600},{"cover":"BKN","base":3000}],"obsTime":1781816400},"SBFZ":{"icaoId":"SBFZ","flightCategory":"VFR","rawOb":"METAR SBFZ 182100Z 09007KT CAVOK 27/24 Q1013","temp":27,"dewp":24,"wdir":90,"wspd":7,"visib":"6+","altim":1013,"clouds":[],"obsTime":1781816400},"SBGL":{"icaoId":"SBGL","flightCategory":"VFR","rawOb":"METAR SBGL 182100Z 15003KT 9999 FEW030 20/14 Q1024","temp":20,"dewp":14,"wdir":150,"wspd":3,"visib":"6+","altim":1024,"clouds":[{"cover":"FEW","base":3000}],"obsTime":1781816400},"SBGO":{"icaoId":"SBGO","flightCategory":"VFR","rawOb":"METAR SBGO 182100Z 14005KT CAVOK 27/11 Q1019","temp":27,"dewp":11,"wdir":140,"wspd":5,"visib":"6+","altim":1019,"clouds":[],"obsTime":1781816400},"SBGR":{"icaoId":"SBGR","flightCategory":"VFR","rawOb":"METAR SBGR 182100Z 15006KT CAVOK 15/09 Q1025","temp":15,"dewp":9,"wdir":150,"wspd":6,"visib":"6+","altim":1025,"clouds":[],"obsTime":1781816400},"SBIL":{"icaoId":"SBIL","flightCategory":"VFR","rawOb":"METAR SBIL 182100Z 21009KT 9999 FEW030 BKN070 25/20 Q1020","temp":25,"dewp":20,"wdir":210,"wspd":9,"visib":"6+","altim":1020,"clouds":[{"cover":"FEW","base":3000},{"cover":"BKN","base":7000}],"obsTime":1781816400},"SBJU":{"icaoId":"SBJU","flightCategory":"VFR","rawOb":"METAR SBJU 182100Z 18005KT 9999 FEW022 29/16 Q1015","temp":29,"dewp":16,"wdir":180,"wspd":5,"visib":"6+","altim":1015,"clouds":[{"cover":"FEW","base":2200}],"obsTime":1781816400},"SBKP":{"icaoId":"SBKP","flightCategory":"VFR","rawOb":"METAR SBKP 182100Z 13010KT CAVOK 17/08 Q1022","temp":17,"dewp":8,"wdir":130,"wspd":10,"visib":"6+","altim":1022,"clouds":[],"obsTime":1781816400},"SBLO":{"icaoId":"SBLO","flightCategory":"VFR","rawOb":"METAR SBLO 182100Z 11008KT CAVOK 16/10 Q1020","temp":16,"dewp":10,"wdir":110,"wspd":8,"visib":"6+","altim":1020,"clouds":[],"obsTime":1781816400},"SBMA":{"icaoId":"SBMA","flightCategory":"VFR","rawOb":"METAR SBMA 182100Z 06005KT 9999 FEW028 31/23 Q1012","temp":31,"dewp":23,"wdir":60,"wspd":5,"visib":"6+","altim":1012,"clouds":[{"cover":"FEW","base":2800}],"obsTime":1781816400},"SBME":{"icaoId":"SBME","flightCategory":"VFR","rawOb":"METAR SBME 182100Z 20008KT 9999 FEW040 21/13 Q1024","temp":21,"dewp":13,"wdir":200,"wspd":8,"visib":"6+","altim":1024,"clouds":[{"cover":"FEW","base":4000}],"obsTime":1781816400},"SBMG":{"icaoId":"SBMG","flightCategory":"VFR","rawOb":"METAR SBMG 182100Z 09008KT CAVOK 17/10 Q1019","temp":17,"dewp":10,"wdir":90,"wspd":8,"visib":"6+","altim":1019,"clouds":[],"obsTime":1781816400},"SBMK":{"icaoId":"SBMK","flightCategory":"VFR","rawOb":"METAR SBMK 182100Z 09006KT CAVOK 23/14 Q1021","temp":23,"dewp":14,"wdir":90,"wspd":6,"visib":"6+","altim":1021,"clouds":[],"obsTime":1781816400},"SBMO":{"icaoId":"SBMO","flightCategory":"VFR","rawOb":"METAR SBMO 182100Z 16005KT 9999 FEW020 SCT065 26/23 Q1017","temp":26,"dewp":23,"wdir":160,"wspd":5,"visib":"6+","altim":1017,"clouds":[{"cover":"FEW","base":2000},{"cover":"SCT","base":6500}],"obsTime":1781816400},"SBMQ":{"icaoId":"SBMQ","flightCategory":"VFR","rawOb":"METAR SBMQ 182100Z 06008KT 9999 FEW020 FEW030TCU 30/25 Q1012","temp":30,"dewp":25,"wdir":60,"wspd":8,"visib":"6+","altim":1012,"clouds":[{"cover":"FEW","base":2000},{"cover":"FEW","base":3000}],"obsTime":1781816400},"SBNT":{"icaoId":"SBNT","flightCategory":"VFR","rawOb":"METAR SBNT 182100Z 14010KT 9999 FEW018 SCT030 26/23 Q1014","temp":26,"dewp":23,"wdir":140,"wspd":10,"visib":"6+","altim":1014,"clouds":[{"cover":"FEW","base":1800},{"cover":"SCT","base":3000}],"obsTime":1781816400},"SBPA":{"icaoId":"SBPA","flightCategory":"VFR","rawOb":"METAR SBPA 182100Z 10008KT CAVOK 16/11 Q1019","temp":16,"dewp":11,"wdir":100,"wspd":8,"visib":"6+","altim":1019,"clouds":[],"obsTime":1781816400},"SBPJ":{"icaoId":"SBPJ","flightCategory":"VFR","rawOb":"METAR SBPJ 182100Z 11004KT 9999 FEW040 SCT080 31/20 Q1013","temp":31,"dewp":20,"wdir":110,"wspd":4,"visib":"6+","altim":1013,"clouds":[{"cover":"FEW","base":4000},{"cover":"SCT","base":8000}],"obsTime":1781816400},"SBPV":{"icaoId":"SBPV","flightCategory":"VFR","rawOb":"METAR SBPV 182100Z 01005KT 9999 FEW040 29/22 Q1011","temp":29,"dewp":22,"wdir":10,"wspd":5,"visib":"6+","altim":1011,"clouds":[{"cover":"FEW","base":4000}],"obsTime":1781816400},"SBRB":{"icaoId":"SBRB","flightCategory":"VFR","rawOb":"METAR SBRB 182100Z 22002KT 9999 SCT020 26/21 Q1014","temp":26,"dewp":21,"wdir":220,"wspd":2,"visib":"6+","altim":1014,"clouds":[{"cover":"SCT","base":2000}],"obsTime":1781816400},"SBRF":{"icaoId":"SBRF","flightCategory":"VFR","rawOb":"METAR SBRF 182100Z 16012KT 9999 FEW024 27/23 Q1015","temp":27,"dewp":23,"wdir":160,"wspd":12,"visib":"6+","altim":1015,"clouds":[{"cover":"FEW","base":2400}],"obsTime":1781816400},"SBSG":{"icaoId":"SBSG","flightCategory":"VFR","rawOb":"METAR SBSG 182100Z 13007KT 110V170 9999 FEW019 SCT100 26/24 Q1015","temp":26,"dewp":24,"wdir":130,"wspd":7,"visib":"6+","altim":1015,"clouds":[{"cover":"FEW","base":1900},{"cover":"SCT","base":10000}],"obsTime":1781816400},"SBSL":{"icaoId":"SBSL","flightCategory":"VFR","rawOb":"METAR SBSL 182100Z 13004KT 9999 SCT025 27/24 Q1013","temp":27,"dewp":24,"wdir":130,"wspd":4,"visib":"6+","altim":1013,"clouds":[{"cover":"SCT","base":2500}],"obsTime":1781816400},"SBSN":{"icaoId":"SBSN","flightCategory":"VFR","rawOb":"METAR SBSN 182100Z 07005KT 9999 FEW023 FEW026TCU 30/24 Q1011","temp":30,"dewp":24,"wdir":70,"wspd":5,"visib":"6+","altim":1011,"clouds":[{"cover":"FEW","base":2300},{"cover":"FEW","base":2600}],"obsTime":1781816400},"SBSP":{"icaoId":"SBSP","flightCategory":"VFR","rawOb":"METAR SBSP 182100Z 15011KT CAVOK 13/11 Q1025","temp":13,"dewp":11,"wdir":150,"wspd":11,"visib":"6+","altim":1025,"clouds":[],"obsTime":1781816400},"SBSV":{"icaoId":"SBSV","flightCategory":"MVFR","rawOb":"METAR SBSV 182100Z 15017KT 9999 VCSH BKN023 OVC050 26/21 Q1018","temp":26,"dewp":21,"wdir":150,"wspd":17,"visib":"6+","altim":1018,"clouds":[{"cover":"BKN","base":2300},{"cover":"OVC","base":5000}],"obsTime":1781816400},"SBTE":{"icaoId":"SBTE","flightCategory":"VFR","rawOb":"METAR SBTE 182100Z 30004KT 9999 FEW030TCU SCT100 29/21 Q1011 RETS","temp":29,"dewp":21,"wdir":300,"wspd":4,"visib":"6+","altim":1011,"clouds":[{"cover":"FEW","base":3000},{"cover":"SCT","base":10000}],"obsTime":1781816400},"SBUL":{"icaoId":"SBUL","flightCategory":"VFR","rawOb":"METAR SBUL 182100Z 09004KT CAVOK 23/10 Q1022","temp":23,"dewp":10,"wdir":90,"wspd":4,"visib":"6+","altim":1022,"clouds":[],"obsTime":1781816400},"SBUR":{"icaoId":"SBUR","flightCategory":"VFR","rawOb":"METAR SBUR 182100Z 03002KT CAVOK 24/09 Q1020","temp":24,"dewp":9,"wdir":30,"wspd":2,"visib":"6+","altim":1020,"clouds":[],"obsTime":1781816400},"SBVT":{"icaoId":"SBVT","flightCategory":"VFR","rawOb":"METAR SBVT 182100Z 20009KT CAVOK 21/15 Q1023","temp":21,"dewp":15,"wdir":200,"wspd":9,"visib":"6+","altim":1023,"clouds":[],"obsTime":1781816400},"SBCB":{"icaoId":"SBCB","flightCategory":"VFR","rawOb":"METAR SBCB 182100Z /////KT CAVOK 21/14 Q1024","temp":21,"dewp":14,"wdir":null,"wspd":null,"visib":"6+","altim":1024,"clouds":[],"obsTime":1781816400},"SBCR":{"icaoId":"SBCR","flightCategory":"VFR","rawOb":"METAR SBCR 182100Z 07009KT CAVOK 28/20 Q1011","temp":28,"dewp":20,"wdir":70,"wspd":9,"visib":"6+","altim":1011,"clouds":[],"obsTime":1781816400},"SBAT":{"icaoId":"SBAT","flightCategory":"VFR","rawOb":"METAR SBAT 182100Z 00000KT 9999 VCSH FEW035 FEW040TCU 28/22 Q1013","temp":28,"dewp":22,"wdir":0,"wspd":0,"visib":"6+","altim":1013,"clouds":[{"cover":"FEW","base":3500},{"cover":"FEW","base":4000}],"obsTime":1781816400},"SBHT":{"icaoId":"SBHT","flightCategory":"VFR","rawOb":"METAR SBHT 182100Z 00000KT CAVOK 30/26 Q1012","temp":30,"dewp":26,"wdir":0,"wspd":0,"visib":"6+","altim":1012,"clouds":[],"obsTime":1781816400},"SBVH":{"icaoId":"SBVH","flightCategory":"VFR","rawOb":"METAR SBVH 182100Z 05005KT CAVOK 28/20 Q1015","temp":28,"dewp":20,"wdir":50,"wspd":5,"visib":"6+","altim":1015,"clouds":[],"obsTime":1781816400},"SBAR":{"icaoId":"SBAR","flightCategory":"VFR","rawOb":"METAR SBAR 182100Z 16007KT 9999 SCT020 27/23 Q1017","temp":27,"dewp":23,"wdir":160,"wspd":7,"visib":"6+","altim":1017,"clouds":[{"cover":"SCT","base":2000}],"obsTime":1781816400},"SBAX":{"icaoId":"SBAX","flightCategory":"VFR","rawOb":"METAR SBAX 182100Z 10005KT CAVOK 21/09 Q1022","temp":21,"dewp":9,"wdir":100,"wspd":5,"visib":"6+","altim":1022,"clouds":[],"obsTime":1781816400},"SBBH":{"icaoId":"SBBH","flightCategory":"VFR","rawOb":"METAR SBBH 182100Z 11006KT CAVOK 19/12 Q1023","temp":19,"dewp":12,"wdir":110,"wspd":6,"visib":"6+","altim":1023,"clouds":[],"obsTime":1781816400},"SBBU":{"icaoId":"SBBU","flightCategory":"VFR","rawOb":"METAR SBBU 182100Z 12007KT CAVOK 18/11 Q1021","temp":18,"dewp":11,"wdir":120,"wspd":7,"visib":"6+","altim":1021,"clouds":[],"obsTime":1781816400},"SBCA":{"icaoId":"SBCA","flightCategory":"VFR","rawOb":"METAR SBCA 182100Z 05015G25KT CAVOK 16/07 Q1019","temp":16,"dewp":7,"wdir":50,"wspd":15,"visib":"6+","altim":1019,"clouds":[],"obsTime":1781816400},"SBCC":{"icaoId":"SBCC","flightCategory":"MVFR","rawOb":"METAR SBCC 182100Z 26006KT 9999 VCSH BKN030 FEW035TCU SCT100 24/22 Q1014","temp":24,"dewp":22,"wdir":260,"wspd":6,"visib":"6+","altim":1014,"clouds":[{"cover":"BKN","base":3000},{"cover":"FEW","base":3500},{"cover":"SCT","base":10000}],"obsTime":1781816400},"SBCO":{"icaoId":"SBCO","flightCategory":"VFR","rawOb":"METAR SBCO 182100Z 10003KT CAVOK 13/10 Q1019","temp":13,"dewp":10,"wdir":100,"wspd":3,"visib":"6+","altim":1019,"clouds":[],"obsTime":1781816400},"SBDN":{"icaoId":"SBDN","flightCategory":"VFR","rawOb":"METAR SBDN 182100Z 11007KT CAVOK 19/10 Q1018","temp":19,"dewp":10,"wdir":110,"wspd":7,"visib":"6+","altim":1018,"clouds":[],"obsTime":1781816400},"SBES":{"icaoId":"SBES","flightCategory":"VFR","rawOb":"METAR SBES 182100Z 19006KT 9999 FEW025 19/// Q1024","temp":null,"dewp":null,"wdir":190,"wspd":6,"visib":"6+","altim":1024,"clouds":[{"cover":"FEW","base":2500}],"obsTime":1781816400},"SBIP":{"icaoId":"SBIP","flightCategory":"VFR","rawOb":"METAR SBIP 182100Z AUTO VRB01KT CAVOK 18/17 Q1021","temp":18,"dewp":17,"wdir":"VRB","wspd":1,"visib":"6+","altim":1021,"clouds":[],"obsTime":1781816400},"SBKG":{"icaoId":"SBKG","flightCategory":"VFR","rawOb":"METAR SBKG 182100Z 10006KT 9999 FEW025 24/19 Q1017","temp":24,"dewp":19,"wdir":100,"wspd":6,"visib":"6+","altim":1017,"clouds":[{"cover":"FEW","base":2500}],"obsTime":1781816400},"SBOI":{"icaoId":"SBOI","flightCategory":"VFR","rawOb":"METAR SBOI 182100Z AUTO 36004KT 320V060 CAVOK 27/23 Q1013","temp":27,"dewp":23,"wdir":360,"wspd":4,"visib":"6+","altim":1013,"clouds":[],"obsTime":1781816400},"SBPL":{"icaoId":"SBPL","flightCategory":"VFR","rawOb":"METAR SBPL 182100Z 10006KT 9999 FEW035 31/14 Q1015","temp":31,"dewp":14,"wdir":100,"wspd":6,"visib":"6+","altim":1015,"clouds":[{"cover":"FEW","base":3500}],"obsTime":1781816400},"SBPS":{"icaoId":"SBPS","flightCategory":"MVFR","rawOb":"METAR SBPS 182100Z 19003KT 9999 SCT015 BKN025 23/20 Q1021","temp":23,"dewp":20,"wdir":190,"wspd":3,"visib":"6+","altim":1021,"clouds":[{"cover":"SCT","base":1500},{"cover":"BKN","base":2500}],"obsTime":1781816400},"SBSC":{"icaoId":"SBSC","flightCategory":"VFR","rawOb":"METAR SBSC 182100Z 18003KT 9999 FEW025 18/15 Q1024","temp":18,"dewp":15,"wdir":180,"wspd":3,"visib":"6+","altim":1024,"clouds":[{"cover":"FEW","base":2500}],"obsTime":1781816400},"SBSJ":{"icaoId":"SBSJ","flightCategory":"VFR","rawOb":"METAR SBSJ 182100Z 16009KT CAVOK 15/08 Q1024","temp":15,"dewp":8,"wdir":160,"wspd":9,"visib":"6+","altim":1024,"clouds":[],"obsTime":1781816400},"SBSM":{"icaoId":"SBSM","flightCategory":"VFR","rawOb":"METAR SBSM 182100Z 12005KT 090V150 CAVOK 13/11 Q1016","temp":13,"dewp":11,"wdir":120,"wspd":5,"visib":"6+","altim":1016,"clouds":[],"obsTime":1781816400},"SBSR":{"icaoId":"SBSR","flightCategory":"VFR","rawOb":"METAR SBSR 182100Z 13003KT CAVOK 23/09 Q1019","temp":23,"dewp":9,"wdir":130,"wspd":3,"visib":"6+","altim":1019,"clouds":[],"obsTime":1781816400},"SBTF":{"icaoId":"SBTF","flightCategory":"VFR","rawOb":"METAR SBTF 182100Z 22004KT 9999 VCSH SCT020 FEW025TCU 31/24 Q1011","temp":31,"dewp":24,"wdir":220,"wspd":4,"visib":"6+","altim":1011,"clouds":[{"cover":"SCT","base":2000},{"cover":"FEW","base":2500}],"obsTime":1781816400},"SBTT":{"icaoId":"SBTT","flightCategory":"VFR","rawOb":"METAR SBTT 182100Z 21004KT 9999 FEW021 FEW023TCU 29/23 Q1012","temp":29,"dewp":23,"wdir":210,"wspd":4,"visib":"6+","altim":1012,"clouds":[{"cover":"FEW","base":2100},{"cover":"FEW","base":2300}],"obsTime":1781816400},"SBTU":{"icaoId":"SBTU","flightCategory":"VFR","rawOb":"METAR SBTU 182100Z AUTO 25003KT 9999 // FEW040/// ///// Q1014","temp":null,"dewp":null,"wdir":250,"wspd":3,"visib":"6+","altim":1014,"clouds":[{"cover":"FEW","base":4000}],"obsTime":1781816400},"SBUY":{"icaoId":"SBUY","flightCategory":"VFR","rawOb":"METAR SBUY 182100Z 31002KT 9999 SCT025 FEW030TCU SCT080 26/24 Q1011","temp":26,"dewp":24,"wdir":310,"wspd":2,"visib":"6+","altim":1011,"clouds":[{"cover":"SCT","base":2500},{"cover":"FEW","base":3000},{"cover":"SCT","base":8000}],"obsTime":1781816400},"SBPB":{"icaoId":"SBPB","flightCategory":"VFR","rawOb":"METAR SBPB 182100Z 06007KT 9999 FEW020 28/25 Q1012","temp":28,"dewp":25,"wdir":60,"wspd":7,"visib":"6+","altim":1012,"clouds":[{"cover":"FEW","base":2000}],"obsTime":1781816400},"SBCJ":{"icaoId":"SBCJ","flightCategory":"VFR","rawOb":"METAR SBCJ 182100Z 00000KT 9999 FEW023 26/22 Q1016","temp":26,"dewp":22,"wdir":0,"wspd":0,"visib":"6+","altim":1016,"clouds":[{"cover":"FEW","base":2300}],"obsTime":1781816400},"SBPP":{"icaoId":"SBPP","flightCategory":"VFR","rawOb":"METAR SBPP 182100Z 07013KT CAVOK 19/14 Q1016","temp":19,"dewp":14,"wdir":70,"wspd":13,"visib":"6+","altim":1016,"clouds":[],"obsTime":1781816400},"SBPF":{"icaoId":"SBPF","flightCategory":"VFR","rawOb":"METAR SBPF 182100Z 05010KT CAVOK 14/07 Q1020","temp":14,"dewp":7,"wdir":50,"wspd":10,"visib":"6+","altim":1020,"clouds":[],"obsTime":1781816400},"SBAN":{"icaoId":"SBAN","flightCategory":"VFR","rawOb":"METAR SBAN 182100Z 12004KT CAVOK 23/10 Q1022","temp":23,"dewp":10,"wdir":120,"wspd":4,"visib":"6+","altim":1022,"clouds":[],"obsTime":1781816400},"SBLE":{"icaoId":"SBLE","flightCategory":"VFR","rawOb":"METAR SBLE 182100Z AUTO 15004KT 090V200 9999 -RA OVC048 26/18 Q1019","temp":26,"dewp":18,"wdir":150,"wspd":4,"visib":"6+","altim":1019,"clouds":[{"cover":"OVC","base":4800}],"obsTime":1781816400},"SBAF":{"icaoId":"SBAF","flightCategory":"VFR","rawOb":"METAR SBAF 182100Z 20006KT 9999 FEW040 19/17 Q1024","temp":19,"dewp":17,"wdir":200,"wspd":6,"visib":"6+","altim":1024,"clouds":[{"cover":"FEW","base":4000}],"obsTime":1781816400},"SBGW":{"icaoId":"SBGW","flightCategory":"VFR","rawOb":"METAR SBGW 182100Z 03003KT 360V060 CAVOK 17/09 Q1024","temp":17,"dewp":9,"wdir":30,"wspd":3,"visib":"6+","altim":1024,"clouds":[],"obsTime":1781816400},"SBJR":{"icaoId":"SBJR","flightCategory":"VFR","rawOb":"METAR SBJR 182100Z 31001KT 9999 FEW030 18/16 Q1024","temp":18,"dewp":16,"wdir":310,"wspd":1,"visib":"6+","altim":1024,"clouds":[{"cover":"FEW","base":3000}],"obsTime":1781816400},"SBJV":{"icaoId":"SBJV","flightCategory":"VFR","rawOb":"METAR SBJV 182100Z 12005KT 9999 FEW030 16/13 Q1024","temp":16,"dewp":13,"wdir":120,"wspd":5,"visib":"6+","altim":1024,"clouds":[{"cover":"FEW","base":3000}],"obsTime":1781816400},"SBLS":{"icaoId":"SBLS","flightCategory":"VFR","rawOb":"METAR SBLS 182100Z 14009KT 9999 FEW040 19/13 Q1023","temp":19,"dewp":13,"wdir":140,"wspd":9,"visib":"6+","altim":1023,"clouds":[{"cover":"FEW","base":4000}],"obsTime":1781816400},"SBMT":{"icaoId":"SBMT","flightCategory":"VFR","rawOb":"METAR SBMT 182100Z 17010KT CAVOK 13/09 Q1025","temp":13,"dewp":9,"wdir":170,"wspd":10,"visib":"6+","altim":1025,"clouds":[],"obsTime":1781816400},"SBTA":{"icaoId":"SBTA","flightCategory":"VFR","rawOb":"METAR SBTA 182100Z 06002KT CAVOK 16/12 Q1023","temp":16,"dewp":12,"wdir":60,"wspd":2,"visib":"6+","altim":1023,"clouds":[],"obsTime":1781816400},"SBNM":{"icaoId":"SBNM","flightCategory":"VFR","rawOb":"METAR SBNM 182100Z AUTO 08004KT 040V110 CAVOK 16/09 Q1016","temp":16,"dewp":9,"wdir":80,"wspd":4,"visib":"6+","altim":1016,"clouds":[],"obsTime":1781816400},"SBJP":{"icaoId":"SBJP","flightCategory":"VFR","rawOb":"METAR SBJP 182100Z 12008KT CAVOK 26/23 Q1015","temp":26,"dewp":23,"wdir":120,"wspd":8,"visib":"6+","altim":1015,"clouds":[],"obsTime":1781816400},"SBIH":{"icaoId":"SBIH","flightCategory":"VFR","rawOb":"METAR SBIH 182100Z 10003KT 9999 FEW020 FEW023TCU 31/25 Q1011","temp":31,"dewp":25,"wdir":100,"wspd":3,"visib":"6+","altim":1011,"clouds":[{"cover":"FEW","base":2000},{"cover":"FEW","base":2300}],"obsTime":1781816400},"SBST":{"icaoId":"SBST","flightCategory":"VFR","rawOb":"METAR SBST 182100Z 08002KT 9999 FEW030 16/14 Q1024","temp":16,"dewp":14,"wdir":80,"wspd":2,"visib":"6+","altim":1024,"clouds":[{"cover":"FEW","base":3000}],"obsTime":1781816400}}}