{"updated":1784331563,"count":75,"data":{"SBRF":{"icaoId":"SBRF","flightCategory":"MVFR","rawOb":"METAR SBRF 172200Z 18011KT 9000 VCSH SCT011 BKN020 BKN050 24/23 Q1016","temp":24,"dewp":23,"wdir":180,"wspd":11,"visib":5.59,"altim":1016,"clouds":[{"cover":"SCT","base":1100},{"cover":"BKN","base":2000},{"cover":"BKN","base":5000}],"obsTime":1784325600},"SBSP":{"icaoId":"SBSP","flightCategory":"VFR","rawOb":"METAR SBSP 172200Z 01006KT CAVOK 20/09 Q1022","temp":20,"dewp":9,"wdir":10,"wspd":6,"visib":"6+","altim":1022,"clouds":[],"obsTime":1784325600},"SBTE":{"icaoId":"SBTE","flightCategory":"VFR","rawOb":"METAR SBTE 172200Z 22004KT CAVOK 31/18 Q1012","temp":31,"dewp":18,"wdir":220,"wspd":4,"visib":"6+","altim":1012,"clouds":[],"obsTime":1784325600},"SBSN":{"icaoId":"SBSN","flightCategory":"VFR","rawOb":"METAR SBSN 172200Z 08009KT CAVOK 29/24 Q1011","temp":29,"dewp":24,"wdir":80,"wspd":9,"visib":"6+","altim":1011,"clouds":[],"obsTime":1784325600},"SBMO":{"icaoId":"SBMO","flightCategory":"MVFR","rawOb":"METAR SBMO 172200Z 17012KT 9999 -RA BKN023 24/21 Q1018","temp":24,"dewp":21,"wdir":170,"wspd":12,"visib":"6+","altim":1018,"clouds":[{"cover":"BKN","base":2300}],"obsTime":1784325600},"SBBE":{"icaoId":"SBBE","flightCategory":"VFR","rawOb":"METAR SBBE 172200Z 05005KT 9999 BKN040 28/24 Q1012","temp":28,"dewp":24,"wdir":50,"wspd":5,"visib":"6+","altim":1012,"clouds":[{"cover":"BKN","base":4000}],"obsTime":1784325600},"SBPV":{"icaoId":"SBPV","flightCategory":"VFR","rawOb":"METAR SBPV 172200Z 22001KT 9999 FEW025 FEW035TCU BKN100 27/24 Q1011","temp":27,"dewp":24,"wdir":220,"wspd":1,"visib":"6+","altim":1011,"clouds":[{"cover":"FEW","base":2500},{"cover":"FEW","base":3500},{"cover":"BKN","base":10000}],"obsTime":1784325600},"SBEG":{"icaoId":"SBEG","flightCategory":"VFR","rawOb":"METAR SBEG 172200Z 09006KT 9999 SCT025 SCT100 28/23 Q1011","temp":28,"dewp":23,"wdir":90,"wspd":6,"visib":"6+","altim":1011,"clouds":[{"cover":"SCT","base":2500},{"cover":"SCT","base":10000}],"obsTime":1784325600},"SBSV":{"icaoId":"SBSV","flightCategory":"VFR","rawOb":"METAR SBSV 172200Z 13012KT 100V160 9999 FEW030 BKN060 25/18 Q1020","temp":25,"dewp":18,"wdir":130,"wspd":12,"visib":"6+","altim":1020,"clouds":[{"cover":"FEW","base":3000},{"cover":"BKN","base":6000}],"obsTime":1784325600},"SBBR":{"icaoId":"SBBR","flightCategory":"VFR","rawOb":"METAR SBBR 172200Z 13005KT CAVOK 19/07 Q1023","temp":19,"dewp":7,"wdir":130,"wspd":5,"visib":"6+","altim":1023,"clouds":[],"obsTime":1784325600},"SBSG":{"icaoId":"SBSG","flightCategory":"IFR","rawOb":"METAR SBSG 172200Z 16007KT 120V220 3000 -RA BR BKN007 BKN025 23/23 Q1015","temp":23,"dewp":23,"wdir":160,"wspd":7,"visib":1.86,"altim":1015,"clouds":[{"cover":"BKN","base":700},{"cover":"BKN","base":2500}],"obsTime":1784325600},"SBCZ":{"icaoId":"SBCZ","flightCategory":"VFR","rawOb":"METAR SBCZ 172200Z 00000KT 9999 SCT030 30/23 Q1011","temp":30,"dewp":23,"wdir":0,"wspd":0,"visib":"6+","altim":1011,"clouds":[{"cover":"SCT","base":3000}],"obsTime":1784325600},"SBNT":{"icaoId":"SBNT","flightCategory":"IFR","rawOb":"METAR SBNT 172200Z 17013KT 5000 -RA BR BKN007 BKN015 FEW025TCU 23/22 Q1015","temp":23,"dewp":22,"wdir":170,"wspd":13,"visib":3.11,"altim":1015,"clouds":[{"cover":"BKN","base":700},{"cover":"BKN","base":1500},{"cover":"FEW","base":2500}],"obsTime":1784325600},"SBRB":{"icaoId":"SBRB","flightCategory":"MVFR","rawOb":"METAR SBRB 172200Z 36001KT 8000 FEW009 FEW030TCU BKN100 26/23 Q1012","temp":26,"dewp":23,"wdir":360,"wspd":1,"visib":4.97,"altim":1012,"clouds":[{"cover":"FEW","base":900},{"cover":"FEW","base":3000},{"cover":"BKN","base":10000}],"obsTime":1784325600},"SBFZ":{"icaoId":"SBFZ","flightCategory":"VFR","rawOb":"METAR SBFZ 172200Z 11016KT 9999 SCT020 BKN060 27/24 Q1013","temp":27,"dewp":24,"wdir":110,"wspd":16,"visib":"6+","altim":1013,"clouds":[{"cover":"SCT","base":2000},{"cover":"BKN","base":6000}],"obsTime":1784325600},"SBSL":{"icaoId":"SBSL","flightCategory":"VFR","rawOb":"METAR SBSL 172200Z 04006KT 9999 FEW020 BKN080 27/24 Q1012","temp":27,"dewp":24,"wdir":40,"wspd":6,"visib":"6+","altim":1012,"clouds":[{"cover":"FEW","base":2000},{"cover":"BKN","base":8000}],"obsTime":1784325600},"SBBV":{"icaoId":"SBBV","flightCategory":"VFR","rawOb":"METAR SBBV 172200Z 18005KT 9999 SCT030 FEW040TCU 29/23 Q1010","temp":29,"dewp":23,"wdir":180,"wspd":5,"visib":"6+","altim":1010,"clouds":[{"cover":"SCT","base":3000},{"cover":"FEW","base":4000}],"obsTime":1784325600},"SBCT":{"icaoId":"SBCT","flightCategory":"VFR","rawOb":"METAR SBCT 172200Z 01006KT CAVOK 19/12 Q1019","temp":19,"dewp":12,"wdir":10,"wspd":6,"visib":"6+","altim":1019,"clouds":[],"obsTime":1784325600},"SBFL":{"icaoId":"SBFL","flightCategory":"VFR","rawOb":"METAR SBFL 172200Z 32012KT CAVOK 18/15 Q1014","temp":18,"dewp":15,"wdir":320,"wspd":12,"visib":"6+","altim":1014,"clouds":[],"obsTime":1784325600},"SBMG":{"icaoId":"SBMG","flightCategory":"VFR","rawOb":"METAR SBMG 172200Z 04012KT CAVOK 23/13 Q1014","temp":23,"dewp":13,"wdir":40,"wspd":12,"visib":"6+","altim":1014,"clouds":[],"obsTime":1784325600},"SBIL":{"icaoId":"SBIL","flightCategory":"VFR","rawOb":"METAR SBIL 172200Z 16007KT 130V190 9999 FEW020 25/17 Q1022","temp":25,"dewp":17,"wdir":160,"wspd":7,"visib":"6+","altim":1022,"clouds":[{"cover":"FEW","base":2000}],"obsTime":1784325600},"SBJU":{"icaoId":"SBJU","flightCategory":"VFR","rawOb":"METAR SBJU 172200Z 18007KT 9999 FEW020 26/16 Q1017","temp":26,"dewp":16,"wdir":180,"wspd":7,"visib":"6+","altim":1017,"clouds":[{"cover":"FEW","base":2000}],"obsTime":1784325600},"SBCF":{"icaoId":"SBCF","flightCategory":"VFR","rawOb":"METAR SBCF 172200Z 10009KT CAVOK 18/10 Q1025","temp":18,"dewp":10,"wdir":100,"wspd":9,"visib":"6+","altim":1025,"clouds":[],"obsTime":1784325600},"SBME":{"icaoId":"SBME","flightCategory":"VFR","rawOb":"METAR SBME 172200Z 03012KT CAVOK 22/15 Q1022","temp":22,"dewp":15,"wdir":30,"wspd":12,"visib":"6+","altim":1022,"clouds":[],"obsTime":1784325600},"SBMK":{"icaoId":"SBMK","flightCategory":"VFR","rawOb":"METAR SBMK 172200Z 09007KT CAVOK 19/10 Q1023","temp":19,"dewp":10,"wdir":90,"wspd":7,"visib":"6+","altim":1023,"clouds":[],"obsTime":1784325600},"SBUL":{"icaoId":"SBUL","flightCategory":"VFR","rawOb":"METAR SBUL 172200Z 09010KT CAVOK 19/07 Q1022","temp":19,"dewp":7,"wdir":90,"wspd":10,"visib":"6+","altim":1022,"clouds":[],"obsTime":1784325600},"SBUR":{"icaoId":"SBUR","flightCategory":"VFR","rawOb":"METAR SBUR 172200Z 05007KT CAVOK 21/06 Q1021","temp":21,"dewp":6,"wdir":50,"wspd":7,"visib":"6+","altim":1021,"clouds":[],"obsTime":1784325600},"SBKP":{"icaoId":"SBKP","flightCategory":"VFR","rawOb":"METAR SBKP 172200Z 07004KT CAVOK 20/10 Q1020","temp":20,"dewp":10,"wdir":70,"wspd":4,"visib":"6+","altim":1020,"clouds":[],"obsTime":1784325600},"SBPA":{"icaoId":"SBPA","flightCategory":"VFR","rawOb":"METAR SBPA 172200Z 07007KT CAVOK 28/16 Q1004","temp":28,"dewp":16,"wdir":70,"wspd":7,"visib":"6+","altim":1004,"clouds":[],"obsTime":1784325600},"SBGR":{"icaoId":"SBGR","flightCategory":"VFR","rawOb":"METAR SBGR 172200Z 01007KT CAVOK 20/09 Q1021","temp":20,"dewp":9,"wdir":10,"wspd":7,"visib":"6+","altim":1021,"clouds":[],"obsTime":1784325600},"SBMA":{"icaoId":"SBMA","flightCategory":"VFR","rawOb":"METAR SBMA 172200Z 08002KT 9999 FEW020 30/20 Q1012","temp":30,"dewp":20,"wdir":80,"wspd":2,"visib":"6+","altim":1012,"clouds":[{"cover":"FEW","base":2000}],"obsTime":1784325600},"SBCG":{"icaoId":"SBCG","flightCategory":"VFR","rawOb":"METAR SBCG 172200Z 02011KT CAVOK 27/18 Q1013","temp":27,"dewp":18,"wdir":20,"wspd":11,"visib":"6+","altim":1013,"clouds":[],"obsTime":1784325600},"SBGL":{"icaoId":"SBGL","flightCategory":"VFR","rawOb":"METAR SBGL 172200Z 08003KT CAVOK 20/15 Q1019","temp":20,"dewp":15,"wdir":80,"wspd":3,"visib":"6+","altim":1019,"clouds":[],"obsTime":1784325600},"SBGO":{"icaoId":"SBGO","flightCategory":"VFR","rawOb":"METAR SBGO 172200Z 06007KT CAVOK 24/09 Q1020","temp":24,"dewp":9,"wdir":60,"wspd":7,"visib":"6+","altim":1020,"clouds":[],"obsTime":1784325600},"SBFI":{"icaoId":"SBFI","flightCategory":"VFR","rawOb":"METAR SBFI 172200Z 03013G23KT CAVOK 28/19 Q1006","temp":28,"dewp":19,"wdir":30,"wspd":13,"visib":"6+","altim":1006,"clouds":[],"obsTime":1784325600},"SBVT":{"icaoId":"SBVT","flightCategory":"VFR","rawOb":"METAR SBVT 172200Z 05007KT 9999 BKN049 22/17 Q1024","temp":22,"dewp":17,"wdir":50,"wspd":7,"visib":"6+","altim":1024,"clouds":[{"cover":"BKN","base":4900}],"obsTime":1784325600},"SBLO":{"icaoId":"SBLO","flightCategory":"VFR","rawOb":"METAR SBLO 172200Z 06007KT CAVOK 22/13 Q1017","temp":22,"dewp":13,"wdir":60,"wspd":7,"visib":"6+","altim":1017,"clouds":[],"obsTime":1784325600},"SBMQ":{"icaoId":"SBMQ","flightCategory":"MVFR","rawOb":"METAR SBMQ 172200Z 08004KT 040V110 9999 4500W TS VCSH BKN023 FEW035CB SCT080 27/25 Q1012","temp":27,"dewp":25,"wdir":80,"wspd":4,"visib":"6+","altim":1012,"clouds":[{"cover":"BKN","base":2300},{"cover":"FEW","base":3500},{"cover":"SCT","base":8000}],"obsTime":1784325600},"SBPJ":{"icaoId":"SBPJ","flightCategory":"VFR","rawOb":"METAR SBPJ 172200Z 15003KT CAVOK 27/15 Q1015","temp":27,"dewp":15,"wdir":150,"wspd":3,"visib":"6+","altim":1015,"clouds":[],"obsTime":1784325600},"SBAT":{"icaoId":"SBAT","flightCategory":"VFR","rawOb":"METAR SBAT 172200Z 05002KT 9999 FEW040 29/21 Q1013","temp":29,"dewp":21,"wdir":50,"wspd":2,"visib":"6+","altim":1013,"clouds":[{"cover":"FEW","base":4000}],"obsTime":1784325600},"SBCP":{"icaoId":"SBCP","flightCategory":"VFR","rawOb":"METAR SBCP 172200Z 08012KT CAVOK 21/17 Q1022","temp":21,"dewp":17,"wdir":80,"wspd":12,"visib":"6+","altim":1022,"clouds":[],"obsTime":1784325600},"SBCA":{"icaoId":"SBCA","flightCategory":"VFR","rawOb":"METAR SBCA 172200Z 04016G26KT CAVOK 23/15 Q1013","temp":23,"dewp":15,"wdir":40,"wspd":16,"visib":"6+","altim":1013,"clouds":[],"obsTime":1784325600},"SBUY":{"icaoId":"SBUY","flightCategory":"VFR","rawOb":"METAR SBUY 172200Z 09008KT 9999 FEW020 FEW030TCU SCT100 28/25 Q1009","temp":28,"dewp":25,"wdir":90,"wspd":8,"visib":"6+","altim":1009,"clouds":[{"cover":"FEW","base":2000},{"cover":"FEW","base":3000},{"cover":"SCT","base":10000}],"obsTime":1784325600},"SBTT":{"icaoId":"SBTT","flightCategory":"VFR","rawOb":"METAR SBTT 172200Z 24001KT 9999 SCT025 FEW030TCU 31/24 Q1010","temp":31,"dewp":24,"wdir":240,"wspd":1,"visib":"6+","altim":1010,"clouds":[{"cover":"SCT","base":2500},{"cover":"FEW","base":3000}],"obsTime":1784325600},"SBPS":{"icaoId":"SBPS","flightCategory":"MVFR","rawOb":"METAR SBPS 172200Z 11008KT 9999 SCT010 BKN020 BKN040 21/19 Q1023","temp":21,"dewp":19,"wdir":110,"wspd":8,"visib":"6+","altim":1023,"clouds":[{"cover":"SCT","base":1000},{"cover":"BKN","base":2000},{"cover":"BKN","base":4000}],"obsTime":1784325600},"SBOI":{"icaoId":"SBOI","flightCategory":"VFR","rawOb":"METAR SBOI 172200Z AUTO 10003KT 070V140 9999 FEW036 29/23 Q1012","temp":29,"dewp":23,"wdir":100,"wspd":3,"visib":"6+","altim":1012,"clouds":[{"cover":"FEW","base":3600}],"obsTime":1784325600},"SBVH":{"icaoId":"SBVH","flightCategory":"VFR","rawOb":"METAR SBVH 172200Z 05005KT 9999 FEW030 26/21 Q1014","temp":26,"dewp":21,"wdir":50,"wspd":5,"visib":"6+","altim":1014,"clouds":[{"cover":"FEW","base":3000}],"obsTime":1784325600},"SBTF":{"icaoId":"SBTF","flightCategory":"VFR","rawOb":"METAR SBTF 172200Z 01004KT 9999 FEW020 30/26 Q1009","temp":30,"dewp":26,"wdir":10,"wspd":4,"visib":"6+","altim":1009,"clouds":[{"cover":"FEW","base":2000}],"obsTime":1784325600},"SBCO":{"icaoId":"SBCO","flightCategory":"VFR","rawOb":"METAR SBCO 172200Z 03004KT 350V060 CAVOK 29/16 Q1005","temp":29,"dewp":16,"wdir":30,"wspd":4,"visib":"6+","altim":1005,"clouds":[],"obsTime":1784325600},"SBKG":{"icaoId":"SBKG","flightCategory":"VFR","rawOb":"METAR SBKG 172200Z 15010KT 9999 SCT016 BKN070 22/19 Q1018","temp":22,"dewp":19,"wdir":150,"wspd":10,"visib":"6+","altim":1018,"clouds":[{"cover":"SCT","base":1600},{"cover":"BKN","base":7000}],"obsTime":1784325600},"SBAX":{"icaoId":"SBAX","flightCategory":"VFR","rawOb":"METAR SBAX 172200Z AUTO 06004KT 020V100 CAVOK 16/09 Q1023","temp":16,"dewp":9,"wdir":60,"wspd":4,"visib":"6+","altim":1023,"clouds":[],"obsTime":1784325600},"SBBH":{"icaoId":"SBBH","flightCategory":"VFR","rawOb":"METAR SBBH 172200Z 09005KT CAVOK 18/10 Q1025","temp":18,"dewp":10,"wdir":90,"wspd":5,"visib":"6+","altim":1025,"clouds":[],"obsTime":1784325600},"SBBU":{"icaoId":"SBBU","flightCategory":"VFR","rawOb":"METAR SBBU 172200Z 07003KT CAVOK 24/12 Q1019","temp":24,"dewp":12,"wdir":70,"wspd":3,"visib":"6+","altim":1019,"clouds":[],"obsTime":1784325600},"SBDN":{"icaoId":"SBDN","flightCategory":"VFR","rawOb":"METAR SBDN 172200Z 05007KT CAVOK 24/12 Q1016","temp":24,"dewp":12,"wdir":50,"wspd":7,"visib":"6+","altim":1016,"clouds":[],"obsTime":1784325600},"SBIP":{"icaoId":"SBIP","flightCategory":"VFR","rawOb":"METAR SBIP 172200Z AUTO VRB02KT CAVOK 17/14 Q1023","temp":17,"dewp":14,"wdir":"VRB","wspd":2,"visib":"6+","altim":1023,"clouds":[],"obsTime":1784325600},"SBSC":{"icaoId":"SBSC","flightCategory":"VFR","rawOb":"METAR SBSC 172200Z 01006KT CAVOK 23/13 Q1019","temp":23,"dewp":13,"wdir":10,"wspd":6,"visib":"6+","altim":1019,"clouds":[],"obsTime":1784325600},"SBSR":{"icaoId":"SBSR","flightCategory":"VFR","rawOb":"METAR SBSR 172200Z 08007KT CAVOK 25/08 Q1018","temp":25,"dewp":8,"wdir":80,"wspd":7,"visib":"6+","altim":1018,"clouds":[],"obsTime":1784325600},"SBSM":{"icaoId":"SBSM","flightCategory":"VFR","rawOb":"METAR SBSM 172200Z 36012G22KT 330V050 9999 FEW035 SCT080 29/19 Q1003","temp":29,"dewp":19,"wdir":360,"wspd":12,"visib":"6+","altim":1003,"clouds":[{"cover":"FEW","base":3500},{"cover":"SCT","base":8000}],"obsTime":1784325600},"SBTU":{"icaoId":"SBTU","flightCategory":"VFR","rawOb":"METAR SBTU 172200Z AUTO 28004KT 9999 // NCD ///// Q1014","temp":null,"dewp":null,"wdir":280,"wspd":4,"visib":"6+","altim":1014,"clouds":[],"obsTime":1784325600},"SBAR":{"icaoId":"SBAR","flightCategory":"VFR","rawOb":"METAR SBAR 172200Z 13011KT 9999 FEW026 25/20 Q1019","temp":25,"dewp":20,"wdir":130,"wspd":11,"visib":"6+","altim":1019,"clouds":[{"cover":"FEW","base":2600}],"obsTime":1784325600},"SBPL":{"icaoId":"SBPL","flightCategory":"VFR","rawOb":"METAR SBPL 172200Z 13006KT CAVOK 26/15 Q1018","temp":26,"dewp":15,"wdir":130,"wspd":6,"visib":"6+","altim":1018,"clouds":[],"obsTime":1784325600},"SBSJ":{"icaoId":"SBSJ","flightCategory":"VFR","rawOb":"METAR SBSJ 172200Z 00000KT CAVOK 19/10 Q1021","temp":19,"dewp":10,"wdir":0,"wspd":0,"visib":"6+","altim":1021,"clouds":[],"obsTime":1784325600},"SBPB":{"icaoId":"SBPB","flightCategory":"VFR","rawOb":"SPECI SBPB 172145Z 07008KT CAVOK 27/24 Q1012","temp":27,"dewp":24,"wdir":70,"wspd":8,"visib":"6+","altim":1012,"clouds":[],"obsTime":1784324700},"SBJV":{"icaoId":"SBJV","flightCategory":"VFR","rawOb":"METAR SBJV 172200Z 00000KT CAVOK 16/16 Q1015","temp":16,"dewp":16,"wdir":0,"wspd":0,"visib":"6+","altim":1015,"clouds":[],"obsTime":1784325600},"SBAF":{"icaoId":"SBAF","flightCategory":"VFR","rawOb":"METAR SBAF 172200Z 02001KT CAVOK 17/14 Q1019","temp":17,"dewp":14,"wdir":20,"wspd":1,"visib":"6+","altim":1019,"clouds":[],"obsTime":1784325600},"SBJR":{"icaoId":"SBJR","flightCategory":"VFR","rawOb":"METAR SBJR 172200Z 34001KT CAVOK 17/15 Q1019","temp":17,"dewp":15,"wdir":340,"wspd":1,"visib":"6+","altim":1019,"clouds":[],"obsTime":1784325600},"SBLS":{"icaoId":"SBLS","flightCategory":"VFR","rawOb":"METAR SBLS 172200Z 10007KT CAVOK 17/10 Q1024","temp":17,"dewp":10,"wdir":100,"wspd":7,"visib":"6+","altim":1024,"clouds":[],"obsTime":1784325600},"SBMT":{"icaoId":"SBMT","flightCategory":"VFR","rawOb":"METAR SBMT 172200Z 02002KT CAVOK 17/08 Q1021","temp":17,"dewp":8,"wdir":20,"wspd":2,"visib":"6+","altim":1021,"clouds":[],"obsTime":1784325600},"SBTA":{"icaoId":"SBTA","flightCategory":"VFR","rawOb":"METAR SBTA 172200Z VRB02KT CAVOK 14/11 Q1020","temp":14,"dewp":11,"wdir":"VRB","wspd":2,"visib":"6+","altim":1020,"clouds":[],"obsTime":1784325600},"SBNM":{"icaoId":"SBNM","flightCategory":"VFR","rawOb":"METAR SBNM 172200Z AUTO 03011KT CAVOK 26/19 Q1005","temp":26,"dewp":19,"wdir":30,"wspd":11,"visib":"6+","altim":1005,"clouds":[],"obsTime":1784325600},"SBLE":{"icaoId":"SBLE","flightCategory":"VFR","rawOb":"METAR SBLE 172200Z AUTO 07009KT CAVOK 20/19 Q1022","temp":20,"dewp":19,"wdir":70,"wspd":9,"visib":"6+","altim":1022,"clouds":[],"obsTime":1784325600},"SBJP":{"icaoId":"SBJP","flightCategory":"MVFR","rawOb":"METAR SBJP 172200Z 16010KT 5000 -RA BKN010 OVC018 24/23 Q1016","temp":24,"dewp":23,"wdir":160,"wspd":10,"visib":3.11,"altim":1016,"clouds":[{"cover":"BKN","base":1000},{"cover":"OVC","base":1800}],"obsTime":1784325600},"SBAN":{"icaoId":"SBAN","flightCategory":"VFR","rawOb":"METAR SBAN 172200Z 11004KT CAVOK 18/07 Q1022","temp":18,"dewp":7,"wdir":110,"wspd":4,"visib":"6+","altim":1022,"clouds":[],"obsTime":1784325600},"SBPF":{"icaoId":"SBPF","flightCategory":"VFR","rawOb":"METAR SBPF 172200Z 05012KT CAVOK 24/16 Q1010","temp":24,"dewp":16,"wdir":50,"wspd":12,"visib":"6+","altim":1010,"clouds":[],"obsTime":1784325600},"SBGW":{"icaoId":"SBGW","flightCategory":"VFR","rawOb":"METAR SBGW 172200Z 09002KT CAVOK 16/10 Q1021","temp":16,"dewp":10,"wdir":90,"wspd":2,"visib":"6+","altim":1021,"clouds":[],"obsTime":1784325600}}}