{"updated":1780400756,"count":84,"data":{"SBEG":{"icaoId":"SBEG","flightCategory":"VFR","rawOb":"METAR SBEG 021000Z 05001KT 9999 FEW010 SCT100 24/24 Q1014","temp":24,"dewp":24,"wdir":50,"wspd":1,"visib":"6+","altim":1014,"clouds":[{"cover":"FEW","base":1000},{"cover":"SCT","base":10000}],"obsTime":1780394400},"SBBE":{"icaoId":"SBBE","flightCategory":"VFR","rawOb":"METAR SBBE 021000Z 17001KT 9999 FEW015 BKN040 25/23 Q1015","temp":25,"dewp":23,"wdir":170,"wspd":1,"visib":"6+","altim":1015,"clouds":[{"cover":"FEW","base":1500},{"cover":"BKN","base":4000}],"obsTime":1780394400},"SBBR":{"icaoId":"SBBR","flightCategory":"VFR","rawOb":"METAR SBBR 021000Z VRB02KT CAVOK 14/13 Q1022","temp":14,"dewp":13,"wdir":"VRB","wspd":2,"visib":"6+","altim":1022,"clouds":[],"obsTime":1780394400},"SBBV":{"icaoId":"SBBV","flightCategory":"VFR","rawOb":"METAR SBBV 021000Z 12003KT 9999 VCSH FEW007 SCT030 FEW035TCU BKN080 25/23 Q1014","temp":25,"dewp":23,"wdir":120,"wspd":3,"visib":"6+","altim":1014,"clouds":[{"cover":"FEW","base":700},{"cover":"SCT","base":3000},{"cover":"FEW","base":3500},{"cover":"BKN","base":8000}],"obsTime":1780394400},"SBCB":{"icaoId":"SBCB","flightCategory":"MVFR","rawOb":"METAR SBCB 021000Z /////KT 8000 FEW009 SCT020 OVC050 20/19 Q1021","temp":20,"dewp":19,"wdir":null,"wspd":null,"visib":4.97,"altim":1021,"clouds":[{"cover":"FEW","base":900},{"cover":"SCT","base":2000},{"cover":"OVC","base":5000}],"obsTime":1780394400},"SBCF":{"icaoId":"SBCF","flightCategory":"VFR","rawOb":"METAR SBCF 021000Z VRB01KT 9999 FEW030 BKN060 16/13 Q1022","temp":16,"dewp":13,"wdir":"VRB","wspd":1,"visib":"6+","altim":1022,"clouds":[{"cover":"FEW","base":3000},{"cover":"BKN","base":6000}],"obsTime":1780394400},"SBCG":{"icaoId":"SBCG","flightCategory":"VFR","rawOb":"METAR SBCG 021000Z 09008KT CAVOK 18/13 Q1021","temp":18,"dewp":13,"wdir":90,"wspd":8,"visib":"6+","altim":1021,"clouds":[],"obsTime":1780394400},"SBCP":{"icaoId":"SBCP","flightCategory":"VFR","rawOb":"METAR SBCP 021000Z 24008KT 9999 FEW010 SCT020 BKN090 21/19 Q1021","temp":21,"dewp":19,"wdir":240,"wspd":8,"visib":"6+","altim":1021,"clouds":[{"cover":"FEW","base":1000},{"cover":"SCT","base":2000},{"cover":"BKN","base":9000}],"obsTime":1780394400},"SBCR":{"icaoId":"SBCR","flightCategory":"VFR","rawOb":"METAR SBCR 021100Z 16001KT CAVOK 21/19 Q1019","temp":21,"dewp":19,"wdir":160,"wspd":1,"visib":"6+","altim":1019,"clouds":[],"obsTime":1780398000},"SBCT":{"icaoId":"SBCT","flightCategory":"VFR","rawOb":"METAR SBCT 021000Z 12006KT 9999 SCT030 11/11 Q1025","temp":11,"dewp":11,"wdir":120,"wspd":6,"visib":"6+","altim":1025,"clouds":[{"cover":"SCT","base":3000}],"obsTime":1780394400},"SBAT":{"icaoId":"SBAT","flightCategory":"MVFR","rawOb":"METAR SBAT 021100Z 00000KT 8000 NSC 23/22 Q1016","temp":23,"dewp":22,"wdir":0,"wspd":0,"visib":4.97,"altim":1016,"clouds":[],"obsTime":1780398000},"SBFI":{"icaoId":"SBFI","flightCategory":"LIFR","rawOb":"METAR SBFI 021000Z 09006KT 1500 R33///// R15///// BCFG VV001 14/14 Q1021","temp":14,"dewp":14,"wdir":90,"wspd":6,"visib":0.93,"altim":1021,"clouds":[{"cover":"OVX","base":100}],"obsTime":1780394400},"SBFL":{"icaoId":"SBFL","flightCategory":"VFR","rawOb":"METAR SBFL 021000Z 20001KT CAVOK 16/10 Q1024","temp":16,"dewp":10,"wdir":200,"wspd":1,"visib":"6+","altim":1024,"clouds":[],"obsTime":1780394400},"SBFZ":{"icaoId":"SBFZ","flightCategory":"MVFR","rawOb":"METAR SBFZ 021000Z 17005KT 9999 BKN020 26/24 Q1014","temp":26,"dewp":24,"wdir":170,"wspd":5,"visib":"6+","altim":1014,"clouds":[{"cover":"BKN","base":2000}],"obsTime":1780394400},"SBGL":{"icaoId":"SBGL","flightCategory":"MVFR","rawOb":"METAR SBGL 021000Z 31004KT 9000 FEW012 BKN017 OVC040 20/18 Q1022","temp":20,"dewp":18,"wdir":310,"wspd":4,"visib":5.59,"altim":1022,"clouds":[{"cover":"FEW","base":1200},{"cover":"BKN","base":1700},{"cover":"OVC","base":4000}],"obsTime":1780394400},"SBGO":{"icaoId":"SBGO","flightCategory":"VFR","rawOb":"METAR SBGO 021000Z 12004KT CAVOK 13/12 Q1022","temp":13,"dewp":12,"wdir":120,"wspd":4,"visib":"6+","altim":1022,"clouds":[],"obsTime":1780394400},"SBGR":{"icaoId":"SBGR","flightCategory":"VFR","rawOb":"METAR SBGR 021000Z 11001KT 9000 3500E FEW040 10/10 Q1024","temp":10,"dewp":10,"wdir":110,"wspd":1,"visib":5.59,"altim":1024,"clouds":[{"cover":"FEW","base":4000}],"obsTime":1780394400},"SBHT":{"icaoId":"SBHT","flightCategory":"LIFR","rawOb":"METAR SBHT 021000Z 00000KT 0300 FG SCT012 24/24 Q1015","temp":24,"dewp":24,"wdir":0,"wspd":0,"visib":0.19,"altim":1015,"clouds":[{"cover":"SCT","base":1200}],"obsTime":1780394400},"SBIL":{"icaoId":"SBIL","flightCategory":"MVFR","rawOb":"METAR SBIL 021000Z 24005KT 6000 -RA SCT008 SCT018 BKN080 24/23 Q1018","temp":24,"dewp":23,"wdir":240,"wspd":5,"visib":3.73,"altim":1018,"clouds":[{"cover":"SCT","base":800},{"cover":"SCT","base":1800},{"cover":"BKN","base":8000}],"obsTime":1780394400},"SBJU":{"icaoId":"SBJU","flightCategory":"VFR","rawOb":"METAR SBJU 021000Z 17002KT CAVOK 24/20 Q1017","temp":24,"dewp":20,"wdir":170,"wspd":2,"visib":"6+","altim":1017,"clouds":[],"obsTime":1780394400},"SBKP":{"icaoId":"SBKP","flightCategory":"VFR","rawOb":"METAR SBKP 021000Z 14011KT CAVOK 12/11 Q1023","temp":12,"dewp":11,"wdir":140,"wspd":11,"visib":"6+","altim":1023,"clouds":[],"obsTime":1780394400},"SBLO":{"icaoId":"SBLO","flightCategory":"VFR","rawOb":"METAR SBLO 021000Z 21003KT 160V230 CAVOK 13/11 Q1024","temp":13,"dewp":11,"wdir":210,"wspd":3,"visib":"6+","altim":1024,"clouds":[],"obsTime":1780394400},"SBMA":{"icaoId":"SBMA","flightCategory":"VFR","rawOb":"METAR SBMA 021000Z 00000KT 9999 FEW015 BKN080 25/24 Q1015","temp":25,"dewp":24,"wdir":0,"wspd":0,"visib":"6+","altim":1015,"clouds":[{"cover":"FEW","base":1500},{"cover":"BKN","base":8000}],"obsTime":1780394400},"SBME":{"icaoId":"SBME","flightCategory":"MVFR","rawOb":"METAR SBME 021000Z 33002KT 8000 -RA BKN020 BKN080 ///// Q1021","temp":null,"dewp":null,"wdir":330,"wspd":2,"visib":4.97,"altim":1021,"clouds":[{"cover":"BKN","base":2000},{"cover":"BKN","base":8000}],"obsTime":1780394400},"SBMG":{"icaoId":"SBMG","flightCategory":"VFR","rawOb":"METAR SBMG 021000Z 08008KT CAVOK 14/11 Q1022","temp":14,"dewp":11,"wdir":80,"wspd":8,"visib":"6+","altim":1022,"clouds":[],"obsTime":1780394400},"SBMK":{"icaoId":"SBMK","flightCategory":"VFR","rawOb":"METAR SBMK 021000Z 00000KT CAVOK 16/14 Q1021","temp":16,"dewp":14,"wdir":0,"wspd":0,"visib":"6+","altim":1021,"clouds":[],"obsTime":1780394400},"SBMO":{"icaoId":"SBMO","flightCategory":"VFR","rawOb":"METAR SBMO 021000Z 29004KT 9999 FEW020 22/22 Q1016","temp":22,"dewp":22,"wdir":290,"wspd":4,"visib":"6+","altim":1016,"clouds":[{"cover":"FEW","base":2000}],"obsTime":1780394400},"SBMQ":{"icaoId":"SBMQ","flightCategory":"MVFR","rawOb":"METAR SBMQ 021000Z 29002KT 8000 FEW003 BKN016 BKN100 26/25 Q1014","temp":26,"dewp":25,"wdir":290,"wspd":2,"visib":4.97,"altim":1014,"clouds":[{"cover":"FEW","base":300},{"cover":"BKN","base":1600},{"cover":"BKN","base":10000}],"obsTime":1780394400},"SBNT":{"icaoId":"SBNT","flightCategory":"VFR","rawOb":"METAR SBNT 021000Z 19004KT 160V220 9999 SCT027 BKN080 25/21 Q1015","temp":25,"dewp":21,"wdir":190,"wspd":4,"visib":"6+","altim":1015,"clouds":[{"cover":"SCT","base":2700},{"cover":"BKN","base":8000}],"obsTime":1780394400},"SBPA":{"icaoId":"SBPA","flightCategory":"VFR","rawOb":"METAR SBPA 021000Z VRB02KT 9000 FEW003 10/10 Q1025","temp":10,"dewp":10,"wdir":"VRB","wspd":2,"visib":5.59,"altim":1025,"clouds":[{"cover":"FEW","base":300}],"obsTime":1780394400},"SBPJ":{"icaoId":"SBPJ","flightCategory":"VFR","rawOb":"METAR SBPJ 021000Z 16002KT CAVOK 23/20 Q1016","temp":23,"dewp":20,"wdir":160,"wspd":2,"visib":"6+","altim":1016,"clouds":[],"obsTime":1780394400},"SBPV":{"icaoId":"SBPV","flightCategory":"VFR","rawOb":"METAR SBPV 021000Z 00000KT CAVOK 23/22 Q1014","temp":23,"dewp":22,"wdir":0,"wspd":0,"visib":"6+","altim":1014,"clouds":[],"obsTime":1780394400},"SBRB":{"icaoId":"SBRB","flightCategory":"VFR","rawOb":"METAR SBRB 021000Z COR 16001KT CAVOK 22/22 Q1015","temp":22,"dewp":22,"wdir":160,"wspd":1,"visib":"6+","altim":1015,"clouds":[],"obsTime":1780394400},"SBRF":{"icaoId":"SBRF","flightCategory":"VFR","rawOb":"METAR SBRF 021000Z 22004KT 190V250 9999 FEW020 BKN080 25/22 Q1015","temp":25,"dewp":22,"wdir":220,"wspd":4,"visib":"6+","altim":1015,"clouds":[{"cover":"FEW","base":2000},{"cover":"BKN","base":8000}],"obsTime":1780394400},"SBSG":{"icaoId":"SBSG","flightCategory":"VFR","rawOb":"METAR SBSG 021000Z 18003KT 150V210 9999 FEW023 BKN090 24/22 Q1015","temp":24,"dewp":22,"wdir":180,"wspd":3,"visib":"6+","altim":1015,"clouds":[{"cover":"FEW","base":2300},{"cover":"BKN","base":9000}],"obsTime":1780394400},"SBSL":{"icaoId":"SBSL","flightCategory":"VFR","rawOb":"METAR SBSL 021000Z 11004KT 9999 FEW020 BKN100 26/25 Q1014","temp":26,"dewp":25,"wdir":110,"wspd":4,"visib":"6+","altim":1014,"clouds":[{"cover":"FEW","base":2000},{"cover":"BKN","base":10000}],"obsTime":1780394400},"SBSN":{"icaoId":"SBSN","flightCategory":"VFR","rawOb":"METAR SBSN 021000Z 18005KT 9999 FEW014 BKN100 24/24 Q1014","temp":24,"dewp":24,"wdir":180,"wspd":5,"visib":"6+","altim":1014,"clouds":[{"cover":"FEW","base":1400},{"cover":"BKN","base":10000}],"obsTime":1780394400},"SBSP":{"icaoId":"SBSP","flightCategory":"IFR","rawOb":"METAR SBSP 021000Z 13004KT 100V170 9999 BKN009 12/12 Q1025","temp":12,"dewp":12,"wdir":130,"wspd":4,"visib":"6+","altim":1025,"clouds":[{"cover":"BKN","base":900}],"obsTime":1780394400},"SBSV":{"icaoId":"SBSV","flightCategory":"VFR","rawOb":"METAR SBSV 021000Z 27004KT 9999 VCSH SCT022 FEW024TCU OVC080 24/23 Q1017","temp":24,"dewp":23,"wdir":270,"wspd":4,"visib":"6+","altim":1017,"clouds":[{"cover":"SCT","base":2200},{"cover":"FEW","base":2400},{"cover":"OVC","base":8000}],"obsTime":1780394400},"SBTE":{"icaoId":"SBTE","flightCategory":"VFR","rawOb":"METAR SBTE 021000Z 00000KT 9999 FEW013 SCT070 25/24 Q1014","temp":25,"dewp":24,"wdir":0,"wspd":0,"visib":"6+","altim":1014,"clouds":[{"cover":"FEW","base":1300},{"cover":"SCT","base":7000}],"obsTime":1780394400},"SBUL":{"icaoId":"SBUL","flightCategory":"VFR","rawOb":"METAR SBUL 021000Z 16006KT CAVOK 15/10 Q1022","temp":15,"dewp":10,"wdir":160,"wspd":6,"visib":"6+","altim":1022,"clouds":[],"obsTime":1780394400},"SBUR":{"icaoId":"SBUR","flightCategory":"VFR","rawOb":"METAR SBUR 021000Z 02003KT CAVOK 13/10 Q1022","temp":13,"dewp":10,"wdir":20,"wspd":3,"visib":"6+","altim":1022,"clouds":[],"obsTime":1780394400},"SBVT":{"icaoId":"SBVT","flightCategory":"VFR","rawOb":"METAR SBVT 021000Z 28002KT 9999 FEW020 BKN033 21/19 Q1020","temp":21,"dewp":19,"wdir":280,"wspd":2,"visib":"6+","altim":1020,"clouds":[{"cover":"FEW","base":2000},{"cover":"BKN","base":3300}],"obsTime":1780394400},"SBTF":{"icaoId":"SBTF","flightCategory":"VFR","rawOb":"SPECI SBTF 021115Z 12002KT CAVOK 24/24 Q1014","temp":24,"dewp":24,"wdir":120,"wspd":2,"visib":"6+","altim":1014,"clouds":[],"obsTime":1780398900},"SBPP":{"icaoId":"SBPP","flightCategory":"MVFR","rawOb":"SPECI SBPP 021115Z 05005KT 5000 BR NSC 13/13 Q1022","temp":13,"dewp":13,"wdir":50,"wspd":5,"visib":3.11,"altim":1022,"clouds":[],"obsTime":1780398900},"SBTU":{"icaoId":"SBTU","flightCategory":"LIFR","rawOb":"METAR SBTU 021000Z AUTO 19005KT 9999 // BKN004/// ///// Q1016","temp":null,"dewp":null,"wdir":190,"wspd":5,"visib":"6+","altim":1016,"clouds":[{"cover":"BKN","base":400}],"obsTime":1780394400},"SBBH":{"icaoId":"SBBH","flightCategory":"VFR","rawOb":"METAR SBBH 021000Z 09003KT 9999 SCT048 SCT080 17/14 Q1022","temp":17,"dewp":14,"wdir":90,"wspd":3,"visib":"6+","altim":1022,"clouds":[{"cover":"SCT","base":4800},{"cover":"SCT","base":8000}],"obsTime":1780394400},"SBBU":{"icaoId":"SBBU","flightCategory":"VFR","rawOb":"METAR SBBU 021000Z 15007KT CAVOK 13/12 Q1022","temp":13,"dewp":12,"wdir":150,"wspd":7,"visib":"6+","altim":1022,"clouds":[],"obsTime":1780394400},"SBCA":{"icaoId":"SBCA","flightCategory":"VFR","rawOb":"METAR SBCA 021000Z 06005KT CAVOK 15/10 Q1023","temp":15,"dewp":10,"wdir":60,"wspd":5,"visib":"6+","altim":1023,"clouds":[],"obsTime":1780394400},"SBCC":{"icaoId":"SBCC","flightCategory":"VFR","rawOb":"METAR SBCC 021100Z 04004KT CAVOK 24/19 Q1017","temp":24,"dewp":19,"wdir":40,"wspd":4,"visib":"6+","altim":1017,"clouds":[],"obsTime":1780398000},"SBAR":{"icaoId":"SBAR","flightCategory":"VFR","rawOb":"METAR SBAR 021000Z 25001KT 9999 FEW020 23/22 Q1016","temp":23,"dewp":22,"wdir":250,"wspd":1,"visib":"6+","altim":1016,"clouds":[{"cover":"FEW","base":2000}],"obsTime":1780394400},"SBCJ":{"icaoId":"SBCJ","flightCategory":"VFR","rawOb":"SPECI SBCJ 021015Z 00000KT CAVOK 23/21 Q1019","temp":23,"dewp":21,"wdir":0,"wspd":0,"visib":"6+","altim":1019,"clouds":[],"obsTime":1780395300},"SBTT":{"icaoId":"SBTT","flightCategory":"MVFR","rawOb":"METAR SBTT 021100Z 13002KT 6000 FEW008 SCT025 BKN100 23/22 Q1015","temp":23,"dewp":22,"wdir":130,"wspd":2,"visib":3.73,"altim":1015,"clouds":[{"cover":"FEW","base":800},{"cover":"SCT","base":2500},{"cover":"BKN","base":10000}],"obsTime":1780398000},"SBCO":{"icaoId":"SBCO","flightCategory":"IFR","rawOb":"METAR SBCO 021000Z 08001KT 4000 BR NSC 07/07 Q1025","temp":7,"dewp":7,"wdir":80,"wspd":1,"visib":2.49,"altim":1025,"clouds":[],"obsTime":1780394400},"SBPL":{"icaoId":"SBPL","flightCategory":"MVFR","rawOb":"METAR SBPL 021000Z 10006KT 9999 OVC020 24/20 Q1018","temp":24,"dewp":20,"wdir":100,"wspd":6,"visib":"6+","altim":1018,"clouds":[{"cover":"OVC","base":2000}],"obsTime":1780394400},"SBAX":{"icaoId":"SBAX","flightCategory":"VFR","rawOb":"METAR SBAX 021000Z 20006KT CAVOK 13/10 Q1022","temp":13,"dewp":10,"wdir":200,"wspd":6,"visib":"6+","altim":1022,"clouds":[],"obsTime":1780394400},"SBUY":{"icaoId":"SBUY","flightCategory":"LIFR","rawOb":"METAR SBUY 021100Z 00000KT 1400 0500E BR NSC 22/22 Q1013","temp":22,"dewp":22,"wdir":0,"wspd":0,"visib":0.87,"altim":1013,"clouds":[],"obsTime":1780398000},"SBVH":{"icaoId":"SBVH","flightCategory":"VFR","rawOb":"METAR SBVH 021100Z 10004KT CAVOK 19/17 Q1019","temp":19,"dewp":17,"wdir":100,"wspd":4,"visib":"6+","altim":1019,"clouds":[],"obsTime":1780398000},"SBPB":{"icaoId":"SBPB","flightCategory":"VFR","rawOb":"SPECI SBPB 021015Z 11004KT 9999 FEW020 27/25 Q1014","temp":27,"dewp":25,"wdir":110,"wspd":4,"visib":"6+","altim":1014,"clouds":[{"cover":"FEW","base":2000}],"obsTime":1780395300},"SBDN":{"icaoId":"SBDN","flightCategory":"VFR","rawOb":"METAR SBDN 021000Z 11009KT CAVOK 13/10 Q1022","temp":13,"dewp":10,"wdir":110,"wspd":9,"visib":"6+","altim":1022,"clouds":[],"obsTime":1780394400},"SBES":{"icaoId":"SBES","flightCategory":"VFR","rawOb":"METAR SBES 021000Z VRB03KT 9999 FEW004 SCT015 BKN060 19/// Q1021","temp":null,"dewp":null,"wdir":"VRB","wspd":3,"visib":"6+","altim":1021,"clouds":[{"cover":"FEW","base":400},{"cover":"SCT","base":1500},{"cover":"BKN","base":6000}],"obsTime":1780394400},"SBTD":{"icaoId":"SBTD","flightCategory":"VFR","rawOb":"METAR SBTD 021100Z /////KT CAVOK 14/11 Q1023","temp":14,"dewp":11,"wdir":null,"wspd":null,"visib":"6+","altim":1023,"clouds":[],"obsTime":1780398000},"SBSR":{"icaoId":"SBSR","flightCategory":"VFR","rawOb":"METAR SBSR 021000Z 17005KT CAVOK 13/11 Q1022","temp":13,"dewp":11,"wdir":170,"wspd":5,"visib":"6+","altim":1022,"clouds":[],"obsTime":1780394400},"SBIP":{"icaoId":"SBIP","flightCategory":"MVFR","rawOb":"METAR SBIP 021000Z AUTO VRB01KT 9999 FEW024 BKN028 OVC032 18/18 Q1021","temp":18,"dewp":18,"wdir":"VRB","wspd":1,"visib":"6+","altim":1021,"clouds":[{"cover":"FEW","base":2400},{"cover":"BKN","base":2800},{"cover":"OVC","base":3200}],"obsTime":1780394400},"SBSM":{"icaoId":"SBSM","flightCategory":"VFR","rawOb":"METAR SBSM 021000Z 13005KT 9999 SCT009 11/10 Q1025","temp":11,"dewp":10,"wdir":130,"wspd":5,"visib":"6+","altim":1025,"clouds":[{"cover":"SCT","base":900}],"obsTime":1780394400},"SBKG":{"icaoId":"SBKG","flightCategory":"VFR","rawOb":"METAR SBKG 021000Z 30002KT CAVOK 21/19 Q1018","temp":21,"dewp":19,"wdir":300,"wspd":2,"visib":"6+","altim":1018,"clouds":[],"obsTime":1780394400},"SBSJ":{"icaoId":"SBSJ","flightCategory":"MVFR","rawOb":"METAR SBSJ 021000Z 24002KT 8000 BKN030 14/13 Q1024","temp":14,"dewp":13,"wdir":240,"wspd":2,"visib":4.97,"altim":1024,"clouds":[{"cover":"BKN","base":3000}],"obsTime":1780394400},"SBSC":{"icaoId":"SBSC","flightCategory":"MVFR","rawOb":"METAR SBSC 021000Z 22004KT 8000 -RA FEW020 BKN050 OVC080 20/18 Q1021","temp":20,"dewp":18,"wdir":220,"wspd":4,"visib":4.97,"altim":1021,"clouds":[{"cover":"FEW","base":2000},{"cover":"BKN","base":5000},{"cover":"OVC","base":8000}],"obsTime":1780394400},"SBOI":{"icaoId":"SBOI","flightCategory":"IFR","rawOb":"METAR SBOI 021000Z AUTO VRB02KT 3400 // VV003 24/24 Q1014","temp":24,"dewp":24,"wdir":"VRB","wspd":2,"visib":2.11,"altim":1014,"clouds":[{"cover":"OVX","base":300}],"obsTime":1780394400},"SBPS":{"icaoId":"SBPS","flightCategory":"MVFR","rawOb":"METAR SBPS 021000Z 14002KT 8000 VCSH SCT008 BKN015 OVC070 22/22 Q1019","temp":22,"dewp":22,"wdir":140,"wspd":2,"visib":4.97,"altim":1019,"clouds":[{"cover":"SCT","base":800},{"cover":"BKN","base":1500},{"cover":"OVC","base":7000}],"obsTime":1780394400},"SBGW":{"icaoId":"SBGW","flightCategory":"MVFR","rawOb":"METAR SBGW 021000Z 22005KT 7000 FEW015 BKN025 16/11 Q1023","temp":16,"dewp":11,"wdir":220,"wspd":5,"visib":4.35,"altim":1023,"clouds":[{"cover":"FEW","base":1500},{"cover":"BKN","base":2500}],"obsTime":1780394400},"SBJR":{"icaoId":"SBJR","flightCategory":"MVFR","rawOb":"METAR SBJR 021000Z 08005KT 8000 -RA BKN010 OVC060 20/18 Q1022","temp":20,"dewp":18,"wdir":80,"wspd":5,"visib":4.97,"altim":1022,"clouds":[{"cover":"BKN","base":1000},{"cover":"OVC","base":6000}],"obsTime":1780394400},"SBLS":{"icaoId":"SBLS","flightCategory":"VFR","rawOb":"METAR SBLS 021000Z 18006KT 9999 BKN045 16/13 Q1021","temp":16,"dewp":13,"wdir":180,"wspd":6,"visib":"6+","altim":1021,"clouds":[{"cover":"BKN","base":4500}],"obsTime":1780394400},"SBJP":{"icaoId":"SBJP","flightCategory":"VFR","rawOb":"METAR SBJP 021000Z 19004KT 9999 FEW020 OVC070 25/22 Q1016","temp":25,"dewp":22,"wdir":190,"wspd":4,"visib":"6+","altim":1016,"clouds":[{"cover":"FEW","base":2000},{"cover":"OVC","base":7000}],"obsTime":1780394400},"SBMT":{"icaoId":"SBMT","flightCategory":"VFR","rawOb":"METAR SBMT 021000Z 08003KT 9999 SCT013 12/11 Q1024","temp":12,"dewp":11,"wdir":80,"wspd":3,"visib":"6+","altim":1024,"clouds":[{"cover":"SCT","base":1300}],"obsTime":1780394400},"SBST":{"icaoId":"SBST","flightCategory":"VFR","rawOb":"METAR SBST 021100Z 02003KT CAVOK 16/16 Q1023","temp":16,"dewp":16,"wdir":20,"wspd":3,"visib":"6+","altim":1023,"clouds":[],"obsTime":1780398000},"SBNM":{"icaoId":"SBNM","flightCategory":"LIFR","rawOb":"METAR SBNM 021000Z AUTO 09011KT 7000 OVC004 10/10 Q1023","temp":10,"dewp":10,"wdir":90,"wspd":11,"visib":4.35,"altim":1023,"clouds":[{"cover":"OVC","base":400}],"obsTime":1780394400},"SBTA":{"icaoId":"SBTA","flightCategory":"MVFR","rawOb":"METAR SBTA 021000Z 24002KT 9999 FEW010 OVC025 15/15 Q1023","temp":15,"dewp":15,"wdir":240,"wspd":2,"visib":"6+","altim":1023,"clouds":[{"cover":"FEW","base":1000},{"cover":"OVC","base":2500}],"obsTime":1780394400},"SBIH":{"icaoId":"SBIH","flightCategory":"VFR","rawOb":"METAR SBIH 021100Z 00000KT 9999 FEW007 BKN080 24/24 Q1015","temp":24,"dewp":24,"wdir":0,"wspd":0,"visib":"6+","altim":1015,"clouds":[{"cover":"FEW","base":700},{"cover":"BKN","base":8000}],"obsTime":1780398000},"SBLE":{"icaoId":"SBLE","flightCategory":"MVFR","rawOb":"METAR SBLE 021000Z AUTO VRB02KT 9999 FEW002 BKN020 OVC038 ///// Q////","temp":null,"dewp":null,"wdir":"VRB","wspd":2,"visib":"6+","altim":null,"clouds":[{"cover":"FEW","base":200},{"cover":"BKN","base":2000},{"cover":"OVC","base":3800}],"obsTime":1780394400},"SBPF":{"icaoId":"SBPF","flightCategory":"LIFR","rawOb":"METAR SBPF 021000Z 12005KT 0200 FG VV002 09/09 Q1024","temp":9,"dewp":9,"wdir":120,"wspd":5,"visib":0.12,"altim":1024,"clouds":[{"cover":"OVX","base":200}],"obsTime":1780394400},"SBAN":{"icaoId":"SBAN","flightCategory":"VFR","rawOb":"METAR SBAN 021000Z 22007KT 9999 FEW040 SCT100 16/10 Q1023","temp":16,"dewp":10,"wdir":220,"wspd":7,"visib":"6+","altim":1023,"clouds":[{"cover":"FEW","base":4000},{"cover":"SCT","base":10000}],"obsTime":1780394400},"SBJV":{"icaoId":"SBJV","flightCategory":"VFR","rawOb":"METAR SBJV 021000Z 00000KT 9999 SCT040 15/14 Q1025","temp":15,"dewp":14,"wdir":0,"wspd":0,"visib":"6+","altim":1025,"clouds":[{"cover":"SCT","base":4000}],"obsTime":1780394400},"SBAF":{"icaoId":"SBAF","flightCategory":"IFR","rawOb":"METAR SBAF 021000Z 03001KT 9000 BKN009 OVC040 19/19 Q1022","temp":19,"dewp":19,"wdir":30,"wspd":1,"visib":5.59,"altim":1022,"clouds":[{"cover":"BKN","base":900},{"cover":"OVC","base":4000}],"obsTime":1780394400}}}