{"updated":1774384128,"count":84,"data":{"SBEG":{"icaoId":"SBEG","flightCategory":"VFR","rawOb":"METAR SBEG 241900Z 12004KT 9999 VCSH SCT025 FEW030TCU 31/24 Q1006","temp":31,"dewp":24,"wdir":120,"wspd":4,"visib":"6+","altim":1006,"clouds":[{"cover":"SCT","base":2500},{"cover":"FEW","base":3000}],"obsTime":1774378800},"SBAT":{"icaoId":"SBAT","flightCategory":"VFR","rawOb":"METAR SBAT 241900Z 36007KT 9999 FEW030 FEW035TCU 29/23 Q1008","temp":29,"dewp":23,"wdir":360,"wspd":7,"visib":"6+","altim":1008,"clouds":[{"cover":"FEW","base":3000},{"cover":"FEW","base":3500}],"obsTime":1774378800},"SBBE":{"icaoId":"SBBE","flightCategory":"MVFR","rawOb":"METAR SBBE 241900Z 34011KT 9999 BKN028 FEW030TCU 29/25 Q1009","temp":29,"dewp":25,"wdir":340,"wspd":11,"visib":"6+","altim":1009,"clouds":[{"cover":"BKN","base":2800},{"cover":"FEW","base":3000}],"obsTime":1774378800},"SBBR":{"icaoId":"SBBR","flightCategory":"MVFR","rawOb":"METAR SBBR 241900Z 32009KT 9999 TS BKN030 FEW045CB BKN080 20/19 Q1015 RERA","temp":20,"dewp":19,"wdir":320,"wspd":9,"visib":"6+","altim":1015,"clouds":[{"cover":"BKN","base":3000},{"cover":"FEW","base":4500},{"cover":"BKN","base":8000}],"obsTime":1774378800},"SBBV":{"icaoId":"SBBV","flightCategory":"VFR","rawOb":"METAR SBBV 241900Z 08005KT 9999 BKN040 FEW045TCU 37/19 Q1006","temp":37,"dewp":19,"wdir":80,"wspd":5,"visib":"6+","altim":1006,"clouds":[{"cover":"BKN","base":4000},{"cover":"FEW","base":4500}],"obsTime":1774378800},"SBCB":{"icaoId":"SBCB","flightCategory":"VFR","rawOb":"METAR SBCB 241900Z 06017KT CAVOK 28/23 Q1010","temp":28,"dewp":23,"wdir":60,"wspd":17,"visib":"6+","altim":1010,"clouds":[],"obsTime":1774378800},"SBCF":{"icaoId":"SBCF","flightCategory":"VFR","rawOb":"METAR SBCF 241900Z 07006KT 9999 -TSRA SCT035 FEW040CB SCT080 22/17 Q1015","temp":22,"dewp":17,"wdir":70,"wspd":6,"visib":"6+","altim":1015,"clouds":[{"cover":"SCT","base":3500},{"cover":"FEW","base":4000},{"cover":"SCT","base":8000}],"obsTime":1774378800},"SBCG":{"icaoId":"SBCG","flightCategory":"VFR","rawOb":"METAR SBCG 241900Z VRB01KT 9999 VCSH SCT040 FEW050TCU BKN100 29/21 Q1010","temp":29,"dewp":21,"wdir":"VRB","wspd":1,"visib":"6+","altim":1010,"clouds":[{"cover":"SCT","base":4000},{"cover":"FEW","base":5000},{"cover":"BKN","base":10000}],"obsTime":1774378800},"SBCP":{"icaoId":"SBCP","flightCategory":"VFR","rawOb":"METAR SBCP 241900Z 08016KT 9999 FEW020 29/23 Q1011","temp":29,"dewp":23,"wdir":80,"wspd":16,"visib":"6+","altim":1011,"clouds":[{"cover":"FEW","base":2000}],"obsTime":1774378800},"SBCR":{"icaoId":"SBCR","flightCategory":"MVFR","rawOb":"METAR SBCR 241900Z 24011KT 9999 BKN025 30/25 Q1008","temp":30,"dewp":25,"wdir":240,"wspd":11,"visib":"6+","altim":1008,"clouds":[{"cover":"BKN","base":2500}],"obsTime":1774378800},"SBCT":{"icaoId":"SBCT","flightCategory":"VFR","rawOb":"METAR SBCT 241900Z 11008KT 070V140 9999 FEW025 27/21 Q1013","temp":27,"dewp":21,"wdir":110,"wspd":8,"visib":"6+","altim":1013,"clouds":[{"cover":"FEW","base":2500}],"obsTime":1774378800},"SBCZ":{"icaoId":"SBCZ","flightCategory":"MVFR","rawOb":"METAR SBCZ 241900Z 27004KT 9999 BKN030 32/24 Q1008","temp":32,"dewp":24,"wdir":270,"wspd":4,"visib":"6+","altim":1008,"clouds":[{"cover":"BKN","base":3000}],"obsTime":1774378800},"SBFI":{"icaoId":"SBFI","flightCategory":"VFR","rawOb":"METAR SBFI 241900Z 24006KT 9999 SCT027 FEW040TCU 30/25 Q1008","temp":30,"dewp":25,"wdir":240,"wspd":6,"visib":"6+","altim":1008,"clouds":[{"cover":"SCT","base":2700},{"cover":"FEW","base":4000}],"obsTime":1774378800},"SBFL":{"icaoId":"SBFL","flightCategory":"VFR","rawOb":"METAR SBFL 241900Z 17007KT 120V210 9999 VCSH SCT033 BKN045 27/23 Q1010","temp":27,"dewp":23,"wdir":170,"wspd":7,"visib":"6+","altim":1010,"clouds":[{"cover":"SCT","base":3300},{"cover":"BKN","base":4500}],"obsTime":1774378800},"SBFZ":{"icaoId":"SBFZ","flightCategory":"VFR","rawOb":"METAR SBFZ 241900Z 10014KT 9999 FEW030 30/24 Q1009","temp":30,"dewp":24,"wdir":100,"wspd":14,"visib":"6+","altim":1009,"clouds":[{"cover":"FEW","base":3000}],"obsTime":1774378800},"SBGL":{"icaoId":"SBGL","flightCategory":"VFR","rawOb":"METAR SBGL 241900Z 14006KT CAVOK 32/19 Q1008","temp":32,"dewp":19,"wdir":140,"wspd":6,"visib":"6+","altim":1008,"clouds":[],"obsTime":1774378800},"SBGO":{"icaoId":"SBGO","flightCategory":"VFR","rawOb":"METAR SBGO 241900Z 24004KT 9999 -RA FEW023 FEW053TCU OVC080 23/21 Q1013 RETS","temp":23,"dewp":21,"wdir":240,"wspd":4,"visib":"6+","altim":1013,"clouds":[{"cover":"FEW","base":2300},{"cover":"FEW","base":5300},{"cover":"OVC","base":8000}],"obsTime":1774378800},"SBGR":{"icaoId":"SBGR","flightCategory":"VFR","rawOb":"METAR SBGR 241900Z 06004KT 9999 BKN049 30/16 Q1012","temp":30,"dewp":16,"wdir":60,"wspd":4,"visib":"6+","altim":1012,"clouds":[{"cover":"BKN","base":4900}],"obsTime":1774378800},"SBHT":{"icaoId":"SBHT","flightCategory":"MVFR","rawOb":"METAR SBHT 241900Z 09007KT 9999 BKN025 BKN100 31/25 Q1008","temp":31,"dewp":25,"wdir":90,"wspd":7,"visib":"6+","altim":1008,"clouds":[{"cover":"BKN","base":2500},{"cover":"BKN","base":10000}],"obsTime":1774378800},"SBIL":{"icaoId":"SBIL","flightCategory":"MVFR","rawOb":"METAR SBIL 241900Z 26006KT 8000 -RA SCT018 FEW023TCU BKN070 25/24 Q1013 RETS","temp":25,"dewp":24,"wdir":260,"wspd":6,"visib":4.97,"altim":1013,"clouds":[{"cover":"SCT","base":1800},{"cover":"FEW","base":2300},{"cover":"BKN","base":7000}],"obsTime":1774378800},"SBJU":{"icaoId":"SBJU","flightCategory":"VFR","rawOb":"METAR SBJU 241900Z 15004KT 9999 SCT022 FEW023TCU 28/23 Q1011","temp":28,"dewp":23,"wdir":150,"wspd":4,"visib":"6+","altim":1011,"clouds":[{"cover":"SCT","base":2200},{"cover":"FEW","base":2300}],"obsTime":1774378800},"SBKP":{"icaoId":"SBKP","flightCategory":"VFR","rawOb":"METAR SBKP 241900Z VRB03KT 9999 FEW045 31/14 Q1011","temp":31,"dewp":14,"wdir":"VRB","wspd":3,"visib":"6+","altim":1011,"clouds":[{"cover":"FEW","base":4500}],"obsTime":1774378800},"SBLO":{"icaoId":"SBLO","flightCategory":"IFR","rawOb":"SPECI SBLO 241832Z 20012G22KT 2500 +TSRA SCT025 FEW030CB SCT070 22/21 Q1011 RERA","temp":22,"dewp":21,"wdir":200,"wspd":12,"visib":1.55,"altim":1011,"clouds":[{"cover":"SCT","base":2500},{"cover":"FEW","base":3000},{"cover":"SCT","base":7000}],"obsTime":1774377120},"SBMA":{"icaoId":"SBMA","flightCategory":"VFR","rawOb":"METAR SBMA 241900Z 23003KT 9999 SCT020 BKN100 31/24 Q1008","temp":31,"dewp":24,"wdir":230,"wspd":3,"visib":"6+","altim":1008,"clouds":[{"cover":"SCT","base":2000},{"cover":"BKN","base":10000}],"obsTime":1774378800},"SBME":{"icaoId":"SBME","flightCategory":"VFR","rawOb":"METAR SBME 241900Z 09010KT 9999 SCT036 32/23 Q1009","temp":32,"dewp":23,"wdir":90,"wspd":10,"visib":"6+","altim":1009,"clouds":[{"cover":"SCT","base":3600}],"obsTime":1774378800},"SBMK":{"icaoId":"SBMK","flightCategory":"VFR","rawOb":"METAR SBMK 241900Z 05004KT 9999 SCT045 28/20 Q1012","temp":28,"dewp":20,"wdir":50,"wspd":4,"visib":"6+","altim":1012,"clouds":[{"cover":"SCT","base":4500}],"obsTime":1774378800},"SBMO":{"icaoId":"SBMO","flightCategory":"VFR","rawOb":"METAR SBMO 241900Z 09012KT 9999 SCT030 31/23 Q1011","temp":31,"dewp":23,"wdir":90,"wspd":12,"visib":"6+","altim":1011,"clouds":[{"cover":"SCT","base":3000}],"obsTime":1774378800},"SBMQ":{"icaoId":"SBMQ","flightCategory":"MVFR","rawOb":"METAR SBMQ 241900Z 05008KT 9999 BKN020 29/24 Q1010","temp":29,"dewp":24,"wdir":50,"wspd":8,"visib":"6+","altim":1010,"clouds":[{"cover":"BKN","base":2000}],"obsTime":1774378800},"SBNT":{"icaoId":"SBNT","flightCategory":"VFR","rawOb":"METAR SBNT 241900Z 10014KT 080V140 9999 FEW030 30/23 Q1010","temp":30,"dewp":23,"wdir":100,"wspd":14,"visib":"6+","altim":1010,"clouds":[{"cover":"FEW","base":3000}],"obsTime":1774378800},"SBPA":{"icaoId":"SBPA","flightCategory":"MVFR","rawOb":"METAR SBPA 241900Z 18007KT 9999 SCT020 BKN030 24/19 Q1011","temp":24,"dewp":19,"wdir":180,"wspd":7,"visib":"6+","altim":1011,"clouds":[{"cover":"SCT","base":2000},{"cover":"BKN","base":3000}],"obsTime":1774378800},"SBPJ":{"icaoId":"SBPJ","flightCategory":"VFR","rawOb":"METAR SBPJ 241900Z 15007KT 9999 FEW012 SCT025 26/23 Q1010","temp":26,"dewp":23,"wdir":150,"wspd":7,"visib":"6+","altim":1010,"clouds":[{"cover":"FEW","base":1200},{"cover":"SCT","base":2500}],"obsTime":1774378800},"SBPV":{"icaoId":"SBPV","flightCategory":"VFR","rawOb":"METAR SBPV 241900Z 07004KT 9999 FEW025 32/24 Q1005","temp":32,"dewp":24,"wdir":70,"wspd":4,"visib":"6+","altim":1005,"clouds":[{"cover":"FEW","base":2500}],"obsTime":1774378800},"SBRB":{"icaoId":"SBRB","flightCategory":"VFR","rawOb":"METAR SBRB 241900Z 26007KT 9999 VCSH BKN035 FEW040TCU 33/23 Q1007","temp":33,"dewp":23,"wdir":260,"wspd":7,"visib":"6+","altim":1007,"clouds":[{"cover":"BKN","base":3500},{"cover":"FEW","base":4000}],"obsTime":1774378800},"SBRF":{"icaoId":"SBRF","flightCategory":"VFR","rawOb":"METAR SBRF 241900Z 11008KT 050V150 9999 SCT023 30/23 Q1010","temp":30,"dewp":23,"wdir":110,"wspd":8,"visib":"6+","altim":1010,"clouds":[{"cover":"SCT","base":2300}],"obsTime":1774378800},"SBSG":{"icaoId":"SBSG","flightCategory":"VFR","rawOb":"METAR SBSG 242000Z 11011KT 9999 SCT026 29/23 Q1010","temp":29,"dewp":23,"wdir":110,"wspd":11,"visib":"6+","altim":1010,"clouds":[{"cover":"SCT","base":2600}],"obsTime":1774382400},"SBSL":{"icaoId":"SBSL","flightCategory":"VFR","rawOb":"METAR SBSL 241900Z 03012KT 9999 SCT030 SCT080 29/24 Q1008","temp":29,"dewp":24,"wdir":30,"wspd":12,"visib":"6+","altim":1008,"clouds":[{"cover":"SCT","base":3000},{"cover":"SCT","base":8000}],"obsTime":1774378800},"SBSN":{"icaoId":"SBSN","flightCategory":"VFR","rawOb":"METAR SBSN 241900Z 09013KT 9999 SCT017 SCT100 32/24 Q1007","temp":32,"dewp":24,"wdir":90,"wspd":13,"visib":"6+","altim":1007,"clouds":[{"cover":"SCT","base":1700},{"cover":"SCT","base":10000}],"obsTime":1774378800},"SBSP":{"icaoId":"SBSP","flightCategory":"VFR","rawOb":"METAR SBSP 241900Z 15011KT CAVOK 27/19 Q1012","temp":27,"dewp":19,"wdir":150,"wspd":11,"visib":"6+","altim":1012,"clouds":[],"obsTime":1774378800},"SBSV":{"icaoId":"SBSV","flightCategory":"VFR","rawOb":"METAR SBSV 241900Z 10009KT 9999 VCSH SCT017 FEW025TCU BKN050 29/23 Q1011","temp":29,"dewp":23,"wdir":100,"wspd":9,"visib":"6+","altim":1011,"clouds":[{"cover":"SCT","base":1700},{"cover":"FEW","base":2500},{"cover":"BKN","base":5000}],"obsTime":1774378800},"SBTE":{"icaoId":"SBTE","flightCategory":"MVFR","rawOb":"METAR SBTE 241900Z 03004KT 9999 BKN025 33/22 Q1007","temp":33,"dewp":22,"wdir":30,"wspd":4,"visib":"6+","altim":1007,"clouds":[{"cover":"BKN","base":2500}],"obsTime":1774378800},"SBUL":{"icaoId":"SBUL","flightCategory":"VFR","rawOb":"METAR SBUL 241900Z 08008KT 030V100 9999 VCTS FEW010 SCT030 FEW035CB BKN100 23/20 Q1014","temp":23,"dewp":20,"wdir":80,"wspd":8,"visib":"6+","altim":1014,"clouds":[{"cover":"FEW","base":1000},{"cover":"SCT","base":3000},{"cover":"FEW","base":3500},{"cover":"BKN","base":10000}],"obsTime":1774378800},"SBUR":{"icaoId":"SBUR","flightCategory":"VFR","rawOb":"METAR SBUR 241900Z 26010KT 9999 VCSH SCT044 FEW046TCU 30/21 Q1011","temp":30,"dewp":21,"wdir":260,"wspd":10,"visib":"6+","altim":1011,"clouds":[{"cover":"SCT","base":4400},{"cover":"FEW","base":4600}],"obsTime":1774378800},"SBVT":{"icaoId":"SBVT","flightCategory":"VFR","rawOb":"METAR SBVT 241900Z 04014KT 9999 SCT020 28/23 Q1012","temp":28,"dewp":23,"wdir":40,"wspd":14,"visib":"6+","altim":1012,"clouds":[{"cover":"SCT","base":2000}],"obsTime":1774378800},"SBMG":{"icaoId":"SBMG","flightCategory":"VFR","rawOb":"METAR SBMG 241900Z 08012KT 9999 -RA FEW025 FEW030TCU OVC100 24/22 Q1010 RETS","temp":24,"dewp":22,"wdir":80,"wspd":12,"visib":"6+","altim":1010,"clouds":[{"cover":"FEW","base":2500},{"cover":"FEW","base":3000},{"cover":"OVC","base":10000}],"obsTime":1774378800},"SBOI":{"icaoId":"SBOI","flightCategory":"LIFR","rawOb":"METAR SBOI 241900Z AUTO 36005KT 9999 BKN004 24/23 Q1011","temp":24,"dewp":23,"wdir":360,"wspd":5,"visib":"6+","altim":1011,"clouds":[{"cover":"BKN","base":400}],"obsTime":1774378800},"SBPB":{"icaoId":"SBPB","flightCategory":"VFR","rawOb":"METAR SBPB 241900Z 04010KT 9999 SCT020 FEW025TCU BKN080 31/25 Q1008","temp":31,"dewp":25,"wdir":40,"wspd":10,"visib":"6+","altim":1008,"clouds":[{"cover":"SCT","base":2000},{"cover":"FEW","base":2500},{"cover":"BKN","base":8000}],"obsTime":1774378800},"SBDN":{"icaoId":"SBDN","flightCategory":"VFR","rawOb":"METAR SBDN 241900Z 25009KT 9999 VCSH FEW010 BKN033 SCT050TCU 27/20 Q1009","temp":27,"dewp":20,"wdir":250,"wspd":9,"visib":"6+","altim":1009,"clouds":[{"cover":"FEW","base":1000},{"cover":"BKN","base":3300},{"cover":"SCT","base":5000}],"obsTime":1774378800},"SBPL":{"icaoId":"SBPL","flightCategory":"VFR","rawOb":"METAR SBPL 241900Z 08006KT 9999 FEW035 33/19 Q1009","temp":33,"dewp":19,"wdir":80,"wspd":6,"visib":"6+","altim":1009,"clouds":[{"cover":"FEW","base":3500}],"obsTime":1774378800},"SBAX":{"icaoId":"SBAX","flightCategory":"VFR","rawOb":"METAR SBAX 241900Z AUTO 03005KT 350V060 9999 FEW036 25/17 Q1014","temp":25,"dewp":17,"wdir":30,"wspd":5,"visib":"6+","altim":1014,"clouds":[{"cover":"FEW","base":3600}],"obsTime":1774378800},"SBES":{"icaoId":"SBES","flightCategory":"VFR","rawOb":"METAR SBES 241900Z 07016KT 030V100 9999 FEW025 28/// Q1010","temp":null,"dewp":null,"wdir":70,"wspd":16,"visib":"6+","altim":1010,"clouds":[{"cover":"FEW","base":2500}],"obsTime":1774378800},"SBPP":{"icaoId":"SBPP","flightCategory":"MVFR","rawOb":"METAR SBPP 241900Z 20010KT 5000 -TSRA BKN020 FEW030CB BKN070 23/22 Q1012","temp":23,"dewp":22,"wdir":200,"wspd":10,"visib":3.11,"altim":1012,"clouds":[{"cover":"BKN","base":2000},{"cover":"FEW","base":3000},{"cover":"BKN","base":7000}],"obsTime":1774378800},"SBCC":{"icaoId":"SBCC","flightCategory":"IFR","rawOb":"METAR SBCC 241900Z 02019G32KT 4000 TSRA BKN009 BKN023 FEW025CB BKN100 23/21 Q1011","temp":23,"dewp":21,"wdir":20,"wspd":19,"visib":2.49,"altim":1011,"clouds":[{"cover":"BKN","base":900},{"cover":"BKN","base":2300},{"cover":"FEW","base":2500},{"cover":"BKN","base":10000}],"obsTime":1774378800},"SBPS":{"icaoId":"SBPS","flightCategory":"VFR","rawOb":"METAR SBPS 241900Z 10007KT 9999 SCT020 BKN100 28/24 Q1013","temp":28,"dewp":24,"wdir":100,"wspd":7,"visib":"6+","altim":1013,"clouds":[{"cover":"SCT","base":2000},{"cover":"BKN","base":10000}],"obsTime":1774378800},"SBSC":{"icaoId":"SBSC","flightCategory":"VFR","rawOb":"METAR SBSC 241900Z 01006KT CAVOK 33/20 Q1008","temp":33,"dewp":20,"wdir":10,"wspd":6,"visib":"6+","altim":1008,"clouds":[],"obsTime":1774378800},"SBAR":{"icaoId":"SBAR","flightCategory":"VFR","rawOb":"METAR SBAR 241900Z 09012KT 9999 FEW023 30/24 Q1010","temp":30,"dewp":24,"wdir":90,"wspd":12,"visib":"6+","altim":1010,"clouds":[{"cover":"FEW","base":2300}],"obsTime":1774378800},"SBSJ":{"icaoId":"SBSJ","flightCategory":"VFR","rawOb":"METAR SBSJ 241900Z 34003KT 9999 FEW030 31/// Q1011","temp":null,"dewp":null,"wdir":340,"wspd":3,"visib":"6+","altim":1011,"clouds":[{"cover":"FEW","base":3000}],"obsTime":1774378800},"SBIP":{"icaoId":"SBIP","flightCategory":"VFR","rawOb":"METAR SBIP 241900Z AUTO 36007KT 340V040 CAVOK 29/19 Q1012","temp":29,"dewp":19,"wdir":360,"wspd":7,"visib":"6+","altim":1012,"clouds":[],"obsTime":1774378800},"SBBU":{"icaoId":"SBBU","flightCategory":"VFR","rawOb":"METAR SBBU 241900Z 16004KT 9999 FEW040 31/21 Q1009","temp":31,"dewp":21,"wdir":160,"wspd":4,"visib":"6+","altim":1009,"clouds":[{"cover":"FEW","base":4000}],"obsTime":1774378800},"SBSR":{"icaoId":"SBSR","flightCategory":"VFR","rawOb":"METAR SBSR 241900Z 26006KT 9999 VCSH SCT030 FEW035TCU BKN070 30/21 Q1009","temp":30,"dewp":21,"wdir":260,"wspd":6,"visib":"6+","altim":1009,"clouds":[{"cover":"SCT","base":3000},{"cover":"FEW","base":3500},{"cover":"BKN","base":7000}],"obsTime":1774378800},"SBCJ":{"icaoId":"SBCJ","flightCategory":"VFR","rawOb":"METAR SBCJ 241900Z 00000KT 9999 SCT013 26/22 Q1013","temp":26,"dewp":22,"wdir":0,"wspd":0,"visib":"6+","altim":1013,"clouds":[{"cover":"SCT","base":1300}],"obsTime":1774378800},"SBTF":{"icaoId":"SBTF","flightCategory":"VFR","rawOb":"METAR SBTF 241900Z 07004KT 9999 TS SCT015 FEW030CB OVC100 30/27 Q1006","temp":30,"dewp":27,"wdir":70,"wspd":4,"visib":"6+","altim":1006,"clouds":[{"cover":"SCT","base":1500},{"cover":"FEW","base":3000},{"cover":"OVC","base":10000}],"obsTime":1774378800},"SBKG":{"icaoId":"SBKG","flightCategory":"MVFR","rawOb":"METAR SBKG 241900Z 07013KT 9999 BKN030 30/18 Q1012","temp":30,"dewp":18,"wdir":70,"wspd":13,"visib":"6+","altim":1012,"clouds":[{"cover":"BKN","base":3000}],"obsTime":1774378800},"SBTT":{"icaoId":"SBTT","flightCategory":"VFR","rawOb":"METAR SBTT 241900Z 25006KT 9999 FEW022 FEW027TCU BKN090 31/21 Q1008","temp":31,"dewp":21,"wdir":250,"wspd":6,"visib":"6+","altim":1008,"clouds":[{"cover":"FEW","base":2200},{"cover":"FEW","base":2700},{"cover":"BKN","base":9000}],"obsTime":1774378800},"SBUY":{"icaoId":"SBUY","flightCategory":"VFR","rawOb":"METAR SBUY 241900Z 08002KT 9999 SCT030 FEW035TCU 33/22 Q1004","temp":33,"dewp":22,"wdir":80,"wspd":2,"visib":"6+","altim":1004,"clouds":[{"cover":"SCT","base":3000},{"cover":"FEW","base":3500}],"obsTime":1774378800},"SBBH":{"icaoId":"SBBH","flightCategory":"VFR","rawOb":"METAR SBBH 241900Z 34003KT 9999 -TSRA SCT040 FEW045CB 24/19 Q1015","temp":24,"dewp":19,"wdir":340,"wspd":3,"visib":"6+","altim":1015,"clouds":[{"cover":"SCT","base":4000},{"cover":"FEW","base":4500}],"obsTime":1774378800},"SBVH":{"icaoId":"SBVH","flightCategory":"VFR","rawOb":"METAR SBVH 241900Z 34002KT 9999 SCT030 28/21 Q1010","temp":28,"dewp":21,"wdir":340,"wspd":2,"visib":"6+","altim":1010,"clouds":[{"cover":"SCT","base":3000}],"obsTime":1774378800},"SBBQ":{"icaoId":"SBBQ","flightCategory":"VFR","rawOb":"METAR SBBQ 241900Z 02005KT 310V070 9999 SCT035 24/16 Q1017","temp":24,"dewp":16,"wdir":20,"wspd":5,"visib":"6+","altim":1017,"clouds":[{"cover":"SCT","base":3500}],"obsTime":1774378800},"SBCA":{"icaoId":"SBCA","flightCategory":"VFR","rawOb":"METAR SBCA 241900Z 02006KT 9999 VCSH FEW040TCU SCT070 27/21 Q1013","temp":27,"dewp":21,"wdir":20,"wspd":6,"visib":"6+","altim":1013,"clouds":[{"cover":"FEW","base":4000},{"cover":"SCT","base":7000}],"obsTime":1774378800},"SBCO":{"icaoId":"SBCO","flightCategory":"MVFR","rawOb":"METAR SBCO 241900Z 15005KT 9999 SCT019 BKN027 23/19 Q1012","temp":23,"dewp":19,"wdir":150,"wspd":5,"visib":"6+","altim":1012,"clouds":[{"cover":"SCT","base":1900},{"cover":"BKN","base":2700}],"obsTime":1774378800},"SBGM":{"icaoId":"SBGM","flightCategory":"MVFR","rawOb":"METAR SBGM 241900Z 24005KT 210V310 9999 BKN020 33/19 Q1006","temp":33,"dewp":19,"wdir":240,"wspd":5,"visib":"6+","altim":1006,"clouds":[{"cover":"BKN","base":2000}],"obsTime":1774378800},"SBSM":{"icaoId":"SBSM","flightCategory":"MVFR","rawOb":"METAR SBSM 241900Z 08005KT 9999 BKN030 25/19 Q1011","temp":25,"dewp":19,"wdir":80,"wspd":5,"visib":"6+","altim":1011,"clouds":[{"cover":"BKN","base":3000}],"obsTime":1774378800},"SBJP":{"icaoId":"SBJP","flightCategory":"VFR","rawOb":"METAR SBJP 241900Z 09010KT 9999 FEW035 30/21 Q1011","temp":30,"dewp":21,"wdir":90,"wspd":10,"visib":"6+","altim":1011,"clouds":[{"cover":"FEW","base":3500}],"obsTime":1774378800},"SBAF":{"icaoId":"SBAF","flightCategory":"VFR","rawOb":"METAR SBAF 241900Z 18007KT CAVOK 32/21 Q1008","temp":32,"dewp":21,"wdir":180,"wspd":7,"visib":"6+","altim":1008,"clouds":[],"obsTime":1774378800},"SBGW":{"icaoId":"SBGW","flightCategory":"VFR","rawOb":"METAR SBGW 241900Z 02005KT 340V060 9999 FEW035 31/16 Q1010","temp":31,"dewp":16,"wdir":20,"wspd":5,"visib":"6+","altim":1010,"clouds":[{"cover":"FEW","base":3500}],"obsTime":1774378800},"SBJR":{"icaoId":"SBJR","flightCategory":"VFR","rawOb":"METAR SBJR 241900Z 19005KT CAVOK 30/20 Q1008","temp":30,"dewp":20,"wdir":190,"wspd":5,"visib":"6+","altim":1008,"clouds":[],"obsTime":1774378800},"SBLE":{"icaoId":"SBLE","flightCategory":"VFR","rawOb":"METAR SBLE 241900Z AUTO 16005KT 120V210 9999 SCT044 29/20 Q1012","temp":29,"dewp":20,"wdir":160,"wspd":5,"visib":"6+","altim":1012,"clouds":[{"cover":"SCT","base":4400}],"obsTime":1774378800},"SBLS":{"icaoId":"SBLS","flightCategory":"VFR","rawOb":"METAR SBLS 241900Z 02003KT 310V080 9999 VCSH VCTS SCT045 FEW049CB BKN100 22/18 Q1015 RETS","temp":22,"dewp":18,"wdir":20,"wspd":3,"visib":"6+","altim":1015,"clouds":[{"cover":"SCT","base":4500},{"cover":"FEW","base":4900},{"cover":"BKN","base":10000}],"obsTime":1774378800},"SBMT":{"icaoId":"SBMT","flightCategory":"VFR","rawOb":"METAR SBMT 241900Z 17004KT 120V240 CAVOK 29/13 Q1011","temp":29,"dewp":13,"wdir":170,"wspd":4,"visib":"6+","altim":1011,"clouds":[],"obsTime":1774378800},"SBST":{"icaoId":"SBST","flightCategory":"VFR","rawOb":"METAR SBST 241900Z 22005KT CAVOK 28/20 Q1009","temp":28,"dewp":20,"wdir":220,"wspd":5,"visib":"6+","altim":1009,"clouds":[],"obsTime":1774378800},"SBTA":{"icaoId":"SBTA","flightCategory":"VFR","rawOb":"METAR SBTA 241900Z 09006KT 050V140 9999 FEW040 28/21 Q1010","temp":28,"dewp":21,"wdir":90,"wspd":6,"visib":"6+","altim":1010,"clouds":[{"cover":"FEW","base":4000}],"obsTime":1774378800},"SBIH":{"icaoId":"SBIH","flightCategory":"VFR","rawOb":"METAR SBIH 241900Z 07007KT 9999 SCT020 32/25 Q1007","temp":32,"dewp":25,"wdir":70,"wspd":7,"visib":"6+","altim":1007,"clouds":[{"cover":"SCT","base":2000}],"obsTime":1774378800},"SBAN":{"icaoId":"SBAN","flightCategory":"VFR","rawOb":"METAR SBAN 241900Z 33003KT 9999 FEW030 FEW035TCU 22/20 Q1015","temp":22,"dewp":20,"wdir":330,"wspd":3,"visib":"6+","altim":1015,"clouds":[{"cover":"FEW","base":3000},{"cover":"FEW","base":3500}],"obsTime":1774378800},"SBJV":{"icaoId":"SBJV","flightCategory":"MVFR","rawOb":"METAR SBJV 241900Z 06006KT 9999 BKN030 30/23 Q1009","temp":30,"dewp":23,"wdir":60,"wspd":6,"visib":"6+","altim":1009,"clouds":[{"cover":"BKN","base":3000}],"obsTime":1774378800},"SBPF":{"icaoId":"SBPF","flightCategory":"MVFR","rawOb":"METAR SBPF 241900Z 20006KT 9999 FEW014 BKN030 24/20 Q1013","temp":24,"dewp":20,"wdir":200,"wspd":6,"visib":"6+","altim":1013,"clouds":[{"cover":"FEW","base":1400},{"cover":"BKN","base":3000}],"obsTime":1774378800}}}