{"updated":1776703845,"count":85,"data":{"SBLO":{"icaoId":"SBLO","flightCategory":"VFR","rawOb":"METAR SBLO 201500Z 09007KT 040V160 CAVOK 26/18 Q1018","temp":26,"dewp":18,"wdir":90,"wspd":7,"visib":"6+","altim":1018,"clouds":[],"obsTime":1776697200},"SBAT":{"icaoId":"SBAT","flightCategory":"VFR","rawOb":"METAR SBAT 201500Z 07001KT 9999 SCT025 BKN100 29/25 Q1014","temp":29,"dewp":25,"wdir":70,"wspd":1,"visib":"6+","altim":1014,"clouds":[{"cover":"SCT","base":2500},{"cover":"BKN","base":10000}],"obsTime":1776697200},"SBBE":{"icaoId":"SBBE","flightCategory":"VFR","rawOb":"METAR SBBE 201500Z 27005KT 9999 SCT025 29/23 Q1012","temp":29,"dewp":23,"wdir":270,"wspd":5,"visib":"6+","altim":1012,"clouds":[{"cover":"SCT","base":2500}],"obsTime":1776697200},"SBVT":{"icaoId":"SBVT","flightCategory":"VFR","rawOb":"METAR SBVT 201500Z 15014KT 9999 FEW040 27/19 Q1015","temp":27,"dewp":19,"wdir":150,"wspd":14,"visib":"6+","altim":1015,"clouds":[{"cover":"FEW","base":4000}],"obsTime":1776697200},"SBUR":{"icaoId":"SBUR","flightCategory":"VFR","rawOb":"METAR SBUR 201500Z 15003KT 9999 FEW049 30/15 Q1017","temp":30,"dewp":15,"wdir":150,"wspd":3,"visib":"6+","altim":1017,"clouds":[{"cover":"FEW","base":4900}],"obsTime":1776697200},"SBBR":{"icaoId":"SBBR","flightCategory":"VFR","rawOb":"METAR SBBR 201500Z 10005KT 350V140 9999 FEW045 28/16 Q1019","temp":28,"dewp":16,"wdir":100,"wspd":5,"visib":"6+","altim":1019,"clouds":[{"cover":"FEW","base":4500}],"obsTime":1776697200},"SBUL":{"icaoId":"SBUL","flightCategory":"VFR","rawOb":"METAR SBUL 201500Z 10004KT 9999 SCT025 28/18 Q1018","temp":28,"dewp":18,"wdir":100,"wspd":4,"visib":"6+","altim":1018,"clouds":[{"cover":"SCT","base":2500}],"obsTime":1776697200},"SBBV":{"icaoId":"SBBV","flightCategory":"MVFR","rawOb":"METAR SBBV 201500Z 12009KT 9999 BKN030 FEW035TCU OVC080 29/23 Q1013","temp":29,"dewp":23,"wdir":120,"wspd":9,"visib":"6+","altim":1013,"clouds":[{"cover":"BKN","base":3000},{"cover":"FEW","base":3500},{"cover":"OVC","base":8000}],"obsTime":1776697200},"SBTE":{"icaoId":"SBTE","flightCategory":"MVFR","rawOb":"METAR SBTE 201500Z 33005KT 9999 BKN016 BKN090 29/25 Q1011","temp":29,"dewp":25,"wdir":330,"wspd":5,"visib":"6+","altim":1011,"clouds":[{"cover":"BKN","base":1600},{"cover":"BKN","base":9000}],"obsTime":1776697200},"SBCB":{"icaoId":"SBCB","flightCategory":"VFR","rawOb":"METAR SBCB 201500Z 27014KT 9999 FEW025 26/20 Q1016","temp":26,"dewp":20,"wdir":270,"wspd":14,"visib":"6+","altim":1016,"clouds":[{"cover":"FEW","base":2500}],"obsTime":1776697200},"SBSV":{"icaoId":"SBSV","flightCategory":"VFR","rawOb":"METAR SBSV 201500Z 15005KT 9999 SCT017 BKN100 29/24 Q1013","temp":29,"dewp":24,"wdir":150,"wspd":5,"visib":"6+","altim":1013,"clouds":[{"cover":"SCT","base":1700},{"cover":"BKN","base":10000}],"obsTime":1776697200},"SBCF":{"icaoId":"SBCF","flightCategory":"VFR","rawOb":"METAR SBCF 201500Z 09006KT 020V130 9999 BKN035 26/18 Q1018","temp":26,"dewp":18,"wdir":90,"wspd":6,"visib":"6+","altim":1018,"clouds":[{"cover":"BKN","base":3500}],"obsTime":1776697200},"SBCG":{"icaoId":"SBCG","flightCategory":"VFR","rawOb":"METAR SBCG 201500Z 04015KT 9999 SCT040 FEW045TCU 31/21 Q1015","temp":31,"dewp":21,"wdir":40,"wspd":15,"visib":"6+","altim":1015,"clouds":[{"cover":"SCT","base":4000},{"cover":"FEW","base":4500}],"obsTime":1776697200},"SBSP":{"icaoId":"SBSP","flightCategory":"VFR","rawOb":"METAR SBSP 201500Z 17007KT 110V210 CAVOK 24/13 Q1021","temp":24,"dewp":13,"wdir":170,"wspd":7,"visib":"6+","altim":1021,"clouds":[],"obsTime":1776697200},"SBSN":{"icaoId":"SBSN","flightCategory":"VFR","rawOb":"METAR SBSN 201500Z 06004KT 9999 SCT013 BKN100 28/25 Q1013","temp":28,"dewp":25,"wdir":60,"wspd":4,"visib":"6+","altim":1013,"clouds":[{"cover":"SCT","base":1300},{"cover":"BKN","base":10000}],"obsTime":1776697200},"SBCP":{"icaoId":"SBCP","flightCategory":"VFR","rawOb":"METAR SBCP 201500Z 23010KT 9999 SCT020 29/17 Q1015","temp":29,"dewp":17,"wdir":230,"wspd":10,"visib":"6+","altim":1015,"clouds":[{"cover":"SCT","base":2000}],"obsTime":1776697200},"SBSL":{"icaoId":"SBSL","flightCategory":"MVFR","rawOb":"METAR SBSL 201500Z 09005KT 020V180 9999 SCT021 BKN027 30/24 Q1011","temp":30,"dewp":24,"wdir":90,"wspd":5,"visib":"6+","altim":1011,"clouds":[{"cover":"SCT","base":2100},{"cover":"BKN","base":2700}],"obsTime":1776697200},"SBCR":{"icaoId":"SBCR","flightCategory":"MVFR","rawOb":"METAR SBCR 201500Z 35005KT 9999 BKN030 32/25 Q1012","temp":32,"dewp":25,"wdir":350,"wspd":5,"visib":"6+","altim":1012,"clouds":[{"cover":"BKN","base":3000}],"obsTime":1776697200},"SBSG":{"icaoId":"SBSG","flightCategory":"MVFR","rawOb":"METAR SBSG 201500Z VRB03KT 5000 -RA SCT010 BKN017 FEW027TCU 26/24 Q1011 RERA","temp":26,"dewp":24,"wdir":"VRB","wspd":3,"visib":3.11,"altim":1011,"clouds":[{"cover":"SCT","base":1000},{"cover":"BKN","base":1700},{"cover":"FEW","base":2700}],"obsTime":1776697200},"SBCT":{"icaoId":"SBCT","flightCategory":"VFR","rawOb":"METAR SBCT 201500Z 06005KT 9999 FEW025 22/15 Q1021","temp":22,"dewp":15,"wdir":60,"wspd":5,"visib":"6+","altim":1021,"clouds":[{"cover":"FEW","base":2500}],"obsTime":1776697200},"SBRF":{"icaoId":"SBRF","flightCategory":"VFR","rawOb":"METAR SBRF 201500Z 14014KT 9999 SCT024 30/25 Q1011","temp":30,"dewp":25,"wdir":140,"wspd":14,"visib":"6+","altim":1011,"clouds":[{"cover":"SCT","base":2400}],"obsTime":1776697200},"SBCZ":{"icaoId":"SBCZ","flightCategory":"MVFR","rawOb":"METAR SBCZ 201500Z 06003KT 9999 BKN015 BKN100 27/25 Q1013","temp":27,"dewp":25,"wdir":60,"wspd":3,"visib":"6+","altim":1013,"clouds":[{"cover":"BKN","base":1500},{"cover":"BKN","base":10000}],"obsTime":1776697200},"SBRB":{"icaoId":"SBRB","flightCategory":"MVFR","rawOb":"METAR SBRB 201500Z 01003KT 9999 BKN013 BKN100 27/24 Q1013","temp":27,"dewp":24,"wdir":10,"wspd":3,"visib":"6+","altim":1013,"clouds":[{"cover":"BKN","base":1300},{"cover":"BKN","base":10000}],"obsTime":1776697200},"SBEG":{"icaoId":"SBEG","flightCategory":"MVFR","rawOb":"METAR SBEG 201500Z 08010KT 5000 -SHRA SCT010 SCT020 FEW025TCU BKN080 25/24 Q1014 RESHRA","temp":25,"dewp":24,"wdir":80,"wspd":10,"visib":3.11,"altim":1014,"clouds":[{"cover":"SCT","base":1000},{"cover":"SCT","base":2000},{"cover":"FEW","base":2500},{"cover":"BKN","base":8000}],"obsTime":1776697200},"SBPV":{"icaoId":"SBPV","flightCategory":"VFR","rawOb":"METAR SBPV 201500Z 00000KT 9999 SCT014 26/25 Q1013","temp":26,"dewp":25,"wdir":0,"wspd":0,"visib":"6+","altim":1013,"clouds":[{"cover":"SCT","base":1400}],"obsTime":1776697200},"SBFI":{"icaoId":"SBFI","flightCategory":"VFR","rawOb":"METAR SBFI 201500Z 03007KT CAVOK 29/22 Q1014","temp":29,"dewp":22,"wdir":30,"wspd":7,"visib":"6+","altim":1014,"clouds":[],"obsTime":1776697200},"SBPJ":{"icaoId":"SBPJ","flightCategory":"VFR","rawOb":"METAR SBPJ 201500Z 23004KT 9999 SCT025 SCT080 29/24 Q1013","temp":29,"dewp":24,"wdir":230,"wspd":4,"visib":"6+","altim":1013,"clouds":[{"cover":"SCT","base":2500},{"cover":"SCT","base":8000}],"obsTime":1776697200},"SBFL":{"icaoId":"SBFL","flightCategory":"VFR","rawOb":"METAR SBFL 201500Z 32005KT CAVOK 27/18 Q1017","temp":27,"dewp":18,"wdir":320,"wspd":5,"visib":"6+","altim":1017,"clouds":[],"obsTime":1776697200},"SBFZ":{"icaoId":"SBFZ","flightCategory":"MVFR","rawOb":"METAR SBFZ 201500Z 10007KT 6000 -TSRA FEW006 SCT016 FEW025CB BKN090 25/24 Q1011","temp":25,"dewp":24,"wdir":100,"wspd":7,"visib":3.73,"altim":1011,"clouds":[{"cover":"FEW","base":600},{"cover":"SCT","base":1600},{"cover":"FEW","base":2500},{"cover":"BKN","base":9000}],"obsTime":1776697200},"SBPA":{"icaoId":"SBPA","flightCategory":"VFR","rawOb":"METAR SBPA 201500Z VRB02KT CAVOK 27/17 Q1015","temp":27,"dewp":17,"wdir":"VRB","wspd":2,"visib":"6+","altim":1015,"clouds":[],"obsTime":1776697200},"SBGL":{"icaoId":"SBGL","flightCategory":"VFR","rawOb":"METAR SBGL 201500Z 01006KT 9999 SCT035 29/18 Q1015","temp":29,"dewp":18,"wdir":10,"wspd":6,"visib":"6+","altim":1015,"clouds":[{"cover":"SCT","base":3500}],"obsTime":1776697200},"SBNT":{"icaoId":"SBNT","flightCategory":"MVFR","rawOb":"METAR SBNT 201500Z 09007KT 050V140 9999 VCSH BKN025 FEW030TCU BKN060 30/24 Q1010","temp":30,"dewp":24,"wdir":90,"wspd":7,"visib":"6+","altim":1010,"clouds":[{"cover":"BKN","base":2500},{"cover":"FEW","base":3000},{"cover":"BKN","base":6000}],"obsTime":1776697200},"SBMQ":{"icaoId":"SBMQ","flightCategory":"MVFR","rawOb":"METAR SBMQ 201500Z 27010KT 220V310 9999 BKN021 29/25 Q1012","temp":29,"dewp":25,"wdir":270,"wspd":10,"visib":"6+","altim":1012,"clouds":[{"cover":"BKN","base":2100}],"obsTime":1776697200},"SBGO":{"icaoId":"SBGO","flightCategory":"VFR","rawOb":"METAR SBGO 201500Z VRB03KT 9999 SCT040 30/19 Q1017","temp":30,"dewp":19,"wdir":"VRB","wspd":3,"visib":"6+","altim":1017,"clouds":[{"cover":"SCT","base":4000}],"obsTime":1776697200},"SBMO":{"icaoId":"SBMO","flightCategory":"MVFR","rawOb":"METAR SBMO 201500Z 10008KT 6000 -RA SCT013 BKN030 BKN080 27/25 Q1012","temp":27,"dewp":25,"wdir":100,"wspd":8,"visib":3.73,"altim":1012,"clouds":[{"cover":"SCT","base":1300},{"cover":"BKN","base":3000},{"cover":"BKN","base":8000}],"obsTime":1776697200},"SBGR":{"icaoId":"SBGR","flightCategory":"VFR","rawOb":"METAR SBGR 201500Z 12005KT CAVOK 24/13 Q1020","temp":24,"dewp":13,"wdir":120,"wspd":5,"visib":"6+","altim":1020,"clouds":[],"obsTime":1776697200},"SBMK":{"icaoId":"SBMK","flightCategory":"VFR","rawOb":"METAR SBMK 201500Z 08006KT 9999 SCT040 30/18 Q1016","temp":30,"dewp":18,"wdir":80,"wspd":6,"visib":"6+","altim":1016,"clouds":[{"cover":"SCT","base":4000}],"obsTime":1776697200},"SBHT":{"icaoId":"SBHT","flightCategory":"VFR","rawOb":"METAR SBHT 201500Z 26005KT 9999 SCT020 BKN100 30/24 Q1013","temp":30,"dewp":24,"wdir":260,"wspd":5,"visib":"6+","altim":1013,"clouds":[{"cover":"SCT","base":2000},{"cover":"BKN","base":10000}],"obsTime":1776697200},"SBMG":{"icaoId":"SBMG","flightCategory":"VFR","rawOb":"METAR SBMG 201500Z 04009KT CAVOK 28/18 Q1017","temp":28,"dewp":18,"wdir":40,"wspd":9,"visib":"6+","altim":1017,"clouds":[],"obsTime":1776697200},"SBIL":{"icaoId":"SBIL","flightCategory":"VFR","rawOb":"METAR SBIL 201500Z 17007KT 9999 SCT025 30/24 Q1013","temp":30,"dewp":24,"wdir":170,"wspd":7,"visib":"6+","altim":1013,"clouds":[{"cover":"SCT","base":2500}],"obsTime":1776697200},"SBME":{"icaoId":"SBME","flightCategory":"VFR","rawOb":"METAR SBME 201500Z 18007KT 9999 FEW030 30/19 Q1015","temp":30,"dewp":19,"wdir":180,"wspd":7,"visib":"6+","altim":1015,"clouds":[{"cover":"FEW","base":3000}],"obsTime":1776697200},"SBJU":{"icaoId":"SBJU","flightCategory":"MVFR","rawOb":"METAR SBJU 201500Z 11004KT 9999 BKN020 30/23 Q1013","temp":30,"dewp":23,"wdir":110,"wspd":4,"visib":"6+","altim":1013,"clouds":[{"cover":"BKN","base":2000}],"obsTime":1776697200},"SBKP":{"icaoId":"SBKP","flightCategory":"VFR","rawOb":"METAR SBKP 201500Z 11007KT CAVOK 26/12 Q1019","temp":26,"dewp":12,"wdir":110,"wspd":7,"visib":"6+","altim":1019,"clouds":[],"obsTime":1776697200},"SBMA":{"icaoId":"SBMA","flightCategory":"VFR","rawOb":"METAR SBMA 201500Z 17003KT 9999 FEW015 29/24 Q1012","temp":29,"dewp":24,"wdir":170,"wspd":3,"visib":"6+","altim":1012,"clouds":[{"cover":"FEW","base":1500}],"obsTime":1776697200},"SBCC":{"icaoId":"SBCC","flightCategory":"MVFR","rawOb":"METAR SBCC 201600Z 04006KT 9999 BKN015 27/21 Q1014","temp":27,"dewp":21,"wdir":40,"wspd":6,"visib":"6+","altim":1014,"clouds":[{"cover":"BKN","base":1500}],"obsTime":1776700800},"SBAU":{"icaoId":"SBAU","flightCategory":"VFR","rawOb":"METAR SBAU 201600Z 12010KT CAVOK 30/16 Q1015","temp":30,"dewp":16,"wdir":120,"wspd":10,"visib":"6+","altim":1015,"clouds":[],"obsTime":1776700800},"SBAX":{"icaoId":"SBAX","flightCategory":"VFR","rawOb":"METAR SBAX 201500Z 08006KT 9999 FEW025 27/17 Q1019","temp":27,"dewp":17,"wdir":80,"wspd":6,"visib":"6+","altim":1019,"clouds":[{"cover":"FEW","base":2500}],"obsTime":1776697200},"SBBH":{"icaoId":"SBBH","flightCategory":"VFR","rawOb":"METAR SBBH 201500Z 12007KT 9999 SCT026 SCT036 26/19 Q1018","temp":26,"dewp":19,"wdir":120,"wspd":7,"visib":"6+","altim":1018,"clouds":[{"cover":"SCT","base":2600},{"cover":"SCT","base":3600}],"obsTime":1776697200},"SBBQ":{"icaoId":"SBBQ","flightCategory":"VFR","rawOb":"METAR SBBQ 201500Z 31002KT 9999 BKN035 23/15 Q1022","temp":23,"dewp":15,"wdir":310,"wspd":2,"visib":"6+","altim":1022,"clouds":[{"cover":"BKN","base":3500}],"obsTime":1776697200},"SBBU":{"icaoId":"SBBU","flightCategory":"VFR","rawOb":"METAR SBBU 201500Z 11013KT CAVOK 27/15 Q1018","temp":27,"dewp":15,"wdir":110,"wspd":13,"visib":"6+","altim":1018,"clouds":[],"obsTime":1776697200},"SBAR":{"icaoId":"SBAR","flightCategory":"VFR","rawOb":"METAR SBAR 201500Z 09006KT 9999 FEW028 30/23 Q1012","temp":30,"dewp":23,"wdir":90,"wspd":6,"visib":"6+","altim":1012,"clouds":[{"cover":"FEW","base":2800}],"obsTime":1776697200},"SBCJ":{"icaoId":"SBCJ","flightCategory":"VFR","rawOb":"METAR SBCJ 201500Z 28006KT CAVOK 25/21 Q1016","temp":25,"dewp":21,"wdir":280,"wspd":6,"visib":"6+","altim":1016,"clouds":[],"obsTime":1776697200},"SBCO":{"icaoId":"SBCO","flightCategory":"VFR","rawOb":"METAR SBCO 201500Z 10004KT CAVOK 25/16 Q1015","temp":25,"dewp":16,"wdir":100,"wspd":4,"visib":"6+","altim":1015,"clouds":[],"obsTime":1776697200},"SBDN":{"icaoId":"SBDN","flightCategory":"VFR","rawOb":"METAR SBDN 201500Z 07008KT CAVOK 30/15 Q1016","temp":30,"dewp":15,"wdir":70,"wspd":8,"visib":"6+","altim":1016,"clouds":[],"obsTime":1776697200},"SBES":{"icaoId":"SBES","flightCategory":"VFR","rawOb":"METAR SBES 201500Z VRB10KT 9999 FEW020 26/// Q1016","temp":null,"dewp":null,"wdir":"VRB","wspd":10,"visib":"6+","altim":1016,"clouds":[{"cover":"FEW","base":2000}],"obsTime":1776697200},"SBGM":{"icaoId":"SBGM","flightCategory":"VFR","rawOb":"METAR SBGM 201500Z 31004KT 9999 SCT016 BKN100 28/23 Q1013","temp":28,"dewp":23,"wdir":310,"wspd":4,"visib":"6+","altim":1013,"clouds":[{"cover":"SCT","base":1600},{"cover":"BKN","base":10000}],"obsTime":1776697200},"SBIP":{"icaoId":"SBIP","flightCategory":"VFR","rawOb":"METAR SBIP 201500Z AUTO 17003KT 110V210 9999 SCT034 28/20 Q1016","temp":28,"dewp":20,"wdir":170,"wspd":3,"visib":"6+","altim":1016,"clouds":[{"cover":"SCT","base":3400}],"obsTime":1776697200},"SBKG":{"icaoId":"SBKG","flightCategory":"MVFR","rawOb":"METAR SBKG 201500Z 10005KT 9999 BKN025 29/21 Q1013","temp":29,"dewp":21,"wdir":100,"wspd":5,"visib":"6+","altim":1013,"clouds":[{"cover":"BKN","base":2500}],"obsTime":1776697200},"SBOI":{"icaoId":"SBOI","flightCategory":"VFR","rawOb":"METAR SBOI 201500Z AUTO 24003KT 170V280 9999 FEW024 SCT029 30/23 Q1012","temp":30,"dewp":23,"wdir":240,"wspd":3,"visib":"6+","altim":1012,"clouds":[{"cover":"FEW","base":2400},{"cover":"SCT","base":2900}],"obsTime":1776697200},"SBPB":{"icaoId":"SBPB","flightCategory":"VFR","rawOb":"METAR SBPB 201500Z 04008KT 9999 SCT020 BKN100 31/25 Q1010","temp":31,"dewp":25,"wdir":40,"wspd":8,"visib":"6+","altim":1010,"clouds":[{"cover":"SCT","base":2000},{"cover":"BKN","base":10000}],"obsTime":1776697200},"SBPL":{"icaoId":"SBPL","flightCategory":"VFR","rawOb":"METAR SBPL 201500Z 10006KT 9999 SCT030 SCT070 32/22 Q1012","temp":32,"dewp":22,"wdir":100,"wspd":6,"visib":"6+","altim":1012,"clouds":[{"cover":"SCT","base":3000},{"cover":"SCT","base":7000}],"obsTime":1776697200},"SBPP":{"icaoId":"SBPP","flightCategory":"VFR","rawOb":"METAR SBPP 201500Z 02011KT 9999 FEW020 28/22 Q1017","temp":28,"dewp":22,"wdir":20,"wspd":11,"visib":"6+","altim":1017,"clouds":[{"cover":"FEW","base":2000}],"obsTime":1776697200},"SBPS":{"icaoId":"SBPS","flightCategory":"VFR","rawOb":"METAR SBPS 201500Z 13006KT 100V170 9999 SCT020 FEW025TCU 29/23 Q1013","temp":29,"dewp":23,"wdir":130,"wspd":6,"visib":"6+","altim":1013,"clouds":[{"cover":"SCT","base":2000},{"cover":"FEW","base":2500}],"obsTime":1776697200},"SBSC":{"icaoId":"SBSC","flightCategory":"VFR","rawOb":"METAR SBSC 201500Z 22005KT 9999 FEW025 28/19 Q1016","temp":28,"dewp":19,"wdir":220,"wspd":5,"visib":"6+","altim":1016,"clouds":[{"cover":"FEW","base":2500}],"obsTime":1776697200},"SBSJ":{"icaoId":"SBSJ","flightCategory":"VFR","rawOb":"METAR SBSJ 201500Z 36002KT 9999 FEW030 23/15 Q1019","temp":23,"dewp":15,"wdir":360,"wspd":2,"visib":"6+","altim":1019,"clouds":[{"cover":"FEW","base":3000}],"obsTime":1776697200},"SBSM":{"icaoId":"SBSM","flightCategory":"VFR","rawOb":"METAR SBSM 201500Z 11008KT 080V160 CAVOK 24/17 Q1015","temp":24,"dewp":17,"wdir":110,"wspd":8,"visib":"6+","altim":1015,"clouds":[],"obsTime":1776697200},"SBSR":{"icaoId":"SBSR","flightCategory":"VFR","rawOb":"METAR SBSR 201500Z 11007KT CAVOK 29/14 Q1016","temp":29,"dewp":14,"wdir":110,"wspd":7,"visib":"6+","altim":1016,"clouds":[],"obsTime":1776697200},"SBTD":{"icaoId":"SBTD","flightCategory":"VFR","rawOb":"METAR SBTD 201500Z /////KT CAVOK 28/20 Q1017","temp":28,"dewp":20,"wdir":null,"wspd":null,"visib":"6+","altim":1017,"clouds":[],"obsTime":1776697200},"SBTF":{"icaoId":"SBTF","flightCategory":"VFR","rawOb":"METAR SBTF 201500Z 09005KT 9999 SCT012 SCT080 29/26 Q1012","temp":29,"dewp":26,"wdir":90,"wspd":5,"visib":"6+","altim":1012,"clouds":[{"cover":"SCT","base":1200},{"cover":"SCT","base":8000}],"obsTime":1776697200},"SBTT":{"icaoId":"SBTT","flightCategory":"VFR","rawOb":"METAR SBTT 201500Z 13005KT 9999 FEW010 BKN100 27/23 Q1013","temp":27,"dewp":23,"wdir":130,"wspd":5,"visib":"6+","altim":1013,"clouds":[{"cover":"FEW","base":1000},{"cover":"BKN","base":10000}],"obsTime":1776697200},"SBUY":{"icaoId":"SBUY","flightCategory":"VFR","rawOb":"METAR SBUY 201500Z 09001KT 9999 SCT018 BKN100 28/24 Q1012","temp":28,"dewp":24,"wdir":90,"wspd":1,"visib":"6+","altim":1012,"clouds":[{"cover":"SCT","base":1800},{"cover":"BKN","base":10000}],"obsTime":1776697200},"SBVH":{"icaoId":"SBVH","flightCategory":"MVFR","rawOb":"METAR SBVH 201500Z 32005KT 9999 BKN025 BKN100 27/22 Q1016","temp":27,"dewp":22,"wdir":320,"wspd":5,"visib":"6+","altim":1016,"clouds":[{"cover":"BKN","base":2500},{"cover":"BKN","base":10000}],"obsTime":1776697200},"SBCA":{"icaoId":"SBCA","flightCategory":"VFR","rawOb":"METAR SBCA 201500Z 04013G23KT CAVOK 25/17 Q1018","temp":25,"dewp":17,"wdir":40,"wspd":13,"visib":"6+","altim":1018,"clouds":[],"obsTime":1776697200},"SBJP":{"icaoId":"SBJP","flightCategory":"MVFR","rawOb":"METAR SBJP 201500Z 07004KT 9999 BKN018 OVC070 28/25 Q1011","temp":28,"dewp":25,"wdir":70,"wspd":4,"visib":"6+","altim":1011,"clouds":[{"cover":"BKN","base":1800},{"cover":"OVC","base":7000}],"obsTime":1776697200},"SBAN":{"icaoId":"SBAN","flightCategory":"MVFR","rawOb":"METAR SBAN 201500Z 06001KT 9999 BKN030 26/17 Q1020","temp":26,"dewp":17,"wdir":60,"wspd":1,"visib":"6+","altim":1020,"clouds":[{"cover":"BKN","base":3000}],"obsTime":1776697200},"SBIH":{"icaoId":"SBIH","flightCategory":"VFR","rawOb":"METAR SBIH 201500Z COR 08008KT 9999 SCT017 30/25 Q1013","temp":30,"dewp":25,"wdir":80,"wspd":8,"visib":"6+","altim":1013,"clouds":[{"cover":"SCT","base":1700}],"obsTime":1776697200},"SBLE":{"icaoId":"SBLE","flightCategory":"VFR","rawOb":"METAR SBLE 201500Z AUTO 14006KT 080V200 9999 FEW032 29/20 Q1015","temp":29,"dewp":20,"wdir":140,"wspd":6,"visib":"6+","altim":1015,"clouds":[{"cover":"FEW","base":3200}],"obsTime":1776697200},"SBJV":{"icaoId":"SBJV","flightCategory":"VFR","rawOb":"METAR SBJV 201500Z 12004KT 9999 FEW030 27/19 Q1017","temp":27,"dewp":19,"wdir":120,"wspd":4,"visib":"6+","altim":1017,"clouds":[{"cover":"FEW","base":3000}],"obsTime":1776697200},"SBAF":{"icaoId":"SBAF","flightCategory":"VFR","rawOb":"METAR SBAF 201500Z 21005KT 9999 SCT045 28/17 Q1016","temp":28,"dewp":17,"wdir":210,"wspd":5,"visib":"6+","altim":1016,"clouds":[{"cover":"SCT","base":4500}],"obsTime":1776697200},"SBGW":{"icaoId":"SBGW","flightCategory":"VFR","rawOb":"METAR SBGW 201500Z 17002KT 9999 FEW025 26/13 Q1018","temp":26,"dewp":13,"wdir":170,"wspd":2,"visib":"6+","altim":1018,"clouds":[{"cover":"FEW","base":2500}],"obsTime":1776697200},"SBJR":{"icaoId":"SBJR","flightCategory":"VFR","rawOb":"METAR SBJR 201500Z 20007KT 9999 FEW025 30/19 Q1016","temp":30,"dewp":19,"wdir":200,"wspd":7,"visib":"6+","altim":1016,"clouds":[{"cover":"FEW","base":2500}],"obsTime":1776697200},"SBLS":{"icaoId":"SBLS","flightCategory":"VFR","rawOb":"METAR SBLS 201500Z 16007KT 090V170 9999 BKN033 26/19 Q1018","temp":26,"dewp":19,"wdir":160,"wspd":7,"visib":"6+","altim":1018,"clouds":[{"cover":"BKN","base":3300}],"obsTime":1776697200},"SBMT":{"icaoId":"SBMT","flightCategory":"VFR","rawOb":"METAR SBMT 201500Z VRB04KT CAVOK 24/12 Q1019","temp":24,"dewp":12,"wdir":"VRB","wspd":4,"visib":"6+","altim":1019,"clouds":[],"obsTime":1776697200},"SBST":{"icaoId":"SBST","flightCategory":"VFR","rawOb":"METAR SBST 201500Z 24005KT CAVOK 27/20 Q1016","temp":27,"dewp":20,"wdir":240,"wspd":5,"visib":"6+","altim":1016,"clouds":[],"obsTime":1776697200},"SBTA":{"icaoId":"SBTA","flightCategory":"VFR","rawOb":"METAR SBTA 201500Z VRB02KT 9999 FEW030 25/12 Q1018","temp":25,"dewp":12,"wdir":"VRB","wspd":2,"visib":"6+","altim":1018,"clouds":[{"cover":"FEW","base":3000}],"obsTime":1776697200}}}