{"updated":1783509592,"count":84,"data":{"SBHT":{"icaoId":"SBHT","flightCategory":"VFR","rawOb":"METAR SBHT 081000Z 07003KT 9999 SCT010 BKN080 24/24 Q1015","temp":24,"dewp":24,"wdir":70,"wspd":3,"visib":"6+","altim":1015,"clouds":[{"cover":"SCT","base":1000},{"cover":"BKN","base":8000}],"obsTime":1783504800},"SBKP":{"icaoId":"SBKP","flightCategory":"VFR","rawOb":"METAR SBKP 081000Z 12008KT CAVOK 13/12 Q1021","temp":13,"dewp":12,"wdir":120,"wspd":8,"visib":"6+","altim":1021,"clouds":[],"obsTime":1783504800},"SBTE":{"icaoId":"SBTE","flightCategory":"VFR","rawOb":"METAR SBTE 081000Z 19003KT CAVOK 25/23 Q1015","temp":25,"dewp":23,"wdir":190,"wspd":3,"visib":"6+","altim":1015,"clouds":[],"obsTime":1783504800},"SBSL":{"icaoId":"SBSL","flightCategory":"VFR","rawOb":"METAR SBSL 081000Z 04006KT 9999 FEW017 SCT100 26/24 Q1014","temp":26,"dewp":24,"wdir":40,"wspd":6,"visib":"6+","altim":1014,"clouds":[{"cover":"FEW","base":1700},{"cover":"SCT","base":10000}],"obsTime":1783504800},"SBSG":{"icaoId":"SBSG","flightCategory":"VFR","rawOb":"METAR SBSG 081000Z 17005KT 140V210 9999 SCT019 SCT090 23/22 Q1017","temp":23,"dewp":22,"wdir":170,"wspd":5,"visib":"6+","altim":1017,"clouds":[{"cover":"SCT","base":1900},{"cover":"SCT","base":9000}],"obsTime":1783504800},"SBBE":{"icaoId":"SBBE","flightCategory":"VFR","rawOb":"METAR SBBE 081000Z 07002KT CAVOK 25/24 Q1015","temp":25,"dewp":24,"wdir":70,"wspd":2,"visib":"6+","altim":1015,"clouds":[],"obsTime":1783504800},"SBCR":{"icaoId":"SBCR","flightCategory":"VFR","rawOb":"METAR SBCR 081100Z 00000KT 9999 1000W BCFG NSC 14/14 Q1018","temp":14,"dewp":14,"wdir":0,"wspd":0,"visib":"6+","altim":1018,"clouds":[],"obsTime":1783508400},"SBCP":{"icaoId":"SBCP","flightCategory":"MVFR","rawOb":"METAR SBCP 081000Z 25007KT 9999 BKN020 BKN090 20/18 Q1020","temp":20,"dewp":18,"wdir":250,"wspd":7,"visib":"6+","altim":1020,"clouds":[{"cover":"BKN","base":2000},{"cover":"BKN","base":9000}],"obsTime":1783504800},"SBFZ":{"icaoId":"SBFZ","flightCategory":"MVFR","rawOb":"METAR SBFZ 081000Z 14004KT 100V170 9999 BKN017 BKN090 26/24 Q1016","temp":26,"dewp":24,"wdir":140,"wspd":4,"visib":"6+","altim":1016,"clouds":[{"cover":"BKN","base":1700},{"cover":"BKN","base":9000}],"obsTime":1783504800},"SBMQ":{"icaoId":"SBMQ","flightCategory":"VFR","rawOb":"METAR SBMQ 081000Z 02004KT 9999 SCT019 26/25 Q1015","temp":26,"dewp":25,"wdir":20,"wspd":4,"visib":"6+","altim":1015,"clouds":[{"cover":"SCT","base":1900}],"obsTime":1783504800},"SBRB":{"icaoId":"SBRB","flightCategory":"LIFR","rawOb":"METAR SBRB 081000Z 16004KT 7000 BKN004 BKN015 18/17 Q1017","temp":18,"dewp":17,"wdir":160,"wspd":4,"visib":4.35,"altim":1017,"clouds":[{"cover":"BKN","base":400},{"cover":"BKN","base":1500}],"obsTime":1783504800},"SBSV":{"icaoId":"SBSV","flightCategory":"VFR","rawOb":"METAR SBSV 081000Z 29003KT 9999 FEW023 22/21 Q1018","temp":22,"dewp":21,"wdir":290,"wspd":3,"visib":"6+","altim":1018,"clouds":[{"cover":"FEW","base":2300}],"obsTime":1783504800},"SBCF":{"icaoId":"SBCF","flightCategory":"VFR","rawOb":"METAR SBCF 081000Z 19002KT CAVOK 13/11 Q1022","temp":13,"dewp":11,"wdir":190,"wspd":2,"visib":"6+","altim":1022,"clouds":[],"obsTime":1783504800},"SBNT":{"icaoId":"SBNT","flightCategory":"VFR","rawOb":"METAR SBNT 081000Z 18008KT 9999 SCT024 BKN100 25/22 Q1017","temp":25,"dewp":22,"wdir":180,"wspd":8,"visib":"6+","altim":1017,"clouds":[{"cover":"SCT","base":2400},{"cover":"BKN","base":10000}],"obsTime":1783504800},"SBBV":{"icaoId":"SBBV","flightCategory":"VFR","rawOb":"METAR SBBV 081000Z 07004KT 9999 FEW030 SCT100 26/24 Q1014","temp":26,"dewp":24,"wdir":70,"wspd":4,"visib":"6+","altim":1014,"clouds":[{"cover":"FEW","base":3000},{"cover":"SCT","base":10000}],"obsTime":1783504800},"SBFI":{"icaoId":"SBFI","flightCategory":"LIFR","rawOb":"METAR SBFI 081000Z 10004KT 1500 BR BCFG BKN004 06/06 Q1020","temp":6,"dewp":6,"wdir":100,"wspd":4,"visib":0.93,"altim":1020,"clouds":[{"cover":"BKN","base":400}],"obsTime":1783504800},"SBBR":{"icaoId":"SBBR","flightCategory":"VFR","rawOb":"METAR SBBR 081000Z 00000KT CAVOK 14/10 Q1023","temp":14,"dewp":10,"wdir":0,"wspd":0,"visib":"6+","altim":1023,"clouds":[],"obsTime":1783504800},"SBSP":{"icaoId":"SBSP","flightCategory":"VFR","rawOb":"METAR SBSP 081000Z 14004KT 9999 FEW017 12/12 Q1023","temp":12,"dewp":12,"wdir":140,"wspd":4,"visib":"6+","altim":1023,"clouds":[{"cover":"FEW","base":1700}],"obsTime":1783504800},"SBCB":{"icaoId":"SBCB","flightCategory":"MVFR","rawOb":"METAR SBCB 081000Z 24012KT 9999 SCT008 BKN025 21/16 Q1019","temp":21,"dewp":16,"wdir":240,"wspd":12,"visib":"6+","altim":1019,"clouds":[{"cover":"SCT","base":800},{"cover":"BKN","base":2500}],"obsTime":1783504800},"SBGO":{"icaoId":"SBGO","flightCategory":"VFR","rawOb":"METAR SBGO 081000Z VRB01KT CAVOK 15/12 Q1021","temp":15,"dewp":12,"wdir":"VRB","wspd":1,"visib":"6+","altim":1021,"clouds":[],"obsTime":1783504800},"SBFL":{"icaoId":"SBFL","flightCategory":"VFR","rawOb":"METAR SBFL 081000Z 25003KT CAVOK 08/07 Q1021","temp":8,"dewp":7,"wdir":250,"wspd":3,"visib":"6+","altim":1021,"clouds":[],"obsTime":1783504800},"SBPV":{"icaoId":"SBPV","flightCategory":"VFR","rawOb":"METAR SBPV 081000Z 00000KT CAVOK 24/22 Q1015","temp":24,"dewp":22,"wdir":0,"wspd":0,"visib":"6+","altim":1015,"clouds":[],"obsTime":1783504800},"SBMA":{"icaoId":"SBMA","flightCategory":"VFR","rawOb":"METAR SBMA 081000Z 01003KT 9999 FEW012 SCT100 25/22 Q1015","temp":25,"dewp":22,"wdir":10,"wspd":3,"visib":"6+","altim":1015,"clouds":[{"cover":"FEW","base":1200},{"cover":"SCT","base":10000}],"obsTime":1783504800},"SBPA":{"icaoId":"SBPA","flightCategory":"VFR","rawOb":"METAR SBPA 081000Z 30004KT 280V350 CAVOK 06/06 Q1021","temp":6,"dewp":6,"wdir":300,"wspd":4,"visib":"6+","altim":1021,"clouds":[],"obsTime":1783504800},"SBSN":{"icaoId":"SBSN","flightCategory":"VFR","rawOb":"METAR SBSN 081000Z 09005KT 9999 FEW012 26/25 Q1014","temp":26,"dewp":25,"wdir":90,"wspd":5,"visib":"6+","altim":1014,"clouds":[{"cover":"FEW","base":1200}],"obsTime":1783504800},"SBCT":{"icaoId":"SBCT","flightCategory":"VFR","rawOb":"METAR SBCT 081000Z VRB02KT 9000 NSC 02/02 Q1022","temp":2,"dewp":2,"wdir":"VRB","wspd":2,"visib":5.59,"altim":1022,"clouds":[],"obsTime":1783504800},"SBLO":{"icaoId":"SBLO","flightCategory":"VFR","rawOb":"METAR SBLO 081000Z 20002KT CAVOK 09/05 Q1021","temp":9,"dewp":5,"wdir":200,"wspd":2,"visib":"6+","altim":1021,"clouds":[],"obsTime":1783504800},"SBGL":{"icaoId":"SBGL","flightCategory":"MVFR","rawOb":"METAR SBGL 081000Z 25007KT 9999 FEW015 BKN025 BKN050 20/16 Q1020","temp":20,"dewp":16,"wdir":250,"wspd":7,"visib":"6+","altim":1020,"clouds":[{"cover":"FEW","base":1500},{"cover":"BKN","base":2500},{"cover":"BKN","base":5000}],"obsTime":1783504800},"SBPJ":{"icaoId":"SBPJ","flightCategory":"VFR","rawOb":"METAR SBPJ 081000Z 15003KT CAVOK 22/16 Q1016","temp":22,"dewp":16,"wdir":150,"wspd":3,"visib":"6+","altim":1016,"clouds":[],"obsTime":1783504800},"SBIL":{"icaoId":"SBIL","flightCategory":"VFR","rawOb":"METAR SBIL 081000Z 29004KT CAVOK 21/21 Q1018","temp":21,"dewp":21,"wdir":290,"wspd":4,"visib":"6+","altim":1018,"clouds":[],"obsTime":1783504800},"SBJU":{"icaoId":"SBJU","flightCategory":"VFR","rawOb":"METAR SBJU 081000Z 00000KT CAVOK 21/15 Q1018","temp":21,"dewp":15,"wdir":0,"wspd":0,"visib":"6+","altim":1018,"clouds":[],"obsTime":1783504800},"SBAT":{"icaoId":"SBAT","flightCategory":"VFR","rawOb":"METAR SBAT 081100Z 00000KT CAVOK 22/18 Q1017","temp":22,"dewp":18,"wdir":0,"wspd":0,"visib":"6+","altim":1017,"clouds":[],"obsTime":1783508400},"SBMO":{"icaoId":"SBMO","flightCategory":"VFR","rawOb":"METAR SBMO 081000Z 30004KT 9999 FEW023 21/21 Q1019","temp":21,"dewp":21,"wdir":300,"wspd":4,"visib":"6+","altim":1019,"clouds":[{"cover":"FEW","base":2300}],"obsTime":1783504800},"SBMG":{"icaoId":"SBMG","flightCategory":"VFR","rawOb":"METAR SBMG 081000Z 35003KT 9999 VCFG FEW010 09/05 Q1020","temp":9,"dewp":5,"wdir":350,"wspd":3,"visib":"6+","altim":1020,"clouds":[{"cover":"FEW","base":1000}],"obsTime":1783504800},"SBME":{"icaoId":"SBME","flightCategory":"MVFR","rawOb":"METAR SBME 081000Z 26005KT 8000 FEW020 OVC030 19/17 Q1020","temp":19,"dewp":17,"wdir":260,"wspd":5,"visib":4.97,"altim":1020,"clouds":[{"cover":"FEW","base":2000},{"cover":"OVC","base":3000}],"obsTime":1783504800},"SBMK":{"icaoId":"SBMK","flightCategory":"VFR","rawOb":"METAR SBMK 081000Z 00000KT CAVOK 14/11 Q1020","temp":14,"dewp":11,"wdir":0,"wspd":0,"visib":"6+","altim":1020,"clouds":[],"obsTime":1783504800},"SBUL":{"icaoId":"SBUL","flightCategory":"VFR","rawOb":"METAR SBUL 081000Z 17008KT CAVOK 16/12 Q1022","temp":16,"dewp":12,"wdir":170,"wspd":8,"visib":"6+","altim":1022,"clouds":[],"obsTime":1783504800},"SBUR":{"icaoId":"SBUR","flightCategory":"VFR","rawOb":"METAR SBUR 081000Z 03004KT CAVOK 15/12 Q1021","temp":15,"dewp":12,"wdir":30,"wspd":4,"visib":"6+","altim":1021,"clouds":[],"obsTime":1783504800},"SBRF":{"icaoId":"SBRF","flightCategory":"VFR","rawOb":"METAR SBRF 081000Z 16004KT 9999 SCT020 BKN035 24/21 Q1018","temp":24,"dewp":21,"wdir":160,"wspd":4,"visib":"6+","altim":1018,"clouds":[{"cover":"SCT","base":2000},{"cover":"BKN","base":3500}],"obsTime":1783504800},"SBGR":{"icaoId":"SBGR","flightCategory":"MVFR","rawOb":"METAR SBGR 081000Z 11005KT 9999 BKN013 13/12 Q1022","temp":13,"dewp":12,"wdir":110,"wspd":5,"visib":"6+","altim":1022,"clouds":[{"cover":"BKN","base":1300}],"obsTime":1783504800},"SBCG":{"icaoId":"SBCG","flightCategory":"VFR","rawOb":"METAR SBCG 081000Z 08005KT CAVOK 15/12 Q1019","temp":15,"dewp":12,"wdir":80,"wspd":5,"visib":"6+","altim":1019,"clouds":[],"obsTime":1783504800},"SBEG":{"icaoId":"SBEG","flightCategory":"IFR","rawOb":"METAR SBEG 081000Z 35002KT 6000 1000W R11/P2000 R29/P2000 BCFG BKN005 24/24 Q1014","temp":24,"dewp":24,"wdir":350,"wspd":2,"visib":3.73,"altim":1014,"clouds":[{"cover":"BKN","base":500}],"obsTime":1783504800},"SBVT":{"icaoId":"SBVT","flightCategory":"VFR","rawOb":"METAR SBVT 081000Z 20010KT 9999 FEW020 SCT030 BKN090 21/18 Q1019","temp":21,"dewp":18,"wdir":200,"wspd":10,"visib":"6+","altim":1019,"clouds":[{"cover":"FEW","base":2000},{"cover":"SCT","base":3000},{"cover":"BKN","base":9000}],"obsTime":1783504800},"SBPP":{"icaoId":"SBPP","flightCategory":"VFR","rawOb":"SPECI SBPP 081115Z 07005KT CAVOK 12/06 Q1021","temp":12,"dewp":6,"wdir":70,"wspd":5,"visib":"6+","altim":1021,"clouds":[],"obsTime":1783509300},"SBTF":{"icaoId":"SBTF","flightCategory":"VFR","rawOb":"SPECI SBTF 081115Z 00000KT CAVOK 25/24 Q1014","temp":25,"dewp":24,"wdir":0,"wspd":0,"visib":"6+","altim":1014,"clouds":[],"obsTime":1783509300},"SBSJ":{"icaoId":"SBSJ","flightCategory":"VFR","rawOb":"METAR SBSJ 081000Z 21002KT 9999 FEW030 13/12 Q1022","temp":13,"dewp":12,"wdir":210,"wspd":2,"visib":"6+","altim":1022,"clouds":[{"cover":"FEW","base":3000}],"obsTime":1783504800},"SBOI":{"icaoId":"SBOI","flightCategory":"IFR","rawOb":"METAR SBOI 081000Z AUTO VRB01KT 2200 // VV002 23/23 Q1015","temp":23,"dewp":23,"wdir":"VRB","wspd":1,"visib":1.37,"altim":1015,"clouds":[{"cover":"OVX","base":200}],"obsTime":1783504800},"SBCJ":{"icaoId":"SBCJ","flightCategory":"VFR","rawOb":"SPECI SBCJ 081015Z 00000KT CAVOK 22/20 Q1018","temp":22,"dewp":20,"wdir":0,"wspd":0,"visib":"6+","altim":1018,"clouds":[],"obsTime":1783505700},"SBAR":{"icaoId":"SBAR","flightCategory":"VFR","rawOb":"METAR SBAR 081000Z 32002KT 9999 FEW020 21/20 Q1018","temp":21,"dewp":20,"wdir":320,"wspd":2,"visib":"6+","altim":1018,"clouds":[{"cover":"FEW","base":2000}],"obsTime":1783504800},"SBTT":{"icaoId":"SBTT","flightCategory":"VFR","rawOb":"METAR SBTT 081100Z 12003KT 9000 SCT004 SCT014 BKN070 23/22 Q1015","temp":23,"dewp":22,"wdir":120,"wspd":3,"visib":5.59,"altim":1015,"clouds":[{"cover":"SCT","base":400},{"cover":"SCT","base":1400},{"cover":"BKN","base":7000}],"obsTime":1783508400},"SBES":{"icaoId":"SBES","flightCategory":"MVFR","rawOb":"METAR SBES 081000Z 21010KT 9000 VCSH BKN020 BKN040 19/// Q1020","temp":null,"dewp":null,"wdir":210,"wspd":10,"visib":5.59,"altim":1020,"clouds":[{"cover":"BKN","base":2000},{"cover":"BKN","base":4000}],"obsTime":1783504800},"SBTU":{"icaoId":"SBTU","flightCategory":"VFR","rawOb":"METAR SBTU 081000Z AUTO 18006KT 9999 // FEW022/// 24/23 Q1017","temp":24,"dewp":23,"wdir":180,"wspd":6,"visib":"6+","altim":1017,"clouds":[{"cover":"FEW","base":2200}],"obsTime":1783504800},"SBKG":{"icaoId":"SBKG","flightCategory":"VFR","rawOb":"METAR SBKG 081000Z 00000KT 9999 FEW010 20/19 Q1020","temp":20,"dewp":19,"wdir":0,"wspd":0,"visib":"6+","altim":1020,"clouds":[{"cover":"FEW","base":1000}],"obsTime":1783504800},"SBCC":{"icaoId":"SBCC","flightCategory":"VFR","rawOb":"METAR SBCC 081100Z 07004KT CAVOK 24/16 Q1018","temp":24,"dewp":16,"wdir":70,"wspd":4,"visib":"6+","altim":1018,"clouds":[],"obsTime":1783508400},"SBVH":{"icaoId":"SBVH","flightCategory":"VFR","rawOb":"METAR SBVH 081100Z 10006KT CAVOK 17/15 Q1019","temp":17,"dewp":15,"wdir":100,"wspd":6,"visib":"6+","altim":1019,"clouds":[],"obsTime":1783508400},"SBCA":{"icaoId":"SBCA","flightCategory":"VFR","rawOb":"METAR SBCA 081000Z 04006KT CAVOK 11/00 Q1021","temp":11,"dewp":0,"wdir":40,"wspd":6,"visib":"6+","altim":1021,"clouds":[],"obsTime":1783504800},"SBCO":{"icaoId":"SBCO","flightCategory":"MVFR","rawOb":"METAR SBCO 081000Z 00000KT 8000 NSC 03/03 Q1022","temp":3,"dewp":3,"wdir":0,"wspd":0,"visib":4.97,"altim":1022,"clouds":[],"obsTime":1783504800},"SBSM":{"icaoId":"SBSM","flightCategory":"VFR","rawOb":"METAR SBSM 081000Z 10002KT 9999 BCFG NSC 02/02 Q1021","temp":2,"dewp":2,"wdir":100,"wspd":2,"visib":"6+","altim":1021,"clouds":[],"obsTime":1783504800},"SBAX":{"icaoId":"SBAX","flightCategory":"VFR","rawOb":"METAR SBAX 081000Z AUTO 16003KT CAVOK 13/13 Q1022","temp":13,"dewp":13,"wdir":160,"wspd":3,"visib":"6+","altim":1022,"clouds":[],"obsTime":1783504800},"SBBH":{"icaoId":"SBBH","flightCategory":"VFR","rawOb":"METAR SBBH 081000Z 00000KT CAVOK 12/11 Q1022","temp":12,"dewp":11,"wdir":0,"wspd":0,"visib":"6+","altim":1022,"clouds":[],"obsTime":1783504800},"SBBU":{"icaoId":"SBBU","flightCategory":"LIFR","rawOb":"METAR SBBU 081000Z 12004KT 0100 FG OVC002 13/13 Q1021","temp":13,"dewp":13,"wdir":120,"wspd":4,"visib":0.06,"altim":1021,"clouds":[{"cover":"OVC","base":200}],"obsTime":1783504800},"SBDN":{"icaoId":"SBDN","flightCategory":"VFR","rawOb":"METAR SBDN 081000Z 13003KT CAVOK 11/10 Q1020","temp":11,"dewp":10,"wdir":130,"wspd":3,"visib":"6+","altim":1020,"clouds":[],"obsTime":1783504800},"SBIP":{"icaoId":"SBIP","flightCategory":"VFR","rawOb":"METAR SBIP 081000Z AUTO VRB01KT 9999 FEW005 14/14 Q1020","temp":14,"dewp":14,"wdir":"VRB","wspd":1,"visib":"6+","altim":1020,"clouds":[{"cover":"FEW","base":500}],"obsTime":1783504800},"SBSC":{"icaoId":"SBSC","flightCategory":"IFR","rawOb":"METAR SBSC 081000Z 21002KT 3000 -RA BR SCT007 BKN015 OVC030 18/17 Q1021","temp":18,"dewp":17,"wdir":210,"wspd":2,"visib":1.86,"altim":1021,"clouds":[{"cover":"SCT","base":700},{"cover":"BKN","base":1500},{"cover":"OVC","base":3000}],"obsTime":1783504800},"SBSR":{"icaoId":"SBSR","flightCategory":"VFR","rawOb":"METAR SBSR 081000Z 17004KT CAVOK 16/14 Q1021","temp":16,"dewp":14,"wdir":170,"wspd":4,"visib":"6+","altim":1021,"clouds":[],"obsTime":1783504800},"SBPL":{"icaoId":"SBPL","flightCategory":"VFR","rawOb":"METAR SBPL 081000Z 12006KT CAVOK 22/18 Q1019","temp":22,"dewp":18,"wdir":120,"wspd":6,"visib":"6+","altim":1019,"clouds":[],"obsTime":1783504800},"SBTD":{"icaoId":"SBTD","flightCategory":"VFR","rawOb":"METAR SBTD 081100Z /////KT CAVOK 07/04 Q1021","temp":7,"dewp":4,"wdir":null,"wspd":null,"visib":"6+","altim":1021,"clouds":[],"obsTime":1783508400},"SBPS":{"icaoId":"SBPS","flightCategory":"VFR","rawOb":"METAR SBPS 081000Z 29005KT 9999 FEW020 20/19 Q1018","temp":20,"dewp":19,"wdir":290,"wspd":5,"visib":"6+","altim":1018,"clouds":[{"cover":"FEW","base":2000}],"obsTime":1783504800},"SBPB":{"icaoId":"SBPB","flightCategory":"MVFR","rawOb":"SPECI SBPB 081015Z 11005KT 9999 BKN020 26/24 Q1015","temp":26,"dewp":24,"wdir":110,"wspd":5,"visib":"6+","altim":1015,"clouds":[{"cover":"BKN","base":2000}],"obsTime":1783505700},"SBUY":{"icaoId":"SBUY","flightCategory":"IFR","rawOb":"METAR SBUY 081100Z 00000KT 3000 0900E BR SCT002 BKN070 22/22 Q1014","temp":22,"dewp":22,"wdir":0,"wspd":0,"visib":1.86,"altim":1014,"clouds":[{"cover":"SCT","base":200},{"cover":"BKN","base":7000}],"obsTime":1783508400},"SBTA":{"icaoId":"SBTA","flightCategory":"VFR","rawOb":"METAR SBTA 081000Z 25002KT 9999 SCT020 BKN040 14/13 Q1021","temp":14,"dewp":13,"wdir":250,"wspd":2,"visib":"6+","altim":1021,"clouds":[{"cover":"SCT","base":2000},{"cover":"BKN","base":4000}],"obsTime":1783504800},"SBAN":{"icaoId":"SBAN","flightCategory":"VFR","rawOb":"METAR SBAN 081000Z 14007KT CAVOK 15/10 Q1023","temp":15,"dewp":10,"wdir":140,"wspd":7,"visib":"6+","altim":1023,"clouds":[],"obsTime":1783504800},"SBLE":{"icaoId":"SBLE","flightCategory":"MVFR","rawOb":"METAR SBLE 081000Z AUTO 06003KT 9999 OVC022 ///// Q1022","temp":null,"dewp":null,"wdir":60,"wspd":3,"visib":"6+","altim":1022,"clouds":[{"cover":"OVC","base":2200}],"obsTime":1783504800},"SBIH":{"icaoId":"SBIH","flightCategory":"VFR","rawOb":"METAR SBIH 081100Z 16003KT CAVOK 25/24 Q1014","temp":25,"dewp":24,"wdir":160,"wspd":3,"visib":"6+","altim":1014,"clouds":[],"obsTime":1783508400},"SBJV":{"icaoId":"SBJV","flightCategory":"VFR","rawOb":"METAR SBJV 081000Z 29002KT CAVOK 08/08 Q1021","temp":8,"dewp":8,"wdir":290,"wspd":2,"visib":"6+","altim":1021,"clouds":[],"obsTime":1783504800},"SBNM":{"icaoId":"SBNM","flightCategory":"VFR","rawOb":"METAR SBNM 081000Z AUTO 10008KT CAVOK 01/00 Q1021","temp":1,"dewp":0,"wdir":100,"wspd":8,"visib":"6+","altim":1021,"clouds":[],"obsTime":1783504800},"SBPF":{"icaoId":"SBPF","flightCategory":"VFR","rawOb":"METAR SBPF 081000Z 04008KT CAVOK 03/01 Q1021","temp":3,"dewp":1,"wdir":40,"wspd":8,"visib":"6+","altim":1021,"clouds":[],"obsTime":1783504800},"SBAF":{"icaoId":"SBAF","flightCategory":"MVFR","rawOb":"METAR SBAF 081000Z 22002KT 8000 SCT010 BKN016 BKN040 18/18 Q1021","temp":18,"dewp":18,"wdir":220,"wspd":2,"visib":4.97,"altim":1021,"clouds":[{"cover":"SCT","base":1000},{"cover":"BKN","base":1600},{"cover":"BKN","base":4000}],"obsTime":1783504800},"SBGW":{"icaoId":"SBGW","flightCategory":"MVFR","rawOb":"METAR SBGW 081000Z 24002KT 8000 FEW015 BKN027 15/11 Q1022","temp":15,"dewp":11,"wdir":240,"wspd":2,"visib":4.97,"altim":1022,"clouds":[{"cover":"FEW","base":1500},{"cover":"BKN","base":2700}],"obsTime":1783504800},"SBJR":{"icaoId":"SBJR","flightCategory":"MVFR","rawOb":"METAR SBJR 081000Z 00000KT 7000 3000SW -RA SCT007 BKN015 OVC035 18/17 Q1021","temp":18,"dewp":17,"wdir":0,"wspd":0,"visib":4.35,"altim":1021,"clouds":[{"cover":"SCT","base":700},{"cover":"BKN","base":1500},{"cover":"OVC","base":3500}],"obsTime":1783504800},"SBLS":{"icaoId":"SBLS","flightCategory":"VFR","rawOb":"METAR SBLS 081000Z 17008KT CAVOK 13/11 Q1021","temp":13,"dewp":11,"wdir":170,"wspd":8,"visib":"6+","altim":1021,"clouds":[],"obsTime":1783504800},"SBMT":{"icaoId":"SBMT","flightCategory":"MVFR","rawOb":"METAR SBMT 081000Z 08003KT 9999 SCT015 BKN017 13/10 Q1022","temp":13,"dewp":10,"wdir":80,"wspd":3,"visib":"6+","altim":1022,"clouds":[{"cover":"SCT","base":1500},{"cover":"BKN","base":1700}],"obsTime":1783504800},"SBST":{"icaoId":"SBST","flightCategory":"MVFR","rawOb":"METAR SBST 081000Z 10002KT 5000 BR FEW005 BKN021 OVC040 15/15 Q1021","temp":15,"dewp":15,"wdir":100,"wspd":2,"visib":3.11,"altim":1021,"clouds":[{"cover":"FEW","base":500},{"cover":"BKN","base":2100},{"cover":"OVC","base":4000}],"obsTime":1783504800},"SBJP":{"icaoId":"SBJP","flightCategory":"MVFR","rawOb":"METAR SBJP 081000Z 17006KT 9999 BKN020 BKN070 23/21 Q1018","temp":23,"dewp":21,"wdir":170,"wspd":6,"visib":"6+","altim":1018,"clouds":[{"cover":"BKN","base":2000},{"cover":"BKN","base":7000}],"obsTime":1783504800}}}