{"updated":1778778989,"count":87,"data":{"SBCF":{"icaoId":"SBCF","flightCategory":"VFR","rawOb":"METAR SBCF 141600Z 19003KT 9999 FEW025 BKN080 24/18 Q1020","temp":24,"dewp":18,"wdir":190,"wspd":3,"visib":"6+","altim":1020,"clouds":[{"cover":"FEW","base":2500},{"cover":"BKN","base":8000}],"obsTime":1778774400},"SBLO":{"icaoId":"SBLO","flightCategory":"VFR","rawOb":"METAR SBLO 141600Z 10004KT 010V170 CAVOK 23/11 Q1018","temp":23,"dewp":11,"wdir":100,"wspd":4,"visib":"6+","altim":1018,"clouds":[],"obsTime":1778774400},"SBEG":{"icaoId":"SBEG","flightCategory":"VFR","rawOb":"METAR SBEG 141600Z 36003KT 9999 SCT020 SCT100 30/24 Q1014","temp":30,"dewp":24,"wdir":360,"wspd":3,"visib":"6+","altim":1014,"clouds":[{"cover":"SCT","base":2000},{"cover":"SCT","base":10000}],"obsTime":1778774400},"SBMA":{"icaoId":"SBMA","flightCategory":"VFR","rawOb":"METAR SBMA 141600Z 00000KT 9999 SCT020 BKN100 31/24 Q1013","temp":31,"dewp":24,"wdir":0,"wspd":0,"visib":"6+","altim":1013,"clouds":[{"cover":"SCT","base":2000},{"cover":"BKN","base":10000}],"obsTime":1778774400},"SBBE":{"icaoId":"SBBE","flightCategory":"VFR","rawOb":"METAR SBBE 141600Z 35005KT 9999 SCT020 28/24 Q1013","temp":28,"dewp":24,"wdir":350,"wspd":5,"visib":"6+","altim":1013,"clouds":[{"cover":"SCT","base":2000}],"obsTime":1778774400},"SBME":{"icaoId":"SBME","flightCategory":"MVFR","rawOb":"METAR SBME 141600Z 14007KT 5000 HZ FEW004 26/21 Q1015","temp":26,"dewp":21,"wdir":140,"wspd":7,"visib":3.11,"altim":1015,"clouds":[{"cover":"FEW","base":400}],"obsTime":1778774400},"SBFI":{"icaoId":"SBFI","flightCategory":"VFR","rawOb":"METAR SBFI 141600Z 07003KT 9999 FEW030 BKN070 19/15 Q1017","temp":19,"dewp":15,"wdir":70,"wspd":3,"visib":"6+","altim":1017,"clouds":[{"cover":"FEW","base":3000},{"cover":"BKN","base":7000}],"obsTime":1778774400},"SBMG":{"icaoId":"SBMG","flightCategory":"VFR","rawOb":"METAR SBMG 141600Z 33004KT 290V030 CAVOK 25/11 Q1017","temp":25,"dewp":11,"wdir":330,"wspd":4,"visib":"6+","altim":1017,"clouds":[],"obsTime":1778774400},"SBCG":{"icaoId":"SBCG","flightCategory":"VFR","rawOb":"METAR SBCG 141600Z 32006KT 290V350 CAVOK 27/16 Q1017","temp":27,"dewp":16,"wdir":320,"wspd":6,"visib":"6+","altim":1017,"clouds":[],"obsTime":1778774400},"SBMK":{"icaoId":"SBMK","flightCategory":"VFR","rawOb":"METAR SBMK 141600Z COR 10006KT CAVOK 28/16 Q1018","temp":28,"dewp":16,"wdir":100,"wspd":6,"visib":"6+","altim":1018,"clouds":[],"obsTime":1778774400},"SBMO":{"icaoId":"SBMO","flightCategory":"VFR","rawOb":"METAR SBMO 141600Z 15008KT 110V170 9999 BKN033 BKN070 29/22 Q1014","temp":29,"dewp":22,"wdir":150,"wspd":8,"visib":"6+","altim":1014,"clouds":[{"cover":"BKN","base":3300},{"cover":"BKN","base":7000}],"obsTime":1778774400},"SBFL":{"icaoId":"SBFL","flightCategory":"VFR","rawOb":"METAR SBFL 141600Z 09006KT 030V130 9999 FEW026 22/16 Q1016","temp":22,"dewp":16,"wdir":90,"wspd":6,"visib":"6+","altim":1016,"clouds":[{"cover":"FEW","base":2600}],"obsTime":1778774400},"SBBV":{"icaoId":"SBBV","flightCategory":"MVFR","rawOb":"METAR SBBV 141600Z 04007KT 9999 VCSH BKN020 FEW035TCU BKN070 28/24 Q1015","temp":28,"dewp":24,"wdir":40,"wspd":7,"visib":"6+","altim":1015,"clouds":[{"cover":"BKN","base":2000},{"cover":"FEW","base":3500},{"cover":"BKN","base":7000}],"obsTime":1778774400},"SBMQ":{"icaoId":"SBMQ","flightCategory":"VFR","rawOb":"METAR SBMQ 141600Z 09003KT 050V140 9999 SCT015 28/25 Q1014","temp":28,"dewp":25,"wdir":90,"wspd":3,"visib":"6+","altim":1014,"clouds":[{"cover":"SCT","base":1500}],"obsTime":1778774400},"SBFZ":{"icaoId":"SBFZ","flightCategory":"MVFR","rawOb":"METAR SBFZ 141600Z 14010KT 9999 BKN025 29/23 Q1012","temp":29,"dewp":23,"wdir":140,"wspd":10,"visib":"6+","altim":1012,"clouds":[{"cover":"BKN","base":2500}],"obsTime":1778774400},"SBNT":{"icaoId":"SBNT","flightCategory":"VFR","rawOb":"METAR SBNT 141600Z 17008KT 9999 SCT013 BKN090 27/24 Q1013","temp":27,"dewp":24,"wdir":170,"wspd":8,"visib":"6+","altim":1013,"clouds":[{"cover":"SCT","base":1300},{"cover":"BKN","base":9000}],"obsTime":1778774400},"SBCP":{"icaoId":"SBCP","flightCategory":"VFR","rawOb":"METAR SBCP 141600Z 31006KT 9999 FEW020 30/19 Q1015","temp":30,"dewp":19,"wdir":310,"wspd":6,"visib":"6+","altim":1015,"clouds":[{"cover":"FEW","base":2000}],"obsTime":1778774400},"SBPA":{"icaoId":"SBPA","flightCategory":"VFR","rawOb":"METAR SBPA 141600Z 28007KT 250V310 CAVOK 18/13 Q1018","temp":18,"dewp":13,"wdir":280,"wspd":7,"visib":"6+","altim":1018,"clouds":[],"obsTime":1778774400},"SBGL":{"icaoId":"SBGL","flightCategory":"MVFR","rawOb":"METAR SBGL 141600Z 11008KT 7000 NSC 27/19 Q1015","temp":27,"dewp":19,"wdir":110,"wspd":8,"visib":4.35,"altim":1015,"clouds":[],"obsTime":1778774400},"SBPJ":{"icaoId":"SBPJ","flightCategory":"VFR","rawOb":"METAR SBPJ 141600Z 10005KT 9999 FEW035 FEW040TCU 32/21 Q1014","temp":32,"dewp":21,"wdir":100,"wspd":5,"visib":"6+","altim":1014,"clouds":[{"cover":"FEW","base":3500},{"cover":"FEW","base":4000}],"obsTime":1778774400},"SBGO":{"icaoId":"SBGO","flightCategory":"VFR","rawOb":"METAR SBGO 141600Z VRB04KT 9999 FEW040 30/16 Q1018","temp":30,"dewp":16,"wdir":"VRB","wspd":4,"visib":"6+","altim":1018,"clouds":[{"cover":"FEW","base":4000}],"obsTime":1778774400},"SBPV":{"icaoId":"SBPV","flightCategory":"VFR","rawOb":"METAR SBPV 141600Z 25003KT 9999 SCT030 BKN080 27/25 Q1015","temp":27,"dewp":25,"wdir":250,"wspd":3,"visib":"6+","altim":1015,"clouds":[{"cover":"SCT","base":3000},{"cover":"BKN","base":8000}],"obsTime":1778774400},"SBBR":{"icaoId":"SBBR","flightCategory":"VFR","rawOb":"METAR SBBR 141600Z VRB02KT 9999 SCT045 28/14 Q1020","temp":28,"dewp":14,"wdir":"VRB","wspd":2,"visib":"6+","altim":1020,"clouds":[{"cover":"SCT","base":4500}],"obsTime":1778774400},"SBRB":{"icaoId":"SBRB","flightCategory":"MVFR","rawOb":"METAR SBRB 141600Z 26003KT 9999 BKN025 27/22 Q1016","temp":27,"dewp":22,"wdir":260,"wspd":3,"visib":"6+","altim":1016,"clouds":[{"cover":"BKN","base":2500}],"obsTime":1778774400},"SBGR":{"icaoId":"SBGR","flightCategory":"VFR","rawOb":"METAR SBGR 141600Z 25003KT CAVOK 25/14 Q1019","temp":25,"dewp":14,"wdir":250,"wspd":3,"visib":"6+","altim":1019,"clouds":[],"obsTime":1778774400},"SBRF":{"icaoId":"SBRF","flightCategory":"VFR","rawOb":"METAR SBRF 141600Z 16013KT 9999 SCT020 FEW025TCU SCT060 28/25 Q1013","temp":28,"dewp":25,"wdir":160,"wspd":13,"visib":"6+","altim":1013,"clouds":[{"cover":"SCT","base":2000},{"cover":"FEW","base":2500},{"cover":"SCT","base":6000}],"obsTime":1778774400},"SBCR":{"icaoId":"SBCR","flightCategory":"VFR","rawOb":"METAR SBCR 141600Z 02003KT 300V080 9999 FEW040 SCT070 28/18 Q1015","temp":28,"dewp":18,"wdir":20,"wspd":3,"visib":"6+","altim":1015,"clouds":[{"cover":"FEW","base":4000},{"cover":"SCT","base":7000}],"obsTime":1778774400},"SBSG":{"icaoId":"SBSG","flightCategory":"VFR","rawOb":"METAR SBSG 141600Z 18007KT 140V210 9999 FEW017 BKN100 27/24 Q1013","temp":27,"dewp":24,"wdir":180,"wspd":7,"visib":"6+","altim":1013,"clouds":[{"cover":"FEW","base":1700},{"cover":"BKN","base":10000}],"obsTime":1778774400},"SBHT":{"icaoId":"SBHT","flightCategory":"MVFR","rawOb":"METAR SBHT 141600Z 17001KT 9999 BKN025 31/25 Q1014","temp":31,"dewp":25,"wdir":170,"wspd":1,"visib":"6+","altim":1014,"clouds":[{"cover":"BKN","base":2500}],"obsTime":1778774400},"SBSL":{"icaoId":"SBSL","flightCategory":"MVFR","rawOb":"METAR SBSL 141600Z 31007KT 9999 BKN025 SCT100 29/25 Q1012","temp":29,"dewp":25,"wdir":310,"wspd":7,"visib":"6+","altim":1012,"clouds":[{"cover":"BKN","base":2500},{"cover":"SCT","base":10000}],"obsTime":1778774400},"SBSN":{"icaoId":"SBSN","flightCategory":"VFR","rawOb":"METAR SBSN 141600Z 03005KT 9999 SCT020 30/24 Q1013","temp":30,"dewp":24,"wdir":30,"wspd":5,"visib":"6+","altim":1013,"clouds":[{"cover":"SCT","base":2000}],"obsTime":1778774400},"SBCT":{"icaoId":"SBCT","flightCategory":"VFR","rawOb":"METAR SBCT 141600Z 29010KT CAVOK 22/06 Q1019","temp":22,"dewp":6,"wdir":290,"wspd":10,"visib":"6+","altim":1019,"clouds":[],"obsTime":1778774400},"SBSP":{"icaoId":"SBSP","flightCategory":"VFR","rawOb":"METAR SBSP 141600Z 36003KT CAVOK 25/09 Q1019","temp":25,"dewp":9,"wdir":360,"wspd":3,"visib":"6+","altim":1019,"clouds":[],"obsTime":1778774400},"SBCB":{"icaoId":"SBCB","flightCategory":"VFR","rawOb":"METAR SBCB 141600Z 21007KT 9999 SCT025 26/21 Q1016","temp":26,"dewp":21,"wdir":210,"wspd":7,"visib":"6+","altim":1016,"clouds":[{"cover":"SCT","base":2500}],"obsTime":1778774400},"SBVT":{"icaoId":"SBVT","flightCategory":"VFR","rawOb":"METAR SBVT 141600Z 02007KT 9999 FEW040 29/21 Q1015","temp":29,"dewp":21,"wdir":20,"wspd":7,"visib":"6+","altim":1015,"clouds":[{"cover":"FEW","base":4000}],"obsTime":1778774400},"SBIL":{"icaoId":"SBIL","flightCategory":"VFR","rawOb":"METAR SBIL 141600Z 15006KT 9999 FEW025 SCT100 29/24 Q1016","temp":29,"dewp":24,"wdir":150,"wspd":6,"visib":"6+","altim":1016,"clouds":[{"cover":"FEW","base":2500},{"cover":"SCT","base":10000}],"obsTime":1778774400},"SBSV":{"icaoId":"SBSV","flightCategory":"IFR","rawOb":"SPECI SBSV 141520Z 15009KT 110V180 4000 -SHRA BKN023 FEW025TCU 27/23 Q1016","temp":27,"dewp":23,"wdir":150,"wspd":9,"visib":2.49,"altim":1016,"clouds":[{"cover":"BKN","base":2300},{"cover":"FEW","base":2500}],"obsTime":1778772000},"SBAT":{"icaoId":"SBAT","flightCategory":"VFR","rawOb":"METAR SBAT 141600Z 05002KT 9999 SCT025 BKN100 31/25 Q1015","temp":31,"dewp":25,"wdir":50,"wspd":2,"visib":"6+","altim":1015,"clouds":[{"cover":"SCT","base":2500},{"cover":"BKN","base":10000}],"obsTime":1778774400},"SBTE":{"icaoId":"SBTE","flightCategory":"MVFR","rawOb":"METAR SBTE 141600Z 12005KT 9999 BKN025 33/23 Q1011","temp":33,"dewp":23,"wdir":120,"wspd":5,"visib":"6+","altim":1011,"clouds":[{"cover":"BKN","base":2500}],"obsTime":1778774400},"SBJU":{"icaoId":"SBJU","flightCategory":"VFR","rawOb":"METAR SBJU 141600Z 15007KT 9999 FEW020 29/21 Q1015","temp":29,"dewp":21,"wdir":150,"wspd":7,"visib":"6+","altim":1015,"clouds":[{"cover":"FEW","base":2000}],"obsTime":1778774400},"SBUL":{"icaoId":"SBUL","flightCategory":"VFR","rawOb":"METAR SBUL 141600Z 03005KT 340V060 9999 SCT030 25/16 Q1020","temp":25,"dewp":16,"wdir":30,"wspd":5,"visib":"6+","altim":1020,"clouds":[{"cover":"SCT","base":3000}],"obsTime":1778774400},"SBCZ":{"icaoId":"SBCZ","flightCategory":"MVFR","rawOb":"METAR SBCZ 141600Z 30003KT 9999 BKN030 27/22 Q1016","temp":27,"dewp":22,"wdir":300,"wspd":3,"visib":"6+","altim":1016,"clouds":[{"cover":"BKN","base":3000}],"obsTime":1778774400},"SBUR":{"icaoId":"SBUR","flightCategory":"VFR","rawOb":"METAR SBUR 141600Z 27006KT 9999 SCT048 29/15 Q1019","temp":29,"dewp":15,"wdir":270,"wspd":6,"visib":"6+","altim":1019,"clouds":[{"cover":"SCT","base":4800}],"obsTime":1778774400},"SBKP":{"icaoId":"SBKP","flightCategory":"VFR","rawOb":"METAR SBKP 141600Z 26003KT CAVOK 26/12 Q1018","temp":26,"dewp":12,"wdir":260,"wspd":3,"visib":"6+","altim":1018,"clouds":[],"obsTime":1778774400},"SBOI":{"icaoId":"SBOI","flightCategory":"VFR","rawOb":"METAR SBOI 141600Z AUTO 21004KT 160V260 9999 -RA SCT011 26/24 Q1014","temp":26,"dewp":24,"wdir":210,"wspd":4,"visib":"6+","altim":1014,"clouds":[{"cover":"SCT","base":1100}],"obsTime":1778774400},"SBPB":{"icaoId":"SBPB","flightCategory":"VFR","rawOb":"METAR SBPB 141600Z 06006KT 9999 FEW020 BKN100 31/26 Q1011","temp":31,"dewp":26,"wdir":60,"wspd":6,"visib":"6+","altim":1011,"clouds":[{"cover":"FEW","base":2000},{"cover":"BKN","base":10000}],"obsTime":1778774400},"SBAR":{"icaoId":"SBAR","flightCategory":"VFR","rawOb":"METAR SBAR 141600Z 12010KT 9999 SCT030 30/22 Q1014","temp":30,"dewp":22,"wdir":120,"wspd":10,"visib":"6+","altim":1014,"clouds":[{"cover":"SCT","base":3000}],"obsTime":1778774400},"SBAU":{"icaoId":"SBAU","flightCategory":"VFR","rawOb":"METAR SBAU 141600Z 02004KT CAVOK 30/10 Q1017","temp":30,"dewp":10,"wdir":20,"wspd":4,"visib":"6+","altim":1017,"clouds":[],"obsTime":1778774400},"SBPL":{"icaoId":"SBPL","flightCategory":"VFR","rawOb":"METAR SBPL 141600Z 11007KT 9999 SCT025 31/17 Q1015","temp":31,"dewp":17,"wdir":110,"wspd":7,"visib":"6+","altim":1015,"clouds":[{"cover":"SCT","base":2500}],"obsTime":1778774400},"SBPP":{"icaoId":"SBPP","flightCategory":"VFR","rawOb":"METAR SBPP 141600Z 31008KT CAVOK 25/16 Q1018","temp":25,"dewp":16,"wdir":310,"wspd":8,"visib":"6+","altim":1018,"clouds":[],"obsTime":1778774400},"SBCO":{"icaoId":"SBCO","flightCategory":"VFR","rawOb":"METAR SBCO 141600Z 24006KT 190V290 9999 FEW025 17/13 Q1018","temp":17,"dewp":13,"wdir":240,"wspd":6,"visib":"6+","altim":1018,"clouds":[{"cover":"FEW","base":2500}],"obsTime":1778774400},"SBBU":{"icaoId":"SBBU","flightCategory":"VFR","rawOb":"METAR SBBU 141600Z 35003KT CAVOK 27/13 Q1018","temp":27,"dewp":13,"wdir":350,"wspd":3,"visib":"6+","altim":1018,"clouds":[],"obsTime":1778774400},"SBPS":{"icaoId":"SBPS","flightCategory":"VFR","rawOb":"METAR SBPS 141600Z 12006KT 080V160 9999 SCT025 28/23 Q1016","temp":28,"dewp":23,"wdir":120,"wspd":6,"visib":"6+","altim":1016,"clouds":[{"cover":"SCT","base":2500}],"obsTime":1778774400},"SBDN":{"icaoId":"SBDN","flightCategory":"VFR","rawOb":"METAR SBDN 141600Z 02005KT CAVOK 27/12 Q1017","temp":27,"dewp":12,"wdir":20,"wspd":5,"visib":"6+","altim":1017,"clouds":[],"obsTime":1778774400},"SBSC":{"icaoId":"SBSC","flightCategory":"MVFR","rawOb":"METAR SBSC 141600Z 20008KT 8000 BKN015 OVC030 24/21 Q1016","temp":24,"dewp":21,"wdir":200,"wspd":8,"visib":4.97,"altim":1016,"clouds":[{"cover":"BKN","base":1500},{"cover":"OVC","base":3000}],"obsTime":1778774400},"SBES":{"icaoId":"SBES","flightCategory":"VFR","rawOb":"METAR SBES 141600Z VRB06KT 9999 FEW023 27/// Q1016","temp":null,"dewp":null,"wdir":"VRB","wspd":6,"visib":"6+","altim":1016,"clouds":[{"cover":"FEW","base":2300}],"obsTime":1778774400},"SBSJ":{"icaoId":"SBSJ","flightCategory":"MVFR","rawOb":"METAR SBSJ 141600Z 28003KT 5000 HZ NSC 24/16 Q1018","temp":24,"dewp":16,"wdir":280,"wspd":3,"visib":3.11,"altim":1018,"clouds":[],"obsTime":1778774400},"SBSM":{"icaoId":"SBSM","flightCategory":"VFR","rawOb":"METAR SBSM 141600Z 13005KT CAVOK 19/11 Q1018","temp":19,"dewp":11,"wdir":130,"wspd":5,"visib":"6+","altim":1018,"clouds":[],"obsTime":1778774400},"SBBH":{"icaoId":"SBBH","flightCategory":"VFR","rawOb":"METAR SBBH 141600Z 35004KT 9999 SCT040 BKN090 25/18 Q1020","temp":25,"dewp":18,"wdir":350,"wspd":4,"visib":"6+","altim":1020,"clouds":[{"cover":"SCT","base":4000},{"cover":"BKN","base":9000}],"obsTime":1778774400},"SBGM":{"icaoId":"SBGM","flightCategory":"VFR","rawOb":"METAR SBGM 141600Z 20005KT 9999 SCT030 SCT040 29/20 Q1015","temp":29,"dewp":20,"wdir":200,"wspd":5,"visib":"6+","altim":1015,"clouds":[{"cover":"SCT","base":3000},{"cover":"SCT","base":4000}],"obsTime":1778774400},"SBSR":{"icaoId":"SBSR","flightCategory":"VFR","rawOb":"METAR SBSR 141600Z 01002KT 9999 FEW035 BKN070 30/10 Q1017","temp":30,"dewp":10,"wdir":10,"wspd":2,"visib":"6+","altim":1017,"clouds":[{"cover":"FEW","base":3500},{"cover":"BKN","base":7000}],"obsTime":1778774400},"SBCA":{"icaoId":"SBCA","flightCategory":"VFR","rawOb":"METAR SBCA 141600Z 35007KT 9999 FEW030 BKN080 21/11 Q1019","temp":21,"dewp":11,"wdir":350,"wspd":7,"visib":"6+","altim":1019,"clouds":[{"cover":"FEW","base":3000},{"cover":"BKN","base":8000}],"obsTime":1778774400},"SBBQ":{"icaoId":"SBBQ","flightCategory":"MVFR","rawOb":"METAR SBBQ 141600Z 34006KT 9999 BKN023 23/17 Q1022","temp":23,"dewp":17,"wdir":340,"wspd":6,"visib":"6+","altim":1022,"clouds":[{"cover":"BKN","base":2300}],"obsTime":1778774400},"SBTF":{"icaoId":"SBTF","flightCategory":"VFR","rawOb":"METAR SBTF 141600Z 30002KT 9999 SCT017 SCT100 30/24 Q1014","temp":30,"dewp":24,"wdir":300,"wspd":2,"visib":"6+","altim":1014,"clouds":[{"cover":"SCT","base":1700},{"cover":"SCT","base":10000}],"obsTime":1778774400},"SBIP":{"icaoId":"SBIP","flightCategory":"VFR","rawOb":"METAR SBIP 141600Z AUTO 33004KT 290V040 CAVOK 27/19 Q1017","temp":27,"dewp":19,"wdir":330,"wspd":4,"visib":"6+","altim":1017,"clouds":[],"obsTime":1778774400},"SBTT":{"icaoId":"SBTT","flightCategory":"MVFR","rawOb":"METAR SBTT 141600Z 34008KT 7000 BKN017 26/21 Q1016","temp":26,"dewp":21,"wdir":340,"wspd":8,"visib":4.35,"altim":1016,"clouds":[{"cover":"BKN","base":1700}],"obsTime":1778774400},"SBTU":{"icaoId":"SBTU","flightCategory":"VFR","rawOb":"METAR SBTU 141600Z AUTO 30004KT 250V350 9999 // ///////// ///// Q1015","temp":null,"dewp":null,"wdir":300,"wspd":4,"visib":"6+","altim":1015,"clouds":[],"obsTime":1778774400},"SBCC":{"icaoId":"SBCC","flightCategory":"VFR","rawOb":"METAR SBCC 141600Z /////KT 9999 SCT020 ///// Q1016","temp":null,"dewp":null,"wdir":null,"wspd":null,"visib":"6+","altim":1016,"clouds":[{"cover":"SCT","base":2000}],"obsTime":1778774400},"SBKG":{"icaoId":"SBKG","flightCategory":"VFR","rawOb":"METAR SBKG 141600Z 11013KT 9999 FEW023 SCT025 BKN100 26/23 Q1016","temp":26,"dewp":23,"wdir":110,"wspd":13,"visib":"6+","altim":1016,"clouds":[{"cover":"FEW","base":2300},{"cover":"SCT","base":2500},{"cover":"BKN","base":10000}],"obsTime":1778774400},"SBUY":{"icaoId":"SBUY","flightCategory":"MVFR","rawOb":"METAR SBUY 141600Z 18002KT 9999 BKN018 27/23 Q1014","temp":27,"dewp":23,"wdir":180,"wspd":2,"visib":"6+","altim":1014,"clouds":[{"cover":"BKN","base":1800}],"obsTime":1778774400},"SBVH":{"icaoId":"SBVH","flightCategory":"VFR","rawOb":"METAR SBVH 141600Z 31006KT 9000 SCT020 SCT025 BKN100 26/22 Q1017","temp":26,"dewp":22,"wdir":310,"wspd":6,"visib":5.59,"altim":1017,"clouds":[{"cover":"SCT","base":2000},{"cover":"SCT","base":2500},{"cover":"BKN","base":10000}],"obsTime":1778774400},"SBCJ":{"icaoId":"SBCJ","flightCategory":"MVFR","rawOb":"METAR SBCJ 141600Z 06006KT 9999 BKN017 26/22 Q1018","temp":26,"dewp":22,"wdir":60,"wspd":6,"visib":"6+","altim":1018,"clouds":[{"cover":"BKN","base":1700}],"obsTime":1778774400},"SBAX":{"icaoId":"SBAX","flightCategory":"VFR","rawOb":"METAR SBAX 141600Z 34005KT 9999 SCT020 26/16 Q1020","temp":26,"dewp":16,"wdir":340,"wspd":5,"visib":"6+","altim":1020,"clouds":[{"cover":"SCT","base":2000}],"obsTime":1778774400},"SBTD":{"icaoId":"SBTD","flightCategory":"VFR","rawOb":"METAR SBTD 141600Z /////KT CAVOK 22/12 Q1018","temp":22,"dewp":12,"wdir":null,"wspd":null,"visib":"6+","altim":1018,"clouds":[],"obsTime":1778774400},"SBAN":{"icaoId":"SBAN","flightCategory":"VFR","rawOb":"METAR SBAN 141600Z 33002KT 9999 FEW040 28/15 Q1021","temp":28,"dewp":15,"wdir":330,"wspd":2,"visib":"6+","altim":1021,"clouds":[{"cover":"FEW","base":4000}],"obsTime":1778774400},"SBLS":{"icaoId":"SBLS","flightCategory":"VFR","rawOb":"METAR SBLS 141600Z VRB02KT 9999 FEW020 SCT040 BKN090 24/17 Q1020","temp":24,"dewp":17,"wdir":"VRB","wspd":2,"visib":"6+","altim":1020,"clouds":[{"cover":"FEW","base":2000},{"cover":"SCT","base":4000},{"cover":"BKN","base":9000}],"obsTime":1778774400},"SBIH":{"icaoId":"SBIH","flightCategory":"VFR","rawOb":"METAR SBIH 141600Z 09002KT 9999 SCT020 31/24 Q1013","temp":31,"dewp":24,"wdir":90,"wspd":2,"visib":"6+","altim":1013,"clouds":[{"cover":"SCT","base":2000}],"obsTime":1778774400},"SBMT":{"icaoId":"SBMT","flightCategory":"VFR","rawOb":"METAR SBMT 141600Z VRB04KT CAVOK 25/11 Q1018","temp":25,"dewp":11,"wdir":"VRB","wspd":4,"visib":"6+","altim":1018,"clouds":[],"obsTime":1778774400},"SBLE":{"icaoId":"SBLE","flightCategory":"VFR","rawOb":"METAR SBLE 141600Z AUTO VRB02KT 9999 SCT033 28/19 Q1018","temp":28,"dewp":19,"wdir":"VRB","wspd":2,"visib":"6+","altim":1018,"clouds":[{"cover":"SCT","base":3300}],"obsTime":1778774400},"SBST":{"icaoId":"SBST","flightCategory":"MVFR","rawOb":"METAR SBST 141600Z 22003KT 6000 OVC021 22/17 Q1017","temp":22,"dewp":17,"wdir":220,"wspd":3,"visib":3.73,"altim":1017,"clouds":[{"cover":"OVC","base":2100}],"obsTime":1778774400},"SBNM":{"icaoId":"SBNM","flightCategory":"VFR","rawOb":"METAR SBNM 141600Z 11002KT 9999 SCT030 19/09 Q1017","temp":19,"dewp":9,"wdir":110,"wspd":2,"visib":"6+","altim":1017,"clouds":[{"cover":"SCT","base":3000}],"obsTime":1778774400},"SBTA":{"icaoId":"SBTA","flightCategory":"VFR","rawOb":"METAR SBTA 141600Z VRB02KT 9999 FEW035 SCT070 25/15 Q1017","temp":25,"dewp":15,"wdir":"VRB","wspd":2,"visib":"6+","altim":1017,"clouds":[{"cover":"FEW","base":3500},{"cover":"SCT","base":7000}],"obsTime":1778774400},"SBJP":{"icaoId":"SBJP","flightCategory":"VFR","rawOb":"METAR SBJP 141600Z 09005KT 9999 SCT020 BKN070 24/23 Q1013","temp":24,"dewp":23,"wdir":90,"wspd":5,"visib":"6+","altim":1013,"clouds":[{"cover":"SCT","base":2000},{"cover":"BKN","base":7000}],"obsTime":1778774400},"SBAF":{"icaoId":"SBAF","flightCategory":"MVFR","rawOb":"METAR SBAF 141600Z 15011KT 8000 FEW020 26/23 Q1015","temp":26,"dewp":23,"wdir":150,"wspd":11,"visib":4.97,"altim":1015,"clouds":[{"cover":"FEW","base":2000}],"obsTime":1778774400},"SBGW":{"icaoId":"SBGW","flightCategory":"MVFR","rawOb":"METAR SBGW 141600Z 05001KT 7000 SCT030 BKN100 27/16 Q1018","temp":27,"dewp":16,"wdir":50,"wspd":1,"visib":4.35,"altim":1018,"clouds":[{"cover":"SCT","base":3000},{"cover":"BKN","base":10000}],"obsTime":1778774400},"SBJV":{"icaoId":"SBJV","flightCategory":"VFR","rawOb":"METAR SBJV 141600Z 11004KT 9999 FEW030 23/17 Q1016","temp":23,"dewp":17,"wdir":110,"wspd":4,"visib":"6+","altim":1016,"clouds":[{"cover":"FEW","base":3000}],"obsTime":1778774400},"SBJR":{"icaoId":"SBJR","flightCategory":"MVFR","rawOb":"METAR SBJR 141600Z 19005KT 7000 FEW020 27/21 Q1016","temp":27,"dewp":21,"wdir":190,"wspd":5,"visib":4.35,"altim":1016,"clouds":[{"cover":"FEW","base":2000}],"obsTime":1778774400}}}