{"updated":1776555300,"count":71,"data":{"SBBE":{"icaoId":"SBBE","flightCategory":"MVFR","rawOb":"METAR SBBE 182200Z 16004KT 5000 -RA FEW034 BKN048 OVC100 24/24 Q1008","temp":24,"dewp":24,"wdir":160,"wspd":4,"visib":3.11,"altim":1008,"clouds":[{"cover":"FEW","base":3400},{"cover":"BKN","base":4800},{"cover":"OVC","base":10000}],"obsTime":1776549600},"SBBR":{"icaoId":"SBBR","flightCategory":"VFR","rawOb":"METAR SBBR 182200Z 14006KT 9999 FEW030 FEW040TCU 25/15 Q1013","temp":25,"dewp":15,"wdir":140,"wspd":6,"visib":"6+","altim":1013,"clouds":[{"cover":"FEW","base":3000},{"cover":"FEW","base":4000}],"obsTime":1776549600},"SBBV":{"icaoId":"SBBV","flightCategory":"VFR","rawOb":"METAR SBBV 182200Z 13004KT 9999 SCT040 FEW045TCU BKN090 28/23 Q1008","temp":28,"dewp":23,"wdir":130,"wspd":4,"visib":"6+","altim":1008,"clouds":[{"cover":"SCT","base":4000},{"cover":"FEW","base":4500},{"cover":"BKN","base":9000}],"obsTime":1776549600},"SBCF":{"icaoId":"SBCF","flightCategory":"VFR","rawOb":"METAR SBCF 182200Z VRB02KT CAVOK 24/15 Q1012","temp":24,"dewp":15,"wdir":"VRB","wspd":2,"visib":"6+","altim":1012,"clouds":[],"obsTime":1776549600},"SBCG":{"icaoId":"SBCG","flightCategory":"VFR","rawOb":"METAR SBCG 182200Z 19006KT 9999 SCT035 27/23 Q1009","temp":27,"dewp":23,"wdir":190,"wspd":6,"visib":"6+","altim":1009,"clouds":[{"cover":"SCT","base":3500}],"obsTime":1776549600},"SBCT":{"icaoId":"SBCT","flightCategory":"VFR","rawOb":"METAR SBCT 182200Z 17005KT CAVOK 22/13 Q1012","temp":22,"dewp":13,"wdir":170,"wspd":5,"visib":"6+","altim":1012,"clouds":[],"obsTime":1776549600},"SBCZ":{"icaoId":"SBCZ","flightCategory":"VFR","rawOb":"METAR SBCZ 182200Z 27004KT 9000 -RA SCT030 FEW030TCU BKN090 24/23 Q1006","temp":24,"dewp":23,"wdir":270,"wspd":4,"visib":5.59,"altim":1006,"clouds":[{"cover":"SCT","base":3000},{"cover":"FEW","base":3000},{"cover":"BKN","base":9000}],"obsTime":1776549600},"SBEG":{"icaoId":"SBEG","flightCategory":"VFR","rawOb":"METAR SBEG 182200Z 36002KT 9999 FEW010 SCT020 FEW025TCU BKN100 26/25 Q1008","temp":26,"dewp":25,"wdir":360,"wspd":2,"visib":"6+","altim":1008,"clouds":[{"cover":"FEW","base":1000},{"cover":"SCT","base":2000},{"cover":"FEW","base":2500},{"cover":"BKN","base":10000}],"obsTime":1776549600},"SBFI":{"icaoId":"SBFI","flightCategory":"VFR","rawOb":"METAR SBFI 182200Z 15003KT CAVOK 24/19 Q1008","temp":24,"dewp":19,"wdir":150,"wspd":3,"visib":"6+","altim":1008,"clouds":[],"obsTime":1776549600},"SBFL":{"icaoId":"SBFL","flightCategory":"VFR","rawOb":"METAR SBFL 182200Z 14008KT CAVOK 23/19 Q1008","temp":23,"dewp":19,"wdir":140,"wspd":8,"visib":"6+","altim":1008,"clouds":[],"obsTime":1776549600},"SBFZ":{"icaoId":"SBFZ","flightCategory":"VFR","rawOb":"METAR SBFZ 182200Z 07007KT 9999 FEW013 28/25 Q1006","temp":28,"dewp":25,"wdir":70,"wspd":7,"visib":"6+","altim":1006,"clouds":[{"cover":"FEW","base":1300}],"obsTime":1776549600},"SBGL":{"icaoId":"SBGL","flightCategory":"VFR","rawOb":"METAR SBGL 182200Z 16006KT 9999 VCTS FEW030 FEW035CB 26/20 Q1006","temp":26,"dewp":20,"wdir":160,"wspd":6,"visib":"6+","altim":1006,"clouds":[{"cover":"FEW","base":3000},{"cover":"FEW","base":3500}],"obsTime":1776549600},"SBGO":{"icaoId":"SBGO","flightCategory":"VFR","rawOb":"METAR SBGO 182200Z 15004KT 9999 FEW043 27/18 Q1011","temp":27,"dewp":18,"wdir":150,"wspd":4,"visib":"6+","altim":1011,"clouds":[{"cover":"FEW","base":4300}],"obsTime":1776549600},"SBGR":{"icaoId":"SBGR","flightCategory":"VFR","rawOb":"METAR SBGR 182200Z 24004KT 9999 FEW040 FEW045TCU 24/19 Q1011","temp":24,"dewp":19,"wdir":240,"wspd":4,"visib":"6+","altim":1011,"clouds":[{"cover":"FEW","base":4000},{"cover":"FEW","base":4500}],"obsTime":1776549600},"SBIL":{"icaoId":"SBIL","flightCategory":"VFR","rawOb":"METAR SBIL 182200Z 12005KT 9999 FEW024 28/24 Q1009","temp":28,"dewp":24,"wdir":120,"wspd":5,"visib":"6+","altim":1009,"clouds":[{"cover":"FEW","base":2400}],"obsTime":1776549600},"SBJU":{"icaoId":"SBJU","flightCategory":"VFR","rawOb":"METAR SBJU 182200Z 00000KT 9999 FEW022 28/23 Q1008","temp":28,"dewp":23,"wdir":0,"wspd":0,"visib":"6+","altim":1008,"clouds":[{"cover":"FEW","base":2200}],"obsTime":1776549600},"SBKP":{"icaoId":"SBKP","flightCategory":"VFR","rawOb":"METAR SBKP 182200Z 26004KT 230V290 9999 TS FEW030 FEW040CB 26/19 Q1011","temp":26,"dewp":19,"wdir":260,"wspd":4,"visib":"6+","altim":1011,"clouds":[{"cover":"FEW","base":3000},{"cover":"FEW","base":4000}],"obsTime":1776549600},"SBLO":{"icaoId":"SBLO","flightCategory":"VFR","rawOb":"METAR SBLO 182200Z 21006KT 9999 FEW040 27/20 Q1010","temp":27,"dewp":20,"wdir":210,"wspd":6,"visib":"6+","altim":1010,"clouds":[{"cover":"FEW","base":4000}],"obsTime":1776549600},"SBMA":{"icaoId":"SBMA","flightCategory":"VFR","rawOb":"METAR SBMA 182200Z 29003KT 9999 SCT020 FEW025TCU BKN080 28/25 Q1005","temp":28,"dewp":25,"wdir":290,"wspd":3,"visib":"6+","altim":1005,"clouds":[{"cover":"SCT","base":2000},{"cover":"FEW","base":2500},{"cover":"BKN","base":8000}],"obsTime":1776549600},"SBME":{"icaoId":"SBME","flightCategory":"VFR","rawOb":"METAR SBME 182200Z 03002KT CAVOK 25/23 Q1007","temp":25,"dewp":23,"wdir":30,"wspd":2,"visib":"6+","altim":1007,"clouds":[],"obsTime":1776549600},"SBMG":{"icaoId":"SBMG","flightCategory":"VFR","rawOb":"METAR SBMG 182200Z 18008KT 9999 FEW035TCU 25/20 Q1009","temp":25,"dewp":20,"wdir":180,"wspd":8,"visib":"6+","altim":1009,"clouds":[{"cover":"FEW","base":3500}],"obsTime":1776549600},"SBMK":{"icaoId":"SBMK","flightCategory":"VFR","rawOb":"METAR SBMK 182200Z 21004KT CAVOK 26/16 Q1011","temp":26,"dewp":16,"wdir":210,"wspd":4,"visib":"6+","altim":1011,"clouds":[],"obsTime":1776549600},"SBMO":{"icaoId":"SBMO","flightCategory":"VFR","rawOb":"METAR SBMO 182200Z 08004KT 9999 FEW017 25/25 Q1008","temp":25,"dewp":25,"wdir":80,"wspd":4,"visib":"6+","altim":1008,"clouds":[{"cover":"FEW","base":1700}],"obsTime":1776549600},"SBMQ":{"icaoId":"SBMQ","flightCategory":"MVFR","rawOb":"METAR SBMQ 182200Z 23002KT 8000 -RA BKN018 BKN070 25/25 Q1008 RETS","temp":25,"dewp":25,"wdir":230,"wspd":2,"visib":4.97,"altim":1008,"clouds":[{"cover":"BKN","base":1800},{"cover":"BKN","base":7000}],"obsTime":1776549600},"SBNT":{"icaoId":"SBNT","flightCategory":"VFR","rawOb":"METAR SBNT 182200Z 13005KT 9999 SCT020 27/25 Q1007","temp":27,"dewp":25,"wdir":130,"wspd":5,"visib":"6+","altim":1007,"clouds":[{"cover":"SCT","base":2000}],"obsTime":1776549600},"SBPA":{"icaoId":"SBPA","flightCategory":"VFR","rawOb":"METAR SBPA 182200Z 27005KT CAVOK 23/16 Q1009","temp":23,"dewp":16,"wdir":270,"wspd":5,"visib":"6+","altim":1009,"clouds":[],"obsTime":1776549600},"SBPJ":{"icaoId":"SBPJ","flightCategory":"VFR","rawOb":"METAR SBPJ 182200Z 17006KT 9999 FEW027 SCT100 27/24 Q1008","temp":27,"dewp":24,"wdir":170,"wspd":6,"visib":"6+","altim":1008,"clouds":[{"cover":"FEW","base":2700},{"cover":"SCT","base":10000}],"obsTime":1776549600},"SBPV":{"icaoId":"SBPV","flightCategory":"VFR","rawOb":"METAR SBPV 182200Z 03002KT 9999 FEW030 FEW035TCU 27/24 Q1006","temp":27,"dewp":24,"wdir":30,"wspd":2,"visib":"6+","altim":1006,"clouds":[{"cover":"FEW","base":3000},{"cover":"FEW","base":3500}],"obsTime":1776549600},"SBRB":{"icaoId":"SBRB","flightCategory":"VFR","rawOb":"METAR SBRB 182200Z 30004KT 9999 VCSH FEW020 FEW035TCU SCT100 26/24 Q1006","temp":26,"dewp":24,"wdir":300,"wspd":4,"visib":"6+","altim":1006,"clouds":[{"cover":"FEW","base":2000},{"cover":"FEW","base":3500},{"cover":"SCT","base":10000}],"obsTime":1776549600},"SBRF":{"icaoId":"SBRF","flightCategory":"VFR","rawOb":"METAR SBRF 182200Z 12010KT 9999 SCT021 28/24 Q1007","temp":28,"dewp":24,"wdir":120,"wspd":10,"visib":"6+","altim":1007,"clouds":[{"cover":"SCT","base":2100}],"obsTime":1776549600},"SBSG":{"icaoId":"SBSG","flightCategory":"VFR","rawOb":"METAR SBSG 182200Z 14003KT 110V190 9999 VCSH SCT020 FEW023TCU 25/25 Q1008","temp":25,"dewp":25,"wdir":140,"wspd":3,"visib":"6+","altim":1008,"clouds":[{"cover":"SCT","base":2000},{"cover":"FEW","base":2300}],"obsTime":1776549600},"SBSL":{"icaoId":"SBSL","flightCategory":"MVFR","rawOb":"METAR SBSL 182200Z 33003KT 9999 -TSRA BKN015 FEW020CB BKN080 23/23 Q1007 RERA","temp":23,"dewp":23,"wdir":330,"wspd":3,"visib":"6+","altim":1007,"clouds":[{"cover":"BKN","base":1500},{"cover":"FEW","base":2000},{"cover":"BKN","base":8000}],"obsTime":1776549600},"SBSN":{"icaoId":"SBSN","flightCategory":"IFR","rawOb":"METAR SBSN 182200Z 32009KT 4000 -RA BR BKN009 OVC100 25/23 Q1008","temp":25,"dewp":23,"wdir":320,"wspd":9,"visib":2.49,"altim":1008,"clouds":[{"cover":"BKN","base":900},{"cover":"OVC","base":10000}],"obsTime":1776549600},"SBSP":{"icaoId":"SBSP","flightCategory":"VFR","rawOb":"METAR SBSP 182200Z 19005KT 9999 VCSH SCT040 24/20 Q1012","temp":24,"dewp":20,"wdir":190,"wspd":5,"visib":"6+","altim":1012,"clouds":[{"cover":"SCT","base":4000}],"obsTime":1776549600},"SBSV":{"icaoId":"SBSV","flightCategory":"VFR","rawOb":"METAR SBSV 182200Z 11007KT 9999 FEW023 28/22 Q1008","temp":28,"dewp":22,"wdir":110,"wspd":7,"visib":"6+","altim":1008,"clouds":[{"cover":"FEW","base":2300}],"obsTime":1776549600},"SBTE":{"icaoId":"SBTE","flightCategory":"VFR","rawOb":"METAR SBTE 182200Z 34007KT 9999 VCTS SCT020 SCT025 FEW030CB BKN090 29/26 Q1005","temp":29,"dewp":26,"wdir":340,"wspd":7,"visib":"6+","altim":1005,"clouds":[{"cover":"SCT","base":2000},{"cover":"SCT","base":2500},{"cover":"FEW","base":3000},{"cover":"BKN","base":9000}],"obsTime":1776549600},"SBUL":{"icaoId":"SBUL","flightCategory":"VFR","rawOb":"METAR SBUL 182200Z 36003KT 9999 FEW048 26/15 Q1013","temp":26,"dewp":15,"wdir":360,"wspd":3,"visib":"6+","altim":1013,"clouds":[{"cover":"FEW","base":4800}],"obsTime":1776549600},"SBUR":{"icaoId":"SBUR","flightCategory":"VFR","rawOb":"METAR SBUR 182200Z 16004KT CAVOK 26/17 Q1011","temp":26,"dewp":17,"wdir":160,"wspd":4,"visib":"6+","altim":1011,"clouds":[],"obsTime":1776549600},"SBVT":{"icaoId":"SBVT","flightCategory":"VFR","rawOb":"METAR SBVT 182200Z 02008KT 9999 FEW045 SCT100 27/23 Q1007","temp":27,"dewp":23,"wdir":20,"wspd":8,"visib":"6+","altim":1007,"clouds":[{"cover":"FEW","base":4500},{"cover":"SCT","base":10000}],"obsTime":1776549600},"SBCP":{"icaoId":"SBCP","flightCategory":"VFR","rawOb":"METAR SBCP 182200Z 08005KT CAVOK 25/22 Q1007","temp":25,"dewp":22,"wdir":80,"wspd":5,"visib":"6+","altim":1007,"clouds":[],"obsTime":1776549600},"SBAR":{"icaoId":"SBAR","flightCategory":"VFR","rawOb":"METAR SBAR 182200Z 14008KT 9999 SCT023 28/23 Q1008","temp":28,"dewp":23,"wdir":140,"wspd":8,"visib":"6+","altim":1008,"clouds":[{"cover":"SCT","base":2300}],"obsTime":1776549600},"SBVH":{"icaoId":"SBVH","flightCategory":"VFR","rawOb":"METAR SBVH 182200Z 11004KT 9999 SCT035 SCT100 24/23 Q1009","temp":24,"dewp":23,"wdir":110,"wspd":4,"visib":"6+","altim":1009,"clouds":[{"cover":"SCT","base":3500},{"cover":"SCT","base":10000}],"obsTime":1776549600},"SBCO":{"icaoId":"SBCO","flightCategory":"VFR","rawOb":"METAR SBCO 182200Z 30001KT CAVOK 21/16 Q1009","temp":21,"dewp":16,"wdir":300,"wspd":1,"visib":"6+","altim":1009,"clouds":[],"obsTime":1776549600},"SBPL":{"icaoId":"SBPL","flightCategory":"VFR","rawOb":"METAR SBPL 182200Z 13003KT CAVOK 30/18 Q1006","temp":30,"dewp":18,"wdir":130,"wspd":3,"visib":"6+","altim":1006,"clouds":[],"obsTime":1776549600},"SBBH":{"icaoId":"SBBH","flightCategory":"VFR","rawOb":"METAR SBBH 182200Z 29001KT 9999 FEW049 23/17 Q1012","temp":23,"dewp":17,"wdir":290,"wspd":1,"visib":"6+","altim":1012,"clouds":[{"cover":"FEW","base":4900}],"obsTime":1776549600},"SBPS":{"icaoId":"SBPS","flightCategory":"VFR","rawOb":"METAR SBPS 182200Z 04006KT 9999 FEW020 26/22 Q1008","temp":26,"dewp":22,"wdir":40,"wspd":6,"visib":"6+","altim":1008,"clouds":[{"cover":"FEW","base":2000}],"obsTime":1776549600},"SBDN":{"icaoId":"SBDN","flightCategory":"VFR","rawOb":"METAR SBDN 182200Z 00000KT 9999 VCTS FEW060CB 29/20 Q1009","temp":29,"dewp":20,"wdir":0,"wspd":0,"visib":"6+","altim":1009,"clouds":[{"cover":"FEW","base":6000}],"obsTime":1776549600},"SBSC":{"icaoId":"SBSC","flightCategory":"VFR","rawOb":"METAR SBSC 182200Z 00000KT 9999 FEW030 23/21 Q1006","temp":23,"dewp":21,"wdir":0,"wspd":0,"visib":"6+","altim":1006,"clouds":[{"cover":"FEW","base":3000}],"obsTime":1776549600},"SBAU":{"icaoId":"SBAU","flightCategory":"VFR","rawOb":"METAR SBAU 182200Z 21006KT 9999 FEW040 FEW050TCU 25/21 Q1009","temp":25,"dewp":21,"wdir":210,"wspd":6,"visib":"6+","altim":1009,"clouds":[{"cover":"FEW","base":4000},{"cover":"FEW","base":5000}],"obsTime":1776549600},"SBSJ":{"icaoId":"SBSJ","flightCategory":"VFR","rawOb":"METAR SBSJ 182200Z 22003KT CAVOK 25/18 Q1010","temp":25,"dewp":18,"wdir":220,"wspd":3,"visib":"6+","altim":1010,"clouds":[],"obsTime":1776549600},"SBIP":{"icaoId":"SBIP","flightCategory":"VFR","rawOb":"METAR SBIP 182200Z AUTO 00000KT CAVOK 21/20 Q1008","temp":21,"dewp":20,"wdir":0,"wspd":0,"visib":"6+","altim":1008,"clouds":[],"obsTime":1776549600},"SBSM":{"icaoId":"SBSM","flightCategory":"VFR","rawOb":"METAR SBSM 182200Z 07002KT CAVOK 18/17 Q1009","temp":18,"dewp":17,"wdir":70,"wspd":2,"visib":"6+","altim":1009,"clouds":[],"obsTime":1776549600},"SBBU":{"icaoId":"SBBU","flightCategory":"VFR","rawOb":"METAR SBBU 182200Z 31004KT CAVOK 27/22 Q1010","temp":27,"dewp":22,"wdir":310,"wspd":4,"visib":"6+","altim":1010,"clouds":[],"obsTime":1776549600},"SBSR":{"icaoId":"SBSR","flightCategory":"VFR","rawOb":"METAR SBSR 182200Z 19005KT 9999 SCT025 FEW035TCU SCT070 27/18 Q1009","temp":27,"dewp":18,"wdir":190,"wspd":5,"visib":"6+","altim":1009,"clouds":[{"cover":"SCT","base":2500},{"cover":"FEW","base":3500},{"cover":"SCT","base":7000}],"obsTime":1776549600},"SBAX":{"icaoId":"SBAX","flightCategory":"VFR","rawOb":"METAR SBAX 182200Z AUTO 22003KT 180V260 CAVOK 24/15 Q1013","temp":24,"dewp":15,"wdir":220,"wspd":3,"visib":"6+","altim":1013,"clouds":[],"obsTime":1776549600},"SBOI":{"icaoId":"SBOI","flightCategory":"MVFR","rawOb":"METAR SBOI 182200Z AUTO 33003KT 9999 BKN022 26/25 Q1008","temp":26,"dewp":25,"wdir":330,"wspd":3,"visib":"6+","altim":1008,"clouds":[{"cover":"BKN","base":2200}],"obsTime":1776549600},"SBTT":{"icaoId":"SBTT","flightCategory":"VFR","rawOb":"METAR SBTT 182200Z 12003KT 050V150 9999 FEW013 BKN100 24/21 Q1007","temp":24,"dewp":21,"wdir":120,"wspd":3,"visib":"6+","altim":1007,"clouds":[{"cover":"FEW","base":1300},{"cover":"BKN","base":10000}],"obsTime":1776549600},"SBKG":{"icaoId":"SBKG","flightCategory":"MVFR","rawOb":"METAR SBKG 182200Z 11007KT 9999 BKN018 24/22 Q1010","temp":24,"dewp":22,"wdir":110,"wspd":7,"visib":"6+","altim":1010,"clouds":[{"cover":"BKN","base":1800}],"obsTime":1776549600},"SBTF":{"icaoId":"SBTF","flightCategory":"VFR","rawOb":"METAR SBTF 182200Z 27002KT 9999 FEW018 SCT090 30/25 Q1005","temp":30,"dewp":25,"wdir":270,"wspd":2,"visib":"6+","altim":1005,"clouds":[{"cover":"FEW","base":1800},{"cover":"SCT","base":9000}],"obsTime":1776549600},"SBUY":{"icaoId":"SBUY","flightCategory":"VFR","rawOb":"METAR SBUY 182200Z 34005KT 9999 FEW025 FEW030TCU BKN090 26/24 Q1006","temp":26,"dewp":24,"wdir":340,"wspd":5,"visib":"6+","altim":1006,"clouds":[{"cover":"FEW","base":2500},{"cover":"FEW","base":3000},{"cover":"BKN","base":9000}],"obsTime":1776549600},"SBCA":{"icaoId":"SBCA","flightCategory":"VFR","rawOb":"METAR SBCA 182200Z 18005KT CAVOK 22/17 Q1012","temp":22,"dewp":17,"wdir":180,"wspd":5,"visib":"6+","altim":1012,"clouds":[],"obsTime":1776549600},"SBPB":{"icaoId":"SBPB","flightCategory":"VFR","rawOb":"SPECI SBPB 182145Z 13004KT 9999 -TSRA SCT010 SCT012 FEW025CB 25/24 Q1007","temp":25,"dewp":24,"wdir":130,"wspd":4,"visib":"6+","altim":1007,"clouds":[{"cover":"SCT","base":1000},{"cover":"SCT","base":1200},{"cover":"FEW","base":2500}],"obsTime":1776548700},"SBAN":{"icaoId":"SBAN","flightCategory":"VFR","rawOb":"METAR SBAN 182200Z 18003KT 9999 SCT045 SCT060 24/17 Q1014","temp":24,"dewp":17,"wdir":180,"wspd":3,"visib":"6+","altim":1014,"clouds":[{"cover":"SCT","base":4500},{"cover":"SCT","base":6000}],"obsTime":1776549600},"SBLE":{"icaoId":"SBLE","flightCategory":"VFR","rawOb":"METAR SBLE 182200Z AUTO VRB02KT 9999 FEW044 25/25 Q1010","temp":25,"dewp":25,"wdir":"VRB","wspd":2,"visib":"6+","altim":1010,"clouds":[{"cover":"FEW","base":4400}],"obsTime":1776549600},"SBJV":{"icaoId":"SBJV","flightCategory":"VFR","rawOb":"METAR SBJV 182200Z 15007KT CAVOK 25/22 Q1007","temp":25,"dewp":22,"wdir":150,"wspd":7,"visib":"6+","altim":1007,"clouds":[],"obsTime":1776549600},"SBAF":{"icaoId":"SBAF","flightCategory":"VFR","rawOb":"METAR SBAF 182200Z 24002KT 9999 TS FEW040CB 25/22 Q1007","temp":25,"dewp":22,"wdir":240,"wspd":2,"visib":"6+","altim":1007,"clouds":[{"cover":"FEW","base":4000}],"obsTime":1776549600},"SBJR":{"icaoId":"SBJR","flightCategory":"VFR","rawOb":"METAR SBJR 182200Z 00000KT 9999 FEW035 24/22 Q1006","temp":24,"dewp":22,"wdir":0,"wspd":0,"visib":"6+","altim":1006,"clouds":[{"cover":"FEW","base":3500}],"obsTime":1776549600},"SBLS":{"icaoId":"SBLS","flightCategory":"VFR","rawOb":"METAR SBLS 182200Z 27003KT CAVOK 24/15 Q1012","temp":24,"dewp":15,"wdir":270,"wspd":3,"visib":"6+","altim":1012,"clouds":[],"obsTime":1776549600},"SBMT":{"icaoId":"SBMT","flightCategory":"VFR","rawOb":"METAR SBMT 182200Z 26006KT 9999 SCT030 SCT070 24/18 Q1011","temp":24,"dewp":18,"wdir":260,"wspd":6,"visib":"6+","altim":1011,"clouds":[{"cover":"SCT","base":3000},{"cover":"SCT","base":7000}],"obsTime":1776549600},"SBJP":{"icaoId":"SBJP","flightCategory":"VFR","rawOb":"METAR SBJP 182200Z 14005KT 9999 FEW020 SCT070 26/25 Q1008","temp":26,"dewp":25,"wdir":140,"wspd":5,"visib":"6+","altim":1008,"clouds":[{"cover":"FEW","base":2000},{"cover":"SCT","base":7000}],"obsTime":1776549600},"SBGW":{"icaoId":"SBGW","flightCategory":"VFR","rawOb":"METAR SBGW 182200Z 07002KT 9999 SCT020 BKN100 22/18 Q1009","temp":22,"dewp":18,"wdir":70,"wspd":2,"visib":"6+","altim":1009,"clouds":[{"cover":"SCT","base":2000},{"cover":"BKN","base":10000}],"obsTime":1776549600}}}