{"updated":1777934664,"count":82,"data":{"SBMA":{"icaoId":"SBMA","flightCategory":"VFR","rawOb":"METAR SBMA 042100Z 06001KT 9999 FEW020 FEW023TCU 30/23 Q1010","temp":30,"dewp":23,"wdir":60,"wspd":1,"visib":"6+","altim":1010,"clouds":[{"cover":"FEW","base":2000},{"cover":"FEW","base":2300}],"obsTime":1777928400},"SBFL":{"icaoId":"SBFL","flightCategory":"VFR","rawOb":"METAR SBFL 042100Z 36009KT 9999 FEW035 BKN070 22/18 Q1017","temp":22,"dewp":18,"wdir":360,"wspd":9,"visib":"6+","altim":1017,"clouds":[{"cover":"FEW","base":3500},{"cover":"BKN","base":7000}],"obsTime":1777928400},"SBBV":{"icaoId":"SBBV","flightCategory":"VFR","rawOb":"METAR SBBV 042100Z 15007KT 9999 SCT040 FEW045TCU SCT080 32/22 Q1009","temp":32,"dewp":22,"wdir":150,"wspd":7,"visib":"6+","altim":1009,"clouds":[{"cover":"SCT","base":4000},{"cover":"FEW","base":4500},{"cover":"SCT","base":8000}],"obsTime":1777928400},"SBMG":{"icaoId":"SBMG","flightCategory":"VFR","rawOb":"METAR SBMG 042100Z 05004KT CAVOK 24/19 Q1016","temp":24,"dewp":19,"wdir":50,"wspd":4,"visib":"6+","altim":1016,"clouds":[],"obsTime":1777928400},"SBMK":{"icaoId":"SBMK","flightCategory":"VFR","rawOb":"METAR SBMK 042100Z 09008KT CAVOK 24/17 Q1020","temp":24,"dewp":17,"wdir":90,"wspd":8,"visib":"6+","altim":1020,"clouds":[],"obsTime":1777928400},"SBFZ":{"icaoId":"SBFZ","flightCategory":"VFR","rawOb":"METAR SBFZ 042100Z 10008KT 9999 FEW020 BKN070 28/24 Q1010","temp":28,"dewp":24,"wdir":100,"wspd":8,"visib":"6+","altim":1010,"clouds":[{"cover":"FEW","base":2000},{"cover":"BKN","base":7000}],"obsTime":1777928400},"SBCF":{"icaoId":"SBCF","flightCategory":"VFR","rawOb":"METAR SBCF 042100Z 11010KT 9999 FEW045 22/16 Q1022","temp":22,"dewp":16,"wdir":110,"wspd":10,"visib":"6+","altim":1022,"clouds":[{"cover":"FEW","base":4500}],"obsTime":1777928400},"SBMO":{"icaoId":"SBMO","flightCategory":"VFR","rawOb":"METAR SBMO 042100Z 15008KT 9999 FEW026 27/23 Q1014","temp":27,"dewp":23,"wdir":150,"wspd":8,"visib":"6+","altim":1014,"clouds":[{"cover":"FEW","base":2600}],"obsTime":1777928400},"SBGL":{"icaoId":"SBGL","flightCategory":"VFR","rawOb":"METAR SBGL 042100Z 11004KT CAVOK 24/19 Q1018","temp":24,"dewp":19,"wdir":110,"wspd":4,"visib":"6+","altim":1018,"clouds":[],"obsTime":1777928400},"SBMQ":{"icaoId":"SBMQ","flightCategory":"VFR","rawOb":"METAR SBMQ 042100Z 06009KT 030V090 9000 -RA BKN040 BKN080 28/26 Q1010 RETS","temp":28,"dewp":26,"wdir":60,"wspd":9,"visib":5.59,"altim":1010,"clouds":[{"cover":"BKN","base":4000},{"cover":"BKN","base":8000}],"obsTime":1777928400},"SBNT":{"icaoId":"SBNT","flightCategory":"VFR","rawOb":"METAR SBNT 042100Z 14009KT CAVOK 27/24 Q1012","temp":27,"dewp":24,"wdir":140,"wspd":9,"visib":"6+","altim":1012,"clouds":[],"obsTime":1777928400},"SBGO":{"icaoId":"SBGO","flightCategory":"VFR","rawOb":"METAR SBGO 042100Z 07008KT CAVOK 28/17 Q1018","temp":28,"dewp":17,"wdir":70,"wspd":8,"visib":"6+","altim":1018,"clouds":[],"obsTime":1777928400},"SBCT":{"icaoId":"SBCT","flightCategory":"VFR","rawOb":"METAR SBCT 042100Z VRB02KT 9999 FEW020 18/16 Q1020","temp":18,"dewp":16,"wdir":"VRB","wspd":2,"visib":"6+","altim":1020,"clouds":[{"cover":"FEW","base":2000}],"obsTime":1777928400},"SBPA":{"icaoId":"SBPA","flightCategory":"VFR","rawOb":"METAR SBPA 042100Z 36007KT 320V050 9999 VCSH BKN035 FEW040TCU BKN080 22/18 Q1014","temp":22,"dewp":18,"wdir":360,"wspd":7,"visib":"6+","altim":1014,"clouds":[{"cover":"BKN","base":3500},{"cover":"FEW","base":4000},{"cover":"BKN","base":8000}],"obsTime":1777928400},"SBVT":{"icaoId":"SBVT","flightCategory":"VFR","rawOb":"METAR SBVT 042100Z 21007KT 9999 FEW035 SCT050 23/17 Q1020","temp":23,"dewp":17,"wdir":210,"wspd":7,"visib":"6+","altim":1020,"clouds":[{"cover":"FEW","base":3500},{"cover":"SCT","base":5000}],"obsTime":1777928400},"SBME":{"icaoId":"SBME","flightCategory":"VFR","rawOb":"METAR SBME 042100Z 08009KT 9999 BKN045 25/16 Q1020","temp":25,"dewp":16,"wdir":80,"wspd":9,"visib":"6+","altim":1020,"clouds":[{"cover":"BKN","base":4500}],"obsTime":1777928400},"SBCZ":{"icaoId":"SBCZ","flightCategory":"VFR","rawOb":"METAR SBCZ 042100Z 32002KT 9999 FEW030 FEW030TCU BKN100 28/25 Q1011","temp":28,"dewp":25,"wdir":320,"wspd":2,"visib":"6+","altim":1011,"clouds":[{"cover":"FEW","base":3000},{"cover":"FEW","base":3000},{"cover":"BKN","base":10000}],"obsTime":1777928400},"SBPJ":{"icaoId":"SBPJ","flightCategory":"VFR","rawOb":"METAR SBPJ 042100Z 12003KT CAVOK 30/22 Q1012","temp":30,"dewp":22,"wdir":120,"wspd":3,"visib":"6+","altim":1012,"clouds":[],"obsTime":1777928400},"SBGR":{"icaoId":"SBGR","flightCategory":"MVFR","rawOb":"METAR SBGR 042100Z 17007KT 7000 FEW040 22/18 Q1021","temp":22,"dewp":18,"wdir":170,"wspd":7,"visib":4.35,"altim":1021,"clouds":[{"cover":"FEW","base":4000}],"obsTime":1777928400},"SBPV":{"icaoId":"SBPV","flightCategory":"VFR","rawOb":"METAR SBPV 042100Z 32002KT 9999 FEW030 SCT100 30/25 Q1009","temp":30,"dewp":25,"wdir":320,"wspd":2,"visib":"6+","altim":1009,"clouds":[{"cover":"FEW","base":3000},{"cover":"SCT","base":10000}],"obsTime":1777928400},"SBRB":{"icaoId":"SBRB","flightCategory":"VFR","rawOb":"METAR SBRB 042100Z 21004KT 9999 SCT025 30/24 Q1010","temp":30,"dewp":24,"wdir":210,"wspd":4,"visib":"6+","altim":1010,"clouds":[{"cover":"SCT","base":2500}],"obsTime":1777928400},"SBBE":{"icaoId":"SBBE","flightCategory":"VFR","rawOb":"METAR SBBE 042100Z 05006KT 9999 SCT040 FEW048TCU BKN059 27/25 Q1010","temp":27,"dewp":25,"wdir":50,"wspd":6,"visib":"6+","altim":1010,"clouds":[{"cover":"SCT","base":4000},{"cover":"FEW","base":4800},{"cover":"BKN","base":5900}],"obsTime":1777928400},"SBEG":{"icaoId":"SBEG","flightCategory":"VFR","rawOb":"METAR SBEG 042100Z 17003KT 9999 VCSH FEW020 FEW025TCU BKN100 27/24 Q1010","temp":27,"dewp":24,"wdir":170,"wspd":3,"visib":"6+","altim":1010,"clouds":[{"cover":"FEW","base":2000},{"cover":"FEW","base":2500},{"cover":"BKN","base":10000}],"obsTime":1777928400},"SBRF":{"icaoId":"SBRF","flightCategory":"VFR","rawOb":"METAR SBRF 042100Z 19006KT 9999 SCT020 FEW025TCU SCT060 26/24 Q1013","temp":26,"dewp":24,"wdir":190,"wspd":6,"visib":"6+","altim":1013,"clouds":[{"cover":"SCT","base":2000},{"cover":"FEW","base":2500},{"cover":"SCT","base":6000}],"obsTime":1777928400},"SBIL":{"icaoId":"SBIL","flightCategory":"VFR","rawOb":"METAR SBIL 042100Z 21008KT 9999 SCT025 28/24 Q1016","temp":28,"dewp":24,"wdir":210,"wspd":8,"visib":"6+","altim":1016,"clouds":[{"cover":"SCT","base":2500}],"obsTime":1777928400},"SBSG":{"icaoId":"SBSG","flightCategory":"VFR","rawOb":"METAR SBSG 042100Z 13005KT 100V170 9999 SCT030 FEW033TCU 27/24 Q1012","temp":27,"dewp":24,"wdir":130,"wspd":5,"visib":"6+","altim":1012,"clouds":[{"cover":"SCT","base":3000},{"cover":"FEW","base":3300}],"obsTime":1777928400},"SBCG":{"icaoId":"SBCG","flightCategory":"VFR","rawOb":"METAR SBCG 042100Z 01006KT CAVOK 28/16 Q1015","temp":28,"dewp":16,"wdir":10,"wspd":6,"visib":"6+","altim":1015,"clouds":[],"obsTime":1777928400},"SBSL":{"icaoId":"SBSL","flightCategory":"VFR","rawOb":"METAR SBSL 042100Z 07006KT 9999 FEW020 BKN080 28/24 Q1010","temp":28,"dewp":24,"wdir":70,"wspd":6,"visib":"6+","altim":1010,"clouds":[{"cover":"FEW","base":2000},{"cover":"BKN","base":8000}],"obsTime":1777928400},"SBJU":{"icaoId":"SBJU","flightCategory":"VFR","rawOb":"METAR SBJU 042100Z 18004KT 9999 FEW022 29/21 Q1013","temp":29,"dewp":21,"wdir":180,"wspd":4,"visib":"6+","altim":1013,"clouds":[{"cover":"FEW","base":2200}],"obsTime":1777928400},"SBSN":{"icaoId":"SBSN","flightCategory":"VFR","rawOb":"METAR SBSN 042100Z 07002KT 9999 FEW025 FEW030TCU 30/25 Q1009","temp":30,"dewp":25,"wdir":70,"wspd":2,"visib":"6+","altim":1009,"clouds":[{"cover":"FEW","base":2500},{"cover":"FEW","base":3000}],"obsTime":1777928400},"SBSP":{"icaoId":"SBSP","flightCategory":"MVFR","rawOb":"METAR SBSP 042100Z 18007KT 8000 SCT007 OVC010 19/17 Q1021","temp":19,"dewp":17,"wdir":180,"wspd":7,"visib":4.97,"altim":1021,"clouds":[{"cover":"SCT","base":700},{"cover":"OVC","base":1000}],"obsTime":1777928400},"SBCB":{"icaoId":"SBCB","flightCategory":"VFR","rawOb":"METAR SBCB 042100Z 23009KT CAVOK 23/17 Q1020","temp":23,"dewp":17,"wdir":230,"wspd":9,"visib":"6+","altim":1020,"clouds":[],"obsTime":1777928400},"SBKP":{"icaoId":"SBKP","flightCategory":"VFR","rawOb":"METAR SBKP 042100Z 17003KT 9999 FEW045 26/18 Q1019","temp":26,"dewp":18,"wdir":170,"wspd":3,"visib":"6+","altim":1019,"clouds":[{"cover":"FEW","base":4500}],"obsTime":1777928400},"SBSV":{"icaoId":"SBSV","flightCategory":"VFR","rawOb":"METAR SBSV 042100Z 16008KT 9999 SCT023 28/22 Q1015","temp":28,"dewp":22,"wdir":160,"wspd":8,"visib":"6+","altim":1015,"clouds":[{"cover":"SCT","base":2300}],"obsTime":1777928400},"SBTE":{"icaoId":"SBTE","flightCategory":"VFR","rawOb":"METAR SBTE 042100Z 04006KT 9999 SCT020 SCT025 BKN090 26/24 Q1010 RERA","temp":26,"dewp":24,"wdir":40,"wspd":6,"visib":"6+","altim":1010,"clouds":[{"cover":"SCT","base":2000},{"cover":"SCT","base":2500},{"cover":"BKN","base":9000}],"obsTime":1777928400},"SBLO":{"icaoId":"SBLO","flightCategory":"VFR","rawOb":"METAR SBLO 042100Z 08003KT CAVOK 25/18 Q1017","temp":25,"dewp":18,"wdir":80,"wspd":3,"visib":"6+","altim":1017,"clouds":[],"obsTime":1777928400},"SBUL":{"icaoId":"SBUL","flightCategory":"VFR","rawOb":"METAR SBUL 042100Z 08006KT CAVOK 25/15 Q1021","temp":25,"dewp":15,"wdir":80,"wspd":6,"visib":"6+","altim":1021,"clouds":[],"obsTime":1777928400},"SBFI":{"icaoId":"SBFI","flightCategory":"VFR","rawOb":"METAR SBFI 042100Z 01004KT CAVOK 25/21 Q1013","temp":25,"dewp":21,"wdir":10,"wspd":4,"visib":"6+","altim":1013,"clouds":[],"obsTime":1777928400},"SBUR":{"icaoId":"SBUR","flightCategory":"VFR","rawOb":"METAR SBUR 042100Z 01005KT CAVOK 27/14 Q1019","temp":27,"dewp":14,"wdir":10,"wspd":5,"visib":"6+","altim":1019,"clouds":[],"obsTime":1777928400},"SBCP":{"icaoId":"SBCP","flightCategory":"VFR","rawOb":"METAR SBCP 042100Z 12004KT 9999 BKN040 OVC080 23/18 Q1021","temp":23,"dewp":18,"wdir":120,"wspd":4,"visib":"6+","altim":1021,"clouds":[{"cover":"BKN","base":4000},{"cover":"OVC","base":8000}],"obsTime":1777928400},"SBAT":{"icaoId":"SBAT","flightCategory":"VFR","rawOb":"METAR SBAT 042100Z 33003KT 9999 FEW035 BKN100 26/25 Q1012","temp":26,"dewp":25,"wdir":330,"wspd":3,"visib":"6+","altim":1012,"clouds":[{"cover":"FEW","base":3500},{"cover":"BKN","base":10000}],"obsTime":1777928400},"SBBR":{"icaoId":"SBBR","flightCategory":"VFR","rawOb":"METAR SBBR 042100Z 13006KT 9999 FEW035 BKN100 24/16 Q1021","temp":24,"dewp":16,"wdir":130,"wspd":6,"visib":"6+","altim":1021,"clouds":[{"cover":"FEW","base":3500},{"cover":"BKN","base":10000}],"obsTime":1777928400},"SBCR":{"icaoId":"SBCR","flightCategory":"VFR","rawOb":"METAR SBCR 042100Z 06009KT 9999 FEW030 31/18 Q1011","temp":31,"dewp":18,"wdir":60,"wspd":9,"visib":"6+","altim":1011,"clouds":[{"cover":"FEW","base":3000}],"obsTime":1777928400},"SBHT":{"icaoId":"SBHT","flightCategory":"VFR","rawOb":"METAR SBHT 042100Z 10002KT 9999 SCT025 29/24 Q1009","temp":29,"dewp":24,"wdir":100,"wspd":2,"visib":"6+","altim":1009,"clouds":[{"cover":"SCT","base":2500}],"obsTime":1777928400},"SBSM":{"icaoId":"SBSM","flightCategory":"MVFR","rawOb":"METAR SBSM 042100Z 00000KT 9999 BKN023 BKN070 19/18 Q1013","temp":19,"dewp":18,"wdir":0,"wspd":0,"visib":"6+","altim":1013,"clouds":[{"cover":"BKN","base":2300},{"cover":"BKN","base":7000}],"obsTime":1777928400},"SBAX":{"icaoId":"SBAX","flightCategory":"VFR","rawOb":"METAR SBAX 042100Z 05003KT 9999 FEW030 24/14 Q1021","temp":24,"dewp":14,"wdir":50,"wspd":3,"visib":"6+","altim":1021,"clouds":[{"cover":"FEW","base":3000}],"obsTime":1777928400},"SBBH":{"icaoId":"SBBH","flightCategory":"VFR","rawOb":"METAR SBBH 042100Z 10005KT CAVOK 23/16 Q1022","temp":23,"dewp":16,"wdir":100,"wspd":5,"visib":"6+","altim":1022,"clouds":[],"obsTime":1777928400},"SBBU":{"icaoId":"SBBU","flightCategory":"VFR","rawOb":"METAR SBBU 042100Z 17003KT CAVOK 28/19 Q1018","temp":28,"dewp":19,"wdir":170,"wspd":3,"visib":"6+","altim":1018,"clouds":[],"obsTime":1777928400},"SBCA":{"icaoId":"SBCA","flightCategory":"VFR","rawOb":"METAR SBCA 042100Z 03009KT CAVOK 23/17 Q1018","temp":23,"dewp":17,"wdir":30,"wspd":9,"visib":"6+","altim":1018,"clouds":[],"obsTime":1777928400},"SBCO":{"icaoId":"SBCO","flightCategory":"VFR","rawOb":"METAR SBCO 042100Z 36008KT 330V050 9999 FEW030TCU BKN036 22/18 Q1014","temp":22,"dewp":18,"wdir":360,"wspd":8,"visib":"6+","altim":1014,"clouds":[{"cover":"FEW","base":3000},{"cover":"BKN","base":3600}],"obsTime":1777928400},"SBDN":{"icaoId":"SBDN","flightCategory":"VFR","rawOb":"METAR SBDN 042100Z 08004KT CAVOK 28/17 Q1016","temp":28,"dewp":17,"wdir":80,"wspd":4,"visib":"6+","altim":1016,"clouds":[],"obsTime":1777928400},"SBIP":{"icaoId":"SBIP","flightCategory":"VFR","rawOb":"METAR SBIP 042100Z AUTO 32002KT CAVOK 23/19 Q1020","temp":23,"dewp":19,"wdir":320,"wspd":2,"visib":"6+","altim":1020,"clouds":[],"obsTime":1777928400},"SBKG":{"icaoId":"SBKG","flightCategory":"VFR","rawOb":"METAR SBKG 042100Z 12007KT CAVOK 24/22 Q1015","temp":24,"dewp":22,"wdir":120,"wspd":7,"visib":"6+","altim":1015,"clouds":[],"obsTime":1777928400},"SBOI":{"icaoId":"SBOI","flightCategory":"VFR","rawOb":"METAR SBOI 042100Z AUTO 03006KT CAVOK 28/24 Q1011","temp":28,"dewp":24,"wdir":30,"wspd":6,"visib":"6+","altim":1011,"clouds":[],"obsTime":1777928400},"SBPL":{"icaoId":"SBPL","flightCategory":"VFR","rawOb":"METAR SBPL 042100Z 15007KT 9999 FEW030 BKN070 30/18 Q1014","temp":30,"dewp":18,"wdir":150,"wspd":7,"visib":"6+","altim":1014,"clouds":[{"cover":"FEW","base":3000},{"cover":"BKN","base":7000}],"obsTime":1777928400},"SBPS":{"icaoId":"SBPS","flightCategory":"VFR","rawOb":"METAR SBPS 042100Z 25006KT 9999 SCT020 FEW025TCU BKN050 23/22 Q1017","temp":23,"dewp":22,"wdir":250,"wspd":6,"visib":"6+","altim":1017,"clouds":[{"cover":"SCT","base":2000},{"cover":"FEW","base":2500},{"cover":"BKN","base":5000}],"obsTime":1777928400},"SBSC":{"icaoId":"SBSC","flightCategory":"VFR","rawOb":"METAR SBSC 042100Z 09002KT CAVOK 24/19 Q1018","temp":24,"dewp":19,"wdir":90,"wspd":2,"visib":"6+","altim":1018,"clouds":[],"obsTime":1777928400},"SBSJ":{"icaoId":"SBSJ","flightCategory":"VFR","rawOb":"METAR SBSJ 042100Z 32002KT 9999 -RA SCT045 FEW050TCU BKN080 24/18 Q1020","temp":24,"dewp":18,"wdir":320,"wspd":2,"visib":"6+","altim":1020,"clouds":[{"cover":"SCT","base":4500},{"cover":"FEW","base":5000},{"cover":"BKN","base":8000}],"obsTime":1777928400},"SBAR":{"icaoId":"SBAR","flightCategory":"VFR","rawOb":"METAR SBAR 042100Z 14010KT 9999 4000N SHRA SCT023 FEW026TCU BKN070 26/23 Q1014 RESHRA","temp":26,"dewp":23,"wdir":140,"wspd":10,"visib":"6+","altim":1014,"clouds":[{"cover":"SCT","base":2300},{"cover":"FEW","base":2600},{"cover":"BKN","base":7000}],"obsTime":1777928400},"SBSR":{"icaoId":"SBSR","flightCategory":"VFR","rawOb":"METAR SBSR 042100Z 02002KT 9999 FEW010 31/12 Q1017","temp":31,"dewp":12,"wdir":20,"wspd":2,"visib":"6+","altim":1017,"clouds":[{"cover":"FEW","base":1000}],"obsTime":1777928400},"SBTF":{"icaoId":"SBTF","flightCategory":"VFR","rawOb":"METAR SBTF 042100Z 31005KT 9999 SCT020 SCT090 31/25 Q1009","temp":31,"dewp":25,"wdir":310,"wspd":5,"visib":"6+","altim":1009,"clouds":[{"cover":"SCT","base":2000},{"cover":"SCT","base":9000}],"obsTime":1777928400},"SBTT":{"icaoId":"SBTT","flightCategory":"VFR","rawOb":"METAR SBTT 042100Z 31003KT 9999 FEW022 28/22 Q1010","temp":28,"dewp":22,"wdir":310,"wspd":3,"visib":"6+","altim":1010,"clouds":[{"cover":"FEW","base":2200}],"obsTime":1777928400},"SBUY":{"icaoId":"SBUY","flightCategory":"VFR","rawOb":"METAR SBUY 042100Z 32003KT 9999 VCSH FEW025 FEW035TCU 27/25 Q1008","temp":27,"dewp":25,"wdir":320,"wspd":3,"visib":"6+","altim":1008,"clouds":[{"cover":"FEW","base":2500},{"cover":"FEW","base":3500}],"obsTime":1777928400},"SBVH":{"icaoId":"SBVH","flightCategory":"VFR","rawOb":"METAR SBVH 042100Z 06004KT 9999 FEW045 29/19 Q1014","temp":29,"dewp":19,"wdir":60,"wspd":4,"visib":"6+","altim":1014,"clouds":[{"cover":"FEW","base":4500}],"obsTime":1777928400},"SBPB":{"icaoId":"SBPB","flightCategory":"MVFR","rawOb":"METAR SBPB 042100Z 09008KT 9999 BKN020 BKN100 29/25 Q1011","temp":29,"dewp":25,"wdir":90,"wspd":8,"visib":"6+","altim":1011,"clouds":[{"cover":"BKN","base":2000},{"cover":"BKN","base":10000}],"obsTime":1777928400},"SBCJ":{"icaoId":"SBCJ","flightCategory":"VFR","rawOb":"METAR SBCJ 042100Z 00000KT 9999 FEW023 26/22 Q1014","temp":26,"dewp":22,"wdir":0,"wspd":0,"visib":"6+","altim":1014,"clouds":[{"cover":"FEW","base":2300}],"obsTime":1777928400},"SBPP":{"icaoId":"SBPP","flightCategory":"VFR","rawOb":"METAR SBPP 042100Z 05005KT CAVOK 27/20 Q1015","temp":27,"dewp":20,"wdir":50,"wspd":5,"visib":"6+","altim":1015,"clouds":[],"obsTime":1777928400},"SBES":{"icaoId":"SBES","flightCategory":"VFR","rawOb":"METAR SBES 042100Z VRB03KT CAVOK 21/// Q1020","temp":null,"dewp":null,"wdir":"VRB","wspd":3,"visib":"6+","altim":1020,"clouds":[],"obsTime":1777928400},"SBAF":{"icaoId":"SBAF","flightCategory":"VFR","rawOb":"METAR SBAF 042100Z 09005KT CAVOK 24/20 Q1019","temp":24,"dewp":20,"wdir":90,"wspd":5,"visib":"6+","altim":1019,"clouds":[],"obsTime":1777928400},"SBGW":{"icaoId":"SBGW","flightCategory":"VFR","rawOb":"METAR SBGW 042100Z 03008KT CAVOK 23/15 Q1019","temp":23,"dewp":15,"wdir":30,"wspd":8,"visib":"6+","altim":1019,"clouds":[],"obsTime":1777928400},"SBJR":{"icaoId":"SBJR","flightCategory":"VFR","rawOb":"METAR SBJR 042100Z 11004KT CAVOK 24/18 Q1018","temp":24,"dewp":18,"wdir":110,"wspd":4,"visib":"6+","altim":1018,"clouds":[],"obsTime":1777928400},"SBLS":{"icaoId":"SBLS","flightCategory":"VFR","rawOb":"METAR SBLS 042100Z 12006KT 060V120 9999 FEW043 22/16 Q1022","temp":22,"dewp":16,"wdir":120,"wspd":6,"visib":"6+","altim":1022,"clouds":[{"cover":"FEW","base":4300}],"obsTime":1777928400},"SBMT":{"icaoId":"SBMT","flightCategory":"VFR","rawOb":"METAR SBMT 042100Z 13006KT 9999 FEW040 20/17 Q1020","temp":20,"dewp":17,"wdir":130,"wspd":6,"visib":"6+","altim":1020,"clouds":[{"cover":"FEW","base":4000}],"obsTime":1777928400},"SBTA":{"icaoId":"SBTA","flightCategory":"VFR","rawOb":"METAR SBTA 042100Z 04005KT 9999 FEW035 SCT060 23/16 Q1019","temp":23,"dewp":16,"wdir":40,"wspd":5,"visib":"6+","altim":1019,"clouds":[{"cover":"FEW","base":3500},{"cover":"SCT","base":6000}],"obsTime":1777928400},"SBJV":{"icaoId":"SBJV","flightCategory":"MVFR","rawOb":"METAR SBJV 042100Z 34003KT 9999 SCT015 BKN030 21/20 Q1017","temp":21,"dewp":20,"wdir":340,"wspd":3,"visib":"6+","altim":1017,"clouds":[{"cover":"SCT","base":1500},{"cover":"BKN","base":3000}],"obsTime":1777928400},"SBNM":{"icaoId":"SBNM","flightCategory":"VFR","rawOb":"METAR SBNM 042100Z 14002KT 9999 FEW025 SCT035 23/21 Q1014","temp":23,"dewp":21,"wdir":140,"wspd":2,"visib":"6+","altim":1014,"clouds":[{"cover":"FEW","base":2500},{"cover":"SCT","base":3500}],"obsTime":1777928400},"SBAN":{"icaoId":"SBAN","flightCategory":"VFR","rawOb":"METAR SBAN 042100Z 16007KT 9999 FEW040 SCT080 23/16 Q1021","temp":23,"dewp":16,"wdir":160,"wspd":7,"visib":"6+","altim":1021,"clouds":[{"cover":"FEW","base":4000},{"cover":"SCT","base":8000}],"obsTime":1777928400},"SBLE":{"icaoId":"SBLE","flightCategory":"VFR","rawOb":"METAR SBLE 042100Z AUTO 36001KT CAVOK 23/22 Q1017","temp":23,"dewp":22,"wdir":360,"wspd":1,"visib":"6+","altim":1017,"clouds":[],"obsTime":1777928400},"SBJP":{"icaoId":"SBJP","flightCategory":"VFR","rawOb":"METAR SBJP 042100Z 13008KT 9999 FEW030 27/24 Q1013","temp":27,"dewp":24,"wdir":130,"wspd":8,"visib":"6+","altim":1013,"clouds":[{"cover":"FEW","base":3000}],"obsTime":1777928400},"SBIH":{"icaoId":"SBIH","flightCategory":"VFR","rawOb":"METAR SBIH 042100Z 16010KT 9999 TS VCSH FEW018 FEW025CB SCT080 30/24 Q1009","temp":30,"dewp":24,"wdir":160,"wspd":10,"visib":"6+","altim":1009,"clouds":[{"cover":"FEW","base":1800},{"cover":"FEW","base":2500},{"cover":"SCT","base":8000}],"obsTime":1777928400},"SBPF":{"icaoId":"SBPF","flightCategory":"VFR","rawOb":"METAR SBPF 042100Z 04010KT 9999 FEW006 BKN070 20/15 Q1017","temp":20,"dewp":15,"wdir":40,"wspd":10,"visib":"6+","altim":1017,"clouds":[{"cover":"FEW","base":600},{"cover":"BKN","base":7000}],"obsTime":1777928400},"SBST":{"icaoId":"SBST","flightCategory":"VFR","rawOb":"METAR SBST 042100Z /////KT 9999 BKN040 ///// Q1018","temp":null,"dewp":null,"wdir":null,"wspd":null,"visib":"6+","altim":1018,"clouds":[{"cover":"BKN","base":4000}],"obsTime":1777928400}}}