{"updated":1777093053,"count":53,"data":{"SBRB":{"icaoId":"SBRB","flightCategory":"MVFR","rawOb":"METAR SBRB 250300Z 11002KT 7000 VCTS FEW002 FEW035CB BKN100 22/22 Q1013","temp":22,"dewp":22,"wdir":110,"wspd":2,"visib":4.35,"altim":1013,"clouds":[{"cover":"FEW","base":200},{"cover":"FEW","base":3500},{"cover":"BKN","base":10000}],"obsTime":1777086000},"SBEG":{"icaoId":"SBEG","flightCategory":"VFR","rawOb":"METAR SBEG 250300Z 00000KT 9999 FEW010 25/24 Q1012","temp":25,"dewp":24,"wdir":0,"wspd":0,"visib":"6+","altim":1012,"clouds":[{"cover":"FEW","base":1000}],"obsTime":1777086000},"SBCF":{"icaoId":"SBCF","flightCategory":"VFR","rawOb":"METAR SBCF 250300Z 19002KT CAVOK 19/16 Q1019","temp":19,"dewp":16,"wdir":190,"wspd":2,"visib":"6+","altim":1019,"clouds":[],"obsTime":1777086000},"SBFZ":{"icaoId":"SBFZ","flightCategory":"VFR","rawOb":"METAR SBFZ 250300Z 15005KT 9999 SCT020 26/24 Q1011","temp":26,"dewp":24,"wdir":150,"wspd":5,"visib":"6+","altim":1011,"clouds":[{"cover":"SCT","base":2000}],"obsTime":1777086000},"SBMO":{"icaoId":"SBMO","flightCategory":"VFR","rawOb":"METAR SBMO 250300Z 25004KT 9999 SCT020 24/23 Q1013","temp":24,"dewp":23,"wdir":250,"wspd":4,"visib":"6+","altim":1013,"clouds":[{"cover":"SCT","base":2000}],"obsTime":1777086000},"SBBE":{"icaoId":"SBBE","flightCategory":"VFR","rawOb":"METAR SBBE 250300Z 16004KT 9999 SCT020 BKN100 24/24 Q1012","temp":24,"dewp":24,"wdir":160,"wspd":4,"visib":"6+","altim":1012,"clouds":[{"cover":"SCT","base":2000},{"cover":"BKN","base":10000}],"obsTime":1777086000},"SBBV":{"icaoId":"SBBV","flightCategory":"VFR","rawOb":"METAR SBBV 250300Z 05010KT 9999 VCTS FEW030 FEW040CB 26/24 Q1012","temp":26,"dewp":24,"wdir":50,"wspd":10,"visib":"6+","altim":1012,"clouds":[{"cover":"FEW","base":3000},{"cover":"FEW","base":4000}],"obsTime":1777086000},"SBTE":{"icaoId":"SBTE","flightCategory":"VFR","rawOb":"METAR SBTE 250300Z 01005KT 9999 FEW012 OVC080 24/23 Q1013 RETS","temp":24,"dewp":23,"wdir":10,"wspd":5,"visib":"6+","altim":1013,"clouds":[{"cover":"FEW","base":1200},{"cover":"OVC","base":8000}],"obsTime":1777086000},"SBSG":{"icaoId":"SBSG","flightCategory":"VFR","rawOb":"METAR SBSG 250300Z 24004KT 9999 VCSH SCT020 BKN070 23/22 Q1012","temp":23,"dewp":22,"wdir":240,"wspd":4,"visib":"6+","altim":1012,"clouds":[{"cover":"SCT","base":2000},{"cover":"BKN","base":7000}],"obsTime":1777086000},"SBFL":{"icaoId":"SBFL","flightCategory":"MVFR","rawOb":"METAR SBFL 250300Z 33007KT 9999 BKN023 BKN100 24/21 Q1013","temp":24,"dewp":21,"wdir":330,"wspd":7,"visib":"6+","altim":1013,"clouds":[{"cover":"BKN","base":2300},{"cover":"BKN","base":10000}],"obsTime":1777086000},"SBSV":{"icaoId":"SBSV","flightCategory":"VFR","rawOb":"METAR SBSV 250300Z 13006KT 9999 SCT023 SCT070 27/23 Q1014","temp":27,"dewp":23,"wdir":130,"wspd":6,"visib":"6+","altim":1014,"clouds":[{"cover":"SCT","base":2300},{"cover":"SCT","base":7000}],"obsTime":1777086000},"SBVT":{"icaoId":"SBVT","flightCategory":"VFR","rawOb":"METAR SBVT 250300Z 30004KT 9999 SCT020 BKN040 22/21 Q1016","temp":22,"dewp":21,"wdir":300,"wspd":4,"visib":"6+","altim":1016,"clouds":[{"cover":"SCT","base":2000},{"cover":"BKN","base":4000}],"obsTime":1777086000},"SBBR":{"icaoId":"SBBR","flightCategory":"VFR","rawOb":"METAR SBBR 250300Z 18005KT CAVOK 21/17 Q1020","temp":21,"dewp":17,"wdir":180,"wspd":5,"visib":"6+","altim":1020,"clouds":[],"obsTime":1777086000},"SBPV":{"icaoId":"SBPV","flightCategory":"VFR","rawOb":"METAR SBPV 250300Z 02005KT 9999 VCTS SCT025 FEW030CB BKN100 26/23 Q1013","temp":26,"dewp":23,"wdir":20,"wspd":5,"visib":"6+","altim":1013,"clouds":[{"cover":"SCT","base":2500},{"cover":"FEW","base":3000},{"cover":"BKN","base":10000}],"obsTime":1777086000},"SBGL":{"icaoId":"SBGL","flightCategory":"VFR","rawOb":"METAR SBGL 250300Z 08002KT CAVOK 23/20 Q1014","temp":23,"dewp":20,"wdir":80,"wspd":2,"visib":"6+","altim":1014,"clouds":[],"obsTime":1777086000},"SBJU":{"icaoId":"SBJU","flightCategory":"VFR","rawOb":"METAR SBJU 250300Z 00000KT 9999 SCT020 23/23 Q1014","temp":23,"dewp":23,"wdir":0,"wspd":0,"visib":"6+","altim":1014,"clouds":[{"cover":"SCT","base":2000}],"obsTime":1777086000},"SBSL":{"icaoId":"SBSL","flightCategory":"VFR","rawOb":"METAR SBSL 250300Z 17002KT 9999 FEW022 BKN080 25/24 Q1012","temp":25,"dewp":24,"wdir":170,"wspd":2,"visib":"6+","altim":1012,"clouds":[{"cover":"FEW","base":2200},{"cover":"BKN","base":8000}],"obsTime":1777086000},"SBSN":{"icaoId":"SBSN","flightCategory":"VFR","rawOb":"METAR SBSN 250300Z 16003KT 9999 -RA FEW016 SCT073 25/24 Q1012","temp":25,"dewp":24,"wdir":160,"wspd":3,"visib":"6+","altim":1012,"clouds":[{"cover":"FEW","base":1600},{"cover":"SCT","base":7300}],"obsTime":1777086000},"SBME":{"icaoId":"SBME","flightCategory":"VFR","rawOb":"METAR SBME 250300Z 01003KT CAVOK 21/19 Q1016","temp":21,"dewp":19,"wdir":10,"wspd":3,"visib":"6+","altim":1016,"clouds":[],"obsTime":1777086000},"SBMK":{"icaoId":"SBMK","flightCategory":"VFR","rawOb":"METAR SBMK 250300Z 36001KT CAVOK 20/18 Q1018","temp":20,"dewp":18,"wdir":360,"wspd":1,"visib":"6+","altim":1018,"clouds":[],"obsTime":1777086000},"SBUL":{"icaoId":"SBUL","flightCategory":"VFR","rawOb":"METAR SBUL 250300Z 13004KT CAVOK 21/15 Q1019","temp":21,"dewp":15,"wdir":130,"wspd":4,"visib":"6+","altim":1019,"clouds":[],"obsTime":1777086000},"SBUR":{"icaoId":"SBUR","flightCategory":"VFR","rawOb":"METAR SBUR 250300Z 04004KT CAVOK 22/14 Q1018","temp":22,"dewp":14,"wdir":40,"wspd":4,"visib":"6+","altim":1018,"clouds":[],"obsTime":1777086000},"SBMG":{"icaoId":"SBMG","flightCategory":"VFR","rawOb":"METAR SBMG 250300Z 06004KT CAVOK 24/17 Q1014","temp":24,"dewp":17,"wdir":60,"wspd":4,"visib":"6+","altim":1014,"clouds":[],"obsTime":1777086000},"SBMA":{"icaoId":"SBMA","flightCategory":"VFR","rawOb":"METAR SBMA 250300Z 34003KT 9999 FEW008 BKN080 25/24 Q1013","temp":25,"dewp":24,"wdir":340,"wspd":3,"visib":"6+","altim":1013,"clouds":[{"cover":"FEW","base":800},{"cover":"BKN","base":8000}],"obsTime":1777086000},"SBMQ":{"icaoId":"SBMQ","flightCategory":"MVFR","rawOb":"METAR SBMQ 250300Z 10002KT 9999 BKN015 BKN028 26/25 Q1011","temp":26,"dewp":25,"wdir":100,"wspd":2,"visib":"6+","altim":1011,"clouds":[{"cover":"BKN","base":1500},{"cover":"BKN","base":2800}],"obsTime":1777086000},"SBCG":{"icaoId":"SBCG","flightCategory":"VFR","rawOb":"METAR SBCG 250300Z 05001KT CAVOK 21/18 Q1015","temp":21,"dewp":18,"wdir":50,"wspd":1,"visib":"6+","altim":1015,"clouds":[],"obsTime":1777086000},"SBFI":{"icaoId":"SBFI","flightCategory":"VFR","rawOb":"METAR SBFI 250300Z 12004KT CAVOK 19/19 Q1013","temp":19,"dewp":19,"wdir":120,"wspd":4,"visib":"6+","altim":1013,"clouds":[],"obsTime":1777086000},"SBKP":{"icaoId":"SBKP","flightCategory":"VFR","rawOb":"METAR SBKP 250300Z 11006KT CAVOK 20/16 Q1017","temp":20,"dewp":16,"wdir":110,"wspd":6,"visib":"6+","altim":1017,"clouds":[],"obsTime":1777086000},"SBNT":{"icaoId":"SBNT","flightCategory":"VFR","rawOb":"METAR SBNT 250300Z VRB01KT 9999 FEW023 SCT050 BKN090 23/22 Q1012","temp":23,"dewp":22,"wdir":"VRB","wspd":1,"visib":"6+","altim":1012,"clouds":[{"cover":"FEW","base":2300},{"cover":"SCT","base":5000},{"cover":"BKN","base":9000}],"obsTime":1777086000},"SBCT":{"icaoId":"SBCT","flightCategory":"LIFR","rawOb":"METAR SBCT 250300Z 02004KT 0400 R33/0600 R15/2000 FG OVC001 17/17 Q1018","temp":17,"dewp":17,"wdir":20,"wspd":4,"visib":0.25,"altim":1018,"clouds":[{"cover":"OVC","base":100}],"obsTime":1777086000},"SBSP":{"icaoId":"SBSP","flightCategory":"VFR","rawOb":"METAR SBSP 250300Z AUTO 05003KT 030V090 CAVOK 21/17 Q1018","temp":21,"dewp":17,"wdir":50,"wspd":3,"visib":"6+","altim":1018,"clouds":[],"obsTime":1777086000},"SBPJ":{"icaoId":"SBPJ","flightCategory":"VFR","rawOb":"METAR SBPJ 250300Z 16003KT 120V200 9999 FEW030 SCT090 26/24 Q1013","temp":26,"dewp":24,"wdir":160,"wspd":3,"visib":"6+","altim":1013,"clouds":[{"cover":"FEW","base":3000},{"cover":"SCT","base":9000}],"obsTime":1777086000},"SBGO":{"icaoId":"SBGO","flightCategory":"VFR","rawOb":"METAR SBGO 250300Z 13003KT CAVOK 22/16 Q1018","temp":22,"dewp":16,"wdir":130,"wspd":3,"visib":"6+","altim":1018,"clouds":[],"obsTime":1777086000},"SBGR":{"icaoId":"SBGR","flightCategory":"VFR","rawOb":"METAR SBGR 250300Z 07004KT CAVOK 19/16 Q1018","temp":19,"dewp":16,"wdir":70,"wspd":4,"visib":"6+","altim":1018,"clouds":[],"obsTime":1777086000},"SBLO":{"icaoId":"SBLO","flightCategory":"VFR","rawOb":"METAR SBLO 250300Z 20002KT CAVOK 22/18 Q1015","temp":22,"dewp":18,"wdir":200,"wspd":2,"visib":"6+","altim":1015,"clouds":[],"obsTime":1777086000},"SBPA":{"icaoId":"SBPA","flightCategory":"IFR","rawOb":"METAR SBPA 250300Z 27003KT 7000 -RA BKN006 BKN030 21/20 Q1012","temp":21,"dewp":20,"wdir":270,"wspd":3,"visib":4.35,"altim":1012,"clouds":[{"cover":"BKN","base":600},{"cover":"BKN","base":3000}],"obsTime":1777086000},"SBRF":{"icaoId":"SBRF","flightCategory":"VFR","rawOb":"METAR SBRF 250300Z 15009KT 9999 SCT023 27/23 Q1012","temp":27,"dewp":23,"wdir":150,"wspd":9,"visib":"6+","altim":1012,"clouds":[{"cover":"SCT","base":2300}],"obsTime":1777086000},"SBDN":{"icaoId":"SBDN","flightCategory":"VFR","rawOb":"METAR SBDN 250300Z 12003KT CAVOK 23/17 Q1014","temp":23,"dewp":17,"wdir":120,"wspd":3,"visib":"6+","altim":1014,"clouds":[],"obsTime":1777086000},"SBOI":{"icaoId":"SBOI","flightCategory":"LIFR","rawOb":"METAR SBOI 250300Z AUTO 00000KT 0800 // VV001 23/23 Q1012","temp":23,"dewp":23,"wdir":0,"wspd":0,"visib":0.5,"altim":1012,"clouds":[{"cover":"OVX","base":100}],"obsTime":1777086000},"SBAX":{"icaoId":"SBAX","flightCategory":"VFR","rawOb":"METAR SBAX 250300Z AUTO 11005KT CAVOK 20/14 Q1020","temp":20,"dewp":14,"wdir":110,"wspd":5,"visib":"6+","altim":1020,"clouds":[],"obsTime":1777086000},"SBPL":{"icaoId":"SBPL","flightCategory":"VFR","rawOb":"METAR SBPL 250300Z 14006KT CAVOK 25/22 Q1014","temp":25,"dewp":22,"wdir":140,"wspd":6,"visib":"6+","altim":1014,"clouds":[],"obsTime":1777086000},"SBIP":{"icaoId":"SBIP","flightCategory":"VFR","rawOb":"METAR SBIP 250300Z AUTO 00000KT CAVOK 19/19 Q1017","temp":19,"dewp":19,"wdir":0,"wspd":0,"visib":"6+","altim":1017,"clouds":[],"obsTime":1777086000},"SBPS":{"icaoId":"SBPS","flightCategory":"VFR","rawOb":"METAR SBPS 250300Z 24005KT 9999 FEW015 BKN070 23/22 Q1016","temp":23,"dewp":22,"wdir":240,"wspd":5,"visib":"6+","altim":1016,"clouds":[{"cover":"FEW","base":1500},{"cover":"BKN","base":7000}],"obsTime":1777086000},"SBSC":{"icaoId":"SBSC","flightCategory":"VFR","rawOb":"METAR SBSC 250300Z 34002KT CAVOK 21/19 Q1015","temp":21,"dewp":19,"wdir":340,"wspd":2,"visib":"6+","altim":1015,"clouds":[],"obsTime":1777086000},"SBKG":{"icaoId":"SBKG","flightCategory":"VFR","rawOb":"METAR SBKG 250300Z 14005KT CAVOK 22/21 Q1015","temp":22,"dewp":21,"wdir":140,"wspd":5,"visib":"6+","altim":1015,"clouds":[],"obsTime":1777086000},"SBAR":{"icaoId":"SBAR","flightCategory":"VFR","rawOb":"METAR SBAR 250300Z 13009KT 9999 FEW015 SCT020 28/24 Q1013","temp":28,"dewp":24,"wdir":130,"wspd":9,"visib":"6+","altim":1013,"clouds":[{"cover":"FEW","base":1500},{"cover":"SCT","base":2000}],"obsTime":1777086000},"SBSR":{"icaoId":"SBSR","flightCategory":"VFR","rawOb":"METAR SBSR 250300Z 00000KT CAVOK 24/17 Q1016","temp":24,"dewp":17,"wdir":0,"wspd":0,"visib":"6+","altim":1016,"clouds":[],"obsTime":1777086000},"SBCO":{"icaoId":"SBCO","flightCategory":"IFR","rawOb":"METAR SBCO 250300Z 29002KT 6000 -RA BKN007 OVC027 20/20 Q1013","temp":20,"dewp":20,"wdir":290,"wspd":2,"visib":3.73,"altim":1013,"clouds":[{"cover":"BKN","base":700},{"cover":"OVC","base":2700}],"obsTime":1777086000},"SBSM":{"icaoId":"SBSM","flightCategory":"LIFR","rawOb":"METAR SBSM 250300Z VRB02KT 3000 -RADZ BR BKN003 OVC010 19/19 Q1014","temp":19,"dewp":19,"wdir":"VRB","wspd":2,"visib":1.86,"altim":1014,"clouds":[{"cover":"BKN","base":300},{"cover":"OVC","base":1000}],"obsTime":1777086000},"SBLE":{"icaoId":"SBLE","flightCategory":"LIFR","rawOb":"METAR SBLE 250300Z AUTO VRB02KT 9999 BKN002 OVC010 ///// Q////","temp":null,"dewp":null,"wdir":"VRB","wspd":2,"visib":"6+","altim":null,"clouds":[{"cover":"BKN","base":200},{"cover":"OVC","base":1000}],"obsTime":1777086000},"SBAN":{"icaoId":"SBAN","flightCategory":"VFR","rawOb":"METAR SBAN 250300Z 17007KT CAVOK 19/13 Q1020","temp":19,"dewp":13,"wdir":170,"wspd":7,"visib":"6+","altim":1020,"clouds":[],"obsTime":1777086000},"SBJP":{"icaoId":"SBJP","flightCategory":"VFR","rawOb":"METAR SBJP 250300Z 18005KT 9999 SCT023 25/23 Q1012","temp":25,"dewp":23,"wdir":180,"wspd":5,"visib":"6+","altim":1012,"clouds":[{"cover":"SCT","base":2300}],"obsTime":1777086000},"SBTA":{"icaoId":"SBTA","flightCategory":"VFR","rawOb":"METAR SBTA 250300Z VRB01KT CAVOK 17/16 Q1016","temp":17,"dewp":16,"wdir":"VRB","wspd":1,"visib":"6+","altim":1016,"clouds":[],"obsTime":1777086000}}}