{"updated":1773751150,"count":87,"data":{"SBBE":{"icaoId":"SBBE","flightCategory":"IFR","rawOb":"METAR SBBE 171100Z 03003KT 8000 BKN009 BKN020 BKN050 26/26 Q1011","temp":26,"dewp":26,"wdir":30,"wspd":3,"visib":4.97,"altim":1011,"clouds":[{"cover":"BKN","base":900},{"cover":"BKN","base":2000},{"cover":"BKN","base":5000}],"obsTime":1773745200},"SBAT":{"icaoId":"SBAT","flightCategory":"VFR","rawOb":"METAR SBAT 171200Z 11003KT 9999 SCT018 BKN070 26/23 Q1014","temp":26,"dewp":23,"wdir":110,"wspd":3,"visib":"6+","altim":1014,"clouds":[{"cover":"SCT","base":1800},{"cover":"BKN","base":7000}],"obsTime":1773748800},"SBBR":{"icaoId":"SBBR","flightCategory":"VFR","rawOb":"METAR SBBR 171100Z 34003KT 310V030 9999 FEW040 SCT070 23/20 Q1019","temp":23,"dewp":20,"wdir":340,"wspd":3,"visib":"6+","altim":1019,"clouds":[{"cover":"FEW","base":4000},{"cover":"SCT","base":7000}],"obsTime":1773745200},"SBBV":{"icaoId":"SBBV","flightCategory":"VFR","rawOb":"METAR SBBV 171100Z 09009KT CAVOK 25/21 Q1012","temp":25,"dewp":21,"wdir":90,"wspd":9,"visib":"6+","altim":1012,"clouds":[],"obsTime":1773745200},"SBCB":{"icaoId":"SBCB","flightCategory":"VFR","rawOb":"METAR SBCB 171100Z 07008KT CAVOK 26/22 Q1014","temp":26,"dewp":22,"wdir":70,"wspd":8,"visib":"6+","altim":1014,"clouds":[],"obsTime":1773745200},"SBCF":{"icaoId":"SBCF","flightCategory":"VFR","rawOb":"METAR SBCF 171100Z 11006KT 070V140 9999 FEW015 23/20 Q1018","temp":23,"dewp":20,"wdir":110,"wspd":6,"visib":"6+","altim":1018,"clouds":[{"cover":"FEW","base":1500}],"obsTime":1773745200},"SBCG":{"icaoId":"SBCG","flightCategory":"VFR","rawOb":"METAR SBCG 171100Z 01009KT 9999 FEW020 26/22 Q1012","temp":26,"dewp":22,"wdir":10,"wspd":9,"visib":"6+","altim":1012,"clouds":[{"cover":"FEW","base":2000}],"obsTime":1773745200},"SBCP":{"icaoId":"SBCP","flightCategory":"VFR","rawOb":"METAR SBCP 171100Z 02003KT 9999 FEW020 26/22 Q1014","temp":26,"dewp":22,"wdir":20,"wspd":3,"visib":"6+","altim":1014,"clouds":[{"cover":"FEW","base":2000}],"obsTime":1773745200},"SBCR":{"icaoId":"SBCR","flightCategory":"VFR","rawOb":"METAR SBCR 171100Z 04005KT 360V090 CAVOK 28/24 Q1009","temp":28,"dewp":24,"wdir":40,"wspd":5,"visib":"6+","altim":1009,"clouds":[],"obsTime":1773745200},"SBCT":{"icaoId":"SBCT","flightCategory":"VFR","rawOb":"METAR SBCT 171100Z VRB02KT CAVOK 20/19 Q1018","temp":20,"dewp":19,"wdir":"VRB","wspd":2,"visib":"6+","altim":1018,"clouds":[],"obsTime":1773745200},"SBCZ":{"icaoId":"SBCZ","flightCategory":"VFR","rawOb":"METAR SBCZ 171200Z 24004KT 9000 FEW006 OVC100 24/24 Q1010","temp":24,"dewp":24,"wdir":240,"wspd":4,"visib":5.59,"altim":1010,"clouds":[{"cover":"FEW","base":600},{"cover":"OVC","base":10000}],"obsTime":1773748800},"SBEG":{"icaoId":"SBEG","flightCategory":"VFR","rawOb":"METAR SBEG 171100Z 12002KT CAVOK 25/24 Q1010","temp":25,"dewp":24,"wdir":120,"wspd":2,"visib":"6+","altim":1010,"clouds":[],"obsTime":1773745200},"SBFI":{"icaoId":"SBFI","flightCategory":"VFR","rawOb":"METAR SBFI 171100Z 12001KT 9999 SCT020 BKN090 23/23 Q1010","temp":23,"dewp":23,"wdir":120,"wspd":1,"visib":"6+","altim":1010,"clouds":[{"cover":"SCT","base":2000},{"cover":"BKN","base":9000}],"obsTime":1773745200},"SBFL":{"icaoId":"SBFL","flightCategory":"VFR","rawOb":"METAR SBFL 171100Z 01009KT 9999 SCT016 BKN040 27/23 Q1013","temp":27,"dewp":23,"wdir":10,"wspd":9,"visib":"6+","altim":1013,"clouds":[{"cover":"SCT","base":1600},{"cover":"BKN","base":4000}],"obsTime":1773745200},"SBFZ":{"icaoId":"SBFZ","flightCategory":"MVFR","rawOb":"METAR SBFZ 171100Z 14003KT 9999 BKN020 28/25 Q1011","temp":28,"dewp":25,"wdir":140,"wspd":3,"visib":"6+","altim":1011,"clouds":[{"cover":"BKN","base":2000}],"obsTime":1773745200},"SBGL":{"icaoId":"SBGL","flightCategory":"IFR","rawOb":"METAR SBGL 171100Z 03003KT 360V070 9999 BKN009 25/23 Q1014","temp":25,"dewp":23,"wdir":30,"wspd":3,"visib":"6+","altim":1014,"clouds":[{"cover":"BKN","base":900}],"obsTime":1773745200},"SBGO":{"icaoId":"SBGO","flightCategory":"MVFR","rawOb":"METAR SBGO 171100Z 32005KT 9999 -RA FEW005 BKN014 OVC100 22/21 Q1017","temp":22,"dewp":21,"wdir":320,"wspd":5,"visib":"6+","altim":1017,"clouds":[{"cover":"FEW","base":500},{"cover":"BKN","base":1400},{"cover":"OVC","base":10000}],"obsTime":1773745200},"SBGR":{"icaoId":"SBGR","flightCategory":"VFR","rawOb":"METAR SBGR 171100Z 07008KT CAVOK 21/19 Q1017","temp":21,"dewp":19,"wdir":70,"wspd":8,"visib":"6+","altim":1017,"clouds":[],"obsTime":1773745200},"SBHT":{"icaoId":"SBHT","flightCategory":"VFR","rawOb":"METAR SBHT 171100Z 13003KT 9999 SCT010 BKN080 26/24 Q1011","temp":26,"dewp":24,"wdir":130,"wspd":3,"visib":"6+","altim":1011,"clouds":[{"cover":"SCT","base":1000},{"cover":"BKN","base":8000}],"obsTime":1773745200},"SBIL":{"icaoId":"SBIL","flightCategory":"VFR","rawOb":"METAR SBIL 171100Z 30004KT 9999 FEW023 26/24 Q1013","temp":26,"dewp":24,"wdir":300,"wspd":4,"visib":"6+","altim":1013,"clouds":[{"cover":"FEW","base":2300}],"obsTime":1773745200},"SBJU":{"icaoId":"SBJU","flightCategory":"IFR","rawOb":"METAR SBJU 171100Z 12010KT 3000 -RA SCT010 BKN015 23/22 Q1015","temp":23,"dewp":22,"wdir":120,"wspd":10,"visib":1.86,"altim":1015,"clouds":[{"cover":"SCT","base":1000},{"cover":"BKN","base":1500}],"obsTime":1773745200},"SBKP":{"icaoId":"SBKP","flightCategory":"VFR","rawOb":"METAR SBKP 171100Z 12005KT CAVOK 22/18 Q1016","temp":22,"dewp":18,"wdir":120,"wspd":5,"visib":"6+","altim":1016,"clouds":[],"obsTime":1773745200},"SBLO":{"icaoId":"SBLO","flightCategory":"VFR","rawOb":"METAR SBLO 171100Z 08003KT CAVOK 24/18 Q1015","temp":24,"dewp":18,"wdir":80,"wspd":3,"visib":"6+","altim":1015,"clouds":[],"obsTime":1773745200},"SBMA":{"icaoId":"SBMA","flightCategory":"IFR","rawOb":"METAR SBMA 171100Z 13004KT 5000 -RA BKN008 OVC080 25/24 Q1012 RETS","temp":25,"dewp":24,"wdir":130,"wspd":4,"visib":3.11,"altim":1012,"clouds":[{"cover":"BKN","base":800},{"cover":"OVC","base":8000}],"obsTime":1773745200},"SBME":{"icaoId":"SBME","flightCategory":"VFR","rawOb":"METAR SBME 171100Z 08006KT CAVOK 27/22 Q1014","temp":27,"dewp":22,"wdir":80,"wspd":6,"visib":"6+","altim":1014,"clouds":[],"obsTime":1773745200},"SBMG":{"icaoId":"SBMG","flightCategory":"VFR","rawOb":"METAR SBMG 171100Z 04010KT CAVOK 25/18 Q1013","temp":25,"dewp":18,"wdir":40,"wspd":10,"visib":"6+","altim":1013,"clouds":[],"obsTime":1773745200},"SBMK":{"icaoId":"SBMK","flightCategory":"VFR","rawOb":"METAR SBMK 171100Z 11003KT CAVOK 25/21 Q1017","temp":25,"dewp":21,"wdir":110,"wspd":3,"visib":"6+","altim":1017,"clouds":[],"obsTime":1773745200},"SBMO":{"icaoId":"SBMO","flightCategory":"VFR","rawOb":"METAR SBMO 171100Z 11007KT 9999 FEW020 SCT025 BKN100 26/23 Q1013","temp":26,"dewp":23,"wdir":110,"wspd":7,"visib":"6+","altim":1013,"clouds":[{"cover":"FEW","base":2000},{"cover":"SCT","base":2500},{"cover":"BKN","base":10000}],"obsTime":1773745200},"SBMQ":{"icaoId":"SBMQ","flightCategory":"VFR","rawOb":"METAR SBMQ 171100Z 33005KT 9999 FEW005 SCT049 26/25 Q1011","temp":26,"dewp":25,"wdir":330,"wspd":5,"visib":"6+","altim":1011,"clouds":[{"cover":"FEW","base":500},{"cover":"SCT","base":4900}],"obsTime":1773745200},"SBNT":{"icaoId":"SBNT","flightCategory":"MVFR","rawOb":"METAR SBNT 171100Z 09011KT 9999 VCSH BKN020 FEW025TCU BKN048 29/25 Q1012","temp":29,"dewp":25,"wdir":90,"wspd":11,"visib":"6+","altim":1012,"clouds":[{"cover":"BKN","base":2000},{"cover":"FEW","base":2500},{"cover":"BKN","base":4800}],"obsTime":1773745200},"SBPA":{"icaoId":"SBPA","flightCategory":"VFR","rawOb":"METAR SBPA 171100Z 10007KT CAVOK 26/22 Q1010","temp":26,"dewp":22,"wdir":100,"wspd":7,"visib":"6+","altim":1010,"clouds":[],"obsTime":1773745200},"SBPJ":{"icaoId":"SBPJ","flightCategory":"MVFR","rawOb":"METAR SBPJ 171100Z 16002KT 9999 BKN016 26/24 Q1014","temp":26,"dewp":24,"wdir":160,"wspd":2,"visib":"6+","altim":1014,"clouds":[{"cover":"BKN","base":1600}],"obsTime":1773745200},"SBPV":{"icaoId":"SBPV","flightCategory":"VFR","rawOb":"METAR SBPV 171100Z 36003KT CAVOK 25/24 Q1009","temp":25,"dewp":24,"wdir":360,"wspd":3,"visib":"6+","altim":1009,"clouds":[],"obsTime":1773745200},"SBRB":{"icaoId":"SBRB","flightCategory":"VFR","rawOb":"METAR SBRB 171100Z 35002KT 9999 FEW030 BKN100 24/24 Q1010","temp":24,"dewp":24,"wdir":350,"wspd":2,"visib":"6+","altim":1010,"clouds":[{"cover":"FEW","base":3000},{"cover":"BKN","base":10000}],"obsTime":1773745200},"SBRF":{"icaoId":"SBRF","flightCategory":"VFR","rawOb":"METAR SBRF 171100Z 07007KT 9999 SCT021 SCT050 29/25 Q1012","temp":29,"dewp":25,"wdir":70,"wspd":7,"visib":"6+","altim":1012,"clouds":[{"cover":"SCT","base":2100},{"cover":"SCT","base":5000}],"obsTime":1773745200},"SBSG":{"icaoId":"SBSG","flightCategory":"IFR","rawOb":"METAR SBSG 171100Z 09005KT 060V120 2000 RA BR BKN010 FEW023TCU 25/24 Q1013 RERA","temp":25,"dewp":24,"wdir":90,"wspd":5,"visib":1.24,"altim":1013,"clouds":[{"cover":"BKN","base":1000},{"cover":"FEW","base":2300}],"obsTime":1773745200},"SBSL":{"icaoId":"SBSL","flightCategory":"VFR","rawOb":"METAR SBSL 171100Z 13003KT 9999 SCT010 FEW020TCU BKN080 25/24 Q1012","temp":25,"dewp":24,"wdir":130,"wspd":3,"visib":"6+","altim":1012,"clouds":[{"cover":"SCT","base":1000},{"cover":"FEW","base":2000},{"cover":"BKN","base":8000}],"obsTime":1773745200},"SBSN":{"icaoId":"SBSN","flightCategory":"VFR","rawOb":"METAR SBSN 171100Z 09011KT 9999 FEW016 BKN100 27/24 Q1011","temp":27,"dewp":24,"wdir":90,"wspd":11,"visib":"6+","altim":1011,"clouds":[{"cover":"FEW","base":1600},{"cover":"BKN","base":10000}],"obsTime":1773745200},"SBSP":{"icaoId":"SBSP","flightCategory":"VFR","rawOb":"METAR SBSP 171100Z 06007KT 030V100 CAVOK 22/18 Q1018","temp":22,"dewp":18,"wdir":60,"wspd":7,"visib":"6+","altim":1018,"clouds":[],"obsTime":1773745200},"SBSV":{"icaoId":"SBSV","flightCategory":"VFR","rawOb":"METAR SBSV 171100Z 08007KT 050V110 9999 FEW014 SCT024 29/22 Q1013","temp":29,"dewp":22,"wdir":80,"wspd":7,"visib":"6+","altim":1013,"clouds":[{"cover":"FEW","base":1400},{"cover":"SCT","base":2400}],"obsTime":1773745200},"SBTE":{"icaoId":"SBTE","flightCategory":"MVFR","rawOb":"METAR SBTE 171100Z 31004KT 9999 BKN018 25/23 Q1012","temp":25,"dewp":23,"wdir":310,"wspd":4,"visib":"6+","altim":1012,"clouds":[{"cover":"BKN","base":1800}],"obsTime":1773745200},"SBUL":{"icaoId":"SBUL","flightCategory":"VFR","rawOb":"METAR SBUL 171100Z 06005KT 020V080 9999 FEW004 BKN070 21/20 Q1018","temp":21,"dewp":20,"wdir":60,"wspd":5,"visib":"6+","altim":1018,"clouds":[{"cover":"FEW","base":400},{"cover":"BKN","base":7000}],"obsTime":1773745200},"SBUR":{"icaoId":"SBUR","flightCategory":"VFR","rawOb":"METAR SBUR 171100Z 01007KT CAVOK 23/20 Q1016","temp":23,"dewp":20,"wdir":10,"wspd":7,"visib":"6+","altim":1016,"clouds":[],"obsTime":1773745200},"SBVT":{"icaoId":"SBVT","flightCategory":"VFR","rawOb":"METAR SBVT 171100Z 32005KT 9999 FEW030 26/22 Q1014","temp":26,"dewp":22,"wdir":320,"wspd":5,"visib":"6+","altim":1014,"clouds":[{"cover":"FEW","base":3000}],"obsTime":1773745200},"SBCC":{"icaoId":"SBCC","flightCategory":"VFR","rawOb":"METAR SBCC 171100Z 04007KT 9999 FEW015 BKN100 22/21 Q1014","temp":22,"dewp":21,"wdir":40,"wspd":7,"visib":"6+","altim":1014,"clouds":[{"cover":"FEW","base":1500},{"cover":"BKN","base":10000}],"obsTime":1773745200},"SBAR":{"icaoId":"SBAR","flightCategory":"VFR","rawOb":"METAR SBAR 171100Z 09010KT 9999 SCT027 30/22 Q1013","temp":30,"dewp":22,"wdir":90,"wspd":10,"visib":"6+","altim":1013,"clouds":[{"cover":"SCT","base":2700}],"obsTime":1773745200},"SBAX":{"icaoId":"SBAX","flightCategory":"VFR","rawOb":"METAR SBAX 171100Z 06004KT CAVOK 22/22 Q1018","temp":22,"dewp":22,"wdir":60,"wspd":4,"visib":"6+","altim":1018,"clouds":[],"obsTime":1773745200},"SBBH":{"icaoId":"SBBH","flightCategory":"VFR","rawOb":"METAR SBBH 171100Z 10008KT CAVOK 23/20 Q1018","temp":23,"dewp":20,"wdir":100,"wspd":8,"visib":"6+","altim":1018,"clouds":[],"obsTime":1773745200},"SBBQ":{"icaoId":"SBBQ","flightCategory":"MVFR","rawOb":"METAR SBBQ 171200Z 05006KT 010V090 9999 SCT013 BKN015 22/18 Q1021","temp":22,"dewp":18,"wdir":50,"wspd":6,"visib":"6+","altim":1021,"clouds":[{"cover":"SCT","base":1300},{"cover":"BKN","base":1500}],"obsTime":1773748800},"SBBU":{"icaoId":"SBBU","flightCategory":"VFR","rawOb":"METAR SBBU 171100Z 08008KT CAVOK 25/20 Q1015","temp":25,"dewp":20,"wdir":80,"wspd":8,"visib":"6+","altim":1015,"clouds":[],"obsTime":1773745200},"SBCA":{"icaoId":"SBCA","flightCategory":"VFR","rawOb":"METAR SBCA 171100Z 05011KT 9999 SCT040 BKN070 25/19 Q1014","temp":25,"dewp":19,"wdir":50,"wspd":11,"visib":"6+","altim":1014,"clouds":[{"cover":"SCT","base":4000},{"cover":"BKN","base":7000}],"obsTime":1773745200},"SBCJ":{"icaoId":"SBCJ","flightCategory":"IFR","rawOb":"METAR SBCJ 171100Z 06005KT 2000 -RA BR BKN007 BKN080 20/19 Q1016 RETS","temp":20,"dewp":19,"wdir":60,"wspd":5,"visib":1.24,"altim":1016,"clouds":[{"cover":"BKN","base":700},{"cover":"BKN","base":8000}],"obsTime":1773745200},"SBCO":{"icaoId":"SBCO","flightCategory":"VFR","rawOb":"METAR SBCO 171100Z 11007KT CAVOK 24/23 Q1010","temp":24,"dewp":23,"wdir":110,"wspd":7,"visib":"6+","altim":1010,"clouds":[],"obsTime":1773745200},"SBDN":{"icaoId":"SBDN","flightCategory":"VFR","rawOb":"METAR SBDN 171100Z 00000KT CAVOK 27/19 Q1013","temp":27,"dewp":19,"wdir":0,"wspd":0,"visib":"6+","altim":1013,"clouds":[],"obsTime":1773745200},"SBES":{"icaoId":"SBES","flightCategory":"VFR","rawOb":"METAR SBES 171100Z 04004KT 330V090 9999 FEW015 24/// Q1014","temp":null,"dewp":null,"wdir":40,"wspd":4,"visib":"6+","altim":1014,"clouds":[{"cover":"FEW","base":1500}],"obsTime":1773745200},"SBGM":{"icaoId":"SBGM","flightCategory":"VFR","rawOb":"METAR SBGM 171200Z 33003KT 300V010 CAVOK 26/24 Q1010","temp":26,"dewp":24,"wdir":330,"wspd":3,"visib":"6+","altim":1010,"clouds":[],"obsTime":1773748800},"SBIP":{"icaoId":"SBIP","flightCategory":"VFR","rawOb":"METAR SBIP 171100Z AUTO 36007KT CAVOK 26/22 Q1015","temp":26,"dewp":22,"wdir":360,"wspd":7,"visib":"6+","altim":1015,"clouds":[],"obsTime":1773745200},"SBKG":{"icaoId":"SBKG","flightCategory":"MVFR","rawOb":"METAR SBKG 171100Z 09008KT 9999 BKN015 SCT070 25/22 Q1015","temp":25,"dewp":22,"wdir":90,"wspd":8,"visib":"6+","altim":1015,"clouds":[{"cover":"BKN","base":1500},{"cover":"SCT","base":7000}],"obsTime":1773745200},"SBOI":{"icaoId":"SBOI","flightCategory":"VFR","rawOb":"METAR SBOI 171100Z AUTO 02004KT CAVOK 25/23 Q1012","temp":25,"dewp":23,"wdir":20,"wspd":4,"visib":"6+","altim":1012,"clouds":[],"obsTime":1773745200},"SBPB":{"icaoId":"SBPB","flightCategory":"MVFR","rawOb":"METAR SBPB 171100Z 09008KT 9999 TS BKN015 FEW025CB BKN080 27/25 Q1011","temp":27,"dewp":25,"wdir":90,"wspd":8,"visib":"6+","altim":1011,"clouds":[{"cover":"BKN","base":1500},{"cover":"FEW","base":2500},{"cover":"BKN","base":8000}],"obsTime":1773745200},"SBPL":{"icaoId":"SBPL","flightCategory":"VFR","rawOb":"METAR SBPL 171100Z 12009KT CAVOK 26/20 Q1015","temp":26,"dewp":20,"wdir":120,"wspd":9,"visib":"6+","altim":1015,"clouds":[],"obsTime":1773745200},"SBPP":{"icaoId":"SBPP","flightCategory":"VFR","rawOb":"SPECI SBPP 171115Z 02010KT CAVOK 24/22 Q1013","temp":24,"dewp":22,"wdir":20,"wspd":10,"visib":"6+","altim":1013,"clouds":[],"obsTime":1773746100},"SBPS":{"icaoId":"SBPS","flightCategory":"MVFR","rawOb":"METAR SBPS 171100Z 25003KT 9999 VCSH FEW015 BKN020 25/24 Q1014","temp":25,"dewp":24,"wdir":250,"wspd":3,"visib":"6+","altim":1014,"clouds":[{"cover":"FEW","base":1500},{"cover":"BKN","base":2000}],"obsTime":1773745200},"SBSC":{"icaoId":"SBSC","flightCategory":"VFR","rawOb":"METAR SBSC 171100Z 02006KT CAVOK 25/22 Q1013","temp":25,"dewp":22,"wdir":20,"wspd":6,"visib":"6+","altim":1013,"clouds":[],"obsTime":1773745200},"SBSJ":{"icaoId":"SBSJ","flightCategory":"MVFR","rawOb":"METAR SBSJ 171100Z 15002KT 6000 NSC 20/18 Q1017","temp":20,"dewp":18,"wdir":150,"wspd":2,"visib":3.73,"altim":1017,"clouds":[],"obsTime":1773745200},"SBSM":{"icaoId":"SBSM","flightCategory":"IFR","rawOb":"METAR SBSM 171100Z 24003KT 190V290 3000 RA BR FEW007 SCT050 BKN080 22/22 Q1011","temp":22,"dewp":22,"wdir":240,"wspd":3,"visib":1.86,"altim":1011,"clouds":[{"cover":"FEW","base":700},{"cover":"SCT","base":5000},{"cover":"BKN","base":8000}],"obsTime":1773745200},"SBSR":{"icaoId":"SBSR","flightCategory":"VFR","rawOb":"METAR SBSR 171100Z 05005KT CAVOK 24/21 Q1014","temp":24,"dewp":21,"wdir":50,"wspd":5,"visib":"6+","altim":1014,"clouds":[],"obsTime":1773745200},"SBTD":{"icaoId":"SBTD","flightCategory":"VFR","rawOb":"METAR SBTD 171100Z /////KT 9999 FEW030 SCT080 23/20 Q1012","temp":23,"dewp":20,"wdir":null,"wspd":null,"visib":"6+","altim":1012,"clouds":[{"cover":"FEW","base":3000},{"cover":"SCT","base":8000}],"obsTime":1773745200},"SBTF":{"icaoId":"SBTF","flightCategory":"VFR","rawOb":"SPECI SBTF 171115Z 30002KT 9999 SCT040 BKN070 26/26 Q1009","temp":26,"dewp":26,"wdir":300,"wspd":2,"visib":"6+","altim":1009,"clouds":[{"cover":"SCT","base":4000},{"cover":"BKN","base":7000}],"obsTime":1773746100},"SBTT":{"icaoId":"SBTT","flightCategory":"VFR","rawOb":"METAR SBTT 171100Z 16002KT 9999 FEW020 24/22 Q1009","temp":24,"dewp":22,"wdir":160,"wspd":2,"visib":"6+","altim":1009,"clouds":[{"cover":"FEW","base":2000}],"obsTime":1773745200},"SBUY":{"icaoId":"SBUY","flightCategory":"MVFR","rawOb":"METAR SBUY 171100Z 32001KT 6000 FEW002 SCT080 23/23 Q1008","temp":23,"dewp":23,"wdir":320,"wspd":1,"visib":3.73,"altim":1008,"clouds":[{"cover":"FEW","base":200},{"cover":"SCT","base":8000}],"obsTime":1773745200},"SBVH":{"icaoId":"SBVH","flightCategory":"VFR","rawOb":"METAR SBVH 171100Z 02004KT 9999 SCT005 BKN100 22/22 Q1013","temp":22,"dewp":22,"wdir":20,"wspd":4,"visib":"6+","altim":1013,"clouds":[{"cover":"SCT","base":500},{"cover":"BKN","base":10000}],"obsTime":1773745200},"SBAF":{"icaoId":"SBAF","flightCategory":"VFR","rawOb":"METAR SBAF 171100Z 05002KT 9000 FEW010 SCT015 26/25 Q1014","temp":26,"dewp":25,"wdir":50,"wspd":2,"visib":5.59,"altim":1014,"clouds":[{"cover":"FEW","base":1000},{"cover":"SCT","base":1500}],"obsTime":1773745200},"SBAN":{"icaoId":"SBAN","flightCategory":"LIFR","rawOb":"METAR SBAN 171100Z 33002KT 0500 R24R/1500 R06L/P2000 -DZ FG BKN002 BKN080 BKN100 19/19 Q1020","temp":19,"dewp":19,"wdir":330,"wspd":2,"visib":0.31,"altim":1020,"clouds":[{"cover":"BKN","base":200},{"cover":"BKN","base":8000},{"cover":"BKN","base":10000}],"obsTime":1773745200},"SBGW":{"icaoId":"SBGW","flightCategory":"VFR","rawOb":"METAR SBGW 171100Z 06003KT CAVOK 22/16 Q1017","temp":22,"dewp":16,"wdir":60,"wspd":3,"visib":"6+","altim":1017,"clouds":[],"obsTime":1773745200},"SBIH":{"icaoId":"SBIH","flightCategory":"VFR","rawOb":"METAR SBIH 171100Z 00000KT 9999 -RA FEW005 SCT015 OVC080 24/24 Q1012","temp":24,"dewp":24,"wdir":0,"wspd":0,"visib":"6+","altim":1012,"clouds":[{"cover":"FEW","base":500},{"cover":"SCT","base":1500},{"cover":"OVC","base":8000}],"obsTime":1773745200},"SBJP":{"icaoId":"SBJP","flightCategory":"VFR","rawOb":"METAR SBJP 171100Z 00000KT 9999 SCT020 BKN070 28/25 Q1013","temp":28,"dewp":25,"wdir":0,"wspd":0,"visib":"6+","altim":1013,"clouds":[{"cover":"SCT","base":2000},{"cover":"BKN","base":7000}],"obsTime":1773745200},"SBJR":{"icaoId":"SBJR","flightCategory":"VFR","rawOb":"METAR SBJR 171100Z 01002KT CAVOK 27/22 Q1013","temp":27,"dewp":22,"wdir":10,"wspd":2,"visib":"6+","altim":1013,"clouds":[],"obsTime":1773745200},"SBJV":{"icaoId":"SBJV","flightCategory":"VFR","rawOb":"METAR SBJV 171100Z 35003KT 9999 SCT028 26/25 Q1013","temp":26,"dewp":25,"wdir":350,"wspd":3,"visib":"6+","altim":1013,"clouds":[{"cover":"SCT","base":2800}],"obsTime":1773745200},"SBLE":{"icaoId":"SBLE","flightCategory":"MVFR","rawOb":"METAR SBLE 171100Z AUTO VRB03KT 9999 FEW014 SCT017 BKN030 24/22 Q1017","temp":24,"dewp":22,"wdir":"VRB","wspd":3,"visib":"6+","altim":1017,"clouds":[{"cover":"FEW","base":1400},{"cover":"SCT","base":1700},{"cover":"BKN","base":3000}],"obsTime":1773745200},"SBLS":{"icaoId":"SBLS","flightCategory":"VFR","rawOb":"METAR SBLS 171100Z 14007KT CAVOK 23/20 Q1017","temp":23,"dewp":20,"wdir":140,"wspd":7,"visib":"6+","altim":1017,"clouds":[],"obsTime":1773745200},"SBMT":{"icaoId":"SBMT","flightCategory":"VFR","rawOb":"METAR SBMT 171100Z 09005KT CAVOK 21/16 Q1017","temp":21,"dewp":16,"wdir":90,"wspd":5,"visib":"6+","altim":1017,"clouds":[],"obsTime":1773745200},"SBNM":{"icaoId":"SBNM","flightCategory":"VFR","rawOb":"METAR SBNM 171200Z COR 11002KT 9000 RA FEW030 BKN070 OVC100 22/21 Q1011","temp":22,"dewp":21,"wdir":110,"wspd":2,"visib":5.59,"altim":1011,"clouds":[{"cover":"FEW","base":3000},{"cover":"BKN","base":7000},{"cover":"OVC","base":10000}],"obsTime":1773748800},"SBPF":{"icaoId":"SBPF","flightCategory":"VFR","rawOb":"METAR SBPF 171100Z 07010KT 9999 FEW010 21/18 Q1014","temp":21,"dewp":18,"wdir":70,"wspd":10,"visib":"6+","altim":1014,"clouds":[{"cover":"FEW","base":1000}],"obsTime":1773745200},"SBST":{"icaoId":"SBST","flightCategory":"MVFR","rawOb":"METAR SBST 171100Z VRB02KT 8000 NSC 23/21 Q1013","temp":23,"dewp":21,"wdir":"VRB","wspd":2,"visib":4.97,"altim":1013,"clouds":[],"obsTime":1773745200},"SBTA":{"icaoId":"SBTA","flightCategory":"VFR","rawOb":"METAR SBTA 171100Z VRB02KT CAVOK 21/17 Q1016","temp":21,"dewp":17,"wdir":"VRB","wspd":2,"visib":"6+","altim":1016,"clouds":[],"obsTime":1773745200},"SBTC":{"icaoId":"SBTC","flightCategory":"VFR","rawOb":"METAR SBTC 171100Z 29003KT 9999 FEW025 28/24 Q1014","temp":28,"dewp":24,"wdir":290,"wspd":3,"visib":"6+","altim":1014,"clouds":[{"cover":"FEW","base":2500}],"obsTime":1773745200}}}