{"updated":1783948652,"count":88,"data":{"SBCT":{"icaoId":"SBCT","flightCategory":"VFR","rawOb":"METAR SBCT 131200Z 19006KT CAVOK 08/06 Q1022","temp":8,"dewp":6,"wdir":190,"wspd":6,"visib":"6+","altim":1022,"clouds":[],"obsTime":1783944000},"SBGL":{"icaoId":"SBGL","flightCategory":"MVFR","rawOb":"METAR SBGL 131200Z 33007KT 7000 SCT023 BKN030 18/15 Q1019","temp":18,"dewp":15,"wdir":330,"wspd":7,"visib":4.35,"altim":1019,"clouds":[{"cover":"SCT","base":2300},{"cover":"BKN","base":3000}],"obsTime":1783944000},"SBSP":{"icaoId":"SBSP","flightCategory":"VFR","rawOb":"METAR SBSP 131200Z 15008KT 9999 FEW013 SCT023 13/10 Q1022","temp":13,"dewp":10,"wdir":150,"wspd":8,"visib":"6+","altim":1022,"clouds":[{"cover":"FEW","base":1300},{"cover":"SCT","base":2300}],"obsTime":1783944000},"SBIL":{"icaoId":"SBIL","flightCategory":"VFR","rawOb":"METAR SBIL 131200Z 01005KT CAVOK 26/22 Q1015","temp":26,"dewp":22,"wdir":10,"wspd":5,"visib":"6+","altim":1015,"clouds":[],"obsTime":1783944000},"SBCZ":{"icaoId":"SBCZ","flightCategory":"IFR","rawOb":"METAR SBCZ 131200Z 21002KT 6000 OVC006 23/23 Q1017","temp":23,"dewp":23,"wdir":210,"wspd":2,"visib":3.73,"altim":1017,"clouds":[{"cover":"OVC","base":600}],"obsTime":1783944000},"SBJU":{"icaoId":"SBJU","flightCategory":"MVFR","rawOb":"METAR SBJU 131200Z 05007KT 9999 BKN020 25/20 Q1018","temp":25,"dewp":20,"wdir":50,"wspd":7,"visib":"6+","altim":1018,"clouds":[{"cover":"BKN","base":2000}],"obsTime":1783944000},"SBPJ":{"icaoId":"SBPJ","flightCategory":"VFR","rawOb":"METAR SBPJ 131200Z 23003KT CAVOK 29/21 Q1016","temp":29,"dewp":21,"wdir":230,"wspd":3,"visib":"6+","altim":1016,"clouds":[],"obsTime":1783944000},"SBBR":{"icaoId":"SBBR","flightCategory":"VFR","rawOb":"METAR SBBR 131200Z 32002KT CAVOK 22/14 Q1022","temp":22,"dewp":14,"wdir":320,"wspd":2,"visib":"6+","altim":1022,"clouds":[],"obsTime":1783944000},"SBNT":{"icaoId":"SBNT","flightCategory":"MVFR","rawOb":"METAR SBNT 131200Z 13004KT 080V180 9000 SCT015 BKN023 FEW027TCU BKN040 27/23 Q1015","temp":27,"dewp":23,"wdir":130,"wspd":4,"visib":5.59,"altim":1015,"clouds":[{"cover":"SCT","base":1500},{"cover":"BKN","base":2300},{"cover":"FEW","base":2700},{"cover":"BKN","base":4000}],"obsTime":1783944000},"SBMG":{"icaoId":"SBMG","flightCategory":"VFR","rawOb":"METAR SBMG 131200Z 16008KT 9999 VCFG NSC 10/08 Q1020","temp":10,"dewp":8,"wdir":160,"wspd":8,"visib":"6+","altim":1020,"clouds":[],"obsTime":1783944000},"SBAT":{"icaoId":"SBAT","flightCategory":"MVFR","rawOb":"METAR SBAT 131200Z 17004KT 8000 FEW015 BKN100 25/22 Q1018","temp":25,"dewp":22,"wdir":170,"wspd":4,"visib":4.97,"altim":1018,"clouds":[{"cover":"FEW","base":1500},{"cover":"BKN","base":10000}],"obsTime":1783944000},"SBHT":{"icaoId":"SBHT","flightCategory":"VFR","rawOb":"METAR SBHT 131200Z 07005KT 9999 SCT015 27/25 Q1016","temp":27,"dewp":25,"wdir":70,"wspd":5,"visib":"6+","altim":1016,"clouds":[{"cover":"SCT","base":1500}],"obsTime":1783944000},"SBME":{"icaoId":"SBME","flightCategory":"VFR","rawOb":"METAR SBME 131200Z 22011KT CAVOK 21/13 Q1017","temp":21,"dewp":13,"wdir":220,"wspd":11,"visib":"6+","altim":1017,"clouds":[],"obsTime":1783944000},"SBMK":{"icaoId":"SBMK","flightCategory":"VFR","rawOb":"METAR SBMK 131200Z 07002KT CAVOK 25/14 Q1018","temp":25,"dewp":14,"wdir":70,"wspd":2,"visib":"6+","altim":1018,"clouds":[],"obsTime":1783944000},"SBCR":{"icaoId":"SBCR","flightCategory":"VFR","rawOb":"METAR SBCR 131200Z 21007KT CAVOK 17/14 Q1020","temp":17,"dewp":14,"wdir":210,"wspd":7,"visib":"6+","altim":1020,"clouds":[],"obsTime":1783944000},"SBUL":{"icaoId":"SBUL","flightCategory":"IFR","rawOb":"METAR SBUL 131200Z 25008KT 210V270 5000 BR BKN006 BKN070 18/16 Q1021","temp":18,"dewp":16,"wdir":250,"wspd":8,"visib":3.11,"altim":1021,"clouds":[{"cover":"BKN","base":600},{"cover":"BKN","base":7000}],"obsTime":1783944000},"SBUR":{"icaoId":"SBUR","flightCategory":"MVFR","rawOb":"METAR SBUR 131200Z 22007KT 9999 SCT009 BKN019 18/15 Q1020","temp":18,"dewp":15,"wdir":220,"wspd":7,"visib":"6+","altim":1020,"clouds":[{"cover":"SCT","base":900},{"cover":"BKN","base":1900}],"obsTime":1783944000},"SBVT":{"icaoId":"SBVT","flightCategory":"MVFR","rawOb":"METAR SBVT 131200Z 21010KT 9999 BKN030 BKN040 22/17 Q1016","temp":22,"dewp":17,"wdir":210,"wspd":10,"visib":"6+","altim":1016,"clouds":[{"cover":"BKN","base":3000},{"cover":"BKN","base":4000}],"obsTime":1783944000},"SBFI":{"icaoId":"SBFI","flightCategory":"VFR","rawOb":"METAR SBFI 131200Z 15003KT CAVOK 10/10 Q1022","temp":10,"dewp":10,"wdir":150,"wspd":3,"visib":"6+","altim":1022,"clouds":[],"obsTime":1783944000},"SBMQ":{"icaoId":"SBMQ","flightCategory":"VFR","rawOb":"METAR SBMQ 131200Z 31004KT 9999 SCT023 28/25 Q1015","temp":28,"dewp":25,"wdir":310,"wspd":4,"visib":"6+","altim":1015,"clouds":[{"cover":"SCT","base":2300}],"obsTime":1783944000},"SBCP":{"icaoId":"SBCP","flightCategory":"MVFR","rawOb":"METAR SBCP 131200Z 22008KT 9999 BKN020 OVC100 20/15 Q1017","temp":20,"dewp":15,"wdir":220,"wspd":8,"visib":"6+","altim":1017,"clouds":[{"cover":"BKN","base":2000},{"cover":"OVC","base":10000}],"obsTime":1783944000},"SBSG":{"icaoId":"SBSG","flightCategory":"MVFR","rawOb":"METAR SBSG 131200Z 10004KT 070V150 9999 SCT015 BKN020 27/24 Q1015","temp":27,"dewp":24,"wdir":100,"wspd":4,"visib":"6+","altim":1015,"clouds":[{"cover":"SCT","base":1500},{"cover":"BKN","base":2000}],"obsTime":1783944000},"SBBE":{"icaoId":"SBBE","flightCategory":"VFR","rawOb":"METAR SBBE 131200Z 04009KT 9999 FEW017 28/24 Q1015","temp":28,"dewp":24,"wdir":40,"wspd":9,"visib":"6+","altim":1015,"clouds":[{"cover":"FEW","base":1700}],"obsTime":1783944000},"SBCF":{"icaoId":"SBCF","flightCategory":"MVFR","rawOb":"METAR SBCF 131200Z 00000KT 8000 NSC 22/15 Q1019","temp":22,"dewp":15,"wdir":0,"wspd":0,"visib":4.97,"altim":1019,"clouds":[],"obsTime":1783944000},"SBRF":{"icaoId":"SBRF","flightCategory":"VFR","rawOb":"METAR SBRF 131200Z 05004KT 350V110 9999 SCT023 27/22 Q1015","temp":27,"dewp":22,"wdir":50,"wspd":4,"visib":"6+","altim":1015,"clouds":[{"cover":"SCT","base":2300}],"obsTime":1783944000},"SBFZ":{"icaoId":"SBFZ","flightCategory":"MVFR","rawOb":"METAR SBFZ 131200Z 16006KT 9999 FEW011 BKN018 BKN070 27/25 Q1015","temp":27,"dewp":25,"wdir":160,"wspd":6,"visib":"6+","altim":1015,"clouds":[{"cover":"FEW","base":1100},{"cover":"BKN","base":1800},{"cover":"BKN","base":7000}],"obsTime":1783944000},"SBPV":{"icaoId":"SBPV","flightCategory":"VFR","rawOb":"METAR SBPV 131200Z VRB02KT CAVOK 23/22 Q1016","temp":23,"dewp":22,"wdir":"VRB","wspd":2,"visib":"6+","altim":1016,"clouds":[],"obsTime":1783944000},"SBEG":{"icaoId":"SBEG","flightCategory":"VFR","rawOb":"METAR SBEG 131200Z 18004KT CAVOK 27/24 Q1016","temp":27,"dewp":24,"wdir":180,"wspd":4,"visib":"6+","altim":1016,"clouds":[],"obsTime":1783944000},"SBTE":{"icaoId":"SBTE","flightCategory":"MVFR","rawOb":"METAR SBTE 131200Z 05003KT 9999 BKN012 26/22 Q1015","temp":26,"dewp":22,"wdir":50,"wspd":3,"visib":"6+","altim":1015,"clouds":[{"cover":"BKN","base":1200}],"obsTime":1783944000},"SBLO":{"icaoId":"SBLO","flightCategory":"VFR","rawOb":"METAR SBLO 131200Z 19005KT CAVOK 12/07 Q1021","temp":12,"dewp":7,"wdir":190,"wspd":5,"visib":"6+","altim":1021,"clouds":[],"obsTime":1783944000},"SBRB":{"icaoId":"SBRB","flightCategory":"IFR","rawOb":"METAR SBRB 131200Z 14004KT 080V190 7000 BKN007 23/22 Q1018","temp":23,"dewp":22,"wdir":140,"wspd":4,"visib":4.35,"altim":1018,"clouds":[{"cover":"BKN","base":700}],"obsTime":1783944000},"SBKP":{"icaoId":"SBKP","flightCategory":"VFR","rawOb":"METAR SBKP 131200Z 14015KT 9999 FEW020 15/10 Q1020","temp":15,"dewp":10,"wdir":140,"wspd":15,"visib":"6+","altim":1020,"clouds":[{"cover":"FEW","base":2000}],"obsTime":1783944000},"SBMA":{"icaoId":"SBMA","flightCategory":"VFR","rawOb":"METAR SBMA 131200Z 32002KT CAVOK 29/24 Q1015","temp":29,"dewp":24,"wdir":320,"wspd":2,"visib":"6+","altim":1015,"clouds":[],"obsTime":1783944000},"SBPA":{"icaoId":"SBPA","flightCategory":"IFR","rawOb":"METAR SBPA 131200Z 30004KT 260V360 9999 BKN006 BKN011 11/11 Q1024","temp":11,"dewp":11,"wdir":300,"wspd":4,"visib":"6+","altim":1024,"clouds":[{"cover":"BKN","base":600},{"cover":"BKN","base":1100}],"obsTime":1783944000},"SBBV":{"icaoId":"SBBV","flightCategory":"IFR","rawOb":"SPECI SBBV 131135Z 17010KT 2000 SHRA BKN007 FEW045TCU BKN100 25/23 Q1016","temp":25,"dewp":23,"wdir":170,"wspd":10,"visib":1.24,"altim":1016,"clouds":[{"cover":"BKN","base":700},{"cover":"FEW","base":4500},{"cover":"BKN","base":10000}],"obsTime":1783942500},"SBCG":{"icaoId":"SBCG","flightCategory":"VFR","rawOb":"METAR SBCG 131200Z 12010KT 9999 FEW010 13/10 Q1021","temp":13,"dewp":10,"wdir":120,"wspd":10,"visib":"6+","altim":1021,"clouds":[{"cover":"FEW","base":1000}],"obsTime":1783944000},"SBGO":{"icaoId":"SBGO","flightCategory":"VFR","rawOb":"METAR SBGO 131200Z VRB01KT CAVOK 22/17 Q1021","temp":22,"dewp":17,"wdir":"VRB","wspd":1,"visib":"6+","altim":1021,"clouds":[],"obsTime":1783944000},"SBCB":{"icaoId":"SBCB","flightCategory":"MVFR","rawOb":"METAR SBCB 131200Z 29013KT 9999 SCT007 BKN020 19/15 Q1017","temp":19,"dewp":15,"wdir":290,"wspd":13,"visib":"6+","altim":1017,"clouds":[{"cover":"SCT","base":700},{"cover":"BKN","base":2000}],"obsTime":1783944000},"SBSV":{"icaoId":"SBSV","flightCategory":"VFR","rawOb":"METAR SBSV 131200Z 36007KT CAVOK 26/22 Q1015","temp":26,"dewp":22,"wdir":360,"wspd":7,"visib":"6+","altim":1015,"clouds":[],"obsTime":1783944000},"SBMO":{"icaoId":"SBMO","flightCategory":"VFR","rawOb":"METAR SBMO 131200Z 20005KT 9999 FEW017 26/22 Q1016","temp":26,"dewp":22,"wdir":200,"wspd":5,"visib":"6+","altim":1016,"clouds":[{"cover":"FEW","base":1700}],"obsTime":1783944000},"SBSL":{"icaoId":"SBSL","flightCategory":"VFR","rawOb":"METAR SBSL 131200Z 05014KT 9999 SCT025 29/24 Q1015","temp":29,"dewp":24,"wdir":50,"wspd":14,"visib":"6+","altim":1015,"clouds":[{"cover":"SCT","base":2500}],"obsTime":1783944000},"SBGR":{"icaoId":"SBGR","flightCategory":"MVFR","rawOb":"METAR SBGR 131200Z 13004KT 9999 BKN015 BKN019 13/09 Q1021","temp":13,"dewp":9,"wdir":130,"wspd":4,"visib":"6+","altim":1021,"clouds":[{"cover":"BKN","base":1500},{"cover":"BKN","base":1900}],"obsTime":1783944000},"SBSN":{"icaoId":"SBSN","flightCategory":"VFR","rawOb":"METAR SBSN 131200Z 09004KT 9999 FEW020 BKN100 29/26 Q1015","temp":29,"dewp":26,"wdir":90,"wspd":4,"visib":"6+","altim":1015,"clouds":[{"cover":"FEW","base":2000},{"cover":"BKN","base":10000}],"obsTime":1783944000},"SBFL":{"icaoId":"SBFL","flightCategory":"VFR","rawOb":"METAR SBFL 131200Z 18008KT CAVOK 14/08 Q1022","temp":14,"dewp":8,"wdir":180,"wspd":8,"visib":"6+","altim":1022,"clouds":[],"obsTime":1783944000},"SBTU":{"icaoId":"SBTU","flightCategory":"IFR","rawOb":"METAR SBTU 131200Z AUTO 19009KT 9999 // BKN008/// BKN016/// 26/24 Q1017","temp":26,"dewp":24,"wdir":190,"wspd":9,"visib":"6+","altim":1017,"clouds":[{"cover":"BKN","base":800},{"cover":"BKN","base":1600}],"obsTime":1783944000},"SBBH":{"icaoId":"SBBH","flightCategory":"VFR","rawOb":"METAR SBBH 131200Z 00000KT CAVOK 21/16 Q1018","temp":21,"dewp":16,"wdir":0,"wspd":0,"visib":"6+","altim":1018,"clouds":[],"obsTime":1783944000},"SBCA":{"icaoId":"SBCA","flightCategory":"IFR","rawOb":"METAR SBCA 131200Z 16010KT 2000 BR SCT002 07/07 Q1022","temp":7,"dewp":7,"wdir":160,"wspd":10,"visib":1.24,"altim":1022,"clouds":[{"cover":"SCT","base":200}],"obsTime":1783944000},"SBBQ":{"icaoId":"SBBQ","flightCategory":"LIFR","rawOb":"METAR SBBQ 131200Z 15004KT 3000 BR OVC004 13/12 Q1022","temp":13,"dewp":12,"wdir":150,"wspd":4,"visib":1.86,"altim":1022,"clouds":[{"cover":"OVC","base":400}],"obsTime":1783944000},"SBCO":{"icaoId":"SBCO","flightCategory":"IFR","rawOb":"METAR SBCO 131200Z 30004KT 9999 BKN007 11/10 Q1024","temp":11,"dewp":10,"wdir":300,"wspd":4,"visib":"6+","altim":1024,"clouds":[{"cover":"BKN","base":700}],"obsTime":1783944000},"SBBU":{"icaoId":"SBBU","flightCategory":"MVFR","rawOb":"METAR SBBU 131200Z 17005KT 9999 BKN020 15/13 Q1020","temp":15,"dewp":13,"wdir":170,"wspd":5,"visib":"6+","altim":1020,"clouds":[{"cover":"BKN","base":2000}],"obsTime":1783944000},"SBSM":{"icaoId":"SBSM","flightCategory":"MVFR","rawOb":"METAR SBSM 131200Z 00000KT 9999 SCT010 OVC023 10/09 Q1025","temp":10,"dewp":9,"wdir":0,"wspd":0,"visib":"6+","altim":1025,"clouds":[{"cover":"SCT","base":1000},{"cover":"OVC","base":2300}],"obsTime":1783944000},"SBDN":{"icaoId":"SBDN","flightCategory":"VFR","rawOb":"METAR SBDN 131200Z 17005KT CAVOK 12/09 Q1020","temp":12,"dewp":9,"wdir":170,"wspd":5,"visib":"6+","altim":1020,"clouds":[],"obsTime":1783944000},"SBCJ":{"icaoId":"SBCJ","flightCategory":"VFR","rawOb":"METAR SBCJ 131200Z 03003KT 9999 FEW015 26/22 Q1019","temp":26,"dewp":22,"wdir":30,"wspd":3,"visib":"6+","altim":1019,"clouds":[{"cover":"FEW","base":1500}],"obsTime":1783944000},"SBIP":{"icaoId":"SBIP","flightCategory":"VFR","rawOb":"METAR SBIP 131200Z AUTO 20005KT CAVOK 22/17 Q1016","temp":22,"dewp":17,"wdir":200,"wspd":5,"visib":"6+","altim":1016,"clouds":[],"obsTime":1783944000},"SBKG":{"icaoId":"SBKG","flightCategory":"MVFR","rawOb":"METAR SBKG 131200Z 09007KT 9999 BKN018 24/20 Q1018","temp":24,"dewp":20,"wdir":90,"wspd":7,"visib":"6+","altim":1018,"clouds":[{"cover":"BKN","base":1800}],"obsTime":1783944000},"SBTF":{"icaoId":"SBTF","flightCategory":"VFR","rawOb":"METAR SBTF 131200Z 18006KT 9999 SCT008 24/24 Q1016","temp":24,"dewp":24,"wdir":180,"wspd":6,"visib":"6+","altim":1016,"clouds":[{"cover":"SCT","base":800}],"obsTime":1783944000},"SBSC":{"icaoId":"SBSC","flightCategory":"MVFR","rawOb":"METAR SBSC 131200Z 25002KT 8000 SCT005 BKN015 OVC050 18/16 Q1019","temp":18,"dewp":16,"wdir":250,"wspd":2,"visib":4.97,"altim":1019,"clouds":[{"cover":"SCT","base":500},{"cover":"BKN","base":1500},{"cover":"OVC","base":5000}],"obsTime":1783944000},"SBCC":{"icaoId":"SBCC","flightCategory":"VFR","rawOb":"METAR SBCC 131200Z 17004KT CAVOK 23/20 Q1018","temp":23,"dewp":20,"wdir":170,"wspd":4,"visib":"6+","altim":1018,"clouds":[],"obsTime":1783944000},"SBSR":{"icaoId":"SBSR","flightCategory":"VFR","rawOb":"METAR SBSR 131200Z 19004KT 9999 SCT025 16/14 Q1019","temp":16,"dewp":14,"wdir":190,"wspd":4,"visib":"6+","altim":1019,"clouds":[{"cover":"SCT","base":2500}],"obsTime":1783944000},"SBES":{"icaoId":"SBES","flightCategory":"MVFR","rawOb":"METAR SBES 131200Z 25007KT 210V340 9000 VCSH FEW010 BKN020 BKN050 18/// Q1018","temp":null,"dewp":null,"wdir":250,"wspd":7,"visib":5.59,"altim":1018,"clouds":[{"cover":"FEW","base":1000},{"cover":"BKN","base":2000},{"cover":"BKN","base":5000}],"obsTime":1783944000},"SBAU":{"icaoId":"SBAU","flightCategory":"VFR","rawOb":"METAR SBAU 131300Z 12010KT 9999 FEW012 19/15 Q1020","temp":19,"dewp":15,"wdir":120,"wspd":10,"visib":"6+","altim":1020,"clouds":[{"cover":"FEW","base":1200}],"obsTime":1783947600},"SBAX":{"icaoId":"SBAX","flightCategory":"IFR","rawOb":"METAR SBAX 131200Z 31003KT 9999 4000SE SCT006 BKN009 BKN018 18/17 Q1020","temp":18,"dewp":17,"wdir":310,"wspd":3,"visib":"6+","altim":1020,"clouds":[{"cover":"SCT","base":600},{"cover":"BKN","base":900},{"cover":"BKN","base":1800}],"obsTime":1783944000},"SBGM":{"icaoId":"SBGM","flightCategory":"LIFR","rawOb":"METAR SBGM 131200Z 13004KT 100V160 5000 BR OVC004 22/21 Q1017","temp":22,"dewp":21,"wdir":130,"wspd":4,"visib":3.11,"altim":1017,"clouds":[{"cover":"OVC","base":400}],"obsTime":1783944000},"SBUY":{"icaoId":"SBUY","flightCategory":"IFR","rawOb":"METAR SBUY 131200Z 16005KT 9999 BKN006 OVC090 23/22 Q1015","temp":23,"dewp":22,"wdir":160,"wspd":5,"visib":"6+","altim":1015,"clouds":[{"cover":"BKN","base":600},{"cover":"OVC","base":9000}],"obsTime":1783944000},"SBTT":{"icaoId":"SBTT","flightCategory":"IFR","rawOb":"METAR SBTT 131200Z VRB02KT 6000 BKN006 24/23 Q1017","temp":24,"dewp":23,"wdir":"VRB","wspd":2,"visib":3.73,"altim":1017,"clouds":[{"cover":"BKN","base":600}],"obsTime":1783944000},"SBTD":{"icaoId":"SBTD","flightCategory":"VFR","rawOb":"METAR SBTD 131200Z /////KT 9999 BCFG NSC 09/09 Q1022","temp":9,"dewp":9,"wdir":null,"wspd":null,"visib":"6+","altim":1022,"clouds":[],"obsTime":1783944000},"SBOI":{"icaoId":"SBOI","flightCategory":"VFR","rawOb":"METAR SBOI 131200Z AUTO VRB01KT 9999 FEW010 28/25 Q1016","temp":28,"dewp":25,"wdir":"VRB","wspd":1,"visib":"6+","altim":1016,"clouds":[{"cover":"FEW","base":1000}],"obsTime":1783944000},"SBPL":{"icaoId":"SBPL","flightCategory":"VFR","rawOb":"METAR SBPL 131200Z 07006KT CAVOK 28/18 Q1017","temp":28,"dewp":18,"wdir":70,"wspd":6,"visib":"6+","altim":1017,"clouds":[],"obsTime":1783944000},"SBSJ":{"icaoId":"SBSJ","flightCategory":"MVFR","rawOb":"METAR SBSJ 131200Z 17005KT 9999 OVC020 14/10 Q1021","temp":14,"dewp":10,"wdir":170,"wspd":5,"visib":"6+","altim":1021,"clouds":[{"cover":"OVC","base":2000}],"obsTime":1783944000},"SBAR":{"icaoId":"SBAR","flightCategory":"VFR","rawOb":"METAR SBAR 131200Z 03005KT 9999 FEW018 26/22 Q1016","temp":26,"dewp":22,"wdir":30,"wspd":5,"visib":"6+","altim":1016,"clouds":[{"cover":"FEW","base":1800}],"obsTime":1783944000},"SBPP":{"icaoId":"SBPP","flightCategory":"VFR","rawOb":"METAR SBPP 131200Z 10007KT CAVOK 10/08 Q1022","temp":10,"dewp":8,"wdir":100,"wspd":7,"visib":"6+","altim":1022,"clouds":[],"obsTime":1783944000},"SBPS":{"icaoId":"SBPS","flightCategory":"VFR","rawOb":"METAR SBPS 131200Z 32007KT 9999 FEW021 SCT060 25/22 Q1014","temp":25,"dewp":22,"wdir":320,"wspd":7,"visib":"6+","altim":1014,"clouds":[{"cover":"FEW","base":2100},{"cover":"SCT","base":6000}],"obsTime":1783944000},"SBPB":{"icaoId":"SBPB","flightCategory":"VFR","rawOb":"METAR SBPB 131200Z 11010KT 9999 FEW020 29/24 Q1015","temp":29,"dewp":24,"wdir":110,"wspd":10,"visib":"6+","altim":1015,"clouds":[{"cover":"FEW","base":2000}],"obsTime":1783944000},"SBVH":{"icaoId":"SBVH","flightCategory":"VFR","rawOb":"METAR SBVH 131200Z 14007KT CAVOK 21/19 Q1019","temp":21,"dewp":19,"wdir":140,"wspd":7,"visib":"6+","altim":1019,"clouds":[],"obsTime":1783944000},"SBJP":{"icaoId":"SBJP","flightCategory":"VFR","rawOb":"METAR SBJP 131200Z 03003KT 330V130 9999 SCT016 27/23 Q1016","temp":27,"dewp":23,"wdir":30,"wspd":3,"visib":"6+","altim":1016,"clouds":[{"cover":"SCT","base":1600}],"obsTime":1783944000},"SBLE":{"icaoId":"SBLE","flightCategory":"VFR","rawOb":"METAR SBLE 131200Z AUTO VRB01KT CAVOK ///// Q1018","temp":null,"dewp":null,"wdir":"VRB","wspd":1,"visib":"6+","altim":1018,"clouds":[],"obsTime":1783944000},"SBJV":{"icaoId":"SBJV","flightCategory":"VFR","rawOb":"METAR SBJV 131200Z 11003KT 9999 FEW015 14/12 Q1022","temp":14,"dewp":12,"wdir":110,"wspd":3,"visib":"6+","altim":1022,"clouds":[{"cover":"FEW","base":1500}],"obsTime":1783944000},"SBNM":{"icaoId":"SBNM","flightCategory":"MVFR","rawOb":"METAR SBNM 131200Z AUTO 00000KT 9999 OVC022 09/07 Q1024","temp":9,"dewp":7,"wdir":0,"wspd":0,"visib":"6+","altim":1024,"clouds":[{"cover":"OVC","base":2200}],"obsTime":1783944000},"SBPF":{"icaoId":"SBPF","flightCategory":"IFR","rawOb":"METAR SBPF 131200Z 14004KT 9999 BKN005 08/06 Q1024","temp":8,"dewp":6,"wdir":140,"wspd":4,"visib":"6+","altim":1024,"clouds":[{"cover":"BKN","base":500}],"obsTime":1783944000},"SBIH":{"icaoId":"SBIH","flightCategory":"VFR","rawOb":"METAR SBIH 131200Z 33003KT 9999 FEW006 SCT100 25/23 Q1015","temp":25,"dewp":23,"wdir":330,"wspd":3,"visib":"6+","altim":1015,"clouds":[{"cover":"FEW","base":600},{"cover":"SCT","base":10000}],"obsTime":1783944000},"SBAF":{"icaoId":"SBAF","flightCategory":"VFR","rawOb":"METAR SBAF 131200Z 00000KT 9999 SCT015 BKN035 BKN060 18/18 Q1019","temp":18,"dewp":18,"wdir":0,"wspd":0,"visib":"6+","altim":1019,"clouds":[{"cover":"SCT","base":1500},{"cover":"BKN","base":3500},{"cover":"BKN","base":6000}],"obsTime":1783944000},"SBGW":{"icaoId":"SBGW","flightCategory":"MVFR","rawOb":"METAR SBGW 131200Z 26006KT 7000 SCT010 BKN030 15/10 Q1020","temp":15,"dewp":10,"wdir":260,"wspd":6,"visib":4.35,"altim":1020,"clouds":[{"cover":"SCT","base":1000},{"cover":"BKN","base":3000}],"obsTime":1783944000},"SBJR":{"icaoId":"SBJR","flightCategory":"MVFR","rawOb":"METAR SBJR 131200Z 29004KT 9999 BKN025 OVC050 19/15 Q1018","temp":19,"dewp":15,"wdir":290,"wspd":4,"visib":"6+","altim":1018,"clouds":[{"cover":"BKN","base":2500},{"cover":"OVC","base":5000}],"obsTime":1783944000},"SBLS":{"icaoId":"SBLS","flightCategory":"VFR","rawOb":"METAR SBLS 131200Z VRB02KT 9999 FEW025 22/15 Q1018","temp":22,"dewp":15,"wdir":"VRB","wspd":2,"visib":"6+","altim":1018,"clouds":[{"cover":"FEW","base":2500}],"obsTime":1783944000},"SBMT":{"icaoId":"SBMT","flightCategory":"MVFR","rawOb":"METAR SBMT 131200Z 10004KT 9999 BKN017 BKN030 12/07 Q1021","temp":12,"dewp":7,"wdir":100,"wspd":4,"visib":"6+","altim":1021,"clouds":[{"cover":"BKN","base":1700},{"cover":"BKN","base":3000}],"obsTime":1783944000},"SBST":{"icaoId":"SBST","flightCategory":"MVFR","rawOb":"METAR SBST 131200Z 03003KT 360V070 7000 -RA FEW024 BKN030 OVC049 16/15 Q1020","temp":16,"dewp":15,"wdir":30,"wspd":3,"visib":4.35,"altim":1020,"clouds":[{"cover":"FEW","base":2400},{"cover":"BKN","base":3000},{"cover":"OVC","base":4900}],"obsTime":1783944000},"SBTA":{"icaoId":"SBTA","flightCategory":"MVFR","rawOb":"METAR SBTA 131200Z 26005KT 230V290 9999 SCT014 BKN025 OVC030 15/12 Q1020","temp":15,"dewp":12,"wdir":260,"wspd":5,"visib":"6+","altim":1020,"clouds":[{"cover":"SCT","base":1400},{"cover":"BKN","base":2500},{"cover":"OVC","base":3000}],"obsTime":1783944000},"SBAN":{"icaoId":"SBAN","flightCategory":"VFR","rawOb":"METAR SBAN 131200Z 18008KT CAVOK 20/15 Q1022","temp":20,"dewp":15,"wdir":180,"wspd":8,"visib":"6+","altim":1022,"clouds":[],"obsTime":1783944000}}}