{"updated":1774047114,"count":81,"data":{"SBCG":{"icaoId":"SBCG","flightCategory":"VFR","rawOb":"METAR SBCG 202100Z 30004KT 270V350 9999 VCSH SCT040 FEW045TCU BKN100 29/22 Q1008","temp":29,"dewp":22,"wdir":300,"wspd":4,"visib":"6+","altim":1008,"clouds":[{"cover":"SCT","base":4000},{"cover":"FEW","base":4500},{"cover":"BKN","base":10000}],"obsTime":1774040400},"SBBE":{"icaoId":"SBBE","flightCategory":"IFR","rawOb":"METAR SBBE 202100Z 27010KT 4000 RA BR BKN008 BKN014 FEW015TCU 24/24 Q1011","temp":24,"dewp":24,"wdir":270,"wspd":10,"visib":2.49,"altim":1011,"clouds":[{"cover":"BKN","base":800},{"cover":"BKN","base":1400},{"cover":"FEW","base":1500}],"obsTime":1774040400},"SBCZ":{"icaoId":"SBCZ","flightCategory":"VFR","rawOb":"METAR SBCZ 202100Z 35002KT 9999 FEW018 FEW030TCU BKN100 26/25 Q1004 RETS","temp":26,"dewp":25,"wdir":350,"wspd":2,"visib":"6+","altim":1004,"clouds":[{"cover":"FEW","base":1800},{"cover":"FEW","base":3000},{"cover":"BKN","base":10000}],"obsTime":1774040400},"SBBR":{"icaoId":"SBBR","flightCategory":"MVFR","rawOb":"METAR SBBR 202100Z 28011KT 7000 -RA VCTS BKN010 FEW045CB BKN060 20/18 Q1015 RETS","temp":20,"dewp":18,"wdir":280,"wspd":11,"visib":4.35,"altim":1015,"clouds":[{"cover":"BKN","base":1000},{"cover":"FEW","base":4500},{"cover":"BKN","base":6000}],"obsTime":1774040400},"SBBV":{"icaoId":"SBBV","flightCategory":"VFR","rawOb":"METAR SBBV 202100Z 05007KT 9999 FEW040 BKN085 33/19 Q1007","temp":33,"dewp":19,"wdir":50,"wspd":7,"visib":"6+","altim":1007,"clouds":[{"cover":"FEW","base":4000},{"cover":"BKN","base":8500}],"obsTime":1774040400},"SBCF":{"icaoId":"SBCF","flightCategory":"VFR","rawOb":"METAR SBCF 202100Z 36005KT 9999 SCT030 BKN070 23/21 Q1012","temp":23,"dewp":21,"wdir":360,"wspd":5,"visib":"6+","altim":1012,"clouds":[{"cover":"SCT","base":3000},{"cover":"BKN","base":7000}],"obsTime":1774040400},"SBCP":{"icaoId":"SBCP","flightCategory":"IFR","rawOb":"METAR SBCP 202100Z 16014KT 2000 TSRA BR SCT005 FEW030CB OVC070 25/24 Q1007","temp":25,"dewp":24,"wdir":160,"wspd":14,"visib":1.24,"altim":1007,"clouds":[{"cover":"SCT","base":500},{"cover":"FEW","base":3000},{"cover":"OVC","base":7000}],"obsTime":1774040400},"SBCT":{"icaoId":"SBCT","flightCategory":"VFR","rawOb":"METAR SBCT 202100Z 10007KT 9999 SCT013 22/20 Q1013","temp":22,"dewp":20,"wdir":100,"wspd":7,"visib":"6+","altim":1013,"clouds":[{"cover":"SCT","base":1300}],"obsTime":1774040400},"SBEG":{"icaoId":"SBEG","flightCategory":"VFR","rawOb":"METAR SBEG 202100Z 12007KT 9999 VCSH SCT030 FEW035TCU 30/23 Q1007","temp":30,"dewp":23,"wdir":120,"wspd":7,"visib":"6+","altim":1007,"clouds":[{"cover":"SCT","base":3000},{"cover":"FEW","base":3500}],"obsTime":1774040400},"SBFI":{"icaoId":"SBFI","flightCategory":"VFR","rawOb":"METAR SBFI 202100Z 04007KT 9999 FEW040 FEW045TCU 33/24 Q1005","temp":33,"dewp":24,"wdir":40,"wspd":7,"visib":"6+","altim":1005,"clouds":[{"cover":"FEW","base":4000},{"cover":"FEW","base":4500}],"obsTime":1774040400},"SBFL":{"icaoId":"SBFL","flightCategory":"MVFR","rawOb":"METAR SBFL 202100Z 07007KT 9999 BKN028 26/22 Q1009","temp":26,"dewp":22,"wdir":70,"wspd":7,"visib":"6+","altim":1009,"clouds":[{"cover":"BKN","base":2800}],"obsTime":1774040400},"SBFZ":{"icaoId":"SBFZ","flightCategory":"VFR","rawOb":"METAR SBFZ 202100Z 09008KT 9999 FEW020 29/24 Q1007","temp":29,"dewp":24,"wdir":90,"wspd":8,"visib":"6+","altim":1007,"clouds":[{"cover":"FEW","base":2000}],"obsTime":1774040400},"SBGL":{"icaoId":"SBGL","flightCategory":"VFR","rawOb":"METAR SBGL 202100Z 14003KT 110V180 9999 FEW030 BKN050 BKN066 25/23 Q1009","temp":25,"dewp":23,"wdir":140,"wspd":3,"visib":"6+","altim":1009,"clouds":[{"cover":"FEW","base":3000},{"cover":"BKN","base":5000},{"cover":"BKN","base":6600}],"obsTime":1774040400},"SBGO":{"icaoId":"SBGO","flightCategory":"MVFR","rawOb":"METAR SBGO 202100Z 30008KT 9999 BKN011 SCT050 22/20 Q1013","temp":22,"dewp":20,"wdir":300,"wspd":8,"visib":"6+","altim":1013,"clouds":[{"cover":"BKN","base":1100},{"cover":"SCT","base":5000}],"obsTime":1774040400},"SBGR":{"icaoId":"SBGR","flightCategory":"VFR","rawOb":"METAR SBGR 202100Z 15006KT 9999 FEW026 24/18 Q1012","temp":24,"dewp":18,"wdir":150,"wspd":6,"visib":"6+","altim":1012,"clouds":[{"cover":"FEW","base":2600}],"obsTime":1774040400},"SBIL":{"icaoId":"SBIL","flightCategory":"VFR","rawOb":"METAR SBIL 202100Z 07008KT CAVOK 29/24 Q1009","temp":29,"dewp":24,"wdir":70,"wspd":8,"visib":"6+","altim":1009,"clouds":[],"obsTime":1774040400},"SBJU":{"icaoId":"SBJU","flightCategory":"VFR","rawOb":"METAR SBJU 202100Z 00000KT 9999 SCT022 28/22 Q1009","temp":28,"dewp":22,"wdir":0,"wspd":0,"visib":"6+","altim":1009,"clouds":[{"cover":"SCT","base":2200}],"obsTime":1774040400},"SBKP":{"icaoId":"SBKP","flightCategory":"VFR","rawOb":"METAR SBKP 202100Z 13009KT CAVOK 27/19 Q1011","temp":27,"dewp":19,"wdir":130,"wspd":9,"visib":"6+","altim":1011,"clouds":[],"obsTime":1774040400},"SBLO":{"icaoId":"SBLO","flightCategory":"VFR","rawOb":"METAR SBLO 202100Z 12004KT 9999 FEW030 30/21 Q1008","temp":30,"dewp":21,"wdir":120,"wspd":4,"visib":"6+","altim":1008,"clouds":[{"cover":"FEW","base":3000}],"obsTime":1774040400},"SBMA":{"icaoId":"SBMA","flightCategory":"VFR","rawOb":"METAR SBMA 202100Z 07005KT 9999 FEW020 BKN100 28/23 Q1009","temp":28,"dewp":23,"wdir":70,"wspd":5,"visib":"6+","altim":1009,"clouds":[{"cover":"FEW","base":2000},{"cover":"BKN","base":10000}],"obsTime":1774040400},"SBME":{"icaoId":"SBME","flightCategory":"IFR","rawOb":"METAR SBME 202100Z 27002KT 4000 -RA BR BKN010 OVC070 25/23 Q1008","temp":25,"dewp":23,"wdir":270,"wspd":2,"visib":2.49,"altim":1008,"clouds":[{"cover":"BKN","base":1000},{"cover":"OVC","base":7000}],"obsTime":1774040400},"SBMG":{"icaoId":"SBMG","flightCategory":"VFR","rawOb":"METAR SBMG 202100Z 09004KT 050V150 9999 VCSH FEW035 FEW040TCU 31/21 Q1007","temp":31,"dewp":21,"wdir":90,"wspd":4,"visib":"6+","altim":1007,"clouds":[{"cover":"FEW","base":3500},{"cover":"FEW","base":4000}],"obsTime":1774040400},"SBMK":{"icaoId":"SBMK","flightCategory":"VFR","rawOb":"METAR SBMK 202100Z 31003KT 9999 SCT035 BKN080 26/21 Q1012","temp":26,"dewp":21,"wdir":310,"wspd":3,"visib":"6+","altim":1012,"clouds":[{"cover":"SCT","base":3500},{"cover":"BKN","base":8000}],"obsTime":1774040400},"SBMO":{"icaoId":"SBMO","flightCategory":"VFR","rawOb":"METAR SBMO 202100Z 08010KT 9999 SCT030 27/23 Q1009","temp":27,"dewp":23,"wdir":80,"wspd":10,"visib":"6+","altim":1009,"clouds":[{"cover":"SCT","base":3000}],"obsTime":1774040400},"SBMQ":{"icaoId":"SBMQ","flightCategory":"MVFR","rawOb":"METAR SBMQ 202100Z 31003KT 7000 -RA SCT004 BKN010 OVC070 24/24 Q1010","temp":24,"dewp":24,"wdir":310,"wspd":3,"visib":4.35,"altim":1010,"clouds":[{"cover":"SCT","base":400},{"cover":"BKN","base":1000},{"cover":"OVC","base":7000}],"obsTime":1774040400},"SBNT":{"icaoId":"SBNT","flightCategory":"VFR","rawOb":"METAR SBNT 202100Z 13010KT 9999 FEW022 28/24 Q1008","temp":28,"dewp":24,"wdir":130,"wspd":10,"visib":"6+","altim":1008,"clouds":[{"cover":"FEW","base":2200}],"obsTime":1774040400},"SBPA":{"icaoId":"SBPA","flightCategory":"VFR","rawOb":"METAR SBPA 202100Z 10017KT 9999 FEW040 26/21 Q1008","temp":26,"dewp":21,"wdir":100,"wspd":17,"visib":"6+","altim":1008,"clouds":[{"cover":"FEW","base":4000}],"obsTime":1774040400},"SBPJ":{"icaoId":"SBPJ","flightCategory":"VFR","rawOb":"METAR SBPJ 202100Z 18007KT 9999 VCSH SCT025 FEW027TCU 29/25 Q1008","temp":29,"dewp":25,"wdir":180,"wspd":7,"visib":"6+","altim":1008,"clouds":[{"cover":"SCT","base":2500},{"cover":"FEW","base":2700}],"obsTime":1774040400},"SBPV":{"icaoId":"SBPV","flightCategory":"VFR","rawOb":"METAR SBPV 202100Z 36007KT 9999 SCT030 30/23 Q1005","temp":30,"dewp":23,"wdir":360,"wspd":7,"visib":"6+","altim":1005,"clouds":[{"cover":"SCT","base":3000}],"obsTime":1774040400},"SBRB":{"icaoId":"SBRB","flightCategory":"VFR","rawOb":"METAR SBRB 202100Z 34006KT 9999 SCT030 BKN100 32/24 Q1004","temp":32,"dewp":24,"wdir":340,"wspd":6,"visib":"6+","altim":1004,"clouds":[{"cover":"SCT","base":3000},{"cover":"BKN","base":10000}],"obsTime":1774040400},"SBRF":{"icaoId":"SBRF","flightCategory":"VFR","rawOb":"METAR SBRF 202100Z 10006KT 9999 SCT024 29/24 Q1009","temp":29,"dewp":24,"wdir":100,"wspd":6,"visib":"6+","altim":1009,"clouds":[{"cover":"SCT","base":2400}],"obsTime":1774040400},"SBSG":{"icaoId":"SBSG","flightCategory":"VFR","rawOb":"METAR SBSG 202100Z 14004KT 080V180 9999 FEW023 27/24 Q1009","temp":27,"dewp":24,"wdir":140,"wspd":4,"visib":"6+","altim":1009,"clouds":[{"cover":"FEW","base":2300}],"obsTime":1774040400},"SBSL":{"icaoId":"SBSL","flightCategory":"VFR","rawOb":"METAR SBSL 202100Z 04010KT 9999 FEW020 BKN080 28/24 Q1007","temp":28,"dewp":24,"wdir":40,"wspd":10,"visib":"6+","altim":1007,"clouds":[{"cover":"FEW","base":2000},{"cover":"BKN","base":8000}],"obsTime":1774040400},"SBSN":{"icaoId":"SBSN","flightCategory":"VFR","rawOb":"METAR SBSN 202100Z 11003KT 9999 SCT016 BKN100 27/24 Q1008","temp":27,"dewp":24,"wdir":110,"wspd":3,"visib":"6+","altim":1008,"clouds":[{"cover":"SCT","base":1600},{"cover":"BKN","base":10000}],"obsTime":1774040400},"SBSP":{"icaoId":"SBSP","flightCategory":"VFR","rawOb":"METAR SBSP 202100Z 15012KT CAVOK 22/18 Q1013","temp":22,"dewp":18,"wdir":150,"wspd":12,"visib":"6+","altim":1013,"clouds":[],"obsTime":1774040400},"SBSV":{"icaoId":"SBSV","flightCategory":"VFR","rawOb":"METAR SBSV 202100Z 08009KT 9999 FEW023 28/22 Q1009","temp":28,"dewp":22,"wdir":80,"wspd":9,"visib":"6+","altim":1009,"clouds":[{"cover":"FEW","base":2300}],"obsTime":1774040400},"SBTE":{"icaoId":"SBTE","flightCategory":"VFR","rawOb":"METAR SBTE 202100Z 07003KT 9999 SCT025 FEW030TCU SCT090 32/22 Q1005","temp":32,"dewp":22,"wdir":70,"wspd":3,"visib":"6+","altim":1005,"clouds":[{"cover":"SCT","base":2500},{"cover":"FEW","base":3000},{"cover":"SCT","base":9000}],"obsTime":1774040400},"SBUL":{"icaoId":"SBUL","flightCategory":"VFR","rawOb":"METAR SBUL 202100Z 35005KT 9999 FEW030 FEW040TCU BKN080 22/20 Q1013","temp":22,"dewp":20,"wdir":350,"wspd":5,"visib":"6+","altim":1013,"clouds":[{"cover":"FEW","base":3000},{"cover":"FEW","base":4000},{"cover":"BKN","base":8000}],"obsTime":1774040400},"SBUR":{"icaoId":"SBUR","flightCategory":"VFR","rawOb":"METAR SBUR 202100Z 28004KT 9999 SCT040 FEW050TCU BKN080 25/20 Q1011","temp":25,"dewp":20,"wdir":280,"wspd":4,"visib":"6+","altim":1011,"clouds":[{"cover":"SCT","base":4000},{"cover":"FEW","base":5000},{"cover":"BKN","base":8000}],"obsTime":1774040400},"SBVT":{"icaoId":"SBVT","flightCategory":"VFR","rawOb":"METAR SBVT 202100Z 02004KT 9999 SCT030 OVC090 25/24 Q1008","temp":25,"dewp":24,"wdir":20,"wspd":4,"visib":"6+","altim":1008,"clouds":[{"cover":"SCT","base":3000},{"cover":"OVC","base":9000}],"obsTime":1774040400},"SBCB":{"icaoId":"SBCB","flightCategory":"IFR","rawOb":"METAR SBCB 202100Z 10008KT 7000 -DZ BKN008 BKN025 25/23 Q1009","temp":25,"dewp":23,"wdir":100,"wspd":8,"visib":4.35,"altim":1009,"clouds":[{"cover":"BKN","base":800},{"cover":"BKN","base":2500}],"obsTime":1774040400},"SBCR":{"icaoId":"SBCR","flightCategory":"VFR","rawOb":"METAR SBCR 202100Z VRB05KT 9999 SHRA SCT015 SCT030 FEW035TCU 27/26 Q1004","temp":27,"dewp":26,"wdir":"VRB","wspd":5,"visib":"6+","altim":1004,"clouds":[{"cover":"SCT","base":1500},{"cover":"SCT","base":3000},{"cover":"FEW","base":3500}],"obsTime":1774040400},"SBHT":{"icaoId":"SBHT","flightCategory":"VFR","rawOb":"METAR SBHT 202100Z 03004KT 9999 FEW012 BKN080 25/23 Q1008","temp":25,"dewp":23,"wdir":30,"wspd":4,"visib":"6+","altim":1008,"clouds":[{"cover":"FEW","base":1200},{"cover":"BKN","base":8000}],"obsTime":1774040400},"SBTF":{"icaoId":"SBTF","flightCategory":"VFR","rawOb":"METAR SBTF 202100Z 14006KT 9999 FEW020 32/24 Q1006","temp":32,"dewp":24,"wdir":140,"wspd":6,"visib":"6+","altim":1006,"clouds":[{"cover":"FEW","base":2000}],"obsTime":1774040400},"SBCJ":{"icaoId":"SBCJ","flightCategory":"IFR","rawOb":"METAR SBCJ 202100Z 30003KT 3000 BR SCT015 FEW020TCU BKN080 22/20 Q1013 RERA","temp":22,"dewp":20,"wdir":300,"wspd":3,"visib":1.86,"altim":1013,"clouds":[{"cover":"SCT","base":1500},{"cover":"FEW","base":2000},{"cover":"BKN","base":8000}],"obsTime":1774040400},"SBOI":{"icaoId":"SBOI","flightCategory":"IFR","rawOb":"METAR SBOI 202100Z AUTO 05004KT 010V100 9999 BKN008 BKN010 24/23 Q1010 RERA","temp":24,"dewp":23,"wdir":50,"wspd":4,"visib":"6+","altim":1010,"clouds":[{"cover":"BKN","base":800},{"cover":"BKN","base":1000}],"obsTime":1774040400},"SBCO":{"icaoId":"SBCO","flightCategory":"VFR","rawOb":"METAR SBCO 202100Z 10016KT 9999 FEW025 26/21 Q1008","temp":26,"dewp":21,"wdir":100,"wspd":16,"visib":"6+","altim":1008,"clouds":[{"cover":"FEW","base":2500}],"obsTime":1774040400},"SBPS":{"icaoId":"SBPS","flightCategory":"VFR","rawOb":"METAR SBPS 202100Z 04012KT 9999 SCT025 27/24 Q1008","temp":27,"dewp":24,"wdir":40,"wspd":12,"visib":"6+","altim":1008,"clouds":[{"cover":"SCT","base":2500}],"obsTime":1774040400},"SBBU":{"icaoId":"SBBU","flightCategory":"VFR","rawOb":"METAR SBBU 202100Z 10005KT 9999 FEW045 30/21 Q1009","temp":30,"dewp":21,"wdir":100,"wspd":5,"visib":"6+","altim":1009,"clouds":[{"cover":"FEW","base":4500}],"obsTime":1774040400},"SBDN":{"icaoId":"SBDN","flightCategory":"VFR","rawOb":"METAR SBDN 202100Z 00000KT 9999 SCT045 FEW060TCU 32/21 Q1007","temp":32,"dewp":21,"wdir":0,"wspd":0,"visib":"6+","altim":1007,"clouds":[{"cover":"SCT","base":4500},{"cover":"FEW","base":6000}],"obsTime":1774040400},"SBSC":{"icaoId":"SBSC","flightCategory":"VFR","rawOb":"METAR SBSC 202100Z 22004KT 9999 FEW010 SCT020 BKN040 25/23 Q1009","temp":25,"dewp":23,"wdir":220,"wspd":4,"visib":"6+","altim":1009,"clouds":[{"cover":"FEW","base":1000},{"cover":"SCT","base":2000},{"cover":"BKN","base":4000}],"obsTime":1774040400},"SBAR":{"icaoId":"SBAR","flightCategory":"VFR","rawOb":"METAR SBAR 202100Z 08010KT CAVOK 29/24 Q1008","temp":29,"dewp":24,"wdir":80,"wspd":10,"visib":"6+","altim":1008,"clouds":[],"obsTime":1774040400},"SBSJ":{"icaoId":"SBSJ","flightCategory":"VFR","rawOb":"METAR SBSJ 202100Z 16012KT 9999 SCT045 SCT080 25/// Q1012","temp":null,"dewp":null,"wdir":160,"wspd":12,"visib":"6+","altim":1012,"clouds":[{"cover":"SCT","base":4500},{"cover":"SCT","base":8000}],"obsTime":1774040400},"SBCA":{"icaoId":"SBCA","flightCategory":"VFR","rawOb":"METAR SBCA 202100Z 31006KT 270V330 9999 FEW020 29/20 Q1010","temp":29,"dewp":20,"wdir":310,"wspd":6,"visib":"6+","altim":1010,"clouds":[{"cover":"FEW","base":2000}],"obsTime":1774040400},"SBIP":{"icaoId":"SBIP","flightCategory":"MVFR","rawOb":"METAR SBIP 202100Z AUTO 01004KT 9999 -RA BKN018 23/23 Q1009","temp":23,"dewp":23,"wdir":10,"wspd":4,"visib":"6+","altim":1009,"clouds":[{"cover":"BKN","base":1800}],"obsTime":1774040400},"SBSR":{"icaoId":"SBSR","flightCategory":"VFR","rawOb":"METAR SBSR 202100Z 17007KT 9999 VCSH FEW035TCU 30/19 Q1009","temp":30,"dewp":19,"wdir":170,"wspd":7,"visib":"6+","altim":1009,"clouds":[{"cover":"FEW","base":3500}],"obsTime":1774040400},"SBBH":{"icaoId":"SBBH","flightCategory":"MVFR","rawOb":"METAR SBBH 202100Z 00000KT 9999 SCT010 BKN020 BKN065 23/22 Q1011","temp":23,"dewp":22,"wdir":0,"wspd":0,"visib":"6+","altim":1011,"clouds":[{"cover":"SCT","base":1000},{"cover":"BKN","base":2000},{"cover":"BKN","base":6500}],"obsTime":1774040400},"SBTT":{"icaoId":"SBTT","flightCategory":"VFR","rawOb":"METAR SBTT 202100Z 33004KT 9999 SCT027 FEW027TCU 32/22 Q1005","temp":32,"dewp":22,"wdir":330,"wspd":4,"visib":"6+","altim":1005,"clouds":[{"cover":"SCT","base":2700},{"cover":"FEW","base":2700}],"obsTime":1774040400},"SBKG":{"icaoId":"SBKG","flightCategory":"VFR","rawOb":"METAR SBKG 202100Z 08011KT CAVOK 28/20 Q1010","temp":28,"dewp":20,"wdir":80,"wspd":11,"visib":"6+","altim":1010,"clouds":[],"obsTime":1774040400},"SBUY":{"icaoId":"SBUY","flightCategory":"VFR","rawOb":"METAR SBUY 202100Z 02003KT 9999 SCT030 32/23 Q1005","temp":32,"dewp":23,"wdir":20,"wspd":3,"visib":"6+","altim":1005,"clouds":[{"cover":"SCT","base":3000}],"obsTime":1774040400},"SBVH":{"icaoId":"SBVH","flightCategory":"VFR","rawOb":"METAR SBVH 202100Z 31005KT 9999 SCT030 SCT090 27/23 Q1008","temp":27,"dewp":23,"wdir":310,"wspd":5,"visib":"6+","altim":1008,"clouds":[{"cover":"SCT","base":3000},{"cover":"SCT","base":9000}],"obsTime":1774040400},"SBSM":{"icaoId":"SBSM","flightCategory":"VFR","rawOb":"METAR SBSM 202100Z 11004KT CAVOK 29/23 Q1006","temp":29,"dewp":23,"wdir":110,"wspd":4,"visib":"6+","altim":1006,"clouds":[],"obsTime":1774040400},"SBAX":{"icaoId":"SBAX","flightCategory":"VFR","rawOb":"METAR SBAX 202100Z 28005KT 9999 SCT025 SCT045 24/20 Q1013","temp":24,"dewp":20,"wdir":280,"wspd":5,"visib":"6+","altim":1013,"clouds":[{"cover":"SCT","base":2500},{"cover":"SCT","base":4500}],"obsTime":1774040400},"SBPL":{"icaoId":"SBPL","flightCategory":"VFR","rawOb":"METAR SBPL 202100Z 34003KT 9999 FEW030 31/22 Q1007","temp":31,"dewp":22,"wdir":340,"wspd":3,"visib":"6+","altim":1007,"clouds":[{"cover":"FEW","base":3000}],"obsTime":1774040400},"SBPB":{"icaoId":"SBPB","flightCategory":"VFR","rawOb":"METAR SBPB 202100Z 06007KT 9999 FEW020 BKN100 29/25 Q1006","temp":29,"dewp":25,"wdir":60,"wspd":7,"visib":"6+","altim":1006,"clouds":[{"cover":"FEW","base":2000},{"cover":"BKN","base":10000}],"obsTime":1774040400},"SBES":{"icaoId":"SBES","flightCategory":"MVFR","rawOb":"METAR SBES 202100Z VRB02KT 6000 -RA FEW006 SCT015 BKN030 23/// Q1009","temp":null,"dewp":null,"wdir":"VRB","wspd":2,"visib":3.73,"altim":1009,"clouds":[{"cover":"FEW","base":600},{"cover":"SCT","base":1500},{"cover":"BKN","base":3000}],"obsTime":1774040400},"SBPP":{"icaoId":"SBPP","flightCategory":"VFR","rawOb":"METAR SBPP 202100Z 10002KT 9999 SCT025 SCT080 27/21 Q1008","temp":27,"dewp":21,"wdir":100,"wspd":2,"visib":"6+","altim":1008,"clouds":[{"cover":"SCT","base":2500},{"cover":"SCT","base":8000}],"obsTime":1774040400},"SBLE":{"icaoId":"SBLE","flightCategory":"VFR","rawOb":"METAR SBLE 202100Z AUTO 08002KT CAVOK 26/20 Q1011","temp":26,"dewp":20,"wdir":80,"wspd":2,"visib":"6+","altim":1011,"clouds":[],"obsTime":1774040400},"SBJP":{"icaoId":"SBJP","flightCategory":"VFR","rawOb":"METAR SBJP 202100Z 10011KT 9999 FEW020 28/24 Q1009","temp":28,"dewp":24,"wdir":100,"wspd":11,"visib":"6+","altim":1009,"clouds":[{"cover":"FEW","base":2000}],"obsTime":1774040400},"SBLS":{"icaoId":"SBLS","flightCategory":"VFR","rawOb":"METAR SBLS 202100Z 01002KT 9999 SCT015 BKN080 23/21 Q1011","temp":23,"dewp":21,"wdir":10,"wspd":2,"visib":"6+","altim":1011,"clouds":[{"cover":"SCT","base":1500},{"cover":"BKN","base":8000}],"obsTime":1774040400},"SBGW":{"icaoId":"SBGW","flightCategory":"VFR","rawOb":"METAR SBGW 202100Z 11004KT 060V160 9999 BKN035 26/16 Q1011","temp":26,"dewp":16,"wdir":110,"wspd":4,"visib":"6+","altim":1011,"clouds":[{"cover":"BKN","base":3500}],"obsTime":1774040400},"SBMT":{"icaoId":"SBMT","flightCategory":"VFR","rawOb":"METAR SBMT 202100Z 13009KT 110V190 9999 SCT040 23/17 Q1012","temp":23,"dewp":17,"wdir":130,"wspd":9,"visib":"6+","altim":1012,"clouds":[{"cover":"SCT","base":4000}],"obsTime":1774040400},"SBJR":{"icaoId":"SBJR","flightCategory":"MVFR","rawOb":"METAR SBJR 202100Z 24004KT 8000 BKN012 BKN020 BKN040 25/23 Q1009","temp":25,"dewp":23,"wdir":240,"wspd":4,"visib":4.97,"altim":1009,"clouds":[{"cover":"BKN","base":1200},{"cover":"BKN","base":2000},{"cover":"BKN","base":4000}],"obsTime":1774040400},"SBNM":{"icaoId":"SBNM","flightCategory":"VFR","rawOb":"METAR SBNM 202100Z 20002KT CAVOK 33/17 Q1006","temp":33,"dewp":17,"wdir":200,"wspd":2,"visib":"6+","altim":1006,"clouds":[],"obsTime":1774040400},"SBAN":{"icaoId":"SBAN","flightCategory":"IFR","rawOb":"METAR SBAN 202100Z 35002KT 5000 -RA OVC005 19/18 Q1016","temp":19,"dewp":18,"wdir":350,"wspd":2,"visib":3.11,"altim":1016,"clouds":[{"cover":"OVC","base":500}],"obsTime":1774040400},"SBPF":{"icaoId":"SBPF","flightCategory":"VFR","rawOb":"METAR SBPF 202100Z 10005KT CAVOK 30/17 Q1010","temp":30,"dewp":17,"wdir":100,"wspd":5,"visib":"6+","altim":1010,"clouds":[],"obsTime":1774040400},"SBJV":{"icaoId":"SBJV","flightCategory":"VFR","rawOb":"METAR SBJV 202100Z 11005KT 9999 SCT030 27/24 Q1009","temp":27,"dewp":24,"wdir":110,"wspd":5,"visib":"6+","altim":1009,"clouds":[{"cover":"SCT","base":3000}],"obsTime":1774040400},"SBAF":{"icaoId":"SBAF","flightCategory":"MVFR","rawOb":"METAR SBAF 202100Z 19004KT 8000 SCT019 BKN027 OVC053 25/25 Q1009","temp":25,"dewp":25,"wdir":190,"wspd":4,"visib":4.97,"altim":1009,"clouds":[{"cover":"SCT","base":1900},{"cover":"BKN","base":2700},{"cover":"OVC","base":5300}],"obsTime":1774040400},"SBTA":{"icaoId":"SBTA","flightCategory":"VFR","rawOb":"METAR SBTA 202100Z 16004KT 9999 SCT035 SCT070 25/17 Q1010","temp":25,"dewp":17,"wdir":160,"wspd":4,"visib":"6+","altim":1010,"clouds":[{"cover":"SCT","base":3500},{"cover":"SCT","base":7000}],"obsTime":1774040400},"SBST":{"icaoId":"SBST","flightCategory":"VFR","rawOb":"METAR SBST 202100Z 16005KT 9999 SCT030 25/22 Q1009","temp":25,"dewp":22,"wdir":160,"wspd":5,"visib":"6+","altim":1009,"clouds":[{"cover":"SCT","base":3000}],"obsTime":1774040400},"SBIH":{"icaoId":"SBIH","flightCategory":"VFR","rawOb":"METAR SBIH 202100Z 01001KT 9999 FEW018 25/24 Q1008","temp":25,"dewp":24,"wdir":10,"wspd":1,"visib":"6+","altim":1008,"clouds":[{"cover":"FEW","base":1800}],"obsTime":1774040400}}}