{"updated":1783336125,"count":76,"data":{"SBSP":{"icaoId":"SBSP","flightCategory":"IFR","rawOb":"METAR SBSP 061000Z VRB02KT 5000 BR OVC005 14/14 Q1023","temp":14,"dewp":14,"wdir":"VRB","wspd":2,"visib":3.11,"altim":1023,"clouds":[{"cover":"OVC","base":500}],"obsTime":1783332000},"SBFI":{"icaoId":"SBFI","flightCategory":"VFR","rawOb":"METAR SBFI 061000Z 23005KT 9999 FEW030 BKN070 12/10 Q1020","temp":12,"dewp":10,"wdir":230,"wspd":5,"visib":"6+","altim":1020,"clouds":[{"cover":"FEW","base":3000},{"cover":"BKN","base":7000}],"obsTime":1783332000},"SBPV":{"icaoId":"SBPV","flightCategory":"VFR","rawOb":"METAR SBPV 061000Z 00000KT CAVOK 22/20 Q1015","temp":22,"dewp":20,"wdir":0,"wspd":0,"visib":"6+","altim":1015,"clouds":[],"obsTime":1783332000},"SBSL":{"icaoId":"SBSL","flightCategory":"VFR","rawOb":"METAR SBSL 061000Z 09001KT CAVOK 26/24 Q1014","temp":26,"dewp":24,"wdir":90,"wspd":1,"visib":"6+","altim":1014,"clouds":[],"obsTime":1783332000},"SBBE":{"icaoId":"SBBE","flightCategory":"VFR","rawOb":"METAR SBBE 061000Z 10003KT CAVOK 25/24 Q1014","temp":25,"dewp":24,"wdir":100,"wspd":3,"visib":"6+","altim":1014,"clouds":[],"obsTime":1783332000},"SBFZ":{"icaoId":"SBFZ","flightCategory":"VFR","rawOb":"METAR SBFZ 061000Z 16005KT 9999 FEW020 26/24 Q1014","temp":26,"dewp":24,"wdir":160,"wspd":5,"visib":"6+","altim":1014,"clouds":[{"cover":"FEW","base":2000}],"obsTime":1783332000},"SBEG":{"icaoId":"SBEG","flightCategory":"VFR","rawOb":"METAR SBEG 061000Z 32001KT CAVOK 25/24 Q1014","temp":25,"dewp":24,"wdir":320,"wspd":1,"visib":"6+","altim":1014,"clouds":[],"obsTime":1783332000},"SBRB":{"icaoId":"SBRB","flightCategory":"MVFR","rawOb":"METAR SBRB 061000Z 00000KT 8000 FEW010 19/18 Q1016","temp":19,"dewp":18,"wdir":0,"wspd":0,"visib":4.97,"altim":1016,"clouds":[{"cover":"FEW","base":1000}],"obsTime":1783332000},"SBSN":{"icaoId":"SBSN","flightCategory":"VFR","rawOb":"METAR SBSN 061000Z 11002KT 9999 FEW015 BKN075 25/24 Q1014","temp":25,"dewp":24,"wdir":110,"wspd":2,"visib":"6+","altim":1014,"clouds":[{"cover":"FEW","base":1500},{"cover":"BKN","base":7500}],"obsTime":1783332000},"SBBV":{"icaoId":"SBBV","flightCategory":"VFR","rawOb":"METAR SBBV 061000Z 02001KT 9999 FEW005 FEW030TCU BKN100 24/23 Q1015","temp":24,"dewp":23,"wdir":20,"wspd":1,"visib":"6+","altim":1015,"clouds":[{"cover":"FEW","base":500},{"cover":"FEW","base":3000},{"cover":"BKN","base":10000}],"obsTime":1783332000},"SBCF":{"icaoId":"SBCF","flightCategory":"VFR","rawOb":"METAR SBCF 061000Z VRB02KT CAVOK 15/13 Q1022","temp":15,"dewp":13,"wdir":"VRB","wspd":2,"visib":"6+","altim":1022,"clouds":[],"obsTime":1783332000},"SBCP":{"icaoId":"SBCP","flightCategory":"VFR","rawOb":"METAR SBCP 061000Z 25004KT 9999 FEW015 BKN050 20/16 Q1020","temp":20,"dewp":16,"wdir":250,"wspd":4,"visib":"6+","altim":1020,"clouds":[{"cover":"FEW","base":1500},{"cover":"BKN","base":5000}],"obsTime":1783332000},"SBPA":{"icaoId":"SBPA","flightCategory":"IFR","rawOb":"METAR SBPA 061000Z 29008KT 4000 BR BKN005 BKN045 13/13 Q1017","temp":13,"dewp":13,"wdir":290,"wspd":8,"visib":2.49,"altim":1017,"clouds":[{"cover":"BKN","base":500},{"cover":"BKN","base":4500}],"obsTime":1783332000},"SBCG":{"icaoId":"SBCG","flightCategory":"VFR","rawOb":"METAR SBCG 061000Z 06007KT CAVOK 17/13 Q1019","temp":17,"dewp":13,"wdir":60,"wspd":7,"visib":"6+","altim":1019,"clouds":[],"obsTime":1783332000},"SBRF":{"icaoId":"SBRF","flightCategory":"VFR","rawOb":"METAR SBRF 061000Z 20009KT 9999 FEW019 23/22 Q1017","temp":23,"dewp":22,"wdir":200,"wspd":9,"visib":"6+","altim":1017,"clouds":[{"cover":"FEW","base":1900}],"obsTime":1783332000},"SBFL":{"icaoId":"SBFL","flightCategory":"VFR","rawOb":"METAR SBFL 061000Z 34007KT 9999 FEW014 BKN090 15/14 Q1018","temp":15,"dewp":14,"wdir":340,"wspd":7,"visib":"6+","altim":1018,"clouds":[{"cover":"FEW","base":1400},{"cover":"BKN","base":9000}],"obsTime":1783332000},"SBMO":{"icaoId":"SBMO","flightCategory":"VFR","rawOb":"METAR SBMO 061000Z 30005KT CAVOK 21/21 Q1018","temp":21,"dewp":21,"wdir":300,"wspd":5,"visib":"6+","altim":1018,"clouds":[],"obsTime":1783332000},"SBGL":{"icaoId":"SBGL","flightCategory":"MVFR","rawOb":"METAR SBGL 061000Z 03002KT 8000 SCT023 17/16 Q1021","temp":17,"dewp":16,"wdir":30,"wspd":2,"visib":4.97,"altim":1021,"clouds":[{"cover":"SCT","base":2300}],"obsTime":1783332000},"SBVT":{"icaoId":"SBVT","flightCategory":"VFR","rawOb":"METAR SBVT 061000Z 01002KT 9999 SCT048 19/18 Q1020","temp":19,"dewp":18,"wdir":10,"wspd":2,"visib":"6+","altim":1020,"clouds":[{"cover":"SCT","base":4800}],"obsTime":1783332000},"SBTE":{"icaoId":"SBTE","flightCategory":"VFR","rawOb":"METAR SBTE 061000Z 00000KT 9999 FEW006 SCT080 24/23 Q1014","temp":24,"dewp":23,"wdir":0,"wspd":0,"visib":"6+","altim":1014,"clouds":[{"cover":"FEW","base":600},{"cover":"SCT","base":8000}],"obsTime":1783332000},"SBSG":{"icaoId":"SBSG","flightCategory":"VFR","rawOb":"METAR SBSG 061000Z 18006KT 150V220 9999 FEW008 24/23 Q1016","temp":24,"dewp":23,"wdir":180,"wspd":6,"visib":"6+","altim":1016,"clouds":[{"cover":"FEW","base":800}],"obsTime":1783332000},"SBCB":{"icaoId":"SBCB","flightCategory":"VFR","rawOb":"METAR SBCB 061000Z 30005KT 9999 FEW020 19/17 Q1021","temp":19,"dewp":17,"wdir":300,"wspd":5,"visib":"6+","altim":1021,"clouds":[{"cover":"FEW","base":2000}],"obsTime":1783332000},"SBKP":{"icaoId":"SBKP","flightCategory":"IFR","rawOb":"METAR SBKP 061000Z 11006KT 3000 BR NSC 13/13 Q1021","temp":13,"dewp":13,"wdir":110,"wspd":6,"visib":1.86,"altim":1021,"clouds":[],"obsTime":1783332000},"SBPJ":{"icaoId":"SBPJ","flightCategory":"VFR","rawOb":"METAR SBPJ 061000Z 12003KT CAVOK 20/17 Q1016","temp":20,"dewp":17,"wdir":120,"wspd":3,"visib":"6+","altim":1016,"clouds":[],"obsTime":1783332000},"SBBR":{"icaoId":"SBBR","flightCategory":"VFR","rawOb":"METAR SBBR 061000Z VRB01KT 9999 FEW025 SCT060 14/11 Q1023","temp":14,"dewp":11,"wdir":"VRB","wspd":1,"visib":"6+","altim":1023,"clouds":[{"cover":"FEW","base":2500},{"cover":"SCT","base":6000}],"obsTime":1783332000},"SBGR":{"icaoId":"SBGR","flightCategory":"LIFR","rawOb":"METAR SBGR 061000Z 05005KT 5000 BR OVC004 14/13 Q1022","temp":14,"dewp":13,"wdir":50,"wspd":5,"visib":3.11,"altim":1022,"clouds":[{"cover":"OVC","base":400}],"obsTime":1783332000},"SBMA":{"icaoId":"SBMA","flightCategory":"VFR","rawOb":"METAR SBMA 061000Z 00000KT 9000 FEW015 24/22 Q1015","temp":24,"dewp":22,"wdir":0,"wspd":0,"visib":5.59,"altim":1015,"clouds":[{"cover":"FEW","base":1500}],"obsTime":1783332000},"SBSV":{"icaoId":"SBSV","flightCategory":"VFR","rawOb":"METAR SBSV 061000Z 29001KT 9999 VCSH SCT025 BKN060 23/21 Q1018","temp":23,"dewp":21,"wdir":290,"wspd":1,"visib":"6+","altim":1018,"clouds":[{"cover":"SCT","base":2500},{"cover":"BKN","base":6000}],"obsTime":1783332000},"SBGO":{"icaoId":"SBGO","flightCategory":"VFR","rawOb":"METAR SBGO 061000Z 32002KT CAVOK 14/13 Q1020","temp":14,"dewp":13,"wdir":320,"wspd":2,"visib":"6+","altim":1020,"clouds":[],"obsTime":1783332000},"SBCT":{"icaoId":"SBCT","flightCategory":"LIFR","rawOb":"METAR SBCT 061000Z 28003KT 0800 R33/0800 R15/1400 FG VV001 12/12 Q1022","temp":12,"dewp":12,"wdir":280,"wspd":3,"visib":0.5,"altim":1022,"clouds":[{"cover":"OVX","base":100}],"obsTime":1783332000},"SBCR":{"icaoId":"SBCR","flightCategory":"VFR","rawOb":"METAR SBCR 061100Z 21013G26KT 9999 FEW008 16/14 Q1019","temp":16,"dewp":14,"wdir":210,"wspd":13,"visib":"6+","altim":1019,"clouds":[{"cover":"FEW","base":800}],"obsTime":1783335600},"SBMQ":{"icaoId":"SBMQ","flightCategory":"VFR","rawOb":"METAR SBMQ 061000Z 31002KT 9999 SCT017 25/24 Q1014","temp":25,"dewp":24,"wdir":310,"wspd":2,"visib":"6+","altim":1014,"clouds":[{"cover":"SCT","base":1700}],"obsTime":1783332000},"SBLO":{"icaoId":"SBLO","flightCategory":"IFR","rawOb":"SPECI SBLO 060916Z 21002KT 7000 0900W PRFG FEW002 BKN007 15/15 Q1020","temp":15,"dewp":15,"wdir":210,"wspd":2,"visib":4.35,"altim":1020,"clouds":[{"cover":"FEW","base":200},{"cover":"BKN","base":700}],"obsTime":1783329360},"SBNT":{"icaoId":"SBNT","flightCategory":"VFR","rawOb":"METAR SBNT 061000Z 18009KT 9999 FEW020 25/22 Q1016","temp":25,"dewp":22,"wdir":180,"wspd":9,"visib":"6+","altim":1016,"clouds":[{"cover":"FEW","base":2000}],"obsTime":1783332000},"SBMG":{"icaoId":"SBMG","flightCategory":"VFR","rawOb":"METAR SBMG 061000Z 17004KT 9999 4000S BCFG NSC 15/14 Q1019","temp":15,"dewp":14,"wdir":170,"wspd":4,"visib":"6+","altim":1019,"clouds":[],"obsTime":1783332000},"SBIL":{"icaoId":"SBIL","flightCategory":"VFR","rawOb":"METAR SBIL 061000Z 26005KT CAVOK 22/21 Q1019","temp":22,"dewp":21,"wdir":260,"wspd":5,"visib":"6+","altim":1019,"clouds":[],"obsTime":1783332000},"SBJU":{"icaoId":"SBJU","flightCategory":"VFR","rawOb":"METAR SBJU 061000Z 00000KT CAVOK 21/17 Q1019","temp":21,"dewp":17,"wdir":0,"wspd":0,"visib":"6+","altim":1019,"clouds":[],"obsTime":1783332000},"SBHT":{"icaoId":"SBHT","flightCategory":"VFR","rawOb":"METAR SBHT 061000Z 00000KT 9999 FEW012 SCT080 24/23 Q1015","temp":24,"dewp":23,"wdir":0,"wspd":0,"visib":"6+","altim":1015,"clouds":[{"cover":"FEW","base":1200},{"cover":"SCT","base":8000}],"obsTime":1783332000},"SBME":{"icaoId":"SBME","flightCategory":"VFR","rawOb":"METAR SBME 061000Z 28003KT 9999 SCT046 16/15 Q1020","temp":16,"dewp":15,"wdir":280,"wspd":3,"visib":"6+","altim":1020,"clouds":[{"cover":"SCT","base":4600}],"obsTime":1783332000},"SBMK":{"icaoId":"SBMK","flightCategory":"VFR","rawOb":"METAR SBMK 061000Z 25002KT CAVOK 14/11 Q1021","temp":14,"dewp":11,"wdir":250,"wspd":2,"visib":"6+","altim":1021,"clouds":[],"obsTime":1783332000},"SBUL":{"icaoId":"SBUL","flightCategory":"VFR","rawOb":"METAR SBUL 061000Z 14008KT CAVOK 18/13 Q1022","temp":18,"dewp":13,"wdir":140,"wspd":8,"visib":"6+","altim":1022,"clouds":[],"obsTime":1783332000},"SBUR":{"icaoId":"SBUR","flightCategory":"VFR","rawOb":"METAR SBUR 061000Z 30002KT CAVOK 17/12 Q1021","temp":17,"dewp":12,"wdir":300,"wspd":2,"visib":"6+","altim":1021,"clouds":[],"obsTime":1783332000},"SBOI":{"icaoId":"SBOI","flightCategory":"LIFR","rawOb":"METAR SBOI 061000Z AUTO 33002KT 0600 // VV001 24/23 Q1014","temp":24,"dewp":23,"wdir":330,"wspd":2,"visib":0.37,"altim":1014,"clouds":[{"cover":"OVX","base":100}],"obsTime":1783332000},"SBTD":{"icaoId":"SBTD","flightCategory":"VFR","rawOb":"METAR SBTD 061100Z /////KT 9000 FEW003 SCT005 BKN100 14/14 Q1021","temp":14,"dewp":14,"wdir":null,"wspd":null,"visib":5.59,"altim":1021,"clouds":[{"cover":"FEW","base":300},{"cover":"SCT","base":500},{"cover":"BKN","base":10000}],"obsTime":1783335600},"SBUY":{"icaoId":"SBUY","flightCategory":"VFR","rawOb":"METAR SBUY 061100Z 00000KT 9999 1000E NSC 21/21 Q1014","temp":21,"dewp":21,"wdir":0,"wspd":0,"visib":"6+","altim":1014,"clouds":[],"obsTime":1783335600},"SBCJ":{"icaoId":"SBCJ","flightCategory":"VFR","rawOb":"SPECI SBCJ 061015Z 06003KT 320V090 CAVOK 22/18 Q1018","temp":22,"dewp":18,"wdir":60,"wspd":3,"visib":"6+","altim":1018,"clouds":[],"obsTime":1783332900},"SBTT":{"icaoId":"SBTT","flightCategory":"VFR","rawOb":"METAR SBTT 061100Z 03002KT 9000 SCT003 SCT070 23/23 Q1015","temp":23,"dewp":23,"wdir":30,"wspd":2,"visib":5.59,"altim":1015,"clouds":[{"cover":"SCT","base":300},{"cover":"SCT","base":7000}],"obsTime":1783335600},"SBPB":{"icaoId":"SBPB","flightCategory":"VFR","rawOb":"SPECI SBPB 061015Z 08006KT CAVOK 26/23 Q1014","temp":26,"dewp":23,"wdir":80,"wspd":6,"visib":"6+","altim":1014,"clouds":[],"obsTime":1783332900},"SBAR":{"icaoId":"SBAR","flightCategory":"VFR","rawOb":"METAR SBAR 061000Z 29003KT 250V320 9999 VCSH SCT026 BKN070 23/21 Q1018","temp":23,"dewp":21,"wdir":290,"wspd":3,"visib":"6+","altim":1018,"clouds":[{"cover":"SCT","base":2600},{"cover":"BKN","base":7000}],"obsTime":1783332000},"SBPL":{"icaoId":"SBPL","flightCategory":"MVFR","rawOb":"METAR SBPL 061000Z 10007KT 9999 FEW015 BKN018 23/20 Q1019","temp":23,"dewp":20,"wdir":100,"wspd":7,"visib":"6+","altim":1019,"clouds":[{"cover":"FEW","base":1500},{"cover":"BKN","base":1800}],"obsTime":1783332000},"SBSJ":{"icaoId":"SBSJ","flightCategory":"IFR","rawOb":"METAR SBSJ 061000Z VRB01KT 5000 BR OVC008 14/14 Q1022","temp":14,"dewp":14,"wdir":"VRB","wspd":1,"visib":3.11,"altim":1022,"clouds":[{"cover":"OVC","base":800}],"obsTime":1783332000},"SBPS":{"icaoId":"SBPS","flightCategory":"VFR","rawOb":"METAR SBPS 061000Z 26005KT 9999 SCT025 BKN070 20/20 Q1019","temp":20,"dewp":20,"wdir":260,"wspd":5,"visib":"6+","altim":1019,"clouds":[{"cover":"SCT","base":2500},{"cover":"BKN","base":7000}],"obsTime":1783332000},"SBIP":{"icaoId":"SBIP","flightCategory":"LIFR","rawOb":"METAR SBIP 061000Z AUTO VRB02KT 1900 BR FEW001 BKN003 OVC022 14/14 Q1021","temp":14,"dewp":14,"wdir":"VRB","wspd":2,"visib":1.18,"altim":1021,"clouds":[{"cover":"FEW","base":100},{"cover":"BKN","base":300},{"cover":"OVC","base":2200}],"obsTime":1783332000},"SBTU":{"icaoId":"SBTU","flightCategory":"VFR","rawOb":"METAR SBTU 061000Z AUTO 20005KT 9999 // BKN050/// 24/23 Q1016","temp":24,"dewp":23,"wdir":200,"wspd":5,"visib":"6+","altim":1016,"clouds":[{"cover":"BKN","base":5000}],"obsTime":1783332000},"SBSR":{"icaoId":"SBSR","flightCategory":"VFR","rawOb":"METAR SBSR 061000Z 00000KT CAVOK 17/14 Q1020","temp":17,"dewp":14,"wdir":0,"wspd":0,"visib":"6+","altim":1020,"clouds":[],"obsTime":1783332000},"SBCA":{"icaoId":"SBCA","flightCategory":"LIFR","rawOb":"METAR SBCA 061000Z 24006KT 0800 FG VV000 14/14 Q1021","temp":14,"dewp":14,"wdir":240,"wspd":6,"visib":0.5,"altim":1021,"clouds":[{"cover":"OVX","base":0}],"obsTime":1783332000},"SBCO":{"icaoId":"SBCO","flightCategory":"IFR","rawOb":"METAR SBCO 061000Z 29009KT 4000 BR SCT008 OVC045 13/12 Q1018","temp":13,"dewp":12,"wdir":290,"wspd":9,"visib":2.49,"altim":1018,"clouds":[{"cover":"SCT","base":800},{"cover":"OVC","base":4500}],"obsTime":1783332000},"SBSM":{"icaoId":"SBSM","flightCategory":"MVFR","rawOb":"METAR SBSM 061000Z 26004KT 9999 FEW011 BKN017 OVC022 11/10 Q1020","temp":11,"dewp":10,"wdir":260,"wspd":4,"visib":"6+","altim":1020,"clouds":[{"cover":"FEW","base":1100},{"cover":"BKN","base":1700},{"cover":"OVC","base":2200}],"obsTime":1783332000},"SBKG":{"icaoId":"SBKG","flightCategory":"VFR","rawOb":"METAR SBKG 061000Z 25002KT 9999 FEW010 21/19 Q1019","temp":21,"dewp":19,"wdir":250,"wspd":2,"visib":"6+","altim":1019,"clouds":[{"cover":"FEW","base":1000}],"obsTime":1783332000},"SBAX":{"icaoId":"SBAX","flightCategory":"VFR","rawOb":"METAR SBAX 061000Z AUTO 10004KT CAVOK 17/13 Q1022","temp":17,"dewp":13,"wdir":100,"wspd":4,"visib":"6+","altim":1022,"clouds":[],"obsTime":1783332000},"SBBH":{"icaoId":"SBBH","flightCategory":"VFR","rawOb":"METAR SBBH 061000Z 11005KT CAVOK 15/13 Q1021","temp":15,"dewp":13,"wdir":110,"wspd":5,"visib":"6+","altim":1021,"clouds":[],"obsTime":1783332000},"SBBU":{"icaoId":"SBBU","flightCategory":"MVFR","rawOb":"METAR SBBU 061000Z 09003KT 5000 BR SCT045 15/15 Q1020","temp":15,"dewp":15,"wdir":90,"wspd":3,"visib":3.11,"altim":1020,"clouds":[{"cover":"SCT","base":4500}],"obsTime":1783332000},"SBDN":{"icaoId":"SBDN","flightCategory":"MVFR","rawOb":"METAR SBDN 061000Z 10003KT 7000 NSC 14/13 Q1019","temp":14,"dewp":13,"wdir":100,"wspd":3,"visib":4.35,"altim":1019,"clouds":[],"obsTime":1783332000},"SBES":{"icaoId":"SBES","flightCategory":"VFR","rawOb":"METAR SBES 061000Z 00000KT 9999 FEW030 14/// Q1021","temp":null,"dewp":null,"wdir":0,"wspd":0,"visib":"6+","altim":1021,"clouds":[{"cover":"FEW","base":3000}],"obsTime":1783332000},"SBSC":{"icaoId":"SBSC","flightCategory":"VFR","rawOb":"METAR SBSC 061000Z 02006KT 9999 FEW015 16/15 Q1021","temp":16,"dewp":15,"wdir":20,"wspd":6,"visib":"6+","altim":1021,"clouds":[{"cover":"FEW","base":1500}],"obsTime":1783332000},"SBJP":{"icaoId":"SBJP","flightCategory":"VFR","rawOb":"METAR SBJP 061000Z 18007KT CAVOK 24/22 Q1017","temp":24,"dewp":22,"wdir":180,"wspd":7,"visib":"6+","altim":1017,"clouds":[],"obsTime":1783332000},"SBLE":{"icaoId":"SBLE","flightCategory":"MVFR","rawOb":"METAR SBLE 061000Z AUTO 17003KT 140V210 5000 -RA SCT005 BKN019 OVC029 ///// Q1021","temp":null,"dewp":null,"wdir":170,"wspd":3,"visib":3.11,"altim":1021,"clouds":[{"cover":"SCT","base":500},{"cover":"BKN","base":1900},{"cover":"OVC","base":2900}],"obsTime":1783332000},"SBPF":{"icaoId":"SBPF","flightCategory":"VFR","rawOb":"METAR SBPF 061000Z 27003KT CAVOK 12/11 Q1020","temp":12,"dewp":11,"wdir":270,"wspd":3,"visib":"6+","altim":1020,"clouds":[],"obsTime":1783332000},"SBAF":{"icaoId":"SBAF","flightCategory":"VFR","rawOb":"METAR SBAF 061000Z 24002KT CAVOK 15/15 Q1021","temp":15,"dewp":15,"wdir":240,"wspd":2,"visib":"6+","altim":1021,"clouds":[],"obsTime":1783332000},"SBGW":{"icaoId":"SBGW","flightCategory":"IFR","rawOb":"METAR SBGW 061000Z VRB02KT 4000 HZ OVC012 16/12 Q1022","temp":16,"dewp":12,"wdir":"VRB","wspd":2,"visib":2.49,"altim":1022,"clouds":[{"cover":"OVC","base":1200}],"obsTime":1783332000},"SBJR":{"icaoId":"SBJR","flightCategory":"VFR","rawOb":"METAR SBJR 061000Z 01002KT 9999 FEW015 17/16 Q1021","temp":17,"dewp":16,"wdir":10,"wspd":2,"visib":"6+","altim":1021,"clouds":[{"cover":"FEW","base":1500}],"obsTime":1783332000},"SBLS":{"icaoId":"SBLS","flightCategory":"VFR","rawOb":"METAR SBLS 061000Z 16008KT CAVOK 16/13 Q1021","temp":16,"dewp":13,"wdir":160,"wspd":8,"visib":"6+","altim":1021,"clouds":[],"obsTime":1783332000},"SBMT":{"icaoId":"SBMT","flightCategory":"IFR","rawOb":"METAR SBMT 061000Z 10003KT 060V130 2500 BR OVC006 14/14 Q1022","temp":14,"dewp":14,"wdir":100,"wspd":3,"visib":1.55,"altim":1022,"clouds":[{"cover":"OVC","base":600}],"obsTime":1783332000},"SBTA":{"icaoId":"SBTA","flightCategory":"IFR","rawOb":"METAR SBTA 061000Z 05004KT 7000 OVC007 16/14 Q1022","temp":16,"dewp":14,"wdir":50,"wspd":4,"visib":4.35,"altim":1022,"clouds":[{"cover":"OVC","base":700}],"obsTime":1783332000},"SBJV":{"icaoId":"SBJV","flightCategory":"LIFR","rawOb":"METAR SBJV 061000Z 30001KT 1500 R33/1500 BR MIFG SCT001 12/12 Q1020","temp":12,"dewp":12,"wdir":300,"wspd":1,"visib":0.93,"altim":1020,"clouds":[{"cover":"SCT","base":100}],"obsTime":1783332000},"SBAN":{"icaoId":"SBAN","flightCategory":"VFR","rawOb":"METAR SBAN 061000Z 14002KT CAVOK 16/11 Q1023","temp":16,"dewp":11,"wdir":140,"wspd":2,"visib":"6+","altim":1023,"clouds":[],"obsTime":1783332000}}}