{"updated":1775817680,"count":70,"data":{"SBPV":{"icaoId":"SBPV","flightCategory":"VFR","rawOb":"METAR SBPV 100900Z 16006KT CAVOK 24/23 Q1013","temp":24,"dewp":23,"wdir":160,"wspd":6,"visib":"6+","altim":1013,"clouds":[],"obsTime":1775811600},"SBBE":{"icaoId":"SBBE","flightCategory":"VFR","rawOb":"METAR SBBE 100900Z 06004KT 9999 SCT025 25/25 Q1011","temp":25,"dewp":25,"wdir":60,"wspd":4,"visib":"6+","altim":1011,"clouds":[{"cover":"SCT","base":2500}],"obsTime":1775811600},"SBBR":{"icaoId":"SBBR","flightCategory":"LIFR","rawOb":"METAR SBBR 100900Z 19003KT 1500 R29R/0600 R11L/P2000 R11R/P2000 R29L/P2000 BR FEW001 SCT100 19/18 Q1018","temp":19,"dewp":18,"wdir":190,"wspd":3,"visib":0.93,"altim":1018,"clouds":[{"cover":"FEW","base":100},{"cover":"SCT","base":10000}],"obsTime":1775811600},"SBRB":{"icaoId":"SBRB","flightCategory":"VFR","rawOb":"METAR SBRB 100900Z 06004KT 9999 SCT030 SCT100 24/24 Q1013","temp":24,"dewp":24,"wdir":60,"wspd":4,"visib":"6+","altim":1013,"clouds":[{"cover":"SCT","base":3000},{"cover":"SCT","base":10000}],"obsTime":1775811600},"SBBV":{"icaoId":"SBBV","flightCategory":"VFR","rawOb":"METAR SBBV 100900Z 09006KT 9999 FEW040 SCT100 25/24 Q1011","temp":25,"dewp":24,"wdir":90,"wspd":6,"visib":"6+","altim":1011,"clouds":[{"cover":"FEW","base":4000},{"cover":"SCT","base":10000}],"obsTime":1775811600},"SBCB":{"icaoId":"SBCB","flightCategory":"VFR","rawOb":"METAR SBCB 100900Z 28007KT 9999 SCT020 BKN050 24/22 Q1015","temp":24,"dewp":22,"wdir":280,"wspd":7,"visib":"6+","altim":1015,"clouds":[{"cover":"SCT","base":2000},{"cover":"BKN","base":5000}],"obsTime":1775811600},"SBCF":{"icaoId":"SBCF","flightCategory":"VFR","rawOb":"METAR SBCF 100900Z 16006KT 9999 FEW025 BKN100 20/18 Q1018","temp":20,"dewp":18,"wdir":160,"wspd":6,"visib":"6+","altim":1018,"clouds":[{"cover":"FEW","base":2500},{"cover":"BKN","base":10000}],"obsTime":1775811600},"SBCG":{"icaoId":"SBCG","flightCategory":"VFR","rawOb":"METAR SBCG 100900Z 12007KT 9999 FEW028 BKN090 22/19 Q1016","temp":22,"dewp":19,"wdir":120,"wspd":7,"visib":"6+","altim":1016,"clouds":[{"cover":"FEW","base":2800},{"cover":"BKN","base":9000}],"obsTime":1775811600},"SBCP":{"icaoId":"SBCP","flightCategory":"VFR","rawOb":"METAR SBCP 101000Z 23007KT 9999 FEW025 BKN090 25/22 Q1015","temp":25,"dewp":22,"wdir":230,"wspd":7,"visib":"6+","altim":1015,"clouds":[{"cover":"FEW","base":2500},{"cover":"BKN","base":9000}],"obsTime":1775815200},"SBCT":{"icaoId":"SBCT","flightCategory":"IFR","rawOb":"METAR SBCT 100900Z 14010KT 4000 -DZ OVC005 14/14 Q1020","temp":14,"dewp":14,"wdir":140,"wspd":10,"visib":2.49,"altim":1020,"clouds":[{"cover":"OVC","base":500}],"obsTime":1775811600},"SBEG":{"icaoId":"SBEG","flightCategory":"VFR","rawOb":"METAR SBEG 100900Z 31001KT 9999 SCT018 24/23 Q1011","temp":24,"dewp":23,"wdir":310,"wspd":1,"visib":"6+","altim":1011,"clouds":[{"cover":"SCT","base":1800}],"obsTime":1775811600},"SBFI":{"icaoId":"SBFI","flightCategory":"MVFR","rawOb":"METAR SBFI 100900Z 09001KT 7000 BCFG FEW003 13/13 Q1016","temp":13,"dewp":13,"wdir":90,"wspd":1,"visib":4.35,"altim":1016,"clouds":[{"cover":"FEW","base":300}],"obsTime":1775811600},"SBFL":{"icaoId":"SBFL","flightCategory":"VFR","rawOb":"METAR SBFL 100900Z 18006KT 9999 FEW020 BKN060 21/15 Q1017","temp":21,"dewp":15,"wdir":180,"wspd":6,"visib":"6+","altim":1017,"clouds":[{"cover":"FEW","base":2000},{"cover":"BKN","base":6000}],"obsTime":1775811600},"SBFZ":{"icaoId":"SBFZ","flightCategory":"VFR","rawOb":"METAR SBFZ 100900Z VRB02KT 9999 SCT020 25/24 Q1010","temp":25,"dewp":24,"wdir":"VRB","wspd":2,"visib":"6+","altim":1010,"clouds":[{"cover":"SCT","base":2000}],"obsTime":1775811600},"SBGL":{"icaoId":"SBGL","flightCategory":"IFR","rawOb":"METAR SBGL 100900Z 34006KT 7000 BKN007 OVC030 22/21 Q1015","temp":22,"dewp":21,"wdir":340,"wspd":6,"visib":4.35,"altim":1015,"clouds":[{"cover":"BKN","base":700},{"cover":"OVC","base":3000}],"obsTime":1775811600},"SBGO":{"icaoId":"SBGO","flightCategory":"VFR","rawOb":"METAR SBGO 100900Z 26002KT CAVOK 21/20 Q1017","temp":21,"dewp":20,"wdir":260,"wspd":2,"visib":"6+","altim":1017,"clouds":[],"obsTime":1775811600},"SBGR":{"icaoId":"SBGR","flightCategory":"MVFR","rawOb":"METAR SBGR 100900Z 12004KT 090V150 9999 BKN013 BKN021 19/17 Q1019","temp":19,"dewp":17,"wdir":120,"wspd":4,"visib":"6+","altim":1019,"clouds":[{"cover":"BKN","base":1300},{"cover":"BKN","base":2100}],"obsTime":1775811600},"SBHT":{"icaoId":"SBHT","flightCategory":"VFR","rawOb":"METAR SBHT 101000Z 00000KT 9999 SCT015 24/23 Q1012","temp":24,"dewp":23,"wdir":0,"wspd":0,"visib":"6+","altim":1012,"clouds":[{"cover":"SCT","base":1500}],"obsTime":1775815200},"SBIL":{"icaoId":"SBIL","flightCategory":"VFR","rawOb":"METAR SBIL 101000Z 30005KT 9999 SCT020 24/23 Q1014","temp":24,"dewp":23,"wdir":300,"wspd":5,"visib":"6+","altim":1014,"clouds":[{"cover":"SCT","base":2000}],"obsTime":1775815200},"SBJU":{"icaoId":"SBJU","flightCategory":"VFR","rawOb":"METAR SBJU 100900Z 00000KT 9999 FEW020 22/21 Q1014","temp":22,"dewp":21,"wdir":0,"wspd":0,"visib":"6+","altim":1014,"clouds":[{"cover":"FEW","base":2000}],"obsTime":1775811600},"SBKP":{"icaoId":"SBKP","flightCategory":"VFR","rawOb":"METAR SBKP 100900Z 12010KT CAVOK 19/17 Q1017","temp":19,"dewp":17,"wdir":120,"wspd":10,"visib":"6+","altim":1017,"clouds":[],"obsTime":1775811600},"SBLO":{"icaoId":"SBLO","flightCategory":"MVFR","rawOb":"METAR SBLO 100900Z 12005KT 9999 BKN015 BKN100 19/17 Q1016","temp":19,"dewp":17,"wdir":120,"wspd":5,"visib":"6+","altim":1016,"clouds":[{"cover":"BKN","base":1500},{"cover":"BKN","base":10000}],"obsTime":1775811600},"SBMA":{"icaoId":"SBMA","flightCategory":"VFR","rawOb":"METAR SBMA 100900Z 12002KT 9999 -RA FEW005 OVC080 25/23 Q1011","temp":25,"dewp":23,"wdir":120,"wspd":2,"visib":"6+","altim":1011,"clouds":[{"cover":"FEW","base":500},{"cover":"OVC","base":8000}],"obsTime":1775811600},"SBME":{"icaoId":"SBME","flightCategory":"VFR","rawOb":"METAR SBME 100900Z 29003KT 9999 SCT020 BKN080 24/22 Q1014","temp":24,"dewp":22,"wdir":290,"wspd":3,"visib":"6+","altim":1014,"clouds":[{"cover":"SCT","base":2000},{"cover":"BKN","base":8000}],"obsTime":1775811600},"SBMG":{"icaoId":"SBMG","flightCategory":"VFR","rawOb":"METAR SBMG 100900Z AUTO 02003KT CAVOK 18/17 Q1015","temp":18,"dewp":17,"wdir":20,"wspd":3,"visib":"6+","altim":1015,"clouds":[],"obsTime":1775811600},"SBMK":{"icaoId":"SBMK","flightCategory":"VFR","rawOb":"METAR SBMK 100900Z 00000KT CAVOK 21/20 Q1015","temp":21,"dewp":20,"wdir":0,"wspd":0,"visib":"6+","altim":1015,"clouds":[],"obsTime":1775811600},"SBMO":{"icaoId":"SBMO","flightCategory":"VFR","rawOb":"METAR SBMO 100900Z 29004KT 9999 FEW025 22/22 Q1013","temp":22,"dewp":22,"wdir":290,"wspd":4,"visib":"6+","altim":1013,"clouds":[{"cover":"FEW","base":2500}],"obsTime":1775811600},"SBMQ":{"icaoId":"SBMQ","flightCategory":"VFR","rawOb":"METAR SBMQ 100900Z 28002KT CAVOK 24/24 Q1011","temp":24,"dewp":24,"wdir":280,"wspd":2,"visib":"6+","altim":1011,"clouds":[],"obsTime":1775811600},"SBNT":{"icaoId":"SBNT","flightCategory":"VFR","rawOb":"METAR SBNT 100900Z 18005KT 9999 FEW020 25/24 Q1011","temp":25,"dewp":24,"wdir":180,"wspd":5,"visib":"6+","altim":1011,"clouds":[{"cover":"FEW","base":2000}],"obsTime":1775811600},"SBPA":{"icaoId":"SBPA","flightCategory":"VFR","rawOb":"METAR SBPA 100900Z 30004KT 9999 SCT030 SCT070 18/17 Q1018","temp":18,"dewp":17,"wdir":300,"wspd":4,"visib":"6+","altim":1018,"clouds":[{"cover":"SCT","base":3000},{"cover":"SCT","base":7000}],"obsTime":1775811600},"SBPJ":{"icaoId":"SBPJ","flightCategory":"VFR","rawOb":"METAR SBPJ 100900Z 08004KT 9000 TS VCSH FEW010 SCT025 FEW026CB BKN050 24/23 Q1014","temp":24,"dewp":23,"wdir":80,"wspd":4,"visib":5.59,"altim":1014,"clouds":[{"cover":"FEW","base":1000},{"cover":"SCT","base":2500},{"cover":"FEW","base":2600},{"cover":"BKN","base":5000}],"obsTime":1775811600},"SBRF":{"icaoId":"SBRF","flightCategory":"VFR","rawOb":"METAR SBRF 100900Z 24003KT 9999 SCT020 25/23 Q1012","temp":25,"dewp":23,"wdir":240,"wspd":3,"visib":"6+","altim":1012,"clouds":[{"cover":"SCT","base":2000}],"obsTime":1775811600},"SBSG":{"icaoId":"SBSG","flightCategory":"VFR","rawOb":"METAR SBSG 100900Z 21003KT 170V230 9999 FEW020 SCT080 24/23 Q1012","temp":24,"dewp":23,"wdir":210,"wspd":3,"visib":"6+","altim":1012,"clouds":[{"cover":"FEW","base":2000},{"cover":"SCT","base":8000}],"obsTime":1775811600},"SBSL":{"icaoId":"SBSL","flightCategory":"VFR","rawOb":"METAR SBSL 100900Z 05002KT 9999 FEW017 BKN080 25/25 Q1011","temp":25,"dewp":25,"wdir":50,"wspd":2,"visib":"6+","altim":1011,"clouds":[{"cover":"FEW","base":1700},{"cover":"BKN","base":8000}],"obsTime":1775811600},"SBSN":{"icaoId":"SBSN","flightCategory":"VFR","rawOb":"METAR SBSN 100900Z 00000KT 9999 FEW010 SCT017 24/23 Q1010","temp":24,"dewp":23,"wdir":0,"wspd":0,"visib":"6+","altim":1010,"clouds":[{"cover":"FEW","base":1000},{"cover":"SCT","base":1700}],"obsTime":1775811600},"SBSP":{"icaoId":"SBSP","flightCategory":"MVFR","rawOb":"METAR SBSP 100900Z 13005KT 090V150 9999 BKN023 18/16 Q1020","temp":18,"dewp":16,"wdir":130,"wspd":5,"visib":"6+","altim":1020,"clouds":[{"cover":"BKN","base":2300}],"obsTime":1775811600},"SBSV":{"icaoId":"SBSV","flightCategory":"VFR","rawOb":"METAR SBSV 100900Z 32001KT 9999 SCT023 SCT060 24/22 Q1012","temp":24,"dewp":22,"wdir":320,"wspd":1,"visib":"6+","altim":1012,"clouds":[{"cover":"SCT","base":2300},{"cover":"SCT","base":6000}],"obsTime":1775811600},"SBTE":{"icaoId":"SBTE","flightCategory":"MVFR","rawOb":"METAR SBTE 100900Z 30002KT 9999 BKN016 SCT080 25/24 Q1011","temp":25,"dewp":24,"wdir":300,"wspd":2,"visib":"6+","altim":1011,"clouds":[{"cover":"BKN","base":1600},{"cover":"SCT","base":8000}],"obsTime":1775811600},"SBUL":{"icaoId":"SBUL","flightCategory":"VFR","rawOb":"METAR SBUL 100900Z 16002KT CAVOK 19/18 Q1018","temp":19,"dewp":18,"wdir":160,"wspd":2,"visib":"6+","altim":1018,"clouds":[],"obsTime":1775811600},"SBUR":{"icaoId":"SBUR","flightCategory":"VFR","rawOb":"METAR SBUR 100900Z 04003KT CAVOK 21/19 Q1017","temp":21,"dewp":19,"wdir":40,"wspd":3,"visib":"6+","altim":1017,"clouds":[],"obsTime":1775811600},"SBVT":{"icaoId":"SBVT","flightCategory":"VFR","rawOb":"METAR SBVT 100900Z 20008KT 9999 FEW015 SCT050 BKN100 25/23 Q1013","temp":25,"dewp":23,"wdir":200,"wspd":8,"visib":"6+","altim":1013,"clouds":[{"cover":"FEW","base":1500},{"cover":"SCT","base":5000},{"cover":"BKN","base":10000}],"obsTime":1775811600},"SBCJ":{"icaoId":"SBCJ","flightCategory":"VFR","rawOb":"SPECI SBCJ 101015Z 05003KT CAVOK 22/20 Q1016","temp":22,"dewp":20,"wdir":50,"wspd":3,"visib":"6+","altim":1016,"clouds":[],"obsTime":1775816100},"SBPB":{"icaoId":"SBPB","flightCategory":"VFR","rawOb":"SPECI SBPB 101015Z 28003KT 9999 SCT016 SCT090 26/25 Q1012","temp":26,"dewp":25,"wdir":280,"wspd":3,"visib":"6+","altim":1012,"clouds":[{"cover":"SCT","base":1600},{"cover":"SCT","base":9000}],"obsTime":1775816100},"SBAX":{"icaoId":"SBAX","flightCategory":"VFR","rawOb":"METAR SBAX 100900Z AUTO 20003KT CAVOK ///// Q1018","temp":null,"dewp":null,"wdir":200,"wspd":3,"visib":"6+","altim":1018,"clouds":[],"obsTime":1775811600},"SBBH":{"icaoId":"SBBH","flightCategory":"VFR","rawOb":"METAR SBBH 100900Z 10004KT CAVOK 21/19 Q1018","temp":21,"dewp":19,"wdir":100,"wspd":4,"visib":"6+","altim":1018,"clouds":[],"obsTime":1775811600},"SBSR":{"icaoId":"SBSR","flightCategory":"VFR","rawOb":"METAR SBSR 100900Z VRB01KT CAVOK 23/20 Q1016","temp":23,"dewp":20,"wdir":"VRB","wspd":1,"visib":"6+","altim":1016,"clouds":[],"obsTime":1775811600},"SBAR":{"icaoId":"SBAR","flightCategory":"VFR","rawOb":"METAR SBAR 100900Z 33004KT 9999 SCT023 23/23 Q1012","temp":23,"dewp":23,"wdir":330,"wspd":4,"visib":"6+","altim":1012,"clouds":[{"cover":"SCT","base":2300}],"obsTime":1775811600},"SBBU":{"icaoId":"SBBU","flightCategory":"VFR","rawOb":"METAR SBBU 100900Z 09003KT 9999 BKN040 20/18 Q1017","temp":20,"dewp":18,"wdir":90,"wspd":3,"visib":"6+","altim":1017,"clouds":[{"cover":"BKN","base":4000}],"obsTime":1775811600},"SBCO":{"icaoId":"SBCO","flightCategory":"VFR","rawOb":"METAR SBCO 100900Z 30003KT 9999 SCT030 BKN070 16/16 Q1019","temp":16,"dewp":16,"wdir":300,"wspd":3,"visib":"6+","altim":1019,"clouds":[{"cover":"SCT","base":3000},{"cover":"BKN","base":7000}],"obsTime":1775811600},"SBDN":{"icaoId":"SBDN","flightCategory":"VFR","rawOb":"METAR SBDN 100900Z 00000KT CAVOK 20/19 Q1015","temp":20,"dewp":19,"wdir":0,"wspd":0,"visib":"6+","altim":1015,"clouds":[],"obsTime":1775811600},"SBES":{"icaoId":"SBES","flightCategory":"VFR","rawOb":"METAR SBES 100900Z VRB03KT 9999 FEW007 SCT017 BKN035 22/// Q1015","temp":null,"dewp":null,"wdir":"VRB","wspd":3,"visib":"6+","altim":1015,"clouds":[{"cover":"FEW","base":700},{"cover":"SCT","base":1700},{"cover":"BKN","base":3500}],"obsTime":1775811600},"SBIP":{"icaoId":"SBIP","flightCategory":"VFR","rawOb":"METAR SBIP 100900Z AUTO 00000KT CAVOK 22/22 Q1015","temp":22,"dewp":22,"wdir":0,"wspd":0,"visib":"6+","altim":1015,"clouds":[],"obsTime":1775811600},"SBKG":{"icaoId":"SBKG","flightCategory":"VFR","rawOb":"METAR SBKG 100900Z 00000KT CAVOK 23/22 Q1015","temp":23,"dewp":22,"wdir":0,"wspd":0,"visib":"6+","altim":1015,"clouds":[],"obsTime":1775811600},"SBPL":{"icaoId":"SBPL","flightCategory":"VFR","rawOb":"METAR SBPL 100900Z 10002KT CAVOK 23/21 Q1014","temp":23,"dewp":21,"wdir":100,"wspd":2,"visib":"6+","altim":1014,"clouds":[],"obsTime":1775811600},"SBPS":{"icaoId":"SBPS","flightCategory":"VFR","rawOb":"METAR SBPS 100900Z 31004KT 9999 FEW020 23/22 Q1013","temp":23,"dewp":22,"wdir":310,"wspd":4,"visib":"6+","altim":1013,"clouds":[{"cover":"FEW","base":2000}],"obsTime":1775811600},"SBSC":{"icaoId":"SBSC","flightCategory":"MVFR","rawOb":"METAR SBSC 100900Z 04002KT 8000 FEW015 SCT020 OVC050 22/22 Q1016","temp":22,"dewp":22,"wdir":40,"wspd":2,"visib":4.97,"altim":1016,"clouds":[{"cover":"FEW","base":1500},{"cover":"SCT","base":2000},{"cover":"OVC","base":5000}],"obsTime":1775811600},"SBSJ":{"icaoId":"SBSJ","flightCategory":"MVFR","rawOb":"METAR SBSJ 100900Z 12005KT 7000 BKN030 19/16 Q1018","temp":19,"dewp":16,"wdir":120,"wspd":5,"visib":4.35,"altim":1018,"clouds":[{"cover":"BKN","base":3000}],"obsTime":1775811600},"SBSM":{"icaoId":"SBSM","flightCategory":"VFR","rawOb":"METAR SBSM 100900Z 00000KT 9999 SCT002 12/12 Q1019","temp":12,"dewp":12,"wdir":0,"wspd":0,"visib":"6+","altim":1019,"clouds":[{"cover":"SCT","base":200}],"obsTime":1775811600},"SBOI":{"icaoId":"SBOI","flightCategory":"LIFR","rawOb":"METAR SBOI 100900Z AUTO 00000KT 0900 // VV002 23/22 Q1012","temp":23,"dewp":22,"wdir":0,"wspd":0,"visib":0.56,"altim":1012,"clouds":[{"cover":"OVX","base":200}],"obsTime":1775811600},"SBAF":{"icaoId":"SBAF","flightCategory":"MVFR","rawOb":"METAR SBAF 101000Z 35002KT 7000 -RA FEW008 BKN010 OVC050 23/23 Q1016","temp":23,"dewp":23,"wdir":350,"wspd":2,"visib":4.35,"altim":1016,"clouds":[{"cover":"FEW","base":800},{"cover":"BKN","base":1000},{"cover":"OVC","base":5000}],"obsTime":1775815200},"SBGW":{"icaoId":"SBGW","flightCategory":"IFR","rawOb":"METAR SBGW 100900Z 25004KT 3000 -RA BR SCT005 OVC020 20/16 Q1018","temp":20,"dewp":16,"wdir":250,"wspd":4,"visib":1.86,"altim":1018,"clouds":[{"cover":"SCT","base":500},{"cover":"OVC","base":2000}],"obsTime":1775811600},"SBJR":{"icaoId":"SBJR","flightCategory":"MVFR","rawOb":"METAR SBJR 101000Z 02002KT 9999 FEW015 BKN030 BKN060 24/23 Q1016","temp":24,"dewp":23,"wdir":20,"wspd":2,"visib":"6+","altim":1016,"clouds":[{"cover":"FEW","base":1500},{"cover":"BKN","base":3000},{"cover":"BKN","base":6000}],"obsTime":1775815200},"SBLS":{"icaoId":"SBLS","flightCategory":"VFR","rawOb":"METAR SBLS 100900Z 15012KT 9999 FEW015 SCT100 20/18 Q1017","temp":20,"dewp":18,"wdir":150,"wspd":12,"visib":"6+","altim":1017,"clouds":[{"cover":"FEW","base":1500},{"cover":"SCT","base":10000}],"obsTime":1775811600},"SBLE":{"icaoId":"SBLE","flightCategory":"MVFR","rawOb":"METAR SBLE 100900Z AUTO VRB01KT 9999 BKN017 OVC028 ///// Q////","temp":null,"dewp":null,"wdir":"VRB","wspd":1,"visib":"6+","altim":null,"clouds":[{"cover":"BKN","base":1700},{"cover":"OVC","base":2800}],"obsTime":1775811600},"SBMT":{"icaoId":"SBMT","flightCategory":"VFR","rawOb":"METAR SBMT 100900Z 12006KT 9999 FEW010 BKN070 18/16 Q1018","temp":18,"dewp":16,"wdir":120,"wspd":6,"visib":"6+","altim":1018,"clouds":[{"cover":"FEW","base":1000},{"cover":"BKN","base":7000}],"obsTime":1775811600},"SBJV":{"icaoId":"SBJV","flightCategory":"VFR","rawOb":"METAR SBJV 100900Z 22002KT CAVOK 20/18 Q1017","temp":20,"dewp":18,"wdir":220,"wspd":2,"visib":"6+","altim":1017,"clouds":[],"obsTime":1775811600},"SBTA":{"icaoId":"SBTA","flightCategory":"MVFR","rawOb":"METAR SBTA 100900Z 00000KT 8000 FEW010 OVC025 20/19 Q1017","temp":20,"dewp":19,"wdir":0,"wspd":0,"visib":4.97,"altim":1017,"clouds":[{"cover":"FEW","base":1000},{"cover":"OVC","base":2500}],"obsTime":1775811600},"SBJP":{"icaoId":"SBJP","flightCategory":"VFR","rawOb":"METAR SBJP 100900Z 16003KT 9999 FEW020 24/24 Q1012","temp":24,"dewp":24,"wdir":160,"wspd":3,"visib":"6+","altim":1012,"clouds":[{"cover":"FEW","base":2000}],"obsTime":1775811600},"SBPF":{"icaoId":"SBPF","flightCategory":"VFR","rawOb":"METAR SBPF 100900Z 10007KT CAVOK 13/08 Q1019","temp":13,"dewp":8,"wdir":100,"wspd":7,"visib":"6+","altim":1019,"clouds":[],"obsTime":1775811600},"SBAN":{"icaoId":"SBAN","flightCategory":"VFR","rawOb":"METAR SBAN 100900Z 17003KT CAVOK 18/17 Q1019","temp":18,"dewp":17,"wdir":170,"wspd":3,"visib":"6+","altim":1019,"clouds":[],"obsTime":1775811600}}}