{"updated":1784591030,"count":75,"data":{"SBFI":{"icaoId":"SBFI","flightCategory":"VFR","rawOb":"METAR SBFI 202200Z 01005KT 9999 VCTS FEW030 FEW035CB BKN070 27/19 Q1007","temp":27,"dewp":19,"wdir":10,"wspd":5,"visib":"6+","altim":1007,"clouds":[{"cover":"FEW","base":3000},{"cover":"FEW","base":3500},{"cover":"BKN","base":7000}],"obsTime":1784584800},"SBPV":{"icaoId":"SBPV","flightCategory":"VFR","rawOb":"METAR SBPV 202200Z 04004KT CAVOK 32/21 Q1009","temp":32,"dewp":21,"wdir":40,"wspd":4,"visib":"6+","altim":1009,"clouds":[],"obsTime":1784584800},"SBSV":{"icaoId":"SBSV","flightCategory":"VFR","rawOb":"METAR SBSV 202200Z 21004KT 9999 FEW015 SCT023 OVC070 23/21 Q1017","temp":23,"dewp":21,"wdir":210,"wspd":4,"visib":"6+","altim":1017,"clouds":[{"cover":"FEW","base":1500},{"cover":"SCT","base":2300},{"cover":"OVC","base":7000}],"obsTime":1784584800},"SBMG":{"icaoId":"SBMG","flightCategory":"VFR","rawOb":"METAR SBMG 202200Z 02008KT 9999 FEW040 BKN083 25/15 Q1013","temp":25,"dewp":15,"wdir":20,"wspd":8,"visib":"6+","altim":1013,"clouds":[{"cover":"FEW","base":4000},{"cover":"BKN","base":8300}],"obsTime":1784584800},"SBME":{"icaoId":"SBME","flightCategory":"VFR","rawOb":"METAR SBME 202200Z 03012KT CAVOK 23/18 Q1017","temp":23,"dewp":18,"wdir":30,"wspd":12,"visib":"6+","altim":1017,"clouds":[],"obsTime":1784584800},"SBMK":{"icaoId":"SBMK","flightCategory":"VFR","rawOb":"METAR SBMK 202200Z 09005KT CAVOK 22/11 Q1019","temp":22,"dewp":11,"wdir":90,"wspd":5,"visib":"6+","altim":1019,"clouds":[],"obsTime":1784584800},"SBLO":{"icaoId":"SBLO","flightCategory":"VFR","rawOb":"METAR SBLO 202200Z 08003KT 9999 SCT040 24/16 Q1014","temp":24,"dewp":16,"wdir":80,"wspd":3,"visib":"6+","altim":1014,"clouds":[{"cover":"SCT","base":4000}],"obsTime":1784584800},"SBSG":{"icaoId":"SBSG","flightCategory":"LIFR","rawOb":"METAR SBSG 202200Z 14005KT 090V190 1500 R30///// R12/2000N -RA BR BKN003 23/23 Q1014","temp":23,"dewp":23,"wdir":140,"wspd":5,"visib":0.93,"altim":1014,"clouds":[{"cover":"BKN","base":300}],"obsTime":1784584800},"SBTE":{"icaoId":"SBTE","flightCategory":"VFR","rawOb":"METAR SBTE 202200Z 33005KT 9999 FEW030 30/19 Q1010","temp":30,"dewp":19,"wdir":330,"wspd":5,"visib":"6+","altim":1010,"clouds":[{"cover":"FEW","base":3000}],"obsTime":1784584800},"SBMQ":{"icaoId":"SBMQ","flightCategory":"MVFR","rawOb":"METAR SBMQ 202200Z 00000KT 9999 BKN020 SCT026 26/25 Q1010","temp":26,"dewp":25,"wdir":0,"wspd":0,"visib":"6+","altim":1010,"clouds":[{"cover":"BKN","base":2000},{"cover":"SCT","base":2600}],"obsTime":1784584800},"SBUL":{"icaoId":"SBUL","flightCategory":"VFR","rawOb":"METAR SBUL 202200Z 11003KT 9999 FEW040 22/10 Q1019","temp":22,"dewp":10,"wdir":110,"wspd":3,"visib":"6+","altim":1019,"clouds":[{"cover":"FEW","base":4000}],"obsTime":1784584800},"SBCG":{"icaoId":"SBCG","flightCategory":"VFR","rawOb":"METAR SBCG 202200Z 36005KT CAVOK 26/17 Q1012","temp":26,"dewp":17,"wdir":360,"wspd":5,"visib":"6+","altim":1012,"clouds":[],"obsTime":1784584800},"SBUR":{"icaoId":"SBUR","flightCategory":"VFR","rawOb":"METAR SBUR 202200Z 02004KT CAVOK 24/10 Q1018","temp":24,"dewp":10,"wdir":20,"wspd":4,"visib":"6+","altim":1018,"clouds":[],"obsTime":1784584800},"SBCT":{"icaoId":"SBCT","flightCategory":"VFR","rawOb":"METAR SBCT 202200Z 33005KT CAVOK 21/13 Q1017","temp":21,"dewp":13,"wdir":330,"wspd":5,"visib":"6+","altim":1017,"clouds":[],"obsTime":1784584800},"SBSL":{"icaoId":"SBSL","flightCategory":"MVFR","rawOb":"METAR SBSL 202200Z 06011KT 9999 BKN030 28/24 Q1011","temp":28,"dewp":24,"wdir":60,"wspd":11,"visib":"6+","altim":1011,"clouds":[{"cover":"BKN","base":3000}],"obsTime":1784584800},"SBKP":{"icaoId":"SBKP","flightCategory":"VFR","rawOb":"METAR SBKP 202200Z 03003KT CAVOK 23/11 Q1017","temp":23,"dewp":11,"wdir":30,"wspd":3,"visib":"6+","altim":1017,"clouds":[],"obsTime":1784584800},"SBPJ":{"icaoId":"SBPJ","flightCategory":"VFR","rawOb":"METAR SBPJ 202200Z 17002KT CAVOK 29/18 Q1012","temp":29,"dewp":18,"wdir":170,"wspd":2,"visib":"6+","altim":1012,"clouds":[],"obsTime":1784584800},"SBRB":{"icaoId":"SBRB","flightCategory":"VFR","rawOb":"METAR SBRB 202200Z 34005KT 9999 FEW040 32/23 Q1009","temp":32,"dewp":23,"wdir":340,"wspd":5,"visib":"6+","altim":1009,"clouds":[{"cover":"FEW","base":4000}],"obsTime":1784584800},"SBPA":{"icaoId":"SBPA","flightCategory":"MVFR","rawOb":"METAR SBPA 202200Z 09006KT 6000 TS SCT010 FEW040CB OVC060 19/19 Q1007 RETS","temp":19,"dewp":19,"wdir":90,"wspd":6,"visib":3.73,"altim":1007,"clouds":[{"cover":"SCT","base":1000},{"cover":"FEW","base":4000},{"cover":"OVC","base":6000}],"obsTime":1784584800},"SBFZ":{"icaoId":"SBFZ","flightCategory":"VFR","rawOb":"METAR SBFZ 202200Z 09011KT 9999 SCT030 27/23 Q1012","temp":27,"dewp":23,"wdir":90,"wspd":11,"visib":"6+","altim":1012,"clouds":[{"cover":"SCT","base":3000}],"obsTime":1784584800},"SBMA":{"icaoId":"SBMA","flightCategory":"VFR","rawOb":"METAR SBMA 202200Z 08002KT CAVOK 31/18 Q1011","temp":31,"dewp":18,"wdir":80,"wspd":2,"visib":"6+","altim":1011,"clouds":[],"obsTime":1784584800},"SBGL":{"icaoId":"SBGL","flightCategory":"VFR","rawOb":"METAR SBGL 202200Z 11003KT CAVOK 23/16 Q1014","temp":23,"dewp":16,"wdir":110,"wspd":3,"visib":"6+","altim":1014,"clouds":[],"obsTime":1784584800},"SBGR":{"icaoId":"SBGR","flightCategory":"VFR","rawOb":"METAR SBGR 202200Z 08002KT CAVOK 20/11 Q1018","temp":20,"dewp":11,"wdir":80,"wspd":2,"visib":"6+","altim":1018,"clouds":[],"obsTime":1784584800},"SBCZ":{"icaoId":"SBCZ","flightCategory":"VFR","rawOb":"METAR SBCZ 202200Z 09001KT 9999 SCT025 26/24 Q1009 RETS","temp":26,"dewp":24,"wdir":90,"wspd":1,"visib":"6+","altim":1009,"clouds":[{"cover":"SCT","base":2500}],"obsTime":1784584800},"SBSN":{"icaoId":"SBSN","flightCategory":"VFR","rawOb":"METAR SBSN 202200Z 09009KT 9999 FEW022 FEW030TCU 29/24 Q1010","temp":29,"dewp":24,"wdir":90,"wspd":9,"visib":"6+","altim":1010,"clouds":[{"cover":"FEW","base":2200},{"cover":"FEW","base":3000}],"obsTime":1784584800},"SBNT":{"icaoId":"SBNT","flightCategory":"MVFR","rawOb":"METAR SBNT 202200Z 15007KT 8000 VCSH SCT009 BKN016 OVC023 24/23 Q1013","temp":24,"dewp":23,"wdir":150,"wspd":7,"visib":4.97,"altim":1013,"clouds":[{"cover":"SCT","base":900},{"cover":"BKN","base":1600},{"cover":"OVC","base":2300}],"obsTime":1784584800},"SBVT":{"icaoId":"SBVT","flightCategory":"VFR","rawOb":"METAR SBVT 202200Z 36006KT 9999 BKN049 22/18 Q1019","temp":22,"dewp":18,"wdir":360,"wspd":6,"visib":"6+","altim":1019,"clouds":[{"cover":"BKN","base":4900}],"obsTime":1784584800},"SBGO":{"icaoId":"SBGO","flightCategory":"VFR","rawOb":"METAR SBGO 202200Z 12006KT CAVOK 24/10 Q1017","temp":24,"dewp":10,"wdir":120,"wspd":6,"visib":"6+","altim":1017,"clouds":[],"obsTime":1784584800},"SBBV":{"icaoId":"SBBV","flightCategory":"VFR","rawOb":"METAR SBBV 202200Z 12005KT 9999 SCT030 FEW035TCU SCT100 30/23 Q1010","temp":30,"dewp":23,"wdir":120,"wspd":5,"visib":"6+","altim":1010,"clouds":[{"cover":"SCT","base":3000},{"cover":"FEW","base":3500},{"cover":"SCT","base":10000}],"obsTime":1784584800},"SBCF":{"icaoId":"SBCF","flightCategory":"VFR","rawOb":"METAR SBCF 202200Z 11007KT CAVOK 21/12 Q1021","temp":21,"dewp":12,"wdir":110,"wspd":7,"visib":"6+","altim":1021,"clouds":[],"obsTime":1784584800},"SBBE":{"icaoId":"SBBE","flightCategory":"VFR","rawOb":"METAR SBBE 202200Z 03007KT 9999 FEW030 BKN100 28/24 Q1011","temp":28,"dewp":24,"wdir":30,"wspd":7,"visib":"6+","altim":1011,"clouds":[{"cover":"FEW","base":3000},{"cover":"BKN","base":10000}],"obsTime":1784584800},"SBMO":{"icaoId":"SBMO","flightCategory":"MVFR","rawOb":"METAR SBMO 202200Z 32002KT 9999 BKN020 23/22 Q1016","temp":23,"dewp":22,"wdir":320,"wspd":2,"visib":"6+","altim":1016,"clouds":[{"cover":"BKN","base":2000}],"obsTime":1784584800},"SBEG":{"icaoId":"SBEG","flightCategory":"VFR","rawOb":"METAR SBEG 202200Z 11006KT 9999 FEW040 31/22 Q1009","temp":31,"dewp":22,"wdir":110,"wspd":6,"visib":"6+","altim":1009,"clouds":[{"cover":"FEW","base":4000}],"obsTime":1784584800},"SBFL":{"icaoId":"SBFL","flightCategory":"VFR","rawOb":"METAR SBFL 202200Z 32010KT CAVOK 20/17 Q1010","temp":20,"dewp":17,"wdir":320,"wspd":10,"visib":"6+","altim":1010,"clouds":[],"obsTime":1784584800},"SBRF":{"icaoId":"SBRF","flightCategory":"VFR","rawOb":"METAR SBRF 202200Z 14012KT 9999 SCT025 BKN060 25/23 Q1014","temp":25,"dewp":23,"wdir":140,"wspd":12,"visib":"6+","altim":1014,"clouds":[{"cover":"SCT","base":2500},{"cover":"BKN","base":6000}],"obsTime":1784584800},"SBSP":{"icaoId":"SBSP","flightCategory":"VFR","rawOb":"METAR SBSP 202200Z 36004KT CAVOK 22/09 Q1018","temp":22,"dewp":9,"wdir":360,"wspd":4,"visib":"6+","altim":1018,"clouds":[],"obsTime":1784584800},"SBIL":{"icaoId":"SBIL","flightCategory":"VFR","rawOb":"METAR SBIL 202200Z 14004KT 9999 FEW020 25/21 Q1018","temp":25,"dewp":21,"wdir":140,"wspd":4,"visib":"6+","altim":1018,"clouds":[{"cover":"FEW","base":2000}],"obsTime":1784584800},"SBBR":{"icaoId":"SBBR","flightCategory":"VFR","rawOb":"METAR SBBR 202200Z 14007KT CAVOK 22/11 Q1020","temp":22,"dewp":11,"wdir":140,"wspd":7,"visib":"6+","altim":1020,"clouds":[],"obsTime":1784584800},"SBJU":{"icaoId":"SBJU","flightCategory":"VFR","rawOb":"METAR SBJU 202200Z 19007KT 9999 SCT022 28/16 Q1014","temp":28,"dewp":16,"wdir":190,"wspd":7,"visib":"6+","altim":1014,"clouds":[{"cover":"SCT","base":2200}],"obsTime":1784584800},"SBCP":{"icaoId":"SBCP","flightCategory":"VFR","rawOb":"METAR SBCP 202200Z 07011KT CAVOK 23/19 Q1017","temp":23,"dewp":19,"wdir":70,"wspd":11,"visib":"6+","altim":1017,"clouds":[],"obsTime":1784584800},"SBTU":{"icaoId":"SBTU","flightCategory":"VFR","rawOb":"METAR SBTU 202200Z AUTO 19002KT 9999 // NCD ///// Q1013","temp":null,"dewp":null,"wdir":190,"wspd":2,"visib":"6+","altim":1013,"clouds":[],"obsTime":1784584800},"SBAR":{"icaoId":"SBAR","flightCategory":"VFR","rawOb":"METAR SBAR 202200Z 10007KT 9999 FEW025 26/21 Q1016","temp":26,"dewp":21,"wdir":100,"wspd":7,"visib":"6+","altim":1016,"clouds":[{"cover":"FEW","base":2500}],"obsTime":1784584800},"SBKG":{"icaoId":"SBKG","flightCategory":"VFR","rawOb":"METAR SBKG 202200Z 11005KT 9999 FEW016 BKN070 22/20 Q1016","temp":22,"dewp":20,"wdir":110,"wspd":5,"visib":"6+","altim":1016,"clouds":[{"cover":"FEW","base":1600},{"cover":"BKN","base":7000}],"obsTime":1784584800},"SBPL":{"icaoId":"SBPL","flightCategory":"VFR","rawOb":"METAR SBPL 202200Z 12010KT CAVOK 26/19 Q1016","temp":26,"dewp":19,"wdir":120,"wspd":10,"visib":"6+","altim":1016,"clouds":[],"obsTime":1784584800},"SBTT":{"icaoId":"SBTT","flightCategory":"VFR","rawOb":"METAR SBTT 202200Z VRB02KT 9999 FEW025 31/24 Q1009","temp":31,"dewp":24,"wdir":"VRB","wspd":2,"visib":"6+","altim":1009,"clouds":[{"cover":"FEW","base":2500}],"obsTime":1784584800},"SBVH":{"icaoId":"SBVH","flightCategory":"VFR","rawOb":"METAR SBVH 202200Z 01006KT 9999 FEW035 27/19 Q1013","temp":27,"dewp":19,"wdir":10,"wspd":6,"visib":"6+","altim":1013,"clouds":[{"cover":"FEW","base":3500}],"obsTime":1784584800},"SBPS":{"icaoId":"SBPS","flightCategory":"MVFR","rawOb":"METAR SBPS 202200Z 09010KT 9999 FEW006 BKN020 FEW025TCU OVC070 23/21 Q1018 RERA","temp":23,"dewp":21,"wdir":90,"wspd":10,"visib":"6+","altim":1018,"clouds":[{"cover":"FEW","base":600},{"cover":"BKN","base":2000},{"cover":"FEW","base":2500},{"cover":"OVC","base":7000}],"obsTime":1784584800},"SBCA":{"icaoId":"SBCA","flightCategory":"VFR","rawOb":"METAR SBCA 202200Z 03012G22KT 9999 FEW040 FEW050TCU SCT100 24/15 Q1012","temp":24,"dewp":15,"wdir":30,"wspd":12,"visib":"6+","altim":1012,"clouds":[{"cover":"FEW","base":4000},{"cover":"FEW","base":5000},{"cover":"SCT","base":10000}],"obsTime":1784584800},"SBCO":{"icaoId":"SBCO","flightCategory":"IFR","rawOb":"METAR SBCO 202200Z 10005KT 4000 -TSRA BR FEW005 FEW020CB OVC050 19/18 Q1007 RETS","temp":19,"dewp":18,"wdir":100,"wspd":5,"visib":2.49,"altim":1007,"clouds":[{"cover":"FEW","base":500},{"cover":"FEW","base":2000},{"cover":"OVC","base":5000}],"obsTime":1784584800},"SBSM":{"icaoId":"SBSM","flightCategory":"VFR","rawOb":"METAR SBSM 202200Z 00000KT 9999 SCT020 BKN035 20/20 Q1006 RERA","temp":20,"dewp":20,"wdir":0,"wspd":0,"visib":"6+","altim":1006,"clouds":[{"cover":"SCT","base":2000},{"cover":"BKN","base":3500}],"obsTime":1784584800},"SBAX":{"icaoId":"SBAX","flightCategory":"VFR","rawOb":"METAR SBAX 202200Z AUTO 05003KT CAVOK 21/09 Q1020","temp":21,"dewp":9,"wdir":50,"wspd":3,"visib":"6+","altim":1020,"clouds":[],"obsTime":1784584800},"SBBH":{"icaoId":"SBBH","flightCategory":"VFR","rawOb":"METAR SBBH 202200Z 10004KT CAVOK 20/12 Q1021","temp":20,"dewp":12,"wdir":100,"wspd":4,"visib":"6+","altim":1021,"clouds":[],"obsTime":1784584800},"SBBU":{"icaoId":"SBBU","flightCategory":"VFR","rawOb":"METAR SBBU 202200Z 36002KT CAVOK 26/13 Q1016","temp":26,"dewp":13,"wdir":360,"wspd":2,"visib":"6+","altim":1016,"clouds":[],"obsTime":1784584800},"SBDN":{"icaoId":"SBDN","flightCategory":"VFR","rawOb":"METAR SBDN 202200Z 04005KT CAVOK 26/13 Q1013","temp":26,"dewp":13,"wdir":40,"wspd":5,"visib":"6+","altim":1013,"clouds":[],"obsTime":1784584800},"SBIP":{"icaoId":"SBIP","flightCategory":"VFR","rawOb":"METAR SBIP 202200Z AUTO 00000KT CAVOK 22/17 Q1019","temp":22,"dewp":17,"wdir":0,"wspd":0,"visib":"6+","altim":1019,"clouds":[],"obsTime":1784584800},"SBSC":{"icaoId":"SBSC","flightCategory":"VFR","rawOb":"METAR SBSC 202200Z 01005KT CAVOK 23/14 Q1014","temp":23,"dewp":14,"wdir":10,"wspd":5,"visib":"6+","altim":1014,"clouds":[],"obsTime":1784584800},"SBSR":{"icaoId":"SBSR","flightCategory":"VFR","rawOb":"METAR SBSR 202200Z 03003KT CAVOK 27/10 Q1016","temp":27,"dewp":10,"wdir":30,"wspd":3,"visib":"6+","altim":1016,"clouds":[],"obsTime":1784584800},"SBSJ":{"icaoId":"SBSJ","flightCategory":"VFR","rawOb":"METAR SBSJ 202200Z 01003KT 330V060 CAVOK 22/11 Q1017","temp":22,"dewp":11,"wdir":10,"wspd":3,"visib":"6+","altim":1017,"clouds":[],"obsTime":1784584800},"SBOI":{"icaoId":"SBOI","flightCategory":"VFR","rawOb":"METAR SBOI 202200Z AUTO 10003KT 080V160 CAVOK 29/24 Q1011","temp":29,"dewp":24,"wdir":100,"wspd":3,"visib":"6+","altim":1011,"clouds":[],"obsTime":1784584800},"SBTF":{"icaoId":"SBTF","flightCategory":"VFR","rawOb":"METAR SBTF 202200Z 13003KT 9999 FEW016 32/25 Q1008","temp":32,"dewp":25,"wdir":130,"wspd":3,"visib":"6+","altim":1008,"clouds":[{"cover":"FEW","base":1600}],"obsTime":1784584800},"SBUY":{"icaoId":"SBUY","flightCategory":"VFR","rawOb":"METAR SBUY 202200Z 25002KT 9999 VCSH SCT025 FEW030TCU 25/24 Q1008 RERA","temp":25,"dewp":24,"wdir":250,"wspd":2,"visib":"6+","altim":1008,"clouds":[{"cover":"SCT","base":2500},{"cover":"FEW","base":3000}],"obsTime":1784584800},"SBES":{"icaoId":"SBES","flightCategory":"VFR","rawOb":"METAR SBES 202200Z 06013KT CAVOK 22/// Q1016","temp":null,"dewp":null,"wdir":60,"wspd":13,"visib":"6+","altim":1016,"clouds":[],"obsTime":1784584800},"SBPB":{"icaoId":"SBPB","flightCategory":"VFR","rawOb":"SPECI SBPB 202145Z 04005KT 9999 SCT016 BKN090 28/24 Q1011","temp":28,"dewp":24,"wdir":40,"wspd":5,"visib":"6+","altim":1011,"clouds":[{"cover":"SCT","base":1600},{"cover":"BKN","base":9000}],"obsTime":1784583900},"SBLE":{"icaoId":"SBLE","flightCategory":"VFR","rawOb":"METAR SBLE 202200Z AUTO VRB02KT CAVOK ///// Q1018","temp":null,"dewp":null,"wdir":"VRB","wspd":2,"visib":"6+","altim":1018,"clouds":[],"obsTime":1784584800},"SBAN":{"icaoId":"SBAN","flightCategory":"VFR","rawOb":"METAR SBAN 202200Z 00000KT CAVOK 18/11 Q1020","temp":18,"dewp":11,"wdir":0,"wspd":0,"visib":"6+","altim":1020,"clouds":[],"obsTime":1784584800},"SBJV":{"icaoId":"SBJV","flightCategory":"VFR","rawOb":"METAR SBJV 202200Z 22002KT CAVOK 20/18 Q1011","temp":20,"dewp":18,"wdir":220,"wspd":2,"visib":"6+","altim":1011,"clouds":[],"obsTime":1784584800},"SBNM":{"icaoId":"SBNM","flightCategory":"VFR","rawOb":"METAR SBNM 202200Z AUTO 33008KT 9999 BKN037 22/20 Q1007","temp":22,"dewp":20,"wdir":330,"wspd":8,"visib":"6+","altim":1007,"clouds":[{"cover":"BKN","base":3700}],"obsTime":1784584800},"SBAF":{"icaoId":"SBAF","flightCategory":"VFR","rawOb":"METAR SBAF 202200Z 25003KT CAVOK 19/16 Q1015","temp":19,"dewp":16,"wdir":250,"wspd":3,"visib":"6+","altim":1015,"clouds":[],"obsTime":1784584800},"SBJR":{"icaoId":"SBJR","flightCategory":"VFR","rawOb":"METAR SBJR 202200Z 00000KT CAVOK 19/17 Q1014","temp":19,"dewp":17,"wdir":0,"wspd":0,"visib":"6+","altim":1014,"clouds":[],"obsTime":1784584800},"SBLS":{"icaoId":"SBLS","flightCategory":"VFR","rawOb":"METAR SBLS 202200Z 13004KT CAVOK 20/12 Q1020","temp":20,"dewp":12,"wdir":130,"wspd":4,"visib":"6+","altim":1020,"clouds":[],"obsTime":1784584800},"SBMT":{"icaoId":"SBMT","flightCategory":"VFR","rawOb":"METAR SBMT 202200Z VRB02KT CAVOK 21/09 Q1017","temp":21,"dewp":9,"wdir":"VRB","wspd":2,"visib":"6+","altim":1017,"clouds":[],"obsTime":1784584800},"SBTA":{"icaoId":"SBTA","flightCategory":"VFR","rawOb":"METAR SBTA 202200Z VRB02KT CAVOK 18/13 Q1017","temp":18,"dewp":13,"wdir":"VRB","wspd":2,"visib":"6+","altim":1017,"clouds":[],"obsTime":1784584800},"SBJP":{"icaoId":"SBJP","flightCategory":"VFR","rawOb":"METAR SBJP 202200Z 15009KT 9999 FEW020 SCT070 25/23 Q1014","temp":25,"dewp":23,"wdir":150,"wspd":9,"visib":"6+","altim":1014,"clouds":[{"cover":"FEW","base":2000},{"cover":"SCT","base":7000}],"obsTime":1784584800},"SBPF":{"icaoId":"SBPF","flightCategory":"VFR","rawOb":"METAR SBPF 202200Z 01007KT 9999 SCT030 SCT070 20/17 Q1010","temp":20,"dewp":17,"wdir":10,"wspd":7,"visib":"6+","altim":1010,"clouds":[{"cover":"SCT","base":3000},{"cover":"SCT","base":7000}],"obsTime":1784584800},"SBGW":{"icaoId":"SBGW","flightCategory":"VFR","rawOb":"METAR SBGW 202200Z 03002KT CAVOK 20/12 Q1017","temp":20,"dewp":12,"wdir":30,"wspd":2,"visib":"6+","altim":1017,"clouds":[],"obsTime":1784584800}}}