{"updated":1774377851,"count":85,"data":{"SBLO":{"icaoId":"SBLO","flightCategory":"VFR","rawOb":"METAR SBLO 241700Z VRB02KT 9999 TS SCT020 FEW030CB 31/22 Q1011","temp":31,"dewp":22,"wdir":"VRB","wspd":2,"visib":"6+","altim":1011,"clouds":[{"cover":"SCT","base":2000},{"cover":"FEW","base":3000}],"obsTime":1774371600},"SBAT":{"icaoId":"SBAT","flightCategory":"VFR","rawOb":"METAR SBAT 241700Z 03005KT 9999 SCT030 FEW035TCU SCT100 27/24 Q1011","temp":27,"dewp":24,"wdir":30,"wspd":5,"visib":"6+","altim":1011,"clouds":[{"cover":"SCT","base":3000},{"cover":"FEW","base":3500},{"cover":"SCT","base":10000}],"obsTime":1774371600},"SBBE":{"icaoId":"SBBE","flightCategory":"MVFR","rawOb":"METAR SBBE 241700Z 36008KT 9999 BKN025 FEW030TCU BKN100 30/23 Q1010","temp":30,"dewp":23,"wdir":360,"wspd":8,"visib":"6+","altim":1010,"clouds":[{"cover":"BKN","base":2500},{"cover":"FEW","base":3000},{"cover":"BKN","base":10000}],"obsTime":1774371600},"SBVT":{"icaoId":"SBVT","flightCategory":"VFR","rawOb":"METAR SBVT 241700Z 04011KT 010V070 9999 FEW023 FEW025TCU 29/24 Q1012","temp":29,"dewp":24,"wdir":40,"wspd":11,"visib":"6+","altim":1012,"clouds":[{"cover":"FEW","base":2300},{"cover":"FEW","base":2500}],"obsTime":1774371600},"SBBR":{"icaoId":"SBBR","flightCategory":"VFR","rawOb":"METAR SBBR 241700Z 36005KT 320V050 9999 SCT040 FEW045TCU BKN080 27/18 Q1015","temp":27,"dewp":18,"wdir":360,"wspd":5,"visib":"6+","altim":1015,"clouds":[{"cover":"SCT","base":4000},{"cover":"FEW","base":4500},{"cover":"BKN","base":8000}],"obsTime":1774371600},"SBBV":{"icaoId":"SBBV","flightCategory":"VFR","rawOb":"METAR SBBV 241700Z 07009KT 9999 BKN040 35/20 Q1009","temp":35,"dewp":20,"wdir":70,"wspd":9,"visib":"6+","altim":1009,"clouds":[{"cover":"BKN","base":4000}],"obsTime":1774371600},"SBCB":{"icaoId":"SBCB","flightCategory":"VFR","rawOb":"METAR SBCB 241700Z 05012KT CAVOK 31/22 Q1011","temp":31,"dewp":22,"wdir":50,"wspd":12,"visib":"6+","altim":1011,"clouds":[],"obsTime":1774371600},"SBCF":{"icaoId":"SBCF","flightCategory":"VFR","rawOb":"METAR SBCF 241700Z 08005KT 9999 SCT035 FEW040TCU 27/18 Q1015","temp":27,"dewp":18,"wdir":80,"wspd":5,"visib":"6+","altim":1015,"clouds":[{"cover":"SCT","base":3500},{"cover":"FEW","base":4000}],"obsTime":1774371600},"SBCG":{"icaoId":"SBCG","flightCategory":"VFR","rawOb":"METAR SBCG 241700Z 23008KT 9999 VCSH SCT035 FEW040TCU BKN070 29/22 Q1011","temp":29,"dewp":22,"wdir":230,"wspd":8,"visib":"6+","altim":1011,"clouds":[{"cover":"SCT","base":3500},{"cover":"FEW","base":4000},{"cover":"BKN","base":7000}],"obsTime":1774371600},"SBCP":{"icaoId":"SBCP","flightCategory":"VFR","rawOb":"METAR SBCP 241700Z 09014KT 9999 SCT018 29/24 Q1011","temp":29,"dewp":24,"wdir":90,"wspd":14,"visib":"6+","altim":1011,"clouds":[{"cover":"SCT","base":1800}],"obsTime":1774371600},"SBCR":{"icaoId":"SBCR","flightCategory":"VFR","rawOb":"METAR SBCR 241700Z 25010KT 210V270 9999 SCT023 FEW026TCU 30/25 Q1009","temp":30,"dewp":25,"wdir":250,"wspd":10,"visib":"6+","altim":1009,"clouds":[{"cover":"SCT","base":2300},{"cover":"FEW","base":2600}],"obsTime":1774371600},"SBCT":{"icaoId":"SBCT","flightCategory":"MVFR","rawOb":"METAR SBCT 241700Z VRB06KT 9999 BKN030 26/21 Q1015","temp":26,"dewp":21,"wdir":"VRB","wspd":6,"visib":"6+","altim":1015,"clouds":[{"cover":"BKN","base":3000}],"obsTime":1774371600},"SBCZ":{"icaoId":"SBCZ","flightCategory":"VFR","rawOb":"METAR SBCZ 241700Z 21003KT 140V260 9999 SCT025 BKN100 31/24 Q1010","temp":31,"dewp":24,"wdir":210,"wspd":3,"visib":"6+","altim":1010,"clouds":[{"cover":"SCT","base":2500},{"cover":"BKN","base":10000}],"obsTime":1774371600},"SBEG":{"icaoId":"SBEG","flightCategory":"VFR","rawOb":"METAR SBEG 241700Z VRB02KT 9999 4000SW SHRA TS SCT025 FEW030CB 32/25 Q1009","temp":32,"dewp":25,"wdir":"VRB","wspd":2,"visib":"6+","altim":1009,"clouds":[{"cover":"SCT","base":2500},{"cover":"FEW","base":3000}],"obsTime":1774371600},"SBFI":{"icaoId":"SBFI","flightCategory":"MVFR","rawOb":"METAR SBFI 241700Z 27004KT 9999 BKN023 30/24 Q1010","temp":30,"dewp":24,"wdir":270,"wspd":4,"visib":"6+","altim":1010,"clouds":[{"cover":"BKN","base":2300}],"obsTime":1774371600},"SBFL":{"icaoId":"SBFL","flightCategory":"VFR","rawOb":"METAR SBFL 241700Z 35010KT 320V020 9999 FEW033 SCT045 31/23 Q1010","temp":31,"dewp":23,"wdir":350,"wspd":10,"visib":"6+","altim":1010,"clouds":[{"cover":"FEW","base":3300},{"cover":"SCT","base":4500}],"obsTime":1774371600},"SBFZ":{"icaoId":"SBFZ","flightCategory":"VFR","rawOb":"METAR SBFZ 241700Z 11015KT 9999 FEW030 31/24 Q1009","temp":31,"dewp":24,"wdir":110,"wspd":15,"visib":"6+","altim":1009,"clouds":[{"cover":"FEW","base":3000}],"obsTime":1774371600},"SBGL":{"icaoId":"SBGL","flightCategory":"VFR","rawOb":"METAR SBGL 241700Z VRB05KT 9999 FEW023 32/20 Q1009","temp":32,"dewp":20,"wdir":"VRB","wspd":5,"visib":"6+","altim":1009,"clouds":[{"cover":"FEW","base":2300}],"obsTime":1774371600},"SBGO":{"icaoId":"SBGO","flightCategory":"VFR","rawOb":"METAR SBGO 241700Z 25006KT 9999 -TSRA SCT040 FEW053CB OVC080 24/20 Q1015","temp":24,"dewp":20,"wdir":250,"wspd":6,"visib":"6+","altim":1015,"clouds":[{"cover":"SCT","base":4000},{"cover":"FEW","base":5300},{"cover":"OVC","base":8000}],"obsTime":1774371600},"SBGR":{"icaoId":"SBGR","flightCategory":"VFR","rawOb":"METAR SBGR 241700Z VRB03KT 9999 SCT045 29/16 Q1013","temp":29,"dewp":16,"wdir":"VRB","wspd":3,"visib":"6+","altim":1013,"clouds":[{"cover":"SCT","base":4500}],"obsTime":1774371600},"SBHT":{"icaoId":"SBHT","flightCategory":"MVFR","rawOb":"METAR SBHT 241700Z 15005KT 9999 BKN025 SCT090 31/24 Q1011","temp":31,"dewp":24,"wdir":150,"wspd":5,"visib":"6+","altim":1011,"clouds":[{"cover":"BKN","base":2500},{"cover":"SCT","base":9000}],"obsTime":1774371600},"SBIL":{"icaoId":"SBIL","flightCategory":"MVFR","rawOb":"METAR SBIL 241700Z 06007KT 5000 2000W -RA BKN018 FEW023TCU BKN070 28/25 Q1013","temp":28,"dewp":25,"wdir":60,"wspd":7,"visib":3.11,"altim":1013,"clouds":[{"cover":"BKN","base":1800},{"cover":"FEW","base":2300},{"cover":"BKN","base":7000}],"obsTime":1774371600},"SBJU":{"icaoId":"SBJU","flightCategory":"MVFR","rawOb":"METAR SBJU 241700Z 09004KT 9999 BKN022 FEW023TCU 27/24 Q1012","temp":27,"dewp":24,"wdir":90,"wspd":4,"visib":"6+","altim":1012,"clouds":[{"cover":"BKN","base":2200},{"cover":"FEW","base":2300}],"obsTime":1774371600},"SBKP":{"icaoId":"SBKP","flightCategory":"VFR","rawOb":"METAR SBKP 241700Z VRB05KT 9999 FEW045 30/15 Q1012","temp":30,"dewp":15,"wdir":"VRB","wspd":5,"visib":"6+","altim":1012,"clouds":[{"cover":"FEW","base":4500}],"obsTime":1774371600},"SBMA":{"icaoId":"SBMA","flightCategory":"MVFR","rawOb":"METAR SBMA 241700Z 19005KT 9999 VCSH FEW015 BKN020 BKN100 31/24 Q1010","temp":31,"dewp":24,"wdir":190,"wspd":5,"visib":"6+","altim":1010,"clouds":[{"cover":"FEW","base":1500},{"cover":"BKN","base":2000},{"cover":"BKN","base":10000}],"obsTime":1774371600},"SBME":{"icaoId":"SBME","flightCategory":"VFR","rawOb":"METAR SBME 241700Z 05010KT 9999 FEW030 33/22 Q1010","temp":33,"dewp":22,"wdir":50,"wspd":10,"visib":"6+","altim":1010,"clouds":[{"cover":"FEW","base":3000}],"obsTime":1774371600},"SBMG":{"icaoId":"SBMG","flightCategory":"VFR","rawOb":"METAR SBMG 241700Z 03012KT 360V060 9999 TS VCSH SCT035 FEW040CB BKN070 24/21 Q1011","temp":24,"dewp":21,"wdir":30,"wspd":12,"visib":"6+","altim":1011,"clouds":[{"cover":"SCT","base":3500},{"cover":"FEW","base":4000},{"cover":"BKN","base":7000}],"obsTime":1774371600},"SBMK":{"icaoId":"SBMK","flightCategory":"VFR","rawOb":"METAR SBMK 241700Z 02006KT 9999 SCT030 SCT070 27/19 Q1014","temp":27,"dewp":19,"wdir":20,"wspd":6,"visib":"6+","altim":1014,"clouds":[{"cover":"SCT","base":3000},{"cover":"SCT","base":7000}],"obsTime":1774371600},"SBMO":{"icaoId":"SBMO","flightCategory":"VFR","rawOb":"METAR SBMO 241700Z 08013KT 9999 SCT030 32/22 Q1011","temp":32,"dewp":22,"wdir":80,"wspd":13,"visib":"6+","altim":1011,"clouds":[{"cover":"SCT","base":3000}],"obsTime":1774371600},"SBMQ":{"icaoId":"SBMQ","flightCategory":"VFR","rawOb":"METAR SBMQ 241700Z 06010KT 9999 FEW013 SCT020 29/23 Q1011","temp":29,"dewp":23,"wdir":60,"wspd":10,"visib":"6+","altim":1011,"clouds":[{"cover":"FEW","base":1300},{"cover":"SCT","base":2000}],"obsTime":1774371600},"SBNT":{"icaoId":"SBNT","flightCategory":"VFR","rawOb":"METAR SBNT 241700Z 10014KT 070V130 9999 FEW030 31/22 Q1010","temp":31,"dewp":22,"wdir":100,"wspd":14,"visib":"6+","altim":1010,"clouds":[{"cover":"FEW","base":3000}],"obsTime":1774371600},"SBPA":{"icaoId":"SBPA","flightCategory":"MVFR","rawOb":"METAR SBPA 241700Z 16007KT 130V210 9999 BKN017 23/19 Q1012","temp":23,"dewp":19,"wdir":160,"wspd":7,"visib":"6+","altim":1012,"clouds":[{"cover":"BKN","base":1700}],"obsTime":1774371600},"SBPJ":{"icaoId":"SBPJ","flightCategory":"VFR","rawOb":"METAR SBPJ 241700Z 10004KT 050V150 9999 FEW015 SCT025 FEW030TCU 26/23 Q1011 RETS","temp":26,"dewp":23,"wdir":100,"wspd":4,"visib":"6+","altim":1011,"clouds":[{"cover":"FEW","base":1500},{"cover":"SCT","base":2500},{"cover":"FEW","base":3000}],"obsTime":1774371600},"SBPV":{"icaoId":"SBPV","flightCategory":"VFR","rawOb":"METAR SBPV 241700Z 36002KT 9999 FEW025 30/24 Q1009","temp":30,"dewp":24,"wdir":360,"wspd":2,"visib":"6+","altim":1009,"clouds":[{"cover":"FEW","base":2500}],"obsTime":1774371600},"SBRB":{"icaoId":"SBRB","flightCategory":"VFR","rawOb":"METAR SBRB 241700Z VRB03KT 9999 BKN035 32/24 Q1010","temp":32,"dewp":24,"wdir":"VRB","wspd":3,"visib":"6+","altim":1010,"clouds":[{"cover":"BKN","base":3500}],"obsTime":1774371600},"SBRF":{"icaoId":"SBRF","flightCategory":"VFR","rawOb":"METAR SBRF 241700Z 11010KT 9999 SCT025 31/23 Q1011","temp":31,"dewp":23,"wdir":110,"wspd":10,"visib":"6+","altim":1011,"clouds":[{"cover":"SCT","base":2500}],"obsTime":1774371600},"SBSG":{"icaoId":"SBSG","flightCategory":"MVFR","rawOb":"METAR SBSG 241700Z 12010KT 100V160 9999 BKN030 31/22 Q1010","temp":31,"dewp":22,"wdir":120,"wspd":10,"visib":"6+","altim":1010,"clouds":[{"cover":"BKN","base":3000}],"obsTime":1774371600},"SBSL":{"icaoId":"SBSL","flightCategory":"VFR","rawOb":"METAR SBSL 241700Z 04014KT 9999 SCT030 SCT080 30/25 Q1009","temp":30,"dewp":25,"wdir":40,"wspd":14,"visib":"6+","altim":1009,"clouds":[{"cover":"SCT","base":3000},{"cover":"SCT","base":8000}],"obsTime":1774371600},"SBSN":{"icaoId":"SBSN","flightCategory":"VFR","rawOb":"METAR SBSN 241700Z 09014KT 9999 SCT017 SCT100 31/24 Q1010","temp":31,"dewp":24,"wdir":90,"wspd":14,"visib":"6+","altim":1010,"clouds":[{"cover":"SCT","base":1700},{"cover":"SCT","base":10000}],"obsTime":1774371600},"SBSP":{"icaoId":"SBSP","flightCategory":"VFR","rawOb":"METAR SBSP 241700Z VRB05KT 9999 FEW049 29/14 Q1013","temp":29,"dewp":14,"wdir":"VRB","wspd":5,"visib":"6+","altim":1013,"clouds":[{"cover":"FEW","base":4900}],"obsTime":1774371600},"SBSV":{"icaoId":"SBSV","flightCategory":"VFR","rawOb":"METAR SBSV 241700Z 08011KT 9999 FEW026 BKN060 29/23 Q1012","temp":29,"dewp":23,"wdir":80,"wspd":11,"visib":"6+","altim":1012,"clouds":[{"cover":"FEW","base":2600},{"cover":"BKN","base":6000}],"obsTime":1774371600},"SBTE":{"icaoId":"SBTE","flightCategory":"MVFR","rawOb":"METAR SBTE 241700Z 03005KT 9999 BKN025 33/22 Q1008","temp":33,"dewp":22,"wdir":30,"wspd":5,"visib":"6+","altim":1008,"clouds":[{"cover":"BKN","base":2500}],"obsTime":1774371600},"SBUL":{"icaoId":"SBUL","flightCategory":"VFR","rawOb":"METAR SBUL 241700Z 34014KT 9999 TS VCSH SCT030 FEW040CB SCT100 24/17 Q1015","temp":24,"dewp":17,"wdir":340,"wspd":14,"visib":"6+","altim":1015,"clouds":[{"cover":"SCT","base":3000},{"cover":"FEW","base":4000},{"cover":"SCT","base":10000}],"obsTime":1774371600},"SBUR":{"icaoId":"SBUR","flightCategory":"VFR","rawOb":"METAR SBUR 241700Z 29005KT 9999 BKN040 31/18 Q1013","temp":31,"dewp":18,"wdir":290,"wspd":5,"visib":"6+","altim":1013,"clouds":[{"cover":"BKN","base":4000}],"obsTime":1774371600},"SBPP":{"icaoId":"SBPP","flightCategory":"MVFR","rawOb":"METAR SBPP 241700Z 05006KT 9999 BKN020 FEW030TCU 30/22 Q1012","temp":30,"dewp":22,"wdir":50,"wspd":6,"visib":"6+","altim":1012,"clouds":[{"cover":"BKN","base":2000},{"cover":"FEW","base":3000}],"obsTime":1774371600},"SBVH":{"icaoId":"SBVH","flightCategory":"VFR","rawOb":"METAR SBVH 241700Z 08003KT 9999 SCT017 BKN100 26/22 Q1013","temp":26,"dewp":22,"wdir":80,"wspd":3,"visib":"6+","altim":1013,"clouds":[{"cover":"SCT","base":1700},{"cover":"BKN","base":10000}],"obsTime":1774371600},"SBAU":{"icaoId":"SBAU","flightCategory":"VFR","rawOb":"METAR SBAU 241700Z 27006KT CAVOK 31/23 Q1011","temp":31,"dewp":23,"wdir":270,"wspd":6,"visib":"6+","altim":1011,"clouds":[],"obsTime":1774371600},"SBAX":{"icaoId":"SBAX","flightCategory":"VFR","rawOb":"METAR SBAX 241700Z AUTO 36009KT 310V070 9999 FEW028 27/19 Q1014","temp":27,"dewp":19,"wdir":360,"wspd":9,"visib":"6+","altim":1014,"clouds":[{"cover":"FEW","base":2800}],"obsTime":1774371600},"SBBH":{"icaoId":"SBBH","flightCategory":"VFR","rawOb":"METAR SBBH 241700Z 09007KT 9999 SCT040 FEW045TCU 27/18 Q1014","temp":27,"dewp":18,"wdir":90,"wspd":7,"visib":"6+","altim":1014,"clouds":[{"cover":"SCT","base":4000},{"cover":"FEW","base":4500}],"obsTime":1774371600},"SBBQ":{"icaoId":"SBBQ","flightCategory":"VFR","rawOb":"METAR SBBQ 241700Z 01006KT 330V070 9999 SCT035 25/16 Q1018","temp":25,"dewp":16,"wdir":10,"wspd":6,"visib":"6+","altim":1018,"clouds":[{"cover":"SCT","base":3500}],"obsTime":1774371600},"SBBU":{"icaoId":"SBBU","flightCategory":"VFR","rawOb":"METAR SBBU 241700Z 18005KT 9999 BKN045 32/20 Q1011","temp":32,"dewp":20,"wdir":180,"wspd":5,"visib":"6+","altim":1011,"clouds":[{"cover":"BKN","base":4500}],"obsTime":1774371600},"SBCA":{"icaoId":"SBCA","flightCategory":"VFR","rawOb":"METAR SBCA 241700Z 33008KT 9999 FEW040TCU SCT050 26/21 Q1014","temp":26,"dewp":21,"wdir":330,"wspd":8,"visib":"6+","altim":1014,"clouds":[{"cover":"FEW","base":4000},{"cover":"SCT","base":5000}],"obsTime":1774371600},"SBCC":{"icaoId":"SBCC","flightCategory":"MVFR","rawOb":"METAR SBCC 241700Z 33010KT 9999 VCSH VCTS BKN023 FEW025CB BKN100 29/21 Q1011","temp":29,"dewp":21,"wdir":330,"wspd":10,"visib":"6+","altim":1011,"clouds":[{"cover":"BKN","base":2300},{"cover":"FEW","base":2500},{"cover":"BKN","base":10000}],"obsTime":1774371600},"SBCJ":{"icaoId":"SBCJ","flightCategory":"MVFR","rawOb":"METAR SBCJ 241700Z 06005KT 9999 BKN015 25/21 Q1014","temp":25,"dewp":21,"wdir":60,"wspd":5,"visib":"6+","altim":1014,"clouds":[{"cover":"BKN","base":1500}],"obsTime":1774371600},"SBCO":{"icaoId":"SBCO","flightCategory":"MVFR","rawOb":"METAR SBCO 241700Z 14004KT 120V180 9999 BKN012 BKN020 23/20 Q1013","temp":23,"dewp":20,"wdir":140,"wspd":4,"visib":"6+","altim":1013,"clouds":[{"cover":"BKN","base":1200},{"cover":"BKN","base":2000}],"obsTime":1774371600},"SBDN":{"icaoId":"SBDN","flightCategory":"VFR","rawOb":"METAR SBDN 241700Z 30010KT 9999 SCT033 FEW050TCU 32/22 Q1010","temp":32,"dewp":22,"wdir":300,"wspd":10,"visib":"6+","altim":1010,"clouds":[{"cover":"SCT","base":3300},{"cover":"FEW","base":5000}],"obsTime":1774371600},"SBES":{"icaoId":"SBES","flightCategory":"VFR","rawOb":"METAR SBES 241700Z 05014KT 9999 FEW020 29/// Q1010","temp":null,"dewp":null,"wdir":50,"wspd":14,"visib":"6+","altim":1010,"clouds":[{"cover":"FEW","base":2000}],"obsTime":1774371600},"SBGM":{"icaoId":"SBGM","flightCategory":"VFR","rawOb":"METAR SBGM 241700Z 26006KT CAVOK 31/19 Q1009","temp":31,"dewp":19,"wdir":260,"wspd":6,"visib":"6+","altim":1009,"clouds":[],"obsTime":1774371600},"SBIP":{"icaoId":"SBIP","flightCategory":"VFR","rawOb":"METAR SBIP 241700Z AUTO VRB04KT 9999 FEW029 28/20 Q1013","temp":28,"dewp":20,"wdir":"VRB","wspd":4,"visib":"6+","altim":1013,"clouds":[{"cover":"FEW","base":2900}],"obsTime":1774371600},"SBKG":{"icaoId":"SBKG","flightCategory":"MVFR","rawOb":"METAR SBKG 241700Z 11015KT 9999 BKN030 31/19 Q1012","temp":31,"dewp":19,"wdir":110,"wspd":15,"visib":"6+","altim":1012,"clouds":[{"cover":"BKN","base":3000}],"obsTime":1774371600},"SBOI":{"icaoId":"SBOI","flightCategory":"VFR","rawOb":"METAR SBOI 241700Z AUTO 02003KT 9999 // FEW007/// BKN055/// 24/23 Q1012","temp":24,"dewp":23,"wdir":20,"wspd":3,"visib":"6+","altim":1012,"clouds":[{"cover":"FEW","base":700},{"cover":"BKN","base":5500}],"obsTime":1774371600},"SBPB":{"icaoId":"SBPB","flightCategory":"VFR","rawOb":"METAR SBPB 241700Z 03014KT 9999 SCT016 FEW025TCU BKN080 31/25 Q1009","temp":31,"dewp":25,"wdir":30,"wspd":14,"visib":"6+","altim":1009,"clouds":[{"cover":"SCT","base":1600},{"cover":"FEW","base":2500},{"cover":"BKN","base":8000}],"obsTime":1774371600},"SBPL":{"icaoId":"SBPL","flightCategory":"VFR","rawOb":"METAR SBPL 241700Z 06007KT 9999 SCT030 33/19 Q1011","temp":33,"dewp":19,"wdir":60,"wspd":7,"visib":"6+","altim":1011,"clouds":[{"cover":"SCT","base":3000}],"obsTime":1774371600},"SBPS":{"icaoId":"SBPS","flightCategory":"VFR","rawOb":"METAR SBPS 241700Z 10006KT 9999 SCT020 SCT100 28/24 Q1013","temp":28,"dewp":24,"wdir":100,"wspd":6,"visib":"6+","altim":1013,"clouds":[{"cover":"SCT","base":2000},{"cover":"SCT","base":10000}],"obsTime":1774371600},"SBSC":{"icaoId":"SBSC","flightCategory":"VFR","rawOb":"METAR SBSC 241700Z 02010KT CAVOK 33/20 Q1009","temp":33,"dewp":20,"wdir":20,"wspd":10,"visib":"6+","altim":1009,"clouds":[],"obsTime":1774371600},"SBSJ":{"icaoId":"SBSJ","flightCategory":"VFR","rawOb":"METAR SBSJ 241700Z 10005KT 9999 FEW025 30/// Q1012","temp":null,"dewp":null,"wdir":100,"wspd":5,"visib":"6+","altim":1012,"clouds":[{"cover":"FEW","base":2500}],"obsTime":1774371600},"SBSM":{"icaoId":"SBSM","flightCategory":"MVFR","rawOb":"METAR SBSM 241700Z 11003KT 9999 BKN030 25/18 Q1012","temp":25,"dewp":18,"wdir":110,"wspd":3,"visib":"6+","altim":1012,"clouds":[{"cover":"BKN","base":3000}],"obsTime":1774371600},"SBSR":{"icaoId":"SBSR","flightCategory":"VFR","rawOb":"METAR SBSR 241700Z 36004KT 9999 SCT030 FEW035TCU BKN070 31/20 Q1011","temp":31,"dewp":20,"wdir":360,"wspd":4,"visib":"6+","altim":1011,"clouds":[{"cover":"SCT","base":3000},{"cover":"FEW","base":3500},{"cover":"BKN","base":7000}],"obsTime":1774371600},"SBTF":{"icaoId":"SBTF","flightCategory":"VFR","rawOb":"METAR SBTF 241700Z 17006KT 9999 SCT016 SCT100 34/26 Q1008","temp":34,"dewp":26,"wdir":170,"wspd":6,"visib":"6+","altim":1008,"clouds":[{"cover":"SCT","base":1600},{"cover":"SCT","base":10000}],"obsTime":1774371600},"SBTT":{"icaoId":"SBTT","flightCategory":"MVFR","rawOb":"METAR SBTT 241700Z 23003KT 9999 BKN022 BKN090 31/22 Q1011","temp":31,"dewp":22,"wdir":230,"wspd":3,"visib":"6+","altim":1011,"clouds":[{"cover":"BKN","base":2200},{"cover":"BKN","base":9000}],"obsTime":1774371600},"SBUY":{"icaoId":"SBUY","flightCategory":"VFR","rawOb":"METAR SBUY 241700Z 16006KT 9999 FEW030 FEW035TCU SCT100 32/24 Q1008","temp":32,"dewp":24,"wdir":160,"wspd":6,"visib":"6+","altim":1008,"clouds":[{"cover":"FEW","base":3000},{"cover":"FEW","base":3500},{"cover":"SCT","base":10000}],"obsTime":1774371600},"SBAR":{"icaoId":"SBAR","flightCategory":"VFR","rawOb":"METAR SBAR 241700Z 09013KT 9999 FEW023 31/23 Q1011","temp":31,"dewp":23,"wdir":90,"wspd":13,"visib":"6+","altim":1011,"clouds":[{"cover":"FEW","base":2300}],"obsTime":1774371600},"SBTA":{"icaoId":"SBTA","flightCategory":"VFR","rawOb":"METAR SBTA 241700Z 02005KT 330V070 9999 FEW030 29/21 Q1011","temp":29,"dewp":21,"wdir":20,"wspd":5,"visib":"6+","altim":1011,"clouds":[{"cover":"FEW","base":3000}],"obsTime":1774371600},"SBAF":{"icaoId":"SBAF","flightCategory":"VFR","rawOb":"METAR SBAF 241700Z 35004KT 9999 FEW048 33/20 Q1009","temp":33,"dewp":20,"wdir":350,"wspd":4,"visib":"6+","altim":1009,"clouds":[{"cover":"FEW","base":4800}],"obsTime":1774371600},"SBAN":{"icaoId":"SBAN","flightCategory":"VFR","rawOb":"METAR SBAN 241700Z 36004KT 9999 SCT030 FEW035TCU 25/18 Q1017","temp":25,"dewp":18,"wdir":360,"wspd":4,"visib":"6+","altim":1017,"clouds":[{"cover":"SCT","base":3000},{"cover":"FEW","base":3500}],"obsTime":1774371600},"SBGW":{"icaoId":"SBGW","flightCategory":"VFR","rawOb":"METAR SBGW 241700Z 04005KT 350V090 9999 FEW030 30/16 Q1011","temp":30,"dewp":16,"wdir":40,"wspd":5,"visib":"6+","altim":1011,"clouds":[{"cover":"FEW","base":3000}],"obsTime":1774371600},"SBIH":{"icaoId":"SBIH","flightCategory":"VFR","rawOb":"METAR SBIH 241700Z 04006KT 9999 SCT016 31/25 Q1009","temp":31,"dewp":25,"wdir":40,"wspd":6,"visib":"6+","altim":1009,"clouds":[{"cover":"SCT","base":1600}],"obsTime":1774371600},"SBJP":{"icaoId":"SBJP","flightCategory":"VFR","rawOb":"METAR SBJP 241700Z 09010KT 050V120 9999 BKN040 31/21 Q1011","temp":31,"dewp":21,"wdir":90,"wspd":10,"visib":"6+","altim":1011,"clouds":[{"cover":"BKN","base":4000}],"obsTime":1774371600},"SBJR":{"icaoId":"SBJR","flightCategory":"VFR","rawOb":"METAR SBJR 241700Z 18008KT 9999 FEW025 32/21 Q1009","temp":32,"dewp":21,"wdir":180,"wspd":8,"visib":"6+","altim":1009,"clouds":[{"cover":"FEW","base":2500}],"obsTime":1774371600},"SBJV":{"icaoId":"SBJV","flightCategory":"VFR","rawOb":"METAR SBJV 241700Z 13007KT 9999 SCT030 30/24 Q1010","temp":30,"dewp":24,"wdir":130,"wspd":7,"visib":"6+","altim":1010,"clouds":[{"cover":"SCT","base":3000}],"obsTime":1774371600},"SBLE":{"icaoId":"SBLE","flightCategory":"VFR","rawOb":"METAR SBLE 241700Z AUTO 12004KT 050V170 9999 FEW035 30/20 Q1013","temp":30,"dewp":20,"wdir":120,"wspd":4,"visib":"6+","altim":1013,"clouds":[{"cover":"FEW","base":3500}],"obsTime":1774371600},"SBLS":{"icaoId":"SBLS","flightCategory":"VFR","rawOb":"METAR SBLS 241700Z 14006KT 040V160 9999 VCSH SCT033 FEW040TCU SCT100 27/19 Q1015","temp":27,"dewp":19,"wdir":140,"wspd":6,"visib":"6+","altim":1015,"clouds":[{"cover":"SCT","base":3300},{"cover":"FEW","base":4000},{"cover":"SCT","base":10000}],"obsTime":1774371600},"SBMT":{"icaoId":"SBMT","flightCategory":"VFR","rawOb":"METAR SBMT 241700Z 32005KT 9999 FEW035 29/15 Q1012","temp":29,"dewp":15,"wdir":320,"wspd":5,"visib":"6+","altim":1012,"clouds":[{"cover":"FEW","base":3500}],"obsTime":1774371600},"SBPF":{"icaoId":"SBPF","flightCategory":"VFR","rawOb":"SPECI SBPF 241701Z AUTO VRB02KT 9999 FEW033 BKN044 25/20 Q1014","temp":25,"dewp":20,"wdir":"VRB","wspd":2,"visib":"6+","altim":1014,"clouds":[{"cover":"FEW","base":3300},{"cover":"BKN","base":4400}],"obsTime":1774371660},"SBST":{"icaoId":"SBST","flightCategory":"VFR","rawOb":"METAR SBST 241700Z 24006KT 9999 FEW034 29/20 Q1009","temp":29,"dewp":20,"wdir":240,"wspd":6,"visib":"6+","altim":1009,"clouds":[{"cover":"FEW","base":3400}],"obsTime":1774371600}}}