{"updated":1778672275,"count":84,"data":{"SBEG":{"icaoId":"SBEG","flightCategory":"VFR","rawOb":"METAR SBEG 131000Z 01001KT 9999 0800W BCFG FEW002 SCT100 23/23 Q1014","temp":23,"dewp":23,"wdir":10,"wspd":1,"visib":"6+","altim":1014,"clouds":[{"cover":"FEW","base":200},{"cover":"SCT","base":10000}],"obsTime":1778666400},"SBGR":{"icaoId":"SBGR","flightCategory":"MVFR","rawOb":"METAR SBGR 131000Z 09001KT 8000 NSC 08/07 Q1020","temp":8,"dewp":7,"wdir":90,"wspd":1,"visib":4.97,"altim":1020,"clouds":[],"obsTime":1778666400},"SBMQ":{"icaoId":"SBMQ","flightCategory":"MVFR","rawOb":"METAR SBMQ 131000Z 29004KT 6000 -RA FEW004 SCT012 OVC090 24/24 Q1014","temp":24,"dewp":24,"wdir":290,"wspd":4,"visib":3.73,"altim":1014,"clouds":[{"cover":"FEW","base":400},{"cover":"SCT","base":1200},{"cover":"OVC","base":9000}],"obsTime":1778666400},"SBBV":{"icaoId":"SBBV","flightCategory":"IFR","rawOb":"METAR SBBV 131000Z 18004KT 9999 BKN009 BKN016 FEW030TCU OVC060 24/24 Q1015","temp":24,"dewp":24,"wdir":180,"wspd":4,"visib":"6+","altim":1015,"clouds":[{"cover":"BKN","base":900},{"cover":"BKN","base":1600},{"cover":"FEW","base":3000},{"cover":"OVC","base":6000}],"obsTime":1778666400},"SBCB":{"icaoId":"SBCB","flightCategory":"VFR","rawOb":"METAR SBCB 131000Z 07004KT CAVOK 19/17 Q1018","temp":19,"dewp":17,"wdir":70,"wspd":4,"visib":"6+","altim":1018,"clouds":[],"obsTime":1778666400},"SBVT":{"icaoId":"SBVT","flightCategory":"VFR","rawOb":"METAR SBVT 131000Z 28002KT 9999 BKN045 21/18 Q1018","temp":21,"dewp":18,"wdir":280,"wspd":2,"visib":"6+","altim":1018,"clouds":[{"cover":"BKN","base":4500}],"obsTime":1778666400},"SBBE":{"icaoId":"SBBE","flightCategory":"MVFR","rawOb":"METAR SBBE 131000Z 05004KT 8000 -RA SCT005 BKN015 BKN030 23/23 Q1013","temp":23,"dewp":23,"wdir":50,"wspd":4,"visib":4.97,"altim":1013,"clouds":[{"cover":"SCT","base":500},{"cover":"BKN","base":1500},{"cover":"BKN","base":3000}],"obsTime":1778666400},"SBBR":{"icaoId":"SBBR","flightCategory":"VFR","rawOb":"METAR SBBR 131000Z VRB02KT CAVOK 17/15 Q1021","temp":17,"dewp":15,"wdir":"VRB","wspd":2,"visib":"6+","altim":1021,"clouds":[],"obsTime":1778666400},"SBCF":{"icaoId":"SBCF","flightCategory":"VFR","rawOb":"METAR SBCF 131000Z 19002KT 9999 FEW025 SCT100 18/17 Q1021","temp":18,"dewp":17,"wdir":190,"wspd":2,"visib":"6+","altim":1021,"clouds":[{"cover":"FEW","base":2500},{"cover":"SCT","base":10000}],"obsTime":1778666400},"SBCG":{"icaoId":"SBCG","flightCategory":"VFR","rawOb":"METAR SBCG 131000Z 08005KT CAVOK 15/09 Q1018","temp":15,"dewp":9,"wdir":80,"wspd":5,"visib":"6+","altim":1018,"clouds":[],"obsTime":1778666400},"SBCP":{"icaoId":"SBCP","flightCategory":"VFR","rawOb":"METAR SBCP 131000Z 36002KT 9999 SCT040 18/17 Q1018","temp":18,"dewp":17,"wdir":360,"wspd":2,"visib":"6+","altim":1018,"clouds":[{"cover":"SCT","base":4000}],"obsTime":1778666400},"SBCR":{"icaoId":"SBCR","flightCategory":"VFR","rawOb":"METAR SBCR 131100Z VRB02KT CAVOK 16/14 Q1017","temp":16,"dewp":14,"wdir":"VRB","wspd":2,"visib":"6+","altim":1017,"clouds":[],"obsTime":1778670000},"SBCT":{"icaoId":"SBCT","flightCategory":"MVFR","rawOb":"METAR SBCT 131000Z 35001KT 8000 NSC 04/03 Q1020","temp":4,"dewp":3,"wdir":350,"wspd":1,"visib":4.97,"altim":1020,"clouds":[],"obsTime":1778666400},"SBFI":{"icaoId":"SBFI","flightCategory":"LIFR","rawOb":"METAR SBFI 131000Z 13005KT 0400 R33/1400 R15/P2000 FG BKN002 08/08 Q1019","temp":8,"dewp":8,"wdir":130,"wspd":5,"visib":0.25,"altim":1019,"clouds":[{"cover":"BKN","base":200}],"obsTime":1778666400},"SBFL":{"icaoId":"SBFL","flightCategory":"VFR","rawOb":"METAR SBFL 131000Z 00000KT CAVOK 09/09 Q1016","temp":9,"dewp":9,"wdir":0,"wspd":0,"visib":"6+","altim":1016,"clouds":[],"obsTime":1778666400},"SBFZ":{"icaoId":"SBFZ","flightCategory":"VFR","rawOb":"METAR SBFZ 131000Z 18011KT 9999 FEW014 BKN050 25/22 Q1013","temp":25,"dewp":22,"wdir":180,"wspd":11,"visib":"6+","altim":1013,"clouds":[{"cover":"FEW","base":1400},{"cover":"BKN","base":5000}],"obsTime":1778666400},"SBGL":{"icaoId":"SBGL","flightCategory":"MVFR","rawOb":"METAR SBGL 131000Z VRB02KT 5000 BR FEW015 16/15 Q1017","temp":16,"dewp":15,"wdir":"VRB","wspd":2,"visib":3.11,"altim":1017,"clouds":[{"cover":"FEW","base":1500}],"obsTime":1778666400},"SBGO":{"icaoId":"SBGO","flightCategory":"VFR","rawOb":"METAR SBGO 131000Z 13003KT CAVOK 18/17 Q1020","temp":18,"dewp":17,"wdir":130,"wspd":3,"visib":"6+","altim":1020,"clouds":[],"obsTime":1778666400},"SBHT":{"icaoId":"SBHT","flightCategory":"VFR","rawOb":"METAR SBHT 131000Z 24002KT 9999 SCT011 BKN080 25/24 Q1013","temp":25,"dewp":24,"wdir":240,"wspd":2,"visib":"6+","altim":1013,"clouds":[{"cover":"SCT","base":1100},{"cover":"BKN","base":8000}],"obsTime":1778666400},"SBIL":{"icaoId":"SBIL","flightCategory":"VFR","rawOb":"METAR SBIL 131000Z 28002KT 9999 SCT016 SCT020 BKN050 24/23 Q1017","temp":24,"dewp":23,"wdir":280,"wspd":2,"visib":"6+","altim":1017,"clouds":[{"cover":"SCT","base":1600},{"cover":"SCT","base":2000},{"cover":"BKN","base":5000}],"obsTime":1778666400},"SBJU":{"icaoId":"SBJU","flightCategory":"MVFR","rawOb":"METAR SBJU 131000Z 13006KT 9999 BKN020 24/20 Q1016","temp":24,"dewp":20,"wdir":130,"wspd":6,"visib":"6+","altim":1016,"clouds":[{"cover":"BKN","base":2000}],"obsTime":1778666400},"SBKP":{"icaoId":"SBKP","flightCategory":"MVFR","rawOb":"METAR SBKP 131000Z 10006KT 8000 3000E NSC 11/10 Q1020","temp":11,"dewp":10,"wdir":100,"wspd":6,"visib":4.97,"altim":1020,"clouds":[],"obsTime":1778666400},"SBLO":{"icaoId":"SBLO","flightCategory":"VFR","rawOb":"METAR SBLO 131000Z 18003KT CAVOK 10/08 Q1019","temp":10,"dewp":8,"wdir":180,"wspd":3,"visib":"6+","altim":1019,"clouds":[],"obsTime":1778666400},"SBMA":{"icaoId":"SBMA","flightCategory":"VFR","rawOb":"METAR SBMA 131000Z 00000KT 9999 FEW020 FEW025TCU 25/24 Q1012","temp":25,"dewp":24,"wdir":0,"wspd":0,"visib":"6+","altim":1012,"clouds":[{"cover":"FEW","base":2000},{"cover":"FEW","base":2500}],"obsTime":1778666400},"SBME":{"icaoId":"SBME","flightCategory":"VFR","rawOb":"METAR SBME 131000Z 06010KT 9999 FEW030 21/15 Q1017","temp":21,"dewp":15,"wdir":60,"wspd":10,"visib":"6+","altim":1017,"clouds":[{"cover":"FEW","base":3000}],"obsTime":1778666400},"SBMG":{"icaoId":"SBMG","flightCategory":"VFR","rawOb":"METAR SBMG 131000Z 13007KT 9999 4000S BCFG NSC 11/09 Q1018","temp":11,"dewp":9,"wdir":130,"wspd":7,"visib":"6+","altim":1018,"clouds":[],"obsTime":1778666400},"SBMK":{"icaoId":"SBMK","flightCategory":"VFR","rawOb":"METAR SBMK 131000Z 22002KT CAVOK 18/16 Q1020","temp":18,"dewp":16,"wdir":220,"wspd":2,"visib":"6+","altim":1020,"clouds":[],"obsTime":1778666400},"SBMO":{"icaoId":"SBMO","flightCategory":"VFR","rawOb":"METAR SBMO 131000Z VRB02KT 9999 VCSH FEW013 SCT023 25/24 Q1015","temp":25,"dewp":24,"wdir":"VRB","wspd":2,"visib":"6+","altim":1015,"clouds":[{"cover":"FEW","base":1300},{"cover":"SCT","base":2300}],"obsTime":1778666400},"SBNT":{"icaoId":"SBNT","flightCategory":"MVFR","rawOb":"METAR SBNT 131000Z 18003KT 9999 VCSH BKN011 BKN020 FEW024TCU OVC030 23/23 Q1014","temp":23,"dewp":23,"wdir":180,"wspd":3,"visib":"6+","altim":1014,"clouds":[{"cover":"BKN","base":1100},{"cover":"BKN","base":2000},{"cover":"FEW","base":2400},{"cover":"OVC","base":3000}],"obsTime":1778666400},"SBPA":{"icaoId":"SBPA","flightCategory":"VFR","rawOb":"METAR SBPA 131000Z 00000KT CAVOK 08/07 Q1018","temp":8,"dewp":7,"wdir":0,"wspd":0,"visib":"6+","altim":1018,"clouds":[],"obsTime":1778666400},"SBPJ":{"icaoId":"SBPJ","flightCategory":"VFR","rawOb":"METAR SBPJ 131000Z 14004KT CAVOK 23/20 Q1015","temp":23,"dewp":20,"wdir":140,"wspd":4,"visib":"6+","altim":1015,"clouds":[],"obsTime":1778666400},"SBPV":{"icaoId":"SBPV","flightCategory":"VFR","rawOb":"METAR SBPV 131000Z 19002KT CAVOK 22/19 Q1013","temp":22,"dewp":19,"wdir":190,"wspd":2,"visib":"6+","altim":1013,"clouds":[],"obsTime":1778666400},"SBRB":{"icaoId":"SBRB","flightCategory":"VFR","rawOb":"METAR SBRB 131000Z 23003KT 9999 SCT030 BKN100 19/19 Q1016","temp":19,"dewp":19,"wdir":230,"wspd":3,"visib":"6+","altim":1016,"clouds":[{"cover":"SCT","base":3000},{"cover":"BKN","base":10000}],"obsTime":1778666400},"SBRF":{"icaoId":"SBRF","flightCategory":"MVFR","rawOb":"METAR SBRF 131000Z 14009KT 9999 BKN021 BKN060 27/23 Q1014","temp":27,"dewp":23,"wdir":140,"wspd":9,"visib":"6+","altim":1014,"clouds":[{"cover":"BKN","base":2100},{"cover":"BKN","base":6000}],"obsTime":1778666400},"SBSG":{"icaoId":"SBSG","flightCategory":"IFR","rawOb":"METAR SBSG 131000Z 19006KT 160V230 5000 BR BKN007 23/22 Q1015","temp":23,"dewp":22,"wdir":190,"wspd":6,"visib":3.11,"altim":1015,"clouds":[{"cover":"BKN","base":700}],"obsTime":1778666400},"SBSL":{"icaoId":"SBSL","flightCategory":"VFR","rawOb":"METAR SBSL 131000Z 19004KT 9999 SCT020 BKN100 25/24 Q1012","temp":25,"dewp":24,"wdir":190,"wspd":4,"visib":"6+","altim":1012,"clouds":[{"cover":"SCT","base":2000},{"cover":"BKN","base":10000}],"obsTime":1778666400},"SBSN":{"icaoId":"SBSN","flightCategory":"MVFR","rawOb":"METAR SBSN 131000Z 33004KT 9999 -RA FEW006 BKN010 25/25 Q1013","temp":25,"dewp":25,"wdir":330,"wspd":4,"visib":"6+","altim":1013,"clouds":[{"cover":"FEW","base":600},{"cover":"BKN","base":1000}],"obsTime":1778666400},"SBSP":{"icaoId":"SBSP","flightCategory":"MVFR","rawOb":"METAR SBSP 131000Z 00000KT 5000 BR NSC 11/11 Q1021","temp":11,"dewp":11,"wdir":0,"wspd":0,"visib":3.11,"altim":1021,"clouds":[],"obsTime":1778666400},"SBSV":{"icaoId":"SBSV","flightCategory":"VFR","rawOb":"METAR SBSV 131000Z 13005KT 090V160 9999 FEW030 27/21 Q1016","temp":27,"dewp":21,"wdir":130,"wspd":5,"visib":"6+","altim":1016,"clouds":[{"cover":"FEW","base":3000}],"obsTime":1778666400},"SBTE":{"icaoId":"SBTE","flightCategory":"VFR","rawOb":"METAR SBTE 131000Z VRB02KT 9999 FEW010 SCT080 26/24 Q1013","temp":26,"dewp":24,"wdir":"VRB","wspd":2,"visib":"6+","altim":1013,"clouds":[{"cover":"FEW","base":1000},{"cover":"SCT","base":8000}],"obsTime":1778666400},"SBUL":{"icaoId":"SBUL","flightCategory":"VFR","rawOb":"METAR SBUL 131000Z 14006KT 9999 SCT040 SCT070 18/10 Q1021","temp":18,"dewp":10,"wdir":140,"wspd":6,"visib":"6+","altim":1021,"clouds":[{"cover":"SCT","base":4000},{"cover":"SCT","base":7000}],"obsTime":1778666400},"SBUR":{"icaoId":"SBUR","flightCategory":"VFR","rawOb":"METAR SBUR 131000Z 02003KT CAVOK 17/10 Q1020","temp":17,"dewp":10,"wdir":20,"wspd":3,"visib":"6+","altim":1020,"clouds":[],"obsTime":1778666400},"SBAT":{"icaoId":"SBAT","flightCategory":"VFR","rawOb":"METAR SBAT 131100Z 00000KT CAVOK 26/24 Q1016","temp":26,"dewp":24,"wdir":0,"wspd":0,"visib":"6+","altim":1016,"clouds":[],"obsTime":1778670000},"SBPS":{"icaoId":"SBPS","flightCategory":"MVFR","rawOb":"METAR SBPS 131000Z 24005KT 7000 2000W FEW004 SCT015 OVC025 22/22 Q1018","temp":22,"dewp":22,"wdir":240,"wspd":5,"visib":4.35,"altim":1018,"clouds":[{"cover":"FEW","base":400},{"cover":"SCT","base":1500},{"cover":"OVC","base":2500}],"obsTime":1778666400},"SBTF":{"icaoId":"SBTF","flightCategory":"IFR","rawOb":"SPECI SBTF 131115Z 21002KT 9999 BKN005 OVC100 23/23 Q1015","temp":23,"dewp":23,"wdir":210,"wspd":2,"visib":"6+","altim":1015,"clouds":[{"cover":"BKN","base":500},{"cover":"OVC","base":10000}],"obsTime":1778670900},"SBPP":{"icaoId":"SBPP","flightCategory":"VFR","rawOb":"SPECI SBPP 131115Z 06004KT CAVOK 12/06 Q1020","temp":12,"dewp":6,"wdir":60,"wspd":4,"visib":"6+","altim":1020,"clouds":[],"obsTime":1778670900},"SBAX":{"icaoId":"SBAX","flightCategory":"VFR","rawOb":"METAR SBAX 131000Z AUTO 09003KT CAVOK 17/17 Q1021","temp":17,"dewp":17,"wdir":90,"wspd":3,"visib":"6+","altim":1021,"clouds":[],"obsTime":1778666400},"SBBH":{"icaoId":"SBBH","flightCategory":"VFR","rawOb":"METAR SBBH 131000Z 10004KT CAVOK 19/17 Q1021","temp":19,"dewp":17,"wdir":100,"wspd":4,"visib":"6+","altim":1021,"clouds":[],"obsTime":1778666400},"SBUY":{"icaoId":"SBUY","flightCategory":"IFR","rawOb":"METAR SBUY 131100Z 00000KT 4000 1000E BR SCT003 BKN070 21/21 Q1014","temp":21,"dewp":21,"wdir":0,"wspd":0,"visib":2.49,"altim":1014,"clouds":[{"cover":"SCT","base":300},{"cover":"BKN","base":7000}],"obsTime":1778670000},"SBTU":{"icaoId":"SBTU","flightCategory":"LIFR","rawOb":"METAR SBTU 131000Z AUTO 12005KT 090V150 0650 // ///////// ///// Q1014","temp":null,"dewp":null,"wdir":120,"wspd":5,"visib":0.4,"altim":1014,"clouds":[],"obsTime":1778666400},"SBBU":{"icaoId":"SBBU","flightCategory":"VFR","rawOb":"METAR SBBU 131000Z 17006KT CAVOK 13/08 Q1019","temp":13,"dewp":8,"wdir":170,"wspd":6,"visib":"6+","altim":1019,"clouds":[],"obsTime":1778666400},"SBTT":{"icaoId":"SBTT","flightCategory":"MVFR","rawOb":"METAR SBTT 131100Z 11003KT 9999 FEW010 OVC020 21/19 Q1016","temp":21,"dewp":19,"wdir":110,"wspd":3,"visib":"6+","altim":1016,"clouds":[{"cover":"FEW","base":1000},{"cover":"OVC","base":2000}],"obsTime":1778670000},"SBCA":{"icaoId":"SBCA","flightCategory":"VFR","rawOb":"METAR SBCA 131000Z 06003KT CAVOK 13/06 Q1020","temp":13,"dewp":6,"wdir":60,"wspd":3,"visib":"6+","altim":1020,"clouds":[],"obsTime":1778666400},"SBCC":{"icaoId":"SBCC","flightCategory":"VFR","rawOb":"METAR SBCC 131100Z /////KT CAVOK ///// Q1017","temp":null,"dewp":null,"wdir":null,"wspd":null,"visib":"6+","altim":1017,"clouds":[],"obsTime":1778670000},"SBCJ":{"icaoId":"SBCJ","flightCategory":"VFR","rawOb":"SPECI SBCJ 131015Z 00000KT CAVOK 23/21 Q1018","temp":23,"dewp":21,"wdir":0,"wspd":0,"visib":"6+","altim":1018,"clouds":[],"obsTime":1778667300},"SBCO":{"icaoId":"SBCO","flightCategory":"VFR","rawOb":"METAR SBCO 131000Z VRB02KT CAVOK 06/04 Q1018","temp":6,"dewp":4,"wdir":"VRB","wspd":2,"visib":"6+","altim":1018,"clouds":[],"obsTime":1778666400},"SBPL":{"icaoId":"SBPL","flightCategory":"VFR","rawOb":"METAR SBPL 131000Z 12005KT 9999 FEW020 24/21 Q1017","temp":24,"dewp":21,"wdir":120,"wspd":5,"visib":"6+","altim":1017,"clouds":[{"cover":"FEW","base":2000}],"obsTime":1778666400},"SBDN":{"icaoId":"SBDN","flightCategory":"VFR","rawOb":"METAR SBDN 131000Z 14003KT CAVOK 11/08 Q1018","temp":11,"dewp":8,"wdir":140,"wspd":3,"visib":"6+","altim":1018,"clouds":[],"obsTime":1778666400},"SBSR":{"icaoId":"SBSR","flightCategory":"VFR","rawOb":"METAR SBSR 131000Z 06001KT CAVOK 14/08 Q1018","temp":14,"dewp":8,"wdir":60,"wspd":1,"visib":"6+","altim":1018,"clouds":[],"obsTime":1778666400},"SBES":{"icaoId":"SBES","flightCategory":"VFR","rawOb":"METAR SBES 131000Z VRB02KT 9999 FEW030 14/// Q1017","temp":null,"dewp":null,"wdir":"VRB","wspd":2,"visib":"6+","altim":1017,"clouds":[{"cover":"FEW","base":3000}],"obsTime":1778666400},"SBSM":{"icaoId":"SBSM","flightCategory":"VFR","rawOb":"METAR SBSM 131000Z 02002KT CAVOK 05/05 Q1018","temp":5,"dewp":5,"wdir":20,"wspd":2,"visib":"6+","altim":1018,"clouds":[],"obsTime":1778666400},"SBIP":{"icaoId":"SBIP","flightCategory":"VFR","rawOb":"METAR SBIP 131000Z AUTO 01008KT 9999 BKN049 22/19 Q1019","temp":22,"dewp":19,"wdir":10,"wspd":8,"visib":"6+","altim":1019,"clouds":[{"cover":"BKN","base":4900}],"obsTime":1778666400},"SBSJ":{"icaoId":"SBSJ","flightCategory":"LIFR","rawOb":"METAR SBSJ 131000Z 00000KT 3500 BR OVC004 11/11 Q1020","temp":11,"dewp":11,"wdir":0,"wspd":0,"visib":2.17,"altim":1020,"clouds":[{"cover":"OVC","base":400}],"obsTime":1778666400},"SBSC":{"icaoId":"SBSC","flightCategory":"VFR","rawOb":"METAR SBSC 131000Z 05007KT CAVOK 18/15 Q1017","temp":18,"dewp":15,"wdir":50,"wspd":7,"visib":"6+","altim":1017,"clouds":[],"obsTime":1778666400},"SBKG":{"icaoId":"SBKG","flightCategory":"VFR","rawOb":"METAR SBKG 131000Z 10005KT 9999 SCT010 OVC070 22/21 Q1017","temp":22,"dewp":21,"wdir":100,"wspd":5,"visib":"6+","altim":1017,"clouds":[{"cover":"SCT","base":1000},{"cover":"OVC","base":7000}],"obsTime":1778666400},"SBOI":{"icaoId":"SBOI","flightCategory":"MVFR","rawOb":"METAR SBOI 131000Z AUTO VRB02KT 9000 // FEW020/// BKN028/// 24/24 Q1014","temp":24,"dewp":24,"wdir":"VRB","wspd":2,"visib":5.59,"altim":1014,"clouds":[{"cover":"FEW","base":2000},{"cover":"BKN","base":2800}],"obsTime":1778666400},"SBPB":{"icaoId":"SBPB","flightCategory":"VFR","rawOb":"SPECI SBPB 131015Z 12003KT 9999 FEW020 27/25 Q1012","temp":27,"dewp":25,"wdir":120,"wspd":3,"visib":"6+","altim":1012,"clouds":[{"cover":"FEW","base":2000}],"obsTime":1778667300},"SBTD":{"icaoId":"SBTD","flightCategory":"VFR","rawOb":"METAR SBTD 131100Z /////KT CAVOK 12/08 Q1020","temp":12,"dewp":8,"wdir":null,"wspd":null,"visib":"6+","altim":1020,"clouds":[],"obsTime":1778670000},"SBAR":{"icaoId":"SBAR","flightCategory":"VFR","rawOb":"METAR SBAR 131000Z 12010KT 9999 VCSH SCT020 BKN050 26/22 Q1015","temp":26,"dewp":22,"wdir":120,"wspd":10,"visib":"6+","altim":1015,"clouds":[{"cover":"SCT","base":2000},{"cover":"BKN","base":5000}],"obsTime":1778666400},"SBVH":{"icaoId":"SBVH","flightCategory":"VFR","rawOb":"METAR SBVH 131100Z 12002KT CAVOK 19/18 Q1017","temp":19,"dewp":18,"wdir":120,"wspd":2,"visib":"6+","altim":1017,"clouds":[],"obsTime":1778670000},"SBLE":{"icaoId":"SBLE","flightCategory":"VFR","rawOb":"METAR SBLE 131000Z AUTO VRB01KT CAVOK ///// Q////","temp":null,"dewp":null,"wdir":"VRB","wspd":1,"visib":"6+","altim":null,"clouds":[],"obsTime":1778666400},"SBAN":{"icaoId":"SBAN","flightCategory":"VFR","rawOb":"METAR SBAN 131000Z 24006KT CAVOK 18/16 Q1022","temp":18,"dewp":16,"wdir":240,"wspd":6,"visib":"6+","altim":1022,"clouds":[],"obsTime":1778666400},"SBJP":{"icaoId":"SBJP","flightCategory":"VFR","rawOb":"METAR SBJP 131000Z VRB06KT 9999 SCT010 BKN070 24/23 Q1015","temp":24,"dewp":23,"wdir":"VRB","wspd":6,"visib":"6+","altim":1015,"clouds":[{"cover":"SCT","base":1000},{"cover":"BKN","base":7000}],"obsTime":1778666400},"SBIH":{"icaoId":"SBIH","flightCategory":"MVFR","rawOb":"METAR SBIH 131100Z 27005KT 7000 SCT008 25/24 Q1014","temp":25,"dewp":24,"wdir":270,"wspd":5,"visib":4.35,"altim":1014,"clouds":[{"cover":"SCT","base":800}],"obsTime":1778670000},"SBJV":{"icaoId":"SBJV","flightCategory":"LIFR","rawOb":"METAR SBJV 131000Z 34001KT 0300 R33/0500 FG SCT001 08/08 Q1017","temp":8,"dewp":8,"wdir":340,"wspd":1,"visib":0.19,"altim":1017,"clouds":[{"cover":"SCT","base":100}],"obsTime":1778666400},"SBNM":{"icaoId":"SBNM","flightCategory":"VFR","rawOb":"METAR SBNM 131000Z AUTO 08005KT 020V100 CAVOK 05/04 Q1019","temp":5,"dewp":4,"wdir":80,"wspd":5,"visib":"6+","altim":1019,"clouds":[],"obsTime":1778666400},"SBPF":{"icaoId":"SBPF","flightCategory":"VFR","rawOb":"METAR SBPF 131000Z 03010KT CAVOK 07/04 Q1020","temp":7,"dewp":4,"wdir":30,"wspd":10,"visib":"6+","altim":1020,"clouds":[],"obsTime":1778666400},"SBAF":{"icaoId":"SBAF","flightCategory":"VFR","rawOb":"METAR SBAF 131000Z 25002KT CAVOK 14/14 Q1018","temp":14,"dewp":14,"wdir":250,"wspd":2,"visib":"6+","altim":1018,"clouds":[],"obsTime":1778666400},"SBGW":{"icaoId":"SBGW","flightCategory":"MVFR","rawOb":"METAR SBGW 131000Z 00000KT 6000 NSC 11/08 Q1020","temp":11,"dewp":8,"wdir":0,"wspd":0,"visib":3.73,"altim":1020,"clouds":[],"obsTime":1778666400},"SBJR":{"icaoId":"SBJR","flightCategory":"VFR","rawOb":"METAR SBJR 131000Z 02002KT CAVOK 18/16 Q1017","temp":18,"dewp":16,"wdir":20,"wspd":2,"visib":"6+","altim":1017,"clouds":[],"obsTime":1778666400},"SBLS":{"icaoId":"SBLS","flightCategory":"VFR","rawOb":"METAR SBLS 131000Z 16006KT 9999 FEW010 BKN100 18/17 Q1020","temp":18,"dewp":17,"wdir":160,"wspd":6,"visib":"6+","altim":1020,"clouds":[{"cover":"FEW","base":1000},{"cover":"BKN","base":10000}],"obsTime":1778666400},"SBMT":{"icaoId":"SBMT","flightCategory":"MVFR","rawOb":"METAR SBMT 131000Z 00000KT 7000 NSC 09/09 Q1020","temp":9,"dewp":9,"wdir":0,"wspd":0,"visib":4.35,"altim":1020,"clouds":[],"obsTime":1778666400},"SBST":{"icaoId":"SBST","flightCategory":"VFR","rawOb":"METAR SBST 131100Z 14002KT CAVOK 15/15 Q1017","temp":15,"dewp":15,"wdir":140,"wspd":2,"visib":"6+","altim":1017,"clouds":[],"obsTime":1778670000},"SBTA":{"icaoId":"SBTA","flightCategory":"IFR","rawOb":"METAR SBTA 131000Z 00000KT 4000 BR BKN008 10/10 Q1019","temp":10,"dewp":10,"wdir":0,"wspd":0,"visib":2.49,"altim":1019,"clouds":[{"cover":"BKN","base":800}],"obsTime":1778666400}}}