{"updated":1774867929,"count":70,"data":{"SBMQ":{"icaoId":"SBMQ","flightCategory":"IFR","rawOb":"METAR SBMQ 300900Z 28005KT 3500 RA FEW004 BKN011 OVC024 25/24 Q1011","temp":25,"dewp":24,"wdir":280,"wspd":5,"visib":2.17,"altim":1011,"clouds":[{"cover":"FEW","base":400},{"cover":"BKN","base":1100},{"cover":"OVC","base":2400}],"obsTime":1774861200},"SBGR":{"icaoId":"SBGR","flightCategory":"IFR","rawOb":"METAR SBGR 300900Z 05006KT 7000 OVC007 19/18 Q1018","temp":19,"dewp":18,"wdir":50,"wspd":6,"visib":4.35,"altim":1018,"clouds":[{"cover":"OVC","base":700}],"obsTime":1774861200},"SBCT":{"icaoId":"SBCT","flightCategory":"IFR","rawOb":"METAR SBCT 300900Z 00000KT 9999 BKN005 18/18 Q1019","temp":18,"dewp":18,"wdir":0,"wspd":0,"visib":"6+","altim":1019,"clouds":[{"cover":"BKN","base":500}],"obsTime":1774861200},"SBBV":{"icaoId":"SBBV","flightCategory":"VFR","rawOb":"METAR SBBV 300900Z 06003KT 9999 SCT020 SCT040 FEW045TCU BKN070 26/24 Q1010","temp":26,"dewp":24,"wdir":60,"wspd":3,"visib":"6+","altim":1010,"clouds":[{"cover":"SCT","base":2000},{"cover":"SCT","base":4000},{"cover":"FEW","base":4500},{"cover":"BKN","base":7000}],"obsTime":1774861200},"SBUL":{"icaoId":"SBUL","flightCategory":"VFR","rawOb":"METAR SBUL 300900Z 11005KT CAVOK 20/16 Q1019","temp":20,"dewp":16,"wdir":110,"wspd":5,"visib":"6+","altim":1019,"clouds":[],"obsTime":1774861200},"SBCB":{"icaoId":"SBCB","flightCategory":"VFR","rawOb":"METAR SBCB 300900Z 01003KT CAVOK 22/21 Q1015","temp":22,"dewp":21,"wdir":10,"wspd":3,"visib":"6+","altim":1015,"clouds":[],"obsTime":1774861200},"SBCF":{"icaoId":"SBCF","flightCategory":"VFR","rawOb":"METAR SBCF 300900Z 14007KT CAVOK 19/17 Q1019","temp":19,"dewp":17,"wdir":140,"wspd":7,"visib":"6+","altim":1019,"clouds":[],"obsTime":1774861200},"SBTE":{"icaoId":"SBTE","flightCategory":"MVFR","rawOb":"METAR SBTE 300900Z 33002KT 9999 BKN010 25/24 Q1010","temp":25,"dewp":24,"wdir":330,"wspd":2,"visib":"6+","altim":1010,"clouds":[{"cover":"BKN","base":1000}],"obsTime":1774861200},"SBCG":{"icaoId":"SBCG","flightCategory":"VFR","rawOb":"METAR SBCG 300900Z 11006KT CAVOK 21/17 Q1016","temp":21,"dewp":17,"wdir":110,"wspd":6,"visib":"6+","altim":1016,"clouds":[],"obsTime":1774861200},"SBCP":{"icaoId":"SBCP","flightCategory":"VFR","rawOb":"METAR SBCP 301000Z 30003KT 9999 FEW020 23/23 Q1015","temp":23,"dewp":23,"wdir":300,"wspd":3,"visib":"6+","altim":1015,"clouds":[{"cover":"FEW","base":2000}],"obsTime":1774864800},"SBSV":{"icaoId":"SBSV","flightCategory":"LIFR","rawOb":"METAR SBSV 300900Z 12012KT 090V160 1500 R28/0800N R10/1200D TSRA BKN008 BKN020 FEW023CB BKN031 23/22 Q1013","temp":23,"dewp":22,"wdir":120,"wspd":12,"visib":0.93,"altim":1013,"clouds":[{"cover":"BKN","base":800},{"cover":"BKN","base":2000},{"cover":"FEW","base":2300},{"cover":"BKN","base":3100}],"obsTime":1774861200},"SBSP":{"icaoId":"SBSP","flightCategory":"VFR","rawOb":"METAR SBSP 300900Z 13003KT 9000 NSC 18/17 Q1019","temp":18,"dewp":17,"wdir":130,"wspd":3,"visib":5.59,"altim":1019,"clouds":[],"obsTime":1774861200},"SBEG":{"icaoId":"SBEG","flightCategory":"MVFR","rawOb":"METAR SBEG 300900Z 00000KT 9999 BKN015 24/24 Q1011","temp":24,"dewp":24,"wdir":0,"wspd":0,"visib":"6+","altim":1011,"clouds":[{"cover":"BKN","base":1500}],"obsTime":1774861200},"SBSN":{"icaoId":"SBSN","flightCategory":"VFR","rawOb":"METAR SBSN 300900Z 13004KT 9999 -RA SCT010 OVC100 23/23 Q1011","temp":23,"dewp":23,"wdir":130,"wspd":4,"visib":"6+","altim":1011,"clouds":[{"cover":"SCT","base":1000},{"cover":"OVC","base":10000}],"obsTime":1774861200},"SBFI":{"icaoId":"SBFI","flightCategory":"VFR","rawOb":"METAR SBFI 300900Z 04002KT CAVOK 19/19 Q1014","temp":19,"dewp":19,"wdir":40,"wspd":2,"visib":"6+","altim":1014,"clouds":[],"obsTime":1774861200},"SBSL":{"icaoId":"SBSL","flightCategory":"VFR","rawOb":"METAR SBSL 300900Z 14005KT 9999 FEW018 SCT070 24/23 Q1010","temp":24,"dewp":23,"wdir":140,"wspd":5,"visib":"6+","altim":1010,"clouds":[{"cover":"FEW","base":1800},{"cover":"SCT","base":7000}],"obsTime":1774861200},"SBFL":{"icaoId":"SBFL","flightCategory":"VFR","rawOb":"METAR SBFL 300900Z 33005KT 230V360 9999 FEW020 BKN100 25/23 Q1014","temp":25,"dewp":23,"wdir":330,"wspd":5,"visib":"6+","altim":1014,"clouds":[{"cover":"FEW","base":2000},{"cover":"BKN","base":10000}],"obsTime":1774861200},"SBSG":{"icaoId":"SBSG","flightCategory":"VFR","rawOb":"METAR SBSG 300900Z 19004KT 9999 SCT023 23/22 Q1011","temp":23,"dewp":22,"wdir":190,"wspd":4,"visib":"6+","altim":1011,"clouds":[{"cover":"SCT","base":2300}],"obsTime":1774861200},"SBFZ":{"icaoId":"SBFZ","flightCategory":"VFR","rawOb":"METAR SBFZ 300900Z 29002KT 9999 FEW020 BKN090 25/24 Q1010","temp":25,"dewp":24,"wdir":290,"wspd":2,"visib":"6+","altim":1010,"clouds":[{"cover":"FEW","base":2000},{"cover":"BKN","base":9000}],"obsTime":1774861200},"SBRF":{"icaoId":"SBRF","flightCategory":"VFR","rawOb":"METAR SBRF 300900Z 24005KT 9999 FEW020 BKN100 25/23 Q1011","temp":25,"dewp":23,"wdir":240,"wspd":5,"visib":"6+","altim":1011,"clouds":[{"cover":"FEW","base":2000},{"cover":"BKN","base":10000}],"obsTime":1774861200},"SBGL":{"icaoId":"SBGL","flightCategory":"MVFR","rawOb":"METAR SBGL 300900Z 33004KT 7000 FEW012 BKN040 24/22 Q1014","temp":24,"dewp":22,"wdir":330,"wspd":4,"visib":4.35,"altim":1014,"clouds":[{"cover":"FEW","base":1200},{"cover":"BKN","base":4000}],"obsTime":1774861200},"SBRB":{"icaoId":"SBRB","flightCategory":"LIFR","rawOb":"METAR SBRB 300900Z 14005KT 6000 BKN004 BKN013 23/23 Q1012","temp":23,"dewp":23,"wdir":140,"wspd":5,"visib":3.73,"altim":1012,"clouds":[{"cover":"BKN","base":400},{"cover":"BKN","base":1300}],"obsTime":1774861200},"SBGO":{"icaoId":"SBGO","flightCategory":"VFR","rawOb":"METAR SBGO 300900Z 14004KT CAVOK 19/17 Q1017","temp":19,"dewp":17,"wdir":140,"wspd":4,"visib":"6+","altim":1017,"clouds":[],"obsTime":1774861200},"SBPV":{"icaoId":"SBPV","flightCategory":"VFR","rawOb":"METAR SBPV 300900Z 09002KT CAVOK 23/21 Q1011","temp":23,"dewp":21,"wdir":90,"wspd":2,"visib":"6+","altim":1011,"clouds":[],"obsTime":1774861200},"SBHT":{"icaoId":"SBHT","flightCategory":"VFR","rawOb":"METAR SBHT 301000Z 25001KT 9999 3000W BCFG FEW010 SCT080 23/22 Q1011","temp":23,"dewp":22,"wdir":250,"wspd":1,"visib":"6+","altim":1011,"clouds":[{"cover":"FEW","base":1000},{"cover":"SCT","base":8000}],"obsTime":1774864800},"SBIL":{"icaoId":"SBIL","flightCategory":"VFR","rawOb":"METAR SBIL 301000Z 26005KT 9999 SCT020 BKN040 25/23 Q1013","temp":25,"dewp":23,"wdir":260,"wspd":5,"visib":"6+","altim":1013,"clouds":[{"cover":"SCT","base":2000},{"cover":"BKN","base":4000}],"obsTime":1774864800},"SBJU":{"icaoId":"SBJU","flightCategory":"MVFR","rawOb":"METAR SBJU 300900Z 00000KT 9999 BKN018 23/21 Q1013","temp":23,"dewp":21,"wdir":0,"wspd":0,"visib":"6+","altim":1013,"clouds":[{"cover":"BKN","base":1800}],"obsTime":1774861200},"SBPJ":{"icaoId":"SBPJ","flightCategory":"VFR","rawOb":"METAR SBPJ 300900Z 18004KT 9999 SCT016 BKN100 24/23 Q1012","temp":24,"dewp":23,"wdir":180,"wspd":4,"visib":"6+","altim":1012,"clouds":[{"cover":"SCT","base":1600},{"cover":"BKN","base":10000}],"obsTime":1774861200},"SBPA":{"icaoId":"SBPA","flightCategory":"VFR","rawOb":"METAR SBPA 300900Z 00000KT 9000 SCT012 25/23 Q1015","temp":25,"dewp":23,"wdir":0,"wspd":0,"visib":5.59,"altim":1015,"clouds":[{"cover":"SCT","base":1200}],"obsTime":1774861200},"SBKP":{"icaoId":"SBKP","flightCategory":"MVFR","rawOb":"METAR SBKP 300900Z 13005KT 7000 NSC 19/18 Q1017","temp":19,"dewp":18,"wdir":130,"wspd":5,"visib":4.35,"altim":1017,"clouds":[],"obsTime":1774861200},"SBNT":{"icaoId":"SBNT","flightCategory":"VFR","rawOb":"METAR SBNT 300900Z 20006KT 9999 FEW020 SCT100 24/22 Q1010","temp":24,"dewp":22,"wdir":200,"wspd":6,"visib":"6+","altim":1010,"clouds":[{"cover":"FEW","base":2000},{"cover":"SCT","base":10000}],"obsTime":1774861200},"SBLO":{"icaoId":"SBLO","flightCategory":"VFR","rawOb":"METAR SBLO 300900Z 12002KT CAVOK 21/18 Q1017","temp":21,"dewp":18,"wdir":120,"wspd":2,"visib":"6+","altim":1017,"clouds":[],"obsTime":1774861200},"SBMA":{"icaoId":"SBMA","flightCategory":"VFR","rawOb":"METAR SBMA 300900Z 00000KT 9999 SCT008 SCT012 BKN080 24/24 Q1011","temp":24,"dewp":24,"wdir":0,"wspd":0,"visib":"6+","altim":1011,"clouds":[{"cover":"SCT","base":800},{"cover":"SCT","base":1200},{"cover":"BKN","base":8000}],"obsTime":1774861200},"SBMO":{"icaoId":"SBMO","flightCategory":"VFR","rawOb":"METAR SBMO 300900Z VRB02KT 9000 VCSH FEW011 SCT018 FEW023TCU BKN055 24/24 Q1012","temp":24,"dewp":24,"wdir":"VRB","wspd":2,"visib":5.59,"altim":1012,"clouds":[{"cover":"FEW","base":1100},{"cover":"SCT","base":1800},{"cover":"FEW","base":2300},{"cover":"BKN","base":5500}],"obsTime":1774861200},"SBBE":{"icaoId":"SBBE","flightCategory":"VFR","rawOb":"METAR SBBE 300900Z 09003KT CAVOK 24/24 Q1010","temp":24,"dewp":24,"wdir":90,"wspd":3,"visib":"6+","altim":1010,"clouds":[],"obsTime":1774861200},"SBVT":{"icaoId":"SBVT","flightCategory":"VFR","rawOb":"METAR SBVT 300900Z 32001KT 9999 VCSH FEW025 FEW030TCU BKN070 22/22 Q1015","temp":22,"dewp":22,"wdir":320,"wspd":1,"visib":"6+","altim":1015,"clouds":[{"cover":"FEW","base":2500},{"cover":"FEW","base":3000},{"cover":"BKN","base":7000}],"obsTime":1774861200},"SBBR":{"icaoId":"SBBR","flightCategory":"VFR","rawOb":"METAR SBBR 300900Z VRB02KT CAVOK 16/15 Q1019","temp":16,"dewp":15,"wdir":"VRB","wspd":2,"visib":"6+","altim":1019,"clouds":[],"obsTime":1774861200},"SBUR":{"icaoId":"SBUR","flightCategory":"VFR","rawOb":"METAR SBUR 300900Z 03004KT CAVOK 20/16 Q1017","temp":20,"dewp":16,"wdir":30,"wspd":4,"visib":"6+","altim":1017,"clouds":[],"obsTime":1774861200},"SBMG":{"icaoId":"SBMG","flightCategory":"VFR","rawOb":"METAR SBMG 300900Z AUTO 17003KT CAVOK 23/18 Q1015","temp":23,"dewp":18,"wdir":170,"wspd":3,"visib":"6+","altim":1015,"clouds":[],"obsTime":1774861200},"SBMK":{"icaoId":"SBMK","flightCategory":"VFR","rawOb":"METAR SBMK 300900Z 29002KT CAVOK 18/17 Q1017","temp":18,"dewp":17,"wdir":290,"wspd":2,"visib":"6+","altim":1017,"clouds":[],"obsTime":1774861200},"SBME":{"icaoId":"SBME","flightCategory":"VFR","rawOb":"METAR SBME 300900Z 32004KT CAVOK 22/21 Q1014","temp":22,"dewp":21,"wdir":320,"wspd":4,"visib":"6+","altim":1014,"clouds":[],"obsTime":1774861200},"SBPB":{"icaoId":"SBPB","flightCategory":"VFR","rawOb":"SPECI SBPB 301015Z 05001KT 9999 SCT016 BKN090 27/24 Q1011","temp":27,"dewp":24,"wdir":50,"wspd":1,"visib":"6+","altim":1011,"clouds":[{"cover":"SCT","base":1600},{"cover":"BKN","base":9000}],"obsTime":1774865700},"SBCJ":{"icaoId":"SBCJ","flightCategory":"VFR","rawOb":"SPECI SBCJ 301015Z 00000KT CAVOK 21/20 Q1016","temp":21,"dewp":20,"wdir":0,"wspd":0,"visib":"6+","altim":1016,"clouds":[],"obsTime":1774865700},"SBOI":{"icaoId":"SBOI","flightCategory":"MVFR","rawOb":"SPECI SBOI 301011Z AUTO VRB01KT 9999 // SCT001/// BKN015/// 24/24 Q1011","temp":24,"dewp":24,"wdir":"VRB","wspd":1,"visib":"6+","altim":1011,"clouds":[{"cover":"SCT","base":100},{"cover":"BKN","base":1500}],"obsTime":1774865460},"SBBH":{"icaoId":"SBBH","flightCategory":"VFR","rawOb":"METAR SBBH 300900Z 12004KT CAVOK 20/18 Q1018","temp":20,"dewp":18,"wdir":120,"wspd":4,"visib":"6+","altim":1018,"clouds":[],"obsTime":1774861200},"SBBU":{"icaoId":"SBBU","flightCategory":"MVFR","rawOb":"METAR SBBU 300900Z 11006KT 6000 NSC 22/20 Q1016","temp":22,"dewp":20,"wdir":110,"wspd":6,"visib":3.73,"altim":1016,"clouds":[],"obsTime":1774861200},"SBSR":{"icaoId":"SBSR","flightCategory":"VFR","rawOb":"METAR SBSR 300900Z 18004KT CAVOK 22/17 Q1016","temp":22,"dewp":17,"wdir":180,"wspd":4,"visib":"6+","altim":1016,"clouds":[],"obsTime":1774861200},"SBAR":{"icaoId":"SBAR","flightCategory":"VFR","rawOb":"METAR SBAR 300900Z 28003KT 9999 VCSH FEW020 FEW024TCU SCT040 BKN090 24/23 Q1011","temp":24,"dewp":23,"wdir":280,"wspd":3,"visib":"6+","altim":1011,"clouds":[{"cover":"FEW","base":2000},{"cover":"FEW","base":2400},{"cover":"SCT","base":4000},{"cover":"BKN","base":9000}],"obsTime":1774861200},"SBAX":{"icaoId":"SBAX","flightCategory":"VFR","rawOb":"METAR SBAX 300900Z AUTO 13003KT CAVOK 18/16 Q1019","temp":18,"dewp":16,"wdir":130,"wspd":3,"visib":"6+","altim":1019,"clouds":[],"obsTime":1774861200},"SBCO":{"icaoId":"SBCO","flightCategory":"MVFR","rawOb":"METAR SBCO 300900Z VRB02KT 8000 BKN013 BKN016 24/23 Q1015","temp":24,"dewp":23,"wdir":"VRB","wspd":2,"visib":4.97,"altim":1015,"clouds":[{"cover":"BKN","base":1300},{"cover":"BKN","base":1600}],"obsTime":1774861200},"SBDN":{"icaoId":"SBDN","flightCategory":"VFR","rawOb":"METAR SBDN 300900Z 00000KT CAVOK 21/16 Q1015","temp":21,"dewp":16,"wdir":0,"wspd":0,"visib":"6+","altim":1015,"clouds":[],"obsTime":1774861200},"SBES":{"icaoId":"SBES","flightCategory":"VFR","rawOb":"METAR SBES 300900Z 00000KT 9999 BCFG NSC 18/// Q1015","temp":null,"dewp":null,"wdir":0,"wspd":0,"visib":"6+","altim":1015,"clouds":[],"obsTime":1774861200},"SBIP":{"icaoId":"SBIP","flightCategory":"VFR","rawOb":"METAR SBIP 300900Z AUTO VRB01KT 9999 FEW040 21/21 Q1016","temp":21,"dewp":21,"wdir":"VRB","wspd":1,"visib":"6+","altim":1016,"clouds":[{"cover":"FEW","base":4000}],"obsTime":1774861200},"SBKG":{"icaoId":"SBKG","flightCategory":"VFR","rawOb":"METAR SBKG 300900Z 26001KT 9999 SCT006 SCT070 22/21 Q1014","temp":22,"dewp":21,"wdir":260,"wspd":1,"visib":"6+","altim":1014,"clouds":[{"cover":"SCT","base":600},{"cover":"SCT","base":7000}],"obsTime":1774861200},"SBPL":{"icaoId":"SBPL","flightCategory":"VFR","rawOb":"METAR SBPL 300900Z 10006KT 9999 SCT020 BKN070 24/24 Q1014","temp":24,"dewp":24,"wdir":100,"wspd":6,"visib":"6+","altim":1014,"clouds":[{"cover":"SCT","base":2000},{"cover":"BKN","base":7000}],"obsTime":1774861200},"SBPS":{"icaoId":"SBPS","flightCategory":"VFR","rawOb":"METAR SBPS 300900Z 21003KT 9999 SCT020 23/22 Q1014","temp":23,"dewp":22,"wdir":210,"wspd":3,"visib":"6+","altim":1014,"clouds":[{"cover":"SCT","base":2000}],"obsTime":1774861200},"SBSC":{"icaoId":"SBSC","flightCategory":"VFR","rawOb":"METAR SBSC 300900Z 01006KT CAVOK 22/21 Q1014","temp":22,"dewp":21,"wdir":10,"wspd":6,"visib":"6+","altim":1014,"clouds":[],"obsTime":1774861200},"SBSJ":{"icaoId":"SBSJ","flightCategory":"MVFR","rawOb":"METAR SBSJ 300900Z 00000KT 5000 BR BKN015 17/17 Q1017","temp":17,"dewp":17,"wdir":0,"wspd":0,"visib":3.11,"altim":1017,"clouds":[{"cover":"BKN","base":1500}],"obsTime":1774861200},"SBSM":{"icaoId":"SBSM","flightCategory":"LIFR","rawOb":"METAR SBSM 300900Z 11005KT 080V150 1200 R29///// R11/P2000 BR OVC002 23/23 Q1016","temp":23,"dewp":23,"wdir":110,"wspd":5,"visib":0.75,"altim":1016,"clouds":[{"cover":"OVC","base":200}],"obsTime":1774861200},"SBJP":{"icaoId":"SBJP","flightCategory":"VFR","rawOb":"METAR SBJP 300900Z 18005KT 9999 SCT020 BKN070 25/24 Q1011","temp":25,"dewp":24,"wdir":180,"wspd":5,"visib":"6+","altim":1011,"clouds":[{"cover":"SCT","base":2000},{"cover":"BKN","base":7000}],"obsTime":1774861200},"SBAN":{"icaoId":"SBAN","flightCategory":"VFR","rawOb":"METAR SBAN 300900Z 14007KT CAVOK 17/15 Q1017","temp":17,"dewp":15,"wdir":140,"wspd":7,"visib":"6+","altim":1017,"clouds":[],"obsTime":1774861200},"SBJV":{"icaoId":"SBJV","flightCategory":"VFR","rawOb":"METAR SBJV 300900Z 27001KT CAVOK 22/22 Q1015","temp":22,"dewp":22,"wdir":270,"wspd":1,"visib":"6+","altim":1015,"clouds":[],"obsTime":1774861200},"SBPF":{"icaoId":"SBPF","flightCategory":"VFR","rawOb":"METAR SBPF 300900Z 11010KT CAVOK 20/18 Q1019","temp":20,"dewp":18,"wdir":110,"wspd":10,"visib":"6+","altim":1019,"clouds":[],"obsTime":1774861200},"SBAF":{"icaoId":"SBAF","flightCategory":"VFR","rawOb":"METAR SBAF 301000Z 25004KT 9999 FEW025 23/23 Q1015","temp":23,"dewp":23,"wdir":250,"wspd":4,"visib":"6+","altim":1015,"clouds":[{"cover":"FEW","base":2500}],"obsTime":1774864800},"SBGW":{"icaoId":"SBGW","flightCategory":"VFR","rawOb":"METAR SBGW 300900Z 04003KT 340V080 9999 4500N FEW005 19/15 Q1017","temp":19,"dewp":15,"wdir":40,"wspd":3,"visib":"6+","altim":1017,"clouds":[{"cover":"FEW","base":500}],"obsTime":1774861200},"SBJR":{"icaoId":"SBJR","flightCategory":"VFR","rawOb":"METAR SBJR 301000Z 02001KT CAVOK 24/23 Q1014","temp":24,"dewp":23,"wdir":20,"wspd":1,"visib":"6+","altim":1014,"clouds":[],"obsTime":1774864800},"SBLS":{"icaoId":"SBLS","flightCategory":"VFR","rawOb":"METAR SBLS 300900Z 14009KT 9999 FEW020 19/17 Q1018","temp":19,"dewp":17,"wdir":140,"wspd":9,"visib":"6+","altim":1018,"clouds":[{"cover":"FEW","base":2000}],"obsTime":1774861200},"SBMT":{"icaoId":"SBMT","flightCategory":"MVFR","rawOb":"METAR SBMT 300900Z 09005KT 6000 SCT011 19/17 Q1018","temp":19,"dewp":17,"wdir":90,"wspd":5,"visib":3.73,"altim":1018,"clouds":[{"cover":"SCT","base":1100}],"obsTime":1774861200},"SBTA":{"icaoId":"SBTA","flightCategory":"VFR","rawOb":"METAR SBTA 300900Z 17003KT 120V210 9999 FEW010 18/16 Q1017","temp":18,"dewp":16,"wdir":170,"wspd":3,"visib":"6+","altim":1017,"clouds":[{"cover":"FEW","base":1000}],"obsTime":1774861200},"SBLE":{"icaoId":"SBLE","flightCategory":"MVFR","rawOb":"METAR SBLE 300900Z AUTO 24002KT 9999 BKN016 ///// Q////","temp":null,"dewp":null,"wdir":240,"wspd":2,"visib":"6+","altim":null,"clouds":[{"cover":"BKN","base":1600}],"obsTime":1774861200}}}