{"updated":1777246039,"count":71,"data":{"SBFI":{"icaoId":"SBFI","flightCategory":"MVFR","rawOb":"SPECI SBFI 262142Z 12002KT 9999 SCT012 BKN030 OVC070 21/21 Q1011","temp":21,"dewp":21,"wdir":120,"wspd":2,"visib":"6+","altim":1011,"clouds":[{"cover":"SCT","base":1200},{"cover":"BKN","base":3000},{"cover":"OVC","base":7000}],"obsTime":1777239720},"SBBV":{"icaoId":"SBBV","flightCategory":"VFR","rawOb":"METAR SBBV 262200Z 33003KT 9999 FEW008 SCT018 FEW030TCU 27/23 Q1010","temp":27,"dewp":23,"wdir":330,"wspd":3,"visib":"6+","altim":1010,"clouds":[{"cover":"FEW","base":800},{"cover":"SCT","base":1800},{"cover":"FEW","base":3000}],"obsTime":1777240800},"SBME":{"icaoId":"SBME","flightCategory":"VFR","rawOb":"METAR SBME 262200Z 09005KT CAVOK 27/24 Q1010","temp":27,"dewp":24,"wdir":90,"wspd":5,"visib":"6+","altim":1010,"clouds":[],"obsTime":1777240800},"SBLO":{"icaoId":"SBLO","flightCategory":"VFR","rawOb":"METAR SBLO 262200Z 20002KT CAVOK 24/20 Q1012","temp":24,"dewp":20,"wdir":200,"wspd":2,"visib":"6+","altim":1012,"clouds":[],"obsTime":1777240800},"SBMA":{"icaoId":"SBMA","flightCategory":"VFR","rawOb":"METAR SBMA 262200Z 00000KT 9999 SCT020 FEW025TCU 28/26 Q1009","temp":28,"dewp":26,"wdir":0,"wspd":0,"visib":"6+","altim":1009,"clouds":[{"cover":"SCT","base":2000},{"cover":"FEW","base":2500}],"obsTime":1777240800},"SBMG":{"icaoId":"SBMG","flightCategory":"VFR","rawOb":"METAR SBMG 262200Z 13006KT CAVOK 23/21 Q1011","temp":23,"dewp":21,"wdir":130,"wspd":6,"visib":"6+","altim":1011,"clouds":[],"obsTime":1777240800},"SBBR":{"icaoId":"SBBR","flightCategory":"VFR","rawOb":"METAR SBBR 262200Z 16005KT 9999 BKN040 FEW045TCU 26/17 Q1017","temp":26,"dewp":17,"wdir":160,"wspd":5,"visib":"6+","altim":1017,"clouds":[{"cover":"BKN","base":4000},{"cover":"FEW","base":4500}],"obsTime":1777240800},"SBMK":{"icaoId":"SBMK","flightCategory":"VFR","rawOb":"METAR SBMK 262200Z 18004KT CAVOK 26/18 Q1014","temp":26,"dewp":18,"wdir":180,"wspd":4,"visib":"6+","altim":1014,"clouds":[],"obsTime":1777240800},"SBMO":{"icaoId":"SBMO","flightCategory":"VFR","rawOb":"METAR SBMO 262200Z 10006KT 9999 FEW020 25/23 Q1013","temp":25,"dewp":23,"wdir":100,"wspd":6,"visib":"6+","altim":1013,"clouds":[{"cover":"FEW","base":2000}],"obsTime":1777240800},"SBFL":{"icaoId":"SBFL","flightCategory":"VFR","rawOb":"METAR SBFL 262200Z 35008KT 260V020 9999 FEW008 22/21 Q1008","temp":22,"dewp":21,"wdir":350,"wspd":8,"visib":"6+","altim":1008,"clouds":[{"cover":"FEW","base":800}],"obsTime":1777240800},"SBFZ":{"icaoId":"SBFZ","flightCategory":"VFR","rawOb":"METAR SBFZ 262200Z 09003KT 9999 FEW015 SCT060 27/24 Q1012","temp":27,"dewp":24,"wdir":90,"wspd":3,"visib":"6+","altim":1012,"clouds":[{"cover":"FEW","base":1500},{"cover":"SCT","base":6000}],"obsTime":1777240800},"SBMQ":{"icaoId":"SBMQ","flightCategory":"VFR","rawOb":"METAR SBMQ 262200Z 07008KT 9999 FEW025 BKN100 30/25 Q1009","temp":30,"dewp":25,"wdir":70,"wspd":8,"visib":"6+","altim":1009,"clouds":[{"cover":"FEW","base":2500},{"cover":"BKN","base":10000}],"obsTime":1777240800},"SBCT":{"icaoId":"SBCT","flightCategory":"IFR","rawOb":"METAR SBCT 262200Z 28005KT 8000 -RA BKN007 20/19 Q1015","temp":20,"dewp":19,"wdir":280,"wspd":5,"visib":4.97,"altim":1015,"clouds":[{"cover":"BKN","base":700}],"obsTime":1777240800},"SBNT":{"icaoId":"SBNT","flightCategory":"VFR","rawOb":"METAR SBNT 262200Z 13011KT 9999 FEW020 SCT100 27/23 Q1012","temp":27,"dewp":23,"wdir":130,"wspd":11,"visib":"6+","altim":1012,"clouds":[{"cover":"FEW","base":2000},{"cover":"SCT","base":10000}],"obsTime":1777240800},"SBGL":{"icaoId":"SBGL","flightCategory":"VFR","rawOb":"METAR SBGL 262200Z 13006KT CAVOK 28/21 Q1010","temp":28,"dewp":21,"wdir":130,"wspd":6,"visib":"6+","altim":1010,"clouds":[],"obsTime":1777240800},"SBPA":{"icaoId":"SBPA","flightCategory":"VFR","rawOb":"METAR SBPA 262200Z 31007KT CAVOK 22/18 Q1008","temp":22,"dewp":18,"wdir":310,"wspd":7,"visib":"6+","altim":1008,"clouds":[],"obsTime":1777240800},"SBBE":{"icaoId":"SBBE","flightCategory":"VFR","rawOb":"METAR SBBE 262200Z 04007KT 9999 SCT040 BKN090 28/24 Q1009","temp":28,"dewp":24,"wdir":40,"wspd":7,"visib":"6+","altim":1009,"clouds":[{"cover":"SCT","base":4000},{"cover":"BKN","base":9000}],"obsTime":1777240800},"SBPJ":{"icaoId":"SBPJ","flightCategory":"VFR","rawOb":"METAR SBPJ 262200Z 15003KT 9999 FEW030 30/24 Q1010","temp":30,"dewp":24,"wdir":150,"wspd":3,"visib":"6+","altim":1010,"clouds":[{"cover":"FEW","base":3000}],"obsTime":1777240800},"SBCF":{"icaoId":"SBCF","flightCategory":"VFR","rawOb":"METAR SBCF 262200Z 20001KT 9999 FEW035 25/16 Q1017","temp":25,"dewp":16,"wdir":200,"wspd":1,"visib":"6+","altim":1017,"clouds":[{"cover":"FEW","base":3500}],"obsTime":1777240800},"SBPV":{"icaoId":"SBPV","flightCategory":"VFR","rawOb":"METAR SBPV 262200Z VRB01KT 9999 VCSH SCT030 FEW035TCU SCT100 27/23 Q1008","temp":27,"dewp":23,"wdir":"VRB","wspd":1,"visib":"6+","altim":1008,"clouds":[{"cover":"SCT","base":3000},{"cover":"FEW","base":3500},{"cover":"SCT","base":10000}],"obsTime":1777240800},"SBGO":{"icaoId":"SBGO","flightCategory":"VFR","rawOb":"METAR SBGO 262200Z 11003KT CAVOK 29/15 Q1015","temp":29,"dewp":15,"wdir":110,"wspd":3,"visib":"6+","altim":1015,"clouds":[],"obsTime":1777240800},"SBRB":{"icaoId":"SBRB","flightCategory":"MVFR","rawOb":"METAR SBRB 262200Z 30004KT 9999 BKN024 FEW034TCU SCT090 28/24 Q1008","temp":28,"dewp":24,"wdir":300,"wspd":4,"visib":"6+","altim":1008,"clouds":[{"cover":"BKN","base":2400},{"cover":"FEW","base":3400},{"cover":"SCT","base":9000}],"obsTime":1777240800},"SBRF":{"icaoId":"SBRF","flightCategory":"VFR","rawOb":"METAR SBRF 262200Z 17009KT 9999 SCT025 28/24 Q1012","temp":28,"dewp":24,"wdir":170,"wspd":9,"visib":"6+","altim":1012,"clouds":[{"cover":"SCT","base":2500}],"obsTime":1777240800},"SBGR":{"icaoId":"SBGR","flightCategory":"VFR","rawOb":"METAR SBGR 262200Z 32002KT CAVOK 27/17 Q1014","temp":27,"dewp":17,"wdir":320,"wspd":2,"visib":"6+","altim":1014,"clouds":[],"obsTime":1777240800},"SBSG":{"icaoId":"SBSG","flightCategory":"VFR","rawOb":"METAR SBSG 262200Z 13005KT 090V160 9999 SCT040 27/23 Q1012","temp":27,"dewp":23,"wdir":130,"wspd":5,"visib":"6+","altim":1012,"clouds":[{"cover":"SCT","base":4000}],"obsTime":1777240800},"SBCZ":{"icaoId":"SBCZ","flightCategory":"VFR","rawOb":"METAR SBCZ 262200Z 09003KT 070V130 9999 FEW035 FEW040TCU 29/24 Q1008","temp":29,"dewp":24,"wdir":90,"wspd":3,"visib":"6+","altim":1008,"clouds":[{"cover":"FEW","base":3500},{"cover":"FEW","base":4000}],"obsTime":1777240800},"SBSL":{"icaoId":"SBSL","flightCategory":"MVFR","rawOb":"METAR SBSL 262200Z 08004KT 9999 BKN020 FEW025TCU 27/24 Q1011","temp":27,"dewp":24,"wdir":80,"wspd":4,"visib":"6+","altim":1011,"clouds":[{"cover":"BKN","base":2000},{"cover":"FEW","base":2500}],"obsTime":1777240800},"SBCG":{"icaoId":"SBCG","flightCategory":"VFR","rawOb":"METAR SBCG 262200Z 32005KT CAVOK 27/20 Q1012","temp":27,"dewp":20,"wdir":320,"wspd":5,"visib":"6+","altim":1012,"clouds":[],"obsTime":1777240800},"SBSN":{"icaoId":"SBSN","flightCategory":"VFR","rawOb":"METAR SBSN 262200Z 20002KT 9999 FEW025TCU SCT100 28/26 Q1009","temp":28,"dewp":26,"wdir":200,"wspd":2,"visib":"6+","altim":1009,"clouds":[{"cover":"FEW","base":2500},{"cover":"SCT","base":10000}],"obsTime":1777240800},"SBIL":{"icaoId":"SBIL","flightCategory":"VFR","rawOb":"METAR SBIL 262200Z 10007KT CAVOK 28/23 Q1013","temp":28,"dewp":23,"wdir":100,"wspd":7,"visib":"6+","altim":1013,"clouds":[],"obsTime":1777240800},"SBSP":{"icaoId":"SBSP","flightCategory":"VFR","rawOb":"METAR SBSP 262200Z 32006KT 280V360 CAVOK 27/16 Q1015","temp":27,"dewp":16,"wdir":320,"wspd":6,"visib":"6+","altim":1015,"clouds":[],"obsTime":1777240800},"SBEG":{"icaoId":"SBEG","flightCategory":"VFR","rawOb":"METAR SBEG 262200Z 34003KT 9999 SCT025 FEW030TCU 29/24 Q1008","temp":29,"dewp":24,"wdir":340,"wspd":3,"visib":"6+","altim":1008,"clouds":[{"cover":"SCT","base":2500},{"cover":"FEW","base":3000}],"obsTime":1777240800},"SBSV":{"icaoId":"SBSV","flightCategory":"VFR","rawOb":"METAR SBSV 262200Z 09006KT 9999 FEW023 28/23 Q1013","temp":28,"dewp":23,"wdir":90,"wspd":6,"visib":"6+","altim":1013,"clouds":[{"cover":"FEW","base":2300}],"obsTime":1777240800},"SBJU":{"icaoId":"SBJU","flightCategory":"VFR","rawOb":"METAR SBJU 262200Z 00000KT 9999 FEW020 27/20 Q1013","temp":27,"dewp":20,"wdir":0,"wspd":0,"visib":"6+","altim":1013,"clouds":[{"cover":"FEW","base":2000}],"obsTime":1777240800},"SBTE":{"icaoId":"SBTE","flightCategory":"VFR","rawOb":"METAR SBTE 262200Z 31004KT 9999 FEW025 29/25 Q1010","temp":29,"dewp":25,"wdir":310,"wspd":4,"visib":"6+","altim":1010,"clouds":[{"cover":"FEW","base":2500}],"obsTime":1777240800},"SBKP":{"icaoId":"SBKP","flightCategory":"VFR","rawOb":"METAR SBKP 262200Z 32005KT CAVOK 27/18 Q1014","temp":27,"dewp":18,"wdir":320,"wspd":5,"visib":"6+","altim":1014,"clouds":[],"obsTime":1777240800},"SBUL":{"icaoId":"SBUL","flightCategory":"VFR","rawOb":"METAR SBUL 262200Z 06003KT CAVOK 26/15 Q1017","temp":26,"dewp":15,"wdir":60,"wspd":3,"visib":"6+","altim":1017,"clouds":[],"obsTime":1777240800},"SBVT":{"icaoId":"SBVT","flightCategory":"VFR","rawOb":"METAR SBVT 262200Z 02008KT CAVOK 27/24 Q1012","temp":27,"dewp":24,"wdir":20,"wspd":8,"visib":"6+","altim":1012,"clouds":[],"obsTime":1777240800},"SBUR":{"icaoId":"SBUR","flightCategory":"VFR","rawOb":"METAR SBUR 262200Z 22003KT CAVOK 28/15 Q1015","temp":28,"dewp":15,"wdir":220,"wspd":3,"visib":"6+","altim":1015,"clouds":[],"obsTime":1777240800},"SBCP":{"icaoId":"SBCP","flightCategory":"VFR","rawOb":"METAR SBCP 262200Z 06008KT CAVOK 25/21 Q1011","temp":25,"dewp":21,"wdir":60,"wspd":8,"visib":"6+","altim":1011,"clouds":[],"obsTime":1777240800},"SBKG":{"icaoId":"SBKG","flightCategory":"VFR","rawOb":"METAR SBKG 262200Z 11007KT CAVOK 24/21 Q1015","temp":24,"dewp":21,"wdir":110,"wspd":7,"visib":"6+","altim":1015,"clouds":[],"obsTime":1777240800},"SBAR":{"icaoId":"SBAR","flightCategory":"VFR","rawOb":"METAR SBAR 262200Z 12008KT 9999 FEW025 28/22 Q1013","temp":28,"dewp":22,"wdir":120,"wspd":8,"visib":"6+","altim":1013,"clouds":[{"cover":"FEW","base":2500}],"obsTime":1777240800},"SBVH":{"icaoId":"SBVH","flightCategory":"VFR","rawOb":"METAR SBVH 262200Z 13002KT 9999 SCT040 BKN100 24/22 Q1012","temp":24,"dewp":22,"wdir":130,"wspd":2,"visib":"6+","altim":1012,"clouds":[{"cover":"SCT","base":4000},{"cover":"BKN","base":10000}],"obsTime":1777240800},"SBAX":{"icaoId":"SBAX","flightCategory":"VFR","rawOb":"METAR SBAX 262200Z AUTO 30002KT CAVOK 26/13 Q1017","temp":26,"dewp":13,"wdir":300,"wspd":2,"visib":"6+","altim":1017,"clouds":[],"obsTime":1777240800},"SBTT":{"icaoId":"SBTT","flightCategory":"VFR","rawOb":"METAR SBTT 262200Z 30005KT 9999 FEW027 FEW030TCU BKN100 25/24 Q1009","temp":25,"dewp":24,"wdir":300,"wspd":5,"visib":"6+","altim":1009,"clouds":[{"cover":"FEW","base":2700},{"cover":"FEW","base":3000},{"cover":"BKN","base":10000}],"obsTime":1777240800},"SBBH":{"icaoId":"SBBH","flightCategory":"VFR","rawOb":"METAR SBBH 262200Z 00000KT CAVOK 22/18 Q1016","temp":22,"dewp":18,"wdir":0,"wspd":0,"visib":"6+","altim":1016,"clouds":[],"obsTime":1777240800},"SBSR":{"icaoId":"SBSR","flightCategory":"VFR","rawOb":"METAR SBSR 262200Z 00000KT CAVOK 29/16 Q1013","temp":29,"dewp":16,"wdir":0,"wspd":0,"visib":"6+","altim":1013,"clouds":[],"obsTime":1777240800},"SBBU":{"icaoId":"SBBU","flightCategory":"VFR","rawOb":"METAR SBBU 262200Z 33003KT CAVOK 30/19 Q1013","temp":30,"dewp":19,"wdir":330,"wspd":3,"visib":"6+","altim":1013,"clouds":[],"obsTime":1777240800},"SBSM":{"icaoId":"SBSM","flightCategory":"VFR","rawOb":"METAR SBSM 262200Z 32001KT CAVOK 18/15 Q1010","temp":18,"dewp":15,"wdir":320,"wspd":1,"visib":"6+","altim":1010,"clouds":[],"obsTime":1777240800},"SBCA":{"icaoId":"SBCA","flightCategory":"IFR","rawOb":"METAR SBCA 262200Z 20005KT 7000 FEW001 BKN005 FEW050TCU 19/19 Q1014","temp":19,"dewp":19,"wdir":200,"wspd":5,"visib":4.35,"altim":1014,"clouds":[{"cover":"FEW","base":100},{"cover":"BKN","base":500},{"cover":"FEW","base":5000}],"obsTime":1777240800},"SBSJ":{"icaoId":"SBSJ","flightCategory":"VFR","rawOb":"METAR SBSJ 262200Z 29005KT CAVOK 26/17 Q1014","temp":26,"dewp":17,"wdir":290,"wspd":5,"visib":"6+","altim":1014,"clouds":[],"obsTime":1777240800},"SBSC":{"icaoId":"SBSC","flightCategory":"VFR","rawOb":"METAR SBSC 262200Z VRB01KT CAVOK 24/22 Q1010","temp":24,"dewp":22,"wdir":"VRB","wspd":1,"visib":"6+","altim":1010,"clouds":[],"obsTime":1777240800},"SBCO":{"icaoId":"SBCO","flightCategory":"VFR","rawOb":"METAR SBCO 262200Z 31004KT 9999 FEW030 SCT080 21/18 Q1009","temp":21,"dewp":18,"wdir":310,"wspd":4,"visib":"6+","altim":1009,"clouds":[{"cover":"FEW","base":3000},{"cover":"SCT","base":8000}],"obsTime":1777240800},"SBPS":{"icaoId":"SBPS","flightCategory":"VFR","rawOb":"METAR SBPS 262200Z 04005KT 9999 FEW020 26/23 Q1013","temp":26,"dewp":23,"wdir":40,"wspd":5,"visib":"6+","altim":1013,"clouds":[{"cover":"FEW","base":2000}],"obsTime":1777240800},"SBDN":{"icaoId":"SBDN","flightCategory":"VFR","rawOb":"METAR SBDN 262200Z 34001KT CAVOK 29/18 Q1011","temp":29,"dewp":18,"wdir":340,"wspd":1,"visib":"6+","altim":1011,"clouds":[],"obsTime":1777240800},"SBPL":{"icaoId":"SBPL","flightCategory":"VFR","rawOb":"METAR SBPL 262200Z 15005KT CAVOK 29/18 Q1013","temp":29,"dewp":18,"wdir":150,"wspd":5,"visib":"6+","altim":1013,"clouds":[],"obsTime":1777240800},"SBIP":{"icaoId":"SBIP","flightCategory":"VFR","rawOb":"METAR SBIP 262200Z AUTO 23001KT CAVOK 21/20 Q1013","temp":21,"dewp":20,"wdir":230,"wspd":1,"visib":"6+","altim":1013,"clouds":[],"obsTime":1777240800},"SBOI":{"icaoId":"SBOI","flightCategory":"VFR","rawOb":"METAR SBOI 262200Z AUTO VRB02KT CAVOK 27/23 Q1011","temp":27,"dewp":23,"wdir":"VRB","wspd":2,"visib":"6+","altim":1011,"clouds":[],"obsTime":1777240800},"SBTF":{"icaoId":"SBTF","flightCategory":"VFR","rawOb":"METAR SBTF 262200Z 08004KT 9999 SCT020 31/26 Q1008","temp":31,"dewp":26,"wdir":80,"wspd":4,"visib":"6+","altim":1008,"clouds":[{"cover":"SCT","base":2000}],"obsTime":1777240800},"SBUY":{"icaoId":"SBUY","flightCategory":"VFR","rawOb":"METAR SBUY 262200Z 20004KT 9999 FEW025 FEW030TCU BKN090 25/25 Q1007","temp":25,"dewp":25,"wdir":200,"wspd":4,"visib":"6+","altim":1007,"clouds":[{"cover":"FEW","base":2500},{"cover":"FEW","base":3000},{"cover":"BKN","base":9000}],"obsTime":1777240800},"SBPB":{"icaoId":"SBPB","flightCategory":"VFR","rawOb":"SPECI SBPB 262145Z 02005KT 9999 SCT016 28/25 Q1010","temp":28,"dewp":25,"wdir":20,"wspd":5,"visib":"6+","altim":1010,"clouds":[{"cover":"SCT","base":1600}],"obsTime":1777239900},"SBCJ":{"icaoId":"SBCJ","flightCategory":"VFR","rawOb":"SPECI SBCJ 262130Z 00000KT CAVOK 23/21 Q1014","temp":23,"dewp":21,"wdir":0,"wspd":0,"visib":"6+","altim":1014,"clouds":[],"obsTime":1777239000},"SBJP":{"icaoId":"SBJP","flightCategory":"VFR","rawOb":"METAR SBJP 262200Z 13005KT 9999 FEW025 26/23 Q1013","temp":26,"dewp":23,"wdir":130,"wspd":5,"visib":"6+","altim":1013,"clouds":[{"cover":"FEW","base":2500}],"obsTime":1777240800},"SBLE":{"icaoId":"SBLE","flightCategory":"VFR","rawOb":"METAR SBLE 262200Z AUTO 04004KT 9999 BKN042 24/24 Q1015","temp":24,"dewp":24,"wdir":40,"wspd":4,"visib":"6+","altim":1015,"clouds":[{"cover":"BKN","base":4200}],"obsTime":1777240800},"SBAN":{"icaoId":"SBAN","flightCategory":"VFR","rawOb":"METAR SBAN 262200Z 31003KT 9999 FEW045 21/16 Q1018","temp":21,"dewp":16,"wdir":310,"wspd":3,"visib":"6+","altim":1018,"clouds":[{"cover":"FEW","base":4500}],"obsTime":1777240800},"SBJV":{"icaoId":"SBJV","flightCategory":"VFR","rawOb":"METAR SBJV 262200Z 36002KT 9999 FEW030 BKN100 21/21 Q1009","temp":21,"dewp":21,"wdir":360,"wspd":2,"visib":"6+","altim":1009,"clouds":[{"cover":"FEW","base":3000},{"cover":"BKN","base":10000}],"obsTime":1777240800},"SBAF":{"icaoId":"SBAF","flightCategory":"VFR","rawOb":"METAR SBAF 262200Z 31002KT CAVOK 27/20 Q1010","temp":27,"dewp":20,"wdir":310,"wspd":2,"visib":"6+","altim":1010,"clouds":[],"obsTime":1777240800},"SBJR":{"icaoId":"SBJR","flightCategory":"VFR","rawOb":"METAR SBJR 262200Z 00000KT CAVOK 25/22 Q1010","temp":25,"dewp":22,"wdir":0,"wspd":0,"visib":"6+","altim":1010,"clouds":[],"obsTime":1777240800},"SBLS":{"icaoId":"SBLS","flightCategory":"VFR","rawOb":"METAR SBLS 262200Z VRB02KT CAVOK 24/16 Q1016","temp":24,"dewp":16,"wdir":"VRB","wspd":2,"visib":"6+","altim":1016,"clouds":[],"obsTime":1777240800},"SBMT":{"icaoId":"SBMT","flightCategory":"VFR","rawOb":"METAR SBMT 262200Z 01003KT CAVOK 26/17 Q1014","temp":26,"dewp":17,"wdir":10,"wspd":3,"visib":"6+","altim":1014,"clouds":[],"obsTime":1777240800},"SBGW":{"icaoId":"SBGW","flightCategory":"VFR","rawOb":"METAR SBGW 262200Z 36004KT CAVOK 24/15 Q1013","temp":24,"dewp":15,"wdir":360,"wspd":4,"visib":"6+","altim":1013,"clouds":[],"obsTime":1777240800}}}