{"updated":1774961107,"count":86,"data":{"SBLO":{"icaoId":"SBLO","flightCategory":"VFR","rawOb":"METAR SBLO 311100Z 12003KT CAVOK 21/20 Q1014","temp":21,"dewp":20,"wdir":120,"wspd":3,"visib":"6+","altim":1014,"clouds":[],"obsTime":1774954800},"SBAT":{"icaoId":"SBAT","flightCategory":"VFR","rawOb":"METAR SBAT 311100Z 00000KT 9999 FEW010 SCT070 25/24 Q1012","temp":25,"dewp":24,"wdir":0,"wspd":0,"visib":"6+","altim":1012,"clouds":[{"cover":"FEW","base":1000},{"cover":"SCT","base":7000}],"obsTime":1774954800},"SBBE":{"icaoId":"SBBE","flightCategory":"VFR","rawOb":"METAR SBBE 311100Z 15005KT 9999 VCSH SCT007 SCT025 BKN086 25/25 Q1011","temp":25,"dewp":25,"wdir":150,"wspd":5,"visib":"6+","altim":1011,"clouds":[{"cover":"SCT","base":700},{"cover":"SCT","base":2500},{"cover":"BKN","base":8600}],"obsTime":1774954800},"SBVT":{"icaoId":"SBVT","flightCategory":"VFR","rawOb":"METAR SBVT 311100Z 36005KT 9999 FEW040 SCT100 26/23 Q1013","temp":26,"dewp":23,"wdir":360,"wspd":5,"visib":"6+","altim":1013,"clouds":[{"cover":"FEW","base":4000},{"cover":"SCT","base":10000}],"obsTime":1774954800},"SBUR":{"icaoId":"SBUR","flightCategory":"VFR","rawOb":"METAR SBUR 311100Z 02008KT CAVOK 23/17 Q1015","temp":23,"dewp":17,"wdir":20,"wspd":8,"visib":"6+","altim":1015,"clouds":[],"obsTime":1774954800},"SBBR":{"icaoId":"SBBR","flightCategory":"VFR","rawOb":"METAR SBBR 311100Z VRB01KT CAVOK 21/17 Q1017","temp":21,"dewp":17,"wdir":"VRB","wspd":1,"visib":"6+","altim":1017,"clouds":[],"obsTime":1774954800},"SBUL":{"icaoId":"SBUL","flightCategory":"VFR","rawOb":"METAR SBUL 311100Z 07006KT CAVOK 20/17 Q1017","temp":20,"dewp":17,"wdir":70,"wspd":6,"visib":"6+","altim":1017,"clouds":[],"obsTime":1774954800},"SBTE":{"icaoId":"SBTE","flightCategory":"VFR","rawOb":"METAR SBTE 311100Z 35002KT 9999 FEW007 BKN090 25/23 Q1012","temp":25,"dewp":23,"wdir":350,"wspd":2,"visib":"6+","altim":1012,"clouds":[{"cover":"FEW","base":700},{"cover":"BKN","base":9000}],"obsTime":1774954800},"SBBV":{"icaoId":"SBBV","flightCategory":"IFR","rawOb":"METAR SBBV 311100Z 34002KT 9999 BKN005 SCT020 BKN100 23/23 Q1011","temp":23,"dewp":23,"wdir":340,"wspd":2,"visib":"6+","altim":1011,"clouds":[{"cover":"BKN","base":500},{"cover":"SCT","base":2000},{"cover":"BKN","base":10000}],"obsTime":1774954800},"SBSV":{"icaoId":"SBSV","flightCategory":"VFR","rawOb":"METAR SBSV 311100Z 25006KT 9999 SCT021 SCT050 BKN070 27/23 Q1013","temp":27,"dewp":23,"wdir":250,"wspd":6,"visib":"6+","altim":1013,"clouds":[{"cover":"SCT","base":2100},{"cover":"SCT","base":5000},{"cover":"BKN","base":7000}],"obsTime":1774954800},"SBCB":{"icaoId":"SBCB","flightCategory":"VFR","rawOb":"METAR SBCB 311100Z 06011KT 9999 FEW010 SCT100 26/22 Q1012","temp":26,"dewp":22,"wdir":60,"wspd":11,"visib":"6+","altim":1012,"clouds":[{"cover":"FEW","base":1000},{"cover":"SCT","base":10000}],"obsTime":1774954800},"SBCF":{"icaoId":"SBCF","flightCategory":"VFR","rawOb":"METAR SBCF 311100Z 06006KT 9999 SCT040 SCT070 22/18 Q1017","temp":22,"dewp":18,"wdir":60,"wspd":6,"visib":"6+","altim":1017,"clouds":[{"cover":"SCT","base":4000},{"cover":"SCT","base":7000}],"obsTime":1774954800},"SBSP":{"icaoId":"SBSP","flightCategory":"VFR","rawOb":"METAR SBSP 311100Z 16006KT 9999 FEW008 BKN040 19/17 Q1017","temp":19,"dewp":17,"wdir":160,"wspd":6,"visib":"6+","altim":1017,"clouds":[{"cover":"FEW","base":800},{"cover":"BKN","base":4000}],"obsTime":1774954800},"SBSN":{"icaoId":"SBSN","flightCategory":"VFR","rawOb":"METAR SBSN 311100Z 18003KT 9999 FEW017 BKN100 25/24 Q1011","temp":25,"dewp":24,"wdir":180,"wspd":3,"visib":"6+","altim":1011,"clouds":[{"cover":"FEW","base":1700},{"cover":"BKN","base":10000}],"obsTime":1774954800},"SBCG":{"icaoId":"SBCG","flightCategory":"VFR","rawOb":"METAR SBCG 311100Z 02004KT CAVOK 25/19 Q1013","temp":25,"dewp":19,"wdir":20,"wspd":4,"visib":"6+","altim":1013,"clouds":[],"obsTime":1774954800},"SBSL":{"icaoId":"SBSL","flightCategory":"VFR","rawOb":"METAR SBSL 311100Z 13010KT 9999 FEW017 BKN080 26/24 Q1011","temp":26,"dewp":24,"wdir":130,"wspd":10,"visib":"6+","altim":1011,"clouds":[{"cover":"FEW","base":1700},{"cover":"BKN","base":8000}],"obsTime":1774954800},"SBCP":{"icaoId":"SBCP","flightCategory":"VFR","rawOb":"METAR SBCP 311100Z 07004KT 9999 FEW020 SCT100 26/24 Q1013","temp":26,"dewp":24,"wdir":70,"wspd":4,"visib":"6+","altim":1013,"clouds":[{"cover":"FEW","base":2000},{"cover":"SCT","base":10000}],"obsTime":1774954800},"SBSG":{"icaoId":"SBSG","flightCategory":"MVFR","rawOb":"METAR SBSG 311100Z 15005KT 090V180 9999 VCSH BKN020 FEW030TCU 28/24 Q1011","temp":28,"dewp":24,"wdir":150,"wspd":5,"visib":"6+","altim":1011,"clouds":[{"cover":"BKN","base":2000},{"cover":"FEW","base":3000}],"obsTime":1774954800},"SBCR":{"icaoId":"SBCR","flightCategory":"VFR","rawOb":"METAR SBCR 311100Z VRB01KT CAVOK 25/22 Q1011","temp":25,"dewp":22,"wdir":"VRB","wspd":1,"visib":"6+","altim":1011,"clouds":[],"obsTime":1774954800},"SBRF":{"icaoId":"SBRF","flightCategory":"MVFR","rawOb":"METAR SBRF 311100Z 20003KT 9999 BKN017 FEW024TCU BKN050 26/24 Q1011","temp":26,"dewp":24,"wdir":200,"wspd":3,"visib":"6+","altim":1011,"clouds":[{"cover":"BKN","base":1700},{"cover":"FEW","base":2400},{"cover":"BKN","base":5000}],"obsTime":1774954800},"SBCT":{"icaoId":"SBCT","flightCategory":"IFR","rawOb":"METAR SBCT 311100Z 12007KT 4000 BR BKN006 18/18 Q1017","temp":18,"dewp":18,"wdir":120,"wspd":7,"visib":2.49,"altim":1017,"clouds":[{"cover":"BKN","base":600}],"obsTime":1774954800},"SBCZ":{"icaoId":"SBCZ","flightCategory":"IFR","rawOb":"METAR SBCZ 311200Z 21004KT 9999 BKN006 BKN100 24/23 Q1012","temp":24,"dewp":23,"wdir":210,"wspd":4,"visib":"6+","altim":1012,"clouds":[{"cover":"BKN","base":600},{"cover":"BKN","base":10000}],"obsTime":1774958400},"SBRB":{"icaoId":"SBRB","flightCategory":"VFR","rawOb":"METAR SBRB 311100Z 16001KT 9999 SCT040 22/21 Q1011","temp":22,"dewp":21,"wdir":160,"wspd":1,"visib":"6+","altim":1011,"clouds":[{"cover":"SCT","base":4000}],"obsTime":1774954800},"SBPV":{"icaoId":"SBPV","flightCategory":"VFR","rawOb":"METAR SBPV 311100Z 00000KT CAVOK 24/23 Q1010","temp":24,"dewp":23,"wdir":0,"wspd":0,"visib":"6+","altim":1010,"clouds":[],"obsTime":1774954800},"SBEG":{"icaoId":"SBEG","flightCategory":"IFR","rawOb":"METAR SBEG 311100Z 03002KT 2000 1000E R11/P2000N R29/P2000N PRFG SCT002 SCT100 23/23 Q1010","temp":23,"dewp":23,"wdir":30,"wspd":2,"visib":1.24,"altim":1010,"clouds":[{"cover":"SCT","base":200},{"cover":"SCT","base":10000}],"obsTime":1774954800},"SBPJ":{"icaoId":"SBPJ","flightCategory":"VFR","rawOb":"METAR SBPJ 311100Z 18003KT 9999 VCSH FEW023 BKN043 26/22 Q1012","temp":26,"dewp":22,"wdir":180,"wspd":3,"visib":"6+","altim":1012,"clouds":[{"cover":"FEW","base":2300},{"cover":"BKN","base":4300}],"obsTime":1774954800},"SBFI":{"icaoId":"SBFI","flightCategory":"VFR","rawOb":"METAR SBFI 311100Z 12004KT CAVOK 24/21 Q1011","temp":24,"dewp":21,"wdir":120,"wspd":4,"visib":"6+","altim":1011,"clouds":[],"obsTime":1774954800},"SBPA":{"icaoId":"SBPA","flightCategory":"VFR","rawOb":"METAR SBPA 311100Z 08007KT CAVOK 23/20 Q1014","temp":23,"dewp":20,"wdir":80,"wspd":7,"visib":"6+","altim":1014,"clouds":[],"obsTime":1774954800},"SBFL":{"icaoId":"SBFL","flightCategory":"VFR","rawOb":"METAR SBFL 311100Z 22002KT 9999 SCT030 23/22 Q1015","temp":23,"dewp":22,"wdir":220,"wspd":2,"visib":"6+","altim":1015,"clouds":[{"cover":"SCT","base":3000}],"obsTime":1774954800},"SBFZ":{"icaoId":"SBFZ","flightCategory":"VFR","rawOb":"METAR SBFZ 311100Z 17002KT 9999 FEW030 28/24 Q1011","temp":28,"dewp":24,"wdir":170,"wspd":2,"visib":"6+","altim":1011,"clouds":[{"cover":"FEW","base":3000}],"obsTime":1774954800},"SBNT":{"icaoId":"SBNT","flightCategory":"VFR","rawOb":"METAR SBNT 311100Z 16006KT 9999 VCSH FEW011 SCT022 FEW027TCU BKN040 26/25 Q1011","temp":26,"dewp":25,"wdir":160,"wspd":6,"visib":"6+","altim":1011,"clouds":[{"cover":"FEW","base":1100},{"cover":"SCT","base":2200},{"cover":"FEW","base":2700},{"cover":"BKN","base":4000}],"obsTime":1774954800},"SBMQ":{"icaoId":"SBMQ","flightCategory":"MVFR","rawOb":"METAR SBMQ 311100Z 34003KT 9999 SCT007 BKN015 26/25 Q1011","temp":26,"dewp":25,"wdir":340,"wspd":3,"visib":"6+","altim":1011,"clouds":[{"cover":"SCT","base":700},{"cover":"BKN","base":1500}],"obsTime":1774954800},"SBGL":{"icaoId":"SBGL","flightCategory":"VFR","rawOb":"METAR SBGL 311100Z 36004KT 9999 FEW016 BKN100 26/23 Q1012","temp":26,"dewp":23,"wdir":360,"wspd":4,"visib":"6+","altim":1012,"clouds":[{"cover":"FEW","base":1600},{"cover":"BKN","base":10000}],"obsTime":1774954800},"SBGO":{"icaoId":"SBGO","flightCategory":"VFR","rawOb":"METAR SBGO 311100Z 11003KT CAVOK 23/19 Q1015","temp":23,"dewp":19,"wdir":110,"wspd":3,"visib":"6+","altim":1015,"clouds":[],"obsTime":1774954800},"SBMO":{"icaoId":"SBMO","flightCategory":"MVFR","rawOb":"METAR SBMO 311100Z VRB02KT 5000 2000N -RA BR FEW008 BKN020 BKN045 25/24 Q1012","temp":25,"dewp":24,"wdir":"VRB","wspd":2,"visib":3.11,"altim":1012,"clouds":[{"cover":"FEW","base":800},{"cover":"BKN","base":2000},{"cover":"BKN","base":4500}],"obsTime":1774954800},"SBKP":{"icaoId":"SBKP","flightCategory":"VFR","rawOb":"METAR SBKP 311100Z 13011KT CAVOK 21/18 Q1014","temp":21,"dewp":18,"wdir":130,"wspd":11,"visib":"6+","altim":1014,"clouds":[],"obsTime":1774954800},"SBGR":{"icaoId":"SBGR","flightCategory":"MVFR","rawOb":"METAR SBGR 311100Z 15003KT 9000 SCT010 BKN015 BKN080 20/18 Q1016","temp":20,"dewp":18,"wdir":150,"wspd":3,"visib":5.59,"altim":1016,"clouds":[{"cover":"SCT","base":1000},{"cover":"BKN","base":1500},{"cover":"BKN","base":8000}],"obsTime":1774954800},"SBMK":{"icaoId":"SBMK","flightCategory":"VFR","rawOb":"METAR SBMK 311100Z 03003KT CAVOK 23/19 Q1016","temp":23,"dewp":19,"wdir":30,"wspd":3,"visib":"6+","altim":1016,"clouds":[],"obsTime":1774954800},"SBMG":{"icaoId":"SBMG","flightCategory":"VFR","rawOb":"METAR SBMG 311100Z 10006KT CAVOK 23/19 Q1013","temp":23,"dewp":19,"wdir":100,"wspd":6,"visib":"6+","altim":1013,"clouds":[],"obsTime":1774954800},"SBHT":{"icaoId":"SBHT","flightCategory":"VFR","rawOb":"METAR SBHT 311100Z 02003KT 9999 SCT010 BKN080 24/24 Q1011","temp":24,"dewp":24,"wdir":20,"wspd":3,"visib":"6+","altim":1011,"clouds":[{"cover":"SCT","base":1000},{"cover":"BKN","base":8000}],"obsTime":1774954800},"SBME":{"icaoId":"SBME","flightCategory":"VFR","rawOb":"METAR SBME 311100Z 04006KT CAVOK 26/22 Q1012","temp":26,"dewp":22,"wdir":40,"wspd":6,"visib":"6+","altim":1012,"clouds":[],"obsTime":1774954800},"SBIL":{"icaoId":"SBIL","flightCategory":"VFR","rawOb":"METAR SBIL 311100Z 27004KT 9999 VCSH SCT018 FEW025TCU BKN070 25/24 Q1014","temp":25,"dewp":24,"wdir":270,"wspd":4,"visib":"6+","altim":1014,"clouds":[{"cover":"SCT","base":1800},{"cover":"FEW","base":2500},{"cover":"BKN","base":7000}],"obsTime":1774954800},"SBMA":{"icaoId":"SBMA","flightCategory":"VFR","rawOb":"METAR SBMA 311100Z 29002KT 9999 FEW020 BKN080 26/24 Q1011","temp":26,"dewp":24,"wdir":290,"wspd":2,"visib":"6+","altim":1011,"clouds":[{"cover":"FEW","base":2000},{"cover":"BKN","base":8000}],"obsTime":1774954800},"SBJU":{"icaoId":"SBJU","flightCategory":"MVFR","rawOb":"METAR SBJU 311100Z 00000KT 9999 OVC020 24/22 Q1014","temp":24,"dewp":22,"wdir":0,"wspd":0,"visib":"6+","altim":1014,"clouds":[{"cover":"OVC","base":2000}],"obsTime":1774954800},"SBOI":{"icaoId":"SBOI","flightCategory":"IFR","rawOb":"METAR SBOI 311100Z AUTO 19003KT 2200 // FEW010/// SCT013/// 24/23 Q1011","temp":24,"dewp":23,"wdir":190,"wspd":3,"visib":1.37,"altim":1011,"clouds":[{"cover":"FEW","base":1000},{"cover":"SCT","base":1300}],"obsTime":1774954800},"SBAR":{"icaoId":"SBAR","flightCategory":"VFR","rawOb":"METAR SBAR 311100Z 24005KT 200V270 9999 VCSH FEW015 SCT020 BKN040 27/25 Q1012","temp":27,"dewp":25,"wdir":240,"wspd":5,"visib":"6+","altim":1012,"clouds":[{"cover":"FEW","base":1500},{"cover":"SCT","base":2000},{"cover":"BKN","base":4000}],"obsTime":1774954800},"SBAX":{"icaoId":"SBAX","flightCategory":"VFR","rawOb":"METAR SBAX 311100Z 11007KT CAVOK 21/18 Q1017","temp":21,"dewp":18,"wdir":110,"wspd":7,"visib":"6+","altim":1017,"clouds":[],"obsTime":1774954800},"SBSJ":{"icaoId":"SBSJ","flightCategory":"MVFR","rawOb":"METAR SBSJ 311100Z 00000KT 5000 BR NSC 20/19 Q1015","temp":20,"dewp":19,"wdir":0,"wspd":0,"visib":3.11,"altim":1015,"clouds":[],"obsTime":1774954800},"SBBH":{"icaoId":"SBBH","flightCategory":"VFR","rawOb":"METAR SBBH 311100Z 10006KT CAVOK 22/18 Q1017","temp":22,"dewp":18,"wdir":100,"wspd":6,"visib":"6+","altim":1017,"clouds":[],"obsTime":1774954800},"SBBQ":{"icaoId":"SBBQ","flightCategory":"MVFR","rawOb":"METAR SBBQ 311200Z 35006KT 320V030 9999 BKN015 BKN100 21/17 Q1020","temp":21,"dewp":17,"wdir":350,"wspd":6,"visib":"6+","altim":1020,"clouds":[{"cover":"BKN","base":1500},{"cover":"BKN","base":10000}],"obsTime":1774958400},"SBBU":{"icaoId":"SBBU","flightCategory":"VFR","rawOb":"METAR SBBU 311100Z 11008KT 9999 FEW030 22/18 Q1014","temp":22,"dewp":18,"wdir":110,"wspd":8,"visib":"6+","altim":1014,"clouds":[{"cover":"FEW","base":3000}],"obsTime":1774954800},"SBCA":{"icaoId":"SBCA","flightCategory":"VFR","rawOb":"METAR SBCA 311100Z 08007KT CAVOK 22/18 Q1015","temp":22,"dewp":18,"wdir":80,"wspd":7,"visib":"6+","altim":1015,"clouds":[],"obsTime":1774954800},"SBCC":{"icaoId":"SBCC","flightCategory":"VFR","rawOb":"METAR SBCC 311100Z 02003KT CAVOK 24/22 Q1012","temp":24,"dewp":22,"wdir":20,"wspd":3,"visib":"6+","altim":1012,"clouds":[],"obsTime":1774954800},"SBCJ":{"icaoId":"SBCJ","flightCategory":"VFR","rawOb":"METAR SBCJ 311100Z 00000KT CAVOK 22/21 Q1015","temp":22,"dewp":21,"wdir":0,"wspd":0,"visib":"6+","altim":1015,"clouds":[],"obsTime":1774954800},"SBCO":{"icaoId":"SBCO","flightCategory":"VFR","rawOb":"METAR SBCO 311100Z 11006KT CAVOK 22/20 Q1014","temp":22,"dewp":20,"wdir":110,"wspd":6,"visib":"6+","altim":1014,"clouds":[],"obsTime":1774954800},"SBDN":{"icaoId":"SBDN","flightCategory":"VFR","rawOb":"METAR SBDN 311100Z 11004KT CAVOK 22/17 Q1013","temp":22,"dewp":17,"wdir":110,"wspd":4,"visib":"6+","altim":1013,"clouds":[],"obsTime":1774954800},"SBES":{"icaoId":"SBES","flightCategory":"VFR","rawOb":"METAR SBES 311100Z 05010KT 010V070 9999 FEW012 SCT100 25/// Q1012","temp":null,"dewp":null,"wdir":50,"wspd":10,"visib":"6+","altim":1012,"clouds":[{"cover":"FEW","base":1200},{"cover":"SCT","base":10000}],"obsTime":1774954800},"SBGM":{"icaoId":"SBGM","flightCategory":"VFR","rawOb":"METAR SBGM 311200Z 13003KT 100V160 9999 FEW003 SCT083 25/23 Q1011","temp":25,"dewp":23,"wdir":130,"wspd":3,"visib":"6+","altim":1011,"clouds":[{"cover":"FEW","base":300},{"cover":"SCT","base":8300}],"obsTime":1774958400},"SBIP":{"icaoId":"SBIP","flightCategory":"VFR","rawOb":"METAR SBIP 311100Z AUTO 03006KT 9999 SCT043 25/20 Q1015","temp":25,"dewp":20,"wdir":30,"wspd":6,"visib":"6+","altim":1015,"clouds":[{"cover":"SCT","base":4300}],"obsTime":1774954800},"SBKG":{"icaoId":"SBKG","flightCategory":"MVFR","rawOb":"METAR SBKG 311100Z 16006KT 130V200 9999 BKN015 24/22 Q1014","temp":24,"dewp":22,"wdir":160,"wspd":6,"visib":"6+","altim":1014,"clouds":[{"cover":"BKN","base":1500}],"obsTime":1774954800},"SBPB":{"icaoId":"SBPB","flightCategory":"VFR","rawOb":"METAR SBPB 311100Z 10004KT 9999 FEW020 SCT100 28/24 Q1011","temp":28,"dewp":24,"wdir":100,"wspd":4,"visib":"6+","altim":1011,"clouds":[{"cover":"FEW","base":2000},{"cover":"SCT","base":10000}],"obsTime":1774954800},"SBPL":{"icaoId":"SBPL","flightCategory":"VFR","rawOb":"METAR SBPL 311100Z 12004KT 9999 FEW020 BKN070 25/22 Q1014","temp":25,"dewp":22,"wdir":120,"wspd":4,"visib":"6+","altim":1014,"clouds":[{"cover":"FEW","base":2000},{"cover":"BKN","base":7000}],"obsTime":1774954800},"SBPP":{"icaoId":"SBPP","flightCategory":"VFR","rawOb":"SPECI SBPP 311115Z 03002KT CAVOK 27/19 Q1014","temp":27,"dewp":19,"wdir":30,"wspd":2,"visib":"6+","altim":1014,"clouds":[],"obsTime":1774955700},"SBPS":{"icaoId":"SBPS","flightCategory":"MVFR","rawOb":"METAR SBPS 311100Z 24002KT 9000 VCSH FEW015 BKN020 BKN066 25/24 Q1014","temp":25,"dewp":24,"wdir":240,"wspd":2,"visib":5.59,"altim":1014,"clouds":[{"cover":"FEW","base":1500},{"cover":"BKN","base":2000},{"cover":"BKN","base":6600}],"obsTime":1774954800},"SBSC":{"icaoId":"SBSC","flightCategory":"VFR","rawOb":"METAR SBSC 311100Z 25002KT 9999 FEW030 FEW035TCU 25/22 Q1012","temp":25,"dewp":22,"wdir":250,"wspd":2,"visib":"6+","altim":1012,"clouds":[{"cover":"FEW","base":3000},{"cover":"FEW","base":3500}],"obsTime":1774954800},"SBSM":{"icaoId":"SBSM","flightCategory":"MVFR","rawOb":"METAR SBSM 311100Z 11006KT 080V160 9000 SCT005 BKN017 23/22 Q1013","temp":23,"dewp":22,"wdir":110,"wspd":6,"visib":5.59,"altim":1013,"clouds":[{"cover":"SCT","base":500},{"cover":"BKN","base":1700}],"obsTime":1774954800},"SBSR":{"icaoId":"SBSR","flightCategory":"VFR","rawOb":"METAR SBSR 311100Z 00000KT CAVOK 23/18 Q1013","temp":23,"dewp":18,"wdir":0,"wspd":0,"visib":"6+","altim":1013,"clouds":[],"obsTime":1774954800},"SBTD":{"icaoId":"SBTD","flightCategory":"VFR","rawOb":"METAR SBTD 311100Z /////KT CAVOK 23/20 Q1013","temp":23,"dewp":20,"wdir":null,"wspd":null,"visib":"6+","altim":1013,"clouds":[],"obsTime":1774954800},"SBTF":{"icaoId":"SBTF","flightCategory":"VFR","rawOb":"SPECI SBTF 311115Z 07005KT 9999 FEW005 26/25 Q1010","temp":26,"dewp":25,"wdir":70,"wspd":5,"visib":"6+","altim":1010,"clouds":[{"cover":"FEW","base":500}],"obsTime":1774955700},"SBTT":{"icaoId":"SBTT","flightCategory":"MVFR","rawOb":"METAR SBTT 311100Z 08005KT 9999 BKN010 BKN060 22/21 Q1012","temp":22,"dewp":21,"wdir":80,"wspd":5,"visib":"6+","altim":1012,"clouds":[{"cover":"BKN","base":1000},{"cover":"BKN","base":6000}],"obsTime":1774954800},"SBUY":{"icaoId":"SBUY","flightCategory":"LIFR","rawOb":"METAR SBUY 311100Z 00000KT 0200 FG VV002 24/24 Q1009","temp":24,"dewp":24,"wdir":0,"wspd":0,"visib":0.12,"altim":1009,"clouds":[{"cover":"OVX","base":200}],"obsTime":1774954800},"SBVH":{"icaoId":"SBVH","flightCategory":"VFR","rawOb":"METAR SBVH 311100Z 31005KT 9999 FEW020 BKN040 BKN100 22/20 Q1014","temp":22,"dewp":20,"wdir":310,"wspd":5,"visib":"6+","altim":1014,"clouds":[{"cover":"FEW","base":2000},{"cover":"BKN","base":4000},{"cover":"BKN","base":10000}],"obsTime":1774954800},"SBJP":{"icaoId":"SBJP","flightCategory":"MVFR","rawOb":"METAR SBJP 311100Z 00000KT 9999 BKN020 28/24 Q1012","temp":28,"dewp":24,"wdir":0,"wspd":0,"visib":"6+","altim":1012,"clouds":[{"cover":"BKN","base":2000}],"obsTime":1774954800},"SBLS":{"icaoId":"SBLS","flightCategory":"VFR","rawOb":"METAR SBLS 311100Z 08003KT 9999 FEW030 23/18 Q1017","temp":23,"dewp":18,"wdir":80,"wspd":3,"visib":"6+","altim":1017,"clouds":[{"cover":"FEW","base":3000}],"obsTime":1774954800},"SBIH":{"icaoId":"SBIH","flightCategory":"IFR","rawOb":"METAR SBIH 311100Z 00000KT 4000 1000NE TSRA BKN005 SCT015 FEW025CB BKN080 25/24 Q1011","temp":25,"dewp":24,"wdir":0,"wspd":0,"visib":2.49,"altim":1011,"clouds":[{"cover":"BKN","base":500},{"cover":"SCT","base":1500},{"cover":"FEW","base":2500},{"cover":"BKN","base":8000}],"obsTime":1774954800},"SBMT":{"icaoId":"SBMT","flightCategory":"IFR","rawOb":"METAR SBMT 311100Z 10004KT 4000 -RA FEW014 BKN040 BKN090 19/18 Q1016","temp":19,"dewp":18,"wdir":100,"wspd":4,"visib":2.49,"altim":1016,"clouds":[{"cover":"FEW","base":1400},{"cover":"BKN","base":4000},{"cover":"BKN","base":9000}],"obsTime":1774954800},"SBST":{"icaoId":"SBST","flightCategory":"MVFR","rawOb":"METAR SBST 311100Z 28001KT 6000 FEW004 BKN020 BKN046 22/22 Q1013","temp":22,"dewp":22,"wdir":280,"wspd":1,"visib":3.73,"altim":1013,"clouds":[{"cover":"FEW","base":400},{"cover":"BKN","base":2000},{"cover":"BKN","base":4600}],"obsTime":1774954800},"SBTA":{"icaoId":"SBTA","flightCategory":"IFR","rawOb":"METAR SBTA 311100Z 07001KT 3000 RA BR BKN015 OVC070 20/18 Q1015 RERA","temp":20,"dewp":18,"wdir":70,"wspd":1,"visib":1.86,"altim":1015,"clouds":[{"cover":"BKN","base":1500},{"cover":"OVC","base":7000}],"obsTime":1774954800},"SBLE":{"icaoId":"SBLE","flightCategory":"MVFR","rawOb":"METAR SBLE 311100Z AUTO 08003KT 040V120 9999 BKN025 23/23 Q1017","temp":23,"dewp":23,"wdir":80,"wspd":3,"visib":"6+","altim":1017,"clouds":[{"cover":"BKN","base":2500}],"obsTime":1774954800},"SBAN":{"icaoId":"SBAN","flightCategory":"VFR","rawOb":"METAR SBAN 311100Z 08006KT CAVOK 21/17 Q1018","temp":21,"dewp":17,"wdir":80,"wspd":6,"visib":"6+","altim":1018,"clouds":[],"obsTime":1774954800},"SBJV":{"icaoId":"SBJV","flightCategory":"IFR","rawOb":"METAR SBJV 311100Z 29003KT 3000 -RADZ BR BKN005 OVC020 22/22 Q1014","temp":22,"dewp":22,"wdir":290,"wspd":3,"visib":1.86,"altim":1014,"clouds":[{"cover":"BKN","base":500},{"cover":"OVC","base":2000}],"obsTime":1774954800},"SBNM":{"icaoId":"SBNM","flightCategory":"VFR","rawOb":"METAR SBNM 311200Z 14006KT CAVOK 25/21 Q1013","temp":25,"dewp":21,"wdir":140,"wspd":6,"visib":"6+","altim":1013,"clouds":[],"obsTime":1774958400},"SBAF":{"icaoId":"SBAF","flightCategory":"VFR","rawOb":"METAR SBAF 311100Z VRB02KT 9999 FEW025 SCT050 26/25 Q1012","temp":26,"dewp":25,"wdir":"VRB","wspd":2,"visib":"6+","altim":1012,"clouds":[{"cover":"FEW","base":2500},{"cover":"SCT","base":5000}],"obsTime":1774954800},"SBPF":{"icaoId":"SBPF","flightCategory":"VFR","rawOb":"METAR SBPF 311100Z 08012KT CAVOK 20/17 Q1015","temp":20,"dewp":17,"wdir":80,"wspd":12,"visib":"6+","altim":1015,"clouds":[],"obsTime":1774954800},"SBJR":{"icaoId":"SBJR","flightCategory":"VFR","rawOb":"METAR SBJR 311100Z 18003KT 9999 FEW030 BKN090 26/22 Q1012","temp":26,"dewp":22,"wdir":180,"wspd":3,"visib":"6+","altim":1012,"clouds":[{"cover":"FEW","base":3000},{"cover":"BKN","base":9000}],"obsTime":1774954800},"SBGW":{"icaoId":"SBGW","flightCategory":"MVFR","rawOb":"METAR SBGW 311100Z VRB02KT 8000 BKN020 BKN026 22/17 Q1015","temp":22,"dewp":17,"wdir":"VRB","wspd":2,"visib":4.97,"altim":1015,"clouds":[{"cover":"BKN","base":2000},{"cover":"BKN","base":2600}],"obsTime":1774954800}}}