{"updated":1775910542,"count":84,"data":{"SBBR":{"icaoId":"SBBR","flightCategory":"VFR","rawOb":"METAR SBBR 111100Z 11007KT 9999 SCT007 21/20 Q1020","temp":21,"dewp":20,"wdir":110,"wspd":7,"visib":"6+","altim":1020,"clouds":[{"cover":"SCT","base":700}],"obsTime":1775905200},"SBCG":{"icaoId":"SBCG","flightCategory":"VFR","rawOb":"METAR SBCG 111100Z 08014KT CAVOK 22/20 Q1017","temp":22,"dewp":20,"wdir":80,"wspd":14,"visib":"6+","altim":1017,"clouds":[],"obsTime":1775905200},"SBCZ":{"icaoId":"SBCZ","flightCategory":"LIFR","rawOb":"METAR SBCZ 111200Z 17002KT 4000 -DZ BR OVC002 24/24 Q1037","temp":24,"dewp":24,"wdir":170,"wspd":2,"visib":2.49,"altim":1037,"clouds":[{"cover":"OVC","base":200}],"obsTime":1775908800},"SBME":{"icaoId":"SBME","flightCategory":"VFR","rawOb":"METAR SBME 111100Z 26004KT 9999 FEW020 BKN080 24/19 Q1020","temp":24,"dewp":19,"wdir":260,"wspd":4,"visib":"6+","altim":1020,"clouds":[{"cover":"FEW","base":2000},{"cover":"BKN","base":8000}],"obsTime":1775905200},"SBCB":{"icaoId":"SBCB","flightCategory":"VFR","rawOb":"METAR SBCB 111100Z 25008KT 9999 FEW040 SCT080 23/20 Q1020","temp":23,"dewp":20,"wdir":250,"wspd":8,"visib":"6+","altim":1020,"clouds":[{"cover":"FEW","base":4000},{"cover":"SCT","base":8000}],"obsTime":1775905200},"SBMG":{"icaoId":"SBMG","flightCategory":"VFR","rawOb":"METAR SBMG 111100Z 10012KT CAVOK 20/16 Q1019","temp":20,"dewp":16,"wdir":100,"wspd":12,"visib":"6+","altim":1019,"clouds":[],"obsTime":1775905200},"SBEG":{"icaoId":"SBEG","flightCategory":"VFR","rawOb":"METAR SBEG 111100Z 07002KT 9999 VCSH FEW007 FEW025TCU SCT070 24/24 Q1013","temp":24,"dewp":24,"wdir":70,"wspd":2,"visib":"6+","altim":1013,"clouds":[{"cover":"FEW","base":700},{"cover":"FEW","base":2500},{"cover":"SCT","base":7000}],"obsTime":1775905200},"SBMK":{"icaoId":"SBMK","flightCategory":"VFR","rawOb":"METAR SBMK 111100Z 12004KT 9999 FEW030 BKN090 23/20 Q1019","temp":23,"dewp":20,"wdir":120,"wspd":4,"visib":"6+","altim":1019,"clouds":[{"cover":"FEW","base":3000},{"cover":"BKN","base":9000}],"obsTime":1775905200},"SBFI":{"icaoId":"SBFI","flightCategory":"VFR","rawOb":"METAR SBFI 111100Z 08004KT 9999 SCT035 BKN100 20/19 Q1017","temp":20,"dewp":19,"wdir":80,"wspd":4,"visib":"6+","altim":1017,"clouds":[{"cover":"SCT","base":3500},{"cover":"BKN","base":10000}],"obsTime":1775905200},"SBMO":{"icaoId":"SBMO","flightCategory":"VFR","rawOb":"METAR SBMO 111100Z VRB02KT 9999 SCT021 28/24 Q1014","temp":28,"dewp":24,"wdir":"VRB","wspd":2,"visib":"6+","altim":1014,"clouds":[{"cover":"SCT","base":2100}],"obsTime":1775905200},"SBMQ":{"icaoId":"SBMQ","flightCategory":"VFR","rawOb":"METAR SBMQ 111100Z 35005KT 9999 FEW010 BKN099 26/24 Q1013","temp":26,"dewp":24,"wdir":350,"wspd":5,"visib":"6+","altim":1013,"clouds":[{"cover":"FEW","base":1000},{"cover":"BKN","base":9900}],"obsTime":1775905200},"SBNT":{"icaoId":"SBNT","flightCategory":"VFR","rawOb":"METAR SBNT 111100Z 17007KT 140V210 9999 FEW023 28/25 Q1013","temp":28,"dewp":25,"wdir":170,"wspd":7,"visib":"6+","altim":1013,"clouds":[{"cover":"FEW","base":2300}],"obsTime":1775905200},"SBFL":{"icaoId":"SBFL","flightCategory":"VFR","rawOb":"METAR SBFL 111100Z 27004KT 9999 FEW033 SCT060 20/17 Q1021","temp":20,"dewp":17,"wdir":270,"wspd":4,"visib":"6+","altim":1021,"clouds":[{"cover":"FEW","base":3300},{"cover":"SCT","base":6000}],"obsTime":1775905200},"SBPA":{"icaoId":"SBPA","flightCategory":"VFR","rawOb":"METAR SBPA 111100Z 07004KT CAVOK 17/14 Q1019","temp":17,"dewp":14,"wdir":70,"wspd":4,"visib":"6+","altim":1019,"clouds":[],"obsTime":1775905200},"SBCF":{"icaoId":"SBCF","flightCategory":"VFR","rawOb":"METAR SBCF 111100Z 13009KT 9999 SCT020 21/19 Q1021","temp":21,"dewp":19,"wdir":130,"wspd":9,"visib":"6+","altim":1021,"clouds":[{"cover":"SCT","base":2000}],"obsTime":1775905200},"SBPJ":{"icaoId":"SBPJ","flightCategory":"VFR","rawOb":"METAR SBPJ 111100Z 17005KT 9999 FEW010 BKN080 26/24 Q1014","temp":26,"dewp":24,"wdir":170,"wspd":5,"visib":"6+","altim":1014,"clouds":[{"cover":"FEW","base":1000},{"cover":"BKN","base":8000}],"obsTime":1775905200},"SBPV":{"icaoId":"SBPV","flightCategory":"IFR","rawOb":"METAR SBPV 111100Z 30002KT 9999 VCTS BKN005 BKN030 FEW035CB 25/24 Q1012 RETS","temp":25,"dewp":24,"wdir":300,"wspd":2,"visib":"6+","altim":1012,"clouds":[{"cover":"BKN","base":500},{"cover":"BKN","base":3000},{"cover":"FEW","base":3500}],"obsTime":1775905200},"SBRB":{"icaoId":"SBRB","flightCategory":"MVFR","rawOb":"METAR SBRB 111100Z 16003KT 7000 BKN015 SCT100 24/23 Q1013","temp":24,"dewp":23,"wdir":160,"wspd":3,"visib":4.35,"altim":1013,"clouds":[{"cover":"BKN","base":1500},{"cover":"SCT","base":10000}],"obsTime":1775905200},"SBFZ":{"icaoId":"SBFZ","flightCategory":"MVFR","rawOb":"METAR SBFZ 111100Z 12005KT 070V140 5000 -RA BKN014 FEW030TCU OVC070 25/24 Q1013 RESHRA","temp":25,"dewp":24,"wdir":120,"wspd":5,"visib":3.11,"altim":1013,"clouds":[{"cover":"BKN","base":1400},{"cover":"FEW","base":3000},{"cover":"OVC","base":7000}],"obsTime":1775905200},"SBRF":{"icaoId":"SBRF","flightCategory":"VFR","rawOb":"METAR SBRF 111100Z 18002KT 9999 FEW023 29/24 Q1013","temp":29,"dewp":24,"wdir":180,"wspd":2,"visib":"6+","altim":1013,"clouds":[{"cover":"FEW","base":2300}],"obsTime":1775905200},"SBSG":{"icaoId":"SBSG","flightCategory":"VFR","rawOb":"METAR SBSG 111100Z 17004KT 130V210 9999 SCT020 27/25 Q1013","temp":27,"dewp":25,"wdir":170,"wspd":4,"visib":"6+","altim":1013,"clouds":[{"cover":"SCT","base":2000}],"obsTime":1775905200},"SBGL":{"icaoId":"SBGL","flightCategory":"VFR","rawOb":"METAR SBGL 111100Z 27003KT 200V350 9999 FEW030 BKN080 23/19 Q1020","temp":23,"dewp":19,"wdir":270,"wspd":3,"visib":"6+","altim":1020,"clouds":[{"cover":"FEW","base":3000},{"cover":"BKN","base":8000}],"obsTime":1775905200},"SBSL":{"icaoId":"SBSL","flightCategory":"VFR","rawOb":"METAR SBSL 111100Z 11008KT 9999 SCT020 BKN080 25/24 Q1013","temp":25,"dewp":24,"wdir":110,"wspd":8,"visib":"6+","altim":1013,"clouds":[{"cover":"SCT","base":2000},{"cover":"BKN","base":8000}],"obsTime":1775905200},"SBGO":{"icaoId":"SBGO","flightCategory":"VFR","rawOb":"METAR SBGO 111100Z 13005KT CAVOK 23/21 Q1018","temp":23,"dewp":21,"wdir":130,"wspd":5,"visib":"6+","altim":1018,"clouds":[],"obsTime":1775905200},"SBAT":{"icaoId":"SBAT","flightCategory":"VFR","rawOb":"METAR SBAT 111100Z 00000KT 9999 FEW010 25/25 Q1014","temp":25,"dewp":25,"wdir":0,"wspd":0,"visib":"6+","altim":1014,"clouds":[{"cover":"FEW","base":1000}],"obsTime":1775905200},"SBMA":{"icaoId":"SBMA","flightCategory":"VFR","rawOb":"METAR SBMA 111100Z 04004KT 9999 FEW010 SCT020 BKN100 25/24 Q1013","temp":25,"dewp":24,"wdir":40,"wspd":4,"visib":"6+","altim":1013,"clouds":[{"cover":"FEW","base":1000},{"cover":"SCT","base":2000},{"cover":"BKN","base":10000}],"obsTime":1775905200},"SBJU":{"icaoId":"SBJU","flightCategory":"VFR","rawOb":"METAR SBJU 111100Z 00000KT CAVOK 23/22 Q1015","temp":23,"dewp":22,"wdir":0,"wspd":0,"visib":"6+","altim":1015,"clouds":[],"obsTime":1775905200},"SBKP":{"icaoId":"SBKP","flightCategory":"VFR","rawOb":"METAR SBKP 111100Z 12011KT 9999 SCT040 18/15 Q1021","temp":18,"dewp":15,"wdir":120,"wspd":11,"visib":"6+","altim":1021,"clouds":[{"cover":"SCT","base":4000}],"obsTime":1775905200},"SBLO":{"icaoId":"SBLO","flightCategory":"VFR","rawOb":"METAR SBLO 111100Z 15005KT CAVOK 19/16 Q1021","temp":19,"dewp":16,"wdir":150,"wspd":5,"visib":"6+","altim":1021,"clouds":[],"obsTime":1775905200},"SBSN":{"icaoId":"SBSN","flightCategory":"VFR","rawOb":"METAR SBSN 111100Z 14004KT 9999 VCSH SCT011 FEW025TCU BKN090 26/25 Q1013","temp":26,"dewp":25,"wdir":140,"wspd":4,"visib":"6+","altim":1013,"clouds":[{"cover":"SCT","base":1100},{"cover":"FEW","base":2500},{"cover":"BKN","base":9000}],"obsTime":1775905200},"SBBE":{"icaoId":"SBBE","flightCategory":"VFR","rawOb":"METAR SBBE 111100Z 05005KT 9999 FEW008 27/24 Q1013","temp":27,"dewp":24,"wdir":50,"wspd":5,"visib":"6+","altim":1013,"clouds":[{"cover":"FEW","base":800}],"obsTime":1775905200},"SBGR":{"icaoId":"SBGR","flightCategory":"VFR","rawOb":"METAR SBGR 111100Z 06006KT CAVOK 18/15 Q1023","temp":18,"dewp":15,"wdir":60,"wspd":6,"visib":"6+","altim":1023,"clouds":[],"obsTime":1775905200},"SBSP":{"icaoId":"SBSP","flightCategory":"VFR","rawOb":"METAR SBSP 111100Z 10006KT 060V140 CAVOK 19/15 Q1024","temp":19,"dewp":15,"wdir":100,"wspd":6,"visib":"6+","altim":1024,"clouds":[],"obsTime":1775905200},"SBSV":{"icaoId":"SBSV","flightCategory":"VFR","rawOb":"METAR SBSV 111100Z 12006KT 090V160 9999 SCT023 29/22 Q1015","temp":29,"dewp":22,"wdir":120,"wspd":6,"visib":"6+","altim":1015,"clouds":[{"cover":"SCT","base":2300}],"obsTime":1775905200},"SBCP":{"icaoId":"SBCP","flightCategory":"VFR","rawOb":"METAR SBCP 111100Z 23006KT 9999 SCT020 BKN090 23/20 Q1020","temp":23,"dewp":20,"wdir":230,"wspd":6,"visib":"6+","altim":1020,"clouds":[{"cover":"SCT","base":2000},{"cover":"BKN","base":9000}],"obsTime":1775905200},"SBTE":{"icaoId":"SBTE","flightCategory":"MVFR","rawOb":"METAR SBTE 111100Z 02006KT 9999 OVC015 26/24 Q1013","temp":26,"dewp":24,"wdir":20,"wspd":6,"visib":"6+","altim":1013,"clouds":[{"cover":"OVC","base":1500}],"obsTime":1775905200},"SBCT":{"icaoId":"SBCT","flightCategory":"MVFR","rawOb":"METAR SBCT 111100Z 12005KT 9999 SCT012 BKN017 16/16 Q1024","temp":16,"dewp":16,"wdir":120,"wspd":5,"visib":"6+","altim":1024,"clouds":[{"cover":"SCT","base":1200},{"cover":"BKN","base":1700}],"obsTime":1775905200},"SBHT":{"icaoId":"SBHT","flightCategory":"VFR","rawOb":"METAR SBHT 111100Z 07005KT 9999 SCT010 BKN080 26/24 Q1013","temp":26,"dewp":24,"wdir":70,"wspd":5,"visib":"6+","altim":1013,"clouds":[{"cover":"SCT","base":1000},{"cover":"BKN","base":8000}],"obsTime":1775905200},"SBUL":{"icaoId":"SBUL","flightCategory":"VFR","rawOb":"METAR SBUL 111100Z 12012KT 080V150 CAVOK 21/19 Q1020","temp":21,"dewp":19,"wdir":120,"wspd":12,"visib":"6+","altim":1020,"clouds":[],"obsTime":1775905200},"SBIL":{"icaoId":"SBIL","flightCategory":"MVFR","rawOb":"METAR SBIL 111100Z 26003KT 8000 -RA BKN018 25/25 Q1016 RERA","temp":25,"dewp":25,"wdir":260,"wspd":3,"visib":4.97,"altim":1016,"clouds":[{"cover":"BKN","base":1800}],"obsTime":1775905200},"SBUR":{"icaoId":"SBUR","flightCategory":"VFR","rawOb":"METAR SBUR 111100Z 05008KT CAVOK 23/18 Q1020","temp":23,"dewp":18,"wdir":50,"wspd":8,"visib":"6+","altim":1020,"clouds":[],"obsTime":1775905200},"SBVT":{"icaoId":"SBVT","flightCategory":"VFR","rawOb":"METAR SBVT 111100Z 22004KT 9999 FEW025 BKN040 BKN070 24/20 Q1018","temp":24,"dewp":20,"wdir":220,"wspd":4,"visib":"6+","altim":1018,"clouds":[{"cover":"FEW","base":2500},{"cover":"BKN","base":4000},{"cover":"BKN","base":7000}],"obsTime":1775905200},"SBCR":{"icaoId":"SBCR","flightCategory":"VFR","rawOb":"METAR SBCR 111100Z VRB02KT 9999 SCT005 25/24 Q1014","temp":25,"dewp":24,"wdir":"VRB","wspd":2,"visib":"6+","altim":1014,"clouds":[{"cover":"SCT","base":500}],"obsTime":1775905200},"SBBV":{"icaoId":"SBBV","flightCategory":"VFR","rawOb":"METAR SBBV 111100Z 08009KT CAVOK 26/22 Q1013","temp":26,"dewp":22,"wdir":80,"wspd":9,"visib":"6+","altim":1013,"clouds":[],"obsTime":1775905200},"SBCJ":{"icaoId":"SBCJ","flightCategory":"MVFR","rawOb":"METAR SBCJ 111100Z 04004KT 8000 SCT010 SCT017 23/22 Q1018","temp":23,"dewp":22,"wdir":40,"wspd":4,"visib":4.97,"altim":1018,"clouds":[{"cover":"SCT","base":1000},{"cover":"SCT","base":1700}],"obsTime":1775905200},"SBAX":{"icaoId":"SBAX","flightCategory":"MVFR","rawOb":"METAR SBAX 111100Z AUTO 09008KT 9999 BKN012 20/19 Q1021","temp":20,"dewp":19,"wdir":90,"wspd":8,"visib":"6+","altim":1021,"clouds":[{"cover":"BKN","base":1200}],"obsTime":1775905200},"SBBH":{"icaoId":"SBBH","flightCategory":"MVFR","rawOb":"METAR SBBH 111100Z 11009KT 9999 BKN023 21/18 Q1021","temp":21,"dewp":18,"wdir":110,"wspd":9,"visib":"6+","altim":1021,"clouds":[{"cover":"BKN","base":2300}],"obsTime":1775905200},"SBBQ":{"icaoId":"SBBQ","flightCategory":"VFR","rawOb":"METAR SBBQ 111200Z 10007KT 9999 FEW019 19/14 Q1026","temp":19,"dewp":14,"wdir":100,"wspd":7,"visib":"6+","altim":1026,"clouds":[{"cover":"FEW","base":1900}],"obsTime":1775908800},"SBBU":{"icaoId":"SBBU","flightCategory":"VFR","rawOb":"METAR SBBU 111100Z 10008KT CAVOK 19/16 Q1020","temp":19,"dewp":16,"wdir":100,"wspd":8,"visib":"6+","altim":1020,"clouds":[],"obsTime":1775905200},"SBCC":{"icaoId":"SBCC","flightCategory":"VFR","rawOb":"METAR SBCC 111100Z 02005KT 9999 FEW025TCU BKN100 24/21 Q1015","temp":24,"dewp":21,"wdir":20,"wspd":5,"visib":"6+","altim":1015,"clouds":[{"cover":"FEW","base":2500},{"cover":"BKN","base":10000}],"obsTime":1775905200},"SBAR":{"icaoId":"SBAR","flightCategory":"VFR","rawOb":"METAR SBAR 111100Z 30004KT 9999 FEW015 SCT020 27/25 Q1014","temp":27,"dewp":25,"wdir":300,"wspd":4,"visib":"6+","altim":1014,"clouds":[{"cover":"FEW","base":1500},{"cover":"SCT","base":2000}],"obsTime":1775905200},"SBCO":{"icaoId":"SBCO","flightCategory":"VFR","rawOb":"METAR SBCO 111100Z 10004KT CAVOK 16/14 Q1020","temp":16,"dewp":14,"wdir":100,"wspd":4,"visib":"6+","altim":1020,"clouds":[],"obsTime":1775905200},"SBDN":{"icaoId":"SBDN","flightCategory":"VFR","rawOb":"METAR SBDN 111100Z 11011KT CAVOK 20/16 Q1018","temp":20,"dewp":16,"wdir":110,"wspd":11,"visib":"6+","altim":1018,"clouds":[],"obsTime":1775905200},"SBES":{"icaoId":"SBES","flightCategory":"VFR","rawOb":"METAR SBES 111100Z 24005KT 190V300 9999 FEW015 SCT080 23/// Q1020","temp":null,"dewp":null,"wdir":240,"wspd":5,"visib":"6+","altim":1020,"clouds":[{"cover":"FEW","base":1500},{"cover":"SCT","base":8000}],"obsTime":1775905200},"SBGM":{"icaoId":"SBGM","flightCategory":"LIFR","rawOb":"METAR SBGM 111200Z 15005KT 1000 BR OVC002 24/24 Q1013","temp":24,"dewp":24,"wdir":150,"wspd":5,"visib":0.62,"altim":1013,"clouds":[{"cover":"OVC","base":200}],"obsTime":1775908800},"SBIP":{"icaoId":"SBIP","flightCategory":"VFR","rawOb":"METAR SBIP 111100Z AUTO 19004KT 150V210 9999 BKN048 24/21 Q1019","temp":24,"dewp":21,"wdir":190,"wspd":4,"visib":"6+","altim":1019,"clouds":[{"cover":"BKN","base":4800}],"obsTime":1775905200},"SBKG":{"icaoId":"SBKG","flightCategory":"MVFR","rawOb":"METAR SBKG 111100Z 12005KT 080V180 9999 BKN018 25/22 Q1016","temp":25,"dewp":22,"wdir":120,"wspd":5,"visib":"6+","altim":1016,"clouds":[{"cover":"BKN","base":1800}],"obsTime":1775905200},"SBOI":{"icaoId":"SBOI","flightCategory":"VFR","rawOb":"METAR SBOI 111100Z AUTO 00000KT 9999 FEW023 BKN033 26/24 Q1014","temp":26,"dewp":24,"wdir":0,"wspd":0,"visib":"6+","altim":1014,"clouds":[{"cover":"FEW","base":2300},{"cover":"BKN","base":3300}],"obsTime":1775905200},"SBPB":{"icaoId":"SBPB","flightCategory":"VFR","rawOb":"METAR SBPB 111100Z 04004KT 9999 FEW020 27/25 Q1013","temp":27,"dewp":25,"wdir":40,"wspd":4,"visib":"6+","altim":1013,"clouds":[{"cover":"FEW","base":2000}],"obsTime":1775905200},"SBPL":{"icaoId":"SBPL","flightCategory":"VFR","rawOb":"METAR SBPL 111100Z 09010KT 9999 SCT025 SCT070 27/21 Q1016","temp":27,"dewp":21,"wdir":90,"wspd":10,"visib":"6+","altim":1016,"clouds":[{"cover":"SCT","base":2500},{"cover":"SCT","base":7000}],"obsTime":1775905200},"SBPP":{"icaoId":"SBPP","flightCategory":"LIFR","rawOb":"SPECI SBPP 111115Z 04010KT 0900 FG VV000 19/19 Q1019","temp":19,"dewp":19,"wdir":40,"wspd":10,"visib":0.56,"altim":1019,"clouds":[{"cover":"OVX","base":0}],"obsTime":1775906100},"SBPS":{"icaoId":"SBPS","flightCategory":"VFR","rawOb":"METAR SBPS 111100Z 24004KT 200V270 9999 SCT020 26/24 Q1016","temp":26,"dewp":24,"wdir":240,"wspd":4,"visib":"6+","altim":1016,"clouds":[{"cover":"SCT","base":2000}],"obsTime":1775905200},"SBSC":{"icaoId":"SBSC","flightCategory":"VFR","rawOb":"METAR SBSC 111100Z 05003KT 9999 FEW030 BKN080 21/20 Q1020","temp":21,"dewp":20,"wdir":50,"wspd":3,"visib":"6+","altim":1020,"clouds":[{"cover":"FEW","base":3000},{"cover":"BKN","base":8000}],"obsTime":1775905200},"SBSJ":{"icaoId":"SBSJ","flightCategory":"VFR","rawOb":"METAR SBSJ 111100Z 18001KT CAVOK 18/16 Q1023","temp":18,"dewp":16,"wdir":180,"wspd":1,"visib":"6+","altim":1023,"clouds":[],"obsTime":1775905200},"SBSM":{"icaoId":"SBSM","flightCategory":"VFR","rawOb":"METAR SBSM 111100Z 10004KT 9999 FEW005 14/14 Q1018","temp":14,"dewp":14,"wdir":100,"wspd":4,"visib":"6+","altim":1018,"clouds":[{"cover":"FEW","base":500}],"obsTime":1775905200},"SBSR":{"icaoId":"SBSR","flightCategory":"VFR","rawOb":"METAR SBSR 111100Z 16002KT CAVOK 21/18 Q1018","temp":21,"dewp":18,"wdir":160,"wspd":2,"visib":"6+","altim":1018,"clouds":[],"obsTime":1775905200},"SBTF":{"icaoId":"SBTF","flightCategory":"VFR","rawOb":"SPECI SBTF 111115Z 18002KT CAVOK 26/26 Q1012","temp":26,"dewp":26,"wdir":180,"wspd":2,"visib":"6+","altim":1012,"clouds":[],"obsTime":1775906100},"SBTT":{"icaoId":"SBTT","flightCategory":"VFR","rawOb":"METAR SBTT 111100Z VRB02KT CAVOK 24/23 Q1012","temp":24,"dewp":23,"wdir":"VRB","wspd":2,"visib":"6+","altim":1012,"clouds":[],"obsTime":1775905200},"SBUY":{"icaoId":"SBUY","flightCategory":"MVFR","rawOb":"METAR SBUY 111100Z 00000KT 6000 NSC 23/23 Q1011","temp":23,"dewp":23,"wdir":0,"wspd":0,"visib":3.73,"altim":1011,"clouds":[],"obsTime":1775905200},"SBVH":{"icaoId":"SBVH","flightCategory":"VFR","rawOb":"METAR SBVH 111100Z 10003KT CAVOK 23/21 Q1016","temp":23,"dewp":21,"wdir":100,"wspd":3,"visib":"6+","altim":1016,"clouds":[],"obsTime":1775905200},"SBCA":{"icaoId":"SBCA","flightCategory":"VFR","rawOb":"METAR SBCA 111100Z 06015KT 9999 FEW020 BKN080 18/15 Q1020","temp":18,"dewp":15,"wdir":60,"wspd":15,"visib":"6+","altim":1020,"clouds":[{"cover":"FEW","base":2000},{"cover":"BKN","base":8000}],"obsTime":1775905200},"SBTA":{"icaoId":"SBTA","flightCategory":"VFR","rawOb":"METAR SBTA 111100Z VRB02KT CAVOK 19/17 Q1022","temp":19,"dewp":17,"wdir":"VRB","wspd":2,"visib":"6+","altim":1022,"clouds":[],"obsTime":1775905200},"SBJP":{"icaoId":"SBJP","flightCategory":"VFR","rawOb":"METAR SBJP 111100Z 17005KT 9999 FEW020 28/24 Q1013","temp":28,"dewp":24,"wdir":170,"wspd":5,"visib":"6+","altim":1013,"clouds":[{"cover":"FEW","base":2000}],"obsTime":1775905200},"SBJV":{"icaoId":"SBJV","flightCategory":"MVFR","rawOb":"METAR SBJV 111100Z 24001KT 9999 BKN030 BKN055 20/20 Q1021","temp":20,"dewp":20,"wdir":240,"wspd":1,"visib":"6+","altim":1021,"clouds":[{"cover":"BKN","base":3000},{"cover":"BKN","base":5500}],"obsTime":1775905200},"SBPF":{"icaoId":"SBPF","flightCategory":"VFR","rawOb":"METAR SBPF 111100Z 05017KT CAVOK 15/12 Q1020","temp":15,"dewp":12,"wdir":50,"wspd":17,"visib":"6+","altim":1020,"clouds":[],"obsTime":1775905200},"SBAN":{"icaoId":"SBAN","flightCategory":"MVFR","rawOb":"METAR SBAN 111100Z 14008KT 110V180 5000 2000SE BR FEW002 21/19 Q1021","temp":21,"dewp":19,"wdir":140,"wspd":8,"visib":3.11,"altim":1021,"clouds":[{"cover":"FEW","base":200}],"obsTime":1775905200},"SBIH":{"icaoId":"SBIH","flightCategory":"VFR","rawOb":"METAR SBIH 111100Z 00000KT 9999 FEW006 BKN080 23/23 Q1013","temp":23,"dewp":23,"wdir":0,"wspd":0,"visib":"6+","altim":1013,"clouds":[{"cover":"FEW","base":600},{"cover":"BKN","base":8000}],"obsTime":1775905200},"SBLE":{"icaoId":"SBLE","flightCategory":"MVFR","rawOb":"METAR SBLE 111100Z AUTO 14005KT 110V180 9999 FEW013 SCT021 BKN029 23/23 Q1018","temp":23,"dewp":23,"wdir":140,"wspd":5,"visib":"6+","altim":1018,"clouds":[{"cover":"FEW","base":1300},{"cover":"SCT","base":2100},{"cover":"BKN","base":2900}],"obsTime":1775905200},"SBAF":{"icaoId":"SBAF","flightCategory":"VFR","rawOb":"METAR SBAF 111100Z 25002KT 9999 FEW030 BKN080 22/21 Q1020","temp":22,"dewp":21,"wdir":250,"wspd":2,"visib":"6+","altim":1020,"clouds":[{"cover":"FEW","base":3000},{"cover":"BKN","base":8000}],"obsTime":1775905200},"SBGW":{"icaoId":"SBGW","flightCategory":"MVFR","rawOb":"METAR SBGW 111100Z 08003KT 8000 FEW010 OVC050 19/14 Q1022","temp":19,"dewp":14,"wdir":80,"wspd":3,"visib":4.97,"altim":1022,"clouds":[{"cover":"FEW","base":1000},{"cover":"OVC","base":5000}],"obsTime":1775905200},"SBJR":{"icaoId":"SBJR","flightCategory":"VFR","rawOb":"METAR SBJR 111100Z 02003KT 9999 FEW030 BKN080 22/20 Q1020","temp":22,"dewp":20,"wdir":20,"wspd":3,"visib":"6+","altim":1020,"clouds":[{"cover":"FEW","base":3000},{"cover":"BKN","base":8000}],"obsTime":1775905200},"SBLS":{"icaoId":"SBLS","flightCategory":"VFR","rawOb":"METAR SBLS 111100Z 15011KT 9999 SCT015 20/19 Q1021","temp":20,"dewp":19,"wdir":150,"wspd":11,"visib":"6+","altim":1021,"clouds":[{"cover":"SCT","base":1500}],"obsTime":1775905200},"SBMT":{"icaoId":"SBMT","flightCategory":"VFR","rawOb":"METAR SBMT 111100Z 10006KT 060V120 CAVOK 18/15 Q1023","temp":18,"dewp":15,"wdir":100,"wspd":6,"visib":"6+","altim":1023,"clouds":[],"obsTime":1775905200},"SBST":{"icaoId":"SBST","flightCategory":"VFR","rawOb":"METAR SBST 111100Z 00000KT CAVOK 19/19 Q1020","temp":19,"dewp":19,"wdir":0,"wspd":0,"visib":"6+","altim":1020,"clouds":[],"obsTime":1775905200}}}