{"updated":1783840951,"count":51,"data":{"SBSL":{"icaoId":"SBSL","flightCategory":"VFR","rawOb":"METAR SBSL 120600Z 05008KT 9999 FEW020 26/24 Q1011","temp":26,"dewp":24,"wdir":50,"wspd":8,"visib":"6+","altim":1011,"clouds":[{"cover":"FEW","base":2000}],"obsTime":1783836000},"SBCG":{"icaoId":"SBCG","flightCategory":"VFR","rawOb":"METAR SBCG 120600Z 04011KT 9999 TS VCSH SCT045 FEW050CB BKN070 19/18 Q1016","temp":19,"dewp":18,"wdir":40,"wspd":11,"visib":"6+","altim":1016,"clouds":[{"cover":"SCT","base":4500},{"cover":"FEW","base":5000},{"cover":"BKN","base":7000}],"obsTime":1783836000},"SBSG":{"icaoId":"SBSG","flightCategory":"VFR","rawOb":"METAR SBSG 120600Z 20004KT 9999 SCT020 22/21 Q1013","temp":22,"dewp":21,"wdir":200,"wspd":4,"visib":"6+","altim":1013,"clouds":[{"cover":"SCT","base":2000}],"obsTime":1783836000},"SBMO":{"icaoId":"SBMO","flightCategory":"VFR","rawOb":"METAR SBMO 120600Z 34005KT 9999 FEW020 20/19 Q1015","temp":20,"dewp":19,"wdir":340,"wspd":5,"visib":"6+","altim":1015,"clouds":[{"cover":"FEW","base":2000}],"obsTime":1783836000},"SBBE":{"icaoId":"SBBE","flightCategory":"VFR","rawOb":"METAR SBBE 120600Z 07008KT 9999 BKN035 26/24 Q1012","temp":26,"dewp":24,"wdir":70,"wspd":8,"visib":"6+","altim":1012,"clouds":[{"cover":"BKN","base":3500}],"obsTime":1783836000},"SBSP":{"icaoId":"SBSP","flightCategory":"VFR","rawOb":"METAR SBSP 120600Z AUTO 35010KT CAVOK 16/14 Q1015","temp":16,"dewp":14,"wdir":350,"wspd":10,"visib":"6+","altim":1015,"clouds":[],"obsTime":1783836000},"SBKP":{"icaoId":"SBKP","flightCategory":"VFR","rawOb":"SPECI SBKP 120525Z 02007KT 9999 -RA VCTS FEW015 FEW040CB SCT060 OVC100 17/15 Q1015 RERA","temp":17,"dewp":15,"wdir":20,"wspd":7,"visib":"6+","altim":1015,"clouds":[{"cover":"FEW","base":1500},{"cover":"FEW","base":4000},{"cover":"SCT","base":6000},{"cover":"OVC","base":10000}],"obsTime":1783833900},"SBSV":{"icaoId":"SBSV","flightCategory":"VFR","rawOb":"METAR SBSV 120600Z 36002KT CAVOK 22/21 Q1014","temp":22,"dewp":21,"wdir":360,"wspd":2,"visib":"6+","altim":1014,"clouds":[],"obsTime":1783836000},"SBFZ":{"icaoId":"SBFZ","flightCategory":"MVFR","rawOb":"METAR SBFZ 120600Z 12010KT 9999 BKN020 26/23 Q1012","temp":26,"dewp":23,"wdir":120,"wspd":10,"visib":"6+","altim":1012,"clouds":[{"cover":"BKN","base":2000}],"obsTime":1783836000},"SBCF":{"icaoId":"SBCF","flightCategory":"VFR","rawOb":"METAR SBCF 120600Z COR 16001KT 9000 NSC 13/10 Q1017","temp":13,"dewp":10,"wdir":160,"wspd":1,"visib":5.59,"altim":1017,"clouds":[],"obsTime":1783836000},"SBRB":{"icaoId":"SBRB","flightCategory":"MVFR","rawOb":"METAR SBRB 120600Z 35003KT 8000 FEW015 SCT100 23/22 Q1014","temp":23,"dewp":22,"wdir":350,"wspd":3,"visib":4.97,"altim":1014,"clouds":[{"cover":"FEW","base":1500},{"cover":"SCT","base":10000}],"obsTime":1783836000},"SBPV":{"icaoId":"SBPV","flightCategory":"VFR","rawOb":"METAR SBPV 120600Z 10004KT 9999 SCT025 24/22 Q1013","temp":24,"dewp":22,"wdir":100,"wspd":4,"visib":"6+","altim":1013,"clouds":[{"cover":"SCT","base":2500}],"obsTime":1783836000},"SBFI":{"icaoId":"SBFI","flightCategory":"MVFR","rawOb":"METAR SBFI 120600Z 23008KT 8000 SCT007 BKN025 17/16 Q1015","temp":17,"dewp":16,"wdir":230,"wspd":8,"visib":4.97,"altim":1015,"clouds":[{"cover":"SCT","base":700},{"cover":"BKN","base":2500}],"obsTime":1783836000},"SBTE":{"icaoId":"SBTE","flightCategory":"VFR","rawOb":"METAR SBTE 120600Z 31002KT CAVOK 25/22 Q1011","temp":25,"dewp":22,"wdir":310,"wspd":2,"visib":"6+","altim":1011,"clouds":[],"obsTime":1783836000},"SBGR":{"icaoId":"SBGR","flightCategory":"VFR","rawOb":"METAR SBGR 120600Z 32009KT CAVOK 17/14 Q1015","temp":17,"dewp":14,"wdir":320,"wspd":9,"visib":"6+","altim":1015,"clouds":[],"obsTime":1783836000},"SBGL":{"icaoId":"SBGL","flightCategory":"VFR","rawOb":"METAR SBGL 120600Z 24005KT 9000 SCT040 22/18 Q1013","temp":22,"dewp":18,"wdir":240,"wspd":5,"visib":5.59,"altim":1013,"clouds":[{"cover":"SCT","base":4000}],"obsTime":1783836000},"SBSN":{"icaoId":"SBSN","flightCategory":"VFR","rawOb":"METAR SBSN 120600Z 18004KT CAVOK 25/23 Q1012","temp":25,"dewp":23,"wdir":180,"wspd":4,"visib":"6+","altim":1012,"clouds":[],"obsTime":1783836000},"SBVT":{"icaoId":"SBVT","flightCategory":"VFR","rawOb":"METAR SBVT 120600Z 27003KT CAVOK 18/17 Q1012","temp":18,"dewp":17,"wdir":270,"wspd":3,"visib":"6+","altim":1012,"clouds":[],"obsTime":1783836000},"SBLO":{"icaoId":"SBLO","flightCategory":"VFR","rawOb":"METAR SBLO 120600Z VRB01KT CAVOK 18/17 Q1015","temp":18,"dewp":17,"wdir":"VRB","wspd":1,"visib":"6+","altim":1015,"clouds":[],"obsTime":1783836000},"SBGO":{"icaoId":"SBGO","flightCategory":"VFR","rawOb":"METAR SBGO 120600Z 31004KT CAVOK 18/16 Q1018","temp":18,"dewp":16,"wdir":310,"wspd":4,"visib":"6+","altim":1018,"clouds":[],"obsTime":1783836000},"SBMG":{"icaoId":"SBMG","flightCategory":"LIFR","rawOb":"METAR SBMG 120600Z AUTO 23003KT 0800 R10/0900N FG BKN003 18/17 Q1014","temp":18,"dewp":17,"wdir":230,"wspd":3,"visib":0.5,"altim":1014,"clouds":[{"cover":"BKN","base":300}],"obsTime":1783836000},"SBBV":{"icaoId":"SBBV","flightCategory":"VFR","rawOb":"METAR SBBV 120600Z 10002KT CAVOK 26/22 Q1012","temp":26,"dewp":22,"wdir":100,"wspd":2,"visib":"6+","altim":1012,"clouds":[],"obsTime":1783836000},"SBMA":{"icaoId":"SBMA","flightCategory":"VFR","rawOb":"METAR SBMA 120600Z 00000KT CAVOK 24/22 Q1011","temp":24,"dewp":22,"wdir":0,"wspd":0,"visib":"6+","altim":1011,"clouds":[],"obsTime":1783836000},"SBJU":{"icaoId":"SBJU","flightCategory":"VFR","rawOb":"METAR SBJU 120600Z 00000KT 9999 SCT020 22/18 Q1015","temp":22,"dewp":18,"wdir":0,"wspd":0,"visib":"6+","altim":1015,"clouds":[{"cover":"SCT","base":2000}],"obsTime":1783836000},"SBME":{"icaoId":"SBME","flightCategory":"VFR","rawOb":"METAR SBME 120600Z 22013KT CAVOK 21/17 Q1011","temp":21,"dewp":17,"wdir":220,"wspd":13,"visib":"6+","altim":1011,"clouds":[],"obsTime":1783836000},"SBUL":{"icaoId":"SBUL","flightCategory":"VFR","rawOb":"METAR SBUL 120600Z 01003KT CAVOK 22/10 Q1018","temp":22,"dewp":10,"wdir":10,"wspd":3,"visib":"6+","altim":1018,"clouds":[],"obsTime":1783836000},"SBPJ":{"icaoId":"SBPJ","flightCategory":"VFR","rawOb":"METAR SBPJ 120600Z 16003KT 9999 FEW045 24/19 Q1013","temp":24,"dewp":19,"wdir":160,"wspd":3,"visib":"6+","altim":1013,"clouds":[{"cover":"FEW","base":4500}],"obsTime":1783836000},"SBNT":{"icaoId":"SBNT","flightCategory":"VFR","rawOb":"METAR SBNT 120600Z 20005KT 9999 SCT020 22/21 Q1013","temp":22,"dewp":21,"wdir":200,"wspd":5,"visib":"6+","altim":1013,"clouds":[{"cover":"SCT","base":2000}],"obsTime":1783836000},"SBUR":{"icaoId":"SBUR","flightCategory":"VFR","rawOb":"METAR SBUR 120600Z 02005KT CAVOK 19/10 Q1017","temp":19,"dewp":10,"wdir":20,"wspd":5,"visib":"6+","altim":1017,"clouds":[],"obsTime":1783836000},"SBRF":{"icaoId":"SBRF","flightCategory":"VFR","rawOb":"METAR SBRF 120600Z 14009KT 9999 FEW023 25/21 Q1014","temp":25,"dewp":21,"wdir":140,"wspd":9,"visib":"6+","altim":1014,"clouds":[{"cover":"FEW","base":2300}],"obsTime":1783836000},"SBMQ":{"icaoId":"SBMQ","flightCategory":"VFR","rawOb":"METAR SBMQ 120600Z 36003KT 9999 FEW020 25/24 Q1012","temp":25,"dewp":24,"wdir":360,"wspd":3,"visib":"6+","altim":1012,"clouds":[{"cover":"FEW","base":2000}],"obsTime":1783836000},"SBCT":{"icaoId":"SBCT","flightCategory":"VFR","rawOb":"METAR SBCT 120600Z 27005KT 9999 FEW014 14/14 Q1014","temp":14,"dewp":14,"wdir":270,"wspd":5,"visib":"6+","altim":1014,"clouds":[{"cover":"FEW","base":1400}],"obsTime":1783836000},"SBPA":{"icaoId":"SBPA","flightCategory":"IFR","rawOb":"METAR SBPA 120600Z 26003KT 5000 -DZ BR BKN007 OVC017 14/14 Q1013","temp":14,"dewp":14,"wdir":260,"wspd":3,"visib":3.11,"altim":1013,"clouds":[{"cover":"BKN","base":700},{"cover":"OVC","base":1700}],"obsTime":1783836000},"SBEG":{"icaoId":"SBEG","flightCategory":"VFR","rawOb":"METAR SBEG 120600Z 07001KT CAVOK 25/23 Q1013","temp":25,"dewp":23,"wdir":70,"wspd":1,"visib":"6+","altim":1013,"clouds":[],"obsTime":1783836000},"SBBR":{"icaoId":"SBBR","flightCategory":"VFR","rawOb":"METAR SBBR 120600Z 07001KT CAVOK 16/13 Q1020","temp":16,"dewp":13,"wdir":70,"wspd":1,"visib":"6+","altim":1020,"clouds":[],"obsTime":1783836000},"SBFL":{"icaoId":"SBFL","flightCategory":"LIFR","rawOb":"METAR SBFL 120600Z 28003KT 8000 OVC004 14/14 Q1011","temp":14,"dewp":14,"wdir":280,"wspd":3,"visib":4.97,"altim":1011,"clouds":[{"cover":"OVC","base":400}],"obsTime":1783836000},"SBIP":{"icaoId":"SBIP","flightCategory":"LIFR","rawOb":"METAR SBIP 120600Z AUTO 00000KT 0700 FG SCT004 12/12 Q1015","temp":12,"dewp":12,"wdir":0,"wspd":0,"visib":0.43,"altim":1015,"clouds":[{"cover":"SCT","base":400}],"obsTime":1783836000},"SBPL":{"icaoId":"SBPL","flightCategory":"VFR","rawOb":"METAR SBPL 120600Z 15004KT CAVOK 22/17 Q1015","temp":22,"dewp":17,"wdir":150,"wspd":4,"visib":"6+","altim":1015,"clouds":[],"obsTime":1783836000},"SBKG":{"icaoId":"SBKG","flightCategory":"MVFR","rawOb":"METAR SBKG 120600Z 14005KT 9999 BKN010 20/19 Q1016","temp":20,"dewp":19,"wdir":140,"wspd":5,"visib":"6+","altim":1016,"clouds":[{"cover":"BKN","base":1000}],"obsTime":1783836000},"SBAX":{"icaoId":"SBAX","flightCategory":"VFR","rawOb":"METAR SBAX 120600Z AUTO 06003KT CAVOK 17/08 Q1018","temp":17,"dewp":8,"wdir":60,"wspd":3,"visib":"6+","altim":1018,"clouds":[],"obsTime":1783836000},"SBAR":{"icaoId":"SBAR","flightCategory":"VFR","rawOb":"METAR SBAR 120600Z 31002KT 9999 SCT021 22/21 Q1014","temp":22,"dewp":21,"wdir":310,"wspd":2,"visib":"6+","altim":1014,"clouds":[{"cover":"SCT","base":2100}],"obsTime":1783836000},"SBPS":{"icaoId":"SBPS","flightCategory":"VFR","rawOb":"METAR SBPS 120600Z 32004KT 9999 FEW020 22/21 Q1014","temp":22,"dewp":21,"wdir":320,"wspd":4,"visib":"6+","altim":1014,"clouds":[{"cover":"FEW","base":2000}],"obsTime":1783836000},"SBDN":{"icaoId":"SBDN","flightCategory":"VFR","rawOb":"METAR SBDN 120600Z 01002KT CAVOK 20/16 Q1014","temp":20,"dewp":16,"wdir":10,"wspd":2,"visib":"6+","altim":1014,"clouds":[],"obsTime":1783836000},"SBSC":{"icaoId":"SBSC","flightCategory":"MVFR","rawOb":"METAR SBSC 120600Z 18013KT 9999 FEW010 BKN020 22/20 Q1014","temp":22,"dewp":20,"wdir":180,"wspd":13,"visib":"6+","altim":1014,"clouds":[{"cover":"FEW","base":1000},{"cover":"BKN","base":2000}],"obsTime":1783836000},"SBSR":{"icaoId":"SBSR","flightCategory":"VFR","rawOb":"METAR SBSR 120600Z 18001KT CAVOK 20/13 Q1015","temp":20,"dewp":13,"wdir":180,"wspd":1,"visib":"6+","altim":1015,"clouds":[],"obsTime":1783836000},"SBTU":{"icaoId":"SBTU","flightCategory":"VFR","rawOb":"METAR SBTU 120600Z AUTO 00000KT 9999 // NCD 23/22 Q1013","temp":23,"dewp":22,"wdir":0,"wspd":0,"visib":"6+","altim":1013,"clouds":[],"obsTime":1783836000},"SBOI":{"icaoId":"SBOI","flightCategory":"VFR","rawOb":"METAR SBOI 120600Z AUTO 23001KT CAVOK 25/24 Q1012","temp":25,"dewp":24,"wdir":230,"wspd":1,"visib":"6+","altim":1012,"clouds":[],"obsTime":1783836000},"SBNM":{"icaoId":"SBNM","flightCategory":"MVFR","rawOb":"METAR SBNM 120600Z 22002KT 9999 BKN020 14/11 Q1016","temp":14,"dewp":11,"wdir":220,"wspd":2,"visib":"6+","altim":1016,"clouds":[{"cover":"BKN","base":2000}],"obsTime":1783836000},"SBAN":{"icaoId":"SBAN","flightCategory":"VFR","rawOb":"METAR SBAN 120600Z 23004KT CAVOK 19/12 Q1020","temp":19,"dewp":12,"wdir":230,"wspd":4,"visib":"6+","altim":1020,"clouds":[],"obsTime":1783836000},"SBLE":{"icaoId":"SBLE","flightCategory":"MVFR","rawOb":"METAR SBLE 120600Z AUTO 02003KT 9999 BKN018 ///// Q1017","temp":null,"dewp":null,"wdir":20,"wspd":3,"visib":"6+","altim":1017,"clouds":[{"cover":"BKN","base":1800}],"obsTime":1783836000},"SBJP":{"icaoId":"SBJP","flightCategory":"VFR","rawOb":"METAR SBJP 120600Z 19005KT 9999 FEW025 22/21 Q1014","temp":22,"dewp":21,"wdir":190,"wspd":5,"visib":"6+","altim":1014,"clouds":[{"cover":"FEW","base":2500}],"obsTime":1783836000}}}