{"updated":1777412044,"count":83,"data":{"SBKP":{"icaoId":"SBKP","flightCategory":"VFR","rawOb":"METAR SBKP 282000Z 21008KT 9000 -TSRA FEW035 FEW040CB BKN100 28/21 Q1015","temp":28,"dewp":21,"wdir":210,"wspd":8,"visib":5.59,"altim":1015,"clouds":[{"cover":"FEW","base":3500},{"cover":"FEW","base":4000},{"cover":"BKN","base":10000}],"obsTime":1777406400},"SBVT":{"icaoId":"SBVT","flightCategory":"VFR","rawOb":"METAR SBVT 282000Z 05013KT 9999 FEW045 27/23 Q1014","temp":27,"dewp":23,"wdir":50,"wspd":13,"visib":"6+","altim":1014,"clouds":[{"cover":"FEW","base":4500}],"obsTime":1777406400},"SBBE":{"icaoId":"SBBE","flightCategory":"VFR","rawOb":"METAR SBBE 282000Z 10009KT 9999 VCSH SCT030 FEW035TCU 27/25 Q1009","temp":27,"dewp":25,"wdir":100,"wspd":9,"visib":"6+","altim":1009,"clouds":[{"cover":"SCT","base":3000},{"cover":"FEW","base":3500}],"obsTime":1777406400},"SBUR":{"icaoId":"SBUR","flightCategory":"VFR","rawOb":"METAR SBUR 282000Z 36005KT 9999 FEW049 31/16 Q1016","temp":31,"dewp":16,"wdir":360,"wspd":5,"visib":"6+","altim":1016,"clouds":[{"cover":"FEW","base":4900}],"obsTime":1777406400},"SBBR":{"icaoId":"SBBR","flightCategory":"VFR","rawOb":"METAR SBBR 282000Z 13008KT 9999 FEW030 29/13 Q1017","temp":29,"dewp":13,"wdir":130,"wspd":8,"visib":"6+","altim":1017,"clouds":[{"cover":"FEW","base":3000}],"obsTime":1777406400},"SBUL":{"icaoId":"SBUL","flightCategory":"VFR","rawOb":"METAR SBUL 282000Z 06006KT 020V090 CAVOK 28/14 Q1018","temp":28,"dewp":14,"wdir":60,"wspd":6,"visib":"6+","altim":1018,"clouds":[],"obsTime":1777406400},"SBTE":{"icaoId":"SBTE","flightCategory":"VFR","rawOb":"METAR SBTE 282000Z 10005KT 9999 SCT020 FEW025TCU 32/22 Q1009","temp":32,"dewp":22,"wdir":100,"wspd":5,"visib":"6+","altim":1009,"clouds":[{"cover":"SCT","base":2000},{"cover":"FEW","base":2500}],"obsTime":1777406400},"SBBV":{"icaoId":"SBBV","flightCategory":"VFR","rawOb":"METAR SBBV 282000Z 08006KT 9999 SCT040 FEW045TCU 33/21 Q1008","temp":33,"dewp":21,"wdir":80,"wspd":6,"visib":"6+","altim":1008,"clouds":[{"cover":"SCT","base":4000},{"cover":"FEW","base":4500}],"obsTime":1777406400},"SBSV":{"icaoId":"SBSV","flightCategory":"VFR","rawOb":"METAR SBSV 282000Z 07007KT 9999 SCT025 BKN060 27/23 Q1013","temp":27,"dewp":23,"wdir":70,"wspd":7,"visib":"6+","altim":1013,"clouds":[{"cover":"SCT","base":2500},{"cover":"BKN","base":6000}],"obsTime":1777406400},"SBCB":{"icaoId":"SBCB","flightCategory":"VFR","rawOb":"METAR SBCB 282000Z 09008KT CAVOK 26/23 Q1014","temp":26,"dewp":23,"wdir":90,"wspd":8,"visib":"6+","altim":1014,"clouds":[],"obsTime":1777406400},"SBSP":{"icaoId":"SBSP","flightCategory":"MVFR","rawOb":"METAR SBSP 282000Z 16009KT 9000 -DZ SCT008 BKN011 BKN091 21/19 Q1019","temp":21,"dewp":19,"wdir":160,"wspd":9,"visib":5.59,"altim":1019,"clouds":[{"cover":"SCT","base":800},{"cover":"BKN","base":1100},{"cover":"BKN","base":9100}],"obsTime":1777406400},"SBCF":{"icaoId":"SBCF","flightCategory":"VFR","rawOb":"METAR SBCF 282000Z 12007KT 9999 FEW045 27/17 Q1018","temp":27,"dewp":17,"wdir":120,"wspd":7,"visib":"6+","altim":1018,"clouds":[{"cover":"FEW","base":4500}],"obsTime":1777406400},"SBCG":{"icaoId":"SBCG","flightCategory":"VFR","rawOb":"METAR SBCG 282000Z 28003KT 250V310 9999 FEW030 FEW035TCU 27/22 Q1013","temp":27,"dewp":22,"wdir":280,"wspd":3,"visib":"6+","altim":1013,"clouds":[{"cover":"FEW","base":3000},{"cover":"FEW","base":3500}],"obsTime":1777406400},"SBSN":{"icaoId":"SBSN","flightCategory":"VFR","rawOb":"METAR SBSN 282000Z 08005KT 9999 FEW020 FEW025TCU 30/24 Q1008","temp":30,"dewp":24,"wdir":80,"wspd":5,"visib":"6+","altim":1008,"clouds":[{"cover":"FEW","base":2000},{"cover":"FEW","base":2500}],"obsTime":1777406400},"SBCP":{"icaoId":"SBCP","flightCategory":"VFR","rawOb":"METAR SBCP 282000Z 11007KT 9999 FEW020 28/22 Q1014","temp":28,"dewp":22,"wdir":110,"wspd":7,"visib":"6+","altim":1014,"clouds":[{"cover":"FEW","base":2000}],"obsTime":1777406400},"SBSL":{"icaoId":"SBSL","flightCategory":"MVFR","rawOb":"METAR SBSL 282000Z 18005KT 150V210 9999 VCSH BKN020 FEW025TCU 25/24 Q1010","temp":25,"dewp":24,"wdir":180,"wspd":5,"visib":"6+","altim":1010,"clouds":[{"cover":"BKN","base":2000},{"cover":"FEW","base":2500}],"obsTime":1777406400},"SBSG":{"icaoId":"SBSG","flightCategory":"VFR","rawOb":"METAR SBSG 282000Z 12005KT 9999 VCSH SCT020 FEW025TCU SCT090 27/24 Q1011","temp":27,"dewp":24,"wdir":120,"wspd":5,"visib":"6+","altim":1011,"clouds":[{"cover":"SCT","base":2000},{"cover":"FEW","base":2500},{"cover":"SCT","base":9000}],"obsTime":1777406400},"SBCR":{"icaoId":"SBCR","flightCategory":"MVFR","rawOb":"METAR SBCR 282000Z 08004KT 020V130 9999 BKN030 29/22 Q1010","temp":29,"dewp":22,"wdir":80,"wspd":4,"visib":"6+","altim":1010,"clouds":[{"cover":"BKN","base":3000}],"obsTime":1777406400},"SBCT":{"icaoId":"SBCT","flightCategory":"IFR","rawOb":"METAR SBCT 282000Z 10004KT 6000 -RA BKN005 OVC009 15/15 Q1019","temp":15,"dewp":15,"wdir":100,"wspd":4,"visib":3.73,"altim":1019,"clouds":[{"cover":"BKN","base":500},{"cover":"OVC","base":900}],"obsTime":1777406400},"SBRF":{"icaoId":"SBRF","flightCategory":"VFR","rawOb":"METAR SBRF 282000Z 12009KT 9999 VCSH SCT020 BKN050 28/25 Q1011","temp":28,"dewp":25,"wdir":120,"wspd":9,"visib":"6+","altim":1011,"clouds":[{"cover":"SCT","base":2000},{"cover":"BKN","base":5000}],"obsTime":1777406400},"SBCZ":{"icaoId":"SBCZ","flightCategory":"VFR","rawOb":"METAR SBCZ 282000Z 15005KT 9999 SCT015 FEW030TCU BKN090 27/25 Q1010","temp":27,"dewp":25,"wdir":150,"wspd":5,"visib":"6+","altim":1010,"clouds":[{"cover":"SCT","base":1500},{"cover":"FEW","base":3000},{"cover":"BKN","base":9000}],"obsTime":1777406400},"SBRB":{"icaoId":"SBRB","flightCategory":"MVFR","rawOb":"METAR SBRB 282000Z 06005KT 9999 BKN020 FEW030TCU BKN100 29/24 Q1009","temp":29,"dewp":24,"wdir":60,"wspd":5,"visib":"6+","altim":1009,"clouds":[{"cover":"BKN","base":2000},{"cover":"FEW","base":3000},{"cover":"BKN","base":10000}],"obsTime":1777406400},"SBEG":{"icaoId":"SBEG","flightCategory":"VFR","rawOb":"METAR SBEG 282000Z 32003KT 9999 VCSH SCT030 FEW035TCU SCT080 28/26 Q1008","temp":28,"dewp":26,"wdir":320,"wspd":3,"visib":"6+","altim":1008,"clouds":[{"cover":"SCT","base":3000},{"cover":"FEW","base":3500},{"cover":"SCT","base":8000}],"obsTime":1777406400},"SBPV":{"icaoId":"SBPV","flightCategory":"VFR","rawOb":"METAR SBPV 282000Z 34003KT 9999 SCT025 FEW030TCU 33/25 Q1007","temp":33,"dewp":25,"wdir":340,"wspd":3,"visib":"6+","altim":1007,"clouds":[{"cover":"SCT","base":2500},{"cover":"FEW","base":3000}],"obsTime":1777406400},"SBPJ":{"icaoId":"SBPJ","flightCategory":"VFR","rawOb":"METAR SBPJ 282000Z 34006KT 9999 VCSH FEW030 FEW033TCU SCT070 31/24 Q1010","temp":31,"dewp":24,"wdir":340,"wspd":6,"visib":"6+","altim":1010,"clouds":[{"cover":"FEW","base":3000},{"cover":"FEW","base":3300},{"cover":"SCT","base":7000}],"obsTime":1777406400},"SBFI":{"icaoId":"SBFI","flightCategory":"VFR","rawOb":"METAR SBFI 282000Z 36004KT 9999 VCSH FEW040TCU OVC100 19/16 Q1014","temp":19,"dewp":16,"wdir":360,"wspd":4,"visib":"6+","altim":1014,"clouds":[{"cover":"FEW","base":4000},{"cover":"OVC","base":10000}],"obsTime":1777406400},"SBPA":{"icaoId":"SBPA","flightCategory":"VFR","rawOb":"METAR SBPA 282000Z 27004KT 190V320 CAVOK 19/06 Q1016","temp":19,"dewp":6,"wdir":270,"wspd":4,"visib":"6+","altim":1016,"clouds":[],"obsTime":1777406400},"SBFL":{"icaoId":"SBFL","flightCategory":"VFR","rawOb":"METAR SBFL 282000Z 11006KT 9999 BKN043 20/13 Q1017","temp":20,"dewp":13,"wdir":110,"wspd":6,"visib":"6+","altim":1017,"clouds":[{"cover":"BKN","base":4300}],"obsTime":1777406400},"SBFZ":{"icaoId":"SBFZ","flightCategory":"VFR","rawOb":"METAR SBFZ 282000Z 09006KT 060V120 9999 SCT021 FEW025TCU 28/24 Q1010","temp":28,"dewp":24,"wdir":90,"wspd":6,"visib":"6+","altim":1010,"clouds":[{"cover":"SCT","base":2100},{"cover":"FEW","base":2500}],"obsTime":1777406400},"SBNT":{"icaoId":"SBNT","flightCategory":"MVFR","rawOb":"METAR SBNT 282000Z 13009KT 090V150 9999 VCSH SCT018 BKN020 28/24 Q1011","temp":28,"dewp":24,"wdir":130,"wspd":9,"visib":"6+","altim":1011,"clouds":[{"cover":"SCT","base":1800},{"cover":"BKN","base":2000}],"obsTime":1777406400},"SBGL":{"icaoId":"SBGL","flightCategory":"VFR","rawOb":"METAR SBGL 282000Z 14008KT 9999 FEW033 27/23 Q1013","temp":27,"dewp":23,"wdir":140,"wspd":8,"visib":"6+","altim":1013,"clouds":[{"cover":"FEW","base":3300}],"obsTime":1777406400},"SBMQ":{"icaoId":"SBMQ","flightCategory":"VFR","rawOb":"METAR SBMQ 282000Z 07009KT 9999 FEW030 FEW035TCU 31/25 Q1009","temp":31,"dewp":25,"wdir":70,"wspd":9,"visib":"6+","altim":1009,"clouds":[{"cover":"FEW","base":3000},{"cover":"FEW","base":3500}],"obsTime":1777406400},"SBMO":{"icaoId":"SBMO","flightCategory":"VFR","rawOb":"METAR SBMO 282000Z 09006KT 9999 FEW020 SCT030 BKN070 26/24 Q1012","temp":26,"dewp":24,"wdir":90,"wspd":6,"visib":"6+","altim":1012,"clouds":[{"cover":"FEW","base":2000},{"cover":"SCT","base":3000},{"cover":"BKN","base":7000}],"obsTime":1777406400},"SBGO":{"icaoId":"SBGO","flightCategory":"VFR","rawOb":"METAR SBGO 282000Z 09007KT CAVOK 31/16 Q1015","temp":31,"dewp":16,"wdir":90,"wspd":7,"visib":"6+","altim":1015,"clouds":[],"obsTime":1777406400},"SBMK":{"icaoId":"SBMK","flightCategory":"VFR","rawOb":"METAR SBMK 282000Z 08006KT 9999 FEW040 29/15 Q1016","temp":29,"dewp":15,"wdir":80,"wspd":6,"visib":"6+","altim":1016,"clouds":[{"cover":"FEW","base":4000}],"obsTime":1777406400},"SBMG":{"icaoId":"SBMG","flightCategory":"MVFR","rawOb":"METAR SBMG 282000Z 17006KT 9999 FEW005 BKN014 BKN040 22/21 Q1014","temp":22,"dewp":21,"wdir":170,"wspd":6,"visib":"6+","altim":1014,"clouds":[{"cover":"FEW","base":500},{"cover":"BKN","base":1400},{"cover":"BKN","base":4000}],"obsTime":1777406400},"SBGR":{"icaoId":"SBGR","flightCategory":"IFR","rawOb":"SPECI SBGR 281947Z 18008KT 9999 BKN009 OVC080 22/21 Q1017","temp":22,"dewp":21,"wdir":180,"wspd":8,"visib":"6+","altim":1017,"clouds":[{"cover":"BKN","base":900},{"cover":"OVC","base":8000}],"obsTime":1777405620},"SBME":{"icaoId":"SBME","flightCategory":"VFR","rawOb":"METAR SBME 282000Z 16003KT 9999 FEW030 27/23 Q1013","temp":27,"dewp":23,"wdir":160,"wspd":3,"visib":"6+","altim":1013,"clouds":[{"cover":"FEW","base":3000}],"obsTime":1777406400},"SBHT":{"icaoId":"SBHT","flightCategory":"MVFR","rawOb":"METAR SBHT 282000Z 10005KT 9999 BKN025 31/25 Q1008","temp":31,"dewp":25,"wdir":100,"wspd":5,"visib":"6+","altim":1008,"clouds":[{"cover":"BKN","base":2500}],"obsTime":1777406400},"SBIL":{"icaoId":"SBIL","flightCategory":"VFR","rawOb":"METAR SBIL 282000Z 16005KT 9999 FEW020 28/23 Q1014","temp":28,"dewp":23,"wdir":160,"wspd":5,"visib":"6+","altim":1014,"clouds":[{"cover":"FEW","base":2000}],"obsTime":1777406400},"SBMA":{"icaoId":"SBMA","flightCategory":"VFR","rawOb":"METAR SBMA 282000Z 36004KT 9999 SCT020 FEW025TCU SCT100 28/23 Q1009","temp":28,"dewp":23,"wdir":360,"wspd":4,"visib":"6+","altim":1009,"clouds":[{"cover":"SCT","base":2000},{"cover":"FEW","base":2500},{"cover":"SCT","base":10000}],"obsTime":1777406400},"SBJU":{"icaoId":"SBJU","flightCategory":"MVFR","rawOb":"METAR SBJU 282000Z 05004KT 9999 BKN020 29/23 Q1012","temp":29,"dewp":23,"wdir":50,"wspd":4,"visib":"6+","altim":1012,"clouds":[{"cover":"BKN","base":2000}],"obsTime":1777406400},"SBLO":{"icaoId":"SBLO","flightCategory":"MVFR","rawOb":"METAR SBLO 282000Z 36004KT 9999 BKN025 BKN090 24/21 Q1015","temp":24,"dewp":21,"wdir":360,"wspd":4,"visib":"6+","altim":1015,"clouds":[{"cover":"BKN","base":2500},{"cover":"BKN","base":9000}],"obsTime":1777406400},"SBAT":{"icaoId":"SBAT","flightCategory":"VFR","rawOb":"METAR SBAT 282000Z 02002KT 9999 FEW030 30/24 Q1010","temp":30,"dewp":24,"wdir":20,"wspd":2,"visib":"6+","altim":1010,"clouds":[{"cover":"FEW","base":3000}],"obsTime":1777406400},"SBAR":{"icaoId":"SBAR","flightCategory":"IFR","rawOb":"METAR SBAR 282000Z 14007KT 5000 -RA BKN007 BKN017 FEW030TCU 25/25 Q1012 RERA","temp":25,"dewp":25,"wdir":140,"wspd":7,"visib":3.11,"altim":1012,"clouds":[{"cover":"BKN","base":700},{"cover":"BKN","base":1700},{"cover":"FEW","base":3000}],"obsTime":1777406400},"SBAX":{"icaoId":"SBAX","flightCategory":"VFR","rawOb":"METAR SBAX 282000Z 03005KT 9999 SCT020 28/16 Q1018","temp":28,"dewp":16,"wdir":30,"wspd":5,"visib":"6+","altim":1018,"clouds":[{"cover":"SCT","base":2000}],"obsTime":1777406400},"SBBH":{"icaoId":"SBBH","flightCategory":"VFR","rawOb":"METAR SBBH 282000Z 07005KT 9999 FEW049 28/17 Q1017","temp":28,"dewp":17,"wdir":70,"wspd":5,"visib":"6+","altim":1017,"clouds":[{"cover":"FEW","base":4900}],"obsTime":1777406400},"SBBU":{"icaoId":"SBBU","flightCategory":"VFR","rawOb":"METAR SBBU 282000Z 25008KT 9999 FEW040 30/20 Q1015","temp":30,"dewp":20,"wdir":250,"wspd":8,"visib":"6+","altim":1015,"clouds":[{"cover":"FEW","base":4000}],"obsTime":1777406400},"SBCA":{"icaoId":"SBCA","flightCategory":"IFR","rawOb":"METAR SBCA 282000Z 22003KT 4000 -RA BR BKN005 FEW050TCU BKN100 19/18 Q1016","temp":19,"dewp":18,"wdir":220,"wspd":3,"visib":2.49,"altim":1016,"clouds":[{"cover":"BKN","base":500},{"cover":"FEW","base":5000},{"cover":"BKN","base":10000}],"obsTime":1777406400},"SBCJ":{"icaoId":"SBCJ","flightCategory":"VFR","rawOb":"METAR SBCJ 282000Z 13006KT 9999 VCSH SCT012 FEW025TCU BKN090 24/21 Q1014","temp":24,"dewp":21,"wdir":130,"wspd":6,"visib":"6+","altim":1014,"clouds":[{"cover":"SCT","base":1200},{"cover":"FEW","base":2500},{"cover":"BKN","base":9000}],"obsTime":1777406400},"SBCO":{"icaoId":"SBCO","flightCategory":"VFR","rawOb":"METAR SBCO 282000Z 23004KT CAVOK 19/06 Q1017","temp":19,"dewp":6,"wdir":230,"wspd":4,"visib":"6+","altim":1017,"clouds":[],"obsTime":1777406400},"SBDN":{"icaoId":"SBDN","flightCategory":"VFR","rawOb":"METAR SBDN 282000Z 20002KT 9999 SCT026 27/21 Q1014","temp":27,"dewp":21,"wdir":200,"wspd":2,"visib":"6+","altim":1014,"clouds":[{"cover":"SCT","base":2600}],"obsTime":1777406400},"SBES":{"icaoId":"SBES","flightCategory":"VFR","rawOb":"METAR SBES 282000Z 14005KT 110V170 9999 FEW040 27/// Q1014","temp":null,"dewp":null,"wdir":140,"wspd":5,"visib":"6+","altim":1014,"clouds":[{"cover":"FEW","base":4000}],"obsTime":1777406400},"SBIP":{"icaoId":"SBIP","flightCategory":"VFR","rawOb":"METAR SBIP 282000Z AUTO 34002KT CAVOK 30/19 Q1014","temp":30,"dewp":19,"wdir":340,"wspd":2,"visib":"6+","altim":1014,"clouds":[],"obsTime":1777406400},"SBKG":{"icaoId":"SBKG","flightCategory":"MVFR","rawOb":"METAR SBKG 282000Z 12005KT 9999 BKN015 SCT080 23/22 Q1014","temp":23,"dewp":22,"wdir":120,"wspd":5,"visib":"6+","altim":1014,"clouds":[{"cover":"BKN","base":1500},{"cover":"SCT","base":8000}],"obsTime":1777406400},"SBOI":{"icaoId":"SBOI","flightCategory":"VFR","rawOb":"METAR SBOI 282000Z AUTO 07007KT 020V150 CAVOK 29/24 Q1010","temp":29,"dewp":24,"wdir":70,"wspd":7,"visib":"6+","altim":1010,"clouds":[],"obsTime":1777406400},"SBPB":{"icaoId":"SBPB","flightCategory":"MVFR","rawOb":"METAR SBPB 282000Z 15004KT 9999 BKN018 OVC100 27/24 Q1009","temp":27,"dewp":24,"wdir":150,"wspd":4,"visib":"6+","altim":1009,"clouds":[{"cover":"BKN","base":1800},{"cover":"OVC","base":10000}],"obsTime":1777406400},"SBPL":{"icaoId":"SBPL","flightCategory":"VFR","rawOb":"METAR SBPL 282000Z 15006KT CAVOK 33/16 Q1011","temp":33,"dewp":16,"wdir":150,"wspd":6,"visib":"6+","altim":1011,"clouds":[],"obsTime":1777406400},"SBPP":{"icaoId":"SBPP","flightCategory":"MVFR","rawOb":"METAR SBPP 282000Z 29004KT 9999 BKN015 21/19 Q1015","temp":21,"dewp":19,"wdir":290,"wspd":4,"visib":"6+","altim":1015,"clouds":[{"cover":"BKN","base":1500}],"obsTime":1777406400},"SBPS":{"icaoId":"SBPS","flightCategory":"VFR","rawOb":"METAR SBPS 282000Z 06004KT 9999 SCT025 27/23 Q1014","temp":27,"dewp":23,"wdir":60,"wspd":4,"visib":"6+","altim":1014,"clouds":[{"cover":"SCT","base":2500}],"obsTime":1777406400},"SBSC":{"icaoId":"SBSC","flightCategory":"MVFR","rawOb":"METAR SBSC 282000Z 14006KT 9999 SCT020 BKN029 BKN050 27/23 Q1013","temp":27,"dewp":23,"wdir":140,"wspd":6,"visib":"6+","altim":1013,"clouds":[{"cover":"SCT","base":2000},{"cover":"BKN","base":2900},{"cover":"BKN","base":5000}],"obsTime":1777406400},"SBSJ":{"icaoId":"SBSJ","flightCategory":"MVFR","rawOb":"METAR SBSJ 282000Z 22003KT 180V240 5000 HZ FEW030 SCT100 27/21 Q1016","temp":27,"dewp":21,"wdir":220,"wspd":3,"visib":3.11,"altim":1016,"clouds":[{"cover":"FEW","base":3000},{"cover":"SCT","base":10000}],"obsTime":1777406400},"SBSM":{"icaoId":"SBSM","flightCategory":"VFR","rawOb":"METAR SBSM 282000Z VRB01KT CAVOK 18/08 Q1016","temp":18,"dewp":8,"wdir":"VRB","wspd":1,"visib":"6+","altim":1016,"clouds":[],"obsTime":1777406400},"SBSR":{"icaoId":"SBSR","flightCategory":"VFR","rawOb":"METAR SBSR 282000Z 28003KT 9999 FEW040 FEW045TCU SCT080 30/17 Q1014","temp":30,"dewp":17,"wdir":280,"wspd":3,"visib":"6+","altim":1014,"clouds":[{"cover":"FEW","base":4000},{"cover":"FEW","base":4500},{"cover":"SCT","base":8000}],"obsTime":1777406400},"SBTF":{"icaoId":"SBTF","flightCategory":"VFR","rawOb":"METAR SBTF 282000Z 05008KT 9999 SCT020 BKN080 32/25 Q1008","temp":32,"dewp":25,"wdir":50,"wspd":8,"visib":"6+","altim":1008,"clouds":[{"cover":"SCT","base":2000},{"cover":"BKN","base":8000}],"obsTime":1777406400},"SBTT":{"icaoId":"SBTT","flightCategory":"VFR","rawOb":"METAR SBTT 282000Z 32004KT 9999 SCT015 27/22 Q1010","temp":27,"dewp":22,"wdir":320,"wspd":4,"visib":"6+","altim":1010,"clouds":[{"cover":"SCT","base":1500}],"obsTime":1777406400},"SBUY":{"icaoId":"SBUY","flightCategory":"VFR","rawOb":"METAR SBUY 282000Z 23002KT 9999 SCT025 FEW030TCU 31/26 Q1006","temp":31,"dewp":26,"wdir":230,"wspd":2,"visib":"6+","altim":1006,"clouds":[{"cover":"SCT","base":2500},{"cover":"FEW","base":3000}],"obsTime":1777406400},"SBVH":{"icaoId":"SBVH","flightCategory":"VFR","rawOb":"METAR SBVH 282000Z 36005KT 9999 VCSH SCT035 SCT100 28/22 Q1012","temp":28,"dewp":22,"wdir":360,"wspd":5,"visib":"6+","altim":1012,"clouds":[{"cover":"SCT","base":3500},{"cover":"SCT","base":10000}],"obsTime":1777406400},"SBCC":{"icaoId":"SBCC","flightCategory":"VFR","rawOb":"METAR SBCC 282000Z 02005KT 9999 SCT020 BKN080 27/23 Q1011","temp":27,"dewp":23,"wdir":20,"wspd":5,"visib":"6+","altim":1011,"clouds":[{"cover":"SCT","base":2000},{"cover":"BKN","base":8000}],"obsTime":1777406400},"SBJP":{"icaoId":"SBJP","flightCategory":"VFR","rawOb":"METAR SBJP 282000Z 07008KT 9999 FEW020 BKN070 27/24 Q1011","temp":27,"dewp":24,"wdir":70,"wspd":8,"visib":"6+","altim":1011,"clouds":[{"cover":"FEW","base":2000},{"cover":"BKN","base":7000}],"obsTime":1777406400},"SBST":{"icaoId":"SBST","flightCategory":"IFR","rawOb":"METAR SBST 282000Z /////KT 2000 -DZ BR FEW006 OVC011 ///// Q1014","temp":null,"dewp":null,"wdir":null,"wspd":null,"visib":1.24,"altim":1014,"clouds":[{"cover":"FEW","base":600},{"cover":"OVC","base":1100}],"obsTime":1777406400},"SBTA":{"icaoId":"SBTA","flightCategory":"MVFR","rawOb":"METAR SBTA 282000Z 34005KT 300V010 8000 -RA BKN035 FEW040TCU BKN070 25/21 Q1015","temp":25,"dewp":21,"wdir":340,"wspd":5,"visib":4.97,"altim":1015,"clouds":[{"cover":"BKN","base":3500},{"cover":"FEW","base":4000},{"cover":"BKN","base":7000}],"obsTime":1777406400},"SBAN":{"icaoId":"SBAN","flightCategory":"VFR","rawOb":"METAR SBAN 282000Z 16006KT 9999 FEW040 27/17 Q1018","temp":27,"dewp":17,"wdir":160,"wspd":6,"visib":"6+","altim":1018,"clouds":[{"cover":"FEW","base":4000}],"obsTime":1777406400},"SBJV":{"icaoId":"SBJV","flightCategory":"IFR","rawOb":"METAR SBJV 282000Z 35003KT 4000 -RA SCT010 BKN030 17/17 Q1017 RERA","temp":17,"dewp":17,"wdir":350,"wspd":3,"visib":2.49,"altim":1017,"clouds":[{"cover":"SCT","base":1000},{"cover":"BKN","base":3000}],"obsTime":1777406400},"SBNM":{"icaoId":"SBNM","flightCategory":"VFR","rawOb":"METAR SBNM 282100Z 17002KT CAVOK 19/08 Q1016","temp":19,"dewp":8,"wdir":170,"wspd":2,"visib":"6+","altim":1016,"clouds":[],"obsTime":1777410000},"SBPF":{"icaoId":"SBPF","flightCategory":"VFR","rawOb":"METAR SBPF 282000Z 22005KT CAVOK 19/02 Q1017","temp":19,"dewp":2,"wdir":220,"wspd":5,"visib":"6+","altim":1017,"clouds":[],"obsTime":1777406400},"SBIH":{"icaoId":"SBIH","flightCategory":"VFR","rawOb":"METAR SBIH 282000Z 01002KT 9999 FEW020 FEW025TCU 33/25 Q1007","temp":33,"dewp":25,"wdir":10,"wspd":2,"visib":"6+","altim":1007,"clouds":[{"cover":"FEW","base":2000},{"cover":"FEW","base":2500}],"obsTime":1777406400},"SBLE":{"icaoId":"SBLE","flightCategory":"VFR","rawOb":"METAR SBLE 282000Z AUTO 19003KT 160V230 CAVOK 27/19 Q1015","temp":27,"dewp":19,"wdir":190,"wspd":3,"visib":"6+","altim":1015,"clouds":[],"obsTime":1777406400},"SBAF":{"icaoId":"SBAF","flightCategory":"VFR","rawOb":"METAR SBAF 282000Z 20007KT 9999 FEW015 SCT025 27/26 Q1013","temp":27,"dewp":26,"wdir":200,"wspd":7,"visib":"6+","altim":1013,"clouds":[{"cover":"FEW","base":1500},{"cover":"SCT","base":2500}],"obsTime":1777406400},"SBGW":{"icaoId":"SBGW","flightCategory":"VFR","rawOb":"METAR SBGW 282000Z 02003KT 340V060 9999 SCT035 BKN100 27/18 Q1015","temp":27,"dewp":18,"wdir":20,"wspd":3,"visib":"6+","altim":1015,"clouds":[{"cover":"SCT","base":3500},{"cover":"BKN","base":10000}],"obsTime":1777406400},"SBJR":{"icaoId":"SBJR","flightCategory":"VFR","rawOb":"METAR SBJR 282000Z 15006KT 9999 FEW015 SCT020 28/23 Q1013","temp":28,"dewp":23,"wdir":150,"wspd":6,"visib":"6+","altim":1013,"clouds":[{"cover":"FEW","base":1500},{"cover":"SCT","base":2000}],"obsTime":1777406400},"SBLS":{"icaoId":"SBLS","flightCategory":"VFR","rawOb":"METAR SBLS 282000Z 13007KT 070V130 9999 FEW048 27/17 Q1018","temp":27,"dewp":17,"wdir":130,"wspd":7,"visib":"6+","altim":1018,"clouds":[{"cover":"FEW","base":4800}],"obsTime":1777406400},"SBMT":{"icaoId":"SBMT","flightCategory":"IFR","rawOb":"METAR SBMT 282000Z 16007KT 4000 BR BKN015 BKN025 22/19 Q1017","temp":22,"dewp":19,"wdir":160,"wspd":7,"visib":2.49,"altim":1017,"clouds":[{"cover":"BKN","base":1500},{"cover":"BKN","base":2500}],"obsTime":1777406400}}}