{"updated":1777831611,"count":85,"data":{"SBCZ":{"icaoId":"SBCZ","flightCategory":"VFR","rawOb":"METAR SBCZ 031700Z 15006KT 9999 SCT018 SCT100 30/25 Q1014","temp":30,"dewp":25,"wdir":150,"wspd":6,"visib":"6+","altim":1014,"clouds":[{"cover":"SCT","base":1800},{"cover":"SCT","base":10000}],"obsTime":1777827600},"SBBE":{"icaoId":"SBBE","flightCategory":"VFR","rawOb":"METAR SBBE 031700Z 34005KT 9999 SCT027 BKN032 FEW033TCU 29/25 Q1010","temp":29,"dewp":25,"wdir":340,"wspd":5,"visib":"6+","altim":1010,"clouds":[{"cover":"SCT","base":2700},{"cover":"BKN","base":3200},{"cover":"FEW","base":3300}],"obsTime":1777827600},"SBBR":{"icaoId":"SBBR","flightCategory":"VFR","rawOb":"METAR SBBR 031700Z 13009KT 080V180 9999 SCT040 27/14 Q1018","temp":27,"dewp":14,"wdir":130,"wspd":9,"visib":"6+","altim":1018,"clouds":[{"cover":"SCT","base":4000}],"obsTime":1777827600},"SBBV":{"icaoId":"SBBV","flightCategory":"MVFR","rawOb":"METAR SBBV 031700Z 09012G24KT 9999 4000W -RA BKN030 FEW040TCU BKN080 27/25 Q1012","temp":27,"dewp":25,"wdir":90,"wspd":12,"visib":"6+","altim":1012,"clouds":[{"cover":"BKN","base":3000},{"cover":"FEW","base":4000},{"cover":"BKN","base":8000}],"obsTime":1777827600},"SBCB":{"icaoId":"SBCB","flightCategory":"MVFR","rawOb":"METAR SBCB 031700Z 19012KT 8000 BKN015 OVC040 26/18 Q1018","temp":26,"dewp":18,"wdir":190,"wspd":12,"visib":4.97,"altim":1018,"clouds":[{"cover":"BKN","base":1500},{"cover":"OVC","base":4000}],"obsTime":1777827600},"SBCF":{"icaoId":"SBCF","flightCategory":"VFR","rawOb":"METAR SBCF 031700Z 17009KT 9999 BKN040 28/15 Q1019","temp":28,"dewp":15,"wdir":170,"wspd":9,"visib":"6+","altim":1019,"clouds":[{"cover":"BKN","base":4000}],"obsTime":1777827600},"SBCG":{"icaoId":"SBCG","flightCategory":"VFR","rawOb":"METAR SBCG 031700Z 02005KT 9999 FEW030 30/16 Q1016","temp":30,"dewp":16,"wdir":20,"wspd":5,"visib":"6+","altim":1016,"clouds":[{"cover":"FEW","base":3000}],"obsTime":1777827600},"SBCP":{"icaoId":"SBCP","flightCategory":"VFR","rawOb":"METAR SBCP 031700Z 23015KT 9999 SCT020 BKN070 26/21 Q1017","temp":26,"dewp":21,"wdir":230,"wspd":15,"visib":"6+","altim":1017,"clouds":[{"cover":"SCT","base":2000},{"cover":"BKN","base":7000}],"obsTime":1777827600},"SBCR":{"icaoId":"SBCR","flightCategory":"VFR","rawOb":"METAR SBCR 031700Z 31008KT 280V340 9999 FEW020 SCT040 29/24 Q1014","temp":29,"dewp":24,"wdir":310,"wspd":8,"visib":"6+","altim":1014,"clouds":[{"cover":"FEW","base":2000},{"cover":"SCT","base":4000}],"obsTime":1777827600},"SBCT":{"icaoId":"SBCT","flightCategory":"IFR","rawOb":"METAR SBCT 031700Z 12009KT 9999 BKN007 OVC010 13/12 Q1024","temp":13,"dewp":12,"wdir":120,"wspd":9,"visib":"6+","altim":1024,"clouds":[{"cover":"BKN","base":700},{"cover":"OVC","base":1000}],"obsTime":1777827600},"SBEG":{"icaoId":"SBEG","flightCategory":"MVFR","rawOb":"SPECI SBEG 031617Z 15004KT 8000 -TSRA FEW005 FEW025CB BKN070 25/24 Q1012","temp":25,"dewp":24,"wdir":150,"wspd":4,"visib":4.97,"altim":1012,"clouds":[{"cover":"FEW","base":500},{"cover":"FEW","base":2500},{"cover":"BKN","base":7000}],"obsTime":1777825020},"SBFI":{"icaoId":"SBFI","flightCategory":"VFR","rawOb":"METAR SBFI 031700Z 07005KT 9999 FEW025 SCT100 24/19 Q1017","temp":24,"dewp":19,"wdir":70,"wspd":5,"visib":"6+","altim":1017,"clouds":[{"cover":"FEW","base":2500},{"cover":"SCT","base":10000}],"obsTime":1777827600},"SBFL":{"icaoId":"SBFL","flightCategory":"VFR","rawOb":"METAR SBFL 031700Z 17008KT CAVOK 21/08 Q1022","temp":21,"dewp":8,"wdir":170,"wspd":8,"visib":"6+","altim":1022,"clouds":[],"obsTime":1777827600},"SBFZ":{"icaoId":"SBFZ","flightCategory":"VFR","rawOb":"METAR SBFZ 031700Z 14008KT 090V190 9999 SCT025 31/24 Q1010","temp":31,"dewp":24,"wdir":140,"wspd":8,"visib":"6+","altim":1010,"clouds":[{"cover":"SCT","base":2500}],"obsTime":1777827600},"SBGL":{"icaoId":"SBGL","flightCategory":"VFR","rawOb":"METAR SBGL 031700Z VRB02KT 9999 FEW020 SCT030 OVC040 24/20 Q1019","temp":24,"dewp":20,"wdir":"VRB","wspd":2,"visib":"6+","altim":1019,"clouds":[{"cover":"FEW","base":2000},{"cover":"SCT","base":3000},{"cover":"OVC","base":4000}],"obsTime":1777827600},"SBGO":{"icaoId":"SBGO","flightCategory":"VFR","rawOb":"METAR SBGO 031700Z 07007KT 9999 SCT048 31/16 Q1016","temp":31,"dewp":16,"wdir":70,"wspd":7,"visib":"6+","altim":1016,"clouds":[{"cover":"SCT","base":4800}],"obsTime":1777827600},"SBGR":{"icaoId":"SBGR","flightCategory":"MVFR","rawOb":"METAR SBGR 031700Z 16007KT 9000 -DZ BKN010 OVC020 17/14 Q1023","temp":17,"dewp":14,"wdir":160,"wspd":7,"visib":5.59,"altim":1023,"clouds":[{"cover":"BKN","base":1000},{"cover":"OVC","base":2000}],"obsTime":1777827600},"SBKP":{"icaoId":"SBKP","flightCategory":"MVFR","rawOb":"METAR SBKP 031700Z 14015KT 9999 BKN025 22/15 Q1021","temp":22,"dewp":15,"wdir":140,"wspd":15,"visib":"6+","altim":1021,"clouds":[{"cover":"BKN","base":2500}],"obsTime":1777827600},"SBLO":{"icaoId":"SBLO","flightCategory":"VFR","rawOb":"METAR SBLO 031700Z 10010KT 9999 SCT022 25/18 Q1019","temp":25,"dewp":18,"wdir":100,"wspd":10,"visib":"6+","altim":1019,"clouds":[{"cover":"SCT","base":2200}],"obsTime":1777827600},"SBMA":{"icaoId":"SBMA","flightCategory":"MVFR","rawOb":"METAR SBMA 031700Z 05004KT 9999 BKN023TCU 32/24 Q1009","temp":32,"dewp":24,"wdir":50,"wspd":4,"visib":"6+","altim":1009,"clouds":[{"cover":"BKN","base":2300}],"obsTime":1777827600},"SBMO":{"icaoId":"SBMO","flightCategory":"VFR","rawOb":"METAR SBMO 031700Z 10008KT 9999 FEW027 BKN070 29/22 Q1012","temp":29,"dewp":22,"wdir":100,"wspd":8,"visib":"6+","altim":1012,"clouds":[{"cover":"FEW","base":2700},{"cover":"BKN","base":7000}],"obsTime":1777827600},"SBMQ":{"icaoId":"SBMQ","flightCategory":"MVFR","rawOb":"METAR SBMQ 031700Z 01007KT 9999 BKN023 SCT077 31/25 Q1010","temp":31,"dewp":25,"wdir":10,"wspd":7,"visib":"6+","altim":1010,"clouds":[{"cover":"BKN","base":2300},{"cover":"SCT","base":7700}],"obsTime":1777827600},"SBNT":{"icaoId":"SBNT","flightCategory":"VFR","rawOb":"METAR SBNT 031700Z 16008KT 130V200 9999 SCT040 BKN100 30/24 Q1011","temp":30,"dewp":24,"wdir":160,"wspd":8,"visib":"6+","altim":1011,"clouds":[{"cover":"SCT","base":4000},{"cover":"BKN","base":10000}],"obsTime":1777827600},"SBPA":{"icaoId":"SBPA","flightCategory":"VFR","rawOb":"METAR SBPA 031700Z VRB04KT CAVOK 18/09 Q1022","temp":18,"dewp":9,"wdir":"VRB","wspd":4,"visib":"6+","altim":1022,"clouds":[],"obsTime":1777827600},"SBPJ":{"icaoId":"SBPJ","flightCategory":"VFR","rawOb":"METAR SBPJ 031700Z 11009KT 9999 SCT045 34/21 Q1012","temp":34,"dewp":21,"wdir":110,"wspd":9,"visib":"6+","altim":1012,"clouds":[{"cover":"SCT","base":4500}],"obsTime":1777827600},"SBPV":{"icaoId":"SBPV","flightCategory":"VFR","rawOb":"METAR SBPV 031700Z COR 12011KT 9999 SCT035 33/25 Q1010","temp":33,"dewp":25,"wdir":120,"wspd":11,"visib":"6+","altim":1010,"clouds":[{"cover":"SCT","base":3500}],"obsTime":1777827600},"SBRB":{"icaoId":"SBRB","flightCategory":"VFR","rawOb":"METAR SBRB 031700Z 08006KT 9999 VCSH SCT025 FEW030TCU 32/24 Q1013","temp":32,"dewp":24,"wdir":80,"wspd":6,"visib":"6+","altim":1013,"clouds":[{"cover":"SCT","base":2500},{"cover":"FEW","base":3000}],"obsTime":1777827600},"SBRF":{"icaoId":"SBRF","flightCategory":"VFR","rawOb":"METAR SBRF 031700Z 15009KT 110V180 9999 FEW020 FEW025TCU 29/23 Q1012","temp":29,"dewp":23,"wdir":150,"wspd":9,"visib":"6+","altim":1012,"clouds":[{"cover":"FEW","base":2000},{"cover":"FEW","base":2500}],"obsTime":1777827600},"SBSG":{"icaoId":"SBSG","flightCategory":"MVFR","rawOb":"METAR SBSG 031700Z 15007KT 090V210 9999 BKN021 28/24 Q1011","temp":28,"dewp":24,"wdir":150,"wspd":7,"visib":"6+","altim":1011,"clouds":[{"cover":"BKN","base":2100}],"obsTime":1777827600},"SBSL":{"icaoId":"SBSL","flightCategory":"MVFR","rawOb":"METAR SBSL 031700Z 08013KT 060V120 9999 VCSH SCT015 BKN020 FEW025TCU 26/24 Q1011","temp":26,"dewp":24,"wdir":80,"wspd":13,"visib":"6+","altim":1011,"clouds":[{"cover":"SCT","base":1500},{"cover":"BKN","base":2000},{"cover":"FEW","base":2500}],"obsTime":1777827600},"SBSN":{"icaoId":"SBSN","flightCategory":"VFR","rawOb":"METAR SBSN 031700Z 09012KT 9999 VCSH SCT020 FEW025TCU 30/25 Q1010","temp":30,"dewp":25,"wdir":90,"wspd":12,"visib":"6+","altim":1010,"clouds":[{"cover":"SCT","base":2000},{"cover":"FEW","base":2500}],"obsTime":1777827600},"SBSP":{"icaoId":"SBSP","flightCategory":"MVFR","rawOb":"METAR SBSP 031700Z 14012KT 9999 BKN011 18/14 Q1024","temp":18,"dewp":14,"wdir":140,"wspd":12,"visib":"6+","altim":1024,"clouds":[{"cover":"BKN","base":1100}],"obsTime":1777827600},"SBSV":{"icaoId":"SBSV","flightCategory":"VFR","rawOb":"METAR SBSV 031700Z 15007KT 100V200 9999 SCT025 30/22 Q1013","temp":30,"dewp":22,"wdir":150,"wspd":7,"visib":"6+","altim":1013,"clouds":[{"cover":"SCT","base":2500}],"obsTime":1777827600},"SBTE":{"icaoId":"SBTE","flightCategory":"MVFR","rawOb":"METAR SBTE 031700Z 06011KT 9999 BKN025 FEW030TCU 30/23 Q1010","temp":30,"dewp":23,"wdir":60,"wspd":11,"visib":"6+","altim":1010,"clouds":[{"cover":"BKN","base":2500},{"cover":"FEW","base":3000}],"obsTime":1777827600},"SBVT":{"icaoId":"SBVT","flightCategory":"VFR","rawOb":"METAR SBVT 031700Z 19016KT 9999 FEW040 SCT080 29/21 Q1016","temp":29,"dewp":21,"wdir":190,"wspd":16,"visib":"6+","altim":1016,"clouds":[{"cover":"FEW","base":4000},{"cover":"SCT","base":8000}],"obsTime":1777827600},"SBHT":{"icaoId":"SBHT","flightCategory":"MVFR","rawOb":"METAR SBHT 031700Z 06008KT 9999 BKN025 32/25 Q1010","temp":32,"dewp":25,"wdir":60,"wspd":8,"visib":"6+","altim":1010,"clouds":[{"cover":"BKN","base":2500}],"obsTime":1777827600},"SBIL":{"icaoId":"SBIL","flightCategory":"VFR","rawOb":"METAR SBIL 031700Z 15005KT 100V190 CAVOK 30/25 Q1014","temp":30,"dewp":25,"wdir":150,"wspd":5,"visib":"6+","altim":1014,"clouds":[],"obsTime":1777827600},"SBJU":{"icaoId":"SBJU","flightCategory":"VFR","rawOb":"METAR SBJU 031700Z 12007KT 9999 FEW022 29/21 Q1013","temp":29,"dewp":21,"wdir":120,"wspd":7,"visib":"6+","altim":1013,"clouds":[{"cover":"FEW","base":2200}],"obsTime":1777827600},"SBUR":{"icaoId":"SBUR","flightCategory":"VFR","rawOb":"METAR SBUR 031700Z 12005KT 9999 SCT049 28/14 Q1018","temp":28,"dewp":14,"wdir":120,"wspd":5,"visib":"6+","altim":1018,"clouds":[{"cover":"SCT","base":4900}],"obsTime":1777827600},"SBME":{"icaoId":"SBME","flightCategory":"MVFR","rawOb":"METAR SBME 031700Z 25007KT 8000 BKN010 OVC080 24/22 Q1018","temp":24,"dewp":22,"wdir":250,"wspd":7,"visib":4.97,"altim":1018,"clouds":[{"cover":"BKN","base":1000},{"cover":"OVC","base":8000}],"obsTime":1777827600},"SBMG":{"icaoId":"SBMG","flightCategory":"VFR","rawOb":"METAR SBMG 031700Z 36004KT 330V040 9999 FEW030 BKN080 25/18 Q1017","temp":25,"dewp":18,"wdir":360,"wspd":4,"visib":"6+","altim":1017,"clouds":[{"cover":"FEW","base":3000},{"cover":"BKN","base":8000}],"obsTime":1777827600},"SBMK":{"icaoId":"SBMK","flightCategory":"VFR","rawOb":"METAR SBMK 031700Z 08005KT 9999 SCT040 31/15 Q1016","temp":31,"dewp":15,"wdir":80,"wspd":5,"visib":"6+","altim":1016,"clouds":[{"cover":"SCT","base":4000}],"obsTime":1777827600},"SBAT":{"icaoId":"SBAT","flightCategory":"VFR","rawOb":"METAR SBAT 031700Z 13009KT 9999 SCT035 33/22 Q1012","temp":33,"dewp":22,"wdir":130,"wspd":9,"visib":"6+","altim":1012,"clouds":[{"cover":"SCT","base":3500}],"obsTime":1777827600},"SBUL":{"icaoId":"SBUL","flightCategory":"VFR","rawOb":"METAR SBUL 031700Z 13006KT CAVOK 28/12 Q1019","temp":28,"dewp":12,"wdir":130,"wspd":6,"visib":"6+","altim":1019,"clouds":[],"obsTime":1777827600},"SBSJ":{"icaoId":"SBSJ","flightCategory":"MVFR","rawOb":"METAR SBSJ 031700Z COR 17006KT 6000 BKN018 19/16 Q1022","temp":19,"dewp":16,"wdir":170,"wspd":6,"visib":3.73,"altim":1022,"clouds":[{"cover":"BKN","base":1800}],"obsTime":1777827600},"SBCJ":{"icaoId":"SBCJ","flightCategory":"VFR","rawOb":"METAR SBCJ 031700Z 12007KT 9999 SCT017 29/22 Q1017","temp":29,"dewp":22,"wdir":120,"wspd":7,"visib":"6+","altim":1017,"clouds":[{"cover":"SCT","base":1700}],"obsTime":1777827600},"SBPP":{"icaoId":"SBPP","flightCategory":"VFR","rawOb":"METAR SBPP 031700Z 03011KT 9999 FEW020 BKN070 23/19 Q1018","temp":23,"dewp":19,"wdir":30,"wspd":11,"visib":"6+","altim":1018,"clouds":[{"cover":"FEW","base":2000},{"cover":"BKN","base":7000}],"obsTime":1777827600},"SBOI":{"icaoId":"SBOI","flightCategory":"VFR","rawOb":"METAR SBOI 031700Z AUTO 05011KT 020V110 9999 SCT039 32/24 Q1012","temp":32,"dewp":24,"wdir":50,"wspd":11,"visib":"6+","altim":1012,"clouds":[{"cover":"SCT","base":3900}],"obsTime":1777827600},"SBTF":{"icaoId":"SBTF","flightCategory":"VFR","rawOb":"METAR SBTF 031700Z 01005KT 9999 SCT010 FEW025TCU BKN080 29/26 Q1011","temp":29,"dewp":26,"wdir":10,"wspd":5,"visib":"6+","altim":1011,"clouds":[{"cover":"SCT","base":1000},{"cover":"FEW","base":2500},{"cover":"BKN","base":8000}],"obsTime":1777827600},"SBPS":{"icaoId":"SBPS","flightCategory":"VFR","rawOb":"METAR SBPS 031700Z 10008KT 9999 SCT030 29/23 Q1014","temp":29,"dewp":23,"wdir":100,"wspd":8,"visib":"6+","altim":1014,"clouds":[{"cover":"SCT","base":3000}],"obsTime":1777827600},"SBTT":{"icaoId":"SBTT","flightCategory":"IFR","rawOb":"METAR SBTT 031700Z 30005KT 260V330 9000 BKN008 BKN070 26/23 Q1014","temp":26,"dewp":23,"wdir":300,"wspd":5,"visib":5.59,"altim":1014,"clouds":[{"cover":"BKN","base":800},{"cover":"BKN","base":7000}],"obsTime":1777827600},"SBPB":{"icaoId":"SBPB","flightCategory":"VFR","rawOb":"METAR SBPB 031700Z 11008KT 9999 SCT018 BKN100 29/24 Q1011","temp":29,"dewp":24,"wdir":110,"wspd":8,"visib":"6+","altim":1011,"clouds":[{"cover":"SCT","base":1800},{"cover":"BKN","base":10000}],"obsTime":1777827600},"SBUY":{"icaoId":"SBUY","flightCategory":"VFR","rawOb":"METAR SBUY 031700Z 17007KT 9999 SCT020 BKN100 30/25 Q1010","temp":30,"dewp":25,"wdir":170,"wspd":7,"visib":"6+","altim":1010,"clouds":[{"cover":"SCT","base":2000},{"cover":"BKN","base":10000}],"obsTime":1777827600},"SBPL":{"icaoId":"SBPL","flightCategory":"VFR","rawOb":"METAR SBPL 031700Z 09010KT 9999 FEW022 30/18 Q1013","temp":30,"dewp":18,"wdir":90,"wspd":10,"visib":"6+","altim":1013,"clouds":[{"cover":"FEW","base":2200}],"obsTime":1777827600},"SBAR":{"icaoId":"SBAR","flightCategory":"VFR","rawOb":"METAR SBAR 031700Z 12008KT 9999 VCSH SCT024 FEW025TCU BKN040 28/24 Q1013","temp":28,"dewp":24,"wdir":120,"wspd":8,"visib":"6+","altim":1013,"clouds":[{"cover":"SCT","base":2400},{"cover":"FEW","base":2500},{"cover":"BKN","base":4000}],"obsTime":1777827600},"SBDN":{"icaoId":"SBDN","flightCategory":"VFR","rawOb":"METAR SBDN 031700Z 10008KT CAVOK 29/16 Q1017","temp":29,"dewp":16,"wdir":100,"wspd":8,"visib":"6+","altim":1017,"clouds":[],"obsTime":1777827600},"SBES":{"icaoId":"SBES","flightCategory":"MVFR","rawOb":"METAR SBES 031700Z 20011KT 8000 VCSH SCT015 OVC040 25/// Q1018","temp":null,"dewp":null,"wdir":200,"wspd":11,"visib":4.97,"altim":1018,"clouds":[{"cover":"SCT","base":1500},{"cover":"OVC","base":4000}],"obsTime":1777827600},"SBGM":{"icaoId":"SBGM","flightCategory":"VFR","rawOb":"METAR SBGM 031700Z 09007KT 9999 SCT030 33/23 Q1012","temp":33,"dewp":23,"wdir":90,"wspd":7,"visib":"6+","altim":1012,"clouds":[{"cover":"SCT","base":3000}],"obsTime":1777827600},"SBIP":{"icaoId":"SBIP","flightCategory":"VFR","rawOb":"METAR SBIP 031700Z AUTO 18006KT 120V210 CAVOK 30/18 Q1016","temp":30,"dewp":18,"wdir":180,"wspd":6,"visib":"6+","altim":1016,"clouds":[],"obsTime":1777827600},"SBKG":{"icaoId":"SBKG","flightCategory":"MVFR","rawOb":"METAR SBKG 031700Z 12005KT 9999 BKN023 BKN070 27/21 Q1014","temp":27,"dewp":21,"wdir":120,"wspd":5,"visib":"6+","altim":1014,"clouds":[{"cover":"BKN","base":2300},{"cover":"BKN","base":7000}],"obsTime":1777827600},"SBSC":{"icaoId":"SBSC","flightCategory":"MVFR","rawOb":"METAR SBSC 031700Z 24007KT 5000 -DZ BR SCT012 BKN020 OVC030 22/19 Q1020","temp":22,"dewp":19,"wdir":240,"wspd":7,"visib":3.11,"altim":1020,"clouds":[{"cover":"SCT","base":1200},{"cover":"BKN","base":2000},{"cover":"OVC","base":3000}],"obsTime":1777827600},"SBSM":{"icaoId":"SBSM","flightCategory":"VFR","rawOb":"METAR SBSM 031700Z 11006KT CAVOK 17/07 Q1021","temp":17,"dewp":7,"wdir":110,"wspd":6,"visib":"6+","altim":1021,"clouds":[],"obsTime":1777827600},"SBSR":{"icaoId":"SBSR","flightCategory":"VFR","rawOb":"METAR SBSR 031700Z 08002KT CAVOK 30/12 Q1017","temp":30,"dewp":12,"wdir":80,"wspd":2,"visib":"6+","altim":1017,"clouds":[],"obsTime":1777827600},"SBVH":{"icaoId":"SBVH","flightCategory":"VFR","rawOb":"METAR SBVH 031700Z 09010KT CAVOK 29/18 Q1015","temp":29,"dewp":18,"wdir":90,"wspd":10,"visib":"6+","altim":1015,"clouds":[],"obsTime":1777827600},"SBAU":{"icaoId":"SBAU","flightCategory":"VFR","rawOb":"METAR SBAU 031700Z 10010KT CAVOK 30/13 Q1016","temp":30,"dewp":13,"wdir":100,"wspd":10,"visib":"6+","altim":1016,"clouds":[],"obsTime":1777827600},"SBAX":{"icaoId":"SBAX","flightCategory":"VFR","rawOb":"METAR SBAX 031700Z AUTO 08004KT 360V130 CAVOK 27/13 Q1019","temp":27,"dewp":13,"wdir":80,"wspd":4,"visib":"6+","altim":1019,"clouds":[],"obsTime":1777827600},"SBBH":{"icaoId":"SBBH","flightCategory":"VFR","rawOb":"METAR SBBH 031700Z 12006KT 9999 SCT046 SCT100 28/15 Q1018","temp":28,"dewp":15,"wdir":120,"wspd":6,"visib":"6+","altim":1018,"clouds":[{"cover":"SCT","base":4600},{"cover":"SCT","base":10000}],"obsTime":1777827600},"SBBQ":{"icaoId":"SBBQ","flightCategory":"MVFR","rawOb":"METAR SBBQ 031700Z 14006KT 100V190 9999 BKN025 21/16 Q1023","temp":21,"dewp":16,"wdir":140,"wspd":6,"visib":"6+","altim":1023,"clouds":[{"cover":"BKN","base":2500}],"obsTime":1777827600},"SBBU":{"icaoId":"SBBU","flightCategory":"VFR","rawOb":"METAR SBBU 031700Z 11015KT 9999 FEW030 27/19 Q1019","temp":27,"dewp":19,"wdir":110,"wspd":15,"visib":"6+","altim":1019,"clouds":[{"cover":"FEW","base":3000}],"obsTime":1777827600},"SBCA":{"icaoId":"SBCA","flightCategory":"VFR","rawOb":"METAR SBCA 031700Z 10007KT 9999 SCT020 SCT100 23/16 Q1019","temp":23,"dewp":16,"wdir":100,"wspd":7,"visib":"6+","altim":1019,"clouds":[{"cover":"SCT","base":2000},{"cover":"SCT","base":10000}],"obsTime":1777827600},"SBCC":{"icaoId":"SBCC","flightCategory":"VFR","rawOb":"METAR SBCC 031700Z /////KT 9999 SCT030 ///// Q1013","temp":null,"dewp":null,"wdir":null,"wspd":null,"visib":"6+","altim":1013,"clouds":[{"cover":"SCT","base":3000}],"obsTime":1777827600},"SBCO":{"icaoId":"SBCO","flightCategory":"VFR","rawOb":"METAR SBCO 031700Z 13002KT 9999 FEW030 18/09 Q1022","temp":18,"dewp":9,"wdir":130,"wspd":2,"visib":"6+","altim":1022,"clouds":[{"cover":"FEW","base":3000}],"obsTime":1777827600},"SBJP":{"icaoId":"SBJP","flightCategory":"VFR","rawOb":"METAR SBJP 031700Z 11010KT 9999 SCT020 OVC070 30/23 Q1012","temp":30,"dewp":23,"wdir":110,"wspd":10,"visib":"6+","altim":1012,"clouds":[{"cover":"SCT","base":2000},{"cover":"OVC","base":7000}],"obsTime":1777827600},"SBST":{"icaoId":"SBST","flightCategory":"MVFR","rawOb":"METAR SBST 031700Z /////KT 8000 SCT025 OVC050 ///// Q1021","temp":null,"dewp":null,"wdir":null,"wspd":null,"visib":4.97,"altim":1021,"clouds":[{"cover":"SCT","base":2500},{"cover":"OVC","base":5000}],"obsTime":1777827600},"SBJV":{"icaoId":"SBJV","flightCategory":"VFR","rawOb":"METAR SBJV 031700Z 12006KT 9999 OVC035 20/12 Q1023","temp":20,"dewp":12,"wdir":120,"wspd":6,"visib":"6+","altim":1023,"clouds":[{"cover":"OVC","base":3500}],"obsTime":1777827600},"SBIH":{"icaoId":"SBIH","flightCategory":"VFR","rawOb":"METAR SBIH 031700Z 17002KT 9999 SCT018 FEW025TCU 29/25 Q1010","temp":29,"dewp":25,"wdir":170,"wspd":2,"visib":"6+","altim":1010,"clouds":[{"cover":"SCT","base":1800},{"cover":"FEW","base":2500}],"obsTime":1777827600},"SBAN":{"icaoId":"SBAN","flightCategory":"VFR","rawOb":"METAR SBAN 031700Z 17008KT 120V210 9999 SCT045 27/14 Q1019","temp":27,"dewp":14,"wdir":170,"wspd":8,"visib":"6+","altim":1019,"clouds":[{"cover":"SCT","base":4500}],"obsTime":1777827600},"SBLE":{"icaoId":"SBLE","flightCategory":"VFR","rawOb":"METAR SBLE 031700Z AUTO 14006KT 080V220 9999 FEW036 28/20 Q1015","temp":28,"dewp":20,"wdir":140,"wspd":6,"visib":"6+","altim":1015,"clouds":[{"cover":"FEW","base":3600}],"obsTime":1777827600},"SBTC":{"icaoId":"SBTC","flightCategory":"VFR","rawOb":"METAR SBTC 031700Z 14005KT 9999 FEW030 29/24 Q1014","temp":29,"dewp":24,"wdir":140,"wspd":5,"visib":"6+","altim":1014,"clouds":[{"cover":"FEW","base":3000}],"obsTime":1777827600},"SBAF":{"icaoId":"SBAF","flightCategory":"MVFR","rawOb":"METAR SBAF 031700Z 25006KT 6000 FEW020 OVC041 24/21 Q1019","temp":24,"dewp":21,"wdir":250,"wspd":6,"visib":3.73,"altim":1019,"clouds":[{"cover":"FEW","base":2000},{"cover":"OVC","base":4100}],"obsTime":1777827600},"SBGW":{"icaoId":"SBGW","flightCategory":"VFR","rawOb":"METAR SBGW 031700Z 13003KT 9999 SCT030 OVC040 23/14 Q1020","temp":23,"dewp":14,"wdir":130,"wspd":3,"visib":"6+","altim":1020,"clouds":[{"cover":"SCT","base":3000},{"cover":"OVC","base":4000}],"obsTime":1777827600},"SBJR":{"icaoId":"SBJR","flightCategory":"MVFR","rawOb":"METAR SBJR 031700Z 20005KT 9000 FEW020 BKN030 OVC050 26/18 Q1019","temp":26,"dewp":18,"wdir":200,"wspd":5,"visib":5.59,"altim":1019,"clouds":[{"cover":"FEW","base":2000},{"cover":"BKN","base":3000},{"cover":"OVC","base":5000}],"obsTime":1777827600},"SBLS":{"icaoId":"SBLS","flightCategory":"VFR","rawOb":"METAR SBLS 031700Z 15008KT 090V170 9999 SCT045 28/15 Q1019","temp":28,"dewp":15,"wdir":150,"wspd":8,"visib":"6+","altim":1019,"clouds":[{"cover":"SCT","base":4500}],"obsTime":1777827600},"SBMT":{"icaoId":"SBMT","flightCategory":"MVFR","rawOb":"METAR SBMT 031700Z 14009KT 110V180 9999 SCT013 OVC015 18/14 Q1022","temp":18,"dewp":14,"wdir":140,"wspd":9,"visib":"6+","altim":1022,"clouds":[{"cover":"SCT","base":1300},{"cover":"OVC","base":1500}],"obsTime":1777827600},"SBTA":{"icaoId":"SBTA","flightCategory":"VFR","rawOb":"METAR SBTA 031700Z 19008KT 9999 SCT025 BKN040 22/15 Q1020","temp":22,"dewp":15,"wdir":190,"wspd":8,"visib":"6+","altim":1020,"clouds":[{"cover":"SCT","base":2500},{"cover":"BKN","base":4000}],"obsTime":1777827600}}}