{"updated":1774390976,"count":80,"data":{"SBFI":{"icaoId":"SBFI","flightCategory":"VFR","rawOb":"METAR SBFI 242100Z 20007KT 9999 FEW030 FEW040TCU 29/24 Q1009","temp":29,"dewp":24,"wdir":200,"wspd":7,"visib":"6+","altim":1009,"clouds":[{"cover":"FEW","base":3000},{"cover":"FEW","base":4000}],"obsTime":1774386000},"SBFL":{"icaoId":"SBFL","flightCategory":"MVFR","rawOb":"METAR SBFL 242100Z 13008KT 110V170 9999 BKN018 SCT050 25/23 Q1011","temp":25,"dewp":23,"wdir":130,"wspd":8,"visib":"6+","altim":1011,"clouds":[{"cover":"BKN","base":1800},{"cover":"SCT","base":5000}],"obsTime":1774386000},"SBMA":{"icaoId":"SBMA","flightCategory":"VFR","rawOb":"METAR SBMA 242100Z 00000KT 9999 FEW020 FEW023TCU BKN100 29/26 Q1008","temp":29,"dewp":26,"wdir":0,"wspd":0,"visib":"6+","altim":1008,"clouds":[{"cover":"FEW","base":2000},{"cover":"FEW","base":2300},{"cover":"BKN","base":10000}],"obsTime":1774386000},"SBCF":{"icaoId":"SBCF","flightCategory":"VFR","rawOb":"METAR SBCF 242100Z 21002KT 9999 FEW040 FEW045TCU SCT090 20/18 Q1015","temp":20,"dewp":18,"wdir":210,"wspd":2,"visib":"6+","altim":1015,"clouds":[{"cover":"FEW","base":4000},{"cover":"FEW","base":4500},{"cover":"SCT","base":9000}],"obsTime":1774386000},"SBME":{"icaoId":"SBME","flightCategory":"VFR","rawOb":"METAR SBME 242100Z 08011KT 9999 FEW030 29/21 Q1011","temp":29,"dewp":21,"wdir":80,"wspd":11,"visib":"6+","altim":1011,"clouds":[{"cover":"FEW","base":3000}],"obsTime":1774386000},"SBFZ":{"icaoId":"SBFZ","flightCategory":"VFR","rawOb":"METAR SBFZ 242100Z 09010KT 9999 FEW030 28/23 Q1009","temp":28,"dewp":23,"wdir":90,"wspd":10,"visib":"6+","altim":1009,"clouds":[{"cover":"FEW","base":3000}],"obsTime":1774386000},"SBMG":{"icaoId":"SBMG","flightCategory":"IFR","rawOb":"METAR SBMG 242100Z 13004KT 130V210 9999 4500W RA BKN005 SCT025 FEW030TCU OVC080 22/22 Q1011 RETS","temp":22,"dewp":22,"wdir":130,"wspd":4,"visib":"6+","altim":1011,"clouds":[{"cover":"BKN","base":500},{"cover":"SCT","base":2500},{"cover":"FEW","base":3000},{"cover":"OVC","base":8000}],"obsTime":1774386000},"SBMK":{"icaoId":"SBMK","flightCategory":"VFR","rawOb":"METAR SBMK 242100Z 02004KT 9999 FEW042 FEW048TCU 25/21 Q1013","temp":25,"dewp":21,"wdir":20,"wspd":4,"visib":"6+","altim":1013,"clouds":[{"cover":"FEW","base":4200},{"cover":"FEW","base":4800}],"obsTime":1774386000},"SBCT":{"icaoId":"SBCT","flightCategory":"VFR","rawOb":"METAR SBCT 242100Z 10007KT 9999 SCT020 23/20 Q1014","temp":23,"dewp":20,"wdir":100,"wspd":7,"visib":"6+","altim":1014,"clouds":[{"cover":"SCT","base":2000}],"obsTime":1774386000},"SBMO":{"icaoId":"SBMO","flightCategory":"VFR","rawOb":"METAR SBMO 242100Z 08010KT 9999 FEW023 28/23 Q1011","temp":28,"dewp":23,"wdir":80,"wspd":10,"visib":"6+","altim":1011,"clouds":[{"cover":"FEW","base":2300}],"obsTime":1774386000},"SBBE":{"icaoId":"SBBE","flightCategory":"VFR","rawOb":"METAR SBBE 242100Z 08014KT 9999 FEW023 SCT045 BKN079 28/22 Q1010","temp":28,"dewp":22,"wdir":80,"wspd":14,"visib":"6+","altim":1010,"clouds":[{"cover":"FEW","base":2300},{"cover":"SCT","base":4500},{"cover":"BKN","base":7900}],"obsTime":1774386000},"SBGL":{"icaoId":"SBGL","flightCategory":"VFR","rawOb":"METAR SBGL 242100Z 15007KT CAVOK 28/21 Q1009","temp":28,"dewp":21,"wdir":150,"wspd":7,"visib":"6+","altim":1009,"clouds":[],"obsTime":1774386000},"SBMQ":{"icaoId":"SBMQ","flightCategory":"VFR","rawOb":"METAR SBMQ 242100Z 05010KT 9999 SCT023 29/24 Q1009","temp":29,"dewp":24,"wdir":50,"wspd":10,"visib":"6+","altim":1009,"clouds":[{"cover":"SCT","base":2300}],"obsTime":1774386000},"SBNT":{"icaoId":"SBNT","flightCategory":"VFR","rawOb":"METAR SBNT 242100Z 11008KT 9999 FEW040 28/23 Q1011","temp":28,"dewp":23,"wdir":110,"wspd":8,"visib":"6+","altim":1011,"clouds":[{"cover":"FEW","base":4000}],"obsTime":1774386000},"SBCG":{"icaoId":"SBCG","flightCategory":"VFR","rawOb":"METAR SBCG 242100Z 01006KT 9999 VCSH SCT040 FEW050TCU BKN100 28/22 Q1010","temp":28,"dewp":22,"wdir":10,"wspd":6,"visib":"6+","altim":1010,"clouds":[{"cover":"SCT","base":4000},{"cover":"FEW","base":5000},{"cover":"BKN","base":10000}],"obsTime":1774386000},"SBGO":{"icaoId":"SBGO","flightCategory":"VFR","rawOb":"METAR SBGO 242100Z 10002KT 9999 FEW023 FEW053TCU BKN100 23/20 Q1013","temp":23,"dewp":20,"wdir":100,"wspd":2,"visib":"6+","altim":1013,"clouds":[{"cover":"FEW","base":2300},{"cover":"FEW","base":5300},{"cover":"BKN","base":10000}],"obsTime":1774386000},"SBPA":{"icaoId":"SBPA","flightCategory":"MVFR","rawOb":"METAR SBPA 242100Z 14007KT 9999 FEW020 BKN030 23/19 Q1012","temp":23,"dewp":19,"wdir":140,"wspd":7,"visib":"6+","altim":1012,"clouds":[{"cover":"FEW","base":2000},{"cover":"BKN","base":3000}],"obsTime":1774386000},"SBPJ":{"icaoId":"SBPJ","flightCategory":"VFR","rawOb":"METAR SBPJ 242100Z VRB01KT 9999 FEW012 FEW030TCU BKN080 26/23 Q1011","temp":26,"dewp":23,"wdir":"VRB","wspd":1,"visib":"6+","altim":1011,"clouds":[{"cover":"FEW","base":1200},{"cover":"FEW","base":3000},{"cover":"BKN","base":8000}],"obsTime":1774386000},"SBCZ":{"icaoId":"SBCZ","flightCategory":"VFR","rawOb":"METAR SBCZ 242100Z 27003KT 9999 SCT030 33/24 Q1005","temp":33,"dewp":24,"wdir":270,"wspd":3,"visib":"6+","altim":1005,"clouds":[{"cover":"SCT","base":3000}],"obsTime":1774386000},"SBPV":{"icaoId":"SBPV","flightCategory":"VFR","rawOb":"METAR SBPV 242100Z 29001KT 9999 FEW030 FEW040TCU 33/23 Q1004","temp":33,"dewp":23,"wdir":290,"wspd":1,"visib":"6+","altim":1004,"clouds":[{"cover":"FEW","base":3000},{"cover":"FEW","base":4000}],"obsTime":1774386000},"SBBV":{"icaoId":"SBBV","flightCategory":"VFR","rawOb":"METAR SBBV 242100Z 11017KT 9999 BKN040 FEW045TCU 35/20 Q1005","temp":35,"dewp":20,"wdir":110,"wspd":17,"visib":"6+","altim":1005,"clouds":[{"cover":"BKN","base":4000},{"cover":"FEW","base":4500}],"obsTime":1774386000},"SBRB":{"icaoId":"SBRB","flightCategory":"VFR","rawOb":"METAR SBRB 242100Z COR 32001KT 9000 VCSH BKN035 FEW040TCU SCT100 31/26 Q1006","temp":31,"dewp":26,"wdir":320,"wspd":1,"visib":5.59,"altim":1006,"clouds":[{"cover":"BKN","base":3500},{"cover":"FEW","base":4000},{"cover":"SCT","base":10000}],"obsTime":1774386000},"SBGR":{"icaoId":"SBGR","flightCategory":"VFR","rawOb":"METAR SBGR 242100Z 16006KT CAVOK 24/20 Q1012","temp":24,"dewp":20,"wdir":160,"wspd":6,"visib":"6+","altim":1012,"clouds":[],"obsTime":1774386000},"SBEG":{"icaoId":"SBEG","flightCategory":"MVFR","rawOb":"SPECI SBEG 242025Z 01011KT 310V090 7000 2000W -TSRA SCT025 FEW030CB 27/24 Q1005","temp":27,"dewp":24,"wdir":10,"wspd":11,"visib":4.35,"altim":1005,"clouds":[{"cover":"SCT","base":2500},{"cover":"FEW","base":3000}],"obsTime":1774383900},"SBRF":{"icaoId":"SBRF","flightCategory":"VFR","rawOb":"METAR SBRF 242100Z 12008KT 9999 SCT023 29/23 Q1010","temp":29,"dewp":23,"wdir":120,"wspd":8,"visib":"6+","altim":1010,"clouds":[{"cover":"SCT","base":2300}],"obsTime":1774386000},"SBSG":{"icaoId":"SBSG","flightCategory":"VFR","rawOb":"METAR SBSG 242200Z 11005KT 9999 FEW023 27/23 Q1011","temp":27,"dewp":23,"wdir":110,"wspd":5,"visib":"6+","altim":1011,"clouds":[{"cover":"FEW","base":2300}],"obsTime":1774389600},"SBIL":{"icaoId":"SBIL","flightCategory":"MVFR","rawOb":"METAR SBIL 242100Z 30004KT 9999 VCSH BKN018 FEW023TCU BKN070 25/24 Q1012","temp":25,"dewp":24,"wdir":300,"wspd":4,"visib":"6+","altim":1012,"clouds":[{"cover":"BKN","base":1800},{"cover":"FEW","base":2300},{"cover":"BKN","base":7000}],"obsTime":1774386000},"SBSL":{"icaoId":"SBSL","flightCategory":"VFR","rawOb":"METAR SBSL 242100Z 04012KT 9999 SCT030 28/25 Q1008","temp":28,"dewp":25,"wdir":40,"wspd":12,"visib":"6+","altim":1008,"clouds":[{"cover":"SCT","base":3000}],"obsTime":1774386000},"SBCP":{"icaoId":"SBCP","flightCategory":"VFR","rawOb":"METAR SBCP 242100Z 08009KT 9999 FEW020 26/22 Q1012","temp":26,"dewp":22,"wdir":80,"wspd":9,"visib":"6+","altim":1012,"clouds":[{"cover":"FEW","base":2000}],"obsTime":1774386000},"SBSN":{"icaoId":"SBSN","flightCategory":"VFR","rawOb":"METAR SBSN 242100Z 09009KT 9999 FEW020 31/25 Q1006","temp":31,"dewp":25,"wdir":90,"wspd":9,"visib":"6+","altim":1006,"clouds":[{"cover":"FEW","base":2000}],"obsTime":1774386000},"SBJU":{"icaoId":"SBJU","flightCategory":"VFR","rawOb":"METAR SBJU 242100Z 00000KT 9999 SCT022 FEW023TCU 27/23 Q1012","temp":27,"dewp":23,"wdir":0,"wspd":0,"visib":"6+","altim":1012,"clouds":[{"cover":"SCT","base":2200},{"cover":"FEW","base":2300}],"obsTime":1774386000},"SBSP":{"icaoId":"SBSP","flightCategory":"VFR","rawOb":"METAR SBSP 242100Z 18011KT 9999 FEW016 22/19 Q1014","temp":22,"dewp":19,"wdir":180,"wspd":11,"visib":"6+","altim":1014,"clouds":[{"cover":"FEW","base":1600}],"obsTime":1774386000},"SBVT":{"icaoId":"SBVT","flightCategory":"VFR","rawOb":"METAR SBVT 242100Z 05010KT 9999 FEW015 SCT030 26/23 Q1013","temp":26,"dewp":23,"wdir":50,"wspd":10,"visib":"6+","altim":1013,"clouds":[{"cover":"FEW","base":1500},{"cover":"SCT","base":3000}],"obsTime":1774386000},"SBSV":{"icaoId":"SBSV","flightCategory":"VFR","rawOb":"METAR SBSV 242100Z 05004KT 9999 SCT017 FEW025TCU BKN050 27/21 Q1012","temp":27,"dewp":21,"wdir":50,"wspd":4,"visib":"6+","altim":1012,"clouds":[{"cover":"SCT","base":1700},{"cover":"FEW","base":2500},{"cover":"BKN","base":5000}],"obsTime":1774386000},"SBTE":{"icaoId":"SBTE","flightCategory":"MVFR","rawOb":"METAR SBTE 242100Z 09005KT 9999 3000S -TSRA BKN025 FEW030CB 30/24 Q1008","temp":30,"dewp":24,"wdir":90,"wspd":5,"visib":"6+","altim":1008,"clouds":[{"cover":"BKN","base":2500},{"cover":"FEW","base":3000}],"obsTime":1774386000},"SBBR":{"icaoId":"SBBR","flightCategory":"VFR","rawOb":"METAR SBBR 242100Z 24004KT 210V280 9999 FEW030 BKN090 20/18 Q1015","temp":20,"dewp":18,"wdir":240,"wspd":4,"visib":"6+","altim":1015,"clouds":[{"cover":"FEW","base":3000},{"cover":"BKN","base":9000}],"obsTime":1774386000},"SBKP":{"icaoId":"SBKP","flightCategory":"VFR","rawOb":"METAR SBKP 242100Z 12003KT 9999 FEW045 29/14 Q1011","temp":29,"dewp":14,"wdir":120,"wspd":3,"visib":"6+","altim":1011,"clouds":[{"cover":"FEW","base":4500}],"obsTime":1774386000},"SBUL":{"icaoId":"SBUL","flightCategory":"VFR","rawOb":"METAR SBUL 242100Z 06009KT 9999 VCTS FEW010 SCT030 FEW035CB 22/18 Q1014","temp":22,"dewp":18,"wdir":60,"wspd":9,"visib":"6+","altim":1014,"clouds":[{"cover":"FEW","base":1000},{"cover":"SCT","base":3000},{"cover":"FEW","base":3500}],"obsTime":1774386000},"SBUR":{"icaoId":"SBUR","flightCategory":"IFR","rawOb":"METAR SBUR 242100Z 01012KT 2000 TSRA BKN038 FEW040CB 20/17 Q1011","temp":20,"dewp":17,"wdir":10,"wspd":12,"visib":1.24,"altim":1011,"clouds":[{"cover":"BKN","base":3800},{"cover":"FEW","base":4000}],"obsTime":1774386000},"SBLO":{"icaoId":"SBLO","flightCategory":"VFR","rawOb":"METAR SBLO 242100Z 24004KT 9999 FEW035TCU SCT100 25/23 Q1011","temp":25,"dewp":23,"wdir":240,"wspd":4,"visib":"6+","altim":1011,"clouds":[{"cover":"FEW","base":3500},{"cover":"SCT","base":10000}],"obsTime":1774386000},"SBCB":{"icaoId":"SBCB","flightCategory":"VFR","rawOb":"METAR SBCB 242100Z 06012KT CAVOK 27/23 Q1011","temp":27,"dewp":23,"wdir":60,"wspd":12,"visib":"6+","altim":1011,"clouds":[],"obsTime":1774386000},"SBCR":{"icaoId":"SBCR","flightCategory":"VFR","rawOb":"METAR SBCR 242100Z 26006KT 230V300 9999 SCT030 FEW033TCU BKN066 28/25 Q1008","temp":28,"dewp":25,"wdir":260,"wspd":6,"visib":"6+","altim":1008,"clouds":[{"cover":"SCT","base":3000},{"cover":"FEW","base":3300},{"cover":"BKN","base":6600}],"obsTime":1774386000},"SBHT":{"icaoId":"SBHT","flightCategory":"MVFR","rawOb":"METAR SBHT 242100Z 13003KT 9999 BKN025 31/24 Q1008","temp":31,"dewp":24,"wdir":130,"wspd":3,"visib":"6+","altim":1008,"clouds":[{"cover":"BKN","base":2500}],"obsTime":1774386000},"SBBU":{"icaoId":"SBBU","flightCategory":"VFR","rawOb":"METAR SBBU 242100Z 10004KT 9999 FEW035 30/19 Q1010","temp":30,"dewp":19,"wdir":100,"wspd":4,"visib":"6+","altim":1010,"clouds":[{"cover":"FEW","base":3500}],"obsTime":1774386000},"SBPL":{"icaoId":"SBPL","flightCategory":"MVFR","rawOb":"METAR SBPL 242100Z 06002KT 9999 BKN030 31/20 Q1011","temp":31,"dewp":20,"wdir":60,"wspd":2,"visib":"6+","altim":1011,"clouds":[{"cover":"BKN","base":3000}],"obsTime":1774386000},"SBAR":{"icaoId":"SBAR","flightCategory":"VFR","rawOb":"METAR SBAR 242100Z 09011KT 9999 FEW026 29/23 Q1011","temp":29,"dewp":23,"wdir":90,"wspd":11,"visib":"6+","altim":1011,"clouds":[{"cover":"FEW","base":2600}],"obsTime":1774386000},"SBDN":{"icaoId":"SBDN","flightCategory":"MVFR","rawOb":"METAR SBDN 242100Z 07011KT 5000 -RA FEW009 BKN020 FEW040TCU 22/21 Q1011 RETS","temp":22,"dewp":21,"wdir":70,"wspd":11,"visib":3.11,"altim":1011,"clouds":[{"cover":"FEW","base":900},{"cover":"BKN","base":2000},{"cover":"FEW","base":4000}],"obsTime":1774386000},"SBPS":{"icaoId":"SBPS","flightCategory":"VFR","rawOb":"METAR SBPS 242100Z 05006KT 9999 SCT020 BKN100 27/24 Q1013","temp":27,"dewp":24,"wdir":50,"wspd":6,"visib":"6+","altim":1013,"clouds":[{"cover":"SCT","base":2000},{"cover":"BKN","base":10000}],"obsTime":1774386000},"SBES":{"icaoId":"SBES","flightCategory":"VFR","rawOb":"METAR SBES 242100Z 06013KT 9999 FEW025 26/// Q1011","temp":null,"dewp":null,"wdir":60,"wspd":13,"visib":"6+","altim":1011,"clouds":[{"cover":"FEW","base":2500}],"obsTime":1774386000},"SBSC":{"icaoId":"SBSC","flightCategory":"VFR","rawOb":"METAR SBSC 242100Z 21004KT CAVOK 29/21 Q1008","temp":29,"dewp":21,"wdir":210,"wspd":4,"visib":"6+","altim":1008,"clouds":[],"obsTime":1774386000},"SBSJ":{"icaoId":"SBSJ","flightCategory":"VFR","rawOb":"METAR SBSJ 242100Z 10003KT CAVOK 29/// Q1011","temp":null,"dewp":null,"wdir":100,"wspd":3,"visib":"6+","altim":1011,"clouds":[],"obsTime":1774386000},"SBCA":{"icaoId":"SBCA","flightCategory":"VFR","rawOb":"METAR SBCA 242100Z 20003KT 9999 VCSH FEW040 BKN070 25/22 Q1013","temp":25,"dewp":22,"wdir":200,"wspd":3,"visib":"6+","altim":1013,"clouds":[{"cover":"FEW","base":4000},{"cover":"BKN","base":7000}],"obsTime":1774386000},"SBIP":{"icaoId":"SBIP","flightCategory":"VFR","rawOb":"METAR SBIP 242100Z AUTO 31004KT CAVOK 24/21 Q1013","temp":24,"dewp":21,"wdir":310,"wspd":4,"visib":"6+","altim":1013,"clouds":[],"obsTime":1774386000},"SBSM":{"icaoId":"SBSM","flightCategory":"VFR","rawOb":"METAR SBSM 242100Z 08006KT 9999 SCT035 24/19 Q1011","temp":24,"dewp":19,"wdir":80,"wspd":6,"visib":"6+","altim":1011,"clouds":[{"cover":"SCT","base":3500}],"obsTime":1774386000},"SBSR":{"icaoId":"SBSR","flightCategory":"VFR","rawOb":"METAR SBSR 242100Z 36008KT 9999 SCT030 FEW035TCU BKN070 27/21 Q1010","temp":27,"dewp":21,"wdir":360,"wspd":8,"visib":"6+","altim":1010,"clouds":[{"cover":"SCT","base":3000},{"cover":"FEW","base":3500},{"cover":"BKN","base":7000}],"obsTime":1774386000},"SBBH":{"icaoId":"SBBH","flightCategory":"VFR","rawOb":"METAR SBBH 242100Z 00000KT 9999 SCT045 22/18 Q1015 RETS","temp":22,"dewp":18,"wdir":0,"wspd":0,"visib":"6+","altim":1015,"clouds":[{"cover":"SCT","base":4500}],"obsTime":1774386000},"SBTF":{"icaoId":"SBTF","flightCategory":"VFR","rawOb":"METAR SBTF 242100Z 06006KT 9999 FEW006 SCT016 BKN100 27/26 Q1005 RETS","temp":27,"dewp":26,"wdir":60,"wspd":6,"visib":"6+","altim":1005,"clouds":[{"cover":"FEW","base":600},{"cover":"SCT","base":1600},{"cover":"BKN","base":10000}],"obsTime":1774386000},"SBCO":{"icaoId":"SBCO","flightCategory":"MVFR","rawOb":"METAR SBCO 242100Z 14005KT 9999 FEW015 BKN024 22/19 Q1012","temp":22,"dewp":19,"wdir":140,"wspd":5,"visib":"6+","altim":1012,"clouds":[{"cover":"FEW","base":1500},{"cover":"BKN","base":2400}],"obsTime":1774386000},"SBTT":{"icaoId":"SBTT","flightCategory":"VFR","rawOb":"METAR SBTT 242100Z 24004KT 9999 FEW022 BKN090 32/20 Q1005","temp":32,"dewp":20,"wdir":240,"wspd":4,"visib":"6+","altim":1005,"clouds":[{"cover":"FEW","base":2200},{"cover":"BKN","base":9000}],"obsTime":1774386000},"SBKG":{"icaoId":"SBKG","flightCategory":"VFR","rawOb":"METAR SBKG 242100Z 09012KT 9999 SCT020 27/19 Q1013","temp":27,"dewp":19,"wdir":90,"wspd":12,"visib":"6+","altim":1013,"clouds":[{"cover":"SCT","base":2000}],"obsTime":1774386000},"SBUY":{"icaoId":"SBUY","flightCategory":"VFR","rawOb":"METAR SBUY 242100Z 36001KT 9999 VCSH SCT030 FEW035TCU SCT100 31/25 Q1003","temp":31,"dewp":25,"wdir":360,"wspd":1,"visib":"6+","altim":1003,"clouds":[{"cover":"SCT","base":3000},{"cover":"FEW","base":3500},{"cover":"SCT","base":10000}],"obsTime":1774386000},"SBAX":{"icaoId":"SBAX","flightCategory":"VFR","rawOb":"METAR SBAX 242100Z 17004KT 9999 SCT023 SCT035 21/21 Q1014","temp":21,"dewp":21,"wdir":170,"wspd":4,"visib":"6+","altim":1014,"clouds":[{"cover":"SCT","base":2300},{"cover":"SCT","base":3500}],"obsTime":1774386000},"SBVH":{"icaoId":"SBVH","flightCategory":"VFR","rawOb":"METAR SBVH 242100Z 30009KT 9999 SCT030 26/22 Q1009","temp":26,"dewp":22,"wdir":300,"wspd":9,"visib":"6+","altim":1009,"clouds":[{"cover":"SCT","base":3000}],"obsTime":1774386000},"SBCJ":{"icaoId":"SBCJ","flightCategory":"VFR","rawOb":"METAR SBCJ 242100Z 00000KT 9999 SCT017 26/22 Q1013","temp":26,"dewp":22,"wdir":0,"wspd":0,"visib":"6+","altim":1013,"clouds":[{"cover":"SCT","base":1700}],"obsTime":1774386000},"SBOI":{"icaoId":"SBOI","flightCategory":"MVFR","rawOb":"METAR SBOI 242100Z AUTO VRB02KT 9999 SCT007 BKN012 24/24 Q1011","temp":24,"dewp":24,"wdir":"VRB","wspd":2,"visib":"6+","altim":1011,"clouds":[{"cover":"SCT","base":700},{"cover":"BKN","base":1200}],"obsTime":1774386000},"SBPB":{"icaoId":"SBPB","flightCategory":"MVFR","rawOb":"METAR SBPB 242100Z 04010KT 9999 BKN016 BKN080 29/25 Q1009","temp":29,"dewp":25,"wdir":40,"wspd":10,"visib":"6+","altim":1009,"clouds":[{"cover":"BKN","base":1600},{"cover":"BKN","base":8000}],"obsTime":1774386000},"SBPP":{"icaoId":"SBPP","flightCategory":"VFR","rawOb":"METAR SBPP 242100Z 19004KT 9999 -RA FEW020 BKN070 23/21 Q1010 RETS","temp":23,"dewp":21,"wdir":190,"wspd":4,"visib":"6+","altim":1010,"clouds":[{"cover":"FEW","base":2000},{"cover":"BKN","base":7000}],"obsTime":1774386000},"SBTA":{"icaoId":"SBTA","flightCategory":"VFR","rawOb":"METAR SBTA 242100Z 06003KT 330V090 9999 FEW045 28/21 Q1010","temp":28,"dewp":21,"wdir":60,"wspd":3,"visib":"6+","altim":1010,"clouds":[{"cover":"FEW","base":4500}],"obsTime":1774386000},"SBAN":{"icaoId":"SBAN","flightCategory":"VFR","rawOb":"METAR SBAN 242100Z 29003KT 9999 FEW010 21/19 Q1016","temp":21,"dewp":19,"wdir":290,"wspd":3,"visib":"6+","altim":1016,"clouds":[{"cover":"FEW","base":1000}],"obsTime":1774386000},"SBJP":{"icaoId":"SBJP","flightCategory":"VFR","rawOb":"METAR SBJP 242100Z 10009KT CAVOK 28/22 Q1011","temp":28,"dewp":22,"wdir":100,"wspd":9,"visib":"6+","altim":1011,"clouds":[],"obsTime":1774386000},"SBLE":{"icaoId":"SBLE","flightCategory":"VFR","rawOb":"METAR SBLE 242100Z AUTO VRB02KT CAVOK 26/22 Q1013","temp":26,"dewp":22,"wdir":"VRB","wspd":2,"visib":"6+","altim":1013,"clouds":[],"obsTime":1774386000},"SBAF":{"icaoId":"SBAF","flightCategory":"VFR","rawOb":"METAR SBAF 242100Z 16004KT CAVOK 29/20 Q1009","temp":29,"dewp":20,"wdir":160,"wspd":4,"visib":"6+","altim":1009,"clouds":[],"obsTime":1774386000},"SBJV":{"icaoId":"SBJV","flightCategory":"VFR","rawOb":"METAR SBJV 242100Z 03001KT 9999 SCT035 27/24 Q1010","temp":27,"dewp":24,"wdir":30,"wspd":1,"visib":"6+","altim":1010,"clouds":[{"cover":"SCT","base":3500}],"obsTime":1774386000},"SBGW":{"icaoId":"SBGW","flightCategory":"VFR","rawOb":"METAR SBGW 242100Z 02005KT 350V060 9999 SCT040 27/17 Q1011","temp":27,"dewp":17,"wdir":20,"wspd":5,"visib":"6+","altim":1011,"clouds":[{"cover":"SCT","base":4000}],"obsTime":1774386000},"SBJR":{"icaoId":"SBJR","flightCategory":"VFR","rawOb":"METAR SBJR 242100Z 29003KT CAVOK 27/22 Q1009","temp":27,"dewp":22,"wdir":290,"wspd":3,"visib":"6+","altim":1009,"clouds":[],"obsTime":1774386000},"SBLS":{"icaoId":"SBLS","flightCategory":"VFR","rawOb":"METAR SBLS 242100Z 23004KT 150V250 9999 FEW045 BKN100 21/18 Q1015","temp":21,"dewp":18,"wdir":230,"wspd":4,"visib":"6+","altim":1015,"clouds":[{"cover":"FEW","base":4500},{"cover":"BKN","base":10000}],"obsTime":1774386000},"SBMT":{"icaoId":"SBMT","flightCategory":"VFR","rawOb":"METAR SBMT 242100Z 15008KT 120V190 CAVOK 23/19 Q1013","temp":23,"dewp":19,"wdir":150,"wspd":8,"visib":"6+","altim":1013,"clouds":[],"obsTime":1774386000},"SBPF":{"icaoId":"SBPF","flightCategory":"VFR","rawOb":"METAR SBPF 242100Z 00000KT 9999 FEW040 24/20 Q1013","temp":24,"dewp":20,"wdir":0,"wspd":0,"visib":"6+","altim":1013,"clouds":[{"cover":"FEW","base":4000}],"obsTime":1774386000},"SBST":{"icaoId":"SBST","flightCategory":"VFR","rawOb":"METAR SBST 242100Z 20002KT 9999 SCT023 25/21 Q1009","temp":25,"dewp":21,"wdir":200,"wspd":2,"visib":"6+","altim":1009,"clouds":[{"cover":"SCT","base":2300}],"obsTime":1774386000},"SBIH":{"icaoId":"SBIH","flightCategory":"VFR","rawOb":"METAR SBIH 242100Z 08003KT 9999 FEW020 31/25 Q1006","temp":31,"dewp":25,"wdir":80,"wspd":3,"visib":"6+","altim":1006,"clouds":[{"cover":"FEW","base":2000}],"obsTime":1774386000}}}