{"updated":1776987223,"count":72,"data":{"SBRF":{"icaoId":"SBRF","flightCategory":"IFR","rawOb":"SPECI SBRF 232140Z 10006KT 2000 -TSRA BR BKN007 BKN017 FEW023CB BKN050 25/24 Q1011 RERA","temp":25,"dewp":24,"wdir":100,"wspd":6,"visib":1.24,"altim":1011,"clouds":[{"cover":"BKN","base":700},{"cover":"BKN","base":1700},{"cover":"FEW","base":2300},{"cover":"BKN","base":5000}],"obsTime":1776980400},"SBCT":{"icaoId":"SBCT","flightCategory":"VFR","rawOb":"METAR SBCT 232200Z 11005KT 9999 FEW015 17/16 Q1022","temp":17,"dewp":16,"wdir":110,"wspd":5,"visib":"6+","altim":1022,"clouds":[{"cover":"FEW","base":1500}],"obsTime":1776981600},"SBMG":{"icaoId":"SBMG","flightCategory":"VFR","rawOb":"METAR SBMG 232200Z 06010KT CAVOK 26/10 Q1015","temp":26,"dewp":10,"wdir":60,"wspd":10,"visib":"6+","altim":1015,"clouds":[],"obsTime":1776981600},"SBFZ":{"icaoId":"SBFZ","flightCategory":"VFR","rawOb":"METAR SBFZ 232200Z 09008KT 9999 FEW018 28/25 Q1010","temp":28,"dewp":25,"wdir":90,"wspd":8,"visib":"6+","altim":1010,"clouds":[{"cover":"FEW","base":1800}],"obsTime":1776981600},"SBMK":{"icaoId":"SBMK","flightCategory":"VFR","rawOb":"METAR SBMK 232200Z 09006KT CAVOK 23/16 Q1017","temp":23,"dewp":16,"wdir":90,"wspd":6,"visib":"6+","altim":1017,"clouds":[],"obsTime":1776981600},"SBMO":{"icaoId":"SBMO","flightCategory":"VFR","rawOb":"METAR SBMO 232200Z 15006KT 9999 SCT020 BKN070 27/24 Q1012","temp":27,"dewp":24,"wdir":150,"wspd":6,"visib":"6+","altim":1012,"clouds":[{"cover":"SCT","base":2000},{"cover":"BKN","base":7000}],"obsTime":1776981600},"SBGL":{"icaoId":"SBGL","flightCategory":"VFR","rawOb":"METAR SBGL 232200Z 14008KT CAVOK 24/19 Q1017","temp":24,"dewp":19,"wdir":140,"wspd":8,"visib":"6+","altim":1017,"clouds":[],"obsTime":1776981600},"SBBR":{"icaoId":"SBBR","flightCategory":"VFR","rawOb":"METAR SBBR 232200Z 13008KT CAVOK 24/14 Q1018","temp":24,"dewp":14,"wdir":130,"wspd":8,"visib":"6+","altim":1018,"clouds":[],"obsTime":1776981600},"SBMQ":{"icaoId":"SBMQ","flightCategory":"VFR","rawOb":"METAR SBMQ 232200Z 08003KT 9999 FEW023 27/25 Q1010","temp":27,"dewp":25,"wdir":80,"wspd":3,"visib":"6+","altim":1010,"clouds":[{"cover":"FEW","base":2300}],"obsTime":1776981600},"SBCF":{"icaoId":"SBCF","flightCategory":"VFR","rawOb":"METAR SBCF 232200Z 11008KT CAVOK 22/17 Q1020","temp":22,"dewp":17,"wdir":110,"wspd":8,"visib":"6+","altim":1020,"clouds":[],"obsTime":1776981600},"SBNT":{"icaoId":"SBNT","flightCategory":"VFR","rawOb":"METAR SBNT 232200Z 16006KT 9999 VCSH FEW029 FEW032TCU SCT050 BKN100 25/24 Q1011","temp":25,"dewp":24,"wdir":160,"wspd":6,"visib":"6+","altim":1011,"clouds":[{"cover":"FEW","base":2900},{"cover":"FEW","base":3200},{"cover":"SCT","base":5000},{"cover":"BKN","base":10000}],"obsTime":1776981600},"SBGO":{"icaoId":"SBGO","flightCategory":"VFR","rawOb":"METAR SBGO 232200Z 09007KT 9999 FEW045 27/18 Q1016","temp":27,"dewp":18,"wdir":90,"wspd":7,"visib":"6+","altim":1016,"clouds":[{"cover":"FEW","base":4500}],"obsTime":1776981600},"SBPA":{"icaoId":"SBPA","flightCategory":"MVFR","rawOb":"METAR SBPA 232200Z 15009KT 110V170 9999 BKN015 OVC023 22/18 Q1018","temp":22,"dewp":18,"wdir":150,"wspd":9,"visib":"6+","altim":1018,"clouds":[{"cover":"BKN","base":1500},{"cover":"OVC","base":2300}],"obsTime":1776981600},"SBCZ":{"icaoId":"SBCZ","flightCategory":"VFR","rawOb":"METAR SBCZ 232200Z 15005KT 9999 SCT030 FEW040TCU BKN090 26/24 Q1008","temp":26,"dewp":24,"wdir":150,"wspd":5,"visib":"6+","altim":1008,"clouds":[{"cover":"SCT","base":3000},{"cover":"FEW","base":4000},{"cover":"BKN","base":9000}],"obsTime":1776981600},"SBPJ":{"icaoId":"SBPJ","flightCategory":"VFR","rawOb":"METAR SBPJ 232200Z 00000KT 9999 FEW040 28/23 Q1010","temp":28,"dewp":23,"wdir":0,"wspd":0,"visib":"6+","altim":1010,"clouds":[{"cover":"FEW","base":4000}],"obsTime":1776981600},"SBPV":{"icaoId":"SBPV","flightCategory":"VFR","rawOb":"METAR SBPV 232200Z VRB02KT 9999 FEW025 FEW030TCU SCT070 26/24 Q1007","temp":26,"dewp":24,"wdir":"VRB","wspd":2,"visib":"6+","altim":1007,"clouds":[{"cover":"FEW","base":2500},{"cover":"FEW","base":3000},{"cover":"SCT","base":7000}],"obsTime":1776981600},"SBGR":{"icaoId":"SBGR","flightCategory":"MVFR","rawOb":"METAR SBGR 232200Z 13005KT 9999 BKN016 21/17 Q1020","temp":21,"dewp":17,"wdir":130,"wspd":5,"visib":"6+","altim":1020,"clouds":[{"cover":"BKN","base":1600}],"obsTime":1776981600},"SBBE":{"icaoId":"SBBE","flightCategory":"VFR","rawOb":"METAR SBBE 232200Z 14004KT 9999 -RA FEW040 BKN043 BKN071 25/25 Q1010","temp":25,"dewp":25,"wdir":140,"wspd":4,"visib":"6+","altim":1010,"clouds":[{"cover":"FEW","base":4000},{"cover":"BKN","base":4300},{"cover":"BKN","base":7100}],"obsTime":1776981600},"SBRB":{"icaoId":"SBRB","flightCategory":"VFR","rawOb":"METAR SBRB 232200Z 20001KT 9999 FEW025 FEW030TCU BKN100 25/24 Q1009","temp":25,"dewp":24,"wdir":200,"wspd":1,"visib":"6+","altim":1009,"clouds":[{"cover":"FEW","base":2500},{"cover":"FEW","base":3000},{"cover":"BKN","base":10000}],"obsTime":1776981600},"SBVT":{"icaoId":"SBVT","flightCategory":"VFR","rawOb":"METAR SBVT 232200Z 19005KT 9999 FEW025 25/20 Q1017","temp":25,"dewp":20,"wdir":190,"wspd":5,"visib":"6+","altim":1017,"clouds":[{"cover":"FEW","base":2500}],"obsTime":1776981600},"SBIL":{"icaoId":"SBIL","flightCategory":"VFR","rawOb":"METAR SBIL 232200Z 24006KT 9999 SCT016 BKN070 25/24 Q1015","temp":25,"dewp":24,"wdir":240,"wspd":6,"visib":"6+","altim":1015,"clouds":[{"cover":"SCT","base":1600},{"cover":"BKN","base":7000}],"obsTime":1776981600},"SBSG":{"icaoId":"SBSG","flightCategory":"VFR","rawOb":"METAR SBSG 232200Z VRB01KT 9999 VCSH SCT025 FEW035TCU SCT050 25/25 Q1011","temp":25,"dewp":25,"wdir":"VRB","wspd":1,"visib":"6+","altim":1011,"clouds":[{"cover":"SCT","base":2500},{"cover":"FEW","base":3500},{"cover":"SCT","base":5000}],"obsTime":1776981600},"SBEG":{"icaoId":"SBEG","flightCategory":"VFR","rawOb":"METAR SBEG 232200Z VRB02KT 9999 SCT020 FEW025TCU SCT100 25/23 Q1009 RETSRA","temp":25,"dewp":23,"wdir":"VRB","wspd":2,"visib":"6+","altim":1009,"clouds":[{"cover":"SCT","base":2000},{"cover":"FEW","base":2500},{"cover":"SCT","base":10000}],"obsTime":1776981600},"SBJU":{"icaoId":"SBJU","flightCategory":"VFR","rawOb":"METAR SBJU 232200Z 07005KT 9999 SCT020 25/23 Q1012","temp":25,"dewp":23,"wdir":70,"wspd":5,"visib":"6+","altim":1012,"clouds":[{"cover":"SCT","base":2000}],"obsTime":1776981600},"SBSL":{"icaoId":"SBSL","flightCategory":"VFR","rawOb":"METAR SBSL 232200Z 06003KT 9999 SCT025 BKN035 26/24 Q1009","temp":26,"dewp":24,"wdir":60,"wspd":3,"visib":"6+","altim":1009,"clouds":[{"cover":"SCT","base":2500},{"cover":"BKN","base":3500}],"obsTime":1776981600},"SBCG":{"icaoId":"SBCG","flightCategory":"VFR","rawOb":"METAR SBCG 232200Z 11006KT CAVOK 25/16 Q1014","temp":25,"dewp":16,"wdir":110,"wspd":6,"visib":"6+","altim":1014,"clouds":[],"obsTime":1776981600},"SBSN":{"icaoId":"SBSN","flightCategory":"VFR","rawOb":"METAR SBSN 232200Z 14002KT 9999 FEW012 OVC100 25/24 Q1011","temp":25,"dewp":24,"wdir":140,"wspd":2,"visib":"6+","altim":1011,"clouds":[{"cover":"FEW","base":1200},{"cover":"OVC","base":10000}],"obsTime":1776981600},"SBSP":{"icaoId":"SBSP","flightCategory":"MVFR","rawOb":"METAR SBSP 232200Z 17011KT 9999 OVC013 20/17 Q1021","temp":20,"dewp":17,"wdir":170,"wspd":11,"visib":"6+","altim":1021,"clouds":[{"cover":"OVC","base":1300}],"obsTime":1776981600},"SBKP":{"icaoId":"SBKP","flightCategory":"VFR","rawOb":"METAR SBKP 232200Z 13010KT CAVOK 24/17 Q1018","temp":24,"dewp":17,"wdir":130,"wspd":10,"visib":"6+","altim":1018,"clouds":[],"obsTime":1776981600},"SBSV":{"icaoId":"SBSV","flightCategory":"VFR","rawOb":"METAR SBSV 232200Z 12008KT 9999 SCT023 BKN070 28/23 Q1013","temp":28,"dewp":23,"wdir":120,"wspd":8,"visib":"6+","altim":1013,"clouds":[{"cover":"SCT","base":2300},{"cover":"BKN","base":7000}],"obsTime":1776981600},"SBLO":{"icaoId":"SBLO","flightCategory":"VFR","rawOb":"METAR SBLO 232200Z 11004KT CAVOK 24/13 Q1016","temp":24,"dewp":13,"wdir":110,"wspd":4,"visib":"6+","altim":1016,"clouds":[],"obsTime":1776981600},"SBTE":{"icaoId":"SBTE","flightCategory":"VFR","rawOb":"METAR SBTE 232200Z 22004KT 9999 SCT016 FEW030TCU BKN090 28/24 Q1009","temp":28,"dewp":24,"wdir":220,"wspd":4,"visib":"6+","altim":1009,"clouds":[{"cover":"SCT","base":1600},{"cover":"FEW","base":3000},{"cover":"BKN","base":9000}],"obsTime":1776981600},"SBFI":{"icaoId":"SBFI","flightCategory":"VFR","rawOb":"METAR SBFI 232200Z 06004KT 9999 FEW040 SCT100 26/23 Q1014","temp":26,"dewp":23,"wdir":60,"wspd":4,"visib":"6+","altim":1014,"clouds":[{"cover":"FEW","base":4000},{"cover":"SCT","base":10000}],"obsTime":1776981600},"SBBV":{"icaoId":"SBBV","flightCategory":"VFR","rawOb":"METAR SBBV 232200Z 14004KT 9999 FEW025 FEW030TCU 31/21 Q1009","temp":31,"dewp":21,"wdir":140,"wspd":4,"visib":"6+","altim":1009,"clouds":[{"cover":"FEW","base":2500},{"cover":"FEW","base":3000}],"obsTime":1776981600},"SBUL":{"icaoId":"SBUL","flightCategory":"VFR","rawOb":"METAR SBUL 232200Z 06005KT CAVOK 24/16 Q1018","temp":24,"dewp":16,"wdir":60,"wspd":5,"visib":"6+","altim":1018,"clouds":[],"obsTime":1776981600},"SBMA":{"icaoId":"SBMA","flightCategory":"VFR","rawOb":"METAR SBMA 232200Z 20002KT 9999 -RA SCT017 BKN080 26/24 Q1010","temp":26,"dewp":24,"wdir":200,"wspd":2,"visib":"6+","altim":1010,"clouds":[{"cover":"SCT","base":1700},{"cover":"BKN","base":8000}],"obsTime":1776981600},"SBUR":{"icaoId":"SBUR","flightCategory":"VFR","rawOb":"METAR SBUR 232200Z 07004KT CAVOK 28/16 Q1017","temp":28,"dewp":16,"wdir":70,"wspd":4,"visib":"6+","altim":1017,"clouds":[],"obsTime":1776981600},"SBME":{"icaoId":"SBME","flightCategory":"VFR","rawOb":"METAR SBME 232200Z 18002KT CAVOK 24/21 Q1017","temp":24,"dewp":21,"wdir":180,"wspd":2,"visib":"6+","altim":1017,"clouds":[],"obsTime":1776981600},"SBFL":{"icaoId":"SBFL","flightCategory":"VFR","rawOb":"METAR SBFL 232200Z 12006KT 9999 FEW030 23/21 Q1018","temp":23,"dewp":21,"wdir":120,"wspd":6,"visib":"6+","altim":1018,"clouds":[{"cover":"FEW","base":3000}],"obsTime":1776981600},"SBCP":{"icaoId":"SBCP","flightCategory":"VFR","rawOb":"METAR SBCP 232200Z 18004KT CAVOK 23/20 Q1018","temp":23,"dewp":20,"wdir":180,"wspd":4,"visib":"6+","altim":1018,"clouds":[],"obsTime":1776981600},"SBOI":{"icaoId":"SBOI","flightCategory":"MVFR","rawOb":"METAR SBOI 232200Z AUTO 24004KT 9999 // FEW006/// SCT008/// OVC014/// 24/24 Q1012","temp":24,"dewp":24,"wdir":240,"wspd":4,"visib":"6+","altim":1012,"clouds":[{"cover":"FEW","base":600},{"cover":"SCT","base":800},{"cover":"OVC","base":1400}],"obsTime":1776981600},"SBVH":{"icaoId":"SBVH","flightCategory":"VFR","rawOb":"METAR SBVH 232200Z 13004KT 9999 FEW040 25/23 Q1012","temp":25,"dewp":23,"wdir":130,"wspd":4,"visib":"6+","altim":1012,"clouds":[{"cover":"FEW","base":4000}],"obsTime":1776981600},"SBTT":{"icaoId":"SBTT","flightCategory":"VFR","rawOb":"METAR SBTT 232200Z 11003KT 9999 FEW030 SCT070 29/23 Q1007","temp":29,"dewp":23,"wdir":110,"wspd":3,"visib":"6+","altim":1007,"clouds":[{"cover":"FEW","base":3000},{"cover":"SCT","base":7000}],"obsTime":1776981600},"SBAX":{"icaoId":"SBAX","flightCategory":"VFR","rawOb":"METAR SBAX 232200Z 07003KT 9999 BKN045 23/15 Q1019","temp":23,"dewp":15,"wdir":70,"wspd":3,"visib":"6+","altim":1019,"clouds":[{"cover":"BKN","base":4500}],"obsTime":1776981600},"SBAR":{"icaoId":"SBAR","flightCategory":"VFR","rawOb":"METAR SBAR 232200Z 11011KT 9999 SCT024 28/24 Q1012","temp":28,"dewp":24,"wdir":110,"wspd":11,"visib":"6+","altim":1012,"clouds":[{"cover":"SCT","base":2400}],"obsTime":1776981600},"SBBH":{"icaoId":"SBBH","flightCategory":"VFR","rawOb":"METAR SBBH 232200Z 09008KT CAVOK 23/16 Q1019","temp":23,"dewp":16,"wdir":90,"wspd":8,"visib":"6+","altim":1019,"clouds":[],"obsTime":1776981600},"SBSR":{"icaoId":"SBSR","flightCategory":"VFR","rawOb":"METAR SBSR 232200Z 18002KT CAVOK 28/15 Q1015","temp":28,"dewp":15,"wdir":180,"wspd":2,"visib":"6+","altim":1015,"clouds":[],"obsTime":1776981600},"SBBU":{"icaoId":"SBBU","flightCategory":"VFR","rawOb":"METAR SBBU 232200Z 13010KT CAVOK 26/19 Q1017","temp":26,"dewp":19,"wdir":130,"wspd":10,"visib":"6+","altim":1017,"clouds":[],"obsTime":1776981600},"SBSM":{"icaoId":"SBSM","flightCategory":"MVFR","rawOb":"METAR SBSM 232200Z 12005KT 090V160 9999 OVC014 20/18 Q1018","temp":20,"dewp":18,"wdir":120,"wspd":5,"visib":"6+","altim":1018,"clouds":[{"cover":"OVC","base":1400}],"obsTime":1776981600},"SBCO":{"icaoId":"SBCO","flightCategory":"MVFR","rawOb":"METAR SBCO 232200Z 13009KT 9999 OVC020 21/18 Q1019","temp":21,"dewp":18,"wdir":130,"wspd":9,"visib":"6+","altim":1019,"clouds":[{"cover":"OVC","base":2000}],"obsTime":1776981600},"SBSC":{"icaoId":"SBSC","flightCategory":"VFR","rawOb":"METAR SBSC 232200Z 26004KT 9999 FEW025 23/19 Q1018","temp":23,"dewp":19,"wdir":260,"wspd":4,"visib":"6+","altim":1018,"clouds":[{"cover":"FEW","base":2500}],"obsTime":1776981600},"SBDN":{"icaoId":"SBDN","flightCategory":"VFR","rawOb":"METAR SBDN 232200Z 15006KT CAVOK 25/15 Q1015","temp":25,"dewp":15,"wdir":150,"wspd":6,"visib":"6+","altim":1015,"clouds":[],"obsTime":1776981600},"SBPS":{"icaoId":"SBPS","flightCategory":"MVFR","rawOb":"METAR SBPS 232200Z 29002KT 8000 -RA FEW020 BKN050 23/23 Q1016","temp":23,"dewp":23,"wdir":290,"wspd":2,"visib":4.97,"altim":1016,"clouds":[{"cover":"FEW","base":2000},{"cover":"BKN","base":5000}],"obsTime":1776981600},"SBIP":{"icaoId":"SBIP","flightCategory":"VFR","rawOb":"METAR SBIP 232200Z AUTO 19003KT CAVOK 21/20 Q1017","temp":21,"dewp":20,"wdir":190,"wspd":3,"visib":"6+","altim":1017,"clouds":[],"obsTime":1776981600},"SBPP":{"icaoId":"SBPP","flightCategory":"VFR","rawOb":"SPECI SBPP 232235Z 03004KT CAVOK 23/19 Q1016","temp":23,"dewp":19,"wdir":30,"wspd":4,"visib":"6+","altim":1016,"clouds":[],"obsTime":1776983700},"SBKG":{"icaoId":"SBKG","flightCategory":"VFR","rawOb":"METAR SBKG 232200Z 11010KT 9999 FEW017 23/22 Q1014","temp":23,"dewp":22,"wdir":110,"wspd":10,"visib":"6+","altim":1014,"clouds":[{"cover":"FEW","base":1700}],"obsTime":1776981600},"SBPL":{"icaoId":"SBPL","flightCategory":"MVFR","rawOb":"METAR SBPL 232200Z 13008KT 5000 TSRA SCT020 SCT030CB 25/24 Q1013","temp":25,"dewp":24,"wdir":130,"wspd":8,"visib":3.11,"altim":1013,"clouds":[{"cover":"SCT","base":2000},{"cover":"SCT","base":3000}],"obsTime":1776981600},"SBSJ":{"icaoId":"SBSJ","flightCategory":"VFR","rawOb":"METAR SBSJ 232200Z 12014KT 9999 SCT048 20/17 Q1019","temp":20,"dewp":17,"wdir":120,"wspd":14,"visib":"6+","altim":1019,"clouds":[{"cover":"SCT","base":4800}],"obsTime":1776981600},"SBTF":{"icaoId":"SBTF","flightCategory":"VFR","rawOb":"METAR SBTF 232200Z 02002KT 9999 FEW021 FEW030TCU 29/26 Q1008","temp":29,"dewp":26,"wdir":20,"wspd":2,"visib":"6+","altim":1008,"clouds":[{"cover":"FEW","base":2100},{"cover":"FEW","base":3000}],"obsTime":1776981600},"SBCA":{"icaoId":"SBCA","flightCategory":"VFR","rawOb":"METAR SBCA 232200Z 01004KT CAVOK 25/17 Q1018","temp":25,"dewp":17,"wdir":10,"wspd":4,"visib":"6+","altim":1018,"clouds":[],"obsTime":1776981600},"SBUY":{"icaoId":"SBUY","flightCategory":"VFR","rawOb":"METAR SBUY 232200Z 00000KT 9999 SCT030 SCT080 26/25 Q1007","temp":26,"dewp":25,"wdir":0,"wspd":0,"visib":"6+","altim":1007,"clouds":[{"cover":"SCT","base":3000},{"cover":"SCT","base":8000}],"obsTime":1776981600},"SBPB":{"icaoId":"SBPB","flightCategory":"VFR","rawOb":"SPECI SBPB 232142Z 05008KT 9999 FEW016 FEW025TCU SCT080 28/25 Q1009","temp":28,"dewp":25,"wdir":50,"wspd":8,"visib":"6+","altim":1009,"clouds":[{"cover":"FEW","base":1600},{"cover":"FEW","base":2500},{"cover":"SCT","base":8000}],"obsTime":1776980520},"SBLE":{"icaoId":"SBLE","flightCategory":"VFR","rawOb":"METAR SBLE 232200Z AUTO 13006KT 100V170 9999 BKN036 OVC043 25/22 Q1016","temp":25,"dewp":22,"wdir":130,"wspd":6,"visib":"6+","altim":1016,"clouds":[{"cover":"BKN","base":3600},{"cover":"OVC","base":4300}],"obsTime":1776981600},"SBJP":{"icaoId":"SBJP","flightCategory":"VFR","rawOb":"METAR SBJP 232200Z 14004KT 9999 FEW020 BKN070 26/25 Q1011","temp":26,"dewp":25,"wdir":140,"wspd":4,"visib":"6+","altim":1011,"clouds":[{"cover":"FEW","base":2000},{"cover":"BKN","base":7000}],"obsTime":1776981600},"SBAN":{"icaoId":"SBAN","flightCategory":"VFR","rawOb":"METAR SBAN 232200Z 18006KT CAVOK 22/16 Q1019","temp":22,"dewp":16,"wdir":180,"wspd":6,"visib":"6+","altim":1019,"clouds":[],"obsTime":1776981600},"SBAF":{"icaoId":"SBAF","flightCategory":"VFR","rawOb":"METAR SBAF 232200Z 18004KT CAVOK 25/18 Q1017","temp":25,"dewp":18,"wdir":180,"wspd":4,"visib":"6+","altim":1017,"clouds":[],"obsTime":1776981600},"SBJR":{"icaoId":"SBJR","flightCategory":"VFR","rawOb":"METAR SBJR 232200Z 13006KT CAVOK 25/18 Q1017","temp":25,"dewp":18,"wdir":130,"wspd":6,"visib":"6+","altim":1017,"clouds":[],"obsTime":1776981600},"SBLS":{"icaoId":"SBLS","flightCategory":"VFR","rawOb":"METAR SBLS 232200Z 14011KT 9999 FEW035 22/17 Q1019","temp":22,"dewp":17,"wdir":140,"wspd":11,"visib":"6+","altim":1019,"clouds":[{"cover":"FEW","base":3500}],"obsTime":1776981600},"SBMT":{"icaoId":"SBMT","flightCategory":"MVFR","rawOb":"METAR SBMT 232200Z 14009KT 9999 BKN020 20/16 Q1020","temp":20,"dewp":16,"wdir":140,"wspd":9,"visib":"6+","altim":1020,"clouds":[{"cover":"BKN","base":2000}],"obsTime":1776981600},"SBTA":{"icaoId":"SBTA","flightCategory":"VFR","rawOb":"METAR SBTA 232200Z 14007KT 9999 FEW045 21/17 Q1018","temp":21,"dewp":17,"wdir":140,"wspd":7,"visib":"6+","altim":1018,"clouds":[{"cover":"FEW","base":4500}],"obsTime":1776981600},"SBJV":{"icaoId":"SBJV","flightCategory":"VFR","rawOb":"METAR SBJV 232200Z 19001KT CAVOK 20/19 Q1018","temp":20,"dewp":19,"wdir":190,"wspd":1,"visib":"6+","altim":1018,"clouds":[],"obsTime":1776981600},"SBGW":{"icaoId":"SBGW","flightCategory":"VFR","rawOb":"METAR SBGW 232200Z 00000KT 9999 SCT045 22/15 Q1019","temp":22,"dewp":15,"wdir":0,"wspd":0,"visib":"6+","altim":1019,"clouds":[{"cover":"SCT","base":4500}],"obsTime":1776981600}}}