{"updated":1776369298,"count":86,"data":{"SBEG":{"icaoId":"SBEG","flightCategory":"VFR","rawOb":"METAR SBEG 161800Z COR 05007KT 9999 SCT020 32/23 Q1007","temp":32,"dewp":23,"wdir":50,"wspd":7,"visib":"6+","altim":1007,"clouds":[{"cover":"SCT","base":2000}],"obsTime":1776362400},"SBLO":{"icaoId":"SBLO","flightCategory":"VFR","rawOb":"METAR SBLO 161800Z 04008KT 9999 FEW020 28/18 Q1012","temp":28,"dewp":18,"wdir":40,"wspd":8,"visib":"6+","altim":1012,"clouds":[{"cover":"FEW","base":2000}],"obsTime":1776362400},"SBFI":{"icaoId":"SBFI","flightCategory":"MVFR","rawOb":"METAR SBFI 161800Z 34005KT 9999 BKN017 BKN030 26/22 Q1009","temp":26,"dewp":22,"wdir":340,"wspd":5,"visib":"6+","altim":1009,"clouds":[{"cover":"BKN","base":1700},{"cover":"BKN","base":3000}],"obsTime":1776362400},"SBMA":{"icaoId":"SBMA","flightCategory":"VFR","rawOb":"METAR SBMA 161800Z 17006KT 9999 SCT023 32/25 Q1006","temp":32,"dewp":25,"wdir":170,"wspd":6,"visib":"6+","altim":1006,"clouds":[{"cover":"SCT","base":2300}],"obsTime":1776362400},"SBME":{"icaoId":"SBME","flightCategory":"VFR","rawOb":"METAR SBME 161800Z 16007KT 9999 FEW025 27/22 Q1011","temp":27,"dewp":22,"wdir":160,"wspd":7,"visib":"6+","altim":1011,"clouds":[{"cover":"FEW","base":2500}],"obsTime":1776362400},"SBCG":{"icaoId":"SBCG","flightCategory":"VFR","rawOb":"METAR SBCG 161800Z 29006KT 250V340 9999 BKN035 FEW040TCU 30/21 Q1010","temp":30,"dewp":21,"wdir":290,"wspd":6,"visib":"6+","altim":1010,"clouds":[{"cover":"BKN","base":3500},{"cover":"FEW","base":4000}],"obsTime":1776362400},"SBMG":{"icaoId":"SBMG","flightCategory":"VFR","rawOb":"METAR SBMG 161800Z 02009KT 9999 FEW040 29/19 Q1011","temp":29,"dewp":19,"wdir":20,"wspd":9,"visib":"6+","altim":1011,"clouds":[{"cover":"FEW","base":4000}],"obsTime":1776362400},"SBFL":{"icaoId":"SBFL","flightCategory":"VFR","rawOb":"METAR SBFL 161800Z 35009KT 9999 FEW045 27/21 Q1011","temp":27,"dewp":21,"wdir":350,"wspd":9,"visib":"6+","altim":1011,"clouds":[{"cover":"FEW","base":4500}],"obsTime":1776362400},"SBMK":{"icaoId":"SBMK","flightCategory":"VFR","rawOb":"METAR SBMK 161800Z 00000KT 9999 SCT045 28/13 Q1013","temp":28,"dewp":13,"wdir":0,"wspd":0,"visib":"6+","altim":1013,"clouds":[{"cover":"SCT","base":4500}],"obsTime":1776362400},"SBCB":{"icaoId":"SBCB","flightCategory":"VFR","rawOb":"METAR SBCB 161800Z 29008KT 9999 FEW020 26/21 Q1012","temp":26,"dewp":21,"wdir":290,"wspd":8,"visib":"6+","altim":1012,"clouds":[{"cover":"FEW","base":2000}],"obsTime":1776362400},"SBMO":{"icaoId":"SBMO","flightCategory":"MVFR","rawOb":"METAR SBMO 161800Z 16010KT 9999 BKN025 29/23 Q1009","temp":29,"dewp":23,"wdir":160,"wspd":10,"visib":"6+","altim":1009,"clouds":[{"cover":"BKN","base":2500}],"obsTime":1776362400},"SBFZ":{"icaoId":"SBFZ","flightCategory":"VFR","rawOb":"METAR SBFZ 161800Z 08009KT 9999 FEW025 SCT100 30/24 Q1006","temp":30,"dewp":24,"wdir":80,"wspd":9,"visib":"6+","altim":1006,"clouds":[{"cover":"FEW","base":2500},{"cover":"SCT","base":10000}],"obsTime":1776362400},"SBCP":{"icaoId":"SBCP","flightCategory":"VFR","rawOb":"METAR SBCP 161800Z 01004KT 9999 SCT020 SCT090 26/22 Q1011","temp":26,"dewp":22,"wdir":10,"wspd":4,"visib":"6+","altim":1011,"clouds":[{"cover":"SCT","base":2000},{"cover":"SCT","base":9000}],"obsTime":1776362400},"SBMQ":{"icaoId":"SBMQ","flightCategory":"MVFR","rawOb":"METAR SBMQ 161800Z 04006KT 9000 4000W -RA FEW006 BKN010 OVC030 26/25 Q1008","temp":26,"dewp":25,"wdir":40,"wspd":6,"visib":5.59,"altim":1008,"clouds":[{"cover":"FEW","base":600},{"cover":"BKN","base":1000},{"cover":"OVC","base":3000}],"obsTime":1776362400},"SBNT":{"icaoId":"SBNT","flightCategory":"VFR","rawOb":"METAR SBNT 161800Z 12011KT 090V150 9999 FEW026 31/24 Q1007","temp":31,"dewp":24,"wdir":120,"wspd":11,"visib":"6+","altim":1007,"clouds":[{"cover":"FEW","base":2600}],"obsTime":1776362400},"SBGL":{"icaoId":"SBGL","flightCategory":"VFR","rawOb":"METAR SBGL 161800Z 13010KT 9999 FEW030 27/21 Q1011","temp":27,"dewp":21,"wdir":130,"wspd":10,"visib":"6+","altim":1011,"clouds":[{"cover":"FEW","base":3000}],"obsTime":1776362400},"SBPA":{"icaoId":"SBPA","flightCategory":"VFR","rawOb":"METAR SBPA 161800Z 06005KT CAVOK 30/21 Q1006","temp":30,"dewp":21,"wdir":60,"wspd":5,"visib":"6+","altim":1006,"clouds":[],"obsTime":1776362400},"SBCR":{"icaoId":"SBCR","flightCategory":"VFR","rawOb":"METAR SBCR 161800Z 32007KT 290V360 9999 SCT030 30/24 Q1008","temp":30,"dewp":24,"wdir":320,"wspd":7,"visib":"6+","altim":1008,"clouds":[{"cover":"SCT","base":3000}],"obsTime":1776362400},"SBGO":{"icaoId":"SBGO","flightCategory":"VFR","rawOb":"METAR SBGO 161800Z 08006KT 010V110 9999 SCT048 FEW049TCU 30/19 Q1012","temp":30,"dewp":19,"wdir":80,"wspd":6,"visib":"6+","altim":1012,"clouds":[{"cover":"SCT","base":4800},{"cover":"FEW","base":4900}],"obsTime":1776362400},"SBPJ":{"icaoId":"SBPJ","flightCategory":"VFR","rawOb":"METAR SBPJ 161800Z 12004KT 050V150 9999 -RA FEW006 SCT030 FEW035TCU BKN070 24/23 Q1009 RETSRA","temp":24,"dewp":23,"wdir":120,"wspd":4,"visib":"6+","altim":1009,"clouds":[{"cover":"FEW","base":600},{"cover":"SCT","base":3000},{"cover":"FEW","base":3500},{"cover":"BKN","base":7000}],"obsTime":1776362400},"SBPV":{"icaoId":"SBPV","flightCategory":"VFR","rawOb":"METAR SBPV 161800Z 34006KT 9999 VCSH BKN045 FEW050TCU 29/23 Q1006","temp":29,"dewp":23,"wdir":340,"wspd":6,"visib":"6+","altim":1006,"clouds":[{"cover":"BKN","base":4500},{"cover":"FEW","base":5000}],"obsTime":1776362400},"SBBE":{"icaoId":"SBBE","flightCategory":"VFR","rawOb":"METAR SBBE 161800Z 14007KT 9999 VCSH SCT048 FEW049TCU 32/24 Q1006","temp":32,"dewp":24,"wdir":140,"wspd":7,"visib":"6+","altim":1006,"clouds":[{"cover":"SCT","base":4800},{"cover":"FEW","base":4900}],"obsTime":1776362400},"SBRB":{"icaoId":"SBRB","flightCategory":"MVFR","rawOb":"METAR SBRB 161800Z 32003KT 270V040 9999 BKN027 BKN083 30/24 Q1009","temp":30,"dewp":24,"wdir":320,"wspd":3,"visib":"6+","altim":1009,"clouds":[{"cover":"BKN","base":2700},{"cover":"BKN","base":8300}],"obsTime":1776362400},"SBBR":{"icaoId":"SBBR","flightCategory":"VFR","rawOb":"METAR SBBR 161800Z 09006KT 040V120 9999 SCT035 FEW040TCU BKN090 26/17 Q1015","temp":26,"dewp":17,"wdir":90,"wspd":6,"visib":"6+","altim":1015,"clouds":[{"cover":"SCT","base":3500},{"cover":"FEW","base":4000},{"cover":"BKN","base":9000}],"obsTime":1776362400},"SBRF":{"icaoId":"SBRF","flightCategory":"VFR","rawOb":"METAR SBRF 161800Z 15011KT 9999 SCT023 29/24 Q1008","temp":29,"dewp":24,"wdir":150,"wspd":11,"visib":"6+","altim":1008,"clouds":[{"cover":"SCT","base":2300}],"obsTime":1776362400},"SBGR":{"icaoId":"SBGR","flightCategory":"VFR","rawOb":"METAR SBGR 161800Z 24004KT CAVOK 28/14 Q1014","temp":28,"dewp":14,"wdir":240,"wspd":4,"visib":"6+","altim":1014,"clouds":[],"obsTime":1776362400},"SBSG":{"icaoId":"SBSG","flightCategory":"VFR","rawOb":"METAR SBSG 161800Z 12008KT 090V170 9999 SCT033 30/23 Q1007","temp":30,"dewp":23,"wdir":120,"wspd":8,"visib":"6+","altim":1007,"clouds":[{"cover":"SCT","base":3300}],"obsTime":1776362400},"SBCT":{"icaoId":"SBCT","flightCategory":"VFR","rawOb":"METAR SBCT 161800Z 14008KT 9999 SCT040 25/17 Q1015","temp":25,"dewp":17,"wdir":140,"wspd":8,"visib":"6+","altim":1015,"clouds":[{"cover":"SCT","base":4000}],"obsTime":1776362400},"SBSL":{"icaoId":"SBSL","flightCategory":"VFR","rawOb":"METAR SBSL 161800Z 03008KT 9999 SCT025 BKN070 29/24 Q1007","temp":29,"dewp":24,"wdir":30,"wspd":8,"visib":"6+","altim":1007,"clouds":[{"cover":"SCT","base":2500},{"cover":"BKN","base":7000}],"obsTime":1776362400},"SBHT":{"icaoId":"SBHT","flightCategory":"MVFR","rawOb":"METAR SBHT 161800Z 05005KT 9999 BKN025 30/25 Q1007","temp":30,"dewp":25,"wdir":50,"wspd":5,"visib":"6+","altim":1007,"clouds":[{"cover":"BKN","base":2500}],"obsTime":1776362400},"SBIL":{"icaoId":"SBIL","flightCategory":"VFR","rawOb":"METAR SBIL 161800Z 16007KT 120V190 9999 FEW030 30/22 Q1009","temp":30,"dewp":22,"wdir":160,"wspd":7,"visib":"6+","altim":1009,"clouds":[{"cover":"FEW","base":3000}],"obsTime":1776362400},"SBSN":{"icaoId":"SBSN","flightCategory":"VFR","rawOb":"METAR SBSN 161800Z 08008KT 9999 FEW035 FEW040TCU SCT100 31/25 Q1007","temp":31,"dewp":25,"wdir":80,"wspd":8,"visib":"6+","altim":1007,"clouds":[{"cover":"FEW","base":3500},{"cover":"FEW","base":4000},{"cover":"SCT","base":10000}],"obsTime":1776362400},"SBSP":{"icaoId":"SBSP","flightCategory":"VFR","rawOb":"METAR SBSP 161800Z VRB06KT 9999 SCT045 27/17 Q1015","temp":27,"dewp":17,"wdir":"VRB","wspd":6,"visib":"6+","altim":1015,"clouds":[{"cover":"SCT","base":4500}],"obsTime":1776362400},"SBCF":{"icaoId":"SBCF","flightCategory":"VFR","rawOb":"METAR SBCF 161800Z VRB02KT 9999 SCT042 26/14 Q1014","temp":26,"dewp":14,"wdir":"VRB","wspd":2,"visib":"6+","altim":1014,"clouds":[{"cover":"SCT","base":4200}],"obsTime":1776362400},"SBJU":{"icaoId":"SBJU","flightCategory":"MVFR","rawOb":"METAR SBJU 161800Z 18005KT 9999 BKN022 27/21 Q1010","temp":27,"dewp":21,"wdir":180,"wspd":5,"visib":"6+","altim":1010,"clouds":[{"cover":"BKN","base":2200}],"obsTime":1776362400},"SBSV":{"icaoId":"SBSV","flightCategory":"VFR","rawOb":"METAR SBSV 161800Z 18008KT 140V220 9999 FEW016 SCT023 30/22 Q1009","temp":30,"dewp":22,"wdir":180,"wspd":8,"visib":"6+","altim":1009,"clouds":[{"cover":"FEW","base":1600},{"cover":"SCT","base":2300}],"obsTime":1776362400},"SBCZ":{"icaoId":"SBCZ","flightCategory":"MVFR","rawOb":"METAR SBCZ 161800Z 36006KT 320V020 9999 BKN025 BKN100 30/24 Q1009","temp":30,"dewp":24,"wdir":360,"wspd":6,"visib":"6+","altim":1009,"clouds":[{"cover":"BKN","base":2500},{"cover":"BKN","base":10000}],"obsTime":1776362400},"SBTE":{"icaoId":"SBTE","flightCategory":"VFR","rawOb":"METAR SBTE 161800Z 11007KT 9999 FEW035 32/23 Q1006","temp":32,"dewp":23,"wdir":110,"wspd":7,"visib":"6+","altim":1006,"clouds":[{"cover":"FEW","base":3500}],"obsTime":1776362400},"SBUL":{"icaoId":"SBUL","flightCategory":"VFR","rawOb":"METAR SBUL 161800Z 06008KT 9999 SCT030 27/15 Q1015","temp":27,"dewp":15,"wdir":60,"wspd":8,"visib":"6+","altim":1015,"clouds":[{"cover":"SCT","base":3000}],"obsTime":1776362400},"SBKP":{"icaoId":"SBKP","flightCategory":"VFR","rawOb":"METAR SBKP 161800Z VRB03KT 9999 FEW040 28/13 Q1014","temp":28,"dewp":13,"wdir":"VRB","wspd":3,"visib":"6+","altim":1014,"clouds":[{"cover":"FEW","base":4000}],"obsTime":1776362400},"SBUR":{"icaoId":"SBUR","flightCategory":"VFR","rawOb":"METAR SBUR 161800Z 14004KT CAVOK 29/14 Q1013","temp":29,"dewp":14,"wdir":140,"wspd":4,"visib":"6+","altim":1013,"clouds":[],"obsTime":1776362400},"SBBV":{"icaoId":"SBBV","flightCategory":"VFR","rawOb":"METAR SBBV 161800Z 11007KT 9999 BKN040 FEW045TCU 34/21 Q1008","temp":34,"dewp":21,"wdir":110,"wspd":7,"visib":"6+","altim":1008,"clouds":[{"cover":"BKN","base":4000},{"cover":"FEW","base":4500}],"obsTime":1776362400},"SBVT":{"icaoId":"SBVT","flightCategory":"VFR","rawOb":"METAR SBVT 161800Z 17012KT 9999 FEW040 BKN100 27/21 Q1011","temp":27,"dewp":21,"wdir":170,"wspd":12,"visib":"6+","altim":1011,"clouds":[{"cover":"FEW","base":4000},{"cover":"BKN","base":10000}],"obsTime":1776362400},"SBAT":{"icaoId":"SBAT","flightCategory":"VFR","rawOb":"METAR SBAT 161800Z 04013G23KT 9999 TS VCSH SCT035 FEW040CB 27/24 Q1009","temp":27,"dewp":24,"wdir":40,"wspd":13,"visib":"6+","altim":1009,"clouds":[{"cover":"SCT","base":3500},{"cover":"FEW","base":4000}],"obsTime":1776362400},"SBPB":{"icaoId":"SBPB","flightCategory":"VFR","rawOb":"METAR SBPB 161800Z 01010KT 9999 SCT020 FEW025TCU 30/25 Q1007","temp":30,"dewp":25,"wdir":10,"wspd":10,"visib":"6+","altim":1007,"clouds":[{"cover":"SCT","base":2000},{"cover":"FEW","base":2500}],"obsTime":1776362400},"SBOI":{"icaoId":"SBOI","flightCategory":"VFR","rawOb":"METAR SBOI 161800Z AUTO 08003KT 020V130 9999 BKN032 29/25 Q1008","temp":29,"dewp":25,"wdir":80,"wspd":3,"visib":"6+","altim":1008,"clouds":[{"cover":"BKN","base":3200}],"obsTime":1776362400},"SBCJ":{"icaoId":"SBCJ","flightCategory":"VFR","rawOb":"METAR SBCJ 161800Z 12007KT 9999 FEW020 28/22 Q1012","temp":28,"dewp":22,"wdir":120,"wspd":7,"visib":"6+","altim":1012,"clouds":[{"cover":"FEW","base":2000}],"obsTime":1776362400},"SBPL":{"icaoId":"SBPL","flightCategory":"VFR","rawOb":"METAR SBPL 161800Z 07008KT 9999 SCT030 34/18 Q1008","temp":34,"dewp":18,"wdir":70,"wspd":8,"visib":"6+","altim":1008,"clouds":[{"cover":"SCT","base":3000}],"obsTime":1776362400},"SBCO":{"icaoId":"SBCO","flightCategory":"VFR","rawOb":"METAR SBCO 161800Z 07007KT 9999 FEW040 SCT080 30/21 Q1006","temp":30,"dewp":21,"wdir":70,"wspd":7,"visib":"6+","altim":1006,"clouds":[{"cover":"FEW","base":4000},{"cover":"SCT","base":8000}],"obsTime":1776362400},"SBPP":{"icaoId":"SBPP","flightCategory":"MVFR","rawOb":"METAR SBPP 161800Z 25007KT 9999 BKN015 26/22 Q1012","temp":26,"dewp":22,"wdir":250,"wspd":7,"visib":"6+","altim":1012,"clouds":[{"cover":"BKN","base":1500}],"obsTime":1776362400},"SBBU":{"icaoId":"SBBU","flightCategory":"VFR","rawOb":"METAR SBBU 161800Z 12005KT CAVOK 30/16 Q1013","temp":30,"dewp":16,"wdir":120,"wspd":5,"visib":"6+","altim":1013,"clouds":[],"obsTime":1776362400},"SBPS":{"icaoId":"SBPS","flightCategory":"VFR","rawOb":"METAR SBPS 161800Z 14006KT 080V210 9999 SCT020 28/22 Q1010","temp":28,"dewp":22,"wdir":140,"wspd":6,"visib":"6+","altim":1010,"clouds":[{"cover":"SCT","base":2000}],"obsTime":1776362400},"SBDN":{"icaoId":"SBDN","flightCategory":"VFR","rawOb":"METAR SBDN 161800Z 00000KT CAVOK 31/18 Q1011","temp":31,"dewp":18,"wdir":0,"wspd":0,"visib":"6+","altim":1011,"clouds":[],"obsTime":1776362400},"SBAX":{"icaoId":"SBAX","flightCategory":"VFR","rawOb":"METAR SBAX 161800Z 17005KT 9999 SCT030 27/12 Q1015","temp":27,"dewp":12,"wdir":170,"wspd":5,"visib":"6+","altim":1015,"clouds":[{"cover":"SCT","base":3000}],"obsTime":1776362400},"SBSC":{"icaoId":"SBSC","flightCategory":"VFR","rawOb":"METAR SBSC 161800Z 16008KT 9999 FEW030 27/21 Q1011","temp":27,"dewp":21,"wdir":160,"wspd":8,"visib":"6+","altim":1011,"clouds":[{"cover":"FEW","base":3000}],"obsTime":1776362400},"SBSJ":{"icaoId":"SBSJ","flightCategory":"VFR","rawOb":"METAR SBSJ 161800Z VRB02KT 9999 FEW035 28/15 Q1014","temp":28,"dewp":15,"wdir":"VRB","wspd":2,"visib":"6+","altim":1014,"clouds":[{"cover":"FEW","base":3500}],"obsTime":1776362400},"SBCA":{"icaoId":"SBCA","flightCategory":"MVFR","rawOb":"METAR SBCA 161800Z 36007KT 330V040 9999 -RA BKN025 24/20 Q1013","temp":24,"dewp":20,"wdir":360,"wspd":7,"visib":"6+","altim":1013,"clouds":[{"cover":"BKN","base":2500}],"obsTime":1776362400},"SBSM":{"icaoId":"SBSM","flightCategory":"VFR","rawOb":"METAR SBSM 161800Z 31009KT 9999 FEW035 BKN045 26/18 Q1006","temp":26,"dewp":18,"wdir":310,"wspd":9,"visib":"6+","altim":1006,"clouds":[{"cover":"FEW","base":3500},{"cover":"BKN","base":4500}],"obsTime":1776362400},"SBES":{"icaoId":"SBES","flightCategory":"VFR","rawOb":"METAR SBES 161800Z 23006KT 130V270 9999 FEW025 26/// Q1012","temp":null,"dewp":null,"wdir":230,"wspd":6,"visib":"6+","altim":1012,"clouds":[{"cover":"FEW","base":2500}],"obsTime":1776362400},"SBSR":{"icaoId":"SBSR","flightCategory":"VFR","rawOb":"METAR SBSR 161800Z 30004KT 9999 SCT025 31/14 Q1012","temp":31,"dewp":14,"wdir":300,"wspd":4,"visib":"6+","altim":1012,"clouds":[{"cover":"SCT","base":2500}],"obsTime":1776362400},"SBBH":{"icaoId":"SBBH","flightCategory":"VFR","rawOb":"METAR SBBH 161800Z 07002KT 9999 SCT045 28/15 Q1014","temp":28,"dewp":15,"wdir":70,"wspd":2,"visib":"6+","altim":1014,"clouds":[{"cover":"SCT","base":4500}],"obsTime":1776362400},"SBTD":{"icaoId":"SBTD","flightCategory":"VFR","rawOb":"METAR SBTD 161900Z /////KT 9999 SCT020 SCT080 26/20 Q1011","temp":26,"dewp":20,"wdir":null,"wspd":null,"visib":"6+","altim":1011,"clouds":[{"cover":"SCT","base":2000},{"cover":"SCT","base":8000}],"obsTime":1776366000},"SBGM":{"icaoId":"SBGM","flightCategory":"VFR","rawOb":"METAR SBGM 161800Z 32006KT 270V020 9999 FEW013 BKN073 31/22 Q1007","temp":31,"dewp":22,"wdir":320,"wspd":6,"visib":"6+","altim":1007,"clouds":[{"cover":"FEW","base":1300},{"cover":"BKN","base":7300}],"obsTime":1776362400},"SBTF":{"icaoId":"SBTF","flightCategory":"VFR","rawOb":"METAR SBTF 161800Z 07002KT 9999 SCT020 34/25 Q1006","temp":34,"dewp":25,"wdir":70,"wspd":2,"visib":"6+","altim":1006,"clouds":[{"cover":"SCT","base":2000}],"obsTime":1776362400},"SBTT":{"icaoId":"SBTT","flightCategory":"MVFR","rawOb":"METAR SBTT 161800Z 24004KT 9999 SCT022 BKN030 29/24 Q1008","temp":29,"dewp":24,"wdir":240,"wspd":4,"visib":"6+","altim":1008,"clouds":[{"cover":"SCT","base":2200},{"cover":"BKN","base":3000}],"obsTime":1776362400},"SBIP":{"icaoId":"SBIP","flightCategory":"VFR","rawOb":"METAR SBIP 161800Z AUTO VRB03KT CAVOK 31/16 Q1011","temp":31,"dewp":16,"wdir":"VRB","wspd":3,"visib":"6+","altim":1011,"clouds":[],"obsTime":1776362400},"SBUY":{"icaoId":"SBUY","flightCategory":"VFR","rawOb":"METAR SBUY 161800Z 13006KT 9999 SCT025 FEW030TCU 33/24 Q1005","temp":33,"dewp":24,"wdir":130,"wspd":6,"visib":"6+","altim":1005,"clouds":[{"cover":"SCT","base":2500},{"cover":"FEW","base":3000}],"obsTime":1776362400},"SBBQ":{"icaoId":"SBBQ","flightCategory":"VFR","rawOb":"METAR SBBQ 161800Z 09005KT 9999 SCT045 24/15 Q1018","temp":24,"dewp":15,"wdir":90,"wspd":5,"visib":"6+","altim":1018,"clouds":[{"cover":"SCT","base":4500}],"obsTime":1776362400},"SBVH":{"icaoId":"SBVH","flightCategory":"LIFR","rawOb":"METAR SBVH 161800Z 02004KT 0500 +TSRA BKN007 BKN025 FEW030CB BKN080 23/22 Q1012","temp":23,"dewp":22,"wdir":20,"wspd":4,"visib":0.31,"altim":1012,"clouds":[{"cover":"BKN","base":700},{"cover":"BKN","base":2500},{"cover":"FEW","base":3000},{"cover":"BKN","base":8000}],"obsTime":1776362400},"SBKG":{"icaoId":"SBKG","flightCategory":"VFR","rawOb":"METAR SBKG 161800Z 10006KT 9999 SCT030 30/21 Q1010","temp":30,"dewp":21,"wdir":100,"wspd":6,"visib":"6+","altim":1010,"clouds":[{"cover":"SCT","base":3000}],"obsTime":1776362400},"SBAR":{"icaoId":"SBAR","flightCategory":"VFR","rawOb":"METAR SBAR 161800Z 15010KT 9999 SCT024 29/23 Q1009","temp":29,"dewp":23,"wdir":150,"wspd":10,"visib":"6+","altim":1009,"clouds":[{"cover":"SCT","base":2400}],"obsTime":1776362400},"SBCC":{"icaoId":"SBCC","flightCategory":"MVFR","rawOb":"METAR SBCC 161800Z 01007KT 9999 BKN025 FEW035TCU BKN080 27/22 Q1009","temp":27,"dewp":22,"wdir":10,"wspd":7,"visib":"6+","altim":1009,"clouds":[{"cover":"BKN","base":2500},{"cover":"FEW","base":3500},{"cover":"BKN","base":8000}],"obsTime":1776362400},"SBAU":{"icaoId":"SBAU","flightCategory":"VFR","rawOb":"METAR SBAU 161800Z 01005KT 9999 FEW040 34/17 Q1011","temp":34,"dewp":17,"wdir":10,"wspd":5,"visib":"6+","altim":1011,"clouds":[{"cover":"FEW","base":4000}],"obsTime":1776362400},"SBJP":{"icaoId":"SBJP","flightCategory":"VFR","rawOb":"METAR SBJP 161800Z 12012KT 9999 SCT030 30/24 Q1008","temp":30,"dewp":24,"wdir":120,"wspd":12,"visib":"6+","altim":1008,"clouds":[{"cover":"SCT","base":3000}],"obsTime":1776362400},"SBIH":{"icaoId":"SBIH","flightCategory":"VFR","rawOb":"METAR SBIH 161800Z 04009KT 9999 SCT020 FEW023TCU 32/25 Q1006","temp":32,"dewp":25,"wdir":40,"wspd":9,"visib":"6+","altim":1006,"clouds":[{"cover":"SCT","base":2000},{"cover":"FEW","base":2300}],"obsTime":1776362400},"SBLE":{"icaoId":"SBLE","flightCategory":"VFR","rawOb":"METAR SBLE 161800Z AUTO VRB05KT 9999 FEW036 28/20 Q1011","temp":28,"dewp":20,"wdir":"VRB","wspd":5,"visib":"6+","altim":1011,"clouds":[{"cover":"FEW","base":3600}],"obsTime":1776362400},"SBAF":{"icaoId":"SBAF","flightCategory":"VFR","rawOb":"METAR SBAF 161800Z 19011KT 9999 FEW024 SCT050 27/23 Q1011","temp":27,"dewp":23,"wdir":190,"wspd":11,"visib":"6+","altim":1011,"clouds":[{"cover":"FEW","base":2400},{"cover":"SCT","base":5000}],"obsTime":1776362400},"SBGW":{"icaoId":"SBGW","flightCategory":"VFR","rawOb":"METAR SBGW 161800Z VRB03KT 9999 FEW030 29/13 Q1013","temp":29,"dewp":13,"wdir":"VRB","wspd":3,"visib":"6+","altim":1013,"clouds":[{"cover":"FEW","base":3000}],"obsTime":1776362400},"SBJR":{"icaoId":"SBJR","flightCategory":"VFR","rawOb":"METAR SBJR 161800Z 17008KT 9999 FEW020 28/21 Q1011","temp":28,"dewp":21,"wdir":170,"wspd":8,"visib":"6+","altim":1011,"clouds":[{"cover":"FEW","base":2000}],"obsTime":1776362400},"SBLS":{"icaoId":"SBLS","flightCategory":"VFR","rawOb":"METAR SBLS 161800Z 18005KT 120V200 9999 SCT042 26/14 Q1014","temp":26,"dewp":14,"wdir":180,"wspd":5,"visib":"6+","altim":1014,"clouds":[{"cover":"SCT","base":4200}],"obsTime":1776362400},"SBMT":{"icaoId":"SBMT","flightCategory":"VFR","rawOb":"METAR SBMT 161800Z 00000KT 9999 FEW040 28/13 Q1014","temp":28,"dewp":13,"wdir":0,"wspd":0,"visib":"6+","altim":1014,"clouds":[{"cover":"FEW","base":4000}],"obsTime":1776362400},"SBST":{"icaoId":"SBST","flightCategory":"VFR","rawOb":"METAR SBST 161800Z 15006KT 110V200 9999 SCT031 27/21 Q1011","temp":27,"dewp":21,"wdir":150,"wspd":6,"visib":"6+","altim":1011,"clouds":[{"cover":"SCT","base":3100}],"obsTime":1776362400},"SBTA":{"icaoId":"SBTA","flightCategory":"VFR","rawOb":"METAR SBTA 161800Z 08004KT 020V130 9999 FEW035 27/11 Q1013","temp":27,"dewp":11,"wdir":80,"wspd":4,"visib":"6+","altim":1013,"clouds":[{"cover":"FEW","base":3500}],"obsTime":1776362400},"SBAN":{"icaoId":"SBAN","flightCategory":"VFR","rawOb":"METAR SBAN 161800Z 17004KT 120V220 9999 4000S VCSH BKN035 FEW040TCU BKN070 25/17 Q1015","temp":25,"dewp":17,"wdir":170,"wspd":4,"visib":"6+","altim":1015,"clouds":[{"cover":"BKN","base":3500},{"cover":"FEW","base":4000},{"cover":"BKN","base":7000}],"obsTime":1776362400},"SBJV":{"icaoId":"SBJV","flightCategory":"VFR","rawOb":"METAR SBJV 161800Z 07006KT 9999 FEW030 28/21 Q1011","temp":28,"dewp":21,"wdir":70,"wspd":6,"visib":"6+","altim":1011,"clouds":[{"cover":"FEW","base":3000}],"obsTime":1776362400},"SBNM":{"icaoId":"SBNM","flightCategory":"MVFR","rawOb":"METAR SBNM 161800Z 02010KT 9999 BKN020 26/19 Q1009","temp":26,"dewp":19,"wdir":20,"wspd":10,"visib":"6+","altim":1009,"clouds":[{"cover":"BKN","base":2000}],"obsTime":1776362400}}}