{"updated":1774355994,"count":86,"data":{"SBKP":{"icaoId":"SBKP","flightCategory":"VFR","rawOb":"METAR SBKP 241100Z 13005KT 9000 4000E NSC 20/18 Q1014","temp":20,"dewp":18,"wdir":130,"wspd":5,"visib":5.59,"altim":1014,"clouds":[],"obsTime":1774350000},"SBBE":{"icaoId":"SBBE","flightCategory":"VFR","rawOb":"METAR SBBE 241100Z 08002KT 9999 FEW006 BKN100 26/25 Q1012","temp":26,"dewp":25,"wdir":80,"wspd":2,"visib":"6+","altim":1012,"clouds":[{"cover":"FEW","base":600},{"cover":"BKN","base":10000}],"obsTime":1774350000},"SBVT":{"icaoId":"SBVT","flightCategory":"IFR","rawOb":"METAR SBVT 241100Z 34004KT 300V020 8000 -RA BKN007 BKN030 23/23 Q1015","temp":23,"dewp":23,"wdir":340,"wspd":4,"visib":4.97,"altim":1015,"clouds":[{"cover":"BKN","base":700},{"cover":"BKN","base":3000}],"obsTime":1774350000},"SBBR":{"icaoId":"SBBR","flightCategory":"VFR","rawOb":"METAR SBBR 241100Z VRB02KT 9999 FEW015 21/17 Q1018","temp":21,"dewp":17,"wdir":"VRB","wspd":2,"visib":"6+","altim":1018,"clouds":[{"cover":"FEW","base":1500}],"obsTime":1774350000},"SBUR":{"icaoId":"SBUR","flightCategory":"VFR","rawOb":"METAR SBUR 241100Z 04004KT CAVOK 25/19 Q1014","temp":25,"dewp":19,"wdir":40,"wspd":4,"visib":"6+","altim":1014,"clouds":[],"obsTime":1774350000},"SBBV":{"icaoId":"SBBV","flightCategory":"VFR","rawOb":"METAR SBBV 241100Z 08006KT 9999 FEW035 BKN070 27/22 Q1011","temp":27,"dewp":22,"wdir":80,"wspd":6,"visib":"6+","altim":1011,"clouds":[{"cover":"FEW","base":3500},{"cover":"BKN","base":7000}],"obsTime":1774350000},"SBUL":{"icaoId":"SBUL","flightCategory":"VFR","rawOb":"METAR SBUL 241100Z 13006KT 9999 SCT040 BKN080 23/18 Q1016","temp":23,"dewp":18,"wdir":130,"wspd":6,"visib":"6+","altim":1016,"clouds":[{"cover":"SCT","base":4000},{"cover":"BKN","base":8000}],"obsTime":1774350000},"SBCB":{"icaoId":"SBCB","flightCategory":"VFR","rawOb":"METAR SBCB 241100Z 04016KT 9999 SCT015 26/22 Q1013","temp":26,"dewp":22,"wdir":40,"wspd":16,"visib":"6+","altim":1013,"clouds":[{"cover":"SCT","base":1500}],"obsTime":1774350000},"SBTE":{"icaoId":"SBTE","flightCategory":"MVFR","rawOb":"METAR SBTE 241100Z 00000KT 9999 OVC018 26/24 Q1010","temp":26,"dewp":24,"wdir":0,"wspd":0,"visib":"6+","altim":1010,"clouds":[{"cover":"OVC","base":1800}],"obsTime":1774350000},"SBSV":{"icaoId":"SBSV","flightCategory":"VFR","rawOb":"METAR SBSV 241100Z 03003KT 360V060 9999 VCSH FEW023 FEW025TCU BKN100 28/24 Q1013","temp":28,"dewp":24,"wdir":30,"wspd":3,"visib":"6+","altim":1013,"clouds":[{"cover":"FEW","base":2300},{"cover":"FEW","base":2500},{"cover":"BKN","base":10000}],"obsTime":1774350000},"SBCF":{"icaoId":"SBCF","flightCategory":"VFR","rawOb":"METAR SBCF 241100Z 08006KT 9999 FEW018 21/15 Q1017","temp":21,"dewp":15,"wdir":80,"wspd":6,"visib":"6+","altim":1017,"clouds":[{"cover":"FEW","base":1800}],"obsTime":1774350000},"SBSP":{"icaoId":"SBSP","flightCategory":"VFR","rawOb":"METAR SBSP 241100Z 09006KT CAVOK 21/17 Q1016","temp":21,"dewp":17,"wdir":90,"wspd":6,"visib":"6+","altim":1016,"clouds":[],"obsTime":1774350000},"SBCG":{"icaoId":"SBCG","flightCategory":"VFR","rawOb":"METAR SBCG 241100Z VRB02KT CAVOK 27/23 Q1012","temp":27,"dewp":23,"wdir":"VRB","wspd":2,"visib":"6+","altim":1012,"clouds":[],"obsTime":1774350000},"SBSN":{"icaoId":"SBSN","flightCategory":"VFR","rawOb":"METAR SBSN 241100Z 13005KT 9999 SCT013 SCT100 27/25 Q1010","temp":27,"dewp":25,"wdir":130,"wspd":5,"visib":"6+","altim":1010,"clouds":[{"cover":"SCT","base":1300},{"cover":"SCT","base":10000}],"obsTime":1774350000},"SBCP":{"icaoId":"SBCP","flightCategory":"MVFR","rawOb":"METAR SBCP 241100Z 01006KT 9999 BKN015 24/23 Q1014","temp":24,"dewp":23,"wdir":10,"wspd":6,"visib":"6+","altim":1014,"clouds":[{"cover":"BKN","base":1500}],"obsTime":1774350000},"SBSL":{"icaoId":"SBSL","flightCategory":"VFR","rawOb":"METAR SBSL 241100Z 05008KT 9999 FEW014 SCT018 28/25 Q1011","temp":28,"dewp":25,"wdir":50,"wspd":8,"visib":"6+","altim":1011,"clouds":[{"cover":"FEW","base":1400},{"cover":"SCT","base":1800}],"obsTime":1774350000},"SBCR":{"icaoId":"SBCR","flightCategory":"VFR","rawOb":"METAR SBCR 241100Z 20008KT 160V240 9999 SCT026 26/23 Q1010","temp":26,"dewp":23,"wdir":200,"wspd":8,"visib":"6+","altim":1010,"clouds":[{"cover":"SCT","base":2600}],"obsTime":1774350000},"SBSG":{"icaoId":"SBSG","flightCategory":"VFR","rawOb":"METAR SBSG 241100Z 17004KT 100V220 9999 SCT023 27/24 Q1013","temp":27,"dewp":24,"wdir":170,"wspd":4,"visib":"6+","altim":1013,"clouds":[{"cover":"SCT","base":2300}],"obsTime":1774350000},"SBRF":{"icaoId":"SBRF","flightCategory":"VFR","rawOb":"METAR SBRF 241100Z 10008KT 9999 FEW025 30/23 Q1012","temp":30,"dewp":23,"wdir":100,"wspd":8,"visib":"6+","altim":1012,"clouds":[{"cover":"FEW","base":2500}],"obsTime":1774350000},"SBCT":{"icaoId":"SBCT","flightCategory":"LIFR","rawOb":"METAR SBCT 241100Z 05005KT 2000 BR OVC003 20/20 Q1016","temp":20,"dewp":20,"wdir":50,"wspd":5,"visib":1.24,"altim":1016,"clouds":[{"cover":"OVC","base":300}],"obsTime":1774350000},"SBRB":{"icaoId":"SBRB","flightCategory":"VFR","rawOb":"METAR SBRB 241100Z 00000KT 9999 FEW030 SCT100 23/23 Q1010","temp":23,"dewp":23,"wdir":0,"wspd":0,"visib":"6+","altim":1010,"clouds":[{"cover":"FEW","base":3000},{"cover":"SCT","base":10000}],"obsTime":1774350000},"SBCZ":{"icaoId":"SBCZ","flightCategory":"LIFR","rawOb":"METAR SBCZ 241200Z 00000KT 0900 FG NSC 23/23 Q1010","temp":23,"dewp":23,"wdir":0,"wspd":0,"visib":0.56,"altim":1010,"clouds":[],"obsTime":1774353600},"SBAT":{"icaoId":"SBAT","flightCategory":"VFR","rawOb":"METAR SBAT 241200Z 00000KT 9999 FEW015 BKN070 24/23 Q1013","temp":24,"dewp":23,"wdir":0,"wspd":0,"visib":"6+","altim":1013,"clouds":[{"cover":"FEW","base":1500},{"cover":"BKN","base":7000}],"obsTime":1774353600},"SBPV":{"icaoId":"SBPV","flightCategory":"VFR","rawOb":"METAR SBPV 241100Z 14003KT CAVOK 25/23 Q1009","temp":25,"dewp":23,"wdir":140,"wspd":3,"visib":"6+","altim":1009,"clouds":[],"obsTime":1774350000},"SBEG":{"icaoId":"SBEG","flightCategory":"VFR","rawOb":"METAR SBEG 241100Z 10004KT 9999 FEW015 27/25 Q1010","temp":27,"dewp":25,"wdir":100,"wspd":4,"visib":"6+","altim":1010,"clouds":[{"cover":"FEW","base":1500}],"obsTime":1774350000},"SBPJ":{"icaoId":"SBPJ","flightCategory":"VFR","rawOb":"METAR SBPJ 241100Z 12003KT 9999 SCT016 BKN100 25/23 Q1013","temp":25,"dewp":23,"wdir":120,"wspd":3,"visib":"6+","altim":1013,"clouds":[{"cover":"SCT","base":1600},{"cover":"BKN","base":10000}],"obsTime":1774350000},"SBJU":{"icaoId":"SBJU","flightCategory":"MVFR","rawOb":"METAR SBJU 241100Z 00000KT 8000 SCT010 BKN015 FEW020TCU 24/23 Q1014","temp":24,"dewp":23,"wdir":0,"wspd":0,"visib":4.97,"altim":1014,"clouds":[{"cover":"SCT","base":1000},{"cover":"BKN","base":1500},{"cover":"FEW","base":2000}],"obsTime":1774350000},"SBFI":{"icaoId":"SBFI","flightCategory":"LIFR","rawOb":"SPECI SBFI 241043Z 14003KT 9000 BKN004 24/24 Q1010","temp":24,"dewp":24,"wdir":140,"wspd":3,"visib":5.59,"altim":1010,"clouds":[{"cover":"BKN","base":400}],"obsTime":1774348980},"SBPA":{"icaoId":"SBPA","flightCategory":"IFR","rawOb":"METAR SBPA 241100Z 20006KT 160V250 6000 -DZ BKN008 OVC030 21/19 Q1011 WS R29","temp":21,"dewp":19,"wdir":200,"wspd":6,"visib":3.73,"altim":1011,"clouds":[{"cover":"BKN","base":800},{"cover":"OVC","base":3000}],"obsTime":1774350000},"SBNT":{"icaoId":"SBNT","flightCategory":"VFR","rawOb":"METAR SBNT 241100Z 16006KT 9999 FEW030 28/23 Q1012","temp":28,"dewp":23,"wdir":160,"wspd":6,"visib":"6+","altim":1012,"clouds":[{"cover":"FEW","base":3000}],"obsTime":1774350000},"SBFL":{"icaoId":"SBFL","flightCategory":"VFR","rawOb":"METAR SBFL 241100Z 32011KT 9999 SCT040 26/22 Q1010","temp":26,"dewp":22,"wdir":320,"wspd":11,"visib":"6+","altim":1010,"clouds":[{"cover":"SCT","base":4000}],"obsTime":1774350000},"SBMQ":{"icaoId":"SBMQ","flightCategory":"VFR","rawOb":"METAR SBMQ 241100Z 02005KT 9999 FEW018 BKN100 26/24 Q1012","temp":26,"dewp":24,"wdir":20,"wspd":5,"visib":"6+","altim":1012,"clouds":[{"cover":"FEW","base":1800},{"cover":"BKN","base":10000}],"obsTime":1774350000},"SBFZ":{"icaoId":"SBFZ","flightCategory":"VFR","rawOb":"METAR SBFZ 241100Z 16009KT 9999 FEW020 28/24 Q1011","temp":28,"dewp":24,"wdir":160,"wspd":9,"visib":"6+","altim":1011,"clouds":[{"cover":"FEW","base":2000}],"obsTime":1774350000},"SBMO":{"icaoId":"SBMO","flightCategory":"VFR","rawOb":"METAR SBMO 241100Z 08007KT 9999 SCT025 29/24 Q1013","temp":29,"dewp":24,"wdir":80,"wspd":7,"visib":"6+","altim":1013,"clouds":[{"cover":"SCT","base":2500}],"obsTime":1774350000},"SBGL":{"icaoId":"SBGL","flightCategory":"VFR","rawOb":"METAR SBGL 241100Z VRB02KT CAVOK 25/21 Q1012","temp":25,"dewp":21,"wdir":"VRB","wspd":2,"visib":"6+","altim":1012,"clouds":[],"obsTime":1774350000},"SBMK":{"icaoId":"SBMK","flightCategory":"VFR","rawOb":"METAR SBMK 241100Z 18002KT CAVOK 22/19 Q1016","temp":22,"dewp":19,"wdir":180,"wspd":2,"visib":"6+","altim":1016,"clouds":[],"obsTime":1774350000},"SBGO":{"icaoId":"SBGO","flightCategory":"VFR","rawOb":"METAR SBGO 241100Z 35006KT 9999 FEW040 22/20 Q1015","temp":22,"dewp":20,"wdir":350,"wspd":6,"visib":"6+","altim":1015,"clouds":[{"cover":"FEW","base":4000}],"obsTime":1774350000},"SBMG":{"icaoId":"SBMG","flightCategory":"VFR","rawOb":"METAR SBMG 241100Z 02004KT CAVOK 25/23 Q1011","temp":25,"dewp":23,"wdir":20,"wspd":4,"visib":"6+","altim":1011,"clouds":[],"obsTime":1774350000},"SBME":{"icaoId":"SBME","flightCategory":"VFR","rawOb":"METAR SBME 241100Z 03007KT CAVOK 25/21 Q1013","temp":25,"dewp":21,"wdir":30,"wspd":7,"visib":"6+","altim":1013,"clouds":[],"obsTime":1774350000},"SBGR":{"icaoId":"SBGR","flightCategory":"IFR","rawOb":"METAR SBGR 241100Z 08007KT 9999 BKN009 20/17 Q1015","temp":20,"dewp":17,"wdir":80,"wspd":7,"visib":"6+","altim":1015,"clouds":[{"cover":"BKN","base":900}],"obsTime":1774350000},"SBHT":{"icaoId":"SBHT","flightCategory":"VFR","rawOb":"METAR SBHT 241100Z 12003KT 9999 FEW015 BKN080 25/23 Q1012","temp":25,"dewp":23,"wdir":120,"wspd":3,"visib":"6+","altim":1012,"clouds":[{"cover":"FEW","base":1500},{"cover":"BKN","base":8000}],"obsTime":1774350000},"SBMA":{"icaoId":"SBMA","flightCategory":"VFR","rawOb":"METAR SBMA 241100Z 00000KT 9999 SCT008 BKN090 25/24 Q1012","temp":25,"dewp":24,"wdir":0,"wspd":0,"visib":"6+","altim":1012,"clouds":[{"cover":"SCT","base":800},{"cover":"BKN","base":9000}],"obsTime":1774350000},"SBIL":{"icaoId":"SBIL","flightCategory":"VFR","rawOb":"METAR SBIL 241100Z 16005KT 9999 VCSH SCT018 FEW023TCU SCT090 27/24 Q1014","temp":27,"dewp":24,"wdir":160,"wspd":5,"visib":"6+","altim":1014,"clouds":[{"cover":"SCT","base":1800},{"cover":"FEW","base":2300},{"cover":"SCT","base":9000}],"obsTime":1774350000},"SBLO":{"icaoId":"SBLO","flightCategory":"VFR","rawOb":"METAR SBLO 241100Z 07004KT 040V100 CAVOK 24/21 Q1013","temp":24,"dewp":21,"wdir":70,"wspd":4,"visib":"6+","altim":1013,"clouds":[],"obsTime":1774350000},"SBCJ":{"icaoId":"SBCJ","flightCategory":"LIFR","rawOb":"METAR SBCJ 241100Z 06003KT 5000 BR OVC003 22/20 Q1016","temp":22,"dewp":20,"wdir":60,"wspd":3,"visib":3.11,"altim":1016,"clouds":[{"cover":"OVC","base":300}],"obsTime":1774350000},"SBBQ":{"icaoId":"SBBQ","flightCategory":"IFR","rawOb":"METAR SBBQ 241200Z 07005KT 340V140 9999 BKN008 18/15 Q1020","temp":18,"dewp":15,"wdir":70,"wspd":5,"visib":"6+","altim":1020,"clouds":[{"cover":"BKN","base":800}],"obsTime":1774353600},"SBPP":{"icaoId":"SBPP","flightCategory":"MVFR","rawOb":"SPECI SBPP 241115Z 04005KT 9999 BKN015 23/21 Q1013","temp":23,"dewp":21,"wdir":40,"wspd":5,"visib":"6+","altim":1013,"clouds":[{"cover":"BKN","base":1500}],"obsTime":1774350900},"SBPB":{"icaoId":"SBPB","flightCategory":"VFR","rawOb":"METAR SBPB 241100Z 14007KT 9999 SCT020 28/24 Q1011","temp":28,"dewp":24,"wdir":140,"wspd":7,"visib":"6+","altim":1011,"clouds":[{"cover":"SCT","base":2000}],"obsTime":1774350000},"SBPL":{"icaoId":"SBPL","flightCategory":"VFR","rawOb":"METAR SBPL 241100Z 12007KT 9999 FEW025 BKN070 25/21 Q1014","temp":25,"dewp":21,"wdir":120,"wspd":7,"visib":"6+","altim":1014,"clouds":[{"cover":"FEW","base":2500},{"cover":"BKN","base":7000}],"obsTime":1774350000},"SBBU":{"icaoId":"SBBU","flightCategory":"VFR","rawOb":"METAR SBBU 241100Z 16004KT 9999 FEW025 BKN080 23/20 Q1013","temp":23,"dewp":20,"wdir":160,"wspd":4,"visib":"6+","altim":1013,"clouds":[{"cover":"FEW","base":2500},{"cover":"BKN","base":8000}],"obsTime":1774350000},"SBPS":{"icaoId":"SBPS","flightCategory":"VFR","rawOb":"METAR SBPS 241100Z 24003KT 190V280 9999 BKN040 26/24 Q1014","temp":26,"dewp":24,"wdir":240,"wspd":3,"visib":"6+","altim":1014,"clouds":[{"cover":"BKN","base":4000}],"obsTime":1774350000},"SBSC":{"icaoId":"SBSC","flightCategory":"VFR","rawOb":"METAR SBSC 241100Z 03007KT CAVOK 25/21 Q1012","temp":25,"dewp":21,"wdir":30,"wspd":7,"visib":"6+","altim":1012,"clouds":[],"obsTime":1774350000},"SBCO":{"icaoId":"SBCO","flightCategory":"MVFR","rawOb":"METAR SBCO 241100Z 18005KT 150V230 5000 -RADZ SCT008 BKN012 OVC020 21/19 Q1011","temp":21,"dewp":19,"wdir":180,"wspd":5,"visib":3.11,"altim":1011,"clouds":[{"cover":"SCT","base":800},{"cover":"BKN","base":1200},{"cover":"OVC","base":2000}],"obsTime":1774350000},"SBSJ":{"icaoId":"SBSJ","flightCategory":"IFR","rawOb":"METAR SBSJ 241100Z 33003KT 300V010 9999 BKN007 19/18 Q1015","temp":19,"dewp":18,"wdir":330,"wspd":3,"visib":"6+","altim":1015,"clouds":[{"cover":"BKN","base":700}],"obsTime":1774350000},"SBDN":{"icaoId":"SBDN","flightCategory":"VFR","rawOb":"METAR SBDN 241100Z 07005KT 9999 -RA NSC 23/21 Q1012","temp":23,"dewp":21,"wdir":70,"wspd":5,"visib":"6+","altim":1012,"clouds":[],"obsTime":1774350000},"SBSM":{"icaoId":"SBSM","flightCategory":"VFR","rawOb":"METAR SBSM 241100Z 22003KT 9999 SCT008 BKN035 20/20 Q1013","temp":20,"dewp":20,"wdir":220,"wspd":3,"visib":"6+","altim":1013,"clouds":[{"cover":"SCT","base":800},{"cover":"BKN","base":3500}],"obsTime":1774350000},"SBAR":{"icaoId":"SBAR","flightCategory":"VFR","rawOb":"METAR SBAR 241100Z 09012KT 9999 SCT023 30/24 Q1013","temp":30,"dewp":24,"wdir":90,"wspd":12,"visib":"6+","altim":1013,"clouds":[{"cover":"SCT","base":2300}],"obsTime":1774350000},"SBSR":{"icaoId":"SBSR","flightCategory":"IFR","rawOb":"METAR SBSR 241100Z 26008KT 8000 BKN008 SCT070 23/22 Q1014","temp":23,"dewp":22,"wdir":260,"wspd":8,"visib":4.97,"altim":1014,"clouds":[{"cover":"BKN","base":800},{"cover":"SCT","base":7000}],"obsTime":1774350000},"SBES":{"icaoId":"SBES","flightCategory":"VFR","rawOb":"METAR SBES 241100Z 04010KT 010V080 9999 SCT010 24/// Q1013","temp":null,"dewp":null,"wdir":40,"wspd":10,"visib":"6+","altim":1013,"clouds":[{"cover":"SCT","base":1000}],"obsTime":1774350000},"SBTD":{"icaoId":"SBTD","flightCategory":"VFR","rawOb":"METAR SBTD 241100Z /////KT CAVOK 24/21 Q1012","temp":24,"dewp":21,"wdir":null,"wspd":null,"visib":"6+","altim":1012,"clouds":[],"obsTime":1774350000},"SBCA":{"icaoId":"SBCA","flightCategory":"VFR","rawOb":"METAR SBCA 241100Z 09003KT 9999 FEW040 SCT080 24/21 Q1014","temp":24,"dewp":21,"wdir":90,"wspd":3,"visib":"6+","altim":1014,"clouds":[{"cover":"FEW","base":4000},{"cover":"SCT","base":8000}],"obsTime":1774350000},"SBTF":{"icaoId":"SBTF","flightCategory":"VFR","rawOb":"SPECI SBTF 241115Z 10003KT 9999 FEW005 26/25 Q1009","temp":26,"dewp":25,"wdir":100,"wspd":3,"visib":"6+","altim":1009,"clouds":[{"cover":"FEW","base":500}],"obsTime":1774350900},"SBGM":{"icaoId":"SBGM","flightCategory":"VFR","rawOb":"METAR SBGM 241200Z VRB01KT CAVOK 26/24 Q1010","temp":26,"dewp":24,"wdir":"VRB","wspd":1,"visib":"6+","altim":1010,"clouds":[],"obsTime":1774353600},"SBTT":{"icaoId":"SBTT","flightCategory":"VFR","rawOb":"METAR SBTT 241100Z 10004KT 9999 FEW015 27/25 Q1010","temp":27,"dewp":25,"wdir":100,"wspd":4,"visib":"6+","altim":1010,"clouds":[{"cover":"FEW","base":1500}],"obsTime":1774350000},"SBUY":{"icaoId":"SBUY","flightCategory":"MVFR","rawOb":"METAR SBUY 241100Z 34002KT 5000 BR SCT003 23/23 Q1009","temp":23,"dewp":23,"wdir":340,"wspd":2,"visib":3.11,"altim":1009,"clouds":[{"cover":"SCT","base":300}],"obsTime":1774350000},"SBIP":{"icaoId":"SBIP","flightCategory":"VFR","rawOb":"METAR SBIP 241100Z AUTO 00000KT 9999 OVC032 21/19 Q1016","temp":21,"dewp":19,"wdir":0,"wspd":0,"visib":"6+","altim":1016,"clouds":[{"cover":"OVC","base":3200}],"obsTime":1774350000},"SBVH":{"icaoId":"SBVH","flightCategory":"LIFR","rawOb":"METAR SBVH 241100Z 07009KT 8000 OVC002 22/22 Q1014","temp":22,"dewp":22,"wdir":70,"wspd":9,"visib":4.97,"altim":1014,"clouds":[{"cover":"OVC","base":200}],"obsTime":1774350000},"SBBH":{"icaoId":"SBBH","flightCategory":"VFR","rawOb":"METAR SBBH 241100Z 10005KT 9999 FEW025 21/16 Q1017","temp":21,"dewp":16,"wdir":100,"wspd":5,"visib":"6+","altim":1017,"clouds":[{"cover":"FEW","base":2500}],"obsTime":1774350000},"SBCC":{"icaoId":"SBCC","flightCategory":"VFR","rawOb":"METAR SBCC 241100Z 03002KT 9999 FEW025 24/22 Q1013","temp":24,"dewp":22,"wdir":30,"wspd":2,"visib":"6+","altim":1013,"clouds":[{"cover":"FEW","base":2500}],"obsTime":1774350000},"SBKG":{"icaoId":"SBKG","flightCategory":"MVFR","rawOb":"METAR SBKG 241100Z 11009KT 9999 BKN018 25/21 Q1015","temp":25,"dewp":21,"wdir":110,"wspd":9,"visib":"6+","altim":1015,"clouds":[{"cover":"BKN","base":1800}],"obsTime":1774350000},"SBOI":{"icaoId":"SBOI","flightCategory":"MVFR","rawOb":"METAR SBOI 241100Z AUTO 18005KT 150V210 9999 // SCT003/// BKN020/// BKN047/// 25/24 Q1012","temp":25,"dewp":24,"wdir":180,"wspd":5,"visib":"6+","altim":1012,"clouds":[{"cover":"SCT","base":300},{"cover":"BKN","base":2000},{"cover":"BKN","base":4700}],"obsTime":1774350000},"SBAX":{"icaoId":"SBAX","flightCategory":"VFR","rawOb":"METAR SBAX 241100Z 11008KT 9999 SCT035 BKN045 21/18 Q1017","temp":21,"dewp":18,"wdir":110,"wspd":8,"visib":"6+","altim":1017,"clouds":[{"cover":"SCT","base":3500},{"cover":"BKN","base":4500}],"obsTime":1774350000},"SBTA":{"icaoId":"SBTA","flightCategory":"VFR","rawOb":"METAR SBTA 241100Z VRB01KT CAVOK 20/19 Q1014","temp":20,"dewp":19,"wdir":"VRB","wspd":1,"visib":"6+","altim":1014,"clouds":[],"obsTime":1774350000},"SBAF":{"icaoId":"SBAF","flightCategory":"VFR","rawOb":"METAR SBAF 241100Z 27004KT CAVOK 25/24 Q1012","temp":25,"dewp":24,"wdir":270,"wspd":4,"visib":"6+","altim":1012,"clouds":[],"obsTime":1774350000},"SBAN":{"icaoId":"SBAN","flightCategory":"LIFR","rawOb":"METAR SBAN 241100Z 01002KT 0300 R24R/0400D R06L/0700U FG SCT001 SCT100 19/18 Q1018","temp":19,"dewp":18,"wdir":10,"wspd":2,"visib":0.19,"altim":1018,"clouds":[{"cover":"SCT","base":100},{"cover":"SCT","base":10000}],"obsTime":1774350000},"SBGW":{"icaoId":"SBGW","flightCategory":"IFR","rawOb":"METAR SBGW 241100Z 35002KT 3000 HZ BKN013 20/15 Q1015","temp":20,"dewp":15,"wdir":350,"wspd":2,"visib":1.86,"altim":1015,"clouds":[{"cover":"BKN","base":1300}],"obsTime":1774350000},"SBIH":{"icaoId":"SBIH","flightCategory":"VFR","rawOb":"METAR SBIH 241100Z 00000KT 9999 FEW005 SCT100 25/25 Q1010","temp":25,"dewp":25,"wdir":0,"wspd":0,"visib":"6+","altim":1010,"clouds":[{"cover":"FEW","base":500},{"cover":"SCT","base":10000}],"obsTime":1774350000},"SBJP":{"icaoId":"SBJP","flightCategory":"VFR","rawOb":"METAR SBJP 241100Z 09004KT 050V120 9999 SCT021 26/24 Q1013","temp":26,"dewp":24,"wdir":90,"wspd":4,"visib":"6+","altim":1013,"clouds":[{"cover":"SCT","base":2100}],"obsTime":1774350000},"SBJR":{"icaoId":"SBJR","flightCategory":"VFR","rawOb":"METAR SBJR 241100Z 04004KT CAVOK 27/21 Q1012","temp":27,"dewp":21,"wdir":40,"wspd":4,"visib":"6+","altim":1012,"clouds":[],"obsTime":1774350000},"SBJV":{"icaoId":"SBJV","flightCategory":"VFR","rawOb":"METAR SBJV 241100Z 34005KT 9999 FEW030 26/23 Q1011","temp":26,"dewp":23,"wdir":340,"wspd":5,"visib":"6+","altim":1011,"clouds":[{"cover":"FEW","base":3000}],"obsTime":1774350000},"SBLE":{"icaoId":"SBLE","flightCategory":"MVFR","rawOb":"METAR SBLE 241100Z AUTO 16003KT 100V190 9999 BKN017 ///// Q////","temp":null,"dewp":null,"wdir":160,"wspd":3,"visib":"6+","altim":null,"clouds":[{"cover":"BKN","base":1700}],"obsTime":1774350000},"SBLS":{"icaoId":"SBLS","flightCategory":"VFR","rawOb":"METAR SBLS 241100Z 10003KT 020V120 9999 FEW049 20/16 Q1017","temp":20,"dewp":16,"wdir":100,"wspd":3,"visib":"6+","altim":1017,"clouds":[{"cover":"FEW","base":4900}],"obsTime":1774350000},"SBMT":{"icaoId":"SBMT","flightCategory":"MVFR","rawOb":"METAR SBMT 241100Z 10007KT 7000 FEW007 SCT013 20/17 Q1015","temp":20,"dewp":17,"wdir":100,"wspd":7,"visib":4.35,"altim":1015,"clouds":[{"cover":"FEW","base":700},{"cover":"SCT","base":1300}],"obsTime":1774350000},"SBNM":{"icaoId":"SBNM","flightCategory":"IFR","rawOb":"METAR SBNM 241200Z 03004KT 9999 BKN005 OVC006 21/19 Q1013","temp":21,"dewp":19,"wdir":30,"wspd":4,"visib":"6+","altim":1013,"clouds":[{"cover":"BKN","base":500},{"cover":"OVC","base":600}],"obsTime":1774353600},"SBPF":{"icaoId":"SBPF","flightCategory":"LIFR","rawOb":"METAR SBPF 241100Z 00000KT 5000 BR BKN002 BKN006 21/20 Q1014","temp":21,"dewp":20,"wdir":0,"wspd":0,"visib":3.11,"altim":1014,"clouds":[{"cover":"BKN","base":200},{"cover":"BKN","base":600}],"obsTime":1774350000},"SBST":{"icaoId":"SBST","flightCategory":"VFR","rawOb":"METAR SBST 241100Z 35004KT CAVOK 23/20 Q1011","temp":23,"dewp":20,"wdir":350,"wspd":4,"visib":"6+","altim":1011,"clouds":[],"obsTime":1774350000}}}