{"updated":1778324190,"count":71,"data":{"SBSV":{"icaoId":"SBSV","flightCategory":"MVFR","rawOb":"METAR SBSV 090900Z 34005KT 270V040 5000 -RA BR SCT012 BKN017 FEW024TCU OVC040 23/22 Q1015","temp":23,"dewp":22,"wdir":340,"wspd":5,"visib":3.11,"altim":1015,"clouds":[{"cover":"SCT","base":1200},{"cover":"BKN","base":1700},{"cover":"FEW","base":2400},{"cover":"OVC","base":4000}],"obsTime":1778317200},"SBCG":{"icaoId":"SBCG","flightCategory":"LIFR","rawOb":"METAR SBCG 090900Z VRB02KT 9999 BKN002 18/17 Q1012","temp":18,"dewp":17,"wdir":"VRB","wspd":2,"visib":"6+","altim":1012,"clouds":[{"cover":"BKN","base":200}],"obsTime":1778317200},"SBVT":{"icaoId":"SBVT","flightCategory":"IFR","rawOb":"METAR SBVT 090900Z 34003KT 3800 -RA SCT010 BKN015 OVC035 23/23 Q1017","temp":23,"dewp":23,"wdir":340,"wspd":3,"visib":2.36,"altim":1017,"clouds":[{"cover":"SCT","base":1000},{"cover":"BKN","base":1500},{"cover":"OVC","base":3500}],"obsTime":1778317200},"SBBR":{"icaoId":"SBBR","flightCategory":"VFR","rawOb":"METAR SBBR 090900Z 32004KT 270V070 CAVOK 15/14 Q1019","temp":15,"dewp":14,"wdir":320,"wspd":4,"visib":"6+","altim":1019,"clouds":[],"obsTime":1778317200},"SBBV":{"icaoId":"SBBV","flightCategory":"VFR","rawOb":"METAR SBBV 090900Z 10011KT 9999 FEW030 SCT080 26/23 Q1011","temp":26,"dewp":23,"wdir":100,"wspd":11,"visib":"6+","altim":1011,"clouds":[{"cover":"FEW","base":3000},{"cover":"SCT","base":8000}],"obsTime":1778317200},"SBCB":{"icaoId":"SBCB","flightCategory":"VFR","rawOb":"METAR SBCB 090900Z 04010KT 9999 SCT025 24/21 Q1014","temp":24,"dewp":21,"wdir":40,"wspd":10,"visib":"6+","altim":1014,"clouds":[{"cover":"SCT","base":2500}],"obsTime":1778317200},"SBCF":{"icaoId":"SBCF","flightCategory":"VFR","rawOb":"METAR SBCF 090900Z 18002KT CAVOK 17/16 Q1020","temp":17,"dewp":16,"wdir":180,"wspd":2,"visib":"6+","altim":1020,"clouds":[],"obsTime":1778317200},"SBCP":{"icaoId":"SBCP","flightCategory":"VFR","rawOb":"METAR SBCP 091000Z 02005KT 9999 FEW020 SCT090 23/22 Q1016","temp":23,"dewp":22,"wdir":20,"wspd":5,"visib":"6+","altim":1016,"clouds":[{"cover":"FEW","base":2000},{"cover":"SCT","base":9000}],"obsTime":1778320800},"SBCT":{"icaoId":"SBCT","flightCategory":"MVFR","rawOb":"METAR SBCT 090900Z 25004KT 5000 -RA FEW004 BKN013 BKN070 14/13 Q1015","temp":14,"dewp":13,"wdir":250,"wspd":4,"visib":3.11,"altim":1015,"clouds":[{"cover":"FEW","base":400},{"cover":"BKN","base":1300},{"cover":"BKN","base":7000}],"obsTime":1778317200},"SBEG":{"icaoId":"SBEG","flightCategory":"VFR","rawOb":"METAR SBEG 090900Z 00000KT CAVOK 23/23 Q1011","temp":23,"dewp":23,"wdir":0,"wspd":0,"visib":"6+","altim":1011,"clouds":[],"obsTime":1778317200},"SBFI":{"icaoId":"SBFI","flightCategory":"VFR","rawOb":"METAR SBFI 090900Z 19005KT 9999 FEW025 SCT070 13/12 Q1014","temp":13,"dewp":12,"wdir":190,"wspd":5,"visib":"6+","altim":1014,"clouds":[{"cover":"FEW","base":2500},{"cover":"SCT","base":7000}],"obsTime":1778317200},"SBFL":{"icaoId":"SBFL","flightCategory":"VFR","rawOb":"METAR SBFL 090900Z 12007KT 080V170 9999 FEW010 SCT020 BKN070 19/14 Q1012","temp":19,"dewp":14,"wdir":120,"wspd":7,"visib":"6+","altim":1012,"clouds":[{"cover":"FEW","base":1000},{"cover":"SCT","base":2000},{"cover":"BKN","base":7000}],"obsTime":1778317200},"SBFZ":{"icaoId":"SBFZ","flightCategory":"IFR","rawOb":"METAR SBFZ 090900Z 14011KT 4000 SHRA SCT015 FEW025TCU 24/23 Q1012","temp":24,"dewp":23,"wdir":140,"wspd":11,"visib":2.49,"altim":1012,"clouds":[{"cover":"SCT","base":1500},{"cover":"FEW","base":2500}],"obsTime":1778317200},"SBGL":{"icaoId":"SBGL","flightCategory":"VFR","rawOb":"METAR SBGL 090900Z VRB03KT CAVOK 25/18 Q1013","temp":25,"dewp":18,"wdir":"VRB","wspd":3,"visib":"6+","altim":1013,"clouds":[],"obsTime":1778317200},"SBGO":{"icaoId":"SBGO","flightCategory":"VFR","rawOb":"METAR SBGO 090900Z 28003KT CAVOK 18/17 Q1017","temp":18,"dewp":17,"wdir":280,"wspd":3,"visib":"6+","altim":1017,"clouds":[],"obsTime":1778317200},"SBGR":{"icaoId":"SBGR","flightCategory":"VFR","rawOb":"METAR SBGR 090900Z 01014KT CAVOK 23/15 Q1015","temp":23,"dewp":15,"wdir":10,"wspd":14,"visib":"6+","altim":1015,"clouds":[],"obsTime":1778317200},"SBHT":{"icaoId":"SBHT","flightCategory":"VFR","rawOb":"METAR SBHT 091000Z 00000KT 9999 FEW010 BKN080 24/23 Q1012","temp":24,"dewp":23,"wdir":0,"wspd":0,"visib":"6+","altim":1012,"clouds":[{"cover":"FEW","base":1000},{"cover":"BKN","base":8000}],"obsTime":1778320800},"SBIL":{"icaoId":"SBIL","flightCategory":"VFR","rawOb":"METAR SBIL 091000Z 14007KT 9999 FEW012 SCT018 25/25 Q1017","temp":25,"dewp":25,"wdir":140,"wspd":7,"visib":"6+","altim":1017,"clouds":[{"cover":"FEW","base":1200},{"cover":"SCT","base":1800}],"obsTime":1778320800},"SBJU":{"icaoId":"SBJU","flightCategory":"VFR","rawOb":"METAR SBJU 090900Z 15006KT 9999 SCT018 23/20 Q1015","temp":23,"dewp":20,"wdir":150,"wspd":6,"visib":"6+","altim":1015,"clouds":[{"cover":"SCT","base":1800}],"obsTime":1778317200},"SBKP":{"icaoId":"SBKP","flightCategory":"VFR","rawOb":"METAR SBKP 090900Z 31006KT CAVOK 21/16 Q1015","temp":21,"dewp":16,"wdir":310,"wspd":6,"visib":"6+","altim":1015,"clouds":[],"obsTime":1778317200},"SBLO":{"icaoId":"SBLO","flightCategory":"LIFR","rawOb":"METAR SBLO 090900Z 01005KT 1500 R13/P2000 RA SCT008 BKN090 19/19 Q1013 RETS","temp":19,"dewp":19,"wdir":10,"wspd":5,"visib":0.93,"altim":1013,"clouds":[{"cover":"SCT","base":800},{"cover":"BKN","base":9000}],"obsTime":1778317200},"SBMA":{"icaoId":"SBMA","flightCategory":"VFR","rawOb":"METAR SBMA 090900Z 00000KT CAVOK 24/23 Q1011","temp":24,"dewp":23,"wdir":0,"wspd":0,"visib":"6+","altim":1011,"clouds":[],"obsTime":1778317200},"SBME":{"icaoId":"SBME","flightCategory":"VFR","rawOb":"METAR SBME 090900Z 04011KT CAVOK 23/21 Q1014","temp":23,"dewp":21,"wdir":40,"wspd":11,"visib":"6+","altim":1014,"clouds":[],"obsTime":1778317200},"SBMG":{"icaoId":"SBMG","flightCategory":"LIFR","rawOb":"METAR SBMG 090900Z AUTO 35007KT 9999 -RA BKN002 OVC009 18/18 Q1012","temp":18,"dewp":18,"wdir":350,"wspd":7,"visib":"6+","altim":1012,"clouds":[{"cover":"BKN","base":200},{"cover":"OVC","base":900}],"obsTime":1778317200},"SBMK":{"icaoId":"SBMK","flightCategory":"VFR","rawOb":"METAR SBMK 090900Z 00000KT CAVOK 17/15 Q1019","temp":17,"dewp":15,"wdir":0,"wspd":0,"visib":"6+","altim":1019,"clouds":[],"obsTime":1778317200},"SBMO":{"icaoId":"SBMO","flightCategory":"IFR","rawOb":"METAR SBMO 090900Z 23003KT 7000 -RA BKN009 BKN017 24/24 Q1013","temp":24,"dewp":24,"wdir":230,"wspd":3,"visib":4.35,"altim":1013,"clouds":[{"cover":"BKN","base":900},{"cover":"BKN","base":1700}],"obsTime":1778317200},"SBMQ":{"icaoId":"SBMQ","flightCategory":"VFR","rawOb":"METAR SBMQ 090900Z 27004KT 9999 SCT010 24/24 Q1011","temp":24,"dewp":24,"wdir":270,"wspd":4,"visib":"6+","altim":1011,"clouds":[{"cover":"SCT","base":1000}],"obsTime":1778317200},"SBNT":{"icaoId":"SBNT","flightCategory":"VFR","rawOb":"METAR SBNT 090900Z 20004KT 9999 VCSH FEW020 BKN050 24/24 Q1012","temp":24,"dewp":24,"wdir":200,"wspd":4,"visib":"6+","altim":1012,"clouds":[{"cover":"FEW","base":2000},{"cover":"BKN","base":5000}],"obsTime":1778317200},"SBPA":{"icaoId":"SBPA","flightCategory":"VFR","rawOb":"METAR SBPA 090900Z 30008KT CAVOK 11/05 Q1015","temp":11,"dewp":5,"wdir":300,"wspd":8,"visib":"6+","altim":1015,"clouds":[],"obsTime":1778317200},"SBPJ":{"icaoId":"SBPJ","flightCategory":"VFR","rawOb":"METAR SBPJ 090900Z 13003KT 9999 FEW045 23/22 Q1013","temp":23,"dewp":22,"wdir":130,"wspd":3,"visib":"6+","altim":1013,"clouds":[{"cover":"FEW","base":4500}],"obsTime":1778317200},"SBPV":{"icaoId":"SBPV","flightCategory":"VFR","rawOb":"METAR SBPV 090900Z 00000KT CAVOK 24/23 Q1010","temp":24,"dewp":23,"wdir":0,"wspd":0,"visib":"6+","altim":1010,"clouds":[],"obsTime":1778317200},"SBRB":{"icaoId":"SBRB","flightCategory":"VFR","rawOb":"METAR SBRB 090900Z 33004KT 9000 FEW045 23/23 Q1010","temp":23,"dewp":23,"wdir":330,"wspd":4,"visib":5.59,"altim":1010,"clouds":[{"cover":"FEW","base":4500}],"obsTime":1778317200},"SBRF":{"icaoId":"SBRF","flightCategory":"MVFR","rawOb":"METAR SBRF 090900Z 24004KT 9999 VCSH BKN018 FEW025TCU 25/24 Q1012","temp":25,"dewp":24,"wdir":240,"wspd":4,"visib":"6+","altim":1012,"clouds":[{"cover":"BKN","base":1800},{"cover":"FEW","base":2500}],"obsTime":1778317200},"SBSG":{"icaoId":"SBSG","flightCategory":"VFR","rawOb":"METAR SBSG 090900Z 20004KT 9999 FEW017 SCT060 24/23 Q1012","temp":24,"dewp":23,"wdir":200,"wspd":4,"visib":"6+","altim":1012,"clouds":[{"cover":"FEW","base":1700},{"cover":"SCT","base":6000}],"obsTime":1778317200},"SBSL":{"icaoId":"SBSL","flightCategory":"VFR","rawOb":"METAR SBSL 090900Z 14004KT 9999 FEW020 SCT100 24/23 Q1010","temp":24,"dewp":23,"wdir":140,"wspd":4,"visib":"6+","altim":1010,"clouds":[{"cover":"FEW","base":2000},{"cover":"SCT","base":10000}],"obsTime":1778317200},"SBSN":{"icaoId":"SBSN","flightCategory":"VFR","rawOb":"METAR SBSN 090900Z 09011KT CAVOK 26/23 Q1010","temp":26,"dewp":23,"wdir":90,"wspd":11,"visib":"6+","altim":1010,"clouds":[],"obsTime":1778317200},"SBSP":{"icaoId":"SBSP","flightCategory":"VFR","rawOb":"METAR SBSP 090900Z 01009KT CAVOK 23/15 Q1015","temp":23,"dewp":15,"wdir":10,"wspd":9,"visib":"6+","altim":1015,"clouds":[],"obsTime":1778317200},"SBTE":{"icaoId":"SBTE","flightCategory":"VFR","rawOb":"METAR SBTE 090900Z 09003KT 9999 FEW020 BKN090 26/23 Q1011","temp":26,"dewp":23,"wdir":90,"wspd":3,"visib":"6+","altim":1011,"clouds":[{"cover":"FEW","base":2000},{"cover":"BKN","base":9000}],"obsTime":1778317200},"SBUL":{"icaoId":"SBUL","flightCategory":"VFR","rawOb":"METAR SBUL 090900Z 09009KT CAVOK 20/16 Q1018","temp":20,"dewp":16,"wdir":90,"wspd":9,"visib":"6+","altim":1018,"clouds":[],"obsTime":1778317200},"SBUR":{"icaoId":"SBUR","flightCategory":"VFR","rawOb":"METAR SBUR 090900Z 03007KT CAVOK 20/15 Q1017","temp":20,"dewp":15,"wdir":30,"wspd":7,"visib":"6+","altim":1017,"clouds":[],"obsTime":1778317200},"SBBE":{"icaoId":"SBBE","flightCategory":"VFR","rawOb":"METAR SBBE 090900Z 11002KT CAVOK 23/23 Q1010","temp":23,"dewp":23,"wdir":110,"wspd":2,"visib":"6+","altim":1010,"clouds":[],"obsTime":1778317200},"SBCJ":{"icaoId":"SBCJ","flightCategory":"VFR","rawOb":"SPECI SBCJ 091015Z 00000KT CAVOK 23/21 Q1016","temp":23,"dewp":21,"wdir":0,"wspd":0,"visib":"6+","altim":1016,"clouds":[],"obsTime":1778321700},"SBPB":{"icaoId":"SBPB","flightCategory":"VFR","rawOb":"SPECI SBPB 091015Z 11007KT 9999 FEW020 27/24 Q1012","temp":27,"dewp":24,"wdir":110,"wspd":7,"visib":"6+","altim":1012,"clouds":[{"cover":"FEW","base":2000}],"obsTime":1778321700},"SBTU":{"icaoId":"SBTU","flightCategory":"LIFR","rawOb":"METAR SBTU 090900Z AUTO 21003KT 1200 // ///////// ///// Q1012","temp":null,"dewp":null,"wdir":210,"wspd":3,"visib":0.75,"altim":1012,"clouds":[],"obsTime":1778317200},"SBBU":{"icaoId":"SBBU","flightCategory":"VFR","rawOb":"METAR SBBU 090900Z 07005KT 9999 FEW030 OVC090 22/19 Q1013","temp":22,"dewp":19,"wdir":70,"wspd":5,"visib":"6+","altim":1013,"clouds":[{"cover":"FEW","base":3000},{"cover":"OVC","base":9000}],"obsTime":1778317200},"SBSR":{"icaoId":"SBSR","flightCategory":"VFR","rawOb":"METAR SBSR 090900Z 08005KT CAVOK 22/17 Q1014","temp":22,"dewp":17,"wdir":80,"wspd":5,"visib":"6+","altim":1014,"clouds":[],"obsTime":1778317200},"SBCO":{"icaoId":"SBCO","flightCategory":"VFR","rawOb":"METAR SBCO 090900Z 30007KT CAVOK 10/04 Q1015","temp":10,"dewp":4,"wdir":300,"wspd":7,"visib":"6+","altim":1015,"clouds":[],"obsTime":1778317200},"SBOI":{"icaoId":"SBOI","flightCategory":"LIFR","rawOb":"METAR SBOI 090900Z AUTO 27003KT 9999 // SCT001/// BKN004/// BKN049/// 24/23 Q1012","temp":24,"dewp":23,"wdir":270,"wspd":3,"visib":"6+","altim":1012,"clouds":[{"cover":"SCT","base":100},{"cover":"BKN","base":400},{"cover":"BKN","base":4900}],"obsTime":1778317200},"SBDN":{"icaoId":"SBDN","flightCategory":"IFR","rawOb":"METAR SBDN 090900Z 09003KT 9999 SCT002 BKN009 OVC060 19/18 Q1012","temp":19,"dewp":18,"wdir":90,"wspd":3,"visib":"6+","altim":1012,"clouds":[{"cover":"SCT","base":200},{"cover":"BKN","base":900},{"cover":"OVC","base":6000}],"obsTime":1778317200},"SBSJ":{"icaoId":"SBSJ","flightCategory":"VFR","rawOb":"METAR SBSJ 090900Z 01006KT 330V050 CAVOK 23/15 Q1015","temp":23,"dewp":15,"wdir":10,"wspd":6,"visib":"6+","altim":1015,"clouds":[],"obsTime":1778317200},"SBES":{"icaoId":"SBES","flightCategory":"VFR","rawOb":"METAR SBES 090900Z VRB07KT 9999 SCT025 21/// Q1014","temp":null,"dewp":null,"wdir":"VRB","wspd":7,"visib":"6+","altim":1014,"clouds":[{"cover":"SCT","base":2500}],"obsTime":1778317200},"SBSC":{"icaoId":"SBSC","flightCategory":"VFR","rawOb":"METAR SBSC 090900Z 36011KT CAVOK 23/18 Q1013","temp":23,"dewp":18,"wdir":360,"wspd":11,"visib":"6+","altim":1013,"clouds":[],"obsTime":1778317200},"SBIP":{"icaoId":"SBIP","flightCategory":"VFR","rawOb":"METAR SBIP 090900Z AUTO 32001KT 9999 FEW020 SCT029 20/20 Q1018","temp":20,"dewp":20,"wdir":320,"wspd":1,"visib":"6+","altim":1018,"clouds":[{"cover":"FEW","base":2000},{"cover":"SCT","base":2900}],"obsTime":1778317200},"SBPS":{"icaoId":"SBPS","flightCategory":"MVFR","rawOb":"METAR SBPS 090900Z 08012KT 9999 BKN020 26/23 Q1016","temp":26,"dewp":23,"wdir":80,"wspd":12,"visib":"6+","altim":1016,"clouds":[{"cover":"BKN","base":2000}],"obsTime":1778317200},"SBKG":{"icaoId":"SBKG","flightCategory":"IFR","rawOb":"METAR SBKG 090900Z 14002KT 9999 SCT006 BKN008 BKN070 22/21 Q1015","temp":22,"dewp":21,"wdir":140,"wspd":2,"visib":"6+","altim":1015,"clouds":[{"cover":"SCT","base":600},{"cover":"BKN","base":800},{"cover":"BKN","base":7000}],"obsTime":1778317200},"SBPL":{"icaoId":"SBPL","flightCategory":"VFR","rawOb":"METAR SBPL 090900Z 12004KT 9999 FEW015 23/20 Q1015","temp":23,"dewp":20,"wdir":120,"wspd":4,"visib":"6+","altim":1015,"clouds":[{"cover":"FEW","base":1500}],"obsTime":1778317200},"SBSM":{"icaoId":"SBSM","flightCategory":"VFR","rawOb":"METAR SBSM 090900Z 28004KT CAVOK 08/04 Q1015","temp":8,"dewp":4,"wdir":280,"wspd":4,"visib":"6+","altim":1015,"clouds":[],"obsTime":1778317200},"SBAR":{"icaoId":"SBAR","flightCategory":"VFR","rawOb":"METAR SBAR 090900Z 00000KT 9999 VCSH SCT017 FEW020TCU SCT050 25/24 Q1013","temp":25,"dewp":24,"wdir":0,"wspd":0,"visib":"6+","altim":1013,"clouds":[{"cover":"SCT","base":1700},{"cover":"FEW","base":2000},{"cover":"SCT","base":5000}],"obsTime":1778317200},"SBBH":{"icaoId":"SBBH","flightCategory":"VFR","rawOb":"METAR SBBH 090900Z 10003KT CAVOK 17/17 Q1020","temp":17,"dewp":17,"wdir":100,"wspd":3,"visib":"6+","altim":1020,"clouds":[],"obsTime":1778317200},"SBLE":{"icaoId":"SBLE","flightCategory":"VFR","rawOb":"METAR SBLE 090900Z AUTO 21001KT 9999 BKN032 ///// Q////","temp":null,"dewp":null,"wdir":210,"wspd":1,"visib":"6+","altim":null,"clouds":[{"cover":"BKN","base":3200}],"obsTime":1778317200},"SBJP":{"icaoId":"SBJP","flightCategory":"VFR","rawOb":"METAR SBJP 090900Z 20004KT 9999 SCT020 24/24 Q1012","temp":24,"dewp":24,"wdir":200,"wspd":4,"visib":"6+","altim":1012,"clouds":[{"cover":"SCT","base":2000}],"obsTime":1778317200},"SBAN":{"icaoId":"SBAN","flightCategory":"VFR","rawOb":"METAR SBAN 090900Z 16007KT CAVOK 17/14 Q1020","temp":17,"dewp":14,"wdir":160,"wspd":7,"visib":"6+","altim":1020,"clouds":[],"obsTime":1778317200},"SBJV":{"icaoId":"SBJV","flightCategory":"VFR","rawOb":"METAR SBJV 090900Z 12009KT 9999 -RA SCT045 BKN080 17/14 Q1012","temp":17,"dewp":14,"wdir":120,"wspd":9,"visib":"6+","altim":1012,"clouds":[{"cover":"SCT","base":4500},{"cover":"BKN","base":8000}],"obsTime":1778317200},"SBNM":{"icaoId":"SBNM","flightCategory":"VFR","rawOb":"METAR SBNM 090900Z AUTO 22003KT CAVOK 08/03 Q1016","temp":8,"dewp":3,"wdir":220,"wspd":3,"visib":"6+","altim":1016,"clouds":[],"obsTime":1778317200},"SBAF":{"icaoId":"SBAF","flightCategory":"VFR","rawOb":"METAR SBAF 091000Z 30001KT CAVOK 20/20 Q1014","temp":20,"dewp":20,"wdir":300,"wspd":1,"visib":"6+","altim":1014,"clouds":[],"obsTime":1778320800},"SBGW":{"icaoId":"SBGW","flightCategory":"VFR","rawOb":"METAR SBGW 090900Z 07007KT 040V110 9999 FEW003 BKN100 22/14 Q1016","temp":22,"dewp":14,"wdir":70,"wspd":7,"visib":"6+","altim":1016,"clouds":[{"cover":"FEW","base":300},{"cover":"BKN","base":10000}],"obsTime":1778317200},"SBJR":{"icaoId":"SBJR","flightCategory":"VFR","rawOb":"METAR SBJR 091000Z 03004KT CAVOK 24/18 Q1013","temp":24,"dewp":18,"wdir":30,"wspd":4,"visib":"6+","altim":1013,"clouds":[],"obsTime":1778320800},"SBLS":{"icaoId":"SBLS","flightCategory":"VFR","rawOb":"METAR SBLS 090900Z 16005KT CAVOK 18/16 Q1020","temp":18,"dewp":16,"wdir":160,"wspd":5,"visib":"6+","altim":1020,"clouds":[],"obsTime":1778317200},"SBMT":{"icaoId":"SBMT","flightCategory":"VFR","rawOb":"METAR SBMT 090900Z VRB05KT CAVOK 23/14 Q1014","temp":23,"dewp":14,"wdir":"VRB","wspd":5,"visib":"6+","altim":1014,"clouds":[],"obsTime":1778317200},"SBTA":{"icaoId":"SBTA","flightCategory":"VFR","rawOb":"METAR SBTA 090900Z 03004KT 330V080 9999 FEW016 SCT050 21/16 Q1015","temp":21,"dewp":16,"wdir":30,"wspd":4,"visib":"6+","altim":1015,"clouds":[{"cover":"FEW","base":1600},{"cover":"SCT","base":5000}],"obsTime":1778317200},"SBPF":{"icaoId":"SBPF","flightCategory":"VFR","rawOb":"METAR SBPF 090900Z 20010KT CAVOK 07/04 Q1015","temp":7,"dewp":4,"wdir":200,"wspd":10,"visib":"6+","altim":1015,"clouds":[],"obsTime":1778317200}}}