{"updated":1776873576,"count":87,"data":{"SBAT":{"icaoId":"SBAT","flightCategory":"MVFR","rawOb":"METAR SBAT 221400Z 11005KT 9999 BKN020 31/26 Q1013","temp":31,"dewp":26,"wdir":110,"wspd":5,"visib":"6+","altim":1013,"clouds":[{"cover":"BKN","base":2000}],"obsTime":1776866400},"SBBE":{"icaoId":"SBBE","flightCategory":"VFR","rawOb":"METAR SBBE 221400Z 11005KT 9999 SCT025 BKN100 28/24 Q1012","temp":28,"dewp":24,"wdir":110,"wspd":5,"visib":"6+","altim":1012,"clouds":[{"cover":"SCT","base":2500},{"cover":"BKN","base":10000}],"obsTime":1776866400},"SBBR":{"icaoId":"SBBR","flightCategory":"VFR","rawOb":"METAR SBBR 221400Z 07007KT 020V110 CAVOK 27/16 Q1021","temp":27,"dewp":16,"wdir":70,"wspd":7,"visib":"6+","altim":1021,"clouds":[],"obsTime":1776866400},"SBBV":{"icaoId":"SBBV","flightCategory":"IFR","rawOb":"METAR SBBV 221400Z 20001KT 4500 RA VCTS BKN013 FEW045CB BKN100 22/22 Q1014 RETS","temp":22,"dewp":22,"wdir":200,"wspd":1,"visib":2.8,"altim":1014,"clouds":[{"cover":"BKN","base":1300},{"cover":"FEW","base":4500},{"cover":"BKN","base":10000}],"obsTime":1776866400},"SBCB":{"icaoId":"SBCB","flightCategory":"VFR","rawOb":"METAR SBCB 221400Z 23004KT 9999 FEW020 26/20 Q1018","temp":26,"dewp":20,"wdir":230,"wspd":4,"visib":"6+","altim":1018,"clouds":[{"cover":"FEW","base":2000}],"obsTime":1776866400},"SBCF":{"icaoId":"SBCF","flightCategory":"VFR","rawOb":"METAR SBCF 221400Z 05006KT 310V090 9999 SCT030 24/18 Q1021","temp":24,"dewp":18,"wdir":50,"wspd":6,"visib":"6+","altim":1021,"clouds":[{"cover":"SCT","base":3000}],"obsTime":1776866400},"SBCG":{"icaoId":"SBCG","flightCategory":"VFR","rawOb":"METAR SBCG 221400Z 10007KT CAVOK 28/16 Q1017","temp":28,"dewp":16,"wdir":100,"wspd":7,"visib":"6+","altim":1017,"clouds":[],"obsTime":1776866400},"SBCP":{"icaoId":"SBCP","flightCategory":"VFR","rawOb":"METAR SBCP 221400Z 11005KT 9999 SCT020 29/19 Q1017","temp":29,"dewp":19,"wdir":110,"wspd":5,"visib":"6+","altim":1017,"clouds":[{"cover":"SCT","base":2000}],"obsTime":1776866400},"SBCR":{"icaoId":"SBCR","flightCategory":"VFR","rawOb":"METAR SBCR 221400Z 28003KT 250V320 CAVOK 26/23 Q1015","temp":26,"dewp":23,"wdir":280,"wspd":3,"visib":"6+","altim":1015,"clouds":[],"obsTime":1776866400},"SBCT":{"icaoId":"SBCT","flightCategory":"VFR","rawOb":"METAR SBCT 221400Z VRB03KT CAVOK 21/14 Q1022","temp":21,"dewp":14,"wdir":"VRB","wspd":3,"visib":"6+","altim":1022,"clouds":[],"obsTime":1776866400},"SBCZ":{"icaoId":"SBCZ","flightCategory":"VFR","rawOb":"METAR SBCZ 221400Z 05004KT 9999 SCT009 BKN100 26/24 Q1014","temp":26,"dewp":24,"wdir":50,"wspd":4,"visib":"6+","altim":1014,"clouds":[{"cover":"SCT","base":900},{"cover":"BKN","base":10000}],"obsTime":1776866400},"SBEG":{"icaoId":"SBEG","flightCategory":"MVFR","rawOb":"METAR SBEG 221400Z 20004KT 9999 -RA SCT007 BKN010 FEW025TCU BKN070 25/23 Q1014","temp":25,"dewp":23,"wdir":200,"wspd":4,"visib":"6+","altim":1014,"clouds":[{"cover":"SCT","base":700},{"cover":"BKN","base":1000},{"cover":"FEW","base":2500},{"cover":"BKN","base":7000}],"obsTime":1776866400},"SBFI":{"icaoId":"SBFI","flightCategory":"VFR","rawOb":"METAR SBFI 221400Z 10004KT 9999 FEW015 28/23 Q1017","temp":28,"dewp":23,"wdir":100,"wspd":4,"visib":"6+","altim":1017,"clouds":[{"cover":"FEW","base":1500}],"obsTime":1776866400},"SBFL":{"icaoId":"SBFL","flightCategory":"VFR","rawOb":"METAR SBFL 221400Z 35011KT 9999 FEW016 26/19 Q1017","temp":26,"dewp":19,"wdir":350,"wspd":11,"visib":"6+","altim":1017,"clouds":[{"cover":"FEW","base":1600}],"obsTime":1776866400},"SBFZ":{"icaoId":"SBFZ","flightCategory":"VFR","rawOb":"METAR SBFZ 221400Z 14009KT 9999 SCT023 BKN100 29/24 Q1012","temp":29,"dewp":24,"wdir":140,"wspd":9,"visib":"6+","altim":1012,"clouds":[{"cover":"SCT","base":2300},{"cover":"BKN","base":10000}],"obsTime":1776866400},"SBGL":{"icaoId":"SBGL","flightCategory":"VFR","rawOb":"METAR SBGL 221400Z 10003KT 9999 FEW013 27/18 Q1017","temp":27,"dewp":18,"wdir":100,"wspd":3,"visib":"6+","altim":1017,"clouds":[{"cover":"FEW","base":1300}],"obsTime":1776866400},"SBGO":{"icaoId":"SBGO","flightCategory":"VFR","rawOb":"METAR SBGO 221400Z 01008KT 340V040 9999 FEW030 29/20 Q1018","temp":29,"dewp":20,"wdir":10,"wspd":8,"visib":"6+","altim":1018,"clouds":[{"cover":"FEW","base":3000}],"obsTime":1776866400},"SBGR":{"icaoId":"SBGR","flightCategory":"VFR","rawOb":"METAR SBGR 221400Z 04007KT 9999 FEW023 23/16 Q1020","temp":23,"dewp":16,"wdir":40,"wspd":7,"visib":"6+","altim":1020,"clouds":[{"cover":"FEW","base":2300}],"obsTime":1776866400},"SBHT":{"icaoId":"SBHT","flightCategory":"MVFR","rawOb":"METAR SBHT 221400Z 11004KT 9999 BKN020 28/24 Q1013","temp":28,"dewp":24,"wdir":110,"wspd":4,"visib":"6+","altim":1013,"clouds":[{"cover":"BKN","base":2000}],"obsTime":1776866400},"SBIL":{"icaoId":"SBIL","flightCategory":"VFR","rawOb":"METAR SBIL 221400Z 19012KT 160V230 9999 SCT025 30/24 Q1016","temp":30,"dewp":24,"wdir":190,"wspd":12,"visib":"6+","altim":1016,"clouds":[{"cover":"SCT","base":2500}],"obsTime":1776866400},"SBJU":{"icaoId":"SBJU","flightCategory":"MVFR","rawOb":"METAR SBJU 221400Z 05002KT 9999 SCT011 BKN018 25/23 Q1016","temp":25,"dewp":23,"wdir":50,"wspd":2,"visib":"6+","altim":1016,"clouds":[{"cover":"SCT","base":1100},{"cover":"BKN","base":1800}],"obsTime":1776866400},"SBKP":{"icaoId":"SBKP","flightCategory":"VFR","rawOb":"METAR SBKP 221400Z 36004KT 270V060 CAVOK 25/16 Q1019","temp":25,"dewp":16,"wdir":360,"wspd":4,"visib":"6+","altim":1019,"clouds":[],"obsTime":1776866400},"SBLO":{"icaoId":"SBLO","flightCategory":"VFR","rawOb":"METAR SBLO 221400Z 09008KT CAVOK 23/16 Q1019","temp":23,"dewp":16,"wdir":90,"wspd":8,"visib":"6+","altim":1019,"clouds":[],"obsTime":1776866400},"SBMA":{"icaoId":"SBMA","flightCategory":"VFR","rawOb":"METAR SBMA 221400Z 10002KT 9999 SCT020 30/24 Q1012","temp":30,"dewp":24,"wdir":100,"wspd":2,"visib":"6+","altim":1012,"clouds":[{"cover":"SCT","base":2000}],"obsTime":1776866400},"SBME":{"icaoId":"SBME","flightCategory":"VFR","rawOb":"METAR SBME 221400Z 18007KT 9999 FEW025 27/20 Q1017","temp":27,"dewp":20,"wdir":180,"wspd":7,"visib":"6+","altim":1017,"clouds":[{"cover":"FEW","base":2500}],"obsTime":1776866400},"SBMG":{"icaoId":"SBMG","flightCategory":"VFR","rawOb":"METAR SBMG 221400Z 10006KT CAVOK 26/15 Q1018","temp":26,"dewp":15,"wdir":100,"wspd":6,"visib":"6+","altim":1018,"clouds":[],"obsTime":1776866400},"SBMK":{"icaoId":"SBMK","flightCategory":"VFR","rawOb":"METAR SBMK 221400Z 09008KT 9999 SCT035 27/18 Q1019","temp":27,"dewp":18,"wdir":90,"wspd":8,"visib":"6+","altim":1019,"clouds":[{"cover":"SCT","base":3500}],"obsTime":1776866400},"SBMO":{"icaoId":"SBMO","flightCategory":"MVFR","rawOb":"METAR SBMO 221400Z 28006KT 9999 BKN017 SCT050 28/24 Q1014","temp":28,"dewp":24,"wdir":280,"wspd":6,"visib":"6+","altim":1014,"clouds":[{"cover":"BKN","base":1700},{"cover":"SCT","base":5000}],"obsTime":1776866400},"SBMQ":{"icaoId":"SBMQ","flightCategory":"VFR","rawOb":"METAR SBMQ 221400Z 08004KT 9999 SCT017 BKN100 29/26 Q1012","temp":29,"dewp":26,"wdir":80,"wspd":4,"visib":"6+","altim":1012,"clouds":[{"cover":"SCT","base":1700},{"cover":"BKN","base":10000}],"obsTime":1776866400},"SBNT":{"icaoId":"SBNT","flightCategory":"MVFR","rawOb":"METAR SBNT 221400Z 09008KT 9999 BKN030 31/22 Q1012","temp":31,"dewp":22,"wdir":90,"wspd":8,"visib":"6+","altim":1012,"clouds":[{"cover":"BKN","base":3000}],"obsTime":1776866400},"SBPA":{"icaoId":"SBPA","flightCategory":"VFR","rawOb":"METAR SBPA 221400Z 28006KT 250V320 9999 FEW040 26/21 Q1016","temp":26,"dewp":21,"wdir":280,"wspd":6,"visib":"6+","altim":1016,"clouds":[{"cover":"FEW","base":4000}],"obsTime":1776866400},"SBPJ":{"icaoId":"SBPJ","flightCategory":"VFR","rawOb":"METAR SBPJ 221400Z 25005KT 210V290 9999 FEW020 29/24 Q1015","temp":29,"dewp":24,"wdir":250,"wspd":5,"visib":"6+","altim":1015,"clouds":[{"cover":"FEW","base":2000}],"obsTime":1776866400},"SBPV":{"icaoId":"SBPV","flightCategory":"VFR","rawOb":"METAR SBPV 221400Z 17005KT 140V220 9999 SCT013 BKN100 26/24 Q1013","temp":26,"dewp":24,"wdir":170,"wspd":5,"visib":"6+","altim":1013,"clouds":[{"cover":"SCT","base":1300},{"cover":"BKN","base":10000}],"obsTime":1776866400},"SBRB":{"icaoId":"SBRB","flightCategory":"IFR","rawOb":"METAR SBRB 221400Z 00000KT 9999 BKN008 SCT100 26/24 Q1014","temp":26,"dewp":24,"wdir":0,"wspd":0,"visib":"6+","altim":1014,"clouds":[{"cover":"BKN","base":800},{"cover":"SCT","base":10000}],"obsTime":1776866400},"SBRF":{"icaoId":"SBRF","flightCategory":"VFR","rawOb":"METAR SBRF 221400Z 14009KT 110V170 9999 SCT025 30/22 Q1013","temp":30,"dewp":22,"wdir":140,"wspd":9,"visib":"6+","altim":1013,"clouds":[{"cover":"SCT","base":2500}],"obsTime":1776866400},"SBSG":{"icaoId":"SBSG","flightCategory":"MVFR","rawOb":"METAR SBSG 221400Z 15005KT 080V220 9999 BKN026 30/23 Q1012","temp":30,"dewp":23,"wdir":150,"wspd":5,"visib":"6+","altim":1012,"clouds":[{"cover":"BKN","base":2600}],"obsTime":1776866400},"SBSL":{"icaoId":"SBSL","flightCategory":"MVFR","rawOb":"METAR SBSL 221400Z 08008KT 9999 BKN020 SCT100 29/24 Q1012","temp":29,"dewp":24,"wdir":80,"wspd":8,"visib":"6+","altim":1012,"clouds":[{"cover":"BKN","base":2000},{"cover":"SCT","base":10000}],"obsTime":1776866400},"SBSN":{"icaoId":"SBSN","flightCategory":"VFR","rawOb":"METAR SBSN 221400Z 10009KT 9999 SCT015 29/25 Q1012","temp":29,"dewp":25,"wdir":100,"wspd":9,"visib":"6+","altim":1012,"clouds":[{"cover":"SCT","base":1500}],"obsTime":1776866400},"SBSP":{"icaoId":"SBSP","flightCategory":"VFR","rawOb":"METAR SBSP 221400Z VRB04KT CAVOK 22/15 Q1021","temp":22,"dewp":15,"wdir":"VRB","wspd":4,"visib":"6+","altim":1021,"clouds":[],"obsTime":1776866400},"SBSV":{"icaoId":"SBSV","flightCategory":"MVFR","rawOb":"METAR SBSV 221400Z 27007KT 8000 VCSH SCT012 BKN018 BKN040 26/25 Q1015","temp":26,"dewp":25,"wdir":270,"wspd":7,"visib":4.97,"altim":1015,"clouds":[{"cover":"SCT","base":1200},{"cover":"BKN","base":1800},{"cover":"BKN","base":4000}],"obsTime":1776866400},"SBTE":{"icaoId":"SBTE","flightCategory":"VFR","rawOb":"METAR SBTE 221400Z 12006KT 9999 SCT020 SCT090 27/23 Q1013","temp":27,"dewp":23,"wdir":120,"wspd":6,"visib":"6+","altim":1013,"clouds":[{"cover":"SCT","base":2000},{"cover":"SCT","base":9000}],"obsTime":1776866400},"SBUL":{"icaoId":"SBUL","flightCategory":"VFR","rawOb":"METAR SBUL 221400Z 07009KT 9999 SCT030 26/19 Q1020","temp":26,"dewp":19,"wdir":70,"wspd":9,"visib":"6+","altim":1020,"clouds":[{"cover":"SCT","base":3000}],"obsTime":1776866400},"SBUR":{"icaoId":"SBUR","flightCategory":"VFR","rawOb":"METAR SBUR 221400Z 35008KT CAVOK 28/18 Q1019","temp":28,"dewp":18,"wdir":350,"wspd":8,"visib":"6+","altim":1019,"clouds":[],"obsTime":1776866400},"SBVT":{"icaoId":"SBVT","flightCategory":"VFR","rawOb":"METAR SBVT 221400Z 14009KT 9999 SCT035 27/21 Q1018","temp":27,"dewp":21,"wdir":140,"wspd":9,"visib":"6+","altim":1018,"clouds":[{"cover":"SCT","base":3500}],"obsTime":1776866400},"SBCJ":{"icaoId":"SBCJ","flightCategory":"VFR","rawOb":"METAR SBCJ 221400Z 12005KT 9999 SCT013 26/22 Q1017","temp":26,"dewp":22,"wdir":120,"wspd":5,"visib":"6+","altim":1017,"clouds":[{"cover":"SCT","base":1300}],"obsTime":1776866400},"SBOI":{"icaoId":"SBOI","flightCategory":"MVFR","rawOb":"METAR SBOI 221400Z AUTO VRB02KT 9999 FEW014 SCT021 BKN024 28/24 Q1013","temp":28,"dewp":24,"wdir":"VRB","wspd":2,"visib":"6+","altim":1013,"clouds":[{"cover":"FEW","base":1400},{"cover":"SCT","base":2100},{"cover":"BKN","base":2400}],"obsTime":1776866400},"SBCO":{"icaoId":"SBCO","flightCategory":"VFR","rawOb":"METAR SBCO 221400Z 32006KT 9999 FEW020 26/20 Q1016","temp":26,"dewp":20,"wdir":320,"wspd":6,"visib":"6+","altim":1016,"clouds":[{"cover":"FEW","base":2000}],"obsTime":1776866400},"SBPB":{"icaoId":"SBPB","flightCategory":"VFR","rawOb":"METAR SBPB 221400Z 05009KT 9999 SCT020 SCT090 31/22 Q1012","temp":31,"dewp":22,"wdir":50,"wspd":9,"visib":"6+","altim":1012,"clouds":[{"cover":"SCT","base":2000},{"cover":"SCT","base":9000}],"obsTime":1776866400},"SBBU":{"icaoId":"SBBU","flightCategory":"VFR","rawOb":"METAR SBBU 221400Z 13008KT CAVOK 26/17 Q1018","temp":26,"dewp":17,"wdir":130,"wspd":8,"visib":"6+","altim":1018,"clouds":[],"obsTime":1776866400},"SBPL":{"icaoId":"SBPL","flightCategory":"VFR","rawOb":"METAR SBPL 221400Z 10011KT 9999 SCT025 BKN070 30/21 Q1016","temp":30,"dewp":21,"wdir":100,"wspd":11,"visib":"6+","altim":1016,"clouds":[{"cover":"SCT","base":2500},{"cover":"BKN","base":7000}],"obsTime":1776866400},"SBDN":{"icaoId":"SBDN","flightCategory":"VFR","rawOb":"METAR SBDN 221400Z 10008KT CAVOK 26/15 Q1018","temp":26,"dewp":15,"wdir":100,"wspd":8,"visib":"6+","altim":1018,"clouds":[],"obsTime":1776866400},"SBPP":{"icaoId":"SBPP","flightCategory":"VFR","rawOb":"METAR SBPP 221400Z 06012KT CAVOK 26/18 Q1019","temp":26,"dewp":18,"wdir":60,"wspd":12,"visib":"6+","altim":1019,"clouds":[],"obsTime":1776866400},"SBPS":{"icaoId":"SBPS","flightCategory":"VFR","rawOb":"METAR SBPS 221400Z 16006KT 9999 SCT025 28/22 Q1017","temp":28,"dewp":22,"wdir":160,"wspd":6,"visib":"6+","altim":1017,"clouds":[{"cover":"SCT","base":2500}],"obsTime":1776866400},"SBCA":{"icaoId":"SBCA","flightCategory":"VFR","rawOb":"METAR SBCA 221400Z 19005KT CAVOK 25/18 Q1020","temp":25,"dewp":18,"wdir":190,"wspd":5,"visib":"6+","altim":1020,"clouds":[],"obsTime":1776866400},"SBSC":{"icaoId":"SBSC","flightCategory":"VFR","rawOb":"METAR SBSC 221400Z 02008KT 9999 FEW025 28/19 Q1017","temp":28,"dewp":19,"wdir":20,"wspd":8,"visib":"6+","altim":1017,"clouds":[{"cover":"FEW","base":2500}],"obsTime":1776866400},"SBBH":{"icaoId":"SBBH","flightCategory":"VFR","rawOb":"METAR SBBH 221400Z 07006KT 9999 SCT025 25/18 Q1021","temp":25,"dewp":18,"wdir":70,"wspd":6,"visib":"6+","altim":1021,"clouds":[{"cover":"SCT","base":2500}],"obsTime":1776866400},"SBES":{"icaoId":"SBES","flightCategory":"VFR","rawOb":"METAR SBES 221400Z VRB04KT 9999 FEW020 28/// Q1017","temp":null,"dewp":null,"wdir":"VRB","wspd":4,"visib":"6+","altim":1017,"clouds":[{"cover":"FEW","base":2000}],"obsTime":1776866400},"SBSJ":{"icaoId":"SBSJ","flightCategory":"MVFR","rawOb":"METAR SBSJ 221400Z 09004KT 9000 SCT014 BKN019 22/17 Q1020","temp":22,"dewp":17,"wdir":90,"wspd":4,"visib":5.59,"altim":1020,"clouds":[{"cover":"SCT","base":1400},{"cover":"BKN","base":1900}],"obsTime":1776866400},"SBSM":{"icaoId":"SBSM","flightCategory":"VFR","rawOb":"METAR SBSM 221400Z VRB02KT 9999 FEW025 26/22 Q1017","temp":26,"dewp":22,"wdir":"VRB","wspd":2,"visib":"6+","altim":1017,"clouds":[{"cover":"FEW","base":2500}],"obsTime":1776866400},"SBGM":{"icaoId":"SBGM","flightCategory":"VFR","rawOb":"METAR SBGM 221400Z 09005KT 9999 SCT008 OVC066 25/23 Q1014","temp":25,"dewp":23,"wdir":90,"wspd":5,"visib":"6+","altim":1014,"clouds":[{"cover":"SCT","base":800},{"cover":"OVC","base":6600}],"obsTime":1776866400},"SBSR":{"icaoId":"SBSR","flightCategory":"MVFR","rawOb":"METAR SBSR 221400Z 07005KT 8000 NSC 27/16 Q1017","temp":27,"dewp":16,"wdir":70,"wspd":5,"visib":4.97,"altim":1017,"clouds":[],"obsTime":1776866400},"SBCC":{"icaoId":"SBCC","flightCategory":"VFR","rawOb":"METAR SBCC 221400Z 02005KT 9999 FEW015 BKN070 28/22 Q1015","temp":28,"dewp":22,"wdir":20,"wspd":5,"visib":"6+","altim":1015,"clouds":[{"cover":"FEW","base":1500},{"cover":"BKN","base":7000}],"obsTime":1776866400},"SBTD":{"icaoId":"SBTD","flightCategory":"VFR","rawOb":"METAR SBTD 221400Z /////KT CAVOK 27/20 Q1019","temp":27,"dewp":20,"wdir":null,"wspd":null,"visib":"6+","altim":1019,"clouds":[],"obsTime":1776866400},"SBIP":{"icaoId":"SBIP","flightCategory":"VFR","rawOb":"METAR SBIP 221400Z AUTO 02007KT 330V080 9999 FEW030 28/19 Q1019","temp":28,"dewp":19,"wdir":20,"wspd":7,"visib":"6+","altim":1019,"clouds":[{"cover":"FEW","base":3000}],"obsTime":1776866400},"SBBQ":{"icaoId":"SBBQ","flightCategory":"MVFR","rawOb":"METAR SBBQ 221400Z 10006KT 060V130 9999 BKN012 OVC018 19/16 Q1024","temp":19,"dewp":16,"wdir":100,"wspd":6,"visib":"6+","altim":1024,"clouds":[{"cover":"BKN","base":1200},{"cover":"OVC","base":1800}],"obsTime":1776866400},"SBTF":{"icaoId":"SBTF","flightCategory":"VFR","rawOb":"METAR SBTF 221400Z 17005KT 9999 FEW006 SCT040 BKN070 27/24 Q1013","temp":27,"dewp":24,"wdir":170,"wspd":5,"visib":"6+","altim":1013,"clouds":[{"cover":"FEW","base":600},{"cover":"SCT","base":4000},{"cover":"BKN","base":7000}],"obsTime":1776866400},"SBKG":{"icaoId":"SBKG","flightCategory":"MVFR","rawOb":"METAR SBKG 221400Z 11006KT 9999 BKN018 28/21 Q1015","temp":28,"dewp":21,"wdir":110,"wspd":6,"visib":"6+","altim":1015,"clouds":[{"cover":"BKN","base":1800}],"obsTime":1776866400},"SBTT":{"icaoId":"SBTT","flightCategory":"VFR","rawOb":"METAR SBTT 221400Z 12003KT 9999 FEW009 26/22 Q1013","temp":26,"dewp":22,"wdir":120,"wspd":3,"visib":"6+","altim":1013,"clouds":[{"cover":"FEW","base":900}],"obsTime":1776866400},"SBUY":{"icaoId":"SBUY","flightCategory":"IFR","rawOb":"METAR SBUY 221400Z 00000KT 8000 BKN009 BKN080 25/23 Q1012","temp":25,"dewp":23,"wdir":0,"wspd":0,"visib":4.97,"altim":1012,"clouds":[{"cover":"BKN","base":900},{"cover":"BKN","base":8000}],"obsTime":1776866400},"SBAX":{"icaoId":"SBAX","flightCategory":"MVFR","rawOb":"METAR SBAX 221400Z 07006KT 9999 BKN025 24/18 Q1021","temp":24,"dewp":18,"wdir":70,"wspd":6,"visib":"6+","altim":1021,"clouds":[{"cover":"BKN","base":2500}],"obsTime":1776866400},"SBVH":{"icaoId":"SBVH","flightCategory":"VFR","rawOb":"METAR SBVH 221400Z 09006KT 9999 FEW020 BKN100 27/23 Q1016","temp":27,"dewp":23,"wdir":90,"wspd":6,"visib":"6+","altim":1016,"clouds":[{"cover":"FEW","base":2000},{"cover":"BKN","base":10000}],"obsTime":1776866400},"SBAR":{"icaoId":"SBAR","flightCategory":"VFR","rawOb":"METAR SBAR 221400Z 19009KT 9999 SCT025 BKN045 29/23 Q1014","temp":29,"dewp":23,"wdir":190,"wspd":9,"visib":"6+","altim":1014,"clouds":[{"cover":"SCT","base":2500},{"cover":"BKN","base":4500}],"obsTime":1776866400},"SBAU":{"icaoId":"SBAU","flightCategory":"VFR","rawOb":"METAR SBAU 221400Z 13010KT CAVOK 26/16 Q1017","temp":26,"dewp":16,"wdir":130,"wspd":10,"visib":"6+","altim":1017,"clouds":[],"obsTime":1776866400},"SBST":{"icaoId":"SBST","flightCategory":"VFR","rawOb":"METAR SBST 221400Z 34002KT CAVOK 25/21 Q1017","temp":25,"dewp":21,"wdir":340,"wspd":2,"visib":"6+","altim":1017,"clouds":[],"obsTime":1776866400},"SBTA":{"icaoId":"SBTA","flightCategory":"MVFR","rawOb":"METAR SBTA 221400Z 05008KT 360V090 9999 BKN026 23/16 Q1019","temp":23,"dewp":16,"wdir":50,"wspd":8,"visib":"6+","altim":1019,"clouds":[{"cover":"BKN","base":2600}],"obsTime":1776866400},"SBAN":{"icaoId":"SBAN","flightCategory":"VFR","rawOb":"METAR SBAN 221400Z 08005KT 9999 SCT030 25/18 Q1021","temp":25,"dewp":18,"wdir":80,"wspd":5,"visib":"6+","altim":1021,"clouds":[{"cover":"SCT","base":3000}],"obsTime":1776866400},"SBLE":{"icaoId":"SBLE","flightCategory":"VFR","rawOb":"METAR SBLE 221400Z AUTO VRB04KT 9999 SCT032 BKN042 26/19 Q1019","temp":26,"dewp":19,"wdir":"VRB","wspd":4,"visib":"6+","altim":1019,"clouds":[{"cover":"SCT","base":3200},{"cover":"BKN","base":4200}],"obsTime":1776866400},"SBIH":{"icaoId":"SBIH","flightCategory":"VFR","rawOb":"METAR SBIH 221400Z 05007KT 9999 SCT015 31/25 Q1012","temp":31,"dewp":25,"wdir":50,"wspd":7,"visib":"6+","altim":1012,"clouds":[{"cover":"SCT","base":1500}],"obsTime":1776866400},"SBAF":{"icaoId":"SBAF","flightCategory":"VFR","rawOb":"METAR SBAF 221400Z 05003KT 9999 FEW030 28/18 Q1017","temp":28,"dewp":18,"wdir":50,"wspd":3,"visib":"6+","altim":1017,"clouds":[{"cover":"FEW","base":3000}],"obsTime":1776866400},"SBJV":{"icaoId":"SBJV","flightCategory":"VFR","rawOb":"METAR SBJV 221400Z 32002KT 9999 FEW030 27/18 Q1018","temp":27,"dewp":18,"wdir":320,"wspd":2,"visib":"6+","altim":1018,"clouds":[{"cover":"FEW","base":3000}],"obsTime":1776866400},"SBGW":{"icaoId":"SBGW","flightCategory":"MVFR","rawOb":"METAR SBGW 221400Z 04006KT 360V090 9999 FEW023 BKN025 24/15 Q1019","temp":24,"dewp":15,"wdir":40,"wspd":6,"visib":"6+","altim":1019,"clouds":[{"cover":"FEW","base":2300},{"cover":"BKN","base":2500}],"obsTime":1776866400},"SBJR":{"icaoId":"SBJR","flightCategory":"VFR","rawOb":"METAR SBJR 221400Z 16006KT 9999 FEW025 29/20 Q1017","temp":29,"dewp":20,"wdir":160,"wspd":6,"visib":"6+","altim":1017,"clouds":[{"cover":"FEW","base":2500}],"obsTime":1776866400},"SBLS":{"icaoId":"SBLS","flightCategory":"MVFR","rawOb":"METAR SBLS 221400Z 12004KT 9999 BKN025 25/17 Q1021","temp":25,"dewp":17,"wdir":120,"wspd":4,"visib":"6+","altim":1021,"clouds":[{"cover":"BKN","base":2500}],"obsTime":1776866400},"SBMT":{"icaoId":"SBMT","flightCategory":"VFR","rawOb":"METAR SBMT 221400Z 10004KT CAVOK 23/15 Q1020","temp":23,"dewp":15,"wdir":100,"wspd":4,"visib":"6+","altim":1020,"clouds":[],"obsTime":1776866400},"SBNM":{"icaoId":"SBNM","flightCategory":"VFR","rawOb":"METAR SBNM 221400Z 35002KT 9999 SCT015 27/23 Q1018","temp":27,"dewp":23,"wdir":350,"wspd":2,"visib":"6+","altim":1018,"clouds":[{"cover":"SCT","base":1500}],"obsTime":1776866400},"SBJP":{"icaoId":"SBJP","flightCategory":"VFR","rawOb":"METAR SBJP 221400Z 12008KT 9999 SCT020 SCT070 31/23 Q1013","temp":31,"dewp":23,"wdir":120,"wspd":8,"visib":"6+","altim":1013,"clouds":[{"cover":"SCT","base":2000},{"cover":"SCT","base":7000}],"obsTime":1776866400},"SBPF":{"icaoId":"SBPF","flightCategory":"MVFR","rawOb":"METAR SBPF 221400Z 01005KT 9999 BKN015 23/19 Q1020","temp":23,"dewp":19,"wdir":10,"wspd":5,"visib":"6+","altim":1020,"clouds":[{"cover":"BKN","base":1500}],"obsTime":1776866400}}}