{"updated":1783706714,"count":85,"data":{"SBGR":{"icaoId":"SBGR","flightCategory":"VFR","rawOb":"METAR SBGR 101700Z 31008KT CAVOK 26/10 Q1017","temp":26,"dewp":10,"wdir":310,"wspd":8,"visib":"6+","altim":1017,"clouds":[],"obsTime":1783702800},"SBKP":{"icaoId":"SBKP","flightCategory":"VFR","rawOb":"METAR SBKP 101700Z 31006KT 250V020 CAVOK 25/10 Q1017","temp":25,"dewp":10,"wdir":310,"wspd":6,"visib":"6+","altim":1017,"clouds":[],"obsTime":1783702800},"SBEG":{"icaoId":"SBEG","flightCategory":"VFR","rawOb":"METAR SBEG 101700Z 06006KT 020V090 9999 SCT030 FEW035TCU 33/23 Q1011","temp":33,"dewp":23,"wdir":60,"wspd":6,"visib":"6+","altim":1011,"clouds":[{"cover":"SCT","base":3000},{"cover":"FEW","base":3500}],"obsTime":1783702800},"SBSL":{"icaoId":"SBSL","flightCategory":"VFR","rawOb":"METAR SBSL 101700Z 07014KT 9999 SCT030 32/23 Q1012","temp":32,"dewp":23,"wdir":70,"wspd":14,"visib":"6+","altim":1012,"clouds":[{"cover":"SCT","base":3000}],"obsTime":1783702800},"SBPA":{"icaoId":"SBPA","flightCategory":"VFR","rawOb":"METAR SBPA 101700Z 11003KT 070V150 9999 BKN045 20/10 Q1013","temp":20,"dewp":10,"wdir":110,"wspd":3,"visib":"6+","altim":1013,"clouds":[{"cover":"BKN","base":4500}],"obsTime":1783702800},"SBRB":{"icaoId":"SBRB","flightCategory":"VFR","rawOb":"METAR SBRB 101700Z 11002KT 9999 SCT015 BKN100 31/21 Q1014","temp":31,"dewp":21,"wdir":110,"wspd":2,"visib":"6+","altim":1014,"clouds":[{"cover":"SCT","base":1500},{"cover":"BKN","base":10000}],"obsTime":1783702800},"SBLO":{"icaoId":"SBLO","flightCategory":"VFR","rawOb":"METAR SBLO 101700Z 03007KT 360V080 CAVOK 25/14 Q1015","temp":25,"dewp":14,"wdir":30,"wspd":7,"visib":"6+","altim":1015,"clouds":[],"obsTime":1783702800},"SBTE":{"icaoId":"SBTE","flightCategory":"VFR","rawOb":"METAR SBTE 101700Z 11008KT 9999 SCT040 34/19 Q1011","temp":34,"dewp":19,"wdir":110,"wspd":8,"visib":"6+","altim":1011,"clouds":[{"cover":"SCT","base":4000}],"obsTime":1783702800},"SBFL":{"icaoId":"SBFL","flightCategory":"VFR","rawOb":"METAR SBFL 101700Z 31003KT 250V060 9999 -RA FEW036 SCT050 OVC075 17/15 Q1014","temp":17,"dewp":15,"wdir":310,"wspd":3,"visib":"6+","altim":1014,"clouds":[{"cover":"FEW","base":3600},{"cover":"SCT","base":5000},{"cover":"OVC","base":7500}],"obsTime":1783702800},"SBMA":{"icaoId":"SBMA","flightCategory":"VFR","rawOb":"METAR SBMA 101700Z 06007KT 9999 SCT025 FEW030TCU 32/22 Q1012","temp":32,"dewp":22,"wdir":60,"wspd":7,"visib":"6+","altim":1012,"clouds":[{"cover":"SCT","base":2500},{"cover":"FEW","base":3000}],"obsTime":1783702800},"SBGL":{"icaoId":"SBGL","flightCategory":"VFR","rawOb":"METAR SBGL 101700Z VRB02KT 9000 NSC 28/19 Q1012","temp":28,"dewp":19,"wdir":"VRB","wspd":2,"visib":5.59,"altim":1012,"clouds":[],"obsTime":1783702800},"SBCB":{"icaoId":"SBCB","flightCategory":"VFR","rawOb":"METAR SBCB 101700Z 12010KT CAVOK 25/19 Q1013","temp":25,"dewp":19,"wdir":120,"wspd":10,"visib":"6+","altim":1013,"clouds":[],"obsTime":1783702800},"SBMO":{"icaoId":"SBMO","flightCategory":"MVFR","rawOb":"METAR SBMO 101700Z 12011KT 9999 BKN025 27/22 Q1015","temp":27,"dewp":22,"wdir":120,"wspd":11,"visib":"6+","altim":1015,"clouds":[{"cover":"BKN","base":2500}],"obsTime":1783702800},"SBSN":{"icaoId":"SBSN","flightCategory":"VFR","rawOb":"METAR SBSN 101700Z 09013KT 9999 FEW030 FEW035TCU 31/25 Q1012","temp":31,"dewp":25,"wdir":90,"wspd":13,"visib":"6+","altim":1012,"clouds":[{"cover":"FEW","base":3000},{"cover":"FEW","base":3500}],"obsTime":1783702800},"SBSV":{"icaoId":"SBSV","flightCategory":"VFR","rawOb":"METAR SBSV 101700Z 16009KT 9999 SCT024 FEW025TCU BKN080 26/21 Q1016","temp":26,"dewp":21,"wdir":160,"wspd":9,"visib":"6+","altim":1016,"clouds":[{"cover":"SCT","base":2400},{"cover":"FEW","base":2500},{"cover":"BKN","base":8000}],"obsTime":1783702800},"SBBE":{"icaoId":"SBBE","flightCategory":"VFR","rawOb":"METAR SBBE 101700Z 07010KT 9999 BKN035 FEW040TCU 31/23 Q1012","temp":31,"dewp":23,"wdir":70,"wspd":10,"visib":"6+","altim":1012,"clouds":[{"cover":"BKN","base":3500},{"cover":"FEW","base":4000}],"obsTime":1783702800},"SBCF":{"icaoId":"SBCF","flightCategory":"VFR","rawOb":"METAR SBCF 101700Z 27006KT CAVOK 28/06 Q1018","temp":28,"dewp":6,"wdir":270,"wspd":6,"visib":"6+","altim":1018,"clouds":[],"obsTime":1783702800},"SBCT":{"icaoId":"SBCT","flightCategory":"VFR","rawOb":"METAR SBCT 101700Z 29007KT CAVOK 23/13 Q1016","temp":23,"dewp":13,"wdir":290,"wspd":7,"visib":"6+","altim":1016,"clouds":[],"obsTime":1783702800},"SBBV":{"icaoId":"SBBV","flightCategory":"VFR","rawOb":"METAR SBBV 101700Z 12007KT 9999 VCSH BKN035 FEW040TCU BKN080 32/22 Q1012","temp":32,"dewp":22,"wdir":120,"wspd":7,"visib":"6+","altim":1012,"clouds":[{"cover":"BKN","base":3500},{"cover":"FEW","base":4000},{"cover":"BKN","base":8000}],"obsTime":1783702800},"SBFZ":{"icaoId":"SBFZ","flightCategory":"VFR","rawOb":"METAR SBFZ 101700Z 12017KT 9999 FEW025 30/22 Q1013","temp":30,"dewp":22,"wdir":120,"wspd":17,"visib":"6+","altim":1013,"clouds":[{"cover":"FEW","base":2500}],"obsTime":1783702800},"SBBR":{"icaoId":"SBBR","flightCategory":"VFR","rawOb":"METAR SBBR 101700Z VRB03KT 9999 FEW045 27/11 Q1020","temp":27,"dewp":11,"wdir":"VRB","wspd":3,"visib":"6+","altim":1020,"clouds":[{"cover":"FEW","base":4500}],"obsTime":1783702800},"SBCP":{"icaoId":"SBCP","flightCategory":"VFR","rawOb":"METAR SBCP 101700Z 35012KT CAVOK 29/16 Q1013","temp":29,"dewp":16,"wdir":350,"wspd":12,"visib":"6+","altim":1013,"clouds":[],"obsTime":1783702800},"SBPJ":{"icaoId":"SBPJ","flightCategory":"VFR","rawOb":"METAR SBPJ 101700Z VRB06KT 9999 FEW035 32/20 Q1013","temp":32,"dewp":20,"wdir":"VRB","wspd":6,"visib":"6+","altim":1013,"clouds":[{"cover":"FEW","base":3500}],"obsTime":1783702800},"SBSG":{"icaoId":"SBSG","flightCategory":"VFR","rawOb":"METAR SBSG 101700Z 13008KT 100V190 9999 SCT030 29/23 Q1014","temp":29,"dewp":23,"wdir":130,"wspd":8,"visib":"6+","altim":1014,"clouds":[{"cover":"SCT","base":3000}],"obsTime":1783702800},"SBGO":{"icaoId":"SBGO","flightCategory":"VFR","rawOb":"METAR SBGO 101700Z VRB05KT CAVOK 30/11 Q1018","temp":30,"dewp":11,"wdir":"VRB","wspd":5,"visib":"6+","altim":1018,"clouds":[],"obsTime":1783702800},"SBSP":{"icaoId":"SBSP","flightCategory":"VFR","rawOb":"METAR SBSP 101700Z 32012KT 270V340 CAVOK 25/06 Q1018","temp":25,"dewp":6,"wdir":320,"wspd":12,"visib":"6+","altim":1018,"clouds":[],"obsTime":1783702800},"SBFI":{"icaoId":"SBFI","flightCategory":"VFR","rawOb":"METAR SBFI 101700Z 04007KT 9999 SCT030 SCT070 24/18 Q1012","temp":24,"dewp":18,"wdir":40,"wspd":7,"visib":"6+","altim":1012,"clouds":[{"cover":"SCT","base":3000},{"cover":"SCT","base":7000}],"obsTime":1783702800},"SBCG":{"icaoId":"SBCG","flightCategory":"VFR","rawOb":"METAR SBCG 101700Z 35011KT 320V020 9999 FEW049 30/15 Q1015","temp":30,"dewp":15,"wdir":350,"wspd":11,"visib":"6+","altim":1015,"clouds":[{"cover":"FEW","base":4900}],"obsTime":1783702800},"SBCR":{"icaoId":"SBCR","flightCategory":"VFR","rawOb":"METAR SBCR 101700Z 02009KT 340V060 CAVOK 33/18 Q1012","temp":33,"dewp":18,"wdir":20,"wspd":9,"visib":"6+","altim":1012,"clouds":[],"obsTime":1783702800},"SBPV":{"icaoId":"SBPV","flightCategory":"VFR","rawOb":"SPECI SBPV 101626Z 12004KT 9999 RA SCT030 FEW040TCU 32/22 Q1012","temp":32,"dewp":22,"wdir":120,"wspd":4,"visib":"6+","altim":1012,"clouds":[{"cover":"SCT","base":3000},{"cover":"FEW","base":4000}],"obsTime":1783700760},"SBVT":{"icaoId":"SBVT","flightCategory":"VFR","rawOb":"METAR SBVT 101700Z 01006KT 320V040 CAVOK 30/16 Q1013","temp":30,"dewp":16,"wdir":10,"wspd":6,"visib":"6+","altim":1013,"clouds":[],"obsTime":1783702800},"SBMQ":{"icaoId":"SBMQ","flightCategory":"VFR","rawOb":"METAR SBMQ 101700Z 05014KT 9999 FEW025 FEW035TCU 31/25 Q1012","temp":31,"dewp":25,"wdir":50,"wspd":14,"visib":"6+","altim":1012,"clouds":[{"cover":"FEW","base":2500},{"cover":"FEW","base":3500}],"obsTime":1783702800},"SBRF":{"icaoId":"SBRF","flightCategory":"VFR","rawOb":"METAR SBRF 101700Z 15013KT 9999 SCT022 28/23 Q1014","temp":28,"dewp":23,"wdir":150,"wspd":13,"visib":"6+","altim":1014,"clouds":[{"cover":"SCT","base":2200}],"obsTime":1783702800},"SBIL":{"icaoId":"SBIL","flightCategory":"VFR","rawOb":"METAR SBIL 101700Z 08005KT 9999 FEW020 SCT070 27/21 Q1016","temp":27,"dewp":21,"wdir":80,"wspd":5,"visib":"6+","altim":1016,"clouds":[{"cover":"FEW","base":2000},{"cover":"SCT","base":7000}],"obsTime":1783702800},"SBJU":{"icaoId":"SBJU","flightCategory":"VFR","rawOb":"METAR SBJU 101700Z 05005KT 9999 SCT022 32/17 Q1015","temp":32,"dewp":17,"wdir":50,"wspd":5,"visib":"6+","altim":1015,"clouds":[{"cover":"SCT","base":2200}],"obsTime":1783702800},"SBAT":{"icaoId":"SBAT","flightCategory":"VFR","rawOb":"METAR SBAT 101700Z 09003KT 9999 SCT040 35/21 Q1013","temp":35,"dewp":21,"wdir":90,"wspd":3,"visib":"6+","altim":1013,"clouds":[{"cover":"SCT","base":4000}],"obsTime":1783702800},"SBHT":{"icaoId":"SBHT","flightCategory":"MVFR","rawOb":"METAR SBHT 101700Z 15003KT 9999 BKN025 SCT090 29/27 Q1013","temp":29,"dewp":27,"wdir":150,"wspd":3,"visib":"6+","altim":1013,"clouds":[{"cover":"BKN","base":2500},{"cover":"SCT","base":9000}],"obsTime":1783702800},"SBME":{"icaoId":"SBME","flightCategory":"VFR","rawOb":"METAR SBME 101700Z 09009KT CAVOK 26/19 Q1012","temp":26,"dewp":19,"wdir":90,"wspd":9,"visib":"6+","altim":1012,"clouds":[],"obsTime":1783702800},"SBMK":{"icaoId":"SBMK","flightCategory":"VFR","rawOb":"METAR SBMK 101700Z 22003KT 9999 FEW045 28/13 Q1017","temp":28,"dewp":13,"wdir":220,"wspd":3,"visib":"6+","altim":1017,"clouds":[{"cover":"FEW","base":4500}],"obsTime":1783702800},"SBUL":{"icaoId":"SBUL","flightCategory":"VFR","rawOb":"METAR SBUL 101700Z 06004KT CAVOK 27/08 Q1019","temp":27,"dewp":8,"wdir":60,"wspd":4,"visib":"6+","altim":1019,"clouds":[],"obsTime":1783702800},"SBUR":{"icaoId":"SBUR","flightCategory":"VFR","rawOb":"METAR SBUR 101700Z 28005KT CAVOK 28/02 Q1018","temp":28,"dewp":2,"wdir":280,"wspd":5,"visib":"6+","altim":1018,"clouds":[],"obsTime":1783702800},"SBCZ":{"icaoId":"SBCZ","flightCategory":"MVFR","rawOb":"METAR SBCZ 101700Z 19004KT 9999 BKN030 31/23 Q1014","temp":31,"dewp":23,"wdir":190,"wspd":4,"visib":"6+","altim":1014,"clouds":[{"cover":"BKN","base":3000}],"obsTime":1783702800},"SBNT":{"icaoId":"SBNT","flightCategory":"VFR","rawOb":"METAR SBNT 101700Z 14018KT 9999 SCT028 29/22 Q1013","temp":29,"dewp":22,"wdir":140,"wspd":18,"visib":"6+","altim":1013,"clouds":[{"cover":"SCT","base":2800}],"obsTime":1783702800},"SBMG":{"icaoId":"SBMG","flightCategory":"VFR","rawOb":"METAR SBMG 101700Z 01011KT 330V030 CAVOK 27/13 Q1014","temp":27,"dewp":13,"wdir":10,"wspd":11,"visib":"6+","altim":1014,"clouds":[],"obsTime":1783702800},"SBUY":{"icaoId":"SBUY","flightCategory":"VFR","rawOb":"METAR SBUY 101700Z 13004KT 9999 SCT025 31/23 Q1011","temp":31,"dewp":23,"wdir":130,"wspd":4,"visib":"6+","altim":1011,"clouds":[{"cover":"SCT","base":2500}],"obsTime":1783702800},"SBPS":{"icaoId":"SBPS","flightCategory":"VFR","rawOb":"METAR SBPS 101700Z 08008KT 9999 SCT025 26/22 Q1016","temp":26,"dewp":22,"wdir":80,"wspd":8,"visib":"6+","altim":1016,"clouds":[{"cover":"SCT","base":2500}],"obsTime":1783702800},"SBSJ":{"icaoId":"SBSJ","flightCategory":"MVFR","rawOb":"METAR SBSJ 101700Z COR 21003KT 8000 NSC 23/13 Q1016","temp":23,"dewp":13,"wdir":210,"wspd":3,"visib":4.97,"altim":1016,"clouds":[],"obsTime":1783702800},"SBAR":{"icaoId":"SBAR","flightCategory":"VFR","rawOb":"METAR SBAR 101700Z 11009KT 9999 FEW028 28/21 Q1015","temp":28,"dewp":21,"wdir":110,"wspd":9,"visib":"6+","altim":1015,"clouds":[{"cover":"FEW","base":2800}],"obsTime":1783702800},"SBOI":{"icaoId":"SBOI","flightCategory":"VFR","rawOb":"METAR SBOI 101700Z AUTO 11007KT 020V190 9999 SCT034 31/24 Q1012","temp":31,"dewp":24,"wdir":110,"wspd":7,"visib":"6+","altim":1012,"clouds":[{"cover":"SCT","base":3400}],"obsTime":1783702800},"SBTT":{"icaoId":"SBTT","flightCategory":"VFR","rawOb":"METAR SBTT 101700Z 34006KT 9000 SCT023 FEW025TCU SCT070 26/23 Q1014","temp":26,"dewp":23,"wdir":340,"wspd":6,"visib":5.59,"altim":1014,"clouds":[{"cover":"SCT","base":2300},{"cover":"FEW","base":2500},{"cover":"SCT","base":7000}],"obsTime":1783702800},"SBPL":{"icaoId":"SBPL","flightCategory":"VFR","rawOb":"METAR SBPL 101700Z 09010KT 9999 FEW030 32/14 Q1015","temp":32,"dewp":14,"wdir":90,"wspd":10,"visib":"6+","altim":1015,"clouds":[{"cover":"FEW","base":3000}],"obsTime":1783702800},"SBPB":{"icaoId":"SBPB","flightCategory":"VFR","rawOb":"METAR SBPB 101700Z 06014KT 9999 FEW020 31/24 Q1011","temp":31,"dewp":24,"wdir":60,"wspd":14,"visib":"6+","altim":1011,"clouds":[{"cover":"FEW","base":2000}],"obsTime":1783702800},"SBCJ":{"icaoId":"SBCJ","flightCategory":"VFR","rawOb":"METAR SBCJ 101700Z 09004KT 9999 SCT040 FEW040TCU 29/21 Q1015","temp":29,"dewp":21,"wdir":90,"wspd":4,"visib":"6+","altim":1015,"clouds":[{"cover":"SCT","base":4000},{"cover":"FEW","base":4000}],"obsTime":1783702800},"SBPP":{"icaoId":"SBPP","flightCategory":"VFR","rawOb":"METAR SBPP 101700Z 33011KT 9999 FEW025 29/17 Q1014","temp":29,"dewp":17,"wdir":330,"wspd":11,"visib":"6+","altim":1014,"clouds":[{"cover":"FEW","base":2500}],"obsTime":1783702800},"SBTF":{"icaoId":"SBTF","flightCategory":"VFR","rawOb":"METAR SBTF 101700Z 35004KT 9999 FEW020 SCT025TCU 30/27 Q1011","temp":30,"dewp":27,"wdir":350,"wspd":4,"visib":"6+","altim":1011,"clouds":[{"cover":"FEW","base":2000},{"cover":"SCT","base":2500}],"obsTime":1783702800},"SBTU":{"icaoId":"SBTU","flightCategory":"VFR","rawOb":"METAR SBTU 101700Z AUTO 24008KT 200V280 9999 // SCT026/// BKN057/// 30/23 Q1014","temp":30,"dewp":23,"wdir":240,"wspd":8,"visib":"6+","altim":1014,"clouds":[{"cover":"SCT","base":2600},{"cover":"BKN","base":5700}],"obsTime":1783702800},"SBCA":{"icaoId":"SBCA","flightCategory":"VFR","rawOb":"METAR SBCA 101700Z 36012KT 9999 FEW030 SCT080 24/14 Q1015","temp":24,"dewp":14,"wdir":360,"wspd":12,"visib":"6+","altim":1015,"clouds":[{"cover":"FEW","base":3000},{"cover":"SCT","base":8000}],"obsTime":1783702800},"SBCO":{"icaoId":"SBCO","flightCategory":"VFR","rawOb":"METAR SBCO 101700Z 11004KT 9999 BKN045 19/10 Q1014","temp":19,"dewp":10,"wdir":110,"wspd":4,"visib":"6+","altim":1014,"clouds":[{"cover":"BKN","base":4500}],"obsTime":1783702800},"SBSM":{"icaoId":"SBSM","flightCategory":"VFR","rawOb":"METAR SBSM 101700Z 12009KT 9999 FEW015 SCT090 20/15 Q1012","temp":20,"dewp":15,"wdir":120,"wspd":9,"visib":"6+","altim":1012,"clouds":[{"cover":"FEW","base":1500},{"cover":"SCT","base":9000}],"obsTime":1783702800},"SBKG":{"icaoId":"SBKG","flightCategory":"VFR","rawOb":"METAR SBKG 101700Z 11009KT 9999 SCT025 28/19 Q1016","temp":28,"dewp":19,"wdir":110,"wspd":9,"visib":"6+","altim":1016,"clouds":[{"cover":"SCT","base":2500}],"obsTime":1783702800},"SBCC":{"icaoId":"SBCC","flightCategory":"VFR","rawOb":"METAR SBCC 101700Z 14002KT 9999 VCSH BKN040 FEW045TCU BKN100 25/22 Q1015","temp":25,"dewp":22,"wdir":140,"wspd":2,"visib":"6+","altim":1015,"clouds":[{"cover":"BKN","base":4000},{"cover":"FEW","base":4500},{"cover":"BKN","base":10000}],"obsTime":1783702800},"SBGM":{"icaoId":"SBGM","flightCategory":"VFR","rawOb":"METAR SBGM 101700Z 22003KT 9999 BKN046 BKN083 31/19 Q1013","temp":31,"dewp":19,"wdir":220,"wspd":3,"visib":"6+","altim":1013,"clouds":[{"cover":"BKN","base":4600},{"cover":"BKN","base":8300}],"obsTime":1783702800},"SBVH":{"icaoId":"SBVH","flightCategory":"VFR","rawOb":"METAR SBVH 101700Z 11005KT 9999 SCT045 30/17 Q1016","temp":30,"dewp":17,"wdir":110,"wspd":5,"visib":"6+","altim":1016,"clouds":[{"cover":"SCT","base":4500}],"obsTime":1783702800},"SBAU":{"icaoId":"SBAU","flightCategory":"VFR","rawOb":"METAR SBAU 101700Z 33006KT CAVOK 31/12 Q1015","temp":31,"dewp":12,"wdir":330,"wspd":6,"visib":"6+","altim":1015,"clouds":[],"obsTime":1783702800},"SBBH":{"icaoId":"SBBH","flightCategory":"VFR","rawOb":"METAR SBBH 101700Z 20006KT CAVOK 27/08 Q1018","temp":27,"dewp":8,"wdir":200,"wspd":6,"visib":"6+","altim":1018,"clouds":[],"obsTime":1783702800},"SBBQ":{"icaoId":"SBBQ","flightCategory":"VFR","rawOb":"METAR SBBQ 101700Z 26009KT 210V300 CAVOK 23/08 Q1021","temp":23,"dewp":8,"wdir":260,"wspd":9,"visib":"6+","altim":1021,"clouds":[],"obsTime":1783702800},"SBBU":{"icaoId":"SBBU","flightCategory":"VFR","rawOb":"METAR SBBU 101700Z 33002KT CAVOK 28/11 Q1016","temp":28,"dewp":11,"wdir":330,"wspd":2,"visib":"6+","altim":1016,"clouds":[],"obsTime":1783702800},"SBDN":{"icaoId":"SBDN","flightCategory":"VFR","rawOb":"METAR SBDN 101700Z 36005KT CAVOK 29/14 Q1015","temp":29,"dewp":14,"wdir":360,"wspd":5,"visib":"6+","altim":1015,"clouds":[],"obsTime":1783702800},"SBIP":{"icaoId":"SBIP","flightCategory":"VFR","rawOb":"METAR SBIP 101700Z AUTO VRB04KT CAVOK 27/16 Q1016","temp":27,"dewp":16,"wdir":"VRB","wspd":4,"visib":"6+","altim":1016,"clouds":[],"obsTime":1783702800},"SBES":{"icaoId":"SBES","flightCategory":"VFR","rawOb":"METAR SBES 101700Z 06006KT 010V100 CAVOK 25/// Q1013","temp":null,"dewp":null,"wdir":60,"wspd":6,"visib":"6+","altim":1013,"clouds":[],"obsTime":1783702800},"SBSC":{"icaoId":"SBSC","flightCategory":"VFR","rawOb":"METAR SBSC 101700Z 01010KT CAVOK 28/15 Q1012","temp":28,"dewp":15,"wdir":10,"wspd":10,"visib":"6+","altim":1012,"clouds":[],"obsTime":1783702800},"SBSR":{"icaoId":"SBSR","flightCategory":"VFR","rawOb":"METAR SBSR 101700Z VRB07KT CAVOK 28/10 Q1016","temp":28,"dewp":10,"wdir":"VRB","wspd":7,"visib":"6+","altim":1016,"clouds":[],"obsTime":1783702800},"SBJP":{"icaoId":"SBJP","flightCategory":"MVFR","rawOb":"METAR SBJP 101700Z 12014KT 9999 BKN030 29/22 Q1014","temp":29,"dewp":22,"wdir":120,"wspd":14,"visib":"6+","altim":1014,"clouds":[{"cover":"BKN","base":3000}],"obsTime":1783702800},"SBLE":{"icaoId":"SBLE","flightCategory":"VFR","rawOb":"METAR SBLE 101700Z AUTO VRB03KT 9999 FEW045 ///// Q1018","temp":null,"dewp":null,"wdir":"VRB","wspd":3,"visib":"6+","altim":1018,"clouds":[{"cover":"FEW","base":4500}],"obsTime":1783702800},"SBJV":{"icaoId":"SBJV","flightCategory":"VFR","rawOb":"METAR SBJV 101700Z 11003KT CAVOK 19/15 Q1014","temp":19,"dewp":15,"wdir":110,"wspd":3,"visib":"6+","altim":1014,"clouds":[],"obsTime":1783702800},"SBNM":{"icaoId":"SBNM","flightCategory":"MVFR","rawOb":"METAR SBNM 101700Z AUTO 34012KT 9999 BKN022 22/17 Q1012","temp":22,"dewp":17,"wdir":340,"wspd":12,"visib":"6+","altim":1012,"clouds":[{"cover":"BKN","base":2200}],"obsTime":1783702800},"SBAN":{"icaoId":"SBAN","flightCategory":"VFR","rawOb":"METAR SBAN 101700Z 16003KT 9999 SCT045 27/09 Q1020","temp":27,"dewp":9,"wdir":160,"wspd":3,"visib":"6+","altim":1020,"clouds":[{"cover":"SCT","base":4500}],"obsTime":1783702800},"SBIH":{"icaoId":"SBIH","flightCategory":"VFR","rawOb":"METAR SBIH 101700Z 04005KT 9999 SCT020 33/24 Q1011","temp":33,"dewp":24,"wdir":40,"wspd":5,"visib":"6+","altim":1011,"clouds":[{"cover":"SCT","base":2000}],"obsTime":1783702800},"SBAF":{"icaoId":"SBAF","flightCategory":"VFR","rawOb":"METAR SBAF 101700Z 00000KT CAVOK 30/13 Q1012","temp":30,"dewp":13,"wdir":0,"wspd":0,"visib":"6+","altim":1012,"clouds":[],"obsTime":1783702800},"SBGW":{"icaoId":"SBGW","flightCategory":"VFR","rawOb":"METAR SBGW 101700Z VRB02KT CAVOK 25/11 Q1015","temp":25,"dewp":11,"wdir":"VRB","wspd":2,"visib":"6+","altim":1015,"clouds":[],"obsTime":1783702800},"SBJR":{"icaoId":"SBJR","flightCategory":"VFR","rawOb":"METAR SBJR 101700Z 17004KT 9000 NSC 28/19 Q1012","temp":28,"dewp":19,"wdir":170,"wspd":4,"visib":5.59,"altim":1012,"clouds":[],"obsTime":1783702800},"SBLS":{"icaoId":"SBLS","flightCategory":"VFR","rawOb":"METAR SBLS 101700Z 30004KT 310V040 CAVOK 28/08 Q1018","temp":28,"dewp":8,"wdir":300,"wspd":4,"visib":"6+","altim":1018,"clouds":[],"obsTime":1783702800},"SBMT":{"icaoId":"SBMT","flightCategory":"VFR","rawOb":"METAR SBMT 101700Z 30009KT 260V340 CAVOK 25/08 Q1016","temp":25,"dewp":8,"wdir":300,"wspd":9,"visib":"6+","altim":1016,"clouds":[],"obsTime":1783702800},"SBST":{"icaoId":"SBST","flightCategory":"VFR","rawOb":"METAR SBST 101700Z 24004KT 180V280 CAVOK 26/17 Q1012","temp":26,"dewp":17,"wdir":240,"wspd":4,"visib":"6+","altim":1012,"clouds":[],"obsTime":1783702800},"SBTA":{"icaoId":"SBTA","flightCategory":"VFR","rawOb":"METAR SBTA 101700Z VRB02KT CAVOK 25/13 Q1015","temp":25,"dewp":13,"wdir":"VRB","wspd":2,"visib":"6+","altim":1015,"clouds":[],"obsTime":1783702800}}}