{"updated":1774529010,"count":87,"data":{"SBBR":{"icaoId":"SBBR","flightCategory":"IFR","rawOb":"METAR SBBR 261100Z 09006KT 9999 FEW007 BKN009 20/18 Q1020","temp":20,"dewp":18,"wdir":90,"wspd":6,"visib":"6+","altim":1020,"clouds":[{"cover":"FEW","base":700},{"cover":"BKN","base":900}],"obsTime":1774522800},"SBBE":{"icaoId":"SBBE","flightCategory":"VFR","rawOb":"METAR SBBE 261100Z 13005KT 9999 FEW008 26/24 Q1011","temp":26,"dewp":24,"wdir":130,"wspd":5,"visib":"6+","altim":1011,"clouds":[{"cover":"FEW","base":800}],"obsTime":1774522800},"SBVT":{"icaoId":"SBVT","flightCategory":"VFR","rawOb":"METAR SBVT 261100Z 29004KT 9999 SCT020 25/22 Q1017","temp":25,"dewp":22,"wdir":290,"wspd":4,"visib":"6+","altim":1017,"clouds":[{"cover":"SCT","base":2000}],"obsTime":1774522800},"SBBV":{"icaoId":"SBBV","flightCategory":"VFR","rawOb":"METAR SBBV 261100Z 01005KT 9999 SCT030 BKN070 26/23 Q1010","temp":26,"dewp":23,"wdir":10,"wspd":5,"visib":"6+","altim":1010,"clouds":[{"cover":"SCT","base":3000},{"cover":"BKN","base":7000}],"obsTime":1774522800},"SBCB":{"icaoId":"SBCB","flightCategory":"VFR","rawOb":"METAR SBCB 261100Z 04016KT 9999 FEW015 26/23 Q1017","temp":26,"dewp":23,"wdir":40,"wspd":16,"visib":"6+","altim":1017,"clouds":[{"cover":"FEW","base":1500}],"obsTime":1774522800},"SBCF":{"icaoId":"SBCF","flightCategory":"VFR","rawOb":"METAR SBCF 261100Z 08006KT 040V120 9999 FEW021 SCT100 22/17 Q1021","temp":22,"dewp":17,"wdir":80,"wspd":6,"visib":"6+","altim":1021,"clouds":[{"cover":"FEW","base":2100},{"cover":"SCT","base":10000}],"obsTime":1774522800},"SBCG":{"icaoId":"SBCG","flightCategory":"VFR","rawOb":"METAR SBCG 261100Z 07004KT 9999 FEW035 BKN100 21/20 Q1015","temp":21,"dewp":20,"wdir":70,"wspd":4,"visib":"6+","altim":1015,"clouds":[{"cover":"FEW","base":3500},{"cover":"BKN","base":10000}],"obsTime":1774522800},"SBCP":{"icaoId":"SBCP","flightCategory":"VFR","rawOb":"METAR SBCP 261100Z 04004KT 9999 FEW020 26/22 Q1017","temp":26,"dewp":22,"wdir":40,"wspd":4,"visib":"6+","altim":1017,"clouds":[{"cover":"FEW","base":2000}],"obsTime":1774522800},"SBCR":{"icaoId":"SBCR","flightCategory":"VFR","rawOb":"METAR SBCR 261100Z 16005KT CAVOK 23/23 Q1012","temp":23,"dewp":23,"wdir":160,"wspd":5,"visib":"6+","altim":1012,"clouds":[],"obsTime":1774522800},"SBCT":{"icaoId":"SBCT","flightCategory":"LIFR","rawOb":"METAR SBCT 261100Z 05005KT 5000 BR BKN004 20/19 Q1021","temp":20,"dewp":19,"wdir":50,"wspd":5,"visib":3.11,"altim":1021,"clouds":[{"cover":"BKN","base":400}],"obsTime":1774522800},"SBCZ":{"icaoId":"SBCZ","flightCategory":"IFR","rawOb":"METAR SBCZ 261200Z 00000KT 9999 BKN006 BKN100 25/24 Q1010","temp":25,"dewp":24,"wdir":0,"wspd":0,"visib":"6+","altim":1010,"clouds":[{"cover":"BKN","base":600},{"cover":"BKN","base":10000}],"obsTime":1774526400},"SBEG":{"icaoId":"SBEG","flightCategory":"LIFR","rawOb":"METAR SBEG 261100Z 04002KT 9999 BKN002 SCT008 BKN100 23/23 Q1010","temp":23,"dewp":23,"wdir":40,"wspd":2,"visib":"6+","altim":1010,"clouds":[{"cover":"BKN","base":200},{"cover":"SCT","base":800},{"cover":"BKN","base":10000}],"obsTime":1774522800},"SBFI":{"icaoId":"SBFI","flightCategory":"VFR","rawOb":"METAR SBFI 261100Z 11004KT 9999 SCT003 SCT080 24/24 Q1014","temp":24,"dewp":24,"wdir":110,"wspd":4,"visib":"6+","altim":1014,"clouds":[{"cover":"SCT","base":300},{"cover":"SCT","base":8000}],"obsTime":1774522800},"SBFL":{"icaoId":"SBFL","flightCategory":"VFR","rawOb":"METAR SBFL 261100Z 31005KT CAVOK 26/22 Q1015","temp":26,"dewp":22,"wdir":310,"wspd":5,"visib":"6+","altim":1015,"clouds":[],"obsTime":1774522800},"SBFZ":{"icaoId":"SBFZ","flightCategory":"MVFR","rawOb":"METAR SBFZ 261100Z 15013KT 8000 -RA BKN018 FEW025TCU 26/23 Q1012","temp":26,"dewp":23,"wdir":150,"wspd":13,"visib":4.97,"altim":1012,"clouds":[{"cover":"BKN","base":1800},{"cover":"FEW","base":2500}],"obsTime":1774522800},"SBGL":{"icaoId":"SBGL","flightCategory":"VFR","rawOb":"METAR SBGL 261100Z 09002KT CAVOK 27/23 Q1016","temp":27,"dewp":23,"wdir":90,"wspd":2,"visib":"6+","altim":1016,"clouds":[],"obsTime":1774522800},"SBGO":{"icaoId":"SBGO","flightCategory":"VFR","rawOb":"METAR SBGO 261100Z 30003KT 260V340 CAVOK 21/19 Q1018","temp":21,"dewp":19,"wdir":300,"wspd":3,"visib":"6+","altim":1018,"clouds":[],"obsTime":1774522800},"SBGR":{"icaoId":"SBGR","flightCategory":"VFR","rawOb":"METAR SBGR 261100Z 00000KT CAVOK 23/19 Q1020","temp":23,"dewp":19,"wdir":0,"wspd":0,"visib":"6+","altim":1020,"clouds":[],"obsTime":1774522800},"SBHT":{"icaoId":"SBHT","flightCategory":"MVFR","rawOb":"METAR SBHT 261100Z 00000KT 9999 BKN010 BKN080 24/23 Q1012 RETS","temp":24,"dewp":23,"wdir":0,"wspd":0,"visib":"6+","altim":1012,"clouds":[{"cover":"BKN","base":1000},{"cover":"BKN","base":8000}],"obsTime":1774522800},"SBIL":{"icaoId":"SBIL","flightCategory":"VFR","rawOb":"METAR SBIL 261100Z 25005KT 9999 SCT023 SCT050 26/25 Q1015","temp":26,"dewp":25,"wdir":250,"wspd":5,"visib":"6+","altim":1015,"clouds":[{"cover":"SCT","base":2300},{"cover":"SCT","base":5000}],"obsTime":1774522800},"SBJU":{"icaoId":"SBJU","flightCategory":"MVFR","rawOb":"METAR SBJU 261100Z 00000KT 9999 BKN020 26/22 Q1015","temp":26,"dewp":22,"wdir":0,"wspd":0,"visib":"6+","altim":1015,"clouds":[{"cover":"BKN","base":2000}],"obsTime":1774522800},"SBKP":{"icaoId":"SBKP","flightCategory":"VFR","rawOb":"METAR SBKP 261100Z 11003KT 9999 4000E BCFG NSC 22/20 Q1019","temp":22,"dewp":20,"wdir":110,"wspd":3,"visib":"6+","altim":1019,"clouds":[],"obsTime":1774522800},"SBLO":{"icaoId":"SBLO","flightCategory":"VFR","rawOb":"METAR SBLO 261100Z 08005KT 9999 FEW011 BKN038 22/20 Q1017","temp":22,"dewp":20,"wdir":80,"wspd":5,"visib":"6+","altim":1017,"clouds":[{"cover":"FEW","base":1100},{"cover":"BKN","base":3800}],"obsTime":1774522800},"SBMA":{"icaoId":"SBMA","flightCategory":"VFR","rawOb":"METAR SBMA 261100Z 28003KT 9999 SCT008 25/23 Q1012","temp":25,"dewp":23,"wdir":280,"wspd":3,"visib":"6+","altim":1012,"clouds":[{"cover":"SCT","base":800}],"obsTime":1774522800},"SBME":{"icaoId":"SBME","flightCategory":"VFR","rawOb":"METAR SBME 261100Z 03007KT CAVOK 27/22 Q1017","temp":27,"dewp":22,"wdir":30,"wspd":7,"visib":"6+","altim":1017,"clouds":[],"obsTime":1774522800},"SBMG":{"icaoId":"SBMG","flightCategory":"VFR","rawOb":"METAR SBMG 261100Z 06010KT CAVOK 24/20 Q1016","temp":24,"dewp":20,"wdir":60,"wspd":10,"visib":"6+","altim":1016,"clouds":[],"obsTime":1774522800},"SBMK":{"icaoId":"SBMK","flightCategory":"VFR","rawOb":"METAR SBMK 261100Z 08006KT 9999 FEW020 BKN090 23/18 Q1019","temp":23,"dewp":18,"wdir":80,"wspd":6,"visib":"6+","altim":1019,"clouds":[{"cover":"FEW","base":2000},{"cover":"BKN","base":9000}],"obsTime":1774522800},"SBMO":{"icaoId":"SBMO","flightCategory":"VFR","rawOb":"METAR SBMO 261100Z 28004KT 9999 FEW025 SCT070 26/23 Q1013","temp":26,"dewp":23,"wdir":280,"wspd":4,"visib":"6+","altim":1013,"clouds":[{"cover":"FEW","base":2500},{"cover":"SCT","base":7000}],"obsTime":1774522800},"SBMQ":{"icaoId":"SBMQ","flightCategory":"MVFR","rawOb":"METAR SBMQ 261100Z 32004KT 270V360 9999 SCT006 BKN017 BKN080 26/25 Q1012","temp":26,"dewp":25,"wdir":320,"wspd":4,"visib":"6+","altim":1012,"clouds":[{"cover":"SCT","base":600},{"cover":"BKN","base":1700},{"cover":"BKN","base":8000}],"obsTime":1774522800},"SBNT":{"icaoId":"SBNT","flightCategory":"VFR","rawOb":"METAR SBNT 261100Z 16008KT 9999 FEW024 SCT070 29/24 Q1012","temp":29,"dewp":24,"wdir":160,"wspd":8,"visib":"6+","altim":1012,"clouds":[{"cover":"FEW","base":2400},{"cover":"SCT","base":7000}],"obsTime":1774522800},"SBPA":{"icaoId":"SBPA","flightCategory":"IFR","rawOb":"METAR SBPA 261100Z VRB01KT 7000 OVC007 22/21 Q1015","temp":22,"dewp":21,"wdir":"VRB","wspd":1,"visib":4.35,"altim":1015,"clouds":[{"cover":"OVC","base":700}],"obsTime":1774522800},"SBPJ":{"icaoId":"SBPJ","flightCategory":"VFR","rawOb":"METAR SBPJ 261100Z 18003KT 9999 FEW016 SCT050 25/22 Q1013","temp":25,"dewp":22,"wdir":180,"wspd":3,"visib":"6+","altim":1013,"clouds":[{"cover":"FEW","base":1600},{"cover":"SCT","base":5000}],"obsTime":1774522800},"SBPV":{"icaoId":"SBPV","flightCategory":"VFR","rawOb":"METAR SBPV 261100Z 18003KT 9999 FEW030 24/22 Q1010","temp":24,"dewp":22,"wdir":180,"wspd":3,"visib":"6+","altim":1010,"clouds":[{"cover":"FEW","base":3000}],"obsTime":1774522800},"SBRB":{"icaoId":"SBRB","flightCategory":"IFR","rawOb":"METAR SBRB 261100Z 25003KT 4000 -RA BR SCT003 BKN020 23/23 Q1011","temp":23,"dewp":23,"wdir":250,"wspd":3,"visib":2.49,"altim":1011,"clouds":[{"cover":"SCT","base":300},{"cover":"BKN","base":2000}],"obsTime":1774522800},"SBRF":{"icaoId":"SBRF","flightCategory":"VFR","rawOb":"METAR SBRF 261100Z 22005KT 9999 FEW025 27/23 Q1012","temp":27,"dewp":23,"wdir":220,"wspd":5,"visib":"6+","altim":1012,"clouds":[{"cover":"FEW","base":2500}],"obsTime":1774522800},"SBSG":{"icaoId":"SBSG","flightCategory":"VFR","rawOb":"METAR SBSG 261100Z 17005KT 130V220 9999 SCT023 28/24 Q1012","temp":28,"dewp":24,"wdir":170,"wspd":5,"visib":"6+","altim":1012,"clouds":[{"cover":"SCT","base":2300}],"obsTime":1774522800},"SBSL":{"icaoId":"SBSL","flightCategory":"VFR","rawOb":"METAR SBSL 261100Z 13002KT 9999 FEW017 26/25 Q1011","temp":26,"dewp":25,"wdir":130,"wspd":2,"visib":"6+","altim":1011,"clouds":[{"cover":"FEW","base":1700}],"obsTime":1774522800},"SBSN":{"icaoId":"SBSN","flightCategory":"VFR","rawOb":"METAR SBSN 261100Z 08008KT 9999 FEW013 SCT016 27/25 Q1011","temp":27,"dewp":25,"wdir":80,"wspd":8,"visib":"6+","altim":1011,"clouds":[{"cover":"FEW","base":1300},{"cover":"SCT","base":1600}],"obsTime":1774522800},"SBSP":{"icaoId":"SBSP","flightCategory":"VFR","rawOb":"METAR SBSP 261100Z 15003KT 110V230 9000 NSC 23/20 Q1021","temp":23,"dewp":20,"wdir":150,"wspd":3,"visib":5.59,"altim":1021,"clouds":[],"obsTime":1774522800},"SBSV":{"icaoId":"SBSV","flightCategory":"VFR","rawOb":"METAR SBSV 261100Z 25005KT 9999 VCSH FEW008 SCT020 FEW025TCU BKN060 26/24 Q1014 RERA","temp":26,"dewp":24,"wdir":250,"wspd":5,"visib":"6+","altim":1014,"clouds":[{"cover":"FEW","base":800},{"cover":"SCT","base":2000},{"cover":"FEW","base":2500},{"cover":"BKN","base":6000}],"obsTime":1774522800},"SBTE":{"icaoId":"SBTE","flightCategory":"VFR","rawOb":"METAR SBTE 261100Z 19003KT 9999 SCT015 BKN070 25/23 Q1011","temp":25,"dewp":23,"wdir":190,"wspd":3,"visib":"6+","altim":1011,"clouds":[{"cover":"SCT","base":1500},{"cover":"BKN","base":7000}],"obsTime":1774522800},"SBUL":{"icaoId":"SBUL","flightCategory":"VFR","rawOb":"METAR SBUL 261100Z 09008KT 9999 FEW009 BKN080 19/18 Q1020","temp":19,"dewp":18,"wdir":90,"wspd":8,"visib":"6+","altim":1020,"clouds":[{"cover":"FEW","base":900},{"cover":"BKN","base":8000}],"obsTime":1774522800},"SBUR":{"icaoId":"SBUR","flightCategory":"VFR","rawOb":"METAR SBUR 261100Z 05004KT 9999 FEW040 BKN100 21/18 Q1019","temp":21,"dewp":18,"wdir":50,"wspd":4,"visib":"6+","altim":1019,"clouds":[{"cover":"FEW","base":4000},{"cover":"BKN","base":10000}],"obsTime":1774522800},"SBAT":{"icaoId":"SBAT","flightCategory":"VFR","rawOb":"METAR SBAT 261200Z 09004KT 9999 SCT012 SCT100 25/23 Q0825","temp":25,"dewp":23,"wdir":90,"wspd":4,"visib":"6+","altim":825,"clouds":[{"cover":"SCT","base":1200},{"cover":"SCT","base":10000}],"obsTime":1774526400},"SBOI":{"icaoId":"SBOI","flightCategory":"MVFR","rawOb":"METAR SBOI 261100Z AUTO VRB02KT 9999 SCT002 BKN020 25/25 Q1011","temp":25,"dewp":25,"wdir":"VRB","wspd":2,"visib":"6+","altim":1011,"clouds":[{"cover":"SCT","base":200},{"cover":"BKN","base":2000}],"obsTime":1774522800},"SBAX":{"icaoId":"SBAX","flightCategory":"VFR","rawOb":"METAR SBAX 261100Z 11005KT 9999 SCT030 SCT040 BKN100 20/20 Q1021","temp":20,"dewp":20,"wdir":110,"wspd":5,"visib":"6+","altim":1021,"clouds":[{"cover":"SCT","base":3000},{"cover":"SCT","base":4000},{"cover":"BKN","base":10000}],"obsTime":1774522800},"SBCC":{"icaoId":"SBCC","flightCategory":"VFR","rawOb":"METAR SBCC 261100Z 05005KT 9999 FEW020 BKN100 22/21 Q1014","temp":22,"dewp":21,"wdir":50,"wspd":5,"visib":"6+","altim":1014,"clouds":[{"cover":"FEW","base":2000},{"cover":"BKN","base":10000}],"obsTime":1774522800},"SBBH":{"icaoId":"SBBH","flightCategory":"VFR","rawOb":"METAR SBBH 261100Z 08009KT 9999 SCT040 SCT100 22/17 Q1021","temp":22,"dewp":17,"wdir":80,"wspd":9,"visib":"6+","altim":1021,"clouds":[{"cover":"SCT","base":4000},{"cover":"SCT","base":10000}],"obsTime":1774522800},"SBBQ":{"icaoId":"SBBQ","flightCategory":"VFR","rawOb":"METAR SBBQ 261200Z VRB04KT 9999 SCT021 22/16 Q1025","temp":22,"dewp":16,"wdir":"VRB","wspd":4,"visib":"6+","altim":1025,"clouds":[{"cover":"SCT","base":2100}],"obsTime":1774526400},"SBBU":{"icaoId":"SBBU","flightCategory":"VFR","rawOb":"METAR SBBU 261100Z 05005KT CAVOK 23/21 Q1019","temp":23,"dewp":21,"wdir":50,"wspd":5,"visib":"6+","altim":1019,"clouds":[],"obsTime":1774522800},"SBCA":{"icaoId":"SBCA","flightCategory":"VFR","rawOb":"METAR SBCA 261100Z 07010KT CAVOK 22/20 Q1018","temp":22,"dewp":20,"wdir":70,"wspd":10,"visib":"6+","altim":1018,"clouds":[],"obsTime":1774522800},"SBAR":{"icaoId":"SBAR","flightCategory":"VFR","rawOb":"METAR SBAR 261100Z 24006KT 9999 FEW015 SCT025 25/24 Q1013","temp":25,"dewp":24,"wdir":240,"wspd":6,"visib":"6+","altim":1013,"clouds":[{"cover":"FEW","base":1500},{"cover":"SCT","base":2500}],"obsTime":1774522800},"SBCJ":{"icaoId":"SBCJ","flightCategory":"VFR","rawOb":"METAR SBCJ 261100Z 13007KT CAVOK 23/20 Q1016","temp":23,"dewp":20,"wdir":130,"wspd":7,"visib":"6+","altim":1016,"clouds":[],"obsTime":1774522800},"SBCO":{"icaoId":"SBCO","flightCategory":"IFR","rawOb":"METAR SBCO 261100Z VRB02KT 9999 OVC007 22/21 Q1016","temp":22,"dewp":21,"wdir":"VRB","wspd":2,"visib":"6+","altim":1016,"clouds":[{"cover":"OVC","base":700}],"obsTime":1774522800},"SBDN":{"icaoId":"SBDN","flightCategory":"VFR","rawOb":"METAR SBDN 261100Z 07006KT CAVOK 23/20 Q1016","temp":23,"dewp":20,"wdir":70,"wspd":6,"visib":"6+","altim":1016,"clouds":[],"obsTime":1774522800},"SBES":{"icaoId":"SBES","flightCategory":"VFR","rawOb":"METAR SBES 261100Z 05009KT 350V070 9999 FEW010 25/// Q1017","temp":null,"dewp":null,"wdir":50,"wspd":9,"visib":"6+","altim":1017,"clouds":[{"cover":"FEW","base":1000}],"obsTime":1774522800},"SBGM":{"icaoId":"SBGM","flightCategory":"LIFR","rawOb":"METAR SBGM 261200Z 03003KT 350V070 0400 +RA SCT005 OVC049 23/21 Q1012","temp":23,"dewp":21,"wdir":30,"wspd":3,"visib":0.25,"altim":1012,"clouds":[{"cover":"SCT","base":500},{"cover":"OVC","base":4900}],"obsTime":1774526400},"SBIP":{"icaoId":"SBIP","flightCategory":"VFR","rawOb":"METAR SBIP 261100Z AUTO 00000KT 9999 BKN037 24/22 Q1019","temp":24,"dewp":22,"wdir":0,"wspd":0,"visib":"6+","altim":1019,"clouds":[{"cover":"BKN","base":3700}],"obsTime":1774522800},"SBKG":{"icaoId":"SBKG","flightCategory":"MVFR","rawOb":"METAR SBKG 261100Z 16010KT 6000 -RA BKN015 FEW025TCU 23/21 Q1015","temp":23,"dewp":21,"wdir":160,"wspd":10,"visib":3.73,"altim":1015,"clouds":[{"cover":"BKN","base":1500},{"cover":"FEW","base":2500}],"obsTime":1774522800},"SBPB":{"icaoId":"SBPB","flightCategory":"VFR","rawOb":"METAR SBPB 261100Z 12008KT 9999 FEW020 28/25 Q1010","temp":28,"dewp":25,"wdir":120,"wspd":8,"visib":"6+","altim":1010,"clouds":[{"cover":"FEW","base":2000}],"obsTime":1774522800},"SBPL":{"icaoId":"SBPL","flightCategory":"VFR","rawOb":"METAR SBPL 261100Z 10008KT 9999 SCT025 26/21 Q1015","temp":26,"dewp":21,"wdir":100,"wspd":8,"visib":"6+","altim":1015,"clouds":[{"cover":"SCT","base":2500}],"obsTime":1774522800},"SBPP":{"icaoId":"SBPP","flightCategory":"VFR","rawOb":"SPECI SBPP 261115Z 01005KT 9999 -RA SCT025 BKN070 21/20 Q1016","temp":21,"dewp":20,"wdir":10,"wspd":5,"visib":"6+","altim":1016,"clouds":[{"cover":"SCT","base":2500},{"cover":"BKN","base":7000}],"obsTime":1774523700},"SBPS":{"icaoId":"SBPS","flightCategory":"VFR","rawOb":"METAR SBPS 261100Z 23004KT 190V270 9999 SCT015 26/24 Q1016","temp":26,"dewp":24,"wdir":230,"wspd":4,"visib":"6+","altim":1016,"clouds":[{"cover":"SCT","base":1500}],"obsTime":1774522800},"SBSC":{"icaoId":"SBSC","flightCategory":"VFR","rawOb":"METAR SBSC 261100Z 03005KT CAVOK 28/23 Q1016","temp":28,"dewp":23,"wdir":30,"wspd":5,"visib":"6+","altim":1016,"clouds":[],"obsTime":1774522800},"SBSJ":{"icaoId":"SBSJ","flightCategory":"VFR","rawOb":"METAR SBSJ 261100Z 35002KT CAVOK 22/19 Q1019","temp":22,"dewp":19,"wdir":350,"wspd":2,"visib":"6+","altim":1019,"clouds":[],"obsTime":1774522800},"SBSM":{"icaoId":"SBSM","flightCategory":"LIFR","rawOb":"METAR SBSM 261100Z 11006KT 080V160 1200 R29///// R11/P2000 BR VV003 20/20 Q1016","temp":20,"dewp":20,"wdir":110,"wspd":6,"visib":0.75,"altim":1016,"clouds":[{"cover":"OVX","base":300}],"obsTime":1774522800},"SBSR":{"icaoId":"SBSR","flightCategory":"VFR","rawOb":"METAR SBSR 261100Z 04006KT CAVOK 22/19 Q1018","temp":22,"dewp":19,"wdir":40,"wspd":6,"visib":"6+","altim":1018,"clouds":[],"obsTime":1774522800},"SBTD":{"icaoId":"SBTD","flightCategory":"VFR","rawOb":"METAR SBTD 261100Z /////KT CAVOK 23/21 Q1016","temp":23,"dewp":21,"wdir":null,"wspd":null,"visib":"6+","altim":1016,"clouds":[],"obsTime":1774522800},"SBTF":{"icaoId":"SBTF","flightCategory":"VFR","rawOb":"SPECI SBTF 261115Z 13003KT 9999 FEW006 24/24 Q1010","temp":24,"dewp":24,"wdir":130,"wspd":3,"visib":"6+","altim":1010,"clouds":[{"cover":"FEW","base":600}],"obsTime":1774523700},"SBTT":{"icaoId":"SBTT","flightCategory":"VFR","rawOb":"METAR SBTT 261100Z 15004KT 9999 FEW006 SCT080 23/22 Q1009","temp":23,"dewp":22,"wdir":150,"wspd":4,"visib":"6+","altim":1009,"clouds":[{"cover":"FEW","base":600},{"cover":"SCT","base":8000}],"obsTime":1774522800},"SBUY":{"icaoId":"SBUY","flightCategory":"LIFR","rawOb":"METAR SBUY 261100Z 00000KT 0400 FG NSC 23/22 Q1009","temp":23,"dewp":22,"wdir":0,"wspd":0,"visib":0.25,"altim":1009,"clouds":[],"obsTime":1774522800},"SBVH":{"icaoId":"SBVH","flightCategory":"LIFR","rawOb":"METAR SBVH 261100Z 08008KT 0800 FG VV003 21/21 Q1014","temp":21,"dewp":21,"wdir":80,"wspd":8,"visib":0.5,"altim":1014,"clouds":[{"cover":"OVX","base":300}],"obsTime":1774522800},"SBAN":{"icaoId":"SBAN","flightCategory":"VFR","rawOb":"METAR SBAN 261100Z 11009KT 9999 FEW004 SCT015 19/17 Q1021","temp":19,"dewp":17,"wdir":110,"wspd":9,"visib":"6+","altim":1021,"clouds":[{"cover":"FEW","base":400},{"cover":"SCT","base":1500}],"obsTime":1774522800},"SBTC":{"icaoId":"SBTC","flightCategory":"MVFR","rawOb":"METAR SBTC 261200Z 23002KT 9999 BKN025 29/25 Q1016","temp":29,"dewp":25,"wdir":230,"wspd":2,"visib":"6+","altim":1016,"clouds":[{"cover":"BKN","base":2500}],"obsTime":1774526400},"SBLE":{"icaoId":"SBLE","flightCategory":"MVFR","rawOb":"METAR SBLE 261100Z AUTO 18004KT 140V230 5000 -RA FEW005 SCT010 OVC019 ///// Q////","temp":null,"dewp":null,"wdir":180,"wspd":4,"visib":3.11,"altim":null,"clouds":[{"cover":"FEW","base":500},{"cover":"SCT","base":1000},{"cover":"OVC","base":1900}],"obsTime":1774522800},"SBIH":{"icaoId":"SBIH","flightCategory":"VFR","rawOb":"METAR SBIH 261100Z 04003KT 9999 FEW013 24/24 Q1011","temp":24,"dewp":24,"wdir":40,"wspd":3,"visib":"6+","altim":1011,"clouds":[{"cover":"FEW","base":1300}],"obsTime":1774522800},"SBJV":{"icaoId":"SBJV","flightCategory":"VFR","rawOb":"METAR SBJV 261100Z 08002KT 9999 FEW012 25/23 Q1016","temp":25,"dewp":23,"wdir":80,"wspd":2,"visib":"6+","altim":1016,"clouds":[{"cover":"FEW","base":1200}],"obsTime":1774522800},"SBNM":{"icaoId":"SBNM","flightCategory":"IFR","rawOb":"METAR SBNM 261200Z 11004KT 9999 OVC005 24/23 Q1016","temp":24,"dewp":23,"wdir":110,"wspd":4,"visib":"6+","altim":1016,"clouds":[{"cover":"OVC","base":500}],"obsTime":1774526400},"SBPF":{"icaoId":"SBPF","flightCategory":"VFR","rawOb":"METAR SBPF 261100Z 03011KT CAVOK 21/18 Q1018","temp":21,"dewp":18,"wdir":30,"wspd":11,"visib":"6+","altim":1018,"clouds":[],"obsTime":1774522800},"SBAF":{"icaoId":"SBAF","flightCategory":"VFR","rawOb":"METAR SBAF 261100Z 00000KT CAVOK 28/25 Q1016","temp":28,"dewp":25,"wdir":0,"wspd":0,"visib":"6+","altim":1016,"clouds":[],"obsTime":1774522800},"SBGW":{"icaoId":"SBGW","flightCategory":"MVFR","rawOb":"METAR SBGW 261100Z VRB02KT 9999 SCT011 BKN015 22/17 Q1019","temp":22,"dewp":17,"wdir":"VRB","wspd":2,"visib":"6+","altim":1019,"clouds":[{"cover":"SCT","base":1100},{"cover":"BKN","base":1500}],"obsTime":1774522800},"SBJR":{"icaoId":"SBJR","flightCategory":"VFR","rawOb":"METAR SBJR 261100Z 29002KT 9000 NSC 29/24 Q1016","temp":29,"dewp":24,"wdir":290,"wspd":2,"visib":5.59,"altim":1016,"clouds":[],"obsTime":1774522800},"SBLS":{"icaoId":"SBLS","flightCategory":"VFR","rawOb":"METAR SBLS 261100Z 11005KT 040V120 9999 FEW025 21/17 Q1021","temp":21,"dewp":17,"wdir":110,"wspd":5,"visib":"6+","altim":1021,"clouds":[{"cover":"FEW","base":2500}],"obsTime":1774522800},"SBMT":{"icaoId":"SBMT","flightCategory":"VFR","rawOb":"METAR SBMT 261100Z 11002KT CAVOK 23/20 Q1020","temp":23,"dewp":20,"wdir":110,"wspd":2,"visib":"6+","altim":1020,"clouds":[],"obsTime":1774522800},"SBST":{"icaoId":"SBST","flightCategory":"MVFR","rawOb":"METAR SBST 261100Z 00000KT 7000 FEW025 23/22 Q1016","temp":23,"dewp":22,"wdir":0,"wspd":0,"visib":4.35,"altim":1016,"clouds":[{"cover":"FEW","base":2500}],"obsTime":1774522800},"SBTA":{"icaoId":"SBTA","flightCategory":"VFR","rawOb":"METAR SBTA 261100Z 00000KT CAVOK 22/22 Q1019","temp":22,"dewp":22,"wdir":0,"wspd":0,"visib":"6+","altim":1019,"clouds":[],"obsTime":1774522800},"SBJP":{"icaoId":"SBJP","flightCategory":"VFR","rawOb":"METAR SBJP 261100Z 19008KT 9999 SCT012 SCT018 26/24 Q1013","temp":26,"dewp":24,"wdir":190,"wspd":8,"visib":"6+","altim":1013,"clouds":[{"cover":"SCT","base":1200},{"cover":"SCT","base":1800}],"obsTime":1774522800}}}