{"updated":1774474621,"count":82,"data":{"SBGR":{"icaoId":"SBGR","flightCategory":"VFR","rawOb":"METAR SBGR 252000Z 14005KT CAVOK 25/20 Q1016","temp":25,"dewp":20,"wdir":140,"wspd":5,"visib":"6+","altim":1016,"clouds":[],"obsTime":1774468800},"SBBE":{"icaoId":"SBBE","flightCategory":"VFR","rawOb":"METAR SBBE 252000Z 34007KT 9999 TS SCT022 BKN034 FEW035CB BKN041 27/25 Q1009","temp":27,"dewp":25,"wdir":340,"wspd":7,"visib":"6+","altim":1009,"clouds":[{"cover":"SCT","base":2200},{"cover":"BKN","base":3400},{"cover":"FEW","base":3500},{"cover":"BKN","base":4100}],"obsTime":1774468800},"SBVT":{"icaoId":"SBVT","flightCategory":"VFR","rawOb":"METAR SBVT 252000Z 05006KT 9999 SCT025 SCT100 27/24 Q1015","temp":27,"dewp":24,"wdir":50,"wspd":6,"visib":"6+","altim":1015,"clouds":[{"cover":"SCT","base":2500},{"cover":"SCT","base":10000}],"obsTime":1774468800},"SBBR":{"icaoId":"SBBR","flightCategory":"VFR","rawOb":"METAR SBBR 252000Z 06008KT 010V090 9999 FEW040 24/16 Q1017","temp":24,"dewp":16,"wdir":60,"wspd":8,"visib":"6+","altim":1017,"clouds":[{"cover":"FEW","base":4000}],"obsTime":1774468800},"SBUR":{"icaoId":"SBUR","flightCategory":"VFR","rawOb":"METAR SBUR 252000Z 02007KT 9000 VCSH FEW040 FEW048TCU BKN100 22/19 Q1016 RETS","temp":22,"dewp":19,"wdir":20,"wspd":7,"visib":5.59,"altim":1016,"clouds":[{"cover":"FEW","base":4000},{"cover":"FEW","base":4800},{"cover":"BKN","base":10000}],"obsTime":1774468800},"SBUL":{"icaoId":"SBUL","flightCategory":"VFR","rawOb":"METAR SBUL 252000Z 08007KT 9999 VCSH SCT040 FEW050TCU 22/19 Q1017","temp":22,"dewp":19,"wdir":80,"wspd":7,"visib":"6+","altim":1017,"clouds":[{"cover":"SCT","base":4000},{"cover":"FEW","base":5000}],"obsTime":1774468800},"SBBV":{"icaoId":"SBBV","flightCategory":"VFR","rawOb":"METAR SBBV 252000Z 12012KT 9999 BKN040 FEW045TCU 35/24 Q1006","temp":35,"dewp":24,"wdir":120,"wspd":12,"visib":"6+","altim":1006,"clouds":[{"cover":"BKN","base":4000},{"cover":"FEW","base":4500}],"obsTime":1774468800},"SBCB":{"icaoId":"SBCB","flightCategory":"VFR","rawOb":"METAR SBCB 252000Z 07015KT CAVOK 28/23 Q1014","temp":28,"dewp":23,"wdir":70,"wspd":15,"visib":"6+","altim":1014,"clouds":[],"obsTime":1774468800},"SBTE":{"icaoId":"SBTE","flightCategory":"VFR","rawOb":"METAR SBTE 252000Z 18004KT 9999 VCSH SCT020 FEW025TCU 32/24 Q1008","temp":32,"dewp":24,"wdir":180,"wspd":4,"visib":"6+","altim":1008,"clouds":[{"cover":"SCT","base":2000},{"cover":"FEW","base":2500}],"obsTime":1774468800},"SBSV":{"icaoId":"SBSV","flightCategory":"VFR","rawOb":"METAR SBSV 252000Z 12007KT 080V180 9999 VCSH FEW019 FEW025TCU BKN050 27/23 Q1012","temp":27,"dewp":23,"wdir":120,"wspd":7,"visib":"6+","altim":1012,"clouds":[{"cover":"FEW","base":1900},{"cover":"FEW","base":2500},{"cover":"BKN","base":5000}],"obsTime":1774468800},"SBCF":{"icaoId":"SBCF","flightCategory":"VFR","rawOb":"METAR SBCF 252000Z 34005KT 9999 SCT040 FEW045TCU SCT066 BKN100 24/19 Q1018","temp":24,"dewp":19,"wdir":340,"wspd":5,"visib":"6+","altim":1018,"clouds":[{"cover":"SCT","base":4000},{"cover":"FEW","base":4500},{"cover":"SCT","base":6600},{"cover":"BKN","base":10000}],"obsTime":1774468800},"SBCG":{"icaoId":"SBCG","flightCategory":"MVFR","rawOb":"METAR SBCG 252000Z 09003KT 9000 VCSH VCTS BKN020 FEW035CB BKN100 22/22 Q1012 RETS","temp":22,"dewp":22,"wdir":90,"wspd":3,"visib":5.59,"altim":1012,"clouds":[{"cover":"BKN","base":2000},{"cover":"FEW","base":3500},{"cover":"BKN","base":10000}],"obsTime":1774468800},"SBSP":{"icaoId":"SBSP","flightCategory":"VFR","rawOb":"METAR SBSP 252000Z 18007KT 9999 SCT046 24/21 Q1017","temp":24,"dewp":21,"wdir":180,"wspd":7,"visib":"6+","altim":1017,"clouds":[{"cover":"SCT","base":4600}],"obsTime":1774468800},"SBSN":{"icaoId":"SBSN","flightCategory":"VFR","rawOb":"METAR SBSN 252000Z 10011KT 9999 FEW021 FEW025TCU 31/25 Q1007","temp":31,"dewp":25,"wdir":100,"wspd":11,"visib":"6+","altim":1007,"clouds":[{"cover":"FEW","base":2100},{"cover":"FEW","base":2500}],"obsTime":1774468800},"SBCP":{"icaoId":"SBCP","flightCategory":"VFR","rawOb":"METAR SBCP 252000Z 08012KT 9999 FEW025 28/23 Q1015","temp":28,"dewp":23,"wdir":80,"wspd":12,"visib":"6+","altim":1015,"clouds":[{"cover":"FEW","base":2500}],"obsTime":1774468800},"SBSL":{"icaoId":"SBSL","flightCategory":"VFR","rawOb":"METAR SBSL 252000Z 03010KT 9999 SCT017 FEW020TCU 28/24 Q1009","temp":28,"dewp":24,"wdir":30,"wspd":10,"visib":"6+","altim":1009,"clouds":[{"cover":"SCT","base":1700},{"cover":"FEW","base":2000}],"obsTime":1774468800},"SBCR":{"icaoId":"SBCR","flightCategory":"VFR","rawOb":"METAR SBCR 252000Z VRB02KT 9999 SCT035 32/23 Q1008","temp":32,"dewp":23,"wdir":"VRB","wspd":2,"visib":"6+","altim":1008,"clouds":[{"cover":"SCT","base":3500}],"obsTime":1774468800},"SBSG":{"icaoId":"SBSG","flightCategory":"VFR","rawOb":"METAR SBSG 252000Z 12008KT 090V150 9999 FEW030 29/22 Q1010","temp":29,"dewp":22,"wdir":120,"wspd":8,"visib":"6+","altim":1010,"clouds":[{"cover":"FEW","base":3000}],"obsTime":1774468800},"SBCT":{"icaoId":"SBCT","flightCategory":"VFR","rawOb":"METAR SBCT 252000Z 08008KT 9999 FEW025 24/20 Q1017","temp":24,"dewp":20,"wdir":80,"wspd":8,"visib":"6+","altim":1017,"clouds":[{"cover":"FEW","base":2500}],"obsTime":1774468800},"SBRF":{"icaoId":"SBRF","flightCategory":"VFR","rawOb":"METAR SBRF 252000Z 13008KT 9999 FEW024 29/24 Q1011","temp":29,"dewp":24,"wdir":130,"wspd":8,"visib":"6+","altim":1011,"clouds":[{"cover":"FEW","base":2400}],"obsTime":1774468800},"SBCZ":{"icaoId":"SBCZ","flightCategory":"VFR","rawOb":"METAR SBCZ 252000Z 32005KT 9999 SCT030 33/24 Q1005","temp":33,"dewp":24,"wdir":320,"wspd":5,"visib":"6+","altim":1005,"clouds":[{"cover":"SCT","base":3000}],"obsTime":1774468800},"SBRB":{"icaoId":"SBRB","flightCategory":"VFR","rawOb":"METAR SBRB 252000Z 06003KT 330V110 9999 FEW020 SCT100 30/25 Q1007","temp":30,"dewp":25,"wdir":60,"wspd":3,"visib":"6+","altim":1007,"clouds":[{"cover":"FEW","base":2000},{"cover":"SCT","base":10000}],"obsTime":1774468800},"SBEG":{"icaoId":"SBEG","flightCategory":"IFR","rawOb":"METAR SBEG 252000Z 24012KT 3000 -TSRA SCT005 BKN010 FEW025CB BKN060 23/23 Q1010","temp":23,"dewp":23,"wdir":240,"wspd":12,"visib":1.86,"altim":1010,"clouds":[{"cover":"SCT","base":500},{"cover":"BKN","base":1000},{"cover":"FEW","base":2500},{"cover":"BKN","base":6000}],"obsTime":1774468800},"SBPV":{"icaoId":"SBPV","flightCategory":"VFR","rawOb":"METAR SBPV 252000Z 21002KT 9999 SCT030 30/25 Q1007","temp":30,"dewp":25,"wdir":210,"wspd":2,"visib":"6+","altim":1007,"clouds":[{"cover":"SCT","base":3000}],"obsTime":1774468800},"SBPJ":{"icaoId":"SBPJ","flightCategory":"VFR","rawOb":"METAR SBPJ 252000Z 22002KT 9999 FEW025TCU SCT045 28/23 Q1011","temp":28,"dewp":23,"wdir":220,"wspd":2,"visib":"6+","altim":1011,"clouds":[{"cover":"FEW","base":2500},{"cover":"SCT","base":4500}],"obsTime":1774468800},"SBFI":{"icaoId":"SBFI","flightCategory":"MVFR","rawOb":"METAR SBFI 252000Z 16011KT 6000 -TSRA BKN035 FEW040CB 31/24 Q1011","temp":31,"dewp":24,"wdir":160,"wspd":11,"visib":3.73,"altim":1011,"clouds":[{"cover":"BKN","base":3500},{"cover":"FEW","base":4000}],"obsTime":1774468800},"SBPA":{"icaoId":"SBPA","flightCategory":"IFR","rawOb":"METAR SBPA 252000Z 17010KT 9999 4900S VCSH BKN009 24/22 Q1013","temp":24,"dewp":22,"wdir":170,"wspd":10,"visib":"6+","altim":1013,"clouds":[{"cover":"BKN","base":900}],"obsTime":1774468800},"SBFL":{"icaoId":"SBFL","flightCategory":"VFR","rawOb":"METAR SBFL 252000Z 07010KT 9999 FEW030 28/23 Q1012","temp":28,"dewp":23,"wdir":70,"wspd":10,"visib":"6+","altim":1012,"clouds":[{"cover":"FEW","base":3000}],"obsTime":1774468800},"SBFZ":{"icaoId":"SBFZ","flightCategory":"VFR","rawOb":"METAR SBFZ 252000Z 09009KT 9999 FEW020 29/24 Q1009","temp":29,"dewp":24,"wdir":90,"wspd":9,"visib":"6+","altim":1009,"clouds":[{"cover":"FEW","base":2000}],"obsTime":1774468800},"SBNT":{"icaoId":"SBNT","flightCategory":"VFR","rawOb":"METAR SBNT 252000Z 12013KT 9999 FEW030 29/23 Q1010","temp":29,"dewp":23,"wdir":120,"wspd":13,"visib":"6+","altim":1010,"clouds":[{"cover":"FEW","base":3000}],"obsTime":1774468800},"SBMQ":{"icaoId":"SBMQ","flightCategory":"VFR","rawOb":"METAR SBMQ 252000Z 10004KT 9999 SCT020 29/25 Q1008","temp":29,"dewp":25,"wdir":100,"wspd":4,"visib":"6+","altim":1008,"clouds":[{"cover":"SCT","base":2000}],"obsTime":1774468800},"SBGL":{"icaoId":"SBGL","flightCategory":"VFR","rawOb":"METAR SBGL 252000Z 14010KT 9999 FEW035 31/21 Q1012 RETS","temp":31,"dewp":21,"wdir":140,"wspd":10,"visib":"6+","altim":1012,"clouds":[{"cover":"FEW","base":3500}],"obsTime":1774468800},"SBMO":{"icaoId":"SBMO","flightCategory":"VFR","rawOb":"METAR SBMO 252000Z 12012KT CAVOK 30/21 Q1011","temp":30,"dewp":21,"wdir":120,"wspd":12,"visib":"6+","altim":1011,"clouds":[],"obsTime":1774468800},"SBKP":{"icaoId":"SBKP","flightCategory":"VFR","rawOb":"METAR SBKP 252000Z 10006KT 070V130 9999 FEW035 FEW040TCU SCT100 28/19 Q1015","temp":28,"dewp":19,"wdir":100,"wspd":6,"visib":"6+","altim":1015,"clouds":[{"cover":"FEW","base":3500},{"cover":"FEW","base":4000},{"cover":"SCT","base":10000}],"obsTime":1774468800},"SBMG":{"icaoId":"SBMG","flightCategory":"VFR","rawOb":"METAR SBMG 252000Z 13005KT 9999 FEW045 FEW050TCU SCT070 30/20 Q1011","temp":30,"dewp":20,"wdir":130,"wspd":5,"visib":"6+","altim":1011,"clouds":[{"cover":"FEW","base":4500},{"cover":"FEW","base":5000},{"cover":"SCT","base":7000}],"obsTime":1774468800},"SBGO":{"icaoId":"SBGO","flightCategory":"VFR","rawOb":"METAR SBGO 252000Z 13008KT 9999 FEW030 FEW045TCU 22/19 Q1015","temp":22,"dewp":19,"wdir":130,"wspd":8,"visib":"6+","altim":1015,"clouds":[{"cover":"FEW","base":3000},{"cover":"FEW","base":4500}],"obsTime":1774468800},"SBLO":{"icaoId":"SBLO","flightCategory":"VFR","rawOb":"METAR SBLO 252000Z 12004KT 070V180 CAVOK 29/20 Q1013","temp":29,"dewp":20,"wdir":120,"wspd":4,"visib":"6+","altim":1013,"clouds":[],"obsTime":1774468800},"SBJU":{"icaoId":"SBJU","flightCategory":"VFR","rawOb":"METAR SBJU 252000Z 00000KT 9999 SCT022 29/22 Q1011","temp":29,"dewp":22,"wdir":0,"wspd":0,"visib":"6+","altim":1011,"clouds":[{"cover":"SCT","base":2200}],"obsTime":1774468800},"SBHT":{"icaoId":"SBHT","flightCategory":"MVFR","rawOb":"METAR SBHT 252000Z 13004KT 9999 BKN030 32/23 Q1008","temp":32,"dewp":23,"wdir":130,"wspd":4,"visib":"6+","altim":1008,"clouds":[{"cover":"BKN","base":3000}],"obsTime":1774468800},"SBME":{"icaoId":"SBME","flightCategory":"VFR","rawOb":"METAR SBME 252000Z 08009KT 9999 FEW040 30/21 Q1014","temp":30,"dewp":21,"wdir":80,"wspd":9,"visib":"6+","altim":1014,"clouds":[{"cover":"FEW","base":4000}],"obsTime":1774468800},"SBMA":{"icaoId":"SBMA","flightCategory":"VFR","rawOb":"METAR SBMA 252000Z 32006KT 9999 FEW020 FEW023TCU SCT100 30/25 Q1009","temp":30,"dewp":25,"wdir":320,"wspd":6,"visib":"6+","altim":1009,"clouds":[{"cover":"FEW","base":2000},{"cover":"FEW","base":2300},{"cover":"SCT","base":10000}],"obsTime":1774468800},"SBIL":{"icaoId":"SBIL","flightCategory":"VFR","rawOb":"METAR SBIL 252000Z 30003KT 9999 SCT018 SCT023 BKN080 26/25 Q1013","temp":26,"dewp":25,"wdir":300,"wspd":3,"visib":"6+","altim":1013,"clouds":[{"cover":"SCT","base":1800},{"cover":"SCT","base":2300},{"cover":"BKN","base":8000}],"obsTime":1774468800},"SBAT":{"icaoId":"SBAT","flightCategory":"VFR","rawOb":"METAR SBAT 252000Z 06003KT 9999 SCT030 BKN100 26/23 Q1009","temp":26,"dewp":23,"wdir":60,"wspd":3,"visib":"6+","altim":1009,"clouds":[{"cover":"SCT","base":3000},{"cover":"BKN","base":10000}],"obsTime":1774468800},"SBCJ":{"icaoId":"SBCJ","flightCategory":"VFR","rawOb":"METAR SBCJ 252000Z 00000KT CAVOK 23/21 Q1013","temp":23,"dewp":21,"wdir":0,"wspd":0,"visib":"6+","altim":1013,"clouds":[],"obsTime":1774468800},"SBPB":{"icaoId":"SBPB","flightCategory":"VFR","rawOb":"METAR SBPB 252000Z 04009KT 9999 FEW020 30/25 Q1008","temp":30,"dewp":25,"wdir":40,"wspd":9,"visib":"6+","altim":1008,"clouds":[{"cover":"FEW","base":2000}],"obsTime":1774468800},"SBBU":{"icaoId":"SBBU","flightCategory":"VFR","rawOb":"METAR SBBU 252000Z 10006KT 9999 VCSH SCT045 FEW050TCU SCT100 30/20 Q1013","temp":30,"dewp":20,"wdir":100,"wspd":6,"visib":"6+","altim":1013,"clouds":[{"cover":"SCT","base":4500},{"cover":"FEW","base":5000},{"cover":"SCT","base":10000}],"obsTime":1774468800},"SBPL":{"icaoId":"SBPL","flightCategory":"VFR","rawOb":"METAR SBPL 252000Z 10007KT 9999 SCT030 32/19 Q1010","temp":32,"dewp":19,"wdir":100,"wspd":7,"visib":"6+","altim":1010,"clouds":[{"cover":"SCT","base":3000}],"obsTime":1774468800},"SBCO":{"icaoId":"SBCO","flightCategory":"IFR","rawOb":"METAR SBCO 252000Z 17006KT 150V210 9999 VCSH OVC009 24/22 Q1013","temp":24,"dewp":22,"wdir":170,"wspd":6,"visib":"6+","altim":1013,"clouds":[{"cover":"OVC","base":900}],"obsTime":1774468800},"SBPP":{"icaoId":"SBPP","flightCategory":"VFR","rawOb":"METAR SBPP 252000Z 30004KT 9999 SCT020 26/21 Q1013","temp":26,"dewp":21,"wdir":300,"wspd":4,"visib":"6+","altim":1013,"clouds":[{"cover":"SCT","base":2000}],"obsTime":1774468800},"SBCA":{"icaoId":"SBCA","flightCategory":"VFR","rawOb":"METAR SBCA 252000Z 34005KT 290V040 9999 FEW025 FEW030TCU 29/21 Q1015","temp":29,"dewp":21,"wdir":340,"wspd":5,"visib":"6+","altim":1015,"clouds":[{"cover":"FEW","base":2500},{"cover":"FEW","base":3000}],"obsTime":1774468800},"SBPS":{"icaoId":"SBPS","flightCategory":"VFR","rawOb":"METAR SBPS 252000Z 14003KT 070V210 9999 FEW018 26/23 Q1014","temp":26,"dewp":23,"wdir":140,"wspd":3,"visib":"6+","altim":1014,"clouds":[{"cover":"FEW","base":1800}],"obsTime":1774468800},"SBSC":{"icaoId":"SBSC","flightCategory":"VFR","rawOb":"METAR SBSC 252000Z 24008KT 9999 FEW045 28/23 Q1013","temp":28,"dewp":23,"wdir":240,"wspd":8,"visib":"6+","altim":1013,"clouds":[{"cover":"FEW","base":4500}],"obsTime":1774468800},"SBDN":{"icaoId":"SBDN","flightCategory":"VFR","rawOb":"METAR SBDN 252000Z 08006KT 9999 SCT030 FEW050TCU 31/21 Q1011","temp":31,"dewp":21,"wdir":80,"wspd":6,"visib":"6+","altim":1011,"clouds":[{"cover":"SCT","base":3000},{"cover":"FEW","base":5000}],"obsTime":1774468800},"SBAX":{"icaoId":"SBAX","flightCategory":"VFR","rawOb":"METAR SBAX 252000Z 03003KT 9999 SCT020 SCT035 22/19 Q1018","temp":22,"dewp":19,"wdir":30,"wspd":3,"visib":"6+","altim":1018,"clouds":[{"cover":"SCT","base":2000},{"cover":"SCT","base":3500}],"obsTime":1774468800},"SBSJ":{"icaoId":"SBSJ","flightCategory":"VFR","rawOb":"METAR SBSJ 252000Z 13006G16KT 100V160 9999 FEW048 BKN100 30/19 Q1015","temp":30,"dewp":19,"wdir":130,"wspd":6,"visib":"6+","altim":1015,"clouds":[{"cover":"FEW","base":4800},{"cover":"BKN","base":10000}],"obsTime":1774468800},"SBSM":{"icaoId":"SBSM","flightCategory":"IFR","rawOb":"METAR SBSM 252000Z 12004KT 080V170 9999 OVC008 21/20 Q1014","temp":21,"dewp":20,"wdir":120,"wspd":4,"visib":"6+","altim":1014,"clouds":[{"cover":"OVC","base":800}],"obsTime":1774468800},"SBES":{"icaoId":"SBES","flightCategory":"VFR","rawOb":"METAR SBES 252000Z 06014G24KT 9999 FEW040 27/// Q1014","temp":null,"dewp":null,"wdir":60,"wspd":14,"visib":"6+","altim":1014,"clouds":[{"cover":"FEW","base":4000}],"obsTime":1774468800},"SBBH":{"icaoId":"SBBH","flightCategory":"VFR","rawOb":"METAR SBBH 252000Z 06004KT 9999 SCT048 FEW050TCU 26/18 Q1017","temp":26,"dewp":18,"wdir":60,"wspd":4,"visib":"6+","altim":1017,"clouds":[{"cover":"SCT","base":4800},{"cover":"FEW","base":5000}],"obsTime":1774468800},"SBSR":{"icaoId":"SBSR","flightCategory":"VFR","rawOb":"METAR SBSR 252000Z 06005KT 9999 FEW035 FEW040TCU SCT070 29/18 Q1013","temp":29,"dewp":18,"wdir":60,"wspd":5,"visib":"6+","altim":1013,"clouds":[{"cover":"FEW","base":3500},{"cover":"FEW","base":4000},{"cover":"SCT","base":7000}],"obsTime":1774468800},"SBIP":{"icaoId":"SBIP","flightCategory":"VFR","rawOb":"METAR SBIP 252000Z AUTO 35003KT 320V040 CAVOK 28/22 Q1015","temp":28,"dewp":22,"wdir":350,"wspd":3,"visib":"6+","altim":1015,"clouds":[],"obsTime":1774468800},"SBTF":{"icaoId":"SBTF","flightCategory":"VFR","rawOb":"METAR SBTF 252000Z 09005KT 9999 SCT017 SCT100 29/25 Q1008","temp":29,"dewp":25,"wdir":90,"wspd":5,"visib":"6+","altim":1008,"clouds":[{"cover":"SCT","base":1700},{"cover":"SCT","base":10000}],"obsTime":1774468800},"SBTT":{"icaoId":"SBTT","flightCategory":"VFR","rawOb":"METAR SBTT 252000Z 09005KT 050V140 9999 SCT030 32/24 Q1006","temp":32,"dewp":24,"wdir":90,"wspd":5,"visib":"6+","altim":1006,"clouds":[{"cover":"SCT","base":3000}],"obsTime":1774468800},"SBAR":{"icaoId":"SBAR","flightCategory":"VFR","rawOb":"METAR SBAR 252000Z 11015KT 9999 SCT015 SCT025 BKN070 29/24 Q1012","temp":29,"dewp":24,"wdir":110,"wspd":15,"visib":"6+","altim":1012,"clouds":[{"cover":"SCT","base":1500},{"cover":"SCT","base":2500},{"cover":"BKN","base":7000}],"obsTime":1774468800},"SBUY":{"icaoId":"SBUY","flightCategory":"VFR","rawOb":"METAR SBUY 252000Z 10008KT 9999 SCT025 BKN100 30/24 Q1007","temp":30,"dewp":24,"wdir":100,"wspd":8,"visib":"6+","altim":1007,"clouds":[{"cover":"SCT","base":2500},{"cover":"BKN","base":10000}],"obsTime":1774468800},"SBKG":{"icaoId":"SBKG","flightCategory":"VFR","rawOb":"METAR SBKG 252000Z 10015KT 9999 SCT027 29/19 Q1012","temp":29,"dewp":19,"wdir":100,"wspd":15,"visib":"6+","altim":1012,"clouds":[{"cover":"SCT","base":2700}],"obsTime":1774468800},"SBOI":{"icaoId":"SBOI","flightCategory":"VFR","rawOb":"METAR SBOI 252100Z AUTO 36003KT 320V050 CAVOK 26/25 Q1010","temp":26,"dewp":25,"wdir":360,"wspd":3,"visib":"6+","altim":1010,"clouds":[],"obsTime":1774472400},"SBVH":{"icaoId":"SBVH","flightCategory":"VFR","rawOb":"METAR SBVH 252000Z 33004KT 9999 SCT011 BKN040 FEW045TCU 24/23 Q1010 RETS","temp":24,"dewp":23,"wdir":330,"wspd":4,"visib":"6+","altim":1010,"clouds":[{"cover":"SCT","base":1100},{"cover":"BKN","base":4000},{"cover":"FEW","base":4500}],"obsTime":1774468800},"SBCC":{"icaoId":"SBCC","flightCategory":"MVFR","rawOb":"METAR SBCC 252000Z 04007KT 6000 -RA SCT020 FEW025TCU BKN100 24/23 Q1011 RESHRA","temp":24,"dewp":23,"wdir":40,"wspd":7,"visib":3.73,"altim":1011,"clouds":[{"cover":"SCT","base":2000},{"cover":"FEW","base":2500},{"cover":"BKN","base":10000}],"obsTime":1774468800},"SBJP":{"icaoId":"SBJP","flightCategory":"VFR","rawOb":"METAR SBJP 252000Z 10010KT 9999 FEW033 BKN080 29/22 Q1011","temp":29,"dewp":22,"wdir":100,"wspd":10,"visib":"6+","altim":1011,"clouds":[{"cover":"FEW","base":3300},{"cover":"BKN","base":8000}],"obsTime":1774468800},"SBAN":{"icaoId":"SBAN","flightCategory":"MVFR","rawOb":"METAR SBAN 252000Z 19007KT 5000 BR FEW001 SCT002 FEW035TCU 20/19 Q1018","temp":20,"dewp":19,"wdir":190,"wspd":7,"visib":3.11,"altim":1018,"clouds":[{"cover":"FEW","base":100},{"cover":"SCT","base":200},{"cover":"FEW","base":3500}],"obsTime":1774468800},"SBIH":{"icaoId":"SBIH","flightCategory":"VFR","rawOb":"METAR SBIH 252000Z 02010KT 9999 FEW020 32/24 Q1006","temp":32,"dewp":24,"wdir":20,"wspd":10,"visib":"6+","altim":1006,"clouds":[{"cover":"FEW","base":2000}],"obsTime":1774468800},"SBJV":{"icaoId":"SBJV","flightCategory":"VFR","rawOb":"METAR SBJV 252000Z 10007KT 060V130 9999 SCT015 SCT040 29/23 Q1012","temp":29,"dewp":23,"wdir":100,"wspd":7,"visib":"6+","altim":1012,"clouds":[{"cover":"SCT","base":1500},{"cover":"SCT","base":4000}],"obsTime":1774468800},"SBNM":{"icaoId":"SBNM","flightCategory":"VFR","rawOb":"METAR SBNM 252000Z 17002KT 9999 FEW035 30/22 Q1013","temp":30,"dewp":22,"wdir":170,"wspd":2,"visib":"6+","altim":1013,"clouds":[{"cover":"FEW","base":3500}],"obsTime":1774468800},"SBPF":{"icaoId":"SBPF","flightCategory":"VFR","rawOb":"METAR SBPF 252000Z 11006KT 9999 SCT030 22/21 Q1016","temp":22,"dewp":21,"wdir":110,"wspd":6,"visib":"6+","altim":1016,"clouds":[{"cover":"SCT","base":3000}],"obsTime":1774468800},"SBAF":{"icaoId":"SBAF","flightCategory":"VFR","rawOb":"METAR SBAF 252000Z 20007KT 9999 SCT040 31/21 Q1012","temp":31,"dewp":21,"wdir":200,"wspd":7,"visib":"6+","altim":1012,"clouds":[{"cover":"SCT","base":4000}],"obsTime":1774468800},"SBGW":{"icaoId":"SBGW","flightCategory":"VFR","rawOb":"METAR SBGW 252000Z 06006KT 020V100 9999 SCT030 BKN090 30/17 Q1014","temp":30,"dewp":17,"wdir":60,"wspd":6,"visib":"6+","altim":1014,"clouds":[{"cover":"SCT","base":3000},{"cover":"BKN","base":9000}],"obsTime":1774468800},"SBJR":{"icaoId":"SBJR","flightCategory":"VFR","rawOb":"METAR SBJR 252000Z 17005KT 9999 FEW035 32/20 Q1012","temp":32,"dewp":20,"wdir":170,"wspd":5,"visib":"6+","altim":1012,"clouds":[{"cover":"FEW","base":3500}],"obsTime":1774468800},"SBLS":{"icaoId":"SBLS","flightCategory":"VFR","rawOb":"METAR SBLS 252000Z 01004KT 280V080 9999 VCSH SCT030 FEW040TCU 25/19 Q1018","temp":25,"dewp":19,"wdir":10,"wspd":4,"visib":"6+","altim":1018,"clouds":[{"cover":"SCT","base":3000},{"cover":"FEW","base":4000}],"obsTime":1774468800},"SBMT":{"icaoId":"SBMT","flightCategory":"VFR","rawOb":"METAR SBMT 252000Z 15007KT 9999 SCT030 FEW040TCU 26/19 Q1016","temp":26,"dewp":19,"wdir":150,"wspd":7,"visib":"6+","altim":1016,"clouds":[{"cover":"SCT","base":3000},{"cover":"FEW","base":4000}],"obsTime":1774468800},"SBST":{"icaoId":"SBST","flightCategory":"MVFR","rawOb":"METAR SBST 252000Z 26002KT 8000 BKN022 25/22 Q1013","temp":25,"dewp":22,"wdir":260,"wspd":2,"visib":4.97,"altim":1013,"clouds":[{"cover":"BKN","base":2200}],"obsTime":1774468800},"SBTA":{"icaoId":"SBTA","flightCategory":"VFR","rawOb":"METAR SBTA 252000Z 05013KT 9999 -RA SCT035 FEW040TCU 29/23 Q1014","temp":29,"dewp":23,"wdir":50,"wspd":13,"visib":"6+","altim":1014,"clouds":[{"cover":"SCT","base":3500},{"cover":"FEW","base":4000}],"obsTime":1774468800},"SBLE":{"icaoId":"SBLE","flightCategory":"VFR","rawOb":"METAR SBLE 252000Z AUTO VRB02KT 9999 FEW035 25/25 Q1014","temp":25,"dewp":25,"wdir":"VRB","wspd":2,"visib":"6+","altim":1014,"clouds":[{"cover":"FEW","base":3500}],"obsTime":1774468800}}}