{"updated":1774083208,"count":51,"data":{"SBSP":{"icaoId":"SBSP","flightCategory":"MVFR","rawOb":"SPECI SBSP 210656Z AUTO 09002KT 9000 BKN010 19/18 Q1014","temp":19,"dewp":18,"wdir":90,"wspd":2,"visib":5.59,"altim":1014,"clouds":[{"cover":"BKN","base":1000}],"obsTime":1774076160},"SBMQ":{"icaoId":"SBMQ","flightCategory":"LIFR","rawOb":"METAR SBMQ 210700Z 33002KT 9999 4000W -RA BKN004 OVC012 24/24 Q1009","temp":24,"dewp":24,"wdir":330,"wspd":2,"visib":"6+","altim":1009,"clouds":[{"cover":"BKN","base":400},{"cover":"OVC","base":1200}],"obsTime":1774076400},"SBBV":{"icaoId":"SBBV","flightCategory":"VFR","rawOb":"METAR SBBV 210700Z 13007KT CAVOK 25/22 Q1008","temp":25,"dewp":22,"wdir":130,"wspd":7,"visib":"6+","altim":1008,"clouds":[],"obsTime":1774076400},"SBNT":{"icaoId":"SBNT","flightCategory":"VFR","rawOb":"METAR SBNT 210700Z 23003KT 9999 FEW020 25/24 Q1009","temp":25,"dewp":24,"wdir":230,"wspd":3,"visib":"6+","altim":1009,"clouds":[{"cover":"FEW","base":2000}],"obsTime":1774076400},"SBCT":{"icaoId":"SBCT","flightCategory":"MVFR","rawOb":"METAR SBCT 210700Z 10003KT 9999 BKN012 19/18 Q1015","temp":19,"dewp":18,"wdir":100,"wspd":3,"visib":"6+","altim":1015,"clouds":[{"cover":"BKN","base":1200}],"obsTime":1774076400},"SBPA":{"icaoId":"SBPA","flightCategory":"VFR","rawOb":"METAR SBPA 210700Z 09005KT CAVOK 21/20 Q1007","temp":21,"dewp":20,"wdir":90,"wspd":5,"visib":"6+","altim":1007,"clouds":[],"obsTime":1774076400},"SBGO":{"icaoId":"SBGO","flightCategory":"VFR","rawOb":"METAR SBGO 210700Z 36002KT 9999 SCT010 BKN100 21/20 Q1014","temp":21,"dewp":20,"wdir":360,"wspd":2,"visib":"6+","altim":1014,"clouds":[{"cover":"SCT","base":1000},{"cover":"BKN","base":10000}],"obsTime":1774076400},"SBPJ":{"icaoId":"SBPJ","flightCategory":"VFR","rawOb":"METAR SBPJ 210700Z 04004KT 9999 -RA FEW010 BKN090 BKN100 24/23 Q1011","temp":24,"dewp":23,"wdir":40,"wspd":4,"visib":"6+","altim":1011,"clouds":[{"cover":"FEW","base":1000},{"cover":"BKN","base":9000},{"cover":"BKN","base":10000}],"obsTime":1774076400},"SBPV":{"icaoId":"SBPV","flightCategory":"VFR","rawOb":"METAR SBPV 210700Z 02003KT CAVOK 25/23 Q1006","temp":25,"dewp":23,"wdir":20,"wspd":3,"visib":"6+","altim":1006,"clouds":[],"obsTime":1774076400},"SBBR":{"icaoId":"SBBR","flightCategory":"VFR","rawOb":"METAR SBBR 210700Z VRB02KT CAVOK 19/19 Q1015","temp":19,"dewp":19,"wdir":"VRB","wspd":2,"visib":"6+","altim":1015,"clouds":[],"obsTime":1774076400},"SBGR":{"icaoId":"SBGR","flightCategory":"IFR","rawOb":"METAR SBGR 210700Z 08003KT 7000 OVC007 19/18 Q1014","temp":19,"dewp":18,"wdir":80,"wspd":3,"visib":4.35,"altim":1014,"clouds":[{"cover":"OVC","base":700}],"obsTime":1774076400},"SBRB":{"icaoId":"SBRB","flightCategory":"MVFR","rawOb":"METAR SBRB 210700Z 11002KT 8000 -TSRA SCT004 FEW030CB BKN100 24/24 Q1007","temp":24,"dewp":24,"wdir":110,"wspd":2,"visib":4.97,"altim":1007,"clouds":[{"cover":"SCT","base":400},{"cover":"FEW","base":3000},{"cover":"BKN","base":10000}],"obsTime":1774076400},"SBEG":{"icaoId":"SBEG","flightCategory":"VFR","rawOb":"METAR SBEG 210700Z 08006KT CAVOK 25/23 Q1008","temp":25,"dewp":23,"wdir":80,"wspd":6,"visib":"6+","altim":1008,"clouds":[],"obsTime":1774076400},"SBRF":{"icaoId":"SBRF","flightCategory":"VFR","rawOb":"METAR SBRF 210700Z 10007KT 060V130 9999 SCT022 28/24 Q1009","temp":28,"dewp":24,"wdir":100,"wspd":7,"visib":"6+","altim":1009,"clouds":[{"cover":"SCT","base":2200}],"obsTime":1774076400},"SBSG":{"icaoId":"SBSG","flightCategory":"VFR","rawOb":"METAR SBSG 210700Z 20004KT 9999 SCT023 24/24 Q1009","temp":24,"dewp":24,"wdir":200,"wspd":4,"visib":"6+","altim":1009,"clouds":[{"cover":"SCT","base":2300}],"obsTime":1774076400},"SBJU":{"icaoId":"SBJU","flightCategory":"VFR","rawOb":"METAR SBJU 210700Z 00000KT 9999 SCT020 23/22 Q1011","temp":23,"dewp":22,"wdir":0,"wspd":0,"visib":"6+","altim":1011,"clouds":[{"cover":"SCT","base":2000}],"obsTime":1774076400},"SBKP":{"icaoId":"SBKP","flightCategory":"VFR","rawOb":"METAR SBKP 210700Z 11004KT CAVOK 19/18 Q1013","temp":19,"dewp":18,"wdir":110,"wspd":4,"visib":"6+","altim":1013,"clouds":[],"obsTime":1774076400},"SBSL":{"icaoId":"SBSL","flightCategory":"MVFR","rawOb":"METAR SBSL 210700Z 31007KT 6000 RA BKN018 OVC021 25/24 Q1009","temp":25,"dewp":24,"wdir":310,"wspd":7,"visib":3.73,"altim":1009,"clouds":[{"cover":"BKN","base":1800},{"cover":"OVC","base":2100}],"obsTime":1774076400},"SBCF":{"icaoId":"SBCF","flightCategory":"IFR","rawOb":"METAR SBCF 210700Z 34003KT 4000 BR BKN006 BKN010 20/20 Q1014","temp":20,"dewp":20,"wdir":340,"wspd":3,"visib":2.49,"altim":1014,"clouds":[{"cover":"BKN","base":600},{"cover":"BKN","base":1000}],"obsTime":1774076400},"SBSN":{"icaoId":"SBSN","flightCategory":"VFR","rawOb":"METAR SBSN 210700Z 10005KT 9999 FEW009 SCT020 25/24 Q1008","temp":25,"dewp":24,"wdir":100,"wspd":5,"visib":"6+","altim":1008,"clouds":[{"cover":"FEW","base":900},{"cover":"SCT","base":2000}],"obsTime":1774076400},"SBVT":{"icaoId":"SBVT","flightCategory":"VFR","rawOb":"METAR SBVT 210700Z 36006KT 9999 VCTS SCT025 FEW035CB BKN100 23/23 Q1008","temp":23,"dewp":23,"wdir":360,"wspd":6,"visib":"6+","altim":1008,"clouds":[{"cover":"SCT","base":2500},{"cover":"FEW","base":3500},{"cover":"BKN","base":10000}],"obsTime":1774076400},"SBMO":{"icaoId":"SBMO","flightCategory":"VFR","rawOb":"METAR SBMO 210700Z 36004KT 9999 FEW020 24/23 Q1010","temp":24,"dewp":23,"wdir":360,"wspd":4,"visib":"6+","altim":1010,"clouds":[{"cover":"FEW","base":2000}],"obsTime":1774076400},"SBMK":{"icaoId":"SBMK","flightCategory":"VFR","rawOb":"METAR SBMK 210800Z 00000KT 9999 BKN040 21/20 Q1013","temp":21,"dewp":20,"wdir":0,"wspd":0,"visib":"6+","altim":1013,"clouds":[{"cover":"BKN","base":4000}],"obsTime":1774080000},"SBFZ":{"icaoId":"SBFZ","flightCategory":"MVFR","rawOb":"METAR SBFZ 210700Z 26004KT 9999 BKN020 BKN100 26/25 Q1008","temp":26,"dewp":25,"wdir":260,"wspd":4,"visib":"6+","altim":1008,"clouds":[{"cover":"BKN","base":2000},{"cover":"BKN","base":10000}],"obsTime":1774076400},"SBGL":{"icaoId":"SBGL","flightCategory":"MVFR","rawOb":"METAR SBGL 210700Z 25001KT 8000 FEW009 23/22 Q1009","temp":23,"dewp":22,"wdir":250,"wspd":1,"visib":4.97,"altim":1009,"clouds":[{"cover":"FEW","base":900}],"obsTime":1774076400},"SBFI":{"icaoId":"SBFI","flightCategory":"VFR","rawOb":"METAR SBFI 210700Z 10003KT CAVOK 25/24 Q1006","temp":25,"dewp":24,"wdir":100,"wspd":3,"visib":"6+","altim":1006,"clouds":[],"obsTime":1774076400},"SBLO":{"icaoId":"SBLO","flightCategory":"MVFR","rawOb":"METAR SBLO 210700Z 09006KT 9999 BKN025 23/20 Q1012","temp":23,"dewp":20,"wdir":90,"wspd":6,"visib":"6+","altim":1012,"clouds":[{"cover":"BKN","base":2500}],"obsTime":1774076400},"SBSV":{"icaoId":"SBSV","flightCategory":"VFR","rawOb":"METAR SBSV 210700Z 01004KT 9999 SCT018 26/23 Q1009","temp":26,"dewp":23,"wdir":10,"wspd":4,"visib":"6+","altim":1009,"clouds":[{"cover":"SCT","base":1800}],"obsTime":1774076400},"SBBE":{"icaoId":"SBBE","flightCategory":"VFR","rawOb":"METAR SBBE 210700Z 10007KT 9999 FEW009 SCT013 OVC100 23/23 Q1010","temp":23,"dewp":23,"wdir":100,"wspd":7,"visib":"6+","altim":1010,"clouds":[{"cover":"FEW","base":900},{"cover":"SCT","base":1300},{"cover":"OVC","base":10000}],"obsTime":1774076400},"SBTE":{"icaoId":"SBTE","flightCategory":"MVFR","rawOb":"METAR SBTE 210700Z 29005KT 9999 BKN010 SCT100 25/24 Q1008","temp":25,"dewp":24,"wdir":290,"wspd":5,"visib":"6+","altim":1008,"clouds":[{"cover":"BKN","base":1000},{"cover":"SCT","base":10000}],"obsTime":1774076400},"SBMA":{"icaoId":"SBMA","flightCategory":"VFR","rawOb":"METAR SBMA 210700Z 22005KT 9999 FEW010 FEW020TCU BKN080 24/22 Q1010","temp":24,"dewp":22,"wdir":220,"wspd":5,"visib":"6+","altim":1010,"clouds":[{"cover":"FEW","base":1000},{"cover":"FEW","base":2000},{"cover":"BKN","base":8000}],"obsTime":1774076400},"SBUL":{"icaoId":"SBUL","flightCategory":"LIFR","rawOb":"METAR SBUL 210700Z 04004KT 9999 3000N BCFG OVC002 20/20 Q1014","temp":20,"dewp":20,"wdir":40,"wspd":4,"visib":"6+","altim":1014,"clouds":[{"cover":"OVC","base":200}],"obsTime":1774076400},"SBFL":{"icaoId":"SBFL","flightCategory":"MVFR","rawOb":"METAR SBFL 210700Z 34004KT 9999 BKN010 BKN025 BKN050 23/23 Q1010","temp":23,"dewp":23,"wdir":340,"wspd":4,"visib":"6+","altim":1010,"clouds":[{"cover":"BKN","base":1000},{"cover":"BKN","base":2500},{"cover":"BKN","base":5000}],"obsTime":1774076400},"SBUR":{"icaoId":"SBUR","flightCategory":"VFR","rawOb":"METAR SBUR 210700Z 35005KT 9999 SCT007 21/20 Q1013","temp":21,"dewp":20,"wdir":350,"wspd":5,"visib":"6+","altim":1013,"clouds":[{"cover":"SCT","base":700}],"obsTime":1774076400},"SBME":{"icaoId":"SBME","flightCategory":"IFR","rawOb":"METAR SBME 210700Z 24001KT 4000 -RA BKN015 OVC070 24/23 Q1009","temp":24,"dewp":23,"wdir":240,"wspd":1,"visib":2.49,"altim":1009,"clouds":[{"cover":"BKN","base":1500},{"cover":"OVC","base":7000}],"obsTime":1774076400},"SBCG":{"icaoId":"SBCG","flightCategory":"VFR","rawOb":"METAR SBCG 210700Z 36006KT CAVOK 23/21 Q1010","temp":23,"dewp":21,"wdir":360,"wspd":6,"visib":"6+","altim":1010,"clouds":[],"obsTime":1774076400},"SBMG":{"icaoId":"SBMG","flightCategory":"VFR","rawOb":"METAR SBMG 210700Z AUTO 06009KT 9999 FEW041 24/21 Q1010","temp":24,"dewp":21,"wdir":60,"wspd":9,"visib":"6+","altim":1010,"clouds":[{"cover":"FEW","base":4100}],"obsTime":1774076400},"SBSJ":{"icaoId":"SBSJ","flightCategory":"IFR","rawOb":"SPECI SBSJ 210830Z 12002KT 4000 BR FEW015 18/// Q1014","temp":null,"dewp":null,"wdir":120,"wspd":2,"visib":2.49,"altim":1014,"clouds":[{"cover":"FEW","base":1500}],"obsTime":1774081800},"SBOI":{"icaoId":"SBOI","flightCategory":"LIFR","rawOb":"METAR SBOI 210700Z AUTO 03003KT 1000 // VV002 23/23 Q1009","temp":23,"dewp":23,"wdir":30,"wspd":3,"visib":0.62,"altim":1009,"clouds":[{"cover":"OVX","base":200}],"obsTime":1774076400},"SBIP":{"icaoId":"SBIP","flightCategory":"MVFR","rawOb":"METAR SBIP 210700Z AUTO VRB01KT 9999 OVC014 23/23 Q1010","temp":23,"dewp":23,"wdir":"VRB","wspd":1,"visib":"6+","altim":1010,"clouds":[{"cover":"OVC","base":1400}],"obsTime":1774076400},"SBKG":{"icaoId":"SBKG","flightCategory":"IFR","rawOb":"METAR SBKG 210700Z 11004KT 9999 SCT006 BKN009 23/22 Q1012","temp":23,"dewp":22,"wdir":110,"wspd":4,"visib":"6+","altim":1012,"clouds":[{"cover":"SCT","base":600},{"cover":"BKN","base":900}],"obsTime":1774076400},"SBSR":{"icaoId":"SBSR","flightCategory":"VFR","rawOb":"METAR SBSR 210700Z 34001KT CAVOK 23/22 Q1011","temp":23,"dewp":22,"wdir":340,"wspd":1,"visib":"6+","altim":1011,"clouds":[],"obsTime":1774076400},"SBAR":{"icaoId":"SBAR","flightCategory":"VFR","rawOb":"METAR SBAR 210700Z 06007KT 9999 SCT020 27/23 Q1009","temp":27,"dewp":23,"wdir":60,"wspd":7,"visib":"6+","altim":1009,"clouds":[{"cover":"SCT","base":2000}],"obsTime":1774076400},"SBAX":{"icaoId":"SBAX","flightCategory":"IFR","rawOb":"METAR SBAX 210700Z AUTO 28003KT 250V310 9999 SCT004 OVC006 ///// Q1014","temp":null,"dewp":null,"wdir":280,"wspd":3,"visib":"6+","altim":1014,"clouds":[{"cover":"SCT","base":400},{"cover":"OVC","base":600}],"obsTime":1774076400},"SBDN":{"icaoId":"SBDN","flightCategory":"VFR","rawOb":"METAR SBDN 210700Z 07004KT CAVOK 24/22 Q1010","temp":24,"dewp":22,"wdir":70,"wspd":4,"visib":"6+","altim":1010,"clouds":[],"obsTime":1774076400},"SBPL":{"icaoId":"SBPL","flightCategory":"VFR","rawOb":"METAR SBPL 210700Z 11005KT CAVOK 25/20 Q1010","temp":25,"dewp":20,"wdir":110,"wspd":5,"visib":"6+","altim":1010,"clouds":[],"obsTime":1774076400},"SBPS":{"icaoId":"SBPS","flightCategory":"VFR","rawOb":"METAR SBPS 210700Z 33004KT 9999 FEW019 25/24 Q1009","temp":25,"dewp":24,"wdir":330,"wspd":4,"visib":"6+","altim":1009,"clouds":[{"cover":"FEW","base":1900}],"obsTime":1774076400},"SBSC":{"icaoId":"SBSC","flightCategory":"IFR","rawOb":"METAR SBSC 210700Z 36003KT 3000 BR BKN009 22/21 Q1010","temp":22,"dewp":21,"wdir":360,"wspd":3,"visib":1.86,"altim":1010,"clouds":[{"cover":"BKN","base":900}],"obsTime":1774076400},"SBAN":{"icaoId":"SBAN","flightCategory":"LIFR","rawOb":"METAR SBAN 210700Z 10003KT 9999 BKN002 SCT100 18/18 Q1018","temp":18,"dewp":18,"wdir":100,"wspd":3,"visib":"6+","altim":1018,"clouds":[{"cover":"BKN","base":200},{"cover":"SCT","base":10000}],"obsTime":1774076400},"SBJP":{"icaoId":"SBJP","flightCategory":"VFR","rawOb":"METAR SBJP 210700Z 21004KT 9999 FEW020 25/24 Q1010","temp":25,"dewp":24,"wdir":210,"wspd":4,"visib":"6+","altim":1010,"clouds":[{"cover":"FEW","base":2000}],"obsTime":1774076400},"SBLE":{"icaoId":"SBLE","flightCategory":"VFR","rawOb":"METAR SBLE 210700Z AUTO VRB02KT 9999 BKN034 ///// Q////","temp":null,"dewp":null,"wdir":"VRB","wspd":2,"visib":"6+","altim":null,"clouds":[{"cover":"BKN","base":3400}],"obsTime":1774076400}}}