{"updated":1775739221,"count":86,"data":{"SBTE":{"icaoId":"SBTE","flightCategory":"MVFR","rawOb":"METAR SBTE 091100Z 00000KT 9999 BKN012 26/24 Q1013","temp":26,"dewp":24,"wdir":0,"wspd":0,"visib":"6+","altim":1013,"clouds":[{"cover":"BKN","base":1200}],"obsTime":1775732400},"SBAT":{"icaoId":"SBAT","flightCategory":"VFR","rawOb":"METAR SBAT 091100Z 36004KT 9999 VCSH SCT020 SCT080 25/25 Q1014","temp":25,"dewp":25,"wdir":360,"wspd":4,"visib":"6+","altim":1014,"clouds":[{"cover":"SCT","base":2000},{"cover":"SCT","base":8000}],"obsTime":1775732400},"SBBE":{"icaoId":"SBBE","flightCategory":"MVFR","rawOb":"METAR SBBE 091100Z 09006KT 7000 FEW019 27/25 Q1013","temp":27,"dewp":25,"wdir":90,"wspd":6,"visib":4.35,"altim":1013,"clouds":[{"cover":"FEW","base":1900}],"obsTime":1775732400},"SBVT":{"icaoId":"SBVT","flightCategory":"VFR","rawOb":"METAR SBVT 091100Z 02009KT CAVOK 28/23 Q1012","temp":28,"dewp":23,"wdir":20,"wspd":9,"visib":"6+","altim":1012,"clouds":[],"obsTime":1775732400},"SBBR":{"icaoId":"SBBR","flightCategory":"VFR","rawOb":"METAR SBBR 091100Z VRB02KT 9999 FEW030 BKN070 21/19 Q1020","temp":21,"dewp":19,"wdir":"VRB","wspd":2,"visib":"6+","altim":1020,"clouds":[{"cover":"FEW","base":3000},{"cover":"BKN","base":7000}],"obsTime":1775732400},"SBBV":{"icaoId":"SBBV","flightCategory":"VFR","rawOb":"METAR SBBV 091100Z 07004KT 9999 FEW030 SCT100 25/24 Q1013","temp":25,"dewp":24,"wdir":70,"wspd":4,"visib":"6+","altim":1013,"clouds":[{"cover":"FEW","base":3000},{"cover":"SCT","base":10000}],"obsTime":1775732400},"SBCB":{"icaoId":"SBCB","flightCategory":"VFR","rawOb":"METAR SBCB 091100Z 28007KT CAVOK 29/23 Q1011","temp":29,"dewp":23,"wdir":280,"wspd":7,"visib":"6+","altim":1011,"clouds":[],"obsTime":1775732400},"SBCF":{"icaoId":"SBCF","flightCategory":"VFR","rawOb":"METAR SBCF 091100Z VRB02KT 9000 NSC 22/19 Q1019","temp":22,"dewp":19,"wdir":"VRB","wspd":2,"visib":5.59,"altim":1019,"clouds":[],"obsTime":1775732400},"SBCG":{"icaoId":"SBCG","flightCategory":"VFR","rawOb":"METAR SBCG 091100Z 11007KT 9999 SCT005 SCT057 22/21 Q1017","temp":22,"dewp":21,"wdir":110,"wspd":7,"visib":"6+","altim":1017,"clouds":[{"cover":"SCT","base":500},{"cover":"SCT","base":5700}],"obsTime":1775732400},"SBCP":{"icaoId":"SBCP","flightCategory":"VFR","rawOb":"METAR SBCP 091100Z /////KT CAVOK ///// Q1011","temp":null,"dewp":null,"wdir":null,"wspd":null,"visib":"6+","altim":1011,"clouds":[],"obsTime":1775732400},"SBCR":{"icaoId":"SBCR","flightCategory":"VFR","rawOb":"METAR SBCR 091100Z 28002KT 9999 FEW013 BKN035 24/21 Q1014","temp":24,"dewp":21,"wdir":280,"wspd":2,"visib":"6+","altim":1014,"clouds":[{"cover":"FEW","base":1300},{"cover":"BKN","base":3500}],"obsTime":1775732400},"SBCT":{"icaoId":"SBCT","flightCategory":"VFR","rawOb":"METAR SBCT 091100Z 25005KT CAVOK 16/14 Q1018","temp":16,"dewp":14,"wdir":250,"wspd":5,"visib":"6+","altim":1018,"clouds":[],"obsTime":1775732400},"SBCZ":{"icaoId":"SBCZ","flightCategory":"LIFR","rawOb":"METAR SBCZ 091200Z 00000KT 0200 FG VV001 23/23 Q1014","temp":23,"dewp":23,"wdir":0,"wspd":0,"visib":0.12,"altim":1014,"clouds":[{"cover":"OVX","base":100}],"obsTime":1775736000},"SBEG":{"icaoId":"SBEG","flightCategory":"VFR","rawOb":"METAR SBEG 091100Z 36002KT 9999 FEW004 24/24 Q1012","temp":24,"dewp":24,"wdir":360,"wspd":2,"visib":"6+","altim":1012,"clouds":[{"cover":"FEW","base":400}],"obsTime":1775732400},"SBFI":{"icaoId":"SBFI","flightCategory":"VFR","rawOb":"METAR SBFI 091100Z 00000KT 9999 4000S BCFG NSC 17/17 Q1017","temp":17,"dewp":17,"wdir":0,"wspd":0,"visib":"6+","altim":1017,"clouds":[],"obsTime":1775732400},"SBFL":{"icaoId":"SBFL","flightCategory":"VFR","rawOb":"METAR SBFL 091100Z 28007KT 170V290 CAVOK 22/16 Q1013","temp":22,"dewp":16,"wdir":280,"wspd":7,"visib":"6+","altim":1013,"clouds":[],"obsTime":1775732400},"SBFZ":{"icaoId":"SBFZ","flightCategory":"MVFR","rawOb":"METAR SBFZ 091100Z 18004KT 9999 BKN030 27/24 Q1012","temp":27,"dewp":24,"wdir":180,"wspd":4,"visib":"6+","altim":1012,"clouds":[{"cover":"BKN","base":3000}],"obsTime":1775732400},"SBGL":{"icaoId":"SBGL","flightCategory":"VFR","rawOb":"METAR SBGL 091100Z 36004KT CAVOK 26/21 Q1011","temp":26,"dewp":21,"wdir":360,"wspd":4,"visib":"6+","altim":1011,"clouds":[],"obsTime":1775732400},"SBGO":{"icaoId":"SBGO","flightCategory":"VFR","rawOb":"METAR SBGO 091100Z 12004KT 9999 FEW003 21/20 Q1018","temp":21,"dewp":20,"wdir":120,"wspd":4,"visib":"6+","altim":1018,"clouds":[{"cover":"FEW","base":300}],"obsTime":1775732400},"SBGR":{"icaoId":"SBGR","flightCategory":"VFR","rawOb":"METAR SBGR 091100Z 26006KT 9999 FEW017 BKN040 23/19 Q1017","temp":23,"dewp":19,"wdir":260,"wspd":6,"visib":"6+","altim":1017,"clouds":[{"cover":"FEW","base":1700},{"cover":"BKN","base":4000}],"obsTime":1775732400},"SBHT":{"icaoId":"SBHT","flightCategory":"MVFR","rawOb":"METAR SBHT 091100Z 00000KT 9999 FEW010 BKN015 BKN080 25/24 Q1014","temp":25,"dewp":24,"wdir":0,"wspd":0,"visib":"6+","altim":1014,"clouds":[{"cover":"FEW","base":1000},{"cover":"BKN","base":1500},{"cover":"BKN","base":8000}],"obsTime":1775732400},"SBIL":{"icaoId":"SBIL","flightCategory":"VFR","rawOb":"METAR SBIL 091100Z 30004KT 9999 FEW020 26/25 Q1014","temp":26,"dewp":25,"wdir":300,"wspd":4,"visib":"6+","altim":1014,"clouds":[{"cover":"FEW","base":2000}],"obsTime":1775732400},"SBJU":{"icaoId":"SBJU","flightCategory":"VFR","rawOb":"METAR SBJU 091100Z 00000KT 9999 SCT020 24/22 Q1016","temp":24,"dewp":22,"wdir":0,"wspd":0,"visib":"6+","altim":1016,"clouds":[{"cover":"SCT","base":2000}],"obsTime":1775732400},"SBKP":{"icaoId":"SBKP","flightCategory":"MVFR","rawOb":"METAR SBKP 091100Z 33002KT 9999 FEW010 BKN025 22/21 Q1017","temp":22,"dewp":21,"wdir":330,"wspd":2,"visib":"6+","altim":1017,"clouds":[{"cover":"FEW","base":1000},{"cover":"BKN","base":2500}],"obsTime":1775732400},"SBLO":{"icaoId":"SBLO","flightCategory":"VFR","rawOb":"METAR SBLO 091100Z 23003KT CAVOK 21/19 Q1017","temp":21,"dewp":19,"wdir":230,"wspd":3,"visib":"6+","altim":1017,"clouds":[],"obsTime":1775732400},"SBMA":{"icaoId":"SBMA","flightCategory":"VFR","rawOb":"METAR SBMA 091100Z 00000KT 9999 SCT010 BKN070 26/24 Q1013","temp":26,"dewp":24,"wdir":0,"wspd":0,"visib":"6+","altim":1013,"clouds":[{"cover":"SCT","base":1000},{"cover":"BKN","base":7000}],"obsTime":1775732400},"SBME":{"icaoId":"SBME","flightCategory":"VFR","rawOb":"METAR SBME 091100Z 31003KT 280V010 CAVOK 29/20 Q1010","temp":29,"dewp":20,"wdir":310,"wspd":3,"visib":"6+","altim":1010,"clouds":[],"obsTime":1775732400},"SBMG":{"icaoId":"SBMG","flightCategory":"MVFR","rawOb":"METAR SBMG 091100Z 13006KT 7000 3000S BCFG FEW001 BKN100 19/18 Q1016","temp":19,"dewp":18,"wdir":130,"wspd":6,"visib":4.35,"altim":1016,"clouds":[{"cover":"FEW","base":100},{"cover":"BKN","base":10000}],"obsTime":1775732400},"SBMK":{"icaoId":"SBMK","flightCategory":"VFR","rawOb":"METAR SBMK 091100Z 00000KT CAVOK 24/20 Q1017","temp":24,"dewp":20,"wdir":0,"wspd":0,"visib":"6+","altim":1017,"clouds":[],"obsTime":1775732400},"SBMO":{"icaoId":"SBMO","flightCategory":"VFR","rawOb":"METAR SBMO 091100Z 25004KT 210V280 9999 FEW020 26/24 Q1014","temp":26,"dewp":24,"wdir":250,"wspd":4,"visib":"6+","altim":1014,"clouds":[{"cover":"FEW","base":2000}],"obsTime":1775732400},"SBMQ":{"icaoId":"SBMQ","flightCategory":"VFR","rawOb":"METAR SBMQ 091100Z 01008KT 9999 SCT018 27/26 Q1012","temp":27,"dewp":26,"wdir":10,"wspd":8,"visib":"6+","altim":1012,"clouds":[{"cover":"SCT","base":1800}],"obsTime":1775732400},"SBNT":{"icaoId":"SBNT","flightCategory":"VFR","rawOb":"METAR SBNT 091100Z 17008KT 140V200 9999 FEW020 SCT080 28/23 Q1012","temp":28,"dewp":23,"wdir":170,"wspd":8,"visib":"6+","altim":1012,"clouds":[{"cover":"FEW","base":2000},{"cover":"SCT","base":8000}],"obsTime":1775732400},"SBPA":{"icaoId":"SBPA","flightCategory":"VFR","rawOb":"METAR SBPA 091100Z 27009KT 9999 FEW010 18/16 Q1016","temp":18,"dewp":16,"wdir":270,"wspd":9,"visib":"6+","altim":1016,"clouds":[{"cover":"FEW","base":1000}],"obsTime":1775732400},"SBPJ":{"icaoId":"SBPJ","flightCategory":"VFR","rawOb":"METAR SBPJ 091100Z 00000KT 9999 SCT045 SCT100 25/23 Q1014","temp":25,"dewp":23,"wdir":0,"wspd":0,"visib":"6+","altim":1014,"clouds":[{"cover":"SCT","base":4500},{"cover":"SCT","base":10000}],"obsTime":1775732400},"SBPV":{"icaoId":"SBPV","flightCategory":"VFR","rawOb":"METAR SBPV 091100Z 00000KT 9999 FEW010 24/22 Q1012","temp":24,"dewp":22,"wdir":0,"wspd":0,"visib":"6+","altim":1012,"clouds":[{"cover":"FEW","base":1000}],"obsTime":1775732400},"SBRB":{"icaoId":"SBRB","flightCategory":"LIFR","rawOb":"METAR SBRB 091100Z 16002KT 4000 BR BKN002 23/23 Q1013","temp":23,"dewp":23,"wdir":160,"wspd":2,"visib":2.49,"altim":1013,"clouds":[{"cover":"BKN","base":200}],"obsTime":1775732400},"SBRF":{"icaoId":"SBRF","flightCategory":"VFR","rawOb":"METAR SBRF 091100Z 19007KT 9999 FEW025 28/24 Q1012","temp":28,"dewp":24,"wdir":190,"wspd":7,"visib":"6+","altim":1012,"clouds":[{"cover":"FEW","base":2500}],"obsTime":1775732400},"SBSG":{"icaoId":"SBSG","flightCategory":"VFR","rawOb":"METAR SBSG 091100Z 18004KT 140V220 9999 SCT023 FEW030TCU SCT100 26/24 Q1012","temp":26,"dewp":24,"wdir":180,"wspd":4,"visib":"6+","altim":1012,"clouds":[{"cover":"SCT","base":2300},{"cover":"FEW","base":3000},{"cover":"SCT","base":10000}],"obsTime":1775732400},"SBSL":{"icaoId":"SBSL","flightCategory":"VFR","rawOb":"METAR SBSL 091100Z 09008KT 9999 SCT012 28/25 Q1012","temp":28,"dewp":25,"wdir":90,"wspd":8,"visib":"6+","altim":1012,"clouds":[{"cover":"SCT","base":1200}],"obsTime":1775732400},"SBSN":{"icaoId":"SBSN","flightCategory":"MVFR","rawOb":"METAR SBSN 091100Z 00000KT 9999 SCT009 BKN015 OVC100 25/24 Q1012","temp":25,"dewp":24,"wdir":0,"wspd":0,"visib":"6+","altim":1012,"clouds":[{"cover":"SCT","base":900},{"cover":"BKN","base":1500},{"cover":"OVC","base":10000}],"obsTime":1775732400},"SBSP":{"icaoId":"SBSP","flightCategory":"VFR","rawOb":"METAR SBSP 091100Z 29005KT 240V350 9999 FEW013 BKN033 22/19 Q1018","temp":22,"dewp":19,"wdir":290,"wspd":5,"visib":"6+","altim":1018,"clouds":[{"cover":"FEW","base":1300},{"cover":"BKN","base":3300}],"obsTime":1775732400},"SBSV":{"icaoId":"SBSV","flightCategory":"VFR","rawOb":"METAR SBSV 091100Z 12003KT 060V200 9999 FEW025 29/22 Q1014","temp":29,"dewp":22,"wdir":120,"wspd":3,"visib":"6+","altim":1014,"clouds":[{"cover":"FEW","base":2500}],"obsTime":1775732400},"SBUL":{"icaoId":"SBUL","flightCategory":"VFR","rawOb":"METAR SBUL 091100Z 26006KT CAVOK 21/19 Q1019","temp":21,"dewp":19,"wdir":260,"wspd":6,"visib":"6+","altim":1019,"clouds":[],"obsTime":1775732400},"SBUR":{"icaoId":"SBUR","flightCategory":"VFR","rawOb":"METAR SBUR 091100Z 04002KT 9999 FEW022 BKN100 21/19 Q1018","temp":21,"dewp":19,"wdir":40,"wspd":2,"visib":"6+","altim":1018,"clouds":[{"cover":"FEW","base":2200},{"cover":"BKN","base":10000}],"obsTime":1775732400},"SBPB":{"icaoId":"SBPB","flightCategory":"VFR","rawOb":"METAR SBPB 091100Z 05001KT 9999 FEW020 28/25 Q1012","temp":28,"dewp":25,"wdir":50,"wspd":1,"visib":"6+","altim":1012,"clouds":[{"cover":"FEW","base":2000}],"obsTime":1775732400},"SBCJ":{"icaoId":"SBCJ","flightCategory":"IFR","rawOb":"METAR SBCJ 091100Z 11002KT 9999 BKN006 23/21 Q1017","temp":23,"dewp":21,"wdir":110,"wspd":2,"visib":"6+","altim":1017,"clouds":[{"cover":"BKN","base":600}],"obsTime":1775732400},"SBOI":{"icaoId":"SBOI","flightCategory":"VFR","rawOb":"METAR SBOI 091100Z AUTO 00000KT 9999 FEW002 SCT032 25/24 Q1013","temp":25,"dewp":24,"wdir":0,"wspd":0,"visib":"6+","altim":1013,"clouds":[{"cover":"FEW","base":200},{"cover":"SCT","base":3200}],"obsTime":1775732400},"SBBQ":{"icaoId":"SBBQ","flightCategory":"LIFR","rawOb":"METAR SBBQ 091100Z 28003KT 0800 FG VV004 17/17 Q1021","temp":17,"dewp":17,"wdir":280,"wspd":3,"visib":0.5,"altim":1021,"clouds":[{"cover":"OVX","base":400}],"obsTime":1775732400},"SBPL":{"icaoId":"SBPL","flightCategory":"VFR","rawOb":"METAR SBPL 091100Z 12007KT 9999 SCT020 26/21 Q1015","temp":26,"dewp":21,"wdir":120,"wspd":7,"visib":"6+","altim":1015,"clouds":[{"cover":"SCT","base":2000}],"obsTime":1775732400},"SBPP":{"icaoId":"SBPP","flightCategory":"IFR","rawOb":"SPECI SBPP 091115Z 15005KT 5000 BR BKN009 OVC070 18/18 Q1018","temp":18,"dewp":18,"wdir":150,"wspd":5,"visib":3.11,"altim":1018,"clouds":[{"cover":"BKN","base":900},{"cover":"OVC","base":7000}],"obsTime":1775733300},"SBAR":{"icaoId":"SBAR","flightCategory":"VFR","rawOb":"METAR SBAR 091100Z 24005KT 210V280 9999 FEW021 28/23 Q1013","temp":28,"dewp":23,"wdir":240,"wspd":5,"visib":"6+","altim":1013,"clouds":[{"cover":"FEW","base":2100}],"obsTime":1775732400},"SBPS":{"icaoId":"SBPS","flightCategory":"VFR","rawOb":"METAR SBPS 091100Z 29003KT 9999 FEW020 27/24 Q1015","temp":27,"dewp":24,"wdir":290,"wspd":3,"visib":"6+","altim":1015,"clouds":[{"cover":"FEW","base":2000}],"obsTime":1775732400},"SBCO":{"icaoId":"SBCO","flightCategory":"VFR","rawOb":"METAR SBCO 091100Z 29007KT 9999 FEW009 18/17 Q1016","temp":18,"dewp":17,"wdir":290,"wspd":7,"visib":"6+","altim":1016,"clouds":[{"cover":"FEW","base":900}],"obsTime":1775732400},"SBSC":{"icaoId":"SBSC","flightCategory":"VFR","rawOb":"METAR SBSC 091100Z 05006KT CAVOK 28/22 Q1012","temp":28,"dewp":22,"wdir":50,"wspd":6,"visib":"6+","altim":1012,"clouds":[],"obsTime":1775732400},"SBSJ":{"icaoId":"SBSJ","flightCategory":"MVFR","rawOb":"METAR SBSJ 091100Z VRB02KT 9000 BKN030 22/20 Q1017","temp":22,"dewp":20,"wdir":"VRB","wspd":2,"visib":5.59,"altim":1017,"clouds":[{"cover":"BKN","base":3000}],"obsTime":1775732400},"SBBU":{"icaoId":"SBBU","flightCategory":"VFR","rawOb":"METAR SBBU 091100Z 30002KT 9999 FEW004 BKN045 24/21 Q1017","temp":24,"dewp":21,"wdir":300,"wspd":2,"visib":"6+","altim":1017,"clouds":[{"cover":"FEW","base":400},{"cover":"BKN","base":4500}],"obsTime":1775732400},"SBDN":{"icaoId":"SBDN","flightCategory":"VFR","rawOb":"METAR SBDN 091100Z 14002KT 9999 FEW030 SCT082 23/20 Q1017","temp":23,"dewp":20,"wdir":140,"wspd":2,"visib":"6+","altim":1017,"clouds":[{"cover":"FEW","base":3000},{"cover":"SCT","base":8200}],"obsTime":1775732400},"SBSM":{"icaoId":"SBSM","flightCategory":"MVFR","rawOb":"METAR SBSM 091100Z 27003KT 9999 FEW009 OVC023 17/16 Q1018","temp":17,"dewp":16,"wdir":270,"wspd":3,"visib":"6+","altim":1018,"clouds":[{"cover":"FEW","base":900},{"cover":"OVC","base":2300}],"obsTime":1775732400},"SBES":{"icaoId":"SBES","flightCategory":"VFR","rawOb":"METAR SBES 091100Z 00000KT CAVOK 28/// Q1011","temp":null,"dewp":null,"wdir":0,"wspd":0,"visib":"6+","altim":1011,"clouds":[],"obsTime":1775732400},"SBSR":{"icaoId":"SBSR","flightCategory":"VFR","rawOb":"METAR SBSR 091100Z 00000KT CAVOK 23/20 Q1017","temp":23,"dewp":20,"wdir":0,"wspd":0,"visib":"6+","altim":1017,"clouds":[],"obsTime":1775732400},"SBTD":{"icaoId":"SBTD","flightCategory":"LIFR","rawOb":"METAR SBTD 091100Z /////KT 2000 BR OVC001 16/16 Q1018","temp":16,"dewp":16,"wdir":null,"wspd":null,"visib":1.24,"altim":1018,"clouds":[{"cover":"OVC","base":100}],"obsTime":1775732400},"SBBH":{"icaoId":"SBBH","flightCategory":"VFR","rawOb":"METAR SBBH 091100Z 10004KT CAVOK 23/19 Q1018","temp":23,"dewp":19,"wdir":100,"wspd":4,"visib":"6+","altim":1018,"clouds":[],"obsTime":1775732400},"SBTF":{"icaoId":"SBTF","flightCategory":"VFR","rawOb":"SPECI SBTF 091115Z 16002KT 9999 SCT006 SCT009 25/25 Q1012","temp":25,"dewp":25,"wdir":160,"wspd":2,"visib":"6+","altim":1012,"clouds":[{"cover":"SCT","base":600},{"cover":"SCT","base":900}],"obsTime":1775733300},"SBTT":{"icaoId":"SBTT","flightCategory":"VFR","rawOb":"METAR SBTT 091100Z 04002KT 9999 FEW005 SCT090 24/22 Q1013","temp":24,"dewp":22,"wdir":40,"wspd":2,"visib":"6+","altim":1013,"clouds":[{"cover":"FEW","base":500},{"cover":"SCT","base":9000}],"obsTime":1775732400},"SBGM":{"icaoId":"SBGM","flightCategory":"MVFR","rawOb":"METAR SBGM 091200Z 00000KT 9999 OVC016 24/22 Q1014","temp":24,"dewp":22,"wdir":0,"wspd":0,"visib":"6+","altim":1014,"clouds":[{"cover":"OVC","base":1600}],"obsTime":1775736000},"SBCA":{"icaoId":"SBCA","flightCategory":"LIFR","rawOb":"METAR SBCA 091100Z 16009KT 2000 BR BCFG OVC001 15/15 Q1019","temp":15,"dewp":15,"wdir":160,"wspd":9,"visib":1.24,"altim":1019,"clouds":[{"cover":"OVC","base":100}],"obsTime":1775732400},"SBUY":{"icaoId":"SBUY","flightCategory":"IFR","rawOb":"METAR SBUY 091100Z 24002KT 6000 SCT004 BKN006 BKN070 24/23 Q1011","temp":24,"dewp":23,"wdir":240,"wspd":2,"visib":3.73,"altim":1011,"clouds":[{"cover":"SCT","base":400},{"cover":"BKN","base":600},{"cover":"BKN","base":7000}],"obsTime":1775732400},"SBIP":{"icaoId":"SBIP","flightCategory":"VFR","rawOb":"METAR SBIP 091100Z AUTO VRB02KT CAVOK 25/22 Q1015","temp":25,"dewp":22,"wdir":"VRB","wspd":2,"visib":"6+","altim":1015,"clouds":[],"obsTime":1775732400},"SBVH":{"icaoId":"SBVH","flightCategory":"VFR","rawOb":"METAR SBVH 091100Z 11005KT CAVOK 22/21 Q1015","temp":22,"dewp":21,"wdir":110,"wspd":5,"visib":"6+","altim":1015,"clouds":[],"obsTime":1775732400},"SBAX":{"icaoId":"SBAX","flightCategory":"VFR","rawOb":"METAR SBAX 091100Z 23006KT 9999 SCT045 SCT100 20/19 Q1019","temp":20,"dewp":19,"wdir":230,"wspd":6,"visib":"6+","altim":1019,"clouds":[{"cover":"SCT","base":4500},{"cover":"SCT","base":10000}],"obsTime":1775732400},"SBKG":{"icaoId":"SBKG","flightCategory":"IFR","rawOb":"METAR SBKG 091100Z 19005KT 9999 BKN008 23/21 Q1015","temp":23,"dewp":21,"wdir":190,"wspd":5,"visib":"6+","altim":1015,"clouds":[{"cover":"BKN","base":800}],"obsTime":1775732400},"SBCC":{"icaoId":"SBCC","flightCategory":"VFR","rawOb":"METAR SBCC 091100Z 01004KT 9999 FEW020 SCT100 24/21 Q1016","temp":24,"dewp":21,"wdir":10,"wspd":4,"visib":"6+","altim":1016,"clouds":[{"cover":"FEW","base":2000},{"cover":"SCT","base":10000}],"obsTime":1775732400},"SBPF":{"icaoId":"SBPF","flightCategory":"LIFR","rawOb":"METAR SBPF 091100Z 27010KT 9999 BKN004 17/16 Q1019","temp":17,"dewp":16,"wdir":270,"wspd":10,"visib":"6+","altim":1019,"clouds":[{"cover":"BKN","base":400}],"obsTime":1775732400},"SBGW":{"icaoId":"SBGW","flightCategory":"VFR","rawOb":"METAR SBGW 091100Z 28002KT 9999 FEW010 22/18 Q1016","temp":22,"dewp":18,"wdir":280,"wspd":2,"visib":"6+","altim":1016,"clouds":[{"cover":"FEW","base":1000}],"obsTime":1775732400},"SBJR":{"icaoId":"SBJR","flightCategory":"VFR","rawOb":"METAR SBJR 091100Z 02002KT CAVOK 32/22 Q1011","temp":32,"dewp":22,"wdir":20,"wspd":2,"visib":"6+","altim":1011,"clouds":[],"obsTime":1775732400},"SBAN":{"icaoId":"SBAN","flightCategory":"VFR","rawOb":"METAR SBAN 091100Z 11005KT 9999 FEW030 BKN100 21/18 Q1020","temp":21,"dewp":18,"wdir":110,"wspd":5,"visib":"6+","altim":1020,"clouds":[{"cover":"FEW","base":3000},{"cover":"BKN","base":10000}],"obsTime":1775732400},"SBLE":{"icaoId":"SBLE","flightCategory":"VFR","rawOb":"METAR SBLE 091200Z AUTO VRB03KT 9999 FEW022 25/21 Q1018","temp":25,"dewp":21,"wdir":"VRB","wspd":3,"visib":"6+","altim":1018,"clouds":[{"cover":"FEW","base":2200}],"obsTime":1775736000},"SBIH":{"icaoId":"SBIH","flightCategory":"VFR","rawOb":"METAR SBIH 091100Z 31002KT 9999 FEW007 BKN100 23/23 Q1013","temp":23,"dewp":23,"wdir":310,"wspd":2,"visib":"6+","altim":1013,"clouds":[{"cover":"FEW","base":700},{"cover":"BKN","base":10000}],"obsTime":1775732400},"SBLS":{"icaoId":"SBLS","flightCategory":"VFR","rawOb":"METAR SBLS 091100Z 19003KT 130V210 CAVOK 22/19 Q1018","temp":22,"dewp":19,"wdir":190,"wspd":3,"visib":"6+","altim":1018,"clouds":[],"obsTime":1775732400},"SBMT":{"icaoId":"SBMT","flightCategory":"VFR","rawOb":"METAR SBMT 091100Z 26007KT 9999 SCT030 23/19 Q1017","temp":23,"dewp":19,"wdir":260,"wspd":7,"visib":"6+","altim":1017,"clouds":[{"cover":"SCT","base":3000}],"obsTime":1775732400},"SBST":{"icaoId":"SBST","flightCategory":"VFR","rawOb":"METAR SBST 091100Z 27005KT 9999 FEW047 26/19 Q1013","temp":26,"dewp":19,"wdir":270,"wspd":5,"visib":"6+","altim":1013,"clouds":[{"cover":"FEW","base":4700}],"obsTime":1775732400},"SBTA":{"icaoId":"SBTA","flightCategory":"VFR","rawOb":"METAR SBTA 091100Z 00000KT 9999 FEW015 BKN060 22/21 Q1016","temp":22,"dewp":21,"wdir":0,"wspd":0,"visib":"6+","altim":1016,"clouds":[{"cover":"FEW","base":1500},{"cover":"BKN","base":6000}],"obsTime":1775732400},"SBJV":{"icaoId":"SBJV","flightCategory":"VFR","rawOb":"METAR SBJV 091100Z 32005KT CAVOK 22/17 Q1014","temp":22,"dewp":17,"wdir":320,"wspd":5,"visib":"6+","altim":1014,"clouds":[],"obsTime":1775732400},"SBNM":{"icaoId":"SBNM","flightCategory":"VFR","rawOb":"METAR SBNM 091200Z 24002KT 9999 SCT004 19/17 Q1019","temp":19,"dewp":17,"wdir":240,"wspd":2,"visib":"6+","altim":1019,"clouds":[{"cover":"SCT","base":400}],"obsTime":1775736000},"SBJP":{"icaoId":"SBJP","flightCategory":"VFR","rawOb":"METAR SBJP 091100Z 24006KT 9999 FEW020 BKN070 26/24 Q1013","temp":26,"dewp":24,"wdir":240,"wspd":6,"visib":"6+","altim":1013,"clouds":[{"cover":"FEW","base":2000},{"cover":"BKN","base":7000}],"obsTime":1775732400},"SBAF":{"icaoId":"SBAF","flightCategory":"VFR","rawOb":"METAR SBAF 091100Z 28006KT CAVOK 30/21 Q1011","temp":30,"dewp":21,"wdir":280,"wspd":6,"visib":"6+","altim":1011,"clouds":[],"obsTime":1775732400}}}