{"updated":1778335853,"count":86,"data":{"SBBR":{"icaoId":"SBBR","flightCategory":"VFR","rawOb":"METAR SBBR 091300Z 09006KT 040V120 CAVOK 24/16 Q1022","temp":24,"dewp":16,"wdir":90,"wspd":6,"visib":"6+","altim":1022,"clouds":[],"obsTime":1778331600},"SBLO":{"icaoId":"SBLO","flightCategory":"LIFR","rawOb":"SPECI SBLO 091240Z 18004KT 3000 TSRA BKN002 FEW030CB OVC090 19/19 Q1016","temp":19,"dewp":19,"wdir":180,"wspd":4,"visib":1.86,"altim":1016,"clouds":[{"cover":"BKN","base":200},{"cover":"FEW","base":3000},{"cover":"OVC","base":9000}],"obsTime":1778330400},"SBVT":{"icaoId":"SBVT","flightCategory":"VFR","rawOb":"METAR SBVT 091300Z 01010KT 9999 VCSH SCT005 SCT030 BKN045 27/24 Q1018","temp":27,"dewp":24,"wdir":10,"wspd":10,"visib":"6+","altim":1018,"clouds":[{"cover":"SCT","base":500},{"cover":"SCT","base":3000},{"cover":"BKN","base":4500}],"obsTime":1778331600},"SBCZ":{"icaoId":"SBCZ","flightCategory":"MVFR","rawOb":"METAR SBCZ 091300Z 36004KT 9999 BKN015 BKN100 26/24 Q1013","temp":26,"dewp":24,"wdir":360,"wspd":4,"visib":"6+","altim":1013,"clouds":[{"cover":"BKN","base":1500},{"cover":"BKN","base":10000}],"obsTime":1778331600},"SBMA":{"icaoId":"SBMA","flightCategory":"VFR","rawOb":"METAR SBMA 091300Z 33003KT 9999 FEW030 SCT100 29/23 Q1013","temp":29,"dewp":23,"wdir":330,"wspd":3,"visib":"6+","altim":1013,"clouds":[{"cover":"FEW","base":3000},{"cover":"SCT","base":10000}],"obsTime":1778331600},"SBCF":{"icaoId":"SBCF","flightCategory":"VFR","rawOb":"METAR SBCF 091300Z 06007KT 9999 FEW025 25/18 Q1022","temp":25,"dewp":18,"wdir":60,"wspd":7,"visib":"6+","altim":1022,"clouds":[{"cover":"FEW","base":2500}],"obsTime":1778331600},"SBME":{"icaoId":"SBME","flightCategory":"VFR","rawOb":"METAR SBME 091300Z 05010KT CAVOK 31/21 Q1016","temp":31,"dewp":21,"wdir":50,"wspd":10,"visib":"6+","altim":1016,"clouds":[],"obsTime":1778331600},"SBEG":{"icaoId":"SBEG","flightCategory":"VFR","rawOb":"METAR SBEG 091300Z 05004KT 9999 FEW012 28/25 Q1013","temp":28,"dewp":25,"wdir":50,"wspd":4,"visib":"6+","altim":1013,"clouds":[{"cover":"FEW","base":1200}],"obsTime":1778331600},"SBMG":{"icaoId":"SBMG","flightCategory":"LIFR","rawOb":"METAR SBMG 091300Z 29006KT 2500 -RA BR BKN002 OVC007 15/15 Q1014 RETS","temp":15,"dewp":15,"wdir":290,"wspd":6,"visib":1.55,"altim":1014,"clouds":[{"cover":"BKN","base":200},{"cover":"OVC","base":700}],"obsTime":1778331600},"SBCT":{"icaoId":"SBCT","flightCategory":"LIFR","rawOb":"METAR SBCT 091300Z 06006KT 4000 -RA BR BKN003 OVC010 15/15 Q1017 RERA","temp":15,"dewp":15,"wdir":60,"wspd":6,"visib":2.49,"altim":1017,"clouds":[{"cover":"BKN","base":300},{"cover":"OVC","base":1000}],"obsTime":1778331600},"SBCB":{"icaoId":"SBCB","flightCategory":"VFR","rawOb":"METAR SBCB 091300Z 03017KT CAVOK 29/21 Q1015","temp":29,"dewp":21,"wdir":30,"wspd":17,"visib":"6+","altim":1015,"clouds":[],"obsTime":1778331600},"SBKP":{"icaoId":"SBKP","flightCategory":"VFR","rawOb":"METAR SBKP 091300Z 01009KT 9999 SCT040 BKN080 24/17 Q1018","temp":24,"dewp":17,"wdir":10,"wspd":9,"visib":"6+","altim":1018,"clouds":[{"cover":"SCT","base":4000},{"cover":"BKN","base":8000}],"obsTime":1778331600},"SBMK":{"icaoId":"SBMK","flightCategory":"VFR","rawOb":"METAR SBMK 091300Z 04008KT CAVOK 25/17 Q1021","temp":25,"dewp":17,"wdir":40,"wspd":8,"visib":"6+","altim":1021,"clouds":[],"obsTime":1778331600},"SBFI":{"icaoId":"SBFI","flightCategory":"VFR","rawOb":"METAR SBFI 091300Z 18008KT 9999 FEW030 BKN090 13/09 Q1019","temp":13,"dewp":9,"wdir":180,"wspd":8,"visib":"6+","altim":1019,"clouds":[{"cover":"FEW","base":3000},{"cover":"BKN","base":9000}],"obsTime":1778331600},"SBMO":{"icaoId":"SBMO","flightCategory":"IFR","rawOb":"SPECI SBMO 091223Z 11013KT 2500 SHRA BR SCT009 BKN016 OVC080 26/25 Q1014","temp":26,"dewp":25,"wdir":110,"wspd":13,"visib":1.55,"altim":1014,"clouds":[{"cover":"SCT","base":900},{"cover":"BKN","base":1600},{"cover":"OVC","base":8000}],"obsTime":1778329380},"SBUR":{"icaoId":"SBUR","flightCategory":"VFR","rawOb":"METAR SBUR 091300Z 01014KT CAVOK 25/17 Q1020","temp":25,"dewp":17,"wdir":10,"wspd":14,"visib":"6+","altim":1020,"clouds":[],"obsTime":1778331600},"SBCG":{"icaoId":"SBCG","flightCategory":"LIFR","rawOb":"METAR SBCG 091300Z 15005KT 2000 BR OVC002 15/15 Q1016","temp":15,"dewp":15,"wdir":150,"wspd":5,"visib":1.24,"altim":1016,"clouds":[{"cover":"OVC","base":200}],"obsTime":1778331600},"SBMQ":{"icaoId":"SBMQ","flightCategory":"VFR","rawOb":"METAR SBMQ 091300Z 32003KT 9999 SCT015 28/25 Q1013","temp":28,"dewp":25,"wdir":320,"wspd":3,"visib":"6+","altim":1013,"clouds":[{"cover":"SCT","base":1500}],"obsTime":1778331600},"SBFL":{"icaoId":"SBFL","flightCategory":"VFR","rawOb":"METAR SBFL 091300Z 18008KT 9999 SCT040 BKN080 18/15 Q1015","temp":18,"dewp":15,"wdir":180,"wspd":8,"visib":"6+","altim":1015,"clouds":[{"cover":"SCT","base":4000},{"cover":"BKN","base":8000}],"obsTime":1778331600},"SBNT":{"icaoId":"SBNT","flightCategory":"VFR","rawOb":"METAR SBNT 091300Z 15006KT 120V180 9999 SCT017 BKN039 BKN100 29/25 Q1013","temp":29,"dewp":25,"wdir":150,"wspd":6,"visib":"6+","altim":1013,"clouds":[{"cover":"SCT","base":1700},{"cover":"BKN","base":3900},{"cover":"BKN","base":10000}],"obsTime":1778331600},"SBBE":{"icaoId":"SBBE","flightCategory":"VFR","rawOb":"METAR SBBE 091300Z 10007KT 9999 SCT020 29/24 Q1013","temp":29,"dewp":24,"wdir":100,"wspd":7,"visib":"6+","altim":1013,"clouds":[{"cover":"SCT","base":2000}],"obsTime":1778331600},"SBPA":{"icaoId":"SBPA","flightCategory":"VFR","rawOb":"METAR SBPA 091300Z 29011KT CAVOK 14/04 Q1017","temp":14,"dewp":4,"wdir":290,"wspd":11,"visib":"6+","altim":1017,"clouds":[],"obsTime":1778331600},"SBFZ":{"icaoId":"SBFZ","flightCategory":"MVFR","rawOb":"METAR SBFZ 091300Z 16010KT 9999 BKN018 SCT060 29/24 Q1013","temp":29,"dewp":24,"wdir":160,"wspd":10,"visib":"6+","altim":1013,"clouds":[{"cover":"BKN","base":1800},{"cover":"SCT","base":6000}],"obsTime":1778331600},"SBPJ":{"icaoId":"SBPJ","flightCategory":"VFR","rawOb":"METAR SBPJ 091300Z 30004KT CAVOK 30/24 Q1015","temp":30,"dewp":24,"wdir":300,"wspd":4,"visib":"6+","altim":1015,"clouds":[],"obsTime":1778331600},"SBPV":{"icaoId":"SBPV","flightCategory":"VFR","rawOb":"METAR SBPV 091300Z 01005KT 9999 FEW017 SCT035 27/24 Q1012","temp":27,"dewp":24,"wdir":10,"wspd":5,"visib":"6+","altim":1012,"clouds":[{"cover":"FEW","base":1700},{"cover":"SCT","base":3500}],"obsTime":1778331600},"SBBV":{"icaoId":"SBBV","flightCategory":"VFR","rawOb":"METAR SBBV 091300Z 09016KT 9999 FEW030 SCT090 29/21 Q1014","temp":29,"dewp":21,"wdir":90,"wspd":16,"visib":"6+","altim":1014,"clouds":[{"cover":"FEW","base":3000},{"cover":"SCT","base":9000}],"obsTime":1778331600},"SBGL":{"icaoId":"SBGL","flightCategory":"VFR","rawOb":"METAR SBGL 091300Z 35010KT 320V030 CAVOK 33/19 Q1014","temp":33,"dewp":19,"wdir":350,"wspd":10,"visib":"6+","altim":1014,"clouds":[],"obsTime":1778331600},"SBRB":{"icaoId":"SBRB","flightCategory":"VFR","rawOb":"METAR SBRB 091300Z 34006KT 9999 FEW005 SCT080 26/24 Q1013","temp":26,"dewp":24,"wdir":340,"wspd":6,"visib":"6+","altim":1013,"clouds":[{"cover":"FEW","base":500},{"cover":"SCT","base":8000}],"obsTime":1778331600},"SBGO":{"icaoId":"SBGO","flightCategory":"VFR","rawOb":"METAR SBGO 091300Z 34004KT CAVOK 27/18 Q1020","temp":27,"dewp":18,"wdir":340,"wspd":4,"visib":"6+","altim":1020,"clouds":[],"obsTime":1778331600},"SBRF":{"icaoId":"SBRF","flightCategory":"VFR","rawOb":"METAR SBRF 091300Z 13009KT 9999 SCT020 FEW025TCU 29/25 Q1013","temp":29,"dewp":25,"wdir":130,"wspd":9,"visib":"6+","altim":1013,"clouds":[{"cover":"SCT","base":2000},{"cover":"FEW","base":2500}],"obsTime":1778331600},"SBCP":{"icaoId":"SBCP","flightCategory":"VFR","rawOb":"METAR SBCP 091300Z 06004KT 9999 FEW020 30/22 Q1017","temp":30,"dewp":22,"wdir":60,"wspd":4,"visib":"6+","altim":1017,"clouds":[{"cover":"FEW","base":2000}],"obsTime":1778331600},"SBSG":{"icaoId":"SBSG","flightCategory":"MVFR","rawOb":"METAR SBSG 091300Z 15006KT 090V180 9999 VCSH BKN017 FEW030TCU 28/24 Q1013","temp":28,"dewp":24,"wdir":150,"wspd":6,"visib":"6+","altim":1013,"clouds":[{"cover":"BKN","base":1700},{"cover":"FEW","base":3000}],"obsTime":1778331600},"SBAT":{"icaoId":"SBAT","flightCategory":"VFR","rawOb":"METAR SBAT 091300Z 00000KT CAVOK 30/24 Q1014","temp":30,"dewp":24,"wdir":0,"wspd":0,"visib":"6+","altim":1014,"clouds":[],"obsTime":1778331600},"SBSL":{"icaoId":"SBSL","flightCategory":"MVFR","rawOb":"METAR SBSL 091300Z 09010KT 9999 BKN017 29/25 Q1012","temp":29,"dewp":25,"wdir":90,"wspd":10,"visib":"6+","altim":1012,"clouds":[{"cover":"BKN","base":1700}],"obsTime":1778331600},"SBGR":{"icaoId":"SBGR","flightCategory":"VFR","rawOb":"METAR SBGR 091300Z 02006KT CAVOK 25/17 Q1018","temp":25,"dewp":17,"wdir":20,"wspd":6,"visib":"6+","altim":1018,"clouds":[],"obsTime":1778331600},"SBSN":{"icaoId":"SBSN","flightCategory":"VFR","rawOb":"METAR SBSN 091300Z 07009KT 9999 SCT017 29/24 Q1013","temp":29,"dewp":24,"wdir":70,"wspd":9,"visib":"6+","altim":1013,"clouds":[{"cover":"SCT","base":1700}],"obsTime":1778331600},"SBCR":{"icaoId":"SBCR","flightCategory":"IFR","rawOb":"METAR SBCR 091300Z 26003KT 230V290 9999 OVC005 18/18 Q1014","temp":18,"dewp":18,"wdir":260,"wspd":3,"visib":"6+","altim":1014,"clouds":[{"cover":"OVC","base":500}],"obsTime":1778331600},"SBSP":{"icaoId":"SBSP","flightCategory":"VFR","rawOb":"METAR SBSP 091300Z 32008KT 280V340 9999 FEW017 BKN100 23/16 Q1019","temp":23,"dewp":16,"wdir":320,"wspd":8,"visib":"6+","altim":1019,"clouds":[{"cover":"FEW","base":1700},{"cover":"BKN","base":10000}],"obsTime":1778331600},"SBHT":{"icaoId":"SBHT","flightCategory":"VFR","rawOb":"METAR SBHT 091300Z 06003KT 9999 SCT015 BKN090 27/23 Q1014","temp":27,"dewp":23,"wdir":60,"wspd":3,"visib":"6+","altim":1014,"clouds":[{"cover":"SCT","base":1500},{"cover":"BKN","base":9000}],"obsTime":1778331600},"SBSV":{"icaoId":"SBSV","flightCategory":"VFR","rawOb":"METAR SBSV 091300Z 17006KT 120V200 9999 SCT013 SCT025 27/24 Q1016","temp":27,"dewp":24,"wdir":170,"wspd":6,"visib":"6+","altim":1016,"clouds":[{"cover":"SCT","base":1300},{"cover":"SCT","base":2500}],"obsTime":1778331600},"SBTE":{"icaoId":"SBTE","flightCategory":"VFR","rawOb":"METAR SBTE 091300Z 12008KT 9999 SCT025 SCT090 30/23 Q1013","temp":30,"dewp":23,"wdir":120,"wspd":8,"visib":"6+","altim":1013,"clouds":[{"cover":"SCT","base":2500},{"cover":"SCT","base":9000}],"obsTime":1778331600},"SBIL":{"icaoId":"SBIL","flightCategory":"VFR","rawOb":"METAR SBIL 091300Z 13009KT 100V160 9999 SCT020 30/24 Q1018","temp":30,"dewp":24,"wdir":130,"wspd":9,"visib":"6+","altim":1018,"clouds":[{"cover":"SCT","base":2000}],"obsTime":1778331600},"SBUL":{"icaoId":"SBUL","flightCategory":"VFR","rawOb":"METAR SBUL 091300Z 07010KT CAVOK 24/16 Q1021","temp":24,"dewp":16,"wdir":70,"wspd":10,"visib":"6+","altim":1021,"clouds":[],"obsTime":1778331600},"SBJU":{"icaoId":"SBJU","flightCategory":"VFR","rawOb":"METAR SBJU 091300Z 12011KT 9999 FEW022 28/22 Q1016","temp":28,"dewp":22,"wdir":120,"wspd":11,"visib":"6+","altim":1016,"clouds":[{"cover":"FEW","base":2200}],"obsTime":1778331600},"SBOI":{"icaoId":"SBOI","flightCategory":"VFR","rawOb":"SPECI SBOI 091211Z AUTO VRB02KT 9999 -RA FEW005 SCT017 OVC046 25/24 Q1014","temp":25,"dewp":24,"wdir":"VRB","wspd":2,"visib":"6+","altim":1014,"clouds":[{"cover":"FEW","base":500},{"cover":"SCT","base":1700},{"cover":"OVC","base":4600}],"obsTime":1778328660},"SBUY":{"icaoId":"SBUY","flightCategory":"VFR","rawOb":"METAR SBUY 091300Z 12007KT 9999 FEW009 27/24 Q1011","temp":27,"dewp":24,"wdir":120,"wspd":7,"visib":"6+","altim":1011,"clouds":[{"cover":"FEW","base":900}],"obsTime":1778331600},"SBPB":{"icaoId":"SBPB","flightCategory":"VFR","rawOb":"METAR SBPB 091300Z 07015KT 9999 SCT020 30/25 Q1013","temp":30,"dewp":25,"wdir":70,"wspd":15,"visib":"6+","altim":1013,"clouds":[{"cover":"SCT","base":2000}],"obsTime":1778331600},"SBCJ":{"icaoId":"SBCJ","flightCategory":"VFR","rawOb":"METAR SBCJ 091300Z 00000KT CAVOK 27/21 Q1018","temp":27,"dewp":21,"wdir":0,"wspd":0,"visib":"6+","altim":1018,"clouds":[],"obsTime":1778331600},"SBKG":{"icaoId":"SBKG","flightCategory":"VFR","rawOb":"METAR SBKG 091300Z 10007KT 9999 SCT020 26/22 Q1016","temp":26,"dewp":22,"wdir":100,"wspd":7,"visib":"6+","altim":1016,"clouds":[{"cover":"SCT","base":2000}],"obsTime":1778331600},"SBCC":{"icaoId":"SBCC","flightCategory":"VFR","rawOb":"METAR SBCC 091300Z COR 03009KT 360V080 9999 SCT025 29/22 Q1016","temp":29,"dewp":22,"wdir":30,"wspd":9,"visib":"6+","altim":1016,"clouds":[{"cover":"SCT","base":2500}],"obsTime":1778331600},"SBPL":{"icaoId":"SBPL","flightCategory":"MVFR","rawOb":"METAR SBPL 091300Z 12010KT 9999 BKN025 29/20 Q1017","temp":29,"dewp":20,"wdir":120,"wspd":10,"visib":"6+","altim":1017,"clouds":[{"cover":"BKN","base":2500}],"obsTime":1778331600},"SBVH":{"icaoId":"SBVH","flightCategory":"VFR","rawOb":"METAR SBVH 091300Z 34009KT CAVOK 26/22 Q1016","temp":26,"dewp":22,"wdir":340,"wspd":9,"visib":"6+","altim":1016,"clouds":[],"obsTime":1778331600},"SBPP":{"icaoId":"SBPP","flightCategory":"IFR","rawOb":"METAR SBPP 091300Z 19010KT 4000 BR OVC010 11/10 Q1018","temp":11,"dewp":10,"wdir":190,"wspd":10,"visib":2.49,"altim":1018,"clouds":[{"cover":"OVC","base":1000}],"obsTime":1778331600},"SBBQ":{"icaoId":"SBBQ","flightCategory":"VFR","rawOb":"METAR SBBQ 091300Z 35006KT CAVOK 23/16 Q1024","temp":23,"dewp":16,"wdir":350,"wspd":6,"visib":"6+","altim":1024,"clouds":[],"obsTime":1778331600},"SBPS":{"icaoId":"SBPS","flightCategory":"VFR","rawOb":"METAR SBPS 091300Z 07011KT 9999 SCT025 28/22 Q1019","temp":28,"dewp":22,"wdir":70,"wspd":11,"visib":"6+","altim":1019,"clouds":[{"cover":"SCT","base":2500}],"obsTime":1778331600},"SBCO":{"icaoId":"SBCO","flightCategory":"VFR","rawOb":"METAR SBCO 091300Z 29012KT 270V330 CAVOK 14/04 Q1017","temp":14,"dewp":4,"wdir":290,"wspd":12,"visib":"6+","altim":1017,"clouds":[],"obsTime":1778331600},"SBSC":{"icaoId":"SBSC","flightCategory":"VFR","rawOb":"METAR SBSC 091300Z 36007KT CAVOK 30/20 Q1015","temp":30,"dewp":20,"wdir":360,"wspd":7,"visib":"6+","altim":1015,"clouds":[],"obsTime":1778331600},"SBAU":{"icaoId":"SBAU","flightCategory":"VFR","rawOb":"METAR SBAU 091300Z 36010KT 9999 SCT040 29/19 Q1015","temp":29,"dewp":19,"wdir":360,"wspd":10,"visib":"6+","altim":1015,"clouds":[{"cover":"SCT","base":4000}],"obsTime":1778331600},"SBSJ":{"icaoId":"SBSJ","flightCategory":"VFR","rawOb":"METAR SBSJ 091300Z 36010KT 310V050 CAVOK 25/16 Q1018","temp":25,"dewp":16,"wdir":360,"wspd":10,"visib":"6+","altim":1018,"clouds":[],"obsTime":1778331600},"SBDN":{"icaoId":"SBDN","flightCategory":"IFR","rawOb":"METAR SBDN 091300Z 04004KT 9999 -RA BKN005 BKN049 BKN083 21/19 Q1015","temp":21,"dewp":19,"wdir":40,"wspd":4,"visib":"6+","altim":1015,"clouds":[{"cover":"BKN","base":500},{"cover":"BKN","base":4900},{"cover":"BKN","base":8300}],"obsTime":1778331600},"SBSM":{"icaoId":"SBSM","flightCategory":"VFR","rawOb":"METAR SBSM 091300Z 31008KT CAVOK 14/M02 Q1018","temp":14,"dewp":-2,"wdir":310,"wspd":8,"visib":"6+","altim":1018,"clouds":[],"obsTime":1778331600},"SBBU":{"icaoId":"SBBU","flightCategory":"VFR","rawOb":"METAR SBBU 091300Z 01012KT CAVOK 27/19 Q1017","temp":27,"dewp":19,"wdir":10,"wspd":12,"visib":"6+","altim":1017,"clouds":[],"obsTime":1778331600},"SBSR":{"icaoId":"SBSR","flightCategory":"VFR","rawOb":"METAR SBSR 091300Z VRB11KT 9999 FEW040 28/16 Q1017","temp":28,"dewp":16,"wdir":"VRB","wspd":11,"visib":"6+","altim":1017,"clouds":[{"cover":"FEW","base":4000}],"obsTime":1778331600},"SBES":{"icaoId":"SBES","flightCategory":"VFR","rawOb":"METAR SBES 091300Z VRB10KT 9999 FEW030 SCT080 28/// Q1016","temp":null,"dewp":null,"wdir":"VRB","wspd":10,"visib":"6+","altim":1016,"clouds":[{"cover":"FEW","base":3000},{"cover":"SCT","base":8000}],"obsTime":1778331600},"SBTF":{"icaoId":"SBTF","flightCategory":"VFR","rawOb":"METAR SBTF 091300Z 12003KT 9999 FEW010 BKN090 27/25 Q1012","temp":27,"dewp":25,"wdir":120,"wspd":3,"visib":"6+","altim":1012,"clouds":[{"cover":"FEW","base":1000},{"cover":"BKN","base":9000}],"obsTime":1778331600},"SBBH":{"icaoId":"SBBH","flightCategory":"VFR","rawOb":"METAR SBBH 091300Z 09005KT 9999 SCT035 25/17 Q1022","temp":25,"dewp":17,"wdir":90,"wspd":5,"visib":"6+","altim":1022,"clouds":[{"cover":"SCT","base":3500}],"obsTime":1778331600},"SBTT":{"icaoId":"SBTT","flightCategory":"VFR","rawOb":"METAR SBTT 091300Z VRB02KT 9999 FEW007 26/22 Q1013","temp":26,"dewp":22,"wdir":"VRB","wspd":2,"visib":"6+","altim":1013,"clouds":[{"cover":"FEW","base":700}],"obsTime":1778331600},"SBGM":{"icaoId":"SBGM","flightCategory":"VFR","rawOb":"METAR SBGM 091300Z 30006KT 9999 FEW026 27/24 Q1012","temp":27,"dewp":24,"wdir":300,"wspd":6,"visib":"6+","altim":1012,"clouds":[{"cover":"FEW","base":2600}],"obsTime":1778331600},"SBTU":{"icaoId":"SBTU","flightCategory":"VFR","rawOb":"METAR SBTU 091300Z AUTO 19004KT 140V220 9999 // ///////// ///// Q1015","temp":null,"dewp":null,"wdir":190,"wspd":4,"visib":"6+","altim":1015,"clouds":[],"obsTime":1778331600},"SBCA":{"icaoId":"SBCA","flightCategory":"VFR","rawOb":"METAR SBCA 091300Z 16012KT 9999 -RA SCT007 SCT025 BKN080 10/09 Q1018","temp":10,"dewp":9,"wdir":160,"wspd":12,"visib":"6+","altim":1018,"clouds":[{"cover":"SCT","base":700},{"cover":"SCT","base":2500},{"cover":"BKN","base":8000}],"obsTime":1778331600},"SBIP":{"icaoId":"SBIP","flightCategory":"VFR","rawOb":"METAR SBIP 091300Z AUTO 01009KT 340V040 9999 SCT022 28/20 Q1019","temp":28,"dewp":20,"wdir":10,"wspd":9,"visib":"6+","altim":1019,"clouds":[{"cover":"SCT","base":2200}],"obsTime":1778331600},"SBAR":{"icaoId":"SBAR","flightCategory":"IFR","rawOb":"SPECI SBAR 091212Z 11013G24KT 2000 SHRA BKN011 SCT025 FEW026TCU BKN040 26/24 Q1015","temp":26,"dewp":24,"wdir":110,"wspd":13,"visib":1.24,"altim":1015,"clouds":[{"cover":"BKN","base":1100},{"cover":"SCT","base":2500},{"cover":"FEW","base":2600},{"cover":"BKN","base":4000}],"obsTime":1778328720},"SBJP":{"icaoId":"SBJP","flightCategory":"VFR","rawOb":"METAR SBJP 091300Z 18008KT 9999 SCT020 28/25 Q1013","temp":28,"dewp":25,"wdir":180,"wspd":8,"visib":"6+","altim":1013,"clouds":[{"cover":"SCT","base":2000}],"obsTime":1778331600},"SBJV":{"icaoId":"SBJV","flightCategory":"IFR","rawOb":"METAR SBJV 091300Z 11003KT 3000 -RA BKN040 OVC070 15/14 Q1016","temp":15,"dewp":14,"wdir":110,"wspd":3,"visib":1.86,"altim":1016,"clouds":[{"cover":"BKN","base":4000},{"cover":"OVC","base":7000}],"obsTime":1778331600},"SBNM":{"icaoId":"SBNM","flightCategory":"VFR","rawOb":"METAR SBNM 091300Z AUTO VRB02KT CAVOK 10/06 Q1021","temp":10,"dewp":6,"wdir":"VRB","wspd":2,"visib":"6+","altim":1021,"clouds":[],"obsTime":1778331600},"SBPF":{"icaoId":"SBPF","flightCategory":"VFR","rawOb":"SPECI SBPF 091305Z 19005KT CAVOK 08/01 Q1019","temp":8,"dewp":1,"wdir":190,"wspd":5,"visib":"6+","altim":1019,"clouds":[],"obsTime":1778331900},"SBAN":{"icaoId":"SBAN","flightCategory":"VFR","rawOb":"METAR SBAN 091300Z 14012KT CAVOK 24/16 Q1022","temp":24,"dewp":16,"wdir":140,"wspd":12,"visib":"6+","altim":1022,"clouds":[],"obsTime":1778331600},"SBLE":{"icaoId":"SBLE","flightCategory":"MVFR","rawOb":"METAR SBLE 091300Z AUTO 14004KT 110V210 9999 FEW019 BKN023 BKN035 24/20 Q1020","temp":24,"dewp":20,"wdir":140,"wspd":4,"visib":"6+","altim":1020,"clouds":[{"cover":"FEW","base":1900},{"cover":"BKN","base":2300},{"cover":"BKN","base":3500}],"obsTime":1778331600},"SBIH":{"icaoId":"SBIH","flightCategory":"MVFR","rawOb":"METAR SBIH 091300Z COR 05007KT 9999 SCT012 BKN015 28/25 Q1013","temp":28,"dewp":25,"wdir":50,"wspd":7,"visib":"6+","altim":1013,"clouds":[{"cover":"SCT","base":1200},{"cover":"BKN","base":1500}],"obsTime":1778331600},"SBAF":{"icaoId":"SBAF","flightCategory":"VFR","rawOb":"METAR SBAF 091300Z 36007KT CAVOK 31/19 Q1015","temp":31,"dewp":19,"wdir":360,"wspd":7,"visib":"6+","altim":1015,"clouds":[],"obsTime":1778331600},"SBGW":{"icaoId":"SBGW","flightCategory":"VFR","rawOb":"METAR SBGW 091300Z 07009KT 040V130 9999 FEW015 BKN100 27/15 Q1017","temp":27,"dewp":15,"wdir":70,"wspd":9,"visib":"6+","altim":1017,"clouds":[{"cover":"FEW","base":1500},{"cover":"BKN","base":10000}],"obsTime":1778331600},"SBJR":{"icaoId":"SBJR","flightCategory":"VFR","rawOb":"METAR SBJR 091300Z 36008KT CAVOK 31/18 Q1014","temp":31,"dewp":18,"wdir":360,"wspd":8,"visib":"6+","altim":1014,"clouds":[],"obsTime":1778331600},"SBLS":{"icaoId":"SBLS","flightCategory":"VFR","rawOb":"METAR SBLS 091300Z 07005KT 350V100 9999 FEW027 25/17 Q1022","temp":25,"dewp":17,"wdir":70,"wspd":5,"visib":"6+","altim":1022,"clouds":[{"cover":"FEW","base":2700}],"obsTime":1778331600},"SBMT":{"icaoId":"SBMT","flightCategory":"VFR","rawOb":"METAR SBMT 091300Z 29003KT 190V360 CAVOK 24/16 Q1018","temp":24,"dewp":16,"wdir":290,"wspd":3,"visib":"6+","altim":1018,"clouds":[],"obsTime":1778331600},"SBST":{"icaoId":"SBST","flightCategory":"VFR","rawOb":"METAR SBST 091300Z 09002KT 9999 SCT012 24/22 Q1014","temp":24,"dewp":22,"wdir":90,"wspd":2,"visib":"6+","altim":1014,"clouds":[{"cover":"SCT","base":1200}],"obsTime":1778331600},"SBTA":{"icaoId":"SBTA","flightCategory":"VFR","rawOb":"METAR SBTA 091300Z 05011KT CAVOK 25/15 Q1017","temp":25,"dewp":15,"wdir":50,"wspd":11,"visib":"6+","altim":1017,"clouds":[],"obsTime":1778331600}}}