{"updated":1777066589,"count":83,"data":{"SBEG":{"icaoId":"SBEG","flightCategory":"VFR","rawOb":"METAR SBEG 242000Z 14003KT 9999 VCSH SCT020 FEW025TCU SCT090 30/24 Q1009","temp":30,"dewp":24,"wdir":140,"wspd":3,"visib":"6+","altim":1009,"clouds":[{"cover":"SCT","base":2000},{"cover":"FEW","base":2500},{"cover":"SCT","base":9000}],"obsTime":1777060800},"SBFI":{"icaoId":"SBFI","flightCategory":"VFR","rawOb":"METAR SBFI 242000Z 01006KT CAVOK 29/18 Q1012","temp":29,"dewp":18,"wdir":10,"wspd":6,"visib":"6+","altim":1012,"clouds":[],"obsTime":1777060800},"SBBV":{"icaoId":"SBBV","flightCategory":"VFR","rawOb":"METAR SBBV 242000Z 36005KT 9999 SCT030 FEW040TCU 32/22 Q1008","temp":32,"dewp":22,"wdir":360,"wspd":5,"visib":"6+","altim":1008,"clouds":[{"cover":"SCT","base":3000},{"cover":"FEW","base":4000}],"obsTime":1777060800},"SBMG":{"icaoId":"SBMG","flightCategory":"VFR","rawOb":"METAR SBMG 242000Z 01005KT 330V040 9999 FEW045 29/17 Q1014","temp":29,"dewp":17,"wdir":10,"wspd":5,"visib":"6+","altim":1014,"clouds":[{"cover":"FEW","base":4500}],"obsTime":1777060800},"SBMK":{"icaoId":"SBMK","flightCategory":"VFR","rawOb":"METAR SBMK 242000Z 08007KT 9999 FEW040 29/17 Q1016","temp":29,"dewp":17,"wdir":80,"wspd":7,"visib":"6+","altim":1016,"clouds":[{"cover":"FEW","base":4000}],"obsTime":1777060800},"SBCG":{"icaoId":"SBCG","flightCategory":"VFR","rawOb":"METAR SBCG 242000Z 30007KT 9999 SCT046 31/17 Q1014","temp":31,"dewp":17,"wdir":300,"wspd":7,"visib":"6+","altim":1014,"clouds":[{"cover":"SCT","base":4600}],"obsTime":1777060800},"SBBR":{"icaoId":"SBBR","flightCategory":"VFR","rawOb":"METAR SBBR 242000Z 09005KT 010V120 9999 FEW045 21/14 Q1018","temp":21,"dewp":14,"wdir":90,"wspd":5,"visib":"6+","altim":1018,"clouds":[{"cover":"FEW","base":4500}],"obsTime":1777060800},"SBLO":{"icaoId":"SBLO","flightCategory":"VFR","rawOb":"METAR SBLO 242000Z 07005KT 020V100 CAVOK 28/18 Q1015","temp":28,"dewp":18,"wdir":70,"wspd":5,"visib":"6+","altim":1015,"clouds":[],"obsTime":1777060800},"SBMA":{"icaoId":"SBMA","flightCategory":"VFR","rawOb":"METAR SBMA 242000Z 31002KT 9999 SCT025 FEW030TCU 30/25 Q1010","temp":30,"dewp":25,"wdir":310,"wspd":2,"visib":"6+","altim":1010,"clouds":[{"cover":"SCT","base":2500},{"cover":"FEW","base":3000}],"obsTime":1777060800},"SBME":{"icaoId":"SBME","flightCategory":"VFR","rawOb":"METAR SBME 242000Z 09007KT 9999 FEW040 26/21 Q1015","temp":26,"dewp":21,"wdir":90,"wspd":7,"visib":"6+","altim":1015,"clouds":[{"cover":"FEW","base":4000}],"obsTime":1777060800},"SBMO":{"icaoId":"SBMO","flightCategory":"VFR","rawOb":"METAR SBMO 242000Z 12009KT 9999 VCSH FEW030 FEW035TCU SCT050 28/23 Q1012","temp":28,"dewp":23,"wdir":120,"wspd":9,"visib":"6+","altim":1012,"clouds":[{"cover":"FEW","base":3000},{"cover":"FEW","base":3500},{"cover":"SCT","base":5000}],"obsTime":1777060800},"SBFL":{"icaoId":"SBFL","flightCategory":"VFR","rawOb":"METAR SBFL 242000Z 01013KT 9999 SCT040 25/19 Q1013","temp":25,"dewp":19,"wdir":10,"wspd":13,"visib":"6+","altim":1013,"clouds":[{"cover":"SCT","base":4000}],"obsTime":1777060800},"SBCP":{"icaoId":"SBCP","flightCategory":"VFR","rawOb":"METAR SBCP 242000Z 10009KT CAVOK 26/19 Q1016","temp":26,"dewp":19,"wdir":100,"wspd":9,"visib":"6+","altim":1016,"clouds":[],"obsTime":1777060800},"SBMQ":{"icaoId":"SBMQ","flightCategory":"MVFR","rawOb":"METAR SBMQ 242000Z 29005KT 9999 BKN020 27/24 Q1010","temp":27,"dewp":24,"wdir":290,"wspd":5,"visib":"6+","altim":1010,"clouds":[{"cover":"BKN","base":2000}],"obsTime":1777060800},"SBFZ":{"icaoId":"SBFZ","flightCategory":"VFR","rawOb":"METAR SBFZ 242000Z 10011KT 9999 FEW020 BKN100 29/24 Q1009","temp":29,"dewp":24,"wdir":100,"wspd":11,"visib":"6+","altim":1009,"clouds":[{"cover":"FEW","base":2000},{"cover":"BKN","base":10000}],"obsTime":1777060800},"SBNT":{"icaoId":"SBNT","flightCategory":"MVFR","rawOb":"METAR SBNT 242000Z 23006KT 9999 BKN020 BKN100 22/21 Q1010","temp":22,"dewp":21,"wdir":230,"wspd":6,"visib":"6+","altim":1010,"clouds":[{"cover":"BKN","base":2000},{"cover":"BKN","base":10000}],"obsTime":1777060800},"SBPA":{"icaoId":"SBPA","flightCategory":"IFR","rawOb":"METAR SBPA 242000Z 11008KT 4000 -RA BKN009 OVC030 20/19 Q1014","temp":20,"dewp":19,"wdir":110,"wspd":8,"visib":2.49,"altim":1014,"clouds":[{"cover":"BKN","base":900},{"cover":"OVC","base":3000}],"obsTime":1777060800},"SBBE":{"icaoId":"SBBE","flightCategory":"MVFR","rawOb":"METAR SBBE 242000Z 33004KT 9999 FEW017 BKN024 FEW025TCU BKN078 27/26 Q1010","temp":27,"dewp":26,"wdir":330,"wspd":4,"visib":"6+","altim":1010,"clouds":[{"cover":"FEW","base":1700},{"cover":"BKN","base":2400},{"cover":"FEW","base":2500},{"cover":"BKN","base":7800}],"obsTime":1777060800},"SBPJ":{"icaoId":"SBPJ","flightCategory":"VFR","rawOb":"METAR SBPJ 242000Z 00000KT 9999 FEW020 FEW027TCU SCT080 31/23 Q1011","temp":31,"dewp":23,"wdir":0,"wspd":0,"visib":"6+","altim":1011,"clouds":[{"cover":"FEW","base":2000},{"cover":"FEW","base":2700},{"cover":"SCT","base":8000}],"obsTime":1777060800},"SBGL":{"icaoId":"SBGL","flightCategory":"VFR","rawOb":"METAR SBGL 242000Z 14009KT 9999 FEW030 27/20 Q1014","temp":27,"dewp":20,"wdir":140,"wspd":9,"visib":"6+","altim":1014,"clouds":[{"cover":"FEW","base":3000}],"obsTime":1777060800},"SBVT":{"icaoId":"SBVT","flightCategory":"VFR","rawOb":"METAR SBVT 242000Z 15007KT 9999 SCT030 25/22 Q1016","temp":25,"dewp":22,"wdir":150,"wspd":7,"visib":"6+","altim":1016,"clouds":[{"cover":"SCT","base":3000}],"obsTime":1777060800},"SBAT":{"icaoId":"SBAT","flightCategory":"VFR","rawOb":"METAR SBAT 242000Z 06007KT 9999 VCSH SCT030 FEW035TCU 27/23 Q1011","temp":27,"dewp":23,"wdir":60,"wspd":7,"visib":"6+","altim":1011,"clouds":[{"cover":"SCT","base":3000},{"cover":"FEW","base":3500}],"obsTime":1777060800},"SBPV":{"icaoId":"SBPV","flightCategory":"MVFR","rawOb":"SPECI SBPV 241937Z 01006KT 9999 -RA BKN025 FEW030TCU 31/26 Q1008 RESHRA","temp":31,"dewp":26,"wdir":10,"wspd":6,"visib":"6+","altim":1008,"clouds":[{"cover":"BKN","base":2500},{"cover":"FEW","base":3000}],"obsTime":1777059420},"SBRB":{"icaoId":"SBRB","flightCategory":"MVFR","rawOb":"METAR SBRB 242000Z 02006KT 9999 VCSH FEW007 BKN025 FEW030TCU 27/25 Q1009","temp":27,"dewp":25,"wdir":20,"wspd":6,"visib":"6+","altim":1009,"clouds":[{"cover":"FEW","base":700},{"cover":"BKN","base":2500},{"cover":"FEW","base":3000}],"obsTime":1777060800},"SBGO":{"icaoId":"SBGO","flightCategory":"VFR","rawOb":"METAR SBGO 242000Z 14006KT CAVOK 30/15 Q1016","temp":30,"dewp":15,"wdir":140,"wspd":6,"visib":"6+","altim":1016,"clouds":[],"obsTime":1777060800},"SBRF":{"icaoId":"SBRF","flightCategory":"VFR","rawOb":"METAR SBRF 242000Z 17009KT 9999 FEW025 28/22 Q1010","temp":28,"dewp":22,"wdir":170,"wspd":9,"visib":"6+","altim":1010,"clouds":[{"cover":"FEW","base":2500}],"obsTime":1777060800},"SBCR":{"icaoId":"SBCR","flightCategory":"VFR","rawOb":"METAR SBCR 242000Z 22003KT 190V280 CAVOK 33/19 Q1011","temp":33,"dewp":19,"wdir":220,"wspd":3,"visib":"6+","altim":1011,"clouds":[],"obsTime":1777060800},"SBGR":{"icaoId":"SBGR","flightCategory":"VFR","rawOb":"METAR SBGR 242000Z 30008KT CAVOK 27/15 Q1017","temp":27,"dewp":15,"wdir":300,"wspd":8,"visib":"6+","altim":1017,"clouds":[],"obsTime":1777060800},"SBSG":{"icaoId":"SBSG","flightCategory":"MVFR","rawOb":"METAR SBSG 242000Z 23004KT 180V260 9999 VCSH BKN023 BKN080 22/21 Q1010","temp":22,"dewp":21,"wdir":230,"wspd":4,"visib":"6+","altim":1010,"clouds":[{"cover":"BKN","base":2300},{"cover":"BKN","base":8000}],"obsTime":1777060800},"SBCT":{"icaoId":"SBCT","flightCategory":"VFR","rawOb":"METAR SBCT 242000Z 31006KT CAVOK 25/13 Q1018","temp":25,"dewp":13,"wdir":310,"wspd":6,"visib":"6+","altim":1018,"clouds":[],"obsTime":1777060800},"SBSL":{"icaoId":"SBSL","flightCategory":"VFR","rawOb":"METAR SBSL 242000Z 03006KT 9999 SCT020 BKN080 27/24 Q1009","temp":27,"dewp":24,"wdir":30,"wspd":6,"visib":"6+","altim":1009,"clouds":[{"cover":"SCT","base":2000},{"cover":"BKN","base":8000}],"obsTime":1777060800},"SBHT":{"icaoId":"SBHT","flightCategory":"MVFR","rawOb":"METAR SBHT 242000Z 05005KT 9999 BKN020 BKN100 28/23 Q1010","temp":28,"dewp":23,"wdir":50,"wspd":5,"visib":"6+","altim":1010,"clouds":[{"cover":"BKN","base":2000},{"cover":"BKN","base":10000}],"obsTime":1777060800},"SBSN":{"icaoId":"SBSN","flightCategory":"VFR","rawOb":"METAR SBSN 242000Z 09011KT 9999 SCT019 28/24 Q1009","temp":28,"dewp":24,"wdir":90,"wspd":11,"visib":"6+","altim":1009,"clouds":[{"cover":"SCT","base":1900}],"obsTime":1777060800},"SBIL":{"icaoId":"SBIL","flightCategory":"VFR","rawOb":"METAR SBIL 242000Z 26004KT 220V300 9999 VCSH FEW010 SCT020 BKN070 24/22 Q1015","temp":24,"dewp":22,"wdir":260,"wspd":4,"visib":"6+","altim":1015,"clouds":[{"cover":"FEW","base":1000},{"cover":"SCT","base":2000},{"cover":"BKN","base":7000}],"obsTime":1777060800},"SBSP":{"icaoId":"SBSP","flightCategory":"VFR","rawOb":"METAR SBSP 242000Z 16007KT CAVOK 25/17 Q1019","temp":25,"dewp":17,"wdir":160,"wspd":7,"visib":"6+","altim":1019,"clouds":[],"obsTime":1777060800},"SBCB":{"icaoId":"SBCB","flightCategory":"VFR","rawOb":"METAR SBCB 242000Z 09014KT CAVOK 25/21 Q1016","temp":25,"dewp":21,"wdir":90,"wspd":14,"visib":"6+","altim":1016,"clouds":[],"obsTime":1777060800},"SBSV":{"icaoId":"SBSV","flightCategory":"VFR","rawOb":"METAR SBSV 242000Z 11009KT 9999 SCT021 SCT050 28/23 Q1012","temp":28,"dewp":23,"wdir":110,"wspd":9,"visib":"6+","altim":1012,"clouds":[{"cover":"SCT","base":2100},{"cover":"SCT","base":5000}],"obsTime":1777060800},"SBCF":{"icaoId":"SBCF","flightCategory":"VFR","rawOb":"METAR SBCF 242000Z 13007KT 110V170 9999 SCT040 SCT070 25/16 Q1019","temp":25,"dewp":16,"wdir":130,"wspd":7,"visib":"6+","altim":1019,"clouds":[{"cover":"SCT","base":4000},{"cover":"SCT","base":7000}],"obsTime":1777060800},"SBTE":{"icaoId":"SBTE","flightCategory":"VFR","rawOb":"METAR SBTE 242000Z 23002KT 9999 SCT025 FEW030TCU 32/24 Q1008","temp":32,"dewp":24,"wdir":230,"wspd":2,"visib":"6+","altim":1008,"clouds":[{"cover":"SCT","base":2500},{"cover":"FEW","base":3000}],"obsTime":1777060800},"SBUL":{"icaoId":"SBUL","flightCategory":"VFR","rawOb":"METAR SBUL 242000Z 06005KT 9999 SCT045 SCT080 25/14 Q1019","temp":25,"dewp":14,"wdir":60,"wspd":5,"visib":"6+","altim":1019,"clouds":[{"cover":"SCT","base":4500},{"cover":"SCT","base":8000}],"obsTime":1777060800},"SBJU":{"icaoId":"SBJU","flightCategory":"VFR","rawOb":"METAR SBJU 242000Z 00000KT 9999 SCT020 25/23 Q1012","temp":25,"dewp":23,"wdir":0,"wspd":0,"visib":"6+","altim":1012,"clouds":[{"cover":"SCT","base":2000}],"obsTime":1777060800},"SBKP":{"icaoId":"SBKP","flightCategory":"VFR","rawOb":"METAR SBKP 242000Z 26005KT 9999 FEW040 29/15 Q1017","temp":29,"dewp":15,"wdir":260,"wspd":5,"visib":"6+","altim":1017,"clouds":[{"cover":"FEW","base":4000}],"obsTime":1777060800},"SBUR":{"icaoId":"SBUR","flightCategory":"VFR","rawOb":"METAR SBUR 242000Z 03003KT 9999 FEW045 28/14 Q1017","temp":28,"dewp":14,"wdir":30,"wspd":3,"visib":"6+","altim":1017,"clouds":[{"cover":"FEW","base":4500}],"obsTime":1777060800},"SBCZ":{"icaoId":"SBCZ","flightCategory":"VFR","rawOb":"METAR SBCZ 242000Z 14004KT 9999 SCT016 OVC100 26/23 Q1011","temp":26,"dewp":23,"wdir":140,"wspd":4,"visib":"6+","altim":1011,"clouds":[{"cover":"SCT","base":1600},{"cover":"OVC","base":10000}],"obsTime":1777060800},"SBCJ":{"icaoId":"SBCJ","flightCategory":"VFR","rawOb":"METAR SBCJ 242000Z 00000KT 9999 FEW020 FEW030TCU 25/22 Q1014","temp":25,"dewp":22,"wdir":0,"wspd":0,"visib":"6+","altim":1014,"clouds":[{"cover":"FEW","base":2000},{"cover":"FEW","base":3000}],"obsTime":1777060800},"SBPB":{"icaoId":"SBPB","flightCategory":"MVFR","rawOb":"METAR SBPB 242000Z 06006KT 9999 BKN020 BKN100 29/25 Q1009","temp":29,"dewp":25,"wdir":60,"wspd":6,"visib":"6+","altim":1009,"clouds":[{"cover":"BKN","base":2000},{"cover":"BKN","base":10000}],"obsTime":1777060800},"SBPL":{"icaoId":"SBPL","flightCategory":"VFR","rawOb":"METAR SBPL 242000Z 14007KT 9999 FEW025 30/21 Q1012","temp":30,"dewp":21,"wdir":140,"wspd":7,"visib":"6+","altim":1012,"clouds":[{"cover":"FEW","base":2500}],"obsTime":1777060800},"SBBH":{"icaoId":"SBBH","flightCategory":"VFR","rawOb":"METAR SBBH 242000Z 06003KT 9999 FEW045 SCT080 25/15 Q1018","temp":25,"dewp":15,"wdir":60,"wspd":3,"visib":"6+","altim":1018,"clouds":[{"cover":"FEW","base":4500},{"cover":"SCT","base":8000}],"obsTime":1777060800},"SBPP":{"icaoId":"SBPP","flightCategory":"VFR","rawOb":"METAR SBPP 242000Z 03005KT CAVOK 28/18 Q1015","temp":28,"dewp":18,"wdir":30,"wspd":5,"visib":"6+","altim":1015,"clouds":[],"obsTime":1777060800},"SBCO":{"icaoId":"SBCO","flightCategory":"IFR","rawOb":"METAR SBCO 242000Z 10009KT 6000 -RA BKN005 OVC050 20/19 Q1014","temp":20,"dewp":19,"wdir":100,"wspd":9,"visib":3.73,"altim":1014,"clouds":[{"cover":"BKN","base":500},{"cover":"OVC","base":5000}],"obsTime":1777060800},"SBPS":{"icaoId":"SBPS","flightCategory":"VFR","rawOb":"METAR SBPS 242000Z 23004KT 9999 BKN036 OVC070 24/23 Q1015","temp":24,"dewp":23,"wdir":230,"wspd":4,"visib":"6+","altim":1015,"clouds":[{"cover":"BKN","base":3600},{"cover":"OVC","base":7000}],"obsTime":1777060800},"SBAX":{"icaoId":"SBAX","flightCategory":"VFR","rawOb":"METAR SBAX 242000Z 24003KT 9999 FEW040 BKN090 25/14 Q1019","temp":25,"dewp":14,"wdir":240,"wspd":3,"visib":"6+","altim":1019,"clouds":[{"cover":"FEW","base":4000},{"cover":"BKN","base":9000}],"obsTime":1777060800},"SBDN":{"icaoId":"SBDN","flightCategory":"VFR","rawOb":"METAR SBDN 242000Z 31005KT 9999 FEW049 31/17 Q1014","temp":31,"dewp":17,"wdir":310,"wspd":5,"visib":"6+","altim":1014,"clouds":[{"cover":"FEW","base":4900}],"obsTime":1777060800},"SBSC":{"icaoId":"SBSC","flightCategory":"VFR","rawOb":"METAR SBSC 242000Z 16006KT CAVOK 27/21 Q1014","temp":27,"dewp":21,"wdir":160,"wspd":6,"visib":"6+","altim":1014,"clouds":[],"obsTime":1777060800},"SBSJ":{"icaoId":"SBSJ","flightCategory":"VFR","rawOb":"METAR SBSJ 242000Z 35003KT CAVOK 27/15 Q1017","temp":27,"dewp":15,"wdir":350,"wspd":3,"visib":"6+","altim":1017,"clouds":[],"obsTime":1777060800},"SBES":{"icaoId":"SBES","flightCategory":"VFR","rawOb":"METAR SBES 242000Z 07010KT 030V100 CAVOK 25/// Q1016","temp":null,"dewp":null,"wdir":70,"wspd":10,"visib":"6+","altim":1016,"clouds":[],"obsTime":1777060800},"SBSM":{"icaoId":"SBSM","flightCategory":"MVFR","rawOb":"METAR SBSM 242000Z 12005KT 9999 -RA SCT008 OVC012 20/19 Q1013","temp":20,"dewp":19,"wdir":120,"wspd":5,"visib":"6+","altim":1013,"clouds":[{"cover":"SCT","base":800},{"cover":"OVC","base":1200}],"obsTime":1777060800},"SBCA":{"icaoId":"SBCA","flightCategory":"VFR","rawOb":"METAR SBCA 242000Z 34008KT CAVOK 26/16 Q1017","temp":26,"dewp":16,"wdir":340,"wspd":8,"visib":"6+","altim":1017,"clouds":[],"obsTime":1777060800},"SBSR":{"icaoId":"SBSR","flightCategory":"VFR","rawOb":"METAR SBSR 242000Z 06007KT 9999 FEW030 30/16 Q1015","temp":30,"dewp":16,"wdir":60,"wspd":7,"visib":"6+","altim":1015,"clouds":[{"cover":"FEW","base":3000}],"obsTime":1777060800},"SBIP":{"icaoId":"SBIP","flightCategory":"VFR","rawOb":"METAR SBIP 242000Z AUTO 35003KT 300V030 CAVOK 27/18 Q1016","temp":27,"dewp":18,"wdir":350,"wspd":3,"visib":"6+","altim":1016,"clouds":[],"obsTime":1777060800},"SBTF":{"icaoId":"SBTF","flightCategory":"VFR","rawOb":"METAR SBTF 242000Z 33003KT 9999 SCT020 33/25 Q1007","temp":33,"dewp":25,"wdir":330,"wspd":3,"visib":"6+","altim":1007,"clouds":[{"cover":"SCT","base":2000}],"obsTime":1777060800},"SBAR":{"icaoId":"SBAR","flightCategory":"VFR","rawOb":"METAR SBAR 242000Z 09005KT 9999 FEW025 28/24 Q1012","temp":28,"dewp":24,"wdir":90,"wspd":5,"visib":"6+","altim":1012,"clouds":[{"cover":"FEW","base":2500}],"obsTime":1777060800},"SBTT":{"icaoId":"SBTT","flightCategory":"VFR","rawOb":"METAR SBTT 242000Z 22004KT 9999 FEW017 25/21 Q1010","temp":25,"dewp":21,"wdir":220,"wspd":4,"visib":"6+","altim":1010,"clouds":[{"cover":"FEW","base":1700}],"obsTime":1777060800},"SBUY":{"icaoId":"SBUY","flightCategory":"VFR","rawOb":"METAR SBUY 242000Z 31004KT 9999 SCT020 BKN090 25/23 Q1009","temp":25,"dewp":23,"wdir":310,"wspd":4,"visib":"6+","altim":1009,"clouds":[{"cover":"SCT","base":2000},{"cover":"BKN","base":9000}],"obsTime":1777060800},"SBKG":{"icaoId":"SBKG","flightCategory":"VFR","rawOb":"METAR SBKG 242000Z 06008KT 9999 FEW020 SCT100 24/22 Q1013","temp":24,"dewp":22,"wdir":60,"wspd":8,"visib":"6+","altim":1013,"clouds":[{"cover":"FEW","base":2000},{"cover":"SCT","base":10000}],"obsTime":1777060800},"SBOI":{"icaoId":"SBOI","flightCategory":"VFR","rawOb":"METAR SBOI 242000Z AUTO 20005KT 9999 FEW008 SCT010 25/24 Q1011","temp":25,"dewp":24,"wdir":200,"wspd":5,"visib":"6+","altim":1011,"clouds":[{"cover":"FEW","base":800},{"cover":"SCT","base":1000}],"obsTime":1777060800},"SBBU":{"icaoId":"SBBU","flightCategory":"VFR","rawOb":"METAR SBBU 242000Z 29008KT 9999 FEW040 30/19 Q1016","temp":30,"dewp":19,"wdir":290,"wspd":8,"visib":"6+","altim":1016,"clouds":[{"cover":"FEW","base":4000}],"obsTime":1777060800},"SBVH":{"icaoId":"SBVH","flightCategory":"VFR","rawOb":"METAR SBVH 242000Z 32006KT 9999 SCT030 FEW040TCU 28/23 Q1012","temp":28,"dewp":23,"wdir":320,"wspd":6,"visib":"6+","altim":1012,"clouds":[{"cover":"SCT","base":3000},{"cover":"FEW","base":4000}],"obsTime":1777060800},"SBBQ":{"icaoId":"SBBQ","flightCategory":"VFR","rawOb":"METAR SBBQ 242000Z 02005KT 9999 SCT049 21/14 Q1022","temp":21,"dewp":14,"wdir":20,"wspd":5,"visib":"6+","altim":1022,"clouds":[{"cover":"SCT","base":4900}],"obsTime":1777060800},"SBCC":{"icaoId":"SBCC","flightCategory":"MVFR","rawOb":"METAR SBCC 242000Z 06008KT 9999 BKN030 30/21 Q1011","temp":30,"dewp":21,"wdir":60,"wspd":8,"visib":"6+","altim":1011,"clouds":[{"cover":"BKN","base":3000}],"obsTime":1777060800},"SBJP":{"icaoId":"SBJP","flightCategory":"VFR","rawOb":"METAR SBJP 242000Z 15005KT CAVOK 27/23 Q1011","temp":27,"dewp":23,"wdir":150,"wspd":5,"visib":"6+","altim":1011,"clouds":[],"obsTime":1777060800},"SBTA":{"icaoId":"SBTA","flightCategory":"VFR","rawOb":"METAR SBTA 242000Z 14002KT 9999 FEW035 27/14 Q1016","temp":27,"dewp":14,"wdir":140,"wspd":2,"visib":"6+","altim":1016,"clouds":[{"cover":"FEW","base":3500}],"obsTime":1777060800},"SBIH":{"icaoId":"SBIH","flightCategory":"VFR","rawOb":"METAR SBIH 242000Z 29004KT 9999 SCT018 29/24 Q1009","temp":29,"dewp":24,"wdir":290,"wspd":4,"visib":"6+","altim":1009,"clouds":[{"cover":"SCT","base":1800}],"obsTime":1777060800},"SBJV":{"icaoId":"SBJV","flightCategory":"VFR","rawOb":"METAR SBJV 242000Z 05003KT 020V090 9999 SCT030 26/21 Q1014","temp":26,"dewp":21,"wdir":50,"wspd":3,"visib":"6+","altim":1014,"clouds":[{"cover":"SCT","base":3000}],"obsTime":1777060800},"SBPF":{"icaoId":"SBPF","flightCategory":"VFR","rawOb":"METAR SBPF 242000Z 03008KT 9999 -RA FEW006 BKN070 17/17 Q1016","temp":17,"dewp":17,"wdir":30,"wspd":8,"visib":"6+","altim":1016,"clouds":[{"cover":"FEW","base":600},{"cover":"BKN","base":7000}],"obsTime":1777060800},"SBAN":{"icaoId":"SBAN","flightCategory":"VFR","rawOb":"METAR SBAN 242000Z 19004KT 150V230 9999 SCT045 27/13 Q1019","temp":27,"dewp":13,"wdir":190,"wspd":4,"visib":"6+","altim":1019,"clouds":[{"cover":"SCT","base":4500}],"obsTime":1777060800},"SBAF":{"icaoId":"SBAF","flightCategory":"VFR","rawOb":"METAR SBAF 242000Z 11006KT 9999 FEW040 29/20 Q1014","temp":29,"dewp":20,"wdir":110,"wspd":6,"visib":"6+","altim":1014,"clouds":[{"cover":"FEW","base":4000}],"obsTime":1777060800},"SBGW":{"icaoId":"SBGW","flightCategory":"VFR","rawOb":"METAR SBGW 242000Z 35004KT 9999 FEW040 27/15 Q1016","temp":27,"dewp":15,"wdir":350,"wspd":4,"visib":"6+","altim":1016,"clouds":[{"cover":"FEW","base":4000}],"obsTime":1777060800},"SBJR":{"icaoId":"SBJR","flightCategory":"VFR","rawOb":"METAR SBJR 242000Z 16004KT CAVOK 28/20 Q1014","temp":28,"dewp":20,"wdir":160,"wspd":4,"visib":"6+","altim":1014,"clouds":[],"obsTime":1777060800},"SBLS":{"icaoId":"SBLS","flightCategory":"VFR","rawOb":"METAR SBLS 242000Z 12006KT 060V130 9999 SCT045 24/16 Q1019","temp":24,"dewp":16,"wdir":120,"wspd":6,"visib":"6+","altim":1019,"clouds":[{"cover":"SCT","base":4500}],"obsTime":1777060800},"SBMT":{"icaoId":"SBMT","flightCategory":"VFR","rawOb":"METAR SBMT 242000Z 30007KT 270V330 9999 BKN045 27/13 Q1017","temp":27,"dewp":13,"wdir":300,"wspd":7,"visib":"6+","altim":1017,"clouds":[{"cover":"BKN","base":4500}],"obsTime":1777060800},"SBST":{"icaoId":"SBST","flightCategory":"VFR","rawOb":"METAR SBST 242000Z 17006KT 9999 FEW035 25/19 Q1014","temp":25,"dewp":19,"wdir":170,"wspd":6,"visib":"6+","altim":1014,"clouds":[{"cover":"FEW","base":3500}],"obsTime":1777060800},"SBLE":{"icaoId":"SBLE","flightCategory":"LIFR","rawOb":"METAR SBLE 242000Z AUTO 13012KT 100V160 1300 RA FEW013 BKN022 OVC042 ///// Q////","temp":null,"dewp":null,"wdir":130,"wspd":12,"visib":0.81,"altim":null,"clouds":[{"cover":"FEW","base":1300},{"cover":"BKN","base":2200},{"cover":"OVC","base":4200}],"obsTime":1777060800}}}