{"updated":1777397196,"count":86,"data":{"SBMO":{"icaoId":"SBMO","flightCategory":"MVFR","rawOb":"METAR SBMO 281600Z 15010KT 8000 SCT011 SCT030 BKN070 27/24 Q1013","temp":27,"dewp":24,"wdir":150,"wspd":10,"visib":4.97,"altim":1013,"clouds":[{"cover":"SCT","base":1100},{"cover":"SCT","base":3000},{"cover":"BKN","base":7000}],"obsTime":1777392000},"SBBE":{"icaoId":"SBBE","flightCategory":"VFR","rawOb":"METAR SBBE 281600Z 01008KT 9999 BKN040 FEW045TCU 30/27 Q1011","temp":30,"dewp":27,"wdir":10,"wspd":8,"visib":"6+","altim":1011,"clouds":[{"cover":"BKN","base":4000},{"cover":"FEW","base":4500}],"obsTime":1777392000},"SBAT":{"icaoId":"SBAT","flightCategory":"MVFR","rawOb":"METAR SBAT 281600Z 11005KT 9999 BKN020 SCT025 29/25 Q1014","temp":29,"dewp":25,"wdir":110,"wspd":5,"visib":"6+","altim":1014,"clouds":[{"cover":"BKN","base":2000},{"cover":"SCT","base":2500}],"obsTime":1777392000},"SBBR":{"icaoId":"SBBR","flightCategory":"VFR","rawOb":"METAR SBBR 281600Z 08007KT 030V150 9999 FEW045 29/14 Q1019","temp":29,"dewp":14,"wdir":80,"wspd":7,"visib":"6+","altim":1019,"clouds":[{"cover":"FEW","base":4500}],"obsTime":1777392000},"SBBV":{"icaoId":"SBBV","flightCategory":"VFR","rawOb":"METAR SBBV 281600Z 09012KT 9999 BKN040 FEW045TCU 32/22 Q1013","temp":32,"dewp":22,"wdir":90,"wspd":12,"visib":"6+","altim":1013,"clouds":[{"cover":"BKN","base":4000},{"cover":"FEW","base":4500}],"obsTime":1777392000},"SBCB":{"icaoId":"SBCB","flightCategory":"VFR","rawOb":"METAR SBCB 281600Z 18008KT CAVOK 29/23 Q1014","temp":29,"dewp":23,"wdir":180,"wspd":8,"visib":"6+","altim":1014,"clouds":[],"obsTime":1777392000},"SBCF":{"icaoId":"SBCF","flightCategory":"VFR","rawOb":"METAR SBCF 281600Z 08007KT 040V120 9999 BKN040 28/17 Q1018","temp":28,"dewp":17,"wdir":80,"wspd":7,"visib":"6+","altim":1018,"clouds":[{"cover":"BKN","base":4000}],"obsTime":1777392000},"SBCG":{"icaoId":"SBCG","flightCategory":"VFR","rawOb":"METAR SBCG 281600Z 31006KT 270V340 9999 SCT017 BKN100 26/21 Q1015","temp":26,"dewp":21,"wdir":310,"wspd":6,"visib":"6+","altim":1015,"clouds":[{"cover":"SCT","base":1700},{"cover":"BKN","base":10000}],"obsTime":1777392000},"SBCP":{"icaoId":"SBCP","flightCategory":"MVFR","rawOb":"METAR SBCP 281600Z 00000KT 9999 BKN020 32/23 Q1013","temp":32,"dewp":23,"wdir":0,"wspd":0,"visib":"6+","altim":1013,"clouds":[{"cover":"BKN","base":2000}],"obsTime":1777392000},"SBCR":{"icaoId":"SBCR","flightCategory":"MVFR","rawOb":"METAR SBCR 281600Z VRB04KT 9999 BKN015 26/21 Q1013","temp":26,"dewp":21,"wdir":"VRB","wspd":4,"visib":"6+","altim":1013,"clouds":[{"cover":"BKN","base":1500}],"obsTime":1777392000},"SBCT":{"icaoId":"SBCT","flightCategory":"IFR","rawOb":"METAR SBCT 281600Z 12006KT 9999 -DZ BKN007 OVC011 16/15 Q1020","temp":16,"dewp":15,"wdir":120,"wspd":6,"visib":"6+","altim":1020,"clouds":[{"cover":"BKN","base":700},{"cover":"OVC","base":1100}],"obsTime":1777392000},"SBCZ":{"icaoId":"SBCZ","flightCategory":"MVFR","rawOb":"METAR SBCZ 281600Z 02006KT 340V040 9999 BKN010 BKN090 26/24 Q1014","temp":26,"dewp":24,"wdir":20,"wspd":6,"visib":"6+","altim":1014,"clouds":[{"cover":"BKN","base":1000},{"cover":"BKN","base":9000}],"obsTime":1777392000},"SBEG":{"icaoId":"SBEG","flightCategory":"VFR","rawOb":"METAR SBEG 281600Z 03004KT 330V110 9999 BKN033 32/24 Q1012","temp":32,"dewp":24,"wdir":30,"wspd":4,"visib":"6+","altim":1012,"clouds":[{"cover":"BKN","base":3300}],"obsTime":1777392000},"SBFI":{"icaoId":"SBFI","flightCategory":"VFR","rawOb":"METAR SBFI 281600Z 18006KT CAVOK 22/12 Q1015","temp":22,"dewp":12,"wdir":180,"wspd":6,"visib":"6+","altim":1015,"clouds":[],"obsTime":1777392000},"SBFL":{"icaoId":"SBFL","flightCategory":"VFR","rawOb":"METAR SBFL 281600Z VRB03KT 9999 BKN046 21/10 Q1018","temp":21,"dewp":10,"wdir":"VRB","wspd":3,"visib":"6+","altim":1018,"clouds":[{"cover":"BKN","base":4600}],"obsTime":1777392000},"SBFZ":{"icaoId":"SBFZ","flightCategory":"VFR","rawOb":"METAR SBFZ 281600Z 09004KT 9999 SCT025 31/23 Q1010","temp":31,"dewp":23,"wdir":90,"wspd":4,"visib":"6+","altim":1010,"clouds":[{"cover":"SCT","base":2500}],"obsTime":1777392000},"SBGL":{"icaoId":"SBGL","flightCategory":"VFR","rawOb":"METAR SBGL 281600Z 14010KT 9999 SCT020 BKN053 28/23 Q1014","temp":28,"dewp":23,"wdir":140,"wspd":10,"visib":"6+","altim":1014,"clouds":[{"cover":"SCT","base":2000},{"cover":"BKN","base":5300}],"obsTime":1777392000},"SBGO":{"icaoId":"SBGO","flightCategory":"VFR","rawOb":"METAR SBGO 281600Z 09007KT 9999 SCT049 31/17 Q1016","temp":31,"dewp":17,"wdir":90,"wspd":7,"visib":"6+","altim":1016,"clouds":[{"cover":"SCT","base":4900}],"obsTime":1777392000},"SBGR":{"icaoId":"SBGR","flightCategory":"VFR","rawOb":"METAR SBGR 281600Z 10005KT 9999 SCT030 27/20 Q1017","temp":27,"dewp":20,"wdir":100,"wspd":5,"visib":"6+","altim":1017,"clouds":[{"cover":"SCT","base":3000}],"obsTime":1777392000},"SBHT":{"icaoId":"SBHT","flightCategory":"MVFR","rawOb":"METAR SBHT 281600Z 11005KT 9999 BKN025 32/24 Q1012","temp":32,"dewp":24,"wdir":110,"wspd":5,"visib":"6+","altim":1012,"clouds":[{"cover":"BKN","base":2500}],"obsTime":1777392000},"SBIL":{"icaoId":"SBIL","flightCategory":"VFR","rawOb":"METAR SBIL 281600Z 13006KT 090V170 9999 SCT023 30/23 Q1015","temp":30,"dewp":23,"wdir":130,"wspd":6,"visib":"6+","altim":1015,"clouds":[{"cover":"SCT","base":2300}],"obsTime":1777392000},"SBJU":{"icaoId":"SBJU","flightCategory":"MVFR","rawOb":"METAR SBJU 281600Z 12004KT 9999 BKN022 31/21 Q1013","temp":31,"dewp":21,"wdir":120,"wspd":4,"visib":"6+","altim":1013,"clouds":[{"cover":"BKN","base":2200}],"obsTime":1777392000},"SBKP":{"icaoId":"SBKP","flightCategory":"VFR","rawOb":"METAR SBKP 281600Z VRB03KT 9999 SCT035 30/19 Q1016","temp":30,"dewp":19,"wdir":"VRB","wspd":3,"visib":"6+","altim":1016,"clouds":[{"cover":"SCT","base":3500}],"obsTime":1777392000},"SBLO":{"icaoId":"SBLO","flightCategory":"IFR","rawOb":"METAR SBLO 281600Z COR 03004KT 3500 BR SCT002 OVC006 21/21 Q1016","temp":21,"dewp":21,"wdir":30,"wspd":4,"visib":2.17,"altim":1016,"clouds":[{"cover":"SCT","base":200},{"cover":"OVC","base":600}],"obsTime":1777392000},"SBMA":{"icaoId":"SBMA","flightCategory":"VFR","rawOb":"METAR SBMA 281600Z 01005KT 9999 SCT020 32/24 Q1012","temp":32,"dewp":24,"wdir":10,"wspd":5,"visib":"6+","altim":1012,"clouds":[{"cover":"SCT","base":2000}],"obsTime":1777392000},"SBME":{"icaoId":"SBME","flightCategory":"VFR","rawOb":"METAR SBME 281600Z 17005KT 9999 FEW030 30/23 Q1013","temp":30,"dewp":23,"wdir":170,"wspd":5,"visib":"6+","altim":1013,"clouds":[{"cover":"FEW","base":3000}],"obsTime":1777392000},"SBMG":{"icaoId":"SBMG","flightCategory":"MVFR","rawOb":"METAR SBMG 281600Z 01003KT 300V040 9999 -RA BKN013 OVC020 22/20 Q1015","temp":22,"dewp":20,"wdir":10,"wspd":3,"visib":"6+","altim":1015,"clouds":[{"cover":"BKN","base":1300},{"cover":"OVC","base":2000}],"obsTime":1777392000},"SBMK":{"icaoId":"SBMK","flightCategory":"VFR","rawOb":"METAR SBMK 281600Z 12006KT 9999 SCT034 30/17 Q1016","temp":30,"dewp":17,"wdir":120,"wspd":6,"visib":"6+","altim":1016,"clouds":[{"cover":"SCT","base":3400}],"obsTime":1777392000},"SBMQ":{"icaoId":"SBMQ","flightCategory":"VFR","rawOb":"METAR SBMQ 281600Z 08008KT 9999 VCSH BKN033 FEW035TCU 32/25 Q1011","temp":32,"dewp":25,"wdir":80,"wspd":8,"visib":"6+","altim":1011,"clouds":[{"cover":"BKN","base":3300},{"cover":"FEW","base":3500}],"obsTime":1777392000},"SBNT":{"icaoId":"SBNT","flightCategory":"MVFR","rawOb":"METAR SBNT 281600Z 13009KT 100V170 9999 VCSH BKN015 FEW025TCU 28/24 Q1011","temp":28,"dewp":24,"wdir":130,"wspd":9,"visib":"6+","altim":1011,"clouds":[{"cover":"BKN","base":1500},{"cover":"FEW","base":2500}],"obsTime":1777392000},"SBPA":{"icaoId":"SBPA","flightCategory":"VFR","rawOb":"METAR SBPA 281600Z VRB04KT CAVOK 18/08 Q1019","temp":18,"dewp":8,"wdir":"VRB","wspd":4,"visib":"6+","altim":1019,"clouds":[],"obsTime":1777392000},"SBPJ":{"icaoId":"SBPJ","flightCategory":"VFR","rawOb":"METAR SBPJ 281600Z 36003KT 9999 VCSH SCT033 FEW035TCU 31/24 Q1013","temp":31,"dewp":24,"wdir":360,"wspd":3,"visib":"6+","altim":1013,"clouds":[{"cover":"SCT","base":3300},{"cover":"FEW","base":3500}],"obsTime":1777392000},"SBPV":{"icaoId":"SBPV","flightCategory":"VFR","rawOb":"METAR SBPV 281600Z 02006KT 310V080 9999 FEW020 31/27 Q1012","temp":31,"dewp":27,"wdir":20,"wspd":6,"visib":"6+","altim":1012,"clouds":[{"cover":"FEW","base":2000}],"obsTime":1777392000},"SBRB":{"icaoId":"SBRB","flightCategory":"MVFR","rawOb":"METAR SBRB 281600Z 04003KT 9999 BKN015 BKN100 29/24 Q1013","temp":29,"dewp":24,"wdir":40,"wspd":3,"visib":"6+","altim":1013,"clouds":[{"cover":"BKN","base":1500},{"cover":"BKN","base":10000}],"obsTime":1777392000},"SBRF":{"icaoId":"SBRF","flightCategory":"MVFR","rawOb":"METAR SBRF 281600Z 11013KT 9999 BKN020 BKN060 30/25 Q1011","temp":30,"dewp":25,"wdir":110,"wspd":13,"visib":"6+","altim":1011,"clouds":[{"cover":"BKN","base":2000},{"cover":"BKN","base":6000}],"obsTime":1777392000},"SBSG":{"icaoId":"SBSG","flightCategory":"MVFR","rawOb":"METAR SBSG 281600Z 15005KT 100V180 9999 3000SW FEW009 BKN025 FEW027TCU 26/25 Q1012 RESHRA","temp":26,"dewp":25,"wdir":150,"wspd":5,"visib":"6+","altim":1012,"clouds":[{"cover":"FEW","base":900},{"cover":"BKN","base":2500},{"cover":"FEW","base":2700}],"obsTime":1777392000},"SBSL":{"icaoId":"SBSL","flightCategory":"VFR","rawOb":"METAR SBSL 281600Z 04007KT 360V100 9999 SCT025 30/25 Q1011","temp":30,"dewp":25,"wdir":40,"wspd":7,"visib":"6+","altim":1011,"clouds":[{"cover":"SCT","base":2500}],"obsTime":1777392000},"SBSN":{"icaoId":"SBSN","flightCategory":"VFR","rawOb":"METAR SBSN 281600Z 10009KT 9999 SCT017 30/25 Q1012","temp":30,"dewp":25,"wdir":100,"wspd":9,"visib":"6+","altim":1012,"clouds":[{"cover":"SCT","base":1700}],"obsTime":1777392000},"SBSP":{"icaoId":"SBSP","flightCategory":"VFR","rawOb":"METAR SBSP 281600Z 16005KT 9999 FEW026 SCT033 BKN070 25/20 Q1018","temp":25,"dewp":20,"wdir":160,"wspd":5,"visib":"6+","altim":1018,"clouds":[{"cover":"FEW","base":2600},{"cover":"SCT","base":3300},{"cover":"BKN","base":7000}],"obsTime":1777392000},"SBSV":{"icaoId":"SBSV","flightCategory":"VFR","rawOb":"METAR SBSV 281600Z 13007KT 090V160 9999 FEW031 30/22 Q1014","temp":30,"dewp":22,"wdir":130,"wspd":7,"visib":"6+","altim":1014,"clouds":[{"cover":"FEW","base":3100}],"obsTime":1777392000},"SBTE":{"icaoId":"SBTE","flightCategory":"VFR","rawOb":"METAR SBTE 281600Z 12004KT 9999 SCT020 FEW025TCU 32/23 Q1010","temp":32,"dewp":23,"wdir":120,"wspd":4,"visib":"6+","altim":1010,"clouds":[{"cover":"SCT","base":2000},{"cover":"FEW","base":2500}],"obsTime":1777392000},"SBUL":{"icaoId":"SBUL","flightCategory":"VFR","rawOb":"METAR SBUL 281600Z 05008KT 350V090 9999 SCT045 28/17 Q1018","temp":28,"dewp":17,"wdir":50,"wspd":8,"visib":"6+","altim":1018,"clouds":[{"cover":"SCT","base":4500}],"obsTime":1777392000},"SBUR":{"icaoId":"SBUR","flightCategory":"VFR","rawOb":"METAR SBUR 281600Z 36007KT 9999 BKN048 31/16 Q1017","temp":31,"dewp":16,"wdir":360,"wspd":7,"visib":"6+","altim":1017,"clouds":[{"cover":"BKN","base":4800}],"obsTime":1777392000},"SBVT":{"icaoId":"SBVT","flightCategory":"VFR","rawOb":"METAR SBVT 281600Z 02009KT 330V040 9999 FEW040 32/21 Q1014","temp":32,"dewp":21,"wdir":20,"wspd":9,"visib":"6+","altim":1014,"clouds":[{"cover":"FEW","base":4000}],"obsTime":1777392000},"SBCC":{"icaoId":"SBCC","flightCategory":"VFR","rawOb":"METAR SBCC 281600Z 15006KT 9999 SCT020 BKN080 25/22 Q1015","temp":25,"dewp":22,"wdir":150,"wspd":6,"visib":"6+","altim":1015,"clouds":[{"cover":"SCT","base":2000},{"cover":"BKN","base":8000}],"obsTime":1777392000},"SBOI":{"icaoId":"SBOI","flightCategory":"MVFR","rawOb":"METAR SBOI 281600Z AUTO 07007KT 020V100 6000 +RA BKN019 26/24 Q1013","temp":26,"dewp":24,"wdir":70,"wspd":7,"visib":3.73,"altim":1013,"clouds":[{"cover":"BKN","base":1900}],"obsTime":1777392000},"SBAU":{"icaoId":"SBAU","flightCategory":"VFR","rawOb":"METAR SBAU 281600Z 27006KT 9999 SCT040 33/20 Q1015","temp":33,"dewp":20,"wdir":270,"wspd":6,"visib":"6+","altim":1015,"clouds":[{"cover":"SCT","base":4000}],"obsTime":1777392000},"SBPB":{"icaoId":"SBPB","flightCategory":"VFR","rawOb":"METAR SBPB 281600Z 01008KT 9999 SCT020 31/23 Q1010","temp":31,"dewp":23,"wdir":10,"wspd":8,"visib":"6+","altim":1010,"clouds":[{"cover":"SCT","base":2000}],"obsTime":1777392000},"SBBH":{"icaoId":"SBBH","flightCategory":"VFR","rawOb":"METAR SBBH 281600Z 06007KT 9999 SCT040 29/17 Q1018","temp":29,"dewp":17,"wdir":60,"wspd":7,"visib":"6+","altim":1018,"clouds":[{"cover":"SCT","base":4000}],"obsTime":1777392000},"SBPL":{"icaoId":"SBPL","flightCategory":"VFR","rawOb":"METAR SBPL 281600Z 12007KT 9999 FEW030 32/17 Q1013","temp":32,"dewp":17,"wdir":120,"wspd":7,"visib":"6+","altim":1013,"clouds":[{"cover":"FEW","base":3000}],"obsTime":1777392000},"SBCJ":{"icaoId":"SBCJ","flightCategory":"MVFR","rawOb":"METAR SBCJ 281600Z 07002KT 9999 BKN023 28/22 Q1017","temp":28,"dewp":22,"wdir":70,"wspd":2,"visib":"6+","altim":1017,"clouds":[{"cover":"BKN","base":2300}],"obsTime":1777392000},"SBCO":{"icaoId":"SBCO","flightCategory":"VFR","rawOb":"METAR SBCO 281600Z 26006KT CAVOK 18/06 Q1019","temp":18,"dewp":6,"wdir":260,"wspd":6,"visib":"6+","altim":1019,"clouds":[],"obsTime":1777392000},"SBPP":{"icaoId":"SBPP","flightCategory":"MVFR","rawOb":"METAR SBPP 281600Z 02006KT 9999 BKN015 21/16 Q1016","temp":21,"dewp":16,"wdir":20,"wspd":6,"visib":"6+","altim":1016,"clouds":[{"cover":"BKN","base":1500}],"obsTime":1777392000},"SBPS":{"icaoId":"SBPS","flightCategory":"VFR","rawOb":"METAR SBPS 281600Z 08009KT 9999 SCT030 30/23 Q1015","temp":30,"dewp":23,"wdir":80,"wspd":9,"visib":"6+","altim":1015,"clouds":[{"cover":"SCT","base":3000}],"obsTime":1777392000},"SBKG":{"icaoId":"SBKG","flightCategory":"MVFR","rawOb":"METAR SBKG 281600Z 10012KT 9999 BKN015 SCT070 24/22 Q1014","temp":24,"dewp":22,"wdir":100,"wspd":12,"visib":"6+","altim":1014,"clouds":[{"cover":"BKN","base":1500},{"cover":"SCT","base":7000}],"obsTime":1777392000},"SBBQ":{"icaoId":"SBBQ","flightCategory":"VFR","rawOb":"METAR SBBQ 281600Z 05004KT 300V110 9999 BKN035 27/17 Q1021","temp":27,"dewp":17,"wdir":50,"wspd":4,"visib":"6+","altim":1021,"clouds":[{"cover":"BKN","base":3500}],"obsTime":1777392000},"SBSC":{"icaoId":"SBSC","flightCategory":"MVFR","rawOb":"METAR SBSC 281600Z 15007KT 8000 SCT013 SCT025 BKN050 28/24 Q1014","temp":28,"dewp":24,"wdir":150,"wspd":7,"visib":4.97,"altim":1014,"clouds":[{"cover":"SCT","base":1300},{"cover":"SCT","base":2500},{"cover":"BKN","base":5000}],"obsTime":1777392000},"SBSJ":{"icaoId":"SBSJ","flightCategory":"MVFR","rawOb":"METAR SBSJ 281600Z 28002KT 7000 SCT026 28/20 Q1017","temp":28,"dewp":20,"wdir":280,"wspd":2,"visib":4.35,"altim":1017,"clouds":[{"cover":"SCT","base":2600}],"obsTime":1777392000},"SBDN":{"icaoId":"SBDN","flightCategory":"MVFR","rawOb":"METAR SBDN 281600Z 30002KT 9999 BKN020 26/20 Q1016","temp":26,"dewp":20,"wdir":300,"wspd":2,"visib":"6+","altim":1016,"clouds":[{"cover":"BKN","base":2000}],"obsTime":1777392000},"SBES":{"icaoId":"SBES","flightCategory":"VFR","rawOb":"METAR SBES 281600Z 21009KT 170V250 9999 FEW020 29/// Q1014","temp":null,"dewp":null,"wdir":210,"wspd":9,"visib":"6+","altim":1014,"clouds":[{"cover":"FEW","base":2000}],"obsTime":1777392000},"SBSM":{"icaoId":"SBSM","flightCategory":"VFR","rawOb":"METAR SBSM 281600Z 27003KT CAVOK 18/04 Q1019","temp":18,"dewp":4,"wdir":270,"wspd":3,"visib":"6+","altim":1019,"clouds":[],"obsTime":1777392000},"SBAX":{"icaoId":"SBAX","flightCategory":"VFR","rawOb":"METAR SBAX 281600Z 03005KT 9999 SCT025 29/15 Q1019","temp":29,"dewp":15,"wdir":30,"wspd":5,"visib":"6+","altim":1019,"clouds":[{"cover":"SCT","base":2500}],"obsTime":1777392000},"SBSR":{"icaoId":"SBSR","flightCategory":"VFR","rawOb":"METAR SBSR 281600Z VRB04KT 9999 FEW040 31/18 Q1015","temp":31,"dewp":18,"wdir":"VRB","wspd":4,"visib":"6+","altim":1015,"clouds":[{"cover":"FEW","base":4000}],"obsTime":1777392000},"SBGM":{"icaoId":"SBGM","flightCategory":"MVFR","rawOb":"METAR SBGM 281600Z 05003KT 010V090 9999 BKN020 27/21 Q1013","temp":27,"dewp":21,"wdir":50,"wspd":3,"visib":"6+","altim":1013,"clouds":[{"cover":"BKN","base":2000}],"obsTime":1777392000},"SBBU":{"icaoId":"SBBU","flightCategory":"VFR","rawOb":"METAR SBBU 281600Z 31007KT 9999 FEW040 31/21 Q1016","temp":31,"dewp":21,"wdir":310,"wspd":7,"visib":"6+","altim":1016,"clouds":[{"cover":"FEW","base":4000}],"obsTime":1777392000},"SBTF":{"icaoId":"SBTF","flightCategory":"VFR","rawOb":"METAR SBTF 281600Z 13002KT 9999 SCT014 FEW025TCU 32/26 Q1011","temp":32,"dewp":26,"wdir":130,"wspd":2,"visib":"6+","altim":1011,"clouds":[{"cover":"SCT","base":1400},{"cover":"FEW","base":2500}],"obsTime":1777392000},"SBCA":{"icaoId":"SBCA","flightCategory":"VFR","rawOb":"METAR SBCA 281700Z 04003KT 9999 FEW040 SCT100 23/16 Q1016","temp":23,"dewp":16,"wdir":40,"wspd":3,"visib":"6+","altim":1016,"clouds":[{"cover":"FEW","base":4000},{"cover":"SCT","base":10000}],"obsTime":1777395600},"SBTT":{"icaoId":"SBTT","flightCategory":"VFR","rawOb":"METAR SBTT 281600Z 24003KT 9999 SCT008 BKN080 25/22 Q1014","temp":25,"dewp":22,"wdir":240,"wspd":3,"visib":"6+","altim":1014,"clouds":[{"cover":"SCT","base":800},{"cover":"BKN","base":8000}],"obsTime":1777392000},"SBUY":{"icaoId":"SBUY","flightCategory":"MVFR","rawOb":"METAR SBUY 281600Z 06004KT 9999 BKN025 FEW030TCU 30/25 Q1011","temp":30,"dewp":25,"wdir":60,"wspd":4,"visib":"6+","altim":1011,"clouds":[{"cover":"BKN","base":2500},{"cover":"FEW","base":3000}],"obsTime":1777392000},"SBIP":{"icaoId":"SBIP","flightCategory":"VFR","rawOb":"METAR SBIP 281600Z AUTO VRB05KT 9999 FEW043 31/19 Q1015","temp":31,"dewp":19,"wdir":"VRB","wspd":5,"visib":"6+","altim":1015,"clouds":[{"cover":"FEW","base":4300}],"obsTime":1777392000},"SBVH":{"icaoId":"SBVH","flightCategory":"VFR","rawOb":"METAR SBVH 281600Z 07007KT 9999 SCT025 29/23 Q1015","temp":29,"dewp":23,"wdir":70,"wspd":7,"visib":"6+","altim":1015,"clouds":[{"cover":"SCT","base":2500}],"obsTime":1777392000},"SBAR":{"icaoId":"SBAR","flightCategory":"VFR","rawOb":"METAR SBAR 281600Z 14010KT 9999 SCT023 BKN060 29/24 Q1013","temp":29,"dewp":24,"wdir":140,"wspd":10,"visib":"6+","altim":1013,"clouds":[{"cover":"SCT","base":2300},{"cover":"BKN","base":6000}],"obsTime":1777392000},"SBTD":{"icaoId":"SBTD","flightCategory":"VFR","rawOb":"METAR SBTD 281600Z /////KT 9999 FEW040 BKN080 23/17 Q1016","temp":23,"dewp":17,"wdir":null,"wspd":null,"visib":"6+","altim":1016,"clouds":[{"cover":"FEW","base":4000},{"cover":"BKN","base":8000}],"obsTime":1777392000},"SBAF":{"icaoId":"SBAF","flightCategory":"VFR","rawOb":"METAR SBAF 281600Z 20007KT 9000 FEW015 BKN031 28/26 Q1014","temp":28,"dewp":26,"wdir":200,"wspd":7,"visib":5.59,"altim":1014,"clouds":[{"cover":"FEW","base":1500},{"cover":"BKN","base":3100}],"obsTime":1777392000},"SBLE":{"icaoId":"SBLE","flightCategory":"VFR","rawOb":"METAR SBLE 281600Z AUTO VRB04KT 9999 FEW045 28/19 Q1016","temp":28,"dewp":19,"wdir":"VRB","wspd":4,"visib":"6+","altim":1016,"clouds":[{"cover":"FEW","base":4500}],"obsTime":1777392000},"SBGW":{"icaoId":"SBGW","flightCategory":"VFR","rawOb":"METAR SBGW 281600Z 03005KT 340V070 9999 SCT030 29/19 Q1016","temp":29,"dewp":19,"wdir":30,"wspd":5,"visib":"6+","altim":1016,"clouds":[{"cover":"SCT","base":3000}],"obsTime":1777392000},"SBJV":{"icaoId":"SBJV","flightCategory":"MVFR","rawOb":"METAR SBJV 281600Z 19002KT 9999 FEW015 BKN030 19/15 Q1019","temp":19,"dewp":15,"wdir":190,"wspd":2,"visib":"6+","altim":1019,"clouds":[{"cover":"FEW","base":1500},{"cover":"BKN","base":3000}],"obsTime":1777392000},"SBJR":{"icaoId":"SBJR","flightCategory":"VFR","rawOb":"METAR SBJR 281600Z 14009KT 9999 FEW012 SCT025 BKN050 29/24 Q1014","temp":29,"dewp":24,"wdir":140,"wspd":9,"visib":"6+","altim":1014,"clouds":[{"cover":"FEW","base":1200},{"cover":"SCT","base":2500},{"cover":"BKN","base":5000}],"obsTime":1777392000},"SBLS":{"icaoId":"SBLS","flightCategory":"VFR","rawOb":"METAR SBLS 281600Z VRB04KT 9999 BKN035 29/18 Q1018","temp":29,"dewp":18,"wdir":"VRB","wspd":4,"visib":"6+","altim":1018,"clouds":[{"cover":"BKN","base":3500}],"obsTime":1777392000},"SBNM":{"icaoId":"SBNM","flightCategory":"VFR","rawOb":"METAR SBNM 281600Z 19004KT CAVOK 19/08 Q1018","temp":19,"dewp":8,"wdir":190,"wspd":4,"visib":"6+","altim":1018,"clouds":[],"obsTime":1777392000},"SBTA":{"icaoId":"SBTA","flightCategory":"VFR","rawOb":"METAR SBTA 281600Z 03005KT 350V050 9999 FEW020 SCT029 28/19 Q1015","temp":28,"dewp":19,"wdir":30,"wspd":5,"visib":"6+","altim":1015,"clouds":[{"cover":"FEW","base":2000},{"cover":"SCT","base":2900}],"obsTime":1777392000},"SBST":{"icaoId":"SBST","flightCategory":"MVFR","rawOb":"METAR SBST 281600Z /////KT 9999 OVC017 ///// Q1015","temp":null,"dewp":null,"wdir":null,"wspd":null,"visib":"6+","altim":1015,"clouds":[{"cover":"OVC","base":1700}],"obsTime":1777392000},"SBAN":{"icaoId":"SBAN","flightCategory":"VFR","rawOb":"METAR SBAN 281600Z 09005KT 9999 SCT035 28/16 Q1020","temp":28,"dewp":16,"wdir":90,"wspd":5,"visib":"6+","altim":1020,"clouds":[{"cover":"SCT","base":3500}],"obsTime":1777392000},"SBIH":{"icaoId":"SBIH","flightCategory":"VFR","rawOb":"METAR SBIH 281600Z 03005KT 9999 SCT018 31/25 Q1012","temp":31,"dewp":25,"wdir":30,"wspd":5,"visib":"6+","altim":1012,"clouds":[{"cover":"SCT","base":1800}],"obsTime":1777392000},"SBJP":{"icaoId":"SBJP","flightCategory":"VFR","rawOb":"METAR SBJP 281600Z 08007KT 9999 FEW020 BKN070 28/23 Q1012","temp":28,"dewp":23,"wdir":80,"wspd":7,"visib":"6+","altim":1012,"clouds":[{"cover":"FEW","base":2000},{"cover":"BKN","base":7000}],"obsTime":1777392000},"SBMT":{"icaoId":"SBMT","flightCategory":"MVFR","rawOb":"METAR SBMT 281600Z 17005KT 9999 FEW018 BKN025 26/19 Q1017","temp":26,"dewp":19,"wdir":170,"wspd":5,"visib":"6+","altim":1017,"clouds":[{"cover":"FEW","base":1800},{"cover":"BKN","base":2500}],"obsTime":1777392000}}}