{"updated":1775767140,"count":85,"data":{"SBEG":{"icaoId":"SBEG","flightCategory":"VFR","rawOb":"METAR SBEG 091900Z 01004KT 330V070 9999 FEW007 SCT020 FEW025TCU 25/23 Q1010","temp":25,"dewp":23,"wdir":10,"wspd":4,"visib":"6+","altim":1010,"clouds":[{"cover":"FEW","base":700},{"cover":"SCT","base":2000},{"cover":"FEW","base":2500}],"obsTime":1775761200},"SBME":{"icaoId":"SBME","flightCategory":"VFR","rawOb":"METAR SBME 091900Z 21017KT 9999 SCT040 30/20 Q1010","temp":30,"dewp":20,"wdir":210,"wspd":17,"visib":"6+","altim":1010,"clouds":[{"cover":"SCT","base":4000}],"obsTime":1775761200},"SBBR":{"icaoId":"SBBR","flightCategory":"VFR","rawOb":"METAR SBBR 091900Z VRB02KT 9999 VCTS SCT040 FEW045CB BKN100 27/18 Q1016 RETS","temp":27,"dewp":18,"wdir":"VRB","wspd":2,"visib":"6+","altim":1016,"clouds":[{"cover":"SCT","base":4000},{"cover":"FEW","base":4500},{"cover":"BKN","base":10000}],"obsTime":1775761200},"SBMG":{"icaoId":"SBMG","flightCategory":"VFR","rawOb":"METAR SBMG 091900Z 22004KT 170V300 9999 FEW035 26/17 Q1014","temp":26,"dewp":17,"wdir":220,"wspd":4,"visib":"6+","altim":1014,"clouds":[{"cover":"FEW","base":3500}],"obsTime":1775761200},"SBFI":{"icaoId":"SBFI","flightCategory":"VFR","rawOb":"METAR SBFI 091900Z 23007KT 9999 SCT035 26/17 Q1015","temp":26,"dewp":17,"wdir":230,"wspd":7,"visib":"6+","altim":1015,"clouds":[{"cover":"SCT","base":3500}],"obsTime":1775761200},"SBMK":{"icaoId":"SBMK","flightCategory":"VFR","rawOb":"METAR SBMK 091900Z 31002KT 9999 VCSH FEW045 FEW050TCU SCT100 31/20 Q1013","temp":31,"dewp":20,"wdir":310,"wspd":2,"visib":"6+","altim":1013,"clouds":[{"cover":"FEW","base":4500},{"cover":"FEW","base":5000},{"cover":"SCT","base":10000}],"obsTime":1775761200},"SBCF":{"icaoId":"SBCF","flightCategory":"VFR","rawOb":"METAR SBCF 091900Z 23008KT 9999 SCT040 FEW045TCU 30/18 Q1015","temp":30,"dewp":18,"wdir":230,"wspd":8,"visib":"6+","altim":1015,"clouds":[{"cover":"SCT","base":4000},{"cover":"FEW","base":4500}],"obsTime":1775761200},"SBMO":{"icaoId":"SBMO","flightCategory":"VFR","rawOb":"METAR SBMO 091900Z 11008KT 9999 FEW030 29/22 Q1011","temp":29,"dewp":22,"wdir":110,"wspd":8,"visib":"6+","altim":1011,"clouds":[{"cover":"FEW","base":3000}],"obsTime":1775761200},"SBFL":{"icaoId":"SBFL","flightCategory":"VFR","rawOb":"METAR SBFL 091900Z 13011KT 9999 SCT040 25/18 Q1012","temp":25,"dewp":18,"wdir":130,"wspd":11,"visib":"6+","altim":1012,"clouds":[{"cover":"SCT","base":4000}],"obsTime":1775761200},"SBMQ":{"icaoId":"SBMQ","flightCategory":"VFR","rawOb":"METAR SBMQ 091900Z 05009KT 9999 SCT020 SCT090 31/26 Q1010","temp":31,"dewp":26,"wdir":50,"wspd":9,"visib":"6+","altim":1010,"clouds":[{"cover":"SCT","base":2000},{"cover":"SCT","base":9000}],"obsTime":1775761200},"SBNT":{"icaoId":"SBNT","flightCategory":"MVFR","rawOb":"METAR SBNT 091900Z 13011KT 100V160 9999 BKN020 FEW030TCU SCT080 27/23 Q1010","temp":27,"dewp":23,"wdir":130,"wspd":11,"visib":"6+","altim":1010,"clouds":[{"cover":"BKN","base":2000},{"cover":"FEW","base":3000},{"cover":"SCT","base":8000}],"obsTime":1775761200},"SBBV":{"icaoId":"SBBV","flightCategory":"VFR","rawOb":"METAR SBBV 091900Z 13008KT 9999 SCT035 FEW040TCU BKN080 32/23 Q1009","temp":32,"dewp":23,"wdir":130,"wspd":8,"visib":"6+","altim":1009,"clouds":[{"cover":"SCT","base":3500},{"cover":"FEW","base":4000},{"cover":"BKN","base":8000}],"obsTime":1775761200},"SBCG":{"icaoId":"SBCG","flightCategory":"VFR","rawOb":"METAR SBCG 091900Z 23003KT 130V290 9999 SCT040 FEW050TCU SCT080 29/21 Q1014","temp":29,"dewp":21,"wdir":230,"wspd":3,"visib":"6+","altim":1014,"clouds":[{"cover":"SCT","base":4000},{"cover":"FEW","base":5000},{"cover":"SCT","base":8000}],"obsTime":1775761200},"SBKP":{"icaoId":"SBKP","flightCategory":"VFR","rawOb":"METAR SBKP 091900Z 28008KT 9999 BKN035 FEW040TCU 29/20 Q1014","temp":29,"dewp":20,"wdir":280,"wspd":8,"visib":"6+","altim":1014,"clouds":[{"cover":"BKN","base":3500},{"cover":"FEW","base":4000}],"obsTime":1775761200},"SBBE":{"icaoId":"SBBE","flightCategory":"VFR","rawOb":"METAR SBBE 091900Z 35011KT 9999 VCSH SCT047 FEW048TCU 31/25 Q1009","temp":31,"dewp":25,"wdir":350,"wspd":11,"visib":"6+","altim":1009,"clouds":[{"cover":"SCT","base":4700},{"cover":"FEW","base":4800}],"obsTime":1775761200},"SBLO":{"icaoId":"SBLO","flightCategory":"VFR","rawOb":"METAR SBLO 091900Z 26008KT 200V310 9999 FEW037 26/18 Q1014","temp":26,"dewp":18,"wdir":260,"wspd":8,"visib":"6+","altim":1014,"clouds":[{"cover":"FEW","base":3700}],"obsTime":1775761200},"SBMA":{"icaoId":"SBMA","flightCategory":"MVFR","rawOb":"METAR SBMA 091900Z 03005KT 9999 BKN025 FEW030TCU 33/24 Q1009","temp":33,"dewp":24,"wdir":30,"wspd":5,"visib":"6+","altim":1009,"clouds":[{"cover":"BKN","base":2500},{"cover":"FEW","base":3000}],"obsTime":1775761200},"SBPA":{"icaoId":"SBPA","flightCategory":"VFR","rawOb":"METAR SBPA 091900Z 29010KT 250V330 9999 VCSH FEW020 SCT045 25/13 Q1015","temp":25,"dewp":13,"wdir":290,"wspd":10,"visib":"6+","altim":1015,"clouds":[{"cover":"FEW","base":2000},{"cover":"SCT","base":4500}],"obsTime":1775761200},"SBFZ":{"icaoId":"SBFZ","flightCategory":"VFR","rawOb":"METAR SBFZ 091900Z 22003KT 110V280 9999 SCT020 29/24 Q1009","temp":29,"dewp":24,"wdir":220,"wspd":3,"visib":"6+","altim":1009,"clouds":[{"cover":"SCT","base":2000}],"obsTime":1775761200},"SBPJ":{"icaoId":"SBPJ","flightCategory":"VFR","rawOb":"METAR SBPJ 091900Z 25005KT 9999 FEW027 FEW033TCU SCT100 27/23 Q1011","temp":27,"dewp":23,"wdir":250,"wspd":5,"visib":"6+","altim":1011,"clouds":[{"cover":"FEW","base":2700},{"cover":"FEW","base":3300},{"cover":"SCT","base":10000}],"obsTime":1775761200},"SBAT":{"icaoId":"SBAT","flightCategory":"MVFR","rawOb":"METAR SBAT 091900Z 34003KT 9999 BKN030 32/23 Q1010","temp":32,"dewp":23,"wdir":340,"wspd":3,"visib":"6+","altim":1010,"clouds":[{"cover":"BKN","base":3000}],"obsTime":1775761200},"SBPV":{"icaoId":"SBPV","flightCategory":"MVFR","rawOb":"METAR SBPV 091900Z 36009KT 9999 4000N SHRA BKN020 FEW030TCU 29/24 Q1009","temp":29,"dewp":24,"wdir":360,"wspd":9,"visib":"6+","altim":1009,"clouds":[{"cover":"BKN","base":2000},{"cover":"FEW","base":3000}],"obsTime":1775761200},"SBRB":{"icaoId":"SBRB","flightCategory":"VFR","rawOb":"METAR SBRB 091900Z 30003KT 9999 FEW020 SCT030 FEW040TCU 31/22 Q1011","temp":31,"dewp":22,"wdir":300,"wspd":3,"visib":"6+","altim":1011,"clouds":[{"cover":"FEW","base":2000},{"cover":"SCT","base":3000},{"cover":"FEW","base":4000}],"obsTime":1775761200},"SBGL":{"icaoId":"SBGL","flightCategory":"VFR","rawOb":"METAR SBGL 091900Z 22015KT 190V250 9999 FEW025 SCT050 BKN100 29/20 Q1011","temp":29,"dewp":20,"wdir":220,"wspd":15,"visib":"6+","altim":1011,"clouds":[{"cover":"FEW","base":2500},{"cover":"SCT","base":5000},{"cover":"BKN","base":10000}],"obsTime":1775761200},"SBGO":{"icaoId":"SBGO","flightCategory":"VFR","rawOb":"METAR SBGO 091900Z VRB02KT 9999 SCT048 FEW050TCU 30/21 Q1014","temp":30,"dewp":21,"wdir":"VRB","wspd":2,"visib":"6+","altim":1014,"clouds":[{"cover":"SCT","base":4800},{"cover":"FEW","base":5000}],"obsTime":1775761200},"SBRF":{"icaoId":"SBRF","flightCategory":"VFR","rawOb":"METAR SBRF 091900Z 14010KT 9999 FEW023 29/23 Q1010","temp":29,"dewp":23,"wdir":140,"wspd":10,"visib":"6+","altim":1010,"clouds":[{"cover":"FEW","base":2300}],"obsTime":1775761200},"SBCP":{"icaoId":"SBCP","flightCategory":"VFR","rawOb":"METAR SBCP 091900Z 20016KT 9999 SCT025 31/22 Q1010","temp":31,"dewp":22,"wdir":200,"wspd":16,"visib":"6+","altim":1010,"clouds":[{"cover":"SCT","base":2500}],"obsTime":1775761200},"SBSG":{"icaoId":"SBSG","flightCategory":"MVFR","rawOb":"METAR SBSG 091900Z 15007KT 110V200 9999 VCSH BKN026 FEW030TCU BKN060 28/23 Q1010","temp":28,"dewp":23,"wdir":150,"wspd":7,"visib":"6+","altim":1010,"clouds":[{"cover":"BKN","base":2600},{"cover":"FEW","base":3000},{"cover":"BKN","base":6000}],"obsTime":1775761200},"SBSL":{"icaoId":"SBSL","flightCategory":"MVFR","rawOb":"METAR SBSL 091900Z 21003KT 9999 BKN015 FEW025TCU 24/23 Q1010","temp":24,"dewp":23,"wdir":210,"wspd":3,"visib":"6+","altim":1010,"clouds":[{"cover":"BKN","base":1500},{"cover":"FEW","base":2500}],"obsTime":1775761200},"SBSN":{"icaoId":"SBSN","flightCategory":"VFR","rawOb":"METAR SBSN 091900Z 09013KT 9999 FEW016 FEW023TCU 29/26 Q1009","temp":29,"dewp":26,"wdir":90,"wspd":13,"visib":"6+","altim":1009,"clouds":[{"cover":"FEW","base":1600},{"cover":"FEW","base":2300}],"obsTime":1775761200},"SBGR":{"icaoId":"SBGR","flightCategory":"VFR","rawOb":"METAR SBGR 091900Z 18009KT 9999 BKN033 FEW040TCU 26/19 Q1015","temp":26,"dewp":19,"wdir":180,"wspd":9,"visib":"6+","altim":1015,"clouds":[{"cover":"BKN","base":3300},{"cover":"FEW","base":4000}],"obsTime":1775761200},"SBCR":{"icaoId":"SBCR","flightCategory":"VFR","rawOb":"METAR SBCR 091900Z 21005KT 160V240 9999 FEW014 SCT035 BKN100 26/23 Q1012","temp":26,"dewp":23,"wdir":210,"wspd":5,"visib":"6+","altim":1012,"clouds":[{"cover":"FEW","base":1400},{"cover":"SCT","base":3500},{"cover":"BKN","base":10000}],"obsTime":1775761200},"SBSP":{"icaoId":"SBSP","flightCategory":"MVFR","rawOb":"METAR SBSP 091900Z COR 16009KT 9999 BKN030 23/18 Q1016","temp":23,"dewp":18,"wdir":160,"wspd":9,"visib":"6+","altim":1016,"clouds":[{"cover":"BKN","base":3000}],"obsTime":1775761200},"SBHT":{"icaoId":"SBHT","flightCategory":"MVFR","rawOb":"METAR SBHT 091900Z 10010KT 9999 BKN020 BKN100 29/25 Q1010","temp":29,"dewp":25,"wdir":100,"wspd":10,"visib":"6+","altim":1010,"clouds":[{"cover":"BKN","base":2000},{"cover":"BKN","base":10000}],"obsTime":1775761200},"SBSV":{"icaoId":"SBSV","flightCategory":"VFR","rawOb":"METAR SBSV 091900Z 12009KT 9999 FEW023 29/21 Q1011","temp":29,"dewp":21,"wdir":120,"wspd":9,"visib":"6+","altim":1011,"clouds":[{"cover":"FEW","base":2300}],"obsTime":1775761200},"SBTE":{"icaoId":"SBTE","flightCategory":"VFR","rawOb":"METAR SBTE 091900Z 22004KT 9999 SCT020 FEW025TCU 32/22 Q1008","temp":32,"dewp":22,"wdir":220,"wspd":4,"visib":"6+","altim":1008,"clouds":[{"cover":"SCT","base":2000},{"cover":"FEW","base":2500}],"obsTime":1775761200},"SBCT":{"icaoId":"SBCT","flightCategory":"VFR","rawOb":"METAR SBCT 091900Z 24004KT 9999 SCT045 24/12 Q1017","temp":24,"dewp":12,"wdir":240,"wspd":4,"visib":"6+","altim":1017,"clouds":[{"cover":"SCT","base":4500}],"obsTime":1775761200},"SBIL":{"icaoId":"SBIL","flightCategory":"VFR","rawOb":"METAR SBIL 091900Z 10008KT 9999 FEW025 30/24 Q1011","temp":30,"dewp":24,"wdir":100,"wspd":8,"visib":"6+","altim":1011,"clouds":[{"cover":"FEW","base":2500}],"obsTime":1775761200},"SBUL":{"icaoId":"SBUL","flightCategory":"VFR","rawOb":"METAR SBUL 091900Z 25008KT 9999 SCT045 28/18 Q1016","temp":28,"dewp":18,"wdir":250,"wspd":8,"visib":"6+","altim":1016,"clouds":[{"cover":"SCT","base":4500}],"obsTime":1775761200},"SBCB":{"icaoId":"SBCB","flightCategory":"VFR","rawOb":"METAR SBCB 091900Z 24015KT CAVOK 27/23 Q1011","temp":27,"dewp":23,"wdir":240,"wspd":15,"visib":"6+","altim":1011,"clouds":[],"obsTime":1775761200},"SBUR":{"icaoId":"SBUR","flightCategory":"VFR","rawOb":"METAR SBUR 091900Z 21008KT 9999 SCT042 28/20 Q1015","temp":28,"dewp":20,"wdir":210,"wspd":8,"visib":"6+","altim":1015,"clouds":[{"cover":"SCT","base":4200}],"obsTime":1775761200},"SBJU":{"icaoId":"SBJU","flightCategory":"MVFR","rawOb":"METAR SBJU 091900Z 18007KT 9999 BKN022 30/22 Q1012","temp":30,"dewp":22,"wdir":180,"wspd":7,"visib":"6+","altim":1012,"clouds":[{"cover":"BKN","base":2200}],"obsTime":1775761200},"SBVT":{"icaoId":"SBVT","flightCategory":"VFR","rawOb":"METAR SBVT 091900Z 28005KT 9999 VCSH VCTS FEW030 FEW040CB SCT100 27/23 Q1009","temp":27,"dewp":23,"wdir":280,"wspd":5,"visib":"6+","altim":1009,"clouds":[{"cover":"FEW","base":3000},{"cover":"FEW","base":4000},{"cover":"SCT","base":10000}],"obsTime":1775761200},"SBCZ":{"icaoId":"SBCZ","flightCategory":"MVFR","rawOb":"METAR SBCZ 091900Z 24005KT 9999 BKN030 BKN100 31/24 Q1010","temp":31,"dewp":24,"wdir":240,"wspd":5,"visib":"6+","altim":1010,"clouds":[{"cover":"BKN","base":3000},{"cover":"BKN","base":10000}],"obsTime":1775761200},"SBOI":{"icaoId":"SBOI","flightCategory":"VFR","rawOb":"METAR SBOI 091900Z AUTO 10005KT 050V160 9999 FEW036 31/24 Q1011","temp":31,"dewp":24,"wdir":100,"wspd":5,"visib":"6+","altim":1011,"clouds":[{"cover":"FEW","base":3600}],"obsTime":1775761200},"SBPB":{"icaoId":"SBPB","flightCategory":"VFR","rawOb":"METAR SBPB 091900Z 05009KT 9999 SCT016 BKN090 29/25 Q1009","temp":29,"dewp":25,"wdir":50,"wspd":9,"visib":"6+","altim":1009,"clouds":[{"cover":"SCT","base":1600},{"cover":"BKN","base":9000}],"obsTime":1775761200},"SBBU":{"icaoId":"SBBU","flightCategory":"VFR","rawOb":"METAR SBBU 091900Z 22008KT 9999 SCT030 29/21 Q1014","temp":29,"dewp":21,"wdir":220,"wspd":8,"visib":"6+","altim":1014,"clouds":[{"cover":"SCT","base":3000}],"obsTime":1775761200},"SBCO":{"icaoId":"SBCO","flightCategory":"VFR","rawOb":"METAR SBCO 091900Z 27010KT 9999 SCT040 25/13 Q1015","temp":25,"dewp":13,"wdir":270,"wspd":10,"visib":"6+","altim":1015,"clouds":[{"cover":"SCT","base":4000}],"obsTime":1775761200},"SBPL":{"icaoId":"SBPL","flightCategory":"MVFR","rawOb":"METAR SBPL 091900Z 02004KT 9999 BKN030 SCT070 32/21 Q1011","temp":32,"dewp":21,"wdir":20,"wspd":4,"visib":"6+","altim":1011,"clouds":[{"cover":"BKN","base":3000},{"cover":"SCT","base":7000}],"obsTime":1775761200},"SBBH":{"icaoId":"SBBH","flightCategory":"VFR","rawOb":"METAR SBBH 091900Z 23007KT 9999 SCT048 SCT100 30/16 Q1014","temp":30,"dewp":16,"wdir":230,"wspd":7,"visib":"6+","altim":1014,"clouds":[{"cover":"SCT","base":4800},{"cover":"SCT","base":10000}],"obsTime":1775761200},"SBPP":{"icaoId":"SBPP","flightCategory":"MVFR","rawOb":"METAR SBPP 091900Z 15005KT 9999 OVC015 21/18 Q1016","temp":21,"dewp":18,"wdir":150,"wspd":5,"visib":"6+","altim":1016,"clouds":[{"cover":"OVC","base":1500}],"obsTime":1775761200},"SBDN":{"icaoId":"SBDN","flightCategory":"VFR","rawOb":"METAR SBDN 091900Z 21008KT 9999 SCT040 30/19 Q1014","temp":30,"dewp":19,"wdir":210,"wspd":8,"visib":"6+","altim":1014,"clouds":[{"cover":"SCT","base":4000}],"obsTime":1775761200},"SBPS":{"icaoId":"SBPS","flightCategory":"VFR","rawOb":"METAR SBPS 091900Z 06011KT 9999 FEW025 29/23 Q1011","temp":29,"dewp":23,"wdir":60,"wspd":11,"visib":"6+","altim":1011,"clouds":[{"cover":"FEW","base":2500}],"obsTime":1775761200},"SBCA":{"icaoId":"SBCA","flightCategory":"VFR","rawOb":"METAR SBCA 091900Z 19005KT 9999 SCT020 22/14 Q1017","temp":22,"dewp":14,"wdir":190,"wspd":5,"visib":"6+","altim":1017,"clouds":[{"cover":"SCT","base":2000}],"obsTime":1775761200},"SBSC":{"icaoId":"SBSC","flightCategory":"VFR","rawOb":"METAR SBSC 091900Z 21009KT 9999 BKN045 28/23 Q1012","temp":28,"dewp":23,"wdir":210,"wspd":9,"visib":"6+","altim":1012,"clouds":[{"cover":"BKN","base":4500}],"obsTime":1775761200},"SBES":{"icaoId":"SBES","flightCategory":"VFR","rawOb":"METAR SBES 091900Z 24012KT 190V270 9999 FEW020 27/// Q1011","temp":null,"dewp":null,"wdir":240,"wspd":12,"visib":"6+","altim":1011,"clouds":[{"cover":"FEW","base":2000}],"obsTime":1775761200},"SBSJ":{"icaoId":"SBSJ","flightCategory":"VFR","rawOb":"METAR SBSJ 091900Z 17008KT 9999 FEW045 27/20 Q1014","temp":27,"dewp":20,"wdir":170,"wspd":8,"visib":"6+","altim":1014,"clouds":[{"cover":"FEW","base":4500}],"obsTime":1775761200},"SBAX":{"icaoId":"SBAX","flightCategory":"VFR","rawOb":"METAR SBAX 091900Z 34004KT 9999 SCT030 26/20 Q1016","temp":26,"dewp":20,"wdir":340,"wspd":4,"visib":"6+","altim":1016,"clouds":[{"cover":"SCT","base":3000}],"obsTime":1775761200},"SBSM":{"icaoId":"SBSM","flightCategory":"VFR","rawOb":"METAR SBSM 091900Z 22003KT 9999 SCT040 24/13 Q1016","temp":24,"dewp":13,"wdir":220,"wspd":3,"visib":"6+","altim":1016,"clouds":[{"cover":"SCT","base":4000}],"obsTime":1775761200},"SBCC":{"icaoId":"SBCC","flightCategory":"MVFR","rawOb":"METAR SBCC 091900Z 03004KT 9999 BKN020 FEW025TCU BKN100 31/22 Q1011 RETS","temp":31,"dewp":22,"wdir":30,"wspd":4,"visib":"6+","altim":1011,"clouds":[{"cover":"BKN","base":2000},{"cover":"FEW","base":2500},{"cover":"BKN","base":10000}],"obsTime":1775761200},"SBSR":{"icaoId":"SBSR","flightCategory":"VFR","rawOb":"METAR SBSR 091900Z 24008KT 9999 SCT030 SCT070 29/21 Q1014","temp":29,"dewp":21,"wdir":240,"wspd":8,"visib":"6+","altim":1014,"clouds":[{"cover":"SCT","base":3000},{"cover":"SCT","base":7000}],"obsTime":1775761200},"SBIP":{"icaoId":"SBIP","flightCategory":"VFR","rawOb":"METAR SBIP 091900Z AUTO VRB01KT CAVOK 27/22 Q1011","temp":27,"dewp":22,"wdir":"VRB","wspd":1,"visib":"6+","altim":1011,"clouds":[],"obsTime":1775761200},"SBTF":{"icaoId":"SBTF","flightCategory":"VFR","rawOb":"METAR SBTF 091900Z 09003KT 9999 SCT020 34/26 Q1008","temp":34,"dewp":26,"wdir":90,"wspd":3,"visib":"6+","altim":1008,"clouds":[{"cover":"SCT","base":2000}],"obsTime":1775761200},"SBAR":{"icaoId":"SBAR","flightCategory":"VFR","rawOb":"METAR SBAR 091900Z 14009KT 9999 FEW023 SCT070 29/23 Q1011","temp":29,"dewp":23,"wdir":140,"wspd":9,"visib":"6+","altim":1011,"clouds":[{"cover":"FEW","base":2300},{"cover":"SCT","base":7000}],"obsTime":1775761200},"SBTT":{"icaoId":"SBTT","flightCategory":"VFR","rawOb":"METAR SBTT 091900Z 35002KT 9999 SCT025 FEW030TCU 28/22 Q1011","temp":28,"dewp":22,"wdir":350,"wspd":2,"visib":"6+","altim":1011,"clouds":[{"cover":"SCT","base":2500},{"cover":"FEW","base":3000}],"obsTime":1775761200},"SBKG":{"icaoId":"SBKG","flightCategory":"VFR","rawOb":"METAR SBKG 091900Z 10006KT 9999 FEW025 29/20 Q1012","temp":29,"dewp":20,"wdir":100,"wspd":6,"visib":"6+","altim":1012,"clouds":[{"cover":"FEW","base":2500}],"obsTime":1775761200},"SBUY":{"icaoId":"SBUY","flightCategory":"VFR","rawOb":"METAR SBUY 091900Z 09001KT 9999 VCSH SCT025 FEW030TCU 30/24 Q1008","temp":30,"dewp":24,"wdir":90,"wspd":1,"visib":"6+","altim":1008,"clouds":[{"cover":"SCT","base":2500},{"cover":"FEW","base":3000}],"obsTime":1775761200},"SBCJ":{"icaoId":"SBCJ","flightCategory":"VFR","rawOb":"METAR SBCJ 091900Z 02003KT 9999 SCT018 27/22 Q1014","temp":27,"dewp":22,"wdir":20,"wspd":3,"visib":"6+","altim":1014,"clouds":[{"cover":"SCT","base":1800}],"obsTime":1775761200},"SBVH":{"icaoId":"SBVH","flightCategory":"VFR","rawOb":"METAR SBVH 091900Z 15012KT 9999 TS VCSH BKN035 FEW040CB BKN100 25/21 Q1013","temp":25,"dewp":21,"wdir":150,"wspd":12,"visib":"6+","altim":1013,"clouds":[{"cover":"BKN","base":3500},{"cover":"FEW","base":4000},{"cover":"BKN","base":10000}],"obsTime":1775761200},"SBBQ":{"icaoId":"SBBQ","flightCategory":"VFR","rawOb":"METAR SBBQ 091900Z 10002KT 9999 BKN035 FEW040TCU 23/19 Q1018","temp":23,"dewp":19,"wdir":100,"wspd":2,"visib":"6+","altim":1018,"clouds":[{"cover":"BKN","base":3500},{"cover":"FEW","base":4000}],"obsTime":1775761200},"SBGM":{"icaoId":"SBGM","flightCategory":"MVFR","rawOb":"METAR SBGM 091900Z 24007KT 8000 SCT036 OVC043 25/23 Q1011 RETSRA","temp":25,"dewp":23,"wdir":240,"wspd":7,"visib":4.97,"altim":1011,"clouds":[{"cover":"SCT","base":3600},{"cover":"OVC","base":4300}],"obsTime":1775761200},"SBJP":{"icaoId":"SBJP","flightCategory":"VFR","rawOb":"METAR SBJP 091900Z 12012KT 9999 FEW020 BKN070 29/23 Q1011","temp":29,"dewp":23,"wdir":120,"wspd":12,"visib":"6+","altim":1011,"clouds":[{"cover":"FEW","base":2000},{"cover":"BKN","base":7000}],"obsTime":1775761200},"SBJV":{"icaoId":"SBJV","flightCategory":"VFR","rawOb":"METAR SBJV 091900Z 15007KT CAVOK 29/17 Q1012","temp":29,"dewp":17,"wdir":150,"wspd":7,"visib":"6+","altim":1012,"clouds":[],"obsTime":1775761200},"SBPF":{"icaoId":"SBPF","flightCategory":"VFR","rawOb":"METAR SBPF 092000Z 22008KT CAVOK 20/12 Q1018","temp":20,"dewp":12,"wdir":220,"wspd":8,"visib":"6+","altim":1018,"clouds":[],"obsTime":1775764800},"SBAN":{"icaoId":"SBAN","flightCategory":"MVFR","rawOb":"METAR SBAN 091900Z 25004KT 9999 VCSH BKN030 FEW035TCU 28/18 Q1017","temp":28,"dewp":18,"wdir":250,"wspd":4,"visib":"6+","altim":1017,"clouds":[{"cover":"BKN","base":3000},{"cover":"FEW","base":3500}],"obsTime":1775761200},"SBLE":{"icaoId":"SBLE","flightCategory":"VFR","rawOb":"METAR SBLE 091900Z AUTO 13005KT 080V180 CAVOK 30/19 Q1013","temp":30,"dewp":19,"wdir":130,"wspd":5,"visib":"6+","altim":1013,"clouds":[],"obsTime":1775761200},"SBIH":{"icaoId":"SBIH","flightCategory":"VFR","rawOb":"METAR SBIH 091900Z 07005KT 9999 FEW020 30/25 Q1009","temp":30,"dewp":25,"wdir":70,"wspd":5,"visib":"6+","altim":1009,"clouds":[{"cover":"FEW","base":2000}],"obsTime":1775761200},"SBAF":{"icaoId":"SBAF","flightCategory":"VFR","rawOb":"METAR SBAF 091900Z 20008KT 9999 FEW025 SCT050 28/21 Q1012","temp":28,"dewp":21,"wdir":200,"wspd":8,"visib":"6+","altim":1012,"clouds":[{"cover":"FEW","base":2500},{"cover":"SCT","base":5000}],"obsTime":1775761200},"SBGW":{"icaoId":"SBGW","flightCategory":"MVFR","rawOb":"METAR SBGW 091900Z 25005KT 220V310 9999 BKN030 FEW035TCU 30/19 Q1012","temp":30,"dewp":19,"wdir":250,"wspd":5,"visib":"6+","altim":1012,"clouds":[{"cover":"BKN","base":3000},{"cover":"FEW","base":3500}],"obsTime":1775761200},"SBJR":{"icaoId":"SBJR","flightCategory":"VFR","rawOb":"METAR SBJR 091900Z 22013KT 9999 FEW015 SCT025 BKN050 30/23 Q1011","temp":30,"dewp":23,"wdir":220,"wspd":13,"visib":"6+","altim":1011,"clouds":[{"cover":"FEW","base":1500},{"cover":"SCT","base":2500},{"cover":"BKN","base":5000}],"obsTime":1775761200},"SBLS":{"icaoId":"SBLS","flightCategory":"VFR","rawOb":"METAR SBLS 091900Z 29007KT 9999 FEW040 FEW045TCU 30/18 Q1014","temp":30,"dewp":18,"wdir":290,"wspd":7,"visib":"6+","altim":1014,"clouds":[{"cover":"FEW","base":4000},{"cover":"FEW","base":4500}],"obsTime":1775761200},"SBMT":{"icaoId":"SBMT","flightCategory":"MVFR","rawOb":"METAR SBMT 091900Z 14009KT 080V160 9999 BKN030 FEW035TCU 24/18 Q1015","temp":24,"dewp":18,"wdir":140,"wspd":9,"visib":"6+","altim":1015,"clouds":[{"cover":"BKN","base":3000},{"cover":"FEW","base":3500}],"obsTime":1775761200},"SBST":{"icaoId":"SBST","flightCategory":"VFR","rawOb":"METAR SBST 091900Z 27005KT 9999 SCT060 26/19 Q1012","temp":26,"dewp":19,"wdir":270,"wspd":5,"visib":"6+","altim":1012,"clouds":[{"cover":"SCT","base":6000}],"obsTime":1775761200},"SBTA":{"icaoId":"SBTA","flightCategory":"VFR","rawOb":"METAR SBTA 091900Z 23007KT 9999 SCT040 FEW045TCU 29/19 Q1012","temp":29,"dewp":19,"wdir":230,"wspd":7,"visib":"6+","altim":1012,"clouds":[{"cover":"SCT","base":4000},{"cover":"FEW","base":4500}],"obsTime":1775761200},"SBNM":{"icaoId":"SBNM","flightCategory":"VFR","rawOb":"METAR SBNM 091900Z 22004KT 9999 SCT030 25/17 Q1016","temp":25,"dewp":17,"wdir":220,"wspd":4,"visib":"6+","altim":1016,"clouds":[{"cover":"SCT","base":3000}],"obsTime":1775761200}}}