{"updated":1782769673,"count":84,"data":{"SBGR":{"icaoId":"SBGR","flightCategory":"VFR","rawOb":"METAR SBGR 292000Z 17002KT CAVOK 25/18 Q1020","temp":25,"dewp":18,"wdir":170,"wspd":2,"visib":"6+","altim":1020,"clouds":[],"obsTime":1782763200},"SBBE":{"icaoId":"SBBE","flightCategory":"MVFR","rawOb":"METAR SBBE 292000Z 13005KT 8000 TS VCSH SCT020 BKN030 FEW040CB 25/23 Q1010","temp":25,"dewp":23,"wdir":130,"wspd":5,"visib":4.97,"altim":1010,"clouds":[{"cover":"SCT","base":2000},{"cover":"BKN","base":3000},{"cover":"FEW","base":4000}],"obsTime":1782763200},"SBPJ":{"icaoId":"SBPJ","flightCategory":"VFR","rawOb":"METAR SBPJ 292000Z 25003KT 200V320 CAVOK 33/18 Q1013","temp":33,"dewp":18,"wdir":250,"wspd":3,"visib":"6+","altim":1013,"clouds":[],"obsTime":1782763200},"SBSG":{"icaoId":"SBSG","flightCategory":"MVFR","rawOb":"METAR SBSG 292000Z 11004KT 090V150 9999 VCSH BKN020 FEW026TCU BKN070 24/23 Q1014","temp":24,"dewp":23,"wdir":110,"wspd":4,"visib":"6+","altim":1014,"clouds":[{"cover":"BKN","base":2000},{"cover":"FEW","base":2600},{"cover":"BKN","base":7000}],"obsTime":1782763200},"SBSV":{"icaoId":"SBSV","flightCategory":"VFR","rawOb":"METAR SBSV 292000Z 09007KT 9999 SCT023 26/22 Q1017","temp":26,"dewp":22,"wdir":90,"wspd":7,"visib":"6+","altim":1017,"clouds":[{"cover":"SCT","base":2300}],"obsTime":1782763200},"SBCF":{"icaoId":"SBCF","flightCategory":"VFR","rawOb":"METAR SBCF 292000Z 05005KT CAVOK 24/12 Q1022","temp":24,"dewp":12,"wdir":50,"wspd":5,"visib":"6+","altim":1022,"clouds":[],"obsTime":1782763200},"SBRB":{"icaoId":"SBRB","flightCategory":"VFR","rawOb":"METAR SBRB 292000Z 15003KT 9999 SCT030 31/21 Q1012","temp":31,"dewp":21,"wdir":150,"wspd":3,"visib":"6+","altim":1012,"clouds":[{"cover":"SCT","base":3000}],"obsTime":1782763200},"SBFZ":{"icaoId":"SBFZ","flightCategory":"VFR","rawOb":"METAR SBFZ 292000Z 10014KT 9999 FEW025 BKN100 28/22 Q1012","temp":28,"dewp":22,"wdir":100,"wspd":14,"visib":"6+","altim":1012,"clouds":[{"cover":"FEW","base":2500},{"cover":"BKN","base":10000}],"obsTime":1782763200},"SBSL":{"icaoId":"SBSL","flightCategory":"MVFR","rawOb":"METAR SBSL 292000Z 06006KT 9999 BKN020 FEW025TCU 27/22 Q1011","temp":27,"dewp":22,"wdir":60,"wspd":6,"visib":"6+","altim":1011,"clouds":[{"cover":"BKN","base":2000},{"cover":"FEW","base":2500}],"obsTime":1782763200},"SBSN":{"icaoId":"SBSN","flightCategory":"VFR","rawOb":"METAR SBSN 292000Z 11007KT 9999 FEW020 FEW025TCU SCT090 30/24 Q1009","temp":30,"dewp":24,"wdir":110,"wspd":7,"visib":"6+","altim":1009,"clouds":[{"cover":"FEW","base":2000},{"cover":"FEW","base":2500},{"cover":"SCT","base":9000}],"obsTime":1782763200},"SBEG":{"icaoId":"SBEG","flightCategory":"VFR","rawOb":"METAR SBEG 292000Z 10012KT 9999 FEW035 FEW040TCU 31/23 Q1009","temp":31,"dewp":23,"wdir":100,"wspd":12,"visib":"6+","altim":1009,"clouds":[{"cover":"FEW","base":3500},{"cover":"FEW","base":4000}],"obsTime":1782763200},"SBCB":{"icaoId":"SBCB","flightCategory":"VFR","rawOb":"METAR SBCB 292000Z 10009KT CAVOK 25/20 Q1018","temp":25,"dewp":20,"wdir":100,"wspd":9,"visib":"6+","altim":1018,"clouds":[],"obsTime":1782763200},"SBGO":{"icaoId":"SBGO","flightCategory":"VFR","rawOb":"METAR SBGO 292000Z 15006KT CAVOK 29/15 Q1018","temp":29,"dewp":15,"wdir":150,"wspd":6,"visib":"6+","altim":1018,"clouds":[],"obsTime":1782763200},"SBPV":{"icaoId":"SBPV","flightCategory":"VFR","rawOb":"METAR SBPV 292000Z 14004KT CAVOK 32/21 Q1010","temp":32,"dewp":21,"wdir":140,"wspd":4,"visib":"6+","altim":1010,"clouds":[],"obsTime":1782763200},"SBMG":{"icaoId":"SBMG","flightCategory":"VFR","rawOb":"METAR SBMG 292000Z 32006KT 9999 FEW025TCU 26/18 Q1016","temp":26,"dewp":18,"wdir":320,"wspd":6,"visib":"6+","altim":1016,"clouds":[{"cover":"FEW","base":2500}],"obsTime":1782763200},"SBAT":{"icaoId":"SBAT","flightCategory":"VFR","rawOb":"METAR SBAT 292000Z 17006KT 9999 FEW030 34/15 Q1012","temp":34,"dewp":15,"wdir":170,"wspd":6,"visib":"6+","altim":1012,"clouds":[{"cover":"FEW","base":3000}],"obsTime":1782763200},"SBHT":{"icaoId":"SBHT","flightCategory":"MVFR","rawOb":"METAR SBHT 292000Z 00000KT 9999 BKN030 FEW035TCU 27/25 Q1010","temp":27,"dewp":25,"wdir":0,"wspd":0,"visib":"6+","altim":1010,"clouds":[{"cover":"BKN","base":3000},{"cover":"FEW","base":3500}],"obsTime":1782763200},"SBME":{"icaoId":"SBME","flightCategory":"VFR","rawOb":"METAR SBME 292000Z 02008KT CAVOK 27/18 Q1017","temp":27,"dewp":18,"wdir":20,"wspd":8,"visib":"6+","altim":1017,"clouds":[],"obsTime":1782763200},"SBMK":{"icaoId":"SBMK","flightCategory":"VFR","rawOb":"METAR SBMK 292000Z 08006KT CAVOK 26/11 Q1020","temp":26,"dewp":11,"wdir":80,"wspd":6,"visib":"6+","altim":1020,"clouds":[],"obsTime":1782763200},"SBUL":{"icaoId":"SBUL","flightCategory":"VFR","rawOb":"METAR SBUL 292000Z 06009KT 020V090 CAVOK 21/13 Q1021","temp":21,"dewp":13,"wdir":60,"wspd":9,"visib":"6+","altim":1021,"clouds":[],"obsTime":1782763200},"SBUR":{"icaoId":"SBUR","flightCategory":"VFR","rawOb":"METAR SBUR 292000Z 02006KT CAVOK 26/13 Q1020","temp":26,"dewp":13,"wdir":20,"wspd":6,"visib":"6+","altim":1020,"clouds":[],"obsTime":1782763200},"SBIL":{"icaoId":"SBIL","flightCategory":"VFR","rawOb":"METAR SBIL 292000Z 17006KT 9999 FEW025TCU 27/22 Q1018","temp":27,"dewp":22,"wdir":170,"wspd":6,"visib":"6+","altim":1018,"clouds":[{"cover":"FEW","base":2500}],"obsTime":1782763200},"SBJU":{"icaoId":"SBJU","flightCategory":"VFR","rawOb":"METAR SBJU 292000Z 03009KT 9999 SCT022 30/16 Q1014","temp":30,"dewp":16,"wdir":30,"wspd":9,"visib":"6+","altim":1014,"clouds":[{"cover":"SCT","base":2200}],"obsTime":1782763200},"SBCZ":{"icaoId":"SBCZ","flightCategory":"VFR","rawOb":"METAR SBCZ 292000Z 15003KT 9999 SCT026 BKN100 29/22 Q1013","temp":29,"dewp":22,"wdir":150,"wspd":3,"visib":"6+","altim":1013,"clouds":[{"cover":"SCT","base":2600},{"cover":"BKN","base":10000}],"obsTime":1782763200},"SBFI":{"icaoId":"SBFI","flightCategory":"IFR","rawOb":"METAR SBFI 292000Z 20002KT 9999 BKN006 SCT017 17/16 Q1016","temp":17,"dewp":16,"wdir":200,"wspd":2,"visib":"6+","altim":1016,"clouds":[{"cover":"BKN","base":600},{"cover":"SCT","base":1700}],"obsTime":1782763200},"SBNT":{"icaoId":"SBNT","flightCategory":"VFR","rawOb":"METAR SBNT 292000Z 16007KT 9999 VCSH SCT023 FEW027TCU BKN034 BKN080 25/23 Q1014","temp":25,"dewp":23,"wdir":160,"wspd":7,"visib":"6+","altim":1014,"clouds":[{"cover":"SCT","base":2300},{"cover":"FEW","base":2700},{"cover":"BKN","base":3400},{"cover":"BKN","base":8000}],"obsTime":1782763200},"SBCR":{"icaoId":"SBCR","flightCategory":"VFR","rawOb":"METAR SBCR 292000Z VRB03KT 9999 FEW040 30/19 Q1013","temp":30,"dewp":19,"wdir":"VRB","wspd":3,"visib":"6+","altim":1013,"clouds":[{"cover":"FEW","base":4000}],"obsTime":1782763200},"SBVT":{"icaoId":"SBVT","flightCategory":"VFR","rawOb":"METAR SBVT 292000Z 05010KT CAVOK 24/20 Q1018","temp":24,"dewp":20,"wdir":50,"wspd":10,"visib":"6+","altim":1018,"clouds":[],"obsTime":1782763200},"SBGL":{"icaoId":"SBGL","flightCategory":"VFR","rawOb":"METAR SBGL 292000Z 25010KT CAVOK 24/19 Q1017","temp":24,"dewp":19,"wdir":250,"wspd":10,"visib":"6+","altim":1017,"clouds":[],"obsTime":1782763200},"SBFL":{"icaoId":"SBFL","flightCategory":"MVFR","rawOb":"METAR SBFL 292000Z 19004KT 9999 BKN030 OVC040 16/11 Q1020","temp":16,"dewp":11,"wdir":190,"wspd":4,"visib":"6+","altim":1020,"clouds":[{"cover":"BKN","base":3000},{"cover":"OVC","base":4000}],"obsTime":1782763200},"SBPA":{"icaoId":"SBPA","flightCategory":"VFR","rawOb":"METAR SBPA 292000Z 15006KT 9999 FEW025 15/10 Q1019","temp":15,"dewp":10,"wdir":150,"wspd":6,"visib":"6+","altim":1019,"clouds":[{"cover":"FEW","base":2500}],"obsTime":1782763200},"SBKP":{"icaoId":"SBKP","flightCategory":"VFR","rawOb":"METAR SBKP 292000Z 01004KT 330V060 CAVOK 27/16 Q1019","temp":27,"dewp":16,"wdir":10,"wspd":4,"visib":"6+","altim":1019,"clouds":[],"obsTime":1782763200},"SBMQ":{"icaoId":"SBMQ","flightCategory":"IFR","rawOb":"METAR SBMQ 292000Z 10007KT 3000 RA BKN009 BKN016 FEW040TCU BKN066 27/25 Q1011","temp":27,"dewp":25,"wdir":100,"wspd":7,"visib":1.86,"altim":1011,"clouds":[{"cover":"BKN","base":900},{"cover":"BKN","base":1600},{"cover":"FEW","base":4000},{"cover":"BKN","base":6600}],"obsTime":1782763200},"SBCT":{"icaoId":"SBCT","flightCategory":"MVFR","rawOb":"METAR SBCT 292000Z 09006KT 8000 VCTS BKN010 FEW030CB BKN080 15/15 Q1020 RETS","temp":15,"dewp":15,"wdir":90,"wspd":6,"visib":4.97,"altim":1020,"clouds":[{"cover":"BKN","base":1000},{"cover":"FEW","base":3000},{"cover":"BKN","base":8000}],"obsTime":1782763200},"SBMA":{"icaoId":"SBMA","flightCategory":"VFR","rawOb":"METAR SBMA 292000Z 08003KT 9999 FEW020 FEW025TCU BKN080 32/20 Q1010","temp":32,"dewp":20,"wdir":80,"wspd":3,"visib":"6+","altim":1010,"clouds":[{"cover":"FEW","base":2000},{"cover":"FEW","base":2500},{"cover":"BKN","base":8000}],"obsTime":1782763200},"SBLO":{"icaoId":"SBLO","flightCategory":"VFR","rawOb":"METAR SBLO 292000Z 04005KT 9999 FEW040 26/19 Q1016","temp":26,"dewp":19,"wdir":40,"wspd":5,"visib":"6+","altim":1016,"clouds":[{"cover":"FEW","base":4000}],"obsTime":1782763200},"SBRF":{"icaoId":"SBRF","flightCategory":"MVFR","rawOb":"METAR SBRF 292000Z 12009KT 9999 VCSH BKN024 27/23 Q1015","temp":27,"dewp":23,"wdir":120,"wspd":9,"visib":"6+","altim":1015,"clouds":[{"cover":"BKN","base":2400}],"obsTime":1782763200},"SBCG":{"icaoId":"SBCG","flightCategory":"VFR","rawOb":"METAR SBCG 292000Z 31005KT 9999 FEW040 28/18 Q1016","temp":28,"dewp":18,"wdir":310,"wspd":5,"visib":"6+","altim":1016,"clouds":[{"cover":"FEW","base":4000}],"obsTime":1782763200},"SBTE":{"icaoId":"SBTE","flightCategory":"VFR","rawOb":"METAR SBTE 292000Z 13004KT 040V180 9999 FEW030 32/18 Q1011","temp":32,"dewp":18,"wdir":130,"wspd":4,"visib":"6+","altim":1011,"clouds":[{"cover":"FEW","base":3000}],"obsTime":1782763200},"SBCP":{"icaoId":"SBCP","flightCategory":"VFR","rawOb":"METAR SBCP 292000Z 09007KT CAVOK 25/19 Q1018","temp":25,"dewp":19,"wdir":90,"wspd":7,"visib":"6+","altim":1018,"clouds":[],"obsTime":1782763200},"SBBV":{"icaoId":"SBBV","flightCategory":"MVFR","rawOb":"METAR SBBV 292000Z 10005KT 9999 VCSH BKN025 FEW030TCU BKN080 30/24 Q1010","temp":30,"dewp":24,"wdir":100,"wspd":5,"visib":"6+","altim":1010,"clouds":[{"cover":"BKN","base":2500},{"cover":"FEW","base":3000},{"cover":"BKN","base":8000}],"obsTime":1782763200},"SBBR":{"icaoId":"SBBR","flightCategory":"VFR","rawOb":"METAR SBBR 292000Z 12009KT CAVOK 25/11 Q1021","temp":25,"dewp":11,"wdir":120,"wspd":9,"visib":"6+","altim":1021,"clouds":[],"obsTime":1782763200},"SBMO":{"icaoId":"SBMO","flightCategory":"IFR","rawOb":"METAR SBMO 292000Z 08006KT 040V140 4000 +SHRA SCT011 SCT020 BKN070 24/23 Q1016","temp":24,"dewp":23,"wdir":80,"wspd":6,"visib":2.49,"altim":1016,"clouds":[{"cover":"SCT","base":1100},{"cover":"SCT","base":2000},{"cover":"BKN","base":7000}],"obsTime":1782763200},"SBSP":{"icaoId":"SBSP","flightCategory":"IFR","rawOb":"METAR SBSP 292000Z 18009KT 8000 BKN006 18/17 Q1022","temp":18,"dewp":17,"wdir":180,"wspd":9,"visib":4.97,"altim":1022,"clouds":[{"cover":"BKN","base":600}],"obsTime":1782763200},"SBPB":{"icaoId":"SBPB","flightCategory":"VFR","rawOb":"METAR SBPB 292000Z 06009KT 9999 FEW020 28/24 Q1011","temp":28,"dewp":24,"wdir":60,"wspd":9,"visib":"6+","altim":1011,"clouds":[{"cover":"FEW","base":2000}],"obsTime":1782763200},"SBCJ":{"icaoId":"SBCJ","flightCategory":"VFR","rawOb":"METAR SBCJ 292000Z 12005KT 9999 SCT030 28/18 Q1016","temp":28,"dewp":18,"wdir":120,"wspd":5,"visib":"6+","altim":1016,"clouds":[{"cover":"SCT","base":3000}],"obsTime":1782763200},"SBSC":{"icaoId":"SBSC","flightCategory":"VFR","rawOb":"METAR SBSC 292000Z 18007KT 9999 FEW010 22/20 Q1018","temp":22,"dewp":20,"wdir":180,"wspd":7,"visib":"6+","altim":1018,"clouds":[{"cover":"FEW","base":1000}],"obsTime":1782763200},"SBCO":{"icaoId":"SBCO","flightCategory":"VFR","rawOb":"METAR SBCO 292000Z 13006KT CAVOK 15/10 Q1019","temp":15,"dewp":10,"wdir":130,"wspd":6,"visib":"6+","altim":1019,"clouds":[],"obsTime":1782763200},"SBSM":{"icaoId":"SBSM","flightCategory":"VFR","rawOb":"METAR SBSM 292000Z VRB02KT 9999 FEW030 13/10 Q1020","temp":13,"dewp":10,"wdir":"VRB","wspd":2,"visib":"6+","altim":1020,"clouds":[{"cover":"FEW","base":3000}],"obsTime":1782763200},"SBVH":{"icaoId":"SBVH","flightCategory":"VFR","rawOb":"METAR SBVH 292000Z 07006KT 9999 SCT035 29/19 Q1015","temp":29,"dewp":19,"wdir":70,"wspd":6,"visib":"6+","altim":1015,"clouds":[{"cover":"SCT","base":3500}],"obsTime":1782763200},"SBAX":{"icaoId":"SBAX","flightCategory":"VFR","rawOb":"METAR SBAX 292000Z COR AUTO 07004KT 040V100 CAVOK 23/13 Q1021","temp":23,"dewp":13,"wdir":70,"wspd":4,"visib":"6+","altim":1021,"clouds":[],"obsTime":1782763200},"SBBH":{"icaoId":"SBBH","flightCategory":"VFR","rawOb":"METAR SBBH 292000Z 07005KT CAVOK 25/12 Q1021","temp":25,"dewp":12,"wdir":70,"wspd":5,"visib":"6+","altim":1021,"clouds":[],"obsTime":1782763200},"SBBU":{"icaoId":"SBBU","flightCategory":"VFR","rawOb":"METAR SBBU 292000Z 01006KT CAVOK 28/18 Q1018","temp":28,"dewp":18,"wdir":10,"wspd":6,"visib":"6+","altim":1018,"clouds":[],"obsTime":1782763200},"SBDN":{"icaoId":"SBDN","flightCategory":"VFR","rawOb":"METAR SBDN 292000Z 30002KT 9999 SCT049 29/18 Q1016","temp":29,"dewp":18,"wdir":300,"wspd":2,"visib":"6+","altim":1016,"clouds":[{"cover":"SCT","base":4900}],"obsTime":1782763200},"SBSJ":{"icaoId":"SBSJ","flightCategory":"VFR","rawOb":"METAR SBSJ 292000Z 17003KT 9999 FEW045 26/16 Q1019","temp":26,"dewp":16,"wdir":170,"wspd":3,"visib":"6+","altim":1019,"clouds":[{"cover":"FEW","base":4500}],"obsTime":1782763200},"SBIP":{"icaoId":"SBIP","flightCategory":"VFR","rawOb":"METAR SBIP 292000Z AUTO 32003KT CAVOK 23/16 Q1019","temp":23,"dewp":16,"wdir":320,"wspd":3,"visib":"6+","altim":1019,"clouds":[],"obsTime":1782763200},"SBSR":{"icaoId":"SBSR","flightCategory":"VFR","rawOb":"METAR SBSR 292000Z 05005KT 9999 FEW035 28/15 Q1017","temp":28,"dewp":15,"wdir":50,"wspd":5,"visib":"6+","altim":1017,"clouds":[{"cover":"FEW","base":3500}],"obsTime":1782763200},"SBAR":{"icaoId":"SBAR","flightCategory":"VFR","rawOb":"METAR SBAR 292000Z 12010KT 9999 VCSH SCT023 BKN040 26/23 Q1016","temp":26,"dewp":23,"wdir":120,"wspd":10,"visib":"6+","altim":1016,"clouds":[{"cover":"SCT","base":2300},{"cover":"BKN","base":4000}],"obsTime":1782763200},"SBUY":{"icaoId":"SBUY","flightCategory":"VFR","rawOb":"METAR SBUY 292000Z 22005KT 9999 FEW020 FEW030TCU SCT100 29/24 Q1009","temp":29,"dewp":24,"wdir":220,"wspd":5,"visib":"6+","altim":1009,"clouds":[{"cover":"FEW","base":2000},{"cover":"FEW","base":3000},{"cover":"SCT","base":10000}],"obsTime":1782763200},"SBPL":{"icaoId":"SBPL","flightCategory":"VFR","rawOb":"METAR SBPL 292000Z 14010KT 9999 FEW030 27/20 Q1015","temp":27,"dewp":20,"wdir":140,"wspd":10,"visib":"6+","altim":1015,"clouds":[{"cover":"FEW","base":3000}],"obsTime":1782763200},"SBTT":{"icaoId":"SBTT","flightCategory":"VFR","rawOb":"METAR SBTT 292000Z 25004KT 9999 FEW030 27/23 Q1012","temp":27,"dewp":23,"wdir":250,"wspd":4,"visib":"6+","altim":1012,"clouds":[{"cover":"FEW","base":3000}],"obsTime":1782763200},"SBKG":{"icaoId":"SBKG","flightCategory":"VFR","rawOb":"METAR SBKG 292000Z 11008KT 9999 FEW020 25/20 Q1016","temp":25,"dewp":20,"wdir":110,"wspd":8,"visib":"6+","altim":1016,"clouds":[{"cover":"FEW","base":2000}],"obsTime":1782763200},"SBPP":{"icaoId":"SBPP","flightCategory":"MVFR","rawOb":"METAR SBPP 292000Z 26006KT 9999 BKN025 22/20 Q1016","temp":22,"dewp":20,"wdir":260,"wspd":6,"visib":"6+","altim":1016,"clouds":[{"cover":"BKN","base":2500}],"obsTime":1782763200},"SBTU":{"icaoId":"SBTU","flightCategory":"VFR","rawOb":"METAR SBTU 292000Z AUTO 36006KT 9999 // NCD ///// Q1012","temp":null,"dewp":null,"wdir":360,"wspd":6,"visib":"6+","altim":1012,"clouds":[],"obsTime":1782763200},"SBOI":{"icaoId":"SBOI","flightCategory":"VFR","rawOb":"METAR SBOI 292000Z AUTO 10007KT 050V150 9999 FEW037 31/23 Q1010","temp":31,"dewp":23,"wdir":100,"wspd":7,"visib":"6+","altim":1010,"clouds":[{"cover":"FEW","base":3700}],"obsTime":1782763200},"SBTF":{"icaoId":"SBTF","flightCategory":"VFR","rawOb":"METAR SBTF 292000Z 00000KT 9999 FEW008 SCT080 25/23 Q1010","temp":25,"dewp":23,"wdir":0,"wspd":0,"visib":"6+","altim":1010,"clouds":[{"cover":"FEW","base":800},{"cover":"SCT","base":8000}],"obsTime":1782763200},"SBCA":{"icaoId":"SBCA","flightCategory":"VFR","rawOb":"METAR SBCA 292000Z 31003KT 9999 FEW003 SCT007 SCT050TCU BKN100 20/19 Q1017","temp":20,"dewp":19,"wdir":310,"wspd":3,"visib":"6+","altim":1017,"clouds":[{"cover":"FEW","base":300},{"cover":"SCT","base":700},{"cover":"SCT","base":5000},{"cover":"BKN","base":10000}],"obsTime":1782763200},"SBES":{"icaoId":"SBES","flightCategory":"VFR","rawOb":"METAR SBES 292000Z 05004KT 020V080 CAVOK 25/// Q1017","temp":null,"dewp":null,"wdir":50,"wspd":4,"visib":"6+","altim":1017,"clouds":[],"obsTime":1782763200},"SBPS":{"icaoId":"SBPS","flightCategory":"VFR","rawOb":"METAR SBPS 292000Z 14003KT 060V200 9999 SCT016 OVC050 23/21 Q1019","temp":23,"dewp":21,"wdir":140,"wspd":3,"visib":"6+","altim":1019,"clouds":[{"cover":"SCT","base":1600},{"cover":"OVC","base":5000}],"obsTime":1782763200},"SBCC":{"icaoId":"SBCC","flightCategory":"VFR","rawOb":"METAR SBCC 292000Z 08009KT 9999 FEW030 31/16 Q1013","temp":31,"dewp":16,"wdir":80,"wspd":9,"visib":"6+","altim":1013,"clouds":[{"cover":"FEW","base":3000}],"obsTime":1782763200},"SBJV":{"icaoId":"SBJV","flightCategory":"MVFR","rawOb":"METAR SBJV 292000Z 31004KT 240V340 7000 -RA BKN013 BKN025 16/15 Q1020","temp":16,"dewp":15,"wdir":310,"wspd":4,"visib":4.35,"altim":1020,"clouds":[{"cover":"BKN","base":1300},{"cover":"BKN","base":2500}],"obsTime":1782763200},"SBNM":{"icaoId":"SBNM","flightCategory":"VFR","rawOb":"METAR SBNM 292000Z AUTO 16004KT CAVOK 17/10 Q1018","temp":17,"dewp":10,"wdir":160,"wspd":4,"visib":"6+","altim":1018,"clouds":[],"obsTime":1782763200},"SBPF":{"icaoId":"SBPF","flightCategory":"MVFR","rawOb":"METAR SBPF 292000Z 13004KT 9999 BKN019 14/13 Q1018","temp":14,"dewp":13,"wdir":130,"wspd":4,"visib":"6+","altim":1018,"clouds":[{"cover":"BKN","base":1900}],"obsTime":1782763200},"SBAN":{"icaoId":"SBAN","flightCategory":"VFR","rawOb":"METAR SBAN 292000Z 12005KT 9999 FEW030 25/13 Q1021","temp":25,"dewp":13,"wdir":120,"wspd":5,"visib":"6+","altim":1021,"clouds":[{"cover":"FEW","base":3000}],"obsTime":1782763200},"SBIH":{"icaoId":"SBIH","flightCategory":"VFR","rawOb":"METAR SBIH 292000Z 06007KT 9999 FEW020 FEW025TCU 31/25 Q1009","temp":31,"dewp":25,"wdir":60,"wspd":7,"visib":"6+","altim":1009,"clouds":[{"cover":"FEW","base":2000},{"cover":"FEW","base":2500}],"obsTime":1782763200},"SBAF":{"icaoId":"SBAF","flightCategory":"VFR","rawOb":"METAR SBAF 292000Z 19009KT CAVOK 23/23 Q1018","temp":23,"dewp":23,"wdir":190,"wspd":9,"visib":"6+","altim":1018,"clouds":[],"obsTime":1782763200},"SBGW":{"icaoId":"SBGW","flightCategory":"VFR","rawOb":"METAR SBGW 292000Z 06006KT CAVOK 26/13 Q1019","temp":26,"dewp":13,"wdir":60,"wspd":6,"visib":"6+","altim":1019,"clouds":[],"obsTime":1782763200},"SBJR":{"icaoId":"SBJR","flightCategory":"MVFR","rawOb":"METAR SBJR 292000Z 19002KT 8000 FEW015 22/19 Q1018","temp":22,"dewp":19,"wdir":190,"wspd":2,"visib":4.97,"altim":1018,"clouds":[{"cover":"FEW","base":1500}],"obsTime":1782763200},"SBLS":{"icaoId":"SBLS","flightCategory":"VFR","rawOb":"METAR SBLS 292000Z 12007KT CAVOK 23/15 Q1021","temp":23,"dewp":15,"wdir":120,"wspd":7,"visib":"6+","altim":1021,"clouds":[],"obsTime":1782763200},"SBMT":{"icaoId":"SBMT","flightCategory":"VFR","rawOb":"METAR SBMT 292000Z 21013KT 9999 BKN045 21/17 Q1021","temp":21,"dewp":17,"wdir":210,"wspd":13,"visib":"6+","altim":1021,"clouds":[{"cover":"BKN","base":4500}],"obsTime":1782763200},"SBST":{"icaoId":"SBST","flightCategory":"VFR","rawOb":"METAR SBST 292000Z 16002KT 9000 FEW020 20/18 Q1019","temp":20,"dewp":18,"wdir":160,"wspd":2,"visib":5.59,"altim":1019,"clouds":[{"cover":"FEW","base":2000}],"obsTime":1782763200},"SBTA":{"icaoId":"SBTA","flightCategory":"VFR","rawOb":"METAR SBTA 292000Z 02003KT 350V050 9999 FEW020 27/16 Q1018","temp":27,"dewp":16,"wdir":20,"wspd":3,"visib":"6+","altim":1018,"clouds":[{"cover":"FEW","base":2000}],"obsTime":1782763200},"SBLE":{"icaoId":"SBLE","flightCategory":"VFR","rawOb":"METAR SBLE 292000Z AUTO 08004KT CAVOK ///// Q////","temp":null,"dewp":null,"wdir":80,"wspd":4,"visib":"6+","altim":null,"clouds":[],"obsTime":1782763200},"SBJP":{"icaoId":"SBJP","flightCategory":"MVFR","rawOb":"METAR SBJP 292000Z 09007KT 9999 BKN019 26/23 Q1015","temp":26,"dewp":23,"wdir":90,"wspd":7,"visib":"6+","altim":1015,"clouds":[{"cover":"BKN","base":1900}],"obsTime":1782763200}}}