{"updated":1774182161,"count":84,"data":{"SBPV":{"icaoId":"SBPV","flightCategory":"VFR","rawOb":"METAR SBPV 221100Z 10003KT CAVOK 26/23 Q1009","temp":26,"dewp":23,"wdir":100,"wspd":3,"visib":"6+","altim":1009,"clouds":[],"obsTime":1774177200},"SBBE":{"icaoId":"SBBE","flightCategory":"VFR","rawOb":"METAR SBBE 221100Z 06006KT 9999 FEW017 26/24 Q1011","temp":26,"dewp":24,"wdir":60,"wspd":6,"visib":"6+","altim":1011,"clouds":[{"cover":"FEW","base":1700}],"obsTime":1774177200},"SBBR":{"icaoId":"SBBR","flightCategory":"VFR","rawOb":"METAR SBBR 221100Z VRB02KT 9999 SCT010 BKN070 21/19 Q1019","temp":21,"dewp":19,"wdir":"VRB","wspd":2,"visib":"6+","altim":1019,"clouds":[{"cover":"SCT","base":1000},{"cover":"BKN","base":7000}],"obsTime":1774177200},"SBBV":{"icaoId":"SBBV","flightCategory":"VFR","rawOb":"METAR SBBV 221100Z 11008KT CAVOK 27/21 Q1011","temp":27,"dewp":21,"wdir":110,"wspd":8,"visib":"6+","altim":1011,"clouds":[],"obsTime":1774177200},"SBCB":{"icaoId":"SBCB","flightCategory":"VFR","rawOb":"METAR SBCB 221100Z 13005KT 9999 FEW020 26/23 Q1013","temp":26,"dewp":23,"wdir":130,"wspd":5,"visib":"6+","altim":1013,"clouds":[{"cover":"FEW","base":2000}],"obsTime":1774177200},"SBCF":{"icaoId":"SBCF","flightCategory":"VFR","rawOb":"METAR SBCF 221100Z VRB02KT 9999 SCT030 SCT070 22/20 Q1018","temp":22,"dewp":20,"wdir":"VRB","wspd":2,"visib":"6+","altim":1018,"clouds":[{"cover":"SCT","base":3000},{"cover":"SCT","base":7000}],"obsTime":1774177200},"SBCG":{"icaoId":"SBCG","flightCategory":"VFR","rawOb":"METAR SBCG 221100Z VRB02KT CAVOK 26/23 Q1014","temp":26,"dewp":23,"wdir":"VRB","wspd":2,"visib":"6+","altim":1014,"clouds":[],"obsTime":1774177200},"SBCP":{"icaoId":"SBCP","flightCategory":"VFR","rawOb":"METAR SBCP 221100Z 34005KT CAVOK 25/23 Q1013","temp":25,"dewp":23,"wdir":340,"wspd":5,"visib":"6+","altim":1013,"clouds":[],"obsTime":1774177200},"SBCR":{"icaoId":"SBCR","flightCategory":"VFR","rawOb":"METAR SBCR 221100Z 08003KT 340V140 CAVOK 26/24 Q1011","temp":26,"dewp":24,"wdir":80,"wspd":3,"visib":"6+","altim":1011,"clouds":[],"obsTime":1774177200},"SBCT":{"icaoId":"SBCT","flightCategory":"VFR","rawOb":"METAR SBCT 221100Z 14004KT 9999 SCT005 OVC080 20/20 Q1018","temp":20,"dewp":20,"wdir":140,"wspd":4,"visib":"6+","altim":1018,"clouds":[{"cover":"SCT","base":500},{"cover":"OVC","base":8000}],"obsTime":1774177200},"SBCZ":{"icaoId":"SBCZ","flightCategory":"MVFR","rawOb":"METAR SBCZ 221200Z 19001KT 5000 BR FEW004 OVC070 23/23 Q1009","temp":23,"dewp":23,"wdir":190,"wspd":1,"visib":3.11,"altim":1009,"clouds":[{"cover":"FEW","base":400},{"cover":"OVC","base":7000}],"obsTime":1774180800},"SBEG":{"icaoId":"SBEG","flightCategory":"VFR","rawOb":"METAR SBEG 221100Z 08008KT CAVOK 27/23 Q1010","temp":27,"dewp":23,"wdir":80,"wspd":8,"visib":"6+","altim":1010,"clouds":[],"obsTime":1774177200},"SBFI":{"icaoId":"SBFI","flightCategory":"VFR","rawOb":"METAR SBFI 221100Z 00000KT 9999 FEW030 SCT070 28/27 Q1011","temp":28,"dewp":27,"wdir":0,"wspd":0,"visib":"6+","altim":1011,"clouds":[{"cover":"FEW","base":3000},{"cover":"SCT","base":7000}],"obsTime":1774177200},"SBFL":{"icaoId":"SBFL","flightCategory":"VFR","rawOb":"METAR SBFL 221100Z 31009KT 9999 FEW012 26/24 Q1011","temp":26,"dewp":24,"wdir":310,"wspd":9,"visib":"6+","altim":1011,"clouds":[{"cover":"FEW","base":1200}],"obsTime":1774177200},"SBFZ":{"icaoId":"SBFZ","flightCategory":"VFR","rawOb":"METAR SBFZ 221100Z 15003KT 9999 SCT020 BKN100 27/25 Q1011","temp":27,"dewp":25,"wdir":150,"wspd":3,"visib":"6+","altim":1011,"clouds":[{"cover":"SCT","base":2000},{"cover":"BKN","base":10000}],"obsTime":1774177200},"SBGL":{"icaoId":"SBGL","flightCategory":"MVFR","rawOb":"METAR SBGL 221100Z 06003KT 330V110 8000 SCT010 25/23 Q1012","temp":25,"dewp":23,"wdir":60,"wspd":3,"visib":4.97,"altim":1012,"clouds":[{"cover":"SCT","base":1000}],"obsTime":1774177200},"SBGO":{"icaoId":"SBGO","flightCategory":"VFR","rawOb":"METAR SBGO 221100Z VRB03KT 9999 FEW009 SCT021 BKN080 22/21 Q1017","temp":22,"dewp":21,"wdir":"VRB","wspd":3,"visib":"6+","altim":1017,"clouds":[{"cover":"FEW","base":900},{"cover":"SCT","base":2100},{"cover":"BKN","base":8000}],"obsTime":1774177200},"SBGR":{"icaoId":"SBGR","flightCategory":"LIFR","rawOb":"METAR SBGR 221100Z 11001KT 3000 BR OVC004 18/17 Q1017","temp":18,"dewp":17,"wdir":110,"wspd":1,"visib":1.86,"altim":1017,"clouds":[{"cover":"OVC","base":400}],"obsTime":1774177200},"SBHT":{"icaoId":"SBHT","flightCategory":"VFR","rawOb":"METAR SBHT 221100Z 00000KT CAVOK 25/24 Q1011","temp":25,"dewp":24,"wdir":0,"wspd":0,"visib":"6+","altim":1011,"clouds":[],"obsTime":1774177200},"SBIL":{"icaoId":"SBIL","flightCategory":"MVFR","rawOb":"METAR SBIL 221100Z 29009KT 9999 VCSH FEW020 FEW023TCU BKN030 28/26 Q1014","temp":28,"dewp":26,"wdir":290,"wspd":9,"visib":"6+","altim":1014,"clouds":[{"cover":"FEW","base":2000},{"cover":"FEW","base":2300},{"cover":"BKN","base":3000}],"obsTime":1774177200},"SBJU":{"icaoId":"SBJU","flightCategory":"MVFR","rawOb":"METAR SBJU 221100Z 00000KT 9999 BKN020 26/23 Q1015","temp":26,"dewp":23,"wdir":0,"wspd":0,"visib":"6+","altim":1015,"clouds":[{"cover":"BKN","base":2000}],"obsTime":1774177200},"SBKP":{"icaoId":"SBKP","flightCategory":"MVFR","rawOb":"METAR SBKP 221100Z 10004KT 5000 BR NSC 19/18 Q1016","temp":19,"dewp":18,"wdir":100,"wspd":4,"visib":3.11,"altim":1016,"clouds":[],"obsTime":1774177200},"SBLO":{"icaoId":"SBLO","flightCategory":"VFR","rawOb":"METAR SBLO 221100Z 18002KT 9999 FEW030 SCT100 25/21 Q1015","temp":25,"dewp":21,"wdir":180,"wspd":2,"visib":"6+","altim":1015,"clouds":[{"cover":"FEW","base":3000},{"cover":"SCT","base":10000}],"obsTime":1774177200},"SBMA":{"icaoId":"SBMA","flightCategory":"VFR","rawOb":"METAR SBMA 221100Z 34002KT 9999 FEW015 SCT100 26/24 Q1011","temp":26,"dewp":24,"wdir":340,"wspd":2,"visib":"6+","altim":1011,"clouds":[{"cover":"FEW","base":1500},{"cover":"SCT","base":10000}],"obsTime":1774177200},"SBME":{"icaoId":"SBME","flightCategory":"VFR","rawOb":"METAR SBME 221100Z 32002KT 9999 1500N NSC 25/24 Q1013","temp":25,"dewp":24,"wdir":320,"wspd":2,"visib":"6+","altim":1013,"clouds":[],"obsTime":1774177200},"SBMG":{"icaoId":"SBMG","flightCategory":"VFR","rawOb":"METAR SBMG 221100Z 35005KT 9999 SCT045 SCT070 25/23 Q1014","temp":25,"dewp":23,"wdir":350,"wspd":5,"visib":"6+","altim":1014,"clouds":[{"cover":"SCT","base":4500},{"cover":"SCT","base":7000}],"obsTime":1774177200},"SBMK":{"icaoId":"SBMK","flightCategory":"VFR","rawOb":"METAR SBMK 221100Z 08003KT 9999 FEW008 SCT015 22/21 Q1017","temp":22,"dewp":21,"wdir":80,"wspd":3,"visib":"6+","altim":1017,"clouds":[{"cover":"FEW","base":800},{"cover":"SCT","base":1500}],"obsTime":1774177200},"SBMO":{"icaoId":"SBMO","flightCategory":"MVFR","rawOb":"METAR SBMO 221100Z 05006KT 9999 FEW013 BKN025 29/25 Q1013","temp":29,"dewp":25,"wdir":50,"wspd":6,"visib":"6+","altim":1013,"clouds":[{"cover":"FEW","base":1300},{"cover":"BKN","base":2500}],"obsTime":1774177200},"SBMQ":{"icaoId":"SBMQ","flightCategory":"VFR","rawOb":"METAR SBMQ 221100Z 01004KT 9999 FEW015 27/25 Q1011","temp":27,"dewp":25,"wdir":10,"wspd":4,"visib":"6+","altim":1011,"clouds":[{"cover":"FEW","base":1500}],"obsTime":1774177200},"SBNT":{"icaoId":"SBNT","flightCategory":"VFR","rawOb":"METAR SBNT 221100Z 13007KT 9999 SCT021 29/24 Q1012","temp":29,"dewp":24,"wdir":130,"wspd":7,"visib":"6+","altim":1012,"clouds":[{"cover":"SCT","base":2100}],"obsTime":1774177200},"SBPA":{"icaoId":"SBPA","flightCategory":"MVFR","rawOb":"METAR SBPA 221100Z 06004KT 9999 BKN015 BKN020 24/23 Q1012","temp":24,"dewp":23,"wdir":60,"wspd":4,"visib":"6+","altim":1012,"clouds":[{"cover":"BKN","base":1500},{"cover":"BKN","base":2000}],"obsTime":1774177200},"SBPJ":{"icaoId":"SBPJ","flightCategory":"VFR","rawOb":"METAR SBPJ 221100Z 16006KT 9999 FEW012 27/24 Q1014","temp":27,"dewp":24,"wdir":160,"wspd":6,"visib":"6+","altim":1014,"clouds":[{"cover":"FEW","base":1200}],"obsTime":1774177200},"SBAT":{"icaoId":"SBAT","flightCategory":"VFR","rawOb":"METAR SBAT 221200Z 05003KT CAVOK 27/24 Q1013","temp":27,"dewp":24,"wdir":50,"wspd":3,"visib":"6+","altim":1013,"clouds":[],"obsTime":1774180800},"SBRB":{"icaoId":"SBRB","flightCategory":"LIFR","rawOb":"METAR SBRB 221100Z 07003KT 9999 BKN002 SCT100 23/23 Q1010","temp":23,"dewp":23,"wdir":70,"wspd":3,"visib":"6+","altim":1010,"clouds":[{"cover":"BKN","base":200},{"cover":"SCT","base":10000}],"obsTime":1774177200},"SBRF":{"icaoId":"SBRF","flightCategory":"MVFR","rawOb":"METAR SBRF 221100Z 24001KT 9999 BKN018 29/25 Q1012","temp":29,"dewp":25,"wdir":240,"wspd":1,"visib":"6+","altim":1012,"clouds":[{"cover":"BKN","base":1800}],"obsTime":1774177200},"SBSG":{"icaoId":"SBSG","flightCategory":"VFR","rawOb":"METAR SBSG 221100Z 16003KT 080V210 9999 SCT020 28/24 Q1013","temp":28,"dewp":24,"wdir":160,"wspd":3,"visib":"6+","altim":1013,"clouds":[{"cover":"SCT","base":2000}],"obsTime":1774177200},"SBSL":{"icaoId":"SBSL","flightCategory":"VFR","rawOb":"METAR SBSL 221100Z 13005KT CAVOK 26/23 Q1011","temp":26,"dewp":23,"wdir":130,"wspd":5,"visib":"6+","altim":1011,"clouds":[],"obsTime":1774177200},"SBSN":{"icaoId":"SBSN","flightCategory":"VFR","rawOb":"METAR SBSN 221100Z 12004KT 9999 FEW008 26/25 Q1010","temp":26,"dewp":25,"wdir":120,"wspd":4,"visib":"6+","altim":1010,"clouds":[{"cover":"FEW","base":800}],"obsTime":1774177200},"SBSP":{"icaoId":"SBSP","flightCategory":"IFR","rawOb":"METAR SBSP 221100Z VRB01KT 4000 BR NSC 20/19 Q1018","temp":20,"dewp":19,"wdir":"VRB","wspd":1,"visib":2.49,"altim":1018,"clouds":[],"obsTime":1774177200},"SBSV":{"icaoId":"SBSV","flightCategory":"MVFR","rawOb":"METAR SBSV 221100Z 01006KT 340V040 9999 VCSH BKN019 FEW021TCU 29/23 Q1013","temp":29,"dewp":23,"wdir":10,"wspd":6,"visib":"6+","altim":1013,"clouds":[{"cover":"BKN","base":1900},{"cover":"FEW","base":2100}],"obsTime":1774177200},"SBTE":{"icaoId":"SBTE","flightCategory":"VFR","rawOb":"METAR SBTE 221100Z 03003KT 9999 FEW016 26/23 Q1012","temp":26,"dewp":23,"wdir":30,"wspd":3,"visib":"6+","altim":1012,"clouds":[{"cover":"FEW","base":1600}],"obsTime":1774177200},"SBUL":{"icaoId":"SBUL","flightCategory":"LIFR","rawOb":"METAR SBUL 221100Z 05004KT 360V080 0200 R22/0300 R04/0400 FG VV001 20/20 Q1019","temp":20,"dewp":20,"wdir":50,"wspd":4,"visib":0.12,"altim":1019,"clouds":[{"cover":"OVX","base":100}],"obsTime":1774177200},"SBUR":{"icaoId":"SBUR","flightCategory":"VFR","rawOb":"METAR SBUR 221100Z 03004KT CAVOK 24/20 Q1017","temp":24,"dewp":20,"wdir":30,"wspd":4,"visib":"6+","altim":1017,"clouds":[],"obsTime":1774177200},"SBVT":{"icaoId":"SBVT","flightCategory":"VFR","rawOb":"METAR SBVT 221100Z VRB02KT CAVOK 26/22 Q1013","temp":26,"dewp":22,"wdir":"VRB","wspd":2,"visib":"6+","altim":1013,"clouds":[],"obsTime":1774177200},"SBOI":{"icaoId":"SBOI","flightCategory":"IFR","rawOb":"METAR SBOI 221100Z AUTO 00000KT 1900 BR VV002 24/24 Q1011","temp":24,"dewp":24,"wdir":0,"wspd":0,"visib":1.18,"altim":1011,"clouds":[{"cover":"OVX","base":200}],"obsTime":1774177200},"SBAR":{"icaoId":"SBAR","flightCategory":"VFR","rawOb":"METAR SBAR 221100Z 06006KT 9999 SCT020 30/24 Q1012","temp":30,"dewp":24,"wdir":60,"wspd":6,"visib":"6+","altim":1012,"clouds":[{"cover":"SCT","base":2000}],"obsTime":1774177200},"SBAX":{"icaoId":"SBAX","flightCategory":"VFR","rawOb":"METAR SBAX 221100Z AUTO 00000KT CAVOK ///// Q1019","temp":null,"dewp":null,"wdir":0,"wspd":0,"visib":"6+","altim":1019,"clouds":[],"obsTime":1774177200},"SBVH":{"icaoId":"SBVH","flightCategory":"VFR","rawOb":"METAR SBVH 221100Z 09003KT 9999 FEW005 SCT080 22/21 Q1013","temp":22,"dewp":21,"wdir":90,"wspd":3,"visib":"6+","altim":1013,"clouds":[{"cover":"FEW","base":500},{"cover":"SCT","base":8000}],"obsTime":1774177200},"SBBH":{"icaoId":"SBBH","flightCategory":"VFR","rawOb":"METAR SBBH 221100Z 09001KT 9999 FEW035 SCT080 23/20 Q1018","temp":23,"dewp":20,"wdir":90,"wspd":1,"visib":"6+","altim":1018,"clouds":[{"cover":"FEW","base":3500},{"cover":"SCT","base":8000}],"obsTime":1774177200},"SBBQ":{"icaoId":"SBBQ","flightCategory":"VFR","rawOb":"METAR SBBQ 221200Z 26004KT CAVOK 23/17 Q1020","temp":23,"dewp":17,"wdir":260,"wspd":4,"visib":"6+","altim":1020,"clouds":[],"obsTime":1774180800},"SBBU":{"icaoId":"SBBU","flightCategory":"VFR","rawOb":"METAR SBBU 221100Z 10002KT CAVOK 25/20 Q1016","temp":25,"dewp":20,"wdir":100,"wspd":2,"visib":"6+","altim":1016,"clouds":[],"obsTime":1774177200},"SBCA":{"icaoId":"SBCA","flightCategory":"VFR","rawOb":"METAR SBCA 221100Z 02008KT 9999 FEW020 BKN050 25/22 Q1015","temp":25,"dewp":22,"wdir":20,"wspd":8,"visib":"6+","altim":1015,"clouds":[{"cover":"FEW","base":2000},{"cover":"BKN","base":5000}],"obsTime":1774177200},"SBCC":{"icaoId":"SBCC","flightCategory":"VFR","rawOb":"METAR SBCC 221100Z 03005KT CAVOK 24/21 Q1013","temp":24,"dewp":21,"wdir":30,"wspd":5,"visib":"6+","altim":1013,"clouds":[],"obsTime":1774177200},"SBCJ":{"icaoId":"SBCJ","flightCategory":"MVFR","rawOb":"METAR SBCJ 221100Z 09003KT 5000 BR SCT004 23/22 Q1016","temp":23,"dewp":22,"wdir":90,"wspd":3,"visib":3.11,"altim":1016,"clouds":[{"cover":"SCT","base":400}],"obsTime":1774177200},"SBCO":{"icaoId":"SBCO","flightCategory":"MVFR","rawOb":"METAR SBCO 221100Z 03003KT 9999 BKN017 OVC030 24/23 Q1012","temp":24,"dewp":23,"wdir":30,"wspd":3,"visib":"6+","altim":1012,"clouds":[{"cover":"BKN","base":1700},{"cover":"OVC","base":3000}],"obsTime":1774177200},"SBDN":{"icaoId":"SBDN","flightCategory":"VFR","rawOb":"METAR SBDN 221100Z 21002KT CAVOK 26/22 Q1014","temp":26,"dewp":22,"wdir":210,"wspd":2,"visib":"6+","altim":1014,"clouds":[],"obsTime":1774177200},"SBES":{"icaoId":"SBES","flightCategory":"VFR","rawOb":"METAR SBES 221100Z VRB01KT 9999 FEW015 24/// Q1013","temp":null,"dewp":null,"wdir":"VRB","wspd":1,"visib":"6+","altim":1013,"clouds":[{"cover":"FEW","base":1500}],"obsTime":1774177200},"SBGM":{"icaoId":"SBGM","flightCategory":"VFR","rawOb":"METAR SBGM 221200Z 17005KT 9999 SCT026 OVC050 23/21 Q1012","temp":23,"dewp":21,"wdir":170,"wspd":5,"visib":"6+","altim":1012,"clouds":[{"cover":"SCT","base":2600},{"cover":"OVC","base":5000}],"obsTime":1774180800},"SBIP":{"icaoId":"SBIP","flightCategory":"VFR","rawOb":"METAR SBIP 221100Z AUTO 00000KT 9999 FEW029 26/23 Q1015","temp":26,"dewp":23,"wdir":0,"wspd":0,"visib":"6+","altim":1015,"clouds":[{"cover":"FEW","base":2900}],"obsTime":1774177200},"SBKG":{"icaoId":"SBKG","flightCategory":"MVFR","rawOb":"METAR SBKG 221100Z 09010KT 9999 BKN017 26/21 Q1015","temp":26,"dewp":21,"wdir":90,"wspd":10,"visib":"6+","altim":1015,"clouds":[{"cover":"BKN","base":1700}],"obsTime":1774177200},"SBPB":{"icaoId":"SBPB","flightCategory":"VFR","rawOb":"METAR SBPB 221100Z 13005KT 9999 FEW016 BKN090 26/24 Q1011","temp":26,"dewp":24,"wdir":130,"wspd":5,"visib":"6+","altim":1011,"clouds":[{"cover":"FEW","base":1600},{"cover":"BKN","base":9000}],"obsTime":1774177200},"SBPL":{"icaoId":"SBPL","flightCategory":"VFR","rawOb":"METAR SBPL 221100Z 11005KT 9999 FEW025 28/21 Q1014","temp":28,"dewp":21,"wdir":110,"wspd":5,"visib":"6+","altim":1014,"clouds":[{"cover":"FEW","base":2500}],"obsTime":1774177200},"SBPP":{"icaoId":"SBPP","flightCategory":"VFR","rawOb":"SPECI SBPP 221115Z 35008KT CAVOK 25/22 Q1014","temp":25,"dewp":22,"wdir":350,"wspd":8,"visib":"6+","altim":1014,"clouds":[],"obsTime":1774178100},"SBPS":{"icaoId":"SBPS","flightCategory":"MVFR","rawOb":"METAR SBPS 221100Z VRB03KT 9999 FEW010 BKN016 OVC040 24/23 Q1014","temp":24,"dewp":23,"wdir":"VRB","wspd":3,"visib":"6+","altim":1014,"clouds":[{"cover":"FEW","base":1000},{"cover":"BKN","base":1600},{"cover":"OVC","base":4000}],"obsTime":1774177200},"SBSC":{"icaoId":"SBSC","flightCategory":"VFR","rawOb":"METAR SBSC 221100Z 04004KT 9999 FEW020 26/23 Q1010","temp":26,"dewp":23,"wdir":40,"wspd":4,"visib":"6+","altim":1010,"clouds":[{"cover":"FEW","base":2000}],"obsTime":1774177200},"SBSJ":{"icaoId":"SBSJ","flightCategory":"IFR","rawOb":"METAR SBSJ 221100Z 23003KT 3000 BR BKN009 21/// Q1017","temp":null,"dewp":null,"wdir":230,"wspd":3,"visib":1.86,"altim":1017,"clouds":[{"cover":"BKN","base":900}],"obsTime":1774177200},"SBSM":{"icaoId":"SBSM","flightCategory":"MVFR","rawOb":"METAR SBSM 221100Z VRB02KT 9999 FEW004 BKN023 22/21 Q1012","temp":22,"dewp":21,"wdir":"VRB","wspd":2,"visib":"6+","altim":1012,"clouds":[{"cover":"FEW","base":400},{"cover":"BKN","base":2300}],"obsTime":1774177200},"SBSR":{"icaoId":"SBSR","flightCategory":"VFR","rawOb":"METAR SBSR 221100Z 09003KT CAVOK 25/21 Q1016","temp":25,"dewp":21,"wdir":90,"wspd":3,"visib":"6+","altim":1016,"clouds":[],"obsTime":1774177200},"SBTF":{"icaoId":"SBTF","flightCategory":"VFR","rawOb":"SPECI SBTF 221115Z 13003KT CAVOK 27/26 Q1008","temp":27,"dewp":26,"wdir":130,"wspd":3,"visib":"6+","altim":1008,"clouds":[],"obsTime":1774178100},"SBTT":{"icaoId":"SBTT","flightCategory":"VFR","rawOb":"METAR SBTT 221100Z 22003KT CAVOK 24/23 Q1008","temp":24,"dewp":23,"wdir":220,"wspd":3,"visib":"6+","altim":1008,"clouds":[],"obsTime":1774177200},"SBUY":{"icaoId":"SBUY","flightCategory":"VFR","rawOb":"METAR SBUY 221100Z 10002KT CAVOK 24/23 Q1007","temp":24,"dewp":23,"wdir":100,"wspd":2,"visib":"6+","altim":1007,"clouds":[],"obsTime":1774177200},"SBTA":{"icaoId":"SBTA","flightCategory":"IFR","rawOb":"METAR SBTA 221100Z VRB02KT 6000 OVC008 20/20 Q1015","temp":20,"dewp":20,"wdir":"VRB","wspd":2,"visib":3.73,"altim":1015,"clouds":[{"cover":"OVC","base":800}],"obsTime":1774177200},"SBAF":{"icaoId":"SBAF","flightCategory":"VFR","rawOb":"METAR SBAF 221100Z 20001KT CAVOK 26/25 Q1013","temp":26,"dewp":25,"wdir":200,"wspd":1,"visib":"6+","altim":1013,"clouds":[],"obsTime":1774177200},"SBAN":{"icaoId":"SBAN","flightCategory":"VFR","rawOb":"METAR SBAN 221100Z 35001KT 9999 VCSH FEW005 BKN100 20/18 Q1020","temp":20,"dewp":18,"wdir":350,"wspd":1,"visib":"6+","altim":1020,"clouds":[{"cover":"FEW","base":500},{"cover":"BKN","base":10000}],"obsTime":1774177200},"SBGW":{"icaoId":"SBGW","flightCategory":"IFR","rawOb":"METAR SBGW 221100Z VRB02KT 5000 HZ BKN009 21/17 Q1015","temp":21,"dewp":17,"wdir":"VRB","wspd":2,"visib":3.11,"altim":1015,"clouds":[{"cover":"BKN","base":900}],"obsTime":1774177200},"SBIH":{"icaoId":"SBIH","flightCategory":"VFR","rawOb":"METAR SBIH 221100Z 36002KT 9999 FEW006 24/24 Q1010","temp":24,"dewp":24,"wdir":360,"wspd":2,"visib":"6+","altim":1010,"clouds":[{"cover":"FEW","base":600}],"obsTime":1774177200},"SBJP":{"icaoId":"SBJP","flightCategory":"VFR","rawOb":"METAR SBJP 221100Z 09006KT 9999 FEW020 29/25 Q1013","temp":29,"dewp":25,"wdir":90,"wspd":6,"visib":"6+","altim":1013,"clouds":[{"cover":"FEW","base":2000}],"obsTime":1774177200},"SBJR":{"icaoId":"SBJR","flightCategory":"VFR","rawOb":"METAR SBJR 221100Z 00000KT CAVOK 28/22 Q1012","temp":28,"dewp":22,"wdir":0,"wspd":0,"visib":"6+","altim":1012,"clouds":[],"obsTime":1774177200},"SBJV":{"icaoId":"SBJV","flightCategory":"MVFR","rawOb":"METAR SBJV 221100Z 24007KT 9999 SCT012 BKN030 25/25 Q1011","temp":25,"dewp":25,"wdir":240,"wspd":7,"visib":"6+","altim":1011,"clouds":[{"cover":"SCT","base":1200},{"cover":"BKN","base":3000}],"obsTime":1774177200},"SBLE":{"icaoId":"SBLE","flightCategory":"VFR","rawOb":"METAR SBLE 221100Z AUTO VRB02KT 9999 FEW011 SCT013 OVC031 24/24 Q1016","temp":24,"dewp":24,"wdir":"VRB","wspd":2,"visib":"6+","altim":1016,"clouds":[{"cover":"FEW","base":1100},{"cover":"SCT","base":1300},{"cover":"OVC","base":3100}],"obsTime":1774177200},"SBLS":{"icaoId":"SBLS","flightCategory":"VFR","rawOb":"METAR SBLS 221100Z VRB03KT 9999 SCT033 23/20 Q1018","temp":23,"dewp":20,"wdir":"VRB","wspd":3,"visib":"6+","altim":1018,"clouds":[{"cover":"SCT","base":3300}],"obsTime":1774177200},"SBMT":{"icaoId":"SBMT","flightCategory":"MVFR","rawOb":"METAR SBMT 221100Z 10004KT 8000 NSC 19/18 Q1017","temp":19,"dewp":18,"wdir":100,"wspd":4,"visib":4.97,"altim":1017,"clouds":[],"obsTime":1774177200},"SBPF":{"icaoId":"SBPF","flightCategory":"VFR","rawOb":"METAR SBPF 221100Z 04008KT 9999 SCT030 22/20 Q1015","temp":22,"dewp":20,"wdir":40,"wspd":8,"visib":"6+","altim":1015,"clouds":[{"cover":"SCT","base":3000}],"obsTime":1774177200},"SBST":{"icaoId":"SBST","flightCategory":"VFR","rawOb":"METAR SBST 221100Z 00000KT 9999 FEW020 22/22 Q1013","temp":22,"dewp":22,"wdir":0,"wspd":0,"visib":"6+","altim":1013,"clouds":[{"cover":"FEW","base":2000}],"obsTime":1774177200}}}