{"updated":1784135147,"count":87,"data":{"SBSP":{"icaoId":"SBSP","flightCategory":"VFR","rawOb":"METAR SBSP 151600Z 05005KT 360V120 CAVOK 19/08 Q1025","temp":19,"dewp":8,"wdir":50,"wspd":5,"visib":"6+","altim":1025,"clouds":[],"obsTime":1784131200},"SBCZ":{"icaoId":"SBCZ","flightCategory":"MVFR","rawOb":"METAR SBCZ 151600Z 01003KT 340V110 9999 BKN020 30/23 Q1016","temp":30,"dewp":23,"wdir":10,"wspd":3,"visib":"6+","altim":1016,"clouds":[{"cover":"BKN","base":2000}],"obsTime":1784131200},"SBNT":{"icaoId":"SBNT","flightCategory":"VFR","rawOb":"METAR SBNT 151600Z 14014KT 9999 SCT026 BKN090 28/23 Q1016 RESHRA","temp":28,"dewp":23,"wdir":140,"wspd":14,"visib":"6+","altim":1016,"clouds":[{"cover":"SCT","base":2600},{"cover":"BKN","base":9000}],"obsTime":1784131200},"SBPV":{"icaoId":"SBPV","flightCategory":"VFR","rawOb":"METAR SBPV 151600Z VRB02KT 9999 FEW035 BKN050 30/23 Q1014","temp":30,"dewp":23,"wdir":"VRB","wspd":2,"visib":"6+","altim":1014,"clouds":[{"cover":"FEW","base":3500},{"cover":"BKN","base":5000}],"obsTime":1784131200},"SBFI":{"icaoId":"SBFI","flightCategory":"VFR","rawOb":"METAR SBFI 151600Z 07010G20KT CAVOK 24/08 Q1017","temp":24,"dewp":8,"wdir":70,"wspd":10,"visib":"6+","altim":1017,"clouds":[],"obsTime":1784131200},"SBCP":{"icaoId":"SBCP","flightCategory":"VFR","rawOb":"METAR SBCP 151600Z 09008KT 9999 SCT020 25/08 Q1025","temp":25,"dewp":8,"wdir":90,"wspd":8,"visib":"6+","altim":1025,"clouds":[{"cover":"SCT","base":2000}],"obsTime":1784131200},"SBMQ":{"icaoId":"SBMQ","flightCategory":"VFR","rawOb":"METAR SBMQ 151600Z 07009KT 9999 FEW025 32/24 Q1014","temp":32,"dewp":24,"wdir":70,"wspd":9,"visib":"6+","altim":1014,"clouds":[{"cover":"FEW","base":2500}],"obsTime":1784131200},"SBSN":{"icaoId":"SBSN","flightCategory":"VFR","rawOb":"METAR SBSN 151600Z 09015KT 9999 FEW023 31/23 Q1014","temp":31,"dewp":23,"wdir":90,"wspd":15,"visib":"6+","altim":1014,"clouds":[{"cover":"FEW","base":2300}],"obsTime":1784131200},"SBBE":{"icaoId":"SBBE","flightCategory":"VFR","rawOb":"METAR SBBE 151600Z 06009KT 9999 BKN043 31/22 Q1014","temp":31,"dewp":22,"wdir":60,"wspd":9,"visib":"6+","altim":1014,"clouds":[{"cover":"BKN","base":4300}],"obsTime":1784131200},"SBBR":{"icaoId":"SBBR","flightCategory":"VFR","rawOb":"METAR SBBR 151600Z 09008KT 050V150 CAVOK 25/15 Q1023","temp":25,"dewp":15,"wdir":90,"wspd":8,"visib":"6+","altim":1023,"clouds":[],"obsTime":1784131200},"SBMO":{"icaoId":"SBMO","flightCategory":"MVFR","rawOb":"METAR SBMO 151600Z 14013KT 9999 BKN030 28/20 Q1018","temp":28,"dewp":20,"wdir":140,"wspd":13,"visib":"6+","altim":1018,"clouds":[{"cover":"BKN","base":3000}],"obsTime":1784131200},"SBRB":{"icaoId":"SBRB","flightCategory":"VFR","rawOb":"METAR SBRB 151600Z 08003KT 9999 FEW030 30/22 Q1015","temp":30,"dewp":22,"wdir":80,"wspd":3,"visib":"6+","altim":1015,"clouds":[{"cover":"FEW","base":3000}],"obsTime":1784131200},"SBCT":{"icaoId":"SBCT","flightCategory":"VFR","rawOb":"METAR SBCT 151600Z 02006KT 350V060 CAVOK 16/09 Q1024","temp":16,"dewp":9,"wdir":20,"wspd":6,"visib":"6+","altim":1024,"clouds":[],"obsTime":1784131200},"SBEG":{"icaoId":"SBEG","flightCategory":"VFR","rawOb":"METAR SBEG 151600Z 06003KT 350V120 9999 SCT025 31/23 Q1014","temp":31,"dewp":23,"wdir":60,"wspd":3,"visib":"6+","altim":1014,"clouds":[{"cover":"SCT","base":2500}],"obsTime":1784131200},"SBSG":{"icaoId":"SBSG","flightCategory":"VFR","rawOb":"METAR SBSG 151600Z 13008KT 090V160 9999 SCT030 SCT050 26/23 Q1017","temp":26,"dewp":23,"wdir":130,"wspd":8,"visib":"6+","altim":1017,"clouds":[{"cover":"SCT","base":3000},{"cover":"SCT","base":5000}],"obsTime":1784131200},"SBSV":{"icaoId":"SBSV","flightCategory":"VFR","rawOb":"METAR SBSV 151600Z 15017KT 9999 SCT027 BKN033 BKN063 26/19 Q1021","temp":26,"dewp":19,"wdir":150,"wspd":17,"visib":"6+","altim":1021,"clouds":[{"cover":"SCT","base":2700},{"cover":"BKN","base":3300},{"cover":"BKN","base":6300}],"obsTime":1784131200},"SBPJ":{"icaoId":"SBPJ","flightCategory":"VFR","rawOb":"METAR SBPJ 151600Z 12007KT 9999 SCT040 27/23 Q1016 RESHRA","temp":27,"dewp":23,"wdir":120,"wspd":7,"visib":"6+","altim":1016,"clouds":[{"cover":"SCT","base":4000}],"obsTime":1784131200},"SBFL":{"icaoId":"SBFL","flightCategory":"VFR","rawOb":"METAR SBFL 151600Z 34013KT 9999 BKN033 20/15 Q1022","temp":20,"dewp":15,"wdir":340,"wspd":13,"visib":"6+","altim":1022,"clouds":[{"cover":"BKN","base":3300}],"obsTime":1784131200},"SBMA":{"icaoId":"SBMA","flightCategory":"VFR","rawOb":"METAR SBMA 151600Z 03002KT 9999 FEW025TCU BKN070 29/24 Q1015","temp":29,"dewp":24,"wdir":30,"wspd":2,"visib":"6+","altim":1015,"clouds":[{"cover":"FEW","base":2500},{"cover":"BKN","base":7000}],"obsTime":1784131200},"SBVT":{"icaoId":"SBVT","flightCategory":"VFR","rawOb":"METAR SBVT 151600Z 17008KT 9999 SCT025 SCT053 BKN070 23/12 Q1025","temp":23,"dewp":12,"wdir":170,"wspd":8,"visib":"6+","altim":1025,"clouds":[{"cover":"SCT","base":2500},{"cover":"SCT","base":5300},{"cover":"BKN","base":7000}],"obsTime":1784131200},"SBGO":{"icaoId":"SBGO","flightCategory":"VFR","rawOb":"METAR SBGO 151600Z 05008KT 330V130 CAVOK 30/15 Q1021","temp":30,"dewp":15,"wdir":50,"wspd":8,"visib":"6+","altim":1021,"clouds":[],"obsTime":1784131200},"SBSL":{"icaoId":"SBSL","flightCategory":"MVFR","rawOb":"METAR SBSL 151600Z 08008KT 9999 FEW018 BKN025 29/24 Q1015","temp":29,"dewp":24,"wdir":80,"wspd":8,"visib":"6+","altim":1015,"clouds":[{"cover":"FEW","base":1800},{"cover":"BKN","base":2500}],"obsTime":1784131200},"SBFZ":{"icaoId":"SBFZ","flightCategory":"VFR","rawOb":"METAR SBFZ 151600Z 11016KT 9999 SCT027 30/24 Q1015","temp":30,"dewp":24,"wdir":110,"wspd":16,"visib":"6+","altim":1015,"clouds":[{"cover":"SCT","base":2700}],"obsTime":1784131200},"SBGL":{"icaoId":"SBGL","flightCategory":"VFR","rawOb":"METAR SBGL 151600Z 05008KT 020V090 9999 FEW020 24/12 Q1024","temp":24,"dewp":12,"wdir":50,"wspd":8,"visib":"6+","altim":1024,"clouds":[{"cover":"FEW","base":2000}],"obsTime":1784131200},"SBKP":{"icaoId":"SBKP","flightCategory":"VFR","rawOb":"METAR SBKP 151600Z VRB05KT CAVOK 22/07 Q1023","temp":22,"dewp":7,"wdir":"VRB","wspd":5,"visib":"6+","altim":1023,"clouds":[],"obsTime":1784131200},"SBRF":{"icaoId":"SBRF","flightCategory":"VFR","rawOb":"METAR SBRF 151600Z 15014KT 9999 SCT025 29/23 Q1017","temp":29,"dewp":23,"wdir":150,"wspd":14,"visib":"6+","altim":1017,"clouds":[{"cover":"SCT","base":2500}],"obsTime":1784131200},"SBCB":{"icaoId":"SBCB","flightCategory":"VFR","rawOb":"METAR SBCB 151600Z 10008KT 9999 FEW020 SCT040 23/13 Q1025","temp":23,"dewp":13,"wdir":100,"wspd":8,"visib":"6+","altim":1025,"clouds":[{"cover":"FEW","base":2000},{"cover":"SCT","base":4000}],"obsTime":1784131200},"SBCF":{"icaoId":"SBCF","flightCategory":"VFR","rawOb":"METAR SBCF 151600Z 12006KT 9999 SCT030 21/10 Q1025","temp":21,"dewp":10,"wdir":120,"wspd":6,"visib":"6+","altim":1025,"clouds":[{"cover":"SCT","base":3000}],"obsTime":1784131200},"SBBV":{"icaoId":"SBBV","flightCategory":"VFR","rawOb":"METAR SBBV 151600Z 08010KT 9999 BKN035 31/22 Q1015","temp":31,"dewp":22,"wdir":80,"wspd":10,"visib":"6+","altim":1015,"clouds":[{"cover":"BKN","base":3500}],"obsTime":1784131200},"SBGR":{"icaoId":"SBGR","flightCategory":"VFR","rawOb":"METAR SBGR 151600Z 06008KT CAVOK 19/08 Q1025","temp":19,"dewp":8,"wdir":60,"wspd":8,"visib":"6+","altim":1025,"clouds":[],"obsTime":1784131200},"SBPA":{"icaoId":"SBPA","flightCategory":"VFR","rawOb":"METAR SBPA 151600Z VRB04KT CAVOK 21/11 Q1018","temp":21,"dewp":11,"wdir":"VRB","wspd":4,"visib":"6+","altim":1018,"clouds":[],"obsTime":1784131200},"SBTE":{"icaoId":"SBTE","flightCategory":"VFR","rawOb":"METAR SBTE 151600Z 19012KT 9999 SCT040 BKN080 28/23 Q1015","temp":28,"dewp":23,"wdir":190,"wspd":12,"visib":"6+","altim":1015,"clouds":[{"cover":"SCT","base":4000},{"cover":"BKN","base":8000}],"obsTime":1784131200},"SBCG":{"icaoId":"SBCG","flightCategory":"VFR","rawOb":"METAR SBCG 151600Z 02008KT 340V060 CAVOK 28/12 Q1018","temp":28,"dewp":12,"wdir":20,"wspd":8,"visib":"6+","altim":1018,"clouds":[],"obsTime":1784131200},"SBCR":{"icaoId":"SBCR","flightCategory":"VFR","rawOb":"METAR SBCR 151600Z 06009KT 030V100 CAVOK 30/16 Q1014","temp":30,"dewp":16,"wdir":60,"wspd":9,"visib":"6+","altim":1014,"clouds":[],"obsTime":1784131200},"SBLO":{"icaoId":"SBLO","flightCategory":"VFR","rawOb":"METAR SBLO 151600Z 08008KT CAVOK 21/11 Q1022","temp":21,"dewp":11,"wdir":80,"wspd":8,"visib":"6+","altim":1022,"clouds":[],"obsTime":1784131200},"SBIL":{"icaoId":"SBIL","flightCategory":"VFR","rawOb":"METAR SBIL 151600Z 20013KT 9999 SCT020 BKN040 26/18 Q1022","temp":26,"dewp":18,"wdir":200,"wspd":13,"visib":"6+","altim":1022,"clouds":[{"cover":"SCT","base":2000},{"cover":"BKN","base":4000}],"obsTime":1784131200},"SBJU":{"icaoId":"SBJU","flightCategory":"VFR","rawOb":"METAR SBJU 151600Z 18007KT 9999 FEW022 31/16 Q1018","temp":31,"dewp":16,"wdir":180,"wspd":7,"visib":"6+","altim":1018,"clouds":[{"cover":"FEW","base":2200}],"obsTime":1784131200},"SBAT":{"icaoId":"SBAT","flightCategory":"VFR","rawOb":"METAR SBAT 151600Z 02002KT 9999 SCT030 33/22 Q1015","temp":33,"dewp":22,"wdir":20,"wspd":2,"visib":"6+","altim":1015,"clouds":[{"cover":"SCT","base":3000}],"obsTime":1784131200},"SBHT":{"icaoId":"SBHT","flightCategory":"MVFR","rawOb":"METAR SBHT 151600Z 12004KT 9999 BKN030 32/24 Q1014","temp":32,"dewp":24,"wdir":120,"wspd":4,"visib":"6+","altim":1014,"clouds":[{"cover":"BKN","base":3000}],"obsTime":1784131200},"SBMG":{"icaoId":"SBMG","flightCategory":"VFR","rawOb":"METAR SBMG 151600Z 02009KT 350V050 CAVOK 22/11 Q1020","temp":22,"dewp":11,"wdir":20,"wspd":9,"visib":"6+","altim":1020,"clouds":[],"obsTime":1784131200},"SBME":{"icaoId":"SBME","flightCategory":"VFR","rawOb":"METAR SBME 151600Z 09011KT 9999 SCT045 23/13 Q1025","temp":23,"dewp":13,"wdir":90,"wspd":11,"visib":"6+","altim":1025,"clouds":[{"cover":"SCT","base":4500}],"obsTime":1784131200},"SBMK":{"icaoId":"SBMK","flightCategory":"VFR","rawOb":"METAR SBMK 151600Z 07007KT 9999 FEW045 25/12 Q1023","temp":25,"dewp":12,"wdir":70,"wspd":7,"visib":"6+","altim":1023,"clouds":[{"cover":"FEW","base":4500}],"obsTime":1784131200},"SBUL":{"icaoId":"SBUL","flightCategory":"VFR","rawOb":"METAR SBUL 151600Z 09011KT CAVOK 23/11 Q1023","temp":23,"dewp":11,"wdir":90,"wspd":11,"visib":"6+","altim":1023,"clouds":[],"obsTime":1784131200},"SBUR":{"icaoId":"SBUR","flightCategory":"VFR","rawOb":"METAR SBUR 151600Z 02005KT CAVOK 26/09 Q1022","temp":26,"dewp":9,"wdir":20,"wspd":5,"visib":"6+","altim":1022,"clouds":[],"obsTime":1784131200},"SBUY":{"icaoId":"SBUY","flightCategory":"MVFR","rawOb":"METAR SBUY 151600Z 00000KT 9999 BKN025 29/24 Q1013","temp":29,"dewp":24,"wdir":0,"wspd":0,"visib":"6+","altim":1013,"clouds":[{"cover":"BKN","base":2500}],"obsTime":1784131200},"SBOI":{"icaoId":"SBOI","flightCategory":"VFR","rawOb":"METAR SBOI 151600Z AUTO 08006KT 040V140 9999 FEW041 33/23 Q1014","temp":33,"dewp":23,"wdir":80,"wspd":6,"visib":"6+","altim":1014,"clouds":[{"cover":"FEW","base":4100}],"obsTime":1784131200},"SBTT":{"icaoId":"SBTT","flightCategory":"VFR","rawOb":"METAR SBTT 151600Z 18005KT 150V220 9999 SCT020 BKN080 25/24 Q1015","temp":25,"dewp":24,"wdir":180,"wspd":5,"visib":"6+","altim":1015,"clouds":[{"cover":"SCT","base":2000},{"cover":"BKN","base":8000}],"obsTime":1784131200},"SBPP":{"icaoId":"SBPP","flightCategory":"VFR","rawOb":"METAR SBPP 151600Z 05014KT CAVOK 23/10 Q1018","temp":23,"dewp":10,"wdir":50,"wspd":14,"visib":"6+","altim":1018,"clouds":[],"obsTime":1784131200},"SBSJ":{"icaoId":"SBSJ","flightCategory":"VFR","rawOb":"METAR SBSJ 151600Z 35004KT CAVOK 19/09 Q1024","temp":19,"dewp":9,"wdir":350,"wspd":4,"visib":"6+","altim":1024,"clouds":[],"obsTime":1784131200},"SBPS":{"icaoId":"SBPS","flightCategory":"VFR","rawOb":"METAR SBPS 151600Z 15007KT 9999 SCT030 24/15 Q1023","temp":24,"dewp":15,"wdir":150,"wspd":7,"visib":"6+","altim":1023,"clouds":[{"cover":"SCT","base":3000}],"obsTime":1784131200},"SBPB":{"icaoId":"SBPB","flightCategory":"VFR","rawOb":"METAR SBPB 151600Z 08014KT 9999 FEW020 BKN100 30/24 Q1014","temp":30,"dewp":24,"wdir":80,"wspd":14,"visib":"6+","altim":1014,"clouds":[{"cover":"FEW","base":2000},{"cover":"BKN","base":10000}],"obsTime":1784131200},"SBTF":{"icaoId":"SBTF","flightCategory":"VFR","rawOb":"METAR SBTF 151600Z 06006KT 9999 SCT015 31/26 Q1014","temp":31,"dewp":26,"wdir":60,"wspd":6,"visib":"6+","altim":1014,"clouds":[{"cover":"SCT","base":1500}],"obsTime":1784131200},"SBCJ":{"icaoId":"SBCJ","flightCategory":"VFR","rawOb":"SPECI SBCJ 151530Z VRB07KT 9999 SCT006 SCT013 26/22 Q1019","temp":26,"dewp":22,"wdir":"VRB","wspd":7,"visib":"6+","altim":1019,"clouds":[{"cover":"SCT","base":600},{"cover":"SCT","base":1300}],"obsTime":1784129400},"SBPL":{"icaoId":"SBPL","flightCategory":"VFR","rawOb":"SPECI SBPL 151530Z 12015KT 9999 VCSH SCT012 SCT020 25/21 Q1020","temp":25,"dewp":21,"wdir":120,"wspd":15,"visib":"6+","altim":1020,"clouds":[{"cover":"SCT","base":1200},{"cover":"SCT","base":2000}],"obsTime":1784129400},"SBAR":{"icaoId":"SBAR","flightCategory":"IFR","rawOb":"SPECI SBAR 151506Z 16014G25KT 3000 -RA BR BKN009 SCT020 BKN040 23/22 Q1020","temp":23,"dewp":22,"wdir":160,"wspd":14,"visib":1.86,"altim":1020,"clouds":[{"cover":"BKN","base":900},{"cover":"SCT","base":2000},{"cover":"BKN","base":4000}],"obsTime":1784127960},"SBCO":{"icaoId":"SBCO","flightCategory":"VFR","rawOb":"METAR SBCO 151600Z 07004KT 360V120 CAVOK 21/10 Q1019","temp":21,"dewp":10,"wdir":70,"wspd":4,"visib":"6+","altim":1019,"clouds":[],"obsTime":1784131200},"SBSM":{"icaoId":"SBSM","flightCategory":"VFR","rawOb":"METAR SBSM 151600Z 02008KT 340V050 CAVOK 21/10 Q1017","temp":21,"dewp":10,"wdir":20,"wspd":8,"visib":"6+","altim":1017,"clouds":[],"obsTime":1784131200},"SBAU":{"icaoId":"SBAU","flightCategory":"VFR","rawOb":"METAR SBAU 151600Z 06008KT CAVOK 27/09 Q1020","temp":27,"dewp":9,"wdir":60,"wspd":8,"visib":"6+","altim":1020,"clouds":[],"obsTime":1784131200},"SBAX":{"icaoId":"SBAX","flightCategory":"VFR","rawOb":"METAR SBAX 151600Z 06006KT CAVOK 22/08 Q1024","temp":22,"dewp":8,"wdir":60,"wspd":6,"visib":"6+","altim":1024,"clouds":[],"obsTime":1784131200},"SBBH":{"icaoId":"SBBH","flightCategory":"VFR","rawOb":"METAR SBBH 151600Z 11008KT 9999 FEW040 21/10 Q1025","temp":21,"dewp":10,"wdir":110,"wspd":8,"visib":"6+","altim":1025,"clouds":[{"cover":"FEW","base":4000}],"obsTime":1784131200},"SBBQ":{"icaoId":"SBBQ","flightCategory":"VFR","rawOb":"METAR SBBQ 151600Z 08007KT 9999 SCT025 16/09 Q1029","temp":16,"dewp":9,"wdir":80,"wspd":7,"visib":"6+","altim":1029,"clouds":[{"cover":"SCT","base":2500}],"obsTime":1784131200},"SBBU":{"icaoId":"SBBU","flightCategory":"VFR","rawOb":"METAR SBBU 151600Z 07004KT CAVOK 22/13 Q1023","temp":22,"dewp":13,"wdir":70,"wspd":4,"visib":"6+","altim":1023,"clouds":[],"obsTime":1784131200},"SBDN":{"icaoId":"SBDN","flightCategory":"VFR","rawOb":"METAR SBDN 151600Z 07006KT CAVOK 24/11 Q1021","temp":24,"dewp":11,"wdir":70,"wspd":6,"visib":"6+","altim":1021,"clouds":[],"obsTime":1784131200},"SBIP":{"icaoId":"SBIP","flightCategory":"VFR","rawOb":"METAR SBIP 151600Z AUTO 03008KT 340V080 CAVOK 24/10 Q1024","temp":24,"dewp":10,"wdir":30,"wspd":8,"visib":"6+","altim":1024,"clouds":[],"obsTime":1784131200},"SBSC":{"icaoId":"SBSC","flightCategory":"VFR","rawOb":"METAR SBSC 151600Z 03007KT 9999 FEW040 24/13 Q1024","temp":24,"dewp":13,"wdir":30,"wspd":7,"visib":"6+","altim":1024,"clouds":[{"cover":"FEW","base":4000}],"obsTime":1784131200},"SBSR":{"icaoId":"SBSR","flightCategory":"VFR","rawOb":"METAR SBSR 151600Z 03007KT CAVOK 26/09 Q1021","temp":26,"dewp":9,"wdir":30,"wspd":7,"visib":"6+","altim":1021,"clouds":[],"obsTime":1784131200},"SBES":{"icaoId":"SBES","flightCategory":"VFR","rawOb":"METAR SBES 151600Z 04010KT 350V080 9999 FEW025 23/// Q1025","temp":null,"dewp":null,"wdir":40,"wspd":10,"visib":"6+","altim":1025,"clouds":[{"cover":"FEW","base":2500}],"obsTime":1784131200},"SBTU":{"icaoId":"SBTU","flightCategory":"MVFR","rawOb":"METAR SBTU 151600Z AUTO 19007KT 160V230 9999 // BKN026/// 30/23 Q1016","temp":30,"dewp":23,"wdir":190,"wspd":7,"visib":"6+","altim":1016,"clouds":[{"cover":"BKN","base":2600}],"obsTime":1784131200},"SBKG":{"icaoId":"SBKG","flightCategory":"MVFR","rawOb":"METAR SBKG 151600Z 14011KT 9999 BKN025 28/18 Q1019","temp":28,"dewp":18,"wdir":140,"wspd":11,"visib":"6+","altim":1019,"clouds":[{"cover":"BKN","base":2500}],"obsTime":1784131200},"SBCC":{"icaoId":"SBCC","flightCategory":"MVFR","rawOb":"METAR SBCC 151600Z 16007KT 120V210 9000 -SHRA BKN030 FEW035TCU BKN100 26/22 Q1017","temp":26,"dewp":22,"wdir":160,"wspd":7,"visib":5.59,"altim":1017,"clouds":[{"cover":"BKN","base":3000},{"cover":"FEW","base":3500},{"cover":"BKN","base":10000}],"obsTime":1784131200},"SBGM":{"icaoId":"SBGM","flightCategory":"VFR","rawOb":"METAR SBGM 151600Z 02004KT CAVOK 32/14 Q1014","temp":32,"dewp":14,"wdir":20,"wspd":4,"visib":"6+","altim":1014,"clouds":[],"obsTime":1784131200},"SBVH":{"icaoId":"SBVH","flightCategory":"VFR","rawOb":"METAR SBVH 151600Z 33009KT 9999 BKN040 30/20 Q1017","temp":30,"dewp":20,"wdir":330,"wspd":9,"visib":"6+","altim":1017,"clouds":[{"cover":"BKN","base":4000}],"obsTime":1784131200},"SBTD":{"icaoId":"SBTD","flightCategory":"VFR","rawOb":"METAR SBTD 151600Z /////KT CAVOK 22/10 Q1020","temp":22,"dewp":10,"wdir":null,"wspd":null,"visib":"6+","altim":1020,"clouds":[],"obsTime":1784131200},"SBJP":{"icaoId":"SBJP","flightCategory":"VFR","rawOb":"METAR SBJP 151600Z 12015KT 9999 FEW030 30/21 Q1017","temp":30,"dewp":21,"wdir":120,"wspd":15,"visib":"6+","altim":1017,"clouds":[{"cover":"FEW","base":3000}],"obsTime":1784131200},"SBAN":{"icaoId":"SBAN","flightCategory":"VFR","rawOb":"METAR SBAN 151600Z 07008KT 9999 FEW040 25/13 Q1023","temp":25,"dewp":13,"wdir":70,"wspd":8,"visib":"6+","altim":1023,"clouds":[{"cover":"FEW","base":4000}],"obsTime":1784131200},"SBIH":{"icaoId":"SBIH","flightCategory":"VFR","rawOb":"METAR SBIH 151600Z 02003KT 9999 FEW018 BKN100 30/25 Q1014","temp":30,"dewp":25,"wdir":20,"wspd":3,"visib":"6+","altim":1014,"clouds":[{"cover":"FEW","base":1800},{"cover":"BKN","base":10000}],"obsTime":1784131200},"SBJV":{"icaoId":"SBJV","flightCategory":"VFR","rawOb":"METAR SBJV 151600Z 05009KT 9999 SCT030 22/15 Q1022","temp":22,"dewp":15,"wdir":50,"wspd":9,"visib":"6+","altim":1022,"clouds":[{"cover":"SCT","base":3000}],"obsTime":1784131200},"SBNM":{"icaoId":"SBNM","flightCategory":"VFR","rawOb":"METAR SBNM 151600Z 05010KT CAVOK 20/12 Q1017","temp":20,"dewp":12,"wdir":50,"wspd":10,"visib":"6+","altim":1017,"clouds":[],"obsTime":1784131200},"SBPF":{"icaoId":"SBPF","flightCategory":"VFR","rawOb":"METAR SBPF 151600Z AUTO 03011KT 9999 NSC 17/07 Q1020","temp":17,"dewp":7,"wdir":30,"wspd":11,"visib":"6+","altim":1020,"clouds":[],"obsTime":1784131200},"SBAF":{"icaoId":"SBAF","flightCategory":"VFR","rawOb":"METAR SBAF 151600Z 11007KT 080V170 9999 FEW030 23/09 Q1024","temp":23,"dewp":9,"wdir":110,"wspd":7,"visib":"6+","altim":1024,"clouds":[{"cover":"FEW","base":3000}],"obsTime":1784131200},"SBGW":{"icaoId":"SBGW","flightCategory":"VFR","rawOb":"METAR SBGW 151600Z 02005KT 320V060 CAVOK 21/10 Q1024","temp":21,"dewp":10,"wdir":20,"wspd":5,"visib":"6+","altim":1024,"clouds":[],"obsTime":1784131200},"SBJR":{"icaoId":"SBJR","flightCategory":"VFR","rawOb":"METAR SBJR 151600Z 15008KT 9999 FEW025 26/14 Q1024","temp":26,"dewp":14,"wdir":150,"wspd":8,"visib":"6+","altim":1024,"clouds":[{"cover":"FEW","base":2500}],"obsTime":1784131200},"SBLS":{"icaoId":"SBLS","flightCategory":"VFR","rawOb":"METAR SBLS 151600Z 16008KT 080V170 9999 FEW040 21/10 Q1025","temp":21,"dewp":10,"wdir":160,"wspd":8,"visib":"6+","altim":1025,"clouds":[{"cover":"FEW","base":4000}],"obsTime":1784131200},"SBMT":{"icaoId":"SBMT","flightCategory":"VFR","rawOb":"METAR SBMT 151600Z 09008KT 060V130 CAVOK 19/09 Q1024","temp":19,"dewp":9,"wdir":90,"wspd":8,"visib":"6+","altim":1024,"clouds":[],"obsTime":1784131200},"SBST":{"icaoId":"SBST","flightCategory":"VFR","rawOb":"METAR SBST 151600Z 15008KT CAVOK 22/12 Q1022","temp":22,"dewp":12,"wdir":150,"wspd":8,"visib":"6+","altim":1022,"clouds":[],"obsTime":1784131200},"SBTA":{"icaoId":"SBTA","flightCategory":"VFR","rawOb":"METAR SBTA 151600Z 11006KT 080V150 CAVOK 20/08 Q1024","temp":20,"dewp":8,"wdir":110,"wspd":6,"visib":"6+","altim":1024,"clouds":[],"obsTime":1784131200},"SBLE":{"icaoId":"SBLE","flightCategory":"MVFR","rawOb":"METAR SBLE 151600Z AUTO 16003KT 120V190 9999 FEW019 OVC027 ///// Q1023","temp":null,"dewp":null,"wdir":160,"wspd":3,"visib":"6+","altim":1023,"clouds":[{"cover":"FEW","base":1900},{"cover":"OVC","base":2700}],"obsTime":1784131200}}}