{"updated":1775244631,"count":84,"data":{"SBKP":{"icaoId":"SBKP","flightCategory":"VFR","rawOb":"METAR SBKP 031800Z 26008KT 230V300 9999 SCT040 30/20 Q1016","temp":30,"dewp":20,"wdir":260,"wspd":8,"visib":"6+","altim":1016,"clouds":[{"cover":"SCT","base":4000}],"obsTime":1775239200},"SBVT":{"icaoId":"SBVT","flightCategory":"VFR","rawOb":"METAR SBVT 031800Z 06013KT 9999 FEW040 30/23 Q1014","temp":30,"dewp":23,"wdir":60,"wspd":13,"visib":"6+","altim":1014,"clouds":[{"cover":"FEW","base":4000}],"obsTime":1775239200},"SBBE":{"icaoId":"SBBE","flightCategory":"VFR","rawOb":"METAR SBBE 031800Z 09006KT 9999 SCT030 BKN060 32/24 Q1010","temp":32,"dewp":24,"wdir":90,"wspd":6,"visib":"6+","altim":1010,"clouds":[{"cover":"SCT","base":3000},{"cover":"BKN","base":6000}],"obsTime":1775239200},"SBUR":{"icaoId":"SBUR","flightCategory":"VFR","rawOb":"METAR SBUR 031800Z 23005KT 9999 TS VCSH BKN038 FEW040CB 30/19 Q1017","temp":30,"dewp":19,"wdir":230,"wspd":5,"visib":"6+","altim":1017,"clouds":[{"cover":"BKN","base":3800},{"cover":"FEW","base":4000}],"obsTime":1775239200},"SBUL":{"icaoId":"SBUL","flightCategory":"VFR","rawOb":"METAR SBUL 031800Z 05007KT 360V100 9999 SCT030 FEW035TCU SCT100 27/18 Q1019","temp":27,"dewp":18,"wdir":50,"wspd":7,"visib":"6+","altim":1019,"clouds":[{"cover":"SCT","base":3000},{"cover":"FEW","base":3500},{"cover":"SCT","base":10000}],"obsTime":1775239200},"SBBR":{"icaoId":"SBBR","flightCategory":"VFR","rawOb":"METAR SBBR 031800Z 11006KT 9999 SCT030 BKN100 25/18 Q1019","temp":25,"dewp":18,"wdir":110,"wspd":6,"visib":"6+","altim":1019,"clouds":[{"cover":"SCT","base":3000},{"cover":"BKN","base":10000}],"obsTime":1775239200},"SBTE":{"icaoId":"SBTE","flightCategory":"VFR","rawOb":"METAR SBTE 031800Z VRB03KT 9999 SCT020 31/23 Q1009","temp":31,"dewp":23,"wdir":"VRB","wspd":3,"visib":"6+","altim":1009,"clouds":[{"cover":"SCT","base":2000}],"obsTime":1775239200},"SBBV":{"icaoId":"SBBV","flightCategory":"VFR","rawOb":"METAR SBBV 031800Z 17005KT 9999 BKN040 FEW045TCU SCT090 32/22 Q1009","temp":32,"dewp":22,"wdir":170,"wspd":5,"visib":"6+","altim":1009,"clouds":[{"cover":"BKN","base":4000},{"cover":"FEW","base":4500},{"cover":"SCT","base":9000}],"obsTime":1775239200},"SBCB":{"icaoId":"SBCB","flightCategory":"VFR","rawOb":"METAR SBCB 031800Z 09009KT 9999 FEW030 31/23 Q1013","temp":31,"dewp":23,"wdir":90,"wspd":9,"visib":"6+","altim":1013,"clouds":[{"cover":"FEW","base":3000}],"obsTime":1775239200},"SBSV":{"icaoId":"SBSV","flightCategory":"VFR","rawOb":"METAR SBSV 031800Z 12008KT 9000 VCSH SCT019 FEW023TCU BKN090 29/21 Q1013","temp":29,"dewp":21,"wdir":120,"wspd":8,"visib":5.59,"altim":1013,"clouds":[{"cover":"SCT","base":1900},{"cover":"FEW","base":2300},{"cover":"BKN","base":9000}],"obsTime":1775239200},"SBCF":{"icaoId":"SBCF","flightCategory":"VFR","rawOb":"METAR SBCF 031800Z 36004KT 9999 SCT040 28/19 Q1018","temp":28,"dewp":19,"wdir":360,"wspd":4,"visib":"6+","altim":1018,"clouds":[{"cover":"SCT","base":4000}],"obsTime":1775239200},"SBSP":{"icaoId":"SBSP","flightCategory":"VFR","rawOb":"METAR SBSP 031800Z 30008KT 260V330 9999 BKN045 29/17 Q1018","temp":29,"dewp":17,"wdir":300,"wspd":8,"visib":"6+","altim":1018,"clouds":[{"cover":"BKN","base":4500}],"obsTime":1775239200},"SBSN":{"icaoId":"SBSN","flightCategory":"VFR","rawOb":"METAR SBSN 031800Z 07011KT 9999 FEW020 FEW023TCU 31/25 Q1010","temp":31,"dewp":25,"wdir":70,"wspd":11,"visib":"6+","altim":1010,"clouds":[{"cover":"FEW","base":2000},{"cover":"FEW","base":2300}],"obsTime":1775239200},"SBCG":{"icaoId":"SBCG","flightCategory":"VFR","rawOb":"METAR SBCG 031800Z VRB04KT CAVOK 32/18 Q1014","temp":32,"dewp":18,"wdir":"VRB","wspd":4,"visib":"6+","altim":1014,"clouds":[],"obsTime":1775239200},"SBCP":{"icaoId":"SBCP","flightCategory":"VFR","rawOb":"METAR SBCP 031800Z 09010KT 9999 FEW020 BKN100 29/23 Q1014","temp":29,"dewp":23,"wdir":90,"wspd":10,"visib":"6+","altim":1014,"clouds":[{"cover":"FEW","base":2000},{"cover":"BKN","base":10000}],"obsTime":1775239200},"SBSL":{"icaoId":"SBSL","flightCategory":"MVFR","rawOb":"METAR SBSL 031800Z 08008KT 9999 TS VCSH SCT008 BKN015 FEW020CB 27/25 Q1010","temp":27,"dewp":25,"wdir":80,"wspd":8,"visib":"6+","altim":1010,"clouds":[{"cover":"SCT","base":800},{"cover":"BKN","base":1500},{"cover":"FEW","base":2000}],"obsTime":1775239200},"SBSG":{"icaoId":"SBSG","flightCategory":"VFR","rawOb":"METAR SBSG 031800Z 10013KT 9999 VCSH VCTS SCT030 FEW035CB 30/24 Q1011","temp":30,"dewp":24,"wdir":100,"wspd":13,"visib":"6+","altim":1011,"clouds":[{"cover":"SCT","base":3000},{"cover":"FEW","base":3500}],"obsTime":1775239200},"SBCR":{"icaoId":"SBCR","flightCategory":"VFR","rawOb":"METAR SBCR 031800Z 09006KT 050V130 CAVOK 34/23 Q1011","temp":34,"dewp":23,"wdir":90,"wspd":6,"visib":"6+","altim":1011,"clouds":[],"obsTime":1775239200},"SBCT":{"icaoId":"SBCT","flightCategory":"VFR","rawOb":"METAR SBCT 031800Z 26011KT 240V310 9999 FEW040TCU SCT045 30/16 Q1017","temp":30,"dewp":16,"wdir":260,"wspd":11,"visib":"6+","altim":1017,"clouds":[{"cover":"FEW","base":4000},{"cover":"SCT","base":4500}],"obsTime":1775239200},"SBRF":{"icaoId":"SBRF","flightCategory":"VFR","rawOb":"METAR SBRF 031800Z 12010KT 090V150 9999 SCT023 SCT080 30/24 Q1012","temp":30,"dewp":24,"wdir":120,"wspd":10,"visib":"6+","altim":1012,"clouds":[{"cover":"SCT","base":2300},{"cover":"SCT","base":8000}],"obsTime":1775239200},"SBRB":{"icaoId":"SBRB","flightCategory":"MVFR","rawOb":"METAR SBRB 031800Z 34006KT 9999 VCSH SCT010 BKN020 FEW040TCU BKN100 28/24 Q1011","temp":28,"dewp":24,"wdir":340,"wspd":6,"visib":"6+","altim":1011,"clouds":[{"cover":"SCT","base":1000},{"cover":"BKN","base":2000},{"cover":"FEW","base":4000},{"cover":"BKN","base":10000}],"obsTime":1775239200},"SBCZ":{"icaoId":"SBCZ","flightCategory":"MVFR","rawOb":"METAR SBCZ 031800Z 15009KT 9999 BKN025 29/23 Q1011","temp":29,"dewp":23,"wdir":150,"wspd":9,"visib":"6+","altim":1011,"clouds":[{"cover":"BKN","base":2500}],"obsTime":1775239200},"SBEG":{"icaoId":"SBEG","flightCategory":"VFR","rawOb":"METAR SBEG 031800Z 10008KT 9999 SCT030 33/24 Q1009","temp":33,"dewp":24,"wdir":100,"wspd":8,"visib":"6+","altim":1009,"clouds":[{"cover":"SCT","base":3000}],"obsTime":1775239200},"SBAT":{"icaoId":"SBAT","flightCategory":"MVFR","rawOb":"METAR SBAT 031800Z 17002KT 9999 BKN030 34/24 Q1011","temp":34,"dewp":24,"wdir":170,"wspd":2,"visib":"6+","altim":1011,"clouds":[{"cover":"BKN","base":3000}],"obsTime":1775239200},"SBPV":{"icaoId":"SBPV","flightCategory":"MVFR","rawOb":"METAR SBPV 031800Z 05003KT 320V100 9999 BKN030 FEW035TCU 33/22 Q1009","temp":33,"dewp":22,"wdir":50,"wspd":3,"visib":"6+","altim":1009,"clouds":[{"cover":"BKN","base":3000},{"cover":"FEW","base":3500}],"obsTime":1775239200},"SBFI":{"icaoId":"SBFI","flightCategory":"VFR","rawOb":"METAR SBFI 031800Z 04008KT 9999 SCT040 FEW040TCU 33/23 Q1012","temp":33,"dewp":23,"wdir":40,"wspd":8,"visib":"6+","altim":1012,"clouds":[{"cover":"SCT","base":4000},{"cover":"FEW","base":4000}],"obsTime":1775239200},"SBPJ":{"icaoId":"SBPJ","flightCategory":"VFR","rawOb":"METAR SBPJ 031800Z 10006KT 9999 SCT030 33/23 Q1011","temp":33,"dewp":23,"wdir":100,"wspd":6,"visib":"6+","altim":1011,"clouds":[{"cover":"SCT","base":3000}],"obsTime":1775239200},"SBFL":{"icaoId":"SBFL","flightCategory":"VFR","rawOb":"METAR SBFL 031800Z 12011KT 9999 FEW030 28/22 Q1012","temp":28,"dewp":22,"wdir":120,"wspd":11,"visib":"6+","altim":1012,"clouds":[{"cover":"FEW","base":3000}],"obsTime":1775239200},"SBFZ":{"icaoId":"SBFZ","flightCategory":"VFR","rawOb":"METAR SBFZ 031800Z 11012KT 9999 VCSH SCT027 FEW030TCU 30/24 Q1010","temp":30,"dewp":24,"wdir":110,"wspd":12,"visib":"6+","altim":1010,"clouds":[{"cover":"SCT","base":2700},{"cover":"FEW","base":3000}],"obsTime":1775239200},"SBPA":{"icaoId":"SBPA","flightCategory":"VFR","rawOb":"METAR SBPA 031800Z 17005KT 130V200 9999 SCT035 FEW040TCU 30/22 Q1011","temp":30,"dewp":22,"wdir":170,"wspd":5,"visib":"6+","altim":1011,"clouds":[{"cover":"SCT","base":3500},{"cover":"FEW","base":4000}],"obsTime":1775239200},"SBGL":{"icaoId":"SBGL","flightCategory":"VFR","rawOb":"METAR SBGL 031800Z 13006KT 9999 FEW030 34/23 Q1012","temp":34,"dewp":23,"wdir":130,"wspd":6,"visib":"6+","altim":1012,"clouds":[{"cover":"FEW","base":3000}],"obsTime":1775239200},"SBNT":{"icaoId":"SBNT","flightCategory":"VFR","rawOb":"METAR SBNT 031800Z 10013KT 050V120 9999 SCT030 30/24 Q1011","temp":30,"dewp":24,"wdir":100,"wspd":13,"visib":"6+","altim":1011,"clouds":[{"cover":"SCT","base":3000}],"obsTime":1775239200},"SBGO":{"icaoId":"SBGO","flightCategory":"VFR","rawOb":"METAR SBGO 031800Z 10007KT 060V130 9999 SCT043 FEW045TCU 29/20 Q1016","temp":29,"dewp":20,"wdir":100,"wspd":7,"visib":"6+","altim":1016,"clouds":[{"cover":"SCT","base":4300},{"cover":"FEW","base":4500}],"obsTime":1775239200},"SBMQ":{"icaoId":"SBMQ","flightCategory":"VFR","rawOb":"METAR SBMQ 031800Z 06005KT 9999 BKN033 FEW037TCU 32/24 Q1010","temp":32,"dewp":24,"wdir":60,"wspd":5,"visib":"6+","altim":1010,"clouds":[{"cover":"BKN","base":3300},{"cover":"FEW","base":3700}],"obsTime":1775239200},"SBMO":{"icaoId":"SBMO","flightCategory":"MVFR","rawOb":"METAR SBMO 031800Z 10011KT 080V140 9999 BKN023 30/24 Q1012","temp":30,"dewp":24,"wdir":100,"wspd":11,"visib":"6+","altim":1012,"clouds":[{"cover":"BKN","base":2300}],"obsTime":1775239200},"SBGR":{"icaoId":"SBGR","flightCategory":"VFR","rawOb":"METAR SBGR 031800Z 28010KT 9999 BKN046 30/19 Q1017","temp":30,"dewp":19,"wdir":280,"wspd":10,"visib":"6+","altim":1017,"clouds":[{"cover":"BKN","base":4600}],"obsTime":1775239200},"SBMK":{"icaoId":"SBMK","flightCategory":"VFR","rawOb":"METAR SBMK 031800Z 08004KT 9999 FEW030 30/19 Q1017","temp":30,"dewp":19,"wdir":80,"wspd":4,"visib":"6+","altim":1017,"clouds":[{"cover":"FEW","base":3000}],"obsTime":1775239200},"SBHT":{"icaoId":"SBHT","flightCategory":"VFR","rawOb":"METAR SBHT 031800Z 15004KT 9999 SCT030 32/22 Q1011","temp":32,"dewp":22,"wdir":150,"wspd":4,"visib":"6+","altim":1011,"clouds":[{"cover":"SCT","base":3000}],"obsTime":1775239200},"SBMG":{"icaoId":"SBMG","flightCategory":"VFR","rawOb":"METAR SBMG 031800Z 27008KT 230V310 9999 VCSH SCT045 FEW050TCU 32/19 Q1014","temp":32,"dewp":19,"wdir":270,"wspd":8,"visib":"6+","altim":1014,"clouds":[{"cover":"SCT","base":4500},{"cover":"FEW","base":5000}],"obsTime":1775239200},"SBME":{"icaoId":"SBME","flightCategory":"VFR","rawOb":"METAR SBME 031800Z 05011KT CAVOK 35/21 Q1012","temp":35,"dewp":21,"wdir":50,"wspd":11,"visib":"6+","altim":1012,"clouds":[],"obsTime":1775239200},"SBIL":{"icaoId":"SBIL","flightCategory":"VFR","rawOb":"METAR SBIL 031800Z 17004KT 130V220 9999 VCSH SCT020 FEW023TCU 29/25 Q1014","temp":29,"dewp":25,"wdir":170,"wspd":4,"visib":"6+","altim":1014,"clouds":[{"cover":"SCT","base":2000},{"cover":"FEW","base":2300}],"obsTime":1775239200},"SBJU":{"icaoId":"SBJU","flightCategory":"MVFR","rawOb":"METAR SBJU 031800Z 15008KT 9999 BKN022 31/22 Q1012","temp":31,"dewp":22,"wdir":150,"wspd":8,"visib":"6+","altim":1012,"clouds":[{"cover":"BKN","base":2200}],"obsTime":1775239200},"SBMA":{"icaoId":"SBMA","flightCategory":"VFR","rawOb":"METAR SBMA 031800Z 18003KT 9999 FEW025 SCT100 31/23 Q1010","temp":31,"dewp":23,"wdir":180,"wspd":3,"visib":"6+","altim":1010,"clouds":[{"cover":"FEW","base":2500},{"cover":"SCT","base":10000}],"obsTime":1775239200},"SBLO":{"icaoId":"SBLO","flightCategory":"VFR","rawOb":"METAR SBLO 031800Z 14005KT 9999 VCSH SCT030 FEW040TCU 23/21 Q1015 RETSRA RERA","temp":23,"dewp":21,"wdir":140,"wspd":5,"visib":"6+","altim":1015,"clouds":[{"cover":"SCT","base":3000},{"cover":"FEW","base":4000}],"obsTime":1775239200},"SBSJ":{"icaoId":"SBSJ","flightCategory":"VFR","rawOb":"METAR SBSJ 031800Z 26007KT 220V310 9999 VCSH BKN040 FEW045TCU 30/19 Q1016","temp":30,"dewp":19,"wdir":260,"wspd":7,"visib":"6+","altim":1016,"clouds":[{"cover":"BKN","base":4000},{"cover":"FEW","base":4500}],"obsTime":1775239200},"SBCO":{"icaoId":"SBCO","flightCategory":"VFR","rawOb":"METAR SBCO 031800Z 23006KT 160V290 9999 SCT033 31/23 Q1012","temp":31,"dewp":23,"wdir":230,"wspd":6,"visib":"6+","altim":1012,"clouds":[{"cover":"SCT","base":3300}],"obsTime":1775239200},"SBAX":{"icaoId":"SBAX","flightCategory":"VFR","rawOb":"METAR SBAX 031800Z AUTO 06005KT 360V110 9999 FEW036 27/18 Q1019","temp":27,"dewp":18,"wdir":60,"wspd":5,"visib":"6+","altim":1019,"clouds":[{"cover":"FEW","base":3600}],"obsTime":1775239200},"SBPL":{"icaoId":"SBPL","flightCategory":"VFR","rawOb":"METAR SBPL 031800Z 17004KT 9999 SCT025 31/22 Q1013","temp":31,"dewp":22,"wdir":170,"wspd":4,"visib":"6+","altim":1013,"clouds":[{"cover":"SCT","base":2500}],"obsTime":1775239200},"SBPP":{"icaoId":"SBPP","flightCategory":"MVFR","rawOb":"METAR SBPP 031800Z 08007KT 9999 BKN020 27/20 Q1016","temp":27,"dewp":20,"wdir":80,"wspd":7,"visib":"6+","altim":1016,"clouds":[{"cover":"BKN","base":2000}],"obsTime":1775239200},"SBDN":{"icaoId":"SBDN","flightCategory":"VFR","rawOb":"METAR SBDN 031800Z 00000KT 9999 SCT043 FEW050TCU 33/21 Q1014","temp":33,"dewp":21,"wdir":0,"wspd":0,"visib":"6+","altim":1014,"clouds":[{"cover":"SCT","base":4300},{"cover":"FEW","base":5000}],"obsTime":1775239200},"SBPS":{"icaoId":"SBPS","flightCategory":"VFR","rawOb":"METAR SBPS 031800Z 14004KT 100V170 9999 SCT030 BKN100 26/23 Q1015","temp":26,"dewp":23,"wdir":140,"wspd":4,"visib":"6+","altim":1015,"clouds":[{"cover":"SCT","base":3000},{"cover":"BKN","base":10000}],"obsTime":1775239200},"SBCA":{"icaoId":"SBCA","flightCategory":"VFR","rawOb":"METAR SBCA 031800Z 34005G15KT 9999 SCT040 FEW050TCU 29/19 Q1017","temp":29,"dewp":19,"wdir":340,"wspd":5,"visib":"6+","altim":1017,"clouds":[{"cover":"SCT","base":4000},{"cover":"FEW","base":5000}],"obsTime":1775239200},"SBSC":{"icaoId":"SBSC","flightCategory":"VFR","rawOb":"METAR SBSC 031800Z 21006KT 9999 FEW025 FEW030TCU 29/23 Q1012","temp":29,"dewp":23,"wdir":210,"wspd":6,"visib":"6+","altim":1012,"clouds":[{"cover":"FEW","base":2500},{"cover":"FEW","base":3000}],"obsTime":1775239200},"SBES":{"icaoId":"SBES","flightCategory":"VFR","rawOb":"METAR SBES 031800Z 05006KT 010V070 CAVOK 31/// Q1013","temp":null,"dewp":null,"wdir":50,"wspd":6,"visib":"6+","altim":1013,"clouds":[],"obsTime":1775239200},"SBBH":{"icaoId":"SBBH","flightCategory":"VFR","rawOb":"METAR SBBH 031800Z 02004KT 9999 SCT040 30/17 Q1018","temp":30,"dewp":17,"wdir":20,"wspd":4,"visib":"6+","altim":1018,"clouds":[{"cover":"SCT","base":4000}],"obsTime":1775239200},"SBBU":{"icaoId":"SBBU","flightCategory":"VFR","rawOb":"METAR SBBU 031800Z 33005KT 9999 SCT040 32/22 Q1015","temp":32,"dewp":22,"wdir":330,"wspd":5,"visib":"6+","altim":1015,"clouds":[{"cover":"SCT","base":4000}],"obsTime":1775239200},"SBPB":{"icaoId":"SBPB","flightCategory":"VFR","rawOb":"METAR SBPB 031800Z 36007KT 9999 FEW016 FEW025TCU BKN080 30/25 Q1010","temp":30,"dewp":25,"wdir":360,"wspd":7,"visib":"6+","altim":1010,"clouds":[{"cover":"FEW","base":1600},{"cover":"FEW","base":2500},{"cover":"BKN","base":8000}],"obsTime":1775239200},"SBOI":{"icaoId":"SBOI","flightCategory":"VFR","rawOb":"METAR SBOI 031800Z AUTO 09006KT 030V140 CAVOK 33/24 Q1009","temp":33,"dewp":24,"wdir":90,"wspd":6,"visib":"6+","altim":1009,"clouds":[],"obsTime":1775239200},"SBSM":{"icaoId":"SBSM","flightCategory":"VFR","rawOb":"METAR SBSM 031800Z VRB02KT 9999 SCT040 32/19 Q1012","temp":32,"dewp":19,"wdir":"VRB","wspd":2,"visib":"6+","altim":1012,"clouds":[{"cover":"SCT","base":4000}],"obsTime":1775239200},"SBGM":{"icaoId":"SBGM","flightCategory":"VFR","rawOb":"METAR SBGM 031800Z 09005KT 060V120 9999 BKN043 30/20 Q1010","temp":30,"dewp":20,"wdir":90,"wspd":5,"visib":"6+","altim":1010,"clouds":[{"cover":"BKN","base":4300}],"obsTime":1775239200},"SBSR":{"icaoId":"SBSR","flightCategory":"MVFR","rawOb":"METAR SBSR 031800Z 31003KT 9999 BKN030 31/18 Q1015","temp":31,"dewp":18,"wdir":310,"wspd":3,"visib":"6+","altim":1015,"clouds":[{"cover":"BKN","base":3000}],"obsTime":1775239200},"SBCC":{"icaoId":"SBCC","flightCategory":"MVFR","rawOb":"METAR SBCC 031800Z 02010KT 9999 BKN020 FEW025TCU SCT100 29/21 Q1012","temp":29,"dewp":21,"wdir":20,"wspd":10,"visib":"6+","altim":1012,"clouds":[{"cover":"BKN","base":2000},{"cover":"FEW","base":2500},{"cover":"SCT","base":10000}],"obsTime":1775239200},"SBIP":{"icaoId":"SBIP","flightCategory":"VFR","rawOb":"METAR SBIP 031800Z AUTO 04009KT CAVOK 32/18 Q1015","temp":32,"dewp":18,"wdir":40,"wspd":9,"visib":"6+","altim":1015,"clouds":[],"obsTime":1775239200},"SBTF":{"icaoId":"SBTF","flightCategory":"VFR","rawOb":"METAR SBTF 031800Z 30005KT 9999 SCT016 SCT025TCU 33/27 Q1009","temp":33,"dewp":27,"wdir":300,"wspd":5,"visib":"6+","altim":1009,"clouds":[{"cover":"SCT","base":1600},{"cover":"SCT","base":2500}],"obsTime":1775239200},"SBBQ":{"icaoId":"SBBQ","flightCategory":"MVFR","rawOb":"METAR SBBQ 031800Z COR 04008KT 9999 TS BKN030 FEW040CB 24/19 Q1021","temp":24,"dewp":19,"wdir":40,"wspd":8,"visib":"6+","altim":1021,"clouds":[{"cover":"BKN","base":3000},{"cover":"FEW","base":4000}],"obsTime":1775239200},"SBTT":{"icaoId":"SBTT","flightCategory":"VFR","rawOb":"METAR SBTT 031800Z 04002KT 9999 SCT014 BKN070 26/21 Q1013","temp":26,"dewp":21,"wdir":40,"wspd":2,"visib":"6+","altim":1013,"clouds":[{"cover":"SCT","base":1400},{"cover":"BKN","base":7000}],"obsTime":1775239200},"SBUY":{"icaoId":"SBUY","flightCategory":"IFR","rawOb":"METAR SBUY 031800Z 31010KT 9999 BKN008 FEW025TCU SCT100 23/22 Q1010","temp":23,"dewp":22,"wdir":310,"wspd":10,"visib":"6+","altim":1010,"clouds":[{"cover":"BKN","base":800},{"cover":"FEW","base":2500},{"cover":"SCT","base":10000}],"obsTime":1775239200},"SBKG":{"icaoId":"SBKG","flightCategory":"VFR","rawOb":"METAR SBKG 031800Z 09008KT 9999 SCT030 30/21 Q1013","temp":30,"dewp":21,"wdir":90,"wspd":8,"visib":"6+","altim":1013,"clouds":[{"cover":"SCT","base":3000}],"obsTime":1775239200},"SBVH":{"icaoId":"SBVH","flightCategory":"VFR","rawOb":"METAR SBVH 031800Z 09007KT 040V130 9999 VCSH SCT025 FEW030TCU 29/22 Q1014","temp":29,"dewp":22,"wdir":90,"wspd":7,"visib":"6+","altim":1014,"clouds":[{"cover":"SCT","base":2500},{"cover":"FEW","base":3000}],"obsTime":1775239200},"SBAR":{"icaoId":"SBAR","flightCategory":"MVFR","rawOb":"METAR SBAR 031800Z 11009KT 090V150 9999 BKN023 30/23 Q1012","temp":30,"dewp":23,"wdir":110,"wspd":9,"visib":"6+","altim":1012,"clouds":[{"cover":"BKN","base":2300}],"obsTime":1775239200},"SBCJ":{"icaoId":"SBCJ","flightCategory":"MVFR","rawOb":"METAR SBCJ 031800Z 12009KT 9999 BKN020 27/21 Q1015","temp":27,"dewp":21,"wdir":120,"wspd":9,"visib":"6+","altim":1015,"clouds":[{"cover":"BKN","base":2000}],"obsTime":1775239200},"SBAU":{"icaoId":"SBAU","flightCategory":"VFR","rawOb":"METAR SBAU 031800Z COR 03006KT 9999 FEW040 33/19 Q1014","temp":33,"dewp":19,"wdir":30,"wspd":6,"visib":"6+","altim":1014,"clouds":[{"cover":"FEW","base":4000}],"obsTime":1775239200},"SBJP":{"icaoId":"SBJP","flightCategory":"VFR","rawOb":"METAR SBJP 031800Z 11012KT 9999 FEW028 BKN093 30/24 Q1012","temp":30,"dewp":24,"wdir":110,"wspd":12,"visib":"6+","altim":1012,"clouds":[{"cover":"FEW","base":2800},{"cover":"BKN","base":9300}],"obsTime":1775239200},"SBIH":{"icaoId":"SBIH","flightCategory":"VFR","rawOb":"METAR SBIH 031800Z 05009KT 9999 SCT020 FEW025TCU 32/24 Q1009","temp":32,"dewp":24,"wdir":50,"wspd":9,"visib":"6+","altim":1009,"clouds":[{"cover":"SCT","base":2000},{"cover":"FEW","base":2500}],"obsTime":1775239200},"SBAN":{"icaoId":"SBAN","flightCategory":"MVFR","rawOb":"METAR SBAN 031800Z 12007KT 9999 BKN030 SCT100 27/19 Q1020","temp":27,"dewp":19,"wdir":120,"wspd":7,"visib":"6+","altim":1020,"clouds":[{"cover":"BKN","base":3000},{"cover":"SCT","base":10000}],"obsTime":1775239200},"SBLE":{"icaoId":"SBLE","flightCategory":"VFR","rawOb":"METAR SBLE 031800Z AUTO 18003KT 140V240 9999 FEW041 27/20 Q1016","temp":27,"dewp":20,"wdir":180,"wspd":3,"visib":"6+","altim":1016,"clouds":[{"cover":"FEW","base":4100}],"obsTime":1775239200},"SBJV":{"icaoId":"SBJV","flightCategory":"VFR","rawOb":"METAR SBJV 031800Z 12009KT 9999 FEW030 30/25 Q1011","temp":30,"dewp":25,"wdir":120,"wspd":9,"visib":"6+","altim":1011,"clouds":[{"cover":"FEW","base":3000}],"obsTime":1775239200},"SBAF":{"icaoId":"SBAF","flightCategory":"VFR","rawOb":"METAR SBAF 031800Z 20007KT 9999 FEW030 34/23 Q1012","temp":34,"dewp":23,"wdir":200,"wspd":7,"visib":"6+","altim":1012,"clouds":[{"cover":"FEW","base":3000}],"obsTime":1775239200},"SBGW":{"icaoId":"SBGW","flightCategory":"VFR","rawOb":"METAR SBGW 031800Z 04003KT 330V080 9999 SCT030 BKN100 30/17 Q1015","temp":30,"dewp":17,"wdir":40,"wspd":3,"visib":"6+","altim":1015,"clouds":[{"cover":"SCT","base":3000},{"cover":"BKN","base":10000}],"obsTime":1775239200},"SBJR":{"icaoId":"SBJR","flightCategory":"VFR","rawOb":"METAR SBJR 031800Z 20005KT 9999 FEW030 FEW040TCU 31/23 Q1012","temp":31,"dewp":23,"wdir":200,"wspd":5,"visib":"6+","altim":1012,"clouds":[{"cover":"FEW","base":3000},{"cover":"FEW","base":4000}],"obsTime":1775239200},"SBLS":{"icaoId":"SBLS","flightCategory":"VFR","rawOb":"METAR SBLS 031800Z 08003KT 350V160 9999 SCT040 SCT100 28/18 Q1018","temp":28,"dewp":18,"wdir":80,"wspd":3,"visib":"6+","altim":1018,"clouds":[{"cover":"SCT","base":4000},{"cover":"SCT","base":10000}],"obsTime":1775239200},"SBMT":{"icaoId":"SBMT","flightCategory":"VFR","rawOb":"METAR SBMT 031800Z 27009KT 220V300 9999 BKN040 28/18 Q1016","temp":28,"dewp":18,"wdir":270,"wspd":9,"visib":"6+","altim":1016,"clouds":[{"cover":"BKN","base":4000}],"obsTime":1775239200},"SBST":{"icaoId":"SBST","flightCategory":"VFR","rawOb":"METAR SBST 031800Z 17006KT CAVOK 30/24 Q1012","temp":30,"dewp":24,"wdir":170,"wspd":6,"visib":"6+","altim":1012,"clouds":[],"obsTime":1775239200},"SBTA":{"icaoId":"SBTA","flightCategory":"VFR","rawOb":"METAR SBTA 031800Z 28006G16KT 150V320 9999 -TSRA BKN035 FEW040CB BKN100 27/20 Q1015","temp":27,"dewp":20,"wdir":280,"wspd":6,"visib":"6+","altim":1015,"clouds":[{"cover":"BKN","base":3500},{"cover":"FEW","base":4000},{"cover":"BKN","base":10000}],"obsTime":1775239200}}}