{"updated":1774906263,"count":82,"data":{"SBCZ":{"icaoId":"SBCZ","flightCategory":"MVFR","rawOb":"METAR SBCZ 302000Z 03005KT 9999 BKN030 31/23 Q1009","temp":31,"dewp":23,"wdir":30,"wspd":5,"visib":"6+","altim":1009,"clouds":[{"cover":"BKN","base":3000}],"obsTime":1774900800},"SBBE":{"icaoId":"SBBE","flightCategory":"VFR","rawOb":"METAR SBBE 302000Z 36009KT 9999 SCT035 FEW037TCU SCT079 30/24 Q1008","temp":30,"dewp":24,"wdir":360,"wspd":9,"visib":"6+","altim":1008,"clouds":[{"cover":"SCT","base":3500},{"cover":"FEW","base":3700},{"cover":"SCT","base":7900}],"obsTime":1774900800},"SBBR":{"icaoId":"SBBR","flightCategory":"VFR","rawOb":"METAR SBBR 302000Z 18005KT 110V240 9999 SCT045 FEW050TCU 28/13 Q1015","temp":28,"dewp":13,"wdir":180,"wspd":5,"visib":"6+","altim":1015,"clouds":[{"cover":"SCT","base":4500},{"cover":"FEW","base":5000}],"obsTime":1774900800},"SBBV":{"icaoId":"SBBV","flightCategory":"IFR","rawOb":"METAR SBBV 302000Z 23012KT 2000 +TSRA BR FEW005 BKN013 FEW020CB OVC080 24/24 Q1011","temp":24,"dewp":24,"wdir":230,"wspd":12,"visib":1.24,"altim":1011,"clouds":[{"cover":"FEW","base":500},{"cover":"BKN","base":1300},{"cover":"FEW","base":2000},{"cover":"OVC","base":8000}],"obsTime":1774900800},"SBCB":{"icaoId":"SBCB","flightCategory":"VFR","rawOb":"METAR SBCB 302000Z 16007KT 9999 SCT030 27/22 Q1012","temp":27,"dewp":22,"wdir":160,"wspd":7,"visib":"6+","altim":1012,"clouds":[{"cover":"SCT","base":3000}],"obsTime":1774900800},"SBCF":{"icaoId":"SBCF","flightCategory":"VFR","rawOb":"METAR SBCF 302000Z 06005KT 9999 SCT040 FEW045TCU 27/16 Q1015","temp":27,"dewp":16,"wdir":60,"wspd":5,"visib":"6+","altim":1015,"clouds":[{"cover":"SCT","base":4000},{"cover":"FEW","base":4500}],"obsTime":1774900800},"SBCG":{"icaoId":"SBCG","flightCategory":"VFR","rawOb":"METAR SBCG 302000Z VRB02KT CAVOK 33/16 Q1013","temp":33,"dewp":16,"wdir":"VRB","wspd":2,"visib":"6+","altim":1013,"clouds":[],"obsTime":1774900800},"SBCP":{"icaoId":"SBCP","flightCategory":"VFR","rawOb":"METAR SBCP 302000Z 12010KT 9999 FEW020 FEW030TCU 27/22 Q1011","temp":27,"dewp":22,"wdir":120,"wspd":10,"visib":"6+","altim":1011,"clouds":[{"cover":"FEW","base":2000},{"cover":"FEW","base":3000}],"obsTime":1774900800},"SBCR":{"icaoId":"SBCR","flightCategory":"VFR","rawOb":"METAR SBCR 302000Z VRB02KT 9999 SCT036 34/20 Q1010","temp":34,"dewp":20,"wdir":"VRB","wspd":2,"visib":"6+","altim":1010,"clouds":[{"cover":"SCT","base":3600}],"obsTime":1774900800},"SBCT":{"icaoId":"SBCT","flightCategory":"MVFR","rawOb":"METAR SBCT 302000Z 10009KT 9999 BKN013 BKN100 22/20 Q1017","temp":22,"dewp":20,"wdir":100,"wspd":9,"visib":"6+","altim":1017,"clouds":[{"cover":"BKN","base":1300},{"cover":"BKN","base":10000}],"obsTime":1774900800},"SBEG":{"icaoId":"SBEG","flightCategory":"VFR","rawOb":"METAR SBEG 302000Z 34004KT 290V020 9999 VCTS SCT020 FEW025CB 29/25 Q1008","temp":29,"dewp":25,"wdir":340,"wspd":4,"visib":"6+","altim":1008,"clouds":[{"cover":"SCT","base":2000},{"cover":"FEW","base":2500}],"obsTime":1774900800},"SBFI":{"icaoId":"SBFI","flightCategory":"VFR","rawOb":"METAR SBFI 302000Z 24007KT 9999 FEW035 35/18 Q1011","temp":35,"dewp":18,"wdir":240,"wspd":7,"visib":"6+","altim":1011,"clouds":[{"cover":"FEW","base":3500}],"obsTime":1774900800},"SBFL":{"icaoId":"SBFL","flightCategory":"MVFR","rawOb":"METAR SBFL 302000Z 11010KT 9999 BKN015 BKN100 24/22 Q1014","temp":24,"dewp":22,"wdir":110,"wspd":10,"visib":"6+","altim":1014,"clouds":[{"cover":"BKN","base":1500},{"cover":"BKN","base":10000}],"obsTime":1774900800},"SBFZ":{"icaoId":"SBFZ","flightCategory":"VFR","rawOb":"METAR SBFZ 302000Z 09006KT 9999 FEW018 SCT022 28/23 Q1008","temp":28,"dewp":23,"wdir":90,"wspd":6,"visib":"6+","altim":1008,"clouds":[{"cover":"FEW","base":1800},{"cover":"SCT","base":2200}],"obsTime":1774900800},"SBGL":{"icaoId":"SBGL","flightCategory":"VFR","rawOb":"METAR SBGL 302000Z 13010KT 100V160 9999 FEW030 FEW030TCU 26/20 Q1012","temp":26,"dewp":20,"wdir":130,"wspd":10,"visib":"6+","altim":1012,"clouds":[{"cover":"FEW","base":3000},{"cover":"FEW","base":3000}],"obsTime":1774900800},"SBGO":{"icaoId":"SBGO","flightCategory":"VFR","rawOb":"METAR SBGO 302000Z 13007KT 100V160 9999 FEW048 30/17 Q1013","temp":30,"dewp":17,"wdir":130,"wspd":7,"visib":"6+","altim":1013,"clouds":[{"cover":"FEW","base":4800}],"obsTime":1774900800},"SBGR":{"icaoId":"SBGR","flightCategory":"VFR","rawOb":"METAR SBGR 302000Z 16007KT CAVOK 23/18 Q1016","temp":23,"dewp":18,"wdir":160,"wspd":7,"visib":"6+","altim":1016,"clouds":[],"obsTime":1774900800},"SBHT":{"icaoId":"SBHT","flightCategory":"MVFR","rawOb":"METAR SBHT 302000Z 17003KT 9999 BKN023 BKN100 30/24 Q1007","temp":30,"dewp":24,"wdir":170,"wspd":3,"visib":"6+","altim":1007,"clouds":[{"cover":"BKN","base":2300},{"cover":"BKN","base":10000}],"obsTime":1774900800},"SBIL":{"icaoId":"SBIL","flightCategory":"VFR","rawOb":"METAR SBIL 302000Z 19006KT 9999 FEW020 28/24 Q1011","temp":28,"dewp":24,"wdir":190,"wspd":6,"visib":"6+","altim":1011,"clouds":[{"cover":"FEW","base":2000}],"obsTime":1774900800},"SBJU":{"icaoId":"SBJU","flightCategory":"MVFR","rawOb":"METAR SBJU 302000Z 00000KT 9999 BKN020 29/23 Q1010","temp":29,"dewp":23,"wdir":0,"wspd":0,"visib":"6+","altim":1010,"clouds":[{"cover":"BKN","base":2000}],"obsTime":1774900800},"SBKP":{"icaoId":"SBKP","flightCategory":"VFR","rawOb":"METAR SBKP 302000Z 20006KT CAVOK 30/15 Q1014","temp":30,"dewp":15,"wdir":200,"wspd":6,"visib":"6+","altim":1014,"clouds":[],"obsTime":1774900800},"SBLO":{"icaoId":"SBLO","flightCategory":"VFR","rawOb":"METAR SBLO 302000Z 21005KT 180V240 9999 VCSH FEW040TCU 30/18 Q1012","temp":30,"dewp":18,"wdir":210,"wspd":5,"visib":"6+","altim":1012,"clouds":[{"cover":"FEW","base":4000}],"obsTime":1774900800},"SBMA":{"icaoId":"SBMA","flightCategory":"VFR","rawOb":"METAR SBMA 302000Z 02003KT 9999 SCT020 FEW023TCU BKN100 28/24 Q1008","temp":28,"dewp":24,"wdir":20,"wspd":3,"visib":"6+","altim":1008,"clouds":[{"cover":"SCT","base":2000},{"cover":"FEW","base":2300},{"cover":"BKN","base":10000}],"obsTime":1774900800},"SBME":{"icaoId":"SBME","flightCategory":"VFR","rawOb":"METAR SBME 302000Z 14006KT 9999 SCT030 27/23 Q1012","temp":27,"dewp":23,"wdir":140,"wspd":6,"visib":"6+","altim":1012,"clouds":[{"cover":"SCT","base":3000}],"obsTime":1774900800},"SBMG":{"icaoId":"SBMG","flightCategory":"VFR","rawOb":"METAR SBMG 302000Z 24007G18KT 200V280 9999 FEW045 FEW050TCU 33/14 Q1012","temp":33,"dewp":14,"wdir":240,"wspd":7,"visib":"6+","altim":1012,"clouds":[{"cover":"FEW","base":4500},{"cover":"FEW","base":5000}],"obsTime":1774900800},"SBMK":{"icaoId":"SBMK","flightCategory":"VFR","rawOb":"METAR SBMK 302000Z 05007KT 9999 FEW045 29/17 Q1012","temp":29,"dewp":17,"wdir":50,"wspd":7,"visib":"6+","altim":1012,"clouds":[{"cover":"FEW","base":4500}],"obsTime":1774900800},"SBMO":{"icaoId":"SBMO","flightCategory":"VFR","rawOb":"METAR SBMO 302000Z 11007KT 9999 SCT020 26/24 Q1010","temp":26,"dewp":24,"wdir":110,"wspd":7,"visib":"6+","altim":1010,"clouds":[{"cover":"SCT","base":2000}],"obsTime":1774900800},"SBMQ":{"icaoId":"SBMQ","flightCategory":"VFR","rawOb":"METAR SBMQ 302000Z 01002KT 9999 VCSH SCT030 FEW045TCU 31/24 Q1008","temp":31,"dewp":24,"wdir":10,"wspd":2,"visib":"6+","altim":1008,"clouds":[{"cover":"SCT","base":3000},{"cover":"FEW","base":4500}],"obsTime":1774900800},"SBNT":{"icaoId":"SBNT","flightCategory":"VFR","rawOb":"METAR SBNT 302000Z 09010KT 9999 FEW021 SCT030 FEW036TCU BKN080 29/24 Q1009","temp":29,"dewp":24,"wdir":90,"wspd":10,"visib":"6+","altim":1009,"clouds":[{"cover":"FEW","base":2100},{"cover":"SCT","base":3000},{"cover":"FEW","base":3600},{"cover":"BKN","base":8000}],"obsTime":1774900800},"SBPA":{"icaoId":"SBPA","flightCategory":"VFR","rawOb":"METAR SBPA 302000Z 11009KT 9999 FEW020 SCT050 BKN100 27/23 Q1013","temp":27,"dewp":23,"wdir":110,"wspd":9,"visib":"6+","altim":1013,"clouds":[{"cover":"FEW","base":2000},{"cover":"SCT","base":5000},{"cover":"BKN","base":10000}],"obsTime":1774900800},"SBPJ":{"icaoId":"SBPJ","flightCategory":"VFR","rawOb":"METAR SBPJ 302000Z 20004KT 9999 SCT033 SCT100 32/23 Q1008","temp":32,"dewp":23,"wdir":200,"wspd":4,"visib":"6+","altim":1008,"clouds":[{"cover":"SCT","base":3300},{"cover":"SCT","base":10000}],"obsTime":1774900800},"SBPV":{"icaoId":"SBPV","flightCategory":"VFR","rawOb":"METAR SBPV 302000Z 04004KT 9999 SCT035 31/22 Q1008","temp":31,"dewp":22,"wdir":40,"wspd":4,"visib":"6+","altim":1008,"clouds":[{"cover":"SCT","base":3500}],"obsTime":1774900800},"SBRB":{"icaoId":"SBRB","flightCategory":"VFR","rawOb":"METAR SBRB 302000Z 12006KT 060V170 9999 -RA SCT025 FEW030TCU 29/22 Q1010","temp":29,"dewp":22,"wdir":120,"wspd":6,"visib":"6+","altim":1010,"clouds":[{"cover":"SCT","base":2500},{"cover":"FEW","base":3000}],"obsTime":1774900800},"SBRF":{"icaoId":"SBRF","flightCategory":"VFR","rawOb":"METAR SBRF 302000Z 14010KT 9999 VCSH SCT023 FEW025TCU 28/24 Q1009","temp":28,"dewp":24,"wdir":140,"wspd":10,"visib":"6+","altim":1009,"clouds":[{"cover":"SCT","base":2300},{"cover":"FEW","base":2500}],"obsTime":1774900800},"SBSG":{"icaoId":"SBSG","flightCategory":"VFR","rawOb":"METAR SBSG 302000Z 08011KT 9999 SCT030 FEW033TCU 29/23 Q1009","temp":29,"dewp":23,"wdir":80,"wspd":11,"visib":"6+","altim":1009,"clouds":[{"cover":"SCT","base":3000},{"cover":"FEW","base":3300}],"obsTime":1774900800},"SBSL":{"icaoId":"SBSL","flightCategory":"VFR","rawOb":"METAR SBSL 302000Z 07010KT 9999 SCT020 FEW025TCU 29/24 Q1008","temp":29,"dewp":24,"wdir":70,"wspd":10,"visib":"6+","altim":1008,"clouds":[{"cover":"SCT","base":2000},{"cover":"FEW","base":2500}],"obsTime":1774900800},"SBSN":{"icaoId":"SBSN","flightCategory":"VFR","rawOb":"METAR SBSN 302000Z 03005KT 9999 SCT020 SCT090 30/25 Q1007","temp":30,"dewp":25,"wdir":30,"wspd":5,"visib":"6+","altim":1007,"clouds":[{"cover":"SCT","base":2000},{"cover":"SCT","base":9000}],"obsTime":1774900800},"SBSP":{"icaoId":"SBSP","flightCategory":"VFR","rawOb":"METAR SBSP 302000Z 15011KT 9999 FEW020 22/18 Q1017","temp":22,"dewp":18,"wdir":150,"wspd":11,"visib":"6+","altim":1017,"clouds":[{"cover":"FEW","base":2000}],"obsTime":1774900800},"SBSV":{"icaoId":"SBSV","flightCategory":"VFR","rawOb":"METAR SBSV 302000Z 19006KT 9999 SCT020 BKN060 27/23 Q1010","temp":27,"dewp":23,"wdir":190,"wspd":6,"visib":"6+","altim":1010,"clouds":[{"cover":"SCT","base":2000},{"cover":"BKN","base":6000}],"obsTime":1774900800},"SBTE":{"icaoId":"SBTE","flightCategory":"VFR","rawOb":"METAR SBTE 302000Z 05005KT 9999 -RA SCT016 FEW025TCU BKN090 27/23 Q1008","temp":27,"dewp":23,"wdir":50,"wspd":5,"visib":"6+","altim":1008,"clouds":[{"cover":"SCT","base":1600},{"cover":"FEW","base":2500},{"cover":"BKN","base":9000}],"obsTime":1774900800},"SBUL":{"icaoId":"SBUL","flightCategory":"VFR","rawOb":"METAR SBUL 302000Z 03009KT 9999 SCT048 27/18 Q1015","temp":27,"dewp":18,"wdir":30,"wspd":9,"visib":"6+","altim":1015,"clouds":[{"cover":"SCT","base":4800}],"obsTime":1774900800},"SBUR":{"icaoId":"SBUR","flightCategory":"VFR","rawOb":"METAR SBUR 302000Z 18007KT 9999 VCSH SCT047 SCT070 30/15 Q1014","temp":30,"dewp":15,"wdir":180,"wspd":7,"visib":"6+","altim":1014,"clouds":[{"cover":"SCT","base":4700},{"cover":"SCT","base":7000}],"obsTime":1774900800},"SBVT":{"icaoId":"SBVT","flightCategory":"VFR","rawOb":"METAR SBVT 302000Z 06007KT 9999 SCT030 27/22 Q1011","temp":27,"dewp":22,"wdir":60,"wspd":7,"visib":"6+","altim":1011,"clouds":[{"cover":"SCT","base":3000}],"obsTime":1774900800},"SBAT":{"icaoId":"SBAT","flightCategory":"VFR","rawOb":"METAR SBAT 302000Z 15005KT 9999 FEW030 FEW035TCU 33/22 Q1009","temp":33,"dewp":22,"wdir":150,"wspd":5,"visib":"6+","altim":1009,"clouds":[{"cover":"FEW","base":3000},{"cover":"FEW","base":3500}],"obsTime":1774900800},"SBPB":{"icaoId":"SBPB","flightCategory":"MVFR","rawOb":"METAR SBPB 302000Z 12012KT 9999 BKN018 BKN100 27/22 Q1009","temp":27,"dewp":22,"wdir":120,"wspd":12,"visib":"6+","altim":1009,"clouds":[{"cover":"BKN","base":1800},{"cover":"BKN","base":10000}],"obsTime":1774900800},"SBAR":{"icaoId":"SBAR","flightCategory":"VFR","rawOb":"METAR SBAR 302000Z 10006KT 060V130 9999 VCSH SCT020 FEW023TCU SCT070 28/23 Q1010","temp":28,"dewp":23,"wdir":100,"wspd":6,"visib":"6+","altim":1010,"clouds":[{"cover":"SCT","base":2000},{"cover":"FEW","base":2300},{"cover":"SCT","base":7000}],"obsTime":1774900800},"SBCO":{"icaoId":"SBCO","flightCategory":"MVFR","rawOb":"METAR SBCO 302000Z 09009KT 060V120 9999 BKN020 BKN090 27/23 Q1014","temp":27,"dewp":23,"wdir":90,"wspd":9,"visib":"6+","altim":1014,"clouds":[{"cover":"BKN","base":2000},{"cover":"BKN","base":9000}],"obsTime":1774900800},"SBPL":{"icaoId":"SBPL","flightCategory":"VFR","rawOb":"METAR SBPL 302000Z 12008KT 9999 SCT030 30/22 Q1010","temp":30,"dewp":22,"wdir":120,"wspd":8,"visib":"6+","altim":1010,"clouds":[{"cover":"SCT","base":3000}],"obsTime":1774900800},"SBPP":{"icaoId":"SBPP","flightCategory":"VFR","rawOb":"METAR SBPP 302000Z 13003KT 9999 SCT025 30/18 Q1015","temp":30,"dewp":18,"wdir":130,"wspd":3,"visib":"6+","altim":1015,"clouds":[{"cover":"SCT","base":2500}],"obsTime":1774900800},"SBDN":{"icaoId":"SBDN","flightCategory":"VFR","rawOb":"METAR SBDN 302000Z 24004KT CAVOK 34/17 Q1012","temp":34,"dewp":17,"wdir":240,"wspd":4,"visib":"6+","altim":1012,"clouds":[],"obsTime":1774900800},"SBBH":{"icaoId":"SBBH","flightCategory":"VFR","rawOb":"METAR SBBH 302000Z 04004KT 9999 FEW040 27/16 Q1014","temp":27,"dewp":16,"wdir":40,"wspd":4,"visib":"6+","altim":1014,"clouds":[{"cover":"FEW","base":4000}],"obsTime":1774900800},"SBPS":{"icaoId":"SBPS","flightCategory":"VFR","rawOb":"METAR SBPS 302000Z 12005KT 9999 FEW020 SCT100 26/22 Q1012","temp":26,"dewp":22,"wdir":120,"wspd":5,"visib":"6+","altim":1012,"clouds":[{"cover":"FEW","base":2000},{"cover":"SCT","base":10000}],"obsTime":1774900800},"SBES":{"icaoId":"SBES","flightCategory":"VFR","rawOb":"METAR SBES 302000Z VRB07KT 9999 FEW015 27/// Q1012","temp":null,"dewp":null,"wdir":"VRB","wspd":7,"visib":"6+","altim":1012,"clouds":[{"cover":"FEW","base":1500}],"obsTime":1774900800},"SBSC":{"icaoId":"SBSC","flightCategory":"VFR","rawOb":"METAR SBSC 302000Z 19009KT 9999 SCT035 26/21 Q1012","temp":26,"dewp":21,"wdir":190,"wspd":9,"visib":"6+","altim":1012,"clouds":[{"cover":"SCT","base":3500}],"obsTime":1774900800},"SBSJ":{"icaoId":"SBSJ","flightCategory":"VFR","rawOb":"METAR SBSJ 302000Z 12014KT 9999 FEW035 SCT100 25/17 Q1015","temp":25,"dewp":17,"wdir":120,"wspd":14,"visib":"6+","altim":1015,"clouds":[{"cover":"FEW","base":3500},{"cover":"SCT","base":10000}],"obsTime":1774900800},"SBCA":{"icaoId":"SBCA","flightCategory":"VFR","rawOb":"METAR SBCA 302000Z 18008KT 9999 SCT030 31/14 Q1015","temp":31,"dewp":14,"wdir":180,"wspd":8,"visib":"6+","altim":1015,"clouds":[{"cover":"SCT","base":3000}],"obsTime":1774900800},"SBIP":{"icaoId":"SBIP","flightCategory":"VFR","rawOb":"METAR SBIP 302000Z AUTO 01005KT 340V040 CAVOK 30/20 Q1011","temp":30,"dewp":20,"wdir":10,"wspd":5,"visib":"6+","altim":1011,"clouds":[],"obsTime":1774900800},"SBSM":{"icaoId":"SBSM","flightCategory":"VFR","rawOb":"METAR SBSM 302000Z VRB02KT 9999 FEW040TCU 27/24 Q1013","temp":27,"dewp":24,"wdir":"VRB","wspd":2,"visib":"6+","altim":1013,"clouds":[{"cover":"FEW","base":4000}],"obsTime":1774900800},"SBSR":{"icaoId":"SBSR","flightCategory":"MVFR","rawOb":"METAR SBSR 302000Z 27006KT 9999 BKN030 FEW035TCU 32/14 Q1012","temp":32,"dewp":14,"wdir":270,"wspd":6,"visib":"6+","altim":1012,"clouds":[{"cover":"BKN","base":3000},{"cover":"FEW","base":3500}],"obsTime":1774900800},"SBAX":{"icaoId":"SBAX","flightCategory":"VFR","rawOb":"METAR SBAX 302000Z 25008KT CAVOK 26/17 Q1015","temp":26,"dewp":17,"wdir":250,"wspd":8,"visib":"6+","altim":1015,"clouds":[],"obsTime":1774900800},"SBBU":{"icaoId":"SBBU","flightCategory":"VFR","rawOb":"METAR SBBU 302000Z 22008KT CAVOK 32/18 Q1013","temp":32,"dewp":18,"wdir":220,"wspd":8,"visib":"6+","altim":1013,"clouds":[],"obsTime":1774900800},"SBTF":{"icaoId":"SBTF","flightCategory":"VFR","rawOb":"METAR SBTF 302000Z 09003KT 9999 FEW021 FEW030TCU 32/25 Q1007","temp":32,"dewp":25,"wdir":90,"wspd":3,"visib":"6+","altim":1007,"clouds":[{"cover":"FEW","base":2100},{"cover":"FEW","base":3000}],"obsTime":1774900800},"SBKG":{"icaoId":"SBKG","flightCategory":"VFR","rawOb":"METAR SBKG 302000Z 10014KT 9999 SCT025 FEW028TCU SCT080 26/21 Q1011","temp":26,"dewp":21,"wdir":100,"wspd":14,"visib":"6+","altim":1011,"clouds":[{"cover":"SCT","base":2500},{"cover":"FEW","base":2800},{"cover":"SCT","base":8000}],"obsTime":1774900800},"SBTT":{"icaoId":"SBTT","flightCategory":"MVFR","rawOb":"METAR SBTT 302000Z 11008KT 9999 BKN024 FEW027TCU 29/23 Q1008","temp":29,"dewp":23,"wdir":110,"wspd":8,"visib":"6+","altim":1008,"clouds":[{"cover":"BKN","base":2400},{"cover":"FEW","base":2700}],"obsTime":1774900800},"SBUY":{"icaoId":"SBUY","flightCategory":"VFR","rawOb":"METAR SBUY 302000Z 32004KT 9999 FEW025 SCT100 30/24 Q1006","temp":30,"dewp":24,"wdir":320,"wspd":4,"visib":"6+","altim":1006,"clouds":[{"cover":"FEW","base":2500},{"cover":"SCT","base":10000}],"obsTime":1774900800},"SBCJ":{"icaoId":"SBCJ","flightCategory":"VFR","rawOb":"METAR SBCJ 302000Z 00000KT 9999 SCT017 SCT080 23/21 Q1013","temp":23,"dewp":21,"wdir":0,"wspd":0,"visib":"6+","altim":1013,"clouds":[{"cover":"SCT","base":1700},{"cover":"SCT","base":8000}],"obsTime":1774900800},"SBVH":{"icaoId":"SBVH","flightCategory":"VFR","rawOb":"METAR SBVH 302000Z 08005KT 9999 SCT040 31/21 Q1012","temp":31,"dewp":21,"wdir":80,"wspd":5,"visib":"6+","altim":1012,"clouds":[{"cover":"SCT","base":4000}],"obsTime":1774900800},"SBOI":{"icaoId":"SBOI","flightCategory":"IFR","rawOb":"METAR SBOI 302000Z AUTO VRB02KT 9999 -RA BKN009 26/25 Q1010","temp":26,"dewp":25,"wdir":"VRB","wspd":2,"visib":"6+","altim":1010,"clouds":[{"cover":"BKN","base":900}],"obsTime":1774900800},"SBCC":{"icaoId":"SBCC","flightCategory":"VFR","rawOb":"METAR SBCC 302000Z 30005KT 9999 VCTS SCT020 FEW025CB BKN100 25/22 Q1011 RETS","temp":25,"dewp":22,"wdir":300,"wspd":5,"visib":"6+","altim":1011,"clouds":[{"cover":"SCT","base":2000},{"cover":"FEW","base":2500},{"cover":"BKN","base":10000}],"obsTime":1774900800},"SBJR":{"icaoId":"SBJR","flightCategory":"VFR","rawOb":"METAR SBJR 302000Z 18006KT 9999 FEW025 FEW030TCU 28/21 Q1012","temp":28,"dewp":21,"wdir":180,"wspd":6,"visib":"6+","altim":1012,"clouds":[{"cover":"FEW","base":2500},{"cover":"FEW","base":3000}],"obsTime":1774900800},"SBLS":{"icaoId":"SBLS","flightCategory":"VFR","rawOb":"METAR SBLS 302000Z 10003KT 040V120 9999 VCSH SCT035 FEW040TCU 26/17 Q1014","temp":26,"dewp":17,"wdir":100,"wspd":3,"visib":"6+","altim":1014,"clouds":[{"cover":"SCT","base":3500},{"cover":"FEW","base":4000}],"obsTime":1774900800},"SBLE":{"icaoId":"SBLE","flightCategory":"VFR","rawOb":"METAR SBLE 302000Z AUTO VRB02KT CAVOK 26/24 Q1013","temp":26,"dewp":24,"wdir":"VRB","wspd":2,"visib":"6+","altim":1013,"clouds":[],"obsTime":1774900800},"SBMT":{"icaoId":"SBMT","flightCategory":"VFR","rawOb":"METAR SBMT 302000Z 15008KT 100V190 CAVOK 23/18 Q1016","temp":23,"dewp":18,"wdir":150,"wspd":8,"visib":"6+","altim":1016,"clouds":[],"obsTime":1774900800},"SBST":{"icaoId":"SBST","flightCategory":"VFR","rawOb":"METAR SBST 302000Z 14004KT 9999 FEW023 24/20 Q1013","temp":24,"dewp":20,"wdir":140,"wspd":4,"visib":"6+","altim":1013,"clouds":[{"cover":"FEW","base":2300}],"obsTime":1774900800},"SBTA":{"icaoId":"SBTA","flightCategory":"VFR","rawOb":"METAR SBTA 302000Z 19006KT 160V230 9999 SCT030 FEW035TCU SCT100 27/24 Q1013","temp":27,"dewp":24,"wdir":190,"wspd":6,"visib":"6+","altim":1013,"clouds":[{"cover":"SCT","base":3000},{"cover":"FEW","base":3500},{"cover":"SCT","base":10000}],"obsTime":1774900800},"SBAN":{"icaoId":"SBAN","flightCategory":"VFR","rawOb":"METAR SBAN 302000Z 12004KT 9999 SCT040 FEW045TCU 26/15 Q1016","temp":26,"dewp":15,"wdir":120,"wspd":4,"visib":"6+","altim":1016,"clouds":[{"cover":"SCT","base":4000},{"cover":"FEW","base":4500}],"obsTime":1774900800},"SBPF":{"icaoId":"SBPF","flightCategory":"VFR","rawOb":"METAR SBPF 302000Z 17010KT 9999 FEW040 28/20 Q1015","temp":28,"dewp":20,"wdir":170,"wspd":10,"visib":"6+","altim":1015,"clouds":[{"cover":"FEW","base":4000}],"obsTime":1774900800},"SBJP":{"icaoId":"SBJP","flightCategory":"MVFR","rawOb":"METAR SBJP 302000Z 11009KT 090V150 9999 BKN023 28/24 Q1009","temp":28,"dewp":24,"wdir":110,"wspd":9,"visib":"6+","altim":1009,"clouds":[{"cover":"BKN","base":2300}],"obsTime":1774900800},"SBIH":{"icaoId":"SBIH","flightCategory":"VFR","rawOb":"METAR SBIH 302000Z 29004KT 9999 TS SCT016 FEW025CB 28/24 Q1007","temp":28,"dewp":24,"wdir":290,"wspd":4,"visib":"6+","altim":1007,"clouds":[{"cover":"SCT","base":1600},{"cover":"FEW","base":2500}],"obsTime":1774900800},"SBAF":{"icaoId":"SBAF","flightCategory":"VFR","rawOb":"METAR SBAF 302000Z 20013KT 9999 FEW025 FEW030TCU 27/20 Q1012","temp":27,"dewp":20,"wdir":200,"wspd":13,"visib":"6+","altim":1012,"clouds":[{"cover":"FEW","base":2500},{"cover":"FEW","base":3000}],"obsTime":1774900800},"SBJV":{"icaoId":"SBJV","flightCategory":"VFR","rawOb":"METAR SBJV 302000Z 07005KT 9999 SCT025 BKN080 28/23 Q1013","temp":28,"dewp":23,"wdir":70,"wspd":5,"visib":"6+","altim":1013,"clouds":[{"cover":"SCT","base":2500},{"cover":"BKN","base":8000}],"obsTime":1774900800},"SBGW":{"icaoId":"SBGW","flightCategory":"MVFR","rawOb":"METAR SBGW 302000Z 24008KT 9999 TS VCSH BKN025 FEW030CB 29/18 Q1013","temp":29,"dewp":18,"wdir":240,"wspd":8,"visib":"6+","altim":1013,"clouds":[{"cover":"BKN","base":2500},{"cover":"FEW","base":3000}],"obsTime":1774900800}}}