{"updated":1777817019,"count":85,"data":{"SBMA":{"icaoId":"SBMA","flightCategory":"VFR","rawOb":"METAR SBMA 031300Z 35003KT 9999 SCT020 BKN080 29/25 Q1014","temp":29,"dewp":25,"wdir":350,"wspd":3,"visib":"6+","altim":1014,"clouds":[{"cover":"SCT","base":2000},{"cover":"BKN","base":8000}],"obsTime":1777813200},"SBFL":{"icaoId":"SBFL","flightCategory":"VFR","rawOb":"METAR SBFL 031300Z 20012KT CAVOK 19/09 Q1024","temp":19,"dewp":9,"wdir":200,"wspd":12,"visib":"6+","altim":1024,"clouds":[],"obsTime":1777813200},"SBCP":{"icaoId":"SBCP","flightCategory":"VFR","rawOb":"METAR SBCP 031300Z 24010KT 9999 FEW020 BKN080 27/21 Q1018","temp":27,"dewp":21,"wdir":240,"wspd":10,"visib":"6+","altim":1018,"clouds":[{"cover":"FEW","base":2000},{"cover":"BKN","base":8000}],"obsTime":1777813200},"SBBR":{"icaoId":"SBBR","flightCategory":"VFR","rawOb":"METAR SBBR 031300Z 10014KT 9999 FEW015 25/17 Q1021","temp":25,"dewp":17,"wdir":100,"wspd":14,"visib":"6+","altim":1021,"clouds":[{"cover":"FEW","base":1500}],"obsTime":1777813200},"SBFZ":{"icaoId":"SBFZ","flightCategory":"VFR","rawOb":"METAR SBFZ 031300Z 16006KT 130V200 9999 FEW023 SCT100 28/24 Q1014","temp":28,"dewp":24,"wdir":160,"wspd":6,"visib":"6+","altim":1014,"clouds":[{"cover":"FEW","base":2300},{"cover":"SCT","base":10000}],"obsTime":1777813200},"SBMO":{"icaoId":"SBMO","flightCategory":"VFR","rawOb":"METAR SBMO 031300Z 13005KT 070V170 9999 SCT022 BKN070 28/23 Q1015","temp":28,"dewp":23,"wdir":130,"wspd":5,"visib":"6+","altim":1015,"clouds":[{"cover":"SCT","base":2200},{"cover":"BKN","base":7000}],"obsTime":1777813200},"SBVT":{"icaoId":"SBVT","flightCategory":"VFR","rawOb":"METAR SBVT 031300Z 19013KT 9999 FEW040 BKN070 29/20 Q1017","temp":29,"dewp":20,"wdir":190,"wspd":13,"visib":"6+","altim":1017,"clouds":[{"cover":"FEW","base":4000},{"cover":"BKN","base":7000}],"obsTime":1777813200},"SBMQ":{"icaoId":"SBMQ","flightCategory":"MVFR","rawOb":"METAR SBMQ 031300Z 35006KT 9999 BKN013 OVC067 27/25 Q1014","temp":27,"dewp":25,"wdir":350,"wspd":6,"visib":"6+","altim":1014,"clouds":[{"cover":"BKN","base":1300},{"cover":"OVC","base":6700}],"obsTime":1777813200},"SBCB":{"icaoId":"SBCB","flightCategory":"MVFR","rawOb":"METAR SBCB 031300Z 19011KT 7000 BKN015 OVC040 25/20 Q1019","temp":25,"dewp":20,"wdir":190,"wspd":11,"visib":4.35,"altim":1019,"clouds":[{"cover":"BKN","base":1500},{"cover":"OVC","base":4000}],"obsTime":1777813200},"SBGL":{"icaoId":"SBGL","flightCategory":"MVFR","rawOb":"SPECI SBGL 031229Z 13005KT 080V170 6000 2500NE RA SCT012 BKN020 BKN070 23/21 Q1020","temp":23,"dewp":21,"wdir":130,"wspd":5,"visib":3.73,"altim":1020,"clouds":[{"cover":"SCT","base":1200},{"cover":"BKN","base":2000},{"cover":"BKN","base":7000}],"obsTime":1777811340},"SBPA":{"icaoId":"SBPA","flightCategory":"VFR","rawOb":"METAR SBPA 031300Z VRB05KT CAVOK 14/08 Q1025","temp":14,"dewp":8,"wdir":"VRB","wspd":5,"visib":"6+","altim":1025,"clouds":[],"obsTime":1777813200},"SBGO":{"icaoId":"SBGO","flightCategory":"VFR","rawOb":"METAR SBGO 031300Z 12005KT 080V150 CAVOK 27/18 Q1019","temp":27,"dewp":18,"wdir":120,"wspd":5,"visib":"6+","altim":1019,"clouds":[],"obsTime":1777813200},"SBPJ":{"icaoId":"SBPJ","flightCategory":"VFR","rawOb":"METAR SBPJ 031300Z VRB03KT 9999 FEW045 29/23 Q1015","temp":29,"dewp":23,"wdir":"VRB","wspd":3,"visib":"6+","altim":1015,"clouds":[{"cover":"FEW","base":4500}],"obsTime":1777813200},"SBCR":{"icaoId":"SBCR","flightCategory":"VFR","rawOb":"METAR SBCR 031300Z 21006KT 180V260 9999 FEW011 SCT040 FEW045TCU BKN100 25/23 Q1017","temp":25,"dewp":23,"wdir":210,"wspd":6,"visib":"6+","altim":1017,"clouds":[{"cover":"FEW","base":1100},{"cover":"SCT","base":4000},{"cover":"FEW","base":4500},{"cover":"BKN","base":10000}],"obsTime":1777813200},"SBPV":{"icaoId":"SBPV","flightCategory":"VFR","rawOb":"METAR SBPV 031300Z 13005KT CAVOK 29/26 Q1013","temp":29,"dewp":26,"wdir":130,"wspd":5,"visib":"6+","altim":1013,"clouds":[],"obsTime":1777813200},"SBCT":{"icaoId":"SBCT","flightCategory":"IFR","rawOb":"METAR SBCT 031300Z 12011KT 9999 BKN008 BKN012 OVC020 14/13 Q1025","temp":14,"dewp":13,"wdir":120,"wspd":11,"visib":"6+","altim":1025,"clouds":[{"cover":"BKN","base":800},{"cover":"BKN","base":1200},{"cover":"OVC","base":2000}],"obsTime":1777813200},"SBRB":{"icaoId":"SBRB","flightCategory":"VFR","rawOb":"METAR SBRB 031300Z 14003KT 9999 FEW030 28/25 Q1014","temp":28,"dewp":25,"wdir":140,"wspd":3,"visib":"6+","altim":1014,"clouds":[{"cover":"FEW","base":3000}],"obsTime":1777813200},"SBGR":{"icaoId":"SBGR","flightCategory":"MVFR","rawOb":"METAR SBGR 031300Z 16008KT 7000 -DZ BKN013 OVC019 18/16 Q1025","temp":18,"dewp":16,"wdir":160,"wspd":8,"visib":4.35,"altim":1025,"clouds":[{"cover":"BKN","base":1300},{"cover":"OVC","base":1900}],"obsTime":1777813200},"SBRF":{"icaoId":"SBRF","flightCategory":"VFR","rawOb":"METAR SBRF 031300Z 16010KT 9999 SCT023 29/24 Q1014","temp":29,"dewp":24,"wdir":160,"wspd":10,"visib":"6+","altim":1014,"clouds":[{"cover":"SCT","base":2300}],"obsTime":1777813200},"SBBE":{"icaoId":"SBBE","flightCategory":"VFR","rawOb":"METAR SBBE 031300Z 08004KT 9999 FEW014 SCT020 BKN082 28/25 Q1014","temp":28,"dewp":25,"wdir":80,"wspd":4,"visib":"6+","altim":1014,"clouds":[{"cover":"FEW","base":1400},{"cover":"SCT","base":2000},{"cover":"BKN","base":8200}],"obsTime":1777813200},"SBSG":{"icaoId":"SBSG","flightCategory":"MVFR","rawOb":"METAR SBSG 031300Z 16006KT 110V210 9999 BKN020 BKN090 29/24 Q1014","temp":29,"dewp":24,"wdir":160,"wspd":6,"visib":"6+","altim":1014,"clouds":[{"cover":"BKN","base":2000},{"cover":"BKN","base":9000}],"obsTime":1777813200},"SBCF":{"icaoId":"SBCF","flightCategory":"VFR","rawOb":"METAR SBCF 031300Z 21004KT 180V240 9999 FEW025 24/17 Q1021","temp":24,"dewp":17,"wdir":210,"wspd":4,"visib":"6+","altim":1021,"clouds":[{"cover":"FEW","base":2500}],"obsTime":1777813200},"SBSL":{"icaoId":"SBSL","flightCategory":"VFR","rawOb":"METAR SBSL 031300Z 11005KT 9999 FEW017 SCT022 27/24 Q1013","temp":27,"dewp":24,"wdir":110,"wspd":5,"visib":"6+","altim":1013,"clouds":[{"cover":"FEW","base":1700},{"cover":"SCT","base":2200}],"obsTime":1777813200},"SBCG":{"icaoId":"SBCG","flightCategory":"VFR","rawOb":"METAR SBCG 031300Z 08009KT CAVOK 25/16 Q1019","temp":25,"dewp":16,"wdir":80,"wspd":9,"visib":"6+","altim":1019,"clouds":[],"obsTime":1777813200},"SBSN":{"icaoId":"SBSN","flightCategory":"VFR","rawOb":"METAR SBSN 031300Z 10010KT 9999 SCT013 BKN100 28/24 Q1013","temp":28,"dewp":24,"wdir":100,"wspd":10,"visib":"6+","altim":1013,"clouds":[{"cover":"SCT","base":1300},{"cover":"BKN","base":10000}],"obsTime":1777813200},"SBKP":{"icaoId":"SBKP","flightCategory":"MVFR","rawOb":"METAR SBKP 031300Z 14017KT 9999 BKN024 22/17 Q1023","temp":22,"dewp":17,"wdir":140,"wspd":17,"visib":"6+","altim":1023,"clouds":[{"cover":"BKN","base":2400}],"obsTime":1777813200},"SBSP":{"icaoId":"SBSP","flightCategory":"IFR","rawOb":"METAR SBSP 031300Z 15015KT 9000 BKN009 17/16 Q1025","temp":17,"dewp":16,"wdir":150,"wspd":15,"visib":5.59,"altim":1025,"clouds":[{"cover":"BKN","base":900}],"obsTime":1777813200},"SBEG":{"icaoId":"SBEG","flightCategory":"VFR","rawOb":"METAR SBEG 031300Z 32002KT 9999 SCT020 FEW025TCU BKN080 27/25 Q1013","temp":27,"dewp":25,"wdir":320,"wspd":2,"visib":"6+","altim":1013,"clouds":[{"cover":"SCT","base":2000},{"cover":"FEW","base":2500},{"cover":"BKN","base":8000}],"obsTime":1777813200},"SBSV":{"icaoId":"SBSV","flightCategory":"VFR","rawOb":"METAR SBSV 031300Z 16007KT 120V200 9999 SCT025 29/23 Q1016","temp":29,"dewp":23,"wdir":160,"wspd":7,"visib":"6+","altim":1016,"clouds":[{"cover":"SCT","base":2500}],"obsTime":1777813200},"SBBV":{"icaoId":"SBBV","flightCategory":"VFR","rawOb":"METAR SBBV 031300Z 08013KT 9999 FEW025 SCT100 28/23 Q1014","temp":28,"dewp":23,"wdir":80,"wspd":13,"visib":"6+","altim":1014,"clouds":[{"cover":"FEW","base":2500},{"cover":"SCT","base":10000}],"obsTime":1777813200},"SBTE":{"icaoId":"SBTE","flightCategory":"VFR","rawOb":"METAR SBTE 031300Z 03002KT 9999 SCT016 BKN080 28/25 Q1014","temp":28,"dewp":25,"wdir":30,"wspd":2,"visib":"6+","altim":1014,"clouds":[{"cover":"SCT","base":1600},{"cover":"BKN","base":8000}],"obsTime":1777813200},"SBLO":{"icaoId":"SBLO","flightCategory":"VFR","rawOb":"METAR SBLO 031300Z 09007KT CAVOK 21/16 Q1021","temp":21,"dewp":16,"wdir":90,"wspd":7,"visib":"6+","altim":1021,"clouds":[],"obsTime":1777813200},"SBFI":{"icaoId":"SBFI","flightCategory":"VFR","rawOb":"METAR SBFI 031300Z 12006KT 9999 FEW017 21/18 Q1020","temp":21,"dewp":18,"wdir":120,"wspd":6,"visib":"6+","altim":1020,"clouds":[{"cover":"FEW","base":1700}],"obsTime":1777813200},"SBUL":{"icaoId":"SBUL","flightCategory":"VFR","rawOb":"METAR SBUL 031300Z 14007KT 9999 FEW040 24/16 Q1022","temp":24,"dewp":16,"wdir":140,"wspd":7,"visib":"6+","altim":1022,"clouds":[{"cover":"FEW","base":4000}],"obsTime":1777813200},"SBUR":{"icaoId":"SBUR","flightCategory":"VFR","rawOb":"METAR SBUR 031300Z 07005KT CAVOK 26/15 Q1021","temp":26,"dewp":15,"wdir":70,"wspd":5,"visib":"6+","altim":1021,"clouds":[],"obsTime":1777813200},"SBCZ":{"icaoId":"SBCZ","flightCategory":"IFR","rawOb":"METAR SBCZ 031300Z 16003KT 9999 BKN006 25/24 Q1015","temp":25,"dewp":24,"wdir":160,"wspd":3,"visib":"6+","altim":1015,"clouds":[{"cover":"BKN","base":600}],"obsTime":1777813200},"SBHT":{"icaoId":"SBHT","flightCategory":"MVFR","rawOb":"METAR SBHT 031300Z 08006KT 9999 BKN015 SCT090 29/25 Q1014","temp":29,"dewp":25,"wdir":80,"wspd":6,"visib":"6+","altim":1014,"clouds":[{"cover":"BKN","base":1500},{"cover":"SCT","base":9000}],"obsTime":1777813200},"SBIL":{"icaoId":"SBIL","flightCategory":"VFR","rawOb":"METAR SBIL 031300Z 16004KT 9999 FEW023 29/24 Q1017","temp":29,"dewp":24,"wdir":160,"wspd":4,"visib":"6+","altim":1017,"clouds":[{"cover":"FEW","base":2300}],"obsTime":1777813200},"SBJU":{"icaoId":"SBJU","flightCategory":"VFR","rawOb":"METAR SBJU 031300Z 11007KT 9999 SCT020 27/20 Q1017","temp":27,"dewp":20,"wdir":110,"wspd":7,"visib":"6+","altim":1017,"clouds":[{"cover":"SCT","base":2000}],"obsTime":1777813200},"SBME":{"icaoId":"SBME","flightCategory":"MVFR","rawOb":"METAR SBME 031300Z 22010KT 9999 FEW015 BKN030 BKN070 26/21 Q1019","temp":26,"dewp":21,"wdir":220,"wspd":10,"visib":"6+","altim":1019,"clouds":[{"cover":"FEW","base":1500},{"cover":"BKN","base":3000},{"cover":"BKN","base":7000}],"obsTime":1777813200},"SBMG":{"icaoId":"SBMG","flightCategory":"VFR","rawOb":"METAR SBMG 031300Z 15004KT 9999 FEW015 21/18 Q1020","temp":21,"dewp":18,"wdir":150,"wspd":4,"visib":"6+","altim":1020,"clouds":[{"cover":"FEW","base":1500}],"obsTime":1777813200},"SBMK":{"icaoId":"SBMK","flightCategory":"VFR","rawOb":"METAR SBMK 031300Z 09006KT 9999 FEW034 27/18 Q1020","temp":27,"dewp":18,"wdir":90,"wspd":6,"visib":"6+","altim":1020,"clouds":[{"cover":"FEW","base":3400}],"obsTime":1777813200},"SBNT":{"icaoId":"SBNT","flightCategory":"MVFR","rawOb":"METAR SBNT 031300Z 16009KT 9999 BKN019 SCT070 29/24 Q1014","temp":29,"dewp":24,"wdir":160,"wspd":9,"visib":"6+","altim":1014,"clouds":[{"cover":"BKN","base":1900},{"cover":"SCT","base":7000}],"obsTime":1777813200},"SBAT":{"icaoId":"SBAT","flightCategory":"VFR","rawOb":"METAR SBAT 031300Z 14007KT CAVOK 31/24 Q1015","temp":31,"dewp":24,"wdir":140,"wspd":7,"visib":"6+","altim":1015,"clouds":[],"obsTime":1777813200},"SBCJ":{"icaoId":"SBCJ","flightCategory":"VFR","rawOb":"METAR SBCJ 031300Z 12005KT 9999 BKN040 27/23 Q1018","temp":27,"dewp":23,"wdir":120,"wspd":5,"visib":"6+","altim":1018,"clouds":[{"cover":"BKN","base":4000}],"obsTime":1777813200},"SBSJ":{"icaoId":"SBSJ","flightCategory":"IFR","rawOb":"METAR SBSJ 031300Z 12003KT 070V140 5000 BR BKN008 OVC030 19/18 Q1024","temp":19,"dewp":18,"wdir":120,"wspd":3,"visib":3.11,"altim":1024,"clouds":[{"cover":"BKN","base":800},{"cover":"OVC","base":3000}],"obsTime":1777813200},"SBPL":{"icaoId":"SBPL","flightCategory":"VFR","rawOb":"METAR SBPL 031300Z 12010KT 9999 FEW020 27/18 Q1017","temp":27,"dewp":18,"wdir":120,"wspd":10,"visib":"6+","altim":1017,"clouds":[{"cover":"FEW","base":2000}],"obsTime":1777813200},"SBOI":{"icaoId":"SBOI","flightCategory":"VFR","rawOb":"METAR SBOI 031300Z AUTO 05008KT 020V090 CAVOK 30/25 Q1014","temp":30,"dewp":25,"wdir":50,"wspd":8,"visib":"6+","altim":1014,"clouds":[],"obsTime":1777813200},"SBTF":{"icaoId":"SBTF","flightCategory":"VFR","rawOb":"METAR SBTF 031300Z 22002KT 9999 FEW010 BKN080 28/26 Q1013","temp":28,"dewp":26,"wdir":220,"wspd":2,"visib":"6+","altim":1013,"clouds":[{"cover":"FEW","base":1000},{"cover":"BKN","base":8000}],"obsTime":1777813200},"SBPP":{"icaoId":"SBPP","flightCategory":"VFR","rawOb":"METAR SBPP 031300Z 08011KT 9999 FEW009 BKN070 21/19 Q1021","temp":21,"dewp":19,"wdir":80,"wspd":11,"visib":"6+","altim":1021,"clouds":[{"cover":"FEW","base":900},{"cover":"BKN","base":7000}],"obsTime":1777813200},"SBAR":{"icaoId":"SBAR","flightCategory":"VFR","rawOb":"METAR SBAR 031300Z 14005KT 9999 FEW023 SCT060 29/24 Q1015","temp":29,"dewp":24,"wdir":140,"wspd":5,"visib":"6+","altim":1015,"clouds":[{"cover":"FEW","base":2300},{"cover":"SCT","base":6000}],"obsTime":1777813200},"SBTT":{"icaoId":"SBTT","flightCategory":"VFR","rawOb":"METAR SBTT 031300Z 32004KT 9999 FEW007 BKN033 BKN100 24/22 Q1015","temp":24,"dewp":22,"wdir":320,"wspd":4,"visib":"6+","altim":1015,"clouds":[{"cover":"FEW","base":700},{"cover":"BKN","base":3300},{"cover":"BKN","base":10000}],"obsTime":1777813200},"SBUY":{"icaoId":"SBUY","flightCategory":"MVFR","rawOb":"METAR SBUY 031300Z 09002KT 8000 VCSH SCT010 FEW030TCU BKN080 26/24 Q1012","temp":26,"dewp":24,"wdir":90,"wspd":2,"visib":4.97,"altim":1012,"clouds":[{"cover":"SCT","base":1000},{"cover":"FEW","base":3000},{"cover":"BKN","base":8000}],"obsTime":1777813200},"SBPS":{"icaoId":"SBPS","flightCategory":"MVFR","rawOb":"METAR SBPS 031300Z 28003KT 9999 BKN017 29/23 Q1017","temp":29,"dewp":23,"wdir":280,"wspd":3,"visib":"6+","altim":1017,"clouds":[{"cover":"BKN","base":1700}],"obsTime":1777813200},"SBPB":{"icaoId":"SBPB","flightCategory":"MVFR","rawOb":"METAR SBPB 031300Z 08009KT 9999 BKN016 OVC080 26/24 Q1014","temp":26,"dewp":24,"wdir":80,"wspd":9,"visib":"6+","altim":1014,"clouds":[{"cover":"BKN","base":1600},{"cover":"OVC","base":8000}],"obsTime":1777813200},"SBES":{"icaoId":"SBES","flightCategory":"MVFR","rawOb":"METAR SBES 031300Z VRB05KT 7000 -RA SCT015 BKN040 23/// Q1019","temp":null,"dewp":null,"wdir":"VRB","wspd":5,"visib":4.35,"altim":1019,"clouds":[{"cover":"SCT","base":1500},{"cover":"BKN","base":4000}],"obsTime":1777813200},"SBGM":{"icaoId":"SBGM","flightCategory":"VFR","rawOb":"METAR SBGM 031300Z 12005KT CAVOK 28/25 Q1014","temp":28,"dewp":25,"wdir":120,"wspd":5,"visib":"6+","altim":1014,"clouds":[],"obsTime":1777813200},"SBIP":{"icaoId":"SBIP","flightCategory":"VFR","rawOb":"METAR SBIP 031300Z AUTO 06005KT 020V110 CAVOK 27/19 Q1018","temp":27,"dewp":19,"wdir":60,"wspd":5,"visib":"6+","altim":1018,"clouds":[],"obsTime":1777813200},"SBKG":{"icaoId":"SBKG","flightCategory":"VFR","rawOb":"METAR SBKG 031300Z 14009KT 9999 SCT020 26/21 Q1017","temp":26,"dewp":21,"wdir":140,"wspd":9,"visib":"6+","altim":1017,"clouds":[{"cover":"SCT","base":2000}],"obsTime":1777813200},"SBSC":{"icaoId":"SBSC","flightCategory":"MVFR","rawOb":"METAR SBSC 031300Z 18009KT 8000 VCSH BKN012 BKN030 23/20 Q1020","temp":23,"dewp":20,"wdir":180,"wspd":9,"visib":4.97,"altim":1020,"clouds":[{"cover":"BKN","base":1200},{"cover":"BKN","base":3000}],"obsTime":1777813200},"SBSM":{"icaoId":"SBSM","flightCategory":"VFR","rawOb":"METAR SBSM 031300Z VRB02KT CAVOK 13/07 Q1025","temp":13,"dewp":7,"wdir":"VRB","wspd":2,"visib":"6+","altim":1025,"clouds":[],"obsTime":1777813200},"SBSR":{"icaoId":"SBSR","flightCategory":"VFR","rawOb":"METAR SBSR 031300Z 13010KT CAVOK 25/13 Q1020","temp":25,"dewp":13,"wdir":130,"wspd":10,"visib":"6+","altim":1020,"clouds":[],"obsTime":1777813200},"SBVH":{"icaoId":"SBVH","flightCategory":"VFR","rawOb":"METAR SBVH 031300Z 11011KT CAVOK 26/20 Q1017","temp":26,"dewp":20,"wdir":110,"wspd":11,"visib":"6+","altim":1017,"clouds":[],"obsTime":1777813200},"SBAU":{"icaoId":"SBAU","flightCategory":"VFR","rawOb":"METAR SBAU 031300Z 10010KT CAVOK 25/14 Q1019","temp":25,"dewp":14,"wdir":100,"wspd":10,"visib":"6+","altim":1019,"clouds":[],"obsTime":1777813200},"SBAX":{"icaoId":"SBAX","flightCategory":"VFR","rawOb":"METAR SBAX 031300Z AUTO 11003KT 020V190 CAVOK 24/14 Q1022","temp":24,"dewp":14,"wdir":110,"wspd":3,"visib":"6+","altim":1022,"clouds":[],"obsTime":1777813200},"SBBH":{"icaoId":"SBBH","flightCategory":"VFR","rawOb":"METAR SBBH 031300Z 13006KT 9999 FEW030 26/16 Q1021","temp":26,"dewp":16,"wdir":130,"wspd":6,"visib":"6+","altim":1021,"clouds":[{"cover":"FEW","base":3000}],"obsTime":1777813200},"SBBQ":{"icaoId":"SBBQ","flightCategory":"VFR","rawOb":"METAR SBBQ 031300Z 13006KT 090V180 9999 SCT010 BKN070 19/16 Q1025","temp":19,"dewp":16,"wdir":130,"wspd":6,"visib":"6+","altim":1025,"clouds":[{"cover":"SCT","base":1000},{"cover":"BKN","base":7000}],"obsTime":1777813200},"SBBU":{"icaoId":"SBBU","flightCategory":"VFR","rawOb":"METAR SBBU 031300Z 10011KT 9999 FEW030 25/18 Q1021","temp":25,"dewp":18,"wdir":100,"wspd":11,"visib":"6+","altim":1021,"clouds":[{"cover":"FEW","base":3000}],"obsTime":1777813200},"SBCA":{"icaoId":"SBCA","flightCategory":"VFR","rawOb":"METAR SBCA 031300Z 14006KT 9999 FEW005 19/16 Q1022","temp":19,"dewp":16,"wdir":140,"wspd":6,"visib":"6+","altim":1022,"clouds":[{"cover":"FEW","base":500}],"obsTime":1777813200},"SBCC":{"icaoId":"SBCC","flightCategory":"VFR","rawOb":"METAR SBCC 031300Z /////KT CAVOK ///// Q1016","temp":null,"dewp":null,"wdir":null,"wspd":null,"visib":"6+","altim":1016,"clouds":[],"obsTime":1777813200},"SBCO":{"icaoId":"SBCO","flightCategory":"VFR","rawOb":"METAR SBCO 031300Z 29003KT CAVOK 15/08 Q1025","temp":15,"dewp":8,"wdir":290,"wspd":3,"visib":"6+","altim":1025,"clouds":[],"obsTime":1777813200},"SBDN":{"icaoId":"SBDN","flightCategory":"VFR","rawOb":"METAR SBDN 031300Z 10010KT CAVOK 25/15 Q1020","temp":25,"dewp":15,"wdir":100,"wspd":10,"visib":"6+","altim":1020,"clouds":[],"obsTime":1777813200},"SBJP":{"icaoId":"SBJP","flightCategory":"MVFR","rawOb":"METAR SBJP 031300Z 14008KT 9999 BKN015 OVC070 28/25 Q1014","temp":28,"dewp":25,"wdir":140,"wspd":8,"visib":"6+","altim":1014,"clouds":[{"cover":"BKN","base":1500},{"cover":"OVC","base":7000}],"obsTime":1777813200},"SBJV":{"icaoId":"SBJV","flightCategory":"MVFR","rawOb":"METAR SBJV 031300Z 14007KT 9999 BKN025 18/12 Q1024","temp":18,"dewp":12,"wdir":140,"wspd":7,"visib":"6+","altim":1024,"clouds":[{"cover":"BKN","base":2500}],"obsTime":1777813200},"SBPF":{"icaoId":"SBPF","flightCategory":"VFR","rawOb":"METAR SBPF 031300Z 10010KT CAVOK 11/05 Q1025","temp":11,"dewp":5,"wdir":100,"wspd":10,"visib":"6+","altim":1025,"clouds":[],"obsTime":1777813200},"SBIH":{"icaoId":"SBIH","flightCategory":"VFR","rawOb":"METAR SBIH 031300Z 11004KT 9999 FEW015 BKN080 28/25 Q1013","temp":28,"dewp":25,"wdir":110,"wspd":4,"visib":"6+","altim":1013,"clouds":[{"cover":"FEW","base":1500},{"cover":"BKN","base":8000}],"obsTime":1777813200},"SBAN":{"icaoId":"SBAN","flightCategory":"VFR","rawOb":"METAR SBAN 031300Z 16009KT 100V200 CAVOK 25/16 Q1022","temp":25,"dewp":16,"wdir":160,"wspd":9,"visib":"6+","altim":1022,"clouds":[],"obsTime":1777813200},"SBLE":{"icaoId":"SBLE","flightCategory":"MVFR","rawOb":"SPECI SBLE 031207Z AUTO 11004KT 070V190 9999 BKN010 24/24 Q1020","temp":24,"dewp":24,"wdir":110,"wspd":4,"visib":"6+","altim":1020,"clouds":[{"cover":"BKN","base":1000}],"obsTime":1777810020},"SBAF":{"icaoId":"SBAF","flightCategory":"IFR","rawOb":"METAR SBAF 031300Z 18006KT 4000 BR FEW010 BKN012 23/23 Q1020","temp":23,"dewp":23,"wdir":180,"wspd":6,"visib":2.49,"altim":1020,"clouds":[{"cover":"FEW","base":1000},{"cover":"BKN","base":1200}],"obsTime":1777813200},"SBGW":{"icaoId":"SBGW","flightCategory":"VFR","rawOb":"METAR SBGW 031300Z 24006KT 9999 FEW020 BKN050 22/15 Q1023","temp":22,"dewp":15,"wdir":240,"wspd":6,"visib":"6+","altim":1023,"clouds":[{"cover":"FEW","base":2000},{"cover":"BKN","base":5000}],"obsTime":1777813200},"SBJR":{"icaoId":"SBJR","flightCategory":"LIFR","rawOb":"METAR SBJR 031300Z 19003KT 1500 -RA BR BKN005 OVC020 23/22 Q1020","temp":23,"dewp":22,"wdir":190,"wspd":3,"visib":0.93,"altim":1020,"clouds":[{"cover":"BKN","base":500},{"cover":"OVC","base":2000}],"obsTime":1777813200},"SBLS":{"icaoId":"SBLS","flightCategory":"VFR","rawOb":"METAR SBLS 031300Z 18004KT 140V220 CAVOK 24/18 Q1021","temp":24,"dewp":18,"wdir":180,"wspd":4,"visib":"6+","altim":1021,"clouds":[],"obsTime":1777813200},"SBMT":{"icaoId":"SBMT","flightCategory":"MVFR","rawOb":"METAR SBMT 031300Z 13008KT 9999 BKN013 OVC015 18/16 Q1024","temp":18,"dewp":16,"wdir":130,"wspd":8,"visib":"6+","altim":1024,"clouds":[{"cover":"BKN","base":1300},{"cover":"OVC","base":1500}],"obsTime":1777813200},"SBTA":{"icaoId":"SBTA","flightCategory":"VFR","rawOb":"METAR SBTA 031300Z 20006KT 9999 SCT020 BKN040 21/16 Q1023","temp":21,"dewp":16,"wdir":200,"wspd":6,"visib":"6+","altim":1023,"clouds":[{"cover":"SCT","base":2000},{"cover":"BKN","base":4000}],"obsTime":1777813200},"SBST":{"icaoId":"SBST","flightCategory":"IFR","rawOb":"METAR SBST 031300Z /////KT 2000 -RA BR OVC015 ///// Q1023","temp":null,"dewp":null,"wdir":null,"wspd":null,"visib":1.24,"altim":1023,"clouds":[{"cover":"OVC","base":1500}],"obsTime":1777813200}}}