{"updated":1782291008,"count":54,"data":{"SBSP":{"icaoId":"SBSP","flightCategory":"LIFR","rawOb":"METAR SBSP 240700Z AUTO 17007KT 9999 -RA BKN004 OVC011 12/12 Q1019","temp":12,"dewp":12,"wdir":170,"wspd":7,"visib":"6+","altim":1019,"clouds":[{"cover":"BKN","base":400},{"cover":"OVC","base":1100}],"obsTime":1782284400},"SBKP":{"icaoId":"SBKP","flightCategory":"MVFR","rawOb":"METAR SBKP 240700Z 12009KT 9999 BKN015 OVC020 15/14 Q1017","temp":15,"dewp":14,"wdir":120,"wspd":9,"visib":"6+","altim":1017,"clouds":[{"cover":"BKN","base":1500},{"cover":"OVC","base":2000}],"obsTime":1782284400},"SBVT":{"icaoId":"SBVT","flightCategory":"VFR","rawOb":"METAR SBVT 240700Z 09001KT CAVOK 17/16 Q1015","temp":17,"dewp":16,"wdir":90,"wspd":1,"visib":"6+","altim":1015,"clouds":[],"obsTime":1782284400},"SBBR":{"icaoId":"SBBR","flightCategory":"VFR","rawOb":"METAR SBBR 240700Z 00000KT CAVOK 16/14 Q1019","temp":16,"dewp":14,"wdir":0,"wspd":0,"visib":"6+","altim":1019,"clouds":[],"obsTime":1782284400},"SBBV":{"icaoId":"SBBV","flightCategory":"MVFR","rawOb":"METAR SBBV 240700Z 35002KT 9999 BKN015 BKN030 FEW035TCU BKN070 25/24 Q1011","temp":25,"dewp":24,"wdir":350,"wspd":2,"visib":"6+","altim":1011,"clouds":[{"cover":"BKN","base":1500},{"cover":"BKN","base":3000},{"cover":"FEW","base":3500},{"cover":"BKN","base":7000}],"obsTime":1782284400},"SBCF":{"icaoId":"SBCF","flightCategory":"VFR","rawOb":"METAR SBCF 240700Z 16002KT CAVOK 16/14 Q1018","temp":16,"dewp":14,"wdir":160,"wspd":2,"visib":"6+","altim":1018,"clouds":[],"obsTime":1782284400},"SBCG":{"icaoId":"SBCG","flightCategory":"IFR","rawOb":"METAR SBCG 240700Z 14008KT 5000 -RA VCTS BKN005 BKN035 FEW045CB 09/08 Q1020 RETSRA","temp":9,"dewp":8,"wdir":140,"wspd":8,"visib":3.11,"altim":1020,"clouds":[{"cover":"BKN","base":500},{"cover":"BKN","base":3500},{"cover":"FEW","base":4500}],"obsTime":1782284400},"SBCT":{"icaoId":"SBCT","flightCategory":"LIFR","rawOb":"METAR SBCT 240700Z 23005KT 5000 -DZ OVC002 06/06 Q1019","temp":6,"dewp":6,"wdir":230,"wspd":5,"visib":3.11,"altim":1019,"clouds":[{"cover":"OVC","base":200}],"obsTime":1782284400},"SBEG":{"icaoId":"SBEG","flightCategory":"VFR","rawOb":"METAR SBEG 240700Z 31001KT CAVOK 25/24 Q1011","temp":25,"dewp":24,"wdir":310,"wspd":1,"visib":"6+","altim":1011,"clouds":[],"obsTime":1782284400},"SBFI":{"icaoId":"SBFI","flightCategory":"LIFR","rawOb":"METAR SBFI 240700Z 27001KT 0800 R15///// R33///// FG NSC 01/01 Q1021","temp":1,"dewp":1,"wdir":270,"wspd":1,"visib":0.5,"altim":1021,"clouds":[],"obsTime":1782284400},"SBFL":{"icaoId":"SBFL","flightCategory":"VFR","rawOb":"METAR SBFL 240700Z 17001KT 9999 FEW040 10/09 Q1019","temp":10,"dewp":9,"wdir":170,"wspd":1,"visib":"6+","altim":1019,"clouds":[{"cover":"FEW","base":4000}],"obsTime":1782284400},"SBFZ":{"icaoId":"SBFZ","flightCategory":"MVFR","rawOb":"METAR SBFZ 240700Z 13013KT 9999 BKN020 27/22 Q1010","temp":27,"dewp":22,"wdir":130,"wspd":13,"visib":"6+","altim":1010,"clouds":[{"cover":"BKN","base":2000}],"obsTime":1782284400},"SBGL":{"icaoId":"SBGL","flightCategory":"MVFR","rawOb":"METAR SBGL 240700Z 30003KT 8000 FEW018 BKN027 OVC035 21/20 Q1015","temp":21,"dewp":20,"wdir":300,"wspd":3,"visib":4.97,"altim":1015,"clouds":[{"cover":"FEW","base":1800},{"cover":"BKN","base":2700},{"cover":"OVC","base":3500}],"obsTime":1782284400},"SBGO":{"icaoId":"SBGO","flightCategory":"VFR","rawOb":"METAR SBGO 240700Z 13005KT CAVOK 19/18 Q1017","temp":19,"dewp":18,"wdir":130,"wspd":5,"visib":"6+","altim":1017,"clouds":[],"obsTime":1782284400},"SBGR":{"icaoId":"SBGR","flightCategory":"IFR","rawOb":"METAR SBGR 240700Z 17003KT 7000 -RA BKN007 13/13 Q1019 RERA","temp":13,"dewp":13,"wdir":170,"wspd":3,"visib":4.35,"altim":1019,"clouds":[{"cover":"BKN","base":700}],"obsTime":1782284400},"SBJU":{"icaoId":"SBJU","flightCategory":"VFR","rawOb":"METAR SBJU 240700Z 00000KT 9999 SCT020 22/19 Q1014","temp":22,"dewp":19,"wdir":0,"wspd":0,"visib":"6+","altim":1014,"clouds":[{"cover":"SCT","base":2000}],"obsTime":1782284400},"SBLO":{"icaoId":"SBLO","flightCategory":"VFR","rawOb":"METAR SBLO 240700Z 28002KT CAVOK 10/10 Q1017","temp":10,"dewp":10,"wdir":280,"wspd":2,"visib":"6+","altim":1017,"clouds":[],"obsTime":1782284400},"SBMA":{"icaoId":"SBMA","flightCategory":"VFR","rawOb":"METAR SBMA 240700Z 00000KT CAVOK 25/23 Q1010","temp":25,"dewp":23,"wdir":0,"wspd":0,"visib":"6+","altim":1010,"clouds":[],"obsTime":1782284400},"SBME":{"icaoId":"SBME","flightCategory":"VFR","rawOb":"METAR SBME 240700Z 31004KT CAVOK 18/17 Q1015","temp":18,"dewp":17,"wdir":310,"wspd":4,"visib":"6+","altim":1015,"clouds":[],"obsTime":1782284400},"SBMG":{"icaoId":"SBMG","flightCategory":"VFR","rawOb":"METAR SBMG 240700Z AUTO 21006KT CAVOK 07/06 Q1017","temp":7,"dewp":6,"wdir":210,"wspd":6,"visib":"6+","altim":1017,"clouds":[],"obsTime":1782284400},"SBMK":{"icaoId":"SBMK","flightCategory":"VFR","rawOb":"METAR SBMK 240800Z 00000KT CAVOK 13/12 Q1017","temp":13,"dewp":12,"wdir":0,"wspd":0,"visib":"6+","altim":1017,"clouds":[],"obsTime":1782288000},"SBMO":{"icaoId":"SBMO","flightCategory":"MVFR","rawOb":"METAR SBMO 240700Z 29003KT 5000 BR SCT015 22/21 Q1014","temp":22,"dewp":21,"wdir":290,"wspd":3,"visib":3.11,"altim":1014,"clouds":[{"cover":"SCT","base":1500}],"obsTime":1782284400},"SBMQ":{"icaoId":"SBMQ","flightCategory":"VFR","rawOb":"METAR SBMQ 240700Z 29003KT CAVOK 26/25 Q1011","temp":26,"dewp":25,"wdir":290,"wspd":3,"visib":"6+","altim":1011,"clouds":[],"obsTime":1782284400},"SBNT":{"icaoId":"SBNT","flightCategory":"VFR","rawOb":"METAR SBNT 240700Z 15020KT 9999 FEW009 SCT021 BKN040 23/22 Q1015","temp":23,"dewp":22,"wdir":150,"wspd":20,"visib":"6+","altim":1015,"clouds":[{"cover":"FEW","base":900},{"cover":"SCT","base":2100},{"cover":"BKN","base":4000}],"obsTime":1782284400},"SBPA":{"icaoId":"SBPA","flightCategory":"VFR","rawOb":"METAR SBPA 240700Z 30002KT CAVOK 04/04 Q1020","temp":4,"dewp":4,"wdir":300,"wspd":2,"visib":"6+","altim":1020,"clouds":[],"obsTime":1782284400},"SBPJ":{"icaoId":"SBPJ","flightCategory":"VFR","rawOb":"METAR SBPJ 240700Z 12005KT CAVOK 19/15 Q1013","temp":19,"dewp":15,"wdir":120,"wspd":5,"visib":"6+","altim":1013,"clouds":[],"obsTime":1782284400},"SBPV":{"icaoId":"SBPV","flightCategory":"VFR","rawOb":"METAR SBPV 240700Z 35001KT 9999 SCT035 24/23 Q1011","temp":24,"dewp":23,"wdir":350,"wspd":1,"visib":"6+","altim":1011,"clouds":[{"cover":"SCT","base":3500}],"obsTime":1782284400},"SBRB":{"icaoId":"SBRB","flightCategory":"IFR","rawOb":"METAR SBRB 240700Z 17006KT 130V240 5000 BR BKN005 20/20 Q1014","temp":20,"dewp":20,"wdir":170,"wspd":6,"visib":3.11,"altim":1014,"clouds":[{"cover":"BKN","base":500}],"obsTime":1782284400},"SBRF":{"icaoId":"SBRF","flightCategory":"MVFR","rawOb":"METAR SBRF 240700Z 13010KT 9999 BKN023 26/20 Q1013","temp":26,"dewp":20,"wdir":130,"wspd":10,"visib":"6+","altim":1013,"clouds":[{"cover":"BKN","base":2300}],"obsTime":1782284400},"SBSG":{"icaoId":"SBSG","flightCategory":"MVFR","rawOb":"METAR SBSG 240700Z 17004KT 120V210 9999 FEW006 BKN018 23/22 Q1012","temp":23,"dewp":22,"wdir":170,"wspd":4,"visib":"6+","altim":1012,"clouds":[{"cover":"FEW","base":600},{"cover":"BKN","base":1800}],"obsTime":1782284400},"SBSL":{"icaoId":"SBSL","flightCategory":"VFR","rawOb":"METAR SBSL 240700Z 08005KT 9999 FEW020 26/25 Q1010","temp":26,"dewp":25,"wdir":80,"wspd":5,"visib":"6+","altim":1010,"clouds":[{"cover":"FEW","base":2000}],"obsTime":1782284400},"SBSN":{"icaoId":"SBSN","flightCategory":"VFR","rawOb":"METAR SBSN 240700Z 16002KT CAVOK 24/24 Q1010","temp":24,"dewp":24,"wdir":160,"wspd":2,"visib":"6+","altim":1010,"clouds":[],"obsTime":1782284400},"SBSV":{"icaoId":"SBSV","flightCategory":"MVFR","rawOb":"METAR SBSV 240700Z 30003KT 6000 SCT010 SCT023 22/21 Q1014","temp":22,"dewp":21,"wdir":300,"wspd":3,"visib":3.73,"altim":1014,"clouds":[{"cover":"SCT","base":1000},{"cover":"SCT","base":2300}],"obsTime":1782284400},"SBTE":{"icaoId":"SBTE","flightCategory":"IFR","rawOb":"METAR SBTE 240700Z 01005KT 9999 BKN009 27/24 Q1010","temp":27,"dewp":24,"wdir":10,"wspd":5,"visib":"6+","altim":1010,"clouds":[{"cover":"BKN","base":900}],"obsTime":1782284400},"SBUL":{"icaoId":"SBUL","flightCategory":"VFR","rawOb":"METAR SBUL 240700Z 13006KT 9999 FEW004 BKN080 18/17 Q1018","temp":18,"dewp":17,"wdir":130,"wspd":6,"visib":"6+","altim":1018,"clouds":[{"cover":"FEW","base":400},{"cover":"BKN","base":8000}],"obsTime":1782284400},"SBUR":{"icaoId":"SBUR","flightCategory":"VFR","rawOb":"METAR SBUR 240700Z 14002KT CAVOK 18/17 Q1017","temp":18,"dewp":17,"wdir":140,"wspd":2,"visib":"6+","altim":1017,"clouds":[],"obsTime":1782284400},"SBBE":{"icaoId":"SBBE","flightCategory":"VFR","rawOb":"METAR SBBE 240700Z 15002KT CAVOK 26/25 Q1011","temp":26,"dewp":25,"wdir":150,"wspd":2,"visib":"6+","altim":1011,"clouds":[],"obsTime":1782284400},"SBSJ":{"icaoId":"SBSJ","flightCategory":"IFR","rawOb":"SPECI SBSJ 240830Z 23003KT 3500 -DZ BR BKN006 OVC010 14/14 Q1018","temp":14,"dewp":14,"wdir":230,"wspd":3,"visib":2.17,"altim":1018,"clouds":[{"cover":"BKN","base":600},{"cover":"OVC","base":1000}],"obsTime":1782289800},"SBTU":{"icaoId":"SBTU","flightCategory":"MVFR","rawOb":"METAR SBTU 240700Z AUTO 33010KT 5000 // FEW007/// BKN028/// ///// Q1013","temp":null,"dewp":null,"wdir":330,"wspd":10,"visib":3.11,"altim":1013,"clouds":[{"cover":"FEW","base":700},{"cover":"BKN","base":2800}],"obsTime":1782284400},"SBAR":{"icaoId":"SBAR","flightCategory":"MVFR","rawOb":"METAR SBAR 240700Z 12004KT 9999 FEW025 BKN030 22/22 Q1014","temp":22,"dewp":22,"wdir":120,"wspd":4,"visib":"6+","altim":1014,"clouds":[{"cover":"FEW","base":2500},{"cover":"BKN","base":3000}],"obsTime":1782284400},"SBAX":{"icaoId":"SBAX","flightCategory":"VFR","rawOb":"METAR SBAX 240700Z AUTO 16006KT CAVOK ///// Q1018","temp":null,"dewp":null,"wdir":160,"wspd":6,"visib":"6+","altim":1018,"clouds":[],"obsTime":1782284400},"SBDN":{"icaoId":"SBDN","flightCategory":"MVFR","rawOb":"METAR SBDN 240700Z 00000KT 8000 -RA SCT007 OVC035 10/08 Q1018","temp":10,"dewp":8,"wdir":0,"wspd":0,"visib":4.97,"altim":1018,"clouds":[{"cover":"SCT","base":700},{"cover":"OVC","base":3500}],"obsTime":1782284400},"SBES":{"icaoId":"SBES","flightCategory":"VFR","rawOb":"METAR SBES 240800Z 00000KT 9000 FEW004 SCT010 20/// Q1015","temp":null,"dewp":null,"wdir":0,"wspd":0,"visib":5.59,"altim":1015,"clouds":[{"cover":"FEW","base":400},{"cover":"SCT","base":1000}],"obsTime":1782288000},"SBIP":{"icaoId":"SBIP","flightCategory":"LIFR","rawOb":"METAR SBIP 240700Z AUTO 00000KT 0500 FG VV001 14/14 Q1016","temp":14,"dewp":14,"wdir":0,"wspd":0,"visib":0.31,"altim":1016,"clouds":[{"cover":"OVX","base":100}],"obsTime":1782284400},"SBKG":{"icaoId":"SBKG","flightCategory":"VFR","rawOb":"METAR SBKG 240700Z 14004KT 9999 FEW007 SCT070 20/19 Q1015","temp":20,"dewp":19,"wdir":140,"wspd":4,"visib":"6+","altim":1015,"clouds":[{"cover":"FEW","base":700},{"cover":"SCT","base":7000}],"obsTime":1782284400},"SBOI":{"icaoId":"SBOI","flightCategory":"VFR","rawOb":"METAR SBOI 240700Z AUTO VRB02KT 9999 FEW002 24/23 Q1011","temp":24,"dewp":23,"wdir":"VRB","wspd":2,"visib":"6+","altim":1011,"clouds":[{"cover":"FEW","base":200}],"obsTime":1782284400},"SBPL":{"icaoId":"SBPL","flightCategory":"MVFR","rawOb":"METAR SBPL 240700Z 10008KT 9999 BKN020 24/19 Q1015","temp":24,"dewp":19,"wdir":100,"wspd":8,"visib":"6+","altim":1015,"clouds":[{"cover":"BKN","base":2000}],"obsTime":1782284400},"SBPS":{"icaoId":"SBPS","flightCategory":"VFR","rawOb":"METAR SBPS 240700Z 26005KT 9999 SCT015 BKN080 21/21 Q1016","temp":21,"dewp":21,"wdir":260,"wspd":5,"visib":"6+","altim":1016,"clouds":[{"cover":"SCT","base":1500},{"cover":"BKN","base":8000}],"obsTime":1782284400},"SBSC":{"icaoId":"SBSC","flightCategory":"IFR","rawOb":"METAR SBSC 240700Z 24003KT 5000 BR BKN007 OVC010 20/20 Q1015","temp":20,"dewp":20,"wdir":240,"wspd":3,"visib":3.11,"altim":1015,"clouds":[{"cover":"BKN","base":700},{"cover":"OVC","base":1000}],"obsTime":1782284400},"SBSR":{"icaoId":"SBSR","flightCategory":"IFR","rawOb":"METAR SBSR 240700Z 25006KT 6000 DZ BKN007 OVC070 13/13 Q1018","temp":13,"dewp":13,"wdir":250,"wspd":6,"visib":3.73,"altim":1018,"clouds":[{"cover":"BKN","base":700},{"cover":"OVC","base":7000}],"obsTime":1782284400},"SBJP":{"icaoId":"SBJP","flightCategory":"MVFR","rawOb":"METAR SBJP 240700Z 17010KT 8000 -RA SCT009 BKN025 OVC070 23/22 Q1013","temp":23,"dewp":22,"wdir":170,"wspd":10,"visib":4.97,"altim":1013,"clouds":[{"cover":"SCT","base":900},{"cover":"BKN","base":2500},{"cover":"OVC","base":7000}],"obsTime":1782284400},"SBAN":{"icaoId":"SBAN","flightCategory":"VFR","rawOb":"METAR SBAN 240700Z 20002KT CAVOK 17/14 Q1020","temp":17,"dewp":14,"wdir":200,"wspd":2,"visib":"6+","altim":1020,"clouds":[],"obsTime":1782284400},"SBNM":{"icaoId":"SBNM","flightCategory":"VFR","rawOb":"METAR SBNM 240700Z AUTO 01003KT CAVOK 05/01 Q1021","temp":5,"dewp":1,"wdir":10,"wspd":3,"visib":"6+","altim":1021,"clouds":[],"obsTime":1782284400},"SBLE":{"icaoId":"SBLE","flightCategory":"VFR","rawOb":"METAR SBLE 240700Z AUTO 04002KT 9999 BKN037 ///// Q////","temp":null,"dewp":null,"wdir":40,"wspd":2,"visib":"6+","altim":null,"clouds":[{"cover":"BKN","base":3700}],"obsTime":1782284400}}}