{"updated":1782572256,"count":87,"data":{"SBPV":{"icaoId":"SBPV","flightCategory":"LIFR","rawOb":"METAR SBPV 271300Z 19004KT 9999 BKN004 22/21 Q1016","temp":22,"dewp":21,"wdir":190,"wspd":4,"visib":"6+","altim":1016,"clouds":[{"cover":"BKN","base":400}],"obsTime":1782565200},"SBFI":{"icaoId":"SBFI","flightCategory":"IFR","rawOb":"METAR SBFI 271300Z 06003KT 2500 TSRA SCT020 FEW030CB SCT100 14/14 Q1023 RETSRA","temp":14,"dewp":14,"wdir":60,"wspd":3,"visib":1.55,"altim":1023,"clouds":[{"cover":"SCT","base":2000},{"cover":"FEW","base":3000},{"cover":"SCT","base":10000}],"obsTime":1782565200},"SBRF":{"icaoId":"SBRF","flightCategory":"MVFR","rawOb":"METAR SBRF 271300Z 12014KT 9999 SCT008 BKN030 BKN050 27/24 Q1018","temp":27,"dewp":24,"wdir":120,"wspd":14,"visib":"6+","altim":1018,"clouds":[{"cover":"SCT","base":800},{"cover":"BKN","base":3000},{"cover":"BKN","base":5000}],"obsTime":1782565200},"SBMO":{"icaoId":"SBMO","flightCategory":"IFR","rawOb":"METAR SBMO 271300Z 12014KT 3500 -RA BR BKN010 26/24 Q1019","temp":26,"dewp":24,"wdir":120,"wspd":14,"visib":2.17,"altim":1019,"clouds":[{"cover":"BKN","base":1000}],"obsTime":1782565200},"SBKP":{"icaoId":"SBKP","flightCategory":"VFR","rawOb":"METAR SBKP 271300Z 13006KT CAVOK 19/15 Q1026","temp":19,"dewp":15,"wdir":130,"wspd":6,"visib":"6+","altim":1026,"clouds":[],"obsTime":1782565200},"SBBE":{"icaoId":"SBBE","flightCategory":"VFR","rawOb":"METAR SBBE 271300Z 07013KT 9999 FEW023 29/24 Q1015","temp":29,"dewp":24,"wdir":70,"wspd":13,"visib":"6+","altim":1015,"clouds":[{"cover":"FEW","base":2300}],"obsTime":1782565200},"SBSN":{"icaoId":"SBSN","flightCategory":"VFR","rawOb":"METAR SBSN 271300Z 09011KT 9999 VCSH SCT010 FEW017TCU 26/24 Q1015 RETSRA","temp":26,"dewp":24,"wdir":90,"wspd":11,"visib":"6+","altim":1015,"clouds":[{"cover":"SCT","base":1000},{"cover":"FEW","base":1700}],"obsTime":1782565200},"SBSG":{"icaoId":"SBSG","flightCategory":"MVFR","rawOb":"METAR SBSG 271300Z 12005KT 090V170 9999 VCSH BKN011 BKN045 27/24 Q1017","temp":27,"dewp":24,"wdir":120,"wspd":5,"visib":"6+","altim":1017,"clouds":[{"cover":"BKN","base":1100},{"cover":"BKN","base":4500}],"obsTime":1782565200},"SBVT":{"icaoId":"SBVT","flightCategory":"VFR","rawOb":"METAR SBVT 271300Z 31003KT 240V350 9999 FEW035 SCT080 24/21 Q1025","temp":24,"dewp":21,"wdir":310,"wspd":3,"visib":"6+","altim":1025,"clouds":[{"cover":"FEW","base":3500},{"cover":"SCT","base":8000}],"obsTime":1782565200},"SBRB":{"icaoId":"SBRB","flightCategory":"IFR","rawOb":"METAR SBRB 271300Z VRB02KT 8000 BKN008 BKN070 20/20 Q1019","temp":20,"dewp":20,"wdir":"VRB","wspd":2,"visib":4.97,"altim":1019,"clouds":[{"cover":"BKN","base":800},{"cover":"BKN","base":7000}],"obsTime":1782565200},"SBSL":{"icaoId":"SBSL","flightCategory":"VFR","rawOb":"METAR SBSL 271300Z 11012KT 9999 SCT025 29/23 Q1015","temp":29,"dewp":23,"wdir":110,"wspd":12,"visib":"6+","altim":1015,"clouds":[{"cover":"SCT","base":2500}],"obsTime":1782565200},"SBEG":{"icaoId":"SBEG","flightCategory":"VFR","rawOb":"METAR SBEG 271300Z 06002KT 9999 FEW020 FEW025TCU SCT100 26/24 Q1015","temp":26,"dewp":24,"wdir":60,"wspd":2,"visib":"6+","altim":1015,"clouds":[{"cover":"FEW","base":2000},{"cover":"FEW","base":2500},{"cover":"SCT","base":10000}],"obsTime":1782565200},"SBBR":{"icaoId":"SBBR","flightCategory":"MVFR","rawOb":"METAR SBBR 271300Z 10014KT 9999 OVC011 19/16 Q1027","temp":19,"dewp":16,"wdir":100,"wspd":14,"visib":"6+","altim":1027,"clouds":[{"cover":"OVC","base":1100}],"obsTime":1782565200},"SBFZ":{"icaoId":"SBFZ","flightCategory":"MVFR","rawOb":"METAR SBFZ 271300Z 15008KT 110V190 9999 BKN025 30/23 Q1016","temp":30,"dewp":23,"wdir":150,"wspd":8,"visib":"6+","altim":1016,"clouds":[{"cover":"BKN","base":2500}],"obsTime":1782565200},"SBBV":{"icaoId":"SBBV","flightCategory":"MVFR","rawOb":"METAR SBBV 271300Z 34003KT 9999 -SHRA BKN010 BKN025 FEW030TCU 26/25 Q1016","temp":26,"dewp":25,"wdir":340,"wspd":3,"visib":"6+","altim":1016,"clouds":[{"cover":"BKN","base":1000},{"cover":"BKN","base":2500},{"cover":"FEW","base":3000}],"obsTime":1782565200},"SBTE":{"icaoId":"SBTE","flightCategory":"MVFR","rawOb":"METAR SBTE 271300Z 14009KT 9999 BKN025 29/21 Q1016","temp":29,"dewp":21,"wdir":140,"wspd":9,"visib":"6+","altim":1016,"clouds":[{"cover":"BKN","base":2500}],"obsTime":1782565200},"SBGL":{"icaoId":"SBGL","flightCategory":"IFR","rawOb":"METAR SBGL 271300Z 32003KT 3000 BR FEW003 SCT004 BKN080 21/20 Q1024","temp":21,"dewp":20,"wdir":320,"wspd":3,"visib":1.86,"altim":1024,"clouds":[{"cover":"FEW","base":300},{"cover":"SCT","base":400},{"cover":"BKN","base":8000}],"obsTime":1782565200},"SBCP":{"icaoId":"SBCP","flightCategory":"VFR","rawOb":"METAR SBCP 271300Z 05007KT 9999 SCT015 27/20 Q1025","temp":27,"dewp":20,"wdir":50,"wspd":7,"visib":"6+","altim":1025,"clouds":[{"cover":"SCT","base":1500}],"obsTime":1782565200},"SBGO":{"icaoId":"SBGO","flightCategory":"VFR","rawOb":"METAR SBGO 271300Z 07008KT 040V100 CAVOK 24/17 Q1025","temp":24,"dewp":17,"wdir":70,"wspd":8,"visib":"6+","altim":1025,"clouds":[],"obsTime":1782565200},"SBPA":{"icaoId":"SBPA","flightCategory":"VFR","rawOb":"METAR SBPA 271300Z 27003KT 240V310 9000 NSC 11/09 Q1023","temp":11,"dewp":9,"wdir":270,"wspd":3,"visib":5.59,"altim":1023,"clouds":[],"obsTime":1782565200},"SBCG":{"icaoId":"SBCG","flightCategory":"VFR","rawOb":"METAR SBCG 271300Z 06016KT CAVOK 23/18 Q1021","temp":23,"dewp":18,"wdir":60,"wspd":16,"visib":"6+","altim":1021,"clouds":[],"obsTime":1782565200},"SBCT":{"icaoId":"SBCT","flightCategory":"MVFR","rawOb":"METAR SBCT 271300Z VRB02KT 7000 SCT008 15/15 Q1026","temp":15,"dewp":15,"wdir":"VRB","wspd":2,"visib":4.35,"altim":1026,"clouds":[{"cover":"SCT","base":800}],"obsTime":1782565200},"SBMG":{"icaoId":"SBMG","flightCategory":"LIFR","rawOb":"METAR SBMG 271300Z 16004KT 130V190 0250 R10/0550N FG SCT002 SCT030 BKN070 16/15 Q1023","temp":16,"dewp":15,"wdir":160,"wspd":4,"visib":0.16,"altim":1023,"clouds":[{"cover":"SCT","base":200},{"cover":"SCT","base":3000},{"cover":"BKN","base":7000}],"obsTime":1782565200},"SBIL":{"icaoId":"SBIL","flightCategory":"VFR","rawOb":"METAR SBIL 271300Z 20007KT 160V230 9999 VCSH FEW012 SCT020 27/23 Q1022","temp":27,"dewp":23,"wdir":200,"wspd":7,"visib":"6+","altim":1022,"clouds":[{"cover":"FEW","base":1200},{"cover":"SCT","base":2000}],"obsTime":1782565200},"SBAT":{"icaoId":"SBAT","flightCategory":"VFR","rawOb":"METAR SBAT 271300Z 10007KT CAVOK 29/19 Q1017","temp":29,"dewp":19,"wdir":100,"wspd":7,"visib":"6+","altim":1017,"clouds":[],"obsTime":1782565200},"SBHT":{"icaoId":"SBHT","flightCategory":"VFR","rawOb":"METAR SBHT 271300Z 11007KT 9999 SCT020 29/24 Q1016","temp":29,"dewp":24,"wdir":110,"wspd":7,"visib":"6+","altim":1016,"clouds":[{"cover":"SCT","base":2000}],"obsTime":1782565200},"SBJU":{"icaoId":"SBJU","flightCategory":"MVFR","rawOb":"METAR SBJU 271300Z 12008KT 9999 BKN020 28/21 Q1019","temp":28,"dewp":21,"wdir":120,"wspd":8,"visib":"6+","altim":1019,"clouds":[{"cover":"BKN","base":2000}],"obsTime":1782565200},"SBME":{"icaoId":"SBME","flightCategory":"VFR","rawOb":"METAR SBME 271300Z 04014KT 9999 FEW017 25/21 Q1024","temp":25,"dewp":21,"wdir":40,"wspd":14,"visib":"6+","altim":1024,"clouds":[{"cover":"FEW","base":1700}],"obsTime":1782565200},"SBMK":{"icaoId":"SBMK","flightCategory":"VFR","rawOb":"METAR SBMK 271300Z 05003KT 9999 FEW035 24/15 Q1026","temp":24,"dewp":15,"wdir":50,"wspd":3,"visib":"6+","altim":1026,"clouds":[{"cover":"FEW","base":3500}],"obsTime":1782565200},"SBUL":{"icaoId":"SBUL","flightCategory":"VFR","rawOb":"METAR SBUL 271300Z 09012KT CAVOK 21/15 Q1027","temp":21,"dewp":15,"wdir":90,"wspd":12,"visib":"6+","altim":1027,"clouds":[],"obsTime":1782565200},"SBUR":{"icaoId":"SBUR","flightCategory":"VFR","rawOb":"METAR SBUR 271300Z 04007KT CAVOK 23/16 Q1026","temp":23,"dewp":16,"wdir":40,"wspd":7,"visib":"6+","altim":1026,"clouds":[],"obsTime":1782565200},"SBGR":{"icaoId":"SBGR","flightCategory":"VFR","rawOb":"METAR SBGR 271300Z 06007KT 9999 FEW009 19/16 Q1027","temp":19,"dewp":16,"wdir":60,"wspd":7,"visib":"6+","altim":1027,"clouds":[{"cover":"FEW","base":900}],"obsTime":1782565200},"SBMA":{"icaoId":"SBMA","flightCategory":"VFR","rawOb":"METAR SBMA 271300Z 01007KT 9999 FEW020 BKN090 30/23 Q1016","temp":30,"dewp":23,"wdir":10,"wspd":7,"visib":"6+","altim":1016,"clouds":[{"cover":"FEW","base":2000},{"cover":"BKN","base":9000}],"obsTime":1782565200},"SBSV":{"icaoId":"SBSV","flightCategory":"VFR","rawOb":"METAR SBSV 271300Z 15007KT 120V180 9999 VCSH SCT025 FEW026TCU BKN070 25/24 Q1021","temp":25,"dewp":24,"wdir":150,"wspd":7,"visib":"6+","altim":1021,"clouds":[{"cover":"SCT","base":2500},{"cover":"FEW","base":2600},{"cover":"BKN","base":7000}],"obsTime":1782565200},"SBLO":{"icaoId":"SBLO","flightCategory":"VFR","rawOb":"METAR SBLO 271300Z 08002KT 9999 FEW030 BKN100 19/17 Q1024","temp":19,"dewp":17,"wdir":80,"wspd":2,"visib":"6+","altim":1024,"clouds":[{"cover":"FEW","base":3000},{"cover":"BKN","base":10000}],"obsTime":1782565200},"SBCR":{"icaoId":"SBCR","flightCategory":"VFR","rawOb":"METAR SBCR 271300Z 03003KT CAVOK 22/19 Q1018","temp":22,"dewp":19,"wdir":30,"wspd":3,"visib":"6+","altim":1018,"clouds":[],"obsTime":1782565200},"SBFL":{"icaoId":"SBFL","flightCategory":"VFR","rawOb":"METAR SBFL 271300Z VRB02KT 9999 FEW012 17/14 Q1023","temp":17,"dewp":14,"wdir":"VRB","wspd":2,"visib":"6+","altim":1023,"clouds":[{"cover":"FEW","base":1200}],"obsTime":1782565200},"SBCZ":{"icaoId":"SBCZ","flightCategory":"MVFR","rawOb":"METAR SBCZ 271300Z 15004KT 120V190 9999 FEW005 BKN030 22/21 Q1019","temp":22,"dewp":21,"wdir":150,"wspd":4,"visib":"6+","altim":1019,"clouds":[{"cover":"FEW","base":500},{"cover":"BKN","base":3000}],"obsTime":1782565200},"SBNT":{"icaoId":"SBNT","flightCategory":"MVFR","rawOb":"METAR SBNT 271300Z 17007KT 140V230 6000 -RA BKN012 BKN035 27/24 Q1017","temp":27,"dewp":24,"wdir":170,"wspd":7,"visib":3.73,"altim":1017,"clouds":[{"cover":"BKN","base":1200},{"cover":"BKN","base":3500}],"obsTime":1782565200},"SBCF":{"icaoId":"SBCF","flightCategory":"VFR","rawOb":"METAR SBCF 271300Z 08009KT 060V120 9999 FEW025 23/15 Q1028","temp":23,"dewp":15,"wdir":80,"wspd":9,"visib":"6+","altim":1028,"clouds":[{"cover":"FEW","base":2500}],"obsTime":1782565200},"SBMQ":{"icaoId":"SBMQ","flightCategory":"VFR","rawOb":"METAR SBMQ 271300Z 08009KT 9999 SCT021 29/24 Q1015","temp":29,"dewp":24,"wdir":80,"wspd":9,"visib":"6+","altim":1015,"clouds":[{"cover":"SCT","base":2100}],"obsTime":1782565200},"SBCB":{"icaoId":"SBCB","flightCategory":"VFR","rawOb":"METAR SBCB 271300Z 09015KT 9999 SCT015 25/21 Q1024","temp":25,"dewp":21,"wdir":90,"wspd":15,"visib":"6+","altim":1024,"clouds":[{"cover":"SCT","base":1500}],"obsTime":1782565200},"SBSP":{"icaoId":"SBSP","flightCategory":"VFR","rawOb":"METAR SBSP 271300Z 05005KT CAVOK 19/16 Q1028","temp":19,"dewp":16,"wdir":50,"wspd":5,"visib":"6+","altim":1028,"clouds":[],"obsTime":1782565200},"SBPJ":{"icaoId":"SBPJ","flightCategory":"VFR","rawOb":"METAR SBPJ 271300Z 12018KT 9999 FEW040 BKN080 30/20 Q1018","temp":30,"dewp":20,"wdir":120,"wspd":18,"visib":"6+","altim":1018,"clouds":[{"cover":"FEW","base":4000},{"cover":"BKN","base":8000}],"obsTime":1782565200},"SBBH":{"icaoId":"SBBH","flightCategory":"VFR","rawOb":"METAR SBBH 271300Z 10006KT 9999 FEW025 22/16 Q1028","temp":22,"dewp":16,"wdir":100,"wspd":6,"visib":"6+","altim":1028,"clouds":[{"cover":"FEW","base":2500}],"obsTime":1782565200},"SBBQ":{"icaoId":"SBBQ","flightCategory":"VFR","rawOb":"METAR SBBQ 271300Z 02004KT 9999 SCT015 20/15 Q1031","temp":20,"dewp":15,"wdir":20,"wspd":4,"visib":"6+","altim":1031,"clouds":[{"cover":"SCT","base":1500}],"obsTime":1782565200},"SBBU":{"icaoId":"SBBU","flightCategory":"MVFR","rawOb":"METAR SBBU 271300Z 08007KT 7000 FEW045 BKN085 21/19 Q1025","temp":21,"dewp":19,"wdir":80,"wspd":7,"visib":4.35,"altim":1025,"clouds":[{"cover":"FEW","base":4500},{"cover":"BKN","base":8500}],"obsTime":1782565200},"SBOI":{"icaoId":"SBOI","flightCategory":"VFR","rawOb":"METAR SBOI 271300Z AUTO 09004KT 040V170 9999 FEW015 29/25 Q1016","temp":29,"dewp":25,"wdir":90,"wspd":4,"visib":"6+","altim":1016,"clouds":[{"cover":"FEW","base":1500}],"obsTime":1782565200},"SBDN":{"icaoId":"SBDN","flightCategory":"VFR","rawOb":"METAR SBDN 271300Z 07008KT CAVOK 22/17 Q1023","temp":22,"dewp":17,"wdir":70,"wspd":8,"visib":"6+","altim":1023,"clouds":[],"obsTime":1782565200},"SBIP":{"icaoId":"SBIP","flightCategory":"VFR","rawOb":"METAR SBIP 271300Z AUTO 36005KT 280V070 9999 SCT024 25/18 Q1026","temp":25,"dewp":18,"wdir":360,"wspd":5,"visib":"6+","altim":1026,"clouds":[{"cover":"SCT","base":2400}],"obsTime":1782565200},"SBSC":{"icaoId":"SBSC","flightCategory":"MVFR","rawOb":"METAR SBSC 271300Z 22002KT 8000 SCT012 SCT030 23/20 Q1024","temp":23,"dewp":20,"wdir":220,"wspd":2,"visib":4.97,"altim":1024,"clouds":[{"cover":"SCT","base":1200},{"cover":"SCT","base":3000}],"obsTime":1782565200},"SBSR":{"icaoId":"SBSR","flightCategory":"VFR","rawOb":"METAR SBSR 271300Z 10004KT CAVOK 22/16 Q1025","temp":22,"dewp":16,"wdir":100,"wspd":4,"visib":"6+","altim":1025,"clouds":[],"obsTime":1782565200},"SBTU":{"icaoId":"SBTU","flightCategory":"MVFR","rawOb":"METAR SBTU 271300Z AUTO 24008KT 190V270 9999 // BKN015/// BKN019/// BKN067/// ///// Q1018","temp":null,"dewp":null,"wdir":240,"wspd":8,"visib":"6+","altim":1018,"clouds":[{"cover":"BKN","base":1500},{"cover":"BKN","base":1900},{"cover":"BKN","base":6700}],"obsTime":1782565200},"SBCA":{"icaoId":"SBCA","flightCategory":"MVFR","rawOb":"METAR SBCA 271300Z 04012G22KT 9999 TS FEW015 BKN030 FEW040CB 18/16 Q1023","temp":18,"dewp":16,"wdir":40,"wspd":12,"visib":"6+","altim":1023,"clouds":[{"cover":"FEW","base":1500},{"cover":"BKN","base":3000},{"cover":"FEW","base":4000}],"obsTime":1782565200},"SBPB":{"icaoId":"SBPB","flightCategory":"VFR","rawOb":"METAR SBPB 271300Z 09011KT 9999 FEW020 30/23 Q1015","temp":30,"dewp":23,"wdir":90,"wspd":11,"visib":"6+","altim":1015,"clouds":[{"cover":"FEW","base":2000}],"obsTime":1782565200},"SBSJ":{"icaoId":"SBSJ","flightCategory":"IFR","rawOb":"METAR SBSJ 271300Z 05003KT 020V090 6000 OVC009 18/16 Q1027","temp":18,"dewp":16,"wdir":50,"wspd":3,"visib":3.73,"altim":1027,"clouds":[{"cover":"OVC","base":900}],"obsTime":1782565200},"SBES":{"icaoId":"SBES","flightCategory":"VFR","rawOb":"METAR SBES 271300Z 05009KT 010V080 9999 SCT015 24/// Q1024","temp":null,"dewp":null,"wdir":50,"wspd":9,"visib":"6+","altim":1024,"clouds":[{"cover":"SCT","base":1500}],"obsTime":1782565200},"SBUY":{"icaoId":"SBUY","flightCategory":"VFR","rawOb":"METAR SBUY 271300Z 35002KT 9999 FEW020 26/23 Q1015","temp":26,"dewp":23,"wdir":350,"wspd":2,"visib":"6+","altim":1015,"clouds":[{"cover":"FEW","base":2000}],"obsTime":1782565200},"SBCO":{"icaoId":"SBCO","flightCategory":"VFR","rawOb":"METAR SBCO 271300Z VRB02KT 9000 NSC 11/08 Q1023","temp":11,"dewp":8,"wdir":"VRB","wspd":2,"visib":5.59,"altim":1023,"clouds":[],"obsTime":1782565200},"SBSM":{"icaoId":"SBSM","flightCategory":"LIFR","rawOb":"METAR SBSM 271300Z 10003KT 0400 R29///// R11/0800N FG VV001 07/07 Q1022","temp":7,"dewp":7,"wdir":100,"wspd":3,"visib":0.25,"altim":1022,"clouds":[{"cover":"OVX","base":100}],"obsTime":1782565200},"SBPP":{"icaoId":"SBPP","flightCategory":"LIFR","rawOb":"METAR SBPP 271300Z 07010KT 0000 FG VV000 15/15 Q1023","temp":15,"dewp":15,"wdir":70,"wspd":10,"visib":0,"altim":1023,"clouds":[{"cover":"OVX","base":0}],"obsTime":1782565200},"SBAR":{"icaoId":"SBAR","flightCategory":"VFR","rawOb":"METAR SBAR 271300Z 12009KT 9999 SCT025 SCT060 28/22 Q1019","temp":28,"dewp":22,"wdir":120,"wspd":9,"visib":"6+","altim":1019,"clouds":[{"cover":"SCT","base":2500},{"cover":"SCT","base":6000}],"obsTime":1782565200},"SBCC":{"icaoId":"SBCC","flightCategory":"VFR","rawOb":"METAR SBCC 271300Z 06010KT CAVOK 27/16 Q1019","temp":27,"dewp":16,"wdir":60,"wspd":10,"visib":"6+","altim":1019,"clouds":[],"obsTime":1782565200},"SBTT":{"icaoId":"SBTT","flightCategory":"VFR","rawOb":"METAR SBTT 271300Z 22005KT 9999 SCT009 23/21 Q1017","temp":23,"dewp":21,"wdir":220,"wspd":5,"visib":"6+","altim":1017,"clouds":[{"cover":"SCT","base":900}],"obsTime":1782565200},"SBGM":{"icaoId":"SBGM","flightCategory":"MVFR","rawOb":"METAR SBGM 271300Z 13009KT 9999 FEW011 OVC020 23/19 Q1018","temp":23,"dewp":19,"wdir":130,"wspd":9,"visib":"6+","altim":1018,"clouds":[{"cover":"FEW","base":1100},{"cover":"OVC","base":2000}],"obsTime":1782565200},"SBCJ":{"icaoId":"SBCJ","flightCategory":"VFR","rawOb":"METAR SBCJ 271300Z 09004KT 9999 FEW025 26/20 Q1021","temp":26,"dewp":20,"wdir":90,"wspd":4,"visib":"6+","altim":1021,"clouds":[{"cover":"FEW","base":2500}],"obsTime":1782565200},"SBVH":{"icaoId":"SBVH","flightCategory":"VFR","rawOb":"METAR SBVH 271300Z 11007KT CAVOK 23/19 Q1020","temp":23,"dewp":19,"wdir":110,"wspd":7,"visib":"6+","altim":1020,"clouds":[],"obsTime":1782565200},"SBKG":{"icaoId":"SBKG","flightCategory":"IFR","rawOb":"METAR SBKG 271300Z 09012KT 3000 -RA BR SCT004 BKN006 21/21 Q1021","temp":21,"dewp":21,"wdir":90,"wspd":12,"visib":1.86,"altim":1021,"clouds":[{"cover":"SCT","base":400},{"cover":"BKN","base":600}],"obsTime":1782565200},"SBAU":{"icaoId":"SBAU","flightCategory":"VFR","rawOb":"METAR SBAU 271300Z 09012KT CAVOK 23/19 Q1024","temp":23,"dewp":19,"wdir":90,"wspd":12,"visib":"6+","altim":1024,"clouds":[],"obsTime":1782565200},"SBTF":{"icaoId":"SBTF","flightCategory":"VFR","rawOb":"METAR SBTF 271300Z 22002KT 9999 FEW007 26/25 Q1015","temp":26,"dewp":25,"wdir":220,"wspd":2,"visib":"6+","altim":1015,"clouds":[{"cover":"FEW","base":700}],"obsTime":1782565200},"SBAX":{"icaoId":"SBAX","flightCategory":"VFR","rawOb":"METAR SBAX 271300Z AUTO 07008KT 040V100 CAVOK 20/15 Q1027","temp":20,"dewp":15,"wdir":70,"wspd":8,"visib":"6+","altim":1027,"clouds":[],"obsTime":1782565200},"SBPS":{"icaoId":"SBPS","flightCategory":"MVFR","rawOb":"METAR SBPS 271300Z VRB05KT 9999 VCSH FEW012 BKN016 25/23 Q1023","temp":25,"dewp":23,"wdir":"VRB","wspd":5,"visib":"6+","altim":1023,"clouds":[{"cover":"FEW","base":1200},{"cover":"BKN","base":1600}],"obsTime":1782565200},"SBPL":{"icaoId":"SBPL","flightCategory":"VFR","rawOb":"METAR SBPL 271300Z 12010KT 9999 SCT020 BKN070 26/20 Q1020","temp":26,"dewp":20,"wdir":120,"wspd":10,"visib":"6+","altim":1020,"clouds":[{"cover":"SCT","base":2000},{"cover":"BKN","base":7000}],"obsTime":1782565200},"SBIH":{"icaoId":"SBIH","flightCategory":"VFR","rawOb":"METAR SBIH 271300Z 00000KT 9999 FEW015 BKN100 29/24 Q1015","temp":29,"dewp":24,"wdir":0,"wspd":0,"visib":"6+","altim":1015,"clouds":[{"cover":"FEW","base":1500},{"cover":"BKN","base":10000}],"obsTime":1782565200},"SBLS":{"icaoId":"SBLS","flightCategory":"VFR","rawOb":"METAR SBLS 271300Z 13009KT 070V130 9999 FEW030 22/15 Q1027","temp":22,"dewp":15,"wdir":130,"wspd":9,"visib":"6+","altim":1027,"clouds":[{"cover":"FEW","base":3000}],"obsTime":1782565200},"SBNM":{"icaoId":"SBNM","flightCategory":"VFR","rawOb":"METAR SBNM 271300Z AUTO 07005KT CAVOK 13/09 Q1022","temp":13,"dewp":9,"wdir":70,"wspd":5,"visib":"6+","altim":1022,"clouds":[],"obsTime":1782565200},"SBMT":{"icaoId":"SBMT","flightCategory":"VFR","rawOb":"METAR SBMT 271300Z 12004KT 040V180 9000 NSC 21/18 Q1027","temp":21,"dewp":18,"wdir":120,"wspd":4,"visib":5.59,"altim":1027,"clouds":[],"obsTime":1782565200},"SBLE":{"icaoId":"SBLE","flightCategory":"MVFR","rawOb":"METAR SBLE 271300Z AUTO 16006KT 120V190 9999 FEW017 BKN020 OVC024 21/21 Q1024","temp":21,"dewp":21,"wdir":160,"wspd":6,"visib":"6+","altim":1024,"clouds":[{"cover":"FEW","base":1700},{"cover":"BKN","base":2000},{"cover":"OVC","base":2400}],"obsTime":1782565200},"SBST":{"icaoId":"SBST","flightCategory":"IFR","rawOb":"METAR SBST 271300Z 17001KT 9999 FEW007 BKN009 20/17 Q1024","temp":20,"dewp":17,"wdir":170,"wspd":1,"visib":"6+","altim":1024,"clouds":[{"cover":"FEW","base":700},{"cover":"BKN","base":900}],"obsTime":1782565200},"SBAF":{"icaoId":"SBAF","flightCategory":"LIFR","rawOb":"METAR SBAF 271300Z 01003KT 1500 BR FEW003 OVC013 20/20 Q1025","temp":20,"dewp":20,"wdir":10,"wspd":3,"visib":0.93,"altim":1025,"clouds":[{"cover":"FEW","base":300},{"cover":"OVC","base":1300}],"obsTime":1782565200},"SBTA":{"icaoId":"SBTA","flightCategory":"MVFR","rawOb":"METAR SBTA 271300Z 17004KT 9999 SCT009 OVC012 19/16 Q1026","temp":19,"dewp":16,"wdir":170,"wspd":4,"visib":"6+","altim":1026,"clouds":[{"cover":"SCT","base":900},{"cover":"OVC","base":1200}],"obsTime":1782565200},"SBJP":{"icaoId":"SBJP","flightCategory":"IFR","rawOb":"METAR SBJP 271300Z COR 11006KT 2500 RA BKN006 OVC012 25/25 Q1018","temp":25,"dewp":25,"wdir":110,"wspd":6,"visib":1.55,"altim":1018,"clouds":[{"cover":"BKN","base":600},{"cover":"OVC","base":1200}],"obsTime":1782565200},"SBPF":{"icaoId":"SBPF","flightCategory":"VFR","rawOb":"METAR SBPF 271300Z 04012KT 9999 BKN045 14/10 Q1024","temp":14,"dewp":10,"wdir":40,"wspd":12,"visib":"6+","altim":1024,"clouds":[{"cover":"BKN","base":4500}],"obsTime":1782565200},"SBGW":{"icaoId":"SBGW","flightCategory":"MVFR","rawOb":"METAR SBGW 271300Z 06004KT 020V110 5000 BR SCT007 OVC013 18/14 Q1027","temp":18,"dewp":14,"wdir":60,"wspd":4,"visib":3.11,"altim":1027,"clouds":[{"cover":"SCT","base":700},{"cover":"OVC","base":1300}],"obsTime":1782565200},"SBAN":{"icaoId":"SBAN","flightCategory":"VFR","rawOb":"METAR SBAN 271300Z 08012KT CAVOK 20/15 Q1027","temp":20,"dewp":15,"wdir":80,"wspd":12,"visib":"6+","altim":1027,"clouds":[],"obsTime":1782565200},"SBJR":{"icaoId":"SBJR","flightCategory":"IFR","rawOb":"METAR SBJR 271300Z 32001KT 3500 HZ BKN007 BKN018 25/21 Q1024","temp":25,"dewp":21,"wdir":320,"wspd":1,"visib":2.17,"altim":1024,"clouds":[{"cover":"BKN","base":700},{"cover":"BKN","base":1800}],"obsTime":1782565200},"SBJV":{"icaoId":"SBJV","flightCategory":"VFR","rawOb":"METAR SBJV 271300Z 29002KT CAVOK 16/13 Q1025","temp":16,"dewp":13,"wdir":290,"wspd":2,"visib":"6+","altim":1025,"clouds":[],"obsTime":1782565200}}}