{"updated":1774803473,"count":86,"data":{"SBTE":{"icaoId":"SBTE","flightCategory":"MVFR","rawOb":"METAR SBTE 291500Z 34006KT 9999 BKN018 30/25 Q1011","temp":30,"dewp":25,"wdir":340,"wspd":6,"visib":"6+","altim":1011,"clouds":[{"cover":"BKN","base":1800}],"obsTime":1774796400},"SBMK":{"icaoId":"SBMK","flightCategory":"VFR","rawOb":"METAR SBMK 291500Z 13008KT 9999 BKN034 27/17 Q1019","temp":27,"dewp":17,"wdir":130,"wspd":8,"visib":"6+","altim":1019,"clouds":[{"cover":"BKN","base":3400}],"obsTime":1774796400},"SBMO":{"icaoId":"SBMO","flightCategory":"IFR","rawOb":"METAR SBMO 291500Z 11008KT 4000 -RA BR SCT011 BKN015 FEW023TCU BKN060 24/24 Q1012 RESHRA","temp":24,"dewp":24,"wdir":110,"wspd":8,"visib":2.49,"altim":1012,"clouds":[{"cover":"SCT","base":1100},{"cover":"BKN","base":1500},{"cover":"FEW","base":2300},{"cover":"BKN","base":6000}],"obsTime":1774796400},"SBFL":{"icaoId":"SBFL","flightCategory":"VFR","rawOb":"METAR SBFL 291500Z 35014KT CAVOK 30/21 Q1016","temp":30,"dewp":21,"wdir":350,"wspd":14,"visib":"6+","altim":1016,"clouds":[],"obsTime":1774796400},"SBCP":{"icaoId":"SBCP","flightCategory":"MVFR","rawOb":"METAR SBCP 291500Z 20003KT 9999 BKN015 27/22 Q1017","temp":27,"dewp":22,"wdir":200,"wspd":3,"visib":"6+","altim":1017,"clouds":[{"cover":"BKN","base":1500}],"obsTime":1774796400},"SBMQ":{"icaoId":"SBMQ","flightCategory":"MVFR","rawOb":"METAR SBMQ 291500Z 06009KT 7000 -RA BKN017 FEW028TCU BKN080 26/25 Q1012","temp":26,"dewp":25,"wdir":60,"wspd":9,"visib":4.35,"altim":1012,"clouds":[{"cover":"BKN","base":1700},{"cover":"FEW","base":2800},{"cover":"BKN","base":8000}],"obsTime":1774796400},"SBFZ":{"icaoId":"SBFZ","flightCategory":"VFR","rawOb":"METAR SBFZ 291500Z 17008KT 9999 VCSH SCT020 FEW025TCU BKN090 26/23 Q1012","temp":26,"dewp":23,"wdir":170,"wspd":8,"visib":"6+","altim":1012,"clouds":[{"cover":"SCT","base":2000},{"cover":"FEW","base":2500},{"cover":"BKN","base":9000}],"obsTime":1774796400},"SBNT":{"icaoId":"SBNT","flightCategory":"VFR","rawOb":"METAR SBNT 291500Z 09012KT 9999 SCT039 31/22 Q1011","temp":31,"dewp":22,"wdir":90,"wspd":12,"visib":"6+","altim":1011,"clouds":[{"cover":"SCT","base":3900}],"obsTime":1774796400},"SBPA":{"icaoId":"SBPA","flightCategory":"VFR","rawOb":"METAR SBPA 291500Z VRB04KT CAVOK 31/24 Q1016","temp":31,"dewp":24,"wdir":"VRB","wspd":4,"visib":"6+","altim":1016,"clouds":[],"obsTime":1774796400},"SBBV":{"icaoId":"SBBV","flightCategory":"MVFR","rawOb":"METAR SBBV 291500Z 13005KT 9999 BKN030 FEW035TCU 30/22 Q1013","temp":30,"dewp":22,"wdir":130,"wspd":5,"visib":"6+","altim":1013,"clouds":[{"cover":"BKN","base":3000},{"cover":"FEW","base":3500}],"obsTime":1774796400},"SBPJ":{"icaoId":"SBPJ","flightCategory":"VFR","rawOb":"METAR SBPJ 291500Z 09006KT 9999 SCT030 32/23 Q1013","temp":32,"dewp":23,"wdir":90,"wspd":6,"visib":"6+","altim":1013,"clouds":[{"cover":"SCT","base":3000}],"obsTime":1774796400},"SBGL":{"icaoId":"SBGL","flightCategory":"VFR","rawOb":"METAR SBGL 291500Z 12007KT 010V070 9999 FEW025 30/20 Q1017","temp":30,"dewp":20,"wdir":120,"wspd":7,"visib":"6+","altim":1017,"clouds":[{"cover":"FEW","base":2500}],"obsTime":1774796400},"SBGO":{"icaoId":"SBGO","flightCategory":"VFR","rawOb":"METAR SBGO 291500Z 08009KT 9999 FEW036 29/19 Q1019","temp":29,"dewp":19,"wdir":80,"wspd":9,"visib":"6+","altim":1019,"clouds":[{"cover":"FEW","base":3600}],"obsTime":1774796400},"SBPV":{"icaoId":"SBPV","flightCategory":"MVFR","rawOb":"METAR SBPV 291500Z 07004KT 9999 -RA BKN015 26/23 Q1014","temp":26,"dewp":23,"wdir":70,"wspd":4,"visib":"6+","altim":1014,"clouds":[{"cover":"BKN","base":1500}],"obsTime":1774796400},"SBRB":{"icaoId":"SBRB","flightCategory":"MVFR","rawOb":"METAR SBRB 291500Z 14007KT 9999 BKN010 26/23 Q1015","temp":26,"dewp":23,"wdir":140,"wspd":7,"visib":"6+","altim":1015,"clouds":[{"cover":"BKN","base":1000}],"obsTime":1774796400},"SBCR":{"icaoId":"SBCR","flightCategory":"VFR","rawOb":"METAR SBCR 291500Z 07007KT 360V120 9999 FEW035 32/24 Q1015","temp":32,"dewp":24,"wdir":70,"wspd":7,"visib":"6+","altim":1015,"clouds":[{"cover":"FEW","base":3500}],"obsTime":1774796400},"SBCB":{"icaoId":"SBCB","flightCategory":"VFR","rawOb":"METAR SBCB 291500Z 06009KT CAVOK 29/20 Q1018","temp":29,"dewp":20,"wdir":60,"wspd":9,"visib":"6+","altim":1018,"clouds":[],"obsTime":1774796400},"SBRF":{"icaoId":"SBRF","flightCategory":"VFR","rawOb":"METAR SBRF 291500Z 11007KT 9999 SCT025 31/23 Q1011","temp":31,"dewp":23,"wdir":110,"wspd":7,"visib":"6+","altim":1011,"clouds":[{"cover":"SCT","base":2500}],"obsTime":1774796400},"SBGR":{"icaoId":"SBGR","flightCategory":"VFR","rawOb":"METAR SBGR 291500Z 05006KT 9999 FEW040 28/17 Q1021","temp":28,"dewp":17,"wdir":50,"wspd":6,"visib":"6+","altim":1021,"clouds":[{"cover":"FEW","base":4000}],"obsTime":1774796400},"SBSG":{"icaoId":"SBSG","flightCategory":"MVFR","rawOb":"METAR SBSG 291500Z 12005KT 080V170 9999 BKN030 31/23 Q1011","temp":31,"dewp":23,"wdir":120,"wspd":5,"visib":"6+","altim":1011,"clouds":[{"cover":"BKN","base":3000}],"obsTime":1774796400},"SBAT":{"icaoId":"SBAT","flightCategory":"MVFR","rawOb":"METAR SBAT 291500Z 14005KT 9999 BKN025 30/23 Q1015","temp":30,"dewp":23,"wdir":140,"wspd":5,"visib":"6+","altim":1015,"clouds":[{"cover":"BKN","base":2500}],"obsTime":1774796400},"SBSL":{"icaoId":"SBSL","flightCategory":"MVFR","rawOb":"METAR SBSL 291500Z 11007KT 9999 SCT015 BKN030 BKN080 28/24 Q1012","temp":28,"dewp":24,"wdir":110,"wspd":7,"visib":"6+","altim":1012,"clouds":[{"cover":"SCT","base":1500},{"cover":"BKN","base":3000},{"cover":"BKN","base":8000}],"obsTime":1774796400},"SBHT":{"icaoId":"SBHT","flightCategory":"MVFR","rawOb":"METAR SBHT 291500Z 13002KT 9999 FEW012 BKN015 BKN080 28/25 Q1013","temp":28,"dewp":25,"wdir":130,"wspd":2,"visib":"6+","altim":1013,"clouds":[{"cover":"FEW","base":1200},{"cover":"BKN","base":1500},{"cover":"BKN","base":8000}],"obsTime":1774796400},"SBSN":{"icaoId":"SBSN","flightCategory":"VFR","rawOb":"METAR SBSN 291500Z 09004KT 9999 SCT016 SCT100 30/26 Q1012","temp":30,"dewp":26,"wdir":90,"wspd":4,"visib":"6+","altim":1012,"clouds":[{"cover":"SCT","base":1600},{"cover":"SCT","base":10000}],"obsTime":1774796400},"SBCT":{"icaoId":"SBCT","flightCategory":"VFR","rawOb":"METAR SBCT 291500Z 05005KT 9999 FEW025 25/17 Q1023","temp":25,"dewp":17,"wdir":50,"wspd":5,"visib":"6+","altim":1023,"clouds":[{"cover":"FEW","base":2500}],"obsTime":1774796400},"SBSP":{"icaoId":"SBSP","flightCategory":"VFR","rawOb":"METAR SBSP 291500Z 10005KT 030V200 CAVOK 28/14 Q1022","temp":28,"dewp":14,"wdir":100,"wspd":5,"visib":"6+","altim":1022,"clouds":[],"obsTime":1774796400},"SBIL":{"icaoId":"SBIL","flightCategory":"VFR","rawOb":"METAR SBIL 291500Z 17009KT 9999 VCSH SCT020 FEW025TCU SCT050 28/24 Q1014","temp":28,"dewp":24,"wdir":170,"wspd":9,"visib":"6+","altim":1014,"clouds":[{"cover":"SCT","base":2000},{"cover":"FEW","base":2500},{"cover":"SCT","base":5000}],"obsTime":1774796400},"SBSV":{"icaoId":"SBSV","flightCategory":"VFR","rawOb":"METAR SBSV 291500Z 16008KT 9999 VCSH SCT020 FEW025TCU BKN050 28/23 Q1013","temp":28,"dewp":23,"wdir":160,"wspd":8,"visib":"6+","altim":1013,"clouds":[{"cover":"SCT","base":2000},{"cover":"FEW","base":2500},{"cover":"BKN","base":5000}],"obsTime":1774796400},"SBME":{"icaoId":"SBME","flightCategory":"VFR","rawOb":"METAR SBME 291500Z 17007KT 9999 SCT025 30/22 Q1017","temp":30,"dewp":22,"wdir":170,"wspd":7,"visib":"6+","altim":1017,"clouds":[{"cover":"SCT","base":2500}],"obsTime":1774796400},"SBMG":{"icaoId":"SBMG","flightCategory":"VFR","rawOb":"METAR SBMG 291500Z VRB04KT 9999 FEW040 31/20 Q1019","temp":31,"dewp":20,"wdir":"VRB","wspd":4,"visib":"6+","altim":1019,"clouds":[{"cover":"FEW","base":4000}],"obsTime":1774796400},"SBBE":{"icaoId":"SBBE","flightCategory":"MVFR","rawOb":"METAR SBBE 291500Z 11007KT 9999 BKN025 BKN033 30/24 Q1012","temp":30,"dewp":24,"wdir":110,"wspd":7,"visib":"6+","altim":1012,"clouds":[{"cover":"BKN","base":2500},{"cover":"BKN","base":3300}],"obsTime":1774796400},"SBEG":{"icaoId":"SBEG","flightCategory":"MVFR","rawOb":"METAR SBEG 291500Z 21005KT 9999 BKN017 BKN100 28/24 Q1014","temp":28,"dewp":24,"wdir":210,"wspd":5,"visib":"6+","altim":1014,"clouds":[{"cover":"BKN","base":1700},{"cover":"BKN","base":10000}],"obsTime":1774796400},"SBFI":{"icaoId":"SBFI","flightCategory":"VFR","rawOb":"METAR SBFI 291500Z 15002KT CAVOK 33/22 Q1017","temp":33,"dewp":22,"wdir":150,"wspd":2,"visib":"6+","altim":1017,"clouds":[],"obsTime":1774796400},"SBCG":{"icaoId":"SBCG","flightCategory":"VFR","rawOb":"METAR SBCG 291500Z 06007KT 020V100 CAVOK 31/17 Q1018","temp":31,"dewp":17,"wdir":60,"wspd":7,"visib":"6+","altim":1018,"clouds":[],"obsTime":1774796400},"SBBR":{"icaoId":"SBBR","flightCategory":"VFR","rawOb":"METAR SBBR 291500Z 11012KT 9999 FEW035 26/17 Q1021","temp":26,"dewp":17,"wdir":110,"wspd":12,"visib":"6+","altim":1021,"clouds":[{"cover":"FEW","base":3500}],"obsTime":1774796400},"SBJU":{"icaoId":"SBJU","flightCategory":"MVFR","rawOb":"METAR SBJU 291500Z 16005KT 9999 BKN020 29/22 Q1014","temp":29,"dewp":22,"wdir":160,"wspd":5,"visib":"6+","altim":1014,"clouds":[{"cover":"BKN","base":2000}],"obsTime":1774796400},"SBUL":{"icaoId":"SBUL","flightCategory":"VFR","rawOb":"METAR SBUL 291500Z 11009KT 050V140 9999 SCT035 27/16 Q1022","temp":27,"dewp":16,"wdir":110,"wspd":9,"visib":"6+","altim":1022,"clouds":[{"cover":"SCT","base":3500}],"obsTime":1774796400},"SBKP":{"icaoId":"SBKP","flightCategory":"VFR","rawOb":"METAR SBKP 291500Z VRB05KT 9999 FEW040 29/18 Q1020","temp":29,"dewp":18,"wdir":"VRB","wspd":5,"visib":"6+","altim":1020,"clouds":[{"cover":"FEW","base":4000}],"obsTime":1774796400},"SBUR":{"icaoId":"SBUR","flightCategory":"VFR","rawOb":"METAR SBUR 291500Z 07007KT 9999 SCT045 28/16 Q1020","temp":28,"dewp":16,"wdir":70,"wspd":7,"visib":"6+","altim":1020,"clouds":[{"cover":"SCT","base":4500}],"obsTime":1774796400},"SBCZ":{"icaoId":"SBCZ","flightCategory":"MVFR","rawOb":"METAR SBCZ 291500Z 06007KT 9999 BKN015 BKN100 26/23 Q1015","temp":26,"dewp":23,"wdir":60,"wspd":7,"visib":"6+","altim":1015,"clouds":[{"cover":"BKN","base":1500},{"cover":"BKN","base":10000}],"obsTime":1774796400},"SBVT":{"icaoId":"SBVT","flightCategory":"VFR","rawOb":"METAR SBVT 291500Z 16007KT 9999 SCT028 FEW035TCU 27/23 Q1016","temp":27,"dewp":23,"wdir":160,"wspd":7,"visib":"6+","altim":1016,"clouds":[{"cover":"SCT","base":2800},{"cover":"FEW","base":3500}],"obsTime":1774796400},"SBCF":{"icaoId":"SBCF","flightCategory":"VFR","rawOb":"METAR SBCF 291500Z 13008KT 9999 BKN036 25/17 Q1021","temp":25,"dewp":17,"wdir":130,"wspd":8,"visib":"6+","altim":1021,"clouds":[{"cover":"BKN","base":3600}],"obsTime":1774796400},"SBLO":{"icaoId":"SBLO","flightCategory":"VFR","rawOb":"METAR SBLO 291500Z VRB03KT CAVOK 29/19 Q1020","temp":29,"dewp":19,"wdir":"VRB","wspd":3,"visib":"6+","altim":1020,"clouds":[],"obsTime":1774796400},"SBMA":{"icaoId":"SBMA","flightCategory":"MVFR","rawOb":"METAR SBMA 291500Z 16003KT 9999 FEW015 BKN020 29/25 Q1012","temp":29,"dewp":25,"wdir":160,"wspd":3,"visib":"6+","altim":1012,"clouds":[{"cover":"FEW","base":1500},{"cover":"BKN","base":2000}],"obsTime":1774796400},"SBCC":{"icaoId":"SBCC","flightCategory":"VFR","rawOb":"METAR SBCC 291500Z 06008KT 010V090 9999 FEW020 BKN100 30/21 Q1016","temp":30,"dewp":21,"wdir":60,"wspd":8,"visib":"6+","altim":1016,"clouds":[{"cover":"FEW","base":2000},{"cover":"BKN","base":10000}],"obsTime":1774796400},"SBBQ":{"icaoId":"SBBQ","flightCategory":"VFR","rawOb":"METAR SBBQ 291500Z 11008KT 9999 FEW035 23/14 Q1025","temp":23,"dewp":14,"wdir":110,"wspd":8,"visib":"6+","altim":1025,"clouds":[{"cover":"FEW","base":3500}],"obsTime":1774796400},"SBOI":{"icaoId":"SBOI","flightCategory":"MVFR","rawOb":"METAR SBOI 291500Z AUTO 04007KT 360V100 9999 FEW018 BKN021 29/25 Q1013","temp":29,"dewp":25,"wdir":40,"wspd":7,"visib":"6+","altim":1013,"clouds":[{"cover":"FEW","base":1800},{"cover":"BKN","base":2100}],"obsTime":1774796400},"SBCJ":{"icaoId":"SBCJ","flightCategory":"VFR","rawOb":"METAR SBCJ 291500Z 08005KT 9999 FEW015 SCT017 28/23 Q1017","temp":28,"dewp":23,"wdir":80,"wspd":5,"visib":"6+","altim":1017,"clouds":[{"cover":"FEW","base":1500},{"cover":"SCT","base":1700}],"obsTime":1774796400},"SBPB":{"icaoId":"SBPB","flightCategory":"VFR","rawOb":"METAR SBPB 291500Z 07010KT 9999 FEW020 SCT100 31/24 Q1011","temp":31,"dewp":24,"wdir":70,"wspd":10,"visib":"6+","altim":1011,"clouds":[{"cover":"FEW","base":2000},{"cover":"SCT","base":10000}],"obsTime":1774796400},"SBAR":{"icaoId":"SBAR","flightCategory":"VFR","rawOb":"METAR SBAR 291500Z 09012KT 9999 VCSH SCT020 FEW024TCU SCT100 30/23 Q1012","temp":30,"dewp":23,"wdir":90,"wspd":12,"visib":"6+","altim":1012,"clouds":[{"cover":"SCT","base":2000},{"cover":"FEW","base":2400},{"cover":"SCT","base":10000}],"obsTime":1774796400},"SBPL":{"icaoId":"SBPL","flightCategory":"MVFR","rawOb":"METAR SBPL 291500Z 13008KT 9999 BKN030 31/21 Q1013","temp":31,"dewp":21,"wdir":130,"wspd":8,"visib":"6+","altim":1013,"clouds":[{"cover":"BKN","base":3000}],"obsTime":1774796400},"SBCO":{"icaoId":"SBCO","flightCategory":"VFR","rawOb":"METAR SBCO 291500Z 28004KT 210V340 CAVOK 31/24 Q1016","temp":31,"dewp":24,"wdir":280,"wspd":4,"visib":"6+","altim":1016,"clouds":[],"obsTime":1774796400},"SBPP":{"icaoId":"SBPP","flightCategory":"VFR","rawOb":"METAR SBPP 291500Z 03009KT CAVOK 30/20 Q1020","temp":30,"dewp":20,"wdir":30,"wspd":9,"visib":"6+","altim":1020,"clouds":[],"obsTime":1774796400},"SBBU":{"icaoId":"SBBU","flightCategory":"VFR","rawOb":"METAR SBBU 291500Z 04004KT CAVOK 30/20 Q1020","temp":30,"dewp":20,"wdir":40,"wspd":4,"visib":"6+","altim":1020,"clouds":[],"obsTime":1774796400},"SBPS":{"icaoId":"SBPS","flightCategory":"VFR","rawOb":"METAR SBPS 291500Z 15006KT 9999 SCT020 28/23 Q1015","temp":28,"dewp":23,"wdir":150,"wspd":6,"visib":"6+","altim":1015,"clouds":[{"cover":"SCT","base":2000}],"obsTime":1774796400},"SBDN":{"icaoId":"SBDN","flightCategory":"VFR","rawOb":"METAR SBDN 291500Z 07007KT CAVOK 31/20 Q1019","temp":31,"dewp":20,"wdir":70,"wspd":7,"visib":"6+","altim":1019,"clouds":[],"obsTime":1774796400},"SBSC":{"icaoId":"SBSC","flightCategory":"VFR","rawOb":"METAR SBSC 291500Z 04003KT 9999 FEW030 32/18 Q1017","temp":32,"dewp":18,"wdir":40,"wspd":3,"visib":"6+","altim":1017,"clouds":[{"cover":"FEW","base":3000}],"obsTime":1774796400},"SBSJ":{"icaoId":"SBSJ","flightCategory":"VFR","rawOb":"METAR SBSJ 291500Z 10005KT CAVOK 27/18 Q1020","temp":27,"dewp":18,"wdir":100,"wspd":5,"visib":"6+","altim":1020,"clouds":[],"obsTime":1774796400},"SBBH":{"icaoId":"SBBH","flightCategory":"VFR","rawOb":"METAR SBBH 291500Z 05005KT 9999 SCT040 25/18 Q1021","temp":25,"dewp":18,"wdir":50,"wspd":5,"visib":"6+","altim":1021,"clouds":[{"cover":"SCT","base":4000}],"obsTime":1774796400},"SBES":{"icaoId":"SBES","flightCategory":"VFR","rawOb":"METAR SBES 291500Z 06006KT 360V130 9999 SCT025 28/// Q1017","temp":null,"dewp":null,"wdir":60,"wspd":6,"visib":"6+","altim":1017,"clouds":[{"cover":"SCT","base":2500}],"obsTime":1774796400},"SBSM":{"icaoId":"SBSM","flightCategory":"VFR","rawOb":"METAR SBSM 291500Z VRB02KT 9999 FEW040 SCT090 32/26 Q1017","temp":32,"dewp":26,"wdir":"VRB","wspd":2,"visib":"6+","altim":1017,"clouds":[{"cover":"FEW","base":4000},{"cover":"SCT","base":9000}],"obsTime":1774796400},"SBCA":{"icaoId":"SBCA","flightCategory":"VFR","rawOb":"METAR SBCA 291500Z 33008KT CAVOK 29/17 Q1022","temp":29,"dewp":17,"wdir":330,"wspd":8,"visib":"6+","altim":1022,"clouds":[],"obsTime":1774796400},"SBSR":{"icaoId":"SBSR","flightCategory":"VFR","rawOb":"METAR SBSR 291500Z 05006KT CAVOK 30/17 Q1019","temp":30,"dewp":17,"wdir":50,"wspd":6,"visib":"6+","altim":1019,"clouds":[],"obsTime":1774796400},"SBTF":{"icaoId":"SBTF","flightCategory":"VFR","rawOb":"METAR SBTF 291500Z 07006KT 9999 SCT009 BKN080 29/26 Q1014","temp":29,"dewp":26,"wdir":70,"wspd":6,"visib":"6+","altim":1014,"clouds":[{"cover":"SCT","base":900},{"cover":"BKN","base":8000}],"obsTime":1774796400},"SBKG":{"icaoId":"SBKG","flightCategory":"VFR","rawOb":"METAR SBKG 291500Z 12008KT 9999 FEW025 30/19 Q1013","temp":30,"dewp":19,"wdir":120,"wspd":8,"visib":"6+","altim":1013,"clouds":[{"cover":"FEW","base":2500}],"obsTime":1774796400},"SBTT":{"icaoId":"SBTT","flightCategory":"VFR","rawOb":"METAR SBTT 291500Z 21006KT 9999 FEW011 28/23 Q1014","temp":28,"dewp":23,"wdir":210,"wspd":6,"visib":"6+","altim":1014,"clouds":[{"cover":"FEW","base":1100}],"obsTime":1774796400},"SBGM":{"icaoId":"SBGM","flightCategory":"MVFR","rawOb":"METAR SBGM 291500Z 06003KT 9999 BKN020 BKN030 27/23 Q1014","temp":27,"dewp":23,"wdir":60,"wspd":3,"visib":"6+","altim":1014,"clouds":[{"cover":"BKN","base":2000},{"cover":"BKN","base":3000}],"obsTime":1774796400},"SBAX":{"icaoId":"SBAX","flightCategory":"VFR","rawOb":"METAR SBAX 291500Z AUTO 10007KT 060V140 9999 FEW037 25/17 Q1021","temp":25,"dewp":17,"wdir":100,"wspd":7,"visib":"6+","altim":1021,"clouds":[{"cover":"FEW","base":3700}],"obsTime":1774796400},"SBUY":{"icaoId":"SBUY","flightCategory":"VFR","rawOb":"METAR SBUY 291500Z 18002KT 9999 FEW015 BKN100 27/24 Q1013","temp":27,"dewp":24,"wdir":180,"wspd":2,"visib":"6+","altim":1013,"clouds":[{"cover":"FEW","base":1500},{"cover":"BKN","base":10000}],"obsTime":1774796400},"SBIP":{"icaoId":"SBIP","flightCategory":"VFR","rawOb":"METAR SBIP 291500Z AUTO VRB04KT 9999 SCT031 29/20 Q1018","temp":29,"dewp":20,"wdir":"VRB","wspd":4,"visib":"6+","altim":1018,"clouds":[{"cover":"SCT","base":3100}],"obsTime":1774796400},"SBVH":{"icaoId":"SBVH","flightCategory":"VFR","rawOb":"METAR SBVH 291500Z 09011KT 9999 SCT015 SCT100 27/22 Q1018","temp":27,"dewp":22,"wdir":90,"wspd":11,"visib":"6+","altim":1018,"clouds":[{"cover":"SCT","base":1500},{"cover":"SCT","base":10000}],"obsTime":1774796400},"SBTA":{"icaoId":"SBTA","flightCategory":"VFR","rawOb":"METAR SBTA 291500Z VRB04KT 9999 FEW025 26/24 Q1019","temp":26,"dewp":24,"wdir":"VRB","wspd":4,"visib":"6+","altim":1019,"clouds":[{"cover":"FEW","base":2500}],"obsTime":1774796400},"SBJP":{"icaoId":"SBJP","flightCategory":"VFR","rawOb":"METAR SBJP 291500Z 10006KT 060V140 9999 FEW035 32/20 Q1011","temp":32,"dewp":20,"wdir":100,"wspd":6,"visib":"6+","altim":1011,"clouds":[{"cover":"FEW","base":3500}],"obsTime":1774796400},"SBAN":{"icaoId":"SBAN","flightCategory":"VFR","rawOb":"METAR SBAN 291500Z 12012KT 9999 SCT035 26/17 Q1021","temp":26,"dewp":17,"wdir":120,"wspd":12,"visib":"6+","altim":1021,"clouds":[{"cover":"SCT","base":3500}],"obsTime":1774796400},"SBJV":{"icaoId":"SBJV","flightCategory":"VFR","rawOb":"METAR SBJV 291500Z 08005KT 9999 FEW030 31/22 Q1018","temp":31,"dewp":22,"wdir":80,"wspd":5,"visib":"6+","altim":1018,"clouds":[{"cover":"FEW","base":3000}],"obsTime":1774796400},"SBNM":{"icaoId":"SBNM","flightCategory":"VFR","rawOb":"METAR SBNM 291500Z 31002KT 9999 FEW015 33/19 Q1018","temp":33,"dewp":19,"wdir":310,"wspd":2,"visib":"6+","altim":1018,"clouds":[{"cover":"FEW","base":1500}],"obsTime":1774796400},"SBPF":{"icaoId":"SBPF","flightCategory":"VFR","rawOb":"METAR SBPF 291600Z AUTO VRB04KT 9999 NSC 30/18 Q1021","temp":30,"dewp":18,"wdir":"VRB","wspd":4,"visib":"6+","altim":1021,"clouds":[],"obsTime":1774800000},"SBLE":{"icaoId":"SBLE","flightCategory":"VFR","rawOb":"METAR SBLE 291500Z AUTO 15007KT 110V190 9999 FEW027 SCT046 27/21 Q1017","temp":27,"dewp":21,"wdir":150,"wspd":7,"visib":"6+","altim":1017,"clouds":[{"cover":"FEW","base":2700},{"cover":"SCT","base":4600}],"obsTime":1774796400},"SBTC":{"icaoId":"SBTC","flightCategory":"VFR","rawOb":"METAR SBTC 291500Z 18006KT 9999 SCT020 BKN070 27/24 Q1015","temp":27,"dewp":24,"wdir":180,"wspd":6,"visib":"6+","altim":1015,"clouds":[{"cover":"SCT","base":2000},{"cover":"BKN","base":7000}],"obsTime":1774796400},"SBIH":{"icaoId":"SBIH","flightCategory":"VFR","rawOb":"METAR SBIH 291500Z 21003KT 9999 SCT016 28/24 Q1013","temp":28,"dewp":24,"wdir":210,"wspd":3,"visib":"6+","altim":1013,"clouds":[{"cover":"SCT","base":1600}],"obsTime":1774796400},"SBAF":{"icaoId":"SBAF","flightCategory":"VFR","rawOb":"METAR SBAF 291500Z 11006KT 060V180 9999 FEW025 31/15 Q1017","temp":31,"dewp":15,"wdir":110,"wspd":6,"visib":"6+","altim":1017,"clouds":[{"cover":"FEW","base":2500}],"obsTime":1774796400},"SBGW":{"icaoId":"SBGW","flightCategory":"VFR","rawOb":"METAR SBGW 291500Z VRB03KT 9999 FEW030 29/16 Q1019","temp":29,"dewp":16,"wdir":"VRB","wspd":3,"visib":"6+","altim":1019,"clouds":[{"cover":"FEW","base":3000}],"obsTime":1774796400},"SBJR":{"icaoId":"SBJR","flightCategory":"VFR","rawOb":"METAR SBJR 291500Z 17006KT 9999 FEW025 31/21 Q1017","temp":31,"dewp":21,"wdir":170,"wspd":6,"visib":"6+","altim":1017,"clouds":[{"cover":"FEW","base":2500}],"obsTime":1774796400},"SBLS":{"icaoId":"SBLS","flightCategory":"VFR","rawOb":"METAR SBLS 291500Z 13010KT 050V140 9999 BKN033 26/17 Q1021","temp":26,"dewp":17,"wdir":130,"wspd":10,"visib":"6+","altim":1021,"clouds":[{"cover":"BKN","base":3300}],"obsTime":1774796400},"SBMT":{"icaoId":"SBMT","flightCategory":"VFR","rawOb":"METAR SBMT 291500Z 12006KT 050V190 9999 FEW030 27/16 Q1021","temp":27,"dewp":16,"wdir":120,"wspd":6,"visib":"6+","altim":1021,"clouds":[{"cover":"FEW","base":3000}],"obsTime":1774796400},"SBST":{"icaoId":"SBST","flightCategory":"VFR","rawOb":"METAR SBST 291500Z 24002KT 9999 SCT030 28/21 Q1017","temp":28,"dewp":21,"wdir":240,"wspd":2,"visib":"6+","altim":1017,"clouds":[{"cover":"SCT","base":3000}],"obsTime":1774796400}}}