{"updated":1778409717,"count":71,"data":{"SBGR":{"icaoId":"SBGR","flightCategory":"IFR","rawOb":"METAR SBGR 100900Z 14003KT 090V180 9999 BKN009 OVC020 16/15 Q1019","temp":16,"dewp":15,"wdir":140,"wspd":3,"visib":"6+","altim":1019,"clouds":[{"cover":"BKN","base":900},{"cover":"OVC","base":2000}],"obsTime":1778403600},"SBRB":{"icaoId":"SBRB","flightCategory":"MVFR","rawOb":"METAR SBRB 100900Z 13003KT 8000 NSC 23/23 Q1012","temp":23,"dewp":23,"wdir":130,"wspd":3,"visib":4.97,"altim":1012,"clouds":[],"obsTime":1778403600},"SBBV":{"icaoId":"SBBV","flightCategory":"VFR","rawOb":"METAR SBBV 100900Z 09008KT 9999 FEW035 FEW040TCU BKN090 25/23 Q1012","temp":25,"dewp":23,"wdir":90,"wspd":8,"visib":"6+","altim":1012,"clouds":[{"cover":"FEW","base":3500},{"cover":"FEW","base":4000},{"cover":"BKN","base":9000}],"obsTime":1778403600},"SBVT":{"icaoId":"SBVT","flightCategory":"VFR","rawOb":"METAR SBVT 100900Z 34004KT 9999 FEW018 20/12 Q1017","temp":20,"dewp":12,"wdir":340,"wspd":4,"visib":"6+","altim":1017,"clouds":[{"cover":"FEW","base":1800}],"obsTime":1778403600},"SBBR":{"icaoId":"SBBR","flightCategory":"VFR","rawOb":"METAR SBBR 100900Z 28002KT CAVOK 16/14 Q1021","temp":16,"dewp":14,"wdir":280,"wspd":2,"visib":"6+","altim":1021,"clouds":[],"obsTime":1778403600},"SBCB":{"icaoId":"SBCB","flightCategory":"VFR","rawOb":"METAR SBCB 100900Z 23003KT 9999 SCT020 SCT070 23/22 Q1015","temp":23,"dewp":22,"wdir":230,"wspd":3,"visib":"6+","altim":1015,"clouds":[{"cover":"SCT","base":2000},{"cover":"SCT","base":7000}],"obsTime":1778403600},"SBCF":{"icaoId":"SBCF","flightCategory":"VFR","rawOb":"METAR SBCF 100900Z 17002KT CAVOK 16/16 Q1021","temp":16,"dewp":16,"wdir":170,"wspd":2,"visib":"6+","altim":1021,"clouds":[],"obsTime":1778403600},"SBCG":{"icaoId":"SBCG","flightCategory":"VFR","rawOb":"METAR SBCG 100900Z 15013KT 9999 OVC048 10/07 Q1022","temp":10,"dewp":7,"wdir":150,"wspd":13,"visib":"6+","altim":1022,"clouds":[{"cover":"OVC","base":4800}],"obsTime":1778403600},"SBCP":{"icaoId":"SBCP","flightCategory":"VFR","rawOb":"METAR SBCP 101000Z 04004KT CAVOK 22/21 Q1016","temp":22,"dewp":21,"wdir":40,"wspd":4,"visib":"6+","altim":1016,"clouds":[],"obsTime":1778407200},"SBCT":{"icaoId":"SBCT","flightCategory":"MVFR","rawOb":"METAR SBCT 100900Z 24006KT 210V270 8000 SCT006 BKN014 BKN040 07/07 Q1021","temp":7,"dewp":7,"wdir":240,"wspd":6,"visib":4.97,"altim":1021,"clouds":[{"cover":"SCT","base":600},{"cover":"BKN","base":1400},{"cover":"BKN","base":4000}],"obsTime":1778403600},"SBEG":{"icaoId":"SBEG","flightCategory":"VFR","rawOb":"METAR SBEG 100900Z 07003KT CAVOK 25/23 Q1011","temp":25,"dewp":23,"wdir":70,"wspd":3,"visib":"6+","altim":1011,"clouds":[],"obsTime":1778403600},"SBFI":{"icaoId":"SBFI","flightCategory":"VFR","rawOb":"METAR SBFI 100900Z 25002KT CAVOK 06/06 Q1024","temp":6,"dewp":6,"wdir":250,"wspd":2,"visib":"6+","altim":1024,"clouds":[],"obsTime":1778403600},"SBFL":{"icaoId":"SBFL","flightCategory":"VFR","rawOb":"METAR SBFL 100900Z 28005KT 9999 FEW020 14/11 Q1018","temp":14,"dewp":11,"wdir":280,"wspd":5,"visib":"6+","altim":1018,"clouds":[{"cover":"FEW","base":2000}],"obsTime":1778403600},"SBFZ":{"icaoId":"SBFZ","flightCategory":"MVFR","rawOb":"METAR SBFZ 100900Z 20004KT 5000 -SHRA FEW018 FEW025TCU 25/24 Q1012","temp":25,"dewp":24,"wdir":200,"wspd":4,"visib":3.11,"altim":1012,"clouds":[{"cover":"FEW","base":1800},{"cover":"FEW","base":2500}],"obsTime":1778403600},"SBGL":{"icaoId":"SBGL","flightCategory":"VFR","rawOb":"METAR SBGL 100900Z 26005KT 9999 FEW020 24/22 Q1014","temp":24,"dewp":22,"wdir":260,"wspd":5,"visib":"6+","altim":1014,"clouds":[{"cover":"FEW","base":2000}],"obsTime":1778403600},"SBGO":{"icaoId":"SBGO","flightCategory":"VFR","rawOb":"METAR SBGO 100900Z 30002KT CAVOK 18/16 Q1019","temp":18,"dewp":16,"wdir":300,"wspd":2,"visib":"6+","altim":1019,"clouds":[],"obsTime":1778403600},"SBHT":{"icaoId":"SBHT","flightCategory":"VFR","rawOb":"METAR SBHT 101000Z 00000KT 9999 FEW012 SCT080 24/23 Q1013","temp":24,"dewp":23,"wdir":0,"wspd":0,"visib":"6+","altim":1013,"clouds":[{"cover":"FEW","base":1200},{"cover":"SCT","base":8000}],"obsTime":1778407200},"SBIL":{"icaoId":"SBIL","flightCategory":"MVFR","rawOb":"METAR SBIL 101000Z 29004KT 8000 VCSH SCT025 FEW027TCU 24/23 Q1017","temp":24,"dewp":23,"wdir":290,"wspd":4,"visib":4.97,"altim":1017,"clouds":[{"cover":"SCT","base":2500},{"cover":"FEW","base":2700}],"obsTime":1778407200},"SBKP":{"icaoId":"SBKP","flightCategory":"IFR","rawOb":"METAR SBKP 100900Z 18007KT 9999 -RA FEW007 BKN009 BKN040 19/17 Q1018","temp":19,"dewp":17,"wdir":180,"wspd":7,"visib":"6+","altim":1018,"clouds":[{"cover":"FEW","base":700},{"cover":"BKN","base":900},{"cover":"BKN","base":4000}],"obsTime":1778403600},"SBLO":{"icaoId":"SBLO","flightCategory":"IFR","rawOb":"METAR SBLO 100900Z 21008KT 4000 -RA BKN012 OVC100 10/09 Q1020","temp":10,"dewp":9,"wdir":210,"wspd":8,"visib":2.49,"altim":1020,"clouds":[{"cover":"BKN","base":1200},{"cover":"OVC","base":10000}],"obsTime":1778403600},"SBMA":{"icaoId":"SBMA","flightCategory":"VFR","rawOb":"METAR SBMA 100900Z 34004KT 9999 FEW015 BKN100 25/23 Q1012","temp":25,"dewp":23,"wdir":340,"wspd":4,"visib":"6+","altim":1012,"clouds":[{"cover":"FEW","base":1500},{"cover":"BKN","base":10000}],"obsTime":1778403600},"SBME":{"icaoId":"SBME","flightCategory":"VFR","rawOb":"METAR SBME 100900Z 04006KT CAVOK 22/21 Q1014","temp":22,"dewp":21,"wdir":40,"wspd":6,"visib":"6+","altim":1014,"clouds":[],"obsTime":1778403600},"SBMG":{"icaoId":"SBMG","flightCategory":"VFR","rawOb":"METAR SBMG 100900Z AUTO 21010KT 9999 -RA NSC 10/09 Q1020","temp":10,"dewp":9,"wdir":210,"wspd":10,"visib":"6+","altim":1020,"clouds":[],"obsTime":1778403600},"SBMK":{"icaoId":"SBMK","flightCategory":"VFR","rawOb":"METAR SBMK 100900Z 00000KT CAVOK 18/17 Q1020","temp":18,"dewp":17,"wdir":0,"wspd":0,"visib":"6+","altim":1020,"clouds":[],"obsTime":1778403600},"SBMO":{"icaoId":"SBMO","flightCategory":"MVFR","rawOb":"METAR SBMO 100900Z COR 08004KT 9000 FEW008 BKN020 OVC047 24/24 Q1013","temp":24,"dewp":24,"wdir":80,"wspd":4,"visib":5.59,"altim":1013,"clouds":[{"cover":"FEW","base":800},{"cover":"BKN","base":2000},{"cover":"OVC","base":4700}],"obsTime":1778403600},"SBMQ":{"icaoId":"SBMQ","flightCategory":"VFR","rawOb":"METAR SBMQ 100900Z 30003KT 9999 SCT003 SCT010 BKN100 25/25 Q1012","temp":25,"dewp":25,"wdir":300,"wspd":3,"visib":"6+","altim":1012,"clouds":[{"cover":"SCT","base":300},{"cover":"SCT","base":1000},{"cover":"BKN","base":10000}],"obsTime":1778403600},"SBNT":{"icaoId":"SBNT","flightCategory":"LIFR","rawOb":"METAR SBNT 100900Z 12007KT 5000 2000E -RA BR BKN004 BKN021 OVC036 23/23 Q1013","temp":23,"dewp":23,"wdir":120,"wspd":7,"visib":3.11,"altim":1013,"clouds":[{"cover":"BKN","base":400},{"cover":"BKN","base":2100},{"cover":"OVC","base":3600}],"obsTime":1778403600},"SBPA":{"icaoId":"SBPA","flightCategory":"MVFR","rawOb":"METAR SBPA 100900Z 28013KT 9999 FEW020 BKN030 11/07 Q1021","temp":11,"dewp":7,"wdir":280,"wspd":13,"visib":"6+","altim":1021,"clouds":[{"cover":"FEW","base":2000},{"cover":"BKN","base":3000}],"obsTime":1778403600},"SBPJ":{"icaoId":"SBPJ","flightCategory":"VFR","rawOb":"METAR SBPJ 100900Z 11006KT 9999 FEW030 BKN080 24/22 Q1014","temp":24,"dewp":22,"wdir":110,"wspd":6,"visib":"6+","altim":1014,"clouds":[{"cover":"FEW","base":3000},{"cover":"BKN","base":8000}],"obsTime":1778403600},"SBPV":{"icaoId":"SBPV","flightCategory":"VFR","rawOb":"METAR SBPV 100900Z 00000KT 9999 FEW020 25/23 Q1011","temp":25,"dewp":23,"wdir":0,"wspd":0,"visib":"6+","altim":1011,"clouds":[{"cover":"FEW","base":2000}],"obsTime":1778403600},"SBRF":{"icaoId":"SBRF","flightCategory":"VFR","rawOb":"METAR SBRF 100900Z 11009KT 9999 SCT020 BKN050 27/24 Q1013","temp":27,"dewp":24,"wdir":110,"wspd":9,"visib":"6+","altim":1013,"clouds":[{"cover":"SCT","base":2000},{"cover":"BKN","base":5000}],"obsTime":1778403600},"SBSG":{"icaoId":"SBSG","flightCategory":"LIFR","rawOb":"METAR SBSG 100900Z 13008KT 100V160 5000 -RA BKN003 BKN010 FEW022TCU 24/24 Q1013","temp":24,"dewp":24,"wdir":130,"wspd":8,"visib":3.11,"altim":1013,"clouds":[{"cover":"BKN","base":300},{"cover":"BKN","base":1000},{"cover":"FEW","base":2200}],"obsTime":1778403600},"SBSL":{"icaoId":"SBSL","flightCategory":"VFR","rawOb":"METAR SBSL 100900Z 15003KT 9999 FEW006 BKN080 24/24 Q1011","temp":24,"dewp":24,"wdir":150,"wspd":3,"visib":"6+","altim":1011,"clouds":[{"cover":"FEW","base":600},{"cover":"BKN","base":8000}],"obsTime":1778403600},"SBSN":{"icaoId":"SBSN","flightCategory":"VFR","rawOb":"METAR SBSN 100900Z 14003KT 9999 FEW010 25/24 Q1011","temp":25,"dewp":24,"wdir":140,"wspd":3,"visib":"6+","altim":1011,"clouds":[{"cover":"FEW","base":1000}],"obsTime":1778403600},"SBSP":{"icaoId":"SBSP","flightCategory":"IFR","rawOb":"METAR SBSP 100900Z COR 19007KT 8000 -RA OVC007 15/14 Q1020","temp":15,"dewp":14,"wdir":190,"wspd":7,"visib":4.97,"altim":1020,"clouds":[{"cover":"OVC","base":700}],"obsTime":1778403600},"SBSV":{"icaoId":"SBSV","flightCategory":"VFR","rawOb":"METAR SBSV 100900Z 12007KT 9999 FEW026 27/21 Q1015","temp":27,"dewp":21,"wdir":120,"wspd":7,"visib":"6+","altim":1015,"clouds":[{"cover":"FEW","base":2600}],"obsTime":1778403600},"SBTE":{"icaoId":"SBTE","flightCategory":"IFR","rawOb":"METAR SBTE 100900Z 18005KT 9999 BKN008 SCT100 25/24 Q1012","temp":25,"dewp":24,"wdir":180,"wspd":5,"visib":"6+","altim":1012,"clouds":[{"cover":"BKN","base":800},{"cover":"SCT","base":10000}],"obsTime":1778403600},"SBUL":{"icaoId":"SBUL","flightCategory":"VFR","rawOb":"METAR SBUL 100900Z 08005KT CAVOK 20/15 Q1021","temp":20,"dewp":15,"wdir":80,"wspd":5,"visib":"6+","altim":1021,"clouds":[],"obsTime":1778403600},"SBUR":{"icaoId":"SBUR","flightCategory":"VFR","rawOb":"METAR SBUR 100900Z 20006KT CAVOK 29/05 Q1019","temp":29,"dewp":5,"wdir":200,"wspd":6,"visib":"6+","altim":1019,"clouds":[],"obsTime":1778403600},"SBBE":{"icaoId":"SBBE","flightCategory":"VFR","rawOb":"METAR SBBE 100900Z 08004KT 9999 FEW020 24/23 Q1011","temp":24,"dewp":23,"wdir":80,"wspd":4,"visib":"6+","altim":1011,"clouds":[{"cover":"FEW","base":2000}],"obsTime":1778403600},"SBJU":{"icaoId":"SBJU","flightCategory":"MVFR","rawOb":"METAR SBJU 100900Z 11004KT 9999 BKN020 24/22 Q1015","temp":24,"dewp":22,"wdir":110,"wspd":4,"visib":"6+","altim":1015,"clouds":[{"cover":"BKN","base":2000}],"obsTime":1778403600},"SBPB":{"icaoId":"SBPB","flightCategory":"VFR","rawOb":"SPECI SBPB 101015Z 12006KT 9999 FEW020 27/24 Q1012","temp":27,"dewp":24,"wdir":120,"wspd":6,"visib":"6+","altim":1012,"clouds":[{"cover":"FEW","base":2000}],"obsTime":1778408100},"SBCJ":{"icaoId":"SBCJ","flightCategory":"VFR","rawOb":"SPECI SBCJ 101015Z 00000KT CAVOK 24/21 Q1017","temp":24,"dewp":21,"wdir":0,"wspd":0,"visib":"6+","altim":1017,"clouds":[],"obsTime":1778408100},"SBOI":{"icaoId":"SBOI","flightCategory":"LIFR","rawOb":"METAR SBOI 100900Z AUTO VRB02KT 0900 // VV002 24/24 Q1012","temp":24,"dewp":24,"wdir":"VRB","wspd":2,"visib":0.56,"altim":1012,"clouds":[{"cover":"OVX","base":200}],"obsTime":1778403600},"SBBU":{"icaoId":"SBBU","flightCategory":"LIFR","rawOb":"METAR SBBU 100900Z 24004KT 2000 BR OVC001 19/19 Q1018","temp":19,"dewp":19,"wdir":240,"wspd":4,"visib":1.24,"altim":1018,"clouds":[{"cover":"OVC","base":100}],"obsTime":1778403600},"SBPS":{"icaoId":"SBPS","flightCategory":"VFR","rawOb":"METAR SBPS 100900Z 26004KT 9999 FEW020 21/20 Q1017","temp":21,"dewp":20,"wdir":260,"wspd":4,"visib":"6+","altim":1017,"clouds":[{"cover":"FEW","base":2000}],"obsTime":1778403600},"SBSC":{"icaoId":"SBSC","flightCategory":"MVFR","rawOb":"METAR SBSC 100900Z 21007KT 9999 BKN017 23/22 Q1015","temp":23,"dewp":22,"wdir":210,"wspd":7,"visib":"6+","altim":1015,"clouds":[{"cover":"BKN","base":1700}],"obsTime":1778403600},"SBES":{"icaoId":"SBES","flightCategory":"MVFR","rawOb":"METAR SBES 100900Z 21006KT 160V230 7000 SCT006 22/// Q1015","temp":null,"dewp":null,"wdir":210,"wspd":6,"visib":4.35,"altim":1015,"clouds":[{"cover":"SCT","base":600}],"obsTime":1778403600},"SBSJ":{"icaoId":"SBSJ","flightCategory":"MVFR","rawOb":"METAR SBSJ 100900Z 20005KT 160V220 9999 SCT013 BKN024 18/16 Q1018","temp":18,"dewp":16,"wdir":200,"wspd":5,"visib":"6+","altim":1018,"clouds":[{"cover":"SCT","base":1300},{"cover":"BKN","base":2400}],"obsTime":1778403600},"SBAR":{"icaoId":"SBAR","flightCategory":"VFR","rawOb":"METAR SBAR 100900Z 12009KT 9999 FEW025 27/22 Q1014","temp":27,"dewp":22,"wdir":120,"wspd":9,"visib":"6+","altim":1014,"clouds":[{"cover":"FEW","base":2500}],"obsTime":1778403600},"SBSM":{"icaoId":"SBSM","flightCategory":"MVFR","rawOb":"METAR SBSM 100900Z 26007KT 220V290 9999 BKN015 OVC020 09/07 Q1023","temp":9,"dewp":7,"wdir":260,"wspd":7,"visib":"6+","altim":1023,"clouds":[{"cover":"BKN","base":1500},{"cover":"OVC","base":2000}],"obsTime":1778403600},"SBIP":{"icaoId":"SBIP","flightCategory":"VFR","rawOb":"METAR SBIP 100900Z AUTO 00000KT 9999 SCT027 18/18 Q1019","temp":18,"dewp":18,"wdir":0,"wspd":0,"visib":"6+","altim":1019,"clouds":[{"cover":"SCT","base":2700}],"obsTime":1778403600},"SBSR":{"icaoId":"SBSR","flightCategory":"MVFR","rawOb":"METAR SBSR 100900Z 27006KT 9999 BKN010 17/16 Q1019","temp":17,"dewp":16,"wdir":270,"wspd":6,"visib":"6+","altim":1019,"clouds":[{"cover":"BKN","base":1000}],"obsTime":1778403600},"SBTU":{"icaoId":"SBTU","flightCategory":"VFR","rawOb":"METAR SBTU 100900Z AUTO 23004KT 9999 // ///////// ///// Q1014","temp":null,"dewp":null,"wdir":230,"wspd":4,"visib":"6+","altim":1014,"clouds":[],"obsTime":1778403600},"SBKG":{"icaoId":"SBKG","flightCategory":"VFR","rawOb":"METAR SBKG 100900Z 10002KT 9999 SCT010 21/21 Q1015","temp":21,"dewp":21,"wdir":100,"wspd":2,"visib":"6+","altim":1015,"clouds":[{"cover":"SCT","base":1000}],"obsTime":1778403600},"SBCO":{"icaoId":"SBCO","flightCategory":"VFR","rawOb":"METAR SBCO 100900Z 28005KT 9999 FEW020 OVC035 10/07 Q1021","temp":10,"dewp":7,"wdir":280,"wspd":5,"visib":"6+","altim":1021,"clouds":[{"cover":"FEW","base":2000},{"cover":"OVC","base":3500}],"obsTime":1778403600},"SBBH":{"icaoId":"SBBH","flightCategory":"VFR","rawOb":"METAR SBBH 100900Z 00000KT CAVOK 16/16 Q1020","temp":16,"dewp":16,"wdir":0,"wspd":0,"visib":"6+","altim":1020,"clouds":[],"obsTime":1778403600},"SBPL":{"icaoId":"SBPL","flightCategory":"VFR","rawOb":"METAR SBPL 100900Z 15007KT 9999 FEW020 23/20 Q1016","temp":23,"dewp":20,"wdir":150,"wspd":7,"visib":"6+","altim":1016,"clouds":[{"cover":"FEW","base":2000}],"obsTime":1778403600},"SBDN":{"icaoId":"SBDN","flightCategory":"IFR","rawOb":"METAR SBDN 100900Z 20008KT 9999 BKN009 11/09 Q1020","temp":11,"dewp":9,"wdir":200,"wspd":8,"visib":"6+","altim":1020,"clouds":[{"cover":"BKN","base":900}],"obsTime":1778403600},"SBLE":{"icaoId":"SBLE","flightCategory":"VFR","rawOb":"METAR SBLE 100900Z AUTO 02001KT 9999 FEW018 ///// Q////","temp":null,"dewp":null,"wdir":20,"wspd":1,"visib":"6+","altim":null,"clouds":[{"cover":"FEW","base":1800}],"obsTime":1778403600},"SBNM":{"icaoId":"SBNM","flightCategory":"VFR","rawOb":"METAR SBNM 100900Z AUTO 28004KT CAVOK 05/04 Q1023","temp":5,"dewp":4,"wdir":280,"wspd":4,"visib":"6+","altim":1023,"clouds":[],"obsTime":1778403600},"SBPF":{"icaoId":"SBPF","flightCategory":"MVFR","rawOb":"METAR SBPF 101000Z 27008KT 9999 BKN020 05/03 Q1022","temp":5,"dewp":3,"wdir":270,"wspd":8,"visib":"6+","altim":1022,"clouds":[{"cover":"BKN","base":2000}],"obsTime":1778407200},"SBAF":{"icaoId":"SBAF","flightCategory":"MVFR","rawOb":"METAR SBAF 101000Z 23005KT 9999 BKN010 BKN015 24/24 Q1016","temp":24,"dewp":24,"wdir":230,"wspd":5,"visib":"6+","altim":1016,"clouds":[{"cover":"BKN","base":1000},{"cover":"BKN","base":1500}],"obsTime":1778407200},"SBGW":{"icaoId":"SBGW","flightCategory":"IFR","rawOb":"METAR SBGW 100900Z 20003KT 5000 HZ BKN009 19/15 Q1017","temp":19,"dewp":15,"wdir":200,"wspd":3,"visib":3.11,"altim":1017,"clouds":[{"cover":"BKN","base":900}],"obsTime":1778403600},"SBJR":{"icaoId":"SBJR","flightCategory":"MVFR","rawOb":"METAR SBJR 101000Z 24006KT 9999 BKN010 BKN020 24/22 Q1016","temp":24,"dewp":22,"wdir":240,"wspd":6,"visib":"6+","altim":1016,"clouds":[{"cover":"BKN","base":1000},{"cover":"BKN","base":2000}],"obsTime":1778407200},"SBLS":{"icaoId":"SBLS","flightCategory":"VFR","rawOb":"METAR SBLS 100900Z 16002KT CAVOK 18/16 Q1020","temp":18,"dewp":16,"wdir":160,"wspd":2,"visib":"6+","altim":1020,"clouds":[],"obsTime":1778403600},"SBMT":{"icaoId":"SBMT","flightCategory":"MVFR","rawOb":"METAR SBMT 100900Z 14006KT 6000 -DZ FEW009 BKN011 16/14 Q1019","temp":16,"dewp":14,"wdir":140,"wspd":6,"visib":3.73,"altim":1019,"clouds":[{"cover":"FEW","base":900},{"cover":"BKN","base":1100}],"obsTime":1778403600},"SBAN":{"icaoId":"SBAN","flightCategory":"VFR","rawOb":"METAR SBAN 100900Z 16006KT CAVOK 17/14 Q1021","temp":17,"dewp":14,"wdir":160,"wspd":6,"visib":"6+","altim":1021,"clouds":[],"obsTime":1778403600},"SBTA":{"icaoId":"SBTA","flightCategory":"MVFR","rawOb":"METAR SBTA 100900Z 27003KT 210V300 9999 SCT006 BKN015 BKN018 19/19 Q1017","temp":19,"dewp":19,"wdir":270,"wspd":3,"visib":"6+","altim":1017,"clouds":[{"cover":"SCT","base":600},{"cover":"BKN","base":1500},{"cover":"BKN","base":1800}],"obsTime":1778403600},"SBJV":{"icaoId":"SBJV","flightCategory":"VFR","rawOb":"METAR SBJV 100900Z 34001KT 9999 BKN040 13/12 Q1019","temp":13,"dewp":12,"wdir":340,"wspd":1,"visib":"6+","altim":1019,"clouds":[{"cover":"BKN","base":4000}],"obsTime":1778403600},"SBJP":{"icaoId":"SBJP","flightCategory":"MVFR","rawOb":"METAR SBJP 100900Z 00000KT 9999 BKN015 24/24 Q1013","temp":24,"dewp":24,"wdir":0,"wspd":0,"visib":"6+","altim":1013,"clouds":[{"cover":"BKN","base":1500}],"obsTime":1778403600}}}