{"updated":1774348731,"count":71,"data":{"SBCT":{"icaoId":"SBCT","flightCategory":"LIFR","rawOb":"METAR SBCT 240900Z 06001KT 4000 BR OVC004 19/19 Q1015","temp":19,"dewp":19,"wdir":60,"wspd":1,"visib":2.49,"altim":1015,"clouds":[{"cover":"OVC","base":400}],"obsTime":1774342800},"SBFI":{"icaoId":"SBFI","flightCategory":"VFR","rawOb":"METAR SBFI 240900Z 00000KT 9999 FEW005 SCT020 23/23 Q1009","temp":23,"dewp":23,"wdir":0,"wspd":0,"visib":"6+","altim":1009,"clouds":[{"cover":"FEW","base":500},{"cover":"SCT","base":2000}],"obsTime":1774342800},"SBMO":{"icaoId":"SBMO","flightCategory":"VFR","rawOb":"METAR SBMO 240900Z 35002KT 9999 SCT020 24/23 Q1012","temp":24,"dewp":23,"wdir":350,"wspd":2,"visib":"6+","altim":1012,"clouds":[{"cover":"SCT","base":2000}],"obsTime":1774342800},"SBBR":{"icaoId":"SBBR","flightCategory":"VFR","rawOb":"METAR SBBR 240900Z 33004KT 9999 SCT008 BKN090 19/17 Q1017","temp":19,"dewp":17,"wdir":330,"wspd":4,"visib":"6+","altim":1017,"clouds":[{"cover":"SCT","base":800},{"cover":"BKN","base":9000}],"obsTime":1774342800},"SBMQ":{"icaoId":"SBMQ","flightCategory":"VFR","rawOb":"METAR SBMQ 240900Z 02007KT 9999 SCT017 25/24 Q1010","temp":25,"dewp":24,"wdir":20,"wspd":7,"visib":"6+","altim":1010,"clouds":[{"cover":"SCT","base":1700}],"obsTime":1774342800},"SBFL":{"icaoId":"SBFL","flightCategory":"VFR","rawOb":"METAR SBFL 240900Z 31008KT 9999 BKN033 25/23 Q1009","temp":25,"dewp":23,"wdir":310,"wspd":8,"visib":"6+","altim":1009,"clouds":[{"cover":"BKN","base":3300}],"obsTime":1774342800},"SBNT":{"icaoId":"SBNT","flightCategory":"VFR","rawOb":"METAR SBNT 240900Z VRB02KT 9999 SCT021 24/23 Q1011","temp":24,"dewp":23,"wdir":"VRB","wspd":2,"visib":"6+","altim":1011,"clouds":[{"cover":"SCT","base":2100}],"obsTime":1774342800},"SBPA":{"icaoId":"SBPA","flightCategory":"IFR","rawOb":"METAR SBPA 240900Z 20008KT 160V240 6000 -DZ BKN006 BKN025 21/20 Q1009 REDZ","temp":21,"dewp":20,"wdir":200,"wspd":8,"visib":3.73,"altim":1009,"clouds":[{"cover":"BKN","base":600},{"cover":"BKN","base":2500}],"obsTime":1774342800},"SBCG":{"icaoId":"SBCG","flightCategory":"VFR","rawOb":"METAR SBCG 240900Z 10004KT CAVOK 24/22 Q1012","temp":24,"dewp":22,"wdir":100,"wspd":4,"visib":"6+","altim":1012,"clouds":[],"obsTime":1774342800},"SBFZ":{"icaoId":"SBFZ","flightCategory":"VFR","rawOb":"METAR SBFZ 240900Z 14004KT 9999 FEW020 26/24 Q1010","temp":26,"dewp":24,"wdir":140,"wspd":4,"visib":"6+","altim":1010,"clouds":[{"cover":"FEW","base":2000}],"obsTime":1774342800},"SBPJ":{"icaoId":"SBPJ","flightCategory":"VFR","rawOb":"METAR SBPJ 240900Z 08003KT 9999 FEW028 BKN100 24/23 Q1012","temp":24,"dewp":23,"wdir":80,"wspd":3,"visib":"6+","altim":1012,"clouds":[{"cover":"FEW","base":2800},{"cover":"BKN","base":10000}],"obsTime":1774342800},"SBGL":{"icaoId":"SBGL","flightCategory":"MVFR","rawOb":"METAR SBGL 240900Z 04002KT 8000 FEW011 22/20 Q1011","temp":22,"dewp":20,"wdir":40,"wspd":2,"visib":4.97,"altim":1011,"clouds":[{"cover":"FEW","base":1100}],"obsTime":1774342800},"SBPV":{"icaoId":"SBPV","flightCategory":"VFR","rawOb":"METAR SBPV 240900Z 13001KT 9999 FEW003 25/23 Q1009","temp":25,"dewp":23,"wdir":130,"wspd":1,"visib":"6+","altim":1009,"clouds":[{"cover":"FEW","base":300}],"obsTime":1774342800},"SBRB":{"icaoId":"SBRB","flightCategory":"VFR","rawOb":"METAR SBRB 240900Z 06002KT 9999 FEW030 SCT100 24/23 Q1009","temp":24,"dewp":23,"wdir":60,"wspd":2,"visib":"6+","altim":1009,"clouds":[{"cover":"FEW","base":3000},{"cover":"SCT","base":10000}],"obsTime":1774342800},"SBCP":{"icaoId":"SBCP","flightCategory":"VFR","rawOb":"METAR SBCP 241000Z 10002KT 9999 FEW015 SCT080 22/22 Q1013","temp":22,"dewp":22,"wdir":100,"wspd":2,"visib":"6+","altim":1013,"clouds":[{"cover":"FEW","base":1500},{"cover":"SCT","base":8000}],"obsTime":1774346400},"SBUR":{"icaoId":"SBUR","flightCategory":"VFR","rawOb":"METAR SBUR 240900Z 06002KT CAVOK 22/18 Q1014","temp":22,"dewp":18,"wdir":60,"wspd":2,"visib":"6+","altim":1014,"clouds":[],"obsTime":1774342800},"SBMK":{"icaoId":"SBMK","flightCategory":"VFR","rawOb":"METAR SBMK 240900Z 25002KT CAVOK 19/19 Q1015","temp":19,"dewp":19,"wdir":250,"wspd":2,"visib":"6+","altim":1015,"clouds":[],"obsTime":1774342800},"SBMA":{"icaoId":"SBMA","flightCategory":"VFR","rawOb":"METAR SBMA 240900Z 11003KT 9999 FEW008 OVC090 24/23 Q1010","temp":24,"dewp":23,"wdir":110,"wspd":3,"visib":"6+","altim":1010,"clouds":[{"cover":"FEW","base":800},{"cover":"OVC","base":9000}],"obsTime":1774342800},"SBME":{"icaoId":"SBME","flightCategory":"VFR","rawOb":"METAR SBME 240900Z 04004KT CAVOK 21/20 Q1011","temp":21,"dewp":20,"wdir":40,"wspd":4,"visib":"6+","altim":1011,"clouds":[],"obsTime":1774342800},"SBRF":{"icaoId":"SBRF","flightCategory":"VFR","rawOb":"METAR SBRF 240900Z 09006KT 9999 SCT025 29/23 Q1011","temp":29,"dewp":23,"wdir":90,"wspd":6,"visib":"6+","altim":1011,"clouds":[{"cover":"SCT","base":2500}],"obsTime":1774342800},"SBGO":{"icaoId":"SBGO","flightCategory":"VFR","rawOb":"METAR SBGO 240900Z 32006KT 280V340 9999 FEW007 BKN100 20/19 Q1015","temp":20,"dewp":19,"wdir":320,"wspd":6,"visib":"6+","altim":1015,"clouds":[{"cover":"FEW","base":700},{"cover":"BKN","base":10000}],"obsTime":1774342800},"SBSG":{"icaoId":"SBSG","flightCategory":"VFR","rawOb":"METAR SBSG 240900Z 20004KT 9999 SCT025 23/23 Q1012","temp":23,"dewp":23,"wdir":200,"wspd":4,"visib":"6+","altim":1012,"clouds":[{"cover":"SCT","base":2500}],"obsTime":1774342800},"SBCB":{"icaoId":"SBCB","flightCategory":"VFR","rawOb":"METAR SBCB 240900Z 05007KT 9999 FEW015 24/22 Q1011","temp":24,"dewp":22,"wdir":50,"wspd":7,"visib":"6+","altim":1011,"clouds":[{"cover":"FEW","base":1500}],"obsTime":1774342800},"SBSL":{"icaoId":"SBSL","flightCategory":"VFR","rawOb":"METAR SBSL 240900Z 06003KT 9999 FEW017 25/24 Q1009","temp":25,"dewp":24,"wdir":60,"wspd":3,"visib":"6+","altim":1009,"clouds":[{"cover":"FEW","base":1700}],"obsTime":1774342800},"SBGR":{"icaoId":"SBGR","flightCategory":"IFR","rawOb":"METAR SBGR 240900Z 08006KT 6000 OVC006 19/18 Q1015","temp":19,"dewp":18,"wdir":80,"wspd":6,"visib":3.73,"altim":1015,"clouds":[{"cover":"OVC","base":600}],"obsTime":1774342800},"SBSN":{"icaoId":"SBSN","flightCategory":"VFR","rawOb":"METAR SBSN 240900Z 14004KT 9999 VCTS FEW013 FEW030CB BKN070 26/24 Q1009","temp":26,"dewp":24,"wdir":140,"wspd":4,"visib":"6+","altim":1009,"clouds":[{"cover":"FEW","base":1300},{"cover":"FEW","base":3000},{"cover":"BKN","base":7000}],"obsTime":1774342800},"SBSP":{"icaoId":"SBSP","flightCategory":"VFR","rawOb":"METAR SBSP 240900Z 10004KT CAVOK 19/17 Q1015","temp":19,"dewp":17,"wdir":100,"wspd":4,"visib":"6+","altim":1015,"clouds":[],"obsTime":1774342800},"SBHT":{"icaoId":"SBHT","flightCategory":"VFR","rawOb":"METAR SBHT 241000Z 13003KT 9999 SCT012 BKN080 24/23 Q1012","temp":24,"dewp":23,"wdir":130,"wspd":3,"visib":"6+","altim":1012,"clouds":[{"cover":"SCT","base":1200},{"cover":"BKN","base":8000}],"obsTime":1774346400},"SBIL":{"icaoId":"SBIL","flightCategory":"VFR","rawOb":"METAR SBIL 241000Z 28004KT 9999 VCSH FEW018 FEW023TCU SCT090 25/24 Q1013","temp":25,"dewp":24,"wdir":280,"wspd":4,"visib":"6+","altim":1013,"clouds":[{"cover":"FEW","base":1800},{"cover":"FEW","base":2300},{"cover":"SCT","base":9000}],"obsTime":1774346400},"SBSV":{"icaoId":"SBSV","flightCategory":"VFR","rawOb":"METAR SBSV 240900Z VRB02KT 9999 SCT023 BKN100 25/22 Q1012","temp":25,"dewp":22,"wdir":"VRB","wspd":2,"visib":"6+","altim":1012,"clouds":[{"cover":"SCT","base":2300},{"cover":"BKN","base":10000}],"obsTime":1774342800},"SBJU":{"icaoId":"SBJU","flightCategory":"MVFR","rawOb":"METAR SBJU 240900Z 00000KT 8000 BKN010 23/22 Q1013","temp":23,"dewp":22,"wdir":0,"wspd":0,"visib":4.97,"altim":1013,"clouds":[{"cover":"BKN","base":1000}],"obsTime":1774342800},"SBTE":{"icaoId":"SBTE","flightCategory":"MVFR","rawOb":"METAR SBTE 240900Z 22002KT 9999 BKN015 BKN080 25/24 Q1010","temp":25,"dewp":24,"wdir":220,"wspd":2,"visib":"6+","altim":1010,"clouds":[{"cover":"BKN","base":1500},{"cover":"BKN","base":8000}],"obsTime":1774342800},"SBUL":{"icaoId":"SBUL","flightCategory":"VFR","rawOb":"METAR SBUL 240900Z 15007KT CAVOK 22/17 Q1015","temp":22,"dewp":17,"wdir":150,"wspd":7,"visib":"6+","altim":1015,"clouds":[],"obsTime":1774342800},"SBMG":{"icaoId":"SBMG","flightCategory":"VFR","rawOb":"METAR SBMG 240900Z AUTO 06003KT 9999 SCT045 23/22 Q1011","temp":23,"dewp":22,"wdir":60,"wspd":3,"visib":"6+","altim":1011,"clouds":[{"cover":"SCT","base":4500}],"obsTime":1774342800},"SBCF":{"icaoId":"SBCF","flightCategory":"VFR","rawOb":"METAR SBCF 240900Z 19002KT CAVOK 17/15 Q1016","temp":17,"dewp":15,"wdir":190,"wspd":2,"visib":"6+","altim":1016,"clouds":[],"obsTime":1774342800},"SBVT":{"icaoId":"SBVT","flightCategory":"MVFR","rawOb":"METAR SBVT 240900Z 05003KT 9999 BKN011 22/22 Q1013","temp":22,"dewp":22,"wdir":50,"wspd":3,"visib":"6+","altim":1013,"clouds":[{"cover":"BKN","base":1100}],"obsTime":1774342800},"SBBE":{"icaoId":"SBBE","flightCategory":"VFR","rawOb":"METAR SBBE 240900Z 15002KT 9999 FEW020 25/25 Q1010","temp":25,"dewp":25,"wdir":150,"wspd":2,"visib":"6+","altim":1010,"clouds":[{"cover":"FEW","base":2000}],"obsTime":1774342800},"SBKP":{"icaoId":"SBKP","flightCategory":"MVFR","rawOb":"METAR SBKP 240900Z 11004KT 6000 NSC 18/17 Q1013","temp":18,"dewp":17,"wdir":110,"wspd":4,"visib":3.73,"altim":1013,"clouds":[],"obsTime":1774342800},"SBLO":{"icaoId":"SBLO","flightCategory":"VFR","rawOb":"METAR SBLO 240900Z 35003KT 9999 SCT040 BKN080 23/21 Q1012","temp":23,"dewp":21,"wdir":350,"wspd":3,"visib":"6+","altim":1012,"clouds":[{"cover":"SCT","base":4000},{"cover":"BKN","base":8000}],"obsTime":1774342800},"SBEG":{"icaoId":"SBEG","flightCategory":"VFR","rawOb":"METAR SBEG 240900Z 17002KT 9999 FEW015 25/25 Q1009","temp":25,"dewp":25,"wdir":170,"wspd":2,"visib":"6+","altim":1009,"clouds":[{"cover":"FEW","base":1500}],"obsTime":1774342800},"SBBV":{"icaoId":"SBBV","flightCategory":"VFR","rawOb":"METAR SBBV 240900Z 08008KT 9999 FEW035 FEW040TCU SCT080 26/22 Q1009","temp":26,"dewp":22,"wdir":80,"wspd":8,"visib":"6+","altim":1009,"clouds":[{"cover":"FEW","base":3500},{"cover":"FEW","base":4000},{"cover":"SCT","base":8000}],"obsTime":1774342800},"SBCJ":{"icaoId":"SBCJ","flightCategory":"VFR","rawOb":"SPECI SBCJ 241015Z 00000KT 9999 SCT004 SCT080 22/20 Q1016","temp":22,"dewp":20,"wdir":0,"wspd":0,"visib":"6+","altim":1016,"clouds":[{"cover":"SCT","base":400},{"cover":"SCT","base":8000}],"obsTime":1774347300},"SBPB":{"icaoId":"SBPB","flightCategory":"VFR","rawOb":"SPECI SBPB 241015Z 14006KT 9999 SCT020 27/24 Q1010","temp":27,"dewp":24,"wdir":140,"wspd":6,"visib":"6+","altim":1010,"clouds":[{"cover":"SCT","base":2000}],"obsTime":1774347300},"SBOI":{"icaoId":"SBOI","flightCategory":"MVFR","rawOb":"METAR SBOI 241000Z AUTO VRB01KT 9999 // BKN013/// BKN040/// BKN052/// 24/24 Q1011","temp":24,"dewp":24,"wdir":"VRB","wspd":1,"visib":"6+","altim":1011,"clouds":[{"cover":"BKN","base":1300},{"cover":"BKN","base":4000},{"cover":"BKN","base":5200}],"obsTime":1774346400},"SBPS":{"icaoId":"SBPS","flightCategory":"MVFR","rawOb":"METAR SBPS 240900Z 26004KT 8000 SCT008 BKN015 BKN100 23/23 Q1013","temp":23,"dewp":23,"wdir":260,"wspd":4,"visib":4.97,"altim":1013,"clouds":[{"cover":"SCT","base":800},{"cover":"BKN","base":1500},{"cover":"BKN","base":10000}],"obsTime":1774342800},"SBSC":{"icaoId":"SBSC","flightCategory":"MVFR","rawOb":"METAR SBSC 240900Z 02004KT 8000 NSC 21/20 Q1011","temp":21,"dewp":20,"wdir":20,"wspd":4,"visib":4.97,"altim":1011,"clouds":[],"obsTime":1774342800},"SBAX":{"icaoId":"SBAX","flightCategory":"VFR","rawOb":"METAR SBAX 240900Z AUTO 04005KT 9999 BKN048 19/19 Q1015","temp":19,"dewp":19,"wdir":40,"wspd":5,"visib":"6+","altim":1015,"clouds":[{"cover":"BKN","base":4800}],"obsTime":1774342800},"SBBH":{"icaoId":"SBBH","flightCategory":"VFR","rawOb":"METAR SBBH 240900Z 08004KT 9999 SCT049 SCT100 18/16 Q1016","temp":18,"dewp":16,"wdir":80,"wspd":4,"visib":"6+","altim":1016,"clouds":[{"cover":"SCT","base":4900},{"cover":"SCT","base":10000}],"obsTime":1774342800},"SBPL":{"icaoId":"SBPL","flightCategory":"VFR","rawOb":"METAR SBPL 240900Z 14005KT 9999 SCT020 BKN070 25/23 Q1012","temp":25,"dewp":23,"wdir":140,"wspd":5,"visib":"6+","altim":1012,"clouds":[{"cover":"SCT","base":2000},{"cover":"BKN","base":7000}],"obsTime":1774342800},"SBCO":{"icaoId":"SBCO","flightCategory":"IFR","rawOb":"METAR SBCO 240900Z 19007KT 170V230 6000 -RA BKN007 BKN025 21/20 Q1010","temp":21,"dewp":20,"wdir":190,"wspd":7,"visib":3.73,"altim":1010,"clouds":[{"cover":"BKN","base":700},{"cover":"BKN","base":2500}],"obsTime":1774342800},"SBSJ":{"icaoId":"SBSJ","flightCategory":"MVFR","rawOb":"METAR SBSJ 240900Z 00000KT 5000 BR SCT007 17/16 Q1014","temp":17,"dewp":16,"wdir":0,"wspd":0,"visib":3.11,"altim":1014,"clouds":[{"cover":"SCT","base":700}],"obsTime":1774342800},"SBDN":{"icaoId":"SBDN","flightCategory":"VFR","rawOb":"METAR SBDN 240900Z 10008KT CAVOK 24/20 Q1011","temp":24,"dewp":20,"wdir":100,"wspd":8,"visib":"6+","altim":1011,"clouds":[],"obsTime":1774342800},"SBSM":{"icaoId":"SBSM","flightCategory":"IFR","rawOb":"METAR SBSM 240900Z 23003KT 3000 -DZ BR SCT004 OVC008 19/19 Q1012","temp":19,"dewp":19,"wdir":230,"wspd":3,"visib":1.86,"altim":1012,"clouds":[{"cover":"SCT","base":400},{"cover":"OVC","base":800}],"obsTime":1774342800},"SBBU":{"icaoId":"SBBU","flightCategory":"MVFR","rawOb":"METAR SBBU 240900Z 22005KT 9999 BKN020 SCT025 23/20 Q1014","temp":23,"dewp":20,"wdir":220,"wspd":5,"visib":"6+","altim":1014,"clouds":[{"cover":"BKN","base":2000},{"cover":"SCT","base":2500}],"obsTime":1774342800},"SBSR":{"icaoId":"SBSR","flightCategory":"VFR","rawOb":"METAR SBSR 240900Z 17003KT 9999 -RA FEW040 BKN070 25/21 Q1012","temp":25,"dewp":21,"wdir":170,"wspd":3,"visib":"6+","altim":1012,"clouds":[{"cover":"FEW","base":4000},{"cover":"BKN","base":7000}],"obsTime":1774342800},"SBES":{"icaoId":"SBES","flightCategory":"VFR","rawOb":"METAR SBES 240900Z 04006KT 9999 FEW010 21/// Q1011","temp":null,"dewp":null,"wdir":40,"wspd":6,"visib":"6+","altim":1011,"clouds":[{"cover":"FEW","base":1000}],"obsTime":1774342800},"SBAR":{"icaoId":"SBAR","flightCategory":"VFR","rawOb":"METAR SBAR 240900Z 00000KT 9999 FEW023 25/23 Q1011","temp":25,"dewp":23,"wdir":0,"wspd":0,"visib":"6+","altim":1011,"clouds":[{"cover":"FEW","base":2300}],"obsTime":1774342800},"SBCA":{"icaoId":"SBCA","flightCategory":"VFR","rawOb":"METAR SBCA 240900Z 16003KT 130V220 CAVOK 21/20 Q1013","temp":21,"dewp":20,"wdir":160,"wspd":3,"visib":"6+","altim":1013,"clouds":[],"obsTime":1774342800},"SBIP":{"icaoId":"SBIP","flightCategory":"MVFR","rawOb":"METAR SBIP 240900Z AUTO VRB02KT 8000 FEW022 18/18 Q1015","temp":18,"dewp":18,"wdir":"VRB","wspd":2,"visib":4.97,"altim":1015,"clouds":[{"cover":"FEW","base":2200}],"obsTime":1774342800},"SBKG":{"icaoId":"SBKG","flightCategory":"VFR","rawOb":"METAR SBKG 240900Z 10004KT 9999 FEW009 22/21 Q1014","temp":22,"dewp":21,"wdir":100,"wspd":4,"visib":"6+","altim":1014,"clouds":[{"cover":"FEW","base":900}],"obsTime":1774342800},"SBAN":{"icaoId":"SBAN","flightCategory":"LIFR","rawOb":"METAR SBAN 240900Z 01003KT 0500 R24R/0650N R06L/0800N FG BKN001 19/18 Q1017","temp":19,"dewp":18,"wdir":10,"wspd":3,"visib":0.31,"altim":1017,"clouds":[{"cover":"BKN","base":100}],"obsTime":1774342800},"SBPF":{"icaoId":"SBPF","flightCategory":"LIFR","rawOb":"METAR SBPF 241000Z 00000KT 0900 FG VV002 21/20 Q1013","temp":21,"dewp":20,"wdir":0,"wspd":0,"visib":0.56,"altim":1013,"clouds":[{"cover":"OVX","base":200}],"obsTime":1774346400},"SBLE":{"icaoId":"SBLE","flightCategory":"VFR","rawOb":"METAR SBLE 240900Z AUTO 00000KT 9999 FEW019 ///// Q////","temp":null,"dewp":null,"wdir":0,"wspd":0,"visib":"6+","altim":null,"clouds":[{"cover":"FEW","base":1900}],"obsTime":1774342800},"SBAF":{"icaoId":"SBAF","flightCategory":"VFR","rawOb":"METAR SBAF 241000Z 25003KT 220V280 CAVOK 22/22 Q1012","temp":22,"dewp":22,"wdir":250,"wspd":3,"visib":"6+","altim":1012,"clouds":[],"obsTime":1774346400},"SBGW":{"icaoId":"SBGW","flightCategory":"MVFR","rawOb":"METAR SBGW 240900Z 00000KT 8000 FEW010 18/14 Q1013","temp":18,"dewp":14,"wdir":0,"wspd":0,"visib":4.97,"altim":1013,"clouds":[{"cover":"FEW","base":1000}],"obsTime":1774342800},"SBJR":{"icaoId":"SBJR","flightCategory":"VFR","rawOb":"METAR SBJR 241000Z 05003KT CAVOK 24/21 Q1011","temp":24,"dewp":21,"wdir":50,"wspd":3,"visib":"6+","altim":1011,"clouds":[],"obsTime":1774346400},"SBLS":{"icaoId":"SBLS","flightCategory":"VFR","rawOb":"METAR SBLS 240900Z VRB02KT CAVOK 17/15 Q1016","temp":17,"dewp":15,"wdir":"VRB","wspd":2,"visib":"6+","altim":1016,"clouds":[],"obsTime":1774342800},"SBJP":{"icaoId":"SBJP","flightCategory":"VFR","rawOb":"METAR SBJP 240900Z 23004KT 9999 FEW025 24/23 Q1012","temp":24,"dewp":23,"wdir":230,"wspd":4,"visib":"6+","altim":1012,"clouds":[{"cover":"FEW","base":2500}],"obsTime":1774342800},"SBMT":{"icaoId":"SBMT","flightCategory":"MVFR","rawOb":"METAR SBMT 240900Z 08006KT 9999 FEW007 BKN013 19/17 Q1014","temp":19,"dewp":17,"wdir":80,"wspd":6,"visib":"6+","altim":1014,"clouds":[{"cover":"FEW","base":700},{"cover":"BKN","base":1300}],"obsTime":1774342800},"SBJV":{"icaoId":"SBJV","flightCategory":"VFR","rawOb":"METAR SBJV 240900Z 31004KT 9999 SCT030 24/23 Q1010","temp":24,"dewp":23,"wdir":310,"wspd":4,"visib":"6+","altim":1010,"clouds":[{"cover":"SCT","base":3000}],"obsTime":1774342800},"SBTA":{"icaoId":"SBTA","flightCategory":"VFR","rawOb":"METAR SBTA 240900Z 00000KT 9999 FEW035 17/17 Q1013","temp":17,"dewp":17,"wdir":0,"wspd":0,"visib":"6+","altim":1013,"clouds":[{"cover":"FEW","base":3500}],"obsTime":1774342800}}}