{"updated":1777039910,"count":87,"data":{"SBCT":{"icaoId":"SBCT","flightCategory":"MVFR","rawOb":"SPECI SBCT 241235Z VRB03KT 9999 BKN013 19/16 Q1023","temp":19,"dewp":16,"wdir":"VRB","wspd":3,"visib":"6+","altim":1023,"clouds":[{"cover":"BKN","base":1300}],"obsTime":1777034100},"SBLO":{"icaoId":"SBLO","flightCategory":"VFR","rawOb":"METAR SBLO 241300Z 12005KT CAVOK 22/16 Q1020","temp":22,"dewp":16,"wdir":120,"wspd":5,"visib":"6+","altim":1020,"clouds":[],"obsTime":1777035600},"SBCZ":{"icaoId":"SBCZ","flightCategory":"IFR","rawOb":"METAR SBCZ 241300Z 00000KT 8000 OVC006 23/23 Q1015","temp":23,"dewp":23,"wdir":0,"wspd":0,"visib":4.97,"altim":1015,"clouds":[{"cover":"OVC","base":600}],"obsTime":1777035600},"SBCB":{"icaoId":"SBCB","flightCategory":"VFR","rawOb":"METAR SBCB 241300Z 11006KT 9999 FEW025 27/21 Q1019","temp":27,"dewp":21,"wdir":110,"wspd":6,"visib":"6+","altim":1019,"clouds":[{"cover":"FEW","base":2500}],"obsTime":1777035600},"SBMA":{"icaoId":"SBMA","flightCategory":"MVFR","rawOb":"METAR SBMA 241300Z 30004KT 9999 SCT008 BKN015 BKN080 27/24 Q1015","temp":27,"dewp":24,"wdir":300,"wspd":4,"visib":"6+","altim":1015,"clouds":[{"cover":"SCT","base":800},{"cover":"BKN","base":1500},{"cover":"BKN","base":8000}],"obsTime":1777035600},"SBVT":{"icaoId":"SBVT","flightCategory":"VFR","rawOb":"METAR SBVT 241300Z 16006KT 9999 FEW025 27/20 Q1019","temp":27,"dewp":20,"wdir":160,"wspd":6,"visib":"6+","altim":1019,"clouds":[{"cover":"FEW","base":2500}],"obsTime":1777035600},"SBME":{"icaoId":"SBME","flightCategory":"VFR","rawOb":"METAR SBME 241300Z 01005KT CAVOK 29/18 Q1019","temp":29,"dewp":18,"wdir":10,"wspd":5,"visib":"6+","altim":1019,"clouds":[],"obsTime":1777035600},"SBEG":{"icaoId":"SBEG","flightCategory":"VFR","rawOb":"METAR SBEG 241300Z 06003KT 360V110 9999 SCT020 28/24 Q1014","temp":28,"dewp":24,"wdir":60,"wspd":3,"visib":"6+","altim":1014,"clouds":[{"cover":"SCT","base":2000}],"obsTime":1777035600},"SBMG":{"icaoId":"SBMG","flightCategory":"VFR","rawOb":"METAR SBMG 241300Z 16005KT 130V190 CAVOK 23/17 Q1018","temp":23,"dewp":17,"wdir":160,"wspd":5,"visib":"6+","altim":1018,"clouds":[],"obsTime":1777035600},"SBCF":{"icaoId":"SBCF","flightCategory":"VFR","rawOb":"METAR SBCF 241300Z 15005KT 080V210 9999 SCT025 24/16 Q1023","temp":24,"dewp":16,"wdir":150,"wspd":5,"visib":"6+","altim":1023,"clouds":[{"cover":"SCT","base":2500}],"obsTime":1777035600},"SBMK":{"icaoId":"SBMK","flightCategory":"VFR","rawOb":"METAR SBMK 241300Z 06007KT CAVOK 26/16 Q1020","temp":26,"dewp":16,"wdir":60,"wspd":7,"visib":"6+","altim":1020,"clouds":[],"obsTime":1777035600},"SBFI":{"icaoId":"SBFI","flightCategory":"VFR","rawOb":"METAR SBFI 241300Z 04007KT CAVOK 26/20 Q1016","temp":26,"dewp":20,"wdir":40,"wspd":7,"visib":"6+","altim":1016,"clouds":[],"obsTime":1777035600},"SBMO":{"icaoId":"SBMO","flightCategory":"MVFR","rawOb":"METAR SBMO 241300Z 12010KT 9999 BKN030 29/22 Q1014","temp":29,"dewp":22,"wdir":120,"wspd":10,"visib":"6+","altim":1014,"clouds":[{"cover":"BKN","base":3000}],"obsTime":1777035600},"SBMQ":{"icaoId":"SBMQ","flightCategory":"VFR","rawOb":"METAR SBMQ 241300Z 01003KT 9999 -RA FEW005 24/23 Q1014","temp":24,"dewp":23,"wdir":10,"wspd":3,"visib":"6+","altim":1014,"clouds":[{"cover":"FEW","base":500}],"obsTime":1777035600},"SBBR":{"icaoId":"SBBR","flightCategory":"VFR","rawOb":"METAR SBBR 241300Z 09011KT CAVOK 23/16 Q1022","temp":23,"dewp":16,"wdir":90,"wspd":11,"visib":"6+","altim":1022,"clouds":[],"obsTime":1777035600},"SBNT":{"icaoId":"SBNT","flightCategory":"IFR","rawOb":"METAR SBNT 241300Z 23004KT 180V260 3000 -RA BR BKN005 BKN017 OVC030 24/23 Q1013 RERA","temp":24,"dewp":23,"wdir":230,"wspd":4,"visib":1.86,"altim":1013,"clouds":[{"cover":"BKN","base":500},{"cover":"BKN","base":1700},{"cover":"OVC","base":3000}],"obsTime":1777035600},"SBFL":{"icaoId":"SBFL","flightCategory":"VFR","rawOb":"METAR SBFL 241300Z 34009KT 9999 FEW030 25/20 Q1018","temp":25,"dewp":20,"wdir":340,"wspd":9,"visib":"6+","altim":1018,"clouds":[{"cover":"FEW","base":3000}],"obsTime":1777035600},"SBCG":{"icaoId":"SBCG","flightCategory":"VFR","rawOb":"METAR SBCG 241300Z 06010KT CAVOK 28/18 Q1017","temp":28,"dewp":18,"wdir":60,"wspd":10,"visib":"6+","altim":1017,"clouds":[],"obsTime":1777035600},"SBPA":{"icaoId":"SBPA","flightCategory":"IFR","rawOb":"METAR SBPA 241300Z 11008KT 6000 -RA BKN007 OVC025 20/20 Q1017","temp":20,"dewp":20,"wdir":110,"wspd":8,"visib":3.73,"altim":1017,"clouds":[{"cover":"BKN","base":700},{"cover":"OVC","base":2500}],"obsTime":1777035600},"SBFZ":{"icaoId":"SBFZ","flightCategory":"MVFR","rawOb":"METAR SBFZ 241300Z 12004KT 030V160 9999 BKN020 30/25 Q1012","temp":30,"dewp":25,"wdir":120,"wspd":4,"visib":"6+","altim":1012,"clouds":[{"cover":"BKN","base":2000}],"obsTime":1777035600},"SBPJ":{"icaoId":"SBPJ","flightCategory":"VFR","rawOb":"METAR SBPJ 241300Z 25005KT 9999 FEW027 29/24 Q1015","temp":29,"dewp":24,"wdir":250,"wspd":5,"visib":"6+","altim":1015,"clouds":[{"cover":"FEW","base":2700}],"obsTime":1777035600},"SBPV":{"icaoId":"SBPV","flightCategory":"MVFR","rawOb":"METAR SBPV 241300Z 04005KT 360V070 9999 BKN010 SCT030 26/24 Q1013","temp":26,"dewp":24,"wdir":40,"wspd":5,"visib":"6+","altim":1013,"clouds":[{"cover":"BKN","base":1000},{"cover":"SCT","base":3000}],"obsTime":1777035600},"SBGL":{"icaoId":"SBGL","flightCategory":"VFR","rawOb":"METAR SBGL 241300Z 36004KT 9999 FEW008 26/20 Q1019","temp":26,"dewp":20,"wdir":360,"wspd":4,"visib":"6+","altim":1019,"clouds":[{"cover":"FEW","base":800}],"obsTime":1777035600},"SBKP":{"icaoId":"SBKP","flightCategory":"VFR","rawOb":"METAR SBKP 241300Z 07005KT 340V120 CAVOK 24/16 Q1021","temp":24,"dewp":16,"wdir":70,"wspd":5,"visib":"6+","altim":1021,"clouds":[],"obsTime":1777035600},"SBRB":{"icaoId":"SBRB","flightCategory":"MVFR","rawOb":"SPECI SBRB 241227Z 14004KT 110V190 7000 SCT007 BKN015 24/24 Q1013","temp":24,"dewp":24,"wdir":140,"wspd":4,"visib":4.35,"altim":1013,"clouds":[{"cover":"SCT","base":700},{"cover":"BKN","base":1500}],"obsTime":1777033620},"SBUL":{"icaoId":"SBUL","flightCategory":"VFR","rawOb":"METAR SBUL 241300Z 08014KT CAVOK 24/17 Q1022","temp":24,"dewp":17,"wdir":80,"wspd":14,"visib":"6+","altim":1022,"clouds":[],"obsTime":1777035600},"SBCP":{"icaoId":"SBCP","flightCategory":"MVFR","rawOb":"METAR SBCP 241300Z 32005KT 9999 BKN020 28/20 Q1019","temp":28,"dewp":20,"wdir":320,"wspd":5,"visib":"6+","altim":1019,"clouds":[{"cover":"BKN","base":2000}],"obsTime":1777035600},"SBRF":{"icaoId":"SBRF","flightCategory":"VFR","rawOb":"METAR SBRF 241300Z 15015KT 9999 FEW020 30/24 Q1013","temp":30,"dewp":24,"wdir":150,"wspd":15,"visib":"6+","altim":1013,"clouds":[{"cover":"FEW","base":2000}],"obsTime":1777035600},"SBBE":{"icaoId":"SBBE","flightCategory":"MVFR","rawOb":"SPECI SBBE 241251Z 30007KT 9999 SCT007 BKN014 BKN040 25/25 Q1014","temp":25,"dewp":25,"wdir":300,"wspd":7,"visib":"6+","altim":1014,"clouds":[{"cover":"SCT","base":700},{"cover":"BKN","base":1400},{"cover":"BKN","base":4000}],"obsTime":1777035060},"SBSG":{"icaoId":"SBSG","flightCategory":"IFR","rawOb":"METAR SBSG 241300Z 21003KT 170V260 4500 -RA BR SCT004 BKN011 23/23 Q1013","temp":23,"dewp":23,"wdir":210,"wspd":3,"visib":2.8,"altim":1013,"clouds":[{"cover":"SCT","base":400},{"cover":"BKN","base":1100}],"obsTime":1777035600},"SBGO":{"icaoId":"SBGO","flightCategory":"VFR","rawOb":"METAR SBGO 241300Z 05005KT CAVOK 27/17 Q1020","temp":27,"dewp":17,"wdir":50,"wspd":5,"visib":"6+","altim":1020,"clouds":[],"obsTime":1777035600},"SBBV":{"icaoId":"SBBV","flightCategory":"VFR","rawOb":"METAR SBBV 241300Z 09008KT 9999 FEW020 28/23 Q1014","temp":28,"dewp":23,"wdir":90,"wspd":8,"visib":"6+","altim":1014,"clouds":[{"cover":"FEW","base":2000}],"obsTime":1777035600},"SBSL":{"icaoId":"SBSL","flightCategory":"VFR","rawOb":"METAR SBSL 241300Z VRB02KT 9999 SCT020 FEW025TCU BKN080 27/25 Q1013","temp":27,"dewp":25,"wdir":"VRB","wspd":2,"visib":"6+","altim":1013,"clouds":[{"cover":"SCT","base":2000},{"cover":"FEW","base":2500},{"cover":"BKN","base":8000}],"obsTime":1777035600},"SBGR":{"icaoId":"SBGR","flightCategory":"VFR","rawOb":"METAR SBGR 241300Z 07011KT CAVOK 23/16 Q1022","temp":23,"dewp":16,"wdir":70,"wspd":11,"visib":"6+","altim":1022,"clouds":[],"obsTime":1777035600},"SBSN":{"icaoId":"SBSN","flightCategory":"VFR","rawOb":"METAR SBSN 241300Z 08008KT 9999 SCT011 27/24 Q1013","temp":27,"dewp":24,"wdir":80,"wspd":8,"visib":"6+","altim":1013,"clouds":[{"cover":"SCT","base":1100}],"obsTime":1777035600},"SBCR":{"icaoId":"SBCR","flightCategory":"VFR","rawOb":"METAR SBCR 241300Z VRB02KT CAVOK 27/20 Q1015","temp":27,"dewp":20,"wdir":"VRB","wspd":2,"visib":"6+","altim":1015,"clouds":[],"obsTime":1777035600},"SBSP":{"icaoId":"SBSP","flightCategory":"VFR","rawOb":"METAR SBSP 241300Z 09006KT 070V130 CAVOK 23/16 Q1023","temp":23,"dewp":16,"wdir":90,"wspd":6,"visib":"6+","altim":1023,"clouds":[],"obsTime":1777035600},"SBHT":{"icaoId":"SBHT","flightCategory":"VFR","rawOb":"METAR SBHT 241300Z 10003KT 9999 SCT012 BKN080 27/23 Q1014","temp":27,"dewp":23,"wdir":100,"wspd":3,"visib":"6+","altim":1014,"clouds":[{"cover":"SCT","base":1200},{"cover":"BKN","base":8000}],"obsTime":1777035600},"SBSV":{"icaoId":"SBSV","flightCategory":"MVFR","rawOb":"METAR SBSV 241300Z 10010KT 9000 VCSH BKN022 FEW024TCU BKN055 29/25 Q1015","temp":29,"dewp":25,"wdir":100,"wspd":10,"visib":5.59,"altim":1015,"clouds":[{"cover":"BKN","base":2200},{"cover":"FEW","base":2400},{"cover":"BKN","base":5500}],"obsTime":1777035600},"SBTE":{"icaoId":"SBTE","flightCategory":"MVFR","rawOb":"METAR SBTE 241300Z 20002KT 9999 BKN015 29/24 Q1013","temp":29,"dewp":24,"wdir":200,"wspd":2,"visib":"6+","altim":1013,"clouds":[{"cover":"BKN","base":1500}],"obsTime":1777035600},"SBUR":{"icaoId":"SBUR","flightCategory":"VFR","rawOb":"METAR SBUR 241300Z 03009KT CAVOK 25/15 Q1020","temp":25,"dewp":15,"wdir":30,"wspd":9,"visib":"6+","altim":1020,"clouds":[],"obsTime":1777035600},"SBIL":{"icaoId":"SBIL","flightCategory":"VFR","rawOb":"METAR SBIL 241300Z 23005KT 9999 -RA FEW019 SCT025 OVC070 26/24 Q1017","temp":26,"dewp":24,"wdir":230,"wspd":5,"visib":"6+","altim":1017,"clouds":[{"cover":"FEW","base":1900},{"cover":"SCT","base":2500},{"cover":"OVC","base":7000}],"obsTime":1777035600},"SBAT":{"icaoId":"SBAT","flightCategory":"VFR","rawOb":"METAR SBAT 241300Z 00000KT 9999 FEW015 26/24 Q1015","temp":26,"dewp":24,"wdir":0,"wspd":0,"visib":"6+","altim":1015,"clouds":[{"cover":"FEW","base":1500}],"obsTime":1777035600},"SBJU":{"icaoId":"SBJU","flightCategory":"VFR","rawOb":"METAR SBJU 241300Z 11011KT 9999 FEW022 27/21 Q1016","temp":27,"dewp":21,"wdir":110,"wspd":11,"visib":"6+","altim":1016,"clouds":[{"cover":"FEW","base":2200}],"obsTime":1777035600},"SBKG":{"icaoId":"SBKG","flightCategory":"MVFR","rawOb":"METAR SBKG 241300Z 13007KT 9999 SCT010 BKN015 24/22 Q1016","temp":24,"dewp":22,"wdir":130,"wspd":7,"visib":"6+","altim":1016,"clouds":[{"cover":"SCT","base":1000},{"cover":"BKN","base":1500}],"obsTime":1777035600},"SBBH":{"icaoId":"SBBH","flightCategory":"VFR","rawOb":"METAR SBBH 241300Z 11008KT 9999 SCT027 23/16 Q1022","temp":23,"dewp":16,"wdir":110,"wspd":8,"visib":"6+","altim":1022,"clouds":[{"cover":"SCT","base":2700}],"obsTime":1777035600},"SBCC":{"icaoId":"SBCC","flightCategory":"VFR","rawOb":"METAR SBCC 241300Z 12002KT 9999 SCT015 BKN100 25/21 Q1016","temp":25,"dewp":21,"wdir":120,"wspd":2,"visib":"6+","altim":1016,"clouds":[{"cover":"SCT","base":1500},{"cover":"BKN","base":10000}],"obsTime":1777035600},"SBOI":{"icaoId":"SBOI","flightCategory":"MVFR","rawOb":"METAR SBOI 241300Z AUTO VRB02KT 7000 // OVC054/// 23/23 Q1016","temp":23,"dewp":23,"wdir":"VRB","wspd":2,"visib":4.35,"altim":1016,"clouds":[{"cover":"OVC","base":5400}],"obsTime":1777035600},"SBPB":{"icaoId":"SBPB","flightCategory":"VFR","rawOb":"METAR SBPB 241300Z 09010KT 9999 FEW020 31/25 Q1012","temp":31,"dewp":25,"wdir":90,"wspd":10,"visib":"6+","altim":1012,"clouds":[{"cover":"FEW","base":2000}],"obsTime":1777035600},"SBPL":{"icaoId":"SBPL","flightCategory":"MVFR","rawOb":"SPECI SBPL 241233Z 10006KT 9999 BKN015 26/23 Q1016","temp":26,"dewp":23,"wdir":100,"wspd":6,"visib":"6+","altim":1016,"clouds":[{"cover":"BKN","base":1500}],"obsTime":1777033980},"SBVH":{"icaoId":"SBVH","flightCategory":"MVFR","rawOb":"METAR SBVH 241300Z 08006KT 7000 SCT020 BKN061 23/22 Q1017","temp":23,"dewp":22,"wdir":80,"wspd":6,"visib":4.35,"altim":1017,"clouds":[{"cover":"SCT","base":2000},{"cover":"BKN","base":6100}],"obsTime":1777035600},"SBAR":{"icaoId":"SBAR","flightCategory":"MVFR","rawOb":"METAR SBAR 241300Z 04003KT 9999 VCSH BKN020 FEW024TCU 28/24 Q1014","temp":28,"dewp":24,"wdir":40,"wspd":3,"visib":"6+","altim":1014,"clouds":[{"cover":"BKN","base":2000},{"cover":"FEW","base":2400}],"obsTime":1777035600},"SBPP":{"icaoId":"SBPP","flightCategory":"VFR","rawOb":"METAR SBPP 241300Z 08011KT CAVOK 24/16 Q1018","temp":24,"dewp":16,"wdir":80,"wspd":11,"visib":"6+","altim":1018,"clouds":[],"obsTime":1777035600},"SBCJ":{"icaoId":"SBCJ","flightCategory":"VFR","rawOb":"METAR SBCJ 241300Z 00000KT 9999 SCT009 SCT011 25/22 Q1018","temp":25,"dewp":22,"wdir":0,"wspd":0,"visib":"6+","altim":1018,"clouds":[{"cover":"SCT","base":900},{"cover":"SCT","base":1100}],"obsTime":1777035600},"SBPS":{"icaoId":"SBPS","flightCategory":"MVFR","rawOb":"METAR SBPS 241300Z 15005KT 8000 BKN017 FEW025TCU OVC040 27/24 Q1017","temp":27,"dewp":24,"wdir":150,"wspd":5,"visib":4.97,"altim":1017,"clouds":[{"cover":"BKN","base":1700},{"cover":"FEW","base":2500},{"cover":"OVC","base":4000}],"obsTime":1777035600},"SBBQ":{"icaoId":"SBBQ","flightCategory":"VFR","rawOb":"METAR SBBQ 241300Z 07005KT 9999 FEW020 21/13 Q1026","temp":21,"dewp":13,"wdir":70,"wspd":5,"visib":"6+","altim":1026,"clouds":[{"cover":"FEW","base":2000}],"obsTime":1777035600},"SBCO":{"icaoId":"SBCO","flightCategory":"IFR","rawOb":"METAR SBCO 241300Z 10011KT 6000 -RA BKN007 OVC023 20/19 Q1017","temp":20,"dewp":19,"wdir":100,"wspd":11,"visib":3.73,"altim":1017,"clouds":[{"cover":"BKN","base":700},{"cover":"OVC","base":2300}],"obsTime":1777035600},"SBSC":{"icaoId":"SBSC","flightCategory":"VFR","rawOb":"METAR SBSC 241300Z 01008KT CAVOK 27/20 Q1019","temp":27,"dewp":20,"wdir":10,"wspd":8,"visib":"6+","altim":1019,"clouds":[],"obsTime":1777035600},"SBAX":{"icaoId":"SBAX","flightCategory":"VFR","rawOb":"METAR SBAX 241300Z 05006KT CAVOK 22/16 Q1022","temp":22,"dewp":16,"wdir":50,"wspd":6,"visib":"6+","altim":1022,"clouds":[],"obsTime":1777035600},"SBSJ":{"icaoId":"SBSJ","flightCategory":"MVFR","rawOb":"SPECI SBSJ 241217Z 03005KT 330V100 7000 SCT013 21/17 Q1021","temp":21,"dewp":17,"wdir":30,"wspd":5,"visib":4.35,"altim":1021,"clouds":[{"cover":"SCT","base":1300}],"obsTime":1777033020},"SBUY":{"icaoId":"SBUY","flightCategory":"MVFR","rawOb":"METAR SBUY 241300Z 16004KT 9999 SCT005 BKN016 24/23 Q1013","temp":24,"dewp":23,"wdir":160,"wspd":4,"visib":"6+","altim":1013,"clouds":[{"cover":"SCT","base":500},{"cover":"BKN","base":1600}],"obsTime":1777035600},"SBDN":{"icaoId":"SBDN","flightCategory":"VFR","rawOb":"METAR SBDN 241300Z 09008KT CAVOK 26/17 Q1018","temp":26,"dewp":17,"wdir":90,"wspd":8,"visib":"6+","altim":1018,"clouds":[],"obsTime":1777035600},"SBSM":{"icaoId":"SBSM","flightCategory":"IFR","rawOb":"METAR SBSM 241300Z 09010KT 9999 BKN005 SCT015 OVC045 19/18 Q1017 RERA","temp":19,"dewp":18,"wdir":90,"wspd":10,"visib":"6+","altim":1017,"clouds":[{"cover":"BKN","base":500},{"cover":"SCT","base":1500},{"cover":"OVC","base":4500}],"obsTime":1777035600},"SBBU":{"icaoId":"SBBU","flightCategory":"VFR","rawOb":"METAR SBBU 241300Z 10010KT CAVOK 25/18 Q1020","temp":25,"dewp":18,"wdir":100,"wspd":10,"visib":"6+","altim":1020,"clouds":[],"obsTime":1777035600},"SBSR":{"icaoId":"SBSR","flightCategory":"VFR","rawOb":"METAR SBSR 241300Z 09009KT 9999 SCT030 26/16 Q1019","temp":26,"dewp":16,"wdir":90,"wspd":9,"visib":"6+","altim":1019,"clouds":[{"cover":"SCT","base":3000}],"obsTime":1777035600},"SBES":{"icaoId":"SBES","flightCategory":"VFR","rawOb":"METAR SBES 241300Z VRB05KT 9999 FEW020 27/// Q1019","temp":null,"dewp":null,"wdir":"VRB","wspd":5,"visib":"6+","altim":1019,"clouds":[{"cover":"FEW","base":2000}],"obsTime":1777035600},"SBTD":{"icaoId":"SBTD","flightCategory":"VFR","rawOb":"METAR SBTD 241300Z /////KT CAVOK 24/17 Q1019","temp":24,"dewp":17,"wdir":null,"wspd":null,"visib":"6+","altim":1019,"clouds":[],"obsTime":1777035600},"SBAU":{"icaoId":"SBAU","flightCategory":"VFR","rawOb":"METAR SBAU 241300Z 09008KT CAVOK 27/19 Q1018","temp":27,"dewp":19,"wdir":90,"wspd":8,"visib":"6+","altim":1018,"clouds":[],"obsTime":1777035600},"SBTF":{"icaoId":"SBTF","flightCategory":"VFR","rawOb":"METAR SBTF 241300Z 00000KT 9999 FEW008 BKN090 28/26 Q1013","temp":28,"dewp":26,"wdir":0,"wspd":0,"visib":"6+","altim":1013,"clouds":[{"cover":"FEW","base":800},{"cover":"BKN","base":9000}],"obsTime":1777035600},"SBGM":{"icaoId":"SBGM","flightCategory":"VFR","rawOb":"METAR SBGM 241300Z 08005KT 040V120 CAVOK 28/22 Q1013","temp":28,"dewp":22,"wdir":80,"wspd":5,"visib":"6+","altim":1013,"clouds":[],"obsTime":1777035600},"SBTT":{"icaoId":"SBTT","flightCategory":"IFR","rawOb":"METAR SBTT 241300Z 22003KT 9999 BKN007 BKN018 23/20 Q1014","temp":23,"dewp":20,"wdir":220,"wspd":3,"visib":"6+","altim":1014,"clouds":[{"cover":"BKN","base":700},{"cover":"BKN","base":1800}],"obsTime":1777035600},"SBCA":{"icaoId":"SBCA","flightCategory":"VFR","rawOb":"METAR SBCA 241300Z 04012KT CAVOK 23/14 Q1020","temp":23,"dewp":14,"wdir":40,"wspd":12,"visib":"6+","altim":1020,"clouds":[],"obsTime":1777035600},"SBIP":{"icaoId":"SBIP","flightCategory":"MVFR","rawOb":"METAR SBIP 241300Z AUTO 02004KT 340V100 9999 BKN026 26/19 Q1020","temp":26,"dewp":19,"wdir":20,"wspd":4,"visib":"6+","altim":1020,"clouds":[{"cover":"BKN","base":2600}],"obsTime":1777035600},"SBAN":{"icaoId":"SBAN","flightCategory":"VFR","rawOb":"METAR SBAN 241300Z 12011KT 090V150 CAVOK 24/15 Q1023","temp":24,"dewp":15,"wdir":120,"wspd":11,"visib":"6+","altim":1023,"clouds":[],"obsTime":1777035600},"SBPF":{"icaoId":"SBPF","flightCategory":"VFR","rawOb":"METAR SBPF 241300Z 05010KT CAVOK 19/14 Q1020","temp":19,"dewp":14,"wdir":50,"wspd":10,"visib":"6+","altim":1020,"clouds":[],"obsTime":1777035600},"SBAF":{"icaoId":"SBAF","flightCategory":"VFR","rawOb":"METAR SBAF 241300Z 06003KT CAVOK 27/20 Q1019","temp":27,"dewp":20,"wdir":60,"wspd":3,"visib":"6+","altim":1019,"clouds":[],"obsTime":1777035600},"SBGW":{"icaoId":"SBGW","flightCategory":"MVFR","rawOb":"METAR SBGW 241300Z 03004KT 8000 SCT017 23/15 Q1021","temp":23,"dewp":15,"wdir":30,"wspd":4,"visib":4.97,"altim":1021,"clouds":[{"cover":"SCT","base":1700}],"obsTime":1777035600},"SBJR":{"icaoId":"SBJR","flightCategory":"VFR","rawOb":"METAR SBJR 241300Z 02002KT 9999 FEW030 31/20 Q1018","temp":31,"dewp":20,"wdir":20,"wspd":2,"visib":"6+","altim":1018,"clouds":[{"cover":"FEW","base":3000}],"obsTime":1777035600},"SBLS":{"icaoId":"SBLS","flightCategory":"MVFR","rawOb":"METAR SBLS 241300Z 15007KT 090V200 9999 BKN023 22/17 Q1022","temp":22,"dewp":17,"wdir":150,"wspd":7,"visib":"6+","altim":1022,"clouds":[{"cover":"BKN","base":2300}],"obsTime":1777035600},"SBLE":{"icaoId":"SBLE","flightCategory":"MVFR","rawOb":"METAR SBLE 241300Z AUTO 14006KT 110V180 9999 FEW011 SCT015 OVC017 ///// Q////","temp":null,"dewp":null,"wdir":140,"wspd":6,"visib":"6+","altim":null,"clouds":[{"cover":"FEW","base":1100},{"cover":"SCT","base":1500},{"cover":"OVC","base":1700}],"obsTime":1777035600},"SBMT":{"icaoId":"SBMT","flightCategory":"VFR","rawOb":"METAR SBMT 241300Z 08005KT 030V110 CAVOK 23/16 Q1022","temp":23,"dewp":16,"wdir":80,"wspd":5,"visib":"6+","altim":1022,"clouds":[],"obsTime":1777035600},"SBJV":{"icaoId":"SBJV","flightCategory":"VFR","rawOb":"METAR SBJV 241300Z 09003KT 9999 SCT016 25/21 Q1019","temp":25,"dewp":21,"wdir":90,"wspd":3,"visib":"6+","altim":1019,"clouds":[{"cover":"SCT","base":1600}],"obsTime":1777035600},"SBST":{"icaoId":"SBST","flightCategory":"VFR","rawOb":"METAR SBST 241300Z 02003KT CAVOK 25/22 Q1018","temp":25,"dewp":22,"wdir":20,"wspd":3,"visib":"6+","altim":1018,"clouds":[],"obsTime":1777035600},"SBJP":{"icaoId":"SBJP","flightCategory":"IFR","rawOb":"METAR SBJP 241300Z 15008KT 2000 -RA BKN010 OVC030 25/24 Q1013","temp":25,"dewp":24,"wdir":150,"wspd":8,"visib":1.24,"altim":1013,"clouds":[{"cover":"BKN","base":1000},{"cover":"OVC","base":3000}],"obsTime":1777035600},"SBTA":{"icaoId":"SBTA","flightCategory":"VFR","rawOb":"METAR SBTA 241300Z 06010KT 030V100 9999 FEW018 23/16 Q1021","temp":23,"dewp":16,"wdir":60,"wspd":10,"visib":"6+","altim":1021,"clouds":[{"cover":"FEW","base":1800}],"obsTime":1777035600},"SBNM":{"icaoId":"SBNM","flightCategory":"MVFR","rawOb":"METAR SBNM 241300Z 10002KT 8000 -RA SCT008 OVC025 20/19 Q1017 RETSRA","temp":20,"dewp":19,"wdir":100,"wspd":2,"visib":4.97,"altim":1017,"clouds":[{"cover":"SCT","base":800},{"cover":"OVC","base":2500}],"obsTime":1777035600},"SBIH":{"icaoId":"SBIH","flightCategory":"MVFR","rawOb":"METAR SBIH 241300Z 05004KT 9999 SCT010 BKN015 25/23 Q1014","temp":25,"dewp":23,"wdir":50,"wspd":4,"visib":"6+","altim":1014,"clouds":[{"cover":"SCT","base":1000},{"cover":"BKN","base":1500}],"obsTime":1777035600}}}