{"updated":1775037853,"count":64,"data":{"SBMA":{"icaoId":"SBMA","flightCategory":"VFR","rawOb":"METAR SBMA 010900Z 00000KT 9999 FEW012 BKN080 25/24 Q1009","temp":25,"dewp":24,"wdir":0,"wspd":0,"visib":"6+","altim":1009,"clouds":[{"cover":"FEW","base":1200},{"cover":"BKN","base":8000}],"obsTime":1775034000},"SBVT":{"icaoId":"SBVT","flightCategory":"VFR","rawOb":"METAR SBVT 010900Z 29001KT 9999 FEW018 23/23 Q1014","temp":23,"dewp":23,"wdir":290,"wspd":1,"visib":"6+","altim":1014,"clouds":[{"cover":"FEW","base":1800}],"obsTime":1775034000},"SBTE":{"icaoId":"SBTE","flightCategory":"IFR","rawOb":"METAR SBTE 010900Z 01004KT 9999 BKN007 BKN090 26/24 Q1010","temp":26,"dewp":24,"wdir":10,"wspd":4,"visib":"6+","altim":1010,"clouds":[{"cover":"BKN","base":700},{"cover":"BKN","base":9000}],"obsTime":1775034000},"SBBR":{"icaoId":"SBBR","flightCategory":"VFR","rawOb":"METAR SBBR 010900Z VRB01KT CAVOK 19/18 Q1016","temp":19,"dewp":18,"wdir":"VRB","wspd":1,"visib":"6+","altim":1016,"clouds":[],"obsTime":1775034000},"SBBV":{"icaoId":"SBBV","flightCategory":"MVFR","rawOb":"METAR SBBV 010900Z 08006KT 9999 FEW003 BKN020 FEW030TCU OVC080 23/23 Q1010","temp":23,"dewp":23,"wdir":80,"wspd":6,"visib":"6+","altim":1010,"clouds":[{"cover":"FEW","base":300},{"cover":"BKN","base":2000},{"cover":"FEW","base":3000},{"cover":"OVC","base":8000}],"obsTime":1775034000},"SBSV":{"icaoId":"SBSV","flightCategory":"VFR","rawOb":"METAR SBSV 010900Z 32002KT 9999 VCSH FEW022 FEW024TCU BKN071 25/22 Q1012","temp":25,"dewp":22,"wdir":320,"wspd":2,"visib":"6+","altim":1012,"clouds":[{"cover":"FEW","base":2200},{"cover":"FEW","base":2400},{"cover":"BKN","base":7100}],"obsTime":1775034000},"SBCB":{"icaoId":"SBCB","flightCategory":"VFR","rawOb":"METAR SBCB 010900Z 05010KT 9999 SCT015 24/23 Q1012","temp":24,"dewp":23,"wdir":50,"wspd":10,"visib":"6+","altim":1012,"clouds":[{"cover":"SCT","base":1500}],"obsTime":1775034000},"SBSP":{"icaoId":"SBSP","flightCategory":"MVFR","rawOb":"METAR SBSP 010900Z 11004KT 080V150 9999 OVC011 19/17 Q1016","temp":19,"dewp":17,"wdir":110,"wspd":4,"visib":"6+","altim":1016,"clouds":[{"cover":"OVC","base":1100}],"obsTime":1775034000},"SBCF":{"icaoId":"SBCF","flightCategory":"VFR","rawOb":"METAR SBCF 010900Z 21002KT 9999 BKN040 BKN090 18/17 Q1017","temp":18,"dewp":17,"wdir":210,"wspd":2,"visib":"6+","altim":1017,"clouds":[{"cover":"BKN","base":4000},{"cover":"BKN","base":9000}],"obsTime":1775034000},"SBSN":{"icaoId":"SBSN","flightCategory":"VFR","rawOb":"METAR SBSN 010900Z 06007KT 9999 SCT015 BKN080 26/24 Q1008","temp":26,"dewp":24,"wdir":60,"wspd":7,"visib":"6+","altim":1008,"clouds":[{"cover":"SCT","base":1500},{"cover":"BKN","base":8000}],"obsTime":1775034000},"SBSL":{"icaoId":"SBSL","flightCategory":"VFR","rawOb":"METAR SBSL 010900Z 08005KT 9999 FEW020 BKN080 26/24 Q1009","temp":26,"dewp":24,"wdir":80,"wspd":5,"visib":"6+","altim":1009,"clouds":[{"cover":"FEW","base":2000},{"cover":"BKN","base":8000}],"obsTime":1775034000},"SBCG":{"icaoId":"SBCG","flightCategory":"VFR","rawOb":"METAR SBCG 010900Z 04005KT 9999 FEW045 21/18 Q1011","temp":21,"dewp":18,"wdir":40,"wspd":5,"visib":"6+","altim":1011,"clouds":[{"cover":"FEW","base":4500}],"obsTime":1775034000},"SBCP":{"icaoId":"SBCP","flightCategory":"VFR","rawOb":"METAR SBCP 011000Z 05005KT 9999 FEW030 24/22 Q1013","temp":24,"dewp":22,"wdir":50,"wspd":5,"visib":"6+","altim":1013,"clouds":[{"cover":"FEW","base":3000}],"obsTime":1775037600},"SBSG":{"icaoId":"SBSG","flightCategory":"MVFR","rawOb":"METAR SBSG 010900Z 21003KT 180V240 8000 VCSH SCT011 BKN016 FEW023TCU 24/24 Q1010","temp":24,"dewp":24,"wdir":210,"wspd":3,"visib":4.97,"altim":1010,"clouds":[{"cover":"SCT","base":1100},{"cover":"BKN","base":1600},{"cover":"FEW","base":2300}],"obsTime":1775034000},"SBMO":{"icaoId":"SBMO","flightCategory":"IFR","rawOb":"METAR SBMO 010900Z 34002KT 3000 -DZ BR BKN012 24/24 Q1011","temp":24,"dewp":24,"wdir":340,"wspd":2,"visib":1.86,"altim":1011,"clouds":[{"cover":"BKN","base":1200}],"obsTime":1775034000},"SBLO":{"icaoId":"SBLO","flightCategory":"VFR","rawOb":"METAR SBLO 010900Z 21003KT 9999 SCT025 18/18 Q1012","temp":18,"dewp":18,"wdir":210,"wspd":3,"visib":"6+","altim":1012,"clouds":[{"cover":"SCT","base":2500}],"obsTime":1775034000},"SBCT":{"icaoId":"SBCT","flightCategory":"VFR","rawOb":"METAR SBCT 010900Z 04003KT 9999 FEW011 SCT100 15/15 Q1015","temp":15,"dewp":15,"wdir":40,"wspd":3,"visib":"6+","altim":1015,"clouds":[{"cover":"FEW","base":1100},{"cover":"SCT","base":10000}],"obsTime":1775034000},"SBRF":{"icaoId":"SBRF","flightCategory":"MVFR","rawOb":"METAR SBRF 010900Z 23006KT 190V260 9999 VCSH SCT011 BKN016 FEW025TCU OVC055 25/24 Q1010","temp":25,"dewp":24,"wdir":230,"wspd":6,"visib":"6+","altim":1010,"clouds":[{"cover":"SCT","base":1100},{"cover":"BKN","base":1600},{"cover":"FEW","base":2500},{"cover":"OVC","base":5500}],"obsTime":1775034000},"SBEG":{"icaoId":"SBEG","flightCategory":"MVFR","rawOb":"METAR SBEG 010900Z 14003KT 9999 -RA SCT004 BKN020 BKN090 24/23 Q1009","temp":24,"dewp":23,"wdir":140,"wspd":3,"visib":"6+","altim":1009,"clouds":[{"cover":"SCT","base":400},{"cover":"BKN","base":2000},{"cover":"BKN","base":9000}],"obsTime":1775034000},"SBFI":{"icaoId":"SBFI","flightCategory":"VFR","rawOb":"METAR SBFI 010900Z 10003KT 9999 FEW030 20/20 Q1009","temp":20,"dewp":20,"wdir":100,"wspd":3,"visib":"6+","altim":1009,"clouds":[{"cover":"FEW","base":3000}],"obsTime":1775034000},"SBFL":{"icaoId":"SBFL","flightCategory":"VFR","rawOb":"METAR SBFL 010900Z 29004KT CAVOK 21/19 Q1011","temp":21,"dewp":19,"wdir":290,"wspd":4,"visib":"6+","altim":1011,"clouds":[],"obsTime":1775034000},"SBBE":{"icaoId":"SBBE","flightCategory":"VFR","rawOb":"METAR SBBE 010900Z 03003KT 9999 SCT018 BKN080 25/25 Q1009","temp":25,"dewp":25,"wdir":30,"wspd":3,"visib":"6+","altim":1009,"clouds":[{"cover":"SCT","base":1800},{"cover":"BKN","base":8000}],"obsTime":1775034000},"SBFZ":{"icaoId":"SBFZ","flightCategory":"VFR","rawOb":"METAR SBFZ 010900Z VRB02KT 9999 FEW020 BKN070 26/23 Q1010","temp":26,"dewp":23,"wdir":"VRB","wspd":2,"visib":"6+","altim":1010,"clouds":[{"cover":"FEW","base":2000},{"cover":"BKN","base":7000}],"obsTime":1775034000},"SBRB":{"icaoId":"SBRB","flightCategory":"IFR","rawOb":"METAR SBRB 010900Z 33005KT 3000 -RA BR VCTS BKN006 FEW030CB 22/22 Q1010","temp":22,"dewp":22,"wdir":330,"wspd":5,"visib":1.86,"altim":1010,"clouds":[{"cover":"BKN","base":600},{"cover":"FEW","base":3000}],"obsTime":1775034000},"SBGL":{"icaoId":"SBGL","flightCategory":"VFR","rawOb":"METAR SBGL 010900Z 35003KT 320V030 9999 SCT010 BKN100 22/21 Q1011","temp":22,"dewp":21,"wdir":350,"wspd":3,"visib":"6+","altim":1011,"clouds":[{"cover":"SCT","base":1000},{"cover":"BKN","base":10000}],"obsTime":1775034000},"SBPV":{"icaoId":"SBPV","flightCategory":"IFR","rawOb":"METAR SBPV 010900Z 33004KT 9999 BKN005 24/23 Q1008","temp":24,"dewp":23,"wdir":330,"wspd":4,"visib":"6+","altim":1008,"clouds":[{"cover":"BKN","base":500}],"obsTime":1775034000},"SBGO":{"icaoId":"SBGO","flightCategory":"VFR","rawOb":"METAR SBGO 010900Z VRB02KT 9999 SCT040 FEW045TCU BKN100 21/19 Q1015","temp":21,"dewp":19,"wdir":"VRB","wspd":2,"visib":"6+","altim":1015,"clouds":[{"cover":"SCT","base":4000},{"cover":"FEW","base":4500},{"cover":"BKN","base":10000}],"obsTime":1775034000},"SBPJ":{"icaoId":"SBPJ","flightCategory":"VFR","rawOb":"METAR SBPJ 010900Z 14005KT 9999 FEW017 SCT100 23/21 Q1011","temp":23,"dewp":21,"wdir":140,"wspd":5,"visib":"6+","altim":1011,"clouds":[{"cover":"FEW","base":1700},{"cover":"SCT","base":10000}],"obsTime":1775034000},"SBPA":{"icaoId":"SBPA","flightCategory":"VFR","rawOb":"METAR SBPA 010900Z 08005KT CAVOK 20/19 Q1010","temp":20,"dewp":19,"wdir":80,"wspd":5,"visib":"6+","altim":1010,"clouds":[],"obsTime":1775034000},"SBGR":{"icaoId":"SBGR","flightCategory":"IFR","rawOb":"METAR SBGR 010900Z 07005KT 6000 BKN005 18/17 Q1015","temp":18,"dewp":17,"wdir":70,"wspd":5,"visib":3.73,"altim":1015,"clouds":[{"cover":"BKN","base":500}],"obsTime":1775034000},"SBMQ":{"icaoId":"SBMQ","flightCategory":"VFR","rawOb":"SPECI SBMQ 010825Z 28006KT 9999 SCT008 BKN050 OVC070 24/24 Q1009","temp":24,"dewp":24,"wdir":280,"wspd":6,"visib":"6+","altim":1009,"clouds":[{"cover":"SCT","base":800},{"cover":"BKN","base":5000},{"cover":"OVC","base":7000}],"obsTime":1775031900},"SBKP":{"icaoId":"SBKP","flightCategory":"VFR","rawOb":"METAR SBKP 010900Z 15005KT 9000 NSC 18/18 Q1014","temp":18,"dewp":18,"wdir":150,"wspd":5,"visib":5.59,"altim":1014,"clouds":[],"obsTime":1775034000},"SBME":{"icaoId":"SBME","flightCategory":"VFR","rawOb":"METAR SBME 010900Z 07005KT 9999 FEW020 24/22 Q1011","temp":24,"dewp":22,"wdir":70,"wspd":5,"visib":"6+","altim":1011,"clouds":[{"cover":"FEW","base":2000}],"obsTime":1775034000},"SBMG":{"icaoId":"SBMG","flightCategory":"VFR","rawOb":"METAR SBMG 010900Z AUTO 07006KT CAVOK 19/17 Q1011","temp":19,"dewp":17,"wdir":70,"wspd":6,"visib":"6+","altim":1011,"clouds":[],"obsTime":1775034000},"SBMK":{"icaoId":"SBMK","flightCategory":"VFR","rawOb":"METAR SBMK 010900Z 00000KT 9999 SCT035 BKN080 21/19 Q1015","temp":21,"dewp":19,"wdir":0,"wspd":0,"visib":"6+","altim":1015,"clouds":[{"cover":"SCT","base":3500},{"cover":"BKN","base":8000}],"obsTime":1775034000},"SBJU":{"icaoId":"SBJU","flightCategory":"VFR","rawOb":"METAR SBJU 010900Z 00000KT CAVOK 23/21 Q1013","temp":23,"dewp":21,"wdir":0,"wspd":0,"visib":"6+","altim":1013,"clouds":[],"obsTime":1775034000},"SBNT":{"icaoId":"SBNT","flightCategory":"LIFR","rawOb":"METAR SBNT 010900Z 18004KT 140V210 1500 R34R/1600U R16L/P2000N +RA BR BKN005 FEW025TCU OVC026 25/24 Q1010 RERA","temp":25,"dewp":24,"wdir":180,"wspd":4,"visib":0.93,"altim":1010,"clouds":[{"cover":"BKN","base":500},{"cover":"FEW","base":2500},{"cover":"OVC","base":2600}],"obsTime":1775034000},"SBUL":{"icaoId":"SBUL","flightCategory":"VFR","rawOb":"METAR SBUL 010900Z 10010KT CAVOK 19/17 Q1016","temp":19,"dewp":17,"wdir":100,"wspd":10,"visib":"6+","altim":1016,"clouds":[],"obsTime":1775034000},"SBUR":{"icaoId":"SBUR","flightCategory":"VFR","rawOb":"METAR SBUR 010900Z 02009KT CAVOK 19/16 Q1014","temp":19,"dewp":16,"wdir":20,"wspd":9,"visib":"6+","altim":1014,"clouds":[],"obsTime":1775034000},"SBAR":{"icaoId":"SBAR","flightCategory":"VFR","rawOb":"METAR SBAR 010900Z 13008KT 9999 FEW015 SCT070 28/23 Q1011","temp":28,"dewp":23,"wdir":130,"wspd":8,"visib":"6+","altim":1011,"clouds":[{"cover":"FEW","base":1500},{"cover":"SCT","base":7000}],"obsTime":1775034000},"SBOI":{"icaoId":"SBOI","flightCategory":"LIFR","rawOb":"SPECI SBOI 010805Z AUTO 00000KT 2200 // BKN001/// BKN004/// OVC023/// 23/23 Q1009","temp":23,"dewp":23,"wdir":0,"wspd":0,"visib":1.37,"altim":1009,"clouds":[{"cover":"BKN","base":100},{"cover":"BKN","base":400},{"cover":"OVC","base":2300}],"obsTime":1775030700},"SBPL":{"icaoId":"SBPL","flightCategory":"VFR","rawOb":"METAR SBPL 010900Z 13006KT 9999 FEW025 BKN100 25/22 Q1013","temp":25,"dewp":22,"wdir":130,"wspd":6,"visib":"6+","altim":1013,"clouds":[{"cover":"FEW","base":2500},{"cover":"BKN","base":10000}],"obsTime":1775034000},"SBPS":{"icaoId":"SBPS","flightCategory":"VFR","rawOb":"METAR SBPS 010900Z 25004KT 9999 FEW020 BKN100 23/23 Q1013","temp":23,"dewp":23,"wdir":250,"wspd":4,"visib":"6+","altim":1013,"clouds":[{"cover":"FEW","base":2000},{"cover":"BKN","base":10000}],"obsTime":1775034000},"SBSJ":{"icaoId":"SBSJ","flightCategory":"IFR","rawOb":"SPECI SBSJ 010830Z VRB01KT 5000 BR BKN007 BKN018 BKN100 18/18 Q1015","temp":18,"dewp":18,"wdir":"VRB","wspd":1,"visib":3.11,"altim":1015,"clouds":[{"cover":"BKN","base":700},{"cover":"BKN","base":1800},{"cover":"BKN","base":10000}],"obsTime":1775032200},"SBDN":{"icaoId":"SBDN","flightCategory":"VFR","rawOb":"METAR SBDN 010900Z 07002KT 9999 FEW020 21/19 Q1012","temp":21,"dewp":19,"wdir":70,"wspd":2,"visib":"6+","altim":1012,"clouds":[{"cover":"FEW","base":2000}],"obsTime":1775034000},"SBES":{"icaoId":"SBES","flightCategory":"VFR","rawOb":"METAR SBES 010900Z 05006KT 9999 FEW008 22/// Q1011","temp":null,"dewp":null,"wdir":50,"wspd":6,"visib":"6+","altim":1011,"clouds":[{"cover":"FEW","base":800}],"obsTime":1775034000},"SBIP":{"icaoId":"SBIP","flightCategory":"MVFR","rawOb":"METAR SBIP 010900Z AUTO VRB01KT 9999 OVC027 23/22 Q1015","temp":23,"dewp":22,"wdir":"VRB","wspd":1,"visib":"6+","altim":1015,"clouds":[{"cover":"OVC","base":2700}],"obsTime":1775034000},"SBKG":{"icaoId":"SBKG","flightCategory":"IFR","rawOb":"METAR SBKG 010900Z 15003KT 8000 BKN005 BKN070 23/22 Q1013","temp":23,"dewp":22,"wdir":150,"wspd":3,"visib":4.97,"altim":1013,"clouds":[{"cover":"BKN","base":500},{"cover":"BKN","base":7000}],"obsTime":1775034000},"SBBU":{"icaoId":"SBBU","flightCategory":"MVFR","rawOb":"METAR SBBU 010900Z 10006KT 9999 BKN010 20/20 Q1013","temp":20,"dewp":20,"wdir":100,"wspd":6,"visib":"6+","altim":1013,"clouds":[{"cover":"BKN","base":1000}],"obsTime":1775034000},"SBBH":{"icaoId":"SBBH","flightCategory":"VFR","rawOb":"METAR SBBH 010900Z 10002KT 9999 FEW046 SCT100 18/17 Q1017","temp":18,"dewp":17,"wdir":100,"wspd":2,"visib":"6+","altim":1017,"clouds":[{"cover":"FEW","base":4600},{"cover":"SCT","base":10000}],"obsTime":1775034000},"SBCO":{"icaoId":"SBCO","flightCategory":"VFR","rawOb":"METAR SBCO 010900Z 06002KT CAVOK 18/18 Q1010","temp":18,"dewp":18,"wdir":60,"wspd":2,"visib":"6+","altim":1010,"clouds":[],"obsTime":1775034000},"SBSM":{"icaoId":"SBSM","flightCategory":"VFR","rawOb":"METAR SBSM 010900Z 11005KT 070V140 9999 SCT006 SCT060 20/20 Q1010","temp":20,"dewp":20,"wdir":110,"wspd":5,"visib":"6+","altim":1010,"clouds":[{"cover":"SCT","base":600},{"cover":"SCT","base":6000}],"obsTime":1775034000},"SBSC":{"icaoId":"SBSC","flightCategory":"VFR","rawOb":"METAR SBSC 010900Z 03006KT 9999 FEW025 23/21 Q1012","temp":23,"dewp":21,"wdir":30,"wspd":6,"visib":"6+","altim":1012,"clouds":[{"cover":"FEW","base":2500}],"obsTime":1775034000},"SBSR":{"icaoId":"SBSR","flightCategory":"VFR","rawOb":"METAR SBSR 010900Z 04003KT CAVOK 20/18 Q1012","temp":20,"dewp":18,"wdir":40,"wspd":3,"visib":"6+","altim":1012,"clouds":[],"obsTime":1775034000},"SBAX":{"icaoId":"SBAX","flightCategory":"VFR","rawOb":"METAR SBAX 010900Z AUTO 06004KT 9999 SCT031 ///// Q1017","temp":null,"dewp":null,"wdir":60,"wspd":4,"visib":"6+","altim":1017,"clouds":[{"cover":"SCT","base":3100}],"obsTime":1775034000},"SBJP":{"icaoId":"SBJP","flightCategory":"VFR","rawOb":"METAR SBJP 010900Z 30003KT 9999 SCT015 BKN070 25/24 Q1012","temp":25,"dewp":24,"wdir":300,"wspd":3,"visib":"6+","altim":1012,"clouds":[{"cover":"SCT","base":1500},{"cover":"BKN","base":7000}],"obsTime":1775034000},"SBMT":{"icaoId":"SBMT","flightCategory":"MVFR","rawOb":"METAR SBMT 010900Z 09005KT 5000 BR FEW009 BKN011 18/17 Q1015","temp":18,"dewp":17,"wdir":90,"wspd":5,"visib":3.11,"altim":1015,"clouds":[{"cover":"FEW","base":900},{"cover":"BKN","base":1100}],"obsTime":1775034000},"SBTA":{"icaoId":"SBTA","flightCategory":"MVFR","rawOb":"METAR SBTA 010900Z VRB01KT 5000 BR SCT002 BKN011 BKN100 19/19 Q1014","temp":19,"dewp":19,"wdir":"VRB","wspd":1,"visib":3.11,"altim":1014,"clouds":[{"cover":"SCT","base":200},{"cover":"BKN","base":1100},{"cover":"BKN","base":10000}],"obsTime":1775034000},"SBJV":{"icaoId":"SBJV","flightCategory":"VFR","rawOb":"METAR SBJV 010900Z 27003KT 9999 BCFG FEW003 19/19 Q1011","temp":19,"dewp":19,"wdir":270,"wspd":3,"visib":"6+","altim":1011,"clouds":[{"cover":"FEW","base":300}],"obsTime":1775034000},"SBGW":{"icaoId":"SBGW","flightCategory":"IFR","rawOb":"METAR SBGW 010900Z 00000KT 3000 BR BKN011 BKN030 20/16 Q1014","temp":20,"dewp":16,"wdir":0,"wspd":0,"visib":1.86,"altim":1014,"clouds":[{"cover":"BKN","base":1100},{"cover":"BKN","base":3000}],"obsTime":1775034000},"SBAN":{"icaoId":"SBAN","flightCategory":"VFR","rawOb":"METAR SBAN 010900Z 10003KT 9999 FEW040 SCT100 18/17 Q1017","temp":18,"dewp":17,"wdir":100,"wspd":3,"visib":"6+","altim":1017,"clouds":[{"cover":"FEW","base":4000},{"cover":"SCT","base":10000}],"obsTime":1775034000},"SBLE":{"icaoId":"SBLE","flightCategory":"MVFR","rawOb":"METAR SBLE 010900Z AUTO 01001KT 9999 OVC025 ///// Q////","temp":null,"dewp":null,"wdir":10,"wspd":1,"visib":"6+","altim":null,"clouds":[{"cover":"OVC","base":2500}],"obsTime":1775034000},"SBPF":{"icaoId":"SBPF","flightCategory":"VFR","rawOb":"METAR SBPF 010900Z 07010KT CAVOK 17/15 Q1013","temp":17,"dewp":15,"wdir":70,"wspd":10,"visib":"6+","altim":1013,"clouds":[],"obsTime":1775034000},"SBLS":{"icaoId":"SBLS","flightCategory":"VFR","rawOb":"METAR SBLS 010900Z 18004KT 120V180 9999 BCFG FEW010 BKN100 18/17 Q1016","temp":18,"dewp":17,"wdir":180,"wspd":4,"visib":"6+","altim":1016,"clouds":[{"cover":"FEW","base":1000},{"cover":"BKN","base":10000}],"obsTime":1775034000}}}