{"updated":1774874756,"count":85,"data":{"SBCT":{"icaoId":"SBCT","flightCategory":"IFR","rawOb":"METAR SBCT 301100Z 19003KT 3500 BR OVC005 18/18 Q1020","temp":18,"dewp":18,"wdir":190,"wspd":3,"visib":2.17,"altim":1020,"clouds":[{"cover":"OVC","base":500}],"obsTime":1774868400},"SBEG":{"icaoId":"SBEG","flightCategory":"VFR","rawOb":"METAR SBEG 301100Z 13002KT 9999 SCT010 SCT100 25/24 Q1012","temp":25,"dewp":24,"wdir":130,"wspd":2,"visib":"6+","altim":1012,"clouds":[{"cover":"SCT","base":1000},{"cover":"SCT","base":10000}],"obsTime":1774868400},"SBME":{"icaoId":"SBME","flightCategory":"VFR","rawOb":"METAR SBME 301100Z 33002KT CAVOK 27/22 Q1014","temp":27,"dewp":22,"wdir":330,"wspd":2,"visib":"6+","altim":1014,"clouds":[],"obsTime":1774868400},"SBMG":{"icaoId":"SBMG","flightCategory":"VFR","rawOb":"METAR SBMG 301100Z 15002KT CAVOK 24/19 Q1016","temp":24,"dewp":19,"wdir":150,"wspd":2,"visib":"6+","altim":1016,"clouds":[],"obsTime":1774868400},"SBBV":{"icaoId":"SBBV","flightCategory":"VFR","rawOb":"METAR SBBV 301100Z 08008KT 9999 SCT025 FEW030TCU BKN070 26/21 Q1012","temp":26,"dewp":21,"wdir":80,"wspd":8,"visib":"6+","altim":1012,"clouds":[{"cover":"SCT","base":2500},{"cover":"FEW","base":3000},{"cover":"BKN","base":7000}],"obsTime":1774868400},"SBMK":{"icaoId":"SBMK","flightCategory":"VFR","rawOb":"METAR SBMK 301100Z VRB02KT CAVOK 22/19 Q1018","temp":22,"dewp":19,"wdir":"VRB","wspd":2,"visib":"6+","altim":1018,"clouds":[],"obsTime":1774868400},"SBFI":{"icaoId":"SBFI","flightCategory":"VFR","rawOb":"METAR SBFI 301100Z 12004KT CAVOK 23/23 Q1016","temp":23,"dewp":23,"wdir":120,"wspd":4,"visib":"6+","altim":1016,"clouds":[],"obsTime":1774868400},"SBCG":{"icaoId":"SBCG","flightCategory":"VFR","rawOb":"METAR SBCG 301100Z VRB02KT CAVOK 25/19 Q1017","temp":25,"dewp":19,"wdir":"VRB","wspd":2,"visib":"6+","altim":1017,"clouds":[],"obsTime":1774868400},"SBMO":{"icaoId":"SBMO","flightCategory":"VFR","rawOb":"METAR SBMO 301100Z 30003KT 9999 SCT018 BKN060 25/24 Q1013","temp":25,"dewp":24,"wdir":300,"wspd":3,"visib":"6+","altim":1013,"clouds":[{"cover":"SCT","base":1800},{"cover":"BKN","base":6000}],"obsTime":1774868400},"SBFL":{"icaoId":"SBFL","flightCategory":"VFR","rawOb":"METAR SBFL 301100Z 33002KT 9999 FEW030 BKN100 26/23 Q1015","temp":26,"dewp":23,"wdir":330,"wspd":2,"visib":"6+","altim":1015,"clouds":[{"cover":"FEW","base":3000},{"cover":"BKN","base":10000}],"obsTime":1774868400},"SBMQ":{"icaoId":"SBMQ","flightCategory":"IFR","rawOb":"METAR SBMQ 301100Z 03004KT 350V080 3500 -RA BR FEW004 SCT007 OVC050 24/24 Q1012 RERA","temp":24,"dewp":24,"wdir":30,"wspd":4,"visib":2.17,"altim":1012,"clouds":[{"cover":"FEW","base":400},{"cover":"SCT","base":700},{"cover":"OVC","base":5000}],"obsTime":1774868400},"SBNT":{"icaoId":"SBNT","flightCategory":"VFR","rawOb":"METAR SBNT 301100Z 18006KT 150V220 9999 FEW023 28/23 Q1011","temp":28,"dewp":23,"wdir":180,"wspd":6,"visib":"6+","altim":1011,"clouds":[{"cover":"FEW","base":2300}],"obsTime":1774868400},"SBBR":{"icaoId":"SBBR","flightCategory":"VFR","rawOb":"METAR SBBR 301100Z VRB02KT CAVOK 21/16 Q1019","temp":21,"dewp":16,"wdir":"VRB","wspd":2,"visib":"6+","altim":1019,"clouds":[],"obsTime":1774868400},"SBFZ":{"icaoId":"SBFZ","flightCategory":"VFR","rawOb":"METAR SBFZ 301100Z 26004KT 9999 SCT020 BKN090 27/25 Q1011","temp":27,"dewp":25,"wdir":260,"wspd":4,"visib":"6+","altim":1011,"clouds":[{"cover":"SCT","base":2000},{"cover":"BKN","base":9000}],"obsTime":1774868400},"SBPA":{"icaoId":"SBPA","flightCategory":"MVFR","rawOb":"METAR SBPA 301100Z 17003KT 140V200 6000 FEW008 BKN010 BKN073 26/23 Q1016","temp":26,"dewp":23,"wdir":170,"wspd":3,"visib":3.73,"altim":1016,"clouds":[{"cover":"FEW","base":800},{"cover":"BKN","base":1000},{"cover":"BKN","base":7300}],"obsTime":1774868400},"SBCP":{"icaoId":"SBCP","flightCategory":"VFR","rawOb":"METAR SBCP 301100Z 31004KT 9999 FEW020 25/23 Q1015","temp":25,"dewp":23,"wdir":310,"wspd":4,"visib":"6+","altim":1015,"clouds":[{"cover":"FEW","base":2000}],"obsTime":1774868400},"SBPJ":{"icaoId":"SBPJ","flightCategory":"VFR","rawOb":"METAR SBPJ 301100Z 11003KT 9999 FEW009 BKN100 25/24 Q1014","temp":25,"dewp":24,"wdir":110,"wspd":3,"visib":"6+","altim":1014,"clouds":[{"cover":"FEW","base":900},{"cover":"BKN","base":10000}],"obsTime":1774868400},"SBGL":{"icaoId":"SBGL","flightCategory":"VFR","rawOb":"METAR SBGL 301100Z VRB02KT 9999 FEW012 26/22 Q1015","temp":26,"dewp":22,"wdir":"VRB","wspd":2,"visib":"6+","altim":1015,"clouds":[{"cover":"FEW","base":1200}],"obsTime":1774868400},"SBPV":{"icaoId":"SBPV","flightCategory":"VFR","rawOb":"METAR SBPV 301100Z 16002KT CAVOK 23/22 Q1013","temp":23,"dewp":22,"wdir":160,"wspd":2,"visib":"6+","altim":1013,"clouds":[],"obsTime":1774868400},"SBCB":{"icaoId":"SBCB","flightCategory":"VFR","rawOb":"METAR SBCB 301100Z 00000KT CAVOK 26/22 Q1015","temp":26,"dewp":22,"wdir":0,"wspd":0,"visib":"6+","altim":1015,"clouds":[],"obsTime":1774868400},"SBRB":{"icaoId":"SBRB","flightCategory":"LIFR","rawOb":"METAR SBRB 301100Z 15002KT 7000 BKN004 BKN100 23/23 Q1013","temp":23,"dewp":23,"wdir":150,"wspd":2,"visib":4.35,"altim":1013,"clouds":[{"cover":"BKN","base":400},{"cover":"BKN","base":10000}],"obsTime":1774868400},"SBGO":{"icaoId":"SBGO","flightCategory":"VFR","rawOb":"METAR SBGO 301100Z 13003KT CAVOK 22/18 Q1018","temp":22,"dewp":18,"wdir":130,"wspd":3,"visib":"6+","altim":1018,"clouds":[],"obsTime":1774868400},"SBRF":{"icaoId":"SBRF","flightCategory":"VFR","rawOb":"METAR SBRF 301100Z 23005KT 9999 SCT023 27/24 Q1012","temp":27,"dewp":24,"wdir":230,"wspd":5,"visib":"6+","altim":1012,"clouds":[{"cover":"SCT","base":2300}],"obsTime":1774868400},"SBCR":{"icaoId":"SBCR","flightCategory":"VFR","rawOb":"METAR SBCR 301100Z 13003KT CAVOK 26/21 Q1014","temp":26,"dewp":21,"wdir":130,"wspd":3,"visib":"6+","altim":1014,"clouds":[],"obsTime":1774868400},"SBSG":{"icaoId":"SBSG","flightCategory":"VFR","rawOb":"METAR SBSG 301100Z 20004KT 160V250 9999 FEW023 27/24 Q1012","temp":27,"dewp":24,"wdir":200,"wspd":4,"visib":"6+","altim":1012,"clouds":[{"cover":"FEW","base":2300}],"obsTime":1774868400},"SBGR":{"icaoId":"SBGR","flightCategory":"IFR","rawOb":"METAR SBGR 301100Z 05007KT 5000 BR OVC005 19/18 Q1019","temp":19,"dewp":18,"wdir":50,"wspd":7,"visib":3.11,"altim":1019,"clouds":[{"cover":"OVC","base":500}],"obsTime":1774868400},"SBSL":{"icaoId":"SBSL","flightCategory":"VFR","rawOb":"METAR SBSL 301100Z 13005KT 9999 FEW030 28/24 Q1011","temp":28,"dewp":24,"wdir":130,"wspd":5,"visib":"6+","altim":1011,"clouds":[{"cover":"FEW","base":3000}],"obsTime":1774868400},"SBHT":{"icaoId":"SBHT","flightCategory":"VFR","rawOb":"METAR SBHT 301100Z 00000KT 9999 FEW012 BKN090 24/23 Q1012","temp":24,"dewp":23,"wdir":0,"wspd":0,"visib":"6+","altim":1012,"clouds":[{"cover":"FEW","base":1200},{"cover":"BKN","base":9000}],"obsTime":1774868400},"SBSN":{"icaoId":"SBSN","flightCategory":"VFR","rawOb":"METAR SBSN 301100Z 10009KT 9999 -RA SCT010 OVC100 25/24 Q1011","temp":25,"dewp":24,"wdir":100,"wspd":9,"visib":"6+","altim":1011,"clouds":[{"cover":"SCT","base":1000},{"cover":"OVC","base":10000}],"obsTime":1774868400},"SBCF":{"icaoId":"SBCF","flightCategory":"VFR","rawOb":"METAR SBCF 301100Z 14007KT CAVOK 22/18 Q1019","temp":22,"dewp":18,"wdir":140,"wspd":7,"visib":"6+","altim":1019,"clouds":[],"obsTime":1774868400},"SBLO":{"icaoId":"SBLO","flightCategory":"VFR","rawOb":"METAR SBLO 301100Z 10003KT CAVOK 23/19 Q1018","temp":23,"dewp":19,"wdir":100,"wspd":3,"visib":"6+","altim":1018,"clouds":[],"obsTime":1774868400},"SBMA":{"icaoId":"SBMA","flightCategory":"IFR","rawOb":"METAR SBMA 301100Z 05005KT 9999 BKN008 BKN080 25/24 Q1012","temp":25,"dewp":24,"wdir":50,"wspd":5,"visib":"6+","altim":1012,"clouds":[{"cover":"BKN","base":800},{"cover":"BKN","base":8000}],"obsTime":1774868400},"SBSP":{"icaoId":"SBSP","flightCategory":"VFR","rawOb":"METAR SBSP 301100Z 08006KT CAVOK 21/18 Q1019","temp":21,"dewp":18,"wdir":80,"wspd":6,"visib":"6+","altim":1019,"clouds":[],"obsTime":1774868400},"SBSV":{"icaoId":"SBSV","flightCategory":"MVFR","rawOb":"METAR SBSV 301100Z 23007KT 210V270 5000 -SHRA BR SCT010 BKN015 FEW025TCU OVC040 25/24 Q1013","temp":25,"dewp":24,"wdir":230,"wspd":7,"visib":3.11,"altim":1013,"clouds":[{"cover":"SCT","base":1000},{"cover":"BKN","base":1500},{"cover":"FEW","base":2500},{"cover":"OVC","base":4000}],"obsTime":1774868400},"SBIL":{"icaoId":"SBIL","flightCategory":"VFR","rawOb":"METAR SBIL 301100Z 25004KT 9999 SCT020 BKN040 25/24 Q1014","temp":25,"dewp":24,"wdir":250,"wspd":4,"visib":"6+","altim":1014,"clouds":[{"cover":"SCT","base":2000},{"cover":"BKN","base":4000}],"obsTime":1774868400},"SBBE":{"icaoId":"SBBE","flightCategory":"VFR","rawOb":"METAR SBBE 301100Z COR 13002KT 9999 SCT008 27/25 Q1012","temp":27,"dewp":25,"wdir":130,"wspd":2,"visib":"6+","altim":1012,"clouds":[{"cover":"SCT","base":800}],"obsTime":1774868400},"SBTE":{"icaoId":"SBTE","flightCategory":"MVFR","rawOb":"METAR SBTE 301100Z 32005KT 9999 BKN015 26/24 Q1011","temp":26,"dewp":24,"wdir":320,"wspd":5,"visib":"6+","altim":1011,"clouds":[{"cover":"BKN","base":1500}],"obsTime":1774868400},"SBUL":{"icaoId":"SBUL","flightCategory":"VFR","rawOb":"METAR SBUL 301100Z 11006KT CAVOK 22/16 Q1019","temp":22,"dewp":16,"wdir":110,"wspd":6,"visib":"6+","altim":1019,"clouds":[],"obsTime":1774868400},"SBJU":{"icaoId":"SBJU","flightCategory":"VFR","rawOb":"METAR SBJU 301100Z 15008KT 9999 SCT020 27/21 Q1014","temp":27,"dewp":21,"wdir":150,"wspd":8,"visib":"6+","altim":1014,"clouds":[{"cover":"SCT","base":2000}],"obsTime":1774868400},"SBUR":{"icaoId":"SBUR","flightCategory":"VFR","rawOb":"METAR SBUR 301100Z 09005KT CAVOK 23/16 Q1019","temp":23,"dewp":16,"wdir":90,"wspd":5,"visib":"6+","altim":1019,"clouds":[],"obsTime":1774868400},"SBVT":{"icaoId":"SBVT","flightCategory":"VFR","rawOb":"METAR SBVT 301100Z 31003KT 240V340 9999 FEW025 FEW030TCU 25/23 Q1015","temp":25,"dewp":23,"wdir":310,"wspd":3,"visib":"6+","altim":1015,"clouds":[{"cover":"FEW","base":2500},{"cover":"FEW","base":3000}],"obsTime":1774868400},"SBAT":{"icaoId":"SBAT","flightCategory":"MVFR","rawOb":"METAR SBAT 301200Z 00000KT 9999 BKN015 23/23 Q1014","temp":23,"dewp":23,"wdir":0,"wspd":0,"visib":"6+","altim":1014,"clouds":[{"cover":"BKN","base":1500}],"obsTime":1774872000},"SBKP":{"icaoId":"SBKP","flightCategory":"MVFR","rawOb":"METAR SBKP 301100Z 11004KT 6000 NSC 21/18 Q1018","temp":21,"dewp":18,"wdir":110,"wspd":4,"visib":3.73,"altim":1018,"clouds":[],"obsTime":1774868400},"SBCZ":{"icaoId":"SBCZ","flightCategory":"IFR","rawOb":"METAR SBCZ 301200Z 00000KT 9999 BKN005 BKN100 23/22 Q1013","temp":23,"dewp":22,"wdir":0,"wspd":0,"visib":"6+","altim":1013,"clouds":[{"cover":"BKN","base":500},{"cover":"BKN","base":10000}],"obsTime":1774872000},"SBOI":{"icaoId":"SBOI","flightCategory":"VFR","rawOb":"METAR SBOI 301100Z AUTO VRB02KT 9999 SCT004 BKN031 25/25 Q1012","temp":25,"dewp":25,"wdir":"VRB","wspd":2,"visib":"6+","altim":1012,"clouds":[{"cover":"SCT","base":400},{"cover":"BKN","base":3100}],"obsTime":1774868400},"SBAX":{"icaoId":"SBAX","flightCategory":"VFR","rawOb":"METAR SBAX 301100Z 12004KT CAVOK 21/17 Q1020","temp":21,"dewp":17,"wdir":120,"wspd":4,"visib":"6+","altim":1020,"clouds":[],"obsTime":1774868400},"SBSM":{"icaoId":"SBSM","flightCategory":"LIFR","rawOb":"METAR SBSM 301100Z 00000KT 3000 BR OVC003 23/23 Q1016","temp":23,"dewp":23,"wdir":0,"wspd":0,"visib":1.86,"altim":1016,"clouds":[{"cover":"OVC","base":300}],"obsTime":1774868400},"SBBH":{"icaoId":"SBBH","flightCategory":"VFR","rawOb":"METAR SBBH 301100Z 10007KT 9999 SCT017 21/18 Q1019","temp":21,"dewp":18,"wdir":100,"wspd":7,"visib":"6+","altim":1019,"clouds":[{"cover":"SCT","base":1700}],"obsTime":1774868400},"SBBQ":{"icaoId":"SBBQ","flightCategory":"MVFR","rawOb":"METAR SBBQ 301200Z 06005KT 020V110 9999 BKN015 20/17 Q1023","temp":20,"dewp":17,"wdir":60,"wspd":5,"visib":"6+","altim":1023,"clouds":[{"cover":"BKN","base":1500}],"obsTime":1774872000},"SBBU":{"icaoId":"SBBU","flightCategory":"VFR","rawOb":"METAR SBBU 301100Z 10004KT CAVOK 24/21 Q1017","temp":24,"dewp":21,"wdir":100,"wspd":4,"visib":"6+","altim":1017,"clouds":[],"obsTime":1774868400},"SBCA":{"icaoId":"SBCA","flightCategory":"VFR","rawOb":"METAR SBCA 301100Z 19005KT CAVOK 22/18 Q1019","temp":22,"dewp":18,"wdir":190,"wspd":5,"visib":"6+","altim":1019,"clouds":[],"obsTime":1774868400},"SBCC":{"icaoId":"SBCC","flightCategory":"VFR","rawOb":"METAR SBCC 301100Z 36002KT CAVOK 24/21 Q1015","temp":24,"dewp":21,"wdir":360,"wspd":2,"visib":"6+","altim":1015,"clouds":[],"obsTime":1774868400},"SBCJ":{"icaoId":"SBCJ","flightCategory":"VFR","rawOb":"METAR SBCJ 301100Z 00000KT CAVOK 22/21 Q1016","temp":22,"dewp":21,"wdir":0,"wspd":0,"visib":"6+","altim":1016,"clouds":[],"obsTime":1774868400},"SBCO":{"icaoId":"SBCO","flightCategory":"IFR","rawOb":"METAR SBCO 301100Z COR 12002KT 4000 BR BKN010 BKN020 25/24 Q1016","temp":25,"dewp":24,"wdir":120,"wspd":2,"visib":2.49,"altim":1016,"clouds":[{"cover":"BKN","base":1000},{"cover":"BKN","base":2000}],"obsTime":1774868400},"SBDN":{"icaoId":"SBDN","flightCategory":"VFR","rawOb":"METAR SBDN 301100Z 00000KT CAVOK 24/18 Q1016","temp":24,"dewp":18,"wdir":0,"wspd":0,"visib":"6+","altim":1016,"clouds":[],"obsTime":1774868400},"SBES":{"icaoId":"SBES","flightCategory":"VFR","rawOb":"METAR SBES 301100Z VRB02KT 9999 FEW015 24/// Q1015","temp":null,"dewp":null,"wdir":"VRB","wspd":2,"visib":"6+","altim":1015,"clouds":[{"cover":"FEW","base":1500}],"obsTime":1774868400},"SBGM":{"icaoId":"SBGM","flightCategory":"LIFR","rawOb":"METAR SBGM 301200Z 13004KT 2000 BR BKN002 OVC010 23/22 Q1014","temp":23,"dewp":22,"wdir":130,"wspd":4,"visib":1.24,"altim":1014,"clouds":[{"cover":"BKN","base":200},{"cover":"OVC","base":1000}],"obsTime":1774872000},"SBIP":{"icaoId":"SBIP","flightCategory":"VFR","rawOb":"METAR SBIP 301100Z AUTO VRB02KT CAVOK 24/21 Q1017","temp":24,"dewp":21,"wdir":"VRB","wspd":2,"visib":"6+","altim":1017,"clouds":[],"obsTime":1774868400},"SBKG":{"icaoId":"SBKG","flightCategory":"VFR","rawOb":"METAR SBKG 301100Z 13006KT 080V230 9999 SCT018 25/22 Q1014","temp":25,"dewp":22,"wdir":130,"wspd":6,"visib":"6+","altim":1014,"clouds":[{"cover":"SCT","base":1800}],"obsTime":1774868400},"SBPB":{"icaoId":"SBPB","flightCategory":"VFR","rawOb":"METAR SBPB 301100Z 01002KT 9999 SCT016 BKN090 27/24 Q1011","temp":27,"dewp":24,"wdir":10,"wspd":2,"visib":"6+","altim":1011,"clouds":[{"cover":"SCT","base":1600},{"cover":"BKN","base":9000}],"obsTime":1774868400},"SBPL":{"icaoId":"SBPL","flightCategory":"VFR","rawOb":"METAR SBPL 301100Z 09006KT 9999 SCT020 BKN070 26/23 Q1014","temp":26,"dewp":23,"wdir":90,"wspd":6,"visib":"6+","altim":1014,"clouds":[{"cover":"SCT","base":2000},{"cover":"BKN","base":7000}],"obsTime":1774868400},"SBPP":{"icaoId":"SBPP","flightCategory":"VFR","rawOb":"SPECI SBPP 301115Z 00000KT CAVOK 26/20 Q1018","temp":26,"dewp":20,"wdir":0,"wspd":0,"visib":"6+","altim":1018,"clouds":[],"obsTime":1774869300},"SBPS":{"icaoId":"SBPS","flightCategory":"VFR","rawOb":"METAR SBPS 301100Z 24004KT 9999 SCT020 26/23 Q1015","temp":26,"dewp":23,"wdir":240,"wspd":4,"visib":"6+","altim":1015,"clouds":[{"cover":"SCT","base":2000}],"obsTime":1774868400},"SBSC":{"icaoId":"SBSC","flightCategory":"VFR","rawOb":"METAR SBSC 301100Z 04005KT CAVOK 26/22 Q1015","temp":26,"dewp":22,"wdir":40,"wspd":5,"visib":"6+","altim":1015,"clouds":[],"obsTime":1774868400},"SBSJ":{"icaoId":"SBSJ","flightCategory":"IFR","rawOb":"METAR SBSJ 301100Z 00000KT 4500 BR SCT009 BKN011 19/18 Q1019","temp":19,"dewp":18,"wdir":0,"wspd":0,"visib":2.8,"altim":1019,"clouds":[{"cover":"SCT","base":900},{"cover":"BKN","base":1100}],"obsTime":1774868400},"SBAR":{"icaoId":"SBAR","flightCategory":"MVFR","rawOb":"METAR SBAR 301100Z 04004KT 5000 -RA BR FEW008 SCT017 BKN030 25/24 Q1013","temp":25,"dewp":24,"wdir":40,"wspd":4,"visib":3.11,"altim":1013,"clouds":[{"cover":"FEW","base":800},{"cover":"SCT","base":1700},{"cover":"BKN","base":3000}],"obsTime":1774868400},"SBSR":{"icaoId":"SBSR","flightCategory":"VFR","rawOb":"METAR SBSR 301100Z 06004KT CAVOK 25/16 Q1017","temp":25,"dewp":16,"wdir":60,"wspd":4,"visib":"6+","altim":1017,"clouds":[],"obsTime":1774868400},"SBTD":{"icaoId":"SBTD","flightCategory":"VFR","rawOb":"METAR SBTD 301100Z /////KT CAVOK 24/19 Q1017","temp":24,"dewp":19,"wdir":null,"wspd":null,"visib":"6+","altim":1017,"clouds":[],"obsTime":1774868400},"SBTF":{"icaoId":"SBTF","flightCategory":"VFR","rawOb":"SPECI SBTF 301115Z 11003KT 9999 FEW040 SCT100 24/24 Q1011","temp":24,"dewp":24,"wdir":110,"wspd":3,"visib":"6+","altim":1011,"clouds":[{"cover":"FEW","base":4000},{"cover":"SCT","base":10000}],"obsTime":1774869300},"SBTT":{"icaoId":"SBTT","flightCategory":"LIFR","rawOb":"METAR SBTT 301100Z 33006KT 9999 BKN004 24/23 Q1011","temp":24,"dewp":23,"wdir":330,"wspd":6,"visib":"6+","altim":1011,"clouds":[{"cover":"BKN","base":400}],"obsTime":1774868400},"SBUY":{"icaoId":"SBUY","flightCategory":"VFR","rawOb":"METAR SBUY 301100Z 18002KT 9999 SCT010 23/22 Q1011","temp":23,"dewp":22,"wdir":180,"wspd":2,"visib":"6+","altim":1011,"clouds":[{"cover":"SCT","base":1000}],"obsTime":1774868400},"SBVH":{"icaoId":"SBVH","flightCategory":"VFR","rawOb":"METAR SBVH 301100Z 21003KT CAVOK 22/22 Q1017","temp":22,"dewp":22,"wdir":210,"wspd":3,"visib":"6+","altim":1017,"clouds":[],"obsTime":1774868400},"SBAF":{"icaoId":"SBAF","flightCategory":"VFR","rawOb":"METAR SBAF 301100Z 29001KT 9999 FEW020 26/25 Q1015","temp":26,"dewp":25,"wdir":290,"wspd":1,"visib":"6+","altim":1015,"clouds":[{"cover":"FEW","base":2000}],"obsTime":1774868400},"SBAN":{"icaoId":"SBAN","flightCategory":"VFR","rawOb":"METAR SBAN 301100Z 14007KT CAVOK 21/17 Q1020","temp":21,"dewp":17,"wdir":140,"wspd":7,"visib":"6+","altim":1020,"clouds":[],"obsTime":1774868400},"SBGW":{"icaoId":"SBGW","flightCategory":"IFR","rawOb":"METAR SBGW 301100Z 01003KT 340V050 3000 HZ OVC013 21/16 Q1018","temp":21,"dewp":16,"wdir":10,"wspd":3,"visib":1.86,"altim":1018,"clouds":[{"cover":"OVC","base":1300}],"obsTime":1774868400},"SBIH":{"icaoId":"SBIH","flightCategory":"VFR","rawOb":"METAR SBIH 301100Z 00000KT 9999 SCT010 BKN080 24/24 Q1011","temp":24,"dewp":24,"wdir":0,"wspd":0,"visib":"6+","altim":1011,"clouds":[{"cover":"SCT","base":1000},{"cover":"BKN","base":8000}],"obsTime":1774868400},"SBJP":{"icaoId":"SBJP","flightCategory":"VFR","rawOb":"METAR SBJP 301100Z 16006KT 9999 FEW020 27/24 Q1012","temp":27,"dewp":24,"wdir":160,"wspd":6,"visib":"6+","altim":1012,"clouds":[{"cover":"FEW","base":2000}],"obsTime":1774868400},"SBJR":{"icaoId":"SBJR","flightCategory":"VFR","rawOb":"METAR SBJR 301100Z 02002KT 9999 FEW030 28/23 Q1014","temp":28,"dewp":23,"wdir":20,"wspd":2,"visib":"6+","altim":1014,"clouds":[{"cover":"FEW","base":3000}],"obsTime":1774868400},"SBJV":{"icaoId":"SBJV","flightCategory":"IFR","rawOb":"METAR SBJV 301100Z 33002KT 9999 BKN009 OVC030 24/24 Q1016","temp":24,"dewp":24,"wdir":330,"wspd":2,"visib":"6+","altim":1016,"clouds":[{"cover":"BKN","base":900},{"cover":"OVC","base":3000}],"obsTime":1774868400},"SBLE":{"icaoId":"SBLE","flightCategory":"MVFR","rawOb":"METAR SBLE 301100Z AUTO 13004KT 100V170 9999 FEW006 SCT018 OVC023 ///// Q////","temp":null,"dewp":null,"wdir":130,"wspd":4,"visib":"6+","altim":null,"clouds":[{"cover":"FEW","base":600},{"cover":"SCT","base":1800},{"cover":"OVC","base":2300}],"obsTime":1774868400},"SBLS":{"icaoId":"SBLS","flightCategory":"VFR","rawOb":"METAR SBLS 301100Z 15011KT 9999 FEW028 21/18 Q1019","temp":21,"dewp":18,"wdir":150,"wspd":11,"visib":"6+","altim":1019,"clouds":[{"cover":"FEW","base":2800}],"obsTime":1774868400},"SBMT":{"icaoId":"SBMT","flightCategory":"IFR","rawOb":"METAR SBMT 301100Z 07004KT 050V110 6000 BKN009 SCT011 20/18 Q1018","temp":20,"dewp":18,"wdir":70,"wspd":4,"visib":3.73,"altim":1018,"clouds":[{"cover":"BKN","base":900},{"cover":"SCT","base":1100}],"obsTime":1774868400},"SBPF":{"icaoId":"SBPF","flightCategory":"VFR","rawOb":"METAR SBPF 301100Z 06006KT CAVOK 23/19 Q1019","temp":23,"dewp":19,"wdir":60,"wspd":6,"visib":"6+","altim":1019,"clouds":[],"obsTime":1774868400},"SBST":{"icaoId":"SBST","flightCategory":"VFR","rawOb":"METAR SBST 301100Z 24002KT CAVOK 22/21 Q1015","temp":22,"dewp":21,"wdir":240,"wspd":2,"visib":"6+","altim":1015,"clouds":[],"obsTime":1774868400},"SBTA":{"icaoId":"SBTA","flightCategory":"IFR","rawOb":"METAR SBTA 301100Z 05003KT 010V100 5000 BR OVC008 19/19 Q1017","temp":19,"dewp":19,"wdir":50,"wspd":3,"visib":3.11,"altim":1017,"clouds":[{"cover":"OVC","base":800}],"obsTime":1774868400}}}