{"updated":1782687008,"count":83,"data":{"SBBE":{"icaoId":"SBBE","flightCategory":"MVFR","rawOb":"METAR SBBE 282100Z 06012KT 9999 3000S -RA SCT010 BKN030 FEW033TCU BKN070 26/24 Q1012","temp":26,"dewp":24,"wdir":60,"wspd":12,"visib":"6+","altim":1012,"clouds":[{"cover":"SCT","base":1000},{"cover":"BKN","base":3000},{"cover":"FEW","base":3300},{"cover":"BKN","base":7000}],"obsTime":1782680400},"SBCZ":{"icaoId":"SBCZ","flightCategory":"MVFR","rawOb":"METAR SBCZ 282100Z 08003KT 9999 BKN030 30/21 Q1013","temp":30,"dewp":21,"wdir":80,"wspd":3,"visib":"6+","altim":1013,"clouds":[{"cover":"BKN","base":3000}],"obsTime":1782680400},"SBNT":{"icaoId":"SBNT","flightCategory":"VFR","rawOb":"METAR SBNT 282100Z 15007KT CAVOK 25/22 Q1014","temp":25,"dewp":22,"wdir":150,"wspd":7,"visib":"6+","altim":1014,"clouds":[],"obsTime":1782680400},"SBME":{"icaoId":"SBME","flightCategory":"VFR","rawOb":"METAR SBME 282100Z 04010KT CAVOK 24/19 Q1019","temp":24,"dewp":19,"wdir":40,"wspd":10,"visib":"6+","altim":1019,"clouds":[],"obsTime":1782680400},"SBRF":{"icaoId":"SBRF","flightCategory":"VFR","rawOb":"METAR SBRF 282100Z 17007KT 9999 FEW025 26/21 Q1015","temp":26,"dewp":21,"wdir":170,"wspd":7,"visib":"6+","altim":1015,"clouds":[{"cover":"FEW","base":2500}],"obsTime":1782680400},"SBSN":{"icaoId":"SBSN","flightCategory":"VFR","rawOb":"METAR SBSN 282100Z 13003KT 9999 FEW020 FEW025TCU SCT073 BKN090 27/25 Q1011","temp":27,"dewp":25,"wdir":130,"wspd":3,"visib":"6+","altim":1011,"clouds":[{"cover":"FEW","base":2000},{"cover":"FEW","base":2500},{"cover":"SCT","base":7300},{"cover":"BKN","base":9000}],"obsTime":1782680400},"SBMK":{"icaoId":"SBMK","flightCategory":"VFR","rawOb":"METAR SBMK 282100Z 08006KT CAVOK 23/12 Q1021","temp":23,"dewp":12,"wdir":80,"wspd":6,"visib":"6+","altim":1021,"clouds":[],"obsTime":1782680400},"SBLO":{"icaoId":"SBLO","flightCategory":"VFR","rawOb":"METAR SBLO 282100Z 05005KT 9999 FEW030 24/19 Q1017","temp":24,"dewp":19,"wdir":50,"wspd":5,"visib":"6+","altim":1017,"clouds":[{"cover":"FEW","base":3000}],"obsTime":1782680400},"SBUL":{"icaoId":"SBUL","flightCategory":"VFR","rawOb":"METAR SBUL 282100Z 07007KT CAVOK 21/15 Q1021","temp":21,"dewp":15,"wdir":70,"wspd":7,"visib":"6+","altim":1021,"clouds":[],"obsTime":1782680400},"SBMA":{"icaoId":"SBMA","flightCategory":"VFR","rawOb":"METAR SBMA 282100Z 06005KT 9999 FEW025 BKN080 32/21 Q1011","temp":32,"dewp":21,"wdir":60,"wspd":5,"visib":"6+","altim":1011,"clouds":[{"cover":"FEW","base":2500},{"cover":"BKN","base":8000}],"obsTime":1782680400},"SBCF":{"icaoId":"SBCF","flightCategory":"VFR","rawOb":"METAR SBCF 282100Z 08005KT CAVOK 21/12 Q1023","temp":21,"dewp":12,"wdir":80,"wspd":5,"visib":"6+","altim":1023,"clouds":[],"obsTime":1782680400},"SBFL":{"icaoId":"SBFL","flightCategory":"MVFR","rawOb":"METAR SBFL 282100Z 23006KT 180V280 8000 -RA VCTS FEW010 BKN015 OVC019 //////CB 19/18 Q1016","temp":19,"dewp":18,"wdir":230,"wspd":6,"visib":4.97,"altim":1016,"clouds":[{"cover":"FEW","base":1000},{"cover":"BKN","base":1500},{"cover":"OVC","base":1900}],"obsTime":1782680400},"SBGR":{"icaoId":"SBGR","flightCategory":"VFR","rawOb":"METAR SBGR 282100Z 09005KT CAVOK 22/17 Q1020","temp":22,"dewp":17,"wdir":90,"wspd":5,"visib":"6+","altim":1020,"clouds":[],"obsTime":1782680400},"SBMG":{"icaoId":"SBMG","flightCategory":"VFR","rawOb":"METAR SBMG 282100Z 02006KT CAVOK 23/19 Q1016","temp":23,"dewp":19,"wdir":20,"wspd":6,"visib":"6+","altim":1016,"clouds":[],"obsTime":1782680400},"SBUR":{"icaoId":"SBUR","flightCategory":"VFR","rawOb":"METAR SBUR 282100Z 01004KT CAVOK 25/15 Q1020","temp":25,"dewp":15,"wdir":10,"wspd":4,"visib":"6+","altim":1020,"clouds":[],"obsTime":1782680400},"SBSV":{"icaoId":"SBSV","flightCategory":"MVFR","rawOb":"METAR SBSV 282100Z 12010KT 7000 VCSH SCT021 FEW023TCU BKN050 25/23 Q1017","temp":25,"dewp":23,"wdir":120,"wspd":10,"visib":4.35,"altim":1017,"clouds":[{"cover":"SCT","base":2100},{"cover":"FEW","base":2300},{"cover":"BKN","base":5000}],"obsTime":1782680400},"SBSG":{"icaoId":"SBSG","flightCategory":"VFR","rawOb":"METAR SBSG 282100Z 13004KT 9999 FEW025 24/21 Q1014","temp":24,"dewp":21,"wdir":130,"wspd":4,"visib":"6+","altim":1014,"clouds":[{"cover":"FEW","base":2500}],"obsTime":1782680400},"SBMO":{"icaoId":"SBMO","flightCategory":"VFR","rawOb":"METAR SBMO 282100Z 06004KT CAVOK 24/21 Q1016","temp":24,"dewp":21,"wdir":60,"wspd":4,"visib":"6+","altim":1016,"clouds":[],"obsTime":1782680400},"SBKP":{"icaoId":"SBKP","flightCategory":"VFR","rawOb":"METAR SBKP 282100Z 01004KT CAVOK 24/15 Q1020","temp":24,"dewp":15,"wdir":10,"wspd":4,"visib":"6+","altim":1020,"clouds":[],"obsTime":1782680400},"SBTE":{"icaoId":"SBTE","flightCategory":"VFR","rawOb":"METAR SBTE 282100Z 13005KT 9999 FEW020 SCT080 30/21 Q1011","temp":30,"dewp":21,"wdir":130,"wspd":5,"visib":"6+","altim":1011,"clouds":[{"cover":"FEW","base":2000},{"cover":"SCT","base":8000}],"obsTime":1782680400},"SBMQ":{"icaoId":"SBMQ","flightCategory":"VFR","rawOb":"METAR SBMQ 282100Z 06006KT 9999 VCTS SCT030 FEW033CB BKN100 30/25 Q1011","temp":30,"dewp":25,"wdir":60,"wspd":6,"visib":"6+","altim":1011,"clouds":[{"cover":"SCT","base":3000},{"cover":"FEW","base":3300},{"cover":"BKN","base":10000}],"obsTime":1782680400},"SBRB":{"icaoId":"SBRB","flightCategory":"VFR","rawOb":"METAR SBRB 282100Z 05003KT 9999 SCT030 29/21 Q1013","temp":29,"dewp":21,"wdir":50,"wspd":3,"visib":"6+","altim":1013,"clouds":[{"cover":"SCT","base":3000}],"obsTime":1782680400},"SBCT":{"icaoId":"SBCT","flightCategory":"VFR","rawOb":"METAR SBCT 282100Z 31004KT 9999 FEW035 BKN100 20/16 Q1019","temp":20,"dewp":16,"wdir":310,"wspd":4,"visib":"6+","altim":1019,"clouds":[{"cover":"FEW","base":3500},{"cover":"BKN","base":10000}],"obsTime":1782680400},"SBFZ":{"icaoId":"SBFZ","flightCategory":"VFR","rawOb":"METAR SBFZ 282100Z 10007KT 9999 FEW020 BKN090 27/23 Q1013","temp":27,"dewp":23,"wdir":100,"wspd":7,"visib":"6+","altim":1013,"clouds":[{"cover":"FEW","base":2000},{"cover":"BKN","base":9000}],"obsTime":1782680400},"SBBR":{"icaoId":"SBBR","flightCategory":"VFR","rawOb":"METAR SBBR 282100Z 12007KT CAVOK 23/14 Q1022","temp":23,"dewp":14,"wdir":120,"wspd":7,"visib":"6+","altim":1022,"clouds":[],"obsTime":1782680400},"SBGL":{"icaoId":"SBGL","flightCategory":"VFR","rawOb":"METAR SBGL 282100Z 12005KT CAVOK 24/20 Q1017","temp":24,"dewp":20,"wdir":120,"wspd":5,"visib":"6+","altim":1017,"clouds":[],"obsTime":1782680400},"SBCG":{"icaoId":"SBCG","flightCategory":"VFR","rawOb":"METAR SBCG 282100Z 30006KT CAVOK 26/18 Q1017","temp":26,"dewp":18,"wdir":300,"wspd":6,"visib":"6+","altim":1017,"clouds":[],"obsTime":1782680400},"SBSL":{"icaoId":"SBSL","flightCategory":"VFR","rawOb":"METAR SBSL 282100Z 14002KT 9999 VCSH SCT020 FEW025TCU OVC070 25/24 Q1012","temp":25,"dewp":24,"wdir":140,"wspd":2,"visib":"6+","altim":1012,"clouds":[{"cover":"SCT","base":2000},{"cover":"FEW","base":2500},{"cover":"OVC","base":7000}],"obsTime":1782680400},"SBSP":{"icaoId":"SBSP","flightCategory":"VFR","rawOb":"METAR SBSP 282100Z 33007KT 290V350 CAVOK 23/14 Q1021","temp":23,"dewp":14,"wdir":330,"wspd":7,"visib":"6+","altim":1021,"clouds":[],"obsTime":1782680400},"SBBV":{"icaoId":"SBBV","flightCategory":"VFR","rawOb":"METAR SBBV 282100Z 05006KT 9999 SCT035 FEW040TCU SCT100 32/22 Q1010","temp":32,"dewp":22,"wdir":50,"wspd":6,"visib":"6+","altim":1010,"clouds":[{"cover":"SCT","base":3500},{"cover":"FEW","base":4000},{"cover":"SCT","base":10000}],"obsTime":1782680400},"SBEG":{"icaoId":"SBEG","flightCategory":"VFR","rawOb":"METAR SBEG 282100Z 09006KT 050V110 9999 VCSH FEW020 FEW025TCU 30/25 Q1010","temp":30,"dewp":25,"wdir":90,"wspd":6,"visib":"6+","altim":1010,"clouds":[{"cover":"FEW","base":2000},{"cover":"FEW","base":2500}],"obsTime":1782680400},"SBFI":{"icaoId":"SBFI","flightCategory":"MVFR","rawOb":"METAR SBFI 282100Z 16010KT 8000 VCTS VCSH SCT005 SCT015 FEW035CB BKN080 17/16 Q1015 RETS","temp":17,"dewp":16,"wdir":160,"wspd":10,"visib":4.97,"altim":1015,"clouds":[{"cover":"SCT","base":500},{"cover":"SCT","base":1500},{"cover":"FEW","base":3500},{"cover":"BKN","base":8000}],"obsTime":1782680400},"SBPA":{"icaoId":"SBPA","flightCategory":"VFR","rawOb":"METAR SBPA 282100Z 30005KT 9999 FEW045 BKN100 17/16 Q1012","temp":17,"dewp":16,"wdir":300,"wspd":5,"visib":"6+","altim":1012,"clouds":[{"cover":"FEW","base":4500},{"cover":"BKN","base":10000}],"obsTime":1782680400},"SBPJ":{"icaoId":"SBPJ","flightCategory":"VFR","rawOb":"METAR SBPJ 282100Z 16006KT CAVOK 32/16 Q1014","temp":32,"dewp":16,"wdir":160,"wspd":6,"visib":"6+","altim":1014,"clouds":[],"obsTime":1782680400},"SBIL":{"icaoId":"SBIL","flightCategory":"VFR","rawOb":"METAR SBIL 282100Z 19006KT 9999 SCT023 27/22 Q1019","temp":27,"dewp":22,"wdir":190,"wspd":6,"visib":"6+","altim":1019,"clouds":[{"cover":"SCT","base":2300}],"obsTime":1782680400},"SBPV":{"icaoId":"SBPV","flightCategory":"VFR","rawOb":"METAR SBPV 282100Z 24002KT 9999 SCT030 32/22 Q1010","temp":32,"dewp":22,"wdir":240,"wspd":2,"visib":"6+","altim":1010,"clouds":[{"cover":"SCT","base":3000}],"obsTime":1782680400},"SBCP":{"icaoId":"SBCP","flightCategory":"VFR","rawOb":"METAR SBCP 282100Z 08006KT CAVOK 23/20 Q1020","temp":23,"dewp":20,"wdir":80,"wspd":6,"visib":"6+","altim":1020,"clouds":[],"obsTime":1782680400},"SBVT":{"icaoId":"SBVT","flightCategory":"VFR","rawOb":"METAR SBVT 282100Z 04004KT 9999 FEW030 22/20 Q1020","temp":22,"dewp":20,"wdir":40,"wspd":4,"visib":"6+","altim":1020,"clouds":[{"cover":"FEW","base":3000}],"obsTime":1782680400},"SBJU":{"icaoId":"SBJU","flightCategory":"VFR","rawOb":"METAR SBJU 282100Z 04004KT CAVOK 28/18 Q1015","temp":28,"dewp":18,"wdir":40,"wspd":4,"visib":"6+","altim":1015,"clouds":[],"obsTime":1782680400},"SBGO":{"icaoId":"SBGO","flightCategory":"VFR","rawOb":"METAR SBGO 282100Z 08006KT CAVOK 27/13 Q1019","temp":27,"dewp":13,"wdir":80,"wspd":6,"visib":"6+","altim":1019,"clouds":[],"obsTime":1782680400},"SBHT":{"icaoId":"SBHT","flightCategory":"VFR","rawOb":"METAR SBHT 282100Z 00000KT 9999 FEW020 BKN100 27/26 Q1011","temp":27,"dewp":26,"wdir":0,"wspd":0,"visib":"6+","altim":1011,"clouds":[{"cover":"FEW","base":2000},{"cover":"BKN","base":10000}],"obsTime":1782680400},"SBCB":{"icaoId":"SBCB","flightCategory":"VFR","rawOb":"METAR SBCB 282100Z 09018KT CAVOK 24/20 Q1019","temp":24,"dewp":20,"wdir":90,"wspd":18,"visib":"6+","altim":1019,"clouds":[],"obsTime":1782680400},"SBCR":{"icaoId":"SBCR","flightCategory":"VFR","rawOb":"METAR SBCR 282100Z 35003KT 9999 FEW040 31/18 Q1013","temp":31,"dewp":18,"wdir":350,"wspd":3,"visib":"6+","altim":1013,"clouds":[{"cover":"FEW","base":4000}],"obsTime":1782680400},"SBAT":{"icaoId":"SBAT","flightCategory":"VFR","rawOb":"METAR SBAT 282100Z 15002KT 9999 SCT035 32/21 Q1012","temp":32,"dewp":21,"wdir":150,"wspd":2,"visib":"6+","altim":1012,"clouds":[{"cover":"SCT","base":3500}],"obsTime":1782680400},"SBTF":{"icaoId":"SBTF","flightCategory":"VFR","rawOb":"METAR SBTF 282100Z 25003KT 9999 FEW017 FEW025TCU BKN100 29/26 Q1010","temp":29,"dewp":26,"wdir":250,"wspd":3,"visib":"6+","altim":1010,"clouds":[{"cover":"FEW","base":1700},{"cover":"FEW","base":2500},{"cover":"BKN","base":10000}],"obsTime":1782680400},"SBAR":{"icaoId":"SBAR","flightCategory":"VFR","rawOb":"METAR SBAR 282100Z 15006KT 9999 FEW013 SCT045 25/23 Q1016","temp":25,"dewp":23,"wdir":150,"wspd":6,"visib":"6+","altim":1016,"clouds":[{"cover":"FEW","base":1300},{"cover":"SCT","base":4500}],"obsTime":1782680400},"SBUY":{"icaoId":"SBUY","flightCategory":"VFR","rawOb":"METAR SBUY 282100Z 00000KT 9999 FEW030 SCT100 29/25 Q1010","temp":29,"dewp":25,"wdir":0,"wspd":0,"visib":"6+","altim":1010,"clouds":[{"cover":"FEW","base":3000},{"cover":"SCT","base":10000}],"obsTime":1782680400},"SBKG":{"icaoId":"SBKG","flightCategory":"VFR","rawOb":"METAR SBKG 282100Z 14007KT CAVOK 23/16 Q1017","temp":23,"dewp":16,"wdir":140,"wspd":7,"visib":"6+","altim":1017,"clouds":[],"obsTime":1782680400},"SBTT":{"icaoId":"SBTT","flightCategory":"MVFR","rawOb":"METAR SBTT 282100Z 25005KT 9999 BKN022 28/23 Q1012","temp":28,"dewp":23,"wdir":250,"wspd":5,"visib":"6+","altim":1012,"clouds":[{"cover":"BKN","base":2200}],"obsTime":1782680400},"SBCA":{"icaoId":"SBCA","flightCategory":"MVFR","rawOb":"METAR SBCA 282100Z 35005KT 6000 -TSRA SCT005 SCT020 FEW040CB BKN100 20/18 Q1017","temp":20,"dewp":18,"wdir":350,"wspd":5,"visib":3.73,"altim":1017,"clouds":[{"cover":"SCT","base":500},{"cover":"SCT","base":2000},{"cover":"FEW","base":4000},{"cover":"BKN","base":10000}],"obsTime":1782680400},"SBCO":{"icaoId":"SBCO","flightCategory":"VFR","rawOb":"METAR SBCO 282100Z 32004KT 9999 FEW035 BKN100 16/15 Q1012","temp":16,"dewp":15,"wdir":320,"wspd":4,"visib":"6+","altim":1012,"clouds":[{"cover":"FEW","base":3500},{"cover":"BKN","base":10000}],"obsTime":1782680400},"SBSM":{"icaoId":"SBSM","flightCategory":"MVFR","rawOb":"METAR SBSM 282100Z 27008KT 9999 FEW007 BKN020 16/15 Q1015","temp":16,"dewp":15,"wdir":270,"wspd":8,"visib":"6+","altim":1015,"clouds":[{"cover":"FEW","base":700},{"cover":"BKN","base":2000}],"obsTime":1782680400},"SBVH":{"icaoId":"SBVH","flightCategory":"VFR","rawOb":"METAR SBVH 282100Z 10005KT 9999 SCT035 28/19 Q1015","temp":28,"dewp":19,"wdir":100,"wspd":5,"visib":"6+","altim":1015,"clouds":[{"cover":"SCT","base":3500}],"obsTime":1782680400},"SBAX":{"icaoId":"SBAX","flightCategory":"VFR","rawOb":"METAR SBAX 282100Z AUTO 05003KT CAVOK 22/14 Q1022","temp":22,"dewp":14,"wdir":50,"wspd":3,"visib":"6+","altim":1022,"clouds":[],"obsTime":1782680400},"SBBH":{"icaoId":"SBBH","flightCategory":"VFR","rawOb":"METAR SBBH 282100Z 08007KT CAVOK 21/13 Q1023","temp":21,"dewp":13,"wdir":80,"wspd":7,"visib":"6+","altim":1023,"clouds":[],"obsTime":1782680400},"SBBU":{"icaoId":"SBBU","flightCategory":"VFR","rawOb":"METAR SBBU 282100Z 31002KT CAVOK 26/17 Q1019","temp":26,"dewp":17,"wdir":310,"wspd":2,"visib":"6+","altim":1019,"clouds":[],"obsTime":1782680400},"SBDN":{"icaoId":"SBDN","flightCategory":"VFR","rawOb":"METAR SBDN 282100Z 00000KT CAVOK 27/17 Q1016","temp":27,"dewp":17,"wdir":0,"wspd":0,"visib":"6+","altim":1016,"clouds":[],"obsTime":1782680400},"SBPL":{"icaoId":"SBPL","flightCategory":"VFR","rawOb":"METAR SBPL 282100Z 11011KT 9999 SCT020 SCT070 26/20 Q1016","temp":26,"dewp":20,"wdir":110,"wspd":11,"visib":"6+","altim":1016,"clouds":[{"cover":"SCT","base":2000},{"cover":"SCT","base":7000}],"obsTime":1782680400},"SBIP":{"icaoId":"SBIP","flightCategory":"VFR","rawOb":"METAR SBIP 282100Z AUTO 00000KT CAVOK 19/17 Q1021","temp":19,"dewp":17,"wdir":0,"wspd":0,"visib":"6+","altim":1021,"clouds":[],"obsTime":1782680400},"SBSC":{"icaoId":"SBSC","flightCategory":"VFR","rawOb":"METAR SBSC 282100Z 02003KT CAVOK 24/18 Q1017","temp":24,"dewp":18,"wdir":20,"wspd":3,"visib":"6+","altim":1017,"clouds":[],"obsTime":1782680400},"SBSR":{"icaoId":"SBSR","flightCategory":"VFR","rawOb":"METAR SBSR 282100Z 03002KT CAVOK 27/14 Q1018","temp":27,"dewp":14,"wdir":30,"wspd":2,"visib":"6+","altim":1018,"clouds":[],"obsTime":1782680400},"SBOI":{"icaoId":"SBOI","flightCategory":"VFR","rawOb":"METAR SBOI 282100Z AUTO 34002KT CAVOK 26/25 Q1011","temp":26,"dewp":25,"wdir":340,"wspd":2,"visib":"6+","altim":1011,"clouds":[],"obsTime":1782680400},"SBSJ":{"icaoId":"SBSJ","flightCategory":"VFR","rawOb":"METAR SBSJ 282100Z 01002KT CAVOK 22/16 Q1020","temp":22,"dewp":16,"wdir":10,"wspd":2,"visib":"6+","altim":1020,"clouds":[],"obsTime":1782680400},"SBES":{"icaoId":"SBES","flightCategory":"VFR","rawOb":"METAR SBES 282100Z 06012KT CAVOK 23/// Q1019","temp":null,"dewp":null,"wdir":60,"wspd":12,"visib":"6+","altim":1019,"clouds":[],"obsTime":1782680400},"SBTU":{"icaoId":"SBTU","flightCategory":"VFR","rawOb":"METAR SBTU 282100Z AUTO 26004KT 9999 // OVC085/// ///// Q1013","temp":null,"dewp":null,"wdir":260,"wspd":4,"visib":"6+","altim":1013,"clouds":[{"cover":"OVC","base":8500}],"obsTime":1782680400},"SBPS":{"icaoId":"SBPS","flightCategory":"VFR","rawOb":"METAR SBPS 282100Z 24003KT 210V270 9999 SCT020 BKN070 22/21 Q1020","temp":22,"dewp":21,"wdir":240,"wspd":3,"visib":"6+","altim":1020,"clouds":[{"cover":"SCT","base":2000},{"cover":"BKN","base":7000}],"obsTime":1782680400},"SBPB":{"icaoId":"SBPB","flightCategory":"VFR","rawOb":"METAR SBPB 282100Z 09010KT 9999 SCT020 BKN100 27/24 Q1011","temp":27,"dewp":24,"wdir":90,"wspd":10,"visib":"6+","altim":1011,"clouds":[{"cover":"SCT","base":2000},{"cover":"BKN","base":10000}],"obsTime":1782680400},"SBCJ":{"icaoId":"SBCJ","flightCategory":"VFR","rawOb":"METAR SBCJ 282100Z 12004KT CAVOK 29/18 Q1015","temp":29,"dewp":18,"wdir":120,"wspd":4,"visib":"6+","altim":1015,"clouds":[],"obsTime":1782680400},"SBPP":{"icaoId":"SBPP","flightCategory":"MVFR","rawOb":"METAR SBPP 282100Z 35005KT 9999 BKN025 25/18 Q1016","temp":25,"dewp":18,"wdir":350,"wspd":5,"visib":"6+","altim":1016,"clouds":[{"cover":"BKN","base":2500}],"obsTime":1782680400},"SBNM":{"icaoId":"SBNM","flightCategory":"MVFR","rawOb":"METAR SBNM 282100Z AUTO 31007KT 9999 -RA OVC013 16/15 Q1016","temp":16,"dewp":15,"wdir":310,"wspd":7,"visib":"6+","altim":1016,"clouds":[{"cover":"OVC","base":1300}],"obsTime":1782680400},"SBLE":{"icaoId":"SBLE","flightCategory":"MVFR","rawOb":"METAR SBLE 282100Z AUTO 16004KT 130V200 9999 FEW005 BKN020 OVC035 ///// Q////","temp":null,"dewp":null,"wdir":160,"wspd":4,"visib":"6+","altim":null,"clouds":[{"cover":"FEW","base":500},{"cover":"BKN","base":2000},{"cover":"OVC","base":3500}],"obsTime":1782680400},"SBJP":{"icaoId":"SBJP","flightCategory":"VFR","rawOb":"METAR SBJP 282100Z 15006KT 9999 FEW030 25/22 Q1015","temp":25,"dewp":22,"wdir":150,"wspd":6,"visib":"6+","altim":1015,"clouds":[{"cover":"FEW","base":3000}],"obsTime":1782680400},"SBJV":{"icaoId":"SBJV","flightCategory":"VFR","rawOb":"METAR SBJV 282100Z 20001KT 9999 SCT030 21/19 Q1014","temp":21,"dewp":19,"wdir":200,"wspd":1,"visib":"6+","altim":1014,"clouds":[{"cover":"SCT","base":3000}],"obsTime":1782680400},"SBPF":{"icaoId":"SBPF","flightCategory":"VFR","rawOb":"METAR SBPF 282100Z 01003KT CAVOK 15/15 Q1018","temp":15,"dewp":15,"wdir":10,"wspd":3,"visib":"6+","altim":1018,"clouds":[],"obsTime":1782680400},"SBAN":{"icaoId":"SBAN","flightCategory":"VFR","rawOb":"METAR SBAN 282100Z 13004KT 9999 FEW030 22/14 Q1022","temp":22,"dewp":14,"wdir":130,"wspd":4,"visib":"6+","altim":1022,"clouds":[{"cover":"FEW","base":3000}],"obsTime":1782680400},"SBAF":{"icaoId":"SBAF","flightCategory":"VFR","rawOb":"METAR SBAF 282100Z 05003KT CAVOK 22/21 Q1017","temp":22,"dewp":21,"wdir":50,"wspd":3,"visib":"6+","altim":1017,"clouds":[],"obsTime":1782680400},"SBGW":{"icaoId":"SBGW","flightCategory":"VFR","rawOb":"METAR SBGW 282100Z 07005KT CAVOK 23/13 Q1019","temp":23,"dewp":13,"wdir":70,"wspd":5,"visib":"6+","altim":1019,"clouds":[],"obsTime":1782680400},"SBJR":{"icaoId":"SBJR","flightCategory":"VFR","rawOb":"METAR SBJR 282100Z 00000KT CAVOK 22/20 Q1017","temp":22,"dewp":20,"wdir":0,"wspd":0,"visib":"6+","altim":1017,"clouds":[],"obsTime":1782680400},"SBLS":{"icaoId":"SBLS","flightCategory":"VFR","rawOb":"METAR SBLS 282100Z 11005KT CAVOK 20/13 Q1023","temp":20,"dewp":13,"wdir":110,"wspd":5,"visib":"6+","altim":1023,"clouds":[],"obsTime":1782680400},"SBMT":{"icaoId":"SBMT","flightCategory":"VFR","rawOb":"METAR SBMT 282100Z 00000KT CAVOK 19/15 Q1020","temp":19,"dewp":15,"wdir":0,"wspd":0,"visib":"6+","altim":1020,"clouds":[],"obsTime":1782680400},"SBST":{"icaoId":"SBST","flightCategory":"IFR","rawOb":"METAR SBST 282100Z 16004KT 4000 BR OVC012 21/19 Q1017","temp":21,"dewp":19,"wdir":160,"wspd":4,"visib":2.49,"altim":1017,"clouds":[{"cover":"OVC","base":1200}],"obsTime":1782680400},"SBTA":{"icaoId":"SBTA","flightCategory":"VFR","rawOb":"METAR SBTA 282100Z 21001KT CAVOK 21/17 Q1019","temp":21,"dewp":17,"wdir":210,"wspd":1,"visib":"6+","altim":1019,"clouds":[],"obsTime":1782680400},"SBIH":{"icaoId":"SBIH","flightCategory":"VFR","rawOb":"METAR SBIH 282100Z 04003KT 9999 FEW020 BKN100 28/25 Q1010","temp":28,"dewp":25,"wdir":40,"wspd":3,"visib":"6+","altim":1010,"clouds":[{"cover":"FEW","base":2000},{"cover":"BKN","base":10000}],"obsTime":1782680400}}}