{"updated":1775697085,"count":62,"data":{"SBFZ":{"icaoId":"SBFZ","flightCategory":"VFR","rawOb":"METAR SBFZ 090000Z 07004KT 9999 FEW020 28/24 Q1012","temp":28,"dewp":24,"wdir":70,"wspd":4,"visib":"6+","altim":1012,"clouds":[{"cover":"FEW","base":2000}],"obsTime":1775692800},"SBMG":{"icaoId":"SBMG","flightCategory":"VFR","rawOb":"METAR SBMG 090000Z 24006KT 9999 FEW015 BKN035 22/20 Q1014","temp":22,"dewp":20,"wdir":240,"wspd":6,"visib":"6+","altim":1014,"clouds":[{"cover":"FEW","base":1500},{"cover":"BKN","base":3500}],"obsTime":1775692800},"SBCT":{"icaoId":"SBCT","flightCategory":"VFR","rawOb":"METAR SBCT 090000Z 28009KT 9999 FEW045 20/17 Q1015","temp":20,"dewp":17,"wdir":280,"wspd":9,"visib":"6+","altim":1015,"clouds":[{"cover":"FEW","base":4500}],"obsTime":1775692800},"SBMK":{"icaoId":"SBMK","flightCategory":"VFR","rawOb":"METAR SBMK 090000Z 34002KT 9999 FEW046 24/20 Q1016","temp":24,"dewp":20,"wdir":340,"wspd":2,"visib":"6+","altim":1016,"clouds":[{"cover":"FEW","base":4600}],"obsTime":1775692800},"SBMO":{"icaoId":"SBMO","flightCategory":"VFR","rawOb":"METAR SBMO 090000Z 36004KT 9999 FEW025 SCT070 25/24 Q1014","temp":25,"dewp":24,"wdir":360,"wspd":4,"visib":"6+","altim":1014,"clouds":[{"cover":"FEW","base":2500},{"cover":"SCT","base":7000}],"obsTime":1775692800},"SBGL":{"icaoId":"SBGL","flightCategory":"VFR","rawOb":"METAR SBGL 090000Z 31002KT 9999 FEW030 BKN100 29/23 Q1011","temp":29,"dewp":23,"wdir":310,"wspd":2,"visib":"6+","altim":1011,"clouds":[{"cover":"FEW","base":3000},{"cover":"BKN","base":10000}],"obsTime":1775692800},"SBGO":{"icaoId":"SBGO","flightCategory":"VFR","rawOb":"METAR SBGO 090000Z 10004KT 9999 FEW048 21/20 Q1018","temp":21,"dewp":20,"wdir":100,"wspd":4,"visib":"6+","altim":1018,"clouds":[{"cover":"FEW","base":4800}],"obsTime":1775692800},"SBMQ":{"icaoId":"SBMQ","flightCategory":"VFR","rawOb":"METAR SBMQ 090000Z 03008KT 9999 SCT021 SCT070 28/26 Q1012","temp":28,"dewp":26,"wdir":30,"wspd":8,"visib":"6+","altim":1012,"clouds":[{"cover":"SCT","base":2100},{"cover":"SCT","base":7000}],"obsTime":1775692800},"SBNT":{"icaoId":"SBNT","flightCategory":"VFR","rawOb":"METAR SBNT 090000Z 18007KT 150V210 9999 FEW023 SCT100 26/23 Q1013","temp":26,"dewp":23,"wdir":180,"wspd":7,"visib":"6+","altim":1013,"clouds":[{"cover":"FEW","base":2300},{"cover":"SCT","base":10000}],"obsTime":1775692800},"SBBR":{"icaoId":"SBBR","flightCategory":"VFR","rawOb":"METAR SBBR 090000Z 19006KT 170V240 9999 SCT010 SCT080 21/19 Q1020 RETS","temp":21,"dewp":19,"wdir":190,"wspd":6,"visib":"6+","altim":1020,"clouds":[{"cover":"SCT","base":1000},{"cover":"SCT","base":8000}],"obsTime":1775692800},"SBCF":{"icaoId":"SBCF","flightCategory":"VFR","rawOb":"METAR SBCF 090000Z 19004KT 9999 SCT030 BKN090 21/19 Q1018","temp":21,"dewp":19,"wdir":190,"wspd":4,"visib":"6+","altim":1018,"clouds":[{"cover":"SCT","base":3000},{"cover":"BKN","base":9000}],"obsTime":1775692800},"SBPA":{"icaoId":"SBPA","flightCategory":"VFR","rawOb":"METAR SBPA 090000Z 28008KT CAVOK 21/18 Q1011","temp":21,"dewp":18,"wdir":280,"wspd":8,"visib":"6+","altim":1011,"clouds":[],"obsTime":1775692800},"SBGR":{"icaoId":"SBGR","flightCategory":"VFR","rawOb":"METAR SBGR 090000Z 32008KT CAVOK 24/19 Q1016","temp":24,"dewp":19,"wdir":320,"wspd":8,"visib":"6+","altim":1016,"clouds":[],"obsTime":1775692800},"SBPJ":{"icaoId":"SBPJ","flightCategory":"VFR","rawOb":"METAR SBPJ 090000Z 11006KT 9999 VCTS FEW033CB 28/26 Q1011","temp":28,"dewp":26,"wdir":110,"wspd":6,"visib":"6+","altim":1011,"clouds":[{"cover":"FEW","base":3300}],"obsTime":1775692800},"SBEG":{"icaoId":"SBEG","flightCategory":"VFR","rawOb":"METAR SBEG 090000Z VRB01KT 9999 FEW025 26/25 Q1010","temp":26,"dewp":25,"wdir":"VRB","wspd":1,"visib":"6+","altim":1010,"clouds":[{"cover":"FEW","base":2500}],"obsTime":1775692800},"SBPV":{"icaoId":"SBPV","flightCategory":"VFR","rawOb":"METAR SBPV 090000Z 22002KT 9999 SCT010 25/23 Q1011","temp":25,"dewp":23,"wdir":220,"wspd":2,"visib":"6+","altim":1011,"clouds":[{"cover":"SCT","base":1000}],"obsTime":1775692800},"SBRB":{"icaoId":"SBRB","flightCategory":"IFR","rawOb":"METAR SBRB 090000Z 07006KT 9999 VCSH VCTS BKN009 FEW034CB SCT090 24/23 Q1012","temp":24,"dewp":23,"wdir":70,"wspd":6,"visib":"6+","altim":1012,"clouds":[{"cover":"BKN","base":900},{"cover":"FEW","base":3400},{"cover":"SCT","base":9000}],"obsTime":1775692800},"SBIL":{"icaoId":"SBIL","flightCategory":"VFR","rawOb":"METAR SBIL 090000Z 09005KT 9999 FEW020 28/24 Q1014","temp":28,"dewp":24,"wdir":90,"wspd":5,"visib":"6+","altim":1014,"clouds":[{"cover":"FEW","base":2000}],"obsTime":1775692800},"SBRF":{"icaoId":"SBRF","flightCategory":"VFR","rawOb":"METAR SBRF 090000Z VRB01KT 9999 SCT025 26/23 Q1013","temp":26,"dewp":23,"wdir":"VRB","wspd":1,"visib":"6+","altim":1013,"clouds":[{"cover":"SCT","base":2500}],"obsTime":1775692800},"SBFI":{"icaoId":"SBFI","flightCategory":"VFR","rawOb":"METAR SBFI 090000Z 21005KT CAVOK 20/19 Q1014","temp":20,"dewp":19,"wdir":210,"wspd":5,"visib":"6+","altim":1014,"clouds":[],"obsTime":1775692800},"SBJU":{"icaoId":"SBJU","flightCategory":"MVFR","rawOb":"METAR SBJU 090000Z 00000KT 9999 SCT012 BKN020 23/22 Q1016","temp":23,"dewp":22,"wdir":0,"wspd":0,"visib":"6+","altim":1016,"clouds":[{"cover":"SCT","base":1200},{"cover":"BKN","base":2000}],"obsTime":1775692800},"SBSG":{"icaoId":"SBSG","flightCategory":"VFR","rawOb":"METAR SBSG 090000Z 18005KT 140V220 9999 FEW012 SCT027 25/24 Q1014","temp":25,"dewp":24,"wdir":180,"wspd":5,"visib":"6+","altim":1014,"clouds":[{"cover":"FEW","base":1200},{"cover":"SCT","base":2700}],"obsTime":1775692800},"SBBE":{"icaoId":"SBBE","flightCategory":"VFR","rawOb":"METAR SBBE 090000Z 04004KT 9999 SCT020 BKN100 27/26 Q1012","temp":27,"dewp":26,"wdir":40,"wspd":4,"visib":"6+","altim":1012,"clouds":[{"cover":"SCT","base":2000},{"cover":"BKN","base":10000}],"obsTime":1775692800},"SBSL":{"icaoId":"SBSL","flightCategory":"VFR","rawOb":"METAR SBSL 090000Z 04010KT 9999 FEW013 27/24 Q1012","temp":27,"dewp":24,"wdir":40,"wspd":10,"visib":"6+","altim":1012,"clouds":[{"cover":"FEW","base":1300}],"obsTime":1775692800},"SBKP":{"icaoId":"SBKP","flightCategory":"VFR","rawOb":"METAR SBKP 090000Z 36005KT 9999 BKN035 24/19 Q1015","temp":24,"dewp":19,"wdir":360,"wspd":5,"visib":"6+","altim":1015,"clouds":[{"cover":"BKN","base":3500}],"obsTime":1775692800},"SBSN":{"icaoId":"SBSN","flightCategory":"VFR","rawOb":"METAR SBSN 090000Z 11002KT 9999 VCTS FEW020 FEW025CB 26/25 Q1010","temp":26,"dewp":25,"wdir":110,"wspd":2,"visib":"6+","altim":1010,"clouds":[{"cover":"FEW","base":2000},{"cover":"FEW","base":2500}],"obsTime":1775692800},"SBSP":{"icaoId":"SBSP","flightCategory":"VFR","rawOb":"METAR SBSP 090000Z 36008KT CAVOK 24/18 Q1016","temp":24,"dewp":18,"wdir":360,"wspd":8,"visib":"6+","altim":1016,"clouds":[],"obsTime":1775692800},"SBLO":{"icaoId":"SBLO","flightCategory":"VFR","rawOb":"METAR SBLO 090000Z 25003KT 180V320 9999 FEW035 BKN070 22/20 Q1015","temp":22,"dewp":20,"wdir":250,"wspd":3,"visib":"6+","altim":1015,"clouds":[{"cover":"FEW","base":3500},{"cover":"BKN","base":7000}],"obsTime":1775692800},"SBFL":{"icaoId":"SBFL","flightCategory":"VFR","rawOb":"METAR SBFL 090000Z 24003KT CAVOK 24/20 Q1009","temp":24,"dewp":20,"wdir":240,"wspd":3,"visib":"6+","altim":1009,"clouds":[],"obsTime":1775692800},"SBSV":{"icaoId":"SBSV","flightCategory":"VFR","rawOb":"METAR SBSV 090000Z 09008KT 9999 SCT023 SCT030 28/22 Q1014","temp":28,"dewp":22,"wdir":90,"wspd":8,"visib":"6+","altim":1014,"clouds":[{"cover":"SCT","base":2300},{"cover":"SCT","base":3000}],"obsTime":1775692800},"SBTE":{"icaoId":"SBTE","flightCategory":"VFR","rawOb":"METAR SBTE 090000Z 00000KT 9999 FEW020 BKN090 27/25 Q1011","temp":27,"dewp":25,"wdir":0,"wspd":0,"visib":"6+","altim":1011,"clouds":[{"cover":"FEW","base":2000},{"cover":"BKN","base":9000}],"obsTime":1775692800},"SBCG":{"icaoId":"SBCG","flightCategory":"VFR","rawOb":"METAR SBCG 090000Z 18004KT 9999 SCT022 24/22 Q1015","temp":24,"dewp":22,"wdir":180,"wspd":4,"visib":"6+","altim":1015,"clouds":[{"cover":"SCT","base":2200}],"obsTime":1775692800},"SBMA":{"icaoId":"SBMA","flightCategory":"VFR","rawOb":"METAR SBMA 090000Z 06006KT 9999 FEW020 BKN100 28/26 Q1012","temp":28,"dewp":26,"wdir":60,"wspd":6,"visib":"6+","altim":1012,"clouds":[{"cover":"FEW","base":2000},{"cover":"BKN","base":10000}],"obsTime":1775692800},"SBUL":{"icaoId":"SBUL","flightCategory":"VFR","rawOb":"METAR SBUL 090000Z 19002KT 9999 -RA FEW030 OVC080 20/20 Q1019 RETS","temp":20,"dewp":20,"wdir":190,"wspd":2,"visib":"6+","altim":1019,"clouds":[{"cover":"FEW","base":3000},{"cover":"OVC","base":8000}],"obsTime":1775692800},"SBBV":{"icaoId":"SBBV","flightCategory":"VFR","rawOb":"METAR SBBV 090000Z 14005KT 9999 FEW030 SCT100 28/24 Q1010","temp":28,"dewp":24,"wdir":140,"wspd":5,"visib":"6+","altim":1010,"clouds":[{"cover":"FEW","base":3000},{"cover":"SCT","base":10000}],"obsTime":1775692800},"SBUR":{"icaoId":"SBUR","flightCategory":"VFR","rawOb":"METAR SBUR 090000Z 36007KT 9999 VCTS FEW046 FEW048CB 23/20 Q1018","temp":23,"dewp":20,"wdir":360,"wspd":7,"visib":"6+","altim":1018,"clouds":[{"cover":"FEW","base":4600},{"cover":"FEW","base":4800}],"obsTime":1775692800},"SBVT":{"icaoId":"SBVT","flightCategory":"VFR","rawOb":"METAR SBVT 090000Z 02010KT CAVOK 26/24 Q1013","temp":26,"dewp":24,"wdir":20,"wspd":10,"visib":"6+","altim":1013,"clouds":[],"obsTime":1775692800},"SBME":{"icaoId":"SBME","flightCategory":"VFR","rawOb":"METAR SBME 090000Z 08002KT CAVOK 28/23 Q1010","temp":28,"dewp":23,"wdir":80,"wspd":2,"visib":"6+","altim":1010,"clouds":[],"obsTime":1775692800},"SBCZ":{"icaoId":"SBCZ","flightCategory":"VFR","rawOb":"METAR SBCZ 090000Z 00000KT 9999 FEW030 BKN090 24/24 Q1010","temp":24,"dewp":24,"wdir":0,"wspd":0,"visib":"6+","altim":1010,"clouds":[{"cover":"FEW","base":3000},{"cover":"BKN","base":9000}],"obsTime":1775692800},"SBAR":{"icaoId":"SBAR","flightCategory":"VFR","rawOb":"METAR SBAR 090000Z 11009KT 9999 FEW028 28/22 Q1013","temp":28,"dewp":22,"wdir":110,"wspd":9,"visib":"6+","altim":1013,"clouds":[{"cover":"FEW","base":2800}],"obsTime":1775692800},"SBKG":{"icaoId":"SBKG","flightCategory":"MVFR","rawOb":"METAR SBKG 090000Z 09004KT 9999 -RA SCT006 BKN010 22/22 Q1017","temp":22,"dewp":22,"wdir":90,"wspd":4,"visib":"6+","altim":1017,"clouds":[{"cover":"SCT","base":600},{"cover":"BKN","base":1000}],"obsTime":1775692800},"SBOI":{"icaoId":"SBOI","flightCategory":"VFR","rawOb":"METAR SBOI 090000Z AUTO VRB01KT 9999 // SCT020/// OVC100/// 26/25 Q1012","temp":26,"dewp":25,"wdir":"VRB","wspd":1,"visib":"6+","altim":1012,"clouds":[{"cover":"SCT","base":2000},{"cover":"OVC","base":10000}],"obsTime":1775692800},"SBCO":{"icaoId":"SBCO","flightCategory":"VFR","rawOb":"METAR SBCO 090000Z 29008KT 9999 BKN045 20/17 Q1011","temp":20,"dewp":17,"wdir":290,"wspd":8,"visib":"6+","altim":1011,"clouds":[{"cover":"BKN","base":4500}],"obsTime":1775692800},"SBBH":{"icaoId":"SBBH","flightCategory":"VFR","rawOb":"METAR SBBH 090000Z COR 08004KT CAVOK 22/19 Q1018","temp":22,"dewp":19,"wdir":80,"wspd":4,"visib":"6+","altim":1018,"clouds":[],"obsTime":1775692800},"SBPL":{"icaoId":"SBPL","flightCategory":"VFR","rawOb":"METAR SBPL 090000Z 36002KT 9999 FEW020 SCT070 25/24 Q1014","temp":25,"dewp":24,"wdir":360,"wspd":2,"visib":"6+","altim":1014,"clouds":[{"cover":"FEW","base":2000},{"cover":"SCT","base":7000}],"obsTime":1775692800},"SBDN":{"icaoId":"SBDN","flightCategory":"VFR","rawOb":"METAR SBDN 090000Z 20004KT 9999 SCT043 24/21 Q1014","temp":24,"dewp":21,"wdir":200,"wspd":4,"visib":"6+","altim":1014,"clouds":[{"cover":"SCT","base":4300}],"obsTime":1775692800},"SBPS":{"icaoId":"SBPS","flightCategory":"MVFR","rawOb":"METAR SBPS 090000Z 05005KT 9999 BKN017 27/24 Q1014","temp":27,"dewp":24,"wdir":50,"wspd":5,"visib":"6+","altim":1014,"clouds":[{"cover":"BKN","base":1700}],"obsTime":1775692800},"SBES":{"icaoId":"SBES","flightCategory":"VFR","rawOb":"METAR SBES 090000Z 02003KT 330V060 9999 FEW040 BKN100 24/// Q1010","temp":null,"dewp":null,"wdir":20,"wspd":3,"visib":"6+","altim":1010,"clouds":[{"cover":"FEW","base":4000},{"cover":"BKN","base":10000}],"obsTime":1775692800},"SBSC":{"icaoId":"SBSC","flightCategory":"VFR","rawOb":"METAR SBSC 090000Z 01011KT 9999 FEW020 BKN100 27/20 Q1011","temp":27,"dewp":20,"wdir":10,"wspd":11,"visib":"6+","altim":1011,"clouds":[{"cover":"FEW","base":2000},{"cover":"BKN","base":10000}],"obsTime":1775692800},"SBSJ":{"icaoId":"SBSJ","flightCategory":"VFR","rawOb":"METAR SBSJ 090000Z 03002KT CAVOK 23/21 Q1015","temp":23,"dewp":21,"wdir":30,"wspd":2,"visib":"6+","altim":1015,"clouds":[],"obsTime":1775692800},"SBAX":{"icaoId":"SBAX","flightCategory":"VFR","rawOb":"METAR SBAX 090000Z 03001KT 9999 SCT007 20/20 Q1019","temp":20,"dewp":20,"wdir":30,"wspd":1,"visib":"6+","altim":1019,"clouds":[{"cover":"SCT","base":700}],"obsTime":1775692800},"SBBU":{"icaoId":"SBBU","flightCategory":"VFR","rawOb":"METAR SBBU 090000Z 25004KT 9999 FEW030 SCT100 24/22 Q1015 RETSRA","temp":24,"dewp":22,"wdir":250,"wspd":4,"visib":"6+","altim":1015,"clouds":[{"cover":"FEW","base":3000},{"cover":"SCT","base":10000}],"obsTime":1775692800},"SBSM":{"icaoId":"SBSM","flightCategory":"VFR","rawOb":"METAR SBSM 090000Z 28007KT 9999 VCSH FEW020 BKN040 20/18 Q1013","temp":20,"dewp":18,"wdir":280,"wspd":7,"visib":"6+","altim":1013,"clouds":[{"cover":"FEW","base":2000},{"cover":"BKN","base":4000}],"obsTime":1775692800},"SBSR":{"icaoId":"SBSR","flightCategory":"VFR","rawOb":"METAR SBSR 090000Z 12002KT 9999 SCT030 SCT070 26/21 Q1015","temp":26,"dewp":21,"wdir":120,"wspd":2,"visib":"6+","altim":1015,"clouds":[{"cover":"SCT","base":3000},{"cover":"SCT","base":7000}],"obsTime":1775692800},"SBIP":{"icaoId":"SBIP","flightCategory":"VFR","rawOb":"METAR SBIP 090000Z AUTO 00000KT CAVOK 23/23 Q1014","temp":23,"dewp":23,"wdir":0,"wspd":0,"visib":"6+","altim":1014,"clouds":[],"obsTime":1775692800},"SBJP":{"icaoId":"SBJP","flightCategory":"IFR","rawOb":"METAR SBJP 090000Z 09005KT 4000 -RA SCT010 BKN070 24/24 Q1014","temp":24,"dewp":24,"wdir":90,"wspd":5,"visib":2.49,"altim":1014,"clouds":[{"cover":"SCT","base":1000},{"cover":"BKN","base":7000}],"obsTime":1775692800},"SBJV":{"icaoId":"SBJV","flightCategory":"VFR","rawOb":"METAR SBJV 090000Z 31003KT 9999 FEW030 25/22 Q1009","temp":25,"dewp":22,"wdir":310,"wspd":3,"visib":"6+","altim":1009,"clouds":[{"cover":"FEW","base":3000}],"obsTime":1775692800},"SBAN":{"icaoId":"SBAN","flightCategory":"VFR","rawOb":"METAR SBAN 090000Z 20003KT 9999 VCTS FEW025 FEW035CB OVC100 21/18 Q1020","temp":21,"dewp":18,"wdir":200,"wspd":3,"visib":"6+","altim":1020,"clouds":[{"cover":"FEW","base":2500},{"cover":"FEW","base":3500},{"cover":"OVC","base":10000}],"obsTime":1775692800},"SBLS":{"icaoId":"SBLS","flightCategory":"VFR","rawOb":"METAR SBLS 090000Z 18006KT 9999 SCT040 SCT100 21/19 Q1018","temp":21,"dewp":19,"wdir":180,"wspd":6,"visib":"6+","altim":1018,"clouds":[{"cover":"SCT","base":4000},{"cover":"SCT","base":10000}],"obsTime":1775692800},"SBMT":{"icaoId":"SBMT","flightCategory":"VFR","rawOb":"METAR SBMT 090000Z 34005KT CAVOK 23/19 Q1015","temp":23,"dewp":19,"wdir":340,"wspd":5,"visib":"6+","altim":1015,"clouds":[],"obsTime":1775692800},"SBTA":{"icaoId":"SBTA","flightCategory":"VFR","rawOb":"METAR SBTA 090000Z VRB02KT CAVOK 22/22 Q1015","temp":22,"dewp":22,"wdir":"VRB","wspd":2,"visib":"6+","altim":1015,"clouds":[],"obsTime":1775692800},"SBJR":{"icaoId":"SBJR","flightCategory":"VFR","rawOb":"METAR SBJR 090000Z 03004KT 9999 FEW030 BKN090 30/22 Q1010","temp":30,"dewp":22,"wdir":30,"wspd":4,"visib":"6+","altim":1010,"clouds":[{"cover":"FEW","base":3000},{"cover":"BKN","base":9000}],"obsTime":1775692800}}}