{"updated":1783645467,"count":66,"data":{"SBCT":{"icaoId":"SBCT","flightCategory":"VFR","rawOb":"METAR SBCT 100000Z 01003KT CAVOK 12/05 Q1021","temp":12,"dewp":5,"wdir":10,"wspd":3,"visib":"6+","altim":1021,"clouds":[],"obsTime":1783641600},"SBSV":{"icaoId":"SBSV","flightCategory":"VFR","rawOb":"METAR SBSV 100000Z 09004KT 9999 FEW025 24/20 Q1018","temp":24,"dewp":20,"wdir":90,"wspd":4,"visib":"6+","altim":1018,"clouds":[{"cover":"FEW","base":2500}],"obsTime":1783641600},"SBKP":{"icaoId":"SBKP","flightCategory":"VFR","rawOb":"METAR SBKP 100000Z 13002KT CAVOK 15/10 Q1020","temp":15,"dewp":10,"wdir":130,"wspd":2,"visib":"6+","altim":1020,"clouds":[],"obsTime":1783641600},"SBGL":{"icaoId":"SBGL","flightCategory":"VFR","rawOb":"METAR SBGL 100000Z 07003KT CAVOK 18/15 Q1019","temp":18,"dewp":15,"wdir":70,"wspd":3,"visib":"6+","altim":1019,"clouds":[],"obsTime":1783641600},"SBGO":{"icaoId":"SBGO","flightCategory":"VFR","rawOb":"METAR SBGO 100000Z 12006KT CAVOK 21/14 Q1019","temp":21,"dewp":14,"wdir":120,"wspd":6,"visib":"6+","altim":1019,"clouds":[],"obsTime":1783641600},"SBFZ":{"icaoId":"SBFZ","flightCategory":"VFR","rawOb":"METAR SBFZ 100000Z 11007KT 9999 FEW017 26/24 Q1015","temp":26,"dewp":24,"wdir":110,"wspd":7,"visib":"6+","altim":1015,"clouds":[{"cover":"FEW","base":1700}],"obsTime":1783641600},"SBMA":{"icaoId":"SBMA","flightCategory":"VFR","rawOb":"METAR SBMA 100000Z 00000KT CAVOK 28/23 Q1013","temp":28,"dewp":23,"wdir":0,"wspd":0,"visib":"6+","altim":1013,"clouds":[],"obsTime":1783641600},"SBLO":{"icaoId":"SBLO","flightCategory":"VFR","rawOb":"METAR SBLO 100000Z 08001KT CAVOK 18/12 Q1019","temp":18,"dewp":12,"wdir":80,"wspd":1,"visib":"6+","altim":1019,"clouds":[],"obsTime":1783641600},"SBBV":{"icaoId":"SBBV","flightCategory":"VFR","rawOb":"METAR SBBV 100000Z 11004KT CAVOK 29/24 Q1011","temp":29,"dewp":24,"wdir":110,"wspd":4,"visib":"6+","altim":1011,"clouds":[],"obsTime":1783641600},"SBBE":{"icaoId":"SBBE","flightCategory":"VFR","rawOb":"METAR SBBE 100000Z 07006KT CAVOK 26/23 Q1013","temp":26,"dewp":23,"wdir":70,"wspd":6,"visib":"6+","altim":1013,"clouds":[],"obsTime":1783641600},"SBFI":{"icaoId":"SBFI","flightCategory":"VFR","rawOb":"METAR SBFI 100000Z 09003KT 9999 FEW030 SCT100 20/16 Q1015","temp":20,"dewp":16,"wdir":90,"wspd":3,"visib":"6+","altim":1015,"clouds":[{"cover":"FEW","base":3000},{"cover":"SCT","base":10000}],"obsTime":1783641600},"SBSG":{"icaoId":"SBSG","flightCategory":"VFR","rawOb":"METAR SBSG 100000Z 16003KT 120V190 9999 FEW017 24/23 Q1017","temp":24,"dewp":23,"wdir":160,"wspd":3,"visib":"6+","altim":1017,"clouds":[{"cover":"FEW","base":1700}],"obsTime":1783641600},"SBCG":{"icaoId":"SBCG","flightCategory":"VFR","rawOb":"METAR SBCG 100000Z 08007KT CAVOK 23/17 Q1017","temp":23,"dewp":17,"wdir":80,"wspd":7,"visib":"6+","altim":1017,"clouds":[],"obsTime":1783641600},"SBSL":{"icaoId":"SBSL","flightCategory":"VFR","rawOb":"METAR SBSL 100000Z 07007KT 9999 FEW021 BKN090 27/24 Q1014","temp":27,"dewp":24,"wdir":70,"wspd":7,"visib":"6+","altim":1014,"clouds":[{"cover":"FEW","base":2100},{"cover":"BKN","base":9000}],"obsTime":1783641600},"SBGR":{"icaoId":"SBGR","flightCategory":"MVFR","rawOb":"METAR SBGR 100000Z 07005KT 8000 NSC 14/12 Q1021","temp":14,"dewp":12,"wdir":70,"wspd":5,"visib":4.97,"altim":1021,"clouds":[],"obsTime":1783641600},"SBPA":{"icaoId":"SBPA","flightCategory":"VFR","rawOb":"METAR SBPA 100000Z 00000KT CAVOK 13/12 Q1014","temp":13,"dewp":12,"wdir":0,"wspd":0,"visib":"6+","altim":1014,"clouds":[],"obsTime":1783641600},"SBCF":{"icaoId":"SBCF","flightCategory":"VFR","rawOb":"METAR SBCF 100000Z 16003KT CAVOK 18/13 Q1022","temp":18,"dewp":13,"wdir":160,"wspd":3,"visib":"6+","altim":1022,"clouds":[],"obsTime":1783641600},"SBFL":{"icaoId":"SBFL","flightCategory":"VFR","rawOb":"METAR SBFL 100000Z 35014KT CAVOK 17/15 Q1015","temp":17,"dewp":15,"wdir":350,"wspd":14,"visib":"6+","altim":1015,"clouds":[],"obsTime":1783641600},"SBRB":{"icaoId":"SBRB","flightCategory":"MVFR","rawOb":"METAR SBRB 100000Z 00000KT 8000 FEW025 25/23 Q1012","temp":25,"dewp":23,"wdir":0,"wspd":0,"visib":4.97,"altim":1012,"clouds":[{"cover":"FEW","base":2500}],"obsTime":1783641600},"SBPJ":{"icaoId":"SBPJ","flightCategory":"VFR","rawOb":"METAR SBPJ 100000Z 11007KT CAVOK 27/18 Q1014","temp":27,"dewp":18,"wdir":110,"wspd":7,"visib":"6+","altim":1014,"clouds":[],"obsTime":1783641600},"SBVT":{"icaoId":"SBVT","flightCategory":"VFR","rawOb":"METAR SBVT 100000Z 20006KT 9999 SCT025 SCT049 21/17 Q1020","temp":21,"dewp":17,"wdir":200,"wspd":6,"visib":"6+","altim":1020,"clouds":[{"cover":"SCT","base":2500},{"cover":"SCT","base":4900}],"obsTime":1783641600},"SBRF":{"icaoId":"SBRF","flightCategory":"VFR","rawOb":"METAR SBRF 100000Z 18006KT 9999 SCT020 26/23 Q1017","temp":26,"dewp":23,"wdir":180,"wspd":6,"visib":"6+","altim":1017,"clouds":[{"cover":"SCT","base":2000}],"obsTime":1783641600},"SBPV":{"icaoId":"SBPV","flightCategory":"VFR","rawOb":"METAR SBPV 100000Z 00000KT CAVOK 27/22 Q1011","temp":27,"dewp":22,"wdir":0,"wspd":0,"visib":"6+","altim":1011,"clouds":[],"obsTime":1783641600},"SBSN":{"icaoId":"SBSN","flightCategory":"VFR","rawOb":"METAR SBSN 100000Z 15003KT CAVOK 26/25 Q1012","temp":26,"dewp":25,"wdir":150,"wspd":3,"visib":"6+","altim":1012,"clouds":[],"obsTime":1783641600},"SBTE":{"icaoId":"SBTE","flightCategory":"VFR","rawOb":"METAR SBTE 100000Z 34003KT CAVOK 29/22 Q1013","temp":29,"dewp":22,"wdir":340,"wspd":3,"visib":"6+","altim":1013,"clouds":[],"obsTime":1783641600},"SBBR":{"icaoId":"SBBR","flightCategory":"VFR","rawOb":"METAR SBBR 100000Z 27002KT CAVOK 21/12 Q1022","temp":21,"dewp":12,"wdir":270,"wspd":2,"visib":"6+","altim":1022,"clouds":[],"obsTime":1783641600},"SBMQ":{"icaoId":"SBMQ","flightCategory":"VFR","rawOb":"METAR SBMQ 100000Z 03007KT 9999 FEW020 28/25 Q1013","temp":28,"dewp":25,"wdir":30,"wspd":7,"visib":"6+","altim":1013,"clouds":[{"cover":"FEW","base":2000}],"obsTime":1783641600},"SBEG":{"icaoId":"SBEG","flightCategory":"VFR","rawOb":"METAR SBEG 100000Z 10004KT 9999 FEW025 29/25 Q1011","temp":29,"dewp":25,"wdir":100,"wspd":4,"visib":"6+","altim":1011,"clouds":[{"cover":"FEW","base":2500}],"obsTime":1783641600},"SBMO":{"icaoId":"SBMO","flightCategory":"VFR","rawOb":"METAR SBMO 100000Z 11004KT 9999 SCT030 23/22 Q1018","temp":23,"dewp":22,"wdir":110,"wspd":4,"visib":"6+","altim":1018,"clouds":[{"cover":"SCT","base":3000}],"obsTime":1783641600},"SBSP":{"icaoId":"SBSP","flightCategory":"VFR","rawOb":"METAR SBSP 100000Z 06003KT CAVOK 17/14 Q1021","temp":17,"dewp":14,"wdir":60,"wspd":3,"visib":"6+","altim":1021,"clouds":[],"obsTime":1783641600},"SBUR":{"icaoId":"SBUR","flightCategory":"VFR","rawOb":"METAR SBUR 100000Z 16004KT CAVOK 20/09 Q1021","temp":20,"dewp":9,"wdir":160,"wspd":4,"visib":"6+","altim":1021,"clouds":[],"obsTime":1783641600},"SBCZ":{"icaoId":"SBCZ","flightCategory":"VFR","rawOb":"METAR SBCZ 100000Z 00000KT CAVOK 25/24 Q1012","temp":25,"dewp":24,"wdir":0,"wspd":0,"visib":"6+","altim":1012,"clouds":[],"obsTime":1783641600},"SBNT":{"icaoId":"SBNT","flightCategory":"VFR","rawOb":"METAR SBNT 100000Z 16004KT 9999 SCT018 25/23 Q1016","temp":25,"dewp":23,"wdir":160,"wspd":4,"visib":"6+","altim":1016,"clouds":[{"cover":"SCT","base":1800}],"obsTime":1783641600},"SBMG":{"icaoId":"SBMG","flightCategory":"VFR","rawOb":"METAR SBMG 100000Z 05008KT CAVOK 19/13 Q1017","temp":19,"dewp":13,"wdir":50,"wspd":8,"visib":"6+","altim":1017,"clouds":[],"obsTime":1783641600},"SBIL":{"icaoId":"SBIL","flightCategory":"VFR","rawOb":"METAR SBIL 100000Z 28003KT 9999 FEW023 25/21 Q1019","temp":25,"dewp":21,"wdir":280,"wspd":3,"visib":"6+","altim":1019,"clouds":[{"cover":"FEW","base":2300}],"obsTime":1783641600},"SBJU":{"icaoId":"SBJU","flightCategory":"VFR","rawOb":"METAR SBJU 100000Z 00000KT 9999 SCT020 24/21 Q1017","temp":24,"dewp":21,"wdir":0,"wspd":0,"visib":"6+","altim":1017,"clouds":[{"cover":"SCT","base":2000}],"obsTime":1783641600},"SBME":{"icaoId":"SBME","flightCategory":"VFR","rawOb":"METAR SBME 100000Z 33002KT CAVOK 15/14 Q1020","temp":15,"dewp":14,"wdir":330,"wspd":2,"visib":"6+","altim":1020,"clouds":[],"obsTime":1783641600},"SBMK":{"icaoId":"SBMK","flightCategory":"VFR","rawOb":"METAR SBMK 100000Z 24002KT CAVOK 20/14 Q1020","temp":20,"dewp":14,"wdir":240,"wspd":2,"visib":"6+","altim":1020,"clouds":[],"obsTime":1783641600},"SBUL":{"icaoId":"SBUL","flightCategory":"VFR","rawOb":"METAR SBUL 100000Z 22005KT CAVOK 20/09 Q1022","temp":20,"dewp":9,"wdir":220,"wspd":5,"visib":"6+","altim":1022,"clouds":[],"obsTime":1783641600},"SBOI":{"icaoId":"SBOI","flightCategory":"VFR","rawOb":"METAR SBOI 100000Z AUTO VRB02KT CAVOK 26/24 Q1014","temp":26,"dewp":24,"wdir":"VRB","wspd":2,"visib":"6+","altim":1014,"clouds":[],"obsTime":1783641600},"SBPL":{"icaoId":"SBPL","flightCategory":"VFR","rawOb":"METAR SBPL 100000Z 11008KT CAVOK 27/15 Q1017","temp":27,"dewp":15,"wdir":110,"wspd":8,"visib":"6+","altim":1017,"clouds":[],"obsTime":1783641600},"SBSJ":{"icaoId":"SBSJ","flightCategory":"MVFR","rawOb":"METAR SBSJ 100000Z 03003KT 7000 NSC 16/13 Q1020","temp":16,"dewp":13,"wdir":30,"wspd":3,"visib":4.35,"altim":1020,"clouds":[],"obsTime":1783641600},"SBAR":{"icaoId":"SBAR","flightCategory":"VFR","rawOb":"METAR SBAR 100000Z 12005KT 9999 FEW025 25/21 Q1018","temp":25,"dewp":21,"wdir":120,"wspd":5,"visib":"6+","altim":1018,"clouds":[{"cover":"FEW","base":2500}],"obsTime":1783641600},"SBPS":{"icaoId":"SBPS","flightCategory":"VFR","rawOb":"METAR SBPS 100000Z 11003KT 090V160 9999 SCT020 BKN070 23/20 Q1020","temp":23,"dewp":20,"wdir":110,"wspd":3,"visib":"6+","altim":1020,"clouds":[{"cover":"SCT","base":2000},{"cover":"BKN","base":7000}],"obsTime":1783641600},"SBCO":{"icaoId":"SBCO","flightCategory":"VFR","rawOb":"METAR SBCO 100000Z 06001KT CAVOK 11/11 Q1015","temp":11,"dewp":11,"wdir":60,"wspd":1,"visib":"6+","altim":1015,"clouds":[],"obsTime":1783641600},"SBSM":{"icaoId":"SBSM","flightCategory":"VFR","rawOb":"METAR SBSM 100000Z VRB01KT 9999 FEW045 BKN080 13/13 Q1015","temp":13,"dewp":13,"wdir":"VRB","wspd":1,"visib":"6+","altim":1015,"clouds":[{"cover":"FEW","base":4500},{"cover":"BKN","base":8000}],"obsTime":1783641600},"SBKG":{"icaoId":"SBKG","flightCategory":"VFR","rawOb":"METAR SBKG 100000Z 10008KT 9999 FEW010 21/20 Q1019","temp":21,"dewp":20,"wdir":100,"wspd":8,"visib":"6+","altim":1019,"clouds":[{"cover":"FEW","base":1000}],"obsTime":1783641600},"SBAX":{"icaoId":"SBAX","flightCategory":"VFR","rawOb":"METAR SBAX 100000Z 17004KT CAVOK 20/08 Q1022","temp":20,"dewp":8,"wdir":170,"wspd":4,"visib":"6+","altim":1022,"clouds":[],"obsTime":1783641600},"SBBH":{"icaoId":"SBBH","flightCategory":"VFR","rawOb":"METAR SBBH 100000Z 10005KT CAVOK 19/14 Q1022","temp":19,"dewp":14,"wdir":100,"wspd":5,"visib":"6+","altim":1022,"clouds":[],"obsTime":1783641600},"SBBU":{"icaoId":"SBBU","flightCategory":"VFR","rawOb":"METAR SBBU 100000Z 00000KT CAVOK 21/11 Q1020","temp":21,"dewp":11,"wdir":0,"wspd":0,"visib":"6+","altim":1020,"clouds":[],"obsTime":1783641600},"SBDN":{"icaoId":"SBDN","flightCategory":"VFR","rawOb":"METAR SBDN 100000Z 10006KT CAVOK 19/14 Q1018","temp":19,"dewp":14,"wdir":100,"wspd":6,"visib":"6+","altim":1018,"clouds":[],"obsTime":1783641600},"SBIP":{"icaoId":"SBIP","flightCategory":"VFR","rawOb":"METAR SBIP 100000Z AUTO 20002KT CAVOK 17/17 Q1019","temp":17,"dewp":17,"wdir":200,"wspd":2,"visib":"6+","altim":1019,"clouds":[],"obsTime":1783641600},"SBSC":{"icaoId":"SBSC","flightCategory":"VFR","rawOb":"METAR SBSC 100000Z 05004KT CAVOK 15/15 Q1019","temp":15,"dewp":15,"wdir":50,"wspd":4,"visib":"6+","altim":1019,"clouds":[],"obsTime":1783641600},"SBSR":{"icaoId":"SBSR","flightCategory":"VFR","rawOb":"METAR SBSR 100000Z VRB02KT CAVOK 21/10 Q1019","temp":21,"dewp":10,"wdir":"VRB","wspd":2,"visib":"6+","altim":1019,"clouds":[],"obsTime":1783641600},"SBES":{"icaoId":"SBES","flightCategory":"VFR","rawOb":"METAR SBES 100000Z 01001KT CAVOK 13/// Q1020","temp":null,"dewp":null,"wdir":10,"wspd":1,"visib":"6+","altim":1020,"clouds":[],"obsTime":1783641600},"SBTU":{"icaoId":"SBTU","flightCategory":"VFR","rawOb":"METAR SBTU 100000Z AUTO 18003KT 9999 // NCD 26/23 Q1015","temp":26,"dewp":23,"wdir":180,"wspd":3,"visib":"6+","altim":1015,"clouds":[],"obsTime":1783641600},"SBJP":{"icaoId":"SBJP","flightCategory":"VFR","rawOb":"METAR SBJP 100000Z 15005KT CAVOK 24/23 Q1017","temp":24,"dewp":23,"wdir":150,"wspd":5,"visib":"6+","altim":1017,"clouds":[],"obsTime":1783641600},"SBAN":{"icaoId":"SBAN","flightCategory":"VFR","rawOb":"METAR SBAN 100000Z 11002KT CAVOK 21/13 Q1022","temp":21,"dewp":13,"wdir":110,"wspd":2,"visib":"6+","altim":1022,"clouds":[],"obsTime":1783641600},"SBJV":{"icaoId":"SBJV","flightCategory":"MVFR","rawOb":"METAR SBJV 100000Z VRB01KT 7000 FEW006 13/13 Q1017","temp":13,"dewp":13,"wdir":"VRB","wspd":1,"visib":4.35,"altim":1017,"clouds":[{"cover":"FEW","base":600}],"obsTime":1783641600},"SBNM":{"icaoId":"SBNM","flightCategory":"VFR","rawOb":"METAR SBNM 100000Z AUTO VRB02KT CAVOK 16/13 Q1016","temp":16,"dewp":13,"wdir":"VRB","wspd":2,"visib":"6+","altim":1016,"clouds":[],"obsTime":1783641600},"SBPF":{"icaoId":"SBPF","flightCategory":"VFR","rawOb":"METAR SBPF 100000Z 05007KT CAVOK 15/10 Q1018","temp":15,"dewp":10,"wdir":50,"wspd":7,"visib":"6+","altim":1018,"clouds":[],"obsTime":1783641600},"SBJR":{"icaoId":"SBJR","flightCategory":"MVFR","rawOb":"METAR SBJR 100000Z 00000KT 6000 NSC 15/14 Q1019","temp":15,"dewp":14,"wdir":0,"wspd":0,"visib":3.73,"altim":1019,"clouds":[],"obsTime":1783641600},"SBLS":{"icaoId":"SBLS","flightCategory":"VFR","rawOb":"METAR SBLS 100000Z 15004KT CAVOK 18/14 Q1021","temp":18,"dewp":14,"wdir":150,"wspd":4,"visib":"6+","altim":1021,"clouds":[],"obsTime":1783641600},"SBMT":{"icaoId":"SBMT","flightCategory":"VFR","rawOb":"METAR SBMT 100000Z 10002KT CAVOK 14/11 Q1020","temp":14,"dewp":11,"wdir":100,"wspd":2,"visib":"6+","altim":1020,"clouds":[],"obsTime":1783641600},"SBLE":{"icaoId":"SBLE","flightCategory":"VFR","rawOb":"METAR SBLE 100000Z AUTO 01003KT CAVOK ///// Q1020","temp":null,"dewp":null,"wdir":10,"wspd":3,"visib":"6+","altim":1020,"clouds":[],"obsTime":1783641600},"SBTA":{"icaoId":"SBTA","flightCategory":"VFR","rawOb":"METAR SBTA 100000Z 08003KT CAVOK 16/13 Q1020","temp":16,"dewp":13,"wdir":80,"wspd":3,"visib":"6+","altim":1020,"clouds":[],"obsTime":1783641600}}}