{"updated":1777024777,"count":62,"data":{"SBPA":{"icaoId":"SBPA","flightCategory":"IFR","rawOb":"METAR SBPA 240800Z 18005KT 150V220 4000 -RA SCT009 OVC019 21/20 Q1017 RERA","temp":21,"dewp":20,"wdir":180,"wspd":5,"visib":2.49,"altim":1017,"clouds":[{"cover":"SCT","base":900},{"cover":"OVC","base":1900}],"obsTime":1777017600},"SBNT":{"icaoId":"SBNT","flightCategory":"VFR","rawOb":"METAR SBNT 240800Z 21003KT 9999 FEW013 SCT040 BKN100 24/24 Q1010","temp":24,"dewp":24,"wdir":210,"wspd":3,"visib":"6+","altim":1010,"clouds":[{"cover":"FEW","base":1300},{"cover":"SCT","base":4000},{"cover":"BKN","base":10000}],"obsTime":1777017600},"SBBR":{"icaoId":"SBBR","flightCategory":"VFR","rawOb":"METAR SBBR 240800Z 00000KT CAVOK 16/13 Q1019","temp":16,"dewp":13,"wdir":0,"wspd":0,"visib":"6+","altim":1019,"clouds":[],"obsTime":1777017600},"SBBV":{"icaoId":"SBBV","flightCategory":"VFR","rawOb":"METAR SBBV 240800Z 10004KT 9999 FEW030 SCT100 25/23 Q1011","temp":25,"dewp":23,"wdir":100,"wspd":4,"visib":"6+","altim":1011,"clouds":[{"cover":"FEW","base":3000},{"cover":"SCT","base":10000}],"obsTime":1777017600},"SBCB":{"icaoId":"SBCB","flightCategory":"VFR","rawOb":"METAR SBCB 240900Z 16002KT 9999 SCT030 22/20 Q1018","temp":22,"dewp":20,"wdir":160,"wspd":2,"visib":"6+","altim":1018,"clouds":[{"cover":"SCT","base":3000}],"obsTime":1777021200},"SBVT":{"icaoId":"SBVT","flightCategory":"MVFR","rawOb":"METAR SBVT 240800Z 35002KT 8000 NSC 20/20 Q1017","temp":20,"dewp":20,"wdir":350,"wspd":2,"visib":4.97,"altim":1017,"clouds":[],"obsTime":1777017600},"SBBE":{"icaoId":"SBBE","flightCategory":"IFR","rawOb":"METAR SBBE 240800Z 26003KT 9999 BKN007 BKN030 25/24 Q1011","temp":25,"dewp":24,"wdir":260,"wspd":3,"visib":"6+","altim":1011,"clouds":[{"cover":"BKN","base":700},{"cover":"BKN","base":3000}],"obsTime":1777017600},"SBCF":{"icaoId":"SBCF","flightCategory":"VFR","rawOb":"METAR SBCF 240800Z 19002KT CAVOK 16/15 Q1020","temp":16,"dewp":15,"wdir":190,"wspd":2,"visib":"6+","altim":1020,"clouds":[],"obsTime":1777017600},"SBCG":{"icaoId":"SBCG","flightCategory":"VFR","rawOb":"METAR SBCG 240800Z 09006KT CAVOK 22/15 Q1015","temp":22,"dewp":15,"wdir":90,"wspd":6,"visib":"6+","altim":1015,"clouds":[],"obsTime":1777017600},"SBCT":{"icaoId":"SBCT","flightCategory":"VFR","rawOb":"METAR SBCT 240800Z VRB02KT 9999 FEW020 14/14 Q1021","temp":14,"dewp":14,"wdir":"VRB","wspd":2,"visib":"6+","altim":1021,"clouds":[{"cover":"FEW","base":2000}],"obsTime":1777017600},"SBEG":{"icaoId":"SBEG","flightCategory":"VFR","rawOb":"METAR SBEG 240800Z 05003KT 9999 SCT020 24/23 Q1011","temp":24,"dewp":23,"wdir":50,"wspd":3,"visib":"6+","altim":1011,"clouds":[{"cover":"SCT","base":2000}],"obsTime":1777017600},"SBFI":{"icaoId":"SBFI","flightCategory":"MVFR","rawOb":"METAR SBFI 240800Z 12005KT 8000 NSC 21/21 Q1014","temp":21,"dewp":21,"wdir":120,"wspd":5,"visib":4.97,"altim":1014,"clouds":[],"obsTime":1777017600},"SBFL":{"icaoId":"SBFL","flightCategory":"VFR","rawOb":"METAR SBFL 240800Z 30004KT 9999 FEW017 20/20 Q1017","temp":20,"dewp":20,"wdir":300,"wspd":4,"visib":"6+","altim":1017,"clouds":[{"cover":"FEW","base":1700}],"obsTime":1777017600},"SBFZ":{"icaoId":"SBFZ","flightCategory":"VFR","rawOb":"METAR SBFZ 240800Z 18003KT 9999 FEW018 26/24 Q1010","temp":26,"dewp":24,"wdir":180,"wspd":3,"visib":"6+","altim":1010,"clouds":[{"cover":"FEW","base":1800}],"obsTime":1777017600},"SBGL":{"icaoId":"SBGL","flightCategory":"VFR","rawOb":"METAR SBGL 240800Z 03002KT CAVOK 20/18 Q1017","temp":20,"dewp":18,"wdir":30,"wspd":2,"visib":"6+","altim":1017,"clouds":[],"obsTime":1777017600},"SBGO":{"icaoId":"SBGO","flightCategory":"VFR","rawOb":"METAR SBGO 240800Z 25002KT CAVOK 20/16 Q1017","temp":20,"dewp":16,"wdir":250,"wspd":2,"visib":"6+","altim":1017,"clouds":[],"obsTime":1777017600},"SBGR":{"icaoId":"SBGR","flightCategory":"MVFR","rawOb":"METAR SBGR 240800Z 06007KT 9999 OVC019 19/17 Q1020","temp":19,"dewp":17,"wdir":60,"wspd":7,"visib":"6+","altim":1020,"clouds":[{"cover":"OVC","base":1900}],"obsTime":1777017600},"SBJU":{"icaoId":"SBJU","flightCategory":"MVFR","rawOb":"METAR SBJU 240800Z 00000KT 8000 SCT010 BKN017 23/23 Q1013","temp":23,"dewp":23,"wdir":0,"wspd":0,"visib":4.97,"altim":1013,"clouds":[{"cover":"SCT","base":1000},{"cover":"BKN","base":1700}],"obsTime":1777017600},"SBKP":{"icaoId":"SBKP","flightCategory":"VFR","rawOb":"METAR SBKP 240800Z 12009KT CAVOK 18/16 Q1018","temp":18,"dewp":16,"wdir":120,"wspd":9,"visib":"6+","altim":1018,"clouds":[],"obsTime":1777017600},"SBLO":{"icaoId":"SBLO","flightCategory":"VFR","rawOb":"METAR SBLO 240800Z 08002KT CAVOK 17/14 Q1017","temp":17,"dewp":14,"wdir":80,"wspd":2,"visib":"6+","altim":1017,"clouds":[],"obsTime":1777017600},"SBMA":{"icaoId":"SBMA","flightCategory":"IFR","rawOb":"METAR SBMA 240800Z 23004KT 5000 BR BKN009 OVC080 25/24 Q1011","temp":25,"dewp":24,"wdir":230,"wspd":4,"visib":3.11,"altim":1011,"clouds":[{"cover":"BKN","base":900},{"cover":"OVC","base":8000}],"obsTime":1777017600},"SBME":{"icaoId":"SBME","flightCategory":"VFR","rawOb":"METAR SBME 240800Z 32006KT 9999 FEW040 20/18 Q1017","temp":20,"dewp":18,"wdir":320,"wspd":6,"visib":"6+","altim":1017,"clouds":[{"cover":"FEW","base":4000}],"obsTime":1777017600},"SBMG":{"icaoId":"SBMG","flightCategory":"VFR","rawOb":"METAR SBMG 240800Z AUTO 16007KT 080V220 CAVOK 18/14 Q1016","temp":18,"dewp":14,"wdir":160,"wspd":7,"visib":"6+","altim":1016,"clouds":[],"obsTime":1777017600},"SBMK":{"icaoId":"SBMK","flightCategory":"VFR","rawOb":"METAR SBMK 240800Z 00000KT CAVOK 18/16 Q1018","temp":18,"dewp":16,"wdir":0,"wspd":0,"visib":"6+","altim":1018,"clouds":[],"obsTime":1777017600},"SBMO":{"icaoId":"SBMO","flightCategory":"MVFR","rawOb":"METAR SBMO 240800Z VRB03KT 9999 BKN020 24/23 Q1012","temp":24,"dewp":23,"wdir":"VRB","wspd":3,"visib":"6+","altim":1012,"clouds":[{"cover":"BKN","base":2000}],"obsTime":1777017600},"SBMQ":{"icaoId":"SBMQ","flightCategory":"IFR","rawOb":"METAR SBMQ 240800Z 24007KT 9999 -RA BKN008 OVC070 23/23 Q1012","temp":23,"dewp":23,"wdir":240,"wspd":7,"visib":"6+","altim":1012,"clouds":[{"cover":"BKN","base":800},{"cover":"OVC","base":7000}],"obsTime":1777017600},"SBPJ":{"icaoId":"SBPJ","flightCategory":"VFR","rawOb":"METAR SBPJ 240800Z 13004KT 9999 FEW033 SCT070 24/22 Q1012","temp":24,"dewp":22,"wdir":130,"wspd":4,"visib":"6+","altim":1012,"clouds":[{"cover":"FEW","base":3300},{"cover":"SCT","base":7000}],"obsTime":1777017600},"SBPV":{"icaoId":"SBPV","flightCategory":"VFR","rawOb":"METAR SBPV 240800Z 10001KT CAVOK 24/22 Q1010","temp":24,"dewp":22,"wdir":100,"wspd":1,"visib":"6+","altim":1010,"clouds":[],"obsTime":1777017600},"SBRB":{"icaoId":"SBRB","flightCategory":"MVFR","rawOb":"METAR SBRB 240800Z 21001KT 6000 -RA FEW002 SCT025 BKN065 24/23 Q1011","temp":24,"dewp":23,"wdir":210,"wspd":1,"visib":3.73,"altim":1011,"clouds":[{"cover":"FEW","base":200},{"cover":"SCT","base":2500},{"cover":"BKN","base":6500}],"obsTime":1777017600},"SBRF":{"icaoId":"SBRF","flightCategory":"MVFR","rawOb":"METAR SBRF 240800Z 15014KT 8000 BKN015 BKN050 27/24 Q1010","temp":27,"dewp":24,"wdir":150,"wspd":14,"visib":4.97,"altim":1010,"clouds":[{"cover":"BKN","base":1500},{"cover":"BKN","base":5000}],"obsTime":1777017600},"SBSG":{"icaoId":"SBSG","flightCategory":"VFR","rawOb":"METAR SBSG 240800Z 22003KT 9999 SCT008 24/24 Q1011","temp":24,"dewp":24,"wdir":220,"wspd":3,"visib":"6+","altim":1011,"clouds":[{"cover":"SCT","base":800}],"obsTime":1777017600},"SBSL":{"icaoId":"SBSL","flightCategory":"VFR","rawOb":"METAR SBSL 240800Z 18004KT 9999 FEW020 BKN080 25/25 Q1010","temp":25,"dewp":25,"wdir":180,"wspd":4,"visib":"6+","altim":1010,"clouds":[{"cover":"FEW","base":2000},{"cover":"BKN","base":8000}],"obsTime":1777017600},"SBSN":{"icaoId":"SBSN","flightCategory":"MVFR","rawOb":"METAR SBSN 240800Z 09009KT 9999 BKN011 OVC100 25/24 Q1010","temp":25,"dewp":24,"wdir":90,"wspd":9,"visib":"6+","altim":1010,"clouds":[{"cover":"BKN","base":1100},{"cover":"OVC","base":10000}],"obsTime":1777017600},"SBSP":{"icaoId":"SBSP","flightCategory":"MVFR","rawOb":"METAR SBSP 240800Z AUTO 11005KT 070V140 9999 FEW012 BKN022 18/16 Q1020","temp":18,"dewp":16,"wdir":110,"wspd":5,"visib":"6+","altim":1020,"clouds":[{"cover":"FEW","base":1200},{"cover":"BKN","base":2200}],"obsTime":1777017600},"SBSV":{"icaoId":"SBSV","flightCategory":"VFR","rawOb":"METAR SBSV 240800Z 13009KT 9000 VCSH SCT013 FEW023TCU BKN050 24/23 Q1012","temp":24,"dewp":23,"wdir":130,"wspd":9,"visib":5.59,"altim":1012,"clouds":[{"cover":"SCT","base":1300},{"cover":"FEW","base":2300},{"cover":"BKN","base":5000}],"obsTime":1777017600},"SBTE":{"icaoId":"SBTE","flightCategory":"MVFR","rawOb":"METAR SBTE 240800Z 01002KT 9999 BKN013 25/24 Q1010","temp":25,"dewp":24,"wdir":10,"wspd":2,"visib":"6+","altim":1010,"clouds":[{"cover":"BKN","base":1300}],"obsTime":1777017600},"SBUL":{"icaoId":"SBUL","flightCategory":"VFR","rawOb":"METAR SBUL 240800Z 11006KT 9999 SCT045 SCT070 20/15 Q1019","temp":20,"dewp":15,"wdir":110,"wspd":6,"visib":"6+","altim":1019,"clouds":[{"cover":"SCT","base":4500},{"cover":"SCT","base":7000}],"obsTime":1777017600},"SBUR":{"icaoId":"SBUR","flightCategory":"VFR","rawOb":"METAR SBUR 240800Z 04007KT CAVOK 21/15 Q1018","temp":21,"dewp":15,"wdir":40,"wspd":7,"visib":"6+","altim":1018,"clouds":[],"obsTime":1777017600},"SBOI":{"icaoId":"SBOI","flightCategory":"LIFR","rawOb":"METAR SBOI 240900Z AUTO VRB02KT 6000 // BKN002/// OVC005/// 23/23 Q1012","temp":23,"dewp":23,"wdir":"VRB","wspd":2,"visib":3.73,"altim":1012,"clouds":[{"cover":"BKN","base":200},{"cover":"OVC","base":500}],"obsTime":1777021200},"SBSR":{"icaoId":"SBSR","flightCategory":"VFR","rawOb":"METAR SBSR 240800Z 12004KT CAVOK 22/17 Q1015","temp":22,"dewp":17,"wdir":120,"wspd":4,"visib":"6+","altim":1015,"clouds":[],"obsTime":1777017600},"SBBH":{"icaoId":"SBBH","flightCategory":"VFR","rawOb":"METAR SBBH 240900Z 10005KT 9999 FEW023 18/16 Q1021","temp":18,"dewp":16,"wdir":100,"wspd":5,"visib":"6+","altim":1021,"clouds":[{"cover":"FEW","base":2300}],"obsTime":1777021200},"SBBU":{"icaoId":"SBBU","flightCategory":"VFR","rawOb":"METAR SBBU 240900Z 11011KT 9000 NSC 19/18 Q1018","temp":19,"dewp":18,"wdir":110,"wspd":11,"visib":5.59,"altim":1018,"clouds":[],"obsTime":1777021200},"SBCO":{"icaoId":"SBCO","flightCategory":"IFR","rawOb":"METAR SBCO 240900Z 13009KT 6000 -RA BKN009 OVC019 20/19 Q1017","temp":20,"dewp":19,"wdir":130,"wspd":9,"visib":3.73,"altim":1017,"clouds":[{"cover":"BKN","base":900},{"cover":"OVC","base":1900}],"obsTime":1777021200},"SBSM":{"icaoId":"SBSM","flightCategory":"LIFR","rawOb":"METAR SBSM 240900Z 11006KT 030V170 6000 -RA BKN004 OVC010 18/18 Q1017","temp":18,"dewp":18,"wdir":110,"wspd":6,"visib":3.73,"altim":1017,"clouds":[{"cover":"BKN","base":400},{"cover":"OVC","base":1000}],"obsTime":1777021200},"SBDN":{"icaoId":"SBDN","flightCategory":"VFR","rawOb":"METAR SBDN 240800Z 12009KT CAVOK 19/15 Q1016","temp":19,"dewp":15,"wdir":120,"wspd":9,"visib":"6+","altim":1016,"clouds":[],"obsTime":1777017600},"SBES":{"icaoId":"SBES","flightCategory":"VFR","rawOb":"METAR SBES 240900Z 06003KT 9999 FEW020 16/// Q1018","temp":null,"dewp":null,"wdir":60,"wspd":3,"visib":"6+","altim":1018,"clouds":[{"cover":"FEW","base":2000}],"obsTime":1777021200},"SBIP":{"icaoId":"SBIP","flightCategory":"VFR","rawOb":"METAR SBIP 240800Z AUTO 00000KT 9999 SCT034 20/20 Q1018","temp":20,"dewp":20,"wdir":0,"wspd":0,"visib":"6+","altim":1018,"clouds":[{"cover":"SCT","base":3400}],"obsTime":1777017600},"SBSJ":{"icaoId":"SBSJ","flightCategory":"MVFR","rawOb":"SPECI SBSJ 240830Z 15002KT 9000 BKN017 16/15 Q1020","temp":16,"dewp":15,"wdir":150,"wspd":2,"visib":5.59,"altim":1020,"clouds":[{"cover":"BKN","base":1700}],"obsTime":1777019400},"SBKG":{"icaoId":"SBKG","flightCategory":"IFR","rawOb":"METAR SBKG 240800Z 12005KT 9999 -RA BKN006 21/21 Q1014","temp":21,"dewp":21,"wdir":120,"wspd":5,"visib":"6+","altim":1014,"clouds":[{"cover":"BKN","base":600}],"obsTime":1777017600},"SBSC":{"icaoId":"SBSC","flightCategory":"MVFR","rawOb":"METAR SBSC 240800Z 01006KT 8000 SCT020 SCT050 20/18 Q1017","temp":20,"dewp":18,"wdir":10,"wspd":6,"visib":4.97,"altim":1017,"clouds":[{"cover":"SCT","base":2000},{"cover":"SCT","base":5000}],"obsTime":1777017600},"SBAR":{"icaoId":"SBAR","flightCategory":"MVFR","rawOb":"METAR SBAR 240800Z 03006KT 5000 SHRA BR SCT017 BKN023 FEW025TCU 25/23 Q1012","temp":25,"dewp":23,"wdir":30,"wspd":6,"visib":3.11,"altim":1012,"clouds":[{"cover":"SCT","base":1700},{"cover":"BKN","base":2300},{"cover":"FEW","base":2500}],"obsTime":1777017600},"SBPS":{"icaoId":"SBPS","flightCategory":"MVFR","rawOb":"METAR SBPS 240800Z VRB03KT 9999 SCT007 BKN015 OVC040 23/22 Q1015","temp":23,"dewp":22,"wdir":"VRB","wspd":3,"visib":"6+","altim":1015,"clouds":[{"cover":"SCT","base":700},{"cover":"BKN","base":1500},{"cover":"OVC","base":4000}],"obsTime":1777017600},"SBPL":{"icaoId":"SBPL","flightCategory":"VFR","rawOb":"METAR SBPL 240800Z 12004KT 9999 SCT015 BKN070 24/23 Q1014","temp":24,"dewp":23,"wdir":120,"wspd":4,"visib":"6+","altim":1014,"clouds":[{"cover":"SCT","base":1500},{"cover":"BKN","base":7000}],"obsTime":1777017600},"SBJP":{"icaoId":"SBJP","flightCategory":"IFR","rawOb":"METAR SBJP 240800Z 12008KT 3500 -RA BKN008 BKN014 25/24 Q1011","temp":25,"dewp":24,"wdir":120,"wspd":8,"visib":2.17,"altim":1011,"clouds":[{"cover":"BKN","base":800},{"cover":"BKN","base":1400}],"obsTime":1777017600},"SBAN":{"icaoId":"SBAN","flightCategory":"VFR","rawOb":"METAR SBAN 240800Z 08004KT CAVOK 18/15 Q1020","temp":18,"dewp":15,"wdir":80,"wspd":4,"visib":"6+","altim":1020,"clouds":[],"obsTime":1777017600},"SBLE":{"icaoId":"SBLE","flightCategory":"IFR","rawOb":"METAR SBLE 240800Z AUTO 15004KT 110V180 2800 -RA BR SCT005 BKN023 OVC039 ///// Q////","temp":null,"dewp":null,"wdir":150,"wspd":4,"visib":1.74,"altim":null,"clouds":[{"cover":"SCT","base":500},{"cover":"BKN","base":2300},{"cover":"OVC","base":3900}],"obsTime":1777017600},"SBLS":{"icaoId":"SBLS","flightCategory":"VFR","rawOb":"METAR SBLS 240900Z 16009KT 9999 FEW030 17/16 Q1020","temp":17,"dewp":16,"wdir":160,"wspd":9,"visib":"6+","altim":1020,"clouds":[{"cover":"FEW","base":3000}],"obsTime":1777021200},"SBMT":{"icaoId":"SBMT","flightCategory":"MVFR","rawOb":"METAR SBMT 240900Z 07005KT 010V130 5000 BR BKN015 OVC017 19/16 Q1020","temp":19,"dewp":16,"wdir":70,"wspd":5,"visib":3.11,"altim":1020,"clouds":[{"cover":"BKN","base":1500},{"cover":"OVC","base":1700}],"obsTime":1777021200},"SBTA":{"icaoId":"SBTA","flightCategory":"VFR","rawOb":"METAR SBTA 240900Z 00000KT CAVOK 15/15 Q1019","temp":15,"dewp":15,"wdir":0,"wspd":0,"visib":"6+","altim":1019,"clouds":[],"obsTime":1777021200},"SBJV":{"icaoId":"SBJV","flightCategory":"VFR","rawOb":"METAR SBJV 240900Z 00000KT 9999 SCT020 17/17 Q1017","temp":17,"dewp":17,"wdir":0,"wspd":0,"visib":"6+","altim":1017,"clouds":[{"cover":"SCT","base":2000}],"obsTime":1777021200},"SBPF":{"icaoId":"SBPF","flightCategory":"VFR","rawOb":"METAR SBPF 240900Z 07011KT CAVOK 18/15 Q1017","temp":18,"dewp":15,"wdir":70,"wspd":11,"visib":"6+","altim":1017,"clouds":[],"obsTime":1777021200},"SBGW":{"icaoId":"SBGW","flightCategory":"MVFR","rawOb":"METAR SBGW 240900Z 06003KT 360V100 8000 3000S FEW008 BKN016 18/13 Q1020","temp":18,"dewp":13,"wdir":60,"wspd":3,"visib":4.97,"altim":1020,"clouds":[{"cover":"FEW","base":800},{"cover":"BKN","base":1600}],"obsTime":1777021200}}}