{"updated":1781473582,"count":85,"data":{"SBCG":{"icaoId":"SBCG","flightCategory":"IFR","rawOb":"METAR SBCG 142000Z 23004KT 5000 -RA BR BKN005 OVC010 21/20 Q1017 RERA","temp":21,"dewp":20,"wdir":230,"wspd":4,"visib":3.11,"altim":1017,"clouds":[{"cover":"BKN","base":500},{"cover":"OVC","base":1000}],"obsTime":1781467200},"SBGO":{"icaoId":"SBGO","flightCategory":"VFR","rawOb":"METAR SBGO 142000Z 17003KT 130V220 9999 FEW040 29/19 Q1018","temp":29,"dewp":19,"wdir":170,"wspd":3,"visib":"6+","altim":1018,"clouds":[{"cover":"FEW","base":4000}],"obsTime":1781467200},"SBBE":{"icaoId":"SBBE","flightCategory":"VFR","rawOb":"METAR SBBE 142000Z 13007KT 9999 SCT040 FEW045TCU SCT100 32/23 Q1012","temp":32,"dewp":23,"wdir":130,"wspd":7,"visib":"6+","altim":1012,"clouds":[{"cover":"SCT","base":4000},{"cover":"FEW","base":4500},{"cover":"SCT","base":10000}],"obsTime":1781467200},"SBBR":{"icaoId":"SBBR","flightCategory":"VFR","rawOb":"METAR SBBR 142000Z 11004KT 050V160 9999 FEW030 FEW040TCU SCT090 25/17 Q1021","temp":25,"dewp":17,"wdir":110,"wspd":4,"visib":"6+","altim":1021,"clouds":[{"cover":"FEW","base":3000},{"cover":"FEW","base":4000},{"cover":"SCT","base":9000}],"obsTime":1781467200},"SBCZ":{"icaoId":"SBCZ","flightCategory":"MVFR","rawOb":"METAR SBCZ 142000Z 03004KT 9999 BKN030 32/24 Q1012","temp":32,"dewp":24,"wdir":30,"wspd":4,"visib":"6+","altim":1012,"clouds":[{"cover":"BKN","base":3000}],"obsTime":1781467200},"SBAT":{"icaoId":"SBAT","flightCategory":"VFR","rawOb":"METAR SBAT 142000Z 11004KT 9999 SCT030 35/20 Q1013","temp":35,"dewp":20,"wdir":110,"wspd":4,"visib":"6+","altim":1013,"clouds":[{"cover":"SCT","base":3000}],"obsTime":1781467200},"SBBV":{"icaoId":"SBBV","flightCategory":"VFR","rawOb":"METAR SBBV 142000Z 14004KT 9999 VCSH SCT030 FEW035TCU SCT070 33/22 Q1011","temp":33,"dewp":22,"wdir":140,"wspd":4,"visib":"6+","altim":1011,"clouds":[{"cover":"SCT","base":3000},{"cover":"FEW","base":3500},{"cover":"SCT","base":7000}],"obsTime":1781467200},"SBCB":{"icaoId":"SBCB","flightCategory":"MVFR","rawOb":"METAR SBCB 142000Z 02012KT 8000 -DZ SCT008 BKN020 OVC050 22/20 Q1016","temp":22,"dewp":20,"wdir":20,"wspd":12,"visib":4.97,"altim":1016,"clouds":[{"cover":"SCT","base":800},{"cover":"BKN","base":2000},{"cover":"OVC","base":5000}],"obsTime":1781467200},"SBCF":{"icaoId":"SBCF","flightCategory":"VFR","rawOb":"METAR SBCF 142000Z 03006KT 9999 FEW025 SCT100 21/17 Q1020","temp":21,"dewp":17,"wdir":30,"wspd":6,"visib":"6+","altim":1020,"clouds":[{"cover":"FEW","base":2500},{"cover":"SCT","base":10000}],"obsTime":1781467200},"SBCP":{"icaoId":"SBCP","flightCategory":"VFR","rawOb":"METAR SBCP 142000Z 11006KT CAVOK 24/18 Q1017","temp":24,"dewp":18,"wdir":110,"wspd":6,"visib":"6+","altim":1017,"clouds":[],"obsTime":1781467200},"SBCR":{"icaoId":"SBCR","flightCategory":"MVFR","rawOb":"METAR SBCR 142000Z 23009KT 190V270 9999 BKN013 SCT025 FEW030TCU 21/17 Q1017","temp":21,"dewp":17,"wdir":230,"wspd":9,"visib":"6+","altim":1017,"clouds":[{"cover":"BKN","base":1300},{"cover":"SCT","base":2500},{"cover":"FEW","base":3000}],"obsTime":1781467200},"SBCT":{"icaoId":"SBCT","flightCategory":"MVFR","rawOb":"METAR SBCT 142000Z VRB02KT 9999 FEW012 BKN025 BKN035 17/15 Q1018","temp":17,"dewp":15,"wdir":"VRB","wspd":2,"visib":"6+","altim":1018,"clouds":[{"cover":"FEW","base":1200},{"cover":"BKN","base":2500},{"cover":"BKN","base":3500}],"obsTime":1781467200},"SBEG":{"icaoId":"SBEG","flightCategory":"VFR","rawOb":"METAR SBEG 142000Z 11013KT 9999 FEW030 FEW035TCU SCT100 32/22 Q1011","temp":32,"dewp":22,"wdir":110,"wspd":13,"visib":"6+","altim":1011,"clouds":[{"cover":"FEW","base":3000},{"cover":"FEW","base":3500},{"cover":"SCT","base":10000}],"obsTime":1781467200},"SBFI":{"icaoId":"SBFI","flightCategory":"VFR","rawOb":"METAR SBFI 142000Z 20007KT 9999 FEW030 SCT070 19/14 Q1017","temp":19,"dewp":14,"wdir":200,"wspd":7,"visib":"6+","altim":1017,"clouds":[{"cover":"FEW","base":3000},{"cover":"SCT","base":7000}],"obsTime":1781467200},"SBFL":{"icaoId":"SBFL","flightCategory":"VFR","rawOb":"METAR SBFL 142000Z 16008KT 130V190 9999 BKN033 OVC044 18/11 Q1017","temp":18,"dewp":11,"wdir":160,"wspd":8,"visib":"6+","altim":1017,"clouds":[{"cover":"BKN","base":3300},{"cover":"OVC","base":4400}],"obsTime":1781467200},"SBFZ":{"icaoId":"SBFZ","flightCategory":"VFR","rawOb":"METAR SBFZ 142000Z 11012KT 9999 FEW025 28/23 Q1013","temp":28,"dewp":23,"wdir":110,"wspd":12,"visib":"6+","altim":1013,"clouds":[{"cover":"FEW","base":2500}],"obsTime":1781467200},"SBGL":{"icaoId":"SBGL","flightCategory":"VFR","rawOb":"METAR SBGL 142000Z 14006KT 9999 FEW020 23/19 Q1015","temp":23,"dewp":19,"wdir":140,"wspd":6,"visib":"6+","altim":1015,"clouds":[{"cover":"FEW","base":2000}],"obsTime":1781467200},"SBGR":{"icaoId":"SBGR","flightCategory":"MVFR","rawOb":"METAR SBGR 142000Z 31005KT 9999 OVC023 20/16 Q1019","temp":20,"dewp":16,"wdir":310,"wspd":5,"visib":"6+","altim":1019,"clouds":[{"cover":"OVC","base":2300}],"obsTime":1781467200},"SBHT":{"icaoId":"SBHT","flightCategory":"VFR","rawOb":"METAR SBHT 142000Z 13002KT 9999 SCT030 32/25 Q1012","temp":32,"dewp":25,"wdir":130,"wspd":2,"visib":"6+","altim":1012,"clouds":[{"cover":"SCT","base":3000}],"obsTime":1781467200},"SBIL":{"icaoId":"SBIL","flightCategory":"VFR","rawOb":"METAR SBIL 142000Z 08007KT CAVOK 27/23 Q1017","temp":27,"dewp":23,"wdir":80,"wspd":7,"visib":"6+","altim":1017,"clouds":[],"obsTime":1781467200},"SBJU":{"icaoId":"SBJU","flightCategory":"VFR","rawOb":"METAR SBJU 142000Z 04005KT 9999 SCT022 29/20 Q1015","temp":29,"dewp":20,"wdir":40,"wspd":5,"visib":"6+","altim":1015,"clouds":[{"cover":"SCT","base":2200}],"obsTime":1781467200},"SBKP":{"icaoId":"SBKP","flightCategory":"MVFR","rawOb":"METAR SBKP 142000Z 34006KT 9999 BKN022 BKN100 20/17 Q1019","temp":20,"dewp":17,"wdir":340,"wspd":6,"visib":"6+","altim":1019,"clouds":[{"cover":"BKN","base":2200},{"cover":"BKN","base":10000}],"obsTime":1781467200},"SBLO":{"icaoId":"SBLO","flightCategory":"IFR","rawOb":"METAR SBLO 142000Z 01006KT 9999 BKN008 OVC018 20/19 Q1016","temp":20,"dewp":19,"wdir":10,"wspd":6,"visib":"6+","altim":1016,"clouds":[{"cover":"BKN","base":800},{"cover":"OVC","base":1800}],"obsTime":1781467200},"SBMA":{"icaoId":"SBMA","flightCategory":"VFR","rawOb":"METAR SBMA 142000Z 08005KT 9999 FEW020 FEW025TCU 32/22 Q1012","temp":32,"dewp":22,"wdir":80,"wspd":5,"visib":"6+","altim":1012,"clouds":[{"cover":"FEW","base":2000},{"cover":"FEW","base":2500}],"obsTime":1781467200},"SBME":{"icaoId":"SBME","flightCategory":"VFR","rawOb":"METAR SBME 142000Z 08005KT 9999 OVC040 23/20 Q1016","temp":23,"dewp":20,"wdir":80,"wspd":5,"visib":"6+","altim":1016,"clouds":[{"cover":"OVC","base":4000}],"obsTime":1781467200},"SBMG":{"icaoId":"SBMG","flightCategory":"LIFR","rawOb":"METAR SBMG 142000Z 36009KT 5000 2000SW -DZ BR OVC004 20/19 Q1015","temp":20,"dewp":19,"wdir":360,"wspd":9,"visib":3.11,"altim":1015,"clouds":[{"cover":"OVC","base":400}],"obsTime":1781467200},"SBMK":{"icaoId":"SBMK","flightCategory":"VFR","rawOb":"METAR SBMK 142000Z 08002KT CAVOK 26/16 Q1019","temp":26,"dewp":16,"wdir":80,"wspd":2,"visib":"6+","altim":1019,"clouds":[],"obsTime":1781467200},"SBMO":{"icaoId":"SBMO","flightCategory":"VFR","rawOb":"METAR SBMO 142000Z 12009KT 9999 SCT025 26/22 Q1016","temp":26,"dewp":22,"wdir":120,"wspd":9,"visib":"6+","altim":1016,"clouds":[{"cover":"SCT","base":2500}],"obsTime":1781467200},"SBMQ":{"icaoId":"SBMQ","flightCategory":"VFR","rawOb":"METAR SBMQ 142000Z 05007KT 9999 FEW030 31/25 Q1012","temp":31,"dewp":25,"wdir":50,"wspd":7,"visib":"6+","altim":1012,"clouds":[{"cover":"FEW","base":3000}],"obsTime":1781467200},"SBNT":{"icaoId":"SBNT","flightCategory":"VFR","rawOb":"METAR SBNT 142000Z 15007KT 9999 SCT018 SCT050 27/23 Q1014","temp":27,"dewp":23,"wdir":150,"wspd":7,"visib":"6+","altim":1014,"clouds":[{"cover":"SCT","base":1800},{"cover":"SCT","base":5000}],"obsTime":1781467200},"SBPA":{"icaoId":"SBPA","flightCategory":"VFR","rawOb":"METAR SBPA 142000Z 18008KT 150V210 9999 FEW015 SCT045 BKN060 14/10 Q1020","temp":14,"dewp":10,"wdir":180,"wspd":8,"visib":"6+","altim":1020,"clouds":[{"cover":"FEW","base":1500},{"cover":"SCT","base":4500},{"cover":"BKN","base":6000}],"obsTime":1781467200},"SBPJ":{"icaoId":"SBPJ","flightCategory":"VFR","rawOb":"METAR SBPJ 142000Z 11004KT 080V140 CAVOK 34/19 Q1013","temp":34,"dewp":19,"wdir":110,"wspd":4,"visib":"6+","altim":1013,"clouds":[],"obsTime":1781467200},"SBPV":{"icaoId":"SBPV","flightCategory":"VFR","rawOb":"METAR SBPV 142000Z 13003KT 9999 SCT035 33/24 Q1012","temp":33,"dewp":24,"wdir":130,"wspd":3,"visib":"6+","altim":1012,"clouds":[{"cover":"SCT","base":3500}],"obsTime":1781467200},"SBRB":{"icaoId":"SBRB","flightCategory":"VFR","rawOb":"METAR SBRB 142000Z 31002KT 9999 SCT030 33/22 Q1013","temp":33,"dewp":22,"wdir":310,"wspd":2,"visib":"6+","altim":1013,"clouds":[{"cover":"SCT","base":3000}],"obsTime":1781467200},"SBRF":{"icaoId":"SBRF","flightCategory":"VFR","rawOb":"METAR SBRF 142000Z 15011KT 9999 FEW021 27/23 Q1015","temp":27,"dewp":23,"wdir":150,"wspd":11,"visib":"6+","altim":1015,"clouds":[{"cover":"FEW","base":2100}],"obsTime":1781467200},"SBSG":{"icaoId":"SBSG","flightCategory":"MVFR","rawOb":"METAR SBSG 142000Z 13004KT 100V170 9999 VCSH BKN020 FEW023TCU 27/24 Q1014","temp":27,"dewp":24,"wdir":130,"wspd":4,"visib":"6+","altim":1014,"clouds":[{"cover":"BKN","base":2000},{"cover":"FEW","base":2300}],"obsTime":1781467200},"SBSL":{"icaoId":"SBSL","flightCategory":"VFR","rawOb":"METAR SBSL 142000Z 06011KT 9999 FEW020 SCT035 30/24 Q1012","temp":30,"dewp":24,"wdir":60,"wspd":11,"visib":"6+","altim":1012,"clouds":[{"cover":"FEW","base":2000},{"cover":"SCT","base":3500}],"obsTime":1781467200},"SBSN":{"icaoId":"SBSN","flightCategory":"VFR","rawOb":"METAR SBSN 142000Z 07006KT 9999 FEW027 31/25 Q1011","temp":31,"dewp":25,"wdir":70,"wspd":6,"visib":"6+","altim":1011,"clouds":[{"cover":"FEW","base":2700}],"obsTime":1781467200},"SBSP":{"icaoId":"SBSP","flightCategory":"MVFR","rawOb":"METAR SBSP 142000Z 32009KT 9999 BKN021 20/16 Q1019","temp":20,"dewp":16,"wdir":320,"wspd":9,"visib":"6+","altim":1019,"clouds":[{"cover":"BKN","base":2100}],"obsTime":1781467200},"SBSV":{"icaoId":"SBSV","flightCategory":"VFR","rawOb":"METAR SBSV 142000Z 12006KT 090V150 9999 FEW020 27/22 Q1016","temp":27,"dewp":22,"wdir":120,"wspd":6,"visib":"6+","altim":1016,"clouds":[{"cover":"FEW","base":2000}],"obsTime":1781467200},"SBTE":{"icaoId":"SBTE","flightCategory":"VFR","rawOb":"METAR SBTE 142000Z 13003KT 9999 FEW020 34/20 Q1011","temp":34,"dewp":20,"wdir":130,"wspd":3,"visib":"6+","altim":1011,"clouds":[{"cover":"FEW","base":2000}],"obsTime":1781467200},"SBUL":{"icaoId":"SBUL","flightCategory":"IFR","rawOb":"METAR SBUL 142000Z 22012G39KT 170V270 5000 1800S R22/P2000N R04/P2000D +TSRA BKN007 BKN030 FEW040CB BKN080 22/18 Q1023","temp":22,"dewp":18,"wdir":220,"wspd":12,"visib":3.11,"altim":1023,"clouds":[{"cover":"BKN","base":700},{"cover":"BKN","base":3000},{"cover":"FEW","base":4000},{"cover":"BKN","base":8000}],"obsTime":1781467200},"SBUR":{"icaoId":"SBUR","flightCategory":"IFR","rawOb":"METAR SBUR 142000Z 25007KT 3000 -TSRA BR FEW005 FEW050CB OVC070 18/17 Q1022","temp":18,"dewp":17,"wdir":250,"wspd":7,"visib":1.86,"altim":1022,"clouds":[{"cover":"FEW","base":500},{"cover":"FEW","base":5000},{"cover":"OVC","base":7000}],"obsTime":1781467200},"SBVT":{"icaoId":"SBVT","flightCategory":"VFR","rawOb":"METAR SBVT 142000Z 15003KT 9999 SCT043 BKN078 24/21 Q1017","temp":24,"dewp":21,"wdir":150,"wspd":3,"visib":"6+","altim":1017,"clouds":[{"cover":"SCT","base":4300},{"cover":"BKN","base":7800}],"obsTime":1781467200},"SBCJ":{"icaoId":"SBCJ","flightCategory":"VFR","rawOb":"METAR SBCJ 142000Z 12007KT 9999 SCT027 30/20 Q1017","temp":30,"dewp":20,"wdir":120,"wspd":7,"visib":"6+","altim":1017,"clouds":[{"cover":"SCT","base":2700}],"obsTime":1781467200},"SBAR":{"icaoId":"SBAR","flightCategory":"VFR","rawOb":"METAR SBAR 142000Z 12006KT 9999 SCT023 27/23 Q1016","temp":27,"dewp":23,"wdir":120,"wspd":6,"visib":"6+","altim":1016,"clouds":[{"cover":"SCT","base":2300}],"obsTime":1781467200},"SBAX":{"icaoId":"SBAX","flightCategory":"VFR","rawOb":"METAR SBAX 142000Z AUTO 25006KT 9999 SCT027 22/18 Q1021","temp":22,"dewp":18,"wdir":250,"wspd":6,"visib":"6+","altim":1021,"clouds":[{"cover":"SCT","base":2700}],"obsTime":1781467200},"SBBH":{"icaoId":"SBBH","flightCategory":"VFR","rawOb":"METAR SBBH 142000Z 31004KT 9999 SCT030 BKN090 23/17 Q1020","temp":23,"dewp":17,"wdir":310,"wspd":4,"visib":"6+","altim":1020,"clouds":[{"cover":"SCT","base":3000},{"cover":"BKN","base":9000}],"obsTime":1781467200},"SBBU":{"icaoId":"SBBU","flightCategory":"MVFR","rawOb":"METAR SBBU 142000Z 01003KT 9999 SCT007 BKN015 BKN070 21/20 Q1018","temp":21,"dewp":20,"wdir":10,"wspd":3,"visib":"6+","altim":1018,"clouds":[{"cover":"SCT","base":700},{"cover":"BKN","base":1500},{"cover":"BKN","base":7000}],"obsTime":1781467200},"SBCA":{"icaoId":"SBCA","flightCategory":"LIFR","rawOb":"METAR SBCA 142000Z 20010KT 8000 BKN003 BKN020 15/15 Q1018","temp":15,"dewp":15,"wdir":200,"wspd":10,"visib":4.97,"altim":1018,"clouds":[{"cover":"BKN","base":300},{"cover":"BKN","base":2000}],"obsTime":1781467200},"SBCO":{"icaoId":"SBCO","flightCategory":"VFR","rawOb":"METAR SBCO 142000Z 20005KT 9999 BKN038 BKN060 15/10 Q1020","temp":15,"dewp":10,"wdir":200,"wspd":5,"visib":"6+","altim":1020,"clouds":[{"cover":"BKN","base":3800},{"cover":"BKN","base":6000}],"obsTime":1781467200},"SBDN":{"icaoId":"SBDN","flightCategory":"VFR","rawOb":"METAR SBDN 142000Z 03006KT 9999 SCT006 SCT019 BKN070 20/19 Q1016","temp":20,"dewp":19,"wdir":30,"wspd":6,"visib":"6+","altim":1016,"clouds":[{"cover":"SCT","base":600},{"cover":"SCT","base":1900},{"cover":"BKN","base":7000}],"obsTime":1781467200},"SBES":{"icaoId":"SBES","flightCategory":"VFR","rawOb":"METAR SBES 142000Z 06004KT 020V080 9999 FEW015 SCT080 22/// Q1016","temp":null,"dewp":null,"wdir":60,"wspd":4,"visib":"6+","altim":1016,"clouds":[{"cover":"FEW","base":1500},{"cover":"SCT","base":8000}],"obsTime":1781467200},"SBIP":{"icaoId":"SBIP","flightCategory":"VFR","rawOb":"METAR SBIP 142000Z AUTO 00000KT CAVOK 23/21 Q1017","temp":23,"dewp":21,"wdir":0,"wspd":0,"visib":"6+","altim":1017,"clouds":[],"obsTime":1781467200},"SBKG":{"icaoId":"SBKG","flightCategory":"VFR","rawOb":"METAR SBKG 142000Z 10007KT 9999 SCT025 26/20 Q1017","temp":26,"dewp":20,"wdir":100,"wspd":7,"visib":"6+","altim":1017,"clouds":[{"cover":"SCT","base":2500}],"obsTime":1781467200},"SBOI":{"icaoId":"SBOI","flightCategory":"VFR","rawOb":"METAR SBOI 142000Z AUTO 10007KT 060V160 9999 FEW024 SCT028 29/25 Q1012","temp":29,"dewp":25,"wdir":100,"wspd":7,"visib":"6+","altim":1012,"clouds":[{"cover":"FEW","base":2400},{"cover":"SCT","base":2800}],"obsTime":1781467200},"SBPB":{"icaoId":"SBPB","flightCategory":"VFR","rawOb":"METAR SBPB 142000Z 08014KT 9999 SCT020 SCT100 29/25 Q1013","temp":29,"dewp":25,"wdir":80,"wspd":14,"visib":"6+","altim":1013,"clouds":[{"cover":"SCT","base":2000},{"cover":"SCT","base":10000}],"obsTime":1781467200},"SBPL":{"icaoId":"SBPL","flightCategory":"VFR","rawOb":"METAR SBPL 142000Z 08008KT CAVOK 33/15 Q1014","temp":33,"dewp":15,"wdir":80,"wspd":8,"visib":"6+","altim":1014,"clouds":[],"obsTime":1781467200},"SBPP":{"icaoId":"SBPP","flightCategory":"LIFR","rawOb":"METAR SBPP 142000Z 22015KT 0500 FG VV000 15/14 Q1017","temp":15,"dewp":14,"wdir":220,"wspd":15,"visib":0.31,"altim":1017,"clouds":[{"cover":"OVX","base":0}],"obsTime":1781467200},"SBPS":{"icaoId":"SBPS","flightCategory":"VFR","rawOb":"METAR SBPS 142000Z 04007KT 9999 FEW025 26/22 Q1016","temp":26,"dewp":22,"wdir":40,"wspd":7,"visib":"6+","altim":1016,"clouds":[{"cover":"FEW","base":2500}],"obsTime":1781467200},"SBSC":{"icaoId":"SBSC","flightCategory":"MVFR","rawOb":"METAR SBSC 142000Z 17004KT 8000 FEW030 BKN070 23/20 Q1015","temp":23,"dewp":20,"wdir":170,"wspd":4,"visib":4.97,"altim":1015,"clouds":[{"cover":"FEW","base":3000},{"cover":"BKN","base":7000}],"obsTime":1781467200},"SBSJ":{"icaoId":"SBSJ","flightCategory":"VFR","rawOb":"METAR SBSJ 142000Z 27007KT 9999 BKN045 22/16 Q1018","temp":22,"dewp":16,"wdir":270,"wspd":7,"visib":"6+","altim":1018,"clouds":[{"cover":"BKN","base":4500}],"obsTime":1781467200},"SBSM":{"icaoId":"SBSM","flightCategory":"VFR","rawOb":"METAR SBSM 142000Z 27004KT 240V300 9999 SCT020 BKN040 14/10 Q1021","temp":14,"dewp":10,"wdir":270,"wspd":4,"visib":"6+","altim":1021,"clouds":[{"cover":"SCT","base":2000},{"cover":"BKN","base":4000}],"obsTime":1781467200},"SBSR":{"icaoId":"SBSR","flightCategory":"VFR","rawOb":"METAR SBSR 142000Z 27002KT 9999 SCT030 BKN080 19/18 Q1019","temp":19,"dewp":18,"wdir":270,"wspd":2,"visib":"6+","altim":1019,"clouds":[{"cover":"SCT","base":3000},{"cover":"BKN","base":8000}],"obsTime":1781467200},"SBTF":{"icaoId":"SBTF","flightCategory":"VFR","rawOb":"METAR SBTF 142000Z 16007KT 9999 FEW020 33/25 Q1011","temp":33,"dewp":25,"wdir":160,"wspd":7,"visib":"6+","altim":1011,"clouds":[{"cover":"FEW","base":2000}],"obsTime":1781467200},"SBTT":{"icaoId":"SBTT","flightCategory":"VFR","rawOb":"METAR SBTT 142000Z 14003KT 9999 SCT040 31/23 Q1012","temp":31,"dewp":23,"wdir":140,"wspd":3,"visib":"6+","altim":1012,"clouds":[{"cover":"SCT","base":4000}],"obsTime":1781467200},"SBTU":{"icaoId":"SBTU","flightCategory":"VFR","rawOb":"METAR SBTU 142000Z AUTO 28007KT 230V310 9999 // NCD 31/23 Q1014","temp":31,"dewp":23,"wdir":280,"wspd":7,"visib":"6+","altim":1014,"clouds":[],"obsTime":1781467200},"SBUY":{"icaoId":"SBUY","flightCategory":"VFR","rawOb":"METAR SBUY 142000Z 07004KT 9999 SCT040 33/23 Q1010","temp":33,"dewp":23,"wdir":70,"wspd":4,"visib":"6+","altim":1010,"clouds":[{"cover":"SCT","base":4000}],"obsTime":1781467200},"SBVH":{"icaoId":"SBVH","flightCategory":"VFR","rawOb":"METAR SBVH 142000Z 32005KT 9999 SCT045 25/19 Q1016","temp":25,"dewp":19,"wdir":320,"wspd":5,"visib":"6+","altim":1016,"clouds":[{"cover":"SCT","base":4500}],"obsTime":1781467200},"SBCC":{"icaoId":"SBCC","flightCategory":"VFR","rawOb":"METAR SBCC 142000Z 07007KT 9999 SCT040 32/19 Q1015","temp":32,"dewp":19,"wdir":70,"wspd":7,"visib":"6+","altim":1015,"clouds":[{"cover":"SCT","base":4000}],"obsTime":1781467200},"SBGW":{"icaoId":"SBGW","flightCategory":"VFR","rawOb":"METAR SBGW 142000Z 11002KT 9999 FEW016 23/14 Q1017","temp":23,"dewp":14,"wdir":110,"wspd":2,"visib":"6+","altim":1017,"clouds":[{"cover":"FEW","base":1600}],"obsTime":1781467200},"SBST":{"icaoId":"SBST","flightCategory":"MVFR","rawOb":"METAR SBST 142000Z 15004KT 8000 BKN018 21/18 Q1016","temp":21,"dewp":18,"wdir":150,"wspd":4,"visib":4.97,"altim":1016,"clouds":[{"cover":"BKN","base":1800}],"obsTime":1781467200},"SBJR":{"icaoId":"SBJR","flightCategory":"VFR","rawOb":"METAR SBJR 142000Z 14004KT 9999 FEW020 24/19 Q1015","temp":24,"dewp":19,"wdir":140,"wspd":4,"visib":"6+","altim":1015,"clouds":[{"cover":"FEW","base":2000}],"obsTime":1781467200},"SBTA":{"icaoId":"SBTA","flightCategory":"VFR","rawOb":"METAR SBTA 142000Z VRB01KT 9999 BKN040 22/18 Q1017","temp":22,"dewp":18,"wdir":"VRB","wspd":1,"visib":"6+","altim":1017,"clouds":[{"cover":"BKN","base":4000}],"obsTime":1781467200},"SBLS":{"icaoId":"SBLS","flightCategory":"VFR","rawOb":"METAR SBLS 142000Z VRB02KT 9999 FEW025 SCT100 21/17 Q1020","temp":21,"dewp":17,"wdir":"VRB","wspd":2,"visib":"6+","altim":1020,"clouds":[{"cover":"FEW","base":2500},{"cover":"SCT","base":10000}],"obsTime":1781467200},"SBAF":{"icaoId":"SBAF","flightCategory":"MVFR","rawOb":" SBAF 142000Z 11006KT 8000 FEW015 BKN070 24/21 Q1015","temp":24,"dewp":21,"wdir":110,"wspd":6,"visib":4.97,"altim":1015,"clouds":[{"cover":"FEW","base":1500},{"cover":"BKN","base":7000}],"obsTime":1781467200},"SBAN":{"icaoId":"SBAN","flightCategory":"VFR","rawOb":"METAR SBAN 142000Z 33004KT 9999 FEW035 26/17 Q1021","temp":26,"dewp":17,"wdir":330,"wspd":4,"visib":"6+","altim":1021,"clouds":[{"cover":"FEW","base":3500}],"obsTime":1781467200},"SBJV":{"icaoId":"SBJV","flightCategory":"MVFR","rawOb":"METAR SBJV 142000Z 14002KT 9999 BKN020 OVC035 20/18 Q1016","temp":20,"dewp":18,"wdir":140,"wspd":2,"visib":"6+","altim":1016,"clouds":[{"cover":"BKN","base":2000},{"cover":"OVC","base":3500}],"obsTime":1781467200},"SBNM":{"icaoId":"SBNM","flightCategory":"VFR","rawOb":"METAR SBNM 142000Z AUTO 18007KT 9999 OVC043 15/09 Q1020","temp":15,"dewp":9,"wdir":180,"wspd":7,"visib":"6+","altim":1020,"clouds":[{"cover":"OVC","base":4300}],"obsTime":1781467200},"SBPF":{"icaoId":"SBPF","flightCategory":"VFR","rawOb":"METAR SBPF 142100Z 23006KT CAVOK 11/08 Q1020","temp":11,"dewp":8,"wdir":230,"wspd":6,"visib":"6+","altim":1020,"clouds":[],"obsTime":1781470800},"SBLE":{"icaoId":"SBLE","flightCategory":"VFR","rawOb":"METAR SBLE 142000Z AUTO VRB02KT CAVOK 28/19 Q1018","temp":28,"dewp":19,"wdir":"VRB","wspd":2,"visib":"6+","altim":1018,"clouds":[],"obsTime":1781467200},"SBIH":{"icaoId":"SBIH","flightCategory":"VFR","rawOb":"METAR SBIH 142000Z 36005KT 9999 SCT020 33/25 Q1011","temp":33,"dewp":25,"wdir":360,"wspd":5,"visib":"6+","altim":1011,"clouds":[{"cover":"SCT","base":2000}],"obsTime":1781467200},"SBMT":{"icaoId":"SBMT","flightCategory":"MVFR","rawOb":"METAR SBMT 142000Z 33004KT 300V020 9999 BKN023 19/16 Q1018","temp":19,"dewp":16,"wdir":330,"wspd":4,"visib":"6+","altim":1018,"clouds":[{"cover":"BKN","base":2300}],"obsTime":1781467200},"SBJP":{"icaoId":"SBJP","flightCategory":"VFR","rawOb":"METAR SBJP 142000Z 13009KT 9999 FEW020 SCT070 27/23 Q1015","temp":27,"dewp":23,"wdir":130,"wspd":9,"visib":"6+","altim":1015,"clouds":[{"cover":"FEW","base":2000},{"cover":"SCT","base":7000}],"obsTime":1781467200},"SBTC":{"icaoId":"SBTC","flightCategory":"VFR","rawOb":"METAR SBTC 142000Z 04005KT CAVOK 26/22 Q1017","temp":26,"dewp":22,"wdir":40,"wspd":5,"visib":"6+","altim":1017,"clouds":[],"obsTime":1781467200}}}