{"updated":1780666495,"count":87,"data":{"SBMO":{"icaoId":"SBMO","flightCategory":"VFR","rawOb":"METAR SBMO 051200Z 25005KT 9999 VCSH FEW006 SCT017 24/24 Q1017","temp":24,"dewp":24,"wdir":250,"wspd":5,"visib":"6+","altim":1017,"clouds":[{"cover":"FEW","base":600},{"cover":"SCT","base":1700}],"obsTime":1780660800},"SBMA":{"icaoId":"SBMA","flightCategory":"VFR","rawOb":"METAR SBMA 051200Z 09001KT CAVOK 29/22 Q1015","temp":29,"dewp":22,"wdir":90,"wspd":1,"visib":"6+","altim":1015,"clouds":[],"obsTime":1780660800},"SBEG":{"icaoId":"SBEG","flightCategory":"IFR","rawOb":"METAR SBEG 051200Z 23003KT 9999 BKN007 26/24 Q1015","temp":26,"dewp":24,"wdir":230,"wspd":3,"visib":"6+","altim":1015,"clouds":[{"cover":"BKN","base":700}],"obsTime":1780660800},"SBME":{"icaoId":"SBME","flightCategory":"MVFR","rawOb":"METAR SBME 051200Z 23004KT 8000 SCT032 BKN070 20/16 Q1026","temp":20,"dewp":16,"wdir":230,"wspd":4,"visib":4.97,"altim":1026,"clouds":[{"cover":"SCT","base":3200},{"cover":"BKN","base":7000}],"obsTime":1780660800},"SBBE":{"icaoId":"SBBE","flightCategory":"VFR","rawOb":"METAR SBBE 051200Z 06003KT 9999 SCT045 BKN100 28/25 Q1014","temp":28,"dewp":25,"wdir":60,"wspd":3,"visib":"6+","altim":1014,"clouds":[{"cover":"SCT","base":4500},{"cover":"BKN","base":10000}],"obsTime":1780660800},"SBMG":{"icaoId":"SBMG","flightCategory":"VFR","rawOb":"METAR SBMG 051200Z 08012KT CAVOK 18/13 Q1024","temp":18,"dewp":13,"wdir":80,"wspd":12,"visib":"6+","altim":1024,"clouds":[],"obsTime":1780660800},"SBFI":{"icaoId":"SBFI","flightCategory":"VFR","rawOb":"METAR SBFI 051200Z 07005KT CAVOK 18/15 Q1023","temp":18,"dewp":15,"wdir":70,"wspd":5,"visib":"6+","altim":1023,"clouds":[],"obsTime":1780660800},"SBMK":{"icaoId":"SBMK","flightCategory":"VFR","rawOb":"METAR SBMK 051200Z 08010KT 9999 SCT035 20/12 Q1026","temp":20,"dewp":12,"wdir":80,"wspd":10,"visib":"6+","altim":1026,"clouds":[{"cover":"SCT","base":3500}],"obsTime":1780660800},"SBLO":{"icaoId":"SBLO","flightCategory":"VFR","rawOb":"METAR SBLO 051200Z 13008KT CAVOK 16/13 Q1026","temp":16,"dewp":13,"wdir":130,"wspd":8,"visib":"6+","altim":1026,"clouds":[],"obsTime":1780660800},"SBCF":{"icaoId":"SBCF","flightCategory":"VFR","rawOb":"METAR SBCF 051200Z 11010KT 9999 FEW025 17/12 Q1027","temp":17,"dewp":12,"wdir":110,"wspd":10,"visib":"6+","altim":1027,"clouds":[{"cover":"FEW","base":2500}],"obsTime":1780660800},"SBCG":{"icaoId":"SBCG","flightCategory":"VFR","rawOb":"METAR SBCG 051200Z 07016KT CAVOK 21/14 Q1022","temp":21,"dewp":14,"wdir":70,"wspd":16,"visib":"6+","altim":1022,"clouds":[],"obsTime":1780660800},"SBFL":{"icaoId":"SBFL","flightCategory":"VFR","rawOb":"METAR SBFL 051200Z 34006KT 9999 FEW040 20/17 Q1026","temp":20,"dewp":17,"wdir":340,"wspd":6,"visib":"6+","altim":1026,"clouds":[{"cover":"FEW","base":4000}],"obsTime":1780660800},"SBMQ":{"icaoId":"SBMQ","flightCategory":"MVFR","rawOb":"METAR SBMQ 051200Z 18004KT 9999 VCSH BKN011 BKN021 BKN078 27/25 Q1015","temp":27,"dewp":25,"wdir":180,"wspd":4,"visib":"6+","altim":1015,"clouds":[{"cover":"BKN","base":1100},{"cover":"BKN","base":2100},{"cover":"BKN","base":7800}],"obsTime":1780660800},"SBNT":{"icaoId":"SBNT","flightCategory":"VFR","rawOb":"METAR SBNT 051200Z 17013KT 130V190 9999 FEW018 SCT036 28/22 Q1015","temp":28,"dewp":22,"wdir":170,"wspd":13,"visib":"6+","altim":1015,"clouds":[{"cover":"FEW","base":1800},{"cover":"SCT","base":3600}],"obsTime":1780660800},"SBCP":{"icaoId":"SBCP","flightCategory":"VFR","rawOb":"METAR SBCP 051200Z 24005KT 9999 SCT015 21/17 Q1025","temp":21,"dewp":17,"wdir":240,"wspd":5,"visib":"6+","altim":1025,"clouds":[{"cover":"SCT","base":1500}],"obsTime":1780660800},"SBFZ":{"icaoId":"SBFZ","flightCategory":"VFR","rawOb":"METAR SBFZ 051200Z 15014KT CAVOK 28/22 Q1015","temp":28,"dewp":22,"wdir":150,"wspd":14,"visib":"6+","altim":1015,"clouds":[],"obsTime":1780660800},"SBPA":{"icaoId":"SBPA","flightCategory":"VFR","rawOb":"METAR SBPA 051200Z 00000KT CAVOK 16/15 Q1024","temp":16,"dewp":15,"wdir":0,"wspd":0,"visib":"6+","altim":1024,"clouds":[],"obsTime":1780660800},"SBBV":{"icaoId":"SBBV","flightCategory":"IFR","rawOb":"METAR SBBV 051200Z COR 17007KT 9999 BKN008 BKN020 FEW030TCU BKN080 24/23 Q1016 RERA","temp":24,"dewp":23,"wdir":170,"wspd":7,"visib":"6+","altim":1016,"clouds":[{"cover":"BKN","base":800},{"cover":"BKN","base":2000},{"cover":"FEW","base":3000},{"cover":"BKN","base":8000}],"obsTime":1780660800},"SBPJ":{"icaoId":"SBPJ","flightCategory":"VFR","rawOb":"METAR SBPJ 051200Z 13016KT 100V160 CAVOK 28/17 Q1018","temp":28,"dewp":17,"wdir":130,"wspd":16,"visib":"6+","altim":1018,"clouds":[],"obsTime":1780660800},"SBGL":{"icaoId":"SBGL","flightCategory":"MVFR","rawOb":"METAR SBGL 051200Z VRB02KT 7000 3000SW SCT009 BKN012 BKN040 19/17 Q1026","temp":19,"dewp":17,"wdir":"VRB","wspd":2,"visib":4.35,"altim":1026,"clouds":[{"cover":"SCT","base":900},{"cover":"BKN","base":1200},{"cover":"BKN","base":4000}],"obsTime":1780660800},"SBPV":{"icaoId":"SBPV","flightCategory":"VFR","rawOb":"METAR SBPV 051200Z 20003KT 9999 FEW020 SCT100 26/21 Q1015","temp":26,"dewp":21,"wdir":200,"wspd":3,"visib":"6+","altim":1015,"clouds":[{"cover":"FEW","base":2000},{"cover":"SCT","base":10000}],"obsTime":1780660800},"SBCR":{"icaoId":"SBCR","flightCategory":"VFR","rawOb":"METAR SBCR 051200Z 11013KT CAVOK 25/15 Q1019","temp":25,"dewp":15,"wdir":110,"wspd":13,"visib":"6+","altim":1019,"clouds":[],"obsTime":1780660800},"SBRB":{"icaoId":"SBRB","flightCategory":"VFR","rawOb":"METAR SBRB 051200Z 12005KT CAVOK 22/22 Q1017","temp":22,"dewp":22,"wdir":120,"wspd":5,"visib":"6+","altim":1017,"clouds":[],"obsTime":1780660800},"SBGO":{"icaoId":"SBGO","flightCategory":"VFR","rawOb":"METAR SBGO 051200Z 09009KT 030V130 CAVOK 20/13 Q1024","temp":20,"dewp":13,"wdir":90,"wspd":9,"visib":"6+","altim":1024,"clouds":[],"obsTime":1780660800},"SBRF":{"icaoId":"SBRF","flightCategory":"VFR","rawOb":"METAR SBRF 051200Z 16013KT 9999 SCT023 28/23 Q1016","temp":28,"dewp":23,"wdir":160,"wspd":13,"visib":"6+","altim":1016,"clouds":[{"cover":"SCT","base":2300}],"obsTime":1780660800},"SBAT":{"icaoId":"SBAT","flightCategory":"VFR","rawOb":"METAR SBAT 051200Z 14006KT CAVOK 28/20 Q1017","temp":28,"dewp":20,"wdir":140,"wspd":6,"visib":"6+","altim":1017,"clouds":[],"obsTime":1780660800},"SBSG":{"icaoId":"SBSG","flightCategory":"MVFR","rawOb":"METAR SBSG 051200Z 17009KT 130V210 9999 BKN020 27/23 Q1016","temp":27,"dewp":23,"wdir":170,"wspd":9,"visib":"6+","altim":1016,"clouds":[{"cover":"BKN","base":2000}],"obsTime":1780660800},"SBGR":{"icaoId":"SBGR","flightCategory":"VFR","rawOb":"METAR SBGR 051200Z 05007KT 9999 SCT011 15/12 Q1028","temp":15,"dewp":12,"wdir":50,"wspd":7,"visib":"6+","altim":1028,"clouds":[{"cover":"SCT","base":1100}],"obsTime":1780660800},"SBSL":{"icaoId":"SBSL","flightCategory":"VFR","rawOb":"METAR SBSL 051200Z 12009KT CAVOK 28/25 Q1014","temp":28,"dewp":25,"wdir":120,"wspd":9,"visib":"6+","altim":1014,"clouds":[],"obsTime":1780660800},"SBCB":{"icaoId":"SBCB","flightCategory":"MVFR","rawOb":"METAR SBCB 051200Z 02003KT 9999 FEW010 BKN030 20/17 Q1026","temp":20,"dewp":17,"wdir":20,"wspd":3,"visib":"6+","altim":1026,"clouds":[{"cover":"FEW","base":1000},{"cover":"BKN","base":3000}],"obsTime":1780660800},"SBSN":{"icaoId":"SBSN","flightCategory":"MVFR","rawOb":"METAR SBSN 051200Z 07009KT 9999 TS VCSH BKN013 SCT030CB OVC080 26/24 Q1015 RERA","temp":26,"dewp":24,"wdir":70,"wspd":9,"visib":"6+","altim":1015,"clouds":[{"cover":"BKN","base":1300},{"cover":"SCT","base":3000},{"cover":"OVC","base":8000}],"obsTime":1780660800},"SBHT":{"icaoId":"SBHT","flightCategory":"MVFR","rawOb":"METAR SBHT 051200Z 08008KT 9999 BKN015 BKN090 26/24 Q1015","temp":26,"dewp":24,"wdir":80,"wspd":8,"visib":"6+","altim":1015,"clouds":[{"cover":"BKN","base":1500},{"cover":"BKN","base":9000}],"obsTime":1780660800},"SBSP":{"icaoId":"SBSP","flightCategory":"VFR","rawOb":"METAR SBSP 051200Z 12006KT 060V170 CAVOK 16/12 Q1029","temp":16,"dewp":12,"wdir":120,"wspd":6,"visib":"6+","altim":1029,"clouds":[],"obsTime":1780660800},"SBCT":{"icaoId":"SBCT","flightCategory":"MVFR","rawOb":"METAR SBCT 051200Z COR 07008KT 9999 BKN013 14/12 Q1028","temp":14,"dewp":12,"wdir":70,"wspd":8,"visib":"6+","altim":1028,"clouds":[{"cover":"BKN","base":1300}],"obsTime":1780660800},"SBSV":{"icaoId":"SBSV","flightCategory":"IFR","rawOb":"METAR SBSV 051200Z 16014KT 4000 -SHRA BKN023 FEW025TCU OVC050 26/21 Q1019","temp":26,"dewp":21,"wdir":160,"wspd":14,"visib":2.49,"altim":1019,"clouds":[{"cover":"BKN","base":2300},{"cover":"FEW","base":2500},{"cover":"OVC","base":5000}],"obsTime":1780660800},"SBTE":{"icaoId":"SBTE","flightCategory":"VFR","rawOb":"METAR SBTE 051200Z 12009KT CAVOK 29/21 Q1015","temp":29,"dewp":21,"wdir":120,"wspd":9,"visib":"6+","altim":1015,"clouds":[],"obsTime":1780660800},"SBIL":{"icaoId":"SBIL","flightCategory":"VFR","rawOb":"METAR SBIL 051200Z 23010KT 9999 FEW020 24/19 Q1021","temp":24,"dewp":19,"wdir":230,"wspd":10,"visib":"6+","altim":1021,"clouds":[{"cover":"FEW","base":2000}],"obsTime":1780660800},"SBBR":{"icaoId":"SBBR","flightCategory":"VFR","rawOb":"METAR SBBR 051200Z 10015KT 9999 FEW016 17/12 Q1026","temp":17,"dewp":12,"wdir":100,"wspd":15,"visib":"6+","altim":1026,"clouds":[{"cover":"FEW","base":1600}],"obsTime":1780660800},"SBUL":{"icaoId":"SBUL","flightCategory":"VFR","rawOb":"METAR SBUL 051200Z 11010KT 070V140 CAVOK 16/11 Q1026","temp":16,"dewp":11,"wdir":110,"wspd":10,"visib":"6+","altim":1026,"clouds":[],"obsTime":1780660800},"SBJU":{"icaoId":"SBJU","flightCategory":"MVFR","rawOb":"METAR SBJU 051200Z 18010KT 9999 BKN020 25/19 Q1019","temp":25,"dewp":19,"wdir":180,"wspd":10,"visib":"6+","altim":1019,"clouds":[{"cover":"BKN","base":2000}],"obsTime":1780660800},"SBUR":{"icaoId":"SBUR","flightCategory":"VFR","rawOb":"METAR SBUR 051200Z 06007KT CAVOK 18/11 Q1026","temp":18,"dewp":11,"wdir":60,"wspd":7,"visib":"6+","altim":1026,"clouds":[],"obsTime":1780660800},"SBVT":{"icaoId":"SBVT","flightCategory":"MVFR","rawOb":"METAR SBVT 051200Z 20009KT 9999 FEW012 BKN025 20/17 Q1024","temp":20,"dewp":17,"wdir":200,"wspd":9,"visib":"6+","altim":1024,"clouds":[{"cover":"FEW","base":1200},{"cover":"BKN","base":2500}],"obsTime":1780660800},"SBCZ":{"icaoId":"SBCZ","flightCategory":"VFR","rawOb":"METAR SBCZ 051200Z 14002KT CAVOK 23/22 Q1017","temp":23,"dewp":22,"wdir":140,"wspd":2,"visib":"6+","altim":1017,"clouds":[],"obsTime":1780660800},"SBKP":{"icaoId":"SBKP","flightCategory":"VFR","rawOb":"METAR SBKP 051200Z 12009KT CAVOK 16/11 Q1027","temp":16,"dewp":11,"wdir":120,"wspd":9,"visib":"6+","altim":1027,"clouds":[],"obsTime":1780660800},"SBOI":{"icaoId":"SBOI","flightCategory":"VFR","rawOb":"METAR SBOI 051200Z AUTO 25003KT 9999 FEW005 SCT019 BKN044 26/25 Q1015 RERA","temp":26,"dewp":25,"wdir":250,"wspd":3,"visib":"6+","altim":1015,"clouds":[{"cover":"FEW","base":500},{"cover":"SCT","base":1900},{"cover":"BKN","base":4400}],"obsTime":1780660800},"SBPB":{"icaoId":"SBPB","flightCategory":"VFR","rawOb":"METAR SBPB 051200Z 11007KT 9999 FEW020 29/24 Q1014","temp":29,"dewp":24,"wdir":110,"wspd":7,"visib":"6+","altim":1014,"clouds":[{"cover":"FEW","base":2000}],"obsTime":1780660800},"SBCO":{"icaoId":"SBCO","flightCategory":"VFR","rawOb":"METAR SBCO 051200Z 10003KT CAVOK 15/14 Q1024","temp":15,"dewp":14,"wdir":100,"wspd":3,"visib":"6+","altim":1024,"clouds":[],"obsTime":1780660800},"SBPL":{"icaoId":"SBPL","flightCategory":"MVFR","rawOb":"METAR SBPL 051200Z 13013KT 9999 BKN025 26/17 Q1020","temp":26,"dewp":17,"wdir":130,"wspd":13,"visib":"6+","altim":1020,"clouds":[{"cover":"BKN","base":2500}],"obsTime":1780660800},"SBBU":{"icaoId":"SBBU","flightCategory":"VFR","rawOb":"METAR SBBU 051200Z 06007KT CAVOK 18/15 Q1027","temp":18,"dewp":15,"wdir":60,"wspd":7,"visib":"6+","altim":1027,"clouds":[],"obsTime":1780660800},"SBPP":{"icaoId":"SBPP","flightCategory":"IFR","rawOb":"METAR SBPP 051200Z 09009KT 4000 BR FEW005 15/15 Q1024","temp":15,"dewp":15,"wdir":90,"wspd":9,"visib":2.49,"altim":1024,"clouds":[{"cover":"FEW","base":500}],"obsTime":1780660800},"SBAX":{"icaoId":"SBAX","flightCategory":"VFR","rawOb":"METAR SBAX 051200Z 11014KT 9999 SCT012 15/13 Q1027","temp":15,"dewp":13,"wdir":110,"wspd":14,"visib":"6+","altim":1027,"clouds":[{"cover":"SCT","base":1200}],"obsTime":1780660800},"SBDN":{"icaoId":"SBDN","flightCategory":"VFR","rawOb":"METAR SBDN 051200Z 11013KT CAVOK 17/13 Q1025","temp":17,"dewp":13,"wdir":110,"wspd":13,"visib":"6+","altim":1025,"clouds":[],"obsTime":1780660800},"SBPS":{"icaoId":"SBPS","flightCategory":"VFR","rawOb":"METAR SBPS 051200Z VRB05KT 9999 SCT020 BKN040 22/19 Q1022","temp":22,"dewp":19,"wdir":"VRB","wspd":5,"visib":"6+","altim":1022,"clouds":[{"cover":"SCT","base":2000},{"cover":"BKN","base":4000}],"obsTime":1780660800},"SBCA":{"icaoId":"SBCA","flightCategory":"VFR","rawOb":"METAR SBCA 051200Z 06008KT CAVOK 16/12 Q1026","temp":16,"dewp":12,"wdir":60,"wspd":8,"visib":"6+","altim":1026,"clouds":[],"obsTime":1780660800},"SBSC":{"icaoId":"SBSC","flightCategory":"VFR","rawOb":"METAR SBSC 051200Z 36003KT 9999 FEW010 20/18 Q1026","temp":20,"dewp":18,"wdir":360,"wspd":3,"visib":"6+","altim":1026,"clouds":[{"cover":"FEW","base":1000}],"obsTime":1780660800},"SBES":{"icaoId":"SBES","flightCategory":"MVFR","rawOb":"METAR SBES 051200Z 00000KT 9999 FEW013 BKN030 18/// Q1026","temp":null,"dewp":null,"wdir":0,"wspd":0,"visib":"6+","altim":1026,"clouds":[{"cover":"FEW","base":1300},{"cover":"BKN","base":3000}],"obsTime":1780660800},"SBSJ":{"icaoId":"SBSJ","flightCategory":"VFR","rawOb":"METAR SBSJ 051200Z 07005KT CAVOK 16/12 Q1028","temp":16,"dewp":12,"wdir":70,"wspd":5,"visib":"6+","altim":1028,"clouds":[],"obsTime":1780660800},"SBSM":{"icaoId":"SBSM","flightCategory":"VFR","rawOb":"METAR SBSM 051200Z 07005KT 9999 3000E FEW001 15/15 Q1023","temp":15,"dewp":15,"wdir":70,"wspd":5,"visib":"6+","altim":1023,"clouds":[{"cover":"FEW","base":100}],"obsTime":1780660800},"SBBQ":{"icaoId":"SBBQ","flightCategory":"MVFR","rawOb":"METAR SBBQ 051200Z 09006KT 9999 BKN015 14/10 Q1029","temp":14,"dewp":10,"wdir":90,"wspd":6,"visib":"6+","altim":1029,"clouds":[{"cover":"BKN","base":1500}],"obsTime":1780660800},"SBGM":{"icaoId":"SBGM","flightCategory":"VFR","rawOb":"METAR SBGM 051200Z 11003KT CAVOK 22/20 Q1017","temp":22,"dewp":20,"wdir":110,"wspd":3,"visib":"6+","altim":1017,"clouds":[],"obsTime":1780660800},"SBSR":{"icaoId":"SBSR","flightCategory":"VFR","rawOb":"METAR SBSR 051200Z 10007KT CAVOK 19/12 Q1025","temp":19,"dewp":12,"wdir":100,"wspd":7,"visib":"6+","altim":1025,"clouds":[],"obsTime":1780660800},"SBCC":{"icaoId":"SBCC","flightCategory":"VFR","rawOb":"METAR SBCC 051200Z 07011KT CAVOK 26/18 Q1018","temp":26,"dewp":18,"wdir":70,"wspd":11,"visib":"6+","altim":1018,"clouds":[],"obsTime":1780660800},"SBTD":{"icaoId":"SBTD","flightCategory":"VFR","rawOb":"METAR SBTD 051200Z /////KT CAVOK 16/13 Q1025","temp":16,"dewp":13,"wdir":null,"wspd":null,"visib":"6+","altim":1025,"clouds":[],"obsTime":1780660800},"SBIP":{"icaoId":"SBIP","flightCategory":"VFR","rawOb":"METAR SBIP 051200Z AUTO 20003KT 140V240 CAVOK 21/15 Q1026","temp":21,"dewp":15,"wdir":200,"wspd":3,"visib":"6+","altim":1026,"clouds":[],"obsTime":1780660800},"SBTF":{"icaoId":"SBTF","flightCategory":"VFR","rawOb":"METAR SBTF 051200Z 06003KT 9999 SCT006 BKN090 25/25 Q1015","temp":25,"dewp":25,"wdir":60,"wspd":3,"visib":"6+","altim":1015,"clouds":[{"cover":"SCT","base":600},{"cover":"BKN","base":9000}],"obsTime":1780660800},"SBAR":{"icaoId":"SBAR","flightCategory":"MVFR","rawOb":"METAR SBAR 051200Z 21005KT 120V290 9999 4000N -SHRA BKN023 BKN100 25/23 Q1017","temp":25,"dewp":23,"wdir":210,"wspd":5,"visib":"6+","altim":1017,"clouds":[{"cover":"BKN","base":2300},{"cover":"BKN","base":10000}],"obsTime":1780660800},"SBTT":{"icaoId":"SBTT","flightCategory":"VFR","rawOb":"METAR SBTT 051200Z 00000KT 9999 FEW010 BKN090 24/23 Q1016","temp":24,"dewp":23,"wdir":0,"wspd":0,"visib":"6+","altim":1016,"clouds":[{"cover":"FEW","base":1000},{"cover":"BKN","base":9000}],"obsTime":1780660800},"SBTU":{"icaoId":"SBTU","flightCategory":"VFR","rawOb":"METAR SBTU 051200Z AUTO 23006KT 9999 // FEW006/// ///// Q1017","temp":null,"dewp":null,"wdir":230,"wspd":6,"visib":"6+","altim":1017,"clouds":[{"cover":"FEW","base":600}],"obsTime":1780660800},"SBBH":{"icaoId":"SBBH","flightCategory":"VFR","rawOb":"METAR SBBH 051200Z 11008KT 9999 FEW025 17/12 Q1027","temp":17,"dewp":12,"wdir":110,"wspd":8,"visib":"6+","altim":1027,"clouds":[{"cover":"FEW","base":2500}],"obsTime":1780660800},"SBUY":{"icaoId":"SBUY","flightCategory":"VFR","rawOb":"METAR SBUY 051200Z 00000KT 9999 FEW025 SCT100 25/24 Q1014","temp":25,"dewp":24,"wdir":0,"wspd":0,"visib":"6+","altim":1014,"clouds":[{"cover":"FEW","base":2500},{"cover":"SCT","base":10000}],"obsTime":1780660800},"SBKG":{"icaoId":"SBKG","flightCategory":"MVFR","rawOb":"METAR SBKG 051200Z 16011KT 9999 BKN018 23/20 Q1019","temp":23,"dewp":20,"wdir":160,"wspd":11,"visib":"6+","altim":1019,"clouds":[{"cover":"BKN","base":1800}],"obsTime":1780660800},"SBCJ":{"icaoId":"SBCJ","flightCategory":"VFR","rawOb":"METAR SBCJ 051200Z 15007KT 9999 FEW020 SCT070 26/18 Q1020","temp":26,"dewp":18,"wdir":150,"wspd":7,"visib":"6+","altim":1020,"clouds":[{"cover":"FEW","base":2000},{"cover":"SCT","base":7000}],"obsTime":1780660800},"SBVH":{"icaoId":"SBVH","flightCategory":"VFR","rawOb":"METAR SBVH 051200Z 10009KT CAVOK 22/17 Q1020","temp":22,"dewp":17,"wdir":100,"wspd":9,"visib":"6+","altim":1020,"clouds":[],"obsTime":1780660800},"SBJP":{"icaoId":"SBJP","flightCategory":"VFR","rawOb":"METAR SBJP 051200Z 14010KT 9999 FEW020 SCT070 27/23 Q1016","temp":27,"dewp":23,"wdir":140,"wspd":10,"visib":"6+","altim":1016,"clouds":[{"cover":"FEW","base":2000},{"cover":"SCT","base":7000}],"obsTime":1780660800},"SBJV":{"icaoId":"SBJV","flightCategory":"VFR","rawOb":"METAR SBJV 051200Z 00000KT 9999 SCT018 18/18 Q1027","temp":18,"dewp":18,"wdir":0,"wspd":0,"visib":"6+","altim":1027,"clouds":[{"cover":"SCT","base":1800}],"obsTime":1780660800},"SBNM":{"icaoId":"SBNM","flightCategory":"VFR","rawOb":"METAR SBNM 051200Z AUTO 07004KT 040V110 CAVOK 15/13 Q1024","temp":15,"dewp":13,"wdir":70,"wspd":4,"visib":"6+","altim":1024,"clouds":[],"obsTime":1780660800},"SBPF":{"icaoId":"SBPF","flightCategory":"VFR","rawOb":"METAR SBPF 051200Z 03011KT CAVOK 14/11 Q1026","temp":14,"dewp":11,"wdir":30,"wspd":11,"visib":"6+","altim":1026,"clouds":[],"obsTime":1780660800},"SBAN":{"icaoId":"SBAN","flightCategory":"VFR","rawOb":"METAR SBAN 051200Z 08016KT CAVOK 17/12 Q1025","temp":17,"dewp":12,"wdir":80,"wspd":16,"visib":"6+","altim":1025,"clouds":[],"obsTime":1780660800},"SBLE":{"icaoId":"SBLE","flightCategory":"VFR","rawOb":"METAR SBLE 051200Z AUTO 16008KT 130V190 9999 FEW019 SCT032 OVC048 20/20 Q1024","temp":20,"dewp":20,"wdir":160,"wspd":8,"visib":"6+","altim":1024,"clouds":[{"cover":"FEW","base":1900},{"cover":"SCT","base":3200},{"cover":"OVC","base":4800}],"obsTime":1780660800},"SBAF":{"icaoId":"SBAF","flightCategory":"IFR","rawOb":"METAR SBAF 051200Z 01002KT 3000 BR SCT010 BKN030 19/19 Q1026","temp":19,"dewp":19,"wdir":10,"wspd":2,"visib":1.86,"altim":1026,"clouds":[{"cover":"SCT","base":1000},{"cover":"BKN","base":3000}],"obsTime":1780660800},"SBGW":{"icaoId":"SBGW","flightCategory":"MVFR","rawOb":"METAR SBGW 051200Z 06003KT 350V130 7000 FEW020 17/10 Q1028","temp":17,"dewp":10,"wdir":60,"wspd":3,"visib":4.35,"altim":1028,"clouds":[{"cover":"FEW","base":2000}],"obsTime":1780660800},"SBJR":{"icaoId":"SBJR","flightCategory":"VFR","rawOb":"METAR SBJR 051200Z 03003KT 9999 FEW007 BKN040 20/18 Q1026","temp":20,"dewp":18,"wdir":30,"wspd":3,"visib":"6+","altim":1026,"clouds":[{"cover":"FEW","base":700},{"cover":"BKN","base":4000}],"obsTime":1780660800},"SBLS":{"icaoId":"SBLS","flightCategory":"VFR","rawOb":"METAR SBLS 051200Z 13009KT 070V130 9999 FEW018 16/12 Q1027","temp":16,"dewp":12,"wdir":130,"wspd":9,"visib":"6+","altim":1027,"clouds":[{"cover":"FEW","base":1800}],"obsTime":1780660800},"SBMT":{"icaoId":"SBMT","flightCategory":"VFR","rawOb":"METAR SBMT 051200Z 10007KT 060V130 9999 FEW013 15/12 Q1028","temp":15,"dewp":12,"wdir":100,"wspd":7,"visib":"6+","altim":1028,"clouds":[{"cover":"FEW","base":1300}],"obsTime":1780660800},"SBST":{"icaoId":"SBST","flightCategory":"VFR","rawOb":"METAR SBST 051200Z 02002KT 9999 FEW016 18/16 Q1026","temp":18,"dewp":16,"wdir":20,"wspd":2,"visib":"6+","altim":1026,"clouds":[{"cover":"FEW","base":1600}],"obsTime":1780660800},"SBTA":{"icaoId":"SBTA","flightCategory":"VFR","rawOb":"METAR SBTA 051200Z 06003KT 010V140 9999 FEW015 17/13 Q1027","temp":17,"dewp":13,"wdir":60,"wspd":3,"visib":"6+","altim":1027,"clouds":[{"cover":"FEW","base":1500}],"obsTime":1780660800},"SBIH":{"icaoId":"SBIH","flightCategory":"VFR","rawOb":"METAR SBIH 051200Z 06002KT 9999 FEW013 BKN080 27/25 Q1014","temp":27,"dewp":25,"wdir":60,"wspd":2,"visib":"6+","altim":1014,"clouds":[{"cover":"FEW","base":1300},{"cover":"BKN","base":8000}],"obsTime":1780660800}}}