{"updated":1779522828,"count":50,"data":{"SBRF":{"icaoId":"SBRF","flightCategory":"MVFR","rawOb":"METAR SBRF 230600Z 17005KT 5000 -RA BR BKN010 BKN018 BKN060 23/23 Q1014","temp":23,"dewp":23,"wdir":170,"wspd":5,"visib":3.11,"altim":1014,"clouds":[{"cover":"BKN","base":1000},{"cover":"BKN","base":1800},{"cover":"BKN","base":6000}],"obsTime":1779516000},"SBMG":{"icaoId":"SBMG","flightCategory":"MVFR","rawOb":"METAR SBMG 230600Z AUTO 15003KT 6000 -RA FEW032 BKN046 16/15 Q1022","temp":16,"dewp":15,"wdir":150,"wspd":3,"visib":3.73,"altim":1022,"clouds":[{"cover":"FEW","base":3200},{"cover":"BKN","base":4600}],"obsTime":1779516000},"SBGO":{"icaoId":"SBGO","flightCategory":"VFR","rawOb":"METAR SBGO 230600Z 13005KT CAVOK 20/16 Q1021","temp":20,"dewp":16,"wdir":130,"wspd":5,"visib":"6+","altim":1021,"clouds":[],"obsTime":1779516000},"SBPA":{"icaoId":"SBPA","flightCategory":"VFR","rawOb":"METAR SBPA 230600Z 08004KT 060V120 9999 SCT003 BKN087 14/13 Q1025","temp":14,"dewp":13,"wdir":80,"wspd":4,"visib":"6+","altim":1025,"clouds":[{"cover":"SCT","base":300},{"cover":"BKN","base":8700}],"obsTime":1779516000},"SBCT":{"icaoId":"SBCT","flightCategory":"IFR","rawOb":"METAR SBCT 230600Z 14002KT 4000 -RADZ OVC005 10/10 Q1025","temp":10,"dewp":10,"wdir":140,"wspd":2,"visib":2.49,"altim":1025,"clouds":[{"cover":"OVC","base":500}],"obsTime":1779516000},"SBPJ":{"icaoId":"SBPJ","flightCategory":"VFR","rawOb":"METAR SBPJ 230600Z 19007KT 9999 FEW045 25/20 Q1014","temp":25,"dewp":20,"wdir":190,"wspd":7,"visib":"6+","altim":1014,"clouds":[{"cover":"FEW","base":4500}],"obsTime":1779516000},"SBEG":{"icaoId":"SBEG","flightCategory":"VFR","rawOb":"METAR SBEG 230600Z VRB01KT 9999 FEW020 25/24 Q1014","temp":25,"dewp":24,"wdir":"VRB","wspd":1,"visib":"6+","altim":1014,"clouds":[{"cover":"FEW","base":2000}],"obsTime":1779516000},"SBPV":{"icaoId":"SBPV","flightCategory":"MVFR","rawOb":"METAR SBPV 230600Z 15009KT 9999 OVC010 21/17 Q1017","temp":21,"dewp":17,"wdir":150,"wspd":9,"visib":"6+","altim":1017,"clouds":[{"cover":"OVC","base":1000}],"obsTime":1779516000},"SBGR":{"icaoId":"SBGR","flightCategory":"IFR","rawOb":"METAR SBGR 230600Z 07003KT 9999 OVC009 16/15 Q1024","temp":16,"dewp":15,"wdir":70,"wspd":3,"visib":"6+","altim":1024,"clouds":[{"cover":"OVC","base":900}],"obsTime":1779516000},"SBRB":{"icaoId":"SBRB","flightCategory":"MVFR","rawOb":"METAR SBRB 230600Z 15006KT 8000 BKN040 21/17 Q1018","temp":21,"dewp":17,"wdir":150,"wspd":6,"visib":4.97,"altim":1018,"clouds":[{"cover":"BKN","base":4000}],"obsTime":1779516000},"SBJU":{"icaoId":"SBJU","flightCategory":"VFR","rawOb":"METAR SBJU 230600Z 15008KT 9999 SCT018 23/18 Q1016","temp":23,"dewp":18,"wdir":150,"wspd":8,"visib":"6+","altim":1016,"clouds":[{"cover":"SCT","base":1800}],"obsTime":1779516000},"SBBR":{"icaoId":"SBBR","flightCategory":"VFR","rawOb":"METAR SBBR 230600Z 10009KT CAVOK 17/15 Q1023","temp":17,"dewp":15,"wdir":100,"wspd":9,"visib":"6+","altim":1023,"clouds":[],"obsTime":1779516000},"SBSG":{"icaoId":"SBSG","flightCategory":"VFR","rawOb":"METAR SBSG 230600Z 17003KT 130V210 9999 FEW023 23/21 Q1013","temp":23,"dewp":21,"wdir":170,"wspd":3,"visib":"6+","altim":1013,"clouds":[{"cover":"FEW","base":2300}],"obsTime":1779516000},"SBSL":{"icaoId":"SBSL","flightCategory":"VFR","rawOb":"METAR SBSL 230600Z 07002KT 9999 FEW020 26/25 Q1012","temp":26,"dewp":25,"wdir":70,"wspd":2,"visib":"6+","altim":1012,"clouds":[{"cover":"FEW","base":2000}],"obsTime":1779516000},"SBCF":{"icaoId":"SBCF","flightCategory":"VFR","rawOb":"METAR SBCF 230600Z 16006KT CAVOK 17/15 Q1024","temp":17,"dewp":15,"wdir":160,"wspd":6,"visib":"6+","altim":1024,"clouds":[],"obsTime":1779516000},"SBSN":{"icaoId":"SBSN","flightCategory":"VFR","rawOb":"METAR SBSN 230600Z 17002KT 9999 FEW025 SCT090 25/25 Q1012","temp":25,"dewp":25,"wdir":170,"wspd":2,"visib":"6+","altim":1012,"clouds":[{"cover":"FEW","base":2500},{"cover":"SCT","base":9000}],"obsTime":1779516000},"SBKP":{"icaoId":"SBKP","flightCategory":"VFR","rawOb":"METAR SBKP 230600Z 13008KT 9999 SCT048 16/14 Q1022","temp":16,"dewp":14,"wdir":130,"wspd":8,"visib":"6+","altim":1022,"clouds":[{"cover":"SCT","base":4800}],"obsTime":1779516000},"SBFI":{"icaoId":"SBFI","flightCategory":"IFR","rawOb":"METAR SBFI 230600Z 22004KT 9999 BKN007 SCT080 13/13 Q1023","temp":13,"dewp":13,"wdir":220,"wspd":4,"visib":"6+","altim":1023,"clouds":[{"cover":"BKN","base":700},{"cover":"SCT","base":8000}],"obsTime":1779516000},"SBSP":{"icaoId":"SBSP","flightCategory":"IFR","rawOb":"METAR SBSP 230600Z AUTO 14004KT 090V160 9999 OVC008 15/14 Q1024","temp":15,"dewp":14,"wdir":140,"wspd":4,"visib":"6+","altim":1024,"clouds":[{"cover":"OVC","base":800}],"obsTime":1779516000},"SBLO":{"icaoId":"SBLO","flightCategory":"VFR","rawOb":"METAR SBLO 230600Z 16003KT 9999 BKN045 15/13 Q1023","temp":15,"dewp":13,"wdir":160,"wspd":3,"visib":"6+","altim":1023,"clouds":[{"cover":"BKN","base":4500}],"obsTime":1779516000},"SBSV":{"icaoId":"SBSV","flightCategory":"MVFR","rawOb":"METAR SBSV 230600Z 13009KT 9999 BKN023 27/22 Q1016","temp":27,"dewp":22,"wdir":130,"wspd":9,"visib":"6+","altim":1016,"clouds":[{"cover":"BKN","base":2300}],"obsTime":1779516000},"SBFL":{"icaoId":"SBFL","flightCategory":"IFR","rawOb":"METAR SBFL 230600Z 25007KT 8000 -RA BKN005 OVC015 15/15 Q1024","temp":15,"dewp":15,"wdir":250,"wspd":7,"visib":4.97,"altim":1024,"clouds":[{"cover":"BKN","base":500},{"cover":"OVC","base":1500}],"obsTime":1779516000},"SBTE":{"icaoId":"SBTE","flightCategory":"VFR","rawOb":"METAR SBTE 230600Z 18006KT CAVOK 25/23 Q1012","temp":25,"dewp":23,"wdir":180,"wspd":6,"visib":"6+","altim":1012,"clouds":[],"obsTime":1779516000},"SBUL":{"icaoId":"SBUL","flightCategory":"VFR","rawOb":"METAR SBUL 230600Z 10006KT CAVOK 19/16 Q1023","temp":19,"dewp":16,"wdir":100,"wspd":6,"visib":"6+","altim":1023,"clouds":[],"obsTime":1779516000},"SBMA":{"icaoId":"SBMA","flightCategory":"VFR","rawOb":"METAR SBMA 230600Z 00000KT CAVOK 25/23 Q1012","temp":25,"dewp":23,"wdir":0,"wspd":0,"visib":"6+","altim":1012,"clouds":[],"obsTime":1779516000},"SBCG":{"icaoId":"SBCG","flightCategory":"MVFR","rawOb":"METAR SBCG 230600Z 14008KT 9999 SCT005 OVC011 17/15 Q1021","temp":17,"dewp":15,"wdir":140,"wspd":8,"visib":"6+","altim":1021,"clouds":[{"cover":"SCT","base":500},{"cover":"OVC","base":1100}],"obsTime":1779516000},"SBUR":{"icaoId":"SBUR","flightCategory":"VFR","rawOb":"METAR SBUR 230600Z 04004KT CAVOK 20/16 Q1022","temp":20,"dewp":16,"wdir":40,"wspd":4,"visib":"6+","altim":1022,"clouds":[],"obsTime":1779516000},"SBVT":{"icaoId":"SBVT","flightCategory":"VFR","rawOb":"METAR SBVT 230600Z 30002KT 9999 SCT031 OVC038 20/19 Q1022","temp":20,"dewp":19,"wdir":300,"wspd":2,"visib":"6+","altim":1022,"clouds":[{"cover":"SCT","base":3100},{"cover":"OVC","base":3800}],"obsTime":1779516000},"SBME":{"icaoId":"SBME","flightCategory":"MVFR","rawOb":"METAR SBME 230600Z 00000KT 9999 BKN020 OVC070 20/18 Q1023","temp":20,"dewp":18,"wdir":0,"wspd":0,"visib":"6+","altim":1023,"clouds":[{"cover":"BKN","base":2000},{"cover":"OVC","base":7000}],"obsTime":1779516000},"SBMO":{"icaoId":"SBMO","flightCategory":"MVFR","rawOb":"METAR SBMO 230600Z 09004KT 8000 BKN015 23/23 Q1015","temp":23,"dewp":23,"wdir":90,"wspd":4,"visib":4.97,"altim":1015,"clouds":[{"cover":"BKN","base":1500}],"obsTime":1779516000},"SBMQ":{"icaoId":"SBMQ","flightCategory":"VFR","rawOb":"METAR SBMQ 230600Z 29003KT CAVOK 25/24 Q1012","temp":25,"dewp":24,"wdir":290,"wspd":3,"visib":"6+","altim":1012,"clouds":[],"obsTime":1779516000},"SBGL":{"icaoId":"SBGL","flightCategory":"VFR","rawOb":"METAR SBGL 230600Z 14003KT 9999 SCT030 OVC050 19/18 Q1022","temp":19,"dewp":18,"wdir":140,"wspd":3,"visib":"6+","altim":1022,"clouds":[{"cover":"SCT","base":3000},{"cover":"OVC","base":5000}],"obsTime":1779516000},"SBNT":{"icaoId":"SBNT","flightCategory":"VFR","rawOb":"METAR SBNT 230600Z 18007KT 9999 FEW018 23/21 Q1013","temp":23,"dewp":21,"wdir":180,"wspd":7,"visib":"6+","altim":1013,"clouds":[{"cover":"FEW","base":1800}],"obsTime":1779516000},"SBFZ":{"icaoId":"SBFZ","flightCategory":"VFR","rawOb":"METAR SBFZ 230600Z 17003KT 120V200 9999 SCT016 SCT070 27/24 Q1012","temp":27,"dewp":24,"wdir":170,"wspd":3,"visib":"6+","altim":1012,"clouds":[{"cover":"SCT","base":1600},{"cover":"SCT","base":7000}],"obsTime":1779516000},"SBBV":{"icaoId":"SBBV","flightCategory":"VFR","rawOb":"METAR SBBV 230600Z 06003KT 9999 FEW020 FEW030TCU SCT100 25/24 Q1014","temp":25,"dewp":24,"wdir":60,"wspd":3,"visib":"6+","altim":1014,"clouds":[{"cover":"FEW","base":2000},{"cover":"FEW","base":3000},{"cover":"SCT","base":10000}],"obsTime":1779516000},"SBBE":{"icaoId":"SBBE","flightCategory":"IFR","rawOb":"METAR SBBE 230600Z 13014KT 4000 -RA BR SCT008 BKN020 BKN080 24/24 Q1014 RERA","temp":24,"dewp":24,"wdir":130,"wspd":14,"visib":2.49,"altim":1014,"clouds":[{"cover":"SCT","base":800},{"cover":"BKN","base":2000},{"cover":"BKN","base":8000}],"obsTime":1779516000},"SBOI":{"icaoId":"SBOI","flightCategory":"MVFR","rawOb":"METAR SBOI 230700Z AUTO 35003KT 9999 // BKN015/// OVC100/// 25/24 Q1013","temp":25,"dewp":24,"wdir":350,"wspd":3,"visib":"6+","altim":1013,"clouds":[{"cover":"BKN","base":1500},{"cover":"OVC","base":10000}],"obsTime":1779519600},"SBPL":{"icaoId":"SBPL","flightCategory":"VFR","rawOb":"METAR SBPL 230600Z 10008KT CAVOK 23/19 Q1017","temp":23,"dewp":19,"wdir":100,"wspd":8,"visib":"6+","altim":1017,"clouds":[],"obsTime":1779516000},"SBAX":{"icaoId":"SBAX","flightCategory":"VFR","rawOb":"METAR SBAX 230600Z AUTO 10006KT CAVOK ///// Q1024","temp":null,"dewp":null,"wdir":100,"wspd":6,"visib":"6+","altim":1024,"clouds":[],"obsTime":1779516000},"SBIP":{"icaoId":"SBIP","flightCategory":"VFR","rawOb":"METAR SBIP 230600Z AUTO 20003KT CAVOK 19/19 Q1022","temp":19,"dewp":19,"wdir":200,"wspd":3,"visib":"6+","altim":1022,"clouds":[],"obsTime":1779516000},"SBPS":{"icaoId":"SBPS","flightCategory":"VFR","rawOb":"METAR SBPS 230600Z 13009KT 100V180 9999 VCSH SCT020 OVC070 26/21 Q1019","temp":26,"dewp":21,"wdir":130,"wspd":9,"visib":"6+","altim":1019,"clouds":[{"cover":"SCT","base":2000},{"cover":"OVC","base":7000}],"obsTime":1779516000},"SBAR":{"icaoId":"SBAR","flightCategory":"MVFR","rawOb":"METAR SBAR 230600Z 14014KT 9999 VCSH FEW010 BKN015 BKN050 26/23 Q1015","temp":26,"dewp":23,"wdir":140,"wspd":14,"visib":"6+","altim":1015,"clouds":[{"cover":"FEW","base":1000},{"cover":"BKN","base":1500},{"cover":"BKN","base":5000}],"obsTime":1779516000},"SBSC":{"icaoId":"SBSC","flightCategory":"MVFR","rawOb":"METAR SBSC 230600Z 03004KT 8000 FEW007 BKN012 OVC040 18/17 Q1023","temp":18,"dewp":17,"wdir":30,"wspd":4,"visib":4.97,"altim":1023,"clouds":[{"cover":"FEW","base":700},{"cover":"BKN","base":1200},{"cover":"OVC","base":4000}],"obsTime":1779516000},"SBSR":{"icaoId":"SBSR","flightCategory":"VFR","rawOb":"METAR SBSR 230600Z 12002KT CAVOK 19/17 Q1020","temp":19,"dewp":17,"wdir":120,"wspd":2,"visib":"6+","altim":1020,"clouds":[],"obsTime":1779516000},"SBDN":{"icaoId":"SBDN","flightCategory":"VFR","rawOb":"METAR SBDN 230600Z 14007KT CAVOK 17/14 Q1021","temp":17,"dewp":14,"wdir":140,"wspd":7,"visib":"6+","altim":1021,"clouds":[],"obsTime":1779516000},"SBKG":{"icaoId":"SBKG","flightCategory":"VFR","rawOb":"METAR SBKG 230600Z 17003KT CAVOK 20/19 Q1016","temp":20,"dewp":19,"wdir":170,"wspd":3,"visib":"6+","altim":1016,"clouds":[],"obsTime":1779516000},"SBLE":{"icaoId":"SBLE","flightCategory":"MVFR","rawOb":"METAR SBLE 230600Z AUTO VRB02KT 9999 BKN029 OVC034 ///// Q////","temp":null,"dewp":null,"wdir":"VRB","wspd":2,"visib":"6+","altim":null,"clouds":[{"cover":"BKN","base":2900},{"cover":"OVC","base":3400}],"obsTime":1779516000},"SBJP":{"icaoId":"SBJP","flightCategory":"VFR","rawOb":"METAR SBJP 230600Z 19005KT 150V210 9999 FEW020 23/22 Q1014","temp":23,"dewp":22,"wdir":190,"wspd":5,"visib":"6+","altim":1014,"clouds":[{"cover":"FEW","base":2000}],"obsTime":1779516000},"SBAN":{"icaoId":"SBAN","flightCategory":"VFR","rawOb":"METAR SBAN 230600Z 18004KT CAVOK 16/14 Q1024","temp":16,"dewp":14,"wdir":180,"wspd":4,"visib":"6+","altim":1024,"clouds":[],"obsTime":1779516000},"SBNM":{"icaoId":"SBNM","flightCategory":"MVFR","rawOb":"METAR SBNM 230600Z AUTO VRB02KT 7000 OVC028 09/08 Q1024","temp":9,"dewp":8,"wdir":"VRB","wspd":2,"visib":4.35,"altim":1024,"clouds":[{"cover":"OVC","base":2800}],"obsTime":1779516000}}}