{"updated":1777613455,"count":49,"data":{"SBRF":{"icaoId":"SBRF","flightCategory":"MVFR","rawOb":"METAR SBRF 010400Z 14013KT 9999 VCSH BKN018 FEW025TCU BKN060 27/24 Q1011","temp":27,"dewp":24,"wdir":140,"wspd":13,"visib":"6+","altim":1011,"clouds":[{"cover":"BKN","base":1800},{"cover":"FEW","base":2500},{"cover":"BKN","base":6000}],"obsTime":1777608000},"SBBR":{"icaoId":"SBBR","flightCategory":"VFR","rawOb":"METAR SBBR 010400Z 11003KT 9999 FEW040 19/15 Q1019","temp":19,"dewp":15,"wdir":110,"wspd":3,"visib":"6+","altim":1019,"clouds":[{"cover":"FEW","base":4000}],"obsTime":1777608000},"SBBV":{"icaoId":"SBBV","flightCategory":"VFR","rawOb":"METAR SBBV 010400Z 13005KT 9999 FEW030 FEW035TCU 25/23 Q1012","temp":25,"dewp":23,"wdir":130,"wspd":5,"visib":"6+","altim":1012,"clouds":[{"cover":"FEW","base":3000},{"cover":"FEW","base":3500}],"obsTime":1777608000},"SBCF":{"icaoId":"SBCF","flightCategory":"VFR","rawOb":"METAR SBCF 010400Z 16005KT CAVOK 19/16 Q1020","temp":19,"dewp":16,"wdir":160,"wspd":5,"visib":"6+","altim":1020,"clouds":[],"obsTime":1777608000},"SBCG":{"icaoId":"SBCG","flightCategory":"VFR","rawOb":"METAR SBCG 010400Z 08006KT CAVOK 25/20 Q1015","temp":25,"dewp":20,"wdir":80,"wspd":6,"visib":"6+","altim":1015,"clouds":[],"obsTime":1777608000},"SBCT":{"icaoId":"SBCT","flightCategory":"LIFR","rawOb":"METAR SBCT 010400Z 12003KT 0600 R15/0600 R33/0600 FG VV001 12/12 Q1023","temp":12,"dewp":12,"wdir":120,"wspd":3,"visib":0.37,"altim":1023,"clouds":[{"cover":"OVX","base":100}],"obsTime":1777608000},"SBEG":{"icaoId":"SBEG","flightCategory":"VFR","rawOb":"METAR SBEG 010400Z 00000KT 9999 VCTS FEW020 FEW025CB 25/24 Q1011","temp":25,"dewp":24,"wdir":0,"wspd":0,"visib":"6+","altim":1011,"clouds":[{"cover":"FEW","base":2000},{"cover":"FEW","base":2500}],"obsTime":1777608000},"SBFI":{"icaoId":"SBFI","flightCategory":"VFR","rawOb":"METAR SBFI 010400Z 09005KT CAVOK 22/21 Q1013","temp":22,"dewp":21,"wdir":90,"wspd":5,"visib":"6+","altim":1013,"clouds":[],"obsTime":1777608000},"SBFL":{"icaoId":"SBFL","flightCategory":"VFR","rawOb":"METAR SBFL 010400Z 29006KT 9999 FEW020 19/18 Q1019","temp":19,"dewp":18,"wdir":290,"wspd":6,"visib":"6+","altim":1019,"clouds":[{"cover":"FEW","base":2000}],"obsTime":1777608000},"SBFZ":{"icaoId":"SBFZ","flightCategory":"VFR","rawOb":"METAR SBFZ 010400Z 20003KT 160V250 9999 FEW005 SCT015 BKN080 25/24 Q1010","temp":25,"dewp":24,"wdir":200,"wspd":3,"visib":"6+","altim":1010,"clouds":[{"cover":"FEW","base":500},{"cover":"SCT","base":1500},{"cover":"BKN","base":8000}],"obsTime":1777608000},"SBGL":{"icaoId":"SBGL","flightCategory":"MVFR","rawOb":"METAR SBGL 010400Z 08002KT 9999 BKN017 BKN020 BKN033 25/23 Q1017","temp":25,"dewp":23,"wdir":80,"wspd":2,"visib":"6+","altim":1017,"clouds":[{"cover":"BKN","base":1700},{"cover":"BKN","base":2000},{"cover":"BKN","base":3300}],"obsTime":1777608000},"SBGO":{"icaoId":"SBGO","flightCategory":"VFR","rawOb":"METAR SBGO 010400Z 11008KT CAVOK 21/16 Q1017","temp":21,"dewp":16,"wdir":110,"wspd":8,"visib":"6+","altim":1017,"clouds":[],"obsTime":1777608000},"SBGR":{"icaoId":"SBGR","flightCategory":"IFR","rawOb":"METAR SBGR 010400Z 09003KT 9999 BKN009 19/18 Q1021","temp":19,"dewp":18,"wdir":90,"wspd":3,"visib":"6+","altim":1021,"clouds":[{"cover":"BKN","base":900}],"obsTime":1777608000},"SBJU":{"icaoId":"SBJU","flightCategory":"VFR","rawOb":"METAR SBJU 010400Z 00000KT 9999 FEW020 23/22 Q1013","temp":23,"dewp":22,"wdir":0,"wspd":0,"visib":"6+","altim":1013,"clouds":[{"cover":"FEW","base":2000}],"obsTime":1777608000},"SBKP":{"icaoId":"SBKP","flightCategory":"VFR","rawOb":"METAR SBKP 010400Z 12012KT CAVOK 20/17 Q1019","temp":20,"dewp":17,"wdir":120,"wspd":12,"visib":"6+","altim":1019,"clouds":[],"obsTime":1777608000},"SBLO":{"icaoId":"SBLO","flightCategory":"VFR","rawOb":"METAR SBLO 010400Z 15006KT CAVOK 21/20 Q1018","temp":21,"dewp":20,"wdir":150,"wspd":6,"visib":"6+","altim":1018,"clouds":[],"obsTime":1777608000},"SBMA":{"icaoId":"SBMA","flightCategory":"VFR","rawOb":"METAR SBMA 010400Z 33003KT 9999 FEW015 BKN090 26/24 Q1011","temp":26,"dewp":24,"wdir":330,"wspd":3,"visib":"6+","altim":1011,"clouds":[{"cover":"FEW","base":1500},{"cover":"BKN","base":9000}],"obsTime":1777608000},"SBME":{"icaoId":"SBME","flightCategory":"VFR","rawOb":"METAR SBME 010400Z 33001KT 9999 FEW033 23/22 Q1017","temp":23,"dewp":22,"wdir":330,"wspd":1,"visib":"6+","altim":1017,"clouds":[{"cover":"FEW","base":3300}],"obsTime":1777608000},"SBMG":{"icaoId":"SBMG","flightCategory":"VFR","rawOb":"METAR SBMG 010400Z AUTO 10011KT CAVOK 22/20 Q1016","temp":22,"dewp":20,"wdir":100,"wspd":11,"visib":"6+","altim":1016,"clouds":[],"obsTime":1777608000},"SBMO":{"icaoId":"SBMO","flightCategory":"VFR","rawOb":"METAR SBMO 010400Z 22001KT 9999 FEW018 23/23 Q1012","temp":23,"dewp":23,"wdir":220,"wspd":1,"visib":"6+","altim":1012,"clouds":[{"cover":"FEW","base":1800}],"obsTime":1777608000},"SBMQ":{"icaoId":"SBMQ","flightCategory":"VFR","rawOb":"METAR SBMQ 010400Z 02003KT 9999 SCT013 SCT033 BKN070 26/25 Q1011","temp":26,"dewp":25,"wdir":20,"wspd":3,"visib":"6+","altim":1011,"clouds":[{"cover":"SCT","base":1300},{"cover":"SCT","base":3300},{"cover":"BKN","base":7000}],"obsTime":1777608000},"SBNT":{"icaoId":"SBNT","flightCategory":"MVFR","rawOb":"METAR SBNT 010400Z 09004KT 050V130 8000 -RA SCT010 BKN024 FEW025TCU BKN044 25/24 Q1010","temp":25,"dewp":24,"wdir":90,"wspd":4,"visib":4.97,"altim":1010,"clouds":[{"cover":"SCT","base":1000},{"cover":"BKN","base":2400},{"cover":"FEW","base":2500},{"cover":"BKN","base":4400}],"obsTime":1777608000},"SBPA":{"icaoId":"SBPA","flightCategory":"VFR","rawOb":"METAR SBPA 010400Z 10004KT CAVOK 16/15 Q1016","temp":16,"dewp":15,"wdir":100,"wspd":4,"visib":"6+","altim":1016,"clouds":[],"obsTime":1777608000},"SBPJ":{"icaoId":"SBPJ","flightCategory":"VFR","rawOb":"METAR SBPJ 010400Z 14004KT 9999 FEW040 25/23 Q1012","temp":25,"dewp":23,"wdir":140,"wspd":4,"visib":"6+","altim":1012,"clouds":[{"cover":"FEW","base":4000}],"obsTime":1777608000},"SBPV":{"icaoId":"SBPV","flightCategory":"VFR","rawOb":"METAR SBPV 010400Z 00000KT 9999 FEW030 26/23 Q1010","temp":26,"dewp":23,"wdir":0,"wspd":0,"visib":"6+","altim":1010,"clouds":[{"cover":"FEW","base":3000}],"obsTime":1777608000},"SBRB":{"icaoId":"SBRB","flightCategory":"VFR","rawOb":"METAR SBRB 010400Z 23003KT 9999 FEW025 FEW040TCU 25/24 Q1011","temp":25,"dewp":24,"wdir":230,"wspd":3,"visib":"6+","altim":1011,"clouds":[{"cover":"FEW","base":2500},{"cover":"FEW","base":4000}],"obsTime":1777608000},"SBBE":{"icaoId":"SBBE","flightCategory":"VFR","rawOb":"METAR SBBE 010400Z 07004KT CAVOK 24/24 Q1010","temp":24,"dewp":24,"wdir":70,"wspd":4,"visib":"6+","altim":1010,"clouds":[],"obsTime":1777608000},"SBSG":{"icaoId":"SBSG","flightCategory":"IFR","rawOb":"METAR SBSG 010400Z VRB02KT 8000 -RA BKN005 FEW025TCU BKN050 24/24 Q1011","temp":24,"dewp":24,"wdir":"VRB","wspd":2,"visib":4.97,"altim":1011,"clouds":[{"cover":"BKN","base":500},{"cover":"FEW","base":2500},{"cover":"BKN","base":5000}],"obsTime":1777608000},"SBSL":{"icaoId":"SBSL","flightCategory":"VFR","rawOb":"METAR SBSL 010400Z 12002KT 9999 FEW020 SCT100 25/24 Q1010","temp":25,"dewp":24,"wdir":120,"wspd":2,"visib":"6+","altim":1010,"clouds":[{"cover":"FEW","base":2000},{"cover":"SCT","base":10000}],"obsTime":1777608000},"SBSN":{"icaoId":"SBSN","flightCategory":"MVFR","rawOb":"SPECI SBSN 010340Z 10015KT 5000 -RA SCT009 FEW025TCU BKN080 25/24 Q1011 RESHRA","temp":25,"dewp":24,"wdir":100,"wspd":15,"visib":3.11,"altim":1011,"clouds":[{"cover":"SCT","base":900},{"cover":"FEW","base":2500},{"cover":"BKN","base":8000}],"obsTime":1777606800},"SBSV":{"icaoId":"SBSV","flightCategory":"VFR","rawOb":"METAR SBSV 010400Z 10007KT 9999 FEW023 27/23 Q1013","temp":27,"dewp":23,"wdir":100,"wspd":7,"visib":"6+","altim":1013,"clouds":[{"cover":"FEW","base":2300}],"obsTime":1777608000},"SBTE":{"icaoId":"SBTE","flightCategory":"MVFR","rawOb":"METAR SBTE 010400Z 06003KT 9999 BKN020 BKN090 27/23 Q1010","temp":27,"dewp":23,"wdir":60,"wspd":3,"visib":"6+","altim":1010,"clouds":[{"cover":"BKN","base":2000},{"cover":"BKN","base":9000}],"obsTime":1777608000},"SBUL":{"icaoId":"SBUL","flightCategory":"VFR","rawOb":"METAR SBUL 010400Z 14006KT CAVOK 20/15 Q1019","temp":20,"dewp":15,"wdir":140,"wspd":6,"visib":"6+","altim":1019,"clouds":[],"obsTime":1777608000},"SBUR":{"icaoId":"SBUR","flightCategory":"VFR","rawOb":"METAR SBUR 010400Z 03006KT CAVOK 23/15 Q1018","temp":23,"dewp":15,"wdir":30,"wspd":6,"visib":"6+","altim":1018,"clouds":[],"obsTime":1777608000},"SBVT":{"icaoId":"SBVT","flightCategory":"VFR","rawOb":"METAR SBVT 010400Z 34002KT CAVOK 22/21 Q1017","temp":22,"dewp":21,"wdir":340,"wspd":2,"visib":"6+","altim":1017,"clouds":[],"obsTime":1777608000},"SBMK":{"icaoId":"SBMK","flightCategory":"VFR","rawOb":"METAR SBMK 010400Z 00000KT CAVOK 21/16 Q1018","temp":21,"dewp":16,"wdir":0,"wspd":0,"visib":"6+","altim":1018,"clouds":[],"obsTime":1777608000},"SBSR":{"icaoId":"SBSR","flightCategory":"VFR","rawOb":"METAR SBSR 010400Z 16005KT 120V210 CAVOK 25/18 Q1016","temp":25,"dewp":18,"wdir":160,"wspd":5,"visib":"6+","altim":1016,"clouds":[],"obsTime":1777608000},"SBAR":{"icaoId":"SBAR","flightCategory":"VFR","rawOb":"METAR SBAR 010400Z 10007KT 9999 FEW023 26/23 Q1012","temp":26,"dewp":23,"wdir":100,"wspd":7,"visib":"6+","altim":1012,"clouds":[{"cover":"FEW","base":2300}],"obsTime":1777608000},"SBAX":{"icaoId":"SBAX","flightCategory":"VFR","rawOb":"METAR SBAX 010400Z AUTO 13004KT CAVOK 19/15 Q1020","temp":19,"dewp":15,"wdir":130,"wspd":4,"visib":"6+","altim":1020,"clouds":[],"obsTime":1777608000},"SBDN":{"icaoId":"SBDN","flightCategory":"VFR","rawOb":"METAR SBDN 010400Z 11011KT CAVOK 24/20 Q1016","temp":24,"dewp":20,"wdir":110,"wspd":11,"visib":"6+","altim":1016,"clouds":[],"obsTime":1777608000},"SBIP":{"icaoId":"SBIP","flightCategory":"VFR","rawOb":"METAR SBIP 010400Z AUTO VRB01KT CAVOK 21/20 Q1017","temp":21,"dewp":20,"wdir":"VRB","wspd":1,"visib":"6+","altim":1017,"clouds":[],"obsTime":1777608000},"SBKG":{"icaoId":"SBKG","flightCategory":"IFR","rawOb":"METAR SBKG 010400Z 15002KT 5000 -RA SCT004 BKN007 22/22 Q1013","temp":22,"dewp":22,"wdir":150,"wspd":2,"visib":3.11,"altim":1013,"clouds":[{"cover":"SCT","base":400},{"cover":"BKN","base":700}],"obsTime":1777608000},"SBPL":{"icaoId":"SBPL","flightCategory":"MVFR","rawOb":"METAR SBPL 010400Z 13006KT 9999 BKN020 24/22 Q1014","temp":24,"dewp":22,"wdir":130,"wspd":6,"visib":"6+","altim":1014,"clouds":[{"cover":"BKN","base":2000}],"obsTime":1777608000},"SBPS":{"icaoId":"SBPS","flightCategory":"VFR","rawOb":"METAR SBPS 010400Z 11008KT 9999 SCT025 BKN080 26/23 Q1015","temp":26,"dewp":23,"wdir":110,"wspd":8,"visib":"6+","altim":1015,"clouds":[{"cover":"SCT","base":2500},{"cover":"BKN","base":8000}],"obsTime":1777608000},"SBSC":{"icaoId":"SBSC","flightCategory":"MVFR","rawOb":"METAR SBSC 010400Z 21005KT 8000 FEW020 SCT050 23/21 Q1018","temp":23,"dewp":21,"wdir":210,"wspd":5,"visib":4.97,"altim":1018,"clouds":[{"cover":"FEW","base":2000},{"cover":"SCT","base":5000}],"obsTime":1777608000},"SBOI":{"icaoId":"SBOI","flightCategory":"VFR","rawOb":"METAR SBOI 010400Z AUTO 23001KT 9999 // FEW025/// BKN035/// 25/24 Q1011","temp":25,"dewp":24,"wdir":230,"wspd":1,"visib":"6+","altim":1011,"clouds":[{"cover":"FEW","base":2500},{"cover":"BKN","base":3500}],"obsTime":1777608000},"SBAN":{"icaoId":"SBAN","flightCategory":"VFR","rawOb":"METAR SBAN 010400Z 16005KT CAVOK 18/14 Q1020","temp":18,"dewp":14,"wdir":160,"wspd":5,"visib":"6+","altim":1020,"clouds":[],"obsTime":1777608000},"SBLE":{"icaoId":"SBLE","flightCategory":"MVFR","rawOb":"METAR SBLE 010400Z AUTO 12004KT 9999 BKN016 BKN028 ///// Q////","temp":null,"dewp":null,"wdir":120,"wspd":4,"visib":"6+","altim":null,"clouds":[{"cover":"BKN","base":1600},{"cover":"BKN","base":2800}],"obsTime":1777608000},"SBJP":{"icaoId":"SBJP","flightCategory":"IFR","rawOb":"METAR SBJP 010400Z 00000KT 9999 BKN008 FEW025TCU BKN070 25/24 Q1011 RERA","temp":25,"dewp":24,"wdir":0,"wspd":0,"visib":"6+","altim":1011,"clouds":[{"cover":"BKN","base":800},{"cover":"FEW","base":2500},{"cover":"BKN","base":7000}],"obsTime":1777608000}}}