{"updated":1776948850,"count":86,"data":{"SBGR":{"icaoId":"SBGR","flightCategory":"MVFR","rawOb":"METAR SBGR 231100Z 06011KT 9000 BKN011 20/17 Q1021","temp":20,"dewp":17,"wdir":60,"wspd":11,"visib":5.59,"altim":1021,"clouds":[{"cover":"BKN","base":1100}],"obsTime":1776942000},"SBPV":{"icaoId":"SBPV","flightCategory":"LIFR","rawOb":"METAR SBPV 231100Z 10003KT 3000 0800N BCFG BKN003 24/23 Q1011","temp":24,"dewp":23,"wdir":100,"wspd":3,"visib":1.86,"altim":1011,"clouds":[{"cover":"BKN","base":300}],"obsTime":1776942000},"SBCT":{"icaoId":"SBCT","flightCategory":"LIFR","rawOb":"METAR SBCT 231100Z VRB02KT 0200 R15/0400 R33/0400 FG VV001 14/14 Q1022","temp":14,"dewp":14,"wdir":"VRB","wspd":2,"visib":0.12,"altim":1022,"clouds":[{"cover":"OVX","base":100}],"obsTime":1776942000},"SBIL":{"icaoId":"SBIL","flightCategory":"MVFR","rawOb":"METAR SBIL 231100Z 22005KT 180V260 8000 -RA SCT018 BKN040 26/23 Q1016","temp":26,"dewp":23,"wdir":220,"wspd":5,"visib":4.97,"altim":1016,"clouds":[{"cover":"SCT","base":1800},{"cover":"BKN","base":4000}],"obsTime":1776942000},"SBBV":{"icaoId":"SBBV","flightCategory":"VFR","rawOb":"METAR SBBV 231100Z 14002KT 9999 -SHRA FEW030 FEW040TCU BKN100 23/23 Q1012","temp":23,"dewp":23,"wdir":140,"wspd":2,"visib":"6+","altim":1012,"clouds":[{"cover":"FEW","base":3000},{"cover":"FEW","base":4000},{"cover":"BKN","base":10000}],"obsTime":1776942000},"SBCB":{"icaoId":"SBCB","flightCategory":"VFR","rawOb":"METAR SBCB 231100Z 20002KT CAVOK 25/21 Q1019","temp":25,"dewp":21,"wdir":200,"wspd":2,"visib":"6+","altim":1019,"clouds":[],"obsTime":1776942000},"SBAT":{"icaoId":"SBAT","flightCategory":"MVFR","rawOb":"METAR SBAT 231100Z 28004KT 8000 SCT006 BKN012 23/23 Q1014","temp":23,"dewp":23,"wdir":280,"wspd":4,"visib":4.97,"altim":1014,"clouds":[{"cover":"SCT","base":600},{"cover":"BKN","base":1200}],"obsTime":1776942000},"SBBE":{"icaoId":"SBBE","flightCategory":"VFR","rawOb":"METAR SBBE 231100Z 03004KT 9999 FEW015 BKN100 27/24 Q1011","temp":27,"dewp":24,"wdir":30,"wspd":4,"visib":"6+","altim":1011,"clouds":[{"cover":"FEW","base":1500},{"cover":"BKN","base":10000}],"obsTime":1776942000},"SBBR":{"icaoId":"SBBR","flightCategory":"VFR","rawOb":"METAR SBBR 231100Z VRB02KT CAVOK 21/16 Q1020","temp":21,"dewp":16,"wdir":"VRB","wspd":2,"visib":"6+","altim":1020,"clouds":[],"obsTime":1776942000},"SBCF":{"icaoId":"SBCF","flightCategory":"VFR","rawOb":"METAR SBCF 231100Z VRB02KT 9999 FEW020 SCT070 21/18 Q1021","temp":21,"dewp":18,"wdir":"VRB","wspd":2,"visib":"6+","altim":1021,"clouds":[{"cover":"FEW","base":2000},{"cover":"SCT","base":7000}],"obsTime":1776942000},"SBCG":{"icaoId":"SBCG","flightCategory":"VFR","rawOb":"METAR SBCG 231100Z 09010KT CAVOK 23/14 Q1017","temp":23,"dewp":14,"wdir":90,"wspd":10,"visib":"6+","altim":1017,"clouds":[],"obsTime":1776942000},"SBCP":{"icaoId":"SBCP","flightCategory":"VFR","rawOb":"METAR SBCP 231100Z 29004KT CAVOK 23/21 Q1018","temp":23,"dewp":21,"wdir":290,"wspd":4,"visib":"6+","altim":1018,"clouds":[],"obsTime":1776942000},"SBCR":{"icaoId":"SBCR","flightCategory":"VFR","rawOb":"METAR SBCR 231100Z VRB02KT CAVOK 24/23 Q1014","temp":24,"dewp":23,"wdir":"VRB","wspd":2,"visib":"6+","altim":1014,"clouds":[],"obsTime":1776942000},"SBCZ":{"icaoId":"SBCZ","flightCategory":"LIFR","rawOb":"METAR SBCZ 231200Z 11007KT 9000 BKN002 BKN070 23/23 Q1012","temp":23,"dewp":23,"wdir":110,"wspd":7,"visib":5.59,"altim":1012,"clouds":[{"cover":"BKN","base":200},{"cover":"BKN","base":7000}],"obsTime":1776945600},"SBEG":{"icaoId":"SBEG","flightCategory":"VFR","rawOb":"METAR SBEG 231100Z 06001KT 9999 SCT012 SCT100 24/23 Q1012","temp":24,"dewp":23,"wdir":60,"wspd":1,"visib":"6+","altim":1012,"clouds":[{"cover":"SCT","base":1200},{"cover":"SCT","base":10000}],"obsTime":1776942000},"SBFI":{"icaoId":"SBFI","flightCategory":"VFR","rawOb":"METAR SBFI 231100Z 12005KT CAVOK 22/22 Q1016","temp":22,"dewp":22,"wdir":120,"wspd":5,"visib":"6+","altim":1016,"clouds":[],"obsTime":1776942000},"SBFL":{"icaoId":"SBFL","flightCategory":"VFR","rawOb":"METAR SBFL 231100Z 25003KT 9999 BKN043 22/21 Q1019","temp":22,"dewp":21,"wdir":250,"wspd":3,"visib":"6+","altim":1019,"clouds":[{"cover":"BKN","base":4300}],"obsTime":1776942000},"SBFZ":{"icaoId":"SBFZ","flightCategory":"VFR","rawOb":"METAR SBFZ 231100Z 17006KT 9999 SCT025 BKN090 27/25 Q1012","temp":27,"dewp":25,"wdir":170,"wspd":6,"visib":"6+","altim":1012,"clouds":[{"cover":"SCT","base":2500},{"cover":"BKN","base":9000}],"obsTime":1776942000},"SBGL":{"icaoId":"SBGL","flightCategory":"VFR","rawOb":"METAR SBGL 231100Z 32002KT 9000 FEW040 24/20 Q1018","temp":24,"dewp":20,"wdir":320,"wspd":2,"visib":5.59,"altim":1018,"clouds":[{"cover":"FEW","base":4000}],"obsTime":1776942000},"SBGO":{"icaoId":"SBGO","flightCategory":"VFR","rawOb":"METAR SBGO 231100Z 13005KT 9999 FEW049 21/19 Q1019","temp":21,"dewp":19,"wdir":130,"wspd":5,"visib":"6+","altim":1019,"clouds":[{"cover":"FEW","base":4900}],"obsTime":1776942000},"SBHT":{"icaoId":"SBHT","flightCategory":"VFR","rawOb":"METAR SBHT 231100Z 32002KT 9999 FEW012 BKN090 25/25 Q1012","temp":25,"dewp":25,"wdir":320,"wspd":2,"visib":"6+","altim":1012,"clouds":[{"cover":"FEW","base":1200},{"cover":"BKN","base":9000}],"obsTime":1776942000},"SBJU":{"icaoId":"SBJU","flightCategory":"MVFR","rawOb":"METAR SBJU 231100Z 15005KT 9999 BKN020 26/22 Q1015","temp":26,"dewp":22,"wdir":150,"wspd":5,"visib":"6+","altim":1015,"clouds":[{"cover":"BKN","base":2000}],"obsTime":1776942000},"SBKP":{"icaoId":"SBKP","flightCategory":"VFR","rawOb":"METAR SBKP 231100Z 11010KT 080V140 CAVOK 20/17 Q1020","temp":20,"dewp":17,"wdir":110,"wspd":10,"visib":"6+","altim":1020,"clouds":[],"obsTime":1776942000},"SBLO":{"icaoId":"SBLO","flightCategory":"VFR","rawOb":"METAR SBLO 231100Z 13005KT CAVOK 18/15 Q1019","temp":18,"dewp":15,"wdir":130,"wspd":5,"visib":"6+","altim":1019,"clouds":[],"obsTime":1776942000},"SBMA":{"icaoId":"SBMA","flightCategory":"VFR","rawOb":"METAR SBMA 231100Z 00000KT 9999 FEW012 BKN070 26/24 Q1011","temp":26,"dewp":24,"wdir":0,"wspd":0,"visib":"6+","altim":1011,"clouds":[{"cover":"FEW","base":1200},{"cover":"BKN","base":7000}],"obsTime":1776942000},"SBME":{"icaoId":"SBME","flightCategory":"VFR","rawOb":"METAR SBME 231100Z 34003KT CAVOK 24/19 Q1018","temp":24,"dewp":19,"wdir":340,"wspd":3,"visib":"6+","altim":1018,"clouds":[],"obsTime":1776942000},"SBMG":{"icaoId":"SBMG","flightCategory":"VFR","rawOb":"METAR SBMG 231100Z 12002KT CAVOK 21/16 Q1018","temp":21,"dewp":16,"wdir":120,"wspd":2,"visib":"6+","altim":1018,"clouds":[],"obsTime":1776942000},"SBMK":{"icaoId":"SBMK","flightCategory":"VFR","rawOb":"METAR SBMK 231100Z 00000KT CAVOK 21/17 Q1020","temp":21,"dewp":17,"wdir":0,"wspd":0,"visib":"6+","altim":1020,"clouds":[],"obsTime":1776942000},"SBMO":{"icaoId":"SBMO","flightCategory":"MVFR","rawOb":"METAR SBMO 231100Z 06003KT 020V110 9999 VCSH FEW010 BKN019 FEW025TCU 27/25 Q1013","temp":27,"dewp":25,"wdir":60,"wspd":3,"visib":"6+","altim":1013,"clouds":[{"cover":"FEW","base":1000},{"cover":"BKN","base":1900},{"cover":"FEW","base":2500}],"obsTime":1776942000},"SBMQ":{"icaoId":"SBMQ","flightCategory":"VFR","rawOb":"METAR SBMQ 231100Z 30004KT CAVOK 26/25 Q1012","temp":26,"dewp":25,"wdir":300,"wspd":4,"visib":"6+","altim":1012,"clouds":[],"obsTime":1776942000},"SBNT":{"icaoId":"SBNT","flightCategory":"VFR","rawOb":"METAR SBNT 231100Z 17008KT 9999 FEW015 BKN036 28/24 Q1012","temp":28,"dewp":24,"wdir":170,"wspd":8,"visib":"6+","altim":1012,"clouds":[{"cover":"FEW","base":1500},{"cover":"BKN","base":3600}],"obsTime":1776942000},"SBPA":{"icaoId":"SBPA","flightCategory":"MVFR","rawOb":"METAR SBPA 231100Z 13004KT 070V170 9999 FEW010 BKN030 22/20 Q1019","temp":22,"dewp":20,"wdir":130,"wspd":4,"visib":"6+","altim":1019,"clouds":[{"cover":"FEW","base":1000},{"cover":"BKN","base":3000}],"obsTime":1776942000},"SBPJ":{"icaoId":"SBPJ","flightCategory":"VFR","rawOb":"METAR SBPJ 231100Z 11002KT 9999 FEW016 27/23 Q1013","temp":27,"dewp":23,"wdir":110,"wspd":2,"visib":"6+","altim":1013,"clouds":[{"cover":"FEW","base":1600}],"obsTime":1776942000},"SBRB":{"icaoId":"SBRB","flightCategory":"MVFR","rawOb":"METAR SBRB 231100Z VRB01KT 8000 FEW002 BKN070 22/22 Q1012","temp":22,"dewp":22,"wdir":"VRB","wspd":1,"visib":4.97,"altim":1012,"clouds":[{"cover":"FEW","base":200},{"cover":"BKN","base":7000}],"obsTime":1776942000},"SBRF":{"icaoId":"SBRF","flightCategory":"VFR","rawOb":"METAR SBRF 231100Z 16004KT 9999 SCT015 28/25 Q1012","temp":28,"dewp":25,"wdir":160,"wspd":4,"visib":"6+","altim":1012,"clouds":[{"cover":"SCT","base":1500}],"obsTime":1776942000},"SBSG":{"icaoId":"SBSG","flightCategory":"IFR","rawOb":"METAR SBSG 231100Z 17005KT 110V220 9999 BKN009 27/25 Q1012","temp":27,"dewp":25,"wdir":170,"wspd":5,"visib":"6+","altim":1012,"clouds":[{"cover":"BKN","base":900}],"obsTime":1776942000},"SBSL":{"icaoId":"SBSL","flightCategory":"VFR","rawOb":"METAR SBSL 231100Z 09006KT 9999 FEW020 28/25 Q1011","temp":28,"dewp":25,"wdir":90,"wspd":6,"visib":"6+","altim":1011,"clouds":[{"cover":"FEW","base":2000}],"obsTime":1776942000},"SBSN":{"icaoId":"SBSN","flightCategory":"MVFR","rawOb":"METAR SBSN 231100Z 27005KT 5000 -RA SCT007 OVC080 24/24 Q1012","temp":24,"dewp":24,"wdir":270,"wspd":5,"visib":3.11,"altim":1012,"clouds":[{"cover":"SCT","base":700},{"cover":"OVC","base":8000}],"obsTime":1776942000},"SBSP":{"icaoId":"SBSP","flightCategory":"MVFR","rawOb":"METAR SBSP 231100Z 09005KT 040V130 9999 SCT013 BKN020 19/17 Q1022","temp":19,"dewp":17,"wdir":90,"wspd":5,"visib":"6+","altim":1022,"clouds":[{"cover":"SCT","base":1300},{"cover":"BKN","base":2000}],"obsTime":1776942000},"SBSV":{"icaoId":"SBSV","flightCategory":"VFR","rawOb":"METAR SBSV 231100Z 15005KT 9999 VCSH SCT007 SCT020 OVC070 27/24 Q1014 RERA","temp":27,"dewp":24,"wdir":150,"wspd":5,"visib":"6+","altim":1014,"clouds":[{"cover":"SCT","base":700},{"cover":"SCT","base":2000},{"cover":"OVC","base":7000}],"obsTime":1776942000},"SBTE":{"icaoId":"SBTE","flightCategory":"MVFR","rawOb":"METAR SBTE 231100Z VRB02KT 9999 VCSH FEW015 BKN030 26/24 Q1012","temp":26,"dewp":24,"wdir":"VRB","wspd":2,"visib":"6+","altim":1012,"clouds":[{"cover":"FEW","base":1500},{"cover":"BKN","base":3000}],"obsTime":1776942000},"SBUL":{"icaoId":"SBUL","flightCategory":"VFR","rawOb":"METAR SBUL 231100Z 10005KT 9999 FEW030 22/18 Q1020","temp":22,"dewp":18,"wdir":100,"wspd":5,"visib":"6+","altim":1020,"clouds":[{"cover":"FEW","base":3000}],"obsTime":1776942000},"SBUR":{"icaoId":"SBUR","flightCategory":"VFR","rawOb":"METAR SBUR 231100Z 07003KT CAVOK 23/18 Q1019","temp":23,"dewp":18,"wdir":70,"wspd":3,"visib":"6+","altim":1019,"clouds":[],"obsTime":1776942000},"SBVT":{"icaoId":"SBVT","flightCategory":"VFR","rawOb":"METAR SBVT 231100Z 30003KT 9999 FEW030 BKN100 23/22 Q1018","temp":23,"dewp":22,"wdir":300,"wspd":3,"visib":"6+","altim":1018,"clouds":[{"cover":"FEW","base":3000},{"cover":"BKN","base":10000}],"obsTime":1776942000},"SBPB":{"icaoId":"SBPB","flightCategory":"VFR","rawOb":"METAR SBPB 231100Z 14002KT 9999 SCT018 27/25 Q1012","temp":27,"dewp":25,"wdir":140,"wspd":2,"visib":"6+","altim":1012,"clouds":[{"cover":"SCT","base":1800}],"obsTime":1776942000},"SBAR":{"icaoId":"SBAR","flightCategory":"VFR","rawOb":"METAR SBAR 231100Z 05002KT 9999 VCSH FEW008 SCT020 FEW023TCU BKN050 25/24 Q1013","temp":25,"dewp":24,"wdir":50,"wspd":2,"visib":"6+","altim":1013,"clouds":[{"cover":"FEW","base":800},{"cover":"SCT","base":2000},{"cover":"FEW","base":2300},{"cover":"BKN","base":5000}],"obsTime":1776942000},"SBVH":{"icaoId":"SBVH","flightCategory":"VFR","rawOb":"METAR SBVH 231100Z 11005KT 9999 FEW025 BKN100 21/20 Q1015","temp":21,"dewp":20,"wdir":110,"wspd":5,"visib":"6+","altim":1015,"clouds":[{"cover":"FEW","base":2500},{"cover":"BKN","base":10000}],"obsTime":1776942000},"SBAX":{"icaoId":"SBAX","flightCategory":"VFR","rawOb":"METAR SBAX 231100Z 11006KT 9999 SCT045 21/17 Q1021","temp":21,"dewp":17,"wdir":110,"wspd":6,"visib":"6+","altim":1021,"clouds":[{"cover":"SCT","base":4500}],"obsTime":1776942000},"SBUY":{"icaoId":"SBUY","flightCategory":"MVFR","rawOb":"METAR SBUY 231100Z 00000KT 5000 BR SCT030 23/22 Q1010","temp":23,"dewp":22,"wdir":0,"wspd":0,"visib":3.11,"altim":1010,"clouds":[{"cover":"SCT","base":3000}],"obsTime":1776942000},"SBBH":{"icaoId":"SBBH","flightCategory":"VFR","rawOb":"METAR SBBH 231100Z 10009KT 9999 SCT049 21/17 Q1021","temp":21,"dewp":17,"wdir":100,"wspd":9,"visib":"6+","altim":1021,"clouds":[{"cover":"SCT","base":4900}],"obsTime":1776942000},"SBBQ":{"icaoId":"SBBQ","flightCategory":"MVFR","rawOb":"METAR SBBQ 231200Z 07006KT 010V110 6000 OVC010 17/15 Q1025","temp":17,"dewp":15,"wdir":70,"wspd":6,"visib":3.73,"altim":1025,"clouds":[{"cover":"OVC","base":1000}],"obsTime":1776945600},"SBTT":{"icaoId":"SBTT","flightCategory":"VFR","rawOb":"METAR SBTT 231100Z 18002KT CAVOK 22/21 Q1010","temp":22,"dewp":21,"wdir":180,"wspd":2,"visib":"6+","altim":1010,"clouds":[],"obsTime":1776942000},"SBBU":{"icaoId":"SBBU","flightCategory":"VFR","rawOb":"METAR SBBU 231100Z 11013KT CAVOK 19/15 Q1019","temp":19,"dewp":15,"wdir":110,"wspd":13,"visib":"6+","altim":1019,"clouds":[],"obsTime":1776942000},"SBCA":{"icaoId":"SBCA","flightCategory":"VFR","rawOb":"METAR SBCA 231100Z 04003KT CAVOK 23/16 Q1020","temp":23,"dewp":16,"wdir":40,"wspd":3,"visib":"6+","altim":1020,"clouds":[],"obsTime":1776942000},"SBTF":{"icaoId":"SBTF","flightCategory":"VFR","rawOb":"SPECI SBTF 231115Z 14003KT 9999 FEW009 BKN090 25/25 Q1011","temp":25,"dewp":25,"wdir":140,"wspd":3,"visib":"6+","altim":1011,"clouds":[{"cover":"FEW","base":900},{"cover":"BKN","base":9000}],"obsTime":1776942900},"SBCC":{"icaoId":"SBCC","flightCategory":"IFR","rawOb":"METAR SBCC 231100Z 25004KT 3000 BR FEW020 SCT100 22/21 Q1015","temp":22,"dewp":21,"wdir":250,"wspd":4,"visib":1.86,"altim":1015,"clouds":[{"cover":"FEW","base":2000},{"cover":"SCT","base":10000}],"obsTime":1776942000},"SBTD":{"icaoId":"SBTD","flightCategory":"VFR","rawOb":"METAR SBTD 231100Z /////KT CAVOK 22/18 Q1018","temp":22,"dewp":18,"wdir":null,"wspd":null,"visib":"6+","altim":1018,"clouds":[],"obsTime":1776942000},"SBSR":{"icaoId":"SBSR","flightCategory":"MVFR","rawOb":"METAR SBSR 231100Z 14005KT 090V180 7000 NSC 21/14 Q1017","temp":21,"dewp":14,"wdir":140,"wspd":5,"visib":4.35,"altim":1017,"clouds":[],"obsTime":1776942000},"SBCJ":{"icaoId":"SBCJ","flightCategory":"VFR","rawOb":"METAR SBCJ 231100Z 11007KT CAVOK 25/22 Q1015","temp":25,"dewp":22,"wdir":110,"wspd":7,"visib":"6+","altim":1015,"clouds":[],"obsTime":1776942000},"SBCO":{"icaoId":"SBCO","flightCategory":"IFR","rawOb":"METAR SBCO 231100Z 12003KT 4000 BR BKN033 BKN070 20/20 Q1020","temp":20,"dewp":20,"wdir":120,"wspd":3,"visib":2.49,"altim":1020,"clouds":[{"cover":"BKN","base":3300},{"cover":"BKN","base":7000}],"obsTime":1776942000},"SBSM":{"icaoId":"SBSM","flightCategory":"MVFR","rawOb":"METAR SBSM 231100Z 14005KT 100V190 9999 -RA SCT010 OVC015 19/17 Q1020","temp":19,"dewp":17,"wdir":140,"wspd":5,"visib":"6+","altim":1020,"clouds":[{"cover":"SCT","base":1000},{"cover":"OVC","base":1500}],"obsTime":1776942000},"SBSJ":{"icaoId":"SBSJ","flightCategory":"MVFR","rawOb":"METAR SBSJ 231100Z 05003KT 350V100 7000 SCT013 BKN017 20/17 Q1021","temp":20,"dewp":17,"wdir":50,"wspd":3,"visib":4.35,"altim":1021,"clouds":[{"cover":"SCT","base":1300},{"cover":"BKN","base":1700}],"obsTime":1776942000},"SBDN":{"icaoId":"SBDN","flightCategory":"VFR","rawOb":"METAR SBDN 231100Z 10007KT CAVOK 20/14 Q1017","temp":20,"dewp":14,"wdir":100,"wspd":7,"visib":"6+","altim":1017,"clouds":[],"obsTime":1776942000},"SBES":{"icaoId":"SBES","flightCategory":"VFR","rawOb":"METAR SBES 231100Z 00000KT CAVOK 21/// Q1019","temp":null,"dewp":null,"wdir":0,"wspd":0,"visib":"6+","altim":1019,"clouds":[],"obsTime":1776942000},"SBSC":{"icaoId":"SBSC","flightCategory":"VFR","rawOb":"METAR SBSC 231100Z 02002KT 9999 FEW040 23/21 Q1019","temp":23,"dewp":21,"wdir":20,"wspd":2,"visib":"6+","altim":1019,"clouds":[{"cover":"FEW","base":4000}],"obsTime":1776942000},"SBGM":{"icaoId":"SBGM","flightCategory":"MVFR","rawOb":"METAR SBGM 231200Z 10006KT 8000 BKN016 24/21 Q1013","temp":24,"dewp":21,"wdir":100,"wspd":6,"visib":4.97,"altim":1013,"clouds":[{"cover":"BKN","base":1600}],"obsTime":1776945600},"SBIP":{"icaoId":"SBIP","flightCategory":"VFR","rawOb":"METAR SBIP 231100Z AUTO 03003KT 360V070 CAVOK 23/20 Q1019","temp":23,"dewp":20,"wdir":30,"wspd":3,"visib":"6+","altim":1019,"clouds":[],"obsTime":1776942000},"SBPS":{"icaoId":"SBPS","flightCategory":"VFR","rawOb":"METAR SBPS 231100Z 23006KT 9999 SCT020 BKN100 23/22 Q1017","temp":23,"dewp":22,"wdir":230,"wspd":6,"visib":"6+","altim":1017,"clouds":[{"cover":"SCT","base":2000},{"cover":"BKN","base":10000}],"obsTime":1776942000},"SBPP":{"icaoId":"SBPP","flightCategory":"VFR","rawOb":"SPECI SBPP 231115Z 07005KT CAVOK 21/17 Q1018","temp":21,"dewp":17,"wdir":70,"wspd":5,"visib":"6+","altim":1018,"clouds":[],"obsTime":1776942900},"SBKG":{"icaoId":"SBKG","flightCategory":"MVFR","rawOb":"METAR SBKG 231100Z 13005KT 9999 BKN012 24/22 Q1015","temp":24,"dewp":22,"wdir":130,"wspd":5,"visib":"6+","altim":1015,"clouds":[{"cover":"BKN","base":1200}],"obsTime":1776942000},"SBPL":{"icaoId":"SBPL","flightCategory":"MVFR","rawOb":"METAR SBPL 231100Z 13010KT 9999 BKN020 BKN070 26/21 Q1015","temp":26,"dewp":21,"wdir":130,"wspd":10,"visib":"6+","altim":1015,"clouds":[{"cover":"BKN","base":2000},{"cover":"BKN","base":7000}],"obsTime":1776942000},"SBOI":{"icaoId":"SBOI","flightCategory":"MVFR","rawOb":"METAR SBOI 231100Z AUTO 21004KT 130V250 6000 // FEW005/// BKN012/// BKN027/// 25/24 Q1012","temp":25,"dewp":24,"wdir":210,"wspd":4,"visib":3.73,"altim":1012,"clouds":[{"cover":"FEW","base":500},{"cover":"BKN","base":1200},{"cover":"BKN","base":2700}],"obsTime":1776942000},"SBJV":{"icaoId":"SBJV","flightCategory":"VFR","rawOb":"METAR SBJV 231100Z 00000KT 9999 FEW020 19/19 Q1019","temp":19,"dewp":19,"wdir":0,"wspd":0,"visib":"6+","altim":1019,"clouds":[{"cover":"FEW","base":2000}],"obsTime":1776942000},"SBNM":{"icaoId":"SBNM","flightCategory":"VFR","rawOb":"METAR SBNM 231200Z 12002KT 9999 FEW006 SCT070 22/21 Q1018","temp":22,"dewp":21,"wdir":120,"wspd":2,"visib":"6+","altim":1018,"clouds":[{"cover":"FEW","base":600},{"cover":"SCT","base":7000}],"obsTime":1776945600},"SBPF":{"icaoId":"SBPF","flightCategory":"VFR","rawOb":"METAR SBPF 231100Z 13005KT CAVOK 17/16 Q1021","temp":17,"dewp":16,"wdir":130,"wspd":5,"visib":"6+","altim":1021,"clouds":[],"obsTime":1776942000},"SBJP":{"icaoId":"SBJP","flightCategory":"VFR","rawOb":"METAR SBJP 231100Z 15007KT 9999 SCT020 28/25 Q1013","temp":28,"dewp":25,"wdir":150,"wspd":7,"visib":"6+","altim":1013,"clouds":[{"cover":"SCT","base":2000}],"obsTime":1776942000},"SBAN":{"icaoId":"SBAN","flightCategory":"VFR","rawOb":"METAR SBAN 231100Z 15008KT CAVOK 21/16 Q1021","temp":21,"dewp":16,"wdir":150,"wspd":8,"visib":"6+","altim":1021,"clouds":[],"obsTime":1776942000},"SBAF":{"icaoId":"SBAF","flightCategory":"VFR","rawOb":"METAR SBAF 231100Z 27001KT 9999 FEW030 24/22 Q1019","temp":24,"dewp":22,"wdir":270,"wspd":1,"visib":"6+","altim":1019,"clouds":[{"cover":"FEW","base":3000}],"obsTime":1776942000},"SBGW":{"icaoId":"SBGW","flightCategory":"VFR","rawOb":"METAR SBGW 231100Z 06006KT 020V090 9999 BKN035 21/14 Q1021","temp":21,"dewp":14,"wdir":60,"wspd":6,"visib":"6+","altim":1021,"clouds":[{"cover":"BKN","base":3500}],"obsTime":1776942000},"SBJR":{"icaoId":"SBJR","flightCategory":"VFR","rawOb":"METAR SBJR 231100Z 01001KT 9999 FEW035 25/20 Q1018","temp":25,"dewp":20,"wdir":10,"wspd":1,"visib":"6+","altim":1018,"clouds":[{"cover":"FEW","base":3500}],"obsTime":1776942000},"SBLS":{"icaoId":"SBLS","flightCategory":"VFR","rawOb":"METAR SBLS 231100Z 14007KT 9999 FEW040 21/17 Q1021","temp":21,"dewp":17,"wdir":140,"wspd":7,"visib":"6+","altim":1021,"clouds":[{"cover":"FEW","base":4000}],"obsTime":1776942000},"SBST":{"icaoId":"SBST","flightCategory":"VFR","rawOb":"METAR SBST 231100Z 10002KT 9999 FEW029 21/21 Q1018","temp":21,"dewp":21,"wdir":100,"wspd":2,"visib":"6+","altim":1018,"clouds":[{"cover":"FEW","base":2900}],"obsTime":1776942000},"SBTA":{"icaoId":"SBTA","flightCategory":"MVFR","rawOb":"METAR SBTA 231100Z 07004KT 030V100 6000 SCT015 20/18 Q1020","temp":20,"dewp":18,"wdir":70,"wspd":4,"visib":3.73,"altim":1020,"clouds":[{"cover":"SCT","base":1500}],"obsTime":1776942000},"SBLE":{"icaoId":"SBLE","flightCategory":"VFR","rawOb":"METAR SBLE 231100Z AUTO 15005KT 120V200 CAVOK 23/19 Q1018","temp":23,"dewp":19,"wdir":150,"wspd":5,"visib":"6+","altim":1018,"clouds":[],"obsTime":1776942000},"SBIH":{"icaoId":"SBIH","flightCategory":"MVFR","rawOb":"METAR SBIH 231100Z 23005KT 8000 SCT015 24/23 Q1013","temp":24,"dewp":23,"wdir":230,"wspd":5,"visib":4.97,"altim":1013,"clouds":[{"cover":"SCT","base":1500}],"obsTime":1776942000},"SBMT":{"icaoId":"SBMT","flightCategory":"MVFR","rawOb":"METAR SBMT 231100Z 10008KT 6000 2500SE SCT013 BKN015 19/17 Q1021","temp":19,"dewp":17,"wdir":100,"wspd":8,"visib":3.73,"altim":1021,"clouds":[{"cover":"SCT","base":1300},{"cover":"BKN","base":1500}],"obsTime":1776942000}}}