{"updated":1775682315,"count":81,"data":{"SBBE":{"icaoId":"SBBE","flightCategory":"IFR","rawOb":"SPECI SBBE 081907Z 07005KT 2500 RA BKN015 FEW020TCU 27/27 Q1010","temp":27,"dewp":27,"wdir":70,"wspd":5,"visib":1.55,"altim":1010,"clouds":[{"cover":"BKN","base":1500},{"cover":"FEW","base":2000}],"obsTime":1775675220},"SBLO":{"icaoId":"SBLO","flightCategory":"VFR","rawOb":"METAR SBLO 082000Z 24005KT 9999 FEW025 24/21 Q1013","temp":24,"dewp":21,"wdir":240,"wspd":5,"visib":"6+","altim":1013,"clouds":[{"cover":"FEW","base":2500}],"obsTime":1775678400},"SBMA":{"icaoId":"SBMA","flightCategory":"MVFR","rawOb":"METAR SBMA 082000Z 07001KT 9999 BKN020 FEW025TCU BKN100 30/26 Q1009","temp":30,"dewp":26,"wdir":70,"wspd":1,"visib":"6+","altim":1009,"clouds":[{"cover":"BKN","base":2000},{"cover":"FEW","base":2500},{"cover":"BKN","base":10000}],"obsTime":1775678400},"SBFI":{"icaoId":"SBFI","flightCategory":"VFR","rawOb":"METAR SBFI 082000Z 22008KT 9999 SCT020 26/19 Q1013","temp":26,"dewp":19,"wdir":220,"wspd":8,"visib":"6+","altim":1013,"clouds":[{"cover":"SCT","base":2000}],"obsTime":1775678400},"SBFL":{"icaoId":"SBFL","flightCategory":"VFR","rawOb":"METAR SBFL 082000Z 25006KT 9999 SCT040 31/19 Q1005","temp":31,"dewp":19,"wdir":250,"wspd":6,"visib":"6+","altim":1005,"clouds":[{"cover":"SCT","base":4000}],"obsTime":1775678400},"SBCG":{"icaoId":"SBCG","flightCategory":"VFR","rawOb":"METAR SBCG 082000Z 27010KT 9999 SCT025 SCT040 28/21 Q1013","temp":28,"dewp":21,"wdir":270,"wspd":10,"visib":"6+","altim":1013,"clouds":[{"cover":"SCT","base":2500},{"cover":"SCT","base":4000}],"obsTime":1775678400},"SBBV":{"icaoId":"SBBV","flightCategory":"VFR","rawOb":"METAR SBBV 082000Z 12009KT 9999 SCT025 FEW030TCU SCT100 31/22 Q1009","temp":31,"dewp":22,"wdir":120,"wspd":9,"visib":"6+","altim":1009,"clouds":[{"cover":"SCT","base":2500},{"cover":"FEW","base":3000},{"cover":"SCT","base":10000}],"obsTime":1775678400},"SBFZ":{"icaoId":"SBFZ","flightCategory":"VFR","rawOb":"METAR SBFZ 082000Z 09009KT 9999 FEW023 29/24 Q1010","temp":29,"dewp":24,"wdir":90,"wspd":9,"visib":"6+","altim":1010,"clouds":[{"cover":"FEW","base":2300}],"obsTime":1775678400},"SBMO":{"icaoId":"SBMO","flightCategory":"MVFR","rawOb":"METAR SBMO 082000Z 11009KT 9999 VCSH BKN030 27/24 Q1012","temp":27,"dewp":24,"wdir":110,"wspd":9,"visib":"6+","altim":1012,"clouds":[{"cover":"BKN","base":3000}],"obsTime":1775678400},"SBCP":{"icaoId":"SBCP","flightCategory":"VFR","rawOb":"METAR SBCP 082000Z /////KT CAVOK ///// Q1010","temp":null,"dewp":null,"wdir":null,"wspd":null,"visib":"6+","altim":1010,"clouds":[],"obsTime":1775678400},"SBMQ":{"icaoId":"SBMQ","flightCategory":"VFR","rawOb":"METAR SBMQ 082000Z 06006KT 9999 FEW015 29/26 Q1009","temp":29,"dewp":26,"wdir":60,"wspd":6,"visib":"6+","altim":1009,"clouds":[{"cover":"FEW","base":1500}],"obsTime":1775678400},"SBGL":{"icaoId":"SBGL","flightCategory":"VFR","rawOb":"METAR SBGL 082000Z 33006KT 9999 FEW030 FEW035TCU SCT100 33/22 Q1009","temp":33,"dewp":22,"wdir":330,"wspd":6,"visib":"6+","altim":1009,"clouds":[{"cover":"FEW","base":3000},{"cover":"FEW","base":3500},{"cover":"SCT","base":10000}],"obsTime":1775678400},"SBTE":{"icaoId":"SBTE","flightCategory":"VFR","rawOb":"METAR SBTE 082000Z 20006KT 9999 FEW020 BKN100 29/24 Q1010","temp":29,"dewp":24,"wdir":200,"wspd":6,"visib":"6+","altim":1010,"clouds":[{"cover":"FEW","base":2000},{"cover":"BKN","base":10000}],"obsTime":1775678400},"SBCR":{"icaoId":"SBCR","flightCategory":"VFR","rawOb":"METAR SBCR 082000Z 21006KT 9999 SCT035 29/22 Q1011","temp":29,"dewp":22,"wdir":210,"wspd":6,"visib":"6+","altim":1011,"clouds":[{"cover":"SCT","base":3500}],"obsTime":1775678400},"SBPJ":{"icaoId":"SBPJ","flightCategory":"VFR","rawOb":"METAR SBPJ 082000Z 23004KT 9999 SCT045 34/24 Q1010","temp":34,"dewp":24,"wdir":230,"wspd":4,"visib":"6+","altim":1010,"clouds":[{"cover":"SCT","base":4500}],"obsTime":1775678400},"SBSV":{"icaoId":"SBSV","flightCategory":"VFR","rawOb":"METAR SBSV 082000Z 09008KT 9999 SCT023 29/22 Q1012","temp":29,"dewp":22,"wdir":90,"wspd":8,"visib":"6+","altim":1012,"clouds":[{"cover":"SCT","base":2300}],"obsTime":1775678400},"SBPV":{"icaoId":"SBPV","flightCategory":"VFR","rawOb":"METAR SBPV 082000Z 32002KT CAVOK 27/23 Q1008","temp":27,"dewp":23,"wdir":320,"wspd":2,"visib":"6+","altim":1008,"clouds":[],"obsTime":1775678400},"SBRB":{"icaoId":"SBRB","flightCategory":"MVFR","rawOb":"METAR SBRB 082000Z 34005KT 9999 VCSH BKN030 FEW034TCU SCT090 31/30 Q1009","temp":31,"dewp":30,"wdir":340,"wspd":5,"visib":"6+","altim":1009,"clouds":[{"cover":"BKN","base":3000},{"cover":"FEW","base":3400},{"cover":"SCT","base":9000}],"obsTime":1775678400},"SBGR":{"icaoId":"SBGR","flightCategory":"VFR","rawOb":"METAR SBGR 082000Z 33005KT CAVOK 26/19 Q1014","temp":26,"dewp":19,"wdir":330,"wspd":5,"visib":"6+","altim":1014,"clouds":[],"obsTime":1775678400},"SBCB":{"icaoId":"SBCB","flightCategory":"VFR","rawOb":"METAR SBCB 082000Z 08010KT CAVOK 28/22 Q1009","temp":28,"dewp":22,"wdir":80,"wspd":10,"visib":"6+","altim":1009,"clouds":[],"obsTime":1775678400},"SBRF":{"icaoId":"SBRF","flightCategory":"VFR","rawOb":"METAR SBRF 082000Z 14008KT 9999 SCT025 BKN060 28/23 Q1012","temp":28,"dewp":23,"wdir":140,"wspd":8,"visib":"6+","altim":1012,"clouds":[{"cover":"SCT","base":2500},{"cover":"BKN","base":6000}],"obsTime":1775678400},"SBSG":{"icaoId":"SBSG","flightCategory":"VFR","rawOb":"METAR SBSG 082000Z 11010KT 9999 SCT030 29/23 Q1011","temp":29,"dewp":23,"wdir":110,"wspd":10,"visib":"6+","altim":1011,"clouds":[{"cover":"SCT","base":3000}],"obsTime":1775678400},"SBBR":{"icaoId":"SBBR","flightCategory":"VFR","rawOb":"METAR SBBR 082000Z 24002KT 9999 SCT030 FEW040TCU BKN080 24/19 Q1017","temp":24,"dewp":19,"wdir":240,"wspd":2,"visib":"6+","altim":1017,"clouds":[{"cover":"SCT","base":3000},{"cover":"FEW","base":4000},{"cover":"BKN","base":8000}],"obsTime":1775678400},"SBSL":{"icaoId":"SBSL","flightCategory":"VFR","rawOb":"METAR SBSL 082000Z 05010KT 9999 SCT020 FEW025TCU BKN080 29/24 Q1010","temp":29,"dewp":24,"wdir":50,"wspd":10,"visib":"6+","altim":1010,"clouds":[{"cover":"SCT","base":2000},{"cover":"FEW","base":2500},{"cover":"BKN","base":8000}],"obsTime":1775678400},"SBVT":{"icaoId":"SBVT","flightCategory":"VFR","rawOb":"METAR SBVT 082000Z 04014KT 9999 FEW045 28/24 Q1011","temp":28,"dewp":24,"wdir":40,"wspd":14,"visib":"6+","altim":1011,"clouds":[{"cover":"FEW","base":4500}],"obsTime":1775678400},"SBSN":{"icaoId":"SBSN","flightCategory":"VFR","rawOb":"METAR SBSN 082000Z 08008KT 9999 FEW020 FEW023TCU 31/25 Q1008","temp":31,"dewp":25,"wdir":80,"wspd":8,"visib":"6+","altim":1008,"clouds":[{"cover":"FEW","base":2000},{"cover":"FEW","base":2300}],"obsTime":1775678400},"SBEG":{"icaoId":"SBEG","flightCategory":"VFR","rawOb":"METAR SBEG 082000Z VRB04KT 9999 FEW020 FEW025TCU SCT100 28/25 Q1009","temp":28,"dewp":25,"wdir":"VRB","wspd":4,"visib":"6+","altim":1009,"clouds":[{"cover":"FEW","base":2000},{"cover":"FEW","base":2500},{"cover":"SCT","base":10000}],"obsTime":1775678400},"SBCF":{"icaoId":"SBCF","flightCategory":"VFR","rawOb":"METAR SBCF 082000Z 03004KT 9999 VCSH SCT045 FEW048TCU SCT080 28/18 Q1016","temp":28,"dewp":18,"wdir":30,"wspd":4,"visib":"6+","altim":1016,"clouds":[{"cover":"SCT","base":4500},{"cover":"FEW","base":4800},{"cover":"SCT","base":8000}],"obsTime":1775678400},"SBSP":{"icaoId":"SBSP","flightCategory":"VFR","rawOb":"METAR SBSP 082000Z 34012G22KT 300V020 9999 FEW030 BKN100 26/17 Q1014","temp":26,"dewp":17,"wdir":340,"wspd":12,"visib":"6+","altim":1014,"clouds":[{"cover":"FEW","base":3000},{"cover":"BKN","base":10000}],"obsTime":1775678400},"SBNT":{"icaoId":"SBNT","flightCategory":"VFR","rawOb":"METAR SBNT 082000Z 11010KT 9999 FEW024 29/24 Q1011","temp":29,"dewp":24,"wdir":110,"wspd":10,"visib":"6+","altim":1011,"clouds":[{"cover":"FEW","base":2400}],"obsTime":1775678400},"SBPA":{"icaoId":"SBPA","flightCategory":"VFR","rawOb":"METAR SBPA 082000Z 29018KT 9999 VCSH FEW025 24/17 Q1008","temp":24,"dewp":17,"wdir":290,"wspd":18,"visib":"6+","altim":1008,"clouds":[{"cover":"FEW","base":2500}],"obsTime":1775678400},"SBCT":{"icaoId":"SBCT","flightCategory":"VFR","rawOb":"METAR SBCT 082000Z 28017KT 9999 SCT030 24/17 Q1013","temp":24,"dewp":17,"wdir":280,"wspd":17,"visib":"6+","altim":1013,"clouds":[{"cover":"SCT","base":3000}],"obsTime":1775678400},"SBCZ":{"icaoId":"SBCZ","flightCategory":"MVFR","rawOb":"METAR SBCZ 082000Z 15005KT 8000 VCSH BKN025 FEW030TCU 30/25 Q1008","temp":30,"dewp":25,"wdir":150,"wspd":5,"visib":4.97,"altim":1008,"clouds":[{"cover":"BKN","base":2500},{"cover":"FEW","base":3000}],"obsTime":1775678400},"SBGO":{"icaoId":"SBGO","flightCategory":"IFR","rawOb":"SPECI SBGO 081935Z 23010KT 2000 TSRA FEW010 BKN030 FEW048CB OVC080 20/20 Q1016 RERA","temp":20,"dewp":20,"wdir":230,"wspd":10,"visib":1.24,"altim":1016,"clouds":[{"cover":"FEW","base":1000},{"cover":"BKN","base":3000},{"cover":"FEW","base":4800},{"cover":"OVC","base":8000}],"obsTime":1775676900},"SBHT":{"icaoId":"SBHT","flightCategory":"VFR","rawOb":"METAR SBHT 082000Z 12004KT 9999 SCT030 33/24 Q1008","temp":33,"dewp":24,"wdir":120,"wspd":4,"visib":"6+","altim":1008,"clouds":[{"cover":"SCT","base":3000}],"obsTime":1775678400},"SBIL":{"icaoId":"SBIL","flightCategory":"VFR","rawOb":"METAR SBIL 082000Z 09005KT 9999 SCT023 FEW025TCU 29/24 Q1013","temp":29,"dewp":24,"wdir":90,"wspd":5,"visib":"6+","altim":1013,"clouds":[{"cover":"SCT","base":2300},{"cover":"FEW","base":2500}],"obsTime":1775678400},"SBJU":{"icaoId":"SBJU","flightCategory":"MVFR","rawOb":"METAR SBJU 082000Z 00000KT 9999 BKN022 25/23 Q1013","temp":25,"dewp":23,"wdir":0,"wspd":0,"visib":"6+","altim":1013,"clouds":[{"cover":"BKN","base":2200}],"obsTime":1775678400},"SBKP":{"icaoId":"SBKP","flightCategory":"VFR","rawOb":"METAR SBKP 082000Z 31009KT 9999 FEW040 27/19 Q1014","temp":27,"dewp":19,"wdir":310,"wspd":9,"visib":"6+","altim":1014,"clouds":[{"cover":"FEW","base":4000}],"obsTime":1775678400},"SBME":{"icaoId":"SBME","flightCategory":"VFR","rawOb":"METAR SBME 082000Z 15003KT 9999 FEW030 29/23 Q1009","temp":29,"dewp":23,"wdir":150,"wspd":3,"visib":"6+","altim":1009,"clouds":[{"cover":"FEW","base":3000}],"obsTime":1775678400},"SBMG":{"icaoId":"SBMG","flightCategory":"MVFR","rawOb":"METAR SBMG 082000Z 27006KT 9999 BKN015 BKN020 23/20 Q1013","temp":23,"dewp":20,"wdir":270,"wspd":6,"visib":"6+","altim":1013,"clouds":[{"cover":"BKN","base":1500},{"cover":"BKN","base":2000}],"obsTime":1775678400},"SBMK":{"icaoId":"SBMK","flightCategory":"VFR","rawOb":"METAR SBMK 082000Z 05005KT 9999 FEW040 30/19 Q1014","temp":30,"dewp":19,"wdir":50,"wspd":5,"visib":"6+","altim":1014,"clouds":[{"cover":"FEW","base":4000}],"obsTime":1775678400},"SBUL":{"icaoId":"SBUL","flightCategory":"VFR","rawOb":"METAR SBUL 082000Z 13009KT 9999 VCSH SCT030 FEW040TCU SCT100 23/20 Q1017","temp":23,"dewp":20,"wdir":130,"wspd":9,"visib":"6+","altim":1017,"clouds":[{"cover":"SCT","base":3000},{"cover":"FEW","base":4000},{"cover":"SCT","base":10000}],"obsTime":1775678400},"SBUR":{"icaoId":"SBUR","flightCategory":"VFR","rawOb":"METAR SBUR 082000Z 14006KT 9999 FEW043 FEW045TCU 27/20 Q1016","temp":27,"dewp":20,"wdir":140,"wspd":6,"visib":"6+","altim":1016,"clouds":[{"cover":"FEW","base":4300},{"cover":"FEW","base":4500}],"obsTime":1775678400},"SBAT":{"icaoId":"SBAT","flightCategory":"VFR","rawOb":"METAR SBAT 082000Z 36003KT 9999 FEW030 30/24 Q1009 RERA","temp":30,"dewp":24,"wdir":360,"wspd":3,"visib":"6+","altim":1009,"clouds":[{"cover":"FEW","base":3000}],"obsTime":1775678400},"SBSJ":{"icaoId":"SBSJ","flightCategory":"VFR","rawOb":"METAR SBSJ 082000Z 25003KT 9999 SCT033 BKN100 26/19 Q1014","temp":26,"dewp":19,"wdir":250,"wspd":3,"visib":"6+","altim":1014,"clouds":[{"cover":"SCT","base":3300},{"cover":"BKN","base":10000}],"obsTime":1775678400},"SBPL":{"icaoId":"SBPL","flightCategory":"VFR","rawOb":"METAR SBPL 082000Z 33003KT 9999 VCSH FEW032 FEW035TCU 33/21 Q1011","temp":33,"dewp":21,"wdir":330,"wspd":3,"visib":"6+","altim":1011,"clouds":[{"cover":"FEW","base":3200},{"cover":"FEW","base":3500}],"obsTime":1775678400},"SBOI":{"icaoId":"SBOI","flightCategory":"VFR","rawOb":"METAR SBOI 082000Z AUTO 07003KT 020V100 9999 FEW026 SCT046 27/26 Q1011","temp":27,"dewp":26,"wdir":70,"wspd":3,"visib":"6+","altim":1011,"clouds":[{"cover":"FEW","base":2600},{"cover":"SCT","base":4600}],"obsTime":1775678400},"SBPP":{"icaoId":"SBPP","flightCategory":"MVFR","rawOb":"METAR SBPP 082000Z 18006KT 9999 BKN015 22/19 Q1015","temp":22,"dewp":19,"wdir":180,"wspd":6,"visib":"6+","altim":1015,"clouds":[{"cover":"BKN","base":1500}],"obsTime":1775678400},"SBTF":{"icaoId":"SBTF","flightCategory":"VFR","rawOb":"METAR SBTF 082000Z 07005KT 9999 FEW018 FEW025TCU 29/25 Q1009","temp":29,"dewp":25,"wdir":70,"wspd":5,"visib":"6+","altim":1009,"clouds":[{"cover":"FEW","base":1800},{"cover":"FEW","base":2500}],"obsTime":1775678400},"SBAR":{"icaoId":"SBAR","flightCategory":"VFR","rawOb":"METAR SBAR 082000Z 14006KT 9999 VCSH SCT026 FEW030TCU BKN060 28/24 Q1012","temp":28,"dewp":24,"wdir":140,"wspd":6,"visib":"6+","altim":1012,"clouds":[{"cover":"SCT","base":2600},{"cover":"FEW","base":3000},{"cover":"BKN","base":6000}],"obsTime":1775678400},"SBPB":{"icaoId":"SBPB","flightCategory":"VFR","rawOb":"METAR SBPB 082000Z 03012KT 9999 SCT016 FEW025TCU BKN080 29/25 Q1010","temp":29,"dewp":25,"wdir":30,"wspd":12,"visib":"6+","altim":1010,"clouds":[{"cover":"SCT","base":1600},{"cover":"FEW","base":2500},{"cover":"BKN","base":8000}],"obsTime":1775678400},"SBTT":{"icaoId":"SBTT","flightCategory":"VFR","rawOb":"METAR SBTT 082000Z 12004KT 9999 SCT025 SCT100 31/23 Q1008","temp":31,"dewp":23,"wdir":120,"wspd":4,"visib":"6+","altim":1008,"clouds":[{"cover":"SCT","base":2500},{"cover":"SCT","base":10000}],"obsTime":1775678400},"SBUY":{"icaoId":"SBUY","flightCategory":"VFR","rawOb":"METAR SBUY 082000Z 01003KT 9999 SCT025 SCT100 30/24 Q1008","temp":30,"dewp":24,"wdir":10,"wspd":3,"visib":"6+","altim":1008,"clouds":[{"cover":"SCT","base":2500},{"cover":"SCT","base":10000}],"obsTime":1775678400},"SBPS":{"icaoId":"SBPS","flightCategory":"VFR","rawOb":"METAR SBPS 082000Z 07011KT 9999 SCT018 27/24 Q1013","temp":27,"dewp":24,"wdir":70,"wspd":11,"visib":"6+","altim":1013,"clouds":[{"cover":"SCT","base":1800}],"obsTime":1775678400},"SBCJ":{"icaoId":"SBCJ","flightCategory":"VFR","rawOb":"METAR SBCJ 082000Z 03001KT 9999 SCT013 26/24 Q1014","temp":26,"dewp":24,"wdir":30,"wspd":1,"visib":"6+","altim":1014,"clouds":[{"cover":"SCT","base":1300}],"obsTime":1775678400},"SBKG":{"icaoId":"SBKG","flightCategory":"VFR","rawOb":"METAR SBKG 082000Z 09006KT 9999 SCT015 BKN070 24/23 Q1014","temp":24,"dewp":23,"wdir":90,"wspd":6,"visib":"6+","altim":1014,"clouds":[{"cover":"SCT","base":1500},{"cover":"BKN","base":7000}],"obsTime":1775678400},"SBSC":{"icaoId":"SBSC","flightCategory":"VFR","rawOb":"METAR SBSC 082000Z 36005KT 9999 FEW021 FEW035TCU BKN100 32/24 Q1009","temp":32,"dewp":24,"wdir":360,"wspd":5,"visib":"6+","altim":1009,"clouds":[{"cover":"FEW","base":2100},{"cover":"FEW","base":3500},{"cover":"BKN","base":10000}],"obsTime":1775678400},"SBSM":{"icaoId":"SBSM","flightCategory":"VFR","rawOb":"METAR SBSM 082000Z 29011KT 9999 SCT035 22/18 Q1011","temp":22,"dewp":18,"wdir":290,"wspd":11,"visib":"6+","altim":1011,"clouds":[{"cover":"SCT","base":3500}],"obsTime":1775678400},"SBSR":{"icaoId":"SBSR","flightCategory":"VFR","rawOb":"METAR SBSR 082000Z VRB02KT 9999 SCT020 FEW020TCU 29/20 Q1013","temp":29,"dewp":20,"wdir":"VRB","wspd":2,"visib":"6+","altim":1013,"clouds":[{"cover":"SCT","base":2000},{"cover":"FEW","base":2000}],"obsTime":1775678400},"SBVH":{"icaoId":"SBVH","flightCategory":"VFR","rawOb":"METAR SBVH 082000Z 21003KT 9999 SCT030 FEW040TCU BKN081 24/22 Q1013 RETS","temp":24,"dewp":22,"wdir":210,"wspd":3,"visib":"6+","altim":1013,"clouds":[{"cover":"SCT","base":3000},{"cover":"FEW","base":4000},{"cover":"BKN","base":8100}],"obsTime":1775678400},"SBAX":{"icaoId":"SBAX","flightCategory":"VFR","rawOb":"METAR SBAX 082000Z 04004KT 9999 SCT023 SCT045 23/21 Q1017","temp":23,"dewp":21,"wdir":40,"wspd":4,"visib":"6+","altim":1017,"clouds":[{"cover":"SCT","base":2300},{"cover":"SCT","base":4500}],"obsTime":1775678400},"SBBH":{"icaoId":"SBBH","flightCategory":"VFR","rawOb":"METAR SBBH 082000Z 27006KT 9999 SCT040 FEW045TCU 28/18 Q1016","temp":28,"dewp":18,"wdir":270,"wspd":6,"visib":"6+","altim":1016,"clouds":[{"cover":"SCT","base":4000},{"cover":"FEW","base":4500}],"obsTime":1775678400},"SBBU":{"icaoId":"SBBU","flightCategory":"VFR","rawOb":"METAR SBBU 082000Z 28010KT 9999 FEW030 29/23 Q1013","temp":29,"dewp":23,"wdir":280,"wspd":10,"visib":"6+","altim":1013,"clouds":[{"cover":"FEW","base":3000}],"obsTime":1775678400},"SBCA":{"icaoId":"SBCA","flightCategory":"VFR","rawOb":"METAR SBCA 082000Z 23007KT 9999 FEW010 21/16 Q1015","temp":21,"dewp":16,"wdir":230,"wspd":7,"visib":"6+","altim":1015,"clouds":[{"cover":"FEW","base":1000}],"obsTime":1775678400},"SBCC":{"icaoId":"SBCC","flightCategory":"VFR","rawOb":"METAR SBCC 082000Z 05006KT 9999 SCT020 32/20 Q1010","temp":32,"dewp":20,"wdir":50,"wspd":6,"visib":"6+","altim":1010,"clouds":[{"cover":"SCT","base":2000}],"obsTime":1775678400},"SBCO":{"icaoId":"SBCO","flightCategory":"VFR","rawOb":"METAR SBCO 082000Z 28018G29KT 9999 SCT045 24/16 Q1008","temp":24,"dewp":16,"wdir":280,"wspd":18,"visib":"6+","altim":1008,"clouds":[{"cover":"SCT","base":4500}],"obsTime":1775678400},"SBDN":{"icaoId":"SBDN","flightCategory":"VFR","rawOb":"METAR SBDN 082000Z 25006KT 9999 SCT033 FEW050TCU 30/22 Q1012","temp":30,"dewp":22,"wdir":250,"wspd":6,"visib":"6+","altim":1012,"clouds":[{"cover":"SCT","base":3300},{"cover":"FEW","base":5000}],"obsTime":1775678400},"SBES":{"icaoId":"SBES","flightCategory":"VFR","rawOb":"METAR SBES 082000Z 06006KT 330V110 9999 FEW040 29/// Q1009","temp":null,"dewp":null,"wdir":60,"wspd":6,"visib":"6+","altim":1009,"clouds":[{"cover":"FEW","base":4000}],"obsTime":1775678400},"SBIP":{"icaoId":"SBIP","flightCategory":"VFR","rawOb":"METAR SBIP 082000Z AUTO 04004KT 360V070 CAVOK 31/20 Q1013","temp":31,"dewp":20,"wdir":40,"wspd":4,"visib":"6+","altim":1013,"clouds":[],"obsTime":1775678400},"SBJP":{"icaoId":"SBJP","flightCategory":"IFR","rawOb":"METAR SBJP 082000Z 15006KT 4000 -RA BKN008 BKN012 25/24 Q1012","temp":25,"dewp":24,"wdir":150,"wspd":6,"visib":2.49,"altim":1012,"clouds":[{"cover":"BKN","base":800},{"cover":"BKN","base":1200}],"obsTime":1775678400},"SBGW":{"icaoId":"SBGW","flightCategory":"MVFR","rawOb":"METAR SBGW 082000Z VRB01KT 9999 TS BKN030 FEW035CB BKN100 27/19 Q1013 RETS","temp":27,"dewp":19,"wdir":"VRB","wspd":1,"visib":"6+","altim":1013,"clouds":[{"cover":"BKN","base":3000},{"cover":"FEW","base":3500},{"cover":"BKN","base":10000}],"obsTime":1775678400},"SBAN":{"icaoId":"SBAN","flightCategory":"MVFR","rawOb":"METAR SBAN 082000Z VRB02KT 5000 -TSRA SCT010 BKN025 FEW035CB BKN100 23/19 Q1018 RETS","temp":23,"dewp":19,"wdir":"VRB","wspd":2,"visib":3.11,"altim":1018,"clouds":[{"cover":"SCT","base":1000},{"cover":"BKN","base":2500},{"cover":"FEW","base":3500},{"cover":"BKN","base":10000}],"obsTime":1775678400},"SBIH":{"icaoId":"SBIH","flightCategory":"VFR","rawOb":"METAR SBIH 082000Z 06005KT 9999 SCT020 FEW025TCU 32/25 Q1007","temp":32,"dewp":25,"wdir":60,"wspd":5,"visib":"6+","altim":1007,"clouds":[{"cover":"SCT","base":2000},{"cover":"FEW","base":2500}],"obsTime":1775678400},"SBJV":{"icaoId":"SBJV","flightCategory":"VFR","rawOb":"METAR SBJV 082000Z 12008KT 9999 SCT035 29/25 Q1006","temp":29,"dewp":25,"wdir":120,"wspd":8,"visib":"6+","altim":1006,"clouds":[{"cover":"SCT","base":3500}],"obsTime":1775678400},"SBPF":{"icaoId":"SBPF","flightCategory":"VFR","rawOb":"METAR SBPF 082000Z 25014KT 9999 SCT025 19/14 Q1014","temp":19,"dewp":14,"wdir":250,"wspd":14,"visib":"6+","altim":1014,"clouds":[{"cover":"SCT","base":2500}],"obsTime":1775678400},"SBJR":{"icaoId":"SBJR","flightCategory":"VFR","rawOb":"METAR SBJR 082000Z 22002KT 9999 VCSH FEW035TCU BKN100 31/22 Q1008","temp":31,"dewp":22,"wdir":220,"wspd":2,"visib":"6+","altim":1008,"clouds":[{"cover":"FEW","base":3500},{"cover":"BKN","base":10000}],"obsTime":1775678400},"SBLS":{"icaoId":"SBLS","flightCategory":"VFR","rawOb":"METAR SBLS 082000Z 34003KT 280V360 9999 FEW043 FEW045TCU 27/18 Q1016","temp":27,"dewp":18,"wdir":340,"wspd":3,"visib":"6+","altim":1016,"clouds":[{"cover":"FEW","base":4300},{"cover":"FEW","base":4500}],"obsTime":1775678400},"SBMT":{"icaoId":"SBMT","flightCategory":"VFR","rawOb":"METAR SBMT 082000Z 29011KT CAVOK 26/18 Q1014","temp":26,"dewp":18,"wdir":290,"wspd":11,"visib":"6+","altim":1014,"clouds":[],"obsTime":1775678400},"SBST":{"icaoId":"SBST","flightCategory":"VFR","rawOb":"METAR SBST 082000Z 01008KT 9999 BKN045 BKN096 30/19 Q1007","temp":30,"dewp":19,"wdir":10,"wspd":8,"visib":"6+","altim":1007,"clouds":[{"cover":"BKN","base":4500},{"cover":"BKN","base":9600}],"obsTime":1775678400},"SBTA":{"icaoId":"SBTA","flightCategory":"VFR","rawOb":"METAR SBTA 082000Z 13003KT 9999 SCT040 FEW045TCU BKN100 25/20 Q1013","temp":25,"dewp":20,"wdir":130,"wspd":3,"visib":"6+","altim":1013,"clouds":[{"cover":"SCT","base":4000},{"cover":"FEW","base":4500},{"cover":"BKN","base":10000}],"obsTime":1775678400},"SBAF":{"icaoId":"SBAF","flightCategory":"VFR","rawOb":" SBAF 082000Z 28003KT 9999 SCT045 BKN100 32/23 Q1009","temp":32,"dewp":23,"wdir":280,"wspd":3,"visib":"6+","altim":1009,"clouds":[{"cover":"SCT","base":4500},{"cover":"BKN","base":10000}],"obsTime":1775678400}}}