{"updated":1775785716,"count":63,"data":{"SBPV":{"icaoId":"SBPV","flightCategory":"MVFR","rawOb":"METAR SBPV 100000Z 06003KT 9999 TS BKN012 BKN030 FEW035CB 26/24 Q1011","temp":26,"dewp":24,"wdir":60,"wspd":3,"visib":"6+","altim":1011,"clouds":[{"cover":"BKN","base":1200},{"cover":"BKN","base":3000},{"cover":"FEW","base":3500}],"obsTime":1775779200},"SBBE":{"icaoId":"SBBE","flightCategory":"VFR","rawOb":"METAR SBBE 100000Z 05006KT 9999 BKN036 26/26 Q1011","temp":26,"dewp":26,"wdir":50,"wspd":6,"visib":"6+","altim":1011,"clouds":[{"cover":"BKN","base":3600}],"obsTime":1775779200},"SBBR":{"icaoId":"SBBR","flightCategory":"VFR","rawOb":"METAR SBBR 100000Z 28002KT 9999 SCT045 BKN090 21/20 Q1019","temp":21,"dewp":20,"wdir":280,"wspd":2,"visib":"6+","altim":1019,"clouds":[{"cover":"SCT","base":4500},{"cover":"BKN","base":9000}],"obsTime":1775779200},"SBFL":{"icaoId":"SBFL","flightCategory":"VFR","rawOb":"METAR SBFL 100000Z 18007KT 150V220 CAVOK 22/15 Q1015","temp":22,"dewp":15,"wdir":180,"wspd":7,"visib":"6+","altim":1015,"clouds":[],"obsTime":1775779200},"SBBV":{"icaoId":"SBBV","flightCategory":"VFR","rawOb":"METAR SBBV 100000Z 15006KT 9999 VCTS SCT040 FEW045CB BKN090 27/24 Q1010","temp":27,"dewp":24,"wdir":150,"wspd":6,"visib":"6+","altim":1010,"clouds":[{"cover":"SCT","base":4000},{"cover":"FEW","base":4500},{"cover":"BKN","base":9000}],"obsTime":1775779200},"SBCF":{"icaoId":"SBCF","flightCategory":"VFR","rawOb":"METAR SBCF 100000Z 05005KT 9999 VCTS SCT040 FEW045CB SCT090 23/18 Q1018","temp":23,"dewp":18,"wdir":50,"wspd":5,"visib":"6+","altim":1018,"clouds":[{"cover":"SCT","base":4000},{"cover":"FEW","base":4500},{"cover":"SCT","base":9000}],"obsTime":1775779200},"SBCG":{"icaoId":"SBCG","flightCategory":"VFR","rawOb":"METAR SBCG 100000Z 18003KT 9999 FEW040 23/21 Q1015","temp":23,"dewp":21,"wdir":180,"wspd":3,"visib":"6+","altim":1015,"clouds":[{"cover":"FEW","base":4000}],"obsTime":1775779200},"SBCT":{"icaoId":"SBCT","flightCategory":"VFR","rawOb":"METAR SBCT 100000Z 10004KT CAVOK 16/15 Q1019","temp":16,"dewp":15,"wdir":100,"wspd":4,"visib":"6+","altim":1019,"clouds":[],"obsTime":1775779200},"SBEG":{"icaoId":"SBEG","flightCategory":"VFR","rawOb":"METAR SBEG 100000Z 08002KT 9999 FEW020 25/24 Q1011","temp":25,"dewp":24,"wdir":80,"wspd":2,"visib":"6+","altim":1011,"clouds":[{"cover":"FEW","base":2000}],"obsTime":1775779200},"SBFI":{"icaoId":"SBFI","flightCategory":"VFR","rawOb":"METAR SBFI 100000Z 22004KT CAVOK 20/17 Q1015","temp":20,"dewp":17,"wdir":220,"wspd":4,"visib":"6+","altim":1015,"clouds":[],"obsTime":1775779200},"SBFZ":{"icaoId":"SBFZ","flightCategory":"VFR","rawOb":"METAR SBFZ 100000Z 08003KT CAVOK 27/24 Q1011","temp":27,"dewp":24,"wdir":80,"wspd":3,"visib":"6+","altim":1011,"clouds":[],"obsTime":1775779200},"SBGL":{"icaoId":"SBGL","flightCategory":"VFR","rawOb":"METAR SBGL 100000Z 02004KT 9999 SCT020 BKN040 26/22 Q1014","temp":26,"dewp":22,"wdir":20,"wspd":4,"visib":"6+","altim":1014,"clouds":[{"cover":"SCT","base":2000},{"cover":"BKN","base":4000}],"obsTime":1775779200},"SBGO":{"icaoId":"SBGO","flightCategory":"VFR","rawOb":"METAR SBGO 100000Z 14003KT CAVOK 25/22 Q1017","temp":25,"dewp":22,"wdir":140,"wspd":3,"visib":"6+","altim":1017,"clouds":[],"obsTime":1775779200},"SBGR":{"icaoId":"SBGR","flightCategory":"MVFR","rawOb":"METAR SBGR 100000Z 11006KT 9999 OVC013 20/17 Q1019","temp":20,"dewp":17,"wdir":110,"wspd":6,"visib":"6+","altim":1019,"clouds":[{"cover":"OVC","base":1300}],"obsTime":1775779200},"SBIL":{"icaoId":"SBIL","flightCategory":"VFR","rawOb":"METAR SBIL 100000Z 06005KT CAVOK 28/24 Q1013","temp":28,"dewp":24,"wdir":60,"wspd":5,"visib":"6+","altim":1013,"clouds":[],"obsTime":1775779200},"SBJU":{"icaoId":"SBJU","flightCategory":"VFR","rawOb":"METAR SBJU 100000Z 00000KT CAVOK 25/22 Q1014","temp":25,"dewp":22,"wdir":0,"wspd":0,"visib":"6+","altim":1014,"clouds":[],"obsTime":1775779200},"SBKP":{"icaoId":"SBKP","flightCategory":"VFR","rawOb":"METAR SBKP 100000Z 13013KT CAVOK 22/19 Q1016","temp":22,"dewp":19,"wdir":130,"wspd":13,"visib":"6+","altim":1016,"clouds":[],"obsTime":1775779200},"SBLO":{"icaoId":"SBLO","flightCategory":"VFR","rawOb":"METAR SBLO 100000Z 23003KT CAVOK 22/17 Q1015","temp":22,"dewp":17,"wdir":230,"wspd":3,"visib":"6+","altim":1015,"clouds":[],"obsTime":1775779200},"SBMA":{"icaoId":"SBMA","flightCategory":"VFR","rawOb":"METAR SBMA 100000Z 09002KT 9999 FEW020 28/25 Q1011","temp":28,"dewp":25,"wdir":90,"wspd":2,"visib":"6+","altim":1011,"clouds":[{"cover":"FEW","base":2000}],"obsTime":1775779200},"SBME":{"icaoId":"SBME","flightCategory":"MVFR","rawOb":"METAR SBME 100000Z 22009KT 9999 BKN023 26/23 Q1014","temp":26,"dewp":23,"wdir":220,"wspd":9,"visib":"6+","altim":1014,"clouds":[{"cover":"BKN","base":2300}],"obsTime":1775779200},"SBMG":{"icaoId":"SBMG","flightCategory":"VFR","rawOb":"METAR SBMG 100000Z 19004KT CAVOK 22/18 Q1014","temp":22,"dewp":18,"wdir":190,"wspd":4,"visib":"6+","altim":1014,"clouds":[],"obsTime":1775779200},"SBMK":{"icaoId":"SBMK","flightCategory":"VFR","rawOb":"METAR SBMK 100000Z 00000KT CAVOK 22/20 Q1016","temp":22,"dewp":20,"wdir":0,"wspd":0,"visib":"6+","altim":1016,"clouds":[],"obsTime":1775779200},"SBMO":{"icaoId":"SBMO","flightCategory":"VFR","rawOb":"METAR SBMO 100000Z 02002KT 9999 FEW025 24/23 Q1013","temp":24,"dewp":23,"wdir":20,"wspd":2,"visib":"6+","altim":1013,"clouds":[{"cover":"FEW","base":2500}],"obsTime":1775779200},"SBMQ":{"icaoId":"SBMQ","flightCategory":"VFR","rawOb":"METAR SBMQ 100000Z 03005KT CAVOK 28/25 Q1011","temp":28,"dewp":25,"wdir":30,"wspd":5,"visib":"6+","altim":1011,"clouds":[],"obsTime":1775779200},"SBNT":{"icaoId":"SBNT","flightCategory":"VFR","rawOb":"METAR SBNT 100000Z 16003KT 9999 FEW020 BKN100 27/22 Q1012","temp":27,"dewp":22,"wdir":160,"wspd":3,"visib":"6+","altim":1012,"clouds":[{"cover":"FEW","base":2000},{"cover":"BKN","base":10000}],"obsTime":1775779200},"SBPA":{"icaoId":"SBPA","flightCategory":"VFR","rawOb":"METAR SBPA 100000Z 17005KT 9999 BKN045 20/16 Q1016","temp":20,"dewp":16,"wdir":170,"wspd":5,"visib":"6+","altim":1016,"clouds":[{"cover":"BKN","base":4500}],"obsTime":1775779200},"SBPJ":{"icaoId":"SBPJ","flightCategory":"VFR","rawOb":"METAR SBPJ 100000Z 14003KT 9999 VCTS FEW027 FEW033CB 26/24 Q1013","temp":26,"dewp":24,"wdir":140,"wspd":3,"visib":"6+","altim":1013,"clouds":[{"cover":"FEW","base":2700},{"cover":"FEW","base":3300}],"obsTime":1775779200},"SBRB":{"icaoId":"SBRB","flightCategory":"VFR","rawOb":"METAR SBRB 100000Z 17002KT 9999 SCT035 25/25 Q1010","temp":25,"dewp":25,"wdir":170,"wspd":2,"visib":"6+","altim":1010,"clouds":[{"cover":"SCT","base":3500}],"obsTime":1775779200},"SBRF":{"icaoId":"SBRF","flightCategory":"VFR","rawOb":"METAR SBRF 100000Z 13006KT 9999 FEW022 28/22 Q1012","temp":28,"dewp":22,"wdir":130,"wspd":6,"visib":"6+","altim":1012,"clouds":[{"cover":"FEW","base":2200}],"obsTime":1775779200},"SBSG":{"icaoId":"SBSG","flightCategory":"VFR","rawOb":"METAR SBSG 100000Z 17003KT 140V200 9999 SCT023 FEW026TCU BKN070 25/23 Q1013","temp":25,"dewp":23,"wdir":170,"wspd":3,"visib":"6+","altim":1013,"clouds":[{"cover":"SCT","base":2300},{"cover":"FEW","base":2600},{"cover":"BKN","base":7000}],"obsTime":1775779200},"SBSL":{"icaoId":"SBSL","flightCategory":"VFR","rawOb":"METAR SBSL 100000Z 08002KT 9999 FEW017 BKN080 26/25 Q1011","temp":26,"dewp":25,"wdir":80,"wspd":2,"visib":"6+","altim":1011,"clouds":[{"cover":"FEW","base":1700},{"cover":"BKN","base":8000}],"obsTime":1775779200},"SBSN":{"icaoId":"SBSN","flightCategory":"VFR","rawOb":"METAR SBSN 100000Z 15004KT CAVOK 26/25 Q1011","temp":26,"dewp":25,"wdir":150,"wspd":4,"visib":"6+","altim":1011,"clouds":[],"obsTime":1775779200},"SBSP":{"icaoId":"SBSP","flightCategory":"MVFR","rawOb":"METAR SBSP 100000Z 16011KT 9999 BKN017 20/16 Q1020","temp":20,"dewp":16,"wdir":160,"wspd":11,"visib":"6+","altim":1020,"clouds":[{"cover":"BKN","base":1700}],"obsTime":1775779200},"SBSV":{"icaoId":"SBSV","flightCategory":"VFR","rawOb":"METAR SBSV 100000Z 09007KT 070V130 CAVOK 28/22 Q1013","temp":28,"dewp":22,"wdir":90,"wspd":7,"visib":"6+","altim":1013,"clouds":[],"obsTime":1775779200},"SBTE":{"icaoId":"SBTE","flightCategory":"VFR","rawOb":"METAR SBTE 100000Z 00000KT CAVOK 28/25 Q1011","temp":28,"dewp":25,"wdir":0,"wspd":0,"visib":"6+","altim":1011,"clouds":[],"obsTime":1775779200},"SBUL":{"icaoId":"SBUL","flightCategory":"VFR","rawOb":"METAR SBUL 100000Z 19005KT 150V210 CAVOK 23/19 Q1019","temp":23,"dewp":19,"wdir":190,"wspd":5,"visib":"6+","altim":1019,"clouds":[],"obsTime":1775779200},"SBUR":{"icaoId":"SBUR","flightCategory":"VFR","rawOb":"METAR SBUR 100000Z 00000KT CAVOK 25/20 Q1017","temp":25,"dewp":20,"wdir":0,"wspd":0,"visib":"6+","altim":1017,"clouds":[],"obsTime":1775779200},"SBVT":{"icaoId":"SBVT","flightCategory":"VFR","rawOb":"METAR SBVT 100000Z 36003KT 9999 VCTS FEW030 FEW040CB SCT060 24/23 Q1013","temp":24,"dewp":23,"wdir":360,"wspd":3,"visib":"6+","altim":1013,"clouds":[{"cover":"FEW","base":3000},{"cover":"FEW","base":4000},{"cover":"SCT","base":6000}],"obsTime":1775779200},"SBCZ":{"icaoId":"SBCZ","flightCategory":"VFR","rawOb":"METAR SBCZ 100000Z 06003KT 9999 -RA FEW016 BKN100 26/25 Q1011","temp":26,"dewp":25,"wdir":60,"wspd":3,"visib":"6+","altim":1011,"clouds":[{"cover":"FEW","base":1600},{"cover":"BKN","base":10000}],"obsTime":1775779200},"SBSJ":{"icaoId":"SBSJ","flightCategory":"MVFR","rawOb":"METAR SBSJ 100000Z 19003KT 9999 OVC018 21/18 Q1018","temp":21,"dewp":18,"wdir":190,"wspd":3,"visib":"6+","altim":1018,"clouds":[{"cover":"OVC","base":1800}],"obsTime":1775779200},"SBAR":{"icaoId":"SBAR","flightCategory":"VFR","rawOb":"METAR SBAR 100000Z 12007KT 9999 FEW020 28/23 Q1012","temp":28,"dewp":23,"wdir":120,"wspd":7,"visib":"6+","altim":1012,"clouds":[{"cover":"FEW","base":2000}],"obsTime":1775779200},"SBAX":{"icaoId":"SBAX","flightCategory":"VFR","rawOb":"METAR SBAX 100000Z 08003KT CAVOK 21/21 Q1019","temp":21,"dewp":21,"wdir":80,"wspd":3,"visib":"6+","altim":1019,"clouds":[],"obsTime":1775779200},"SBSR":{"icaoId":"SBSR","flightCategory":"VFR","rawOb":"METAR SBSR 100000Z 21001KT CAVOK 26/20 Q1015","temp":26,"dewp":20,"wdir":210,"wspd":1,"visib":"6+","altim":1015,"clouds":[],"obsTime":1775779200},"SBBH":{"icaoId":"SBBH","flightCategory":"MVFR","rawOb":"METAR SBBH 100000Z 10004KT 9999 BKN030 SCT090 22/19 Q1018","temp":22,"dewp":19,"wdir":100,"wspd":4,"visib":"6+","altim":1018,"clouds":[{"cover":"BKN","base":3000},{"cover":"SCT","base":9000}],"obsTime":1775779200},"SBBU":{"icaoId":"SBBU","flightCategory":"VFR","rawOb":"METAR SBBU 100000Z 34002KT CAVOK 25/21 Q1015","temp":25,"dewp":21,"wdir":340,"wspd":2,"visib":"6+","altim":1015,"clouds":[],"obsTime":1775779200},"SBCO":{"icaoId":"SBCO","flightCategory":"VFR","rawOb":"METAR SBCO 100000Z VRB01KT 9999 FEW045 18/16 Q1017","temp":18,"dewp":16,"wdir":"VRB","wspd":1,"visib":"6+","altim":1017,"clouds":[{"cover":"FEW","base":4500}],"obsTime":1775779200},"SBDN":{"icaoId":"SBDN","flightCategory":"VFR","rawOb":"METAR SBDN 100000Z 00000KT CAVOK 24/18 Q1014","temp":24,"dewp":18,"wdir":0,"wspd":0,"visib":"6+","altim":1014,"clouds":[],"obsTime":1775779200},"SBIP":{"icaoId":"SBIP","flightCategory":"VFR","rawOb":"METAR SBIP 100000Z AUTO 00000KT CAVOK 23/22 Q1013","temp":23,"dewp":22,"wdir":0,"wspd":0,"visib":"6+","altim":1013,"clouds":[],"obsTime":1775779200},"SBKG":{"icaoId":"SBKG","flightCategory":"MVFR","rawOb":"METAR SBKG 100000Z 07010KT 9999 BKN015 24/22 Q1015","temp":24,"dewp":22,"wdir":70,"wspd":10,"visib":"6+","altim":1015,"clouds":[{"cover":"BKN","base":1500}],"obsTime":1775779200},"SBOI":{"icaoId":"SBOI","flightCategory":"VFR","rawOb":"METAR SBOI 100000Z AUTO 04001KT CAVOK 25/23 Q1012","temp":25,"dewp":23,"wdir":40,"wspd":1,"visib":"6+","altim":1012,"clouds":[],"obsTime":1775779200},"SBPL":{"icaoId":"SBPL","flightCategory":"VFR","rawOb":"METAR SBPL 100000Z 00000KT 9999 FEW030 SCT070 24/22 Q1013","temp":24,"dewp":22,"wdir":0,"wspd":0,"visib":"6+","altim":1013,"clouds":[{"cover":"FEW","base":3000},{"cover":"SCT","base":7000}],"obsTime":1775779200},"SBPS":{"icaoId":"SBPS","flightCategory":"VFR","rawOb":"METAR SBPS 100000Z VRB02KT 9999 FEW020 26/23 Q1014","temp":26,"dewp":23,"wdir":"VRB","wspd":2,"visib":"6+","altim":1014,"clouds":[{"cover":"FEW","base":2000}],"obsTime":1775779200},"SBSC":{"icaoId":"SBSC","flightCategory":"MVFR","rawOb":"METAR SBSC 100000Z 21004KT 9999 SCT011 BKN030 25/23 Q1015","temp":25,"dewp":23,"wdir":210,"wspd":4,"visib":"6+","altim":1015,"clouds":[{"cover":"SCT","base":1100},{"cover":"BKN","base":3000}],"obsTime":1775779200},"SBSM":{"icaoId":"SBSM","flightCategory":"VFR","rawOb":"METAR SBSM 100000Z 30001KT 9999 FEW045 SCT070 16/14 Q1017","temp":16,"dewp":14,"wdir":300,"wspd":1,"visib":"6+","altim":1017,"clouds":[{"cover":"FEW","base":4500},{"cover":"SCT","base":7000}],"obsTime":1775779200},"SBJP":{"icaoId":"SBJP","flightCategory":"VFR","rawOb":"METAR SBJP 100000Z 13003KT 9999 FEW020 SCT100 26/24 Q1013","temp":26,"dewp":24,"wdir":130,"wspd":3,"visib":"6+","altim":1013,"clouds":[{"cover":"FEW","base":2000},{"cover":"SCT","base":10000}],"obsTime":1775779200},"SBLS":{"icaoId":"SBLS","flightCategory":"VFR","rawOb":"METAR SBLS 100000Z 09004KT 9999 VCTS SCT033 FEW040CB SCT100 21/17 Q1018 RETS","temp":21,"dewp":17,"wdir":90,"wspd":4,"visib":"6+","altim":1018,"clouds":[{"cover":"SCT","base":3300},{"cover":"FEW","base":4000},{"cover":"SCT","base":10000}],"obsTime":1775779200},"SBJV":{"icaoId":"SBJV","flightCategory":"MVFR","rawOb":"METAR SBJV 100000Z 11003KT 040V140 9999 FEW013 BKN030 22/20 Q1016","temp":22,"dewp":20,"wdir":110,"wspd":3,"visib":"6+","altim":1016,"clouds":[{"cover":"FEW","base":1300},{"cover":"BKN","base":3000}],"obsTime":1775779200},"SBMT":{"icaoId":"SBMT","flightCategory":"MVFR","rawOb":"METAR SBMT 100000Z 14004KT 070V210 8000 FEW013 OVC100 20/17 Q1018","temp":20,"dewp":17,"wdir":140,"wspd":4,"visib":4.97,"altim":1018,"clouds":[{"cover":"FEW","base":1300},{"cover":"OVC","base":10000}],"obsTime":1775779200},"SBLE":{"icaoId":"SBLE","flightCategory":"VFR","rawOb":"METAR SBLE 100000Z AUTO 30003KT 280V360 CAVOK ///// Q////","temp":null,"dewp":null,"wdir":300,"wspd":3,"visib":"6+","altim":null,"clouds":[],"obsTime":1775779200},"SBST":{"icaoId":"SBST","flightCategory":"VFR","rawOb":"METAR SBST 100000Z 15006KT 9999 SCT025 24/20 Q1015","temp":24,"dewp":20,"wdir":150,"wspd":6,"visib":"6+","altim":1015,"clouds":[{"cover":"SCT","base":2500}],"obsTime":1775779200},"SBAN":{"icaoId":"SBAN","flightCategory":"VFR","rawOb":"METAR SBAN 100000Z 04003KT 360V090 9999 TS VCSH FEW030 FEW035CB SCT100 21/19 Q1020 RETS","temp":21,"dewp":19,"wdir":40,"wspd":3,"visib":"6+","altim":1020,"clouds":[{"cover":"FEW","base":3000},{"cover":"FEW","base":3500},{"cover":"SCT","base":10000}],"obsTime":1775779200},"SBTA":{"icaoId":"SBTA","flightCategory":"VFR","rawOb":"METAR SBTA 100000Z 23007KT 9999 FEW021 OVC033 22/18 Q1017","temp":22,"dewp":18,"wdir":230,"wspd":7,"visib":"6+","altim":1017,"clouds":[{"cover":"FEW","base":2100},{"cover":"OVC","base":3300}],"obsTime":1775779200},"SBJR":{"icaoId":"SBJR","flightCategory":"VFR","rawOb":"METAR SBJR 100000Z COR 18002KT 9999 -RA SCT020 BKN040 25/23 Q1014","temp":25,"dewp":23,"wdir":180,"wspd":2,"visib":"6+","altim":1014,"clouds":[{"cover":"SCT","base":2000},{"cover":"BKN","base":4000}],"obsTime":1775779200}}}