{"updated":1777375766,"count":82,"data":{"SBRB":{"icaoId":"SBRB","flightCategory":"IFR","rawOb":"METAR SBRB 281000Z 05006KT 4000 BR VCTS FEW002 BKN007 FEW030CB 24/24 Q1011","temp":24,"dewp":24,"wdir":50,"wspd":6,"visib":2.49,"altim":1011,"clouds":[{"cover":"FEW","base":200},{"cover":"BKN","base":700},{"cover":"FEW","base":3000}],"obsTime":1777370400},"SBSP":{"icaoId":"SBSP","flightCategory":"IFR","rawOb":"METAR SBSP 281000Z 10004KT 070V130 9999 BKN009 OVC013 20/19 Q1019","temp":20,"dewp":19,"wdir":100,"wspd":4,"visib":"6+","altim":1019,"clouds":[{"cover":"BKN","base":900},{"cover":"OVC","base":1300}],"obsTime":1777370400},"SBMG":{"icaoId":"SBMG","flightCategory":"LIFR","rawOb":"METAR SBMG 281000Z 05002KT 6000 2500SW BCFG BKN003 OVC009 19/19 Q1015","temp":19,"dewp":19,"wdir":50,"wspd":2,"visib":3.73,"altim":1015,"clouds":[{"cover":"BKN","base":300},{"cover":"OVC","base":900}],"obsTime":1777370400},"SBMK":{"icaoId":"SBMK","flightCategory":"VFR","rawOb":"METAR SBMK 281000Z 00000KT CAVOK 20/17 Q1018","temp":20,"dewp":17,"wdir":0,"wspd":0,"visib":"6+","altim":1018,"clouds":[],"obsTime":1777370400},"SBAT":{"icaoId":"SBAT","flightCategory":"LIFR","rawOb":"METAR SBAT 281100Z 12002KT 1000 -RA VCSH SCT008 BKN012 OVC100 23/23 Q1015","temp":23,"dewp":23,"wdir":120,"wspd":2,"visib":0.62,"altim":1015,"clouds":[{"cover":"SCT","base":800},{"cover":"BKN","base":1200},{"cover":"OVC","base":10000}],"obsTime":1777374000},"SBFZ":{"icaoId":"SBFZ","flightCategory":"VFR","rawOb":"METAR SBFZ 281000Z 20002KT 9999 SCT025 BKN090 26/24 Q1011","temp":26,"dewp":24,"wdir":200,"wspd":2,"visib":"6+","altim":1011,"clouds":[{"cover":"SCT","base":2500},{"cover":"BKN","base":9000}],"obsTime":1777370400},"SBMO":{"icaoId":"SBMO","flightCategory":"IFR","rawOb":"METAR SBMO 281000Z 11006KT 4000 RA SCT005 BKN010 BKN018 24/23 Q1014","temp":24,"dewp":23,"wdir":110,"wspd":6,"visib":2.49,"altim":1014,"clouds":[{"cover":"SCT","base":500},{"cover":"BKN","base":1000},{"cover":"BKN","base":1800}],"obsTime":1777370400},"SBMQ":{"icaoId":"SBMQ","flightCategory":"VFR","rawOb":"METAR SBMQ 281000Z 25002KT 9999 SCT022 SCT033 25/25 Q1012","temp":25,"dewp":25,"wdir":250,"wspd":2,"visib":"6+","altim":1012,"clouds":[{"cover":"SCT","base":2200},{"cover":"SCT","base":3300}],"obsTime":1777370400},"SBCG":{"icaoId":"SBCG","flightCategory":"LIFR","rawOb":"SPECI SBCG 280931Z 09002KT 5000 BR OVC002 20/19 Q1015","temp":20,"dewp":19,"wdir":90,"wspd":2,"visib":3.11,"altim":1015,"clouds":[{"cover":"OVC","base":200}],"obsTime":1777368660},"SBBV":{"icaoId":"SBBV","flightCategory":"VFR","rawOb":"METAR SBBV 281000Z 07008KT 9999 FEW030 SCT100 25/23 Q1012","temp":25,"dewp":23,"wdir":70,"wspd":8,"visib":"6+","altim":1012,"clouds":[{"cover":"FEW","base":3000},{"cover":"SCT","base":10000}],"obsTime":1777370400},"SBNT":{"icaoId":"SBNT","flightCategory":"VFR","rawOb":"METAR SBNT 281000Z 20005KT 170V230 9000 VCSH SCT023 FEW030TCU 25/24 Q1013","temp":25,"dewp":24,"wdir":200,"wspd":5,"visib":5.59,"altim":1013,"clouds":[{"cover":"SCT","base":2300},{"cover":"FEW","base":3000}],"obsTime":1777370400},"SBGL":{"icaoId":"SBGL","flightCategory":"VFR","rawOb":"METAR SBGL 281000Z 14005KT 9999 FEW015 SCT020 BKN040 26/23 Q1015","temp":26,"dewp":23,"wdir":140,"wspd":5,"visib":"6+","altim":1015,"clouds":[{"cover":"FEW","base":1500},{"cover":"SCT","base":2000},{"cover":"BKN","base":4000}],"obsTime":1777370400},"SBPA":{"icaoId":"SBPA","flightCategory":"VFR","rawOb":"METAR SBPA 281000Z VRB02KT CAVOK 08/06 Q1019","temp":8,"dewp":6,"wdir":"VRB","wspd":2,"visib":"6+","altim":1019,"clouds":[],"obsTime":1777370400},"SBPJ":{"icaoId":"SBPJ","flightCategory":"VFR","rawOb":"METAR SBPJ 281000Z 13002KT 9999 FEW018 SCT050 24/23 Q1014","temp":24,"dewp":23,"wdir":130,"wspd":2,"visib":"6+","altim":1014,"clouds":[{"cover":"FEW","base":1800},{"cover":"SCT","base":5000}],"obsTime":1777370400},"SBCB":{"icaoId":"SBCB","flightCategory":"VFR","rawOb":"METAR SBCB 281000Z 25003KT 9999 SCT015 25/24 Q1015","temp":25,"dewp":24,"wdir":250,"wspd":3,"visib":"6+","altim":1015,"clouds":[{"cover":"SCT","base":1500}],"obsTime":1777370400},"SBGO":{"icaoId":"SBGO","flightCategory":"VFR","rawOb":"METAR SBGO 281000Z 09003KT CAVOK 20/18 Q1018","temp":20,"dewp":18,"wdir":90,"wspd":3,"visib":"6+","altim":1018,"clouds":[],"obsTime":1777370400},"SBPV":{"icaoId":"SBPV","flightCategory":"VFR","rawOb":"METAR SBPV 281000Z 35002KT 9999 SCT008 25/22 Q1010","temp":25,"dewp":22,"wdir":350,"wspd":2,"visib":"6+","altim":1010,"clouds":[{"cover":"SCT","base":800}],"obsTime":1777370400},"SBGR":{"icaoId":"SBGR","flightCategory":"IFR","rawOb":"METAR SBGR 281000Z 10005KT 9999 BKN009 21/19 Q1019","temp":21,"dewp":19,"wdir":100,"wspd":5,"visib":"6+","altim":1019,"clouds":[{"cover":"BKN","base":900}],"obsTime":1777370400},"SBCP":{"icaoId":"SBCP","flightCategory":"MVFR","rawOb":"METAR SBCP 281000Z 21007KT 5000 BR FEW008 BKN015 25/24 Q1014","temp":25,"dewp":24,"wdir":210,"wspd":7,"visib":3.11,"altim":1014,"clouds":[{"cover":"FEW","base":800},{"cover":"BKN","base":1500}],"obsTime":1777370400},"SBRF":{"icaoId":"SBRF","flightCategory":"MVFR","rawOb":"METAR SBRF 281000Z 11011KT 9999 SCT012 BKN015 BKN050 29/24 Q1013","temp":29,"dewp":24,"wdir":110,"wspd":11,"visib":"6+","altim":1013,"clouds":[{"cover":"SCT","base":1200},{"cover":"BKN","base":1500},{"cover":"BKN","base":5000}],"obsTime":1777370400},"SBSG":{"icaoId":"SBSG","flightCategory":"VFR","rawOb":"METAR SBSG 281000Z 20004KT 150V240 9999 FEW007 SCT025 BKN080 25/24 Q1013","temp":25,"dewp":24,"wdir":200,"wspd":4,"visib":"6+","altim":1013,"clouds":[{"cover":"FEW","base":700},{"cover":"SCT","base":2500},{"cover":"BKN","base":8000}],"obsTime":1777370400},"SBHT":{"icaoId":"SBHT","flightCategory":"VFR","rawOb":"METAR SBHT 281000Z 08003KT 9999 SCT010 SCT090 24/24 Q1013","temp":24,"dewp":24,"wdir":80,"wspd":3,"visib":"6+","altim":1013,"clouds":[{"cover":"SCT","base":1000},{"cover":"SCT","base":9000}],"obsTime":1777370400},"SBSL":{"icaoId":"SBSL","flightCategory":"VFR","rawOb":"METAR SBSL 281000Z 17003KT 9999 SCT017 BKN080 25/25 Q1012","temp":25,"dewp":25,"wdir":170,"wspd":3,"visib":"6+","altim":1012,"clouds":[{"cover":"SCT","base":1700},{"cover":"BKN","base":8000}],"obsTime":1777370400},"SBCR":{"icaoId":"SBCR","flightCategory":"LIFR","rawOb":"METAR SBCR 281100Z 25003KT 7000 OVC004 20/20 Q1015","temp":20,"dewp":20,"wdir":250,"wspd":3,"visib":4.35,"altim":1015,"clouds":[{"cover":"OVC","base":400}],"obsTime":1777374000},"SBIL":{"icaoId":"SBIL","flightCategory":"VFR","rawOb":"METAR SBIL 281000Z 29004KT 9999 SCT020 23/23 Q1016","temp":23,"dewp":23,"wdir":290,"wspd":4,"visib":"6+","altim":1016,"clouds":[{"cover":"SCT","base":2000}],"obsTime":1777370400},"SBSN":{"icaoId":"SBSN","flightCategory":"VFR","rawOb":"METAR SBSN 281000Z /////KT 9999 FEW015 BKN100 ///// Q1011","temp":null,"dewp":null,"wdir":null,"wspd":null,"visib":"6+","altim":1011,"clouds":[{"cover":"FEW","base":1500},{"cover":"BKN","base":10000}],"obsTime":1777370400},"SBCT":{"icaoId":"SBCT","flightCategory":"MVFR","rawOb":"METAR SBCT 281000Z 13008KT 6000 -DZ FEW005 OVC011 14/14 Q1020","temp":14,"dewp":14,"wdir":130,"wspd":8,"visib":3.73,"altim":1020,"clouds":[{"cover":"FEW","base":500},{"cover":"OVC","base":1100}],"obsTime":1777370400},"SBJU":{"icaoId":"SBJU","flightCategory":"VFR","rawOb":"METAR SBJU 281000Z 00000KT 9999 FEW020 23/21 Q1016","temp":23,"dewp":21,"wdir":0,"wspd":0,"visib":"6+","altim":1016,"clouds":[{"cover":"FEW","base":2000}],"obsTime":1777370400},"SBSV":{"icaoId":"SBSV","flightCategory":"VFR","rawOb":"METAR SBSV 281000Z 11006KT 9999 FEW025 28/21 Q1015","temp":28,"dewp":21,"wdir":110,"wspd":6,"visib":"6+","altim":1015,"clouds":[{"cover":"FEW","base":2500}],"obsTime":1777370400},"SBBE":{"icaoId":"SBBE","flightCategory":"VFR","rawOb":"METAR SBBE 281000Z 13002KT 9999 FEW020 BKN080 25/25 Q1012","temp":25,"dewp":25,"wdir":130,"wspd":2,"visib":"6+","altim":1012,"clouds":[{"cover":"FEW","base":2000},{"cover":"BKN","base":8000}],"obsTime":1777370400},"SBCF":{"icaoId":"SBCF","flightCategory":"VFR","rawOb":"METAR SBCF 281000Z VRB02KT 9000 NSC 18/17 Q1019","temp":18,"dewp":17,"wdir":"VRB","wspd":2,"visib":5.59,"altim":1019,"clouds":[],"obsTime":1777370400},"SBFL":{"icaoId":"SBFL","flightCategory":"VFR","rawOb":"METAR SBFL 281000Z 16008KT CAVOK 18/05 Q1018","temp":18,"dewp":5,"wdir":160,"wspd":8,"visib":"6+","altim":1018,"clouds":[],"obsTime":1777370400},"SBME":{"icaoId":"SBME","flightCategory":"VFR","rawOb":"METAR SBME 281000Z 25002KT CAVOK 24/22 Q1014","temp":24,"dewp":22,"wdir":250,"wspd":2,"visib":"6+","altim":1014,"clouds":[],"obsTime":1777370400},"SBTE":{"icaoId":"SBTE","flightCategory":"VFR","rawOb":"METAR SBTE 281000Z 36003KT 320V040 9999 FEW012 SCT070 26/24 Q1012","temp":26,"dewp":24,"wdir":360,"wspd":3,"visib":"6+","altim":1012,"clouds":[{"cover":"FEW","base":1200},{"cover":"SCT","base":7000}],"obsTime":1777370400},"SBUL":{"icaoId":"SBUL","flightCategory":"VFR","rawOb":"METAR SBUL 281000Z 14005KT 100V160 9999 FEW001 21/17 Q1019","temp":21,"dewp":17,"wdir":140,"wspd":5,"visib":"6+","altim":1019,"clouds":[{"cover":"FEW","base":100}],"obsTime":1777370400},"SBEG":{"icaoId":"SBEG","flightCategory":"VFR","rawOb":"METAR SBEG 281000Z 03003KT 9999 FEW007 23/23 Q1011","temp":23,"dewp":23,"wdir":30,"wspd":3,"visib":"6+","altim":1011,"clouds":[{"cover":"FEW","base":700}],"obsTime":1777370400},"SBUR":{"icaoId":"SBUR","flightCategory":"VFR","rawOb":"METAR SBUR 281000Z 03004KT CAVOK 20/17 Q1017","temp":20,"dewp":17,"wdir":30,"wspd":4,"visib":"6+","altim":1017,"clouds":[],"obsTime":1777370400},"SBKP":{"icaoId":"SBKP","flightCategory":"VFR","rawOb":"METAR SBKP 281000Z 11004KT 9000 NSC 20/19 Q1017","temp":20,"dewp":19,"wdir":110,"wspd":4,"visib":5.59,"altim":1017,"clouds":[],"obsTime":1777370400},"SBVT":{"icaoId":"SBVT","flightCategory":"VFR","rawOb":"METAR SBVT 281000Z 00000KT CAVOK 25/21 Q1015","temp":25,"dewp":21,"wdir":0,"wspd":0,"visib":"6+","altim":1015,"clouds":[],"obsTime":1777370400},"SBBR":{"icaoId":"SBBR","flightCategory":"VFR","rawOb":"METAR SBBR 281000Z 19003KT CAVOK 19/17 Q1019","temp":19,"dewp":17,"wdir":190,"wspd":3,"visib":"6+","altim":1019,"clouds":[],"obsTime":1777370400},"SBLO":{"icaoId":"SBLO","flightCategory":"LIFR","rawOb":"METAR SBLO 281000Z 05003KT 3000 -DZ BKN002 OVC012 20/20 Q1016","temp":20,"dewp":20,"wdir":50,"wspd":3,"visib":1.86,"altim":1016,"clouds":[{"cover":"BKN","base":200},{"cover":"OVC","base":1200}],"obsTime":1777370400},"SBFI":{"icaoId":"SBFI","flightCategory":"VFR","rawOb":"METAR SBFI 281000Z 14002KT CAVOK 08/08 Q1016","temp":8,"dewp":8,"wdir":140,"wspd":2,"visib":"6+","altim":1016,"clouds":[],"obsTime":1777370400},"SBMA":{"icaoId":"SBMA","flightCategory":"VFR","rawOb":"METAR SBMA 281000Z 01002KT 9999 FEW020 BKN100 26/24 Q1013","temp":26,"dewp":24,"wdir":10,"wspd":2,"visib":"6+","altim":1013,"clouds":[{"cover":"FEW","base":2000},{"cover":"BKN","base":10000}],"obsTime":1777370400},"SBTF":{"icaoId":"SBTF","flightCategory":"VFR","rawOb":"SPECI SBTF 281115Z 16005KT 9999 FEW008 26/25 Q1011","temp":26,"dewp":25,"wdir":160,"wspd":5,"visib":"6+","altim":1011,"clouds":[{"cover":"FEW","base":800}],"obsTime":1777374900},"SBPP":{"icaoId":"SBPP","flightCategory":"VFR","rawOb":"SPECI SBPP 281115Z 07005KT 9999 SCT015 17/14 Q1017","temp":17,"dewp":14,"wdir":70,"wspd":5,"visib":"6+","altim":1017,"clouds":[{"cover":"SCT","base":1500}],"obsTime":1777374900},"SBOI":{"icaoId":"SBOI","flightCategory":"VFR","rawOb":"METAR SBOI 281000Z AUTO VRB02KT 9999 // SCT060/// 24/24 Q1012","temp":24,"dewp":24,"wdir":"VRB","wspd":2,"visib":"6+","altim":1012,"clouds":[{"cover":"SCT","base":6000}],"obsTime":1777370400},"SBBH":{"icaoId":"SBBH","flightCategory":"VFR","rawOb":"METAR SBBH 281000Z 00000KT CAVOK 19/18 Q1019","temp":19,"dewp":18,"wdir":0,"wspd":0,"visib":"6+","altim":1019,"clouds":[],"obsTime":1777370400},"SBTT":{"icaoId":"SBTT","flightCategory":"IFR","rawOb":"METAR SBTT 281100Z 34004KT 3000 +RA OVC007 24/22 Q1013","temp":24,"dewp":22,"wdir":340,"wspd":4,"visib":1.86,"altim":1013,"clouds":[{"cover":"OVC","base":700}],"obsTime":1777374000},"SBBU":{"icaoId":"SBBU","flightCategory":"MVFR","rawOb":"METAR SBBU 281000Z 10005KT 8000 NSC 22/21 Q1017","temp":22,"dewp":21,"wdir":100,"wspd":5,"visib":4.97,"altim":1017,"clouds":[],"obsTime":1777370400},"SBCA":{"icaoId":"SBCA","flightCategory":"VFR","rawOb":"METAR SBCA 281100Z 18005KT CAVOK 12/10 Q1018","temp":12,"dewp":10,"wdir":180,"wspd":5,"visib":"6+","altim":1018,"clouds":[],"obsTime":1777374000},"SBCC":{"icaoId":"SBCC","flightCategory":"MVFR","rawOb":"METAR SBCC 281100Z 10003KT 9999 -RA BKN012 BKN080 22/21 Q1016 RERA","temp":22,"dewp":21,"wdir":100,"wspd":3,"visib":"6+","altim":1016,"clouds":[{"cover":"BKN","base":1200},{"cover":"BKN","base":8000}],"obsTime":1777374000},"SBAR":{"icaoId":"SBAR","flightCategory":"MVFR","rawOb":"METAR SBAR 281000Z 33003KT 9999 FEW007 SCT015 BKN025 25/24 Q1014","temp":25,"dewp":24,"wdir":330,"wspd":3,"visib":"6+","altim":1014,"clouds":[{"cover":"FEW","base":700},{"cover":"SCT","base":1500},{"cover":"BKN","base":2500}],"obsTime":1777370400},"SBCJ":{"icaoId":"SBCJ","flightCategory":"VFR","rawOb":"SPECI SBCJ 281015Z 00000KT CAVOK 23/21 Q1017","temp":23,"dewp":21,"wdir":0,"wspd":0,"visib":"6+","altim":1017,"clouds":[],"obsTime":1777371300},"SBCO":{"icaoId":"SBCO","flightCategory":"VFR","rawOb":"METAR SBCO 281000Z 00000KT CAVOK 07/06 Q1019","temp":7,"dewp":6,"wdir":0,"wspd":0,"visib":"6+","altim":1019,"clouds":[],"obsTime":1777370400},"SBTD":{"icaoId":"SBTD","flightCategory":"VFR","rawOb":"METAR SBTD 281100Z /////KT CAVOK 15/10 Q1017","temp":15,"dewp":10,"wdir":null,"wspd":null,"visib":"6+","altim":1017,"clouds":[],"obsTime":1777374000},"SBDN":{"icaoId":"SBDN","flightCategory":"LIFR","rawOb":"METAR SBDN 281000Z 04001KT 6000 2000E BCFG BKN004 BKN100 21/20 Q1015","temp":21,"dewp":20,"wdir":40,"wspd":1,"visib":3.73,"altim":1015,"clouds":[{"cover":"BKN","base":400},{"cover":"BKN","base":10000}],"obsTime":1777370400},"SBSR":{"icaoId":"SBSR","flightCategory":"VFR","rawOb":"METAR SBSR 281000Z 10004KT CAVOK 22/19 Q1016","temp":22,"dewp":19,"wdir":100,"wspd":4,"visib":"6+","altim":1016,"clouds":[],"obsTime":1777370400},"SBSM":{"icaoId":"SBSM","flightCategory":"VFR","rawOb":"METAR SBSM 281000Z 00000KT 9999 BCFG NSC 04/04 Q1019","temp":4,"dewp":4,"wdir":0,"wspd":0,"visib":"6+","altim":1019,"clouds":[],"obsTime":1777370400},"SBES":{"icaoId":"SBES","flightCategory":"VFR","rawOb":"METAR SBES 281000Z 06003KT 9000 FEW010 23/// Q1015","temp":null,"dewp":null,"wdir":60,"wspd":3,"visib":5.59,"altim":1015,"clouds":[{"cover":"FEW","base":1000}],"obsTime":1777370400},"SBSJ":{"icaoId":"SBSJ","flightCategory":"IFR","rawOb":"METAR SBSJ 281000Z VRB01KT 3000 BR SCT005 BKN013 19/19 Q1018","temp":19,"dewp":19,"wdir":"VRB","wspd":1,"visib":1.86,"altim":1018,"clouds":[{"cover":"SCT","base":500},{"cover":"BKN","base":1300}],"obsTime":1777370400},"SBIP":{"icaoId":"SBIP","flightCategory":"VFR","rawOb":"METAR SBIP 281000Z AUTO 04002KT 9999 FEW002 20/20 Q1017","temp":20,"dewp":20,"wdir":40,"wspd":2,"visib":"6+","altim":1017,"clouds":[{"cover":"FEW","base":200}],"obsTime":1777370400},"SBKG":{"icaoId":"SBKG","flightCategory":"IFR","rawOb":"METAR SBKG 281000Z 23004KT 170V270 2500 -RA BR BKN008 OVC070 22/22 Q1016","temp":22,"dewp":22,"wdir":230,"wspd":4,"visib":1.55,"altim":1016,"clouds":[{"cover":"BKN","base":800},{"cover":"OVC","base":7000}],"obsTime":1777370400},"SBSC":{"icaoId":"SBSC","flightCategory":"MVFR","rawOb":"METAR SBSC 281000Z VRB02KT 8000 FEW010 BKN025 25/23 Q1015","temp":25,"dewp":23,"wdir":"VRB","wspd":2,"visib":4.97,"altim":1015,"clouds":[{"cover":"FEW","base":1000},{"cover":"BKN","base":2500}],"obsTime":1777370400},"SBPS":{"icaoId":"SBPS","flightCategory":"VFR","rawOb":"METAR SBPS 281000Z 25003KT 9999 SCT020 BKN070 23/22 Q1016","temp":23,"dewp":22,"wdir":250,"wspd":3,"visib":"6+","altim":1016,"clouds":[{"cover":"SCT","base":2000},{"cover":"BKN","base":7000}],"obsTime":1777370400},"SBVH":{"icaoId":"SBVH","flightCategory":"VFR","rawOb":"METAR SBVH 281100Z 10005KT CAVOK 22/21 Q1016","temp":22,"dewp":21,"wdir":100,"wspd":5,"visib":"6+","altim":1016,"clouds":[],"obsTime":1777374000},"SBPB":{"icaoId":"SBPB","flightCategory":"VFR","rawOb":"SPECI SBPB 281015Z 13003KT 9999 SCT020 27/25 Q1012","temp":27,"dewp":25,"wdir":130,"wspd":3,"visib":"6+","altim":1012,"clouds":[{"cover":"SCT","base":2000}],"obsTime":1777371300},"SBPL":{"icaoId":"SBPL","flightCategory":"VFR","rawOb":"METAR SBPL 281000Z 11003KT CAVOK 24/21 Q1016","temp":24,"dewp":21,"wdir":110,"wspd":3,"visib":"6+","altim":1016,"clouds":[],"obsTime":1777370400},"SBAX":{"icaoId":"SBAX","flightCategory":"VFR","rawOb":"METAR SBAX 281000Z AUTO 10005KT CAVOK 19/17 Q1019","temp":19,"dewp":17,"wdir":100,"wspd":5,"visib":"6+","altim":1019,"clouds":[],"obsTime":1777370400},"SBUY":{"icaoId":"SBUY","flightCategory":"LIFR","rawOb":"METAR SBUY 281100Z 00000KT 0800 FG SCT002 BKN070 23/23 Q1010","temp":23,"dewp":23,"wdir":0,"wspd":0,"visib":0.5,"altim":1010,"clouds":[{"cover":"SCT","base":200},{"cover":"BKN","base":7000}],"obsTime":1777374000},"SBJP":{"icaoId":"SBJP","flightCategory":"IFR","rawOb":"METAR SBJP 281000Z 05005KT 3000 -RA BKN008 BKN020 24/24 Q1014","temp":24,"dewp":24,"wdir":50,"wspd":5,"visib":1.86,"altim":1014,"clouds":[{"cover":"BKN","base":800},{"cover":"BKN","base":2000}],"obsTime":1777370400},"SBST":{"icaoId":"SBST","flightCategory":"LIFR","rawOb":"METAR SBST 281100Z /////KT 0800 FG FEW004 BKN007 ///// Q1016","temp":null,"dewp":null,"wdir":null,"wspd":null,"visib":0.5,"altim":1016,"clouds":[{"cover":"FEW","base":400},{"cover":"BKN","base":700}],"obsTime":1777374000},"SBAN":{"icaoId":"SBAN","flightCategory":"VFR","rawOb":"METAR SBAN 281000Z 06002KT CAVOK 19/18 Q1020","temp":19,"dewp":18,"wdir":60,"wspd":2,"visib":"6+","altim":1020,"clouds":[],"obsTime":1777370400},"SBAF":{"icaoId":"SBAF","flightCategory":"MVFR","rawOb":"METAR SBAF 281000Z 27002KT 8000 FEW010 BKN017 BKN057 25/25 Q1015","temp":25,"dewp":25,"wdir":270,"wspd":2,"visib":4.97,"altim":1015,"clouds":[{"cover":"FEW","base":1000},{"cover":"BKN","base":1700},{"cover":"BKN","base":5700}],"obsTime":1777370400},"SBGW":{"icaoId":"SBGW","flightCategory":"IFR","rawOb":"METAR SBGW 281000Z 04004KT 4000 HZ FEW010 BKN015 BKN020 23/18 Q1017","temp":23,"dewp":18,"wdir":40,"wspd":4,"visib":2.49,"altim":1017,"clouds":[{"cover":"FEW","base":1000},{"cover":"BKN","base":1500},{"cover":"BKN","base":2000}],"obsTime":1777370400},"SBJR":{"icaoId":"SBJR","flightCategory":"MVFR","rawOb":"METAR SBJR 281000Z 29001KT 9999 FEW010 BKN018 BKN050 26/24 Q1015","temp":26,"dewp":24,"wdir":290,"wspd":1,"visib":"6+","altim":1015,"clouds":[{"cover":"FEW","base":1000},{"cover":"BKN","base":1800},{"cover":"BKN","base":5000}],"obsTime":1777370400},"SBLS":{"icaoId":"SBLS","flightCategory":"VFR","rawOb":"METAR SBLS 281000Z 14007KT CAVOK 20/18 Q1019","temp":20,"dewp":18,"wdir":140,"wspd":7,"visib":"6+","altim":1019,"clouds":[],"obsTime":1777370400},"SBMT":{"icaoId":"SBMT","flightCategory":"MVFR","rawOb":"METAR SBMT 281000Z 09006KT 6000 SCT006 BKN011 20/19 Q1018","temp":20,"dewp":19,"wdir":90,"wspd":6,"visib":3.73,"altim":1018,"clouds":[{"cover":"SCT","base":600},{"cover":"BKN","base":1100}],"obsTime":1777370400},"SBTA":{"icaoId":"SBTA","flightCategory":"MVFR","rawOb":"METAR SBTA 281000Z 00000KT 6000 BKN015 OVC030 20/20 Q1017","temp":20,"dewp":20,"wdir":0,"wspd":0,"visib":3.73,"altim":1017,"clouds":[{"cover":"BKN","base":1500},{"cover":"OVC","base":3000}],"obsTime":1777370400},"SBJV":{"icaoId":"SBJV","flightCategory":"MVFR","rawOb":"METAR SBJV 281000Z 36003KT 9999 OVC030 19/18 Q1018","temp":19,"dewp":18,"wdir":360,"wspd":3,"visib":"6+","altim":1018,"clouds":[{"cover":"OVC","base":3000}],"obsTime":1777370400},"SBPF":{"icaoId":"SBPF","flightCategory":"VFR","rawOb":"METAR SBPF 281000Z 06008KT CAVOK 09/07 Q1019","temp":9,"dewp":7,"wdir":60,"wspd":8,"visib":"6+","altim":1019,"clouds":[],"obsTime":1777370400},"SBIH":{"icaoId":"SBIH","flightCategory":"VFR","rawOb":"METAR SBIH 281100Z 09002KT 9999 SCT008 SCT080 25/24 Q1012","temp":25,"dewp":24,"wdir":90,"wspd":2,"visib":"6+","altim":1012,"clouds":[{"cover":"SCT","base":800},{"cover":"SCT","base":8000}],"obsTime":1777374000},"SBLE":{"icaoId":"SBLE","flightCategory":"VFR","rawOb":"METAR SBLE 281000Z AUTO VRB01KT 9999 FEW020 SCT023 BKN048 ///// Q////","temp":null,"dewp":null,"wdir":"VRB","wspd":1,"visib":"6+","altim":null,"clouds":[{"cover":"FEW","base":2000},{"cover":"SCT","base":2300},{"cover":"BKN","base":4800}],"obsTime":1777370400}}}