{"updated":1775503990,"count":82,"data":{"SBFL":{"icaoId":"SBFL","flightCategory":"IFR","rawOb":"METAR SBFL 061800Z 06003KT 330V110 3000 -DZ BKN014 OVC025 24/23 Q1017","temp":24,"dewp":23,"wdir":60,"wspd":3,"visib":1.86,"altim":1017,"clouds":[{"cover":"BKN","base":1400},{"cover":"OVC","base":2500}],"obsTime":1775498400},"SBKP":{"icaoId":"SBKP","flightCategory":"VFR","rawOb":"METAR SBKP 061800Z VRB05KT 9999 FEW040TCU BKN045 31/19 Q1016","temp":31,"dewp":19,"wdir":"VRB","wspd":5,"visib":"6+","altim":1016,"clouds":[{"cover":"FEW","base":4000},{"cover":"BKN","base":4500}],"obsTime":1775498400},"SBBE":{"icaoId":"SBBE","flightCategory":"VFR","rawOb":"METAR SBBE 061800Z 33008KT 9999 VCSH FEW024 FEW030TCU BKN033 29/25 Q1010","temp":29,"dewp":25,"wdir":330,"wspd":8,"visib":"6+","altim":1010,"clouds":[{"cover":"FEW","base":2400},{"cover":"FEW","base":3000},{"cover":"BKN","base":3300}],"obsTime":1775498400},"SBCZ":{"icaoId":"SBCZ","flightCategory":"VFR","rawOb":"METAR SBCZ 061800Z VRB04KT 9999 SCT025 FEW030TCU 30/24 Q1010","temp":30,"dewp":24,"wdir":"VRB","wspd":4,"visib":"6+","altim":1010,"clouds":[{"cover":"SCT","base":2500},{"cover":"FEW","base":3000}],"obsTime":1775498400},"SBAT":{"icaoId":"SBAT","flightCategory":"VFR","rawOb":"METAR SBAT 061800Z 13005KT 9999 SCT035 34/24 Q1012","temp":34,"dewp":24,"wdir":130,"wspd":5,"visib":"6+","altim":1012,"clouds":[{"cover":"SCT","base":3500}],"obsTime":1775498400},"SBBR":{"icaoId":"SBBR","flightCategory":"VFR","rawOb":"METAR SBBR 061800Z 10009KT 9999 SCT040 FEW045TCU 29/16 Q1018","temp":29,"dewp":16,"wdir":100,"wspd":9,"visib":"6+","altim":1018,"clouds":[{"cover":"SCT","base":4000},{"cover":"FEW","base":4500}],"obsTime":1775498400},"SBBV":{"icaoId":"SBBV","flightCategory":"VFR","rawOb":"METAR SBBV 061800Z 09010KT 9999 BKN040 FEW045TCU 33/21 Q1009","temp":33,"dewp":21,"wdir":90,"wspd":10,"visib":"6+","altim":1009,"clouds":[{"cover":"BKN","base":4000},{"cover":"FEW","base":4500}],"obsTime":1775498400},"SBCB":{"icaoId":"SBCB","flightCategory":"VFR","rawOb":"METAR SBCB 061800Z 11008KT 9999 SCT030 29/22 Q1016","temp":29,"dewp":22,"wdir":110,"wspd":8,"visib":"6+","altim":1016,"clouds":[{"cover":"SCT","base":3000}],"obsTime":1775498400},"SBCF":{"icaoId":"SBCF","flightCategory":"VFR","rawOb":"METAR SBCF 061800Z 07004KT 9999 SCT035 FEW040TCU 29/19 Q1019","temp":29,"dewp":19,"wdir":70,"wspd":4,"visib":"6+","altim":1019,"clouds":[{"cover":"SCT","base":3500},{"cover":"FEW","base":4000}],"obsTime":1775498400},"SBCG":{"icaoId":"SBCG","flightCategory":"VFR","rawOb":"METAR SBCG 061800Z 35011KT 9999 VCSH BKN045 FEW050TCU SCT090 32/20 Q1014","temp":32,"dewp":20,"wdir":350,"wspd":11,"visib":"6+","altim":1014,"clouds":[{"cover":"BKN","base":4500},{"cover":"FEW","base":5000},{"cover":"SCT","base":9000}],"obsTime":1775498400},"SBCP":{"icaoId":"SBCP","flightCategory":"VFR","rawOb":"METAR SBCP 061800Z 10012KT 9999 FEW020 31/22 Q1015","temp":31,"dewp":22,"wdir":100,"wspd":12,"visib":"6+","altim":1015,"clouds":[{"cover":"FEW","base":2000}],"obsTime":1775498400},"SBCR":{"icaoId":"SBCR","flightCategory":"VFR","rawOb":"METAR SBCR 061800Z 02008KT 340V060 9999 SCT040 33/22 Q1010","temp":33,"dewp":22,"wdir":20,"wspd":8,"visib":"6+","altim":1010,"clouds":[{"cover":"SCT","base":4000}],"obsTime":1775498400},"SBCT":{"icaoId":"SBCT","flightCategory":"VFR","rawOb":"METAR SBCT 061800Z 07010KT 9999 SCT030 BKN050 24/18 Q1020","temp":24,"dewp":18,"wdir":70,"wspd":10,"visib":"6+","altim":1020,"clouds":[{"cover":"SCT","base":3000},{"cover":"BKN","base":5000}],"obsTime":1775498400},"SBEG":{"icaoId":"SBEG","flightCategory":"VFR","rawOb":"METAR SBEG 061800Z 18004KT 9999 VCSH SCT025 FEW030TCU SCT090 29/24 Q1009","temp":29,"dewp":24,"wdir":180,"wspd":4,"visib":"6+","altim":1009,"clouds":[{"cover":"SCT","base":2500},{"cover":"FEW","base":3000},{"cover":"SCT","base":9000}],"obsTime":1775498400},"SBFI":{"icaoId":"SBFI","flightCategory":"VFR","rawOb":"METAR SBFI 061800Z 36011KT 9999 SCT030 FEW030TCU 33/23 Q1011","temp":33,"dewp":23,"wdir":360,"wspd":11,"visib":"6+","altim":1011,"clouds":[{"cover":"SCT","base":3000},{"cover":"FEW","base":3000}],"obsTime":1775498400},"SBFZ":{"icaoId":"SBFZ","flightCategory":"VFR","rawOb":"METAR SBFZ 061800Z 10011KT 9999 FEW030 30/24 Q1010","temp":30,"dewp":24,"wdir":100,"wspd":11,"visib":"6+","altim":1010,"clouds":[{"cover":"FEW","base":3000}],"obsTime":1775498400},"SBGL":{"icaoId":"SBGL","flightCategory":"VFR","rawOb":"METAR SBGL 061800Z 13012KT 9999 FEW025 FEW030TCU 28/23 Q1015","temp":28,"dewp":23,"wdir":130,"wspd":12,"visib":"6+","altim":1015,"clouds":[{"cover":"FEW","base":2500},{"cover":"FEW","base":3000}],"obsTime":1775498400},"SBGO":{"icaoId":"SBGO","flightCategory":"VFR","rawOb":"METAR SBGO 061800Z 09007KT 060V120 9999 SCT040 FEW045TCU 30/20 Q1016","temp":30,"dewp":20,"wdir":90,"wspd":7,"visib":"6+","altim":1016,"clouds":[{"cover":"SCT","base":4000},{"cover":"FEW","base":4500}],"obsTime":1775498400},"SBGR":{"icaoId":"SBGR","flightCategory":"VFR","rawOb":"METAR SBGR 061800Z 06006KT 9999 SCT040 29/18 Q1018","temp":29,"dewp":18,"wdir":60,"wspd":6,"visib":"6+","altim":1018,"clouds":[{"cover":"SCT","base":4000}],"obsTime":1775498400},"SBHT":{"icaoId":"SBHT","flightCategory":"VFR","rawOb":"METAR SBHT 061800Z 14003KT 9999 SCT030 32/24 Q1010","temp":32,"dewp":24,"wdir":140,"wspd":3,"visib":"6+","altim":1010,"clouds":[{"cover":"SCT","base":3000}],"obsTime":1775498400},"SBIL":{"icaoId":"SBIL","flightCategory":"VFR","rawOb":"METAR SBIL 061800Z 15006KT 9999 SCT027 30/25 Q1014","temp":30,"dewp":25,"wdir":150,"wspd":6,"visib":"6+","altim":1014,"clouds":[{"cover":"SCT","base":2700}],"obsTime":1775498400},"SBJU":{"icaoId":"SBJU","flightCategory":"MVFR","rawOb":"METAR SBJU 061800Z 14005KT 9999 BKN021 FEW023TCU 30/23 Q1013","temp":30,"dewp":23,"wdir":140,"wspd":5,"visib":"6+","altim":1013,"clouds":[{"cover":"BKN","base":2100},{"cover":"FEW","base":2300}],"obsTime":1775498400},"SBLO":{"icaoId":"SBLO","flightCategory":"VFR","rawOb":"METAR SBLO 061800Z 08008KT 9999 SCT030 31/20 Q1015","temp":31,"dewp":20,"wdir":80,"wspd":8,"visib":"6+","altim":1015,"clouds":[{"cover":"SCT","base":3000}],"obsTime":1775498400},"SBMA":{"icaoId":"SBMA","flightCategory":"VFR","rawOb":"METAR SBMA 061800Z 22004KT 9999 SCT020 FEW025TCU 31/24 Q1010","temp":31,"dewp":24,"wdir":220,"wspd":4,"visib":"6+","altim":1010,"clouds":[{"cover":"SCT","base":2000},{"cover":"FEW","base":2500}],"obsTime":1775498400},"SBME":{"icaoId":"SBME","flightCategory":"VFR","rawOb":"METAR SBME 061800Z 15007KT 9999 TS FEW025TCU FEW030CB 28/24 Q1015","temp":28,"dewp":24,"wdir":150,"wspd":7,"visib":"6+","altim":1015,"clouds":[{"cover":"FEW","base":2500},{"cover":"FEW","base":3000}],"obsTime":1775498400},"SBMG":{"icaoId":"SBMG","flightCategory":"VFR","rawOb":"METAR SBMG 061800Z 03010KT 9999 SCT045 FEW050TCU 31/19 Q1014","temp":31,"dewp":19,"wdir":30,"wspd":10,"visib":"6+","altim":1014,"clouds":[{"cover":"SCT","base":4500},{"cover":"FEW","base":5000}],"obsTime":1775498400},"SBMK":{"icaoId":"SBMK","flightCategory":"VFR","rawOb":"METAR SBMK 061800Z 02004KT 9999 BKN040 31/18 Q1016","temp":31,"dewp":18,"wdir":20,"wspd":4,"visib":"6+","altim":1016,"clouds":[{"cover":"BKN","base":4000}],"obsTime":1775498400},"SBMO":{"icaoId":"SBMO","flightCategory":"VFR","rawOb":"METAR SBMO 061800Z 12009KT 080V170 9999 SCT030 SCT080 30/23 Q1012","temp":30,"dewp":23,"wdir":120,"wspd":9,"visib":"6+","altim":1012,"clouds":[{"cover":"SCT","base":3000},{"cover":"SCT","base":8000}],"obsTime":1775498400},"SBMQ":{"icaoId":"SBMQ","flightCategory":"VFR","rawOb":"METAR SBMQ 061800Z 06009KT 9999 FEW023 FEW050TCU BKN100 30/24 Q1010","temp":30,"dewp":24,"wdir":60,"wspd":9,"visib":"6+","altim":1010,"clouds":[{"cover":"FEW","base":2300},{"cover":"FEW","base":5000},{"cover":"BKN","base":10000}],"obsTime":1775498400},"SBNT":{"icaoId":"SBNT","flightCategory":"VFR","rawOb":"METAR SBNT 061800Z 12015KT 9999 SCT035 32/23 Q1011","temp":32,"dewp":23,"wdir":120,"wspd":15,"visib":"6+","altim":1011,"clouds":[{"cover":"SCT","base":3500}],"obsTime":1775498400},"SBPA":{"icaoId":"SBPA","flightCategory":"VFR","rawOb":"METAR SBPA 061800Z 10014KT 9999 FEW040 28/20 Q1014","temp":28,"dewp":20,"wdir":100,"wspd":14,"visib":"6+","altim":1014,"clouds":[{"cover":"FEW","base":4000}],"obsTime":1775498400},"SBPJ":{"icaoId":"SBPJ","flightCategory":"VFR","rawOb":"METAR SBPJ 061800Z 28003KT 9999 FEW027 FEW030TCU SCT100 30/24 Q1012","temp":30,"dewp":24,"wdir":280,"wspd":3,"visib":"6+","altim":1012,"clouds":[{"cover":"FEW","base":2700},{"cover":"FEW","base":3000},{"cover":"SCT","base":10000}],"obsTime":1775498400},"SBPV":{"icaoId":"SBPV","flightCategory":"VFR","rawOb":"METAR SBPV 061800Z 03006KT 9999 SCT030 FEW035TCU 30/22 Q1009","temp":30,"dewp":22,"wdir":30,"wspd":6,"visib":"6+","altim":1009,"clouds":[{"cover":"SCT","base":3000},{"cover":"FEW","base":3500}],"obsTime":1775498400},"SBRB":{"icaoId":"SBRB","flightCategory":"MVFR","rawOb":"METAR SBRB 061800Z 01005KT 340V050 9999 BKN025 SCT100 31/24 Q1010","temp":31,"dewp":24,"wdir":10,"wspd":5,"visib":"6+","altim":1010,"clouds":[{"cover":"BKN","base":2500},{"cover":"SCT","base":10000}],"obsTime":1775498400},"SBRF":{"icaoId":"SBRF","flightCategory":"MVFR","rawOb":"METAR SBRF 061800Z 11011KT 8000 VCSH SCT019 FEW025TCU BKN060 29/25 Q1011","temp":29,"dewp":25,"wdir":110,"wspd":11,"visib":4.97,"altim":1011,"clouds":[{"cover":"SCT","base":1900},{"cover":"FEW","base":2500},{"cover":"BKN","base":6000}],"obsTime":1775498400},"SBSG":{"icaoId":"SBSG","flightCategory":"MVFR","rawOb":"METAR SBSG 061800Z 11010KT 080V170 9999 VCSH BKN030 FEW035TCU 31/24 Q1011","temp":31,"dewp":24,"wdir":110,"wspd":10,"visib":"6+","altim":1011,"clouds":[{"cover":"BKN","base":3000},{"cover":"FEW","base":3500}],"obsTime":1775498400},"SBSL":{"icaoId":"SBSL","flightCategory":"VFR","rawOb":"METAR SBSL 061800Z 35004KT 300V050 9999 SCT022 BKN070 29/24 Q1010","temp":29,"dewp":24,"wdir":350,"wspd":4,"visib":"6+","altim":1010,"clouds":[{"cover":"SCT","base":2200},{"cover":"BKN","base":7000}],"obsTime":1775498400},"SBSN":{"icaoId":"SBSN","flightCategory":"VFR","rawOb":"METAR SBSN 061800Z 09013KT 9999 FEW020 FEW025TCU 31/24 Q1010","temp":31,"dewp":24,"wdir":90,"wspd":13,"visib":"6+","altim":1010,"clouds":[{"cover":"FEW","base":2000},{"cover":"FEW","base":2500}],"obsTime":1775498400},"SBSP":{"icaoId":"SBSP","flightCategory":"MVFR","rawOb":"METAR SBSP 061800Z 16012KT 9999 BKN030 26/20 Q1019","temp":26,"dewp":20,"wdir":160,"wspd":12,"visib":"6+","altim":1019,"clouds":[{"cover":"BKN","base":3000}],"obsTime":1775498400},"SBSV":{"icaoId":"SBSV","flightCategory":"VFR","rawOb":"METAR SBSV 061800Z 12008KT 090V160 9999 SCT024 BKN080 30/22 Q1013","temp":30,"dewp":22,"wdir":120,"wspd":8,"visib":"6+","altim":1013,"clouds":[{"cover":"SCT","base":2400},{"cover":"BKN","base":8000}],"obsTime":1775498400},"SBTE":{"icaoId":"SBTE","flightCategory":"VFR","rawOb":"METAR SBTE 061800Z 13002KT 9999 VCSH SCT020 BKN100 27/24 Q1010","temp":27,"dewp":24,"wdir":130,"wspd":2,"visib":"6+","altim":1010,"clouds":[{"cover":"SCT","base":2000},{"cover":"BKN","base":10000}],"obsTime":1775498400},"SBUL":{"icaoId":"SBUL","flightCategory":"VFR","rawOb":"METAR SBUL 061800Z 06013KT 9999 SCT040 FEW045TCU BKN100 27/19 Q1018","temp":27,"dewp":19,"wdir":60,"wspd":13,"visib":"6+","altim":1018,"clouds":[{"cover":"SCT","base":4000},{"cover":"FEW","base":4500},{"cover":"BKN","base":10000}],"obsTime":1775498400},"SBUR":{"icaoId":"SBUR","flightCategory":"VFR","rawOb":"METAR SBUR 061800Z 35010KT 9999 SCT041 FEW041TCU 29/19 Q1017","temp":29,"dewp":19,"wdir":350,"wspd":10,"visib":"6+","altim":1017,"clouds":[{"cover":"SCT","base":4100},{"cover":"FEW","base":4100}],"obsTime":1775498400},"SBVT":{"icaoId":"SBVT","flightCategory":"VFR","rawOb":"METAR SBVT 061800Z 08010KT 9999 FEW030 30/21 Q1015","temp":30,"dewp":21,"wdir":80,"wspd":10,"visib":"6+","altim":1015,"clouds":[{"cover":"FEW","base":3000}],"obsTime":1775498400},"SBCJ":{"icaoId":"SBCJ","flightCategory":"VFR","rawOb":"METAR SBCJ 061800Z 13005KT 9999 FEW017 FEW024TCU 26/23 Q1015","temp":26,"dewp":23,"wdir":130,"wspd":5,"visib":"6+","altim":1015,"clouds":[{"cover":"FEW","base":1700},{"cover":"FEW","base":2400}],"obsTime":1775498400},"SBOI":{"icaoId":"SBOI","flightCategory":"VFR","rawOb":"METAR SBOI 061800Z AUTO 04005KT 020V080 9999 -RA FEW006 SCT034 25/24 Q1011","temp":25,"dewp":24,"wdir":40,"wspd":5,"visib":"6+","altim":1011,"clouds":[{"cover":"FEW","base":600},{"cover":"SCT","base":3400}],"obsTime":1775498400},"SBAX":{"icaoId":"SBAX","flightCategory":"VFR","rawOb":"METAR SBAX 061900Z 11009KT 9999 -RA SCT023 SCT040 22/20 Q1018","temp":22,"dewp":20,"wdir":110,"wspd":9,"visib":"6+","altim":1018,"clouds":[{"cover":"SCT","base":2300},{"cover":"SCT","base":4000}],"obsTime":1775502000},"SBBH":{"icaoId":"SBBH","flightCategory":"VFR","rawOb":"METAR SBBH 061800Z 02006KT 9999 SCT040 29/18 Q1018","temp":29,"dewp":18,"wdir":20,"wspd":6,"visib":"6+","altim":1018,"clouds":[{"cover":"SCT","base":4000}],"obsTime":1775498400},"SBVH":{"icaoId":"SBVH","flightCategory":"VFR","rawOb":"METAR SBVH 061800Z 02009KT 9999 BKN040 FEW045TCU 30/22 Q1013","temp":30,"dewp":22,"wdir":20,"wspd":9,"visib":"6+","altim":1013,"clouds":[{"cover":"BKN","base":4000},{"cover":"FEW","base":4500}],"obsTime":1775498400},"SBAR":{"icaoId":"SBAR","flightCategory":"VFR","rawOb":"METAR SBAR 061800Z 13010KT 9999 FEW020 30/23 Q1012","temp":30,"dewp":23,"wdir":130,"wspd":10,"visib":"6+","altim":1012,"clouds":[{"cover":"FEW","base":2000}],"obsTime":1775498400},"SBBQ":{"icaoId":"SBBQ","flightCategory":"MVFR","rawOb":"METAR SBBQ 061800Z 11006KT 080V150 9999 BKN030 FEW035TCU 25/18 Q1022","temp":25,"dewp":18,"wdir":110,"wspd":6,"visib":"6+","altim":1022,"clouds":[{"cover":"BKN","base":3000},{"cover":"FEW","base":3500}],"obsTime":1775498400},"SBBU":{"icaoId":"SBBU","flightCategory":"MVFR","rawOb":"METAR SBBU 061800Z 06006KT 5000 -TSRA BKN045 FEW050CB 30/23 Q1021","temp":30,"dewp":23,"wdir":60,"wspd":6,"visib":3.11,"altim":1021,"clouds":[{"cover":"BKN","base":4500},{"cover":"FEW","base":5000}],"obsTime":1775498400},"SBCA":{"icaoId":"SBCA","flightCategory":"MVFR","rawOb":"METAR SBCA 061800Z 02012KT 9999 BKN025 28/19 Q1016","temp":28,"dewp":19,"wdir":20,"wspd":12,"visib":"6+","altim":1016,"clouds":[{"cover":"BKN","base":2500}],"obsTime":1775498400},"SBCC":{"icaoId":"SBCC","flightCategory":"MVFR","rawOb":"METAR SBCC 061800Z 06012KT 9999 BKN020 FEW025TCU SCT100 31/20 Q1013","temp":31,"dewp":20,"wdir":60,"wspd":12,"visib":"6+","altim":1013,"clouds":[{"cover":"BKN","base":2000},{"cover":"FEW","base":2500},{"cover":"SCT","base":10000}],"obsTime":1775498400},"SBCO":{"icaoId":"SBCO","flightCategory":"VFR","rawOb":"METAR SBCO 061800Z 12015KT 9999 FEW035 29/20 Q1014","temp":29,"dewp":20,"wdir":120,"wspd":15,"visib":"6+","altim":1014,"clouds":[{"cover":"FEW","base":3500}],"obsTime":1775498400},"SBDN":{"icaoId":"SBDN","flightCategory":"VFR","rawOb":"METAR SBDN 061800Z 02007KT 9999 VCTS FEW050CB 32/21 Q1014","temp":32,"dewp":21,"wdir":20,"wspd":7,"visib":"6+","altim":1014,"clouds":[{"cover":"FEW","base":5000}],"obsTime":1775498400},"SBES":{"icaoId":"SBES","flightCategory":"VFR","rawOb":"METAR SBES 061800Z 09008KT 050V140 9999 FEW020 FEW025TCU 29/// Q1016","temp":null,"dewp":null,"wdir":90,"wspd":8,"visib":"6+","altim":1016,"clouds":[{"cover":"FEW","base":2000},{"cover":"FEW","base":2500}],"obsTime":1775498400},"SBGM":{"icaoId":"SBGM","flightCategory":"MVFR","rawOb":"METAR SBGM 061800Z 28005KT 200V340 9999 BKN026 BKN040 33/20 Q1010","temp":33,"dewp":20,"wdir":280,"wspd":5,"visib":"6+","altim":1010,"clouds":[{"cover":"BKN","base":2600},{"cover":"BKN","base":4000}],"obsTime":1775498400},"SBKG":{"icaoId":"SBKG","flightCategory":"MVFR","rawOb":"METAR SBKG 061800Z 12007KT 9999 BKN020 29/20 Q1013","temp":29,"dewp":20,"wdir":120,"wspd":7,"visib":"6+","altim":1013,"clouds":[{"cover":"BKN","base":2000}],"obsTime":1775498400},"SBPB":{"icaoId":"SBPB","flightCategory":"VFR","rawOb":"METAR SBPB 061800Z 05012KT 9999 SCT020 FEW025TCU 30/25 Q1010","temp":30,"dewp":25,"wdir":50,"wspd":12,"visib":"6+","altim":1010,"clouds":[{"cover":"SCT","base":2000},{"cover":"FEW","base":2500}],"obsTime":1775498400},"SBPL":{"icaoId":"SBPL","flightCategory":"VFR","rawOb":"METAR SBPL 061800Z 12005KT 9999 FEW030 SCT070 31/20 Q1012","temp":31,"dewp":20,"wdir":120,"wspd":5,"visib":"6+","altim":1012,"clouds":[{"cover":"FEW","base":3000},{"cover":"SCT","base":7000}],"obsTime":1775498400},"SBPP":{"icaoId":"SBPP","flightCategory":"VFR","rawOb":"METAR SBPP 061800Z 03012KT 9999 SCT020 30/21 Q1013","temp":30,"dewp":21,"wdir":30,"wspd":12,"visib":"6+","altim":1013,"clouds":[{"cover":"SCT","base":2000}],"obsTime":1775498400},"SBPS":{"icaoId":"SBPS","flightCategory":"VFR","rawOb":"METAR SBPS 061800Z 13007KT 070V170 9999 SCT017 29/24 Q1015","temp":29,"dewp":24,"wdir":130,"wspd":7,"visib":"6+","altim":1015,"clouds":[{"cover":"SCT","base":1700}],"obsTime":1775498400},"SBSC":{"icaoId":"SBSC","flightCategory":"VFR","rawOb":"METAR SBSC 061800Z 20008KT 9999 FEW030 FEW035TCU 29/23 Q1015","temp":29,"dewp":23,"wdir":200,"wspd":8,"visib":"6+","altim":1015,"clouds":[{"cover":"FEW","base":3000},{"cover":"FEW","base":3500}],"obsTime":1775498400},"SBSJ":{"icaoId":"SBSJ","flightCategory":"VFR","rawOb":"METAR SBSJ 061800Z 09004KT 040V140 9999 SCT043 FEW045TCU 29/19 Q1018","temp":29,"dewp":19,"wdir":90,"wspd":4,"visib":"6+","altim":1018,"clouds":[{"cover":"SCT","base":4300},{"cover":"FEW","base":4500}],"obsTime":1775498400},"SBSM":{"icaoId":"SBSM","flightCategory":"VFR","rawOb":"METAR SBSM 061800Z 11009KT 080V150 9999 FEW040 FEW045TCU SCT080 27/20 Q1012","temp":27,"dewp":20,"wdir":110,"wspd":9,"visib":"6+","altim":1012,"clouds":[{"cover":"FEW","base":4000},{"cover":"FEW","base":4500},{"cover":"SCT","base":8000}],"obsTime":1775498400},"SBSR":{"icaoId":"SBSR","flightCategory":"VFR","rawOb":"METAR SBSR 061800Z 04006KT 350V070 9999 FEW030 SCT080 30/18 Q1015","temp":30,"dewp":18,"wdir":40,"wspd":6,"visib":"6+","altim":1015,"clouds":[{"cover":"FEW","base":3000},{"cover":"SCT","base":8000}],"obsTime":1775498400},"SBTF":{"icaoId":"SBTF","flightCategory":"VFR","rawOb":"METAR SBTF 061800Z 36004KT 9999 SCT020 34/25 Q1009","temp":34,"dewp":25,"wdir":360,"wspd":4,"visib":"6+","altim":1009,"clouds":[{"cover":"SCT","base":2000}],"obsTime":1775498400},"SBTT":{"icaoId":"SBTT","flightCategory":"MVFR","rawOb":"METAR SBTT 061800Z 35010KT 320V030 9999 BKN015 BKN022 26/22 Q1011","temp":26,"dewp":22,"wdir":350,"wspd":10,"visib":"6+","altim":1011,"clouds":[{"cover":"BKN","base":1500},{"cover":"BKN","base":2200}],"obsTime":1775498400},"SBUY":{"icaoId":"SBUY","flightCategory":"VFR","rawOb":"METAR SBUY 061800Z 00000KT 9999 SCT030 SCT100 31/23 Q1008","temp":31,"dewp":23,"wdir":0,"wspd":0,"visib":"6+","altim":1008,"clouds":[{"cover":"SCT","base":3000},{"cover":"SCT","base":10000}],"obsTime":1775498400},"SBAU":{"icaoId":"SBAU","flightCategory":"VFR","rawOb":"METAR SBAU 061800Z 03008KT CAVOK 33/22 Q1014","temp":33,"dewp":22,"wdir":30,"wspd":8,"visib":"6+","altim":1014,"clouds":[],"obsTime":1775498400},"SBJR":{"icaoId":"SBJR","flightCategory":"VFR","rawOb":"METAR SBJR 061800Z 18006KT 9999 FEW025 FEW030TCU 30/24 Q1015","temp":30,"dewp":24,"wdir":180,"wspd":6,"visib":"6+","altim":1015,"clouds":[{"cover":"FEW","base":2500},{"cover":"FEW","base":3000}],"obsTime":1775498400},"SBIH":{"icaoId":"SBIH","flightCategory":"VFR","rawOb":"METAR SBIH 061800Z 07005KT 9999 FEW020 FEW025TCU 33/25 Q1009","temp":33,"dewp":25,"wdir":70,"wspd":5,"visib":"6+","altim":1009,"clouds":[{"cover":"FEW","base":2000},{"cover":"FEW","base":2500}],"obsTime":1775498400},"SBLS":{"icaoId":"SBLS","flightCategory":"VFR","rawOb":"METAR SBLS 061800Z VRB03KT 9999 SCT035 FEW040TCU 29/19 Q1018","temp":29,"dewp":19,"wdir":"VRB","wspd":3,"visib":"6+","altim":1018,"clouds":[{"cover":"SCT","base":3500},{"cover":"FEW","base":4000}],"obsTime":1775498400},"SBJV":{"icaoId":"SBJV","flightCategory":"MVFR","rawOb":"METAR SBJV 061800Z 21003KT 160V250 9999 -RA SCT008 BKN013 26/24 Q1016","temp":26,"dewp":24,"wdir":210,"wspd":3,"visib":"6+","altim":1016,"clouds":[{"cover":"SCT","base":800},{"cover":"BKN","base":1300}],"obsTime":1775498400},"SBMT":{"icaoId":"SBMT","flightCategory":"VFR","rawOb":"METAR SBMT 061800Z 11006KT 060V170 9999 SCT040 28/18 Q1018","temp":28,"dewp":18,"wdir":110,"wspd":6,"visib":"6+","altim":1018,"clouds":[{"cover":"SCT","base":4000}],"obsTime":1775498400},"SBJP":{"icaoId":"SBJP","flightCategory":"MVFR","rawOb":"METAR SBJP 061800Z 12013KT 9999 BKN030 31/20 Q1011","temp":31,"dewp":20,"wdir":120,"wspd":13,"visib":"6+","altim":1011,"clouds":[{"cover":"BKN","base":3000}],"obsTime":1775498400},"SBST":{"icaoId":"SBST","flightCategory":"VFR","rawOb":"METAR SBST 061800Z 18010KT 9999 SCT022 BKN058 28/23 Q1015","temp":28,"dewp":23,"wdir":180,"wspd":10,"visib":"6+","altim":1015,"clouds":[{"cover":"SCT","base":2200},{"cover":"BKN","base":5800}],"obsTime":1775498400},"SBGW":{"icaoId":"SBGW","flightCategory":"VFR","rawOb":"METAR SBGW 061800Z 35005KT 310V030 9999 BKN035 FEW038TCU 29/18 Q1016","temp":29,"dewp":18,"wdir":350,"wspd":5,"visib":"6+","altim":1016,"clouds":[{"cover":"BKN","base":3500},{"cover":"FEW","base":3800}],"obsTime":1775498400},"SBTA":{"icaoId":"SBTA","flightCategory":"VFR","rawOb":"METAR SBTA 061800Z VRB03KT 9999 SCT035 FEW040TCU 30/19 Q1016","temp":30,"dewp":19,"wdir":"VRB","wspd":3,"visib":"6+","altim":1016,"clouds":[{"cover":"SCT","base":3500},{"cover":"FEW","base":4000}],"obsTime":1775498400},"SBAF":{"icaoId":"SBAF","flightCategory":"VFR","rawOb":"METAR SBAF 061800Z 19010KT 150V210 9999 FEW020 FEW030TCU 29/23 Q1015","temp":29,"dewp":23,"wdir":190,"wspd":10,"visib":"6+","altim":1015,"clouds":[{"cover":"FEW","base":2000},{"cover":"FEW","base":3000}],"obsTime":1775498400},"SBAN":{"icaoId":"SBAN","flightCategory":"VFR","rawOb":"METAR SBAN 061800Z 04007KT 9999 TS VCSH SCT030 FEW040CB SCT100 26/18 Q1020","temp":26,"dewp":18,"wdir":40,"wspd":7,"visib":"6+","altim":1020,"clouds":[{"cover":"SCT","base":3000},{"cover":"FEW","base":4000},{"cover":"SCT","base":10000}],"obsTime":1775498400}}}