{"updated":1777685023,"count":62,"data":{"SBVT":{"icaoId":"SBVT","flightCategory":"VFR","rawOb":"METAR SBVT 020000Z 33003KT 9999 SCT018 SCT040 23/22 Q1019","temp":23,"dewp":22,"wdir":330,"wspd":3,"visib":"6+","altim":1019,"clouds":[{"cover":"SCT","base":1800},{"cover":"SCT","base":4000}],"obsTime":1777680000},"SBBR":{"icaoId":"SBBR","flightCategory":"VFR","rawOb":"METAR SBBR 020000Z 12006KT 9999 FEW040 SCT080 22/16 Q1021","temp":22,"dewp":16,"wdir":120,"wspd":6,"visib":"6+","altim":1021,"clouds":[{"cover":"FEW","base":4000},{"cover":"SCT","base":8000}],"obsTime":1777680000},"SBBV":{"icaoId":"SBBV","flightCategory":"VFR","rawOb":"METAR SBBV 020000Z 09005KT 9999 FEW030 FEW035TCU SCT100 28/24 Q1010","temp":28,"dewp":24,"wdir":90,"wspd":5,"visib":"6+","altim":1010,"clouds":[{"cover":"FEW","base":3000},{"cover":"FEW","base":3500},{"cover":"SCT","base":10000}],"obsTime":1777680000},"SBCF":{"icaoId":"SBCF","flightCategory":"VFR","rawOb":"METAR SBCF 020000Z 12006KT CAVOK 22/15 Q1022","temp":22,"dewp":15,"wdir":120,"wspd":6,"visib":"6+","altim":1022,"clouds":[],"obsTime":1777680000},"SBCG":{"icaoId":"SBCG","flightCategory":"VFR","rawOb":"METAR SBCG 020000Z VRB02KT CAVOK 23/20 Q1016","temp":23,"dewp":20,"wdir":"VRB","wspd":2,"visib":"6+","altim":1016,"clouds":[],"obsTime":1777680000},"SBCT":{"icaoId":"SBCT","flightCategory":"VFR","rawOb":"METAR SBCT 020000Z 03005KT CAVOK 19/18 Q1020","temp":19,"dewp":18,"wdir":30,"wspd":5,"visib":"6+","altim":1020,"clouds":[],"obsTime":1777680000},"SBEG":{"icaoId":"SBEG","flightCategory":"VFR","rawOb":"METAR SBEG 020000Z VRB01KT 9999 FEW025 SCT100 26/26 Q1011","temp":26,"dewp":26,"wdir":"VRB","wspd":1,"visib":"6+","altim":1011,"clouds":[{"cover":"FEW","base":2500},{"cover":"SCT","base":10000}],"obsTime":1777680000},"SBFI":{"icaoId":"SBFI","flightCategory":"VFR","rawOb":"METAR SBFI 020000Z 02006KT CAVOK 25/23 Q1013","temp":25,"dewp":23,"wdir":20,"wspd":6,"visib":"6+","altim":1013,"clouds":[],"obsTime":1777680000},"SBFL":{"icaoId":"SBFL","flightCategory":"VFR","rawOb":"METAR SBFL 020000Z 34010KT 9999 FEW040 23/21 Q1015","temp":23,"dewp":21,"wdir":340,"wspd":10,"visib":"6+","altim":1015,"clouds":[{"cover":"FEW","base":4000}],"obsTime":1777680000},"SBFZ":{"icaoId":"SBFZ","flightCategory":"VFR","rawOb":"METAR SBFZ 020000Z 15003KT 9999 FEW020 26/24 Q1012","temp":26,"dewp":24,"wdir":150,"wspd":3,"visib":"6+","altim":1012,"clouds":[{"cover":"FEW","base":2000}],"obsTime":1777680000},"SBGL":{"icaoId":"SBGL","flightCategory":"VFR","rawOb":"METAR SBGL 020000Z 13003KT 9999 FEW030 24/23 Q1018","temp":24,"dewp":23,"wdir":130,"wspd":3,"visib":"6+","altim":1018,"clouds":[{"cover":"FEW","base":3000}],"obsTime":1777680000},"SBGO":{"icaoId":"SBGO","flightCategory":"VFR","rawOb":"METAR SBGO 020000Z COR 29002KT CAVOK 24/18 Q1019","temp":24,"dewp":18,"wdir":290,"wspd":2,"visib":"6+","altim":1019,"clouds":[],"obsTime":1777680000},"SBGR":{"icaoId":"SBGR","flightCategory":"MVFR","rawOb":"METAR SBGR 020000Z 08004KT 8000 BKN045 23/20 Q1021","temp":23,"dewp":20,"wdir":80,"wspd":4,"visib":4.97,"altim":1021,"clouds":[{"cover":"BKN","base":4500}],"obsTime":1777680000},"SBIL":{"icaoId":"SBIL","flightCategory":"VFR","rawOb":"METAR SBIL 020000Z 15005KT 9999 FEW023 BKN070 28/25 Q1017","temp":28,"dewp":25,"wdir":150,"wspd":5,"visib":"6+","altim":1017,"clouds":[{"cover":"FEW","base":2300},{"cover":"BKN","base":7000}],"obsTime":1777680000},"SBJU":{"icaoId":"SBJU","flightCategory":"VFR","rawOb":"METAR SBJU 020000Z 00000KT 9999 SCT020 26/22 Q1015","temp":26,"dewp":22,"wdir":0,"wspd":0,"visib":"6+","altim":1015,"clouds":[{"cover":"SCT","base":2000}],"obsTime":1777680000},"SBKP":{"icaoId":"SBKP","flightCategory":"VFR","rawOb":"METAR SBKP 020000Z 35003KT 9999 FEW045 25/18 Q1020","temp":25,"dewp":18,"wdir":350,"wspd":3,"visib":"6+","altim":1020,"clouds":[{"cover":"FEW","base":4500}],"obsTime":1777680000},"SBLO":{"icaoId":"SBLO","flightCategory":"VFR","rawOb":"METAR SBLO 020000Z 12003KT CAVOK 23/20 Q1018","temp":23,"dewp":20,"wdir":120,"wspd":3,"visib":"6+","altim":1018,"clouds":[],"obsTime":1777680000},"SBMA":{"icaoId":"SBMA","flightCategory":"VFR","rawOb":"METAR SBMA 020000Z 34003KT 9999 FEW015 BKN090 28/25 Q1012","temp":28,"dewp":25,"wdir":340,"wspd":3,"visib":"6+","altim":1012,"clouds":[{"cover":"FEW","base":1500},{"cover":"BKN","base":9000}],"obsTime":1777680000},"SBME":{"icaoId":"SBME","flightCategory":"VFR","rawOb":"METAR SBME 020000Z 03003KT 9999 FEW009 24/22 Q1018","temp":24,"dewp":22,"wdir":30,"wspd":3,"visib":"6+","altim":1018,"clouds":[{"cover":"FEW","base":900}],"obsTime":1777680000},"SBMG":{"icaoId":"SBMG","flightCategory":"VFR","rawOb":"METAR SBMG 020000Z 08006KT CAVOK 23/20 Q1016","temp":23,"dewp":20,"wdir":80,"wspd":6,"visib":"6+","altim":1016,"clouds":[],"obsTime":1777680000},"SBMK":{"icaoId":"SBMK","flightCategory":"VFR","rawOb":"METAR SBMK 020000Z 19002KT CAVOK 24/18 Q1020","temp":24,"dewp":18,"wdir":190,"wspd":2,"visib":"6+","altim":1020,"clouds":[],"obsTime":1777680000},"SBMO":{"icaoId":"SBMO","flightCategory":"MVFR","rawOb":"METAR SBMO 020000Z 08009KT 8000 -RA SCT003 BKN020 OVC090 23/23 Q1016","temp":23,"dewp":23,"wdir":80,"wspd":9,"visib":4.97,"altim":1016,"clouds":[{"cover":"SCT","base":300},{"cover":"BKN","base":2000},{"cover":"OVC","base":9000}],"obsTime":1777680000},"SBMQ":{"icaoId":"SBMQ","flightCategory":"VFR","rawOb":"METAR SBMQ 020000Z 03003KT 9999 FEW013 SCT030 BKN067 27/26 Q1012","temp":27,"dewp":26,"wdir":30,"wspd":3,"visib":"6+","altim":1012,"clouds":[{"cover":"FEW","base":1300},{"cover":"SCT","base":3000},{"cover":"BKN","base":6700}],"obsTime":1777680000},"SBNT":{"icaoId":"SBNT","flightCategory":"VFR","rawOb":"METAR SBNT 020000Z 15004KT 9999 SCT025 FEW030TCU BKN100 24/24 Q1013","temp":24,"dewp":24,"wdir":150,"wspd":4,"visib":"6+","altim":1013,"clouds":[{"cover":"SCT","base":2500},{"cover":"FEW","base":3000},{"cover":"BKN","base":10000}],"obsTime":1777680000},"SBPA":{"icaoId":"SBPA","flightCategory":"IFR","rawOb":"METAR SBPA 020000Z 11013KT 4000 TSRA BR BKN006 FEW040CB BKN050 19/19 Q1014","temp":19,"dewp":19,"wdir":110,"wspd":13,"visib":2.49,"altim":1014,"clouds":[{"cover":"BKN","base":600},{"cover":"FEW","base":4000},{"cover":"BKN","base":5000}],"obsTime":1777680000},"SBPJ":{"icaoId":"SBPJ","flightCategory":"VFR","rawOb":"METAR SBPJ 020000Z 12004KT 9999 SCT045 SCT070 28/24 Q1013","temp":28,"dewp":24,"wdir":120,"wspd":4,"visib":"6+","altim":1013,"clouds":[{"cover":"SCT","base":4500},{"cover":"SCT","base":7000}],"obsTime":1777680000},"SBPV":{"icaoId":"SBPV","flightCategory":"VFR","rawOb":"METAR SBPV 020000Z VRB01KT CAVOK 29/23 Q1009","temp":29,"dewp":23,"wdir":"VRB","wspd":1,"visib":"6+","altim":1009,"clouds":[],"obsTime":1777680000},"SBRB":{"icaoId":"SBRB","flightCategory":"MVFR","rawOb":"METAR SBRB 020000Z 21004KT 8000 FEW030 SCT100 27/26 Q1010","temp":27,"dewp":26,"wdir":210,"wspd":4,"visib":4.97,"altim":1010,"clouds":[{"cover":"FEW","base":3000},{"cover":"SCT","base":10000}],"obsTime":1777680000},"SBRF":{"icaoId":"SBRF","flightCategory":"IFR","rawOb":"METAR SBRF 020000Z 20009KT 9999 -RA BKN007 23/23 Q1014","temp":23,"dewp":23,"wdir":200,"wspd":9,"visib":"6+","altim":1014,"clouds":[{"cover":"BKN","base":700}],"obsTime":1777680000},"SBSG":{"icaoId":"SBSG","flightCategory":"VFR","rawOb":"METAR SBSG 020000Z 17004KT 9999 SCT045 24/24 Q1014","temp":24,"dewp":24,"wdir":170,"wspd":4,"visib":"6+","altim":1014,"clouds":[{"cover":"SCT","base":4500}],"obsTime":1777680000},"SBSL":{"icaoId":"SBSL","flightCategory":"VFR","rawOb":"METAR SBSL 020000Z 04002KT 9999 SCT025 BKN080 26/24 Q1012","temp":26,"dewp":24,"wdir":40,"wspd":2,"visib":"6+","altim":1012,"clouds":[{"cover":"SCT","base":2500},{"cover":"BKN","base":8000}],"obsTime":1777680000},"SBSN":{"icaoId":"SBSN","flightCategory":"VFR","rawOb":"METAR SBSN 020000Z 15004KT CAVOK 26/24 Q1011","temp":26,"dewp":24,"wdir":150,"wspd":4,"visib":"6+","altim":1011,"clouds":[],"obsTime":1777680000},"SBSP":{"icaoId":"SBSP","flightCategory":"VFR","rawOb":"METAR SBSP 020000Z 16003KT 9999 FEW042 21/20 Q1021","temp":21,"dewp":20,"wdir":160,"wspd":3,"visib":"6+","altim":1021,"clouds":[{"cover":"FEW","base":4200}],"obsTime":1777680000},"SBSV":{"icaoId":"SBSV","flightCategory":"VFR","rawOb":"METAR SBSV 020000Z 12008KT 9999 SCT023 28/23 Q1015","temp":28,"dewp":23,"wdir":120,"wspd":8,"visib":"6+","altim":1015,"clouds":[{"cover":"SCT","base":2300}],"obsTime":1777680000},"SBTE":{"icaoId":"SBTE","flightCategory":"VFR","rawOb":"METAR SBTE 020000Z 13006KT 9999 FEW020 BKN100 29/25 Q1012","temp":29,"dewp":25,"wdir":130,"wspd":6,"visib":"6+","altim":1012,"clouds":[{"cover":"FEW","base":2000},{"cover":"BKN","base":10000}],"obsTime":1777680000},"SBUL":{"icaoId":"SBUL","flightCategory":"VFR","rawOb":"METAR SBUL 020000Z 09004KT CAVOK 24/14 Q1022","temp":24,"dewp":14,"wdir":90,"wspd":4,"visib":"6+","altim":1022,"clouds":[],"obsTime":1777680000},"SBUR":{"icaoId":"SBUR","flightCategory":"VFR","rawOb":"METAR SBUR 020000Z 02003KT CAVOK 25/14 Q1020","temp":25,"dewp":14,"wdir":20,"wspd":3,"visib":"6+","altim":1020,"clouds":[],"obsTime":1777680000},"SBBE":{"icaoId":"SBBE","flightCategory":"MVFR","rawOb":"METAR SBBE 020000Z 14004KT 9999 -RA SCT010 BKN030 FEW035TCU 25/24 Q1012","temp":25,"dewp":24,"wdir":140,"wspd":4,"visib":"6+","altim":1012,"clouds":[{"cover":"SCT","base":1000},{"cover":"BKN","base":3000},{"cover":"FEW","base":3500}],"obsTime":1777680000},"SBCB":{"icaoId":"SBCB","flightCategory":"VFR","rawOb":"METAR SBCB 020000Z 04004KT 9999 FEW015 SCT030 23/22 Q1019","temp":23,"dewp":22,"wdir":40,"wspd":4,"visib":"6+","altim":1019,"clouds":[{"cover":"FEW","base":1500},{"cover":"SCT","base":3000}],"obsTime":1777680000},"SBCZ":{"icaoId":"SBCZ","flightCategory":"VFR","rawOb":"METAR SBCZ 020000Z 15004KT 9999 VCTS FEW025 FEW025CB BKN090 25/25 Q1009","temp":25,"dewp":25,"wdir":150,"wspd":4,"visib":"6+","altim":1009,"clouds":[{"cover":"FEW","base":2500},{"cover":"FEW","base":2500},{"cover":"BKN","base":9000}],"obsTime":1777680000},"SBAR":{"icaoId":"SBAR","flightCategory":"VFR","rawOb":"METAR SBAR 020000Z 09004KT 9999 FEW026 27/23 Q1015","temp":27,"dewp":23,"wdir":90,"wspd":4,"visib":"6+","altim":1015,"clouds":[{"cover":"FEW","base":2600}],"obsTime":1777680000},"SBAX":{"icaoId":"SBAX","flightCategory":"VFR","rawOb":"METAR SBAX 020000Z AUTO 13008KT CAVOK 20/13 Q1022","temp":20,"dewp":13,"wdir":130,"wspd":8,"visib":"6+","altim":1022,"clouds":[],"obsTime":1777680000},"SBOI":{"icaoId":"SBOI","flightCategory":"VFR","rawOb":"METAR SBOI 020000Z AUTO 00000KT 9999 FEW019 25/24 Q1012","temp":25,"dewp":24,"wdir":0,"wspd":0,"visib":"6+","altim":1012,"clouds":[{"cover":"FEW","base":1900}],"obsTime":1777680000},"SBCO":{"icaoId":"SBCO","flightCategory":"IFR","rawOb":"METAR SBCO 020000Z 12013KT 5000 TSRA OVC006 //////CB 19/18 Q1014","temp":19,"dewp":18,"wdir":120,"wspd":13,"visib":3.11,"altim":1014,"clouds":[{"cover":"OVC","base":600}],"obsTime":1777680000},"SBPL":{"icaoId":"SBPL","flightCategory":"VFR","rawOb":"METAR SBPL 020000Z 13006KT CAVOK 28/20 Q1015","temp":28,"dewp":20,"wdir":130,"wspd":6,"visib":"6+","altim":1015,"clouds":[],"obsTime":1777680000},"SBPS":{"icaoId":"SBPS","flightCategory":"VFR","rawOb":"METAR SBPS 020000Z VRB02KT 9999 SCT020 BKN070 25/24 Q1018","temp":25,"dewp":24,"wdir":"VRB","wspd":2,"visib":"6+","altim":1018,"clouds":[{"cover":"SCT","base":2000},{"cover":"BKN","base":7000}],"obsTime":1777680000},"SBDN":{"icaoId":"SBDN","flightCategory":"VFR","rawOb":"METAR SBDN 020000Z 07004KT CAVOK 25/18 Q1017","temp":25,"dewp":18,"wdir":70,"wspd":4,"visib":"6+","altim":1017,"clouds":[],"obsTime":1777680000},"SBSC":{"icaoId":"SBSC","flightCategory":"VFR","rawOb":"METAR SBSC 020000Z 03003KT 9999 FEW010 22/21 Q1018","temp":22,"dewp":21,"wdir":30,"wspd":3,"visib":"6+","altim":1018,"clouds":[{"cover":"FEW","base":1000}],"obsTime":1777680000},"SBBH":{"icaoId":"SBBH","flightCategory":"VFR","rawOb":"METAR SBBH 020000Z 11006KT CAVOK 21/15 Q1022","temp":21,"dewp":15,"wdir":110,"wspd":6,"visib":"6+","altim":1022,"clouds":[],"obsTime":1777680000},"SBSJ":{"icaoId":"SBSJ","flightCategory":"VFR","rawOb":"METAR SBSJ 020000Z 08002KT CAVOK 22/20 Q1020","temp":22,"dewp":20,"wdir":80,"wspd":2,"visib":"6+","altim":1020,"clouds":[],"obsTime":1777680000},"SBBU":{"icaoId":"SBBU","flightCategory":"VFR","rawOb":"METAR SBBU 020000Z 03004KT CAVOK 28/19 Q1018","temp":28,"dewp":19,"wdir":30,"wspd":4,"visib":"6+","altim":1018,"clouds":[],"obsTime":1777680000},"SBIP":{"icaoId":"SBIP","flightCategory":"VFR","rawOb":"METAR SBIP 020000Z AUTO 20002KT CAVOK 20/20 Q1019","temp":20,"dewp":20,"wdir":200,"wspd":2,"visib":"6+","altim":1019,"clouds":[],"obsTime":1777680000},"SBSM":{"icaoId":"SBSM","flightCategory":"LIFR","rawOb":"METAR SBSM 020000Z 08006KT 030V110 8000 -TSRA BKN004 BKN012 FEW045CB OVC100 19/19 Q1011","temp":19,"dewp":19,"wdir":80,"wspd":6,"visib":4.97,"altim":1011,"clouds":[{"cover":"BKN","base":400},{"cover":"BKN","base":1200},{"cover":"FEW","base":4500},{"cover":"OVC","base":10000}],"obsTime":1777680000},"SBKG":{"icaoId":"SBKG","flightCategory":"VFR","rawOb":"METAR SBKG 020000Z 27003KT CAVOK 21/20 Q1016","temp":21,"dewp":20,"wdir":270,"wspd":3,"visib":"6+","altim":1016,"clouds":[],"obsTime":1777680000},"SBSR":{"icaoId":"SBSR","flightCategory":"VFR","rawOb":"METAR SBSR 020000Z 12005KT CAVOK 26/15 Q1018","temp":26,"dewp":15,"wdir":120,"wspd":5,"visib":"6+","altim":1018,"clouds":[],"obsTime":1777680000},"SBMT":{"icaoId":"SBMT","flightCategory":"VFR","rawOb":"METAR SBMT 020000Z 08004KT 9999 FEW043 23/20 Q1020","temp":23,"dewp":20,"wdir":80,"wspd":4,"visib":"6+","altim":1020,"clouds":[{"cover":"FEW","base":4300}],"obsTime":1777680000},"SBJV":{"icaoId":"SBJV","flightCategory":"VFR","rawOb":"METAR SBJV 020000Z 29003KT 9999 FEW012 SCT018 21/21 Q1015","temp":21,"dewp":21,"wdir":290,"wspd":3,"visib":"6+","altim":1015,"clouds":[{"cover":"FEW","base":1200},{"cover":"SCT","base":1800}],"obsTime":1777680000},"SBJP":{"icaoId":"SBJP","flightCategory":"VFR","rawOb":"METAR SBJP 020000Z 00000KT CAVOK 23/22 Q1014","temp":23,"dewp":22,"wdir":0,"wspd":0,"visib":"6+","altim":1014,"clouds":[],"obsTime":1777680000},"SBLS":{"icaoId":"SBLS","flightCategory":"VFR","rawOb":"METAR SBLS 020000Z 14008KT CAVOK 22/15 Q1022","temp":22,"dewp":15,"wdir":140,"wspd":8,"visib":"6+","altim":1022,"clouds":[],"obsTime":1777680000},"SBAN":{"icaoId":"SBAN","flightCategory":"VFR","rawOb":"METAR SBAN 020000Z 14006KT CAVOK 21/15 Q1022","temp":21,"dewp":15,"wdir":140,"wspd":6,"visib":"6+","altim":1022,"clouds":[],"obsTime":1777680000},"SBLE":{"icaoId":"SBLE","flightCategory":"VFR","rawOb":"METAR SBLE 020000Z AUTO 23001KT 9999 FEW033 BKN041 ///// Q////","temp":null,"dewp":null,"wdir":230,"wspd":1,"visib":"6+","altim":null,"clouds":[{"cover":"FEW","base":3300},{"cover":"BKN","base":4100}],"obsTime":1777680000},"SBJR":{"icaoId":"SBJR","flightCategory":"MVFR","rawOb":"METAR SBJR 020000Z 03002KT 7000 NSC 24/23 Q1017","temp":24,"dewp":23,"wdir":30,"wspd":2,"visib":4.35,"altim":1017,"clouds":[],"obsTime":1777680000}}}