{"updated":1775283361,"count":48,"data":{"SBRF":{"icaoId":"SBRF","flightCategory":"VFR","rawOb":"METAR SBRF 040500Z 13008KT 9999 VCSH SCT023 28/23 Q1012","temp":28,"dewp":23,"wdir":130,"wspd":8,"visib":"6+","altim":1012,"clouds":[{"cover":"SCT","base":2300}],"obsTime":1775278800},"SBBE":{"icaoId":"SBBE","flightCategory":"VFR","rawOb":"METAR SBBE 040500Z 06006KT CAVOK 26/26 Q1011","temp":26,"dewp":26,"wdir":60,"wspd":6,"visib":"6+","altim":1011,"clouds":[],"obsTime":1775278800},"SBBR":{"icaoId":"SBBR","flightCategory":"IFR","rawOb":"METAR SBBR 040500Z 12004KT 9999 BKN006 21/20 Q1020","temp":21,"dewp":20,"wdir":120,"wspd":4,"visib":"6+","altim":1020,"clouds":[{"cover":"BKN","base":600}],"obsTime":1775278800},"SBBV":{"icaoId":"SBBV","flightCategory":"MVFR","rawOb":"SPECI SBBV 040420Z 31005KT 8000 -TSRA FEW020 BKN040 FEW045CB 26/25 Q1011","temp":26,"dewp":25,"wdir":310,"wspd":5,"visib":4.97,"altim":1011,"clouds":[{"cover":"FEW","base":2000},{"cover":"BKN","base":4000},{"cover":"FEW","base":4500}],"obsTime":1775276400},"SBCF":{"icaoId":"SBCF","flightCategory":"VFR","rawOb":"METAR SBCF 040500Z 16002KT 9999 FEW030 21/19 Q1019","temp":21,"dewp":19,"wdir":160,"wspd":2,"visib":"6+","altim":1019,"clouds":[{"cover":"FEW","base":3000}],"obsTime":1775278800},"SBCG":{"icaoId":"SBCG","flightCategory":"VFR","rawOb":"METAR SBCG 040500Z 01003KT CAVOK 23/20 Q1016","temp":23,"dewp":20,"wdir":10,"wspd":3,"visib":"6+","altim":1016,"clouds":[],"obsTime":1775278800},"SBCT":{"icaoId":"SBCT","flightCategory":"VFR","rawOb":"METAR SBCT 040500Z 13004KT CAVOK 18/17 Q1019","temp":18,"dewp":17,"wdir":130,"wspd":4,"visib":"6+","altim":1019,"clouds":[],"obsTime":1775278800},"SBEG":{"icaoId":"SBEG","flightCategory":"VFR","rawOb":"METAR SBEG 040500Z 35001KT CAVOK 25/25 Q1010","temp":25,"dewp":25,"wdir":350,"wspd":1,"visib":"6+","altim":1010,"clouds":[],"obsTime":1775278800},"SBFI":{"icaoId":"SBFI","flightCategory":"VFR","rawOb":"METAR SBFI 040500Z 07002KT CAVOK 22/22 Q1013","temp":22,"dewp":22,"wdir":70,"wspd":2,"visib":"6+","altim":1013,"clouds":[],"obsTime":1775278800},"SBFL":{"icaoId":"SBFL","flightCategory":"VFR","rawOb":"METAR SBFL 040500Z 28001KT CAVOK 23/21 Q1014","temp":23,"dewp":21,"wdir":280,"wspd":1,"visib":"6+","altim":1014,"clouds":[],"obsTime":1775278800},"SBFZ":{"icaoId":"SBFZ","flightCategory":"VFR","rawOb":"METAR SBFZ 040500Z 17003KT 9999 VCTS FEW025CB SCT100 23/22 Q1011","temp":23,"dewp":22,"wdir":170,"wspd":3,"visib":"6+","altim":1011,"clouds":[{"cover":"FEW","base":2500},{"cover":"SCT","base":10000}],"obsTime":1775278800},"SBGL":{"icaoId":"SBGL","flightCategory":"VFR","rawOb":"METAR SBGL 040500Z 02008KT 9999 SCT023 BKN100 23/21 Q1014","temp":23,"dewp":21,"wdir":20,"wspd":8,"visib":"6+","altim":1014,"clouds":[{"cover":"SCT","base":2300},{"cover":"BKN","base":10000}],"obsTime":1775278800},"SBGO":{"icaoId":"SBGO","flightCategory":"VFR","rawOb":"METAR SBGO 040500Z 00000KT CAVOK 21/21 Q1018","temp":21,"dewp":21,"wdir":0,"wspd":0,"visib":"6+","altim":1018,"clouds":[],"obsTime":1775278800},"SBGR":{"icaoId":"SBGR","flightCategory":"LIFR","rawOb":"METAR SBGR 040500Z 06007KT 7000 OVC004 20/19 Q1019","temp":20,"dewp":19,"wdir":60,"wspd":7,"visib":4.35,"altim":1019,"clouds":[{"cover":"OVC","base":400}],"obsTime":1775278800},"SBJU":{"icaoId":"SBJU","flightCategory":"VFR","rawOb":"METAR SBJU 040500Z 00000KT 9999 SCT018 23/22 Q1014","temp":23,"dewp":22,"wdir":0,"wspd":0,"visib":"6+","altim":1014,"clouds":[{"cover":"SCT","base":1800}],"obsTime":1775278800},"SBKP":{"icaoId":"SBKP","flightCategory":"VFR","rawOb":"METAR SBKP 040500Z 04002KT CAVOK 22/20 Q1018","temp":22,"dewp":20,"wdir":40,"wspd":2,"visib":"6+","altim":1018,"clouds":[],"obsTime":1775278800},"SBLO":{"icaoId":"SBLO","flightCategory":"VFR","rawOb":"METAR SBLO 040500Z 24003KT CAVOK 22/21 Q1016","temp":22,"dewp":21,"wdir":240,"wspd":3,"visib":"6+","altim":1016,"clouds":[],"obsTime":1775278800},"SBMA":{"icaoId":"SBMA","flightCategory":"VFR","rawOb":"METAR SBMA 040500Z 00000KT 9999 FEW015 SCT100 25/24 Q1011","temp":25,"dewp":24,"wdir":0,"wspd":0,"visib":"6+","altim":1011,"clouds":[{"cover":"FEW","base":1500},{"cover":"SCT","base":10000}],"obsTime":1775278800},"SBME":{"icaoId":"SBME","flightCategory":"VFR","rawOb":"METAR SBME 040500Z 06003KT CAVOK 26/23 Q1014","temp":26,"dewp":23,"wdir":60,"wspd":3,"visib":"6+","altim":1014,"clouds":[],"obsTime":1775278800},"SBMG":{"icaoId":"SBMG","flightCategory":"VFR","rawOb":"METAR SBMG 040500Z AUTO 06005KT CAVOK 24/19 Q1015","temp":24,"dewp":19,"wdir":60,"wspd":5,"visib":"6+","altim":1015,"clouds":[],"obsTime":1775278800},"SBMO":{"icaoId":"SBMO","flightCategory":"MVFR","rawOb":"METAR SBMO 040500Z 31001KT 6000 -RA BKN015 24/24 Q1013","temp":24,"dewp":24,"wdir":310,"wspd":1,"visib":3.73,"altim":1013,"clouds":[{"cover":"BKN","base":1500}],"obsTime":1775278800},"SBMQ":{"icaoId":"SBMQ","flightCategory":"VFR","rawOb":"METAR SBMQ 040500Z 36004KT 9999 VCTS SCT014 FEW030CB 26/25 Q1011","temp":26,"dewp":25,"wdir":360,"wspd":4,"visib":"6+","altim":1011,"clouds":[{"cover":"SCT","base":1400},{"cover":"FEW","base":3000}],"obsTime":1775278800},"SBNT":{"icaoId":"SBNT","flightCategory":"VFR","rawOb":"METAR SBNT 040500Z 17005KT 9999 FEW021 SCT034 26/24 Q1012","temp":26,"dewp":24,"wdir":170,"wspd":5,"visib":"6+","altim":1012,"clouds":[{"cover":"FEW","base":2100},{"cover":"SCT","base":3400}],"obsTime":1775278800},"SBPA":{"icaoId":"SBPA","flightCategory":"VFR","rawOb":"METAR SBPA 040500Z 06004KT CAVOK 22/21 Q1013","temp":22,"dewp":21,"wdir":60,"wspd":4,"visib":"6+","altim":1013,"clouds":[],"obsTime":1775278800},"SBPJ":{"icaoId":"SBPJ","flightCategory":"VFR","rawOb":"METAR SBPJ 040500Z 09003KT 9999 SCT020 SCT080 25/23 Q1013","temp":25,"dewp":23,"wdir":90,"wspd":3,"visib":"6+","altim":1013,"clouds":[{"cover":"SCT","base":2000},{"cover":"SCT","base":8000}],"obsTime":1775278800},"SBPV":{"icaoId":"SBPV","flightCategory":"LIFR","rawOb":"METAR SBPV 040500Z 00000KT 9999 BKN004 FEW030TCU 25/24 Q1011","temp":25,"dewp":24,"wdir":0,"wspd":0,"visib":"6+","altim":1011,"clouds":[{"cover":"BKN","base":400},{"cover":"FEW","base":3000}],"obsTime":1775278800},"SBRB":{"icaoId":"SBRB","flightCategory":"LIFR","rawOb":"SPECI SBRB 040443Z 00000KT 1000 R07///// R25/P2000 BR BKN002 BKN100 24/24 Q1013","temp":24,"dewp":24,"wdir":0,"wspd":0,"visib":0.62,"altim":1013,"clouds":[{"cover":"BKN","base":200},{"cover":"BKN","base":10000}],"obsTime":1775277780},"SBSG":{"icaoId":"SBSG","flightCategory":"VFR","rawOb":"METAR SBSG 040500Z VRB02KT 9999 SCT020 FEW030TCU 25/24 Q1012","temp":25,"dewp":24,"wdir":"VRB","wspd":2,"visib":"6+","altim":1012,"clouds":[{"cover":"SCT","base":2000},{"cover":"FEW","base":3000}],"obsTime":1775278800},"SBSL":{"icaoId":"SBSL","flightCategory":"VFR","rawOb":"METAR SBSL 040500Z 09006KT 9999 FEW020 BKN080 25/24 Q1011","temp":25,"dewp":24,"wdir":90,"wspd":6,"visib":"6+","altim":1011,"clouds":[{"cover":"FEW","base":2000},{"cover":"BKN","base":8000}],"obsTime":1775278800},"SBSN":{"icaoId":"SBSN","flightCategory":"VFR","rawOb":"METAR SBSN 040500Z 00000KT CAVOK 25/24 Q1010","temp":25,"dewp":24,"wdir":0,"wspd":0,"visib":"6+","altim":1010,"clouds":[],"obsTime":1775278800},"SBSP":{"icaoId":"SBSP","flightCategory":"VFR","rawOb":"METAR SBSP 040500Z AUTO 05004KT 360V090 CAVOK 21/18 Q1019","temp":21,"dewp":18,"wdir":50,"wspd":4,"visib":"6+","altim":1019,"clouds":[],"obsTime":1775278800},"SBSV":{"icaoId":"SBSV","flightCategory":"VFR","rawOb":"METAR SBSV 040500Z 09004KT 9999 SCT021 FEW025TCU BKN050 26/23 Q1013","temp":26,"dewp":23,"wdir":90,"wspd":4,"visib":"6+","altim":1013,"clouds":[{"cover":"SCT","base":2100},{"cover":"FEW","base":2500},{"cover":"BKN","base":5000}],"obsTime":1775278800},"SBTE":{"icaoId":"SBTE","flightCategory":"VFR","rawOb":"METAR SBTE 040500Z 34002KT 9999 FEW006 SCT090 25/24 Q1011","temp":25,"dewp":24,"wdir":340,"wspd":2,"visib":"6+","altim":1011,"clouds":[{"cover":"FEW","base":600},{"cover":"SCT","base":9000}],"obsTime":1775278800},"SBUL":{"icaoId":"SBUL","flightCategory":"VFR","rawOb":"METAR SBUL 040500Z 12004KT CAVOK 21/19 Q1020","temp":21,"dewp":19,"wdir":120,"wspd":4,"visib":"6+","altim":1020,"clouds":[],"obsTime":1775278800},"SBUR":{"icaoId":"SBUR","flightCategory":"VFR","rawOb":"METAR SBUR 040500Z 03005KT CAVOK 22/19 Q1019","temp":22,"dewp":19,"wdir":30,"wspd":5,"visib":"6+","altim":1019,"clouds":[],"obsTime":1775278800},"SBVT":{"icaoId":"SBVT","flightCategory":"VFR","rawOb":"METAR SBVT 040500Z 36003KT 9999 FEW020 24/23 Q1016","temp":24,"dewp":23,"wdir":360,"wspd":3,"visib":"6+","altim":1016,"clouds":[{"cover":"FEW","base":2000}],"obsTime":1775278800},"SBSR":{"icaoId":"SBSR","flightCategory":"VFR","rawOb":"METAR SBSR 040500Z 05005KT CAVOK 24/20 Q1017","temp":24,"dewp":20,"wdir":50,"wspd":5,"visib":"6+","altim":1017,"clouds":[],"obsTime":1775278800},"SBAR":{"icaoId":"SBAR","flightCategory":"VFR","rawOb":"METAR SBAR 040500Z 06005KT 9999 SCT019 26/23 Q1012","temp":26,"dewp":23,"wdir":60,"wspd":5,"visib":"6+","altim":1012,"clouds":[{"cover":"SCT","base":1900}],"obsTime":1775278800},"SBAX":{"icaoId":"SBAX","flightCategory":"VFR","rawOb":"METAR SBAX 040500Z AUTO 11005KT CAVOK 20/20 Q1020","temp":20,"dewp":20,"wdir":110,"wspd":5,"visib":"6+","altim":1020,"clouds":[],"obsTime":1775278800},"SBDN":{"icaoId":"SBDN","flightCategory":"VFR","rawOb":"METAR SBDN 040500Z 06005KT CAVOK 23/19 Q1016","temp":23,"dewp":19,"wdir":60,"wspd":5,"visib":"6+","altim":1016,"clouds":[],"obsTime":1775278800},"SBIP":{"icaoId":"SBIP","flightCategory":"VFR","rawOb":"METAR SBIP 040500Z AUTO VRB02KT 9999 FEW049 22/22 Q1016","temp":22,"dewp":22,"wdir":"VRB","wspd":2,"visib":"6+","altim":1016,"clouds":[{"cover":"FEW","base":4900}],"obsTime":1775278800},"SBKG":{"icaoId":"SBKG","flightCategory":"VFR","rawOb":"METAR SBKG 040500Z 09005KT 9999 FEW010 SCT070 23/22 Q1015","temp":23,"dewp":22,"wdir":90,"wspd":5,"visib":"6+","altim":1015,"clouds":[{"cover":"FEW","base":1000},{"cover":"SCT","base":7000}],"obsTime":1775278800},"SBPL":{"icaoId":"SBPL","flightCategory":"VFR","rawOb":"METAR SBPL 040500Z 13006KT CAVOK 25/22 Q1014","temp":25,"dewp":22,"wdir":130,"wspd":6,"visib":"6+","altim":1014,"clouds":[],"obsTime":1775278800},"SBPS":{"icaoId":"SBPS","flightCategory":"VFR","rawOb":"METAR SBPS 040500Z 23004KT 9999 SCT015 BKN070 24/24 Q1015","temp":24,"dewp":24,"wdir":230,"wspd":4,"visib":"6+","altim":1015,"clouds":[{"cover":"SCT","base":1500},{"cover":"BKN","base":7000}],"obsTime":1775278800},"SBSC":{"icaoId":"SBSC","flightCategory":"IFR","rawOb":"METAR SBSC 040500Z 03009KT 3000 -RA BR SCT005 BKN015 OVC050 22/21 Q1014","temp":22,"dewp":21,"wdir":30,"wspd":9,"visib":1.86,"altim":1014,"clouds":[{"cover":"SCT","base":500},{"cover":"BKN","base":1500},{"cover":"OVC","base":5000}],"obsTime":1775278800},"SBAN":{"icaoId":"SBAN","flightCategory":"VFR","rawOb":"METAR SBAN 040500Z 14005KT CAVOK 20/18 Q1020","temp":20,"dewp":18,"wdir":140,"wspd":5,"visib":"6+","altim":1020,"clouds":[],"obsTime":1775278800},"SBLE":{"icaoId":"SBLE","flightCategory":"VFR","rawOb":"METAR SBLE 040500Z AUTO 09002KT 9999 FEW013 BKN047 ///// Q////","temp":null,"dewp":null,"wdir":90,"wspd":2,"visib":"6+","altim":null,"clouds":[{"cover":"FEW","base":1300},{"cover":"BKN","base":4700}],"obsTime":1775278800},"SBJP":{"icaoId":"SBJP","flightCategory":"MVFR","rawOb":"METAR SBJP 040500Z 21004KT 9999 BKN020 25/24 Q1012","temp":25,"dewp":24,"wdir":210,"wspd":4,"visib":"6+","altim":1012,"clouds":[{"cover":"BKN","base":2000}],"obsTime":1775278800}}}