{"updated":1774554477,"count":86,"data":{"SBBE":{"icaoId":"SBBE","flightCategory":"VFR","rawOb":"METAR SBBE 261800Z 36005KT 9999 SCT042 32/25 Q1007","temp":32,"dewp":25,"wdir":360,"wspd":5,"visib":"6+","altim":1007,"clouds":[{"cover":"SCT","base":4200}],"obsTime":1774548000},"SBMQ":{"icaoId":"SBMQ","flightCategory":"VFR","rawOb":"METAR SBMQ 261800Z 09006KT 9999 SCT030 FEW035TCU 32/24 Q1007","temp":32,"dewp":24,"wdir":90,"wspd":6,"visib":"6+","altim":1007,"clouds":[{"cover":"SCT","base":3000},{"cover":"FEW","base":3500}],"obsTime":1774548000},"SBCZ":{"icaoId":"SBCZ","flightCategory":"MVFR","rawOb":"METAR SBCZ 261800Z 30003KT 9999 FEW008 BKN020 BKN100 29/24 Q1010","temp":29,"dewp":24,"wdir":300,"wspd":3,"visib":"6+","altim":1010,"clouds":[{"cover":"FEW","base":800},{"cover":"BKN","base":2000},{"cover":"BKN","base":10000}],"obsTime":1774548000},"SBAT":{"icaoId":"SBAT","flightCategory":"VFR","rawOb":"METAR SBAT 261800Z 30006KT 9999 FEW030 FEW035TCU BKN100 26/22 Q1011","temp":26,"dewp":22,"wdir":300,"wspd":6,"visib":"6+","altim":1011,"clouds":[{"cover":"FEW","base":3000},{"cover":"FEW","base":3500},{"cover":"BKN","base":10000}],"obsTime":1774548000},"SBBR":{"icaoId":"SBBR","flightCategory":"VFR","rawOb":"METAR SBBR 261800Z 11009KT 080V150 9999 VCTS BKN035 FEW040CB BKN090 25/18 Q1017","temp":25,"dewp":18,"wdir":110,"wspd":9,"visib":"6+","altim":1017,"clouds":[{"cover":"BKN","base":3500},{"cover":"FEW","base":4000},{"cover":"BKN","base":9000}],"obsTime":1774548000},"SBBV":{"icaoId":"SBBV","flightCategory":"VFR","rawOb":"METAR SBBV 261800Z 12007KT 9999 BKN035 FEW040TCU BKN070 33/21 Q1007","temp":33,"dewp":21,"wdir":120,"wspd":7,"visib":"6+","altim":1007,"clouds":[{"cover":"BKN","base":3500},{"cover":"FEW","base":4000},{"cover":"BKN","base":7000}],"obsTime":1774548000},"SBCB":{"icaoId":"SBCB","flightCategory":"VFR","rawOb":"METAR SBCB 261800Z 07013KT CAVOK 29/23 Q1015","temp":29,"dewp":23,"wdir":70,"wspd":13,"visib":"6+","altim":1015,"clouds":[],"obsTime":1774548000},"SBCF":{"icaoId":"SBCF","flightCategory":"VFR","rawOb":"METAR SBCF 261800Z 08007KT 030V130 9999 SCT040 27/17 Q1019","temp":27,"dewp":17,"wdir":80,"wspd":7,"visib":"6+","altim":1019,"clouds":[{"cover":"SCT","base":4000}],"obsTime":1774548000},"SBCG":{"icaoId":"SBCG","flightCategory":"VFR","rawOb":"METAR SBCG 261800Z 22004KT 180V250 9999 BKN040 SCT100 28/21 Q1013","temp":28,"dewp":21,"wdir":220,"wspd":4,"visib":"6+","altim":1013,"clouds":[{"cover":"BKN","base":4000},{"cover":"SCT","base":10000}],"obsTime":1774548000},"SBCP":{"icaoId":"SBCP","flightCategory":"VFR","rawOb":"METAR SBCP 261800Z 10010KT 9999 FEW020 31/23 Q1015","temp":31,"dewp":23,"wdir":100,"wspd":10,"visib":"6+","altim":1015,"clouds":[{"cover":"FEW","base":2000}],"obsTime":1774548000},"SBCR":{"icaoId":"SBCR","flightCategory":"VFR","rawOb":"METAR SBCR 261800Z 01004KT 290V060 9999 SCT020 31/23 Q1010","temp":31,"dewp":23,"wdir":10,"wspd":4,"visib":"6+","altim":1010,"clouds":[{"cover":"SCT","base":2000}],"obsTime":1774548000},"SBCT":{"icaoId":"SBCT","flightCategory":"VFR","rawOb":"METAR SBCT 261800Z 04005KT 9999 BKN045 29/17 Q1019","temp":29,"dewp":17,"wdir":40,"wspd":5,"visib":"6+","altim":1019,"clouds":[{"cover":"BKN","base":4500}],"obsTime":1774548000},"SBEG":{"icaoId":"SBEG","flightCategory":"VFR","rawOb":"METAR SBEG 261800Z 11008KT 060V140 9999 SCT020 31/24 Q1008","temp":31,"dewp":24,"wdir":110,"wspd":8,"visib":"6+","altim":1008,"clouds":[{"cover":"SCT","base":2000}],"obsTime":1774548000},"SBFI":{"icaoId":"SBFI","flightCategory":"VFR","rawOb":"METAR SBFI 261800Z 35005KT 9999 SCT030 FEW040TCU 34/23 Q1012","temp":34,"dewp":23,"wdir":350,"wspd":5,"visib":"6+","altim":1012,"clouds":[{"cover":"SCT","base":3000},{"cover":"FEW","base":4000}],"obsTime":1774548000},"SBFL":{"icaoId":"SBFL","flightCategory":"VFR","rawOb":"METAR SBFL 261800Z 01008KT 320V080 9999 FEW035 32/24 Q1013","temp":32,"dewp":24,"wdir":10,"wspd":8,"visib":"6+","altim":1013,"clouds":[{"cover":"FEW","base":3500}],"obsTime":1774548000},"SBFZ":{"icaoId":"SBFZ","flightCategory":"VFR","rawOb":"METAR SBFZ 261800Z 09013KT CAVOK 31/24 Q1008","temp":31,"dewp":24,"wdir":90,"wspd":13,"visib":"6+","altim":1008,"clouds":[],"obsTime":1774548000},"SBGL":{"icaoId":"SBGL","flightCategory":"VFR","rawOb":"METAR SBGL 261800Z 13012KT 9999 FEW030 31/22 Q1014","temp":31,"dewp":22,"wdir":130,"wspd":12,"visib":"6+","altim":1014,"clouds":[{"cover":"FEW","base":3000}],"obsTime":1774548000},"SBGO":{"icaoId":"SBGO","flightCategory":"VFR","rawOb":"METAR SBGO 261800Z 09005KT 040V140 9999 SCT040 28/19 Q1015","temp":28,"dewp":19,"wdir":90,"wspd":5,"visib":"6+","altim":1015,"clouds":[{"cover":"SCT","base":4000}],"obsTime":1774548000},"SBGR":{"icaoId":"SBGR","flightCategory":"VFR","rawOb":"METAR SBGR 261800Z 03007KT 9999 VCSH SCT047 FEW050TCU 30/20 Q1018","temp":30,"dewp":20,"wdir":30,"wspd":7,"visib":"6+","altim":1018,"clouds":[{"cover":"SCT","base":4700},{"cover":"FEW","base":5000}],"obsTime":1774548000},"SBHT":{"icaoId":"SBHT","flightCategory":"VFR","rawOb":"METAR SBHT 261800Z 10005KT 9999 SCT030 32/24 Q1008","temp":32,"dewp":24,"wdir":100,"wspd":5,"visib":"6+","altim":1008,"clouds":[{"cover":"SCT","base":3000}],"obsTime":1774548000},"SBIL":{"icaoId":"SBIL","flightCategory":"VFR","rawOb":"METAR SBIL 261800Z 16008KT 9999 FEW025 FEW027TCU 31/25 Q1013","temp":31,"dewp":25,"wdir":160,"wspd":8,"visib":"6+","altim":1013,"clouds":[{"cover":"FEW","base":2500},{"cover":"FEW","base":2700}],"obsTime":1774548000},"SBJU":{"icaoId":"SBJU","flightCategory":"VFR","rawOb":"METAR SBJU 261800Z 11008KT 9999 SCT022 31/21 Q1011","temp":31,"dewp":21,"wdir":110,"wspd":8,"visib":"6+","altim":1011,"clouds":[{"cover":"SCT","base":2200}],"obsTime":1774548000},"SBKP":{"icaoId":"SBKP","flightCategory":"VFR","rawOb":"METAR SBKP 261800Z VRB02KT 9999 BKN040 30/19 Q1017","temp":30,"dewp":19,"wdir":"VRB","wspd":2,"visib":"6+","altim":1017,"clouds":[{"cover":"BKN","base":4000}],"obsTime":1774548000},"SBLO":{"icaoId":"SBLO","flightCategory":"VFR","rawOb":"METAR SBLO 261800Z 05007KT 9999 BKN042 30/20 Q1015","temp":30,"dewp":20,"wdir":50,"wspd":7,"visib":"6+","altim":1015,"clouds":[{"cover":"BKN","base":4200}],"obsTime":1774548000},"SBMA":{"icaoId":"SBMA","flightCategory":"VFR","rawOb":"METAR SBMA 261800Z 07004KT 9999 SCT025 33/24 Q1008","temp":33,"dewp":24,"wdir":70,"wspd":4,"visib":"6+","altim":1008,"clouds":[{"cover":"SCT","base":2500}],"obsTime":1774548000},"SBME":{"icaoId":"SBME","flightCategory":"VFR","rawOb":"METAR SBME 261800Z 10011KT 9999 FEW025 29/22 Q1015","temp":29,"dewp":22,"wdir":100,"wspd":11,"visib":"6+","altim":1015,"clouds":[{"cover":"FEW","base":2500}],"obsTime":1774548000},"SBMG":{"icaoId":"SBMG","flightCategory":"VFR","rawOb":"METAR SBMG 261800Z 07011KT 030V110 9999 SCT040 FEW040TCU 31/19 Q1014","temp":31,"dewp":19,"wdir":70,"wspd":11,"visib":"6+","altim":1014,"clouds":[{"cover":"SCT","base":4000},{"cover":"FEW","base":4000}],"obsTime":1774548000},"SBMK":{"icaoId":"SBMK","flightCategory":"VFR","rawOb":"METAR SBMK 261800Z 04005KT 9999 BKN040 28/18 Q1016","temp":28,"dewp":18,"wdir":40,"wspd":5,"visib":"6+","altim":1016,"clouds":[{"cover":"BKN","base":4000}],"obsTime":1774548000},"SBMO":{"icaoId":"SBMO","flightCategory":"MVFR","rawOb":"METAR SBMO 261800Z 10012KT 8000 VCSH BKN017 FEW023TCU BKN090 27/24 Q1011","temp":27,"dewp":24,"wdir":100,"wspd":12,"visib":4.97,"altim":1011,"clouds":[{"cover":"BKN","base":1700},{"cover":"FEW","base":2300},{"cover":"BKN","base":9000}],"obsTime":1774548000},"SBNT":{"icaoId":"SBNT","flightCategory":"VFR","rawOb":"METAR SBNT 261800Z 10014KT 9999 SCT035 31/22 Q1009","temp":31,"dewp":22,"wdir":100,"wspd":14,"visib":"6+","altim":1009,"clouds":[{"cover":"SCT","base":3500}],"obsTime":1774548000},"SBPA":{"icaoId":"SBPA","flightCategory":"MVFR","rawOb":"METAR SBPA 261800Z 22005KT 170V260 9999 FEW008 BKN012 27/23 Q1014","temp":27,"dewp":23,"wdir":220,"wspd":5,"visib":"6+","altim":1014,"clouds":[{"cover":"FEW","base":800},{"cover":"BKN","base":1200}],"obsTime":1774548000},"SBPJ":{"icaoId":"SBPJ","flightCategory":"MVFR","rawOb":"METAR SBPJ 261800Z 18010KT 9999 VCSH BKN030 FEW035TCU BKN080 28/24 Q1010","temp":28,"dewp":24,"wdir":180,"wspd":10,"visib":"6+","altim":1010,"clouds":[{"cover":"BKN","base":3000},{"cover":"FEW","base":3500},{"cover":"BKN","base":8000}],"obsTime":1774548000},"SBPV":{"icaoId":"SBPV","flightCategory":"MVFR","rawOb":"METAR SBPV 261800Z 10004KT 9999 BKN025 FEW030TCU BKN060 29/23 Q1008","temp":29,"dewp":23,"wdir":100,"wspd":4,"visib":"6+","altim":1008,"clouds":[{"cover":"BKN","base":2500},{"cover":"FEW","base":3000},{"cover":"BKN","base":6000}],"obsTime":1774548000},"SBRB":{"icaoId":"SBRB","flightCategory":"MVFR","rawOb":"METAR SBRB 261800Z 19003KT 9999 BKN019 BKN080 26/23 Q1011","temp":26,"dewp":23,"wdir":190,"wspd":3,"visib":"6+","altim":1011,"clouds":[{"cover":"BKN","base":1900},{"cover":"BKN","base":8000}],"obsTime":1774548000},"SBRF":{"icaoId":"SBRF","flightCategory":"VFR","rawOb":"METAR SBRF 261800Z 15010KT 120V180 9999 FEW025 SCT060 29/23 Q1009","temp":29,"dewp":23,"wdir":150,"wspd":10,"visib":"6+","altim":1009,"clouds":[{"cover":"FEW","base":2500},{"cover":"SCT","base":6000}],"obsTime":1774548000},"SBSG":{"icaoId":"SBSG","flightCategory":"MVFR","rawOb":"METAR SBSG 261800Z 11010KT 090V160 9999 BKN030 31/22 Q1009","temp":31,"dewp":22,"wdir":110,"wspd":10,"visib":"6+","altim":1009,"clouds":[{"cover":"BKN","base":3000}],"obsTime":1774548000},"SBSL":{"icaoId":"SBSL","flightCategory":"VFR","rawOb":"METAR SBSL 261800Z 01013KT 9999 SCT020 FEW025TCU 30/24 Q1007","temp":30,"dewp":24,"wdir":10,"wspd":13,"visib":"6+","altim":1007,"clouds":[{"cover":"SCT","base":2000},{"cover":"FEW","base":2500}],"obsTime":1774548000},"SBSN":{"icaoId":"SBSN","flightCategory":"VFR","rawOb":"METAR SBSN 261800Z 08009KT 9999 FEW023 31/25 Q1008","temp":31,"dewp":25,"wdir":80,"wspd":9,"visib":"6+","altim":1008,"clouds":[{"cover":"FEW","base":2300}],"obsTime":1774548000},"SBSP":{"icaoId":"SBSP","flightCategory":"MVFR","rawOb":"METAR SBSP 261800Z 15011KT 6000 TSRA SCT026 FEW050CB OVC080 25/22 Q1019","temp":25,"dewp":22,"wdir":150,"wspd":11,"visib":3.73,"altim":1019,"clouds":[{"cover":"SCT","base":2600},{"cover":"FEW","base":5000},{"cover":"OVC","base":8000}],"obsTime":1774548000},"SBSV":{"icaoId":"SBSV","flightCategory":"VFR","rawOb":"METAR SBSV 261800Z 13012KT 9999 SCT023 FEW025TCU 30/22 Q1012","temp":30,"dewp":22,"wdir":130,"wspd":12,"visib":"6+","altim":1012,"clouds":[{"cover":"SCT","base":2300},{"cover":"FEW","base":2500}],"obsTime":1774548000},"SBTE":{"icaoId":"SBTE","flightCategory":"VFR","rawOb":"METAR SBTE 261800Z 16003KT 9999 SCT020 30/24 Q1008","temp":30,"dewp":24,"wdir":160,"wspd":3,"visib":"6+","altim":1008,"clouds":[{"cover":"SCT","base":2000}],"obsTime":1774548000},"SBUL":{"icaoId":"SBUL","flightCategory":"VFR","rawOb":"METAR SBUL 261800Z 03008KT 9999 VCSH SCT025 FEW030TCU 21/20 Q1018","temp":21,"dewp":20,"wdir":30,"wspd":8,"visib":"6+","altim":1018,"clouds":[{"cover":"SCT","base":2500},{"cover":"FEW","base":3000}],"obsTime":1774548000},"SBUR":{"icaoId":"SBUR","flightCategory":"VFR","rawOb":"METAR SBUR 261800Z 28002KT 9999 BKN040 FEW040TCU 27/20 Q1016","temp":27,"dewp":20,"wdir":280,"wspd":2,"visib":"6+","altim":1016,"clouds":[{"cover":"BKN","base":4000},{"cover":"FEW","base":4000}],"obsTime":1774548000},"SBVT":{"icaoId":"SBVT","flightCategory":"VFR","rawOb":"METAR SBVT 261800Z 11008KT 080V140 9999 FEW030 29/24 Q1015","temp":29,"dewp":24,"wdir":110,"wspd":8,"visib":"6+","altim":1015,"clouds":[{"cover":"FEW","base":3000}],"obsTime":1774548000},"SBOI":{"icaoId":"SBOI","flightCategory":"VFR","rawOb":"METAR SBOI 261800Z AUTO 35005KT 320V020 9999 SCT006 SCT009 BKN045 27/25 Q1009","temp":27,"dewp":25,"wdir":350,"wspd":5,"visib":"6+","altim":1009,"clouds":[{"cover":"SCT","base":600},{"cover":"SCT","base":900},{"cover":"BKN","base":4500}],"obsTime":1774548000},"SBAR":{"icaoId":"SBAR","flightCategory":"VFR","rawOb":"METAR SBAR 261800Z 12012KT 9999 SCT030 30/22 Q1011","temp":30,"dewp":22,"wdir":120,"wspd":12,"visib":"6+","altim":1011,"clouds":[{"cover":"SCT","base":3000}],"obsTime":1774548000},"SBAX":{"icaoId":"SBAX","flightCategory":"VFR","rawOb":"METAR SBAX 261800Z COR AUTO VRB02KT 9999 FEW034 23/21 Q1018","temp":23,"dewp":21,"wdir":"VRB","wspd":2,"visib":"6+","altim":1018,"clouds":[{"cover":"FEW","base":3400}],"obsTime":1774548000},"SBBH":{"icaoId":"SBBH","flightCategory":"VFR","rawOb":"METAR SBBH 261800Z 07007KT 9999 SCT045 28/17 Q1018","temp":28,"dewp":17,"wdir":70,"wspd":7,"visib":"6+","altim":1018,"clouds":[{"cover":"SCT","base":4500}],"obsTime":1774548000},"SBBQ":{"icaoId":"SBBQ","flightCategory":"VFR","rawOb":"METAR SBBQ 261800Z 08006KT 360V130 9999 SCT040 25/16 Q1023","temp":25,"dewp":16,"wdir":80,"wspd":6,"visib":"6+","altim":1023,"clouds":[{"cover":"SCT","base":4000}],"obsTime":1774548000},"SBBU":{"icaoId":"SBBU","flightCategory":"VFR","rawOb":"METAR SBBU 261800Z 36006KT 9999 SCT035 31/20 Q1016","temp":31,"dewp":20,"wdir":360,"wspd":6,"visib":"6+","altim":1016,"clouds":[{"cover":"SCT","base":3500}],"obsTime":1774548000},"SBCA":{"icaoId":"SBCA","flightCategory":"VFR","rawOb":"METAR SBCA 261800Z 06008KT 9999 SCT040 28/19 Q1017","temp":28,"dewp":19,"wdir":60,"wspd":8,"visib":"6+","altim":1017,"clouds":[{"cover":"SCT","base":4000}],"obsTime":1774548000},"SBCC":{"icaoId":"SBCC","flightCategory":"VFR","rawOb":"METAR SBCC 261800Z 23006KT 9999 VCSH FEW015 SCT020 FEW025TCU BKN100 25/23 Q1011","temp":25,"dewp":23,"wdir":230,"wspd":6,"visib":"6+","altim":1011,"clouds":[{"cover":"FEW","base":1500},{"cover":"SCT","base":2000},{"cover":"FEW","base":2500},{"cover":"BKN","base":10000}],"obsTime":1774548000},"SBCJ":{"icaoId":"SBCJ","flightCategory":"VFR","rawOb":"METAR SBCJ 261800Z 09006KT 9999 FEW022 FEW024TCU 26/21 Q1013","temp":26,"dewp":21,"wdir":90,"wspd":6,"visib":"6+","altim":1013,"clouds":[{"cover":"FEW","base":2200},{"cover":"FEW","base":2400}],"obsTime":1774548000},"SBCO":{"icaoId":"SBCO","flightCategory":"MVFR","rawOb":"METAR SBCO 261800Z 23003KT 180V310 9999 BKN014 OVC019 26/23 Q1015","temp":26,"dewp":23,"wdir":230,"wspd":3,"visib":"6+","altim":1015,"clouds":[{"cover":"BKN","base":1400},{"cover":"OVC","base":1900}],"obsTime":1774548000},"SBDN":{"icaoId":"SBDN","flightCategory":"VFR","rawOb":"METAR SBDN 261800Z 03007KT 9999 VCSH BKN039 FEW045TCU BKN082 32/20 Q1014","temp":32,"dewp":20,"wdir":30,"wspd":7,"visib":"6+","altim":1014,"clouds":[{"cover":"BKN","base":3900},{"cover":"FEW","base":4500},{"cover":"BKN","base":8200}],"obsTime":1774548000},"SBES":{"icaoId":"SBES","flightCategory":"VFR","rawOb":"METAR SBES 261800Z 07015KT 9999 FEW020 30/// Q1015","temp":null,"dewp":null,"wdir":70,"wspd":15,"visib":"6+","altim":1015,"clouds":[{"cover":"FEW","base":2000}],"obsTime":1774548000},"SBGM":{"icaoId":"SBGM","flightCategory":"MVFR","rawOb":"METAR SBGM 261800Z 26007KT 230V290 9999 BKN010 27/21 Q1010","temp":27,"dewp":21,"wdir":260,"wspd":7,"visib":"6+","altim":1010,"clouds":[{"cover":"BKN","base":1000}],"obsTime":1774548000},"SBIP":{"icaoId":"SBIP","flightCategory":"VFR","rawOb":"METAR SBIP 261800Z AUTO VRB03KT 9999 BKN045 30/20 Q1015","temp":30,"dewp":20,"wdir":"VRB","wspd":3,"visib":"6+","altim":1015,"clouds":[{"cover":"BKN","base":4500}],"obsTime":1774548000},"SBKG":{"icaoId":"SBKG","flightCategory":"MVFR","rawOb":"METAR SBKG 261800Z 12008KT 070V160 9999 BKN028 FEW030TCU BKN090 29/19 Q1011","temp":29,"dewp":19,"wdir":120,"wspd":8,"visib":"6+","altim":1011,"clouds":[{"cover":"BKN","base":2800},{"cover":"FEW","base":3000},{"cover":"BKN","base":9000}],"obsTime":1774548000},"SBPB":{"icaoId":"SBPB","flightCategory":"VFR","rawOb":"METAR SBPB 261800Z 05011KT 9999 SCT020 31/25 Q1007","temp":31,"dewp":25,"wdir":50,"wspd":11,"visib":"6+","altim":1007,"clouds":[{"cover":"SCT","base":2000}],"obsTime":1774548000},"SBPL":{"icaoId":"SBPL","flightCategory":"VFR","rawOb":"METAR SBPL 261800Z 13008KT 9999 SCT035 32/20 Q1010","temp":32,"dewp":20,"wdir":130,"wspd":8,"visib":"6+","altim":1010,"clouds":[{"cover":"SCT","base":3500}],"obsTime":1774548000},"SBPP":{"icaoId":"SBPP","flightCategory":"MVFR","rawOb":"METAR SBPP 261800Z 03008KT 9999 BKN025 29/21 Q1014","temp":29,"dewp":21,"wdir":30,"wspd":8,"visib":"6+","altim":1014,"clouds":[{"cover":"BKN","base":2500}],"obsTime":1774548000},"SBPS":{"icaoId":"SBPS","flightCategory":"VFR","rawOb":"METAR SBPS 261800Z 11008KT 070V170 9999 SCT020 29/24 Q1014","temp":29,"dewp":24,"wdir":110,"wspd":8,"visib":"6+","altim":1014,"clouds":[{"cover":"SCT","base":2000}],"obsTime":1774548000},"SBSC":{"icaoId":"SBSC","flightCategory":"VFR","rawOb":"METAR SBSC 261800Z 22006KT 9999 FEW045 32/22 Q1014","temp":32,"dewp":22,"wdir":220,"wspd":6,"visib":"6+","altim":1014,"clouds":[{"cover":"FEW","base":4500}],"obsTime":1774548000},"SBSJ":{"icaoId":"SBSJ","flightCategory":"VFR","rawOb":"METAR SBSJ 261800Z 03002KT 9999 SCT036 FEW048TCU 31/// Q1017","temp":null,"dewp":null,"wdir":30,"wspd":2,"visib":"6+","altim":1017,"clouds":[{"cover":"SCT","base":3600},{"cover":"FEW","base":4800}],"obsTime":1774548000},"SBSM":{"icaoId":"SBSM","flightCategory":"MVFR","rawOb":"METAR SBSM 261800Z 11005KT 080V150 9999 BKN013 OVC017 25/22 Q1015","temp":25,"dewp":22,"wdir":110,"wspd":5,"visib":"6+","altim":1015,"clouds":[{"cover":"BKN","base":1300},{"cover":"OVC","base":1700}],"obsTime":1774548000},"SBSR":{"icaoId":"SBSR","flightCategory":"VFR","rawOb":"METAR SBSR 261800Z VRB07KT 9999 FEW025 30/16 Q1015","temp":30,"dewp":16,"wdir":"VRB","wspd":7,"visib":"6+","altim":1015,"clouds":[{"cover":"FEW","base":2500}],"obsTime":1774548000},"SBTF":{"icaoId":"SBTF","flightCategory":"VFR","rawOb":"METAR SBTF 261800Z 09008KT 9999 FEW018 34/23 Q1008","temp":34,"dewp":23,"wdir":90,"wspd":8,"visib":"6+","altim":1008,"clouds":[{"cover":"FEW","base":1800}],"obsTime":1774548000},"SBTT":{"icaoId":"SBTT","flightCategory":"MVFR","rawOb":"METAR SBTT 261800Z 11005KT 9999 BKN020 BKN080 30/22 Q1009","temp":30,"dewp":22,"wdir":110,"wspd":5,"visib":"6+","altim":1009,"clouds":[{"cover":"BKN","base":2000},{"cover":"BKN","base":8000}],"obsTime":1774548000},"SBUY":{"icaoId":"SBUY","flightCategory":"VFR","rawOb":"METAR SBUY 261800Z 15002KT 9999 SCT025 SCT100 32/23 Q1007","temp":32,"dewp":23,"wdir":150,"wspd":2,"visib":"6+","altim":1007,"clouds":[{"cover":"SCT","base":2500},{"cover":"SCT","base":10000}],"obsTime":1774548000},"SBVH":{"icaoId":"SBVH","flightCategory":"MVFR","rawOb":"METAR SBVH 261800Z 05009KT 9999 SCT015 BKN025 FEW030TCU 27/22 Q1011","temp":27,"dewp":22,"wdir":50,"wspd":9,"visib":"6+","altim":1011,"clouds":[{"cover":"SCT","base":1500},{"cover":"BKN","base":2500},{"cover":"FEW","base":3000}],"obsTime":1774548000},"SBAU":{"icaoId":"SBAU","flightCategory":"VFR","rawOb":"METAR SBAU 261800Z 36008KT 9999 SCT040 32/19 Q1013","temp":32,"dewp":19,"wdir":360,"wspd":8,"visib":"6+","altim":1013,"clouds":[{"cover":"SCT","base":4000}],"obsTime":1774548000},"SBST":{"icaoId":"SBST","flightCategory":"VFR","rawOb":"METAR SBST 261800Z 19005KT 9999 SCT030 29/23 Q1014","temp":29,"dewp":23,"wdir":190,"wspd":5,"visib":"6+","altim":1014,"clouds":[{"cover":"SCT","base":3000}],"obsTime":1774548000},"SBAN":{"icaoId":"SBAN","flightCategory":"MVFR","rawOb":"METAR SBAN 261800Z VRB03KT 9999 VCSH FEW010 BKN015 BKN035 FEW040TCU 26/17 Q1018","temp":26,"dewp":17,"wdir":"VRB","wspd":3,"visib":"6+","altim":1018,"clouds":[{"cover":"FEW","base":1000},{"cover":"BKN","base":1500},{"cover":"BKN","base":3500},{"cover":"FEW","base":4000}],"obsTime":1774548000},"SBTA":{"icaoId":"SBTA","flightCategory":"VFR","rawOb":"METAR SBTA 261800Z 17003KT 080V250 9999 SCT035 FEW040TCU 30/23 Q1016","temp":30,"dewp":23,"wdir":170,"wspd":3,"visib":"6+","altim":1016,"clouds":[{"cover":"SCT","base":3500},{"cover":"FEW","base":4000}],"obsTime":1774548000},"SBLE":{"icaoId":"SBLE","flightCategory":"VFR","rawOb":"METAR SBLE 261800Z AUTO 31005KT 9999 SCT044 ///// Q////","temp":null,"dewp":null,"wdir":310,"wspd":5,"visib":"6+","altim":null,"clouds":[{"cover":"SCT","base":4400}],"obsTime":1774548000},"SBTC":{"icaoId":"SBTC","flightCategory":"VFR","rawOb":"METAR SBTC 261800Z 16005KT 9999 SCT025 30/25 Q1013","temp":30,"dewp":25,"wdir":160,"wspd":5,"visib":"6+","altim":1013,"clouds":[{"cover":"SCT","base":2500}],"obsTime":1774548000},"SBJV":{"icaoId":"SBJV","flightCategory":"VFR","rawOb":"METAR SBJV 261800Z 11009KT 9999 BKN035 30/24 Q1014","temp":30,"dewp":24,"wdir":110,"wspd":9,"visib":"6+","altim":1014,"clouds":[{"cover":"BKN","base":3500}],"obsTime":1774548000},"SBJP":{"icaoId":"SBJP","flightCategory":"VFR","rawOb":"METAR SBJP 261800Z 12011KT 9999 SCT030 SCT070 30/23 Q1009","temp":30,"dewp":23,"wdir":120,"wspd":11,"visib":"6+","altim":1009,"clouds":[{"cover":"SCT","base":3000},{"cover":"SCT","base":7000}],"obsTime":1774548000},"SBPF":{"icaoId":"SBPF","flightCategory":"VFR","rawOb":"METAR SBPF 261800Z 23006KT 9999 SCT040 29/19 Q1017","temp":29,"dewp":19,"wdir":230,"wspd":6,"visib":"6+","altim":1017,"clouds":[{"cover":"SCT","base":4000}],"obsTime":1774548000},"SBIH":{"icaoId":"SBIH","flightCategory":"VFR","rawOb":"METAR SBIH 261800Z 07006KT 9999 FEW020 FEW025TCU 32/24 Q1007","temp":32,"dewp":24,"wdir":70,"wspd":6,"visib":"6+","altim":1007,"clouds":[{"cover":"FEW","base":2000},{"cover":"FEW","base":2500}],"obsTime":1774548000},"SBAF":{"icaoId":"SBAF","flightCategory":"VFR","rawOb":"METAR SBAF 261800Z 19012KT 9999 FEW030 FEW035TCU 31/23 Q1014","temp":31,"dewp":23,"wdir":190,"wspd":12,"visib":"6+","altim":1014,"clouds":[{"cover":"FEW","base":3000},{"cover":"FEW","base":3500}],"obsTime":1774548000},"SBGW":{"icaoId":"SBGW","flightCategory":"VFR","rawOb":"METAR SBGW 261800Z 34004KT 9999 FEW030 32/19 Q1016","temp":32,"dewp":19,"wdir":340,"wspd":4,"visib":"6+","altim":1016,"clouds":[{"cover":"FEW","base":3000}],"obsTime":1774548000},"SBJR":{"icaoId":"SBJR","flightCategory":"VFR","rawOb":"METAR SBJR 261800Z 19005KT 9999 FEW025 31/23 Q1014","temp":31,"dewp":23,"wdir":190,"wspd":5,"visib":"6+","altim":1014,"clouds":[{"cover":"FEW","base":2500}],"obsTime":1774548000},"SBLS":{"icaoId":"SBLS","flightCategory":"VFR","rawOb":"METAR SBLS 261800Z 09005KT 030V120 9999 SCT040 27/17 Q1018","temp":27,"dewp":17,"wdir":90,"wspd":5,"visib":"6+","altim":1018,"clouds":[{"cover":"SCT","base":4000}],"obsTime":1774548000},"SBMT":{"icaoId":"SBMT","flightCategory":"IFR","rawOb":"METAR SBMT 261800Z 13013KT 2000 -TSRA SCT030 FEW040CB 24/18 Q1018","temp":24,"dewp":18,"wdir":130,"wspd":13,"visib":1.24,"altim":1018,"clouds":[{"cover":"SCT","base":3000},{"cover":"FEW","base":4000}],"obsTime":1774548000}}}