{"updated":1784152180,"count":84,"data":{"SBUR":{"icaoId":"SBUR","flightCategory":"VFR","rawOb":"METAR SBUR 151700Z 04005KT CAVOK 27/08 Q1021","temp":27,"dewp":8,"wdir":40,"wspd":5,"visib":"6+","altim":1021,"clouds":[],"obsTime":1784134800},"SBSP":{"icaoId":"SBSP","flightCategory":"VFR","rawOb":"METAR SBSP 151700Z COR 03005KT CAVOK 20/08 Q1024","temp":20,"dewp":8,"wdir":30,"wspd":5,"visib":"6+","altim":1024,"clouds":[],"obsTime":1784134800},"SBGO":{"icaoId":"SBGO","flightCategory":"VFR","rawOb":"METAR SBGO 151700Z 09008KT 050V130 CAVOK 30/14 Q1019","temp":30,"dewp":14,"wdir":90,"wspd":8,"visib":"6+","altim":1019,"clouds":[],"obsTime":1784134800},"SBFL":{"icaoId":"SBFL","flightCategory":"VFR","rawOb":"METAR SBFL 151700Z 35014KT 9999 SCT035 BKN052 20/15 Q1021","temp":20,"dewp":15,"wdir":350,"wspd":14,"visib":"6+","altim":1021,"clouds":[{"cover":"SCT","base":3500},{"cover":"BKN","base":5200}],"obsTime":1784134800},"SBGL":{"icaoId":"SBGL","flightCategory":"VFR","rawOb":"METAR SBGL 151700Z 35007KT 9999 FEW020 24/12 Q1023","temp":24,"dewp":12,"wdir":350,"wspd":7,"visib":"6+","altim":1023,"clouds":[{"cover":"FEW","base":2000}],"obsTime":1784134800},"SBCR":{"icaoId":"SBCR","flightCategory":"VFR","rawOb":"METAR SBCR 151700Z 04010KT 9999 FEW025 31/17 Q1013","temp":31,"dewp":17,"wdir":40,"wspd":10,"visib":"6+","altim":1013,"clouds":[{"cover":"FEW","base":2500}],"obsTime":1784134800},"SBTE":{"icaoId":"SBTE","flightCategory":"VFR","rawOb":"METAR SBTE 151700Z 18013KT 9999 SCT033 BKN100 30/23 Q1014","temp":30,"dewp":23,"wdir":180,"wspd":13,"visib":"6+","altim":1014,"clouds":[{"cover":"SCT","base":3300},{"cover":"BKN","base":10000}],"obsTime":1784134800},"SBVT":{"icaoId":"SBVT","flightCategory":"VFR","rawOb":"METAR SBVT 151700Z 16008KT 9999 FEW030 SCT070 23/12 Q1024","temp":23,"dewp":12,"wdir":160,"wspd":8,"visib":"6+","altim":1024,"clouds":[{"cover":"FEW","base":3000},{"cover":"SCT","base":7000}],"obsTime":1784134800},"SBMA":{"icaoId":"SBMA","flightCategory":"VFR","rawOb":"METAR SBMA 151700Z 02004KT 9999 FEW025 BKN070 31/24 Q1014","temp":31,"dewp":24,"wdir":20,"wspd":4,"visib":"6+","altim":1014,"clouds":[{"cover":"FEW","base":2500},{"cover":"BKN","base":7000}],"obsTime":1784134800},"SBCZ":{"icaoId":"SBCZ","flightCategory":"MVFR","rawOb":"METAR SBCZ 151700Z 31005KT 9999 BKN030 29/23 Q1015","temp":29,"dewp":23,"wdir":310,"wspd":5,"visib":"6+","altim":1015,"clouds":[{"cover":"BKN","base":3000}],"obsTime":1784134800},"SBNT":{"icaoId":"SBNT","flightCategory":"VFR","rawOb":"METAR SBNT 151700Z 14017KT 9999 SCT025 BKN090 28/23 Q1015","temp":28,"dewp":23,"wdir":140,"wspd":17,"visib":"6+","altim":1015,"clouds":[{"cover":"SCT","base":2500},{"cover":"BKN","base":9000}],"obsTime":1784134800},"SBBE":{"icaoId":"SBBE","flightCategory":"VFR","rawOb":"METAR SBBE 151700Z 06008KT 9999 SCT045 32/21 Q1014","temp":32,"dewp":21,"wdir":60,"wspd":8,"visib":"6+","altim":1014,"clouds":[{"cover":"SCT","base":4500}],"obsTime":1784134800},"SBSG":{"icaoId":"SBSG","flightCategory":"VFR","rawOb":"METAR SBSG 151700Z 13010KT 9999 SCT030 SCT050 28/22 Q1015","temp":28,"dewp":22,"wdir":130,"wspd":10,"visib":"6+","altim":1015,"clouds":[{"cover":"SCT","base":3000},{"cover":"SCT","base":5000}],"obsTime":1784134800},"SBBR":{"icaoId":"SBBR","flightCategory":"VFR","rawOb":"METAR SBBR 151700Z 09008KT 060V130 9999 FEW040 25/15 Q1022","temp":25,"dewp":15,"wdir":90,"wspd":8,"visib":"6+","altim":1022,"clouds":[{"cover":"FEW","base":4000}],"obsTime":1784134800},"SBEG":{"icaoId":"SBEG","flightCategory":"VFR","rawOb":"METAR SBEG 151700Z VRB03KT 9999 SCT025 FEW030TCU 32/24 Q1013","temp":32,"dewp":24,"wdir":"VRB","wspd":3,"visib":"6+","altim":1013,"clouds":[{"cover":"SCT","base":2500},{"cover":"FEW","base":3000}],"obsTime":1784134800},"SBCB":{"icaoId":"SBCB","flightCategory":"VFR","rawOb":"METAR SBCB 151700Z 13012KT 9999 FEW025 23/13 Q1024","temp":23,"dewp":13,"wdir":130,"wspd":12,"visib":"6+","altim":1024,"clouds":[{"cover":"FEW","base":2500}],"obsTime":1784134800},"SBPV":{"icaoId":"SBPV","flightCategory":"VFR","rawOb":"METAR SBPV 151700Z VRB03KT 9999 SCT035 SCT050 32/23 Q1013","temp":32,"dewp":23,"wdir":"VRB","wspd":3,"visib":"6+","altim":1013,"clouds":[{"cover":"SCT","base":3500},{"cover":"SCT","base":5000}],"obsTime":1784134800},"SBFZ":{"icaoId":"SBFZ","flightCategory":"VFR","rawOb":"METAR SBFZ 151700Z 10015KT 9999 FEW027 30/23 Q1014","temp":30,"dewp":23,"wdir":100,"wspd":15,"visib":"6+","altim":1014,"clouds":[{"cover":"FEW","base":2700}],"obsTime":1784134800},"SBPJ":{"icaoId":"SBPJ","flightCategory":"VFR","rawOb":"METAR SBPJ 151700Z 08008KT 9999 SCT040 31/21 Q1015","temp":31,"dewp":21,"wdir":80,"wspd":8,"visib":"6+","altim":1015,"clouds":[{"cover":"SCT","base":4000}],"obsTime":1784134800},"SBRB":{"icaoId":"SBRB","flightCategory":"VFR","rawOb":"METAR SBRB 151700Z 01003KT 9999 SCT030 31/22 Q1015","temp":31,"dewp":22,"wdir":10,"wspd":3,"visib":"6+","altim":1015,"clouds":[{"cover":"SCT","base":3000}],"obsTime":1784134800},"SBSV":{"icaoId":"SBSV","flightCategory":"VFR","rawOb":"METAR SBSV 151700Z 16017KT 9999 SCT027 SCT033 27/19 Q1020","temp":27,"dewp":19,"wdir":160,"wspd":17,"visib":"6+","altim":1020,"clouds":[{"cover":"SCT","base":2700},{"cover":"SCT","base":3300}],"obsTime":1784134800},"SBMO":{"icaoId":"SBMO","flightCategory":"MVFR","rawOb":"METAR SBMO 151700Z 16012KT 9999 VCSH BKN025 25/23 Q1018","temp":25,"dewp":23,"wdir":160,"wspd":12,"visib":"6+","altim":1018,"clouds":[{"cover":"BKN","base":2500}],"obsTime":1784134800},"SBRF":{"icaoId":"SBRF","flightCategory":"VFR","rawOb":"METAR SBRF 151700Z 13013KT 9999 SCT023 SCT065 28/23 Q1017","temp":28,"dewp":23,"wdir":130,"wspd":13,"visib":"6+","altim":1017,"clouds":[{"cover":"SCT","base":2300},{"cover":"SCT","base":6500}],"obsTime":1784134800},"SBCP":{"icaoId":"SBCP","flightCategory":"VFR","rawOb":"METAR SBCP 151700Z 10008KT 9999 FEW030 26/07 Q1024","temp":26,"dewp":7,"wdir":100,"wspd":8,"visib":"6+","altim":1024,"clouds":[{"cover":"FEW","base":3000}],"obsTime":1784134800},"SBLO":{"icaoId":"SBLO","flightCategory":"VFR","rawOb":"METAR SBLO 151700Z 07008KT CAVOK 22/12 Q1021","temp":22,"dewp":12,"wdir":70,"wspd":8,"visib":"6+","altim":1021,"clouds":[],"obsTime":1784134800},"SBMG":{"icaoId":"SBMG","flightCategory":"VFR","rawOb":"METAR SBMG 151700Z 02010KT 350V050 CAVOK 23/11 Q1019","temp":23,"dewp":11,"wdir":20,"wspd":10,"visib":"6+","altim":1019,"clouds":[],"obsTime":1784134800},"SBAT":{"icaoId":"SBAT","flightCategory":"VFR","rawOb":"METAR SBAT 151700Z 34003KT 9999 SCT030 34/21 Q1014","temp":34,"dewp":21,"wdir":340,"wspd":3,"visib":"6+","altim":1014,"clouds":[{"cover":"SCT","base":3000}],"obsTime":1784134800},"SBHT":{"icaoId":"SBHT","flightCategory":"MVFR","rawOb":"METAR SBHT 151700Z 13005KT 9999 BKN030 32/23 Q1013","temp":32,"dewp":23,"wdir":130,"wspd":5,"visib":"6+","altim":1013,"clouds":[{"cover":"BKN","base":3000}],"obsTime":1784134800},"SBIL":{"icaoId":"SBIL","flightCategory":"VFR","rawOb":"METAR SBIL 151700Z 19015G27KT 9999 SCT020 BKN040 26/17 Q1021","temp":26,"dewp":17,"wdir":190,"wspd":15,"visib":"6+","altim":1021,"clouds":[{"cover":"SCT","base":2000},{"cover":"BKN","base":4000}],"obsTime":1784134800},"SBJU":{"icaoId":"SBJU","flightCategory":"VFR","rawOb":"METAR SBJU 151700Z 16012KT 9999 FEW022 32/16 Q1016","temp":32,"dewp":16,"wdir":160,"wspd":12,"visib":"6+","altim":1016,"clouds":[{"cover":"FEW","base":2200}],"obsTime":1784134800},"SBME":{"icaoId":"SBME","flightCategory":"VFR","rawOb":"METAR SBME 151700Z 09011KT 9999 SCT045 23/13 Q1024","temp":23,"dewp":13,"wdir":90,"wspd":11,"visib":"6+","altim":1024,"clouds":[{"cover":"SCT","base":4500}],"obsTime":1784134800},"SBMK":{"icaoId":"SBMK","flightCategory":"VFR","rawOb":"METAR SBMK 151700Z 07009KT 9999 FEW045 25/12 Q1022","temp":25,"dewp":12,"wdir":70,"wspd":9,"visib":"6+","altim":1022,"clouds":[{"cover":"FEW","base":4500}],"obsTime":1784134800},"SBUL":{"icaoId":"SBUL","flightCategory":"VFR","rawOb":"METAR SBUL 151700Z 08006KT CAVOK 24/11 Q1022","temp":24,"dewp":11,"wdir":80,"wspd":6,"visib":"6+","altim":1022,"clouds":[],"obsTime":1784134800},"SBBV":{"icaoId":"SBBV","flightCategory":"VFR","rawOb":"METAR SBBV 151700Z 09011KT 9999 BKN040 FEW045TCU 32/22 Q1013","temp":32,"dewp":22,"wdir":90,"wspd":11,"visib":"6+","altim":1013,"clouds":[{"cover":"BKN","base":4000},{"cover":"FEW","base":4500}],"obsTime":1784134800},"SBSN":{"icaoId":"SBSN","flightCategory":"VFR","rawOb":"METAR SBSN 151700Z 10011KT 9999 FEW023 31/24 Q1013","temp":31,"dewp":24,"wdir":100,"wspd":11,"visib":"6+","altim":1013,"clouds":[{"cover":"FEW","base":2300}],"obsTime":1784134800},"SBCF":{"icaoId":"SBCF","flightCategory":"VFR","rawOb":"METAR SBCF 151700Z 12005KT 9999 FEW035 22/10 Q1024","temp":22,"dewp":10,"wdir":120,"wspd":5,"visib":"6+","altim":1024,"clouds":[{"cover":"FEW","base":3500}],"obsTime":1784134800},"SBCG":{"icaoId":"SBCG","flightCategory":"VFR","rawOb":"METAR SBCG 151700Z 01010KT 330V040 CAVOK 29/13 Q1017","temp":29,"dewp":13,"wdir":10,"wspd":10,"visib":"6+","altim":1017,"clouds":[],"obsTime":1784134800},"SBCT":{"icaoId":"SBCT","flightCategory":"VFR","rawOb":"METAR SBCT 151700Z 04006KT CAVOK 18/10 Q1023","temp":18,"dewp":10,"wdir":40,"wspd":6,"visib":"6+","altim":1023,"clouds":[],"obsTime":1784134800},"SBKP":{"icaoId":"SBKP","flightCategory":"VFR","rawOb":"METAR SBKP 151700Z VRB03KT CAVOK 23/07 Q1022","temp":23,"dewp":7,"wdir":"VRB","wspd":3,"visib":"6+","altim":1022,"clouds":[],"obsTime":1784134800},"SBPA":{"icaoId":"SBPA","flightCategory":"VFR","rawOb":"METAR SBPA 151700Z 06004KT 360V110 CAVOK 22/11 Q1017","temp":22,"dewp":11,"wdir":60,"wspd":4,"visib":"6+","altim":1017,"clouds":[],"obsTime":1784134800},"SBFI":{"icaoId":"SBFI","flightCategory":"VFR","rawOb":"METAR SBFI 151700Z 03013G23KT CAVOK 24/08 Q1016","temp":24,"dewp":8,"wdir":30,"wspd":13,"visib":"6+","altim":1016,"clouds":[],"obsTime":1784134800},"SBGR":{"icaoId":"SBGR","flightCategory":"VFR","rawOb":"METAR SBGR 151700Z 09007KT CAVOK 20/08 Q1024","temp":20,"dewp":8,"wdir":90,"wspd":7,"visib":"6+","altim":1024,"clouds":[],"obsTime":1784134800},"SBSL":{"icaoId":"SBSL","flightCategory":"MVFR","rawOb":"METAR SBSL 151700Z 04010KT 9999 BKN025 30/24 Q1013","temp":30,"dewp":24,"wdir":40,"wspd":10,"visib":"6+","altim":1013,"clouds":[{"cover":"BKN","base":2500}],"obsTime":1784134800},"SBMQ":{"icaoId":"SBMQ","flightCategory":"VFR","rawOb":"METAR SBMQ 151700Z 06011KT 9999 SCT030 32/24 Q1013","temp":32,"dewp":24,"wdir":60,"wspd":11,"visib":"6+","altim":1013,"clouds":[{"cover":"SCT","base":3000}],"obsTime":1784134800},"SBPB":{"icaoId":"SBPB","flightCategory":"VFR","rawOb":"METAR SBPB 152000Z 05012KT 9999 SCT020 29/24 Q1013","temp":29,"dewp":24,"wdir":50,"wspd":12,"visib":"6+","altim":1013,"clouds":[{"cover":"SCT","base":2000}],"obsTime":1784145600},"SBCJ":{"icaoId":"SBCJ","flightCategory":"VFR","rawOb":"METAR SBCJ 152000Z 00000KT 9999 FEW015 FEW050TCU 26/21 Q1016","temp":26,"dewp":21,"wdir":0,"wspd":0,"visib":"6+","altim":1016,"clouds":[{"cover":"FEW","base":1500},{"cover":"FEW","base":5000}],"obsTime":1784145600},"SBTU":{"icaoId":"SBTU","flightCategory":"VFR","rawOb":"METAR SBTU 152000Z AUTO 20005KT 9999 // FEW033/// SCT063/// 30/23 Q1014","temp":30,"dewp":23,"wdir":200,"wspd":5,"visib":"6+","altim":1014,"clouds":[{"cover":"FEW","base":3300},{"cover":"SCT","base":6300}],"obsTime":1784145600},"SBTF":{"icaoId":"SBTF","flightCategory":"VFR","rawOb":"METAR SBTF 152000Z 09005KT 9999 SCT020 32/25 Q1010","temp":32,"dewp":25,"wdir":90,"wspd":5,"visib":"6+","altim":1010,"clouds":[{"cover":"SCT","base":2000}],"obsTime":1784145600},"SBSJ":{"icaoId":"SBSJ","flightCategory":"VFR","rawOb":"METAR SBSJ 152000Z 01004KT 310V060 CAVOK 20/09 Q1022","temp":20,"dewp":9,"wdir":10,"wspd":4,"visib":"6+","altim":1022,"clouds":[],"obsTime":1784145600},"SBPS":{"icaoId":"SBPS","flightCategory":"VFR","rawOb":"METAR SBPS 152000Z VRB06KT 9999 FEW020 SCT070 23/14 Q1023","temp":23,"dewp":14,"wdir":"VRB","wspd":6,"visib":"6+","altim":1023,"clouds":[{"cover":"FEW","base":2000},{"cover":"SCT","base":7000}],"obsTime":1784145600},"SBOI":{"icaoId":"SBOI","flightCategory":"VFR","rawOb":"METAR SBOI 152000Z AUTO 12006KT 070V160 9999 FEW040 32/24 Q1012","temp":32,"dewp":24,"wdir":120,"wspd":6,"visib":"6+","altim":1012,"clouds":[{"cover":"FEW","base":4000}],"obsTime":1784145600},"SBPL":{"icaoId":"SBPL","flightCategory":"VFR","rawOb":"METAR SBPL 152000Z 13015KT 9999 SCT020 SCT030 BKN070 25/19 Q1019","temp":25,"dewp":19,"wdir":130,"wspd":15,"visib":"6+","altim":1019,"clouds":[{"cover":"SCT","base":2000},{"cover":"SCT","base":3000},{"cover":"BKN","base":7000}],"obsTime":1784145600},"SBTT":{"icaoId":"SBTT","flightCategory":"VFR","rawOb":"METAR SBTT 152000Z 13004KT 070V160 9999 SCT020 FEW025TCU BKN100 25/23 Q1012","temp":25,"dewp":23,"wdir":130,"wspd":4,"visib":"6+","altim":1012,"clouds":[{"cover":"SCT","base":2000},{"cover":"FEW","base":2500},{"cover":"BKN","base":10000}],"obsTime":1784145600},"SBPP":{"icaoId":"SBPP","flightCategory":"VFR","rawOb":"METAR SBPP 152000Z 06011KT CAVOK 25/12 Q1015","temp":25,"dewp":12,"wdir":60,"wspd":11,"visib":"6+","altim":1015,"clouds":[],"obsTime":1784145600},"SBCA":{"icaoId":"SBCA","flightCategory":"VFR","rawOb":"METAR SBCA 152000Z 04011G22KT CAVOK 21/05 Q1018","temp":21,"dewp":5,"wdir":40,"wspd":11,"visib":"6+","altim":1018,"clouds":[],"obsTime":1784145600},"SBCO":{"icaoId":"SBCO","flightCategory":"VFR","rawOb":"METAR SBCO 152000Z 11006KT CAVOK 21/12 Q1016","temp":21,"dewp":12,"wdir":110,"wspd":6,"visib":"6+","altim":1016,"clouds":[],"obsTime":1784145600},"SBSM":{"icaoId":"SBSM","flightCategory":"VFR","rawOb":"METAR SBSM 152000Z 07006KT CAVOK 22/12 Q1014","temp":22,"dewp":12,"wdir":70,"wspd":6,"visib":"6+","altim":1014,"clouds":[],"obsTime":1784145600},"SBVH":{"icaoId":"SBVH","flightCategory":"VFR","rawOb":"METAR SBVH 152000Z 02005KT 9999 BKN040 31/19 Q1014","temp":31,"dewp":19,"wdir":20,"wspd":5,"visib":"6+","altim":1014,"clouds":[{"cover":"BKN","base":4000}],"obsTime":1784145600},"SBKG":{"icaoId":"SBKG","flightCategory":"MVFR","rawOb":"METAR SBKG 152000Z 14009KT 9999 BKN025 24/19 Q1019","temp":24,"dewp":19,"wdir":140,"wspd":9,"visib":"6+","altim":1019,"clouds":[{"cover":"BKN","base":2500}],"obsTime":1784145600},"SBAX":{"icaoId":"SBAX","flightCategory":"VFR","rawOb":"METAR SBAX 152000Z 07005KT CAVOK 24/09 Q1022","temp":24,"dewp":9,"wdir":70,"wspd":5,"visib":"6+","altim":1022,"clouds":[],"obsTime":1784145600},"SBBH":{"icaoId":"SBBH","flightCategory":"VFR","rawOb":"METAR SBBH 152000Z 10009KT CAVOK 20/09 Q1024","temp":20,"dewp":9,"wdir":100,"wspd":9,"visib":"6+","altim":1024,"clouds":[],"obsTime":1784145600},"SBBU":{"icaoId":"SBBU","flightCategory":"VFR","rawOb":"METAR SBBU 152000Z 13007KT CAVOK 24/12 Q1020","temp":24,"dewp":12,"wdir":130,"wspd":7,"visib":"6+","altim":1020,"clouds":[],"obsTime":1784145600},"SBDN":{"icaoId":"SBDN","flightCategory":"VFR","rawOb":"METAR SBDN 152000Z 05005KT CAVOK 26/11 Q1018","temp":26,"dewp":11,"wdir":50,"wspd":5,"visib":"6+","altim":1018,"clouds":[],"obsTime":1784145600},"SBIP":{"icaoId":"SBIP","flightCategory":"VFR","rawOb":"METAR SBIP 152000Z AUTO VRB02KT CAVOK 22/12 Q1023","temp":22,"dewp":12,"wdir":"VRB","wspd":2,"visib":"6+","altim":1023,"clouds":[],"obsTime":1784145600},"SBSC":{"icaoId":"SBSC","flightCategory":"VFR","rawOb":"METAR SBSC 152000Z 06006KT CAVOK 23/12 Q1021","temp":23,"dewp":12,"wdir":60,"wspd":6,"visib":"6+","altim":1021,"clouds":[],"obsTime":1784145600},"SBSR":{"icaoId":"SBSR","flightCategory":"VFR","rawOb":"METAR SBSR 152000Z 11004KT CAVOK 28/05 Q1018","temp":28,"dewp":5,"wdir":110,"wspd":4,"visib":"6+","altim":1018,"clouds":[],"obsTime":1784145600},"SBES":{"icaoId":"SBES","flightCategory":"VFR","rawOb":"METAR SBES 152000Z 07009KT CAVOK 20/// Q1023","temp":null,"dewp":null,"wdir":70,"wspd":9,"visib":"6+","altim":1023,"clouds":[],"obsTime":1784145600},"SBAR":{"icaoId":"SBAR","flightCategory":"VFR","rawOb":"METAR SBAR 152000Z 14013KT 9999 VCSH SCT023 BKN070 25/21 Q1019","temp":25,"dewp":21,"wdir":140,"wspd":13,"visib":"6+","altim":1019,"clouds":[{"cover":"SCT","base":2300},{"cover":"BKN","base":7000}],"obsTime":1784145600},"SBUY":{"icaoId":"SBUY","flightCategory":"IFR","rawOb":"METAR SBUY 152000Z 23006KT 3000 -RA FEW025 FEW030TCU 24/23 Q1010","temp":24,"dewp":23,"wdir":230,"wspd":6,"visib":1.86,"altim":1010,"clouds":[{"cover":"FEW","base":2500},{"cover":"FEW","base":3000}],"obsTime":1784145600},"SBCC":{"icaoId":"SBCC","flightCategory":"VFR","rawOb":"METAR SBCC 152000Z VRB02KT 9999 SCT030 FEW035TCU BKN100 29/21 Q1014","temp":29,"dewp":21,"wdir":"VRB","wspd":2,"visib":"6+","altim":1014,"clouds":[{"cover":"SCT","base":3000},{"cover":"FEW","base":3500},{"cover":"BKN","base":10000}],"obsTime":1784145600},"SBJP":{"icaoId":"SBJP","flightCategory":"VFR","rawOb":"METAR SBJP 152000Z 14012KT 9999 FEW030 26/22 Q1016","temp":26,"dewp":22,"wdir":140,"wspd":12,"visib":"6+","altim":1016,"clouds":[{"cover":"FEW","base":3000}],"obsTime":1784145600},"SBAN":{"icaoId":"SBAN","flightCategory":"VFR","rawOb":"METAR SBAN 152000Z 11006KT 9999 FEW045 25/14 Q1021","temp":25,"dewp":14,"wdir":110,"wspd":6,"visib":"6+","altim":1021,"clouds":[{"cover":"FEW","base":4500}],"obsTime":1784145600},"SBJV":{"icaoId":"SBJV","flightCategory":"VFR","rawOb":"METAR SBJV 152000Z 06006KT 9999 FEW025 SCT050 19/15 Q1020","temp":19,"dewp":15,"wdir":60,"wspd":6,"visib":"6+","altim":1020,"clouds":[{"cover":"FEW","base":2500},{"cover":"SCT","base":5000}],"obsTime":1784145600},"SBNM":{"icaoId":"SBNM","flightCategory":"VFR","rawOb":"METAR SBNM 152000Z AUTO 04009KT CAVOK 21/11 Q1014","temp":21,"dewp":11,"wdir":40,"wspd":9,"visib":"6+","altim":1014,"clouds":[],"obsTime":1784145600},"SBPF":{"icaoId":"SBPF","flightCategory":"VFR","rawOb":"METAR SBPF 152000Z 05010KT CAVOK 18/09 Q1018","temp":18,"dewp":9,"wdir":50,"wspd":10,"visib":"6+","altim":1018,"clouds":[],"obsTime":1784145600},"SBIH":{"icaoId":"SBIH","flightCategory":"VFR","rawOb":"METAR SBIH 152000Z 03003KT 9999 FEW020 31/24 Q1010","temp":31,"dewp":24,"wdir":30,"wspd":3,"visib":"6+","altim":1010,"clouds":[{"cover":"FEW","base":2000}],"obsTime":1784145600},"SBLE":{"icaoId":"SBLE","flightCategory":"VFR","rawOb":"METAR SBLE 152000Z AUTO 20002KT 9999 FEW038 OVC045 ///// Q1022","temp":null,"dewp":null,"wdir":200,"wspd":2,"visib":"6+","altim":1022,"clouds":[{"cover":"FEW","base":3800},{"cover":"OVC","base":4500}],"obsTime":1784145600},"SBAF":{"icaoId":"SBAF","flightCategory":"VFR","rawOb":"METAR SBAF 152000Z 11008KT CAVOK 22/13 Q1022","temp":22,"dewp":13,"wdir":110,"wspd":8,"visib":"6+","altim":1022,"clouds":[],"obsTime":1784145600},"SBGW":{"icaoId":"SBGW","flightCategory":"VFR","rawOb":"METAR SBGW 152000Z 02005KT 340V050 CAVOK 20/10 Q1022","temp":20,"dewp":10,"wdir":20,"wspd":5,"visib":"6+","altim":1022,"clouds":[],"obsTime":1784145600},"SBJR":{"icaoId":"SBJR","flightCategory":"VFR","rawOb":"METAR SBJR 152000Z 11006KT CAVOK 22/14 Q1022","temp":22,"dewp":14,"wdir":110,"wspd":6,"visib":"6+","altim":1022,"clouds":[],"obsTime":1784145600},"SBLS":{"icaoId":"SBLS","flightCategory":"VFR","rawOb":"METAR SBLS 152000Z 14013KT CAVOK 20/10 Q1024","temp":20,"dewp":10,"wdir":140,"wspd":13,"visib":"6+","altim":1024,"clouds":[],"obsTime":1784145600},"SBMT":{"icaoId":"SBMT","flightCategory":"VFR","rawOb":"METAR SBMT 152000Z 04002KT CAVOK 20/08 Q1019","temp":20,"dewp":8,"wdir":40,"wspd":2,"visib":"6+","altim":1019,"clouds":[],"obsTime":1784145600},"SBST":{"icaoId":"SBST","flightCategory":"VFR","rawOb":"METAR SBST 152000Z 16006KT CAVOK 21/13 Q1020","temp":21,"dewp":13,"wdir":160,"wspd":6,"visib":"6+","altim":1020,"clouds":[],"obsTime":1784145600},"SBTA":{"icaoId":"SBTA","flightCategory":"VFR","rawOb":"METAR SBTA 152000Z 04006KT CAVOK 20/11 Q1022","temp":20,"dewp":11,"wdir":40,"wspd":6,"visib":"6+","altim":1022,"clouds":[],"obsTime":1784145600}}}