{"updated":1779463657,"count":87,"data":{"SBPV":{"icaoId":"SBPV","flightCategory":"VFR","rawOb":"METAR SBPV 221400Z 17011KT 9999 FEW020 24/20 Q1017","temp":24,"dewp":20,"wdir":170,"wspd":11,"visib":"6+","altim":1017,"clouds":[{"cover":"FEW","base":2000}],"obsTime":1779458400},"SBAT":{"icaoId":"SBAT","flightCategory":"MVFR","rawOb":"METAR SBAT 221400Z 21006KT 9999 OVC015 25/22 Q1017","temp":25,"dewp":22,"wdir":210,"wspd":6,"visib":"6+","altim":1017,"clouds":[{"cover":"OVC","base":1500}],"obsTime":1779458400},"SBBE":{"icaoId":"SBBE","flightCategory":"VFR","rawOb":"METAR SBBE 221400Z 15006KT 9999 SCT020 BKN100 31/25 Q1013","temp":31,"dewp":25,"wdir":150,"wspd":6,"visib":"6+","altim":1013,"clouds":[{"cover":"SCT","base":2000},{"cover":"BKN","base":10000}],"obsTime":1779458400},"SBBR":{"icaoId":"SBBR","flightCategory":"VFR","rawOb":"METAR SBBR 221400Z 12012KT CAVOK 23/15 Q1024","temp":23,"dewp":15,"wdir":120,"wspd":12,"visib":"6+","altim":1024,"clouds":[],"obsTime":1779458400},"SBBV":{"icaoId":"SBBV","flightCategory":"MVFR","rawOb":"METAR SBBV 221400Z 27007KT 9999 SCT006 BKN025 FEW030TCU OVC080 24/23 Q1016 RERA","temp":24,"dewp":23,"wdir":270,"wspd":7,"visib":"6+","altim":1016,"clouds":[{"cover":"SCT","base":600},{"cover":"BKN","base":2500},{"cover":"FEW","base":3000},{"cover":"OVC","base":8000}],"obsTime":1779458400},"SBCB":{"icaoId":"SBCB","flightCategory":"MVFR","rawOb":"METAR SBCB 221400Z 11003KT 9999 BKN015 OVC020 22/17 Q1025","temp":22,"dewp":17,"wdir":110,"wspd":3,"visib":"6+","altim":1025,"clouds":[{"cover":"BKN","base":1500},{"cover":"OVC","base":2000}],"obsTime":1779458400},"SBCF":{"icaoId":"SBCF","flightCategory":"MVFR","rawOb":"METAR SBCF 221400Z 14009KT 9999 BKN016 22/17 Q1026","temp":22,"dewp":17,"wdir":140,"wspd":9,"visib":"6+","altim":1026,"clouds":[{"cover":"BKN","base":1600}],"obsTime":1779458400},"SBCG":{"icaoId":"SBCG","flightCategory":"VFR","rawOb":"METAR SBCG 221400Z 11004KT 070V150 9999 FEW030 BKN100 22/14 Q1023","temp":22,"dewp":14,"wdir":110,"wspd":4,"visib":"6+","altim":1023,"clouds":[{"cover":"FEW","base":3000},{"cover":"BKN","base":10000}],"obsTime":1779458400},"SBCP":{"icaoId":"SBCP","flightCategory":"VFR","rawOb":"METAR SBCP 221400Z 22010KT 9999 SCT020 OVC080 23/18 Q1024","temp":23,"dewp":18,"wdir":220,"wspd":10,"visib":"6+","altim":1024,"clouds":[{"cover":"SCT","base":2000},{"cover":"OVC","base":8000}],"obsTime":1779458400},"SBCR":{"icaoId":"SBCR","flightCategory":"VFR","rawOb":"METAR SBCR 221400Z VRB06KT 9999 OVC045 17/12 Q1023","temp":17,"dewp":12,"wdir":"VRB","wspd":6,"visib":"6+","altim":1023,"clouds":[{"cover":"OVC","base":4500}],"obsTime":1779458400},"SBCT":{"icaoId":"SBCT","flightCategory":"MVFR","rawOb":"METAR SBCT 221400Z 05006KT 9999 FEW015 BKN025 14/10 Q1028","temp":14,"dewp":10,"wdir":50,"wspd":6,"visib":"6+","altim":1028,"clouds":[{"cover":"FEW","base":1500},{"cover":"BKN","base":2500}],"obsTime":1779458400},"SBCZ":{"icaoId":"SBCZ","flightCategory":"VFR","rawOb":"METAR SBCZ 221400Z 13012KT 9999 SCT008 SCT100 24/20 Q1019","temp":24,"dewp":20,"wdir":130,"wspd":12,"visib":"6+","altim":1019,"clouds":[{"cover":"SCT","base":800},{"cover":"SCT","base":10000}],"obsTime":1779458400},"SBEG":{"icaoId":"SBEG","flightCategory":"IFR","rawOb":"METAR SBEG 221400Z 20003KT 170V240 4000 -RA BKN007 BKN012 BKN080 25/25 Q1015 RERA","temp":25,"dewp":25,"wdir":200,"wspd":3,"visib":2.49,"altim":1015,"clouds":[{"cover":"BKN","base":700},{"cover":"BKN","base":1200},{"cover":"BKN","base":8000}],"obsTime":1779458400},"SBFI":{"icaoId":"SBFI","flightCategory":"VFR","rawOb":"METAR SBFI 221400Z 27002KT 9999 SCT020 BKN080 14/13 Q1024","temp":14,"dewp":13,"wdir":270,"wspd":2,"visib":"6+","altim":1024,"clouds":[{"cover":"SCT","base":2000},{"cover":"BKN","base":8000}],"obsTime":1779458400},"SBFL":{"icaoId":"SBFL","flightCategory":"VFR","rawOb":"METAR SBFL 221400Z 19007KT 140V230 CAVOK 18/10 Q1027","temp":18,"dewp":10,"wdir":190,"wspd":7,"visib":"6+","altim":1027,"clouds":[],"obsTime":1779458400},"SBFZ":{"icaoId":"SBFZ","flightCategory":"MVFR","rawOb":"METAR SBFZ 221400Z 15012KT 9999 BKN030 30/23 Q1013","temp":30,"dewp":23,"wdir":150,"wspd":12,"visib":"6+","altim":1013,"clouds":[{"cover":"BKN","base":3000}],"obsTime":1779458400},"SBGL":{"icaoId":"SBGL","flightCategory":"MVFR","rawOb":"METAR SBGL 221400Z 02005KT 360V060 8000 FEW013 SCT040 OVC070 22/18 Q1025","temp":22,"dewp":18,"wdir":20,"wspd":5,"visib":4.97,"altim":1025,"clouds":[{"cover":"FEW","base":1300},{"cover":"SCT","base":4000},{"cover":"OVC","base":7000}],"obsTime":1779458400},"SBGO":{"icaoId":"SBGO","flightCategory":"VFR","rawOb":"METAR SBGO 221400Z 08013KT 050V110 CAVOK 27/17 Q1022","temp":27,"dewp":17,"wdir":80,"wspd":13,"visib":"6+","altim":1022,"clouds":[],"obsTime":1779458400},"SBGR":{"icaoId":"SBGR","flightCategory":"MVFR","rawOb":"METAR SBGR 221400Z 12006KT 9999 BKN013 BKN017 16/13 Q1027","temp":16,"dewp":13,"wdir":120,"wspd":6,"visib":"6+","altim":1027,"clouds":[{"cover":"BKN","base":1300},{"cover":"BKN","base":1700}],"obsTime":1779458400},"SBHT":{"icaoId":"SBHT","flightCategory":"MVFR","rawOb":"METAR SBHT 221400Z 12005KT 9999 BKN025 30/26 Q1014","temp":30,"dewp":26,"wdir":120,"wspd":5,"visib":"6+","altim":1014,"clouds":[{"cover":"BKN","base":2500}],"obsTime":1779458400},"SBIL":{"icaoId":"SBIL","flightCategory":"MVFR","rawOb":"METAR SBIL 221400Z 18006KT 130V210 9000 -RA BKN020 29/24 Q1019","temp":29,"dewp":24,"wdir":180,"wspd":6,"visib":5.59,"altim":1019,"clouds":[{"cover":"BKN","base":2000}],"obsTime":1779458400},"SBJU":{"icaoId":"SBJU","flightCategory":"VFR","rawOb":"METAR SBJU 221400Z 21009KT 9999 SCT020 29/19 Q1017","temp":29,"dewp":19,"wdir":210,"wspd":9,"visib":"6+","altim":1017,"clouds":[{"cover":"SCT","base":2000}],"obsTime":1779458400},"SBKP":{"icaoId":"SBKP","flightCategory":"VFR","rawOb":"METAR SBKP 221400Z 13009KT 9999 FEW033 BKN040 20/14 Q1025","temp":20,"dewp":14,"wdir":130,"wspd":9,"visib":"6+","altim":1025,"clouds":[{"cover":"FEW","base":3300},{"cover":"BKN","base":4000}],"obsTime":1779458400},"SBLO":{"icaoId":"SBLO","flightCategory":"VFR","rawOb":"METAR SBLO 221400Z 11007KT 9999 FEW020 BKN100 16/13 Q1025","temp":16,"dewp":13,"wdir":110,"wspd":7,"visib":"6+","altim":1025,"clouds":[{"cover":"FEW","base":2000},{"cover":"BKN","base":10000}],"obsTime":1779458400},"SBMA":{"icaoId":"SBMA","flightCategory":"VFR","rawOb":"METAR SBMA 221400Z 02004KT 9999 FEW020 31/24 Q1014","temp":31,"dewp":24,"wdir":20,"wspd":4,"visib":"6+","altim":1014,"clouds":[{"cover":"FEW","base":2000}],"obsTime":1779458400},"SBME":{"icaoId":"SBME","flightCategory":"VFR","rawOb":"METAR SBME 221400Z 29003KT 9999 BKN040 OVC070 25/17 Q1024","temp":25,"dewp":17,"wdir":290,"wspd":3,"visib":"6+","altim":1024,"clouds":[{"cover":"BKN","base":4000},{"cover":"OVC","base":7000}],"obsTime":1779458400},"SBMG":{"icaoId":"SBMG","flightCategory":"VFR","rawOb":"METAR SBMG 221400Z 09008KT 9999 OVC040 18/12 Q1024","temp":18,"dewp":12,"wdir":90,"wspd":8,"visib":"6+","altim":1024,"clouds":[{"cover":"OVC","base":4000}],"obsTime":1779458400},"SBMK":{"icaoId":"SBMK","flightCategory":"VFR","rawOb":"METAR SBMK 221400Z 08009KT 9999 OVC045 24/16 Q1024","temp":24,"dewp":16,"wdir":80,"wspd":9,"visib":"6+","altim":1024,"clouds":[{"cover":"OVC","base":4500}],"obsTime":1779458400},"SBMO":{"icaoId":"SBMO","flightCategory":"VFR","rawOb":"METAR SBMO 221400Z 20009KT 9999 SCT020 27/22 Q1017","temp":27,"dewp":22,"wdir":200,"wspd":9,"visib":"6+","altim":1017,"clouds":[{"cover":"SCT","base":2000}],"obsTime":1779458400},"SBMQ":{"icaoId":"SBMQ","flightCategory":"VFR","rawOb":"METAR SBMQ 221400Z 06010KT 9999 SCT019 31/25 Q1013","temp":31,"dewp":25,"wdir":60,"wspd":10,"visib":"6+","altim":1013,"clouds":[{"cover":"SCT","base":1900}],"obsTime":1779458400},"SBNT":{"icaoId":"SBNT","flightCategory":"VFR","rawOb":"METAR SBNT 221400Z 15014KT 130V190 9999 SCT033 30/22 Q1014","temp":30,"dewp":22,"wdir":150,"wspd":14,"visib":"6+","altim":1014,"clouds":[{"cover":"SCT","base":3300}],"obsTime":1779458400},"SBPA":{"icaoId":"SBPA","flightCategory":"MVFR","rawOb":"METAR SBPA 221400Z VRB04KT 9999 BKN014 15/11 Q1028","temp":15,"dewp":11,"wdir":"VRB","wspd":4,"visib":"6+","altim":1028,"clouds":[{"cover":"BKN","base":1400}],"obsTime":1779458400},"SBPJ":{"icaoId":"SBPJ","flightCategory":"VFR","rawOb":"METAR SBPJ 221400Z 13009KT CAVOK 32/19 Q1016","temp":32,"dewp":19,"wdir":130,"wspd":9,"visib":"6+","altim":1016,"clouds":[],"obsTime":1779458400},"SBRB":{"icaoId":"SBRB","flightCategory":"VFR","rawOb":"METAR SBRB 221400Z 16002KT 9999 SCT040 22/17 Q1020","temp":22,"dewp":17,"wdir":160,"wspd":2,"visib":"6+","altim":1020,"clouds":[{"cover":"SCT","base":4000}],"obsTime":1779458400},"SBRF":{"icaoId":"SBRF","flightCategory":"VFR","rawOb":"METAR SBRF 221400Z 15012KT 9999 SCT025 29/24 Q1015","temp":29,"dewp":24,"wdir":150,"wspd":12,"visib":"6+","altim":1015,"clouds":[{"cover":"SCT","base":2500}],"obsTime":1779458400},"SBSG":{"icaoId":"SBSG","flightCategory":"VFR","rawOb":"METAR SBSG 221400Z 15009KT 110V220 9999 SCT030 29/22 Q1014","temp":29,"dewp":22,"wdir":150,"wspd":9,"visib":"6+","altim":1014,"clouds":[{"cover":"SCT","base":3000}],"obsTime":1779458400},"SBSL":{"icaoId":"SBSL","flightCategory":"VFR","rawOb":"METAR SBSL 221400Z 08005KT 9999 SCT025 32/24 Q1013","temp":32,"dewp":24,"wdir":80,"wspd":5,"visib":"6+","altim":1013,"clouds":[{"cover":"SCT","base":2500}],"obsTime":1779458400},"SBSN":{"icaoId":"SBSN","flightCategory":"VFR","rawOb":"METAR SBSN 221400Z 07008KT 9999 SCT023 30/25 Q1014","temp":30,"dewp":25,"wdir":70,"wspd":8,"visib":"6+","altim":1014,"clouds":[{"cover":"SCT","base":2300}],"obsTime":1779458400},"SBSP":{"icaoId":"SBSP","flightCategory":"IFR","rawOb":"METAR SBSP 221400Z 15009KT 8000 OVC007 15/14 Q1028","temp":15,"dewp":14,"wdir":150,"wspd":9,"visib":4.97,"altim":1028,"clouds":[{"cover":"OVC","base":700}],"obsTime":1779458400},"SBSV":{"icaoId":"SBSV","flightCategory":"VFR","rawOb":"METAR SBSV 221400Z 14011KT 9999 SCT025 29/22 Q1018","temp":29,"dewp":22,"wdir":140,"wspd":11,"visib":"6+","altim":1018,"clouds":[{"cover":"SCT","base":2500}],"obsTime":1779458400},"SBTE":{"icaoId":"SBTE","flightCategory":"VFR","rawOb":"METAR SBTE 221400Z 13007KT 9999 FEW020 31/21 Q1013","temp":31,"dewp":21,"wdir":130,"wspd":7,"visib":"6+","altim":1013,"clouds":[{"cover":"FEW","base":2000}],"obsTime":1779458400},"SBUL":{"icaoId":"SBUL","flightCategory":"VFR","rawOb":"METAR SBUL 221400Z 09014KT 9999 SCT030 24/16 Q1024","temp":24,"dewp":16,"wdir":90,"wspd":14,"visib":"6+","altim":1024,"clouds":[{"cover":"SCT","base":3000}],"obsTime":1779458400},"SBUR":{"icaoId":"SBUR","flightCategory":"VFR","rawOb":"METAR SBUR 221400Z 03007KT 9999 FEW025 25/15 Q1023","temp":25,"dewp":15,"wdir":30,"wspd":7,"visib":"6+","altim":1023,"clouds":[{"cover":"FEW","base":2500}],"obsTime":1779458400},"SBVT":{"icaoId":"SBVT","flightCategory":"VFR","rawOb":"METAR SBVT 221400Z 20014KT 9999 FEW026 BKN040 24/18 Q1023","temp":24,"dewp":18,"wdir":200,"wspd":14,"visib":"6+","altim":1023,"clouds":[{"cover":"FEW","base":2600},{"cover":"BKN","base":4000}],"obsTime":1779458400},"SBTU":{"icaoId":"SBTU","flightCategory":"VFR","rawOb":"METAR SBTU 221400Z AUTO 25005KT 200V280 9999 // FEW017/// 29/25 Q1015","temp":29,"dewp":25,"wdir":250,"wspd":5,"visib":"6+","altim":1015,"clouds":[{"cover":"FEW","base":1700}],"obsTime":1779458400},"SBAR":{"icaoId":"SBAR","flightCategory":"VFR","rawOb":"METAR SBAR 221400Z 15012KT 9999 SCT025 BKN050 29/23 Q1017","temp":29,"dewp":23,"wdir":150,"wspd":12,"visib":"6+","altim":1017,"clouds":[{"cover":"SCT","base":2500},{"cover":"BKN","base":5000}],"obsTime":1779458400},"SBVH":{"icaoId":"SBVH","flightCategory":"IFR","rawOb":"METAR SBVH 221400Z 15011KT 9999 OVC006 18/16 Q1021","temp":18,"dewp":16,"wdir":150,"wspd":11,"visib":"6+","altim":1021,"clouds":[{"cover":"OVC","base":600}],"obsTime":1779458400},"SBAX":{"icaoId":"SBAX","flightCategory":"MVFR","rawOb":"METAR SBAX 221400Z 07007KT 9999 BKN018 BKN022 22/17 Q1025","temp":22,"dewp":17,"wdir":70,"wspd":7,"visib":"6+","altim":1025,"clouds":[{"cover":"BKN","base":1800},{"cover":"BKN","base":2200}],"obsTime":1779458400},"SBBH":{"icaoId":"SBBH","flightCategory":"MVFR","rawOb":"METAR SBBH 221400Z 10007KT 9999 BKN023 22/16 Q1026","temp":22,"dewp":16,"wdir":100,"wspd":7,"visib":"6+","altim":1026,"clouds":[{"cover":"BKN","base":2300}],"obsTime":1779458400},"SBBQ":{"icaoId":"SBBQ","flightCategory":"IFR","rawOb":"METAR SBBQ 221400Z 09007KT 060V130 5000 BR OVC007 15/14 Q1030","temp":15,"dewp":14,"wdir":90,"wspd":7,"visib":3.11,"altim":1030,"clouds":[{"cover":"OVC","base":700}],"obsTime":1779458400},"SBBU":{"icaoId":"SBBU","flightCategory":"VFR","rawOb":"METAR SBBU 221400Z 10008KT CAVOK 21/15 Q1024","temp":21,"dewp":15,"wdir":100,"wspd":8,"visib":"6+","altim":1024,"clouds":[],"obsTime":1779458400},"SBCC":{"icaoId":"SBCC","flightCategory":"VFR","rawOb":"METAR SBCC 221400Z 14006KT 9999 SCT020 SCT100 26/21 Q1017","temp":26,"dewp":21,"wdir":140,"wspd":6,"visib":"6+","altim":1017,"clouds":[{"cover":"SCT","base":2000},{"cover":"SCT","base":10000}],"obsTime":1779458400},"SBCJ":{"icaoId":"SBCJ","flightCategory":"VFR","rawOb":"METAR SBCJ 221400Z 09004KT 9999 FEW012 28/21 Q1019","temp":28,"dewp":21,"wdir":90,"wspd":4,"visib":"6+","altim":1019,"clouds":[{"cover":"FEW","base":1200}],"obsTime":1779458400},"SBCO":{"icaoId":"SBCO","flightCategory":"MVFR","rawOb":"METAR SBCO 221400Z 14004KT 080V190 9999 SCT012 BKN023 14/10 Q1028","temp":14,"dewp":10,"wdir":140,"wspd":4,"visib":"6+","altim":1028,"clouds":[{"cover":"SCT","base":1200},{"cover":"BKN","base":2300}],"obsTime":1779458400},"SBDN":{"icaoId":"SBDN","flightCategory":"VFR","rawOb":"METAR SBDN 221400Z 10009KT 9999 SCT040 20/12 Q1023","temp":20,"dewp":12,"wdir":100,"wspd":9,"visib":"6+","altim":1023,"clouds":[{"cover":"SCT","base":4000}],"obsTime":1779458400},"SBES":{"icaoId":"SBES","flightCategory":"VFR","rawOb":"METAR SBES 221400Z 15006KT 100V190 9999 SCT015 BKN040 OVC070 20/// Q1025","temp":null,"dewp":null,"wdir":150,"wspd":6,"visib":"6+","altim":1025,"clouds":[{"cover":"SCT","base":1500},{"cover":"BKN","base":4000},{"cover":"OVC","base":7000}],"obsTime":1779458400},"SBGM":{"icaoId":"SBGM","flightCategory":"MVFR","rawOb":"METAR SBGM 221400Z 11009KT 9999 BKN018 OVC023 22/16 Q1019","temp":22,"dewp":16,"wdir":110,"wspd":9,"visib":"6+","altim":1019,"clouds":[{"cover":"BKN","base":1800},{"cover":"OVC","base":2300}],"obsTime":1779458400},"SBKG":{"icaoId":"SBKG","flightCategory":"VFR","rawOb":"METAR SBKG 221400Z 18009KT 9999 SCT015 27/19 Q1018","temp":27,"dewp":19,"wdir":180,"wspd":9,"visib":"6+","altim":1018,"clouds":[{"cover":"SCT","base":1500}],"obsTime":1779458400},"SBOI":{"icaoId":"SBOI","flightCategory":"VFR","rawOb":"METAR SBOI 221400Z AUTO 10004KT 060V140 9999 FEW010 27/24 Q1015","temp":27,"dewp":24,"wdir":100,"wspd":4,"visib":"6+","altim":1015,"clouds":[{"cover":"FEW","base":1000}],"obsTime":1779458400},"SBPB":{"icaoId":"SBPB","flightCategory":"VFR","rawOb":"METAR SBPB 221400Z 08007KT 9999 FEW020 31/24 Q1012","temp":31,"dewp":24,"wdir":80,"wspd":7,"visib":"6+","altim":1012,"clouds":[{"cover":"FEW","base":2000}],"obsTime":1779458400},"SBPL":{"icaoId":"SBPL","flightCategory":"MVFR","rawOb":"METAR SBPL 221400Z 08012KT 9999 BKN025 29/19 Q1018","temp":29,"dewp":19,"wdir":80,"wspd":12,"visib":"6+","altim":1018,"clouds":[{"cover":"BKN","base":2500}],"obsTime":1779458400},"SBPP":{"icaoId":"SBPP","flightCategory":"VFR","rawOb":"METAR SBPP 221400Z 16004KT 9999 FEW020 BKN070 17/11 Q1024","temp":17,"dewp":11,"wdir":160,"wspd":4,"visib":"6+","altim":1024,"clouds":[{"cover":"FEW","base":2000},{"cover":"BKN","base":7000}],"obsTime":1779458400},"SBPS":{"icaoId":"SBPS","flightCategory":"MVFR","rawOb":"METAR SBPS 221400Z 16005KT 6000 -RA BKN015 OVC030 24/23 Q1020","temp":24,"dewp":23,"wdir":160,"wspd":5,"visib":3.73,"altim":1020,"clouds":[{"cover":"BKN","base":1500},{"cover":"OVC","base":3000}],"obsTime":1779458400},"SBSC":{"icaoId":"SBSC","flightCategory":"VFR","rawOb":"METAR SBSC 221400Z VRB02KT 9999 FEW008 SCT015 BKN040 22/18 Q1025","temp":22,"dewp":18,"wdir":"VRB","wspd":2,"visib":"6+","altim":1025,"clouds":[{"cover":"FEW","base":800},{"cover":"SCT","base":1500},{"cover":"BKN","base":4000}],"obsTime":1779458400},"SBSJ":{"icaoId":"SBSJ","flightCategory":"MVFR","rawOb":"METAR SBSJ 221400Z COR 32002KT 9000 SCT014 BKN017 OVC040 17/14 Q1027","temp":17,"dewp":14,"wdir":320,"wspd":2,"visib":5.59,"altim":1027,"clouds":[{"cover":"SCT","base":1400},{"cover":"BKN","base":1700},{"cover":"OVC","base":4000}],"obsTime":1779458400},"SBSM":{"icaoId":"SBSM","flightCategory":"MVFR","rawOb":"METAR SBSM 221400Z 10009KT 070V130 9999 BKN011 BKN020 12/10 Q1027","temp":12,"dewp":10,"wdir":100,"wspd":9,"visib":"6+","altim":1027,"clouds":[{"cover":"BKN","base":1100},{"cover":"BKN","base":2000}],"obsTime":1779458400},"SBSR":{"icaoId":"SBSR","flightCategory":"VFR","rawOb":"METAR SBSR 221400Z 18004KT 9999 FEW040 BKN100 21/15 Q1023","temp":21,"dewp":15,"wdir":180,"wspd":4,"visib":"6+","altim":1023,"clouds":[{"cover":"FEW","base":4000},{"cover":"BKN","base":10000}],"obsTime":1779458400},"SBTD":{"icaoId":"SBTD","flightCategory":"VFR","rawOb":"METAR SBTD 221400Z /////KT 9999 FEW004 SCT030 BKN070 15/14 Q1024","temp":15,"dewp":14,"wdir":null,"wspd":null,"visib":"6+","altim":1024,"clouds":[{"cover":"FEW","base":400},{"cover":"SCT","base":3000},{"cover":"BKN","base":7000}],"obsTime":1779458400},"SBTF":{"icaoId":"SBTF","flightCategory":"VFR","rawOb":"METAR SBTF 221400Z 20006KT 9999 SCT010 BKN090 26/23 Q1015","temp":26,"dewp":23,"wdir":200,"wspd":6,"visib":"6+","altim":1015,"clouds":[{"cover":"SCT","base":1000},{"cover":"BKN","base":9000}],"obsTime":1779458400},"SBTT":{"icaoId":"SBTT","flightCategory":"IFR","rawOb":"METAR SBTT 221400Z 19008KT 4000 BR BKN012 OVC055 23/20 Q1018","temp":23,"dewp":20,"wdir":190,"wspd":8,"visib":2.49,"altim":1018,"clouds":[{"cover":"BKN","base":1200},{"cover":"OVC","base":5500}],"obsTime":1779458400},"SBUY":{"icaoId":"SBUY","flightCategory":"MVFR","rawOb":"METAR SBUY 221400Z 18006KT 9999 BKN015 BKN070 24/22 Q1015","temp":24,"dewp":22,"wdir":180,"wspd":6,"visib":"6+","altim":1015,"clouds":[{"cover":"BKN","base":1500},{"cover":"BKN","base":7000}],"obsTime":1779458400},"SBCA":{"icaoId":"SBCA","flightCategory":"IFR","rawOb":"METAR SBCA 221400Z 03005KT 010V070 4000 1500W -RA BR SCT010 BKN020 BKN080 15/13 Q1025","temp":15,"dewp":13,"wdir":30,"wspd":5,"visib":2.49,"altim":1025,"clouds":[{"cover":"SCT","base":1000},{"cover":"BKN","base":2000},{"cover":"BKN","base":8000}],"obsTime":1779458400},"SBAU":{"icaoId":"SBAU","flightCategory":"VFR","rawOb":"METAR SBAU 221400Z 12012KT CAVOK 21/14 Q1023","temp":21,"dewp":14,"wdir":120,"wspd":12,"visib":"6+","altim":1023,"clouds":[],"obsTime":1779458400},"SBAF":{"icaoId":"SBAF","flightCategory":"VFR","rawOb":" SBAF 221400Z 08002KT 9999 FEW010 SCT020 BKN070 22/20 Q1025","temp":22,"dewp":20,"wdir":80,"wspd":2,"visib":"6+","altim":1025,"clouds":[{"cover":"FEW","base":1000},{"cover":"SCT","base":2000},{"cover":"BKN","base":7000}],"obsTime":1779458400},"SBGW":{"icaoId":"SBGW","flightCategory":"MVFR","rawOb":"METAR SBGW 221400Z 02006KT 340V060 5000 HZ BKN013 OVC018 18/13 Q1026","temp":18,"dewp":13,"wdir":20,"wspd":6,"visib":3.11,"altim":1026,"clouds":[{"cover":"BKN","base":1300},{"cover":"OVC","base":1800}],"obsTime":1779458400},"SBJR":{"icaoId":"SBJR","flightCategory":"VFR","rawOb":"METAR SBJR 221400Z 07001KT 9999 FEW018 SCT035 BKN060 23/18 Q1025","temp":23,"dewp":18,"wdir":70,"wspd":1,"visib":"6+","altim":1025,"clouds":[{"cover":"FEW","base":1800},{"cover":"SCT","base":3500},{"cover":"BKN","base":6000}],"obsTime":1779458400},"SBAN":{"icaoId":"SBAN","flightCategory":"VFR","rawOb":"METAR SBAN 221400Z 16016KT CAVOK 23/14 Q1025","temp":23,"dewp":14,"wdir":160,"wspd":16,"visib":"6+","altim":1025,"clouds":[],"obsTime":1779458400},"SBLS":{"icaoId":"SBLS","flightCategory":"VFR","rawOb":"METAR SBLS 221400Z 15012KT 070V150 9999 FEW010 SCT020 21/17 Q1025","temp":21,"dewp":17,"wdir":150,"wspd":12,"visib":"6+","altim":1025,"clouds":[{"cover":"FEW","base":1000},{"cover":"SCT","base":2000}],"obsTime":1779458400},"SBJV":{"icaoId":"SBJV","flightCategory":"VFR","rawOb":"METAR SBJV 221400Z 11005KT 9999 FEW030 19/11 Q1027","temp":19,"dewp":11,"wdir":110,"wspd":5,"visib":"6+","altim":1027,"clouds":[{"cover":"FEW","base":3000}],"obsTime":1779458400},"SBMT":{"icaoId":"SBMT","flightCategory":"MVFR","rawOb":"METAR SBMT 221400Z 11009KT 9999 SCT008 BKN014 OVC020 16/13 Q1027","temp":16,"dewp":13,"wdir":110,"wspd":9,"visib":"6+","altim":1027,"clouds":[{"cover":"SCT","base":800},{"cover":"BKN","base":1400},{"cover":"OVC","base":2000}],"obsTime":1779458400},"SBIH":{"icaoId":"SBIH","flightCategory":"VFR","rawOb":"METAR SBIH 221400Z 15003KT 9999 SCT015 29/25 Q1014","temp":29,"dewp":25,"wdir":150,"wspd":3,"visib":"6+","altim":1014,"clouds":[{"cover":"SCT","base":1500}],"obsTime":1779458400},"SBST":{"icaoId":"SBST","flightCategory":"LIFR","rawOb":"METAR SBST 221400Z 04002KT 1000 -DZ BR OVC006 17/17 Q1026","temp":17,"dewp":17,"wdir":40,"wspd":2,"visib":0.62,"altim":1026,"clouds":[{"cover":"OVC","base":600}],"obsTime":1779458400},"SBLE":{"icaoId":"SBLE","flightCategory":"IFR","rawOb":"METAR SBLE 221400Z AUTO 18004KT 120V240 9999 SCT006 BKN009 OVC011 ///// Q////","temp":null,"dewp":null,"wdir":180,"wspd":4,"visib":"6+","altim":null,"clouds":[{"cover":"SCT","base":600},{"cover":"BKN","base":900},{"cover":"OVC","base":1100}],"obsTime":1779458400},"SBTA":{"icaoId":"SBTA","flightCategory":"MVFR","rawOb":" SBTA 221400Z 06005KT 020V100 9999 SCT014 BKN025 OVC040 18/15 Q1026","temp":18,"dewp":15,"wdir":60,"wspd":5,"visib":"6+","altim":1026,"clouds":[{"cover":"SCT","base":1400},{"cover":"BKN","base":2500},{"cover":"OVC","base":4000}],"obsTime":1779458400},"SBJP":{"icaoId":"SBJP","flightCategory":"MVFR","rawOb":"METAR SBJP 221400Z 13012KT 9999 BKN025 30/22 Q1015","temp":30,"dewp":22,"wdir":130,"wspd":12,"visib":"6+","altim":1015,"clouds":[{"cover":"BKN","base":2500}],"obsTime":1779458400},"SBNM":{"icaoId":"SBNM","flightCategory":"VFR","rawOb":"METAR SBNM 221400Z 13005KT 9999 SCT040 BKN080 11/05 Q1025","temp":11,"dewp":5,"wdir":130,"wspd":5,"visib":"6+","altim":1025,"clouds":[{"cover":"SCT","base":4000},{"cover":"BKN","base":8000}],"obsTime":1779458400},"SBPF":{"icaoId":"SBPF","flightCategory":"VFR","rawOb":"METAR SBPF 221400Z 04010KT CAVOK 12/08 Q1025","temp":12,"dewp":8,"wdir":40,"wspd":10,"visib":"6+","altim":1025,"clouds":[],"obsTime":1779458400}}}