{"updated":1775893256,"count":49,"data":{"SBFZ":{"icaoId":"SBFZ","flightCategory":"VFR","rawOb":"METAR SBFZ 110600Z 12011KT 9999 SCT017 25/24 Q1010","temp":25,"dewp":24,"wdir":120,"wspd":11,"visib":"6+","altim":1010,"clouds":[{"cover":"SCT","base":1700}],"obsTime":1775887200},"SBMG":{"icaoId":"SBMG","flightCategory":"VFR","rawOb":"METAR SBMG 110600Z AUTO 07016KT CAVOK 20/17 Q1016","temp":20,"dewp":17,"wdir":70,"wspd":16,"visib":"6+","altim":1016,"clouds":[],"obsTime":1775887200},"SBMO":{"icaoId":"SBMO","flightCategory":"VFR","rawOb":"METAR SBMO 110600Z 33003KT 9999 FEW020 23/23 Q1012","temp":23,"dewp":23,"wdir":330,"wspd":3,"visib":"6+","altim":1012,"clouds":[{"cover":"FEW","base":2000}],"obsTime":1775887200},"SBGL":{"icaoId":"SBGL","flightCategory":"VFR","rawOb":"METAR SBGL 110600Z 32003KT 9999 SCT030 OVC070 22/18 Q1018","temp":22,"dewp":18,"wdir":320,"wspd":3,"visib":"6+","altim":1018,"clouds":[{"cover":"SCT","base":3000},{"cover":"OVC","base":7000}],"obsTime":1775887200},"SBMQ":{"icaoId":"SBMQ","flightCategory":"VFR","rawOb":"METAR SBMQ 110600Z 02003KT 9999 SCT040 BKN070 25/24 Q1011","temp":25,"dewp":24,"wdir":20,"wspd":3,"visib":"6+","altim":1011,"clouds":[{"cover":"SCT","base":4000},{"cover":"BKN","base":7000}],"obsTime":1775887200},"SBCF":{"icaoId":"SBCF","flightCategory":"MVFR","rawOb":"METAR SBCF 110600Z VRB02KT 9000 BCFG BKN013 BKN090 20/19 Q1020","temp":20,"dewp":19,"wdir":"VRB","wspd":2,"visib":5.59,"altim":1020,"clouds":[{"cover":"BKN","base":1300},{"cover":"BKN","base":9000}],"obsTime":1775887200},"SBNT":{"icaoId":"SBNT","flightCategory":"VFR","rawOb":"METAR SBNT 110600Z 19005KT 9999 FEW025 25/23 Q1011","temp":25,"dewp":23,"wdir":190,"wspd":5,"visib":"6+","altim":1011,"clouds":[{"cover":"FEW","base":2500}],"obsTime":1775887200},"SBGO":{"icaoId":"SBGO","flightCategory":"VFR","rawOb":"METAR SBGO 110600Z VRB01KT CAVOK 22/21 Q1016","temp":22,"dewp":21,"wdir":"VRB","wspd":1,"visib":"6+","altim":1016,"clouds":[],"obsTime":1775887200},"SBBV":{"icaoId":"SBBV","flightCategory":"VFR","rawOb":"METAR SBBV 110600Z 14007KT 9999 FEW035 FEW045TCU BKN100 27/23 Q1011","temp":27,"dewp":23,"wdir":140,"wspd":7,"visib":"6+","altim":1011,"clouds":[{"cover":"FEW","base":3500},{"cover":"FEW","base":4500},{"cover":"BKN","base":10000}],"obsTime":1775887200},"SBPA":{"icaoId":"SBPA","flightCategory":"VFR","rawOb":"METAR SBPA 110600Z 06004KT CAVOK 15/13 Q1018","temp":15,"dewp":13,"wdir":60,"wspd":4,"visib":"6+","altim":1018,"clouds":[],"obsTime":1775887200},"SBGR":{"icaoId":"SBGR","flightCategory":"VFR","rawOb":"METAR SBGR 110600Z 08007KT CAVOK 16/14 Q1021","temp":16,"dewp":14,"wdir":80,"wspd":7,"visib":"6+","altim":1021,"clouds":[],"obsTime":1775887200},"SBPJ":{"icaoId":"SBPJ","flightCategory":"VFR","rawOb":"METAR SBPJ 110600Z 11004KT 9999 FEW011 24/24 Q1012","temp":24,"dewp":24,"wdir":110,"wspd":4,"visib":"6+","altim":1012,"clouds":[{"cover":"FEW","base":1100}],"obsTime":1775887200},"SBPV":{"icaoId":"SBPV","flightCategory":"VFR","rawOb":"METAR SBPV 110600Z 00000KT CAVOK 25/24 Q1011","temp":25,"dewp":24,"wdir":0,"wspd":0,"visib":"6+","altim":1011,"clouds":[],"obsTime":1775887200},"SBEG":{"icaoId":"SBEG","flightCategory":"VFR","rawOb":"METAR SBEG 110600Z 30001KT 9999 FEW020 SCT060 25/24 Q1011","temp":25,"dewp":24,"wdir":300,"wspd":1,"visib":"6+","altim":1011,"clouds":[{"cover":"FEW","base":2000},{"cover":"SCT","base":6000}],"obsTime":1775887200},"SBCG":{"icaoId":"SBCG","flightCategory":"VFR","rawOb":"METAR SBCG 110600Z 08010KT CAVOK 22/20 Q1015","temp":22,"dewp":20,"wdir":80,"wspd":10,"visib":"6+","altim":1015,"clouds":[],"obsTime":1775887200},"SBRB":{"icaoId":"SBRB","flightCategory":"MVFR","rawOb":"METAR SBRB 110600Z 00000KT 8000 FEW020 SCT065 23/23 Q1013","temp":23,"dewp":23,"wdir":0,"wspd":0,"visib":4.97,"altim":1013,"clouds":[{"cover":"FEW","base":2000},{"cover":"SCT","base":6500}],"obsTime":1775887200},"SBRF":{"icaoId":"SBRF","flightCategory":"VFR","rawOb":"METAR SBRF 110600Z 22004KT 9999 SCT023 26/23 Q1012","temp":26,"dewp":23,"wdir":220,"wspd":4,"visib":"6+","altim":1012,"clouds":[{"cover":"SCT","base":2300}],"obsTime":1775887200},"SBJU":{"icaoId":"SBJU","flightCategory":"VFR","rawOb":"METAR SBJU 110600Z 00000KT 9999 FEW020 22/22 Q1014","temp":22,"dewp":22,"wdir":0,"wspd":0,"visib":"6+","altim":1014,"clouds":[{"cover":"FEW","base":2000}],"obsTime":1775887200},"SBSG":{"icaoId":"SBSG","flightCategory":"VFR","rawOb":"METAR SBSG 110600Z 20005KT 9999 SCT020 24/23 Q1011","temp":24,"dewp":23,"wdir":200,"wspd":5,"visib":"6+","altim":1011,"clouds":[{"cover":"SCT","base":2000}],"obsTime":1775887200},"SBFI":{"icaoId":"SBFI","flightCategory":"VFR","rawOb":"METAR SBFI 110600Z 09006KT CAVOK 19/19 Q1014","temp":19,"dewp":19,"wdir":90,"wspd":6,"visib":"6+","altim":1014,"clouds":[],"obsTime":1775887200},"SBSL":{"icaoId":"SBSL","flightCategory":"VFR","rawOb":"METAR SBSL 110600Z 11009KT CAVOK 26/24 Q1011","temp":26,"dewp":24,"wdir":110,"wspd":9,"visib":"6+","altim":1011,"clouds":[],"obsTime":1775887200},"SBKP":{"icaoId":"SBKP","flightCategory":"VFR","rawOb":"METAR SBKP 110600Z 12008KT CAVOK 17/14 Q1019","temp":17,"dewp":14,"wdir":120,"wspd":8,"visib":"6+","altim":1019,"clouds":[],"obsTime":1775887200},"SBBR":{"icaoId":"SBBR","flightCategory":"VFR","rawOb":"METAR SBBR 110600Z 25001KT CAVOK 19/18 Q1018","temp":19,"dewp":18,"wdir":250,"wspd":1,"visib":"6+","altim":1018,"clouds":[],"obsTime":1775887200},"SBSN":{"icaoId":"SBSN","flightCategory":"MVFR","rawOb":"METAR SBSN 110600Z 12004KT 9999 BKN015 FEW023TCU BKN100 27/25 Q1011 RETS","temp":27,"dewp":25,"wdir":120,"wspd":4,"visib":"6+","altim":1011,"clouds":[{"cover":"BKN","base":1500},{"cover":"FEW","base":2300},{"cover":"BKN","base":10000}],"obsTime":1775887200},"SBLO":{"icaoId":"SBLO","flightCategory":"MVFR","rawOb":"METAR SBLO 110600Z 13008KT 9999 BKN020 SCT100 19/17 Q1019","temp":19,"dewp":17,"wdir":130,"wspd":8,"visib":"6+","altim":1019,"clouds":[{"cover":"BKN","base":2000},{"cover":"SCT","base":10000}],"obsTime":1775887200},"SBSP":{"icaoId":"SBSP","flightCategory":"VFR","rawOb":"METAR SBSP 110600Z AUTO 16006KT CAVOK 15/14 Q1022","temp":15,"dewp":14,"wdir":160,"wspd":6,"visib":"6+","altim":1022,"clouds":[],"obsTime":1775887200},"SBMA":{"icaoId":"SBMA","flightCategory":"VFR","rawOb":"METAR SBMA 110600Z 15003KT 9999 TS SCT010 FEW020CB BKN080 25/23 Q1011","temp":25,"dewp":23,"wdir":150,"wspd":3,"visib":"6+","altim":1011,"clouds":[{"cover":"SCT","base":1000},{"cover":"FEW","base":2000},{"cover":"BKN","base":8000}],"obsTime":1775887200},"SBSV":{"icaoId":"SBSV","flightCategory":"VFR","rawOb":"METAR SBSV 110600Z 11006KT 9999 SCT023 27/21 Q1013","temp":27,"dewp":21,"wdir":110,"wspd":6,"visib":"6+","altim":1013,"clouds":[{"cover":"SCT","base":2300}],"obsTime":1775887200},"SBTE":{"icaoId":"SBTE","flightCategory":"VFR","rawOb":"METAR SBTE 110600Z 36005KT 9999 SCT008 SCT020 25/24 Q1011 RETS","temp":25,"dewp":24,"wdir":360,"wspd":5,"visib":"6+","altim":1011,"clouds":[{"cover":"SCT","base":800},{"cover":"SCT","base":2000}],"obsTime":1775887200},"SBFL":{"icaoId":"SBFL","flightCategory":"VFR","rawOb":"METAR SBFL 110600Z 27007KT CAVOK 19/17 Q1020","temp":19,"dewp":17,"wdir":270,"wspd":7,"visib":"6+","altim":1020,"clouds":[],"obsTime":1775887200},"SBCT":{"icaoId":"SBCT","flightCategory":"MVFR","rawOb":"METAR SBCT 110600Z 08003KT 9999 BKN015 14/14 Q1022","temp":14,"dewp":14,"wdir":80,"wspd":3,"visib":"6+","altim":1022,"clouds":[{"cover":"BKN","base":1500}],"obsTime":1775887200},"SBUL":{"icaoId":"SBUL","flightCategory":"VFR","rawOb":"METAR SBUL 110600Z 13006KT CAVOK 21/19 Q1018","temp":21,"dewp":19,"wdir":130,"wspd":6,"visib":"6+","altim":1018,"clouds":[],"obsTime":1775887200},"SBME":{"icaoId":"SBME","flightCategory":"VFR","rawOb":"METAR SBME 110600Z 30004KT 9999 SCT020 BKN080 22/19 Q1018","temp":22,"dewp":19,"wdir":300,"wspd":4,"visib":"6+","altim":1018,"clouds":[{"cover":"SCT","base":2000},{"cover":"BKN","base":8000}],"obsTime":1775887200},"SBUR":{"icaoId":"SBUR","flightCategory":"VFR","rawOb":"METAR SBUR 110600Z 09005KT CAVOK 22/17 Q1017","temp":22,"dewp":17,"wdir":90,"wspd":5,"visib":"6+","altim":1017,"clouds":[],"obsTime":1775887200},"SBVT":{"icaoId":"SBVT","flightCategory":"MVFR","rawOb":"METAR SBVT 110600Z 24003KT 9999 OVC025 22/21 Q1017","temp":22,"dewp":21,"wdir":240,"wspd":3,"visib":"6+","altim":1017,"clouds":[{"cover":"OVC","base":2500}],"obsTime":1775887200},"SBBE":{"icaoId":"SBBE","flightCategory":"VFR","rawOb":"METAR SBBE 110600Z 03001KT CAVOK 26/25 Q1011","temp":26,"dewp":25,"wdir":30,"wspd":1,"visib":"6+","altim":1011,"clouds":[],"obsTime":1775887200},"SBSR":{"icaoId":"SBSR","flightCategory":"VFR","rawOb":"METAR SBSR 110600Z 15005KT CAVOK 20/19 Q1016","temp":20,"dewp":19,"wdir":150,"wspd":5,"visib":"6+","altim":1016,"clouds":[],"obsTime":1775887200},"SBAR":{"icaoId":"SBAR","flightCategory":"VFR","rawOb":"METAR SBAR 110600Z 10006KT 9999 SCT022 BKN060 28/23 Q1012","temp":28,"dewp":23,"wdir":100,"wspd":6,"visib":"6+","altim":1012,"clouds":[{"cover":"SCT","base":2200},{"cover":"BKN","base":6000}],"obsTime":1775887200},"SBAX":{"icaoId":"SBAX","flightCategory":"VFR","rawOb":"METAR SBAX 110600Z AUTO 10008KT CAVOK ///// Q1019","temp":null,"dewp":null,"wdir":100,"wspd":8,"visib":"6+","altim":1019,"clouds":[],"obsTime":1775887200},"SBDN":{"icaoId":"SBDN","flightCategory":"VFR","rawOb":"METAR SBDN 110600Z 11012KT CAVOK 20/16 Q1016","temp":20,"dewp":16,"wdir":110,"wspd":12,"visib":"6+","altim":1016,"clouds":[],"obsTime":1775887200},"SBIP":{"icaoId":"SBIP","flightCategory":"VFR","rawOb":"METAR SBIP 110600Z AUTO 36005KT CAVOK 23/20 Q1017","temp":23,"dewp":20,"wdir":360,"wspd":5,"visib":"6+","altim":1017,"clouds":[],"obsTime":1775887200},"SBKG":{"icaoId":"SBKG","flightCategory":"VFR","rawOb":"METAR SBKG 110600Z 13004KT CAVOK 21/21 Q1015","temp":21,"dewp":21,"wdir":130,"wspd":4,"visib":"6+","altim":1015,"clouds":[],"obsTime":1775887200},"SBOI":{"icaoId":"SBOI","flightCategory":"VFR","rawOb":"METAR SBOI 110600Z AUTO 04001KT 9999 // NCD 23/23 Q1012","temp":23,"dewp":23,"wdir":40,"wspd":1,"visib":"6+","altim":1012,"clouds":[],"obsTime":1775887200},"SBPL":{"icaoId":"SBPL","flightCategory":"VFR","rawOb":"METAR SBPL 110600Z 11006KT CAVOK 25/21 Q1013","temp":25,"dewp":21,"wdir":110,"wspd":6,"visib":"6+","altim":1013,"clouds":[],"obsTime":1775887200},"SBPS":{"icaoId":"SBPS","flightCategory":"VFR","rawOb":"METAR SBPS 110600Z 23002KT 9999 SCT017 23/23 Q1014","temp":23,"dewp":23,"wdir":230,"wspd":2,"visib":"6+","altim":1014,"clouds":[{"cover":"SCT","base":1700}],"obsTime":1775887200},"SBSC":{"icaoId":"SBSC","flightCategory":"MVFR","rawOb":"METAR SBSC 110600Z 36002KT 8000 SCT020 21/19 Q1018","temp":21,"dewp":19,"wdir":360,"wspd":2,"visib":4.97,"altim":1018,"clouds":[{"cover":"SCT","base":2000}],"obsTime":1775887200},"SBJP":{"icaoId":"SBJP","flightCategory":"VFR","rawOb":"METAR SBJP 110600Z 14005KT 9999 FEW020 24/23 Q1012","temp":24,"dewp":23,"wdir":140,"wspd":5,"visib":"6+","altim":1012,"clouds":[{"cover":"FEW","base":2000}],"obsTime":1775887200},"SBAN":{"icaoId":"SBAN","flightCategory":"VFR","rawOb":"METAR SBAN 110600Z 12002KT 9999 FEW030 SCT100 20/18 Q1019","temp":20,"dewp":18,"wdir":120,"wspd":2,"visib":"6+","altim":1019,"clouds":[{"cover":"FEW","base":3000},{"cover":"SCT","base":10000}],"obsTime":1775887200},"SBLE":{"icaoId":"SBLE","flightCategory":"VFR","rawOb":"METAR SBLE 110600Z AUTO VRB02KT 9999 FEW020 BKN043 ///// Q////","temp":null,"dewp":null,"wdir":"VRB","wspd":2,"visib":"6+","altim":null,"clouds":[{"cover":"FEW","base":2000},{"cover":"BKN","base":4300}],"obsTime":1775887200}}}