{"updated":1784307322,"count":87,"data":{"SBBV":{"icaoId":"SBBV","flightCategory":"MVFR","rawOb":"METAR SBBV 171500Z 08009KT 9999 BKN030 30/23 Q1014","temp":30,"dewp":23,"wdir":80,"wspd":9,"visib":"6+","altim":1014,"clouds":[{"cover":"BKN","base":3000}],"obsTime":1784300400},"SBLO":{"icaoId":"SBLO","flightCategory":"VFR","rawOb":"METAR SBLO 171500Z 05011KT CAVOK 22/12 Q1021","temp":22,"dewp":12,"wdir":50,"wspd":11,"visib":"6+","altim":1021,"clouds":[],"obsTime":1784300400},"SBFL":{"icaoId":"SBFL","flightCategory":"VFR","rawOb":"METAR SBFL 171500Z 35013KT CAVOK 20/16 Q1017","temp":20,"dewp":16,"wdir":350,"wspd":13,"visib":"6+","altim":1017,"clouds":[],"obsTime":1784300400},"SBPA":{"icaoId":"SBPA","flightCategory":"VFR","rawOb":"METAR SBPA 171500Z 09004KT 050V120 CAVOK 29/16 Q1009","temp":29,"dewp":16,"wdir":90,"wspd":4,"visib":"6+","altim":1009,"clouds":[],"obsTime":1784300400},"SBRF":{"icaoId":"SBRF","flightCategory":"MVFR","rawOb":"METAR SBRF 171500Z 16017KT 9999 BKN022 BKN070 28/22 Q1017","temp":28,"dewp":22,"wdir":160,"wspd":17,"visib":"6+","altim":1017,"clouds":[{"cover":"BKN","base":2200},{"cover":"BKN","base":7000}],"obsTime":1784300400},"SBGR":{"icaoId":"SBGR","flightCategory":"VFR","rawOb":"METAR SBGR 171500Z 01008KT CAVOK 22/08 Q1024","temp":22,"dewp":8,"wdir":10,"wspd":8,"visib":"6+","altim":1024,"clouds":[],"obsTime":1784300400},"SBCP":{"icaoId":"SBCP","flightCategory":"VFR","rawOb":"METAR SBCP 171500Z 05014KT 9999 SCT025 28/13 Q1024","temp":28,"dewp":13,"wdir":50,"wspd":14,"visib":"6+","altim":1024,"clouds":[{"cover":"SCT","base":2500}],"obsTime":1784300400},"SBSP":{"icaoId":"SBSP","flightCategory":"VFR","rawOb":"METAR SBSP 171500Z 36009KT 340V040 CAVOK 22/08 Q1025","temp":22,"dewp":8,"wdir":360,"wspd":9,"visib":"6+","altim":1025,"clouds":[],"obsTime":1784300400},"SBSG":{"icaoId":"SBSG","flightCategory":"IFR","rawOb":"METAR SBSG 171500Z 15008KT 100V190 4000 -RA BR BKN011 BKN040 25/23 Q1017","temp":25,"dewp":23,"wdir":150,"wspd":8,"visib":2.49,"altim":1017,"clouds":[{"cover":"BKN","base":1100},{"cover":"BKN","base":4000}],"obsTime":1784300400},"SBRB":{"icaoId":"SBRB","flightCategory":"VFR","rawOb":"METAR SBRB 171500Z 03006KT 9999 FEW025 SCT100 32/23 Q1016","temp":32,"dewp":23,"wdir":30,"wspd":6,"visib":"6+","altim":1016,"clouds":[{"cover":"FEW","base":2500},{"cover":"SCT","base":10000}],"obsTime":1784300400},"SBVT":{"icaoId":"SBVT","flightCategory":"VFR","rawOb":"METAR SBVT 171500Z 06010KT 9999 SCT030 26/14 Q1025","temp":26,"dewp":14,"wdir":60,"wspd":10,"visib":"6+","altim":1025,"clouds":[{"cover":"SCT","base":3000}],"obsTime":1784300400},"SBSN":{"icaoId":"SBSN","flightCategory":"MVFR","rawOb":"METAR SBSN 171500Z 08015KT 9999 VCSH BKN018 FEW030TCU BKN080 29/24 Q1014","temp":29,"dewp":24,"wdir":80,"wspd":15,"visib":"6+","altim":1014,"clouds":[{"cover":"BKN","base":1800},{"cover":"FEW","base":3000},{"cover":"BKN","base":8000}],"obsTime":1784300400},"SBSL":{"icaoId":"SBSL","flightCategory":"VFR","rawOb":"METAR SBSL 171500Z 11009KT 9999 SCT025 31/22 Q1014","temp":31,"dewp":22,"wdir":110,"wspd":9,"visib":"6+","altim":1014,"clouds":[{"cover":"SCT","base":2500}],"obsTime":1784300400},"SBFZ":{"icaoId":"SBFZ","flightCategory":"VFR","rawOb":"METAR SBFZ 171500Z 15017KT 9999 FEW020 SCT080 31/21 Q1014","temp":31,"dewp":21,"wdir":150,"wspd":17,"visib":"6+","altim":1014,"clouds":[{"cover":"FEW","base":2000},{"cover":"SCT","base":8000}],"obsTime":1784300400},"SBKP":{"icaoId":"SBKP","flightCategory":"VFR","rawOb":"METAR SBKP 171500Z 03010KT 360V060 CAVOK 22/08 Q1024","temp":22,"dewp":8,"wdir":30,"wspd":10,"visib":"6+","altim":1024,"clouds":[],"obsTime":1784300400},"SBGO":{"icaoId":"SBGO","flightCategory":"VFR","rawOb":"METAR SBGO 171500Z 07007KT 030V120 CAVOK 26/11 Q1023","temp":26,"dewp":11,"wdir":70,"wspd":7,"visib":"6+","altim":1023,"clouds":[],"obsTime":1784300400},"SBGL":{"icaoId":"SBGL","flightCategory":"VFR","rawOb":"METAR SBGL 171500Z 04005KT 310V090 CAVOK 26/10 Q1022","temp":26,"dewp":10,"wdir":40,"wspd":5,"visib":"6+","altim":1022,"clouds":[],"obsTime":1784300400},"SBCZ":{"icaoId":"SBCZ","flightCategory":"MVFR","rawOb":"METAR SBCZ 171500Z 03006KT 9999 BKN012 27/24 Q1017","temp":27,"dewp":24,"wdir":30,"wspd":6,"visib":"6+","altim":1017,"clouds":[{"cover":"BKN","base":1200}],"obsTime":1784300400},"SBMQ":{"icaoId":"SBMQ","flightCategory":"VFR","rawOb":"METAR SBMQ 171500Z 06010KT 9999 SCT021 FEW036TCU 31/25 Q1014","temp":31,"dewp":25,"wdir":60,"wspd":10,"visib":"6+","altim":1014,"clouds":[{"cover":"SCT","base":2100},{"cover":"FEW","base":3600}],"obsTime":1784300400},"SBMG":{"icaoId":"SBMG","flightCategory":"VFR","rawOb":"METAR SBMG 171500Z 01018G28KT CAVOK 25/13 Q1018","temp":25,"dewp":13,"wdir":10,"wspd":18,"visib":"6+","altim":1018,"clouds":[],"obsTime":1784300400},"SBIL":{"icaoId":"SBIL","flightCategory":"VFR","rawOb":"METAR SBIL 171500Z 18009KT 160V220 9999 SCT023 SCT070 26/20 Q1023","temp":26,"dewp":20,"wdir":180,"wspd":9,"visib":"6+","altim":1023,"clouds":[{"cover":"SCT","base":2300},{"cover":"SCT","base":7000}],"obsTime":1784300400},"SBCF":{"icaoId":"SBCF","flightCategory":"VFR","rawOb":"METAR SBCF 171500Z 06010KT 9999 FEW030 21/09 Q1027","temp":21,"dewp":9,"wdir":60,"wspd":10,"visib":"6+","altim":1027,"clouds":[{"cover":"FEW","base":3000}],"obsTime":1784300400},"SBJU":{"icaoId":"SBJU","flightCategory":"VFR","rawOb":"METAR SBJU 171500Z 18010KT 9999 SCT022 29/16 Q1019","temp":29,"dewp":16,"wdir":180,"wspd":10,"visib":"6+","altim":1019,"clouds":[{"cover":"SCT","base":2200}],"obsTime":1784300400},"SBAT":{"icaoId":"SBAT","flightCategory":"VFR","rawOb":"METAR SBAT 171500Z 07008KT 9999 SCT030 32/21 Q1016","temp":32,"dewp":21,"wdir":70,"wspd":8,"visib":"6+","altim":1016,"clouds":[{"cover":"SCT","base":3000}],"obsTime":1784300400},"SBHT":{"icaoId":"SBHT","flightCategory":"VFR","rawOb":"METAR SBHT 171500Z 10008KT 9999 SCT030 32/25 Q1015","temp":32,"dewp":25,"wdir":100,"wspd":8,"visib":"6+","altim":1015,"clouds":[{"cover":"SCT","base":3000}],"obsTime":1784300400},"SBNT":{"icaoId":"SBNT","flightCategory":"IFR","rawOb":"METAR SBNT 171500Z 16012KT 4000 -RA BR BKN011 BKN020 OVC029 25/24 Q1016","temp":25,"dewp":24,"wdir":160,"wspd":12,"visib":2.49,"altim":1016,"clouds":[{"cover":"BKN","base":1100},{"cover":"BKN","base":2000},{"cover":"OVC","base":2900}],"obsTime":1784300400},"SBME":{"icaoId":"SBME","flightCategory":"VFR","rawOb":"METAR SBME 171500Z 01019KT CAVOK 27/11 Q1023","temp":27,"dewp":11,"wdir":10,"wspd":19,"visib":"6+","altim":1023,"clouds":[],"obsTime":1784300400},"SBMK":{"icaoId":"SBMK","flightCategory":"VFR","rawOb":"METAR SBMK 171500Z 08008KT 9999 SCT040 23/10 Q1025","temp":23,"dewp":10,"wdir":80,"wspd":8,"visib":"6+","altim":1025,"clouds":[{"cover":"SCT","base":4000}],"obsTime":1784300400},"SBUL":{"icaoId":"SBUL","flightCategory":"VFR","rawOb":"METAR SBUL 171500Z 07019KT CAVOK 20/09 Q1025","temp":20,"dewp":9,"wdir":70,"wspd":19,"visib":"6+","altim":1025,"clouds":[],"obsTime":1784300400},"SBUR":{"icaoId":"SBUR","flightCategory":"VFR","rawOb":"METAR SBUR 171500Z 05012KT CAVOK 23/07 Q1024","temp":23,"dewp":7,"wdir":50,"wspd":12,"visib":"6+","altim":1024,"clouds":[],"obsTime":1784300400},"SBTE":{"icaoId":"SBTE","flightCategory":"VFR","rawOb":"METAR SBTE 171500Z 15011KT 9999 SCT040 31/18 Q1015","temp":31,"dewp":18,"wdir":150,"wspd":11,"visib":"6+","altim":1015,"clouds":[{"cover":"SCT","base":4000}],"obsTime":1784300400},"SBPJ":{"icaoId":"SBPJ","flightCategory":"VFR","rawOb":"METAR SBPJ 171500Z 11006KT 050V150 CAVOK 30/14 Q1018","temp":30,"dewp":14,"wdir":110,"wspd":6,"visib":"6+","altim":1018,"clouds":[],"obsTime":1784300400},"SBCG":{"icaoId":"SBCG","flightCategory":"VFR","rawOb":"METAR SBCG 171500Z 34019KT 9999 BKN035 29/19 Q1017","temp":29,"dewp":19,"wdir":340,"wspd":19,"visib":"6+","altim":1017,"clouds":[{"cover":"BKN","base":3500}],"obsTime":1784300400},"SBCR":{"icaoId":"SBCR","flightCategory":"VFR","rawOb":"METAR SBCR 171500Z 34012KT 320V020 9999 BKN045 32/22 Q1012","temp":32,"dewp":22,"wdir":340,"wspd":12,"visib":"6+","altim":1012,"clouds":[{"cover":"BKN","base":4500}],"obsTime":1784300400},"SBCB":{"icaoId":"SBCB","flightCategory":"VFR","rawOb":"METAR SBCB 171500Z 08016G27KT CAVOK 26/12 Q1023","temp":26,"dewp":12,"wdir":80,"wspd":16,"visib":"6+","altim":1023,"clouds":[],"obsTime":1784300400},"SBBR":{"icaoId":"SBBR","flightCategory":"VFR","rawOb":"METAR SBBR 171500Z 10011KT 060V130 CAVOK 21/08 Q1025","temp":21,"dewp":8,"wdir":100,"wspd":11,"visib":"6+","altim":1025,"clouds":[],"obsTime":1784300400},"SBFI":{"icaoId":"SBFI","flightCategory":"VFR","rawOb":"METAR SBFI 171500Z 02025G36KT CAVOK 29/17 Q1010","temp":29,"dewp":17,"wdir":20,"wspd":25,"visib":"6+","altim":1010,"clouds":[],"obsTime":1784300400},"SBEG":{"icaoId":"SBEG","flightCategory":"VFR","rawOb":"METAR SBEG 171500Z 08010KT 9999 SCT025 31/24 Q1014","temp":31,"dewp":24,"wdir":80,"wspd":10,"visib":"6+","altim":1014,"clouds":[{"cover":"SCT","base":2500}],"obsTime":1784300400},"SBMO":{"icaoId":"SBMO","flightCategory":"MVFR","rawOb":"METAR SBMO 171500Z 15011KT 9999 BKN020 26/22 Q1019","temp":26,"dewp":22,"wdir":150,"wspd":11,"visib":"6+","altim":1019,"clouds":[{"cover":"BKN","base":2000}],"obsTime":1784300400},"SBBE":{"icaoId":"SBBE","flightCategory":"VFR","rawOb":"METAR SBBE 171500Z 10011KT 9999 SCT032 31/23 Q1014","temp":31,"dewp":23,"wdir":100,"wspd":11,"visib":"6+","altim":1014,"clouds":[{"cover":"SCT","base":3200}],"obsTime":1784300400},"SBPV":{"icaoId":"SBPV","flightCategory":"VFR","rawOb":"METAR SBPV 171500Z 05007KT 020V080 9999 SCT025 FEW035TCU SCT100 28/23 Q1015","temp":28,"dewp":23,"wdir":50,"wspd":7,"visib":"6+","altim":1015,"clouds":[{"cover":"SCT","base":2500},{"cover":"FEW","base":3500},{"cover":"SCT","base":10000}],"obsTime":1784300400},"SBSV":{"icaoId":"SBSV","flightCategory":"VFR","rawOb":"METAR SBSV 171500Z 11014KT 9999 SCT020 BKN070 27/18 Q1022","temp":27,"dewp":18,"wdir":110,"wspd":14,"visib":"6+","altim":1022,"clouds":[{"cover":"SCT","base":2000},{"cover":"BKN","base":7000}],"obsTime":1784300400},"SBMA":{"icaoId":"SBMA","flightCategory":"VFR","rawOb":"METAR SBMA 171500Z 09010KT CAVOK 32/19 Q1015","temp":32,"dewp":19,"wdir":90,"wspd":10,"visib":"6+","altim":1015,"clouds":[],"obsTime":1784300400},"SBCT":{"icaoId":"SBCT","flightCategory":"VFR","rawOb":"METAR SBCT 171500Z 36012KT CAVOK 23/11 Q1022","temp":23,"dewp":11,"wdir":360,"wspd":12,"visib":"6+","altim":1022,"clouds":[],"obsTime":1784300400},"SBTT":{"icaoId":"SBTT","flightCategory":"VFR","rawOb":"METAR SBTT 171500Z VRB02KT 9999 FEW019 28/25 Q1015","temp":28,"dewp":25,"wdir":"VRB","wspd":2,"visib":"6+","altim":1015,"clouds":[{"cover":"FEW","base":1900}],"obsTime":1784300400},"SBSJ":{"icaoId":"SBSJ","flightCategory":"VFR","rawOb":"METAR SBSJ 171500Z 04005KT 300V100 CAVOK 21/10 Q1024","temp":21,"dewp":10,"wdir":40,"wspd":5,"visib":"6+","altim":1024,"clouds":[],"obsTime":1784300400},"SBPS":{"icaoId":"SBPS","flightCategory":"MVFR","rawOb":"METAR SBPS 171500Z 09005KT 050V130 9999 SCT015 BKN030 23/21 Q1024","temp":23,"dewp":21,"wdir":90,"wspd":5,"visib":"6+","altim":1024,"clouds":[{"cover":"SCT","base":1500},{"cover":"BKN","base":3000}],"obsTime":1784300400},"SBOI":{"icaoId":"SBOI","flightCategory":"VFR","rawOb":"METAR SBOI 171500Z AUTO VRB06KT 9999 FEW036 31/24 Q1015","temp":31,"dewp":24,"wdir":"VRB","wspd":6,"visib":"6+","altim":1015,"clouds":[{"cover":"FEW","base":3600}],"obsTime":1784300400},"SBPB":{"icaoId":"SBPB","flightCategory":"VFR","rawOb":"METAR SBPB 171500Z 11007KT 9999 FEW020 31/23 Q1014","temp":31,"dewp":23,"wdir":110,"wspd":7,"visib":"6+","altim":1014,"clouds":[{"cover":"FEW","base":2000}],"obsTime":1784300400},"SBUY":{"icaoId":"SBUY","flightCategory":"VFR","rawOb":"METAR SBUY 171500Z 13007KT 9999 SCT030 29/25 Q1013","temp":29,"dewp":25,"wdir":130,"wspd":7,"visib":"6+","altim":1013,"clouds":[{"cover":"SCT","base":3000}],"obsTime":1784300400},"SBPL":{"icaoId":"SBPL","flightCategory":"VFR","rawOb":"METAR SBPL 171500Z 11013KT 9999 SCT030 27/16 Q1021","temp":27,"dewp":16,"wdir":110,"wspd":13,"visib":"6+","altim":1021,"clouds":[{"cover":"SCT","base":3000}],"obsTime":1784300400},"SBCJ":{"icaoId":"SBCJ","flightCategory":"VFR","rawOb":"METAR SBCJ 171500Z 13008KT 9999 SCT023 27/18 Q1019","temp":27,"dewp":18,"wdir":130,"wspd":8,"visib":"6+","altim":1019,"clouds":[{"cover":"SCT","base":2300}],"obsTime":1784300400},"SBAR":{"icaoId":"SBAR","flightCategory":"VFR","rawOb":"METAR SBAR 171500Z 13012KT 9999 SCT030 BKN050 28/20 Q1020","temp":28,"dewp":20,"wdir":130,"wspd":12,"visib":"6+","altim":1020,"clouds":[{"cover":"SCT","base":3000},{"cover":"BKN","base":5000}],"obsTime":1784300400},"SBTD":{"icaoId":"SBTD","flightCategory":"VFR","rawOb":"METAR SBTD 171500Z /////KT CAVOK 27/13 Q1016","temp":27,"dewp":13,"wdir":null,"wspd":null,"visib":"6+","altim":1016,"clouds":[],"obsTime":1784300400},"SBTF":{"icaoId":"SBTF","flightCategory":"VFR","rawOb":"METAR SBTF 171500Z 12006KT 9999 FEW020 31/25 Q1013","temp":31,"dewp":25,"wdir":120,"wspd":6,"visib":"6+","altim":1013,"clouds":[{"cover":"FEW","base":2000}],"obsTime":1784300400},"SBCO":{"icaoId":"SBCO","flightCategory":"VFR","rawOb":"METAR SBCO 171500Z 08003KT 040V120 CAVOK 28/19 Q1009","temp":28,"dewp":19,"wdir":80,"wspd":3,"visib":"6+","altim":1009,"clouds":[],"obsTime":1784300400},"SBSM":{"icaoId":"SBSM","flightCategory":"VFR","rawOb":"METAR SBSM 171500Z 01015G29KT CAVOK 30/17 Q1005 WS ALL RWY","temp":30,"dewp":17,"wdir":10,"wspd":15,"visib":"6+","altim":1005,"clouds":[],"obsTime":1784300400},"SBKG":{"icaoId":"SBKG","flightCategory":"VFR","rawOb":"METAR SBKG 171500Z 15012KT 9999 SCT020 26/19 Q1019","temp":26,"dewp":19,"wdir":150,"wspd":12,"visib":"6+","altim":1019,"clouds":[{"cover":"SCT","base":2000}],"obsTime":1784300400},"SBCC":{"icaoId":"SBCC","flightCategory":"VFR","rawOb":"METAR SBCC 171500Z 03014KT 9999 SCT040 31/18 Q1017","temp":31,"dewp":18,"wdir":30,"wspd":14,"visib":"6+","altim":1017,"clouds":[{"cover":"SCT","base":4000}],"obsTime":1784300400},"SBGM":{"icaoId":"SBGM","flightCategory":"VFR","rawOb":"METAR SBGM 171500Z 34003KT 9999 FEW040 31/22 Q1015","temp":31,"dewp":22,"wdir":340,"wspd":3,"visib":"6+","altim":1015,"clouds":[{"cover":"FEW","base":4000}],"obsTime":1784300400},"SBVH":{"icaoId":"SBVH","flightCategory":"MVFR","rawOb":"METAR SBVH 171500Z 35012KT 9999 BKN025 BKN090 27/21 Q1019","temp":27,"dewp":21,"wdir":350,"wspd":12,"visib":"6+","altim":1019,"clouds":[{"cover":"BKN","base":2500},{"cover":"BKN","base":9000}],"obsTime":1784300400},"SBAU":{"icaoId":"SBAU","flightCategory":"VFR","rawOb":"METAR SBAU 171600Z 03010KT CAVOK 29/10 Q1020","temp":29,"dewp":10,"wdir":30,"wspd":10,"visib":"6+","altim":1020,"clouds":[],"obsTime":1784304000},"SBAX":{"icaoId":"SBAX","flightCategory":"VFR","rawOb":"METAR SBAX 171500Z 07007KT CAVOK 19/06 Q1026","temp":19,"dewp":6,"wdir":70,"wspd":7,"visib":"6+","altim":1026,"clouds":[],"obsTime":1784300400},"SBBH":{"icaoId":"SBBH","flightCategory":"VFR","rawOb":"METAR SBBH 171500Z 08006KT 9999 FEW045 21/09 Q1027","temp":21,"dewp":9,"wdir":80,"wspd":6,"visib":"6+","altim":1027,"clouds":[{"cover":"FEW","base":4500}],"obsTime":1784300400},"SBBQ":{"icaoId":"SBBQ","flightCategory":"VFR","rawOb":"METAR SBBQ 171500Z 35007KT CAVOK 19/08 Q1029","temp":19,"dewp":8,"wdir":350,"wspd":7,"visib":"6+","altim":1029,"clouds":[],"obsTime":1784300400},"SBBU":{"icaoId":"SBBU","flightCategory":"VFR","rawOb":"METAR SBBU 171500Z 02006KT CAVOK 23/11 Q1023","temp":23,"dewp":11,"wdir":20,"wspd":6,"visib":"6+","altim":1023,"clouds":[],"obsTime":1784300400},"SBDN":{"icaoId":"SBDN","flightCategory":"VFR","rawOb":"METAR SBDN 171500Z 04013KT CAVOK 25/12 Q1020","temp":25,"dewp":12,"wdir":40,"wspd":13,"visib":"6+","altim":1020,"clouds":[],"obsTime":1784300400},"SBIP":{"icaoId":"SBIP","flightCategory":"VFR","rawOb":"METAR SBIP 171500Z AUTO 01008KT 330V040 CAVOK 23/14 Q1026","temp":23,"dewp":14,"wdir":10,"wspd":8,"visib":"6+","altim":1026,"clouds":[],"obsTime":1784300400},"SBSC":{"icaoId":"SBSC","flightCategory":"VFR","rawOb":"METAR SBSC 171500Z 33016G26KT CAVOK 26/12 Q1021","temp":26,"dewp":12,"wdir":330,"wspd":16,"visib":"6+","altim":1021,"clouds":[],"obsTime":1784300400},"SBSR":{"icaoId":"SBSR","flightCategory":"VFR","rawOb":"METAR SBSR 171500Z 06014KT 360V100 CAVOK 24/08 Q1022","temp":24,"dewp":8,"wdir":60,"wspd":14,"visib":"6+","altim":1022,"clouds":[],"obsTime":1784300400},"SBTU":{"icaoId":"SBTU","flightCategory":"VFR","rawOb":"METAR SBTU 171500Z AUTO 27012KT 240V300 9999 // NCD 31/19 Q1016","temp":31,"dewp":19,"wdir":270,"wspd":12,"visib":"6+","altim":1016,"clouds":[],"obsTime":1784300400},"SBES":{"icaoId":"SBES","flightCategory":"VFR","rawOb":"METAR SBES 171500Z 05014KT 010V070 CAVOK 26/// Q1023","temp":null,"dewp":null,"wdir":50,"wspd":14,"visib":"6+","altim":1023,"clouds":[],"obsTime":1784300400},"SBPP":{"icaoId":"SBPP","flightCategory":"VFR","rawOb":"METAR SBPP 171500Z 02017KT CAVOK 27/20 Q1015","temp":27,"dewp":20,"wdir":20,"wspd":17,"visib":"6+","altim":1015,"clouds":[],"obsTime":1784300400},"SBJV":{"icaoId":"SBJV","flightCategory":"IFR","rawOb":"METAR SBJV 171500Z 14003KT 4000 BR OVC005 18/16 Q1019","temp":18,"dewp":16,"wdir":140,"wspd":3,"visib":2.49,"altim":1019,"clouds":[{"cover":"OVC","base":500}],"obsTime":1784300400},"SBPF":{"icaoId":"SBPF","flightCategory":"VFR","rawOb":"METAR SBPF 171500Z AUTO 02014G24KT 9999 NSC 24/14 Q1014","temp":24,"dewp":14,"wdir":20,"wspd":14,"visib":"6+","altim":1014,"clouds":[],"obsTime":1784300400},"SBTA":{"icaoId":"SBTA","flightCategory":"VFR","rawOb":"METAR SBTA 171500Z 06006KT 020V120 CAVOK 21/09 Q1024","temp":21,"dewp":9,"wdir":60,"wspd":6,"visib":"6+","altim":1024,"clouds":[],"obsTime":1784300400},"SBAN":{"icaoId":"SBAN","flightCategory":"VFR","rawOb":"METAR SBAN 171500Z 08012KT 050V110 CAVOK 23/09 Q1025","temp":23,"dewp":9,"wdir":80,"wspd":12,"visib":"6+","altim":1025,"clouds":[],"obsTime":1784300400},"SBJP":{"icaoId":"SBJP","flightCategory":"IFR","rawOb":"METAR SBJP 171500Z 18018KT 4000 -RA BKN006 BKN022 26/22 Q1017","temp":26,"dewp":22,"wdir":180,"wspd":18,"visib":2.49,"altim":1017,"clouds":[{"cover":"BKN","base":600},{"cover":"BKN","base":2200}],"obsTime":1784300400},"SBLE":{"icaoId":"SBLE","flightCategory":"VFR","rawOb":"METAR SBLE 171500Z AUTO 13008KT 080V190 CAVOK 22/15 Q1024","temp":22,"dewp":15,"wdir":130,"wspd":8,"visib":"6+","altim":1024,"clouds":[],"obsTime":1784300400},"SBIH":{"icaoId":"SBIH","flightCategory":"VFR","rawOb":"METAR SBIH 171500Z 03007KT 9999 SCT020 31/25 Q1014","temp":31,"dewp":25,"wdir":30,"wspd":7,"visib":"6+","altim":1014,"clouds":[{"cover":"SCT","base":2000}],"obsTime":1784300400},"SBAF":{"icaoId":"SBAF","flightCategory":"VFR","rawOb":"METAR SBAF 171500Z 36006KT CAVOK 27/10 Q1022","temp":27,"dewp":10,"wdir":360,"wspd":6,"visib":"6+","altim":1022,"clouds":[],"obsTime":1784300400},"SBGW":{"icaoId":"SBGW","flightCategory":"VFR","rawOb":"METAR SBGW 171500Z 05008KT 010V090 CAVOK 22/08 Q1024","temp":22,"dewp":8,"wdir":50,"wspd":8,"visib":"6+","altim":1024,"clouds":[],"obsTime":1784300400},"SBJR":{"icaoId":"SBJR","flightCategory":"VFR","rawOb":"METAR SBJR 171500Z 03009KT CAVOK 29/10 Q1021","temp":29,"dewp":10,"wdir":30,"wspd":9,"visib":"6+","altim":1021,"clouds":[],"obsTime":1784300400},"SBLS":{"icaoId":"SBLS","flightCategory":"VFR","rawOb":"METAR SBLS 171500Z 08004KT 9999 SCT043 22/09 Q1027","temp":22,"dewp":9,"wdir":80,"wspd":4,"visib":"6+","altim":1027,"clouds":[{"cover":"SCT","base":4300}],"obsTime":1784300400},"SBMT":{"icaoId":"SBMT","flightCategory":"VFR","rawOb":"METAR SBMT 171500Z 34005KT 280V010 CAVOK 21/08 Q1024","temp":21,"dewp":8,"wdir":340,"wspd":5,"visib":"6+","altim":1024,"clouds":[],"obsTime":1784300400},"SBST":{"icaoId":"SBST","flightCategory":"VFR","rawOb":"METAR SBST 171500Z 09003KT CAVOK 26/12 Q1020","temp":26,"dewp":12,"wdir":90,"wspd":3,"visib":"6+","altim":1020,"clouds":[],"obsTime":1784300400},"SBNM":{"icaoId":"SBNM","flightCategory":"VFR","rawOb":"METAR SBNM 171500Z 02016KT CAVOK 27/16 Q1007","temp":27,"dewp":16,"wdir":20,"wspd":16,"visib":"6+","altim":1007,"clouds":[],"obsTime":1784300400}}}