{"updated":1776199711,"count":84,"data":{"SBMO":{"icaoId":"SBMO","flightCategory":"MVFR","rawOb":"METAR SBMO 141900Z 09008KT 9999 VCSH BKN025 28/23 Q1009","temp":28,"dewp":23,"wdir":90,"wspd":8,"visib":"6+","altim":1009,"clouds":[{"cover":"BKN","base":2500}],"obsTime":1776193200},"SBBE":{"icaoId":"SBBE","flightCategory":"VFR","rawOb":"METAR SBBE 141900Z 02004KT 9999 FEW015 SCT020 FEW025TCU BKN100 27/25 Q1006","temp":27,"dewp":25,"wdir":20,"wspd":4,"visib":"6+","altim":1006,"clouds":[{"cover":"FEW","base":1500},{"cover":"SCT","base":2000},{"cover":"FEW","base":2500},{"cover":"BKN","base":10000}],"obsTime":1776193200},"SBBR":{"icaoId":"SBBR","flightCategory":"VFR","rawOb":"METAR SBBR 141900Z 08005KT 050V110 9999 SCT040 FEW050TCU 27/15 Q1015","temp":27,"dewp":15,"wdir":80,"wspd":5,"visib":"6+","altim":1015,"clouds":[{"cover":"SCT","base":4000},{"cover":"FEW","base":5000}],"obsTime":1776193200},"SBVT":{"icaoId":"SBVT","flightCategory":"VFR","rawOb":"METAR SBVT 141900Z 17013KT 9999 FEW040 27/19 Q1012","temp":27,"dewp":19,"wdir":170,"wspd":13,"visib":"6+","altim":1012,"clouds":[{"cover":"FEW","base":4000}],"obsTime":1776193200},"SBAT":{"icaoId":"SBAT","flightCategory":"VFR","rawOb":"METAR SBAT 141900Z 22002KT 9999 VCSH SCT030 FEW035TCU 32/25 Q1008","temp":32,"dewp":25,"wdir":220,"wspd":2,"visib":"6+","altim":1008,"clouds":[{"cover":"SCT","base":3000},{"cover":"FEW","base":3500}],"obsTime":1776193200},"SBBV":{"icaoId":"SBBV","flightCategory":"VFR","rawOb":"METAR SBBV 141900Z 14005KT 9999 BKN040 FEW045TCU BKN090 33/22 Q1007","temp":33,"dewp":22,"wdir":140,"wspd":5,"visib":"6+","altim":1007,"clouds":[{"cover":"BKN","base":4000},{"cover":"FEW","base":4500},{"cover":"BKN","base":9000}],"obsTime":1776193200},"SBCB":{"icaoId":"SBCB","flightCategory":"VFR","rawOb":"METAR SBCB 141900Z 17010KT CAVOK 26/20 Q1014","temp":26,"dewp":20,"wdir":170,"wspd":10,"visib":"6+","altim":1014,"clouds":[],"obsTime":1776193200},"SBCF":{"icaoId":"SBCF","flightCategory":"VFR","rawOb":"METAR SBCF 141900Z 03003KT 340V090 9999 SCT040 FEW045TCU 26/15 Q1015","temp":26,"dewp":15,"wdir":30,"wspd":3,"visib":"6+","altim":1015,"clouds":[{"cover":"SCT","base":4000},{"cover":"FEW","base":4500}],"obsTime":1776193200},"SBCG":{"icaoId":"SBCG","flightCategory":"VFR","rawOb":"METAR SBCG 141900Z 33008KT 9999 FEW045 BKN066 31/19 Q1011","temp":31,"dewp":19,"wdir":330,"wspd":8,"visib":"6+","altim":1011,"clouds":[{"cover":"FEW","base":4500},{"cover":"BKN","base":6600}],"obsTime":1776193200},"SBCP":{"icaoId":"SBCP","flightCategory":"VFR","rawOb":"METAR SBCP 141900Z 18009KT 9999 FEW020 28/18 Q1013","temp":28,"dewp":18,"wdir":180,"wspd":9,"visib":"6+","altim":1013,"clouds":[{"cover":"FEW","base":2000}],"obsTime":1776193200},"SBCR":{"icaoId":"SBCR","flightCategory":"VFR","rawOb":"METAR SBCR 141900Z 01008KT 9999 SCT040 SCT100 32/23 Q1006","temp":32,"dewp":23,"wdir":10,"wspd":8,"visib":"6+","altim":1006,"clouds":[{"cover":"SCT","base":4000},{"cover":"SCT","base":10000}],"obsTime":1776193200},"SBCT":{"icaoId":"SBCT","flightCategory":"VFR","rawOb":"METAR SBCT 141900Z 08008KT 9999 SCT035 22/12 Q1018","temp":22,"dewp":12,"wdir":80,"wspd":8,"visib":"6+","altim":1018,"clouds":[{"cover":"SCT","base":3500}],"obsTime":1776193200},"SBCZ":{"icaoId":"SBCZ","flightCategory":"MVFR","rawOb":"METAR SBCZ 141900Z 23004KT 9999 BKN030 33/23 Q1007","temp":33,"dewp":23,"wdir":230,"wspd":4,"visib":"6+","altim":1007,"clouds":[{"cover":"BKN","base":3000}],"obsTime":1776193200},"SBEG":{"icaoId":"SBEG","flightCategory":"MVFR","rawOb":"METAR SBEG 141900Z 25007KT 9999 -RA BKN010 BKN060 25/25 Q1009","temp":25,"dewp":25,"wdir":250,"wspd":7,"visib":"6+","altim":1009,"clouds":[{"cover":"BKN","base":1000},{"cover":"BKN","base":6000}],"obsTime":1776193200},"SBFI":{"icaoId":"SBFI","flightCategory":"VFR","rawOb":"METAR SBFI 141900Z 05009KT 9999 SCT035 30/22 Q1009","temp":30,"dewp":22,"wdir":50,"wspd":9,"visib":"6+","altim":1009,"clouds":[{"cover":"SCT","base":3500}],"obsTime":1776193200},"SBFL":{"icaoId":"SBFL","flightCategory":"MVFR","rawOb":"METAR SBFL 141900Z 05007KT 9999 BKN030 26/20 Q1015","temp":26,"dewp":20,"wdir":50,"wspd":7,"visib":"6+","altim":1015,"clouds":[{"cover":"BKN","base":3000}],"obsTime":1776193200},"SBFZ":{"icaoId":"SBFZ","flightCategory":"MVFR","rawOb":"METAR SBFZ 141900Z 11006KT 5000 -RA BKN012 OVC080 26/24 Q1008","temp":26,"dewp":24,"wdir":110,"wspd":6,"visib":3.11,"altim":1008,"clouds":[{"cover":"BKN","base":1200},{"cover":"OVC","base":8000}],"obsTime":1776193200},"SBGL":{"icaoId":"SBGL","flightCategory":"VFR","rawOb":"METAR SBGL 141900Z 12010KT 9999 FEW040 26/19 Q1013","temp":26,"dewp":19,"wdir":120,"wspd":10,"visib":"6+","altim":1013,"clouds":[{"cover":"FEW","base":4000}],"obsTime":1776193200},"SBGO":{"icaoId":"SBGO","flightCategory":"VFR","rawOb":"METAR SBGO 141900Z 09003KT 040V140 CAVOK 30/16 Q1013","temp":30,"dewp":16,"wdir":90,"wspd":3,"visib":"6+","altim":1013,"clouds":[],"obsTime":1776193200},"SBGR":{"icaoId":"SBGR","flightCategory":"VFR","rawOb":"METAR SBGR 141900Z 11009KT 9999 SCT036 25/17 Q1016","temp":25,"dewp":17,"wdir":110,"wspd":9,"visib":"6+","altim":1016,"clouds":[{"cover":"SCT","base":3600}],"obsTime":1776193200},"SBHT":{"icaoId":"SBHT","flightCategory":"MVFR","rawOb":"METAR SBHT 141900Z 09005KT 9999 BKN030 31/23 Q1006","temp":31,"dewp":23,"wdir":90,"wspd":5,"visib":"6+","altim":1006,"clouds":[{"cover":"BKN","base":3000}],"obsTime":1776193200},"SBIL":{"icaoId":"SBIL","flightCategory":"VFR","rawOb":"METAR SBIL 141900Z 18009KT 140V220 9999 FEW030 29/23 Q1011","temp":29,"dewp":23,"wdir":180,"wspd":9,"visib":"6+","altim":1011,"clouds":[{"cover":"FEW","base":3000}],"obsTime":1776193200},"SBJU":{"icaoId":"SBJU","flightCategory":"VFR","rawOb":"METAR SBJU 141900Z 15008KT 9999 SCT022 28/22 Q1009","temp":28,"dewp":22,"wdir":150,"wspd":8,"visib":"6+","altim":1009,"clouds":[{"cover":"SCT","base":2200}],"obsTime":1776193200},"SBKP":{"icaoId":"SBKP","flightCategory":"VFR","rawOb":"METAR SBKP 141900Z 14007KT 120V180 CAVOK 28/13 Q1015","temp":28,"dewp":13,"wdir":140,"wspd":7,"visib":"6+","altim":1015,"clouds":[],"obsTime":1776193200},"SBLO":{"icaoId":"SBLO","flightCategory":"VFR","rawOb":"METAR SBLO 141900Z 08007KT 050V120 CAVOK 28/18 Q1013","temp":28,"dewp":18,"wdir":80,"wspd":7,"visib":"6+","altim":1013,"clouds":[],"obsTime":1776193200},"SBMA":{"icaoId":"SBMA","flightCategory":"MVFR","rawOb":"METAR SBMA 141900Z 18005KT 9999 BKN025 FEW030TCU 34/23 Q1006","temp":34,"dewp":23,"wdir":180,"wspd":5,"visib":"6+","altim":1006,"clouds":[{"cover":"BKN","base":2500},{"cover":"FEW","base":3000}],"obsTime":1776193200},"SBME":{"icaoId":"SBME","flightCategory":"VFR","rawOb":"METAR SBME 141900Z 17009KT 9999 FEW030 27/20 Q1013","temp":27,"dewp":20,"wdir":170,"wspd":9,"visib":"6+","altim":1013,"clouds":[{"cover":"FEW","base":3000}],"obsTime":1776193200},"SBMG":{"icaoId":"SBMG","flightCategory":"VFR","rawOb":"METAR SBMG 141900Z 03006KT 340V090 9999 SCT046 29/19 Q1012","temp":29,"dewp":19,"wdir":30,"wspd":6,"visib":"6+","altim":1012,"clouds":[{"cover":"SCT","base":4600}],"obsTime":1776193200},"SBMK":{"icaoId":"SBMK","flightCategory":"VFR","rawOb":"METAR SBMK 141900Z 08007KT 9999 SCT040 28/17 Q1014","temp":28,"dewp":17,"wdir":80,"wspd":7,"visib":"6+","altim":1014,"clouds":[{"cover":"SCT","base":4000}],"obsTime":1776193200},"SBMQ":{"icaoId":"SBMQ","flightCategory":"VFR","rawOb":"METAR SBMQ 141900Z 06005KT 9999 SCT030 FEW040TCU SCT080 31/25 Q1006","temp":31,"dewp":25,"wdir":60,"wspd":5,"visib":"6+","altim":1006,"clouds":[{"cover":"SCT","base":3000},{"cover":"FEW","base":4000},{"cover":"SCT","base":8000}],"obsTime":1776193200},"SBNT":{"icaoId":"SBNT","flightCategory":"VFR","rawOb":"METAR SBNT 141900Z 13010KT 9999 FEW019 FEW025TCU BKN050 BKN080 28/24 Q1008","temp":28,"dewp":24,"wdir":130,"wspd":10,"visib":"6+","altim":1008,"clouds":[{"cover":"FEW","base":1900},{"cover":"FEW","base":2500},{"cover":"BKN","base":5000},{"cover":"BKN","base":8000}],"obsTime":1776193200},"SBPA":{"icaoId":"SBPA","flightCategory":"VFR","rawOb":"METAR SBPA 141900Z 19008KT 160V230 9999 FEW025 28/21 Q1012","temp":28,"dewp":21,"wdir":190,"wspd":8,"visib":"6+","altim":1012,"clouds":[{"cover":"FEW","base":2500}],"obsTime":1776193200},"SBPJ":{"icaoId":"SBPJ","flightCategory":"VFR","rawOb":"METAR SBPJ 141900Z 24005KT 9999 SCT035 31/24 Q1008","temp":31,"dewp":24,"wdir":240,"wspd":5,"visib":"6+","altim":1008,"clouds":[{"cover":"SCT","base":3500}],"obsTime":1776193200},"SBPV":{"icaoId":"SBPV","flightCategory":"VFR","rawOb":"METAR SBPV 141900Z 34004KT 9999 SCT030 32/24 Q1006","temp":32,"dewp":24,"wdir":340,"wspd":4,"visib":"6+","altim":1006,"clouds":[{"cover":"SCT","base":3000}],"obsTime":1776193200},"SBRB":{"icaoId":"SBRB","flightCategory":"VFR","rawOb":"METAR SBRB 141900Z 29003KT 230V350 9999 FEW008 SCT020 FEW030TCU 26/24 Q1008","temp":26,"dewp":24,"wdir":290,"wspd":3,"visib":"6+","altim":1008,"clouds":[{"cover":"FEW","base":800},{"cover":"SCT","base":2000},{"cover":"FEW","base":3000}],"obsTime":1776193200},"SBRF":{"icaoId":"SBRF","flightCategory":"VFR","rawOb":"METAR SBRF 141900Z 13010KT 9999 SCT023 SCT070 29/23 Q1008","temp":29,"dewp":23,"wdir":130,"wspd":10,"visib":"6+","altim":1008,"clouds":[{"cover":"SCT","base":2300},{"cover":"SCT","base":7000}],"obsTime":1776193200},"SBSG":{"icaoId":"SBSG","flightCategory":"VFR","rawOb":"METAR SBSG 141900Z 13004KT 100V170 9999 FEW025 BKN050 26/25 Q1008","temp":26,"dewp":25,"wdir":130,"wspd":4,"visib":"6+","altim":1008,"clouds":[{"cover":"FEW","base":2500},{"cover":"BKN","base":5000}],"obsTime":1776193200},"SBSL":{"icaoId":"SBSL","flightCategory":"VFR","rawOb":"METAR SBSL 141900Z 07013KT 9999 SCT015 29/25 Q1006","temp":29,"dewp":25,"wdir":70,"wspd":13,"visib":"6+","altim":1006,"clouds":[{"cover":"SCT","base":1500}],"obsTime":1776193200},"SBSN":{"icaoId":"SBSN","flightCategory":"VFR","rawOb":"METAR SBSN 141900Z 05005KT 9999 TS FEW020 FEW026CB 31/24 Q1006","temp":31,"dewp":24,"wdir":50,"wspd":5,"visib":"6+","altim":1006,"clouds":[{"cover":"FEW","base":2000},{"cover":"FEW","base":2600}],"obsTime":1776193200},"SBSP":{"icaoId":"SBSP","flightCategory":"VFR","rawOb":"METAR SBSP 141900Z 14012KT 9999 FEW026 23/16 Q1017","temp":23,"dewp":16,"wdir":140,"wspd":12,"visib":"6+","altim":1017,"clouds":[{"cover":"FEW","base":2600}],"obsTime":1776193200},"SBSV":{"icaoId":"SBSV","flightCategory":"VFR","rawOb":"METAR SBSV 141900Z 14010KT 9999 SCT023 FEW025TCU SCT070 29/22 Q1010","temp":29,"dewp":22,"wdir":140,"wspd":10,"visib":"6+","altim":1010,"clouds":[{"cover":"SCT","base":2300},{"cover":"FEW","base":2500},{"cover":"SCT","base":7000}],"obsTime":1776193200},"SBTE":{"icaoId":"SBTE","flightCategory":"MVFR","rawOb":"METAR SBTE 141900Z 06008KT 8000 -TSRA SCT014 SCT020 FEW030CB BKN090 25/23 Q1007","temp":25,"dewp":23,"wdir":60,"wspd":8,"visib":4.97,"altim":1007,"clouds":[{"cover":"SCT","base":1400},{"cover":"SCT","base":2000},{"cover":"FEW","base":3000},{"cover":"BKN","base":9000}],"obsTime":1776193200},"SBUL":{"icaoId":"SBUL","flightCategory":"VFR","rawOb":"METAR SBUL 141900Z 08006KT 9999 BKN040 27/16 Q1015","temp":27,"dewp":16,"wdir":80,"wspd":6,"visib":"6+","altim":1015,"clouds":[{"cover":"BKN","base":4000}],"obsTime":1776193200},"SBUR":{"icaoId":"SBUR","flightCategory":"VFR","rawOb":"METAR SBUR 141900Z 17007KT 9999 SCT048 28/15 Q1014","temp":28,"dewp":15,"wdir":170,"wspd":7,"visib":"6+","altim":1014,"clouds":[{"cover":"SCT","base":4800}],"obsTime":1776193200},"SBVH":{"icaoId":"SBVH","flightCategory":"VFR","rawOb":"METAR SBVH 141900Z 34008KT 300V020 9999 SCT030 FEW035TCU 29/22 Q1010","temp":29,"dewp":22,"wdir":340,"wspd":8,"visib":"6+","altim":1010,"clouds":[{"cover":"SCT","base":3000},{"cover":"FEW","base":3500}],"obsTime":1776193200},"SBPB":{"icaoId":"SBPB","flightCategory":"MVFR","rawOb":"METAR SBPB 141900Z 08003KT 9999 BKN015 OVC070 27/25 Q1007","temp":27,"dewp":25,"wdir":80,"wspd":3,"visib":"6+","altim":1007,"clouds":[{"cover":"BKN","base":1500},{"cover":"OVC","base":7000}],"obsTime":1776193200},"SBBU":{"icaoId":"SBBU","flightCategory":"VFR","rawOb":"METAR SBBU 141900Z 08008KT 9999 FEW040 29/17 Q1013","temp":29,"dewp":17,"wdir":80,"wspd":8,"visib":"6+","altim":1013,"clouds":[{"cover":"FEW","base":4000}],"obsTime":1776193200},"SBCO":{"icaoId":"SBCO","flightCategory":"VFR","rawOb":"METAR SBCO 141900Z 25007KT 9999 SCT045 28/21 Q1012","temp":28,"dewp":21,"wdir":250,"wspd":7,"visib":"6+","altim":1012,"clouds":[{"cover":"SCT","base":4500}],"obsTime":1776193200},"SBPL":{"icaoId":"SBPL","flightCategory":"VFR","rawOb":"METAR SBPL 141900Z 11006KT 9999 SCT030 31/20 Q1009","temp":31,"dewp":20,"wdir":110,"wspd":6,"visib":"6+","altim":1009,"clouds":[{"cover":"SCT","base":3000}],"obsTime":1776193200},"SBBH":{"icaoId":"SBBH","flightCategory":"VFR","rawOb":"METAR SBBH 141900Z 18006KT 9999 -RA BKN035 FEW040TCU 24/18 Q1015","temp":24,"dewp":18,"wdir":180,"wspd":6,"visib":"6+","altim":1015,"clouds":[{"cover":"BKN","base":3500},{"cover":"FEW","base":4000}],"obsTime":1776193200},"SBPP":{"icaoId":"SBPP","flightCategory":"VFR","rawOb":"METAR SBPP 141900Z 04014KT 9999 SCT020 28/20 Q1011","temp":28,"dewp":20,"wdir":40,"wspd":14,"visib":"6+","altim":1011,"clouds":[{"cover":"SCT","base":2000}],"obsTime":1776193200},"SBPS":{"icaoId":"SBPS","flightCategory":"VFR","rawOb":"METAR SBPS 141900Z 15006KT 9999 FEW030 27/21 Q1012","temp":27,"dewp":21,"wdir":150,"wspd":6,"visib":"6+","altim":1012,"clouds":[{"cover":"FEW","base":3000}],"obsTime":1776193200},"SBDN":{"icaoId":"SBDN","flightCategory":"VFR","rawOb":"METAR SBDN 141900Z 07003KT 9999 SCT049 30/17 Q1012","temp":30,"dewp":17,"wdir":70,"wspd":3,"visib":"6+","altim":1012,"clouds":[{"cover":"SCT","base":4900}],"obsTime":1776193200},"SBES":{"icaoId":"SBES","flightCategory":"VFR","rawOb":"METAR SBES 141900Z 20008KT 9999 FEW025 26/// Q1013","temp":null,"dewp":null,"wdir":200,"wspd":8,"visib":"6+","altim":1013,"clouds":[{"cover":"FEW","base":2500}],"obsTime":1776193200},"SBSC":{"icaoId":"SBSC","flightCategory":"VFR","rawOb":"METAR SBSC 141900Z 20008KT CAVOK 26/20 Q1014","temp":26,"dewp":20,"wdir":200,"wspd":8,"visib":"6+","altim":1014,"clouds":[],"obsTime":1776193200},"SBSJ":{"icaoId":"SBSJ","flightCategory":"VFR","rawOb":"METAR SBSJ 141900Z 17003KT 9999 SCT040 25/14 Q1015","temp":25,"dewp":14,"wdir":170,"wspd":3,"visib":"6+","altim":1015,"clouds":[{"cover":"SCT","base":4000}],"obsTime":1776193200},"SBCA":{"icaoId":"SBCA","flightCategory":"VFR","rawOb":"METAR SBCA 141900Z 05011KT 9999 SCT030 BKN080 26/18 Q1014","temp":26,"dewp":18,"wdir":50,"wspd":11,"visib":"6+","altim":1014,"clouds":[{"cover":"SCT","base":3000},{"cover":"BKN","base":8000}],"obsTime":1776193200},"SBAX":{"icaoId":"SBAX","flightCategory":"VFR","rawOb":"METAR SBAX 141900Z 06004KT 9999 SCT025 28/13 Q1015","temp":28,"dewp":13,"wdir":60,"wspd":4,"visib":"6+","altim":1015,"clouds":[{"cover":"SCT","base":2500}],"obsTime":1776193200},"SBSM":{"icaoId":"SBSM","flightCategory":"VFR","rawOb":"METAR SBSM 141900Z 12007KT 9999 FEW020 26/22 Q1011","temp":26,"dewp":22,"wdir":120,"wspd":7,"visib":"6+","altim":1011,"clouds":[{"cover":"FEW","base":2000}],"obsTime":1776193200},"SBCC":{"icaoId":"SBCC","flightCategory":"VFR","rawOb":"METAR SBCC 141900Z 27005KT 9999 SCT025 FEW030TCU SCT100 26/22 Q1009","temp":26,"dewp":22,"wdir":270,"wspd":5,"visib":"6+","altim":1009,"clouds":[{"cover":"SCT","base":2500},{"cover":"FEW","base":3000},{"cover":"SCT","base":10000}],"obsTime":1776193200},"SBSR":{"icaoId":"SBSR","flightCategory":"VFR","rawOb":"METAR SBSR 141900Z VRB06KT 9999 SCT035 30/12 Q1012","temp":30,"dewp":12,"wdir":"VRB","wspd":6,"visib":"6+","altim":1012,"clouds":[{"cover":"SCT","base":3500}],"obsTime":1776193200},"SBIP":{"icaoId":"SBIP","flightCategory":"VFR","rawOb":"METAR SBIP 141900Z AUTO 20003KT 150V240 CAVOK 29/17 Q1012","temp":29,"dewp":17,"wdir":200,"wspd":3,"visib":"6+","altim":1012,"clouds":[],"obsTime":1776193200},"SBTF":{"icaoId":"SBTF","flightCategory":"VFR","rawOb":"METAR SBTF 141900Z 06005KT 9999 SCT017 30/26 Q1007","temp":30,"dewp":26,"wdir":60,"wspd":5,"visib":"6+","altim":1007,"clouds":[{"cover":"SCT","base":1700}],"obsTime":1776193200},"SBOI":{"icaoId":"SBOI","flightCategory":"MVFR","rawOb":"METAR SBOI 141900Z AUTO 31004KT 280V350 9999 -RA FEW016 BKN026 OVC030 26/25 Q1008","temp":26,"dewp":25,"wdir":310,"wspd":4,"visib":"6+","altim":1008,"clouds":[{"cover":"FEW","base":1600},{"cover":"BKN","base":2600},{"cover":"OVC","base":3000}],"obsTime":1776193200},"SBTT":{"icaoId":"SBTT","flightCategory":"VFR","rawOb":"METAR SBTT 141900Z 29005KT 9999 VCSH SCT040 FEW045TCU 31/22 Q1007","temp":31,"dewp":22,"wdir":290,"wspd":5,"visib":"6+","altim":1007,"clouds":[{"cover":"SCT","base":4000},{"cover":"FEW","base":4500}],"obsTime":1776193200},"SBAR":{"icaoId":"SBAR","flightCategory":"VFR","rawOb":"METAR SBAR 141900Z 10009KT 9999 VCSH SCT020 FEW022TCU 29/23 Q1009","temp":29,"dewp":23,"wdir":100,"wspd":9,"visib":"6+","altim":1009,"clouds":[{"cover":"SCT","base":2000},{"cover":"FEW","base":2200}],"obsTime":1776193200},"SBKG":{"icaoId":"SBKG","flightCategory":"MVFR","rawOb":"METAR SBKG 141900Z 08008KT 9999 -RA BKN010 24/23 Q1011","temp":24,"dewp":23,"wdir":80,"wspd":8,"visib":"6+","altim":1011,"clouds":[{"cover":"BKN","base":1000}],"obsTime":1776193200},"SBUY":{"icaoId":"SBUY","flightCategory":"VFR","rawOb":"METAR SBUY 141900Z 04008KT 9999 SCT025 32/23 Q1006","temp":32,"dewp":23,"wdir":40,"wspd":8,"visib":"6+","altim":1006,"clouds":[{"cover":"SCT","base":2500}],"obsTime":1776193200},"SBCJ":{"icaoId":"SBCJ","flightCategory":"VFR","rawOb":"METAR SBCJ 141900Z 00000KT 9999 FEW019 25/24 Q1011","temp":25,"dewp":24,"wdir":0,"wspd":0,"visib":"6+","altim":1011,"clouds":[{"cover":"FEW","base":1900}],"obsTime":1776193200},"SBBQ":{"icaoId":"SBBQ","flightCategory":"VFR","rawOb":"METAR SBBQ 141900Z 12005KT 9999 SCT040 23/12 Q1019","temp":23,"dewp":12,"wdir":120,"wspd":5,"visib":"6+","altim":1019,"clouds":[{"cover":"SCT","base":4000}],"obsTime":1776193200},"SBGM":{"icaoId":"SBGM","flightCategory":"MVFR","rawOb":"METAR SBGM 141900Z 23004KT 180V270 9999 BKN013 OVC050 30/22 Q1007","temp":30,"dewp":22,"wdir":230,"wspd":4,"visib":"6+","altim":1007,"clouds":[{"cover":"BKN","base":1300},{"cover":"OVC","base":5000}],"obsTime":1776193200},"SBJV":{"icaoId":"SBJV","flightCategory":"VFR","rawOb":"METAR SBJV 141900Z 07006KT 9999 SCT030 28/18 Q1014","temp":28,"dewp":18,"wdir":70,"wspd":6,"visib":"6+","altim":1014,"clouds":[{"cover":"SCT","base":3000}],"obsTime":1776193200},"SBIH":{"icaoId":"SBIH","flightCategory":"VFR","rawOb":"METAR SBIH 141900Z 28002KT 9999 FEW020 FEW025TCU 29/26 Q1006","temp":29,"dewp":26,"wdir":280,"wspd":2,"visib":"6+","altim":1006,"clouds":[{"cover":"FEW","base":2000},{"cover":"FEW","base":2500}],"obsTime":1776193200},"SBLE":{"icaoId":"SBLE","flightCategory":"VFR","rawOb":"METAR SBLE 141900Z AUTO 15004KT 110V170 CAVOK 27/20 Q1013","temp":27,"dewp":20,"wdir":150,"wspd":4,"visib":"6+","altim":1013,"clouds":[],"obsTime":1776193200},"SBJP":{"icaoId":"SBJP","flightCategory":"MVFR","rawOb":"METAR SBJP 141900Z 16006KT 9999 BKN022 BKN070 27/24 Q1009","temp":27,"dewp":24,"wdir":160,"wspd":6,"visib":"6+","altim":1009,"clouds":[{"cover":"BKN","base":2200},{"cover":"BKN","base":7000}],"obsTime":1776193200},"SBLS":{"icaoId":"SBLS","flightCategory":"VFR","rawOb":"METAR SBLS 141900Z 18004KT 120V200 9999 SCT040 26/15 Q1015","temp":26,"dewp":15,"wdir":180,"wspd":4,"visib":"6+","altim":1015,"clouds":[{"cover":"SCT","base":4000}],"obsTime":1776193200},"SBAF":{"icaoId":"SBAF","flightCategory":"VFR","rawOb":"METAR SBAF 141900Z 19012KT 9999 FEW030 27/18 Q1014","temp":27,"dewp":18,"wdir":190,"wspd":12,"visib":"6+","altim":1014,"clouds":[{"cover":"FEW","base":3000}],"obsTime":1776193200},"SBMT":{"icaoId":"SBMT","flightCategory":"VFR","rawOb":"METAR SBMT 141900Z 17012KT 120V200 9999 FEW033 24/16 Q1016","temp":24,"dewp":16,"wdir":170,"wspd":12,"visib":"6+","altim":1016,"clouds":[{"cover":"FEW","base":3300}],"obsTime":1776193200},"SBPF":{"icaoId":"SBPF","flightCategory":"VFR","rawOb":"METAR SBPF 142000Z 05010KT 9999 FEW045 25/16 Q1016","temp":25,"dewp":16,"wdir":50,"wspd":10,"visib":"6+","altim":1016,"clouds":[{"cover":"FEW","base":4500}],"obsTime":1776196800},"SBGW":{"icaoId":"SBGW","flightCategory":"VFR","rawOb":"METAR SBGW 141900Z 30003KT 9999 FEW035 28/14 Q1015","temp":28,"dewp":14,"wdir":300,"wspd":3,"visib":"6+","altim":1015,"clouds":[{"cover":"FEW","base":3500}],"obsTime":1776193200},"SBST":{"icaoId":"SBST","flightCategory":"VFR","rawOb":"METAR SBST 141900Z 17009KT 9999 FEW045 26/18 Q1014","temp":26,"dewp":18,"wdir":170,"wspd":9,"visib":"6+","altim":1014,"clouds":[{"cover":"FEW","base":4500}],"obsTime":1776193200},"SBJR":{"icaoId":"SBJR","flightCategory":"VFR","rawOb":"METAR SBJR 141900Z 16007KT 9999 FEW025 27/20 Q1014","temp":27,"dewp":20,"wdir":160,"wspd":7,"visib":"6+","altim":1014,"clouds":[{"cover":"FEW","base":2500}],"obsTime":1776193200},"SBTA":{"icaoId":"SBTA","flightCategory":"VFR","rawOb":"METAR SBTA 141900Z 05003KT 9999 FEW040 27/13 Q1014","temp":27,"dewp":13,"wdir":50,"wspd":3,"visib":"6+","altim":1014,"clouds":[{"cover":"FEW","base":4000}],"obsTime":1776193200},"SBAN":{"icaoId":"SBAN","flightCategory":"VFR","rawOb":"METAR SBAN 141900Z 04003KT 9999 VCSH BKN040 FEW045TCU 26/17 Q1016","temp":26,"dewp":17,"wdir":40,"wspd":3,"visib":"6+","altim":1016,"clouds":[{"cover":"BKN","base":4000},{"cover":"FEW","base":4500}],"obsTime":1776193200}}}