{"updated":1782565333,"count":86,"data":{"SBSG":{"icaoId":"SBSG","flightCategory":"MVFR","rawOb":"METAR SBSG 271200Z 18005KT 130V220 9999 BKN011 26/24 Q1018","temp":26,"dewp":24,"wdir":180,"wspd":5,"visib":"6+","altim":1018,"clouds":[{"cover":"BKN","base":1100}],"obsTime":1782561600},"SBMQ":{"icaoId":"SBMQ","flightCategory":"VFR","rawOb":"METAR SBMQ 271200Z 09008KT 9999 FEW013 SCT022 28/25 Q1015","temp":28,"dewp":25,"wdir":90,"wspd":8,"visib":"6+","altim":1015,"clouds":[{"cover":"FEW","base":1300},{"cover":"SCT","base":2200}],"obsTime":1782561600},"SBFZ":{"icaoId":"SBFZ","flightCategory":"VFR","rawOb":"METAR SBFZ 271200Z 16009KT 9999 FEW023 28/22 Q1016","temp":28,"dewp":22,"wdir":160,"wspd":9,"visib":"6+","altim":1016,"clouds":[{"cover":"FEW","base":2300}],"obsTime":1782561600},"SBCG":{"icaoId":"SBCG","flightCategory":"VFR","rawOb":"METAR SBCG 271200Z 06015KT 9999 FEW003 SCT100 20/18 Q1021","temp":20,"dewp":18,"wdir":60,"wspd":15,"visib":"6+","altim":1021,"clouds":[{"cover":"FEW","base":300},{"cover":"SCT","base":10000}],"obsTime":1782561600},"SBKP":{"icaoId":"SBKP","flightCategory":"VFR","rawOb":"METAR SBKP 271200Z 13005KT CAVOK 18/15 Q1026","temp":18,"dewp":15,"wdir":130,"wspd":5,"visib":"6+","altim":1026,"clouds":[],"obsTime":1782561600},"SBRB":{"icaoId":"SBRB","flightCategory":"LIFR","rawOb":"METAR SBRB 271200Z 20003KT 0800 R07///// R25///// FG VV006 20/19 Q1018","temp":20,"dewp":19,"wdir":200,"wspd":3,"visib":0.5,"altim":1018,"clouds":[{"cover":"OVX","base":600}],"obsTime":1782561600},"SBFI":{"icaoId":"SBFI","flightCategory":"VFR","rawOb":"METAR SBFI 271200Z 17005KT 9999 -TSRA SCT025 FEW030CB SCT100 14/13 Q1021 RETS","temp":14,"dewp":13,"wdir":170,"wspd":5,"visib":"6+","altim":1021,"clouds":[{"cover":"SCT","base":2500},{"cover":"FEW","base":3000},{"cover":"SCT","base":10000}],"obsTime":1782561600},"SBBR":{"icaoId":"SBBR","flightCategory":"MVFR","rawOb":"METAR SBBR 271200Z 10013KT 9999 OVC011 18/16 Q1027","temp":18,"dewp":16,"wdir":100,"wspd":13,"visib":"6+","altim":1027,"clouds":[{"cover":"OVC","base":1100}],"obsTime":1782561600},"SBMO":{"icaoId":"SBMO","flightCategory":"MVFR","rawOb":"METAR SBMO 271200Z 17009KT 9999 BKN015 24/23 Q1019","temp":24,"dewp":23,"wdir":170,"wspd":9,"visib":"6+","altim":1019,"clouds":[{"cover":"BKN","base":1500}],"obsTime":1782561600},"SBGL":{"icaoId":"SBGL","flightCategory":"LIFR","rawOb":"METAR SBGL 271200Z 29002KT 1500 R10/1200D R28/1200N R33/1200D BR FEW002 BKN004 BKN080 20/19 Q1024","temp":20,"dewp":19,"wdir":290,"wspd":2,"visib":0.93,"altim":1024,"clouds":[{"cover":"FEW","base":200},{"cover":"BKN","base":400},{"cover":"BKN","base":8000}],"obsTime":1782561600},"SBSV":{"icaoId":"SBSV","flightCategory":"VFR","rawOb":"METAR SBSV 271200Z 12013KT 9999 VCSH SCT025 FEW026TCU 27/21 Q1021","temp":27,"dewp":21,"wdir":120,"wspd":13,"visib":"6+","altim":1021,"clouds":[{"cover":"SCT","base":2500},{"cover":"FEW","base":2600}],"obsTime":1782561600},"SBPJ":{"icaoId":"SBPJ","flightCategory":"VFR","rawOb":"METAR SBPJ 271200Z 13014KT 9999 FEW040 BKN080 28/19 Q1018","temp":28,"dewp":19,"wdir":130,"wspd":14,"visib":"6+","altim":1018,"clouds":[{"cover":"FEW","base":4000},{"cover":"BKN","base":8000}],"obsTime":1782561600},"SBBE":{"icaoId":"SBBE","flightCategory":"VFR","rawOb":"METAR SBBE 271200Z 07010KT CAVOK 27/23 Q1015","temp":27,"dewp":23,"wdir":70,"wspd":10,"visib":"6+","altim":1015,"clouds":[],"obsTime":1782561600},"SBEG":{"icaoId":"SBEG","flightCategory":"VFR","rawOb":"METAR SBEG 271200Z 00000KT 9999 FEW020 FEW025TCU SCT100 24/23 Q1015","temp":24,"dewp":23,"wdir":0,"wspd":0,"visib":"6+","altim":1015,"clouds":[{"cover":"FEW","base":2000},{"cover":"FEW","base":2500},{"cover":"SCT","base":10000}],"obsTime":1782561600},"SBBV":{"icaoId":"SBBV","flightCategory":"MVFR","rawOb":"METAR SBBV 271200Z 32003KT 9999 SCT004 BKN020 FEW030TCU 26/25 Q1015","temp":26,"dewp":25,"wdir":320,"wspd":3,"visib":"6+","altim":1015,"clouds":[{"cover":"SCT","base":400},{"cover":"BKN","base":2000},{"cover":"FEW","base":3000}],"obsTime":1782561600},"SBPA":{"icaoId":"SBPA","flightCategory":"MVFR","rawOb":"METAR SBPA 271200Z 28005KT 7000 FEW010 07/07 Q1023","temp":7,"dewp":7,"wdir":280,"wspd":5,"visib":4.35,"altim":1023,"clouds":[{"cover":"FEW","base":1000}],"obsTime":1782561600},"SBGO":{"icaoId":"SBGO","flightCategory":"VFR","rawOb":"METAR SBGO 271200Z 07009KT CAVOK 23/16 Q1024","temp":23,"dewp":16,"wdir":70,"wspd":9,"visib":"6+","altim":1024,"clouds":[],"obsTime":1782561600},"SBCP":{"icaoId":"SBCP","flightCategory":"VFR","rawOb":"METAR SBCP 271200Z 04008KT 9999 SCT015 25/21 Q1025","temp":25,"dewp":21,"wdir":40,"wspd":8,"visib":"6+","altim":1025,"clouds":[{"cover":"SCT","base":1500}],"obsTime":1782561600},"SBGR":{"icaoId":"SBGR","flightCategory":"MVFR","rawOb":"METAR SBGR 271200Z 06008KT 9999 BKN011 18/15 Q1027","temp":18,"dewp":15,"wdir":60,"wspd":8,"visib":"6+","altim":1027,"clouds":[{"cover":"BKN","base":1100}],"obsTime":1782561600},"SBCB":{"icaoId":"SBCB","flightCategory":"VFR","rawOb":"METAR SBCB 271200Z 09009KT 9999 SCT025 24/20 Q1024","temp":24,"dewp":20,"wdir":90,"wspd":9,"visib":"6+","altim":1024,"clouds":[{"cover":"SCT","base":2500}],"obsTime":1782561600},"SBRF":{"icaoId":"SBRF","flightCategory":"IFR","rawOb":"SPECI SBRF 271118Z 13016KT 3000 RA BKN010 BKN050 25/24 Q1018","temp":25,"dewp":24,"wdir":130,"wspd":16,"visib":1.86,"altim":1018,"clouds":[{"cover":"BKN","base":1000},{"cover":"BKN","base":5000}],"obsTime":1782559080},"SBCT":{"icaoId":"SBCT","flightCategory":"IFR","rawOb":"SPECI SBCT 271110Z 11003KT 060V140 3000 BR SCT002 OVC006 11/11 Q1026","temp":11,"dewp":11,"wdir":110,"wspd":3,"visib":1.86,"altim":1026,"clouds":[{"cover":"SCT","base":200},{"cover":"OVC","base":600}],"obsTime":1782558600},"SBVT":{"icaoId":"SBVT","flightCategory":"VFR","rawOb":"SPECI SBVT 271135Z 21003KT 160V240 9999 VCSH FEW004 SCT028 21/21 Q1025","temp":21,"dewp":21,"wdir":210,"wspd":3,"visib":"6+","altim":1025,"clouds":[{"cover":"FEW","base":400},{"cover":"SCT","base":2800}],"obsTime":1782560100},"SBMA":{"icaoId":"SBMA","flightCategory":"VFR","rawOb":"METAR SBMA 271200Z 01006KT CAVOK 28/22 Q1016","temp":28,"dewp":22,"wdir":10,"wspd":6,"visib":"6+","altim":1016,"clouds":[],"obsTime":1782561600},"SBLO":{"icaoId":"SBLO","flightCategory":"VFR","rawOb":"METAR SBLO 271200Z 24003KT 9000 SCT030 BKN100 17/16 Q1024","temp":17,"dewp":16,"wdir":240,"wspd":3,"visib":5.59,"altim":1024,"clouds":[{"cover":"SCT","base":3000},{"cover":"BKN","base":10000}],"obsTime":1782561600},"SBTE":{"icaoId":"SBTE","flightCategory":"VFR","rawOb":"METAR SBTE 271200Z 13007KT 9999 FEW015 29/22 Q1016","temp":29,"dewp":22,"wdir":130,"wspd":7,"visib":"6+","altim":1016,"clouds":[{"cover":"FEW","base":1500}],"obsTime":1782561600},"SBCF":{"icaoId":"SBCF","flightCategory":"VFR","rawOb":"METAR SBCF 271200Z 12009KT 9999 FEW017 20/16 Q1028","temp":20,"dewp":16,"wdir":120,"wspd":9,"visib":"6+","altim":1028,"clouds":[{"cover":"FEW","base":1700}],"obsTime":1782561600},"SBPV":{"icaoId":"SBPV","flightCategory":"LIFR","rawOb":"METAR SBPV 271200Z 19003KT 9999 BKN004 22/21 Q1016","temp":22,"dewp":21,"wdir":190,"wspd":3,"visib":"6+","altim":1016,"clouds":[{"cover":"BKN","base":400}],"obsTime":1782561600},"SBSP":{"icaoId":"SBSP","flightCategory":"IFR","rawOb":"METAR SBSP 271200Z 06005KT 8000 BKN007 16/15 Q1028","temp":16,"dewp":15,"wdir":60,"wspd":5,"visib":4.97,"altim":1028,"clouds":[{"cover":"BKN","base":700}],"obsTime":1782561600},"SBSL":{"icaoId":"SBSL","flightCategory":"VFR","rawOb":"METAR SBSL 271200Z 09011KT 9999 FEW020 28/24 Q1015","temp":28,"dewp":24,"wdir":90,"wspd":11,"visib":"6+","altim":1015,"clouds":[{"cover":"FEW","base":2000}],"obsTime":1782561600},"SBCR":{"icaoId":"SBCR","flightCategory":"VFR","rawOb":"METAR SBCR 271200Z VRB01KT CAVOK 21/18 Q1018","temp":21,"dewp":18,"wdir":"VRB","wspd":1,"visib":"6+","altim":1018,"clouds":[],"obsTime":1782561600},"SBFL":{"icaoId":"SBFL","flightCategory":"VFR","rawOb":"METAR SBFL 271200Z VRB02KT 9999 FEW012 15/13 Q1023","temp":15,"dewp":13,"wdir":"VRB","wspd":2,"visib":"6+","altim":1023,"clouds":[{"cover":"FEW","base":1200}],"obsTime":1782561600},"SBAT":{"icaoId":"SBAT","flightCategory":"VFR","rawOb":"METAR SBAT 271200Z 12004KT CAVOK 27/20 Q1017","temp":27,"dewp":20,"wdir":120,"wspd":4,"visib":"6+","altim":1017,"clouds":[],"obsTime":1782561600},"SBHT":{"icaoId":"SBHT","flightCategory":"MVFR","rawOb":"METAR SBHT 271200Z 11006KT 9999 BKN015 27/24 Q1016","temp":27,"dewp":24,"wdir":110,"wspd":6,"visib":"6+","altim":1016,"clouds":[{"cover":"BKN","base":1500}],"obsTime":1782561600},"SBIL":{"icaoId":"SBIL","flightCategory":"VFR","rawOb":"METAR SBIL 271200Z 23007KT 9999 VCSH FEW010 SCT020 25/24 Q1022","temp":25,"dewp":24,"wdir":230,"wspd":7,"visib":"6+","altim":1022,"clouds":[{"cover":"FEW","base":1000},{"cover":"SCT","base":2000}],"obsTime":1782561600},"SBJU":{"icaoId":"SBJU","flightCategory":"MVFR","rawOb":"METAR SBJU 271200Z 12009KT 9999 BKN020 27/21 Q1019","temp":27,"dewp":21,"wdir":120,"wspd":9,"visib":"6+","altim":1019,"clouds":[{"cover":"BKN","base":2000}],"obsTime":1782561600},"SBMG":{"icaoId":"SBMG","flightCategory":"LIFR","rawOb":"METAR SBMG 271200Z 15006KT 0150 R10/0225N FG VV001 15/15 Q1023","temp":15,"dewp":15,"wdir":150,"wspd":6,"visib":0.09,"altim":1023,"clouds":[{"cover":"OVX","base":100}],"obsTime":1782561600},"SBME":{"icaoId":"SBME","flightCategory":"VFR","rawOb":"METAR SBME 271200Z 03010KT 9999 SCT015 24/21 Q1024","temp":24,"dewp":21,"wdir":30,"wspd":10,"visib":"6+","altim":1024,"clouds":[{"cover":"SCT","base":1500}],"obsTime":1782561600},"SBMK":{"icaoId":"SBMK","flightCategory":"VFR","rawOb":"METAR SBMK 271200Z 08007KT 9999 FEW035 22/14 Q1026","temp":22,"dewp":14,"wdir":80,"wspd":7,"visib":"6+","altim":1026,"clouds":[{"cover":"FEW","base":3500}],"obsTime":1782561600},"SBUL":{"icaoId":"SBUL","flightCategory":"VFR","rawOb":"METAR SBUL 271200Z 11009KT CAVOK 19/15 Q1026","temp":19,"dewp":15,"wdir":110,"wspd":9,"visib":"6+","altim":1026,"clouds":[],"obsTime":1782561600},"SBUR":{"icaoId":"SBUR","flightCategory":"VFR","rawOb":"METAR SBUR 271200Z 07004KT CAVOK 20/15 Q1025","temp":20,"dewp":15,"wdir":70,"wspd":4,"visib":"6+","altim":1025,"clouds":[],"obsTime":1782561600},"SBCZ":{"icaoId":"SBCZ","flightCategory":"MVFR","rawOb":"METAR SBCZ 271200Z 12003KT 9999 FEW003 BKN030 21/21 Q1018","temp":21,"dewp":21,"wdir":120,"wspd":3,"visib":"6+","altim":1018,"clouds":[{"cover":"FEW","base":300},{"cover":"BKN","base":3000}],"obsTime":1782561600},"SBNT":{"icaoId":"SBNT","flightCategory":"MVFR","rawOb":"METAR SBNT 271200Z 16008KT 9999 BKN011 26/24 Q1017","temp":26,"dewp":24,"wdir":160,"wspd":8,"visib":"6+","altim":1017,"clouds":[{"cover":"BKN","base":1100}],"obsTime":1782561600},"SBSN":{"icaoId":"SBSN","flightCategory":"IFR","rawOb":"SPECI SBSN 271148Z 09021KT 2500 RA BKN010 FEW017TCU 25/23 Q1015","temp":25,"dewp":23,"wdir":90,"wspd":21,"visib":1.55,"altim":1015,"clouds":[{"cover":"BKN","base":1000},{"cover":"FEW","base":1700}],"obsTime":1782560880},"SBPS":{"icaoId":"SBPS","flightCategory":"MVFR","rawOb":"METAR SBPS 271200Z 18002KT 9999 VCSH SCT015 BKN020 24/22 Q1023","temp":24,"dewp":22,"wdir":180,"wspd":2,"visib":"6+","altim":1023,"clouds":[{"cover":"SCT","base":1500},{"cover":"BKN","base":2000}],"obsTime":1782561600},"SBTF":{"icaoId":"SBTF","flightCategory":"VFR","rawOb":"SPECI SBTF 271115Z 22004KT 9999 SCT013 SCT025 24/24 Q1014","temp":24,"dewp":24,"wdir":220,"wspd":4,"visib":"6+","altim":1014,"clouds":[{"cover":"SCT","base":1300},{"cover":"SCT","base":2500}],"obsTime":1782558900},"SBUY":{"icaoId":"SBUY","flightCategory":"MVFR","rawOb":"METAR SBUY 271200Z 30002KT 6000 NSC 23/23 Q1014","temp":23,"dewp":23,"wdir":300,"wspd":2,"visib":3.73,"altim":1014,"clouds":[],"obsTime":1782561600},"SBTT":{"icaoId":"SBTT","flightCategory":"VFR","rawOb":"METAR SBTT 271200Z 22005KT 9999 SCT007 22/21 Q1016","temp":22,"dewp":21,"wdir":220,"wspd":5,"visib":"6+","altim":1016,"clouds":[{"cover":"SCT","base":700}],"obsTime":1782561600},"SBOI":{"icaoId":"SBOI","flightCategory":"VFR","rawOb":"SPECI SBOI 271113Z AUTO VRB01KT 9999 SCT002 25/25 Q1015","temp":25,"dewp":25,"wdir":"VRB","wspd":1,"visib":"6+","altim":1015,"clouds":[{"cover":"SCT","base":200}],"obsTime":1782558780},"SBPP":{"icaoId":"SBPP","flightCategory":"LIFR","rawOb":"SPECI SBPP 271115Z 07008KT 0000 FG VV000 13/13 Q1021","temp":13,"dewp":13,"wdir":70,"wspd":8,"visib":0,"altim":1021,"clouds":[{"cover":"OVX","base":0}],"obsTime":1782558900},"SBSJ":{"icaoId":"SBSJ","flightCategory":"IFR","rawOb":"METAR SBSJ 271200Z 21002KT 6000 OVC006 17/16 Q1027","temp":17,"dewp":16,"wdir":210,"wspd":2,"visib":3.73,"altim":1027,"clouds":[{"cover":"OVC","base":600}],"obsTime":1782561600},"SBAR":{"icaoId":"SBAR","flightCategory":"VFR","rawOb":"METAR SBAR 271200Z 13009KT 9999 SCT023 SCT060 27/23 Q1019","temp":27,"dewp":23,"wdir":130,"wspd":9,"visib":"6+","altim":1019,"clouds":[{"cover":"SCT","base":2300},{"cover":"SCT","base":6000}],"obsTime":1782561600},"SBPL":{"icaoId":"SBPL","flightCategory":"VFR","rawOb":"METAR SBPL 271200Z 12010KT 9999 SCT020 BKN070 25/20 Q1021","temp":25,"dewp":20,"wdir":120,"wspd":10,"visib":"6+","altim":1021,"clouds":[{"cover":"SCT","base":2000},{"cover":"BKN","base":7000}],"obsTime":1782561600},"SBPB":{"icaoId":"SBPB","flightCategory":"VFR","rawOb":"METAR SBPB 271200Z 10007KT 9999 FEW020 29/24 Q1015","temp":29,"dewp":24,"wdir":100,"wspd":7,"visib":"6+","altim":1015,"clouds":[{"cover":"FEW","base":2000}],"obsTime":1782561600},"SBCJ":{"icaoId":"SBCJ","flightCategory":"VFR","rawOb":"METAR SBCJ 271200Z 09002KT 9999 SCT015 26/19 Q1021","temp":26,"dewp":19,"wdir":90,"wspd":2,"visib":"6+","altim":1021,"clouds":[{"cover":"SCT","base":1500}],"obsTime":1782561600},"SBBU":{"icaoId":"SBBU","flightCategory":"MVFR","rawOb":"METAR SBBU 271200Z 07011KT 5000 BR NSC 20/18 Q1025","temp":20,"dewp":18,"wdir":70,"wspd":11,"visib":3.11,"altim":1025,"clouds":[],"obsTime":1782561600},"SBDN":{"icaoId":"SBDN","flightCategory":"VFR","rawOb":"METAR SBDN 271200Z 07007KT CAVOK 19/16 Q1023","temp":19,"dewp":16,"wdir":70,"wspd":7,"visib":"6+","altim":1023,"clouds":[],"obsTime":1782561600},"SBIP":{"icaoId":"SBIP","flightCategory":"VFR","rawOb":"METAR SBIP 271200Z AUTO 03003KT 350V080 CAVOK 23/19 Q1026","temp":23,"dewp":19,"wdir":30,"wspd":3,"visib":"6+","altim":1026,"clouds":[],"obsTime":1782561600},"SBSC":{"icaoId":"SBSC","flightCategory":"MVFR","rawOb":"METAR SBSC 271200Z VRB01KT 8000 FEW010 20/19 Q1024","temp":20,"dewp":19,"wdir":"VRB","wspd":1,"visib":4.97,"altim":1024,"clouds":[{"cover":"FEW","base":1000}],"obsTime":1782561600},"SBSR":{"icaoId":"SBSR","flightCategory":"VFR","rawOb":"METAR SBSR 271200Z 12005KT CAVOK 19/16 Q1024","temp":19,"dewp":16,"wdir":120,"wspd":5,"visib":"6+","altim":1024,"clouds":[],"obsTime":1782561600},"SBES":{"icaoId":"SBES","flightCategory":"VFR","rawOb":"METAR SBES 271200Z 04009KT 350V070 9999 SCT010 23/// Q1024","temp":null,"dewp":null,"wdir":40,"wspd":9,"visib":"6+","altim":1024,"clouds":[{"cover":"SCT","base":1000}],"obsTime":1782561600},"SBTU":{"icaoId":"SBTU","flightCategory":"VFR","rawOb":"METAR SBTU 271200Z AUTO 23008KT 9999 // FEW009/// SCT011/// ///// Q1018","temp":null,"dewp":null,"wdir":230,"wspd":8,"visib":"6+","altim":1018,"clouds":[{"cover":"FEW","base":900},{"cover":"SCT","base":1100}],"obsTime":1782561600},"SBSM":{"icaoId":"SBSM","flightCategory":"LIFR","rawOb":"METAR SBSM 271200Z 08003KT 0500 R29///// R11/1400D FG BKN001 BKN070 05/05 Q1022","temp":5,"dewp":5,"wdir":80,"wspd":3,"visib":0.31,"altim":1022,"clouds":[{"cover":"BKN","base":100},{"cover":"BKN","base":7000}],"obsTime":1782561600},"SBCC":{"icaoId":"SBCC","flightCategory":"VFR","rawOb":"METAR SBCC 271200Z 06007KT CAVOK 24/16 Q1019","temp":24,"dewp":16,"wdir":60,"wspd":7,"visib":"6+","altim":1019,"clouds":[],"obsTime":1782561600},"SBGM":{"icaoId":"SBGM","flightCategory":"MVFR","rawOb":"METAR SBGM 271200Z 11005KT 9999 OVC016 22/20 Q1017","temp":22,"dewp":20,"wdir":110,"wspd":5,"visib":"6+","altim":1017,"clouds":[{"cover":"OVC","base":1600}],"obsTime":1782561600},"SBVH":{"icaoId":"SBVH","flightCategory":"VFR","rawOb":"METAR SBVH 271200Z 12005KT CAVOK 22/20 Q1020","temp":22,"dewp":20,"wdir":120,"wspd":5,"visib":"6+","altim":1020,"clouds":[],"obsTime":1782561600},"SBKG":{"icaoId":"SBKG","flightCategory":"LIFR","rawOb":"METAR SBKG 271200Z 08009KT 0500 -RA FG BKN004 BKN006 22/21 Q1021","temp":22,"dewp":21,"wdir":80,"wspd":9,"visib":0.31,"altim":1021,"clouds":[{"cover":"BKN","base":400},{"cover":"BKN","base":600}],"obsTime":1782561600},"SBCA":{"icaoId":"SBCA","flightCategory":"MVFR","rawOb":"METAR SBCA 271200Z 05009G19KT 9999 TS FEW015 BKN030 FEW040CB 17/15 Q1023","temp":17,"dewp":15,"wdir":50,"wspd":9,"visib":"6+","altim":1023,"clouds":[{"cover":"FEW","base":1500},{"cover":"BKN","base":3000},{"cover":"FEW","base":4000}],"obsTime":1782561600},"SBCO":{"icaoId":"SBCO","flightCategory":"IFR","rawOb":"METAR SBCO 271200Z 00000KT 3000 BR FEW004 07/06 Q1023","temp":7,"dewp":6,"wdir":0,"wspd":0,"visib":1.86,"altim":1023,"clouds":[{"cover":"FEW","base":400}],"obsTime":1782561600},"SBAX":{"icaoId":"SBAX","flightCategory":"VFR","rawOb":"METAR SBAX 271200Z AUTO 08007KT 050V120 CAVOK 19/16 Q1027","temp":19,"dewp":16,"wdir":80,"wspd":7,"visib":"6+","altim":1027,"clouds":[],"obsTime":1782561600},"SBBQ":{"icaoId":"SBBQ","flightCategory":"MVFR","rawOb":"METAR SBBQ 271200Z 07005KT 9999 BKN012 18/15 Q1031","temp":18,"dewp":15,"wdir":70,"wspd":5,"visib":"6+","altim":1031,"clouds":[{"cover":"BKN","base":1200}],"obsTime":1782561600},"SBBH":{"icaoId":"SBBH","flightCategory":"VFR","rawOb":"METAR SBBH 271200Z 12009KT CAVOK 21/16 Q1028","temp":21,"dewp":16,"wdir":120,"wspd":9,"visib":"6+","altim":1028,"clouds":[],"obsTime":1782561600},"SBJP":{"icaoId":"SBJP","flightCategory":"IFR","rawOb":"METAR SBJP 271200Z 09010KT 4000 RA BKN008 OVC012 24/24 Q1018 RERA","temp":24,"dewp":24,"wdir":90,"wspd":10,"visib":2.49,"altim":1018,"clouds":[{"cover":"BKN","base":800},{"cover":"OVC","base":1200}],"obsTime":1782561600},"SBNM":{"icaoId":"SBNM","flightCategory":"VFR","rawOb":"METAR SBNM 271200Z AUTO 07007KT CAVOK 11/07 Q1021","temp":11,"dewp":7,"wdir":70,"wspd":7,"visib":"6+","altim":1021,"clouds":[],"obsTime":1782561600},"SBLE":{"icaoId":"SBLE","flightCategory":"MVFR","rawOb":"METAR SBLE 271200Z AUTO 16006KT 130V200 9999 FEW012 OVC018 ///// Q////","temp":null,"dewp":null,"wdir":160,"wspd":6,"visib":"6+","altim":null,"clouds":[{"cover":"FEW","base":1200},{"cover":"OVC","base":1800}],"obsTime":1782561600},"SBAN":{"icaoId":"SBAN","flightCategory":"VFR","rawOb":"METAR SBAN 271200Z 08013KT CAVOK 19/15 Q1027","temp":19,"dewp":15,"wdir":80,"wspd":13,"visib":"6+","altim":1027,"clouds":[],"obsTime":1782561600},"SBAF":{"icaoId":"SBAF","flightCategory":"LIFR","rawOb":"METAR SBAF 271200Z VRB01KT 0200 FG VV001 20/20 Q1025","temp":20,"dewp":20,"wdir":"VRB","wspd":1,"visib":0.12,"altim":1025,"clouds":[{"cover":"OVX","base":100}],"obsTime":1782561600},"SBJR":{"icaoId":"SBJR","flightCategory":"IFR","rawOb":"METAR SBJR 271200Z 32001KT 3000 BR BKN007 BKN015 22/22 Q1024","temp":22,"dewp":22,"wdir":320,"wspd":1,"visib":1.86,"altim":1024,"clouds":[{"cover":"BKN","base":700},{"cover":"BKN","base":1500}],"obsTime":1782561600},"SBLS":{"icaoId":"SBLS","flightCategory":"VFR","rawOb":"METAR SBLS 271200Z 13008KT 9999 FEW020 20/16 Q1027","temp":20,"dewp":16,"wdir":130,"wspd":8,"visib":"6+","altim":1027,"clouds":[{"cover":"FEW","base":2000}],"obsTime":1782561600},"SBMT":{"icaoId":"SBMT","flightCategory":"IFR","rawOb":"METAR SBMT 271200Z 12006KT 070V160 6000 BKN009 18/18 Q1027","temp":18,"dewp":18,"wdir":120,"wspd":6,"visib":3.73,"altim":1027,"clouds":[{"cover":"BKN","base":900}],"obsTime":1782561600},"SBST":{"icaoId":"SBST","flightCategory":"MVFR","rawOb":"METAR SBST 271200Z 05001KT 7000 OVC013 18/17 Q1024","temp":18,"dewp":17,"wdir":50,"wspd":1,"visib":4.35,"altim":1024,"clouds":[{"cover":"OVC","base":1300}],"obsTime":1782561600},"SBTA":{"icaoId":"SBTA","flightCategory":"MVFR","rawOb":"METAR SBTA 271200Z 15003KT 9999 FEW005 OVC012 18/16 Q1026","temp":18,"dewp":16,"wdir":150,"wspd":3,"visib":"6+","altim":1026,"clouds":[{"cover":"FEW","base":500},{"cover":"OVC","base":1200}],"obsTime":1782561600},"SBGW":{"icaoId":"SBGW","flightCategory":"IFR","rawOb":"METAR SBGW 271200Z 04003KT 2500 1000N BR BCFG OVC012 18/14 Q1027","temp":18,"dewp":14,"wdir":40,"wspd":3,"visib":1.55,"altim":1027,"clouds":[{"cover":"OVC","base":1200}],"obsTime":1782561600},"SBPF":{"icaoId":"SBPF","flightCategory":"VFR","rawOb":"METAR SBPF 271200Z 04012KT CAVOK 11/07 Q1023","temp":11,"dewp":7,"wdir":40,"wspd":12,"visib":"6+","altim":1023,"clouds":[],"obsTime":1782561600},"SBIH":{"icaoId":"SBIH","flightCategory":"VFR","rawOb":"METAR SBIH 271200Z 11003KT 9999 FEW015 BKN100 28/24 Q1015","temp":28,"dewp":24,"wdir":110,"wspd":3,"visib":"6+","altim":1015,"clouds":[{"cover":"FEW","base":1500},{"cover":"BKN","base":10000}],"obsTime":1782561600},"SBJV":{"icaoId":"SBJV","flightCategory":"VFR","rawOb":"METAR SBJV 271200Z 31002KT CAVOK 14/14 Q1024","temp":14,"dewp":14,"wdir":310,"wspd":2,"visib":"6+","altim":1024,"clouds":[],"obsTime":1782561600}}}