{"updated":1776838562,"count":48,"data":{"SBBE":{"icaoId":"SBBE","flightCategory":"IFR","rawOb":"METAR SBBE 220500Z 15006KT 9999 BKN006 24/24 Q1011","temp":24,"dewp":24,"wdir":150,"wspd":6,"visib":"6+","altim":1011,"clouds":[{"cover":"BKN","base":600}],"obsTime":1776834000},"SBBR":{"icaoId":"SBBR","flightCategory":"VFR","rawOb":"METAR SBBR 220500Z VRB02KT CAVOK 20/17 Q1019","temp":20,"dewp":17,"wdir":"VRB","wspd":2,"visib":"6+","altim":1019,"clouds":[],"obsTime":1776834000},"SBBV":{"icaoId":"SBBV","flightCategory":"VFR","rawOb":"METAR SBBV 220500Z 10002KT 9999 FEW040 FEW045TCU SCT070 27/23 Q1010","temp":27,"dewp":23,"wdir":100,"wspd":2,"visib":"6+","altim":1010,"clouds":[{"cover":"FEW","base":4000},{"cover":"FEW","base":4500},{"cover":"SCT","base":7000}],"obsTime":1776834000},"SBCF":{"icaoId":"SBCF","flightCategory":"VFR","rawOb":"METAR SBCF 220500Z 17003KT CAVOK 19/18 Q1019","temp":19,"dewp":18,"wdir":170,"wspd":3,"visib":"6+","altim":1019,"clouds":[],"obsTime":1776834000},"SBCG":{"icaoId":"SBCG","flightCategory":"VFR","rawOb":"METAR SBCG 220500Z 09005KT CAVOK 23/17 Q1016","temp":23,"dewp":17,"wdir":90,"wspd":5,"visib":"6+","altim":1016,"clouds":[],"obsTime":1776834000},"SBCT":{"icaoId":"SBCT","flightCategory":"IFR","rawOb":"METAR SBCT 220500Z 12003KT 9999 BKN006 15/15 Q1021","temp":15,"dewp":15,"wdir":120,"wspd":3,"visib":"6+","altim":1021,"clouds":[{"cover":"BKN","base":600}],"obsTime":1776834000},"SBEG":{"icaoId":"SBEG","flightCategory":"VFR","rawOb":"METAR SBEG 220500Z 00000KT 9999 FEW010 BKN080 25/25 Q1011","temp":25,"dewp":25,"wdir":0,"wspd":0,"visib":"6+","altim":1011,"clouds":[{"cover":"FEW","base":1000},{"cover":"BKN","base":8000}],"obsTime":1776834000},"SBFI":{"icaoId":"SBFI","flightCategory":"VFR","rawOb":"METAR SBFI 220500Z 18001KT 9999 FEW015 SCT070 22/22 Q1015","temp":22,"dewp":22,"wdir":180,"wspd":1,"visib":"6+","altim":1015,"clouds":[{"cover":"FEW","base":1500},{"cover":"SCT","base":7000}],"obsTime":1776834000},"SBFL":{"icaoId":"SBFL","flightCategory":"VFR","rawOb":"METAR SBFL 220500Z 35003KT 9999 SCT040 23/20 Q1017","temp":23,"dewp":20,"wdir":350,"wspd":3,"visib":"6+","altim":1017,"clouds":[{"cover":"SCT","base":4000}],"obsTime":1776834000},"SBFZ":{"icaoId":"SBFZ","flightCategory":"VFR","rawOb":"METAR SBFZ 220500Z 16002KT 9999 FEW017 25/24 Q1011","temp":25,"dewp":24,"wdir":160,"wspd":2,"visib":"6+","altim":1011,"clouds":[{"cover":"FEW","base":1700}],"obsTime":1776834000},"SBGL":{"icaoId":"SBGL","flightCategory":"VFR","rawOb":"METAR SBGL 220500Z 02005KT 9999 FEW040 21/19 Q1016","temp":21,"dewp":19,"wdir":20,"wspd":5,"visib":"6+","altim":1016,"clouds":[{"cover":"FEW","base":4000}],"obsTime":1776834000},"SBGO":{"icaoId":"SBGO","flightCategory":"VFR","rawOb":"METAR SBGO 220500Z 30002KT 9999 FEW045 SCT080 21/20 Q1017","temp":21,"dewp":20,"wdir":300,"wspd":2,"visib":"6+","altim":1017,"clouds":[{"cover":"FEW","base":4500},{"cover":"SCT","base":8000}],"obsTime":1776834000},"SBGR":{"icaoId":"SBGR","flightCategory":"MVFR","rawOb":"METAR SBGR 220500Z 12006KT 9999 SCT011 BKN020 18/15 Q1020","temp":18,"dewp":15,"wdir":120,"wspd":6,"visib":"6+","altim":1020,"clouds":[{"cover":"SCT","base":1100},{"cover":"BKN","base":2000}],"obsTime":1776834000},"SBJU":{"icaoId":"SBJU","flightCategory":"VFR","rawOb":"METAR SBJU 220500Z 00000KT 9999 SCT020 24/22 Q1013","temp":24,"dewp":22,"wdir":0,"wspd":0,"visib":"6+","altim":1013,"clouds":[{"cover":"SCT","base":2000}],"obsTime":1776834000},"SBKP":{"icaoId":"SBKP","flightCategory":"VFR","rawOb":"METAR SBKP 220500Z 14012KT CAVOK 17/15 Q1018","temp":17,"dewp":15,"wdir":140,"wspd":12,"visib":"6+","altim":1018,"clouds":[],"obsTime":1776834000},"SBLO":{"icaoId":"SBLO","flightCategory":"VFR","rawOb":"METAR SBLO 220500Z 15005KT CAVOK 19/14 Q1017","temp":19,"dewp":14,"wdir":150,"wspd":5,"visib":"6+","altim":1017,"clouds":[],"obsTime":1776834000},"SBMA":{"icaoId":"SBMA","flightCategory":"MVFR","rawOb":"METAR SBMA 220500Z 00000KT 9999 BKN020 24/24 Q1012","temp":24,"dewp":24,"wdir":0,"wspd":0,"visib":"6+","altim":1012,"clouds":[{"cover":"BKN","base":2000}],"obsTime":1776834000},"SBME":{"icaoId":"SBME","flightCategory":"VFR","rawOb":"METAR SBME 220500Z 31003KT 9999 FEW040 21/19 Q1016","temp":21,"dewp":19,"wdir":310,"wspd":3,"visib":"6+","altim":1016,"clouds":[{"cover":"FEW","base":4000}],"obsTime":1776834000},"SBMG":{"icaoId":"SBMG","flightCategory":"VFR","rawOb":"METAR SBMG 220500Z AUTO 15004KT CAVOK 22/16 Q1016","temp":22,"dewp":16,"wdir":150,"wspd":4,"visib":"6+","altim":1016,"clouds":[],"obsTime":1776834000},"SBMO":{"icaoId":"SBMO","flightCategory":"VFR","rawOb":"METAR SBMO 220500Z 30005KT 9999 FEW020 23/22 Q1012","temp":23,"dewp":22,"wdir":300,"wspd":5,"visib":"6+","altim":1012,"clouds":[{"cover":"FEW","base":2000}],"obsTime":1776834000},"SBMQ":{"icaoId":"SBMQ","flightCategory":"MVFR","rawOb":"METAR SBMQ 220500Z 03005KT 8000 -TSRA FEW010 SCT021 FEW025CB OVC074 25/25 Q1010 RETS","temp":25,"dewp":25,"wdir":30,"wspd":5,"visib":4.97,"altim":1010,"clouds":[{"cover":"FEW","base":1000},{"cover":"SCT","base":2100},{"cover":"FEW","base":2500},{"cover":"OVC","base":7400}],"obsTime":1776834000},"SBNT":{"icaoId":"SBNT","flightCategory":"VFR","rawOb":"METAR SBNT 220500Z VRB02KT 9999 FEW022 24/23 Q1011","temp":24,"dewp":23,"wdir":"VRB","wspd":2,"visib":"6+","altim":1011,"clouds":[{"cover":"FEW","base":2200}],"obsTime":1776834000},"SBPA":{"icaoId":"SBPA","flightCategory":"MVFR","rawOb":"METAR SBPA 220500Z VRB01KT 6000 FEW020 SCT050 19/19 Q1014","temp":19,"dewp":19,"wdir":"VRB","wspd":1,"visib":3.73,"altim":1014,"clouds":[{"cover":"FEW","base":2000},{"cover":"SCT","base":5000}],"obsTime":1776834000},"SBPJ":{"icaoId":"SBPJ","flightCategory":"VFR","rawOb":"METAR SBPJ 220500Z 13003KT CAVOK 23/22 Q1013","temp":23,"dewp":22,"wdir":130,"wspd":3,"visib":"6+","altim":1013,"clouds":[],"obsTime":1776834000},"SBPV":{"icaoId":"SBPV","flightCategory":"VFR","rawOb":"METAR SBPV 220500Z 19002KT 9999 SCT030 23/20 Q1011","temp":23,"dewp":20,"wdir":190,"wspd":2,"visib":"6+","altim":1011,"clouds":[{"cover":"SCT","base":3000}],"obsTime":1776834000},"SBRB":{"icaoId":"SBRB","flightCategory":"VFR","rawOb":"METAR SBRB 220500Z 14001KT 9999 FEW017 23/22 Q1012","temp":23,"dewp":22,"wdir":140,"wspd":1,"visib":"6+","altim":1012,"clouds":[{"cover":"FEW","base":1700}],"obsTime":1776834000},"SBRF":{"icaoId":"SBRF","flightCategory":"MVFR","rawOb":"METAR SBRF 220500Z 24004KT 9999 BKN023 25/23 Q1011","temp":25,"dewp":23,"wdir":240,"wspd":4,"visib":"6+","altim":1011,"clouds":[{"cover":"BKN","base":2300}],"obsTime":1776834000},"SBSG":{"icaoId":"SBSG","flightCategory":"VFR","rawOb":"METAR SBSG 220500Z 21003KT 9999 FEW020 23/23 Q1011","temp":23,"dewp":23,"wdir":210,"wspd":3,"visib":"6+","altim":1011,"clouds":[{"cover":"FEW","base":2000}],"obsTime":1776834000},"SBSL":{"icaoId":"SBSL","flightCategory":"VFR","rawOb":"METAR SBSL 220500Z 15002KT 9999 SCT017 24/24 Q1011","temp":24,"dewp":24,"wdir":150,"wspd":2,"visib":"6+","altim":1011,"clouds":[{"cover":"SCT","base":1700}],"obsTime":1776834000},"SBSN":{"icaoId":"SBSN","flightCategory":"VFR","rawOb":"METAR SBSN 220500Z 18003KT 9999 FEW016 24/24 Q1010","temp":24,"dewp":24,"wdir":180,"wspd":3,"visib":"6+","altim":1010,"clouds":[{"cover":"FEW","base":1600}],"obsTime":1776834000},"SBSP":{"icaoId":"SBSP","flightCategory":"VFR","rawOb":"METAR SBSP 220500Z AUTO 13004KT CAVOK 16/15 Q1020","temp":16,"dewp":15,"wdir":130,"wspd":4,"visib":"6+","altim":1020,"clouds":[],"obsTime":1776834000},"SBSV":{"icaoId":"SBSV","flightCategory":"VFR","rawOb":"METAR SBSV 220500Z 14005KT 9999 SCT021 BKN090 25/23 Q1013","temp":25,"dewp":23,"wdir":140,"wspd":5,"visib":"6+","altim":1013,"clouds":[{"cover":"SCT","base":2100},{"cover":"BKN","base":9000}],"obsTime":1776834000},"SBTE":{"icaoId":"SBTE","flightCategory":"VFR","rawOb":"METAR SBTE 220500Z 06002KT 9999 FEW007 23/22 Q1011","temp":23,"dewp":22,"wdir":60,"wspd":2,"visib":"6+","altim":1011,"clouds":[{"cover":"FEW","base":700}],"obsTime":1776834000},"SBUL":{"icaoId":"SBUL","flightCategory":"VFR","rawOb":"METAR SBUL 220500Z 19005KT 9999 SCT045 BKN080 23/16 Q1018","temp":23,"dewp":16,"wdir":190,"wspd":5,"visib":"6+","altim":1018,"clouds":[{"cover":"SCT","base":4500},{"cover":"BKN","base":8000}],"obsTime":1776834000},"SBUR":{"icaoId":"SBUR","flightCategory":"VFR","rawOb":"METAR SBUR 220500Z 35004KT CAVOK 22/17 Q1017","temp":22,"dewp":17,"wdir":350,"wspd":4,"visib":"6+","altim":1017,"clouds":[],"obsTime":1776834000},"SBVT":{"icaoId":"SBVT","flightCategory":"VFR","rawOb":"METAR SBVT 220500Z 28003KT 9999 FEW020 SCT100 21/20 Q1016","temp":21,"dewp":20,"wdir":280,"wspd":3,"visib":"6+","altim":1016,"clouds":[{"cover":"FEW","base":2000},{"cover":"SCT","base":10000}],"obsTime":1776834000},"SBPL":{"icaoId":"SBPL","flightCategory":"VFR","rawOb":"METAR SBPL 220500Z 10005KT CAVOK 26/21 Q1014","temp":26,"dewp":21,"wdir":100,"wspd":5,"visib":"6+","altim":1014,"clouds":[],"obsTime":1776834000},"SBKG":{"icaoId":"SBKG","flightCategory":"VFR","rawOb":"METAR SBKG 220500Z 14002KT 9999 FEW016 21/20 Q1014","temp":21,"dewp":20,"wdir":140,"wspd":2,"visib":"6+","altim":1014,"clouds":[{"cover":"FEW","base":1600}],"obsTime":1776834000},"SBPS":{"icaoId":"SBPS","flightCategory":"VFR","rawOb":"METAR SBPS 220500Z 19003KT 9999 SCT020 BKN100 23/21 Q1015","temp":23,"dewp":21,"wdir":190,"wspd":3,"visib":"6+","altim":1015,"clouds":[{"cover":"SCT","base":2000},{"cover":"BKN","base":10000}],"obsTime":1776834000},"SBIP":{"icaoId":"SBIP","flightCategory":"MVFR","rawOb":"METAR SBIP 220500Z AUTO VRB02KT 9999 BKN029 BKN034 20/20 Q1017","temp":20,"dewp":20,"wdir":"VRB","wspd":2,"visib":"6+","altim":1017,"clouds":[{"cover":"BKN","base":2900},{"cover":"BKN","base":3400}],"obsTime":1776834000},"SBSC":{"icaoId":"SBSC","flightCategory":"VFR","rawOb":"METAR SBSC 220500Z 21002KT 9999 FEW020 BKN060 21/19 Q1017","temp":21,"dewp":19,"wdir":210,"wspd":2,"visib":"6+","altim":1017,"clouds":[{"cover":"FEW","base":2000},{"cover":"BKN","base":6000}],"obsTime":1776834000},"SBDN":{"icaoId":"SBDN","flightCategory":"VFR","rawOb":"METAR SBDN 220500Z 12008KT CAVOK 21/14 Q1016","temp":21,"dewp":14,"wdir":120,"wspd":8,"visib":"6+","altim":1016,"clouds":[],"obsTime":1776834000},"SBSR":{"icaoId":"SBSR","flightCategory":"VFR","rawOb":"METAR SBSR 220500Z 17003KT CAVOK 22/15 Q1016","temp":22,"dewp":15,"wdir":170,"wspd":3,"visib":"6+","altim":1016,"clouds":[],"obsTime":1776834000},"SBAR":{"icaoId":"SBAR","flightCategory":"MVFR","rawOb":"METAR SBAR 220500Z 31005KT 7000 -RA SCT015 BKN040 OVC080 23/23 Q1012","temp":23,"dewp":23,"wdir":310,"wspd":5,"visib":4.35,"altim":1012,"clouds":[{"cover":"SCT","base":1500},{"cover":"BKN","base":4000},{"cover":"OVC","base":8000}],"obsTime":1776834000},"SBOI":{"icaoId":"SBOI","flightCategory":"LIFR","rawOb":"METAR SBOI 220500Z AUTO VRB02KT 9999 // BKN003/// BKN052/// BKN069/// 25/24 Q1011","temp":25,"dewp":24,"wdir":"VRB","wspd":2,"visib":"6+","altim":1011,"clouds":[{"cover":"BKN","base":300},{"cover":"BKN","base":5200},{"cover":"BKN","base":6900}],"obsTime":1776834000},"SBAN":{"icaoId":"SBAN","flightCategory":"VFR","rawOb":"METAR SBAN 220500Z 15004KT 9999 FEW045 SCT070 19/18 Q1019","temp":19,"dewp":18,"wdir":150,"wspd":4,"visib":"6+","altim":1019,"clouds":[{"cover":"FEW","base":4500},{"cover":"SCT","base":7000}],"obsTime":1776834000},"SBLE":{"icaoId":"SBLE","flightCategory":"VFR","rawOb":"METAR SBLE 220500Z AUTO 08003KT 9999 SCT022 ///// Q////","temp":null,"dewp":null,"wdir":80,"wspd":3,"visib":"6+","altim":null,"clouds":[{"cover":"SCT","base":2200}],"obsTime":1776834000},"SBJP":{"icaoId":"SBJP","flightCategory":"VFR","rawOb":"METAR SBJP 220500Z 21004KT CAVOK 24/23 Q1011","temp":24,"dewp":23,"wdir":210,"wspd":4,"visib":"6+","altim":1011,"clouds":[],"obsTime":1776834000}}}