{"updated":1779627195,"count":86,"data":{"SBLO":{"icaoId":"SBLO","flightCategory":"LIFR","rawOb":"METAR SBLO 241100Z 15003KT 0450 R13/0450N FG OVC002 16/16 Q1021","temp":16,"dewp":16,"wdir":150,"wspd":3,"visib":0.28,"altim":1021,"clouds":[{"cover":"OVC","base":200}],"obsTime":1779620400},"SBCG":{"icaoId":"SBCG","flightCategory":"VFR","rawOb":"METAR SBCG 241100Z 11009KT 9000 FEW010 BKN090 19/17 Q1019","temp":19,"dewp":17,"wdir":110,"wspd":9,"visib":5.59,"altim":1019,"clouds":[{"cover":"FEW","base":1000},{"cover":"BKN","base":9000}],"obsTime":1779620400},"SBFI":{"icaoId":"SBFI","flightCategory":"LIFR","rawOb":"METAR SBFI 241100Z 21002KT 0300 R15///// R33///// FG BKN002 BKN070 14/14 Q1019","temp":14,"dewp":14,"wdir":210,"wspd":2,"visib":0.19,"altim":1019,"clouds":[{"cover":"BKN","base":200},{"cover":"BKN","base":7000}],"obsTime":1779620400},"SBSN":{"icaoId":"SBSN","flightCategory":"VFR","rawOb":"METAR SBSN 241100Z 18004KT 9999 SCT013 BKN070 24/23 Q1013","temp":24,"dewp":23,"wdir":180,"wspd":4,"visib":"6+","altim":1013,"clouds":[{"cover":"SCT","base":1300},{"cover":"BKN","base":7000}],"obsTime":1779620400},"SBBR":{"icaoId":"SBBR","flightCategory":"IFR","rawOb":"METAR SBBR 241100Z 12009KT 7000 OVC008 18/17 Q1023","temp":18,"dewp":17,"wdir":120,"wspd":9,"visib":4.35,"altim":1023,"clouds":[{"cover":"OVC","base":800}],"obsTime":1779620400},"SBCB":{"icaoId":"SBCB","flightCategory":"VFR","rawOb":"METAR SBCB 241100Z 04005KT CAVOK 23/19 Q1020","temp":23,"dewp":19,"wdir":40,"wspd":5,"visib":"6+","altim":1020,"clouds":[],"obsTime":1779620400},"SBCF":{"icaoId":"SBCF","flightCategory":"VFR","rawOb":"METAR SBCF 241100Z 17003KT CAVOK 17/15 Q1024","temp":17,"dewp":15,"wdir":170,"wspd":3,"visib":"6+","altim":1024,"clouds":[],"obsTime":1779620400},"SBCZ":{"icaoId":"SBCZ","flightCategory":"MVFR","rawOb":"METAR SBCZ 241200Z 12003KT 8000 NSC 19/19 Q1017","temp":19,"dewp":19,"wdir":120,"wspd":3,"visib":4.97,"altim":1017,"clouds":[],"obsTime":1779624000},"SBAT":{"icaoId":"SBAT","flightCategory":"VFR","rawOb":"METAR SBAT 241100Z 15002KT CAVOK 22/21 Q1015","temp":22,"dewp":21,"wdir":150,"wspd":2,"visib":"6+","altim":1015,"clouds":[],"obsTime":1779620400},"SBBE":{"icaoId":"SBBE","flightCategory":"VFR","rawOb":"METAR SBBE 241100Z 08006KT 9999 FEW030 BKN096 25/24 Q1013","temp":25,"dewp":24,"wdir":80,"wspd":6,"visib":"6+","altim":1013,"clouds":[{"cover":"FEW","base":3000},{"cover":"BKN","base":9600}],"obsTime":1779620400},"SBBV":{"icaoId":"SBBV","flightCategory":"MVFR","rawOb":"METAR SBBV 241100Z 22004KT 9999 VCSH SCT008 BKN011 FEW030TCU OVC070 25/24 Q1015","temp":25,"dewp":24,"wdir":220,"wspd":4,"visib":"6+","altim":1015,"clouds":[{"cover":"SCT","base":800},{"cover":"BKN","base":1100},{"cover":"FEW","base":3000},{"cover":"OVC","base":7000}],"obsTime":1779620400},"SBCP":{"icaoId":"SBCP","flightCategory":"VFR","rawOb":"METAR SBCP 241100Z 34008KT 9999 FEW020 BKN090 21/20 Q1020","temp":21,"dewp":20,"wdir":340,"wspd":8,"visib":"6+","altim":1020,"clouds":[{"cover":"FEW","base":2000},{"cover":"BKN","base":9000}],"obsTime":1779620400},"SBCR":{"icaoId":"SBCR","flightCategory":"VFR","rawOb":"METAR SBCR 241100Z VRB02KT CAVOK 17/13 Q1018","temp":17,"dewp":13,"wdir":"VRB","wspd":2,"visib":"6+","altim":1018,"clouds":[],"obsTime":1779620400},"SBCT":{"icaoId":"SBCT","flightCategory":"LIFR","rawOb":"METAR SBCT 241100Z 00000KT 2000 BR OVC002 15/15 Q1023","temp":15,"dewp":15,"wdir":0,"wspd":0,"visib":1.24,"altim":1023,"clouds":[{"cover":"OVC","base":200}],"obsTime":1779620400},"SBEG":{"icaoId":"SBEG","flightCategory":"IFR","rawOb":"METAR SBEG 241100Z 22003KT 9999 BKN007 BKN100 24/23 Q1014","temp":24,"dewp":23,"wdir":220,"wspd":3,"visib":"6+","altim":1014,"clouds":[{"cover":"BKN","base":700},{"cover":"BKN","base":10000}],"obsTime":1779620400},"SBFL":{"icaoId":"SBFL","flightCategory":"VFR","rawOb":"METAR SBFL 241100Z 32002KT 9999 FEW040 15/15 Q1020","temp":15,"dewp":15,"wdir":320,"wspd":2,"visib":"6+","altim":1020,"clouds":[{"cover":"FEW","base":4000}],"obsTime":1779620400},"SBFZ":{"icaoId":"SBFZ","flightCategory":"VFR","rawOb":"METAR SBFZ 241100Z 16013KT 9999 FEW020 27/21 Q1013","temp":27,"dewp":21,"wdir":160,"wspd":13,"visib":"6+","altim":1013,"clouds":[{"cover":"FEW","base":2000}],"obsTime":1779620400},"SBGL":{"icaoId":"SBGL","flightCategory":"IFR","rawOb":"METAR SBGL 241100Z VRB02KT 4000 BR BKN007 21/20 Q1020","temp":21,"dewp":20,"wdir":"VRB","wspd":2,"visib":2.49,"altim":1020,"clouds":[{"cover":"BKN","base":700}],"obsTime":1779620400},"SBGO":{"icaoId":"SBGO","flightCategory":"VFR","rawOb":"METAR SBGO 241100Z 05006KT 020V080 9999 FEW020 BKN050 22/18 Q1022","temp":22,"dewp":18,"wdir":50,"wspd":6,"visib":"6+","altim":1022,"clouds":[{"cover":"FEW","base":2000},{"cover":"BKN","base":5000}],"obsTime":1779620400},"SBGR":{"icaoId":"SBGR","flightCategory":"IFR","rawOb":"METAR SBGR 241100Z 09003KT 4000 BR FEW002 SCT070 17/17 Q1022","temp":17,"dewp":17,"wdir":90,"wspd":3,"visib":2.49,"altim":1022,"clouds":[{"cover":"FEW","base":200},{"cover":"SCT","base":7000}],"obsTime":1779620400},"SBHT":{"icaoId":"SBHT","flightCategory":"VFR","rawOb":"METAR SBHT 241100Z 25002KT 9999 SCT010 26/25 Q1014","temp":26,"dewp":25,"wdir":250,"wspd":2,"visib":"6+","altim":1014,"clouds":[{"cover":"SCT","base":1000}],"obsTime":1779620400},"SBIL":{"icaoId":"SBIL","flightCategory":"VFR","rawOb":"METAR SBIL 241100Z 23009KT 9999 SCT023 FEW025TCU 25/22 Q1018","temp":25,"dewp":22,"wdir":230,"wspd":9,"visib":"6+","altim":1018,"clouds":[{"cover":"SCT","base":2300},{"cover":"FEW","base":2500}],"obsTime":1779620400},"SBJU":{"icaoId":"SBJU","flightCategory":"VFR","rawOb":"METAR SBJU 241100Z 13007KT CAVOK 25/18 Q1017","temp":25,"dewp":18,"wdir":130,"wspd":7,"visib":"6+","altim":1017,"clouds":[],"obsTime":1779620400},"SBKP":{"icaoId":"SBKP","flightCategory":"VFR","rawOb":"METAR SBKP 241100Z 00000KT 9999 4000E SCT045 18/18 Q1022","temp":18,"dewp":18,"wdir":0,"wspd":0,"visib":"6+","altim":1022,"clouds":[{"cover":"SCT","base":4500}],"obsTime":1779620400},"SBMA":{"icaoId":"SBMA","flightCategory":"VFR","rawOb":"METAR SBMA 241100Z 17003KT 9999 FEW015 25/22 Q1014","temp":25,"dewp":22,"wdir":170,"wspd":3,"visib":"6+","altim":1014,"clouds":[{"cover":"FEW","base":1500}],"obsTime":1779620400},"SBME":{"icaoId":"SBME","flightCategory":"VFR","rawOb":"METAR SBME 241100Z 01005KT CAVOK 24/18 Q1019","temp":24,"dewp":18,"wdir":10,"wspd":5,"visib":"6+","altim":1019,"clouds":[],"obsTime":1779620400},"SBMG":{"icaoId":"SBMG","flightCategory":"VFR","rawOb":"METAR SBMG 241100Z 09002KT 9999 4900SW BCFG NSC 18/17 Q1019","temp":18,"dewp":17,"wdir":90,"wspd":2,"visib":"6+","altim":1019,"clouds":[],"obsTime":1779620400},"SBMK":{"icaoId":"SBMK","flightCategory":"VFR","rawOb":"METAR SBMK 241100Z 07004KT 9999 SCT015 SCT030 22/17 Q1022","temp":22,"dewp":17,"wdir":70,"wspd":4,"visib":"6+","altim":1022,"clouds":[{"cover":"SCT","base":1500},{"cover":"SCT","base":3000}],"obsTime":1779620400},"SBMO":{"icaoId":"SBMO","flightCategory":"VFR","rawOb":"METAR SBMO 241100Z 13010KT 9999 FEW025 27/21 Q1016","temp":27,"dewp":21,"wdir":130,"wspd":10,"visib":"6+","altim":1016,"clouds":[{"cover":"FEW","base":2500}],"obsTime":1779620400},"SBMQ":{"icaoId":"SBMQ","flightCategory":"VFR","rawOb":"METAR SBMQ 241100Z 35003KT 9999 -RA FEW019 BKN077 25/24 Q1014","temp":25,"dewp":24,"wdir":350,"wspd":3,"visib":"6+","altim":1014,"clouds":[{"cover":"FEW","base":1900},{"cover":"BKN","base":7700}],"obsTime":1779620400},"SBNT":{"icaoId":"SBNT","flightCategory":"MVFR","rawOb":"METAR SBNT 241100Z 17006KT 120V220 9999 -RA SCT013 BKN024 BKN043 26/23 Q1014","temp":26,"dewp":23,"wdir":170,"wspd":6,"visib":"6+","altim":1014,"clouds":[{"cover":"SCT","base":1300},{"cover":"BKN","base":2400},{"cover":"BKN","base":4300}],"obsTime":1779620400},"SBPA":{"icaoId":"SBPA","flightCategory":"MVFR","rawOb":"METAR SBPA 241100Z 07002KT 9999 VCSH BKN017 BKN057 15/14 Q1023","temp":15,"dewp":14,"wdir":70,"wspd":2,"visib":"6+","altim":1023,"clouds":[{"cover":"BKN","base":1700},{"cover":"BKN","base":5700}],"obsTime":1779620400},"SBPJ":{"icaoId":"SBPJ","flightCategory":"VFR","rawOb":"METAR SBPJ 241100Z 15004KT CAVOK 27/20 Q1016","temp":27,"dewp":20,"wdir":150,"wspd":4,"visib":"6+","altim":1016,"clouds":[],"obsTime":1779620400},"SBPV":{"icaoId":"SBPV","flightCategory":"VFR","rawOb":"METAR SBPV 241100Z 21004KT 9999 FEW030 21/18 Q1015","temp":21,"dewp":18,"wdir":210,"wspd":4,"visib":"6+","altim":1015,"clouds":[{"cover":"FEW","base":3000}],"obsTime":1779620400},"SBRB":{"icaoId":"SBRB","flightCategory":"VFR","rawOb":"METAR SBRB 241100Z 20002KT 9999 SCT033 19/17 Q1017","temp":19,"dewp":17,"wdir":200,"wspd":2,"visib":"6+","altim":1017,"clouds":[{"cover":"SCT","base":3300}],"obsTime":1779620400},"SBRF":{"icaoId":"SBRF","flightCategory":"VFR","rawOb":"METAR SBRF 241100Z 13013KT 9999 SCT023 SCT060 29/22 Q1014","temp":29,"dewp":22,"wdir":130,"wspd":13,"visib":"6+","altim":1014,"clouds":[{"cover":"SCT","base":2300},{"cover":"SCT","base":6000}],"obsTime":1779620400},"SBSG":{"icaoId":"SBSG","flightCategory":"VFR","rawOb":"METAR SBSG 241100Z 17006KT 130V200 9999 SCT009 SCT030 26/23 Q1014","temp":26,"dewp":23,"wdir":170,"wspd":6,"visib":"6+","altim":1014,"clouds":[{"cover":"SCT","base":900},{"cover":"SCT","base":3000}],"obsTime":1779620400},"SBSL":{"icaoId":"SBSL","flightCategory":"VFR","rawOb":"METAR SBSL 241100Z 33001KT 9999 SCT022 SCT100 27/25 Q1013","temp":27,"dewp":25,"wdir":330,"wspd":1,"visib":"6+","altim":1013,"clouds":[{"cover":"SCT","base":2200},{"cover":"SCT","base":10000}],"obsTime":1779620400},"SBSP":{"icaoId":"SBSP","flightCategory":"VFR","rawOb":"METAR SBSP 241100Z VRB02KT 9000 NSC 18/18 Q1023","temp":18,"dewp":18,"wdir":"VRB","wspd":2,"visib":5.59,"altim":1023,"clouds":[],"obsTime":1779620400},"SBSV":{"icaoId":"SBSV","flightCategory":"VFR","rawOb":"METAR SBSV 241100Z 08007KT 9000 VCSH SCT020 FEW023TCU BKN090 27/24 Q1017","temp":27,"dewp":24,"wdir":80,"wspd":7,"visib":5.59,"altim":1017,"clouds":[{"cover":"SCT","base":2000},{"cover":"FEW","base":2300},{"cover":"BKN","base":9000}],"obsTime":1779620400},"SBTE":{"icaoId":"SBTE","flightCategory":"VFR","rawOb":"METAR SBTE 241100Z 11006KT 9999 FEW020 BKN070 28/21 Q1014","temp":28,"dewp":21,"wdir":110,"wspd":6,"visib":"6+","altim":1014,"clouds":[{"cover":"FEW","base":2000},{"cover":"BKN","base":7000}],"obsTime":1779620400},"SBUL":{"icaoId":"SBUL","flightCategory":"VFR","rawOb":"METAR SBUL 241100Z 11009KT CAVOK 18/16 Q1023","temp":18,"dewp":16,"wdir":110,"wspd":9,"visib":"6+","altim":1023,"clouds":[],"obsTime":1779620400},"SBUR":{"icaoId":"SBUR","flightCategory":"VFR","rawOb":"METAR SBUR 241100Z 04008KT CAVOK 20/16 Q1022","temp":20,"dewp":16,"wdir":40,"wspd":8,"visib":"6+","altim":1022,"clouds":[],"obsTime":1779620400},"SBVT":{"icaoId":"SBVT","flightCategory":"VFR","rawOb":"METAR SBVT 241100Z 29004KT 9999 BKN048 22/20 Q1021","temp":22,"dewp":20,"wdir":290,"wspd":4,"visib":"6+","altim":1021,"clouds":[{"cover":"BKN","base":4800}],"obsTime":1779620400},"SBCO":{"icaoId":"SBCO","flightCategory":"MVFR","rawOb":"METAR SBCO 241100Z 00000KT 9999 BKN015 BKN050 14/14 Q1023","temp":14,"dewp":14,"wdir":0,"wspd":0,"visib":"6+","altim":1023,"clouds":[{"cover":"BKN","base":1500},{"cover":"BKN","base":5000}],"obsTime":1779620400},"SBOI":{"icaoId":"SBOI","flightCategory":"VFR","rawOb":"METAR SBOI 241100Z AUTO 32002KT 9999 SCT002 24/24 Q1014","temp":24,"dewp":24,"wdir":320,"wspd":2,"visib":"6+","altim":1014,"clouds":[{"cover":"SCT","base":200}],"obsTime":1779620400},"SBVH":{"icaoId":"SBVH","flightCategory":"VFR","rawOb":"METAR SBVH 241100Z 11006KT CAVOK 17/16 Q1018","temp":17,"dewp":16,"wdir":110,"wspd":6,"visib":"6+","altim":1018,"clouds":[],"obsTime":1779620400},"SBUY":{"icaoId":"SBUY","flightCategory":"MVFR","rawOb":"METAR SBUY 241100Z 35002KT 5000 BR SCT005 SCT018 BKN070 22/21 Q1014","temp":22,"dewp":21,"wdir":350,"wspd":2,"visib":3.11,"altim":1014,"clouds":[{"cover":"SCT","base":500},{"cover":"SCT","base":1800},{"cover":"BKN","base":7000}],"obsTime":1779620400},"SBBH":{"icaoId":"SBBH","flightCategory":"VFR","rawOb":"METAR SBBH 241100Z 11005KT CAVOK 18/16 Q1024","temp":18,"dewp":16,"wdir":110,"wspd":5,"visib":"6+","altim":1024,"clouds":[],"obsTime":1779620400},"SBBQ":{"icaoId":"SBBQ","flightCategory":"VFR","rawOb":"METAR SBBQ 241200Z VRB02KT CAVOK 16/16 Q1027","temp":16,"dewp":16,"wdir":"VRB","wspd":2,"visib":"6+","altim":1027,"clouds":[],"obsTime":1779624000},"SBTU":{"icaoId":"SBTU","flightCategory":"LIFR","rawOb":"METAR SBTU 241100Z AUTO 21006KT 9999 // BKN002/// 25/25 Q1016","temp":25,"dewp":25,"wdir":210,"wspd":6,"visib":"6+","altim":1016,"clouds":[{"cover":"BKN","base":200}],"obsTime":1779620400},"SBBU":{"icaoId":"SBBU","flightCategory":"IFR","rawOb":"METAR SBBU 241100Z 09005KT 4000 BR FEW002 SCT020 19/19 Q1021","temp":19,"dewp":19,"wdir":90,"wspd":5,"visib":2.49,"altim":1021,"clouds":[{"cover":"FEW","base":200},{"cover":"SCT","base":2000}],"obsTime":1779620400},"SBTT":{"icaoId":"SBTT","flightCategory":"VFR","rawOb":"METAR SBTT 241100Z 18002KT 9999 SCT012 BKN080 22/20 Q1015","temp":22,"dewp":20,"wdir":180,"wspd":2,"visib":"6+","altim":1015,"clouds":[{"cover":"SCT","base":1200},{"cover":"BKN","base":8000}],"obsTime":1779620400},"SBCA":{"icaoId":"SBCA","flightCategory":"VFR","rawOb":"METAR SBCA 241100Z 05004KT 9000 BKN040 BKN070 14/14 Q1021","temp":14,"dewp":14,"wdir":50,"wspd":4,"visib":5.59,"altim":1021,"clouds":[{"cover":"BKN","base":4000},{"cover":"BKN","base":7000}],"obsTime":1779620400},"SBTF":{"icaoId":"SBTF","flightCategory":"VFR","rawOb":"SPECI SBTF 241115Z 17003KT 9999 FEW005 SCT090 23/22 Q1015","temp":23,"dewp":22,"wdir":170,"wspd":3,"visib":"6+","altim":1015,"clouds":[{"cover":"FEW","base":500},{"cover":"SCT","base":9000}],"obsTime":1779621300},"SBCC":{"icaoId":"SBCC","flightCategory":"VFR","rawOb":"METAR SBCC 241100Z 20003KT CAVOK 22/19 Q1017","temp":22,"dewp":19,"wdir":200,"wspd":3,"visib":"6+","altim":1017,"clouds":[],"obsTime":1779620400},"SBSR":{"icaoId":"SBSR","flightCategory":"VFR","rawOb":"METAR SBSR 241100Z 09005KT CAVOK 20/18 Q1020","temp":20,"dewp":18,"wdir":90,"wspd":5,"visib":"6+","altim":1020,"clouds":[],"obsTime":1779620400},"SBCJ":{"icaoId":"SBCJ","flightCategory":"VFR","rawOb":"METAR SBCJ 241100Z 13003KT CAVOK 25/16 Q1018","temp":25,"dewp":16,"wdir":130,"wspd":3,"visib":"6+","altim":1018,"clouds":[],"obsTime":1779620400},"SBPB":{"icaoId":"SBPB","flightCategory":"VFR","rawOb":"METAR SBPB 241100Z 10007KT 9999 FEW020 29/25 Q1013","temp":29,"dewp":25,"wdir":100,"wspd":7,"visib":"6+","altim":1013,"clouds":[{"cover":"FEW","base":2000}],"obsTime":1779620400},"SBSJ":{"icaoId":"SBSJ","flightCategory":"LIFR","rawOb":"METAR SBSJ 241100Z VRB02KT 0900 R34///// R16/P2000 FG OVC002 17/17 Q1023","temp":17,"dewp":17,"wdir":"VRB","wspd":2,"visib":0.56,"altim":1023,"clouds":[{"cover":"OVC","base":200}],"obsTime":1779620400},"SBDN":{"icaoId":"SBDN","flightCategory":"LIFR","rawOb":"METAR SBDN 241100Z 06003KT 2000 BR BKN002 18/17 Q1020","temp":18,"dewp":17,"wdir":60,"wspd":3,"visib":1.24,"altim":1020,"clouds":[{"cover":"BKN","base":200}],"obsTime":1779620400},"SBSC":{"icaoId":"SBSC","flightCategory":"VFR","rawOb":"METAR SBSC 241100Z 04002KT CAVOK 22/19 Q1020","temp":22,"dewp":19,"wdir":40,"wspd":2,"visib":"6+","altim":1020,"clouds":[],"obsTime":1779620400},"SBES":{"icaoId":"SBES","flightCategory":"VFR","rawOb":"METAR SBES 241100Z VRB03KT CAVOK 21/// Q1020","temp":null,"dewp":null,"wdir":"VRB","wspd":3,"visib":"6+","altim":1020,"clouds":[],"obsTime":1779620400},"SBGM":{"icaoId":"SBGM","flightCategory":"VFR","rawOb":"METAR SBGM 241200Z 10006KT 9999 OVC035 20/16 Q1017","temp":20,"dewp":16,"wdir":100,"wspd":6,"visib":"6+","altim":1017,"clouds":[{"cover":"OVC","base":3500}],"obsTime":1779624000},"SBPS":{"icaoId":"SBPS","flightCategory":"VFR","rawOb":"METAR SBPS 241100Z 23004KT 9999 SCT025 23/20 Q1019","temp":23,"dewp":20,"wdir":230,"wspd":4,"visib":"6+","altim":1019,"clouds":[{"cover":"SCT","base":2500}],"obsTime":1779620400},"SBIP":{"icaoId":"SBIP","flightCategory":"MVFR","rawOb":"METAR SBIP 241100Z AUTO VRB02KT 9999 OVC028 21/20 Q1022","temp":21,"dewp":20,"wdir":"VRB","wspd":2,"visib":"6+","altim":1022,"clouds":[{"cover":"OVC","base":2800}],"obsTime":1779620400},"SBPP":{"icaoId":"SBPP","flightCategory":"IFR","rawOb":"SPECI SBPP 241115Z 03002KT 2000 BR BKN020 14/14 Q1020","temp":14,"dewp":14,"wdir":30,"wspd":2,"visib":1.24,"altim":1020,"clouds":[{"cover":"BKN","base":2000}],"obsTime":1779621300},"SBKG":{"icaoId":"SBKG","flightCategory":"MVFR","rawOb":"METAR SBKG 241100Z 13008KT 9999 SCT012 BKN015 23/21 Q1017","temp":23,"dewp":21,"wdir":130,"wspd":8,"visib":"6+","altim":1017,"clouds":[{"cover":"SCT","base":1200},{"cover":"BKN","base":1500}],"obsTime":1779620400},"SBPL":{"icaoId":"SBPL","flightCategory":"VFR","rawOb":"METAR SBPL 241100Z 09008KT 9999 SCT020 25/20 Q1018","temp":25,"dewp":20,"wdir":90,"wspd":8,"visib":"6+","altim":1018,"clouds":[{"cover":"SCT","base":2000}],"obsTime":1779620400},"SBSM":{"icaoId":"SBSM","flightCategory":"VFR","rawOb":"METAR SBSM 241100Z 12004KT 9999 FEW010 13/12 Q1022","temp":13,"dewp":12,"wdir":120,"wspd":4,"visib":"6+","altim":1022,"clouds":[{"cover":"FEW","base":1000}],"obsTime":1779620400},"SBAR":{"icaoId":"SBAR","flightCategory":"VFR","rawOb":"METAR SBAR 241100Z 12010KT 9999 FEW025 28/22 Q1015","temp":28,"dewp":22,"wdir":120,"wspd":10,"visib":"6+","altim":1015,"clouds":[{"cover":"FEW","base":2500}],"obsTime":1779620400},"SBAX":{"icaoId":"SBAX","flightCategory":"VFR","rawOb":"METAR SBAX 241100Z AUTO 08005KT 050V110 CAVOK 19/17 Q1024","temp":19,"dewp":17,"wdir":80,"wspd":5,"visib":"6+","altim":1024,"clouds":[],"obsTime":1779620400},"SBPF":{"icaoId":"SBPF","flightCategory":"LIFR","rawOb":"METAR SBPF 241100Z 14008KT 9999 OVC003 11/10 Q1022","temp":11,"dewp":10,"wdir":140,"wspd":8,"visib":"6+","altim":1022,"clouds":[{"cover":"OVC","base":300}],"obsTime":1779620400},"SBLE":{"icaoId":"SBLE","flightCategory":"LIFR","rawOb":"METAR SBLE 241100Z AUTO 15005KT 110V200 9999 BKN004 OVC007 ///// Q////","temp":null,"dewp":null,"wdir":150,"wspd":5,"visib":"6+","altim":null,"clouds":[{"cover":"BKN","base":400},{"cover":"OVC","base":700}],"obsTime":1779620400},"SBGW":{"icaoId":"SBGW","flightCategory":"LIFR","rawOb":"METAR SBGW 241100Z VRB02KT 0500 0200N FG OVC002 18/14 Q1022","temp":18,"dewp":14,"wdir":"VRB","wspd":2,"visib":0.31,"altim":1022,"clouds":[{"cover":"OVC","base":200}],"obsTime":1779620400},"SBJR":{"icaoId":"SBJR","flightCategory":"VFR","rawOb":"METAR SBJR 241100Z 35001KT CAVOK 22/21 Q1020","temp":22,"dewp":21,"wdir":350,"wspd":1,"visib":"6+","altim":1020,"clouds":[],"obsTime":1779620400},"SBAF":{"icaoId":"SBAF","flightCategory":"VFR","rawOb":"METAR SBAF 241100Z 02002KT CAVOK 20/20 Q1020","temp":20,"dewp":20,"wdir":20,"wspd":2,"visib":"6+","altim":1020,"clouds":[],"obsTime":1779620400},"SBLS":{"icaoId":"SBLS","flightCategory":"VFR","rawOb":"METAR SBLS 241100Z 17005KT 110V170 9999 FEW010 18/16 Q1024","temp":18,"dewp":16,"wdir":170,"wspd":5,"visib":"6+","altim":1024,"clouds":[{"cover":"FEW","base":1000}],"obsTime":1779620400},"SBMT":{"icaoId":"SBMT","flightCategory":"MVFR","rawOb":"METAR SBMT 241100Z 05002KT 7000 NSC 17/17 Q1022","temp":17,"dewp":17,"wdir":50,"wspd":2,"visib":4.35,"altim":1022,"clouds":[],"obsTime":1779620400},"SBST":{"icaoId":"SBST","flightCategory":"MVFR","rawOb":"METAR SBST 241100Z 06004KT 030V090 6000 FEW002 OVC016 18/18 Q1020","temp":18,"dewp":18,"wdir":60,"wspd":4,"visib":3.73,"altim":1020,"clouds":[{"cover":"FEW","base":200},{"cover":"OVC","base":1600}],"obsTime":1779620400},"SBIH":{"icaoId":"SBIH","flightCategory":"MVFR","rawOb":"METAR SBIH 241100Z 00000KT 9999 SCT006 BKN018 FEW025TCU BKN080 24/24 Q1013","temp":24,"dewp":24,"wdir":0,"wspd":0,"visib":"6+","altim":1013,"clouds":[{"cover":"SCT","base":600},{"cover":"BKN","base":1800},{"cover":"FEW","base":2500},{"cover":"BKN","base":8000}],"obsTime":1779620400},"SBJP":{"icaoId":"SBJP","flightCategory":"VFR","rawOb":"METAR SBJP 241100Z 18006KT 9999 SCT017 25/24 Q1015","temp":25,"dewp":24,"wdir":180,"wspd":6,"visib":"6+","altim":1015,"clouds":[{"cover":"SCT","base":1700}],"obsTime":1779620400},"SBTA":{"icaoId":"SBTA","flightCategory":"LIFR","rawOb":"METAR SBTA 241100Z 23002KT 1500 BR OVC003 17/17 Q1021","temp":17,"dewp":17,"wdir":230,"wspd":2,"visib":0.93,"altim":1021,"clouds":[{"cover":"OVC","base":300}],"obsTime":1779620400},"SBJV":{"icaoId":"SBJV","flightCategory":"VFR","rawOb":"METAR SBJV 241100Z 32004KT CAVOK 16/16 Q1020","temp":16,"dewp":16,"wdir":320,"wspd":4,"visib":"6+","altim":1020,"clouds":[],"obsTime":1779620400},"SBNM":{"icaoId":"SBNM","flightCategory":"MVFR","rawOb":"METAR SBNM 241200Z AUTO 13007KT 8000 FEW002 11/11 Q1022","temp":11,"dewp":11,"wdir":130,"wspd":7,"visib":4.97,"altim":1022,"clouds":[{"cover":"FEW","base":200}],"obsTime":1779624000},"SBAN":{"icaoId":"SBAN","flightCategory":"IFR","rawOb":"METAR SBAN 241100Z 19008KT 9999 FEW003 BKN006 18/17 Q1024","temp":18,"dewp":17,"wdir":190,"wspd":8,"visib":"6+","altim":1024,"clouds":[{"cover":"FEW","base":300},{"cover":"BKN","base":600}],"obsTime":1779620400}}}