{"updated":1779476891,"count":85,"data":{"SBGR":{"icaoId":"SBGR","flightCategory":"MVFR","rawOb":"METAR SBGR 221800Z 12008KT 9999 OVC015 17/14 Q1025","temp":17,"dewp":14,"wdir":120,"wspd":8,"visib":"6+","altim":1025,"clouds":[{"cover":"OVC","base":1500}],"obsTime":1779472800},"SBVT":{"icaoId":"SBVT","flightCategory":"VFR","rawOb":"METAR SBVT 221800Z 21011KT 9999 VCSH SCT030 BKN045 BKN070 23/19 Q1022","temp":23,"dewp":19,"wdir":210,"wspd":11,"visib":"6+","altim":1022,"clouds":[{"cover":"SCT","base":3000},{"cover":"BKN","base":4500},{"cover":"BKN","base":7000}],"obsTime":1779472800},"SBBE":{"icaoId":"SBBE","flightCategory":"VFR","rawOb":"METAR SBBE 221800Z 34008KT 9999 SCT030 BKN100 31/25 Q1010","temp":31,"dewp":25,"wdir":340,"wspd":8,"visib":"6+","altim":1010,"clouds":[{"cover":"SCT","base":3000},{"cover":"BKN","base":10000}],"obsTime":1779472800},"SBBR":{"icaoId":"SBBR","flightCategory":"VFR","rawOb":"METAR SBBR 221800Z 14013KT 9999 FEW033 24/14 Q1022","temp":24,"dewp":14,"wdir":140,"wspd":13,"visib":"6+","altim":1022,"clouds":[{"cover":"FEW","base":3300}],"obsTime":1779472800},"SBTE":{"icaoId":"SBTE","flightCategory":"VFR","rawOb":"METAR SBTE 221800Z 12007KT 060V200 9999 SCT025 33/21 Q1010","temp":33,"dewp":21,"wdir":120,"wspd":7,"visib":"6+","altim":1010,"clouds":[{"cover":"SCT","base":2500}],"obsTime":1779472800},"SBSV":{"icaoId":"SBSV","flightCategory":"VFR","rawOb":"METAR SBSV 221800Z 14010KT 110V240 9999 SCT025 29/22 Q1015","temp":29,"dewp":22,"wdir":140,"wspd":10,"visib":"6+","altim":1015,"clouds":[{"cover":"SCT","base":2500}],"obsTime":1779472800},"SBBV":{"icaoId":"SBBV","flightCategory":"MVFR","rawOb":"METAR SBBV 221800Z COR 35007KT 8000 -RA SCT010 BKN025 FEW030TCU OVC070 25/24 Q1013","temp":25,"dewp":24,"wdir":350,"wspd":7,"visib":4.97,"altim":1013,"clouds":[{"cover":"SCT","base":1000},{"cover":"BKN","base":2500},{"cover":"FEW","base":3000},{"cover":"OVC","base":7000}],"obsTime":1779472800},"SBSP":{"icaoId":"SBSP","flightCategory":"IFR","rawOb":"METAR SBSP 221800Z 16009KT 9999 BKN007 OVC009 15/13 Q1026","temp":15,"dewp":13,"wdir":160,"wspd":9,"visib":"6+","altim":1026,"clouds":[{"cover":"BKN","base":700},{"cover":"OVC","base":900}],"obsTime":1779472800},"SBCB":{"icaoId":"SBCB","flightCategory":"VFR","rawOb":"METAR SBCB 221800Z 02004KT 9999 SCT015 BKN040 22/18 Q1023","temp":22,"dewp":18,"wdir":20,"wspd":4,"visib":"6+","altim":1023,"clouds":[{"cover":"SCT","base":1500},{"cover":"BKN","base":4000}],"obsTime":1779472800},"SBCF":{"icaoId":"SBCF","flightCategory":"VFR","rawOb":"METAR SBCF 221800Z 13009KT 9999 SCT025 23/17 Q1024","temp":23,"dewp":17,"wdir":130,"wspd":9,"visib":"6+","altim":1024,"clouds":[{"cover":"SCT","base":2500}],"obsTime":1779472800},"SBSN":{"icaoId":"SBSN","flightCategory":"VFR","rawOb":"METAR SBSN 221800Z 08009KT 9999 FEW020 31/25 Q1011","temp":31,"dewp":25,"wdir":80,"wspd":9,"visib":"6+","altim":1011,"clouds":[{"cover":"FEW","base":2000}],"obsTime":1779472800},"SBCG":{"icaoId":"SBCG","flightCategory":"MVFR","rawOb":"METAR SBCG 221800Z 20005KT 160V240 9999 OVC030 23/16 Q1020","temp":23,"dewp":16,"wdir":200,"wspd":5,"visib":"6+","altim":1020,"clouds":[{"cover":"OVC","base":3000}],"obsTime":1779472800},"SBSL":{"icaoId":"SBSL","flightCategory":"MVFR","rawOb":"METAR SBSL 221800Z 03006KT 9999 VCSH SCT012 BKN020 FEW025TCU 29/24 Q1010","temp":29,"dewp":24,"wdir":30,"wspd":6,"visib":"6+","altim":1010,"clouds":[{"cover":"SCT","base":1200},{"cover":"BKN","base":2000},{"cover":"FEW","base":2500}],"obsTime":1779472800},"SBSG":{"icaoId":"SBSG","flightCategory":"VFR","rawOb":"METAR SBSG 221800Z 12010KT 090V170 9999 SCT035 29/22 Q1012","temp":29,"dewp":22,"wdir":120,"wspd":10,"visib":"6+","altim":1012,"clouds":[{"cover":"SCT","base":3500}],"obsTime":1779472800},"SBCP":{"icaoId":"SBCP","flightCategory":"MVFR","rawOb":"METAR SBCP 221800Z 19010KT 9999 BKN020 BKN090 22/20 Q1023","temp":22,"dewp":20,"wdir":190,"wspd":10,"visib":"6+","altim":1023,"clouds":[{"cover":"BKN","base":2000},{"cover":"BKN","base":9000}],"obsTime":1779472800},"SBRF":{"icaoId":"SBRF","flightCategory":"VFR","rawOb":"METAR SBRF 221800Z 15014KT 9999 SCT026 28/23 Q1013","temp":28,"dewp":23,"wdir":150,"wspd":14,"visib":"6+","altim":1013,"clouds":[{"cover":"SCT","base":2600}],"obsTime":1779472800},"SBCR":{"icaoId":"SBCR","flightCategory":"VFR","rawOb":"METAR SBCR 221800Z 24012KT 200V270 9999 OVC045 19/12 Q1020","temp":19,"dewp":12,"wdir":240,"wspd":12,"visib":"6+","altim":1020,"clouds":[{"cover":"OVC","base":4500}],"obsTime":1779472800},"SBRB":{"icaoId":"SBRB","flightCategory":"MVFR","rawOb":"METAR SBRB 221800Z 16004KT 9999 BKN024 23/19 Q1018","temp":23,"dewp":19,"wdir":160,"wspd":4,"visib":"6+","altim":1018,"clouds":[{"cover":"BKN","base":2400}],"obsTime":1779472800},"SBPJ":{"icaoId":"SBPJ","flightCategory":"VFR","rawOb":"METAR SBPJ 221800Z 11004KT 9999 FEW045 34/18 Q1013","temp":34,"dewp":18,"wdir":110,"wspd":4,"visib":"6+","altim":1013,"clouds":[{"cover":"FEW","base":4500}],"obsTime":1779472800},"SBCT":{"icaoId":"SBCT","flightCategory":"MVFR","rawOb":"METAR SBCT 221800Z 07006KT 020V100 9999 BKN015 OVC025 13/11 Q1025","temp":13,"dewp":11,"wdir":70,"wspd":6,"visib":"6+","altim":1025,"clouds":[{"cover":"BKN","base":1500},{"cover":"OVC","base":2500}],"obsTime":1779472800},"SBCZ":{"icaoId":"SBCZ","flightCategory":"MVFR","rawOb":"METAR SBCZ 221800Z 15005KT 120V200 9999 BKN025 OVC050 25/20 Q1017","temp":25,"dewp":20,"wdir":150,"wspd":5,"visib":"6+","altim":1017,"clouds":[{"cover":"BKN","base":2500},{"cover":"OVC","base":5000}],"obsTime":1779472800},"SBPA":{"icaoId":"SBPA","flightCategory":"VFR","rawOb":"METAR SBPA 221800Z 12009KT 9999 BKN035 18/11 Q1024","temp":18,"dewp":11,"wdir":120,"wspd":9,"visib":"6+","altim":1024,"clouds":[{"cover":"BKN","base":3500}],"obsTime":1779472800},"SBEG":{"icaoId":"SBEG","flightCategory":"MVFR","rawOb":"METAR SBEG 221800Z 20009KT 9999 SCT008 BKN012 BKN100 27/24 Q1013","temp":27,"dewp":24,"wdir":200,"wspd":9,"visib":"6+","altim":1013,"clouds":[{"cover":"SCT","base":800},{"cover":"BKN","base":1200},{"cover":"BKN","base":10000}],"obsTime":1779472800},"SBNT":{"icaoId":"SBNT","flightCategory":"VFR","rawOb":"METAR SBNT 221800Z 13017KT 9999 FEW035 30/22 Q1011","temp":30,"dewp":22,"wdir":130,"wspd":17,"visib":"6+","altim":1011,"clouds":[{"cover":"FEW","base":3500}],"obsTime":1779472800},"SBMQ":{"icaoId":"SBMQ","flightCategory":"VFR","rawOb":"METAR SBMQ 221800Z 05009KT 9999 SCT025 FEW030TCU 33/24 Q1010","temp":33,"dewp":24,"wdir":50,"wspd":9,"visib":"6+","altim":1010,"clouds":[{"cover":"SCT","base":2500},{"cover":"FEW","base":3000}],"obsTime":1779472800},"SBFI":{"icaoId":"SBFI","flightCategory":"LIFR","rawOb":"METAR SBFI 221800Z 18003KT 2000 -RA BR BKN004 BKN013 OVC080 13/13 Q1022","temp":13,"dewp":13,"wdir":180,"wspd":3,"visib":1.24,"altim":1022,"clouds":[{"cover":"BKN","base":400},{"cover":"BKN","base":1300},{"cover":"OVC","base":8000}],"obsTime":1779472800},"SBMO":{"icaoId":"SBMO","flightCategory":"VFR","rawOb":"METAR SBMO 221800Z 18009KT 9999 VCSH SCT027 BKN035 28/22 Q1014","temp":28,"dewp":22,"wdir":180,"wspd":9,"visib":"6+","altim":1014,"clouds":[{"cover":"SCT","base":2700},{"cover":"BKN","base":3500}],"obsTime":1779472800},"SBFL":{"icaoId":"SBFL","flightCategory":"VFR","rawOb":"METAR SBFL 221800Z 13012KT 9999 FEW015 BKN050 18/13 Q1024","temp":18,"dewp":13,"wdir":130,"wspd":12,"visib":"6+","altim":1024,"clouds":[{"cover":"FEW","base":1500},{"cover":"BKN","base":5000}],"obsTime":1779472800},"SBFZ":{"icaoId":"SBFZ","flightCategory":"VFR","rawOb":"METAR SBFZ 221800Z 14011KT 9999 SCT030 31/21 Q1010","temp":31,"dewp":21,"wdir":140,"wspd":11,"visib":"6+","altim":1010,"clouds":[{"cover":"SCT","base":3000}],"obsTime":1779472800},"SBMA":{"icaoId":"SBMA","flightCategory":"VFR","rawOb":"METAR SBMA 221800Z 08003KT 9999 SCT020 34/22 Q1010","temp":34,"dewp":22,"wdir":80,"wspd":3,"visib":"6+","altim":1010,"clouds":[{"cover":"SCT","base":2000}],"obsTime":1779472800},"SBLO":{"icaoId":"SBLO","flightCategory":"VFR","rawOb":"METAR SBLO 221800Z 12006KT CAVOK 19/14 Q1022","temp":19,"dewp":14,"wdir":120,"wspd":6,"visib":"6+","altim":1022,"clouds":[],"obsTime":1779472800},"SBGL":{"icaoId":"SBGL","flightCategory":"MVFR","rawOb":"METAR SBGL 221800Z 12004KT 8000 SCT022 FEW025TCU BKN040 OVC070 23/17 Q1023","temp":23,"dewp":17,"wdir":120,"wspd":4,"visib":4.97,"altim":1023,"clouds":[{"cover":"SCT","base":2200},{"cover":"FEW","base":2500},{"cover":"BKN","base":4000},{"cover":"OVC","base":7000}],"obsTime":1779472800},"SBKP":{"icaoId":"SBKP","flightCategory":"VFR","rawOb":"METAR SBKP 221800Z 13011KT 9999 FEW035 BKN080 21/15 Q1023","temp":21,"dewp":15,"wdir":130,"wspd":11,"visib":"6+","altim":1023,"clouds":[{"cover":"FEW","base":3500},{"cover":"BKN","base":8000}],"obsTime":1779472800},"SBGO":{"icaoId":"SBGO","flightCategory":"VFR","rawOb":"METAR SBGO 221800Z 08010KT CAVOK 28/16 Q1020","temp":28,"dewp":16,"wdir":80,"wspd":10,"visib":"6+","altim":1020,"clouds":[],"obsTime":1779472800},"SBHT":{"icaoId":"SBHT","flightCategory":"MVFR","rawOb":"METAR SBHT 221800Z 11003KT 9999 BKN030 SCT100 31/25 Q1011","temp":31,"dewp":25,"wdir":110,"wspd":3,"visib":"6+","altim":1011,"clouds":[{"cover":"BKN","base":3000},{"cover":"SCT","base":10000}],"obsTime":1779472800},"SBIL":{"icaoId":"SBIL","flightCategory":"VFR","rawOb":"METAR SBIL 221800Z 18006KT 150V210 9999 FEW020 29/23 Q1017","temp":29,"dewp":23,"wdir":180,"wspd":6,"visib":"6+","altim":1017,"clouds":[{"cover":"FEW","base":2000}],"obsTime":1779472800},"SBJU":{"icaoId":"SBJU","flightCategory":"VFR","rawOb":"METAR SBJU 221800Z 12010KT 9999 SCT020 30/19 Q1014","temp":30,"dewp":19,"wdir":120,"wspd":10,"visib":"6+","altim":1014,"clouds":[{"cover":"SCT","base":2000}],"obsTime":1779472800},"SBME":{"icaoId":"SBME","flightCategory":"VFR","rawOb":"METAR SBME 221800Z 19006KT 9999 SCT040 BKN080 23/17 Q1023","temp":23,"dewp":17,"wdir":190,"wspd":6,"visib":"6+","altim":1023,"clouds":[{"cover":"SCT","base":4000},{"cover":"BKN","base":8000}],"obsTime":1779472800},"SBMG":{"icaoId":"SBMG","flightCategory":"VFR","rawOb":"METAR SBMG 221800Z 10005KT 9999 SCT045 20/13 Q1021","temp":20,"dewp":13,"wdir":100,"wspd":5,"visib":"6+","altim":1021,"clouds":[{"cover":"SCT","base":4500}],"obsTime":1779472800},"SBMK":{"icaoId":"SBMK","flightCategory":"VFR","rawOb":"METAR SBMK 221800Z 09007KT 9999 OVC045 25/17 Q1021","temp":25,"dewp":17,"wdir":90,"wspd":7,"visib":"6+","altim":1021,"clouds":[{"cover":"OVC","base":4500}],"obsTime":1779472800},"SBAT":{"icaoId":"SBAT","flightCategory":"VFR","rawOb":"METAR SBAT 221800Z COR 21002KT 9999 FEW020 30/22 Q1015","temp":30,"dewp":22,"wdir":210,"wspd":2,"visib":"6+","altim":1015,"clouds":[{"cover":"FEW","base":2000}],"obsTime":1779472800},"SBPV":{"icaoId":"SBPV","flightCategory":"MVFR","rawOb":"METAR SBPV 221800Z 19005KT 9999 BKN020 24/20 Q1016","temp":24,"dewp":20,"wdir":190,"wspd":5,"visib":"6+","altim":1016,"clouds":[{"cover":"BKN","base":2000}],"obsTime":1779472800},"SBUL":{"icaoId":"SBUL","flightCategory":"VFR","rawOb":"METAR SBUL 221800Z 07012KT 9999 SCT030 25/16 Q1022","temp":25,"dewp":16,"wdir":70,"wspd":12,"visib":"6+","altim":1022,"clouds":[{"cover":"SCT","base":3000}],"obsTime":1779472800},"SBUR":{"icaoId":"SBUR","flightCategory":"VFR","rawOb":"METAR SBUR 221800Z 01007KT 9999 SCT040 27/17 Q1021","temp":27,"dewp":17,"wdir":10,"wspd":7,"visib":"6+","altim":1021,"clouds":[{"cover":"SCT","base":4000}],"obsTime":1779472800},"SBOI":{"icaoId":"SBOI","flightCategory":"VFR","rawOb":"METAR SBOI 221800Z AUTO 01008KT 9999 FEW044 27/25 Q1012","temp":27,"dewp":25,"wdir":10,"wspd":8,"visib":"6+","altim":1012,"clouds":[{"cover":"FEW","base":4400}],"obsTime":1779472800},"SBTT":{"icaoId":"SBTT","flightCategory":"MVFR","rawOb":"METAR SBTT 221800Z 18005KT 6000 SCT015 OVC020 24/21 Q1016","temp":24,"dewp":21,"wdir":180,"wspd":5,"visib":3.73,"altim":1016,"clouds":[{"cover":"SCT","base":1500},{"cover":"OVC","base":2000}],"obsTime":1779472800},"SBPP":{"icaoId":"SBPP","flightCategory":"VFR","rawOb":"METAR SBPP 221800Z 21008KT CAVOK 17/13 Q1022","temp":17,"dewp":13,"wdir":210,"wspd":8,"visib":"6+","altim":1022,"clouds":[],"obsTime":1779472800},"SBPS":{"icaoId":"SBPS","flightCategory":"IFR","rawOb":"METAR SBPS 221800Z 14008KT 080V220 4000 -RA BKN010 OVC015 23/22 Q1018","temp":23,"dewp":22,"wdir":140,"wspd":8,"visib":2.49,"altim":1018,"clouds":[{"cover":"BKN","base":1000},{"cover":"OVC","base":1500}],"obsTime":1779472800},"SBPB":{"icaoId":"SBPB","flightCategory":"MVFR","rawOb":"METAR SBPB 221800Z 16004KT 9999 BKN016 32/23 Q1009","temp":32,"dewp":23,"wdir":160,"wspd":4,"visib":"6+","altim":1009,"clouds":[{"cover":"BKN","base":1600}],"obsTime":1779472800},"SBSJ":{"icaoId":"SBSJ","flightCategory":"MVFR","rawOb":"METAR SBSJ 221800Z 12009KT 9999 FEW020 OVC027 18/14 Q1024","temp":18,"dewp":14,"wdir":120,"wspd":9,"visib":"6+","altim":1024,"clouds":[{"cover":"FEW","base":2000},{"cover":"OVC","base":2700}],"obsTime":1779472800},"SBAR":{"icaoId":"SBAR","flightCategory":"VFR","rawOb":"METAR SBAR 221800Z 16009G19KT 9999 4900NW -TSRA SCT021 FEW025CB BKN070 26/23 Q1014","temp":26,"dewp":23,"wdir":160,"wspd":9,"visib":"6+","altim":1014,"clouds":[{"cover":"SCT","base":2100},{"cover":"FEW","base":2500},{"cover":"BKN","base":7000}],"obsTime":1779472800},"SBPL":{"icaoId":"SBPL","flightCategory":"VFR","rawOb":"METAR SBPL 221800Z 09011KT 9999 SCT030 31/19 Q1015","temp":31,"dewp":19,"wdir":90,"wspd":11,"visib":"6+","altim":1015,"clouds":[{"cover":"SCT","base":3000}],"obsTime":1779472800},"SBCJ":{"icaoId":"SBCJ","flightCategory":"VFR","rawOb":"METAR SBCJ 221800Z 12006KT 9999 SCT020 30/20 Q1016","temp":30,"dewp":20,"wdir":120,"wspd":6,"visib":"6+","altim":1016,"clouds":[{"cover":"SCT","base":2000}],"obsTime":1779472800},"SBUY":{"icaoId":"SBUY","flightCategory":"MVFR","rawOb":"METAR SBUY 221800Z 30002KT 5000 BR SCT008 BKN015 22/22 Q1014","temp":22,"dewp":22,"wdir":300,"wspd":2,"visib":3.11,"altim":1014,"clouds":[{"cover":"SCT","base":800},{"cover":"BKN","base":1500}],"obsTime":1779472800},"SBTF":{"icaoId":"SBTF","flightCategory":"MVFR","rawOb":"SPECI SBTF 221725Z 22005KT 9999 BKN010 BKN090 25/23 Q1014","temp":25,"dewp":23,"wdir":220,"wspd":5,"visib":"6+","altim":1014,"clouds":[{"cover":"BKN","base":1000},{"cover":"BKN","base":9000}],"obsTime":1779470700},"SBSC":{"icaoId":"SBSC","flightCategory":"MVFR","rawOb":"METAR SBSC 221800Z 16006KT 9999 FEW010 BKN020 OVC040 21/18 Q1023","temp":21,"dewp":18,"wdir":160,"wspd":6,"visib":"6+","altim":1023,"clouds":[{"cover":"FEW","base":1000},{"cover":"BKN","base":2000},{"cover":"OVC","base":4000}],"obsTime":1779472800},"SBSM":{"icaoId":"SBSM","flightCategory":"MVFR","rawOb":"METAR SBSM 221800Z 09010KT 9999 BKN018 14/10 Q1025","temp":14,"dewp":10,"wdir":90,"wspd":10,"visib":"6+","altim":1025,"clouds":[{"cover":"BKN","base":1800}],"obsTime":1779472800},"SBSR":{"icaoId":"SBSR","flightCategory":"VFR","rawOb":"METAR SBSR 221800Z 21004KT 9999 FEW035 SCT070 26/17 Q1020","temp":26,"dewp":17,"wdir":210,"wspd":4,"visib":"6+","altim":1020,"clouds":[{"cover":"FEW","base":3500},{"cover":"SCT","base":7000}],"obsTime":1779472800},"SBTU":{"icaoId":"SBTU","flightCategory":"VFR","rawOb":"METAR SBTU 221800Z AUTO 26005KT 220V320 9999 // FEW035/// 32/23 Q1012","temp":32,"dewp":23,"wdir":260,"wspd":5,"visib":"6+","altim":1012,"clouds":[{"cover":"FEW","base":3500}],"obsTime":1779472800},"SBVH":{"icaoId":"SBVH","flightCategory":"VFR","rawOb":"METAR SBVH 221800Z 21009KT 9999 SCT011 OVC040 19/17 Q1019","temp":19,"dewp":17,"wdir":210,"wspd":9,"visib":"6+","altim":1019,"clouds":[{"cover":"SCT","base":1100},{"cover":"OVC","base":4000}],"obsTime":1779472800},"SBAU":{"icaoId":"SBAU","flightCategory":"VFR","rawOb":"METAR SBAU 221800Z 10008KT CAVOK 26/15 Q1020","temp":26,"dewp":15,"wdir":100,"wspd":8,"visib":"6+","altim":1020,"clouds":[],"obsTime":1779472800},"SBAX":{"icaoId":"SBAX","flightCategory":"VFR","rawOb":"METAR SBAX 221800Z COR AUTO 08006KT 030V110 9999 BKN031 24/17 Q1023","temp":24,"dewp":17,"wdir":80,"wspd":6,"visib":"6+","altim":1023,"clouds":[{"cover":"BKN","base":3100}],"obsTime":1779472800},"SBBH":{"icaoId":"SBBH","flightCategory":"VFR","rawOb":"METAR SBBH 221800Z 11010KT 9999 SCT035 23/17 Q1023","temp":23,"dewp":17,"wdir":110,"wspd":10,"visib":"6+","altim":1023,"clouds":[{"cover":"SCT","base":3500}],"obsTime":1779472800},"SBBQ":{"icaoId":"SBBQ","flightCategory":"IFR","rawOb":"METAR SBBQ 221800Z 09005KT 040V140 5000 BR OVC006 15/14 Q1028","temp":15,"dewp":14,"wdir":90,"wspd":5,"visib":3.11,"altim":1028,"clouds":[{"cover":"OVC","base":600}],"obsTime":1779472800},"SBBU":{"icaoId":"SBBU","flightCategory":"VFR","rawOb":"METAR SBBU 221800Z 11006KT 9999 SCT035 BKN090 24/17 Q1022","temp":24,"dewp":17,"wdir":110,"wspd":6,"visib":"6+","altim":1022,"clouds":[{"cover":"SCT","base":3500},{"cover":"BKN","base":9000}],"obsTime":1779472800},"SBCA":{"icaoId":"SBCA","flightCategory":"LIFR","rawOb":"METAR SBCA 221800Z 17003KT 130V210 0100 -DZ FG OVC001 14/14 Q1023","temp":14,"dewp":14,"wdir":170,"wspd":3,"visib":0.06,"altim":1023,"clouds":[{"cover":"OVC","base":100}],"obsTime":1779472800},"SBCC":{"icaoId":"SBCC","flightCategory":"MVFR","rawOb":"METAR SBCC 221800Z 08008KT 9999 BKN020 FEW025TCU SCT100 31/18 Q1014","temp":31,"dewp":18,"wdir":80,"wspd":8,"visib":"6+","altim":1014,"clouds":[{"cover":"BKN","base":2000},{"cover":"FEW","base":2500},{"cover":"SCT","base":10000}],"obsTime":1779472800},"SBCO":{"icaoId":"SBCO","flightCategory":"VFR","rawOb":"METAR SBCO 221800Z 11010KT 9999 BKN035 18/11 Q1025","temp":18,"dewp":11,"wdir":110,"wspd":10,"visib":"6+","altim":1025,"clouds":[{"cover":"BKN","base":3500}],"obsTime":1779472800},"SBDN":{"icaoId":"SBDN","flightCategory":"VFR","rawOb":"METAR SBDN 221800Z 11008KT CAVOK 23/14 Q1021","temp":23,"dewp":14,"wdir":110,"wspd":8,"visib":"6+","altim":1021,"clouds":[],"obsTime":1779472800},"SBES":{"icaoId":"SBES","flightCategory":"VFR","rawOb":"METAR SBES 221800Z VRB03KT 9999 FEW020 SCT040 BKN080 21/// Q1023","temp":null,"dewp":null,"wdir":"VRB","wspd":3,"visib":"6+","altim":1023,"clouds":[{"cover":"FEW","base":2000},{"cover":"SCT","base":4000},{"cover":"BKN","base":8000}],"obsTime":1779472800},"SBGM":{"icaoId":"SBGM","flightCategory":"MVFR","rawOb":"METAR SBGM 221800Z 14007KT 9999 OVC030 25/17 Q1017","temp":25,"dewp":17,"wdir":140,"wspd":7,"visib":"6+","altim":1017,"clouds":[{"cover":"OVC","base":3000}],"obsTime":1779472800},"SBKG":{"icaoId":"SBKG","flightCategory":"VFR","rawOb":"METAR SBKG 221800Z 14008KT 9999 SCT023 28/19 Q1015","temp":28,"dewp":19,"wdir":140,"wspd":8,"visib":"6+","altim":1015,"clouds":[{"cover":"SCT","base":2300}],"obsTime":1779472800},"SBJP":{"icaoId":"SBJP","flightCategory":"VFR","rawOb":"METAR SBJP 221800Z 12015KT 9999 SCT030 29/22 Q1012","temp":29,"dewp":22,"wdir":120,"wspd":15,"visib":"6+","altim":1012,"clouds":[{"cover":"SCT","base":3000}],"obsTime":1779472800},"SBIH":{"icaoId":"SBIH","flightCategory":"VFR","rawOb":"METAR SBIH 221800Z 00000KT 9999 FEW020 33/25 Q1010","temp":33,"dewp":25,"wdir":0,"wspd":0,"visib":"6+","altim":1010,"clouds":[{"cover":"FEW","base":2000}],"obsTime":1779472800},"SBAN":{"icaoId":"SBAN","flightCategory":"VFR","rawOb":"METAR SBAN 221800Z 17012KT 140V210 CAVOK 25/14 Q1023","temp":25,"dewp":14,"wdir":170,"wspd":12,"visib":"6+","altim":1023,"clouds":[],"obsTime":1779472800},"SBAF":{"icaoId":"SBAF","flightCategory":"MVFR","rawOb":"METAR SBAF 221800Z 20006KT 8000 SCT015 BKN035 OVC060 21/21 Q1023","temp":21,"dewp":21,"wdir":200,"wspd":6,"visib":4.97,"altim":1023,"clouds":[{"cover":"SCT","base":1500},{"cover":"BKN","base":3500},{"cover":"OVC","base":6000}],"obsTime":1779472800},"SBGW":{"icaoId":"SBGW","flightCategory":"MVFR","rawOb":"METAR SBGW 221800Z 01003KT 320V080 9999 BKN020 OVC025 20/13 Q1024","temp":20,"dewp":13,"wdir":10,"wspd":3,"visib":"6+","altim":1024,"clouds":[{"cover":"BKN","base":2000},{"cover":"OVC","base":2500}],"obsTime":1779472800},"SBJR":{"icaoId":"SBJR","flightCategory":"MVFR","rawOb":"METAR SBJR 221800Z 25001KT 8000 FEW008 BKN015 OVC050 21/19 Q1023","temp":21,"dewp":19,"wdir":250,"wspd":1,"visib":4.97,"altim":1023,"clouds":[{"cover":"FEW","base":800},{"cover":"BKN","base":1500},{"cover":"OVC","base":5000}],"obsTime":1779472800},"SBLS":{"icaoId":"SBLS","flightCategory":"VFR","rawOb":"METAR SBLS 221800Z 13010KT 070V130 9999 SCT036 22/17 Q1023","temp":22,"dewp":17,"wdir":130,"wspd":10,"visib":"6+","altim":1023,"clouds":[{"cover":"SCT","base":3600}],"obsTime":1779472800},"SBMT":{"icaoId":"SBMT","flightCategory":"MVFR","rawOb":"METAR SBMT 221800Z 14008KT 110V170 6000 BKN011 OVC015 15/13 Q1025","temp":15,"dewp":13,"wdir":140,"wspd":8,"visib":3.73,"altim":1025,"clouds":[{"cover":"BKN","base":1100},{"cover":"OVC","base":1500}],"obsTime":1779472800},"SBST":{"icaoId":"SBST","flightCategory":"IFR","rawOb":"METAR SBST 221800Z 14003KT 2000 BR SCT004 BKN028 17/17 Q1024","temp":17,"dewp":17,"wdir":140,"wspd":3,"visib":1.24,"altim":1024,"clouds":[{"cover":"SCT","base":400},{"cover":"BKN","base":2800}],"obsTime":1779472800},"SBTA":{"icaoId":"SBTA","flightCategory":"MVFR","rawOb":"METAR SBTA 221800Z 10004KT 070V130 9999 BKN025 OVC035 20/13 Q1024","temp":20,"dewp":13,"wdir":100,"wspd":4,"visib":"6+","altim":1024,"clouds":[{"cover":"BKN","base":2500},{"cover":"OVC","base":3500}],"obsTime":1779472800},"SBJV":{"icaoId":"SBJV","flightCategory":"VFR","rawOb":"METAR SBJV 221800Z 13007KT 9999 FEW030 BKN050 18/13 Q1024","temp":18,"dewp":13,"wdir":130,"wspd":7,"visib":"6+","altim":1024,"clouds":[{"cover":"FEW","base":3000},{"cover":"BKN","base":5000}],"obsTime":1779472800},"SBNM":{"icaoId":"SBNM","flightCategory":"VFR","rawOb":"METAR SBNM 221800Z AUTO VRB02KT CAVOK 13/08 Q1023","temp":13,"dewp":8,"wdir":"VRB","wspd":2,"visib":"6+","altim":1023,"clouds":[],"obsTime":1779472800},"SBLE":{"icaoId":"SBLE","flightCategory":"VFR","rawOb":"METAR SBLE 221800Z AUTO 23003KT 180V300 9999 FEW018 24/24 Q1019","temp":24,"dewp":24,"wdir":230,"wspd":3,"visib":"6+","altim":1019,"clouds":[{"cover":"FEW","base":1800}],"obsTime":1779472800}}}