{"updated":1777369082,"count":63,"data":{"SBCG":{"icaoId":"SBCG","flightCategory":"LIFR","rawOb":"METAR SBCG 280800Z 13003KT 0600 R24///// R06/P2000 FG OVC001 19/19 Q1014","temp":19,"dewp":19,"wdir":130,"wspd":3,"visib":0.37,"altim":1014,"clouds":[{"cover":"OVC","base":100}],"obsTime":1777363200},"SBBE":{"icaoId":"SBBE","flightCategory":"VFR","rawOb":"METAR SBBE 280800Z 11001KT 9999 FEW020 BKN080 25/25 Q1011","temp":25,"dewp":25,"wdir":110,"wspd":1,"visib":"6+","altim":1011,"clouds":[{"cover":"FEW","base":2000},{"cover":"BKN","base":8000}],"obsTime":1777363200},"SBBR":{"icaoId":"SBBR","flightCategory":"VFR","rawOb":"METAR SBBR 280800Z VRB02KT CAVOK 19/18 Q1018","temp":19,"dewp":18,"wdir":"VRB","wspd":2,"visib":"6+","altim":1018,"clouds":[],"obsTime":1777363200},"SBRF":{"icaoId":"SBRF","flightCategory":"MVFR","rawOb":"METAR SBRF 280800Z 14011KT 9999 SCT012 BKN015 BKN050 27/24 Q1011","temp":27,"dewp":24,"wdir":140,"wspd":11,"visib":"6+","altim":1011,"clouds":[{"cover":"SCT","base":1200},{"cover":"BKN","base":1500},{"cover":"BKN","base":5000}],"obsTime":1777363200},"SBBV":{"icaoId":"SBBV","flightCategory":"VFR","rawOb":"METAR SBBV 280800Z 09004KT 9999 FEW040 25/23 Q1011","temp":25,"dewp":23,"wdir":90,"wspd":4,"visib":"6+","altim":1011,"clouds":[{"cover":"FEW","base":4000}],"obsTime":1777363200},"SBCB":{"icaoId":"SBCB","flightCategory":"MVFR","rawOb":"METAR SBCB 280900Z 22004KT 9999 BKN015 25/24 Q1014","temp":25,"dewp":24,"wdir":220,"wspd":4,"visib":"6+","altim":1014,"clouds":[{"cover":"BKN","base":1500}],"obsTime":1777366800},"SBCF":{"icaoId":"SBCF","flightCategory":"VFR","rawOb":"METAR SBCF 280800Z 18002KT CAVOK 18/17 Q1018","temp":18,"dewp":17,"wdir":180,"wspd":2,"visib":"6+","altim":1018,"clouds":[],"obsTime":1777363200},"SBCT":{"icaoId":"SBCT","flightCategory":"IFR","rawOb":"METAR SBCT 280800Z 12008KT 7000 -DZ BKN005 OVC011 15/15 Q1018","temp":15,"dewp":15,"wdir":120,"wspd":8,"visib":4.35,"altim":1018,"clouds":[{"cover":"BKN","base":500},{"cover":"OVC","base":1100}],"obsTime":1777363200},"SBEG":{"icaoId":"SBEG","flightCategory":"VFR","rawOb":"METAR SBEG 280800Z 01002KT 9999 FEW010 24/24 Q1011","temp":24,"dewp":24,"wdir":10,"wspd":2,"visib":"6+","altim":1011,"clouds":[{"cover":"FEW","base":1000}],"obsTime":1777363200},"SBFI":{"icaoId":"SBFI","flightCategory":"VFR","rawOb":"METAR SBFI 280800Z 16002KT CAVOK 09/09 Q1015","temp":9,"dewp":9,"wdir":160,"wspd":2,"visib":"6+","altim":1015,"clouds":[],"obsTime":1777363200},"SBFL":{"icaoId":"SBFL","flightCategory":"VFR","rawOb":"METAR SBFL 280800Z 17006KT 120V230 CAVOK 18/04 Q1017","temp":18,"dewp":4,"wdir":170,"wspd":6,"visib":"6+","altim":1017,"clouds":[],"obsTime":1777363200},"SBFZ":{"icaoId":"SBFZ","flightCategory":"VFR","rawOb":"METAR SBFZ 280800Z VRB01KT 9999 FEW017 26/24 Q1010","temp":26,"dewp":24,"wdir":"VRB","wspd":1,"visib":"6+","altim":1010,"clouds":[{"cover":"FEW","base":1700}],"obsTime":1777363200},"SBGL":{"icaoId":"SBGL","flightCategory":"MVFR","rawOb":"METAR SBGL 280800Z 13004KT 9999 BKN025 BKN050 25/23 Q1013","temp":25,"dewp":23,"wdir":130,"wspd":4,"visib":"6+","altim":1013,"clouds":[{"cover":"BKN","base":2500},{"cover":"BKN","base":5000}],"obsTime":1777363200},"SBGO":{"icaoId":"SBGO","flightCategory":"VFR","rawOb":"METAR SBGO 280800Z 12004KT CAVOK 21/18 Q1016","temp":21,"dewp":18,"wdir":120,"wspd":4,"visib":"6+","altim":1016,"clouds":[],"obsTime":1777363200},"SBGR":{"icaoId":"SBGR","flightCategory":"MVFR","rawOb":"METAR SBGR 280800Z 11004KT 9999 OVC011 20/19 Q1018","temp":20,"dewp":19,"wdir":110,"wspd":4,"visib":"6+","altim":1018,"clouds":[{"cover":"OVC","base":1100}],"obsTime":1777363200},"SBJU":{"icaoId":"SBJU","flightCategory":"VFR","rawOb":"METAR SBJU 280800Z 00000KT 9999 SCT020 21/20 Q1014","temp":21,"dewp":20,"wdir":0,"wspd":0,"visib":"6+","altim":1014,"clouds":[{"cover":"SCT","base":2000}],"obsTime":1777363200},"SBKP":{"icaoId":"SBKP","flightCategory":"MVFR","rawOb":"METAR SBKP 280800Z 13005KT 6000 NSC 21/20 Q1016","temp":21,"dewp":20,"wdir":130,"wspd":5,"visib":3.73,"altim":1016,"clouds":[],"obsTime":1777363200},"SBLO":{"icaoId":"SBLO","flightCategory":"LIFR","rawOb":"SPECI SBLO 280746Z 06002KT 5000 -DZ BR BKN004 OVC016 20/20 Q1015","temp":20,"dewp":20,"wdir":60,"wspd":2,"visib":3.11,"altim":1015,"clouds":[{"cover":"BKN","base":400},{"cover":"OVC","base":1600}],"obsTime":1777362360},"SBMA":{"icaoId":"SBMA","flightCategory":"VFR","rawOb":"METAR SBMA 280800Z 35003KT 9999 FEW015 BKN100 26/23 Q1011","temp":26,"dewp":23,"wdir":350,"wspd":3,"visib":"6+","altim":1011,"clouds":[{"cover":"FEW","base":1500},{"cover":"BKN","base":10000}],"obsTime":1777363200},"SBME":{"icaoId":"SBME","flightCategory":"MVFR","rawOb":"METAR SBME 280800Z VRB01KT 8000 SCT010 23/22 Q1013","temp":23,"dewp":22,"wdir":"VRB","wspd":1,"visib":4.97,"altim":1013,"clouds":[{"cover":"SCT","base":1000}],"obsTime":1777363200},"SBMG":{"icaoId":"SBMG","flightCategory":"LIFR","rawOb":"METAR SBMG 280800Z AUTO 17004KT 3700 BR OVC003 18/18 Q1013","temp":18,"dewp":18,"wdir":170,"wspd":4,"visib":2.3,"altim":1013,"clouds":[{"cover":"OVC","base":300}],"obsTime":1777363200},"SBMK":{"icaoId":"SBMK","flightCategory":"VFR","rawOb":"METAR SBMK 280800Z 27002KT CAVOK 19/17 Q1017","temp":19,"dewp":17,"wdir":270,"wspd":2,"visib":"6+","altim":1017,"clouds":[],"obsTime":1777363200},"SBMO":{"icaoId":"SBMO","flightCategory":"MVFR","rawOb":"METAR SBMO 280800Z 19006KT 8000 VCSH SCT005 BKN011 BKN020 24/23 Q1013","temp":24,"dewp":23,"wdir":190,"wspd":6,"visib":4.97,"altim":1013,"clouds":[{"cover":"SCT","base":500},{"cover":"BKN","base":1100},{"cover":"BKN","base":2000}],"obsTime":1777363200},"SBMQ":{"icaoId":"SBMQ","flightCategory":"VFR","rawOb":"METAR SBMQ 280800Z 30003KT CAVOK 25/25 Q1010","temp":25,"dewp":25,"wdir":300,"wspd":3,"visib":"6+","altim":1010,"clouds":[],"obsTime":1777363200},"SBNT":{"icaoId":"SBNT","flightCategory":"VFR","rawOb":"METAR SBNT 280800Z 23004KT 9999 FEW025 SCT100 24/23 Q1011","temp":24,"dewp":23,"wdir":230,"wspd":4,"visib":"6+","altim":1011,"clouds":[{"cover":"FEW","base":2500},{"cover":"SCT","base":10000}],"obsTime":1777363200},"SBPA":{"icaoId":"SBPA","flightCategory":"VFR","rawOb":"METAR SBPA 280800Z 26002KT CAVOK 08/06 Q1018","temp":8,"dewp":6,"wdir":260,"wspd":2,"visib":"6+","altim":1018,"clouds":[],"obsTime":1777363200},"SBPJ":{"icaoId":"SBPJ","flightCategory":"VFR","rawOb":"METAR SBPJ 280800Z 02004KT 9999 -RA FEW012 SCT070 BKN090 23/23 Q1013","temp":23,"dewp":23,"wdir":20,"wspd":4,"visib":"6+","altim":1013,"clouds":[{"cover":"FEW","base":1200},{"cover":"SCT","base":7000},{"cover":"BKN","base":9000}],"obsTime":1777363200},"SBPV":{"icaoId":"SBPV","flightCategory":"IFR","rawOb":"METAR SBPV 280800Z 22002KT 9999 BKN008 25/22 Q1010","temp":25,"dewp":22,"wdir":220,"wspd":2,"visib":"6+","altim":1010,"clouds":[{"cover":"BKN","base":800}],"obsTime":1777363200},"SBRB":{"icaoId":"SBRB","flightCategory":"LIFR","rawOb":"METAR SBRB 280800Z 06003KT 1000 R07///// R25///// BR VCTS BKN002 FEW030CB 24/23 Q1010","temp":24,"dewp":23,"wdir":60,"wspd":3,"visib":0.62,"altim":1010,"clouds":[{"cover":"BKN","base":200},{"cover":"FEW","base":3000}],"obsTime":1777363200},"SBSG":{"icaoId":"SBSG","flightCategory":"VFR","rawOb":"METAR SBSG 280800Z 21003KT 180V240 9999 FEW016 BKN040 24/23 Q1012","temp":24,"dewp":23,"wdir":210,"wspd":3,"visib":"6+","altim":1012,"clouds":[{"cover":"FEW","base":1600},{"cover":"BKN","base":4000}],"obsTime":1777363200},"SBSL":{"icaoId":"SBSL","flightCategory":"VFR","rawOb":"METAR SBSL 280800Z 18001KT 9999 FEW020 25/24 Q1010","temp":25,"dewp":24,"wdir":180,"wspd":1,"visib":"6+","altim":1010,"clouds":[{"cover":"FEW","base":2000}],"obsTime":1777363200},"SBSN":{"icaoId":"SBSN","flightCategory":"VFR","rawOb":"METAR SBSN 280800Z /////KT 9999 FEW010 ///// Q1010","temp":null,"dewp":null,"wdir":null,"wspd":null,"visib":"6+","altim":1010,"clouds":[{"cover":"FEW","base":1000}],"obsTime":1777363200},"SBSP":{"icaoId":"SBSP","flightCategory":"IFR","rawOb":"METAR SBSP 280800Z AUTO 11005KT 080V150 9999 OVC007 20/19 Q1018","temp":20,"dewp":19,"wdir":110,"wspd":5,"visib":"6+","altim":1018,"clouds":[{"cover":"OVC","base":700}],"obsTime":1777363200},"SBSV":{"icaoId":"SBSV","flightCategory":"VFR","rawOb":"METAR SBSV 280800Z 12006KT 100V170 9999 FEW025 27/21 Q1013","temp":27,"dewp":21,"wdir":120,"wspd":6,"visib":"6+","altim":1013,"clouds":[{"cover":"FEW","base":2500}],"obsTime":1777363200},"SBTE":{"icaoId":"SBTE","flightCategory":"VFR","rawOb":"METAR SBTE 280800Z 00000KT 9999 SCT015 BKN070 25/24 Q1011","temp":25,"dewp":24,"wdir":0,"wspd":0,"visib":"6+","altim":1011,"clouds":[{"cover":"SCT","base":1500},{"cover":"BKN","base":7000}],"obsTime":1777363200},"SBUL":{"icaoId":"SBUL","flightCategory":"VFR","rawOb":"METAR SBUL 280800Z 13007KT CAVOK 21/17 Q1017","temp":21,"dewp":17,"wdir":130,"wspd":7,"visib":"6+","altim":1017,"clouds":[],"obsTime":1777363200},"SBUR":{"icaoId":"SBUR","flightCategory":"VFR","rawOb":"METAR SBUR 280800Z 16003KT CAVOK 23/17 Q1016","temp":23,"dewp":17,"wdir":160,"wspd":3,"visib":"6+","altim":1016,"clouds":[],"obsTime":1777363200},"SBVT":{"icaoId":"SBVT","flightCategory":"VFR","rawOb":"METAR SBVT 280800Z 34005KT CAVOK 25/21 Q1014","temp":25,"dewp":21,"wdir":340,"wspd":5,"visib":"6+","altim":1014,"clouds":[],"obsTime":1777363200},"SBOI":{"icaoId":"SBOI","flightCategory":"LIFR","rawOb":"METAR SBOI 280800Z AUTO VRB01KT 1000 // VV001 24/23 Q1011","temp":24,"dewp":23,"wdir":"VRB","wspd":1,"visib":0.62,"altim":1011,"clouds":[{"cover":"OVX","base":100}],"obsTime":1777363200},"SBIP":{"icaoId":"SBIP","flightCategory":"IFR","rawOb":"METAR SBIP 280800Z AUTO 00000KT 3400 BR SCT003 19/19 Q1016","temp":19,"dewp":19,"wdir":0,"wspd":0,"visib":2.11,"altim":1016,"clouds":[{"cover":"SCT","base":300}],"obsTime":1777363200},"SBBH":{"icaoId":"SBBH","flightCategory":"VFR","rawOb":"METAR SBBH 280900Z 07002KT CAVOK 19/17 Q1018","temp":19,"dewp":17,"wdir":70,"wspd":2,"visib":"6+","altim":1018,"clouds":[],"obsTime":1777366800},"SBBU":{"icaoId":"SBBU","flightCategory":"VFR","rawOb":"METAR SBBU 280900Z 07004KT CAVOK 21/20 Q1016","temp":21,"dewp":20,"wdir":70,"wspd":4,"visib":"6+","altim":1016,"clouds":[],"obsTime":1777366800},"SBCO":{"icaoId":"SBCO","flightCategory":"VFR","rawOb":"METAR SBCO 280900Z 00000KT 9999 FEW040 06/05 Q1018","temp":6,"dewp":5,"wdir":0,"wspd":0,"visib":"6+","altim":1018,"clouds":[{"cover":"FEW","base":4000}],"obsTime":1777366800},"SBDN":{"icaoId":"SBDN","flightCategory":"LIFR","rawOb":"METAR SBDN 280800Z 05002KT 8000 BKN003 21/20 Q1014","temp":21,"dewp":20,"wdir":50,"wspd":2,"visib":4.97,"altim":1014,"clouds":[{"cover":"BKN","base":300}],"obsTime":1777363200},"SBES":{"icaoId":"SBES","flightCategory":"VFR","rawOb":"METAR SBES 280900Z 00000KT 9000 SCT010 22/// Q1014","temp":null,"dewp":null,"wdir":0,"wspd":0,"visib":5.59,"altim":1014,"clouds":[{"cover":"SCT","base":1000}],"obsTime":1777366800},"SBSR":{"icaoId":"SBSR","flightCategory":"VFR","rawOb":"METAR SBSR 280800Z 11002KT CAVOK 21/19 Q1015","temp":21,"dewp":19,"wdir":110,"wspd":2,"visib":"6+","altim":1015,"clouds":[],"obsTime":1777363200},"SBAR":{"icaoId":"SBAR","flightCategory":"VFR","rawOb":"METAR SBAR 280800Z 29003KT 9999 FEW024 BKN080 25/23 Q1013","temp":25,"dewp":23,"wdir":290,"wspd":3,"visib":"6+","altim":1013,"clouds":[{"cover":"FEW","base":2400},{"cover":"BKN","base":8000}],"obsTime":1777363200},"SBAX":{"icaoId":"SBAX","flightCategory":"VFR","rawOb":"METAR SBAX 280800Z AUTO 13004KT CAVOK 19/18 Q1018","temp":19,"dewp":18,"wdir":130,"wspd":4,"visib":"6+","altim":1018,"clouds":[],"obsTime":1777363200},"SBKG":{"icaoId":"SBKG","flightCategory":"IFR","rawOb":"METAR SBKG 280800Z 23003KT 3000 -RA OVC010 22/22 Q1015","temp":22,"dewp":22,"wdir":230,"wspd":3,"visib":1.86,"altim":1015,"clouds":[{"cover":"OVC","base":1000}],"obsTime":1777363200},"SBPL":{"icaoId":"SBPL","flightCategory":"VFR","rawOb":"METAR SBPL 280800Z 13005KT 9999 FEW015 23/21 Q1015","temp":23,"dewp":21,"wdir":130,"wspd":5,"visib":"6+","altim":1015,"clouds":[{"cover":"FEW","base":1500}],"obsTime":1777363200},"SBPS":{"icaoId":"SBPS","flightCategory":"VFR","rawOb":"METAR SBPS 280800Z 23003KT 9999 FEW020 SCT030 22/21 Q1015","temp":22,"dewp":21,"wdir":230,"wspd":3,"visib":"6+","altim":1015,"clouds":[{"cover":"FEW","base":2000},{"cover":"SCT","base":3000}],"obsTime":1777363200},"SBSC":{"icaoId":"SBSC","flightCategory":"MVFR","rawOb":"METAR SBSC 280800Z 17003KT 9999 FEW010 SCT020 BKN030 24/23 Q1014","temp":24,"dewp":23,"wdir":170,"wspd":3,"visib":"6+","altim":1014,"clouds":[{"cover":"FEW","base":1000},{"cover":"SCT","base":2000},{"cover":"BKN","base":3000}],"obsTime":1777363200},"SBSJ":{"icaoId":"SBSJ","flightCategory":"MVFR","rawOb":"SPECI SBSJ 280830Z 00000KT 6000 NSC 20/19 Q1017","temp":20,"dewp":19,"wdir":0,"wspd":0,"visib":3.73,"altim":1017,"clouds":[],"obsTime":1777365000},"SBSM":{"icaoId":"SBSM","flightCategory":"VFR","rawOb":"METAR SBSM 280900Z 10002KT CAVOK 04/04 Q1018","temp":4,"dewp":4,"wdir":100,"wspd":2,"visib":"6+","altim":1018,"clouds":[],"obsTime":1777366800},"SBJP":{"icaoId":"SBJP","flightCategory":"LIFR","rawOb":"METAR SBJP 280800Z 08004KT 2000 +RA BKN004 BKN013 24/24 Q1013","temp":24,"dewp":24,"wdir":80,"wspd":4,"visib":1.24,"altim":1013,"clouds":[{"cover":"BKN","base":400},{"cover":"BKN","base":1300}],"obsTime":1777363200},"SBLE":{"icaoId":"SBLE","flightCategory":"VFR","rawOb":"METAR SBLE 280800Z AUTO 08003KT 9999 FEW021 ///// Q////","temp":null,"dewp":null,"wdir":80,"wspd":3,"visib":"6+","altim":null,"clouds":[{"cover":"FEW","base":2100}],"obsTime":1777363200},"SBLS":{"icaoId":"SBLS","flightCategory":"VFR","rawOb":"METAR SBLS 280900Z 15006KT CAVOK 19/17 Q1018","temp":19,"dewp":17,"wdir":150,"wspd":6,"visib":"6+","altim":1018,"clouds":[],"obsTime":1777366800},"SBMT":{"icaoId":"SBMT","flightCategory":"MVFR","rawOb":"METAR SBMT 280900Z 08007KT 7000 SCT009 BKN013 20/19 Q1017","temp":20,"dewp":19,"wdir":80,"wspd":7,"visib":4.35,"altim":1017,"clouds":[{"cover":"SCT","base":900},{"cover":"BKN","base":1300}],"obsTime":1777366800},"SBTA":{"icaoId":"SBTA","flightCategory":"MVFR","rawOb":"METAR SBTA 280900Z VRB01KT 8000 BKN020 OVC035 20/20 Q1016","temp":20,"dewp":20,"wdir":"VRB","wspd":1,"visib":4.97,"altim":1016,"clouds":[{"cover":"BKN","base":2000},{"cover":"OVC","base":3500}],"obsTime":1777366800},"SBAN":{"icaoId":"SBAN","flightCategory":"VFR","rawOb":"METAR SBAN 280800Z 10004KT 9999 FEW030 SCT100 19/18 Q1021","temp":19,"dewp":18,"wdir":100,"wspd":4,"visib":"6+","altim":1021,"clouds":[{"cover":"FEW","base":3000},{"cover":"SCT","base":10000}],"obsTime":1777363200},"SBJV":{"icaoId":"SBJV","flightCategory":"MVFR","rawOb":"METAR SBJV 280900Z 01004KT 9999 OVC030 19/17 Q1017","temp":19,"dewp":17,"wdir":10,"wspd":4,"visib":"6+","altim":1017,"clouds":[{"cover":"OVC","base":3000}],"obsTime":1777366800},"SBPF":{"icaoId":"SBPF","flightCategory":"VFR","rawOb":"METAR SBPF 280900Z 05007KT CAVOK 09/07 Q1018","temp":9,"dewp":7,"wdir":50,"wspd":7,"visib":"6+","altim":1018,"clouds":[],"obsTime":1777366800},"SBGW":{"icaoId":"SBGW","flightCategory":"IFR","rawOb":"METAR SBGW 280900Z 02003KT 4000 HZ FEW010 SCT015 BKN030 22/18 Q1017","temp":22,"dewp":18,"wdir":20,"wspd":3,"visib":2.49,"altim":1017,"clouds":[{"cover":"FEW","base":1000},{"cover":"SCT","base":1500},{"cover":"BKN","base":3000}],"obsTime":1777366800}}}