{"updated":1775199279,"count":49,"data":{"SBMA":{"icaoId":"SBMA","flightCategory":"MVFR","rawOb":"METAR SBMA 030500Z 02004KT 6000 SCT007 SCT080 23/22 Q1011","temp":23,"dewp":22,"wdir":20,"wspd":4,"visib":3.73,"altim":1011,"clouds":[{"cover":"SCT","base":700},{"cover":"SCT","base":8000}],"obsTime":1775192400},"SBBR":{"icaoId":"SBBR","flightCategory":"VFR","rawOb":"METAR SBBR 030500Z 02001KT 9999 SCT020 BKN080 20/20 Q1020","temp":20,"dewp":20,"wdir":20,"wspd":1,"visib":"6+","altim":1020,"clouds":[{"cover":"SCT","base":2000},{"cover":"BKN","base":8000}],"obsTime":1775192400},"SBVT":{"icaoId":"SBVT","flightCategory":"VFR","rawOb":"METAR SBVT 030500Z 01003KT CAVOK 23/22 Q1015","temp":23,"dewp":22,"wdir":10,"wspd":3,"visib":"6+","altim":1015,"clouds":[],"obsTime":1775192400},"SBBV":{"icaoId":"SBBV","flightCategory":"VFR","rawOb":"METAR SBBV 030500Z 09006KT 9999 FEW045 BKN090 28/23 Q1010","temp":28,"dewp":23,"wdir":90,"wspd":6,"visib":"6+","altim":1010,"clouds":[{"cover":"FEW","base":4500},{"cover":"BKN","base":9000}],"obsTime":1775192400},"SBCF":{"icaoId":"SBCF","flightCategory":"VFR","rawOb":"METAR SBCF 030500Z 18002KT CAVOK 20/19 Q1020","temp":20,"dewp":19,"wdir":180,"wspd":2,"visib":"6+","altim":1020,"clouds":[],"obsTime":1775192400},"SBCG":{"icaoId":"SBCG","flightCategory":"VFR","rawOb":"METAR SBCG 030500Z 06007KT CAVOK 23/19 Q1015","temp":23,"dewp":19,"wdir":60,"wspd":7,"visib":"6+","altim":1015,"clouds":[],"obsTime":1775192400},"SBCT":{"icaoId":"SBCT","flightCategory":"IFR","rawOb":"METAR SBCT 030500Z 07004KT 9999 BKN007 19/18 Q1018","temp":19,"dewp":18,"wdir":70,"wspd":4,"visib":"6+","altim":1018,"clouds":[{"cover":"BKN","base":700}],"obsTime":1775192400},"SBEG":{"icaoId":"SBEG","flightCategory":"VFR","rawOb":"METAR SBEG 030500Z 00000KT 9999 FEW012 BKN100 25/24 Q1011","temp":25,"dewp":24,"wdir":0,"wspd":0,"visib":"6+","altim":1011,"clouds":[{"cover":"FEW","base":1200},{"cover":"BKN","base":10000}],"obsTime":1775192400},"SBFI":{"icaoId":"SBFI","flightCategory":"VFR","rawOb":"METAR SBFI 030500Z 06002KT 9999 FEW040 22/22 Q1012","temp":22,"dewp":22,"wdir":60,"wspd":2,"visib":"6+","altim":1012,"clouds":[{"cover":"FEW","base":4000}],"obsTime":1775192400},"SBFL":{"icaoId":"SBFL","flightCategory":"VFR","rawOb":"METAR SBFL 030500Z 30006KT CAVOK 22/20 Q1013","temp":22,"dewp":20,"wdir":300,"wspd":6,"visib":"6+","altim":1013,"clouds":[],"obsTime":1775192400},"SBFZ":{"icaoId":"SBFZ","flightCategory":"VFR","rawOb":"METAR SBFZ 030500Z 22004KT CAVOK 24/23 Q1011","temp":24,"dewp":23,"wdir":220,"wspd":4,"visib":"6+","altim":1011,"clouds":[],"obsTime":1775192400},"SBGL":{"icaoId":"SBGL","flightCategory":"VFR","rawOb":"METAR SBGL 030500Z 33005KT 310V020 9999 SCT040 BKN100 24/21 Q1013","temp":24,"dewp":21,"wdir":330,"wspd":5,"visib":"6+","altim":1013,"clouds":[{"cover":"SCT","base":4000},{"cover":"BKN","base":10000}],"obsTime":1775192400},"SBGO":{"icaoId":"SBGO","flightCategory":"VFR","rawOb":"METAR SBGO 030500Z 27004KT 9999 FEW002 SCT020 OVC100 21/20 Q1019","temp":21,"dewp":20,"wdir":270,"wspd":4,"visib":"6+","altim":1019,"clouds":[{"cover":"FEW","base":200},{"cover":"SCT","base":2000},{"cover":"OVC","base":10000}],"obsTime":1775192400},"SBGR":{"icaoId":"SBGR","flightCategory":"VFR","rawOb":"METAR SBGR 030500Z 07005KT CAVOK 19/19 Q1018","temp":19,"dewp":19,"wdir":70,"wspd":5,"visib":"6+","altim":1018,"clouds":[],"obsTime":1775192400},"SBJU":{"icaoId":"SBJU","flightCategory":"MVFR","rawOb":"METAR SBJU 030500Z 00000KT 8000 -RA BKN020 22/22 Q1015 RETS","temp":22,"dewp":22,"wdir":0,"wspd":0,"visib":4.97,"altim":1015,"clouds":[{"cover":"BKN","base":2000}],"obsTime":1775192400},"SBKP":{"icaoId":"SBKP","flightCategory":"VFR","rawOb":"METAR SBKP 030500Z 13003KT CAVOK 21/19 Q1017","temp":21,"dewp":19,"wdir":130,"wspd":3,"visib":"6+","altim":1017,"clouds":[],"obsTime":1775192400},"SBLO":{"icaoId":"SBLO","flightCategory":"VFR","rawOb":"METAR SBLO 030500Z 35003KT CAVOK 22/19 Q1016","temp":22,"dewp":19,"wdir":350,"wspd":3,"visib":"6+","altim":1016,"clouds":[],"obsTime":1775192400},"SBME":{"icaoId":"SBME","flightCategory":"VFR","rawOb":"METAR SBME 030500Z 05007KT CAVOK 26/23 Q1014","temp":26,"dewp":23,"wdir":50,"wspd":7,"visib":"6+","altim":1014,"clouds":[],"obsTime":1775192400},"SBMG":{"icaoId":"SBMG","flightCategory":"VFR","rawOb":"METAR SBMG 030500Z AUTO 04008KT CAVOK 23/19 Q1014","temp":23,"dewp":19,"wdir":40,"wspd":8,"visib":"6+","altim":1014,"clouds":[],"obsTime":1775192400},"SBMO":{"icaoId":"SBMO","flightCategory":"MVFR","rawOb":"METAR SBMO 030500Z 35001KT 5000 -RA BR SCT017 24/24 Q1013","temp":24,"dewp":24,"wdir":350,"wspd":1,"visib":3.11,"altim":1013,"clouds":[{"cover":"SCT","base":1700}],"obsTime":1775192400},"SBMQ":{"icaoId":"SBMQ","flightCategory":"VFR","rawOb":"METAR SBMQ 030500Z 05002KT CAVOK 25/24 Q1011","temp":25,"dewp":24,"wdir":50,"wspd":2,"visib":"6+","altim":1011,"clouds":[],"obsTime":1775192400},"SBNT":{"icaoId":"SBNT","flightCategory":"VFR","rawOb":"METAR SBNT 030500Z 19006KT 9999 SCT020 25/24 Q1012","temp":25,"dewp":24,"wdir":190,"wspd":6,"visib":"6+","altim":1012,"clouds":[{"cover":"SCT","base":2000}],"obsTime":1775192400},"SBPA":{"icaoId":"SBPA","flightCategory":"VFR","rawOb":"METAR SBPA 030500Z 04004KT 9999 FEW040 24/21 Q1011","temp":24,"dewp":21,"wdir":40,"wspd":4,"visib":"6+","altim":1011,"clouds":[{"cover":"FEW","base":4000}],"obsTime":1775192400},"SBPJ":{"icaoId":"SBPJ","flightCategory":"VFR","rawOb":"METAR SBPJ 030500Z 14006KT 9999 FEW015 SCT100 24/21 Q1014","temp":24,"dewp":21,"wdir":140,"wspd":6,"visib":"6+","altim":1014,"clouds":[{"cover":"FEW","base":1500},{"cover":"SCT","base":10000}],"obsTime":1775192400},"SBPV":{"icaoId":"SBPV","flightCategory":"VFR","rawOb":"METAR SBPV 030500Z 00000KT CAVOK 25/23 Q1011","temp":25,"dewp":23,"wdir":0,"wspd":0,"visib":"6+","altim":1011,"clouds":[],"obsTime":1775192400},"SBRB":{"icaoId":"SBRB","flightCategory":"VFR","rawOb":"METAR SBRB 030500Z 34003KT 9999 VCTS FEW025 FEW030CB SCT100 24/23 Q1012","temp":24,"dewp":23,"wdir":340,"wspd":3,"visib":"6+","altim":1012,"clouds":[{"cover":"FEW","base":2500},{"cover":"FEW","base":3000},{"cover":"SCT","base":10000}],"obsTime":1775192400},"SBRF":{"icaoId":"SBRF","flightCategory":"VFR","rawOb":"METAR SBRF 030500Z 33002KT 9999 SCT020 SCT070 25/24 Q1012","temp":25,"dewp":24,"wdir":330,"wspd":2,"visib":"6+","altim":1012,"clouds":[{"cover":"SCT","base":2000},{"cover":"SCT","base":7000}],"obsTime":1775192400},"SBSG":{"icaoId":"SBSG","flightCategory":"MVFR","rawOb":"METAR SBSG 030500Z 22003KT 9999 BKN023 SCT100 24/24 Q1012","temp":24,"dewp":24,"wdir":220,"wspd":3,"visib":"6+","altim":1012,"clouds":[{"cover":"BKN","base":2300},{"cover":"SCT","base":10000}],"obsTime":1775192400},"SBSL":{"icaoId":"SBSL","flightCategory":"VFR","rawOb":"METAR SBSL 030500Z 14007KT 9999 SCT025 SCT100 25/24 Q1011","temp":25,"dewp":24,"wdir":140,"wspd":7,"visib":"6+","altim":1011,"clouds":[{"cover":"SCT","base":2500},{"cover":"SCT","base":10000}],"obsTime":1775192400},"SBSN":{"icaoId":"SBSN","flightCategory":"VFR","rawOb":"METAR SBSN 030500Z 12006KT CAVOK 25/23 Q1010","temp":25,"dewp":23,"wdir":120,"wspd":6,"visib":"6+","altim":1010,"clouds":[],"obsTime":1775192400},"SBSP":{"icaoId":"SBSP","flightCategory":"VFR","rawOb":"METAR SBSP 030600Z AUTO 05005KT 010V070 CAVOK 21/18 Q1018","temp":21,"dewp":18,"wdir":50,"wspd":5,"visib":"6+","altim":1018,"clouds":[],"obsTime":1775196000},"SBSV":{"icaoId":"SBSV","flightCategory":"VFR","rawOb":"METAR SBSV 030500Z 09002KT 9999 SCT019 26/23 Q1014","temp":26,"dewp":23,"wdir":90,"wspd":2,"visib":"6+","altim":1014,"clouds":[{"cover":"SCT","base":1900}],"obsTime":1775192400},"SBTE":{"icaoId":"SBTE","flightCategory":"MVFR","rawOb":"METAR SBTE 030500Z 15003KT 9999 BKN012 OVC100 24/23 Q1012","temp":24,"dewp":23,"wdir":150,"wspd":3,"visib":"6+","altim":1012,"clouds":[{"cover":"BKN","base":1200},{"cover":"OVC","base":10000}],"obsTime":1775192400},"SBUL":{"icaoId":"SBUL","flightCategory":"VFR","rawOb":"METAR SBUL 030500Z 05007KT 9999 FEW030 SCT100 20/18 Q1020","temp":20,"dewp":18,"wdir":50,"wspd":7,"visib":"6+","altim":1020,"clouds":[{"cover":"FEW","base":3000},{"cover":"SCT","base":10000}],"obsTime":1775192400},"SBUR":{"icaoId":"SBUR","flightCategory":"VFR","rawOb":"METAR SBUR 030500Z 05005KT 9999 -TSRA FEW007 FEW050CB OVC070 20/19 Q1019","temp":20,"dewp":19,"wdir":50,"wspd":5,"visib":"6+","altim":1019,"clouds":[{"cover":"FEW","base":700},{"cover":"FEW","base":5000},{"cover":"OVC","base":7000}],"obsTime":1775192400},"SBBE":{"icaoId":"SBBE","flightCategory":"VFR","rawOb":"METAR SBBE 030500Z 10004KT 9999 FEW040 25/24 Q1012","temp":25,"dewp":24,"wdir":100,"wspd":4,"visib":"6+","altim":1012,"clouds":[{"cover":"FEW","base":4000}],"obsTime":1775192400},"SBOI":{"icaoId":"SBOI","flightCategory":"VFR","rawOb":"METAR SBOI 030500Z AUTO 00000KT 9999 // NCD 24/24 Q1011","temp":24,"dewp":24,"wdir":0,"wspd":0,"visib":"6+","altim":1011,"clouds":[],"obsTime":1775192400},"SBAR":{"icaoId":"SBAR","flightCategory":"IFR","rawOb":"METAR SBAR 030500Z VRB04KT 2000 +SHRA BKN014 SCT023TCU 26/24 Q1013","temp":26,"dewp":24,"wdir":"VRB","wspd":4,"visib":1.24,"altim":1013,"clouds":[{"cover":"BKN","base":1400},{"cover":"SCT","base":2300}],"obsTime":1775192400},"SBSR":{"icaoId":"SBSR","flightCategory":"VFR","rawOb":"METAR SBSR 030500Z 04004KT 9999 FEW035 SCT070 23/20 Q1016","temp":23,"dewp":20,"wdir":40,"wspd":4,"visib":"6+","altim":1016,"clouds":[{"cover":"FEW","base":3500},{"cover":"SCT","base":7000}],"obsTime":1775192400},"SBAX":{"icaoId":"SBAX","flightCategory":"VFR","rawOb":"METAR SBAX 030500Z AUTO VRB02KT 9999 BKN043 BKN049 20/20 Q1020","temp":20,"dewp":20,"wdir":"VRB","wspd":2,"visib":"6+","altim":1020,"clouds":[{"cover":"BKN","base":4300},{"cover":"BKN","base":4900}],"obsTime":1775192400},"SBDN":{"icaoId":"SBDN","flightCategory":"VFR","rawOb":"METAR SBDN 030500Z 05004KT CAVOK 23/19 Q1015","temp":23,"dewp":19,"wdir":50,"wspd":4,"visib":"6+","altim":1015,"clouds":[],"obsTime":1775192400},"SBIP":{"icaoId":"SBIP","flightCategory":"VFR","rawOb":"METAR SBIP 030500Z AUTO 34002KT 9999 FEW036 21/21 Q1017","temp":21,"dewp":21,"wdir":340,"wspd":2,"visib":"6+","altim":1017,"clouds":[{"cover":"FEW","base":3600}],"obsTime":1775192400},"SBKG":{"icaoId":"SBKG","flightCategory":"VFR","rawOb":"METAR SBKG 030500Z 09005KT CAVOK 23/22 Q1015","temp":23,"dewp":22,"wdir":90,"wspd":5,"visib":"6+","altim":1015,"clouds":[],"obsTime":1775192400},"SBPL":{"icaoId":"SBPL","flightCategory":"VFR","rawOb":"METAR SBPL 030500Z 13005KT 9999 TS SCT020 FEW030CB BKN070 24/23 Q1015","temp":24,"dewp":23,"wdir":130,"wspd":5,"visib":"6+","altim":1015,"clouds":[{"cover":"SCT","base":2000},{"cover":"FEW","base":3000},{"cover":"BKN","base":7000}],"obsTime":1775192400},"SBPS":{"icaoId":"SBPS","flightCategory":"VFR","rawOb":"METAR SBPS 030500Z 26004KT 9999 SCT020 BKN100 24/23 Q1015","temp":24,"dewp":23,"wdir":260,"wspd":4,"visib":"6+","altim":1015,"clouds":[{"cover":"SCT","base":2000},{"cover":"BKN","base":10000}],"obsTime":1775192400},"SBSC":{"icaoId":"SBSC","flightCategory":"VFR","rawOb":"METAR SBSC 030500Z COR 02004KT 9999 FEW020 SCT050 BKN100 22/21 Q1013","temp":22,"dewp":21,"wdir":20,"wspd":4,"visib":"6+","altim":1013,"clouds":[{"cover":"FEW","base":2000},{"cover":"SCT","base":5000},{"cover":"BKN","base":10000}],"obsTime":1775192400},"SBLE":{"icaoId":"SBLE","flightCategory":"MVFR","rawOb":"METAR SBLE 030500Z AUTO 12003KT 9999 BKN010 OVC028 ///// Q////","temp":null,"dewp":null,"wdir":120,"wspd":3,"visib":"6+","altim":null,"clouds":[{"cover":"BKN","base":1000},{"cover":"OVC","base":2800}],"obsTime":1775192400},"SBJP":{"icaoId":"SBJP","flightCategory":"VFR","rawOb":"METAR SBJP 030500Z 18004KT CAVOK 24/24 Q1012","temp":24,"dewp":24,"wdir":180,"wspd":4,"visib":"6+","altim":1012,"clouds":[],"obsTime":1775192400},"SBAN":{"icaoId":"SBAN","flightCategory":"VFR","rawOb":"METAR SBAN 030500Z 05005KT 9999 SCT020 SCT100 18/17 Q1021","temp":18,"dewp":17,"wdir":50,"wspd":5,"visib":"6+","altim":1021,"clouds":[{"cover":"SCT","base":2000},{"cover":"SCT","base":10000}],"obsTime":1775192400}}}