{"updated":1775994739,"count":81,"data":{"SBRB":{"icaoId":"SBRB","flightCategory":"IFR","rawOb":"METAR SBRB 121000Z 00000KT 3000 BR FEW002 22/22 Q1012","temp":22,"dewp":22,"wdir":0,"wspd":0,"visib":1.86,"altim":1012,"clouds":[{"cover":"FEW","base":200}],"obsTime":1775988000},"SBFZ":{"icaoId":"SBFZ","flightCategory":"VFR","rawOb":"METAR SBFZ 121000Z 17005KT 9999 SCT017 BKN070 26/25 Q1012","temp":26,"dewp":25,"wdir":170,"wspd":5,"visib":"6+","altim":1012,"clouds":[{"cover":"SCT","base":1700},{"cover":"BKN","base":7000}],"obsTime":1775988000},"SBMQ":{"icaoId":"SBMQ","flightCategory":"VFR","rawOb":"METAR SBMQ 121000Z 30003KT 9999 FEW008 SCT035 BKN052 25/24 Q1012","temp":25,"dewp":24,"wdir":300,"wspd":3,"visib":"6+","altim":1012,"clouds":[{"cover":"FEW","base":800},{"cover":"SCT","base":3500},{"cover":"BKN","base":5200}],"obsTime":1775988000},"SBRF":{"icaoId":"SBRF","flightCategory":"MVFR","rawOb":"METAR SBRF 121000Z 22003KT 6000 2500N -RA SCT005 BKN010 BKN020 FEW023TCU 24/23 Q1014 RERA","temp":24,"dewp":23,"wdir":220,"wspd":3,"visib":3.73,"altim":1014,"clouds":[{"cover":"SCT","base":500},{"cover":"BKN","base":1000},{"cover":"BKN","base":2000},{"cover":"FEW","base":2300}],"obsTime":1775988000},"SBGL":{"icaoId":"SBGL","flightCategory":"MVFR","rawOb":"METAR SBGL 121000Z 33004KT 8000 FEW025 BKN048 21/20 Q1021","temp":21,"dewp":20,"wdir":330,"wspd":4,"visib":4.97,"altim":1021,"clouds":[{"cover":"FEW","base":2500},{"cover":"BKN","base":4800}],"obsTime":1775988000},"SBNT":{"icaoId":"SBNT","flightCategory":"IFR","rawOb":"METAR SBNT 121000Z 11004KT 080V160 9000 BKN005 SCT015 BKN100 25/24 Q1013","temp":25,"dewp":24,"wdir":110,"wspd":4,"visib":5.59,"altim":1013,"clouds":[{"cover":"BKN","base":500},{"cover":"SCT","base":1500},{"cover":"BKN","base":10000}],"obsTime":1775988000},"SBCP":{"icaoId":"SBCP","flightCategory":"VFR","rawOb":"METAR SBCP 121000Z 24004KT 9999 SCT020 SCT090 22/21 Q1020","temp":22,"dewp":21,"wdir":240,"wspd":4,"visib":"6+","altim":1020,"clouds":[{"cover":"SCT","base":2000},{"cover":"SCT","base":9000}],"obsTime":1775988000},"SBPA":{"icaoId":"SBPA","flightCategory":"VFR","rawOb":"METAR SBPA 121000Z 14004KT 9999 SCT035 BKN100 19/18 Q1018","temp":19,"dewp":18,"wdir":140,"wspd":4,"visib":"6+","altim":1018,"clouds":[{"cover":"SCT","base":3500},{"cover":"BKN","base":10000}],"obsTime":1775988000},"SBBE":{"icaoId":"SBBE","flightCategory":"VFR","rawOb":"METAR SBBE 121000Z 00000KT 9999 FEW020 25/25 Q1012","temp":25,"dewp":25,"wdir":0,"wspd":0,"visib":"6+","altim":1012,"clouds":[{"cover":"FEW","base":2000}],"obsTime":1775988000},"SBPJ":{"icaoId":"SBPJ","flightCategory":"VFR","rawOb":"METAR SBPJ 121000Z 12003KT 9999 FEW010 SCT090 25/24 Q1014","temp":25,"dewp":24,"wdir":120,"wspd":3,"visib":"6+","altim":1014,"clouds":[{"cover":"FEW","base":1000},{"cover":"SCT","base":9000}],"obsTime":1775988000},"SBGO":{"icaoId":"SBGO","flightCategory":"VFR","rawOb":"METAR SBGO 121000Z 11005KT 080V140 CAVOK 22/19 Q1019","temp":22,"dewp":19,"wdir":110,"wspd":5,"visib":"6+","altim":1019,"clouds":[],"obsTime":1775988000},"SBPV":{"icaoId":"SBPV","flightCategory":"VFR","rawOb":"METAR SBPV 121000Z 31001KT CAVOK 25/23 Q1011","temp":25,"dewp":23,"wdir":310,"wspd":1,"visib":"6+","altim":1011,"clouds":[],"obsTime":1775988000},"SBCG":{"icaoId":"SBCG","flightCategory":"VFR","rawOb":"METAR SBCG 121000Z 07015KT CAVOK 24/20 Q1016","temp":24,"dewp":20,"wdir":70,"wspd":15,"visib":"6+","altim":1016,"clouds":[],"obsTime":1775988000},"SBMO":{"icaoId":"SBMO","flightCategory":"MVFR","rawOb":"METAR SBMO 121000Z 12004KT 070V160 5000 BR VCSH SCT006 BKN015 BKN080 24/24 Q1015","temp":24,"dewp":24,"wdir":120,"wspd":4,"visib":3.11,"altim":1015,"clouds":[{"cover":"SCT","base":600},{"cover":"BKN","base":1500},{"cover":"BKN","base":8000}],"obsTime":1775988000},"SBFL":{"icaoId":"SBFL","flightCategory":"VFR","rawOb":"METAR SBFL 121000Z 27002KT 9999 FEW020 SCT066 20/19 Q1020","temp":20,"dewp":19,"wdir":270,"wspd":2,"visib":"6+","altim":1020,"clouds":[{"cover":"FEW","base":2000},{"cover":"SCT","base":6600}],"obsTime":1775988000},"SBMG":{"icaoId":"SBMG","flightCategory":"VFR","rawOb":"METAR SBMG 121000Z 09004KT CAVOK 18/13 Q1018","temp":18,"dewp":13,"wdir":90,"wspd":4,"visib":"6+","altim":1018,"clouds":[],"obsTime":1775988000},"SBMK":{"icaoId":"SBMK","flightCategory":"MVFR","rawOb":"METAR SBMK 121000Z 09005KT 9999 BKN030 22/18 Q1020","temp":22,"dewp":18,"wdir":90,"wspd":5,"visib":"6+","altim":1020,"clouds":[{"cover":"BKN","base":3000}],"obsTime":1775988000},"SBGR":{"icaoId":"SBGR","flightCategory":"VFR","rawOb":"METAR SBGR 121000Z 07010KT 9999 SCT011 16/15 Q1023","temp":16,"dewp":15,"wdir":70,"wspd":10,"visib":"6+","altim":1023,"clouds":[{"cover":"SCT","base":1100}],"obsTime":1775988000},"SBCR":{"icaoId":"SBCR","flightCategory":"VFR","rawOb":"METAR SBCR 121100Z 11005KT CAVOK 27/23 Q1013","temp":27,"dewp":23,"wdir":110,"wspd":5,"visib":"6+","altim":1013,"clouds":[],"obsTime":1775991600},"SBCB":{"icaoId":"SBCB","flightCategory":"VFR","rawOb":"METAR SBCB 121000Z 00000KT 9999 SCT020 23/21 Q1021","temp":23,"dewp":21,"wdir":0,"wspd":0,"visib":"6+","altim":1021,"clouds":[{"cover":"SCT","base":2000}],"obsTime":1775988000},"SBSG":{"icaoId":"SBSG","flightCategory":"IFR","rawOb":"METAR SBSG 121000Z VRB01KT 8000 -RA FEW004 BKN008 BKN040 25/24 Q1013","temp":25,"dewp":24,"wdir":"VRB","wspd":1,"visib":4.97,"altim":1013,"clouds":[{"cover":"FEW","base":400},{"cover":"BKN","base":800},{"cover":"BKN","base":4000}],"obsTime":1775988000},"SBHT":{"icaoId":"SBHT","flightCategory":"VFR","rawOb":"METAR SBHT 121000Z 09005KT 9999 SCT010 BKN080 26/25 Q1013","temp":26,"dewp":25,"wdir":90,"wspd":5,"visib":"6+","altim":1013,"clouds":[{"cover":"SCT","base":1000},{"cover":"BKN","base":8000}],"obsTime":1775988000},"SBSL":{"icaoId":"SBSL","flightCategory":"VFR","rawOb":"METAR SBSL 121000Z 12005KT 9999 FEW015 26/25 Q1012","temp":26,"dewp":25,"wdir":120,"wspd":5,"visib":"6+","altim":1012,"clouds":[{"cover":"FEW","base":1500}],"obsTime":1775988000},"SBCT":{"icaoId":"SBCT","flightCategory":"VFR","rawOb":"METAR SBCT 121000Z 08002KT 9999 FEW005 14/14 Q1024","temp":14,"dewp":14,"wdir":80,"wspd":2,"visib":"6+","altim":1024,"clouds":[{"cover":"FEW","base":500}],"obsTime":1775988000},"SBSN":{"icaoId":"SBSN","flightCategory":"VFR","rawOb":"METAR SBSN 121000Z 08009KT 9999 FEW020 FEW030TCU SCT080 26/24 Q1012","temp":26,"dewp":24,"wdir":80,"wspd":9,"visib":"6+","altim":1012,"clouds":[{"cover":"FEW","base":2000},{"cover":"FEW","base":3000},{"cover":"SCT","base":8000}],"obsTime":1775988000},"SBIL":{"icaoId":"SBIL","flightCategory":"VFR","rawOb":"METAR SBIL 121000Z 24006KT 9999 VCSH SCT018 BKN050 24/23 Q1016","temp":24,"dewp":23,"wdir":240,"wspd":6,"visib":"6+","altim":1016,"clouds":[{"cover":"SCT","base":1800},{"cover":"BKN","base":5000}],"obsTime":1775988000},"SBSP":{"icaoId":"SBSP","flightCategory":"VFR","rawOb":"METAR SBSP 121000Z 08007KT 040V140 CAVOK 16/15 Q1024","temp":16,"dewp":15,"wdir":80,"wspd":7,"visib":"6+","altim":1024,"clouds":[],"obsTime":1775988000},"SBBV":{"icaoId":"SBBV","flightCategory":"VFR","rawOb":"METAR SBBV 121000Z 09010KT CAVOK 25/22 Q1012","temp":25,"dewp":22,"wdir":90,"wspd":10,"visib":"6+","altim":1012,"clouds":[],"obsTime":1775988000},"SBSV":{"icaoId":"SBSV","flightCategory":"MVFR","rawOb":"METAR SBSV 121000Z 10012KT 070V130 8000 3000N VCSH SCT023 FEW025TCU 26/23 Q1015","temp":26,"dewp":23,"wdir":100,"wspd":12,"visib":4.97,"altim":1015,"clouds":[{"cover":"SCT","base":2300},{"cover":"FEW","base":2500}],"obsTime":1775988000},"SBJU":{"icaoId":"SBJU","flightCategory":"MVFR","rawOb":"METAR SBJU 121000Z 00000KT 9999 BKN020 23/21 Q1016","temp":23,"dewp":21,"wdir":0,"wspd":0,"visib":"6+","altim":1016,"clouds":[{"cover":"BKN","base":2000}],"obsTime":1775988000},"SBTE":{"icaoId":"SBTE","flightCategory":"VFR","rawOb":"METAR SBTE 121000Z 27003KT 9999 FEW010 25/24 Q1012","temp":25,"dewp":24,"wdir":270,"wspd":3,"visib":"6+","altim":1012,"clouds":[{"cover":"FEW","base":1000}],"obsTime":1775988000},"SBKP":{"icaoId":"SBKP","flightCategory":"VFR","rawOb":"METAR SBKP 121000Z 11006KT 070V140 CAVOK 17/15 Q1021","temp":17,"dewp":15,"wdir":110,"wspd":6,"visib":"6+","altim":1021,"clouds":[],"obsTime":1775988000},"SBUL":{"icaoId":"SBUL","flightCategory":"VFR","rawOb":"METAR SBUL 121000Z 12008KT CAVOK 19/18 Q1021","temp":19,"dewp":18,"wdir":120,"wspd":8,"visib":"6+","altim":1021,"clouds":[],"obsTime":1775988000},"SBEG":{"icaoId":"SBEG","flightCategory":"VFR","rawOb":"METAR SBEG 121000Z 00000KT 9999 FEW010 FEW025TCU BKN090 24/24 Q1012","temp":24,"dewp":24,"wdir":0,"wspd":0,"visib":"6+","altim":1012,"clouds":[{"cover":"FEW","base":1000},{"cover":"FEW","base":2500},{"cover":"BKN","base":9000}],"obsTime":1775988000},"SBUR":{"icaoId":"SBUR","flightCategory":"VFR","rawOb":"METAR SBUR 121000Z 06009KT CAVOK 20/17 Q1020","temp":20,"dewp":17,"wdir":60,"wspd":9,"visib":"6+","altim":1020,"clouds":[],"obsTime":1775988000},"SBVT":{"icaoId":"SBVT","flightCategory":"MVFR","rawOb":"METAR SBVT 121000Z 30003KT 5000 -RA BR SCT007 BKN020 OVC050 21/21 Q1019","temp":21,"dewp":21,"wdir":300,"wspd":3,"visib":3.11,"altim":1019,"clouds":[{"cover":"SCT","base":700},{"cover":"BKN","base":2000},{"cover":"OVC","base":5000}],"obsTime":1775988000},"SBAT":{"icaoId":"SBAT","flightCategory":"MVFR","rawOb":"METAR SBAT 121100Z 06005KT 8000 -RA FEW010 BKN020 BKN080 24/24 Q1015","temp":24,"dewp":24,"wdir":60,"wspd":5,"visib":4.97,"altim":1015,"clouds":[{"cover":"FEW","base":1000},{"cover":"BKN","base":2000},{"cover":"BKN","base":8000}],"obsTime":1775991600},"SBFI":{"icaoId":"SBFI","flightCategory":"VFR","rawOb":"METAR SBFI 121000Z 15004KT 9999 VCTS FEW035CB BKN070 21/20 Q1016","temp":21,"dewp":20,"wdir":150,"wspd":4,"visib":"6+","altim":1016,"clouds":[{"cover":"FEW","base":3500},{"cover":"BKN","base":7000}],"obsTime":1775988000},"SBLO":{"icaoId":"SBLO","flightCategory":"VFR","rawOb":"METAR SBLO 121000Z 13003KT CAVOK 18/13 Q1020","temp":18,"dewp":13,"wdir":130,"wspd":3,"visib":"6+","altim":1020,"clouds":[],"obsTime":1775988000},"SBCF":{"icaoId":"SBCF","flightCategory":"MVFR","rawOb":"METAR SBCF 121000Z 15009KT 9999 BKN025 19/16 Q1023","temp":19,"dewp":16,"wdir":150,"wspd":9,"visib":"6+","altim":1023,"clouds":[{"cover":"BKN","base":2500}],"obsTime":1775988000},"SBMA":{"icaoId":"SBMA","flightCategory":"MVFR","rawOb":"METAR SBMA 121000Z 15004KT 9999 BKN012 25/23 Q1013","temp":25,"dewp":23,"wdir":150,"wspd":4,"visib":"6+","altim":1013,"clouds":[{"cover":"BKN","base":1200}],"obsTime":1775988000},"SBBR":{"icaoId":"SBBR","flightCategory":"IFR","rawOb":"METAR SBBR 121000Z 11011KT 9999 BKN009 20/19 Q1021","temp":20,"dewp":19,"wdir":110,"wspd":11,"visib":"6+","altim":1021,"clouds":[{"cover":"BKN","base":900}],"obsTime":1775988000},"SBME":{"icaoId":"SBME","flightCategory":"VFR","rawOb":"METAR SBME 121000Z 34002KT 9999 SCT030 SCT100 22/21 Q1020","temp":22,"dewp":21,"wdir":340,"wspd":2,"visib":"6+","altim":1020,"clouds":[{"cover":"SCT","base":3000},{"cover":"SCT","base":10000}],"obsTime":1775988000},"SBPP":{"icaoId":"SBPP","flightCategory":"VFR","rawOb":"SPECI SBPP 121115Z 04010KT CAVOK 26/13 Q1018","temp":26,"dewp":13,"wdir":40,"wspd":10,"visib":"6+","altim":1018,"clouds":[],"obsTime":1775992500},"SBTF":{"icaoId":"SBTF","flightCategory":"VFR","rawOb":"SPECI SBTF 121115Z 18003KT CAVOK 25/25 Q1011","temp":25,"dewp":25,"wdir":180,"wspd":3,"visib":"6+","altim":1011,"clouds":[],"obsTime":1775992500},"SBSC":{"icaoId":"SBSC","flightCategory":"VFR","rawOb":"METAR SBSC 121000Z 03004KT 9999 FEW010 21/18 Q1021","temp":21,"dewp":18,"wdir":30,"wspd":4,"visib":"6+","altim":1021,"clouds":[{"cover":"FEW","base":1000}],"obsTime":1775988000},"SBAX":{"icaoId":"SBAX","flightCategory":"VFR","rawOb":"METAR SBAX 121000Z AUTO 09008KT 9999 SCT013 18/18 Q1023","temp":18,"dewp":18,"wdir":90,"wspd":8,"visib":"6+","altim":1023,"clouds":[{"cover":"SCT","base":1300}],"obsTime":1775988000},"SBCC":{"icaoId":"SBCC","flightCategory":"MVFR","rawOb":"METAR SBCC 121100Z 35008KT 8000 -RA SCT010 BKN025 FEW030TCU OVC080 21/21 Q1016","temp":21,"dewp":21,"wdir":350,"wspd":8,"visib":4.97,"altim":1016,"clouds":[{"cover":"SCT","base":1000},{"cover":"BKN","base":2500},{"cover":"FEW","base":3000},{"cover":"OVC","base":8000}],"obsTime":1775991600},"SBCJ":{"icaoId":"SBCJ","flightCategory":"MVFR","rawOb":"SPECI SBCJ 121015Z 05004KT 9999 SCT003 BKN010 22/21 Q1017","temp":22,"dewp":21,"wdir":50,"wspd":4,"visib":"6+","altim":1017,"clouds":[{"cover":"SCT","base":300},{"cover":"BKN","base":1000}],"obsTime":1775988900},"SBCO":{"icaoId":"SBCO","flightCategory":"VFR","rawOb":"METAR SBCO 121000Z VRB02KT 9999 SCT030 BKN100 19/18 Q1018","temp":19,"dewp":18,"wdir":"VRB","wspd":2,"visib":"6+","altim":1018,"clouds":[{"cover":"SCT","base":3000},{"cover":"BKN","base":10000}],"obsTime":1775988000},"SBDN":{"icaoId":"SBDN","flightCategory":"VFR","rawOb":"METAR SBDN 121000Z 11010KT CAVOK 19/14 Q1018","temp":19,"dewp":14,"wdir":110,"wspd":10,"visib":"6+","altim":1018,"clouds":[],"obsTime":1775988000},"SBES":{"icaoId":"SBES","flightCategory":"VFR","rawOb":"METAR SBES 121000Z 00000KT 9999 VCSH SCT010 SCT030 20/// Q1021","temp":null,"dewp":null,"wdir":0,"wspd":0,"visib":"6+","altim":1021,"clouds":[{"cover":"SCT","base":1000},{"cover":"SCT","base":3000}],"obsTime":1775988000},"SBIP":{"icaoId":"SBIP","flightCategory":"VFR","rawOb":"METAR SBIP 121000Z AUTO 19003KT 9999 FEW044 22/20 Q1021","temp":22,"dewp":20,"wdir":190,"wspd":3,"visib":"6+","altim":1021,"clouds":[{"cover":"FEW","base":4400}],"obsTime":1775988000},"SBKG":{"icaoId":"SBKG","flightCategory":"VFR","rawOb":"METAR SBKG 121000Z 15006KT 9999 SCT015 24/21 Q1016","temp":24,"dewp":21,"wdir":150,"wspd":6,"visib":"6+","altim":1016,"clouds":[{"cover":"SCT","base":1500}],"obsTime":1775988000},"SBOI":{"icaoId":"SBOI","flightCategory":"VFR","rawOb":"METAR SBOI 121000Z AUTO VRB01KT CAVOK 25/24 Q1013","temp":25,"dewp":24,"wdir":"VRB","wspd":1,"visib":"6+","altim":1013,"clouds":[],"obsTime":1775988000},"SBPB":{"icaoId":"SBPB","flightCategory":"VFR","rawOb":"SPECI SBPB 121015Z 10005KT 9999 FEW016 FEW025TCU 27/24 Q1012","temp":27,"dewp":24,"wdir":100,"wspd":5,"visib":"6+","altim":1012,"clouds":[{"cover":"FEW","base":1600},{"cover":"FEW","base":2500}],"obsTime":1775988900},"SBPL":{"icaoId":"SBPL","flightCategory":"MVFR","rawOb":"METAR SBPL 121000Z 12009KT 9999 BKN020 SCT070 25/22 Q1016","temp":25,"dewp":22,"wdir":120,"wspd":9,"visib":"6+","altim":1016,"clouds":[{"cover":"BKN","base":2000},{"cover":"SCT","base":7000}],"obsTime":1775988000},"SBPS":{"icaoId":"SBPS","flightCategory":"MVFR","rawOb":"METAR SBPS 121000Z VRB02KT 6000 -RA FEW006 SCT015 BKN050 23/22 Q1017 RERA","temp":23,"dewp":22,"wdir":"VRB","wspd":2,"visib":3.73,"altim":1017,"clouds":[{"cover":"FEW","base":600},{"cover":"SCT","base":1500},{"cover":"BKN","base":5000}],"obsTime":1775988000},"SBAR":{"icaoId":"SBAR","flightCategory":"VFR","rawOb":"METAR SBAR 121000Z 23005KT 9999 SCT015 27/24 Q1014","temp":27,"dewp":24,"wdir":230,"wspd":5,"visib":"6+","altim":1014,"clouds":[{"cover":"SCT","base":1500}],"obsTime":1775988000},"SBSJ":{"icaoId":"SBSJ","flightCategory":"VFR","rawOb":"METAR SBSJ 121000Z 00000KT CAVOK 15/14 Q1023","temp":15,"dewp":14,"wdir":0,"wspd":0,"visib":"6+","altim":1023,"clouds":[],"obsTime":1775988000},"SBSM":{"icaoId":"SBSM","flightCategory":"VFR","rawOb":"METAR SBSM 121000Z 05011KT 010V080 9999 FEW020 BKN070 22/18 Q1016","temp":22,"dewp":18,"wdir":50,"wspd":11,"visib":"6+","altim":1016,"clouds":[{"cover":"FEW","base":2000},{"cover":"BKN","base":7000}],"obsTime":1775988000},"SBSR":{"icaoId":"SBSR","flightCategory":"VFR","rawOb":"METAR SBSR 121000Z 11006KT 9999 FEW030 21/18 Q1019","temp":21,"dewp":18,"wdir":110,"wspd":6,"visib":"6+","altim":1019,"clouds":[{"cover":"FEW","base":3000}],"obsTime":1775988000},"SBTT":{"icaoId":"SBTT","flightCategory":"VFR","rawOb":"METAR SBTT 121100Z 25001KT 9999 SCT005 BKN080 24/22 Q1013","temp":24,"dewp":22,"wdir":250,"wspd":1,"visib":"6+","altim":1013,"clouds":[{"cover":"SCT","base":500},{"cover":"BKN","base":8000}],"obsTime":1775991600},"SBUY":{"icaoId":"SBUY","flightCategory":"MVFR","rawOb":"METAR SBUY 121100Z 29001KT 7000 NSC 24/23 Q1010","temp":24,"dewp":23,"wdir":290,"wspd":1,"visib":4.35,"altim":1010,"clouds":[],"obsTime":1775991600},"SBVH":{"icaoId":"SBVH","flightCategory":"VFR","rawOb":"METAR SBVH 121100Z 08004KT CAVOK 22/22 Q1015","temp":22,"dewp":22,"wdir":80,"wspd":4,"visib":"6+","altim":1015,"clouds":[],"obsTime":1775991600},"SBBH":{"icaoId":"SBBH","flightCategory":"MVFR","rawOb":"METAR SBBH 121000Z 11006KT 9999 OVC028 19/16 Q1023","temp":19,"dewp":16,"wdir":110,"wspd":6,"visib":"6+","altim":1023,"clouds":[{"cover":"OVC","base":2800}],"obsTime":1775988000},"SBBU":{"icaoId":"SBBU","flightCategory":"VFR","rawOb":"METAR SBBU 121000Z 10009KT CAVOK 18/16 Q1020","temp":18,"dewp":16,"wdir":100,"wspd":9,"visib":"6+","altim":1020,"clouds":[],"obsTime":1775988000},"SBCA":{"icaoId":"SBCA","flightCategory":"VFR","rawOb":"METAR SBCA 121100Z 06016KT 9999 FEW030 SCT080 19/13 Q1020","temp":19,"dewp":13,"wdir":60,"wspd":16,"visib":"6+","altim":1020,"clouds":[{"cover":"FEW","base":3000},{"cover":"SCT","base":8000}],"obsTime":1775991600},"SBTA":{"icaoId":"SBTA","flightCategory":"VFR","rawOb":"METAR SBTA 121000Z VRB01KT 9999 FEW020 14/14 Q1022","temp":14,"dewp":14,"wdir":"VRB","wspd":1,"visib":"6+","altim":1022,"clouds":[{"cover":"FEW","base":2000}],"obsTime":1775988000},"SBJV":{"icaoId":"SBJV","flightCategory":"MVFR","rawOb":"METAR SBJV 121000Z 00000KT 5000 BR BCFG SCT004 19/19 Q1020","temp":19,"dewp":19,"wdir":0,"wspd":0,"visib":3.11,"altim":1020,"clouds":[{"cover":"SCT","base":400}],"obsTime":1775988000},"SBJP":{"icaoId":"SBJP","flightCategory":"MVFR","rawOb":"METAR SBJP 121000Z 20009KT 9999 SCT007 BKN020 25/24 Q1013","temp":25,"dewp":24,"wdir":200,"wspd":9,"visib":"6+","altim":1013,"clouds":[{"cover":"SCT","base":700},{"cover":"BKN","base":2000}],"obsTime":1775988000},"SBAN":{"icaoId":"SBAN","flightCategory":"IFR","rawOb":"METAR SBAN 121000Z 14010KT 9999 BKN005 19/18 Q1021","temp":19,"dewp":18,"wdir":140,"wspd":10,"visib":"6+","altim":1021,"clouds":[{"cover":"BKN","base":500}],"obsTime":1775988000},"SBLE":{"icaoId":"SBLE","flightCategory":"VFR","rawOb":"METAR SBLE 121000Z AUTO VRB01KT 9999 BKN034 ///// Q////","temp":null,"dewp":null,"wdir":"VRB","wspd":1,"visib":"6+","altim":null,"clouds":[{"cover":"BKN","base":3400}],"obsTime":1775988000},"SBIH":{"icaoId":"SBIH","flightCategory":"MVFR","rawOb":"METAR SBIH 121100Z 00000KT 7000 SCT013 26/25 Q1013","temp":26,"dewp":25,"wdir":0,"wspd":0,"visib":4.35,"altim":1013,"clouds":[{"cover":"SCT","base":1300}],"obsTime":1775991600},"SBPF":{"icaoId":"SBPF","flightCategory":"MVFR","rawOb":"METAR SBPF 121000Z 10009KT 9999 -RA BKN015 BKN070 17/17 Q1022","temp":17,"dewp":17,"wdir":100,"wspd":9,"visib":"6+","altim":1022,"clouds":[{"cover":"BKN","base":1500},{"cover":"BKN","base":7000}],"obsTime":1775988000},"SBAF":{"icaoId":"SBAF","flightCategory":"MVFR","rawOb":"METAR SBAF 121000Z VRB01KT 9999 FEW010 BKN016 19/19 Q1021","temp":19,"dewp":19,"wdir":"VRB","wspd":1,"visib":"6+","altim":1021,"clouds":[{"cover":"FEW","base":1000},{"cover":"BKN","base":1600}],"obsTime":1775988000},"SBGW":{"icaoId":"SBGW","flightCategory":"MVFR","rawOb":"METAR SBGW 121000Z 09003KT 070V130 9999 BKN030 17/13 Q1023","temp":17,"dewp":13,"wdir":90,"wspd":3,"visib":"6+","altim":1023,"clouds":[{"cover":"BKN","base":3000}],"obsTime":1775988000},"SBJR":{"icaoId":"SBJR","flightCategory":"MVFR","rawOb":"METAR SBJR 121000Z 02002KT 9999 FEW015 BKN025 21/21 Q1021","temp":21,"dewp":21,"wdir":20,"wspd":2,"visib":"6+","altim":1021,"clouds":[{"cover":"FEW","base":1500},{"cover":"BKN","base":2500}],"obsTime":1775988000},"SBLS":{"icaoId":"SBLS","flightCategory":"MVFR","rawOb":"METAR SBLS 121000Z 15008KT 9999 FEW010 BKN020 19/16 Q1023","temp":19,"dewp":16,"wdir":150,"wspd":8,"visib":"6+","altim":1023,"clouds":[{"cover":"FEW","base":1000},{"cover":"BKN","base":2000}],"obsTime":1775988000},"SBMT":{"icaoId":"SBMT","flightCategory":"VFR","rawOb":"METAR SBMT 121000Z 09007KT 060V130 9999 FEW013 16/14 Q1023","temp":16,"dewp":14,"wdir":90,"wspd":7,"visib":"6+","altim":1023,"clouds":[{"cover":"FEW","base":1300}],"obsTime":1775988000},"SBST":{"icaoId":"SBST","flightCategory":"VFR","rawOb":"METAR SBST 121100Z 35001KT CAVOK 20/19 Q1020","temp":20,"dewp":19,"wdir":350,"wspd":1,"visib":"6+","altim":1020,"clouds":[],"obsTime":1775991600}}}