{"updated":1774104532,"count":86,"data":{"SBPV":{"icaoId":"SBPV","flightCategory":"VFR","rawOb":"METAR SBPV 211300Z 01008KT CAVOK 28/23 Q1010","temp":28,"dewp":23,"wdir":10,"wspd":8,"visib":"6+","altim":1010,"clouds":[],"obsTime":1774098000},"SBAT":{"icaoId":"SBAT","flightCategory":"VFR","rawOb":"METAR SBAT 211300Z 02009KT 9999 SCT016 BKN090 26/24 Q1013","temp":26,"dewp":24,"wdir":20,"wspd":9,"visib":"6+","altim":1013,"clouds":[{"cover":"SCT","base":1600},{"cover":"BKN","base":9000}],"obsTime":1774098000},"SBBE":{"icaoId":"SBBE","flightCategory":"VFR","rawOb":"METAR SBBE 211300Z 11004KT CAVOK 26/22 Q1012","temp":26,"dewp":22,"wdir":110,"wspd":4,"visib":"6+","altim":1012,"clouds":[],"obsTime":1774098000},"SBBR":{"icaoId":"SBBR","flightCategory":"VFR","rawOb":"METAR SBBR 211300Z 05003KT CAVOK 24/19 Q1018","temp":24,"dewp":19,"wdir":50,"wspd":3,"visib":"6+","altim":1018,"clouds":[],"obsTime":1774098000},"SBBV":{"icaoId":"SBBV","flightCategory":"VFR","rawOb":"METAR SBBV 211300Z 10011KT CAVOK 29/21 Q1012","temp":29,"dewp":21,"wdir":100,"wspd":11,"visib":"6+","altim":1012,"clouds":[],"obsTime":1774098000},"SBCB":{"icaoId":"SBCB","flightCategory":"VFR","rawOb":"METAR SBCB 211300Z 23006KT 9999 FEW025 27/23 Q1012","temp":27,"dewp":23,"wdir":230,"wspd":6,"visib":"6+","altim":1012,"clouds":[{"cover":"FEW","base":2500}],"obsTime":1774098000},"SBCF":{"icaoId":"SBCF","flightCategory":"MVFR","rawOb":"METAR SBCF 211300Z 18002KT 9999 BKN016 25/20 Q1016","temp":25,"dewp":20,"wdir":180,"wspd":2,"visib":"6+","altim":1016,"clouds":[{"cover":"BKN","base":1600}],"obsTime":1774098000},"SBCG":{"icaoId":"SBCG","flightCategory":"VFR","rawOb":"METAR SBCG 211300Z 35011KT 9999 FEW025 28/22 Q1013","temp":28,"dewp":22,"wdir":350,"wspd":11,"visib":"6+","altim":1013,"clouds":[{"cover":"FEW","base":2500}],"obsTime":1774098000},"SBCP":{"icaoId":"SBCP","flightCategory":"MVFR","rawOb":"METAR SBCP 211300Z 22012KT 9999 SCT010 BKN025 OVC090 26/23 Q1012","temp":26,"dewp":23,"wdir":220,"wspd":12,"visib":"6+","altim":1012,"clouds":[{"cover":"SCT","base":1000},{"cover":"BKN","base":2500},{"cover":"OVC","base":9000}],"obsTime":1774098000},"SBCR":{"icaoId":"SBCR","flightCategory":"VFR","rawOb":"METAR SBCR 211300Z 02006KT 330V060 9999 FEW025 29/24 Q1009","temp":29,"dewp":24,"wdir":20,"wspd":6,"visib":"6+","altim":1009,"clouds":[{"cover":"FEW","base":2500}],"obsTime":1774098000},"SBCT":{"icaoId":"SBCT","flightCategory":"VFR","rawOb":"METAR SBCT 211300Z 01005KT 300V050 CAVOK 23/18 Q1017","temp":23,"dewp":18,"wdir":10,"wspd":5,"visib":"6+","altim":1017,"clouds":[],"obsTime":1774098000},"SBCZ":{"icaoId":"SBCZ","flightCategory":"MVFR","rawOb":"METAR SBCZ 211300Z 02001KT 8000 FEW008 OVC080 25/24 Q1009","temp":25,"dewp":24,"wdir":20,"wspd":1,"visib":4.97,"altim":1009,"clouds":[{"cover":"FEW","base":800},{"cover":"OVC","base":8000}],"obsTime":1774098000},"SBEG":{"icaoId":"SBEG","flightCategory":"VFR","rawOb":"METAR SBEG 211300Z 08011KT 9999 FEW020 29/24 Q1011","temp":29,"dewp":24,"wdir":80,"wspd":11,"visib":"6+","altim":1011,"clouds":[{"cover":"FEW","base":2000}],"obsTime":1774098000},"SBFI":{"icaoId":"SBFI","flightCategory":"VFR","rawOb":"METAR SBFI 211300Z 03008KT 9999 FEW020 30/25 Q1009","temp":30,"dewp":25,"wdir":30,"wspd":8,"visib":"6+","altim":1009,"clouds":[{"cover":"FEW","base":2000}],"obsTime":1774098000},"SBFL":{"icaoId":"SBFL","flightCategory":"VFR","rawOb":"METAR SBFL 211300Z 35009KT CAVOK 28/22 Q1011","temp":28,"dewp":22,"wdir":350,"wspd":9,"visib":"6+","altim":1011,"clouds":[],"obsTime":1774098000},"SBFZ":{"icaoId":"SBFZ","flightCategory":"MVFR","rawOb":"METAR SBFZ 211300Z 14008KT 9999 BKN020 BKN080 30/25 Q1012","temp":30,"dewp":25,"wdir":140,"wspd":8,"visib":"6+","altim":1012,"clouds":[{"cover":"BKN","base":2000},{"cover":"BKN","base":8000}],"obsTime":1774098000},"SBGL":{"icaoId":"SBGL","flightCategory":"VFR","rawOb":"METAR SBGL 211300Z 01004KT 9999 FEW018 27/22 Q1012","temp":27,"dewp":22,"wdir":10,"wspd":4,"visib":"6+","altim":1012,"clouds":[{"cover":"FEW","base":1800}],"obsTime":1774098000},"SBGO":{"icaoId":"SBGO","flightCategory":"VFR","rawOb":"METAR SBGO 211300Z 30004KT 260V350 CAVOK 25/20 Q1016","temp":25,"dewp":20,"wdir":300,"wspd":4,"visib":"6+","altim":1016,"clouds":[],"obsTime":1774098000},"SBGR":{"icaoId":"SBGR","flightCategory":"VFR","rawOb":"METAR SBGR 211300Z 07005KT CAVOK 23/19 Q1016","temp":23,"dewp":19,"wdir":70,"wspd":5,"visib":"6+","altim":1016,"clouds":[],"obsTime":1774098000},"SBHT":{"icaoId":"SBHT","flightCategory":"MVFR","rawOb":"METAR SBHT 211300Z 07004KT 9999 BKN015 SCT100 25/23 Q1013","temp":25,"dewp":23,"wdir":70,"wspd":4,"visib":"6+","altim":1013,"clouds":[{"cover":"BKN","base":1500},{"cover":"SCT","base":10000}],"obsTime":1774098000},"SBIL":{"icaoId":"SBIL","flightCategory":"VFR","rawOb":"METAR SBIL 211300Z 05008KT 9999 SCT025 31/25 Q1012","temp":31,"dewp":25,"wdir":50,"wspd":8,"visib":"6+","altim":1012,"clouds":[{"cover":"SCT","base":2500}],"obsTime":1774098000},"SBJU":{"icaoId":"SBJU","flightCategory":"MVFR","rawOb":"METAR SBJU 211300Z 07004KT 9999 BKN020 27/23 Q1015","temp":27,"dewp":23,"wdir":70,"wspd":4,"visib":"6+","altim":1015,"clouds":[{"cover":"BKN","base":2000}],"obsTime":1774098000},"SBKP":{"icaoId":"SBKP","flightCategory":"VFR","rawOb":"METAR SBKP 211300Z 36004KT CAVOK 25/19 Q1015","temp":25,"dewp":19,"wdir":360,"wspd":4,"visib":"6+","altim":1015,"clouds":[],"obsTime":1774098000},"SBLO":{"icaoId":"SBLO","flightCategory":"VFR","rawOb":"METAR SBLO 211300Z 06007KT 010V100 CAVOK 26/19 Q1014","temp":26,"dewp":19,"wdir":60,"wspd":7,"visib":"6+","altim":1014,"clouds":[],"obsTime":1774098000},"SBMA":{"icaoId":"SBMA","flightCategory":"MVFR","rawOb":"METAR SBMA 211300Z 07001KT 9999 SCT015 BKN020 27/23 Q1013","temp":27,"dewp":23,"wdir":70,"wspd":1,"visib":"6+","altim":1013,"clouds":[{"cover":"SCT","base":1500},{"cover":"BKN","base":2000}],"obsTime":1774098000},"SBME":{"icaoId":"SBME","flightCategory":"VFR","rawOb":"METAR SBME 211300Z 23006KT 9999 SCT021 30/23 Q1011","temp":30,"dewp":23,"wdir":230,"wspd":6,"visib":"6+","altim":1011,"clouds":[{"cover":"SCT","base":2100}],"obsTime":1774098000},"SBMG":{"icaoId":"SBMG","flightCategory":"VFR","rawOb":"METAR SBMG 211300Z 04009KT 350V080 9999 FEW030 28/22 Q1012","temp":28,"dewp":22,"wdir":40,"wspd":9,"visib":"6+","altim":1012,"clouds":[{"cover":"FEW","base":3000}],"obsTime":1774098000},"SBMK":{"icaoId":"SBMK","flightCategory":"VFR","rawOb":"METAR SBMK 211300Z 17002KT 9999 FEW015 SCT030 OVC080 25/20 Q1016","temp":25,"dewp":20,"wdir":170,"wspd":2,"visib":"6+","altim":1016,"clouds":[{"cover":"FEW","base":1500},{"cover":"SCT","base":3000},{"cover":"OVC","base":8000}],"obsTime":1774098000},"SBMO":{"icaoId":"SBMO","flightCategory":"VFR","rawOb":"METAR SBMO 211300Z 09009KT 9999 SCT030 30/22 Q1012","temp":30,"dewp":22,"wdir":90,"wspd":9,"visib":"6+","altim":1012,"clouds":[{"cover":"SCT","base":3000}],"obsTime":1774098000},"SBMQ":{"icaoId":"SBMQ","flightCategory":"MVFR","rawOb":"METAR SBMQ 211300Z 13004KT 9999 SCT013 BKN017 BKN100 28/25 Q1012","temp":28,"dewp":25,"wdir":130,"wspd":4,"visib":"6+","altim":1012,"clouds":[{"cover":"SCT","base":1300},{"cover":"BKN","base":1700},{"cover":"BKN","base":10000}],"obsTime":1774098000},"SBNT":{"icaoId":"SBNT","flightCategory":"VFR","rawOb":"METAR SBNT 211300Z 10011KT 9999 SCT029 FEW033TCU SCT038 31/24 Q1012","temp":31,"dewp":24,"wdir":100,"wspd":11,"visib":"6+","altim":1012,"clouds":[{"cover":"SCT","base":2900},{"cover":"FEW","base":3300},{"cover":"SCT","base":3800}],"obsTime":1774098000},"SBPA":{"icaoId":"SBPA","flightCategory":"VFR","rawOb":"METAR SBPA 211300Z 08008KT CAVOK 28/20 Q1008","temp":28,"dewp":20,"wdir":80,"wspd":8,"visib":"6+","altim":1008,"clouds":[],"obsTime":1774098000},"SBPJ":{"icaoId":"SBPJ","flightCategory":"VFR","rawOb":"METAR SBPJ 211300Z 02004KT 9999 FEW016 SCT070 26/23 Q1015","temp":26,"dewp":23,"wdir":20,"wspd":4,"visib":"6+","altim":1015,"clouds":[{"cover":"FEW","base":1600},{"cover":"SCT","base":7000}],"obsTime":1774098000},"SBRB":{"icaoId":"SBRB","flightCategory":"MVFR","rawOb":"METAR SBRB 211300Z 01005KT 8000 FEW003 BKN100 24/24 Q1008","temp":24,"dewp":24,"wdir":10,"wspd":5,"visib":4.97,"altim":1008,"clouds":[{"cover":"FEW","base":300},{"cover":"BKN","base":10000}],"obsTime":1774098000},"SBRF":{"icaoId":"SBRF","flightCategory":"VFR","rawOb":"METAR SBRF 211300Z 09010KT 9999 SCT023 31/23 Q1012","temp":31,"dewp":23,"wdir":90,"wspd":10,"visib":"6+","altim":1012,"clouds":[{"cover":"SCT","base":2300}],"obsTime":1774098000},"SBSG":{"icaoId":"SBSG","flightCategory":"VFR","rawOb":"METAR SBSG 211300Z 10010KT 070V130 9999 SCT030 31/24 Q1012","temp":31,"dewp":24,"wdir":100,"wspd":10,"visib":"6+","altim":1012,"clouds":[{"cover":"SCT","base":3000}],"obsTime":1774098000},"SBSL":{"icaoId":"SBSL","flightCategory":"MVFR","rawOb":"METAR SBSL 211300Z 29007KT 9999 FEW006 BKN015 24/23 Q1014","temp":24,"dewp":23,"wdir":290,"wspd":7,"visib":"6+","altim":1014,"clouds":[{"cover":"FEW","base":600},{"cover":"BKN","base":1500}],"obsTime":1774098000},"SBSN":{"icaoId":"SBSN","flightCategory":"VFR","rawOb":"METAR SBSN 211300Z 09012KT 9999 FEW015 SCT018 28/24 Q1012","temp":28,"dewp":24,"wdir":90,"wspd":12,"visib":"6+","altim":1012,"clouds":[{"cover":"FEW","base":1500},{"cover":"SCT","base":1800}],"obsTime":1774098000},"SBSP":{"icaoId":"SBSP","flightCategory":"VFR","rawOb":"METAR SBSP 211300Z 05005KT CAVOK 25/18 Q1016","temp":25,"dewp":18,"wdir":50,"wspd":5,"visib":"6+","altim":1016,"clouds":[],"obsTime":1774098000},"SBSV":{"icaoId":"SBSV","flightCategory":"VFR","rawOb":"METAR SBSV 211300Z 08011KT 9999 FEW019 SCT026 31/23 Q1012","temp":31,"dewp":23,"wdir":80,"wspd":11,"visib":"6+","altim":1012,"clouds":[{"cover":"FEW","base":1900},{"cover":"SCT","base":2600}],"obsTime":1774098000},"SBTE":{"icaoId":"SBTE","flightCategory":"MVFR","rawOb":"METAR SBTE 211300Z 30007KT 9999 SCT012 BKN015 BKN090 28/23 Q1013","temp":28,"dewp":23,"wdir":300,"wspd":7,"visib":"6+","altim":1013,"clouds":[{"cover":"SCT","base":1200},{"cover":"BKN","base":1500},{"cover":"BKN","base":9000}],"obsTime":1774098000},"SBUL":{"icaoId":"SBUL","flightCategory":"MVFR","rawOb":"METAR SBUL 211300Z 35005KT 9999 SCT006 BKN013 23/20 Q1017","temp":23,"dewp":20,"wdir":350,"wspd":5,"visib":"6+","altim":1017,"clouds":[{"cover":"SCT","base":600},{"cover":"BKN","base":1300}],"obsTime":1774098000},"SBUR":{"icaoId":"SBUR","flightCategory":"MVFR","rawOb":"METAR SBUR 211300Z 11003KT 9999 BKN017 26/21 Q1016","temp":26,"dewp":21,"wdir":110,"wspd":3,"visib":"6+","altim":1016,"clouds":[{"cover":"BKN","base":1700}],"obsTime":1774098000},"SBVT":{"icaoId":"SBVT","flightCategory":"MVFR","rawOb":"METAR SBVT 211300Z 16008KT 9999 OVC024 24/22 Q1011","temp":24,"dewp":22,"wdir":160,"wspd":8,"visib":"6+","altim":1011,"clouds":[{"cover":"OVC","base":2400}],"obsTime":1774098000},"SBCC":{"icaoId":"SBCC","flightCategory":"VFR","rawOb":"METAR SBCC 211300Z 34007KT 300V020 9999 VCSH SCT015 SCT020 FEW025TCU BKN100 25/21 Q1014","temp":25,"dewp":21,"wdir":340,"wspd":7,"visib":"6+","altim":1014,"clouds":[{"cover":"SCT","base":1500},{"cover":"SCT","base":2000},{"cover":"FEW","base":2500},{"cover":"BKN","base":10000}],"obsTime":1774098000},"SBAU":{"icaoId":"SBAU","flightCategory":"VFR","rawOb":"METAR SBAU 211300Z 06006KT 9999 SCT030 29/23 Q1013","temp":29,"dewp":23,"wdir":60,"wspd":6,"visib":"6+","altim":1013,"clouds":[{"cover":"SCT","base":3000}],"obsTime":1774098000},"SBAX":{"icaoId":"SBAX","flightCategory":"VFR","rawOb":"METAR SBAX 211300Z AUTO 01003KT 300V080 9999 FEW011 SCT017 24/21 Q1017","temp":24,"dewp":21,"wdir":10,"wspd":3,"visib":"6+","altim":1017,"clouds":[{"cover":"FEW","base":1100},{"cover":"SCT","base":1700}],"obsTime":1774098000},"SBBH":{"icaoId":"SBBH","flightCategory":"MVFR","rawOb":"METAR SBBH 211300Z 06003KT 9999 BKN015 23/20 Q1016","temp":23,"dewp":20,"wdir":60,"wspd":3,"visib":"6+","altim":1016,"clouds":[{"cover":"BKN","base":1500}],"obsTime":1774098000},"SBBQ":{"icaoId":"SBBQ","flightCategory":"VFR","rawOb":"METAR SBBQ 211300Z 26004KT 220V310 9999 SCT021 23/17 Q1019","temp":23,"dewp":17,"wdir":260,"wspd":4,"visib":"6+","altim":1019,"clouds":[{"cover":"SCT","base":2100}],"obsTime":1774098000},"SBBU":{"icaoId":"SBBU","flightCategory":"VFR","rawOb":"METAR SBBU 211300Z 08008KT CAVOK 27/22 Q1014","temp":27,"dewp":22,"wdir":80,"wspd":8,"visib":"6+","altim":1014,"clouds":[],"obsTime":1774098000},"SBCA":{"icaoId":"SBCA","flightCategory":"MVFR","rawOb":"METAR SBCA 211300Z 04012KT 8000 SCT010 BKN030 FEW040TCU 25/22 Q1014","temp":25,"dewp":22,"wdir":40,"wspd":12,"visib":4.97,"altim":1014,"clouds":[{"cover":"SCT","base":1000},{"cover":"BKN","base":3000},{"cover":"FEW","base":4000}],"obsTime":1774098000},"SBAR":{"icaoId":"SBAR","flightCategory":"VFR","rawOb":"METAR SBAR 211300Z 06010KT 9999 FEW025 31/22 Q1012","temp":31,"dewp":22,"wdir":60,"wspd":10,"visib":"6+","altim":1012,"clouds":[{"cover":"FEW","base":2500}],"obsTime":1774098000},"SBCJ":{"icaoId":"SBCJ","flightCategory":"VFR","rawOb":"METAR SBCJ 211300Z 00000KT 9000 FEW009 BKN080 24/21 Q1017","temp":24,"dewp":21,"wdir":0,"wspd":0,"visib":5.59,"altim":1017,"clouds":[{"cover":"FEW","base":900},{"cover":"BKN","base":8000}],"obsTime":1774098000},"SBCO":{"icaoId":"SBCO","flightCategory":"VFR","rawOb":"METAR SBCO 211300Z 10005KT 060V130 CAVOK 28/21 Q1008","temp":28,"dewp":21,"wdir":100,"wspd":5,"visib":"6+","altim":1008,"clouds":[],"obsTime":1774098000},"SBDN":{"icaoId":"SBDN","flightCategory":"VFR","rawOb":"METAR SBDN 211300Z 07007KT 9999 FEW030 29/22 Q1013","temp":29,"dewp":22,"wdir":70,"wspd":7,"visib":"6+","altim":1013,"clouds":[{"cover":"FEW","base":3000}],"obsTime":1774098000},"SBES":{"icaoId":"SBES","flightCategory":"VFR","rawOb":"METAR SBES 211300Z 21006KT 180V250 9999 SCT018 26/// Q1012","temp":null,"dewp":null,"wdir":210,"wspd":6,"visib":"6+","altim":1012,"clouds":[{"cover":"SCT","base":1800}],"obsTime":1774098000},"SBGM":{"icaoId":"SBGM","flightCategory":"VFR","rawOb":"METAR SBGM 211300Z 01003KT 9999 SCT033 SCT093 24/22 Q1010","temp":24,"dewp":22,"wdir":10,"wspd":3,"visib":"6+","altim":1010,"clouds":[{"cover":"SCT","base":3300},{"cover":"SCT","base":9300}],"obsTime":1774098000},"SBIP":{"icaoId":"SBIP","flightCategory":"VFR","rawOb":"METAR SBIP 211300Z AUTO 17004KT 110V190 9999 FEW013 BKN044 27/23 Q1013","temp":27,"dewp":23,"wdir":170,"wspd":4,"visib":"6+","altim":1013,"clouds":[{"cover":"FEW","base":1300},{"cover":"BKN","base":4400}],"obsTime":1774098000},"SBKG":{"icaoId":"SBKG","flightCategory":"VFR","rawOb":"METAR SBKG 211300Z 09010KT CAVOK 29/20 Q1014","temp":29,"dewp":20,"wdir":90,"wspd":10,"visib":"6+","altim":1014,"clouds":[],"obsTime":1774098000},"SBOI":{"icaoId":"SBOI","flightCategory":"MVFR","rawOb":"METAR SBOI 211300Z AUTO 04003KT 300V090 9999 SCT011 BKN014 27/24 Q1012","temp":27,"dewp":24,"wdir":40,"wspd":3,"visib":"6+","altim":1012,"clouds":[{"cover":"SCT","base":1100},{"cover":"BKN","base":1400}],"obsTime":1774098000},"SBPB":{"icaoId":"SBPB","flightCategory":"MVFR","rawOb":"METAR SBPB 211300Z 07003KT 9999 BKN020 31/25 Q1012","temp":31,"dewp":25,"wdir":70,"wspd":3,"visib":"6+","altim":1012,"clouds":[{"cover":"BKN","base":2000}],"obsTime":1774098000},"SBPL":{"icaoId":"SBPL","flightCategory":"VFR","rawOb":"METAR SBPL 211300Z 10006KT 9999 FEW020 31/21 Q1014","temp":31,"dewp":21,"wdir":100,"wspd":6,"visib":"6+","altim":1014,"clouds":[{"cover":"FEW","base":2000}],"obsTime":1774098000},"SBPP":{"icaoId":"SBPP","flightCategory":"VFR","rawOb":"METAR SBPP 211300Z 32018KT CAVOK 28/21 Q1012","temp":28,"dewp":21,"wdir":320,"wspd":18,"visib":"6+","altim":1012,"clouds":[],"obsTime":1774098000},"SBPS":{"icaoId":"SBPS","flightCategory":"VFR","rawOb":"METAR SBPS 211300Z 36008KT 330V050 9999 SCT025 31/24 Q1012","temp":31,"dewp":24,"wdir":360,"wspd":8,"visib":"6+","altim":1012,"clouds":[{"cover":"SCT","base":2500}],"obsTime":1774098000},"SBSC":{"icaoId":"SBSC","flightCategory":"VFR","rawOb":"METAR SBSC 211300Z 07002KT 9999 SCT012 28/22 Q1012","temp":28,"dewp":22,"wdir":70,"wspd":2,"visib":"6+","altim":1012,"clouds":[{"cover":"SCT","base":1200}],"obsTime":1774098000},"SBSJ":{"icaoId":"SBSJ","flightCategory":"IFR","rawOb":"METAR SBSJ 211300Z 01003KT 4000 BR BKN013 22/// Q1016","temp":null,"dewp":null,"wdir":10,"wspd":3,"visib":2.49,"altim":1016,"clouds":[{"cover":"BKN","base":1300}],"obsTime":1774098000},"SBSM":{"icaoId":"SBSM","flightCategory":"VFR","rawOb":"METAR SBSM 211300Z 04006KT 9999 FEW025 30/22 Q1007","temp":30,"dewp":22,"wdir":40,"wspd":6,"visib":"6+","altim":1007,"clouds":[{"cover":"FEW","base":2500}],"obsTime":1774098000},"SBSR":{"icaoId":"SBSR","flightCategory":"VFR","rawOb":"METAR SBSR 211300Z 06003KT 9999 SCT020 27/21 Q1014","temp":27,"dewp":21,"wdir":60,"wspd":3,"visib":"6+","altim":1014,"clouds":[{"cover":"SCT","base":2000}],"obsTime":1774098000},"SBTF":{"icaoId":"SBTF","flightCategory":"VFR","rawOb":"METAR SBTF 211300Z 08005KT CAVOK 30/26 Q1009","temp":30,"dewp":26,"wdir":80,"wspd":5,"visib":"6+","altim":1009,"clouds":[],"obsTime":1774098000},"SBTT":{"icaoId":"SBTT","flightCategory":"VFR","rawOb":"METAR SBTT 211300Z 13005KT CAVOK 28/23 Q1009","temp":28,"dewp":23,"wdir":130,"wspd":5,"visib":"6+","altim":1009,"clouds":[],"obsTime":1774098000},"SBUY":{"icaoId":"SBUY","flightCategory":"VFR","rawOb":"METAR SBUY 211300Z 10004KT CAVOK 28/23 Q1008","temp":28,"dewp":23,"wdir":100,"wspd":4,"visib":"6+","altim":1008,"clouds":[],"obsTime":1774098000},"SBVH":{"icaoId":"SBVH","flightCategory":"VFR","rawOb":"METAR SBVH 211300Z 04009KT 9999 FEW008 SCT100 25/22 Q1014","temp":25,"dewp":22,"wdir":40,"wspd":9,"visib":"6+","altim":1014,"clouds":[{"cover":"FEW","base":800},{"cover":"SCT","base":10000}],"obsTime":1774098000},"SBAF":{"icaoId":"SBAF","flightCategory":"VFR","rawOb":"METAR SBAF 211300Z VRB02KT 9999 SCT025 29/23 Q1012","temp":29,"dewp":23,"wdir":"VRB","wspd":2,"visib":"6+","altim":1012,"clouds":[{"cover":"SCT","base":2500}],"obsTime":1774098000},"SBAN":{"icaoId":"SBAN","flightCategory":"VFR","rawOb":"METAR SBAN 211300Z 34003KT CAVOK 25/16 Q1019","temp":25,"dewp":16,"wdir":340,"wspd":3,"visib":"6+","altim":1019,"clouds":[],"obsTime":1774098000},"SBGW":{"icaoId":"SBGW","flightCategory":"MVFR","rawOb":"METAR SBGW 211300Z VRB03KT 7000 BKN018 26/18 Q1015","temp":26,"dewp":18,"wdir":"VRB","wspd":3,"visib":4.35,"altim":1015,"clouds":[{"cover":"BKN","base":1800}],"obsTime":1774098000},"SBIH":{"icaoId":"SBIH","flightCategory":"VFR","rawOb":"METAR SBIH 211300Z 06008KT 9999 FEW010 SCT014 BKN100 27/24 Q1012","temp":27,"dewp":24,"wdir":60,"wspd":8,"visib":"6+","altim":1012,"clouds":[{"cover":"FEW","base":1000},{"cover":"SCT","base":1400},{"cover":"BKN","base":10000}],"obsTime":1774098000},"SBJP":{"icaoId":"SBJP","flightCategory":"MVFR","rawOb":"METAR SBJP 211300Z 08009KT 050V120 9999 BKN030 31/24 Q1012","temp":31,"dewp":24,"wdir":80,"wspd":9,"visib":"6+","altim":1012,"clouds":[{"cover":"BKN","base":3000}],"obsTime":1774098000},"SBJR":{"icaoId":"SBJR","flightCategory":"VFR","rawOb":"METAR SBJR 211300Z 17004KT 9999 FEW025 31/23 Q1011","temp":31,"dewp":23,"wdir":170,"wspd":4,"visib":"6+","altim":1011,"clouds":[{"cover":"FEW","base":2500}],"obsTime":1774098000},"SBJV":{"icaoId":"SBJV","flightCategory":"VFR","rawOb":"METAR SBJV 211300Z 18003KT 9999 SCT025 28/24 Q1012","temp":28,"dewp":24,"wdir":180,"wspd":3,"visib":"6+","altim":1012,"clouds":[{"cover":"SCT","base":2500}],"obsTime":1774098000},"SBLE":{"icaoId":"SBLE","flightCategory":"VFR","rawOb":"METAR SBLE 211300Z AUTO VRB03KT 9999 FEW018 BKN036 25/21 Q1016","temp":25,"dewp":21,"wdir":"VRB","wspd":3,"visib":"6+","altim":1016,"clouds":[{"cover":"FEW","base":1800},{"cover":"BKN","base":3600}],"obsTime":1774098000},"SBLS":{"icaoId":"SBLS","flightCategory":"MVFR","rawOb":"METAR SBLS 211300Z 21003KT 090V240 9999 BKN010 SCT017 23/20 Q1016","temp":23,"dewp":20,"wdir":210,"wspd":3,"visib":"6+","altim":1016,"clouds":[{"cover":"BKN","base":1000},{"cover":"SCT","base":1700}],"obsTime":1774098000},"SBMT":{"icaoId":"SBMT","flightCategory":"VFR","rawOb":"METAR SBMT 211300Z 10004KT CAVOK 25/17 Q1015","temp":25,"dewp":17,"wdir":100,"wspd":4,"visib":"6+","altim":1015,"clouds":[],"obsTime":1774098000},"SBPF":{"icaoId":"SBPF","flightCategory":"VFR","rawOb":"METAR SBPF 211300Z 02014KT CAVOK 25/19 Q1013","temp":25,"dewp":19,"wdir":20,"wspd":14,"visib":"6+","altim":1013,"clouds":[],"obsTime":1774098000},"SBST":{"icaoId":"SBST","flightCategory":"VFR","rawOb":"METAR SBST 211300Z 02002KT 9999 FEW020 28/20 Q1011","temp":28,"dewp":20,"wdir":20,"wspd":2,"visib":"6+","altim":1011,"clouds":[{"cover":"FEW","base":2000}],"obsTime":1774098000},"SBTA":{"icaoId":"SBTA","flightCategory":"VFR","rawOb":"METAR SBTA 211300Z VRB03KT 9999 SCT016 24/21 Q1014","temp":24,"dewp":21,"wdir":"VRB","wspd":3,"visib":"6+","altim":1014,"clouds":[{"cover":"SCT","base":1600}],"obsTime":1774098000},"SBTC":{"icaoId":"SBTC","flightCategory":"VFR","rawOb":"METAR SBTC 211300Z 04007KT 9999 SCT020 31/24 Q1013","temp":31,"dewp":24,"wdir":40,"wspd":7,"visib":"6+","altim":1013,"clouds":[{"cover":"SCT","base":2000}],"obsTime":1774098000}}}