{"updated":1777675061,"count":81,"data":{"SBRB":{"icaoId":"SBRB","flightCategory":"VFR","rawOb":"METAR SBRB 012100Z 29002KT 9999 VCTS FEW030 FEW035CB SCT100 32/25 Q1008","temp":32,"dewp":25,"wdir":290,"wspd":2,"visib":"6+","altim":1008,"clouds":[{"cover":"FEW","base":3000},{"cover":"FEW","base":3500},{"cover":"SCT","base":10000}],"obsTime":1777669200},"SBBE":{"icaoId":"SBBE","flightCategory":"MVFR","rawOb":"METAR SBBE 012100Z 10004KT 9999 -RA SCT010 BKN030 FEW035TCU 25/24 Q1010","temp":25,"dewp":24,"wdir":100,"wspd":4,"visib":"6+","altim":1010,"clouds":[{"cover":"SCT","base":1000},{"cover":"BKN","base":3000},{"cover":"FEW","base":3500}],"obsTime":1777669200},"SBBR":{"icaoId":"SBBR","flightCategory":"VFR","rawOb":"METAR SBBR 012100Z 12005KT 9999 SCT045 25/15 Q1020","temp":25,"dewp":15,"wdir":120,"wspd":5,"visib":"6+","altim":1020,"clouds":[{"cover":"SCT","base":4500}],"obsTime":1777669200},"SBBV":{"icaoId":"SBBV","flightCategory":"VFR","rawOb":"METAR SBBV 012100Z 10007KT 9999 SCT040 FEW045TCU SCT090 30/24 Q1008","temp":30,"dewp":24,"wdir":100,"wspd":7,"visib":"6+","altim":1008,"clouds":[{"cover":"SCT","base":4000},{"cover":"FEW","base":4500},{"cover":"SCT","base":9000}],"obsTime":1777669200},"SBCF":{"icaoId":"SBCF","flightCategory":"VFR","rawOb":"METAR SBCF 012100Z 13008KT CAVOK 25/15 Q1021","temp":25,"dewp":15,"wdir":130,"wspd":8,"visib":"6+","altim":1021,"clouds":[],"obsTime":1777669200},"SBCG":{"icaoId":"SBCG","flightCategory":"VFR","rawOb":"METAR SBCG 012100Z 33005KT 290V020 CAVOK 29/19 Q1015","temp":29,"dewp":19,"wdir":330,"wspd":5,"visib":"6+","altim":1015,"clouds":[],"obsTime":1777669200},"SBCP":{"icaoId":"SBCP","flightCategory":"VFR","rawOb":"METAR SBCP 012100Z 10006KT CAVOK 25/22 Q1017","temp":25,"dewp":22,"wdir":100,"wspd":6,"visib":"6+","altim":1017,"clouds":[],"obsTime":1777669200},"SBCT":{"icaoId":"SBCT","flightCategory":"VFR","rawOb":"METAR SBCT 012100Z 02004KT 350V050 9999 FEW020 22/17 Q1019","temp":22,"dewp":17,"wdir":20,"wspd":4,"visib":"6+","altim":1019,"clouds":[{"cover":"FEW","base":2000}],"obsTime":1777669200},"SBCZ":{"icaoId":"SBCZ","flightCategory":"VFR","rawOb":"METAR SBCZ 012100Z 12005KT 9999 SCT030 FEW030TCU 32/24 Q1008","temp":32,"dewp":24,"wdir":120,"wspd":5,"visib":"6+","altim":1008,"clouds":[{"cover":"SCT","base":3000},{"cover":"FEW","base":3000}],"obsTime":1777669200},"SBEG":{"icaoId":"SBEG","flightCategory":"VFR","rawOb":"METAR SBEG 012100Z VRB01KT 9999 VCSH SCT020 FEW025TCU BKN090 26/25 Q1009","temp":26,"dewp":25,"wdir":"VRB","wspd":1,"visib":"6+","altim":1009,"clouds":[{"cover":"SCT","base":2000},{"cover":"FEW","base":2500},{"cover":"BKN","base":9000}],"obsTime":1777669200},"SBFI":{"icaoId":"SBFI","flightCategory":"VFR","rawOb":"METAR SBFI 012100Z 02008KT CAVOK 28/24 Q1012","temp":28,"dewp":24,"wdir":20,"wspd":8,"visib":"6+","altim":1012,"clouds":[],"obsTime":1777669200},"SBFL":{"icaoId":"SBFL","flightCategory":"VFR","rawOb":"METAR SBFL 012100Z 01010KT 9999 FEW033 24/19 Q1014","temp":24,"dewp":19,"wdir":10,"wspd":10,"visib":"6+","altim":1014,"clouds":[{"cover":"FEW","base":3300}],"obsTime":1777669200},"SBFZ":{"icaoId":"SBFZ","flightCategory":"VFR","rawOb":"METAR SBFZ 012100Z 13005KT 9999 FEW020 27/24 Q1010","temp":27,"dewp":24,"wdir":130,"wspd":5,"visib":"6+","altim":1010,"clouds":[{"cover":"FEW","base":2000}],"obsTime":1777669200},"SBGL":{"icaoId":"SBGL","flightCategory":"VFR","rawOb":"METAR SBGL 012100Z 15008KT 9999 FEW024 BKN080 25/23 Q1017","temp":25,"dewp":23,"wdir":150,"wspd":8,"visib":"6+","altim":1017,"clouds":[{"cover":"FEW","base":2400},{"cover":"BKN","base":8000}],"obsTime":1777669200},"SBGO":{"icaoId":"SBGO","flightCategory":"VFR","rawOb":"METAR SBGO 012100Z 10007KT CAVOK 28/16 Q1017","temp":28,"dewp":16,"wdir":100,"wspd":7,"visib":"6+","altim":1017,"clouds":[],"obsTime":1777669200},"SBGR":{"icaoId":"SBGR","flightCategory":"VFR","rawOb":"METAR SBGR 012100Z 04007KT CAVOK 25/20 Q1019","temp":25,"dewp":20,"wdir":40,"wspd":7,"visib":"6+","altim":1019,"clouds":[],"obsTime":1777669200},"SBIL":{"icaoId":"SBIL","flightCategory":"MVFR","rawOb":"METAR SBIL 012100Z 15007KT 100V180 9999 SCT015 BKN018 BKN050 28/25 Q1015","temp":28,"dewp":25,"wdir":150,"wspd":7,"visib":"6+","altim":1015,"clouds":[{"cover":"SCT","base":1500},{"cover":"BKN","base":1800},{"cover":"BKN","base":5000}],"obsTime":1777669200},"SBJU":{"icaoId":"SBJU","flightCategory":"VFR","rawOb":"METAR SBJU 012100Z 14003KT 9999 SCT020 26/22 Q1014","temp":26,"dewp":22,"wdir":140,"wspd":3,"visib":"6+","altim":1014,"clouds":[{"cover":"SCT","base":2000}],"obsTime":1777669200},"SBKP":{"icaoId":"SBKP","flightCategory":"VFR","rawOb":"METAR SBKP 012100Z 32002KT CAVOK 27/18 Q1018","temp":27,"dewp":18,"wdir":320,"wspd":2,"visib":"6+","altim":1018,"clouds":[],"obsTime":1777669200},"SBLO":{"icaoId":"SBLO","flightCategory":"VFR","rawOb":"METAR SBLO 012100Z 10004KT CAVOK 25/21 Q1017","temp":25,"dewp":21,"wdir":100,"wspd":4,"visib":"6+","altim":1017,"clouds":[],"obsTime":1777669200},"SBMA":{"icaoId":"SBMA","flightCategory":"VFR","rawOb":"METAR SBMA 012100Z COR 12004KT 9999 SCT022 FEW025TCU SCT100 30/23 Q1009","temp":30,"dewp":23,"wdir":120,"wspd":4,"visib":"6+","altim":1009,"clouds":[{"cover":"SCT","base":2200},{"cover":"FEW","base":2500},{"cover":"SCT","base":10000}],"obsTime":1777669200},"SBME":{"icaoId":"SBME","flightCategory":"VFR","rawOb":"METAR SBME 012100Z 13004KT 9999 FEW020 26/23 Q1017","temp":26,"dewp":23,"wdir":130,"wspd":4,"visib":"6+","altim":1017,"clouds":[{"cover":"FEW","base":2000}],"obsTime":1777669200},"SBMG":{"icaoId":"SBMG","flightCategory":"VFR","rawOb":"METAR SBMG 012100Z 02006KT CAVOK 25/21 Q1016","temp":25,"dewp":21,"wdir":20,"wspd":6,"visib":"6+","altim":1016,"clouds":[],"obsTime":1777669200},"SBMK":{"icaoId":"SBMK","flightCategory":"VFR","rawOb":"METAR SBMK 012100Z 11007KT CAVOK 25/17 Q1018","temp":25,"dewp":17,"wdir":110,"wspd":7,"visib":"6+","altim":1018,"clouds":[],"obsTime":1777669200},"SBMO":{"icaoId":"SBMO","flightCategory":"VFR","rawOb":"METAR SBMO 012100Z COR 07009KT 9999 FEW020 SCT025 OVC100 25/24 Q1014","temp":25,"dewp":24,"wdir":70,"wspd":9,"visib":"6+","altim":1014,"clouds":[{"cover":"FEW","base":2000},{"cover":"SCT","base":2500},{"cover":"OVC","base":10000}],"obsTime":1777669200},"SBMQ":{"icaoId":"SBMQ","flightCategory":"VFR","rawOb":"METAR SBMQ 012100Z 08004KT 9999 FEW020 FEW035TCU 28/24 Q1009","temp":28,"dewp":24,"wdir":80,"wspd":4,"visib":"6+","altim":1009,"clouds":[{"cover":"FEW","base":2000},{"cover":"FEW","base":3500}],"obsTime":1777669200},"SBNT":{"icaoId":"SBNT","flightCategory":"VFR","rawOb":"METAR SBNT 012100Z 16006KT 9999 FEW011 SCT020 FEW030TCU BKN100 25/24 Q1012","temp":25,"dewp":24,"wdir":160,"wspd":6,"visib":"6+","altim":1012,"clouds":[{"cover":"FEW","base":1100},{"cover":"SCT","base":2000},{"cover":"FEW","base":3000},{"cover":"BKN","base":10000}],"obsTime":1777669200},"SBPA":{"icaoId":"SBPA","flightCategory":"IFR","rawOb":"SPECI SBPA 012044Z 15011KT 120V200 3000 TSRA BKN009 FEW040CB BKN050 19/18 Q1014","temp":19,"dewp":18,"wdir":150,"wspd":11,"visib":1.86,"altim":1014,"clouds":[{"cover":"BKN","base":900},{"cover":"FEW","base":4000},{"cover":"BKN","base":5000}],"obsTime":1777668240},"SBPJ":{"icaoId":"SBPJ","flightCategory":"VFR","rawOb":"METAR SBPJ 012100Z 13003KT 9999 FEW045 30/23 Q1012","temp":30,"dewp":23,"wdir":130,"wspd":3,"visib":"6+","altim":1012,"clouds":[{"cover":"FEW","base":4500}],"obsTime":1777669200},"SBPV":{"icaoId":"SBPV","flightCategory":"VFR","rawOb":"METAR SBPV 012100Z 02004KT 350V050 9999 SCT030 FEW035TCU 33/25 Q1007","temp":33,"dewp":25,"wdir":20,"wspd":4,"visib":"6+","altim":1007,"clouds":[{"cover":"SCT","base":3000},{"cover":"FEW","base":3500}],"obsTime":1777669200},"SBRF":{"icaoId":"SBRF","flightCategory":"MVFR","rawOb":"METAR SBRF 012100Z 23007KT 180V260 5000 -RA BR FEW010 SCT020 OVC070 23/22 Q1012","temp":23,"dewp":22,"wdir":230,"wspd":7,"visib":3.11,"altim":1012,"clouds":[{"cover":"FEW","base":1000},{"cover":"SCT","base":2000},{"cover":"OVC","base":7000}],"obsTime":1777669200},"SBSG":{"icaoId":"SBSG","flightCategory":"VFR","rawOb":"METAR SBSG 012100Z 16004KT 120V190 9999 FEW010 BKN035 BKN100 25/24 Q1012","temp":25,"dewp":24,"wdir":160,"wspd":4,"visib":"6+","altim":1012,"clouds":[{"cover":"FEW","base":1000},{"cover":"BKN","base":3500},{"cover":"BKN","base":10000}],"obsTime":1777669200},"SBSL":{"icaoId":"SBSL","flightCategory":"VFR","rawOb":"METAR SBSL 012100Z 06008KT 9999 SCT025 FEW030TCU BKN080 28/24 Q1010","temp":28,"dewp":24,"wdir":60,"wspd":8,"visib":"6+","altim":1010,"clouds":[{"cover":"SCT","base":2500},{"cover":"FEW","base":3000},{"cover":"BKN","base":8000}],"obsTime":1777669200},"SBSN":{"icaoId":"SBSN","flightCategory":"VFR","rawOb":"METAR SBSN 012100Z 13004KT 9999 VCSH FEW020 FEW025TCU 28/24 Q1009","temp":28,"dewp":24,"wdir":130,"wspd":4,"visib":"6+","altim":1009,"clouds":[{"cover":"FEW","base":2000},{"cover":"FEW","base":2500}],"obsTime":1777669200},"SBSP":{"icaoId":"SBSP","flightCategory":"VFR","rawOb":"METAR SBSP 012100Z 16005KT 9999 FEW035 23/20 Q1020","temp":23,"dewp":20,"wdir":160,"wspd":5,"visib":"6+","altim":1020,"clouds":[{"cover":"FEW","base":3500}],"obsTime":1777669200},"SBSV":{"icaoId":"SBSV","flightCategory":"VFR","rawOb":"METAR SBSV 012100Z 12005KT 9999 FEW022TCU SCT025 28/23 Q1014","temp":28,"dewp":23,"wdir":120,"wspd":5,"visib":"6+","altim":1014,"clouds":[{"cover":"FEW","base":2200},{"cover":"SCT","base":2500}],"obsTime":1777669200},"SBTE":{"icaoId":"SBTE","flightCategory":"VFR","rawOb":"METAR SBTE 012100Z 14008KT 9999 SCT020 FEW025TCU BKN100 30/23 Q1009","temp":30,"dewp":23,"wdir":140,"wspd":8,"visib":"6+","altim":1009,"clouds":[{"cover":"SCT","base":2000},{"cover":"FEW","base":2500},{"cover":"BKN","base":10000}],"obsTime":1777669200},"SBUL":{"icaoId":"SBUL","flightCategory":"VFR","rawOb":"METAR SBUL 012100Z 07004KT CAVOK 25/14 Q1020","temp":25,"dewp":14,"wdir":70,"wspd":4,"visib":"6+","altim":1020,"clouds":[],"obsTime":1777669200},"SBUR":{"icaoId":"SBUR","flightCategory":"VFR","rawOb":"METAR SBUR 012100Z 01003KT CAVOK 27/14 Q1019","temp":27,"dewp":14,"wdir":10,"wspd":3,"visib":"6+","altim":1019,"clouds":[],"obsTime":1777669200},"SBVT":{"icaoId":"SBVT","flightCategory":"VFR","rawOb":"METAR SBVT 012100Z 11004KT CAVOK 26/22 Q1017","temp":26,"dewp":22,"wdir":110,"wspd":4,"visib":"6+","altim":1017,"clouds":[],"obsTime":1777669200},"SBCB":{"icaoId":"SBCB","flightCategory":"VFR","rawOb":"METAR SBCB 012100Z 10006KT 9999 FEW015 SCT030 25/23 Q1017","temp":25,"dewp":23,"wdir":100,"wspd":6,"visib":"6+","altim":1017,"clouds":[{"cover":"FEW","base":1500},{"cover":"SCT","base":3000}],"obsTime":1777669200},"SBCR":{"icaoId":"SBCR","flightCategory":"VFR","rawOb":"METAR SBCR 012100Z 05009KT 9999 FEW035 33/20 Q1010","temp":33,"dewp":20,"wdir":50,"wspd":9,"visib":"6+","altim":1010,"clouds":[{"cover":"FEW","base":3500}],"obsTime":1777669200},"SBAT":{"icaoId":"SBAT","flightCategory":"VFR","rawOb":"METAR SBAT 012100Z 13003KT 9999 FEW035 32/24 Q1010","temp":32,"dewp":24,"wdir":130,"wspd":3,"visib":"6+","altim":1010,"clouds":[{"cover":"FEW","base":3500}],"obsTime":1777669200},"SBHT":{"icaoId":"SBHT","flightCategory":"VFR","rawOb":"METAR SBHT 012100Z 00000KT CAVOK 30/24 Q1009","temp":30,"dewp":24,"wdir":0,"wspd":0,"visib":"6+","altim":1009,"clouds":[],"obsTime":1777669200},"SBAR":{"icaoId":"SBAR","flightCategory":"VFR","rawOb":"METAR SBAR 012100Z 11007KT 9999 FEW026 SCT030 28/22 Q1013","temp":28,"dewp":22,"wdir":110,"wspd":7,"visib":"6+","altim":1013,"clouds":[{"cover":"FEW","base":2600},{"cover":"SCT","base":3000}],"obsTime":1777669200},"SBDN":{"icaoId":"SBDN","flightCategory":"VFR","rawOb":"METAR SBDN 012100Z 05004KT CAVOK 28/18 Q1016","temp":28,"dewp":18,"wdir":50,"wspd":4,"visib":"6+","altim":1016,"clouds":[],"obsTime":1777669200},"SBPL":{"icaoId":"SBPL","flightCategory":"VFR","rawOb":"METAR SBPL 012100Z 10007KT 9999 SCT025 SCT070 30/19 Q1013","temp":30,"dewp":19,"wdir":100,"wspd":7,"visib":"6+","altim":1013,"clouds":[{"cover":"SCT","base":2500},{"cover":"SCT","base":7000}],"obsTime":1777669200},"SBCA":{"icaoId":"SBCA","flightCategory":"VFR","rawOb":"METAR SBCA 012100Z 02009G19KT CAVOK 25/19 Q1017","temp":25,"dewp":19,"wdir":20,"wspd":9,"visib":"6+","altim":1017,"clouds":[],"obsTime":1777669200},"SBAX":{"icaoId":"SBAX","flightCategory":"VFR","rawOb":"METAR SBAX 012100Z AUTO 09004KT CAVOK 24/12 Q1020","temp":24,"dewp":12,"wdir":90,"wspd":4,"visib":"6+","altim":1020,"clouds":[],"obsTime":1777669200},"SBPS":{"icaoId":"SBPS","flightCategory":"MVFR","rawOb":"METAR SBPS 012100Z 15004KT 100V200 9999 BKN020 BKN070 26/24 Q1016","temp":26,"dewp":24,"wdir":150,"wspd":4,"visib":"6+","altim":1016,"clouds":[{"cover":"BKN","base":2000},{"cover":"BKN","base":7000}],"obsTime":1777669200},"SBSC":{"icaoId":"SBSC","flightCategory":"VFR","rawOb":"METAR SBSC 012100Z 08002KT 9999 FEW015 SCT080 25/23 Q1017","temp":25,"dewp":23,"wdir":80,"wspd":2,"visib":"6+","altim":1017,"clouds":[{"cover":"FEW","base":1500},{"cover":"SCT","base":8000}],"obsTime":1777669200},"SBUY":{"icaoId":"SBUY","flightCategory":"VFR","rawOb":"METAR SBUY 012100Z 11002KT 9999 -RA SCT020 FEW030TCU BKN080 23/23 Q1007 RETS","temp":23,"dewp":23,"wdir":110,"wspd":2,"visib":"6+","altim":1007,"clouds":[{"cover":"SCT","base":2000},{"cover":"FEW","base":3000},{"cover":"BKN","base":8000}],"obsTime":1777669200},"SBVH":{"icaoId":"SBVH","flightCategory":"VFR","rawOb":"METAR SBVH 012100Z 07004KT 9999 FEW040 28/24 Q1013","temp":28,"dewp":24,"wdir":70,"wspd":4,"visib":"6+","altim":1013,"clouds":[{"cover":"FEW","base":4000}],"obsTime":1777669200},"SBIP":{"icaoId":"SBIP","flightCategory":"VFR","rawOb":"METAR SBIP 012100Z AUTO 00000KT CAVOK 22/20 Q1017","temp":22,"dewp":20,"wdir":0,"wspd":0,"visib":"6+","altim":1017,"clouds":[],"obsTime":1777669200},"SBSJ":{"icaoId":"SBSJ","flightCategory":"VFR","rawOb":"METAR SBSJ 012100Z 04002KT 9999 FEW035 SCT100 25/19 Q1019","temp":25,"dewp":19,"wdir":40,"wspd":2,"visib":"6+","altim":1019,"clouds":[{"cover":"FEW","base":3500},{"cover":"SCT","base":10000}],"obsTime":1777669200},"SBSM":{"icaoId":"SBSM","flightCategory":"VFR","rawOb":"METAR SBSM 012100Z 08005KT 9999 -TSRA BKN040 FEW045CB OVC100 18/18 Q1010","temp":18,"dewp":18,"wdir":80,"wspd":5,"visib":"6+","altim":1010,"clouds":[{"cover":"BKN","base":4000},{"cover":"FEW","base":4500},{"cover":"OVC","base":10000}],"obsTime":1777669200},"SBKG":{"icaoId":"SBKG","flightCategory":"IFR","rawOb":"METAR SBKG 012100Z 20002KT 9999 BKN006 BKN070 21/20 Q1015","temp":21,"dewp":20,"wdir":200,"wspd":2,"visib":"6+","altim":1015,"clouds":[{"cover":"BKN","base":600},{"cover":"BKN","base":7000}],"obsTime":1777669200},"SBSR":{"icaoId":"SBSR","flightCategory":"VFR","rawOb":"METAR SBSR 012100Z 09006KT CAVOK 29/14 Q1017","temp":29,"dewp":14,"wdir":90,"wspd":6,"visib":"6+","altim":1017,"clouds":[],"obsTime":1777669200},"SBBU":{"icaoId":"SBBU","flightCategory":"VFR","rawOb":"METAR SBBU 012100Z 04002KT 9999 FEW047 30/19 Q1017","temp":30,"dewp":19,"wdir":40,"wspd":2,"visib":"6+","altim":1017,"clouds":[{"cover":"FEW","base":4700}],"obsTime":1777669200},"SBTF":{"icaoId":"SBTF","flightCategory":"VFR","rawOb":"METAR SBTF 012100Z 13005KT 9999 -TSRA SCT017 FEW025CB BKN080 27/26 Q1009","temp":27,"dewp":26,"wdir":130,"wspd":5,"visib":"6+","altim":1009,"clouds":[{"cover":"SCT","base":1700},{"cover":"FEW","base":2500},{"cover":"BKN","base":8000}],"obsTime":1777669200},"SBCO":{"icaoId":"SBCO","flightCategory":"IFR","rawOb":"METAR SBCO 012100Z 13011KT 3000 TSRA BKN008 OVC040 //////CB 19/18 Q1014","temp":19,"dewp":18,"wdir":130,"wspd":11,"visib":1.86,"altim":1014,"clouds":[{"cover":"BKN","base":800},{"cover":"OVC","base":4000}],"obsTime":1777669200},"SBOI":{"icaoId":"SBOI","flightCategory":"VFR","rawOb":"METAR SBOI 012100Z AUTO 05004KT 9999 FEW031 28/24 Q1010","temp":28,"dewp":24,"wdir":50,"wspd":4,"visib":"6+","altim":1010,"clouds":[{"cover":"FEW","base":3100}],"obsTime":1777669200},"SBTT":{"icaoId":"SBTT","flightCategory":"VFR","rawOb":"METAR SBTT 012100Z 02002KT 9999 SCT020 SCT100 27/24 Q1008","temp":27,"dewp":24,"wdir":20,"wspd":2,"visib":"6+","altim":1008,"clouds":[{"cover":"SCT","base":2000},{"cover":"SCT","base":10000}],"obsTime":1777669200},"SBBH":{"icaoId":"SBBH","flightCategory":"VFR","rawOb":"METAR SBBH 012100Z 10004KT CAVOK 25/14 Q1020","temp":25,"dewp":14,"wdir":100,"wspd":4,"visib":"6+","altim":1020,"clouds":[],"obsTime":1777669200},"SBPB":{"icaoId":"SBPB","flightCategory":"VFR","rawOb":"METAR SBPB 012100Z 04007KT 9999 FEW020 FEW025TCU BKN090 29/25 Q1009","temp":29,"dewp":25,"wdir":40,"wspd":7,"visib":"6+","altim":1009,"clouds":[{"cover":"FEW","base":2000},{"cover":"FEW","base":2500},{"cover":"BKN","base":9000}],"obsTime":1777669200},"SBCJ":{"icaoId":"SBCJ","flightCategory":"VFR","rawOb":"METAR SBCJ 012100Z 00000KT CAVOK 25/21 Q1014","temp":25,"dewp":21,"wdir":0,"wspd":0,"visib":"6+","altim":1014,"clouds":[],"obsTime":1777669200},"SBES":{"icaoId":"SBES","flightCategory":"VFR","rawOb":"METAR SBES 012100Z 04003KT 330V080 9999 SCT015 24/// Q1017","temp":null,"dewp":null,"wdir":40,"wspd":3,"visib":"6+","altim":1017,"clouds":[{"cover":"SCT","base":1500}],"obsTime":1777669200},"SBPP":{"icaoId":"SBPP","flightCategory":"VFR","rawOb":"METAR SBPP 012100Z 04007KT CAVOK 27/21 Q1015","temp":27,"dewp":21,"wdir":40,"wspd":7,"visib":"6+","altim":1015,"clouds":[],"obsTime":1777669200},"SBMT":{"icaoId":"SBMT","flightCategory":"VFR","rawOb":"METAR SBMT 012100Z 04003KT 350V070 CAVOK 25/20 Q1019","temp":25,"dewp":20,"wdir":40,"wspd":3,"visib":"6+","altim":1019,"clouds":[],"obsTime":1777669200},"SBIH":{"icaoId":"SBIH","flightCategory":"VFR","rawOb":"METAR SBIH 012100Z 04003KT 9999 FEW017 FEW025TCU SCT100 26/25 Q1008","temp":26,"dewp":25,"wdir":40,"wspd":3,"visib":"6+","altim":1008,"clouds":[{"cover":"FEW","base":1700},{"cover":"FEW","base":2500},{"cover":"SCT","base":10000}],"obsTime":1777669200},"SBLE":{"icaoId":"SBLE","flightCategory":"IFR","rawOb":"METAR SBLE 012100Z AUTO 08006KT 4100 RA SCT017 OVC033 ///// Q////","temp":null,"dewp":null,"wdir":80,"wspd":6,"visib":2.55,"altim":null,"clouds":[{"cover":"SCT","base":1700},{"cover":"OVC","base":3300}],"obsTime":1777669200},"SBAN":{"icaoId":"SBAN","flightCategory":"VFR","rawOb":"METAR SBAN 012100Z 16004KT 9999 BKN047 24/15 Q1020","temp":24,"dewp":15,"wdir":160,"wspd":4,"visib":"6+","altim":1020,"clouds":[{"cover":"BKN","base":4700}],"obsTime":1777669200},"SBAF":{"icaoId":"SBAF","flightCategory":"VFR","rawOb":"METAR SBAF 012100Z 23003KT 9999 FEW010 SCT025 BKN080 25/25 Q1017","temp":25,"dewp":25,"wdir":230,"wspd":3,"visib":"6+","altim":1017,"clouds":[{"cover":"FEW","base":1000},{"cover":"SCT","base":2500},{"cover":"BKN","base":8000}],"obsTime":1777669200},"SBJV":{"icaoId":"SBJV","flightCategory":"VFR","rawOb":"METAR SBJV 012100Z 04004KT 360V070 9999 FEW015 SCT035 24/21 Q1015","temp":24,"dewp":21,"wdir":40,"wspd":4,"visib":"6+","altim":1015,"clouds":[{"cover":"FEW","base":1500},{"cover":"SCT","base":3500}],"obsTime":1777669200},"SBGW":{"icaoId":"SBGW","flightCategory":"VFR","rawOb":"METAR SBGW 012100Z 03005KT 9999 BKN035 24/18 Q1019","temp":24,"dewp":18,"wdir":30,"wspd":5,"visib":"6+","altim":1019,"clouds":[{"cover":"BKN","base":3500}],"obsTime":1777669200},"SBJP":{"icaoId":"SBJP","flightCategory":"VFR","rawOb":"METAR SBJP 012100Z 17007KT CAVOK 24/22 Q1012","temp":24,"dewp":22,"wdir":170,"wspd":7,"visib":"6+","altim":1012,"clouds":[],"obsTime":1777669200},"SBJR":{"icaoId":"SBJR","flightCategory":"VFR","rawOb":"METAR SBJR 012100Z 13005KT 9999 FEW018 SCT025 26/23 Q1017","temp":26,"dewp":23,"wdir":130,"wspd":5,"visib":"6+","altim":1017,"clouds":[{"cover":"FEW","base":1800},{"cover":"SCT","base":2500}],"obsTime":1777669200},"SBLS":{"icaoId":"SBLS","flightCategory":"VFR","rawOb":"METAR SBLS 012100Z 15006KT 9999 FEW048 24/16 Q1020","temp":24,"dewp":16,"wdir":150,"wspd":6,"visib":"6+","altim":1020,"clouds":[{"cover":"FEW","base":4800}],"obsTime":1777669200},"SBTA":{"icaoId":"SBTA","flightCategory":"VFR","rawOb":"METAR SBTA 012100Z 05005KT 9999 FEW035 24/20 Q1018","temp":24,"dewp":20,"wdir":50,"wspd":5,"visib":"6+","altim":1018,"clouds":[{"cover":"FEW","base":3500}],"obsTime":1777669200},"SBST":{"icaoId":"SBST","flightCategory":"VFR","rawOb":"METAR SBST 012100Z /////KT 9000 FEW020 ///// Q1016","temp":null,"dewp":null,"wdir":null,"wspd":null,"visib":5.59,"altim":1016,"clouds":[{"cover":"FEW","base":2000}],"obsTime":1777669200},"SBPF":{"icaoId":"SBPF","flightCategory":"VFR","rawOb":"METAR SBPF 012100Z 01006KT CAVOK 25/17 Q1015","temp":25,"dewp":17,"wdir":10,"wspd":6,"visib":"6+","altim":1015,"clouds":[],"obsTime":1777669200}}}