{"updated":1775858314,"count":82,"data":{"SBAT":{"icaoId":"SBAT","flightCategory":"VFR","rawOb":"METAR SBAT 102000Z 00000KT 9999 SCT035 FEW040TCU 32/23 Q1010","temp":32,"dewp":23,"wdir":0,"wspd":0,"visib":"6+","altim":1010,"clouds":[{"cover":"SCT","base":3500},{"cover":"FEW","base":4000}],"obsTime":1775851200},"SBBE":{"icaoId":"SBBE","flightCategory":"VFR","rawOb":"METAR SBBE 102000Z 05014KT 9999 TS VCSH FEW015 SCT030 FEW035CB 28/24 Q1009","temp":28,"dewp":24,"wdir":50,"wspd":14,"visib":"6+","altim":1009,"clouds":[{"cover":"FEW","base":1500},{"cover":"SCT","base":3000},{"cover":"FEW","base":3500}],"obsTime":1775851200},"SBBR":{"icaoId":"SBBR","flightCategory":"VFR","rawOb":"METAR SBBR 102000Z 16010KT 9999 FEW045 FEW050TCU SCT080 28/17 Q1016","temp":28,"dewp":17,"wdir":160,"wspd":10,"visib":"6+","altim":1016,"clouds":[{"cover":"FEW","base":4500},{"cover":"FEW","base":5000},{"cover":"SCT","base":8000}],"obsTime":1775851200},"SBBV":{"icaoId":"SBBV","flightCategory":"VFR","rawOb":"METAR SBBV 102000Z 08010KT 9999 SCT035 FEW045TCU SCT080 31/22 Q1009","temp":31,"dewp":22,"wdir":80,"wspd":10,"visib":"6+","altim":1009,"clouds":[{"cover":"SCT","base":3500},{"cover":"FEW","base":4500},{"cover":"SCT","base":8000}],"obsTime":1775851200},"SBCB":{"icaoId":"SBCB","flightCategory":"VFR","rawOb":"METAR SBCB 102000Z 25009KT 9999 SCT020 OVC060 24/21 Q1017","temp":24,"dewp":21,"wdir":250,"wspd":9,"visib":"6+","altim":1017,"clouds":[{"cover":"SCT","base":2000},{"cover":"OVC","base":6000}],"obsTime":1775851200},"SBCF":{"icaoId":"SBCF","flightCategory":"VFR","rawOb":"METAR SBCF 102000Z 07006KT 9999 SCT040 FEW045TCU 28/19 Q1016","temp":28,"dewp":19,"wdir":70,"wspd":6,"visib":"6+","altim":1016,"clouds":[{"cover":"SCT","base":4000},{"cover":"FEW","base":4500}],"obsTime":1775851200},"SBCG":{"icaoId":"SBCG","flightCategory":"VFR","rawOb":"METAR SBCG 102000Z 17005KT 130V200 9999 BKN035 FEW045TCU BKN070 28/21 Q1015","temp":28,"dewp":21,"wdir":170,"wspd":5,"visib":"6+","altim":1015,"clouds":[{"cover":"BKN","base":3500},{"cover":"FEW","base":4500},{"cover":"BKN","base":7000}],"obsTime":1775851200},"SBCP":{"icaoId":"SBCP","flightCategory":"MVFR","rawOb":"METAR SBCP 102000Z 25008KT 9999 BKN020 OVC090 24/22 Q1016","temp":24,"dewp":22,"wdir":250,"wspd":8,"visib":"6+","altim":1016,"clouds":[{"cover":"BKN","base":2000},{"cover":"OVC","base":9000}],"obsTime":1775851200},"SBCR":{"icaoId":"SBCR","flightCategory":"VFR","rawOb":"METAR SBCR 102000Z 28004KT 220V350 9999 FEW035 SCT070 30/22 Q1011","temp":30,"dewp":22,"wdir":280,"wspd":4,"visib":"6+","altim":1011,"clouds":[{"cover":"FEW","base":3500},{"cover":"SCT","base":7000}],"obsTime":1775851200},"SBCT":{"icaoId":"SBCT","flightCategory":"IFR","rawOb":"METAR SBCT 102000Z 12009KT 9999 BKN009 17/15 Q1021","temp":17,"dewp":15,"wdir":120,"wspd":9,"visib":"6+","altim":1021,"clouds":[{"cover":"BKN","base":900}],"obsTime":1775851200},"SBCZ":{"icaoId":"SBCZ","flightCategory":"VFR","rawOb":"METAR SBCZ 102000Z 21007KT 9999 TS VCSH SCT030 FEW035CB BKN100 27/24 Q1010","temp":27,"dewp":24,"wdir":210,"wspd":7,"visib":"6+","altim":1010,"clouds":[{"cover":"SCT","base":3000},{"cover":"FEW","base":3500},{"cover":"BKN","base":10000}],"obsTime":1775851200},"SBEG":{"icaoId":"SBEG","flightCategory":"VFR","rawOb":"METAR SBEG 102000Z 35003KT 290V040 9999 VCSH SCT030 FEW035TCU SCT100 31/25 Q1008","temp":31,"dewp":25,"wdir":350,"wspd":3,"visib":"6+","altim":1008,"clouds":[{"cover":"SCT","base":3000},{"cover":"FEW","base":3500},{"cover":"SCT","base":10000}],"obsTime":1775851200},"SBFI":{"icaoId":"SBFI","flightCategory":"VFR","rawOb":"METAR SBFI 102000Z 21005KT 9999 FEW030 28/17 Q1014","temp":28,"dewp":17,"wdir":210,"wspd":5,"visib":"6+","altim":1014,"clouds":[{"cover":"FEW","base":3000}],"obsTime":1775851200},"SBFL":{"icaoId":"SBFL","flightCategory":"VFR","rawOb":"METAR SBFL 102000Z 15008KT 9999 BKN048 23/17 Q1019","temp":23,"dewp":17,"wdir":150,"wspd":8,"visib":"6+","altim":1019,"clouds":[{"cover":"BKN","base":4800}],"obsTime":1775851200},"SBFZ":{"icaoId":"SBFZ","flightCategory":"VFR","rawOb":"METAR SBFZ 102000Z 08006KT 9999 SCT017 29/25 Q1010","temp":29,"dewp":25,"wdir":80,"wspd":6,"visib":"6+","altim":1010,"clouds":[{"cover":"SCT","base":1700}],"obsTime":1775851200},"SBGL":{"icaoId":"SBGL","flightCategory":"VFR","rawOb":"METAR SBGL 102000Z 02004KT 9999 FEW022 BKN060 25/21 Q1017","temp":25,"dewp":21,"wdir":20,"wspd":4,"visib":"6+","altim":1017,"clouds":[{"cover":"FEW","base":2200},{"cover":"BKN","base":6000}],"obsTime":1775851200},"SBGO":{"icaoId":"SBGO","flightCategory":"VFR","rawOb":"METAR SBGO 102000Z 15007KT 9999 FEW045 31/20 Q1014","temp":31,"dewp":20,"wdir":150,"wspd":7,"visib":"6+","altim":1014,"clouds":[{"cover":"FEW","base":4500}],"obsTime":1775851200},"SBGR":{"icaoId":"SBGR","flightCategory":"VFR","rawOb":"METAR SBGR 102000Z 12005KT 9999 SCT019 BKN036 18/15 Q1020","temp":18,"dewp":15,"wdir":120,"wspd":5,"visib":"6+","altim":1020,"clouds":[{"cover":"SCT","base":1900},{"cover":"BKN","base":3600}],"obsTime":1775851200},"SBHT":{"icaoId":"SBHT","flightCategory":"VFR","rawOb":"METAR SBHT 102000Z 00000KT 9999 SCT030 27/24 Q1009 RETS","temp":27,"dewp":24,"wdir":0,"wspd":0,"visib":"6+","altim":1009,"clouds":[{"cover":"SCT","base":3000}],"obsTime":1775851200},"SBIL":{"icaoId":"SBIL","flightCategory":"VFR","rawOb":"METAR SBIL 102000Z 12007KT 9999 FEW020 29/24 Q1013","temp":29,"dewp":24,"wdir":120,"wspd":7,"visib":"6+","altim":1013,"clouds":[{"cover":"FEW","base":2000}],"obsTime":1775851200},"SBJU":{"icaoId":"SBJU","flightCategory":"VFR","rawOb":"METAR SBJU 102000Z 15005KT CAVOK 30/20 Q1011","temp":30,"dewp":20,"wdir":150,"wspd":5,"visib":"6+","altim":1011,"clouds":[],"obsTime":1775851200},"SBKP":{"icaoId":"SBKP","flightCategory":"VFR","rawOb":"METAR SBKP 102000Z 13018KT 9999 FEW030 SCT090 21/14 Q1018","temp":21,"dewp":14,"wdir":130,"wspd":18,"visib":"6+","altim":1018,"clouds":[{"cover":"FEW","base":3000},{"cover":"SCT","base":9000}],"obsTime":1775851200},"SBLO":{"icaoId":"SBLO","flightCategory":"VFR","rawOb":"METAR SBLO 102000Z 08006KT 9999 FEW035 SCT100 25/19 Q1016","temp":25,"dewp":19,"wdir":80,"wspd":6,"visib":"6+","altim":1016,"clouds":[{"cover":"FEW","base":3500},{"cover":"SCT","base":10000}],"obsTime":1775851200},"SBMA":{"icaoId":"SBMA","flightCategory":"VFR","rawOb":"METAR SBMA 102000Z 31004KT 9999 FEW020 FEW025TCU 33/24 Q1008","temp":33,"dewp":24,"wdir":310,"wspd":4,"visib":"6+","altim":1008,"clouds":[{"cover":"FEW","base":2000},{"cover":"FEW","base":2500}],"obsTime":1775851200},"SBME":{"icaoId":"SBME","flightCategory":"MVFR","rawOb":"METAR SBME 102000Z 27004KT 7000 BKN017 OVC090 23/21 Q1016","temp":23,"dewp":21,"wdir":270,"wspd":4,"visib":4.35,"altim":1016,"clouds":[{"cover":"BKN","base":1700},{"cover":"OVC","base":9000}],"obsTime":1775851200},"SBMG":{"icaoId":"SBMG","flightCategory":"VFR","rawOb":"METAR SBMG 102000Z 16007KT 9999 FEW036 BKN100 26/19 Q1015","temp":26,"dewp":19,"wdir":160,"wspd":7,"visib":"6+","altim":1015,"clouds":[{"cover":"FEW","base":3600},{"cover":"BKN","base":10000}],"obsTime":1775851200},"SBMK":{"icaoId":"SBMK","flightCategory":"VFR","rawOb":"METAR SBMK 102000Z 15004KT 9999 FEW040 FEW045TCU BKN100 26/21 Q1015","temp":26,"dewp":21,"wdir":150,"wspd":4,"visib":"6+","altim":1015,"clouds":[{"cover":"FEW","base":4000},{"cover":"FEW","base":4500},{"cover":"BKN","base":10000}],"obsTime":1775851200},"SBMO":{"icaoId":"SBMO","flightCategory":"VFR","rawOb":"METAR SBMO 102000Z 11010KT 9999 SCT030 BKN070 27/22 Q1012","temp":27,"dewp":22,"wdir":110,"wspd":10,"visib":"6+","altim":1012,"clouds":[{"cover":"SCT","base":3000},{"cover":"BKN","base":7000}],"obsTime":1775851200},"SBMQ":{"icaoId":"SBMQ","flightCategory":"VFR","rawOb":"METAR SBMQ 102000Z 06011KT 9999 FEW010 FEW035TCU 27/24 Q1010","temp":27,"dewp":24,"wdir":60,"wspd":11,"visib":"6+","altim":1010,"clouds":[{"cover":"FEW","base":1000},{"cover":"FEW","base":3500}],"obsTime":1775851200},"SBNT":{"icaoId":"SBNT","flightCategory":"VFR","rawOb":"METAR SBNT 102000Z 13011KT 9999 FEW023 29/23 Q1011","temp":29,"dewp":23,"wdir":130,"wspd":11,"visib":"6+","altim":1011,"clouds":[{"cover":"FEW","base":2300}],"obsTime":1775851200},"SBPA":{"icaoId":"SBPA","flightCategory":"VFR","rawOb":"METAR SBPA 102000Z 16010KT 9999 FEW045 23/12 Q1018","temp":23,"dewp":12,"wdir":160,"wspd":10,"visib":"6+","altim":1018,"clouds":[{"cover":"FEW","base":4500}],"obsTime":1775851200},"SBPJ":{"icaoId":"SBPJ","flightCategory":"VFR","rawOb":"METAR SBPJ 102000Z 25007KT 220V280 9999 FEW035 FEW040TCU 29/24 Q1011","temp":29,"dewp":24,"wdir":250,"wspd":7,"visib":"6+","altim":1011,"clouds":[{"cover":"FEW","base":3500},{"cover":"FEW","base":4000}],"obsTime":1775851200},"SBPV":{"icaoId":"SBPV","flightCategory":"VFR","rawOb":"METAR SBPV 102000Z 34003KT 9999 SCT030 FEW035TCU 30/24 Q1008","temp":30,"dewp":24,"wdir":340,"wspd":3,"visib":"6+","altim":1008,"clouds":[{"cover":"SCT","base":3000},{"cover":"FEW","base":3500}],"obsTime":1775851200},"SBRB":{"icaoId":"SBRB","flightCategory":"MVFR","rawOb":"METAR SBRB 102000Z 14002KT 9999 BKN030 FEW040TCU 32/23 Q1009","temp":32,"dewp":23,"wdir":140,"wspd":2,"visib":"6+","altim":1009,"clouds":[{"cover":"BKN","base":3000},{"cover":"FEW","base":4000}],"obsTime":1775851200},"SBRF":{"icaoId":"SBRF","flightCategory":"VFR","rawOb":"METAR SBRF 102000Z 11007KT 9999 SCT024 29/23 Q1011","temp":29,"dewp":23,"wdir":110,"wspd":7,"visib":"6+","altim":1011,"clouds":[{"cover":"SCT","base":2400}],"obsTime":1775851200},"SBSG":{"icaoId":"SBSG","flightCategory":"MVFR","rawOb":"METAR SBSG 102000Z 12006KT 070V150 9999 BKN030 FEW035TCU 28/23 Q1011","temp":28,"dewp":23,"wdir":120,"wspd":6,"visib":"6+","altim":1011,"clouds":[{"cover":"BKN","base":3000},{"cover":"FEW","base":3500}],"obsTime":1775851200},"SBSL":{"icaoId":"SBSL","flightCategory":"VFR","rawOb":"METAR SBSL 102000Z 04011KT 9999 FEW020 28/24 Q1009","temp":28,"dewp":24,"wdir":40,"wspd":11,"visib":"6+","altim":1009,"clouds":[{"cover":"FEW","base":2000}],"obsTime":1775851200},"SBSN":{"icaoId":"SBSN","flightCategory":"VFR","rawOb":"METAR SBSN 102000Z 09008KT 9999 FEW020 31/24 Q1008","temp":31,"dewp":24,"wdir":90,"wspd":8,"visib":"6+","altim":1008,"clouds":[{"cover":"FEW","base":2000}],"obsTime":1775851200},"SBSP":{"icaoId":"SBSP","flightCategory":"VFR","rawOb":"METAR SBSP 102000Z 13008KT 9999 BKN046 17/13 Q1021","temp":17,"dewp":13,"wdir":130,"wspd":8,"visib":"6+","altim":1021,"clouds":[{"cover":"BKN","base":4600}],"obsTime":1775851200},"SBSV":{"icaoId":"SBSV","flightCategory":"VFR","rawOb":"METAR SBSV 102000Z 11007KT 9999 SCT023 29/23 Q1012","temp":29,"dewp":23,"wdir":110,"wspd":7,"visib":"6+","altim":1012,"clouds":[{"cover":"SCT","base":2300}],"obsTime":1775851200},"SBTE":{"icaoId":"SBTE","flightCategory":"VFR","rawOb":"METAR SBTE 102000Z 03002KT 9999 FEW020 32/25 Q1008","temp":32,"dewp":25,"wdir":30,"wspd":2,"visib":"6+","altim":1008,"clouds":[{"cover":"FEW","base":2000}],"obsTime":1775851200},"SBUL":{"icaoId":"SBUL","flightCategory":"VFR","rawOb":"METAR SBUL 102000Z 23010KT 9999 VCSH SCT049 FEW050TCU 28/19 Q1016","temp":28,"dewp":19,"wdir":230,"wspd":10,"visib":"6+","altim":1016,"clouds":[{"cover":"SCT","base":4900},{"cover":"FEW","base":5000}],"obsTime":1775851200},"SBUR":{"icaoId":"SBUR","flightCategory":"VFR","rawOb":"METAR SBUR 102000Z 19008KT CAVOK 29/18 Q1016","temp":29,"dewp":18,"wdir":190,"wspd":8,"visib":"6+","altim":1016,"clouds":[],"obsTime":1775851200},"SBVT":{"icaoId":"SBVT","flightCategory":"VFR","rawOb":"METAR SBVT 102000Z 18008KT 9999 BKN036 BKN050 25/21 Q1015","temp":25,"dewp":21,"wdir":180,"wspd":8,"visib":"6+","altim":1015,"clouds":[{"cover":"BKN","base":3600},{"cover":"BKN","base":5000}],"obsTime":1775851200},"SBPB":{"icaoId":"SBPB","flightCategory":"MVFR","rawOb":"METAR SBPB 102000Z 03004KT 9999 -TSRA BKN020 FEW026CB 27/24 Q1009","temp":27,"dewp":24,"wdir":30,"wspd":4,"visib":"6+","altim":1009,"clouds":[{"cover":"BKN","base":2000},{"cover":"FEW","base":2600}],"obsTime":1775851200},"SBCJ":{"icaoId":"SBCJ","flightCategory":"VFR","rawOb":"METAR SBCJ 102000Z 00000KT 9999 FEW023 27/22 Q1013","temp":27,"dewp":22,"wdir":0,"wspd":0,"visib":"6+","altim":1013,"clouds":[{"cover":"FEW","base":2300}],"obsTime":1775851200},"SBBH":{"icaoId":"SBBH","flightCategory":"VFR","rawOb":"METAR SBBH 102000Z 06005KT 9999 TS SCT025 SCT040 FEW045CB 27/19 Q1016","temp":27,"dewp":19,"wdir":60,"wspd":5,"visib":"6+","altim":1016,"clouds":[{"cover":"SCT","base":2500},{"cover":"SCT","base":4000},{"cover":"FEW","base":4500}],"obsTime":1775851200},"SBAR":{"icaoId":"SBAR","flightCategory":"VFR","rawOb":"METAR SBAR 102000Z 13011KT 9999 FEW020 SCT070 30/23 Q1012","temp":30,"dewp":23,"wdir":130,"wspd":11,"visib":"6+","altim":1012,"clouds":[{"cover":"FEW","base":2000},{"cover":"SCT","base":7000}],"obsTime":1775851200},"SBAX":{"icaoId":"SBAX","flightCategory":"VFR","rawOb":"METAR SBAX 102000Z 31004KT 9999 SCT030 26/18 Q1017","temp":26,"dewp":18,"wdir":310,"wspd":4,"visib":"6+","altim":1017,"clouds":[{"cover":"SCT","base":3000}],"obsTime":1775851200},"SBBU":{"icaoId":"SBBU","flightCategory":"VFR","rawOb":"METAR SBBU 102000Z 12007KT 9999 SCT025 BKN070 25/22 Q1016","temp":25,"dewp":22,"wdir":120,"wspd":7,"visib":"6+","altim":1016,"clouds":[{"cover":"SCT","base":2500},{"cover":"BKN","base":7000}],"obsTime":1775851200},"SBCA":{"icaoId":"SBCA","flightCategory":"VFR","rawOb":"METAR SBCA 102000Z 31004KT 9999 FEW030 25/14 Q1017","temp":25,"dewp":14,"wdir":310,"wspd":4,"visib":"6+","altim":1017,"clouds":[{"cover":"FEW","base":3000}],"obsTime":1775851200},"SBCC":{"icaoId":"SBCC","flightCategory":"VFR","rawOb":"METAR SBCC 102000Z 25006KT 9999 TS SCT020 FEW025CB BKN100 23/22 Q1012 RETS","temp":23,"dewp":22,"wdir":250,"wspd":6,"visib":"6+","altim":1012,"clouds":[{"cover":"SCT","base":2000},{"cover":"FEW","base":2500},{"cover":"BKN","base":10000}],"obsTime":1775851200},"SBCO":{"icaoId":"SBCO","flightCategory":"VFR","rawOb":"METAR SBCO 102000Z 16007KT 9999 FEW045 23/12 Q1019","temp":23,"dewp":12,"wdir":160,"wspd":7,"visib":"6+","altim":1019,"clouds":[{"cover":"FEW","base":4500}],"obsTime":1775851200},"SBDN":{"icaoId":"SBDN","flightCategory":"VFR","rawOb":"METAR SBDN 102000Z 22002KT 9999 SCT045 FEW050TCU BKN080 27/19 Q1015","temp":27,"dewp":19,"wdir":220,"wspd":2,"visib":"6+","altim":1015,"clouds":[{"cover":"SCT","base":4500},{"cover":"FEW","base":5000},{"cover":"BKN","base":8000}],"obsTime":1775851200},"SBES":{"icaoId":"SBES","flightCategory":"VFR","rawOb":"METAR SBES 102000Z VRB05KT 9999 VCSH FEW020 OVC060 24/// Q1017","temp":null,"dewp":null,"wdir":"VRB","wspd":5,"visib":"6+","altim":1017,"clouds":[{"cover":"FEW","base":2000},{"cover":"OVC","base":6000}],"obsTime":1775851200},"SBIP":{"icaoId":"SBIP","flightCategory":"VFR","rawOb":"METAR SBIP 102000Z AUTO VRB01KT CAVOK 29/22 Q1013","temp":29,"dewp":22,"wdir":"VRB","wspd":1,"visib":"6+","altim":1013,"clouds":[],"obsTime":1775851200},"SBKG":{"icaoId":"SBKG","flightCategory":"VFR","rawOb":"METAR SBKG 102000Z 09009KT 9999 FEW015 SCT070 26/22 Q1013","temp":26,"dewp":22,"wdir":90,"wspd":9,"visib":"6+","altim":1013,"clouds":[{"cover":"FEW","base":1500},{"cover":"SCT","base":7000}],"obsTime":1775851200},"SBOI":{"icaoId":"SBOI","flightCategory":"VFR","rawOb":"METAR SBOI 102000Z AUTO 08005KT 040V150 9999 BKN039 29/22 Q1011","temp":29,"dewp":22,"wdir":80,"wspd":5,"visib":"6+","altim":1011,"clouds":[{"cover":"BKN","base":3900}],"obsTime":1775851200},"SBPL":{"icaoId":"SBPL","flightCategory":"VFR","rawOb":"METAR SBPL 102000Z 12007KT 9999 FEW035 32/17 Q1011","temp":32,"dewp":17,"wdir":120,"wspd":7,"visib":"6+","altim":1011,"clouds":[{"cover":"FEW","base":3500}],"obsTime":1775851200},"SBPP":{"icaoId":"SBPP","flightCategory":"VFR","rawOb":"METAR SBPP 102000Z 19005KT 9999 SCT020 BKN080 24/19 Q1016","temp":24,"dewp":19,"wdir":190,"wspd":5,"visib":"6+","altim":1016,"clouds":[{"cover":"SCT","base":2000},{"cover":"BKN","base":8000}],"obsTime":1775851200},"SBPS":{"icaoId":"SBPS","flightCategory":"VFR","rawOb":"METAR SBPS 102000Z 07009KT 9999 SCT025 28/23 Q1013","temp":28,"dewp":23,"wdir":70,"wspd":9,"visib":"6+","altim":1013,"clouds":[{"cover":"SCT","base":2500}],"obsTime":1775851200},"SBSC":{"icaoId":"SBSC","flightCategory":"MVFR","rawOb":"METAR SBSC 102000Z 21004KT 8000 FEW012 SCT022 OVC050 24/20 Q1017","temp":24,"dewp":20,"wdir":210,"wspd":4,"visib":4.97,"altim":1017,"clouds":[{"cover":"FEW","base":1200},{"cover":"SCT","base":2200},{"cover":"OVC","base":5000}],"obsTime":1775851200},"SBSJ":{"icaoId":"SBSJ","flightCategory":"MVFR","rawOb":"METAR SBSJ 102000Z 15003KT 8000 OVC040 18/15 Q1020","temp":18,"dewp":15,"wdir":150,"wspd":3,"visib":4.97,"altim":1020,"clouds":[{"cover":"OVC","base":4000}],"obsTime":1775851200},"SBSM":{"icaoId":"SBSM","flightCategory":"VFR","rawOb":"METAR SBSM 102000Z 11007KT 080V140 CAVOK 23/12 Q1018","temp":23,"dewp":12,"wdir":110,"wspd":7,"visib":"6+","altim":1018,"clouds":[],"obsTime":1775851200},"SBSR":{"icaoId":"SBSR","flightCategory":"MVFR","rawOb":"METAR SBSR 102000Z 23006KT 9999 VCSH BKN025 FEW030TCU 29/20 Q1014","temp":29,"dewp":20,"wdir":230,"wspd":6,"visib":"6+","altim":1014,"clouds":[{"cover":"BKN","base":2500},{"cover":"FEW","base":3000}],"obsTime":1775851200},"SBTF":{"icaoId":"SBTF","flightCategory":"VFR","rawOb":"METAR SBTF 102000Z 14009KT 9999 SCT020 34/25 Q1007","temp":34,"dewp":25,"wdir":140,"wspd":9,"visib":"6+","altim":1007,"clouds":[{"cover":"SCT","base":2000}],"obsTime":1775851200},"SBTT":{"icaoId":"SBTT","flightCategory":"VFR","rawOb":"METAR SBTT 102000Z 13004KT 080V170 9999 VCSH BKN033 FEW040TCU 30/24 Q1008","temp":30,"dewp":24,"wdir":130,"wspd":4,"visib":"6+","altim":1008,"clouds":[{"cover":"BKN","base":3300},{"cover":"FEW","base":4000}],"obsTime":1775851200},"SBUY":{"icaoId":"SBUY","flightCategory":"VFR","rawOb":"METAR SBUY 102000Z 16002KT 9999 SCT025 31/24 Q1006","temp":31,"dewp":24,"wdir":160,"wspd":2,"visib":"6+","altim":1006,"clouds":[{"cover":"SCT","base":2500}],"obsTime":1775851200},"SBVH":{"icaoId":"SBVH","flightCategory":"MVFR","rawOb":"METAR SBVH 102000Z 27003KT 9999 BKN025 SCT035 26/22 Q1013","temp":26,"dewp":22,"wdir":270,"wspd":3,"visib":"6+","altim":1013,"clouds":[{"cover":"BKN","base":2500},{"cover":"SCT","base":3500}],"obsTime":1775851200},"SBST":{"icaoId":"SBST","flightCategory":"MVFR","rawOb":"METAR SBST 102000Z 01002KT 8000 SCT040 BKN070 21/18 Q1018","temp":21,"dewp":18,"wdir":10,"wspd":2,"visib":4.97,"altim":1018,"clouds":[{"cover":"SCT","base":4000},{"cover":"BKN","base":7000}],"obsTime":1775851200},"SBTA":{"icaoId":"SBTA","flightCategory":"VFR","rawOb":"METAR SBTA 102000Z 20004KT 160V240 9999 FEW015 OVC038 20/13 Q1019","temp":20,"dewp":13,"wdir":200,"wspd":4,"visib":"6+","altim":1019,"clouds":[{"cover":"FEW","base":1500},{"cover":"OVC","base":3800}],"obsTime":1775851200},"SBJV":{"icaoId":"SBJV","flightCategory":"VFR","rawOb":"METAR SBJV 102000Z 10004KT 9999 FEW030 SCT060 25/16 Q1018","temp":25,"dewp":16,"wdir":100,"wspd":4,"visib":"6+","altim":1018,"clouds":[{"cover":"FEW","base":3000},{"cover":"SCT","base":6000}],"obsTime":1775851200},"SBPF":{"icaoId":"SBPF","flightCategory":"VFR","rawOb":"METAR SBPF 102000Z 17010KT CAVOK 22/11 Q1019","temp":22,"dewp":11,"wdir":170,"wspd":10,"visib":"6+","altim":1019,"clouds":[],"obsTime":1775851200},"SBIH":{"icaoId":"SBIH","flightCategory":"VFR","rawOb":"METAR SBIH 102000Z 08004KT 9999 SCT018 FEW025TCU 30/25 Q1007","temp":30,"dewp":25,"wdir":80,"wspd":4,"visib":"6+","altim":1007,"clouds":[{"cover":"SCT","base":1800},{"cover":"FEW","base":2500}],"obsTime":1775851200},"SBAN":{"icaoId":"SBAN","flightCategory":"VFR","rawOb":"METAR SBAN 102000Z 24005KT 9999 SCT030 FEW035TCU 26/18 Q1017","temp":26,"dewp":18,"wdir":240,"wspd":5,"visib":"6+","altim":1017,"clouds":[{"cover":"SCT","base":3000},{"cover":"FEW","base":3500}],"obsTime":1775851200},"SBLE":{"icaoId":"SBLE","flightCategory":"VFR","rawOb":"METAR SBLE 102000Z AUTO 12004KT 100V160 CAVOK 28/19 Q1014","temp":28,"dewp":19,"wdir":120,"wspd":4,"visib":"6+","altim":1014,"clouds":[],"obsTime":1775851200},"SBAF":{"icaoId":"SBAF","flightCategory":"VFR","rawOb":"METAR SBAF 102000Z 19006KT 9999 SCT026 OVC060 24/22 Q1017","temp":24,"dewp":22,"wdir":190,"wspd":6,"visib":"6+","altim":1017,"clouds":[{"cover":"SCT","base":2600},{"cover":"OVC","base":6000}],"obsTime":1775851200},"SBJP":{"icaoId":"SBJP","flightCategory":"VFR","rawOb":"METAR SBJP 102000Z 11010KT 9999 SCT030 OVC100 28/24 Q1011","temp":28,"dewp":24,"wdir":110,"wspd":10,"visib":"6+","altim":1011,"clouds":[{"cover":"SCT","base":3000},{"cover":"OVC","base":10000}],"obsTime":1775851200},"SBGW":{"icaoId":"SBGW","flightCategory":"IFR","rawOb":"METAR SBGW 102000Z VRB02KT 4000 HZ SCT006 SCT020 OVC035 19/15 Q1020","temp":19,"dewp":15,"wdir":"VRB","wspd":2,"visib":2.49,"altim":1020,"clouds":[{"cover":"SCT","base":600},{"cover":"SCT","base":2000},{"cover":"OVC","base":3500}],"obsTime":1775851200},"SBJR":{"icaoId":"SBJR","flightCategory":"VFR","rawOb":"METAR SBJR 102000Z 23003KT 9999 FEW017 OVC060 24/21 Q1017","temp":24,"dewp":21,"wdir":230,"wspd":3,"visib":"6+","altim":1017,"clouds":[{"cover":"FEW","base":1700},{"cover":"OVC","base":6000}],"obsTime":1775851200},"SBLS":{"icaoId":"SBLS","flightCategory":"VFR","rawOb":"METAR SBLS 102000Z 10004KT 340V120 9999 FEW035 FEW050TCU 27/20 Q1016","temp":27,"dewp":20,"wdir":100,"wspd":4,"visib":"6+","altim":1016,"clouds":[{"cover":"FEW","base":3500},{"cover":"FEW","base":5000}],"obsTime":1775851200},"SBMT":{"icaoId":"SBMT","flightCategory":"VFR","rawOb":"METAR SBMT 102000Z 07006KT 040V100 9999 SCT018 BKN070 17/15 Q1020","temp":17,"dewp":15,"wdir":70,"wspd":6,"visib":"6+","altim":1020,"clouds":[{"cover":"SCT","base":1800},{"cover":"BKN","base":7000}],"obsTime":1775851200}}}