{"updated":1783691338,"count":88,"data":{"SBSP":{"icaoId":"SBSP","flightCategory":"VFR","rawOb":"METAR SBSP 101200Z 33009KT 290V360 CAVOK 17/10 Q1020","temp":17,"dewp":10,"wdir":330,"wspd":9,"visib":"6+","altim":1020,"clouds":[],"obsTime":1783684800},"SBPA":{"icaoId":"SBPA","flightCategory":"IFR","rawOb":"METAR SBPA 101200Z VRB01KT 4000 BR FEW045 SCT100 14/14 Q1015","temp":14,"dewp":14,"wdir":"VRB","wspd":1,"visib":2.49,"altim":1015,"clouds":[{"cover":"FEW","base":4500},{"cover":"SCT","base":10000}],"obsTime":1783684800},"SBSN":{"icaoId":"SBSN","flightCategory":"VFR","rawOb":"METAR SBSN 101200Z 08009KT 9999 FEW015 SCT023 28/25 Q1014","temp":28,"dewp":25,"wdir":80,"wspd":9,"visib":"6+","altim":1014,"clouds":[{"cover":"FEW","base":1500},{"cover":"SCT","base":2300}],"obsTime":1783684800},"SBMG":{"icaoId":"SBMG","flightCategory":"VFR","rawOb":"METAR SBMG 101200Z 02006KT CAVOK 19/12 Q1017","temp":19,"dewp":12,"wdir":20,"wspd":6,"visib":"6+","altim":1017,"clouds":[],"obsTime":1783684800},"SBIL":{"icaoId":"SBIL","flightCategory":"VFR","rawOb":"METAR SBIL 101200Z 30004KT 9999 FEW020 SCT070 23/21 Q1019","temp":23,"dewp":21,"wdir":300,"wspd":4,"visib":"6+","altim":1019,"clouds":[{"cover":"FEW","base":2000},{"cover":"SCT","base":7000}],"obsTime":1783684800},"SBJU":{"icaoId":"SBJU","flightCategory":"MVFR","rawOb":"METAR SBJU 101200Z 00000KT 9999 BKN020 24/22 Q1019","temp":24,"dewp":22,"wdir":0,"wspd":0,"visib":"6+","altim":1019,"clouds":[{"cover":"BKN","base":2000}],"obsTime":1783684800},"SBAT":{"icaoId":"SBAT","flightCategory":"VFR","rawOb":"METAR SBAT 101200Z 04001KT 9999 FEW040 28/22 Q1015","temp":28,"dewp":22,"wdir":40,"wspd":1,"visib":"6+","altim":1015,"clouds":[{"cover":"FEW","base":4000}],"obsTime":1783684800},"SBHT":{"icaoId":"SBHT","flightCategory":"MVFR","rawOb":"METAR SBHT 101200Z 10005KT 9999 BKN015 28/25 Q1014","temp":28,"dewp":25,"wdir":100,"wspd":5,"visib":"6+","altim":1014,"clouds":[{"cover":"BKN","base":1500}],"obsTime":1783684800},"SBRB":{"icaoId":"SBRB","flightCategory":"VFR","rawOb":"METAR SBRB 101200Z 00000KT CAVOK 24/22 Q1014","temp":24,"dewp":22,"wdir":0,"wspd":0,"visib":"6+","altim":1014,"clouds":[],"obsTime":1783684800},"SBME":{"icaoId":"SBME","flightCategory":"VFR","rawOb":"METAR SBME 101200Z 03007KT 350V050 CAVOK 20/16 Q1016","temp":20,"dewp":16,"wdir":30,"wspd":7,"visib":"6+","altim":1016,"clouds":[],"obsTime":1783684800},"SBCF":{"icaoId":"SBCF","flightCategory":"VFR","rawOb":"METAR SBCF 101200Z 19002KT CAVOK 17/14 Q1022","temp":17,"dewp":14,"wdir":190,"wspd":2,"visib":"6+","altim":1022,"clouds":[],"obsTime":1783684800},"SBMK":{"icaoId":"SBMK","flightCategory":"VFR","rawOb":"METAR SBMK 101200Z 09004KT CAVOK 21/15 Q1021","temp":21,"dewp":15,"wdir":90,"wspd":4,"visib":"6+","altim":1021,"clouds":[],"obsTime":1783684800},"SBUL":{"icaoId":"SBUL","flightCategory":"VFR","rawOb":"METAR SBUL 101200Z 09007KT CAVOK 21/09 Q1022","temp":21,"dewp":9,"wdir":90,"wspd":7,"visib":"6+","altim":1022,"clouds":[],"obsTime":1783684800},"SBKP":{"icaoId":"SBKP","flightCategory":"MVFR","rawOb":"METAR SBKP 101200Z 06003KT 7000 NSC 16/10 Q1020","temp":16,"dewp":10,"wdir":60,"wspd":3,"visib":4.35,"altim":1020,"clouds":[],"obsTime":1783684800},"SBUR":{"icaoId":"SBUR","flightCategory":"VFR","rawOb":"METAR SBUR 101200Z 03007KT 9000 NSC 19/09 Q1021","temp":19,"dewp":9,"wdir":30,"wspd":7,"visib":5.59,"altim":1021,"clouds":[],"obsTime":1783684800},"SBRF":{"icaoId":"SBRF","flightCategory":"VFR","rawOb":"METAR SBRF 101200Z 19006KT 9999 SCT018 SCT040 27/24 Q1017","temp":27,"dewp":24,"wdir":190,"wspd":6,"visib":"6+","altim":1017,"clouds":[{"cover":"SCT","base":1800},{"cover":"SCT","base":4000}],"obsTime":1783684800},"SBNT":{"icaoId":"SBNT","flightCategory":"VFR","rawOb":"METAR SBNT 101200Z 16011KT 9999 SCT015 27/23 Q1016","temp":27,"dewp":23,"wdir":160,"wspd":11,"visib":"6+","altim":1016,"clouds":[{"cover":"SCT","base":1500}],"obsTime":1783684800},"SBSV":{"icaoId":"SBSV","flightCategory":"VFR","rawOb":"METAR SBSV 101200Z 12005KT 9999 SCT023 27/20 Q1019","temp":27,"dewp":20,"wdir":120,"wspd":5,"visib":"6+","altim":1019,"clouds":[{"cover":"SCT","base":2300}],"obsTime":1783684800},"SBPV":{"icaoId":"SBPV","flightCategory":"VFR","rawOb":"METAR SBPV 101200Z 14001KT CAVOK 25/22 Q1013","temp":25,"dewp":22,"wdir":140,"wspd":1,"visib":"6+","altim":1013,"clouds":[],"obsTime":1783684800},"SBFZ":{"icaoId":"SBFZ","flightCategory":"MVFR","rawOb":"METAR SBFZ 101200Z 14011KT 9999 FEW015 BKN020 28/23 Q1015","temp":28,"dewp":23,"wdir":140,"wspd":11,"visib":"6+","altim":1015,"clouds":[{"cover":"FEW","base":1500},{"cover":"BKN","base":2000}],"obsTime":1783684800},"SBSL":{"icaoId":"SBSL","flightCategory":"VFR","rawOb":"METAR SBSL 101200Z 08012KT 9999 FEW020 28/24 Q1014","temp":28,"dewp":24,"wdir":80,"wspd":12,"visib":"6+","altim":1014,"clouds":[{"cover":"FEW","base":2000}],"obsTime":1783684800},"SBCZ":{"icaoId":"SBCZ","flightCategory":"MVFR","rawOb":"METAR SBCZ 101200Z 22004KT 5000 BR NSC 24/23 Q1014","temp":24,"dewp":23,"wdir":220,"wspd":4,"visib":3.11,"altim":1014,"clouds":[],"obsTime":1783684800},"SBTE":{"icaoId":"SBTE","flightCategory":"VFR","rawOb":"METAR SBTE 101200Z 10004KT 030V160 CAVOK 29/21 Q1014","temp":29,"dewp":21,"wdir":100,"wspd":4,"visib":"6+","altim":1014,"clouds":[],"obsTime":1783684800},"SBBR":{"icaoId":"SBBR","flightCategory":"VFR","rawOb":"METAR SBBR 101200Z VRB02KT CAVOK 21/12 Q1023","temp":21,"dewp":12,"wdir":"VRB","wspd":2,"visib":"6+","altim":1023,"clouds":[],"obsTime":1783684800},"SBEG":{"icaoId":"SBEG","flightCategory":"VFR","rawOb":"METAR SBEG 101200Z 09007KT CAVOK 29/23 Q1014","temp":29,"dewp":23,"wdir":90,"wspd":7,"visib":"6+","altim":1014,"clouds":[],"obsTime":1783684800},"SBVT":{"icaoId":"SBVT","flightCategory":"VFR","rawOb":"METAR SBVT 101200Z 36007KT CAVOK 22/18 Q1018","temp":22,"dewp":18,"wdir":360,"wspd":7,"visib":"6+","altim":1018,"clouds":[],"obsTime":1783684800},"SBMA":{"icaoId":"SBMA","flightCategory":"VFR","rawOb":"METAR SBMA 101200Z 01008KT 9999 SCT020 28/23 Q1014","temp":28,"dewp":23,"wdir":10,"wspd":8,"visib":"6+","altim":1014,"clouds":[{"cover":"SCT","base":2000}],"obsTime":1783684800},"SBGL":{"icaoId":"SBGL","flightCategory":"VFR","rawOb":"METAR SBGL 101200Z VRB02KT 9000 NSC 19/16 Q1016","temp":19,"dewp":16,"wdir":"VRB","wspd":2,"visib":5.59,"altim":1016,"clouds":[],"obsTime":1783684800},"SBMQ":{"icaoId":"SBMQ","flightCategory":"MVFR","rawOb":"METAR SBMQ 101200Z 06013KT 9999 BKN017 30/25 Q1014","temp":30,"dewp":25,"wdir":60,"wspd":13,"visib":"6+","altim":1014,"clouds":[{"cover":"BKN","base":1700}],"obsTime":1783684800},"SBCT":{"icaoId":"SBCT","flightCategory":"VFR","rawOb":"METAR SBCT 101200Z VRB02KT 9999 FEW020 14/09 Q1019","temp":14,"dewp":9,"wdir":"VRB","wspd":2,"visib":"6+","altim":1019,"clouds":[{"cover":"FEW","base":2000}],"obsTime":1783684800},"SBBE":{"icaoId":"SBBE","flightCategory":"VFR","rawOb":"METAR SBBE 101200Z 06012KT 9999 FEW020 28/24 Q1014","temp":28,"dewp":24,"wdir":60,"wspd":12,"visib":"6+","altim":1014,"clouds":[{"cover":"FEW","base":2000}],"obsTime":1783684800},"SBSG":{"icaoId":"SBSG","flightCategory":"MVFR","rawOb":"METAR SBSG 101200Z 16007KT 120V190 9999 FEW013 BKN015 26/24 Q1017","temp":26,"dewp":24,"wdir":160,"wspd":7,"visib":"6+","altim":1017,"clouds":[{"cover":"FEW","base":1300},{"cover":"BKN","base":1500}],"obsTime":1783684800},"SBLO":{"icaoId":"SBLO","flightCategory":"VFR","rawOb":"METAR SBLO 101200Z 20002KT CAVOK 15/11 Q1019","temp":15,"dewp":11,"wdir":200,"wspd":2,"visib":"6+","altim":1019,"clouds":[],"obsTime":1783684800},"SBFL":{"icaoId":"SBFL","flightCategory":"VFR","rawOb":"METAR SBFL 101200Z VRB02KT 9999 FEW020 BKN100 15/13 Q1015","temp":15,"dewp":13,"wdir":"VRB","wspd":2,"visib":"6+","altim":1015,"clouds":[{"cover":"FEW","base":2000},{"cover":"BKN","base":10000}],"obsTime":1783684800},"SBGO":{"icaoId":"SBGO","flightCategory":"VFR","rawOb":"METAR SBGO 101200Z 14007KT CAVOK 21/14 Q1021","temp":21,"dewp":14,"wdir":140,"wspd":7,"visib":"6+","altim":1021,"clouds":[],"obsTime":1783684800},"SBMO":{"icaoId":"SBMO","flightCategory":"MVFR","rawOb":"METAR SBMO 101200Z 17007KT 9999 BKN025 26/22 Q1018","temp":26,"dewp":22,"wdir":170,"wspd":7,"visib":"6+","altim":1018,"clouds":[{"cover":"BKN","base":2500}],"obsTime":1783684800},"SBBV":{"icaoId":"SBBV","flightCategory":"VFR","rawOb":"METAR SBBV 101200Z 07009KT CAVOK 28/24 Q1014","temp":28,"dewp":24,"wdir":70,"wspd":9,"visib":"6+","altim":1014,"clouds":[],"obsTime":1783684800},"SBCP":{"icaoId":"SBCP","flightCategory":"VFR","rawOb":"METAR SBCP 101200Z 02013KT CAVOK 22/16 Q1017","temp":22,"dewp":16,"wdir":20,"wspd":13,"visib":"6+","altim":1017,"clouds":[],"obsTime":1783684800},"SBCB":{"icaoId":"SBCB","flightCategory":"VFR","rawOb":"METAR SBCB 101200Z 08006KT CAVOK 21/17 Q1016","temp":21,"dewp":17,"wdir":80,"wspd":6,"visib":"6+","altim":1016,"clouds":[],"obsTime":1783684800},"SBCR":{"icaoId":"SBCR","flightCategory":"VFR","rawOb":"METAR SBCR 101200Z VRB01KT CAVOK 26/20 Q1015","temp":26,"dewp":20,"wdir":"VRB","wspd":1,"visib":"6+","altim":1015,"clouds":[],"obsTime":1783684800},"SBFI":{"icaoId":"SBFI","flightCategory":"VFR","rawOb":"METAR SBFI 101200Z 05003KT 9999 SCT030 FEW040TCU SCT070 18/17 Q1015 RETS","temp":18,"dewp":17,"wdir":50,"wspd":3,"visib":"6+","altim":1015,"clouds":[{"cover":"SCT","base":3000},{"cover":"FEW","base":4000},{"cover":"SCT","base":7000}],"obsTime":1783684800},"SBPJ":{"icaoId":"SBPJ","flightCategory":"VFR","rawOb":"METAR SBPJ 101200Z VRB02KT CAVOK 28/20 Q1016","temp":28,"dewp":20,"wdir":"VRB","wspd":2,"visib":"6+","altim":1016,"clouds":[],"obsTime":1783684800},"SBCG":{"icaoId":"SBCG","flightCategory":"VFR","rawOb":"METAR SBCG 101200Z 05012KT CAVOK 24/15 Q1017","temp":24,"dewp":15,"wdir":50,"wspd":12,"visib":"6+","altim":1017,"clouds":[],"obsTime":1783684800},"SBGR":{"icaoId":"SBGR","flightCategory":"MVFR","rawOb":"METAR SBGR 101200Z 13001KT 8000 NSC 18/13 Q1020","temp":18,"dewp":13,"wdir":130,"wspd":1,"visib":4.97,"altim":1020,"clouds":[],"obsTime":1783684800},"SBOI":{"icaoId":"SBOI","flightCategory":"VFR","rawOb":"METAR SBOI 101200Z AUTO VRB02KT CAVOK 28/25 Q1014","temp":28,"dewp":25,"wdir":"VRB","wspd":2,"visib":"6+","altim":1014,"clouds":[],"obsTime":1783684800},"SBTU":{"icaoId":"SBTU","flightCategory":"IFR","rawOb":"METAR SBTU 101200Z AUTO 23009KT 9999 // BKN006/// 25/24 Q1016","temp":25,"dewp":24,"wdir":230,"wspd":9,"visib":"6+","altim":1016,"clouds":[{"cover":"BKN","base":600}],"obsTime":1783684800},"SBBU":{"icaoId":"SBBU","flightCategory":"VFR","rawOb":"METAR SBBU 101200Z 06004KT CAVOK 19/13 Q1020","temp":19,"dewp":13,"wdir":60,"wspd":4,"visib":"6+","altim":1020,"clouds":[],"obsTime":1783684800},"SBDN":{"icaoId":"SBDN","flightCategory":"VFR","rawOb":"METAR SBDN 101200Z 05004KT CAVOK 20/12 Q1018","temp":20,"dewp":12,"wdir":50,"wspd":4,"visib":"6+","altim":1018,"clouds":[],"obsTime":1783684800},"SBES":{"icaoId":"SBES","flightCategory":"VFR","rawOb":"METAR SBES 101200Z 05009KT 010V080 9999 FEW020 20/// Q1016","temp":null,"dewp":null,"wdir":50,"wspd":9,"visib":"6+","altim":1016,"clouds":[{"cover":"FEW","base":2000}],"obsTime":1783684800},"SBIP":{"icaoId":"SBIP","flightCategory":"VFR","rawOb":"METAR SBIP 101200Z AUTO VRB01KT 9999 FEW018 OVC031 19/17 Q1021","temp":19,"dewp":17,"wdir":"VRB","wspd":1,"visib":"6+","altim":1021,"clouds":[{"cover":"FEW","base":1800},{"cover":"OVC","base":3100}],"obsTime":1783684800},"SBSC":{"icaoId":"SBSC","flightCategory":"VFR","rawOb":"METAR SBSC 101200Z 35006KT CAVOK 21/16 Q1016","temp":21,"dewp":16,"wdir":350,"wspd":6,"visib":"6+","altim":1016,"clouds":[],"obsTime":1783684800},"SBTF":{"icaoId":"SBTF","flightCategory":"VFR","rawOb":"METAR SBTF 101200Z 00000KT 9999 SCT015 SCT080 24/24 Q1013","temp":24,"dewp":24,"wdir":0,"wspd":0,"visib":"6+","altim":1013,"clouds":[{"cover":"SCT","base":1500},{"cover":"SCT","base":8000}],"obsTime":1783684800},"SBSR":{"icaoId":"SBSR","flightCategory":"VFR","rawOb":"METAR SBSR 101200Z 04003KT CAVOK 19/09 Q1020","temp":19,"dewp":9,"wdir":40,"wspd":3,"visib":"6+","altim":1020,"clouds":[],"obsTime":1783684800},"SBUY":{"icaoId":"SBUY","flightCategory":"MVFR","rawOb":"METAR SBUY 101200Z 34001KT 8000 FEW025 24/24 Q1012","temp":24,"dewp":24,"wdir":340,"wspd":1,"visib":4.97,"altim":1012,"clouds":[{"cover":"FEW","base":2500}],"obsTime":1783684800},"SBPS":{"icaoId":"SBPS","flightCategory":"VFR","rawOb":"METAR SBPS 101200Z 25004KT 210V290 9999 SCT020 24/21 Q1019","temp":24,"dewp":21,"wdir":250,"wspd":4,"visib":"6+","altim":1019,"clouds":[{"cover":"SCT","base":2000}],"obsTime":1783684800},"SBAR":{"icaoId":"SBAR","flightCategory":"VFR","rawOb":"METAR SBAR 101200Z 12008KT 9999 SCT026 27/21 Q1018","temp":27,"dewp":21,"wdir":120,"wspd":8,"visib":"6+","altim":1018,"clouds":[{"cover":"SCT","base":2600}],"obsTime":1783684800},"SBCA":{"icaoId":"SBCA","flightCategory":"VFR","rawOb":"METAR SBCA 101200Z 02012KT CAVOK 17/12 Q1018","temp":17,"dewp":12,"wdir":20,"wspd":12,"visib":"6+","altim":1018,"clouds":[],"obsTime":1783684800},"SBSJ":{"icaoId":"SBSJ","flightCategory":"LIFR","rawOb":"METAR SBSJ 101200Z 19002KT 0200 R34/0275 R16/0400 FG VV002 12/12 Q1020","temp":12,"dewp":12,"wdir":190,"wspd":2,"visib":0.12,"altim":1020,"clouds":[{"cover":"OVX","base":200}],"obsTime":1783684800},"SBCO":{"icaoId":"SBCO","flightCategory":"IFR","rawOb":"METAR SBCO 101200Z VRB01KT 3000 BR FEW045 BKN080 14/14 Q1016","temp":14,"dewp":14,"wdir":"VRB","wspd":1,"visib":1.86,"altim":1016,"clouds":[{"cover":"FEW","base":4500},{"cover":"BKN","base":8000}],"obsTime":1783684800},"SBSM":{"icaoId":"SBSM","flightCategory":"VFR","rawOb":"METAR SBSM 101200Z 14002KT 9999 FEW004 BKN070 14/14 Q1015","temp":14,"dewp":14,"wdir":140,"wspd":2,"visib":"6+","altim":1015,"clouds":[{"cover":"FEW","base":400},{"cover":"BKN","base":7000}],"obsTime":1783684800},"SBKG":{"icaoId":"SBKG","flightCategory":"VFR","rawOb":"METAR SBKG 101200Z 14008KT 9999 FEW010 SCT015 23/20 Q1020","temp":23,"dewp":20,"wdir":140,"wspd":8,"visib":"6+","altim":1020,"clouds":[{"cover":"FEW","base":1000},{"cover":"SCT","base":1500}],"obsTime":1783684800},"SBCJ":{"icaoId":"SBCJ","flightCategory":"VFR","rawOb":"METAR SBCJ 101200Z 00000KT CAVOK 26/21 Q1018","temp":26,"dewp":21,"wdir":0,"wspd":0,"visib":"6+","altim":1018,"clouds":[],"obsTime":1783684800},"SBCC":{"icaoId":"SBCC","flightCategory":"VFR","rawOb":"METAR SBCC 101200Z 04004KT 9999 FEW040 28/19 Q1016","temp":28,"dewp":19,"wdir":40,"wspd":4,"visib":"6+","altim":1016,"clouds":[{"cover":"FEW","base":4000}],"obsTime":1783684800},"SBGM":{"icaoId":"SBGM","flightCategory":"VFR","rawOb":"METAR SBGM 101200Z 08002KT CAVOK 23/22 Q1014","temp":23,"dewp":22,"wdir":80,"wspd":2,"visib":"6+","altim":1014,"clouds":[],"obsTime":1783684800},"SBPL":{"icaoId":"SBPL","flightCategory":"VFR","rawOb":"METAR SBPL 101200Z 10012KT 9999 FEW025 25/17 Q1019","temp":25,"dewp":17,"wdir":100,"wspd":12,"visib":"6+","altim":1019,"clouds":[{"cover":"FEW","base":2500}],"obsTime":1783684800},"SBTD":{"icaoId":"SBTD","flightCategory":"VFR","rawOb":"METAR SBTD 101200Z /////KT 9999 VCSH FEW045 FEW050TCU SCT080 20/13 Q1017","temp":20,"dewp":13,"wdir":null,"wspd":null,"visib":"6+","altim":1017,"clouds":[{"cover":"FEW","base":4500},{"cover":"FEW","base":5000},{"cover":"SCT","base":8000}],"obsTime":1783684800},"SBPB":{"icaoId":"SBPB","flightCategory":"VFR","rawOb":"METAR SBPB 101200Z 09015KT 9999 FEW020 29/22 Q1014","temp":29,"dewp":22,"wdir":90,"wspd":15,"visib":"6+","altim":1014,"clouds":[{"cover":"FEW","base":2000}],"obsTime":1783684800},"SBVH":{"icaoId":"SBVH","flightCategory":"VFR","rawOb":"METAR SBVH 101200Z 21004KT CAVOK 24/18 Q1018","temp":24,"dewp":18,"wdir":210,"wspd":4,"visib":"6+","altim":1018,"clouds":[],"obsTime":1783684800},"SBTT":{"icaoId":"SBTT","flightCategory":"MVFR","rawOb":"METAR SBTT 101200Z 33002KT 6000 SCT003 SCT013 BKN070 24/23 Q1014","temp":24,"dewp":23,"wdir":330,"wspd":2,"visib":3.73,"altim":1014,"clouds":[{"cover":"SCT","base":300},{"cover":"SCT","base":1300},{"cover":"BKN","base":7000}],"obsTime":1783684800},"SBAU":{"icaoId":"SBAU","flightCategory":"VFR","rawOb":"METAR SBAU 101300Z 08008KT CAVOK 23/13 Q1019","temp":23,"dewp":13,"wdir":80,"wspd":8,"visib":"6+","altim":1019,"clouds":[],"obsTime":1783688400},"SBAX":{"icaoId":"SBAX","flightCategory":"VFR","rawOb":"METAR SBAX 101200Z 05002KT CAVOK 18/12 Q1023","temp":18,"dewp":12,"wdir":50,"wspd":2,"visib":"6+","altim":1023,"clouds":[],"obsTime":1783684800},"SBBQ":{"icaoId":"SBBQ","flightCategory":"MVFR","rawOb":"METAR SBBQ 101200Z 19002KT 6000 NSC 14/12 Q1024","temp":14,"dewp":12,"wdir":190,"wspd":2,"visib":3.73,"altim":1024,"clouds":[],"obsTime":1783684800},"SBBH":{"icaoId":"SBBH","flightCategory":"VFR","rawOb":"METAR SBBH 101200Z 12004KT CAVOK 18/13 Q1022","temp":18,"dewp":13,"wdir":120,"wspd":4,"visib":"6+","altim":1022,"clouds":[],"obsTime":1783684800},"SBPP":{"icaoId":"SBPP","flightCategory":"VFR","rawOb":"METAR SBPP 101200Z 03005KT CAVOK 19/16 Q1017","temp":19,"dewp":16,"wdir":30,"wspd":5,"visib":"6+","altim":1017,"clouds":[],"obsTime":1783684800},"SBLE":{"icaoId":"SBLE","flightCategory":"MVFR","rawOb":"METAR SBLE 101200Z AUTO 09005KT 060V120 9999 BKN023 ///// Q1022","temp":null,"dewp":null,"wdir":90,"wspd":5,"visib":"6+","altim":1022,"clouds":[{"cover":"BKN","base":2300}],"obsTime":1783684800},"SBJV":{"icaoId":"SBJV","flightCategory":"LIFR","rawOb":"METAR SBJV 101200Z 32002KT 0400 R33/0450 FG BKN001 13/13 Q1015","temp":13,"dewp":13,"wdir":320,"wspd":2,"visib":0.25,"altim":1015,"clouds":[{"cover":"BKN","base":100}],"obsTime":1783684800},"SBNM":{"icaoId":"SBNM","flightCategory":"VFR","rawOb":"METAR SBNM 101200Z AUTO 05003KT 360V110 CAVOK 15/13 Q1015","temp":15,"dewp":13,"wdir":50,"wspd":3,"visib":"6+","altim":1015,"clouds":[],"obsTime":1783684800},"SBPF":{"icaoId":"SBPF","flightCategory":"VFR","rawOb":"METAR SBPF 101200Z 03005KT CAVOK 14/10 Q1017","temp":14,"dewp":10,"wdir":30,"wspd":5,"visib":"6+","altim":1017,"clouds":[],"obsTime":1783684800},"SBIH":{"icaoId":"SBIH","flightCategory":"VFR","rawOb":"METAR SBIH 101200Z 03002KT CAVOK 29/25 Q1013","temp":29,"dewp":25,"wdir":30,"wspd":2,"visib":"6+","altim":1013,"clouds":[],"obsTime":1783684800},"SBAN":{"icaoId":"SBAN","flightCategory":"VFR","rawOb":"METAR SBAN 101200Z 08006KT CAVOK 22/12 Q1023","temp":22,"dewp":12,"wdir":80,"wspd":6,"visib":"6+","altim":1023,"clouds":[],"obsTime":1783684800},"SBAF":{"icaoId":"SBAF","flightCategory":"VFR","rawOb":"METAR SBAF 101200Z 06002KT CAVOK 20/20 Q1017","temp":20,"dewp":20,"wdir":60,"wspd":2,"visib":"6+","altim":1017,"clouds":[],"obsTime":1783684800},"SBGW":{"icaoId":"SBGW","flightCategory":"LIFR","rawOb":"METAR SBGW 101200Z 36002KT 0200 FG VV002 13/09 Q1020","temp":13,"dewp":9,"wdir":360,"wspd":2,"visib":0.12,"altim":1020,"clouds":[{"cover":"OVX","base":200}],"obsTime":1783684800},"SBJR":{"icaoId":"SBJR","flightCategory":"VFR","rawOb":"METAR SBJR 101200Z 35004KT CAVOK 23/18 Q1016","temp":23,"dewp":18,"wdir":350,"wspd":4,"visib":"6+","altim":1016,"clouds":[],"obsTime":1783684800},"SBLS":{"icaoId":"SBLS","flightCategory":"VFR","rawOb":"METAR SBLS 101200Z VRB02KT CAVOK 18/14 Q1022","temp":18,"dewp":14,"wdir":"VRB","wspd":2,"visib":"6+","altim":1022,"clouds":[],"obsTime":1783684800},"SBMT":{"icaoId":"SBMT","flightCategory":"VFR","rawOb":"METAR SBMT 101200Z 27002KT CAVOK 17/09 Q1019","temp":17,"dewp":9,"wdir":270,"wspd":2,"visib":"6+","altim":1019,"clouds":[],"obsTime":1783684800},"SBST":{"icaoId":"SBST","flightCategory":"VFR","rawOb":"METAR SBST 101200Z 19003KT CAVOK 17/16 Q1014","temp":17,"dewp":16,"wdir":190,"wspd":3,"visib":"6+","altim":1014,"clouds":[],"obsTime":1783684800},"SBTA":{"icaoId":"SBTA","flightCategory":"IFR","rawOb":"METAR SBTA 101200Z 00000KT 3000 BR SCT004 13/12 Q1019","temp":13,"dewp":12,"wdir":0,"wspd":0,"visib":1.86,"altim":1019,"clouds":[{"cover":"SCT","base":400}],"obsTime":1783684800},"SBJP":{"icaoId":"SBJP","flightCategory":"MVFR","rawOb":"METAR SBJP 101200Z 14012KT 9999 BKN020 27/23 Q1017","temp":27,"dewp":23,"wdir":140,"wspd":12,"visib":"6+","altim":1017,"clouds":[{"cover":"BKN","base":2000}],"obsTime":1783684800}}}