{"updated":1776792694,"count":85,"data":{"SBCR":{"icaoId":"SBCR","flightCategory":"VFR","rawOb":"METAR SBCR 211600Z 02005KT 340V070 9999 BKN040 FEW045TCU 32/24 Q1011","temp":32,"dewp":24,"wdir":20,"wspd":5,"visib":"6+","altim":1011,"clouds":[{"cover":"BKN","base":4000},{"cover":"FEW","base":4500}],"obsTime":1776787200},"SBAT":{"icaoId":"SBAT","flightCategory":"VFR","rawOb":"METAR SBAT 211600Z 02001KT 9999 SCT025 BKN100 30/25 Q1013","temp":30,"dewp":25,"wdir":20,"wspd":1,"visib":"6+","altim":1013,"clouds":[{"cover":"SCT","base":2500},{"cover":"BKN","base":10000}],"obsTime":1776787200},"SBBE":{"icaoId":"SBBE","flightCategory":"MVFR","rawOb":"METAR SBBE 211600Z 31006KT 9999 VCSH BKN025 FEW030TCU BKN100 29/25 Q1011","temp":29,"dewp":25,"wdir":310,"wspd":6,"visib":"6+","altim":1011,"clouds":[{"cover":"BKN","base":2500},{"cover":"FEW","base":3000},{"cover":"BKN","base":10000}],"obsTime":1776787200},"SBBR":{"icaoId":"SBBR","flightCategory":"VFR","rawOb":"METAR SBBR 211600Z 08004KT 030V140 9999 SCT045 28/15 Q1019","temp":28,"dewp":15,"wdir":80,"wspd":4,"visib":"6+","altim":1019,"clouds":[{"cover":"SCT","base":4500}],"obsTime":1776787200},"SBVT":{"icaoId":"SBVT","flightCategory":"VFR","rawOb":"METAR SBVT 211600Z 16014KT 9999 FEW040 27/21 Q1015","temp":27,"dewp":21,"wdir":160,"wspd":14,"visib":"6+","altim":1015,"clouds":[{"cover":"FEW","base":4000}],"obsTime":1776787200},"SBBV":{"icaoId":"SBBV","flightCategory":"MVFR","rawOb":"METAR SBBV 211600Z 07010KT 9999 BKN025 32/21 Q1012","temp":32,"dewp":21,"wdir":70,"wspd":10,"visib":"6+","altim":1012,"clouds":[{"cover":"BKN","base":2500}],"obsTime":1776787200},"SBCB":{"icaoId":"SBCB","flightCategory":"VFR","rawOb":"METAR SBCB 211600Z 22010KT 9999 FEW020 26/19 Q1016","temp":26,"dewp":19,"wdir":220,"wspd":10,"visib":"6+","altim":1016,"clouds":[{"cover":"FEW","base":2000}],"obsTime":1776787200},"SBCF":{"icaoId":"SBCF","flightCategory":"VFR","rawOb":"METAR SBCF 211600Z 10005KT 9999 SCT038 26/17 Q1019","temp":26,"dewp":17,"wdir":100,"wspd":5,"visib":"6+","altim":1019,"clouds":[{"cover":"SCT","base":3800}],"obsTime":1776787200},"SBCG":{"icaoId":"SBCG","flightCategory":"VFR","rawOb":"METAR SBCG 211600Z 06009KT 9999 FEW040 BKN090 29/20 Q1015","temp":29,"dewp":20,"wdir":60,"wspd":9,"visib":"6+","altim":1015,"clouds":[{"cover":"FEW","base":4000},{"cover":"BKN","base":9000}],"obsTime":1776787200},"SBCP":{"icaoId":"SBCP","flightCategory":"MVFR","rawOb":"METAR SBCP 211600Z 26005KT 9999 BKN020 29/19 Q1015","temp":29,"dewp":19,"wdir":260,"wspd":5,"visib":"6+","altim":1015,"clouds":[{"cover":"BKN","base":2000}],"obsTime":1776787200},"SBCT":{"icaoId":"SBCT","flightCategory":"VFR","rawOb":"METAR SBCT 211600Z 04006KT 360V070 9999 SCT030 22/13 Q1021","temp":22,"dewp":13,"wdir":40,"wspd":6,"visib":"6+","altim":1021,"clouds":[{"cover":"SCT","base":3000}],"obsTime":1776787200},"SBCZ":{"icaoId":"SBCZ","flightCategory":"MVFR","rawOb":"METAR SBCZ 211600Z 01006KT 9999 BKN016 BKN090 27/23 Q1014","temp":27,"dewp":23,"wdir":10,"wspd":6,"visib":"6+","altim":1014,"clouds":[{"cover":"BKN","base":1600},{"cover":"BKN","base":9000}],"obsTime":1776787200},"SBEG":{"icaoId":"SBEG","flightCategory":"VFR","rawOb":"METAR SBEG 211600Z 04007KT 350V080 9999 SCT020 SCT100 29/24 Q1013","temp":29,"dewp":24,"wdir":40,"wspd":7,"visib":"6+","altim":1013,"clouds":[{"cover":"SCT","base":2000},{"cover":"SCT","base":10000}],"obsTime":1776787200},"SBFI":{"icaoId":"SBFI","flightCategory":"VFR","rawOb":"METAR SBFI 211600Z 31004KT 9999 SCT030 FEW040TCU BKN100 28/23 Q1015","temp":28,"dewp":23,"wdir":310,"wspd":4,"visib":"6+","altim":1015,"clouds":[{"cover":"SCT","base":3000},{"cover":"FEW","base":4000},{"cover":"BKN","base":10000}],"obsTime":1776787200},"SBFL":{"icaoId":"SBFL","flightCategory":"VFR","rawOb":"METAR SBFL 211600Z 35009KT CAVOK 26/19 Q1017","temp":26,"dewp":19,"wdir":350,"wspd":9,"visib":"6+","altim":1017,"clouds":[],"obsTime":1776787200},"SBFZ":{"icaoId":"SBFZ","flightCategory":"VFR","rawOb":"METAR SBFZ 211600Z 19004KT 9999 FEW005 OVC100 27/24 Q1010","temp":27,"dewp":24,"wdir":190,"wspd":4,"visib":"6+","altim":1010,"clouds":[{"cover":"FEW","base":500},{"cover":"OVC","base":10000}],"obsTime":1776787200},"SBGL":{"icaoId":"SBGL","flightCategory":"VFR","rawOb":"METAR SBGL 211600Z 12010KT 9999 SCT027 28/18 Q1016","temp":28,"dewp":18,"wdir":120,"wspd":10,"visib":"6+","altim":1016,"clouds":[{"cover":"SCT","base":2700}],"obsTime":1776787200},"SBGO":{"icaoId":"SBGO","flightCategory":"VFR","rawOb":"METAR SBGO 211600Z 32007KT 280V360 9999 SCT045 FEW050TCU 31/19 Q1016","temp":31,"dewp":19,"wdir":320,"wspd":7,"visib":"6+","altim":1016,"clouds":[{"cover":"SCT","base":4500},{"cover":"FEW","base":5000}],"obsTime":1776787200},"SBGR":{"icaoId":"SBGR","flightCategory":"VFR","rawOb":"METAR SBGR 211600Z VRB05KT CAVOK 24/14 Q1019","temp":24,"dewp":14,"wdir":"VRB","wspd":5,"visib":"6+","altim":1019,"clouds":[],"obsTime":1776787200},"SBHT":{"icaoId":"SBHT","flightCategory":"MVFR","rawOb":"METAR SBHT 211600Z 30003KT 9999 BKN020 BKN100 30/24 Q1012","temp":30,"dewp":24,"wdir":300,"wspd":3,"visib":"6+","altim":1012,"clouds":[{"cover":"BKN","base":2000},{"cover":"BKN","base":10000}],"obsTime":1776787200},"SBIL":{"icaoId":"SBIL","flightCategory":"VFR","rawOb":"METAR SBIL 211600Z 18004KT 140V210 9999 FEW025 30/23 Q1014","temp":30,"dewp":23,"wdir":180,"wspd":4,"visib":"6+","altim":1014,"clouds":[{"cover":"FEW","base":2500}],"obsTime":1776787200},"SBJU":{"icaoId":"SBJU","flightCategory":"VFR","rawOb":"METAR SBJU 211600Z 09002KT 9999 SCT021 29/21 Q1013","temp":29,"dewp":21,"wdir":90,"wspd":2,"visib":"6+","altim":1013,"clouds":[{"cover":"SCT","base":2100}],"obsTime":1776787200},"SBKP":{"icaoId":"SBKP","flightCategory":"VFR","rawOb":"METAR SBKP 211600Z VRB04KT 9999 FEW030 28/15 Q1018","temp":28,"dewp":15,"wdir":"VRB","wspd":4,"visib":"6+","altim":1018,"clouds":[{"cover":"FEW","base":3000}],"obsTime":1776787200},"SBLO":{"icaoId":"SBLO","flightCategory":"VFR","rawOb":"METAR SBLO 211600Z 14007KT CAVOK 26/13 Q1017","temp":26,"dewp":13,"wdir":140,"wspd":7,"visib":"6+","altim":1017,"clouds":[],"obsTime":1776787200},"SBMA":{"icaoId":"SBMA","flightCategory":"MVFR","rawOb":"METAR SBMA 211600Z 30004KT 5000 -RA BR FEW008 SCT012 OVC080 24/23 Q1014","temp":24,"dewp":23,"wdir":300,"wspd":4,"visib":3.11,"altim":1014,"clouds":[{"cover":"FEW","base":800},{"cover":"SCT","base":1200},{"cover":"OVC","base":8000}],"obsTime":1776787200},"SBME":{"icaoId":"SBME","flightCategory":"VFR","rawOb":"METAR SBME 211600Z 14006KT 9999 SCT025 29/19 Q1016","temp":29,"dewp":19,"wdir":140,"wspd":6,"visib":"6+","altim":1016,"clouds":[{"cover":"SCT","base":2500}],"obsTime":1776787200},"SBMG":{"icaoId":"SBMG","flightCategory":"VFR","rawOb":"METAR SBMG 211600Z 14008KT 100V170 CAVOK 28/15 Q1016","temp":28,"dewp":15,"wdir":140,"wspd":8,"visib":"6+","altim":1016,"clouds":[],"obsTime":1776787200},"SBMK":{"icaoId":"SBMK","flightCategory":"VFR","rawOb":"METAR SBMK 211600Z 10006KT 9999 SCT046 28/17 Q1017","temp":28,"dewp":17,"wdir":100,"wspd":6,"visib":"6+","altim":1017,"clouds":[{"cover":"SCT","base":4600}],"obsTime":1776787200},"SBMO":{"icaoId":"SBMO","flightCategory":"MVFR","rawOb":"METAR SBMO 211600Z 14003KT 130V190 8000 VCSH BKN016 FEW025TCU OVC040 26/25 Q1012","temp":26,"dewp":25,"wdir":140,"wspd":3,"visib":4.97,"altim":1012,"clouds":[{"cover":"BKN","base":1600},{"cover":"FEW","base":2500},{"cover":"OVC","base":4000}],"obsTime":1776787200},"SBMQ":{"icaoId":"SBMQ","flightCategory":"VFR","rawOb":"METAR SBMQ 211600Z 08003KT 9999 SCT030 FEW040TCU BKN070 30/24 Q1011","temp":30,"dewp":24,"wdir":80,"wspd":3,"visib":"6+","altim":1011,"clouds":[{"cover":"SCT","base":3000},{"cover":"FEW","base":4000},{"cover":"BKN","base":7000}],"obsTime":1776787200},"SBNT":{"icaoId":"SBNT","flightCategory":"MVFR","rawOb":"METAR SBNT 211600Z 10012KT 9999 BKN029 31/24 Q1010","temp":31,"dewp":24,"wdir":100,"wspd":12,"visib":"6+","altim":1010,"clouds":[{"cover":"BKN","base":2900}],"obsTime":1776787200},"SBPA":{"icaoId":"SBPA","flightCategory":"MVFR","rawOb":"METAR SBPA 211600Z VRB02KT 7000 -RA BKN013 BKN040 23/20 Q1015","temp":23,"dewp":20,"wdir":"VRB","wspd":2,"visib":4.35,"altim":1015,"clouds":[{"cover":"BKN","base":1300},{"cover":"BKN","base":4000}],"obsTime":1776787200},"SBPJ":{"icaoId":"SBPJ","flightCategory":"VFR","rawOb":"METAR SBPJ 211600Z 21008KT 9999 -TSRA SCT025 FEW030CB BKN080 27/25 Q1013","temp":27,"dewp":25,"wdir":210,"wspd":8,"visib":"6+","altim":1013,"clouds":[{"cover":"SCT","base":2500},{"cover":"FEW","base":3000},{"cover":"BKN","base":8000}],"obsTime":1776787200},"SBPV":{"icaoId":"SBPV","flightCategory":"VFR","rawOb":"METAR SBPV 211600Z 04002KT 9999 SCT035 30/26 Q1012","temp":30,"dewp":26,"wdir":40,"wspd":2,"visib":"6+","altim":1012,"clouds":[{"cover":"SCT","base":3500}],"obsTime":1776787200},"SBRB":{"icaoId":"SBRB","flightCategory":"MVFR","rawOb":"METAR SBRB 211600Z 32006KT 280V360 6000 -RA BKN015 BKN050 27/24 Q1013","temp":27,"dewp":24,"wdir":320,"wspd":6,"visib":3.73,"altim":1013,"clouds":[{"cover":"BKN","base":1500},{"cover":"BKN","base":5000}],"obsTime":1776787200},"SBRF":{"icaoId":"SBRF","flightCategory":"VFR","rawOb":"METAR SBRF 211600Z 12012KT 9999 SCT025 31/23 Q1011","temp":31,"dewp":23,"wdir":120,"wspd":12,"visib":"6+","altim":1011,"clouds":[{"cover":"SCT","base":2500}],"obsTime":1776787200},"SBSG":{"icaoId":"SBSG","flightCategory":"MVFR","rawOb":"METAR SBSG 211600Z 13007KT 080V180 9999 BKN030 31/24 Q1010","temp":31,"dewp":24,"wdir":130,"wspd":7,"visib":"6+","altim":1010,"clouds":[{"cover":"BKN","base":3000}],"obsTime":1776787200},"SBSL":{"icaoId":"SBSL","flightCategory":"VFR","rawOb":"METAR SBSL 211600Z 32003KT 9999 VCSH SCT023 FEW024TCU BKN080 26/25 Q1011","temp":26,"dewp":25,"wdir":320,"wspd":3,"visib":"6+","altim":1011,"clouds":[{"cover":"SCT","base":2300},{"cover":"FEW","base":2400},{"cover":"BKN","base":8000}],"obsTime":1776787200},"SBSN":{"icaoId":"SBSN","flightCategory":"MVFR","rawOb":"METAR SBSN 211600Z 12003KT 070V140 9999 -RA SCT012 BKN016 FEW025TCU BKN090 27/25 Q1012","temp":27,"dewp":25,"wdir":120,"wspd":3,"visib":"6+","altim":1012,"clouds":[{"cover":"SCT","base":1200},{"cover":"BKN","base":1600},{"cover":"FEW","base":2500},{"cover":"BKN","base":9000}],"obsTime":1776787200},"SBSP":{"icaoId":"SBSP","flightCategory":"VFR","rawOb":"METAR SBSP 211600Z 15006KT 110V190 CAVOK 25/14 Q1020","temp":25,"dewp":14,"wdir":150,"wspd":6,"visib":"6+","altim":1020,"clouds":[],"obsTime":1776787200},"SBSV":{"icaoId":"SBSV","flightCategory":"VFR","rawOb":"METAR SBSV 211600Z 14008KT 080V170 9999 VCSH SCT021 FEW023TCU 29/24 Q1013","temp":29,"dewp":24,"wdir":140,"wspd":8,"visib":"6+","altim":1013,"clouds":[{"cover":"SCT","base":2100},{"cover":"FEW","base":2300}],"obsTime":1776787200},"SBTE":{"icaoId":"SBTE","flightCategory":"VFR","rawOb":"METAR SBTE 211600Z 01003KT 9999 SCT015 BKN100 27/24 Q1011","temp":27,"dewp":24,"wdir":10,"wspd":3,"visib":"6+","altim":1011,"clouds":[{"cover":"SCT","base":1500},{"cover":"BKN","base":10000}],"obsTime":1776787200},"SBUL":{"icaoId":"SBUL","flightCategory":"VFR","rawOb":"METAR SBUL 211600Z 07009KT 020V110 9999 SCT035 29/18 Q1018","temp":29,"dewp":18,"wdir":70,"wspd":9,"visib":"6+","altim":1018,"clouds":[{"cover":"SCT","base":3500}],"obsTime":1776787200},"SBUR":{"icaoId":"SBUR","flightCategory":"VFR","rawOb":"METAR SBUR 211600Z 32007KT 9999 BKN040 29/18 Q1017","temp":29,"dewp":18,"wdir":320,"wspd":7,"visib":"6+","altim":1017,"clouds":[{"cover":"BKN","base":4000}],"obsTime":1776787200},"SBAR":{"icaoId":"SBAR","flightCategory":"IFR","rawOb":"SPECI SBAR 211543Z 16008G18KT 3000 RA BKN009 BKN015 26/22 Q1012","temp":26,"dewp":22,"wdir":160,"wspd":8,"visib":1.86,"altim":1012,"clouds":[{"cover":"BKN","base":900},{"cover":"BKN","base":1500}],"obsTime":1776786180},"SBVH":{"icaoId":"SBVH","flightCategory":"VFR","rawOb":"METAR SBVH 211600Z 03003KT 9999 SCT020 BKN100 27/22 Q1015","temp":27,"dewp":22,"wdir":30,"wspd":3,"visib":"6+","altim":1015,"clouds":[{"cover":"SCT","base":2000},{"cover":"BKN","base":10000}],"obsTime":1776787200},"SBAU":{"icaoId":"SBAU","flightCategory":"VFR","rawOb":"METAR SBAU 211600Z 15006KT CAVOK 30/14 Q1015","temp":30,"dewp":14,"wdir":150,"wspd":6,"visib":"6+","altim":1015,"clouds":[],"obsTime":1776787200},"SBBH":{"icaoId":"SBBH","flightCategory":"VFR","rawOb":"METAR SBBH 211600Z 07004KT 9999 SCT035 27/17 Q1018","temp":27,"dewp":17,"wdir":70,"wspd":4,"visib":"6+","altim":1018,"clouds":[{"cover":"SCT","base":3500}],"obsTime":1776787200},"SBBQ":{"icaoId":"SBBQ","flightCategory":"MVFR","rawOb":"METAR SBBQ 211600Z VRB04KT 9999 BKN020 21/16 Q1022","temp":21,"dewp":16,"wdir":"VRB","wspd":4,"visib":"6+","altim":1022,"clouds":[{"cover":"BKN","base":2000}],"obsTime":1776787200},"SBBU":{"icaoId":"SBBU","flightCategory":"VFR","rawOb":"METAR SBBU 211600Z 13003KT CAVOK 27/16 Q1017","temp":27,"dewp":16,"wdir":130,"wspd":3,"visib":"6+","altim":1017,"clouds":[],"obsTime":1776787200},"SBCA":{"icaoId":"SBCA","flightCategory":"VFR","rawOb":"METAR SBCA 211700Z 33009KT 9999 SCT040 BKN070 24/18 Q1019","temp":24,"dewp":18,"wdir":330,"wspd":9,"visib":"6+","altim":1019,"clouds":[{"cover":"SCT","base":4000},{"cover":"BKN","base":7000}],"obsTime":1776790800},"SBCC":{"icaoId":"SBCC","flightCategory":"VFR","rawOb":"METAR SBCC 211600Z 07005KT 020V140 9999 SCT030 FEW035TCU SCT100 29/22 Q1014","temp":29,"dewp":22,"wdir":70,"wspd":5,"visib":"6+","altim":1014,"clouds":[{"cover":"SCT","base":3000},{"cover":"FEW","base":3500},{"cover":"SCT","base":10000}],"obsTime":1776787200},"SBCJ":{"icaoId":"SBCJ","flightCategory":"MVFR","rawOb":"METAR SBCJ 211600Z 04003KT 5000 BR SCT010 BKN070 22/20 Q1017","temp":22,"dewp":20,"wdir":40,"wspd":3,"visib":3.11,"altim":1017,"clouds":[{"cover":"SCT","base":1000},{"cover":"BKN","base":7000}],"obsTime":1776787200},"SBCO":{"icaoId":"SBCO","flightCategory":"MVFR","rawOb":"METAR SBCO 211600Z 35003KT 9999 BKN013 BKN040 22/19 Q1016","temp":22,"dewp":19,"wdir":350,"wspd":3,"visib":"6+","altim":1016,"clouds":[{"cover":"BKN","base":1300},{"cover":"BKN","base":4000}],"obsTime":1776787200},"SBDN":{"icaoId":"SBDN","flightCategory":"VFR","rawOb":"METAR SBDN 211600Z 10010KT CAVOK 28/15 Q1016","temp":28,"dewp":15,"wdir":100,"wspd":10,"visib":"6+","altim":1016,"clouds":[],"obsTime":1776787200},"SBES":{"icaoId":"SBES","flightCategory":"VFR","rawOb":"METAR SBES 211600Z VRB09KT 9999 FEW025 27/// Q1016","temp":null,"dewp":null,"wdir":"VRB","wspd":9,"visib":"6+","altim":1016,"clouds":[{"cover":"FEW","base":2500}],"obsTime":1776787200},"SBGM":{"icaoId":"SBGM","flightCategory":"MVFR","rawOb":"METAR SBGM 211600Z 26008KT 210V290 9999 BKN016 OVC076 27/20 Q1013","temp":27,"dewp":20,"wdir":260,"wspd":8,"visib":"6+","altim":1013,"clouds":[{"cover":"BKN","base":1600},{"cover":"OVC","base":7600}],"obsTime":1776787200},"SBIP":{"icaoId":"SBIP","flightCategory":"VFR","rawOb":"METAR SBIP 211600Z AUTO 03007KT 340V120 CAVOK 28/17 Q1016","temp":28,"dewp":17,"wdir":30,"wspd":7,"visib":"6+","altim":1016,"clouds":[],"obsTime":1776787200},"SBKG":{"icaoId":"SBKG","flightCategory":"VFR","rawOb":"METAR SBKG 211600Z 34003KT 9999 SCT020 BKN070 26/22 Q1013","temp":26,"dewp":22,"wdir":340,"wspd":3,"visib":"6+","altim":1013,"clouds":[{"cover":"SCT","base":2000},{"cover":"BKN","base":7000}],"obsTime":1776787200},"SBOI":{"icaoId":"SBOI","flightCategory":"VFR","rawOb":"METAR SBOI 211600Z AUTO 08007KT 360V140 CAVOK 30/24 Q1011","temp":30,"dewp":24,"wdir":80,"wspd":7,"visib":"6+","altim":1011,"clouds":[],"obsTime":1776787200},"SBPB":{"icaoId":"SBPB","flightCategory":"MVFR","rawOb":"METAR SBPB 211600Z 11004KT 8000 -RA BKN015 OVC080 25/24 Q1012","temp":25,"dewp":24,"wdir":110,"wspd":4,"visib":4.97,"altim":1012,"clouds":[{"cover":"BKN","base":1500},{"cover":"OVC","base":8000}],"obsTime":1776787200},"SBPL":{"icaoId":"SBPL","flightCategory":"VFR","rawOb":"METAR SBPL 211600Z 09004KT 9999 SCT030 SCT070 31/21 Q1013","temp":31,"dewp":21,"wdir":90,"wspd":4,"visib":"6+","altim":1013,"clouds":[{"cover":"SCT","base":3000},{"cover":"SCT","base":7000}],"obsTime":1776787200},"SBPP":{"icaoId":"SBPP","flightCategory":"VFR","rawOb":"METAR SBPP 211600Z 02012KT 9999 FEW020 27/20 Q1017","temp":27,"dewp":20,"wdir":20,"wspd":12,"visib":"6+","altim":1017,"clouds":[{"cover":"FEW","base":2000}],"obsTime":1776787200},"SBPS":{"icaoId":"SBPS","flightCategory":"VFR","rawOb":"METAR SBPS 211600Z 15005KT 090V210 9999 SCT025 29/23 Q1014","temp":29,"dewp":23,"wdir":150,"wspd":5,"visib":"6+","altim":1014,"clouds":[{"cover":"SCT","base":2500}],"obsTime":1776787200},"SBSC":{"icaoId":"SBSC","flightCategory":"VFR","rawOb":"METAR SBSC 211600Z 21009KT 9999 FEW030 SCT050 27/20 Q1016","temp":27,"dewp":20,"wdir":210,"wspd":9,"visib":"6+","altim":1016,"clouds":[{"cover":"FEW","base":3000},{"cover":"SCT","base":5000}],"obsTime":1776787200},"SBSJ":{"icaoId":"SBSJ","flightCategory":"VFR","rawOb":"METAR SBSJ 211600Z 16004KT CAVOK 25/14 Q1019","temp":25,"dewp":14,"wdir":160,"wspd":4,"visib":"6+","altim":1019,"clouds":[],"obsTime":1776787200},"SBSM":{"icaoId":"SBSM","flightCategory":"VFR","rawOb":"METAR SBSM 211600Z VRB02KT 9999 FEW025 BKN040 OVC070 23/20 Q1015","temp":23,"dewp":20,"wdir":"VRB","wspd":2,"visib":"6+","altim":1015,"clouds":[{"cover":"FEW","base":2500},{"cover":"BKN","base":4000},{"cover":"OVC","base":7000}],"obsTime":1776787200},"SBSR":{"icaoId":"SBSR","flightCategory":"VFR","rawOb":"METAR SBSR 211600Z VRB03KT CAVOK 30/12 Q1016","temp":30,"dewp":12,"wdir":"VRB","wspd":3,"visib":"6+","altim":1016,"clouds":[],"obsTime":1776787200},"SBTF":{"icaoId":"SBTF","flightCategory":"VFR","rawOb":"METAR SBTF 211600Z 02003KT 9999 FEW012 BKN090 28/25 Q1013","temp":28,"dewp":25,"wdir":20,"wspd":3,"visib":"6+","altim":1013,"clouds":[{"cover":"FEW","base":1200},{"cover":"BKN","base":9000}],"obsTime":1776787200},"SBTT":{"icaoId":"SBTT","flightCategory":"IFR","rawOb":"METAR SBTT 211600Z 11006KT 9999 BKN008 OVC100 26/22 Q1015","temp":26,"dewp":22,"wdir":110,"wspd":6,"visib":"6+","altim":1015,"clouds":[{"cover":"BKN","base":800},{"cover":"OVC","base":10000}],"obsTime":1776787200},"SBUY":{"icaoId":"SBUY","flightCategory":"VFR","rawOb":"METAR SBUY 211600Z 01004KT 9999 SCT018 BKN100 29/25 Q1012","temp":29,"dewp":25,"wdir":10,"wspd":4,"visib":"6+","altim":1012,"clouds":[{"cover":"SCT","base":1800},{"cover":"BKN","base":10000}],"obsTime":1776787200},"SBPF":{"icaoId":"SBPF","flightCategory":"VFR","rawOb":"METAR SBPF 211600Z AUTO 05006KT 010V080 9999 FEW042 20/16 Q1019","temp":20,"dewp":16,"wdir":50,"wspd":6,"visib":"6+","altim":1019,"clouds":[{"cover":"FEW","base":4200}],"obsTime":1776787200},"SBJP":{"icaoId":"SBJP","flightCategory":"MVFR","rawOb":"METAR SBJP 211600Z 10013KT 9999 BKN025 30/23 Q1011","temp":30,"dewp":23,"wdir":100,"wspd":13,"visib":"6+","altim":1011,"clouds":[{"cover":"BKN","base":2500}],"obsTime":1776787200},"SBAN":{"icaoId":"SBAN","flightCategory":"VFR","rawOb":"METAR SBAN 211600Z VRB03KT 9999 VCSH SCT035 FEW040TCU SCT080 27/17 Q1020","temp":27,"dewp":17,"wdir":"VRB","wspd":3,"visib":"6+","altim":1020,"clouds":[{"cover":"SCT","base":3500},{"cover":"FEW","base":4000},{"cover":"SCT","base":8000}],"obsTime":1776787200},"SBJV":{"icaoId":"SBJV","flightCategory":"VFR","rawOb":"METAR SBJV 211600Z 13003KT 9999 SCT030 26/20 Q1017","temp":26,"dewp":20,"wdir":130,"wspd":3,"visib":"6+","altim":1017,"clouds":[{"cover":"SCT","base":3000}],"obsTime":1776787200},"SBNM":{"icaoId":"SBNM","flightCategory":"VFR","rawOb":"METAR SBNM 211600Z 13006KT 9999 SCT030 BKN070 26/21 Q1015","temp":26,"dewp":21,"wdir":130,"wspd":6,"visib":"6+","altim":1015,"clouds":[{"cover":"SCT","base":3000},{"cover":"BKN","base":7000}],"obsTime":1776787200},"SBIH":{"icaoId":"SBIH","flightCategory":"VFR","rawOb":"METAR SBIH 211600Z 08004KT 9999 SCT018 FEW025TCU BKN100 31/25 Q1012","temp":31,"dewp":25,"wdir":80,"wspd":4,"visib":"6+","altim":1012,"clouds":[{"cover":"SCT","base":1800},{"cover":"FEW","base":2500},{"cover":"BKN","base":10000}],"obsTime":1776787200},"SBAF":{"icaoId":"SBAF","flightCategory":"VFR","rawOb":"METAR SBAF 211600Z 21011KT CAVOK 28/18 Q1016","temp":28,"dewp":18,"wdir":210,"wspd":11,"visib":"6+","altim":1016,"clouds":[],"obsTime":1776787200},"SBGW":{"icaoId":"SBGW","flightCategory":"VFR","rawOb":"METAR SBGW 211600Z VRB03KT 9999 SCT030 26/14 Q1018","temp":26,"dewp":14,"wdir":"VRB","wspd":3,"visib":"6+","altim":1018,"clouds":[{"cover":"SCT","base":3000}],"obsTime":1776787200},"SBJR":{"icaoId":"SBJR","flightCategory":"VFR","rawOb":"METAR SBJR 211600Z 22005KT 9999 SCT030 30/20 Q1016","temp":30,"dewp":20,"wdir":220,"wspd":5,"visib":"6+","altim":1016,"clouds":[{"cover":"SCT","base":3000}],"obsTime":1776787200},"SBLS":{"icaoId":"SBLS","flightCategory":"VFR","rawOb":"METAR SBLS 211600Z 16006KT 9999 BKN033 25/19 Q1018","temp":25,"dewp":19,"wdir":160,"wspd":6,"visib":"6+","altim":1018,"clouds":[{"cover":"BKN","base":3300}],"obsTime":1776787200},"SBMT":{"icaoId":"SBMT","flightCategory":"VFR","rawOb":"METAR SBMT 211600Z 14006KT CAVOK 25/13 Q1019","temp":25,"dewp":13,"wdir":140,"wspd":6,"visib":"6+","altim":1019,"clouds":[],"obsTime":1776787200},"SBST":{"icaoId":"SBST","flightCategory":"VFR","rawOb":"METAR SBST 211600Z 16007KT 090V190 9999 FEW040 27/20 Q1016","temp":27,"dewp":20,"wdir":160,"wspd":7,"visib":"6+","altim":1016,"clouds":[{"cover":"FEW","base":4000}],"obsTime":1776787200},"SBTA":{"icaoId":"SBTA","flightCategory":"VFR","rawOb":"METAR SBTA 211600Z 12004KT 070V170 9999 FEW030 26/15 Q1017","temp":26,"dewp":15,"wdir":120,"wspd":4,"visib":"6+","altim":1017,"clouds":[{"cover":"FEW","base":3000}],"obsTime":1776787200},"SBLE":{"icaoId":"SBLE","flightCategory":"VFR","rawOb":"METAR SBLE 211600Z AUTO 13005KT 070V180 9999 FEW039 28/18 Q1016","temp":28,"dewp":18,"wdir":130,"wspd":5,"visib":"6+","altim":1016,"clouds":[{"cover":"FEW","base":3900}],"obsTime":1776787200}}}