{"updated":1775368608,"count":50,"data":{"SBMQ":{"icaoId":"SBMQ","flightCategory":"IFR","rawOb":"METAR SBMQ 050400Z 02008KT 2000 RA BKN007 BKN026 OVC030 24/24 Q1013","temp":24,"dewp":24,"wdir":20,"wspd":8,"visib":1.24,"altim":1013,"clouds":[{"cover":"BKN","base":700},{"cover":"BKN","base":2600},{"cover":"OVC","base":3000}],"obsTime":1775361600},"SBBR":{"icaoId":"SBBR","flightCategory":"VFR","rawOb":"METAR SBBR 050400Z 07004KT CAVOK 20/18 Q1019","temp":20,"dewp":18,"wdir":70,"wspd":4,"visib":"6+","altim":1019,"clouds":[],"obsTime":1775361600},"SBBE":{"icaoId":"SBBE","flightCategory":"VFR","rawOb":"METAR SBBE 050400Z 06002KT CAVOK 25/25 Q1012","temp":25,"dewp":25,"wdir":60,"wspd":2,"visib":"6+","altim":1012,"clouds":[],"obsTime":1775361600},"SBBV":{"icaoId":"SBBV","flightCategory":"MVFR","rawOb":"METAR SBBV 050400Z 06003KT 9999 SCT006 BKN010 BKN100 23/23 Q1013","temp":23,"dewp":23,"wdir":60,"wspd":3,"visib":"6+","altim":1013,"clouds":[{"cover":"SCT","base":600},{"cover":"BKN","base":1000},{"cover":"BKN","base":10000}],"obsTime":1775361600},"SBCF":{"icaoId":"SBCF","flightCategory":"VFR","rawOb":"METAR SBCF 050400Z 18002KT 9999 FEW025 SCT100 22/20 Q1019","temp":22,"dewp":20,"wdir":180,"wspd":2,"visib":"6+","altim":1019,"clouds":[{"cover":"FEW","base":2500},{"cover":"SCT","base":10000}],"obsTime":1775361600},"SBCG":{"icaoId":"SBCG","flightCategory":"VFR","rawOb":"METAR SBCG 050400Z 09006KT 060V120 9999 TS VCSH FEW035CB BKN070 23/20 Q1017","temp":23,"dewp":20,"wdir":90,"wspd":6,"visib":"6+","altim":1017,"clouds":[{"cover":"FEW","base":3500},{"cover":"BKN","base":7000}],"obsTime":1775361600},"SBCT":{"icaoId":"SBCT","flightCategory":"IFR","rawOb":"METAR SBCT 050400Z 10004KT 3000 BR BKN005 20/20 Q1020","temp":20,"dewp":20,"wdir":100,"wspd":4,"visib":1.86,"altim":1020,"clouds":[{"cover":"BKN","base":500}],"obsTime":1775361600},"SBEG":{"icaoId":"SBEG","flightCategory":"VFR","rawOb":"METAR SBEG 050400Z 00000KT 9999 FEW010 22/22 Q1012","temp":22,"dewp":22,"wdir":0,"wspd":0,"visib":"6+","altim":1012,"clouds":[{"cover":"FEW","base":1000}],"obsTime":1775361600},"SBFI":{"icaoId":"SBFI","flightCategory":"VFR","rawOb":"METAR SBFI 050400Z 23003KT CAVOK 23/22 Q1014","temp":23,"dewp":22,"wdir":230,"wspd":3,"visib":"6+","altim":1014,"clouds":[],"obsTime":1775361600},"SBFL":{"icaoId":"SBFL","flightCategory":"VFR","rawOb":"METAR SBFL 050400Z 25004KT 9999 SCT040 SCT070 24/23 Q1015","temp":24,"dewp":23,"wdir":250,"wspd":4,"visib":"6+","altim":1015,"clouds":[{"cover":"SCT","base":4000},{"cover":"SCT","base":7000}],"obsTime":1775361600},"SBFZ":{"icaoId":"SBFZ","flightCategory":"VFR","rawOb":"METAR SBFZ 050400Z 13007KT 9999 FEW020 27/24 Q1010","temp":27,"dewp":24,"wdir":130,"wspd":7,"visib":"6+","altim":1010,"clouds":[{"cover":"FEW","base":2000}],"obsTime":1775361600},"SBGL":{"icaoId":"SBGL","flightCategory":"VFR","rawOb":"METAR SBGL 050400Z 12002KT CAVOK 24/22 Q1014","temp":24,"dewp":22,"wdir":120,"wspd":2,"visib":"6+","altim":1014,"clouds":[],"obsTime":1775361600},"SBGO":{"icaoId":"SBGO","flightCategory":"VFR","rawOb":"METAR SBGO 050400Z 15002KT CAVOK 22/20 Q1018","temp":22,"dewp":20,"wdir":150,"wspd":2,"visib":"6+","altim":1018,"clouds":[],"obsTime":1775361600},"SBGR":{"icaoId":"SBGR","flightCategory":"VFR","rawOb":"METAR SBGR 050400Z 08008KT CAVOK 21/19 Q1019","temp":21,"dewp":19,"wdir":80,"wspd":8,"visib":"6+","altim":1019,"clouds":[],"obsTime":1775361600},"SBJU":{"icaoId":"SBJU","flightCategory":"MVFR","rawOb":"METAR SBJU 050400Z 00000KT 9999 BKN020 23/22 Q1014","temp":23,"dewp":22,"wdir":0,"wspd":0,"visib":"6+","altim":1014,"clouds":[{"cover":"BKN","base":2000}],"obsTime":1775361600},"SBKP":{"icaoId":"SBKP","flightCategory":"VFR","rawOb":"METAR SBKP 050400Z 06006KT 9999 FEW048 SCT080 22/18 Q1018","temp":22,"dewp":18,"wdir":60,"wspd":6,"visib":"6+","altim":1018,"clouds":[{"cover":"FEW","base":4800},{"cover":"SCT","base":8000}],"obsTime":1775361600},"SBLO":{"icaoId":"SBLO","flightCategory":"VFR","rawOb":"METAR SBLO 050400Z 10003KT CAVOK 23/20 Q1016","temp":23,"dewp":20,"wdir":100,"wspd":3,"visib":"6+","altim":1016,"clouds":[],"obsTime":1775361600},"SBMA":{"icaoId":"SBMA","flightCategory":"VFR","rawOb":"METAR SBMA 050400Z 09003KT 9999 FEW020 26/25 Q1011","temp":26,"dewp":25,"wdir":90,"wspd":3,"visib":"6+","altim":1011,"clouds":[{"cover":"FEW","base":2000}],"obsTime":1775361600},"SBME":{"icaoId":"SBME","flightCategory":"VFR","rawOb":"METAR SBME 050400Z 23001KT CAVOK 24/23 Q1014","temp":24,"dewp":23,"wdir":230,"wspd":1,"visib":"6+","altim":1014,"clouds":[],"obsTime":1775361600},"SBMG":{"icaoId":"SBMG","flightCategory":"VFR","rawOb":"METAR SBMG 050400Z AUTO 16004KT CAVOK 26/17 Q1015","temp":26,"dewp":17,"wdir":160,"wspd":4,"visib":"6+","altim":1015,"clouds":[],"obsTime":1775361600},"SBMO":{"icaoId":"SBMO","flightCategory":"MVFR","rawOb":"METAR SBMO 050400Z 28003KT 9999 BKN018 24/23 Q1012","temp":24,"dewp":23,"wdir":280,"wspd":3,"visib":"6+","altim":1012,"clouds":[{"cover":"BKN","base":1800}],"obsTime":1775361600},"SBNT":{"icaoId":"SBNT","flightCategory":"VFR","rawOb":"METAR SBNT 050400Z 16002KT 9999 SCT020 25/23 Q1011","temp":25,"dewp":23,"wdir":160,"wspd":2,"visib":"6+","altim":1011,"clouds":[{"cover":"SCT","base":2000}],"obsTime":1775361600},"SBPA":{"icaoId":"SBPA","flightCategory":"IFR","rawOb":"METAR SBPA 050400Z 15009KT 3500 -RA BR BKN008 BKN011 OVC025 22/21 Q1017","temp":22,"dewp":21,"wdir":150,"wspd":9,"visib":2.17,"altim":1017,"clouds":[{"cover":"BKN","base":800},{"cover":"BKN","base":1100},{"cover":"OVC","base":2500}],"obsTime":1775361600},"SBPJ":{"icaoId":"SBPJ","flightCategory":"VFR","rawOb":"METAR SBPJ 050400Z 12005KT 9999 FEW025 FEW030TCU BKN080 26/24 Q1013","temp":26,"dewp":24,"wdir":120,"wspd":5,"visib":"6+","altim":1013,"clouds":[{"cover":"FEW","base":2500},{"cover":"FEW","base":3000},{"cover":"BKN","base":8000}],"obsTime":1775361600},"SBPV":{"icaoId":"SBPV","flightCategory":"VFR","rawOb":"METAR SBPV 050400Z 07001KT 9999 SCT002 23/22 Q1012","temp":23,"dewp":22,"wdir":70,"wspd":1,"visib":"6+","altim":1012,"clouds":[{"cover":"SCT","base":200}],"obsTime":1775361600},"SBRB":{"icaoId":"SBRB","flightCategory":"VFR","rawOb":"METAR SBRB 050400Z 30001KT 9999 FEW005 BKN100 23/22 Q1011","temp":23,"dewp":22,"wdir":300,"wspd":1,"visib":"6+","altim":1011,"clouds":[{"cover":"FEW","base":500},{"cover":"BKN","base":10000}],"obsTime":1775361600},"SBRF":{"icaoId":"SBRF","flightCategory":"VFR","rawOb":"METAR SBRF 050400Z 20002KT 9999 SCT021 25/24 Q1011","temp":25,"dewp":24,"wdir":200,"wspd":2,"visib":"6+","altim":1011,"clouds":[{"cover":"SCT","base":2100}],"obsTime":1775361600},"SBSG":{"icaoId":"SBSG","flightCategory":"VFR","rawOb":"METAR SBSG 050400Z 18003KT 9999 SCT020 24/24 Q1011","temp":24,"dewp":24,"wdir":180,"wspd":3,"visib":"6+","altim":1011,"clouds":[{"cover":"SCT","base":2000}],"obsTime":1775361600},"SBSL":{"icaoId":"SBSL","flightCategory":"VFR","rawOb":"METAR SBSL 050400Z 14002KT 9999 FEW030 SCT100 26/25 Q1011","temp":26,"dewp":25,"wdir":140,"wspd":2,"visib":"6+","altim":1011,"clouds":[{"cover":"FEW","base":3000},{"cover":"SCT","base":10000}],"obsTime":1775361600},"SBSN":{"icaoId":"SBSN","flightCategory":"VFR","rawOb":"METAR SBSN 050400Z 06005KT 9999 SCT010 SCT020 BKN100 27/24 Q1012","temp":27,"dewp":24,"wdir":60,"wspd":5,"visib":"6+","altim":1012,"clouds":[{"cover":"SCT","base":1000},{"cover":"SCT","base":2000},{"cover":"BKN","base":10000}],"obsTime":1775361600},"SBSP":{"icaoId":"SBSP","flightCategory":"VFR","rawOb":"METAR SBSP 050400Z AUTO 06005KT 040V100 CAVOK 22/18 Q1019","temp":22,"dewp":18,"wdir":60,"wspd":5,"visib":"6+","altim":1019,"clouds":[],"obsTime":1775361600},"SBSV":{"icaoId":"SBSV","flightCategory":"VFR","rawOb":"METAR SBSV 050400Z 08009KT 9999 SCT017 SCT022 27/23 Q1013","temp":27,"dewp":23,"wdir":80,"wspd":9,"visib":"6+","altim":1013,"clouds":[{"cover":"SCT","base":1700},{"cover":"SCT","base":2200}],"obsTime":1775361600},"SBTE":{"icaoId":"SBTE","flightCategory":"VFR","rawOb":"METAR SBTE 050400Z VRB02KT 9999 SCT015 BKN100 26/23 Q1010","temp":26,"dewp":23,"wdir":"VRB","wspd":2,"visib":"6+","altim":1010,"clouds":[{"cover":"SCT","base":1500},{"cover":"BKN","base":10000}],"obsTime":1775361600},"SBUL":{"icaoId":"SBUL","flightCategory":"VFR","rawOb":"METAR SBUL 050400Z 16003KT 090V230 CAVOK 20/18 Q1019","temp":20,"dewp":18,"wdir":160,"wspd":3,"visib":"6+","altim":1019,"clouds":[],"obsTime":1775361600},"SBUR":{"icaoId":"SBUR","flightCategory":"VFR","rawOb":"METAR SBUR 050400Z 02004KT CAVOK 21/18 Q1018","temp":21,"dewp":18,"wdir":20,"wspd":4,"visib":"6+","altim":1018,"clouds":[],"obsTime":1775361600},"SBVT":{"icaoId":"SBVT","flightCategory":"VFR","rawOb":"METAR SBVT 050400Z 35003KT 9999 FEW023 24/23 Q1015","temp":24,"dewp":23,"wdir":350,"wspd":3,"visib":"6+","altim":1015,"clouds":[{"cover":"FEW","base":2300}],"obsTime":1775361600},"SBMK":{"icaoId":"SBMK","flightCategory":"VFR","rawOb":"METAR SBMK 050400Z 00000KT CAVOK 21/19 Q1017","temp":21,"dewp":19,"wdir":0,"wspd":0,"visib":"6+","altim":1017,"clouds":[],"obsTime":1775361600},"SBSR":{"icaoId":"SBSR","flightCategory":"VFR","rawOb":"METAR SBSR 050400Z 10004KT 9999 FEW030 SCT070 25/20 Q1017","temp":25,"dewp":20,"wdir":100,"wspd":4,"visib":"6+","altim":1017,"clouds":[{"cover":"FEW","base":3000},{"cover":"SCT","base":7000}],"obsTime":1775361600},"SBAR":{"icaoId":"SBAR","flightCategory":"VFR","rawOb":"METAR SBAR 050400Z 09007KT 9999 SCT019 27/24 Q1012","temp":27,"dewp":24,"wdir":90,"wspd":7,"visib":"6+","altim":1012,"clouds":[{"cover":"SCT","base":1900}],"obsTime":1775361600},"SBAX":{"icaoId":"SBAX","flightCategory":"VFR","rawOb":"METAR SBAX 050400Z AUTO VRB02KT 9999 FEW002 ///// Q1020","temp":null,"dewp":null,"wdir":"VRB","wspd":2,"visib":"6+","altim":1020,"clouds":[{"cover":"FEW","base":200}],"obsTime":1775361600},"SBDN":{"icaoId":"SBDN","flightCategory":"VFR","rawOb":"METAR SBDN 050400Z 02004KT CAVOK 23/19 Q1016","temp":23,"dewp":19,"wdir":20,"wspd":4,"visib":"6+","altim":1016,"clouds":[],"obsTime":1775361600},"SBIP":{"icaoId":"SBIP","flightCategory":"VFR","rawOb":"METAR SBIP 050400Z AUTO VRB01KT 9999 SCT040 23/23 Q1016","temp":23,"dewp":23,"wdir":"VRB","wspd":1,"visib":"6+","altim":1016,"clouds":[{"cover":"SCT","base":4000}],"obsTime":1775361600},"SBKG":{"icaoId":"SBKG","flightCategory":"VFR","rawOb":"METAR SBKG 050400Z 09004KT 9999 FEW006 22/22 Q1014","temp":22,"dewp":22,"wdir":90,"wspd":4,"visib":"6+","altim":1014,"clouds":[{"cover":"FEW","base":600}],"obsTime":1775361600},"SBOI":{"icaoId":"SBOI","flightCategory":"VFR","rawOb":"METAR SBOI 050400Z AUTO VRB01KT CAVOK 25/23 Q1013","temp":25,"dewp":23,"wdir":"VRB","wspd":1,"visib":"6+","altim":1013,"clouds":[],"obsTime":1775361600},"SBPL":{"icaoId":"SBPL","flightCategory":"VFR","rawOb":"METAR SBPL 050400Z 12006KT CAVOK 26/22 Q1014","temp":26,"dewp":22,"wdir":120,"wspd":6,"visib":"6+","altim":1014,"clouds":[],"obsTime":1775361600},"SBPS":{"icaoId":"SBPS","flightCategory":"MVFR","rawOb":"METAR SBPS 050400Z 21004KT 170V260 9999 BKN016 24/23 Q1015","temp":24,"dewp":23,"wdir":210,"wspd":4,"visib":"6+","altim":1015,"clouds":[{"cover":"BKN","base":1600}],"obsTime":1775361600},"SBSC":{"icaoId":"SBSC","flightCategory":"VFR","rawOb":"METAR SBSC 050400Z 36002KT CAVOK 23/21 Q1014","temp":23,"dewp":21,"wdir":360,"wspd":2,"visib":"6+","altim":1014,"clouds":[],"obsTime":1775361600},"SBAN":{"icaoId":"SBAN","flightCategory":"VFR","rawOb":"METAR SBAN 050400Z 16004KT 9999 FEW030 20/18 Q1020","temp":20,"dewp":18,"wdir":160,"wspd":4,"visib":"6+","altim":1020,"clouds":[{"cover":"FEW","base":3000}],"obsTime":1775361600},"SBLE":{"icaoId":"SBLE","flightCategory":"MVFR","rawOb":"METAR SBLE 050400Z AUTO 00000KT 9999 FEW003 OVC019 ///// Q////","temp":null,"dewp":null,"wdir":0,"wspd":0,"visib":"6+","altim":null,"clouds":[{"cover":"FEW","base":300},{"cover":"OVC","base":1900}],"obsTime":1775361600},"SBJP":{"icaoId":"SBJP","flightCategory":"VFR","rawOb":"METAR SBJP 050400Z 19005KT 9999 FEW020 25/24 Q1012","temp":25,"dewp":24,"wdir":190,"wspd":5,"visib":"6+","altim":1012,"clouds":[{"cover":"FEW","base":2000}],"obsTime":1775361600}}}