{"updated":1774772789,"count":50,"data":{"SBSP":{"icaoId":"SBSP","flightCategory":"MVFR","rawOb":"METAR SBSP 290700Z AUTO 10004KT 060V130 9999 BKN012 20/18 Q1021","temp":20,"dewp":18,"wdir":100,"wspd":4,"visib":"6+","altim":1021,"clouds":[{"cover":"BKN","base":1200}],"obsTime":1774767600},"SBMO":{"icaoId":"SBMO","flightCategory":"IFR","rawOb":"METAR SBMO 290700Z 31002KT 4000 -RA BR SCT004 BKN015 24/23 Q1011 RERA","temp":24,"dewp":23,"wdir":310,"wspd":2,"visib":2.49,"altim":1011,"clouds":[{"cover":"SCT","base":400},{"cover":"BKN","base":1500}],"obsTime":1774767600},"SBMQ":{"icaoId":"SBMQ","flightCategory":"VFR","rawOb":"METAR SBMQ 290700Z 31002KT 9999 FEW012 26/26 Q1010","temp":26,"dewp":26,"wdir":310,"wspd":2,"visib":"6+","altim":1010,"clouds":[{"cover":"FEW","base":1200}],"obsTime":1774767600},"SBCT":{"icaoId":"SBCT","flightCategory":"VFR","rawOb":"METAR SBCT 290700Z 12004KT 9999 SCT014 16/16 Q1022","temp":16,"dewp":16,"wdir":120,"wspd":4,"visib":"6+","altim":1022,"clouds":[{"cover":"SCT","base":1400}],"obsTime":1774767600},"SBNT":{"icaoId":"SBNT","flightCategory":"VFR","rawOb":"METAR SBNT 290700Z 21005KT 9999 FEW027 24/21 Q1010","temp":24,"dewp":21,"wdir":210,"wspd":5,"visib":"6+","altim":1010,"clouds":[{"cover":"FEW","base":2700}],"obsTime":1774767600},"SBGL":{"icaoId":"SBGL","flightCategory":"MVFR","rawOb":"METAR SBGL 290700Z 24005KT 8000 FEW015 24/22 Q1018","temp":24,"dewp":22,"wdir":240,"wspd":5,"visib":4.97,"altim":1018,"clouds":[{"cover":"FEW","base":1500}],"obsTime":1774767600},"SBBV":{"icaoId":"SBBV","flightCategory":"MVFR","rawOb":"METAR SBBV 290700Z 04004KT 9999 BKN030 FEW045TCU BKN070 25/24 Q1011","temp":25,"dewp":24,"wdir":40,"wspd":4,"visib":"6+","altim":1011,"clouds":[{"cover":"BKN","base":3000},{"cover":"FEW","base":4500},{"cover":"BKN","base":7000}],"obsTime":1774767600},"SBPA":{"icaoId":"SBPA","flightCategory":"VFR","rawOb":"METAR SBPA 290700Z 16003KT 110V190 9000 FEW004 26/24 Q1015","temp":26,"dewp":24,"wdir":160,"wspd":3,"visib":5.59,"altim":1015,"clouds":[{"cover":"FEW","base":400}],"obsTime":1774767600},"SBPJ":{"icaoId":"SBPJ","flightCategory":"VFR","rawOb":"METAR SBPJ 290700Z 14004KT 110V170 CAVOK 24/22 Q1012","temp":24,"dewp":22,"wdir":140,"wspd":4,"visib":"6+","altim":1012,"clouds":[],"obsTime":1774767600},"SBGO":{"icaoId":"SBGO","flightCategory":"VFR","rawOb":"METAR SBGO 290700Z 13004KT CAVOK 19/17 Q1018","temp":19,"dewp":17,"wdir":130,"wspd":4,"visib":"6+","altim":1018,"clouds":[],"obsTime":1774767600},"SBBR":{"icaoId":"SBBR","flightCategory":"VFR","rawOb":"METAR SBBR 290700Z 18005KT 150V210 9999 FEW023 19/18 Q1020","temp":19,"dewp":18,"wdir":180,"wspd":5,"visib":"6+","altim":1020,"clouds":[{"cover":"FEW","base":2300}],"obsTime":1774767600},"SBPV":{"icaoId":"SBPV","flightCategory":"VFR","rawOb":"METAR SBPV 290700Z 00000KT CAVOK 24/23 Q1013","temp":24,"dewp":23,"wdir":0,"wspd":0,"visib":"6+","altim":1013,"clouds":[],"obsTime":1774767600},"SBRB":{"icaoId":"SBRB","flightCategory":"LIFR","rawOb":"METAR SBRB 290700Z 27003KT 0100 R07///// R25/M0050 FG VV002 22/21 Q1012","temp":22,"dewp":21,"wdir":270,"wspd":3,"visib":0.06,"altim":1012,"clouds":[{"cover":"OVX","base":200}],"obsTime":1774767600},"SBGR":{"icaoId":"SBGR","flightCategory":"IFR","rawOb":"METAR SBGR 290700Z 07005KT 9999 OVC009 20/19 Q1020","temp":20,"dewp":19,"wdir":70,"wspd":5,"visib":"6+","altim":1020,"clouds":[{"cover":"OVC","base":900}],"obsTime":1774767600},"SBEG":{"icaoId":"SBEG","flightCategory":"VFR","rawOb":"METAR SBEG 290700Z 00000KT 9999 FEW010 24/24 Q1010","temp":24,"dewp":24,"wdir":0,"wspd":0,"visib":"6+","altim":1010,"clouds":[{"cover":"FEW","base":1000}],"obsTime":1774767600},"SBRF":{"icaoId":"SBRF","flightCategory":"VFR","rawOb":"METAR SBRF 290700Z 24005KT 9999 FEW020 SCT050 24/23 Q1010","temp":24,"dewp":23,"wdir":240,"wspd":5,"visib":"6+","altim":1010,"clouds":[{"cover":"FEW","base":2000},{"cover":"SCT","base":5000}],"obsTime":1774767600},"SBSG":{"icaoId":"SBSG","flightCategory":"VFR","rawOb":"METAR SBSG 290700Z 21004KT 9999 FEW025 22/21 Q1010","temp":22,"dewp":21,"wdir":210,"wspd":4,"visib":"6+","altim":1010,"clouds":[{"cover":"FEW","base":2500}],"obsTime":1774767600},"SBJU":{"icaoId":"SBJU","flightCategory":"MVFR","rawOb":"METAR SBJU 290700Z 00000KT 9999 BKN020 24/22 Q1013","temp":24,"dewp":22,"wdir":0,"wspd":0,"visib":"6+","altim":1013,"clouds":[{"cover":"BKN","base":2000}],"obsTime":1774767600},"SBCF":{"icaoId":"SBCF","flightCategory":"VFR","rawOb":"METAR SBCF 290700Z 15004KT 9999 FEW040 19/16 Q1020","temp":19,"dewp":16,"wdir":150,"wspd":4,"visib":"6+","altim":1020,"clouds":[{"cover":"FEW","base":4000}],"obsTime":1774767600},"SBSL":{"icaoId":"SBSL","flightCategory":"MVFR","rawOb":"METAR SBSL 290700Z 10008KT 8000 -RA VCTS SCT020 FEW025CB BKN080 25/24 Q1009","temp":25,"dewp":24,"wdir":100,"wspd":8,"visib":4.97,"altim":1009,"clouds":[{"cover":"SCT","base":2000},{"cover":"FEW","base":2500},{"cover":"BKN","base":8000}],"obsTime":1774767600},"SBKP":{"icaoId":"SBKP","flightCategory":"VFR","rawOb":"METAR SBKP 290700Z 13008KT CAVOK 20/19 Q1019","temp":20,"dewp":19,"wdir":130,"wspd":8,"visib":"6+","altim":1019,"clouds":[],"obsTime":1774767600},"SBSN":{"icaoId":"SBSN","flightCategory":"VFR","rawOb":"METAR SBSN 290700Z 14003KT 9999 FEW009 BKN080 25/24 Q1009","temp":25,"dewp":24,"wdir":140,"wspd":3,"visib":"6+","altim":1009,"clouds":[{"cover":"FEW","base":900},{"cover":"BKN","base":8000}],"obsTime":1774767600},"SBMK":{"icaoId":"SBMK","flightCategory":"VFR","rawOb":"METAR SBMK 290800Z 14005KT CAVOK 19/16 Q1018","temp":19,"dewp":16,"wdir":140,"wspd":5,"visib":"6+","altim":1018,"clouds":[],"obsTime":1774771200},"SBFZ":{"icaoId":"SBFZ","flightCategory":"VFR","rawOb":"METAR SBFZ 290700Z 18003KT 9999 SCT022 26/23 Q1009","temp":26,"dewp":23,"wdir":180,"wspd":3,"visib":"6+","altim":1009,"clouds":[{"cover":"SCT","base":2200}],"obsTime":1774767600},"SBLO":{"icaoId":"SBLO","flightCategory":"VFR","rawOb":"METAR SBLO 290700Z 18003KT CAVOK 22/19 Q1018","temp":22,"dewp":19,"wdir":180,"wspd":3,"visib":"6+","altim":1018,"clouds":[],"obsTime":1774767600},"SBFI":{"icaoId":"SBFI","flightCategory":"VFR","rawOb":"METAR SBFI 290700Z 11004KT CAVOK 23/22 Q1015","temp":23,"dewp":22,"wdir":110,"wspd":4,"visib":"6+","altim":1015,"clouds":[],"obsTime":1774767600},"SBSV":{"icaoId":"SBSV","flightCategory":"MVFR","rawOb":"METAR SBSV 290700Z 28005KT 7000 -RA SCT018 FEW025TCU SCT070 24/23 Q1012","temp":24,"dewp":23,"wdir":280,"wspd":5,"visib":4.35,"altim":1012,"clouds":[{"cover":"SCT","base":1800},{"cover":"FEW","base":2500},{"cover":"SCT","base":7000}],"obsTime":1774767600},"SBTE":{"icaoId":"SBTE","flightCategory":"VFR","rawOb":"METAR SBTE 290700Z 34003KT 9999 FEW020 BKN100 25/24 Q1009","temp":25,"dewp":24,"wdir":340,"wspd":3,"visib":"6+","altim":1009,"clouds":[{"cover":"FEW","base":2000},{"cover":"BKN","base":10000}],"obsTime":1774767600},"SBBE":{"icaoId":"SBBE","flightCategory":"VFR","rawOb":"METAR SBBE 290700Z 06002KT CAVOK 26/25 Q1010","temp":26,"dewp":25,"wdir":60,"wspd":2,"visib":"6+","altim":1010,"clouds":[],"obsTime":1774767600},"SBUL":{"icaoId":"SBUL","flightCategory":"VFR","rawOb":"METAR SBUL 290800Z 13007KT CAVOK 19/15 Q1020","temp":19,"dewp":15,"wdir":130,"wspd":7,"visib":"6+","altim":1020,"clouds":[],"obsTime":1774771200},"SBUR":{"icaoId":"SBUR","flightCategory":"VFR","rawOb":"METAR SBUR 290700Z 05005KT CAVOK 22/16 Q1019","temp":22,"dewp":16,"wdir":50,"wspd":5,"visib":"6+","altim":1019,"clouds":[],"obsTime":1774767600},"SBMA":{"icaoId":"SBMA","flightCategory":"VFR","rawOb":"METAR SBMA 290700Z 15005KT 9999 SCT020 FEW025TCU SCT100 27/25 Q1010","temp":27,"dewp":25,"wdir":150,"wspd":5,"visib":"6+","altim":1010,"clouds":[{"cover":"SCT","base":2000},{"cover":"FEW","base":2500},{"cover":"SCT","base":10000}],"obsTime":1774767600},"SBME":{"icaoId":"SBME","flightCategory":"VFR","rawOb":"METAR SBME 290700Z 32004KT 9999 FEW020 22/21 Q1017","temp":22,"dewp":21,"wdir":320,"wspd":4,"visib":"6+","altim":1017,"clouds":[{"cover":"FEW","base":2000}],"obsTime":1774767600},"SBVT":{"icaoId":"SBVT","flightCategory":"VFR","rawOb":"METAR SBVT 290700Z 32003KT 9999 SCT048 21/21 Q1016","temp":21,"dewp":21,"wdir":320,"wspd":3,"visib":"6+","altim":1016,"clouds":[{"cover":"SCT","base":4800}],"obsTime":1774767600},"SBFL":{"icaoId":"SBFL","flightCategory":"VFR","rawOb":"METAR SBFL 290700Z 30009KT CAVOK 25/21 Q1017","temp":25,"dewp":21,"wdir":300,"wspd":9,"visib":"6+","altim":1017,"clouds":[],"obsTime":1774767600},"SBMG":{"icaoId":"SBMG","flightCategory":"VFR","rawOb":"METAR SBMG 290700Z AUTO 08007KT CAVOK 24/18 Q1017","temp":24,"dewp":18,"wdir":80,"wspd":7,"visib":"6+","altim":1017,"clouds":[],"obsTime":1774767600},"SBCG":{"icaoId":"SBCG","flightCategory":"VFR","rawOb":"METAR SBCG 290700Z 07006KT CAVOK 24/18 Q1016","temp":24,"dewp":18,"wdir":70,"wspd":6,"visib":"6+","altim":1016,"clouds":[],"obsTime":1774767600},"SBOI":{"icaoId":"SBOI","flightCategory":"VFR","rawOb":"METAR SBOI 290700Z AUTO 36003KT 9999 // SCT021/// SCT026/// 24/23 Q1011","temp":24,"dewp":23,"wdir":360,"wspd":3,"visib":"6+","altim":1011,"clouds":[{"cover":"SCT","base":2100},{"cover":"SCT","base":2600}],"obsTime":1774767600},"SBAR":{"icaoId":"SBAR","flightCategory":"VFR","rawOb":"METAR SBAR 290700Z 11007KT 9999 SCT020 28/24 Q1011","temp":28,"dewp":24,"wdir":110,"wspd":7,"visib":"6+","altim":1011,"clouds":[{"cover":"SCT","base":2000}],"obsTime":1774767600},"SBIP":{"icaoId":"SBIP","flightCategory":"LIFR","rawOb":"METAR SBIP 290700Z AUTO 22002KT 0450 FG VV001 20/20 Q1018","temp":20,"dewp":20,"wdir":220,"wspd":2,"visib":0.28,"altim":1018,"clouds":[{"cover":"OVX","base":100}],"obsTime":1774767600},"SBPL":{"icaoId":"SBPL","flightCategory":"VFR","rawOb":"METAR SBPL 290700Z 12005KT CAVOK 25/22 Q1013","temp":25,"dewp":22,"wdir":120,"wspd":5,"visib":"6+","altim":1013,"clouds":[],"obsTime":1774767600},"SBAX":{"icaoId":"SBAX","flightCategory":"VFR","rawOb":"METAR SBAX 290700Z AUTO 12009KT CAVOK 19/16 Q1020","temp":19,"dewp":16,"wdir":120,"wspd":9,"visib":"6+","altim":1020,"clouds":[],"obsTime":1774767600},"SBPS":{"icaoId":"SBPS","flightCategory":"MVFR","rawOb":"METAR SBPS 290700Z 25005KT 220V290 6000 -RA SCT006 BKN015 OVC070 22/22 Q1014","temp":22,"dewp":22,"wdir":250,"wspd":5,"visib":3.73,"altim":1014,"clouds":[{"cover":"SCT","base":600},{"cover":"BKN","base":1500},{"cover":"OVC","base":7000}],"obsTime":1774767600},"SBSC":{"icaoId":"SBSC","flightCategory":"MVFR","rawOb":"METAR SBSC 290700Z 34003KT 8000 FEW010 SCT020 23/21 Q1017","temp":23,"dewp":21,"wdir":340,"wspd":3,"visib":4.97,"altim":1017,"clouds":[{"cover":"FEW","base":1000},{"cover":"SCT","base":2000}],"obsTime":1774767600},"SBKG":{"icaoId":"SBKG","flightCategory":"VFR","rawOb":"METAR SBKG 290700Z 14004KT 9999 SCT015 SCT080 22/22 Q1013","temp":22,"dewp":22,"wdir":140,"wspd":4,"visib":"6+","altim":1013,"clouds":[{"cover":"SCT","base":1500},{"cover":"SCT","base":8000}],"obsTime":1774767600},"SBSR":{"icaoId":"SBSR","flightCategory":"VFR","rawOb":"METAR SBSR 290700Z 15003KT CAVOK 24/16 Q1017","temp":24,"dewp":16,"wdir":150,"wspd":3,"visib":"6+","altim":1017,"clouds":[],"obsTime":1774767600},"SBDN":{"icaoId":"SBDN","flightCategory":"VFR","rawOb":"METAR SBDN 290700Z 10006KT CAVOK 23/17 Q1016","temp":23,"dewp":17,"wdir":100,"wspd":6,"visib":"6+","altim":1016,"clouds":[],"obsTime":1774767600},"SBAN":{"icaoId":"SBAN","flightCategory":"VFR","rawOb":"METAR SBAN 290700Z 15008KT CAVOK 19/16 Q1020","temp":19,"dewp":16,"wdir":150,"wspd":8,"visib":"6+","altim":1020,"clouds":[],"obsTime":1774767600},"SBLE":{"icaoId":"SBLE","flightCategory":"VFR","rawOb":"METAR SBLE 290700Z AUTO 15003KT 110V170 9999 SCT030 BKN047 ///// Q////","temp":null,"dewp":null,"wdir":150,"wspd":3,"visib":"6+","altim":null,"clouds":[{"cover":"SCT","base":3000},{"cover":"BKN","base":4700}],"obsTime":1774767600},"SBJP":{"icaoId":"SBJP","flightCategory":"VFR","rawOb":"METAR SBJP 290800Z VRB05KT 9999 FEW020 24/23 Q1011","temp":24,"dewp":23,"wdir":"VRB","wspd":5,"visib":"6+","altim":1011,"clouds":[{"cover":"FEW","base":2000}],"obsTime":1774771200}}}