{"updated":1775645305,"count":72,"data":{"SBRF":{"icaoId":"SBRF","flightCategory":"MVFR","rawOb":"METAR SBRF 080900Z 26002KT 9999 BKN012 SCT017 BKN050 25/25 Q1012","temp":25,"dewp":25,"wdir":260,"wspd":2,"visib":"6+","altim":1012,"clouds":[{"cover":"BKN","base":1200},{"cover":"SCT","base":1700},{"cover":"BKN","base":5000}],"obsTime":1775638800},"SBMQ":{"icaoId":"SBMQ","flightCategory":"LIFR","rawOb":"METAR SBMQ 080900Z 32003KT 0400 FG VV002 25/25 Q1011","temp":25,"dewp":25,"wdir":320,"wspd":3,"visib":0.25,"altim":1011,"clouds":[{"cover":"OVX","base":200}],"obsTime":1775638800},"SBBV":{"icaoId":"SBBV","flightCategory":"VFR","rawOb":"METAR SBBV 080900Z 11006KT 9999 SCT030 FEW045TCU BKN070 25/23 Q1012","temp":25,"dewp":23,"wdir":110,"wspd":6,"visib":"6+","altim":1012,"clouds":[{"cover":"SCT","base":3000},{"cover":"FEW","base":4500},{"cover":"BKN","base":7000}],"obsTime":1775638800},"SBFL":{"icaoId":"SBFL","flightCategory":"VFR","rawOb":"METAR SBFL 080900Z 30004KT 9999 FEW010 SCT066 23/22 Q1007","temp":23,"dewp":22,"wdir":300,"wspd":4,"visib":"6+","altim":1007,"clouds":[{"cover":"FEW","base":1000},{"cover":"SCT","base":6600}],"obsTime":1775638800},"SBBR":{"icaoId":"SBBR","flightCategory":"VFR","rawOb":"METAR SBBR 080900Z 19003KT CAVOK 20/18 Q1020","temp":20,"dewp":18,"wdir":190,"wspd":3,"visib":"6+","altim":1020,"clouds":[],"obsTime":1775638800},"SBCB":{"icaoId":"SBCB","flightCategory":"VFR","rawOb":"METAR SBCB 080900Z 05011KT 9999 FEW010 24/23 Q1012","temp":24,"dewp":23,"wdir":50,"wspd":11,"visib":"6+","altim":1012,"clouds":[{"cover":"FEW","base":1000}],"obsTime":1775638800},"SBCF":{"icaoId":"SBCF","flightCategory":"VFR","rawOb":"METAR SBCF 080900Z 21002KT 9000 NSC 18/17 Q1019","temp":18,"dewp":17,"wdir":210,"wspd":2,"visib":5.59,"altim":1019,"clouds":[],"obsTime":1775638800},"SBCG":{"icaoId":"SBCG","flightCategory":"VFR","rawOb":"METAR SBCG 080900Z 34004KT 9999 FEW035 21/20 Q1015","temp":21,"dewp":20,"wdir":340,"wspd":4,"visib":"6+","altim":1015,"clouds":[{"cover":"FEW","base":3500}],"obsTime":1775638800},"SBCP":{"icaoId":"SBCP","flightCategory":"VFR","rawOb":"METAR SBCP 081000Z /////KT CAVOK ///// Q1014","temp":null,"dewp":null,"wdir":null,"wspd":null,"visib":"6+","altim":1014,"clouds":[],"obsTime":1775642400},"SBCT":{"icaoId":"SBCT","flightCategory":"VFR","rawOb":"METAR SBCT 080900Z 33009KT 9999 FEW020 19/17 Q1014","temp":19,"dewp":17,"wdir":330,"wspd":9,"visib":"6+","altim":1014,"clouds":[{"cover":"FEW","base":2000}],"obsTime":1775638800},"SBEG":{"icaoId":"SBEG","flightCategory":"VFR","rawOb":"METAR SBEG 080900Z 00000KT 9999 FEW010 BKN100 24/24 Q1012","temp":24,"dewp":24,"wdir":0,"wspd":0,"visib":"6+","altim":1012,"clouds":[{"cover":"FEW","base":1000},{"cover":"BKN","base":10000}],"obsTime":1775638800},"SBFI":{"icaoId":"SBFI","flightCategory":"IFR","rawOb":"METAR SBFI 080900Z 24006KT 9999 BKN009 BKN030 19/19 Q1013","temp":19,"dewp":19,"wdir":240,"wspd":6,"visib":"6+","altim":1013,"clouds":[{"cover":"BKN","base":900},{"cover":"BKN","base":3000}],"obsTime":1775638800},"SBBE":{"icaoId":"SBBE","flightCategory":"VFR","rawOb":"METAR SBBE 080900Z 10003KT CAVOK 24/24 Q1010","temp":24,"dewp":24,"wdir":100,"wspd":3,"visib":"6+","altim":1010,"clouds":[],"obsTime":1775638800},"SBFZ":{"icaoId":"SBFZ","flightCategory":"VFR","rawOb":"METAR SBFZ 080900Z VRB01KT 9999 FEW023 24/23 Q1012","temp":24,"dewp":23,"wdir":"VRB","wspd":1,"visib":"6+","altim":1012,"clouds":[{"cover":"FEW","base":2300}],"obsTime":1775638800},"SBGL":{"icaoId":"SBGL","flightCategory":"VFR","rawOb":"METAR SBGL 080900Z 09003KT CAVOK 23/21 Q1011","temp":23,"dewp":21,"wdir":90,"wspd":3,"visib":"6+","altim":1011,"clouds":[],"obsTime":1775638800},"SBGO":{"icaoId":"SBGO","flightCategory":"VFR","rawOb":"METAR SBGO 080900Z VRB01KT CAVOK 21/19 Q1018","temp":21,"dewp":19,"wdir":"VRB","wspd":1,"visib":"6+","altim":1018,"clouds":[],"obsTime":1775638800},"SBGR":{"icaoId":"SBGR","flightCategory":"VFR","rawOb":"METAR SBGR 080900Z 29005KT 240V010 9999 FEW030 BKN100 22/19 Q1017","temp":22,"dewp":19,"wdir":290,"wspd":5,"visib":"6+","altim":1017,"clouds":[{"cover":"FEW","base":3000},{"cover":"BKN","base":10000}],"obsTime":1775638800},"SBHT":{"icaoId":"SBHT","flightCategory":"VFR","rawOb":"METAR SBHT 081000Z 08003KT 9999 SCT012 26/25 Q1012","temp":26,"dewp":25,"wdir":80,"wspd":3,"visib":"6+","altim":1012,"clouds":[{"cover":"SCT","base":1200}],"obsTime":1775642400},"SBIL":{"icaoId":"SBIL","flightCategory":"MVFR","rawOb":"METAR SBIL 081000Z COR 27004KT 210V350 8000 RA SCT011 BKN018 25/25 Q1015","temp":25,"dewp":25,"wdir":270,"wspd":4,"visib":4.97,"altim":1015,"clouds":[{"cover":"SCT","base":1100},{"cover":"BKN","base":1800}],"obsTime":1775642400},"SBJU":{"icaoId":"SBJU","flightCategory":"MVFR","rawOb":"METAR SBJU 080900Z 00000KT 5000 BR FEW019 22/22 Q1014","temp":22,"dewp":22,"wdir":0,"wspd":0,"visib":3.11,"altim":1014,"clouds":[{"cover":"FEW","base":1900}],"obsTime":1775638800},"SBKP":{"icaoId":"SBKP","flightCategory":"IFR","rawOb":"METAR SBKP 080900Z 28007KT 9999 -RA VCTS FEW005 BKN009 FEW030CB 21/20 Q1017","temp":21,"dewp":20,"wdir":280,"wspd":7,"visib":"6+","altim":1017,"clouds":[{"cover":"FEW","base":500},{"cover":"BKN","base":900},{"cover":"FEW","base":3000}],"obsTime":1775638800},"SBLO":{"icaoId":"SBLO","flightCategory":"LIFR","rawOb":"METAR SBLO 080900Z 36005KT 6000 BKN003 21/21 Q1015","temp":21,"dewp":21,"wdir":360,"wspd":5,"visib":3.73,"altim":1015,"clouds":[{"cover":"BKN","base":300}],"obsTime":1775638800},"SBMA":{"icaoId":"SBMA","flightCategory":"VFR","rawOb":"METAR SBMA 080900Z 00000KT 9999 SCT008 FEW020TCU BKN080 26/25 Q1012 RETS","temp":26,"dewp":25,"wdir":0,"wspd":0,"visib":"6+","altim":1012,"clouds":[{"cover":"SCT","base":800},{"cover":"FEW","base":2000},{"cover":"BKN","base":8000}],"obsTime":1775638800},"SBME":{"icaoId":"SBME","flightCategory":"VFR","rawOb":"METAR SBME 080900Z 04009KT CAVOK 24/23 Q1012","temp":24,"dewp":23,"wdir":40,"wspd":9,"visib":"6+","altim":1012,"clouds":[],"obsTime":1775638800},"SBMG":{"icaoId":"SBMG","flightCategory":"VFR","rawOb":"METAR SBMG 080900Z AUTO 01013KT 9999 SCT004 21/21 Q1014","temp":21,"dewp":21,"wdir":10,"wspd":13,"visib":"6+","altim":1014,"clouds":[{"cover":"SCT","base":400}],"obsTime":1775638800},"SBMK":{"icaoId":"SBMK","flightCategory":"VFR","rawOb":"METAR SBMK 080900Z 00000KT CAVOK 19/18 Q1018","temp":19,"dewp":18,"wdir":0,"wspd":0,"visib":"6+","altim":1018,"clouds":[],"obsTime":1775638800},"SBMO":{"icaoId":"SBMO","flightCategory":"VFR","rawOb":"METAR SBMO 080900Z 33001KT 9999 FEW020 23/23 Q1013","temp":23,"dewp":23,"wdir":330,"wspd":1,"visib":"6+","altim":1013,"clouds":[{"cover":"FEW","base":2000}],"obsTime":1775638800},"SBNT":{"icaoId":"SBNT","flightCategory":"VFR","rawOb":"METAR SBNT 080900Z 20002KT 9999 FEW020 SCT060 24/23 Q1012","temp":24,"dewp":23,"wdir":200,"wspd":2,"visib":"6+","altim":1012,"clouds":[{"cover":"FEW","base":2000},{"cover":"SCT","base":6000}],"obsTime":1775638800},"SBPA":{"icaoId":"SBPA","flightCategory":"VFR","rawOb":"METAR SBPA 080900Z 29009KT 260V330 9000 SCT010 BKN040 21/20 Q1006","temp":21,"dewp":20,"wdir":290,"wspd":9,"visib":5.59,"altim":1006,"clouds":[{"cover":"SCT","base":1000},{"cover":"BKN","base":4000}],"obsTime":1775638800},"SBPJ":{"icaoId":"SBPJ","flightCategory":"VFR","rawOb":"METAR SBPJ 080900Z 12004KT CAVOK 24/23 Q1013","temp":24,"dewp":23,"wdir":120,"wspd":4,"visib":"6+","altim":1013,"clouds":[],"obsTime":1775638800},"SBPV":{"icaoId":"SBPV","flightCategory":"VFR","rawOb":"METAR SBPV 080900Z 00000KT CAVOK 24/23 Q1011","temp":24,"dewp":23,"wdir":0,"wspd":0,"visib":"6+","altim":1011,"clouds":[],"obsTime":1775638800},"SBSG":{"icaoId":"SBSG","flightCategory":"VFR","rawOb":"METAR SBSG 080900Z 20003KT 9999 FEW014 24/23 Q1012","temp":24,"dewp":23,"wdir":200,"wspd":3,"visib":"6+","altim":1012,"clouds":[{"cover":"FEW","base":1400}],"obsTime":1775638800},"SBSL":{"icaoId":"SBSL","flightCategory":"VFR","rawOb":"METAR SBSL 080900Z 07003KT 9999 FEW017 26/25 Q1011","temp":26,"dewp":25,"wdir":70,"wspd":3,"visib":"6+","altim":1011,"clouds":[{"cover":"FEW","base":1700}],"obsTime":1775638800},"SBSN":{"icaoId":"SBSN","flightCategory":"VFR","rawOb":"METAR SBSN 080900Z 08005KT 9999 -RA SCT013 FEW025TCU SCT070 26/25 Q1011 RERA","temp":26,"dewp":25,"wdir":80,"wspd":5,"visib":"6+","altim":1011,"clouds":[{"cover":"SCT","base":1300},{"cover":"FEW","base":2500},{"cover":"SCT","base":7000}],"obsTime":1775638800},"SBSP":{"icaoId":"SBSP","flightCategory":"VFR","rawOb":"METAR SBSP 080900Z 31007KT 280V340 9999 FEW017 BKN032 BKN100 22/19 Q1018","temp":22,"dewp":19,"wdir":310,"wspd":7,"visib":"6+","altim":1018,"clouds":[{"cover":"FEW","base":1700},{"cover":"BKN","base":3200},{"cover":"BKN","base":10000}],"obsTime":1775638800},"SBSV":{"icaoId":"SBSV","flightCategory":"VFR","rawOb":"METAR SBSV 080900Z 06005KT 330V080 9999 FEW015 SCT024 BKN080 25/24 Q1014","temp":25,"dewp":24,"wdir":60,"wspd":5,"visib":"6+","altim":1014,"clouds":[{"cover":"FEW","base":1500},{"cover":"SCT","base":2400},{"cover":"BKN","base":8000}],"obsTime":1775638800},"SBTE":{"icaoId":"SBTE","flightCategory":"VFR","rawOb":"METAR SBTE 080900Z 00000KT 9999 FEW020 SCT100 25/24 Q1011","temp":25,"dewp":24,"wdir":0,"wspd":0,"visib":"6+","altim":1011,"clouds":[{"cover":"FEW","base":2000},{"cover":"SCT","base":10000}],"obsTime":1775638800},"SBUL":{"icaoId":"SBUL","flightCategory":"VFR","rawOb":"METAR SBUL 080900Z 00000KT CAVOK 20/19 Q1020","temp":20,"dewp":19,"wdir":0,"wspd":0,"visib":"6+","altim":1020,"clouds":[],"obsTime":1775638800},"SBUR":{"icaoId":"SBUR","flightCategory":"VFR","rawOb":"METAR SBUR 080900Z 02004KT 9999 SCT016 SCT076 22/19 Q1018","temp":22,"dewp":19,"wdir":20,"wspd":4,"visib":"6+","altim":1018,"clouds":[{"cover":"SCT","base":1600},{"cover":"SCT","base":7600}],"obsTime":1775638800},"SBVT":{"icaoId":"SBVT","flightCategory":"VFR","rawOb":"METAR SBVT 080900Z 35001KT 9999 FEW015 21/21 Q1015","temp":21,"dewp":21,"wdir":350,"wspd":1,"visib":"6+","altim":1015,"clouds":[{"cover":"FEW","base":1500}],"obsTime":1775638800},"SBRB":{"icaoId":"SBRB","flightCategory":"MVFR","rawOb":"METAR SBRB 080900Z 00000KT 8000 SCT002 BKN080 22/22 Q1012","temp":22,"dewp":22,"wdir":0,"wspd":0,"visib":4.97,"altim":1012,"clouds":[{"cover":"SCT","base":200},{"cover":"BKN","base":8000}],"obsTime":1775638800},"SBCJ":{"icaoId":"SBCJ","flightCategory":"VFR","rawOb":"SPECI SBCJ 081015Z 12004KT 9999 -RA NSC 22/21 Q1016","temp":22,"dewp":21,"wdir":120,"wspd":4,"visib":"6+","altim":1016,"clouds":[],"obsTime":1775643300},"SBPB":{"icaoId":"SBPB","flightCategory":"VFR","rawOb":"SPECI SBPB 081015Z 13004KT 9999 FEW020 27/24 Q1012","temp":27,"dewp":24,"wdir":130,"wspd":4,"visib":"6+","altim":1012,"clouds":[{"cover":"FEW","base":2000}],"obsTime":1775643300},"SBOI":{"icaoId":"SBOI","flightCategory":"LIFR","rawOb":"METAR SBOI 080900Z AUTO 05001KT 1200 // VV002 25/24 Q1012","temp":25,"dewp":24,"wdir":50,"wspd":1,"visib":0.75,"altim":1012,"clouds":[{"cover":"OVX","base":200}],"obsTime":1775638800},"SBCC":{"icaoId":"SBCC","flightCategory":"VFR","rawOb":"METAR SBCC 080900Z 06006KT CAVOK 23/21 Q1014","temp":23,"dewp":21,"wdir":60,"wspd":6,"visib":"6+","altim":1014,"clouds":[],"obsTime":1775638800},"SBIP":{"icaoId":"SBIP","flightCategory":"VFR","rawOb":"METAR SBIP 080900Z AUTO 00000KT 9999 FEW038 19/19 Q1017","temp":19,"dewp":19,"wdir":0,"wspd":0,"visib":"6+","altim":1017,"clouds":[{"cover":"FEW","base":3800}],"obsTime":1775638800},"SBKG":{"icaoId":"SBKG","flightCategory":"MVFR","rawOb":"METAR SBKG 080900Z 00000KT 9999 BKN010 22/22 Q1015","temp":22,"dewp":22,"wdir":0,"wspd":0,"visib":"6+","altim":1015,"clouds":[{"cover":"BKN","base":1000}],"obsTime":1775638800},"SBBH":{"icaoId":"SBBH","flightCategory":"VFR","rawOb":"METAR SBBH 080900Z 11002KT CAVOK 18/17 Q1019","temp":18,"dewp":17,"wdir":110,"wspd":2,"visib":"6+","altim":1019,"clouds":[],"obsTime":1775638800},"SBPL":{"icaoId":"SBPL","flightCategory":"VFR","rawOb":"METAR SBPL 080900Z 11006KT CAVOK 24/21 Q1015","temp":24,"dewp":21,"wdir":110,"wspd":6,"visib":"6+","altim":1015,"clouds":[],"obsTime":1775638800},"SBPS":{"icaoId":"SBPS","flightCategory":"VFR","rawOb":"METAR SBPS 080900Z 25004KT 9999 SCT020 24/23 Q1015","temp":24,"dewp":23,"wdir":250,"wspd":4,"visib":"6+","altim":1015,"clouds":[{"cover":"SCT","base":2000}],"obsTime":1775638800},"SBAX":{"icaoId":"SBAX","flightCategory":"VFR","rawOb":"METAR SBAX 080900Z AUTO VRB01KT 9999 FEW045 ///// Q1020","temp":null,"dewp":null,"wdir":"VRB","wspd":1,"visib":"6+","altim":1020,"clouds":[{"cover":"FEW","base":4500}],"obsTime":1775638800},"SBCO":{"icaoId":"SBCO","flightCategory":"MVFR","rawOb":"METAR SBCO 080900Z 31011KT 9999 BKN010 SCT035 21/19 Q1006","temp":21,"dewp":19,"wdir":310,"wspd":11,"visib":"6+","altim":1006,"clouds":[{"cover":"BKN","base":1000},{"cover":"SCT","base":3500}],"obsTime":1775638800},"SBSC":{"icaoId":"SBSC","flightCategory":"VFR","rawOb":"METAR SBSC 080900Z 36009KT CAVOK 26/21 Q1011","temp":26,"dewp":21,"wdir":360,"wspd":9,"visib":"6+","altim":1011,"clouds":[],"obsTime":1775638800},"SBBU":{"icaoId":"SBBU","flightCategory":"VFR","rawOb":"METAR SBBU 080900Z /////KT 9999 -RA FEW002 SCT030 OVC075 21/21 Q1017","temp":21,"dewp":21,"wdir":null,"wspd":null,"visib":"6+","altim":1017,"clouds":[{"cover":"FEW","base":200},{"cover":"SCT","base":3000},{"cover":"OVC","base":7500}],"obsTime":1775638800},"SBSJ":{"icaoId":"SBSJ","flightCategory":"LIFR","rawOb":"METAR SBSJ 080900Z 14001KT 0700 R16///// R34///// FG VV002 20/19 Q1016","temp":20,"dewp":19,"wdir":140,"wspd":1,"visib":0.43,"altim":1016,"clouds":[{"cover":"OVX","base":200}],"obsTime":1775638800},"SBDN":{"icaoId":"SBDN","flightCategory":"VFR","rawOb":"METAR SBDN 080900Z COR 05006KT 9999 SCT004 22/20 Q1015","temp":22,"dewp":20,"wdir":50,"wspd":6,"visib":"6+","altim":1015,"clouds":[{"cover":"SCT","base":400}],"obsTime":1775638800},"SBSM":{"icaoId":"SBSM","flightCategory":"MVFR","rawOb":"METAR SBSM 080900Z 28010KT 9999 OVC010 19/18 Q1009","temp":19,"dewp":18,"wdir":280,"wspd":10,"visib":"6+","altim":1009,"clouds":[{"cover":"OVC","base":1000}],"obsTime":1775638800},"SBES":{"icaoId":"SBES","flightCategory":"VFR","rawOb":"METAR SBES 080900Z 05006KT 310V080 9000 FEW005 22/// Q1012","temp":null,"dewp":null,"wdir":50,"wspd":6,"visib":5.59,"altim":1012,"clouds":[{"cover":"FEW","base":500}],"obsTime":1775638800},"SBSR":{"icaoId":"SBSR","flightCategory":"MVFR","rawOb":"METAR SBSR 080900Z 22003KT 9999 -RA SCT010 BKN025 BKN070 21/20 Q1018","temp":21,"dewp":20,"wdir":220,"wspd":3,"visib":"6+","altim":1018,"clouds":[{"cover":"SCT","base":1000},{"cover":"BKN","base":2500},{"cover":"BKN","base":7000}],"obsTime":1775638800},"SBAR":{"icaoId":"SBAR","flightCategory":"MVFR","rawOb":"METAR SBAR 080900Z 12008KT 9999 VCSH BKN022 SCT035 28/24 Q1013","temp":28,"dewp":24,"wdir":120,"wspd":8,"visib":"6+","altim":1013,"clouds":[{"cover":"BKN","base":2200},{"cover":"SCT","base":3500}],"obsTime":1775638800},"SBCA":{"icaoId":"SBCA","flightCategory":"LIFR","rawOb":"METAR SBCA 080900Z 27005KT 4000 DZ BR BCFG BKN002 OVC015 18/18 Q1015","temp":18,"dewp":18,"wdir":270,"wspd":5,"visib":2.49,"altim":1015,"clouds":[{"cover":"BKN","base":200},{"cover":"OVC","base":1500}],"obsTime":1775638800},"SBTA":{"icaoId":"SBTA","flightCategory":"VFR","rawOb":"METAR SBTA 080900Z VRB01KT 9999 FEW010 BKN100 20/20 Q1015","temp":20,"dewp":20,"wdir":"VRB","wspd":1,"visib":"6+","altim":1015,"clouds":[{"cover":"FEW","base":1000},{"cover":"BKN","base":10000}],"obsTime":1775638800},"SBJP":{"icaoId":"SBJP","flightCategory":"VFR","rawOb":"METAR SBJP 080900Z 24003KT 9999 FEW020 24/24 Q1012","temp":24,"dewp":24,"wdir":240,"wspd":3,"visib":"6+","altim":1012,"clouds":[{"cover":"FEW","base":2000}],"obsTime":1775638800},"SBJV":{"icaoId":"SBJV","flightCategory":"VFR","rawOb":"METAR SBJV 080900Z 17001KT CAVOK 22/22 Q1008","temp":22,"dewp":22,"wdir":170,"wspd":1,"visib":"6+","altim":1008,"clouds":[],"obsTime":1775638800},"SBPF":{"icaoId":"SBPF","flightCategory":"IFR","rawOb":"METAR SBPF 080900Z 30012KT 8000 -RA BKN005 BKN070 18/18 Q1012","temp":18,"dewp":18,"wdir":300,"wspd":12,"visib":4.97,"altim":1012,"clouds":[{"cover":"BKN","base":500},{"cover":"BKN","base":7000}],"obsTime":1775638800},"SBIH":{"icaoId":"SBIH","flightCategory":"MVFR","rawOb":"METAR SBIH 080900Z 00000KT 5000 BR FEW010 25/25 Q1011","temp":25,"dewp":25,"wdir":0,"wspd":0,"visib":3.11,"altim":1011,"clouds":[{"cover":"FEW","base":1000}],"obsTime":1775638800},"SBAN":{"icaoId":"SBAN","flightCategory":"VFR","rawOb":"METAR SBAN 080900Z 09004KT 9999 FEW030 SCT100 19/17 Q1021","temp":19,"dewp":17,"wdir":90,"wspd":4,"visib":"6+","altim":1021,"clouds":[{"cover":"FEW","base":3000},{"cover":"SCT","base":10000}],"obsTime":1775638800},"SBAF":{"icaoId":"SBAF","flightCategory":"VFR","rawOb":"METAR SBAF 081000Z 30002KT CAVOK 24/24 Q1012","temp":24,"dewp":24,"wdir":300,"wspd":2,"visib":"6+","altim":1012,"clouds":[],"obsTime":1775642400},"SBGW":{"icaoId":"SBGW","flightCategory":"MVFR","rawOb":"METAR SBGW 080900Z 00000KT 8000 FEW015 BKN100 21/18 Q1016","temp":21,"dewp":18,"wdir":0,"wspd":0,"visib":4.97,"altim":1016,"clouds":[{"cover":"FEW","base":1500},{"cover":"BKN","base":10000}],"obsTime":1775638800},"SBJR":{"icaoId":"SBJR","flightCategory":"VFR","rawOb":"METAR SBJR 081000Z 01007KT CAVOK 27/22 Q1011","temp":27,"dewp":22,"wdir":10,"wspd":7,"visib":"6+","altim":1011,"clouds":[],"obsTime":1775642400},"SBLS":{"icaoId":"SBLS","flightCategory":"VFR","rawOb":"METAR SBLS 080900Z 16004KT CAVOK 19/17 Q1019","temp":19,"dewp":17,"wdir":160,"wspd":4,"visib":"6+","altim":1019,"clouds":[],"obsTime":1775638800},"SBMT":{"icaoId":"SBMT","flightCategory":"VFR","rawOb":"METAR SBMT 080900Z 31007KT 280V340 9999 FEW019 SCT090 22/19 Q1016","temp":22,"dewp":19,"wdir":310,"wspd":7,"visib":"6+","altim":1016,"clouds":[{"cover":"FEW","base":1900},{"cover":"SCT","base":9000}],"obsTime":1775638800}}}