{"updated":1775429741,"count":80,"data":{"SBRF":{"icaoId":"SBRF","flightCategory":"MVFR","rawOb":"METAR SBRF 052100Z 29003KT 8000 VCSH SCT013 BKN018 BKN025 25/24 Q1012","temp":25,"dewp":24,"wdir":290,"wspd":3,"visib":4.97,"altim":1012,"clouds":[{"cover":"SCT","base":1300},{"cover":"BKN","base":1800},{"cover":"BKN","base":2500}],"obsTime":1775422800},"SBBE":{"icaoId":"SBBE","flightCategory":"IFR","rawOb":"METAR SBBE 052100Z 04006KT 2000 +TSRA SCT008 BKN020 FEW025CB 23/23 Q1012","temp":23,"dewp":23,"wdir":40,"wspd":6,"visib":1.24,"altim":1012,"clouds":[{"cover":"SCT","base":800},{"cover":"BKN","base":2000},{"cover":"FEW","base":2500}],"obsTime":1775422800},"SBSP":{"icaoId":"SBSP","flightCategory":"VFR","rawOb":"METAR SBSP 052100Z 17011KT 9999 FEW019 23/19 Q1019","temp":23,"dewp":19,"wdir":170,"wspd":11,"visib":"6+","altim":1019,"clouds":[{"cover":"FEW","base":1900}],"obsTime":1775422800},"SBBR":{"icaoId":"SBBR","flightCategory":"VFR","rawOb":"METAR SBBR 052100Z 07008KT 9999 VCTS FEW045 FEW050CB SCT090 27/17 Q1017","temp":27,"dewp":17,"wdir":70,"wspd":8,"visib":"6+","altim":1017,"clouds":[{"cover":"FEW","base":4500},{"cover":"FEW","base":5000},{"cover":"SCT","base":9000}],"obsTime":1775422800},"SBBV":{"icaoId":"SBBV","flightCategory":"VFR","rawOb":"METAR SBBV 052100Z 11005KT 9999 SCT035 FEW040TCU 31/22 Q1008","temp":31,"dewp":22,"wdir":110,"wspd":5,"visib":"6+","altim":1008,"clouds":[{"cover":"SCT","base":3500},{"cover":"FEW","base":4000}],"obsTime":1775422800},"SBCB":{"icaoId":"SBCB","flightCategory":"VFR","rawOb":"METAR SBCB 052100Z 22004KT 9999 FEW025TCU SCT040 26/23 Q1015","temp":26,"dewp":23,"wdir":220,"wspd":4,"visib":"6+","altim":1015,"clouds":[{"cover":"FEW","base":2500},{"cover":"SCT","base":4000}],"obsTime":1775422800},"SBCF":{"icaoId":"SBCF","flightCategory":"VFR","rawOb":"METAR SBCF 052100Z 09006KT 9999 BKN040 FEW040TCU 26/19 Q1017","temp":26,"dewp":19,"wdir":90,"wspd":6,"visib":"6+","altim":1017,"clouds":[{"cover":"BKN","base":4000},{"cover":"FEW","base":4000}],"obsTime":1775422800},"SBCG":{"icaoId":"SBCG","flightCategory":"VFR","rawOb":"METAR SBCG 052100Z 01008KT 9999 VCSH FEW035 FEW045TCU BKN100 23/20 Q1014","temp":23,"dewp":20,"wdir":10,"wspd":8,"visib":"6+","altim":1014,"clouds":[{"cover":"FEW","base":3500},{"cover":"FEW","base":4500},{"cover":"BKN","base":10000}],"obsTime":1775422800},"SBCP":{"icaoId":"SBCP","flightCategory":"VFR","rawOb":"METAR SBCP 052100Z 08011KT 9999 FEW020 26/23 Q1013","temp":26,"dewp":23,"wdir":80,"wspd":11,"visib":"6+","altim":1013,"clouds":[{"cover":"FEW","base":2000}],"obsTime":1775422800},"SBCT":{"icaoId":"SBCT","flightCategory":"IFR","rawOb":"METAR SBCT 052100Z 13012KT 9999 BKN009 20/19 Q1020","temp":20,"dewp":19,"wdir":130,"wspd":12,"visib":"6+","altim":1020,"clouds":[{"cover":"BKN","base":900}],"obsTime":1775422800},"SBCZ":{"icaoId":"SBCZ","flightCategory":"VFR","rawOb":"METAR SBCZ 052100Z 24007KT 9999 FEW030 BKN100 24/24 Q1009","temp":24,"dewp":24,"wdir":240,"wspd":7,"visib":"6+","altim":1009,"clouds":[{"cover":"FEW","base":3000},{"cover":"BKN","base":10000}],"obsTime":1775422800},"SBEG":{"icaoId":"SBEG","flightCategory":"VFR","rawOb":"METAR SBEG 052100Z 32005KT 9999 SCT025 31/23 Q1008","temp":31,"dewp":23,"wdir":320,"wspd":5,"visib":"6+","altim":1008,"clouds":[{"cover":"SCT","base":2500}],"obsTime":1775422800},"SBFI":{"icaoId":"SBFI","flightCategory":"VFR","rawOb":"METAR SBFI 052100Z 09002KT 9999 FEW030 FEW035TCU SCT100 33/21 Q1011","temp":33,"dewp":21,"wdir":90,"wspd":2,"visib":"6+","altim":1011,"clouds":[{"cover":"FEW","base":3000},{"cover":"FEW","base":3500},{"cover":"SCT","base":10000}],"obsTime":1775422800},"SBFL":{"icaoId":"SBFL","flightCategory":"IFR","rawOb":"METAR SBFL 052100Z 19007KT 130V220 4500 -DZ FEW007 BKN014 OVC025 22/21 Q1018","temp":22,"dewp":21,"wdir":190,"wspd":7,"visib":2.8,"altim":1018,"clouds":[{"cover":"FEW","base":700},{"cover":"BKN","base":1400},{"cover":"OVC","base":2500}],"obsTime":1775422800},"SBFZ":{"icaoId":"SBFZ","flightCategory":"MVFR","rawOb":"METAR SBFZ 052100Z 07006KT 6000 -RA FEW025TCU OVC070 25/24 Q1010","temp":25,"dewp":24,"wdir":70,"wspd":6,"visib":3.73,"altim":1010,"clouds":[{"cover":"FEW","base":2500},{"cover":"OVC","base":7000}],"obsTime":1775422800},"SBGL":{"icaoId":"SBGL","flightCategory":"VFR","rawOb":"METAR SBGL 052100Z 04004KT 9999 FEW045 SCT100 26/22 Q1014","temp":26,"dewp":22,"wdir":40,"wspd":4,"visib":"6+","altim":1014,"clouds":[{"cover":"FEW","base":4500},{"cover":"SCT","base":10000}],"obsTime":1775422800},"SBGO":{"icaoId":"SBGO","flightCategory":"VFR","rawOb":"METAR SBGO 052100Z 30003KT 250V360 9999 FEW045 FEW050TCU 30/20 Q1014","temp":30,"dewp":20,"wdir":300,"wspd":3,"visib":"6+","altim":1014,"clouds":[{"cover":"FEW","base":4500},{"cover":"FEW","base":5000}],"obsTime":1775422800},"SBGR":{"icaoId":"SBGR","flightCategory":"VFR","rawOb":"METAR SBGR 052100Z 15005KT 9999 SCT020 24/20 Q1018","temp":24,"dewp":20,"wdir":150,"wspd":5,"visib":"6+","altim":1018,"clouds":[{"cover":"SCT","base":2000}],"obsTime":1775422800},"SBIL":{"icaoId":"SBIL","flightCategory":"VFR","rawOb":"METAR SBIL 052100Z 15005KT 9999 FEW020 28/24 Q1013","temp":28,"dewp":24,"wdir":150,"wspd":5,"visib":"6+","altim":1013,"clouds":[{"cover":"FEW","base":2000}],"obsTime":1775422800},"SBJU":{"icaoId":"SBJU","flightCategory":"VFR","rawOb":"METAR SBJU 052100Z 00000KT 9999 FEW020 27/22 Q1012","temp":27,"dewp":22,"wdir":0,"wspd":0,"visib":"6+","altim":1012,"clouds":[{"cover":"FEW","base":2000}],"obsTime":1775422800},"SBKP":{"icaoId":"SBKP","flightCategory":"VFR","rawOb":"METAR SBKP 052100Z 15012KT 9999 FEW045 29/18 Q1015","temp":29,"dewp":18,"wdir":150,"wspd":12,"visib":"6+","altim":1015,"clouds":[{"cover":"FEW","base":4500}],"obsTime":1775422800},"SBLO":{"icaoId":"SBLO","flightCategory":"VFR","rawOb":"METAR SBLO 052100Z 14003KT 9999 FEW030 30/19 Q1014","temp":30,"dewp":19,"wdir":140,"wspd":3,"visib":"6+","altim":1014,"clouds":[{"cover":"FEW","base":3000}],"obsTime":1775422800},"SBMA":{"icaoId":"SBMA","flightCategory":"VFR","rawOb":"METAR SBMA 052100Z 30003KT 9999 FEW020 FEW023TCU BKN100 30/26 Q1010","temp":30,"dewp":26,"wdir":300,"wspd":3,"visib":"6+","altim":1010,"clouds":[{"cover":"FEW","base":2000},{"cover":"FEW","base":2300},{"cover":"BKN","base":10000}],"obsTime":1775422800},"SBME":{"icaoId":"SBME","flightCategory":"VFR","rawOb":"METAR SBME 052100Z VRB01KT 9999 SCT040 26/22 Q1014","temp":26,"dewp":22,"wdir":"VRB","wspd":1,"visib":"6+","altim":1014,"clouds":[{"cover":"SCT","base":4000}],"obsTime":1775422800},"SBMG":{"icaoId":"SBMG","flightCategory":"VFR","rawOb":"METAR SBMG 052100Z 03004KT 9999 VCSH FEW050TCU 30/20 Q1012","temp":30,"dewp":20,"wdir":30,"wspd":4,"visib":"6+","altim":1012,"clouds":[{"cover":"FEW","base":5000}],"obsTime":1775422800},"SBMK":{"icaoId":"SBMK","flightCategory":"VFR","rawOb":"METAR SBMK 052100Z 07003KT 9999 FEW034 FEW038TCU 28/19 Q1015","temp":28,"dewp":19,"wdir":70,"wspd":3,"visib":"6+","altim":1015,"clouds":[{"cover":"FEW","base":3400},{"cover":"FEW","base":3800}],"obsTime":1775422800},"SBMO":{"icaoId":"SBMO","flightCategory":"VFR","rawOb":"METAR SBMO 052100Z 31002KT 9999 FEW020 BKN070 24/24 Q1013","temp":24,"dewp":24,"wdir":310,"wspd":2,"visib":"6+","altim":1013,"clouds":[{"cover":"FEW","base":2000},{"cover":"BKN","base":7000}],"obsTime":1775422800},"SBMQ":{"icaoId":"SBMQ","flightCategory":"VFR","rawOb":"METAR SBMQ 052100Z 07005KT 9999 SCT021 29/25 Q1010","temp":29,"dewp":25,"wdir":70,"wspd":5,"visib":"6+","altim":1010,"clouds":[{"cover":"SCT","base":2100}],"obsTime":1775422800},"SBNT":{"icaoId":"SBNT","flightCategory":"VFR","rawOb":"METAR SBNT 052100Z 11006KT 9999 VCSH FEW022 FEW030TCU SCT036 BKN100 28/23 Q1011","temp":28,"dewp":23,"wdir":110,"wspd":6,"visib":"6+","altim":1011,"clouds":[{"cover":"FEW","base":2200},{"cover":"FEW","base":3000},{"cover":"SCT","base":3600},{"cover":"BKN","base":10000}],"obsTime":1775422800},"SBPA":{"icaoId":"SBPA","flightCategory":"VFR","rawOb":"METAR SBPA 052100Z 13011KT 9999 OVC040 22/15 Q1019","temp":22,"dewp":15,"wdir":130,"wspd":11,"visib":"6+","altim":1019,"clouds":[{"cover":"OVC","base":4000}],"obsTime":1775422800},"SBPJ":{"icaoId":"SBPJ","flightCategory":"VFR","rawOb":"METAR SBPJ 052100Z VRB02KT 9999 FEW040 FEW045TCU 32/24 Q1009","temp":32,"dewp":24,"wdir":"VRB","wspd":2,"visib":"6+","altim":1009,"clouds":[{"cover":"FEW","base":4000},{"cover":"FEW","base":4500}],"obsTime":1775422800},"SBPV":{"icaoId":"SBPV","flightCategory":"MVFR","rawOb":"METAR SBPV 052100Z 33005KT 290V360 9999 -TSRA SCT010 BKN020 FEW035CB 25/24 Q1008","temp":25,"dewp":24,"wdir":330,"wspd":5,"visib":"6+","altim":1008,"clouds":[{"cover":"SCT","base":1000},{"cover":"BKN","base":2000},{"cover":"FEW","base":3500}],"obsTime":1775422800},"SBRB":{"icaoId":"SBRB","flightCategory":"MVFR","rawOb":"METAR SBRB 052100Z 06006KT 9999 BKN030 30/24 Q1008","temp":30,"dewp":24,"wdir":60,"wspd":6,"visib":"6+","altim":1008,"clouds":[{"cover":"BKN","base":3000}],"obsTime":1775422800},"SBSG":{"icaoId":"SBSG","flightCategory":"VFR","rawOb":"METAR SBSG 052100Z 11005KT 9999 SCT026 27/24 Q1011","temp":27,"dewp":24,"wdir":110,"wspd":5,"visib":"6+","altim":1011,"clouds":[{"cover":"SCT","base":2600}],"obsTime":1775422800},"SBSL":{"icaoId":"SBSL","flightCategory":"VFR","rawOb":"METAR SBSL 052100Z 05009KT 9999 SCT017 FEW020TCU SCT100 27/25 Q1010","temp":27,"dewp":25,"wdir":50,"wspd":9,"visib":"6+","altim":1010,"clouds":[{"cover":"SCT","base":1700},{"cover":"FEW","base":2000},{"cover":"SCT","base":10000}],"obsTime":1775422800},"SBSN":{"icaoId":"SBSN","flightCategory":"VFR","rawOb":"METAR SBSN 052100Z 08005KT 020V090 9999 FEW021 FEW023TCU SCT100 28/25 Q1009","temp":28,"dewp":25,"wdir":80,"wspd":5,"visib":"6+","altim":1009,"clouds":[{"cover":"FEW","base":2100},{"cover":"FEW","base":2300},{"cover":"SCT","base":10000}],"obsTime":1775422800},"SBSV":{"icaoId":"SBSV","flightCategory":"VFR","rawOb":"METAR SBSV 052100Z 14004KT 110V210 9999 SCT021 BKN070 28/23 Q1013","temp":28,"dewp":23,"wdir":140,"wspd":4,"visib":"6+","altim":1013,"clouds":[{"cover":"SCT","base":2100},{"cover":"BKN","base":7000}],"obsTime":1775422800},"SBTE":{"icaoId":"SBTE","flightCategory":"MVFR","rawOb":"METAR SBTE 052100Z 17004KT 9999 BKN020 29/24 Q1009","temp":29,"dewp":24,"wdir":170,"wspd":4,"visib":"6+","altim":1009,"clouds":[{"cover":"BKN","base":2000}],"obsTime":1775422800},"SBUL":{"icaoId":"SBUL","flightCategory":"VFR","rawOb":"METAR SBUL 052100Z 16007KT 9999 VCSH VCTS FEW045CB BKN045 25/19 Q1018","temp":25,"dewp":19,"wdir":160,"wspd":7,"visib":"6+","altim":1018,"clouds":[{"cover":"FEW","base":4500},{"cover":"BKN","base":4500}],"obsTime":1775422800},"SBUR":{"icaoId":"SBUR","flightCategory":"VFR","rawOb":"METAR SBUR 052100Z 02009KT 9999 SCT049 FEW055TCU 22/18 Q1017","temp":22,"dewp":18,"wdir":20,"wspd":9,"visib":"6+","altim":1017,"clouds":[{"cover":"SCT","base":4900},{"cover":"FEW","base":5500}],"obsTime":1775422800},"SBVT":{"icaoId":"SBVT","flightCategory":"VFR","rawOb":"METAR SBVT 052100Z 05007KT 9999 FEW045 26/23 Q1014","temp":26,"dewp":23,"wdir":50,"wspd":7,"visib":"6+","altim":1014,"clouds":[{"cover":"FEW","base":4500}],"obsTime":1775422800},"SBCR":{"icaoId":"SBCR","flightCategory":"VFR","rawOb":"METAR SBCR 052100Z 30004KT 270V340 9999 FEW030 31/23 Q1010","temp":31,"dewp":23,"wdir":300,"wspd":4,"visib":"6+","altim":1010,"clouds":[{"cover":"FEW","base":3000}],"obsTime":1775422800},"SBAT":{"icaoId":"SBAT","flightCategory":"VFR","rawOb":"METAR SBAT 052100Z 30003KT 9999 FEW033TCU SCT100 27/23 Q1010","temp":27,"dewp":23,"wdir":300,"wspd":3,"visib":"6+","altim":1010,"clouds":[{"cover":"FEW","base":3300},{"cover":"SCT","base":10000}],"obsTime":1775422800},"SBHT":{"icaoId":"SBHT","flightCategory":"VFR","rawOb":"METAR SBHT 052100Z 00000KT 9999 FEW015 BKN100 26/24 Q1010","temp":26,"dewp":24,"wdir":0,"wspd":0,"visib":"6+","altim":1010,"clouds":[{"cover":"FEW","base":1500},{"cover":"BKN","base":10000}],"obsTime":1775422800},"SBTF":{"icaoId":"SBTF","flightCategory":"VFR","rawOb":"METAR SBTF 052100Z 10004KT 9999 FEW020 31/25 Q1006","temp":31,"dewp":25,"wdir":100,"wspd":4,"visib":"6+","altim":1006,"clouds":[{"cover":"FEW","base":2000}],"obsTime":1775422800},"SBAX":{"icaoId":"SBAX","flightCategory":"VFR","rawOb":"METAR SBAX 052100Z AUTO 19006KT 9999 -RA NSC ///// Q1019","temp":null,"dewp":null,"wdir":190,"wspd":6,"visib":"6+","altim":1019,"clouds":[],"obsTime":1775422800},"SBAR":{"icaoId":"SBAR","flightCategory":"VFR","rawOb":"METAR SBAR 052100Z 11011KT 9999 VCSH SCT020 FEW025TCU 29/24 Q1012","temp":29,"dewp":24,"wdir":110,"wspd":11,"visib":"6+","altim":1012,"clouds":[{"cover":"SCT","base":2000},{"cover":"FEW","base":2500}],"obsTime":1775422800},"SBBH":{"icaoId":"SBBH","flightCategory":"VFR","rawOb":"METAR SBBH 052100Z 19003KT 9999 TS SCT045 FEW048CB 26/20 Q1017","temp":26,"dewp":20,"wdir":190,"wspd":3,"visib":"6+","altim":1017,"clouds":[{"cover":"SCT","base":4500},{"cover":"FEW","base":4800}],"obsTime":1775422800},"SBBU":{"icaoId":"SBBU","flightCategory":"VFR","rawOb":"METAR SBBU 052100Z 11006KT 9999 SCT035 30/21 Q1014","temp":30,"dewp":21,"wdir":110,"wspd":6,"visib":"6+","altim":1014,"clouds":[{"cover":"SCT","base":3500}],"obsTime":1775422800},"SBCO":{"icaoId":"SBCO","flightCategory":"VFR","rawOb":"METAR SBCO 052100Z 12008KT 9999 OVC035 21/15 Q1020","temp":21,"dewp":15,"wdir":120,"wspd":8,"visib":"6+","altim":1020,"clouds":[{"cover":"OVC","base":3500}],"obsTime":1775422800},"SBDN":{"icaoId":"SBDN","flightCategory":"VFR","rawOb":"METAR SBDN 052100Z 00000KT CAVOK 33/20 Q1012","temp":33,"dewp":20,"wdir":0,"wspd":0,"visib":"6+","altim":1012,"clouds":[],"obsTime":1775422800},"SBIP":{"icaoId":"SBIP","flightCategory":"VFR","rawOb":"METAR SBIP 052100Z AUTO 00000KT CAVOK 24/21 Q1014","temp":24,"dewp":21,"wdir":0,"wspd":0,"visib":"6+","altim":1014,"clouds":[],"obsTime":1775422800},"SBKG":{"icaoId":"SBKG","flightCategory":"VFR","rawOb":"METAR SBKG 052100Z 09006KT 9999 FEW013 BKN070 24/23 Q1014","temp":24,"dewp":23,"wdir":90,"wspd":6,"visib":"6+","altim":1014,"clouds":[{"cover":"FEW","base":1300},{"cover":"BKN","base":7000}],"obsTime":1775422800},"SBOI":{"icaoId":"SBOI","flightCategory":"VFR","rawOb":"METAR SBOI 052100Z AUTO 03008KT 9999 FEW029 29/24 Q1011","temp":29,"dewp":24,"wdir":30,"wspd":8,"visib":"6+","altim":1011,"clouds":[{"cover":"FEW","base":2900}],"obsTime":1775422800},"SBPL":{"icaoId":"SBPL","flightCategory":"VFR","rawOb":"METAR SBPL 052100Z 36002KT CAVOK 29/22 Q1011","temp":29,"dewp":22,"wdir":360,"wspd":2,"visib":"6+","altim":1011,"clouds":[],"obsTime":1775422800},"SBPS":{"icaoId":"SBPS","flightCategory":"VFR","rawOb":"METAR SBPS 052100Z 11005KT 9999 SCT020 27/23 Q1014","temp":27,"dewp":23,"wdir":110,"wspd":5,"visib":"6+","altim":1014,"clouds":[{"cover":"SCT","base":2000}],"obsTime":1775422800},"SBSC":{"icaoId":"SBSC","flightCategory":"VFR","rawOb":"METAR SBSC 052100Z 21004KT 9999 SCT030 25/22 Q1015","temp":25,"dewp":22,"wdir":210,"wspd":4,"visib":"6+","altim":1015,"clouds":[{"cover":"SCT","base":3000}],"obsTime":1775422800},"SBSJ":{"icaoId":"SBSJ","flightCategory":"VFR","rawOb":"METAR SBSJ 052100Z 12011KT 9999 FEW040 24/20 Q1017","temp":24,"dewp":20,"wdir":120,"wspd":11,"visib":"6+","altim":1017,"clouds":[{"cover":"FEW","base":4000}],"obsTime":1775422800},"SBSM":{"icaoId":"SBSM","flightCategory":"VFR","rawOb":"METAR SBSM 052100Z 10011G21KT 9999 OVC035 22/17 Q1018","temp":22,"dewp":17,"wdir":100,"wspd":11,"visib":"6+","altim":1018,"clouds":[{"cover":"OVC","base":3500}],"obsTime":1775422800},"SBSR":{"icaoId":"SBSR","flightCategory":"VFR","rawOb":"METAR SBSR 052100Z 16005KT 9999 FEW035 SCT070 29/18 Q1014","temp":29,"dewp":18,"wdir":160,"wspd":5,"visib":"6+","altim":1014,"clouds":[{"cover":"FEW","base":3500},{"cover":"SCT","base":7000}],"obsTime":1775422800},"SBTT":{"icaoId":"SBTT","flightCategory":"MVFR","rawOb":"METAR SBTT 052100Z 32007KT 290V350 9999 VCSH BKN024 FEW030TCU 28/23 Q1007","temp":28,"dewp":23,"wdir":320,"wspd":7,"visib":"6+","altim":1007,"clouds":[{"cover":"BKN","base":2400},{"cover":"FEW","base":3000}],"obsTime":1775422800},"SBUY":{"icaoId":"SBUY","flightCategory":"VFR","rawOb":"METAR SBUY 052100Z 00000KT 9999 FEW025 FEW030TCU SCT100 29/25 Q1005","temp":29,"dewp":25,"wdir":0,"wspd":0,"visib":"6+","altim":1005,"clouds":[{"cover":"FEW","base":2500},{"cover":"FEW","base":3000},{"cover":"SCT","base":10000}],"obsTime":1775422800},"SBVH":{"icaoId":"SBVH","flightCategory":"VFR","rawOb":"METAR SBVH 052100Z 11005KT 9999 FEW030 SCT100 27/22 Q1012","temp":27,"dewp":22,"wdir":110,"wspd":5,"visib":"6+","altim":1012,"clouds":[{"cover":"FEW","base":3000},{"cover":"SCT","base":10000}],"obsTime":1775422800},"SBPB":{"icaoId":"SBPB","flightCategory":"VFR","rawOb":"METAR SBPB 052100Z 10005KT 9999 SCT015 BKN090 26/25 Q1010","temp":26,"dewp":25,"wdir":100,"wspd":5,"visib":"6+","altim":1010,"clouds":[{"cover":"SCT","base":1500},{"cover":"BKN","base":9000}],"obsTime":1775422800},"SBCJ":{"icaoId":"SBCJ","flightCategory":"VFR","rawOb":"METAR SBCJ 052100Z 00000KT 9999 SCT015 FEW020TCU 25/23 Q1013","temp":25,"dewp":23,"wdir":0,"wspd":0,"visib":"6+","altim":1013,"clouds":[{"cover":"SCT","base":1500},{"cover":"FEW","base":2000}],"obsTime":1775422800},"SBPP":{"icaoId":"SBPP","flightCategory":"VFR","rawOb":"METAR SBPP 052100Z 03005KT 9999 FEW020 29/20 Q1014","temp":29,"dewp":20,"wdir":30,"wspd":5,"visib":"6+","altim":1014,"clouds":[{"cover":"FEW","base":2000}],"obsTime":1775422800},"SBES":{"icaoId":"SBES","flightCategory":"VFR","rawOb":"METAR SBES 052100Z VRB02KT 9999 FEW015 SCT100 25/// Q1014","temp":null,"dewp":null,"wdir":"VRB","wspd":2,"visib":"6+","altim":1014,"clouds":[{"cover":"FEW","base":1500},{"cover":"SCT","base":10000}],"obsTime":1775422800},"SBAN":{"icaoId":"SBAN","flightCategory":"VFR","rawOb":"METAR SBAN 052100Z 21003KT 180V240 9999 SCT040 FEW043TCU SCT055 26/18 Q1018","temp":26,"dewp":18,"wdir":210,"wspd":3,"visib":"6+","altim":1018,"clouds":[{"cover":"SCT","base":4000},{"cover":"FEW","base":4300},{"cover":"SCT","base":5500}],"obsTime":1775422800},"SBJV":{"icaoId":"SBJV","flightCategory":"MVFR","rawOb":"METAR SBJV 052100Z 15011KT 130V190 9999 SCT012 BKN020 26/22 Q1017","temp":26,"dewp":22,"wdir":150,"wspd":11,"visib":"6+","altim":1017,"clouds":[{"cover":"SCT","base":1200},{"cover":"BKN","base":2000}],"obsTime":1775422800},"SBAF":{"icaoId":"SBAF","flightCategory":"VFR","rawOb":"METAR SBAF 052100Z 24003KT 9999 SCT040 SCT100 27/22 Q1015","temp":27,"dewp":22,"wdir":240,"wspd":3,"visib":"6+","altim":1015,"clouds":[{"cover":"SCT","base":4000},{"cover":"SCT","base":10000}],"obsTime":1775422800},"SBGW":{"icaoId":"SBGW","flightCategory":"MVFR","rawOb":"METAR SBGW 052100Z COR 36004KT 8000 -TSRA SCT030 FEW035CB BKN070 21/17 Q1017 RETSRA","temp":21,"dewp":17,"wdir":360,"wspd":4,"visib":4.97,"altim":1017,"clouds":[{"cover":"SCT","base":3000},{"cover":"FEW","base":3500},{"cover":"BKN","base":7000}],"obsTime":1775422800},"SBJR":{"icaoId":"SBJR","flightCategory":"VFR","rawOb":"METAR SBJR 052100Z 21002KT 9999 FEW040 SCT100 26/23 Q1014","temp":26,"dewp":23,"wdir":210,"wspd":2,"visib":"6+","altim":1014,"clouds":[{"cover":"FEW","base":4000},{"cover":"SCT","base":10000}],"obsTime":1775422800},"SBLS":{"icaoId":"SBLS","flightCategory":"VFR","rawOb":"METAR SBLS 052100Z 13007KT 9999 SCT045 25/19 Q1017","temp":25,"dewp":19,"wdir":130,"wspd":7,"visib":"6+","altim":1017,"clouds":[{"cover":"SCT","base":4500}],"obsTime":1775422800},"SBMT":{"icaoId":"SBMT","flightCategory":"VFR","rawOb":"METAR SBMT 052100Z 14008KT 9999 FEW029 23/19 Q1018","temp":23,"dewp":19,"wdir":140,"wspd":8,"visib":"6+","altim":1018,"clouds":[{"cover":"FEW","base":2900}],"obsTime":1775422800},"SBLE":{"icaoId":"SBLE","flightCategory":"VFR","rawOb":"METAR SBLE 052100Z AUTO VRB02KT 9999 FEW037 ///// Q////","temp":null,"dewp":null,"wdir":"VRB","wspd":2,"visib":"6+","altim":null,"clouds":[{"cover":"FEW","base":3700}],"obsTime":1775422800},"SBJP":{"icaoId":"SBJP","flightCategory":"MVFR","rawOb":"METAR SBJP 052100Z 03005KT 9999 BKN030 BKN070 26/24 Q1012","temp":26,"dewp":24,"wdir":30,"wspd":5,"visib":"6+","altim":1012,"clouds":[{"cover":"BKN","base":3000},{"cover":"BKN","base":7000}],"obsTime":1775422800},"SBIH":{"icaoId":"SBIH","flightCategory":"VFR","rawOb":"METAR SBIH 052100Z 03009KT 9999 SCT016 28/24 Q1009","temp":28,"dewp":24,"wdir":30,"wspd":9,"visib":"6+","altim":1009,"clouds":[{"cover":"SCT","base":1600}],"obsTime":1775422800},"SBST":{"icaoId":"SBST","flightCategory":"MVFR","rawOb":"METAR SBST 052100Z 14004KT 8000 BKN045 26/22 Q1014","temp":26,"dewp":22,"wdir":140,"wspd":4,"visib":4.97,"altim":1014,"clouds":[{"cover":"BKN","base":4500}],"obsTime":1775422800},"SBTA":{"icaoId":"SBTA","flightCategory":"VFR","rawOb":"METAR SBTA 052100Z 11004KT 9999 SCT035 SCT090 24/19 Q1016","temp":24,"dewp":19,"wdir":110,"wspd":4,"visib":"6+","altim":1016,"clouds":[{"cover":"SCT","base":3500},{"cover":"SCT","base":9000}],"obsTime":1775422800},"SBPF":{"icaoId":"SBPF","flightCategory":"VFR","rawOb":"METAR SBPF 052100Z AUTO 13015KT 9999 NSC 20/17 Q1018","temp":20,"dewp":17,"wdir":130,"wspd":15,"visib":"6+","altim":1018,"clouds":[],"obsTime":1775422800}}}