{"updated":1773776772,"count":86,"data":{"SBGO":{"icaoId":"SBGO","flightCategory":"VFR","rawOb":"METAR SBGO 171800Z 02005KT 320V070 9999 SCT030 SCT035TCU 27/22 Q1013","temp":27,"dewp":22,"wdir":20,"wspd":5,"visib":"6+","altim":1013,"clouds":[{"cover":"SCT","base":3000},{"cover":"SCT","base":3500}],"obsTime":1773770400},"SBBE":{"icaoId":"SBBE","flightCategory":"VFR","rawOb":"METAR SBBE 171800Z 02006KT 9999 VCSH FEW010 FEW030TCU SCT042 BKN090 26/25 Q1009","temp":26,"dewp":25,"wdir":20,"wspd":6,"visib":"6+","altim":1009,"clouds":[{"cover":"FEW","base":1000},{"cover":"FEW","base":3000},{"cover":"SCT","base":4200},{"cover":"BKN","base":9000}],"obsTime":1773770400},"SBBR":{"icaoId":"SBBR","flightCategory":"VFR","rawOb":"METAR SBBR 171800Z 29004KT 9999 SCT030 FEW040TCU 25/21 Q1016 RETS","temp":25,"dewp":21,"wdir":290,"wspd":4,"visib":"6+","altim":1016,"clouds":[{"cover":"SCT","base":3000},{"cover":"FEW","base":4000}],"obsTime":1773770400},"SBPV":{"icaoId":"SBPV","flightCategory":"MVFR","rawOb":"METAR SBPV 171800Z 05008KT 9999 VCSH BKN015 BKN035 FEW040TCU 29/24 Q1008","temp":29,"dewp":24,"wdir":50,"wspd":8,"visib":"6+","altim":1008,"clouds":[{"cover":"BKN","base":1500},{"cover":"BKN","base":3500},{"cover":"FEW","base":4000}],"obsTime":1773770400},"SBAT":{"icaoId":"SBAT","flightCategory":"VFR","rawOb":"METAR SBAT 171800Z 03003KT 9999 SCT030 32/25 Q1010","temp":32,"dewp":25,"wdir":30,"wspd":3,"visib":"6+","altim":1010,"clouds":[{"cover":"SCT","base":3000}],"obsTime":1773770400},"SBBV":{"icaoId":"SBBV","flightCategory":"VFR","rawOb":"METAR SBBV 171800Z 09013KT 9999 SCT040 FEW045TCU 33/19 Q1009","temp":33,"dewp":19,"wdir":90,"wspd":13,"visib":"6+","altim":1009,"clouds":[{"cover":"SCT","base":4000},{"cover":"FEW","base":4500}],"obsTime":1773770400},"SBCB":{"icaoId":"SBCB","flightCategory":"VFR","rawOb":"METAR SBCB 171800Z 10015KT CAVOK 28/22 Q1012","temp":28,"dewp":22,"wdir":100,"wspd":15,"visib":"6+","altim":1012,"clouds":[],"obsTime":1773770400},"SBCF":{"icaoId":"SBCF","flightCategory":"VFR","rawOb":"METAR SBCF 171800Z 12008KT 9999 BKN040 27/20 Q1015","temp":27,"dewp":20,"wdir":120,"wspd":8,"visib":"6+","altim":1015,"clouds":[{"cover":"BKN","base":4000}],"obsTime":1773770400},"SBCG":{"icaoId":"SBCG","flightCategory":"VFR","rawOb":"METAR SBCG 171800Z 33008KT 9999 SCT030 FEW035TCU 28/22 Q1010","temp":28,"dewp":22,"wdir":330,"wspd":8,"visib":"6+","altim":1010,"clouds":[{"cover":"SCT","base":3000},{"cover":"FEW","base":3500}],"obsTime":1773770400},"SBCP":{"icaoId":"SBCP","flightCategory":"VFR","rawOb":"METAR SBCP 171800Z 10010KT 9999 FEW020 31/23 Q1011","temp":31,"dewp":23,"wdir":100,"wspd":10,"visib":"6+","altim":1011,"clouds":[{"cover":"FEW","base":2000}],"obsTime":1773770400},"SBCR":{"icaoId":"SBCR","flightCategory":"VFR","rawOb":"METAR SBCR 171800Z 33010KT 300V010 9999 FEW045 36/23 Q1005","temp":36,"dewp":23,"wdir":330,"wspd":10,"visib":"6+","altim":1005,"clouds":[{"cover":"FEW","base":4500}],"obsTime":1773770400},"SBCT":{"icaoId":"SBCT","flightCategory":"VFR","rawOb":"METAR SBCT 171800Z 08010KT 9999 FEW040 28/18 Q1015","temp":28,"dewp":18,"wdir":80,"wspd":10,"visib":"6+","altim":1015,"clouds":[{"cover":"FEW","base":4000}],"obsTime":1773770400},"SBCZ":{"icaoId":"SBCZ","flightCategory":"VFR","rawOb":"METAR SBCZ 171800Z 12003KT 050V220 9999 SCT020 BKN100 29/25 Q1010","temp":29,"dewp":25,"wdir":120,"wspd":3,"visib":"6+","altim":1010,"clouds":[{"cover":"SCT","base":2000},{"cover":"BKN","base":10000}],"obsTime":1773770400},"SBEG":{"icaoId":"SBEG","flightCategory":"VFR","rawOb":"METAR SBEG 171800Z 08012KT 9999 SCT020 FEW025TCU BKN080 27/25 Q1009","temp":27,"dewp":25,"wdir":80,"wspd":12,"visib":"6+","altim":1009,"clouds":[{"cover":"SCT","base":2000},{"cover":"FEW","base":2500},{"cover":"BKN","base":8000}],"obsTime":1773770400},"SBFI":{"icaoId":"SBFI","flightCategory":"MVFR","rawOb":"METAR SBFI 171800Z 32004KT 9999 SCT015 BKN025 FEW040TCU 26/23 Q1009","temp":26,"dewp":23,"wdir":320,"wspd":4,"visib":"6+","altim":1009,"clouds":[{"cover":"SCT","base":1500},{"cover":"BKN","base":2500},{"cover":"FEW","base":4000}],"obsTime":1773770400},"SBFL":{"icaoId":"SBFL","flightCategory":"VFR","rawOb":"METAR SBFL 171800Z 01013KT 9999 FEW037 31/22 Q1010","temp":31,"dewp":22,"wdir":10,"wspd":13,"visib":"6+","altim":1010,"clouds":[{"cover":"FEW","base":3700}],"obsTime":1773770400},"SBFZ":{"icaoId":"SBFZ","flightCategory":"VFR","rawOb":"METAR SBFZ 171800Z 08010KT 9999 SCT025 30/24 Q1008","temp":30,"dewp":24,"wdir":80,"wspd":10,"visib":"6+","altim":1008,"clouds":[{"cover":"SCT","base":2500}],"obsTime":1773770400},"SBGL":{"icaoId":"SBGL","flightCategory":"VFR","rawOb":"METAR SBGL 171800Z 13013KT 9999 FEW020 29/22 Q1010","temp":29,"dewp":22,"wdir":130,"wspd":13,"visib":"6+","altim":1010,"clouds":[{"cover":"FEW","base":2000}],"obsTime":1773770400},"SBGR":{"icaoId":"SBGR","flightCategory":"VFR","rawOb":"METAR SBGR 171800Z 23006KT 9999 BKN045 32/18 Q1013","temp":32,"dewp":18,"wdir":230,"wspd":6,"visib":"6+","altim":1013,"clouds":[{"cover":"BKN","base":4500}],"obsTime":1773770400},"SBHT":{"icaoId":"SBHT","flightCategory":"VFR","rawOb":"METAR SBHT 171800Z 05005KT 9999 SCT025 BKN100 28/25 Q1009","temp":28,"dewp":25,"wdir":50,"wspd":5,"visib":"6+","altim":1009,"clouds":[{"cover":"SCT","base":2500},{"cover":"BKN","base":10000}],"obsTime":1773770400},"SBIL":{"icaoId":"SBIL","flightCategory":"VFR","rawOb":"METAR SBIL 171800Z 11006KT 9999 FEW023 31/25 Q1011","temp":31,"dewp":25,"wdir":110,"wspd":6,"visib":"6+","altim":1011,"clouds":[{"cover":"FEW","base":2300}],"obsTime":1773770400},"SBJU":{"icaoId":"SBJU","flightCategory":"VFR","rawOb":"METAR SBJU 171800Z 12003KT 9999 SCT021 BKN070 28/23 Q1014","temp":28,"dewp":23,"wdir":120,"wspd":3,"visib":"6+","altim":1014,"clouds":[{"cover":"SCT","base":2100},{"cover":"BKN","base":7000}],"obsTime":1773770400},"SBKP":{"icaoId":"SBKP","flightCategory":"VFR","rawOb":"METAR SBKP 171800Z 23005KT 170V290 9999 BKN040 32/19 Q1012","temp":32,"dewp":19,"wdir":230,"wspd":5,"visib":"6+","altim":1012,"clouds":[{"cover":"BKN","base":4000}],"obsTime":1773770400},"SBLO":{"icaoId":"SBLO","flightCategory":"VFR","rawOb":"METAR SBLO 171800Z 02007KT 9999 SCT040 32/21 Q1010","temp":32,"dewp":21,"wdir":20,"wspd":7,"visib":"6+","altim":1010,"clouds":[{"cover":"SCT","base":4000}],"obsTime":1773770400},"SBMA":{"icaoId":"SBMA","flightCategory":"VFR","rawOb":"METAR SBMA 171800Z 36002KT 9999 SCT012 OVC100 27/24 Q1009","temp":27,"dewp":24,"wdir":360,"wspd":2,"visib":"6+","altim":1009,"clouds":[{"cover":"SCT","base":1200},{"cover":"OVC","base":10000}],"obsTime":1773770400},"SBME":{"icaoId":"SBME","flightCategory":"VFR","rawOb":"METAR SBME 171800Z 13010KT 9999 FEW030 30/23 Q1011","temp":30,"dewp":23,"wdir":130,"wspd":10,"visib":"6+","altim":1011,"clouds":[{"cover":"FEW","base":3000}],"obsTime":1773770400},"SBMG":{"icaoId":"SBMG","flightCategory":"VFR","rawOb":"METAR SBMG 171800Z 36012KT 310V030 9999 VCSH BKN045 FEW050TCU 32/21 Q1009","temp":32,"dewp":21,"wdir":360,"wspd":12,"visib":"6+","altim":1009,"clouds":[{"cover":"BKN","base":4500},{"cover":"FEW","base":5000}],"obsTime":1773770400},"SBMK":{"icaoId":"SBMK","flightCategory":"VFR","rawOb":"METAR SBMK 171800Z 01006KT 9999 VCSH SCT040 BKN100 30/21 Q1013","temp":30,"dewp":21,"wdir":10,"wspd":6,"visib":"6+","altim":1013,"clouds":[{"cover":"SCT","base":4000},{"cover":"BKN","base":10000}],"obsTime":1773770400},"SBMO":{"icaoId":"SBMO","flightCategory":"VFR","rawOb":"METAR SBMO 171800Z 10012KT 9999 SCT030 SCT090 30/22 Q1010","temp":30,"dewp":22,"wdir":100,"wspd":12,"visib":"6+","altim":1010,"clouds":[{"cover":"SCT","base":3000},{"cover":"SCT","base":9000}],"obsTime":1773770400},"SBMQ":{"icaoId":"SBMQ","flightCategory":"VFR","rawOb":"METAR SBMQ 171800Z 33004KT 9999 BKN045 OVC100 27/24 Q1009","temp":27,"dewp":24,"wdir":330,"wspd":4,"visib":"6+","altim":1009,"clouds":[{"cover":"BKN","base":4500},{"cover":"OVC","base":10000}],"obsTime":1773770400},"SBNT":{"icaoId":"SBNT","flightCategory":"VFR","rawOb":"METAR SBNT 171800Z 09012KT 9999 VCSH SCT023 FEW025TCU 29/24 Q1009","temp":29,"dewp":24,"wdir":90,"wspd":12,"visib":"6+","altim":1009,"clouds":[{"cover":"SCT","base":2300},{"cover":"FEW","base":2500}],"obsTime":1773770400},"SBPA":{"icaoId":"SBPA","flightCategory":"VFR","rawOb":"METAR SBPA 171800Z 20004KT 160V240 9999 FEW030 FEW040TCU BKN080 30/22 Q1008","temp":30,"dewp":22,"wdir":200,"wspd":4,"visib":"6+","altim":1008,"clouds":[{"cover":"FEW","base":3000},{"cover":"FEW","base":4000},{"cover":"BKN","base":8000}],"obsTime":1773770400},"SBPJ":{"icaoId":"SBPJ","flightCategory":"VFR","rawOb":"METAR SBPJ 171800Z 11013KT 070V140 9999 3000E -TSRA FEW008 SCT027 FEW032CB 25/23 Q1010 RETS","temp":25,"dewp":23,"wdir":110,"wspd":13,"visib":"6+","altim":1010,"clouds":[{"cover":"FEW","base":800},{"cover":"SCT","base":2700},{"cover":"FEW","base":3200}],"obsTime":1773770400},"SBRB":{"icaoId":"SBRB","flightCategory":"MVFR","rawOb":"METAR SBRB 171800Z 36009KT 9999 VCSH BKN030 FEW035TCU SCT100 32/25 Q1008","temp":32,"dewp":25,"wdir":360,"wspd":9,"visib":"6+","altim":1008,"clouds":[{"cover":"BKN","base":3000},{"cover":"FEW","base":3500},{"cover":"SCT","base":10000}],"obsTime":1773770400},"SBRF":{"icaoId":"SBRF","flightCategory":"VFR","rawOb":"METAR SBRF 171800Z 11010KT 9999 SCT022 31/24 Q1009","temp":31,"dewp":24,"wdir":110,"wspd":10,"visib":"6+","altim":1009,"clouds":[{"cover":"SCT","base":2200}],"obsTime":1773770400},"SBSG":{"icaoId":"SBSG","flightCategory":"VFR","rawOb":"METAR SBSG 171800Z 09012KT 9999 VCSH SCT030 FEW035TCU 30/24 Q1009","temp":30,"dewp":24,"wdir":90,"wspd":12,"visib":"6+","altim":1009,"clouds":[{"cover":"SCT","base":3000},{"cover":"FEW","base":3500}],"obsTime":1773770400},"SBSL":{"icaoId":"SBSL","flightCategory":"VFR","rawOb":"METAR SBSL 171800Z 04008KT 9999 SCT017 FEW020TCU BKN060 28/25 Q1009","temp":28,"dewp":25,"wdir":40,"wspd":8,"visib":"6+","altim":1009,"clouds":[{"cover":"SCT","base":1700},{"cover":"FEW","base":2000},{"cover":"BKN","base":6000}],"obsTime":1773770400},"SBSN":{"icaoId":"SBSN","flightCategory":"MVFR","rawOb":"METAR SBSN 171800Z 12007KT 9999 -RA BKN011 OVC070 28/25 Q1009","temp":28,"dewp":25,"wdir":120,"wspd":7,"visib":"6+","altim":1009,"clouds":[{"cover":"BKN","base":1100},{"cover":"OVC","base":7000}],"obsTime":1773770400},"SBSP":{"icaoId":"SBSP","flightCategory":"VFR","rawOb":"METAR SBSP 171800Z 15011KT 9999 BKN040 28/20 Q1014","temp":28,"dewp":20,"wdir":150,"wspd":11,"visib":"6+","altim":1014,"clouds":[{"cover":"BKN","base":4000}],"obsTime":1773770400},"SBSV":{"icaoId":"SBSV","flightCategory":"VFR","rawOb":"METAR SBSV 171800Z 09011KT 9999 FEW025 30/23 Q1010","temp":30,"dewp":23,"wdir":90,"wspd":11,"visib":"6+","altim":1010,"clouds":[{"cover":"FEW","base":2500}],"obsTime":1773770400},"SBTE":{"icaoId":"SBTE","flightCategory":"VFR","rawOb":"METAR SBTE 171800Z 13004KT 9999 SCT040 32/22 Q1007","temp":32,"dewp":22,"wdir":130,"wspd":4,"visib":"6+","altim":1007,"clouds":[{"cover":"SCT","base":4000}],"obsTime":1773770400},"SBUL":{"icaoId":"SBUL","flightCategory":"VFR","rawOb":"METAR SBUL 171800Z 05011KT 9999 SCT030 FEW040TCU 26/20 Q1015","temp":26,"dewp":20,"wdir":50,"wspd":11,"visib":"6+","altim":1015,"clouds":[{"cover":"SCT","base":3000},{"cover":"FEW","base":4000}],"obsTime":1773770400},"SBUR":{"icaoId":"SBUR","flightCategory":"VFR","rawOb":"METAR SBUR 171800Z 12008KT 9999 VCSH BKN040 FEW045TCU BKN070 26/21 Q1013","temp":26,"dewp":21,"wdir":120,"wspd":8,"visib":"6+","altim":1013,"clouds":[{"cover":"BKN","base":4000},{"cover":"FEW","base":4500},{"cover":"BKN","base":7000}],"obsTime":1773770400},"SBVT":{"icaoId":"SBVT","flightCategory":"VFR","rawOb":"METAR SBVT 171800Z 09008KT 050V120 9999 FEW040 29/22 Q1011","temp":29,"dewp":22,"wdir":90,"wspd":8,"visib":"6+","altim":1011,"clouds":[{"cover":"FEW","base":4000}],"obsTime":1773770400},"SBKG":{"icaoId":"SBKG","flightCategory":"VFR","rawOb":"METAR SBKG 171800Z 10012KT 9999 SCT025 SCT080 31/20 Q1011","temp":31,"dewp":20,"wdir":100,"wspd":12,"visib":"6+","altim":1011,"clouds":[{"cover":"SCT","base":2500},{"cover":"SCT","base":8000}],"obsTime":1773770400},"SBCJ":{"icaoId":"SBCJ","flightCategory":"VFR","rawOb":"METAR SBCJ 171800Z 07002KT 9999 FEW010 SCT085 22/19 Q1013","temp":22,"dewp":19,"wdir":70,"wspd":2,"visib":"6+","altim":1013,"clouds":[{"cover":"FEW","base":1000},{"cover":"SCT","base":8500}],"obsTime":1773770400},"SBOI":{"icaoId":"SBOI","flightCategory":"VFR","rawOb":"METAR SBOI 171800Z AUTO 01014KT 9999 BKN049 28/24 Q1010","temp":28,"dewp":24,"wdir":10,"wspd":14,"visib":"6+","altim":1010,"clouds":[{"cover":"BKN","base":4900}],"obsTime":1773770400},"SBBU":{"icaoId":"SBBU","flightCategory":"VFR","rawOb":"METAR SBBU 171800Z 03007KT 9999 BKN045 32/22 Q1011","temp":32,"dewp":22,"wdir":30,"wspd":7,"visib":"6+","altim":1011,"clouds":[{"cover":"BKN","base":4500}],"obsTime":1773770400},"SBPB":{"icaoId":"SBPB","flightCategory":"VFR","rawOb":"METAR SBPB 171800Z 02008KT 9999 SCT016 FEW025TCU BKN090 30/26 Q1008","temp":30,"dewp":26,"wdir":20,"wspd":8,"visib":"6+","altim":1008,"clouds":[{"cover":"SCT","base":1600},{"cover":"FEW","base":2500},{"cover":"BKN","base":9000}],"obsTime":1773770400},"SBCO":{"icaoId":"SBCO","flightCategory":"VFR","rawOb":"METAR SBCO 171800Z 21005KT 9999 FEW030 FEW040TCU SCT100 30/23 Q1009","temp":30,"dewp":23,"wdir":210,"wspd":5,"visib":"6+","altim":1009,"clouds":[{"cover":"FEW","base":3000},{"cover":"FEW","base":4000},{"cover":"SCT","base":10000}],"obsTime":1773770400},"SBPL":{"icaoId":"SBPL","flightCategory":"VFR","rawOb":"METAR SBPL 171800Z 16005KT 9999 FEW035 33/18 Q1011","temp":33,"dewp":18,"wdir":160,"wspd":5,"visib":"6+","altim":1011,"clouds":[{"cover":"FEW","base":3500}],"obsTime":1773770400},"SBAX":{"icaoId":"SBAX","flightCategory":"MVFR","rawOb":"METAR SBAX 171800Z 21006KT 9999 VCSH BKN018 BKN025 BKN035 23/23 Q1016","temp":23,"dewp":23,"wdir":210,"wspd":6,"visib":"6+","altim":1016,"clouds":[{"cover":"BKN","base":1800},{"cover":"BKN","base":2500},{"cover":"BKN","base":3500}],"obsTime":1773770400},"SBPP":{"icaoId":"SBPP","flightCategory":"MVFR","rawOb":"METAR SBPP 171800Z 30006KT 9999 BKN020 31/22 Q1010","temp":31,"dewp":22,"wdir":300,"wspd":6,"visib":"6+","altim":1010,"clouds":[{"cover":"BKN","base":2000}],"obsTime":1773770400},"SBDN":{"icaoId":"SBDN","flightCategory":"VFR","rawOb":"METAR SBDN 171800Z 34005KT 9999 BKN045 33/21 Q1009","temp":33,"dewp":21,"wdir":340,"wspd":5,"visib":"6+","altim":1009,"clouds":[{"cover":"BKN","base":4500}],"obsTime":1773770400},"SBPS":{"icaoId":"SBPS","flightCategory":"VFR","rawOb":"METAR SBPS 171800Z 09009KT 9999 SCT020 BKN100 28/25 Q1011","temp":28,"dewp":25,"wdir":90,"wspd":9,"visib":"6+","altim":1011,"clouds":[{"cover":"SCT","base":2000},{"cover":"BKN","base":10000}],"obsTime":1773770400},"SBCA":{"icaoId":"SBCA","flightCategory":"MVFR","rawOb":"METAR SBCA 171800Z 34012KT 9999 BKN030 BKN090 24/21 Q1013","temp":24,"dewp":21,"wdir":340,"wspd":12,"visib":"6+","altim":1013,"clouds":[{"cover":"BKN","base":3000},{"cover":"BKN","base":9000}],"obsTime":1773770400},"SBSC":{"icaoId":"SBSC","flightCategory":"VFR","rawOb":"METAR SBSC 171800Z 18008KT CAVOK 30/21 Q1011","temp":30,"dewp":21,"wdir":180,"wspd":8,"visib":"6+","altim":1011,"clouds":[],"obsTime":1773770400},"SBSJ":{"icaoId":"SBSJ","flightCategory":"VFR","rawOb":"METAR SBSJ 171800Z 18002KT 9999 SCT045 32/// Q1013","temp":null,"dewp":null,"wdir":180,"wspd":2,"visib":"6+","altim":1013,"clouds":[{"cover":"SCT","base":4500}],"obsTime":1773770400},"SBES":{"icaoId":"SBES","flightCategory":"VFR","rawOb":"METAR SBES 171800Z 10008KT 060V140 9999 FEW020 28/// Q1012","temp":null,"dewp":null,"wdir":100,"wspd":8,"visib":"6+","altim":1012,"clouds":[{"cover":"FEW","base":2000}],"obsTime":1773770400},"SBBQ":{"icaoId":"SBBQ","flightCategory":"VFR","rawOb":"METAR SBBQ 171800Z 09004KT 060V130 9999 BKN035 BKN080 27/17 Q1018","temp":27,"dewp":17,"wdir":90,"wspd":4,"visib":"6+","altim":1018,"clouds":[{"cover":"BKN","base":3500},{"cover":"BKN","base":8000}],"obsTime":1773770400},"SBSM":{"icaoId":"SBSM","flightCategory":"IFR","rawOb":"METAR SBSM 171800Z 09004KT 4000 -RA FEW008 SCT100 24/23 Q1009","temp":24,"dewp":23,"wdir":90,"wspd":4,"visib":2.49,"altim":1009,"clouds":[{"cover":"FEW","base":800},{"cover":"SCT","base":10000}],"obsTime":1773770400},"SBGM":{"icaoId":"SBGM","flightCategory":"MVFR","rawOb":"METAR SBGM 171800Z 01002KT 9999 OVC013 26/24 Q1008 RERA","temp":26,"dewp":24,"wdir":10,"wspd":2,"visib":"6+","altim":1008,"clouds":[{"cover":"OVC","base":1300}],"obsTime":1773770400},"SBSR":{"icaoId":"SBSR","flightCategory":"MVFR","rawOb":"METAR SBSR 171800Z 36006KT 9999 BKN025 BKN070 28/22 Q1011","temp":28,"dewp":22,"wdir":360,"wspd":6,"visib":"6+","altim":1011,"clouds":[{"cover":"BKN","base":2500},{"cover":"BKN","base":7000}],"obsTime":1773770400},"SBTF":{"icaoId":"SBTF","flightCategory":"VFR","rawOb":"METAR SBTF 171800Z 04004KT 9999 SCT020 BKN090 30/27 Q1007","temp":30,"dewp":27,"wdir":40,"wspd":4,"visib":"6+","altim":1007,"clouds":[{"cover":"SCT","base":2000},{"cover":"BKN","base":9000}],"obsTime":1773770400},"SBAR":{"icaoId":"SBAR","flightCategory":"VFR","rawOb":"METAR SBAR 171800Z 10010KT 9999 FEW023 30/23 Q1010","temp":30,"dewp":23,"wdir":100,"wspd":10,"visib":"6+","altim":1010,"clouds":[{"cover":"FEW","base":2300}],"obsTime":1773770400},"SBCC":{"icaoId":"SBCC","flightCategory":"MVFR","rawOb":"METAR SBCC 171800Z 34004KT 9999 BKN025 BKN070 24/22 Q1011","temp":24,"dewp":22,"wdir":340,"wspd":4,"visib":"6+","altim":1011,"clouds":[{"cover":"BKN","base":2500},{"cover":"BKN","base":7000}],"obsTime":1773770400},"SBTT":{"icaoId":"SBTT","flightCategory":"VFR","rawOb":"METAR SBTT 171800Z 12005KT 9999 BKN035 31/23 Q1008","temp":31,"dewp":23,"wdir":120,"wspd":5,"visib":"6+","altim":1008,"clouds":[{"cover":"BKN","base":3500}],"obsTime":1773770400},"SBUY":{"icaoId":"SBUY","flightCategory":"VFR","rawOb":"METAR SBUY 171800Z 10005KT 9999 SCT025 FEW030TCU SCT100 33/24 Q1006","temp":33,"dewp":24,"wdir":100,"wspd":5,"visib":"6+","altim":1006,"clouds":[{"cover":"SCT","base":2500},{"cover":"FEW","base":3000},{"cover":"SCT","base":10000}],"obsTime":1773770400},"SBIP":{"icaoId":"SBIP","flightCategory":"VFR","rawOb":"METAR SBIP 171800Z AUTO 02007KT 330V070 CAVOK 32/20 Q1011","temp":32,"dewp":20,"wdir":20,"wspd":7,"visib":"6+","altim":1011,"clouds":[],"obsTime":1773770400},"SBBH":{"icaoId":"SBBH","flightCategory":"VFR","rawOb":"METAR SBBH 171800Z 10002KT 9999 BKN040 29/17 Q1014","temp":29,"dewp":17,"wdir":100,"wspd":2,"visib":"6+","altim":1014,"clouds":[{"cover":"BKN","base":4000}],"obsTime":1773770400},"SBVH":{"icaoId":"SBVH","flightCategory":"VFR","rawOb":"METAR SBVH 171800Z 02009KT 9999 SCT035 SCT100 30/22 Q1011","temp":30,"dewp":22,"wdir":20,"wspd":9,"visib":"6+","altim":1011,"clouds":[{"cover":"SCT","base":3500},{"cover":"SCT","base":10000}],"obsTime":1773770400},"SBAU":{"icaoId":"SBAU","flightCategory":"VFR","rawOb":"METAR SBAU 171800Z 01010KT 9999 FEW040 31/19 Q1010","temp":31,"dewp":19,"wdir":10,"wspd":10,"visib":"6+","altim":1010,"clouds":[{"cover":"FEW","base":4000}],"obsTime":1773770400},"SBIH":{"icaoId":"SBIH","flightCategory":"VFR","rawOb":"METAR SBIH 171800Z 06005KT 9999 SCT020 30/25 Q1009","temp":30,"dewp":25,"wdir":60,"wspd":5,"visib":"6+","altim":1009,"clouds":[{"cover":"SCT","base":2000}],"obsTime":1773770400},"SBLE":{"icaoId":"SBLE","flightCategory":"VFR","rawOb":"METAR SBLE 171800Z AUTO 14007KT 100V160 CAVOK 30/18 Q1013","temp":30,"dewp":18,"wdir":140,"wspd":7,"visib":"6+","altim":1013,"clouds":[],"obsTime":1773770400},"SBJP":{"icaoId":"SBJP","flightCategory":"VFR","rawOb":"METAR SBJP 171800Z 10010KT 9999 SCT030 31/23 Q1009","temp":31,"dewp":23,"wdir":100,"wspd":10,"visib":"6+","altim":1009,"clouds":[{"cover":"SCT","base":3000}],"obsTime":1773770400},"SBLS":{"icaoId":"SBLS","flightCategory":"VFR","rawOb":"METAR SBLS 171800Z 11004KT 040V120 9999 SCT035 FEW040TCU SCT100 28/21 Q1014","temp":28,"dewp":21,"wdir":110,"wspd":4,"visib":"6+","altim":1014,"clouds":[{"cover":"SCT","base":3500},{"cover":"FEW","base":4000},{"cover":"SCT","base":10000}],"obsTime":1773770400},"SBAF":{"icaoId":"SBAF","flightCategory":"VFR","rawOb":"METAR SBAF 171800Z 19013KT 9999 FEW020 29/23 Q1011","temp":29,"dewp":23,"wdir":190,"wspd":13,"visib":"6+","altim":1011,"clouds":[{"cover":"FEW","base":2000}],"obsTime":1773770400},"SBMT":{"icaoId":"SBMT","flightCategory":"VFR","rawOb":"METAR SBMT 171800Z 20005KT 9999 SCT040 30/16 Q1013","temp":30,"dewp":16,"wdir":200,"wspd":5,"visib":"6+","altim":1013,"clouds":[{"cover":"SCT","base":4000}],"obsTime":1773770400},"SBGW":{"icaoId":"SBGW","flightCategory":"VFR","rawOb":"METAR SBGW 171800Z 33004KT 260V040 9999 FEW025 33/18 Q1012","temp":33,"dewp":18,"wdir":330,"wspd":4,"visib":"6+","altim":1012,"clouds":[{"cover":"FEW","base":2500}],"obsTime":1773770400},"SBPF":{"icaoId":"SBPF","flightCategory":"VFR","rawOb":"METAR SBPF 171800Z 35006KT 9999 -RA SCT010 BKN040 23/20 Q1013","temp":23,"dewp":20,"wdir":350,"wspd":6,"visib":"6+","altim":1013,"clouds":[{"cover":"SCT","base":1000},{"cover":"BKN","base":4000}],"obsTime":1773770400},"SBJR":{"icaoId":"SBJR","flightCategory":"VFR","rawOb":"METAR SBJR 171800Z 15008KT 9999 FEW020 31/23 Q1011","temp":31,"dewp":23,"wdir":150,"wspd":8,"visib":"6+","altim":1011,"clouds":[{"cover":"FEW","base":2000}],"obsTime":1773770400},"SBST":{"icaoId":"SBST","flightCategory":"MVFR","rawOb":"METAR SBST 171800Z 16008KT 8000 BKN022 27/22 Q1011","temp":27,"dewp":22,"wdir":160,"wspd":8,"visib":4.97,"altim":1011,"clouds":[{"cover":"BKN","base":2200}],"obsTime":1773770400},"SBAN":{"icaoId":"SBAN","flightCategory":"MVFR","rawOb":"METAR SBAN 171800Z 06011G23KT 7000 -RA VCSH FEW010 BKN020 FEW030TCU 20/18 Q1016 RETSRA","temp":20,"dewp":18,"wdir":60,"wspd":11,"visib":4.35,"altim":1016,"clouds":[{"cover":"FEW","base":1000},{"cover":"BKN","base":2000},{"cover":"FEW","base":3000}],"obsTime":1773770400},"SBTA":{"icaoId":"SBTA","flightCategory":"VFR","rawOb":"METAR SBTA 171800Z VRB02KT 9999 SCT045 30/17 Q1012","temp":30,"dewp":17,"wdir":"VRB","wspd":2,"visib":"6+","altim":1012,"clouds":[{"cover":"SCT","base":4500}],"obsTime":1773770400},"SBJV":{"icaoId":"SBJV","flightCategory":"VFR","rawOb":"METAR SBJV 171800Z 08008KT 030V130 9999 FEW015 SCT030 30/24 Q1010","temp":30,"dewp":24,"wdir":80,"wspd":8,"visib":"6+","altim":1010,"clouds":[{"cover":"FEW","base":1500},{"cover":"SCT","base":3000}],"obsTime":1773770400},"SBTC":{"icaoId":"SBTC","flightCategory":"VFR","rawOb":"METAR SBTC 171800Z 08005KT 9999 FEW030 30/24 Q1011","temp":30,"dewp":24,"wdir":80,"wspd":5,"visib":"6+","altim":1011,"clouds":[{"cover":"FEW","base":3000}],"obsTime":1773770400}}}