{"updated":1781467334,"count":87,"data":{"SBPV":{"icaoId":"SBPV","flightCategory":"VFR","rawOb":"METAR SBPV 141900Z 28003KT 9999 SCT035 27/25 Q1012","temp":27,"dewp":25,"wdir":280,"wspd":3,"visib":"6+","altim":1012,"clouds":[{"cover":"SCT","base":3500}],"obsTime":1781463600},"SBBE":{"icaoId":"SBBE","flightCategory":"VFR","rawOb":"METAR SBBE 141900Z 13009KT 9999 SCT040 FEW045TCU 33/23 Q1012","temp":33,"dewp":23,"wdir":130,"wspd":9,"visib":"6+","altim":1012,"clouds":[{"cover":"SCT","base":4000},{"cover":"FEW","base":4500}],"obsTime":1781463600},"SBBR":{"icaoId":"SBBR","flightCategory":"VFR","rawOb":"METAR SBBR 141900Z COR 18003KT 9999 FEW030 SCT040TCU 26/17 Q1021","temp":26,"dewp":17,"wdir":180,"wspd":3,"visib":"6+","altim":1021,"clouds":[{"cover":"FEW","base":3000},{"cover":"SCT","base":4000}],"obsTime":1781463600},"SBBV":{"icaoId":"SBBV","flightCategory":"VFR","rawOb":"METAR SBBV 141900Z 13004KT 9999 SCT030 FEW035TCU SCT070 32/22 Q1011","temp":32,"dewp":22,"wdir":130,"wspd":4,"visib":"6+","altim":1011,"clouds":[{"cover":"SCT","base":3000},{"cover":"FEW","base":3500},{"cover":"SCT","base":7000}],"obsTime":1781463600},"SBCB":{"icaoId":"SBCB","flightCategory":"VFR","rawOb":"METAR SBCB 141900Z COR 10006KT 9000 SCT010 BKN060 24/19 Q1016","temp":24,"dewp":19,"wdir":100,"wspd":6,"visib":5.59,"altim":1016,"clouds":[{"cover":"SCT","base":1000},{"cover":"BKN","base":6000}],"obsTime":1781463600},"SBCF":{"icaoId":"SBCF","flightCategory":"VFR","rawOb":"METAR SBCF 141900Z 05006KT 9999 FEW025 SCT100 22/16 Q1020","temp":22,"dewp":16,"wdir":50,"wspd":6,"visib":"6+","altim":1020,"clouds":[{"cover":"FEW","base":2500},{"cover":"SCT","base":10000}],"obsTime":1781463600},"SBCG":{"icaoId":"SBCG","flightCategory":"IFR","rawOb":"SPECI SBCG 141821Z 33006KT 290V350 3000 TSRA BKN007 BKN023 //////CB 22/21 Q1017","temp":22,"dewp":21,"wdir":330,"wspd":6,"visib":1.86,"altim":1017,"clouds":[{"cover":"BKN","base":700},{"cover":"BKN","base":2300}],"obsTime":1781461260},"SBCP":{"icaoId":"SBCP","flightCategory":"VFR","rawOb":"METAR SBCP 141900Z 11007KT 9999 FEW020 25/19 Q1016","temp":25,"dewp":19,"wdir":110,"wspd":7,"visib":"6+","altim":1016,"clouds":[{"cover":"FEW","base":2000}],"obsTime":1781463600},"SBCR":{"icaoId":"SBCR","flightCategory":"MVFR","rawOb":"METAR SBCR 141900Z 23008KT 9999 BKN010 SCT025 FEW030TCU 20/18 Q1017","temp":20,"dewp":18,"wdir":230,"wspd":8,"visib":"6+","altim":1017,"clouds":[{"cover":"BKN","base":1000},{"cover":"SCT","base":2500},{"cover":"FEW","base":3000}],"obsTime":1781463600},"SBCT":{"icaoId":"SBCT","flightCategory":"MVFR","rawOb":"SPECI SBCT 141815Z 24006KT 180V260 7000 -DZ SCT006 BKN013 BKN018 17/16 Q1018","temp":17,"dewp":16,"wdir":240,"wspd":6,"visib":4.35,"altim":1018,"clouds":[{"cover":"SCT","base":600},{"cover":"BKN","base":1300},{"cover":"BKN","base":1800}],"obsTime":1781460900},"SBEG":{"icaoId":"SBEG","flightCategory":"VFR","rawOb":"METAR SBEG 141900Z 11012KT 9999 SCT030 FEW035TCU SCT100 32/22 Q1012","temp":32,"dewp":22,"wdir":110,"wspd":12,"visib":"6+","altim":1012,"clouds":[{"cover":"SCT","base":3000},{"cover":"FEW","base":3500},{"cover":"SCT","base":10000}],"obsTime":1781463600},"SBFI":{"icaoId":"SBFI","flightCategory":"VFR","rawOb":"METAR SBFI 141900Z 20007KT 9999 FEW025 SCT070 19/14 Q1017","temp":19,"dewp":14,"wdir":200,"wspd":7,"visib":"6+","altim":1017,"clouds":[{"cover":"FEW","base":2500},{"cover":"SCT","base":7000}],"obsTime":1781463600},"SBFL":{"icaoId":"SBFL","flightCategory":"VFR","rawOb":"METAR SBFL 141900Z 15011KT 9999 OVC033 18/12 Q1017","temp":18,"dewp":12,"wdir":150,"wspd":11,"visib":"6+","altim":1017,"clouds":[{"cover":"OVC","base":3300}],"obsTime":1781463600},"SBFZ":{"icaoId":"SBFZ","flightCategory":"VFR","rawOb":"METAR SBFZ 141900Z 11016KT 9999 FEW025 29/23 Q1013","temp":29,"dewp":23,"wdir":110,"wspd":16,"visib":"6+","altim":1013,"clouds":[{"cover":"FEW","base":2500}],"obsTime":1781463600},"SBGO":{"icaoId":"SBGO","flightCategory":"VFR","rawOb":"METAR SBGO 141900Z 14003KT 080V190 9999 FEW040 30/19 Q1018","temp":30,"dewp":19,"wdir":140,"wspd":3,"visib":"6+","altim":1018,"clouds":[{"cover":"FEW","base":4000}],"obsTime":1781463600},"SBGR":{"icaoId":"SBGR","flightCategory":"MVFR","rawOb":"METAR SBGR 141900Z 29006KT 9999 OVC023 21/16 Q1018","temp":21,"dewp":16,"wdir":290,"wspd":6,"visib":"6+","altim":1018,"clouds":[{"cover":"OVC","base":2300}],"obsTime":1781463600},"SBKP":{"icaoId":"SBKP","flightCategory":"MVFR","rawOb":"METAR SBKP 141900Z 35006KT 9999 OVC025 21/17 Q1018","temp":21,"dewp":17,"wdir":350,"wspd":6,"visib":"6+","altim":1018,"clouds":[{"cover":"OVC","base":2500}],"obsTime":1781463600},"SBLO":{"icaoId":"SBLO","flightCategory":"IFR","rawOb":"METAR SBLO 141900Z 35006KT 9999 BKN007 OVC018 20/19 Q1016","temp":20,"dewp":19,"wdir":350,"wspd":6,"visib":"6+","altim":1016,"clouds":[{"cover":"BKN","base":700},{"cover":"OVC","base":1800}],"obsTime":1781463600},"SBMA":{"icaoId":"SBMA","flightCategory":"VFR","rawOb":"METAR SBMA 141900Z 08006KT 9999 FEW020 FEW025TCU 33/22 Q1012","temp":33,"dewp":22,"wdir":80,"wspd":6,"visib":"6+","altim":1012,"clouds":[{"cover":"FEW","base":2000},{"cover":"FEW","base":2500}],"obsTime":1781463600},"SBMO":{"icaoId":"SBMO","flightCategory":"VFR","rawOb":"METAR SBMO 141900Z 14010KT 9999 SCT025 27/22 Q1016","temp":27,"dewp":22,"wdir":140,"wspd":10,"visib":"6+","altim":1016,"clouds":[{"cover":"SCT","base":2500}],"obsTime":1781463600},"SBMQ":{"icaoId":"SBMQ","flightCategory":"VFR","rawOb":"METAR SBMQ 141900Z 05008KT 9999 FEW030 30/26 Q1012","temp":30,"dewp":26,"wdir":50,"wspd":8,"visib":"6+","altim":1012,"clouds":[{"cover":"FEW","base":3000}],"obsTime":1781463600},"SBPA":{"icaoId":"SBPA","flightCategory":"VFR","rawOb":"METAR SBPA 141900Z 20008KT 160V230 9999 FEW015 BKN034 BKN045 15/10 Q1019","temp":15,"dewp":10,"wdir":200,"wspd":8,"visib":"6+","altim":1019,"clouds":[{"cover":"FEW","base":1500},{"cover":"BKN","base":3400},{"cover":"BKN","base":4500}],"obsTime":1781463600},"SBPJ":{"icaoId":"SBPJ","flightCategory":"VFR","rawOb":"METAR SBPJ 141900Z 11005KT 070V140 CAVOK 35/19 Q1013","temp":35,"dewp":19,"wdir":110,"wspd":5,"visib":"6+","altim":1013,"clouds":[],"obsTime":1781463600},"SBRB":{"icaoId":"SBRB","flightCategory":"MVFR","rawOb":"METAR SBRB 141900Z 33002KT 9999 BKN030 33/23 Q1014","temp":33,"dewp":23,"wdir":330,"wspd":2,"visib":"6+","altim":1014,"clouds":[{"cover":"BKN","base":3000}],"obsTime":1781463600},"SBRF":{"icaoId":"SBRF","flightCategory":"VFR","rawOb":"METAR SBRF 141900Z 14011KT 9999 FEW020 28/23 Q1015","temp":28,"dewp":23,"wdir":140,"wspd":11,"visib":"6+","altim":1015,"clouds":[{"cover":"FEW","base":2000}],"obsTime":1781463600},"SBSG":{"icaoId":"SBSG","flightCategory":"MVFR","rawOb":"METAR SBSG 141900Z 14005KT 070V190 9999 VCSH BKN020 FEW023TCU 27/24 Q1014","temp":27,"dewp":24,"wdir":140,"wspd":5,"visib":"6+","altim":1014,"clouds":[{"cover":"BKN","base":2000},{"cover":"FEW","base":2300}],"obsTime":1781463600},"SBSL":{"icaoId":"SBSL","flightCategory":"VFR","rawOb":"METAR SBSL 141900Z 07010KT 9999 FEW020 SCT030 31/24 Q1012","temp":31,"dewp":24,"wdir":70,"wspd":10,"visib":"6+","altim":1012,"clouds":[{"cover":"FEW","base":2000},{"cover":"SCT","base":3000}],"obsTime":1781463600},"SBSN":{"icaoId":"SBSN","flightCategory":"VFR","rawOb":"METAR SBSN 141900Z 06008KT 9999 FEW025 31/25 Q1012","temp":31,"dewp":25,"wdir":60,"wspd":8,"visib":"6+","altim":1012,"clouds":[{"cover":"FEW","base":2500}],"obsTime":1781463600},"SBSP":{"icaoId":"SBSP","flightCategory":"MVFR","rawOb":"METAR SBSP 141900Z 32008KT 9999 BKN023 20/16 Q1019","temp":20,"dewp":16,"wdir":320,"wspd":8,"visib":"6+","altim":1019,"clouds":[{"cover":"BKN","base":2300}],"obsTime":1781463600},"SBSV":{"icaoId":"SBSV","flightCategory":"VFR","rawOb":"METAR SBSV 141900Z 23006KT 090V160 9999 FEW023 27/22 Q1016","temp":27,"dewp":22,"wdir":230,"wspd":6,"visib":"6+","altim":1016,"clouds":[{"cover":"FEW","base":2300}],"obsTime":1781463600},"SBTE":{"icaoId":"SBTE","flightCategory":"VFR","rawOb":"METAR SBTE 141900Z 17005KT CAVOK 34/20 Q1011","temp":34,"dewp":20,"wdir":170,"wspd":5,"visib":"6+","altim":1011,"clouds":[],"obsTime":1781463600},"SBVT":{"icaoId":"SBVT","flightCategory":"VFR","rawOb":"METAR SBVT 141900Z 17003KT 9999 SCT043 BKN078 24/21 Q1016","temp":24,"dewp":21,"wdir":170,"wspd":3,"visib":"6+","altim":1016,"clouds":[{"cover":"SCT","base":4300},{"cover":"BKN","base":7800}],"obsTime":1781463600},"SBUR":{"icaoId":"SBUR","flightCategory":"IFR","rawOb":"METAR SBUR 141900Z 25009KT 4000 -TSRA BR FEW050CB 19/17 Q1021","temp":19,"dewp":17,"wdir":250,"wspd":9,"visib":2.49,"altim":1021,"clouds":[{"cover":"FEW","base":5000}],"obsTime":1781463600},"SBHT":{"icaoId":"SBHT","flightCategory":"VFR","rawOb":"METAR SBHT 141900Z 15002KT 9999 SCT030 31/25 Q1012","temp":31,"dewp":25,"wdir":150,"wspd":2,"visib":"6+","altim":1012,"clouds":[{"cover":"SCT","base":3000}],"obsTime":1781463600},"SBIL":{"icaoId":"SBIL","flightCategory":"VFR","rawOb":"METAR SBIL 141900Z 09007KT CAVOK 28/22 Q1017","temp":28,"dewp":22,"wdir":90,"wspd":7,"visib":"6+","altim":1017,"clouds":[],"obsTime":1781463600},"SBJU":{"icaoId":"SBJU","flightCategory":"VFR","rawOb":"METAR SBJU 141900Z 03006KT CAVOK 30/20 Q1015","temp":30,"dewp":20,"wdir":30,"wspd":6,"visib":"6+","altim":1015,"clouds":[],"obsTime":1781463600},"SBME":{"icaoId":"SBME","flightCategory":"MVFR","rawOb":"METAR SBME 141900Z 10005KT 9999 OVC030 24/19 Q1016","temp":24,"dewp":19,"wdir":100,"wspd":5,"visib":"6+","altim":1016,"clouds":[{"cover":"OVC","base":3000}],"obsTime":1781463600},"SBMG":{"icaoId":"SBMG","flightCategory":"IFR","rawOb":"METAR SBMG 141900Z 36011KT 9999 BKN006 BKN070 20/19 Q1015","temp":20,"dewp":19,"wdir":360,"wspd":11,"visib":"6+","altim":1015,"clouds":[{"cover":"BKN","base":600},{"cover":"BKN","base":7000}],"obsTime":1781463600},"SBMK":{"icaoId":"SBMK","flightCategory":"VFR","rawOb":"METAR SBMK 141900Z 02003KT CAVOK 28/16 Q1018","temp":28,"dewp":16,"wdir":20,"wspd":3,"visib":"6+","altim":1018,"clouds":[],"obsTime":1781463600},"SBNT":{"icaoId":"SBNT","flightCategory":"MVFR","rawOb":"METAR SBNT 141900Z 14013KT 9999 VCSH SCT013 BKN018 27/24 Q1014","temp":27,"dewp":24,"wdir":140,"wspd":13,"visib":"6+","altim":1014,"clouds":[{"cover":"SCT","base":1300},{"cover":"BKN","base":1800}],"obsTime":1781463600},"SBGL":{"icaoId":"SBGL","flightCategory":"VFR","rawOb":"METAR SBGL 141900Z 13006KT 9999 FEW020 SCT090 24/19 Q1015","temp":24,"dewp":19,"wdir":130,"wspd":6,"visib":"6+","altim":1015,"clouds":[{"cover":"FEW","base":2000},{"cover":"SCT","base":9000}],"obsTime":1781463600},"SBUL":{"icaoId":"SBUL","flightCategory":"VFR","rawOb":"METAR SBUL 141900Z 06003KT 9999 SCT049 BKN080 22/18 Q1020","temp":22,"dewp":18,"wdir":60,"wspd":3,"visib":"6+","altim":1020,"clouds":[{"cover":"SCT","base":4900},{"cover":"BKN","base":8000}],"obsTime":1781463600},"SBCZ":{"icaoId":"SBCZ","flightCategory":"MVFR","rawOb":"METAR SBCZ 141900Z 06002KT 9999 BKN030 31/24 Q1013","temp":31,"dewp":24,"wdir":60,"wspd":2,"visib":"6+","altim":1013,"clouds":[{"cover":"BKN","base":3000}],"obsTime":1781463600},"SBAT":{"icaoId":"SBAT","flightCategory":"VFR","rawOb":"METAR SBAT 141900Z 11005KT 9999 SCT030 36/21 Q1013","temp":36,"dewp":21,"wdir":110,"wspd":5,"visib":"6+","altim":1013,"clouds":[{"cover":"SCT","base":3000}],"obsTime":1781463600},"SBPB":{"icaoId":"SBPB","flightCategory":"VFR","rawOb":"METAR SBPB 141900Z 07008KT 9999 FEW016 BKN090 29/23 Q1013","temp":29,"dewp":23,"wdir":70,"wspd":8,"visib":"6+","altim":1013,"clouds":[{"cover":"FEW","base":1600},{"cover":"BKN","base":9000}],"obsTime":1781463600},"SBPL":{"icaoId":"SBPL","flightCategory":"VFR","rawOb":"METAR SBPL 141900Z 08008KT CAVOK 35/15 Q1014","temp":35,"dewp":15,"wdir":80,"wspd":8,"visib":"6+","altim":1014,"clouds":[],"obsTime":1781463600},"SBOI":{"icaoId":"SBOI","flightCategory":"MVFR","rawOb":"METAR SBOI 141900Z AUTO 08007KT 020V140 9999 -RA BKN025 30/25 Q1012","temp":30,"dewp":25,"wdir":80,"wspd":7,"visib":"6+","altim":1012,"clouds":[{"cover":"BKN","base":2500}],"obsTime":1781463600},"SBAR":{"icaoId":"SBAR","flightCategory":"VFR","rawOb":"METAR SBAR 141900Z 12006KT 9999 SCT023 28/22 Q1016","temp":28,"dewp":22,"wdir":120,"wspd":6,"visib":"6+","altim":1016,"clouds":[{"cover":"SCT","base":2300}],"obsTime":1781463600},"SBSJ":{"icaoId":"SBSJ","flightCategory":"VFR","rawOb":"METAR SBSJ 141900Z 27007KT 9999 FEW035 23/16 Q1017","temp":23,"dewp":16,"wdir":270,"wspd":7,"visib":"6+","altim":1017,"clouds":[{"cover":"FEW","base":3500}],"obsTime":1781463600},"SBTF":{"icaoId":"SBTF","flightCategory":"VFR","rawOb":"METAR SBTF 141900Z 09006KT 9999 FEW020 34/25 Q1012","temp":34,"dewp":25,"wdir":90,"wspd":6,"visib":"6+","altim":1012,"clouds":[{"cover":"FEW","base":2000}],"obsTime":1781463600},"SBTT":{"icaoId":"SBTT","flightCategory":"VFR","rawOb":"METAR SBTT 141900Z 17004KT 9999 FEW035 32/24 Q1013","temp":32,"dewp":24,"wdir":170,"wspd":4,"visib":"6+","altim":1013,"clouds":[{"cover":"FEW","base":3500}],"obsTime":1781463600},"SBPP":{"icaoId":"SBPP","flightCategory":"LIFR","rawOb":"METAR SBPP 141900Z 23012KT 1500 BR OVC002 16/16 Q1017","temp":16,"dewp":16,"wdir":230,"wspd":12,"visib":0.93,"altim":1017,"clouds":[{"cover":"OVC","base":200}],"obsTime":1781463600},"SBCJ":{"icaoId":"SBCJ","flightCategory":"VFR","rawOb":"METAR SBCJ 141900Z 11004KT 9999 SCT027 29/20 Q1017","temp":29,"dewp":20,"wdir":110,"wspd":4,"visib":"6+","altim":1017,"clouds":[{"cover":"SCT","base":2700}],"obsTime":1781463600},"SBUY":{"icaoId":"SBUY","flightCategory":"VFR","rawOb":"METAR SBUY 141900Z 11006KT 9999 SCT040 33/23 Q1011","temp":33,"dewp":23,"wdir":110,"wspd":6,"visib":"6+","altim":1011,"clouds":[{"cover":"SCT","base":4000}],"obsTime":1781463600},"SBPS":{"icaoId":"SBPS","flightCategory":"VFR","rawOb":"METAR SBPS 141900Z 06010KT 9999 FEW025 27/22 Q1016","temp":27,"dewp":22,"wdir":60,"wspd":10,"visib":"6+","altim":1016,"clouds":[{"cover":"FEW","base":2500}],"obsTime":1781463600},"SBIP":{"icaoId":"SBIP","flightCategory":"VFR","rawOb":"METAR SBIP 141900Z AUTO VRB02KT CAVOK 24/20 Q1017","temp":24,"dewp":20,"wdir":"VRB","wspd":2,"visib":"6+","altim":1017,"clouds":[],"obsTime":1781463600},"SBKG":{"icaoId":"SBKG","flightCategory":"VFR","rawOb":"METAR SBKG 141900Z 12010KT 100V160 9999 SCT028 28/20 Q1016","temp":28,"dewp":20,"wdir":120,"wspd":10,"visib":"6+","altim":1016,"clouds":[{"cover":"SCT","base":2800}],"obsTime":1781463600},"SBSC":{"icaoId":"SBSC","flightCategory":"VFR","rawOb":"METAR SBSC 141900Z 16004KT 9999 FEW030 BKN070 24/20 Q1015","temp":24,"dewp":20,"wdir":160,"wspd":4,"visib":"6+","altim":1015,"clouds":[{"cover":"FEW","base":3000},{"cover":"BKN","base":7000}],"obsTime":1781463600},"SBSM":{"icaoId":"SBSM","flightCategory":"VFR","rawOb":"METAR SBSM 141900Z 28005KT 9999 SCT020 BKN035 15/11 Q1020","temp":15,"dewp":11,"wdir":280,"wspd":5,"visib":"6+","altim":1020,"clouds":[{"cover":"SCT","base":2000},{"cover":"BKN","base":3500}],"obsTime":1781463600},"SBSR":{"icaoId":"SBSR","flightCategory":"MVFR","rawOb":"METAR SBSR 141900Z 33002KT 9999 -RA SCT010 OVC030 20/18 Q1018","temp":20,"dewp":18,"wdir":330,"wspd":2,"visib":"6+","altim":1018,"clouds":[{"cover":"SCT","base":1000},{"cover":"OVC","base":3000}],"obsTime":1781463600},"SBTU":{"icaoId":"SBTU","flightCategory":"VFR","rawOb":"METAR SBTU 141900Z AUTO 28007KT 9999 // SCT034/// SCT056/// ///// Q1014","temp":null,"dewp":null,"wdir":280,"wspd":7,"visib":"6+","altim":1014,"clouds":[{"cover":"SCT","base":3400},{"cover":"SCT","base":5600}],"obsTime":1781463600},"SBVH":{"icaoId":"SBVH","flightCategory":"VFR","rawOb":"METAR SBVH 141900Z 24010KT 9999 BKN040 FEW045TCU 25/20 Q1016","temp":25,"dewp":20,"wdir":240,"wspd":10,"visib":"6+","altim":1016,"clouds":[{"cover":"BKN","base":4000},{"cover":"FEW","base":4500}],"obsTime":1781463600},"SBAX":{"icaoId":"SBAX","flightCategory":"VFR","rawOb":"METAR SBAX 141900Z AUTO 33004KT 280V350 CAVOK 22/18 Q1020","temp":22,"dewp":18,"wdir":330,"wspd":4,"visib":"6+","altim":1020,"clouds":[],"obsTime":1781463600},"SBBH":{"icaoId":"SBBH","flightCategory":"VFR","rawOb":"METAR SBBH 141900Z 02004KT 9999 SCT025 SCT090 24/17 Q1019","temp":24,"dewp":17,"wdir":20,"wspd":4,"visib":"6+","altim":1019,"clouds":[{"cover":"SCT","base":2500},{"cover":"SCT","base":9000}],"obsTime":1781463600},"SBBQ":{"icaoId":"SBBQ","flightCategory":"VFR","rawOb":"METAR SBBQ 141900Z 25002KT CAVOK 21/15 Q1022","temp":21,"dewp":15,"wdir":250,"wspd":2,"visib":"6+","altim":1022,"clouds":[],"obsTime":1781463600},"SBBU":{"icaoId":"SBBU","flightCategory":"MVFR","rawOb":"METAR SBBU 141900Z 34005KT 9999 SCT007 BKN015 BKN070 21/20 Q1018","temp":21,"dewp":20,"wdir":340,"wspd":5,"visib":"6+","altim":1018,"clouds":[{"cover":"SCT","base":700},{"cover":"BKN","base":1500},{"cover":"BKN","base":7000}],"obsTime":1781463600},"SBCA":{"icaoId":"SBCA","flightCategory":"IFR","rawOb":"METAR SBCA 141900Z 14012KT 9999 FEW003 BKN005 BKN020 16/15 Q1018","temp":16,"dewp":15,"wdir":140,"wspd":12,"visib":"6+","altim":1018,"clouds":[{"cover":"FEW","base":300},{"cover":"BKN","base":500},{"cover":"BKN","base":2000}],"obsTime":1781463600},"SBCC":{"icaoId":"SBCC","flightCategory":"VFR","rawOb":"METAR SBCC 141900Z 08009KT 9999 SCT040 32/18 Q1014","temp":32,"dewp":18,"wdir":80,"wspd":9,"visib":"6+","altim":1014,"clouds":[{"cover":"SCT","base":4000}],"obsTime":1781463600},"SBCO":{"icaoId":"SBCO","flightCategory":"VFR","rawOb":"METAR SBCO 141900Z 19005KT 160V220 9999 BKN033 BKN058 15/10 Q1020","temp":15,"dewp":10,"wdir":190,"wspd":5,"visib":"6+","altim":1020,"clouds":[{"cover":"BKN","base":3300},{"cover":"BKN","base":5800}],"obsTime":1781463600},"SBDN":{"icaoId":"SBDN","flightCategory":"MVFR","rawOb":"METAR SBDN 141900Z 01005KT 9999 SCT005 BKN019 20/19 Q1017","temp":20,"dewp":19,"wdir":10,"wspd":5,"visib":"6+","altim":1017,"clouds":[{"cover":"SCT","base":500},{"cover":"BKN","base":1900}],"obsTime":1781463600},"SBES":{"icaoId":"SBES","flightCategory":"VFR","rawOb":"METAR SBES 141900Z 05006KT 020V100 9999 FEW025 23/// Q1016","temp":null,"dewp":null,"wdir":50,"wspd":6,"visib":"6+","altim":1016,"clouds":[{"cover":"FEW","base":2500}],"obsTime":1781463600},"SBGM":{"icaoId":"SBGM","flightCategory":"VFR","rawOb":"METAR SBGM 141900Z 11005KT 9999 SCT040 BKN060 BKN100 31/21 Q1013","temp":31,"dewp":21,"wdir":110,"wspd":5,"visib":"6+","altim":1013,"clouds":[{"cover":"SCT","base":4000},{"cover":"BKN","base":6000},{"cover":"BKN","base":10000}],"obsTime":1781463600},"SBJP":{"icaoId":"SBJP","flightCategory":"VFR","rawOb":"METAR SBJP 141900Z 11010KT 9999 FEW025 BKN070 28/23 Q1015","temp":28,"dewp":23,"wdir":110,"wspd":10,"visib":"6+","altim":1015,"clouds":[{"cover":"FEW","base":2500},{"cover":"BKN","base":7000}],"obsTime":1781463600},"SBNM":{"icaoId":"SBNM","flightCategory":"VFR","rawOb":"METAR SBNM 141900Z AUTO 17006KT 9999 OVC039 16/09 Q1020","temp":16,"dewp":9,"wdir":170,"wspd":6,"visib":"6+","altim":1020,"clouds":[{"cover":"OVC","base":3900}],"obsTime":1781463600},"SBAN":{"icaoId":"SBAN","flightCategory":"VFR","rawOb":"METAR SBAN 141900Z 32003KT 9999 BKN035 26/17 Q1021","temp":26,"dewp":17,"wdir":320,"wspd":3,"visib":"6+","altim":1021,"clouds":[{"cover":"BKN","base":3500}],"obsTime":1781463600},"SBLE":{"icaoId":"SBLE","flightCategory":"VFR","rawOb":"METAR SBLE 141900Z AUTO 20003KT 160V260 CAVOK 29/18 Q1018","temp":29,"dewp":18,"wdir":200,"wspd":3,"visib":"6+","altim":1018,"clouds":[],"obsTime":1781463600},"SBTC":{"icaoId":"SBTC","flightCategory":"VFR","rawOb":"METAR SBTC 141900Z 05006KT 9999 FEW025 27/22 Q1016","temp":27,"dewp":22,"wdir":50,"wspd":6,"visib":"6+","altim":1016,"clouds":[{"cover":"FEW","base":2500}],"obsTime":1781463600},"SBAF":{"icaoId":"SBAF","flightCategory":"VFR","rawOb":"METAR SBAF 141900Z 09006KT 040V150 9999 FEW025 BKN070 25/20 Q1015","temp":25,"dewp":20,"wdir":90,"wspd":6,"visib":"6+","altim":1015,"clouds":[{"cover":"FEW","base":2500},{"cover":"BKN","base":7000}],"obsTime":1781463600},"SBGW":{"icaoId":"SBGW","flightCategory":"VFR","rawOb":"METAR SBGW 141900Z 00000KT 9999 FEW016 OVC080 24/15 Q1016","temp":24,"dewp":15,"wdir":0,"wspd":0,"visib":"6+","altim":1016,"clouds":[{"cover":"FEW","base":1600},{"cover":"OVC","base":8000}],"obsTime":1781463600},"SBJR":{"icaoId":"SBJR","flightCategory":"VFR","rawOb":"METAR SBJR 141900Z 13003KT 9999 FEW020 25/19 Q1015","temp":25,"dewp":19,"wdir":130,"wspd":3,"visib":"6+","altim":1015,"clouds":[{"cover":"FEW","base":2000}],"obsTime":1781463600},"SBLS":{"icaoId":"SBLS","flightCategory":"VFR","rawOb":"METAR SBLS 141900Z 04004KT 320V090 9999 FEW025 SCT100 22/16 Q1019","temp":22,"dewp":16,"wdir":40,"wspd":4,"visib":"6+","altim":1019,"clouds":[{"cover":"FEW","base":2500},{"cover":"SCT","base":10000}],"obsTime":1781463600},"SBMT":{"icaoId":"SBMT","flightCategory":"MVFR","rawOb":"METAR SBMT 141900Z 33007KT 290V010 9999 BKN025 20/16 Q1018","temp":20,"dewp":16,"wdir":330,"wspd":7,"visib":"6+","altim":1018,"clouds":[{"cover":"BKN","base":2500}],"obsTime":1781463600},"SBST":{"icaoId":"SBST","flightCategory":"MVFR","rawOb":"METAR SBST 141900Z 15004KT 8000 BKN019 22/18 Q1015","temp":22,"dewp":18,"wdir":150,"wspd":4,"visib":4.97,"altim":1015,"clouds":[{"cover":"BKN","base":1900}],"obsTime":1781463600},"SBTA":{"icaoId":"SBTA","flightCategory":"VFR","rawOb":"METAR SBTA 141900Z VRB02KT 9999 SCT035 24/17 Q1016","temp":24,"dewp":17,"wdir":"VRB","wspd":2,"visib":"6+","altim":1016,"clouds":[{"cover":"SCT","base":3500}],"obsTime":1781463600},"SBIH":{"icaoId":"SBIH","flightCategory":"VFR","rawOb":"METAR SBIH 141900Z 36004KT 9999 SCT020 33/25 Q1011","temp":33,"dewp":25,"wdir":360,"wspd":4,"visib":"6+","altim":1011,"clouds":[{"cover":"SCT","base":2000}],"obsTime":1781463600},"SBPF":{"icaoId":"SBPF","flightCategory":"VFR","rawOb":"METAR SBPF 141900Z AUTO 18005KT 130V240 //// // SCT028/// 13/06 Q1020","temp":13,"dewp":6,"wdir":180,"wspd":5,"visib":null,"altim":1020,"clouds":[{"cover":"SCT","base":2800}],"obsTime":1781463600},"SBJV":{"icaoId":"SBJV","flightCategory":"MVFR","rawOb":"METAR SBJV 141900Z 13002KT 9999 BKN020 OVC035 20/17 Q1016","temp":20,"dewp":17,"wdir":130,"wspd":2,"visib":"6+","altim":1016,"clouds":[{"cover":"BKN","base":2000},{"cover":"OVC","base":3500}],"obsTime":1781463600}}}