{"updated":1783122776,"count":74,"data":{"SBSP":{"icaoId":"SBSP","flightCategory":"IFR","rawOb":"METAR SBSP 032200Z 16006KT 9999 BKN008 16/15 Q1024","temp":16,"dewp":15,"wdir":160,"wspd":6,"visib":"6+","altim":1024,"clouds":[{"cover":"BKN","base":800}],"obsTime":1783116000},"SBSN":{"icaoId":"SBSN","flightCategory":"VFR","rawOb":"METAR SBSN 032200Z 08004KT 9999 FEW023 29/26 Q1010","temp":29,"dewp":26,"wdir":80,"wspd":4,"visib":"6+","altim":1010,"clouds":[{"cover":"FEW","base":2300}],"obsTime":1783116000},"SBSG":{"icaoId":"SBSG","flightCategory":"VFR","rawOb":"METAR SBSG 032200Z 16006KT 120V190 9999 SCT033 25/23 Q1014","temp":25,"dewp":23,"wdir":160,"wspd":6,"visib":"6+","altim":1014,"clouds":[{"cover":"SCT","base":3300}],"obsTime":1783116000},"SBGR":{"icaoId":"SBGR","flightCategory":"MVFR","rawOb":"METAR SBGR 032200Z 19004KT 8000 BKN011 17/15 Q1023","temp":17,"dewp":15,"wdir":190,"wspd":4,"visib":4.97,"altim":1023,"clouds":[{"cover":"BKN","base":1100}],"obsTime":1783116000},"SBCT":{"icaoId":"SBCT","flightCategory":"IFR","rawOb":"METAR SBCT 032200Z 12004KT 9999 OVC007 13/12 Q1023","temp":13,"dewp":12,"wdir":120,"wspd":4,"visib":"6+","altim":1023,"clouds":[{"cover":"OVC","base":700}],"obsTime":1783116000},"SBVT":{"icaoId":"SBVT","flightCategory":"VFR","rawOb":"METAR SBVT 032200Z 03008KT CAVOK 23/19 Q1018","temp":23,"dewp":19,"wdir":30,"wspd":8,"visib":"6+","altim":1018,"clouds":[],"obsTime":1783116000},"SBTE":{"icaoId":"SBTE","flightCategory":"VFR","rawOb":"METAR SBTE 032200Z 33004KT CAVOK 29/19 Q1011","temp":29,"dewp":19,"wdir":330,"wspd":4,"visib":"6+","altim":1011,"clouds":[],"obsTime":1783116000},"SBFL":{"icaoId":"SBFL","flightCategory":"VFR","rawOb":"METAR SBFL 032200Z VRB02KT 9999 FEW023 12/10 Q1023","temp":12,"dewp":10,"wdir":"VRB","wspd":2,"visib":"6+","altim":1023,"clouds":[{"cover":"FEW","base":2300}],"obsTime":1783116000},"SBRF":{"icaoId":"SBRF","flightCategory":"VFR","rawOb":"METAR SBRF 032200Z 17007KT 9999 SCT023 BKN050 26/22 Q1015","temp":26,"dewp":22,"wdir":170,"wspd":7,"visib":"6+","altim":1015,"clouds":[{"cover":"SCT","base":2300},{"cover":"BKN","base":5000}],"obsTime":1783116000},"SBCZ":{"icaoId":"SBCZ","flightCategory":"VFR","rawOb":"METAR SBCZ 032200Z 11006KT 9999 FEW030 29/22 Q1013","temp":29,"dewp":22,"wdir":110,"wspd":6,"visib":"6+","altim":1013,"clouds":[{"cover":"FEW","base":3000}],"obsTime":1783116000},"SBNT":{"icaoId":"SBNT","flightCategory":"VFR","rawOb":"METAR SBNT 032200Z 17007KT 9999 SCT017 BKN060 25/23 Q1014","temp":25,"dewp":23,"wdir":170,"wspd":7,"visib":"6+","altim":1014,"clouds":[{"cover":"SCT","base":1700},{"cover":"BKN","base":6000}],"obsTime":1783116000},"SBFI":{"icaoId":"SBFI","flightCategory":"VFR","rawOb":"METAR SBFI 032200Z 20007KT CAVOK 11/08 Q1024","temp":11,"dewp":8,"wdir":200,"wspd":7,"visib":"6+","altim":1024,"clouds":[],"obsTime":1783116000},"SBGO":{"icaoId":"SBGO","flightCategory":"VFR","rawOb":"METAR SBGO 032200Z 05004KT CAVOK 25/10 Q1020","temp":25,"dewp":10,"wdir":50,"wspd":4,"visib":"6+","altim":1020,"clouds":[],"obsTime":1783116000},"SBCG":{"icaoId":"SBCG","flightCategory":"VFR","rawOb":"METAR SBCG 032200Z 16004KT 9999 SCT022 18/16 Q1021","temp":18,"dewp":16,"wdir":160,"wspd":4,"visib":"6+","altim":1021,"clouds":[{"cover":"SCT","base":2200}],"obsTime":1783116000},"SBKP":{"icaoId":"SBKP","flightCategory":"VFR","rawOb":"METAR SBKP 032200Z 21004KT CAVOK 23/13 Q1021","temp":23,"dewp":13,"wdir":210,"wspd":4,"visib":"6+","altim":1021,"clouds":[],"obsTime":1783116000},"SBFZ":{"icaoId":"SBFZ","flightCategory":"MVFR","rawOb":"METAR SBFZ 032200Z 16007KT 9999 BKN020 BKN060 25/23 Q1013","temp":25,"dewp":23,"wdir":160,"wspd":7,"visib":"6+","altim":1013,"clouds":[{"cover":"BKN","base":2000},{"cover":"BKN","base":6000}],"obsTime":1783116000},"SBPV":{"icaoId":"SBPV","flightCategory":"VFR","rawOb":"METAR SBPV 032200Z 13004KT CAVOK 31/19 Q1011","temp":31,"dewp":19,"wdir":130,"wspd":4,"visib":"6+","altim":1011,"clouds":[],"obsTime":1783116000},"SBBE":{"icaoId":"SBBE","flightCategory":"VFR","rawOb":"METAR SBBE 032200Z 10002KT 9999 FEW049 30/23 Q1011","temp":30,"dewp":23,"wdir":100,"wspd":2,"visib":"6+","altim":1011,"clouds":[{"cover":"FEW","base":4900}],"obsTime":1783116000},"SBCF":{"icaoId":"SBCF","flightCategory":"VFR","rawOb":"METAR SBCF 032200Z 10004KT CAVOK 23/12 Q1021","temp":23,"dewp":12,"wdir":100,"wspd":4,"visib":"6+","altim":1021,"clouds":[],"obsTime":1783116000},"SBBR":{"icaoId":"SBBR","flightCategory":"VFR","rawOb":"METAR SBBR 032200Z 11007KT CAVOK 22/09 Q1022","temp":22,"dewp":9,"wdir":110,"wspd":7,"visib":"6+","altim":1022,"clouds":[],"obsTime":1783116000},"SBRB":{"icaoId":"SBRB","flightCategory":"MVFR","rawOb":"METAR SBRB 032200Z 15004KT 8000 BKN030 25/19 Q1015","temp":25,"dewp":19,"wdir":150,"wspd":4,"visib":4.97,"altim":1015,"clouds":[{"cover":"BKN","base":3000}],"obsTime":1783116000},"SBSL":{"icaoId":"SBSL","flightCategory":"VFR","rawOb":"METAR SBSL 032200Z 05006KT 9999 SCT030 28/24 Q1012","temp":28,"dewp":24,"wdir":50,"wspd":6,"visib":"6+","altim":1012,"clouds":[{"cover":"SCT","base":3000}],"obsTime":1783116000},"SBEG":{"icaoId":"SBEG","flightCategory":"VFR","rawOb":"METAR SBEG 032200Z 12006KT 9999 FEW030 31/23 Q1010","temp":31,"dewp":23,"wdir":120,"wspd":6,"visib":"6+","altim":1010,"clouds":[{"cover":"FEW","base":3000}],"obsTime":1783116000},"SBBV":{"icaoId":"SBBV","flightCategory":"VFR","rawOb":"METAR SBBV 032200Z 03005KT 9999 VCSH SCT025 FEW030TCU BKN070 27/23 Q1011","temp":27,"dewp":23,"wdir":30,"wspd":5,"visib":"6+","altim":1011,"clouds":[{"cover":"SCT","base":2500},{"cover":"FEW","base":3000},{"cover":"BKN","base":7000}],"obsTime":1783116000},"SBSV":{"icaoId":"SBSV","flightCategory":"VFR","rawOb":"METAR SBSV 032200Z 12005KT 9999 FEW025 25/18 Q1018","temp":25,"dewp":18,"wdir":120,"wspd":5,"visib":"6+","altim":1018,"clouds":[{"cover":"FEW","base":2500}],"obsTime":1783116000},"SBMG":{"icaoId":"SBMG","flightCategory":"VFR","rawOb":"METAR SBMG 032200Z 25007KT CAVOK 18/15 Q1020","temp":18,"dewp":15,"wdir":250,"wspd":7,"visib":"6+","altim":1020,"clouds":[],"obsTime":1783116000},"SBME":{"icaoId":"SBME","flightCategory":"VFR","rawOb":"METAR SBME 032200Z 17006KT CAVOK 24/21 Q1018","temp":24,"dewp":21,"wdir":170,"wspd":6,"visib":"6+","altim":1018,"clouds":[],"obsTime":1783116000},"SBMK":{"icaoId":"SBMK","flightCategory":"VFR","rawOb":"METAR SBMK 032200Z 07005KT CAVOK 23/16 Q1020","temp":23,"dewp":16,"wdir":70,"wspd":5,"visib":"6+","altim":1020,"clouds":[],"obsTime":1783116000},"SBUL":{"icaoId":"SBUL","flightCategory":"VFR","rawOb":"METAR SBUL 032200Z 17002KT CAVOK 22/12 Q1022","temp":22,"dewp":12,"wdir":170,"wspd":2,"visib":"6+","altim":1022,"clouds":[],"obsTime":1783116000},"SBUR":{"icaoId":"SBUR","flightCategory":"VFR","rawOb":"METAR SBUR 032200Z 17003KT CAVOK 23/14 Q1021","temp":23,"dewp":14,"wdir":170,"wspd":3,"visib":"6+","altim":1021,"clouds":[],"obsTime":1783116000},"SBIL":{"icaoId":"SBIL","flightCategory":"VFR","rawOb":"METAR SBIL 032200Z 15005KT CAVOK 25/19 Q1018","temp":25,"dewp":19,"wdir":150,"wspd":5,"visib":"6+","altim":1018,"clouds":[],"obsTime":1783116000},"SBJU":{"icaoId":"SBJU","flightCategory":"VFR","rawOb":"METAR SBJU 032200Z 00000KT 9999 SCT022 27/17 Q1015","temp":27,"dewp":17,"wdir":0,"wspd":0,"visib":"6+","altim":1015,"clouds":[{"cover":"SCT","base":2200}],"obsTime":1783116000},"SBMA":{"icaoId":"SBMA","flightCategory":"VFR","rawOb":"METAR SBMA 032200Z 00000KT CAVOK 28/18 Q1011","temp":28,"dewp":18,"wdir":0,"wspd":0,"visib":"6+","altim":1011,"clouds":[],"obsTime":1783116000},"SBMO":{"icaoId":"SBMO","flightCategory":"VFR","rawOb":"METAR SBMO 032200Z 15005KT 9999 FEW035 25/21 Q1017","temp":25,"dewp":21,"wdir":150,"wspd":5,"visib":"6+","altim":1017,"clouds":[{"cover":"FEW","base":3500}],"obsTime":1783116000},"SBGL":{"icaoId":"SBGL","flightCategory":"VFR","rawOb":"METAR SBGL 032200Z 22010KT 9999 FEW025 BKN033 23/18 Q1019","temp":23,"dewp":18,"wdir":220,"wspd":10,"visib":"6+","altim":1019,"clouds":[{"cover":"FEW","base":2500},{"cover":"BKN","base":3300}],"obsTime":1783116000},"SBPA":{"icaoId":"SBPA","flightCategory":"VFR","rawOb":"METAR SBPA 032200Z 28009KT 9999 BKN036 09/04 Q1026","temp":9,"dewp":4,"wdir":280,"wspd":9,"visib":"6+","altim":1026,"clouds":[{"cover":"BKN","base":3600}],"obsTime":1783116000},"SBMQ":{"icaoId":"SBMQ","flightCategory":"VFR","rawOb":"METAR SBMQ 032200Z 36002KT 9999 FEW040TCU 26/26 Q1010","temp":26,"dewp":26,"wdir":360,"wspd":2,"visib":"6+","altim":1010,"clouds":[{"cover":"FEW","base":4000}],"obsTime":1783116000},"SBLO":{"icaoId":"SBLO","flightCategory":"VFR","rawOb":"METAR SBLO 032200Z 29004KT 9999 FEW035 22/18 Q1020","temp":22,"dewp":18,"wdir":290,"wspd":4,"visib":"6+","altim":1020,"clouds":[{"cover":"FEW","base":3500}],"obsTime":1783116000},"SBPJ":{"icaoId":"SBPJ","flightCategory":"VFR","rawOb":"METAR SBPJ 032200Z 17003KT CAVOK 28/17 Q1014","temp":28,"dewp":17,"wdir":170,"wspd":3,"visib":"6+","altim":1014,"clouds":[],"obsTime":1783116000},"SBCP":{"icaoId":"SBCP","flightCategory":"VFR","rawOb":"METAR SBCP 032200Z 09003KT CAVOK 22/21 Q1018","temp":22,"dewp":21,"wdir":90,"wspd":3,"visib":"6+","altim":1018,"clouds":[],"obsTime":1783116000},"SBTF":{"icaoId":"SBTF","flightCategory":"VFR","rawOb":"METAR SBTF 032200Z 15004KT 9999 FEW020 32/25 Q1009","temp":32,"dewp":25,"wdir":150,"wspd":4,"visib":"6+","altim":1009,"clouds":[{"cover":"FEW","base":2000}],"obsTime":1783116000},"SBAR":{"icaoId":"SBAR","flightCategory":"VFR","rawOb":"METAR SBAR 032200Z 12007KT 9999 VCSH FEW025 BKN060 26/22 Q1017","temp":26,"dewp":22,"wdir":120,"wspd":7,"visib":"6+","altim":1017,"clouds":[{"cover":"FEW","base":2500},{"cover":"BKN","base":6000}],"obsTime":1783116000},"SBPS":{"icaoId":"SBPS","flightCategory":"VFR","rawOb":"METAR SBPS 032200Z 12003KT 9999 FEW030 24/19 Q1020","temp":24,"dewp":19,"wdir":120,"wspd":3,"visib":"6+","altim":1020,"clouds":[{"cover":"FEW","base":3000}],"obsTime":1783116000},"SBPL":{"icaoId":"SBPL","flightCategory":"VFR","rawOb":"METAR SBPL 032200Z 12009KT 9999 FEW030 28/15 Q1016","temp":28,"dewp":15,"wdir":120,"wspd":9,"visib":"6+","altim":1016,"clouds":[{"cover":"FEW","base":3000}],"obsTime":1783116000},"SBTU":{"icaoId":"SBTU","flightCategory":"VFR","rawOb":"METAR SBTU 032200Z AUTO 01003KT 9999 // BKN062/// ///// Q1013","temp":null,"dewp":null,"wdir":10,"wspd":3,"visib":"6+","altim":1013,"clouds":[{"cover":"BKN","base":6200}],"obsTime":1783116000},"SBTT":{"icaoId":"SBTT","flightCategory":"VFR","rawOb":"METAR SBTT 032200Z 19005KT CAVOK 30/23 Q1010","temp":30,"dewp":23,"wdir":190,"wspd":5,"visib":"6+","altim":1010,"clouds":[],"obsTime":1783116000},"SBCA":{"icaoId":"SBCA","flightCategory":"VFR","rawOb":"METAR SBCA 032200Z 19009KT 9999 FEW007 BKN100 11/08 Q1023","temp":11,"dewp":8,"wdir":190,"wspd":9,"visib":"6+","altim":1023,"clouds":[{"cover":"FEW","base":700},{"cover":"BKN","base":10000}],"obsTime":1783116000},"SBCO":{"icaoId":"SBCO","flightCategory":"VFR","rawOb":"METAR SBCO 032200Z 29009KT 9999 BKN035 09/04 Q1026","temp":9,"dewp":4,"wdir":290,"wspd":9,"visib":"6+","altim":1026,"clouds":[{"cover":"BKN","base":3500}],"obsTime":1783116000},"SBSM":{"icaoId":"SBSM","flightCategory":"VFR","rawOb":"METAR SBSM 032200Z 00000KT 9999 FEW040 04/04 Q1027","temp":4,"dewp":4,"wdir":0,"wspd":0,"visib":"6+","altim":1027,"clouds":[{"cover":"FEW","base":4000}],"obsTime":1783116000},"SBAX":{"icaoId":"SBAX","flightCategory":"VFR","rawOb":"METAR SBAX 032200Z 21004KT CAVOK 22/10 Q1022","temp":22,"dewp":10,"wdir":210,"wspd":4,"visib":"6+","altim":1022,"clouds":[],"obsTime":1783116000},"SBBH":{"icaoId":"SBBH","flightCategory":"VFR","rawOb":"METAR SBBH 032200Z 00000KT CAVOK 19/12 Q1021","temp":19,"dewp":12,"wdir":0,"wspd":0,"visib":"6+","altim":1021,"clouds":[],"obsTime":1783116000},"SBBU":{"icaoId":"SBBU","flightCategory":"VFR","rawOb":"METAR SBBU 032200Z 25002KT CAVOK 25/15 Q1020","temp":25,"dewp":15,"wdir":250,"wspd":2,"visib":"6+","altim":1020,"clouds":[],"obsTime":1783116000},"SBDN":{"icaoId":"SBDN","flightCategory":"MVFR","rawOb":"METAR SBDN 032200Z 19002KT 8000 NSC 17/17 Q1020","temp":17,"dewp":17,"wdir":190,"wspd":2,"visib":4.97,"altim":1020,"clouds":[],"obsTime":1783116000},"SBIP":{"icaoId":"SBIP","flightCategory":"VFR","rawOb":"METAR SBIP 032200Z AUTO 00000KT CAVOK 18/18 Q1019","temp":18,"dewp":18,"wdir":0,"wspd":0,"visib":"6+","altim":1019,"clouds":[],"obsTime":1783116000},"SBSC":{"icaoId":"SBSC","flightCategory":"MVFR","rawOb":"METAR SBSC 032200Z 18008KT 9999 BKN013 22/19 Q1020","temp":22,"dewp":19,"wdir":180,"wspd":8,"visib":"6+","altim":1020,"clouds":[{"cover":"BKN","base":1300}],"obsTime":1783116000},"SBSR":{"icaoId":"SBSR","flightCategory":"VFR","rawOb":"METAR SBSR 032200Z 22005KT 190V260 CAVOK 24/13 Q1019","temp":24,"dewp":13,"wdir":220,"wspd":5,"visib":"6+","altim":1019,"clouds":[],"obsTime":1783116000},"SBVH":{"icaoId":"SBVH","flightCategory":"VFR","rawOb":"METAR SBVH 032200Z 20011KT CAVOK 20/16 Q1017","temp":20,"dewp":16,"wdir":200,"wspd":11,"visib":"6+","altim":1017,"clouds":[],"obsTime":1783116000},"SBKG":{"icaoId":"SBKG","flightCategory":"MVFR","rawOb":"METAR SBKG 032200Z 14005KT 9999 BKN015 22/20 Q1017","temp":22,"dewp":20,"wdir":140,"wspd":5,"visib":"6+","altim":1017,"clouds":[{"cover":"BKN","base":1500}],"obsTime":1783116000},"SBSJ":{"icaoId":"SBSJ","flightCategory":"VFR","rawOb":"METAR SBSJ 032200Z 20008KT CAVOK 17/15 Q1022","temp":17,"dewp":15,"wdir":200,"wspd":8,"visib":"6+","altim":1022,"clouds":[],"obsTime":1783116000},"SBOI":{"icaoId":"SBOI","flightCategory":"VFR","rawOb":"METAR SBOI 032200Z AUTO VRB02KT CAVOK 29/23 Q1011","temp":29,"dewp":23,"wdir":"VRB","wspd":2,"visib":"6+","altim":1011,"clouds":[],"obsTime":1783116000},"SBUY":{"icaoId":"SBUY","flightCategory":"VFR","rawOb":"METAR SBUY 032200Z 19002KT 9999 FEW025 28/24 Q1009","temp":28,"dewp":24,"wdir":190,"wspd":2,"visib":"6+","altim":1009,"clouds":[{"cover":"FEW","base":2500}],"obsTime":1783116000},"SBES":{"icaoId":"SBES","flightCategory":"MVFR","rawOb":"METAR SBES 032200Z 23011KT 190V260 7000 SCT010 21/// Q1019","temp":null,"dewp":null,"wdir":230,"wspd":11,"visib":4.35,"altim":1019,"clouds":[{"cover":"SCT","base":1000}],"obsTime":1783116000},"SBLE":{"icaoId":"SBLE","flightCategory":"IFR","rawOb":"METAR SBLE 032200Z AUTO 21003KT 160V260 3800 -RA SCT003 OVC011 ///// Q1020","temp":null,"dewp":null,"wdir":210,"wspd":3,"visib":2.36,"altim":1020,"clouds":[{"cover":"SCT","base":300},{"cover":"OVC","base":1100}],"obsTime":1783116000},"SBJP":{"icaoId":"SBJP","flightCategory":"VFR","rawOb":"METAR SBJP 032200Z 15007KT 9999 FEW025 BKN100 25/23 Q1015","temp":25,"dewp":23,"wdir":150,"wspd":7,"visib":"6+","altim":1015,"clouds":[{"cover":"FEW","base":2500},{"cover":"BKN","base":10000}],"obsTime":1783116000},"SBTA":{"icaoId":"SBTA","flightCategory":"VFR","rawOb":"METAR SBTA 032200Z 00000KT CAVOK 18/16 Q1020","temp":18,"dewp":16,"wdir":0,"wspd":0,"visib":"6+","altim":1020,"clouds":[],"obsTime":1783116000},"SBAN":{"icaoId":"SBAN","flightCategory":"VFR","rawOb":"METAR SBAN 032200Z 12003KT CAVOK 20/10 Q1022","temp":20,"dewp":10,"wdir":120,"wspd":3,"visib":"6+","altim":1022,"clouds":[],"obsTime":1783116000},"SBJV":{"icaoId":"SBJV","flightCategory":"IFR","rawOb":"METAR SBJV 032200Z 17004KT 140V200 5000 -DZ BR BKN006 BKN013 14/13 Q1023","temp":14,"dewp":13,"wdir":170,"wspd":4,"visib":3.11,"altim":1023,"clouds":[{"cover":"BKN","base":600},{"cover":"BKN","base":1300}],"obsTime":1783116000},"SBNM":{"icaoId":"SBNM","flightCategory":"VFR","rawOb":"METAR SBNM 032200Z AUTO 15005KT 130V190 CAVOK 06/01 Q1026","temp":6,"dewp":1,"wdir":150,"wspd":5,"visib":"6+","altim":1026,"clouds":[],"obsTime":1783116000},"SBAF":{"icaoId":"SBAF","flightCategory":"MVFR","rawOb":"METAR SBAF 032200Z 19012KT 9999 BKN026 22/21 Q1020","temp":22,"dewp":21,"wdir":190,"wspd":12,"visib":"6+","altim":1020,"clouds":[{"cover":"BKN","base":2600}],"obsTime":1783116000},"SBJR":{"icaoId":"SBJR","flightCategory":"MVFR","rawOb":"METAR SBJR 032200Z 22008KT 9999 BKN010 BKN025 22/19 Q1020","temp":22,"dewp":19,"wdir":220,"wspd":8,"visib":"6+","altim":1020,"clouds":[{"cover":"BKN","base":1000},{"cover":"BKN","base":2500}],"obsTime":1783116000},"SBLS":{"icaoId":"SBLS","flightCategory":"VFR","rawOb":"METAR SBLS 032200Z 14007KT CAVOK 22/13 Q1021","temp":22,"dewp":13,"wdir":140,"wspd":7,"visib":"6+","altim":1021,"clouds":[],"obsTime":1783116000},"SBMT":{"icaoId":"SBMT","flightCategory":"MVFR","rawOb":"METAR SBMT 032200Z 13005KT 8000 BKN013 17/13 Q1023","temp":17,"dewp":13,"wdir":130,"wspd":5,"visib":4.97,"altim":1023,"clouds":[{"cover":"BKN","base":1300}],"obsTime":1783116000},"SBPF":{"icaoId":"SBPF","flightCategory":"VFR","rawOb":"METAR SBPF 032200Z 00000KT CAVOK 05/00 Q1025","temp":5,"dewp":0,"wdir":0,"wspd":0,"visib":"6+","altim":1025,"clouds":[],"obsTime":1783116000},"SBGW":{"icaoId":"SBGW","flightCategory":"VFR","rawOb":"METAR SBGW 032200Z 36002KT CAVOK 20/13 Q1020","temp":20,"dewp":13,"wdir":360,"wspd":2,"visib":"6+","altim":1020,"clouds":[],"obsTime":1783116000}}}