{"updated":1774107922,"count":86,"data":{"SBEG":{"icaoId":"SBEG","flightCategory":"VFR","rawOb":"METAR SBEG 211400Z 06007KT 9999 SCT020 30/24 Q1012","temp":30,"dewp":24,"wdir":60,"wspd":7,"visib":"6+","altim":1012,"clouds":[{"cover":"SCT","base":2000}],"obsTime":1774101600},"SBAT":{"icaoId":"SBAT","flightCategory":"VFR","rawOb":"METAR SBAT 211400Z 03007KT 9999 SCT018 BKN090 28/23 Q1013","temp":28,"dewp":23,"wdir":30,"wspd":7,"visib":"6+","altim":1013,"clouds":[{"cover":"SCT","base":1800},{"cover":"BKN","base":9000}],"obsTime":1774101600},"SBBE":{"icaoId":"SBBE","flightCategory":"VFR","rawOb":"METAR SBBE 211400Z 10009KT CAVOK 27/23 Q1012","temp":27,"dewp":23,"wdir":100,"wspd":9,"visib":"6+","altim":1012,"clouds":[],"obsTime":1774101600},"SBBR":{"icaoId":"SBBR","flightCategory":"VFR","rawOb":"METAR SBBR 211400Z VRB02KT 9999 FEW030 BKN090 26/18 Q1018","temp":26,"dewp":18,"wdir":"VRB","wspd":2,"visib":"6+","altim":1018,"clouds":[{"cover":"FEW","base":3000},{"cover":"BKN","base":9000}],"obsTime":1774101600},"SBBV":{"icaoId":"SBBV","flightCategory":"VFR","rawOb":"METAR SBBV 211400Z 10013KT CAVOK 31/20 Q1012","temp":31,"dewp":20,"wdir":100,"wspd":13,"visib":"6+","altim":1012,"clouds":[],"obsTime":1774101600},"SBCB":{"icaoId":"SBCB","flightCategory":"VFR","rawOb":"METAR SBCB 211400Z 23007KT 9999 FEW025 27/22 Q1012","temp":27,"dewp":22,"wdir":230,"wspd":7,"visib":"6+","altim":1012,"clouds":[{"cover":"FEW","base":2500}],"obsTime":1774101600},"SBCF":{"icaoId":"SBCF","flightCategory":"MVFR","rawOb":"METAR SBCF 211400Z 04002KT 9999 BKN020 25/19 Q1017","temp":25,"dewp":19,"wdir":40,"wspd":2,"visib":"6+","altim":1017,"clouds":[{"cover":"BKN","base":2000}],"obsTime":1774101600},"SBCG":{"icaoId":"SBCG","flightCategory":"VFR","rawOb":"METAR SBCG 211400Z 35012KT 310V010 9999 SCT025 29/22 Q1013","temp":29,"dewp":22,"wdir":350,"wspd":12,"visib":"6+","altim":1013,"clouds":[{"cover":"SCT","base":2500}],"obsTime":1774101600},"SBCP":{"icaoId":"SBCP","flightCategory":"MVFR","rawOb":"METAR SBCP 211400Z 23011KT 9999 -RA BKN010 OVC080 25/24 Q1012","temp":25,"dewp":24,"wdir":230,"wspd":11,"visib":"6+","altim":1012,"clouds":[{"cover":"BKN","base":1000},{"cover":"OVC","base":8000}],"obsTime":1774101600},"SBCR":{"icaoId":"SBCR","flightCategory":"VFR","rawOb":"METAR SBCR 211400Z 04006KT 360V080 9999 FEW025 30/24 Q1009","temp":30,"dewp":24,"wdir":40,"wspd":6,"visib":"6+","altim":1009,"clouds":[{"cover":"FEW","base":2500}],"obsTime":1774101600},"SBCT":{"icaoId":"SBCT","flightCategory":"VFR","rawOb":"METAR SBCT 211400Z VRB04KT CAVOK 25/18 Q1017","temp":25,"dewp":18,"wdir":"VRB","wspd":4,"visib":"6+","altim":1017,"clouds":[],"obsTime":1774101600},"SBCZ":{"icaoId":"SBCZ","flightCategory":"IFR","rawOb":"METAR SBCZ 211400Z 24018G30KT 8000 -RA BKN008 FEW035TCU OVC080 23/22 Q1011","temp":23,"dewp":22,"wdir":240,"wspd":18,"visib":4.97,"altim":1011,"clouds":[{"cover":"BKN","base":800},{"cover":"FEW","base":3500},{"cover":"OVC","base":8000}],"obsTime":1774101600},"SBFI":{"icaoId":"SBFI","flightCategory":"VFR","rawOb":"METAR SBFI 211400Z 02008KT 9999 FEW025 32/25 Q1009","temp":32,"dewp":25,"wdir":20,"wspd":8,"visib":"6+","altim":1009,"clouds":[{"cover":"FEW","base":2500}],"obsTime":1774101600},"SBFL":{"icaoId":"SBFL","flightCategory":"VFR","rawOb":"METAR SBFL 211400Z 35009KT CAVOK 29/22 Q1010","temp":29,"dewp":22,"wdir":350,"wspd":9,"visib":"6+","altim":1010,"clouds":[],"obsTime":1774101600},"SBFZ":{"icaoId":"SBFZ","flightCategory":"MVFR","rawOb":"METAR SBFZ 211400Z 10008KT 9999 BKN020 BKN080 30/25 Q1012","temp":30,"dewp":25,"wdir":100,"wspd":8,"visib":"6+","altim":1012,"clouds":[{"cover":"BKN","base":2000},{"cover":"BKN","base":8000}],"obsTime":1774101600},"SBGL":{"icaoId":"SBGL","flightCategory":"VFR","rawOb":"METAR SBGL 211400Z 03006KT 9999 FEW020 29/22 Q1012","temp":29,"dewp":22,"wdir":30,"wspd":6,"visib":"6+","altim":1012,"clouds":[{"cover":"FEW","base":2000}],"obsTime":1774101600},"SBGO":{"icaoId":"SBGO","flightCategory":"VFR","rawOb":"METAR SBGO 211400Z VRB03KT CAVOK 28/20 Q1016","temp":28,"dewp":20,"wdir":"VRB","wspd":3,"visib":"6+","altim":1016,"clouds":[],"obsTime":1774101600},"SBGR":{"icaoId":"SBGR","flightCategory":"VFR","rawOb":"METAR SBGR 211400Z 07004KT CAVOK 26/20 Q1016","temp":26,"dewp":20,"wdir":70,"wspd":4,"visib":"6+","altim":1016,"clouds":[],"obsTime":1774101600},"SBHT":{"icaoId":"SBHT","flightCategory":"MVFR","rawOb":"METAR SBHT 211400Z 15002KT 9999 BKN015 SCT100 28/22 Q1013","temp":28,"dewp":22,"wdir":150,"wspd":2,"visib":"6+","altim":1013,"clouds":[{"cover":"BKN","base":1500},{"cover":"SCT","base":10000}],"obsTime":1774101600},"SBIL":{"icaoId":"SBIL","flightCategory":"VFR","rawOb":"METAR SBIL 211400Z 03007KT 9999 SCT025 31/25 Q1013","temp":31,"dewp":25,"wdir":30,"wspd":7,"visib":"6+","altim":1013,"clouds":[{"cover":"SCT","base":2500}],"obsTime":1774101600},"SBJU":{"icaoId":"SBJU","flightCategory":"VFR","rawOb":"METAR SBJU 211400Z 09005KT 9999 SCT022 28/22 Q1015","temp":28,"dewp":22,"wdir":90,"wspd":5,"visib":"6+","altim":1015,"clouds":[{"cover":"SCT","base":2200}],"obsTime":1774101600},"SBKP":{"icaoId":"SBKP","flightCategory":"VFR","rawOb":"METAR SBKP 211400Z 34005KT 9999 FEW030 27/20 Q1015","temp":27,"dewp":20,"wdir":340,"wspd":5,"visib":"6+","altim":1015,"clouds":[{"cover":"FEW","base":3000}],"obsTime":1774101600},"SBLO":{"icaoId":"SBLO","flightCategory":"VFR","rawOb":"METAR SBLO 211400Z 07007KT 030V140 CAVOK 27/20 Q1014","temp":27,"dewp":20,"wdir":70,"wspd":7,"visib":"6+","altim":1014,"clouds":[],"obsTime":1774101600},"SBMA":{"icaoId":"SBMA","flightCategory":"MVFR","rawOb":"METAR SBMA 211400Z 26002KT 9999 FEW015 BKN020 BKN100 28/22 Q1013","temp":28,"dewp":22,"wdir":260,"wspd":2,"visib":"6+","altim":1013,"clouds":[{"cover":"FEW","base":1500},{"cover":"BKN","base":2000},{"cover":"BKN","base":10000}],"obsTime":1774101600},"SBME":{"icaoId":"SBME","flightCategory":"VFR","rawOb":"METAR SBME 211400Z 20006KT 9999 FEW023 SCT090 31/23 Q1012","temp":31,"dewp":23,"wdir":200,"wspd":6,"visib":"6+","altim":1012,"clouds":[{"cover":"FEW","base":2300},{"cover":"SCT","base":9000}],"obsTime":1774101600},"SBMG":{"icaoId":"SBMG","flightCategory":"VFR","rawOb":"METAR SBMG 211400Z 01010KT 360V060 9999 FEW030 29/22 Q1012","temp":29,"dewp":22,"wdir":10,"wspd":10,"visib":"6+","altim":1012,"clouds":[{"cover":"FEW","base":3000}],"obsTime":1774101600},"SBMK":{"icaoId":"SBMK","flightCategory":"VFR","rawOb":"METAR SBMK 211400Z 27003KT 9999 SCT025 BKN080 27/20 Q1016","temp":27,"dewp":20,"wdir":270,"wspd":3,"visib":"6+","altim":1016,"clouds":[{"cover":"SCT","base":2500},{"cover":"BKN","base":8000}],"obsTime":1774101600},"SBMO":{"icaoId":"SBMO","flightCategory":"VFR","rawOb":"METAR SBMO 211400Z 01009KT 9999 SCT030 31/22 Q1012","temp":31,"dewp":22,"wdir":10,"wspd":9,"visib":"6+","altim":1012,"clouds":[{"cover":"SCT","base":3000}],"obsTime":1774101600},"SBMQ":{"icaoId":"SBMQ","flightCategory":"MVFR","rawOb":"METAR SBMQ 211400Z 11004KT 9999 BKN019 BKN100 29/25 Q1012","temp":29,"dewp":25,"wdir":110,"wspd":4,"visib":"6+","altim":1012,"clouds":[{"cover":"BKN","base":1900},{"cover":"BKN","base":10000}],"obsTime":1774101600},"SBNT":{"icaoId":"SBNT","flightCategory":"VFR","rawOb":"METAR SBNT 211400Z 10012KT 060V130 9999 SCT027 FEW033TCU SCT036 31/24 Q1011","temp":31,"dewp":24,"wdir":100,"wspd":12,"visib":"6+","altim":1011,"clouds":[{"cover":"SCT","base":2700},{"cover":"FEW","base":3300},{"cover":"SCT","base":3600}],"obsTime":1774101600},"SBPA":{"icaoId":"SBPA","flightCategory":"VFR","rawOb":"METAR SBPA 211400Z 08007KT CAVOK 30/21 Q1007","temp":30,"dewp":21,"wdir":80,"wspd":7,"visib":"6+","altim":1007,"clouds":[],"obsTime":1774101600},"SBPJ":{"icaoId":"SBPJ","flightCategory":"VFR","rawOb":"METAR SBPJ 211400Z 36004KT 9999 FEW018 SCT100 28/22 Q1014","temp":28,"dewp":22,"wdir":360,"wspd":4,"visib":"6+","altim":1014,"clouds":[{"cover":"FEW","base":1800},{"cover":"SCT","base":10000}],"obsTime":1774101600},"SBPV":{"icaoId":"SBPV","flightCategory":"VFR","rawOb":"METAR SBPV 211400Z 02007KT CAVOK 30/24 Q1010","temp":30,"dewp":24,"wdir":20,"wspd":7,"visib":"6+","altim":1010,"clouds":[],"obsTime":1774101600},"SBRB":{"icaoId":"SBRB","flightCategory":"VFR","rawOb":"METAR SBRB 211400Z 03006KT 9999 FEW012 SCT100 29/25 Q1010","temp":29,"dewp":25,"wdir":30,"wspd":6,"visib":"6+","altim":1010,"clouds":[{"cover":"FEW","base":1200},{"cover":"SCT","base":10000}],"obsTime":1774101600},"SBRF":{"icaoId":"SBRF","flightCategory":"VFR","rawOb":"METAR SBRF 211400Z 08009KT 040V130 9999 SCT023 31/24 Q1012","temp":31,"dewp":24,"wdir":80,"wspd":9,"visib":"6+","altim":1012,"clouds":[{"cover":"SCT","base":2300}],"obsTime":1774101600},"SBSG":{"icaoId":"SBSG","flightCategory":"VFR","rawOb":"METAR SBSG 211400Z 11009KT 9999 SCT030 31/23 Q1012","temp":31,"dewp":23,"wdir":110,"wspd":9,"visib":"6+","altim":1012,"clouds":[{"cover":"SCT","base":3000}],"obsTime":1774101600},"SBSL":{"icaoId":"SBSL","flightCategory":"MVFR","rawOb":"METAR SBSL 211400Z 30006KT 9999 FEW008 BKN015 24/23 Q1014","temp":24,"dewp":23,"wdir":300,"wspd":6,"visib":"6+","altim":1014,"clouds":[{"cover":"FEW","base":800},{"cover":"BKN","base":1500}],"obsTime":1774101600},"SBSN":{"icaoId":"SBSN","flightCategory":"VFR","rawOb":"METAR SBSN 211400Z 09010KT 9999 SCT018 28/24 Q1012","temp":28,"dewp":24,"wdir":90,"wspd":10,"visib":"6+","altim":1012,"clouds":[{"cover":"SCT","base":1800}],"obsTime":1774101600},"SBSP":{"icaoId":"SBSP","flightCategory":"VFR","rawOb":"METAR SBSP 211400Z 32006KT CAVOK 26/17 Q1016","temp":26,"dewp":17,"wdir":320,"wspd":6,"visib":"6+","altim":1016,"clouds":[],"obsTime":1774101600},"SBSV":{"icaoId":"SBSV","flightCategory":"VFR","rawOb":"METAR SBSV 211400Z 09011KT 9999 SCT028 31/23 Q1012","temp":31,"dewp":23,"wdir":90,"wspd":11,"visib":"6+","altim":1012,"clouds":[{"cover":"SCT","base":2800}],"obsTime":1774101600},"SBTE":{"icaoId":"SBTE","flightCategory":"MVFR","rawOb":"METAR SBTE 211400Z 28008KT 9999 BKN016 BKN090 29/24 Q1013","temp":29,"dewp":24,"wdir":280,"wspd":8,"visib":"6+","altim":1013,"clouds":[{"cover":"BKN","base":1600},{"cover":"BKN","base":9000}],"obsTime":1774101600},"SBUL":{"icaoId":"SBUL","flightCategory":"MVFR","rawOb":"METAR SBUL 211400Z 02004KT 9999 SCT007 BKN015 23/20 Q1018","temp":23,"dewp":20,"wdir":20,"wspd":4,"visib":"6+","altim":1018,"clouds":[{"cover":"SCT","base":700},{"cover":"BKN","base":1500}],"obsTime":1774101600},"SBUR":{"icaoId":"SBUR","flightCategory":"MVFR","rawOb":"METAR SBUR 211400Z 18002KT 9999 BKN027 26/21 Q1016","temp":26,"dewp":21,"wdir":180,"wspd":2,"visib":"6+","altim":1016,"clouds":[{"cover":"BKN","base":2700}],"obsTime":1774101600},"SBVT":{"icaoId":"SBVT","flightCategory":"MVFR","rawOb":"METAR SBVT 211400Z 14002KT 9999 OVC024 25/23 Q1011","temp":25,"dewp":23,"wdir":140,"wspd":2,"visib":"6+","altim":1011,"clouds":[{"cover":"OVC","base":2400}],"obsTime":1774101600},"SBCA":{"icaoId":"SBCA","flightCategory":"MVFR","rawOb":"METAR SBCA 211400Z 02011KT 9999 BKN025 FEW040TCU 27/22 Q1014","temp":27,"dewp":22,"wdir":20,"wspd":11,"visib":"6+","altim":1014,"clouds":[{"cover":"BKN","base":2500},{"cover":"FEW","base":4000}],"obsTime":1774101600},"SBBQ":{"icaoId":"SBBQ","flightCategory":"VFR","rawOb":"METAR SBBQ 211400Z VRB04KT 9999 SCT030 24/18 Q1019","temp":24,"dewp":18,"wdir":"VRB","wspd":4,"visib":"6+","altim":1019,"clouds":[{"cover":"SCT","base":3000}],"obsTime":1774101600},"SBOI":{"icaoId":"SBOI","flightCategory":"VFR","rawOb":"METAR SBOI 211400Z AUTO 04004KT 360V110 9999 FEW017 27/23 Q1013","temp":27,"dewp":23,"wdir":40,"wspd":4,"visib":"6+","altim":1013,"clouds":[{"cover":"FEW","base":1700}],"obsTime":1774101600},"SBCJ":{"icaoId":"SBCJ","flightCategory":"VFR","rawOb":"METAR SBCJ 211400Z 00000KT 9999 FEW006 SCT012 BKN080 24/21 Q1017","temp":24,"dewp":21,"wdir":0,"wspd":0,"visib":"6+","altim":1017,"clouds":[{"cover":"FEW","base":600},{"cover":"SCT","base":1200},{"cover":"BKN","base":8000}],"obsTime":1774101600},"SBBU":{"icaoId":"SBBU","flightCategory":"VFR","rawOb":"METAR SBBU 211400Z 05006KT CAVOK 29/21 Q1014","temp":29,"dewp":21,"wdir":50,"wspd":6,"visib":"6+","altim":1014,"clouds":[],"obsTime":1774101600},"SBPB":{"icaoId":"SBPB","flightCategory":"MVFR","rawOb":"METAR SBPB 211400Z 03004KT 9999 BKN020 31/21 Q1012","temp":31,"dewp":21,"wdir":30,"wspd":4,"visib":"6+","altim":1012,"clouds":[{"cover":"BKN","base":2000}],"obsTime":1774101600},"SBPL":{"icaoId":"SBPL","flightCategory":"VFR","rawOb":"METAR SBPL 211400Z 07005KT 9999 SCT025 32/22 Q1014","temp":32,"dewp":22,"wdir":70,"wspd":5,"visib":"6+","altim":1014,"clouds":[{"cover":"SCT","base":2500}],"obsTime":1774101600},"SBAX":{"icaoId":"SBAX","flightCategory":"MVFR","rawOb":"METAR SBAX 211400Z AUTO 30004KT 250V320 9999 BKN020 25/19 Q1017","temp":25,"dewp":19,"wdir":300,"wspd":4,"visib":"6+","altim":1017,"clouds":[{"cover":"BKN","base":2000}],"obsTime":1774101600},"SBCO":{"icaoId":"SBCO","flightCategory":"VFR","rawOb":"METAR SBCO 211400Z 10006KT 060V160 CAVOK 30/21 Q1008","temp":30,"dewp":21,"wdir":100,"wspd":6,"visib":"6+","altim":1008,"clouds":[],"obsTime":1774101600},"SBPP":{"icaoId":"SBPP","flightCategory":"VFR","rawOb":"METAR SBPP 211400Z 30007KT 9999 FEW025 28/21 Q1013","temp":28,"dewp":21,"wdir":300,"wspd":7,"visib":"6+","altim":1013,"clouds":[{"cover":"FEW","base":2500}],"obsTime":1774101600},"SBDN":{"icaoId":"SBDN","flightCategory":"VFR","rawOb":"METAR SBDN 211400Z COR 05006KT 9999 FEW026 31/22 Q1012","temp":31,"dewp":22,"wdir":50,"wspd":6,"visib":"6+","altim":1012,"clouds":[{"cover":"FEW","base":2600}],"obsTime":1774101600},"SBPS":{"icaoId":"SBPS","flightCategory":"MVFR","rawOb":"METAR SBPS 211400Z 04008KT 360V060 9999 BKN030 31/24 Q1012","temp":31,"dewp":24,"wdir":40,"wspd":8,"visib":"6+","altim":1012,"clouds":[{"cover":"BKN","base":3000}],"obsTime":1774101600},"SBBH":{"icaoId":"SBBH","flightCategory":"MVFR","rawOb":"METAR SBBH 211400Z 08004KT 9999 BKN020 26/20 Q1016","temp":26,"dewp":20,"wdir":80,"wspd":4,"visib":"6+","altim":1016,"clouds":[{"cover":"BKN","base":2000}],"obsTime":1774101600},"SBSC":{"icaoId":"SBSC","flightCategory":"VFR","rawOb":"METAR SBSC 211400Z 15004KT 9999 FEW015 SCT030 29/23 Q1012","temp":29,"dewp":23,"wdir":150,"wspd":4,"visib":"6+","altim":1012,"clouds":[{"cover":"FEW","base":1500},{"cover":"SCT","base":3000}],"obsTime":1774101600},"SBES":{"icaoId":"SBES","flightCategory":"VFR","rawOb":"METAR SBES 211400Z 23005KT 170V290 9999 FEW020 27/// Q1012","temp":null,"dewp":null,"wdir":230,"wspd":5,"visib":"6+","altim":1012,"clouds":[{"cover":"FEW","base":2000}],"obsTime":1774101600},"SBSJ":{"icaoId":"SBSJ","flightCategory":"MVFR","rawOb":"METAR SBSJ 211400Z 21004KT 5000 HZ BKN017 24/// Q1015","temp":null,"dewp":null,"wdir":210,"wspd":4,"visib":3.11,"altim":1015,"clouds":[{"cover":"BKN","base":1700}],"obsTime":1774101600},"SBSM":{"icaoId":"SBSM","flightCategory":"VFR","rawOb":"METAR SBSM 211400Z 02007KT 9999 FEW040 32/22 Q1007","temp":32,"dewp":22,"wdir":20,"wspd":7,"visib":"6+","altim":1007,"clouds":[{"cover":"FEW","base":4000}],"obsTime":1774101600},"SBSR":{"icaoId":"SBSR","flightCategory":"VFR","rawOb":"METAR SBSR 211400Z 06004KT 9999 SCT030 28/21 Q1014","temp":28,"dewp":21,"wdir":60,"wspd":4,"visib":"6+","altim":1014,"clouds":[{"cover":"SCT","base":3000}],"obsTime":1774101600},"SBGM":{"icaoId":"SBGM","flightCategory":"VFR","rawOb":"METAR SBGM 211400Z 01005KT 9999 SCT033 BKN060 24/22 Q1010","temp":24,"dewp":22,"wdir":10,"wspd":5,"visib":"6+","altim":1010,"clouds":[{"cover":"SCT","base":3300},{"cover":"BKN","base":6000}],"obsTime":1774101600},"SBTF":{"icaoId":"SBTF","flightCategory":"VFR","rawOb":"METAR SBTF 211400Z 13006KT CAVOK 32/25 Q1010","temp":32,"dewp":25,"wdir":130,"wspd":6,"visib":"6+","altim":1010,"clouds":[],"obsTime":1774101600},"SBCC":{"icaoId":"SBCC","flightCategory":"VFR","rawOb":"METAR SBCC 211400Z 34009KT 310V010 9999 SCT015 SCT020 FEW025TCU BKN100 27/21 Q1015","temp":27,"dewp":21,"wdir":340,"wspd":9,"visib":"6+","altim":1015,"clouds":[{"cover":"SCT","base":1500},{"cover":"SCT","base":2000},{"cover":"FEW","base":2500},{"cover":"BKN","base":10000}],"obsTime":1774101600},"SBTT":{"icaoId":"SBTT","flightCategory":"VFR","rawOb":"METAR SBTT 211400Z 13006KT CAVOK 30/23 Q1010","temp":30,"dewp":23,"wdir":130,"wspd":6,"visib":"6+","altim":1010,"clouds":[],"obsTime":1774101600},"SBIP":{"icaoId":"SBIP","flightCategory":"VFR","rawOb":"METAR SBIP 211400Z AUTO 15006KT 110V190 9999 SCT015 SCT017 27/23 Q1013","temp":27,"dewp":23,"wdir":150,"wspd":6,"visib":"6+","altim":1013,"clouds":[{"cover":"SCT","base":1500},{"cover":"SCT","base":1700}],"obsTime":1774101600},"SBUY":{"icaoId":"SBUY","flightCategory":"VFR","rawOb":"METAR SBUY 211400Z 12007KT CAVOK 30/23 Q1009","temp":30,"dewp":23,"wdir":120,"wspd":7,"visib":"6+","altim":1009,"clouds":[],"obsTime":1774101600},"SBVH":{"icaoId":"SBVH","flightCategory":"MVFR","rawOb":"METAR SBVH 211400Z 01010KT 9999 SCT010 BKN013 26/22 Q1014","temp":26,"dewp":22,"wdir":10,"wspd":10,"visib":"6+","altim":1014,"clouds":[{"cover":"SCT","base":1000},{"cover":"BKN","base":1300}],"obsTime":1774101600},"SBKG":{"icaoId":"SBKG","flightCategory":"MVFR","rawOb":"METAR SBKG 211400Z 08009KT 9999 BKN020 31/20 Q1014","temp":31,"dewp":20,"wdir":80,"wspd":9,"visib":"6+","altim":1014,"clouds":[{"cover":"BKN","base":2000}],"obsTime":1774101600},"SBAR":{"icaoId":"SBAR","flightCategory":"VFR","rawOb":"METAR SBAR 211400Z 07010KT 9999 FEW025 32/22 Q1011","temp":32,"dewp":22,"wdir":70,"wspd":10,"visib":"6+","altim":1011,"clouds":[{"cover":"FEW","base":2500}],"obsTime":1774101600},"SBAU":{"icaoId":"SBAU","flightCategory":"VFR","rawOb":"METAR SBAU 211400Z 10004KT 9999 SCT030 31/23 Q1013","temp":31,"dewp":23,"wdir":100,"wspd":4,"visib":"6+","altim":1013,"clouds":[{"cover":"SCT","base":3000}],"obsTime":1774101600},"SBAN":{"icaoId":"SBAN","flightCategory":"VFR","rawOb":"METAR SBAN 211400Z 02004KT 9999 FEW020 BKN100 25/16 Q1019","temp":25,"dewp":16,"wdir":20,"wspd":4,"visib":"6+","altim":1019,"clouds":[{"cover":"FEW","base":2000},{"cover":"BKN","base":10000}],"obsTime":1774101600},"SBLE":{"icaoId":"SBLE","flightCategory":"VFR","rawOb":"METAR SBLE 211400Z AUTO VRB02KT 9999 FEW024 29/19 Q1016","temp":29,"dewp":19,"wdir":"VRB","wspd":2,"visib":"6+","altim":1016,"clouds":[{"cover":"FEW","base":2400}],"obsTime":1774101600},"SBLS":{"icaoId":"SBLS","flightCategory":"MVFR","rawOb":"METAR SBLS 211400Z VRB02KT 9999 BKN018 25/20 Q1016","temp":25,"dewp":20,"wdir":"VRB","wspd":2,"visib":"6+","altim":1016,"clouds":[{"cover":"BKN","base":1800}],"obsTime":1774101600},"SBAF":{"icaoId":"SBAF","flightCategory":"VFR","rawOb":"METAR SBAF 211400Z 31003KT 9999 SCT035 29/21 Q1012","temp":29,"dewp":21,"wdir":310,"wspd":3,"visib":"6+","altim":1012,"clouds":[{"cover":"SCT","base":3500}],"obsTime":1774101600},"SBJP":{"icaoId":"SBJP","flightCategory":"VFR","rawOb":"METAR SBJP 211400Z 09010KT 050V110 9999 SCT030 31/23 Q1012","temp":31,"dewp":23,"wdir":90,"wspd":10,"visib":"6+","altim":1012,"clouds":[{"cover":"SCT","base":3000}],"obsTime":1774101600},"SBMT":{"icaoId":"SBMT","flightCategory":"VFR","rawOb":"METAR SBMT 211400Z 07004KT 9999 SCT035 25/17 Q1015","temp":25,"dewp":17,"wdir":70,"wspd":4,"visib":"6+","altim":1015,"clouds":[{"cover":"SCT","base":3500}],"obsTime":1774101600},"SBJR":{"icaoId":"SBJR","flightCategory":"VFR","rawOb":"METAR SBJR 211400Z 18007KT 9999 FEW025 31/23 Q1012","temp":31,"dewp":23,"wdir":180,"wspd":7,"visib":"6+","altim":1012,"clouds":[{"cover":"FEW","base":2500}],"obsTime":1774101600},"SBPF":{"icaoId":"SBPF","flightCategory":"VFR","rawOb":"METAR SBPF 211400Z 35011KT CAVOK 27/20 Q1013","temp":27,"dewp":20,"wdir":350,"wspd":11,"visib":"6+","altim":1013,"clouds":[],"obsTime":1774101600},"SBST":{"icaoId":"SBST","flightCategory":"VFR","rawOb":"METAR SBST 211400Z 20003KT 9999 SCT027 28/22 Q1011","temp":28,"dewp":22,"wdir":200,"wspd":3,"visib":"6+","altim":1011,"clouds":[{"cover":"SCT","base":2700}],"obsTime":1774101600},"SBGW":{"icaoId":"SBGW","flightCategory":"MVFR","rawOb":"METAR SBGW 211400Z VRB03KT 8000 BKN020 27/18 Q1014","temp":27,"dewp":18,"wdir":"VRB","wspd":3,"visib":4.97,"altim":1014,"clouds":[{"cover":"BKN","base":2000}],"obsTime":1774101600},"SBIH":{"icaoId":"SBIH","flightCategory":"MVFR","rawOb":"METAR SBIH 211400Z 05006KT 9999 BKN015 BKN100 28/24 Q1012","temp":28,"dewp":24,"wdir":50,"wspd":6,"visib":"6+","altim":1012,"clouds":[{"cover":"BKN","base":1500},{"cover":"BKN","base":10000}],"obsTime":1774101600},"SBTA":{"icaoId":"SBTA","flightCategory":"VFR","rawOb":"METAR SBTA 211400Z VRB02KT 9999 SCT020 26/20 Q1014","temp":26,"dewp":20,"wdir":"VRB","wspd":2,"visib":"6+","altim":1014,"clouds":[{"cover":"SCT","base":2000}],"obsTime":1774101600},"SBJV":{"icaoId":"SBJV","flightCategory":"VFR","rawOb":"METAR SBJV 211400Z 15002KT 9999 SCT025 30/24 Q1011","temp":30,"dewp":24,"wdir":150,"wspd":2,"visib":"6+","altim":1011,"clouds":[{"cover":"SCT","base":2500}],"obsTime":1774101600},"SBTC":{"icaoId":"SBTC","flightCategory":"VFR","rawOb":"METAR SBTC 211400Z 04008KT 9999 SCT020 31/25 Q1012","temp":31,"dewp":25,"wdir":40,"wspd":8,"visib":"6+","altim":1012,"clouds":[{"cover":"SCT","base":2000}],"obsTime":1774101600}}}