{"updated":1779141392,"count":84,"data":{"SBCT":{"icaoId":"SBCT","flightCategory":"IFR","rawOb":"METAR SBCT 182000Z 11005KT 9000 BKN006 OVC035 14/14 Q1021","temp":14,"dewp":14,"wdir":110,"wspd":5,"visib":5.59,"altim":1021,"clouds":[{"cover":"BKN","base":600},{"cover":"OVC","base":3500}],"obsTime":1779134400},"SBMQ":{"icaoId":"SBMQ","flightCategory":"VFR","rawOb":"METAR SBMQ 182000Z 07005KT 9999 4500SE VCSH SCT026 FEW035TCU 30/25 Q1010","temp":30,"dewp":25,"wdir":70,"wspd":5,"visib":"6+","altim":1010,"clouds":[{"cover":"SCT","base":2600},{"cover":"FEW","base":3500}],"obsTime":1779134400},"SBGR":{"icaoId":"SBGR","flightCategory":"MVFR","rawOb":"METAR SBGR 182000Z 00000KT 7000 OVC021 19/17 Q1020","temp":19,"dewp":17,"wdir":0,"wspd":0,"visib":4.35,"altim":1020,"clouds":[{"cover":"OVC","base":2100}],"obsTime":1779134400},"SBBE":{"icaoId":"SBBE","flightCategory":"VFR","rawOb":"METAR SBBE 182000Z 36003KT 9999 SCT048 FEW049TCU 28/26 Q1010","temp":28,"dewp":26,"wdir":360,"wspd":3,"visib":"6+","altim":1010,"clouds":[{"cover":"SCT","base":4800},{"cover":"FEW","base":4900}],"obsTime":1779134400},"SBBR":{"icaoId":"SBBR","flightCategory":"VFR","rawOb":"METAR SBBR 182000Z 10006KT 070V140 9999 SCT045 28/15 Q1019","temp":28,"dewp":15,"wdir":100,"wspd":6,"visib":"6+","altim":1019,"clouds":[{"cover":"SCT","base":4500}],"obsTime":1779134400},"SBUL":{"icaoId":"SBUL","flightCategory":"VFR","rawOb":"METAR SBUL 182000Z 24006KT 9999 VCSH SCT040 FEW049TCU BKN100 26/18 Q1019","temp":26,"dewp":18,"wdir":240,"wspd":6,"visib":"6+","altim":1019,"clouds":[{"cover":"SCT","base":4000},{"cover":"FEW","base":4900},{"cover":"BKN","base":10000}],"obsTime":1779134400},"SBTE":{"icaoId":"SBTE","flightCategory":"VFR","rawOb":"METAR SBTE 182000Z 14004KT 9999 FEW025 SCT100 31/24 Q1010","temp":31,"dewp":24,"wdir":140,"wspd":4,"visib":"6+","altim":1010,"clouds":[{"cover":"FEW","base":2500},{"cover":"SCT","base":10000}],"obsTime":1779134400},"SBBV":{"icaoId":"SBBV","flightCategory":"VFR","rawOb":"METAR SBBV 182000Z 17007KT 9999 BKN040 FEW045TCU BKN090 32/22 Q1010","temp":32,"dewp":22,"wdir":170,"wspd":7,"visib":"6+","altim":1010,"clouds":[{"cover":"BKN","base":4000},{"cover":"FEW","base":4500},{"cover":"BKN","base":9000}],"obsTime":1779134400},"SBCB":{"icaoId":"SBCB","flightCategory":"VFR","rawOb":"METAR SBCB 182000Z 25009KT 9999 FEW015 BKN070 24/23 Q1015","temp":24,"dewp":23,"wdir":250,"wspd":9,"visib":"6+","altim":1015,"clouds":[{"cover":"FEW","base":1500},{"cover":"BKN","base":7000}],"obsTime":1779134400},"SBSV":{"icaoId":"SBSV","flightCategory":"VFR","rawOb":"METAR SBSV 182000Z 15005KT 9999 FEW023 27/23 Q1014","temp":27,"dewp":23,"wdir":150,"wspd":5,"visib":"6+","altim":1014,"clouds":[{"cover":"FEW","base":2300}],"obsTime":1779134400},"SBCF":{"icaoId":"SBCF","flightCategory":"VFR","rawOb":"METAR SBCF 182000Z 24005KT 9999 FEW045 26/18 Q1018","temp":26,"dewp":18,"wdir":240,"wspd":5,"visib":"6+","altim":1018,"clouds":[{"cover":"FEW","base":4500}],"obsTime":1779134400},"SBSP":{"icaoId":"SBSP","flightCategory":"MVFR","rawOb":"METAR SBSP 182000Z 22006KT 190V250 9999 BKN017 19/17 Q1021","temp":19,"dewp":17,"wdir":220,"wspd":6,"visib":"6+","altim":1021,"clouds":[{"cover":"BKN","base":1700}],"obsTime":1779134400},"SBAT":{"icaoId":"SBAT","flightCategory":"VFR","rawOb":"METAR SBAT 182000Z 26004KT 9999 VCSH FEW030 FEW035TCU 34/26 Q1011","temp":34,"dewp":26,"wdir":260,"wspd":4,"visib":"6+","altim":1011,"clouds":[{"cover":"FEW","base":3000},{"cover":"FEW","base":3500}],"obsTime":1779134400},"SBCG":{"icaoId":"SBCG","flightCategory":"MVFR","rawOb":"METAR SBCG 182000Z 18007KT 9999 SCT011 OVC030 16/13 Q1020","temp":16,"dewp":13,"wdir":180,"wspd":7,"visib":"6+","altim":1020,"clouds":[{"cover":"SCT","base":1100},{"cover":"OVC","base":3000}],"obsTime":1779134400},"SBSN":{"icaoId":"SBSN","flightCategory":"VFR","rawOb":"METAR SBSN 182000Z 07007KT 9999 SCT020 30/25 Q1010","temp":30,"dewp":25,"wdir":70,"wspd":7,"visib":"6+","altim":1010,"clouds":[{"cover":"SCT","base":2000}],"obsTime":1779134400},"SBCP":{"icaoId":"SBCP","flightCategory":"VFR","rawOb":"METAR SBCP 182000Z 19009KT CAVOK 26/22 Q1015","temp":26,"dewp":22,"wdir":190,"wspd":9,"visib":"6+","altim":1015,"clouds":[],"obsTime":1779134400},"SBSL":{"icaoId":"SBSL","flightCategory":"VFR","rawOb":"METAR SBSL 182000Z 06007KT 030V110 9999 FEW025 SCT100 28/25 Q1011","temp":28,"dewp":25,"wdir":60,"wspd":7,"visib":"6+","altim":1011,"clouds":[{"cover":"FEW","base":2500},{"cover":"SCT","base":10000}],"obsTime":1779134400},"SBCR":{"icaoId":"SBCR","flightCategory":"IFR","rawOb":"METAR SBCR 182000Z 21006KT 170V270 4000 -RA BR BKN009 OVC040 14/13 Q1021","temp":14,"dewp":13,"wdir":210,"wspd":6,"visib":2.49,"altim":1021,"clouds":[{"cover":"BKN","base":900},{"cover":"OVC","base":4000}],"obsTime":1779134400},"SBSG":{"icaoId":"SBSG","flightCategory":"VFR","rawOb":"METAR SBSG 182000Z 13008KT 100V160 9999 FEW023 27/23 Q1013","temp":27,"dewp":23,"wdir":130,"wspd":8,"visib":"6+","altim":1013,"clouds":[{"cover":"FEW","base":2300}],"obsTime":1779134400},"SBCZ":{"icaoId":"SBCZ","flightCategory":"VFR","rawOb":"METAR SBCZ 182000Z 06007KT 9999 SCT030 FEW030TCU 29/26 Q1010","temp":29,"dewp":26,"wdir":60,"wspd":7,"visib":"6+","altim":1010,"clouds":[{"cover":"SCT","base":3000},{"cover":"FEW","base":3000}],"obsTime":1779134400},"SBRF":{"icaoId":"SBRF","flightCategory":"VFR","rawOb":"METAR SBRF 182000Z 13010KT 9999 SCT023 FEW025TCU 27/23 Q1014","temp":27,"dewp":23,"wdir":130,"wspd":10,"visib":"6+","altim":1014,"clouds":[{"cover":"SCT","base":2300},{"cover":"FEW","base":2500}],"obsTime":1779134400},"SBEG":{"icaoId":"SBEG","flightCategory":"VFR","rawOb":"METAR SBEG 182000Z 34003KT 9999 FEW010 FEW035TCU BKN100 25/24 Q1011","temp":25,"dewp":24,"wdir":340,"wspd":3,"visib":"6+","altim":1011,"clouds":[{"cover":"FEW","base":1000},{"cover":"FEW","base":3500},{"cover":"BKN","base":10000}],"obsTime":1779134400},"SBRB":{"icaoId":"SBRB","flightCategory":"IFR","rawOb":"METAR SBRB 182000Z 16007KT 9999 BKN009 FEW030TCU 23/21 Q1014","temp":23,"dewp":21,"wdir":160,"wspd":7,"visib":"6+","altim":1014,"clouds":[{"cover":"BKN","base":900},{"cover":"FEW","base":3000}],"obsTime":1779134400},"SBFI":{"icaoId":"SBFI","flightCategory":"VFR","rawOb":"METAR SBFI 182000Z 21006KT 9999 SCT007 SCT015 17/14 Q1021","temp":17,"dewp":14,"wdir":210,"wspd":6,"visib":"6+","altim":1021,"clouds":[{"cover":"SCT","base":700},{"cover":"SCT","base":1500}],"obsTime":1779134400},"SBPV":{"icaoId":"SBPV","flightCategory":"IFR","rawOb":"METAR SBPV 182000Z 17015KT 4000 SHRA BKN020 FEW030TCU 26/21 Q1011 RESHRA","temp":26,"dewp":21,"wdir":170,"wspd":15,"visib":2.49,"altim":1011,"clouds":[{"cover":"BKN","base":2000},{"cover":"FEW","base":3000}],"obsTime":1779134400},"SBFL":{"icaoId":"SBFL","flightCategory":"VFR","rawOb":"METAR SBFL 182000Z 17009KT 110V210 9999 FEW030 BKN070 18/12 Q1020","temp":18,"dewp":12,"wdir":170,"wspd":9,"visib":"6+","altim":1020,"clouds":[{"cover":"FEW","base":3000},{"cover":"BKN","base":7000}],"obsTime":1779134400},"SBFZ":{"icaoId":"SBFZ","flightCategory":"VFR","rawOb":"METAR SBFZ 182000Z 12012KT 9999 SCT020 28/24 Q1012","temp":28,"dewp":24,"wdir":120,"wspd":12,"visib":"6+","altim":1012,"clouds":[{"cover":"SCT","base":2000}],"obsTime":1779134400},"SBPJ":{"icaoId":"SBPJ","flightCategory":"VFR","rawOb":"METAR SBPJ 182000Z 20003KT 9999 FEW045 34/22 Q1012","temp":34,"dewp":22,"wdir":200,"wspd":3,"visib":"6+","altim":1012,"clouds":[{"cover":"FEW","base":4500}],"obsTime":1779134400},"SBGL":{"icaoId":"SBGL","flightCategory":"VFR","rawOb":"METAR SBGL 182000Z 22009KT 9999 SCT030 BKN100 26/20 Q1015","temp":26,"dewp":20,"wdir":220,"wspd":9,"visib":"6+","altim":1015,"clouds":[{"cover":"SCT","base":3000},{"cover":"BKN","base":10000}],"obsTime":1779134400},"SBGO":{"icaoId":"SBGO","flightCategory":"VFR","rawOb":"METAR SBGO 182000Z 15003KT 9999 SCT045 FEW048TCU 31/18 Q1017","temp":31,"dewp":18,"wdir":150,"wspd":3,"visib":"6+","altim":1017,"clouds":[{"cover":"SCT","base":4500},{"cover":"FEW","base":4800}],"obsTime":1779134400},"SBPA":{"icaoId":"SBPA","flightCategory":"VFR","rawOb":"METAR SBPA 182000Z 16007KT 9999 BKN040 16/10 Q1023","temp":16,"dewp":10,"wdir":160,"wspd":7,"visib":"6+","altim":1023,"clouds":[{"cover":"BKN","base":4000}],"obsTime":1779134400},"SBME":{"icaoId":"SBME","flightCategory":"VFR","rawOb":"METAR SBME 182000Z 23010KT CAVOK 26/21 Q1015","temp":26,"dewp":21,"wdir":230,"wspd":10,"visib":"6+","altim":1015,"clouds":[],"obsTime":1779134400},"SBVT":{"icaoId":"SBVT","flightCategory":"VFR","rawOb":"METAR SBVT 182000Z 05011KT CAVOK 27/23 Q1013","temp":27,"dewp":23,"wdir":50,"wspd":11,"visib":"6+","altim":1013,"clouds":[],"obsTime":1779134400},"SBUR":{"icaoId":"SBUR","flightCategory":"VFR","rawOb":"METAR SBUR 182000Z 17009KT 9999 FEW025 BKN040 24/18 Q1019","temp":24,"dewp":18,"wdir":170,"wspd":9,"visib":"6+","altim":1019,"clouds":[{"cover":"FEW","base":2500},{"cover":"BKN","base":4000}],"obsTime":1779134400},"SBLO":{"icaoId":"SBLO","flightCategory":"VFR","rawOb":"METAR SBLO 182000Z 35003KT 9999 SCT020 BKN080 21/19 Q1018","temp":21,"dewp":19,"wdir":350,"wspd":3,"visib":"6+","altim":1018,"clouds":[{"cover":"SCT","base":2000},{"cover":"BKN","base":8000}],"obsTime":1779134400},"SBMA":{"icaoId":"SBMA","flightCategory":"VFR","rawOb":"METAR SBMA 182000Z 15005KT 9999 SCT025 FEW030TCU 32/23 Q1010","temp":32,"dewp":23,"wdir":150,"wspd":5,"visib":"6+","altim":1010,"clouds":[{"cover":"SCT","base":2500},{"cover":"FEW","base":3000}],"obsTime":1779134400},"SBNT":{"icaoId":"SBNT","flightCategory":"VFR","rawOb":"METAR SBNT 182000Z 13010KT 9999 SCT025 28/23 Q1013","temp":28,"dewp":23,"wdir":130,"wspd":10,"visib":"6+","altim":1013,"clouds":[{"cover":"SCT","base":2500}],"obsTime":1779134400},"SBHT":{"icaoId":"SBHT","flightCategory":"VFR","rawOb":"METAR SBHT 182000Z 11003KT 9999 SCT030 31/24 Q1010","temp":31,"dewp":24,"wdir":110,"wspd":3,"visib":"6+","altim":1010,"clouds":[{"cover":"SCT","base":3000}],"obsTime":1779134400},"SBIL":{"icaoId":"SBIL","flightCategory":"VFR","rawOb":"METAR SBIL 182000Z 10003KT 9999 SCT025 28/24 Q1015","temp":28,"dewp":24,"wdir":100,"wspd":3,"visib":"6+","altim":1015,"clouds":[{"cover":"SCT","base":2500}],"obsTime":1779134400},"SBJU":{"icaoId":"SBJU","flightCategory":"VFR","rawOb":"METAR SBJU 182000Z 24005KT 9999 SCT022 26/22 Q1015","temp":26,"dewp":22,"wdir":240,"wspd":5,"visib":"6+","altim":1015,"clouds":[{"cover":"SCT","base":2200}],"obsTime":1779134400},"SBMO":{"icaoId":"SBMO","flightCategory":"VFR","rawOb":"METAR SBMO 182000Z 11010KT 9999 FEW030 27/21 Q1014","temp":27,"dewp":21,"wdir":110,"wspd":10,"visib":"6+","altim":1014,"clouds":[{"cover":"FEW","base":3000}],"obsTime":1779134400},"SBMK":{"icaoId":"SBMK","flightCategory":"VFR","rawOb":"METAR SBMK 182000Z 36003KT CAVOK 30/16 Q1016","temp":30,"dewp":16,"wdir":360,"wspd":3,"visib":"6+","altim":1016,"clouds":[],"obsTime":1779134400},"SBKP":{"icaoId":"SBKP","flightCategory":"MVFR","rawOb":"METAR SBKP 182000Z 19004KT 8000 FEW009 BKN020 19/18 Q1019","temp":19,"dewp":18,"wdir":190,"wspd":4,"visib":4.97,"altim":1019,"clouds":[{"cover":"FEW","base":900},{"cover":"BKN","base":2000}],"obsTime":1779134400},"SBMG":{"icaoId":"SBMG","flightCategory":"VFR","rawOb":"METAR SBMG 182000Z 26008KT 9999 SCT017 BKN100 20/17 Q1018","temp":20,"dewp":17,"wdir":260,"wspd":8,"visib":"6+","altim":1018,"clouds":[{"cover":"SCT","base":1700},{"cover":"BKN","base":10000}],"obsTime":1779134400},"SBPB":{"icaoId":"SBPB","flightCategory":"VFR","rawOb":"METAR SBPB 182000Z 07011KT 9999 FEW016 30/25 Q1011","temp":30,"dewp":25,"wdir":70,"wspd":11,"visib":"6+","altim":1011,"clouds":[{"cover":"FEW","base":1600}],"obsTime":1779134400},"SBCJ":{"icaoId":"SBCJ","flightCategory":"VFR","rawOb":"METAR SBCJ 182000Z 13003KT 9999 FEW025 29/21 Q1015","temp":29,"dewp":21,"wdir":130,"wspd":3,"visib":"6+","altim":1015,"clouds":[{"cover":"FEW","base":2500}],"obsTime":1779134400},"SBAX":{"icaoId":"SBAX","flightCategory":"VFR","rawOb":"METAR SBAX 182100Z 16003KT 9999 -RA SCT040 21/21 Q1020","temp":21,"dewp":21,"wdir":160,"wspd":3,"visib":"6+","altim":1020,"clouds":[{"cover":"SCT","base":4000}],"obsTime":1779138000},"SBBH":{"icaoId":"SBBH","flightCategory":"VFR","rawOb":"METAR SBBH 182000Z 27004KT CAVOK 26/18 Q1018","temp":26,"dewp":18,"wdir":270,"wspd":4,"visib":"6+","altim":1018,"clouds":[],"obsTime":1779134400},"SBBU":{"icaoId":"SBBU","flightCategory":"MVFR","rawOb":"METAR SBBU 182000Z 16003KT 9999 VCSH SCT012 BKN015 FEW025TCU 23/20 Q1019","temp":23,"dewp":20,"wdir":160,"wspd":3,"visib":"6+","altim":1019,"clouds":[{"cover":"SCT","base":1200},{"cover":"BKN","base":1500},{"cover":"FEW","base":2500}],"obsTime":1779134400},"SBCA":{"icaoId":"SBCA","flightCategory":"VFR","rawOb":"METAR SBCA 182000Z 23007KT 9999 FEW012 SCT030 16/12 Q1021","temp":16,"dewp":12,"wdir":230,"wspd":7,"visib":"6+","altim":1021,"clouds":[{"cover":"FEW","base":1200},{"cover":"SCT","base":3000}],"obsTime":1779134400},"SBSM":{"icaoId":"SBSM","flightCategory":"VFR","rawOb":"METAR SBSM 182000Z 20001KT CAVOK 16/09 Q1023","temp":16,"dewp":9,"wdir":200,"wspd":1,"visib":"6+","altim":1023,"clouds":[],"obsTime":1779134400},"SBAR":{"icaoId":"SBAR","flightCategory":"VFR","rawOb":"METAR SBAR 182000Z 12007KT 9999 FEW023 28/22 Q1014","temp":28,"dewp":22,"wdir":120,"wspd":7,"visib":"6+","altim":1014,"clouds":[{"cover":"FEW","base":2300}],"obsTime":1779134400},"SBCO":{"icaoId":"SBCO","flightCategory":"VFR","rawOb":"METAR SBCO 182000Z 13003KT 9999 BKN036 OVC090 16/10 Q1023","temp":16,"dewp":10,"wdir":130,"wspd":3,"visib":"6+","altim":1023,"clouds":[{"cover":"BKN","base":3600},{"cover":"OVC","base":9000}],"obsTime":1779134400},"SBDN":{"icaoId":"SBDN","flightCategory":"VFR","rawOb":"METAR SBDN 182000Z 25005KT 9999 FEW010 BKN045 20/17 Q1018","temp":20,"dewp":17,"wdir":250,"wspd":5,"visib":"6+","altim":1018,"clouds":[{"cover":"FEW","base":1000},{"cover":"BKN","base":4500}],"obsTime":1779134400},"SBES":{"icaoId":"SBES","flightCategory":"VFR","rawOb":"METAR SBES 182000Z VRB06KT 9999 SCT015 BKN070 24/// Q1015","temp":null,"dewp":null,"wdir":"VRB","wspd":6,"visib":"6+","altim":1015,"clouds":[{"cover":"SCT","base":1500},{"cover":"BKN","base":7000}],"obsTime":1779134400},"SBIP":{"icaoId":"SBIP","flightCategory":"VFR","rawOb":"METAR SBIP 182000Z AUTO 00000KT CAVOK 26/21 Q1015","temp":26,"dewp":21,"wdir":0,"wspd":0,"visib":"6+","altim":1015,"clouds":[],"obsTime":1779134400},"SBKG":{"icaoId":"SBKG","flightCategory":"VFR","rawOb":"METAR SBKG 182000Z 09010KT 9999 FEW030 24/22 Q1016","temp":24,"dewp":22,"wdir":90,"wspd":10,"visib":"6+","altim":1016,"clouds":[{"cover":"FEW","base":3000}],"obsTime":1779134400},"SBOI":{"icaoId":"SBOI","flightCategory":"IFR","rawOb":"METAR SBOI 182000Z AUTO 24003KT 210V280 9999 SCT007 BKN009 27/25 Q1011","temp":27,"dewp":25,"wdir":240,"wspd":3,"visib":"6+","altim":1011,"clouds":[{"cover":"SCT","base":700},{"cover":"BKN","base":900}],"obsTime":1779134400},"SBPL":{"icaoId":"SBPL","flightCategory":"VFR","rawOb":"METAR SBPL 182000Z 11006KT 9999 FEW030 33/14 Q1013","temp":33,"dewp":14,"wdir":110,"wspd":6,"visib":"6+","altim":1013,"clouds":[{"cover":"FEW","base":3000}],"obsTime":1779134400},"SBPP":{"icaoId":"SBPP","flightCategory":"LIFR","rawOb":"METAR SBPP 182000Z 26008KT 0300 FG VV000 11/10 Q1022","temp":11,"dewp":10,"wdir":260,"wspd":8,"visib":0.19,"altim":1022,"clouds":[{"cover":"OVX","base":0}],"obsTime":1779134400},"SBPS":{"icaoId":"SBPS","flightCategory":"VFR","rawOb":"METAR SBPS 182000Z 05006KT 9999 SCT025 27/22 Q1015","temp":27,"dewp":22,"wdir":50,"wspd":6,"visib":"6+","altim":1015,"clouds":[{"cover":"SCT","base":2500}],"obsTime":1779134400},"SBSC":{"icaoId":"SBSC","flightCategory":"MVFR","rawOb":"METAR SBSC 182000Z 20007KT 9999 SCT010 BKN015 BKN083 24/21 Q1016","temp":24,"dewp":21,"wdir":200,"wspd":7,"visib":"6+","altim":1016,"clouds":[{"cover":"SCT","base":1000},{"cover":"BKN","base":1500},{"cover":"BKN","base":8300}],"obsTime":1779134400},"SBSJ":{"icaoId":"SBSJ","flightCategory":"MVFR","rawOb":"METAR SBSJ 182000Z 22005KT 9999 BKN023 BKN026 20/18 Q1019","temp":20,"dewp":18,"wdir":220,"wspd":5,"visib":"6+","altim":1019,"clouds":[{"cover":"BKN","base":2300},{"cover":"BKN","base":2600}],"obsTime":1779134400},"SBSR":{"icaoId":"SBSR","flightCategory":"VFR","rawOb":"METAR SBSR 182000Z 22007KT 9999 FEW030TCU BKN035 22/19 Q1018","temp":22,"dewp":19,"wdir":220,"wspd":7,"visib":"6+","altim":1018,"clouds":[{"cover":"FEW","base":3000},{"cover":"BKN","base":3500}],"obsTime":1779134400},"SBTF":{"icaoId":"SBTF","flightCategory":"VFR","rawOb":"METAR SBTF 182000Z 02002KT 9999 SCT020 32/25 Q1009","temp":32,"dewp":25,"wdir":20,"wspd":2,"visib":"6+","altim":1009,"clouds":[{"cover":"SCT","base":2000}],"obsTime":1779134400},"SBTT":{"icaoId":"SBTT","flightCategory":"VFR","rawOb":"METAR SBTT 182000Z 33004KT 9999 SCT025 BKN090 28/24 Q1011","temp":28,"dewp":24,"wdir":330,"wspd":4,"visib":"6+","altim":1011,"clouds":[{"cover":"SCT","base":2500},{"cover":"BKN","base":9000}],"obsTime":1779134400},"SBUY":{"icaoId":"SBUY","flightCategory":"VFR","rawOb":"METAR SBUY 182000Z 11002KT 9999 SCT025 31/24 Q1008","temp":31,"dewp":24,"wdir":110,"wspd":2,"visib":"6+","altim":1008,"clouds":[{"cover":"SCT","base":2500}],"obsTime":1779134400},"SBVH":{"icaoId":"SBVH","flightCategory":"MVFR","rawOb":"METAR SBVH 182000Z 20010KT 9999 FEW008 BKN020 OVC090 20/19 Q1017","temp":20,"dewp":19,"wdir":200,"wspd":10,"visib":"6+","altim":1017,"clouds":[{"cover":"FEW","base":800},{"cover":"BKN","base":2000},{"cover":"OVC","base":9000}],"obsTime":1779134400},"SBTU":{"icaoId":"SBTU","flightCategory":"VFR","rawOb":"METAR SBTU 182000Z AUTO 30004KT 270V330 9999 // NCD ///// Q1011","temp":null,"dewp":null,"wdir":300,"wspd":4,"visib":"6+","altim":1011,"clouds":[],"obsTime":1779134400},"SBCC":{"icaoId":"SBCC","flightCategory":"MVFR","rawOb":"METAR SBCC 182000Z /////KT 9999 BKN020 SCT100 ///// Q1012","temp":null,"dewp":null,"wdir":null,"wspd":null,"visib":"6+","altim":1012,"clouds":[{"cover":"BKN","base":2000},{"cover":"SCT","base":10000}],"obsTime":1779134400},"SBJR":{"icaoId":"SBJR","flightCategory":"MVFR","rawOb":"METAR SBJR 182000Z 23004KT 9999 BKN012 SCT020 BKN100 25/22 Q1016","temp":25,"dewp":22,"wdir":230,"wspd":4,"visib":"6+","altim":1016,"clouds":[{"cover":"BKN","base":1200},{"cover":"SCT","base":2000},{"cover":"BKN","base":10000}],"obsTime":1779134400},"SBJV":{"icaoId":"SBJV","flightCategory":"MVFR","rawOb":"METAR SBJV 182000Z 35002KT 9999 BKN012 BKN040 18/17 Q1020","temp":18,"dewp":17,"wdir":350,"wspd":2,"visib":"6+","altim":1020,"clouds":[{"cover":"BKN","base":1200},{"cover":"BKN","base":4000}],"obsTime":1779134400},"SBLS":{"icaoId":"SBLS","flightCategory":"VFR","rawOb":"METAR SBLS 182000Z 28004KT 9999 FEW043 26/18 Q1018","temp":26,"dewp":18,"wdir":280,"wspd":4,"visib":"6+","altim":1018,"clouds":[{"cover":"FEW","base":4300}],"obsTime":1779134400},"SBMT":{"icaoId":"SBMT","flightCategory":"MVFR","rawOb":"METAR SBMT 182000Z 22002KT 8000 BKN014 OVC017 19/16 Q1020","temp":19,"dewp":16,"wdir":220,"wspd":2,"visib":4.97,"altim":1020,"clouds":[{"cover":"BKN","base":1400},{"cover":"OVC","base":1700}],"obsTime":1779134400},"SBST":{"icaoId":"SBST","flightCategory":"MVFR","rawOb":"METAR SBST 182000Z 29006KT 230V330 6000 -DZ OVC010 21/20 Q1017","temp":21,"dewp":20,"wdir":290,"wspd":6,"visib":3.73,"altim":1017,"clouds":[{"cover":"OVC","base":1000}],"obsTime":1779134400},"SBTA":{"icaoId":"SBTA","flightCategory":"VFR","rawOb":"METAR SBTA 182000Z VRB02KT 9000 3000E -RA SCT035 FEW040TCU BKN050 BKN100 21/20 Q1018","temp":21,"dewp":20,"wdir":"VRB","wspd":2,"visib":5.59,"altim":1018,"clouds":[{"cover":"SCT","base":3500},{"cover":"FEW","base":4000},{"cover":"BKN","base":5000},{"cover":"BKN","base":10000}],"obsTime":1779134400},"SBAN":{"icaoId":"SBAN","flightCategory":"VFR","rawOb":"METAR SBAN 182000Z 00000KT 9999 VCSH SCT040 FEW045TCU 27/17 Q1020","temp":27,"dewp":17,"wdir":0,"wspd":0,"visib":"6+","altim":1020,"clouds":[{"cover":"SCT","base":4000},{"cover":"FEW","base":4500}],"obsTime":1779134400},"SBNM":{"icaoId":"SBNM","flightCategory":"VFR","rawOb":"METAR SBNM 182000Z AUTO 15005KT CAVOK 16/08 Q1022","temp":16,"dewp":8,"wdir":150,"wspd":5,"visib":"6+","altim":1022,"clouds":[],"obsTime":1779134400},"SBJP":{"icaoId":"SBJP","flightCategory":"VFR","rawOb":"METAR SBJP 182000Z 10011KT 060V140 CAVOK 27/23 Q1014","temp":27,"dewp":23,"wdir":100,"wspd":11,"visib":"6+","altim":1014,"clouds":[],"obsTime":1779134400},"SBPF":{"icaoId":"SBPF","flightCategory":"VFR","rawOb":"METAR SBPF 182000Z 15010KT 9999 FEW020 11/08 Q1022","temp":11,"dewp":8,"wdir":150,"wspd":10,"visib":"6+","altim":1022,"clouds":[{"cover":"FEW","base":2000}],"obsTime":1779134400},"SBIH":{"icaoId":"SBIH","flightCategory":"VFR","rawOb":"METAR SBIH 182000Z 01005KT 9999 TS FEW020 FEW025CB 30/26 Q1009","temp":30,"dewp":26,"wdir":10,"wspd":5,"visib":"6+","altim":1009,"clouds":[{"cover":"FEW","base":2000},{"cover":"FEW","base":2500}],"obsTime":1779134400},"SBLE":{"icaoId":"SBLE","flightCategory":"VFR","rawOb":"METAR SBLE 182000Z AUTO 19003KT CAVOK 28/18 Q1016","temp":28,"dewp":18,"wdir":190,"wspd":3,"visib":"6+","altim":1016,"clouds":[],"obsTime":1779134400},"SBAF":{"icaoId":"SBAF","flightCategory":"MVFR","rawOb":"METAR SBAF 182000Z 18007KT 9999 BKN014 BKN080 25/24 Q1016","temp":25,"dewp":24,"wdir":180,"wspd":7,"visib":"6+","altim":1016,"clouds":[{"cover":"BKN","base":1400},{"cover":"BKN","base":8000}],"obsTime":1779134400},"SBGW":{"icaoId":"SBGW","flightCategory":"VFR","rawOb":"METAR SBGW 182000Z 20004KT 9999 SCT013 BKN075 21/16 Q1018","temp":21,"dewp":16,"wdir":200,"wspd":4,"visib":"6+","altim":1018,"clouds":[{"cover":"SCT","base":1300},{"cover":"BKN","base":7500}],"obsTime":1779134400}}}