{"updated":1779376722,"count":58,"data":{"SBKP":{"icaoId":"SBKP","flightCategory":"VFR","rawOb":"METAR SBKP 211400Z 13014KT 9999 SCT025 SCT080 20/14 Q1024","temp":20,"dewp":14,"wdir":130,"wspd":14,"visib":"6+","altim":1024,"clouds":[{"cover":"SCT","base":2500},{"cover":"SCT","base":8000}],"obsTime":1779372000},"SBLO":{"icaoId":"SBLO","flightCategory":"MVFR","rawOb":"METAR SBLO 211400Z 15005KT 9999 OVC012 17/14 Q1024","temp":17,"dewp":14,"wdir":150,"wspd":5,"visib":"6+","altim":1024,"clouds":[{"cover":"OVC","base":1200}],"obsTime":1779372000},"SBBE":{"icaoId":"SBBE","flightCategory":"VFR","rawOb":"METAR SBBE 211400Z 09006KT 9999 SCT030 31/25 Q1013","temp":31,"dewp":25,"wdir":90,"wspd":6,"visib":"6+","altim":1013,"clouds":[{"cover":"SCT","base":3000}],"obsTime":1779372000},"SBMA":{"icaoId":"SBMA","flightCategory":"VFR","rawOb":"METAR SBMA 211400Z 35004KT 9999 SCT020 31/25 Q1013","temp":31,"dewp":25,"wdir":350,"wspd":4,"visib":"6+","altim":1013,"clouds":[{"cover":"SCT","base":2000}],"obsTime":1779372000},"SBEG":{"icaoId":"SBEG","flightCategory":"IFR","rawOb":"METAR SBEG 211400Z 21005KT 3000 RA BKN007 26/25 Q1015","temp":26,"dewp":25,"wdir":210,"wspd":5,"visib":1.86,"altim":1015,"clouds":[{"cover":"BKN","base":700}],"obsTime":1779372000},"SBME":{"icaoId":"SBME","flightCategory":"VFR","rawOb":"METAR SBME 211400Z 17008KT 9999 BKN035 OVC070 24/19 Q1021","temp":24,"dewp":19,"wdir":170,"wspd":8,"visib":"6+","altim":1021,"clouds":[{"cover":"BKN","base":3500},{"cover":"OVC","base":7000}],"obsTime":1779372000},"SBCB":{"icaoId":"SBCB","flightCategory":"VFR","rawOb":"METAR SBCB 211400Z 29006KT 9999 SCT020 BKN050 23/20 Q1022","temp":23,"dewp":20,"wdir":290,"wspd":6,"visib":"6+","altim":1022,"clouds":[{"cover":"SCT","base":2000},{"cover":"BKN","base":5000}],"obsTime":1779372000},"SBBR":{"icaoId":"SBBR","flightCategory":"VFR","rawOb":"METAR SBBR 211400Z 09010KT 070V150 9999 SCT025 24/17 Q1023","temp":24,"dewp":17,"wdir":90,"wspd":10,"visib":"6+","altim":1023,"clouds":[{"cover":"SCT","base":2500}],"obsTime":1779372000},"SBCZ":{"icaoId":"SBCZ","flightCategory":"VFR","rawOb":"METAR SBCZ 211400Z 12009KT 9999 FEW020 SCT070 23/19 Q1018","temp":23,"dewp":19,"wdir":120,"wspd":9,"visib":"6+","altim":1018,"clouds":[{"cover":"FEW","base":2000},{"cover":"SCT","base":7000}],"obsTime":1779372000},"SBMG":{"icaoId":"SBMG","flightCategory":"VFR","rawOb":"METAR SBMG 211400Z 15005KT CAVOK 16/13 Q1023","temp":16,"dewp":13,"wdir":150,"wspd":5,"visib":"6+","altim":1023,"clouds":[],"obsTime":1779372000},"SBFI":{"icaoId":"SBFI","flightCategory":"VFR","rawOb":"METAR SBFI 211400Z 18005KT CAVOK 14/09 Q1025","temp":14,"dewp":9,"wdir":180,"wspd":5,"visib":"6+","altim":1025,"clouds":[],"obsTime":1779372000},"SBMK":{"icaoId":"SBMK","flightCategory":"VFR","rawOb":"METAR SBMK 211400Z 06008KT 9999 BKN040 26/17 Q1021","temp":26,"dewp":17,"wdir":60,"wspd":8,"visib":"6+","altim":1021,"clouds":[{"cover":"BKN","base":4000}],"obsTime":1779372000},"SBCF":{"icaoId":"SBCF","flightCategory":"MVFR","rawOb":"METAR SBCF 211400Z 17004KT 9999 BKN025 BKN040 24/17 Q1023","temp":24,"dewp":17,"wdir":170,"wspd":4,"visib":"6+","altim":1023,"clouds":[{"cover":"BKN","base":2500},{"cover":"BKN","base":4000}],"obsTime":1779372000},"SBMO":{"icaoId":"SBMO","flightCategory":"MVFR","rawOb":"METAR SBMO 211400Z 09008KT 050V120 9999 BKN030 SCT045 29/23 Q1016","temp":29,"dewp":23,"wdir":90,"wspd":8,"visib":"6+","altim":1016,"clouds":[{"cover":"BKN","base":3000},{"cover":"SCT","base":4500}],"obsTime":1779372000},"SBAT":{"icaoId":"SBAT","flightCategory":"MVFR","rawOb":"METAR SBAT 211400Z 20006KT 9999 BKN011 25/20 Q1017","temp":25,"dewp":20,"wdir":200,"wspd":6,"visib":"6+","altim":1017,"clouds":[{"cover":"BKN","base":1100}],"obsTime":1779372000},"SBMQ":{"icaoId":"SBMQ","flightCategory":"VFR","rawOb":"METAR SBMQ 211400Z 07004KT 9999 FEW011 28/26 Q1014","temp":28,"dewp":26,"wdir":70,"wspd":4,"visib":"6+","altim":1014,"clouds":[{"cover":"FEW","base":1100}],"obsTime":1779372000},"SBFL":{"icaoId":"SBFL","flightCategory":"VFR","rawOb":"METAR SBFL 211400Z 18010KT 150V210 CAVOK 18/08 Q1025","temp":18,"dewp":8,"wdir":180,"wspd":10,"visib":"6+","altim":1025,"clouds":[],"obsTime":1779372000},"SBNT":{"icaoId":"SBNT","flightCategory":"VFR","rawOb":"METAR SBNT 211400Z COR 17010KT 9999 VCSH SCT025 SCT031 BKN042 29/23 Q1014","temp":29,"dewp":23,"wdir":170,"wspd":10,"visib":"6+","altim":1014,"clouds":[{"cover":"SCT","base":2500},{"cover":"SCT","base":3100},{"cover":"BKN","base":4200}],"obsTime":1779372000},"SBPA":{"icaoId":"SBPA","flightCategory":"VFR","rawOb":"METAR SBPA 211400Z 21006KT 160V290 9999 SCT040 13/06 Q1028","temp":13,"dewp":6,"wdir":210,"wspd":6,"visib":"6+","altim":1028,"clouds":[{"cover":"SCT","base":4000}],"obsTime":1779372000},"SBFZ":{"icaoId":"SBFZ","flightCategory":"VFR","rawOb":"METAR SBFZ 211400Z 09011KT 070V130 9999 FEW020 SCT070 30/21 Q1014","temp":30,"dewp":21,"wdir":90,"wspd":11,"visib":"6+","altim":1014,"clouds":[{"cover":"FEW","base":2000},{"cover":"SCT","base":7000}],"obsTime":1779372000},"SBCG":{"icaoId":"SBCG","flightCategory":"VFR","rawOb":"METAR SBCG 211400Z 14007KT 100V170 9999 FEW033 BKN060 18/11 Q1023","temp":18,"dewp":11,"wdir":140,"wspd":7,"visib":"6+","altim":1023,"clouds":[{"cover":"FEW","base":3300},{"cover":"BKN","base":6000}],"obsTime":1779372000},"SBPJ":{"icaoId":"SBPJ","flightCategory":"VFR","rawOb":"METAR SBPJ 211400Z 24008KT 210V270 9999 FEW017 32/23 Q1015","temp":32,"dewp":23,"wdir":240,"wspd":8,"visib":"6+","altim":1015,"clouds":[{"cover":"FEW","base":1700}],"obsTime":1779372000},"SBPV":{"icaoId":"SBPV","flightCategory":"MVFR","rawOb":"METAR SBPV 211400Z 15010KT 9999 BKN013 BKN017 24/21 Q1017","temp":24,"dewp":21,"wdir":150,"wspd":10,"visib":"6+","altim":1017,"clouds":[{"cover":"BKN","base":1300},{"cover":"BKN","base":1700}],"obsTime":1779372000},"SBGL":{"icaoId":"SBGL","flightCategory":"MVFR","rawOb":"METAR SBGL 211400Z 34004KT 9999 FEW010 BKN020 OVC060 23/19 Q1022","temp":23,"dewp":19,"wdir":340,"wspd":4,"visib":"6+","altim":1022,"clouds":[{"cover":"FEW","base":1000},{"cover":"BKN","base":2000},{"cover":"OVC","base":6000}],"obsTime":1779372000},"SBRB":{"icaoId":"SBRB","flightCategory":"MVFR","rawOb":"METAR SBRB 211400Z 17008KT 9999 BKN020 22/18 Q1019","temp":22,"dewp":18,"wdir":170,"wspd":8,"visib":"6+","altim":1019,"clouds":[{"cover":"BKN","base":2000}],"obsTime":1779372000},"SBCP":{"icaoId":"SBCP","flightCategory":"MVFR","rawOb":"METAR SBCP 211400Z 23010KT 9999 BKN010 OVC090 23/21 Q1021","temp":23,"dewp":21,"wdir":230,"wspd":10,"visib":"6+","altim":1021,"clouds":[{"cover":"BKN","base":1000},{"cover":"OVC","base":9000}],"obsTime":1779372000},"SBRF":{"icaoId":"SBRF","flightCategory":"VFR","rawOb":"METAR SBRF 211400Z 15013KT 9999 FEW025 SCT060 30/22 Q1015","temp":30,"dewp":22,"wdir":150,"wspd":13,"visib":"6+","altim":1015,"clouds":[{"cover":"FEW","base":2500},{"cover":"SCT","base":6000}],"obsTime":1779372000},"SBBV":{"icaoId":"SBBV","flightCategory":"IFR","rawOb":"METAR SBBV 211400Z 27004KT 9999 BKN008 FEW035TCU BKN100 26/24 Q1015","temp":26,"dewp":24,"wdir":270,"wspd":4,"visib":"6+","altim":1015,"clouds":[{"cover":"BKN","base":800},{"cover":"FEW","base":3500},{"cover":"BKN","base":10000}],"obsTime":1779372000},"SBSG":{"icaoId":"SBSG","flightCategory":"MVFR","rawOb":"METAR SBSG 211400Z 16007KT 110V210 9999 VCSH SCT020 BKN027 FEW030TCU BKN042 28/23 Q1015","temp":28,"dewp":23,"wdir":160,"wspd":7,"visib":"6+","altim":1015,"clouds":[{"cover":"SCT","base":2000},{"cover":"BKN","base":2700},{"cover":"FEW","base":3000},{"cover":"BKN","base":4200}],"obsTime":1779372000},"SBSL":{"icaoId":"SBSL","flightCategory":"VFR","rawOb":"METAR SBSL 211400Z 08008KT 9999 FEW025 31/23 Q1013","temp":31,"dewp":23,"wdir":80,"wspd":8,"visib":"6+","altim":1013,"clouds":[{"cover":"FEW","base":2500}],"obsTime":1779372000},"SBGO":{"icaoId":"SBGO","flightCategory":"VFR","rawOb":"METAR SBGO 211400Z 12008KT CAVOK 26/20 Q1021","temp":26,"dewp":20,"wdir":120,"wspd":8,"visib":"6+","altim":1021,"clouds":[],"obsTime":1779372000},"SBGR":{"icaoId":"SBGR","flightCategory":"IFR","rawOb":"METAR SBGR 211400Z 16007KT 8000 -RA BKN009 OVC015 16/14 Q1025","temp":16,"dewp":14,"wdir":160,"wspd":7,"visib":4.97,"altim":1025,"clouds":[{"cover":"BKN","base":900},{"cover":"OVC","base":1500}],"obsTime":1779372000},"SBSN":{"icaoId":"SBSN","flightCategory":"VFR","rawOb":"METAR SBSN 211400Z 07004KT 9999 SCT013 FEW040TCU BKN080 29/25 Q1014","temp":29,"dewp":25,"wdir":70,"wspd":4,"visib":"6+","altim":1014,"clouds":[{"cover":"SCT","base":1300},{"cover":"FEW","base":4000},{"cover":"BKN","base":8000}],"obsTime":1779372000},"SBSP":{"icaoId":"SBSP","flightCategory":"MVFR","rawOb":"METAR SBSP 211400Z 15013KT 9999 BKN011 OVC029 15/14 Q1026","temp":15,"dewp":14,"wdir":150,"wspd":13,"visib":"6+","altim":1026,"clouds":[{"cover":"BKN","base":1100},{"cover":"OVC","base":2900}],"obsTime":1779372000},"SBSV":{"icaoId":"SBSV","flightCategory":"MVFR","rawOb":"METAR SBSV 211400Z 15012KT 120V180 9999 BKN023 29/22 Q1017","temp":29,"dewp":22,"wdir":150,"wspd":12,"visib":"6+","altim":1017,"clouds":[{"cover":"BKN","base":2300}],"obsTime":1779372000},"SBCR":{"icaoId":"SBCR","flightCategory":"VFR","rawOb":"METAR SBCR 211400Z 23007KT 190V260 9999 OVC045 17/13 Q1023","temp":17,"dewp":13,"wdir":230,"wspd":7,"visib":"6+","altim":1023,"clouds":[{"cover":"OVC","base":4500}],"obsTime":1779372000},"SBHT":{"icaoId":"SBHT","flightCategory":"VFR","rawOb":"METAR SBHT 211400Z 09007KT 9999 SCT020 29/26 Q1014","temp":29,"dewp":26,"wdir":90,"wspd":7,"visib":"6+","altim":1014,"clouds":[{"cover":"SCT","base":2000}],"obsTime":1779372000},"SBTE":{"icaoId":"SBTE","flightCategory":"VFR","rawOb":"METAR SBTE 211400Z 12006KT 9999 FEW020 31/22 Q1013","temp":31,"dewp":22,"wdir":120,"wspd":6,"visib":"6+","altim":1013,"clouds":[{"cover":"FEW","base":2000}],"obsTime":1779372000},"SBCT":{"icaoId":"SBCT","flightCategory":"MVFR","rawOb":"METAR SBCT 211400Z 05005KT 9999 FEW010 BKN017 15/12 Q1025","temp":15,"dewp":12,"wdir":50,"wspd":5,"visib":"6+","altim":1025,"clouds":[{"cover":"FEW","base":1000},{"cover":"BKN","base":1700}],"obsTime":1779372000},"SBUL":{"icaoId":"SBUL","flightCategory":"VFR","rawOb":"METAR SBUL 211400Z 16004KT 9999 FEW040 25/16 Q1023","temp":25,"dewp":16,"wdir":160,"wspd":4,"visib":"6+","altim":1023,"clouds":[{"cover":"FEW","base":4000}],"obsTime":1779372000},"SBIL":{"icaoId":"SBIL","flightCategory":"VFR","rawOb":"METAR SBIL 211400Z 18007KT 130V210 9999 SCT020 29/23 Q1018","temp":29,"dewp":23,"wdir":180,"wspd":7,"visib":"6+","altim":1018,"clouds":[{"cover":"SCT","base":2000}],"obsTime":1779372000},"SBUR":{"icaoId":"SBUR","flightCategory":"MVFR","rawOb":"METAR SBUR 211400Z 13006KT 9999 BKN030 23/16 Q1023","temp":23,"dewp":16,"wdir":130,"wspd":6,"visib":"6+","altim":1023,"clouds":[{"cover":"BKN","base":3000}],"obsTime":1779372000},"SBVT":{"icaoId":"SBVT","flightCategory":"VFR","rawOb":"METAR SBVT 211400Z 22009KT 9999 FEW035 BKN090 25/21 Q1020","temp":25,"dewp":21,"wdir":220,"wspd":9,"visib":"6+","altim":1020,"clouds":[{"cover":"FEW","base":3500},{"cover":"BKN","base":9000}],"obsTime":1779372000},"SBJU":{"icaoId":"SBJU","flightCategory":"VFR","rawOb":"METAR SBJU 211400Z 15009KT 9999 SCT022 30/18 Q1017","temp":30,"dewp":18,"wdir":150,"wspd":9,"visib":"6+","altim":1017,"clouds":[{"cover":"SCT","base":2200}],"obsTime":1779372000},"SBJP":{"icaoId":"SBJP","flightCategory":"VFR","rawOb":"METAR SBJP 211400Z 12010KT 090V150 9999 SCT020 BKN070 28/23 Q1015","temp":28,"dewp":23,"wdir":120,"wspd":10,"visib":"6+","altim":1015,"clouds":[{"cover":"SCT","base":2000},{"cover":"BKN","base":7000}],"obsTime":1779372000},"SBIH":{"icaoId":"SBIH","flightCategory":"VFR","rawOb":"METAR SBIH 211400Z 21005KT 9999 -RA SCT008 OVC100 26/25 Q1014","temp":26,"dewp":25,"wdir":210,"wspd":5,"visib":"6+","altim":1014,"clouds":[{"cover":"SCT","base":800},{"cover":"OVC","base":10000}],"obsTime":1779372000},"SBAF":{"icaoId":"SBAF","flightCategory":"MVFR","rawOb":"METAR SBAF 211400Z 29004KT 8000 VCSH FEW015 BKN025 OVC030 22/22 Q1022","temp":22,"dewp":22,"wdir":290,"wspd":4,"visib":4.97,"altim":1022,"clouds":[{"cover":"FEW","base":1500},{"cover":"BKN","base":2500},{"cover":"OVC","base":3000}],"obsTime":1779372000},"SBGW":{"icaoId":"SBGW","flightCategory":"VFR","rawOb":"METAR SBGW 211400Z 23006KT 200V270 9999 SCT030 21/14 Q1024","temp":21,"dewp":14,"wdir":230,"wspd":6,"visib":"6+","altim":1024,"clouds":[{"cover":"SCT","base":3000}],"obsTime":1779372000},"SBJR":{"icaoId":"SBJR","flightCategory":"IFR","rawOb":"METAR SBJR 211400Z 21006KT 2000 -RA BR BKN006 OVC030 21/19 Q1022","temp":21,"dewp":19,"wdir":210,"wspd":6,"visib":1.24,"altim":1022,"clouds":[{"cover":"BKN","base":600},{"cover":"OVC","base":3000}],"obsTime":1779372000},"SBLS":{"icaoId":"SBLS","flightCategory":"VFR","rawOb":"METAR SBLS 211400Z 17005KT 100V180 9999 BKN043 23/17 Q1023","temp":23,"dewp":17,"wdir":170,"wspd":5,"visib":"6+","altim":1023,"clouds":[{"cover":"BKN","base":4300}],"obsTime":1779372000},"SBMT":{"icaoId":"SBMT","flightCategory":"MVFR","rawOb":"METAR SBMT 211400Z 13008KT 100V170 8000 BKN013 BKN015 16/13 Q1025 REDZ","temp":16,"dewp":13,"wdir":130,"wspd":8,"visib":4.97,"altim":1025,"clouds":[{"cover":"BKN","base":1300},{"cover":"BKN","base":1500}],"obsTime":1779372000},"SBST":{"icaoId":"SBST","flightCategory":"IFR","rawOb":"METAR SBST 211400Z 00000KT 4000 BR BKN008 OVC036 18/18 Q1024","temp":18,"dewp":18,"wdir":0,"wspd":0,"visib":2.49,"altim":1024,"clouds":[{"cover":"BKN","base":800},{"cover":"OVC","base":3600}],"obsTime":1779372000},"SBTA":{"icaoId":"SBTA","flightCategory":"MVFR","rawOb":"METAR SBTA 211400Z 22004KT 190V270 9999 BKN020 BKN040 20/14 Q1023","temp":20,"dewp":14,"wdir":220,"wspd":4,"visib":"6+","altim":1023,"clouds":[{"cover":"BKN","base":2000},{"cover":"BKN","base":4000}],"obsTime":1779372000},"SBAN":{"icaoId":"SBAN","flightCategory":"MVFR","rawOb":"METAR SBAN 211400Z 19012KT 9999 FEW010 BKN020 24/18 Q1024","temp":24,"dewp":18,"wdir":190,"wspd":12,"visib":"6+","altim":1024,"clouds":[{"cover":"FEW","base":1000},{"cover":"BKN","base":2000}],"obsTime":1779372000},"SBJV":{"icaoId":"SBJV","flightCategory":"VFR","rawOb":"METAR SBJV 211400Z 13002KT 9999 BKN040 17/10 Q1025","temp":17,"dewp":10,"wdir":130,"wspd":2,"visib":"6+","altim":1025,"clouds":[{"cover":"BKN","base":4000}],"obsTime":1779372000},"SBNM":{"icaoId":"SBNM","flightCategory":"VFR","rawOb":"METAR SBNM 211400Z 12006KT CAVOK 10/07 Q1027","temp":10,"dewp":7,"wdir":120,"wspd":6,"visib":"6+","altim":1027,"clouds":[],"obsTime":1779372000},"SBLE":{"icaoId":"SBLE","flightCategory":"MVFR","rawOb":"METAR SBLE 211400Z AUTO 14004KT 060V190 9999 -RA BKN014 OVC043 ///// Q////","temp":null,"dewp":null,"wdir":140,"wspd":4,"visib":"6+","altim":null,"clouds":[{"cover":"BKN","base":1400},{"cover":"OVC","base":4300}],"obsTime":1779372000},"SBPF":{"icaoId":"SBPF","flightCategory":"VFR","rawOb":"METAR SBPF 211400Z 14007KT 9999 FEW030 11/05 Q1027","temp":11,"dewp":5,"wdir":140,"wspd":7,"visib":"6+","altim":1027,"clouds":[{"cover":"FEW","base":3000}],"obsTime":1779372000}}}