{"updated":1780383658,"count":51,"data":{"SBBE":{"icaoId":"SBBE","flightCategory":"VFR","rawOb":"METAR SBBE 020600Z 12005KT 9999 SCT040 25/23 Q1014","temp":25,"dewp":23,"wdir":120,"wspd":5,"visib":"6+","altim":1014,"clouds":[{"cover":"SCT","base":4000}],"obsTime":1780380000},"SBBR":{"icaoId":"SBBR","flightCategory":"VFR","rawOb":"METAR SBBR 020600Z VRB02KT CAVOK 15/14 Q1022","temp":15,"dewp":14,"wdir":"VRB","wspd":2,"visib":"6+","altim":1022,"clouds":[],"obsTime":1780380000},"SBBV":{"icaoId":"SBBV","flightCategory":"VFR","rawOb":"METAR SBBV 020600Z 13008KT 9999 SCT040 FEW045TCU BKN080 26/24 Q1014","temp":26,"dewp":24,"wdir":130,"wspd":8,"visib":"6+","altim":1014,"clouds":[{"cover":"SCT","base":4000},{"cover":"FEW","base":4500},{"cover":"BKN","base":8000}],"obsTime":1780380000},"SBCF":{"icaoId":"SBCF","flightCategory":"VFR","rawOb":"METAR SBCF 020600Z 17004KT 9999 FEW030 SCT100 16/13 Q1021","temp":16,"dewp":13,"wdir":170,"wspd":4,"visib":"6+","altim":1021,"clouds":[{"cover":"FEW","base":3000},{"cover":"SCT","base":10000}],"obsTime":1780380000},"SBCG":{"icaoId":"SBCG","flightCategory":"VFR","rawOb":"METAR SBCG 020600Z 10004KT CAVOK 18/15 Q1020","temp":18,"dewp":15,"wdir":100,"wspd":4,"visib":"6+","altim":1020,"clouds":[],"obsTime":1780380000},"SBCT":{"icaoId":"SBCT","flightCategory":"VFR","rawOb":"METAR SBCT 020600Z 12005KT 9999 FEW010 11/11 Q1024","temp":11,"dewp":11,"wdir":120,"wspd":5,"visib":"6+","altim":1024,"clouds":[{"cover":"FEW","base":1000}],"obsTime":1780380000},"SBEG":{"icaoId":"SBEG","flightCategory":"VFR","rawOb":"METAR SBEG 020600Z 34003KT CAVOK 24/24 Q1014","temp":24,"dewp":24,"wdir":340,"wspd":3,"visib":"6+","altim":1014,"clouds":[],"obsTime":1780380000},"SBFI":{"icaoId":"SBFI","flightCategory":"VFR","rawOb":"METAR SBFI 020600Z 14005KT 9999 VCFG NSC 13/13 Q1021","temp":13,"dewp":13,"wdir":140,"wspd":5,"visib":"6+","altim":1021,"clouds":[],"obsTime":1780380000},"SBFL":{"icaoId":"SBFL","flightCategory":"VFR","rawOb":"METAR SBFL 020600Z 15006KT 9999 SCT036 17/12 Q1024","temp":17,"dewp":12,"wdir":150,"wspd":6,"visib":"6+","altim":1024,"clouds":[{"cover":"SCT","base":3600}],"obsTime":1780380000},"SBFZ":{"icaoId":"SBFZ","flightCategory":"MVFR","rawOb":"METAR SBFZ 020600Z 13002KT 9999 BKN020 26/24 Q1013","temp":26,"dewp":24,"wdir":130,"wspd":2,"visib":"6+","altim":1013,"clouds":[{"cover":"BKN","base":2000}],"obsTime":1780380000},"SBGL":{"icaoId":"SBGL","flightCategory":"VFR","rawOb":"METAR SBGL 020600Z 29005KT 9999 FEW006 SCT036 BKN042 20/19 Q1021","temp":20,"dewp":19,"wdir":290,"wspd":5,"visib":"6+","altim":1021,"clouds":[{"cover":"FEW","base":600},{"cover":"SCT","base":3600},{"cover":"BKN","base":4200}],"obsTime":1780380000},"SBGR":{"icaoId":"SBGR","flightCategory":"MVFR","rawOb":"METAR SBGR 020600Z 18003KT 9999 OVC013 14/12 Q1024","temp":14,"dewp":12,"wdir":180,"wspd":3,"visib":"6+","altim":1024,"clouds":[{"cover":"OVC","base":1300}],"obsTime":1780380000},"SBKP":{"icaoId":"SBKP","flightCategory":"VFR","rawOb":"METAR SBKP 020600Z 13008KT CAVOK 13/11 Q1022","temp":13,"dewp":11,"wdir":130,"wspd":8,"visib":"6+","altim":1022,"clouds":[],"obsTime":1780380000},"SBLO":{"icaoId":"SBLO","flightCategory":"VFR","rawOb":"METAR SBLO 020600Z VRB01KT CAVOK 14/12 Q1022","temp":14,"dewp":12,"wdir":"VRB","wspd":1,"visib":"6+","altim":1022,"clouds":[],"obsTime":1780380000},"SBMA":{"icaoId":"SBMA","flightCategory":"VFR","rawOb":"METAR SBMA 020600Z 36007KT CAVOK 26/25 Q1013","temp":26,"dewp":25,"wdir":360,"wspd":7,"visib":"6+","altim":1013,"clouds":[],"obsTime":1780380000},"SBMO":{"icaoId":"SBMO","flightCategory":"VFR","rawOb":"METAR SBMO 020600Z 29004KT CAVOK 21/21 Q1015","temp":21,"dewp":21,"wdir":290,"wspd":4,"visib":"6+","altim":1015,"clouds":[],"obsTime":1780380000},"SBMQ":{"icaoId":"SBMQ","flightCategory":"LIFR","rawOb":"METAR SBMQ 020600Z 33003KT 9999 BKN003 OVC100 26/26 Q1013","temp":26,"dewp":26,"wdir":330,"wspd":3,"visib":"6+","altim":1013,"clouds":[{"cover":"BKN","base":300},{"cover":"OVC","base":10000}],"obsTime":1780380000},"SBPA":{"icaoId":"SBPA","flightCategory":"VFR","rawOb":"METAR SBPA 020600Z 00000KT CAVOK 11/11 Q1024","temp":11,"dewp":11,"wdir":0,"wspd":0,"visib":"6+","altim":1024,"clouds":[],"obsTime":1780380000},"SBPJ":{"icaoId":"SBPJ","flightCategory":"VFR","rawOb":"METAR SBPJ 020600Z 13004KT CAVOK 23/21 Q1015","temp":23,"dewp":21,"wdir":130,"wspd":4,"visib":"6+","altim":1015,"clouds":[],"obsTime":1780380000},"SBPV":{"icaoId":"SBPV","flightCategory":"VFR","rawOb":"METAR SBPV 020600Z 00000KT CAVOK 24/22 Q1013","temp":24,"dewp":22,"wdir":0,"wspd":0,"visib":"6+","altim":1013,"clouds":[],"obsTime":1780380000},"SBRB":{"icaoId":"SBRB","flightCategory":"MVFR","rawOb":"METAR SBRB 020600Z 00000KT 8000 NSC 22/22 Q1015","temp":22,"dewp":22,"wdir":0,"wspd":0,"visib":4.97,"altim":1015,"clouds":[],"obsTime":1780380000},"SBRF":{"icaoId":"SBRF","flightCategory":"VFR","rawOb":"METAR SBRF 020600Z 22005KT 9999 FEW020 BKN080 25/21 Q1014","temp":25,"dewp":21,"wdir":220,"wspd":5,"visib":"6+","altim":1014,"clouds":[{"cover":"FEW","base":2000},{"cover":"BKN","base":8000}],"obsTime":1780380000},"SBSG":{"icaoId":"SBSG","flightCategory":"VFR","rawOb":"METAR SBSG 020600Z 21004KT 190V250 9999 FEW020 BKN080 23/22 Q1014","temp":23,"dewp":22,"wdir":210,"wspd":4,"visib":"6+","altim":1014,"clouds":[{"cover":"FEW","base":2000},{"cover":"BKN","base":8000}],"obsTime":1780380000},"SBSL":{"icaoId":"SBSL","flightCategory":"VFR","rawOb":"METAR SBSL 020600Z 06006KT 9999 FEW020 SCT100 26/25 Q1012","temp":26,"dewp":25,"wdir":60,"wspd":6,"visib":"6+","altim":1012,"clouds":[{"cover":"FEW","base":2000},{"cover":"SCT","base":10000}],"obsTime":1780380000},"SBSN":{"icaoId":"SBSN","flightCategory":"VFR","rawOb":"METAR SBSN 020600Z 00000KT 9999 FEW011 24/24 Q1013","temp":24,"dewp":24,"wdir":0,"wspd":0,"visib":"6+","altim":1013,"clouds":[{"cover":"FEW","base":1100}],"obsTime":1780380000},"SBSV":{"icaoId":"SBSV","flightCategory":"VFR","rawOb":"METAR SBSV 020600Z 32003KT 9999 SCT023 BKN080 24/23 Q1016","temp":24,"dewp":23,"wdir":320,"wspd":3,"visib":"6+","altim":1016,"clouds":[{"cover":"SCT","base":2300},{"cover":"BKN","base":8000}],"obsTime":1780380000},"SBVT":{"icaoId":"SBVT","flightCategory":"VFR","rawOb":"METAR SBVT 020600Z 20004KT 9999 FEW030 SCT060 21/19 Q1018","temp":21,"dewp":19,"wdir":200,"wspd":4,"visib":"6+","altim":1018,"clouds":[{"cover":"FEW","base":3000},{"cover":"SCT","base":6000}],"obsTime":1780380000},"SBTE":{"icaoId":"SBTE","flightCategory":"VFR","rawOb":"METAR SBTE 020600Z 05001KT 9999 SCT010 25/24 Q1013","temp":25,"dewp":24,"wdir":50,"wspd":1,"visib":"6+","altim":1013,"clouds":[{"cover":"SCT","base":1000}],"obsTime":1780380000},"SBME":{"icaoId":"SBME","flightCategory":"VFR","rawOb":"METAR SBME 020600Z 22003KT 9999 SCT020 BKN080 ///// Q1020","temp":null,"dewp":null,"wdir":220,"wspd":3,"visib":"6+","altim":1020,"clouds":[{"cover":"SCT","base":2000},{"cover":"BKN","base":8000}],"obsTime":1780380000},"SBMG":{"icaoId":"SBMG","flightCategory":"VFR","rawOb":"METAR SBMG 020600Z AUTO 11007KT CAVOK 16/11 Q1021","temp":16,"dewp":11,"wdir":110,"wspd":7,"visib":"6+","altim":1021,"clouds":[],"obsTime":1780380000},"SBUL":{"icaoId":"SBUL","flightCategory":"VFR","rawOb":"METAR SBUL 020600Z 19008KT CAVOK 16/10 Q1022","temp":16,"dewp":10,"wdir":190,"wspd":8,"visib":"6+","altim":1022,"clouds":[],"obsTime":1780380000},"SBUR":{"icaoId":"SBUR","flightCategory":"VFR","rawOb":"METAR SBUR 020600Z 32002KT CAVOK 15/11 Q1021","temp":15,"dewp":11,"wdir":320,"wspd":2,"visib":"6+","altim":1021,"clouds":[],"obsTime":1780380000},"SBNT":{"icaoId":"SBNT","flightCategory":"VFR","rawOb":"METAR SBNT 020600Z 20003KT 9999 SCT023 SCT090 24/22 Q1014","temp":24,"dewp":22,"wdir":200,"wspd":3,"visib":"6+","altim":1014,"clouds":[{"cover":"SCT","base":2300},{"cover":"SCT","base":9000}],"obsTime":1780380000},"SBSP":{"icaoId":"SBSP","flightCategory":"IFR","rawOb":"SPECI SBSP 020545Z AUTO 17006KT 9999 BKN006 13/12 Q1024","temp":13,"dewp":12,"wdir":170,"wspd":6,"visib":"6+","altim":1024,"clouds":[{"cover":"BKN","base":600}],"obsTime":1780379100},"SBGO":{"icaoId":"SBGO","flightCategory":"VFR","rawOb":"METAR SBGO 020600Z VRB02KT CAVOK 16/12 Q1021","temp":16,"dewp":12,"wdir":"VRB","wspd":2,"visib":"6+","altim":1021,"clouds":[],"obsTime":1780380000},"SBJU":{"icaoId":"SBJU","flightCategory":"VFR","rawOb":"METAR SBJU 020600Z 00000KT 9999 SCT020 24/21 Q1016","temp":24,"dewp":21,"wdir":0,"wspd":0,"visib":"6+","altim":1016,"clouds":[{"cover":"SCT","base":2000}],"obsTime":1780380000},"SBAR":{"icaoId":"SBAR","flightCategory":"VFR","rawOb":"METAR SBAR 020600Z 29002KT 9999 FEW025 21/20 Q1015","temp":21,"dewp":20,"wdir":290,"wspd":2,"visib":"6+","altim":1015,"clouds":[{"cover":"FEW","base":2500}],"obsTime":1780380000},"SBPS":{"icaoId":"SBPS","flightCategory":"VFR","rawOb":"METAR SBPS 020600Z 25005KT 9999 SCT020 BKN050 22/21 Q1017","temp":22,"dewp":21,"wdir":250,"wspd":5,"visib":"6+","altim":1017,"clouds":[{"cover":"SCT","base":2000},{"cover":"BKN","base":5000}],"obsTime":1780380000},"SBOI":{"icaoId":"SBOI","flightCategory":"LIFR","rawOb":"METAR SBOI 020700Z AUTO 31003KT 9999 // BKN002/// 24/24 Q1013","temp":24,"dewp":24,"wdir":310,"wspd":3,"visib":"6+","altim":1013,"clouds":[{"cover":"BKN","base":200}],"obsTime":1780383600},"SBPL":{"icaoId":"SBPL","flightCategory":"VFR","rawOb":"METAR SBPL 020600Z 10004KT CAVOK 23/21 Q1017","temp":23,"dewp":21,"wdir":100,"wspd":4,"visib":"6+","altim":1017,"clouds":[],"obsTime":1780380000},"SBIP":{"icaoId":"SBIP","flightCategory":"MVFR","rawOb":"METAR SBIP 020600Z AUTO 00000KT 7000 NCD 17/17 Q1019","temp":17,"dewp":17,"wdir":0,"wspd":0,"visib":4.35,"altim":1019,"clouds":[],"obsTime":1780380000},"SBSC":{"icaoId":"SBSC","flightCategory":"MVFR","rawOb":"METAR SBSC 020600Z 23004KT 7000 -RA FEW010 BKN020 OVC030 19/18 Q1020","temp":19,"dewp":18,"wdir":230,"wspd":4,"visib":4.35,"altim":1020,"clouds":[{"cover":"FEW","base":1000},{"cover":"BKN","base":2000},{"cover":"OVC","base":3000}],"obsTime":1780380000},"SBSR":{"icaoId":"SBSR","flightCategory":"VFR","rawOb":"METAR SBSR 020600Z 17006KT CAVOK 15/10 Q1021","temp":15,"dewp":10,"wdir":170,"wspd":6,"visib":"6+","altim":1021,"clouds":[],"obsTime":1780380000},"SBTU":{"icaoId":"SBTU","flightCategory":"VFR","rawOb":"METAR SBTU 020600Z AUTO VRB02KT 9999 // SCT074/// ///// Q1015","temp":null,"dewp":null,"wdir":"VRB","wspd":2,"visib":"6+","altim":1015,"clouds":[{"cover":"SCT","base":7400}],"obsTime":1780380000},"SBAX":{"icaoId":"SBAX","flightCategory":"VFR","rawOb":"METAR SBAX 020600Z AUTO 16001KT CAVOK 14/10 Q1021","temp":14,"dewp":10,"wdir":160,"wspd":1,"visib":"6+","altim":1021,"clouds":[],"obsTime":1780380000},"SBDN":{"icaoId":"SBDN","flightCategory":"VFR","rawOb":"METAR SBDN 020600Z 00000KT CAVOK 14/10 Q1021","temp":14,"dewp":10,"wdir":0,"wspd":0,"visib":"6+","altim":1021,"clouds":[],"obsTime":1780380000},"SBKG":{"icaoId":"SBKG","flightCategory":"VFR","rawOb":"METAR SBKG 020600Z 28003KT CAVOK 20/19 Q1017","temp":20,"dewp":19,"wdir":280,"wspd":3,"visib":"6+","altim":1017,"clouds":[],"obsTime":1780380000},"SBJP":{"icaoId":"SBJP","flightCategory":"VFR","rawOb":"METAR SBJP 020600Z 18008KT 9999 FEW020 BKN070 24/21 Q1014","temp":24,"dewp":21,"wdir":180,"wspd":8,"visib":"6+","altim":1014,"clouds":[{"cover":"FEW","base":2000},{"cover":"BKN","base":7000}],"obsTime":1780380000},"SBNM":{"icaoId":"SBNM","flightCategory":"VFR","rawOb":"METAR SBNM 020600Z AUTO 09007KT CAVOK 10/10 Q1023","temp":10,"dewp":10,"wdir":90,"wspd":7,"visib":"6+","altim":1023,"clouds":[],"obsTime":1780380000},"SBLE":{"icaoId":"SBLE","flightCategory":"MVFR","rawOb":"METAR SBLE 020600Z AUTO VRB01KT 9000 -RA OVC018 ///// Q////","temp":null,"dewp":null,"wdir":"VRB","wspd":1,"visib":5.59,"altim":null,"clouds":[{"cover":"OVC","base":1800}],"obsTime":1780380000},"SBAN":{"icaoId":"SBAN","flightCategory":"VFR","rawOb":"METAR SBAN 020600Z 18005KT 9999 FEW045 16/11 Q1023","temp":16,"dewp":11,"wdir":180,"wspd":5,"visib":"6+","altim":1023,"clouds":[{"cover":"FEW","base":4500}],"obsTime":1780380000}}}