{"updated":1783445376,"count":85,"data":{"SBPA":{"icaoId":"SBPA","flightCategory":"VFR","rawOb":"METAR SBPA 071600Z 29013KT 260V320 9999 FEW040 14/04 Q1021","temp":14,"dewp":4,"wdir":290,"wspd":13,"visib":"6+","altim":1021,"clouds":[{"cover":"FEW","base":4000}],"obsTime":1783440000},"SBMA":{"icaoId":"SBMA","flightCategory":"VFR","rawOb":"METAR SBMA 071600Z 31003KT 9999 SCT020 FEW025TCU 34/22 Q1014","temp":34,"dewp":22,"wdir":310,"wspd":3,"visib":"6+","altim":1014,"clouds":[{"cover":"SCT","base":2000},{"cover":"FEW","base":2500}],"obsTime":1783440000},"SBAT":{"icaoId":"SBAT","flightCategory":"VFR","rawOb":"METAR SBAT 071600Z 15007KT CAVOK 34/17 Q1016","temp":34,"dewp":17,"wdir":150,"wspd":7,"visib":"6+","altim":1016,"clouds":[],"obsTime":1783440000},"SBBE":{"icaoId":"SBBE","flightCategory":"VFR","rawOb":"METAR SBBE 071600Z 34008KT 9999 BKN035 31/25 Q1015","temp":31,"dewp":25,"wdir":340,"wspd":8,"visib":"6+","altim":1015,"clouds":[{"cover":"BKN","base":3500}],"obsTime":1783440000},"SBCT":{"icaoId":"SBCT","flightCategory":"VFR","rawOb":"METAR SBCT 071600Z 26008KT 230V290 9999 FEW020 16/07 Q1021","temp":16,"dewp":7,"wdir":260,"wspd":8,"visib":"6+","altim":1021,"clouds":[{"cover":"FEW","base":2000}],"obsTime":1783440000},"SBCP":{"icaoId":"SBCP","flightCategory":"VFR","rawOb":"METAR SBCP 071600Z 34007KT 9999 FEW030 28/17 Q1015","temp":28,"dewp":17,"wdir":340,"wspd":7,"visib":"6+","altim":1015,"clouds":[{"cover":"FEW","base":3000}],"obsTime":1783440000},"SBBV":{"icaoId":"SBBV","flightCategory":"MVFR","rawOb":"METAR SBBV 071600Z 12006KT 9999 BKN030 SCT080 30/23 Q1016","temp":30,"dewp":23,"wdir":120,"wspd":6,"visib":"6+","altim":1016,"clouds":[{"cover":"BKN","base":3000},{"cover":"SCT","base":8000}],"obsTime":1783440000},"SBPV":{"icaoId":"SBPV","flightCategory":"VFR","rawOb":"METAR SBPV 071600Z 15010KT 100V180 CAVOK 31/20 Q1015","temp":31,"dewp":20,"wdir":150,"wspd":10,"visib":"6+","altim":1015,"clouds":[],"obsTime":1783440000},"SBCZ":{"icaoId":"SBCZ","flightCategory":"VFR","rawOb":"METAR SBCZ 071600Z 13007KT 9999 FEW030 SCT100 30/22 Q1017","temp":30,"dewp":22,"wdir":130,"wspd":7,"visib":"6+","altim":1017,"clouds":[{"cover":"FEW","base":3000},{"cover":"SCT","base":10000}],"obsTime":1783440000},"SBRB":{"icaoId":"SBRB","flightCategory":"IFR","rawOb":"METAR SBRB 071600Z 15007KT 9999 BKN009 22/20 Q1019","temp":22,"dewp":20,"wdir":150,"wspd":7,"visib":"6+","altim":1019,"clouds":[{"cover":"BKN","base":900}],"obsTime":1783440000},"SBHT":{"icaoId":"SBHT","flightCategory":"MVFR","rawOb":"METAR SBHT 071600Z 13005KT 9999 BKN030 32/25 Q1015","temp":32,"dewp":25,"wdir":130,"wspd":5,"visib":"6+","altim":1015,"clouds":[{"cover":"BKN","base":3000}],"obsTime":1783440000},"SBGO":{"icaoId":"SBGO","flightCategory":"VFR","rawOb":"METAR SBGO 071600Z 24006KT CAVOK 29/11 Q1020","temp":29,"dewp":11,"wdir":240,"wspd":6,"visib":"6+","altim":1020,"clouds":[],"obsTime":1783440000},"SBMQ":{"icaoId":"SBMQ","flightCategory":"VFR","rawOb":"METAR SBMQ 071600Z 06007KT 9999 SCT035 FEW038TCU 32/24 Q1014","temp":32,"dewp":24,"wdir":60,"wspd":7,"visib":"6+","altim":1014,"clouds":[{"cover":"SCT","base":3500},{"cover":"FEW","base":3800}],"obsTime":1783440000},"SBSP":{"icaoId":"SBSP","flightCategory":"MVFR","rawOb":"METAR SBSP 071600Z 19011KT 9999 BKN011 BKN021 17/15 Q1021","temp":17,"dewp":15,"wdir":190,"wspd":11,"visib":"6+","altim":1021,"clouds":[{"cover":"BKN","base":1100},{"cover":"BKN","base":2100}],"obsTime":1783440000},"SBSL":{"icaoId":"SBSL","flightCategory":"MVFR","rawOb":"METAR SBSL 071600Z 05010KT 9999 BKN030 FEW032TCU 30/25 Q1014","temp":30,"dewp":25,"wdir":50,"wspd":10,"visib":"6+","altim":1014,"clouds":[{"cover":"BKN","base":3000},{"cover":"FEW","base":3200}],"obsTime":1783440000},"SBLO":{"icaoId":"SBLO","flightCategory":"VFR","rawOb":"METAR SBLO 071600Z 23005KT 9999 FEW030 22/12 Q1020","temp":22,"dewp":12,"wdir":230,"wspd":5,"visib":"6+","altim":1020,"clouds":[{"cover":"FEW","base":3000}],"obsTime":1783440000},"SBSN":{"icaoId":"SBSN","flightCategory":"VFR","rawOb":"METAR SBSN 071600Z 10008KT 9999 SCT021 31/25 Q1014","temp":31,"dewp":25,"wdir":100,"wspd":8,"visib":"6+","altim":1014,"clouds":[{"cover":"SCT","base":2100}],"obsTime":1783440000},"SBTE":{"icaoId":"SBTE","flightCategory":"MVFR","rawOb":"METAR SBTE 071600Z 27004KT 9999 BKN030 32/22 Q1014","temp":32,"dewp":22,"wdir":270,"wspd":4,"visib":"6+","altim":1014,"clouds":[{"cover":"BKN","base":3000}],"obsTime":1783440000},"SBCF":{"icaoId":"SBCF","flightCategory":"VFR","rawOb":"METAR SBCF 071600Z 27010KT 9999 SCT035 25/12 Q1020","temp":25,"dewp":12,"wdir":270,"wspd":10,"visib":"6+","altim":1020,"clouds":[{"cover":"SCT","base":3500}],"obsTime":1783440000},"SBGL":{"icaoId":"SBGL","flightCategory":"VFR","rawOb":"METAR SBGL 071600Z 27010KT 160V310 9999 FEW030 29/16 Q1015","temp":29,"dewp":16,"wdir":270,"wspd":10,"visib":"6+","altim":1015,"clouds":[{"cover":"FEW","base":3000}],"obsTime":1783440000},"SBGR":{"icaoId":"SBGR","flightCategory":"MVFR","rawOb":"METAR SBGR 071600Z 21006KT 9999 BKN030 20/14 Q1020","temp":20,"dewp":14,"wdir":210,"wspd":6,"visib":"6+","altim":1020,"clouds":[{"cover":"BKN","base":3000}],"obsTime":1783440000},"SBKP":{"icaoId":"SBKP","flightCategory":"VFR","rawOb":"METAR SBKP 071600Z 26004KT 9999 SCT030 22/15 Q1020","temp":22,"dewp":15,"wdir":260,"wspd":4,"visib":"6+","altim":1020,"clouds":[{"cover":"SCT","base":3000}],"obsTime":1783440000},"SBME":{"icaoId":"SBME","flightCategory":"VFR","rawOb":"METAR SBME 071600Z 31007KT CAVOK 29/16 Q1014","temp":29,"dewp":16,"wdir":310,"wspd":7,"visib":"6+","altim":1014,"clouds":[],"obsTime":1783440000},"SBMK":{"icaoId":"SBMK","flightCategory":"VFR","rawOb":"METAR SBMK 071600Z 27006KT 9999 FEW040 29/09 Q1019","temp":29,"dewp":9,"wdir":270,"wspd":6,"visib":"6+","altim":1019,"clouds":[{"cover":"FEW","base":4000}],"obsTime":1783440000},"SBCB":{"icaoId":"SBCB","flightCategory":"VFR","rawOb":"METAR SBCB 071600Z 31003KT CAVOK 27/19 Q1015","temp":27,"dewp":19,"wdir":310,"wspd":3,"visib":"6+","altim":1015,"clouds":[],"obsTime":1783440000},"SBUL":{"icaoId":"SBUL","flightCategory":"VFR","rawOb":"METAR SBUL 071600Z 27007KT 9999 SCT049 25/09 Q1022","temp":25,"dewp":9,"wdir":270,"wspd":7,"visib":"6+","altim":1022,"clouds":[{"cover":"SCT","base":4900}],"obsTime":1783440000},"SBUR":{"icaoId":"SBUR","flightCategory":"VFR","rawOb":"METAR SBUR 071600Z 24009KT 9999 FEW049 25/11 Q1021","temp":25,"dewp":11,"wdir":240,"wspd":9,"visib":"6+","altim":1021,"clouds":[{"cover":"FEW","base":4900}],"obsTime":1783440000},"SBVT":{"icaoId":"SBVT","flightCategory":"VFR","rawOb":"METAR SBVT 071600Z 36008KT 330V040 CAVOK 27/18 Q1015","temp":27,"dewp":18,"wdir":360,"wspd":8,"visib":"6+","altim":1015,"clouds":[],"obsTime":1783440000},"SBFI":{"icaoId":"SBFI","flightCategory":"VFR","rawOb":"METAR SBFI 071600Z 12004KT CAVOK 13/06 Q1023","temp":13,"dewp":6,"wdir":120,"wspd":4,"visib":"6+","altim":1023,"clouds":[],"obsTime":1783440000},"SBEG":{"icaoId":"SBEG","flightCategory":"VFR","rawOb":"METAR SBEG 071600Z 11006KT 040V150 9999 SCT030 SCT100 31/22 Q1015","temp":31,"dewp":22,"wdir":110,"wspd":6,"visib":"6+","altim":1015,"clouds":[{"cover":"SCT","base":3000},{"cover":"SCT","base":10000}],"obsTime":1783440000},"SBFL":{"icaoId":"SBFL","flightCategory":"VFR","rawOb":"METAR SBFL 071600Z 15006KT 120V180 9999 FEW025 SCT040 15/09 Q1021","temp":15,"dewp":9,"wdir":150,"wspd":6,"visib":"6+","altim":1021,"clouds":[{"cover":"FEW","base":2500},{"cover":"SCT","base":4000}],"obsTime":1783440000},"SBMG":{"icaoId":"SBMG","flightCategory":"VFR","rawOb":"METAR SBMG 071600Z 23006KT CAVOK 19/11 Q1020","temp":19,"dewp":11,"wdir":230,"wspd":6,"visib":"6+","altim":1020,"clouds":[],"obsTime":1783440000},"SBFZ":{"icaoId":"SBFZ","flightCategory":"VFR","rawOb":"METAR SBFZ 071600Z 08010KT 050V110 9999 SCT030 29/23 Q1014","temp":29,"dewp":23,"wdir":80,"wspd":10,"visib":"6+","altim":1014,"clouds":[{"cover":"SCT","base":3000}],"obsTime":1783440000},"SBPJ":{"icaoId":"SBPJ","flightCategory":"VFR","rawOb":"METAR SBPJ 071600Z 23007KT 9999 SCT040 33/20 Q1016","temp":33,"dewp":20,"wdir":230,"wspd":7,"visib":"6+","altim":1016,"clouds":[{"cover":"SCT","base":4000}],"obsTime":1783440000},"SBBR":{"icaoId":"SBBR","flightCategory":"VFR","rawOb":"METAR SBBR 071600Z VRB04KT CAVOK 27/08 Q1022","temp":27,"dewp":8,"wdir":"VRB","wspd":4,"visib":"6+","altim":1022,"clouds":[],"obsTime":1783440000},"SBCG":{"icaoId":"SBCG","flightCategory":"VFR","rawOb":"METAR SBCG 071600Z VRB02KT CAVOK 22/14 Q1022","temp":22,"dewp":14,"wdir":"VRB","wspd":2,"visib":"6+","altim":1022,"clouds":[],"obsTime":1783440000},"SBCR":{"icaoId":"SBCR","flightCategory":"VFR","rawOb":"METAR SBCR 071600Z VRB04KT 9999 FEW018 SCT024 20/13 Q1021","temp":20,"dewp":13,"wdir":"VRB","wspd":4,"visib":"6+","altim":1021,"clouds":[{"cover":"FEW","base":1800},{"cover":"SCT","base":2400}],"obsTime":1783440000},"SBIL":{"icaoId":"SBIL","flightCategory":"VFR","rawOb":"METAR SBIL 071600Z 13009KT 110V190 9999 SCT023 BKN070 28/22 Q1018","temp":28,"dewp":22,"wdir":130,"wspd":9,"visib":"6+","altim":1018,"clouds":[{"cover":"SCT","base":2300},{"cover":"BKN","base":7000}],"obsTime":1783440000},"SBJU":{"icaoId":"SBJU","flightCategory":"VFR","rawOb":"METAR SBJU 071600Z 15010KT CAVOK 32/14 Q1017","temp":32,"dewp":14,"wdir":150,"wspd":10,"visib":"6+","altim":1017,"clouds":[],"obsTime":1783440000},"SBMO":{"icaoId":"SBMO","flightCategory":"VFR","rawOb":"METAR SBMO 071600Z 15006KT 100V180 9999 FEW035 SCT040 28/20 Q1017","temp":28,"dewp":20,"wdir":150,"wspd":6,"visib":"6+","altim":1017,"clouds":[{"cover":"FEW","base":3500},{"cover":"SCT","base":4000}],"obsTime":1783440000},"SBNT":{"icaoId":"SBNT","flightCategory":"VFR","rawOb":"METAR SBNT 071600Z 15011KT 120V180 9999 SCT035 SCT082 30/21 Q1015","temp":30,"dewp":21,"wdir":150,"wspd":11,"visib":"6+","altim":1015,"clouds":[{"cover":"SCT","base":3500},{"cover":"SCT","base":8200}],"obsTime":1783440000},"SBRF":{"icaoId":"SBRF","flightCategory":"VFR","rawOb":"METAR SBRF 071600Z 15016KT 9999 SCT025 27/22 Q1016","temp":27,"dewp":22,"wdir":150,"wspd":16,"visib":"6+","altim":1016,"clouds":[{"cover":"SCT","base":2500}],"obsTime":1783440000},"SBSV":{"icaoId":"SBSV","flightCategory":"VFR","rawOb":"METAR SBSV 071600Z 28003KT 240V350 9999 FEW011 SCT015 BKN050 26/22 Q1018","temp":26,"dewp":22,"wdir":280,"wspd":3,"visib":"6+","altim":1018,"clouds":[{"cover":"FEW","base":1100},{"cover":"SCT","base":1500},{"cover":"BKN","base":5000}],"obsTime":1783440000},"SBSM":{"icaoId":"SBSM","flightCategory":"VFR","rawOb":"METAR SBSM 071600Z 27010KT 240V300 CAVOK 15/02 Q1023","temp":15,"dewp":2,"wdir":270,"wspd":10,"visib":"6+","altim":1023,"clouds":[],"obsTime":1783440000},"SBPB":{"icaoId":"SBPB","flightCategory":"VFR","rawOb":"METAR SBPB 071600Z 07010KT 9999 FEW020 31/26 Q1014","temp":31,"dewp":26,"wdir":70,"wspd":10,"visib":"6+","altim":1014,"clouds":[{"cover":"FEW","base":2000}],"obsTime":1783440000},"SBCC":{"icaoId":"SBCC","flightCategory":"VFR","rawOb":"METAR SBCC 071600Z 07010KT 040V120 9999 FEW020 31/16 Q1017","temp":31,"dewp":16,"wdir":70,"wspd":10,"visib":"6+","altim":1017,"clouds":[{"cover":"FEW","base":2000}],"obsTime":1783440000},"SBAR":{"icaoId":"SBAR","flightCategory":"VFR","rawOb":"METAR SBAR 071600Z 16007KT 9999 SCT025 27/21 Q1017","temp":27,"dewp":21,"wdir":160,"wspd":7,"visib":"6+","altim":1017,"clouds":[{"cover":"SCT","base":2500}],"obsTime":1783440000},"SBGM":{"icaoId":"SBGM","flightCategory":"MVFR","rawOb":"METAR SBGM 071600Z 13011KT 9999 OVC013 23/15 Q1019","temp":23,"dewp":15,"wdir":130,"wspd":11,"visib":"6+","altim":1019,"clouds":[{"cover":"OVC","base":1300}],"obsTime":1783440000},"SBTT":{"icaoId":"SBTT","flightCategory":"VFR","rawOb":"METAR SBTT 071600Z 17007KT 140V210 9999 FEW030 30/22 Q1016","temp":30,"dewp":22,"wdir":170,"wspd":7,"visib":"6+","altim":1016,"clouds":[{"cover":"FEW","base":3000}],"obsTime":1783440000},"SBUY":{"icaoId":"SBUY","flightCategory":"VFR","rawOb":"METAR SBUY 071700Z 18003KT 9999 FEW025 BKN090 27/24 Q1014","temp":27,"dewp":24,"wdir":180,"wspd":3,"visib":"6+","altim":1014,"clouds":[{"cover":"FEW","base":2500},{"cover":"BKN","base":9000}],"obsTime":1783443600},"SBVH":{"icaoId":"SBVH","flightCategory":"VFR","rawOb":"METAR SBVH 071600Z 12010KT 080V140 9999 SCT030 27/19 Q1020","temp":27,"dewp":19,"wdir":120,"wspd":10,"visib":"6+","altim":1020,"clouds":[{"cover":"SCT","base":3000}],"obsTime":1783440000},"SBPL":{"icaoId":"SBPL","flightCategory":"VFR","rawOb":"METAR SBPL 071600Z 11008KT 9999 FEW030 31/14 Q1017","temp":31,"dewp":14,"wdir":110,"wspd":8,"visib":"6+","altim":1017,"clouds":[{"cover":"FEW","base":3000}],"obsTime":1783440000},"SBAU":{"icaoId":"SBAU","flightCategory":"VFR","rawOb":"METAR SBAU 071600Z 23006KT CAVOK 27/15 Q1020","temp":27,"dewp":15,"wdir":230,"wspd":6,"visib":"6+","altim":1020,"clouds":[],"obsTime":1783440000},"SBAX":{"icaoId":"SBAX","flightCategory":"VFR","rawOb":"METAR SBAX 071600Z 26009KT 9999 SCT030 24/10 Q1022","temp":24,"dewp":10,"wdir":260,"wspd":9,"visib":"6+","altim":1022,"clouds":[{"cover":"SCT","base":3000}],"obsTime":1783440000},"SBCJ":{"icaoId":"SBCJ","flightCategory":"VFR","rawOb":"METAR SBCJ 071600Z 20004KT 9999 SCT030 29/20 Q1018","temp":29,"dewp":20,"wdir":200,"wspd":4,"visib":"6+","altim":1018,"clouds":[{"cover":"SCT","base":3000}],"obsTime":1783440000},"SBBH":{"icaoId":"SBBH","flightCategory":"VFR","rawOb":"METAR SBBH 071600Z 28010KT 9999 BKN035 26/11 Q1019","temp":26,"dewp":11,"wdir":280,"wspd":10,"visib":"6+","altim":1019,"clouds":[{"cover":"BKN","base":3500}],"obsTime":1783440000},"SBBQ":{"icaoId":"SBBQ","flightCategory":"VFR","rawOb":"METAR SBBQ 071600Z 25009KT 200V300 9999 SCT040 22/11 Q1022","temp":22,"dewp":11,"wdir":250,"wspd":9,"visib":"6+","altim":1022,"clouds":[{"cover":"SCT","base":4000}],"obsTime":1783440000},"SBBU":{"icaoId":"SBBU","flightCategory":"VFR","rawOb":"METAR SBBU 071600Z 26007KT 9999 FEW035 26/15 Q1020","temp":26,"dewp":15,"wdir":260,"wspd":7,"visib":"6+","altim":1020,"clouds":[{"cover":"FEW","base":3500}],"obsTime":1783440000},"SBCO":{"icaoId":"SBCO","flightCategory":"VFR","rawOb":"METAR SBCO 071600Z 30013KT 270V330 CAVOK 15/04 Q1021","temp":15,"dewp":4,"wdir":300,"wspd":13,"visib":"6+","altim":1021,"clouds":[],"obsTime":1783440000},"SBDN":{"icaoId":"SBDN","flightCategory":"VFR","rawOb":"METAR SBDN 071600Z 24006KT CAVOK 22/13 Q1021","temp":22,"dewp":13,"wdir":240,"wspd":6,"visib":"6+","altim":1021,"clouds":[],"obsTime":1783440000},"SBES":{"icaoId":"SBES","flightCategory":"VFR","rawOb":"METAR SBES 071600Z 21008KT 9999 FEW020 27/// Q1015","temp":null,"dewp":null,"wdir":210,"wspd":8,"visib":"6+","altim":1015,"clouds":[{"cover":"FEW","base":2000}],"obsTime":1783440000},"SBPS":{"icaoId":"SBPS","flightCategory":"VFR","rawOb":"METAR SBPS 071600Z 12005KT 9999 SCT020 26/20 Q1018","temp":26,"dewp":20,"wdir":120,"wspd":5,"visib":"6+","altim":1018,"clouds":[{"cover":"SCT","base":2000}],"obsTime":1783440000},"SBIP":{"icaoId":"SBIP","flightCategory":"VFR","rawOb":"METAR SBIP 071600Z AUTO 06007KT 020V110 CAVOK 27/16 Q1017","temp":27,"dewp":16,"wdir":60,"wspd":7,"visib":"6+","altim":1017,"clouds":[],"obsTime":1783440000},"SBSC":{"icaoId":"SBSC","flightCategory":"VFR","rawOb":"METAR SBSC 071600Z 21012KT 9999 FEW020 24/19 Q1017","temp":24,"dewp":19,"wdir":210,"wspd":12,"visib":"6+","altim":1017,"clouds":[{"cover":"FEW","base":2000}],"obsTime":1783440000},"SBSR":{"icaoId":"SBSR","flightCategory":"VFR","rawOb":"METAR SBSR 071600Z 24003KT 9999 FEW030 26/13 Q1020","temp":26,"dewp":13,"wdir":240,"wspd":3,"visib":"6+","altim":1020,"clouds":[{"cover":"FEW","base":3000}],"obsTime":1783440000},"SBCA":{"icaoId":"SBCA","flightCategory":"VFR","rawOb":"METAR SBCA 071600Z 18005KT CAVOK 14/06 Q1023","temp":14,"dewp":6,"wdir":180,"wspd":5,"visib":"6+","altim":1023,"clouds":[],"obsTime":1783440000},"SBSJ":{"icaoId":"SBSJ","flightCategory":"VFR","rawOb":"METAR SBSJ 071600Z 26008KT 9000 BKN045 BKN100 22/14 Q1020","temp":22,"dewp":14,"wdir":260,"wspd":8,"visib":5.59,"altim":1020,"clouds":[{"cover":"BKN","base":4500},{"cover":"BKN","base":10000}],"obsTime":1783440000},"SBTU":{"icaoId":"SBTU","flightCategory":"MVFR","rawOb":"METAR SBTU 071600Z AUTO VRB03KT 9999 // BKN024/// BKN040/// 30/24 Q1017","temp":30,"dewp":24,"wdir":"VRB","wspd":3,"visib":"6+","altim":1017,"clouds":[{"cover":"BKN","base":2400},{"cover":"BKN","base":4000}],"obsTime":1783440000},"SBTF":{"icaoId":"SBTF","flightCategory":"VFR","rawOb":"METAR SBTF 071600Z 16006KT 9999 FEW017 SCT080 30/25 Q1015","temp":30,"dewp":25,"wdir":160,"wspd":6,"visib":"6+","altim":1015,"clouds":[{"cover":"FEW","base":1700},{"cover":"SCT","base":8000}],"obsTime":1783440000},"SBOI":{"icaoId":"SBOI","flightCategory":"VFR","rawOb":"METAR SBOI 071600Z AUTO VRB02KT CAVOK 31/25 Q1015","temp":31,"dewp":25,"wdir":"VRB","wspd":2,"visib":"6+","altim":1015,"clouds":[],"obsTime":1783440000},"SBPP":{"icaoId":"SBPP","flightCategory":"VFR","rawOb":"METAR SBPP 071600Z 00000KT CAVOK 18/06 Q1022","temp":18,"dewp":6,"wdir":0,"wspd":0,"visib":"6+","altim":1022,"clouds":[],"obsTime":1783440000},"SBKG":{"icaoId":"SBKG","flightCategory":"VFR","rawOb":"METAR SBKG 071600Z 15006KT 9999 FEW020 27/18 Q1017","temp":27,"dewp":18,"wdir":150,"wspd":6,"visib":"6+","altim":1017,"clouds":[{"cover":"FEW","base":2000}],"obsTime":1783440000},"SBNM":{"icaoId":"SBNM","flightCategory":"VFR","rawOb":"METAR SBNM 071600Z 09002KT CAVOK 13/04 Q1023","temp":13,"dewp":4,"wdir":90,"wspd":2,"visib":"6+","altim":1023,"clouds":[],"obsTime":1783440000},"SBJP":{"icaoId":"SBJP","flightCategory":"VFR","rawOb":"METAR SBJP 071600Z 13012KT 100V170 9999 SCT025 29/22 Q1016","temp":29,"dewp":22,"wdir":130,"wspd":12,"visib":"6+","altim":1016,"clouds":[{"cover":"SCT","base":2500}],"obsTime":1783440000},"SBIH":{"icaoId":"SBIH","flightCategory":"VFR","rawOb":"METAR SBIH 071600Z 04008KT 9999 SCT020 33/24 Q1014","temp":33,"dewp":24,"wdir":40,"wspd":8,"visib":"6+","altim":1014,"clouds":[{"cover":"SCT","base":2000}],"obsTime":1783440000},"SBAF":{"icaoId":"SBAF","flightCategory":"VFR","rawOb":"METAR SBAF 071600Z 26011KT 9999 FEW020 28/17 Q1015","temp":28,"dewp":17,"wdir":260,"wspd":11,"visib":"6+","altim":1015,"clouds":[{"cover":"FEW","base":2000}],"obsTime":1783440000},"SBGW":{"icaoId":"SBGW","flightCategory":"MVFR","rawOb":"METAR SBGW 071600Z 24009KT 6000 BKN022 BKN070 21/14 Q1019","temp":21,"dewp":14,"wdir":240,"wspd":9,"visib":3.73,"altim":1019,"clouds":[{"cover":"BKN","base":2200},{"cover":"BKN","base":7000}],"obsTime":1783440000},"SBJR":{"icaoId":"SBJR","flightCategory":"VFR","rawOb":"METAR SBJR 071600Z 23012KT 9999 FEW018 27/20 Q1016","temp":27,"dewp":20,"wdir":230,"wspd":12,"visib":"6+","altim":1016,"clouds":[{"cover":"FEW","base":1800}],"obsTime":1783440000},"SBLS":{"icaoId":"SBLS","flightCategory":"VFR","rawOb":"METAR SBLS 071600Z 31008KT 260V340 9999 BKN048 26/13 Q1019","temp":26,"dewp":13,"wdir":310,"wspd":8,"visib":"6+","altim":1019,"clouds":[{"cover":"BKN","base":4800}],"obsTime":1783440000},"SBMT":{"icaoId":"SBMT","flightCategory":"VFR","rawOb":"METAR SBMT 071600Z 16004KT 9999 FEW030 BKN040 19/12 Q1019","temp":19,"dewp":12,"wdir":160,"wspd":4,"visib":"6+","altim":1019,"clouds":[{"cover":"FEW","base":3000},{"cover":"BKN","base":4000}],"obsTime":1783440000},"SBST":{"icaoId":"SBST","flightCategory":"LIFR","rawOb":"METAR SBST 071600Z 27005KT 2000 -RA BR BKN004 OVC015 17/17 Q1019","temp":17,"dewp":17,"wdir":270,"wspd":5,"visib":1.24,"altim":1019,"clouds":[{"cover":"BKN","base":400},{"cover":"OVC","base":1500}],"obsTime":1783440000},"SBTA":{"icaoId":"SBTA","flightCategory":"MVFR","rawOb":"METAR SBTA 071600Z 26009KT 230V290 9999 BKN015 BKN100 23/14 Q1018","temp":23,"dewp":14,"wdir":260,"wspd":9,"visib":"6+","altim":1018,"clouds":[{"cover":"BKN","base":1500},{"cover":"BKN","base":10000}],"obsTime":1783440000},"SBJV":{"icaoId":"SBJV","flightCategory":"MVFR","rawOb":"METAR SBJV 071600Z 15002KT 9999 BKN020 BKN030 17/13 Q1021","temp":17,"dewp":13,"wdir":150,"wspd":2,"visib":"6+","altim":1021,"clouds":[{"cover":"BKN","base":2000},{"cover":"BKN","base":3000}],"obsTime":1783440000},"SBAN":{"icaoId":"SBAN","flightCategory":"VFR","rawOb":"METAR SBAN 071600Z 29005KT CAVOK 27/07 Q1023","temp":27,"dewp":7,"wdir":290,"wspd":5,"visib":"6+","altim":1023,"clouds":[],"obsTime":1783440000},"SBLE":{"icaoId":"SBLE","flightCategory":"VFR","rawOb":"METAR SBLE 071600Z AUTO VRB03KT CAVOK ///// Q1020","temp":null,"dewp":null,"wdir":"VRB","wspd":3,"visib":"6+","altim":1020,"clouds":[],"obsTime":1783440000}}}