{"updated":1775346681,"count":69,"data":{"SBPA":{"icaoId":"SBPA","flightCategory":"VFR","rawOb":"METAR SBPA 042200Z 18010KT 150V210 9999 VCSH FEW015 FEW030TCU 25/21 Q1014","temp":25,"dewp":21,"wdir":180,"wspd":10,"visib":"6+","altim":1014,"clouds":[{"cover":"FEW","base":1500},{"cover":"FEW","base":3000}],"obsTime":1775340000},"SBBE":{"icaoId":"SBBE","flightCategory":"VFR","rawOb":"METAR SBBE 042200Z 10005KT 9999 FEW049 SCT100 26/25 Q1010","temp":26,"dewp":25,"wdir":100,"wspd":5,"visib":"6+","altim":1010,"clouds":[{"cover":"FEW","base":4900},{"cover":"SCT","base":10000}],"obsTime":1775340000},"SBBR":{"icaoId":"SBBR","flightCategory":"VFR","rawOb":"METAR SBBR 042200Z 12005KT 9999 FEW045 SCT100 26/17 Q1017","temp":26,"dewp":17,"wdir":120,"wspd":5,"visib":"6+","altim":1017,"clouds":[{"cover":"FEW","base":4500},{"cover":"SCT","base":10000}],"obsTime":1775340000},"SBBV":{"icaoId":"SBBV","flightCategory":"VFR","rawOb":"METAR SBBV 042200Z 27002KT 9999 SCT009 SCT020 BKN100 23/23 Q1010","temp":23,"dewp":23,"wdir":270,"wspd":2,"visib":"6+","altim":1010,"clouds":[{"cover":"SCT","base":900},{"cover":"SCT","base":2000},{"cover":"BKN","base":10000}],"obsTime":1775340000},"SBFI":{"icaoId":"SBFI","flightCategory":"VFR","rawOb":"METAR SBFI 042200Z 21010KT 9999 FEW035 FEW040TCU 29/22 Q1012","temp":29,"dewp":22,"wdir":210,"wspd":10,"visib":"6+","altim":1012,"clouds":[{"cover":"FEW","base":3500},{"cover":"FEW","base":4000}],"obsTime":1775340000},"SBCB":{"icaoId":"SBCB","flightCategory":"VFR","rawOb":"METAR SBCB 042200Z 01006KT 9999 FEW020 BKN070 25/22 Q1014","temp":25,"dewp":22,"wdir":10,"wspd":6,"visib":"6+","altim":1014,"clouds":[{"cover":"FEW","base":2000},{"cover":"BKN","base":7000}],"obsTime":1775340000},"SBCF":{"icaoId":"SBCF","flightCategory":"VFR","rawOb":"METAR SBCF 042200Z 11006KT 9999 FEW050TCU SCT100 26/18 Q1018","temp":26,"dewp":18,"wdir":110,"wspd":6,"visib":"6+","altim":1018,"clouds":[{"cover":"FEW","base":5000},{"cover":"SCT","base":10000}],"obsTime":1775340000},"SBCG":{"icaoId":"SBCG","flightCategory":"VFR","rawOb":"METAR SBCG 042200Z 16011KT 9999 VCTS SCT045 FEW050CB BKN100 27/19 Q1014","temp":27,"dewp":19,"wdir":160,"wspd":11,"visib":"6+","altim":1014,"clouds":[{"cover":"SCT","base":4500},{"cover":"FEW","base":5000},{"cover":"BKN","base":10000}],"obsTime":1775340000},"SBCT":{"icaoId":"SBCT","flightCategory":"VFR","rawOb":"METAR SBCT 042200Z 12004KT 9999 FEW008 22/21 Q1018","temp":22,"dewp":21,"wdir":120,"wspd":4,"visib":"6+","altim":1018,"clouds":[{"cover":"FEW","base":800}],"obsTime":1775340000},"SBCZ":{"icaoId":"SBCZ","flightCategory":"MVFR","rawOb":"METAR SBCZ 042200Z 00000KT 8000 VCSH BKN030 28/25 Q1008","temp":28,"dewp":25,"wdir":0,"wspd":0,"visib":4.97,"altim":1008,"clouds":[{"cover":"BKN","base":3000}],"obsTime":1775340000},"SBEG":{"icaoId":"SBEG","flightCategory":"MVFR","rawOb":"METAR SBEG 042200Z 36003KT 9999 BKN012 FEW025TCU BKN070 25/23 Q1010","temp":25,"dewp":23,"wdir":360,"wspd":3,"visib":"6+","altim":1010,"clouds":[{"cover":"BKN","base":1200},{"cover":"FEW","base":2500},{"cover":"BKN","base":7000}],"obsTime":1775340000},"SBFL":{"icaoId":"SBFL","flightCategory":"VFR","rawOb":"METAR SBFL 042200Z 15006KT 9999 SCT040 BKN090 25/23 Q1013","temp":25,"dewp":23,"wdir":150,"wspd":6,"visib":"6+","altim":1013,"clouds":[{"cover":"SCT","base":4000},{"cover":"BKN","base":9000}],"obsTime":1775340000},"SBFZ":{"icaoId":"SBFZ","flightCategory":"MVFR","rawOb":"METAR SBFZ 042200Z 10008KT 9999 BKN020 28/24 Q1010","temp":28,"dewp":24,"wdir":100,"wspd":8,"visib":"6+","altim":1010,"clouds":[{"cover":"BKN","base":2000}],"obsTime":1775340000},"SBGL":{"icaoId":"SBGL","flightCategory":"VFR","rawOb":"METAR SBGL 042200Z 13005KT 9999 FEW025 25/21 Q1013","temp":25,"dewp":21,"wdir":130,"wspd":5,"visib":"6+","altim":1013,"clouds":[{"cover":"FEW","base":2500}],"obsTime":1775340000},"SBGO":{"icaoId":"SBGO","flightCategory":"VFR","rawOb":"METAR SBGO 042200Z 36004KT 320V030 9999 FEW045 FEW048TCU 24/19 Q1015","temp":24,"dewp":19,"wdir":360,"wspd":4,"visib":"6+","altim":1015,"clouds":[{"cover":"FEW","base":4500},{"cover":"FEW","base":4800}],"obsTime":1775340000},"SBGR":{"icaoId":"SBGR","flightCategory":"VFR","rawOb":"METAR SBGR 042200Z 09007KT 9999 SCT045 23/20 Q1018","temp":23,"dewp":20,"wdir":90,"wspd":7,"visib":"6+","altim":1018,"clouds":[{"cover":"SCT","base":4500}],"obsTime":1775340000},"SBIL":{"icaoId":"SBIL","flightCategory":"VFR","rawOb":"METAR SBIL 042200Z 13007KT 9999 FEW018 SCT045 28/25 Q1014","temp":28,"dewp":25,"wdir":130,"wspd":7,"visib":"6+","altim":1014,"clouds":[{"cover":"FEW","base":1800},{"cover":"SCT","base":4500}],"obsTime":1775340000},"SBJU":{"icaoId":"SBJU","flightCategory":"MVFR","rawOb":"METAR SBJU 042200Z 30005KT 9999 -RA BKN017 24/21 Q1013","temp":24,"dewp":21,"wdir":300,"wspd":5,"visib":"6+","altim":1013,"clouds":[{"cover":"BKN","base":1700}],"obsTime":1775340000},"SBKP":{"icaoId":"SBKP","flightCategory":"VFR","rawOb":"METAR SBKP 042200Z 18007KT 9999 FEW045 BKN100 28/20 Q1016","temp":28,"dewp":20,"wdir":180,"wspd":7,"visib":"6+","altim":1016,"clouds":[{"cover":"FEW","base":4500},{"cover":"BKN","base":10000}],"obsTime":1775340000},"SBLO":{"icaoId":"SBLO","flightCategory":"VFR","rawOb":"METAR SBLO 042200Z 09002KT CAVOK 27/20 Q1014","temp":27,"dewp":20,"wdir":90,"wspd":2,"visib":"6+","altim":1014,"clouds":[],"obsTime":1775340000},"SBMA":{"icaoId":"SBMA","flightCategory":"VFR","rawOb":"METAR SBMA 042200Z 35005KT 9999 VCTS FEW020CB BKN080 29/26 Q1009","temp":29,"dewp":26,"wdir":350,"wspd":5,"visib":"6+","altim":1009,"clouds":[{"cover":"FEW","base":2000},{"cover":"BKN","base":8000}],"obsTime":1775340000},"SBME":{"icaoId":"SBME","flightCategory":"MVFR","rawOb":"METAR SBME 042200Z 35002KT 8000 -TSRA FEW040CB OVC100 23/22 Q1014","temp":23,"dewp":22,"wdir":350,"wspd":2,"visib":4.97,"altim":1014,"clouds":[{"cover":"FEW","base":4000},{"cover":"OVC","base":10000}],"obsTime":1775340000},"SBMG":{"icaoId":"SBMG","flightCategory":"VFR","rawOb":"METAR SBMG 042200Z 13004KT 9999 FEW040 29/17 Q1013","temp":29,"dewp":17,"wdir":130,"wspd":4,"visib":"6+","altim":1013,"clouds":[{"cover":"FEW","base":4000}],"obsTime":1775340000},"SBMK":{"icaoId":"SBMK","flightCategory":"VFR","rawOb":"METAR SBMK 042200Z 09006KT 9999 FEW040 26/20 Q1016","temp":26,"dewp":20,"wdir":90,"wspd":6,"visib":"6+","altim":1016,"clouds":[{"cover":"FEW","base":4000}],"obsTime":1775340000},"SBMO":{"icaoId":"SBMO","flightCategory":"VFR","rawOb":"METAR SBMO 042200Z 09005KT 9999 FEW023 26/24 Q1013","temp":26,"dewp":24,"wdir":90,"wspd":5,"visib":"6+","altim":1013,"clouds":[{"cover":"FEW","base":2300}],"obsTime":1775340000},"SBMQ":{"icaoId":"SBMQ","flightCategory":"VFR","rawOb":"METAR SBMQ 042200Z 02007KT 9999 FEW010 SCT025 FEW040TCU 27/25 Q1009","temp":27,"dewp":25,"wdir":20,"wspd":7,"visib":"6+","altim":1009,"clouds":[{"cover":"FEW","base":1000},{"cover":"SCT","base":2500},{"cover":"FEW","base":4000}],"obsTime":1775340000},"SBNT":{"icaoId":"SBNT","flightCategory":"VFR","rawOb":"METAR SBNT 042200Z 12008KT 9999 FEW020 28/23 Q1012","temp":28,"dewp":23,"wdir":120,"wspd":8,"visib":"6+","altim":1012,"clouds":[{"cover":"FEW","base":2000}],"obsTime":1775340000},"SBPJ":{"icaoId":"SBPJ","flightCategory":"VFR","rawOb":"METAR SBPJ 042200Z 12004KT 9999 VCTS FEW031CB 29/23 Q1010","temp":29,"dewp":23,"wdir":120,"wspd":4,"visib":"6+","altim":1010,"clouds":[{"cover":"FEW","base":3100}],"obsTime":1775340000},"SBPV":{"icaoId":"SBPV","flightCategory":"MVFR","rawOb":"METAR SBPV 042200Z 34004KT 9999 BKN011 25/23 Q1009","temp":25,"dewp":23,"wdir":340,"wspd":4,"visib":"6+","altim":1009,"clouds":[{"cover":"BKN","base":1100}],"obsTime":1775340000},"SBRB":{"icaoId":"SBRB","flightCategory":"MVFR","rawOb":"METAR SBRB 042200Z 09006KT 9999 VCSH VCTS BKN013 SCT024 FEW034CB 25/23 Q1010","temp":25,"dewp":23,"wdir":90,"wspd":6,"visib":"6+","altim":1010,"clouds":[{"cover":"BKN","base":1300},{"cover":"SCT","base":2400},{"cover":"FEW","base":3400}],"obsTime":1775340000},"SBRF":{"icaoId":"SBRF","flightCategory":"IFR","rawOb":"METAR SBRF 042200Z 14005KT 4500 -RA BR BKN016 BKN050 25/24 Q1013","temp":25,"dewp":24,"wdir":140,"wspd":5,"visib":2.8,"altim":1013,"clouds":[{"cover":"BKN","base":1600},{"cover":"BKN","base":5000}],"obsTime":1775340000},"SBSG":{"icaoId":"SBSG","flightCategory":"VFR","rawOb":"METAR SBSG 042200Z 12005KT 100V170 9999 FEW021 SCT070 27/25 Q1012","temp":27,"dewp":25,"wdir":120,"wspd":5,"visib":"6+","altim":1012,"clouds":[{"cover":"FEW","base":2100},{"cover":"SCT","base":7000}],"obsTime":1775340000},"SBSL":{"icaoId":"SBSL","flightCategory":"VFR","rawOb":"METAR SBSL 042200Z 22002KT 9999 FEW020 SCT100 25/24 Q1010","temp":25,"dewp":24,"wdir":220,"wspd":2,"visib":"6+","altim":1010,"clouds":[{"cover":"FEW","base":2000},{"cover":"SCT","base":10000}],"obsTime":1775340000},"SBSN":{"icaoId":"SBSN","flightCategory":"VFR","rawOb":"METAR SBSN 042200Z 13007KT 080V140 9999 VCSH FEW020 FEW026TCU SCT080 28/24 Q1009","temp":28,"dewp":24,"wdir":130,"wspd":7,"visib":"6+","altim":1009,"clouds":[{"cover":"FEW","base":2000},{"cover":"FEW","base":2600},{"cover":"SCT","base":8000}],"obsTime":1775340000},"SBSP":{"icaoId":"SBSP","flightCategory":"VFR","rawOb":"METAR SBSP 042200Z 12003KT CAVOK 24/19 Q1019","temp":24,"dewp":19,"wdir":120,"wspd":3,"visib":"6+","altim":1019,"clouds":[],"obsTime":1775340000},"SBSV":{"icaoId":"SBSV","flightCategory":"VFR","rawOb":"METAR SBSV 042200Z 11007KT 9999 SCT019 FEW023TCU BKN060 28/23 Q1013","temp":28,"dewp":23,"wdir":110,"wspd":7,"visib":"6+","altim":1013,"clouds":[{"cover":"SCT","base":1900},{"cover":"FEW","base":2300},{"cover":"BKN","base":6000}],"obsTime":1775340000},"SBTE":{"icaoId":"SBTE","flightCategory":"VFR","rawOb":"METAR SBTE 042200Z 10005KT 9999 SCT016 BKN090 29/23 Q1009","temp":29,"dewp":23,"wdir":100,"wspd":5,"visib":"6+","altim":1009,"clouds":[{"cover":"SCT","base":1600},{"cover":"BKN","base":9000}],"obsTime":1775340000},"SBUL":{"icaoId":"SBUL","flightCategory":"VFR","rawOb":"METAR SBUL 042200Z 17004KT 9999 VCTS FEW045 FEW049CB 23/19 Q1018 RETS","temp":23,"dewp":19,"wdir":170,"wspd":4,"visib":"6+","altim":1018,"clouds":[{"cover":"FEW","base":4500},{"cover":"FEW","base":4900}],"obsTime":1775340000},"SBUR":{"icaoId":"SBUR","flightCategory":"VFR","rawOb":"METAR SBUR 042200Z 03003KT 9999 VCTS FEW048 FEW049CB 26/18 Q1017 RETS","temp":26,"dewp":18,"wdir":30,"wspd":3,"visib":"6+","altim":1017,"clouds":[{"cover":"FEW","base":4800},{"cover":"FEW","base":4900}],"obsTime":1775340000},"SBVT":{"icaoId":"SBVT","flightCategory":"VFR","rawOb":"METAR SBVT 042200Z 03011KT 9999 SCT045 SCT100 26/24 Q1015","temp":26,"dewp":24,"wdir":30,"wspd":11,"visib":"6+","altim":1015,"clouds":[{"cover":"SCT","base":4500},{"cover":"SCT","base":10000}],"obsTime":1775340000},"SBCP":{"icaoId":"SBCP","flightCategory":"VFR","rawOb":"METAR SBCP 042200Z 07009KT 9999 FEW020 BKN100 27/23 Q1014","temp":27,"dewp":23,"wdir":70,"wspd":9,"visib":"6+","altim":1014,"clouds":[{"cover":"FEW","base":2000},{"cover":"BKN","base":10000}],"obsTime":1775340000},"SBSJ":{"icaoId":"SBSJ","flightCategory":"VFR","rawOb":"METAR SBSJ 042200Z VRB01KT 9999 FEW011 22/20 Q1017","temp":22,"dewp":20,"wdir":"VRB","wspd":1,"visib":"6+","altim":1017,"clouds":[{"cover":"FEW","base":1100}],"obsTime":1775340000},"SBSC":{"icaoId":"SBSC","flightCategory":"VFR","rawOb":"METAR SBSC 042200Z 27004KT 9999 FEW030 FEW040TCU 25/22 Q1014","temp":25,"dewp":22,"wdir":270,"wspd":4,"visib":"6+","altim":1014,"clouds":[{"cover":"FEW","base":3000},{"cover":"FEW","base":4000}],"obsTime":1775340000},"SBAX":{"icaoId":"SBAX","flightCategory":"VFR","rawOb":"METAR SBAX 042200Z AUTO VRB02KT 9999 -RA NSC ///// Q1019","temp":null,"dewp":null,"wdir":"VRB","wspd":2,"visib":"6+","altim":1019,"clouds":[],"obsTime":1775340000},"SBIP":{"icaoId":"SBIP","flightCategory":"VFR","rawOb":"METAR SBIP 042200Z AUTO 00000KT CAVOK 24/23 Q1015","temp":24,"dewp":23,"wdir":0,"wspd":0,"visib":"6+","altim":1015,"clouds":[],"obsTime":1775340000},"SBSM":{"icaoId":"SBSM","flightCategory":"VFR","rawOb":"METAR SBSM 042200Z VRB01KT 9999 FEW018 BKN100 23/22 Q1015","temp":23,"dewp":22,"wdir":"VRB","wspd":1,"visib":"6+","altim":1015,"clouds":[{"cover":"FEW","base":1800},{"cover":"BKN","base":10000}],"obsTime":1775340000},"SBBU":{"icaoId":"SBBU","flightCategory":"VFR","rawOb":"METAR SBBU 042200Z 12003KT CAVOK 27/21 Q1015","temp":27,"dewp":21,"wdir":120,"wspd":3,"visib":"6+","altim":1015,"clouds":[],"obsTime":1775340000},"SBSR":{"icaoId":"SBSR","flightCategory":"VFR","rawOb":"METAR SBSR 042200Z 00000KT 9999 FEW035 26/21 Q1014","temp":26,"dewp":21,"wdir":0,"wspd":0,"visib":"6+","altim":1014,"clouds":[{"cover":"FEW","base":3500}],"obsTime":1775340000},"SBKG":{"icaoId":"SBKG","flightCategory":"MVFR","rawOb":"METAR SBKG 042200Z 12009KT 9999 -RA BKN017 22/22 Q1015","temp":22,"dewp":22,"wdir":120,"wspd":9,"visib":"6+","altim":1015,"clouds":[{"cover":"BKN","base":1700}],"obsTime":1775340000},"SBPL":{"icaoId":"SBPL","flightCategory":"VFR","rawOb":"METAR SBPL 042200Z 13007KT 9999 -RA SCT025 FEW035TCU 28/23 Q1012 RETS","temp":28,"dewp":23,"wdir":130,"wspd":7,"visib":"6+","altim":1012,"clouds":[{"cover":"SCT","base":2500},{"cover":"FEW","base":3500}],"obsTime":1775340000},"SBPS":{"icaoId":"SBPS","flightCategory":"VFR","rawOb":"METAR SBPS 042200Z 06004KT 9999 SCT020 SCT070 26/24 Q1015","temp":26,"dewp":24,"wdir":60,"wspd":4,"visib":"6+","altim":1015,"clouds":[{"cover":"SCT","base":2000},{"cover":"SCT","base":7000}],"obsTime":1775340000},"SBDN":{"icaoId":"SBDN","flightCategory":"VFR","rawOb":"METAR SBDN 042200Z 08003KT 9999 FEW049 SCT100 26/20 Q1013","temp":26,"dewp":20,"wdir":80,"wspd":3,"visib":"6+","altim":1013,"clouds":[{"cover":"FEW","base":4900},{"cover":"SCT","base":10000}],"obsTime":1775340000},"SBAR":{"icaoId":"SBAR","flightCategory":"VFR","rawOb":"METAR SBAR 042200Z 10010KT 9999 FEW020 SCT025 29/24 Q1012","temp":29,"dewp":24,"wdir":100,"wspd":10,"visib":"6+","altim":1012,"clouds":[{"cover":"FEW","base":2000},{"cover":"SCT","base":2500}],"obsTime":1775340000},"SBOI":{"icaoId":"SBOI","flightCategory":"VFR","rawOb":"METAR SBOI 042200Z AUTO 05004KT 010V110 9999 FEW026 28/23 Q1010","temp":28,"dewp":23,"wdir":50,"wspd":4,"visib":"6+","altim":1010,"clouds":[{"cover":"FEW","base":2600}],"obsTime":1775340000},"SBTT":{"icaoId":"SBTT","flightCategory":"VFR","rawOb":"METAR SBTT 042200Z 03001KT 9999 FEW025 31/22 Q1007","temp":31,"dewp":22,"wdir":30,"wspd":1,"visib":"6+","altim":1007,"clouds":[{"cover":"FEW","base":2500}],"obsTime":1775340000},"SBCO":{"icaoId":"SBCO","flightCategory":"VFR","rawOb":"METAR SBCO 042200Z 18009KT 9999 FEW015 FEW030TCU 26/22 Q1014","temp":26,"dewp":22,"wdir":180,"wspd":9,"visib":"6+","altim":1014,"clouds":[{"cover":"FEW","base":1500},{"cover":"FEW","base":3000}],"obsTime":1775340000},"SBVH":{"icaoId":"SBVH","flightCategory":"VFR","rawOb":"METAR SBVH 042200Z 29003KT 9999 FEW014 BKN090 23/22 Q1013","temp":23,"dewp":22,"wdir":290,"wspd":3,"visib":"6+","altim":1013,"clouds":[{"cover":"FEW","base":1400},{"cover":"BKN","base":9000}],"obsTime":1775340000},"SBBH":{"icaoId":"SBBH","flightCategory":"VFR","rawOb":"METAR SBBH 042200Z 09003KT 9999 SCT045 FEW050TCU 25/18 Q1018","temp":25,"dewp":18,"wdir":90,"wspd":3,"visib":"6+","altim":1018,"clouds":[{"cover":"SCT","base":4500},{"cover":"FEW","base":5000}],"obsTime":1775340000},"SBTF":{"icaoId":"SBTF","flightCategory":"VFR","rawOb":"METAR SBTF 042200Z 12003KT 9999 FEW020 29/25 Q1008","temp":29,"dewp":25,"wdir":120,"wspd":3,"visib":"6+","altim":1008,"clouds":[{"cover":"FEW","base":2000}],"obsTime":1775340000},"SBUY":{"icaoId":"SBUY","flightCategory":"VFR","rawOb":"METAR SBUY 042200Z 15004KT 9999 FEW025 SCT100 28/24 Q1008","temp":28,"dewp":24,"wdir":150,"wspd":4,"visib":"6+","altim":1008,"clouds":[{"cover":"FEW","base":2500},{"cover":"SCT","base":10000}],"obsTime":1775340000},"SBLE":{"icaoId":"SBLE","flightCategory":"VFR","rawOb":"METAR SBLE 042200Z AUTO 36002KT 9999 SCT048 ///// Q////","temp":null,"dewp":null,"wdir":360,"wspd":2,"visib":"6+","altim":null,"clouds":[{"cover":"SCT","base":4800}],"obsTime":1775340000},"SBAF":{"icaoId":"SBAF","flightCategory":"VFR","rawOb":"METAR SBAF 042200Z 13004KT 9999 FEW020 SCT050 26/23 Q1014","temp":26,"dewp":23,"wdir":130,"wspd":4,"visib":"6+","altim":1014,"clouds":[{"cover":"FEW","base":2000},{"cover":"SCT","base":5000}],"obsTime":1775340000},"SBJR":{"icaoId":"SBJR","flightCategory":"VFR","rawOb":"METAR SBJR 042200Z 36005KT 9999 FEW035 27/22 Q1013","temp":27,"dewp":22,"wdir":360,"wspd":5,"visib":"6+","altim":1013,"clouds":[{"cover":"FEW","base":3500}],"obsTime":1775340000},"SBLS":{"icaoId":"SBLS","flightCategory":"VFR","rawOb":"METAR SBLS 042200Z 13006KT 9999 FEW040 SCT100 25/18 Q1018","temp":25,"dewp":18,"wdir":130,"wspd":6,"visib":"6+","altim":1018,"clouds":[{"cover":"FEW","base":4000},{"cover":"SCT","base":10000}],"obsTime":1775340000},"SBMT":{"icaoId":"SBMT","flightCategory":"VFR","rawOb":"METAR SBMT 042200Z 10004KT 9999 SCT027 SCT100 23/19 Q1017","temp":23,"dewp":19,"wdir":100,"wspd":4,"visib":"6+","altim":1017,"clouds":[{"cover":"SCT","base":2700},{"cover":"SCT","base":10000}],"obsTime":1775340000},"SBJV":{"icaoId":"SBJV","flightCategory":"VFR","rawOb":"METAR SBJV 042200Z 35002KT 9999 FEW035 27/24 Q1012","temp":27,"dewp":24,"wdir":350,"wspd":2,"visib":"6+","altim":1012,"clouds":[{"cover":"FEW","base":3500}],"obsTime":1775340000},"SBAN":{"icaoId":"SBAN","flightCategory":"VFR","rawOb":"METAR SBAN 042200Z 21003KT 9999 FEW030 FEW040TCU BKN100 22/18 Q1018","temp":22,"dewp":18,"wdir":210,"wspd":3,"visib":"6+","altim":1018,"clouds":[{"cover":"FEW","base":3000},{"cover":"FEW","base":4000},{"cover":"BKN","base":10000}],"obsTime":1775340000},"SBJP":{"icaoId":"SBJP","flightCategory":"VFR","rawOb":"METAR SBJP 042200Z 08007KT 050V110 9999 FEW020 28/23 Q1013","temp":28,"dewp":23,"wdir":80,"wspd":7,"visib":"6+","altim":1013,"clouds":[{"cover":"FEW","base":2000}],"obsTime":1775340000},"SBGW":{"icaoId":"SBGW","flightCategory":"VFR","rawOb":"METAR SBGW 042200Z VRB01KT 9999 FEW025 25/17 Q1016","temp":25,"dewp":17,"wdir":"VRB","wspd":1,"visib":"6+","altim":1016,"clouds":[{"cover":"FEW","base":2500}],"obsTime":1775340000}}}