{"updated":1774806834,"count":87,"data":{"SBAT":{"icaoId":"SBAT","flightCategory":"VFR","rawOb":"METAR SBAT 291600Z 10005KT 9999 SCT028 31/22 Q1014","temp":31,"dewp":22,"wdir":100,"wspd":5,"visib":"6+","altim":1014,"clouds":[{"cover":"SCT","base":2800}],"obsTime":1774800000},"SBME":{"icaoId":"SBME","flightCategory":"VFR","rawOb":"METAR SBME 291600Z 17009KT 9999 SCT025 29/22 Q1016","temp":29,"dewp":22,"wdir":170,"wspd":9,"visib":"6+","altim":1016,"clouds":[{"cover":"SCT","base":2500}],"obsTime":1774800000},"SBCG":{"icaoId":"SBCG","flightCategory":"VFR","rawOb":"METAR SBCG 291600Z 03009KT 330V070 CAVOK 31/17 Q1017","temp":31,"dewp":17,"wdir":30,"wspd":9,"visib":"6+","altim":1017,"clouds":[],"obsTime":1774800000},"SBFI":{"icaoId":"SBFI","flightCategory":"VFR","rawOb":"METAR SBFI 291600Z 16003KT 9999 FEW030 35/22 Q1016","temp":35,"dewp":22,"wdir":160,"wspd":3,"visib":"6+","altim":1016,"clouds":[{"cover":"FEW","base":3000}],"obsTime":1774800000},"SBMG":{"icaoId":"SBMG","flightCategory":"VFR","rawOb":"METAR SBMG 291600Z 27002KT 9999 SCT046 32/20 Q1018","temp":32,"dewp":20,"wdir":270,"wspd":2,"visib":"6+","altim":1018,"clouds":[{"cover":"SCT","base":4600}],"obsTime":1774800000},"SBMK":{"icaoId":"SBMK","flightCategory":"VFR","rawOb":"METAR SBMK 291600Z 10005KT 9999 BKN035 28/16 Q1018","temp":28,"dewp":16,"wdir":100,"wspd":5,"visib":"6+","altim":1018,"clouds":[{"cover":"BKN","base":3500}],"obsTime":1774800000},"SBFL":{"icaoId":"SBFL","flightCategory":"VFR","rawOb":"METAR SBFL 291600Z 35012KT CAVOK 31/21 Q1015","temp":31,"dewp":21,"wdir":350,"wspd":12,"visib":"6+","altim":1015,"clouds":[],"obsTime":1774800000},"SBBV":{"icaoId":"SBBV","flightCategory":"VFR","rawOb":"METAR SBBV 291600Z 14007KT 9999 BKN035 FEW040TCU 31/22 Q1013","temp":31,"dewp":22,"wdir":140,"wspd":7,"visib":"6+","altim":1013,"clouds":[{"cover":"BKN","base":3500},{"cover":"FEW","base":4000}],"obsTime":1774800000},"SBMO":{"icaoId":"SBMO","flightCategory":"MVFR","rawOb":"METAR SBMO 291600Z 09004KT 050V120 5000 2300E -RA BR FEW005 BKN015 FEW023TCU BKN055 25/24 Q1011 RERA","temp":25,"dewp":24,"wdir":90,"wspd":4,"visib":3.11,"altim":1011,"clouds":[{"cover":"FEW","base":500},{"cover":"BKN","base":1500},{"cover":"FEW","base":2300},{"cover":"BKN","base":5500}],"obsTime":1774800000},"SBMQ":{"icaoId":"SBMQ","flightCategory":"MVFR","rawOb":"METAR SBMQ 291600Z 05010KT 020V080 9999 VCSH VCTS BKN017 FEW025CB BKN090 29/26 Q1011","temp":29,"dewp":26,"wdir":50,"wspd":10,"visib":"6+","altim":1011,"clouds":[{"cover":"BKN","base":1700},{"cover":"FEW","base":2500},{"cover":"BKN","base":9000}],"obsTime":1774800000},"SBBE":{"icaoId":"SBBE","flightCategory":"VFR","rawOb":"METAR SBBE 291600Z 11008KT 9999 SCT030 FEW033TCU 31/24 Q1011","temp":31,"dewp":24,"wdir":110,"wspd":8,"visib":"6+","altim":1011,"clouds":[{"cover":"SCT","base":3000},{"cover":"FEW","base":3300}],"obsTime":1774800000},"SBFZ":{"icaoId":"SBFZ","flightCategory":"VFR","rawOb":"METAR SBFZ 291600Z 18002KT 9999 SCT020 BKN090 28/22 Q1010","temp":28,"dewp":22,"wdir":180,"wspd":2,"visib":"6+","altim":1010,"clouds":[{"cover":"SCT","base":2000},{"cover":"BKN","base":9000}],"obsTime":1774800000},"SBNT":{"icaoId":"SBNT","flightCategory":"VFR","rawOb":"METAR SBNT 291600Z 10011KT 9999 FEW040 31/22 Q1010","temp":31,"dewp":22,"wdir":100,"wspd":11,"visib":"6+","altim":1010,"clouds":[{"cover":"FEW","base":4000}],"obsTime":1774800000},"SBGL":{"icaoId":"SBGL","flightCategory":"VFR","rawOb":"METAR SBGL 291600Z 14008KT 100V170 9999 FEW030 30/21 Q1016","temp":30,"dewp":21,"wdir":140,"wspd":8,"visib":"6+","altim":1016,"clouds":[{"cover":"FEW","base":3000}],"obsTime":1774800000},"SBPA":{"icaoId":"SBPA","flightCategory":"VFR","rawOb":"METAR SBPA 291600Z 27007KT CAVOK 31/24 Q1015","temp":31,"dewp":24,"wdir":270,"wspd":7,"visib":"6+","altim":1015,"clouds":[],"obsTime":1774800000},"SBCP":{"icaoId":"SBCP","flightCategory":"MVFR","rawOb":"METAR SBCP 291600Z 09007KT 9999 BKN015 29/23 Q1016","temp":29,"dewp":23,"wdir":90,"wspd":7,"visib":"6+","altim":1016,"clouds":[{"cover":"BKN","base":1500}],"obsTime":1774800000},"SBPJ":{"icaoId":"SBPJ","flightCategory":"VFR","rawOb":"METAR SBPJ 291600Z 06005KT 9999 SCT030 33/23 Q1012","temp":33,"dewp":23,"wdir":60,"wspd":5,"visib":"6+","altim":1012,"clouds":[{"cover":"SCT","base":3000}],"obsTime":1774800000},"SBGO":{"icaoId":"SBGO","flightCategory":"VFR","rawOb":"METAR SBGO 291600Z 11010KT 9999 BKN048 30/19 Q1018","temp":30,"dewp":19,"wdir":110,"wspd":10,"visib":"6+","altim":1018,"clouds":[{"cover":"BKN","base":4800}],"obsTime":1774800000},"SBPV":{"icaoId":"SBPV","flightCategory":"IFR","rawOb":"METAR SBPV 291600Z 08004KT 9999 -RA BKN008 BKN020 26/23 Q1014","temp":26,"dewp":23,"wdir":80,"wspd":4,"visib":"6+","altim":1014,"clouds":[{"cover":"BKN","base":800},{"cover":"BKN","base":2000}],"obsTime":1774800000},"SBRB":{"icaoId":"SBRB","flightCategory":"MVFR","rawOb":"METAR SBRB 291600Z 12005KT 9999 BKN015 28/23 Q1014","temp":28,"dewp":23,"wdir":120,"wspd":5,"visib":"6+","altim":1014,"clouds":[{"cover":"BKN","base":1500}],"obsTime":1774800000},"SBCR":{"icaoId":"SBCR","flightCategory":"VFR","rawOb":"METAR SBCR 291600Z 04006KT 350V100 9999 FEW040 33/22 Q1014","temp":33,"dewp":22,"wdir":40,"wspd":6,"visib":"6+","altim":1014,"clouds":[{"cover":"FEW","base":4000}],"obsTime":1774800000},"SBBR":{"icaoId":"SBBR","flightCategory":"VFR","rawOb":"METAR SBBR 291600Z 13010KT 9999 SCT035 BKN090 26/16 Q1020","temp":26,"dewp":16,"wdir":130,"wspd":10,"visib":"6+","altim":1020,"clouds":[{"cover":"SCT","base":3500},{"cover":"BKN","base":9000}],"obsTime":1774800000},"SBRF":{"icaoId":"SBRF","flightCategory":"VFR","rawOb":"METAR SBRF 291600Z 08007KT 020V140 9999 FEW025 31/23 Q1010","temp":31,"dewp":23,"wdir":80,"wspd":7,"visib":"6+","altim":1010,"clouds":[{"cover":"FEW","base":2500}],"obsTime":1774800000},"SBSG":{"icaoId":"SBSG","flightCategory":"MVFR","rawOb":"METAR SBSG 291600Z 11007KT 080V160 9999 BKN030 30/23 Q1010","temp":30,"dewp":23,"wdir":110,"wspd":7,"visib":"6+","altim":1010,"clouds":[{"cover":"BKN","base":3000}],"obsTime":1774800000},"SBGR":{"icaoId":"SBGR","flightCategory":"VFR","rawOb":"METAR SBGR 291600Z 01005KT 9999 FEW040 29/17 Q1020","temp":29,"dewp":17,"wdir":10,"wspd":5,"visib":"6+","altim":1020,"clouds":[{"cover":"FEW","base":4000}],"obsTime":1774800000},"SBSL":{"icaoId":"SBSL","flightCategory":"MVFR","rawOb":"METAR SBSL 291600Z 09010KT 9999 VCSH FEW012 BKN018 FEW025TCU BKN080 28/24 Q1011","temp":28,"dewp":24,"wdir":90,"wspd":10,"visib":"6+","altim":1011,"clouds":[{"cover":"FEW","base":1200},{"cover":"BKN","base":1800},{"cover":"FEW","base":2500},{"cover":"BKN","base":8000}],"obsTime":1774800000},"SBHT":{"icaoId":"SBHT","flightCategory":"MVFR","rawOb":"METAR SBHT 291600Z 10003KT 9999 BKN025 BKN090 30/25 Q1011","temp":30,"dewp":25,"wdir":100,"wspd":3,"visib":"6+","altim":1011,"clouds":[{"cover":"BKN","base":2500},{"cover":"BKN","base":9000}],"obsTime":1774800000},"SBCB":{"icaoId":"SBCB","flightCategory":"VFR","rawOb":"METAR SBCB 291600Z 09009KT CAVOK 29/21 Q1017","temp":29,"dewp":21,"wdir":90,"wspd":9,"visib":"6+","altim":1017,"clouds":[],"obsTime":1774800000},"SBSN":{"icaoId":"SBSN","flightCategory":"VFR","rawOb":"METAR SBSN 291600Z 36004KT 9999 SCT017 SCT100 30/25 Q1011","temp":30,"dewp":25,"wdir":360,"wspd":4,"visib":"6+","altim":1011,"clouds":[{"cover":"SCT","base":1700},{"cover":"SCT","base":10000}],"obsTime":1774800000},"SBSP":{"icaoId":"SBSP","flightCategory":"VFR","rawOb":"METAR SBSP 291600Z 14006KT 050V200 CAVOK 29/13 Q1021","temp":29,"dewp":13,"wdir":140,"wspd":6,"visib":"6+","altim":1021,"clouds":[],"obsTime":1774800000},"SBIL":{"icaoId":"SBIL","flightCategory":"VFR","rawOb":"METAR SBIL 291600Z 19009KT 9999 VCSH SCT020 FEW025TCU SCT050 29/24 Q1014","temp":29,"dewp":24,"wdir":190,"wspd":9,"visib":"6+","altim":1014,"clouds":[{"cover":"SCT","base":2000},{"cover":"FEW","base":2500},{"cover":"SCT","base":5000}],"obsTime":1774800000},"SBCT":{"icaoId":"SBCT","flightCategory":"VFR","rawOb":"METAR SBCT 291600Z VRB04KT 9999 FEW030 27/16 Q1022","temp":27,"dewp":16,"wdir":"VRB","wspd":4,"visib":"6+","altim":1022,"clouds":[{"cover":"FEW","base":3000}],"obsTime":1774800000},"SBSV":{"icaoId":"SBSV","flightCategory":"VFR","rawOb":"METAR SBSV 291600Z 16008KT 9999 VCSH SCT020 FEW025TCU BKN050 28/23 Q1013","temp":28,"dewp":23,"wdir":160,"wspd":8,"visib":"6+","altim":1013,"clouds":[{"cover":"SCT","base":2000},{"cover":"FEW","base":2500},{"cover":"BKN","base":5000}],"obsTime":1774800000},"SBEG":{"icaoId":"SBEG","flightCategory":"MVFR","rawOb":"METAR SBEG 291600Z 21004KT 9999 BKN020 BKN100 28/25 Q1013","temp":28,"dewp":25,"wdir":210,"wspd":4,"visib":"6+","altim":1013,"clouds":[{"cover":"BKN","base":2000},{"cover":"BKN","base":10000}],"obsTime":1774800000},"SBLO":{"icaoId":"SBLO","flightCategory":"VFR","rawOb":"METAR SBLO 291600Z 12003KT 9999 FEW025 30/18 Q1019","temp":30,"dewp":18,"wdir":120,"wspd":3,"visib":"6+","altim":1019,"clouds":[{"cover":"FEW","base":2500}],"obsTime":1774800000},"SBMA":{"icaoId":"SBMA","flightCategory":"VFR","rawOb":"METAR SBMA 291600Z 12004KT 9999 SCT023 30/25 Q1011","temp":30,"dewp":25,"wdir":120,"wspd":4,"visib":"6+","altim":1011,"clouds":[{"cover":"SCT","base":2300}],"obsTime":1774800000},"SBCF":{"icaoId":"SBCF","flightCategory":"VFR","rawOb":"METAR SBCF 291600Z 13007KT 9999 BKN036 25/16 Q1021","temp":25,"dewp":16,"wdir":130,"wspd":7,"visib":"6+","altim":1021,"clouds":[{"cover":"BKN","base":3600}],"obsTime":1774800000},"SBTE":{"icaoId":"SBTE","flightCategory":"MVFR","rawOb":"METAR SBTE 291600Z 33002KT 9999 BKN020 31/24 Q1009","temp":31,"dewp":24,"wdir":330,"wspd":2,"visib":"6+","altim":1009,"clouds":[{"cover":"BKN","base":2000}],"obsTime":1774800000},"SBUL":{"icaoId":"SBUL","flightCategory":"VFR","rawOb":"METAR SBUL 291600Z 10008KT 040V140 9999 SCT040 27/16 Q1020","temp":27,"dewp":16,"wdir":100,"wspd":8,"visib":"6+","altim":1020,"clouds":[{"cover":"SCT","base":4000}],"obsTime":1774800000},"SBJU":{"icaoId":"SBJU","flightCategory":"MVFR","rawOb":"METAR SBJU 291600Z 12008KT 9999 BKN020 30/22 Q1013","temp":30,"dewp":22,"wdir":120,"wspd":8,"visib":"6+","altim":1013,"clouds":[{"cover":"BKN","base":2000}],"obsTime":1774800000},"SBUR":{"icaoId":"SBUR","flightCategory":"VFR","rawOb":"METAR SBUR 291600Z 07007KT 9999 BKN048 29/16 Q1019","temp":29,"dewp":16,"wdir":70,"wspd":7,"visib":"6+","altim":1019,"clouds":[{"cover":"BKN","base":4800}],"obsTime":1774800000},"SBCZ":{"icaoId":"SBCZ","flightCategory":"MVFR","rawOb":"METAR SBCZ 291600Z 06003KT 9999 BKN018 BKN100 27/23 Q1015","temp":27,"dewp":23,"wdir":60,"wspd":3,"visib":"6+","altim":1015,"clouds":[{"cover":"BKN","base":1800},{"cover":"BKN","base":10000}],"obsTime":1774800000},"SBVT":{"icaoId":"SBVT","flightCategory":"VFR","rawOb":"METAR SBVT 291600Z 16011KT 9999 SCT028 FEW035TCU 27/24 Q1016","temp":27,"dewp":24,"wdir":160,"wspd":11,"visib":"6+","altim":1016,"clouds":[{"cover":"SCT","base":2800},{"cover":"FEW","base":3500}],"obsTime":1774800000},"SBKP":{"icaoId":"SBKP","flightCategory":"VFR","rawOb":"METAR SBKP 291600Z VRB03KT 9999 SCT040 30/18 Q1019","temp":30,"dewp":18,"wdir":"VRB","wspd":3,"visib":"6+","altim":1019,"clouds":[{"cover":"SCT","base":4000}],"obsTime":1774800000},"SBSJ":{"icaoId":"SBSJ","flightCategory":"VFR","rawOb":"METAR SBSJ 291600Z 01005KT CAVOK 28/18 Q1019","temp":28,"dewp":18,"wdir":10,"wspd":5,"visib":"6+","altim":1019,"clouds":[],"obsTime":1774800000},"SBAU":{"icaoId":"SBAU","flightCategory":"VFR","rawOb":"METAR SBAU 291700Z 09008KT 9999 FEW040 33/16 Q1016","temp":33,"dewp":16,"wdir":90,"wspd":8,"visib":"6+","altim":1016,"clouds":[{"cover":"FEW","base":4000}],"obsTime":1774803600},"SBAX":{"icaoId":"SBAX","flightCategory":"VFR","rawOb":"METAR SBAX 291600Z AUTO 09006KT 030V140 9999 BKN042 27/17 Q1020","temp":27,"dewp":17,"wdir":90,"wspd":6,"visib":"6+","altim":1020,"clouds":[{"cover":"BKN","base":4200}],"obsTime":1774800000},"SBBH":{"icaoId":"SBBH","flightCategory":"VFR","rawOb":"METAR SBBH 291600Z 07005KT 9999 SCT040 26/17 Q1020","temp":26,"dewp":17,"wdir":70,"wspd":5,"visib":"6+","altim":1020,"clouds":[{"cover":"SCT","base":4000}],"obsTime":1774800000},"SBBQ":{"icaoId":"SBBQ","flightCategory":"VFR","rawOb":"METAR SBBQ 291600Z 10007KT 9999 FEW040 24/15 Q1024","temp":24,"dewp":15,"wdir":100,"wspd":7,"visib":"6+","altim":1024,"clouds":[{"cover":"FEW","base":4000}],"obsTime":1774800000},"SBBU":{"icaoId":"SBBU","flightCategory":"VFR","rawOb":"METAR SBBU 291600Z 01004KT 9999 FEW035 31/19 Q1019","temp":31,"dewp":19,"wdir":10,"wspd":4,"visib":"6+","altim":1019,"clouds":[{"cover":"FEW","base":3500}],"obsTime":1774800000},"SBCA":{"icaoId":"SBCA","flightCategory":"VFR","rawOb":"METAR SBCA 291600Z 29005KT 9999 FEW030 30/17 Q1021","temp":30,"dewp":17,"wdir":290,"wspd":5,"visib":"6+","altim":1021,"clouds":[{"cover":"FEW","base":3000}],"obsTime":1774800000},"SBCC":{"icaoId":"SBCC","flightCategory":"VFR","rawOb":"METAR SBCC 291600Z 09010KT 9999 FEW020 BKN100 30/20 Q1015","temp":30,"dewp":20,"wdir":90,"wspd":10,"visib":"6+","altim":1015,"clouds":[{"cover":"FEW","base":2000},{"cover":"BKN","base":10000}],"obsTime":1774800000},"SBCJ":{"icaoId":"SBCJ","flightCategory":"VFR","rawOb":"METAR SBCJ 291600Z 00000KT 9999 SCT017 27/22 Q1016","temp":27,"dewp":22,"wdir":0,"wspd":0,"visib":"6+","altim":1016,"clouds":[{"cover":"SCT","base":1700}],"obsTime":1774800000},"SBCO":{"icaoId":"SBCO","flightCategory":"VFR","rawOb":"METAR SBCO 291600Z 27006KT CAVOK 33/24 Q1016","temp":33,"dewp":24,"wdir":270,"wspd":6,"visib":"6+","altim":1016,"clouds":[],"obsTime":1774800000},"SBDN":{"icaoId":"SBDN","flightCategory":"VFR","rawOb":"METAR SBDN 291600Z 05004KT 9999 FEW040 32/20 Q1018","temp":32,"dewp":20,"wdir":50,"wspd":4,"visib":"6+","altim":1018,"clouds":[{"cover":"FEW","base":4000}],"obsTime":1774800000},"SBES":{"icaoId":"SBES","flightCategory":"VFR","rawOb":"METAR SBES 291600Z 07007KT 360V120 9999 SCT030 29/// Q1017","temp":null,"dewp":null,"wdir":70,"wspd":7,"visib":"6+","altim":1017,"clouds":[{"cover":"SCT","base":3000}],"obsTime":1774800000},"SBGM":{"icaoId":"SBGM","flightCategory":"VFR","rawOb":"METAR SBGM 291600Z 05003KT 9999 SCT020 OVC040 28/22 Q1014","temp":28,"dewp":22,"wdir":50,"wspd":3,"visib":"6+","altim":1014,"clouds":[{"cover":"SCT","base":2000},{"cover":"OVC","base":4000}],"obsTime":1774800000},"SBIP":{"icaoId":"SBIP","flightCategory":"VFR","rawOb":"METAR SBIP 291600Z AUTO 17004KT 140V210 9999 BKN034 29/20 Q1017","temp":29,"dewp":20,"wdir":170,"wspd":4,"visib":"6+","altim":1017,"clouds":[{"cover":"BKN","base":3400}],"obsTime":1774800000},"SBKG":{"icaoId":"SBKG","flightCategory":"VFR","rawOb":"METAR SBKG 291600Z 11009KT 9999 SCT030 SCT080 30/17 Q1012","temp":30,"dewp":17,"wdir":110,"wspd":9,"visib":"6+","altim":1012,"clouds":[{"cover":"SCT","base":3000},{"cover":"SCT","base":8000}],"obsTime":1774800000},"SBOI":{"icaoId":"SBOI","flightCategory":"MVFR","rawOb":"METAR SBOI 291600Z AUTO VRB04KT 9999 BKN025 30/25 Q1011","temp":30,"dewp":25,"wdir":"VRB","wspd":4,"visib":"6+","altim":1011,"clouds":[{"cover":"BKN","base":2500}],"obsTime":1774800000},"SBPB":{"icaoId":"SBPB","flightCategory":"VFR","rawOb":"METAR SBPB 291600Z 04009KT 9999 FEW020 SCT100 31/25 Q1010","temp":31,"dewp":25,"wdir":40,"wspd":9,"visib":"6+","altim":1010,"clouds":[{"cover":"FEW","base":2000},{"cover":"SCT","base":10000}],"obsTime":1774800000},"SBPL":{"icaoId":"SBPL","flightCategory":"VFR","rawOb":"METAR SBPL 291600Z 14007KT 9999 SCT030 33/20 Q1012","temp":33,"dewp":20,"wdir":140,"wspd":7,"visib":"6+","altim":1012,"clouds":[{"cover":"SCT","base":3000}],"obsTime":1774800000},"SBPP":{"icaoId":"SBPP","flightCategory":"VFR","rawOb":"METAR SBPP 291600Z 05006KT 9999 FEW025 30/19 Q1019","temp":30,"dewp":19,"wdir":50,"wspd":6,"visib":"6+","altim":1019,"clouds":[{"cover":"FEW","base":2500}],"obsTime":1774800000},"SBPS":{"icaoId":"SBPS","flightCategory":"VFR","rawOb":"METAR SBPS 291600Z 16007KT 9999 SCT020 28/24 Q1015","temp":28,"dewp":24,"wdir":160,"wspd":7,"visib":"6+","altim":1015,"clouds":[{"cover":"SCT","base":2000}],"obsTime":1774800000},"SBSC":{"icaoId":"SBSC","flightCategory":"VFR","rawOb":"METAR SBSC 291600Z 17008KT 9999 FEW030 30/21 Q1016","temp":30,"dewp":21,"wdir":170,"wspd":8,"visib":"6+","altim":1016,"clouds":[{"cover":"FEW","base":3000}],"obsTime":1774800000},"SBAR":{"icaoId":"SBAR","flightCategory":"VFR","rawOb":"METAR SBAR 291600Z 08011KT 9999 3000W -RA FEW013 SCT021 FEW023TCU OVC040 27/24 Q1012 RESHRA","temp":27,"dewp":24,"wdir":80,"wspd":11,"visib":"6+","altim":1012,"clouds":[{"cover":"FEW","base":1300},{"cover":"SCT","base":2100},{"cover":"FEW","base":2300},{"cover":"OVC","base":4000}],"obsTime":1774800000},"SBSM":{"icaoId":"SBSM","flightCategory":"VFR","rawOb":"METAR SBSM 291600Z VRB03KT 9999 FEW040 SCT090 33/26 Q1016","temp":33,"dewp":26,"wdir":"VRB","wspd":3,"visib":"6+","altim":1016,"clouds":[{"cover":"FEW","base":4000},{"cover":"SCT","base":9000}],"obsTime":1774800000},"SBSR":{"icaoId":"SBSR","flightCategory":"VFR","rawOb":"METAR SBSR 291600Z 13006KT 9999 SCT030 30/14 Q1018","temp":30,"dewp":14,"wdir":130,"wspd":6,"visib":"6+","altim":1018,"clouds":[{"cover":"SCT","base":3000}],"obsTime":1774800000},"SBTF":{"icaoId":"SBTF","flightCategory":"VFR","rawOb":"METAR SBTF 291600Z COR 09010KT 9999 SCT009 BKN080 27/25 Q1013","temp":27,"dewp":25,"wdir":90,"wspd":10,"visib":"6+","altim":1013,"clouds":[{"cover":"SCT","base":900},{"cover":"BKN","base":8000}],"obsTime":1774800000},"SBTT":{"icaoId":"SBTT","flightCategory":"VFR","rawOb":"METAR SBTT 291600Z 19007KT 9999 SCT015 28/23 Q1014","temp":28,"dewp":23,"wdir":190,"wspd":7,"visib":"6+","altim":1014,"clouds":[{"cover":"SCT","base":1500}],"obsTime":1774800000},"SBUY":{"icaoId":"SBUY","flightCategory":"VFR","rawOb":"METAR SBUY 291600Z 09002KT 9999 FEW020 BKN090 28/24 Q1013","temp":28,"dewp":24,"wdir":90,"wspd":2,"visib":"6+","altim":1013,"clouds":[{"cover":"FEW","base":2000},{"cover":"BKN","base":9000}],"obsTime":1774800000},"SBVH":{"icaoId":"SBVH","flightCategory":"MVFR","rawOb":"METAR SBVH 291600Z 09009KT 9999 BKN025 SCT100 27/22 Q1017","temp":27,"dewp":22,"wdir":90,"wspd":9,"visib":"6+","altim":1017,"clouds":[{"cover":"BKN","base":2500},{"cover":"SCT","base":10000}],"obsTime":1774800000},"SBST":{"icaoId":"SBST","flightCategory":"VFR","rawOb":"METAR SBST 291600Z 28006KT 9999 SCT030 28/22 Q1017","temp":28,"dewp":22,"wdir":280,"wspd":6,"visib":"6+","altim":1017,"clouds":[{"cover":"SCT","base":3000}],"obsTime":1774800000},"SBTA":{"icaoId":"SBTA","flightCategory":"VFR","rawOb":"METAR SBTA 291600Z 07004KT 010V140 9999 FEW025 28/24 Q1018","temp":28,"dewp":24,"wdir":70,"wspd":4,"visib":"6+","altim":1018,"clouds":[{"cover":"FEW","base":2500}],"obsTime":1774800000},"SBLE":{"icaoId":"SBLE","flightCategory":"VFR","rawOb":"METAR SBLE 291600Z AUTO 18005KT 120V250 9999 BKN033 27/21 Q1015","temp":27,"dewp":21,"wdir":180,"wspd":5,"visib":"6+","altim":1015,"clouds":[{"cover":"BKN","base":3300}],"obsTime":1774800000},"SBJP":{"icaoId":"SBJP","flightCategory":"VFR","rawOb":"METAR SBJP 291600Z 10007KT 060V140 9999 FEW035 SCT100 32/21 Q1010","temp":32,"dewp":21,"wdir":100,"wspd":7,"visib":"6+","altim":1010,"clouds":[{"cover":"FEW","base":3500},{"cover":"SCT","base":10000}],"obsTime":1774800000},"SBAN":{"icaoId":"SBAN","flightCategory":"VFR","rawOb":"METAR SBAN 291600Z 12010KT 9999 BKN040 26/15 Q1021","temp":26,"dewp":15,"wdir":120,"wspd":10,"visib":"6+","altim":1021,"clouds":[{"cover":"BKN","base":4000}],"obsTime":1774800000},"SBTC":{"icaoId":"SBTC","flightCategory":"VFR","rawOb":"METAR SBTC 291600Z 15006KT 9999 SCT020 SCT070 28/24 Q1014","temp":28,"dewp":24,"wdir":150,"wspd":6,"visib":"6+","altim":1014,"clouds":[{"cover":"SCT","base":2000},{"cover":"SCT","base":7000}],"obsTime":1774800000},"SBIH":{"icaoId":"SBIH","flightCategory":"VFR","rawOb":"METAR SBIH 291600Z 12007KT 9999 SCT016 29/24 Q1012","temp":29,"dewp":24,"wdir":120,"wspd":7,"visib":"6+","altim":1012,"clouds":[{"cover":"SCT","base":1600}],"obsTime":1774800000},"SBAF":{"icaoId":"SBAF","flightCategory":"VFR","rawOb":"METAR SBAF 291600Z 14005KT 9999 FEW025 31/20 Q1016","temp":31,"dewp":20,"wdir":140,"wspd":5,"visib":"6+","altim":1016,"clouds":[{"cover":"FEW","base":2500}],"obsTime":1774800000},"SBGW":{"icaoId":"SBGW","flightCategory":"VFR","rawOb":"METAR SBGW 291600Z VRB03KT 9999 FEW030 30/16 Q1019","temp":30,"dewp":16,"wdir":"VRB","wspd":3,"visib":"6+","altim":1019,"clouds":[{"cover":"FEW","base":3000}],"obsTime":1774800000},"SBJR":{"icaoId":"SBJR","flightCategory":"VFR","rawOb":"METAR SBJR 291600Z 16008KT 9999 FEW025 31/20 Q1016","temp":31,"dewp":20,"wdir":160,"wspd":8,"visib":"6+","altim":1016,"clouds":[{"cover":"FEW","base":2500}],"obsTime":1774800000},"SBLS":{"icaoId":"SBLS","flightCategory":"VFR","rawOb":"METAR SBLS 291600Z 13009KT 060V130 9999 BKN040 26/16 Q1020","temp":26,"dewp":16,"wdir":130,"wspd":9,"visib":"6+","altim":1020,"clouds":[{"cover":"BKN","base":4000}],"obsTime":1774800000},"SBMT":{"icaoId":"SBMT","flightCategory":"VFR","rawOb":"METAR SBMT 291600Z 16005KT 100V210 9999 FEW030 28/15 Q1020","temp":28,"dewp":15,"wdir":160,"wspd":5,"visib":"6+","altim":1020,"clouds":[{"cover":"FEW","base":3000}],"obsTime":1774800000},"SBPF":{"icaoId":"SBPF","flightCategory":"VFR","rawOb":"METAR SBPF 291600Z AUTO VRB04KT 9999 NSC 30/18 Q1021","temp":30,"dewp":18,"wdir":"VRB","wspd":4,"visib":"6+","altim":1021,"clouds":[],"obsTime":1774800000},"SBJV":{"icaoId":"SBJV","flightCategory":"VFR","rawOb":"METAR SBJV 291600Z 12005KT 9999 FEW030 31/24 Q1016","temp":31,"dewp":24,"wdir":120,"wspd":5,"visib":"6+","altim":1016,"clouds":[{"cover":"FEW","base":3000}],"obsTime":1774800000},"SBNM":{"icaoId":"SBNM","flightCategory":"VFR","rawOb":"METAR SBNM 291600Z 27002KT 9999 SCT020 33/19 Q1017","temp":33,"dewp":19,"wdir":270,"wspd":2,"visib":"6+","altim":1017,"clouds":[{"cover":"SCT","base":2000}],"obsTime":1774800000}}}