{"updated":1782525180,"count":65,"data":{"SBBE":{"icaoId":"SBBE","flightCategory":"VFR","rawOb":"METAR SBBE 270000Z 09006KT 9999 SCT035 BKN070 26/24 Q1015","temp":26,"dewp":24,"wdir":90,"wspd":6,"visib":"6+","altim":1015,"clouds":[{"cover":"SCT","base":3500},{"cover":"BKN","base":7000}],"obsTime":1782518400},"SBPV":{"icaoId":"SBPV","flightCategory":"VFR","rawOb":"METAR SBPV 270000Z 00000KT 9999 FEW035 25/22 Q1014","temp":25,"dewp":22,"wdir":0,"wspd":0,"visib":"6+","altim":1014,"clouds":[{"cover":"FEW","base":3500}],"obsTime":1782518400},"SBKP":{"icaoId":"SBKP","flightCategory":"VFR","rawOb":"METAR SBKP 270000Z 12003KT CAVOK 18/16 Q1025","temp":18,"dewp":16,"wdir":120,"wspd":3,"visib":"6+","altim":1025,"clouds":[],"obsTime":1782518400},"SBSL":{"icaoId":"SBSL","flightCategory":"VFR","rawOb":"METAR SBSL 270000Z 10009KT CAVOK 27/23 Q1015","temp":27,"dewp":23,"wdir":100,"wspd":9,"visib":"6+","altim":1015,"clouds":[],"obsTime":1782518400},"SBVT":{"icaoId":"SBVT","flightCategory":"VFR","rawOb":"METAR SBVT 270000Z 34003KT 9999 SCT044 21/21 Q1024","temp":21,"dewp":21,"wdir":340,"wspd":3,"visib":"6+","altim":1024,"clouds":[{"cover":"SCT","base":4400}],"obsTime":1782518400},"SBEG":{"icaoId":"SBEG","flightCategory":"VFR","rawOb":"METAR SBEG 270000Z 33002KT 9999 4000W FEW025 25/24 Q1013","temp":25,"dewp":24,"wdir":330,"wspd":2,"visib":"6+","altim":1013,"clouds":[{"cover":"FEW","base":2500}],"obsTime":1782518400},"SBCF":{"icaoId":"SBCF","flightCategory":"VFR","rawOb":"METAR SBCF 270000Z 17004KT CAVOK 18/15 Q1027","temp":18,"dewp":15,"wdir":170,"wspd":4,"visib":"6+","altim":1027,"clouds":[],"obsTime":1782518400},"SBSV":{"icaoId":"SBSV","flightCategory":"VFR","rawOb":"METAR SBSV 270000Z 12010KT 9999 SCT023 BKN060 26/21 Q1021","temp":26,"dewp":21,"wdir":120,"wspd":10,"visib":"6+","altim":1021,"clouds":[{"cover":"SCT","base":2300},{"cover":"BKN","base":6000}],"obsTime":1782518400},"SBSG":{"icaoId":"SBSG","flightCategory":"VFR","rawOb":"METAR SBSG 270000Z 20003KT 9999 FEW020 23/23 Q1017","temp":23,"dewp":23,"wdir":200,"wspd":3,"visib":"6+","altim":1017,"clouds":[{"cover":"FEW","base":2000}],"obsTime":1782518400},"SBPJ":{"icaoId":"SBPJ","flightCategory":"VFR","rawOb":"METAR SBPJ 270000Z 12004KT CAVOK 27/18 Q1016","temp":27,"dewp":18,"wdir":120,"wspd":4,"visib":"6+","altim":1016,"clouds":[],"obsTime":1782518400},"SBMA":{"icaoId":"SBMA","flightCategory":"VFR","rawOb":"METAR SBMA 270000Z 00000KT CAVOK 27/20 Q1015","temp":27,"dewp":20,"wdir":0,"wspd":0,"visib":"6+","altim":1015,"clouds":[],"obsTime":1782518400},"SBTE":{"icaoId":"SBTE","flightCategory":"VFR","rawOb":"METAR SBTE 270000Z 34003KT 9999 SCT020 SCT070 29/23 Q1014","temp":29,"dewp":23,"wdir":340,"wspd":3,"visib":"6+","altim":1014,"clouds":[{"cover":"SCT","base":2000},{"cover":"SCT","base":7000}],"obsTime":1782518400},"SBFI":{"icaoId":"SBFI","flightCategory":"VFR","rawOb":"METAR SBFI 270000Z 08002KT 9999 FEW020 SCT070 16/12 Q1021","temp":16,"dewp":12,"wdir":80,"wspd":2,"visib":"6+","altim":1021,"clouds":[{"cover":"FEW","base":2000},{"cover":"SCT","base":7000}],"obsTime":1782518400},"SBGR":{"icaoId":"SBGR","flightCategory":"VFR","rawOb":"METAR SBGR 270000Z 02003KT 9000 NSC 16/15 Q1026","temp":16,"dewp":15,"wdir":20,"wspd":3,"visib":5.59,"altim":1026,"clouds":[],"obsTime":1782518400},"SBCT":{"icaoId":"SBCT","flightCategory":"VFR","rawOb":"METAR SBCT 270000Z 02002KT 9999 FEW010 SCT100 12/12 Q1026","temp":12,"dewp":12,"wdir":20,"wspd":2,"visib":"6+","altim":1026,"clouds":[{"cover":"FEW","base":1000},{"cover":"SCT","base":10000}],"obsTime":1782518400},"SBSN":{"icaoId":"SBSN","flightCategory":"VFR","rawOb":"METAR SBSN 270000Z 11004KT CAVOK 28/25 Q1014","temp":28,"dewp":25,"wdir":110,"wspd":4,"visib":"6+","altim":1014,"clouds":[],"obsTime":1782518400},"SBFL":{"icaoId":"SBFL","flightCategory":"VFR","rawOb":"METAR SBFL 270000Z 34005KT 9999 FEW046 16/14 Q1024","temp":16,"dewp":14,"wdir":340,"wspd":5,"visib":"6+","altim":1024,"clouds":[{"cover":"FEW","base":4600}],"obsTime":1782518400},"SBRF":{"icaoId":"SBRF","flightCategory":"MVFR","rawOb":"METAR SBRF 270000Z 12007KT 9999 SCT015 BKN021 OVC050 26/24 Q1017","temp":26,"dewp":24,"wdir":120,"wspd":7,"visib":"6+","altim":1017,"clouds":[{"cover":"SCT","base":1500},{"cover":"BKN","base":2100},{"cover":"OVC","base":5000}],"obsTime":1782518400},"SBPA":{"icaoId":"SBPA","flightCategory":"VFR","rawOb":"METAR SBPA 270000Z 09006KT CAVOK 12/08 Q1024","temp":12,"dewp":8,"wdir":90,"wspd":6,"visib":"6+","altim":1024,"clouds":[],"obsTime":1782518400},"SBLO":{"icaoId":"SBLO","flightCategory":"VFR","rawOb":"METAR SBLO 270000Z 18003KT 9999 VCTS FEW030CB BKN070 16/15 Q1024","temp":16,"dewp":15,"wdir":180,"wspd":3,"visib":"6+","altim":1024,"clouds":[{"cover":"FEW","base":3000},{"cover":"BKN","base":7000}],"obsTime":1782518400},"SBGL":{"icaoId":"SBGL","flightCategory":"IFR","rawOb":"METAR SBGL 270000Z 24003KT 2000 R10/1500N R28/P2000 R15/P2000 R33/P2000 BR BKN017 OVC070 21/20 Q1024","temp":21,"dewp":20,"wdir":240,"wspd":3,"visib":1.24,"altim":1024,"clouds":[{"cover":"BKN","base":1700},{"cover":"OVC","base":7000}],"obsTime":1782518400},"SBMG":{"icaoId":"SBMG","flightCategory":"VFR","rawOb":"METAR SBMG 270000Z 10007KT 9999 TS VCSH FEW030 FEW040CB OVC070 17/15 Q1022","temp":17,"dewp":15,"wdir":100,"wspd":7,"visib":"6+","altim":1022,"clouds":[{"cover":"FEW","base":3000},{"cover":"FEW","base":4000},{"cover":"OVC","base":7000}],"obsTime":1782518400},"SBIL":{"icaoId":"SBIL","flightCategory":"MVFR","rawOb":"METAR SBIL 270000Z 15010KT 9999 BKN020 27/22 Q1022","temp":27,"dewp":22,"wdir":150,"wspd":10,"visib":"6+","altim":1022,"clouds":[{"cover":"BKN","base":2000}],"obsTime":1782518400},"SBJU":{"icaoId":"SBJU","flightCategory":"MVFR","rawOb":"METAR SBJU 270000Z 00000KT 9999 BKN020 23/22 Q1020","temp":23,"dewp":22,"wdir":0,"wspd":0,"visib":"6+","altim":1020,"clouds":[{"cover":"BKN","base":2000}],"obsTime":1782518400},"SBME":{"icaoId":"SBME","flightCategory":"VFR","rawOb":"METAR SBME 270000Z 05008KT 9999 FEW040 23/21 Q1024","temp":23,"dewp":21,"wdir":50,"wspd":8,"visib":"6+","altim":1024,"clouds":[{"cover":"FEW","base":4000}],"obsTime":1782518400},"SBMK":{"icaoId":"SBMK","flightCategory":"VFR","rawOb":"METAR SBMK 270000Z 00000KT CAVOK 20/16 Q1024","temp":20,"dewp":16,"wdir":0,"wspd":0,"visib":"6+","altim":1024,"clouds":[],"obsTime":1782518400},"SBRB":{"icaoId":"SBRB","flightCategory":"VFR","rawOb":"METAR SBRB 270000Z 19003KT 9999 SCT020 SCT100 23/20 Q1016","temp":23,"dewp":20,"wdir":190,"wspd":3,"visib":"6+","altim":1016,"clouds":[{"cover":"SCT","base":2000},{"cover":"SCT","base":10000}],"obsTime":1782518400},"SBSP":{"icaoId":"SBSP","flightCategory":"LIFR","rawOb":"METAR SBSP 270000Z 21006KT 0100 R35/0400N R17/0450D FG VV001 15/15 Q1027","temp":15,"dewp":15,"wdir":210,"wspd":6,"visib":0.06,"altim":1027,"clouds":[{"cover":"OVX","base":100}],"obsTime":1782518400},"SBUL":{"icaoId":"SBUL","flightCategory":"VFR","rawOb":"METAR SBUL 270000Z 14007KT CAVOK 19/16 Q1025","temp":19,"dewp":16,"wdir":140,"wspd":7,"visib":"6+","altim":1025,"clouds":[],"obsTime":1782518400},"SBUR":{"icaoId":"SBUR","flightCategory":"VFR","rawOb":"METAR SBUR 270000Z 11003KT CAVOK 19/16 Q1024","temp":19,"dewp":16,"wdir":110,"wspd":3,"visib":"6+","altim":1024,"clouds":[],"obsTime":1782518400},"SBBR":{"icaoId":"SBBR","flightCategory":"VFR","rawOb":"METAR SBBR 270000Z 12005KT 070V150 CAVOK 20/12 Q1025","temp":20,"dewp":12,"wdir":120,"wspd":5,"visib":"6+","altim":1025,"clouds":[],"obsTime":1782518400},"SBCG":{"icaoId":"SBCG","flightCategory":"VFR","rawOb":"METAR SBCG 270000Z 08007KT CAVOK 21/17 Q1020","temp":21,"dewp":17,"wdir":80,"wspd":7,"visib":"6+","altim":1020,"clouds":[],"obsTime":1782518400},"SBBV":{"icaoId":"SBBV","flightCategory":"VFR","rawOb":"METAR SBBV 270000Z 21002KT 9999 FEW030 FEW040TCU SCT090 26/25 Q1014","temp":26,"dewp":25,"wdir":210,"wspd":2,"visib":"6+","altim":1014,"clouds":[{"cover":"FEW","base":3000},{"cover":"FEW","base":4000},{"cover":"SCT","base":9000}],"obsTime":1782518400},"SBGO":{"icaoId":"SBGO","flightCategory":"VFR","rawOb":"METAR SBGO 270000Z 10007KT CAVOK 22/15 Q1023","temp":22,"dewp":15,"wdir":100,"wspd":7,"visib":"6+","altim":1023,"clouds":[],"obsTime":1782518400},"SBMQ":{"icaoId":"SBMQ","flightCategory":"VFR","rawOb":"METAR SBMQ 270000Z 36002KT 9999 SCT027 27/25 Q1014","temp":27,"dewp":25,"wdir":360,"wspd":2,"visib":"6+","altim":1014,"clouds":[{"cover":"SCT","base":2700}],"obsTime":1782518400},"SBNT":{"icaoId":"SBNT","flightCategory":"VFR","rawOb":"METAR SBNT 270000Z 18002KT 9999 FEW020 SCT050 23/23 Q1017","temp":23,"dewp":23,"wdir":180,"wspd":2,"visib":"6+","altim":1017,"clouds":[{"cover":"FEW","base":2000},{"cover":"SCT","base":5000}],"obsTime":1782518400},"SBMO":{"icaoId":"SBMO","flightCategory":"MVFR","rawOb":"METAR SBMO 270000Z 13005KT 6000 -RA SCT008 BKN017 BKN070 24/24 Q1019","temp":24,"dewp":24,"wdir":130,"wspd":5,"visib":3.73,"altim":1019,"clouds":[{"cover":"SCT","base":800},{"cover":"BKN","base":1700},{"cover":"BKN","base":7000}],"obsTime":1782518400},"SBFZ":{"icaoId":"SBFZ","flightCategory":"VFR","rawOb":"METAR SBFZ 270000Z 10008KT 9999 FEW020 BKN070 27/23 Q1016","temp":27,"dewp":23,"wdir":100,"wspd":8,"visib":"6+","altim":1016,"clouds":[{"cover":"FEW","base":2000},{"cover":"BKN","base":7000}],"obsTime":1782518400},"SBCZ":{"icaoId":"SBCZ","flightCategory":"MVFR","rawOb":"METAR SBCZ 270000Z 15002KT 9999 BKN030 24/22 Q1016","temp":24,"dewp":22,"wdir":150,"wspd":2,"visib":"6+","altim":1016,"clouds":[{"cover":"BKN","base":3000}],"obsTime":1782518400},"SBTU":{"icaoId":"SBTU","flightCategory":"VFR","rawOb":"METAR SBTU 270100Z AUTO VRB02KT 9999 // NCD 26/22 Q1016","temp":26,"dewp":22,"wdir":"VRB","wspd":2,"visib":"6+","altim":1016,"clouds":[],"obsTime":1782522000},"SBPS":{"icaoId":"SBPS","flightCategory":"VFR","rawOb":"METAR SBPS 270000Z 11006KT 9999 FEW025 25/21 Q1023","temp":25,"dewp":21,"wdir":110,"wspd":6,"visib":"6+","altim":1023,"clouds":[{"cover":"FEW","base":2500}],"obsTime":1782518400},"SBAR":{"icaoId":"SBAR","flightCategory":"MVFR","rawOb":"METAR SBAR 270000Z 12010KT 7000 -RA BKN011 OVC020 26/23 Q1019","temp":26,"dewp":23,"wdir":120,"wspd":10,"visib":4.35,"altim":1019,"clouds":[{"cover":"BKN","base":1100},{"cover":"OVC","base":2000}],"obsTime":1782518400},"SBOI":{"icaoId":"SBOI","flightCategory":"VFR","rawOb":"METAR SBOI 270000Z AUTO 00000KT 9999 SCT019 25/24 Q1015","temp":25,"dewp":24,"wdir":0,"wspd":0,"visib":"6+","altim":1015,"clouds":[{"cover":"SCT","base":1900}],"obsTime":1782518400},"SBSJ":{"icaoId":"SBSJ","flightCategory":"VFR","rawOb":"METAR SBSJ 270000Z 14004KT CAVOK 16/15 Q1026","temp":16,"dewp":15,"wdir":140,"wspd":4,"visib":"6+","altim":1026,"clouds":[],"obsTime":1782518400},"SBPL":{"icaoId":"SBPL","flightCategory":"VFR","rawOb":"METAR SBPL 270000Z 10006KT 9999 FEW020 BKN070 24/21 Q1020","temp":24,"dewp":21,"wdir":100,"wspd":6,"visib":"6+","altim":1020,"clouds":[{"cover":"FEW","base":2000},{"cover":"BKN","base":7000}],"obsTime":1782518400},"SBCO":{"icaoId":"SBCO","flightCategory":"VFR","rawOb":"METAR SBCO 270000Z 10004KT CAVOK 08/06 Q1024","temp":8,"dewp":6,"wdir":100,"wspd":4,"visib":"6+","altim":1024,"clouds":[],"obsTime":1782518400},"SBSM":{"icaoId":"SBSM","flightCategory":"VFR","rawOb":"METAR SBSM 270000Z 08002KT CAVOK 07/07 Q1023","temp":7,"dewp":7,"wdir":80,"wspd":2,"visib":"6+","altim":1023,"clouds":[],"obsTime":1782518400},"SBKG":{"icaoId":"SBKG","flightCategory":"IFR","rawOb":"METAR SBKG 270000Z 10004KT 9999 BKN006 SCT070 22/21 Q1019","temp":22,"dewp":21,"wdir":100,"wspd":4,"visib":"6+","altim":1019,"clouds":[{"cover":"BKN","base":600},{"cover":"SCT","base":7000}],"obsTime":1782518400},"SBAX":{"icaoId":"SBAX","flightCategory":"VFR","rawOb":"METAR SBAX 270000Z 13010KT CAVOK 18/15 Q1026","temp":18,"dewp":15,"wdir":130,"wspd":10,"visib":"6+","altim":1026,"clouds":[],"obsTime":1782518400},"SBBH":{"icaoId":"SBBH","flightCategory":"VFR","rawOb":"METAR SBBH 270000Z 09004KT CAVOK 20/16 Q1027","temp":20,"dewp":16,"wdir":90,"wspd":4,"visib":"6+","altim":1027,"clouds":[],"obsTime":1782518400},"SBBU":{"icaoId":"SBBU","flightCategory":"MVFR","rawOb":"METAR SBBU 270000Z 11009KT 5000 BR NSC 18/17 Q1024","temp":18,"dewp":17,"wdir":110,"wspd":9,"visib":3.11,"altim":1024,"clouds":[],"obsTime":1782518400},"SBDN":{"icaoId":"SBDN","flightCategory":"VFR","rawOb":"METAR SBDN 270000Z 12008KT CAVOK 16/15 Q1022","temp":16,"dewp":15,"wdir":120,"wspd":8,"visib":"6+","altim":1022,"clouds":[],"obsTime":1782518400},"SBIP":{"icaoId":"SBIP","flightCategory":"VFR","rawOb":"METAR SBIP 270000Z AUTO 19002KT CAVOK 18/18 Q1024","temp":18,"dewp":18,"wdir":190,"wspd":2,"visib":"6+","altim":1024,"clouds":[],"obsTime":1782518400},"SBSC":{"icaoId":"SBSC","flightCategory":"MVFR","rawOb":"METAR SBSC 270000Z 28001KT 8000 SCT017 OVC100 20/19 Q1024","temp":20,"dewp":19,"wdir":280,"wspd":1,"visib":4.97,"altim":1024,"clouds":[{"cover":"SCT","base":1700},{"cover":"OVC","base":10000}],"obsTime":1782518400},"SBSR":{"icaoId":"SBSR","flightCategory":"VFR","rawOb":"METAR SBSR 270000Z 13004KT CAVOK 21/18 Q1023","temp":21,"dewp":18,"wdir":130,"wspd":4,"visib":"6+","altim":1023,"clouds":[],"obsTime":1782518400},"SBJP":{"icaoId":"SBJP","flightCategory":"MVFR","rawOb":"METAR SBJP 270000Z 12004KT 9999 -RA FEW010 BKN030 BKN100 24/23 Q1018","temp":24,"dewp":23,"wdir":120,"wspd":4,"visib":"6+","altim":1018,"clouds":[{"cover":"FEW","base":1000},{"cover":"BKN","base":3000},{"cover":"BKN","base":10000}],"obsTime":1782518400},"SBNM":{"icaoId":"SBNM","flightCategory":"VFR","rawOb":"METAR SBNM 270000Z AUTO 04008KT CAVOK 12/06 Q1022","temp":12,"dewp":6,"wdir":40,"wspd":8,"visib":"6+","altim":1022,"clouds":[],"obsTime":1782518400},"SBJV":{"icaoId":"SBJV","flightCategory":"VFR","rawOb":"METAR SBJV 270000Z 00000KT CAVOK 11/11 Q1025","temp":11,"dewp":11,"wdir":0,"wspd":0,"visib":"6+","altim":1025,"clouds":[],"obsTime":1782518400},"SBAN":{"icaoId":"SBAN","flightCategory":"VFR","rawOb":"METAR SBAN 270000Z 10007KT CAVOK 19/13 Q1025","temp":19,"dewp":13,"wdir":100,"wspd":7,"visib":"6+","altim":1025,"clouds":[],"obsTime":1782518400},"SBLE":{"icaoId":"SBLE","flightCategory":"MVFR","rawOb":"METAR SBLE 270000Z AUTO 18003KT 150V210 9999 FEW003 BKN016 ///// Q////","temp":null,"dewp":null,"wdir":180,"wspd":3,"visib":"6+","altim":null,"clouds":[{"cover":"FEW","base":300},{"cover":"BKN","base":1600}],"obsTime":1782518400},"SBLS":{"icaoId":"SBLS","flightCategory":"VFR","rawOb":"METAR SBLS 270000Z 17007KT CAVOK 19/15 Q1026","temp":19,"dewp":15,"wdir":170,"wspd":7,"visib":"6+","altim":1026,"clouds":[],"obsTime":1782518400},"SBMT":{"icaoId":"SBMT","flightCategory":"MVFR","rawOb":"METAR SBMT 270000Z 00000KT 6000 NSC 13/13 Q1026","temp":13,"dewp":13,"wdir":0,"wspd":0,"visib":3.73,"altim":1026,"clouds":[],"obsTime":1782518400},"SBTA":{"icaoId":"SBTA","flightCategory":"VFR","rawOb":"METAR SBTA 270000Z 10002KT 9999 SCT010 17/16 Q1025","temp":17,"dewp":16,"wdir":100,"wspd":2,"visib":"6+","altim":1025,"clouds":[{"cover":"SCT","base":1000}],"obsTime":1782518400},"SBJR":{"icaoId":"SBJR","flightCategory":"MVFR","rawOb":"METAR SBJR 270000Z 32001KT 6000 SCT030 BKN100 21/20 Q1024","temp":21,"dewp":20,"wdir":320,"wspd":1,"visib":3.73,"altim":1024,"clouds":[{"cover":"SCT","base":3000},{"cover":"BKN","base":10000}],"obsTime":1782518400},"SBIH":{"icaoId":"SBIH","flightCategory":"VFR","rawOb":"METAR SBIH 270000Z 00000KT 9999 TS FEW020 FEW025CB 28/26 Q1013","temp":28,"dewp":26,"wdir":0,"wspd":0,"visib":"6+","altim":1013,"clouds":[{"cover":"FEW","base":2000},{"cover":"FEW","base":2500}],"obsTime":1782518400}}}