{"updated":1779572490,"count":85,"data":{"SBKP":{"icaoId":"SBKP","flightCategory":"VFR","rawOb":"METAR SBKP 232000Z 21006KT 9999 FEW019 BKN035 21/19 Q1022","temp":21,"dewp":19,"wdir":210,"wspd":6,"visib":"6+","altim":1022,"clouds":[{"cover":"FEW","base":1900},{"cover":"BKN","base":3500}],"obsTime":1779566400},"SBAT":{"icaoId":"SBAT","flightCategory":"VFR","rawOb":"METAR SBAT 232000Z 17003KT 9999 SCT035 32/21 Q1013","temp":32,"dewp":21,"wdir":170,"wspd":3,"visib":"6+","altim":1013,"clouds":[{"cover":"SCT","base":3500}],"obsTime":1779566400},"SBBE":{"icaoId":"SBBE","flightCategory":"MVFR","rawOb":"METAR SBBE 232000Z 35003KT 9999 2000N -RA FEW022TCU BKN025 BKN070 28/24 Q1011","temp":28,"dewp":24,"wdir":350,"wspd":3,"visib":"6+","altim":1011,"clouds":[{"cover":"FEW","base":2200},{"cover":"BKN","base":2500},{"cover":"BKN","base":7000}],"obsTime":1779566400},"SBPV":{"icaoId":"SBPV","flightCategory":"VFR","rawOb":"METAR SBPV 232000Z VRB02KT 9999 BKN033 SCT070 27/22 Q1014","temp":27,"dewp":22,"wdir":"VRB","wspd":2,"visib":"6+","altim":1014,"clouds":[{"cover":"BKN","base":3300},{"cover":"SCT","base":7000}],"obsTime":1779566400},"SBBR":{"icaoId":"SBBR","flightCategory":"VFR","rawOb":"METAR SBBR 232000Z 11011KT 9999 SCT030 SCT070 22/16 Q1022","temp":22,"dewp":16,"wdir":110,"wspd":11,"visib":"6+","altim":1022,"clouds":[{"cover":"SCT","base":3000},{"cover":"SCT","base":7000}],"obsTime":1779566400},"SBBV":{"icaoId":"SBBV","flightCategory":"VFR","rawOb":"METAR SBBV 232000Z 33003KT 9999 VCSH SCT040 FEW045TCU BKN100 26/24 Q1011","temp":26,"dewp":24,"wdir":330,"wspd":3,"visib":"6+","altim":1011,"clouds":[{"cover":"SCT","base":4000},{"cover":"FEW","base":4500},{"cover":"BKN","base":10000}],"obsTime":1779566400},"SBCB":{"icaoId":"SBCB","flightCategory":"VFR","rawOb":"METAR SBCB 232000Z 04012KT 9999 FEW025 SCT080 23/18 Q1021","temp":23,"dewp":18,"wdir":40,"wspd":12,"visib":"6+","altim":1021,"clouds":[{"cover":"FEW","base":2500},{"cover":"SCT","base":8000}],"obsTime":1779566400},"SBCF":{"icaoId":"SBCF","flightCategory":"MVFR","rawOb":"METAR SBCF 232000Z 12008KT 9999 BKN030 21/16 Q1024","temp":21,"dewp":16,"wdir":120,"wspd":8,"visib":"6+","altim":1024,"clouds":[{"cover":"BKN","base":3000}],"obsTime":1779566400},"SBCG":{"icaoId":"SBCG","flightCategory":"MVFR","rawOb":"METAR SBCG 232000Z 19005KT 9999 BKN030 23/18 Q1019","temp":23,"dewp":18,"wdir":190,"wspd":5,"visib":"6+","altim":1019,"clouds":[{"cover":"BKN","base":3000}],"obsTime":1779566400},"SBCP":{"icaoId":"SBCP","flightCategory":"MVFR","rawOb":"METAR SBCP 232000Z 08007KT 9999 FEW015 BKN030 22/19 Q1022","temp":22,"dewp":19,"wdir":80,"wspd":7,"visib":"6+","altim":1022,"clouds":[{"cover":"FEW","base":1500},{"cover":"BKN","base":3000}],"obsTime":1779566400},"SBCR":{"icaoId":"SBCR","flightCategory":"VFR","rawOb":"METAR SBCR 232000Z 23007KT 190V270 CAVOK 22/15 Q1018","temp":22,"dewp":15,"wdir":230,"wspd":7,"visib":"6+","altim":1018,"clouds":[],"obsTime":1779566400},"SBCT":{"icaoId":"SBCT","flightCategory":"MVFR","rawOb":"METAR SBCT 232000Z 09004KT 040V120 8000 SCT008 OVC011 16/15 Q1023","temp":16,"dewp":15,"wdir":90,"wspd":4,"visib":4.97,"altim":1023,"clouds":[{"cover":"SCT","base":800},{"cover":"OVC","base":1100}],"obsTime":1779566400},"SBCZ":{"icaoId":"SBCZ","flightCategory":"VFR","rawOb":"METAR SBCZ 232000Z 15008KT 9999 SCT030 BKN100 24/20 Q1016","temp":24,"dewp":20,"wdir":150,"wspd":8,"visib":"6+","altim":1016,"clouds":[{"cover":"SCT","base":3000},{"cover":"BKN","base":10000}],"obsTime":1779566400},"SBEG":{"icaoId":"SBEG","flightCategory":"VFR","rawOb":"METAR SBEG 232000Z 19005KT 9999 SCT025 FEW030TCU SCT100 29/24 Q1012","temp":29,"dewp":24,"wdir":190,"wspd":5,"visib":"6+","altim":1012,"clouds":[{"cover":"SCT","base":2500},{"cover":"FEW","base":3000},{"cover":"SCT","base":10000}],"obsTime":1779566400},"SBFI":{"icaoId":"SBFI","flightCategory":"MVFR","rawOb":"METAR SBFI 232000Z 18002KT 9999 SCT012 OVC017 17/15 Q1021","temp":17,"dewp":15,"wdir":180,"wspd":2,"visib":"6+","altim":1021,"clouds":[{"cover":"SCT","base":1200},{"cover":"OVC","base":1700}],"obsTime":1779566400},"SBFL":{"icaoId":"SBFL","flightCategory":"IFR","rawOb":"METAR SBFL 232000Z 08002KT 2500 -RA BR SCT003 BKN006 OVC020 16/16 Q1022 REDZ","temp":16,"dewp":16,"wdir":80,"wspd":2,"visib":1.55,"altim":1022,"clouds":[{"cover":"SCT","base":300},{"cover":"BKN","base":600},{"cover":"OVC","base":2000}],"obsTime":1779566400},"SBFZ":{"icaoId":"SBFZ","flightCategory":"VFR","rawOb":"METAR SBFZ 232000Z 13010KT 9999 SCT030 28/23 Q1012","temp":28,"dewp":23,"wdir":130,"wspd":10,"visib":"6+","altim":1012,"clouds":[{"cover":"SCT","base":3000}],"obsTime":1779566400},"SBGL":{"icaoId":"SBGL","flightCategory":"VFR","rawOb":"METAR SBGL 232000Z 16005KT 9999 FEW025 SCT050 24/19 Q1020","temp":24,"dewp":19,"wdir":160,"wspd":5,"visib":"6+","altim":1020,"clouds":[{"cover":"FEW","base":2500},{"cover":"SCT","base":5000}],"obsTime":1779566400},"SBGO":{"icaoId":"SBGO","flightCategory":"VFR","rawOb":"METAR SBGO 232000Z 08009KT 9999 FEW040 26/17 Q1020","temp":26,"dewp":17,"wdir":80,"wspd":9,"visib":"6+","altim":1020,"clouds":[{"cover":"FEW","base":4000}],"obsTime":1779566400},"SBGR":{"icaoId":"SBGR","flightCategory":"IFR","rawOb":"SPECI SBGR 231945Z 16002KT 3000 RA BR OVC010 17/17 Q1023","temp":17,"dewp":17,"wdir":160,"wspd":2,"visib":1.86,"altim":1023,"clouds":[{"cover":"OVC","base":1000}],"obsTime":1779565500},"SBHT":{"icaoId":"SBHT","flightCategory":"VFR","rawOb":"METAR SBHT 232000Z 06002KT 9999 FEW030 SCT100 30/26 Q1011","temp":30,"dewp":26,"wdir":60,"wspd":2,"visib":"6+","altim":1011,"clouds":[{"cover":"FEW","base":3000},{"cover":"SCT","base":10000}],"obsTime":1779566400},"SBIL":{"icaoId":"SBIL","flightCategory":"VFR","rawOb":"METAR SBIL 232000Z 17012KT 9999 SCT020 BKN070 26/24 Q1018","temp":26,"dewp":24,"wdir":170,"wspd":12,"visib":"6+","altim":1018,"clouds":[{"cover":"SCT","base":2000},{"cover":"BKN","base":7000}],"obsTime":1779566400},"SBJU":{"icaoId":"SBJU","flightCategory":"VFR","rawOb":"METAR SBJU 232000Z 17015KT 9999 SCT022 28/21 Q1015","temp":28,"dewp":21,"wdir":170,"wspd":15,"visib":"6+","altim":1015,"clouds":[{"cover":"SCT","base":2200}],"obsTime":1779566400},"SBLO":{"icaoId":"SBLO","flightCategory":"VFR","rawOb":"METAR SBLO 232000Z 09005KT CAVOK 20/18 Q1020","temp":20,"dewp":18,"wdir":90,"wspd":5,"visib":"6+","altim":1020,"clouds":[],"obsTime":1779566400},"SBMA":{"icaoId":"SBMA","flightCategory":"VFR","rawOb":"METAR SBMA 232000Z 06006KT 9999 FEW025 32/21 Q1011","temp":32,"dewp":21,"wdir":60,"wspd":6,"visib":"6+","altim":1011,"clouds":[{"cover":"FEW","base":2500}],"obsTime":1779566400},"SBME":{"icaoId":"SBME","flightCategory":"VFR","rawOb":"METAR SBME 232000Z 04010KT 9999 BKN033 SCT080 23/19 Q1021","temp":23,"dewp":19,"wdir":40,"wspd":10,"visib":"6+","altim":1021,"clouds":[{"cover":"BKN","base":3300},{"cover":"SCT","base":8000}],"obsTime":1779566400},"SBMG":{"icaoId":"SBMG","flightCategory":"VFR","rawOb":"METAR SBMG 232000Z 17006KT 9999 SCT033 BKN045 BKN090 22/18 Q1019","temp":22,"dewp":18,"wdir":170,"wspd":6,"visib":"6+","altim":1019,"clouds":[{"cover":"SCT","base":3300},{"cover":"BKN","base":4500},{"cover":"BKN","base":9000}],"obsTime":1779566400},"SBMK":{"icaoId":"SBMK","flightCategory":"VFR","rawOb":"METAR SBMK 232000Z 15005KT 9999 SCT018 BKN040 OVC080 24/18 Q1021","temp":24,"dewp":18,"wdir":150,"wspd":5,"visib":"6+","altim":1021,"clouds":[{"cover":"SCT","base":1800},{"cover":"BKN","base":4000},{"cover":"OVC","base":8000}],"obsTime":1779566400},"SBMO":{"icaoId":"SBMO","flightCategory":"MVFR","rawOb":"METAR SBMO 232000Z 16001KT 6000 -RA FEW015 BKN025 25/23 Q1015","temp":25,"dewp":23,"wdir":160,"wspd":1,"visib":3.73,"altim":1015,"clouds":[{"cover":"FEW","base":1500},{"cover":"BKN","base":2500}],"obsTime":1779566400},"SBMQ":{"icaoId":"SBMQ","flightCategory":"VFR","rawOb":"METAR SBMQ 232000Z 35005KT 9999 SCT019 SCT088 29/25 Q1012","temp":29,"dewp":25,"wdir":350,"wspd":5,"visib":"6+","altim":1012,"clouds":[{"cover":"SCT","base":1900},{"cover":"SCT","base":8800}],"obsTime":1779566400},"SBNT":{"icaoId":"SBNT","flightCategory":"VFR","rawOb":"METAR SBNT 232000Z 13013KT 9999 FEW026 28/22 Q1013","temp":28,"dewp":22,"wdir":130,"wspd":13,"visib":"6+","altim":1013,"clouds":[{"cover":"FEW","base":2600}],"obsTime":1779566400},"SBPA":{"icaoId":"SBPA","flightCategory":"IFR","rawOb":"METAR SBPA 232000Z 10010KT 9999 BKN009 SCT040 BKN080 15/14 Q1023","temp":15,"dewp":14,"wdir":100,"wspd":10,"visib":"6+","altim":1023,"clouds":[{"cover":"BKN","base":900},{"cover":"SCT","base":4000},{"cover":"BKN","base":8000}],"obsTime":1779566400},"SBPJ":{"icaoId":"SBPJ","flightCategory":"VFR","rawOb":"METAR SBPJ 232000Z 12007KT 9999 FEW045 33/18 Q1013","temp":33,"dewp":18,"wdir":120,"wspd":7,"visib":"6+","altim":1013,"clouds":[{"cover":"FEW","base":4500}],"obsTime":1779566400},"SBRB":{"icaoId":"SBRB","flightCategory":"MVFR","rawOb":"METAR SBRB 232000Z 18005KT 9999 BKN027 24/18 Q1016","temp":24,"dewp":18,"wdir":180,"wspd":5,"visib":"6+","altim":1016,"clouds":[{"cover":"BKN","base":2700}],"obsTime":1779566400},"SBRF":{"icaoId":"SBRF","flightCategory":"VFR","rawOb":"METAR SBRF 232000Z 17010KT 9999 SCT025 27/23 Q1014","temp":27,"dewp":23,"wdir":170,"wspd":10,"visib":"6+","altim":1014,"clouds":[{"cover":"SCT","base":2500}],"obsTime":1779566400},"SBSG":{"icaoId":"SBSG","flightCategory":"VFR","rawOb":"METAR SBSG 232000Z 13008KT 090V170 9999 FEW030 27/22 Q1013","temp":27,"dewp":22,"wdir":130,"wspd":8,"visib":"6+","altim":1013,"clouds":[{"cover":"FEW","base":3000}],"obsTime":1779566400},"SBSL":{"icaoId":"SBSL","flightCategory":"VFR","rawOb":"METAR SBSL 232000Z 03005KT 9999 SCT030 SCT090 28/25 Q1011","temp":28,"dewp":25,"wdir":30,"wspd":5,"visib":"6+","altim":1011,"clouds":[{"cover":"SCT","base":3000},{"cover":"SCT","base":9000}],"obsTime":1779566400},"SBSN":{"icaoId":"SBSN","flightCategory":"VFR","rawOb":"METAR SBSN 232000Z 11006KT 9000 -RA FEW025TCU BKN070 26/24 Q1011 RETS","temp":26,"dewp":24,"wdir":110,"wspd":6,"visib":5.59,"altim":1011,"clouds":[{"cover":"FEW","base":2500},{"cover":"BKN","base":7000}],"obsTime":1779566400},"SBSP":{"icaoId":"SBSP","flightCategory":"IFR","rawOb":"METAR SBSP 232000Z 09004KT 060V120 8000 -RA BKN006 16/16 Q1024","temp":16,"dewp":16,"wdir":90,"wspd":4,"visib":4.97,"altim":1024,"clouds":[{"cover":"BKN","base":600}],"obsTime":1779566400},"SBSV":{"icaoId":"SBSV","flightCategory":"VFR","rawOb":"METAR SBSV 232000Z 13011KT 9999 SCT021 FEW025TCU SCT050 27/23 Q1016","temp":27,"dewp":23,"wdir":130,"wspd":11,"visib":"6+","altim":1016,"clouds":[{"cover":"SCT","base":2100},{"cover":"FEW","base":2500},{"cover":"SCT","base":5000}],"obsTime":1779566400},"SBTE":{"icaoId":"SBTE","flightCategory":"VFR","rawOb":"METAR SBTE 232000Z 11006KT 9999 FEW025 32/21 Q1010","temp":32,"dewp":21,"wdir":110,"wspd":6,"visib":"6+","altim":1010,"clouds":[{"cover":"FEW","base":2500}],"obsTime":1779566400},"SBUL":{"icaoId":"SBUL","flightCategory":"VFR","rawOb":"METAR SBUL 232000Z 07006KT 030V090 9999 SCT040 23/16 Q1022","temp":23,"dewp":16,"wdir":70,"wspd":6,"visib":"6+","altim":1022,"clouds":[{"cover":"SCT","base":4000}],"obsTime":1779566400},"SBUR":{"icaoId":"SBUR","flightCategory":"VFR","rawOb":"METAR SBUR 232000Z 01005KT 9999 FEW045 SCT100 26/16 Q1021","temp":26,"dewp":16,"wdir":10,"wspd":5,"visib":"6+","altim":1021,"clouds":[{"cover":"FEW","base":4500},{"cover":"SCT","base":10000}],"obsTime":1779566400},"SBVT":{"icaoId":"SBVT","flightCategory":"VFR","rawOb":"METAR SBVT 232000Z 18003KT 9999 VCSH FEW018 SCT024 BKN036 23/20 Q1021","temp":23,"dewp":20,"wdir":180,"wspd":3,"visib":"6+","altim":1021,"clouds":[{"cover":"FEW","base":1800},{"cover":"SCT","base":2400},{"cover":"BKN","base":3600}],"obsTime":1779566400},"SBCJ":{"icaoId":"SBCJ","flightCategory":"VFR","rawOb":"METAR SBCJ 232000Z 15005KT CAVOK 28/20 Q1016","temp":28,"dewp":20,"wdir":150,"wspd":5,"visib":"6+","altim":1016,"clouds":[],"obsTime":1779566400},"SBSJ":{"icaoId":"SBSJ","flightCategory":"MVFR","rawOb":"METAR SBSJ 232000Z 15004KT 8000 SCT033 21/16 Q1022","temp":21,"dewp":16,"wdir":150,"wspd":4,"visib":4.97,"altim":1022,"clouds":[{"cover":"SCT","base":3300}],"obsTime":1779566400},"SBBU":{"icaoId":"SBBU","flightCategory":"MVFR","rawOb":"METAR SBBU 232000Z 15005KT 7000 2000SE SCT003 OVC012 20/20 Q1020 RETS","temp":20,"dewp":20,"wdir":150,"wspd":5,"visib":4.35,"altim":1020,"clouds":[{"cover":"SCT","base":300},{"cover":"OVC","base":1200}],"obsTime":1779566400},"SBPL":{"icaoId":"SBPL","flightCategory":"VFR","rawOb":"METAR SBPL 232000Z 09008KT 9999 FEW040 31/15 Q1014","temp":31,"dewp":15,"wdir":90,"wspd":8,"visib":"6+","altim":1014,"clouds":[{"cover":"FEW","base":4000}],"obsTime":1779566400},"SBCO":{"icaoId":"SBCO","flightCategory":"MVFR","rawOb":"METAR SBCO 232000Z 10010KT 9000 SCT014 BKN030 BKN070 15/14 Q1024","temp":15,"dewp":14,"wdir":100,"wspd":10,"visib":5.59,"altim":1024,"clouds":[{"cover":"SCT","base":1400},{"cover":"BKN","base":3000},{"cover":"BKN","base":7000}],"obsTime":1779566400},"SBPP":{"icaoId":"SBPP","flightCategory":"MVFR","rawOb":"METAR SBPP 232000Z COR 05002KT 9999 BKN015 BKN070 18/16 Q1020","temp":18,"dewp":16,"wdir":50,"wspd":2,"visib":"6+","altim":1020,"clouds":[{"cover":"BKN","base":1500},{"cover":"BKN","base":7000}],"obsTime":1779566400},"SBCA":{"icaoId":"SBCA","flightCategory":"LIFR","rawOb":"METAR SBCA 232000Z 20002KT 0500 0200W -DZ FG OVC001 15/15 Q1022","temp":15,"dewp":15,"wdir":200,"wspd":2,"visib":0.31,"altim":1022,"clouds":[{"cover":"OVC","base":100}],"obsTime":1779566400},"SBPS":{"icaoId":"SBPS","flightCategory":"MVFR","rawOb":"METAR SBPS 232000Z 14006KT 080V180 9999 BKN025 OVC070 26/21 Q1018","temp":26,"dewp":21,"wdir":140,"wspd":6,"visib":"6+","altim":1018,"clouds":[{"cover":"BKN","base":2500},{"cover":"OVC","base":7000}],"obsTime":1779566400},"SBDN":{"icaoId":"SBDN","flightCategory":"MVFR","rawOb":"METAR SBDN 232000Z 08002KT 6000 BKN043 FEW060TCU 20/19 Q1020 RETS","temp":20,"dewp":19,"wdir":80,"wspd":2,"visib":3.73,"altim":1020,"clouds":[{"cover":"BKN","base":4300},{"cover":"FEW","base":6000}],"obsTime":1779566400},"SBSC":{"icaoId":"SBSC","flightCategory":"VFR","rawOb":"METAR SBSC 232000Z 00000KT 9999 FEW020 SCT050 BKN083 23/19 Q1020","temp":23,"dewp":19,"wdir":0,"wspd":0,"visib":"6+","altim":1020,"clouds":[{"cover":"FEW","base":2000},{"cover":"SCT","base":5000},{"cover":"BKN","base":8300}],"obsTime":1779566400},"SBBH":{"icaoId":"SBBH","flightCategory":"VFR","rawOb":"METAR SBBH 232000Z 10007KT 9999 BKN033 22/15 Q1023","temp":22,"dewp":15,"wdir":100,"wspd":7,"visib":"6+","altim":1023,"clouds":[{"cover":"BKN","base":3300}],"obsTime":1779566400},"SBES":{"icaoId":"SBES","flightCategory":"VFR","rawOb":"METAR SBES 232000Z VRB11KT CAVOK 22/// Q1021","temp":null,"dewp":null,"wdir":"VRB","wspd":11,"visib":"6+","altim":1021,"clouds":[],"obsTime":1779566400},"SBSM":{"icaoId":"SBSM","flightCategory":"VFR","rawOb":"METAR SBSM 232000Z 11004KT CAVOK 17/12 Q1023","temp":17,"dewp":12,"wdir":110,"wspd":4,"visib":"6+","altim":1023,"clouds":[],"obsTime":1779566400},"SBAX":{"icaoId":"SBAX","flightCategory":"VFR","rawOb":"METAR SBAX 232000Z AUTO VRB02KT CAVOK 22/16 Q1022","temp":22,"dewp":16,"wdir":"VRB","wspd":2,"visib":"6+","altim":1022,"clouds":[],"obsTime":1779566400},"SBSR":{"icaoId":"SBSR","flightCategory":"VFR","rawOb":"METAR SBSR 232000Z 05002KT 9999 SCT035 28/16 Q1019","temp":28,"dewp":16,"wdir":50,"wspd":2,"visib":"6+","altim":1019,"clouds":[{"cover":"SCT","base":3500}],"obsTime":1779566400},"SBIP":{"icaoId":"SBIP","flightCategory":"VFR","rawOb":"METAR SBIP 232000Z AUTO 33002KT 9999 OVC049 23/19 Q1021","temp":23,"dewp":19,"wdir":330,"wspd":2,"visib":"6+","altim":1021,"clouds":[{"cover":"OVC","base":4900}],"obsTime":1779566400},"SBTF":{"icaoId":"SBTF","flightCategory":"MVFR","rawOb":"METAR SBTF 232000Z 25004KT 9999 FEW007 BKN015 OVC100 25/23 Q1013","temp":25,"dewp":23,"wdir":250,"wspd":4,"visib":"6+","altim":1013,"clouds":[{"cover":"FEW","base":700},{"cover":"BKN","base":1500},{"cover":"OVC","base":10000}],"obsTime":1779566400},"SBAR":{"icaoId":"SBAR","flightCategory":"VFR","rawOb":"METAR SBAR 232000Z 12010KT 9999 FEW025 SCT060 27/23 Q1015","temp":27,"dewp":23,"wdir":120,"wspd":10,"visib":"6+","altim":1015,"clouds":[{"cover":"FEW","base":2500},{"cover":"SCT","base":6000}],"obsTime":1779566400},"SBTT":{"icaoId":"SBTT","flightCategory":"VFR","rawOb":"METAR SBTT 232000Z 21005KT 9999 FEW024 BKN050 25/21 Q1015","temp":25,"dewp":21,"wdir":210,"wspd":5,"visib":"6+","altim":1015,"clouds":[{"cover":"FEW","base":2400},{"cover":"BKN","base":5000}],"obsTime":1779566400},"SBKG":{"icaoId":"SBKG","flightCategory":"VFR","rawOb":"METAR SBKG 232000Z 13008KT 9999 FEW020 24/20 Q1016","temp":24,"dewp":20,"wdir":130,"wspd":8,"visib":"6+","altim":1016,"clouds":[{"cover":"FEW","base":2000}],"obsTime":1779566400},"SBTU":{"icaoId":"SBTU","flightCategory":"VFR","rawOb":"METAR SBTU 232000Z AUTO 35004KT 9999 // SCT033/// BKN058/// 28/23 Q1013","temp":28,"dewp":23,"wdir":350,"wspd":4,"visib":"6+","altim":1013,"clouds":[{"cover":"SCT","base":3300},{"cover":"BKN","base":5800}],"obsTime":1779566400},"SBUY":{"icaoId":"SBUY","flightCategory":"MVFR","rawOb":"METAR SBUY 232000Z 19005KT 9999 BKN025 BKN100 24/21 Q1013","temp":24,"dewp":21,"wdir":190,"wspd":5,"visib":"6+","altim":1013,"clouds":[{"cover":"BKN","base":2500},{"cover":"BKN","base":10000}],"obsTime":1779566400},"SBOI":{"icaoId":"SBOI","flightCategory":"VFR","rawOb":"METAR SBOI 232000Z AUTO VRB01KT 9999 FEW013 27/24 Q1012","temp":27,"dewp":24,"wdir":"VRB","wspd":1,"visib":"6+","altim":1012,"clouds":[{"cover":"FEW","base":1300}],"obsTime":1779566400},"SBVH":{"icaoId":"SBVH","flightCategory":"VFR","rawOb":"METAR SBVH 232000Z 11008KT 9999 SCT030 26/20 Q1017","temp":26,"dewp":20,"wdir":110,"wspd":8,"visib":"6+","altim":1017,"clouds":[{"cover":"SCT","base":3000}],"obsTime":1779566400},"SBPB":{"icaoId":"SBPB","flightCategory":"VFR","rawOb":"METAR SBPB 232000Z 04004KT 9999 FEW020 BKN100 30/25 Q1011","temp":30,"dewp":25,"wdir":40,"wspd":4,"visib":"6+","altim":1011,"clouds":[{"cover":"FEW","base":2000},{"cover":"BKN","base":10000}],"obsTime":1779566400},"SBBQ":{"icaoId":"SBBQ","flightCategory":"VFR","rawOb":"METAR SBBQ 232000Z 07005KT 9999 FEW030 19/15 Q1026","temp":19,"dewp":15,"wdir":70,"wspd":5,"visib":"6+","altim":1026,"clouds":[{"cover":"FEW","base":3000}],"obsTime":1779566400},"SBCC":{"icaoId":"SBCC","flightCategory":"VFR","rawOb":"METAR SBCC 232000Z 11008KT 9999 SCT030 29/19 Q1014","temp":29,"dewp":19,"wdir":110,"wspd":8,"visib":"6+","altim":1014,"clouds":[{"cover":"SCT","base":3000}],"obsTime":1779566400},"SBJP":{"icaoId":"SBJP","flightCategory":"VFR","rawOb":"METAR SBJP 232000Z 14008KT 9999 FEW030 27/22 Q1014","temp":27,"dewp":22,"wdir":140,"wspd":8,"visib":"6+","altim":1014,"clouds":[{"cover":"FEW","base":3000}],"obsTime":1779566400},"SBAF":{"icaoId":"SBAF","flightCategory":"VFR","rawOb":"METAR SBAF 232000Z 20005KT 9999 SCT045 23/22 Q1020","temp":23,"dewp":22,"wdir":200,"wspd":5,"visib":"6+","altim":1020,"clouds":[{"cover":"SCT","base":4500}],"obsTime":1779566400},"SBGW":{"icaoId":"SBGW","flightCategory":"VFR","rawOb":"METAR SBGW 232000Z 01004KT 330V040 9999 SCT029 BKN080 21/14 Q1022","temp":21,"dewp":14,"wdir":10,"wspd":4,"visib":"6+","altim":1022,"clouds":[{"cover":"SCT","base":2900},{"cover":"BKN","base":8000}],"obsTime":1779566400},"SBJR":{"icaoId":"SBJR","flightCategory":"VFR","rawOb":"METAR SBJR 232000Z 29001KT 9999 FEW035 BKN090 23/20 Q1020","temp":23,"dewp":20,"wdir":290,"wspd":1,"visib":"6+","altim":1020,"clouds":[{"cover":"FEW","base":3500},{"cover":"BKN","base":9000}],"obsTime":1779566400},"SBLE":{"icaoId":"SBLE","flightCategory":"VFR","rawOb":"METAR SBLE 232000Z AUTO VRB02KT 9999 OVC031 ///// Q////","temp":null,"dewp":null,"wdir":"VRB","wspd":2,"visib":"6+","altim":null,"clouds":[{"cover":"OVC","base":3100}],"obsTime":1779566400},"SBLS":{"icaoId":"SBLS","flightCategory":"MVFR","rawOb":"METAR SBLS 232000Z 13007KT 9999 BKN030 21/16 Q1023","temp":21,"dewp":16,"wdir":130,"wspd":7,"visib":"6+","altim":1023,"clouds":[{"cover":"BKN","base":3000}],"obsTime":1779566400},"SBNM":{"icaoId":"SBNM","flightCategory":"VFR","rawOb":"METAR SBNM 232000Z AUTO 16005KT 9999 SCT045 18/11 Q1021","temp":18,"dewp":11,"wdir":160,"wspd":5,"visib":"6+","altim":1021,"clouds":[{"cover":"SCT","base":4500}],"obsTime":1779566400},"SBMT":{"icaoId":"SBMT","flightCategory":"IFR","rawOb":"METAR SBMT 232000Z 05004KT 3000 -RA BR BKN011 BKN013 17/16 Q1023 RERA","temp":17,"dewp":16,"wdir":50,"wspd":4,"visib":1.86,"altim":1023,"clouds":[{"cover":"BKN","base":1100},{"cover":"BKN","base":1300}],"obsTime":1779566400},"SBJV":{"icaoId":"SBJV","flightCategory":"VFR","rawOb":"METAR SBJV 232000Z 03002KT 9999 FEW010 OVC040 18/15 Q1021","temp":18,"dewp":15,"wdir":30,"wspd":2,"visib":"6+","altim":1021,"clouds":[{"cover":"FEW","base":1000},{"cover":"OVC","base":4000}],"obsTime":1779566400},"SBST":{"icaoId":"SBST","flightCategory":"MVFR","rawOb":"METAR SBST 232000Z 34003KT 9000 FEW008 OVC013 18/18 Q1021","temp":18,"dewp":18,"wdir":340,"wspd":3,"visib":5.59,"altim":1021,"clouds":[{"cover":"FEW","base":800},{"cover":"OVC","base":1300}],"obsTime":1779566400},"SBAN":{"icaoId":"SBAN","flightCategory":"VFR","rawOb":"METAR SBAN 232000Z 20009KT 9999 FEW027 BKN100 22/16 Q1022","temp":22,"dewp":16,"wdir":200,"wspd":9,"visib":"6+","altim":1022,"clouds":[{"cover":"FEW","base":2700},{"cover":"BKN","base":10000}],"obsTime":1779566400},"SBTA":{"icaoId":"SBTA","flightCategory":"VFR","rawOb":"METAR SBTA 232000Z 01002KT 9999 SCT035 OVC050 22/17 Q1021","temp":22,"dewp":17,"wdir":10,"wspd":2,"visib":"6+","altim":1021,"clouds":[{"cover":"SCT","base":3500},{"cover":"OVC","base":5000}],"obsTime":1779566400},"SBIH":{"icaoId":"SBIH","flightCategory":"VFR","rawOb":"METAR SBIH 232000Z 20003KT 9999 SCT018 FEW023TCU 31/24 Q1010","temp":31,"dewp":24,"wdir":200,"wspd":3,"visib":"6+","altim":1010,"clouds":[{"cover":"SCT","base":1800},{"cover":"FEW","base":2300}],"obsTime":1779566400},"SBTC":{"icaoId":"SBTC","flightCategory":"VFR","rawOb":"METAR SBTC 232000Z 17009KT 9999 VCSH SCT018 BKN080 26/22 Q1018","temp":26,"dewp":22,"wdir":170,"wspd":9,"visib":"6+","altim":1018,"clouds":[{"cover":"SCT","base":1800},{"cover":"BKN","base":8000}],"obsTime":1779566400}}}