{"updated":1774151747,"count":58,"data":{"SBMG":{"icaoId":"SBMG","flightCategory":"VFR","rawOb":"METAR SBMG 220200Z 04007KT CAVOK 27/22 Q1012","temp":27,"dewp":22,"wdir":40,"wspd":7,"visib":"6+","altim":1012,"clouds":[],"obsTime":1774144800},"SBMK":{"icaoId":"SBMK","flightCategory":"MVFR","rawOb":"METAR SBMK 220200Z 02006KT 9999 BKN010 BKN090 22/21 Q1017","temp":22,"dewp":21,"wdir":20,"wspd":6,"visib":"6+","altim":1017,"clouds":[{"cover":"BKN","base":1000},{"cover":"BKN","base":9000}],"obsTime":1774144800},"SBGL":{"icaoId":"SBGL","flightCategory":"VFR","rawOb":"METAR SBGL 220200Z 15004KT CAVOK 24/21 Q1013","temp":24,"dewp":21,"wdir":150,"wspd":4,"visib":"6+","altim":1013,"clouds":[],"obsTime":1774144800},"SBMO":{"icaoId":"SBMO","flightCategory":"VFR","rawOb":"METAR SBMO 220200Z 01003KT 9999 SCT020 25/24 Q1013","temp":25,"dewp":24,"wdir":10,"wspd":3,"visib":"6+","altim":1013,"clouds":[{"cover":"SCT","base":2000}],"obsTime":1774144800},"SBBV":{"icaoId":"SBBV","flightCategory":"VFR","rawOb":"METAR SBBV 220200Z 12010KT CAVOK 30/20 Q1009","temp":30,"dewp":20,"wdir":120,"wspd":10,"visib":"6+","altim":1009,"clouds":[],"obsTime":1774144800},"SBMQ":{"icaoId":"SBMQ","flightCategory":"VFR","rawOb":"METAR SBMQ 220200Z 02002KT CAVOK 27/25 Q1012","temp":27,"dewp":25,"wdir":20,"wspd":2,"visib":"6+","altim":1012,"clouds":[],"obsTime":1774144800},"SBCT":{"icaoId":"SBCT","flightCategory":"LIFR","rawOb":"METAR SBCT 220200Z 06004KT 4000 BR BKN003 21/20 Q1017","temp":21,"dewp":20,"wdir":60,"wspd":4,"visib":2.49,"altim":1017,"clouds":[{"cover":"BKN","base":300}],"obsTime":1774144800},"SBNT":{"icaoId":"SBNT","flightCategory":"VFR","rawOb":"METAR SBNT 220200Z 14004KT 9999 FEW020 27/23 Q1012","temp":27,"dewp":23,"wdir":140,"wspd":4,"visib":"6+","altim":1012,"clouds":[{"cover":"FEW","base":2000}],"obsTime":1774144800},"SBGO":{"icaoId":"SBGO","flightCategory":"VFR","rawOb":"METAR SBGO 220200Z 34005KT 9999 FEW045 SCT100 24/21 Q1017","temp":24,"dewp":21,"wdir":340,"wspd":5,"visib":"6+","altim":1017,"clouds":[{"cover":"FEW","base":4500},{"cover":"SCT","base":10000}],"obsTime":1774144800},"SBPA":{"icaoId":"SBPA","flightCategory":"IFR","rawOb":"METAR SBPA 220200Z 28008KT 4000 -RA BR FEW006 BKN012 BKN035 23/22 Q1011","temp":23,"dewp":22,"wdir":280,"wspd":8,"visib":2.49,"altim":1011,"clouds":[{"cover":"FEW","base":600},{"cover":"BKN","base":1200},{"cover":"BKN","base":3500}],"obsTime":1774144800},"SBCF":{"icaoId":"SBCF","flightCategory":"VFR","rawOb":"METAR SBCF 220200Z 16002KT 9999 FEW040 21/20 Q1017","temp":21,"dewp":20,"wdir":160,"wspd":2,"visib":"6+","altim":1017,"clouds":[{"cover":"FEW","base":4000}],"obsTime":1774144800},"SBPJ":{"icaoId":"SBPJ","flightCategory":"VFR","rawOb":"METAR SBPJ 220200Z VRB02KT 9999 FEW030 SCT100 26/24 Q1014","temp":26,"dewp":24,"wdir":"VRB","wspd":2,"visib":"6+","altim":1014,"clouds":[{"cover":"FEW","base":3000},{"cover":"SCT","base":10000}],"obsTime":1774144800},"SBGR":{"icaoId":"SBGR","flightCategory":"VFR","rawOb":"METAR SBGR 220200Z 00000KT 9999 FEW012 19/18 Q1017","temp":19,"dewp":18,"wdir":0,"wspd":0,"visib":"6+","altim":1017,"clouds":[{"cover":"FEW","base":1200}],"obsTime":1774144800},"SBPV":{"icaoId":"SBPV","flightCategory":"VFR","rawOb":"METAR SBPV 220200Z 07002KT CAVOK 29/23 Q1008","temp":29,"dewp":23,"wdir":70,"wspd":2,"visib":"6+","altim":1008,"clouds":[],"obsTime":1774144800},"SBEG":{"icaoId":"SBEG","flightCategory":"VFR","rawOb":"METAR SBEG 220200Z 10006KT CAVOK 28/25 Q1009","temp":28,"dewp":25,"wdir":100,"wspd":6,"visib":"6+","altim":1009,"clouds":[],"obsTime":1774144800},"SBRB":{"icaoId":"SBRB","flightCategory":"VFR","rawOb":"METAR SBRB 220200Z 31001KT 9999 FEW020 26/25 Q1009","temp":26,"dewp":25,"wdir":310,"wspd":1,"visib":"6+","altim":1009,"clouds":[{"cover":"FEW","base":2000}],"obsTime":1774144800},"SBRF":{"icaoId":"SBRF","flightCategory":"VFR","rawOb":"METAR SBRF 220200Z 12007KT 090V150 9999 SCT021 29/24 Q1013","temp":29,"dewp":24,"wdir":120,"wspd":7,"visib":"6+","altim":1013,"clouds":[{"cover":"SCT","base":2100}],"obsTime":1774144800},"SBJU":{"icaoId":"SBJU","flightCategory":"MVFR","rawOb":"METAR SBJU 220200Z 00000KT 9999 BKN020 24/23 Q1014","temp":24,"dewp":23,"wdir":0,"wspd":0,"visib":"6+","altim":1014,"clouds":[{"cover":"BKN","base":2000}],"obsTime":1774144800},"SBKP":{"icaoId":"SBKP","flightCategory":"VFR","rawOb":"METAR SBKP 220200Z 11006KT CAVOK 22/20 Q1015","temp":22,"dewp":20,"wdir":110,"wspd":6,"visib":"6+","altim":1015,"clouds":[],"obsTime":1774144800},"SBSG":{"icaoId":"SBSG","flightCategory":"VFR","rawOb":"METAR SBSG 220200Z 16003KT 9999 FEW023 25/24 Q1013","temp":25,"dewp":24,"wdir":160,"wspd":3,"visib":"6+","altim":1013,"clouds":[{"cover":"FEW","base":2300}],"obsTime":1774144800},"SBBR":{"icaoId":"SBBR","flightCategory":"VFR","rawOb":"METAR SBBR 220200Z 05004KT 360V100 9999 SCT035 BKN100 21/20 Q1019","temp":21,"dewp":20,"wdir":50,"wspd":4,"visib":"6+","altim":1019,"clouds":[{"cover":"SCT","base":3500},{"cover":"BKN","base":10000}],"obsTime":1774144800},"SBSL":{"icaoId":"SBSL","flightCategory":"VFR","rawOb":"METAR SBSL 220200Z 11003KT CAVOK 25/23 Q1011","temp":25,"dewp":23,"wdir":110,"wspd":3,"visib":"6+","altim":1011,"clouds":[],"obsTime":1774144800},"SBSN":{"icaoId":"SBSN","flightCategory":"VFR","rawOb":"METAR SBSN 220200Z 16004KT CAVOK 25/24 Q1011","temp":25,"dewp":24,"wdir":160,"wspd":4,"visib":"6+","altim":1011,"clouds":[],"obsTime":1774144800},"SBFI":{"icaoId":"SBFI","flightCategory":"VFR","rawOb":"METAR SBFI 220200Z 13003KT 9999 FEW035 26/25 Q1010","temp":26,"dewp":25,"wdir":130,"wspd":3,"visib":"6+","altim":1010,"clouds":[{"cover":"FEW","base":3500}],"obsTime":1774144800},"SBFZ":{"icaoId":"SBFZ","flightCategory":"VFR","rawOb":"METAR SBFZ 220200Z 11002KT 9999 FEW017 27/25 Q1012","temp":27,"dewp":25,"wdir":110,"wspd":2,"visib":"6+","altim":1012,"clouds":[{"cover":"FEW","base":1700}],"obsTime":1774144800},"SBLO":{"icaoId":"SBLO","flightCategory":"VFR","rawOb":"METAR SBLO 220200Z 06004KT CAVOK 27/21 Q1013","temp":27,"dewp":21,"wdir":60,"wspd":4,"visib":"6+","altim":1013,"clouds":[],"obsTime":1774144800},"SBSP":{"icaoId":"SBSP","flightCategory":"VFR","rawOb":"METAR SBSP 220200Z 10004KT 070V130 CAVOK 21/19 Q1018","temp":21,"dewp":19,"wdir":100,"wspd":4,"visib":"6+","altim":1018,"clouds":[],"obsTime":1774144800},"SBSV":{"icaoId":"SBSV","flightCategory":"VFR","rawOb":"METAR SBSV 220200Z 06008KT 9999 FEW019 28/23 Q1012","temp":28,"dewp":23,"wdir":60,"wspd":8,"visib":"6+","altim":1012,"clouds":[{"cover":"FEW","base":1900}],"obsTime":1774144800},"SBFL":{"icaoId":"SBFL","flightCategory":"VFR","rawOb":"METAR SBFL 220200Z 36011KT 9999 SCT035 27/24 Q1011","temp":27,"dewp":24,"wdir":360,"wspd":11,"visib":"6+","altim":1011,"clouds":[{"cover":"SCT","base":3500}],"obsTime":1774144800},"SBMA":{"icaoId":"SBMA","flightCategory":"VFR","rawOb":"METAR SBMA 220200Z 26001KT CAVOK 26/24 Q1012","temp":26,"dewp":24,"wdir":260,"wspd":1,"visib":"6+","altim":1012,"clouds":[],"obsTime":1774144800},"SBTE":{"icaoId":"SBTE","flightCategory":"VFR","rawOb":"METAR SBTE 220200Z 00000KT 9999 FEW020 SCT100 26/24 Q1012","temp":26,"dewp":24,"wdir":0,"wspd":0,"visib":"6+","altim":1012,"clouds":[{"cover":"FEW","base":2000},{"cover":"SCT","base":10000}],"obsTime":1774144800},"SBBE":{"icaoId":"SBBE","flightCategory":"VFR","rawOb":"METAR SBBE 220200Z 06005KT 9999 BKN039 27/24 Q1012","temp":27,"dewp":24,"wdir":60,"wspd":5,"visib":"6+","altim":1012,"clouds":[{"cover":"BKN","base":3900}],"obsTime":1774144800},"SBUL":{"icaoId":"SBUL","flightCategory":"VFR","rawOb":"METAR SBUL 220200Z 16004KT 9999 FEW040 22/21 Q1018","temp":22,"dewp":21,"wdir":160,"wspd":4,"visib":"6+","altim":1018,"clouds":[{"cover":"FEW","base":4000}],"obsTime":1774144800},"SBME":{"icaoId":"SBME","flightCategory":"VFR","rawOb":"METAR SBME 220200Z 23001KT 9999 FEW040 24/23 Q1013","temp":24,"dewp":23,"wdir":230,"wspd":1,"visib":"6+","altim":1013,"clouds":[{"cover":"FEW","base":4000}],"obsTime":1774144800},"SBUR":{"icaoId":"SBUR","flightCategory":"VFR","rawOb":"METAR SBUR 220200Z 13003KT CAVOK 25/20 Q1016","temp":25,"dewp":20,"wdir":130,"wspd":3,"visib":"6+","altim":1016,"clouds":[],"obsTime":1774144800},"SBVT":{"icaoId":"SBVT","flightCategory":"MVFR","rawOb":"METAR SBVT 220200Z 27003KT 9999 BKN017 BKN080 24/23 Q1012","temp":24,"dewp":23,"wdir":270,"wspd":3,"visib":"6+","altim":1012,"clouds":[{"cover":"BKN","base":1700},{"cover":"BKN","base":8000}],"obsTime":1774144800},"SBCG":{"icaoId":"SBCG","flightCategory":"VFR","rawOb":"METAR SBCG 220200Z 03003KT CAVOK 25/22 Q1013","temp":25,"dewp":22,"wdir":30,"wspd":3,"visib":"6+","altim":1013,"clouds":[],"obsTime":1774144800},"SBAR":{"icaoId":"SBAR","flightCategory":"VFR","rawOb":"METAR SBAR 220200Z 08008KT 9999 SCT019 28/24 Q1012","temp":28,"dewp":24,"wdir":80,"wspd":8,"visib":"6+","altim":1012,"clouds":[{"cover":"SCT","base":1900}],"obsTime":1774144800},"SBAX":{"icaoId":"SBAX","flightCategory":"VFR","rawOb":"METAR SBAX 220200Z AUTO VRB01KT CAVOK 22/22 Q1018","temp":22,"dewp":22,"wdir":"VRB","wspd":1,"visib":"6+","altim":1018,"clouds":[],"obsTime":1774144800},"SBCO":{"icaoId":"SBCO","flightCategory":"IFR","rawOb":"METAR SBCO 220200Z 26006KT 4000 -RA SCT025 BKN070 23/22 Q1012","temp":23,"dewp":22,"wdir":260,"wspd":6,"visib":2.49,"altim":1012,"clouds":[{"cover":"SCT","base":2500},{"cover":"BKN","base":7000}],"obsTime":1774144800},"SBDN":{"icaoId":"SBDN","flightCategory":"VFR","rawOb":"METAR SBDN 220200Z 05003KT CAVOK 27/21 Q1013","temp":27,"dewp":21,"wdir":50,"wspd":3,"visib":"6+","altim":1013,"clouds":[],"obsTime":1774144800},"SBIP":{"icaoId":"SBIP","flightCategory":"VFR","rawOb":"METAR SBIP 220200Z AUTO 05003KT 9999 SCT045 24/22 Q1013","temp":24,"dewp":22,"wdir":50,"wspd":3,"visib":"6+","altim":1013,"clouds":[{"cover":"SCT","base":4500}],"obsTime":1774144800},"SBKG":{"icaoId":"SBKG","flightCategory":"VFR","rawOb":"METAR SBKG 220200Z 08007KT 9999 FEW010 SCT070 24/22 Q1015","temp":24,"dewp":22,"wdir":80,"wspd":7,"visib":"6+","altim":1015,"clouds":[{"cover":"FEW","base":1000},{"cover":"SCT","base":7000}],"obsTime":1774144800},"SBOI":{"icaoId":"SBOI","flightCategory":"VFR","rawOb":"METAR SBOI 220200Z AUTO VRB01KT CAVOK 24/23 Q1013","temp":24,"dewp":23,"wdir":"VRB","wspd":1,"visib":"6+","altim":1013,"clouds":[],"obsTime":1774144800},"SBPL":{"icaoId":"SBPL","flightCategory":"VFR","rawOb":"METAR SBPL 220200Z 00000KT CAVOK 26/23 Q1014","temp":26,"dewp":23,"wdir":0,"wspd":0,"visib":"6+","altim":1014,"clouds":[],"obsTime":1774144800},"SBPS":{"icaoId":"SBPS","flightCategory":"VFR","rawOb":"METAR SBPS 220200Z 02005KT 9999 SCT020 26/24 Q1012","temp":26,"dewp":24,"wdir":20,"wspd":5,"visib":"6+","altim":1012,"clouds":[{"cover":"SCT","base":2000}],"obsTime":1774144800},"SBSC":{"icaoId":"SBSC","flightCategory":"VFR","rawOb":"METAR SBSC 220200Z 03003KT 9999 FEW030 23/22 Q1013","temp":23,"dewp":22,"wdir":30,"wspd":3,"visib":"6+","altim":1013,"clouds":[{"cover":"FEW","base":3000}],"obsTime":1774144800},"SBSM":{"icaoId":"SBSM","flightCategory":"VFR","rawOb":"METAR SBSM 220200Z VRB01KT 9999 FEW045 FEW050TCU BKN080 23/23 Q1010","temp":23,"dewp":23,"wdir":"VRB","wspd":1,"visib":"6+","altim":1010,"clouds":[{"cover":"FEW","base":4500},{"cover":"FEW","base":5000},{"cover":"BKN","base":8000}],"obsTime":1774144800},"SBSR":{"icaoId":"SBSR","flightCategory":"VFR","rawOb":"METAR SBSR 220200Z 00000KT CAVOK 26/22 Q1014","temp":26,"dewp":22,"wdir":0,"wspd":0,"visib":"6+","altim":1014,"clouds":[],"obsTime":1774144800},"SBSJ":{"icaoId":"SBSJ","flightCategory":"VFR","rawOb":"METAR SBSJ 220200Z 15004KT CAVOK 22/// Q1016","temp":null,"dewp":null,"wdir":150,"wspd":4,"visib":"6+","altim":1016,"clouds":[],"obsTime":1774144800},"SBBH":{"icaoId":"SBBH","flightCategory":"VFR","rawOb":"METAR SBBH 220200Z 00000KT CAVOK 21/20 Q1016","temp":21,"dewp":20,"wdir":0,"wspd":0,"visib":"6+","altim":1016,"clouds":[],"obsTime":1774144800},"SBBU":{"icaoId":"SBBU","flightCategory":"VFR","rawOb":"METAR SBBU 220200Z 06002KT CAVOK 28/17 Q1015","temp":28,"dewp":17,"wdir":60,"wspd":2,"visib":"6+","altim":1015,"clouds":[],"obsTime":1774144800},"SBJV":{"icaoId":"SBJV","flightCategory":"MVFR","rawOb":"METAR SBJV 220200Z 01004KT 9999 BKN025 27/24 Q1012","temp":27,"dewp":24,"wdir":10,"wspd":4,"visib":"6+","altim":1012,"clouds":[{"cover":"BKN","base":2500}],"obsTime":1774144800},"SBJP":{"icaoId":"SBJP","flightCategory":"VFR","rawOb":"METAR SBJP 220200Z 15002KT 9999 FEW020 27/24 Q1013","temp":27,"dewp":24,"wdir":150,"wspd":2,"visib":"6+","altim":1013,"clouds":[{"cover":"FEW","base":2000}],"obsTime":1774144800},"SBLE":{"icaoId":"SBLE","flightCategory":"VFR","rawOb":"METAR SBLE 220200Z AUTO 34001KT CAVOK ///// Q////","temp":null,"dewp":null,"wdir":340,"wspd":1,"visib":"6+","altim":null,"clouds":[],"obsTime":1774144800},"SBAN":{"icaoId":"SBAN","flightCategory":"LIFR","rawOb":"METAR SBAN 220200Z 36003KT 9999 BKN003 SCT035 20/19 Q1020","temp":20,"dewp":19,"wdir":360,"wspd":3,"visib":"6+","altim":1020,"clouds":[{"cover":"BKN","base":300},{"cover":"SCT","base":3500}],"obsTime":1774144800},"SBAF":{"icaoId":"SBAF","flightCategory":"VFR","rawOb":"METAR SBAF 220200Z 25003KT CAVOK 22/22 Q1013","temp":22,"dewp":22,"wdir":250,"wspd":3,"visib":"6+","altim":1013,"clouds":[],"obsTime":1774144800},"SBMT":{"icaoId":"SBMT","flightCategory":"VFR","rawOb":"METAR SBMT 220200Z 10005KT CAVOK 20/19 Q1017","temp":20,"dewp":19,"wdir":100,"wspd":5,"visib":"6+","altim":1017,"clouds":[],"obsTime":1774144800}}}