{"updated":1780184930,"count":71,"data":{"SBMA":{"icaoId":"SBMA","flightCategory":"VFR","rawOb":"METAR SBMA 302200Z 00000KT 9999 FEW026 30/21 Q1012","temp":30,"dewp":21,"wdir":0,"wspd":0,"visib":"6+","altim":1012,"clouds":[{"cover":"FEW","base":2600}],"obsTime":1780178400},"SBME":{"icaoId":"SBME","flightCategory":"VFR","rawOb":"METAR SBME 302200Z 04007KT CAVOK 21/17 Q1020","temp":21,"dewp":17,"wdir":40,"wspd":7,"visib":"6+","altim":1020,"clouds":[],"obsTime":1780178400},"SBBE":{"icaoId":"SBBE","flightCategory":"VFR","rawOb":"METAR SBBE 302200Z 03004KT 9999 -RA SCT030 BKN100 25/24 Q1013","temp":25,"dewp":24,"wdir":30,"wspd":4,"visib":"6+","altim":1013,"clouds":[{"cover":"SCT","base":3000},{"cover":"BKN","base":10000}],"obsTime":1780178400},"SBMG":{"icaoId":"SBMG","flightCategory":"VFR","rawOb":"METAR SBMG 302200Z 18003KT CAVOK 20/14 Q1020","temp":20,"dewp":14,"wdir":180,"wspd":3,"visib":"6+","altim":1020,"clouds":[],"obsTime":1780178400},"SBFZ":{"icaoId":"SBFZ","flightCategory":"VFR","rawOb":"METAR SBFZ 302200Z 10006KT 9999 FEW018 BKN070 26/25 Q1014","temp":26,"dewp":25,"wdir":100,"wspd":6,"visib":"6+","altim":1014,"clouds":[{"cover":"FEW","base":1800},{"cover":"BKN","base":7000}],"obsTime":1780178400},"SBMK":{"icaoId":"SBMK","flightCategory":"VFR","rawOb":"METAR SBMK 302200Z 15008KT CAVOK 21/16 Q1022","temp":21,"dewp":16,"wdir":150,"wspd":8,"visib":"6+","altim":1022,"clouds":[],"obsTime":1780178400},"SBCT":{"icaoId":"SBCT","flightCategory":"VFR","rawOb":"METAR SBCT 302200Z 12006KT 9999 FEW005 13/13 Q1023","temp":13,"dewp":13,"wdir":120,"wspd":6,"visib":"6+","altim":1023,"clouds":[{"cover":"FEW","base":500}],"obsTime":1780178400},"SBMO":{"icaoId":"SBMO","flightCategory":"VFR","rawOb":"METAR SBMO 302200Z 19003KT 9999 FEW026 25/22 Q1017","temp":25,"dewp":22,"wdir":190,"wspd":3,"visib":"6+","altim":1017,"clouds":[{"cover":"FEW","base":2600}],"obsTime":1780178400},"SBGL":{"icaoId":"SBGL","flightCategory":"VFR","rawOb":"METAR SBGL 302200Z 09005KT CAVOK 22/18 Q1018","temp":22,"dewp":18,"wdir":90,"wspd":5,"visib":"6+","altim":1018,"clouds":[],"obsTime":1780178400},"SBMQ":{"icaoId":"SBMQ","flightCategory":"VFR","rawOb":"METAR SBMQ 302200Z 05003KT 9999 FEW015 27/26 Q1012","temp":27,"dewp":26,"wdir":50,"wspd":3,"visib":"6+","altim":1012,"clouds":[{"cover":"FEW","base":1500}],"obsTime":1780178400},"SBNT":{"icaoId":"SBNT","flightCategory":"VFR","rawOb":"METAR SBNT 302200Z 15006KT CAVOK 25/23 Q1015","temp":25,"dewp":23,"wdir":150,"wspd":6,"visib":"6+","altim":1015,"clouds":[],"obsTime":1780178400},"SBGO":{"icaoId":"SBGO","flightCategory":"VFR","rawOb":"METAR SBGO 302200Z 12005KT CAVOK 24/16 Q1020","temp":24,"dewp":16,"wdir":120,"wspd":5,"visib":"6+","altim":1020,"clouds":[],"obsTime":1780178400},"SBCZ":{"icaoId":"SBCZ","flightCategory":"VFR","rawOb":"METAR SBCZ 302200Z VRB04KT 9999 FEW033 30/23 Q1012","temp":30,"dewp":23,"wdir":"VRB","wspd":4,"visib":"6+","altim":1012,"clouds":[{"cover":"FEW","base":3300}],"obsTime":1780178400},"SBPA":{"icaoId":"SBPA","flightCategory":"VFR","rawOb":"METAR SBPA 302200Z 11006KT 9999 FEW040 19/16 Q1020","temp":19,"dewp":16,"wdir":110,"wspd":6,"visib":"6+","altim":1020,"clouds":[{"cover":"FEW","base":4000}],"obsTime":1780178400},"SBBV":{"icaoId":"SBBV","flightCategory":"VFR","rawOb":"METAR SBBV 302200Z 24007KT 9999 VCSH SCT030 FEW035TCU BKN080 27/24 Q1012","temp":27,"dewp":24,"wdir":240,"wspd":7,"visib":"6+","altim":1012,"clouds":[{"cover":"SCT","base":3000},{"cover":"FEW","base":3500},{"cover":"BKN","base":8000}],"obsTime":1780178400},"SBPJ":{"icaoId":"SBPJ","flightCategory":"VFR","rawOb":"METAR SBPJ 302200Z 23003KT CAVOK 29/23 Q1015","temp":29,"dewp":23,"wdir":230,"wspd":3,"visib":"6+","altim":1015,"clouds":[],"obsTime":1780178400},"SBCF":{"icaoId":"SBCF","flightCategory":"VFR","rawOb":"METAR SBCF 302200Z 12006KT CAVOK 20/15 Q1023","temp":20,"dewp":15,"wdir":120,"wspd":6,"visib":"6+","altim":1023,"clouds":[],"obsTime":1780178400},"SBPV":{"icaoId":"SBPV","flightCategory":"VFR","rawOb":"METAR SBPV 302200Z 01001KT 9999 FEW025 28/22 Q1011","temp":28,"dewp":22,"wdir":10,"wspd":1,"visib":"6+","altim":1011,"clouds":[{"cover":"FEW","base":2500}],"obsTime":1780178400},"SBGR":{"icaoId":"SBGR","flightCategory":"MVFR","rawOb":"METAR SBGR 302200Z 18005KT 120V210 5000 BR BKN023 BKN083 18/16 Q1022","temp":18,"dewp":16,"wdir":180,"wspd":5,"visib":3.11,"altim":1022,"clouds":[{"cover":"BKN","base":2300},{"cover":"BKN","base":8300}],"obsTime":1780178400},"SBRB":{"icaoId":"SBRB","flightCategory":"VFR","rawOb":"METAR SBRB 302200Z 00000KT 9999 FEW040 29/22 Q1013","temp":29,"dewp":22,"wdir":0,"wspd":0,"visib":"6+","altim":1013,"clouds":[{"cover":"FEW","base":4000}],"obsTime":1780178400},"SBBR":{"icaoId":"SBBR","flightCategory":"VFR","rawOb":"METAR SBBR 302200Z 14004KT CAVOK 20/16 Q1023","temp":20,"dewp":16,"wdir":140,"wspd":4,"visib":"6+","altim":1023,"clouds":[],"obsTime":1780178400},"SBRF":{"icaoId":"SBRF","flightCategory":"VFR","rawOb":"METAR SBRF 302200Z 18005KT 9999 FEW013 SCT017 BKN060 25/24 Q1016","temp":25,"dewp":24,"wdir":180,"wspd":5,"visib":"6+","altim":1016,"clouds":[{"cover":"FEW","base":1300},{"cover":"SCT","base":1700},{"cover":"BKN","base":6000}],"obsTime":1780178400},"SBIL":{"icaoId":"SBIL","flightCategory":"VFR","rawOb":"METAR SBIL 302200Z 22007KT CAVOK 25/20 Q1019","temp":25,"dewp":20,"wdir":220,"wspd":7,"visib":"6+","altim":1019,"clouds":[],"obsTime":1780178400},"SBSG":{"icaoId":"SBSG","flightCategory":"VFR","rawOb":"METAR SBSG 302200Z 14004KT 100V180 9999 FEW026 25/23 Q1015","temp":25,"dewp":23,"wdir":140,"wspd":4,"visib":"6+","altim":1015,"clouds":[{"cover":"FEW","base":2600}],"obsTime":1780178400},"SBEG":{"icaoId":"SBEG","flightCategory":"VFR","rawOb":"METAR SBEG 302200Z VRB02KT 9999 SCT025 FEW030TCU SCT100 29/26 Q1011","temp":29,"dewp":26,"wdir":"VRB","wspd":2,"visib":"6+","altim":1011,"clouds":[{"cover":"SCT","base":2500},{"cover":"FEW","base":3000},{"cover":"SCT","base":10000}],"obsTime":1780178400},"SBSL":{"icaoId":"SBSL","flightCategory":"VFR","rawOb":"METAR SBSL 302200Z 18002KT 9999 SCT015 FEW020TCU SCT100 25/25 Q1013","temp":25,"dewp":25,"wdir":180,"wspd":2,"visib":"6+","altim":1013,"clouds":[{"cover":"SCT","base":1500},{"cover":"FEW","base":2000},{"cover":"SCT","base":10000}],"obsTime":1780178400},"SBJU":{"icaoId":"SBJU","flightCategory":"VFR","rawOb":"METAR SBJU 302200Z 00000KT 9999 SCT022 26/20 Q1016","temp":26,"dewp":20,"wdir":0,"wspd":0,"visib":"6+","altim":1016,"clouds":[{"cover":"SCT","base":2200}],"obsTime":1780178400},"SBSN":{"icaoId":"SBSN","flightCategory":"VFR","rawOb":"METAR SBSN 302200Z 19003KT 9999 VCSH FEW021 FEW040TCU BKN080 28/25 Q1011","temp":28,"dewp":25,"wdir":190,"wspd":3,"visib":"6+","altim":1011,"clouds":[{"cover":"FEW","base":2100},{"cover":"FEW","base":4000},{"cover":"BKN","base":8000}],"obsTime":1780178400},"SBCG":{"icaoId":"SBCG","flightCategory":"VFR","rawOb":"METAR SBCG 302200Z 17007KT CAVOK 23/17 Q1019","temp":23,"dewp":17,"wdir":170,"wspd":7,"visib":"6+","altim":1019,"clouds":[],"obsTime":1780178400},"SBSP":{"icaoId":"SBSP","flightCategory":"LIFR","rawOb":"METAR SBSP 302200Z 20009KT 6000 BKN004 BKN007 17/16 Q1023","temp":17,"dewp":16,"wdir":200,"wspd":9,"visib":3.73,"altim":1023,"clouds":[{"cover":"BKN","base":400},{"cover":"BKN","base":700}],"obsTime":1780178400},"SBKP":{"icaoId":"SBKP","flightCategory":"VFR","rawOb":"METAR SBKP 302200Z 22006KT CAVOK 22/16 Q1021","temp":22,"dewp":16,"wdir":220,"wspd":6,"visib":"6+","altim":1021,"clouds":[],"obsTime":1780178400},"SBSV":{"icaoId":"SBSV","flightCategory":"VFR","rawOb":"METAR SBSV 302200Z 16014KT 150V210 9999 FEW013 SCT024 OVC046 25/22 Q1018","temp":25,"dewp":22,"wdir":160,"wspd":14,"visib":"6+","altim":1018,"clouds":[{"cover":"FEW","base":1300},{"cover":"SCT","base":2400},{"cover":"OVC","base":4600}],"obsTime":1780178400},"SBFI":{"icaoId":"SBFI","flightCategory":"VFR","rawOb":"METAR SBFI 302200Z 17003KT 9999 FEW020 19/18 Q1020","temp":19,"dewp":18,"wdir":170,"wspd":3,"visib":"6+","altim":1020,"clouds":[{"cover":"FEW","base":2000}],"obsTime":1780178400},"SBTE":{"icaoId":"SBTE","flightCategory":"VFR","rawOb":"METAR SBTE 302200Z 06008KT 9999 SCT020 28/22 Q1013","temp":28,"dewp":22,"wdir":60,"wspd":8,"visib":"6+","altim":1013,"clouds":[{"cover":"SCT","base":2000}],"obsTime":1780178400},"SBLO":{"icaoId":"SBLO","flightCategory":"VFR","rawOb":"METAR SBLO 302200Z 02002KT 9999 BKN040 21/16 Q1020","temp":21,"dewp":16,"wdir":20,"wspd":2,"visib":"6+","altim":1020,"clouds":[{"cover":"BKN","base":4000}],"obsTime":1780178400},"SBUL":{"icaoId":"SBUL","flightCategory":"VFR","rawOb":"METAR SBUL 302200Z 08006KT CAVOK 20/15 Q1022","temp":20,"dewp":15,"wdir":80,"wspd":6,"visib":"6+","altim":1022,"clouds":[],"obsTime":1780178400},"SBFL":{"icaoId":"SBFL","flightCategory":"VFR","rawOb":"METAR SBFL 302200Z 12006KT 9999 FEW040 17/15 Q1021","temp":17,"dewp":15,"wdir":120,"wspd":6,"visib":"6+","altim":1021,"clouds":[{"cover":"FEW","base":4000}],"obsTime":1780178400},"SBUR":{"icaoId":"SBUR","flightCategory":"VFR","rawOb":"METAR SBUR 302200Z 15004KT CAVOK 24/15 Q1021","temp":24,"dewp":15,"wdir":150,"wspd":4,"visib":"6+","altim":1021,"clouds":[],"obsTime":1780178400},"SBVT":{"icaoId":"SBVT","flightCategory":"VFR","rawOb":"METAR SBVT 302200Z 33003KT 9999 FEW045 SCT100 20/16 Q1021","temp":20,"dewp":16,"wdir":330,"wspd":3,"visib":"6+","altim":1021,"clouds":[{"cover":"FEW","base":4500},{"cover":"SCT","base":10000}],"obsTime":1780178400},"SBCP":{"icaoId":"SBCP","flightCategory":"VFR","rawOb":"METAR SBCP 302200Z 07005KT 9999 SCT015 OVC090 20/16 Q1020","temp":20,"dewp":16,"wdir":70,"wspd":5,"visib":"6+","altim":1020,"clouds":[{"cover":"SCT","base":1500},{"cover":"OVC","base":9000}],"obsTime":1780178400},"SBVH":{"icaoId":"SBVH","flightCategory":"VFR","rawOb":"METAR SBVH 302200Z 09002KT CAVOK 26/18 Q1017","temp":26,"dewp":18,"wdir":90,"wspd":2,"visib":"6+","altim":1017,"clouds":[],"obsTime":1780178400},"SBAR":{"icaoId":"SBAR","flightCategory":"MVFR","rawOb":"METAR SBAR 302200Z 13007KT 9999 BKN025 27/21 Q1016","temp":27,"dewp":21,"wdir":130,"wspd":7,"visib":"6+","altim":1016,"clouds":[{"cover":"BKN","base":2500}],"obsTime":1780178400},"SBAX":{"icaoId":"SBAX","flightCategory":"VFR","rawOb":"METAR SBAX 302200Z AUTO 02005KT 350V050 CAVOK 21/15 Q1022","temp":21,"dewp":15,"wdir":20,"wspd":5,"visib":"6+","altim":1022,"clouds":[],"obsTime":1780178400},"SBBH":{"icaoId":"SBBH","flightCategory":"VFR","rawOb":"METAR SBBH 302200Z 09004KT CAVOK 19/16 Q1023","temp":19,"dewp":16,"wdir":90,"wspd":4,"visib":"6+","altim":1023,"clouds":[],"obsTime":1780178400},"SBBU":{"icaoId":"SBBU","flightCategory":"VFR","rawOb":"METAR SBBU 302200Z 20001KT CAVOK 22/16 Q1021","temp":22,"dewp":16,"wdir":200,"wspd":1,"visib":"6+","altim":1021,"clouds":[],"obsTime":1780178400},"SBCO":{"icaoId":"SBCO","flightCategory":"VFR","rawOb":"METAR SBCO 302200Z 12004KT CAVOK 16/15 Q1021","temp":16,"dewp":15,"wdir":120,"wspd":4,"visib":"6+","altim":1021,"clouds":[],"obsTime":1780178400},"SBDN":{"icaoId":"SBDN","flightCategory":"VFR","rawOb":"METAR SBDN 302200Z 14006KT CAVOK 20/15 Q1020","temp":20,"dewp":15,"wdir":140,"wspd":6,"visib":"6+","altim":1020,"clouds":[],"obsTime":1780178400},"SBIP":{"icaoId":"SBIP","flightCategory":"VFR","rawOb":"METAR SBIP 302200Z AUTO 00000KT CAVOK 19/18 Q1021","temp":19,"dewp":18,"wdir":0,"wspd":0,"visib":"6+","altim":1021,"clouds":[],"obsTime":1780178400},"SBKG":{"icaoId":"SBKG","flightCategory":"VFR","rawOb":"METAR SBKG 302200Z 10008KT 9999 SCT020 23/22 Q1018","temp":23,"dewp":22,"wdir":100,"wspd":8,"visib":"6+","altim":1018,"clouds":[{"cover":"SCT","base":2000}],"obsTime":1780178400},"SBPL":{"icaoId":"SBPL","flightCategory":"MVFR","rawOb":"METAR SBPL 302200Z 13008KT 9999 BKN025 30/16 Q1016","temp":30,"dewp":16,"wdir":130,"wspd":8,"visib":"6+","altim":1016,"clouds":[{"cover":"BKN","base":2500}],"obsTime":1780178400},"SBPS":{"icaoId":"SBPS","flightCategory":"VFR","rawOb":"METAR SBPS 302200Z VRB02KT 9999 SCT025 23/20 Q1019","temp":23,"dewp":20,"wdir":"VRB","wspd":2,"visib":"6+","altim":1019,"clouds":[{"cover":"SCT","base":2500}],"obsTime":1780178400},"SBSC":{"icaoId":"SBSC","flightCategory":"VFR","rawOb":"METAR SBSC 302200Z 35002KT 9999 FEW030 SCT070 21/18 Q1018","temp":21,"dewp":18,"wdir":350,"wspd":2,"visib":"6+","altim":1018,"clouds":[{"cover":"FEW","base":3000},{"cover":"SCT","base":7000}],"obsTime":1780178400},"SBSJ":{"icaoId":"SBSJ","flightCategory":"VFR","rawOb":"METAR SBSJ 302200Z 09002KT 9999 FEW045 BKN080 19/17 Q1021","temp":19,"dewp":17,"wdir":90,"wspd":2,"visib":"6+","altim":1021,"clouds":[{"cover":"FEW","base":4500},{"cover":"BKN","base":8000}],"obsTime":1780178400},"SBSM":{"icaoId":"SBSM","flightCategory":"MVFR","rawOb":"METAR SBSM 302200Z VRB01KT 9999 BKN011 OVC015 17/16 Q1021","temp":17,"dewp":16,"wdir":"VRB","wspd":1,"visib":"6+","altim":1021,"clouds":[{"cover":"BKN","base":1100},{"cover":"OVC","base":1500}],"obsTime":1780178400},"SBSR":{"icaoId":"SBSR","flightCategory":"VFR","rawOb":"METAR SBSR 302200Z 21005KT CAVOK 24/12 Q1020","temp":24,"dewp":12,"wdir":210,"wspd":5,"visib":"6+","altim":1020,"clouds":[],"obsTime":1780178400},"SBTT":{"icaoId":"SBTT","flightCategory":"MVFR","rawOb":"METAR SBTT 302200Z 36002KT 9999 BKN010 25/24 Q1013","temp":25,"dewp":24,"wdir":360,"wspd":2,"visib":"6+","altim":1013,"clouds":[{"cover":"BKN","base":1000}],"obsTime":1780178400},"SBTU":{"icaoId":"SBTU","flightCategory":"VFR","rawOb":"METAR SBTU 302200Z AUTO 33004KT 9999 // FEW072/// 28/23 Q1014","temp":28,"dewp":23,"wdir":330,"wspd":4,"visib":"6+","altim":1014,"clouds":[{"cover":"FEW","base":7200}],"obsTime":1780178400},"SBTF":{"icaoId":"SBTF","flightCategory":"VFR","rawOb":"METAR SBTF 302200Z 23005KT 9999 TS FEW012 FEW030CB OVC100 26/25 Q1011","temp":26,"dewp":25,"wdir":230,"wspd":5,"visib":"6+","altim":1011,"clouds":[{"cover":"FEW","base":1200},{"cover":"FEW","base":3000},{"cover":"OVC","base":10000}],"obsTime":1780178400},"SBOI":{"icaoId":"SBOI","flightCategory":"IFR","rawOb":"METAR SBOI 302200Z AUTO VRB04KT 9999 -RA BKN007 BKN034 25/24 Q1013","temp":25,"dewp":24,"wdir":"VRB","wspd":4,"visib":"6+","altim":1013,"clouds":[{"cover":"BKN","base":700},{"cover":"BKN","base":3400}],"obsTime":1780178400},"SBCA":{"icaoId":"SBCA","flightCategory":"VFR","rawOb":"METAR SBCA 302200Z 17004KT 9999 FEW020 17/15 Q1022","temp":17,"dewp":15,"wdir":170,"wspd":4,"visib":"6+","altim":1022,"clouds":[{"cover":"FEW","base":2000}],"obsTime":1780178400},"SBUY":{"icaoId":"SBUY","flightCategory":"VFR","rawOb":"METAR SBUY 302200Z 00000KT CAVOK 27/25 Q1010","temp":27,"dewp":25,"wdir":0,"wspd":0,"visib":"6+","altim":1010,"clouds":[],"obsTime":1780178400},"SBJP":{"icaoId":"SBJP","flightCategory":"VFR","rawOb":"METAR SBJP 302200Z 13005KT CAVOK 25/24 Q1016","temp":25,"dewp":24,"wdir":130,"wspd":5,"visib":"6+","altim":1016,"clouds":[],"obsTime":1780178400},"SBAN":{"icaoId":"SBAN","flightCategory":"VFR","rawOb":"METAR SBAN 302200Z 20004KT 9999 FEW020 19/15 Q1023","temp":19,"dewp":15,"wdir":200,"wspd":4,"visib":"6+","altim":1023,"clouds":[{"cover":"FEW","base":2000}],"obsTime":1780178400},"SBJV":{"icaoId":"SBJV","flightCategory":"VFR","rawOb":"METAR SBJV 302200Z 15003KT 9999 FEW015 SCT050 17/16 Q1021","temp":17,"dewp":16,"wdir":150,"wspd":3,"visib":"6+","altim":1021,"clouds":[{"cover":"FEW","base":1500},{"cover":"SCT","base":5000}],"obsTime":1780178400},"SBNM":{"icaoId":"SBNM","flightCategory":"IFR","rawOb":"METAR SBNM 302200Z AUTO VRB02KT 9999 OVC008 17/15 Q1021","temp":17,"dewp":15,"wdir":"VRB","wspd":2,"visib":"6+","altim":1021,"clouds":[{"cover":"OVC","base":800}],"obsTime":1780178400},"SBJR":{"icaoId":"SBJR","flightCategory":"VFR","rawOb":"METAR SBJR 302200Z 34001KT CAVOK 22/18 Q1018","temp":22,"dewp":18,"wdir":340,"wspd":1,"visib":"6+","altim":1018,"clouds":[],"obsTime":1780178400},"SBLS":{"icaoId":"SBLS","flightCategory":"VFR","rawOb":"METAR SBLS 302200Z 13006KT CAVOK 19/16 Q1022","temp":19,"dewp":16,"wdir":130,"wspd":6,"visib":"6+","altim":1022,"clouds":[],"obsTime":1780178400},"SBMT":{"icaoId":"SBMT","flightCategory":"VFR","rawOb":"METAR SBMT 302200Z 15009KT 9999 FEW011 SCT033 18/16 Q1022","temp":18,"dewp":16,"wdir":150,"wspd":9,"visib":"6+","altim":1022,"clouds":[{"cover":"FEW","base":1100},{"cover":"SCT","base":3300}],"obsTime":1780178400},"SBAF":{"icaoId":"SBAF","flightCategory":"VFR","rawOb":"METAR SBAF 302200Z 20001KT 9999 FEW040 21/20 Q1018","temp":21,"dewp":20,"wdir":200,"wspd":1,"visib":"6+","altim":1018,"clouds":[{"cover":"FEW","base":4000}],"obsTime":1780178400},"SBLE":{"icaoId":"SBLE","flightCategory":"LIFR","rawOb":"METAR SBLE 302200Z AUTO 15004KT 110V180 2800 RA BKN003 BKN006 OVC016 ///// Q////","temp":null,"dewp":null,"wdir":150,"wspd":4,"visib":1.74,"altim":null,"clouds":[{"cover":"BKN","base":300},{"cover":"BKN","base":600},{"cover":"OVC","base":1600}],"obsTime":1780178400},"SBGW":{"icaoId":"SBGW","flightCategory":"VFR","rawOb":"METAR SBGW 302200Z 02005KT 350V050 CAVOK 20/14 Q1020","temp":20,"dewp":14,"wdir":20,"wspd":5,"visib":"6+","altim":1020,"clouds":[],"obsTime":1780178400}}}