{"updated":1784608714,"count":56,"data":{"SBMK":{"icaoId":"SBMK","flightCategory":"VFR","rawOb":"METAR SBMK 210300Z 25001KT CAVOK 17/13 Q1020","temp":17,"dewp":13,"wdir":250,"wspd":1,"visib":"6+","altim":1020,"clouds":[],"obsTime":1784602800},"SBUL":{"icaoId":"SBUL","flightCategory":"VFR","rawOb":"METAR SBUL 210300Z 13005KT CAVOK 19/10 Q1020","temp":19,"dewp":10,"wdir":130,"wspd":5,"visib":"6+","altim":1020,"clouds":[],"obsTime":1784602800},"SBUR":{"icaoId":"SBUR","flightCategory":"VFR","rawOb":"METAR SBUR 210300Z 02005KT CAVOK 19/10 Q1019","temp":19,"dewp":10,"wdir":20,"wspd":5,"visib":"6+","altim":1019,"clouds":[],"obsTime":1784602800},"SBNT":{"icaoId":"SBNT","flightCategory":"IFR","rawOb":"METAR SBNT 210300Z 17009KT 3000 RA BR BKN009 BKN013 FEW025TCU BKN060 23/22 Q1014","temp":23,"dewp":22,"wdir":170,"wspd":9,"visib":1.86,"altim":1014,"clouds":[{"cover":"BKN","base":900},{"cover":"BKN","base":1300},{"cover":"FEW","base":2500},{"cover":"BKN","base":6000}],"obsTime":1784602800},"SBSG":{"icaoId":"SBSG","flightCategory":"IFR","rawOb":"METAR SBSG 210300Z 16007KT 5000 -RA BKN005 23/23 Q1014","temp":23,"dewp":23,"wdir":160,"wspd":7,"visib":3.11,"altim":1014,"clouds":[{"cover":"BKN","base":500}],"obsTime":1784602800},"SBBV":{"icaoId":"SBBV","flightCategory":"VFR","rawOb":"METAR SBBV 210300Z 16007KT 9999 FEW030 SCT100 28/24 Q1012","temp":28,"dewp":24,"wdir":160,"wspd":7,"visib":"6+","altim":1012,"clouds":[{"cover":"FEW","base":3000},{"cover":"SCT","base":10000}],"obsTime":1784602800},"SBGL":{"icaoId":"SBGL","flightCategory":"VFR","rawOb":"METAR SBGL 210300Z 08004KT CAVOK 18/16 Q1015","temp":18,"dewp":16,"wdir":80,"wspd":4,"visib":"6+","altim":1015,"clouds":[],"obsTime":1784602800},"SBKP":{"icaoId":"SBKP","flightCategory":"VFR","rawOb":"METAR SBKP 210300Z 08004KT CAVOK 19/11 Q1018","temp":19,"dewp":11,"wdir":80,"wspd":4,"visib":"6+","altim":1018,"clouds":[],"obsTime":1784602800},"SBFI":{"icaoId":"SBFI","flightCategory":"VFR","rawOb":"METAR SBFI 210300Z 05005KT 9999 VCTS SCT030 FEW040CB BKN070 22/21 Q1009","temp":22,"dewp":21,"wdir":50,"wspd":5,"visib":"6+","altim":1009,"clouds":[{"cover":"SCT","base":3000},{"cover":"FEW","base":4000},{"cover":"BKN","base":7000}],"obsTime":1784602800},"SBRB":{"icaoId":"SBRB","flightCategory":"MVFR","rawOb":"METAR SBRB 210300Z 31002KT 8000 NSC 24/23 Q1011","temp":24,"dewp":23,"wdir":310,"wspd":2,"visib":4.97,"altim":1011,"clouds":[],"obsTime":1784602800},"SBLO":{"icaoId":"SBLO","flightCategory":"VFR","rawOb":"METAR SBLO 210300Z 07004KT CAVOK 20/15 Q1015","temp":20,"dewp":15,"wdir":70,"wspd":4,"visib":"6+","altim":1015,"clouds":[],"obsTime":1784602800},"SBBR":{"icaoId":"SBBR","flightCategory":"VFR","rawOb":"METAR SBBR 210300Z 27002KT CAVOK 15/11 Q1021","temp":15,"dewp":11,"wdir":270,"wspd":2,"visib":"6+","altim":1021,"clouds":[],"obsTime":1784602800},"SBGO":{"icaoId":"SBGO","flightCategory":"VFR","rawOb":"METAR SBGO 210300Z 17003KT CAVOK 19/12 Q1018","temp":19,"dewp":12,"wdir":170,"wspd":3,"visib":"6+","altim":1018,"clouds":[],"obsTime":1784602800},"SBMA":{"icaoId":"SBMA","flightCategory":"VFR","rawOb":"METAR SBMA 210300Z 35005KT 9999 FEW013 SCT100 27/20 Q1013","temp":27,"dewp":20,"wdir":350,"wspd":5,"visib":"6+","altim":1013,"clouds":[{"cover":"FEW","base":1300},{"cover":"SCT","base":10000}],"obsTime":1784602800},"SBRF":{"icaoId":"SBRF","flightCategory":"VFR","rawOb":"METAR SBRF 210300Z 16015KT 9999 FEW023 SCT050 26/22 Q1014","temp":26,"dewp":22,"wdir":160,"wspd":15,"visib":"6+","altim":1014,"clouds":[{"cover":"FEW","base":2300},{"cover":"SCT","base":5000}],"obsTime":1784602800},"SBSL":{"icaoId":"SBSL","flightCategory":"MVFR","rawOb":"METAR SBSL 210300Z 06005KT 9999 BKN020 27/24 Q1013","temp":27,"dewp":24,"wdir":60,"wspd":5,"visib":"6+","altim":1013,"clouds":[{"cover":"BKN","base":2000}],"obsTime":1784602800},"SBPJ":{"icaoId":"SBPJ","flightCategory":"VFR","rawOb":"METAR SBPJ 210300Z 12004KT CAVOK 22/17 Q1014","temp":22,"dewp":17,"wdir":120,"wspd":4,"visib":"6+","altim":1014,"clouds":[],"obsTime":1784602800},"SBVT":{"icaoId":"SBVT","flightCategory":"VFR","rawOb":"METAR SBVT 210300Z 00000KT 9999 FEW025 BKN050 OVC080 20/18 Q1019","temp":20,"dewp":18,"wdir":0,"wspd":0,"visib":"6+","altim":1019,"clouds":[{"cover":"FEW","base":2500},{"cover":"BKN","base":5000},{"cover":"OVC","base":8000}],"obsTime":1784602800},"SBMO":{"icaoId":"SBMO","flightCategory":"VFR","rawOb":"METAR SBMO 210300Z 13004KT 9999 FEW020 SCT050 24/22 Q1016","temp":24,"dewp":22,"wdir":130,"wspd":4,"visib":"6+","altim":1016,"clouds":[{"cover":"FEW","base":2000},{"cover":"SCT","base":5000}],"obsTime":1784602800},"SBSV":{"icaoId":"SBSV","flightCategory":"MVFR","rawOb":"METAR SBSV 210300Z 30005KT 280V010 9999 BKN026 BKN100 23/21 Q1017","temp":23,"dewp":21,"wdir":300,"wspd":5,"visib":"6+","altim":1017,"clouds":[{"cover":"BKN","base":2600},{"cover":"BKN","base":10000}],"obsTime":1784602800},"SBCF":{"icaoId":"SBCF","flightCategory":"VFR","rawOb":"METAR SBCF 210300Z 22002KT CAVOK 16/12 Q1021","temp":16,"dewp":12,"wdir":220,"wspd":2,"visib":"6+","altim":1021,"clouds":[],"obsTime":1784602800},"SBTE":{"icaoId":"SBTE","flightCategory":"VFR","rawOb":"METAR SBTE 210300Z 10004KT CAVOK 28/20 Q1013","temp":28,"dewp":20,"wdir":100,"wspd":4,"visib":"6+","altim":1013,"clouds":[],"obsTime":1784602800},"SBBE":{"icaoId":"SBBE","flightCategory":"VFR","rawOb":"METAR SBBE 210300Z 08011KT 9999 FEW040 BKN080 26/24 Q1013","temp":26,"dewp":24,"wdir":80,"wspd":11,"visib":"6+","altim":1013,"clouds":[{"cover":"FEW","base":4000},{"cover":"BKN","base":8000}],"obsTime":1784602800},"SBMQ":{"icaoId":"SBMQ","flightCategory":"MVFR","rawOb":"METAR SBMQ 210300Z 03007KT 9999 BKN017 27/25 Q1013","temp":27,"dewp":25,"wdir":30,"wspd":7,"visib":"6+","altim":1013,"clouds":[{"cover":"BKN","base":1700}],"obsTime":1784602800},"SBSN":{"icaoId":"SBSN","flightCategory":"VFR","rawOb":"METAR SBSN 210300Z 12002KT CAVOK 25/24 Q1012","temp":25,"dewp":24,"wdir":120,"wspd":2,"visib":"6+","altim":1012,"clouds":[],"obsTime":1784602800},"SBGR":{"icaoId":"SBGR","flightCategory":"VFR","rawOb":"METAR SBGR 210300Z 06003KT CAVOK 18/11 Q1018","temp":18,"dewp":11,"wdir":60,"wspd":3,"visib":"6+","altim":1018,"clouds":[],"obsTime":1784602800},"SBPA":{"icaoId":"SBPA","flightCategory":"MVFR","rawOb":"METAR SBPA 210300Z 12003KT 080V160 5000 -TSRA BR SCT025 FEW035CB BKN060 19/19 Q1007 RETS","temp":19,"dewp":19,"wdir":120,"wspd":3,"visib":3.11,"altim":1007,"clouds":[{"cover":"SCT","base":2500},{"cover":"FEW","base":3500},{"cover":"BKN","base":6000}],"obsTime":1784602800},"SBEG":{"icaoId":"SBEG","flightCategory":"VFR","rawOb":"METAR SBEG 210300Z 08002KT 9999 VCTS FEW035CB 26/24 Q1012","temp":26,"dewp":24,"wdir":80,"wspd":2,"visib":"6+","altim":1012,"clouds":[{"cover":"FEW","base":3500}],"obsTime":1784602800},"SBFL":{"icaoId":"SBFL","flightCategory":"VFR","rawOb":"METAR SBFL 210300Z 32012KT CAVOK 20/17 Q1010","temp":20,"dewp":17,"wdir":320,"wspd":12,"visib":"6+","altim":1010,"clouds":[],"obsTime":1784602800},"SBPV":{"icaoId":"SBPV","flightCategory":"VFR","rawOb":"METAR SBPV 210300Z 00000KT CAVOK 25/22 Q1010","temp":25,"dewp":22,"wdir":0,"wspd":0,"visib":"6+","altim":1010,"clouds":[],"obsTime":1784602800},"SBCG":{"icaoId":"SBCG","flightCategory":"VFR","rawOb":"METAR SBCG 210300Z 36009KT CAVOK 23/16 Q1014","temp":23,"dewp":16,"wdir":360,"wspd":9,"visib":"6+","altim":1014,"clouds":[],"obsTime":1784602800},"SBFZ":{"icaoId":"SBFZ","flightCategory":"MVFR","rawOb":"METAR SBFZ 210300Z 10009KT 9999 FEW008 BKN012 OVC070 25/24 Q1013","temp":25,"dewp":24,"wdir":100,"wspd":9,"visib":"6+","altim":1013,"clouds":[{"cover":"FEW","base":800},{"cover":"BKN","base":1200},{"cover":"OVC","base":7000}],"obsTime":1784602800},"SBCT":{"icaoId":"SBCT","flightCategory":"VFR","rawOb":"METAR SBCT 210300Z 01005KT CAVOK 17/14 Q1018","temp":17,"dewp":14,"wdir":10,"wspd":5,"visib":"6+","altim":1018,"clouds":[],"obsTime":1784602800},"SBSP":{"icaoId":"SBSP","flightCategory":"VFR","rawOb":"METAR SBSP 210300Z AUTO 32005KT CAVOK 18/10 Q1019","temp":18,"dewp":10,"wdir":320,"wspd":5,"visib":"6+","altim":1019,"clouds":[],"obsTime":1784602800},"SBJU":{"icaoId":"SBJU","flightCategory":"VFR","rawOb":"METAR SBJU 210300Z 17004KT 9999 FEW020 25/17 Q1016","temp":25,"dewp":17,"wdir":170,"wspd":4,"visib":"6+","altim":1016,"clouds":[{"cover":"FEW","base":2000}],"obsTime":1784602800},"SBMG":{"icaoId":"SBMG","flightCategory":"VFR","rawOb":"METAR SBMG 210300Z 03011KT CAVOK 22/14 Q1013","temp":22,"dewp":14,"wdir":30,"wspd":11,"visib":"6+","altim":1013,"clouds":[],"obsTime":1784602800},"SBME":{"icaoId":"SBME","flightCategory":"VFR","rawOb":"METAR SBME 210300Z 03012KT CAVOK 20/18 Q1016","temp":20,"dewp":18,"wdir":30,"wspd":12,"visib":"6+","altim":1016,"clouds":[],"obsTime":1784602800},"SBIL":{"icaoId":"SBIL","flightCategory":"VFR","rawOb":"METAR SBIL 210300Z 30005KT 9999 SCT020 21/20 Q1018","temp":21,"dewp":20,"wdir":300,"wspd":5,"visib":"6+","altim":1018,"clouds":[{"cover":"SCT","base":2000}],"obsTime":1784602800},"SBPS":{"icaoId":"SBPS","flightCategory":"VFR","rawOb":"METAR SBPS 210300Z 27004KT 9999 SCT015 BKN070 21/20 Q1019","temp":21,"dewp":20,"wdir":270,"wspd":4,"visib":"6+","altim":1019,"clouds":[{"cover":"SCT","base":1500},{"cover":"BKN","base":7000}],"obsTime":1784602800},"SBKG":{"icaoId":"SBKG","flightCategory":"IFR","rawOb":"METAR SBKG 210300Z 16007KT 9999 BKN007 SCT070 21/20 Q1017","temp":21,"dewp":20,"wdir":160,"wspd":7,"visib":"6+","altim":1017,"clouds":[{"cover":"BKN","base":700},{"cover":"SCT","base":7000}],"obsTime":1784602800},"SBAX":{"icaoId":"SBAX","flightCategory":"VFR","rawOb":"METAR SBAX 210300Z AUTO 12007KT CAVOK 15/09 Q1021","temp":15,"dewp":9,"wdir":120,"wspd":7,"visib":"6+","altim":1021,"clouds":[],"obsTime":1784602800},"SBDN":{"icaoId":"SBDN","flightCategory":"VFR","rawOb":"METAR SBDN 210300Z 05007KT CAVOK 22/13 Q1014","temp":22,"dewp":13,"wdir":50,"wspd":7,"visib":"6+","altim":1014,"clouds":[],"obsTime":1784602800},"SBIP":{"icaoId":"SBIP","flightCategory":"VFR","rawOb":"METAR SBIP 210300Z AUTO 01005KT CAVOK 22/16 Q1019","temp":22,"dewp":16,"wdir":10,"wspd":5,"visib":"6+","altim":1019,"clouds":[],"obsTime":1784602800},"SBSC":{"icaoId":"SBSC","flightCategory":"VFR","rawOb":"METAR SBSC 210300Z 31004KT CAVOK 21/14 Q1014","temp":21,"dewp":14,"wdir":310,"wspd":4,"visib":"6+","altim":1014,"clouds":[],"obsTime":1784602800},"SBSR":{"icaoId":"SBSR","flightCategory":"VFR","rawOb":"METAR SBSR 210300Z 09002KT CAVOK 21/12 Q1017","temp":21,"dewp":12,"wdir":90,"wspd":2,"visib":"6+","altim":1017,"clouds":[],"obsTime":1784602800},"SBTU":{"icaoId":"SBTU","flightCategory":"VFR","rawOb":"METAR SBTU 210300Z AUTO 20004KT 9999 // NCD ///// Q1014","temp":null,"dewp":null,"wdir":200,"wspd":4,"visib":"6+","altim":1014,"clouds":[],"obsTime":1784602800},"SBOI":{"icaoId":"SBOI","flightCategory":"VFR","rawOb":"METAR SBOI 210300Z AUTO 00000KT CAVOK 24/23 Q1013","temp":24,"dewp":23,"wdir":0,"wspd":0,"visib":"6+","altim":1013,"clouds":[],"obsTime":1784602800},"SBPL":{"icaoId":"SBPL","flightCategory":"MVFR","rawOb":"METAR SBPL 210300Z 12009KT 9999 BKN020 23/19 Q1017","temp":23,"dewp":19,"wdir":120,"wspd":9,"visib":"6+","altim":1017,"clouds":[{"cover":"BKN","base":2000}],"obsTime":1784602800},"SBAR":{"icaoId":"SBAR","flightCategory":"VFR","rawOb":"METAR SBAR 210300Z 12007KT 9999 FEW015 25/20 Q1016","temp":25,"dewp":20,"wdir":120,"wspd":7,"visib":"6+","altim":1016,"clouds":[{"cover":"FEW","base":1500}],"obsTime":1784602800},"SBCO":{"icaoId":"SBCO","flightCategory":"MVFR","rawOb":"METAR SBCO 210300Z 10003KT 7000 TS FEW004 FEW020CB BKN066 18/18 Q1008 RETS","temp":18,"dewp":18,"wdir":100,"wspd":3,"visib":4.35,"altim":1008,"clouds":[{"cover":"FEW","base":400},{"cover":"FEW","base":2000},{"cover":"BKN","base":6600}],"obsTime":1784602800},"SBSM":{"icaoId":"SBSM","flightCategory":"IFR","rawOb":"METAR SBSM 210300Z 03004KT 4000 -RA BR BKN007 OVC016 20/20 Q1008","temp":20,"dewp":20,"wdir":30,"wspd":4,"visib":2.49,"altim":1008,"clouds":[{"cover":"BKN","base":700},{"cover":"OVC","base":1600}],"obsTime":1784602800},"SBLE":{"icaoId":"SBLE","flightCategory":"VFR","rawOb":"METAR SBLE 210300Z AUTO 30002KT CAVOK ///// Q1020","temp":null,"dewp":null,"wdir":300,"wspd":2,"visib":"6+","altim":1020,"clouds":[],"obsTime":1784602800},"SBNM":{"icaoId":"SBNM","flightCategory":"MVFR","rawOb":"METAR SBNM 210300Z AUTO 31004KT 9999 OVC010 21/20 Q1009","temp":21,"dewp":20,"wdir":310,"wspd":4,"visib":"6+","altim":1009,"clouds":[{"cover":"OVC","base":1000}],"obsTime":1784602800},"SBAN":{"icaoId":"SBAN","flightCategory":"VFR","rawOb":"METAR SBAN 210300Z 12004KT CAVOK 18/09 Q1021","temp":18,"dewp":9,"wdir":120,"wspd":4,"visib":"6+","altim":1021,"clouds":[],"obsTime":1784602800},"SBJP":{"icaoId":"SBJP","flightCategory":"MVFR","rawOb":"METAR SBJP 210300Z 00000KT 9999 BKN017 23/22 Q1015","temp":23,"dewp":22,"wdir":0,"wspd":0,"visib":"6+","altim":1015,"clouds":[{"cover":"BKN","base":1700}],"obsTime":1784602800},"SBTA":{"icaoId":"SBTA","flightCategory":"VFR","rawOb":"METAR SBTA 210300Z VRB01KT CAVOK 12/10 Q1017","temp":12,"dewp":10,"wdir":"VRB","wspd":1,"visib":"6+","altim":1017,"clouds":[],"obsTime":1784602800}}}