{"updated":1775760210,"count":86,"data":{"SBVT":{"icaoId":"SBVT","flightCategory":"VFR","rawOb":"METAR SBVT 091700Z 08008KT 050V120 9999 VCSH VCTS FEW025 FEW035CB SCT100 31/24 Q1009","temp":31,"dewp":24,"wdir":80,"wspd":8,"visib":"6+","altim":1009,"clouds":[{"cover":"FEW","base":2500},{"cover":"FEW","base":3500},{"cover":"SCT","base":10000}],"obsTime":1775754000},"SBAT":{"icaoId":"SBAT","flightCategory":"VFR","rawOb":"METAR SBAT 091700Z 02002KT 9999 SCT025 31/24 Q1012","temp":31,"dewp":24,"wdir":20,"wspd":2,"visib":"6+","altim":1012,"clouds":[{"cover":"SCT","base":2500}],"obsTime":1775754000},"SBBE":{"icaoId":"SBBE","flightCategory":"MVFR","rawOb":"METAR SBBE 091700Z 34010KT 9999 VCSH BKN025 FEW030TCU 31/26 Q1011","temp":31,"dewp":26,"wdir":340,"wspd":10,"visib":"6+","altim":1011,"clouds":[{"cover":"BKN","base":2500},{"cover":"FEW","base":3000}],"obsTime":1775754000},"SBBR":{"icaoId":"SBBR","flightCategory":"LIFR","rawOb":"METAR SBBR 091700Z VRB05KT 1500 R11L/P2000 R29R/P2000 R11R/P2000 R29L/P2000 TSRA BKN035 FEW045CB BKN100 22/20 Q1018 RETS","temp":22,"dewp":20,"wdir":"VRB","wspd":5,"visib":0.93,"altim":1018,"clouds":[{"cover":"BKN","base":3500},{"cover":"FEW","base":4500},{"cover":"BKN","base":10000}],"obsTime":1775754000},"SBBV":{"icaoId":"SBBV","flightCategory":"VFR","rawOb":"METAR SBBV 091700Z 13008KT 9999 FEW030 FEW035TCU BKN080 30/23 Q1012","temp":30,"dewp":23,"wdir":130,"wspd":8,"visib":"6+","altim":1012,"clouds":[{"cover":"FEW","base":3000},{"cover":"FEW","base":3500},{"cover":"BKN","base":8000}],"obsTime":1775754000},"SBCB":{"icaoId":"SBCB","flightCategory":"VFR","rawOb":"METAR SBCB 091700Z 25018KT CAVOK 29/22 Q1011","temp":29,"dewp":22,"wdir":250,"wspd":18,"visib":"6+","altim":1011,"clouds":[],"obsTime":1775754000},"SBCF":{"icaoId":"SBCF","flightCategory":"VFR","rawOb":"METAR SBCF 091700Z 25008KT 9999 BKN040 FEW040TCU 30/18 Q1015","temp":30,"dewp":18,"wdir":250,"wspd":8,"visib":"6+","altim":1015,"clouds":[{"cover":"BKN","base":4000},{"cover":"FEW","base":4000}],"obsTime":1775754000},"SBCG":{"icaoId":"SBCG","flightCategory":"MVFR","rawOb":"METAR SBCG 091700Z 22008KT 180V250 9999 VCSH BKN030 FEW050TCU BKN100 28/21 Q1016","temp":28,"dewp":21,"wdir":220,"wspd":8,"visib":"6+","altim":1016,"clouds":[{"cover":"BKN","base":3000},{"cover":"FEW","base":5000},{"cover":"BKN","base":10000}],"obsTime":1775754000},"SBCP":{"icaoId":"SBCP","flightCategory":"VFR","rawOb":"METAR SBCP 091700Z 20010KT 9999 SCT025 33/22 Q1009","temp":33,"dewp":22,"wdir":200,"wspd":10,"visib":"6+","altim":1009,"clouds":[{"cover":"SCT","base":2500}],"obsTime":1775754000},"SBCR":{"icaoId":"SBCR","flightCategory":"VFR","rawOb":"METAR SBCR 091700Z 21009KT 180V250 9999 FEW017 SCT040 26/22 Q1014","temp":26,"dewp":22,"wdir":210,"wspd":9,"visib":"6+","altim":1014,"clouds":[{"cover":"FEW","base":1700},{"cover":"SCT","base":4000}],"obsTime":1775754000},"SBCT":{"icaoId":"SBCT","flightCategory":"VFR","rawOb":"METAR SBCT 091700Z 29006KT 170V340 9999 FEW045 24/13 Q1017","temp":24,"dewp":13,"wdir":290,"wspd":6,"visib":"6+","altim":1017,"clouds":[{"cover":"FEW","base":4500}],"obsTime":1775754000},"SBCZ":{"icaoId":"SBCZ","flightCategory":"MVFR","rawOb":"METAR SBCZ 091700Z 30003KT 9999 BKN030 BKN100 30/24 Q1014","temp":30,"dewp":24,"wdir":300,"wspd":3,"visib":"6+","altim":1014,"clouds":[{"cover":"BKN","base":3000},{"cover":"BKN","base":10000}],"obsTime":1775754000},"SBEG":{"icaoId":"SBEG","flightCategory":"VFR","rawOb":"METAR SBEG 091700Z 04006KT 9999 VCSH FEW007 FEW025TCU BKN090 24/23 Q1013 RETS","temp":24,"dewp":23,"wdir":40,"wspd":6,"visib":"6+","altim":1013,"clouds":[{"cover":"FEW","base":700},{"cover":"FEW","base":2500},{"cover":"BKN","base":9000}],"obsTime":1775754000},"SBFI":{"icaoId":"SBFI","flightCategory":"VFR","rawOb":"METAR SBFI 091700Z 21008KT 9999 SCT030 25/17 Q1015","temp":25,"dewp":17,"wdir":210,"wspd":8,"visib":"6+","altim":1015,"clouds":[{"cover":"SCT","base":3000}],"obsTime":1775754000},"SBFL":{"icaoId":"SBFL","flightCategory":"VFR","rawOb":"METAR SBFL 091700Z 14011KT 9999 FEW030 26/19 Q1012","temp":26,"dewp":19,"wdir":140,"wspd":11,"visib":"6+","altim":1012,"clouds":[{"cover":"FEW","base":3000}],"obsTime":1775754000},"SBFZ":{"icaoId":"SBFZ","flightCategory":"MVFR","rawOb":"METAR SBFZ 091700Z 36006KT 310V070 9000 VCSH BKN017 FEW025TCU 29/25 Q1010","temp":29,"dewp":25,"wdir":360,"wspd":6,"visib":5.59,"altim":1010,"clouds":[{"cover":"BKN","base":1700},{"cover":"FEW","base":2500}],"obsTime":1775754000},"SBGL":{"icaoId":"SBGL","flightCategory":"VFR","rawOb":"METAR SBGL 091700Z 22018KT 9999 FEW030 SCT045 31/21 Q1011","temp":31,"dewp":21,"wdir":220,"wspd":18,"visib":"6+","altim":1011,"clouds":[{"cover":"FEW","base":3000},{"cover":"SCT","base":4500}],"obsTime":1775754000},"SBGO":{"icaoId":"SBGO","flightCategory":"VFR","rawOb":"METAR SBGO 091700Z VRB02KT 9999 BKN040 29/21 Q1015","temp":29,"dewp":21,"wdir":"VRB","wspd":2,"visib":"6+","altim":1015,"clouds":[{"cover":"BKN","base":4000}],"obsTime":1775754000},"SBGR":{"icaoId":"SBGR","flightCategory":"VFR","rawOb":"METAR SBGR 091700Z 26012KT 9999 BKN036 27/19 Q1016","temp":27,"dewp":19,"wdir":260,"wspd":12,"visib":"6+","altim":1016,"clouds":[{"cover":"BKN","base":3600}],"obsTime":1775754000},"SBHT":{"icaoId":"SBHT","flightCategory":"MVFR","rawOb":"METAR SBHT 091700Z 09006KT 9999 BKN025 SCT100 32/24 Q1011","temp":32,"dewp":24,"wdir":90,"wspd":6,"visib":"6+","altim":1011,"clouds":[{"cover":"BKN","base":2500},{"cover":"SCT","base":10000}],"obsTime":1775754000},"SBIL":{"icaoId":"SBIL","flightCategory":"VFR","rawOb":"METAR SBIL 091700Z 10007KT 9999 FEW020 31/24 Q1012","temp":31,"dewp":24,"wdir":100,"wspd":7,"visib":"6+","altim":1012,"clouds":[{"cover":"FEW","base":2000}],"obsTime":1775754000},"SBJU":{"icaoId":"SBJU","flightCategory":"MVFR","rawOb":"METAR SBJU 091700Z 13008KT 9999 BKN022 30/22 Q1013","temp":30,"dewp":22,"wdir":130,"wspd":8,"visib":"6+","altim":1013,"clouds":[{"cover":"BKN","base":2200}],"obsTime":1775754000},"SBKP":{"icaoId":"SBKP","flightCategory":"VFR","rawOb":"METAR SBKP 091700Z 24008KT 200V280 9999 SCT028 28/20 Q1015","temp":28,"dewp":20,"wdir":240,"wspd":8,"visib":"6+","altim":1015,"clouds":[{"cover":"SCT","base":2800}],"obsTime":1775754000},"SBLO":{"icaoId":"SBLO","flightCategory":"VFR","rawOb":"METAR SBLO 091700Z 26005KT 210V010 9999 BKN037 BKN095 26/19 Q1015","temp":26,"dewp":19,"wdir":260,"wspd":5,"visib":"6+","altim":1015,"clouds":[{"cover":"BKN","base":3700},{"cover":"BKN","base":9500}],"obsTime":1775754000},"SBMA":{"icaoId":"SBMA","flightCategory":"MVFR","rawOb":"METAR SBMA 091700Z 16004KT 9999 BKN025 32/24 Q1011","temp":32,"dewp":24,"wdir":160,"wspd":4,"visib":"6+","altim":1011,"clouds":[{"cover":"BKN","base":2500}],"obsTime":1775754000},"SBME":{"icaoId":"SBME","flightCategory":"VFR","rawOb":"METAR SBME 091700Z 20012KT 9999 FEW030 33/21 Q1009","temp":33,"dewp":21,"wdir":200,"wspd":12,"visib":"6+","altim":1009,"clouds":[{"cover":"FEW","base":3000}],"obsTime":1775754000},"SBMG":{"icaoId":"SBMG","flightCategory":"VFR","rawOb":"METAR SBMG 091700Z 24004KT 200V290 9999 FEW030 BKN083 24/16 Q1015","temp":24,"dewp":16,"wdir":240,"wspd":4,"visib":"6+","altim":1015,"clouds":[{"cover":"FEW","base":3000},{"cover":"BKN","base":8300}],"obsTime":1775754000},"SBMK":{"icaoId":"SBMK","flightCategory":"VFR","rawOb":"METAR SBMK 091700Z 09003KT 9999 SCT040 30/19 Q1013","temp":30,"dewp":19,"wdir":90,"wspd":3,"visib":"6+","altim":1013,"clouds":[{"cover":"SCT","base":4000}],"obsTime":1775754000},"SBMO":{"icaoId":"SBMO","flightCategory":"MVFR","rawOb":"METAR SBMO 091700Z 12011KT 9999 BKN028 29/23 Q1011","temp":29,"dewp":23,"wdir":120,"wspd":11,"visib":"6+","altim":1011,"clouds":[{"cover":"BKN","base":2800}],"obsTime":1775754000},"SBMQ":{"icaoId":"SBMQ","flightCategory":"VFR","rawOb":"METAR SBMQ 091700Z 07011KT 030V110 9999 4000NE VCSH SCT021 FEW030TCU SCT090 32/25 Q1011","temp":32,"dewp":25,"wdir":70,"wspd":11,"visib":"6+","altim":1011,"clouds":[{"cover":"SCT","base":2100},{"cover":"FEW","base":3000},{"cover":"SCT","base":9000}],"obsTime":1775754000},"SBNT":{"icaoId":"SBNT","flightCategory":"MVFR","rawOb":"METAR SBNT 091700Z 13016KT 100V160 9999 BKN017 FEW025TCU BKN080 30/25 Q1011","temp":30,"dewp":25,"wdir":130,"wspd":16,"visib":"6+","altim":1011,"clouds":[{"cover":"BKN","base":1700},{"cover":"FEW","base":2500},{"cover":"BKN","base":8000}],"obsTime":1775754000},"SBPA":{"icaoId":"SBPA","flightCategory":"VFR","rawOb":"METAR SBPA 091700Z 26010KT 210V290 9999 SCT040 24/14 Q1015","temp":24,"dewp":14,"wdir":260,"wspd":10,"visib":"6+","altim":1015,"clouds":[{"cover":"SCT","base":4000}],"obsTime":1775754000},"SBPJ":{"icaoId":"SBPJ","flightCategory":"VFR","rawOb":"METAR SBPJ 091700Z 34009KT 9999 VCSH SCT027 FEW033TCU SCT070 28/25 Q1012","temp":28,"dewp":25,"wdir":340,"wspd":9,"visib":"6+","altim":1012,"clouds":[{"cover":"SCT","base":2700},{"cover":"FEW","base":3300},{"cover":"SCT","base":7000}],"obsTime":1775754000},"SBPV":{"icaoId":"SBPV","flightCategory":"MVFR","rawOb":"METAR SBPV 091700Z 16005KT 9999 SCT020 BKN030 28/25 Q1012","temp":28,"dewp":25,"wdir":160,"wspd":5,"visib":"6+","altim":1012,"clouds":[{"cover":"SCT","base":2000},{"cover":"BKN","base":3000}],"obsTime":1775754000},"SBRB":{"icaoId":"SBRB","flightCategory":"VFR","rawOb":"METAR SBRB 091700Z 08003KT 060V150 9999 SCT020 SCT030 BKN070 28/25 Q1015","temp":28,"dewp":25,"wdir":80,"wspd":3,"visib":"6+","altim":1015,"clouds":[{"cover":"SCT","base":2000},{"cover":"SCT","base":3000},{"cover":"BKN","base":7000}],"obsTime":1775754000},"SBRF":{"icaoId":"SBRF","flightCategory":"VFR","rawOb":"METAR SBRF 091700Z 14011KT 110V170 9999 FEW025 30/24 Q1011","temp":30,"dewp":24,"wdir":140,"wspd":11,"visib":"6+","altim":1011,"clouds":[{"cover":"FEW","base":2500}],"obsTime":1775754000},"SBSG":{"icaoId":"SBSG","flightCategory":"MVFR","rawOb":"METAR SBSG 091700Z 14006KT 9999 VCSH BKN030 FEW033TCU 31/23 Q1010","temp":31,"dewp":23,"wdir":140,"wspd":6,"visib":"6+","altim":1010,"clouds":[{"cover":"BKN","base":3000},{"cover":"FEW","base":3300}],"obsTime":1775754000},"SBSL":{"icaoId":"SBSL","flightCategory":"MVFR","rawOb":"METAR SBSL 091700Z 03012KT 9999 VCSH BKN020 FEW025TCU 29/25 Q1010 RETS","temp":29,"dewp":25,"wdir":30,"wspd":12,"visib":"6+","altim":1010,"clouds":[{"cover":"BKN","base":2000},{"cover":"FEW","base":2500}],"obsTime":1775754000},"SBSN":{"icaoId":"SBSN","flightCategory":"VFR","rawOb":"METAR SBSN 091700Z 09013KT 9999 VCSH SCT020 FEW023TCU SCT100 30/26 Q1011","temp":30,"dewp":26,"wdir":90,"wspd":13,"visib":"6+","altim":1011,"clouds":[{"cover":"SCT","base":2000},{"cover":"FEW","base":2300},{"cover":"SCT","base":10000}],"obsTime":1775754000},"SBSP":{"icaoId":"SBSP","flightCategory":"MVFR","rawOb":"METAR SBSP 091700Z 21006KT 170V260 9999 BKN025 25/19 Q1017","temp":25,"dewp":19,"wdir":210,"wspd":6,"visib":"6+","altim":1017,"clouds":[{"cover":"BKN","base":2500}],"obsTime":1775754000},"SBSV":{"icaoId":"SBSV","flightCategory":"VFR","rawOb":"METAR SBSV 091700Z 11007KT 060V150 9999 SCT023 30/21 Q1012","temp":30,"dewp":21,"wdir":110,"wspd":7,"visib":"6+","altim":1012,"clouds":[{"cover":"SCT","base":2300}],"obsTime":1775754000},"SBTE":{"icaoId":"SBTE","flightCategory":"MVFR","rawOb":"METAR SBTE 091700Z 10003KT 9999 BKN020 32/23 Q1010","temp":32,"dewp":23,"wdir":100,"wspd":3,"visib":"6+","altim":1010,"clouds":[{"cover":"BKN","base":2000}],"obsTime":1775754000},"SBUL":{"icaoId":"SBUL","flightCategory":"VFR","rawOb":"METAR SBUL 091700Z 27006KT 9999 SCT035 27/19 Q1017","temp":27,"dewp":19,"wdir":270,"wspd":6,"visib":"6+","altim":1017,"clouds":[{"cover":"SCT","base":3500}],"obsTime":1775754000},"SBUR":{"icaoId":"SBUR","flightCategory":"VFR","rawOb":"METAR SBUR 091700Z 24008KT 9999 FEW032 28/19 Q1016","temp":28,"dewp":19,"wdir":240,"wspd":8,"visib":"6+","altim":1016,"clouds":[{"cover":"FEW","base":3200}],"obsTime":1775754000},"SBCA":{"icaoId":"SBCA","flightCategory":"VFR","rawOb":"METAR SBCA 091700Z 21005KT 9999 SCT020 22/15 Q1018","temp":22,"dewp":15,"wdir":210,"wspd":5,"visib":"6+","altim":1018,"clouds":[{"cover":"SCT","base":2000}],"obsTime":1775754000},"SBAX":{"icaoId":"SBAX","flightCategory":"VFR","rawOb":"METAR SBAX 091700Z AUTO 20006KT 170V230 9999 FEW045 25/16 Q1017","temp":25,"dewp":16,"wdir":200,"wspd":6,"visib":"6+","altim":1017,"clouds":[{"cover":"FEW","base":4500}],"obsTime":1775754000},"SBBH":{"icaoId":"SBBH","flightCategory":"VFR","rawOb":"METAR SBBH 091700Z 25008KT 9999 SCT046 SCT070 30/18 Q1015","temp":30,"dewp":18,"wdir":250,"wspd":8,"visib":"6+","altim":1015,"clouds":[{"cover":"SCT","base":4600},{"cover":"SCT","base":7000}],"obsTime":1775754000},"SBBQ":{"icaoId":"SBBQ","flightCategory":"VFR","rawOb":"METAR SBBQ 091700Z 27006KT 9999 BKN035 27/17 Q1018","temp":27,"dewp":17,"wdir":270,"wspd":6,"visib":"6+","altim":1018,"clouds":[{"cover":"BKN","base":3500}],"obsTime":1775754000},"SBBU":{"icaoId":"SBBU","flightCategory":"MVFR","rawOb":"METAR SBBU 091700Z 25008KT 9999 BKN030 29/21 Q1015","temp":29,"dewp":21,"wdir":250,"wspd":8,"visib":"6+","altim":1015,"clouds":[{"cover":"BKN","base":3000}],"obsTime":1775754000},"SBAR":{"icaoId":"SBAR","flightCategory":"VFR","rawOb":"METAR SBAR 091700Z 14009KT 9999 FEW027 SCT050 30/22 Q1011","temp":30,"dewp":22,"wdir":140,"wspd":9,"visib":"6+","altim":1011,"clouds":[{"cover":"FEW","base":2700},{"cover":"SCT","base":5000}],"obsTime":1775754000},"SBCC":{"icaoId":"SBCC","flightCategory":"MVFR","rawOb":"METAR SBCC 091700Z 13010KT 9999 TS VCSH BKN020 FEW025CB BKN100 27/22 Q1013 RETS","temp":27,"dewp":22,"wdir":130,"wspd":10,"visib":"6+","altim":1013,"clouds":[{"cover":"BKN","base":2000},{"cover":"FEW","base":2500},{"cover":"BKN","base":10000}],"obsTime":1775754000},"SBCJ":{"icaoId":"SBCJ","flightCategory":"VFR","rawOb":"METAR SBCJ 091700Z 02005KT 9999 SCT013 SCT018 26/23 Q1016","temp":26,"dewp":23,"wdir":20,"wspd":5,"visib":"6+","altim":1016,"clouds":[{"cover":"SCT","base":1300},{"cover":"SCT","base":1800}],"obsTime":1775754000},"SBCO":{"icaoId":"SBCO","flightCategory":"VFR","rawOb":"METAR SBCO 091700Z 28012KT 220V300 9999 SCT035 23/13 Q1016","temp":23,"dewp":13,"wdir":280,"wspd":12,"visib":"6+","altim":1016,"clouds":[{"cover":"SCT","base":3500}],"obsTime":1775754000},"SBDN":{"icaoId":"SBDN","flightCategory":"VFR","rawOb":"METAR SBDN 091700Z 23009KT 9999 BKN036 29/20 Q1015","temp":29,"dewp":20,"wdir":230,"wspd":9,"visib":"6+","altim":1015,"clouds":[{"cover":"BKN","base":3600}],"obsTime":1775754000},"SBES":{"icaoId":"SBES","flightCategory":"VFR","rawOb":"METAR SBES 091700Z 24012G24KT 160V280 9999 FEW025 29/// Q1010","temp":null,"dewp":null,"wdir":240,"wspd":12,"visib":"6+","altim":1010,"clouds":[{"cover":"FEW","base":2500}],"obsTime":1775754000},"SBGM":{"icaoId":"SBGM","flightCategory":"MVFR","rawOb":"METAR SBGM 091700Z 16004KT 050V210 9999 BKN020 30/21 Q1013","temp":30,"dewp":21,"wdir":160,"wspd":4,"visib":"6+","altim":1013,"clouds":[{"cover":"BKN","base":2000}],"obsTime":1775754000},"SBIP":{"icaoId":"SBIP","flightCategory":"VFR","rawOb":"METAR SBIP 091700Z AUTO 34004KT 300V010 9999 FEW038 31/22 Q1011","temp":31,"dewp":22,"wdir":340,"wspd":4,"visib":"6+","altim":1011,"clouds":[{"cover":"FEW","base":3800}],"obsTime":1775754000},"SBKG":{"icaoId":"SBKG","flightCategory":"MVFR","rawOb":"METAR SBKG 091700Z 17004KT 9999 BKN025 SCT070 29/21 Q1013","temp":29,"dewp":21,"wdir":170,"wspd":4,"visib":"6+","altim":1013,"clouds":[{"cover":"BKN","base":2500},{"cover":"SCT","base":7000}],"obsTime":1775754000},"SBOI":{"icaoId":"SBOI","flightCategory":"VFR","rawOb":"METAR SBOI 091700Z AUTO 09007KT 030V140 9999 FEW040 31/22 Q1012","temp":31,"dewp":22,"wdir":90,"wspd":7,"visib":"6+","altim":1012,"clouds":[{"cover":"FEW","base":4000}],"obsTime":1775754000},"SBPB":{"icaoId":"SBPB","flightCategory":"VFR","rawOb":"METAR SBPB 091700Z 05011KT 9999 SCT016 FEW025TCU 31/25 Q1010","temp":31,"dewp":25,"wdir":50,"wspd":11,"visib":"6+","altim":1010,"clouds":[{"cover":"SCT","base":1600},{"cover":"FEW","base":2500}],"obsTime":1775754000},"SBPL":{"icaoId":"SBPL","flightCategory":"MVFR","rawOb":"METAR SBPL 091700Z 10005KT 9999 BKN030 32/20 Q1012","temp":32,"dewp":20,"wdir":100,"wspd":5,"visib":"6+","altim":1012,"clouds":[{"cover":"BKN","base":3000}],"obsTime":1775754000},"SBPP":{"icaoId":"SBPP","flightCategory":"MVFR","rawOb":"METAR SBPP 091700Z 13006KT 9999 OVC015 20/18 Q1017","temp":20,"dewp":18,"wdir":130,"wspd":6,"visib":"6+","altim":1017,"clouds":[{"cover":"OVC","base":1500}],"obsTime":1775754000},"SBPS":{"icaoId":"SBPS","flightCategory":"VFR","rawOb":"METAR SBPS 091700Z 06013KT 9999 FEW030 30/24 Q1011","temp":30,"dewp":24,"wdir":60,"wspd":13,"visib":"6+","altim":1011,"clouds":[{"cover":"FEW","base":3000}],"obsTime":1775754000},"SBSC":{"icaoId":"SBSC","flightCategory":"VFR","rawOb":"METAR SBSC 091700Z 22012KT 9999 BKN038 27/23 Q1011","temp":27,"dewp":23,"wdir":220,"wspd":12,"visib":"6+","altim":1011,"clouds":[{"cover":"BKN","base":3800}],"obsTime":1775754000},"SBSJ":{"icaoId":"SBSJ","flightCategory":"MVFR","rawOb":"METAR SBSJ 091700Z 21010KT 9999 BKN030 FEW045TCU 28/20 Q1014","temp":28,"dewp":20,"wdir":210,"wspd":10,"visib":"6+","altim":1014,"clouds":[{"cover":"BKN","base":3000},{"cover":"FEW","base":4500}],"obsTime":1775754000},"SBSM":{"icaoId":"SBSM","flightCategory":"VFR","rawOb":"METAR SBSM 091700Z 28006KT 9999 BKN035 23/14 Q1017","temp":23,"dewp":14,"wdir":280,"wspd":6,"visib":"6+","altim":1017,"clouds":[{"cover":"BKN","base":3500}],"obsTime":1775754000},"SBSR":{"icaoId":"SBSR","flightCategory":"MVFR","rawOb":"METAR SBSR 091700Z 25007KT 200V300 9999 BKN030 29/20 Q1015","temp":29,"dewp":20,"wdir":250,"wspd":7,"visib":"6+","altim":1015,"clouds":[{"cover":"BKN","base":3000}],"obsTime":1775754000},"SBTF":{"icaoId":"SBTF","flightCategory":"VFR","rawOb":"METAR SBTF 091700Z 35004KT 9999 SCT017 32/25 Q1011","temp":32,"dewp":25,"wdir":350,"wspd":4,"visib":"6+","altim":1011,"clouds":[{"cover":"SCT","base":1700}],"obsTime":1775754000},"SBTT":{"icaoId":"SBTT","flightCategory":"VFR","rawOb":"METAR SBTT 091700Z 04004KT 9999 TSRA FEW017 SCT027 FEW030CB BKN070 28/23 Q1014","temp":28,"dewp":23,"wdir":40,"wspd":4,"visib":"6+","altim":1014,"clouds":[{"cover":"FEW","base":1700},{"cover":"SCT","base":2700},{"cover":"FEW","base":3000},{"cover":"BKN","base":7000}],"obsTime":1775754000},"SBUY":{"icaoId":"SBUY","flightCategory":"VFR","rawOb":"METAR SBUY 091700Z 20002KT 9999 FEW020 FEW030TCU SCT090 29/25 Q1012","temp":29,"dewp":25,"wdir":200,"wspd":2,"visib":"6+","altim":1012,"clouds":[{"cover":"FEW","base":2000},{"cover":"FEW","base":3000},{"cover":"SCT","base":9000}],"obsTime":1775754000},"SBVH":{"icaoId":"SBVH","flightCategory":"MVFR","rawOb":"METAR SBVH 091700Z 28004KT 9999 BKN030 FEW035TCU 30/23 Q1014","temp":30,"dewp":23,"wdir":280,"wspd":4,"visib":"6+","altim":1014,"clouds":[{"cover":"BKN","base":3000},{"cover":"FEW","base":3500}],"obsTime":1775754000},"SBAU":{"icaoId":"SBAU","flightCategory":"VFR","rawOb":"METAR SBAU 091700Z 27004KT 9999 SCT030 32/23 Q1014","temp":32,"dewp":23,"wdir":270,"wspd":4,"visib":"6+","altim":1014,"clouds":[{"cover":"SCT","base":3000}],"obsTime":1775754000},"SBTA":{"icaoId":"SBTA","flightCategory":"VFR","rawOb":"METAR SBTA 091700Z 26008KT 230V300 9999 BKN040 30/19 Q1013","temp":30,"dewp":19,"wdir":260,"wspd":8,"visib":"6+","altim":1013,"clouds":[{"cover":"BKN","base":4000}],"obsTime":1775754000},"SBAF":{"icaoId":"SBAF","flightCategory":"VFR","rawOb":" SBAF 091700Z 22014KT 190V250 9999 BKN043 29/22 Q1011","temp":29,"dewp":22,"wdir":220,"wspd":14,"visib":"6+","altim":1011,"clouds":[{"cover":"BKN","base":4300}],"obsTime":1775754000},"SBAN":{"icaoId":"SBAN","flightCategory":"MVFR","rawOb":"METAR SBAN 091700Z 32002KT 9999 VCSH BKN030 FEW035TCU 26/19 Q1018 RERA","temp":26,"dewp":19,"wdir":320,"wspd":2,"visib":"6+","altim":1018,"clouds":[{"cover":"BKN","base":3000},{"cover":"FEW","base":3500}],"obsTime":1775754000},"SBGW":{"icaoId":"SBGW","flightCategory":"VFR","rawOb":"METAR SBGW 091700Z 22004KT 150V290 9999 SCT030 30/19 Q1013","temp":30,"dewp":19,"wdir":220,"wspd":4,"visib":"6+","altim":1013,"clouds":[{"cover":"SCT","base":3000}],"obsTime":1775754000},"SBIH":{"icaoId":"SBIH","flightCategory":"VFR","rawOb":"METAR SBIH 091700Z 35002KT 9999 SCT019 30/25 Q1012","temp":30,"dewp":25,"wdir":350,"wspd":2,"visib":"6+","altim":1012,"clouds":[{"cover":"SCT","base":1900}],"obsTime":1775754000},"SBJP":{"icaoId":"SBJP","flightCategory":"VFR","rawOb":"METAR SBJP 091700Z 12010KT 9999 SCT020 BKN100 30/23 Q1011","temp":30,"dewp":23,"wdir":120,"wspd":10,"visib":"6+","altim":1011,"clouds":[{"cover":"SCT","base":2000},{"cover":"BKN","base":10000}],"obsTime":1775754000},"SBJR":{"icaoId":"SBJR","flightCategory":"VFR","rawOb":"METAR SBJR 091700Z 24011KT 9999 FEW025 SCT050 32/23 Q1011","temp":32,"dewp":23,"wdir":240,"wspd":11,"visib":"6+","altim":1011,"clouds":[{"cover":"FEW","base":2500},{"cover":"SCT","base":5000}],"obsTime":1775754000},"SBJV":{"icaoId":"SBJV","flightCategory":"VFR","rawOb":"METAR SBJV 091700Z 16007KT CAVOK 29/18 Q1012","temp":29,"dewp":18,"wdir":160,"wspd":7,"visib":"6+","altim":1012,"clouds":[],"obsTime":1775754000},"SBLE":{"icaoId":"SBLE","flightCategory":"VFR","rawOb":"METAR SBLE 091700Z AUTO 09005KT 060V130 9999 SCT042 30/20 Q1014","temp":30,"dewp":20,"wdir":90,"wspd":5,"visib":"6+","altim":1014,"clouds":[{"cover":"SCT","base":4200}],"obsTime":1775754000},"SBLS":{"icaoId":"SBLS","flightCategory":"VFR","rawOb":"METAR SBLS 091700Z 29004KT 210V020 9999 VCSH SCT040 FEW045TCU 30/19 Q1015","temp":30,"dewp":19,"wdir":290,"wspd":4,"visib":"6+","altim":1015,"clouds":[{"cover":"SCT","base":4000},{"cover":"FEW","base":4500}],"obsTime":1775754000},"SBMT":{"icaoId":"SBMT","flightCategory":"VFR","rawOb":"METAR SBMT 091700Z 27011KT 230V310 9999 BKN035 27/19 Q1015","temp":27,"dewp":19,"wdir":270,"wspd":11,"visib":"6+","altim":1015,"clouds":[{"cover":"BKN","base":3500}],"obsTime":1775754000},"SBNM":{"icaoId":"SBNM","flightCategory":"VFR","rawOb":"METAR SBNM 091700Z 19007KT 9999 SCT015 SCT020 24/16 Q1017","temp":24,"dewp":16,"wdir":190,"wspd":7,"visib":"6+","altim":1017,"clouds":[{"cover":"SCT","base":1500},{"cover":"SCT","base":2000}],"obsTime":1775754000},"SBST":{"icaoId":"SBST","flightCategory":"VFR","rawOb":"METAR SBST 091700Z 26005KT 200V310 9999 BKN048 26/19 Q1013","temp":26,"dewp":19,"wdir":260,"wspd":5,"visib":"6+","altim":1013,"clouds":[{"cover":"BKN","base":4800}],"obsTime":1775754000},"SBPF":{"icaoId":"SBPF","flightCategory":"MVFR","rawOb":"METAR SBPF 091700Z 23008KT 9999 BKN030 21/13 Q1018","temp":21,"dewp":13,"wdir":230,"wspd":8,"visib":"6+","altim":1018,"clouds":[{"cover":"BKN","base":3000}],"obsTime":1775754000}}}