{"updated":1777756004,"count":83,"data":{"SBCZ":{"icaoId":"SBCZ","flightCategory":"VFR","rawOb":"METAR SBCZ 022000Z 33002KT 9999 SCT040 BKN100 25/24 Q1011","temp":25,"dewp":24,"wdir":330,"wspd":2,"visib":"6+","altim":1011,"clouds":[{"cover":"SCT","base":4000},{"cover":"BKN","base":10000}],"obsTime":1777752000},"SBBE":{"icaoId":"SBBE","flightCategory":"VFR","rawOb":"METAR SBBE 022000Z 01006KT 9999 VCSH SCT025 FEW030TCU BKN060 29/26 Q1009","temp":29,"dewp":26,"wdir":10,"wspd":6,"visib":"6+","altim":1009,"clouds":[{"cover":"SCT","base":2500},{"cover":"FEW","base":3000},{"cover":"BKN","base":6000}],"obsTime":1777752000},"SBBR":{"icaoId":"SBBR","flightCategory":"VFR","rawOb":"METAR SBBR 022000Z 15006KT CAVOK 28/14 Q1020","temp":28,"dewp":14,"wdir":150,"wspd":6,"visib":"6+","altim":1020,"clouds":[],"obsTime":1777752000},"SBBV":{"icaoId":"SBBV","flightCategory":"VFR","rawOb":"METAR SBBV 022000Z 10011KT 9999 SCT040 FEW045TCU SCT100 32/22 Q1008","temp":32,"dewp":22,"wdir":100,"wspd":11,"visib":"6+","altim":1008,"clouds":[{"cover":"SCT","base":4000},{"cover":"FEW","base":4500},{"cover":"SCT","base":10000}],"obsTime":1777752000},"SBCB":{"icaoId":"SBCB","flightCategory":"MVFR","rawOb":"METAR SBCB 022000Z 21003KT 8000 SCT012 BKN030 28/19 Q1014","temp":28,"dewp":19,"wdir":210,"wspd":3,"visib":4.97,"altim":1014,"clouds":[{"cover":"SCT","base":1200},{"cover":"BKN","base":3000}],"obsTime":1777752000},"SBCF":{"icaoId":"SBCF","flightCategory":"VFR","rawOb":"METAR SBCF 022000Z 24009KT 9999 SCT045 27/15 Q1020","temp":27,"dewp":15,"wdir":240,"wspd":9,"visib":"6+","altim":1020,"clouds":[{"cover":"SCT","base":4500}],"obsTime":1777752000},"SBCG":{"icaoId":"SBCG","flightCategory":"VFR","rawOb":"METAR SBCG 022000Z 26009KT 9999 FEW040 30/19 Q1017","temp":30,"dewp":19,"wdir":260,"wspd":9,"visib":"6+","altim":1017,"clouds":[{"cover":"FEW","base":4000}],"obsTime":1777752000},"SBCP":{"icaoId":"SBCP","flightCategory":"VFR","rawOb":"METAR SBCP 022000Z 02005KT CAVOK 29/21 Q1014","temp":29,"dewp":21,"wdir":20,"wspd":5,"visib":"6+","altim":1014,"clouds":[],"obsTime":1777752000},"SBCR":{"icaoId":"SBCR","flightCategory":"VFR","rawOb":"METAR SBCR 022000Z 36004KT 320V040 9999 FEW040 SCT080 34/20 Q1013","temp":34,"dewp":20,"wdir":360,"wspd":4,"visib":"6+","altim":1013,"clouds":[{"cover":"FEW","base":4000},{"cover":"SCT","base":8000}],"obsTime":1777752000},"SBCT":{"icaoId":"SBCT","flightCategory":"VFR","rawOb":"METAR SBCT 022000Z 29007KT CAVOK 18/15 Q1022","temp":18,"dewp":15,"wdir":290,"wspd":7,"visib":"6+","altim":1022,"clouds":[],"obsTime":1777752000},"SBEG":{"icaoId":"SBEG","flightCategory":"VFR","rawOb":"METAR SBEG 022000Z 11005KT 9999 VCSH VCTS SCT025 FEW030CB SCT080 28/25 Q1010","temp":28,"dewp":25,"wdir":110,"wspd":5,"visib":"6+","altim":1010,"clouds":[{"cover":"SCT","base":2500},{"cover":"FEW","base":3000},{"cover":"SCT","base":8000}],"obsTime":1777752000},"SBFI":{"icaoId":"SBFI","flightCategory":"IFR","rawOb":"SPECI SBFI 021912Z 21004KT 4000 0300S R15/P2000 R33/P2000 BR BCFG BKN005 BKN020 OVC070 21/21 Q1018","temp":21,"dewp":21,"wdir":210,"wspd":4,"visib":2.49,"altim":1018,"clouds":[{"cover":"BKN","base":500},{"cover":"BKN","base":2000},{"cover":"OVC","base":7000}],"obsTime":1777749120},"SBFL":{"icaoId":"SBFL","flightCategory":"MVFR","rawOb":"METAR SBFL 022000Z 15009KT 120V200 9999 BKN017 BKN052 23/20 Q1015","temp":23,"dewp":20,"wdir":150,"wspd":9,"visib":"6+","altim":1015,"clouds":[{"cover":"BKN","base":1700},{"cover":"BKN","base":5200}],"obsTime":1777752000},"SBFZ":{"icaoId":"SBFZ","flightCategory":"MVFR","rawOb":"METAR SBFZ 022000Z 09010KT 9999 BKN017 BKN080 28/24 Q1010","temp":28,"dewp":24,"wdir":90,"wspd":10,"visib":"6+","altim":1010,"clouds":[{"cover":"BKN","base":1700},{"cover":"BKN","base":8000}],"obsTime":1777752000},"SBGL":{"icaoId":"SBGL","flightCategory":"VFR","rawOb":"METAR SBGL 022000Z 13004KT 090V220 9999 FEW035 SCT080 28/23 Q1014","temp":28,"dewp":23,"wdir":130,"wspd":4,"visib":"6+","altim":1014,"clouds":[{"cover":"FEW","base":3500},{"cover":"SCT","base":8000}],"obsTime":1777752000},"SBGO":{"icaoId":"SBGO","flightCategory":"VFR","rawOb":"METAR SBGO 022000Z 13006KT CAVOK 30/15 Q1019","temp":30,"dewp":15,"wdir":130,"wspd":6,"visib":"6+","altim":1019,"clouds":[],"obsTime":1777752000},"SBGR":{"icaoId":"SBGR","flightCategory":"MVFR","rawOb":"METAR SBGR 022000Z 23009KT 9999 OVC021 22/18 Q1021","temp":22,"dewp":18,"wdir":230,"wspd":9,"visib":"6+","altim":1021,"clouds":[{"cover":"OVC","base":2100}],"obsTime":1777752000},"SBKP":{"icaoId":"SBKP","flightCategory":"VFR","rawOb":"SPECI SBKP 021940Z 26030G40KT 9999 4000W -TSRA SCT045 FEW050CB BKN070 27/18 Q1019","temp":27,"dewp":18,"wdir":260,"wspd":30,"visib":"6+","altim":1019,"clouds":[{"cover":"SCT","base":4500},{"cover":"FEW","base":5000},{"cover":"BKN","base":7000}],"obsTime":1777750800},"SBLO":{"icaoId":"SBLO","flightCategory":"VFR","rawOb":"METAR SBLO 022000Z 17012G24KT 130V220 9999 SCT020 BKN070 21/16 Q1021","temp":21,"dewp":16,"wdir":170,"wspd":12,"visib":"6+","altim":1021,"clouds":[{"cover":"SCT","base":2000},{"cover":"BKN","base":7000}],"obsTime":1777752000},"SBMA":{"icaoId":"SBMA","flightCategory":"MVFR","rawOb":"METAR SBMA 022000Z 20008KT 9999 TS BKN025 SCT030CB 25/25 Q1011","temp":25,"dewp":25,"wdir":200,"wspd":8,"visib":"6+","altim":1011,"clouds":[{"cover":"BKN","base":2500},{"cover":"SCT","base":3000}],"obsTime":1777752000},"SBMO":{"icaoId":"SBMO","flightCategory":"VFR","rawOb":"METAR SBMO 022000Z 14008KT 9999 FEW026 BKN100 27/22 Q1013","temp":27,"dewp":22,"wdir":140,"wspd":8,"visib":"6+","altim":1013,"clouds":[{"cover":"FEW","base":2600},{"cover":"BKN","base":10000}],"obsTime":1777752000},"SBMQ":{"icaoId":"SBMQ","flightCategory":"VFR","rawOb":"METAR SBMQ 022000Z 07007KT 9999 SCT021 FEW036TCU 29/26 Q1009","temp":29,"dewp":26,"wdir":70,"wspd":7,"visib":"6+","altim":1009,"clouds":[{"cover":"SCT","base":2100},{"cover":"FEW","base":3600}],"obsTime":1777752000},"SBNT":{"icaoId":"SBNT","flightCategory":"VFR","rawOb":"METAR SBNT 022000Z 19008KT 9999 FEW018 BKN100 27/24 Q1011","temp":27,"dewp":24,"wdir":190,"wspd":8,"visib":"6+","altim":1011,"clouds":[{"cover":"FEW","base":1800},{"cover":"BKN","base":10000}],"obsTime":1777752000},"SBPA":{"icaoId":"SBPA","flightCategory":"VFR","rawOb":"METAR SBPA 022000Z 19009KT 160V240 9999 BKN045 18/14 Q1019","temp":18,"dewp":14,"wdir":190,"wspd":9,"visib":"6+","altim":1019,"clouds":[{"cover":"BKN","base":4500}],"obsTime":1777752000},"SBPJ":{"icaoId":"SBPJ","flightCategory":"VFR","rawOb":"METAR SBPJ 022000Z 20006KT CAVOK 33/24 Q1012","temp":33,"dewp":24,"wdir":200,"wspd":6,"visib":"6+","altim":1012,"clouds":[],"obsTime":1777752000},"SBPV":{"icaoId":"SBPV","flightCategory":"VFR","rawOb":"METAR SBPV 022000Z 35005KT 9999 FEW045 32/25 Q1009","temp":32,"dewp":25,"wdir":350,"wspd":5,"visib":"6+","altim":1009,"clouds":[{"cover":"FEW","base":4500}],"obsTime":1777752000},"SBRB":{"icaoId":"SBRB","flightCategory":"MVFR","rawOb":"METAR SBRB 022000Z 36004KT 9999 BKN027 BKN100 30/24 Q1011","temp":30,"dewp":24,"wdir":360,"wspd":4,"visib":"6+","altim":1011,"clouds":[{"cover":"BKN","base":2700},{"cover":"BKN","base":10000}],"obsTime":1777752000},"SBRF":{"icaoId":"SBRF","flightCategory":"VFR","rawOb":"METAR SBRF 022000Z 14011KT 9999 SCT022 SCT070 28/24 Q1012","temp":28,"dewp":24,"wdir":140,"wspd":11,"visib":"6+","altim":1012,"clouds":[{"cover":"SCT","base":2200},{"cover":"SCT","base":7000}],"obsTime":1777752000},"SBSG":{"icaoId":"SBSG","flightCategory":"VFR","rawOb":"METAR SBSG 022000Z 20005KT 160V240 9999 SCT045 BKN100 26/24 Q1012","temp":26,"dewp":24,"wdir":200,"wspd":5,"visib":"6+","altim":1012,"clouds":[{"cover":"SCT","base":4500},{"cover":"BKN","base":10000}],"obsTime":1777752000},"SBSL":{"icaoId":"SBSL","flightCategory":"VFR","rawOb":"METAR SBSL 022000Z 08006KT 9999 SCT025 FEW030TCU BKN080 26/24 Q1010","temp":26,"dewp":24,"wdir":80,"wspd":6,"visib":"6+","altim":1010,"clouds":[{"cover":"SCT","base":2500},{"cover":"FEW","base":3000},{"cover":"BKN","base":8000}],"obsTime":1777752000},"SBSN":{"icaoId":"SBSN","flightCategory":"VFR","rawOb":"METAR SBSN 022000Z 07006KT 9999 SCT017 31/25 Q1008","temp":31,"dewp":25,"wdir":70,"wspd":6,"visib":"6+","altim":1008,"clouds":[{"cover":"SCT","base":1700}],"obsTime":1777752000},"SBSP":{"icaoId":"SBSP","flightCategory":"VFR","rawOb":"METAR SBSP 022000Z 27005KT 200V320 9999 BKN035 20/16 Q1022","temp":20,"dewp":16,"wdir":270,"wspd":5,"visib":"6+","altim":1022,"clouds":[{"cover":"BKN","base":3500}],"obsTime":1777752000},"SBSV":{"icaoId":"SBSV","flightCategory":"VFR","rawOb":"METAR SBSV 022000Z 11007KT 9999 SCT031 28/22 Q1014","temp":28,"dewp":22,"wdir":110,"wspd":7,"visib":"6+","altim":1014,"clouds":[{"cover":"SCT","base":3100}],"obsTime":1777752000},"SBTE":{"icaoId":"SBTE","flightCategory":"VFR","rawOb":"METAR SBTE 022000Z 19008KT 9999 FEW025 FEW030TCU 33/23 Q1009","temp":33,"dewp":23,"wdir":190,"wspd":8,"visib":"6+","altim":1009,"clouds":[{"cover":"FEW","base":2500},{"cover":"FEW","base":3000}],"obsTime":1777752000},"SBVT":{"icaoId":"SBVT","flightCategory":"VFR","rawOb":"METAR SBVT 022000Z 05010KT 9999 SCT048 27/22 Q1014","temp":27,"dewp":22,"wdir":50,"wspd":10,"visib":"6+","altim":1014,"clouds":[{"cover":"SCT","base":4800}],"obsTime":1777752000},"SBHT":{"icaoId":"SBHT","flightCategory":"VFR","rawOb":"METAR SBHT 022000Z 12006KT 9999 SCT030 31/24 Q1009","temp":31,"dewp":24,"wdir":120,"wspd":6,"visib":"6+","altim":1009,"clouds":[{"cover":"SCT","base":3000}],"obsTime":1777752000},"SBIL":{"icaoId":"SBIL","flightCategory":"VFR","rawOb":"METAR SBIL 022000Z 28004KT 9999 FEW023 BKN070 26/25 Q1015","temp":26,"dewp":25,"wdir":280,"wspd":4,"visib":"6+","altim":1015,"clouds":[{"cover":"FEW","base":2300},{"cover":"BKN","base":7000}],"obsTime":1777752000},"SBJU":{"icaoId":"SBJU","flightCategory":"MVFR","rawOb":"METAR SBJU 022000Z 17005KT 9000 3000S -RA BKN020 FEW022TCU 26/23 Q1013","temp":26,"dewp":23,"wdir":170,"wspd":5,"visib":5.59,"altim":1013,"clouds":[{"cover":"BKN","base":2000},{"cover":"FEW","base":2200}],"obsTime":1777752000},"SBME":{"icaoId":"SBME","flightCategory":"VFR","rawOb":"METAR SBME 022000Z 14004KT 9999 SCT030 29/22 Q1014","temp":29,"dewp":22,"wdir":140,"wspd":4,"visib":"6+","altim":1014,"clouds":[{"cover":"SCT","base":3000}],"obsTime":1777752000},"SBMG":{"icaoId":"SBMG","flightCategory":"IFR","rawOb":"METAR SBMG 022000Z 15019KT 140V210 3500 +TSRA SCT017 OVC027 //////CB 18/17 Q1021","temp":18,"dewp":17,"wdir":150,"wspd":19,"visib":2.17,"altim":1021,"clouds":[{"cover":"SCT","base":1700},{"cover":"OVC","base":2700}],"obsTime":1777752000},"SBMK":{"icaoId":"SBMK","flightCategory":"VFR","rawOb":"METAR SBMK 022000Z 18006KT 9999 FEW049 29/17 Q1017","temp":29,"dewp":17,"wdir":180,"wspd":6,"visib":"6+","altim":1017,"clouds":[{"cover":"FEW","base":4900}],"obsTime":1777752000},"SBUR":{"icaoId":"SBUR","flightCategory":"VFR","rawOb":"METAR SBUR 022000Z 20007KT CAVOK 28/16 Q1019","temp":28,"dewp":16,"wdir":200,"wspd":7,"visib":"6+","altim":1019,"clouds":[],"obsTime":1777752000},"SBAT":{"icaoId":"SBAT","flightCategory":"VFR","rawOb":"METAR SBAT 022000Z 14001KT 9999 FEW040 33/23 Q1012","temp":33,"dewp":23,"wdir":140,"wspd":1,"visib":"6+","altim":1012,"clouds":[{"cover":"FEW","base":4000}],"obsTime":1777752000},"SBUL":{"icaoId":"SBUL","flightCategory":"VFR","rawOb":"METAR SBUL 022000Z 23005KT 9999 SCT030 27/14 Q1021","temp":27,"dewp":14,"wdir":230,"wspd":5,"visib":"6+","altim":1021,"clouds":[{"cover":"SCT","base":3000}],"obsTime":1777752000},"SBSJ":{"icaoId":"SBSJ","flightCategory":"VFR","rawOb":"METAR SBSJ 022000Z 19011KT 150V210 9999 FEW045 SCT100 23/17 Q1019","temp":23,"dewp":17,"wdir":190,"wspd":11,"visib":"6+","altim":1019,"clouds":[{"cover":"FEW","base":4500},{"cover":"SCT","base":10000}],"obsTime":1777752000},"SBPB":{"icaoId":"SBPB","flightCategory":"VFR","rawOb":"METAR SBPB 022000Z 25004KT 9999 SCT016 FEW025TCU BKN080 26/24 Q1010","temp":26,"dewp":24,"wdir":250,"wspd":4,"visib":"6+","altim":1010,"clouds":[{"cover":"SCT","base":1600},{"cover":"FEW","base":2500},{"cover":"BKN","base":8000}],"obsTime":1777752000},"SBPP":{"icaoId":"SBPP","flightCategory":"VFR","rawOb":"METAR SBPP 022000Z 14016KT 9999 SCT025 OVC100 20/19 Q1018","temp":20,"dewp":19,"wdir":140,"wspd":16,"visib":"6+","altim":1018,"clouds":[{"cover":"SCT","base":2500},{"cover":"OVC","base":10000}],"obsTime":1777752000},"SBAR":{"icaoId":"SBAR","flightCategory":"VFR","rawOb":"METAR SBAR 022000Z 13007KT 9999 FEW026 29/21 Q1013","temp":29,"dewp":21,"wdir":130,"wspd":7,"visib":"6+","altim":1013,"clouds":[{"cover":"FEW","base":2600}],"obsTime":1777752000},"SBTF":{"icaoId":"SBTF","flightCategory":"VFR","rawOb":"METAR SBTF 022000Z 36004KT 9999 SCT016 SCT025TCU BKN080 30/26 Q1008","temp":30,"dewp":26,"wdir":360,"wspd":4,"visib":"6+","altim":1008,"clouds":[{"cover":"SCT","base":1600},{"cover":"SCT","base":2500},{"cover":"BKN","base":8000}],"obsTime":1777752000},"SBPS":{"icaoId":"SBPS","flightCategory":"VFR","rawOb":"METAR SBPS 022000Z 17003KT 9999 FEW017 BKN050 25/22 Q1016","temp":25,"dewp":22,"wdir":170,"wspd":3,"visib":"6+","altim":1016,"clouds":[{"cover":"FEW","base":1700},{"cover":"BKN","base":5000}],"obsTime":1777752000},"SBTT":{"icaoId":"SBTT","flightCategory":"VFR","rawOb":"METAR SBTT 022000Z 32003KT 290V360 9999 BKN036 31/23 Q1009","temp":31,"dewp":23,"wdir":320,"wspd":3,"visib":"6+","altim":1009,"clouds":[{"cover":"BKN","base":3600}],"obsTime":1777752000},"SBCJ":{"icaoId":"SBCJ","flightCategory":"VFR","rawOb":"METAR SBCJ 022000Z COR 00000KT 9999 SCT013 25/22 Q1015","temp":25,"dewp":22,"wdir":0,"wspd":0,"visib":"6+","altim":1015,"clouds":[{"cover":"SCT","base":1300}],"obsTime":1777752000},"SBUY":{"icaoId":"SBUY","flightCategory":"VFR","rawOb":"METAR SBUY 022000Z 15003KT 9999 FEW025 FEW035TCU 30/23 Q1008","temp":30,"dewp":23,"wdir":150,"wspd":3,"visib":"6+","altim":1008,"clouds":[{"cover":"FEW","base":2500},{"cover":"FEW","base":3500}],"obsTime":1777752000},"SBPL":{"icaoId":"SBPL","flightCategory":"VFR","rawOb":"METAR SBPL 022000Z 13007KT 9999 VCSH SCT030 FEW035TCU 32/20 Q1013","temp":32,"dewp":20,"wdir":130,"wspd":7,"visib":"6+","altim":1013,"clouds":[{"cover":"SCT","base":3000},{"cover":"FEW","base":3500}],"obsTime":1777752000},"SBES":{"icaoId":"SBES","flightCategory":"VFR","rawOb":"METAR SBES 022000Z 23004KT 150V310 9999 SCT040 27/// Q1014","temp":null,"dewp":null,"wdir":230,"wspd":4,"visib":"6+","altim":1014,"clouds":[{"cover":"SCT","base":4000}],"obsTime":1777752000},"SBIP":{"icaoId":"SBIP","flightCategory":"VFR","rawOb":"METAR SBIP 022000Z AUTO 05003KT 310V070 CAVOK 29/18 Q1016","temp":29,"dewp":18,"wdir":50,"wspd":3,"visib":"6+","altim":1016,"clouds":[],"obsTime":1777752000},"SBKG":{"icaoId":"SBKG","flightCategory":"VFR","rawOb":"METAR SBKG 022000Z 12004KT 9999 SCT025 BKN070 23/21 Q1015","temp":23,"dewp":21,"wdir":120,"wspd":4,"visib":"6+","altim":1015,"clouds":[{"cover":"SCT","base":2500},{"cover":"BKN","base":7000}],"obsTime":1777752000},"SBOI":{"icaoId":"SBOI","flightCategory":"VFR","rawOb":"METAR SBOI 022000Z AUTO 06005KT 020V110 9999 FEW028 30/25 Q1010","temp":30,"dewp":25,"wdir":60,"wspd":5,"visib":"6+","altim":1010,"clouds":[{"cover":"FEW","base":2800}],"obsTime":1777752000},"SBSC":{"icaoId":"SBSC","flightCategory":"VFR","rawOb":"METAR SBSC 022000Z 21008KT 9999 SCT015 BKN070 26/22 Q1016","temp":26,"dewp":22,"wdir":210,"wspd":8,"visib":"6+","altim":1016,"clouds":[{"cover":"SCT","base":1500},{"cover":"BKN","base":7000}],"obsTime":1777752000},"SBSM":{"icaoId":"SBSM","flightCategory":"VFR","rawOb":"METAR SBSM 022000Z 22005KT 180V290 9999 FEW035 20/12 Q1021","temp":20,"dewp":12,"wdir":220,"wspd":5,"visib":"6+","altim":1021,"clouds":[{"cover":"FEW","base":3500}],"obsTime":1777752000},"SBSR":{"icaoId":"SBSR","flightCategory":"VFR","rawOb":"METAR SBSR 022000Z 24007KT CAVOK 30/13 Q1017","temp":30,"dewp":13,"wdir":240,"wspd":7,"visib":"6+","altim":1017,"clouds":[],"obsTime":1777752000},"SBVH":{"icaoId":"SBVH","flightCategory":"VFR","rawOb":"METAR SBVH 022000Z 09005KT 9999 FEW030 30/21 Q1015","temp":30,"dewp":21,"wdir":90,"wspd":5,"visib":"6+","altim":1015,"clouds":[{"cover":"FEW","base":3000}],"obsTime":1777752000},"SBAX":{"icaoId":"SBAX","flightCategory":"VFR","rawOb":"METAR SBAX 022000Z AUTO 31004KT 280V340 CAVOK 26/15 Q1021","temp":26,"dewp":15,"wdir":310,"wspd":4,"visib":"6+","altim":1021,"clouds":[],"obsTime":1777752000},"SBBH":{"icaoId":"SBBH","flightCategory":"VFR","rawOb":"METAR SBBH 022000Z 28008KT CAVOK 27/15 Q1019","temp":27,"dewp":15,"wdir":280,"wspd":8,"visib":"6+","altim":1019,"clouds":[],"obsTime":1777752000},"SBBQ":{"icaoId":"SBBQ","flightCategory":"VFR","rawOb":"METAR SBBQ 022000Z 24005KT CAVOK 25/13 Q1023","temp":25,"dewp":13,"wdir":240,"wspd":5,"visib":"6+","altim":1023,"clouds":[],"obsTime":1777752000},"SBBU":{"icaoId":"SBBU","flightCategory":"VFR","rawOb":"METAR SBBU 022000Z 22009KT 9999 FEW040 31/16 Q1019","temp":31,"dewp":16,"wdir":220,"wspd":9,"visib":"6+","altim":1019,"clouds":[{"cover":"FEW","base":4000}],"obsTime":1777752000},"SBCA":{"icaoId":"SBCA","flightCategory":"VFR","rawOb":"METAR SBCA 022000Z 17003KT 9999 -RA FEW005 BKN070 19/18 Q1020","temp":19,"dewp":18,"wdir":170,"wspd":3,"visib":"6+","altim":1020,"clouds":[{"cover":"FEW","base":500},{"cover":"BKN","base":7000}],"obsTime":1777752000},"SBCC":{"icaoId":"SBCC","flightCategory":"VFR","rawOb":"METAR SBCC 022000Z /////KT 9999 SCT025 ///// Q1013","temp":null,"dewp":null,"wdir":null,"wspd":null,"visib":"6+","altim":1013,"clouds":[{"cover":"SCT","base":2500}],"obsTime":1777752000},"SBCO":{"icaoId":"SBCO","flightCategory":"VFR","rawOb":"METAR SBCO 022000Z 19004KT 9999 FEW020 BKN040 19/14 Q1019","temp":19,"dewp":14,"wdir":190,"wspd":4,"visib":"6+","altim":1019,"clouds":[{"cover":"FEW","base":2000},{"cover":"BKN","base":4000}],"obsTime":1777752000},"SBDN":{"icaoId":"SBDN","flightCategory":"VFR","rawOb":"METAR SBDN 022000Z 25005KT CAVOK 32/17 Q1017","temp":32,"dewp":17,"wdir":250,"wspd":5,"visib":"6+","altim":1017,"clouds":[],"obsTime":1777752000},"SBJP":{"icaoId":"SBJP","flightCategory":"VFR","rawOb":"METAR SBJP 022000Z 14005KT 9999 SCT020 BKN070 27/24 Q1012","temp":27,"dewp":24,"wdir":140,"wspd":5,"visib":"6+","altim":1012,"clouds":[{"cover":"SCT","base":2000},{"cover":"BKN","base":7000}],"obsTime":1777752000},"SBJR":{"icaoId":"SBJR","flightCategory":"VFR","rawOb":"METAR SBJR 022000Z 23004KT 9999 SCT035 27/22 Q1015","temp":27,"dewp":22,"wdir":230,"wspd":4,"visib":"6+","altim":1015,"clouds":[{"cover":"SCT","base":3500}],"obsTime":1777752000},"SBAF":{"icaoId":"SBAF","flightCategory":"VFR","rawOb":"METAR SBAF 022000Z 19011KT 9999 FEW030 SCT080 29/23 Q1015","temp":29,"dewp":23,"wdir":190,"wspd":11,"visib":"6+","altim":1015,"clouds":[{"cover":"FEW","base":3000},{"cover":"SCT","base":8000}],"obsTime":1777752000},"SBGW":{"icaoId":"SBGW","flightCategory":"VFR","rawOb":"METAR SBGW 022000Z 32003KT 9999 FEW025 27/17 Q1017","temp":27,"dewp":17,"wdir":320,"wspd":3,"visib":"6+","altim":1017,"clouds":[{"cover":"FEW","base":2500}],"obsTime":1777752000},"SBAN":{"icaoId":"SBAN","flightCategory":"VFR","rawOb":"METAR SBAN 022000Z 31004KT 240V360 9999 BKN045 26/14 Q1021","temp":26,"dewp":14,"wdir":310,"wspd":4,"visib":"6+","altim":1021,"clouds":[{"cover":"BKN","base":4500}],"obsTime":1777752000},"SBJV":{"icaoId":"SBJV","flightCategory":"VFR","rawOb":"METAR SBJV 022000Z 11003KT 9999 FEW045 OVC100 21/20 Q1015","temp":21,"dewp":20,"wdir":110,"wspd":3,"visib":"6+","altim":1015,"clouds":[{"cover":"FEW","base":4500},{"cover":"OVC","base":10000}],"obsTime":1777752000},"SBLE":{"icaoId":"SBLE","flightCategory":"MVFR","rawOb":"METAR SBLE 022000Z AUTO 11003KT 050V170 9999 FEW022 BKN030 26/25 Q1017","temp":26,"dewp":25,"wdir":110,"wspd":3,"visib":"6+","altim":1017,"clouds":[{"cover":"FEW","base":2200},{"cover":"BKN","base":3000}],"obsTime":1777752000},"SBTC":{"icaoId":"SBTC","flightCategory":"VFR","rawOb":"METAR SBTC 022000Z 18003KT 9999 SCT020 BKN070 25/23 Q1015","temp":25,"dewp":23,"wdir":180,"wspd":3,"visib":"6+","altim":1015,"clouds":[{"cover":"SCT","base":2000},{"cover":"BKN","base":7000}],"obsTime":1777752000},"SBIH":{"icaoId":"SBIH","flightCategory":"VFR","rawOb":"METAR SBIH 022000Z 34003KT 9999 TS SCT018 FEW025CB SCT080 27/26 Q1009","temp":27,"dewp":26,"wdir":340,"wspd":3,"visib":"6+","altim":1009,"clouds":[{"cover":"SCT","base":1800},{"cover":"FEW","base":2500},{"cover":"SCT","base":8000}],"obsTime":1777752000},"SBLS":{"icaoId":"SBLS","flightCategory":"VFR","rawOb":"METAR SBLS 022000Z 27006KT 9999 SCT048 26/15 Q1019","temp":26,"dewp":15,"wdir":270,"wspd":6,"visib":"6+","altim":1019,"clouds":[{"cover":"SCT","base":4800}],"obsTime":1777752000},"SBMT":{"icaoId":"SBMT","flightCategory":"MVFR","rawOb":"METAR SBMT 022000Z 23009KT 200V270 9999 BKN021 21/16 Q1021","temp":21,"dewp":16,"wdir":230,"wspd":9,"visib":"6+","altim":1021,"clouds":[{"cover":"BKN","base":2100}],"obsTime":1777752000},"SBTA":{"icaoId":"SBTA","flightCategory":"VFR","rawOb":"METAR SBTA 022000Z 21008KT 180V240 9999 FEW035 SCT090 26/18 Q1018","temp":26,"dewp":18,"wdir":210,"wspd":8,"visib":"6+","altim":1018,"clouds":[{"cover":"FEW","base":3500},{"cover":"SCT","base":9000}],"obsTime":1777752000},"SBST":{"icaoId":"SBST","flightCategory":"VFR","rawOb":"METAR SBST 022000Z /////KT 9999 SCT045 ///// Q1015","temp":null,"dewp":null,"wdir":null,"wspd":null,"visib":"6+","altim":1015,"clouds":[{"cover":"SCT","base":4500}],"obsTime":1777752000}}}