{"updated":1779652741,"count":88,"data":{"SBFL":{"icaoId":"SBFL","flightCategory":"MVFR","rawOb":"METAR SBFL 241800Z 19013KT 9999 VCSH FEW007 OVC027 18/16 Q1020","temp":18,"dewp":16,"wdir":190,"wspd":13,"visib":"6+","altim":1020,"clouds":[{"cover":"FEW","base":700},{"cover":"OVC","base":2700}],"obsTime":1779645600},"SBMO":{"icaoId":"SBMO","flightCategory":"VFR","rawOb":"METAR SBMO 241800Z 16009KT 9999 VCSH SCT033 BKN050 27/20 Q1014","temp":27,"dewp":20,"wdir":160,"wspd":9,"visib":"6+","altim":1014,"clouds":[{"cover":"SCT","base":3300},{"cover":"BKN","base":5000}],"obsTime":1779645600},"SBMA":{"icaoId":"SBMA","flightCategory":"VFR","rawOb":"METAR SBMA 241800Z 03003KT 9999 SCT023 33/20 Q1011","temp":33,"dewp":20,"wdir":30,"wspd":3,"visib":"6+","altim":1011,"clouds":[{"cover":"SCT","base":2300}],"obsTime":1779645600},"SBME":{"icaoId":"SBME","flightCategory":"VFR","rawOb":"METAR SBME 241800Z 09005KT 9999 FEW030 28/19 Q1017","temp":28,"dewp":19,"wdir":90,"wspd":5,"visib":"6+","altim":1017,"clouds":[{"cover":"FEW","base":3000}],"obsTime":1779645600},"SBBV":{"icaoId":"SBBV","flightCategory":"VFR","rawOb":"METAR SBBV 241800Z 18002KT 9999 SCT035 FEW040TCU BKN090 30/23 Q1012","temp":30,"dewp":23,"wdir":180,"wspd":2,"visib":"6+","altim":1012,"clouds":[{"cover":"SCT","base":3500},{"cover":"FEW","base":4000},{"cover":"BKN","base":9000}],"obsTime":1779645600},"SBFI":{"icaoId":"SBFI","flightCategory":"VFR","rawOb":"METAR SBFI 241800Z 19005KT 9999 FEW020 BKN080 23/19 Q1017","temp":23,"dewp":19,"wdir":190,"wspd":5,"visib":"6+","altim":1017,"clouds":[{"cover":"FEW","base":2000},{"cover":"BKN","base":8000}],"obsTime":1779645600},"SBMG":{"icaoId":"SBMG","flightCategory":"VFR","rawOb":"METAR SBMG 241800Z 04004KT 350V100 9999 FEW020 BKN100 24/19 Q1018","temp":24,"dewp":19,"wdir":40,"wspd":4,"visib":"6+","altim":1018,"clouds":[{"cover":"FEW","base":2000},{"cover":"BKN","base":10000}],"obsTime":1779645600},"SBMK":{"icaoId":"SBMK","flightCategory":"VFR","rawOb":"METAR SBMK 241800Z 07005KT 9999 BKN040 27/16 Q1019","temp":27,"dewp":16,"wdir":70,"wspd":5,"visib":"6+","altim":1019,"clouds":[{"cover":"BKN","base":4000}],"obsTime":1779645600},"SBCG":{"icaoId":"SBCG","flightCategory":"VFR","rawOb":"METAR SBCG 241800Z 16003KT 9999 BKN035 BKN100 25/19 Q1017","temp":25,"dewp":19,"wdir":160,"wspd":3,"visib":"6+","altim":1017,"clouds":[{"cover":"BKN","base":3500},{"cover":"BKN","base":10000}],"obsTime":1779645600},"SBMQ":{"icaoId":"SBMQ","flightCategory":"VFR","rawOb":"METAR SBMQ 241800Z 09006KT 050V150 9999 BKN045 29/24 Q1011","temp":29,"dewp":24,"wdir":90,"wspd":6,"visib":"6+","altim":1011,"clouds":[{"cover":"BKN","base":4500}],"obsTime":1779645600},"SBFZ":{"icaoId":"SBFZ","flightCategory":"VFR","rawOb":"METAR SBFZ 241800Z 09010KT 9999 SCT030 30/22 Q1011","temp":30,"dewp":22,"wdir":90,"wspd":10,"visib":"6+","altim":1011,"clouds":[{"cover":"SCT","base":3000}],"obsTime":1779645600},"SBNT":{"icaoId":"SBNT","flightCategory":"VFR","rawOb":"METAR SBNT 241800Z 14015KT 9999 SCT030 29/22 Q1012","temp":29,"dewp":22,"wdir":140,"wspd":15,"visib":"6+","altim":1012,"clouds":[{"cover":"SCT","base":3000}],"obsTime":1779645600},"SBAT":{"icaoId":"SBAT","flightCategory":"VFR","rawOb":"METAR SBAT 241800Z 14008KT 9999 SCT035 35/20 Q1013","temp":35,"dewp":20,"wdir":140,"wspd":8,"visib":"6+","altim":1013,"clouds":[{"cover":"SCT","base":3500}],"obsTime":1779645600},"SBPA":{"icaoId":"SBPA","flightCategory":"MVFR","rawOb":"METAR SBPA 241800Z 12010KT 090V150 9999 -RA FEW010 BKN021 BKN044 18/13 Q1021","temp":18,"dewp":13,"wdir":120,"wspd":10,"visib":"6+","altim":1021,"clouds":[{"cover":"FEW","base":1000},{"cover":"BKN","base":2100},{"cover":"BKN","base":4400}],"obsTime":1779645600},"SBGL":{"icaoId":"SBGL","flightCategory":"MVFR","rawOb":"METAR SBGL 241800Z 13007KT 8000 FEW025 26/20 Q1016","temp":26,"dewp":20,"wdir":130,"wspd":7,"visib":4.97,"altim":1016,"clouds":[{"cover":"FEW","base":2500}],"obsTime":1779645600},"SBPJ":{"icaoId":"SBPJ","flightCategory":"VFR","rawOb":"METAR SBPJ 241800Z 14006KT 110V170 9999 SCT045 33/18 Q1013","temp":33,"dewp":18,"wdir":140,"wspd":6,"visib":"6+","altim":1013,"clouds":[{"cover":"SCT","base":4500}],"obsTime":1779645600},"SBCP":{"icaoId":"SBCP","flightCategory":"VFR","rawOb":"METAR SBCP 241800Z 35005KT 9999 SCT020 29/18 Q1017","temp":29,"dewp":18,"wdir":350,"wspd":5,"visib":"6+","altim":1017,"clouds":[{"cover":"SCT","base":2000}],"obsTime":1779645600},"SBPV":{"icaoId":"SBPV","flightCategory":"VFR","rawOb":"METAR SBPV 241800Z 14003KT 9999 FEW025 29/25 Q1013","temp":29,"dewp":25,"wdir":140,"wspd":3,"visib":"6+","altim":1013,"clouds":[{"cover":"FEW","base":2500}],"obsTime":1779645600},"SBCB":{"icaoId":"SBCB","flightCategory":"VFR","rawOb":"METAR SBCB 241800Z 22006KT CAVOK 25/20 Q1018","temp":25,"dewp":20,"wdir":220,"wspd":6,"visib":"6+","altim":1018,"clouds":[],"obsTime":1779645600},"SBRB":{"icaoId":"SBRB","flightCategory":"VFR","rawOb":"METAR SBRB 241800Z 09003KT 9999 FEW030 27/19 Q1015","temp":27,"dewp":19,"wdir":90,"wspd":3,"visib":"6+","altim":1015,"clouds":[{"cover":"FEW","base":3000}],"obsTime":1779645600},"SBRF":{"icaoId":"SBRF","flightCategory":"MVFR","rawOb":"METAR SBRF 241800Z 17012KT 8000 VCSH BKN018 BKN023 25/24 Q1013","temp":25,"dewp":24,"wdir":170,"wspd":12,"visib":4.97,"altim":1013,"clouds":[{"cover":"BKN","base":1800},{"cover":"BKN","base":2300}],"obsTime":1779645600},"SBGO":{"icaoId":"SBGO","flightCategory":"VFR","rawOb":"METAR SBGO 241800Z 08006KT 020V130 9999 BKN045 27/17 Q1019","temp":27,"dewp":17,"wdir":80,"wspd":6,"visib":"6+","altim":1019,"clouds":[{"cover":"BKN","base":4500}],"obsTime":1779645600},"SBSG":{"icaoId":"SBSG","flightCategory":"VFR","rawOb":"METAR SBSG 241800Z 13009KT 080V170 9999 SCT030 29/22 Q1012","temp":29,"dewp":22,"wdir":130,"wspd":9,"visib":"6+","altim":1012,"clouds":[{"cover":"SCT","base":3000}],"obsTime":1779645600},"SBCR":{"icaoId":"SBCR","flightCategory":"VFR","rawOb":"METAR SBCR 241800Z 09004KT 9999 SCT030 26/18 Q1014","temp":26,"dewp":18,"wdir":90,"wspd":4,"visib":"6+","altim":1014,"clouds":[{"cover":"SCT","base":3000}],"obsTime":1779645600},"SBSL":{"icaoId":"SBSL","flightCategory":"VFR","rawOb":"METAR SBSL 241800Z 00000KT 9999 SCT020 BKN080 25/23 Q1010","temp":25,"dewp":23,"wdir":0,"wspd":0,"visib":"6+","altim":1010,"clouds":[{"cover":"SCT","base":2000},{"cover":"BKN","base":8000}],"obsTime":1779645600},"SBGR":{"icaoId":"SBGR","flightCategory":"VFR","rawOb":"METAR SBGR 241800Z 30007KT 9999 SCT040 SCT066 25/18 Q1020","temp":25,"dewp":18,"wdir":300,"wspd":7,"visib":"6+","altim":1020,"clouds":[{"cover":"SCT","base":4000},{"cover":"SCT","base":6600}],"obsTime":1779645600},"SBHT":{"icaoId":"SBHT","flightCategory":"MVFR","rawOb":"METAR SBHT 241800Z 14003KT 9999 BKN020 FEW023TCU BKN090 26/24 Q1012","temp":26,"dewp":24,"wdir":140,"wspd":3,"visib":"6+","altim":1012,"clouds":[{"cover":"BKN","base":2000},{"cover":"FEW","base":2300},{"cover":"BKN","base":9000}],"obsTime":1779645600},"SBSN":{"icaoId":"SBSN","flightCategory":"VFR","rawOb":"METAR SBSN 241800Z 13002KT 9999 -RA SCT016 FEW023TCU BKN073 BKN093 25/24 Q1011","temp":25,"dewp":24,"wdir":130,"wspd":2,"visib":"6+","altim":1011,"clouds":[{"cover":"SCT","base":1600},{"cover":"FEW","base":2300},{"cover":"BKN","base":7300},{"cover":"BKN","base":9300}],"obsTime":1779645600},"SBCT":{"icaoId":"SBCT","flightCategory":"IFR","rawOb":"METAR SBCT 241800Z 32004KT 9999 VCSH OVC009 18/17 Q1021","temp":18,"dewp":17,"wdir":320,"wspd":4,"visib":"6+","altim":1021,"clouds":[{"cover":"OVC","base":900}],"obsTime":1779645600},"SBSP":{"icaoId":"SBSP","flightCategory":"MVFR","rawOb":"METAR SBSP 241800Z 33009KT 290V350 9999 SCT020 BKN030 BKN066 24/17 Q1021","temp":24,"dewp":17,"wdir":330,"wspd":9,"visib":"6+","altim":1021,"clouds":[{"cover":"SCT","base":2000},{"cover":"BKN","base":3000},{"cover":"BKN","base":6600}],"obsTime":1779645600},"SBSV":{"icaoId":"SBSV","flightCategory":"VFR","rawOb":"METAR SBSV 241800Z 10011KT 9999 SCT025 FEW026TCU BKN050 29/23 Q1014","temp":29,"dewp":23,"wdir":100,"wspd":11,"visib":"6+","altim":1014,"clouds":[{"cover":"SCT","base":2500},{"cover":"FEW","base":2600},{"cover":"BKN","base":5000}],"obsTime":1779645600},"SBIL":{"icaoId":"SBIL","flightCategory":"VFR","rawOb":"METAR SBIL 241800Z 20012G22KT 9999 FEW020 SCT025 BKN080 28/22 Q1016","temp":28,"dewp":22,"wdir":200,"wspd":12,"visib":"6+","altim":1016,"clouds":[{"cover":"FEW","base":2000},{"cover":"SCT","base":2500},{"cover":"BKN","base":8000}],"obsTime":1779645600},"SBBE":{"icaoId":"SBBE","flightCategory":"VFR","rawOb":"METAR SBBE 241800Z 28004KT 9999 SCT030 FEW035TCU 30/24 Q1010","temp":30,"dewp":24,"wdir":280,"wspd":4,"visib":"6+","altim":1010,"clouds":[{"cover":"SCT","base":3000},{"cover":"FEW","base":3500}],"obsTime":1779645600},"SBTE":{"icaoId":"SBTE","flightCategory":"VFR","rawOb":"METAR SBTE 241800Z 11004KT 9999 SCT020 33/22 Q1010","temp":33,"dewp":22,"wdir":110,"wspd":4,"visib":"6+","altim":1010,"clouds":[{"cover":"SCT","base":2000}],"obsTime":1779645600},"SBJU":{"icaoId":"SBJU","flightCategory":"VFR","rawOb":"METAR SBJU 241800Z 15010KT 9999 FEW020 30/16 Q1014","temp":30,"dewp":16,"wdir":150,"wspd":10,"visib":"6+","altim":1014,"clouds":[{"cover":"FEW","base":2000}],"obsTime":1779645600},"SBUL":{"icaoId":"SBUL","flightCategory":"VFR","rawOb":"METAR SBUL 241800Z 08007KT 030V110 9999 SCT030 24/16 Q1022","temp":24,"dewp":16,"wdir":80,"wspd":7,"visib":"6+","altim":1022,"clouds":[{"cover":"SCT","base":3000}],"obsTime":1779645600},"SBCF":{"icaoId":"SBCF","flightCategory":"VFR","rawOb":"METAR SBCF 241800Z 18004KT 9999 SCT040 25/15 Q1021","temp":25,"dewp":15,"wdir":180,"wspd":4,"visib":"6+","altim":1021,"clouds":[{"cover":"SCT","base":4000}],"obsTime":1779645600},"SBUR":{"icaoId":"SBUR","flightCategory":"VFR","rawOb":"METAR SBUR 241800Z 33006KT 9999 BKN045 27/15 Q1020","temp":27,"dewp":15,"wdir":330,"wspd":6,"visib":"6+","altim":1020,"clouds":[{"cover":"BKN","base":4500}],"obsTime":1779645600},"SBVT":{"icaoId":"SBVT","flightCategory":"VFR","rawOb":"METAR SBVT 241800Z 07010KT 9999 FEW035 26/18 Q1018","temp":26,"dewp":18,"wdir":70,"wspd":10,"visib":"6+","altim":1018,"clouds":[{"cover":"FEW","base":3500}],"obsTime":1779645600},"SBCZ":{"icaoId":"SBCZ","flightCategory":"VFR","rawOb":"METAR SBCZ 241800Z 04003KT 9999 SCT025 27/19 Q1015","temp":27,"dewp":19,"wdir":40,"wspd":3,"visib":"6+","altim":1015,"clouds":[{"cover":"SCT","base":2500}],"obsTime":1779645600},"SBKP":{"icaoId":"SBKP","flightCategory":"VFR","rawOb":"METAR SBKP 241800Z 32005KT 9999 FEW040 BKN080 24/19 Q1020","temp":24,"dewp":19,"wdir":320,"wspd":5,"visib":"6+","altim":1020,"clouds":[{"cover":"FEW","base":4000},{"cover":"BKN","base":8000}],"obsTime":1779645600},"SBLO":{"icaoId":"SBLO","flightCategory":"MVFR","rawOb":"METAR SBLO 241800Z 12003KT 090V180 9999 SCT009 BKN012 21/19 Q1018","temp":21,"dewp":19,"wdir":120,"wspd":3,"visib":"6+","altim":1018,"clouds":[{"cover":"SCT","base":900},{"cover":"BKN","base":1200}],"obsTime":1779645600},"SBEG":{"icaoId":"SBEG","flightCategory":"MVFR","rawOb":"METAR SBEG 241800Z 25003KT 130V300 9999 BKN016 SCT090 27/23 Q1013","temp":27,"dewp":23,"wdir":250,"wspd":3,"visib":"6+","altim":1013,"clouds":[{"cover":"BKN","base":1600},{"cover":"SCT","base":9000}],"obsTime":1779645600},"SBBR":{"icaoId":"SBBR","flightCategory":"MVFR","rawOb":"METAR SBBR 241800Z 10008KT 9999 BKN030 BKN100 23/16 Q1021","temp":23,"dewp":16,"wdir":100,"wspd":8,"visib":"6+","altim":1021,"clouds":[{"cover":"BKN","base":3000},{"cover":"BKN","base":10000}],"obsTime":1779645600},"SBTU":{"icaoId":"SBTU","flightCategory":"VFR","rawOb":"METAR SBTU 241800Z AUTO VRB05KT 9999 // FEW031/// 31/24 Q1012","temp":31,"dewp":24,"wdir":"VRB","wspd":5,"visib":"6+","altim":1012,"clouds":[{"cover":"FEW","base":3100}],"obsTime":1779645600},"SBOI":{"icaoId":"SBOI","flightCategory":"VFR","rawOb":"METAR SBOI 241800Z AUTO 03005KT 350V100 9999 FEW014 BKN041 28/25 Q1012","temp":28,"dewp":25,"wdir":30,"wspd":5,"visib":"6+","altim":1012,"clouds":[{"cover":"FEW","base":1400},{"cover":"BKN","base":4100}],"obsTime":1779645600},"SBPB":{"icaoId":"SBPB","flightCategory":"VFR","rawOb":"METAR SBPB 241800Z 06008KT 9999 FEW020 31/24 Q1010","temp":31,"dewp":24,"wdir":60,"wspd":8,"visib":"6+","altim":1010,"clouds":[{"cover":"FEW","base":2000}],"obsTime":1779645600},"SBCJ":{"icaoId":"SBCJ","flightCategory":"VFR","rawOb":"METAR SBCJ 241800Z 14006KT 9999 FEW016 29/18 Q1016","temp":29,"dewp":18,"wdir":140,"wspd":6,"visib":"6+","altim":1016,"clouds":[{"cover":"FEW","base":1600}],"obsTime":1779645600},"SBCO":{"icaoId":"SBCO","flightCategory":"VFR","rawOb":"METAR SBCO 241800Z 11012KT 9999 VCSH SCT025 BKN043 20/14 Q1021","temp":20,"dewp":14,"wdir":110,"wspd":12,"visib":"6+","altim":1021,"clouds":[{"cover":"SCT","base":2500},{"cover":"BKN","base":4300}],"obsTime":1779645600},"SBPL":{"icaoId":"SBPL","flightCategory":"VFR","rawOb":"METAR SBPL 241800Z 07013KT 9999 SCT030 31/19 Q1014","temp":31,"dewp":19,"wdir":70,"wspd":13,"visib":"6+","altim":1014,"clouds":[{"cover":"SCT","base":3000}],"obsTime":1779645600},"SBPP":{"icaoId":"SBPP","flightCategory":"MVFR","rawOb":"METAR SBPP 241800Z 06008KT 9999 BKN017 22/18 Q1018","temp":22,"dewp":18,"wdir":60,"wspd":8,"visib":"6+","altim":1018,"clouds":[{"cover":"BKN","base":1700}],"obsTime":1779645600},"SBBU":{"icaoId":"SBBU","flightCategory":"VFR","rawOb":"METAR SBBU 241800Z 31005KT CAVOK 26/20 Q1019","temp":26,"dewp":20,"wdir":310,"wspd":5,"visib":"6+","altim":1019,"clouds":[],"obsTime":1779645600},"SBAX":{"icaoId":"SBAX","flightCategory":"VFR","rawOb":"METAR SBAX 241800Z AUTO VRB02KT 9999 FEW038 25/15 Q1021","temp":25,"dewp":15,"wdir":"VRB","wspd":2,"visib":"6+","altim":1021,"clouds":[{"cover":"FEW","base":3800}],"obsTime":1779645600},"SBPS":{"icaoId":"SBPS","flightCategory":"VFR","rawOb":"METAR SBPS 241800Z VRB07KT 9999 SCT025 26/19 Q1017","temp":26,"dewp":19,"wdir":"VRB","wspd":7,"visib":"6+","altim":1017,"clouds":[{"cover":"SCT","base":2500}],"obsTime":1779645600},"SBSC":{"icaoId":"SBSC","flightCategory":"VFR","rawOb":"METAR SBSC 241800Z 20008KT 9999 SCT015 SCT030 24/20 Q1017","temp":24,"dewp":20,"wdir":200,"wspd":8,"visib":"6+","altim":1017,"clouds":[{"cover":"SCT","base":1500},{"cover":"SCT","base":3000}],"obsTime":1779645600},"SBDN":{"icaoId":"SBDN","flightCategory":"VFR","rawOb":"METAR SBDN 241800Z 00000KT CAVOK 25/20 Q1017","temp":25,"dewp":20,"wdir":0,"wspd":0,"visib":"6+","altim":1017,"clouds":[],"obsTime":1779645600},"SBSJ":{"icaoId":"SBSJ","flightCategory":"VFR","rawOb":"METAR SBSJ 241800Z 33002KT 9999 FEW026 25/19 Q1019","temp":25,"dewp":19,"wdir":330,"wspd":2,"visib":"6+","altim":1019,"clouds":[{"cover":"FEW","base":2600}],"obsTime":1779645600},"SBES":{"icaoId":"SBES","flightCategory":"VFR","rawOb":"METAR SBES 241800Z VRB07KT 9999 FEW020 24/// Q1017","temp":null,"dewp":null,"wdir":"VRB","wspd":7,"visib":"6+","altim":1017,"clouds":[{"cover":"FEW","base":2000}],"obsTime":1779645600},"SBCA":{"icaoId":"SBCA","flightCategory":"MVFR","rawOb":"METAR SBCA 241800Z 36006KT 9999 BKN020 BKN080 21/17 Q1019","temp":21,"dewp":17,"wdir":360,"wspd":6,"visib":"6+","altim":1019,"clouds":[{"cover":"BKN","base":2000},{"cover":"BKN","base":8000}],"obsTime":1779645600},"SBSM":{"icaoId":"SBSM","flightCategory":"MVFR","rawOb":"METAR SBSM 241800Z 11010KT 9999 FEW023 BKN027 18/13 Q1020","temp":18,"dewp":13,"wdir":110,"wspd":10,"visib":"6+","altim":1020,"clouds":[{"cover":"FEW","base":2300},{"cover":"BKN","base":2700}],"obsTime":1779645600},"SBSR":{"icaoId":"SBSR","flightCategory":"VFR","rawOb":"METAR SBSR 241800Z 01004KT 9999 FEW035 SCT080 28/15 Q1018","temp":28,"dewp":15,"wdir":10,"wspd":4,"visib":"6+","altim":1018,"clouds":[{"cover":"FEW","base":3500},{"cover":"SCT","base":8000}],"obsTime":1779645600},"SBGM":{"icaoId":"SBGM","flightCategory":"VFR","rawOb":"METAR SBGM 241800Z 15004KT 9999 SCT030 28/20 Q1014","temp":28,"dewp":20,"wdir":150,"wspd":4,"visib":"6+","altim":1014,"clouds":[{"cover":"SCT","base":3000}],"obsTime":1779645600},"SBBH":{"icaoId":"SBBH","flightCategory":"VFR","rawOb":"METAR SBBH 241800Z 30002KT 9999 SCT045 26/15 Q1020","temp":26,"dewp":15,"wdir":300,"wspd":2,"visib":"6+","altim":1020,"clouds":[{"cover":"SCT","base":4500}],"obsTime":1779645600},"SBTF":{"icaoId":"SBTF","flightCategory":"VFR","rawOb":"METAR SBTF 241800Z 12003KT 9999 SCT015 SCT090 28/23 Q1013","temp":28,"dewp":23,"wdir":120,"wspd":3,"visib":"6+","altim":1013,"clouds":[{"cover":"SCT","base":1500},{"cover":"SCT","base":9000}],"obsTime":1779645600},"SBIP":{"icaoId":"SBIP","flightCategory":"VFR","rawOb":"METAR SBIP 241800Z AUTO 03006KT 9999 OVC045 25/18 Q1019","temp":25,"dewp":18,"wdir":30,"wspd":6,"visib":"6+","altim":1019,"clouds":[{"cover":"OVC","base":4500}],"obsTime":1779645600},"SBTT":{"icaoId":"SBTT","flightCategory":"MVFR","rawOb":"METAR SBTT 241800Z 18005KT 9999 BKN018 OVC023 24/21 Q1015","temp":24,"dewp":21,"wdir":180,"wspd":5,"visib":"6+","altim":1015,"clouds":[{"cover":"BKN","base":1800},{"cover":"OVC","base":2300}],"obsTime":1779645600},"SBBQ":{"icaoId":"SBBQ","flightCategory":"VFR","rawOb":"METAR SBBQ 241800Z 30003KT 210V020 9999 FEW030 24/14 Q1024","temp":24,"dewp":14,"wdir":300,"wspd":3,"visib":"6+","altim":1024,"clouds":[{"cover":"FEW","base":3000}],"obsTime":1779645600},"SBCC":{"icaoId":"SBCC","flightCategory":"MVFR","rawOb":"METAR SBCC 241800Z 07010KT 9999 BKN020 30/17 Q1014","temp":30,"dewp":17,"wdir":70,"wspd":10,"visib":"6+","altim":1014,"clouds":[{"cover":"BKN","base":2000}],"obsTime":1779645600},"SBUY":{"icaoId":"SBUY","flightCategory":"MVFR","rawOb":"METAR SBUY 241800Z 26002KT 9999 BKN025 26/22 Q1012","temp":26,"dewp":22,"wdir":260,"wspd":2,"visib":"6+","altim":1012,"clouds":[{"cover":"BKN","base":2500}],"obsTime":1779645600},"SBVH":{"icaoId":"SBVH","flightCategory":"VFR","rawOb":"METAR SBVH 241800Z 08005KT 9999 SCT028 28/19 Q1016","temp":28,"dewp":19,"wdir":80,"wspd":5,"visib":"6+","altim":1016,"clouds":[{"cover":"SCT","base":2800}],"obsTime":1779645600},"SBAR":{"icaoId":"SBAR","flightCategory":"VFR","rawOb":"METAR SBAR 241800Z 12011KT 9999 FEW030 28/21 Q1014","temp":28,"dewp":21,"wdir":120,"wspd":11,"visib":"6+","altim":1014,"clouds":[{"cover":"FEW","base":3000}],"obsTime":1779645600},"SBKG":{"icaoId":"SBKG","flightCategory":"VFR","rawOb":"METAR SBKG 241800Z 10008KT 9999 SCT020 27/18 Q1014","temp":27,"dewp":18,"wdir":100,"wspd":8,"visib":"6+","altim":1014,"clouds":[{"cover":"SCT","base":2000}],"obsTime":1779645600},"SBAU":{"icaoId":"SBAU","flightCategory":"VFR","rawOb":"METAR SBAU 241800Z 27006KT 9999 SCT025 SCT100 29/20 Q1017","temp":29,"dewp":20,"wdir":270,"wspd":6,"visib":"6+","altim":1017,"clouds":[{"cover":"SCT","base":2500},{"cover":"SCT","base":10000}],"obsTime":1779645600},"SBAN":{"icaoId":"SBAN","flightCategory":"MVFR","rawOb":"METAR SBAN 241800Z 17008KT 9999 BKN030 24/16 Q1022","temp":24,"dewp":16,"wdir":170,"wspd":8,"visib":"6+","altim":1022,"clouds":[{"cover":"BKN","base":3000}],"obsTime":1779645600},"SBJV":{"icaoId":"SBJV","flightCategory":"MVFR","rawOb":"METAR SBJV 241800Z 07002KT 9000 FEW005 BKN030 BKN050 18/17 Q1019","temp":18,"dewp":17,"wdir":70,"wspd":2,"visib":5.59,"altim":1019,"clouds":[{"cover":"FEW","base":500},{"cover":"BKN","base":3000},{"cover":"BKN","base":5000}],"obsTime":1779645600},"SBNM":{"icaoId":"SBNM","flightCategory":"VFR","rawOb":"METAR SBNM 241800Z AUTO 13004KT 070V170 CAVOK 21/12 Q1019","temp":21,"dewp":12,"wdir":130,"wspd":4,"visib":"6+","altim":1019,"clouds":[],"obsTime":1779645600},"SBPF":{"icaoId":"SBPF","flightCategory":"VFR","rawOb":"METAR SBPF 241900Z 08007KT 9999 FEW045 19/10 Q1020","temp":19,"dewp":10,"wdir":80,"wspd":7,"visib":"6+","altim":1020,"clouds":[{"cover":"FEW","base":4500}],"obsTime":1779649200},"SBTC":{"icaoId":"SBTC","flightCategory":"VFR","rawOb":"METAR SBTC 241800Z 17008KT 9999 SCT025 BKN080 27/21 Q1016","temp":27,"dewp":21,"wdir":170,"wspd":8,"visib":"6+","altim":1016,"clouds":[{"cover":"SCT","base":2500},{"cover":"BKN","base":8000}],"obsTime":1779645600},"SBAF":{"icaoId":"SBAF","flightCategory":"MVFR","rawOb":"METAR SBAF 241800Z 18009KT 140V210 8000 FEW025 26/23 Q1017","temp":26,"dewp":23,"wdir":180,"wspd":9,"visib":4.97,"altim":1017,"clouds":[{"cover":"FEW","base":2500}],"obsTime":1779645600},"SBGW":{"icaoId":"SBGW","flightCategory":"VFR","rawOb":"METAR SBGW 241800Z 36003KT 9999 FEW025 SCT100 26/16 Q1018","temp":26,"dewp":16,"wdir":360,"wspd":3,"visib":"6+","altim":1018,"clouds":[{"cover":"FEW","base":2500},{"cover":"SCT","base":10000}],"obsTime":1779645600},"SBJR":{"icaoId":"SBJR","flightCategory":"VFR","rawOb":"METAR SBJR 241800Z 19005KT 9000 FEW016 25/21 Q1017","temp":25,"dewp":21,"wdir":190,"wspd":5,"visib":5.59,"altim":1017,"clouds":[{"cover":"FEW","base":1600}],"obsTime":1779645600},"SBLS":{"icaoId":"SBLS","flightCategory":"VFR","rawOb":"METAR SBLS 241800Z 20003KT 110V240 9999 SCT035 25/15 Q1021","temp":25,"dewp":15,"wdir":200,"wspd":3,"visib":"6+","altim":1021,"clouds":[{"cover":"SCT","base":3500}],"obsTime":1779645600},"SBMT":{"icaoId":"SBMT","flightCategory":"MVFR","rawOb":"METAR SBMT 241800Z 29008KT 9999 BKN025 FEW030TCU 24/18 Q1020","temp":24,"dewp":18,"wdir":290,"wspd":8,"visib":"6+","altim":1020,"clouds":[{"cover":"BKN","base":2500},{"cover":"FEW","base":3000}],"obsTime":1779645600},"SBST":{"icaoId":"SBST","flightCategory":"IFR","rawOb":"METAR SBST 241800Z 00000KT 4000 -DZ BR OVC006 19/19 Q1019","temp":19,"dewp":19,"wdir":0,"wspd":0,"visib":2.49,"altim":1019,"clouds":[{"cover":"OVC","base":600}],"obsTime":1779645600},"SBTA":{"icaoId":"SBTA","flightCategory":"VFR","rawOb":"METAR SBTA 241800Z 05003KT 350V130 9999 FEW025 FEW030TCU SCT100 25/17 Q1018","temp":25,"dewp":17,"wdir":50,"wspd":3,"visib":"6+","altim":1018,"clouds":[{"cover":"FEW","base":2500},{"cover":"FEW","base":3000},{"cover":"SCT","base":10000}],"obsTime":1779645600},"SBIH":{"icaoId":"SBIH","flightCategory":"VFR","rawOb":"METAR SBIH 241800Z 12002KT 9999 -RA SCT013 OVC080 27/25 Q1012 RERA","temp":27,"dewp":25,"wdir":120,"wspd":2,"visib":"6+","altim":1012,"clouds":[{"cover":"SCT","base":1300},{"cover":"OVC","base":8000}],"obsTime":1779645600},"SBLE":{"icaoId":"SBLE","flightCategory":"IFR","rawOb":"METAR SBLE 241800Z AUTO 15006KT 120V180 9999 BKN006 BKN013 OVC031 ///// Q////","temp":null,"dewp":null,"wdir":150,"wspd":6,"visib":"6+","altim":null,"clouds":[{"cover":"BKN","base":600},{"cover":"BKN","base":1300},{"cover":"OVC","base":3100}],"obsTime":1779645600},"SBJP":{"icaoId":"SBJP","flightCategory":"VFR","rawOb":"METAR SBJP 241800Z 11011KT 9999 SCT030 29/22 Q1012","temp":29,"dewp":22,"wdir":110,"wspd":11,"visib":"6+","altim":1012,"clouds":[{"cover":"SCT","base":3000}],"obsTime":1779645600}}}