{"updated":1777109980,"count":63,"data":{"SBMQ":{"icaoId":"SBMQ","flightCategory":"VFR","rawOb":"METAR SBMQ 250800Z 36002KT 9999 FEW006 25/25 Q1010","temp":25,"dewp":25,"wdir":360,"wspd":2,"visib":"6+","altim":1010,"clouds":[{"cover":"FEW","base":600}],"obsTime":1777104000},"SBRB":{"icaoId":"SBRB","flightCategory":"LIFR","rawOb":"METAR SBRB 250800Z 14002KT 8000 BKN003 BKN100 22/22 Q1010","temp":22,"dewp":22,"wdir":140,"wspd":2,"visib":4.97,"altim":1010,"clouds":[{"cover":"BKN","base":300},{"cover":"BKN","base":10000}],"obsTime":1777104000},"SBSL":{"icaoId":"SBSL","flightCategory":"MVFR","rawOb":"METAR SBSL 250800Z 24004KT 8000 -RA SCT012 BKN020 FEW025TCU 24/23 Q1010 RESHRA","temp":24,"dewp":23,"wdir":240,"wspd":4,"visib":4.97,"altim":1010,"clouds":[{"cover":"SCT","base":1200},{"cover":"BKN","base":2000},{"cover":"FEW","base":2500}],"obsTime":1777104000},"SBCT":{"icaoId":"SBCT","flightCategory":"LIFR","rawOb":"METAR SBCT 250800Z 00000KT 0300 R15/0375 R33/0375 FG VV001 16/16 Q1016","temp":16,"dewp":16,"wdir":0,"wspd":0,"visib":0.19,"altim":1016,"clouds":[{"cover":"OVX","base":100}],"obsTime":1777104000},"SBNT":{"icaoId":"SBNT","flightCategory":"VFR","rawOb":"METAR SBNT 250800Z 19005KT 9999 BKN040 BKN100 23/22 Q1010","temp":23,"dewp":22,"wdir":190,"wspd":5,"visib":"6+","altim":1010,"clouds":[{"cover":"BKN","base":4000},{"cover":"BKN","base":10000}],"obsTime":1777104000},"SBCB":{"icaoId":"SBCB","flightCategory":"VFR","rawOb":"METAR SBCB 250900Z 06008KT 9999 SCT030 23/21 Q1014","temp":23,"dewp":21,"wdir":60,"wspd":8,"visib":"6+","altim":1014,"clouds":[{"cover":"SCT","base":3000}],"obsTime":1777107600},"SBGO":{"icaoId":"SBGO","flightCategory":"VFR","rawOb":"METAR SBGO 250800Z 00000KT CAVOK 18/16 Q1017","temp":18,"dewp":16,"wdir":0,"wspd":0,"visib":"6+","altim":1017,"clouds":[],"obsTime":1777104000},"SBPA":{"icaoId":"SBPA","flightCategory":"IFR","rawOb":"METAR SBPA 250800Z 25004KT 6000 SCT004 OVC006 20/20 Q1011","temp":20,"dewp":20,"wdir":250,"wspd":4,"visib":3.73,"altim":1011,"clouds":[{"cover":"SCT","base":400},{"cover":"OVC","base":600}],"obsTime":1777104000},"SBPJ":{"icaoId":"SBPJ","flightCategory":"VFR","rawOb":"METAR SBPJ 250800Z 11003KT 9999 FEW010 23/23 Q1012","temp":23,"dewp":23,"wdir":110,"wspd":3,"visib":"6+","altim":1012,"clouds":[{"cover":"FEW","base":1000}],"obsTime":1777104000},"SBEG":{"icaoId":"SBEG","flightCategory":"VFR","rawOb":"METAR SBEG 250800Z 00000KT 9999 FEW006 24/24 Q1010","temp":24,"dewp":24,"wdir":0,"wspd":0,"visib":"6+","altim":1010,"clouds":[{"cover":"FEW","base":600}],"obsTime":1777104000},"SBPV":{"icaoId":"SBPV","flightCategory":"VFR","rawOb":"METAR SBPV 250800Z 17002KT 9999 FEW005 SCT060 24/23 Q1011","temp":24,"dewp":23,"wdir":170,"wspd":2,"visib":"6+","altim":1011,"clouds":[{"cover":"FEW","base":500},{"cover":"SCT","base":6000}],"obsTime":1777104000},"SBGR":{"icaoId":"SBGR","flightCategory":"VFR","rawOb":"METAR SBGR 250800Z 05003KT CAVOK 17/16 Q1016","temp":17,"dewp":16,"wdir":50,"wspd":3,"visib":"6+","altim":1016,"clouds":[],"obsTime":1777104000},"SBCF":{"icaoId":"SBCF","flightCategory":"VFR","rawOb":"METAR SBCF 250800Z 16003KT CAVOK 18/16 Q1018","temp":18,"dewp":16,"wdir":160,"wspd":3,"visib":"6+","altim":1018,"clouds":[],"obsTime":1777104000},"SBJU":{"icaoId":"SBJU","flightCategory":"VFR","rawOb":"METAR SBJU 250800Z 00000KT 9999 SCT020 24/22 Q1014","temp":24,"dewp":22,"wdir":0,"wspd":0,"visib":"6+","altim":1014,"clouds":[{"cover":"SCT","base":2000}],"obsTime":1777104000},"SBRF":{"icaoId":"SBRF","flightCategory":"VFR","rawOb":"METAR SBRF 250800Z 18004KT 9999 SCT018 SCT060 25/23 Q1011","temp":25,"dewp":23,"wdir":180,"wspd":4,"visib":"6+","altim":1011,"clouds":[{"cover":"SCT","base":1800},{"cover":"SCT","base":6000}],"obsTime":1777104000},"SBKP":{"icaoId":"SBKP","flightCategory":"VFR","rawOb":"METAR SBKP 250800Z 12004KT CAVOK 18/16 Q1016","temp":18,"dewp":16,"wdir":120,"wspd":4,"visib":"6+","altim":1016,"clouds":[],"obsTime":1777104000},"SBSG":{"icaoId":"SBSG","flightCategory":"VFR","rawOb":"METAR SBSG 250800Z 17003KT 130V210 9999 SCT020 SCT100 23/23 Q1010","temp":23,"dewp":23,"wdir":170,"wspd":3,"visib":"6+","altim":1010,"clouds":[{"cover":"SCT","base":2000},{"cover":"SCT","base":10000}],"obsTime":1777104000},"SBFI":{"icaoId":"SBFI","flightCategory":"VFR","rawOb":"METAR SBFI 250800Z 00000KT CAVOK 19/19 Q1012","temp":19,"dewp":19,"wdir":0,"wspd":0,"visib":"6+","altim":1012,"clouds":[],"obsTime":1777104000},"SBSN":{"icaoId":"SBSN","flightCategory":"VFR","rawOb":"METAR SBSN 250800Z 18004KT 9999 FEW015 23/23 Q1010","temp":23,"dewp":23,"wdir":180,"wspd":4,"visib":"6+","altim":1010,"clouds":[{"cover":"FEW","base":1500}],"obsTime":1777104000},"SBBV":{"icaoId":"SBBV","flightCategory":"VFR","rawOb":"METAR SBBV 250800Z 05002KT 9999 FEW040 FEW045TCU 25/23 Q1010","temp":25,"dewp":23,"wdir":50,"wspd":2,"visib":"6+","altim":1010,"clouds":[{"cover":"FEW","base":4000},{"cover":"FEW","base":4500}],"obsTime":1777104000},"SBLO":{"icaoId":"SBLO","flightCategory":"VFR","rawOb":"METAR SBLO 250800Z 25002KT CAVOK 20/18 Q1015","temp":20,"dewp":18,"wdir":250,"wspd":2,"visib":"6+","altim":1015,"clouds":[],"obsTime":1777104000},"SBSP":{"icaoId":"SBSP","flightCategory":"VFR","rawOb":"METAR SBSP 250800Z AUTO 03004KT 360V060 CAVOK 19/16 Q1017","temp":19,"dewp":16,"wdir":30,"wspd":4,"visib":"6+","altim":1017,"clouds":[],"obsTime":1777104000},"SBSV":{"icaoId":"SBSV","flightCategory":"VFR","rawOb":"METAR SBSV 250800Z 10005KT 9000 VCSH SCT022 FEW024TCU BKN060 25/22 Q1013","temp":25,"dewp":22,"wdir":100,"wspd":5,"visib":5.59,"altim":1013,"clouds":[{"cover":"SCT","base":2200},{"cover":"FEW","base":2400},{"cover":"BKN","base":6000}],"obsTime":1777104000},"SBBR":{"icaoId":"SBBR","flightCategory":"VFR","rawOb":"METAR SBBR 250800Z 00000KT CAVOK 17/16 Q1018","temp":17,"dewp":16,"wdir":0,"wspd":0,"visib":"6+","altim":1018,"clouds":[],"obsTime":1777104000},"SBMA":{"icaoId":"SBMA","flightCategory":"VFR","rawOb":"METAR SBMA 250800Z 03002KT 9999 FEW008 BKN080 24/24 Q1011","temp":24,"dewp":24,"wdir":30,"wspd":2,"visib":"6+","altim":1011,"clouds":[{"cover":"FEW","base":800},{"cover":"BKN","base":8000}],"obsTime":1777104000},"SBTE":{"icaoId":"SBTE","flightCategory":"VFR","rawOb":"METAR SBTE 250800Z 03002KT 9999 SCT008 BKN080 24/23 Q1010","temp":24,"dewp":23,"wdir":30,"wspd":2,"visib":"6+","altim":1010,"clouds":[{"cover":"SCT","base":800},{"cover":"BKN","base":8000}],"obsTime":1777104000},"SBFL":{"icaoId":"SBFL","flightCategory":"VFR","rawOb":"METAR SBFL 250800Z 21003KT 9999 FEW029 SCT036 22/21 Q1011","temp":22,"dewp":21,"wdir":210,"wspd":3,"visib":"6+","altim":1011,"clouds":[{"cover":"FEW","base":2900},{"cover":"SCT","base":3600}],"obsTime":1777104000},"SBUL":{"icaoId":"SBUL","flightCategory":"VFR","rawOb":"METAR SBUL 250800Z 12004KT CAVOK 19/14 Q1018","temp":19,"dewp":14,"wdir":120,"wspd":4,"visib":"6+","altim":1018,"clouds":[],"obsTime":1777104000},"SBME":{"icaoId":"SBME","flightCategory":"VFR","rawOb":"METAR SBME 250800Z 03002KT CAVOK 20/18 Q1014","temp":20,"dewp":18,"wdir":30,"wspd":2,"visib":"6+","altim":1014,"clouds":[],"obsTime":1777104000},"SBUR":{"icaoId":"SBUR","flightCategory":"VFR","rawOb":"METAR SBUR 250800Z 03006KT CAVOK 20/14 Q1017","temp":20,"dewp":14,"wdir":30,"wspd":6,"visib":"6+","altim":1017,"clouds":[],"obsTime":1777104000},"SBVT":{"icaoId":"SBVT","flightCategory":"VFR","rawOb":"METAR SBVT 250800Z 00000KT 9999 SCT023 21/20 Q1015","temp":21,"dewp":20,"wdir":0,"wspd":0,"visib":"6+","altim":1015,"clouds":[{"cover":"SCT","base":2300}],"obsTime":1777104000},"SBBE":{"icaoId":"SBBE","flightCategory":"VFR","rawOb":"METAR SBBE 250800Z 14002KT 9999 SCT005 BKN100 23/23 Q1010","temp":23,"dewp":23,"wdir":140,"wspd":2,"visib":"6+","altim":1010,"clouds":[{"cover":"SCT","base":500},{"cover":"BKN","base":10000}],"obsTime":1777104000},"SBCG":{"icaoId":"SBCG","flightCategory":"VFR","rawOb":"METAR SBCG 250800Z 10002KT CAVOK 19/17 Q1015","temp":19,"dewp":17,"wdir":100,"wspd":2,"visib":"6+","altim":1015,"clouds":[],"obsTime":1777104000},"SBMG":{"icaoId":"SBMG","flightCategory":"VFR","rawOb":"METAR SBMG 250800Z AUTO 03006KT CAVOK 22/17 Q1013","temp":22,"dewp":17,"wdir":30,"wspd":6,"visib":"6+","altim":1013,"clouds":[],"obsTime":1777104000},"SBFZ":{"icaoId":"SBFZ","flightCategory":"VFR","rawOb":"METAR SBFZ 250800Z 14003KT 9999 SCT020 26/24 Q1010","temp":26,"dewp":24,"wdir":140,"wspd":3,"visib":"6+","altim":1010,"clouds":[{"cover":"SCT","base":2000}],"obsTime":1777104000},"SBMO":{"icaoId":"SBMO","flightCategory":"VFR","rawOb":"METAR SBMO 250800Z 27004KT 9999 SCT020 23/23 Q1012","temp":23,"dewp":23,"wdir":270,"wspd":4,"visib":"6+","altim":1012,"clouds":[{"cover":"SCT","base":2000}],"obsTime":1777104000},"SBMK":{"icaoId":"SBMK","flightCategory":"VFR","rawOb":"METAR SBMK 250800Z 21003KT CAVOK 19/17 Q1017","temp":19,"dewp":17,"wdir":210,"wspd":3,"visib":"6+","altim":1017,"clouds":[],"obsTime":1777104000},"SBGL":{"icaoId":"SBGL","flightCategory":"VFR","rawOb":"METAR SBGL 250800Z 08003KT CAVOK 22/20 Q1013","temp":22,"dewp":20,"wdir":80,"wspd":3,"visib":"6+","altim":1013,"clouds":[],"obsTime":1777104000},"SBAR":{"icaoId":"SBAR","flightCategory":"VFR","rawOb":"METAR SBAR 250800Z 29003KT 9999 SCT023 24/23 Q1012","temp":24,"dewp":23,"wdir":290,"wspd":3,"visib":"6+","altim":1012,"clouds":[{"cover":"SCT","base":2300}],"obsTime":1777104000},"SBCO":{"icaoId":"SBCO","flightCategory":"LIFR","rawOb":"METAR SBCO 250900Z 28006KT 4000 -RA BKN004 OVC010 20/20 Q1012","temp":20,"dewp":20,"wdir":280,"wspd":6,"visib":2.49,"altim":1012,"clouds":[{"cover":"BKN","base":400},{"cover":"OVC","base":1000}],"obsTime":1777107600},"SBDN":{"icaoId":"SBDN","flightCategory":"VFR","rawOb":"METAR SBDN 250800Z 06003KT CAVOK 22/17 Q1014","temp":22,"dewp":17,"wdir":60,"wspd":3,"visib":"6+","altim":1014,"clouds":[],"obsTime":1777104000},"SBES":{"icaoId":"SBES","flightCategory":"VFR","rawOb":"METAR SBES 250900Z 05007KT 020V080 9999 SCT040 21/// Q1014","temp":null,"dewp":null,"wdir":50,"wspd":7,"visib":"6+","altim":1014,"clouds":[{"cover":"SCT","base":4000}],"obsTime":1777107600},"SBIP":{"icaoId":"SBIP","flightCategory":"MVFR","rawOb":"METAR SBIP 250800Z AUTO 00000KT 9999 BKN029 18/18 Q1016","temp":18,"dewp":18,"wdir":0,"wspd":0,"visib":"6+","altim":1016,"clouds":[{"cover":"BKN","base":2900}],"obsTime":1777104000},"SBKG":{"icaoId":"SBKG","flightCategory":"MVFR","rawOb":"METAR SBKG 250800Z 22002KT 9999 BKN010 21/21 Q1013","temp":21,"dewp":21,"wdir":220,"wspd":2,"visib":"6+","altim":1013,"clouds":[{"cover":"BKN","base":1000}],"obsTime":1777104000},"SBOI":{"icaoId":"SBOI","flightCategory":"IFR","rawOb":"METAR SBOI 250800Z AUTO 20002KT 6000 // SCT002/// BKN005/// OVC022/// 23/23 Q1011","temp":23,"dewp":23,"wdir":200,"wspd":2,"visib":3.73,"altim":1011,"clouds":[{"cover":"SCT","base":200},{"cover":"BKN","base":500},{"cover":"OVC","base":2200}],"obsTime":1777104000},"SBPL":{"icaoId":"SBPL","flightCategory":"VFR","rawOb":"METAR SBPL 250800Z 12003KT CAVOK 23/22 Q1014","temp":23,"dewp":22,"wdir":120,"wspd":3,"visib":"6+","altim":1014,"clouds":[],"obsTime":1777104000},"SBPS":{"icaoId":"SBPS","flightCategory":"VFR","rawOb":"METAR SBPS 250800Z 24004KT 9999 SCT010 SCT060 22/22 Q1014","temp":22,"dewp":22,"wdir":240,"wspd":4,"visib":"6+","altim":1014,"clouds":[{"cover":"SCT","base":1000},{"cover":"SCT","base":6000}],"obsTime":1777104000},"SBSC":{"icaoId":"SBSC","flightCategory":"VFR","rawOb":"METAR SBSC 250800Z 03005KT 9999 FEW020 21/19 Q1014","temp":21,"dewp":19,"wdir":30,"wspd":5,"visib":"6+","altim":1014,"clouds":[{"cover":"FEW","base":2000}],"obsTime":1777104000},"SBSJ":{"icaoId":"SBSJ","flightCategory":"MVFR","rawOb":"SPECI SBSJ 250830Z 04002KT 7000 NSC 16/16 Q1016","temp":16,"dewp":16,"wdir":40,"wspd":2,"visib":4.35,"altim":1016,"clouds":[],"obsTime":1777105800},"SBSM":{"icaoId":"SBSM","flightCategory":"IFR","rawOb":"METAR SBSM 250900Z 13001KT 4000 BR OVC008 18/18 Q1013","temp":18,"dewp":18,"wdir":130,"wspd":1,"visib":2.49,"altim":1013,"clouds":[{"cover":"OVC","base":800}],"obsTime":1777107600},"SBSR":{"icaoId":"SBSR","flightCategory":"VFR","rawOb":"METAR SBSR 250800Z 00000KT CAVOK 21/16 Q1015","temp":21,"dewp":16,"wdir":0,"wspd":0,"visib":"6+","altim":1015,"clouds":[],"obsTime":1777104000},"SBAX":{"icaoId":"SBAX","flightCategory":"VFR","rawOb":"METAR SBAX 250800Z AUTO 21004KT CAVOK 17/13 Q1019","temp":17,"dewp":13,"wdir":210,"wspd":4,"visib":"6+","altim":1019,"clouds":[],"obsTime":1777104000},"SBBH":{"icaoId":"SBBH","flightCategory":"VFR","rawOb":"METAR SBBH 250900Z 00000KT CAVOK 16/16 Q1019","temp":16,"dewp":16,"wdir":0,"wspd":0,"visib":"6+","altim":1019,"clouds":[],"obsTime":1777107600},"SBBU":{"icaoId":"SBBU","flightCategory":"VFR","rawOb":"METAR SBBU 250900Z 05003KT CAVOK 23/18 Q1016","temp":23,"dewp":18,"wdir":50,"wspd":3,"visib":"6+","altim":1016,"clouds":[],"obsTime":1777107600},"SBLE":{"icaoId":"SBLE","flightCategory":"MVFR","rawOb":"METAR SBLE 250800Z AUTO VRB02KT 9999 BKN022 BKN025 OVC042 ///// Q////","temp":null,"dewp":null,"wdir":"VRB","wspd":2,"visib":"6+","altim":null,"clouds":[{"cover":"BKN","base":2200},{"cover":"BKN","base":2500},{"cover":"OVC","base":4200}],"obsTime":1777104000},"SBJP":{"icaoId":"SBJP","flightCategory":"VFR","rawOb":"METAR SBJP 250800Z 20005KT 160V230 9999 FEW025 24/23 Q1011","temp":24,"dewp":23,"wdir":200,"wspd":5,"visib":"6+","altim":1011,"clouds":[{"cover":"FEW","base":2500}],"obsTime":1777104000},"SBLS":{"icaoId":"SBLS","flightCategory":"VFR","rawOb":"METAR SBLS 250900Z 18005KT CAVOK 18/16 Q1018","temp":18,"dewp":16,"wdir":180,"wspd":5,"visib":"6+","altim":1018,"clouds":[],"obsTime":1777107600},"SBMT":{"icaoId":"SBMT","flightCategory":"VFR","rawOb":"METAR SBMT 250900Z 09002KT CAVOK 18/16 Q1016","temp":18,"dewp":16,"wdir":90,"wspd":2,"visib":"6+","altim":1016,"clouds":[],"obsTime":1777107600},"SBTA":{"icaoId":"SBTA","flightCategory":"VFR","rawOb":"METAR SBTA 250900Z VRB01KT CAVOK 15/14 Q1016","temp":15,"dewp":14,"wdir":"VRB","wspd":1,"visib":"6+","altim":1016,"clouds":[],"obsTime":1777107600},"SBJV":{"icaoId":"SBJV","flightCategory":"VFR","rawOb":"METAR SBJV 250900Z 00000KT CAVOK 19/19 Q1012","temp":19,"dewp":19,"wdir":0,"wspd":0,"visib":"6+","altim":1012,"clouds":[],"obsTime":1777107600},"SBPF":{"icaoId":"SBPF","flightCategory":"VFR","rawOb":"METAR SBPF 250900Z 36006KT CAVOK 16/13 Q1014","temp":16,"dewp":13,"wdir":360,"wspd":6,"visib":"6+","altim":1014,"clouds":[],"obsTime":1777107600},"SBAN":{"icaoId":"SBAN","flightCategory":"VFR","rawOb":"METAR SBAN 250800Z 18004KT CAVOK 18/13 Q1020","temp":18,"dewp":13,"wdir":180,"wspd":4,"visib":"6+","altim":1020,"clouds":[],"obsTime":1777104000},"SBGW":{"icaoId":"SBGW","flightCategory":"VFR","rawOb":"METAR SBGW 250900Z 00000KT 9999 FEW040 15/12 Q1016","temp":15,"dewp":12,"wdir":0,"wspd":0,"visib":"6+","altim":1016,"clouds":[{"cover":"FEW","base":4000}],"obsTime":1777107600}}}