{"updated":1781040388,"count":84,"data":{"SBVT":{"icaoId":"SBVT","flightCategory":"VFR","rawOb":"METAR SBVT 092000Z 06008KT 9999 FEW040 SCT090 24/19 Q1015","temp":24,"dewp":19,"wdir":60,"wspd":8,"visib":"6+","altim":1015,"clouds":[{"cover":"FEW","base":4000},{"cover":"SCT","base":9000}],"obsTime":1781035200},"SBAT":{"icaoId":"SBAT","flightCategory":"VFR","rawOb":"METAR SBAT 092000Z 04005KT CAVOK 34/17 Q1012","temp":34,"dewp":17,"wdir":40,"wspd":5,"visib":"6+","altim":1012,"clouds":[],"obsTime":1781035200},"SBBE":{"icaoId":"SBBE","flightCategory":"LIFR","rawOb":"SPECI SBBE 091939Z 35012KT 1500 RA SCT031 BKN037 FEW040TCU 28/26 Q1011","temp":28,"dewp":26,"wdir":350,"wspd":12,"visib":0.93,"altim":1011,"clouds":[{"cover":"SCT","base":3100},{"cover":"BKN","base":3700},{"cover":"FEW","base":4000}],"obsTime":1781033940},"SBBR":{"icaoId":"SBBR","flightCategory":"VFR","rawOb":"METAR SBBR 092000Z 16004KT CAVOK 25/13 Q1019","temp":25,"dewp":13,"wdir":160,"wspd":4,"visib":"6+","altim":1019,"clouds":[],"obsTime":1781035200},"SBBV":{"icaoId":"SBBV","flightCategory":"VFR","rawOb":"METAR SBBV 092000Z 07006KT 9999 SCT040 FEW045TCU SCT080 32/22 Q1011","temp":32,"dewp":22,"wdir":70,"wspd":6,"visib":"6+","altim":1011,"clouds":[{"cover":"SCT","base":4000},{"cover":"FEW","base":4500},{"cover":"SCT","base":8000}],"obsTime":1781035200},"SBCB":{"icaoId":"SBCB","flightCategory":"VFR","rawOb":"METAR SBCB 092000Z 09004KT CAVOK 25/19 Q1014","temp":25,"dewp":19,"wdir":90,"wspd":4,"visib":"6+","altim":1014,"clouds":[],"obsTime":1781035200},"SBCF":{"icaoId":"SBCF","flightCategory":"VFR","rawOb":"METAR SBCF 092000Z 27006KT 9999 FEW045 24/09 Q1019","temp":24,"dewp":9,"wdir":270,"wspd":6,"visib":"6+","altim":1019,"clouds":[{"cover":"FEW","base":4500}],"obsTime":1781035200},"SBCG":{"icaoId":"SBCG","flightCategory":"VFR","rawOb":"METAR SBCG 092000Z 32007KT CAVOK 27/12 Q1015","temp":27,"dewp":12,"wdir":320,"wspd":7,"visib":"6+","altim":1015,"clouds":[],"obsTime":1781035200},"SBCP":{"icaoId":"SBCP","flightCategory":"VFR","rawOb":"METAR SBCP 092000Z 06004KT CAVOK 23/18 Q1014","temp":23,"dewp":18,"wdir":60,"wspd":4,"visib":"6+","altim":1014,"clouds":[],"obsTime":1781035200},"SBCR":{"icaoId":"SBCR","flightCategory":"VFR","rawOb":"METAR SBCR 092000Z 29004KT 260V320 CAVOK 28/17 Q1013","temp":28,"dewp":17,"wdir":290,"wspd":4,"visib":"6+","altim":1013,"clouds":[],"obsTime":1781035200},"SBCT":{"icaoId":"SBCT","flightCategory":"VFR","rawOb":"METAR SBCT 092000Z 26009KT 9999 FEW045 20/11 Q1017","temp":20,"dewp":11,"wdir":260,"wspd":9,"visib":"6+","altim":1017,"clouds":[{"cover":"FEW","base":4500}],"obsTime":1781035200},"SBCZ":{"icaoId":"SBCZ","flightCategory":"VFR","rawOb":"METAR SBCZ 092000Z 22004KT 9999 SCT025 BKN090 27/24 Q1013","temp":27,"dewp":24,"wdir":220,"wspd":4,"visib":"6+","altim":1013,"clouds":[{"cover":"SCT","base":2500},{"cover":"BKN","base":9000}],"obsTime":1781035200},"SBEG":{"icaoId":"SBEG","flightCategory":"VFR","rawOb":"METAR SBEG 092000Z 03004KT 9999 FEW008 SCT016 FEW025TCU BKN070 24/23 Q1012","temp":24,"dewp":23,"wdir":30,"wspd":4,"visib":"6+","altim":1012,"clouds":[{"cover":"FEW","base":800},{"cover":"SCT","base":1600},{"cover":"FEW","base":2500},{"cover":"BKN","base":7000}],"obsTime":1781035200},"SBFI":{"icaoId":"SBFI","flightCategory":"VFR","rawOb":"METAR SBFI 092000Z 18002KT 9999 FEW020 BKN100 21/17 Q1015","temp":21,"dewp":17,"wdir":180,"wspd":2,"visib":"6+","altim":1015,"clouds":[{"cover":"FEW","base":2000},{"cover":"BKN","base":10000}],"obsTime":1781035200},"SBFL":{"icaoId":"SBFL","flightCategory":"VFR","rawOb":"METAR SBFL 092000Z 12008KT 9999 SCT026 SCT070 19/17 Q1014","temp":19,"dewp":17,"wdir":120,"wspd":8,"visib":"6+","altim":1014,"clouds":[{"cover":"SCT","base":2600},{"cover":"SCT","base":7000}],"obsTime":1781035200},"SBFZ":{"icaoId":"SBFZ","flightCategory":"VFR","rawOb":"METAR SBFZ 092000Z 09014KT 9999 FEW023 29/23 Q1012","temp":29,"dewp":23,"wdir":90,"wspd":14,"visib":"6+","altim":1012,"clouds":[{"cover":"FEW","base":2300}],"obsTime":1781035200},"SBGL":{"icaoId":"SBGL","flightCategory":"VFR","rawOb":"METAR SBGL 092000Z 06006KT CAVOK 26/16 Q1013","temp":26,"dewp":16,"wdir":60,"wspd":6,"visib":"6+","altim":1013,"clouds":[],"obsTime":1781035200},"SBGO":{"icaoId":"SBGO","flightCategory":"VFR","rawOb":"METAR SBGO 092000Z 25003KT 170V330 9999 FEW048 29/12 Q1016","temp":29,"dewp":12,"wdir":250,"wspd":3,"visib":"6+","altim":1016,"clouds":[{"cover":"FEW","base":4800}],"obsTime":1781035200},"SBGR":{"icaoId":"SBGR","flightCategory":"VFR","rawOb":"METAR SBGR 092000Z 29008KT CAVOK 22/09 Q1018","temp":22,"dewp":9,"wdir":290,"wspd":8,"visib":"6+","altim":1018,"clouds":[],"obsTime":1781035200},"SBHT":{"icaoId":"SBHT","flightCategory":"VFR","rawOb":"METAR SBHT 092000Z 00000KT 9999 FEW030 29/26 Q1010","temp":29,"dewp":26,"wdir":0,"wspd":0,"visib":"6+","altim":1010,"clouds":[{"cover":"FEW","base":3000}],"obsTime":1781035200},"SBIL":{"icaoId":"SBIL","flightCategory":"VFR","rawOb":"METAR SBIL 092000Z 12008KT 9999 SCT023 26/20 Q1017","temp":26,"dewp":20,"wdir":120,"wspd":8,"visib":"6+","altim":1017,"clouds":[{"cover":"SCT","base":2300}],"obsTime":1781035200},"SBJU":{"icaoId":"SBJU","flightCategory":"VFR","rawOb":"METAR SBJU 092000Z 15003KT 9999 FEW020 29/19 Q1015","temp":29,"dewp":19,"wdir":150,"wspd":3,"visib":"6+","altim":1015,"clouds":[{"cover":"FEW","base":2000}],"obsTime":1781035200},"SBKP":{"icaoId":"SBKP","flightCategory":"VFR","rawOb":"METAR SBKP 092000Z 30005KT CAVOK 23/10 Q1017","temp":23,"dewp":10,"wdir":300,"wspd":5,"visib":"6+","altim":1017,"clouds":[],"obsTime":1781035200},"SBLO":{"icaoId":"SBLO","flightCategory":"VFR","rawOb":"METAR SBLO 092000Z 11006KT CAVOK 21/15 Q1016","temp":21,"dewp":15,"wdir":110,"wspd":6,"visib":"6+","altim":1016,"clouds":[],"obsTime":1781035200},"SBMA":{"icaoId":"SBMA","flightCategory":"VFR","rawOb":"METAR SBMA 092000Z 08004KT 9999 FEW025 FEW030TCU 33/23 Q1010","temp":33,"dewp":23,"wdir":80,"wspd":4,"visib":"6+","altim":1010,"clouds":[{"cover":"FEW","base":2500},{"cover":"FEW","base":3000}],"obsTime":1781035200},"SBME":{"icaoId":"SBME","flightCategory":"VFR","rawOb":"METAR SBME 092000Z 04004KT CAVOK 25/15 Q1014","temp":25,"dewp":15,"wdir":40,"wspd":4,"visib":"6+","altim":1014,"clouds":[],"obsTime":1781035200},"SBMG":{"icaoId":"SBMG","flightCategory":"VFR","rawOb":"METAR SBMG 092000Z 17003KT CAVOK 22/14 Q1016","temp":22,"dewp":14,"wdir":170,"wspd":3,"visib":"6+","altim":1016,"clouds":[],"obsTime":1781035200},"SBMK":{"icaoId":"SBMK","flightCategory":"VFR","rawOb":"METAR SBMK 092000Z 16006KT CAVOK 26/14 Q1017","temp":26,"dewp":14,"wdir":160,"wspd":6,"visib":"6+","altim":1017,"clouds":[],"obsTime":1781035200},"SBMO":{"icaoId":"SBMO","flightCategory":"MVFR","rawOb":"METAR SBMO 092000Z 16004KT 9999 4500NW VCSH SCT006 BKN018 24/23 Q1016","temp":24,"dewp":23,"wdir":160,"wspd":4,"visib":"6+","altim":1016,"clouds":[{"cover":"SCT","base":600},{"cover":"BKN","base":1800}],"obsTime":1781035200},"SBMQ":{"icaoId":"SBMQ","flightCategory":"VFR","rawOb":"METAR SBMQ 092000Z 07007KT 9999 SCT030 FEW040TCU 30/26 Q1011","temp":30,"dewp":26,"wdir":70,"wspd":7,"visib":"6+","altim":1011,"clouds":[{"cover":"SCT","base":3000},{"cover":"FEW","base":4000}],"obsTime":1781035200},"SBNT":{"icaoId":"SBNT","flightCategory":"VFR","rawOb":"METAR SBNT 092000Z 15009KT 9999 FEW010 SCT018 FEW030TCU BKN100 26/24 Q1013","temp":26,"dewp":24,"wdir":150,"wspd":9,"visib":"6+","altim":1013,"clouds":[{"cover":"FEW","base":1000},{"cover":"SCT","base":1800},{"cover":"FEW","base":3000},{"cover":"BKN","base":10000}],"obsTime":1781035200},"SBPA":{"icaoId":"SBPA","flightCategory":"VFR","rawOb":"METAR SBPA 092000Z 17003KT 140V200 9999 SCT025 BKN045 16/14 Q1016","temp":16,"dewp":14,"wdir":170,"wspd":3,"visib":"6+","altim":1016,"clouds":[{"cover":"SCT","base":2500},{"cover":"BKN","base":4500}],"obsTime":1781035200},"SBPJ":{"icaoId":"SBPJ","flightCategory":"VFR","rawOb":"METAR SBPJ 092000Z 24003KT 190V260 CAVOK 32/21 Q1012","temp":32,"dewp":21,"wdir":240,"wspd":3,"visib":"6+","altim":1012,"clouds":[],"obsTime":1781035200},"SBPV":{"icaoId":"SBPV","flightCategory":"IFR","rawOb":"METAR SBPV 092000Z 19004KT 5000 -RA BKN006 BKN030 26/24 Q1012","temp":26,"dewp":24,"wdir":190,"wspd":4,"visib":3.11,"altim":1012,"clouds":[{"cover":"BKN","base":600},{"cover":"BKN","base":3000}],"obsTime":1781035200},"SBRB":{"icaoId":"SBRB","flightCategory":"MVFR","rawOb":"METAR SBRB 092000Z 16003KT 8000 -RA FEW007 SCT030 FEW035TCU BKN080 23/22 Q1014","temp":23,"dewp":22,"wdir":160,"wspd":3,"visib":4.97,"altim":1014,"clouds":[{"cover":"FEW","base":700},{"cover":"SCT","base":3000},{"cover":"FEW","base":3500},{"cover":"BKN","base":8000}],"obsTime":1781035200},"SBRF":{"icaoId":"SBRF","flightCategory":"VFR","rawOb":"METAR SBRF 092000Z 18010KT 9999 SCT020 26/24 Q1014","temp":26,"dewp":24,"wdir":180,"wspd":10,"visib":"6+","altim":1014,"clouds":[{"cover":"SCT","base":2000}],"obsTime":1781035200},"SBSG":{"icaoId":"SBSG","flightCategory":"VFR","rawOb":"METAR SBSG 092000Z 15003KT 090V200 9999 VCSH SCT013 FEW023TCU BKN100 25/24 Q1013","temp":25,"dewp":24,"wdir":150,"wspd":3,"visib":"6+","altim":1013,"clouds":[{"cover":"SCT","base":1300},{"cover":"FEW","base":2300},{"cover":"BKN","base":10000}],"obsTime":1781035200},"SBSL":{"icaoId":"SBSL","flightCategory":"VFR","rawOb":"METAR SBSL 092000Z 03009KT 010V070 9999 SCT010 30/25 Q1011","temp":30,"dewp":25,"wdir":30,"wspd":9,"visib":"6+","altim":1011,"clouds":[{"cover":"SCT","base":1000}],"obsTime":1781035200},"SBSN":{"icaoId":"SBSN","flightCategory":"VFR","rawOb":"METAR SBSN 092000Z 07006KT 9999 FEW026 FEW030TCU 29/25 Q1010","temp":29,"dewp":25,"wdir":70,"wspd":6,"visib":"6+","altim":1010,"clouds":[{"cover":"FEW","base":2600},{"cover":"FEW","base":3000}],"obsTime":1781035200},"SBSP":{"icaoId":"SBSP","flightCategory":"VFR","rawOb":"METAR SBSP 092000Z 32009KT 290V350 CAVOK 22/08 Q1018","temp":22,"dewp":8,"wdir":320,"wspd":9,"visib":"6+","altim":1018,"clouds":[],"obsTime":1781035200},"SBSV":{"icaoId":"SBSV","flightCategory":"VFR","rawOb":"METAR SBSV 092000Z 12006KT 090V150 CAVOK 26/19 Q1017","temp":26,"dewp":19,"wdir":120,"wspd":6,"visib":"6+","altim":1017,"clouds":[],"obsTime":1781035200},"SBTE":{"icaoId":"SBTE","flightCategory":"VFR","rawOb":"METAR SBTE 092000Z 12007KT CAVOK 34/20 Q1010","temp":34,"dewp":20,"wdir":120,"wspd":7,"visib":"6+","altim":1010,"clouds":[],"obsTime":1781035200},"SBUL":{"icaoId":"SBUL","flightCategory":"VFR","rawOb":"METAR SBUL 092000Z 02006KT 330V050 CAVOK 25/09 Q1019","temp":25,"dewp":9,"wdir":20,"wspd":6,"visib":"6+","altim":1019,"clouds":[],"obsTime":1781035200},"SBUR":{"icaoId":"SBUR","flightCategory":"VFR","rawOb":"METAR SBUR 092000Z 25005KT CAVOK 27/09 Q1018","temp":27,"dewp":9,"wdir":250,"wspd":5,"visib":"6+","altim":1018,"clouds":[],"obsTime":1781035200},"SBOI":{"icaoId":"SBOI","flightCategory":"VFR","rawOb":"METAR SBOI 092000Z AUTO 05004KT 010V090 9999 FEW028 27/25 Q1012","temp":27,"dewp":25,"wdir":50,"wspd":4,"visib":"6+","altim":1012,"clouds":[{"cover":"FEW","base":2800}],"obsTime":1781035200},"SBBH":{"icaoId":"SBBH","flightCategory":"VFR","rawOb":"METAR SBBH 092000Z 26006KT CAVOK 24/10 Q1019","temp":24,"dewp":10,"wdir":260,"wspd":6,"visib":"6+","altim":1019,"clouds":[],"obsTime":1781035200},"SBVH":{"icaoId":"SBVH","flightCategory":"VFR","rawOb":"METAR SBVH 092000Z 02009KT 9999 SCT045 29/18 Q1014","temp":29,"dewp":18,"wdir":20,"wspd":9,"visib":"6+","altim":1014,"clouds":[{"cover":"SCT","base":4500}],"obsTime":1781035200},"SBAR":{"icaoId":"SBAR","flightCategory":"VFR","rawOb":"METAR SBAR 092000Z 17006KT 130V280 9999 SCT030 BKN055 26/19 Q1016","temp":26,"dewp":19,"wdir":170,"wspd":6,"visib":"6+","altim":1016,"clouds":[{"cover":"SCT","base":3000},{"cover":"BKN","base":5500}],"obsTime":1781035200},"SBBU":{"icaoId":"SBBU","flightCategory":"VFR","rawOb":"METAR SBBU 092000Z 30004KT CAVOK 25/12 Q1017","temp":25,"dewp":12,"wdir":300,"wspd":4,"visib":"6+","altim":1017,"clouds":[],"obsTime":1781035200},"SBCA":{"icaoId":"SBCA","flightCategory":"VFR","rawOb":"METAR SBCA 092000Z 32005KT 9999 FEW025 21/14 Q1017","temp":21,"dewp":14,"wdir":320,"wspd":5,"visib":"6+","altim":1017,"clouds":[{"cover":"FEW","base":2500}],"obsTime":1781035200},"SBCC":{"icaoId":"SBCC","flightCategory":"VFR","rawOb":"METAR SBCC 092000Z 06006KT 9999 FEW030 32/15 Q1013","temp":32,"dewp":15,"wdir":60,"wspd":6,"visib":"6+","altim":1013,"clouds":[{"cover":"FEW","base":3000}],"obsTime":1781035200},"SBCJ":{"icaoId":"SBCJ","flightCategory":"VFR","rawOb":"METAR SBCJ 092000Z 00000KT 9999 FEW020 29/21 Q1016","temp":29,"dewp":21,"wdir":0,"wspd":0,"visib":"6+","altim":1016,"clouds":[{"cover":"FEW","base":2000}],"obsTime":1781035200},"SBCO":{"icaoId":"SBCO","flightCategory":"MVFR","rawOb":"METAR SBCO 092000Z 17005KT 9999 BKN017 BKN030 16/14 Q1016","temp":16,"dewp":14,"wdir":170,"wspd":5,"visib":"6+","altim":1016,"clouds":[{"cover":"BKN","base":1700},{"cover":"BKN","base":3000}],"obsTime":1781035200},"SBDN":{"icaoId":"SBDN","flightCategory":"VFR","rawOb":"METAR SBDN 092000Z 24003KT CAVOK 25/12 Q1016","temp":25,"dewp":12,"wdir":240,"wspd":3,"visib":"6+","altim":1016,"clouds":[],"obsTime":1781035200},"SBES":{"icaoId":"SBES","flightCategory":"VFR","rawOb":"METAR SBES 092000Z 04003KT CAVOK 24/// Q1014","temp":null,"dewp":null,"wdir":40,"wspd":3,"visib":"6+","altim":1014,"clouds":[],"obsTime":1781035200},"SBIP":{"icaoId":"SBIP","flightCategory":"VFR","rawOb":"METAR SBIP 092000Z AUTO 36004KT CAVOK 23/17 Q1017","temp":23,"dewp":17,"wdir":360,"wspd":4,"visib":"6+","altim":1017,"clouds":[],"obsTime":1781035200},"SBKG":{"icaoId":"SBKG","flightCategory":"VFR","rawOb":"METAR SBKG 092000Z 11005KT 9999 FEW025 25/21 Q1016","temp":25,"dewp":21,"wdir":110,"wspd":5,"visib":"6+","altim":1016,"clouds":[{"cover":"FEW","base":2500}],"obsTime":1781035200},"SBPB":{"icaoId":"SBPB","flightCategory":"VFR","rawOb":"METAR SBPB 092000Z 02009KT 9999 FEW020 SCT090 30/24 Q1012","temp":30,"dewp":24,"wdir":20,"wspd":9,"visib":"6+","altim":1012,"clouds":[{"cover":"FEW","base":2000},{"cover":"SCT","base":9000}],"obsTime":1781035200},"SBPL":{"icaoId":"SBPL","flightCategory":"VFR","rawOb":"METAR SBPL 092000Z 10009KT 9999 SCT030 BKN070 29/17 Q1015","temp":29,"dewp":17,"wdir":100,"wspd":9,"visib":"6+","altim":1015,"clouds":[{"cover":"SCT","base":3000},{"cover":"BKN","base":7000}],"obsTime":1781035200},"SBPP":{"icaoId":"SBPP","flightCategory":"VFR","rawOb":"METAR SBPP 092000Z 08005KT CAVOK 22/16 Q1016","temp":22,"dewp":16,"wdir":80,"wspd":5,"visib":"6+","altim":1016,"clouds":[],"obsTime":1781035200},"SBPS":{"icaoId":"SBPS","flightCategory":"VFR","rawOb":"METAR SBPS 092000Z 06007KT 9999 SCT025 25/19 Q1017","temp":25,"dewp":19,"wdir":60,"wspd":7,"visib":"6+","altim":1017,"clouds":[{"cover":"SCT","base":2500}],"obsTime":1781035200},"SBSC":{"icaoId":"SBSC","flightCategory":"VFR","rawOb":"METAR SBSC 092000Z 02002KT CAVOK 27/17 Q1013","temp":27,"dewp":17,"wdir":20,"wspd":2,"visib":"6+","altim":1013,"clouds":[],"obsTime":1781035200},"SBSJ":{"icaoId":"SBSJ","flightCategory":"VFR","rawOb":"METAR SBSJ 092000Z 25004KT CAVOK 23/10 Q1017","temp":23,"dewp":10,"wdir":250,"wspd":4,"visib":"6+","altim":1017,"clouds":[],"obsTime":1781035200},"SBSM":{"icaoId":"SBSM","flightCategory":"MVFR","rawOb":"METAR SBSM 092000Z 27004KT 9999 BKN030 BKN035 16/12 Q1017","temp":16,"dewp":12,"wdir":270,"wspd":4,"visib":"6+","altim":1017,"clouds":[{"cover":"BKN","base":3000},{"cover":"BKN","base":3500}],"obsTime":1781035200},"SBSR":{"icaoId":"SBSR","flightCategory":"VFR","rawOb":"METAR SBSR 092000Z 23003KT CAVOK 26/08 Q1016","temp":26,"dewp":8,"wdir":230,"wspd":3,"visib":"6+","altim":1016,"clouds":[],"obsTime":1781035200},"SBTF":{"icaoId":"SBTF","flightCategory":"VFR","rawOb":"METAR SBTF 092000Z 06005KT 9999 SCT020 30/24 Q1011","temp":30,"dewp":24,"wdir":60,"wspd":5,"visib":"6+","altim":1011,"clouds":[{"cover":"SCT","base":2000}],"obsTime":1781035200},"SBTT":{"icaoId":"SBTT","flightCategory":"VFR","rawOb":"METAR SBTT 092000Z 31004KT 9999 FEW030 26/21 Q1012","temp":26,"dewp":21,"wdir":310,"wspd":4,"visib":"6+","altim":1012,"clouds":[{"cover":"FEW","base":3000}],"obsTime":1781035200},"SBTU":{"icaoId":"SBTU","flightCategory":"VFR","rawOb":"METAR SBTU 092000Z AUTO 19005KT 160V220 9999 // BKN032/// BKN039/// ///// Q1012","temp":null,"dewp":null,"wdir":190,"wspd":5,"visib":"6+","altim":1012,"clouds":[{"cover":"BKN","base":3200},{"cover":"BKN","base":3900}],"obsTime":1781035200},"SBUY":{"icaoId":"SBUY","flightCategory":"VFR","rawOb":"METAR SBUY 092000Z 00000KT 9999 VCSH SCT020 FEW025TCU SCT090 28/25 Q1011","temp":28,"dewp":25,"wdir":0,"wspd":0,"visib":"6+","altim":1011,"clouds":[{"cover":"SCT","base":2000},{"cover":"FEW","base":2500},{"cover":"SCT","base":9000}],"obsTime":1781035200},"SBAX":{"icaoId":"SBAX","flightCategory":"VFR","rawOb":"METAR SBAX 092000Z 28005KT CAVOK 24/09 Q1019","temp":24,"dewp":9,"wdir":280,"wspd":5,"visib":"6+","altim":1019,"clouds":[],"obsTime":1781035200},"SBNM":{"icaoId":"SBNM","flightCategory":"VFR","rawOb":"METAR SBNM 092000Z AUTO 14005KT CAVOK 16/11 Q1016","temp":16,"dewp":11,"wdir":140,"wspd":5,"visib":"6+","altim":1016,"clouds":[],"obsTime":1781035200},"SBTA":{"icaoId":"SBTA","flightCategory":"VFR","rawOb":"METAR SBTA 092000Z 22005KT 9999 FEW045 24/11 Q1016","temp":24,"dewp":11,"wdir":220,"wspd":5,"visib":"6+","altim":1016,"clouds":[{"cover":"FEW","base":4500}],"obsTime":1781035200},"SBAN":{"icaoId":"SBAN","flightCategory":"VFR","rawOb":"METAR SBAN 092000Z 36004KT 9999 FEW045 25/12 Q1020","temp":25,"dewp":12,"wdir":360,"wspd":4,"visib":"6+","altim":1020,"clouds":[{"cover":"FEW","base":4500}],"obsTime":1781035200},"SBLE":{"icaoId":"SBLE","flightCategory":"VFR","rawOb":"METAR SBLE 092000Z AUTO 07005KT CAVOK 25/17 Q1018","temp":25,"dewp":17,"wdir":70,"wspd":5,"visib":"6+","altim":1018,"clouds":[],"obsTime":1781035200},"SBIH":{"icaoId":"SBIH","flightCategory":"VFR","rawOb":"METAR SBIH 092000Z 33003KT 9999 SCT018 FEW023TCU 30/24 Q1011","temp":30,"dewp":24,"wdir":330,"wspd":3,"visib":"6+","altim":1011,"clouds":[{"cover":"SCT","base":1800},{"cover":"FEW","base":2300}],"obsTime":1781035200},"SBJV":{"icaoId":"SBJV","flightCategory":"VFR","rawOb":"METAR SBJV 092000Z 03002KT CAVOK 23/19 Q1014","temp":23,"dewp":19,"wdir":30,"wspd":2,"visib":"6+","altim":1014,"clouds":[],"obsTime":1781035200},"SBPF":{"icaoId":"SBPF","flightCategory":"VFR","rawOb":"METAR SBPF 092000Z 24007KT 9999 FEW030 15/09 Q1018","temp":15,"dewp":9,"wdir":240,"wspd":7,"visib":"6+","altim":1018,"clouds":[{"cover":"FEW","base":3000}],"obsTime":1781035200},"SBAF":{"icaoId":"SBAF","flightCategory":"VFR","rawOb":"METAR SBAF 092000Z 29002KT CAVOK 26/19 Q1014","temp":26,"dewp":19,"wdir":290,"wspd":2,"visib":"6+","altim":1014,"clouds":[],"obsTime":1781035200},"SBGW":{"icaoId":"SBGW","flightCategory":"VFR","rawOb":"METAR SBGW 092000Z 22004KT 9999 FEW030 24/12 Q1016","temp":24,"dewp":12,"wdir":220,"wspd":4,"visib":"6+","altim":1016,"clouds":[{"cover":"FEW","base":3000}],"obsTime":1781035200},"SBJR":{"icaoId":"SBJR","flightCategory":"VFR","rawOb":"METAR SBJR 092000Z 30001KT CAVOK 27/19 Q1013","temp":27,"dewp":19,"wdir":300,"wspd":1,"visib":"6+","altim":1013,"clouds":[],"obsTime":1781035200},"SBLS":{"icaoId":"SBLS","flightCategory":"VFR","rawOb":"METAR SBLS 092000Z 30006KT 260V320 9999 FEW040 24/09 Q1019","temp":24,"dewp":9,"wdir":300,"wspd":6,"visib":"6+","altim":1019,"clouds":[{"cover":"FEW","base":4000}],"obsTime":1781035200},"SBMT":{"icaoId":"SBMT","flightCategory":"VFR","rawOb":"METAR SBMT 092000Z 32006KT CAVOK 21/09 Q1017","temp":21,"dewp":9,"wdir":320,"wspd":6,"visib":"6+","altim":1017,"clouds":[],"obsTime":1781035200},"SBST":{"icaoId":"SBST","flightCategory":"VFR","rawOb":"METAR SBST 092000Z 24002KT CAVOK 21/16 Q1015","temp":21,"dewp":16,"wdir":240,"wspd":2,"visib":"6+","altim":1015,"clouds":[],"obsTime":1781035200},"SBJP":{"icaoId":"SBJP","flightCategory":"VFR","rawOb":"METAR SBJP 092000Z 13010KT 9999 FEW025 BKN100 27/22 Q1014","temp":27,"dewp":22,"wdir":130,"wspd":10,"visib":"6+","altim":1014,"clouds":[{"cover":"FEW","base":2500},{"cover":"BKN","base":10000}],"obsTime":1781035200}}}