{"updated":1774971719,"count":87,"data":{"SBCF":{"icaoId":"SBCF","flightCategory":"MVFR","rawOb":"METAR SBCF 311400Z 02011KT 9999 BKN030 26/18 Q1017","temp":26,"dewp":18,"wdir":20,"wspd":11,"visib":"6+","altim":1017,"clouds":[{"cover":"BKN","base":3000}],"obsTime":1774965600},"SBAT":{"icaoId":"SBAT","flightCategory":"VFR","rawOb":"METAR SBAT 311400Z 09002KT 9999 FEW020 SCT080 28/24 Q1013","temp":28,"dewp":24,"wdir":90,"wspd":2,"visib":"6+","altim":1013,"clouds":[{"cover":"FEW","base":2000},{"cover":"SCT","base":8000}],"obsTime":1774965600},"SBBE":{"icaoId":"SBBE","flightCategory":"VFR","rawOb":"METAR SBBE 311400Z 01003KT 9999 SCT010 27/24 Q1012","temp":27,"dewp":24,"wdir":10,"wspd":3,"visib":"6+","altim":1012,"clouds":[{"cover":"SCT","base":1000}],"obsTime":1774965600},"SBVT":{"icaoId":"SBVT","flightCategory":"VFR","rawOb":"METAR SBVT 311400Z 01008KT 320V080 9999 FEW040 SCT100 29/22 Q1013","temp":29,"dewp":22,"wdir":10,"wspd":8,"visib":"6+","altim":1013,"clouds":[{"cover":"FEW","base":4000},{"cover":"SCT","base":10000}],"obsTime":1774965600},"SBBR":{"icaoId":"SBBR","flightCategory":"VFR","rawOb":"METAR SBBR 311400Z 06007KT 350V100 9999 FEW035 26/17 Q1018","temp":26,"dewp":17,"wdir":60,"wspd":7,"visib":"6+","altim":1018,"clouds":[{"cover":"FEW","base":3500}],"obsTime":1774965600},"SBBV":{"icaoId":"SBBV","flightCategory":"MVFR","rawOb":"METAR SBBV 311400Z 06008KT 9999 BKN020 SCT100 26/22 Q1013","temp":26,"dewp":22,"wdir":60,"wspd":8,"visib":"6+","altim":1013,"clouds":[{"cover":"BKN","base":2000},{"cover":"SCT","base":10000}],"obsTime":1774965600},"SBCB":{"icaoId":"SBCB","flightCategory":"VFR","rawOb":"METAR SBCB 311400Z 03014KT 9999 FEW015 SCT100 29/22 Q1012","temp":29,"dewp":22,"wdir":30,"wspd":14,"visib":"6+","altim":1012,"clouds":[{"cover":"FEW","base":1500},{"cover":"SCT","base":10000}],"obsTime":1774965600},"SBCG":{"icaoId":"SBCG","flightCategory":"VFR","rawOb":"METAR SBCG 311400Z 29005KT 250V340 9999 SCT040 30/19 Q1014","temp":30,"dewp":19,"wdir":290,"wspd":5,"visib":"6+","altim":1014,"clouds":[{"cover":"SCT","base":4000}],"obsTime":1774965600},"SBCP":{"icaoId":"SBCP","flightCategory":"VFR","rawOb":"METAR SBCP 311400Z 21008KT 9999 FEW020 SCT100 31/22 Q1012","temp":31,"dewp":22,"wdir":210,"wspd":8,"visib":"6+","altim":1012,"clouds":[{"cover":"FEW","base":2000},{"cover":"SCT","base":10000}],"obsTime":1774965600},"SBCR":{"icaoId":"SBCR","flightCategory":"VFR","rawOb":"METAR SBCR 311400Z 01003KT 320V080 CAVOK 32/23 Q1011","temp":32,"dewp":23,"wdir":10,"wspd":3,"visib":"6+","altim":1011,"clouds":[],"obsTime":1774965600},"SBCT":{"icaoId":"SBCT","flightCategory":"MVFR","rawOb":"METAR SBCT 311400Z 11010KT 6000 -DZ FEW005 BKN012 19/18 Q1018","temp":19,"dewp":18,"wdir":110,"wspd":10,"visib":3.73,"altim":1018,"clouds":[{"cover":"FEW","base":500},{"cover":"BKN","base":1200}],"obsTime":1774965600},"SBCZ":{"icaoId":"SBCZ","flightCategory":"MVFR","rawOb":"METAR SBCZ 311400Z 16005KT 9999 BKN010 BKN100 27/24 Q1013","temp":27,"dewp":24,"wdir":160,"wspd":5,"visib":"6+","altim":1013,"clouds":[{"cover":"BKN","base":1000},{"cover":"BKN","base":10000}],"obsTime":1774965600},"SBEG":{"icaoId":"SBEG","flightCategory":"VFR","rawOb":"METAR SBEG 311400Z 33006KT 9999 SCT012 SCT050 BKN100 27/24 Q1013","temp":27,"dewp":24,"wdir":330,"wspd":6,"visib":"6+","altim":1013,"clouds":[{"cover":"SCT","base":1200},{"cover":"SCT","base":5000},{"cover":"BKN","base":10000}],"obsTime":1774965600},"SBFI":{"icaoId":"SBFI","flightCategory":"VFR","rawOb":"METAR SBFI 311400Z 02006KT CAVOK 30/22 Q1011","temp":30,"dewp":22,"wdir":20,"wspd":6,"visib":"6+","altim":1011,"clouds":[],"obsTime":1774965600},"SBFL":{"icaoId":"SBFL","flightCategory":"MVFR","rawOb":"METAR SBFL 311400Z 11008KT 9999 BKN025 27/21 Q1015","temp":27,"dewp":21,"wdir":110,"wspd":8,"visib":"6+","altim":1015,"clouds":[{"cover":"BKN","base":2500}],"obsTime":1774965600},"SBFZ":{"icaoId":"SBFZ","flightCategory":"MVFR","rawOb":"METAR SBFZ 311400Z 30008KT 9999 BKN025 30/24 Q1011","temp":30,"dewp":24,"wdir":300,"wspd":8,"visib":"6+","altim":1011,"clouds":[{"cover":"BKN","base":2500}],"obsTime":1774965600},"SBGL":{"icaoId":"SBGL","flightCategory":"VFR","rawOb":"METAR SBGL 311400Z 12007KT 9999 FEW048 BKN100 28/22 Q1012","temp":28,"dewp":22,"wdir":120,"wspd":7,"visib":"6+","altim":1012,"clouds":[{"cover":"FEW","base":4800},{"cover":"BKN","base":10000}],"obsTime":1774965600},"SBGO":{"icaoId":"SBGO","flightCategory":"VFR","rawOb":"METAR SBGO 311400Z COR 32007KT 220V360 9999 FEW035 29/19 Q1015","temp":29,"dewp":19,"wdir":320,"wspd":7,"visib":"6+","altim":1015,"clouds":[{"cover":"FEW","base":3500}],"obsTime":1774965600},"SBGR":{"icaoId":"SBGR","flightCategory":"MVFR","rawOb":"METAR SBGR 311400Z 13003KT 9999 BKN019 BKN090 22/18 Q1016","temp":22,"dewp":18,"wdir":130,"wspd":3,"visib":"6+","altim":1016,"clouds":[{"cover":"BKN","base":1900},{"cover":"BKN","base":9000}],"obsTime":1774965600},"SBHT":{"icaoId":"SBHT","flightCategory":"IFR","rawOb":"METAR SBHT 311400Z 01003KT 4000 1500E -RA BR BKN015 BKN080 24/22 Q1014","temp":24,"dewp":22,"wdir":10,"wspd":3,"visib":2.49,"altim":1014,"clouds":[{"cover":"BKN","base":1500},{"cover":"BKN","base":8000}],"obsTime":1774965600},"SBIL":{"icaoId":"SBIL","flightCategory":"VFR","rawOb":"METAR SBIL 311400Z 15005KT 9999 FEW020 29/23 Q1013","temp":29,"dewp":23,"wdir":150,"wspd":5,"visib":"6+","altim":1013,"clouds":[{"cover":"FEW","base":2000}],"obsTime":1774965600},"SBJU":{"icaoId":"SBJU","flightCategory":"VFR","rawOb":"METAR SBJU 311400Z 15003KT 9999 SCT021 28/22 Q1014","temp":28,"dewp":22,"wdir":150,"wspd":3,"visib":"6+","altim":1014,"clouds":[{"cover":"SCT","base":2100}],"obsTime":1774965600},"SBKP":{"icaoId":"SBKP","flightCategory":"VFR","rawOb":"METAR SBKP 311400Z 11007KT 9999 -RA FEW040TCU SCT070 BKN100 22/19 Q1015","temp":22,"dewp":19,"wdir":110,"wspd":7,"visib":"6+","altim":1015,"clouds":[{"cover":"FEW","base":4000},{"cover":"SCT","base":7000},{"cover":"BKN","base":10000}],"obsTime":1774965600},"SBLO":{"icaoId":"SBLO","flightCategory":"VFR","rawOb":"METAR SBLO 311400Z 10007KT CAVOK 25/18 Q1015","temp":25,"dewp":18,"wdir":100,"wspd":7,"visib":"6+","altim":1015,"clouds":[],"obsTime":1774965600},"SBMA":{"icaoId":"SBMA","flightCategory":"MVFR","rawOb":"METAR SBMA 311400Z 17003KT 9999 BKN020 FEW023TCU BKN080 30/25 Q1012","temp":30,"dewp":25,"wdir":170,"wspd":3,"visib":"6+","altim":1012,"clouds":[{"cover":"BKN","base":2000},{"cover":"FEW","base":2300},{"cover":"BKN","base":8000}],"obsTime":1774965600},"SBME":{"icaoId":"SBME","flightCategory":"VFR","rawOb":"METAR SBME 311400Z 04010KT 9999 SCT030 30/22 Q1012","temp":30,"dewp":22,"wdir":40,"wspd":10,"visib":"6+","altim":1012,"clouds":[{"cover":"SCT","base":3000}],"obsTime":1774965600},"SBMG":{"icaoId":"SBMG","flightCategory":"VFR","rawOb":"METAR SBMG 311400Z 08005KT 9999 FEW025 SCT100 28/18 Q1013","temp":28,"dewp":18,"wdir":80,"wspd":5,"visib":"6+","altim":1013,"clouds":[{"cover":"FEW","base":2500},{"cover":"SCT","base":10000}],"obsTime":1774965600},"SBMK":{"icaoId":"SBMK","flightCategory":"VFR","rawOb":"METAR SBMK 311400Z 05004KT 9999 FEW030 28/20 Q1016","temp":28,"dewp":20,"wdir":50,"wspd":4,"visib":"6+","altim":1016,"clouds":[{"cover":"FEW","base":3000}],"obsTime":1774965600},"SBMO":{"icaoId":"SBMO","flightCategory":"MVFR","rawOb":"METAR SBMO 311400Z 12009KT 090V160 5000 2000NE RA BR FEW012 BKN020 FEW025TCU BKN050 27/24 Q1012","temp":27,"dewp":24,"wdir":120,"wspd":9,"visib":3.11,"altim":1012,"clouds":[{"cover":"FEW","base":1200},{"cover":"BKN","base":2000},{"cover":"FEW","base":2500},{"cover":"BKN","base":5000}],"obsTime":1774965600},"SBMQ":{"icaoId":"SBMQ","flightCategory":"MVFR","rawOb":"METAR SBMQ 311400Z 35007KT 9999 VCSH BKN023 SCT100 30/25 Q1012","temp":30,"dewp":25,"wdir":350,"wspd":7,"visib":"6+","altim":1012,"clouds":[{"cover":"BKN","base":2300},{"cover":"SCT","base":10000}],"obsTime":1774965600},"SBNT":{"icaoId":"SBNT","flightCategory":"VFR","rawOb":"METAR SBNT 311400Z 20006KT 140V230 9999 VCSH FEW020 SCT027 FEW030TCU BKN044 29/25 Q1012","temp":29,"dewp":25,"wdir":200,"wspd":6,"visib":"6+","altim":1012,"clouds":[{"cover":"FEW","base":2000},{"cover":"SCT","base":2700},{"cover":"FEW","base":3000},{"cover":"BKN","base":4400}],"obsTime":1774965600},"SBPA":{"icaoId":"SBPA","flightCategory":"VFR","rawOb":"METAR SBPA 311400Z 08013KT 050V110 9999 SCT030 28/20 Q1014","temp":28,"dewp":20,"wdir":80,"wspd":13,"visib":"6+","altim":1014,"clouds":[{"cover":"SCT","base":3000}],"obsTime":1774965600},"SBPJ":{"icaoId":"SBPJ","flightCategory":"VFR","rawOb":"METAR SBPJ 311400Z 22006KT 9000 VCSH FEW018 FEW033TCU SCT035 28/24 Q1014","temp":28,"dewp":24,"wdir":220,"wspd":6,"visib":5.59,"altim":1014,"clouds":[{"cover":"FEW","base":1800},{"cover":"FEW","base":3300},{"cover":"SCT","base":3500}],"obsTime":1774965600},"SBPV":{"icaoId":"SBPV","flightCategory":"VFR","rawOb":"METAR SBPV 311400Z 12003KT 9999 FEW030 BKN070 29/23 Q1012","temp":29,"dewp":23,"wdir":120,"wspd":3,"visib":"6+","altim":1012,"clouds":[{"cover":"FEW","base":3000},{"cover":"BKN","base":7000}],"obsTime":1774965600},"SBRB":{"icaoId":"SBRB","flightCategory":"VFR","rawOb":"METAR SBRB 311400Z 15004KT CAVOK 29/24 Q1013","temp":29,"dewp":24,"wdir":150,"wspd":4,"visib":"6+","altim":1013,"clouds":[],"obsTime":1774965600},"SBRF":{"icaoId":"SBRF","flightCategory":"VFR","rawOb":"METAR SBRF 311400Z 12009KT 9999 SCT018 FEW025TCU BKN060 29/24 Q1011","temp":29,"dewp":24,"wdir":120,"wspd":9,"visib":"6+","altim":1011,"clouds":[{"cover":"SCT","base":1800},{"cover":"FEW","base":2500},{"cover":"BKN","base":6000}],"obsTime":1774965600},"SBSG":{"icaoId":"SBSG","flightCategory":"MVFR","rawOb":"METAR SBSG 311400Z 10006KT 060V150 8000 VCSH SCT017 BKN023 FEW030TCU 29/24 Q1012","temp":29,"dewp":24,"wdir":100,"wspd":6,"visib":4.97,"altim":1012,"clouds":[{"cover":"SCT","base":1700},{"cover":"BKN","base":2300},{"cover":"FEW","base":3000}],"obsTime":1774965600},"SBSL":{"icaoId":"SBSL","flightCategory":"VFR","rawOb":"METAR SBSL 311400Z 10008KT 9999 FEW020 29/23 Q1012","temp":29,"dewp":23,"wdir":100,"wspd":8,"visib":"6+","altim":1012,"clouds":[{"cover":"FEW","base":2000}],"obsTime":1774965600},"SBSN":{"icaoId":"SBSN","flightCategory":"VFR","rawOb":"METAR SBSN 311400Z 31006KT 9999 FEW020 FEW025TCU BKN100 28/24 Q1012","temp":28,"dewp":24,"wdir":310,"wspd":6,"visib":"6+","altim":1012,"clouds":[{"cover":"FEW","base":2000},{"cover":"FEW","base":2500},{"cover":"BKN","base":10000}],"obsTime":1774965600},"SBSP":{"icaoId":"SBSP","flightCategory":"VFR","rawOb":"METAR SBSP 311400Z 14003KT 9999 SCT040 BKN100 22/17 Q1017","temp":22,"dewp":17,"wdir":140,"wspd":3,"visib":"6+","altim":1017,"clouds":[{"cover":"SCT","base":4000},{"cover":"BKN","base":10000}],"obsTime":1774965600},"SBSV":{"icaoId":"SBSV","flightCategory":"VFR","rawOb":"METAR SBSV 311400Z 21009KT 9999 SCT015 SCT020 BKN070 27/22 Q1013","temp":27,"dewp":22,"wdir":210,"wspd":9,"visib":"6+","altim":1013,"clouds":[{"cover":"SCT","base":1500},{"cover":"SCT","base":2000},{"cover":"BKN","base":7000}],"obsTime":1774965600},"SBTE":{"icaoId":"SBTE","flightCategory":"MVFR","rawOb":"METAR SBTE 311400Z 33003KT 9999 BKN020 30/23 Q1012","temp":30,"dewp":23,"wdir":330,"wspd":3,"visib":"6+","altim":1012,"clouds":[{"cover":"BKN","base":2000}],"obsTime":1774965600},"SBUL":{"icaoId":"SBUL","flightCategory":"VFR","rawOb":"METAR SBUL 311400Z 04009KT 9999 FEW025 26/18 Q1017","temp":26,"dewp":18,"wdir":40,"wspd":9,"visib":"6+","altim":1017,"clouds":[{"cover":"FEW","base":2500}],"obsTime":1774965600},"SBUR":{"icaoId":"SBUR","flightCategory":"VFR","rawOb":"METAR SBUR 311400Z 01009KT 9999 FEW035 28/17 Q1015","temp":28,"dewp":17,"wdir":10,"wspd":9,"visib":"6+","altim":1015,"clouds":[{"cover":"FEW","base":3500}],"obsTime":1774965600},"SBVH":{"icaoId":"SBVH","flightCategory":"VFR","rawOb":"METAR SBVH 311400Z 07005KT 9999 SCT015 SCT020 BKN100 28/20 Q1015","temp":28,"dewp":20,"wdir":70,"wspd":5,"visib":"6+","altim":1015,"clouds":[{"cover":"SCT","base":1500},{"cover":"SCT","base":2000},{"cover":"BKN","base":10000}],"obsTime":1774965600},"SBAR":{"icaoId":"SBAR","flightCategory":"VFR","rawOb":"METAR SBAR 311400Z 12009KT 9999 SCT020 30/23 Q1012","temp":30,"dewp":23,"wdir":120,"wspd":9,"visib":"6+","altim":1012,"clouds":[{"cover":"SCT","base":2000}],"obsTime":1774965600},"SBAX":{"icaoId":"SBAX","flightCategory":"MVFR","rawOb":"METAR SBAX 311400Z 03007KT 9999 BKN030 26/17 Q1017","temp":26,"dewp":17,"wdir":30,"wspd":7,"visib":"6+","altim":1017,"clouds":[{"cover":"BKN","base":3000}],"obsTime":1774965600},"SBBH":{"icaoId":"SBBH","flightCategory":"MVFR","rawOb":"METAR SBBH 311400Z 06007KT 9999 BKN030 SCT090 26/18 Q1017","temp":26,"dewp":18,"wdir":60,"wspd":7,"visib":"6+","altim":1017,"clouds":[{"cover":"BKN","base":3000},{"cover":"SCT","base":9000}],"obsTime":1774965600},"SBBQ":{"icaoId":"SBBQ","flightCategory":"MVFR","rawOb":"METAR SBBQ 311400Z 36007KT 320V050 9999 BKN025 24/17 Q1019","temp":24,"dewp":17,"wdir":360,"wspd":7,"visib":"6+","altim":1019,"clouds":[{"cover":"BKN","base":2500}],"obsTime":1774965600},"SBBU":{"icaoId":"SBBU","flightCategory":"VFR","rawOb":"METAR SBBU 311400Z 12004KT 9999 FEW030 24/20 Q1015","temp":24,"dewp":20,"wdir":120,"wspd":4,"visib":"6+","altim":1015,"clouds":[{"cover":"FEW","base":3000}],"obsTime":1774965600},"SBCA":{"icaoId":"SBCA","flightCategory":"VFR","rawOb":"METAR SBCA 311400Z 01009KT CAVOK 27/18 Q1016","temp":27,"dewp":18,"wdir":10,"wspd":9,"visib":"6+","altim":1016,"clouds":[],"obsTime":1774965600},"SBCC":{"icaoId":"SBCC","flightCategory":"MVFR","rawOb":"METAR SBCC 311400Z 01005KT 9999 BKN025 29/21 Q1014","temp":29,"dewp":21,"wdir":10,"wspd":5,"visib":"6+","altim":1014,"clouds":[{"cover":"BKN","base":2500}],"obsTime":1774965600},"SBCJ":{"icaoId":"SBCJ","flightCategory":"MVFR","rawOb":"METAR SBCJ 311400Z 06004KT 9999 BKN011 SCT100 25/22 Q1016","temp":25,"dewp":22,"wdir":60,"wspd":4,"visib":"6+","altim":1016,"clouds":[{"cover":"BKN","base":1100},{"cover":"SCT","base":10000}],"obsTime":1774965600},"SBCO":{"icaoId":"SBCO","flightCategory":"VFR","rawOb":"METAR SBCO 311400Z 09012KT 050V110 9999 SCT030 28/20 Q1014","temp":28,"dewp":20,"wdir":90,"wspd":12,"visib":"6+","altim":1014,"clouds":[{"cover":"SCT","base":3000}],"obsTime":1774965600},"SBDN":{"icaoId":"SBDN","flightCategory":"VFR","rawOb":"METAR SBDN 311400Z 06005KT 360V130 CAVOK 28/18 Q1013","temp":28,"dewp":18,"wdir":60,"wspd":5,"visib":"6+","altim":1013,"clouds":[],"obsTime":1774965600},"SBES":{"icaoId":"SBES","flightCategory":"VFR","rawOb":"METAR SBES 311400Z 06012G22KT 010V090 9999 FEW013 29/// Q1012","temp":null,"dewp":null,"wdir":60,"wspd":12,"visib":"6+","altim":1012,"clouds":[{"cover":"FEW","base":1300}],"obsTime":1774965600},"SBGM":{"icaoId":"SBGM","flightCategory":"VFR","rawOb":"METAR SBGM 311400Z 10004KT 010V150 CAVOK 30/21 Q1012","temp":30,"dewp":21,"wdir":100,"wspd":4,"visib":"6+","altim":1012,"clouds":[],"obsTime":1774965600},"SBIP":{"icaoId":"SBIP","flightCategory":"VFR","rawOb":"METAR SBIP 311400Z AUTO 03010KT 010V070 CAVOK 29/18 Q1015","temp":29,"dewp":18,"wdir":30,"wspd":10,"visib":"6+","altim":1015,"clouds":[],"obsTime":1774965600},"SBKG":{"icaoId":"SBKG","flightCategory":"MVFR","rawOb":"METAR SBKG 311400Z 13004KT 090V200 9999 BKN020 28/21 Q1014","temp":28,"dewp":21,"wdir":130,"wspd":4,"visib":"6+","altim":1014,"clouds":[{"cover":"BKN","base":2000}],"obsTime":1774965600},"SBOI":{"icaoId":"SBOI","flightCategory":"MVFR","rawOb":"METAR SBOI 311400Z AUTO VRB02KT 5000 // FEW004/// BKN010/// OVC021/// 24/24 Q1013","temp":24,"dewp":24,"wdir":"VRB","wspd":2,"visib":3.11,"altim":1013,"clouds":[{"cover":"FEW","base":400},{"cover":"BKN","base":1000},{"cover":"OVC","base":2100}],"obsTime":1774965600},"SBPB":{"icaoId":"SBPB","flightCategory":"VFR","rawOb":"METAR SBPB 311400Z 02004KT 9999 SCT020 29/24 Q1012","temp":29,"dewp":24,"wdir":20,"wspd":4,"visib":"6+","altim":1012,"clouds":[{"cover":"SCT","base":2000}],"obsTime":1774965600},"SBPL":{"icaoId":"SBPL","flightCategory":"MVFR","rawOb":"METAR SBPL 311400Z 10005KT 9999 BKN025 BKN070 29/22 Q1014","temp":29,"dewp":22,"wdir":100,"wspd":5,"visib":"6+","altim":1014,"clouds":[{"cover":"BKN","base":2500},{"cover":"BKN","base":7000}],"obsTime":1774965600},"SBPP":{"icaoId":"SBPP","flightCategory":"VFR","rawOb":"METAR SBPP 311400Z 00000KT 9999 FEW020 30/18 Q1015","temp":30,"dewp":18,"wdir":0,"wspd":0,"visib":"6+","altim":1015,"clouds":[{"cover":"FEW","base":2000}],"obsTime":1774965600},"SBPS":{"icaoId":"SBPS","flightCategory":"VFR","rawOb":"METAR SBPS 311400Z 06007KT 030V100 9999 SCT018 29/23 Q1014","temp":29,"dewp":23,"wdir":60,"wspd":7,"visib":"6+","altim":1014,"clouds":[{"cover":"SCT","base":1800}],"obsTime":1774965600},"SBSC":{"icaoId":"SBSC","flightCategory":"IFR","rawOb":"METAR SBSC 311400Z 20008KT 9999 BKN008 BKN022 BKN070 25/23 Q1013","temp":25,"dewp":23,"wdir":200,"wspd":8,"visib":"6+","altim":1013,"clouds":[{"cover":"BKN","base":800},{"cover":"BKN","base":2200},{"cover":"BKN","base":7000}],"obsTime":1774965600},"SBSJ":{"icaoId":"SBSJ","flightCategory":"IFR","rawOb":"METAR SBSJ 311400Z 14001KT 4000 BR BKN013 BKN033 BKN080 22/19 Q1016","temp":22,"dewp":19,"wdir":140,"wspd":1,"visib":2.49,"altim":1016,"clouds":[{"cover":"BKN","base":1300},{"cover":"BKN","base":3300},{"cover":"BKN","base":8000}],"obsTime":1774965600},"SBSM":{"icaoId":"SBSM","flightCategory":"MVFR","rawOb":"METAR SBSM 311400Z 11007KT 070V200 9999 FEW015 BKN023 27/22 Q1013","temp":27,"dewp":22,"wdir":110,"wspd":7,"visib":"6+","altim":1013,"clouds":[{"cover":"FEW","base":1500},{"cover":"BKN","base":2300}],"obsTime":1774965600},"SBSR":{"icaoId":"SBSR","flightCategory":"VFR","rawOb":"METAR SBSR 311400Z VRB02KT CAVOK 28/18 Q1014","temp":28,"dewp":18,"wdir":"VRB","wspd":2,"visib":"6+","altim":1014,"clouds":[],"obsTime":1774965600},"SBTD":{"icaoId":"SBTD","flightCategory":"VFR","rawOb":"METAR SBTD 311400Z /////KT CAVOK 28/19 Q1014","temp":28,"dewp":19,"wdir":null,"wspd":null,"visib":"6+","altim":1014,"clouds":[],"obsTime":1774965600},"SBTF":{"icaoId":"SBTF","flightCategory":"VFR","rawOb":"METAR SBTF 311400Z 02005KT 9999 FEW013 BKN090 28/25 Q1013","temp":28,"dewp":25,"wdir":20,"wspd":5,"visib":"6+","altim":1013,"clouds":[{"cover":"FEW","base":1300},{"cover":"BKN","base":9000}],"obsTime":1774965600},"SBTT":{"icaoId":"SBTT","flightCategory":"VFR","rawOb":"METAR SBTT 311400Z 12003KT 9999 SCT007 SCT100 23/21 Q1013","temp":23,"dewp":21,"wdir":120,"wspd":3,"visib":"6+","altim":1013,"clouds":[{"cover":"SCT","base":700},{"cover":"SCT","base":10000}],"obsTime":1774965600},"SBUY":{"icaoId":"SBUY","flightCategory":"MVFR","rawOb":"METAR SBUY 311400Z 03004KT 9999 BKN013 SCT020 26/24 Q1012","temp":26,"dewp":24,"wdir":30,"wspd":4,"visib":"6+","altim":1012,"clouds":[{"cover":"BKN","base":1300},{"cover":"SCT","base":2000}],"obsTime":1774965600},"SBAU":{"icaoId":"SBAU","flightCategory":"VFR","rawOb":"METAR SBAU 311400Z 13007KT CAVOK 27/18 Q1013","temp":27,"dewp":18,"wdir":130,"wspd":7,"visib":"6+","altim":1013,"clouds":[],"obsTime":1774965600},"SBPF":{"icaoId":"SBPF","flightCategory":"VFR","rawOb":"METAR SBPF 311400Z 06017KT 9999 SCT022 24/17 Q1016","temp":24,"dewp":17,"wdir":60,"wspd":17,"visib":"6+","altim":1016,"clouds":[{"cover":"SCT","base":2200}],"obsTime":1774965600},"SBTA":{"icaoId":"SBTA","flightCategory":"MVFR","rawOb":"METAR SBTA 311400Z VRB02KT 7000 BKN015 OVC070 22/22 Q1015","temp":22,"dewp":22,"wdir":"VRB","wspd":2,"visib":4.35,"altim":1015,"clouds":[{"cover":"BKN","base":1500},{"cover":"OVC","base":7000}],"obsTime":1774965600},"SBJP":{"icaoId":"SBJP","flightCategory":"MVFR","rawOb":"METAR SBJP 311400Z 12009KT 9999 BKN020 28/24 Q1012","temp":28,"dewp":24,"wdir":120,"wspd":9,"visib":"6+","altim":1012,"clouds":[{"cover":"BKN","base":2000}],"obsTime":1774965600},"SBAN":{"icaoId":"SBAN","flightCategory":"VFR","rawOb":"METAR SBAN 311400Z 04004KT 9999 SCT030 26/17 Q1018","temp":26,"dewp":17,"wdir":40,"wspd":4,"visib":"6+","altim":1018,"clouds":[{"cover":"SCT","base":3000}],"obsTime":1774965600},"SBIH":{"icaoId":"SBIH","flightCategory":"VFR","rawOb":"METAR SBIH 311400Z 00000KT 9999 -RA FEW008 SCT015 BKN080 24/24 Q1012","temp":24,"dewp":24,"wdir":0,"wspd":0,"visib":"6+","altim":1012,"clouds":[{"cover":"FEW","base":800},{"cover":"SCT","base":1500},{"cover":"BKN","base":8000}],"obsTime":1774965600},"SBLE":{"icaoId":"SBLE","flightCategory":"VFR","rawOb":"METAR SBLE 311400Z AUTO 16004KT 120V220 9999 FEW023 26/23 Q1016","temp":26,"dewp":23,"wdir":160,"wspd":4,"visib":"6+","altim":1016,"clouds":[{"cover":"FEW","base":2300}],"obsTime":1774965600},"SBJV":{"icaoId":"SBJV","flightCategory":"IFR","rawOb":"METAR SBJV 311400Z 29003KT 9000 -RA BKN007 OVC040 23/22 Q1015 RERA","temp":23,"dewp":22,"wdir":290,"wspd":3,"visib":5.59,"altim":1015,"clouds":[{"cover":"BKN","base":700},{"cover":"OVC","base":4000}],"obsTime":1774965600},"SBNM":{"icaoId":"SBNM","flightCategory":"VFR","rawOb":"METAR SBNM 311400Z 14004KT CAVOK 29/21 Q1012","temp":29,"dewp":21,"wdir":140,"wspd":4,"visib":"6+","altim":1012,"clouds":[],"obsTime":1774965600},"SBAF":{"icaoId":"SBAF","flightCategory":"VFR","rawOb":"METAR SBAF 311400Z 19011KT 9999 SCT023 BKN060 26/25 Q1012","temp":26,"dewp":25,"wdir":190,"wspd":11,"visib":"6+","altim":1012,"clouds":[{"cover":"SCT","base":2300},{"cover":"BKN","base":6000}],"obsTime":1774965600},"SBGW":{"icaoId":"SBGW","flightCategory":"MVFR","rawOb":"METAR SBGW 311400Z VRB02KT 5000 BR SCT012 BKN022 21/17 Q1015","temp":21,"dewp":17,"wdir":"VRB","wspd":2,"visib":3.11,"altim":1015,"clouds":[{"cover":"SCT","base":1200},{"cover":"BKN","base":2200}],"obsTime":1774965600},"SBJR":{"icaoId":"SBJR","flightCategory":"MVFR","rawOb":"METAR SBJR 311400Z 18006KT 6000 FEW004 SCT012 BKN018 25/22 Q1013 RERA","temp":25,"dewp":22,"wdir":180,"wspd":6,"visib":3.73,"altim":1013,"clouds":[{"cover":"FEW","base":400},{"cover":"SCT","base":1200},{"cover":"BKN","base":1800}],"obsTime":1774965600},"SBLS":{"icaoId":"SBLS","flightCategory":"MVFR","rawOb":"METAR SBLS 311400Z 06005KT 330V090 9999 BKN025 25/18 Q1017","temp":25,"dewp":18,"wdir":60,"wspd":5,"visib":"6+","altim":1017,"clouds":[{"cover":"BKN","base":2500}],"obsTime":1774965600},"SBMT":{"icaoId":"SBMT","flightCategory":"MVFR","rawOb":"METAR SBMT 311400Z 13004KT 7000 SCT014 BKN020 23/17 Q1016","temp":23,"dewp":17,"wdir":130,"wspd":4,"visib":4.35,"altim":1016,"clouds":[{"cover":"SCT","base":1400},{"cover":"BKN","base":2000}],"obsTime":1774965600},"SBST":{"icaoId":"SBST","flightCategory":"VFR","rawOb":"METAR SBST 311400Z 01003KT 9999 SCT020 BKN070 25/22 Q1013","temp":25,"dewp":22,"wdir":10,"wspd":3,"visib":"6+","altim":1013,"clouds":[{"cover":"SCT","base":2000},{"cover":"BKN","base":7000}],"obsTime":1774965600}}}