{"updated":1776676918,"count":64,"data":{"SBBE":{"icaoId":"SBBE","flightCategory":"VFR","rawOb":"METAR SBBE 200800Z 19002KT CAVOK 23/23 Q1010","temp":23,"dewp":23,"wdir":190,"wspd":2,"visib":"6+","altim":1010,"clouds":[],"obsTime":1776672000},"SBBV":{"icaoId":"SBBV","flightCategory":"VFR","rawOb":"METAR SBBV 200800Z 34005KT 9999 -RA VCTS SCT030 FEW035CB BKN100 25/24 Q1010 RETS","temp":25,"dewp":24,"wdir":340,"wspd":5,"visib":"6+","altim":1010,"clouds":[{"cover":"SCT","base":3000},{"cover":"FEW","base":3500},{"cover":"BKN","base":10000}],"obsTime":1776672000},"SBCB":{"icaoId":"SBCB","flightCategory":"VFR","rawOb":"METAR SBCB 200900Z 27010KT 9000 FEW007 SCT020 23/20 Q1015","temp":23,"dewp":20,"wdir":270,"wspd":10,"visib":5.59,"altim":1015,"clouds":[{"cover":"FEW","base":700},{"cover":"SCT","base":2000}],"obsTime":1776675600},"SBCF":{"icaoId":"SBCF","flightCategory":"VFR","rawOb":"METAR SBCF 200800Z 16004KT CAVOK 18/17 Q1017","temp":18,"dewp":17,"wdir":160,"wspd":4,"visib":"6+","altim":1017,"clouds":[],"obsTime":1776672000},"SBCG":{"icaoId":"SBCG","flightCategory":"VFR","rawOb":"METAR SBCG 200800Z 08008KT CAVOK 24/20 Q1013","temp":24,"dewp":20,"wdir":80,"wspd":8,"visib":"6+","altim":1013,"clouds":[],"obsTime":1776672000},"SBCT":{"icaoId":"SBCT","flightCategory":"IFR","rawOb":"METAR SBCT 200800Z 13003KT 4000 BR MIFG FEW003 15/15 Q1019","temp":15,"dewp":15,"wdir":130,"wspd":3,"visib":2.49,"altim":1019,"clouds":[{"cover":"FEW","base":300}],"obsTime":1776672000},"SBEG":{"icaoId":"SBEG","flightCategory":"VFR","rawOb":"METAR SBEG 200800Z 08004KT 9999 SCT007 25/25 Q1010","temp":25,"dewp":25,"wdir":80,"wspd":4,"visib":"6+","altim":1010,"clouds":[{"cover":"SCT","base":700}],"obsTime":1776672000},"SBFI":{"icaoId":"SBFI","flightCategory":"VFR","rawOb":"METAR SBFI 200800Z 10008KT CAVOK 22/22 Q1011","temp":22,"dewp":22,"wdir":100,"wspd":8,"visib":"6+","altim":1011,"clouds":[],"obsTime":1776672000},"SBFL":{"icaoId":"SBFL","flightCategory":"VFR","rawOb":"METAR SBFL 200800Z COR 28004KT CAVOK 19/17 Q1016","temp":19,"dewp":17,"wdir":280,"wspd":4,"visib":"6+","altim":1016,"clouds":[],"obsTime":1776672000},"SBFZ":{"icaoId":"SBFZ","flightCategory":"VFR","rawOb":"METAR SBFZ 200800Z 20001KT 9999 FEW017 SCT100 25/24 Q1009","temp":25,"dewp":24,"wdir":200,"wspd":1,"visib":"6+","altim":1009,"clouds":[{"cover":"FEW","base":1700},{"cover":"SCT","base":10000}],"obsTime":1776672000},"SBGL":{"icaoId":"SBGL","flightCategory":"VFR","rawOb":"METAR SBGL 200800Z 31003KT CAVOK 21/19 Q1014","temp":21,"dewp":19,"wdir":310,"wspd":3,"visib":"6+","altim":1014,"clouds":[],"obsTime":1776672000},"SBGO":{"icaoId":"SBGO","flightCategory":"VFR","rawOb":"METAR SBGO 200800Z 11002KT CAVOK 20/18 Q1016","temp":20,"dewp":18,"wdir":110,"wspd":2,"visib":"6+","altim":1016,"clouds":[],"obsTime":1776672000},"SBGR":{"icaoId":"SBGR","flightCategory":"VFR","rawOb":"METAR SBGR 200800Z 08002KT CAVOK 15/14 Q1019","temp":15,"dewp":14,"wdir":80,"wspd":2,"visib":"6+","altim":1019,"clouds":[],"obsTime":1776672000},"SBJU":{"icaoId":"SBJU","flightCategory":"MVFR","rawOb":"METAR SBJU 200800Z 00000KT 9999 BKN020 24/21 Q1012","temp":24,"dewp":21,"wdir":0,"wspd":0,"visib":"6+","altim":1012,"clouds":[{"cover":"BKN","base":2000}],"obsTime":1776672000},"SBKP":{"icaoId":"SBKP","flightCategory":"VFR","rawOb":"METAR SBKP 200800Z 13006KT CAVOK 16/15 Q1017","temp":16,"dewp":15,"wdir":130,"wspd":6,"visib":"6+","altim":1017,"clouds":[],"obsTime":1776672000},"SBLO":{"icaoId":"SBLO","flightCategory":"VFR","rawOb":"METAR SBLO 200800Z 08003KT CAVOK 19/17 Q1027","temp":19,"dewp":17,"wdir":80,"wspd":3,"visib":"6+","altim":1027,"clouds":[],"obsTime":1776672000},"SBMA":{"icaoId":"SBMA","flightCategory":"IFR","rawOb":"METAR SBMA 200800Z 22003KT 9999 -RA BKN008 OVC080 24/23 Q1012","temp":24,"dewp":23,"wdir":220,"wspd":3,"visib":"6+","altim":1012,"clouds":[{"cover":"BKN","base":800},{"cover":"OVC","base":8000}],"obsTime":1776672000},"SBME":{"icaoId":"SBME","flightCategory":"VFR","rawOb":"METAR SBME 200800Z 32005KT CAVOK 19/17 Q1014","temp":19,"dewp":17,"wdir":320,"wspd":5,"visib":"6+","altim":1014,"clouds":[],"obsTime":1776672000},"SBMG":{"icaoId":"SBMG","flightCategory":"VFR","rawOb":"METAR SBMG 200800Z AUTO 07012KT CAVOK 22/17 Q1014","temp":22,"dewp":17,"wdir":70,"wspd":12,"visib":"6+","altim":1014,"clouds":[],"obsTime":1776672000},"SBMK":{"icaoId":"SBMK","flightCategory":"VFR","rawOb":"METAR SBMK 200800Z 00000KT CAVOK 19/16 Q1015","temp":19,"dewp":16,"wdir":0,"wspd":0,"visib":"6+","altim":1015,"clouds":[],"obsTime":1776672000},"SBMO":{"icaoId":"SBMO","flightCategory":"VFR","rawOb":"METAR SBMO 200800Z 25003KT 9999 FEW017 24/24 Q1011","temp":24,"dewp":24,"wdir":250,"wspd":3,"visib":"6+","altim":1011,"clouds":[{"cover":"FEW","base":1700}],"obsTime":1776672000},"SBMQ":{"icaoId":"SBMQ","flightCategory":"VFR","rawOb":"METAR SBMQ 200800Z 14002KT 9999 -RA SCT008 26/24 Q1010","temp":26,"dewp":24,"wdir":140,"wspd":2,"visib":"6+","altim":1010,"clouds":[{"cover":"SCT","base":800}],"obsTime":1776672000},"SBNT":{"icaoId":"SBNT","flightCategory":"VFR","rawOb":"METAR SBNT 200800Z 19002KT 9999 FEW020 24/23 Q1009","temp":24,"dewp":23,"wdir":190,"wspd":2,"visib":"6+","altim":1009,"clouds":[{"cover":"FEW","base":2000}],"obsTime":1776672000},"SBPA":{"icaoId":"SBPA","flightCategory":"VFR","rawOb":"METAR SBPA 200800Z 07002KT CAVOK 15/14 Q1014","temp":15,"dewp":14,"wdir":70,"wspd":2,"visib":"6+","altim":1014,"clouds":[],"obsTime":1776672000},"SBPJ":{"icaoId":"SBPJ","flightCategory":"VFR","rawOb":"METAR SBPJ 200800Z 35004KT 9999 SCT011 BKN080 24/23 Q1013","temp":24,"dewp":23,"wdir":350,"wspd":4,"visib":"6+","altim":1013,"clouds":[{"cover":"SCT","base":1100},{"cover":"BKN","base":8000}],"obsTime":1776672000},"SBPV":{"icaoId":"SBPV","flightCategory":"IFR","rawOb":"METAR SBPV 200800Z 02002KT 4000 BR BKN005 23/22 Q1010","temp":23,"dewp":22,"wdir":20,"wspd":2,"visib":2.49,"altim":1010,"clouds":[{"cover":"BKN","base":500}],"obsTime":1776672000},"SBRB":{"icaoId":"SBRB","flightCategory":"VFR","rawOb":"METAR SBRB 200800Z 02005KT 9999 FEW005 BKN100 23/22 Q1010","temp":23,"dewp":22,"wdir":20,"wspd":5,"visib":"6+","altim":1010,"clouds":[{"cover":"FEW","base":500},{"cover":"BKN","base":10000}],"obsTime":1776672000},"SBRF":{"icaoId":"SBRF","flightCategory":"MVFR","rawOb":"METAR SBRF 200800Z 23004KT 9999 BKN016 SCT050 26/24 Q1010","temp":26,"dewp":24,"wdir":230,"wspd":4,"visib":"6+","altim":1010,"clouds":[{"cover":"BKN","base":1600},{"cover":"SCT","base":5000}],"obsTime":1776672000},"SBSG":{"icaoId":"SBSG","flightCategory":"VFR","rawOb":"METAR SBSG 200800Z 18003KT 160V220 9999 FEW019 FEW025TCU 24/23 Q1010","temp":24,"dewp":23,"wdir":180,"wspd":3,"visib":"6+","altim":1010,"clouds":[{"cover":"FEW","base":1900},{"cover":"FEW","base":2500}],"obsTime":1776672000},"SBSL":{"icaoId":"SBSL","flightCategory":"VFR","rawOb":"METAR SBSL 200800Z 17003KT 9999 FEW006 BKN080 25/24 Q1010","temp":25,"dewp":24,"wdir":170,"wspd":3,"visib":"6+","altim":1010,"clouds":[{"cover":"FEW","base":600},{"cover":"BKN","base":8000}],"obsTime":1776672000},"SBSN":{"icaoId":"SBSN","flightCategory":"VFR","rawOb":"METAR SBSN 200800Z 12005KT 9999 SCT016 SCT100 25/24 Q1010","temp":25,"dewp":24,"wdir":120,"wspd":5,"visib":"6+","altim":1010,"clouds":[{"cover":"SCT","base":1600},{"cover":"SCT","base":10000}],"obsTime":1776672000},"SBSP":{"icaoId":"SBSP","flightCategory":"VFR","rawOb":"METAR SBSP 200800Z AUTO 11003KT 070V130 CAVOK 17/15 Q1019","temp":17,"dewp":15,"wdir":110,"wspd":3,"visib":"6+","altim":1019,"clouds":[],"obsTime":1776672000},"SBSV":{"icaoId":"SBSV","flightCategory":"MVFR","rawOb":"METAR SBSV 200800Z 11002KT 9999 BKN020 BKN090 27/24 Q1011","temp":27,"dewp":24,"wdir":110,"wspd":2,"visib":"6+","altim":1011,"clouds":[{"cover":"BKN","base":2000},{"cover":"BKN","base":9000}],"obsTime":1776672000},"SBTE":{"icaoId":"SBTE","flightCategory":"VFR","rawOb":"METAR SBTE 200800Z 35002KT 9999 SCT008 SCT090 25/24 Q1009","temp":25,"dewp":24,"wdir":350,"wspd":2,"visib":"6+","altim":1009,"clouds":[{"cover":"SCT","base":800},{"cover":"SCT","base":9000}],"obsTime":1776672000},"SBUL":{"icaoId":"SBUL","flightCategory":"VFR","rawOb":"METAR SBUL 200900Z 14007KT CAVOK 20/18 Q1017","temp":20,"dewp":18,"wdir":140,"wspd":7,"visib":"6+","altim":1017,"clouds":[],"obsTime":1776675600},"SBUR":{"icaoId":"SBUR","flightCategory":"VFR","rawOb":"METAR SBUR 200800Z 11003KT CAVOK 23/17 Q1016","temp":23,"dewp":17,"wdir":110,"wspd":3,"visib":"6+","altim":1016,"clouds":[],"obsTime":1776672000},"SBVT":{"icaoId":"SBVT","flightCategory":"VFR","rawOb":"METAR SBVT 200800Z 21005KT 9999 FEW025 SCT100 22/21 Q1014","temp":22,"dewp":21,"wdir":210,"wspd":5,"visib":"6+","altim":1014,"clouds":[{"cover":"FEW","base":2500},{"cover":"SCT","base":10000}],"obsTime":1776672000},"SBBR":{"icaoId":"SBBR","flightCategory":"VFR","rawOb":"METAR SBBR 200800Z 00000KT CAVOK 17/15 Q1017","temp":17,"dewp":15,"wdir":0,"wspd":0,"visib":"6+","altim":1017,"clouds":[],"obsTime":1776672000},"SBOI":{"icaoId":"SBOI","flightCategory":"LIFR","rawOb":"METAR SBOI 200800Z AUTO VRB02KT 9999 // OVC004/// 24/24 Q1011","temp":24,"dewp":24,"wdir":"VRB","wspd":2,"visib":"6+","altim":1011,"clouds":[{"cover":"OVC","base":400}],"obsTime":1776672000},"SBAR":{"icaoId":"SBAR","flightCategory":"VFR","rawOb":"METAR SBAR 200800Z 34003KT 9999 FEW025 25/23 Q1011","temp":25,"dewp":23,"wdir":340,"wspd":3,"visib":"6+","altim":1011,"clouds":[{"cover":"FEW","base":2500}],"obsTime":1776672000},"SBCO":{"icaoId":"SBCO","flightCategory":"VFR","rawOb":"METAR SBCO 200900Z 08002KT CAVOK 13/12 Q1015","temp":13,"dewp":12,"wdir":80,"wspd":2,"visib":"6+","altim":1015,"clouds":[],"obsTime":1776675600},"SBDN":{"icaoId":"SBDN","flightCategory":"VFR","rawOb":"METAR SBDN 200800Z 08005KT CAVOK 23/17 Q1014","temp":23,"dewp":17,"wdir":80,"wspd":5,"visib":"6+","altim":1014,"clouds":[],"obsTime":1776672000},"SBES":{"icaoId":"SBES","flightCategory":"VFR","rawOb":"METAR SBES 200900Z VRB03KT 9999 FEW025 20/// Q1014","temp":null,"dewp":null,"wdir":"VRB","wspd":3,"visib":"6+","altim":1014,"clouds":[{"cover":"FEW","base":2500}],"obsTime":1776675600},"SBIP":{"icaoId":"SBIP","flightCategory":"VFR","rawOb":"METAR SBIP 200800Z AUTO 21001KT CAVOK 21/21 Q1015","temp":21,"dewp":21,"wdir":210,"wspd":1,"visib":"6+","altim":1015,"clouds":[],"obsTime":1776672000},"SBKG":{"icaoId":"SBKG","flightCategory":"VFR","rawOb":"METAR SBKG 200800Z 09003KT 9999 FEW010 22/21 Q1012","temp":22,"dewp":21,"wdir":90,"wspd":3,"visib":"6+","altim":1012,"clouds":[{"cover":"FEW","base":1000}],"obsTime":1776672000},"SBPL":{"icaoId":"SBPL","flightCategory":"MVFR","rawOb":"METAR SBPL 200800Z 10008KT 9999 BKN020 26/22 Q1012","temp":26,"dewp":22,"wdir":100,"wspd":8,"visib":"6+","altim":1012,"clouds":[{"cover":"BKN","base":2000}],"obsTime":1776672000},"SBPP":{"icaoId":"SBPP","flightCategory":"VFR","rawOb":"METAR SBPP 200800Z 05005KT CAVOK 22/21 Q1014","temp":22,"dewp":21,"wdir":50,"wspd":5,"visib":"6+","altim":1014,"clouds":[],"obsTime":1776672000},"SBPS":{"icaoId":"SBPS","flightCategory":"VFR","rawOb":"METAR SBPS 200800Z 27005KT 9999 FEW007 23/22 Q1013","temp":23,"dewp":22,"wdir":270,"wspd":5,"visib":"6+","altim":1013,"clouds":[{"cover":"FEW","base":700}],"obsTime":1776672000},"SBSC":{"icaoId":"SBSC","flightCategory":"VFR","rawOb":"METAR SBSC 200800Z 24004KT 9999 FEW015 19/18 Q1014","temp":19,"dewp":18,"wdir":240,"wspd":4,"visib":"6+","altim":1014,"clouds":[{"cover":"FEW","base":1500}],"obsTime":1776672000},"SBSJ":{"icaoId":"SBSJ","flightCategory":"MVFR","rawOb":"SPECI SBSJ 200830Z 15002KT 6000 NSC 14/13 Q1018","temp":14,"dewp":13,"wdir":150,"wspd":2,"visib":3.73,"altim":1018,"clouds":[],"obsTime":1776673800},"SBSM":{"icaoId":"SBSM","flightCategory":"VFR","rawOb":"METAR SBSM 200900Z 07001KT CAVOK 13/13 Q1014","temp":13,"dewp":13,"wdir":70,"wspd":1,"visib":"6+","altim":1014,"clouds":[],"obsTime":1776675600},"SBSR":{"icaoId":"SBSR","flightCategory":"VFR","rawOb":"METAR SBSR 200800Z 12005KT CAVOK 22/17 Q1015","temp":22,"dewp":17,"wdir":120,"wspd":5,"visib":"6+","altim":1015,"clouds":[],"obsTime":1776672000},"SBAX":{"icaoId":"SBAX","flightCategory":"VFR","rawOb":"METAR SBAX 200800Z AUTO 00000KT CAVOK ///// Q1018","temp":null,"dewp":null,"wdir":0,"wspd":0,"visib":"6+","altim":1018,"clouds":[],"obsTime":1776672000},"SBBH":{"icaoId":"SBBH","flightCategory":"VFR","rawOb":"METAR SBBH 200900Z 09006KT CAVOK 19/17 Q1018","temp":19,"dewp":17,"wdir":90,"wspd":6,"visib":"6+","altim":1018,"clouds":[],"obsTime":1776675600},"SBBU":{"icaoId":"SBBU","flightCategory":"VFR","rawOb":"METAR SBBU 200900Z 12013KT CAVOK 19/17 Q1017","temp":19,"dewp":17,"wdir":120,"wspd":13,"visib":"6+","altim":1017,"clouds":[],"obsTime":1776675600},"SBTA":{"icaoId":"SBTA","flightCategory":"VFR","rawOb":"METAR SBTA 200900Z VRB02KT 9999 FEW009 15/14 Q1018","temp":15,"dewp":14,"wdir":"VRB","wspd":2,"visib":"6+","altim":1018,"clouds":[{"cover":"FEW","base":900}],"obsTime":1776675600},"SBGW":{"icaoId":"SBGW","flightCategory":"MVFR","rawOb":"METAR SBGW 200900Z 22003KT 180V260 5000 HZ FEW008 BKN025 18/14 Q1018","temp":18,"dewp":14,"wdir":220,"wspd":3,"visib":3.11,"altim":1018,"clouds":[{"cover":"FEW","base":800},{"cover":"BKN","base":2500}],"obsTime":1776675600},"SBLS":{"icaoId":"SBLS","flightCategory":"VFR","rawOb":"METAR SBLS 200900Z 16009KT 9999 SCT025 19/17 Q1017","temp":19,"dewp":17,"wdir":160,"wspd":9,"visib":"6+","altim":1017,"clouds":[{"cover":"SCT","base":2500}],"obsTime":1776675600},"SBMT":{"icaoId":"SBMT","flightCategory":"VFR","rawOb":"METAR SBMT 200900Z 09005KT CAVOK 16/15 Q1019","temp":16,"dewp":15,"wdir":90,"wspd":5,"visib":"6+","altim":1019,"clouds":[],"obsTime":1776675600},"SBJP":{"icaoId":"SBJP","flightCategory":"VFR","rawOb":"METAR SBJP 200800Z 20002KT 9999 FEW020 24/23 Q1010","temp":24,"dewp":23,"wdir":200,"wspd":2,"visib":"6+","altim":1010,"clouds":[{"cover":"FEW","base":2000}],"obsTime":1776672000},"SBAN":{"icaoId":"SBAN","flightCategory":"VFR","rawOb":"METAR SBAN 200800Z 11004KT CAVOK 17/14 Q1018","temp":17,"dewp":14,"wdir":110,"wspd":4,"visib":"6+","altim":1018,"clouds":[],"obsTime":1776672000},"SBLE":{"icaoId":"SBLE","flightCategory":"VFR","rawOb":"METAR SBLE 200800Z AUTO VRB02KT 9999 FEW026 SCT033 BKN044 ///// Q////","temp":null,"dewp":null,"wdir":"VRB","wspd":2,"visib":"6+","altim":null,"clouds":[{"cover":"FEW","base":2600},{"cover":"SCT","base":3300},{"cover":"BKN","base":4400}],"obsTime":1776672000},"SBJV":{"icaoId":"SBJV","flightCategory":"VFR","rawOb":"METAR SBJV 200900Z 34002KT CAVOK 19/19 Q1016","temp":19,"dewp":19,"wdir":340,"wspd":2,"visib":"6+","altim":1016,"clouds":[],"obsTime":1776675600},"SBPF":{"icaoId":"SBPF","flightCategory":"VFR","rawOb":"METAR SBPF 200900Z 08010KT CAVOK 19/16 Q1016","temp":19,"dewp":16,"wdir":80,"wspd":10,"visib":"6+","altim":1016,"clouds":[],"obsTime":1776675600}}}