{"updated":1780513347,"count":86,"data":{"SBMA":{"icaoId":"SBMA","flightCategory":"VFR","rawOb":"METAR SBMA 031800Z 04009KT 9999 SCT023 33/22 Q1012","temp":33,"dewp":22,"wdir":40,"wspd":9,"visib":"6+","altim":1012,"clouds":[{"cover":"SCT","base":2300}],"obsTime":1780509600},"SBCG":{"icaoId":"SBCG","flightCategory":"VFR","rawOb":"METAR SBCG 031800Z 08008KT 040V110 CAVOK 23/11 Q1021","temp":23,"dewp":11,"wdir":80,"wspd":8,"visib":"6+","altim":1021,"clouds":[],"obsTime":1780509600},"SBFL":{"icaoId":"SBFL","flightCategory":"VFR","rawOb":"METAR SBFL 031800Z 10004KT 070V140 9999 FEW012 SCT017 20/17 Q1026","temp":20,"dewp":17,"wdir":100,"wspd":4,"visib":"6+","altim":1026,"clouds":[{"cover":"FEW","base":1200},{"cover":"SCT","base":1700}],"obsTime":1780509600},"SBFZ":{"icaoId":"SBFZ","flightCategory":"VFR","rawOb":"METAR SBFZ 031800Z 10014KT 9999 FEW025 29/23 Q1013","temp":29,"dewp":23,"wdir":100,"wspd":14,"visib":"6+","altim":1013,"clouds":[{"cover":"FEW","base":2500}],"obsTime":1780509600},"SBMO":{"icaoId":"SBMO","flightCategory":"MVFR","rawOb":"METAR SBMO 031800Z 08005KT 9999 BKN017 26/24 Q1016","temp":26,"dewp":24,"wdir":80,"wspd":5,"visib":"6+","altim":1016,"clouds":[{"cover":"BKN","base":1700}],"obsTime":1780509600},"SBCP":{"icaoId":"SBCP","flightCategory":"VFR","rawOb":"METAR SBCP 031800Z 21011KT 9999 SCT020 26/16 Q1023","temp":26,"dewp":16,"wdir":210,"wspd":11,"visib":"6+","altim":1023,"clouds":[{"cover":"SCT","base":2000}],"obsTime":1780509600},"SBMQ":{"icaoId":"SBMQ","flightCategory":"VFR","rawOb":"METAR SBMQ 031800Z 06009KT 9999 SCT020 FEW030TCU BKN100 29/26 Q1012","temp":29,"dewp":26,"wdir":60,"wspd":9,"visib":"6+","altim":1012,"clouds":[{"cover":"SCT","base":2000},{"cover":"FEW","base":3000},{"cover":"BKN","base":10000}],"obsTime":1780509600},"SBBV":{"icaoId":"SBBV","flightCategory":"MVFR","rawOb":"METAR SBBV 031800Z 26003KT 9999 VCSH BKN030 FEW035TCU 28/25 Q1012","temp":28,"dewp":25,"wdir":260,"wspd":3,"visib":"6+","altim":1012,"clouds":[{"cover":"BKN","base":3000},{"cover":"FEW","base":3500}],"obsTime":1780509600},"SBGL":{"icaoId":"SBGL","flightCategory":"VFR","rawOb":"METAR SBGL 031800Z 13009KT 9999 SCT025 24/16 Q1024","temp":24,"dewp":16,"wdir":130,"wspd":9,"visib":"6+","altim":1024,"clouds":[{"cover":"SCT","base":2500}],"obsTime":1780509600},"SBPA":{"icaoId":"SBPA","flightCategory":"VFR","rawOb":"METAR SBPA 031800Z VRB02KT CAVOK 23/13 Q1024","temp":23,"dewp":13,"wdir":"VRB","wspd":2,"visib":"6+","altim":1024,"clouds":[],"obsTime":1780509600},"SBCR":{"icaoId":"SBCR","flightCategory":"VFR","rawOb":"METAR SBCR 031800Z 07010KT CAVOK 29/13 Q1017","temp":29,"dewp":13,"wdir":70,"wspd":10,"visib":"6+","altim":1017,"clouds":[],"obsTime":1780509600},"SBPJ":{"icaoId":"SBPJ","flightCategory":"VFR","rawOb":"METAR SBPJ 031800Z 12007KT 9999 SCT030 33/20 Q1015","temp":33,"dewp":20,"wdir":120,"wspd":7,"visib":"6+","altim":1015,"clouds":[{"cover":"SCT","base":3000}],"obsTime":1780509600},"SBGO":{"icaoId":"SBGO","flightCategory":"VFR","rawOb":"METAR SBGO 031800Z VRB04KT CAVOK 31/13 Q1020","temp":31,"dewp":13,"wdir":"VRB","wspd":4,"visib":"6+","altim":1020,"clouds":[],"obsTime":1780509600},"SBPV":{"icaoId":"SBPV","flightCategory":"VFR","rawOb":"METAR SBPV 031800Z 09008KT 9999 FEW035 34/19 Q1013","temp":34,"dewp":19,"wdir":90,"wspd":8,"visib":"6+","altim":1013,"clouds":[{"cover":"FEW","base":3500}],"obsTime":1780509600},"SBCB":{"icaoId":"SBCB","flightCategory":"VFR","rawOb":"METAR SBCB 031800Z /////KT 9999 SCT025 24/17 Q1024","temp":24,"dewp":17,"wdir":null,"wspd":null,"visib":"6+","altim":1024,"clouds":[{"cover":"SCT","base":2500}],"obsTime":1780509600},"SBRB":{"icaoId":"SBRB","flightCategory":"MVFR","rawOb":"METAR SBRB 031800Z 13006KT 9999 BKN030 33/22 Q1015","temp":33,"dewp":22,"wdir":130,"wspd":6,"visib":"6+","altim":1015,"clouds":[{"cover":"BKN","base":3000}],"obsTime":1780509600},"SBRF":{"icaoId":"SBRF","flightCategory":"VFR","rawOb":"METAR SBRF 031800Z 16010KT 9999 SCT023 BKN060 28/23 Q1015","temp":28,"dewp":23,"wdir":160,"wspd":10,"visib":"6+","altim":1015,"clouds":[{"cover":"SCT","base":2300},{"cover":"BKN","base":6000}],"obsTime":1780509600},"SBGR":{"icaoId":"SBGR","flightCategory":"VFR","rawOb":"METAR SBGR 031800Z 12007KT 9999 BKN040 21/12 Q1026","temp":21,"dewp":12,"wdir":120,"wspd":7,"visib":"6+","altim":1026,"clouds":[{"cover":"BKN","base":4000}],"obsTime":1780509600},"SBBR":{"icaoId":"SBBR","flightCategory":"VFR","rawOb":"METAR SBBR 031800Z 11008KT 070V150 9999 SCT030 26/12 Q1023","temp":26,"dewp":12,"wdir":110,"wspd":8,"visib":"6+","altim":1023,"clouds":[{"cover":"SCT","base":3000}],"obsTime":1780509600},"SBSG":{"icaoId":"SBSG","flightCategory":"VFR","rawOb":"METAR SBSG 031800Z 16005KT 120V210 9999 SCT036 29/23 Q1014","temp":29,"dewp":23,"wdir":160,"wspd":5,"visib":"6+","altim":1014,"clouds":[{"cover":"SCT","base":3600}],"obsTime":1780509600},"SBCT":{"icaoId":"SBCT","flightCategory":"VFR","rawOb":"METAR SBCT 031800Z 07008KT 9999 FEW020 OVC033 16/11 Q1028","temp":16,"dewp":11,"wdir":70,"wspd":8,"visib":"6+","altim":1028,"clouds":[{"cover":"FEW","base":2000},{"cover":"OVC","base":3300}],"obsTime":1780509600},"SBSL":{"icaoId":"SBSL","flightCategory":"VFR","rawOb":"METAR SBSL 031800Z 06013KT 9999 SCT030 30/25 Q1012","temp":30,"dewp":25,"wdir":60,"wspd":13,"visib":"6+","altim":1012,"clouds":[{"cover":"SCT","base":3000}],"obsTime":1780509600},"SBBE":{"icaoId":"SBBE","flightCategory":"VFR","rawOb":"METAR SBBE 031800Z 11007KT 9999 SCT040 FEW045TCU 31/24 Q1012","temp":31,"dewp":24,"wdir":110,"wspd":7,"visib":"6+","altim":1012,"clouds":[{"cover":"SCT","base":4000},{"cover":"FEW","base":4500}],"obsTime":1780509600},"SBSN":{"icaoId":"SBSN","flightCategory":"VFR","rawOb":"METAR SBSN 031800Z 08012KT 9999 SCT020 31/25 Q1011","temp":31,"dewp":25,"wdir":80,"wspd":12,"visib":"6+","altim":1011,"clouds":[{"cover":"SCT","base":2000}],"obsTime":1780509600},"SBKP":{"icaoId":"SBKP","flightCategory":"VFR","rawOb":"METAR SBKP 031800Z 15010KT 9999 SCT040 24/13 Q1024","temp":24,"dewp":13,"wdir":150,"wspd":10,"visib":"6+","altim":1024,"clouds":[{"cover":"SCT","base":4000}],"obsTime":1780509600},"SBSP":{"icaoId":"SBSP","flightCategory":"MVFR","rawOb":"METAR SBSP 031800Z 15010KT 9999 BKN023 19/14 Q1027","temp":19,"dewp":14,"wdir":150,"wspd":10,"visib":"6+","altim":1027,"clouds":[{"cover":"BKN","base":2300}],"obsTime":1780509600},"SBSV":{"icaoId":"SBSV","flightCategory":"MVFR","rawOb":"METAR SBSV 031800Z 17009KT 140V240 7000 -RA SCT012 BKN020 FEW023TCU BKN070 25/24 Q1018","temp":25,"dewp":24,"wdir":170,"wspd":9,"visib":4.35,"altim":1018,"clouds":[{"cover":"SCT","base":1200},{"cover":"BKN","base":2000},{"cover":"FEW","base":2300},{"cover":"BKN","base":7000}],"obsTime":1780509600},"SBCF":{"icaoId":"SBCF","flightCategory":"VFR","rawOb":"METAR SBCF 031800Z 16006KT 9999 BKN040 23/14 Q1024","temp":23,"dewp":14,"wdir":160,"wspd":6,"visib":"6+","altim":1024,"clouds":[{"cover":"BKN","base":4000}],"obsTime":1780509600},"SBEG":{"icaoId":"SBEG","flightCategory":"VFR","rawOb":"METAR SBEG 031800Z 13011KT 9999 FEW030 FEW035TCU 32/23 Q1012","temp":32,"dewp":23,"wdir":130,"wspd":11,"visib":"6+","altim":1012,"clouds":[{"cover":"FEW","base":3000},{"cover":"FEW","base":3500}],"obsTime":1780509600},"SBTE":{"icaoId":"SBTE","flightCategory":"VFR","rawOb":"METAR SBTE 031800Z 08006KT 9999 FEW020 32/22 Q1012","temp":32,"dewp":22,"wdir":80,"wspd":6,"visib":"6+","altim":1012,"clouds":[{"cover":"FEW","base":2000}],"obsTime":1780509600},"SBLO":{"icaoId":"SBLO","flightCategory":"VFR","rawOb":"METAR SBLO 031800Z 08009KT 050V110 9999 FEW028 21/14 Q1023","temp":21,"dewp":14,"wdir":80,"wspd":9,"visib":"6+","altim":1023,"clouds":[{"cover":"FEW","base":2800}],"obsTime":1780509600},"SBFI":{"icaoId":"SBFI","flightCategory":"VFR","rawOb":"METAR SBFI 031800Z 13005KT CAVOK 24/16 Q1022","temp":24,"dewp":16,"wdir":130,"wspd":5,"visib":"6+","altim":1022,"clouds":[],"obsTime":1780509600},"SBVT":{"icaoId":"SBVT","flightCategory":"VFR","rawOb":"METAR SBVT 031800Z 18011KT 9999 FEW040 26/17 Q1022","temp":26,"dewp":17,"wdir":180,"wspd":11,"visib":"6+","altim":1022,"clouds":[{"cover":"FEW","base":4000}],"obsTime":1780509600},"SBUL":{"icaoId":"SBUL","flightCategory":"VFR","rawOb":"METAR SBUL 031800Z 08005KT 9999 SCT049 25/10 Q1023","temp":25,"dewp":10,"wdir":80,"wspd":5,"visib":"6+","altim":1023,"clouds":[{"cover":"SCT","base":4900}],"obsTime":1780509600},"SBUR":{"icaoId":"SBUR","flightCategory":"VFR","rawOb":"METAR SBUR 031800Z 34004KT CAVOK 27/11 Q1022","temp":27,"dewp":11,"wdir":340,"wspd":4,"visib":"6+","altim":1022,"clouds":[],"obsTime":1780509600},"SBAT":{"icaoId":"SBAT","flightCategory":"VFR","rawOb":"METAR SBAT 031800Z 11005KT 9999 SCT030 33/19 Q1014","temp":33,"dewp":19,"wdir":110,"wspd":5,"visib":"6+","altim":1014,"clouds":[{"cover":"SCT","base":3000}],"obsTime":1780509600},"SBCZ":{"icaoId":"SBCZ","flightCategory":"VFR","rawOb":"METAR SBCZ 031800Z 18006KT 9999 SCT030 32/22 Q1014","temp":32,"dewp":22,"wdir":180,"wspd":6,"visib":"6+","altim":1014,"clouds":[{"cover":"SCT","base":3000}],"obsTime":1780509600},"SBHT":{"icaoId":"SBHT","flightCategory":"MVFR","rawOb":"METAR SBHT 031800Z 11005KT 9999 BKN030 32/25 Q1012","temp":32,"dewp":25,"wdir":110,"wspd":5,"visib":"6+","altim":1012,"clouds":[{"cover":"BKN","base":3000}],"obsTime":1780509600},"SBIL":{"icaoId":"SBIL","flightCategory":"VFR","rawOb":"METAR SBIL 031800Z 20009KT 160V230 9999 VCSH FEW020 FEW025TCU BKN070 26/23 Q1019","temp":26,"dewp":23,"wdir":200,"wspd":9,"visib":"6+","altim":1019,"clouds":[{"cover":"FEW","base":2000},{"cover":"FEW","base":2500},{"cover":"BKN","base":7000}],"obsTime":1780509600},"SBJU":{"icaoId":"SBJU","flightCategory":"VFR","rawOb":"METAR SBJU 031800Z 12008KT 9999 SCT022 BKN080 32/17 Q1016","temp":32,"dewp":17,"wdir":120,"wspd":8,"visib":"6+","altim":1016,"clouds":[{"cover":"SCT","base":2200},{"cover":"BKN","base":8000}],"obsTime":1780509600},"SBME":{"icaoId":"SBME","flightCategory":"VFR","rawOb":"METAR SBME 031800Z 18009KT 9999 FEW025 SCT100 24/18 Q1024","temp":24,"dewp":18,"wdir":180,"wspd":9,"visib":"6+","altim":1024,"clouds":[{"cover":"FEW","base":2500},{"cover":"SCT","base":10000}],"obsTime":1780509600},"SBMG":{"icaoId":"SBMG","flightCategory":"VFR","rawOb":"METAR SBMG 031800Z 09008KT 9999 FEW045 23/12 Q1022","temp":23,"dewp":12,"wdir":90,"wspd":8,"visib":"6+","altim":1022,"clouds":[{"cover":"FEW","base":4500}],"obsTime":1780509600},"SBMK":{"icaoId":"SBMK","flightCategory":"VFR","rawOb":"METAR SBMK 031800Z 06006KT 9999 SCT035 26/15 Q1022","temp":26,"dewp":15,"wdir":60,"wspd":6,"visib":"6+","altim":1022,"clouds":[{"cover":"SCT","base":3500}],"obsTime":1780509600},"SBNT":{"icaoId":"SBNT","flightCategory":"VFR","rawOb":"METAR SBNT 031800Z 16011KT 9999 SCT038 SCT100 31/22 Q1014","temp":31,"dewp":22,"wdir":160,"wspd":11,"visib":"6+","altim":1014,"clouds":[{"cover":"SCT","base":3800},{"cover":"SCT","base":10000}],"obsTime":1780509600},"SBSJ":{"icaoId":"SBSJ","flightCategory":"VFR","rawOb":"METAR SBSJ 031800Z 09004KT 9999 SCT033 22/14 Q1025","temp":22,"dewp":14,"wdir":90,"wspd":4,"visib":"6+","altim":1025,"clouds":[{"cover":"SCT","base":3300}],"obsTime":1780509600},"SBPL":{"icaoId":"SBPL","flightCategory":"VFR","rawOb":"METAR SBPL 031800Z 09010KT CAVOK 33/13 Q1016","temp":33,"dewp":13,"wdir":90,"wspd":10,"visib":"6+","altim":1016,"clouds":[],"obsTime":1780509600},"SBOI":{"icaoId":"SBOI","flightCategory":"VFR","rawOb":"METAR SBOI 031800Z AUTO VRB01KT CAVOK 28/24 Q1013","temp":28,"dewp":24,"wdir":"VRB","wspd":1,"visib":"6+","altim":1013,"clouds":[],"obsTime":1780509600},"SBTF":{"icaoId":"SBTF","flightCategory":"VFR","rawOb":"METAR SBTF 031800Z 18005KT 9999 SCT020 32/25 Q1011","temp":32,"dewp":25,"wdir":180,"wspd":5,"visib":"6+","altim":1011,"clouds":[{"cover":"SCT","base":2000}],"obsTime":1780509600},"SBPP":{"icaoId":"SBPP","flightCategory":"VFR","rawOb":"METAR SBPP 031800Z 11014KT CAVOK 25/11 Q1021","temp":25,"dewp":11,"wdir":110,"wspd":14,"visib":"6+","altim":1021,"clouds":[],"obsTime":1780509600},"SBAR":{"icaoId":"SBAR","flightCategory":"VFR","rawOb":"METAR SBAR 031800Z 13011KT 9999 SCT023 29/23 Q1016","temp":29,"dewp":23,"wdir":130,"wspd":11,"visib":"6+","altim":1016,"clouds":[{"cover":"SCT","base":2300}],"obsTime":1780509600},"SBTT":{"icaoId":"SBTT","flightCategory":"VFR","rawOb":"METAR SBTT 031800Z 20008KT 9999 SCT020 31/23 Q1013","temp":31,"dewp":23,"wdir":200,"wspd":8,"visib":"6+","altim":1013,"clouds":[{"cover":"SCT","base":2000}],"obsTime":1780509600},"SBPS":{"icaoId":"SBPS","flightCategory":"VFR","rawOb":"METAR SBPS 031800Z VRB07KT 9999 SCT020 BKN070 26/22 Q1020","temp":26,"dewp":22,"wdir":"VRB","wspd":7,"visib":"6+","altim":1020,"clouds":[{"cover":"SCT","base":2000},{"cover":"BKN","base":7000}],"obsTime":1780509600},"SBPB":{"icaoId":"SBPB","flightCategory":"VFR","rawOb":"METAR SBPB 031800Z 06014KT 9999 FEW020 31/24 Q1013","temp":31,"dewp":24,"wdir":60,"wspd":14,"visib":"6+","altim":1013,"clouds":[{"cover":"FEW","base":2000}],"obsTime":1780509600},"SBUY":{"icaoId":"SBUY","flightCategory":"VFR","rawOb":"METAR SBUY 031800Z 20005KT 9999 SCT030 32/24 Q1011","temp":32,"dewp":24,"wdir":200,"wspd":5,"visib":"6+","altim":1011,"clouds":[{"cover":"SCT","base":3000}],"obsTime":1780509600},"SBCJ":{"icaoId":"SBCJ","flightCategory":"VFR","rawOb":"METAR SBCJ 031800Z 00000KT 9999 SCT025 28/22 Q1017","temp":28,"dewp":22,"wdir":0,"wspd":0,"visib":"6+","altim":1017,"clouds":[{"cover":"SCT","base":2500}],"obsTime":1780509600},"SBES":{"icaoId":"SBES","flightCategory":"VFR","rawOb":"METAR SBES 031800Z 16009KT 130V190 9999 -DZ FEW015 SCT025 23/// Q1024","temp":null,"dewp":null,"wdir":160,"wspd":9,"visib":"6+","altim":1024,"clouds":[{"cover":"FEW","base":1500},{"cover":"SCT","base":2500}],"obsTime":1780509600},"SBGM":{"icaoId":"SBGM","flightCategory":"VFR","rawOb":"METAR SBGM 031800Z 06006KT CAVOK 33/19 Q1014","temp":33,"dewp":19,"wdir":60,"wspd":6,"visib":"6+","altim":1014,"clouds":[],"obsTime":1780509600},"SBIP":{"icaoId":"SBIP","flightCategory":"VFR","rawOb":"METAR SBIP 031800Z AUTO VRB02KT 9999 OVC045 28/16 Q1022","temp":28,"dewp":16,"wdir":"VRB","wspd":2,"visib":"6+","altim":1022,"clouds":[{"cover":"OVC","base":4500}],"obsTime":1780509600},"SBKG":{"icaoId":"SBKG","flightCategory":"VFR","rawOb":"METAR SBKG 031800Z 16008KT 9999 FEW025 BKN100 26/19 Q1017","temp":26,"dewp":19,"wdir":160,"wspd":8,"visib":"6+","altim":1017,"clouds":[{"cover":"FEW","base":2500},{"cover":"BKN","base":10000}],"obsTime":1780509600},"SBSC":{"icaoId":"SBSC","flightCategory":"VFR","rawOb":"METAR SBSC 031800Z 20006KT 9999 FEW025 24/19 Q1024","temp":24,"dewp":19,"wdir":200,"wspd":6,"visib":"6+","altim":1024,"clouds":[{"cover":"FEW","base":2500}],"obsTime":1780509600},"SBSM":{"icaoId":"SBSM","flightCategory":"VFR","rawOb":"METAR SBSM 031800Z 13004KT CAVOK 20/15 Q1023","temp":20,"dewp":15,"wdir":130,"wspd":4,"visib":"6+","altim":1023,"clouds":[],"obsTime":1780509600},"SBSR":{"icaoId":"SBSR","flightCategory":"VFR","rawOb":"METAR SBSR 031800Z 14005KT 110V200 9999 FEW030 28/11 Q1021","temp":28,"dewp":11,"wdir":140,"wspd":5,"visib":"6+","altim":1021,"clouds":[{"cover":"FEW","base":3000}],"obsTime":1780509600},"SBTU":{"icaoId":"SBTU","flightCategory":"VFR","rawOb":"METAR SBTU 031800Z AUTO 23007KT 190V280 9999 // FEW031/// ///// Q1014","temp":null,"dewp":null,"wdir":230,"wspd":7,"visib":"6+","altim":1014,"clouds":[{"cover":"FEW","base":3100}],"obsTime":1780509600},"SBVH":{"icaoId":"SBVH","flightCategory":"VFR","rawOb":"METAR SBVH 031800Z 09009KT 9999 SCT030 28/15 Q1018","temp":28,"dewp":15,"wdir":90,"wspd":9,"visib":"6+","altim":1018,"clouds":[{"cover":"SCT","base":3000}],"obsTime":1780509600},"SBAU":{"icaoId":"SBAU","flightCategory":"VFR","rawOb":"METAR SBAU 031800Z 12008KT CAVOK 27/14 Q1021","temp":27,"dewp":14,"wdir":120,"wspd":8,"visib":"6+","altim":1021,"clouds":[],"obsTime":1780509600},"SBAX":{"icaoId":"SBAX","flightCategory":"VFR","rawOb":"METAR SBAX 031800Z COR AUTO 04003KT 340V080 CAVOK 24/10 Q1024","temp":24,"dewp":10,"wdir":40,"wspd":3,"visib":"6+","altim":1024,"clouds":[],"obsTime":1780509600},"SBBH":{"icaoId":"SBBH","flightCategory":"VFR","rawOb":"METAR SBBH 031800Z 07005KT 9999 FEW035 25/14 Q1024","temp":25,"dewp":14,"wdir":70,"wspd":5,"visib":"6+","altim":1024,"clouds":[{"cover":"FEW","base":3500}],"obsTime":1780509600},"SBBQ":{"icaoId":"SBBQ","flightCategory":"VFR","rawOb":"METAR SBBQ 031800Z 14007KT 040V190 9999 SCT020 18/14 Q1029","temp":18,"dewp":14,"wdir":140,"wspd":7,"visib":"6+","altim":1029,"clouds":[{"cover":"SCT","base":2000}],"obsTime":1780509600},"SBBU":{"icaoId":"SBBU","flightCategory":"VFR","rawOb":"METAR SBBU 031800Z 10008KT CAVOK 24/16 Q1023","temp":24,"dewp":16,"wdir":100,"wspd":8,"visib":"6+","altim":1023,"clouds":[],"obsTime":1780509600},"SBCA":{"icaoId":"SBCA","flightCategory":"VFR","rawOb":"METAR SBCA 031800Z 08012KT CAVOK 21/10 Q1024","temp":21,"dewp":10,"wdir":80,"wspd":12,"visib":"6+","altim":1024,"clouds":[],"obsTime":1780509600},"SBCC":{"icaoId":"SBCC","flightCategory":"VFR","rawOb":"METAR SBCC 031800Z 07011KT 9999 SCT030 32/17 Q1015","temp":32,"dewp":17,"wdir":70,"wspd":11,"visib":"6+","altim":1015,"clouds":[{"cover":"SCT","base":3000}],"obsTime":1780509600},"SBCO":{"icaoId":"SBCO","flightCategory":"VFR","rawOb":"METAR SBCO 031800Z 12003KT 050V200 CAVOK 23/13 Q1024","temp":23,"dewp":13,"wdir":120,"wspd":3,"visib":"6+","altim":1024,"clouds":[],"obsTime":1780509600},"SBDN":{"icaoId":"SBDN","flightCategory":"VFR","rawOb":"METAR SBDN 031800Z 11008KT 9999 SCT040 25/15 Q1021","temp":25,"dewp":15,"wdir":110,"wspd":8,"visib":"6+","altim":1021,"clouds":[{"cover":"SCT","base":4000}],"obsTime":1780509600},"SBJV":{"icaoId":"SBJV","flightCategory":"VFR","rawOb":"METAR SBJV 031800Z 10003KT 060V140 9999 SCT020 BKN050 21/15 Q1026","temp":21,"dewp":15,"wdir":100,"wspd":3,"visib":"6+","altim":1026,"clouds":[{"cover":"SCT","base":2000},{"cover":"BKN","base":5000}],"obsTime":1780509600},"SBNM":{"icaoId":"SBNM","flightCategory":"VFR","rawOb":"METAR SBNM 031800Z AUTO 20003KT 120V270 CAVOK 24/14 Q1023","temp":24,"dewp":14,"wdir":200,"wspd":3,"visib":"6+","altim":1023,"clouds":[],"obsTime":1780509600},"SBAF":{"icaoId":"SBAF","flightCategory":"VFR","rawOb":"METAR SBAF 031800Z 19009KT 9999 FEW025 SCT050 24/19 Q1024","temp":24,"dewp":19,"wdir":190,"wspd":9,"visib":"6+","altim":1024,"clouds":[{"cover":"FEW","base":2500},{"cover":"SCT","base":5000}],"obsTime":1780509600},"SBGW":{"icaoId":"SBGW","flightCategory":"VFR","rawOb":"METAR SBGW 031800Z 01005KT 320V070 9999 SCT030 23/12 Q1025","temp":23,"dewp":12,"wdir":10,"wspd":5,"visib":"6+","altim":1025,"clouds":[{"cover":"SCT","base":3000}],"obsTime":1780509600},"SBJR":{"icaoId":"SBJR","flightCategory":"VFR","rawOb":"METAR SBJR 031800Z 17006KT 9999 FEW020 25/19 Q1024","temp":25,"dewp":19,"wdir":170,"wspd":6,"visib":"6+","altim":1024,"clouds":[{"cover":"FEW","base":2000}],"obsTime":1780509600},"SBLS":{"icaoId":"SBLS","flightCategory":"VFR","rawOb":"METAR SBLS 031800Z 13008KT 050V140 9999 SCT040 24/14 Q1024","temp":24,"dewp":14,"wdir":130,"wspd":8,"visib":"6+","altim":1024,"clouds":[{"cover":"SCT","base":4000}],"obsTime":1780509600},"SBMT":{"icaoId":"SBMT","flightCategory":"VFR","rawOb":"METAR SBMT 031800Z 14008KT 100V180 9999 BKN036 21/13 Q1026","temp":21,"dewp":13,"wdir":140,"wspd":8,"visib":"6+","altim":1026,"clouds":[{"cover":"BKN","base":3600}],"obsTime":1780509600},"SBST":{"icaoId":"SBST","flightCategory":"VFR","rawOb":"METAR SBST 031800Z 25004KT 9999 SCT020 22/17 Q1024","temp":22,"dewp":17,"wdir":250,"wspd":4,"visib":"6+","altim":1024,"clouds":[{"cover":"SCT","base":2000}],"obsTime":1780509600},"SBTA":{"icaoId":"SBTA","flightCategory":"VFR","rawOb":"METAR SBTA 031800Z VRB03KT 9999 SCT040 22/13 Q1025","temp":22,"dewp":13,"wdir":"VRB","wspd":3,"visib":"6+","altim":1025,"clouds":[{"cover":"SCT","base":4000}],"obsTime":1780509600},"SBAN":{"icaoId":"SBAN","flightCategory":"VFR","rawOb":"METAR SBAN 031800Z 08003KT 9999 SCT030 26/12 Q1023","temp":26,"dewp":12,"wdir":80,"wspd":3,"visib":"6+","altim":1023,"clouds":[{"cover":"SCT","base":3000}],"obsTime":1780509600},"SBLE":{"icaoId":"SBLE","flightCategory":"VFR","rawOb":"METAR SBLE 031800Z AUTO VRB04KT 9999 FEW024 26/23 Q1020","temp":26,"dewp":23,"wdir":"VRB","wspd":4,"visib":"6+","altim":1020,"clouds":[{"cover":"FEW","base":2400}],"obsTime":1780509600},"SBIH":{"icaoId":"SBIH","flightCategory":"VFR","rawOb":"METAR SBIH 031800Z 15013KT 9999 VCSH SCT020 FEW025TCU BKN080 27/24 Q1012","temp":27,"dewp":24,"wdir":150,"wspd":13,"visib":"6+","altim":1012,"clouds":[{"cover":"SCT","base":2000},{"cover":"FEW","base":2500},{"cover":"BKN","base":8000}],"obsTime":1780509600},"SBJP":{"icaoId":"SBJP","flightCategory":"MVFR","rawOb":"METAR SBJP 031800Z 16010KT 9999 BKN020 BKN070 27/23 Q1015","temp":27,"dewp":23,"wdir":160,"wspd":10,"visib":"6+","altim":1015,"clouds":[{"cover":"BKN","base":2000},{"cover":"BKN","base":7000}],"obsTime":1780509600}}}