{"updated":1774560031,"count":83,"data":{"SBKP":{"icaoId":"SBKP","flightCategory":"VFR","rawOb":"METAR SBKP 262000Z 12002KT CAVOK 30/19 Q1016","temp":30,"dewp":19,"wdir":120,"wspd":2,"visib":"6+","altim":1016,"clouds":[],"obsTime":1774555200},"SBCT":{"icaoId":"SBCT","flightCategory":"VFR","rawOb":"METAR SBCT 262000Z 11007KT 9999 SCT040 26/21 Q1018","temp":26,"dewp":21,"wdir":110,"wspd":7,"visib":"6+","altim":1018,"clouds":[{"cover":"SCT","base":4000}],"obsTime":1774555200},"SBUR":{"icaoId":"SBUR","flightCategory":"IFR","rawOb":"METAR SBUR 262000Z 21004KT 4000 1800NW -TSRA BKN010 FEW030CB OVC100 20/19 Q1018","temp":20,"dewp":19,"wdir":210,"wspd":4,"visib":2.49,"altim":1018,"clouds":[{"cover":"BKN","base":1000},{"cover":"FEW","base":3000},{"cover":"OVC","base":10000}],"obsTime":1774555200},"SBLO":{"icaoId":"SBLO","flightCategory":"VFR","rawOb":"METAR SBLO 262000Z 08008KT 9999 BKN042 30/18 Q1014","temp":30,"dewp":18,"wdir":80,"wspd":8,"visib":"6+","altim":1014,"clouds":[{"cover":"BKN","base":4200}],"obsTime":1774555200},"SBMA":{"icaoId":"SBMA","flightCategory":"VFR","rawOb":"METAR SBMA 262000Z 24005KT 9999 SCT025 FEW027TCU SCT100 33/23 Q1007","temp":33,"dewp":23,"wdir":240,"wspd":5,"visib":"6+","altim":1007,"clouds":[{"cover":"SCT","base":2500},{"cover":"FEW","base":2700},{"cover":"SCT","base":10000}],"obsTime":1774555200},"SBCZ":{"icaoId":"SBCZ","flightCategory":"IFR","rawOb":"METAR SBCZ 262000Z 26008KT 4000 -TSRA BKN006 FEW035CB OVC100 23/22 Q1010 RERA","temp":23,"dewp":22,"wdir":260,"wspd":8,"visib":2.49,"altim":1010,"clouds":[{"cover":"BKN","base":600},{"cover":"FEW","base":3500},{"cover":"OVC","base":10000}],"obsTime":1774555200},"SBCB":{"icaoId":"SBCB","flightCategory":"VFR","rawOb":"METAR SBCB 262000Z 08016KT CAVOK 27/22 Q1015","temp":27,"dewp":22,"wdir":80,"wspd":16,"visib":"6+","altim":1015,"clouds":[],"obsTime":1774555200},"SBME":{"icaoId":"SBME","flightCategory":"VFR","rawOb":"METAR SBME 262000Z 09010KT 9999 FEW025 28/22 Q1015","temp":28,"dewp":22,"wdir":90,"wspd":10,"visib":"6+","altim":1015,"clouds":[{"cover":"FEW","base":2500}],"obsTime":1774555200},"SBEG":{"icaoId":"SBEG","flightCategory":"VFR","rawOb":"METAR SBEG 262000Z 13008KT 9999 VCSH SCT025 FEW030TCU 32/24 Q1006","temp":32,"dewp":24,"wdir":130,"wspd":8,"visib":"6+","altim":1006,"clouds":[{"cover":"SCT","base":2500},{"cover":"FEW","base":3000}],"obsTime":1774555200},"SBMG":{"icaoId":"SBMG","flightCategory":"VFR","rawOb":"METAR SBMG 262000Z 03008KT 010V070 9999 VCSH FEW045 FEW045TCU SCT055 30/19 Q1013","temp":30,"dewp":19,"wdir":30,"wspd":8,"visib":"6+","altim":1013,"clouds":[{"cover":"FEW","base":4500},{"cover":"FEW","base":4500},{"cover":"SCT","base":5500}],"obsTime":1774555200},"SBAT":{"icaoId":"SBAT","flightCategory":"VFR","rawOb":"METAR SBAT 262000Z 24002KT 9999 FEW030 BKN090 26/21 Q1009","temp":26,"dewp":21,"wdir":240,"wspd":2,"visib":"6+","altim":1009,"clouds":[{"cover":"FEW","base":3000},{"cover":"BKN","base":9000}],"obsTime":1774555200},"SBMK":{"icaoId":"SBMK","flightCategory":"VFR","rawOb":"METAR SBMK 262000Z 05007KT 9999 FEW040 27/19 Q1016","temp":27,"dewp":19,"wdir":50,"wspd":7,"visib":"6+","altim":1016,"clouds":[{"cover":"FEW","base":4000}],"obsTime":1774555200},"SBFI":{"icaoId":"SBFI","flightCategory":"VFR","rawOb":"METAR SBFI 262000Z 30003KT 9999 FEW030 FEW040TCU 34/22 Q1011","temp":34,"dewp":22,"wdir":300,"wspd":3,"visib":"6+","altim":1011,"clouds":[{"cover":"FEW","base":3000},{"cover":"FEW","base":4000}],"obsTime":1774555200},"SBMO":{"icaoId":"SBMO","flightCategory":"VFR","rawOb":"METAR SBMO 262000Z 12007KT 9999 SCT023 BKN090 28/23 Q1011","temp":28,"dewp":23,"wdir":120,"wspd":7,"visib":"6+","altim":1011,"clouds":[{"cover":"SCT","base":2300},{"cover":"BKN","base":9000}],"obsTime":1774555200},"SBUL":{"icaoId":"SBUL","flightCategory":"VFR","rawOb":"METAR SBUL 262000Z 10007KT 9999 SCT025 FEW030TCU 24/20 Q1017","temp":24,"dewp":20,"wdir":100,"wspd":7,"visib":"6+","altim":1017,"clouds":[{"cover":"SCT","base":2500},{"cover":"FEW","base":3000}],"obsTime":1774555200},"SBCF":{"icaoId":"SBCF","flightCategory":"VFR","rawOb":"METAR SBCF 262000Z 13010KT 9999 SCT045 26/18 Q1018","temp":26,"dewp":18,"wdir":130,"wspd":10,"visib":"6+","altim":1018,"clouds":[{"cover":"SCT","base":4500}],"obsTime":1774555200},"SBMQ":{"icaoId":"SBMQ","flightCategory":"MVFR","rawOb":"SPECI SBMQ 261925Z 09004KT 9999 VCSH BKN029 FEW040TCU 27/26 Q1007 RETSRA","temp":27,"dewp":26,"wdir":90,"wspd":4,"visib":"6+","altim":1007,"clouds":[{"cover":"BKN","base":2900},{"cover":"FEW","base":4000}],"obsTime":1774553100},"SBFL":{"icaoId":"SBFL","flightCategory":"VFR","rawOb":"METAR SBFL 262000Z 07009KT CAVOK 29/24 Q1013","temp":29,"dewp":24,"wdir":70,"wspd":9,"visib":"6+","altim":1013,"clouds":[],"obsTime":1774555200},"SBNT":{"icaoId":"SBNT","flightCategory":"VFR","rawOb":"METAR SBNT 262000Z 11013KT 9999 SCT030 29/23 Q1009","temp":29,"dewp":23,"wdir":110,"wspd":13,"visib":"6+","altim":1009,"clouds":[{"cover":"SCT","base":3000}],"obsTime":1774555200},"SBBR":{"icaoId":"SBBR","flightCategory":"VFR","rawOb":"METAR SBBR 262000Z 25005KT 200V310 9000 -TSRA SCT015 BKN040 FEW045CB BKN090 21/19 Q1017","temp":21,"dewp":19,"wdir":250,"wspd":5,"visib":5.59,"altim":1017,"clouds":[{"cover":"SCT","base":1500},{"cover":"BKN","base":4000},{"cover":"FEW","base":4500},{"cover":"BKN","base":9000}],"obsTime":1774555200},"SBPA":{"icaoId":"SBPA","flightCategory":"MVFR","rawOb":"METAR SBPA 262000Z 17005KT 130V200 9999 BKN015 28/23 Q1013","temp":28,"dewp":23,"wdir":170,"wspd":5,"visib":"6+","altim":1013,"clouds":[{"cover":"BKN","base":1500}],"obsTime":1774555200},"SBPJ":{"icaoId":"SBPJ","flightCategory":"MVFR","rawOb":"METAR SBPJ 262000Z 11012G23KT 8000 -RA BKN027 FEW035TCU OVC070 25/23 Q1010","temp":25,"dewp":23,"wdir":110,"wspd":12,"visib":4.97,"altim":1010,"clouds":[{"cover":"BKN","base":2700},{"cover":"FEW","base":3500},{"cover":"OVC","base":7000}],"obsTime":1774555200},"SBFZ":{"icaoId":"SBFZ","flightCategory":"VFR","rawOb":"METAR SBFZ 262000Z 09011KT CAVOK 29/23 Q1008","temp":29,"dewp":23,"wdir":90,"wspd":11,"visib":"6+","altim":1008,"clouds":[],"obsTime":1774555200},"SBCG":{"icaoId":"SBCG","flightCategory":"VFR","rawOb":"METAR SBCG 262000Z 33007KT 9999 VCSH SCT040 FEW045TCU SCT100 26/20 Q1012","temp":26,"dewp":20,"wdir":330,"wspd":7,"visib":"6+","altim":1012,"clouds":[{"cover":"SCT","base":4000},{"cover":"FEW","base":4500},{"cover":"SCT","base":10000}],"obsTime":1774555200},"SBPV":{"icaoId":"SBPV","flightCategory":"VFR","rawOb":"METAR SBPV 262000Z 21002KT 9999 SCT045 BKN087 29/23 Q1007","temp":29,"dewp":23,"wdir":210,"wspd":2,"visib":"6+","altim":1007,"clouds":[{"cover":"SCT","base":4500},{"cover":"BKN","base":8700}],"obsTime":1774555200},"SBGL":{"icaoId":"SBGL","flightCategory":"VFR","rawOb":"METAR SBGL 262000Z 14011KT 9999 FEW030 30/22 Q1014","temp":30,"dewp":22,"wdir":140,"wspd":11,"visib":"6+","altim":1014,"clouds":[{"cover":"FEW","base":3000}],"obsTime":1774555200},"SBRB":{"icaoId":"SBRB","flightCategory":"VFR","rawOb":"METAR SBRB 262000Z 20003KT 9999 SCT020 BKN100 28/23 Q1009","temp":28,"dewp":23,"wdir":200,"wspd":3,"visib":"6+","altim":1009,"clouds":[{"cover":"SCT","base":2000},{"cover":"BKN","base":10000}],"obsTime":1774555200},"SBBE":{"icaoId":"SBBE","flightCategory":"LIFR","rawOb":"SPECI SBBE 261923Z 06016KT 0500 R07/0100D +TSRA BKN020 FEW025CB BKN086 26/24 Q1007","temp":26,"dewp":24,"wdir":60,"wspd":16,"visib":0.31,"altim":1007,"clouds":[{"cover":"BKN","base":2000},{"cover":"FEW","base":2500},{"cover":"BKN","base":8600}],"obsTime":1774552980},"SBRF":{"icaoId":"SBRF","flightCategory":"VFR","rawOb":"METAR SBRF 262000Z 16011KT 9999 FEW025 SCT070 28/23 Q1010","temp":28,"dewp":23,"wdir":160,"wspd":11,"visib":"6+","altim":1010,"clouds":[{"cover":"FEW","base":2500},{"cover":"SCT","base":7000}],"obsTime":1774555200},"SBGO":{"icaoId":"SBGO","flightCategory":"VFR","rawOb":"METAR SBGO 262000Z VRB03KT 9999 SCT040 FEW045TCU 29/19 Q1014","temp":29,"dewp":19,"wdir":"VRB","wspd":3,"visib":"6+","altim":1014,"clouds":[{"cover":"SCT","base":4000},{"cover":"FEW","base":4500}],"obsTime":1774555200},"SBSG":{"icaoId":"SBSG","flightCategory":"VFR","rawOb":"METAR SBSG 262000Z 11010KT 9999 FEW026 29/23 Q1009","temp":29,"dewp":23,"wdir":110,"wspd":10,"visib":"6+","altim":1009,"clouds":[{"cover":"FEW","base":2600}],"obsTime":1774555200},"SBCP":{"icaoId":"SBCP","flightCategory":"VFR","rawOb":"METAR SBCP 262000Z 11009KT 9999 FEW020 28/23 Q1015","temp":28,"dewp":23,"wdir":110,"wspd":9,"visib":"6+","altim":1015,"clouds":[{"cover":"FEW","base":2000}],"obsTime":1774555200},"SBSL":{"icaoId":"SBSL","flightCategory":"MVFR","rawOb":"METAR SBSL 262000Z 03011KT 9999 4000S TS VCSH BKN020 FEW025CB SCT060 29/24 Q1008","temp":29,"dewp":24,"wdir":30,"wspd":11,"visib":"6+","altim":1008,"clouds":[{"cover":"BKN","base":2000},{"cover":"FEW","base":2500},{"cover":"SCT","base":6000}],"obsTime":1774555200},"SBSN":{"icaoId":"SBSN","flightCategory":"VFR","rawOb":"METAR SBSN 262000Z 06006KT 9999 FEW023 FEW030TCU 31/25 Q1006","temp":31,"dewp":25,"wdir":60,"wspd":6,"visib":"6+","altim":1006,"clouds":[{"cover":"FEW","base":2300},{"cover":"FEW","base":3000}],"obsTime":1774555200},"SBGR":{"icaoId":"SBGR","flightCategory":"VFR","rawOb":"METAR SBGR 262000Z 17009KT 9999 VCSH SCT030 FEW040TCU BKN050 25/19 Q1018","temp":25,"dewp":19,"wdir":170,"wspd":9,"visib":"6+","altim":1018,"clouds":[{"cover":"SCT","base":3000},{"cover":"FEW","base":4000},{"cover":"BKN","base":5000}],"obsTime":1774555200},"SBCR":{"icaoId":"SBCR","flightCategory":"VFR","rawOb":"METAR SBCR 262000Z 36005KT 320V030 9999 FEW020 FEW033TCU 31/22 Q1008","temp":31,"dewp":22,"wdir":360,"wspd":5,"visib":"6+","altim":1008,"clouds":[{"cover":"FEW","base":2000},{"cover":"FEW","base":3300}],"obsTime":1774555200},"SBSP":{"icaoId":"SBSP","flightCategory":"VFR","rawOb":"METAR SBSP 262000Z 16010KT 9999 SCT036 BKN070 22/21 Q1019 RETS","temp":22,"dewp":21,"wdir":160,"wspd":10,"visib":"6+","altim":1019,"clouds":[{"cover":"SCT","base":3600},{"cover":"BKN","base":7000}],"obsTime":1774555200},"SBHT":{"icaoId":"SBHT","flightCategory":"VFR","rawOb":"METAR SBHT 262000Z 00000KT 9999 FEW030 32/23 Q1007","temp":32,"dewp":23,"wdir":0,"wspd":0,"visib":"6+","altim":1007,"clouds":[{"cover":"FEW","base":3000}],"obsTime":1774555200},"SBSV":{"icaoId":"SBSV","flightCategory":"VFR","rawOb":"METAR SBSV 262000Z 14009KT 9999 SCT023 29/23 Q1012","temp":29,"dewp":23,"wdir":140,"wspd":9,"visib":"6+","altim":1012,"clouds":[{"cover":"SCT","base":2300}],"obsTime":1774555200},"SBBV":{"icaoId":"SBBV","flightCategory":"VFR","rawOb":"METAR SBBV 262000Z 36004KT 9999 SCT040 FEW045TCU SCT100 33/22 Q1005","temp":33,"dewp":22,"wdir":360,"wspd":4,"visib":"6+","altim":1005,"clouds":[{"cover":"SCT","base":4000},{"cover":"FEW","base":4500},{"cover":"SCT","base":10000}],"obsTime":1774555200},"SBTE":{"icaoId":"SBTE","flightCategory":"VFR","rawOb":"METAR SBTE 262000Z 00000KT 9999 FEW020 30/24 Q1007","temp":30,"dewp":24,"wdir":0,"wspd":0,"visib":"6+","altim":1007,"clouds":[{"cover":"FEW","base":2000}],"obsTime":1774555200},"SBIL":{"icaoId":"SBIL","flightCategory":"VFR","rawOb":"METAR SBIL 262000Z 17009KT 9999 SCT025 30/25 Q1013","temp":30,"dewp":25,"wdir":170,"wspd":9,"visib":"6+","altim":1013,"clouds":[{"cover":"SCT","base":2500}],"obsTime":1774555200},"SBVT":{"icaoId":"SBVT","flightCategory":"VFR","rawOb":"METAR SBVT 262000Z 08007KT 060V130 9999 FEW025 28/23 Q1015","temp":28,"dewp":23,"wdir":80,"wspd":7,"visib":"6+","altim":1015,"clouds":[{"cover":"FEW","base":2500}],"obsTime":1774555200},"SBJU":{"icaoId":"SBJU","flightCategory":"VFR","rawOb":"METAR SBJU 262000Z 16007KT 9999 FEW022 30/21 Q1011","temp":30,"dewp":21,"wdir":160,"wspd":7,"visib":"6+","altim":1011,"clouds":[{"cover":"FEW","base":2200}],"obsTime":1774555200},"SBSJ":{"icaoId":"SBSJ","flightCategory":"VFR","rawOb":"METAR SBSJ 262000Z 18003KT 9999 SCT036 FEW048TCU 29/// Q1017","temp":null,"dewp":null,"wdir":180,"wspd":3,"visib":"6+","altim":1017,"clouds":[{"cover":"SCT","base":3600},{"cover":"FEW","base":4800}],"obsTime":1774555200},"SBAR":{"icaoId":"SBAR","flightCategory":"VFR","rawOb":"METAR SBAR 262000Z 14010KT 9999 FEW030 29/22 Q1011","temp":29,"dewp":22,"wdir":140,"wspd":10,"visib":"6+","altim":1011,"clouds":[{"cover":"FEW","base":3000}],"obsTime":1774555200},"SBAX":{"icaoId":"SBAX","flightCategory":"VFR","rawOb":"METAR SBAX 262000Z COR AUTO 10004KT 9999 -RA NSC 21/21 Q1018","temp":21,"dewp":21,"wdir":100,"wspd":4,"visib":"6+","altim":1018,"clouds":[],"obsTime":1774555200},"SBBH":{"icaoId":"SBBH","flightCategory":"VFR","rawOb":"METAR SBBH 262000Z 11010KT 9999 FEW048 27/17 Q1017","temp":27,"dewp":17,"wdir":110,"wspd":10,"visib":"6+","altim":1017,"clouds":[{"cover":"FEW","base":4800}],"obsTime":1774555200},"SBBU":{"icaoId":"SBBU","flightCategory":"VFR","rawOb":"METAR SBBU 262000Z 01008KT CAVOK 31/19 Q1015","temp":31,"dewp":19,"wdir":10,"wspd":8,"visib":"6+","altim":1015,"clouds":[],"obsTime":1774555200},"SBCA":{"icaoId":"SBCA","flightCategory":"VFR","rawOb":"METAR SBCA 262000Z 06007KT 9999 SCT040 28/19 Q1016","temp":28,"dewp":19,"wdir":60,"wspd":7,"visib":"6+","altim":1016,"clouds":[{"cover":"SCT","base":4000}],"obsTime":1774555200},"SBCJ":{"icaoId":"SBCJ","flightCategory":"VFR","rawOb":"METAR SBCJ 262000Z 00000KT 9999 FEW025TCU 27/21 Q1012","temp":27,"dewp":21,"wdir":0,"wspd":0,"visib":"6+","altim":1012,"clouds":[{"cover":"FEW","base":2500}],"obsTime":1774555200},"SBCO":{"icaoId":"SBCO","flightCategory":"MVFR","rawOb":"METAR SBCO 262000Z 08002KT 9999 BKN020 28/23 Q1014","temp":28,"dewp":23,"wdir":80,"wspd":2,"visib":"6+","altim":1014,"clouds":[{"cover":"BKN","base":2000}],"obsTime":1774555200},"SBDN":{"icaoId":"SBDN","flightCategory":"VFR","rawOb":"METAR SBDN 262000Z 06006KT 9999 BKN045 FEW049TCU 32/19 Q1012","temp":32,"dewp":19,"wdir":60,"wspd":6,"visib":"6+","altim":1012,"clouds":[{"cover":"BKN","base":4500},{"cover":"FEW","base":4900}],"obsTime":1774555200},"SBES":{"icaoId":"SBES","flightCategory":"VFR","rawOb":"METAR SBES 262000Z 07014KT CAVOK 27/// Q1015","temp":null,"dewp":null,"wdir":70,"wspd":14,"visib":"6+","altim":1015,"clouds":[],"obsTime":1774555200},"SBIP":{"icaoId":"SBIP","flightCategory":"VFR","rawOb":"METAR SBIP 262000Z AUTO 34005KT CAVOK 30/21 Q1015","temp":30,"dewp":21,"wdir":340,"wspd":5,"visib":"6+","altim":1015,"clouds":[],"obsTime":1774555200},"SBKG":{"icaoId":"SBKG","flightCategory":"MVFR","rawOb":"METAR SBKG 262000Z 10009KT 9999 BKN025 SCT090 27/20 Q1012","temp":27,"dewp":20,"wdir":100,"wspd":9,"visib":"6+","altim":1012,"clouds":[{"cover":"BKN","base":2500},{"cover":"SCT","base":9000}],"obsTime":1774555200},"SBOI":{"icaoId":"SBOI","flightCategory":"VFR","rawOb":"METAR SBOI 262000Z AUTO 05003KT 020V080 CAVOK 26/25 Q1009","temp":26,"dewp":25,"wdir":50,"wspd":3,"visib":"6+","altim":1009,"clouds":[],"obsTime":1774555200},"SBPB":{"icaoId":"SBPB","flightCategory":"MVFR","rawOb":"METAR SBPB 262000Z 07014KT 9999 BKN020 29/25 Q1007","temp":29,"dewp":25,"wdir":70,"wspd":14,"visib":"6+","altim":1007,"clouds":[{"cover":"BKN","base":2000}],"obsTime":1774555200},"SBPL":{"icaoId":"SBPL","flightCategory":"VFR","rawOb":"METAR SBPL 262000Z 10008KT 9999 SCT030 SCT070 31/20 Q1010","temp":31,"dewp":20,"wdir":100,"wspd":8,"visib":"6+","altim":1010,"clouds":[{"cover":"SCT","base":3000},{"cover":"SCT","base":7000}],"obsTime":1774555200},"SBPP":{"icaoId":"SBPP","flightCategory":"VFR","rawOb":"METAR SBPP 262000Z 11002KT 9999 SCT025 29/20 Q1012","temp":29,"dewp":20,"wdir":110,"wspd":2,"visib":"6+","altim":1012,"clouds":[{"cover":"SCT","base":2500}],"obsTime":1774555200},"SBPS":{"icaoId":"SBPS","flightCategory":"VFR","rawOb":"METAR SBPS 262000Z 12006KT 9999 SCT020 28/24 Q1014","temp":28,"dewp":24,"wdir":120,"wspd":6,"visib":"6+","altim":1014,"clouds":[{"cover":"SCT","base":2000}],"obsTime":1774555200},"SBSC":{"icaoId":"SBSC","flightCategory":"VFR","rawOb":"METAR SBSC 262000Z 21008KT 9999 FEW040 28/24 Q1014","temp":28,"dewp":24,"wdir":210,"wspd":8,"visib":"6+","altim":1014,"clouds":[{"cover":"FEW","base":4000}],"obsTime":1774555200},"SBSM":{"icaoId":"SBSM","flightCategory":"MVFR","rawOb":"METAR SBSM 262000Z 11007KT 090V150 9999 SCT010 OVC017 24/22 Q1014","temp":24,"dewp":22,"wdir":110,"wspd":7,"visib":"6+","altim":1014,"clouds":[{"cover":"SCT","base":1000},{"cover":"OVC","base":1700}],"obsTime":1774555200},"SBSR":{"icaoId":"SBSR","flightCategory":"VFR","rawOb":"METAR SBSR 262000Z 05010KT 9999 SCT025 FEW030TCU SCT070 27/18 Q1014","temp":27,"dewp":18,"wdir":50,"wspd":10,"visib":"6+","altim":1014,"clouds":[{"cover":"SCT","base":2500},{"cover":"FEW","base":3000},{"cover":"SCT","base":7000}],"obsTime":1774555200},"SBTF":{"icaoId":"SBTF","flightCategory":"VFR","rawOb":"METAR SBTF 262000Z 08005KT 9999 SCT020 34/24 Q1005","temp":34,"dewp":24,"wdir":80,"wspd":5,"visib":"6+","altim":1005,"clouds":[{"cover":"SCT","base":2000}],"obsTime":1774555200},"SBTT":{"icaoId":"SBTT","flightCategory":"MVFR","rawOb":"METAR SBTT 262000Z 23003KT 9999 BKN025 FEW030TCU BKN080 30/24 Q1007","temp":30,"dewp":24,"wdir":230,"wspd":3,"visib":"6+","altim":1007,"clouds":[{"cover":"BKN","base":2500},{"cover":"FEW","base":3000},{"cover":"BKN","base":8000}],"obsTime":1774555200},"SBUY":{"icaoId":"SBUY","flightCategory":"VFR","rawOb":"METAR SBUY 262000Z 21005KT 9999 FEW025 SCT100 32/23 Q1005","temp":32,"dewp":23,"wdir":210,"wspd":5,"visib":"6+","altim":1005,"clouds":[{"cover":"FEW","base":2500},{"cover":"SCT","base":10000}],"obsTime":1774555200},"SBVH":{"icaoId":"SBVH","flightCategory":"MVFR","rawOb":"METAR SBVH 262000Z 11007KT 9999 VCSH SCT020 BKN030 FEW035TCU BKN050 25/23 Q1011","temp":25,"dewp":23,"wdir":110,"wspd":7,"visib":"6+","altim":1011,"clouds":[{"cover":"SCT","base":2000},{"cover":"BKN","base":3000},{"cover":"FEW","base":3500},{"cover":"BKN","base":5000}],"obsTime":1774555200},"SBCC":{"icaoId":"SBCC","flightCategory":"VFR","rawOb":"METAR SBCC 262000Z 18005KT 9999 SCT020 FEW025TCU BKN100 23/22 Q1010","temp":23,"dewp":22,"wdir":180,"wspd":5,"visib":"6+","altim":1010,"clouds":[{"cover":"SCT","base":2000},{"cover":"FEW","base":2500},{"cover":"BKN","base":10000}],"obsTime":1774555200},"SBTC":{"icaoId":"SBTC","flightCategory":"VFR","rawOb":"METAR SBTC 262000Z 16005KT 9999 SCT020 28/24 Q1013","temp":28,"dewp":24,"wdir":160,"wspd":5,"visib":"6+","altim":1013,"clouds":[{"cover":"SCT","base":2000}],"obsTime":1774555200},"SBJP":{"icaoId":"SBJP","flightCategory":"VFR","rawOb":"METAR SBJP 262000Z 12010KT 9999 SCT030 SCT070 29/22 Q1010","temp":29,"dewp":22,"wdir":120,"wspd":10,"visib":"6+","altim":1010,"clouds":[{"cover":"SCT","base":3000},{"cover":"SCT","base":7000}],"obsTime":1774555200},"SBAN":{"icaoId":"SBAN","flightCategory":"VFR","rawOb":"METAR SBAN 262000Z 10005KT 060V130 9999 VCSH VCTS SCT020 BKN035 FEW040CB BKN070 24/17 Q1017","temp":24,"dewp":17,"wdir":100,"wspd":5,"visib":"6+","altim":1017,"clouds":[{"cover":"SCT","base":2000},{"cover":"BKN","base":3500},{"cover":"FEW","base":4000},{"cover":"BKN","base":7000}],"obsTime":1774555200},"SBJV":{"icaoId":"SBJV","flightCategory":"VFR","rawOb":"METAR SBJV 262000Z 00000KT 9999 FEW018 SCT035 29/24 Q1014","temp":29,"dewp":24,"wdir":0,"wspd":0,"visib":"6+","altim":1014,"clouds":[{"cover":"FEW","base":1800},{"cover":"SCT","base":3500}],"obsTime":1774555200},"SBPF":{"icaoId":"SBPF","flightCategory":"VFR","rawOb":"METAR SBPF 262000Z 05005KT 9999 SCT040 28/19 Q1016","temp":28,"dewp":19,"wdir":50,"wspd":5,"visib":"6+","altim":1016,"clouds":[{"cover":"SCT","base":4000}],"obsTime":1774555200},"SBAF":{"icaoId":"SBAF","flightCategory":"VFR","rawOb":"METAR SBAF 262000Z 20010KT 9999 FEW030 30/22 Q1014","temp":30,"dewp":22,"wdir":200,"wspd":10,"visib":"6+","altim":1014,"clouds":[{"cover":"FEW","base":3000}],"obsTime":1774555200},"SBGW":{"icaoId":"SBGW","flightCategory":"VFR","rawOb":"METAR SBGW 262000Z 01005KT 9999 FEW030 30/18 Q1015","temp":30,"dewp":18,"wdir":10,"wspd":5,"visib":"6+","altim":1015,"clouds":[{"cover":"FEW","base":3000}],"obsTime":1774555200},"SBJR":{"icaoId":"SBJR","flightCategory":"VFR","rawOb":"METAR SBJR 262000Z 13006KT 9999 FEW025 32/21 Q1013","temp":32,"dewp":21,"wdir":130,"wspd":6,"visib":"6+","altim":1013,"clouds":[{"cover":"FEW","base":2500}],"obsTime":1774555200},"SBLS":{"icaoId":"SBLS","flightCategory":"VFR","rawOb":"METAR SBLS 262000Z 12010KT 070V130 9999 FEW040 26/18 Q1018","temp":26,"dewp":18,"wdir":120,"wspd":10,"visib":"6+","altim":1018,"clouds":[{"cover":"FEW","base":4000}],"obsTime":1774555200},"SBMT":{"icaoId":"SBMT","flightCategory":"MVFR","rawOb":"METAR SBMT 262000Z 12007KT 8000 BKN030 FEW040TCU 23/18 Q1018 RETS","temp":23,"dewp":18,"wdir":120,"wspd":7,"visib":4.97,"altim":1018,"clouds":[{"cover":"BKN","base":3000},{"cover":"FEW","base":4000}],"obsTime":1774555200},"SBST":{"icaoId":"SBST","flightCategory":"VFR","rawOb":"METAR SBST 262000Z 15006KT 9999 FEW040 26/23 Q1014","temp":26,"dewp":23,"wdir":150,"wspd":6,"visib":"6+","altim":1014,"clouds":[{"cover":"FEW","base":4000}],"obsTime":1774555200},"SBTA":{"icaoId":"SBTA","flightCategory":"VFR","rawOb":"METAR SBTA 262000Z 17007KT 140V210 9999 SCT040 FEW045TCU SCT100 29/19 Q1015","temp":29,"dewp":19,"wdir":170,"wspd":7,"visib":"6+","altim":1015,"clouds":[{"cover":"SCT","base":4000},{"cover":"FEW","base":4500},{"cover":"SCT","base":10000}],"obsTime":1774555200},"SBIH":{"icaoId":"SBIH","flightCategory":"VFR","rawOb":"METAR SBIH 262000Z 13004KT 9999 FEW020 FEW025TCU 30/25 Q1006","temp":30,"dewp":25,"wdir":130,"wspd":4,"visib":"6+","altim":1006,"clouds":[{"cover":"FEW","base":2000},{"cover":"FEW","base":2500}],"obsTime":1774555200},"SBLE":{"icaoId":"SBLE","flightCategory":"VFR","rawOb":"METAR SBLE 262000Z AUTO 23003KT 200V260 CAVOK ///// Q////","temp":null,"dewp":null,"wdir":230,"wspd":3,"visib":"6+","altim":null,"clouds":[],"obsTime":1774555200}}}