{"updated":1782065789,"count":88,"data":{"SBEG":{"icaoId":"SBEG","flightCategory":"VFR","rawOb":"METAR SBEG 211700Z 12008KT 9999 SCT030 31/24 Q1012","temp":31,"dewp":24,"wdir":120,"wspd":8,"visib":"6+","altim":1012,"clouds":[{"cover":"SCT","base":3000}],"obsTime":1782061200},"SBLO":{"icaoId":"SBLO","flightCategory":"VFR","rawOb":"METAR SBLO 211700Z 04007KT 360V100 9999 SCT013 16/13 Q1018","temp":16,"dewp":13,"wdir":40,"wspd":7,"visib":"6+","altim":1018,"clouds":[{"cover":"SCT","base":1300}],"obsTime":1782061200},"SBBR":{"icaoId":"SBBR","flightCategory":"VFR","rawOb":"METAR SBBR 211700Z 21009KT 170V230 9999 BKN045 25/15 Q1020","temp":25,"dewp":15,"wdir":210,"wspd":9,"visib":"6+","altim":1020,"clouds":[{"cover":"BKN","base":4500}],"obsTime":1782061200},"SBMA":{"icaoId":"SBMA","flightCategory":"VFR","rawOb":"METAR SBMA 211700Z 03009KT 9999 SCT030 34/20 Q1011","temp":34,"dewp":20,"wdir":30,"wspd":9,"visib":"6+","altim":1011,"clouds":[{"cover":"SCT","base":3000}],"obsTime":1782061200},"SBBV":{"icaoId":"SBBV","flightCategory":"MVFR","rawOb":"METAR SBBV 211700Z 09009KT 8000 BKN035 FEW040TCU BKN070 33/23 Q1012","temp":33,"dewp":23,"wdir":90,"wspd":9,"visib":4.97,"altim":1012,"clouds":[{"cover":"BKN","base":3500},{"cover":"FEW","base":4000},{"cover":"BKN","base":7000}],"obsTime":1782061200},"SBME":{"icaoId":"SBME","flightCategory":"VFR","rawOb":"METAR SBME 211700Z 19015KT 9999 SCT017 BKN070 23/19 Q1017","temp":23,"dewp":19,"wdir":190,"wspd":15,"visib":"6+","altim":1017,"clouds":[{"cover":"SCT","base":1700},{"cover":"BKN","base":7000}],"obsTime":1782061200},"SBFI":{"icaoId":"SBFI","flightCategory":"VFR","rawOb":"METAR SBFI 211700Z 02009KT 9999 FEW020 20/13 Q1013","temp":20,"dewp":13,"wdir":20,"wspd":9,"visib":"6+","altim":1013,"clouds":[{"cover":"FEW","base":2000}],"obsTime":1782061200},"SBMG":{"icaoId":"SBMG","flightCategory":"VFR","rawOb":"METAR SBMG 211700Z 01006KT 330V040 9999 FEW025 20/12 Q1016","temp":20,"dewp":12,"wdir":10,"wspd":6,"visib":"6+","altim":1016,"clouds":[{"cover":"FEW","base":2500}],"obsTime":1782061200},"SBCG":{"icaoId":"SBCG","flightCategory":"VFR","rawOb":"METAR SBCG 211700Z 33010KT CAVOK 26/16 Q1014","temp":26,"dewp":16,"wdir":330,"wspd":10,"visib":"6+","altim":1014,"clouds":[],"obsTime":1782061200},"SBMK":{"icaoId":"SBMK","flightCategory":"VFR","rawOb":"METAR SBMK 211700Z 18003KT CAVOK 27/12 Q1018","temp":27,"dewp":12,"wdir":180,"wspd":3,"visib":"6+","altim":1018,"clouds":[],"obsTime":1782061200},"SBMO":{"icaoId":"SBMO","flightCategory":"MVFR","rawOb":"METAR SBMO 211700Z 18008KT 9999 BKN021 BKN055 27/21 Q1015","temp":27,"dewp":21,"wdir":180,"wspd":8,"visib":"6+","altim":1015,"clouds":[{"cover":"BKN","base":2100},{"cover":"BKN","base":5500}],"obsTime":1782061200},"SBFL":{"icaoId":"SBFL","flightCategory":"VFR","rawOb":"METAR SBFL 211700Z 33006KT 280V360 9999 FEW030 19/13 Q1016","temp":19,"dewp":13,"wdir":330,"wspd":6,"visib":"6+","altim":1016,"clouds":[{"cover":"FEW","base":3000}],"obsTime":1782061200},"SBBE":{"icaoId":"SBBE","flightCategory":"VFR","rawOb":"METAR SBBE 211700Z 34012KT 9999 FEW020 BKN040 30/25 Q1012","temp":30,"dewp":25,"wdir":340,"wspd":12,"visib":"6+","altim":1012,"clouds":[{"cover":"FEW","base":2000},{"cover":"BKN","base":4000}],"obsTime":1782061200},"SBMQ":{"icaoId":"SBMQ","flightCategory":"VFR","rawOb":"METAR SBMQ 211700Z 07011KT 9999 SCT027 FEW032TCU 32/25 Q1012","temp":32,"dewp":25,"wdir":70,"wspd":11,"visib":"6+","altim":1012,"clouds":[{"cover":"SCT","base":2700},{"cover":"FEW","base":3200}],"obsTime":1782061200},"SBNT":{"icaoId":"SBNT","flightCategory":"MVFR","rawOb":"METAR SBNT 211700Z 17010KT 120V190 9999 BKN030 30/22 Q1013","temp":30,"dewp":22,"wdir":170,"wspd":10,"visib":"6+","altim":1013,"clouds":[{"cover":"BKN","base":3000}],"obsTime":1782061200},"SBFZ":{"icaoId":"SBFZ","flightCategory":"VFR","rawOb":"METAR SBFZ 211700Z 10015KT 9999 SCT030 30/21 Q1012","temp":30,"dewp":21,"wdir":100,"wspd":15,"visib":"6+","altim":1012,"clouds":[{"cover":"SCT","base":3000}],"obsTime":1782061200},"SBCP":{"icaoId":"SBCP","flightCategory":"VFR","rawOb":"METAR SBCP 211700Z 20007KT 9999 SCT020 27/18 Q1016","temp":27,"dewp":18,"wdir":200,"wspd":7,"visib":"6+","altim":1016,"clouds":[{"cover":"SCT","base":2000}],"obsTime":1782061200},"SBPA":{"icaoId":"SBPA","flightCategory":"VFR","rawOb":"METAR SBPA 211700Z VRB01KT 9999 SCT030 17/10 Q1015","temp":17,"dewp":10,"wdir":"VRB","wspd":1,"visib":"6+","altim":1015,"clouds":[{"cover":"SCT","base":3000}],"obsTime":1782061200},"SBGL":{"icaoId":"SBGL","flightCategory":"MVFR","rawOb":"METAR SBGL 211700Z 20010KT 9999 BKN025 OVC035 23/17 Q1017","temp":23,"dewp":17,"wdir":200,"wspd":10,"visib":"6+","altim":1017,"clouds":[{"cover":"BKN","base":2500},{"cover":"OVC","base":3500}],"obsTime":1782061200},"SBPJ":{"icaoId":"SBPJ","flightCategory":"VFR","rawOb":"METAR SBPJ 211700Z 29007KT 9999 SCT040 34/19 Q1013","temp":34,"dewp":19,"wdir":290,"wspd":7,"visib":"6+","altim":1013,"clouds":[{"cover":"SCT","base":4000}],"obsTime":1782061200},"SBCB":{"icaoId":"SBCB","flightCategory":"MVFR","rawOb":"METAR SBCB 211700Z /////KT 9999 BKN015 BKN050 23/17 Q1017","temp":23,"dewp":17,"wdir":null,"wspd":null,"visib":"6+","altim":1017,"clouds":[{"cover":"BKN","base":1500},{"cover":"BKN","base":5000}],"obsTime":1782061200},"SBPV":{"icaoId":"SBPV","flightCategory":"VFR","rawOb":"METAR SBPV 211700Z 01005KT 9999 SCT035 31/22 Q1012","temp":31,"dewp":22,"wdir":10,"wspd":5,"visib":"6+","altim":1012,"clouds":[{"cover":"SCT","base":3500}],"obsTime":1782061200},"SBGO":{"icaoId":"SBGO","flightCategory":"VFR","rawOb":"METAR SBGO 211700Z 18004KT 9999 FEW040 28/17 Q1018","temp":28,"dewp":17,"wdir":180,"wspd":4,"visib":"6+","altim":1018,"clouds":[{"cover":"FEW","base":4000}],"obsTime":1782061200},"SBRB":{"icaoId":"SBRB","flightCategory":"VFR","rawOb":"METAR SBRB 211700Z 30004KT 9999 SCT025 29/22 Q1014","temp":29,"dewp":22,"wdir":300,"wspd":4,"visib":"6+","altim":1014,"clouds":[{"cover":"SCT","base":2500}],"obsTime":1782061200},"SBCR":{"icaoId":"SBCR","flightCategory":"VFR","rawOb":"METAR SBCR 211700Z 04009KT 360V070 9999 FEW030 27/19 Q1011","temp":27,"dewp":19,"wdir":40,"wspd":9,"visib":"6+","altim":1011,"clouds":[{"cover":"FEW","base":3000}],"obsTime":1782061200},"SBRF":{"icaoId":"SBRF","flightCategory":"VFR","rawOb":"METAR SBRF 211700Z 16013KT 9999 SCT023 27/23 Q1014","temp":27,"dewp":23,"wdir":160,"wspd":13,"visib":"6+","altim":1014,"clouds":[{"cover":"SCT","base":2300}],"obsTime":1782061200},"SBGR":{"icaoId":"SBGR","flightCategory":"VFR","rawOb":"METAR SBGR 211700Z 01004KT CAVOK 22/06 Q1019","temp":22,"dewp":6,"wdir":10,"wspd":4,"visib":"6+","altim":1019,"clouds":[],"obsTime":1782061200},"SBSG":{"icaoId":"SBSG","flightCategory":"VFR","rawOb":"METAR SBSG 211700Z 17007KT 110V210 9999 SCT033 29/23 Q1013","temp":29,"dewp":23,"wdir":170,"wspd":7,"visib":"6+","altim":1013,"clouds":[{"cover":"SCT","base":3300}],"obsTime":1782061200},"SBAT":{"icaoId":"SBAT","flightCategory":"VFR","rawOb":"METAR SBAT 211700Z 05006KT 9999 BKN035 32/22 Q1013","temp":32,"dewp":22,"wdir":50,"wspd":6,"visib":"6+","altim":1013,"clouds":[{"cover":"BKN","base":3500}],"obsTime":1782061200},"SBSL":{"icaoId":"SBSL","flightCategory":"MVFR","rawOb":"METAR SBSL 211700Z 04009KT 9999 BKN030 30/25 Q1011","temp":30,"dewp":25,"wdir":40,"wspd":9,"visib":"6+","altim":1011,"clouds":[{"cover":"BKN","base":3000}],"obsTime":1782061200},"SBSN":{"icaoId":"SBSN","flightCategory":"VFR","rawOb":"METAR SBSN 211700Z 09014KT CAVOK 31/23 Q1012","temp":31,"dewp":23,"wdir":90,"wspd":14,"visib":"6+","altim":1012,"clouds":[],"obsTime":1782061200},"SBHT":{"icaoId":"SBHT","flightCategory":"MVFR","rawOb":"METAR SBHT 211700Z 10005KT 9999 BKN030 32/24 Q1012","temp":32,"dewp":24,"wdir":100,"wspd":5,"visib":"6+","altim":1012,"clouds":[{"cover":"BKN","base":3000}],"obsTime":1782061200},"SBCT":{"icaoId":"SBCT","flightCategory":"VFR","rawOb":"METAR SBCT 211700Z 03004KT 320V090 CAVOK 17/10 Q1018","temp":17,"dewp":10,"wdir":30,"wspd":4,"visib":"6+","altim":1018,"clouds":[],"obsTime":1782061200},"SBSP":{"icaoId":"SBSP","flightCategory":"VFR","rawOb":"METAR SBSP 211700Z VRB04KT CAVOK 21/07 Q1020","temp":21,"dewp":7,"wdir":"VRB","wspd":4,"visib":"6+","altim":1020,"clouds":[],"obsTime":1782061200},"SBIL":{"icaoId":"SBIL","flightCategory":"VFR","rawOb":"METAR SBIL 211700Z 13006KT 9999 FEW030 28/20 Q1016","temp":28,"dewp":20,"wdir":130,"wspd":6,"visib":"6+","altim":1016,"clouds":[{"cover":"FEW","base":3000}],"obsTime":1782061200},"SBSV":{"icaoId":"SBSV","flightCategory":"VFR","rawOb":"METAR SBSV 211700Z 18007KT 9999 SCT030 26/19 Q1015","temp":26,"dewp":19,"wdir":180,"wspd":7,"visib":"6+","altim":1015,"clouds":[{"cover":"SCT","base":3000}],"obsTime":1782061200},"SBCZ":{"icaoId":"SBCZ","flightCategory":"MVFR","rawOb":"METAR SBCZ 211700Z 08007KT 9999 BKN025 31/23 Q1014","temp":31,"dewp":23,"wdir":80,"wspd":7,"visib":"6+","altim":1014,"clouds":[{"cover":"BKN","base":2500}],"obsTime":1782061200},"SBTE":{"icaoId":"SBTE","flightCategory":"VFR","rawOb":"METAR SBTE 211700Z 04005KT 9999 SCT040 34/20 Q1011","temp":34,"dewp":20,"wdir":40,"wspd":5,"visib":"6+","altim":1011,"clouds":[{"cover":"SCT","base":4000}],"obsTime":1782061200},"SBJU":{"icaoId":"SBJU","flightCategory":"VFR","rawOb":"METAR SBJU 211700Z 00000KT 9999 FEW022 33/16 Q1014","temp":33,"dewp":16,"wdir":0,"wspd":0,"visib":"6+","altim":1014,"clouds":[{"cover":"FEW","base":2200}],"obsTime":1782061200},"SBUL":{"icaoId":"SBUL","flightCategory":"VFR","rawOb":"METAR SBUL 211700Z 27008KT 9999 SCT040 25/14 Q1019","temp":25,"dewp":14,"wdir":270,"wspd":8,"visib":"6+","altim":1019,"clouds":[{"cover":"SCT","base":4000}],"obsTime":1782061200},"SBKP":{"icaoId":"SBKP","flightCategory":"VFR","rawOb":"METAR SBKP 211700Z VRB02KT CAVOK 22/10 Q1018","temp":22,"dewp":10,"wdir":"VRB","wspd":2,"visib":"6+","altim":1018,"clouds":[],"obsTime":1782061200},"SBUR":{"icaoId":"SBUR","flightCategory":"VFR","rawOb":"METAR SBUR 211700Z 26008KT 9999 FEW036 27/12 Q1018","temp":27,"dewp":12,"wdir":260,"wspd":8,"visib":"6+","altim":1018,"clouds":[{"cover":"FEW","base":3600}],"obsTime":1782061200},"SBVT":{"icaoId":"SBVT","flightCategory":"VFR","rawOb":"METAR SBVT 211700Z 15009KT CAVOK 27/15 Q1015","temp":27,"dewp":15,"wdir":150,"wspd":9,"visib":"6+","altim":1015,"clouds":[],"obsTime":1782061200},"SBCF":{"icaoId":"SBCF","flightCategory":"VFR","rawOb":"METAR SBCF 211700Z VRB03KT 9999 SCT040 25/13 Q1019","temp":25,"dewp":13,"wdir":"VRB","wspd":3,"visib":"6+","altim":1019,"clouds":[{"cover":"SCT","base":4000}],"obsTime":1782061200},"SBKG":{"icaoId":"SBKG","flightCategory":"MVFR","rawOb":"METAR SBKG 211700Z COR 11012KT 9999 BKN030 28/20 Q1015","temp":28,"dewp":20,"wdir":110,"wspd":12,"visib":"6+","altim":1015,"clouds":[{"cover":"BKN","base":3000}],"obsTime":1782061200},"SBCC":{"icaoId":"SBCC","flightCategory":"VFR","rawOb":"METAR SBCC 211700Z 33006KT 290V010 9999 SCT030 FEW035TCU 29/21 Q1014","temp":29,"dewp":21,"wdir":330,"wspd":6,"visib":"6+","altim":1014,"clouds":[{"cover":"SCT","base":3000},{"cover":"FEW","base":3500}],"obsTime":1782061200},"SBOI":{"icaoId":"SBOI","flightCategory":"VFR","rawOb":"METAR SBOI 211700Z AUTO 12003KT 070V170 9999 FEW048 27/24 Q1013","temp":27,"dewp":24,"wdir":120,"wspd":3,"visib":"6+","altim":1013,"clouds":[{"cover":"FEW","base":4800}],"obsTime":1782061200},"SBCJ":{"icaoId":"SBCJ","flightCategory":"MVFR","rawOb":"METAR SBCJ 211700Z 00000KT 9999 BKN017 28/20 Q1017","temp":28,"dewp":20,"wdir":0,"wspd":0,"visib":"6+","altim":1017,"clouds":[{"cover":"BKN","base":1700}],"obsTime":1782061200},"SBPB":{"icaoId":"SBPB","flightCategory":"VFR","rawOb":"METAR SBPB 211700Z 04010KT 9999 SCT020 31/24 Q1012","temp":31,"dewp":24,"wdir":40,"wspd":10,"visib":"6+","altim":1012,"clouds":[{"cover":"SCT","base":2000}],"obsTime":1782061200},"SBAR":{"icaoId":"SBAR","flightCategory":"VFR","rawOb":"METAR SBAR 211700Z 12008KT 9999 FEW027 28/20 Q1014","temp":28,"dewp":20,"wdir":120,"wspd":8,"visib":"6+","altim":1014,"clouds":[{"cover":"FEW","base":2700}],"obsTime":1782061200},"SBPL":{"icaoId":"SBPL","flightCategory":"VFR","rawOb":"METAR SBPL 211700Z 10004KT CAVOK 31/15 Q1014","temp":31,"dewp":15,"wdir":100,"wspd":4,"visib":"6+","altim":1014,"clouds":[],"obsTime":1782061200},"SBBQ":{"icaoId":"SBBQ","flightCategory":"VFR","rawOb":"METAR SBBQ 211700Z 27006KT 9999 SCT045 22/12 Q1021","temp":22,"dewp":12,"wdir":270,"wspd":6,"visib":"6+","altim":1021,"clouds":[{"cover":"SCT","base":4500}],"obsTime":1782061200},"SBPP":{"icaoId":"SBPP","flightCategory":"VFR","rawOb":"METAR SBPP 211700Z 05010KT CAVOK 23/11 Q1014","temp":23,"dewp":11,"wdir":50,"wspd":10,"visib":"6+","altim":1014,"clouds":[],"obsTime":1782061200},"SBCO":{"icaoId":"SBCO","flightCategory":"VFR","rawOb":"METAR SBCO 211700Z VRB03KT 9999 FEW025 16/10 Q1016","temp":16,"dewp":10,"wdir":"VRB","wspd":3,"visib":"6+","altim":1016,"clouds":[{"cover":"FEW","base":2500}],"obsTime":1782061200},"SBPS":{"icaoId":"SBPS","flightCategory":"VFR","rawOb":"METAR SBPS 211700Z VRB02KT 9999 FEW020 BKN050 26/17 Q1016","temp":26,"dewp":17,"wdir":"VRB","wspd":2,"visib":"6+","altim":1016,"clouds":[{"cover":"FEW","base":2000},{"cover":"BKN","base":5000}],"obsTime":1782061200},"SBAX":{"icaoId":"SBAX","flightCategory":"VFR","rawOb":"METAR SBAX 211700Z AUTO 29005KT 220V330 9999 FEW039 24/15 Q1019","temp":24,"dewp":15,"wdir":290,"wspd":5,"visib":"6+","altim":1019,"clouds":[{"cover":"FEW","base":3900}],"obsTime":1782061200},"SBSC":{"icaoId":"SBSC","flightCategory":"IFR","rawOb":"METAR SBSC 211700Z 19005KT 4500 -DZ BR FEW010 BKN018 OVC030 20/18 Q1018","temp":20,"dewp":18,"wdir":190,"wspd":5,"visib":2.8,"altim":1018,"clouds":[{"cover":"FEW","base":1000},{"cover":"BKN","base":1800},{"cover":"OVC","base":3000}],"obsTime":1782061200},"SBSJ":{"icaoId":"SBSJ","flightCategory":"VFR","rawOb":"METAR SBSJ 211700Z 22005KT CAVOK 23/12 Q1018","temp":23,"dewp":12,"wdir":220,"wspd":5,"visib":"6+","altim":1018,"clouds":[],"obsTime":1782061200},"SBDN":{"icaoId":"SBDN","flightCategory":"VFR","rawOb":"METAR SBDN 211700Z 05007KT CAVOK 20/09 Q1016","temp":20,"dewp":9,"wdir":50,"wspd":7,"visib":"6+","altim":1016,"clouds":[],"obsTime":1782061200},"SBBU":{"icaoId":"SBBU","flightCategory":"VFR","rawOb":"METAR SBBU 211700Z 32002KT CAVOK 22/09 Q1018","temp":22,"dewp":9,"wdir":320,"wspd":2,"visib":"6+","altim":1018,"clouds":[],"obsTime":1782061200},"SBSM":{"icaoId":"SBSM","flightCategory":"VFR","rawOb":"METAR SBSM 211700Z 04005KT 360V070 9999 FEW015 BKN035 15/10 Q1015","temp":15,"dewp":10,"wdir":40,"wspd":5,"visib":"6+","altim":1015,"clouds":[{"cover":"FEW","base":1500},{"cover":"BKN","base":3500}],"obsTime":1782061200},"SBES":{"icaoId":"SBES","flightCategory":"MVFR","rawOb":"METAR SBES 211700Z 22008KT 190V260 9999 FEW013 SCT020 BKN030 22/// Q1017","temp":null,"dewp":null,"wdir":220,"wspd":8,"visib":"6+","altim":1017,"clouds":[{"cover":"FEW","base":1300},{"cover":"SCT","base":2000},{"cover":"BKN","base":3000}],"obsTime":1782061200},"SBSR":{"icaoId":"SBSR","flightCategory":"VFR","rawOb":"METAR SBSR 211700Z 36003KT CAVOK 26/13 Q1017","temp":26,"dewp":13,"wdir":360,"wspd":3,"visib":"6+","altim":1017,"clouds":[],"obsTime":1782061200},"SBAU":{"icaoId":"SBAU","flightCategory":"VFR","rawOb":"METAR SBAU 211700Z 06008KT CAVOK 23/14 Q1017","temp":23,"dewp":14,"wdir":60,"wspd":8,"visib":"6+","altim":1017,"clouds":[],"obsTime":1782061200},"SBTF":{"icaoId":"SBTF","flightCategory":"VFR","rawOb":"METAR SBTF 211700Z 06008KT 9999 FEW018 33/24 Q1012","temp":33,"dewp":24,"wdir":60,"wspd":8,"visib":"6+","altim":1012,"clouds":[{"cover":"FEW","base":1800}],"obsTime":1782061200},"SBTT":{"icaoId":"SBTT","flightCategory":"MVFR","rawOb":"METAR SBTT 211700Z 29004KT 9999 BKN016 29/23 Q1014","temp":29,"dewp":23,"wdir":290,"wspd":4,"visib":"6+","altim":1014,"clouds":[{"cover":"BKN","base":1600}],"obsTime":1782061200},"SBGM":{"icaoId":"SBGM","flightCategory":"MVFR","rawOb":"METAR SBGM 211700Z 33004KT 9999 BKN025 30/22 Q1013","temp":30,"dewp":22,"wdir":330,"wspd":4,"visib":"6+","altim":1013,"clouds":[{"cover":"BKN","base":2500}],"obsTime":1782061200},"SBCA":{"icaoId":"SBCA","flightCategory":"VFR","rawOb":"METAR SBCA 211700Z 03012KT CAVOK 17/09 Q1016","temp":17,"dewp":9,"wdir":30,"wspd":12,"visib":"6+","altim":1016,"clouds":[],"obsTime":1782061200},"SBTU":{"icaoId":"SBTU","flightCategory":"VFR","rawOb":"METAR SBTU 211700Z AUTO 20004KT 140V250 9999 // FEW031/// SCT037/// ///// Q1013","temp":null,"dewp":null,"wdir":200,"wspd":4,"visib":"6+","altim":1013,"clouds":[{"cover":"FEW","base":3100},{"cover":"SCT","base":3700}],"obsTime":1782061200},"SBIP":{"icaoId":"SBIP","flightCategory":"VFR","rawOb":"METAR SBIP 211700Z AUTO 01004KT 300V100 CAVOK 26/14 Q1017","temp":26,"dewp":14,"wdir":10,"wspd":4,"visib":"6+","altim":1017,"clouds":[],"obsTime":1782061200},"SBUY":{"icaoId":"SBUY","flightCategory":"VFR","rawOb":"METAR SBUY 211700Z 02003KT 9999 SCT030 32/22 Q1011","temp":32,"dewp":22,"wdir":20,"wspd":3,"visib":"6+","altim":1011,"clouds":[{"cover":"SCT","base":3000}],"obsTime":1782061200},"SBBH":{"icaoId":"SBBH","flightCategory":"VFR","rawOb":"METAR SBBH 211700Z 01003KT 9999 SCT035 25/14 Q1019","temp":25,"dewp":14,"wdir":10,"wspd":3,"visib":"6+","altim":1019,"clouds":[{"cover":"SCT","base":3500}],"obsTime":1782061200},"SBVH":{"icaoId":"SBVH","flightCategory":"VFR","rawOb":"METAR SBVH 211700Z 33010KT 9999 FEW040 30/20 Q1015","temp":30,"dewp":20,"wdir":330,"wspd":10,"visib":"6+","altim":1015,"clouds":[{"cover":"FEW","base":4000}],"obsTime":1782061200},"SBJP":{"icaoId":"SBJP","flightCategory":"MVFR","rawOb":"METAR SBJP 211700Z 12015KT 9999 BKN025 27/23 Q1014","temp":27,"dewp":23,"wdir":120,"wspd":15,"visib":"6+","altim":1014,"clouds":[{"cover":"BKN","base":2500}],"obsTime":1782061200},"SBLE":{"icaoId":"SBLE","flightCategory":"VFR","rawOb":"METAR SBLE 211700Z AUTO VRB02KT CAVOK 27/16 Q1016","temp":27,"dewp":16,"wdir":"VRB","wspd":2,"visib":"6+","altim":1016,"clouds":[],"obsTime":1782061200},"SBTC":{"icaoId":"SBTC","flightCategory":"VFR","rawOb":"METAR SBTC 211700Z 15006KT 9999 SCT025 26/20 Q1015","temp":26,"dewp":20,"wdir":150,"wspd":6,"visib":"6+","altim":1015,"clouds":[{"cover":"SCT","base":2500}],"obsTime":1782061200},"SBJV":{"icaoId":"SBJV","flightCategory":"VFR","rawOb":"METAR SBJV 211700Z 14005KT 9999 SCT020 19/16 Q1017","temp":19,"dewp":16,"wdir":140,"wspd":5,"visib":"6+","altim":1017,"clouds":[{"cover":"SCT","base":2000}],"obsTime":1782061200},"SBNM":{"icaoId":"SBNM","flightCategory":"VFR","rawOb":"METAR SBNM 211700Z AUTO 30008KT 270V330 9999 FEW026 16/10 Q1015","temp":16,"dewp":10,"wdir":300,"wspd":8,"visib":"6+","altim":1015,"clouds":[{"cover":"FEW","base":2600}],"obsTime":1782061200},"SBPF":{"icaoId":"SBPF","flightCategory":"VFR","rawOb":"METAR SBPF 211800Z 35007KT CAVOK 17/08 Q1015","temp":17,"dewp":8,"wdir":350,"wspd":7,"visib":"6+","altim":1015,"clouds":[],"obsTime":1782064800},"SBAN":{"icaoId":"SBAN","flightCategory":"VFR","rawOb":"METAR SBAN 211700Z 24004KT 9999 SCT040 SCT080 25/14 Q1020","temp":25,"dewp":14,"wdir":240,"wspd":4,"visib":"6+","altim":1020,"clouds":[{"cover":"SCT","base":4000},{"cover":"SCT","base":8000}],"obsTime":1782061200},"SBIH":{"icaoId":"SBIH","flightCategory":"VFR","rawOb":"METAR SBIH 211700Z 02007KT 9999 SCT020 33/24 Q1012","temp":33,"dewp":24,"wdir":20,"wspd":7,"visib":"6+","altim":1012,"clouds":[{"cover":"SCT","base":2000}],"obsTime":1782061200},"SBAF":{"icaoId":"SBAF","flightCategory":"MVFR","rawOb":"METAR SBAF 211700Z 21009KT 170V240 9999 BKN025 OVC030 22/19 Q1017","temp":22,"dewp":19,"wdir":210,"wspd":9,"visib":"6+","altim":1017,"clouds":[{"cover":"BKN","base":2500},{"cover":"OVC","base":3000}],"obsTime":1782061200},"SBGW":{"icaoId":"SBGW","flightCategory":"VFR","rawOb":"METAR SBGW 211700Z 21004KT 160V280 9999 FEW030 25/12 Q1017","temp":25,"dewp":12,"wdir":210,"wspd":4,"visib":"6+","altim":1017,"clouds":[{"cover":"FEW","base":3000}],"obsTime":1782061200},"SBJR":{"icaoId":"SBJR","flightCategory":"MVFR","rawOb":"METAR SBJR 211700Z 26003KT 9999 BKN020 OVC040 23/18 Q1017","temp":23,"dewp":18,"wdir":260,"wspd":3,"visib":"6+","altim":1017,"clouds":[{"cover":"BKN","base":2000},{"cover":"OVC","base":4000}],"obsTime":1782061200},"SBLS":{"icaoId":"SBLS","flightCategory":"VFR","rawOb":"METAR SBLS 211700Z VRB04KT 9999 SCT040 25/13 Q1019","temp":25,"dewp":13,"wdir":"VRB","wspd":4,"visib":"6+","altim":1019,"clouds":[{"cover":"SCT","base":4000}],"obsTime":1782061200},"SBMT":{"icaoId":"SBMT","flightCategory":"VFR","rawOb":"METAR SBMT 211700Z 00000KT CAVOK 23/09 Q1019","temp":23,"dewp":9,"wdir":0,"wspd":0,"visib":"6+","altim":1019,"clouds":[],"obsTime":1782061200},"SBST":{"icaoId":"SBST","flightCategory":"VFR","rawOb":"METAR SBST 211700Z 26005KT CAVOK 21/14 Q1017","temp":21,"dewp":14,"wdir":260,"wspd":5,"visib":"6+","altim":1017,"clouds":[],"obsTime":1782061200},"SBTA":{"icaoId":"SBTA","flightCategory":"VFR","rawOb":"METAR SBTA 211700Z 25005KT 9999 FEW030 24/13 Q1017","temp":24,"dewp":13,"wdir":250,"wspd":5,"visib":"6+","altim":1017,"clouds":[{"cover":"FEW","base":3000}],"obsTime":1782061200}}}