{"updated":1776522731,"count":85,"data":{"SBSN":{"icaoId":"SBSN","flightCategory":"MVFR","rawOb":"METAR SBSN 181300Z 09009KT 9999 -RA SCT013 BKN018 OVC080 28/25 Q1010","temp":28,"dewp":25,"wdir":90,"wspd":9,"visib":"6+","altim":1010,"clouds":[{"cover":"SCT","base":1300},{"cover":"BKN","base":1800},{"cover":"OVC","base":8000}],"obsTime":1776517200},"SBEG":{"icaoId":"SBEG","flightCategory":"MVFR","rawOb":"METAR SBEG 181300Z 26007KT 9999 BKN010 SCT100 27/24 Q1011","temp":27,"dewp":24,"wdir":260,"wspd":7,"visib":"6+","altim":1011,"clouds":[{"cover":"BKN","base":1000},{"cover":"SCT","base":10000}],"obsTime":1776517200},"SBAT":{"icaoId":"SBAT","flightCategory":"VFR","rawOb":"METAR SBAT 181300Z 00000KT 9999 SCT015 SCT100 27/26 Q1012","temp":27,"dewp":26,"wdir":0,"wspd":0,"visib":"6+","altim":1012,"clouds":[{"cover":"SCT","base":1500},{"cover":"SCT","base":10000}],"obsTime":1776517200},"SBBE":{"icaoId":"SBBE","flightCategory":"MVFR","rawOb":"METAR SBBE 181300Z 06006KT 9999 BKN019 29/25 Q1009","temp":29,"dewp":25,"wdir":60,"wspd":6,"visib":"6+","altim":1009,"clouds":[{"cover":"BKN","base":1900}],"obsTime":1776517200},"SBBR":{"icaoId":"SBBR","flightCategory":"VFR","rawOb":"METAR SBBR 181300Z 10007KT 9999 FEW030 25/18 Q1017","temp":25,"dewp":18,"wdir":100,"wspd":7,"visib":"6+","altim":1017,"clouds":[{"cover":"FEW","base":3000}],"obsTime":1776517200},"SBBV":{"icaoId":"SBBV","flightCategory":"VFR","rawOb":"METAR SBBV 181300Z 09011KT 9999 FEW025 BKN070 28/22 Q1011","temp":28,"dewp":22,"wdir":90,"wspd":11,"visib":"6+","altim":1011,"clouds":[{"cover":"FEW","base":2500},{"cover":"BKN","base":7000}],"obsTime":1776517200},"SBCB":{"icaoId":"SBCB","flightCategory":"VFR","rawOb":"METAR SBCB 181300Z 08003KT 9999 FEW025 28/23 Q1010","temp":28,"dewp":23,"wdir":80,"wspd":3,"visib":"6+","altim":1010,"clouds":[{"cover":"FEW","base":2500}],"obsTime":1776517200},"SBCF":{"icaoId":"SBCF","flightCategory":"VFR","rawOb":"METAR SBCF 181300Z 04003KT 330V110 CAVOK 25/17 Q1016","temp":25,"dewp":17,"wdir":40,"wspd":3,"visib":"6+","altim":1016,"clouds":[],"obsTime":1776517200},"SBCG":{"icaoId":"SBCG","flightCategory":"VFR","rawOb":"METAR SBCG 181300Z 28004KT 220V310 9999 SCT016 27/23 Q1013","temp":27,"dewp":23,"wdir":280,"wspd":4,"visib":"6+","altim":1013,"clouds":[{"cover":"SCT","base":1600}],"obsTime":1776517200},"SBCP":{"icaoId":"SBCP","flightCategory":"VFR","rawOb":"METAR SBCP 181300Z 32010KT CAVOK 27/21 Q1009","temp":27,"dewp":21,"wdir":320,"wspd":10,"visib":"6+","altim":1009,"clouds":[],"obsTime":1776517200},"SBCR":{"icaoId":"SBCR","flightCategory":"VFR","rawOb":"METAR SBCR 181300Z 30003KT 210V350 9999 SCT040 28/23 Q1010","temp":28,"dewp":23,"wdir":300,"wspd":3,"visib":"6+","altim":1010,"clouds":[{"cover":"SCT","base":4000}],"obsTime":1776517200},"SBCT":{"icaoId":"SBCT","flightCategory":"VFR","rawOb":"METAR SBCT 181300Z 25005KT 200V300 9999 FEW025 23/17 Q1014","temp":23,"dewp":17,"wdir":250,"wspd":5,"visib":"6+","altim":1014,"clouds":[{"cover":"FEW","base":2500}],"obsTime":1776517200},"SBCZ":{"icaoId":"SBCZ","flightCategory":"VFR","rawOb":"METAR SBCZ 181300Z VRB02KT 9999 SCT003 SCT010 BKN080 24/24 Q1011","temp":24,"dewp":24,"wdir":"VRB","wspd":2,"visib":"6+","altim":1011,"clouds":[{"cover":"SCT","base":300},{"cover":"SCT","base":1000},{"cover":"BKN","base":8000}],"obsTime":1776517200},"SBFI":{"icaoId":"SBFI","flightCategory":"VFR","rawOb":"METAR SBFI 181300Z 11005KT CAVOK 23/19 Q1012","temp":23,"dewp":19,"wdir":110,"wspd":5,"visib":"6+","altim":1012,"clouds":[],"obsTime":1776517200},"SBFL":{"icaoId":"SBFL","flightCategory":"VFR","rawOb":"METAR SBFL 181300Z 32005KT 9999 FEW030 27/21 Q1008","temp":27,"dewp":21,"wdir":320,"wspd":5,"visib":"6+","altim":1008,"clouds":[{"cover":"FEW","base":3000}],"obsTime":1776517200},"SBFZ":{"icaoId":"SBFZ","flightCategory":"MVFR","rawOb":"METAR SBFZ 181300Z 11015KT 9999 BKN017 30/24 Q1008","temp":30,"dewp":24,"wdir":110,"wspd":15,"visib":"6+","altim":1008,"clouds":[{"cover":"BKN","base":1700}],"obsTime":1776517200},"SBGL":{"icaoId":"SBGL","flightCategory":"VFR","rawOb":"METAR SBGL 181300Z 20002KT 9000 NSC 27/20 Q1009","temp":27,"dewp":20,"wdir":200,"wspd":2,"visib":5.59,"altim":1009,"clouds":[],"obsTime":1776517200},"SBGO":{"icaoId":"SBGO","flightCategory":"VFR","rawOb":"METAR SBGO 181300Z 12002KT 9999 FEW030 26/21 Q1015","temp":26,"dewp":21,"wdir":120,"wspd":2,"visib":"6+","altim":1015,"clouds":[{"cover":"FEW","base":3000}],"obsTime":1776517200},"SBGR":{"icaoId":"SBGR","flightCategory":"VFR","rawOb":"METAR SBGR 181300Z 28009KT 9999 VCSH FEW049 FEW050TCU 23/17 Q1014","temp":23,"dewp":17,"wdir":280,"wspd":9,"visib":"6+","altim":1014,"clouds":[{"cover":"FEW","base":4900},{"cover":"FEW","base":5000}],"obsTime":1776517200},"SBHT":{"icaoId":"SBHT","flightCategory":"MVFR","rawOb":"METAR SBHT 181300Z 09006KT 9999 BKN015 BKN080 27/25 Q1010","temp":27,"dewp":25,"wdir":90,"wspd":6,"visib":"6+","altim":1010,"clouds":[{"cover":"BKN","base":1500},{"cover":"BKN","base":8000}],"obsTime":1776517200},"SBIL":{"icaoId":"SBIL","flightCategory":"VFR","rawOb":"METAR SBIL 181300Z 10004KT 060V150 9999 SCT023 30/24 Q1012","temp":30,"dewp":24,"wdir":100,"wspd":4,"visib":"6+","altim":1012,"clouds":[{"cover":"SCT","base":2300}],"obsTime":1776517200},"SBJU":{"icaoId":"SBJU","flightCategory":"VFR","rawOb":"METAR SBJU 181300Z 16005KT 9999 SCT020 28/22 Q1012","temp":28,"dewp":22,"wdir":160,"wspd":5,"visib":"6+","altim":1012,"clouds":[{"cover":"SCT","base":2000}],"obsTime":1776517200},"SBKP":{"icaoId":"SBKP","flightCategory":"VFR","rawOb":"METAR SBKP 181300Z 11006KT 080V140 9999 FEW040 BKN060 23/17 Q1014","temp":23,"dewp":17,"wdir":110,"wspd":6,"visib":"6+","altim":1014,"clouds":[{"cover":"FEW","base":4000},{"cover":"BKN","base":6000}],"obsTime":1776517200},"SBLO":{"icaoId":"SBLO","flightCategory":"VFR","rawOb":"METAR SBLO 181300Z 28004KT 210V340 9999 FEW025 27/21 Q1012","temp":27,"dewp":21,"wdir":280,"wspd":4,"visib":"6+","altim":1012,"clouds":[{"cover":"FEW","base":2500}],"obsTime":1776517200},"SBMA":{"icaoId":"SBMA","flightCategory":"MVFR","rawOb":"METAR SBMA 181300Z 22007KT 5000 -RA BR SCT006 BKN012 FEW020TCU OVC080 25/24 Q1011","temp":25,"dewp":24,"wdir":220,"wspd":7,"visib":3.11,"altim":1011,"clouds":[{"cover":"SCT","base":600},{"cover":"BKN","base":1200},{"cover":"FEW","base":2000},{"cover":"OVC","base":8000}],"obsTime":1776517200},"SBME":{"icaoId":"SBME","flightCategory":"VFR","rawOb":"METAR SBME 181300Z 17003KT CAVOK 30/22 Q1009","temp":30,"dewp":22,"wdir":170,"wspd":3,"visib":"6+","altim":1009,"clouds":[],"obsTime":1776517200},"SBMG":{"icaoId":"SBMG","flightCategory":"VFR","rawOb":"METAR SBMG 181300Z VRB03KT 9999 FEW005 25/21 Q1012","temp":25,"dewp":21,"wdir":"VRB","wspd":3,"visib":"6+","altim":1012,"clouds":[{"cover":"FEW","base":500}],"obsTime":1776517200},"SBMK":{"icaoId":"SBMK","flightCategory":"VFR","rawOb":"METAR SBMK 181300Z 06004KT 9999 FEW040 27/18 Q1015","temp":27,"dewp":18,"wdir":60,"wspd":4,"visib":"6+","altim":1015,"clouds":[{"cover":"FEW","base":4000}],"obsTime":1776517200},"SBMO":{"icaoId":"SBMO","flightCategory":"MVFR","rawOb":"METAR SBMO 181300Z 17006KT 9999 VCSH BKN020 SCT060 28/26 Q1010","temp":28,"dewp":26,"wdir":170,"wspd":6,"visib":"6+","altim":1010,"clouds":[{"cover":"BKN","base":2000},{"cover":"SCT","base":6000}],"obsTime":1776517200},"SBMQ":{"icaoId":"SBMQ","flightCategory":"MVFR","rawOb":"METAR SBMQ 181300Z COR 02012KT 9999 BKN015 BKN025 28/25 Q1010","temp":28,"dewp":25,"wdir":20,"wspd":12,"visib":"6+","altim":1010,"clouds":[{"cover":"BKN","base":1500},{"cover":"BKN","base":2500}],"obsTime":1776517200},"SBNT":{"icaoId":"SBNT","flightCategory":"MVFR","rawOb":"METAR SBNT 181300Z 12014KT 9999 VCSH SCT017 BKN029 FEW030TCU BKN080 30/24 Q1009","temp":30,"dewp":24,"wdir":120,"wspd":14,"visib":"6+","altim":1009,"clouds":[{"cover":"SCT","base":1700},{"cover":"BKN","base":2900},{"cover":"FEW","base":3000},{"cover":"BKN","base":8000}],"obsTime":1776517200},"SBPA":{"icaoId":"SBPA","flightCategory":"VFR","rawOb":"METAR SBPA 181300Z 27012KT 9999 SCT019 22/17 Q1010","temp":22,"dewp":17,"wdir":270,"wspd":12,"visib":"6+","altim":1010,"clouds":[{"cover":"SCT","base":1900}],"obsTime":1776517200},"SBPJ":{"icaoId":"SBPJ","flightCategory":"VFR","rawOb":"METAR SBPJ 181300Z 35009KT 9999 FEW006 SCT016 BKN050 26/23 Q1013","temp":26,"dewp":23,"wdir":350,"wspd":9,"visib":"6+","altim":1013,"clouds":[{"cover":"FEW","base":600},{"cover":"SCT","base":1600},{"cover":"BKN","base":5000}],"obsTime":1776517200},"SBPV":{"icaoId":"SBPV","flightCategory":"VFR","rawOb":"METAR SBPV 181300Z 00000KT 9999 FEW004 25/24 Q1010","temp":25,"dewp":24,"wdir":0,"wspd":0,"visib":"6+","altim":1010,"clouds":[{"cover":"FEW","base":400}],"obsTime":1776517200},"SBRB":{"icaoId":"SBRB","flightCategory":"VFR","rawOb":"METAR SBRB 181300Z 30002KT 9999 SCT007 SCT100 27/25 Q1011","temp":27,"dewp":25,"wdir":300,"wspd":2,"visib":"6+","altim":1011,"clouds":[{"cover":"SCT","base":700},{"cover":"SCT","base":10000}],"obsTime":1776517200},"SBRF":{"icaoId":"SBRF","flightCategory":"VFR","rawOb":"METAR SBRF 181300Z 12011KT 9999 SCT022 30/25 Q1009","temp":30,"dewp":25,"wdir":120,"wspd":11,"visib":"6+","altim":1009,"clouds":[{"cover":"SCT","base":2200}],"obsTime":1776517200},"SBSG":{"icaoId":"SBSG","flightCategory":"MVFR","rawOb":"METAR SBSG 181300Z 13005KT 090V180 9999 VCSH BKN013 SCT030 FEW033TCU 27/26 Q1009","temp":27,"dewp":26,"wdir":130,"wspd":5,"visib":"6+","altim":1009,"clouds":[{"cover":"BKN","base":1300},{"cover":"SCT","base":3000},{"cover":"FEW","base":3300}],"obsTime":1776517200},"SBSL":{"icaoId":"SBSL","flightCategory":"MVFR","rawOb":"METAR SBSL 181300Z 11008KT 9999 BKN020 29/25 Q1008","temp":29,"dewp":25,"wdir":110,"wspd":8,"visib":"6+","altim":1008,"clouds":[{"cover":"BKN","base":2000}],"obsTime":1776517200},"SBSP":{"icaoId":"SBSP","flightCategory":"VFR","rawOb":"METAR SBSP 181300Z 33013KT CAVOK 24/17 Q1015","temp":24,"dewp":17,"wdir":330,"wspd":13,"visib":"6+","altim":1015,"clouds":[],"obsTime":1776517200},"SBSV":{"icaoId":"SBSV","flightCategory":"VFR","rawOb":"METAR SBSV 181300Z 10007KT 070V170 9999 SCT023 30/23 Q1011","temp":30,"dewp":23,"wdir":100,"wspd":7,"visib":"6+","altim":1011,"clouds":[{"cover":"SCT","base":2300}],"obsTime":1776517200},"SBTE":{"icaoId":"SBTE","flightCategory":"MVFR","rawOb":"METAR SBTE 181300Z 00000KT 9999 BKN020 29/24 Q1009","temp":29,"dewp":24,"wdir":0,"wspd":0,"visib":"6+","altim":1009,"clouds":[{"cover":"BKN","base":2000}],"obsTime":1776517200},"SBUL":{"icaoId":"SBUL","flightCategory":"VFR","rawOb":"METAR SBUL 181300Z 10005KT CAVOK 25/16 Q1016","temp":25,"dewp":16,"wdir":100,"wspd":5,"visib":"6+","altim":1016,"clouds":[],"obsTime":1776517200},"SBUR":{"icaoId":"SBUR","flightCategory":"VFR","rawOb":"METAR SBUR 181300Z 24002KT CAVOK 27/17 Q1015","temp":27,"dewp":17,"wdir":240,"wspd":2,"visib":"6+","altim":1015,"clouds":[],"obsTime":1776517200},"SBVT":{"icaoId":"SBVT","flightCategory":"VFR","rawOb":"METAR SBVT 181300Z 02007KT CAVOK 29/22 Q1010","temp":29,"dewp":22,"wdir":20,"wspd":7,"visib":"6+","altim":1010,"clouds":[],"obsTime":1776517200},"SBBH":{"icaoId":"SBBH","flightCategory":"VFR","rawOb":"METAR SBBH 181300Z 08002KT CAVOK 25/17 Q1015","temp":25,"dewp":17,"wdir":80,"wspd":2,"visib":"6+","altim":1015,"clouds":[],"obsTime":1776517200},"SBCC":{"icaoId":"SBCC","flightCategory":"VFR","rawOb":"METAR SBCC 181300Z 14004KT 9999 SCT020 26/22 Q1013","temp":26,"dewp":22,"wdir":140,"wspd":4,"visib":"6+","altim":1013,"clouds":[{"cover":"SCT","base":2000}],"obsTime":1776517200},"SBAR":{"icaoId":"SBAR","flightCategory":"VFR","rawOb":"METAR SBAR 181300Z 13008KT 9999 SCT025 30/23 Q1010","temp":30,"dewp":23,"wdir":130,"wspd":8,"visib":"6+","altim":1010,"clouds":[{"cover":"SCT","base":2500}],"obsTime":1776517200},"SBOI":{"icaoId":"SBOI","flightCategory":"VFR","rawOb":"METAR SBOI 181300Z AUTO 06006KT 030V100 9999 FEW021 BKN038 27/23 Q1011","temp":27,"dewp":23,"wdir":60,"wspd":6,"visib":"6+","altim":1011,"clouds":[{"cover":"FEW","base":2100},{"cover":"BKN","base":3800}],"obsTime":1776517200},"SBPB":{"icaoId":"SBPB","flightCategory":"MVFR","rawOb":"METAR SBPB 181300Z 08012KT 9999 BKN018 BKN100 31/25 Q1008","temp":31,"dewp":25,"wdir":80,"wspd":12,"visib":"6+","altim":1008,"clouds":[{"cover":"BKN","base":1800},{"cover":"BKN","base":10000}],"obsTime":1776517200},"SBKG":{"icaoId":"SBKG","flightCategory":"MVFR","rawOb":"METAR SBKG 181300Z 11009KT 9999 BKN015 27/22 Q1012","temp":27,"dewp":22,"wdir":110,"wspd":9,"visib":"6+","altim":1012,"clouds":[{"cover":"BKN","base":1500}],"obsTime":1776517200},"SBCJ":{"icaoId":"SBCJ","flightCategory":"LIFR","rawOb":"METAR SBCJ 181300Z 13007KT 0800 -RA FG VV001 21/20 Q1015","temp":21,"dewp":20,"wdir":130,"wspd":7,"visib":0.5,"altim":1015,"clouds":[{"cover":"OVX","base":100}],"obsTime":1776517200},"SBPL":{"icaoId":"SBPL","flightCategory":"VFR","rawOb":"METAR SBPL 181300Z 10010KT 9999 SCT030 30/21 Q1012","temp":30,"dewp":21,"wdir":100,"wspd":10,"visib":"6+","altim":1012,"clouds":[{"cover":"SCT","base":3000}],"obsTime":1776517200},"SBPP":{"icaoId":"SBPP","flightCategory":"VFR","rawOb":"METAR SBPP 181300Z 06005KT 9999 SCT015 25/21 Q1014","temp":25,"dewp":21,"wdir":60,"wspd":5,"visib":"6+","altim":1014,"clouds":[{"cover":"SCT","base":1500}],"obsTime":1776517200},"SBAX":{"icaoId":"SBAX","flightCategory":"VFR","rawOb":"METAR SBAX 181300Z AUTO 36005KT 320V050 CAVOK 24/16 Q1016","temp":24,"dewp":16,"wdir":360,"wspd":5,"visib":"6+","altim":1016,"clouds":[],"obsTime":1776517200},"SBCO":{"icaoId":"SBCO","flightCategory":"MVFR","rawOb":"METAR SBCO 181300Z 28011KT 250V310 9999 BKN020 22/16 Q1010","temp":22,"dewp":16,"wdir":280,"wspd":11,"visib":"6+","altim":1010,"clouds":[{"cover":"BKN","base":2000}],"obsTime":1776517200},"SBPS":{"icaoId":"SBPS","flightCategory":"VFR","rawOb":"METAR SBPS 181300Z 35002KT 9999 SCT020 30/22 Q1011","temp":30,"dewp":22,"wdir":350,"wspd":2,"visib":"6+","altim":1011,"clouds":[{"cover":"SCT","base":2000}],"obsTime":1776517200},"SBSC":{"icaoId":"SBSC","flightCategory":"VFR","rawOb":"METAR SBSC 181300Z 03009KT CAVOK 28/21 Q1008","temp":28,"dewp":21,"wdir":30,"wspd":9,"visib":"6+","altim":1008,"clouds":[],"obsTime":1776517200},"SBBQ":{"icaoId":"SBBQ","flightCategory":"VFR","rawOb":"METAR SBBQ 181300Z 27006KT 220V320 CAVOK 22/15 Q1018","temp":22,"dewp":15,"wdir":270,"wspd":6,"visib":"6+","altim":1018,"clouds":[],"obsTime":1776517200},"SBDN":{"icaoId":"SBDN","flightCategory":"VFR","rawOb":"METAR SBDN 181300Z 00000KT CAVOK 29/21 Q1012","temp":29,"dewp":21,"wdir":0,"wspd":0,"visib":"6+","altim":1012,"clouds":[],"obsTime":1776517200},"SBSJ":{"icaoId":"SBSJ","flightCategory":"VFR","rawOb":"METAR SBSJ 181300Z VRB01KT 9999 FEW020 BKN100 22/17 Q1013","temp":22,"dewp":17,"wdir":"VRB","wspd":1,"visib":"6+","altim":1013,"clouds":[{"cover":"FEW","base":2000},{"cover":"BKN","base":10000}],"obsTime":1776517200},"SBSM":{"icaoId":"SBSM","flightCategory":"VFR","rawOb":"METAR SBSM 181300Z VRB02KT CAVOK 22/16 Q1012","temp":22,"dewp":16,"wdir":"VRB","wspd":2,"visib":"6+","altim":1012,"clouds":[],"obsTime":1776517200},"SBAU":{"icaoId":"SBAU","flightCategory":"VFR","rawOb":"METAR SBAU 181300Z 27005KT CAVOK 30/20 Q1012","temp":30,"dewp":20,"wdir":270,"wspd":5,"visib":"6+","altim":1012,"clouds":[],"obsTime":1776517200},"SBSR":{"icaoId":"SBSR","flightCategory":"VFR","rawOb":"METAR SBSR 181300Z VRB02KT CAVOK 29/17 Q1013","temp":29,"dewp":17,"wdir":"VRB","wspd":2,"visib":"6+","altim":1013,"clouds":[],"obsTime":1776517200},"SBBU":{"icaoId":"SBBU","flightCategory":"VFR","rawOb":"METAR SBBU 181300Z 31002KT CAVOK 30/21 Q1013","temp":30,"dewp":21,"wdir":310,"wspd":2,"visib":"6+","altim":1013,"clouds":[],"obsTime":1776517200},"SBTF":{"icaoId":"SBTF","flightCategory":"VFR","rawOb":"METAR SBTF 181300Z 36005KT 9999 SCT007 SCT090 27/25 Q1011","temp":27,"dewp":25,"wdir":360,"wspd":5,"visib":"6+","altim":1011,"clouds":[{"cover":"SCT","base":700},{"cover":"SCT","base":9000}],"obsTime":1776517200},"SBES":{"icaoId":"SBES","flightCategory":"VFR","rawOb":"METAR SBES 181300Z VRB03KT 9999 FEW020 SCT100 27/// Q1009","temp":null,"dewp":null,"wdir":"VRB","wspd":3,"visib":"6+","altim":1009,"clouds":[{"cover":"FEW","base":2000},{"cover":"SCT","base":10000}],"obsTime":1776517200},"SBGM":{"icaoId":"SBGM","flightCategory":"LIFR","rawOb":"METAR SBGM 181300Z 31004KT 1000 FU OVC010 25/23 Q1011","temp":25,"dewp":23,"wdir":310,"wspd":4,"visib":0.62,"altim":1011,"clouds":[{"cover":"OVC","base":1000}],"obsTime":1776517200},"SBTT":{"icaoId":"SBTT","flightCategory":"MVFR","rawOb":"METAR SBTT 181300Z 15003KT 9999 SCT007 BKN025 BKN100 24/22 Q1012","temp":24,"dewp":22,"wdir":150,"wspd":3,"visib":"6+","altim":1012,"clouds":[{"cover":"SCT","base":700},{"cover":"BKN","base":2500},{"cover":"BKN","base":10000}],"obsTime":1776517200},"SBCA":{"icaoId":"SBCA","flightCategory":"VFR","rawOb":"METAR SBCA 181300Z 21003KT 160V310 9999 FEW040 22/18 Q1015","temp":22,"dewp":18,"wdir":210,"wspd":3,"visib":"6+","altim":1015,"clouds":[{"cover":"FEW","base":4000}],"obsTime":1776517200},"SBUY":{"icaoId":"SBUY","flightCategory":"IFR","rawOb":"METAR SBUY 181300Z COR 04003KT 4000 BR BKN005 BKN080 24/24 Q1010","temp":24,"dewp":24,"wdir":40,"wspd":3,"visib":2.49,"altim":1010,"clouds":[{"cover":"BKN","base":500},{"cover":"BKN","base":8000}],"obsTime":1776517200},"SBVH":{"icaoId":"SBVH","flightCategory":"VFR","rawOb":"METAR SBVH 181300Z 33004KT CAVOK 25/22 Q1013","temp":25,"dewp":22,"wdir":330,"wspd":4,"visib":"6+","altim":1013,"clouds":[],"obsTime":1776517200},"SBIP":{"icaoId":"SBIP","flightCategory":"VFR","rawOb":"METAR SBIP 181300Z AUTO 36004KT 290V080 9999 FEW017 26/20 Q1013","temp":26,"dewp":20,"wdir":360,"wspd":4,"visib":"6+","altim":1013,"clouds":[{"cover":"FEW","base":1700}],"obsTime":1776517200},"SBLS":{"icaoId":"SBLS","flightCategory":"VFR","rawOb":"METAR SBLS 181300Z VRB04KT 9999 FEW030 24/16 Q1015","temp":24,"dewp":16,"wdir":"VRB","wspd":4,"visib":"6+","altim":1015,"clouds":[{"cover":"FEW","base":3000}],"obsTime":1776517200},"SBMT":{"icaoId":"SBMT","flightCategory":"VFR","rawOb":"METAR SBMT 181300Z 34005KT 290V030 9999 SCT042 FEW045TCU 23/16 Q1014","temp":23,"dewp":16,"wdir":340,"wspd":5,"visib":"6+","altim":1014,"clouds":[{"cover":"SCT","base":4200},{"cover":"FEW","base":4500}],"obsTime":1776517200},"SBPF":{"icaoId":"SBPF","flightCategory":"VFR","rawOb":"METAR SBPF 181300Z 22005KT 9999 FEW025 19/14 Q1014","temp":19,"dewp":14,"wdir":220,"wspd":5,"visib":"6+","altim":1014,"clouds":[{"cover":"FEW","base":2500}],"obsTime":1776517200},"SBST":{"icaoId":"SBST","flightCategory":"VFR","rawOb":"METAR SBST 181300Z 31002KT CAVOK 27/22 Q1008","temp":27,"dewp":22,"wdir":310,"wspd":2,"visib":"6+","altim":1008,"clouds":[],"obsTime":1776517200},"SBTA":{"icaoId":"SBTA","flightCategory":"VFR","rawOb":"METAR SBTA 181300Z VRB03KT CAVOK 24/17 Q1012","temp":24,"dewp":17,"wdir":"VRB","wspd":3,"visib":"6+","altim":1012,"clouds":[],"obsTime":1776517200},"SBLE":{"icaoId":"SBLE","flightCategory":"MVFR","rawOb":"METAR SBLE 181300Z AUTO VRB02KT 9999 FEW017 OVC023 24/23 Q1014","temp":24,"dewp":23,"wdir":"VRB","wspd":2,"visib":"6+","altim":1014,"clouds":[{"cover":"FEW","base":1700},{"cover":"OVC","base":2300}],"obsTime":1776517200},"SBIH":{"icaoId":"SBIH","flightCategory":"VFR","rawOb":"METAR SBIH 181300Z 26005KT 9999 SCT015 29/25 Q1010","temp":29,"dewp":25,"wdir":260,"wspd":5,"visib":"6+","altim":1010,"clouds":[{"cover":"SCT","base":1500}],"obsTime":1776517200},"SBAF":{"icaoId":"SBAF","flightCategory":"VFR","rawOb":"METAR SBAF 181300Z 20002KT CAVOK 27/22 Q1009","temp":27,"dewp":22,"wdir":200,"wspd":2,"visib":"6+","altim":1009,"clouds":[],"obsTime":1776517200},"SBJP":{"icaoId":"SBJP","flightCategory":"MVFR","rawOb":"METAR SBJP 181300Z 12011KT 9999 BKN020 31/23 Q1009","temp":31,"dewp":23,"wdir":120,"wspd":11,"visib":"6+","altim":1009,"clouds":[{"cover":"BKN","base":2000}],"obsTime":1776517200},"SBAN":{"icaoId":"SBAN","flightCategory":"VFR","rawOb":"METAR SBAN 181300Z 19007KT 9999 SCT030 25/19 Q1017","temp":25,"dewp":19,"wdir":190,"wspd":7,"visib":"6+","altim":1017,"clouds":[{"cover":"SCT","base":3000}],"obsTime":1776517200},"SBGW":{"icaoId":"SBGW","flightCategory":"VFR","rawOb":"METAR SBGW 181300Z 36003KT 280V060 CAVOK 26/16 Q1012","temp":26,"dewp":16,"wdir":360,"wspd":3,"visib":"6+","altim":1012,"clouds":[],"obsTime":1776517200},"SBJR":{"icaoId":"SBJR","flightCategory":"VFR","rawOb":"METAR SBJR 181300Z 00000KT CAVOK 29/21 Q1008","temp":29,"dewp":21,"wdir":0,"wspd":0,"visib":"6+","altim":1008,"clouds":[],"obsTime":1776517200},"SBJV":{"icaoId":"SBJV","flightCategory":"VFR","rawOb":"METAR SBJV 181300Z 18001KT 9999 FEW015 SCT100 28/23 Q1009","temp":28,"dewp":23,"wdir":180,"wspd":1,"visib":"6+","altim":1009,"clouds":[{"cover":"FEW","base":1500},{"cover":"SCT","base":10000}],"obsTime":1776517200}}}