{"updated":1775491453,"count":85,"data":{"SBVT":{"icaoId":"SBVT","flightCategory":"VFR","rawOb":"METAR SBVT 061500Z 06008KT 040V110 9999 FEW030 30/22 Q1016","temp":30,"dewp":22,"wdir":60,"wspd":8,"visib":"6+","altim":1016,"clouds":[{"cover":"FEW","base":3000}],"obsTime":1775487600},"SBCB":{"icaoId":"SBCB","flightCategory":"VFR","rawOb":"METAR SBCB 061500Z COR 08006KT 050V110 9999 FEW025 29/22 Q1017","temp":29,"dewp":22,"wdir":80,"wspd":6,"visib":"6+","altim":1017,"clouds":[{"cover":"FEW","base":2500}],"obsTime":1775487600},"SBMA":{"icaoId":"SBMA","flightCategory":"MVFR","rawOb":"METAR SBMA 061500Z 22005KT 9999 BKN020 BKN080 29/25 Q1014","temp":29,"dewp":25,"wdir":220,"wspd":5,"visib":"6+","altim":1014,"clouds":[{"cover":"BKN","base":2000},{"cover":"BKN","base":8000}],"obsTime":1775487600},"SBEG":{"icaoId":"SBEG","flightCategory":"VFR","rawOb":"METAR SBEG 061500Z 07006KT 360V110 9999 SCT025 32/24 Q1012","temp":32,"dewp":24,"wdir":70,"wspd":6,"visib":"6+","altim":1012,"clouds":[{"cover":"SCT","base":2500}],"obsTime":1775487600},"SBFI":{"icaoId":"SBFI","flightCategory":"VFR","rawOb":"METAR SBFI 061500Z 02010KT 9999 FEW025 32/22 Q1014","temp":32,"dewp":22,"wdir":20,"wspd":10,"visib":"6+","altim":1014,"clouds":[{"cover":"FEW","base":2500}],"obsTime":1775487600},"SBCT":{"icaoId":"SBCT","flightCategory":"VFR","rawOb":"METAR SBCT 061500Z 07010KT 030V100 9999 FEW020 BKN035 23/18 Q1022","temp":23,"dewp":18,"wdir":70,"wspd":10,"visib":"6+","altim":1022,"clouds":[{"cover":"FEW","base":2000},{"cover":"BKN","base":3500}],"obsTime":1775487600},"SBKP":{"icaoId":"SBKP","flightCategory":"VFR","rawOb":"METAR SBKP 061500Z 12005KT 050V200 9999 SCT040 30/20 Q1019","temp":30,"dewp":20,"wdir":120,"wspd":5,"visib":"6+","altim":1019,"clouds":[{"cover":"SCT","base":4000}],"obsTime":1775487600},"SBBE":{"icaoId":"SBBE","flightCategory":"MVFR","rawOb":"METAR SBBE 061500Z 12006KT 9999 BKN024 FEW030TCU BKN035 28/25 Q1013","temp":28,"dewp":25,"wdir":120,"wspd":6,"visib":"6+","altim":1013,"clouds":[{"cover":"BKN","base":2400},{"cover":"FEW","base":3000},{"cover":"BKN","base":3500}],"obsTime":1775487600},"SBLO":{"icaoId":"SBLO","flightCategory":"VFR","rawOb":"METAR SBLO 061500Z 10009KT 070V130 9999 SCT030 28/20 Q1018","temp":28,"dewp":20,"wdir":100,"wspd":9,"visib":"6+","altim":1018,"clouds":[{"cover":"SCT","base":3000}],"obsTime":1775487600},"SBMO":{"icaoId":"SBMO","flightCategory":"VFR","rawOb":"METAR SBMO 061500Z 09008KT 9999 VCSH SCT030 BKN080 30/23 Q1014","temp":30,"dewp":23,"wdir":90,"wspd":8,"visib":"6+","altim":1014,"clouds":[{"cover":"SCT","base":3000},{"cover":"BKN","base":8000}],"obsTime":1775487600},"SBFL":{"icaoId":"SBFL","flightCategory":"IFR","rawOb":"METAR SBFL 061500Z VRB03KT 2000 -RA BR BKN005 BKN013 OVC020 23/23 Q1019","temp":23,"dewp":23,"wdir":"VRB","wspd":3,"visib":1.24,"altim":1019,"clouds":[{"cover":"BKN","base":500},{"cover":"BKN","base":1300},{"cover":"OVC","base":2000}],"obsTime":1775487600},"SBMQ":{"icaoId":"SBMQ","flightCategory":"VFR","rawOb":"METAR SBMQ 061500Z 06005KT 9999 SCT025 FEW035TCU 30/24 Q1013","temp":30,"dewp":24,"wdir":60,"wspd":5,"visib":"6+","altim":1013,"clouds":[{"cover":"SCT","base":2500},{"cover":"FEW","base":3500}],"obsTime":1775487600},"SBCF":{"icaoId":"SBCF","flightCategory":"MVFR","rawOb":"METAR SBCF 061500Z 05004KT 9999 BKN030 27/19 Q1021","temp":27,"dewp":19,"wdir":50,"wspd":4,"visib":"6+","altim":1021,"clouds":[{"cover":"BKN","base":3000}],"obsTime":1775487600},"SBPA":{"icaoId":"SBPA","flightCategory":"VFR","rawOb":"METAR SBPA 061500Z 11011KT 9999 FEW030 SCT100 26/19 Q1017","temp":26,"dewp":19,"wdir":110,"wspd":11,"visib":"6+","altim":1017,"clouds":[{"cover":"FEW","base":3000},{"cover":"SCT","base":10000}],"obsTime":1775487600},"SBPJ":{"icaoId":"SBPJ","flightCategory":"VFR","rawOb":"METAR SBPJ 061500Z 01003KT 330V060 9999 VCSH FEW010 SCT030 BKN043 27/24 Q1015","temp":27,"dewp":24,"wdir":10,"wspd":3,"visib":"6+","altim":1015,"clouds":[{"cover":"FEW","base":1000},{"cover":"SCT","base":3000},{"cover":"BKN","base":4300}],"obsTime":1775487600},"SBFZ":{"icaoId":"SBFZ","flightCategory":"MVFR","rawOb":"METAR SBFZ 061500Z 10010KT 9999 BKN020 31/25 Q1012","temp":31,"dewp":25,"wdir":100,"wspd":10,"visib":"6+","altim":1012,"clouds":[{"cover":"BKN","base":2000}],"obsTime":1775487600},"SBCG":{"icaoId":"SBCG","flightCategory":"VFR","rawOb":"METAR SBCG 061500Z 02008KT 330V060 9999 FEW035 30/19 Q1016","temp":30,"dewp":19,"wdir":20,"wspd":8,"visib":"6+","altim":1016,"clouds":[{"cover":"FEW","base":3500}],"obsTime":1775487600},"SBPV":{"icaoId":"SBPV","flightCategory":"VFR","rawOb":"METAR SBPV 061500Z 07005KT 9999 SCT020 30/24 Q1012","temp":30,"dewp":24,"wdir":70,"wspd":5,"visib":"6+","altim":1012,"clouds":[{"cover":"SCT","base":2000}],"obsTime":1775487600},"SBGL":{"icaoId":"SBGL","flightCategory":"VFR","rawOb":"METAR SBGL 061500Z 12006KT 9999 FEW026 30/23 Q1016","temp":30,"dewp":23,"wdir":120,"wspd":6,"visib":"6+","altim":1016,"clouds":[{"cover":"FEW","base":2600}],"obsTime":1775487600},"SBRB":{"icaoId":"SBRB","flightCategory":"MVFR","rawOb":"METAR SBRB 061500Z 20002KT 9999 BKN020 SCT100 29/25 Q1013","temp":29,"dewp":25,"wdir":200,"wspd":2,"visib":"6+","altim":1013,"clouds":[{"cover":"BKN","base":2000},{"cover":"SCT","base":10000}],"obsTime":1775487600},"SBBR":{"icaoId":"SBBR","flightCategory":"MVFR","rawOb":"METAR SBBR 061500Z 07010KT 9999 BKN030 27/18 Q1021","temp":27,"dewp":18,"wdir":70,"wspd":10,"visib":"6+","altim":1021,"clouds":[{"cover":"BKN","base":3000}],"obsTime":1775487600},"SBRF":{"icaoId":"SBRF","flightCategory":"VFR","rawOb":"METAR SBRF 061500Z 15009KT 9999 SCT023 30/24 Q1013","temp":30,"dewp":24,"wdir":150,"wspd":9,"visib":"6+","altim":1013,"clouds":[{"cover":"SCT","base":2300}],"obsTime":1775487600},"SBGO":{"icaoId":"SBGO","flightCategory":"VFR","rawOb":"METAR SBGO 061500Z 05010KT 9999 SCT040 BKN100 30/20 Q1019","temp":30,"dewp":20,"wdir":50,"wspd":10,"visib":"6+","altim":1019,"clouds":[{"cover":"SCT","base":4000},{"cover":"BKN","base":10000}],"obsTime":1775487600},"SBSG":{"icaoId":"SBSG","flightCategory":"MVFR","rawOb":"METAR SBSG 061500Z 13005KT 090V170 9999 BKN030 FEW035TCU 31/23 Q1012","temp":31,"dewp":23,"wdir":130,"wspd":5,"visib":"6+","altim":1012,"clouds":[{"cover":"BKN","base":3000},{"cover":"FEW","base":3500}],"obsTime":1775487600},"SBCP":{"icaoId":"SBCP","flightCategory":"VFR","rawOb":"METAR SBCP 061500Z 10008KT 9999 SCT020 32/23 Q1016","temp":32,"dewp":23,"wdir":100,"wspd":8,"visib":"6+","altim":1016,"clouds":[{"cover":"SCT","base":2000}],"obsTime":1775487600},"SBSL":{"icaoId":"SBSL","flightCategory":"VFR","rawOb":"METAR SBSL 061500Z 13008KT 9999 SCT015 BKN100 29/24 Q1013","temp":29,"dewp":24,"wdir":130,"wspd":8,"visib":"6+","altim":1013,"clouds":[{"cover":"SCT","base":1500},{"cover":"BKN","base":10000}],"obsTime":1775487600},"SBGR":{"icaoId":"SBGR","flightCategory":"VFR","rawOb":"METAR SBGR 061500Z 04008KT 9999 FEW030 27/19 Q1020","temp":27,"dewp":19,"wdir":40,"wspd":8,"visib":"6+","altim":1020,"clouds":[{"cover":"FEW","base":3000}],"obsTime":1775487600},"SBSN":{"icaoId":"SBSN","flightCategory":"VFR","rawOb":"METAR SBSN 061500Z 08013KT 9999 SCT016 29/25 Q1012","temp":29,"dewp":25,"wdir":80,"wspd":13,"visib":"6+","altim":1012,"clouds":[{"cover":"SCT","base":1600}],"obsTime":1775487600},"SBCR":{"icaoId":"SBCR","flightCategory":"VFR","rawOb":"METAR SBCR 061500Z 04006KT 320V090 CAVOK 31/22 Q1013","temp":31,"dewp":22,"wdir":40,"wspd":6,"visib":"6+","altim":1013,"clouds":[],"obsTime":1775487600},"SBSP":{"icaoId":"SBSP","flightCategory":"VFR","rawOb":"METAR SBSP 061500Z 09006KT 350V160 9999 FEW030 27/17 Q1021","temp":27,"dewp":17,"wdir":90,"wspd":6,"visib":"6+","altim":1021,"clouds":[{"cover":"FEW","base":3000}],"obsTime":1775487600},"SBSV":{"icaoId":"SBSV","flightCategory":"VFR","rawOb":"METAR SBSV 061500Z 12007KT 090V150 9999 VCSH SCT021 FEW025TCU SCT100 29/23 Q1015","temp":29,"dewp":23,"wdir":120,"wspd":7,"visib":"6+","altim":1015,"clouds":[{"cover":"SCT","base":2100},{"cover":"FEW","base":2500},{"cover":"SCT","base":10000}],"obsTime":1775487600},"SBBV":{"icaoId":"SBBV","flightCategory":"VFR","rawOb":"METAR SBBV 061500Z 07010KT 9999 SCT035 32/22 Q1013","temp":32,"dewp":22,"wdir":70,"wspd":10,"visib":"6+","altim":1013,"clouds":[{"cover":"SCT","base":3500}],"obsTime":1775487600},"SBTE":{"icaoId":"SBTE","flightCategory":"MVFR","rawOb":"METAR SBTE 061500Z 32005KT 9999 BKN018 BKN070 28/24 Q1013","temp":28,"dewp":24,"wdir":320,"wspd":5,"visib":"6+","altim":1013,"clouds":[{"cover":"BKN","base":1800},{"cover":"BKN","base":7000}],"obsTime":1775487600},"SBUL":{"icaoId":"SBUL","flightCategory":"VFR","rawOb":"METAR SBUL 061500Z 06012KT 9999 SCT020 BKN100 27/19 Q1020","temp":27,"dewp":19,"wdir":60,"wspd":12,"visib":"6+","altim":1020,"clouds":[{"cover":"SCT","base":2000},{"cover":"BKN","base":10000}],"obsTime":1775487600},"SBUR":{"icaoId":"SBUR","flightCategory":"VFR","rawOb":"METAR SBUR 061500Z 01009KT 9999 FEW040 28/19 Q1019","temp":28,"dewp":19,"wdir":10,"wspd":9,"visib":"6+","altim":1019,"clouds":[{"cover":"FEW","base":4000}],"obsTime":1775487600},"SBCZ":{"icaoId":"SBCZ","flightCategory":"MVFR","rawOb":"METAR SBCZ 061500Z 24005KT 9999 BKN015 BKN100 27/24 Q1013","temp":27,"dewp":24,"wdir":240,"wspd":5,"visib":"6+","altim":1013,"clouds":[{"cover":"BKN","base":1500},{"cover":"BKN","base":10000}],"obsTime":1775487600},"SBHT":{"icaoId":"SBHT","flightCategory":"MVFR","rawOb":"METAR SBHT 061500Z 12006KT 9999 BKN023 31/25 Q1013","temp":31,"dewp":25,"wdir":120,"wspd":6,"visib":"6+","altim":1013,"clouds":[{"cover":"BKN","base":2300}],"obsTime":1775487600},"SBIL":{"icaoId":"SBIL","flightCategory":"VFR","rawOb":"METAR SBIL 061500Z 16008KT 9999 SCT025 30/26 Q1015","temp":30,"dewp":26,"wdir":160,"wspd":8,"visib":"6+","altim":1015,"clouds":[{"cover":"SCT","base":2500}],"obsTime":1775487600},"SBJU":{"icaoId":"SBJU","flightCategory":"MVFR","rawOb":"METAR SBJU 061500Z 06005KT 9999 BKN020 28/22 Q1016","temp":28,"dewp":22,"wdir":60,"wspd":5,"visib":"6+","altim":1016,"clouds":[{"cover":"BKN","base":2000}],"obsTime":1775487600},"SBME":{"icaoId":"SBME","flightCategory":"VFR","rawOb":"METAR SBME 061500Z 14007KT 9999 FEW025 28/23 Q1017","temp":28,"dewp":23,"wdir":140,"wspd":7,"visib":"6+","altim":1017,"clouds":[{"cover":"FEW","base":2500}],"obsTime":1775487600},"SBMG":{"icaoId":"SBMG","flightCategory":"VFR","rawOb":"METAR SBMG 061500Z 07008KT 030V090 9999 FEW030 30/19 Q1016","temp":30,"dewp":19,"wdir":70,"wspd":8,"visib":"6+","altim":1016,"clouds":[{"cover":"FEW","base":3000}],"obsTime":1775487600},"SBMK":{"icaoId":"SBMK","flightCategory":"VFR","rawOb":"METAR SBMK 061500Z 10005KT 9999 BKN035 29/19 Q1019","temp":29,"dewp":19,"wdir":100,"wspd":5,"visib":"6+","altim":1019,"clouds":[{"cover":"BKN","base":3500}],"obsTime":1775487600},"SBAT":{"icaoId":"SBAT","flightCategory":"VFR","rawOb":"METAR SBAT 061500Z 13006KT 9999 FEW025 32/24 Q1014","temp":32,"dewp":24,"wdir":130,"wspd":6,"visib":"6+","altim":1014,"clouds":[{"cover":"FEW","base":2500}],"obsTime":1775487600},"SBNT":{"icaoId":"SBNT","flightCategory":"VFR","rawOb":"METAR SBNT 061500Z 15009KT 110V190 9999 SCT040 SCT100 32/21 Q1012","temp":32,"dewp":21,"wdir":150,"wspd":9,"visib":"6+","altim":1012,"clouds":[{"cover":"SCT","base":4000},{"cover":"SCT","base":10000}],"obsTime":1775487600},"SBSJ":{"icaoId":"SBSJ","flightCategory":"VFR","rawOb":"METAR SBSJ 061500Z VRB03KT 9999 SCT027 28/20 Q1019","temp":28,"dewp":20,"wdir":"VRB","wspd":3,"visib":"6+","altim":1019,"clouds":[{"cover":"SCT","base":2700}],"obsTime":1775487600},"SBPL":{"icaoId":"SBPL","flightCategory":"MVFR","rawOb":"METAR SBPL 061500Z 10006KT 9999 BKN030 30/21 Q1015","temp":30,"dewp":21,"wdir":100,"wspd":6,"visib":"6+","altim":1015,"clouds":[{"cover":"BKN","base":3000}],"obsTime":1775487600},"SBPP":{"icaoId":"SBPP","flightCategory":"VFR","rawOb":"METAR SBPP 061500Z 06013KT 9999 SCT020 29/21 Q1016","temp":29,"dewp":21,"wdir":60,"wspd":13,"visib":"6+","altim":1016,"clouds":[{"cover":"SCT","base":2000}],"obsTime":1775487600},"SBAR":{"icaoId":"SBAR","flightCategory":"VFR","rawOb":"METAR SBAR 061500Z 10009KT 060V150 9999 FEW020 31/23 Q1014","temp":31,"dewp":23,"wdir":100,"wspd":9,"visib":"6+","altim":1014,"clouds":[{"cover":"FEW","base":2000}],"obsTime":1775487600},"SBTD":{"icaoId":"SBTD","flightCategory":"VFR","rawOb":"METAR SBTD 061500Z /////KT 9999 SCT035 29/20 Q1017","temp":29,"dewp":20,"wdir":null,"wspd":null,"visib":"6+","altim":1017,"clouds":[{"cover":"SCT","base":3500}],"obsTime":1775487600},"SBPB":{"icaoId":"SBPB","flightCategory":"VFR","rawOb":"METAR SBPB 061500Z 08009KT 9999 SCT020 30/24 Q1012","temp":30,"dewp":24,"wdir":80,"wspd":9,"visib":"6+","altim":1012,"clouds":[{"cover":"SCT","base":2000}],"obsTime":1775487600},"SBTF":{"icaoId":"SBTF","flightCategory":"VFR","rawOb":"METAR SBTF 061500Z 09004KT 9999 FEW018 32/25 Q1011","temp":32,"dewp":25,"wdir":90,"wspd":4,"visib":"6+","altim":1011,"clouds":[{"cover":"FEW","base":1800}],"obsTime":1775487600},"SBPS":{"icaoId":"SBPS","flightCategory":"VFR","rawOb":"METAR SBPS 061500Z 12008KT 070V160 9999 SCT020 29/24 Q1016","temp":29,"dewp":24,"wdir":120,"wspd":8,"visib":"6+","altim":1016,"clouds":[{"cover":"SCT","base":2000}],"obsTime":1775487600},"SBTT":{"icaoId":"SBTT","flightCategory":"MVFR","rawOb":"METAR SBTT 061500Z 34005KT 300V360 9999 BKN010 BKN100 26/23 Q1014","temp":26,"dewp":23,"wdir":340,"wspd":5,"visib":"6+","altim":1014,"clouds":[{"cover":"BKN","base":1000},{"cover":"BKN","base":10000}],"obsTime":1775487600},"SBCJ":{"icaoId":"SBCJ","flightCategory":"VFR","rawOb":"METAR SBCJ 061500Z 09006KT 9999 SCT013 SCT090 27/22 Q1018","temp":27,"dewp":22,"wdir":90,"wspd":6,"visib":"6+","altim":1018,"clouds":[{"cover":"SCT","base":1300},{"cover":"SCT","base":9000}],"obsTime":1775487600},"SBUY":{"icaoId":"SBUY","flightCategory":"VFR","rawOb":"METAR SBUY 061500Z 05004KT 9999 FEW020 SCT100 31/24 Q1011","temp":31,"dewp":24,"wdir":50,"wspd":4,"visib":"6+","altim":1011,"clouds":[{"cover":"FEW","base":2000},{"cover":"SCT","base":10000}],"obsTime":1775487600},"SBOI":{"icaoId":"SBOI","flightCategory":"IFR","rawOb":"METAR SBOI 061500Z AUTO 11003KT 050V140 9999 -RA OVC006 25/25 Q1014 RERA","temp":25,"dewp":25,"wdir":110,"wspd":3,"visib":"6+","altim":1014,"clouds":[{"cover":"OVC","base":600}],"obsTime":1775487600},"SBIP":{"icaoId":"SBIP","flightCategory":"VFR","rawOb":"METAR SBIP 061500Z AUTO 03006KT 330V070 9999 FEW031 31/21 Q1017","temp":31,"dewp":21,"wdir":30,"wspd":6,"visib":"6+","altim":1017,"clouds":[{"cover":"FEW","base":3100}],"obsTime":1775487600},"SBKG":{"icaoId":"SBKG","flightCategory":"VFR","rawOb":"METAR SBKG 061500Z 11009KT 9999 SCT020 29/21 Q1015","temp":29,"dewp":21,"wdir":110,"wspd":9,"visib":"6+","altim":1015,"clouds":[{"cover":"SCT","base":2000}],"obsTime":1775487600},"SBSC":{"icaoId":"SBSC","flightCategory":"VFR","rawOb":"METAR SBSC 061500Z 19007KT 9999 FEW020 29/22 Q1017","temp":29,"dewp":22,"wdir":190,"wspd":7,"visib":"6+","altim":1017,"clouds":[{"cover":"FEW","base":2000}],"obsTime":1775487600},"SBSM":{"icaoId":"SBSM","flightCategory":"VFR","rawOb":"METAR SBSM 061500Z 12008KT 9999 FEW040 SCT100 22/18 Q1015","temp":22,"dewp":18,"wdir":120,"wspd":8,"visib":"6+","altim":1015,"clouds":[{"cover":"FEW","base":4000},{"cover":"SCT","base":10000}],"obsTime":1775487600},"SBSR":{"icaoId":"SBSR","flightCategory":"VFR","rawOb":"METAR SBSR 061500Z 07006KT 9999 FEW035 SCT100 28/19 Q1017","temp":28,"dewp":19,"wdir":70,"wspd":6,"visib":"6+","altim":1017,"clouds":[{"cover":"FEW","base":3500},{"cover":"SCT","base":10000}],"obsTime":1775487600},"SBVH":{"icaoId":"SBVH","flightCategory":"VFR","rawOb":"METAR SBVH 061500Z 06007KT 9999 SCT020 28/23 Q1016","temp":28,"dewp":23,"wdir":60,"wspd":7,"visib":"6+","altim":1016,"clouds":[{"cover":"SCT","base":2000}],"obsTime":1775487600},"SBAX":{"icaoId":"SBAX","flightCategory":"VFR","rawOb":"METAR SBAX 061500Z 09006KT 9999 SCT025 27/20 Q1020","temp":27,"dewp":20,"wdir":90,"wspd":6,"visib":"6+","altim":1020,"clouds":[{"cover":"SCT","base":2500}],"obsTime":1775487600},"SBBH":{"icaoId":"SBBH","flightCategory":"VFR","rawOb":"METAR SBBH 061500Z 06005KT 9999 SCT035 SCT060 28/19 Q1020","temp":28,"dewp":19,"wdir":60,"wspd":5,"visib":"6+","altim":1020,"clouds":[{"cover":"SCT","base":3500},{"cover":"SCT","base":6000}],"obsTime":1775487600},"SBBQ":{"icaoId":"SBBQ","flightCategory":"MVFR","rawOb":"METAR SBBQ 061500Z 10005KT 9999 SCT014 BKN017 22/18 Q1024","temp":22,"dewp":18,"wdir":100,"wspd":5,"visib":"6+","altim":1024,"clouds":[{"cover":"SCT","base":1400},{"cover":"BKN","base":1700}],"obsTime":1775487600},"SBBU":{"icaoId":"SBBU","flightCategory":"VFR","rawOb":"METAR SBBU 061500Z 09007KT 9999 SCT040 30/22 Q1017","temp":30,"dewp":22,"wdir":90,"wspd":7,"visib":"6+","altim":1017,"clouds":[{"cover":"SCT","base":4000}],"obsTime":1775487600},"SBCA":{"icaoId":"SBCA","flightCategory":"VFR","rawOb":"METAR SBCA 061500Z 04010G20KT 9999 FEW030 27/20 Q1018","temp":27,"dewp":20,"wdir":40,"wspd":10,"visib":"6+","altim":1018,"clouds":[{"cover":"FEW","base":3000}],"obsTime":1775487600},"SBCC":{"icaoId":"SBCC","flightCategory":"VFR","rawOb":"METAR SBCC 061500Z VRB04KT 9999 SCT020 BKN100 28/22 Q1015","temp":28,"dewp":22,"wdir":"VRB","wspd":4,"visib":"6+","altim":1015,"clouds":[{"cover":"SCT","base":2000},{"cover":"BKN","base":10000}],"obsTime":1775487600},"SBCO":{"icaoId":"SBCO","flightCategory":"VFR","rawOb":"METAR SBCO 061500Z 12010KT 9999 FEW033 27/19 Q1017","temp":27,"dewp":19,"wdir":120,"wspd":10,"visib":"6+","altim":1017,"clouds":[{"cover":"FEW","base":3300}],"obsTime":1775487600},"SBDN":{"icaoId":"SBDN","flightCategory":"VFR","rawOb":"METAR SBDN 061500Z 09006KT 9999 SCT030 30/21 Q1016","temp":30,"dewp":21,"wdir":90,"wspd":6,"visib":"6+","altim":1016,"clouds":[{"cover":"SCT","base":3000}],"obsTime":1775487600},"SBES":{"icaoId":"SBES","flightCategory":"VFR","rawOb":"METAR SBES 061500Z VRB06KT 9999 SCT020 29/// Q1017","temp":null,"dewp":null,"wdir":"VRB","wspd":6,"visib":"6+","altim":1017,"clouds":[{"cover":"SCT","base":2000}],"obsTime":1775487600},"SBGM":{"icaoId":"SBGM","flightCategory":"VFR","rawOb":"METAR SBGM 061500Z VRB05KT 9999 FEW006 SCT023 30/21 Q1013","temp":30,"dewp":21,"wdir":"VRB","wspd":5,"visib":"6+","altim":1013,"clouds":[{"cover":"FEW","base":600},{"cover":"SCT","base":2300}],"obsTime":1775487600},"SBJP":{"icaoId":"SBJP","flightCategory":"MVFR","rawOb":"METAR SBJP 061500Z 14012KT 9999 BKN030 31/24 Q1012","temp":31,"dewp":24,"wdir":140,"wspd":12,"visib":"6+","altim":1012,"clouds":[{"cover":"BKN","base":3000}],"obsTime":1775487600},"SBIH":{"icaoId":"SBIH","flightCategory":"VFR","rawOb":"METAR SBIH 061500Z 08008KT 9999 SCT016 30/23 Q1012","temp":30,"dewp":23,"wdir":80,"wspd":8,"visib":"6+","altim":1012,"clouds":[{"cover":"SCT","base":1600}],"obsTime":1775487600},"SBJV":{"icaoId":"SBJV","flightCategory":"MVFR","rawOb":"METAR SBJV 061500Z 16003KT 130V220 9999 SCT007 BKN012 25/23 Q1018","temp":25,"dewp":23,"wdir":160,"wspd":3,"visib":"6+","altim":1018,"clouds":[{"cover":"SCT","base":700},{"cover":"BKN","base":1200}],"obsTime":1775487600},"SBNM":{"icaoId":"SBNM","flightCategory":"VFR","rawOb":"METAR SBNM 061500Z 02006KT 9999 FEW015 32/20 Q1014","temp":32,"dewp":20,"wdir":20,"wspd":6,"visib":"6+","altim":1014,"clouds":[{"cover":"FEW","base":1500}],"obsTime":1775487600},"SBLE":{"icaoId":"SBLE","flightCategory":"MVFR","rawOb":"METAR SBLE 061500Z AUTO VRB04KT 9999 BKN024 26/24 Q1018","temp":26,"dewp":24,"wdir":"VRB","wspd":4,"visib":"6+","altim":1018,"clouds":[{"cover":"BKN","base":2400}],"obsTime":1775487600},"SBAF":{"icaoId":"SBAF","flightCategory":"VFR","rawOb":"METAR SBAF 061500Z 17007KT 9999 SCT030 30/25 Q1017","temp":30,"dewp":25,"wdir":170,"wspd":7,"visib":"6+","altim":1017,"clouds":[{"cover":"SCT","base":3000}],"obsTime":1775487600},"SBGW":{"icaoId":"SBGW","flightCategory":"VFR","rawOb":"METAR SBGW 061500Z 35004KT 9999 SCT030 28/19 Q1019","temp":28,"dewp":19,"wdir":350,"wspd":4,"visib":"6+","altim":1019,"clouds":[{"cover":"SCT","base":3000}],"obsTime":1775487600},"SBAN":{"icaoId":"SBAN","flightCategory":"VFR","rawOb":"METAR SBAN 061500Z 07009KT 9999 SCT030 SCT100 27/18 Q1022","temp":27,"dewp":18,"wdir":70,"wspd":9,"visib":"6+","altim":1022,"clouds":[{"cover":"SCT","base":3000},{"cover":"SCT","base":10000}],"obsTime":1775487600},"SBLS":{"icaoId":"SBLS","flightCategory":"MVFR","rawOb":"METAR SBLS 061500Z 04003KT 9999 BKN030 26/19 Q1020","temp":26,"dewp":19,"wdir":40,"wspd":3,"visib":"6+","altim":1020,"clouds":[{"cover":"BKN","base":3000}],"obsTime":1775487600},"SBMT":{"icaoId":"SBMT","flightCategory":"VFR","rawOb":"METAR SBMT 061500Z 05007KT 010V110 9999 FEW033 27/18 Q1020","temp":27,"dewp":18,"wdir":50,"wspd":7,"visib":"6+","altim":1020,"clouds":[{"cover":"FEW","base":3300}],"obsTime":1775487600},"SBST":{"icaoId":"SBST","flightCategory":"VFR","rawOb":"METAR SBST 061500Z 17004KT 9999 SCT025 29/24 Q1016","temp":29,"dewp":24,"wdir":170,"wspd":4,"visib":"6+","altim":1016,"clouds":[{"cover":"SCT","base":2500}],"obsTime":1775487600},"SBTA":{"icaoId":"SBTA","flightCategory":"VFR","rawOb":"METAR SBTA 061500Z VRB04KT 9999 SCT025 27/20 Q1019","temp":27,"dewp":20,"wdir":"VRB","wspd":4,"visib":"6+","altim":1019,"clouds":[{"cover":"SCT","base":2500}],"obsTime":1775487600},"SBJR":{"icaoId":"SBJR","flightCategory":"VFR","rawOb":"METAR SBJR 061500Z 18005KT 9999 FEW025 32/23 Q1017","temp":32,"dewp":23,"wdir":180,"wspd":5,"visib":"6+","altim":1017,"clouds":[{"cover":"FEW","base":2500}],"obsTime":1775487600}}}