{"updated":1780071084,"count":86,"data":{"SBVT":{"icaoId":"SBVT","flightCategory":"VFR","rawOb":"METAR SBVT 291500Z 19012KT 160V230 9999 FEW040 26/17 Q1020","temp":26,"dewp":17,"wdir":190,"wspd":12,"visib":"6+","altim":1020,"clouds":[{"cover":"FEW","base":4000}],"obsTime":1780066800},"SBBE":{"icaoId":"SBBE","flightCategory":"MVFR","rawOb":"METAR SBBE 291500Z 32005KT 9999 BKN024 FEW028TCU SCT080 30/26 Q1013","temp":30,"dewp":26,"wdir":320,"wspd":5,"visib":"6+","altim":1013,"clouds":[{"cover":"BKN","base":2400},{"cover":"FEW","base":2800},{"cover":"SCT","base":8000}],"obsTime":1780066800},"SBBR":{"icaoId":"SBBR","flightCategory":"VFR","rawOb":"METAR SBBR 291500Z 10008KT 9999 SCT030 BKN100 24/16 Q1022","temp":24,"dewp":16,"wdir":100,"wspd":8,"visib":"6+","altim":1022,"clouds":[{"cover":"SCT","base":3000},{"cover":"BKN","base":10000}],"obsTime":1780066800},"SBBV":{"icaoId":"SBBV","flightCategory":"MVFR","rawOb":"METAR SBBV 291500Z 33002KT 9999 BKN020 BKN100 29/24 Q1014","temp":29,"dewp":24,"wdir":330,"wspd":2,"visib":"6+","altim":1014,"clouds":[{"cover":"BKN","base":2000},{"cover":"BKN","base":10000}],"obsTime":1780066800},"SBCB":{"icaoId":"SBCB","flightCategory":"VFR","rawOb":"METAR SBCB 291500Z /////KT 9999 FEW015 BKN040 24/15 Q1022","temp":24,"dewp":15,"wdir":null,"wspd":null,"visib":"6+","altim":1022,"clouds":[{"cover":"FEW","base":1500},{"cover":"BKN","base":4000}],"obsTime":1780066800},"SBCF":{"icaoId":"SBCF","flightCategory":"VFR","rawOb":"METAR SBCF 291500Z 06004KT 9999 SCT040 24/15 Q1023","temp":24,"dewp":15,"wdir":60,"wspd":4,"visib":"6+","altim":1023,"clouds":[{"cover":"SCT","base":4000}],"obsTime":1780066800},"SBCG":{"icaoId":"SBCG","flightCategory":"VFR","rawOb":"METAR SBCG 291500Z 06013KT CAVOK 27/16 Q1020","temp":27,"dewp":16,"wdir":60,"wspd":13,"visib":"6+","altim":1020,"clouds":[],"obsTime":1780066800},"SBCP":{"icaoId":"SBCP","flightCategory":"VFR","rawOb":"METAR SBCP 291500Z 20009KT 9999 FEW015 SCT020 BKN090 26/16 Q1021","temp":26,"dewp":16,"wdir":200,"wspd":9,"visib":"6+","altim":1021,"clouds":[{"cover":"FEW","base":1500},{"cover":"SCT","base":2000},{"cover":"BKN","base":9000}],"obsTime":1780066800},"SBCR":{"icaoId":"SBCR","flightCategory":"VFR","rawOb":"METAR SBCR 291500Z 08011KT 050V110 9999 FEW025 29/20 Q1016","temp":29,"dewp":20,"wdir":80,"wspd":11,"visib":"6+","altim":1016,"clouds":[{"cover":"FEW","base":2500}],"obsTime":1780066800},"SBCT":{"icaoId":"SBCT","flightCategory":"MVFR","rawOb":"METAR SBCT 291500Z 08008KT 9999 OVC014 14/11 Q1025","temp":14,"dewp":11,"wdir":80,"wspd":8,"visib":"6+","altim":1025,"clouds":[{"cover":"OVC","base":1400}],"obsTime":1780066800},"SBCZ":{"icaoId":"SBCZ","flightCategory":"VFR","rawOb":"METAR SBCZ 291500Z 04009KT CAVOK 29/23 Q1015","temp":29,"dewp":23,"wdir":40,"wspd":9,"visib":"6+","altim":1015,"clouds":[],"obsTime":1780066800},"SBEG":{"icaoId":"SBEG","flightCategory":"VFR","rawOb":"METAR SBEG 291500Z 35005KT 9999 SCT020 30/25 Q1013","temp":30,"dewp":25,"wdir":350,"wspd":5,"visib":"6+","altim":1013,"clouds":[{"cover":"SCT","base":2000}],"obsTime":1780066800},"SBFI":{"icaoId":"SBFI","flightCategory":"VFR","rawOb":"METAR SBFI 291500Z 17004KT 9999 FEW025 FEW040TCU OVC070 18/17 Q1020","temp":18,"dewp":17,"wdir":170,"wspd":4,"visib":"6+","altim":1020,"clouds":[{"cover":"FEW","base":2500},{"cover":"FEW","base":4000},{"cover":"OVC","base":7000}],"obsTime":1780066800},"SBFL":{"icaoId":"SBFL","flightCategory":"VFR","rawOb":"METAR SBFL 291500Z 08005KT 020V140 9999 FEW035 SCT060 22/14 Q1023","temp":22,"dewp":14,"wdir":80,"wspd":5,"visib":"6+","altim":1023,"clouds":[{"cover":"FEW","base":3500},{"cover":"SCT","base":6000}],"obsTime":1780066800},"SBFZ":{"icaoId":"SBFZ","flightCategory":"MVFR","rawOb":"METAR SBFZ 291500Z 14009KT 9999 BKN027 30/24 Q1012","temp":30,"dewp":24,"wdir":140,"wspd":9,"visib":"6+","altim":1012,"clouds":[{"cover":"BKN","base":2700}],"obsTime":1780066800},"SBGL":{"icaoId":"SBGL","flightCategory":"VFR","rawOb":"METAR SBGL 291500Z 12005KT 100V160 9999 FEW020 BKN043 BKN066 22/16 Q1022","temp":22,"dewp":16,"wdir":120,"wspd":5,"visib":"6+","altim":1022,"clouds":[{"cover":"FEW","base":2000},{"cover":"BKN","base":4300},{"cover":"BKN","base":6600}],"obsTime":1780066800},"SBGO":{"icaoId":"SBGO","flightCategory":"VFR","rawOb":"METAR SBGO 291500Z 15005KT 130V190 CAVOK 23/18 Q1021","temp":23,"dewp":18,"wdir":150,"wspd":5,"visib":"6+","altim":1021,"clouds":[],"obsTime":1780066800},"SBGR":{"icaoId":"SBGR","flightCategory":"MVFR","rawOb":"METAR SBGR 291500Z 06006KT 9999 BKN030 19/13 Q1024","temp":19,"dewp":13,"wdir":60,"wspd":6,"visib":"6+","altim":1024,"clouds":[{"cover":"BKN","base":3000}],"obsTime":1780066800},"SBHT":{"icaoId":"SBHT","flightCategory":"VFR","rawOb":"METAR SBHT 291500Z 05003KT 9999 SCT015 BKN090 28/25 Q1014","temp":28,"dewp":25,"wdir":50,"wspd":3,"visib":"6+","altim":1014,"clouds":[{"cover":"SCT","base":1500},{"cover":"BKN","base":9000}],"obsTime":1780066800},"SBIL":{"icaoId":"SBIL","flightCategory":"VFR","rawOb":"METAR SBIL 291500Z 20015KT 150V230 9999 SCT023 BKN070 28/24 Q1018","temp":28,"dewp":24,"wdir":200,"wspd":15,"visib":"6+","altim":1018,"clouds":[{"cover":"SCT","base":2300},{"cover":"BKN","base":7000}],"obsTime":1780066800},"SBJU":{"icaoId":"SBJU","flightCategory":"VFR","rawOb":"METAR SBJU 291500Z 18010KT CAVOK 30/19 Q1016","temp":30,"dewp":19,"wdir":180,"wspd":10,"visib":"6+","altim":1016,"clouds":[],"obsTime":1780066800},"SBKP":{"icaoId":"SBKP","flightCategory":"VFR","rawOb":"METAR SBKP 291500Z 12007KT 070V170 9999 FEW040 22/15 Q1022","temp":22,"dewp":15,"wdir":120,"wspd":7,"visib":"6+","altim":1022,"clouds":[{"cover":"FEW","base":4000}],"obsTime":1780066800},"SBLO":{"icaoId":"SBLO","flightCategory":"VFR","rawOb":"METAR SBLO 291500Z 11007KT CAVOK 19/14 Q1022","temp":19,"dewp":14,"wdir":110,"wspd":7,"visib":"6+","altim":1022,"clouds":[],"obsTime":1780066800},"SBMA":{"icaoId":"SBMA","flightCategory":"VFR","rawOb":"METAR SBMA 291500Z 12006KT 9999 FEW025 ///// Q1012","temp":null,"dewp":null,"wdir":120,"wspd":6,"visib":"6+","altim":1012,"clouds":[{"cover":"FEW","base":2500}],"obsTime":1780066800},"SBME":{"icaoId":"SBME","flightCategory":"VFR","rawOb":"METAR SBME 291500Z 17009KT 9999 FEW030 27/16 Q1021","temp":27,"dewp":16,"wdir":170,"wspd":9,"visib":"6+","altim":1021,"clouds":[{"cover":"FEW","base":3000}],"obsTime":1780066800},"SBMG":{"icaoId":"SBMG","flightCategory":"VFR","rawOb":"METAR SBMG 291500Z 07007KT 020V110 CAVOK 23/13 Q1020","temp":23,"dewp":13,"wdir":70,"wspd":7,"visib":"6+","altim":1020,"clouds":[],"obsTime":1780066800},"SBMK":{"icaoId":"SBMK","flightCategory":"MVFR","rawOb":"METAR SBMK 291500Z 03005KT 9999 OVC028 25/16 Q1021","temp":25,"dewp":16,"wdir":30,"wspd":5,"visib":"6+","altim":1021,"clouds":[{"cover":"OVC","base":2800}],"obsTime":1780066800},"SBMO":{"icaoId":"SBMO","flightCategory":"MVFR","rawOb":"METAR SBMO 291500Z 15006KT 110V180 6000 -RA SCT006 BKN014 BKN045 24/24 Q1016","temp":24,"dewp":24,"wdir":150,"wspd":6,"visib":3.73,"altim":1016,"clouds":[{"cover":"SCT","base":600},{"cover":"BKN","base":1400},{"cover":"BKN","base":4500}],"obsTime":1780066800},"SBMQ":{"icaoId":"SBMQ","flightCategory":"IFR","rawOb":"METAR SBMQ 291500Z 01005KT 9999 -RA BKN008 BKN018 OVC100 27/25 Q1014","temp":27,"dewp":25,"wdir":10,"wspd":5,"visib":"6+","altim":1014,"clouds":[{"cover":"BKN","base":800},{"cover":"BKN","base":1800},{"cover":"OVC","base":10000}],"obsTime":1780066800},"SBNT":{"icaoId":"SBNT","flightCategory":"VFR","rawOb":"METAR SBNT 291500Z 16017KT 9999 SCT025 FEW030TCU BKN060 29/23 Q1013","temp":29,"dewp":23,"wdir":160,"wspd":17,"visib":"6+","altim":1013,"clouds":[{"cover":"SCT","base":2500},{"cover":"FEW","base":3000},{"cover":"BKN","base":6000}],"obsTime":1780066800},"SBPA":{"icaoId":"SBPA","flightCategory":"MVFR","rawOb":"METAR SBPA 291500Z 09014KT 070V130 9999 BKN026 20/13 Q1022","temp":20,"dewp":13,"wdir":90,"wspd":14,"visib":"6+","altim":1022,"clouds":[{"cover":"BKN","base":2600}],"obsTime":1780066800},"SBPJ":{"icaoId":"SBPJ","flightCategory":"VFR","rawOb":"METAR SBPJ 291500Z 14008KT CAVOK 33/15 Q1015","temp":33,"dewp":15,"wdir":140,"wspd":8,"visib":"6+","altim":1015,"clouds":[],"obsTime":1780066800},"SBPV":{"icaoId":"SBPV","flightCategory":"VFR","rawOb":"METAR SBPV 291500Z 10006KT CAVOK 32/22 Q1013","temp":32,"dewp":22,"wdir":100,"wspd":6,"visib":"6+","altim":1013,"clouds":[],"obsTime":1780066800},"SBRB":{"icaoId":"SBRB","flightCategory":"VFR","rawOb":"METAR SBRB 291500Z 14003KT CAVOK 28/24 Q1015","temp":28,"dewp":24,"wdir":140,"wspd":3,"visib":"6+","altim":1015,"clouds":[],"obsTime":1780066800},"SBRF":{"icaoId":"SBRF","flightCategory":"VFR","rawOb":"METAR SBRF 291500Z 16014KT 9999 FEW022 SCT080 29/24 Q1014","temp":29,"dewp":24,"wdir":160,"wspd":14,"visib":"6+","altim":1014,"clouds":[{"cover":"FEW","base":2200},{"cover":"SCT","base":8000}],"obsTime":1780066800},"SBSG":{"icaoId":"SBSG","flightCategory":"VFR","rawOb":"METAR SBSG 291500Z 14009KT 090V190 9999 BKN033 28/23 Q1014","temp":28,"dewp":23,"wdir":140,"wspd":9,"visib":"6+","altim":1014,"clouds":[{"cover":"BKN","base":3300}],"obsTime":1780066800},"SBSL":{"icaoId":"SBSL","flightCategory":"VFR","rawOb":"METAR SBSL 291500Z 09008KT 9999 SCT025 32/23 Q1012","temp":32,"dewp":23,"wdir":90,"wspd":8,"visib":"6+","altim":1012,"clouds":[{"cover":"SCT","base":2500}],"obsTime":1780066800},"SBSN":{"icaoId":"SBSN","flightCategory":"MVFR","rawOb":"METAR SBSN 291500Z 27003KT 8000 -RA SCT011 FEW025TCU OVC070 26/25 Q1013","temp":26,"dewp":25,"wdir":270,"wspd":3,"visib":4.97,"altim":1013,"clouds":[{"cover":"SCT","base":1100},{"cover":"FEW","base":2500},{"cover":"OVC","base":7000}],"obsTime":1780066800},"SBSP":{"icaoId":"SBSP","flightCategory":"VFR","rawOb":"METAR SBSP 291500Z 11006KT 070V150 9999 SCT033 19/13 Q1025","temp":19,"dewp":13,"wdir":110,"wspd":6,"visib":"6+","altim":1025,"clouds":[{"cover":"SCT","base":3300}],"obsTime":1780066800},"SBSV":{"icaoId":"SBSV","flightCategory":"MVFR","rawOb":"METAR SBSV 291500Z 13010KT 090V170 5000 -SHRA BKN015 BKN020 FEW025TCU BKN050 26/24 Q1016","temp":26,"dewp":24,"wdir":130,"wspd":10,"visib":3.11,"altim":1016,"clouds":[{"cover":"BKN","base":1500},{"cover":"BKN","base":2000},{"cover":"FEW","base":2500},{"cover":"BKN","base":5000}],"obsTime":1780066800},"SBTE":{"icaoId":"SBTE","flightCategory":"VFR","rawOb":"METAR SBTE 291500Z 16009KT 9999 SCT025 32/22 Q1012","temp":32,"dewp":22,"wdir":160,"wspd":9,"visib":"6+","altim":1012,"clouds":[{"cover":"SCT","base":2500}],"obsTime":1780066800},"SBUL":{"icaoId":"SBUL","flightCategory":"VFR","rawOb":"METAR SBUL 291500Z 07010KT 9999 BKN049 24/16 Q1023","temp":24,"dewp":16,"wdir":70,"wspd":10,"visib":"6+","altim":1023,"clouds":[{"cover":"BKN","base":4900}],"obsTime":1780066800},"SBUR":{"icaoId":"SBUR","flightCategory":"VFR","rawOb":"METAR SBUR 291500Z 03006KT 9999 BKN040 27/16 Q1021","temp":27,"dewp":16,"wdir":30,"wspd":6,"visib":"6+","altim":1021,"clouds":[{"cover":"BKN","base":4000}],"obsTime":1780066800},"SBAT":{"icaoId":"SBAT","flightCategory":"VFR","rawOb":"METAR SBAT 291500Z 13008KT CAVOK 34/22 Q1014","temp":34,"dewp":22,"wdir":130,"wspd":8,"visib":"6+","altim":1014,"clouds":[],"obsTime":1780066800},"SBCJ":{"icaoId":"SBCJ","flightCategory":"VFR","rawOb":"METAR SBCJ 291500Z 13005KT 9999 SCT020 29/21 Q1018","temp":29,"dewp":21,"wdir":130,"wspd":5,"visib":"6+","altim":1018,"clouds":[{"cover":"SCT","base":2000}],"obsTime":1780066800},"SBAR":{"icaoId":"SBAR","flightCategory":"VFR","rawOb":"METAR SBAR 291500Z 13010KT 9999 FEW026 29/20 Q1016","temp":29,"dewp":20,"wdir":130,"wspd":10,"visib":"6+","altim":1016,"clouds":[{"cover":"FEW","base":2600}],"obsTime":1780066800},"SBAU":{"icaoId":"SBAU","flightCategory":"VFR","rawOb":"METAR SBAU 291600Z 13008KT CAVOK 27/12 Q1019","temp":27,"dewp":12,"wdir":130,"wspd":8,"visib":"6+","altim":1019,"clouds":[],"obsTime":1780070400},"SBAX":{"icaoId":"SBAX","flightCategory":"MVFR","rawOb":"METAR SBAX 291500Z 04004KT 9999 BKN023 24/16 Q1022","temp":24,"dewp":16,"wdir":40,"wspd":4,"visib":"6+","altim":1022,"clouds":[{"cover":"BKN","base":2300}],"obsTime":1780066800},"SBBH":{"icaoId":"SBBH","flightCategory":"MVFR","rawOb":"METAR SBBH 291500Z 13006KT 9999 BKN030 24/16 Q1022","temp":24,"dewp":16,"wdir":130,"wspd":6,"visib":"6+","altim":1022,"clouds":[{"cover":"BKN","base":3000}],"obsTime":1780066800},"SBBQ":{"icaoId":"SBBQ","flightCategory":"VFR","rawOb":"METAR SBBQ 291500Z 11005KT 070V160 9999 BKN035 19/14 Q1026","temp":19,"dewp":14,"wdir":110,"wspd":5,"visib":"6+","altim":1026,"clouds":[{"cover":"BKN","base":3500}],"obsTime":1780066800},"SBBU":{"icaoId":"SBBU","flightCategory":"VFR","rawOb":"METAR SBBU 291500Z 13009KT CAVOK 22/14 Q1022","temp":22,"dewp":14,"wdir":130,"wspd":9,"visib":"6+","altim":1022,"clouds":[],"obsTime":1780066800},"SBCC":{"icaoId":"SBCC","flightCategory":"VFR","rawOb":"METAR SBCC 291500Z 03010KT 9999 SCT040 30/18 Q1016","temp":30,"dewp":18,"wdir":30,"wspd":10,"visib":"6+","altim":1016,"clouds":[{"cover":"SCT","base":4000}],"obsTime":1780066800},"SBCO":{"icaoId":"SBCO","flightCategory":"VFR","rawOb":"METAR SBCO 291500Z 09010KT 060V130 9999 SCT022 19/14 Q1022","temp":19,"dewp":14,"wdir":90,"wspd":10,"visib":"6+","altim":1022,"clouds":[{"cover":"SCT","base":2200}],"obsTime":1780066800},"SBDN":{"icaoId":"SBDN","flightCategory":"VFR","rawOb":"METAR SBDN 291500Z 10007KT CAVOK 23/13 Q1021","temp":23,"dewp":13,"wdir":100,"wspd":7,"visib":"6+","altim":1021,"clouds":[],"obsTime":1780066800},"SBES":{"icaoId":"SBES","flightCategory":"VFR","rawOb":"METAR SBES 291500Z 22006KT 170V260 9999 FEW015 BKN060 23/// Q1022","temp":null,"dewp":null,"wdir":220,"wspd":6,"visib":"6+","altim":1022,"clouds":[{"cover":"FEW","base":1500},{"cover":"BKN","base":6000}],"obsTime":1780066800},"SBGM":{"icaoId":"SBGM","flightCategory":"VFR","rawOb":"METAR SBGM 291500Z 08003KT CAVOK 28/23 Q1014","temp":28,"dewp":23,"wdir":80,"wspd":3,"visib":"6+","altim":1014,"clouds":[],"obsTime":1780066800},"SBIP":{"icaoId":"SBIP","flightCategory":"VFR","rawOb":"METAR SBIP 291500Z AUTO VRB03KT 9999 FEW025 25/18 Q1021","temp":25,"dewp":18,"wdir":"VRB","wspd":3,"visib":"6+","altim":1021,"clouds":[{"cover":"FEW","base":2500}],"obsTime":1780066800},"SBKG":{"icaoId":"SBKG","flightCategory":"MVFR","rawOb":"METAR SBKG 291500Z 15010KT 110V180 9999 BKN025 25/20 Q1017","temp":25,"dewp":20,"wdir":150,"wspd":10,"visib":"6+","altim":1017,"clouds":[{"cover":"BKN","base":2500}],"obsTime":1780066800},"SBOI":{"icaoId":"SBOI","flightCategory":"VFR","rawOb":"METAR SBOI 291500Z AUTO 19007KT 9999 SCT011 27/24 Q1013","temp":27,"dewp":24,"wdir":190,"wspd":7,"visib":"6+","altim":1013,"clouds":[{"cover":"SCT","base":1100}],"obsTime":1780066800},"SBPB":{"icaoId":"SBPB","flightCategory":"VFR","rawOb":"METAR SBPB 291500Z 09009KT 9999 FEW020 32/24 Q1012","temp":32,"dewp":24,"wdir":90,"wspd":9,"visib":"6+","altim":1012,"clouds":[{"cover":"FEW","base":2000}],"obsTime":1780066800},"SBPL":{"icaoId":"SBPL","flightCategory":"VFR","rawOb":"METAR SBPL 291500Z 10012KT 9999 SCT030 30/17 Q1017","temp":30,"dewp":17,"wdir":100,"wspd":12,"visib":"6+","altim":1017,"clouds":[{"cover":"SCT","base":3000}],"obsTime":1780066800},"SBPP":{"icaoId":"SBPP","flightCategory":"VFR","rawOb":"METAR SBPP 291500Z 07010KT CAVOK 20/17 Q1020","temp":20,"dewp":17,"wdir":70,"wspd":10,"visib":"6+","altim":1020,"clouds":[],"obsTime":1780066800},"SBPS":{"icaoId":"SBPS","flightCategory":"VFR","rawOb":"METAR SBPS 291500Z 18007KT 9999 SCT020 BKN050 26/21 Q1018","temp":26,"dewp":21,"wdir":180,"wspd":7,"visib":"6+","altim":1018,"clouds":[{"cover":"SCT","base":2000},{"cover":"BKN","base":5000}],"obsTime":1780066800},"SBSC":{"icaoId":"SBSC","flightCategory":"MVFR","rawOb":"METAR SBSC 291500Z 07003KT 9999 SCT018 BKN030 BKN070 21/18 Q1022","temp":21,"dewp":18,"wdir":70,"wspd":3,"visib":"6+","altim":1022,"clouds":[{"cover":"SCT","base":1800},{"cover":"BKN","base":3000},{"cover":"BKN","base":7000}],"obsTime":1780066800},"SBSJ":{"icaoId":"SBSJ","flightCategory":"MVFR","rawOb":"METAR SBSJ 291500Z 15002KT 6000 OVC025 18/15 Q1024","temp":18,"dewp":15,"wdir":150,"wspd":2,"visib":3.73,"altim":1024,"clouds":[{"cover":"OVC","base":2500}],"obsTime":1780066800},"SBSM":{"icaoId":"SBSM","flightCategory":"IFR","rawOb":"METAR SBSM 291500Z 10007KT 070V130 9999 -RA BKN007 OVC012 16/15 Q1022","temp":16,"dewp":15,"wdir":100,"wspd":7,"visib":"6+","altim":1022,"clouds":[{"cover":"BKN","base":700},{"cover":"OVC","base":1200}],"obsTime":1780066800},"SBSR":{"icaoId":"SBSR","flightCategory":"VFR","rawOb":"METAR SBSR 291500Z 20004KT 170V240 CAVOK 24/14 Q1020","temp":24,"dewp":14,"wdir":200,"wspd":4,"visib":"6+","altim":1020,"clouds":[],"obsTime":1780066800},"SBTD":{"icaoId":"SBTD","flightCategory":"VFR","rawOb":"METAR SBTD 291500Z /////KT 9999 FEW045 BKN100 23/16 Q1021","temp":23,"dewp":16,"wdir":null,"wspd":null,"visib":"6+","altim":1021,"clouds":[{"cover":"FEW","base":4500},{"cover":"BKN","base":10000}],"obsTime":1780066800},"SBTF":{"icaoId":"SBTF","flightCategory":"VFR","rawOb":"METAR SBTF 291500Z 33004KT 9999 SCT011 BKN090 29/26 Q1013","temp":29,"dewp":26,"wdir":330,"wspd":4,"visib":"6+","altim":1013,"clouds":[{"cover":"SCT","base":1100},{"cover":"BKN","base":9000}],"obsTime":1780066800},"SBTT":{"icaoId":"SBTT","flightCategory":"MVFR","rawOb":"METAR SBTT 291500Z 34004KT 8000 SCT008 OVC070 26/24 Q1014","temp":26,"dewp":24,"wdir":340,"wspd":4,"visib":4.97,"altim":1014,"clouds":[{"cover":"SCT","base":800},{"cover":"OVC","base":7000}],"obsTime":1780066800},"SBTU":{"icaoId":"SBTU","flightCategory":"VFR","rawOb":"METAR SBTU 291500Z AUTO VRB05KT 9999 // NCD 30/24 Q1014","temp":30,"dewp":24,"wdir":"VRB","wspd":5,"visib":"6+","altim":1014,"clouds":[],"obsTime":1780066800},"SBUY":{"icaoId":"SBUY","flightCategory":"VFR","rawOb":"METAR SBUY 291500Z 09001KT 9999 SCT020 SCT100 31/25 Q1012","temp":31,"dewp":25,"wdir":90,"wspd":1,"visib":"6+","altim":1012,"clouds":[{"cover":"SCT","base":2000},{"cover":"SCT","base":10000}],"obsTime":1780066800},"SBVH":{"icaoId":"SBVH","flightCategory":"VFR","rawOb":"METAR SBVH 291500Z 11007KT CAVOK 27/19 Q1018","temp":27,"dewp":19,"wdir":110,"wspd":7,"visib":"6+","altim":1018,"clouds":[],"obsTime":1780066800},"SBJP":{"icaoId":"SBJP","flightCategory":"MVFR","rawOb":"METAR SBJP 291500Z 13013KT 9999 BKN026 BKN070 29/23 Q1014","temp":29,"dewp":23,"wdir":130,"wspd":13,"visib":"6+","altim":1014,"clouds":[{"cover":"BKN","base":2600},{"cover":"BKN","base":7000}],"obsTime":1780066800},"SBAN":{"icaoId":"SBAN","flightCategory":"VFR","rawOb":"METAR SBAN 291500Z 16008KT 9999 FEW020 BKN070 24/15 Q1023","temp":24,"dewp":15,"wdir":160,"wspd":8,"visib":"6+","altim":1023,"clouds":[{"cover":"FEW","base":2000},{"cover":"BKN","base":7000}],"obsTime":1780066800},"SBJV":{"icaoId":"SBJV","flightCategory":"MVFR","rawOb":"METAR SBJV 291500Z 05003KT 350V080 9999 SCT013 BKN030 20/16 Q1023","temp":20,"dewp":16,"wdir":50,"wspd":3,"visib":"6+","altim":1023,"clouds":[{"cover":"SCT","base":1300},{"cover":"BKN","base":3000}],"obsTime":1780066800},"SBNM":{"icaoId":"SBNM","flightCategory":"VFR","rawOb":"METAR SBNM 291500Z 27002KT CAVOK 19/16 Q1021","temp":19,"dewp":16,"wdir":270,"wspd":2,"visib":"6+","altim":1021,"clouds":[],"obsTime":1780066800},"SBIH":{"icaoId":"SBIH","flightCategory":"VFR","rawOb":"METAR SBIH 291500Z 07005KT 9999 FEW020 33/24 Q1012","temp":33,"dewp":24,"wdir":70,"wspd":5,"visib":"6+","altim":1012,"clouds":[{"cover":"FEW","base":2000}],"obsTime":1780066800},"SBAF":{"icaoId":"SBAF","flightCategory":"MVFR","rawOb":"METAR SBAF 291500Z 15005KT 9000 -DZ SCT015 BKN030 21/21 Q1022","temp":21,"dewp":21,"wdir":150,"wspd":5,"visib":5.59,"altim":1022,"clouds":[{"cover":"SCT","base":1500},{"cover":"BKN","base":3000}],"obsTime":1780066800},"SBGW":{"icaoId":"SBGW","flightCategory":"MVFR","rawOb":"METAR SBGW 291500Z 02004KT 280V070 8000 BKN020 BKN030 20/13 Q1023","temp":20,"dewp":13,"wdir":20,"wspd":4,"visib":4.97,"altim":1023,"clouds":[{"cover":"BKN","base":2000},{"cover":"BKN","base":3000}],"obsTime":1780066800},"SBJR":{"icaoId":"SBJR","flightCategory":"MVFR","rawOb":"METAR SBJR 291500Z 02004KT 9999 BKN020 BKN050 24/19 Q1022","temp":24,"dewp":19,"wdir":20,"wspd":4,"visib":"6+","altim":1022,"clouds":[{"cover":"BKN","base":2000},{"cover":"BKN","base":5000}],"obsTime":1780066800},"SBLS":{"icaoId":"SBLS","flightCategory":"VFR","rawOb":"METAR SBLS 291500Z 12005KT 020V170 9999 SCT030 23/16 Q1022","temp":23,"dewp":16,"wdir":120,"wspd":5,"visib":"6+","altim":1022,"clouds":[{"cover":"SCT","base":3000}],"obsTime":1780066800},"SBMT":{"icaoId":"SBMT","flightCategory":"MVFR","rawOb":"METAR SBMT 291500Z 11008KT 9999 BKN020 19/13 Q1024","temp":19,"dewp":13,"wdir":110,"wspd":8,"visib":"6+","altim":1024,"clouds":[{"cover":"BKN","base":2000}],"obsTime":1780066800},"SBST":{"icaoId":"SBST","flightCategory":"VFR","rawOb":"METAR SBST 291500Z 14008KT 9999 FEW029 21/16 Q1022","temp":21,"dewp":16,"wdir":140,"wspd":8,"visib":"6+","altim":1022,"clouds":[{"cover":"FEW","base":2900}],"obsTime":1780066800},"SBTA":{"icaoId":"SBTA","flightCategory":"MVFR","rawOb":"METAR SBTA 291500Z VRB02KT 8000 SCT010 BKN020 BKN030 20/15 Q1022","temp":20,"dewp":15,"wdir":"VRB","wspd":2,"visib":4.97,"altim":1022,"clouds":[{"cover":"SCT","base":1000},{"cover":"BKN","base":2000},{"cover":"BKN","base":3000}],"obsTime":1780066800},"SBLE":{"icaoId":"SBLE","flightCategory":"VFR","rawOb":"METAR SBLE 291500Z AUTO 19005KT 120V230 9999 SCT024 26/19 Q1020","temp":26,"dewp":19,"wdir":190,"wspd":5,"visib":"6+","altim":1020,"clouds":[{"cover":"SCT","base":2400}],"obsTime":1780066800}}}