{"updated":1776114683,"count":82,"data":{"SBAT":{"icaoId":"SBAT","flightCategory":"VFR","rawOb":"METAR SBAT 132000Z 08002KT 9999 VCSH FEW025 FEW030TCU 30/24 Q1007","temp":30,"dewp":24,"wdir":80,"wspd":2,"visib":"6+","altim":1007,"clouds":[{"cover":"FEW","base":2500},{"cover":"FEW","base":3000}],"obsTime":1776110400},"SBLO":{"icaoId":"SBLO","flightCategory":"VFR","rawOb":"METAR SBLO 132000Z 09006KT CAVOK 25/18 Q1016","temp":25,"dewp":18,"wdir":90,"wspd":6,"visib":"6+","altim":1016,"clouds":[],"obsTime":1776110400},"SBEG":{"icaoId":"SBEG","flightCategory":"VFR","rawOb":"METAR SBEG 132000Z 04006KT 9999 SCT020 FEW025TCU SCT100 27/24 Q1007","temp":27,"dewp":24,"wdir":40,"wspd":6,"visib":"6+","altim":1007,"clouds":[{"cover":"SCT","base":2000},{"cover":"FEW","base":2500},{"cover":"SCT","base":10000}],"obsTime":1776110400},"SBMA":{"icaoId":"SBMA","flightCategory":"VFR","rawOb":"METAR SBMA 132000Z 10002KT 9999 SCT025TCU BKN080 27/27 Q1007","temp":27,"dewp":27,"wdir":100,"wspd":2,"visib":"6+","altim":1007,"clouds":[{"cover":"SCT","base":2500},{"cover":"BKN","base":8000}],"obsTime":1776110400},"SBCF":{"icaoId":"SBCF","flightCategory":"VFR","rawOb":"METAR SBCF 132000Z 11007KT 9999 SCT043 25/17 Q1018","temp":25,"dewp":17,"wdir":110,"wspd":7,"visib":"6+","altim":1018,"clouds":[{"cover":"SCT","base":4300}],"obsTime":1776110400},"SBME":{"icaoId":"SBME","flightCategory":"VFR","rawOb":"METAR SBME 132000Z 15005KT 9999 FEW040 26/21 Q1016","temp":26,"dewp":21,"wdir":150,"wspd":5,"visib":"6+","altim":1016,"clouds":[{"cover":"FEW","base":4000}],"obsTime":1776110400},"SBCZ":{"icaoId":"SBCZ","flightCategory":"VFR","rawOb":"METAR SBCZ 132000Z 28004KT 9999 SCT015 SCT020 BKN100 28/25 Q1009","temp":28,"dewp":25,"wdir":280,"wspd":4,"visib":"6+","altim":1009,"clouds":[{"cover":"SCT","base":1500},{"cover":"SCT","base":2000},{"cover":"BKN","base":10000}],"obsTime":1776110400},"SBMG":{"icaoId":"SBMG","flightCategory":"VFR","rawOb":"METAR SBMG 132000Z VRB02KT 9999 SCT040 FEW040TCU 27/19 Q1015","temp":27,"dewp":19,"wdir":"VRB","wspd":2,"visib":"6+","altim":1015,"clouds":[{"cover":"SCT","base":4000},{"cover":"FEW","base":4000}],"obsTime":1776110400},"SBFI":{"icaoId":"SBFI","flightCategory":"VFR","rawOb":"METAR SBFI 132000Z 11005KT 9999 FEW030 SCT100 28/22 Q1013","temp":28,"dewp":22,"wdir":110,"wspd":5,"visib":"6+","altim":1013,"clouds":[{"cover":"FEW","base":3000},{"cover":"SCT","base":10000}],"obsTime":1776110400},"SBMK":{"icaoId":"SBMK","flightCategory":"VFR","rawOb":"METAR SBMK 132000Z 09008KT 9999 BKN040 26/18 Q1016","temp":26,"dewp":18,"wdir":90,"wspd":8,"visib":"6+","altim":1016,"clouds":[{"cover":"BKN","base":4000}],"obsTime":1776110400},"SBFL":{"icaoId":"SBFL","flightCategory":"VFR","rawOb":"METAR SBFL 132000Z 36007KT 9999 FEW030 27/20 Q1015","temp":27,"dewp":20,"wdir":360,"wspd":7,"visib":"6+","altim":1015,"clouds":[{"cover":"FEW","base":3000}],"obsTime":1776110400},"SBMO":{"icaoId":"SBMO","flightCategory":"VFR","rawOb":"METAR SBMO 132000Z 11008KT 9999 FEW028 28/23 Q1011","temp":28,"dewp":23,"wdir":110,"wspd":8,"visib":"6+","altim":1011,"clouds":[{"cover":"FEW","base":2800}],"obsTime":1776110400},"SBMQ":{"icaoId":"SBMQ","flightCategory":"VFR","rawOb":"METAR SBMQ 132000Z 02011KT 9999 SCT015 29/24 Q1009","temp":29,"dewp":24,"wdir":20,"wspd":11,"visib":"6+","altim":1009,"clouds":[{"cover":"SCT","base":1500}],"obsTime":1776110400},"SBBV":{"icaoId":"SBBV","flightCategory":"VFR","rawOb":"METAR SBBV 132000Z 10011KT 9999 SCT045 FEW050TCU SCT080 34/20 Q1007","temp":34,"dewp":20,"wdir":100,"wspd":11,"visib":"6+","altim":1007,"clouds":[{"cover":"SCT","base":4500},{"cover":"FEW","base":5000},{"cover":"SCT","base":8000}],"obsTime":1776110400},"SBFZ":{"icaoId":"SBFZ","flightCategory":"VFR","rawOb":"METAR SBFZ 132000Z 08007KT 9999 FEW019 BKN100 28/25 Q1008","temp":28,"dewp":25,"wdir":80,"wspd":7,"visib":"6+","altim":1008,"clouds":[{"cover":"FEW","base":1900},{"cover":"BKN","base":10000}],"obsTime":1776110400},"SBNT":{"icaoId":"SBNT","flightCategory":"VFR","rawOb":"METAR SBNT 132000Z 13006KT 9999 VCSH SCT018 FEW025TCU BKN090 27/24 Q1010","temp":27,"dewp":24,"wdir":130,"wspd":6,"visib":"6+","altim":1010,"clouds":[{"cover":"SCT","base":1800},{"cover":"FEW","base":2500},{"cover":"BKN","base":9000}],"obsTime":1776110400},"SBCG":{"icaoId":"SBCG","flightCategory":"MVFR","rawOb":"METAR SBCG 132000Z 34014KT 9999 TS VCSH FEW010 BKN020 FEW050CB BKN080 26/21 Q1013","temp":26,"dewp":21,"wdir":340,"wspd":14,"visib":"6+","altim":1013,"clouds":[{"cover":"FEW","base":1000},{"cover":"BKN","base":2000},{"cover":"FEW","base":5000},{"cover":"BKN","base":8000}],"obsTime":1776110400},"SBPA":{"icaoId":"SBPA","flightCategory":"VFR","rawOb":"METAR SBPA 132000Z /////KT 9999 SCT035 27/19 Q1016","temp":27,"dewp":19,"wdir":null,"wspd":null,"visib":"6+","altim":1016,"clouds":[{"cover":"SCT","base":3500}],"obsTime":1776110400},"SBGL":{"icaoId":"SBGL","flightCategory":"VFR","rawOb":"METAR SBGL 132000Z 14011KT 9999 FEW030 SCT100 26/19 Q1015","temp":26,"dewp":19,"wdir":140,"wspd":11,"visib":"6+","altim":1015,"clouds":[{"cover":"FEW","base":3000},{"cover":"SCT","base":10000}],"obsTime":1776110400},"SBPJ":{"icaoId":"SBPJ","flightCategory":"VFR","rawOb":"METAR SBPJ 132000Z 22005KT 9999 FEW040 33/23 Q1009","temp":33,"dewp":23,"wdir":220,"wspd":5,"visib":"6+","altim":1009,"clouds":[{"cover":"FEW","base":4000}],"obsTime":1776110400},"SBPV":{"icaoId":"SBPV","flightCategory":"MVFR","rawOb":"METAR SBPV 132000Z VRB01KT 8000 VCSH FEW015 SCT030 FEW035TCU 27/25 Q1007","temp":27,"dewp":25,"wdir":"VRB","wspd":1,"visib":4.97,"altim":1007,"clouds":[{"cover":"FEW","base":1500},{"cover":"SCT","base":3000},{"cover":"FEW","base":3500}],"obsTime":1776110400},"SBBE":{"icaoId":"SBBE","flightCategory":"IFR","rawOb":"METAR SBBE 132000Z 10004KT 3000 TSRA FEW012 BKN015 FEW020CB 25/25 Q1010","temp":25,"dewp":25,"wdir":100,"wspd":4,"visib":1.86,"altim":1010,"clouds":[{"cover":"FEW","base":1200},{"cover":"BKN","base":1500},{"cover":"FEW","base":2000}],"obsTime":1776110400},"SBGO":{"icaoId":"SBGO","flightCategory":"VFR","rawOb":"METAR SBGO 132000Z 10004KT 9999 FEW045 FEW045TCU SCT070 28/17 Q1015","temp":28,"dewp":17,"wdir":100,"wspd":4,"visib":"6+","altim":1015,"clouds":[{"cover":"FEW","base":4500},{"cover":"FEW","base":4500},{"cover":"SCT","base":7000}],"obsTime":1776110400},"SBRB":{"icaoId":"SBRB","flightCategory":"MVFR","rawOb":"METAR SBRB 132000Z 31005KT 8000 VCSH SCT024 FEW030TCU SCT090 28/24 Q1008","temp":28,"dewp":24,"wdir":310,"wspd":5,"visib":4.97,"altim":1008,"clouds":[{"cover":"SCT","base":2400},{"cover":"FEW","base":3000},{"cover":"SCT","base":9000}],"obsTime":1776110400},"SBCP":{"icaoId":"SBCP","flightCategory":"VFR","rawOb":"METAR SBCP 132000Z 11006KT 9999 FEW030 25/19 Q1015","temp":25,"dewp":19,"wdir":110,"wspd":6,"visib":"6+","altim":1015,"clouds":[{"cover":"FEW","base":3000}],"obsTime":1776110400},"SBRF":{"icaoId":"SBRF","flightCategory":"MVFR","rawOb":"METAR SBRF 132000Z 13010KT 9999 BKN023 29/24 Q1010","temp":29,"dewp":24,"wdir":130,"wspd":10,"visib":"6+","altim":1010,"clouds":[{"cover":"BKN","base":2300}],"obsTime":1776110400},"SBSG":{"icaoId":"SBSG","flightCategory":"VFR","rawOb":"METAR SBSG 132000Z 13004KT 9999 FEW011 SCT037 26/24 Q1010","temp":26,"dewp":24,"wdir":130,"wspd":4,"visib":"6+","altim":1010,"clouds":[{"cover":"FEW","base":1100},{"cover":"SCT","base":3700}],"obsTime":1776110400},"SBCB":{"icaoId":"SBCB","flightCategory":"VFR","rawOb":"METAR SBCB 132000Z 10008KT 9999 SCT030 26/18 Q1016","temp":26,"dewp":18,"wdir":100,"wspd":8,"visib":"6+","altim":1016,"clouds":[{"cover":"SCT","base":3000}],"obsTime":1776110400},"SBGR":{"icaoId":"SBGR","flightCategory":"VFR","rawOb":"METAR SBGR 132000Z 10007KT CAVOK 26/16 Q1018","temp":26,"dewp":16,"wdir":100,"wspd":7,"visib":"6+","altim":1018,"clouds":[],"obsTime":1776110400},"SBSL":{"icaoId":"SBSL","flightCategory":"VFR","rawOb":"METAR SBSL 132000Z 09009KT 9999 SCT020 BKN100 27/24 Q1009","temp":27,"dewp":24,"wdir":90,"wspd":9,"visib":"6+","altim":1009,"clouds":[{"cover":"SCT","base":2000},{"cover":"BKN","base":10000}],"obsTime":1776110400},"SBSN":{"icaoId":"SBSN","flightCategory":"VFR","rawOb":"METAR SBSN 132000Z 08005KT 9999 FEW020 31/25 Q1007","temp":31,"dewp":25,"wdir":80,"wspd":5,"visib":"6+","altim":1007,"clouds":[{"cover":"FEW","base":2000}],"obsTime":1776110400},"SBCR":{"icaoId":"SBCR","flightCategory":"VFR","rawOb":"METAR SBCR 132000Z 03005KT 9999 FEW030 FEW035TCU SCT100 30/23 Q1008","temp":30,"dewp":23,"wdir":30,"wspd":5,"visib":"6+","altim":1008,"clouds":[{"cover":"FEW","base":3000},{"cover":"FEW","base":3500},{"cover":"SCT","base":10000}],"obsTime":1776110400},"SBHT":{"icaoId":"SBHT","flightCategory":"VFR","rawOb":"METAR SBHT 132000Z 11005KT 9999 SCT030 31/25 Q1007","temp":31,"dewp":25,"wdir":110,"wspd":5,"visib":"6+","altim":1007,"clouds":[{"cover":"SCT","base":3000}],"obsTime":1776110400},"SBSP":{"icaoId":"SBSP","flightCategory":"VFR","rawOb":"METAR SBSP 132000Z 16012KT CAVOK 23/18 Q1019","temp":23,"dewp":18,"wdir":160,"wspd":12,"visib":"6+","altim":1019,"clouds":[],"obsTime":1776110400},"SBSV":{"icaoId":"SBSV","flightCategory":"MVFR","rawOb":"METAR SBSV 132000Z 19005KT 6000 -RA SCT018 FEW021TCU SCT050 BKN070 26/24 Q1012","temp":26,"dewp":24,"wdir":190,"wspd":5,"visib":3.73,"altim":1012,"clouds":[{"cover":"SCT","base":1800},{"cover":"FEW","base":2100},{"cover":"SCT","base":5000},{"cover":"BKN","base":7000}],"obsTime":1776110400},"SBBR":{"icaoId":"SBBR","flightCategory":"VFR","rawOb":"METAR SBBR 132000Z 14006KT 110V190 9999 FEW030 25/17 Q1017","temp":25,"dewp":17,"wdir":140,"wspd":6,"visib":"6+","altim":1017,"clouds":[{"cover":"FEW","base":3000}],"obsTime":1776110400},"SBIL":{"icaoId":"SBIL","flightCategory":"VFR","rawOb":"METAR SBIL 132000Z 19011KT 9999 FEW020 SCT060 28/23 Q1013","temp":28,"dewp":23,"wdir":190,"wspd":11,"visib":"6+","altim":1013,"clouds":[{"cover":"FEW","base":2000},{"cover":"SCT","base":6000}],"obsTime":1776110400},"SBTE":{"icaoId":"SBTE","flightCategory":"VFR","rawOb":"METAR SBTE 132000Z 17006KT 9999 VCSH FEW020 SCT025TCU 28/23 Q1008","temp":28,"dewp":23,"wdir":170,"wspd":6,"visib":"6+","altim":1008,"clouds":[{"cover":"FEW","base":2000},{"cover":"SCT","base":2500}],"obsTime":1776110400},"SBCT":{"icaoId":"SBCT","flightCategory":"VFR","rawOb":"METAR SBCT 132000Z 10007KT 9999 FEW020 20/17 Q1020","temp":20,"dewp":17,"wdir":100,"wspd":7,"visib":"6+","altim":1020,"clouds":[{"cover":"FEW","base":2000}],"obsTime":1776110400},"SBUL":{"icaoId":"SBUL","flightCategory":"VFR","rawOb":"METAR SBUL 132000Z 13003KT 9999 FEW049 27/15 Q1017","temp":27,"dewp":15,"wdir":130,"wspd":3,"visib":"6+","altim":1017,"clouds":[{"cover":"FEW","base":4900}],"obsTime":1776110400},"SBJU":{"icaoId":"SBJU","flightCategory":"VFR","rawOb":"METAR SBJU 132000Z 18008KT 9999 FEW022 30/21 Q1011","temp":30,"dewp":21,"wdir":180,"wspd":8,"visib":"6+","altim":1011,"clouds":[{"cover":"FEW","base":2200}],"obsTime":1776110400},"SBUR":{"icaoId":"SBUR","flightCategory":"VFR","rawOb":"METAR SBUR 132000Z 15009KT 9999 FEW046 28/17 Q1016","temp":28,"dewp":17,"wdir":150,"wspd":9,"visib":"6+","altim":1016,"clouds":[{"cover":"FEW","base":4600}],"obsTime":1776110400},"SBVT":{"icaoId":"SBVT","flightCategory":"VFR","rawOb":"METAR SBVT 132000Z 21007KT 9999 SCT030 BKN070 25/19 Q1015","temp":25,"dewp":19,"wdir":210,"wspd":7,"visib":"6+","altim":1015,"clouds":[{"cover":"SCT","base":3000},{"cover":"BKN","base":7000}],"obsTime":1776110400},"SBKP":{"icaoId":"SBKP","flightCategory":"VFR","rawOb":"METAR SBKP 132000Z 21005KT 9999 FEW045 SCT100 28/14 Q1017","temp":28,"dewp":14,"wdir":210,"wspd":5,"visib":"6+","altim":1017,"clouds":[{"cover":"FEW","base":4500},{"cover":"SCT","base":10000}],"obsTime":1776110400},"SBAR":{"icaoId":"SBAR","flightCategory":"VFR","rawOb":"METAR SBAR 132000Z 16006KT 9999 FEW023 28/24 Q1011","temp":28,"dewp":24,"wdir":160,"wspd":6,"visib":"6+","altim":1011,"clouds":[{"cover":"FEW","base":2300}],"obsTime":1776110400},"SBAX":{"icaoId":"SBAX","flightCategory":"VFR","rawOb":"METAR SBAX 132000Z 23005KT 9999 SCT045 26/13 Q1018","temp":26,"dewp":13,"wdir":230,"wspd":5,"visib":"6+","altim":1018,"clouds":[{"cover":"SCT","base":4500}],"obsTime":1776110400},"SBBH":{"icaoId":"SBBH","flightCategory":"VFR","rawOb":"METAR SBBH 132000Z 07007KT 9999 SCT048 25/17 Q1017","temp":25,"dewp":17,"wdir":70,"wspd":7,"visib":"6+","altim":1017,"clouds":[{"cover":"SCT","base":4800}],"obsTime":1776110400},"SBBU":{"icaoId":"SBBU","flightCategory":"VFR","rawOb":"METAR SBBU 132000Z 19004KT 9999 FEW035 29/19 Q1016","temp":29,"dewp":19,"wdir":190,"wspd":4,"visib":"6+","altim":1016,"clouds":[{"cover":"FEW","base":3500}],"obsTime":1776110400},"SBCA":{"icaoId":"SBCA","flightCategory":"VFR","rawOb":"METAR SBCA 132000Z 10005KT 9999 FEW030 25/18 Q1017","temp":25,"dewp":18,"wdir":100,"wspd":5,"visib":"6+","altim":1017,"clouds":[{"cover":"FEW","base":3000}],"obsTime":1776110400},"SBCJ":{"icaoId":"SBCJ","flightCategory":"VFR","rawOb":"METAR SBCJ 132000Z 08004KT 9999 SCT018 28/22 Q1012","temp":28,"dewp":22,"wdir":80,"wspd":4,"visib":"6+","altim":1012,"clouds":[{"cover":"SCT","base":1800}],"obsTime":1776110400},"SBCO":{"icaoId":"SBCO","flightCategory":"VFR","rawOb":"METAR SBCO 132000Z 13008KT 9999 FEW040 26/19 Q1016","temp":26,"dewp":19,"wdir":130,"wspd":8,"visib":"6+","altim":1016,"clouds":[{"cover":"FEW","base":4000}],"obsTime":1776110400},"SBDN":{"icaoId":"SBDN","flightCategory":"VFR","rawOb":"METAR SBDN 132000Z 09005KT CAVOK 25/18 Q1015","temp":25,"dewp":18,"wdir":90,"wspd":5,"visib":"6+","altim":1015,"clouds":[],"obsTime":1776110400},"SBES":{"icaoId":"SBES","flightCategory":"VFR","rawOb":"METAR SBES 132000Z 08006KT 020V110 9999 FEW030 25/// Q1016","temp":null,"dewp":null,"wdir":80,"wspd":6,"visib":"6+","altim":1016,"clouds":[{"cover":"FEW","base":3000}],"obsTime":1776110400},"SBIP":{"icaoId":"SBIP","flightCategory":"VFR","rawOb":"METAR SBIP 132000Z AUTO 34003KT 310V010 CAVOK 26/21 Q1015","temp":26,"dewp":21,"wdir":340,"wspd":3,"visib":"6+","altim":1015,"clouds":[],"obsTime":1776110400},"SBKG":{"icaoId":"SBKG","flightCategory":"VFR","rawOb":"METAR SBKG 132000Z 10009KT 9999 SCT020 BKN070 25/22 Q1012","temp":25,"dewp":22,"wdir":100,"wspd":9,"visib":"6+","altim":1012,"clouds":[{"cover":"SCT","base":2000},{"cover":"BKN","base":7000}],"obsTime":1776110400},"SBOI":{"icaoId":"SBOI","flightCategory":"VFR","rawOb":"METAR SBOI 132000Z AUTO 05006KT 360V080 9999 SCT027 BKN032 28/25 Q1009","temp":28,"dewp":25,"wdir":50,"wspd":6,"visib":"6+","altim":1009,"clouds":[{"cover":"SCT","base":2700},{"cover":"BKN","base":3200}],"obsTime":1776110400},"SBPB":{"icaoId":"SBPB","flightCategory":"MVFR","rawOb":"METAR SBPB 132000Z 16006KT 9999 BKN016 FEW025TCU BKN080 26/24 Q1008","temp":26,"dewp":24,"wdir":160,"wspd":6,"visib":"6+","altim":1008,"clouds":[{"cover":"BKN","base":1600},{"cover":"FEW","base":2500},{"cover":"BKN","base":8000}],"obsTime":1776110400},"SBPL":{"icaoId":"SBPL","flightCategory":"VFR","rawOb":"METAR SBPL 132000Z 14005KT 9999 SCT030 32/19 Q1010","temp":32,"dewp":19,"wdir":140,"wspd":5,"visib":"6+","altim":1010,"clouds":[{"cover":"SCT","base":3000}],"obsTime":1776110400},"SBPP":{"icaoId":"SBPP","flightCategory":"VFR","rawOb":"METAR SBPP 132000Z 02007KT 9999 FEW018 25/21 Q1015","temp":25,"dewp":21,"wdir":20,"wspd":7,"visib":"6+","altim":1015,"clouds":[{"cover":"FEW","base":1800}],"obsTime":1776110400},"SBPS":{"icaoId":"SBPS","flightCategory":"VFR","rawOb":"METAR SBPS 132000Z 17006KT 100V250 9999 SCT023 26/22 Q1014","temp":26,"dewp":22,"wdir":170,"wspd":6,"visib":"6+","altim":1014,"clouds":[{"cover":"SCT","base":2300}],"obsTime":1776110400},"SBSC":{"icaoId":"SBSC","flightCategory":"VFR","rawOb":"METAR SBSC 132000Z 17008KT 9999 FEW023 26/20 Q1015","temp":26,"dewp":20,"wdir":170,"wspd":8,"visib":"6+","altim":1015,"clouds":[{"cover":"FEW","base":2300}],"obsTime":1776110400},"SBSJ":{"icaoId":"SBSJ","flightCategory":"VFR","rawOb":"METAR SBSJ 132000Z 12011KT CAVOK 24/17 Q1018","temp":24,"dewp":17,"wdir":120,"wspd":11,"visib":"6+","altim":1018,"clouds":[],"obsTime":1776110400},"SBSM":{"icaoId":"SBSM","flightCategory":"VFR","rawOb":"METAR SBSM 132000Z 12005KT 9999 FEW035 28/20 Q1014","temp":28,"dewp":20,"wdir":120,"wspd":5,"visib":"6+","altim":1014,"clouds":[{"cover":"FEW","base":3500}],"obsTime":1776110400},"SBSR":{"icaoId":"SBSR","flightCategory":"VFR","rawOb":"METAR SBSR 132000Z 12006KT 9999 FEW040 SCT090 27/18 Q1015","temp":27,"dewp":18,"wdir":120,"wspd":6,"visib":"6+","altim":1015,"clouds":[{"cover":"FEW","base":4000},{"cover":"SCT","base":9000}],"obsTime":1776110400},"SBTF":{"icaoId":"SBTF","flightCategory":"VFR","rawOb":"METAR SBTF 132000Z 13003KT 9999 FEW012 FEW025TCU 27/27 Q1007","temp":27,"dewp":27,"wdir":130,"wspd":3,"visib":"6+","altim":1007,"clouds":[{"cover":"FEW","base":1200},{"cover":"FEW","base":2500}],"obsTime":1776110400},"SBTT":{"icaoId":"SBTT","flightCategory":"VFR","rawOb":"METAR SBTT 132000Z 24005KT 9999 VCSH SCT027 FEW035TCU BKN100 30/22 Q1007","temp":30,"dewp":22,"wdir":240,"wspd":5,"visib":"6+","altim":1007,"clouds":[{"cover":"SCT","base":2700},{"cover":"FEW","base":3500},{"cover":"BKN","base":10000}],"obsTime":1776110400},"SBUY":{"icaoId":"SBUY","flightCategory":"LIFR","rawOb":"METAR SBUY 132000Z 35005KT 1000 RA BR FEW020 FEW035TCU BKN080 25/23 Q1006","temp":25,"dewp":23,"wdir":350,"wspd":5,"visib":0.62,"altim":1006,"clouds":[{"cover":"FEW","base":2000},{"cover":"FEW","base":3500},{"cover":"BKN","base":8000}],"obsTime":1776110400},"SBVH":{"icaoId":"SBVH","flightCategory":"MVFR","rawOb":"METAR SBVH 132000Z 33003KT 9999 BKN026 FEW035TCU SCT080 28/23 Q1011","temp":28,"dewp":23,"wdir":330,"wspd":3,"visib":"6+","altim":1011,"clouds":[{"cover":"BKN","base":2600},{"cover":"FEW","base":3500},{"cover":"SCT","base":8000}],"obsTime":1776110400},"SBCC":{"icaoId":"SBCC","flightCategory":"VFR","rawOb":"METAR SBCC 132000Z 19003KT 9999 SCT030 SCT100 26/22 Q1010","temp":26,"dewp":22,"wdir":190,"wspd":3,"visib":"6+","altim":1010,"clouds":[{"cover":"SCT","base":3000},{"cover":"SCT","base":10000}],"obsTime":1776110400},"SBIH":{"icaoId":"SBIH","flightCategory":"VFR","rawOb":"METAR SBIH 132000Z 10011KT 9999 TS VCSH FEW020 FEW025CB 32/26 Q1006","temp":32,"dewp":26,"wdir":100,"wspd":11,"visib":"6+","altim":1006,"clouds":[{"cover":"FEW","base":2000},{"cover":"FEW","base":2500}],"obsTime":1776110400},"SBJP":{"icaoId":"SBJP","flightCategory":"VFR","rawOb":"METAR SBJP 132000Z 13009KT 9999 FEW020 27/24 Q1010","temp":27,"dewp":24,"wdir":130,"wspd":9,"visib":"6+","altim":1010,"clouds":[{"cover":"FEW","base":2000}],"obsTime":1776110400},"SBAN":{"icaoId":"SBAN","flightCategory":"VFR","rawOb":"METAR SBAN 132000Z 16005KT 9999 SCT020 26/16 Q1018","temp":26,"dewp":16,"wdir":160,"wspd":5,"visib":"6+","altim":1018,"clouds":[{"cover":"SCT","base":2000}],"obsTime":1776110400},"SBLE":{"icaoId":"SBLE","flightCategory":"VFR","rawOb":"METAR SBLE 132000Z AUTO 25003KT 220V290 9999 FEW014 ///// Q////","temp":null,"dewp":null,"wdir":250,"wspd":3,"visib":"6+","altim":null,"clouds":[{"cover":"FEW","base":1400}],"obsTime":1776110400},"SBAF":{"icaoId":"SBAF","flightCategory":"VFR","rawOb":"METAR SBAF 132000Z 20005KT 9999 FEW025 SCT070 26/21 Q1016","temp":26,"dewp":21,"wdir":200,"wspd":5,"visib":"6+","altim":1016,"clouds":[{"cover":"FEW","base":2500},{"cover":"SCT","base":7000}],"obsTime":1776110400},"SBGW":{"icaoId":"SBGW","flightCategory":"VFR","rawOb":"METAR SBGW 132000Z 32005KT 9999 SCT030 27/14 Q1017","temp":27,"dewp":14,"wdir":320,"wspd":5,"visib":"6+","altim":1017,"clouds":[{"cover":"SCT","base":3000}],"obsTime":1776110400},"SBJR":{"icaoId":"SBJR","flightCategory":"VFR","rawOb":"METAR SBJR 132000Z 11004KT 9999 FEW030TCU 27/19 Q1015","temp":27,"dewp":19,"wdir":110,"wspd":4,"visib":"6+","altim":1015,"clouds":[{"cover":"FEW","base":3000}],"obsTime":1776110400},"SBLS":{"icaoId":"SBLS","flightCategory":"VFR","rawOb":"METAR SBLS 132000Z 12005KT 060V130 9999 FEW045 25/17 Q1017","temp":25,"dewp":17,"wdir":120,"wspd":5,"visib":"6+","altim":1017,"clouds":[{"cover":"FEW","base":4500}],"obsTime":1776110400},"SBMT":{"icaoId":"SBMT","flightCategory":"VFR","rawOb":"METAR SBMT 132000Z 14010KT 110V180 9999 SCT035 24/17 Q1018","temp":24,"dewp":17,"wdir":140,"wspd":10,"visib":"6+","altim":1018,"clouds":[{"cover":"SCT","base":3500}],"obsTime":1776110400},"SBST":{"icaoId":"SBST","flightCategory":"VFR","rawOb":"METAR SBST 132000Z 16005KT CAVOK 25/20 Q1015","temp":25,"dewp":20,"wdir":160,"wspd":5,"visib":"6+","altim":1015,"clouds":[],"obsTime":1776110400},"SBTA":{"icaoId":"SBTA","flightCategory":"VFR","rawOb":"METAR SBTA 132000Z 16004KT 9999 SCT045 26/17 Q1016","temp":26,"dewp":17,"wdir":160,"wspd":4,"visib":"6+","altim":1016,"clouds":[{"cover":"SCT","base":4500}],"obsTime":1776110400},"SBJV":{"icaoId":"SBJV","flightCategory":"VFR","rawOb":"METAR SBJV 132000Z 11006KT 9999 FEW030 26/22 Q1015","temp":26,"dewp":22,"wdir":110,"wspd":6,"visib":"6+","altim":1015,"clouds":[{"cover":"FEW","base":3000}],"obsTime":1776110400},"SBPF":{"icaoId":"SBPF","flightCategory":"VFR","rawOb":"METAR SBPF 132000Z 04005KT 9999 FEW040 27/14 Q1017","temp":27,"dewp":14,"wdir":40,"wspd":5,"visib":"6+","altim":1017,"clouds":[{"cover":"FEW","base":4000}],"obsTime":1776110400}}}