{"updated":1774648468,"count":83,"data":{"SBBE":{"icaoId":"SBBE","flightCategory":"VFR","rawOb":"METAR SBBE 272000Z 32008KT 9999 SCT044 30/26 Q1006","temp":30,"dewp":26,"wdir":320,"wspd":8,"visib":"6+","altim":1006,"clouds":[{"cover":"SCT","base":4400}],"obsTime":1774641600},"SBLO":{"icaoId":"SBLO","flightCategory":"VFR","rawOb":"METAR SBLO 272000Z 01008KT 9999 FEW040 31/20 Q1015","temp":31,"dewp":20,"wdir":10,"wspd":8,"visib":"6+","altim":1015,"clouds":[{"cover":"FEW","base":4000}],"obsTime":1774641600},"SBMA":{"icaoId":"SBMA","flightCategory":"VFR","rawOb":"METAR SBMA 272000Z 17004KT 9999 FEW020 BKN100 30/24 Q1007","temp":30,"dewp":24,"wdir":170,"wspd":4,"visib":"6+","altim":1007,"clouds":[{"cover":"FEW","base":2000},{"cover":"BKN","base":10000}],"obsTime":1774641600},"SBCG":{"icaoId":"SBCG","flightCategory":"VFR","rawOb":"METAR SBCG 272000Z 25008KT 9999 VCSH BKN045 FEW050TCU SCT080 28/21 Q1013","temp":28,"dewp":21,"wdir":250,"wspd":8,"visib":"6+","altim":1013,"clouds":[{"cover":"BKN","base":4500},{"cover":"FEW","base":5000},{"cover":"SCT","base":8000}],"obsTime":1774641600},"SBME":{"icaoId":"SBME","flightCategory":"VFR","rawOb":"METAR SBME 272000Z 12009KT 9999 FEW030 28/23 Q1017","temp":28,"dewp":23,"wdir":120,"wspd":9,"visib":"6+","altim":1017,"clouds":[{"cover":"FEW","base":3000}],"obsTime":1774641600},"SBFI":{"icaoId":"SBFI","flightCategory":"VFR","rawOb":"METAR SBFI 272000Z 02006KT 9999 VCSH SCT040 FEW050TCU SCT070 33/23 Q1013","temp":33,"dewp":23,"wdir":20,"wspd":6,"visib":"6+","altim":1013,"clouds":[{"cover":"SCT","base":4000},{"cover":"FEW","base":5000},{"cover":"SCT","base":7000}],"obsTime":1774641600},"SBMG":{"icaoId":"SBMG","flightCategory":"VFR","rawOb":"METAR SBMG 272000Z COR 15006G16KT 9999 VCSH BKN045 FEW050TCU 30/21 Q1015","temp":30,"dewp":21,"wdir":150,"wspd":6,"visib":"6+","altim":1015,"clouds":[{"cover":"BKN","base":4500},{"cover":"FEW","base":5000}],"obsTime":1774641600},"SBBV":{"icaoId":"SBBV","flightCategory":"VFR","rawOb":"METAR SBBV 272000Z 27003KT 9999 BKN040 FEW045TCU SCT070 33/21 Q1005","temp":33,"dewp":21,"wdir":270,"wspd":3,"visib":"6+","altim":1005,"clouds":[{"cover":"BKN","base":4000},{"cover":"FEW","base":4500},{"cover":"SCT","base":7000}],"obsTime":1774641600},"SBMK":{"icaoId":"SBMK","flightCategory":"VFR","rawOb":"METAR SBMK 272000Z 07004KT 9999 FEW040 SCT080 27/17 Q1017","temp":27,"dewp":17,"wdir":70,"wspd":4,"visib":"6+","altim":1017,"clouds":[{"cover":"FEW","base":4000},{"cover":"SCT","base":8000}],"obsTime":1774641600},"SBMO":{"icaoId":"SBMO","flightCategory":"VFR","rawOb":"METAR SBMO 272000Z 09007KT 9999 -RA FEW015 BKN080 25/24 Q1011","temp":25,"dewp":24,"wdir":90,"wspd":7,"visib":"6+","altim":1011,"clouds":[{"cover":"FEW","base":1500},{"cover":"BKN","base":8000}],"obsTime":1774641600},"SBFL":{"icaoId":"SBFL","flightCategory":"VFR","rawOb":"METAR SBFL 272000Z 35009KT 9999 FEW040 31/23 Q1015","temp":31,"dewp":23,"wdir":350,"wspd":9,"visib":"6+","altim":1015,"clouds":[{"cover":"FEW","base":4000}],"obsTime":1774641600},"SBFZ":{"icaoId":"SBFZ","flightCategory":"VFR","rawOb":"METAR SBFZ 272000Z 08009KT 9999 FEW025 SCT100 29/24 Q1008","temp":29,"dewp":24,"wdir":80,"wspd":9,"visib":"6+","altim":1008,"clouds":[{"cover":"FEW","base":2500},{"cover":"SCT","base":10000}],"obsTime":1774641600},"SBMQ":{"icaoId":"SBMQ","flightCategory":"VFR","rawOb":"METAR SBMQ 272000Z 05012KT 9999 SCT030 31/26 Q1007","temp":31,"dewp":26,"wdir":50,"wspd":12,"visib":"6+","altim":1007,"clouds":[{"cover":"SCT","base":3000}],"obsTime":1774641600},"SBNT":{"icaoId":"SBNT","flightCategory":"VFR","rawOb":"METAR SBNT 272000Z 11012KT 080V140 CAVOK 29/23 Q1009","temp":29,"dewp":23,"wdir":110,"wspd":12,"visib":"6+","altim":1009,"clouds":[],"obsTime":1774641600},"SBPA":{"icaoId":"SBPA","flightCategory":"VFR","rawOb":"METAR SBPA 272000Z 26004KT 230V290 9999 FEW035 FEW040TCU 34/23 Q1013","temp":34,"dewp":23,"wdir":260,"wspd":4,"visib":"6+","altim":1013,"clouds":[{"cover":"FEW","base":3500},{"cover":"FEW","base":4000}],"obsTime":1774641600},"SBGL":{"icaoId":"SBGL","flightCategory":"VFR","rawOb":"METAR SBGL 272000Z 15010KT 9999 FEW030 29/21 Q1016","temp":29,"dewp":21,"wdir":150,"wspd":10,"visib":"6+","altim":1016,"clouds":[{"cover":"FEW","base":3000}],"obsTime":1774641600},"SBCP":{"icaoId":"SBCP","flightCategory":"VFR","rawOb":"METAR SBCP 272000Z 12009KT 9999 FEW020 SCT070 29/22 Q1017","temp":29,"dewp":22,"wdir":120,"wspd":9,"visib":"6+","altim":1017,"clouds":[{"cover":"FEW","base":2000},{"cover":"SCT","base":7000}],"obsTime":1774641600},"SBPJ":{"icaoId":"SBPJ","flightCategory":"VFR","rawOb":"METAR SBPJ 272000Z 12007KT 090V150 9999 FEW038 FEW043TCU 32/22 Q1009","temp":32,"dewp":22,"wdir":120,"wspd":7,"visib":"6+","altim":1009,"clouds":[{"cover":"FEW","base":3800},{"cover":"FEW","base":4300}],"obsTime":1774641600},"SBPV":{"icaoId":"SBPV","flightCategory":"VFR","rawOb":"METAR SBPV 272000Z 22003KT 9999 SCT030 FEW040TCU 27/23 Q1007","temp":27,"dewp":23,"wdir":220,"wspd":3,"visib":"6+","altim":1007,"clouds":[{"cover":"SCT","base":3000},{"cover":"FEW","base":4000}],"obsTime":1774641600},"SBGO":{"icaoId":"SBGO","flightCategory":"VFR","rawOb":"METAR SBGO 272000Z 08012KT CAVOK 29/17 Q1015","temp":29,"dewp":17,"wdir":80,"wspd":12,"visib":"6+","altim":1015,"clouds":[],"obsTime":1774641600},"SBCR":{"icaoId":"SBCR","flightCategory":"VFR","rawOb":"METAR SBCR 272000Z 10008KT 9999 SCT035 27/22 Q1010","temp":27,"dewp":22,"wdir":100,"wspd":8,"visib":"6+","altim":1010,"clouds":[{"cover":"SCT","base":3500}],"obsTime":1774641600},"SBRB":{"icaoId":"SBRB","flightCategory":"VFR","rawOb":"METAR SBRB 272000Z 33002KT 9999 VCSH SCT024 FEW030TCU BKN100 31/24 Q1007","temp":31,"dewp":24,"wdir":330,"wspd":2,"visib":"6+","altim":1007,"clouds":[{"cover":"SCT","base":2400},{"cover":"FEW","base":3000},{"cover":"BKN","base":10000}],"obsTime":1774641600},"SBCB":{"icaoId":"SBCB","flightCategory":"VFR","rawOb":"METAR SBCB 272000Z 09013KT CAVOK 27/23 Q1017","temp":27,"dewp":23,"wdir":90,"wspd":13,"visib":"6+","altim":1017,"clouds":[],"obsTime":1774641600},"SBRF":{"icaoId":"SBRF","flightCategory":"VFR","rawOb":"METAR SBRF 272000Z 13011KT 9999 FEW021 29/24 Q1010","temp":29,"dewp":24,"wdir":130,"wspd":11,"visib":"6+","altim":1010,"clouds":[{"cover":"FEW","base":2100}],"obsTime":1774641600},"SBSG":{"icaoId":"SBSG","flightCategory":"VFR","rawOb":"METAR SBSG 272000Z 10012KT 9999 SCT030 29/22 Q1009","temp":29,"dewp":22,"wdir":100,"wspd":12,"visib":"6+","altim":1009,"clouds":[{"cover":"SCT","base":3000}],"obsTime":1774641600},"SBGR":{"icaoId":"SBGR","flightCategory":"VFR","rawOb":"METAR SBGR 272000Z 16008KT 9999 FEW030 28/19 Q1019","temp":28,"dewp":19,"wdir":160,"wspd":8,"visib":"6+","altim":1019,"clouds":[{"cover":"FEW","base":3000}],"obsTime":1774641600},"SBSL":{"icaoId":"SBSL","flightCategory":"VFR","rawOb":"METAR SBSL 272000Z 07009KT 9999 FEW020 SCT080 28/24 Q1008","temp":28,"dewp":24,"wdir":70,"wspd":9,"visib":"6+","altim":1008,"clouds":[{"cover":"FEW","base":2000},{"cover":"SCT","base":8000}],"obsTime":1774641600},"SBBR":{"icaoId":"SBBR","flightCategory":"VFR","rawOb":"METAR SBBR 272000Z 12012KT 9999 SCT040 FEW045TCU 26/16 Q1017","temp":26,"dewp":16,"wdir":120,"wspd":12,"visib":"6+","altim":1017,"clouds":[{"cover":"SCT","base":4000},{"cover":"FEW","base":4500}],"obsTime":1774641600},"SBHT":{"icaoId":"SBHT","flightCategory":"VFR","rawOb":"METAR SBHT 272000Z 15003KT 9999 SCT025 30/24 Q1007","temp":30,"dewp":24,"wdir":150,"wspd":3,"visib":"6+","altim":1007,"clouds":[{"cover":"SCT","base":2500}],"obsTime":1774641600},"SBSN":{"icaoId":"SBSN","flightCategory":"VFR","rawOb":"METAR SBSN 272000Z 11008KT 9999 FEW020 FEW030TCU 31/24 Q1006","temp":31,"dewp":24,"wdir":110,"wspd":8,"visib":"6+","altim":1006,"clouds":[{"cover":"FEW","base":2000},{"cover":"FEW","base":3000}],"obsTime":1774641600},"SBCT":{"icaoId":"SBCT","flightCategory":"VFR","rawOb":"METAR SBCT 272000Z 11009KT 080V140 CAVOK 26/19 Q1020","temp":26,"dewp":19,"wdir":110,"wspd":9,"visib":"6+","altim":1020,"clouds":[],"obsTime":1774641600},"SBSP":{"icaoId":"SBSP","flightCategory":"VFR","rawOb":"METAR SBSP 272000Z 16014KT CAVOK 26/18 Q1020","temp":26,"dewp":18,"wdir":160,"wspd":14,"visib":"6+","altim":1020,"clouds":[],"obsTime":1774641600},"SBSV":{"icaoId":"SBSV","flightCategory":"VFR","rawOb":"METAR SBSV 272000Z 14010KT 9999 SCT022 29/22 Q1012","temp":29,"dewp":22,"wdir":140,"wspd":10,"visib":"6+","altim":1012,"clouds":[{"cover":"SCT","base":2200}],"obsTime":1774641600},"SBIL":{"icaoId":"SBIL","flightCategory":"VFR","rawOb":"METAR SBIL 272000Z 19010KT 9999 SCT023 BKN050 28/25 Q1013","temp":28,"dewp":25,"wdir":190,"wspd":10,"visib":"6+","altim":1013,"clouds":[{"cover":"SCT","base":2300},{"cover":"BKN","base":5000}],"obsTime":1774641600},"SBCZ":{"icaoId":"SBCZ","flightCategory":"VFR","rawOb":"METAR SBCZ 272000Z 32004KT 9999 SCT030 30/23 Q1007","temp":30,"dewp":23,"wdir":320,"wspd":4,"visib":"6+","altim":1007,"clouds":[{"cover":"SCT","base":3000}],"obsTime":1774641600},"SBTE":{"icaoId":"SBTE","flightCategory":"VFR","rawOb":"METAR SBTE 272000Z 32005KT 9999 FEW030TCU 30/25 Q1007","temp":30,"dewp":25,"wdir":320,"wspd":5,"visib":"6+","altim":1007,"clouds":[{"cover":"FEW","base":3000}],"obsTime":1774641600},"SBJU":{"icaoId":"SBJU","flightCategory":"MVFR","rawOb":"METAR SBJU 272000Z 12003KT 9999 BKN022 31/21 Q1011","temp":31,"dewp":21,"wdir":120,"wspd":3,"visib":"6+","altim":1011,"clouds":[{"cover":"BKN","base":2200}],"obsTime":1774641600},"SBUL":{"icaoId":"SBUL","flightCategory":"VFR","rawOb":"METAR SBUL 272000Z 10006KT 030V130 9999 SCT045 SCT070 26/18 Q1018","temp":26,"dewp":18,"wdir":100,"wspd":6,"visib":"6+","altim":1018,"clouds":[{"cover":"SCT","base":4500},{"cover":"SCT","base":7000}],"obsTime":1774641600},"SBCF":{"icaoId":"SBCF","flightCategory":"VFR","rawOb":"METAR SBCF 272000Z 11012KT CAVOK 27/14 Q1019","temp":27,"dewp":14,"wdir":110,"wspd":12,"visib":"6+","altim":1019,"clouds":[],"obsTime":1774641600},"SBUR":{"icaoId":"SBUR","flightCategory":"VFR","rawOb":"METAR SBUR 272000Z 12006KT CAVOK 28/17 Q1017","temp":28,"dewp":17,"wdir":120,"wspd":6,"visib":"6+","altim":1017,"clouds":[],"obsTime":1774641600},"SBKP":{"icaoId":"SBKP","flightCategory":"VFR","rawOb":"METAR SBKP 272000Z 13009KT CAVOK 32/12 Q1017","temp":32,"dewp":12,"wdir":130,"wspd":9,"visib":"6+","altim":1017,"clouds":[],"obsTime":1774641600},"SBEG":{"icaoId":"SBEG","flightCategory":"VFR","rawOb":"METAR SBEG 272000Z 13004KT 100V160 9999 SCT030 FEW035TCU 32/23 Q1005 RETS","temp":32,"dewp":23,"wdir":130,"wspd":4,"visib":"6+","altim":1005,"clouds":[{"cover":"SCT","base":3000},{"cover":"FEW","base":3500}],"obsTime":1774641600},"SBVT":{"icaoId":"SBVT","flightCategory":"VFR","rawOb":"METAR SBVT 272000Z 18008KT 9999 SCT020 FEW030TCU 28/23 Q1016","temp":28,"dewp":23,"wdir":180,"wspd":8,"visib":"6+","altim":1016,"clouds":[{"cover":"SCT","base":2000},{"cover":"FEW","base":3000}],"obsTime":1774641600},"SBAT":{"icaoId":"SBAT","flightCategory":"VFR","rawOb":"METAR SBAT 272000Z 18005KT 9999 SCT025 FEW028TCU SCT100 29/23 Q1008","temp":29,"dewp":23,"wdir":180,"wspd":5,"visib":"6+","altim":1008,"clouds":[{"cover":"SCT","base":2500},{"cover":"FEW","base":2800},{"cover":"SCT","base":10000}],"obsTime":1774641600},"SBPB":{"icaoId":"SBPB","flightCategory":"VFR","rawOb":"METAR SBPB 272000Z 05011KT 9999 SCT016 BKN080 29/25 Q1008","temp":29,"dewp":25,"wdir":50,"wspd":11,"visib":"6+","altim":1008,"clouds":[{"cover":"SCT","base":1600},{"cover":"BKN","base":8000}],"obsTime":1774641600},"SBPS":{"icaoId":"SBPS","flightCategory":"VFR","rawOb":"METAR SBPS 272000Z 16006KT 9999 SCT020 26/24 Q1014","temp":26,"dewp":24,"wdir":160,"wspd":6,"visib":"6+","altim":1014,"clouds":[{"cover":"SCT","base":2000}],"obsTime":1774641600},"SBCJ":{"icaoId":"SBCJ","flightCategory":"VFR","rawOb":"METAR SBCJ 272000Z 13004KT 9999 SCT013 SCT015 26/23 Q1012","temp":26,"dewp":23,"wdir":130,"wspd":4,"visib":"6+","altim":1012,"clouds":[{"cover":"SCT","base":1300},{"cover":"SCT","base":1500}],"obsTime":1774641600},"SBBH":{"icaoId":"SBBH","flightCategory":"VFR","rawOb":"METAR SBBH 272000Z 09008KT CAVOK 27/14 Q1019","temp":27,"dewp":14,"wdir":90,"wspd":8,"visib":"6+","altim":1019,"clouds":[],"obsTime":1774641600},"SBBU":{"icaoId":"SBBU","flightCategory":"VFR","rawOb":"METAR SBBU 272000Z 06007KT 9999 SCT045 32/19 Q1016","temp":32,"dewp":19,"wdir":60,"wspd":7,"visib":"6+","altim":1016,"clouds":[{"cover":"SCT","base":4500}],"obsTime":1774641600},"SBVH":{"icaoId":"SBVH","flightCategory":"MVFR","rawOb":"METAR SBVH 272000Z 33010KT 9999 -RA BKN015 SCT023 BKN100 24/22 Q1011","temp":24,"dewp":22,"wdir":330,"wspd":10,"visib":"6+","altim":1011,"clouds":[{"cover":"BKN","base":1500},{"cover":"SCT","base":2300},{"cover":"BKN","base":10000}],"obsTime":1774641600},"SBAR":{"icaoId":"SBAR","flightCategory":"VFR","rawOb":"METAR SBAR 272000Z 14012KT 9999 SCT025 29/23 Q1011","temp":29,"dewp":23,"wdir":140,"wspd":12,"visib":"6+","altim":1011,"clouds":[{"cover":"SCT","base":2500}],"obsTime":1774641600},"SBAX":{"icaoId":"SBAX","flightCategory":"VFR","rawOb":"METAR SBAX 272000Z 09008KT 9999 FEW025 27/17 Q1018","temp":27,"dewp":17,"wdir":90,"wspd":8,"visib":"6+","altim":1018,"clouds":[{"cover":"FEW","base":2500}],"obsTime":1774641600},"SBCA":{"icaoId":"SBCA","flightCategory":"VFR","rawOb":"METAR SBCA 272000Z 03006KT 9999 SCT020 FEW025TCU SCT070 28/20 Q1018","temp":28,"dewp":20,"wdir":30,"wspd":6,"visib":"6+","altim":1018,"clouds":[{"cover":"SCT","base":2000},{"cover":"FEW","base":2500},{"cover":"SCT","base":7000}],"obsTime":1774641600},"SBCO":{"icaoId":"SBCO","flightCategory":"VFR","rawOb":"METAR SBCO 272000Z 23003KT 180V270 9999 FEW040TCU 34/23 Q1013","temp":34,"dewp":23,"wdir":230,"wspd":3,"visib":"6+","altim":1013,"clouds":[{"cover":"FEW","base":4000}],"obsTime":1774641600},"SBDN":{"icaoId":"SBDN","flightCategory":"VFR","rawOb":"METAR SBDN 272000Z 05007KT CAVOK 33/19 Q1014","temp":33,"dewp":19,"wdir":50,"wspd":7,"visib":"6+","altim":1014,"clouds":[],"obsTime":1774641600},"SBES":{"icaoId":"SBES","flightCategory":"VFR","rawOb":"METAR SBES 272000Z 09011KT 050V110 9999 FEW020 27/// Q1017","temp":null,"dewp":null,"wdir":90,"wspd":11,"visib":"6+","altim":1017,"clouds":[{"cover":"FEW","base":2000}],"obsTime":1774641600},"SBIP":{"icaoId":"SBIP","flightCategory":"VFR","rawOb":"METAR SBIP 272000Z AUTO VRB02KT CAVOK 30/19 Q1016","temp":30,"dewp":19,"wdir":"VRB","wspd":2,"visib":"6+","altim":1016,"clouds":[],"obsTime":1774641600},"SBKG":{"icaoId":"SBKG","flightCategory":"MVFR","rawOb":"METAR SBKG 272000Z 08007KT 9999 RA FEW023TCU BKN023 23/21 Q1012","temp":23,"dewp":21,"wdir":80,"wspd":7,"visib":"6+","altim":1012,"clouds":[{"cover":"FEW","base":2300},{"cover":"BKN","base":2300}],"obsTime":1774641600},"SBOI":{"icaoId":"SBOI","flightCategory":"VFR","rawOb":"METAR SBOI 272000Z AUTO VRB02KT CAVOK 25/24 Q1009 RETS","temp":25,"dewp":24,"wdir":"VRB","wspd":2,"visib":"6+","altim":1009,"clouds":[],"obsTime":1774641600},"SBPL":{"icaoId":"SBPL","flightCategory":"MVFR","rawOb":"METAR SBPL 272000Z 12011KT 9999 BKN030 FEW033TCU 27/22 Q1011","temp":27,"dewp":22,"wdir":120,"wspd":11,"visib":"6+","altim":1011,"clouds":[{"cover":"BKN","base":3000},{"cover":"FEW","base":3300}],"obsTime":1774641600},"SBPP":{"icaoId":"SBPP","flightCategory":"VFR","rawOb":"METAR SBPP 272000Z 05010KT 9999 SCT025 29/20 Q1014","temp":29,"dewp":20,"wdir":50,"wspd":10,"visib":"6+","altim":1014,"clouds":[{"cover":"SCT","base":2500}],"obsTime":1774641600},"SBSC":{"icaoId":"SBSC","flightCategory":"VFR","rawOb":"METAR SBSC 272000Z 14008KT CAVOK 29/21 Q1016","temp":29,"dewp":21,"wdir":140,"wspd":8,"visib":"6+","altim":1016,"clouds":[],"obsTime":1774641600},"SBSJ":{"icaoId":"SBSJ","flightCategory":"VFR","rawOb":"METAR SBSJ 272000Z 11004KT CAVOK 30/13 Q1018","temp":30,"dewp":13,"wdir":110,"wspd":4,"visib":"6+","altim":1018,"clouds":[],"obsTime":1774641600},"SBSM":{"icaoId":"SBSM","flightCategory":"VFR","rawOb":"METAR SBSM 272000Z 08004KT 010V120 9999 FEW035 FEW040TCU SCT100 30/24 Q1013 RETS","temp":30,"dewp":24,"wdir":80,"wspd":4,"visib":"6+","altim":1013,"clouds":[{"cover":"FEW","base":3500},{"cover":"FEW","base":4000},{"cover":"SCT","base":10000}],"obsTime":1774641600},"SBSR":{"icaoId":"SBSR","flightCategory":"VFR","rawOb":"METAR SBSR 272000Z 10007KT 060V160 9999 SCT035 31/14 Q1015","temp":31,"dewp":14,"wdir":100,"wspd":7,"visib":"6+","altim":1015,"clouds":[{"cover":"SCT","base":3500}],"obsTime":1774641600},"SBTF":{"icaoId":"SBTF","flightCategory":"VFR","rawOb":"METAR SBTF 272000Z 03006KT 9999 SCT018 FEW025TCU 31/26 Q1005","temp":31,"dewp":26,"wdir":30,"wspd":6,"visib":"6+","altim":1005,"clouds":[{"cover":"SCT","base":1800},{"cover":"FEW","base":2500}],"obsTime":1774641600},"SBTT":{"icaoId":"SBTT","flightCategory":"VFR","rawOb":"METAR SBTT 272000Z 24007KT 9999 FEW030 30/22 Q1006","temp":30,"dewp":22,"wdir":240,"wspd":7,"visib":"6+","altim":1006,"clouds":[{"cover":"FEW","base":3000}],"obsTime":1774641600},"SBUY":{"icaoId":"SBUY","flightCategory":"VFR","rawOb":"METAR SBUY 272000Z 17004KT 9999 VCSH SCT025 FEW030TCU BKN090 31/25 Q1005","temp":31,"dewp":25,"wdir":170,"wspd":4,"visib":"6+","altim":1005,"clouds":[{"cover":"SCT","base":2500},{"cover":"FEW","base":3000},{"cover":"BKN","base":9000}],"obsTime":1774641600},"SBCC":{"icaoId":"SBCC","flightCategory":"MVFR","rawOb":"METAR SBCC 272000Z 12007KT 9999 VCSH BKN020 FEW025TCU BKN100 27/20 Q1010","temp":27,"dewp":20,"wdir":120,"wspd":7,"visib":"6+","altim":1010,"clouds":[{"cover":"BKN","base":2000},{"cover":"FEW","base":2500},{"cover":"BKN","base":10000}],"obsTime":1774641600},"SBPF":{"icaoId":"SBPF","flightCategory":"VFR","rawOb":"METAR SBPF 272000Z 34006KT 9999 FEW040 30/19 Q1018","temp":30,"dewp":19,"wdir":340,"wspd":6,"visib":"6+","altim":1018,"clouds":[{"cover":"FEW","base":4000}],"obsTime":1774641600},"SBJR":{"icaoId":"SBJR","flightCategory":"VFR","rawOb":"METAR SBJR 272000Z 12007KT 9999 FEW015 31/21 Q1016","temp":31,"dewp":21,"wdir":120,"wspd":7,"visib":"6+","altim":1016,"clouds":[{"cover":"FEW","base":1500}],"obsTime":1774641600},"SBLS":{"icaoId":"SBLS","flightCategory":"VFR","rawOb":"METAR SBLS 272000Z 13009KT 9999 FEW045 27/15 Q1019","temp":27,"dewp":15,"wdir":130,"wspd":9,"visib":"6+","altim":1019,"clouds":[{"cover":"FEW","base":4500}],"obsTime":1774641600},"SBNM":{"icaoId":"SBNM","flightCategory":"VFR","rawOb":"METAR SBNM 272000Z 29002KT 9999 FEW025 32/23 Q1014","temp":32,"dewp":23,"wdir":290,"wspd":2,"visib":"6+","altim":1014,"clouds":[{"cover":"FEW","base":2500}],"obsTime":1774641600},"SBMT":{"icaoId":"SBMT","flightCategory":"VFR","rawOb":"METAR SBMT 272000Z VRB01KT CAVOK 26/18 Q1019","temp":26,"dewp":18,"wdir":"VRB","wspd":1,"visib":"6+","altim":1019,"clouds":[],"obsTime":1774641600},"SBAF":{"icaoId":"SBAF","flightCategory":"VFR","rawOb":"METAR SBAF 272000Z 19008KT 140V230 9999 FEW040 30/22 Q1016","temp":30,"dewp":22,"wdir":190,"wspd":8,"visib":"6+","altim":1016,"clouds":[{"cover":"FEW","base":4000}],"obsTime":1774641600},"SBST":{"icaoId":"SBST","flightCategory":"MVFR","rawOb":"METAR SBST 272000Z 15006KT 100V190 8000 SCT024 28/23 Q1016","temp":28,"dewp":23,"wdir":150,"wspd":6,"visib":4.97,"altim":1016,"clouds":[{"cover":"SCT","base":2400}],"obsTime":1774641600},"SBTA":{"icaoId":"SBTA","flightCategory":"VFR","rawOb":"METAR SBTA 272000Z 02003KT 360V060 9999 FEW035 26/19 Q1017","temp":26,"dewp":19,"wdir":20,"wspd":3,"visib":"6+","altim":1017,"clouds":[{"cover":"FEW","base":3500}],"obsTime":1774641600},"SBAN":{"icaoId":"SBAN","flightCategory":"VFR","rawOb":"METAR SBAN 272000Z 13010KT 9999 FEW040 26/17 Q1018","temp":26,"dewp":17,"wdir":130,"wspd":10,"visib":"6+","altim":1018,"clouds":[{"cover":"FEW","base":4000}],"obsTime":1774641600},"SBJV":{"icaoId":"SBJV","flightCategory":"VFR","rawOb":"METAR SBJV 272000Z 07005KT 9999 SCT030 30/25 Q1016","temp":30,"dewp":25,"wdir":70,"wspd":5,"visib":"6+","altim":1016,"clouds":[{"cover":"SCT","base":3000}],"obsTime":1774641600},"SBLE":{"icaoId":"SBLE","flightCategory":"VFR","rawOb":"METAR SBLE 272000Z AUTO 15006KT 120V190 CAVOK 28/19 Q1014","temp":28,"dewp":19,"wdir":150,"wspd":6,"visib":"6+","altim":1014,"clouds":[],"obsTime":1774641600},"SBGW":{"icaoId":"SBGW","flightCategory":"VFR","rawOb":"METAR SBGW 272000Z 03006KT 9999 FEW030 29/15 Q1018","temp":29,"dewp":15,"wdir":30,"wspd":6,"visib":"6+","altim":1018,"clouds":[{"cover":"FEW","base":3000}],"obsTime":1774641600},"SBIH":{"icaoId":"SBIH","flightCategory":"VFR","rawOb":"METAR SBIH 272000Z 03004KT 9999 FEW015 FEW025TCU BKN100 26/24 Q1006","temp":26,"dewp":24,"wdir":30,"wspd":4,"visib":"6+","altim":1006,"clouds":[{"cover":"FEW","base":1500},{"cover":"FEW","base":2500},{"cover":"BKN","base":10000}],"obsTime":1774641600},"SBJP":{"icaoId":"SBJP","flightCategory":"VFR","rawOb":"METAR SBJP 272000Z 10010KT 070V130 9999 FEW025 29/23 Q1010","temp":29,"dewp":23,"wdir":100,"wspd":10,"visib":"6+","altim":1010,"clouds":[{"cover":"FEW","base":2500}],"obsTime":1774641600}}}