{"updated":1776804067,"count":83,"data":{"SBPV":{"icaoId":"SBPV","flightCategory":"VFR","rawOb":"METAR SBPV 211900Z 35006KT 320V050 9999 VCSH BKN040 FEW045TCU 33/26 Q1008","temp":33,"dewp":26,"wdir":350,"wspd":6,"visib":"6+","altim":1008,"clouds":[{"cover":"BKN","base":4000},{"cover":"FEW","base":4500}],"obsTime":1776798000},"SBCG":{"icaoId":"SBCG","flightCategory":"VFR","rawOb":"METAR SBCG 211900Z 03014KT 9999 VCSH SCT045 FEW050TCU SCT100 29/19 Q1013","temp":29,"dewp":19,"wdir":30,"wspd":14,"visib":"6+","altim":1013,"clouds":[{"cover":"SCT","base":4500},{"cover":"FEW","base":5000},{"cover":"SCT","base":10000}],"obsTime":1776798000},"SBMG":{"icaoId":"SBMG","flightCategory":"VFR","rawOb":"METAR SBMG 211900Z 13003KT 070V190 CAVOK 29/13 Q1015","temp":29,"dewp":13,"wdir":130,"wspd":3,"visib":"6+","altim":1015,"clouds":[],"obsTime":1776798000},"SBAT":{"icaoId":"SBAT","flightCategory":"VFR","rawOb":"METAR SBAT 211900Z 00000KT 9999 FEW030 FEW032TCU 30/25 Q1009","temp":30,"dewp":25,"wdir":0,"wspd":0,"visib":"6+","altim":1009,"clouds":[{"cover":"FEW","base":3000},{"cover":"FEW","base":3200}],"obsTime":1776798000},"SBMK":{"icaoId":"SBMK","flightCategory":"VFR","rawOb":"METAR SBMK 211900Z 08003KT 9999 FEW046 30/16 Q1015","temp":30,"dewp":16,"wdir":80,"wspd":3,"visib":"6+","altim":1015,"clouds":[{"cover":"FEW","base":4600}],"obsTime":1776798000},"SBMO":{"icaoId":"SBMO","flightCategory":"VFR","rawOb":"METAR SBMO 211900Z 20004KT 9999 VCSH SCT018 FEW025TCU BKN055 27/24 Q1012","temp":27,"dewp":24,"wdir":200,"wspd":4,"visib":"6+","altim":1012,"clouds":[{"cover":"SCT","base":1800},{"cover":"FEW","base":2500},{"cover":"BKN","base":5500}],"obsTime":1776798000},"SBFL":{"icaoId":"SBFL","flightCategory":"VFR","rawOb":"METAR SBFL 211900Z 01009KT CAVOK 27/19 Q1015","temp":27,"dewp":19,"wdir":10,"wspd":9,"visib":"6+","altim":1015,"clouds":[],"obsTime":1776798000},"SBFI":{"icaoId":"SBFI","flightCategory":"VFR","rawOb":"METAR SBFI 211900Z 35008KT 9999 VCSH SCT030 FEW040TCU BKN080 28/23 Q1014","temp":28,"dewp":23,"wdir":350,"wspd":8,"visib":"6+","altim":1014,"clouds":[{"cover":"SCT","base":3000},{"cover":"FEW","base":4000},{"cover":"BKN","base":8000}],"obsTime":1776798000},"SBEG":{"icaoId":"SBEG","flightCategory":"VFR","rawOb":"METAR SBEG 211900Z 04004KT 010V080 9999 SHRA SCT025 FEW030TCU SCT040 30/24 Q1009","temp":30,"dewp":24,"wdir":40,"wspd":4,"visib":"6+","altim":1009,"clouds":[{"cover":"SCT","base":2500},{"cover":"FEW","base":3000},{"cover":"SCT","base":4000}],"obsTime":1776798000},"SBMA":{"icaoId":"SBMA","flightCategory":"VFR","rawOb":"METAR SBMA 211900Z 20006KT 9999 SCT013 BKN090 25/23 Q1009","temp":25,"dewp":23,"wdir":200,"wspd":6,"visib":"6+","altim":1009,"clouds":[{"cover":"SCT","base":1300},{"cover":"BKN","base":9000}],"obsTime":1776798000},"SBBR":{"icaoId":"SBBR","flightCategory":"VFR","rawOb":"METAR SBBR 211900Z 07005KT 9999 SCT030 27/15 Q1017","temp":27,"dewp":15,"wdir":70,"wspd":5,"visib":"6+","altim":1017,"clouds":[{"cover":"SCT","base":3000}],"obsTime":1776798000},"SBME":{"icaoId":"SBME","flightCategory":"VFR","rawOb":"METAR SBME 211900Z 16004KT 9999 BKN042 26/20 Q1015","temp":26,"dewp":20,"wdir":160,"wspd":4,"visib":"6+","altim":1015,"clouds":[{"cover":"BKN","base":4200}],"obsTime":1776798000},"SBMQ":{"icaoId":"SBMQ","flightCategory":"VFR","rawOb":"METAR SBMQ 211900Z 08006KT 9999 SCT023 30/25 Q1008","temp":30,"dewp":25,"wdir":80,"wspd":6,"visib":"6+","altim":1008,"clouds":[{"cover":"SCT","base":2300}],"obsTime":1776798000},"SBCP":{"icaoId":"SBCP","flightCategory":"VFR","rawOb":"METAR SBCP 211900Z 19006KT 9999 SCT030 28/18 Q1015","temp":28,"dewp":18,"wdir":190,"wspd":6,"visib":"6+","altim":1015,"clouds":[{"cover":"SCT","base":3000}],"obsTime":1776798000},"SBNT":{"icaoId":"SBNT","flightCategory":"MVFR","rawOb":"METAR SBNT 211900Z 13013KT 9999 BKN025 30/23 Q1010","temp":30,"dewp":23,"wdir":130,"wspd":13,"visib":"6+","altim":1010,"clouds":[{"cover":"BKN","base":2500}],"obsTime":1776798000},"SBFZ":{"icaoId":"SBFZ","flightCategory":"VFR","rawOb":"METAR SBFZ 211900Z 05004KT 020V090 9999 SCT018 FEW025TCU 28/24 Q1010","temp":28,"dewp":24,"wdir":50,"wspd":4,"visib":"6+","altim":1010,"clouds":[{"cover":"SCT","base":1800},{"cover":"FEW","base":2500}],"obsTime":1776798000},"SBPA":{"icaoId":"SBPA","flightCategory":"VFR","rawOb":"METAR SBPA 211900Z 32005KT 290V040 9999 FEW015 BKN060 24/19 Q1014","temp":24,"dewp":19,"wdir":320,"wspd":5,"visib":"6+","altim":1014,"clouds":[{"cover":"FEW","base":1500},{"cover":"BKN","base":6000}],"obsTime":1776798000},"SBGL":{"icaoId":"SBGL","flightCategory":"VFR","rawOb":"METAR SBGL 211900Z 12009KT 090V150 9999 SCT027 SCT050 26/19 Q1015","temp":26,"dewp":19,"wdir":120,"wspd":9,"visib":"6+","altim":1015,"clouds":[{"cover":"SCT","base":2700},{"cover":"SCT","base":5000}],"obsTime":1776798000},"SBPJ":{"icaoId":"SBPJ","flightCategory":"VFR","rawOb":"METAR SBPJ 211900Z 09006KT 9999 FEW013 SCT025 BKN090 26/23 Q1011","temp":26,"dewp":23,"wdir":90,"wspd":6,"visib":"6+","altim":1011,"clouds":[{"cover":"FEW","base":1300},{"cover":"SCT","base":2500},{"cover":"BKN","base":9000}],"obsTime":1776798000},"SBBV":{"icaoId":"SBBV","flightCategory":"VFR","rawOb":"METAR SBBV 211900Z 13008KT 9999 SCT040 FEW045TCU SCT070 32/21 Q1009","temp":32,"dewp":21,"wdir":130,"wspd":8,"visib":"6+","altim":1009,"clouds":[{"cover":"SCT","base":4000},{"cover":"FEW","base":4500},{"cover":"SCT","base":7000}],"obsTime":1776798000},"SBGO":{"icaoId":"SBGO","flightCategory":"VFR","rawOb":"METAR SBGO 211900Z 34008KT 280V040 9999 SCT050 FEW056TCU 30/19 Q1014","temp":30,"dewp":19,"wdir":340,"wspd":8,"visib":"6+","altim":1014,"clouds":[{"cover":"SCT","base":5000},{"cover":"FEW","base":5600}],"obsTime":1776798000},"SBCB":{"icaoId":"SBCB","flightCategory":"VFR","rawOb":"METAR SBCB 211900Z 20007KT CAVOK 26/20 Q1016","temp":26,"dewp":20,"wdir":200,"wspd":7,"visib":"6+","altim":1016,"clouds":[],"obsTime":1776798000},"SBRB":{"icaoId":"SBRB","flightCategory":"MVFR","rawOb":"METAR SBRB 211900Z 26007KT 230V290 7000 FEW007 SCT020 FEW025TCU BKN060 26/24 Q1011","temp":26,"dewp":24,"wdir":260,"wspd":7,"visib":4.35,"altim":1011,"clouds":[{"cover":"FEW","base":700},{"cover":"SCT","base":2000},{"cover":"FEW","base":2500},{"cover":"BKN","base":6000}],"obsTime":1776798000},"SBRF":{"icaoId":"SBRF","flightCategory":"VFR","rawOb":"METAR SBRF 211900Z 13012KT 9999 FEW025 29/23 Q1010","temp":29,"dewp":23,"wdir":130,"wspd":12,"visib":"6+","altim":1010,"clouds":[{"cover":"FEW","base":2500}],"obsTime":1776798000},"SBGR":{"icaoId":"SBGR","flightCategory":"VFR","rawOb":"METAR SBGR 211900Z 16004KT 9999 FEW040 26/13 Q1018","temp":26,"dewp":13,"wdir":160,"wspd":4,"visib":"6+","altim":1018,"clouds":[{"cover":"FEW","base":4000}],"obsTime":1776798000},"SBSG":{"icaoId":"SBSG","flightCategory":"MVFR","rawOb":"METAR SBSG 211900Z 12008KT 090V150 9999 VCSH BKN020 BKN040 29/23 Q1010","temp":29,"dewp":23,"wdir":120,"wspd":8,"visib":"6+","altim":1010,"clouds":[{"cover":"BKN","base":2000},{"cover":"BKN","base":4000}],"obsTime":1776798000},"SBCR":{"icaoId":"SBCR","flightCategory":"VFR","rawOb":"METAR SBCR 211900Z 08006KT 040V120 9999 FEW030 29/22 Q1009","temp":29,"dewp":22,"wdir":80,"wspd":6,"visib":"6+","altim":1009,"clouds":[{"cover":"FEW","base":3000}],"obsTime":1776798000},"SBCT":{"icaoId":"SBCT","flightCategory":"VFR","rawOb":"METAR SBCT 211900Z 12007KT 9999 FEW045 23/14 Q1019","temp":23,"dewp":14,"wdir":120,"wspd":7,"visib":"6+","altim":1019,"clouds":[{"cover":"FEW","base":4500}],"obsTime":1776798000},"SBSL":{"icaoId":"SBSL","flightCategory":"VFR","rawOb":"METAR SBSL 211900Z 05006KT 9999 SCT020 BKN100 27/24 Q1010","temp":27,"dewp":24,"wdir":50,"wspd":6,"visib":"6+","altim":1010,"clouds":[{"cover":"SCT","base":2000},{"cover":"BKN","base":10000}],"obsTime":1776798000},"SBHT":{"icaoId":"SBHT","flightCategory":"VFR","rawOb":"METAR SBHT 211900Z 13003KT 9999 FEW020 BKN090 27/25 Q1009","temp":27,"dewp":25,"wdir":130,"wspd":3,"visib":"6+","altim":1009,"clouds":[{"cover":"FEW","base":2000},{"cover":"BKN","base":9000}],"obsTime":1776798000},"SBSN":{"icaoId":"SBSN","flightCategory":"MVFR","rawOb":"METAR SBSN 211900Z 03004KT 320V060 9999 SCT011 BKN015 FEW025TCU BKN090 27/25 Q1008","temp":27,"dewp":25,"wdir":30,"wspd":4,"visib":"6+","altim":1008,"clouds":[{"cover":"SCT","base":1100},{"cover":"BKN","base":1500},{"cover":"FEW","base":2500},{"cover":"BKN","base":9000}],"obsTime":1776798000},"SBBE":{"icaoId":"SBBE","flightCategory":"VFR","rawOb":"METAR SBBE 211900Z 10007KT 9999 FEW045 FEW046TCU BKN096 27/23 Q1009","temp":27,"dewp":23,"wdir":100,"wspd":7,"visib":"6+","altim":1009,"clouds":[{"cover":"FEW","base":4500},{"cover":"FEW","base":4600},{"cover":"BKN","base":9600}],"obsTime":1776798000},"SBSP":{"icaoId":"SBSP","flightCategory":"VFR","rawOb":"METAR SBSP 211900Z 17011KT CAVOK 23/15 Q1019","temp":23,"dewp":15,"wdir":170,"wspd":11,"visib":"6+","altim":1019,"clouds":[],"obsTime":1776798000},"SBIL":{"icaoId":"SBIL","flightCategory":"VFR","rawOb":"METAR SBIL 211900Z 18006KT 140V220 CAVOK 30/22 Q1013","temp":30,"dewp":22,"wdir":180,"wspd":6,"visib":"6+","altim":1013,"clouds":[],"obsTime":1776798000},"SBSV":{"icaoId":"SBSV","flightCategory":"MVFR","rawOb":"METAR SBSV 211900Z 16013KT 120V200 9999 VCSH BKN022 FEW025TCU BKN080 28/22 Q1012","temp":28,"dewp":22,"wdir":160,"wspd":13,"visib":"6+","altim":1012,"clouds":[{"cover":"BKN","base":2200},{"cover":"FEW","base":2500},{"cover":"BKN","base":8000}],"obsTime":1776798000},"SBTE":{"icaoId":"SBTE","flightCategory":"VFR","rawOb":"METAR SBTE 211900Z 28006KT 9999 FEW020 BKN100 28/25 Q1009","temp":28,"dewp":25,"wdir":280,"wspd":6,"visib":"6+","altim":1009,"clouds":[{"cover":"FEW","base":2000},{"cover":"BKN","base":10000}],"obsTime":1776798000},"SBCF":{"icaoId":"SBCF","flightCategory":"VFR","rawOb":"METAR SBCF 211900Z 09006KT 9999 SCT040 27/17 Q1017","temp":27,"dewp":17,"wdir":90,"wspd":6,"visib":"6+","altim":1017,"clouds":[{"cover":"SCT","base":4000}],"obsTime":1776798000},"SBJU":{"icaoId":"SBJU","flightCategory":"VFR","rawOb":"METAR SBJU 211900Z 09002KT 9999 FEW022 30/22 Q1012","temp":30,"dewp":22,"wdir":90,"wspd":2,"visib":"6+","altim":1012,"clouds":[{"cover":"FEW","base":2200}],"obsTime":1776798000},"SBUL":{"icaoId":"SBUL","flightCategory":"VFR","rawOb":"METAR SBUL 211900Z 06007KT 9999 FEW040 FEW045TCU 28/17 Q1017","temp":28,"dewp":17,"wdir":60,"wspd":7,"visib":"6+","altim":1017,"clouds":[{"cover":"FEW","base":4000},{"cover":"FEW","base":4500}],"obsTime":1776798000},"SBKP":{"icaoId":"SBKP","flightCategory":"VFR","rawOb":"METAR SBKP 211900Z 18007KT CAVOK 28/14 Q1016","temp":28,"dewp":14,"wdir":180,"wspd":7,"visib":"6+","altim":1016,"clouds":[],"obsTime":1776798000},"SBUR":{"icaoId":"SBUR","flightCategory":"VFR","rawOb":"METAR SBUR 211900Z 24007KT CAVOK 31/17 Q1015","temp":31,"dewp":17,"wdir":240,"wspd":7,"visib":"6+","altim":1015,"clouds":[],"obsTime":1776798000},"SBVT":{"icaoId":"SBVT","flightCategory":"VFR","rawOb":"METAR SBVT 211900Z 16012KT 9999 FEW040 25/20 Q1015","temp":25,"dewp":20,"wdir":160,"wspd":12,"visib":"6+","altim":1015,"clouds":[{"cover":"FEW","base":4000}],"obsTime":1776798000},"SBCZ":{"icaoId":"SBCZ","flightCategory":"MVFR","rawOb":"METAR SBCZ 211900Z 01003KT 340V060 9999 BKN025 BKN090 29/24 Q1011","temp":29,"dewp":24,"wdir":10,"wspd":3,"visib":"6+","altim":1011,"clouds":[{"cover":"BKN","base":2500},{"cover":"BKN","base":9000}],"obsTime":1776798000},"SBLO":{"icaoId":"SBLO","flightCategory":"VFR","rawOb":"METAR SBLO 211900Z 09006KT CAVOK 28/11 Q1016","temp":28,"dewp":11,"wdir":90,"wspd":6,"visib":"6+","altim":1016,"clouds":[],"obsTime":1776798000},"SBCJ":{"icaoId":"SBCJ","flightCategory":"VFR","rawOb":"METAR SBCJ 211900Z 22005KT 9999 FEW009 SCT013 25/21 Q1014","temp":25,"dewp":21,"wdir":220,"wspd":5,"visib":"6+","altim":1014,"clouds":[{"cover":"FEW","base":900},{"cover":"SCT","base":1300}],"obsTime":1776798000},"SBBH":{"icaoId":"SBBH","flightCategory":"VFR","rawOb":"METAR SBBH 211900Z 09006KT 9999 SCT046 28/18 Q1017","temp":28,"dewp":18,"wdir":90,"wspd":6,"visib":"6+","altim":1017,"clouds":[{"cover":"SCT","base":4600}],"obsTime":1776798000},"SBBU":{"icaoId":"SBBU","flightCategory":"VFR","rawOb":"METAR SBBU 211900Z 12003KT CAVOK 29/16 Q1015","temp":29,"dewp":16,"wdir":120,"wspd":3,"visib":"6+","altim":1015,"clouds":[],"obsTime":1776798000},"SBCA":{"icaoId":"SBCA","flightCategory":"VFR","rawOb":"METAR SBCA 211900Z VRB04KT 9999 FEW040 26/18 Q1017","temp":26,"dewp":18,"wdir":"VRB","wspd":4,"visib":"6+","altim":1017,"clouds":[{"cover":"FEW","base":4000}],"obsTime":1776798000},"SBCC":{"icaoId":"SBCC","flightCategory":"VFR","rawOb":"METAR SBCC 211900Z 25002KT 9999 VCSH SCT030 FEW035TCU SCT100 30/21 Q1010","temp":30,"dewp":21,"wdir":250,"wspd":2,"visib":"6+","altim":1010,"clouds":[{"cover":"SCT","base":3000},{"cover":"FEW","base":3500},{"cover":"SCT","base":10000}],"obsTime":1776798000},"SBAR":{"icaoId":"SBAR","flightCategory":"MVFR","rawOb":"METAR SBAR 211900Z 33002KT 6000 -RA FEW014 SCT020 OVC090 25/24 Q1011","temp":25,"dewp":24,"wdir":330,"wspd":2,"visib":3.73,"altim":1011,"clouds":[{"cover":"FEW","base":1400},{"cover":"SCT","base":2000},{"cover":"OVC","base":9000}],"obsTime":1776798000},"SBCO":{"icaoId":"SBCO","flightCategory":"VFR","rawOb":"METAR SBCO 211900Z 31004KT 9999 -RA FEW020 SCT050 BKN080 23/19 Q1015","temp":23,"dewp":19,"wdir":310,"wspd":4,"visib":"6+","altim":1015,"clouds":[{"cover":"FEW","base":2000},{"cover":"SCT","base":5000},{"cover":"BKN","base":8000}],"obsTime":1776798000},"SBDN":{"icaoId":"SBDN","flightCategory":"VFR","rawOb":"METAR SBDN 211900Z 13005KT CAVOK 30/13 Q1014","temp":30,"dewp":13,"wdir":130,"wspd":5,"visib":"6+","altim":1014,"clouds":[],"obsTime":1776798000},"SBES":{"icaoId":"SBES","flightCategory":"VFR","rawOb":"METAR SBES 211900Z 22008KT 160V280 9999 FEW020 25/// Q1015","temp":null,"dewp":null,"wdir":220,"wspd":8,"visib":"6+","altim":1015,"clouds":[{"cover":"FEW","base":2000}],"obsTime":1776798000},"SBIP":{"icaoId":"SBIP","flightCategory":"VFR","rawOb":"METAR SBIP 211900Z AUTO 04003KT 350V090 CAVOK 29/18 Q1015","temp":29,"dewp":18,"wdir":40,"wspd":3,"visib":"6+","altim":1015,"clouds":[],"obsTime":1776798000},"SBKG":{"icaoId":"SBKG","flightCategory":"VFR","rawOb":"METAR SBKG 211900Z 05011KT 9999 SCT020 BKN070 25/22 Q1012","temp":25,"dewp":22,"wdir":50,"wspd":11,"visib":"6+","altim":1012,"clouds":[{"cover":"SCT","base":2000},{"cover":"BKN","base":7000}],"obsTime":1776798000},"SBOI":{"icaoId":"SBOI","flightCategory":"VFR","rawOb":"METAR SBOI 211900Z AUTO 04006KT 9999 FEW017 28/25 Q1010","temp":28,"dewp":25,"wdir":40,"wspd":6,"visib":"6+","altim":1010,"clouds":[{"cover":"FEW","base":1700}],"obsTime":1776798000},"SBPB":{"icaoId":"SBPB","flightCategory":"MVFR","rawOb":"METAR SBPB 211900Z 08003KT 9999 BKN015 OVC080 26/24 Q1010","temp":26,"dewp":24,"wdir":80,"wspd":3,"visib":"6+","altim":1010,"clouds":[{"cover":"BKN","base":1500},{"cover":"OVC","base":8000}],"obsTime":1776798000},"SBPL":{"icaoId":"SBPL","flightCategory":"VFR","rawOb":"METAR SBPL 211900Z 11007KT 9999 FEW025 FEW025TCU BKN100 31/20 Q1011","temp":31,"dewp":20,"wdir":110,"wspd":7,"visib":"6+","altim":1011,"clouds":[{"cover":"FEW","base":2500},{"cover":"FEW","base":2500},{"cover":"BKN","base":10000}],"obsTime":1776798000},"SBPP":{"icaoId":"SBPP","flightCategory":"VFR","rawOb":"METAR SBPP 211900Z 09006KT 9999 FEW020 BKN070 26/21 Q1015","temp":26,"dewp":21,"wdir":90,"wspd":6,"visib":"6+","altim":1015,"clouds":[{"cover":"FEW","base":2000},{"cover":"BKN","base":7000}],"obsTime":1776798000},"SBPS":{"icaoId":"SBPS","flightCategory":"VFR","rawOb":"METAR SBPS 211900Z 15005KT 090V200 9999 SCT025 FEW030TCU SCT100 27/23 Q1014","temp":27,"dewp":23,"wdir":150,"wspd":5,"visib":"6+","altim":1014,"clouds":[{"cover":"SCT","base":2500},{"cover":"FEW","base":3000},{"cover":"SCT","base":10000}],"obsTime":1776798000},"SBSC":{"icaoId":"SBSC","flightCategory":"VFR","rawOb":"METAR SBSC 211900Z 19010KT 9999 FEW025 26/20 Q1016","temp":26,"dewp":20,"wdir":190,"wspd":10,"visib":"6+","altim":1016,"clouds":[{"cover":"FEW","base":2500}],"obsTime":1776798000},"SBSJ":{"icaoId":"SBSJ","flightCategory":"VFR","rawOb":"METAR SBSJ 211900Z 13007KT CAVOK 26/12 Q1017","temp":26,"dewp":12,"wdir":130,"wspd":7,"visib":"6+","altim":1017,"clouds":[],"obsTime":1776798000},"SBSM":{"icaoId":"SBSM","flightCategory":"VFR","rawOb":"METAR SBSM 211900Z 12004KT 090V160 9999 FEW045 SCT100 24/21 Q1014","temp":24,"dewp":21,"wdir":120,"wspd":4,"visib":"6+","altim":1014,"clouds":[{"cover":"FEW","base":4500},{"cover":"SCT","base":10000}],"obsTime":1776798000},"SBSR":{"icaoId":"SBSR","flightCategory":"VFR","rawOb":"METAR SBSR 211900Z VRB03KT CAVOK 31/11 Q1014","temp":31,"dewp":11,"wdir":"VRB","wspd":3,"visib":"6+","altim":1014,"clouds":[],"obsTime":1776798000},"SBTF":{"icaoId":"SBTF","flightCategory":"VFR","rawOb":"METAR SBTF 211900Z 28004KT 9999 SCT015 31/25 Q1008","temp":31,"dewp":25,"wdir":280,"wspd":4,"visib":"6+","altim":1008,"clouds":[{"cover":"SCT","base":1500}],"obsTime":1776798000},"SBTT":{"icaoId":"SBTT","flightCategory":"VFR","rawOb":"METAR SBTT 211900Z 05003KT 9999 SCT015 OVC100 27/21 Q1011","temp":27,"dewp":21,"wdir":50,"wspd":3,"visib":"6+","altim":1011,"clouds":[{"cover":"SCT","base":1500},{"cover":"OVC","base":10000}],"obsTime":1776798000},"SBUY":{"icaoId":"SBUY","flightCategory":"VFR","rawOb":"METAR SBUY 211900Z 16004KT 9999 VCSH SCT020 FEW030TCU BKN100 28/25 Q1008","temp":28,"dewp":25,"wdir":160,"wspd":4,"visib":"6+","altim":1008,"clouds":[{"cover":"SCT","base":2000},{"cover":"FEW","base":3000},{"cover":"BKN","base":10000}],"obsTime":1776798000},"SBVH":{"icaoId":"SBVH","flightCategory":"VFR","rawOb":"METAR SBVH 211900Z 28006KT 9999 SCT030 FEW035TCU BKN078 29/22 Q1012","temp":29,"dewp":22,"wdir":280,"wspd":6,"visib":"6+","altim":1012,"clouds":[{"cover":"SCT","base":3000},{"cover":"FEW","base":3500},{"cover":"BKN","base":7800}],"obsTime":1776798000},"SBBQ":{"icaoId":"SBBQ","flightCategory":"VFR","rawOb":"METAR SBBQ 211900Z 08006KT 050V110 9999 SCT035 22/16 Q1021","temp":22,"dewp":16,"wdir":80,"wspd":6,"visib":"6+","altim":1021,"clouds":[{"cover":"SCT","base":3500}],"obsTime":1776798000},"SBGM":{"icaoId":"SBGM","flightCategory":"MVFR","rawOb":"METAR SBGM 211900Z 33004KT 9999 BKN016 OVC040 25/23 Q1009","temp":25,"dewp":23,"wdir":330,"wspd":4,"visib":"6+","altim":1009,"clouds":[{"cover":"BKN","base":1600},{"cover":"OVC","base":4000}],"obsTime":1776798000},"SBJR":{"icaoId":"SBJR","flightCategory":"VFR","rawOb":"METAR SBJR 211900Z 18006KT 9999 FEW025 SCT080 26/20 Q1015","temp":26,"dewp":20,"wdir":180,"wspd":6,"visib":"6+","altim":1015,"clouds":[{"cover":"FEW","base":2500},{"cover":"SCT","base":8000}],"obsTime":1776798000},"SBAN":{"icaoId":"SBAN","flightCategory":"VFR","rawOb":"METAR SBAN 211900Z VRB01KT 9999 FEW040 FEW045TCU SCT100 25/17 Q1018","temp":25,"dewp":17,"wdir":"VRB","wspd":1,"visib":"6+","altim":1018,"clouds":[{"cover":"FEW","base":4000},{"cover":"FEW","base":4500},{"cover":"SCT","base":10000}],"obsTime":1776798000},"SBLS":{"icaoId":"SBLS","flightCategory":"VFR","rawOb":"METAR SBLS 211900Z 11006KT 010V120 9999 FEW035 26/18 Q1017","temp":26,"dewp":18,"wdir":110,"wspd":6,"visib":"6+","altim":1017,"clouds":[{"cover":"FEW","base":3500}],"obsTime":1776798000},"SBAF":{"icaoId":"SBAF","flightCategory":"VFR","rawOb":"METAR SBAF 211900Z 19012KT 9999 SCT043 25/20 Q1015","temp":25,"dewp":20,"wdir":190,"wspd":12,"visib":"6+","altim":1015,"clouds":[{"cover":"SCT","base":4300}],"obsTime":1776798000},"SBMT":{"icaoId":"SBMT","flightCategory":"VFR","rawOb":"METAR SBMT 211900Z 15008KT 120V210 CAVOK 24/15 Q1018","temp":24,"dewp":15,"wdir":150,"wspd":8,"visib":"6+","altim":1018,"clouds":[],"obsTime":1776798000},"SBST":{"icaoId":"SBST","flightCategory":"VFR","rawOb":"METAR SBST 211900Z COR 18007KT 140V240 9999 SCT033 25/18 Q1016","temp":25,"dewp":18,"wdir":180,"wspd":7,"visib":"6+","altim":1016,"clouds":[{"cover":"SCT","base":3300}],"obsTime":1776798000},"SBTA":{"icaoId":"SBTA","flightCategory":"VFR","rawOb":"METAR SBTA 211900Z 20004KT 170V260 9999 FEW040 27/11 Q1016","temp":27,"dewp":11,"wdir":200,"wspd":4,"visib":"6+","altim":1016,"clouds":[{"cover":"FEW","base":4000}],"obsTime":1776798000},"SBGW":{"icaoId":"SBGW","flightCategory":"VFR","rawOb":"METAR SBGW 211900Z 05002KT 9999 FEW030 27/13 Q1016","temp":27,"dewp":13,"wdir":50,"wspd":2,"visib":"6+","altim":1016,"clouds":[{"cover":"FEW","base":3000}],"obsTime":1776798000},"SBJV":{"icaoId":"SBJV","flightCategory":"VFR","rawOb":"METAR SBJV 211900Z 12007KT 9999 FEW030 26/21 Q1016","temp":26,"dewp":21,"wdir":120,"wspd":7,"visib":"6+","altim":1016,"clouds":[{"cover":"FEW","base":3000}],"obsTime":1776798000},"SBPF":{"icaoId":"SBPF","flightCategory":"VFR","rawOb":"METAR SBPF 212000Z 05008KT CAVOK 23/17 Q1017","temp":23,"dewp":17,"wdir":50,"wspd":8,"visib":"6+","altim":1017,"clouds":[],"obsTime":1776801600},"SBLE":{"icaoId":"SBLE","flightCategory":"VFR","rawOb":"METAR SBLE 211900Z AUTO 18004KT 130V220 CAVOK 29/19 Q1014","temp":29,"dewp":19,"wdir":180,"wspd":4,"visib":"6+","altim":1014,"clouds":[],"obsTime":1776798000},"SBIH":{"icaoId":"SBIH","flightCategory":"VFR","rawOb":"METAR SBIH 211900Z 29002KT 9999 FEW015 SCT080 25/25 Q1009 RETS","temp":25,"dewp":25,"wdir":290,"wspd":2,"visib":"6+","altim":1009,"clouds":[{"cover":"FEW","base":1500},{"cover":"SCT","base":8000}],"obsTime":1776798000},"SBJP":{"icaoId":"SBJP","flightCategory":"VFR","rawOb":"METAR SBJP 211900Z 11010KT 9999 FEW020 28/23 Q1010","temp":28,"dewp":23,"wdir":110,"wspd":10,"visib":"6+","altim":1010,"clouds":[{"cover":"FEW","base":2000}],"obsTime":1776798000}}}