{"updated":1776831704,"count":52,"data":{"SBMK":{"icaoId":"SBMK","flightCategory":"VFR","rawOb":"METAR SBMK 220300Z 06002KT CAVOK 20/18 Q1017","temp":20,"dewp":18,"wdir":60,"wspd":2,"visib":"6+","altim":1017,"clouds":[],"obsTime":1776826800},"SBMO":{"icaoId":"SBMO","flightCategory":"VFR","rawOb":"METAR SBMO 220300Z 31003KT 9999 SCT020 23/22 Q1013","temp":23,"dewp":22,"wdir":310,"wspd":3,"visib":"6+","altim":1013,"clouds":[{"cover":"SCT","base":2000}],"obsTime":1776826800},"SBMQ":{"icaoId":"SBMQ","flightCategory":"MVFR","rawOb":"METAR SBMQ 220300Z 14002KT 9999 BKN015 BKN070 27/25 Q1012","temp":27,"dewp":25,"wdir":140,"wspd":2,"visib":"6+","altim":1012,"clouds":[{"cover":"BKN","base":1500},{"cover":"BKN","base":7000}],"obsTime":1776826800},"SBMG":{"icaoId":"SBMG","flightCategory":"VFR","rawOb":"METAR SBMG 220300Z 03005KT CAVOK 23/16 Q1016","temp":23,"dewp":16,"wdir":30,"wspd":5,"visib":"6+","altim":1016,"clouds":[],"obsTime":1776826800},"SBFZ":{"icaoId":"SBFZ","flightCategory":"VFR","rawOb":"METAR SBFZ 220300Z 28003KT 9999 FEW017 25/24 Q1012","temp":25,"dewp":24,"wdir":280,"wspd":3,"visib":"6+","altim":1012,"clouds":[{"cover":"FEW","base":1700}],"obsTime":1776826800},"SBBV":{"icaoId":"SBBV","flightCategory":"VFR","rawOb":"METAR SBBV 220300Z 22005KT 9999 FEW040 FEW045TCU 28/24 Q1011","temp":28,"dewp":24,"wdir":220,"wspd":5,"visib":"6+","altim":1011,"clouds":[{"cover":"FEW","base":4000},{"cover":"FEW","base":4500}],"obsTime":1776826800},"SBGL":{"icaoId":"SBGL","flightCategory":"VFR","rawOb":"METAR SBGL 220300Z 08005KT 9999 FEW040 21/19 Q1017","temp":21,"dewp":19,"wdir":80,"wspd":5,"visib":"6+","altim":1017,"clouds":[{"cover":"FEW","base":4000}],"obsTime":1776826800},"SBCT":{"icaoId":"SBCT","flightCategory":"IFR","rawOb":"METAR SBCT 220300Z 12003KT 9999 BKN007 15/15 Q1021","temp":15,"dewp":15,"wdir":120,"wspd":3,"visib":"6+","altim":1021,"clouds":[{"cover":"BKN","base":700}],"obsTime":1776826800},"SBNT":{"icaoId":"SBNT","flightCategory":"VFR","rawOb":"METAR SBNT 220300Z 22004KT 9999 SCT022 BKN100 25/23 Q1012","temp":25,"dewp":23,"wdir":220,"wspd":4,"visib":"6+","altim":1012,"clouds":[{"cover":"SCT","base":2200},{"cover":"BKN","base":10000}],"obsTime":1776826800},"SBGO":{"icaoId":"SBGO","flightCategory":"VFR","rawOb":"METAR SBGO 220300Z 36002KT 9999 FEW048 22/20 Q1017","temp":22,"dewp":20,"wdir":360,"wspd":2,"visib":"6+","altim":1017,"clouds":[{"cover":"FEW","base":4800}],"obsTime":1776826800},"SBPA":{"icaoId":"SBPA","flightCategory":"VFR","rawOb":"METAR SBPA 220300Z VRB01KT 9999 FEW017 BKN050 20/19 Q1014","temp":20,"dewp":19,"wdir":"VRB","wspd":1,"visib":"6+","altim":1014,"clouds":[{"cover":"FEW","base":1700},{"cover":"BKN","base":5000}],"obsTime":1776826800},"SBBR":{"icaoId":"SBBR","flightCategory":"VFR","rawOb":"METAR SBBR 220300Z 21002KT CAVOK 21/17 Q1019","temp":21,"dewp":17,"wdir":210,"wspd":2,"visib":"6+","altim":1019,"clouds":[],"obsTime":1776826800},"SBPJ":{"icaoId":"SBPJ","flightCategory":"VFR","rawOb":"METAR SBPJ 220300Z 13004KT 9999 FEW025 SCT050 24/23 Q1013","temp":24,"dewp":23,"wdir":130,"wspd":4,"visib":"6+","altim":1013,"clouds":[{"cover":"FEW","base":2500},{"cover":"SCT","base":5000}],"obsTime":1776826800},"SBGR":{"icaoId":"SBGR","flightCategory":"MVFR","rawOb":"METAR SBGR 220300Z 12004KT 9999 SCT015 BKN020 18/16 Q1020","temp":18,"dewp":16,"wdir":120,"wspd":4,"visib":"6+","altim":1020,"clouds":[{"cover":"SCT","base":1500},{"cover":"BKN","base":2000}],"obsTime":1776826800},"SBPV":{"icaoId":"SBPV","flightCategory":"VFR","rawOb":"METAR SBPV 220300Z 33002KT 9999 SCT030 BKN090 23/20 Q1012","temp":23,"dewp":20,"wdir":330,"wspd":2,"visib":"6+","altim":1012,"clouds":[{"cover":"SCT","base":3000},{"cover":"BKN","base":9000}],"obsTime":1776826800},"SBRB":{"icaoId":"SBRB","flightCategory":"VFR","rawOb":"METAR SBRB 220300Z 00000KT 9999 FEW020 23/23 Q1013","temp":23,"dewp":23,"wdir":0,"wspd":0,"visib":"6+","altim":1013,"clouds":[{"cover":"FEW","base":2000}],"obsTime":1776826800},"SBEG":{"icaoId":"SBEG","flightCategory":"VFR","rawOb":"METAR SBEG 220300Z 00000KT CAVOK 25/24 Q1012","temp":25,"dewp":24,"wdir":0,"wspd":0,"visib":"6+","altim":1012,"clouds":[],"obsTime":1776826800},"SBJU":{"icaoId":"SBJU","flightCategory":"VFR","rawOb":"METAR SBJU 220300Z 00000KT 9999 SCT020 24/21 Q1014","temp":24,"dewp":21,"wdir":0,"wspd":0,"visib":"6+","altim":1014,"clouds":[{"cover":"SCT","base":2000}],"obsTime":1776826800},"SBRF":{"icaoId":"SBRF","flightCategory":"VFR","rawOb":"METAR SBRF 220300Z 23003KT 9999 FEW025 25/23 Q1012","temp":25,"dewp":23,"wdir":230,"wspd":3,"visib":"6+","altim":1012,"clouds":[{"cover":"FEW","base":2500}],"obsTime":1776826800},"SBCF":{"icaoId":"SBCF","flightCategory":"VFR","rawOb":"METAR SBCF 220300Z 15005KT 9999 FEW025 SCT090 20/18 Q1019","temp":20,"dewp":18,"wdir":150,"wspd":5,"visib":"6+","altim":1019,"clouds":[{"cover":"FEW","base":2500},{"cover":"SCT","base":9000}],"obsTime":1776826800},"SBSG":{"icaoId":"SBSG","flightCategory":"VFR","rawOb":"METAR SBSG 220300Z 22003KT 200V260 9999 SCT020 24/23 Q1012","temp":24,"dewp":23,"wdir":220,"wspd":3,"visib":"6+","altim":1012,"clouds":[{"cover":"SCT","base":2000}],"obsTime":1776826800},"SBKP":{"icaoId":"SBKP","flightCategory":"VFR","rawOb":"METAR SBKP 220300Z 13014KT CAVOK 18/15 Q1018","temp":18,"dewp":15,"wdir":130,"wspd":14,"visib":"6+","altim":1018,"clouds":[],"obsTime":1776826800},"SBSL":{"icaoId":"SBSL","flightCategory":"VFR","rawOb":"METAR SBSL 220300Z 16003KT 9999 SCT017 BKN100 24/24 Q1012","temp":24,"dewp":24,"wdir":160,"wspd":3,"visib":"6+","altim":1012,"clouds":[{"cover":"SCT","base":1700},{"cover":"BKN","base":10000}],"obsTime":1776826800},"SBSN":{"icaoId":"SBSN","flightCategory":"VFR","rawOb":"METAR SBSN 220300Z 12001KT CAVOK 24/24 Q1011","temp":24,"dewp":24,"wdir":120,"wspd":1,"visib":"6+","altim":1011,"clouds":[],"obsTime":1776826800},"SBFI":{"icaoId":"SBFI","flightCategory":"VFR","rawOb":"METAR SBFI 220300Z 08002KT 9999 FEW015 SCT070 22/22 Q1015","temp":22,"dewp":22,"wdir":80,"wspd":2,"visib":"6+","altim":1015,"clouds":[{"cover":"FEW","base":1500},{"cover":"SCT","base":7000}],"obsTime":1776826800},"SBSP":{"icaoId":"SBSP","flightCategory":"VFR","rawOb":"METAR SBSP 220300Z AUTO 14005KT CAVOK 16/14 Q1021","temp":16,"dewp":14,"wdir":140,"wspd":5,"visib":"6+","altim":1021,"clouds":[],"obsTime":1776826800},"SBLO":{"icaoId":"SBLO","flightCategory":"VFR","rawOb":"METAR SBLO 220300Z 21002KT CAVOK 21/14 Q1018","temp":21,"dewp":14,"wdir":210,"wspd":2,"visib":"6+","altim":1018,"clouds":[],"obsTime":1776826800},"SBMA":{"icaoId":"SBMA","flightCategory":"VFR","rawOb":"METAR SBMA 220300Z 00000KT 9999 FEW008 FEW023TCU BKN080 24/24 Q1013","temp":24,"dewp":24,"wdir":0,"wspd":0,"visib":"6+","altim":1013,"clouds":[{"cover":"FEW","base":800},{"cover":"FEW","base":2300},{"cover":"BKN","base":8000}],"obsTime":1776826800},"SBSV":{"icaoId":"SBSV","flightCategory":"VFR","rawOb":"METAR SBSV 220300Z 13008KT 100V160 9999 FEW021 BKN100 27/24 Q1014","temp":27,"dewp":24,"wdir":130,"wspd":8,"visib":"6+","altim":1014,"clouds":[{"cover":"FEW","base":2100},{"cover":"BKN","base":10000}],"obsTime":1776826800},"SBFL":{"icaoId":"SBFL","flightCategory":"VFR","rawOb":"METAR SBFL 220300Z VRB02KT 9999 BKN037 21/20 Q1017","temp":21,"dewp":20,"wdir":"VRB","wspd":2,"visib":"6+","altim":1017,"clouds":[{"cover":"BKN","base":3700}],"obsTime":1776826800},"SBTE":{"icaoId":"SBTE","flightCategory":"IFR","rawOb":"METAR SBTE 220300Z 35002KT 9999 BKN007 BKN090 24/23 Q1012","temp":24,"dewp":23,"wdir":350,"wspd":2,"visib":"6+","altim":1012,"clouds":[{"cover":"BKN","base":700},{"cover":"BKN","base":9000}],"obsTime":1776826800},"SBCG":{"icaoId":"SBCG","flightCategory":"VFR","rawOb":"METAR SBCG 220300Z 12006KT CAVOK 23/19 Q1016","temp":23,"dewp":19,"wdir":120,"wspd":6,"visib":"6+","altim":1016,"clouds":[],"obsTime":1776826800},"SBUL":{"icaoId":"SBUL","flightCategory":"VFR","rawOb":"METAR SBUL 220300Z 20007KT 9999 SCT040 BKN080 22/18 Q1019","temp":22,"dewp":18,"wdir":200,"wspd":7,"visib":"6+","altim":1019,"clouds":[{"cover":"SCT","base":4000},{"cover":"BKN","base":8000}],"obsTime":1776826800},"SBME":{"icaoId":"SBME","flightCategory":"VFR","rawOb":"METAR SBME 220300Z 32003KT 9999 SCT040 22/20 Q1017","temp":22,"dewp":20,"wdir":320,"wspd":3,"visib":"6+","altim":1017,"clouds":[{"cover":"SCT","base":4000}],"obsTime":1776826800},"SBUR":{"icaoId":"SBUR","flightCategory":"VFR","rawOb":"METAR SBUR 220300Z 04001KT CAVOK 24/17 Q1017","temp":24,"dewp":17,"wdir":40,"wspd":1,"visib":"6+","altim":1017,"clouds":[],"obsTime":1776826800},"SBVT":{"icaoId":"SBVT","flightCategory":"VFR","rawOb":"METAR SBVT 220300Z 31002KT 9999 SCT023 BKN070 22/20 Q1016","temp":22,"dewp":20,"wdir":310,"wspd":2,"visib":"6+","altim":1016,"clouds":[{"cover":"SCT","base":2300},{"cover":"BKN","base":7000}],"obsTime":1776826800},"SBBE":{"icaoId":"SBBE","flightCategory":"VFR","rawOb":"METAR SBBE 220300Z 19004KT 9999 SCT007 BKN100 25/24 Q1012","temp":25,"dewp":24,"wdir":190,"wspd":4,"visib":"6+","altim":1012,"clouds":[{"cover":"SCT","base":700},{"cover":"BKN","base":10000}],"obsTime":1776826800},"SBOI":{"icaoId":"SBOI","flightCategory":"MVFR","rawOb":"METAR SBOI 220400Z AUTO 00000KT 9999 // FEW003/// BKN014/// BKN048/// 25/24 Q1012","temp":25,"dewp":24,"wdir":0,"wspd":0,"visib":"6+","altim":1012,"clouds":[{"cover":"FEW","base":300},{"cover":"BKN","base":1400},{"cover":"BKN","base":4800}],"obsTime":1776830400},"SBSR":{"icaoId":"SBSR","flightCategory":"VFR","rawOb":"METAR SBSR 220300Z 16002KT CAVOK 22/13 Q1016","temp":22,"dewp":13,"wdir":160,"wspd":2,"visib":"6+","altim":1016,"clouds":[],"obsTime":1776826800},"SBDN":{"icaoId":"SBDN","flightCategory":"VFR","rawOb":"METAR SBDN 220300Z 14005KT CAVOK 21/14 Q1016","temp":21,"dewp":14,"wdir":140,"wspd":5,"visib":"6+","altim":1016,"clouds":[],"obsTime":1776826800},"SBIP":{"icaoId":"SBIP","flightCategory":"VFR","rawOb":"METAR SBIP 220300Z AUTO 20003KT 9000 NCD 19/19 Q1016","temp":19,"dewp":19,"wdir":200,"wspd":3,"visib":5.59,"altim":1016,"clouds":[],"obsTime":1776826800},"SBKG":{"icaoId":"SBKG","flightCategory":"VFR","rawOb":"METAR SBKG 220300Z 11004KT CAVOK 22/21 Q1015","temp":22,"dewp":21,"wdir":110,"wspd":4,"visib":"6+","altim":1015,"clouds":[],"obsTime":1776826800},"SBPL":{"icaoId":"SBPL","flightCategory":"VFR","rawOb":"METAR SBPL 220300Z 10008KT CAVOK 26/20 Q1015","temp":26,"dewp":20,"wdir":100,"wspd":8,"visib":"6+","altim":1015,"clouds":[],"obsTime":1776826800},"SBPS":{"icaoId":"SBPS","flightCategory":"VFR","rawOb":"METAR SBPS 220300Z 24002KT 9999 SCT020 BKN100 24/23 Q1016","temp":24,"dewp":23,"wdir":240,"wspd":2,"visib":"6+","altim":1016,"clouds":[{"cover":"SCT","base":2000},{"cover":"BKN","base":10000}],"obsTime":1776826800},"SBSC":{"icaoId":"SBSC","flightCategory":"VFR","rawOb":"METAR SBSC 220300Z 19003KT 9999 FEW020 OVC060 22/20 Q1018","temp":22,"dewp":20,"wdir":190,"wspd":3,"visib":"6+","altim":1018,"clouds":[{"cover":"FEW","base":2000},{"cover":"OVC","base":6000}],"obsTime":1776826800},"SBAR":{"icaoId":"SBAR","flightCategory":"MVFR","rawOb":"METAR SBAR 220300Z 14009KT 8000 -RA SCT010 OVC045 24/23 Q1013","temp":24,"dewp":23,"wdir":140,"wspd":9,"visib":4.97,"altim":1013,"clouds":[{"cover":"SCT","base":1000},{"cover":"OVC","base":4500}],"obsTime":1776826800},"SBCO":{"icaoId":"SBCO","flightCategory":"VFR","rawOb":"METAR SBCO 220300Z 00000KT 9999 FEW020 SCT060 19/18 Q1015","temp":19,"dewp":18,"wdir":0,"wspd":0,"visib":"6+","altim":1015,"clouds":[{"cover":"FEW","base":2000},{"cover":"SCT","base":6000}],"obsTime":1776826800},"SBSM":{"icaoId":"SBSM","flightCategory":"VFR","rawOb":"METAR SBSM 220300Z 10003KT 9999 FEW045 SCT070 19/19 Q1015","temp":19,"dewp":19,"wdir":100,"wspd":3,"visib":"6+","altim":1015,"clouds":[{"cover":"FEW","base":4500},{"cover":"SCT","base":7000}],"obsTime":1776826800},"SBSJ":{"icaoId":"SBSJ","flightCategory":"VFR","rawOb":"SPECI SBSJ 220230Z 17004KT CAVOK 16/14 Q1020","temp":16,"dewp":14,"wdir":170,"wspd":4,"visib":"6+","altim":1020,"clouds":[],"obsTime":1776825000},"SBAN":{"icaoId":"SBAN","flightCategory":"VFR","rawOb":"METAR SBAN 220300Z 21004KT 9999 VCSH FEW045 SCT070 21/17 Q1020","temp":21,"dewp":17,"wdir":210,"wspd":4,"visib":"6+","altim":1020,"clouds":[{"cover":"FEW","base":4500},{"cover":"SCT","base":7000}],"obsTime":1776826800},"SBLE":{"icaoId":"SBLE","flightCategory":"VFR","rawOb":"METAR SBLE 220300Z AUTO VRB02KT 9999 -RA NSC ///// Q////","temp":null,"dewp":null,"wdir":"VRB","wspd":2,"visib":"6+","altim":null,"clouds":[],"obsTime":1776826800},"SBJP":{"icaoId":"SBJP","flightCategory":"VFR","rawOb":"METAR SBJP 220300Z 19004KT 9999 FEW020 24/23 Q1012","temp":24,"dewp":23,"wdir":190,"wspd":4,"visib":"6+","altim":1012,"clouds":[{"cover":"FEW","base":2000}],"obsTime":1776826800}}}