{"updated":1781481751,"count":72,"data":{"SBBR":{"icaoId":"SBBR","flightCategory":"VFR","rawOb":"METAR SBBR 142300Z VRB02KT 9999 FEW045 SCT090 22/18 Q1022","temp":22,"dewp":18,"wdir":"VRB","wspd":2,"visib":"6+","altim":1022,"clouds":[{"cover":"FEW","base":4500},{"cover":"SCT","base":9000}],"obsTime":1781478000},"SBKP":{"icaoId":"SBKP","flightCategory":"VFR","rawOb":"METAR SBKP 142300Z 00000KT CAVOK 18/17 Q1020","temp":18,"dewp":17,"wdir":0,"wspd":0,"visib":"6+","altim":1020,"clouds":[],"obsTime":1781478000},"SBCF":{"icaoId":"SBCF","flightCategory":"VFR","rawOb":"METAR SBCF 142300Z 06004KT CAVOK 20/16 Q1022","temp":20,"dewp":16,"wdir":60,"wspd":4,"visib":"6+","altim":1022,"clouds":[],"obsTime":1781478000},"SBEG":{"icaoId":"SBEG","flightCategory":"VFR","rawOb":"METAR SBEG 142300Z 03003KT 9999 FEW030 FEW035TCU 26/24 Q1013","temp":26,"dewp":24,"wdir":30,"wspd":3,"visib":"6+","altim":1013,"clouds":[{"cover":"FEW","base":3000},{"cover":"FEW","base":3500}],"obsTime":1781478000},"SBLO":{"icaoId":"SBLO","flightCategory":"LIFR","rawOb":"METAR SBLO 142300Z 34005KT 2500 BR OVC004 19/19 Q1018","temp":19,"dewp":19,"wdir":340,"wspd":5,"visib":1.55,"altim":1018,"clouds":[{"cover":"OVC","base":400}],"obsTime":1781478000},"SBMA":{"icaoId":"SBMA","flightCategory":"VFR","rawOb":"METAR SBMA 142300Z 05002KT CAVOK 28/23 Q1013","temp":28,"dewp":23,"wdir":50,"wspd":2,"visib":"6+","altim":1013,"clouds":[],"obsTime":1781478000},"SBFI":{"icaoId":"SBFI","flightCategory":"VFR","rawOb":"METAR SBFI 142300Z 18006KT CAVOK 15/13 Q1019","temp":15,"dewp":13,"wdir":180,"wspd":6,"visib":"6+","altim":1019,"clouds":[],"obsTime":1781478000},"SBCG":{"icaoId":"SBCG","flightCategory":"VFR","rawOb":"SPECI SBCG 142226Z 27005KT 9999 SCT005 SCT035 20/20 Q1018","temp":20,"dewp":20,"wdir":270,"wspd":5,"visib":"6+","altim":1018,"clouds":[{"cover":"SCT","base":500},{"cover":"SCT","base":3500}],"obsTime":1781475960},"SBVT":{"icaoId":"SBVT","flightCategory":"VFR","rawOb":"METAR SBVT 142300Z 00000KT 9999 FEW024 BKN039 23/21 Q1018","temp":23,"dewp":21,"wdir":0,"wspd":0,"visib":"6+","altim":1018,"clouds":[{"cover":"FEW","base":2400},{"cover":"BKN","base":3900}],"obsTime":1781478000},"SBFL":{"icaoId":"SBFL","flightCategory":"VFR","rawOb":"METAR SBFL 142300Z 15008KT 110V180 9999 OVC040 17/12 Q1019","temp":17,"dewp":12,"wdir":150,"wspd":8,"visib":"6+","altim":1019,"clouds":[{"cover":"OVC","base":4000}],"obsTime":1781478000},"SBFZ":{"icaoId":"SBFZ","flightCategory":"VFR","rawOb":"METAR SBFZ 142300Z 11006KT CAVOK 26/23 Q1015","temp":26,"dewp":23,"wdir":110,"wspd":6,"visib":"6+","altim":1015,"clouds":[],"obsTime":1781478000},"SBMO":{"icaoId":"SBMO","flightCategory":"VFR","rawOb":"METAR SBMO 142300Z 15003KT 9999 FEW025 25/23 Q1017","temp":25,"dewp":23,"wdir":150,"wspd":3,"visib":"6+","altim":1017,"clouds":[{"cover":"FEW","base":2500}],"obsTime":1781478000},"SBMQ":{"icaoId":"SBMQ","flightCategory":"VFR","rawOb":"METAR SBMQ 142300Z 35003KT CAVOK 28/26 Q1013","temp":28,"dewp":26,"wdir":350,"wspd":3,"visib":"6+","altim":1013,"clouds":[],"obsTime":1781478000},"SBBV":{"icaoId":"SBBV","flightCategory":"VFR","rawOb":"METAR SBBV 142300Z 05005KT 9999 FEW030 FEW035TCU 30/23 Q1012","temp":30,"dewp":23,"wdir":50,"wspd":5,"visib":"6+","altim":1012,"clouds":[{"cover":"FEW","base":3000},{"cover":"FEW","base":3500}],"obsTime":1781478000},"SBGL":{"icaoId":"SBGL","flightCategory":"VFR","rawOb":"METAR SBGL 142300Z 14004KT 9999 SCT030 22/20 Q1017","temp":22,"dewp":20,"wdir":140,"wspd":4,"visib":"6+","altim":1017,"clouds":[{"cover":"SCT","base":3000}],"obsTime":1781478000},"SBPA":{"icaoId":"SBPA","flightCategory":"VFR","rawOb":"METAR SBPA 142300Z 19003KT 160V220 9999 FEW013 SCT055 12/09 Q1021","temp":12,"dewp":9,"wdir":190,"wspd":3,"visib":"6+","altim":1021,"clouds":[{"cover":"FEW","base":1300},{"cover":"SCT","base":5500}],"obsTime":1781478000},"SBSL":{"icaoId":"SBSL","flightCategory":"VFR","rawOb":"METAR SBSL 142300Z 07011KT 9999 FEW020 SCT070 28/24 Q1014","temp":28,"dewp":24,"wdir":70,"wspd":11,"visib":"6+","altim":1014,"clouds":[{"cover":"FEW","base":2000},{"cover":"SCT","base":7000}],"obsTime":1781478000},"SBSP":{"icaoId":"SBSP","flightCategory":"VFR","rawOb":"METAR SBSP 142300Z 32007KT 270V340 9999 -RA SCT015 BKN083 19/17 Q1021","temp":19,"dewp":17,"wdir":320,"wspd":7,"visib":"6+","altim":1021,"clouds":[{"cover":"SCT","base":1500},{"cover":"BKN","base":8300}],"obsTime":1781478000},"SBBE":{"icaoId":"SBBE","flightCategory":"VFR","rawOb":"METAR SBBE 142300Z 04009KT 9999 FEW049 29/24 Q1013","temp":29,"dewp":24,"wdir":40,"wspd":9,"visib":"6+","altim":1013,"clouds":[{"cover":"FEW","base":4900}],"obsTime":1781478000},"SBPJ":{"icaoId":"SBPJ","flightCategory":"VFR","rawOb":"METAR SBPJ 142300Z 11004KT CAVOK 28/21 Q1015","temp":28,"dewp":21,"wdir":110,"wspd":4,"visib":"6+","altim":1015,"clouds":[],"obsTime":1781478000},"SBCT":{"icaoId":"SBCT","flightCategory":"LIFR","rawOb":"SPECI SBCT 142240Z 10004KT 4000 BR BKN003 BKN018 15/15 Q1019","temp":15,"dewp":15,"wdir":100,"wspd":4,"visib":2.49,"altim":1019,"clouds":[{"cover":"BKN","base":300},{"cover":"BKN","base":1800}],"obsTime":1781476800},"SBSN":{"icaoId":"SBSN","flightCategory":"VFR","rawOb":"METAR SBSN 142300Z 07002KT CAVOK 27/25 Q1013","temp":27,"dewp":25,"wdir":70,"wspd":2,"visib":"6+","altim":1013,"clouds":[],"obsTime":1781478000},"SBPV":{"icaoId":"SBPV","flightCategory":"VFR","rawOb":"METAR SBPV 142300Z 09001KT CAVOK 27/24 Q1012","temp":27,"dewp":24,"wdir":90,"wspd":1,"visib":"6+","altim":1012,"clouds":[],"obsTime":1781478000},"SBGO":{"icaoId":"SBGO","flightCategory":"VFR","rawOb":"SPECI SBGO 142213Z 13005KT 9999 TS SCT040 FEW045CB SCT060 26/20 Q1019","temp":26,"dewp":20,"wdir":130,"wspd":5,"visib":"6+","altim":1019,"clouds":[{"cover":"SCT","base":4000},{"cover":"FEW","base":4500},{"cover":"SCT","base":6000}],"obsTime":1781475180},"SBRB":{"icaoId":"SBRB","flightCategory":"VFR","rawOb":"METAR SBRB 142300Z 00000KT 9999 FEW030 27/23 Q1013","temp":27,"dewp":23,"wdir":0,"wspd":0,"visib":"6+","altim":1013,"clouds":[{"cover":"FEW","base":3000}],"obsTime":1781478000},"SBRF":{"icaoId":"SBRF","flightCategory":"VFR","rawOb":"METAR SBRF 142300Z 18006KT 9999 SCT018 SCT060 26/23 Q1016","temp":26,"dewp":23,"wdir":180,"wspd":6,"visib":"6+","altim":1016,"clouds":[{"cover":"SCT","base":1800},{"cover":"SCT","base":6000}],"obsTime":1781478000},"SBGR":{"icaoId":"SBGR","flightCategory":"MVFR","rawOb":"METAR SBGR 142300Z 32004KT 9999 -RA BKN020 BKN080 20/17 Q1020","temp":20,"dewp":17,"wdir":320,"wspd":4,"visib":"6+","altim":1020,"clouds":[{"cover":"BKN","base":2000},{"cover":"BKN","base":8000}],"obsTime":1781478000},"SBSG":{"icaoId":"SBSG","flightCategory":"MVFR","rawOb":"METAR SBSG 142300Z 17004KT 9999 BKN020 25/24 Q1016","temp":25,"dewp":24,"wdir":170,"wspd":4,"visib":"6+","altim":1016,"clouds":[{"cover":"BKN","base":2000}],"obsTime":1781478000},"SBSV":{"icaoId":"SBSV","flightCategory":"VFR","rawOb":"METAR SBSV 142300Z 13004KT 110V170 9999 SCT020 26/22 Q1018","temp":26,"dewp":22,"wdir":130,"wspd":4,"visib":"6+","altim":1018,"clouds":[{"cover":"SCT","base":2000}],"obsTime":1781478000},"SBCZ":{"icaoId":"SBCZ","flightCategory":"VFR","rawOb":"METAR SBCZ 142300Z 34004KT 9999 SCT020 FEW030TCU BKN100 28/25 Q1014","temp":28,"dewp":25,"wdir":340,"wspd":4,"visib":"6+","altim":1014,"clouds":[{"cover":"SCT","base":2000},{"cover":"FEW","base":3000},{"cover":"BKN","base":10000}],"obsTime":1781478000},"SBHT":{"icaoId":"SBHT","flightCategory":"VFR","rawOb":"METAR SBHT 142300Z 00000KT CAVOK 27/26 Q1013","temp":27,"dewp":26,"wdir":0,"wspd":0,"visib":"6+","altim":1013,"clouds":[],"obsTime":1781478000},"SBIL":{"icaoId":"SBIL","flightCategory":"VFR","rawOb":"METAR SBIL 142300Z 07004KT CAVOK 26/23 Q1018","temp":26,"dewp":23,"wdir":70,"wspd":4,"visib":"6+","altim":1018,"clouds":[],"obsTime":1781478000},"SBJU":{"icaoId":"SBJU","flightCategory":"VFR","rawOb":"METAR SBJU 142300Z 00000KT CAVOK 26/20 Q1017","temp":26,"dewp":20,"wdir":0,"wspd":0,"visib":"6+","altim":1017,"clouds":[],"obsTime":1781478000},"SBAT":{"icaoId":"SBAT","flightCategory":"VFR","rawOb":"METAR SBAT 142300Z 00000KT CAVOK 28/23 Q1014","temp":28,"dewp":23,"wdir":0,"wspd":0,"visib":"6+","altim":1014,"clouds":[],"obsTime":1781478000},"SBME":{"icaoId":"SBME","flightCategory":"VFR","rawOb":"METAR SBME 142300Z 02004KT 9999 FEW040 22/19 Q1018","temp":22,"dewp":19,"wdir":20,"wspd":4,"visib":"6+","altim":1018,"clouds":[{"cover":"FEW","base":4000}],"obsTime":1781478000},"SBMG":{"icaoId":"SBMG","flightCategory":"LIFR","rawOb":"METAR SBMG 142300Z 36007KT 7000 -DZ OVC002 19/19 Q1017","temp":19,"dewp":19,"wdir":360,"wspd":7,"visib":4.35,"altim":1017,"clouds":[{"cover":"OVC","base":200}],"obsTime":1781478000},"SBMK":{"icaoId":"SBMK","flightCategory":"VFR","rawOb":"METAR SBMK 142300Z 25003KT CAVOK 21/18 Q1020","temp":21,"dewp":18,"wdir":250,"wspd":3,"visib":"6+","altim":1020,"clouds":[],"obsTime":1781478000},"SBNT":{"icaoId":"SBNT","flightCategory":"VFR","rawOb":"METAR SBNT 142300Z 17007KT 9999 FEW018 BKN066 25/24 Q1016","temp":25,"dewp":24,"wdir":170,"wspd":7,"visib":"6+","altim":1016,"clouds":[{"cover":"FEW","base":1800},{"cover":"BKN","base":6600}],"obsTime":1781478000},"SBTE":{"icaoId":"SBTE","flightCategory":"VFR","rawOb":"METAR SBTE 142300Z 33003KT 9999 FEW020 SCT100 30/23 Q1013","temp":30,"dewp":23,"wdir":330,"wspd":3,"visib":"6+","altim":1013,"clouds":[{"cover":"FEW","base":2000},{"cover":"SCT","base":10000}],"obsTime":1781478000},"SBUL":{"icaoId":"SBUL","flightCategory":"VFR","rawOb":"METAR SBUL 142300Z 26005KT 9999 -RA FEW035 OVC100 17/16 Q1024","temp":17,"dewp":16,"wdir":260,"wspd":5,"visib":"6+","altim":1024,"clouds":[{"cover":"FEW","base":3500},{"cover":"OVC","base":10000}],"obsTime":1781478000},"SBUR":{"icaoId":"SBUR","flightCategory":"VFR","rawOb":"METAR SBUR 142300Z 36006KT CAVOK 18/16 Q1021","temp":18,"dewp":16,"wdir":360,"wspd":6,"visib":"6+","altim":1021,"clouds":[],"obsTime":1781478000},"SBOI":{"icaoId":"SBOI","flightCategory":"VFR","rawOb":"METAR SBOI 142300Z AUTO VRB02KT 9999 FEW021 BKN046 25/24 Q1014","temp":25,"dewp":24,"wdir":"VRB","wspd":2,"visib":"6+","altim":1014,"clouds":[{"cover":"FEW","base":2100},{"cover":"BKN","base":4600}],"obsTime":1781478000},"SBPS":{"icaoId":"SBPS","flightCategory":"VFR","rawOb":"METAR SBPS 142300Z 02005KT 9999 FEW025 24/22 Q1018","temp":24,"dewp":22,"wdir":20,"wspd":5,"visib":"6+","altim":1018,"clouds":[{"cover":"FEW","base":2500}],"obsTime":1781478000},"SBCJ":{"icaoId":"SBCJ","flightCategory":"VFR","rawOb":"METAR SBCJ 142300Z 00000KT 9999 FEW027 25/21 Q1018","temp":25,"dewp":21,"wdir":0,"wspd":0,"visib":"6+","altim":1018,"clouds":[{"cover":"FEW","base":2700}],"obsTime":1781478000},"SBAR":{"icaoId":"SBAR","flightCategory":"VFR","rawOb":"METAR SBAR 142300Z 13005KT 100V160 9999 FEW020 27/22 Q1017","temp":27,"dewp":22,"wdir":130,"wspd":5,"visib":"6+","altim":1017,"clouds":[{"cover":"FEW","base":2000}],"obsTime":1781478000},"SBPL":{"icaoId":"SBPL","flightCategory":"VFR","rawOb":"METAR SBPL 142300Z 10006KT CAVOK 30/15 Q1017","temp":30,"dewp":15,"wdir":100,"wspd":6,"visib":"6+","altim":1017,"clouds":[],"obsTime":1781478000},"SBSJ":{"icaoId":"SBSJ","flightCategory":"VFR","rawOb":"METAR SBSJ 142300Z 24004KT 9999 OVC035 21/16 Q1020","temp":21,"dewp":16,"wdir":240,"wspd":4,"visib":"6+","altim":1020,"clouds":[{"cover":"OVC","base":3500}],"obsTime":1781478000},"SBCC":{"icaoId":"SBCC","flightCategory":"VFR","rawOb":"METAR SBCC 142300Z 04004KT 9999 FEW040 27/20 Q1016","temp":27,"dewp":20,"wdir":40,"wspd":4,"visib":"6+","altim":1016,"clouds":[{"cover":"FEW","base":4000}],"obsTime":1781478000},"SBCO":{"icaoId":"SBCO","flightCategory":"VFR","rawOb":"METAR SBCO 142300Z VRB01KT 9999 FEW013 10/09 Q1022","temp":10,"dewp":9,"wdir":"VRB","wspd":1,"visib":"6+","altim":1022,"clouds":[{"cover":"FEW","base":1300}],"obsTime":1781478000},"SBDN":{"icaoId":"SBDN","flightCategory":"MVFR","rawOb":"METAR SBDN 142300Z 02005KT 8000 -RA SCT006 BKN036 BKN070 20/19 Q1017","temp":20,"dewp":19,"wdir":20,"wspd":5,"visib":4.97,"altim":1017,"clouds":[{"cover":"SCT","base":600},{"cover":"BKN","base":3600},{"cover":"BKN","base":7000}],"obsTime":1781478000},"SBIP":{"icaoId":"SBIP","flightCategory":"VFR","rawOb":"METAR SBIP 142300Z AUTO VRB01KT 9000 NCD 19/19 Q1019","temp":19,"dewp":19,"wdir":"VRB","wspd":1,"visib":5.59,"altim":1019,"clouds":[],"obsTime":1781478000},"SBKG":{"icaoId":"SBKG","flightCategory":"VFR","rawOb":"METAR SBKG 142300Z 09006KT CAVOK 23/21 Q1019","temp":23,"dewp":21,"wdir":90,"wspd":6,"visib":"6+","altim":1019,"clouds":[],"obsTime":1781478000},"SBSC":{"icaoId":"SBSC","flightCategory":"MVFR","rawOb":"METAR SBSC 142300Z 22003KT 8000 SCT030 BKN070 21/19 Q1017","temp":21,"dewp":19,"wdir":220,"wspd":3,"visib":4.97,"altim":1017,"clouds":[{"cover":"SCT","base":3000},{"cover":"BKN","base":7000}],"obsTime":1781478000},"SBSM":{"icaoId":"SBSM","flightCategory":"VFR","rawOb":"METAR SBSM 142300Z VRB02KT 9999 SCT030 BKN040 13/10 Q1022","temp":13,"dewp":10,"wdir":"VRB","wspd":2,"visib":"6+","altim":1022,"clouds":[{"cover":"SCT","base":3000},{"cover":"BKN","base":4000}],"obsTime":1781478000},"SBSR":{"icaoId":"SBSR","flightCategory":"VFR","rawOb":"METAR SBSR 142300Z 09004KT 9999 FEW030 BKN080 19/18 Q1019","temp":19,"dewp":18,"wdir":90,"wspd":4,"visib":"6+","altim":1019,"clouds":[{"cover":"FEW","base":3000},{"cover":"BKN","base":8000}],"obsTime":1781478000},"SBTT":{"icaoId":"SBTT","flightCategory":"VFR","rawOb":"METAR SBTT 142300Z 21001KT CAVOK 28/25 Q1012","temp":28,"dewp":25,"wdir":210,"wspd":1,"visib":"6+","altim":1012,"clouds":[],"obsTime":1781478000},"SBTU":{"icaoId":"SBTU","flightCategory":"VFR","rawOb":"METAR SBTU 142300Z AUTO VRB01KT 9999 // NCD ///// Q1015","temp":null,"dewp":null,"wdir":"VRB","wspd":1,"visib":"6+","altim":1015,"clouds":[],"obsTime":1781478000},"SBVH":{"icaoId":"SBVH","flightCategory":"VFR","rawOb":"METAR SBVH 142300Z 22004KT CAVOK 23/20 Q1017","temp":23,"dewp":20,"wdir":220,"wspd":4,"visib":"6+","altim":1017,"clouds":[],"obsTime":1781478000},"SBAX":{"icaoId":"SBAX","flightCategory":"VFR","rawOb":"METAR SBAX 142300Z AUTO 29005KT 260V320 9999 -RA NSC 17/17 Q1022","temp":17,"dewp":17,"wdir":290,"wspd":5,"visib":"6+","altim":1022,"clouds":[],"obsTime":1781478000},"SBBH":{"icaoId":"SBBH","flightCategory":"VFR","rawOb":"METAR SBBH 142300Z 00000KT CAVOK 19/17 Q1021","temp":19,"dewp":17,"wdir":0,"wspd":0,"visib":"6+","altim":1021,"clouds":[],"obsTime":1781478000},"SBBU":{"icaoId":"SBBU","flightCategory":"VFR","rawOb":"METAR SBBU 142300Z 36006KT 9999 -RA FEW010 SCT070 OVC100 20/20 Q1019","temp":20,"dewp":20,"wdir":360,"wspd":6,"visib":"6+","altim":1019,"clouds":[{"cover":"FEW","base":1000},{"cover":"SCT","base":7000},{"cover":"OVC","base":10000}],"obsTime":1781478000},"SBCA":{"icaoId":"SBCA","flightCategory":"IFR","rawOb":"METAR SBCA 142300Z 18006KT 5000 BR FEW002 BKN005 BKN020 15/15 Q1019","temp":15,"dewp":15,"wdir":180,"wspd":6,"visib":3.11,"altim":1019,"clouds":[{"cover":"FEW","base":200},{"cover":"BKN","base":500},{"cover":"BKN","base":2000}],"obsTime":1781478000},"SBTF":{"icaoId":"SBTF","flightCategory":"VFR","rawOb":"SPECI SBTF 142245Z 00000KT CAVOK 29/26 Q1011","temp":29,"dewp":26,"wdir":0,"wspd":0,"visib":"6+","altim":1011,"clouds":[],"obsTime":1781477100},"SBJP":{"icaoId":"SBJP","flightCategory":"VFR","rawOb":"METAR SBJP 142300Z 16007KT CAVOK 25/23 Q1017","temp":25,"dewp":23,"wdir":160,"wspd":7,"visib":"6+","altim":1017,"clouds":[],"obsTime":1781478000},"SBLE":{"icaoId":"SBLE","flightCategory":"VFR","rawOb":"METAR SBLE 142300Z AUTO 02004KT CAVOK 21/17 Q1020","temp":21,"dewp":17,"wdir":20,"wspd":4,"visib":"6+","altim":1020,"clouds":[],"obsTime":1781478000},"SBJV":{"icaoId":"SBJV","flightCategory":"MVFR","rawOb":"METAR SBJV 142300Z VRB03KT 5000 -DZ BR SCT008 BKN013 18/17 Q1019","temp":18,"dewp":17,"wdir":"VRB","wspd":3,"visib":3.11,"altim":1019,"clouds":[{"cover":"SCT","base":800},{"cover":"BKN","base":1300}],"obsTime":1781478000},"SBNM":{"icaoId":"SBNM","flightCategory":"VFR","rawOb":"METAR SBNM 142300Z AUTO 16008KT 9999 OVC044 13/10 Q1021","temp":13,"dewp":10,"wdir":160,"wspd":8,"visib":"6+","altim":1021,"clouds":[{"cover":"OVC","base":4400}],"obsTime":1781478000},"SBAF":{"icaoId":"SBAF","flightCategory":"VFR","rawOb":"METAR SBAF 142300Z 24003KT 9999 FEW030 20/20 Q1017","temp":20,"dewp":20,"wdir":240,"wspd":3,"visib":"6+","altim":1017,"clouds":[{"cover":"FEW","base":3000}],"obsTime":1781478000},"SBJR":{"icaoId":"SBJR","flightCategory":"VFR","rawOb":"METAR SBJR 142300Z 29001KT 9999 FEW030 21/20 Q1017","temp":21,"dewp":20,"wdir":290,"wspd":1,"visib":"6+","altim":1017,"clouds":[{"cover":"FEW","base":3000}],"obsTime":1781478000},"SBLS":{"icaoId":"SBLS","flightCategory":"VFR","rawOb":"METAR SBLS 142300Z 08002KT 9999 FEW020 19/16 Q1021","temp":19,"dewp":16,"wdir":80,"wspd":2,"visib":"6+","altim":1021,"clouds":[{"cover":"FEW","base":2000}],"obsTime":1781478000},"SBMT":{"icaoId":"SBMT","flightCategory":"VFR","rawOb":"METAR SBMT 142300Z 31003KT 280V340 9999 SCT017 SCT083 17/17 Q1020","temp":17,"dewp":17,"wdir":310,"wspd":3,"visib":"6+","altim":1020,"clouds":[{"cover":"SCT","base":1700},{"cover":"SCT","base":8300}],"obsTime":1781478000},"SBAN":{"icaoId":"SBAN","flightCategory":"VFR","rawOb":"METAR SBAN 142300Z 11003KT 9999 VCTS FEW035 FEW040CB SCT100 21/18 Q1019","temp":21,"dewp":18,"wdir":110,"wspd":3,"visib":"6+","altim":1019,"clouds":[{"cover":"FEW","base":3500},{"cover":"FEW","base":4000},{"cover":"SCT","base":10000}],"obsTime":1781478000}}}