{"updated":1775231807,"count":85,"data":{"SBEG":{"icaoId":"SBEG","flightCategory":"VFR","rawOb":"METAR SBEG 031400Z 07008KT 9999 FEW020 31/24 Q1012","temp":31,"dewp":24,"wdir":70,"wspd":8,"visib":"6+","altim":1012,"clouds":[{"cover":"FEW","base":2000}],"obsTime":1775224800},"SBBE":{"icaoId":"SBBE","flightCategory":"VFR","rawOb":"METAR SBBE 031400Z 07006KT 9999 SCT032 30/23 Q1013","temp":30,"dewp":23,"wdir":70,"wspd":6,"visib":"6+","altim":1013,"clouds":[{"cover":"SCT","base":3200}],"obsTime":1775224800},"SBBR":{"icaoId":"SBBR","flightCategory":"MVFR","rawOb":"METAR SBBR 031400Z 09007KT 060V120 9999 BKN015 BKN100 23/19 Q1022","temp":23,"dewp":19,"wdir":90,"wspd":7,"visib":"6+","altim":1022,"clouds":[{"cover":"BKN","base":1500},{"cover":"BKN","base":10000}],"obsTime":1775224800},"SBBV":{"icaoId":"SBBV","flightCategory":"MVFR","rawOb":"METAR SBBV 031400Z 13008KT 9999 BKN025 FEW030TCU SCT090 29/23 Q1013","temp":29,"dewp":23,"wdir":130,"wspd":8,"visib":"6+","altim":1013,"clouds":[{"cover":"BKN","base":2500},{"cover":"FEW","base":3000},{"cover":"SCT","base":9000}],"obsTime":1775224800},"SBCB":{"icaoId":"SBCB","flightCategory":"VFR","rawOb":"METAR SBCB 031400Z 05008KT 9999 SCT020 SCT060 29/23 Q1015","temp":29,"dewp":23,"wdir":50,"wspd":8,"visib":"6+","altim":1015,"clouds":[{"cover":"SCT","base":2000},{"cover":"SCT","base":6000}],"obsTime":1775224800},"SBCF":{"icaoId":"SBCF","flightCategory":"VFR","rawOb":"METAR SBCF 031400Z 07004KT 360V130 9999 SCT025 SCT100 26/18 Q1022","temp":26,"dewp":18,"wdir":70,"wspd":4,"visib":"6+","altim":1022,"clouds":[{"cover":"SCT","base":2500},{"cover":"SCT","base":10000}],"obsTime":1775224800},"SBCG":{"icaoId":"SBCG","flightCategory":"VFR","rawOb":"METAR SBCG 031400Z 28007KT 250V310 9999 FEW035 28/21 Q1017","temp":28,"dewp":21,"wdir":280,"wspd":7,"visib":"6+","altim":1017,"clouds":[{"cover":"FEW","base":3500}],"obsTime":1775224800},"SBCP":{"icaoId":"SBCP","flightCategory":"VFR","rawOb":"METAR SBCP 031400Z 01006KT 9999 FEW015 31/23 Q1015","temp":31,"dewp":23,"wdir":10,"wspd":6,"visib":"6+","altim":1015,"clouds":[{"cover":"FEW","base":1500}],"obsTime":1775224800},"SBCR":{"icaoId":"SBCR","flightCategory":"VFR","rawOb":"METAR SBCR 031400Z 02004KT 330V060 CAVOK 30/24 Q1014","temp":30,"dewp":24,"wdir":20,"wspd":4,"visib":"6+","altim":1014,"clouds":[],"obsTime":1775224800},"SBCT":{"icaoId":"SBCT","flightCategory":"VFR","rawOb":"METAR SBCT 031400Z 29011KT 9999 SCT025 25/18 Q1019","temp":25,"dewp":18,"wdir":290,"wspd":11,"visib":"6+","altim":1019,"clouds":[{"cover":"SCT","base":2500}],"obsTime":1775224800},"SBCZ":{"icaoId":"SBCZ","flightCategory":"VFR","rawOb":"METAR SBCZ 031400Z 14007KT 110V170 9999 SCT010 SCT090 26/23 Q1014","temp":26,"dewp":23,"wdir":140,"wspd":7,"visib":"6+","altim":1014,"clouds":[{"cover":"SCT","base":1000},{"cover":"SCT","base":9000}],"obsTime":1775224800},"SBAT":{"icaoId":"SBAT","flightCategory":"VFR","rawOb":"METAR SBAT 031400Z 10006KT 9999 SCT025 32/23 Q1014","temp":32,"dewp":23,"wdir":100,"wspd":6,"visib":"6+","altim":1014,"clouds":[{"cover":"SCT","base":2500}],"obsTime":1775224800},"SBFI":{"icaoId":"SBFI","flightCategory":"VFR","rawOb":"METAR SBFI 031400Z 36007KT CAVOK 30/23 Q1014","temp":30,"dewp":23,"wdir":360,"wspd":7,"visib":"6+","altim":1014,"clouds":[],"obsTime":1775224800},"SBFL":{"icaoId":"SBFL","flightCategory":"VFR","rawOb":"METAR SBFL 031400Z 19002KT CAVOK 29/21 Q1013","temp":29,"dewp":21,"wdir":190,"wspd":2,"visib":"6+","altim":1013,"clouds":[],"obsTime":1775224800},"SBFZ":{"icaoId":"SBFZ","flightCategory":"MVFR","rawOb":"METAR SBFZ 031400Z 11010KT 9000 -SHRA BKN020 FEW025TCU BKN045 31/25 Q1013","temp":31,"dewp":25,"wdir":110,"wspd":10,"visib":5.59,"altim":1013,"clouds":[{"cover":"BKN","base":2000},{"cover":"FEW","base":2500},{"cover":"BKN","base":4500}],"obsTime":1775224800},"SBGL":{"icaoId":"SBGL","flightCategory":"VFR","rawOb":"METAR SBGL 031400Z 29003KT 9999 SCT045 31/22 Q1014","temp":31,"dewp":22,"wdir":290,"wspd":3,"visib":"6+","altim":1014,"clouds":[{"cover":"SCT","base":4500}],"obsTime":1775224800},"SBGO":{"icaoId":"SBGO","flightCategory":"VFR","rawOb":"METAR SBGO 031400Z 35006KT 9999 FEW026 27/21 Q1020","temp":27,"dewp":21,"wdir":350,"wspd":6,"visib":"6+","altim":1020,"clouds":[{"cover":"FEW","base":2600}],"obsTime":1775224800},"SBGR":{"icaoId":"SBGR","flightCategory":"VFR","rawOb":"METAR SBGR 031400Z 31012KT 9999 SCT040 28/20 Q1019","temp":28,"dewp":20,"wdir":310,"wspd":12,"visib":"6+","altim":1019,"clouds":[{"cover":"SCT","base":4000}],"obsTime":1775224800},"SBHT":{"icaoId":"SBHT","flightCategory":"VFR","rawOb":"METAR SBHT 031400Z 11005KT 9999 SCT025 29/23 Q1014","temp":29,"dewp":23,"wdir":110,"wspd":5,"visib":"6+","altim":1014,"clouds":[{"cover":"SCT","base":2500}],"obsTime":1775224800},"SBIL":{"icaoId":"SBIL","flightCategory":"VFR","rawOb":"METAR SBIL 031400Z 22005KT 190V270 9999 VCSH SCT020 FEW025TCU SCT050 28/25 Q1016","temp":28,"dewp":25,"wdir":220,"wspd":5,"visib":"6+","altim":1016,"clouds":[{"cover":"SCT","base":2000},{"cover":"FEW","base":2500},{"cover":"SCT","base":5000}],"obsTime":1775224800},"SBJU":{"icaoId":"SBJU","flightCategory":"MVFR","rawOb":"METAR SBJU 031400Z 14006KT 9999 BKN020 28/22 Q1016","temp":28,"dewp":22,"wdir":140,"wspd":6,"visib":"6+","altim":1016,"clouds":[{"cover":"BKN","base":2000}],"obsTime":1775224800},"SBKP":{"icaoId":"SBKP","flightCategory":"VFR","rawOb":"METAR SBKP 031400Z 31008KT 280V010 9999 SCT025 27/20 Q1019","temp":27,"dewp":20,"wdir":310,"wspd":8,"visib":"6+","altim":1019,"clouds":[{"cover":"SCT","base":2500}],"obsTime":1775224800},"SBLO":{"icaoId":"SBLO","flightCategory":"VFR","rawOb":"METAR SBLO 031400Z VRB03KT 9999 FEW040 28/21 Q1018","temp":28,"dewp":21,"wdir":"VRB","wspd":3,"visib":"6+","altim":1018,"clouds":[{"cover":"FEW","base":4000}],"obsTime":1775224800},"SBMA":{"icaoId":"SBMA","flightCategory":"MVFR","rawOb":"METAR SBMA 031400Z 35005KT 9999 BKN020 SCT100 28/23 Q1014","temp":28,"dewp":23,"wdir":350,"wspd":5,"visib":"6+","altim":1014,"clouds":[{"cover":"BKN","base":2000},{"cover":"SCT","base":10000}],"obsTime":1775224800},"SBME":{"icaoId":"SBME","flightCategory":"VFR","rawOb":"METAR SBME 031400Z 04011KT CAVOK 33/22 Q1014","temp":33,"dewp":22,"wdir":40,"wspd":11,"visib":"6+","altim":1014,"clouds":[],"obsTime":1775224800},"SBMG":{"icaoId":"SBMG","flightCategory":"VFR","rawOb":"METAR SBMG 031400Z 35006KT 310V040 9999 FEW030 29/21 Q1017","temp":29,"dewp":21,"wdir":350,"wspd":6,"visib":"6+","altim":1017,"clouds":[{"cover":"FEW","base":3000}],"obsTime":1775224800},"SBMK":{"icaoId":"SBMK","flightCategory":"MVFR","rawOb":"METAR SBMK 031400Z 04002KT 9999 BKN030 27/20 Q1020","temp":27,"dewp":20,"wdir":40,"wspd":2,"visib":"6+","altim":1020,"clouds":[{"cover":"BKN","base":3000}],"obsTime":1775224800},"SBMO":{"icaoId":"SBMO","flightCategory":"MVFR","rawOb":"METAR SBMO 031400Z 07005KT 010V160 9999 BKN023 29/25 Q1015","temp":29,"dewp":25,"wdir":70,"wspd":5,"visib":"6+","altim":1015,"clouds":[{"cover":"BKN","base":2300}],"obsTime":1775224800},"SBMQ":{"icaoId":"SBMQ","flightCategory":"VFR","rawOb":"METAR SBMQ 031400Z 08004KT 9999 SCT021 30/25 Q1013","temp":30,"dewp":25,"wdir":80,"wspd":4,"visib":"6+","altim":1013,"clouds":[{"cover":"SCT","base":2100}],"obsTime":1775224800},"SBNT":{"icaoId":"SBNT","flightCategory":"MVFR","rawOb":"METAR SBNT 031400Z 11012KT 080V160 9999 BKN026 BKN033 30/24 Q1013","temp":30,"dewp":24,"wdir":110,"wspd":12,"visib":"6+","altim":1013,"clouds":[{"cover":"BKN","base":2600},{"cover":"BKN","base":3300}],"obsTime":1775224800},"SBPA":{"icaoId":"SBPA","flightCategory":"MVFR","rawOb":"METAR SBPA 031400Z 24005KT 210V270 9999 BKN025 26/22 Q1013","temp":26,"dewp":22,"wdir":240,"wspd":5,"visib":"6+","altim":1013,"clouds":[{"cover":"BKN","base":2500}],"obsTime":1775224800},"SBPJ":{"icaoId":"SBPJ","flightCategory":"VFR","rawOb":"METAR SBPJ 031400Z 15010KT 9999 FEW030 SCT100 31/24 Q1015","temp":31,"dewp":24,"wdir":150,"wspd":10,"visib":"6+","altim":1015,"clouds":[{"cover":"FEW","base":3000},{"cover":"SCT","base":10000}],"obsTime":1775224800},"SBPV":{"icaoId":"SBPV","flightCategory":"VFR","rawOb":"METAR SBPV 031400Z 01005KT 9999 SCT020 29/23 Q1013","temp":29,"dewp":23,"wdir":10,"wspd":5,"visib":"6+","altim":1013,"clouds":[{"cover":"SCT","base":2000}],"obsTime":1775224800},"SBRB":{"icaoId":"SBRB","flightCategory":"IFR","rawOb":"METAR SBRB 031400Z 31003KT 9999 FEW005 BKN009 BKN100 27/24 Q1014","temp":27,"dewp":24,"wdir":310,"wspd":3,"visib":"6+","altim":1014,"clouds":[{"cover":"FEW","base":500},{"cover":"BKN","base":900},{"cover":"BKN","base":10000}],"obsTime":1775224800},"SBRF":{"icaoId":"SBRF","flightCategory":"VFR","rawOb":"METAR SBRF 031400Z 14007KT 100V180 9999 SCT025 SCT070 30/24 Q1014","temp":30,"dewp":24,"wdir":140,"wspd":7,"visib":"6+","altim":1014,"clouds":[{"cover":"SCT","base":2500},{"cover":"SCT","base":7000}],"obsTime":1775224800},"SBSG":{"icaoId":"SBSG","flightCategory":"MVFR","rawOb":"METAR SBSG 031400Z 11012KT 080V140 9999 BKN025 FEW030TCU 31/24 Q1013","temp":31,"dewp":24,"wdir":110,"wspd":12,"visib":"6+","altim":1013,"clouds":[{"cover":"BKN","base":2500},{"cover":"FEW","base":3000}],"obsTime":1775224800},"SBSL":{"icaoId":"SBSL","flightCategory":"VFR","rawOb":"METAR SBSL 031400Z 09008KT 9999 SCT020 BKN100 30/25 Q1013","temp":30,"dewp":25,"wdir":90,"wspd":8,"visib":"6+","altim":1013,"clouds":[{"cover":"SCT","base":2000},{"cover":"BKN","base":10000}],"obsTime":1775224800},"SBSN":{"icaoId":"SBSN","flightCategory":"MVFR","rawOb":"METAR SBSN 031400Z 09011KT 9999 BKN015 29/25 Q1013","temp":29,"dewp":25,"wdir":90,"wspd":11,"visib":"6+","altim":1013,"clouds":[{"cover":"BKN","base":1500}],"obsTime":1775224800},"SBSP":{"icaoId":"SBSP","flightCategory":"VFR","rawOb":"METAR SBSP 031400Z 34012KT 290V010 9999 FEW040 27/19 Q1020","temp":27,"dewp":19,"wdir":340,"wspd":12,"visib":"6+","altim":1020,"clouds":[{"cover":"FEW","base":4000}],"obsTime":1775224800},"SBSV":{"icaoId":"SBSV","flightCategory":"VFR","rawOb":"METAR SBSV 031400Z 11008KT 060V140 9999 VCSH FEW019 FEW024TCU BKN075 28/22 Q1016","temp":28,"dewp":22,"wdir":110,"wspd":8,"visib":"6+","altim":1016,"clouds":[{"cover":"FEW","base":1900},{"cover":"FEW","base":2400},{"cover":"BKN","base":7500}],"obsTime":1775224800},"SBTE":{"icaoId":"SBTE","flightCategory":"MVFR","rawOb":"METAR SBTE 031400Z VRB04KT 9999 BKN016 SCT100 29/24 Q1014","temp":29,"dewp":24,"wdir":"VRB","wspd":4,"visib":"6+","altim":1014,"clouds":[{"cover":"BKN","base":1600},{"cover":"SCT","base":10000}],"obsTime":1775224800},"SBUL":{"icaoId":"SBUL","flightCategory":"MVFR","rawOb":"METAR SBUL 031400Z 09008KT 9999 SCT018 BKN025 BKN070 24/19 Q1021","temp":24,"dewp":19,"wdir":90,"wspd":8,"visib":"6+","altim":1021,"clouds":[{"cover":"SCT","base":1800},{"cover":"BKN","base":2500},{"cover":"BKN","base":7000}],"obsTime":1775224800},"SBUR":{"icaoId":"SBUR","flightCategory":"VFR","rawOb":"METAR SBUR 031400Z 01009KT CAVOK 25/20 Q1020","temp":25,"dewp":20,"wdir":10,"wspd":9,"visib":"6+","altim":1020,"clouds":[],"obsTime":1775224800},"SBVT":{"icaoId":"SBVT","flightCategory":"VFR","rawOb":"METAR SBVT 031400Z 02010KT 320V050 9999 SCT035 31/23 Q1016","temp":31,"dewp":23,"wdir":20,"wspd":10,"visib":"6+","altim":1016,"clouds":[{"cover":"SCT","base":3500}],"obsTime":1775224800},"SBKG":{"icaoId":"SBKG","flightCategory":"MVFR","rawOb":"METAR SBKG 031400Z 15006KT 9999 BKN025 28/21 Q1016","temp":28,"dewp":21,"wdir":150,"wspd":6,"visib":"6+","altim":1016,"clouds":[{"cover":"BKN","base":2500}],"obsTime":1775224800},"SBCJ":{"icaoId":"SBCJ","flightCategory":"VFR","rawOb":"METAR SBCJ 031400Z 10005KT 9999 FEW010 25/21 Q1018","temp":25,"dewp":21,"wdir":100,"wspd":5,"visib":"6+","altim":1018,"clouds":[{"cover":"FEW","base":1000}],"obsTime":1775224800},"SBOI":{"icaoId":"SBOI","flightCategory":"VFR","rawOb":"METAR SBOI 031400Z AUTO VRB02KT 9999 FEW026 SCT032 31/25 Q1013","temp":31,"dewp":25,"wdir":"VRB","wspd":2,"visib":"6+","altim":1013,"clouds":[{"cover":"FEW","base":2600},{"cover":"SCT","base":3200}],"obsTime":1775224800},"SBAR":{"icaoId":"SBAR","flightCategory":"VFR","rawOb":"METAR SBAR 031400Z 15006KT 070V190 9999 SCT023 30/24 Q1015","temp":30,"dewp":24,"wdir":150,"wspd":6,"visib":"6+","altim":1015,"clouds":[{"cover":"SCT","base":2300}],"obsTime":1775224800},"SBPB":{"icaoId":"SBPB","flightCategory":"VFR","rawOb":"METAR SBPB 031400Z 07010KT 9999 SCT020 31/24 Q1013","temp":31,"dewp":24,"wdir":70,"wspd":10,"visib":"6+","altim":1013,"clouds":[{"cover":"SCT","base":2000}],"obsTime":1775224800},"SBBU":{"icaoId":"SBBU","flightCategory":"VFR","rawOb":"METAR SBBU 031400Z 30006KT 9999 SCT022 29/22 Q1019","temp":29,"dewp":22,"wdir":300,"wspd":6,"visib":"6+","altim":1019,"clouds":[{"cover":"SCT","base":2200}],"obsTime":1775224800},"SBPL":{"icaoId":"SBPL","flightCategory":"MVFR","rawOb":"METAR SBPL 031400Z 13007KT 9999 FEW020 BKN025 28/22 Q1017","temp":28,"dewp":22,"wdir":130,"wspd":7,"visib":"6+","altim":1017,"clouds":[{"cover":"FEW","base":2000},{"cover":"BKN","base":2500}],"obsTime":1775224800},"SBPP":{"icaoId":"SBPP","flightCategory":"VFR","rawOb":"METAR SBPP 031400Z 05006KT CAVOK 28/21 Q1018","temp":28,"dewp":21,"wdir":50,"wspd":6,"visib":"6+","altim":1018,"clouds":[],"obsTime":1775224800},"SBCO":{"icaoId":"SBCO","flightCategory":"MVFR","rawOb":"METAR SBCO 031400Z 07004KT 020V130 9999 BKN023 27/21 Q1014","temp":27,"dewp":21,"wdir":70,"wspd":4,"visib":"6+","altim":1014,"clouds":[{"cover":"BKN","base":2300}],"obsTime":1775224800},"SBPS":{"icaoId":"SBPS","flightCategory":"VFR","rawOb":"METAR SBPS 031400Z 12007KT 9999 SCT020 BKN100 28/24 Q1017","temp":28,"dewp":24,"wdir":120,"wspd":7,"visib":"6+","altim":1017,"clouds":[{"cover":"SCT","base":2000},{"cover":"BKN","base":10000}],"obsTime":1775224800},"SBDN":{"icaoId":"SBDN","flightCategory":"VFR","rawOb":"METAR SBDN 031400Z 01005KT 9999 FEW025 29/21 Q1017","temp":29,"dewp":21,"wdir":10,"wspd":5,"visib":"6+","altim":1017,"clouds":[{"cover":"FEW","base":2500}],"obsTime":1775224800},"SBBQ":{"icaoId":"SBBQ","flightCategory":"VFR","rawOb":"METAR SBBQ 031400Z 29005KT 9999 SCT020 24/18 Q1024","temp":24,"dewp":18,"wdir":290,"wspd":5,"visib":"6+","altim":1024,"clouds":[{"cover":"SCT","base":2000}],"obsTime":1775224800},"SBSC":{"icaoId":"SBSC","flightCategory":"VFR","rawOb":"METAR SBSC 031400Z 35008KT CAVOK 32/23 Q1014","temp":32,"dewp":23,"wdir":350,"wspd":8,"visib":"6+","altim":1014,"clouds":[],"obsTime":1775224800},"SBBH":{"icaoId":"SBBH","flightCategory":"VFR","rawOb":"METAR SBBH 031400Z 06003KT 9999 BKN033 27/19 Q1021","temp":27,"dewp":19,"wdir":60,"wspd":3,"visib":"6+","altim":1021,"clouds":[{"cover":"BKN","base":3300}],"obsTime":1775224800},"SBSJ":{"icaoId":"SBSJ","flightCategory":"VFR","rawOb":"METAR SBSJ 031400Z VRB02KT 9999 FEW020 27/20 Q1019","temp":27,"dewp":20,"wdir":"VRB","wspd":2,"visib":"6+","altim":1019,"clouds":[{"cover":"FEW","base":2000}],"obsTime":1775224800},"SBAX":{"icaoId":"SBAX","flightCategory":"VFR","rawOb":"METAR SBAX 031400Z AUTO 36005KT 300V070 9999 FEW020 24/19 Q1022","temp":24,"dewp":19,"wdir":360,"wspd":5,"visib":"6+","altim":1022,"clouds":[{"cover":"FEW","base":2000}],"obsTime":1775224800},"SBSM":{"icaoId":"SBSM","flightCategory":"VFR","rawOb":"METAR SBSM 031400Z 12004KT 070V240 9999 FEW020 27/23 Q1013","temp":27,"dewp":23,"wdir":120,"wspd":4,"visib":"6+","altim":1013,"clouds":[{"cover":"FEW","base":2000}],"obsTime":1775224800},"SBES":{"icaoId":"SBES","flightCategory":"VFR","rawOb":"METAR SBES 031400Z 06007KT 020V080 CAVOK 28/// Q1015","temp":null,"dewp":null,"wdir":60,"wspd":7,"visib":"6+","altim":1015,"clouds":[],"obsTime":1775224800},"SBSR":{"icaoId":"SBSR","flightCategory":"VFR","rawOb":"METAR SBSR 031400Z 02004KT 9999 FEW035 28/20 Q1018","temp":28,"dewp":20,"wdir":20,"wspd":4,"visib":"6+","altim":1018,"clouds":[{"cover":"FEW","base":3500}],"obsTime":1775224800},"SBGM":{"icaoId":"SBGM","flightCategory":"VFR","rawOb":"METAR SBGM 031400Z 01008KT 340V050 9999 BKN043 30/21 Q1013","temp":30,"dewp":21,"wdir":10,"wspd":8,"visib":"6+","altim":1013,"clouds":[{"cover":"BKN","base":4300}],"obsTime":1775224800},"SBCA":{"icaoId":"SBCA","flightCategory":"VFR","rawOb":"METAR SBCA 031400Z 35010KT 9999 FEW025 27/18 Q1019","temp":27,"dewp":18,"wdir":350,"wspd":10,"visib":"6+","altim":1019,"clouds":[{"cover":"FEW","base":2500}],"obsTime":1775224800},"SBTF":{"icaoId":"SBTF","flightCategory":"VFR","rawOb":"METAR SBTF 031400Z 11005KT 9999 FEW015 31/26 Q1012","temp":31,"dewp":26,"wdir":110,"wspd":5,"visib":"6+","altim":1012,"clouds":[{"cover":"FEW","base":1500}],"obsTime":1775224800},"SBIP":{"icaoId":"SBIP","flightCategory":"MVFR","rawOb":"METAR SBIP 031400Z AUTO 35005KT 310V030 9999 SCT024 BKN028 29/21 Q1019","temp":29,"dewp":21,"wdir":350,"wspd":5,"visib":"6+","altim":1019,"clouds":[{"cover":"SCT","base":2400},{"cover":"BKN","base":2800}],"obsTime":1775224800},"SBTT":{"icaoId":"SBTT","flightCategory":"IFR","rawOb":"METAR SBTT 031400Z 06002KT 4000 -RA BKN011 BKN070 23/21 Q1014","temp":23,"dewp":21,"wdir":60,"wspd":2,"visib":2.49,"altim":1014,"clouds":[{"cover":"BKN","base":1100},{"cover":"BKN","base":7000}],"obsTime":1775224800},"SBCC":{"icaoId":"SBCC","flightCategory":"VFR","rawOb":"METAR SBCC 031400Z 08008KT 9999 SCT020 SCT100 27/21 Q1016","temp":27,"dewp":21,"wdir":80,"wspd":8,"visib":"6+","altim":1016,"clouds":[{"cover":"SCT","base":2000},{"cover":"SCT","base":10000}],"obsTime":1775224800},"SBUY":{"icaoId":"SBUY","flightCategory":"VFR","rawOb":"METAR SBUY 031400Z 17005KT 9999 SCT015 SCT090 28/25 Q1012","temp":28,"dewp":25,"wdir":170,"wspd":5,"visib":"6+","altim":1012,"clouds":[{"cover":"SCT","base":1500},{"cover":"SCT","base":9000}],"obsTime":1775224800},"SBVH":{"icaoId":"SBVH","flightCategory":"VFR","rawOb":"METAR SBVH 031400Z 10009KT 9999 FEW009 25/22 Q1017","temp":25,"dewp":22,"wdir":100,"wspd":9,"visib":"6+","altim":1017,"clouds":[{"cover":"FEW","base":900}],"obsTime":1775224800},"SBAU":{"icaoId":"SBAU","flightCategory":"VFR","rawOb":"METAR SBAU 031400Z 30004KT CAVOK 30/20 Q1017","temp":30,"dewp":20,"wdir":300,"wspd":4,"visib":"6+","altim":1017,"clouds":[],"obsTime":1775224800},"SBJP":{"icaoId":"SBJP","flightCategory":"VFR","rawOb":"METAR SBJP 031400Z 13010KT 9999 SCT020 31/23 Q1014","temp":31,"dewp":23,"wdir":130,"wspd":10,"visib":"6+","altim":1014,"clouds":[{"cover":"SCT","base":2000}],"obsTime":1775224800},"SBAN":{"icaoId":"SBAN","flightCategory":"MVFR","rawOb":"METAR SBAN 031400Z 10010KT 9999 BKN018 SCT100 24/18 Q1023","temp":24,"dewp":18,"wdir":100,"wspd":10,"visib":"6+","altim":1023,"clouds":[{"cover":"BKN","base":1800},{"cover":"SCT","base":10000}],"obsTime":1775224800},"SBLE":{"icaoId":"SBLE","flightCategory":"VFR","rawOb":"METAR SBLE 031400Z AUTO 20005KT 150V270 9999 FEW013 SCT021 24/24 Q1019","temp":24,"dewp":24,"wdir":200,"wspd":5,"visib":"6+","altim":1019,"clouds":[{"cover":"FEW","base":1300},{"cover":"SCT","base":2100}],"obsTime":1775224800},"SBIH":{"icaoId":"SBIH","flightCategory":"VFR","rawOb":"METAR SBIH 031400Z 07008KT 9999 SCT017 30/24 Q1013","temp":30,"dewp":24,"wdir":70,"wspd":8,"visib":"6+","altim":1013,"clouds":[{"cover":"SCT","base":1700}],"obsTime":1775224800},"SBAF":{"icaoId":"SBAF","flightCategory":"VFR","rawOb":"METAR SBAF 031400Z 35003KT 9999 FEW040 SCT100 30/24 Q1015","temp":30,"dewp":24,"wdir":350,"wspd":3,"visib":"6+","altim":1015,"clouds":[{"cover":"FEW","base":4000},{"cover":"SCT","base":10000}],"obsTime":1775224800},"SBGW":{"icaoId":"SBGW","flightCategory":"VFR","rawOb":"METAR SBGW 031400Z VRB03KT 9999 FEW025 SCT100 29/19 Q1018","temp":29,"dewp":19,"wdir":"VRB","wspd":3,"visib":"6+","altim":1018,"clouds":[{"cover":"FEW","base":2500},{"cover":"SCT","base":10000}],"obsTime":1775224800},"SBJR":{"icaoId":"SBJR","flightCategory":"VFR","rawOb":"METAR SBJR 031400Z 01004KT CAVOK 35/22 Q1014","temp":35,"dewp":22,"wdir":10,"wspd":4,"visib":"6+","altim":1014,"clouds":[],"obsTime":1775224800},"SBLS":{"icaoId":"SBLS","flightCategory":"VFR","rawOb":"METAR SBLS 031400Z VRB04KT 9999 SCT026 26/19 Q1021","temp":26,"dewp":19,"wdir":"VRB","wspd":4,"visib":"6+","altim":1021,"clouds":[{"cover":"SCT","base":2600}],"obsTime":1775224800},"SBMT":{"icaoId":"SBMT","flightCategory":"VFR","rawOb":"METAR SBMT 031400Z 29012KT 260V330 9999 FEW030 27/20 Q1019","temp":27,"dewp":20,"wdir":290,"wspd":12,"visib":"6+","altim":1019,"clouds":[{"cover":"FEW","base":3000}],"obsTime":1775224800},"SBST":{"icaoId":"SBST","flightCategory":"VFR","rawOb":"METAR SBST 031400Z 13003KT CAVOK 28/24 Q1013","temp":28,"dewp":24,"wdir":130,"wspd":3,"visib":"6+","altim":1013,"clouds":[],"obsTime":1775224800},"SBTA":{"icaoId":"SBTA","flightCategory":"VFR","rawOb":"METAR SBTA 031400Z 20003KT 120V280 CAVOK 27/19 Q1018","temp":27,"dewp":19,"wdir":200,"wspd":3,"visib":"6+","altim":1018,"clouds":[],"obsTime":1775224800},"SBJV":{"icaoId":"SBJV","flightCategory":"VFR","rawOb":"METAR SBJV 031400Z 10004KT 9999 FEW025 28/24 Q1013","temp":28,"dewp":24,"wdir":100,"wspd":4,"visib":"6+","altim":1013,"clouds":[{"cover":"FEW","base":2500}],"obsTime":1775224800},"SBPF":{"icaoId":"SBPF","flightCategory":"VFR","rawOb":"METAR SBPF 031400Z 30007KT 9999 BKN045 26/19 Q1017","temp":26,"dewp":19,"wdir":300,"wspd":7,"visib":"6+","altim":1017,"clouds":[{"cover":"BKN","base":4500}],"obsTime":1775224800}}}