{"updated":1775945913,"count":80,"data":{"SBMA":{"icaoId":"SBMA","flightCategory":"MVFR","rawOb":"METAR SBMA 112100Z 10002KT 9999 BKN020 FEW025TCU 29/25 Q1009","temp":29,"dewp":25,"wdir":100,"wspd":2,"visib":"6+","altim":1009,"clouds":[{"cover":"BKN","base":2000},{"cover":"FEW","base":2500}],"obsTime":1775941200},"SBFL":{"icaoId":"SBFL","flightCategory":"VFR","rawOb":"METAR SBFL 112100Z 03005KT 010V080 9999 SCT036 BKN050 23/19 Q1021","temp":23,"dewp":19,"wdir":30,"wspd":5,"visib":"6+","altim":1021,"clouds":[{"cover":"SCT","base":3600},{"cover":"BKN","base":5000}],"obsTime":1775941200},"SBME":{"icaoId":"SBME","flightCategory":"VFR","rawOb":"METAR SBME 112100Z 20004KT 9999 FEW025 BKN050 24/20 Q1020","temp":24,"dewp":20,"wdir":200,"wspd":4,"visib":"6+","altim":1020,"clouds":[{"cover":"FEW","base":2500},{"cover":"BKN","base":5000}],"obsTime":1775941200},"SBBE":{"icaoId":"SBBE","flightCategory":"VFR","rawOb":"METAR SBBE 112100Z 06001KT 9999 -RA SCT007 BKN100 25/25 Q1012","temp":25,"dewp":25,"wdir":60,"wspd":1,"visib":"6+","altim":1012,"clouds":[{"cover":"SCT","base":700},{"cover":"BKN","base":10000}],"obsTime":1775941200},"SBMG":{"icaoId":"SBMG","flightCategory":"VFR","rawOb":"METAR SBMG 112100Z 11008KT CAVOK 26/16 Q1016","temp":26,"dewp":16,"wdir":110,"wspd":8,"visib":"6+","altim":1016,"clouds":[],"obsTime":1775941200},"SBCP":{"icaoId":"SBCP","flightCategory":"VFR","rawOb":"METAR SBCP 112100Z 21007KT 9999 FEW020 BKN090 24/20 Q1020","temp":24,"dewp":20,"wdir":210,"wspd":7,"visib":"6+","altim":1020,"clouds":[{"cover":"FEW","base":2000},{"cover":"BKN","base":9000}],"obsTime":1775941200},"SBMK":{"icaoId":"SBMK","flightCategory":"VFR","rawOb":"METAR SBMK 112100Z 16006KT 9999 BKN040 25/19 Q1017","temp":25,"dewp":19,"wdir":160,"wspd":6,"visib":"6+","altim":1017,"clouds":[{"cover":"BKN","base":4000}],"obsTime":1775941200},"SBFZ":{"icaoId":"SBFZ","flightCategory":"VFR","rawOb":"METAR SBFZ 112100Z 10001KT 9999 FEW015 SCT100 26/24 Q1011","temp":26,"dewp":24,"wdir":100,"wspd":1,"visib":"6+","altim":1011,"clouds":[{"cover":"FEW","base":1500},{"cover":"SCT","base":10000}],"obsTime":1775941200},"SBMO":{"icaoId":"SBMO","flightCategory":"VFR","rawOb":"METAR SBMO 112100Z 11008KT 9999 FEW035 27/23 Q1012","temp":27,"dewp":23,"wdir":110,"wspd":8,"visib":"6+","altim":1012,"clouds":[{"cover":"FEW","base":3500}],"obsTime":1775941200},"SBCB":{"icaoId":"SBCB","flightCategory":"VFR","rawOb":"METAR SBCB 112100Z 24005KT 9999 SCT030 BKN070 24/21 Q1020","temp":24,"dewp":21,"wdir":240,"wspd":5,"visib":"6+","altim":1020,"clouds":[{"cover":"SCT","base":3000},{"cover":"BKN","base":7000}],"obsTime":1775941200},"SBMQ":{"icaoId":"SBMQ","flightCategory":"MVFR","rawOb":"METAR SBMQ 112100Z 04005KT 9999 SCT017 BKN030 27/25 Q1010","temp":27,"dewp":25,"wdir":40,"wspd":5,"visib":"6+","altim":1010,"clouds":[{"cover":"SCT","base":1700},{"cover":"BKN","base":3000}],"obsTime":1775941200},"SBGL":{"icaoId":"SBGL","flightCategory":"VFR","rawOb":"METAR SBGL 112100Z 13005KT 9999 FEW030 SCT050 BKN080 24/19 Q1020","temp":24,"dewp":19,"wdir":130,"wspd":5,"visib":"6+","altim":1020,"clouds":[{"cover":"FEW","base":3000},{"cover":"SCT","base":5000},{"cover":"BKN","base":8000}],"obsTime":1775941200},"SBNT":{"icaoId":"SBNT","flightCategory":"VFR","rawOb":"METAR SBNT 112100Z 13007KT 9999 SCT018 SCT100 28/25 Q1011","temp":28,"dewp":25,"wdir":130,"wspd":7,"visib":"6+","altim":1011,"clouds":[{"cover":"SCT","base":1800},{"cover":"SCT","base":10000}],"obsTime":1775941200},"SBBR":{"icaoId":"SBBR","flightCategory":"VFR","rawOb":"METAR SBBR 112100Z 14007KT 9999 SCT040 FEW045TCU 25/20 Q1018","temp":25,"dewp":20,"wdir":140,"wspd":7,"visib":"6+","altim":1018,"clouds":[{"cover":"SCT","base":4000},{"cover":"FEW","base":4500}],"obsTime":1775941200},"SBPA":{"icaoId":"SBPA","flightCategory":"VFR","rawOb":"METAR SBPA 112100Z 11013KT CAVOK 25/18 Q1016","temp":25,"dewp":18,"wdir":110,"wspd":13,"visib":"6+","altim":1016,"clouds":[],"obsTime":1775941200},"SBPJ":{"icaoId":"SBPJ","flightCategory":"VFR","rawOb":"METAR SBPJ 112100Z 12003KT 9999 FEW015 SCT080 26/25 Q1011","temp":26,"dewp":25,"wdir":120,"wspd":3,"visib":"6+","altim":1011,"clouds":[{"cover":"FEW","base":1500},{"cover":"SCT","base":8000}],"obsTime":1775941200},"SBGO":{"icaoId":"SBGO","flightCategory":"VFR","rawOb":"METAR SBGO 112100Z 09007KT 9999 FEW040 29/20 Q1015","temp":29,"dewp":20,"wdir":90,"wspd":7,"visib":"6+","altim":1015,"clouds":[{"cover":"FEW","base":4000}],"obsTime":1775941200},"SBPV":{"icaoId":"SBPV","flightCategory":"VFR","rawOb":"METAR SBPV 112100Z 19001KT CAVOK 28/26 Q1007","temp":28,"dewp":26,"wdir":190,"wspd":1,"visib":"6+","altim":1007,"clouds":[],"obsTime":1775941200},"SBCT":{"icaoId":"SBCT","flightCategory":"VFR","rawOb":"METAR SBCT 112100Z 09008KT 9999 FEW030 17/14 Q1023","temp":17,"dewp":14,"wdir":90,"wspd":8,"visib":"6+","altim":1023,"clouds":[{"cover":"FEW","base":3000}],"obsTime":1775941200},"SBGR":{"icaoId":"SBGR","flightCategory":"VFR","rawOb":"METAR SBGR 112100Z 13009KT CAVOK 20/15 Q1022","temp":20,"dewp":15,"wdir":130,"wspd":9,"visib":"6+","altim":1022,"clouds":[],"obsTime":1775941200},"SBRB":{"icaoId":"SBRB","flightCategory":"MVFR","rawOb":"METAR SBRB 112100Z 21005KT 8000 VCSH SCT025 FEW040TCU SCT080 30/25 Q1008","temp":30,"dewp":25,"wdir":210,"wspd":5,"visib":4.97,"altim":1008,"clouds":[{"cover":"SCT","base":2500},{"cover":"FEW","base":4000},{"cover":"SCT","base":8000}],"obsTime":1775941200},"SBRF":{"icaoId":"SBRF","flightCategory":"VFR","rawOb":"METAR SBRF 112100Z 15011KT 9999 SCT019 BKN080 28/25 Q1012","temp":28,"dewp":25,"wdir":150,"wspd":11,"visib":"6+","altim":1012,"clouds":[{"cover":"SCT","base":1900},{"cover":"BKN","base":8000}],"obsTime":1775941200},"SBCZ":{"icaoId":"SBCZ","flightCategory":"MVFR","rawOb":"METAR SBCZ 112100Z 27008KT 6000 -TSRA FEW004 SCT030 FEW035CB BKN090 25/24 Q1009","temp":25,"dewp":24,"wdir":270,"wspd":8,"visib":3.73,"altim":1009,"clouds":[{"cover":"FEW","base":400},{"cover":"SCT","base":3000},{"cover":"FEW","base":3500},{"cover":"BKN","base":9000}],"obsTime":1775941200},"SBSG":{"icaoId":"SBSG","flightCategory":"VFR","rawOb":"METAR SBSG 112100Z 11004KT 9999 SCT020 SCT027 FEW030TCU 27/25 Q1012","temp":27,"dewp":25,"wdir":110,"wspd":4,"visib":"6+","altim":1012,"clouds":[{"cover":"SCT","base":2000},{"cover":"SCT","base":2700},{"cover":"FEW","base":3000}],"obsTime":1775941200},"SBCF":{"icaoId":"SBCF","flightCategory":"VFR","rawOb":"METAR SBCF 112100Z 13009KT 9999 FEW040 22/18 Q1021","temp":22,"dewp":18,"wdir":130,"wspd":9,"visib":"6+","altim":1021,"clouds":[{"cover":"FEW","base":4000}],"obsTime":1775941200},"SBIL":{"icaoId":"SBIL","flightCategory":"VFR","rawOb":"METAR SBIL 112100Z 17007KT 140V200 9999 FEW020 28/23 Q1015","temp":28,"dewp":23,"wdir":170,"wspd":7,"visib":"6+","altim":1015,"clouds":[{"cover":"FEW","base":2000}],"obsTime":1775941200},"SBSL":{"icaoId":"SBSL","flightCategory":"VFR","rawOb":"METAR SBSL 112100Z 07010KT 9999 FEW018 SCT025 FEW030TCU 27/24 Q1011","temp":27,"dewp":24,"wdir":70,"wspd":10,"visib":"6+","altim":1011,"clouds":[{"cover":"FEW","base":1800},{"cover":"SCT","base":2500},{"cover":"FEW","base":3000}],"obsTime":1775941200},"SBBV":{"icaoId":"SBBV","flightCategory":"VFR","rawOb":"METAR SBBV 112100Z 10006KT 9999 SCT040 FEW045TCU 34/20 Q1008","temp":34,"dewp":20,"wdir":100,"wspd":6,"visib":"6+","altim":1008,"clouds":[{"cover":"SCT","base":4000},{"cover":"FEW","base":4500}],"obsTime":1775941200},"SBSN":{"icaoId":"SBSN","flightCategory":"VFR","rawOb":"METAR SBSN 112100Z 06005KT 9999 FEW023 FEW040TCU 30/25 Q1008","temp":30,"dewp":25,"wdir":60,"wspd":5,"visib":"6+","altim":1008,"clouds":[{"cover":"FEW","base":2300},{"cover":"FEW","base":4000}],"obsTime":1775941200},"SBSP":{"icaoId":"SBSP","flightCategory":"VFR","rawOb":"METAR SBSP 112100Z 15011KT CAVOK 18/15 Q1023","temp":18,"dewp":15,"wdir":150,"wspd":11,"visib":"6+","altim":1023,"clouds":[],"obsTime":1775941200},"SBJU":{"icaoId":"SBJU","flightCategory":"VFR","rawOb":"METAR SBJU 112100Z 14003KT 9999 FEW022 28/21 Q1013","temp":28,"dewp":21,"wdir":140,"wspd":3,"visib":"6+","altim":1013,"clouds":[{"cover":"FEW","base":2200}],"obsTime":1775941200},"SBKP":{"icaoId":"SBKP","flightCategory":"VFR","rawOb":"METAR SBKP 112100Z 13012KT 9999 FEW045 25/16 Q1019","temp":25,"dewp":16,"wdir":130,"wspd":12,"visib":"6+","altim":1019,"clouds":[{"cover":"FEW","base":4500}],"obsTime":1775941200},"SBSV":{"icaoId":"SBSV","flightCategory":"VFR","rawOb":"METAR SBSV 112100Z 13008KT 9999 SCT021 FEW023TCU 28/23 Q1013","temp":28,"dewp":23,"wdir":130,"wspd":8,"visib":"6+","altim":1013,"clouds":[{"cover":"SCT","base":2100},{"cover":"FEW","base":2300}],"obsTime":1775941200},"SBEG":{"icaoId":"SBEG","flightCategory":"VFR","rawOb":"METAR SBEG 112100Z 13003KT 090V180 9999 VCSH FEW020 FEW025TCU SCT100 26/25 Q1008","temp":26,"dewp":25,"wdir":130,"wspd":3,"visib":"6+","altim":1008,"clouds":[{"cover":"FEW","base":2000},{"cover":"FEW","base":2500},{"cover":"SCT","base":10000}],"obsTime":1775941200},"SBTE":{"icaoId":"SBTE","flightCategory":"VFR","rawOb":"METAR SBTE 112100Z 32006KT 9999 SCT020 FEW025TCU 30/25 Q1009","temp":30,"dewp":25,"wdir":320,"wspd":6,"visib":"6+","altim":1009,"clouds":[{"cover":"SCT","base":2000},{"cover":"FEW","base":2500}],"obsTime":1775941200},"SBCG":{"icaoId":"SBCG","flightCategory":"VFR","rawOb":"METAR SBCG 112100Z 08007KT 9999 VCSH SCT040 FEW045TCU 29/21 Q1014","temp":29,"dewp":21,"wdir":80,"wspd":7,"visib":"6+","altim":1014,"clouds":[{"cover":"SCT","base":4000},{"cover":"FEW","base":4500}],"obsTime":1775941200},"SBUL":{"icaoId":"SBUL","flightCategory":"VFR","rawOb":"METAR SBUL 112100Z 12003KT 060V190 9999 TS VCSH FEW035 FEW040CB 25/18 Q1018","temp":25,"dewp":18,"wdir":120,"wspd":3,"visib":"6+","altim":1018,"clouds":[{"cover":"FEW","base":3500},{"cover":"FEW","base":4000}],"obsTime":1775941200},"SBLO":{"icaoId":"SBLO","flightCategory":"VFR","rawOb":"METAR SBLO 112100Z 11007KT CAVOK 26/16 Q1018","temp":26,"dewp":16,"wdir":110,"wspd":7,"visib":"6+","altim":1018,"clouds":[],"obsTime":1775941200},"SBUR":{"icaoId":"SBUR","flightCategory":"VFR","rawOb":"METAR SBUR 112100Z 11007KT 9999 FEW050TCU SCT100 28/19 Q1018","temp":28,"dewp":19,"wdir":110,"wspd":7,"visib":"6+","altim":1018,"clouds":[{"cover":"FEW","base":5000},{"cover":"SCT","base":10000}],"obsTime":1775941200},"SBVT":{"icaoId":"SBVT","flightCategory":"VFR","rawOb":"METAR SBVT 112100Z 18011KT 9999 VCSH FEW015 SCT025 BKN040 23/20 Q1019","temp":23,"dewp":20,"wdir":180,"wspd":11,"visib":"6+","altim":1019,"clouds":[{"cover":"FEW","base":1500},{"cover":"SCT","base":2500},{"cover":"BKN","base":4000}],"obsTime":1775941200},"SBFI":{"icaoId":"SBFI","flightCategory":"VFR","rawOb":"METAR SBFI 112100Z 10004KT 9999 FEW030 BKN090 26/22 Q1014","temp":26,"dewp":22,"wdir":100,"wspd":4,"visib":"6+","altim":1014,"clouds":[{"cover":"FEW","base":3000},{"cover":"BKN","base":9000}],"obsTime":1775941200},"SBAT":{"icaoId":"SBAT","flightCategory":"VFR","rawOb":"METAR SBAT 112100Z 16006KT 9999 VCSH FEW035TCU 30/24 Q1009","temp":30,"dewp":24,"wdir":160,"wspd":6,"visib":"6+","altim":1009,"clouds":[{"cover":"FEW","base":3500}],"obsTime":1775941200},"SBCR":{"icaoId":"SBCR","flightCategory":"VFR","rawOb":"METAR SBCR 112100Z 06009KT 9999 FEW035 32/23 Q1009","temp":32,"dewp":23,"wdir":60,"wspd":9,"visib":"6+","altim":1009,"clouds":[{"cover":"FEW","base":3500}],"obsTime":1775941200},"SBHT":{"icaoId":"SBHT","flightCategory":"VFR","rawOb":"METAR SBHT 112100Z 11003KT 9999 FEW030 31/24 Q1009","temp":31,"dewp":24,"wdir":110,"wspd":3,"visib":"6+","altim":1009,"clouds":[{"cover":"FEW","base":3000}],"obsTime":1775941200},"SBVH":{"icaoId":"SBVH","flightCategory":"VFR","rawOb":"METAR SBVH 112100Z 07002KT 9999 BKN040 28/22 Q1012","temp":28,"dewp":22,"wdir":70,"wspd":2,"visib":"6+","altim":1012,"clouds":[{"cover":"BKN","base":4000}],"obsTime":1775941200},"SBOI":{"icaoId":"SBOI","flightCategory":"VFR","rawOb":"METAR SBOI 112100Z AUTO 04006KT 9999 FEW029 28/24 Q1011","temp":28,"dewp":24,"wdir":40,"wspd":6,"visib":"6+","altim":1011,"clouds":[{"cover":"FEW","base":2900}],"obsTime":1775941200},"SBAX":{"icaoId":"SBAX","flightCategory":"VFR","rawOb":"METAR SBAX 112100Z AUTO 11009KT CAVOK 24/18 Q1020","temp":24,"dewp":18,"wdir":110,"wspd":9,"visib":"6+","altim":1020,"clouds":[],"obsTime":1775941200},"SBCO":{"icaoId":"SBCO","flightCategory":"VFR","rawOb":"METAR SBCO 112100Z 11012KT CAVOK 24/18 Q1016","temp":24,"dewp":18,"wdir":110,"wspd":12,"visib":"6+","altim":1016,"clouds":[],"obsTime":1775941200},"SBPL":{"icaoId":"SBPL","flightCategory":"VFR","rawOb":"METAR SBPL 112100Z 31002KT 9999 SCT025 30/21 Q1012","temp":30,"dewp":21,"wdir":310,"wspd":2,"visib":"6+","altim":1012,"clouds":[{"cover":"SCT","base":2500}],"obsTime":1775941200},"SBBU":{"icaoId":"SBBU","flightCategory":"VFR","rawOb":"METAR SBBU 112100Z 13007KT CAVOK 26/20 Q1018","temp":26,"dewp":20,"wdir":130,"wspd":7,"visib":"6+","altim":1018,"clouds":[],"obsTime":1775941200},"SBPS":{"icaoId":"SBPS","flightCategory":"MVFR","rawOb":"METAR SBPS 112100Z 14006KT 090V230 9999 SCT020 BKN025 BKN100 26/23 Q1016","temp":26,"dewp":23,"wdir":140,"wspd":6,"visib":"6+","altim":1016,"clouds":[{"cover":"SCT","base":2000},{"cover":"BKN","base":2500},{"cover":"BKN","base":10000}],"obsTime":1775941200},"SBDN":{"icaoId":"SBDN","flightCategory":"VFR","rawOb":"METAR SBDN 112100Z 12006KT CAVOK 27/18 Q1016","temp":27,"dewp":18,"wdir":120,"wspd":6,"visib":"6+","altim":1016,"clouds":[],"obsTime":1775941200},"SBAR":{"icaoId":"SBAR","flightCategory":"VFR","rawOb":"METAR SBAR 112100Z 13009KT 9999 FEW023 SCT060 29/23 Q1012","temp":29,"dewp":23,"wdir":130,"wspd":9,"visib":"6+","altim":1012,"clouds":[{"cover":"FEW","base":2300},{"cover":"SCT","base":6000}],"obsTime":1775941200},"SBSC":{"icaoId":"SBSC","flightCategory":"VFR","rawOb":"METAR SBSC 112100Z 18003KT 9999 FEW020 SCT050 BKN080 24/20 Q1020","temp":24,"dewp":20,"wdir":180,"wspd":3,"visib":"6+","altim":1020,"clouds":[{"cover":"FEW","base":2000},{"cover":"SCT","base":5000},{"cover":"BKN","base":8000}],"obsTime":1775941200},"SBES":{"icaoId":"SBES","flightCategory":"VFR","rawOb":"METAR SBES 112100Z 23005KT 190V260 9999 FEW020 BKN080 23/// Q1020","temp":null,"dewp":null,"wdir":230,"wspd":5,"visib":"6+","altim":1020,"clouds":[{"cover":"FEW","base":2000},{"cover":"BKN","base":8000}],"obsTime":1775941200},"SBSJ":{"icaoId":"SBSJ","flightCategory":"VFR","rawOb":"METAR SBSJ 112100Z 13014KT 9999 SCT048 21/15 Q1021","temp":21,"dewp":15,"wdir":130,"wspd":14,"visib":"6+","altim":1021,"clouds":[{"cover":"SCT","base":4800}],"obsTime":1775941200},"SBCA":{"icaoId":"SBCA","flightCategory":"VFR","rawOb":"METAR SBCA 112100Z 08005KT CAVOK 23/17 Q1019","temp":23,"dewp":17,"wdir":80,"wspd":5,"visib":"6+","altim":1019,"clouds":[],"obsTime":1775941200},"SBSM":{"icaoId":"SBSM","flightCategory":"VFR","rawOb":"METAR SBSM 112100Z 10003KT 070V130 9999 -RA BKN045 FEW050TCU BKN100 24/20 Q1015","temp":24,"dewp":20,"wdir":100,"wspd":3,"visib":"6+","altim":1015,"clouds":[{"cover":"BKN","base":4500},{"cover":"FEW","base":5000},{"cover":"BKN","base":10000}],"obsTime":1775941200},"SBIP":{"icaoId":"SBIP","flightCategory":"VFR","rawOb":"METAR SBIP 112100Z AUTO 00000KT CAVOK 23/21 Q1017","temp":23,"dewp":21,"wdir":0,"wspd":0,"visib":"6+","altim":1017,"clouds":[],"obsTime":1775941200},"SBSR":{"icaoId":"SBSR","flightCategory":"VFR","rawOb":"METAR SBSR 112100Z 18007KT 9999 FEW030 BKN070 29/19 Q1016","temp":29,"dewp":19,"wdir":180,"wspd":7,"visib":"6+","altim":1016,"clouds":[{"cover":"FEW","base":3000},{"cover":"BKN","base":7000}],"obsTime":1775941200},"SBBH":{"icaoId":"SBBH","flightCategory":"VFR","rawOb":"METAR SBBH 112100Z 10009KT 9999 FEW040 23/18 Q1020","temp":23,"dewp":18,"wdir":100,"wspd":9,"visib":"6+","altim":1020,"clouds":[{"cover":"FEW","base":4000}],"obsTime":1775941200},"SBTF":{"icaoId":"SBTF","flightCategory":"VFR","rawOb":"METAR SBTF 112100Z 07004KT 9999 TS FEW022 FEW030CB SCT100 29/26 Q1007","temp":29,"dewp":26,"wdir":70,"wspd":4,"visib":"6+","altim":1007,"clouds":[{"cover":"FEW","base":2200},{"cover":"FEW","base":3000},{"cover":"SCT","base":10000}],"obsTime":1775941200},"SBKG":{"icaoId":"SBKG","flightCategory":"VFR","rawOb":"METAR SBKG 112100Z 10007KT 9999 FEW025 26/22 Q1014","temp":26,"dewp":22,"wdir":100,"wspd":7,"visib":"6+","altim":1014,"clouds":[{"cover":"FEW","base":2500}],"obsTime":1775941200},"SBTT":{"icaoId":"SBTT","flightCategory":"MVFR","rawOb":"METAR SBTT 112100Z 23003KT 8000 VCSH FEW020 BKN070 25/23 Q1007","temp":25,"dewp":23,"wdir":230,"wspd":3,"visib":4.97,"altim":1007,"clouds":[{"cover":"FEW","base":2000},{"cover":"BKN","base":7000}],"obsTime":1775941200},"SBUY":{"icaoId":"SBUY","flightCategory":"VFR","rawOb":"METAR SBUY 112100Z 00000KT 9999 FEW035TCU BKN080 24/24 Q1006","temp":24,"dewp":24,"wdir":0,"wspd":0,"visib":"6+","altim":1006,"clouds":[{"cover":"FEW","base":3500},{"cover":"BKN","base":8000}],"obsTime":1775941200},"SBPB":{"icaoId":"SBPB","flightCategory":"VFR","rawOb":"METAR SBPB 112100Z 05008KT 9999 SCT016 BKN090 28/25 Q1010","temp":28,"dewp":25,"wdir":50,"wspd":8,"visib":"6+","altim":1010,"clouds":[{"cover":"SCT","base":1600},{"cover":"BKN","base":9000}],"obsTime":1775941200},"SBCJ":{"icaoId":"SBCJ","flightCategory":"VFR","rawOb":"METAR SBCJ 112100Z 00000KT CAVOK 23/21 Q1014","temp":23,"dewp":21,"wdir":0,"wspd":0,"visib":"6+","altim":1014,"clouds":[],"obsTime":1775941200},"SBPP":{"icaoId":"SBPP","flightCategory":"MVFR","rawOb":"METAR SBPP 112100Z 03009KT 9999 BKN015 25/21 Q1016","temp":25,"dewp":21,"wdir":30,"wspd":9,"visib":"6+","altim":1016,"clouds":[{"cover":"BKN","base":1500}],"obsTime":1775941200},"SBJP":{"icaoId":"SBJP","flightCategory":"VFR","rawOb":"METAR SBJP 112100Z 12009KT CAVOK 27/24 Q1012","temp":27,"dewp":24,"wdir":120,"wspd":9,"visib":"6+","altim":1012,"clouds":[],"obsTime":1775941200},"SBAN":{"icaoId":"SBAN","flightCategory":"VFR","rawOb":"METAR SBAN 112100Z 16007KT 9999 FEW035 FEW040TCU 24/18 Q1019","temp":24,"dewp":18,"wdir":160,"wspd":7,"visib":"6+","altim":1019,"clouds":[{"cover":"FEW","base":3500},{"cover":"FEW","base":4000}],"obsTime":1775941200},"SBIH":{"icaoId":"SBIH","flightCategory":"VFR","rawOb":"METAR SBIH 112100Z 07004KT 9999 SCT018 FEW023TCU 32/24 Q1007","temp":32,"dewp":24,"wdir":70,"wspd":4,"visib":"6+","altim":1007,"clouds":[{"cover":"SCT","base":1800},{"cover":"FEW","base":2300}],"obsTime":1775941200},"SBJV":{"icaoId":"SBJV","flightCategory":"VFR","rawOb":"METAR SBJV 112100Z 11006KT 080V140 9999 FEW015 SCT030 BKN050 24/20 Q1020","temp":24,"dewp":20,"wdir":110,"wspd":6,"visib":"6+","altim":1020,"clouds":[{"cover":"FEW","base":1500},{"cover":"SCT","base":3000},{"cover":"BKN","base":5000}],"obsTime":1775941200},"SBLE":{"icaoId":"SBLE","flightCategory":"VFR","rawOb":"METAR SBLE 112100Z AUTO 00000KT CAVOK 26/19 Q1015","temp":26,"dewp":19,"wdir":0,"wspd":0,"visib":"6+","altim":1015,"clouds":[],"obsTime":1775941200},"SBAF":{"icaoId":"SBAF","flightCategory":"VFR","rawOb":"METAR SBAF 112100Z 19007KT 9999 FEW025 SCT050 BKN060 24/21 Q1020","temp":24,"dewp":21,"wdir":190,"wspd":7,"visib":"6+","altim":1020,"clouds":[{"cover":"FEW","base":2500},{"cover":"SCT","base":5000},{"cover":"BKN","base":6000}],"obsTime":1775941200},"SBGW":{"icaoId":"SBGW","flightCategory":"VFR","rawOb":"METAR SBGW 112100Z 08007KT 040V110 9999 FEW040 BKN060 23/13 Q1021","temp":23,"dewp":13,"wdir":80,"wspd":7,"visib":"6+","altim":1021,"clouds":[{"cover":"FEW","base":4000},{"cover":"BKN","base":6000}],"obsTime":1775941200},"SBJR":{"icaoId":"SBJR","flightCategory":"VFR","rawOb":"METAR SBJR 112100Z 22002KT 9999 FEW035 BKN080 24/20 Q1020","temp":24,"dewp":20,"wdir":220,"wspd":2,"visib":"6+","altim":1020,"clouds":[{"cover":"FEW","base":3500},{"cover":"BKN","base":8000}],"obsTime":1775941200},"SBLS":{"icaoId":"SBLS","flightCategory":"VFR","rawOb":"METAR SBLS 112100Z 13011KT 9999 FEW025 22/18 Q1020","temp":22,"dewp":18,"wdir":130,"wspd":11,"visib":"6+","altim":1020,"clouds":[{"cover":"FEW","base":2500}],"obsTime":1775941200},"SBMT":{"icaoId":"SBMT","flightCategory":"VFR","rawOb":"METAR SBMT 112100Z 14008KT 9999 FEW020 20/16 Q1022","temp":20,"dewp":16,"wdir":140,"wspd":8,"visib":"6+","altim":1022,"clouds":[{"cover":"FEW","base":2000}],"obsTime":1775941200},"SBST":{"icaoId":"SBST","flightCategory":"VFR","rawOb":"METAR SBST 112100Z 15005KT 9999 FEW025 23/18 Q1019","temp":23,"dewp":18,"wdir":150,"wspd":5,"visib":"6+","altim":1019,"clouds":[{"cover":"FEW","base":2500}],"obsTime":1775941200},"SBTA":{"icaoId":"SBTA","flightCategory":"VFR","rawOb":"METAR SBTA 112100Z 17009KT 9999 SCT040 BKN050 22/14 Q1020","temp":22,"dewp":14,"wdir":170,"wspd":9,"visib":"6+","altim":1020,"clouds":[{"cover":"SCT","base":4000},{"cover":"BKN","base":5000}],"obsTime":1775941200}}}