{"updated":1776807289,"count":81,"data":{"SBLO":{"icaoId":"SBLO","flightCategory":"VFR","rawOb":"METAR SBLO 212000Z 09005KT CAVOK 27/13 Q1016","temp":27,"dewp":13,"wdir":90,"wspd":5,"visib":"6+","altim":1016,"clouds":[],"obsTime":1776801600},"SBEG":{"icaoId":"SBEG","flightCategory":"VFR","rawOb":"METAR SBEG 212000Z 13006KT 9999 VCSH SCT030 FEW035TCU SCT100 28/25 Q1008 RESHRA","temp":28,"dewp":25,"wdir":130,"wspd":6,"visib":"6+","altim":1008,"clouds":[{"cover":"SCT","base":3000},{"cover":"FEW","base":3500},{"cover":"SCT","base":10000}],"obsTime":1776801600},"SBMA":{"icaoId":"SBMA","flightCategory":"VFR","rawOb":"METAR SBMA 212000Z 20003KT 9999 FEW013 SCT018 BKN090 26/23 Q1010","temp":26,"dewp":23,"wdir":200,"wspd":3,"visib":"6+","altim":1010,"clouds":[{"cover":"FEW","base":1300},{"cover":"SCT","base":1800},{"cover":"BKN","base":9000}],"obsTime":1776801600},"SBME":{"icaoId":"SBME","flightCategory":"VFR","rawOb":"METAR SBME 212000Z 18005KT 9999 BKN042 25/20 Q1015","temp":25,"dewp":20,"wdir":180,"wspd":5,"visib":"6+","altim":1015,"clouds":[{"cover":"BKN","base":4200}],"obsTime":1776801600},"SBBE":{"icaoId":"SBBE","flightCategory":"VFR","rawOb":"METAR SBBE 212000Z 12006KT 9999 FEW035 27/24 Q1009","temp":27,"dewp":24,"wdir":120,"wspd":6,"visib":"6+","altim":1009,"clouds":[{"cover":"FEW","base":3500}],"obsTime":1776801600},"SBMG":{"icaoId":"SBMG","flightCategory":"VFR","rawOb":"METAR SBMG 212000Z 18003KT CAVOK 27/15 Q1015","temp":27,"dewp":15,"wdir":180,"wspd":3,"visib":"6+","altim":1015,"clouds":[],"obsTime":1776801600},"SBFI":{"icaoId":"SBFI","flightCategory":"VFR","rawOb":"METAR SBFI 212000Z 01005KT 9999 VCSH SCT030 FEW040TCU BKN070 28/23 Q1013","temp":28,"dewp":23,"wdir":10,"wspd":5,"visib":"6+","altim":1013,"clouds":[{"cover":"SCT","base":3000},{"cover":"FEW","base":4000},{"cover":"BKN","base":7000}],"obsTime":1776801600},"SBMK":{"icaoId":"SBMK","flightCategory":"VFR","rawOb":"METAR SBMK 212000Z 08008KT CAVOK 29/17 Q1015","temp":29,"dewp":17,"wdir":80,"wspd":8,"visib":"6+","altim":1015,"clouds":[],"obsTime":1776801600},"SBFL":{"icaoId":"SBFL","flightCategory":"VFR","rawOb":"METAR SBFL 212000Z 36008KT CAVOK 26/19 Q1015","temp":26,"dewp":19,"wdir":360,"wspd":8,"visib":"6+","altim":1015,"clouds":[],"obsTime":1776801600},"SBVT":{"icaoId":"SBVT","flightCategory":"VFR","rawOb":"METAR SBVT 212000Z 16009KT 9999 BKN045 25/21 Q1015","temp":25,"dewp":21,"wdir":160,"wspd":9,"visib":"6+","altim":1015,"clouds":[{"cover":"BKN","base":4500}],"obsTime":1776801600},"SBCG":{"icaoId":"SBCG","flightCategory":"VFR","rawOb":"METAR SBCG 212000Z 06005KT 9999 VCSH SCT045 FEW050TCU SCT100 28/21 Q1013","temp":28,"dewp":21,"wdir":60,"wspd":5,"visib":"6+","altim":1013,"clouds":[{"cover":"SCT","base":4500},{"cover":"FEW","base":5000},{"cover":"SCT","base":10000}],"obsTime":1776801600},"SBMO":{"icaoId":"SBMO","flightCategory":"MVFR","rawOb":"SPECI SBMO 211942Z 12010KT 8000 VCSH SCT014 SCT020 BKN055 24/24 Q1012 RESHRA","temp":24,"dewp":24,"wdir":120,"wspd":10,"visib":4.97,"altim":1012,"clouds":[{"cover":"SCT","base":1400},{"cover":"SCT","base":2000},{"cover":"BKN","base":5500}],"obsTime":1776800520},"SBBV":{"icaoId":"SBBV","flightCategory":"VFR","rawOb":"METAR SBBV 212000Z 13007KT 9999 SCT040 FEW045TCU SCT080 32/21 Q1007","temp":32,"dewp":21,"wdir":130,"wspd":7,"visib":"6+","altim":1007,"clouds":[{"cover":"SCT","base":4000},{"cover":"FEW","base":4500},{"cover":"SCT","base":8000}],"obsTime":1776801600},"SBMQ":{"icaoId":"SBMQ","flightCategory":"VFR","rawOb":"METAR SBMQ 212000Z 07006KT 9999 FEW021 SCT040 FEW050TCU 30/25 Q1008","temp":30,"dewp":25,"wdir":70,"wspd":6,"visib":"6+","altim":1008,"clouds":[{"cover":"FEW","base":2100},{"cover":"SCT","base":4000},{"cover":"FEW","base":5000}],"obsTime":1776801600},"SBNT":{"icaoId":"SBNT","flightCategory":"VFR","rawOb":"METAR SBNT 212000Z 13012KT 9999 SCT025 BKN090 28/23 Q1010","temp":28,"dewp":23,"wdir":130,"wspd":12,"visib":"6+","altim":1010,"clouds":[{"cover":"SCT","base":2500},{"cover":"BKN","base":9000}],"obsTime":1776801600},"SBFZ":{"icaoId":"SBFZ","flightCategory":"VFR","rawOb":"METAR SBFZ 212000Z VRB02KT 9999 SCT018 28/24 Q1010","temp":28,"dewp":24,"wdir":"VRB","wspd":2,"visib":"6+","altim":1010,"clouds":[{"cover":"SCT","base":1800}],"obsTime":1776801600},"SBCP":{"icaoId":"SBCP","flightCategory":"VFR","rawOb":"METAR SBCP 212000Z 16006KT 9999 FEW030 26/18 Q1015","temp":26,"dewp":18,"wdir":160,"wspd":6,"visib":"6+","altim":1015,"clouds":[{"cover":"FEW","base":3000}],"obsTime":1776801600},"SBPA":{"icaoId":"SBPA","flightCategory":"VFR","rawOb":"METAR SBPA 212000Z 02003KT 340V060 9000 -RA FEW030 BKN050 23/18 Q1014","temp":23,"dewp":18,"wdir":20,"wspd":3,"visib":5.59,"altim":1014,"clouds":[{"cover":"FEW","base":3000},{"cover":"BKN","base":5000}],"obsTime":1776801600},"SBGL":{"icaoId":"SBGL","flightCategory":"VFR","rawOb":"METAR SBGL 212000Z 13006KT 090V160 9999 FEW027 SCT050 25/18 Q1015","temp":25,"dewp":18,"wdir":130,"wspd":6,"visib":"6+","altim":1015,"clouds":[{"cover":"FEW","base":2700},{"cover":"SCT","base":5000}],"obsTime":1776801600},"SBPJ":{"icaoId":"SBPJ","flightCategory":"VFR","rawOb":"METAR SBPJ 212000Z VRB02KT 9999 FEW025 BKN090 26/23 Q1012","temp":26,"dewp":23,"wdir":"VRB","wspd":2,"visib":"6+","altim":1012,"clouds":[{"cover":"FEW","base":2500},{"cover":"BKN","base":9000}],"obsTime":1776801600},"SBPV":{"icaoId":"SBPV","flightCategory":"VFR","rawOb":"METAR SBPV 212000Z VRB04KT 9000 4000S -RA VCSH FEW021 BKN035 FEW045TCU BKN090 28/22 Q1008","temp":28,"dewp":22,"wdir":"VRB","wspd":4,"visib":5.59,"altim":1008,"clouds":[{"cover":"FEW","base":2100},{"cover":"BKN","base":3500},{"cover":"FEW","base":4500},{"cover":"BKN","base":9000}],"obsTime":1776801600},"SBAT":{"icaoId":"SBAT","flightCategory":"VFR","rawOb":"METAR SBAT 212000Z 06001KT 9999 VCSH FEW032TCU 31/24 Q1009","temp":31,"dewp":24,"wdir":60,"wspd":1,"visib":"6+","altim":1009,"clouds":[{"cover":"FEW","base":3200}],"obsTime":1776801600},"SBCF":{"icaoId":"SBCF","flightCategory":"VFR","rawOb":"METAR SBCF 212000Z 12008KT 9999 SCT040 25/18 Q1017","temp":25,"dewp":18,"wdir":120,"wspd":8,"visib":"6+","altim":1017,"clouds":[{"cover":"SCT","base":4000}],"obsTime":1776801600},"SBGO":{"icaoId":"SBGO","flightCategory":"VFR","rawOb":"METAR SBGO 212000Z 27009KT 9999 VCSH SCT050 FEW056TCU 24/18 Q1015","temp":24,"dewp":18,"wdir":270,"wspd":9,"visib":"6+","altim":1015,"clouds":[{"cover":"SCT","base":5000},{"cover":"FEW","base":5600}],"obsTime":1776801600},"SBRB":{"icaoId":"SBRB","flightCategory":"MVFR","rawOb":"METAR SBRB 212000Z 27008KT 8000 FEW013 FEW025TCU BKN050 26/24 Q1009","temp":26,"dewp":24,"wdir":270,"wspd":8,"visib":4.97,"altim":1009,"clouds":[{"cover":"FEW","base":1300},{"cover":"FEW","base":2500},{"cover":"BKN","base":5000}],"obsTime":1776801600},"SBCR":{"icaoId":"SBCR","flightCategory":"VFR","rawOb":"METAR SBCR 212000Z 11004KT 9999 FEW030 29/24 Q1010","temp":29,"dewp":24,"wdir":110,"wspd":4,"visib":"6+","altim":1010,"clouds":[{"cover":"FEW","base":3000}],"obsTime":1776801600},"SBRF":{"icaoId":"SBRF","flightCategory":"VFR","rawOb":"METAR SBRF 212000Z 14011KT 9999 FEW025 29/23 Q1011","temp":29,"dewp":23,"wdir":140,"wspd":11,"visib":"6+","altim":1011,"clouds":[{"cover":"FEW","base":2500}],"obsTime":1776801600},"SBGR":{"icaoId":"SBGR","flightCategory":"VFR","rawOb":"METAR SBGR 212000Z 16008KT 9999 FEW045 23/16 Q1018","temp":23,"dewp":16,"wdir":160,"wspd":8,"visib":"6+","altim":1018,"clouds":[{"cover":"FEW","base":4500}],"obsTime":1776801600},"SBSG":{"icaoId":"SBSG","flightCategory":"VFR","rawOb":"METAR SBSG 212000Z 11007KT 9999 FEW020 BKN080 28/24 Q1011","temp":28,"dewp":24,"wdir":110,"wspd":7,"visib":"6+","altim":1011,"clouds":[{"cover":"FEW","base":2000},{"cover":"BKN","base":8000}],"obsTime":1776801600},"SBSL":{"icaoId":"SBSL","flightCategory":"IFR","rawOb":"METAR SBSL 212000Z 06008KT 2500 -RA BR SCT006 BKN017 FEW025TCU OVC100 25/24 Q1011","temp":25,"dewp":24,"wdir":60,"wspd":8,"visib":1.55,"altim":1011,"clouds":[{"cover":"SCT","base":600},{"cover":"BKN","base":1700},{"cover":"FEW","base":2500},{"cover":"OVC","base":10000}],"obsTime":1776801600},"SBHT":{"icaoId":"SBHT","flightCategory":"VFR","rawOb":"METAR SBHT 212000Z 17002KT 9999 FEW020 BKN090 26/25 Q1010","temp":26,"dewp":25,"wdir":170,"wspd":2,"visib":"6+","altim":1010,"clouds":[{"cover":"FEW","base":2000},{"cover":"BKN","base":9000}],"obsTime":1776801600},"SBCB":{"icaoId":"SBCB","flightCategory":"VFR","rawOb":"METAR SBCB 212000Z 20010KT CAVOK 25/20 Q1016","temp":25,"dewp":20,"wdir":200,"wspd":10,"visib":"6+","altim":1016,"clouds":[],"obsTime":1776801600},"SBSN":{"icaoId":"SBSN","flightCategory":"VFR","rawOb":"METAR SBSN 212000Z 01004KT 320V070 9999 SCT010 SCT019 FEW025TCU BKN100 27/25 Q1008","temp":27,"dewp":25,"wdir":10,"wspd":4,"visib":"6+","altim":1008,"clouds":[{"cover":"SCT","base":1000},{"cover":"SCT","base":1900},{"cover":"FEW","base":2500},{"cover":"BKN","base":10000}],"obsTime":1776801600},"SBCT":{"icaoId":"SBCT","flightCategory":"VFR","rawOb":"METAR SBCT 212000Z 11007KT 9999 FEW045 21/15 Q1020","temp":21,"dewp":15,"wdir":110,"wspd":7,"visib":"6+","altim":1020,"clouds":[{"cover":"FEW","base":4500}],"obsTime":1776801600},"SBSP":{"icaoId":"SBSP","flightCategory":"VFR","rawOb":"METAR SBSP 212000Z 17011KT CAVOK 21/15 Q1020","temp":21,"dewp":15,"wdir":170,"wspd":11,"visib":"6+","altim":1020,"clouds":[],"obsTime":1776801600},"SBIL":{"icaoId":"SBIL","flightCategory":"VFR","rawOb":"METAR SBIL 212000Z 18007KT 130V220 CAVOK 29/23 Q1013","temp":29,"dewp":23,"wdir":180,"wspd":7,"visib":"6+","altim":1013,"clouds":[],"obsTime":1776801600},"SBSV":{"icaoId":"SBSV","flightCategory":"VFR","rawOb":"METAR SBSV 212000Z 14008KT 9999 VCSH SCT023 FEW025TCU BKN070 28/23 Q1012","temp":28,"dewp":23,"wdir":140,"wspd":8,"visib":"6+","altim":1012,"clouds":[{"cover":"SCT","base":2300},{"cover":"FEW","base":2500},{"cover":"BKN","base":7000}],"obsTime":1776801600},"SBJU":{"icaoId":"SBJU","flightCategory":"VFR","rawOb":"METAR SBJU 212000Z 09005KT 9999 FEW022 29/22 Q1012","temp":29,"dewp":22,"wdir":90,"wspd":5,"visib":"6+","altim":1012,"clouds":[{"cover":"FEW","base":2200}],"obsTime":1776801600},"SBTE":{"icaoId":"SBTE","flightCategory":"VFR","rawOb":"METAR SBTE 212000Z 32006KT 9999 FEW020 BKN090 27/25 Q1010","temp":27,"dewp":25,"wdir":320,"wspd":6,"visib":"6+","altim":1010,"clouds":[{"cover":"FEW","base":2000},{"cover":"BKN","base":9000}],"obsTime":1776801600},"SBUL":{"icaoId":"SBUL","flightCategory":"VFR","rawOb":"METAR SBUL 212000Z COR 07006KT 9999 FEW045 FEW050TCU 27/17 Q1017","temp":27,"dewp":17,"wdir":70,"wspd":6,"visib":"6+","altim":1017,"clouds":[{"cover":"FEW","base":4500},{"cover":"FEW","base":5000}],"obsTime":1776801600},"SBCZ":{"icaoId":"SBCZ","flightCategory":"VFR","rawOb":"METAR SBCZ 212000Z 01007KT 340V040 9999 SCT025 BKN090 29/24 Q1010","temp":29,"dewp":24,"wdir":10,"wspd":7,"visib":"6+","altim":1010,"clouds":[{"cover":"SCT","base":2500},{"cover":"BKN","base":9000}],"obsTime":1776801600},"SBUR":{"icaoId":"SBUR","flightCategory":"VFR","rawOb":"METAR SBUR 212000Z 07006KT CAVOK 27/19 Q1016","temp":27,"dewp":19,"wdir":70,"wspd":6,"visib":"6+","altim":1016,"clouds":[],"obsTime":1776801600},"SBBR":{"icaoId":"SBBR","flightCategory":"VFR","rawOb":"METAR SBBR 212000Z 10005KT 040V170 9999 FEW040 28/15 Q1017","temp":28,"dewp":15,"wdir":100,"wspd":5,"visib":"6+","altim":1017,"clouds":[{"cover":"FEW","base":4000}],"obsTime":1776801600},"SBKP":{"icaoId":"SBKP","flightCategory":"VFR","rawOb":"METAR SBKP 212000Z 17007KT CAVOK 28/13 Q1016","temp":28,"dewp":13,"wdir":170,"wspd":7,"visib":"6+","altim":1016,"clouds":[],"obsTime":1776801600},"SBCJ":{"icaoId":"SBCJ","flightCategory":"VFR","rawOb":"METAR SBCJ 212000Z 21003KT 9999 FEW005 SCT013 25/22 Q1013","temp":25,"dewp":22,"wdir":210,"wspd":3,"visib":"6+","altim":1013,"clouds":[{"cover":"FEW","base":500},{"cover":"SCT","base":1300}],"obsTime":1776801600},"SBAR":{"icaoId":"SBAR","flightCategory":"VFR","rawOb":"METAR SBAR 212000Z 01003KT 9999 VCSH SCT020 BKN090 25/25 Q1012","temp":25,"dewp":25,"wdir":10,"wspd":3,"visib":"6+","altim":1012,"clouds":[{"cover":"SCT","base":2000},{"cover":"BKN","base":9000}],"obsTime":1776801600},"SBBH":{"icaoId":"SBBH","flightCategory":"VFR","rawOb":"METAR SBBH 212000Z 07007KT 9999 SCT046 26/18 Q1017","temp":26,"dewp":18,"wdir":70,"wspd":7,"visib":"6+","altim":1017,"clouds":[{"cover":"SCT","base":4600}],"obsTime":1776801600},"SBBU":{"icaoId":"SBBU","flightCategory":"VFR","rawOb":"METAR SBBU 212000Z 10004KT CAVOK 29/14 Q1016","temp":29,"dewp":14,"wdir":100,"wspd":4,"visib":"6+","altim":1016,"clouds":[],"obsTime":1776801600},"SBCO":{"icaoId":"SBCO","flightCategory":"VFR","rawOb":"METAR SBCO 212000Z VRB02KT 9999 FEW016 SCT050 BKN080 23/19 Q1014","temp":23,"dewp":19,"wdir":"VRB","wspd":2,"visib":"6+","altim":1014,"clouds":[{"cover":"FEW","base":1600},{"cover":"SCT","base":5000},{"cover":"BKN","base":8000}],"obsTime":1776801600},"SBCA":{"icaoId":"SBCA","flightCategory":"VFR","rawOb":"METAR SBCA 212000Z 02005KT 350V050 CAVOK 25/17 Q1017","temp":25,"dewp":17,"wdir":20,"wspd":5,"visib":"6+","altim":1017,"clouds":[],"obsTime":1776801600},"SBDN":{"icaoId":"SBDN","flightCategory":"VFR","rawOb":"METAR SBDN 212000Z 14006KT CAVOK 30/13 Q1014","temp":30,"dewp":13,"wdir":140,"wspd":6,"visib":"6+","altim":1014,"clouds":[],"obsTime":1776801600},"SBES":{"icaoId":"SBES","flightCategory":"VFR","rawOb":"METAR SBES 212000Z VRB07KT 9999 FEW015 24/// Q1016","temp":null,"dewp":null,"wdir":"VRB","wspd":7,"visib":"6+","altim":1016,"clouds":[{"cover":"FEW","base":1500}],"obsTime":1776801600},"SBIP":{"icaoId":"SBIP","flightCategory":"VFR","rawOb":"METAR SBIP 212000Z AUTO 35003KT 320V020 CAVOK 27/19 Q1014","temp":27,"dewp":19,"wdir":350,"wspd":3,"visib":"6+","altim":1014,"clouds":[],"obsTime":1776801600},"SBKG":{"icaoId":"SBKG","flightCategory":"VFR","rawOb":"METAR SBKG 212000Z 07011KT 9999 SCT020 BKN070 25/22 Q1013","temp":25,"dewp":22,"wdir":70,"wspd":11,"visib":"6+","altim":1013,"clouds":[{"cover":"SCT","base":2000},{"cover":"BKN","base":7000}],"obsTime":1776801600},"SBOI":{"icaoId":"SBOI","flightCategory":"VFR","rawOb":"METAR SBOI 212000Z AUTO 02004KT CAVOK 27/24 Q1010","temp":27,"dewp":24,"wdir":20,"wspd":4,"visib":"6+","altim":1010,"clouds":[],"obsTime":1776801600},"SBPB":{"icaoId":"SBPB","flightCategory":"MVFR","rawOb":"METAR SBPB 212000Z 04004KT 9999 BKN015 OVC080 27/25 Q1010","temp":27,"dewp":25,"wdir":40,"wspd":4,"visib":"6+","altim":1010,"clouds":[{"cover":"BKN","base":1500},{"cover":"OVC","base":8000}],"obsTime":1776801600},"SBPL":{"icaoId":"SBPL","flightCategory":"VFR","rawOb":"METAR SBPL 212000Z 12006KT 9999 FEW025 FEW025TCU BKN100 31/19 Q1011","temp":31,"dewp":19,"wdir":120,"wspd":6,"visib":"6+","altim":1011,"clouds":[{"cover":"FEW","base":2500},{"cover":"FEW","base":2500},{"cover":"BKN","base":10000}],"obsTime":1776801600},"SBPP":{"icaoId":"SBPP","flightCategory":"VFR","rawOb":"METAR SBPP 212000Z 09006KT 9999 FEW020 BKN070 25/20 Q1015","temp":25,"dewp":20,"wdir":90,"wspd":6,"visib":"6+","altim":1015,"clouds":[{"cover":"FEW","base":2000},{"cover":"BKN","base":7000}],"obsTime":1776801600},"SBPS":{"icaoId":"SBPS","flightCategory":"VFR","rawOb":"METAR SBPS 212000Z 16004KT 090V260 9999 SCT020 SCT100 26/22 Q1014","temp":26,"dewp":22,"wdir":160,"wspd":4,"visib":"6+","altim":1014,"clouds":[{"cover":"SCT","base":2000},{"cover":"SCT","base":10000}],"obsTime":1776801600},"SBSC":{"icaoId":"SBSC","flightCategory":"VFR","rawOb":"METAR SBSC 212000Z 19009KT 9999 FEW025 25/20 Q1016","temp":25,"dewp":20,"wdir":190,"wspd":9,"visib":"6+","altim":1016,"clouds":[{"cover":"FEW","base":2500}],"obsTime":1776801600},"SBSJ":{"icaoId":"SBSJ","flightCategory":"VFR","rawOb":"METAR SBSJ 212000Z 13007KT CAVOK 25/13 Q1017","temp":25,"dewp":13,"wdir":130,"wspd":7,"visib":"6+","altim":1017,"clouds":[],"obsTime":1776801600},"SBSM":{"icaoId":"SBSM","flightCategory":"VFR","rawOb":"METAR SBSM 212000Z 13004KT 090V170 9999 FEW045 SCT100 24/21 Q1013","temp":24,"dewp":21,"wdir":130,"wspd":4,"visib":"6+","altim":1013,"clouds":[{"cover":"FEW","base":4500},{"cover":"SCT","base":10000}],"obsTime":1776801600},"SBSR":{"icaoId":"SBSR","flightCategory":"VFR","rawOb":"METAR SBSR 212000Z 21005KT CAVOK 30/10 Q1014","temp":30,"dewp":10,"wdir":210,"wspd":5,"visib":"6+","altim":1014,"clouds":[],"obsTime":1776801600},"SBTF":{"icaoId":"SBTF","flightCategory":"VFR","rawOb":"METAR SBTF 212000Z 19003KT 9999 SCT015 FEW030TCU BKN080 31/24 Q1008","temp":31,"dewp":24,"wdir":190,"wspd":3,"visib":"6+","altim":1008,"clouds":[{"cover":"SCT","base":1500},{"cover":"FEW","base":3000},{"cover":"BKN","base":8000}],"obsTime":1776801600},"SBTT":{"icaoId":"SBTT","flightCategory":"VFR","rawOb":"METAR SBTT 212000Z 33004KT 9999 SCT015 OVC100 27/21 Q1010","temp":27,"dewp":21,"wdir":330,"wspd":4,"visib":"6+","altim":1010,"clouds":[{"cover":"SCT","base":1500},{"cover":"OVC","base":10000}],"obsTime":1776801600},"SBUY":{"icaoId":"SBUY","flightCategory":"VFR","rawOb":"METAR SBUY 212000Z 00000KT 9999 -RA VCSH FEW030TCU BKN090 27/26 Q1008","temp":27,"dewp":26,"wdir":0,"wspd":0,"visib":"6+","altim":1008,"clouds":[{"cover":"FEW","base":3000},{"cover":"BKN","base":9000}],"obsTime":1776801600},"SBVH":{"icaoId":"SBVH","flightCategory":"VFR","rawOb":"METAR SBVH 212000Z 22011KT 9999 TS VCSH FEW020 SCT030 FEW035CB OVC078 25/24 Q1012","temp":25,"dewp":24,"wdir":220,"wspd":11,"visib":"6+","altim":1012,"clouds":[{"cover":"FEW","base":2000},{"cover":"SCT","base":3000},{"cover":"FEW","base":3500},{"cover":"OVC","base":7800}],"obsTime":1776801600},"SBCC":{"icaoId":"SBCC","flightCategory":"VFR","rawOb":"METAR SBCC 212000Z 31004KT 9999 SCT030 FEW035TCU SCT100 27/22 Q1010","temp":27,"dewp":22,"wdir":310,"wspd":4,"visib":"6+","altim":1010,"clouds":[{"cover":"SCT","base":3000},{"cover":"FEW","base":3500},{"cover":"SCT","base":10000}],"obsTime":1776801600},"SBJP":{"icaoId":"SBJP","flightCategory":"VFR","rawOb":"METAR SBJP 212000Z 12009KT 9999 FEW020 28/23 Q1011","temp":28,"dewp":23,"wdir":120,"wspd":9,"visib":"6+","altim":1011,"clouds":[{"cover":"FEW","base":2000}],"obsTime":1776801600},"SBJV":{"icaoId":"SBJV","flightCategory":"VFR","rawOb":"METAR SBJV 212000Z 11007KT 9999 FEW030 25/21 Q1016","temp":25,"dewp":21,"wdir":110,"wspd":7,"visib":"6+","altim":1016,"clouds":[{"cover":"FEW","base":3000}],"obsTime":1776801600},"SBPF":{"icaoId":"SBPF","flightCategory":"VFR","rawOb":"METAR SBPF 212000Z 05008KT CAVOK 23/17 Q1017","temp":23,"dewp":17,"wdir":50,"wspd":8,"visib":"6+","altim":1017,"clouds":[],"obsTime":1776801600},"SBIH":{"icaoId":"SBIH","flightCategory":"VFR","rawOb":"METAR SBIH 212000Z 21003KT 9999 FEW015 SCT080 26/24 Q1008","temp":26,"dewp":24,"wdir":210,"wspd":3,"visib":"6+","altim":1008,"clouds":[{"cover":"FEW","base":1500},{"cover":"SCT","base":8000}],"obsTime":1776801600},"SBAF":{"icaoId":"SBAF","flightCategory":"VFR","rawOb":"METAR SBAF 212000Z 19011KT 9999 FEW025 SCT053 25/21 Q1016","temp":25,"dewp":21,"wdir":190,"wspd":11,"visib":"6+","altim":1016,"clouds":[{"cover":"FEW","base":2500},{"cover":"SCT","base":5300}],"obsTime":1776801600},"SBGW":{"icaoId":"SBGW","flightCategory":"VFR","rawOb":"METAR SBGW 212000Z 33003KT 270V010 9999 FEW030 27/12 Q1016","temp":27,"dewp":12,"wdir":330,"wspd":3,"visib":"6+","altim":1016,"clouds":[{"cover":"FEW","base":3000}],"obsTime":1776801600},"SBJR":{"icaoId":"SBJR","flightCategory":"VFR","rawOb":"METAR SBJR 212000Z 19005KT 9999 FEW025 25/20 Q1016","temp":25,"dewp":20,"wdir":190,"wspd":5,"visib":"6+","altim":1016,"clouds":[{"cover":"FEW","base":2500}],"obsTime":1776801600},"SBLS":{"icaoId":"SBLS","flightCategory":"VFR","rawOb":"METAR SBLS 212000Z 13009KT 9999 FEW035 FEW040TCU 25/18 Q1017","temp":25,"dewp":18,"wdir":130,"wspd":9,"visib":"6+","altim":1017,"clouds":[{"cover":"FEW","base":3500},{"cover":"FEW","base":4000}],"obsTime":1776801600},"SBMT":{"icaoId":"SBMT","flightCategory":"VFR","rawOb":"METAR SBMT 212000Z 15009KT CAVOK 22/15 Q1018","temp":22,"dewp":15,"wdir":150,"wspd":9,"visib":"6+","altim":1018,"clouds":[],"obsTime":1776801600},"SBST":{"icaoId":"SBST","flightCategory":"VFR","rawOb":"METAR SBST 212000Z 17007KT 9999 FEW030 24/17 Q1016","temp":24,"dewp":17,"wdir":170,"wspd":7,"visib":"6+","altim":1016,"clouds":[{"cover":"FEW","base":3000}],"obsTime":1776801600},"SBTA":{"icaoId":"SBTA","flightCategory":"VFR","rawOb":"METAR SBTA 212000Z 18004KT 140V230 9999 FEW040 26/12 Q1016","temp":26,"dewp":12,"wdir":180,"wspd":4,"visib":"6+","altim":1016,"clouds":[{"cover":"FEW","base":4000}],"obsTime":1776801600},"SBLE":{"icaoId":"SBLE","flightCategory":"VFR","rawOb":"METAR SBLE 212000Z AUTO 17003KT 140V220 CAVOK 28/19 Q1014","temp":28,"dewp":19,"wdir":170,"wspd":3,"visib":"6+","altim":1014,"clouds":[],"obsTime":1776801600},"SBAN":{"icaoId":"SBAN","flightCategory":"VFR","rawOb":"METAR SBAN 212000Z 36001KT 9999 FEW040 FEW045TCU SCT100 25/18 Q1018","temp":25,"dewp":18,"wdir":360,"wspd":1,"visib":"6+","altim":1018,"clouds":[{"cover":"FEW","base":4000},{"cover":"FEW","base":4500},{"cover":"SCT","base":10000}],"obsTime":1776801600}}}