{"updated":1777407336,"count":84,"data":{"SBNT":{"icaoId":"SBNT","flightCategory":"VFR","rawOb":"METAR SBNT 281900Z 11009KT 9999 SCT018 FEW025TCU 28/24 Q1010","temp":28,"dewp":24,"wdir":110,"wspd":9,"visib":"6+","altim":1010,"clouds":[{"cover":"SCT","base":1800},{"cover":"FEW","base":2500}],"obsTime":1777402800},"SBVT":{"icaoId":"SBVT","flightCategory":"VFR","rawOb":"METAR SBVT 281900Z 06013KT 9999 FEW045 29/22 Q1013","temp":29,"dewp":22,"wdir":60,"wspd":13,"visib":"6+","altim":1013,"clouds":[{"cover":"FEW","base":4500}],"obsTime":1777402800},"SBUR":{"icaoId":"SBUR","flightCategory":"VFR","rawOb":"METAR SBUR 281900Z 01005KT 9999 SCT049 31/15 Q1016","temp":31,"dewp":15,"wdir":10,"wspd":5,"visib":"6+","altim":1016,"clouds":[{"cover":"SCT","base":4900}],"obsTime":1777402800},"SBUL":{"icaoId":"SBUL","flightCategory":"VFR","rawOb":"METAR SBUL 281900Z 07006KT 020V120 CAVOK 29/15 Q1017","temp":29,"dewp":15,"wdir":70,"wspd":6,"visib":"6+","altim":1017,"clouds":[],"obsTime":1777402800},"SBBE":{"icaoId":"SBBE","flightCategory":"MVFR","rawOb":"SPECI SBBE 281826Z 02007KT 9999 VCSH BKN025 FEW035TCU 26/25 Q1009 RERA","temp":26,"dewp":25,"wdir":20,"wspd":7,"visib":"6+","altim":1009,"clouds":[{"cover":"BKN","base":2500},{"cover":"FEW","base":3500}],"obsTime":1777400760},"SBBR":{"icaoId":"SBBR","flightCategory":"VFR","rawOb":"METAR SBBR 281900Z 11007KT 9999 SCT030 29/13 Q1017","temp":29,"dewp":13,"wdir":110,"wspd":7,"visib":"6+","altim":1017,"clouds":[{"cover":"SCT","base":3000}],"obsTime":1777402800},"SBTE":{"icaoId":"SBTE","flightCategory":"VFR","rawOb":"METAR SBTE 281900Z 12007KT 9999 SCT020 FEW025TCU 33/22 Q1008","temp":33,"dewp":22,"wdir":120,"wspd":7,"visib":"6+","altim":1008,"clouds":[{"cover":"SCT","base":2000},{"cover":"FEW","base":2500}],"obsTime":1777402800},"SBBV":{"icaoId":"SBBV","flightCategory":"VFR","rawOb":"METAR SBBV 281900Z 12007KT 9999 SCT040 FEW045TCU 33/21 Q1009","temp":33,"dewp":21,"wdir":120,"wspd":7,"visib":"6+","altim":1009,"clouds":[{"cover":"SCT","base":4000},{"cover":"FEW","base":4500}],"obsTime":1777402800},"SBSV":{"icaoId":"SBSV","flightCategory":"VFR","rawOb":"METAR SBSV 281900Z 08009KT 9999 SCT025 FEW027TCU SCT060 28/22 Q1012","temp":28,"dewp":22,"wdir":80,"wspd":9,"visib":"6+","altim":1012,"clouds":[{"cover":"SCT","base":2500},{"cover":"FEW","base":2700},{"cover":"SCT","base":6000}],"obsTime":1777402800},"SBSP":{"icaoId":"SBSP","flightCategory":"VFR","rawOb":"METAR SBSP 281900Z 17010KT 9999 SCT013 SCT045 BKN091 22/20 Q1018","temp":22,"dewp":20,"wdir":170,"wspd":10,"visib":"6+","altim":1018,"clouds":[{"cover":"SCT","base":1300},{"cover":"SCT","base":4500},{"cover":"BKN","base":9100}],"obsTime":1777402800},"SBCB":{"icaoId":"SBCB","flightCategory":"VFR","rawOb":"METAR SBCB 281900Z 12006KT CAVOK 28/23 Q1013","temp":28,"dewp":23,"wdir":120,"wspd":6,"visib":"6+","altim":1013,"clouds":[],"obsTime":1777402800},"SBSN":{"icaoId":"SBSN","flightCategory":"VFR","rawOb":"METAR SBSN 281900Z 08008KT 9999 FEW020 FEW025TCU 30/24 Q1008","temp":30,"dewp":24,"wdir":80,"wspd":8,"visib":"6+","altim":1008,"clouds":[{"cover":"FEW","base":2000},{"cover":"FEW","base":2500}],"obsTime":1777402800},"SBCF":{"icaoId":"SBCF","flightCategory":"VFR","rawOb":"METAR SBCF 281900Z 13008KT 9999 FEW045 28/17 Q1017","temp":28,"dewp":17,"wdir":130,"wspd":8,"visib":"6+","altim":1017,"clouds":[{"cover":"FEW","base":4500}],"obsTime":1777402800},"SBSL":{"icaoId":"SBSL","flightCategory":"MVFR","rawOb":"METAR SBSL 281900Z 03009KT 9999 VCSH BKN020 FEW025TCU 29/24 Q1009","temp":29,"dewp":24,"wdir":30,"wspd":9,"visib":"6+","altim":1009,"clouds":[{"cover":"BKN","base":2000},{"cover":"FEW","base":2500}],"obsTime":1777402800},"SBCG":{"icaoId":"SBCG","flightCategory":"MVFR","rawOb":"METAR SBCG 281900Z 32006KT 300V360 9999 BKN023 27/21 Q1014","temp":27,"dewp":21,"wdir":320,"wspd":6,"visib":"6+","altim":1014,"clouds":[{"cover":"BKN","base":2300}],"obsTime":1777402800},"SBSG":{"icaoId":"SBSG","flightCategory":"VFR","rawOb":"METAR SBSG 281900Z 09012KT 9999 VCSH SCT020 FEW025TCU 28/25 Q1010","temp":28,"dewp":25,"wdir":90,"wspd":12,"visib":"6+","altim":1010,"clouds":[{"cover":"SCT","base":2000},{"cover":"FEW","base":2500}],"obsTime":1777402800},"SBCP":{"icaoId":"SBCP","flightCategory":"MVFR","rawOb":"METAR SBCP 281900Z 11011KT 9999 BKN020 29/23 Q1013","temp":29,"dewp":23,"wdir":110,"wspd":11,"visib":"6+","altim":1013,"clouds":[{"cover":"BKN","base":2000}],"obsTime":1777402800},"SBCR":{"icaoId":"SBCR","flightCategory":"MVFR","rawOb":"METAR SBCR 281900Z VRB03KT 9999 BKN030 29/23 Q1010","temp":29,"dewp":23,"wdir":"VRB","wspd":3,"visib":"6+","altim":1010,"clouds":[{"cover":"BKN","base":3000}],"obsTime":1777402800},"SBRF":{"icaoId":"SBRF","flightCategory":"VFR","rawOb":"METAR SBRF 281900Z 12007KT 9999 VCSH SCT020 BKN050 27/24 Q1010","temp":27,"dewp":24,"wdir":120,"wspd":7,"visib":"6+","altim":1010,"clouds":[{"cover":"SCT","base":2000},{"cover":"BKN","base":5000}],"obsTime":1777402800},"SBRB":{"icaoId":"SBRB","flightCategory":"MVFR","rawOb":"METAR SBRB 281900Z 03004KT 9999 VCSH BKN020 FEW030TCU BKN100 30/25 Q1011","temp":30,"dewp":25,"wdir":30,"wspd":4,"visib":"6+","altim":1011,"clouds":[{"cover":"BKN","base":2000},{"cover":"FEW","base":3000},{"cover":"BKN","base":10000}],"obsTime":1777402800},"SBCT":{"icaoId":"SBCT","flightCategory":"IFR","rawOb":"METAR SBCT 281900Z 11005KT 8000 -RA BKN005 OVC009 15/15 Q1019","temp":15,"dewp":15,"wdir":110,"wspd":5,"visib":4.97,"altim":1019,"clouds":[{"cover":"BKN","base":500},{"cover":"OVC","base":900}],"obsTime":1777402800},"SBPV":{"icaoId":"SBPV","flightCategory":"VFR","rawOb":"METAR SBPV 281900Z 01005KT 9999 SCT025 FEW030TCU 32/25 Q1008","temp":32,"dewp":25,"wdir":10,"wspd":5,"visib":"6+","altim":1008,"clouds":[{"cover":"SCT","base":2500},{"cover":"FEW","base":3000}],"obsTime":1777402800},"SBCZ":{"icaoId":"SBCZ","flightCategory":"VFR","rawOb":"METAR SBCZ 281900Z 12007KT 9999 SCT015 SCT020 BKN100 27/25 Q1011","temp":27,"dewp":25,"wdir":120,"wspd":7,"visib":"6+","altim":1011,"clouds":[{"cover":"SCT","base":1500},{"cover":"SCT","base":2000},{"cover":"BKN","base":10000}],"obsTime":1777402800},"SBPJ":{"icaoId":"SBPJ","flightCategory":"VFR","rawOb":"METAR SBPJ 281900Z 35007KT 9999 SCT033 FEW035TCU 30/25 Q1010","temp":30,"dewp":25,"wdir":350,"wspd":7,"visib":"6+","altim":1010,"clouds":[{"cover":"SCT","base":3300},{"cover":"FEW","base":3500}],"obsTime":1777402800},"SBEG":{"icaoId":"SBEG","flightCategory":"VFR","rawOb":"METAR SBEG 281900Z 23006KT 9999 VCSH BKN035 FEW040TCU 32/25 Q1008","temp":32,"dewp":25,"wdir":230,"wspd":6,"visib":"6+","altim":1008,"clouds":[{"cover":"BKN","base":3500},{"cover":"FEW","base":4000}],"obsTime":1777402800},"SBPA":{"icaoId":"SBPA","flightCategory":"VFR","rawOb":"METAR SBPA 281900Z 30005KT 240V340 CAVOK 19/05 Q1016","temp":19,"dewp":5,"wdir":300,"wspd":5,"visib":"6+","altim":1016,"clouds":[],"obsTime":1777402800},"SBFI":{"icaoId":"SBFI","flightCategory":"MVFR","rawOb":"METAR SBFI 281900Z 24004KT 8000 -RA FEW040TCU OVC100 20/17 Q1014","temp":20,"dewp":17,"wdir":240,"wspd":4,"visib":4.97,"altim":1014,"clouds":[{"cover":"FEW","base":4000},{"cover":"OVC","base":10000}],"obsTime":1777402800},"SBFL":{"icaoId":"SBFL","flightCategory":"VFR","rawOb":"METAR SBFL 281900Z 12006KT 090V150 9999 BKN046 21/12 Q1017","temp":21,"dewp":12,"wdir":120,"wspd":6,"visib":"6+","altim":1017,"clouds":[{"cover":"BKN","base":4600}],"obsTime":1777402800},"SBFZ":{"icaoId":"SBFZ","flightCategory":"VFR","rawOb":"METAR SBFZ 281900Z 08007KT 9999 SCT025 30/24 Q1009","temp":30,"dewp":24,"wdir":80,"wspd":7,"visib":"6+","altim":1009,"clouds":[{"cover":"SCT","base":2500}],"obsTime":1777402800},"SBMQ":{"icaoId":"SBMQ","flightCategory":"VFR","rawOb":"METAR SBMQ 281900Z 06010KT 9999 SCT030 FEW035TCU 31/24 Q1008","temp":31,"dewp":24,"wdir":60,"wspd":10,"visib":"6+","altim":1008,"clouds":[{"cover":"SCT","base":3000},{"cover":"FEW","base":3500}],"obsTime":1777402800},"SBGL":{"icaoId":"SBGL","flightCategory":"VFR","rawOb":"METAR SBGL 281900Z 14009KT 9999 FEW033 28/23 Q1013","temp":28,"dewp":23,"wdir":140,"wspd":9,"visib":"6+","altim":1013,"clouds":[{"cover":"FEW","base":3300}],"obsTime":1777402800},"SBMO":{"icaoId":"SBMO","flightCategory":"MVFR","rawOb":"METAR SBMO 281900Z 11011KT 9999 BKN017 BKN021 BKN070 27/24 Q1011","temp":27,"dewp":24,"wdir":110,"wspd":11,"visib":"6+","altim":1011,"clouds":[{"cover":"BKN","base":1700},{"cover":"BKN","base":2100},{"cover":"BKN","base":7000}],"obsTime":1777402800},"SBGO":{"icaoId":"SBGO","flightCategory":"VFR","rawOb":"METAR SBGO 281900Z 08005KT CAVOK 32/17 Q1015","temp":32,"dewp":17,"wdir":80,"wspd":5,"visib":"6+","altim":1015,"clouds":[],"obsTime":1777402800},"SBAT":{"icaoId":"SBAT","flightCategory":"VFR","rawOb":"METAR SBAT 281900Z 03003KT 9999 SCT025 30/24 Q1010","temp":30,"dewp":24,"wdir":30,"wspd":3,"visib":"6+","altim":1010,"clouds":[{"cover":"SCT","base":2500}],"obsTime":1777402800},"SBMK":{"icaoId":"SBMK","flightCategory":"VFR","rawOb":"METAR SBMK 281900Z 06007KT 9999 FEW038 30/15 Q1015","temp":30,"dewp":15,"wdir":60,"wspd":7,"visib":"6+","altim":1015,"clouds":[{"cover":"FEW","base":3800}],"obsTime":1777402800},"SBGR":{"icaoId":"SBGR","flightCategory":"VFR","rawOb":"METAR SBGR 281900Z 06006KT 9999 SCT045 BKN080 25/21 Q1016","temp":25,"dewp":21,"wdir":60,"wspd":6,"visib":"6+","altim":1016,"clouds":[{"cover":"SCT","base":4500},{"cover":"BKN","base":8000}],"obsTime":1777402800},"SBMG":{"icaoId":"SBMG","flightCategory":"MVFR","rawOb":"METAR SBMG 281900Z 17005KT 9999 -DZ SCT005 BKN014 OVC020 21/20 Q1014","temp":21,"dewp":20,"wdir":170,"wspd":5,"visib":"6+","altim":1014,"clouds":[{"cover":"SCT","base":500},{"cover":"BKN","base":1400},{"cover":"OVC","base":2000}],"obsTime":1777402800},"SBHT":{"icaoId":"SBHT","flightCategory":"MVFR","rawOb":"METAR SBHT 281900Z 04003KT 9999 BKN025 FEW030TCU 31/25 Q1008","temp":31,"dewp":25,"wdir":40,"wspd":3,"visib":"6+","altim":1008,"clouds":[{"cover":"BKN","base":2500},{"cover":"FEW","base":3000}],"obsTime":1777402800},"SBIL":{"icaoId":"SBIL","flightCategory":"VFR","rawOb":"METAR SBIL 281900Z 15004KT 9999 FEW025 29/23 Q1014","temp":29,"dewp":23,"wdir":150,"wspd":4,"visib":"6+","altim":1014,"clouds":[{"cover":"FEW","base":2500}],"obsTime":1777402800},"SBME":{"icaoId":"SBME","flightCategory":"VFR","rawOb":"METAR SBME 281900Z 16004KT 9999 FEW030 28/24 Q1013","temp":28,"dewp":24,"wdir":160,"wspd":4,"visib":"6+","altim":1013,"clouds":[{"cover":"FEW","base":3000}],"obsTime":1777402800},"SBMA":{"icaoId":"SBMA","flightCategory":"VFR","rawOb":"METAR SBMA 281900Z 34007KT 9999 SCT020 FEW025TCU SCT100 27/23 Q1009","temp":27,"dewp":23,"wdir":340,"wspd":7,"visib":"6+","altim":1009,"clouds":[{"cover":"SCT","base":2000},{"cover":"FEW","base":2500},{"cover":"SCT","base":10000}],"obsTime":1777402800},"SBJU":{"icaoId":"SBJU","flightCategory":"VFR","rawOb":"METAR SBJU 281900Z 27003KT 9999 SCT020 29/22 Q1011","temp":29,"dewp":22,"wdir":270,"wspd":3,"visib":"6+","altim":1011,"clouds":[{"cover":"SCT","base":2000}],"obsTime":1777402800},"SBKP":{"icaoId":"SBKP","flightCategory":"VFR","rawOb":"METAR SBKP 281900Z 23006KT 200V260 9999 SCT040 BKN100 29/19 Q1015","temp":29,"dewp":19,"wdir":230,"wspd":6,"visib":"6+","altim":1015,"clouds":[{"cover":"SCT","base":4000},{"cover":"BKN","base":10000}],"obsTime":1777402800},"SBLO":{"icaoId":"SBLO","flightCategory":"MVFR","rawOb":"METAR SBLO 281900Z 01003KT 9999 BKN013 BKN100 24/22 Q1015","temp":24,"dewp":22,"wdir":10,"wspd":3,"visib":"6+","altim":1015,"clouds":[{"cover":"BKN","base":1300},{"cover":"BKN","base":10000}],"obsTime":1777402800},"SBOI":{"icaoId":"SBOI","flightCategory":"VFR","rawOb":"METAR SBOI 281900Z AUTO 08005KT 030V120 CAVOK 29/25 Q1010","temp":29,"dewp":25,"wdir":80,"wspd":5,"visib":"6+","altim":1010,"clouds":[],"obsTime":1777402800},"SBCJ":{"icaoId":"SBCJ","flightCategory":"VFR","rawOb":"METAR SBCJ 281900Z 00000KT 9999 SCT020 FEW025TCU SCT090 26/22 Q1014","temp":26,"dewp":22,"wdir":0,"wspd":0,"visib":"6+","altim":1014,"clouds":[{"cover":"SCT","base":2000},{"cover":"FEW","base":2500},{"cover":"SCT","base":9000}],"obsTime":1777402800},"SBPB":{"icaoId":"SBPB","flightCategory":"MVFR","rawOb":"METAR SBPB 281900Z 15008KT 9999 BKN018 OVC100 27/23 Q1010","temp":27,"dewp":23,"wdir":150,"wspd":8,"visib":"6+","altim":1010,"clouds":[{"cover":"BKN","base":1800},{"cover":"OVC","base":10000}],"obsTime":1777402800},"SBCO":{"icaoId":"SBCO","flightCategory":"VFR","rawOb":"METAR SBCO 281900Z 25004KT CAVOK 20/06 Q1017","temp":20,"dewp":6,"wdir":250,"wspd":4,"visib":"6+","altim":1017,"clouds":[],"obsTime":1777402800},"SBPL":{"icaoId":"SBPL","flightCategory":"VFR","rawOb":"METAR SBPL 281900Z 14007KT CAVOK 34/16 Q1011","temp":34,"dewp":16,"wdir":140,"wspd":7,"visib":"6+","altim":1011,"clouds":[],"obsTime":1777402800},"SBBU":{"icaoId":"SBBU","flightCategory":"VFR","rawOb":"METAR SBBU 281900Z 27008KT 9999 SCT040 30/21 Q1015","temp":30,"dewp":21,"wdir":270,"wspd":8,"visib":"6+","altim":1015,"clouds":[{"cover":"SCT","base":4000}],"obsTime":1777402800},"SBPP":{"icaoId":"SBPP","flightCategory":"MVFR","rawOb":"METAR SBPP 281900Z 30003KT 9999 BKN015 22/19 Q1015","temp":22,"dewp":19,"wdir":300,"wspd":3,"visib":"6+","altim":1015,"clouds":[{"cover":"BKN","base":1500}],"obsTime":1777402800},"SBDN":{"icaoId":"SBDN","flightCategory":"VFR","rawOb":"METAR SBDN 281900Z 33002KT 9999 SCT023 BKN100 28/21 Q1014","temp":28,"dewp":21,"wdir":330,"wspd":2,"visib":"6+","altim":1014,"clouds":[{"cover":"SCT","base":2300},{"cover":"BKN","base":10000}],"obsTime":1777402800},"SBCA":{"icaoId":"SBCA","flightCategory":"VFR","rawOb":"METAR SBCA 281900Z 34003KT 9999 SCT010 SCT030 FEW050TCU 20/17 Q1016","temp":20,"dewp":17,"wdir":340,"wspd":3,"visib":"6+","altim":1016,"clouds":[{"cover":"SCT","base":1000},{"cover":"SCT","base":3000},{"cover":"FEW","base":5000}],"obsTime":1777402800},"SBPS":{"icaoId":"SBPS","flightCategory":"VFR","rawOb":"METAR SBPS 281900Z 07008KT 040V100 9999 SCT030 28/22 Q1014","temp":28,"dewp":22,"wdir":70,"wspd":8,"visib":"6+","altim":1014,"clouds":[{"cover":"SCT","base":3000}],"obsTime":1777402800},"SBSC":{"icaoId":"SBSC","flightCategory":"MVFR","rawOb":"METAR SBSC 281900Z 17007KT 8000 FEW025 BKN030 BKN050 28/23 Q1013","temp":28,"dewp":23,"wdir":170,"wspd":7,"visib":4.97,"altim":1013,"clouds":[{"cover":"FEW","base":2500},{"cover":"BKN","base":3000},{"cover":"BKN","base":5000}],"obsTime":1777402800},"SBBH":{"icaoId":"SBBH","flightCategory":"VFR","rawOb":"METAR SBBH 281900Z 08006KT 9999 FEW049 28/16 Q1017","temp":28,"dewp":16,"wdir":80,"wspd":6,"visib":"6+","altim":1017,"clouds":[{"cover":"FEW","base":4900}],"obsTime":1777402800},"SBSJ":{"icaoId":"SBSJ","flightCategory":"MVFR","rawOb":"METAR SBSJ 281900Z 20003KT 6000 FEW030 SCT100 27/21 Q1015","temp":27,"dewp":21,"wdir":200,"wspd":3,"visib":3.73,"altim":1015,"clouds":[{"cover":"FEW","base":3000},{"cover":"SCT","base":10000}],"obsTime":1777402800},"SBES":{"icaoId":"SBES","flightCategory":"VFR","rawOb":"METAR SBES 281900Z VRB04KT 9999 FEW020 29/// Q1013","temp":null,"dewp":null,"wdir":"VRB","wspd":4,"visib":"6+","altim":1013,"clouds":[{"cover":"FEW","base":2000}],"obsTime":1777402800},"SBCC":{"icaoId":"SBCC","flightCategory":"VFR","rawOb":"METAR SBCC 281900Z 03005KT 9999 SCT020 BKN080 28/22 Q1011","temp":28,"dewp":22,"wdir":30,"wspd":5,"visib":"6+","altim":1011,"clouds":[{"cover":"SCT","base":2000},{"cover":"BKN","base":8000}],"obsTime":1777402800},"SBSM":{"icaoId":"SBSM","flightCategory":"VFR","rawOb":"METAR SBSM 281900Z VRB01KT CAVOK 20/03 Q1017","temp":20,"dewp":3,"wdir":"VRB","wspd":1,"visib":"6+","altim":1017,"clouds":[],"obsTime":1777402800},"SBSR":{"icaoId":"SBSR","flightCategory":"VFR","rawOb":"METAR SBSR 281900Z 30003KT 250V050 9999 SCT040 FEW045TCU SCT080 31/18 Q1014","temp":31,"dewp":18,"wdir":300,"wspd":3,"visib":"6+","altim":1014,"clouds":[{"cover":"SCT","base":4000},{"cover":"FEW","base":4500},{"cover":"SCT","base":8000}],"obsTime":1777402800},"SBIP":{"icaoId":"SBIP","flightCategory":"VFR","rawOb":"METAR SBIP 281900Z AUTO 02005KT 340V050 CAVOK 31/19 Q1014","temp":31,"dewp":19,"wdir":20,"wspd":5,"visib":"6+","altim":1014,"clouds":[],"obsTime":1777402800},"SBAX":{"icaoId":"SBAX","flightCategory":"VFR","rawOb":"METAR SBAX 281900Z 30005KT 9999 SCT035 30/15 Q1017","temp":30,"dewp":15,"wdir":300,"wspd":5,"visib":"6+","altim":1017,"clouds":[{"cover":"SCT","base":3500}],"obsTime":1777402800},"SBTF":{"icaoId":"SBTF","flightCategory":"VFR","rawOb":"METAR SBTF 281900Z 02005KT 9999 SCT020 34/25 Q1007","temp":34,"dewp":25,"wdir":20,"wspd":5,"visib":"6+","altim":1007,"clouds":[{"cover":"SCT","base":2000}],"obsTime":1777402800},"SBAR":{"icaoId":"SBAR","flightCategory":"IFR","rawOb":"METAR SBAR 281900Z 16009KT 4000 -RA SCT009 BKN025 FEW030TCU 25/25 Q1012 RESHRA","temp":25,"dewp":25,"wdir":160,"wspd":9,"visib":2.49,"altim":1012,"clouds":[{"cover":"SCT","base":900},{"cover":"BKN","base":2500},{"cover":"FEW","base":3000}],"obsTime":1777402800},"SBTT":{"icaoId":"SBTT","flightCategory":"VFR","rawOb":"METAR SBTT 281900Z 35003KT 9999 SCT012 27/23 Q1011","temp":27,"dewp":23,"wdir":350,"wspd":3,"visib":"6+","altim":1011,"clouds":[{"cover":"SCT","base":1200}],"obsTime":1777402800},"SBKG":{"icaoId":"SBKG","flightCategory":"MVFR","rawOb":"METAR SBKG 281900Z 10010KT 9999 -RA BKN015 SCT080 23/22 Q1013","temp":23,"dewp":22,"wdir":100,"wspd":10,"visib":"6+","altim":1013,"clouds":[{"cover":"BKN","base":1500},{"cover":"SCT","base":8000}],"obsTime":1777402800},"SBUY":{"icaoId":"SBUY","flightCategory":"VFR","rawOb":"METAR SBUY 281900Z 28002KT 9999 SCT025 FEW030TCU 30/27 Q1007","temp":30,"dewp":27,"wdir":280,"wspd":2,"visib":"6+","altim":1007,"clouds":[{"cover":"SCT","base":2500},{"cover":"FEW","base":3000}],"obsTime":1777402800},"SBVH":{"icaoId":"SBVH","flightCategory":"VFR","rawOb":"METAR SBVH 281900Z 36008KT 9999 SCT035 30/23 Q1012","temp":30,"dewp":23,"wdir":360,"wspd":8,"visib":"6+","altim":1012,"clouds":[{"cover":"SCT","base":3500}],"obsTime":1777402800},"SBBQ":{"icaoId":"SBBQ","flightCategory":"VFR","rawOb":"METAR SBBQ 281900Z 07007KT 040V110 9999 BKN040 26/17 Q1021","temp":26,"dewp":17,"wdir":70,"wspd":7,"visib":"6+","altim":1021,"clouds":[{"cover":"BKN","base":4000}],"obsTime":1777402800},"SBGM":{"icaoId":"SBGM","flightCategory":"MVFR","rawOb":"METAR SBGM 281900Z 23004KT 160V310 9999 BKN020 30/20 Q1010","temp":30,"dewp":20,"wdir":230,"wspd":4,"visib":"6+","altim":1010,"clouds":[{"cover":"BKN","base":2000}],"obsTime":1777402800},"SBLS":{"icaoId":"SBLS","flightCategory":"VFR","rawOb":"METAR SBLS 281900Z 16009KT 9999 SCT045 28/16 Q1017","temp":28,"dewp":16,"wdir":160,"wspd":9,"visib":"6+","altim":1017,"clouds":[{"cover":"SCT","base":4500}],"obsTime":1777402800},"SBMT":{"icaoId":"SBMT","flightCategory":"MVFR","rawOb":"METAR SBMT 281900Z 17008KT 9999 FEW018 BKN025 24/20 Q1016","temp":24,"dewp":20,"wdir":170,"wspd":8,"visib":"6+","altim":1016,"clouds":[{"cover":"FEW","base":1800},{"cover":"BKN","base":2500}],"obsTime":1777402800},"SBAN":{"icaoId":"SBAN","flightCategory":"VFR","rawOb":"METAR SBAN 281900Z 12004KT 9999 SCT040 29/15 Q1018","temp":29,"dewp":15,"wdir":120,"wspd":4,"visib":"6+","altim":1018,"clouds":[{"cover":"SCT","base":4000}],"obsTime":1777402800},"SBTA":{"icaoId":"SBTA","flightCategory":"VFR","rawOb":"METAR SBTA 281900Z 27002KT 9999 -RA BKN035 FEW040TCU SCT080 27/21 Q1014","temp":27,"dewp":21,"wdir":270,"wspd":2,"visib":"6+","altim":1014,"clouds":[{"cover":"BKN","base":3500},{"cover":"FEW","base":4000},{"cover":"SCT","base":8000}],"obsTime":1777402800},"SBJP":{"icaoId":"SBJP","flightCategory":"VFR","rawOb":"METAR SBJP 281900Z 07008KT 9999 FEW020 BKN070 28/26 Q1011","temp":28,"dewp":26,"wdir":70,"wspd":8,"visib":"6+","altim":1011,"clouds":[{"cover":"FEW","base":2000},{"cover":"BKN","base":7000}],"obsTime":1777402800},"SBLE":{"icaoId":"SBLE","flightCategory":"VFR","rawOb":"METAR SBLE 281900Z AUTO 20004KT 160V230 CAVOK 28/19 Q1014","temp":28,"dewp":19,"wdir":200,"wspd":4,"visib":"6+","altim":1014,"clouds":[],"obsTime":1777402800},"SBST":{"icaoId":"SBST","flightCategory":"MVFR","rawOb":"METAR SBST 281900Z /////KT 9999 BKN014 OVC022 ///// Q1014","temp":null,"dewp":null,"wdir":null,"wspd":null,"visib":"6+","altim":1014,"clouds":[{"cover":"BKN","base":1400},{"cover":"OVC","base":2200}],"obsTime":1777402800},"SBIH":{"icaoId":"SBIH","flightCategory":"VFR","rawOb":"METAR SBIH 281900Z 32002KT 9999 FEW020 FEW025TCU 32/23 Q1008","temp":32,"dewp":23,"wdir":320,"wspd":2,"visib":"6+","altim":1008,"clouds":[{"cover":"FEW","base":2000},{"cover":"FEW","base":2500}],"obsTime":1777402800},"SBAF":{"icaoId":"SBAF","flightCategory":"MVFR","rawOb":"METAR SBAF 281900Z 20008KT 9999 FEW015 BKN025 28/26 Q1013","temp":28,"dewp":26,"wdir":200,"wspd":8,"visib":"6+","altim":1013,"clouds":[{"cover":"FEW","base":1500},{"cover":"BKN","base":2500}],"obsTime":1777402800},"SBGW":{"icaoId":"SBGW","flightCategory":"VFR","rawOb":"METAR SBGW 281900Z 36005KT 340V050 9999 SCT035 BKN100 28/18 Q1014","temp":28,"dewp":18,"wdir":360,"wspd":5,"visib":"6+","altim":1014,"clouds":[{"cover":"SCT","base":3500},{"cover":"BKN","base":10000}],"obsTime":1777402800},"SBJV":{"icaoId":"SBJV","flightCategory":"IFR","rawOb":"METAR SBJV 281900Z 35004KT 4000 -RA SCT010 BKN030 18/16 Q1017","temp":18,"dewp":16,"wdir":350,"wspd":4,"visib":2.49,"altim":1017,"clouds":[{"cover":"SCT","base":1000},{"cover":"BKN","base":3000}],"obsTime":1777402800},"SBJR":{"icaoId":"SBJR","flightCategory":"VFR","rawOb":"METAR SBJR 281900Z 12010KT 9999 FEW015 SCT020 30/23 Q1013","temp":30,"dewp":23,"wdir":120,"wspd":10,"visib":"6+","altim":1013,"clouds":[{"cover":"FEW","base":1500},{"cover":"SCT","base":2000}],"obsTime":1777402800},"SBPF":{"icaoId":"SBPF","flightCategory":"VFR","rawOb":"METAR SBPF 282000Z 22005KT CAVOK 19/02 Q1017","temp":19,"dewp":2,"wdir":220,"wspd":5,"visib":"6+","altim":1017,"clouds":[],"obsTime":1777406400}}}