{"updated":1778940964,"count":87,"data":{"SBVT":{"icaoId":"SBVT","flightCategory":"VFR","rawOb":"METAR SBVT 161300Z 13004KT 100V190 9999 SCT025 26/22 Q1017","temp":26,"dewp":22,"wdir":130,"wspd":4,"visib":"6+","altim":1017,"clouds":[{"cover":"SCT","base":2500}],"obsTime":1778936400},"SBAT":{"icaoId":"SBAT","flightCategory":"VFR","rawOb":"METAR SBAT 161300Z 00000KT 9999 FEW020 30/24 Q1016","temp":30,"dewp":24,"wdir":0,"wspd":0,"visib":"6+","altim":1016,"clouds":[{"cover":"FEW","base":2000}],"obsTime":1778936400},"SBBE":{"icaoId":"SBBE","flightCategory":"MVFR","rawOb":"METAR SBBE 161300Z 09006KT 9999 BKN022 29/25 Q1014","temp":29,"dewp":25,"wdir":90,"wspd":6,"visib":"6+","altim":1014,"clouds":[{"cover":"BKN","base":2200}],"obsTime":1778936400},"SBBR":{"icaoId":"SBBR","flightCategory":"VFR","rawOb":"METAR SBBR 161300Z 09008KT 050V120 CAVOK 25/16 Q1022","temp":25,"dewp":16,"wdir":90,"wspd":8,"visib":"6+","altim":1022,"clouds":[],"obsTime":1778936400},"SBBV":{"icaoId":"SBBV","flightCategory":"VFR","rawOb":"METAR SBBV 161300Z 09012KT 9999 SCT020 FEW030TCU BKN070 28/24 Q1015","temp":28,"dewp":24,"wdir":90,"wspd":12,"visib":"6+","altim":1015,"clouds":[{"cover":"SCT","base":2000},{"cover":"FEW","base":3000},{"cover":"BKN","base":7000}],"obsTime":1778936400},"SBCB":{"icaoId":"SBCB","flightCategory":"VFR","rawOb":"METAR SBCB 161300Z 25005KT 9999 FEW030 25/21 Q1017","temp":25,"dewp":21,"wdir":250,"wspd":5,"visib":"6+","altim":1017,"clouds":[{"cover":"FEW","base":3000}],"obsTime":1778936400},"SBCF":{"icaoId":"SBCF","flightCategory":"VFR","rawOb":"METAR SBCF 161300Z 21003KT CAVOK 23/19 Q1021","temp":23,"dewp":19,"wdir":210,"wspd":3,"visib":"6+","altim":1021,"clouds":[],"obsTime":1778936400},"SBCG":{"icaoId":"SBCG","flightCategory":"VFR","rawOb":"METAR SBCG 161300Z 33007KT 9999 FEW035 BKN100 25/19 Q1017","temp":25,"dewp":19,"wdir":330,"wspd":7,"visib":"6+","altim":1017,"clouds":[{"cover":"FEW","base":3500},{"cover":"BKN","base":10000}],"obsTime":1778936400},"SBCP":{"icaoId":"SBCP","flightCategory":"VFR","rawOb":"METAR SBCP 161300Z 34004KT CAVOK 28/20 Q1017","temp":28,"dewp":20,"wdir":340,"wspd":4,"visib":"6+","altim":1017,"clouds":[],"obsTime":1778936400},"SBCR":{"icaoId":"SBCR","flightCategory":"LIFR","rawOb":"METAR SBCR 161300Z 08006KT 3500 BR OVC004 22/21 Q1015","temp":22,"dewp":21,"wdir":80,"wspd":6,"visib":2.17,"altim":1015,"clouds":[{"cover":"OVC","base":400}],"obsTime":1778936400},"SBCT":{"icaoId":"SBCT","flightCategory":"LIFR","rawOb":"METAR SBCT 161300Z 04003KT 010V070 5000 -RA FEW003 BKN004 OVC008 16/16 Q1020","temp":16,"dewp":16,"wdir":40,"wspd":3,"visib":3.11,"altim":1020,"clouds":[{"cover":"FEW","base":300},{"cover":"BKN","base":400},{"cover":"OVC","base":800}],"obsTime":1778936400},"SBCZ":{"icaoId":"SBCZ","flightCategory":"VFR","rawOb":"METAR SBCZ 161300Z 12003KT 9999 FEW020 FEW025TCU 26/24 Q1015","temp":26,"dewp":24,"wdir":120,"wspd":3,"visib":"6+","altim":1015,"clouds":[{"cover":"FEW","base":2000},{"cover":"FEW","base":2500}],"obsTime":1778936400},"SBEG":{"icaoId":"SBEG","flightCategory":"VFR","rawOb":"METAR SBEG 161300Z 00000KT 9999 SCT007 27/24 Q1014","temp":27,"dewp":24,"wdir":0,"wspd":0,"visib":"6+","altim":1014,"clouds":[{"cover":"SCT","base":700}],"obsTime":1778936400},"SBFI":{"icaoId":"SBFI","flightCategory":"LIFR","rawOb":"SPECI SBFI 161226Z 35002KT 4000 BR BKN003 BKN020 19/19 Q1015","temp":19,"dewp":19,"wdir":350,"wspd":2,"visib":2.49,"altim":1015,"clouds":[{"cover":"BKN","base":300},{"cover":"BKN","base":2000}],"obsTime":1778934360},"SBFL":{"icaoId":"SBFL","flightCategory":"VFR","rawOb":"METAR SBFL 161300Z VRB02KT 9999 FEW011 SCT025 OVC090 20/17 Q1017","temp":20,"dewp":17,"wdir":"VRB","wspd":2,"visib":"6+","altim":1017,"clouds":[{"cover":"FEW","base":1100},{"cover":"SCT","base":2500},{"cover":"OVC","base":9000}],"obsTime":1778936400},"SBFZ":{"icaoId":"SBFZ","flightCategory":"LIFR","rawOb":"METAR SBFZ 161300Z 15011KT 0500 R31///// R13/P2000 +SHRA FEW005 BKN010 FEW025TCU OVC060 26/25 Q1015","temp":26,"dewp":25,"wdir":150,"wspd":11,"visib":0.31,"altim":1015,"clouds":[{"cover":"FEW","base":500},{"cover":"BKN","base":1000},{"cover":"FEW","base":2500},{"cover":"OVC","base":6000}],"obsTime":1778936400},"SBGL":{"icaoId":"SBGL","flightCategory":"IFR","rawOb":"METAR SBGL 161300Z 36005KT 330V030 4000 HZ BKN012 26/20 Q1017","temp":26,"dewp":20,"wdir":360,"wspd":5,"visib":2.49,"altim":1017,"clouds":[{"cover":"BKN","base":1200}],"obsTime":1778936400},"SBGO":{"icaoId":"SBGO","flightCategory":"VFR","rawOb":"METAR SBGO 161300Z VRB02KT CAVOK 26/19 Q1020","temp":26,"dewp":19,"wdir":"VRB","wspd":2,"visib":"6+","altim":1020,"clouds":[],"obsTime":1778936400},"SBGR":{"icaoId":"SBGR","flightCategory":"VFR","rawOb":"METAR SBGR 161300Z 06007KT 9000 SCT005 18/16 Q1020","temp":18,"dewp":16,"wdir":60,"wspd":7,"visib":5.59,"altim":1020,"clouds":[{"cover":"SCT","base":500}],"obsTime":1778936400},"SBHT":{"icaoId":"SBHT","flightCategory":"MVFR","rawOb":"METAR SBHT 161300Z 18004KT 5000 1000W -RA BR BKN013 BKN080 25/23 Q1016","temp":25,"dewp":23,"wdir":180,"wspd":4,"visib":3.11,"altim":1016,"clouds":[{"cover":"BKN","base":1300},{"cover":"BKN","base":8000}],"obsTime":1778936400},"SBIL":{"icaoId":"SBIL","flightCategory":"VFR","rawOb":"METAR SBIL 161300Z 17004KT 110V210 9999 FEW020 29/23 Q1017","temp":29,"dewp":23,"wdir":170,"wspd":4,"visib":"6+","altim":1017,"clouds":[{"cover":"FEW","base":2000}],"obsTime":1778936400},"SBJU":{"icaoId":"SBJU","flightCategory":"VFR","rawOb":"METAR SBJU 161300Z 00000KT 9999 FEW020 28/20 Q1017","temp":28,"dewp":20,"wdir":0,"wspd":0,"visib":"6+","altim":1017,"clouds":[{"cover":"FEW","base":2000}],"obsTime":1778936400},"SBKP":{"icaoId":"SBKP","flightCategory":"VFR","rawOb":"METAR SBKP 161300Z VRB01KT CAVOK 22/16 Q1020","temp":22,"dewp":16,"wdir":"VRB","wspd":1,"visib":"6+","altim":1020,"clouds":[],"obsTime":1778936400},"SBLO":{"icaoId":"SBLO","flightCategory":"LIFR","rawOb":"SPECI SBLO 161219Z 04003KT 3000 BR OVC003 18/18 Q1019","temp":18,"dewp":18,"wdir":40,"wspd":3,"visib":1.86,"altim":1019,"clouds":[{"cover":"OVC","base":300}],"obsTime":1778933940},"SBMA":{"icaoId":"SBMA","flightCategory":"MVFR","rawOb":"METAR SBMA 161300Z 01008KT 9999 BKN015 27/24 Q1015","temp":27,"dewp":24,"wdir":10,"wspd":8,"visib":"6+","altim":1015,"clouds":[{"cover":"BKN","base":1500}],"obsTime":1778936400},"SBME":{"icaoId":"SBME","flightCategory":"VFR","rawOb":"METAR SBME 161300Z 14005KT CAVOK 27/21 Q1016","temp":27,"dewp":21,"wdir":140,"wspd":5,"visib":"6+","altim":1016,"clouds":[],"obsTime":1778936400},"SBMG":{"icaoId":"SBMG","flightCategory":"IFR","rawOb":"METAR SBMG 161300Z 02009KT 8000 BKN008 BKN030 20/19 Q1017","temp":20,"dewp":19,"wdir":20,"wspd":9,"visib":4.97,"altim":1017,"clouds":[{"cover":"BKN","base":800},{"cover":"BKN","base":3000}],"obsTime":1778936400},"SBMK":{"icaoId":"SBMK","flightCategory":"VFR","rawOb":"METAR SBMK 161300Z 05006KT CAVOK 27/17 Q1020","temp":27,"dewp":17,"wdir":50,"wspd":6,"visib":"6+","altim":1020,"clouds":[],"obsTime":1778936400},"SBMO":{"icaoId":"SBMO","flightCategory":"MVFR","rawOb":"METAR SBMO 161300Z 19007KT 130V220 9999 BKN025 29/22 Q1016","temp":29,"dewp":22,"wdir":190,"wspd":7,"visib":"6+","altim":1016,"clouds":[{"cover":"BKN","base":2500}],"obsTime":1778936400},"SBMQ":{"icaoId":"SBMQ","flightCategory":"MVFR","rawOb":"METAR SBMQ 161300Z 01007KT 9999 BKN015 28/25 Q1015","temp":28,"dewp":25,"wdir":10,"wspd":7,"visib":"6+","altim":1015,"clouds":[{"cover":"BKN","base":1500}],"obsTime":1778936400},"SBNT":{"icaoId":"SBNT","flightCategory":"VFR","rawOb":"METAR SBNT 161300Z 15012KT 9999 SCT020 BKN070 28/23 Q1015","temp":28,"dewp":23,"wdir":150,"wspd":12,"visib":"6+","altim":1015,"clouds":[{"cover":"SCT","base":2000},{"cover":"BKN","base":7000}],"obsTime":1778936400},"SBPA":{"icaoId":"SBPA","flightCategory":"VFR","rawOb":"METAR SBPA 161300Z VRB02KT CAVOK 16/13 Q1017","temp":16,"dewp":13,"wdir":"VRB","wspd":2,"visib":"6+","altim":1017,"clouds":[],"obsTime":1778936400},"SBPJ":{"icaoId":"SBPJ","flightCategory":"VFR","rawOb":"METAR SBPJ 161300Z VRB04KT CAVOK 31/25 Q1016","temp":31,"dewp":25,"wdir":"VRB","wspd":4,"visib":"6+","altim":1016,"clouds":[],"obsTime":1778936400},"SBPV":{"icaoId":"SBPV","flightCategory":"VFR","rawOb":"METAR SBPV 161300Z 05002KT 9999 FEW035 25/23 Q1014","temp":25,"dewp":23,"wdir":50,"wspd":2,"visib":"6+","altim":1014,"clouds":[{"cover":"FEW","base":3500}],"obsTime":1778936400},"SBRB":{"icaoId":"SBRB","flightCategory":"VFR","rawOb":"METAR SBRB 161300Z 28004KT CAVOK 26/24 Q1015","temp":26,"dewp":24,"wdir":280,"wspd":4,"visib":"6+","altim":1015,"clouds":[],"obsTime":1778936400},"SBRF":{"icaoId":"SBRF","flightCategory":"MVFR","rawOb":"METAR SBRF 161300Z 11008KT 7000 -RA SCT010 BKN021 FEW025TCU OVC050 25/24 Q1015 RERA","temp":25,"dewp":24,"wdir":110,"wspd":8,"visib":4.35,"altim":1015,"clouds":[{"cover":"SCT","base":1000},{"cover":"BKN","base":2100},{"cover":"FEW","base":2500},{"cover":"OVC","base":5000}],"obsTime":1778936400},"SBSG":{"icaoId":"SBSG","flightCategory":"MVFR","rawOb":"METAR SBSG 161300Z 15009KT 110V200 9999 BKN023 28/23 Q1015","temp":28,"dewp":23,"wdir":150,"wspd":9,"visib":"6+","altim":1015,"clouds":[{"cover":"BKN","base":2300}],"obsTime":1778936400},"SBSL":{"icaoId":"SBSL","flightCategory":"VFR","rawOb":"METAR SBSL 161300Z 09003KT 9999 SCT027 29/25 Q1014","temp":29,"dewp":25,"wdir":90,"wspd":3,"visib":"6+","altim":1014,"clouds":[{"cover":"SCT","base":2700}],"obsTime":1778936400},"SBSN":{"icaoId":"SBSN","flightCategory":"VFR","rawOb":"METAR SBSN 161300Z 09012KT 9999 FEW023 SCT100 29/24 Q1015","temp":29,"dewp":24,"wdir":90,"wspd":12,"visib":"6+","altim":1015,"clouds":[{"cover":"FEW","base":2300},{"cover":"SCT","base":10000}],"obsTime":1778936400},"SBSP":{"icaoId":"SBSP","flightCategory":"VFR","rawOb":"METAR SBSP 161300Z VRB02KT CAVOK 20/16 Q1021","temp":20,"dewp":16,"wdir":"VRB","wspd":2,"visib":"6+","altim":1021,"clouds":[],"obsTime":1778936400},"SBSV":{"icaoId":"SBSV","flightCategory":"VFR","rawOb":"METAR SBSV 161300Z 17009KT 9999 SCT025 FEW027TCU 29/22 Q1016","temp":29,"dewp":22,"wdir":170,"wspd":9,"visib":"6+","altim":1016,"clouds":[{"cover":"SCT","base":2500},{"cover":"FEW","base":2700}],"obsTime":1778936400},"SBTE":{"icaoId":"SBTE","flightCategory":"MVFR","rawOb":"METAR SBTE 161300Z 07004KT 9999 BKN015 29/24 Q1014","temp":29,"dewp":24,"wdir":70,"wspd":4,"visib":"6+","altim":1014,"clouds":[{"cover":"BKN","base":1500}],"obsTime":1778936400},"SBUL":{"icaoId":"SBUL","flightCategory":"VFR","rawOb":"METAR SBUL 161300Z 09006KT 9999 FEW040 24/16 Q1022","temp":24,"dewp":16,"wdir":90,"wspd":6,"visib":"6+","altim":1022,"clouds":[{"cover":"FEW","base":4000}],"obsTime":1778936400},"SBUR":{"icaoId":"SBUR","flightCategory":"VFR","rawOb":"METAR SBUR 161300Z 02006KT CAVOK 25/17 Q1020","temp":25,"dewp":17,"wdir":20,"wspd":6,"visib":"6+","altim":1020,"clouds":[],"obsTime":1778936400},"SBVH":{"icaoId":"SBVH","flightCategory":"VFR","rawOb":"METAR SBVH 161300Z 33005KT CAVOK 25/23 Q1017","temp":25,"dewp":23,"wdir":330,"wspd":5,"visib":"6+","altim":1017,"clouds":[],"obsTime":1778936400},"SBAR":{"icaoId":"SBAR","flightCategory":"MVFR","rawOb":"METAR SBAR 161300Z 14006KT 090V190 9999 BKN023 29/22 Q1016","temp":29,"dewp":22,"wdir":140,"wspd":6,"visib":"6+","altim":1016,"clouds":[{"cover":"BKN","base":2300}],"obsTime":1778936400},"SBAU":{"icaoId":"SBAU","flightCategory":"MVFR","rawOb":"METAR SBAU 161300Z 12003KT 5000 BR FEW005 SCT090 20/18 Q1018","temp":20,"dewp":18,"wdir":120,"wspd":3,"visib":3.11,"altim":1018,"clouds":[{"cover":"FEW","base":500},{"cover":"SCT","base":9000}],"obsTime":1778936400},"SBAX":{"icaoId":"SBAX","flightCategory":"VFR","rawOb":"METAR SBAX 161300Z AUTO 07004KT 020V130 CAVOK 22/16 Q1022","temp":22,"dewp":16,"wdir":70,"wspd":4,"visib":"6+","altim":1022,"clouds":[],"obsTime":1778936400},"SBBH":{"icaoId":"SBBH","flightCategory":"VFR","rawOb":"METAR SBBH 161300Z 11006KT CAVOK 23/18 Q1021","temp":23,"dewp":18,"wdir":110,"wspd":6,"visib":"6+","altim":1021,"clouds":[],"obsTime":1778936400},"SBBQ":{"icaoId":"SBBQ","flightCategory":"VFR","rawOb":"METAR SBBQ 161300Z 01005KT 330V060 9999 FEW015 22/17 Q1024","temp":22,"dewp":17,"wdir":10,"wspd":5,"visib":"6+","altim":1024,"clouds":[{"cover":"FEW","base":1500}],"obsTime":1778936400},"SBBU":{"icaoId":"SBBU","flightCategory":"VFR","rawOb":"METAR SBBU 161300Z 20001KT 9999 FEW009 20/20 Q1019","temp":20,"dewp":20,"wdir":200,"wspd":1,"visib":"6+","altim":1019,"clouds":[{"cover":"FEW","base":900}],"obsTime":1778936400},"SBCA":{"icaoId":"SBCA","flightCategory":"VFR","rawOb":"METAR SBCA 161300Z 03006KT 9999 BCFG FEW005 BKN070 18/16 Q1018","temp":18,"dewp":16,"wdir":30,"wspd":6,"visib":"6+","altim":1018,"clouds":[{"cover":"FEW","base":500},{"cover":"BKN","base":7000}],"obsTime":1778936400},"SBCC":{"icaoId":"SBCC","flightCategory":"VFR","rawOb":"METAR SBCC 161300Z /////KT 9999 SCT030 SCT100 ///// Q1017","temp":null,"dewp":null,"wdir":null,"wspd":null,"visib":"6+","altim":1017,"clouds":[{"cover":"SCT","base":3000},{"cover":"SCT","base":10000}],"obsTime":1778936400},"SBCJ":{"icaoId":"SBCJ","flightCategory":"IFR","rawOb":"METAR SBCJ 161300Z 04003KT 9999 BKN007 24/22 Q1019","temp":24,"dewp":22,"wdir":40,"wspd":3,"visib":"6+","altim":1019,"clouds":[{"cover":"BKN","base":700}],"obsTime":1778936400},"SBCO":{"icaoId":"SBCO","flightCategory":"VFR","rawOb":"METAR SBCO 161300Z 28003KT 200V320 CAVOK 16/12 Q1017","temp":16,"dewp":12,"wdir":280,"wspd":3,"visib":"6+","altim":1017,"clouds":[],"obsTime":1778936400},"SBDN":{"icaoId":"SBDN","flightCategory":"MVFR","rawOb":"METAR SBDN 161300Z 05005KT 8000 NSC 21/17 Q1018","temp":21,"dewp":17,"wdir":50,"wspd":5,"visib":4.97,"altim":1018,"clouds":[],"obsTime":1778936400},"SBES":{"icaoId":"SBES","flightCategory":"VFR","rawOb":"METAR SBES 161300Z VRB06KT 9999 FEW015 25/// Q1017","temp":null,"dewp":null,"wdir":"VRB","wspd":6,"visib":"6+","altim":1017,"clouds":[{"cover":"FEW","base":1500}],"obsTime":1778936400},"SBGM":{"icaoId":"SBGM","flightCategory":"VFR","rawOb":"METAR SBGM 161300Z 32005KT 9999 FEW040 27/24 Q1015","temp":27,"dewp":24,"wdir":320,"wspd":5,"visib":"6+","altim":1015,"clouds":[{"cover":"FEW","base":4000}],"obsTime":1778936400},"SBIP":{"icaoId":"SBIP","flightCategory":"VFR","rawOb":"METAR SBIP 161300Z AUTO 02004KT 320V110 9999 FEW016 26/21 Q1019","temp":26,"dewp":21,"wdir":20,"wspd":4,"visib":"6+","altim":1019,"clouds":[{"cover":"FEW","base":1600}],"obsTime":1778936400},"SBKG":{"icaoId":"SBKG","flightCategory":"MVFR","rawOb":"METAR SBKG 161300Z 13008KT 9999 BKN020 26/21 Q1017","temp":26,"dewp":21,"wdir":130,"wspd":8,"visib":"6+","altim":1017,"clouds":[{"cover":"BKN","base":2000}],"obsTime":1778936400},"SBOI":{"icaoId":"SBOI","flightCategory":"VFR","rawOb":"METAR SBOI 161300Z AUTO 03007KT 360V080 9999 FEW021 SCT029 29/25 Q1015","temp":29,"dewp":25,"wdir":30,"wspd":7,"visib":"6+","altim":1015,"clouds":[{"cover":"FEW","base":2100},{"cover":"SCT","base":2900}],"obsTime":1778936400},"SBPB":{"icaoId":"SBPB","flightCategory":"VFR","rawOb":"METAR SBPB 161300Z 03006KT 9999 FEW020 29/25 Q1014","temp":29,"dewp":25,"wdir":30,"wspd":6,"visib":"6+","altim":1014,"clouds":[{"cover":"FEW","base":2000}],"obsTime":1778936400},"SBPL":{"icaoId":"SBPL","flightCategory":"VFR","rawOb":"METAR SBPL 161300Z 11008KT 9999 FEW030 28/18 Q1017","temp":28,"dewp":18,"wdir":110,"wspd":8,"visib":"6+","altim":1017,"clouds":[{"cover":"FEW","base":3000}],"obsTime":1778936400},"SBPP":{"icaoId":"SBPP","flightCategory":"LIFR","rawOb":"METAR SBPP 161300Z 06007KT 0100 -DZ OVC001 18/17 Q1017 REDZ","temp":18,"dewp":17,"wdir":60,"wspd":7,"visib":0.06,"altim":1017,"clouds":[{"cover":"OVC","base":100}],"obsTime":1778936400},"SBPS":{"icaoId":"SBPS","flightCategory":"VFR","rawOb":"METAR SBPS 161300Z 12004KT 9999 SCT020 SCT030 28/21 Q1017","temp":28,"dewp":21,"wdir":120,"wspd":4,"visib":"6+","altim":1017,"clouds":[{"cover":"SCT","base":2000},{"cover":"SCT","base":3000}],"obsTime":1778936400},"SBSC":{"icaoId":"SBSC","flightCategory":"MVFR","rawOb":"METAR SBSC 161300Z 23007KT 7000 FEW010 24/21 Q1017","temp":24,"dewp":21,"wdir":230,"wspd":7,"visib":4.35,"altim":1017,"clouds":[{"cover":"FEW","base":1000}],"obsTime":1778936400},"SBSJ":{"icaoId":"SBSJ","flightCategory":"IFR","rawOb":"METAR SBSJ 161300Z 04003KT 2000 R34///// R16/P2000 BR OVC007 18/16 Q1020","temp":18,"dewp":16,"wdir":40,"wspd":3,"visib":1.24,"altim":1020,"clouds":[{"cover":"OVC","base":700}],"obsTime":1778936400},"SBSM":{"icaoId":"SBSM","flightCategory":"LIFR","rawOb":"METAR SBSM 161300Z 12003KT 0400 R29///// R11/0700N FG VV002 11/11 Q1017","temp":11,"dewp":11,"wdir":120,"wspd":3,"visib":0.25,"altim":1017,"clouds":[{"cover":"OVX","base":200}],"obsTime":1778936400},"SBSR":{"icaoId":"SBSR","flightCategory":"MVFR","rawOb":"METAR SBSR 161300Z 05003KT 8000 NSC 23/18 Q1019","temp":23,"dewp":18,"wdir":50,"wspd":3,"visib":4.97,"altim":1019,"clouds":[],"obsTime":1778936400},"SBTF":{"icaoId":"SBTF","flightCategory":"VFR","rawOb":"METAR SBTF 161300Z 36002KT 9999 SCT008 27/25 Q1014","temp":27,"dewp":25,"wdir":360,"wspd":2,"visib":"6+","altim":1014,"clouds":[{"cover":"SCT","base":800}],"obsTime":1778936400},"SBTT":{"icaoId":"SBTT","flightCategory":"IFR","rawOb":"METAR SBTT 161300Z 13002KT 7000 BKN006 24/22 Q1015","temp":24,"dewp":22,"wdir":130,"wspd":2,"visib":4.35,"altim":1015,"clouds":[{"cover":"BKN","base":600}],"obsTime":1778936400},"SBUY":{"icaoId":"SBUY","flightCategory":"LIFR","rawOb":"METAR SBUY 161300Z 19004KT 9999 BKN004 BKN100 24/23 Q1013","temp":24,"dewp":23,"wdir":190,"wspd":4,"visib":"6+","altim":1013,"clouds":[{"cover":"BKN","base":400},{"cover":"BKN","base":10000}],"obsTime":1778936400},"SBTU":{"icaoId":"SBTU","flightCategory":"VFR","rawOb":"METAR SBTU 161300Z AUTO 22003KT 120V260 9999 // FEW014/// ///// Q1017","temp":null,"dewp":null,"wdir":220,"wspd":3,"visib":"6+","altim":1017,"clouds":[{"cover":"FEW","base":1400}],"obsTime":1778936400},"SBJP":{"icaoId":"SBJP","flightCategory":"MVFR","rawOb":"METAR SBJP 161300Z 15006KT 9999 BKN020 BKN070 27/25 Q1015","temp":27,"dewp":25,"wdir":150,"wspd":6,"visib":"6+","altim":1015,"clouds":[{"cover":"BKN","base":2000},{"cover":"BKN","base":7000}],"obsTime":1778936400},"SBAN":{"icaoId":"SBAN","flightCategory":"VFR","rawOb":"METAR SBAN 161300Z 19010KT CAVOK 24/16 Q1023","temp":24,"dewp":16,"wdir":190,"wspd":10,"visib":"6+","altim":1023,"clouds":[],"obsTime":1778936400},"SBIH":{"icaoId":"SBIH","flightCategory":"VFR","rawOb":"METAR SBIH 161300Z 06005KT 9999 SCT010 SCT080 28/25 Q1015","temp":28,"dewp":25,"wdir":60,"wspd":5,"visib":"6+","altim":1015,"clouds":[{"cover":"SCT","base":1000},{"cover":"SCT","base":8000}],"obsTime":1778936400},"SBJV":{"icaoId":"SBJV","flightCategory":"VFR","rawOb":"METAR SBJV 161300Z 32002KT 9999 SCT008 BKN035 BKN070 19/17 Q1017","temp":19,"dewp":17,"wdir":320,"wspd":2,"visib":"6+","altim":1017,"clouds":[{"cover":"SCT","base":800},{"cover":"BKN","base":3500},{"cover":"BKN","base":7000}],"obsTime":1778936400},"SBNM":{"icaoId":"SBNM","flightCategory":"VFR","rawOb":"METAR SBNM 161300Z AUTO 08003KT CAVOK 14/12 Q1016","temp":14,"dewp":12,"wdir":80,"wspd":3,"visib":"6+","altim":1016,"clouds":[],"obsTime":1778936400},"SBPF":{"icaoId":"SBPF","flightCategory":"VFR","rawOb":"METAR SBPF 161300Z 10007KT CAVOK 15/12 Q1017","temp":15,"dewp":12,"wdir":100,"wspd":7,"visib":"6+","altim":1017,"clouds":[],"obsTime":1778936400},"SBLE":{"icaoId":"SBLE","flightCategory":"VFR","rawOb":"METAR SBLE 161300Z AUTO 11004KT 050V170 9999 SCT025 24/18 Q1020","temp":24,"dewp":18,"wdir":110,"wspd":4,"visib":"6+","altim":1020,"clouds":[{"cover":"SCT","base":2500}],"obsTime":1778936400},"SBAF":{"icaoId":"SBAF","flightCategory":"MVFR","rawOb":"METAR SBAF 161300Z VRB02KT 5000 BR FEW020 26/23 Q1017","temp":26,"dewp":23,"wdir":"VRB","wspd":2,"visib":3.11,"altim":1017,"clouds":[{"cover":"FEW","base":2000}],"obsTime":1778936400},"SBGW":{"icaoId":"SBGW","flightCategory":"MVFR","rawOb":"METAR SBGW 161300Z 34003KT 240V050 5000 HZ BKN015 22/15 Q1020","temp":22,"dewp":15,"wdir":340,"wspd":3,"visib":3.11,"altim":1020,"clouds":[{"cover":"BKN","base":1500}],"obsTime":1778936400},"SBJR":{"icaoId":"SBJR","flightCategory":"MVFR","rawOb":"METAR SBJR 161300Z 07002KT 7000 FEW018 29/21 Q1017","temp":29,"dewp":21,"wdir":70,"wspd":2,"visib":4.35,"altim":1017,"clouds":[{"cover":"FEW","base":1800}],"obsTime":1778936400},"SBLS":{"icaoId":"SBLS","flightCategory":"VFR","rawOb":"METAR SBLS 161300Z 16004KT 100V170 9999 FEW015 23/18 Q1021","temp":23,"dewp":18,"wdir":160,"wspd":4,"visib":"6+","altim":1021,"clouds":[{"cover":"FEW","base":1500}],"obsTime":1778936400},"SBMT":{"icaoId":"SBMT","flightCategory":"VFR","rawOb":"METAR SBMT 161300Z 10003KT CAVOK 19/16 Q1020","temp":19,"dewp":16,"wdir":100,"wspd":3,"visib":"6+","altim":1020,"clouds":[],"obsTime":1778936400},"SBST":{"icaoId":"SBST","flightCategory":"VFR","rawOb":"METAR SBST 161300Z 26002KT 9000 FEW015 23/18 Q1017","temp":23,"dewp":18,"wdir":260,"wspd":2,"visib":5.59,"altim":1017,"clouds":[{"cover":"FEW","base":1500}],"obsTime":1778936400},"SBTA":{"icaoId":"SBTA","flightCategory":"IFR","rawOb":"METAR SBTA 161300Z VRB02KT 4000 BR FEW007 BKN011 19/17 Q1019","temp":19,"dewp":17,"wdir":"VRB","wspd":2,"visib":2.49,"altim":1019,"clouds":[{"cover":"FEW","base":700},{"cover":"BKN","base":1100}],"obsTime":1778936400}}}