{"updated":1778680724,"count":88,"data":{"SBAT":{"icaoId":"SBAT","flightCategory":"VFR","rawOb":"METAR SBAT 131200Z 19003KT CAVOK 28/23 Q1016","temp":28,"dewp":23,"wdir":190,"wspd":3,"visib":"6+","altim":1016,"clouds":[],"obsTime":1778673600},"SBBE":{"icaoId":"SBBE","flightCategory":"VFR","rawOb":"METAR SBBE 131200Z 07003KT 9999 FEW007 BKN100 25/24 Q1015","temp":25,"dewp":24,"wdir":70,"wspd":3,"visib":"6+","altim":1015,"clouds":[{"cover":"FEW","base":700},{"cover":"BKN","base":10000}],"obsTime":1778673600},"SBBR":{"icaoId":"SBBR","flightCategory":"VFR","rawOb":"METAR SBBR 131200Z 05003KT 010V130 CAVOK 22/16 Q1023","temp":22,"dewp":16,"wdir":50,"wspd":3,"visib":"6+","altim":1023,"clouds":[],"obsTime":1778673600},"SBBV":{"icaoId":"SBBV","flightCategory":"MVFR","rawOb":"METAR SBBV 131200Z 30003KT 8000 -RA SCT007 FEW035TCU BKN080 24/24 Q1016","temp":24,"dewp":24,"wdir":300,"wspd":3,"visib":4.97,"altim":1016,"clouds":[{"cover":"SCT","base":700},{"cover":"FEW","base":3500},{"cover":"BKN","base":8000}],"obsTime":1778673600},"SBCB":{"icaoId":"SBCB","flightCategory":"VFR","rawOb":"METAR SBCB 131200Z 06013KT CAVOK 24/17 Q1018","temp":24,"dewp":17,"wdir":60,"wspd":13,"visib":"6+","altim":1018,"clouds":[],"obsTime":1778673600},"SBCF":{"icaoId":"SBCF","flightCategory":"VFR","rawOb":"METAR SBCF 131200Z 11003KT 070V190 9999 FEW030 SCT100 22/18 Q1022","temp":22,"dewp":18,"wdir":110,"wspd":3,"visib":"6+","altim":1022,"clouds":[{"cover":"FEW","base":3000},{"cover":"SCT","base":10000}],"obsTime":1778673600},"SBCG":{"icaoId":"SBCG","flightCategory":"VFR","rawOb":"METAR SBCG 131200Z 07005KT CAVOK 18/10 Q1019","temp":18,"dewp":10,"wdir":70,"wspd":5,"visib":"6+","altim":1019,"clouds":[],"obsTime":1778673600},"SBCP":{"icaoId":"SBCP","flightCategory":"VFR","rawOb":"METAR SBCP 131200Z 33004KT CAVOK 23/18 Q1019","temp":23,"dewp":18,"wdir":330,"wspd":4,"visib":"6+","altim":1019,"clouds":[],"obsTime":1778673600},"SBCR":{"icaoId":"SBCR","flightCategory":"VFR","rawOb":"METAR SBCR 131200Z VRB02KT CAVOK 18/15 Q1018","temp":18,"dewp":15,"wdir":"VRB","wspd":2,"visib":"6+","altim":1018,"clouds":[],"obsTime":1778673600},"SBCT":{"icaoId":"SBCT","flightCategory":"MVFR","rawOb":"METAR SBCT 131200Z VRB01KT 8000 NSC 11/08 Q1021","temp":11,"dewp":8,"wdir":"VRB","wspd":1,"visib":4.97,"altim":1021,"clouds":[],"obsTime":1778673600},"SBCZ":{"icaoId":"SBCZ","flightCategory":"LIFR","rawOb":"METAR SBCZ 131200Z 19002KT 0800 FG NSC 20/20 Q1018","temp":20,"dewp":20,"wdir":190,"wspd":2,"visib":0.5,"altim":1018,"clouds":[],"obsTime":1778673600},"SBEG":{"icaoId":"SBEG","flightCategory":"LIFR","rawOb":"METAR SBEG 131200Z 33003KT 9999 BKN002 BKN080 24/24 Q1016","temp":24,"dewp":24,"wdir":330,"wspd":3,"visib":"6+","altim":1016,"clouds":[{"cover":"BKN","base":200},{"cover":"BKN","base":8000}],"obsTime":1778673600},"SBFI":{"icaoId":"SBFI","flightCategory":"VFR","rawOb":"METAR SBFI 131200Z 11004KT 9999 FEW005 12/12 Q1019","temp":12,"dewp":12,"wdir":110,"wspd":4,"visib":"6+","altim":1019,"clouds":[{"cover":"FEW","base":500}],"obsTime":1778673600},"SBFL":{"icaoId":"SBFL","flightCategory":"VFR","rawOb":"METAR SBFL 131200Z VRB02KT CAVOK 16/08 Q1017","temp":16,"dewp":8,"wdir":"VRB","wspd":2,"visib":"6+","altim":1017,"clouds":[],"obsTime":1778673600},"SBFZ":{"icaoId":"SBFZ","flightCategory":"VFR","rawOb":"METAR SBFZ 131200Z 16007KT 9000 -RA FEW017 OVC050 25/22 Q1015","temp":25,"dewp":22,"wdir":160,"wspd":7,"visib":5.59,"altim":1015,"clouds":[{"cover":"FEW","base":1700},{"cover":"OVC","base":5000}],"obsTime":1778673600},"SBGL":{"icaoId":"SBGL","flightCategory":"MVFR","rawOb":"METAR SBGL 131200Z 35004KT 6000 NSC 21/17 Q1018","temp":21,"dewp":17,"wdir":350,"wspd":4,"visib":3.73,"altim":1018,"clouds":[],"obsTime":1778673600},"SBGO":{"icaoId":"SBGO","flightCategory":"VFR","rawOb":"METAR SBGO 131200Z 15006KT CAVOK 22/18 Q1020","temp":22,"dewp":18,"wdir":150,"wspd":6,"visib":"6+","altim":1020,"clouds":[],"obsTime":1778673600},"SBGR":{"icaoId":"SBGR","flightCategory":"MVFR","rawOb":"METAR SBGR 131200Z 04004KT 7000 FEW003 14/13 Q1021","temp":14,"dewp":13,"wdir":40,"wspd":4,"visib":4.35,"altim":1021,"clouds":[{"cover":"FEW","base":300}],"obsTime":1778673600},"SBHT":{"icaoId":"SBHT","flightCategory":"VFR","rawOb":"METAR SBHT 131200Z 28002KT 9999 SCT012 BKN080 26/25 Q1015","temp":26,"dewp":25,"wdir":280,"wspd":2,"visib":"6+","altim":1015,"clouds":[{"cover":"SCT","base":1200},{"cover":"BKN","base":8000}],"obsTime":1778673600},"SBIL":{"icaoId":"SBIL","flightCategory":"MVFR","rawOb":"METAR SBIL 131200Z COR 02004KT 330V060 8000 VCSH FEW015 SCT020 BKN050 24/23 Q1019","temp":24,"dewp":23,"wdir":20,"wspd":4,"visib":4.97,"altim":1019,"clouds":[{"cover":"FEW","base":1500},{"cover":"SCT","base":2000},{"cover":"BKN","base":5000}],"obsTime":1778673600},"SBJU":{"icaoId":"SBJU","flightCategory":"VFR","rawOb":"METAR SBJU 131200Z 12008KT 9999 SCT020 BKN070 26/21 Q1018","temp":26,"dewp":21,"wdir":120,"wspd":8,"visib":"6+","altim":1018,"clouds":[{"cover":"SCT","base":2000},{"cover":"BKN","base":7000}],"obsTime":1778673600},"SBKP":{"icaoId":"SBKP","flightCategory":"MVFR","rawOb":"METAR SBKP 131200Z VRB02KT 8000 NSC 16/12 Q1021","temp":16,"dewp":12,"wdir":"VRB","wspd":2,"visib":4.97,"altim":1021,"clouds":[],"obsTime":1778673600},"SBLO":{"icaoId":"SBLO","flightCategory":"VFR","rawOb":"METAR SBLO 131200Z 20003KT 150V230 CAVOK 13/09 Q1020","temp":13,"dewp":9,"wdir":200,"wspd":3,"visib":"6+","altim":1020,"clouds":[],"obsTime":1778673600},"SBMA":{"icaoId":"SBMA","flightCategory":"VFR","rawOb":"METAR SBMA 131200Z 00000KT 9999 FEW020 BKN100 26/24 Q1015","temp":26,"dewp":24,"wdir":0,"wspd":0,"visib":"6+","altim":1015,"clouds":[{"cover":"FEW","base":2000},{"cover":"BKN","base":10000}],"obsTime":1778673600},"SBME":{"icaoId":"SBME","flightCategory":"VFR","rawOb":"METAR SBME 131200Z 08011KT 9999 FEW030 25/15 Q1018","temp":25,"dewp":15,"wdir":80,"wspd":11,"visib":"6+","altim":1018,"clouds":[{"cover":"FEW","base":3000}],"obsTime":1778673600},"SBMG":{"icaoId":"SBMG","flightCategory":"VFR","rawOb":"METAR SBMG 131200Z 15002KT 9999 BCFG NSC 14/10 Q1019","temp":14,"dewp":10,"wdir":150,"wspd":2,"visib":"6+","altim":1019,"clouds":[],"obsTime":1778673600},"SBMK":{"icaoId":"SBMK","flightCategory":"VFR","rawOb":"METAR SBMK 131200Z 08004KT CAVOK 23/17 Q1022","temp":23,"dewp":17,"wdir":80,"wspd":4,"visib":"6+","altim":1022,"clouds":[],"obsTime":1778673600},"SBMO":{"icaoId":"SBMO","flightCategory":"VFR","rawOb":"METAR SBMO 131200Z 14006KT 9999 SCT025 SCT055 27/24 Q1017","temp":27,"dewp":24,"wdir":140,"wspd":6,"visib":"6+","altim":1017,"clouds":[{"cover":"SCT","base":2500},{"cover":"SCT","base":5500}],"obsTime":1778673600},"SBMQ":{"icaoId":"SBMQ","flightCategory":"IFR","rawOb":"METAR SBMQ 131200Z 02008KT 2500 RA BR BKN009 SCT020 OVC070 24/24 Q1017","temp":24,"dewp":24,"wdir":20,"wspd":8,"visib":1.55,"altim":1017,"clouds":[{"cover":"BKN","base":900},{"cover":"SCT","base":2000},{"cover":"OVC","base":7000}],"obsTime":1778673600},"SBNT":{"icaoId":"SBNT","flightCategory":"MVFR","rawOb":"METAR SBNT 131200Z 18013KT 9999 BKN025 FEW030TCU BKN100 26/23 Q1015","temp":26,"dewp":23,"wdir":180,"wspd":13,"visib":"6+","altim":1015,"clouds":[{"cover":"BKN","base":2500},{"cover":"FEW","base":3000},{"cover":"BKN","base":10000}],"obsTime":1778673600},"SBPA":{"icaoId":"SBPA","flightCategory":"VFR","rawOb":"METAR SBPA 131200Z 28003KT 240V310 CAVOK 12/08 Q1019","temp":12,"dewp":8,"wdir":280,"wspd":3,"visib":"6+","altim":1019,"clouds":[],"obsTime":1778673600},"SBPJ":{"icaoId":"SBPJ","flightCategory":"VFR","rawOb":"METAR SBPJ 131200Z 17007KT CAVOK 28/21 Q1016","temp":28,"dewp":21,"wdir":170,"wspd":7,"visib":"6+","altim":1016,"clouds":[],"obsTime":1778673600},"SBPV":{"icaoId":"SBPV","flightCategory":"VFR","rawOb":"METAR SBPV 131200Z VRB02KT CAVOK 24/21 Q1015","temp":24,"dewp":21,"wdir":"VRB","wspd":2,"visib":"6+","altim":1015,"clouds":[],"obsTime":1778673600},"SBRB":{"icaoId":"SBRB","flightCategory":"VFR","rawOb":"METAR SBRB 131200Z 00000KT 9999 FEW030 BKN100 20/19 Q1017","temp":20,"dewp":19,"wdir":0,"wspd":0,"visib":"6+","altim":1017,"clouds":[{"cover":"FEW","base":3000},{"cover":"BKN","base":10000}],"obsTime":1778673600},"SBRF":{"icaoId":"SBRF","flightCategory":"VFR","rawOb":"METAR SBRF 131200Z COR 15010KT 9999 VCSH SCT022 BKN070 28/24 Q1015","temp":28,"dewp":24,"wdir":150,"wspd":10,"visib":"6+","altim":1015,"clouds":[{"cover":"SCT","base":2200},{"cover":"BKN","base":7000}],"obsTime":1778673600},"SBSG":{"icaoId":"SBSG","flightCategory":"MVFR","rawOb":"METAR SBSG 131200Z 18007KT 140V210 9999 BKN011 BKN025 25/23 Q1015","temp":25,"dewp":23,"wdir":180,"wspd":7,"visib":"6+","altim":1015,"clouds":[{"cover":"BKN","base":1100},{"cover":"BKN","base":2500}],"obsTime":1778673600},"SBSL":{"icaoId":"SBSL","flightCategory":"VFR","rawOb":"METAR SBSL 131200Z 15003KT 9999 SCT020 BKN100 26/24 Q1014","temp":26,"dewp":24,"wdir":150,"wspd":3,"visib":"6+","altim":1014,"clouds":[{"cover":"SCT","base":2000},{"cover":"BKN","base":10000}],"obsTime":1778673600},"SBSN":{"icaoId":"SBSN","flightCategory":"MVFR","rawOb":"METAR SBSN 131200Z 35003KT 5000 -RA FEW006 BKN013 OVC100 25/24 Q1016","temp":25,"dewp":24,"wdir":350,"wspd":3,"visib":3.11,"altim":1016,"clouds":[{"cover":"FEW","base":600},{"cover":"BKN","base":1300},{"cover":"OVC","base":10000}],"obsTime":1778673600},"SBSP":{"icaoId":"SBSP","flightCategory":"VFR","rawOb":"METAR SBSP 131200Z 02003KT 330V060 CAVOK 16/12 Q1022","temp":16,"dewp":12,"wdir":20,"wspd":3,"visib":"6+","altim":1022,"clouds":[],"obsTime":1778673600},"SBSV":{"icaoId":"SBSV","flightCategory":"VFR","rawOb":"METAR SBSV 131200Z 14007KT 110V170 9999 FEW029 28/22 Q1017","temp":28,"dewp":22,"wdir":140,"wspd":7,"visib":"6+","altim":1017,"clouds":[{"cover":"FEW","base":2900}],"obsTime":1778673600},"SBTE":{"icaoId":"SBTE","flightCategory":"VFR","rawOb":"METAR SBTE 131200Z 16005KT 110V190 9999 FEW015 SCT020 28/24 Q1014","temp":28,"dewp":24,"wdir":160,"wspd":5,"visib":"6+","altim":1014,"clouds":[{"cover":"FEW","base":1500},{"cover":"SCT","base":2000}],"obsTime":1778673600},"SBUL":{"icaoId":"SBUL","flightCategory":"VFR","rawOb":"METAR SBUL 131200Z 13006KT 9999 FEW040 SCT070 22/13 Q1022","temp":22,"dewp":13,"wdir":130,"wspd":6,"visib":"6+","altim":1022,"clouds":[{"cover":"FEW","base":4000},{"cover":"SCT","base":7000}],"obsTime":1778673600},"SBUR":{"icaoId":"SBUR","flightCategory":"VFR","rawOb":"METAR SBUR 131200Z 04004KT CAVOK 22/10 Q1021","temp":22,"dewp":10,"wdir":40,"wspd":4,"visib":"6+","altim":1021,"clouds":[],"obsTime":1778673600},"SBVT":{"icaoId":"SBVT","flightCategory":"VFR","rawOb":"METAR SBVT 131200Z 30005KT 9999 BKN048 25/18 Q1019","temp":25,"dewp":18,"wdir":300,"wspd":5,"visib":"6+","altim":1019,"clouds":[{"cover":"BKN","base":4800}],"obsTime":1778673600},"SBAR":{"icaoId":"SBAR","flightCategory":"VFR","rawOb":"METAR SBAR 131200Z 14009KT 9999 VCSH SCT025 28/23 Q1017","temp":28,"dewp":23,"wdir":140,"wspd":9,"visib":"6+","altim":1017,"clouds":[{"cover":"SCT","base":2500}],"obsTime":1778673600},"SBTF":{"icaoId":"SBTF","flightCategory":"IFR","rawOb":"METAR SBTF 131200Z 15002KT 9999 BKN005 BKN100 23/23 Q1016","temp":23,"dewp":23,"wdir":150,"wspd":2,"visib":"6+","altim":1016,"clouds":[{"cover":"BKN","base":500},{"cover":"BKN","base":10000}],"obsTime":1778673600},"SBAU":{"icaoId":"SBAU","flightCategory":"VFR","rawOb":"METAR SBAU 131300Z 09006KT CAVOK 20/12 Q1020","temp":20,"dewp":12,"wdir":90,"wspd":6,"visib":"6+","altim":1020,"clouds":[],"obsTime":1778677200},"SBAX":{"icaoId":"SBAX","flightCategory":"VFR","rawOb":"METAR SBAX 131200Z 06003KT 9999 SCT030 20/18 Q1022","temp":20,"dewp":18,"wdir":60,"wspd":3,"visib":"6+","altim":1022,"clouds":[{"cover":"SCT","base":3000}],"obsTime":1778673600},"SBSR":{"icaoId":"SBSR","flightCategory":"VFR","rawOb":"METAR SBSR 131200Z 10004KT CAVOK 20/07 Q1020","temp":20,"dewp":7,"wdir":100,"wspd":4,"visib":"6+","altim":1020,"clouds":[],"obsTime":1778673600},"SBBH":{"icaoId":"SBBH","flightCategory":"VFR","rawOb":"METAR SBBH 131200Z 11008KT CAVOK 22/17 Q1022","temp":22,"dewp":17,"wdir":110,"wspd":8,"visib":"6+","altim":1022,"clouds":[],"obsTime":1778673600},"SBBQ":{"icaoId":"SBBQ","flightCategory":"MVFR","rawOb":"METAR SBBQ 131200Z 35004KT 310V030 6000 SCT011 BKN016 BKN026 18/16 Q1025","temp":18,"dewp":16,"wdir":350,"wspd":4,"visib":3.73,"altim":1025,"clouds":[{"cover":"SCT","base":1100},{"cover":"BKN","base":1600},{"cover":"BKN","base":2600}],"obsTime":1778673600},"SBBU":{"icaoId":"SBBU","flightCategory":"VFR","rawOb":"METAR SBBU 131200Z 12006KT CAVOK 18/11 Q1020","temp":18,"dewp":11,"wdir":120,"wspd":6,"visib":"6+","altim":1020,"clouds":[],"obsTime":1778673600},"SBCA":{"icaoId":"SBCA","flightCategory":"VFR","rawOb":"METAR SBCA 131200Z 12003KT CAVOK 16/09 Q1021","temp":16,"dewp":9,"wdir":120,"wspd":3,"visib":"6+","altim":1021,"clouds":[],"obsTime":1778673600},"SBCC":{"icaoId":"SBCC","flightCategory":"VFR","rawOb":"METAR SBCC 131200Z /////KT 9999 SCT025 SCT100 ///// Q1018","temp":null,"dewp":null,"wdir":null,"wspd":null,"visib":"6+","altim":1018,"clouds":[{"cover":"SCT","base":2500},{"cover":"SCT","base":10000}],"obsTime":1778673600},"SBCJ":{"icaoId":"SBCJ","flightCategory":"VFR","rawOb":"METAR SBCJ 131200Z 21002KT 9999 FEW010 BKN080 27/21 Q1019","temp":27,"dewp":21,"wdir":210,"wspd":2,"visib":"6+","altim":1019,"clouds":[{"cover":"FEW","base":1000},{"cover":"BKN","base":8000}],"obsTime":1778673600},"SBCO":{"icaoId":"SBCO","flightCategory":"VFR","rawOb":"METAR SBCO 131200Z 27003KT 230V320 CAVOK 13/08 Q1019","temp":13,"dewp":8,"wdir":270,"wspd":3,"visib":"6+","altim":1019,"clouds":[],"obsTime":1778673600},"SBDN":{"icaoId":"SBDN","flightCategory":"VFR","rawOb":"METAR SBDN 131200Z 00000KT CAVOK 15/11 Q1020","temp":15,"dewp":11,"wdir":0,"wspd":0,"visib":"6+","altim":1020,"clouds":[],"obsTime":1778673600},"SBES":{"icaoId":"SBES","flightCategory":"VFR","rawOb":"METAR SBES 131200Z VRB09KT CAVOK 23/// Q1018","temp":null,"dewp":null,"wdir":"VRB","wspd":9,"visib":"6+","altim":1018,"clouds":[],"obsTime":1778673600},"SBGM":{"icaoId":"SBGM","flightCategory":"VFR","rawOb":"METAR SBGM 131200Z 18002KT 9999 SCT040 BKN100 20/19 Q1017","temp":20,"dewp":19,"wdir":180,"wspd":2,"visib":"6+","altim":1017,"clouds":[{"cover":"SCT","base":4000},{"cover":"BKN","base":10000}],"obsTime":1778673600},"SBIP":{"icaoId":"SBIP","flightCategory":"VFR","rawOb":"METAR SBIP 131200Z AUTO 01007KT 340V040 9999 FEW018 OVC046 24/19 Q1021","temp":24,"dewp":19,"wdir":10,"wspd":7,"visib":"6+","altim":1021,"clouds":[{"cover":"FEW","base":1800},{"cover":"OVC","base":4600}],"obsTime":1778673600},"SBKG":{"icaoId":"SBKG","flightCategory":"VFR","rawOb":"METAR SBKG 131200Z 10006KT 9999 SCT013 OVC070 24/22 Q1018","temp":24,"dewp":22,"wdir":100,"wspd":6,"visib":"6+","altim":1018,"clouds":[{"cover":"SCT","base":1300},{"cover":"OVC","base":7000}],"obsTime":1778673600},"SBOI":{"icaoId":"SBOI","flightCategory":"VFR","rawOb":"METAR SBOI 131200Z AUTO 35007KT 9999 -RA FEW023 26/24 Q1016","temp":26,"dewp":24,"wdir":350,"wspd":7,"visib":"6+","altim":1016,"clouds":[{"cover":"FEW","base":2300}],"obsTime":1778673600},"SBPB":{"icaoId":"SBPB","flightCategory":"VFR","rawOb":"METAR SBPB 131200Z 11009KT 9999 FEW020 29/25 Q1013","temp":29,"dewp":25,"wdir":110,"wspd":9,"visib":"6+","altim":1013,"clouds":[{"cover":"FEW","base":2000}],"obsTime":1778673600},"SBPL":{"icaoId":"SBPL","flightCategory":"VFR","rawOb":"METAR SBPL 131200Z 12010KT 9999 SCT025 SCT070 27/19 Q1018","temp":27,"dewp":19,"wdir":120,"wspd":10,"visib":"6+","altim":1018,"clouds":[{"cover":"SCT","base":2500},{"cover":"SCT","base":7000}],"obsTime":1778673600},"SBPP":{"icaoId":"SBPP","flightCategory":"VFR","rawOb":"METAR SBPP 131200Z 06005KT CAVOK 14/09 Q1020","temp":14,"dewp":9,"wdir":60,"wspd":5,"visib":"6+","altim":1020,"clouds":[],"obsTime":1778673600},"SBPS":{"icaoId":"SBPS","flightCategory":"MVFR","rawOb":"METAR SBPS 131200Z 25004KT 210V270 5000 BR SCT001 OVC040 23/23 Q1019 RERA","temp":23,"dewp":23,"wdir":250,"wspd":4,"visib":3.11,"altim":1019,"clouds":[{"cover":"SCT","base":100},{"cover":"OVC","base":4000}],"obsTime":1778673600},"SBSC":{"icaoId":"SBSC","flightCategory":"VFR","rawOb":"METAR SBSC 131200Z 04007KT CAVOK 23/18 Q1018","temp":23,"dewp":18,"wdir":40,"wspd":7,"visib":"6+","altim":1018,"clouds":[],"obsTime":1778673600},"SBSJ":{"icaoId":"SBSJ","flightCategory":"LIFR","rawOb":"METAR SBSJ 131200Z VRB02KT 1800 R34///// R16/P2000N BR OVC003 13/13 Q1021","temp":13,"dewp":13,"wdir":"VRB","wspd":2,"visib":1.12,"altim":1021,"clouds":[{"cover":"OVC","base":300}],"obsTime":1778673600},"SBSM":{"icaoId":"SBSM","flightCategory":"VFR","rawOb":"METAR SBSM 131200Z 00000KT CAVOK 12/12 Q1019","temp":12,"dewp":12,"wdir":0,"wspd":0,"visib":"6+","altim":1019,"clouds":[],"obsTime":1778673600},"SBTD":{"icaoId":"SBTD","flightCategory":"VFR","rawOb":"METAR SBTD 131200Z /////KT CAVOK 14/09 Q1020","temp":14,"dewp":9,"wdir":null,"wspd":null,"visib":"6+","altim":1020,"clouds":[],"obsTime":1778673600},"SBTT":{"icaoId":"SBTT","flightCategory":"MVFR","rawOb":"METAR SBTT 131200Z 14002KT 9999 OVC015 21/19 Q1017","temp":21,"dewp":19,"wdir":140,"wspd":2,"visib":"6+","altim":1017,"clouds":[{"cover":"OVC","base":1500}],"obsTime":1778673600},"SBTU":{"icaoId":"SBTU","flightCategory":"VFR","rawOb":"METAR SBTU 131200Z AUTO 16006KT 130V200 9999 // ///////// ///// Q1017","temp":null,"dewp":null,"wdir":160,"wspd":6,"visib":"6+","altim":1017,"clouds":[],"obsTime":1778673600},"SBUY":{"icaoId":"SBUY","flightCategory":"IFR","rawOb":"METAR SBUY 131200Z 00000KT 4000 BR SCT004 BKN070 22/21 Q1015","temp":22,"dewp":21,"wdir":0,"wspd":0,"visib":2.49,"altim":1015,"clouds":[{"cover":"SCT","base":400},{"cover":"BKN","base":7000}],"obsTime":1778673600},"SBVH":{"icaoId":"SBVH","flightCategory":"VFR","rawOb":"METAR SBVH 131200Z 09002KT CAVOK 21/18 Q1018","temp":21,"dewp":18,"wdir":90,"wspd":2,"visib":"6+","altim":1018,"clouds":[],"obsTime":1778673600},"SBJR":{"icaoId":"SBJR","flightCategory":"VFR","rawOb":"METAR SBJR 131200Z 01003KT CAVOK 24/17 Q1018","temp":24,"dewp":17,"wdir":10,"wspd":3,"visib":"6+","altim":1018,"clouds":[],"obsTime":1778673600},"SBLS":{"icaoId":"SBLS","flightCategory":"VFR","rawOb":"METAR SBLS 131200Z 14004KT 9999 FEW010 SCT100 21/18 Q1022","temp":21,"dewp":18,"wdir":140,"wspd":4,"visib":"6+","altim":1022,"clouds":[{"cover":"FEW","base":1000},{"cover":"SCT","base":10000}],"obsTime":1778673600},"SBJP":{"icaoId":"SBJP","flightCategory":"VFR","rawOb":"METAR SBJP 131200Z VRB04KT 9999 SCT012 BKN070 25/24 Q1016","temp":25,"dewp":24,"wdir":"VRB","wspd":4,"visib":"6+","altim":1016,"clouds":[{"cover":"SCT","base":1200},{"cover":"BKN","base":7000}],"obsTime":1778673600},"SBMT":{"icaoId":"SBMT","flightCategory":"VFR","rawOb":"METAR SBMT 131200Z 00000KT CAVOK 15/11 Q1021","temp":15,"dewp":11,"wdir":0,"wspd":0,"visib":"6+","altim":1021,"clouds":[],"obsTime":1778673600},"SBAN":{"icaoId":"SBAN","flightCategory":"VFR","rawOb":"METAR SBAN 131200Z 21008KT CAVOK 23/17 Q1023","temp":23,"dewp":17,"wdir":210,"wspd":8,"visib":"6+","altim":1023,"clouds":[],"obsTime":1778673600},"SBST":{"icaoId":"SBST","flightCategory":"VFR","rawOb":"METAR SBST 131200Z 00000KT CAVOK 19/14 Q1018","temp":19,"dewp":14,"wdir":0,"wspd":0,"visib":"6+","altim":1018,"clouds":[],"obsTime":1778673600},"SBTA":{"icaoId":"SBTA","flightCategory":"MVFR","rawOb":"METAR SBTA 131200Z 00000KT 6000 SCT007 15/14 Q1020","temp":15,"dewp":14,"wdir":0,"wspd":0,"visib":3.73,"altim":1020,"clouds":[{"cover":"SCT","base":700}],"obsTime":1778673600},"SBIH":{"icaoId":"SBIH","flightCategory":"IFR","rawOb":"METAR SBIH 131200Z 23005KT 7000 BKN008 26/24 Q1015","temp":26,"dewp":24,"wdir":230,"wspd":5,"visib":4.35,"altim":1015,"clouds":[{"cover":"BKN","base":800}],"obsTime":1778673600},"SBLE":{"icaoId":"SBLE","flightCategory":"VFR","rawOb":"METAR SBLE 131200Z AUTO 10004KT 9999 FEW015 23/21 Q1021","temp":23,"dewp":21,"wdir":100,"wspd":4,"visib":"6+","altim":1021,"clouds":[{"cover":"FEW","base":1500}],"obsTime":1778673600},"SBNM":{"icaoId":"SBNM","flightCategory":"VFR","rawOb":"METAR SBNM 131200Z AUTO 13006KT 100V170 CAVOK 06/05 Q1020","temp":6,"dewp":5,"wdir":130,"wspd":6,"visib":"6+","altim":1020,"clouds":[],"obsTime":1778673600},"SBAF":{"icaoId":"SBAF","flightCategory":"VFR","rawOb":"METAR SBAF 131200Z 33002KT CAVOK 22/18 Q1018","temp":22,"dewp":18,"wdir":330,"wspd":2,"visib":"6+","altim":1018,"clouds":[],"obsTime":1778673600},"SBJV":{"icaoId":"SBJV","flightCategory":"VFR","rawOb":"METAR SBJV 131200Z 11003KT CAVOK 14/13 Q1019","temp":14,"dewp":13,"wdir":110,"wspd":3,"visib":"6+","altim":1019,"clouds":[],"obsTime":1778673600},"SBPF":{"icaoId":"SBPF","flightCategory":"VFR","rawOb":"METAR SBPF 131200Z 03010KT CAVOK 09/06 Q1020","temp":9,"dewp":6,"wdir":30,"wspd":10,"visib":"6+","altim":1020,"clouds":[],"obsTime":1778673600},"SBGW":{"icaoId":"SBGW","flightCategory":"MVFR","rawOb":"METAR SBGW 131200Z VRB02KT 6000 NSC 17/11 Q1021","temp":17,"dewp":11,"wdir":"VRB","wspd":2,"visib":3.73,"altim":1021,"clouds":[],"obsTime":1778673600}}}