{"updated":1777154199,"count":83,"data":{"SBTE":{"icaoId":"SBTE","flightCategory":"VFR","rawOb":"METAR SBTE 252000Z 31004KT 9999 SCT020 FEW025TCU 31/23 Q1009","temp":31,"dewp":23,"wdir":310,"wspd":4,"visib":"6+","altim":1009,"clouds":[{"cover":"SCT","base":2000},{"cover":"FEW","base":2500}],"obsTime":1777147200},"SBMA":{"icaoId":"SBMA","flightCategory":"VFR","rawOb":"METAR SBMA 252000Z 35007KT 9999 SCT020 BKN100 28/24 Q1009","temp":28,"dewp":24,"wdir":350,"wspd":7,"visib":"6+","altim":1009,"clouds":[{"cover":"SCT","base":2000},{"cover":"BKN","base":10000}],"obsTime":1777147200},"SBEG":{"icaoId":"SBEG","flightCategory":"VFR","rawOb":"METAR SBEG 252000Z 26011KT 9999 VCSH SCT006 SCT025 FEW030TCU 26/24 Q1009 RETS","temp":26,"dewp":24,"wdir":260,"wspd":11,"visib":"6+","altim":1009,"clouds":[{"cover":"SCT","base":600},{"cover":"SCT","base":2500},{"cover":"FEW","base":3000}],"obsTime":1777147200},"SBFI":{"icaoId":"SBFI","flightCategory":"VFR","rawOb":"METAR SBFI 252000Z 13005KT 9999 FEW030 FEW040TCU BKN100 27/23 Q1010","temp":27,"dewp":23,"wdir":130,"wspd":5,"visib":"6+","altim":1010,"clouds":[{"cover":"FEW","base":3000},{"cover":"FEW","base":4000},{"cover":"BKN","base":10000}],"obsTime":1777147200},"SBME":{"icaoId":"SBME","flightCategory":"VFR","rawOb":"METAR SBME 252000Z 10005KT CAVOK 28/23 Q1010","temp":28,"dewp":23,"wdir":100,"wspd":5,"visib":"6+","altim":1010,"clouds":[],"obsTime":1777147200},"SBBV":{"icaoId":"SBBV","flightCategory":"VFR","rawOb":"METAR SBBV 252000Z 12007KT 9999 SCT040 FEW045TCU 32/21 Q1007","temp":32,"dewp":21,"wdir":120,"wspd":7,"visib":"6+","altim":1007,"clouds":[{"cover":"SCT","base":4000},{"cover":"FEW","base":4500}],"obsTime":1777147200},"SBMG":{"icaoId":"SBMG","flightCategory":"VFR","rawOb":"METAR SBMG 252000Z 27008KT 9999 FEW045 30/15 Q1012","temp":30,"dewp":15,"wdir":270,"wspd":8,"visib":"6+","altim":1012,"clouds":[{"cover":"FEW","base":4500}],"obsTime":1777147200},"SBFL":{"icaoId":"SBFL","flightCategory":"VFR","rawOb":"METAR SBFL 252000Z 11010KT 9999 FEW040 24/21 Q1010","temp":24,"dewp":21,"wdir":110,"wspd":10,"visib":"6+","altim":1010,"clouds":[{"cover":"FEW","base":4000}],"obsTime":1777147200},"SBMK":{"icaoId":"SBMK","flightCategory":"VFR","rawOb":"METAR SBMK 252000Z 15003KT CAVOK 29/18 Q1014","temp":29,"dewp":18,"wdir":150,"wspd":3,"visib":"6+","altim":1014,"clouds":[],"obsTime":1777147200},"SBCG":{"icaoId":"SBCG","flightCategory":"VFR","rawOb":"METAR SBCG 252000Z 29005KT 260V330 CAVOK 31/17 Q1013","temp":31,"dewp":17,"wdir":290,"wspd":5,"visib":"6+","altim":1013,"clouds":[],"obsTime":1777147200},"SBMO":{"icaoId":"SBMO","flightCategory":"VFR","rawOb":"METAR SBMO 252000Z 12011KT 9999 VCSH SCT025 FEW030TCU 28/23 Q1012","temp":28,"dewp":23,"wdir":120,"wspd":11,"visib":"6+","altim":1012,"clouds":[{"cover":"SCT","base":2500},{"cover":"FEW","base":3000}],"obsTime":1777147200},"SBMQ":{"icaoId":"SBMQ","flightCategory":"VFR","rawOb":"METAR SBMQ 252000Z 09005KT 9999 FEW035 FEW040TCU 31/23 Q1008","temp":31,"dewp":23,"wdir":90,"wspd":5,"visib":"6+","altim":1008,"clouds":[{"cover":"FEW","base":3500},{"cover":"FEW","base":4000}],"obsTime":1777147200},"SBCP":{"icaoId":"SBCP","flightCategory":"VFR","rawOb":"METAR SBCP 252000Z 07006KT 9999 FEW020 27/21 Q1011","temp":27,"dewp":21,"wdir":70,"wspd":6,"visib":"6+","altim":1011,"clouds":[{"cover":"FEW","base":2000}],"obsTime":1777147200},"SBFZ":{"icaoId":"SBFZ","flightCategory":"VFR","rawOb":"METAR SBFZ 252000Z VRB02KT 9999 FEW018 BKN090 27/23 Q1010","temp":27,"dewp":23,"wdir":"VRB","wspd":2,"visib":"6+","altim":1010,"clouds":[{"cover":"FEW","base":1800},{"cover":"BKN","base":9000}],"obsTime":1777147200},"SBNT":{"icaoId":"SBNT","flightCategory":"VFR","rawOb":"METAR SBNT 252000Z 11007KT 9999 SCT020 FEW025TCU 28/24 Q1010","temp":28,"dewp":24,"wdir":110,"wspd":7,"visib":"6+","altim":1010,"clouds":[{"cover":"SCT","base":2000},{"cover":"FEW","base":2500}],"obsTime":1777147200},"SBPA":{"icaoId":"SBPA","flightCategory":"VFR","rawOb":"METAR SBPA 252000Z VRB01KT 9999 FEW015 SCT040 24/19 Q1010","temp":24,"dewp":19,"wdir":"VRB","wspd":1,"visib":"6+","altim":1010,"clouds":[{"cover":"FEW","base":1500},{"cover":"SCT","base":4000}],"obsTime":1777147200},"SBBE":{"icaoId":"SBBE","flightCategory":"VFR","rawOb":"METAR SBBE 252000Z 13002KT 9999 SCT023 FEW024TCU 28/26 Q1009","temp":28,"dewp":26,"wdir":130,"wspd":2,"visib":"6+","altim":1009,"clouds":[{"cover":"SCT","base":2300},{"cover":"FEW","base":2400}],"obsTime":1777147200},"SBPJ":{"icaoId":"SBPJ","flightCategory":"VFR","rawOb":"METAR SBPJ 252000Z 24003KT 190V320 9999 FEW040 FEW045TCU 33/23 Q1010","temp":33,"dewp":23,"wdir":240,"wspd":3,"visib":"6+","altim":1010,"clouds":[{"cover":"FEW","base":4000},{"cover":"FEW","base":4500}],"obsTime":1777147200},"SBGL":{"icaoId":"SBGL","flightCategory":"VFR","rawOb":"METAR SBGL 252000Z 12007KT 9999 FEW025 30/19 Q1010","temp":30,"dewp":19,"wdir":120,"wspd":7,"visib":"6+","altim":1010,"clouds":[{"cover":"FEW","base":2500}],"obsTime":1777147200},"SBAT":{"icaoId":"SBAT","flightCategory":"VFR","rawOb":"METAR SBAT 252000Z 12005KT 9999 FEW030 FEW035TCU 31/23 Q1009","temp":31,"dewp":23,"wdir":120,"wspd":5,"visib":"6+","altim":1009,"clouds":[{"cover":"FEW","base":3000},{"cover":"FEW","base":3500}],"obsTime":1777147200},"SBPV":{"icaoId":"SBPV","flightCategory":"MVFR","rawOb":"METAR SBPV 252000Z 08005KT 9999 BKN025 FEW030TCU 31/27 Q1007","temp":31,"dewp":27,"wdir":80,"wspd":5,"visib":"6+","altim":1007,"clouds":[{"cover":"BKN","base":2500},{"cover":"FEW","base":3000}],"obsTime":1777147200},"SBGO":{"icaoId":"SBGO","flightCategory":"VFR","rawOb":"METAR SBGO 252000Z 13007KT 9999 FEW048 30/15 Q1015","temp":30,"dewp":15,"wdir":130,"wspd":7,"visib":"6+","altim":1015,"clouds":[{"cover":"FEW","base":4800}],"obsTime":1777147200},"SBRB":{"icaoId":"SBRB","flightCategory":"MVFR","rawOb":"METAR SBRB 252000Z 18003KT 9999 SCT010 BKN025 BKN100 28/24 Q1010","temp":28,"dewp":24,"wdir":180,"wspd":3,"visib":"6+","altim":1010,"clouds":[{"cover":"SCT","base":1000},{"cover":"BKN","base":2500},{"cover":"BKN","base":10000}],"obsTime":1777147200},"SBRF":{"icaoId":"SBRF","flightCategory":"VFR","rawOb":"METAR SBRF 252000Z 16012KT 9999 SCT024 29/24 Q1010","temp":29,"dewp":24,"wdir":160,"wspd":12,"visib":"6+","altim":1010,"clouds":[{"cover":"SCT","base":2400}],"obsTime":1777147200},"SBCR":{"icaoId":"SBCR","flightCategory":"VFR","rawOb":"METAR SBCR 252000Z 24006KT 9999 VCSH FEW040 FEW045TCU 32/22 Q1009","temp":32,"dewp":22,"wdir":240,"wspd":6,"visib":"6+","altim":1009,"clouds":[{"cover":"FEW","base":4000},{"cover":"FEW","base":4500}],"obsTime":1777147200},"SBGR":{"icaoId":"SBGR","flightCategory":"VFR","rawOb":"METAR SBGR 252000Z 29009KT CAVOK 29/15 Q1015","temp":29,"dewp":15,"wdir":290,"wspd":9,"visib":"6+","altim":1015,"clouds":[],"obsTime":1777147200},"SBSG":{"icaoId":"SBSG","flightCategory":"VFR","rawOb":"METAR SBSG 252000Z 11007KT 9999 SCT022 28/24 Q1010","temp":28,"dewp":24,"wdir":110,"wspd":7,"visib":"6+","altim":1010,"clouds":[{"cover":"SCT","base":2200}],"obsTime":1777147200},"SBCB":{"icaoId":"SBCB","flightCategory":"VFR","rawOb":"METAR SBCB 252000Z 09009KT CAVOK 27/22 Q1011","temp":27,"dewp":22,"wdir":90,"wspd":9,"visib":"6+","altim":1011,"clouds":[],"obsTime":1777147200},"SBSL":{"icaoId":"SBSL","flightCategory":"VFR","rawOb":"METAR SBSL 252000Z 09005KT 9999 SCT030 BKN090 26/25 Q1011","temp":26,"dewp":25,"wdir":90,"wspd":5,"visib":"6+","altim":1011,"clouds":[{"cover":"SCT","base":3000},{"cover":"BKN","base":9000}],"obsTime":1777147200},"SBHT":{"icaoId":"SBHT","flightCategory":"MVFR","rawOb":"METAR SBHT 252000Z 05005KT 9999 BKN030 31/24 Q1008","temp":31,"dewp":24,"wdir":50,"wspd":5,"visib":"6+","altim":1008,"clouds":[{"cover":"BKN","base":3000}],"obsTime":1777147200},"SBSN":{"icaoId":"SBSN","flightCategory":"VFR","rawOb":"METAR SBSN 252000Z 06006KT 9999 FEW021 FEW026TCU 30/23 Q1008","temp":30,"dewp":23,"wdir":60,"wspd":6,"visib":"6+","altim":1008,"clouds":[{"cover":"FEW","base":2100},{"cover":"FEW","base":2600}],"obsTime":1777147200},"SBCT":{"icaoId":"SBCT","flightCategory":"VFR","rawOb":"METAR SBCT 252000Z 22008KT 9999 FEW045 BKN100 27/14 Q1015","temp":27,"dewp":14,"wdir":220,"wspd":8,"visib":"6+","altim":1015,"clouds":[{"cover":"FEW","base":4500},{"cover":"BKN","base":10000}],"obsTime":1777147200},"SBSP":{"icaoId":"SBSP","flightCategory":"VFR","rawOb":"METAR SBSP 252000Z 31009KT 290V350 CAVOK 27/15 Q1015","temp":27,"dewp":15,"wdir":310,"wspd":9,"visib":"6+","altim":1015,"clouds":[],"obsTime":1777147200},"SBIL":{"icaoId":"SBIL","flightCategory":"VFR","rawOb":"METAR SBIL 252000Z 17007KT 9999 FEW025 29/24 Q1013","temp":29,"dewp":24,"wdir":170,"wspd":7,"visib":"6+","altim":1013,"clouds":[{"cover":"FEW","base":2500}],"obsTime":1777147200},"SBSV":{"icaoId":"SBSV","flightCategory":"VFR","rawOb":"METAR SBSV 252000Z 13006KT 100V160 9999 VCSH SCT023 FEW025TCU 28/22 Q1012","temp":28,"dewp":22,"wdir":130,"wspd":6,"visib":"6+","altim":1012,"clouds":[{"cover":"SCT","base":2300},{"cover":"FEW","base":2500}],"obsTime":1777147200},"SBBR":{"icaoId":"SBBR","flightCategory":"VFR","rawOb":"METAR SBBR 252000Z 17009KT 9999 FEW045 28/15 Q1017","temp":28,"dewp":15,"wdir":170,"wspd":9,"visib":"6+","altim":1017,"clouds":[{"cover":"FEW","base":4500}],"obsTime":1777147200},"SBJU":{"icaoId":"SBJU","flightCategory":"VFR","rawOb":"METAR SBJU 252000Z 12005KT 9999 FEW020 29/21 Q1012","temp":29,"dewp":21,"wdir":120,"wspd":5,"visib":"6+","altim":1012,"clouds":[{"cover":"FEW","base":2000}],"obsTime":1777147200},"SBUL":{"icaoId":"SBUL","flightCategory":"VFR","rawOb":"METAR SBUL 252000Z 04005KT 9999 FEW048 27/16 Q1017","temp":27,"dewp":16,"wdir":40,"wspd":5,"visib":"6+","altim":1017,"clouds":[{"cover":"FEW","base":4800}],"obsTime":1777147200},"SBCZ":{"icaoId":"SBCZ","flightCategory":"VFR","rawOb":"METAR SBCZ 252000Z 07004KT 9999 SCT030 FEW030TCU 31/24 Q1008","temp":31,"dewp":24,"wdir":70,"wspd":4,"visib":"6+","altim":1008,"clouds":[{"cover":"SCT","base":3000},{"cover":"FEW","base":3000}],"obsTime":1777147200},"SBUR":{"icaoId":"SBUR","flightCategory":"VFR","rawOb":"METAR SBUR 252000Z 20006KT CAVOK 29/13 Q1016","temp":29,"dewp":13,"wdir":200,"wspd":6,"visib":"6+","altim":1016,"clouds":[],"obsTime":1777147200},"SBVT":{"icaoId":"SBVT","flightCategory":"VFR","rawOb":"METAR SBVT 252000Z 06011KT 9999 FEW030 SCT100 27/23 Q1011","temp":27,"dewp":23,"wdir":60,"wspd":11,"visib":"6+","altim":1011,"clouds":[{"cover":"FEW","base":3000},{"cover":"SCT","base":10000}],"obsTime":1777147200},"SBKP":{"icaoId":"SBKP","flightCategory":"VFR","rawOb":"METAR SBKP 252000Z 29007KT 260V320 CAVOK 30/16 Q1014","temp":30,"dewp":16,"wdir":290,"wspd":7,"visib":"6+","altim":1014,"clouds":[],"obsTime":1777147200},"SBLO":{"icaoId":"SBLO","flightCategory":"VFR","rawOb":"METAR SBLO 252000Z 30006KT 9999 SCT042 30/18 Q1013","temp":30,"dewp":18,"wdir":300,"wspd":6,"visib":"6+","altim":1013,"clouds":[{"cover":"SCT","base":4200}],"obsTime":1777147200},"SBCF":{"icaoId":"SBCF","flightCategory":"VFR","rawOb":"METAR SBCF 252000Z 27007KT 9999 FEW045 27/14 Q1017","temp":27,"dewp":14,"wdir":270,"wspd":7,"visib":"6+","altim":1017,"clouds":[{"cover":"FEW","base":4500}],"obsTime":1777147200},"SBPB":{"icaoId":"SBPB","flightCategory":"MVFR","rawOb":"METAR SBPB 252000Z 05003KT 9999 VCSH BKN015 OVC080 26/24 Q1011","temp":26,"dewp":24,"wdir":50,"wspd":3,"visib":"6+","altim":1011,"clouds":[{"cover":"BKN","base":1500},{"cover":"OVC","base":8000}],"obsTime":1777147200},"SBCJ":{"icaoId":"SBCJ","flightCategory":"VFR","rawOb":"METAR SBCJ 252000Z 13004KT 9999 VCTS SCT018 FEW020CB 25/22 Q1014 RETS","temp":25,"dewp":22,"wdir":130,"wspd":4,"visib":"6+","altim":1014,"clouds":[{"cover":"SCT","base":1800},{"cover":"FEW","base":2000}],"obsTime":1777147200},"SBPL":{"icaoId":"SBPL","flightCategory":"VFR","rawOb":"METAR SBPL 252000Z 17003KT 9999 FEW040 30/22 Q1012","temp":30,"dewp":22,"wdir":170,"wspd":3,"visib":"6+","altim":1012,"clouds":[{"cover":"FEW","base":4000}],"obsTime":1777147200},"SBCO":{"icaoId":"SBCO","flightCategory":"VFR","rawOb":"METAR SBCO 252000Z 11003KT 9999 FEW020 SCT035 23/19 Q1011","temp":23,"dewp":19,"wdir":110,"wspd":3,"visib":"6+","altim":1011,"clouds":[{"cover":"FEW","base":2000},{"cover":"SCT","base":3500}],"obsTime":1777147200},"SBPP":{"icaoId":"SBPP","flightCategory":"VFR","rawOb":"METAR SBPP 252000Z 29003KT 9999 SCT025 28/18 Q1013","temp":28,"dewp":18,"wdir":290,"wspd":3,"visib":"6+","altim":1013,"clouds":[{"cover":"SCT","base":2500}],"obsTime":1777147200},"SBCA":{"icaoId":"SBCA","flightCategory":"VFR","rawOb":"METAR SBCA 252000Z 33007KT 9999 FEW030 26/17 Q1014","temp":26,"dewp":17,"wdir":330,"wspd":7,"visib":"6+","altim":1014,"clouds":[{"cover":"FEW","base":3000}],"obsTime":1777147200},"SBDN":{"icaoId":"SBDN","flightCategory":"VFR","rawOb":"METAR SBDN 252000Z 32008KT CAVOK 34/18 Q1012","temp":34,"dewp":18,"wdir":320,"wspd":8,"visib":"6+","altim":1012,"clouds":[],"obsTime":1777147200},"SBPS":{"icaoId":"SBPS","flightCategory":"VFR","rawOb":"METAR SBPS 252000Z 10005KT 080V140 9999 SCT020 27/23 Q1013","temp":27,"dewp":23,"wdir":100,"wspd":5,"visib":"6+","altim":1013,"clouds":[{"cover":"SCT","base":2000}],"obsTime":1777147200},"SBAX":{"icaoId":"SBAX","flightCategory":"VFR","rawOb":"METAR SBAX 252000Z AUTO 33004KT 310V020 CAVOK 27/13 Q1017","temp":27,"dewp":13,"wdir":330,"wspd":4,"visib":"6+","altim":1017,"clouds":[],"obsTime":1777147200},"SBSC":{"icaoId":"SBSC","flightCategory":"VFR","rawOb":"METAR SBSC 252000Z 13001KT CAVOK 32/18 Q1010","temp":32,"dewp":18,"wdir":130,"wspd":1,"visib":"6+","altim":1010,"clouds":[],"obsTime":1777147200},"SBSJ":{"icaoId":"SBSJ","flightCategory":"VFR","rawOb":"METAR SBSJ 252000Z 27008KT CAVOK 28/15 Q1014","temp":28,"dewp":15,"wdir":270,"wspd":8,"visib":"6+","altim":1014,"clouds":[],"obsTime":1777147200},"SBES":{"icaoId":"SBES","flightCategory":"VFR","rawOb":"METAR SBES 252000Z 05005KT 350V100 9999 FEW040 27/// Q1011","temp":null,"dewp":null,"wdir":50,"wspd":5,"visib":"6+","altim":1011,"clouds":[{"cover":"FEW","base":4000}],"obsTime":1777147200},"SBSM":{"icaoId":"SBSM","flightCategory":"VFR","rawOb":"METAR SBSM 252000Z 04002KT 9999 SCT035 24/19 Q1011","temp":24,"dewp":19,"wdir":40,"wspd":2,"visib":"6+","altim":1011,"clouds":[{"cover":"SCT","base":3500}],"obsTime":1777147200},"SBIP":{"icaoId":"SBIP","flightCategory":"VFR","rawOb":"METAR SBIP 252000Z AUTO 01004KT 320V030 CAVOK 28/19 Q1013","temp":28,"dewp":19,"wdir":10,"wspd":4,"visib":"6+","altim":1013,"clouds":[],"obsTime":1777147200},"SBSR":{"icaoId":"SBSR","flightCategory":"VFR","rawOb":"METAR SBSR 252000Z VRB03KT 9999 FEW045 32/14 Q1013","temp":32,"dewp":14,"wdir":"VRB","wspd":3,"visib":"6+","altim":1013,"clouds":[{"cover":"FEW","base":4500}],"obsTime":1777147200},"SBTF":{"icaoId":"SBTF","flightCategory":"VFR","rawOb":"METAR SBTF 252000Z 30003KT 9999 FEW020 SCT090 29/24 Q1008","temp":29,"dewp":24,"wdir":300,"wspd":3,"visib":"6+","altim":1008,"clouds":[{"cover":"FEW","base":2000},{"cover":"SCT","base":9000}],"obsTime":1777147200},"SBAR":{"icaoId":"SBAR","flightCategory":"VFR","rawOb":"METAR SBAR 252000Z 08007KT 9999 VCSH FEW015 SCT020 27/23 Q1011","temp":27,"dewp":23,"wdir":80,"wspd":7,"visib":"6+","altim":1011,"clouds":[{"cover":"FEW","base":1500},{"cover":"SCT","base":2000}],"obsTime":1777147200},"SBTT":{"icaoId":"SBTT","flightCategory":"VFR","rawOb":"METAR SBTT 252000Z 34004KT 9999 SCT020 SCT100 29/22 Q1009","temp":29,"dewp":22,"wdir":340,"wspd":4,"visib":"6+","altim":1009,"clouds":[{"cover":"SCT","base":2000},{"cover":"SCT","base":10000}],"obsTime":1777147200},"SBUY":{"icaoId":"SBUY","flightCategory":"VFR","rawOb":"METAR SBUY 252000Z 33002KT 9999 FEW025 SCT100 30/23 Q1007","temp":30,"dewp":23,"wdir":330,"wspd":2,"visib":"6+","altim":1007,"clouds":[{"cover":"FEW","base":2500},{"cover":"SCT","base":10000}],"obsTime":1777147200},"SBKG":{"icaoId":"SBKG","flightCategory":"IFR","rawOb":"METAR SBKG 252000Z 08006KT 9999 +RA SCT005 BKN009 BKN015 23/23 Q1013","temp":23,"dewp":23,"wdir":80,"wspd":6,"visib":"6+","altim":1013,"clouds":[{"cover":"SCT","base":500},{"cover":"BKN","base":900},{"cover":"BKN","base":1500}],"obsTime":1777147200},"SBBU":{"icaoId":"SBBU","flightCategory":"VFR","rawOb":"METAR SBBU 252000Z 25008KT 9999 SCT040 31/18 Q1013","temp":31,"dewp":18,"wdir":250,"wspd":8,"visib":"6+","altim":1013,"clouds":[{"cover":"SCT","base":4000}],"obsTime":1777147200},"SBBH":{"icaoId":"SBBH","flightCategory":"VFR","rawOb":"METAR SBBH 252000Z 28005KT CAVOK 27/15 Q1016","temp":27,"dewp":15,"wdir":280,"wspd":5,"visib":"6+","altim":1016,"clouds":[],"obsTime":1777147200},"SBVH":{"icaoId":"SBVH","flightCategory":"VFR","rawOb":"METAR SBVH 252000Z 09004KT 9999 TS SCT035 FEW040CB 30/21 Q1012","temp":30,"dewp":21,"wdir":90,"wspd":4,"visib":"6+","altim":1012,"clouds":[{"cover":"SCT","base":3500},{"cover":"FEW","base":4000}],"obsTime":1777147200},"SBCC":{"icaoId":"SBCC","flightCategory":"VFR","rawOb":"METAR SBCC 252000Z 07009KT 9999 SCT030 FEW035TCU SCT100 30/21 Q1010","temp":30,"dewp":21,"wdir":70,"wspd":9,"visib":"6+","altim":1010,"clouds":[{"cover":"SCT","base":3000},{"cover":"FEW","base":3500},{"cover":"SCT","base":10000}],"obsTime":1777147200},"SBOI":{"icaoId":"SBOI","flightCategory":"VFR","rawOb":"METAR SBOI 252000Z AUTO 06007KT 360V090 9999 FEW024 29/24 Q1009","temp":29,"dewp":24,"wdir":60,"wspd":7,"visib":"6+","altim":1009,"clouds":[{"cover":"FEW","base":2400}],"obsTime":1777147200},"SBJV":{"icaoId":"SBJV","flightCategory":"VFR","rawOb":"METAR SBJV 252000Z 13009KT CAVOK 27/23 Q1009","temp":27,"dewp":23,"wdir":130,"wspd":9,"visib":"6+","altim":1009,"clouds":[],"obsTime":1777147200},"SBAN":{"icaoId":"SBAN","flightCategory":"VFR","rawOb":"METAR SBAN 252000Z 29004KT 9999 FEW030 28/12 Q1018","temp":28,"dewp":12,"wdir":290,"wspd":4,"visib":"6+","altim":1018,"clouds":[{"cover":"FEW","base":3000}],"obsTime":1777147200},"SBPF":{"icaoId":"SBPF","flightCategory":"MVFR","rawOb":"METAR SBPF 252000Z 19004KT 9999 BKN015 18/16 Q1014","temp":18,"dewp":16,"wdir":190,"wspd":4,"visib":"6+","altim":1014,"clouds":[{"cover":"BKN","base":1500}],"obsTime":1777147200},"SBAF":{"icaoId":"SBAF","flightCategory":"VFR","rawOb":"METAR SBAF 252000Z 19004KT 9999 FEW030 31/19 Q1010","temp":31,"dewp":19,"wdir":190,"wspd":4,"visib":"6+","altim":1010,"clouds":[{"cover":"FEW","base":3000}],"obsTime":1777147200},"SBLE":{"icaoId":"SBLE","flightCategory":"VFR","rawOb":"METAR SBLE 252000Z AUTO VRB02KT CAVOK 27/20 Q1014","temp":27,"dewp":20,"wdir":"VRB","wspd":2,"visib":"6+","altim":1014,"clouds":[],"obsTime":1777147200},"SBGW":{"icaoId":"SBGW","flightCategory":"VFR","rawOb":"METAR SBGW 252000Z 00000KT 9999 SCT030 30/14 Q1013","temp":30,"dewp":14,"wdir":0,"wspd":0,"visib":"6+","altim":1013,"clouds":[{"cover":"SCT","base":3000}],"obsTime":1777147200},"SBJR":{"icaoId":"SBJR","flightCategory":"VFR","rawOb":"METAR SBJR 252000Z 27001KT 9999 FEW025 30/22 Q1010","temp":30,"dewp":22,"wdir":270,"wspd":1,"visib":"6+","altim":1010,"clouds":[{"cover":"FEW","base":2500}],"obsTime":1777147200},"SBLS":{"icaoId":"SBLS","flightCategory":"VFR","rawOb":"METAR SBLS 252000Z 29004KT 9999 FEW045 26/15 Q1016","temp":26,"dewp":15,"wdir":290,"wspd":4,"visib":"6+","altim":1016,"clouds":[{"cover":"FEW","base":4500}],"obsTime":1777147200},"SBMT":{"icaoId":"SBMT","flightCategory":"VFR","rawOb":"METAR SBMT 252000Z 30007KT 270V350 CAVOK 28/15 Q1014","temp":28,"dewp":15,"wdir":300,"wspd":7,"visib":"6+","altim":1014,"clouds":[],"obsTime":1777147200},"SBST":{"icaoId":"SBST","flightCategory":"VFR","rawOb":"METAR SBST 252000Z 13004KT CAVOK 29/22 Q1009","temp":29,"dewp":22,"wdir":130,"wspd":4,"visib":"6+","altim":1009,"clouds":[],"obsTime":1777147200},"SBIH":{"icaoId":"SBIH","flightCategory":"VFR","rawOb":"METAR SBIH 252000Z 05003KT 9999 FEW017 32/24 Q1007","temp":32,"dewp":24,"wdir":50,"wspd":3,"visib":"6+","altim":1007,"clouds":[{"cover":"FEW","base":1700}],"obsTime":1777147200},"SBTA":{"icaoId":"SBTA","flightCategory":"VFR","rawOb":"METAR SBTA 252000Z 35004KT 9999 FEW045 29/15 Q1013","temp":29,"dewp":15,"wdir":350,"wspd":4,"visib":"6+","altim":1013,"clouds":[{"cover":"FEW","base":4500}],"obsTime":1777147200},"SBJP":{"icaoId":"SBJP","flightCategory":"VFR","rawOb":"METAR SBJP 252000Z 12010KT 9999 FEW025 28/24 Q1011","temp":28,"dewp":24,"wdir":120,"wspd":10,"visib":"6+","altim":1011,"clouds":[{"cover":"FEW","base":2500}],"obsTime":1777147200},"SBTC":{"icaoId":"SBTC","flightCategory":"VFR","rawOb":"METAR SBTC 252000Z 15006KT 9999 FEW020 28/23 Q1013","temp":28,"dewp":23,"wdir":150,"wspd":6,"visib":"6+","altim":1013,"clouds":[{"cover":"FEW","base":2000}],"obsTime":1777147200}}}