{"updated":1784024924,"count":73,"data":{"SBPA":{"icaoId":"SBPA","flightCategory":"LIFR","rawOb":"METAR SBPA 140900Z 07003KT 0300 R29///// R11/0550 FG OVC001 08/08 Q1023","temp":8,"dewp":8,"wdir":70,"wspd":3,"visib":0.19,"altim":1023,"clouds":[{"cover":"OVC","base":100}],"obsTime":1784019600},"SBPJ":{"icaoId":"SBPJ","flightCategory":"VFR","rawOb":"METAR SBPJ 140900Z 13004KT CAVOK 23/19 Q1014","temp":23,"dewp":19,"wdir":130,"wspd":4,"visib":"6+","altim":1014,"clouds":[],"obsTime":1784019600},"SBFI":{"icaoId":"SBFI","flightCategory":"VFR","rawOb":"METAR SBFI 140900Z 09004KT CAVOK 09/09 Q1019","temp":9,"dewp":9,"wdir":90,"wspd":4,"visib":"6+","altim":1019,"clouds":[],"obsTime":1784019600},"SBNT":{"icaoId":"SBNT","flightCategory":"VFR","rawOb":"METAR SBNT 140900Z 25002KT 9000 SCT021 FEW027TCU BKN100 23/22 Q1015","temp":23,"dewp":22,"wdir":250,"wspd":2,"visib":5.59,"altim":1015,"clouds":[{"cover":"SCT","base":2100},{"cover":"FEW","base":2700},{"cover":"BKN","base":10000}],"obsTime":1784019600},"SBVT":{"icaoId":"SBVT","flightCategory":"VFR","rawOb":"METAR SBVT 140900Z 21010KT 9999 SCT030 BKN070 19/11 Q1019","temp":19,"dewp":11,"wdir":210,"wspd":10,"visib":"6+","altim":1019,"clouds":[{"cover":"SCT","base":3000},{"cover":"BKN","base":7000}],"obsTime":1784019600},"SBSN":{"icaoId":"SBSN","flightCategory":"VFR","rawOb":"METAR SBSN 140900Z 00000KT 9999 VCTS FEW017CB 24/23 Q1013","temp":24,"dewp":23,"wdir":0,"wspd":0,"visib":"6+","altim":1013,"clouds":[{"cover":"FEW","base":1700}],"obsTime":1784019600},"SBSP":{"icaoId":"SBSP","flightCategory":"IFR","rawOb":"METAR SBSP 140900Z 15006KT 110V170 9999 BKN005 11/11 Q1024","temp":11,"dewp":11,"wdir":150,"wspd":6,"visib":"6+","altim":1024,"clouds":[{"cover":"BKN","base":500}],"obsTime":1784019600},"SBFL":{"icaoId":"SBFL","flightCategory":"VFR","rawOb":"METAR SBFL 140900Z 28004KT 9999 FEW010 BKN050 12/11 Q1024","temp":12,"dewp":11,"wdir":280,"wspd":4,"visib":"6+","altim":1024,"clouds":[{"cover":"FEW","base":1000},{"cover":"BKN","base":5000}],"obsTime":1784019600},"SBBE":{"icaoId":"SBBE","flightCategory":"VFR","rawOb":"METAR SBBE 140900Z 10005KT 9999 BKN040 26/24 Q1014","temp":26,"dewp":24,"wdir":100,"wspd":5,"visib":"6+","altim":1014,"clouds":[{"cover":"BKN","base":4000}],"obsTime":1784019600},"SBBR":{"icaoId":"SBBR","flightCategory":"VFR","rawOb":"METAR SBBR 140900Z 00000KT CAVOK 15/15 Q1021","temp":15,"dewp":15,"wdir":0,"wspd":0,"visib":"6+","altim":1021,"clouds":[],"obsTime":1784019600},"SBCT":{"icaoId":"SBCT","flightCategory":"IFR","rawOb":"METAR SBCT 140900Z 12005KT 9999 BKN006 OVC013 09/09 Q1024","temp":9,"dewp":9,"wdir":120,"wspd":5,"visib":"6+","altim":1024,"clouds":[{"cover":"BKN","base":600},{"cover":"OVC","base":1300}],"obsTime":1784019600},"SBSL":{"icaoId":"SBSL","flightCategory":"VFR","rawOb":"METAR SBSL 140900Z 04011KT 9999 FEW018 26/24 Q1013","temp":26,"dewp":24,"wdir":40,"wspd":11,"visib":"6+","altim":1013,"clouds":[{"cover":"FEW","base":1800}],"obsTime":1784019600},"SBSG":{"icaoId":"SBSG","flightCategory":"VFR","rawOb":"METAR SBSG 140900Z 27002KT 9999 SCT020 22/22 Q1015","temp":22,"dewp":22,"wdir":270,"wspd":2,"visib":"6+","altim":1015,"clouds":[{"cover":"SCT","base":2000}],"obsTime":1784019600},"SBGO":{"icaoId":"SBGO","flightCategory":"VFR","rawOb":"METAR SBGO 140900Z 15004KT CAVOK 16/15 Q1019","temp":16,"dewp":15,"wdir":150,"wspd":4,"visib":"6+","altim":1019,"clouds":[],"obsTime":1784019600},"SBMO":{"icaoId":"SBMO","flightCategory":"VFR","rawOb":"METAR SBMO 140900Z 01003KT CAVOK 22/22 Q1014","temp":22,"dewp":22,"wdir":10,"wspd":3,"visib":"6+","altim":1014,"clouds":[],"obsTime":1784019600},"SBCB":{"icaoId":"SBCB","flightCategory":"MVFR","rawOb":"METAR SBCB 140900Z 33011KT 8000 SCT015 BKN030 17/16 Q1021","temp":17,"dewp":16,"wdir":330,"wspd":11,"visib":4.97,"altim":1021,"clouds":[{"cover":"SCT","base":1500},{"cover":"BKN","base":3000}],"obsTime":1784019600},"SBCF":{"icaoId":"SBCF","flightCategory":"VFR","rawOb":"METAR SBCF 140900Z 15007KT CAVOK 12/09 Q1021","temp":12,"dewp":9,"wdir":150,"wspd":7,"visib":"6+","altim":1021,"clouds":[],"obsTime":1784019600},"SBRB":{"icaoId":"SBRB","flightCategory":"LIFR","rawOb":"METAR SBRB 140900Z 18003KT 1500 R07///// R25///// BR BKN003 21/20 Q1015","temp":21,"dewp":20,"wdir":180,"wspd":3,"visib":0.93,"altim":1015,"clouds":[{"cover":"BKN","base":300}],"obsTime":1784019600},"SBPV":{"icaoId":"SBPV","flightCategory":"VFR","rawOb":"METAR SBPV 140900Z 20002KT 9999 FEW035 23/22 Q1013","temp":23,"dewp":22,"wdir":200,"wspd":2,"visib":"6+","altim":1013,"clouds":[{"cover":"FEW","base":3500}],"obsTime":1784019600},"SBMQ":{"icaoId":"SBMQ","flightCategory":"VFR","rawOb":"METAR SBMQ 140900Z 36004KT 9999 FEW040 25/25 Q1014","temp":25,"dewp":25,"wdir":360,"wspd":4,"visib":"6+","altim":1014,"clouds":[{"cover":"FEW","base":4000}],"obsTime":1784019600},"SBGR":{"icaoId":"SBGR","flightCategory":"MVFR","rawOb":"METAR SBGR 140900Z 08005KT 9000 BKN013 09/08 Q1024","temp":9,"dewp":8,"wdir":80,"wspd":5,"visib":5.59,"altim":1024,"clouds":[{"cover":"BKN","base":1300}],"obsTime":1784019600},"SBSV":{"icaoId":"SBSV","flightCategory":"VFR","rawOb":"METAR SBSV 140900Z VRB02KT 9999 FEW018 SCT021 BKN040 24/22 Q1015","temp":24,"dewp":22,"wdir":"VRB","wspd":2,"visib":"6+","altim":1015,"clouds":[{"cover":"FEW","base":1800},{"cover":"SCT","base":2100},{"cover":"BKN","base":4000}],"obsTime":1784019600},"SBKP":{"icaoId":"SBKP","flightCategory":"MVFR","rawOb":"METAR SBKP 140900Z 13004KT 9999 BKN027 08/06 Q1022","temp":8,"dewp":6,"wdir":130,"wspd":4,"visib":"6+","altim":1022,"clouds":[{"cover":"BKN","base":2700}],"obsTime":1784019600},"SBFZ":{"icaoId":"SBFZ","flightCategory":"VFR","rawOb":"METAR SBFZ 140900Z 07005KT 9999 SCT020 BKN060 27/23 Q1014","temp":27,"dewp":23,"wdir":70,"wspd":5,"visib":"6+","altim":1014,"clouds":[{"cover":"SCT","base":2000},{"cover":"BKN","base":6000}],"obsTime":1784019600},"SBLO":{"icaoId":"SBLO","flightCategory":"VFR","rawOb":"METAR SBLO 140900Z 11007KT CAVOK 08/06 Q1022","temp":8,"dewp":6,"wdir":110,"wspd":7,"visib":"6+","altim":1022,"clouds":[],"obsTime":1784019600},"SBEG":{"icaoId":"SBEG","flightCategory":"VFR","rawOb":"METAR SBEG 140900Z 34001KT CAVOK 25/24 Q1013","temp":25,"dewp":24,"wdir":340,"wspd":1,"visib":"6+","altim":1013,"clouds":[],"obsTime":1784019600},"SBRF":{"icaoId":"SBRF","flightCategory":"VFR","rawOb":"METAR SBRF 140900Z 33003KT 9999 SCT021 22/22 Q1015","temp":22,"dewp":22,"wdir":330,"wspd":3,"visib":"6+","altim":1015,"clouds":[{"cover":"SCT","base":2100}],"obsTime":1784019600},"SBMA":{"icaoId":"SBMA","flightCategory":"VFR","rawOb":"METAR SBMA 140900Z 20003KT 9999 VCTS FEW020 FEW023CB SCT080 24/22 Q1014","temp":24,"dewp":22,"wdir":200,"wspd":3,"visib":"6+","altim":1014,"clouds":[{"cover":"FEW","base":2000},{"cover":"FEW","base":2300},{"cover":"SCT","base":8000}],"obsTime":1784019600},"SBBV":{"icaoId":"SBBV","flightCategory":"VFR","rawOb":"METAR SBBV 140900Z 22001KT 9999 SCT003 SCT030 FEW035TCU BKN070 25/24 Q1014","temp":25,"dewp":24,"wdir":220,"wspd":1,"visib":"6+","altim":1014,"clouds":[{"cover":"SCT","base":300},{"cover":"SCT","base":3000},{"cover":"FEW","base":3500},{"cover":"BKN","base":7000}],"obsTime":1784019600},"SBCG":{"icaoId":"SBCG","flightCategory":"VFR","rawOb":"METAR SBCG 140900Z 10010KT CAVOK 14/07 Q1018","temp":14,"dewp":7,"wdir":100,"wspd":10,"visib":"6+","altim":1018,"clouds":[],"obsTime":1784019600},"SBIL":{"icaoId":"SBIL","flightCategory":"VFR","rawOb":"METAR SBIL 141000Z 24006KT 9999 FEW020 BKN070 24/22 Q1017","temp":24,"dewp":22,"wdir":240,"wspd":6,"visib":"6+","altim":1017,"clouds":[{"cover":"FEW","base":2000},{"cover":"BKN","base":7000}],"obsTime":1784023200},"SBJU":{"icaoId":"SBJU","flightCategory":"MVFR","rawOb":"METAR SBJU 140900Z 00000KT 9999 BKN020 23/21 Q1017","temp":23,"dewp":21,"wdir":0,"wspd":0,"visib":"6+","altim":1017,"clouds":[{"cover":"BKN","base":2000}],"obsTime":1784019600},"SBHT":{"icaoId":"SBHT","flightCategory":"VFR","rawOb":"METAR SBHT 141000Z 06002KT 9999 SCT012 SCT080 25/25 Q1014","temp":25,"dewp":25,"wdir":60,"wspd":2,"visib":"6+","altim":1014,"clouds":[{"cover":"SCT","base":1200},{"cover":"SCT","base":8000}],"obsTime":1784023200},"SBCP":{"icaoId":"SBCP","flightCategory":"VFR","rawOb":"METAR SBCP 141000Z 31005KT 9999 FEW020 SCT090 15/12 Q1021","temp":15,"dewp":12,"wdir":310,"wspd":5,"visib":"6+","altim":1021,"clouds":[{"cover":"FEW","base":2000},{"cover":"SCT","base":9000}],"obsTime":1784023200},"SBMG":{"icaoId":"SBMG","flightCategory":"VFR","rawOb":"METAR SBMG 140900Z AUTO 09017KT CAVOK 11/06 Q1020","temp":11,"dewp":6,"wdir":90,"wspd":17,"visib":"6+","altim":1020,"clouds":[],"obsTime":1784019600},"SBME":{"icaoId":"SBME","flightCategory":"VFR","rawOb":"METAR SBME 140900Z 24008KT CAVOK 17/12 Q1021","temp":17,"dewp":12,"wdir":240,"wspd":8,"visib":"6+","altim":1021,"clouds":[],"obsTime":1784019600},"SBMK":{"icaoId":"SBMK","flightCategory":"VFR","rawOb":"METAR SBMK 140900Z 08002KT CAVOK 18/16 Q1018","temp":18,"dewp":16,"wdir":80,"wspd":2,"visib":"6+","altim":1018,"clouds":[],"obsTime":1784019600},"SBUL":{"icaoId":"SBUL","flightCategory":"VFR","rawOb":"METAR SBUL 140900Z 16010KT 120V180 CAVOK 13/09 Q1020","temp":13,"dewp":9,"wdir":160,"wspd":10,"visib":"6+","altim":1020,"clouds":[],"obsTime":1784019600},"SBUR":{"icaoId":"SBUR","flightCategory":"VFR","rawOb":"METAR SBUR 140900Z 10005KT CAVOK 13/08 Q1020","temp":13,"dewp":8,"wdir":100,"wspd":5,"visib":"6+","altim":1020,"clouds":[],"obsTime":1784019600},"SBTE":{"icaoId":"SBTE","flightCategory":"VFR","rawOb":"METAR SBTE 140900Z 35005KT 9999 SCT013 25/23 Q1013","temp":25,"dewp":23,"wdir":350,"wspd":5,"visib":"6+","altim":1013,"clouds":[{"cover":"SCT","base":1300}],"obsTime":1784019600},"SBGL":{"icaoId":"SBGL","flightCategory":"VFR","rawOb":"METAR SBGL 140900Z 30005KT 9999 FEW012 BKN040 16/14 Q1022","temp":16,"dewp":14,"wdir":300,"wspd":5,"visib":"6+","altim":1022,"clouds":[{"cover":"FEW","base":1200},{"cover":"BKN","base":4000}],"obsTime":1784019600},"SBPS":{"icaoId":"SBPS","flightCategory":"IFR","rawOb":"METAR SBPS 140900Z VRB03KT 9999 FEW005 BKN007 BKN050 21/21 Q1017","temp":21,"dewp":21,"wdir":"VRB","wspd":3,"visib":"6+","altim":1017,"clouds":[{"cover":"FEW","base":500},{"cover":"BKN","base":700},{"cover":"BKN","base":5000}],"obsTime":1784019600},"SBCJ":{"icaoId":"SBCJ","flightCategory":"LIFR","rawOb":"SPECI SBCJ 141015Z 00000KT 3000 BR BKN002 OVC080 21/21 Q1018","temp":21,"dewp":21,"wdir":0,"wspd":0,"visib":1.86,"altim":1018,"clouds":[{"cover":"BKN","base":200},{"cover":"OVC","base":8000}],"obsTime":1784024100},"SBPB":{"icaoId":"SBPB","flightCategory":"MVFR","rawOb":"SPECI SBPB 141015Z 06008KT 9999 BKN016 OVC100 28/24 Q1014","temp":28,"dewp":24,"wdir":60,"wspd":8,"visib":"6+","altim":1014,"clouds":[{"cover":"BKN","base":1600},{"cover":"OVC","base":10000}],"obsTime":1784024100},"SBAR":{"icaoId":"SBAR","flightCategory":"VFR","rawOb":"METAR SBAR 140900Z 31003KT 9999 SCT018 22/22 Q1014","temp":22,"dewp":22,"wdir":310,"wspd":3,"visib":"6+","altim":1014,"clouds":[{"cover":"SCT","base":1800}],"obsTime":1784019600},"SBSJ":{"icaoId":"SBSJ","flightCategory":"MVFR","rawOb":"METAR SBSJ 140900Z 00000KT 6000 NSC 06/06 Q1024","temp":6,"dewp":6,"wdir":0,"wspd":0,"visib":3.73,"altim":1024,"clouds":[],"obsTime":1784019600},"SBOI":{"icaoId":"SBOI","flightCategory":"LIFR","rawOb":"METAR SBOI 140900Z AUTO 00000KT 6000 BKN001 OVC005 23/23 Q1014","temp":23,"dewp":23,"wdir":0,"wspd":0,"visib":3.73,"altim":1014,"clouds":[{"cover":"BKN","base":100},{"cover":"OVC","base":500}],"obsTime":1784019600},"SBSM":{"icaoId":"SBSM","flightCategory":"LIFR","rawOb":"METAR SBSM 140900Z 14004KT 0200 R29///// R11/P2000N FG VV002 05/05 Q1021","temp":5,"dewp":5,"wdir":140,"wspd":4,"visib":0.12,"altim":1021,"clouds":[{"cover":"OVX","base":200}],"obsTime":1784019600},"SBCO":{"icaoId":"SBCO","flightCategory":"LIFR","rawOb":"METAR SBCO 140900Z 00000KT 0100 R13///// R31/0400 FG VV001 08/08 Q1024","temp":8,"dewp":8,"wdir":0,"wspd":0,"visib":0.06,"altim":1024,"clouds":[{"cover":"OVX","base":100}],"obsTime":1784019600},"SBKG":{"icaoId":"SBKG","flightCategory":"VFR","rawOb":"METAR SBKG 140900Z 05003KT 9999 FEW007 21/20 Q1017","temp":21,"dewp":20,"wdir":50,"wspd":3,"visib":"6+","altim":1017,"clouds":[{"cover":"FEW","base":700}],"obsTime":1784019600},"SBTU":{"icaoId":"SBTU","flightCategory":"LIFR","rawOb":"METAR SBTU 140900Z AUTO 21010KT 9999 // OVC003/// 24/24 Q1015","temp":24,"dewp":24,"wdir":210,"wspd":10,"visib":"6+","altim":1015,"clouds":[{"cover":"OVC","base":300}],"obsTime":1784019600},"SBCA":{"icaoId":"SBCA","flightCategory":"VFR","rawOb":"METAR SBCA 140900Z 06010G20KT CAVOK 10/05 Q1021","temp":10,"dewp":5,"wdir":60,"wspd":10,"visib":"6+","altim":1021,"clouds":[],"obsTime":1784019600},"SBAX":{"icaoId":"SBAX","flightCategory":"VFR","rawOb":"METAR SBAX 140900Z AUTO 12009KT CAVOK 11/08 Q1021","temp":11,"dewp":8,"wdir":120,"wspd":9,"visib":"6+","altim":1021,"clouds":[],"obsTime":1784019600},"SBBH":{"icaoId":"SBBH","flightCategory":"VFR","rawOb":"METAR SBBH 140900Z 10006KT CAVOK 13/10 Q1021","temp":13,"dewp":10,"wdir":100,"wspd":6,"visib":"6+","altim":1021,"clouds":[],"obsTime":1784019600},"SBBU":{"icaoId":"SBBU","flightCategory":"VFR","rawOb":"METAR SBBU 140900Z 14010KT CAVOK 09/07 Q1022","temp":9,"dewp":7,"wdir":140,"wspd":10,"visib":"6+","altim":1022,"clouds":[],"obsTime":1784019600},"SBDN":{"icaoId":"SBDN","flightCategory":"VFR","rawOb":"METAR SBDN 140900Z 10010KT CAVOK 09/06 Q1021","temp":9,"dewp":6,"wdir":100,"wspd":10,"visib":"6+","altim":1021,"clouds":[],"obsTime":1784019600},"SBIP":{"icaoId":"SBIP","flightCategory":"VFR","rawOb":"METAR SBIP 140900Z AUTO 17005KT 9999 OVC031 18/12 Q1020","temp":18,"dewp":12,"wdir":170,"wspd":5,"visib":"6+","altim":1020,"clouds":[{"cover":"OVC","base":3100}],"obsTime":1784019600},"SBSC":{"icaoId":"SBSC","flightCategory":"MVFR","rawOb":"METAR SBSC 140900Z 23008KT 7000 FEW025 18/13 Q1022","temp":18,"dewp":13,"wdir":230,"wspd":8,"visib":4.35,"altim":1022,"clouds":[{"cover":"FEW","base":2500}],"obsTime":1784019600},"SBSR":{"icaoId":"SBSR","flightCategory":"VFR","rawOb":"METAR SBSR 140900Z 17006KT 120V210 CAVOK 10/08 Q1021","temp":10,"dewp":8,"wdir":170,"wspd":6,"visib":"6+","altim":1021,"clouds":[],"obsTime":1784019600},"SBPL":{"icaoId":"SBPL","flightCategory":"VFR","rawOb":"METAR SBPL 140900Z 06002KT CAVOK 21/16 Q1015","temp":21,"dewp":16,"wdir":60,"wspd":2,"visib":"6+","altim":1015,"clouds":[],"obsTime":1784019600},"SBES":{"icaoId":"SBES","flightCategory":"VFR","rawOb":"METAR SBES 140900Z VRB04KT 9999 FEW012 SCT030 15/// Q1021","temp":null,"dewp":null,"wdir":"VRB","wspd":4,"visib":"6+","altim":1021,"clouds":[{"cover":"FEW","base":1200},{"cover":"SCT","base":3000}],"obsTime":1784019600},"SBLE":{"icaoId":"SBLE","flightCategory":"VFR","rawOb":"METAR SBLE 140900Z AUTO VRB02KT CAVOK ///// Q1018","temp":null,"dewp":null,"wdir":"VRB","wspd":2,"visib":"6+","altim":1018,"clouds":[],"obsTime":1784019600},"SBJP":{"icaoId":"SBJP","flightCategory":"MVFR","rawOb":"METAR SBJP 140900Z 00000KT 9999 BKN020 BKN070 23/22 Q1015","temp":23,"dewp":22,"wdir":0,"wspd":0,"visib":"6+","altim":1015,"clouds":[{"cover":"BKN","base":2000},{"cover":"BKN","base":7000}],"obsTime":1784019600},"SBAN":{"icaoId":"SBAN","flightCategory":"VFR","rawOb":"METAR SBAN 140900Z 14004KT CAVOK 14/13 Q1021","temp":14,"dewp":13,"wdir":140,"wspd":4,"visib":"6+","altim":1021,"clouds":[],"obsTime":1784019600},"SBGW":{"icaoId":"SBGW","flightCategory":"VFR","rawOb":"METAR SBGW 140900Z 00000KT CAVOK 07/03 Q1024","temp":7,"dewp":3,"wdir":0,"wspd":0,"visib":"6+","altim":1024,"clouds":[],"obsTime":1784019600},"SBJV":{"icaoId":"SBJV","flightCategory":"VFR","rawOb":"METAR SBJV 140900Z 00000KT CAVOK 12/12 Q1024","temp":12,"dewp":12,"wdir":0,"wspd":0,"visib":"6+","altim":1024,"clouds":[],"obsTime":1784019600},"SBNM":{"icaoId":"SBNM","flightCategory":"VFR","rawOb":"METAR SBNM 140900Z AUTO 09008KT CAVOK 04/03 Q1020","temp":4,"dewp":3,"wdir":90,"wspd":8,"visib":"6+","altim":1020,"clouds":[],"obsTime":1784019600},"SBPF":{"icaoId":"SBPF","flightCategory":"VFR","rawOb":"METAR SBPF 141000Z 05008KT CAVOK 09/06 Q1022","temp":9,"dewp":6,"wdir":50,"wspd":8,"visib":"6+","altim":1022,"clouds":[],"obsTime":1784023200},"SBAF":{"icaoId":"SBAF","flightCategory":"MVFR","rawOb":"METAR SBAF 141000Z 27005KT 8000 BKN023 16/16 Q1023","temp":16,"dewp":16,"wdir":270,"wspd":5,"visib":4.97,"altim":1023,"clouds":[{"cover":"BKN","base":2300}],"obsTime":1784023200},"SBJR":{"icaoId":"SBJR","flightCategory":"VFR","rawOb":"METAR SBJR 141000Z 27004KT 9000 FEW020 SCT030 BKN060 17/15 Q1022","temp":17,"dewp":15,"wdir":270,"wspd":4,"visib":5.59,"altim":1022,"clouds":[{"cover":"FEW","base":2000},{"cover":"SCT","base":3000},{"cover":"BKN","base":6000}],"obsTime":1784023200},"SBLS":{"icaoId":"SBLS","flightCategory":"VFR","rawOb":"METAR SBLS 140900Z 14013KT CAVOK 12/09 Q1021","temp":12,"dewp":9,"wdir":140,"wspd":13,"visib":"6+","altim":1021,"clouds":[],"obsTime":1784019600},"SBMT":{"icaoId":"SBMT","flightCategory":"IFR","rawOb":"METAR SBMT 140900Z 12006KT 080V150 9999 BKN009 11/08 Q1023","temp":11,"dewp":8,"wdir":120,"wspd":6,"visib":"6+","altim":1023,"clouds":[{"cover":"BKN","base":900}],"obsTime":1784019600},"SBTA":{"icaoId":"SBTA","flightCategory":"VFR","rawOb":"METAR SBTA 140900Z 00000KT 9999 FEW030 06/05 Q1024","temp":6,"dewp":5,"wdir":0,"wspd":0,"visib":"6+","altim":1024,"clouds":[{"cover":"FEW","base":3000}],"obsTime":1784019600}}}