{"updated":1784596659,"count":64,"data":{"SBFL":{"icaoId":"SBFL","flightCategory":"VFR","rawOb":"METAR SBFL 210000Z 31009KT CAVOK 19/17 Q1010","temp":19,"dewp":17,"wdir":310,"wspd":9,"visib":"6+","altim":1010,"clouds":[],"obsTime":1784592000},"SBPV":{"icaoId":"SBPV","flightCategory":"VFR","rawOb":"METAR SBPV 210000Z 00000KT CAVOK 27/22 Q1009","temp":27,"dewp":22,"wdir":0,"wspd":0,"visib":"6+","altim":1009,"clouds":[],"obsTime":1784592000},"SBBV":{"icaoId":"SBBV","flightCategory":"VFR","rawOb":"METAR SBBV 210000Z 15004KT 9999 FEW030 SCT100 29/23 Q1011","temp":29,"dewp":23,"wdir":150,"wspd":4,"visib":"6+","altim":1011,"clouds":[{"cover":"FEW","base":3000},{"cover":"SCT","base":10000}],"obsTime":1784592000},"SBEG":{"icaoId":"SBEG","flightCategory":"VFR","rawOb":"METAR SBEG 210000Z 09004KT CAVOK 29/24 Q1010","temp":29,"dewp":24,"wdir":90,"wspd":4,"visib":"6+","altim":1010,"clouds":[],"obsTime":1784592000},"SBBR":{"icaoId":"SBBR","flightCategory":"VFR","rawOb":"METAR SBBR 210000Z 10003KT CAVOK 20/10 Q1021","temp":20,"dewp":10,"wdir":100,"wspd":3,"visib":"6+","altim":1021,"clouds":[],"obsTime":1784592000},"SBMO":{"icaoId":"SBMO","flightCategory":"VFR","rawOb":"METAR SBMO 210000Z 11004KT 9999 FEW020 23/22 Q1016","temp":23,"dewp":22,"wdir":110,"wspd":4,"visib":"6+","altim":1016,"clouds":[{"cover":"FEW","base":2000}],"obsTime":1784592000},"SBRB":{"icaoId":"SBRB","flightCategory":"MVFR","rawOb":"METAR SBRB 210000Z 36002KT 8000 FEW040 26/24 Q1009","temp":26,"dewp":24,"wdir":360,"wspd":2,"visib":4.97,"altim":1009,"clouds":[{"cover":"FEW","base":4000}],"obsTime":1784592000},"SBSG":{"icaoId":"SBSG","flightCategory":"IFR","rawOb":"METAR SBSG 210000Z 16006KT 120V200 9999 BKN005 23/23 Q1014","temp":23,"dewp":23,"wdir":160,"wspd":6,"visib":"6+","altim":1014,"clouds":[{"cover":"BKN","base":500}],"obsTime":1784592000},"SBBE":{"icaoId":"SBBE","flightCategory":"VFR","rawOb":"METAR SBBE 210000Z 06010KT 9999 FEW040 27/24 Q1012","temp":27,"dewp":24,"wdir":60,"wspd":10,"visib":"6+","altim":1012,"clouds":[{"cover":"FEW","base":4000}],"obsTime":1784592000},"SBCF":{"icaoId":"SBCF","flightCategory":"VFR","rawOb":"METAR SBCF 210000Z 19001KT CAVOK 18/12 Q1021","temp":18,"dewp":12,"wdir":190,"wspd":1,"visib":"6+","altim":1021,"clouds":[],"obsTime":1784592000},"SBSP":{"icaoId":"SBSP","flightCategory":"VFR","rawOb":"METAR SBSP 210000Z 36004KT CAVOK 20/10 Q1018","temp":20,"dewp":10,"wdir":360,"wspd":4,"visib":"6+","altim":1018,"clouds":[],"obsTime":1784592000},"SBTE":{"icaoId":"SBTE","flightCategory":"VFR","rawOb":"METAR SBTE 210000Z 36004KT CAVOK 28/20 Q1011","temp":28,"dewp":20,"wdir":360,"wspd":4,"visib":"6+","altim":1011,"clouds":[],"obsTime":1784592000},"SBPJ":{"icaoId":"SBPJ","flightCategory":"VFR","rawOb":"METAR SBPJ 210000Z 12004KT CAVOK 25/17 Q1014","temp":25,"dewp":17,"wdir":120,"wspd":4,"visib":"6+","altim":1014,"clouds":[],"obsTime":1784592000},"SBSV":{"icaoId":"SBSV","flightCategory":"VFR","rawOb":"METAR SBSV 210000Z 11011KT 9999 SCT028 BKN070 25/21 Q1017","temp":25,"dewp":21,"wdir":110,"wspd":11,"visib":"6+","altim":1017,"clouds":[{"cover":"SCT","base":2800},{"cover":"BKN","base":7000}],"obsTime":1784592000},"SBCZ":{"icaoId":"SBCZ","flightCategory":"VFR","rawOb":"METAR SBCZ 210000Z 28003KT 230V330 CAVOK 25/25 Q1009","temp":25,"dewp":25,"wdir":280,"wspd":3,"visib":"6+","altim":1009,"clouds":[],"obsTime":1784592000},"SBNT":{"icaoId":"SBNT","flightCategory":"MVFR","rawOb":"METAR SBNT 210000Z 18007KT 6000 -RA BKN015 BKN027 BKN070 23/23 Q1014","temp":23,"dewp":23,"wdir":180,"wspd":7,"visib":3.73,"altim":1014,"clouds":[{"cover":"BKN","base":1500},{"cover":"BKN","base":2700},{"cover":"BKN","base":7000}],"obsTime":1784592000},"SBSL":{"icaoId":"SBSL","flightCategory":"VFR","rawOb":"METAR SBSL 210000Z 08007KT 9999 SCT025 27/24 Q1012","temp":27,"dewp":24,"wdir":80,"wspd":7,"visib":"6+","altim":1012,"clouds":[{"cover":"SCT","base":2500}],"obsTime":1784592000},"SBIL":{"icaoId":"SBIL","flightCategory":"VFR","rawOb":"METAR SBIL 210000Z 31002KT 9999 FEW020 22/21 Q1019","temp":22,"dewp":21,"wdir":310,"wspd":2,"visib":"6+","altim":1019,"clouds":[{"cover":"FEW","base":2000}],"obsTime":1784592000},"SBMG":{"icaoId":"SBMG","flightCategory":"VFR","rawOb":"METAR SBMG 210000Z 03012KT CAVOK 25/15 Q1013","temp":25,"dewp":15,"wdir":30,"wspd":12,"visib":"6+","altim":1013,"clouds":[],"obsTime":1784592000},"SBME":{"icaoId":"SBME","flightCategory":"VFR","rawOb":"METAR SBME 210000Z 03013KT CAVOK 22/19 Q1017","temp":22,"dewp":19,"wdir":30,"wspd":13,"visib":"6+","altim":1017,"clouds":[],"obsTime":1784592000},"SBMK":{"icaoId":"SBMK","flightCategory":"VFR","rawOb":"METAR SBMK 210000Z 00000KT CAVOK 20/13 Q1020","temp":20,"dewp":13,"wdir":0,"wspd":0,"visib":"6+","altim":1020,"clouds":[],"obsTime":1784592000},"SBUL":{"icaoId":"SBUL","flightCategory":"VFR","rawOb":"METAR SBUL 210000Z 11004KT 9999 FEW003 SCT070 20/10 Q1020","temp":20,"dewp":10,"wdir":110,"wspd":4,"visib":"6+","altim":1020,"clouds":[{"cover":"FEW","base":300},{"cover":"SCT","base":7000}],"obsTime":1784592000},"SBUR":{"icaoId":"SBUR","flightCategory":"VFR","rawOb":"METAR SBUR 210000Z 02005KT CAVOK 21/11 Q1019","temp":21,"dewp":11,"wdir":20,"wspd":5,"visib":"6+","altim":1019,"clouds":[],"obsTime":1784592000},"SBGO":{"icaoId":"SBGO","flightCategory":"VFR","rawOb":"METAR SBGO 210000Z 12004KT CAVOK 22/11 Q1018","temp":22,"dewp":11,"wdir":120,"wspd":4,"visib":"6+","altim":1018,"clouds":[],"obsTime":1784592000},"SBMQ":{"icaoId":"SBMQ","flightCategory":"MVFR","rawOb":"METAR SBMQ 210000Z 03005KT 9999 BKN019 SCT042 28/26 Q1012","temp":28,"dewp":26,"wdir":30,"wspd":5,"visib":"6+","altim":1012,"clouds":[{"cover":"BKN","base":1900},{"cover":"SCT","base":4200}],"obsTime":1784592000},"SBGR":{"icaoId":"SBGR","flightCategory":"VFR","rawOb":"METAR SBGR 210000Z 08003KT CAVOK 16/11 Q1018","temp":16,"dewp":11,"wdir":80,"wspd":3,"visib":"6+","altim":1018,"clouds":[],"obsTime":1784592000},"SBFI":{"icaoId":"SBFI","flightCategory":"VFR","rawOb":"SPECI SBFI 202327Z 20002G15KT 9999 -TSRA FEW030 FEW035CB BKN070 23/22 Q1008 RERA RETS","temp":23,"dewp":22,"wdir":200,"wspd":2,"visib":"6+","altim":1008,"clouds":[{"cover":"FEW","base":3000},{"cover":"FEW","base":3500},{"cover":"BKN","base":7000}],"obsTime":1784590020},"SBMA":{"icaoId":"SBMA","flightCategory":"VFR","rawOb":"METAR SBMA 210000Z 00000KT CAVOK 27/20 Q1012","temp":27,"dewp":20,"wdir":0,"wspd":0,"visib":"6+","altim":1012,"clouds":[],"obsTime":1784592000},"SBRF":{"icaoId":"SBRF","flightCategory":"VFR","rawOb":"METAR SBRF 210000Z 14013KT 9999 FEW025 BKN060 26/22 Q1015","temp":26,"dewp":22,"wdir":140,"wspd":13,"visib":"6+","altim":1015,"clouds":[{"cover":"FEW","base":2500},{"cover":"BKN","base":6000}],"obsTime":1784592000},"SBSN":{"icaoId":"SBSN","flightCategory":"VFR","rawOb":"METAR SBSN 210000Z 11004KT 060V120 CAVOK 28/23 Q1011","temp":28,"dewp":23,"wdir":110,"wspd":4,"visib":"6+","altim":1011,"clouds":[],"obsTime":1784592000},"SBLO":{"icaoId":"SBLO","flightCategory":"VFR","rawOb":"METAR SBLO 210000Z 04004KT CAVOK 23/15 Q1015","temp":23,"dewp":15,"wdir":40,"wspd":4,"visib":"6+","altim":1015,"clouds":[],"obsTime":1784592000},"SBCG":{"icaoId":"SBCG","flightCategory":"VFR","rawOb":"METAR SBCG 210000Z 03007KT CAVOK 25/17 Q1013","temp":25,"dewp":17,"wdir":30,"wspd":7,"visib":"6+","altim":1013,"clouds":[],"obsTime":1784592000},"SBFZ":{"icaoId":"SBFZ","flightCategory":"MVFR","rawOb":"METAR SBFZ 210000Z 10012KT 9000 VCSH BKN018 FEW025TCU BKN070 26/24 Q1013","temp":26,"dewp":24,"wdir":100,"wspd":12,"visib":5.59,"altim":1013,"clouds":[{"cover":"BKN","base":1800},{"cover":"FEW","base":2500},{"cover":"BKN","base":7000}],"obsTime":1784592000},"SBVT":{"icaoId":"SBVT","flightCategory":"VFR","rawOb":"METAR SBVT 210000Z 31003KT 9999 BKN045 21/18 Q1019","temp":21,"dewp":18,"wdir":310,"wspd":3,"visib":"6+","altim":1019,"clouds":[{"cover":"BKN","base":4500}],"obsTime":1784592000},"SBGL":{"icaoId":"SBGL","flightCategory":"VFR","rawOb":"METAR SBGL 210000Z 16005KT CAVOK 21/17 Q1014","temp":21,"dewp":17,"wdir":160,"wspd":5,"visib":"6+","altim":1014,"clouds":[],"obsTime":1784592000},"SBKP":{"icaoId":"SBKP","flightCategory":"VFR","rawOb":"METAR SBKP 210000Z 08004KT CAVOK 21/10 Q1017","temp":21,"dewp":10,"wdir":80,"wspd":4,"visib":"6+","altim":1017,"clouds":[],"obsTime":1784592000},"SBCT":{"icaoId":"SBCT","flightCategory":"VFR","rawOb":"METAR SBCT 210000Z 02005KT CAVOK 19/13 Q1017","temp":19,"dewp":13,"wdir":20,"wspd":5,"visib":"6+","altim":1017,"clouds":[],"obsTime":1784592000},"SBPA":{"icaoId":"SBPA","flightCategory":"VFR","rawOb":"METAR SBPA 210000Z 11005KT 9000 FEW006 FEW035TCU BKN060 19/19 Q1007","temp":19,"dewp":19,"wdir":110,"wspd":5,"visib":5.59,"altim":1007,"clouds":[{"cover":"FEW","base":600},{"cover":"FEW","base":3500},{"cover":"BKN","base":6000}],"obsTime":1784592000},"SBSJ":{"icaoId":"SBSJ","flightCategory":"VFR","rawOb":"METAR SBSJ 210000Z 00000KT CAVOK 17/11 Q1018","temp":17,"dewp":11,"wdir":0,"wspd":0,"visib":"6+","altim":1018,"clouds":[],"obsTime":1784592000},"SBOI":{"icaoId":"SBOI","flightCategory":"VFR","rawOb":"METAR SBOI 210000Z AUTO 09003KT 060V140 CAVOK 27/23 Q1012","temp":27,"dewp":23,"wdir":90,"wspd":3,"visib":"6+","altim":1012,"clouds":[],"obsTime":1784592000},"SBPL":{"icaoId":"SBPL","flightCategory":"VFR","rawOb":"METAR SBPL 210000Z 10008KT CAVOK 25/19 Q1017","temp":25,"dewp":19,"wdir":100,"wspd":8,"visib":"6+","altim":1017,"clouds":[],"obsTime":1784592000},"SBAR":{"icaoId":"SBAR","flightCategory":"VFR","rawOb":"METAR SBAR 210000Z 24003KT 150V280 9999 FEW015 SCT025 23/22 Q1016","temp":23,"dewp":22,"wdir":240,"wspd":3,"visib":"6+","altim":1016,"clouds":[{"cover":"FEW","base":1500},{"cover":"SCT","base":2500}],"obsTime":1784592000},"SBKG":{"icaoId":"SBKG","flightCategory":"VFR","rawOb":"METAR SBKG 210000Z 18004KT 9999 FEW008 BKN070 22/20 Q1017","temp":22,"dewp":20,"wdir":180,"wspd":4,"visib":"6+","altim":1017,"clouds":[{"cover":"FEW","base":800},{"cover":"BKN","base":7000}],"obsTime":1784592000},"SBSM":{"icaoId":"SBSM","flightCategory":"MVFR","rawOb":"METAR SBSM 210000Z 16002KT 9999 -RA FEW008 BKN015 BKN020 21/20 Q1007","temp":21,"dewp":20,"wdir":160,"wspd":2,"visib":"6+","altim":1007,"clouds":[{"cover":"FEW","base":800},{"cover":"BKN","base":1500},{"cover":"BKN","base":2000}],"obsTime":1784592000},"SBAX":{"icaoId":"SBAX","flightCategory":"VFR","rawOb":"METAR SBAX 210000Z AUTO 10005KT CAVOK 18/09 Q1021","temp":18,"dewp":9,"wdir":100,"wspd":5,"visib":"6+","altim":1021,"clouds":[],"obsTime":1784592000},"SBBH":{"icaoId":"SBBH","flightCategory":"VFR","rawOb":"METAR SBBH 210000Z 00000KT CAVOK 16/13 Q1021","temp":16,"dewp":13,"wdir":0,"wspd":0,"visib":"6+","altim":1021,"clouds":[],"obsTime":1784592000},"SBBU":{"icaoId":"SBBU","flightCategory":"VFR","rawOb":"METAR SBBU 210000Z 02002KT CAVOK 25/13 Q1017","temp":25,"dewp":13,"wdir":20,"wspd":2,"visib":"6+","altim":1017,"clouds":[],"obsTime":1784592000},"SBDN":{"icaoId":"SBDN","flightCategory":"VFR","rawOb":"METAR SBDN 210000Z 05006KT CAVOK 25/13 Q1014","temp":25,"dewp":13,"wdir":50,"wspd":6,"visib":"6+","altim":1014,"clouds":[],"obsTime":1784592000},"SBIP":{"icaoId":"SBIP","flightCategory":"VFR","rawOb":"METAR SBIP 210000Z AUTO 00000KT CAVOK 21/17 Q1019","temp":21,"dewp":17,"wdir":0,"wspd":0,"visib":"6+","altim":1019,"clouds":[],"obsTime":1784592000},"SBSC":{"icaoId":"SBSC","flightCategory":"VFR","rawOb":"METAR SBSC 210000Z 06002KT CAVOK 21/15 Q1015","temp":21,"dewp":15,"wdir":60,"wspd":2,"visib":"6+","altim":1015,"clouds":[],"obsTime":1784592000},"SBSR":{"icaoId":"SBSR","flightCategory":"VFR","rawOb":"METAR SBSR 210000Z 09001KT CAVOK 23/11 Q1016","temp":23,"dewp":11,"wdir":90,"wspd":1,"visib":"6+","altim":1016,"clouds":[],"obsTime":1784592000},"SBCO":{"icaoId":"SBCO","flightCategory":"VFR","rawOb":"METAR SBCO 210000Z 11006KT 9000 VCSH VCTS FEW003 FEW020CB OVC050 18/18 Q1007","temp":18,"dewp":18,"wdir":110,"wspd":6,"visib":5.59,"altim":1007,"clouds":[{"cover":"FEW","base":300},{"cover":"FEW","base":2000},{"cover":"OVC","base":5000}],"obsTime":1784592000},"SBTU":{"icaoId":"SBTU","flightCategory":"VFR","rawOb":"METAR SBTU 210000Z AUTO 22003KT 9999 // NCD ///// Q1014","temp":null,"dewp":null,"wdir":220,"wspd":3,"visib":"6+","altim":1014,"clouds":[],"obsTime":1784592000},"SBPS":{"icaoId":"SBPS","flightCategory":"VFR","rawOb":"METAR SBPS 210000Z 08007KT 9999 FEW020 SCT030 BKN066 23/21 Q1019","temp":23,"dewp":21,"wdir":80,"wspd":7,"visib":"6+","altim":1019,"clouds":[{"cover":"FEW","base":2000},{"cover":"SCT","base":3000},{"cover":"BKN","base":6600}],"obsTime":1784592000},"SBCA":{"icaoId":"SBCA","flightCategory":"VFR","rawOb":"METAR SBCA 210000Z 04014G24KT CAVOK 23/15 Q1012","temp":23,"dewp":15,"wdir":40,"wspd":14,"visib":"6+","altim":1012,"clouds":[],"obsTime":1784592000},"SBNM":{"icaoId":"SBNM","flightCategory":"MVFR","rawOb":"METAR SBNM 210000Z AUTO 36008KT 9999 -RA BKN029 22/20 Q1008","temp":22,"dewp":20,"wdir":360,"wspd":8,"visib":"6+","altim":1008,"clouds":[{"cover":"BKN","base":2900}],"obsTime":1784592000},"SBJP":{"icaoId":"SBJP","flightCategory":"VFR","rawOb":"METAR SBJP 210000Z 15010KT 9999 FEW020 SCT070 24/23 Q1015","temp":24,"dewp":23,"wdir":150,"wspd":10,"visib":"6+","altim":1015,"clouds":[{"cover":"FEW","base":2000},{"cover":"SCT","base":7000}],"obsTime":1784592000},"SBLE":{"icaoId":"SBLE","flightCategory":"VFR","rawOb":"METAR SBLE 210000Z AUTO 02003KT 350V060 CAVOK ///// Q1019","temp":null,"dewp":null,"wdir":20,"wspd":3,"visib":"6+","altim":1019,"clouds":[],"obsTime":1784592000},"SBJV":{"icaoId":"SBJV","flightCategory":"VFR","rawOb":"METAR SBJV 210000Z 02001KT CAVOK 19/18 Q1011","temp":19,"dewp":18,"wdir":20,"wspd":1,"visib":"6+","altim":1011,"clouds":[],"obsTime":1784592000},"SBAN":{"icaoId":"SBAN","flightCategory":"VFR","rawOb":"METAR SBAN 210000Z 06005KT CAVOK 20/09 Q1021","temp":20,"dewp":9,"wdir":60,"wspd":5,"visib":"6+","altim":1021,"clouds":[],"obsTime":1784592000},"SBLS":{"icaoId":"SBLS","flightCategory":"VFR","rawOb":"METAR SBLS 210000Z /////KT CAVOK 18/12 Q1021","temp":18,"dewp":12,"wdir":null,"wspd":null,"visib":"6+","altim":1021,"clouds":[],"obsTime":1784592000},"SBMT":{"icaoId":"SBMT","flightCategory":"VFR","rawOb":"METAR SBMT 210000Z VRB02KT CAVOK 21/08 Q1018","temp":21,"dewp":8,"wdir":"VRB","wspd":2,"visib":"6+","altim":1018,"clouds":[],"obsTime":1784592000},"SBTA":{"icaoId":"SBTA","flightCategory":"VFR","rawOb":"METAR SBTA 210000Z VRB02KT CAVOK 14/11 Q1017","temp":14,"dewp":11,"wdir":"VRB","wspd":2,"visib":"6+","altim":1017,"clouds":[],"obsTime":1784592000},"SBJR":{"icaoId":"SBJR","flightCategory":"VFR","rawOb":"METAR SBJR 210000Z 03002KT CAVOK 19/16 Q1014","temp":19,"dewp":16,"wdir":30,"wspd":2,"visib":"6+","altim":1014,"clouds":[],"obsTime":1784592000}}}