{"updated":1777124466,"count":85,"data":{"SBPV":{"icaoId":"SBPV","flightCategory":"LIFR","rawOb":"METAR SBPV 251200Z 12004KT 9999 BKN004 BKN060 25/23 Q1013","temp":25,"dewp":23,"wdir":120,"wspd":4,"visib":"6+","altim":1013,"clouds":[{"cover":"BKN","base":400},{"cover":"BKN","base":6000}],"obsTime":1777118400},"SBMA":{"icaoId":"SBMA","flightCategory":"VFR","rawOb":"METAR SBMA 251200Z 09004KT 9999 SCT014 BKN100 26/24 Q1013","temp":26,"dewp":24,"wdir":90,"wspd":4,"visib":"6+","altim":1013,"clouds":[{"cover":"SCT","base":1400},{"cover":"BKN","base":10000}],"obsTime":1777118400},"SBEG":{"icaoId":"SBEG","flightCategory":"VFR","rawOb":"METAR SBEG 251200Z 17003KT 9999 FEW005 BKN100 26/25 Q1012","temp":26,"dewp":25,"wdir":170,"wspd":3,"visib":"6+","altim":1012,"clouds":[{"cover":"FEW","base":500},{"cover":"BKN","base":10000}],"obsTime":1777118400},"SBBE":{"icaoId":"SBBE","flightCategory":"VFR","rawOb":"METAR SBBE 251200Z 06003KT 9999 FEW007 25/23 Q1013","temp":25,"dewp":23,"wdir":60,"wspd":3,"visib":"6+","altim":1013,"clouds":[{"cover":"FEW","base":700}],"obsTime":1777118400},"SBME":{"icaoId":"SBME","flightCategory":"VFR","rawOb":"METAR SBME 251200Z 04012KT 9999 FEW002 BKN100 28/19 Q1014","temp":28,"dewp":19,"wdir":40,"wspd":12,"visib":"6+","altim":1014,"clouds":[{"cover":"FEW","base":200},{"cover":"BKN","base":10000}],"obsTime":1777118400},"SBFI":{"icaoId":"SBFI","flightCategory":"VFR","rawOb":"METAR SBFI 251200Z 12003KT CAVOK 22/21 Q1014","temp":22,"dewp":21,"wdir":120,"wspd":3,"visib":"6+","altim":1014,"clouds":[],"obsTime":1777118400},"SBMG":{"icaoId":"SBMG","flightCategory":"VFR","rawOb":"METAR SBMG 251200Z 01004KT CAVOK 25/18 Q1015","temp":25,"dewp":18,"wdir":10,"wspd":4,"visib":"6+","altim":1015,"clouds":[],"obsTime":1777118400},"SBFL":{"icaoId":"SBFL","flightCategory":"VFR","rawOb":"METAR SBFL 251200Z 33010KT 9999 FEW030 BKN100 25/22 Q1011","temp":25,"dewp":22,"wdir":330,"wspd":10,"visib":"6+","altim":1011,"clouds":[{"cover":"FEW","base":3000},{"cover":"BKN","base":10000}],"obsTime":1777118400},"SBMK":{"icaoId":"SBMK","flightCategory":"VFR","rawOb":"METAR SBMK 251200Z 09004KT CAVOK 25/17 Q1019","temp":25,"dewp":17,"wdir":90,"wspd":4,"visib":"6+","altim":1019,"clouds":[],"obsTime":1777118400},"SBCG":{"icaoId":"SBCG","flightCategory":"VFR","rawOb":"METAR SBCG 251200Z VRB01KT CAVOK 27/18 Q1016","temp":27,"dewp":18,"wdir":"VRB","wspd":1,"visib":"6+","altim":1016,"clouds":[],"obsTime":1777118400},"SBMO":{"icaoId":"SBMO","flightCategory":"VFR","rawOb":"METAR SBMO 251200Z 11007KT 9999 FEW015 SCT025 27/24 Q1013","temp":27,"dewp":24,"wdir":110,"wspd":7,"visib":"6+","altim":1013,"clouds":[{"cover":"FEW","base":1500},{"cover":"SCT","base":2500}],"obsTime":1777118400},"SBMQ":{"icaoId":"SBMQ","flightCategory":"VFR","rawOb":"METAR SBMQ 251200Z 36004KT 9999 SCT010 28/24 Q1013","temp":28,"dewp":24,"wdir":360,"wspd":4,"visib":"6+","altim":1013,"clouds":[{"cover":"SCT","base":1000}],"obsTime":1777118400},"SBBV":{"icaoId":"SBBV","flightCategory":"MVFR","rawOb":"METAR SBBV 251200Z 03004KT 9999 BKN020 FEW030TCU BKN070 26/23 Q1013","temp":26,"dewp":23,"wdir":30,"wspd":4,"visib":"6+","altim":1013,"clouds":[{"cover":"BKN","base":2000},{"cover":"FEW","base":3000},{"cover":"BKN","base":7000}],"obsTime":1777118400},"SBFZ":{"icaoId":"SBFZ","flightCategory":"VFR","rawOb":"METAR SBFZ 251200Z 18006KT 9999 FEW020 BKN100 27/24 Q1012","temp":27,"dewp":24,"wdir":180,"wspd":6,"visib":"6+","altim":1012,"clouds":[{"cover":"FEW","base":2000},{"cover":"BKN","base":10000}],"obsTime":1777118400},"SBNT":{"icaoId":"SBNT","flightCategory":"VFR","rawOb":"METAR SBNT 251200Z 15007KT 9999 SCT021 BKN100 28/24 Q1012","temp":28,"dewp":24,"wdir":150,"wspd":7,"visib":"6+","altim":1012,"clouds":[{"cover":"SCT","base":2100},{"cover":"BKN","base":10000}],"obsTime":1777118400},"SBPA":{"icaoId":"SBPA","flightCategory":"MVFR","rawOb":"METAR SBPA 251200Z 24004KT 9999 BKN010 OVC019 21/19 Q1013","temp":21,"dewp":19,"wdir":240,"wspd":4,"visib":"6+","altim":1013,"clouds":[{"cover":"BKN","base":1000},{"cover":"OVC","base":1900}],"obsTime":1777118400},"SBGL":{"icaoId":"SBGL","flightCategory":"VFR","rawOb":"METAR SBGL 251200Z 08002KT 9999 FEW008 SCT100 24/21 Q1014","temp":24,"dewp":21,"wdir":80,"wspd":2,"visib":"6+","altim":1014,"clouds":[{"cover":"FEW","base":800},{"cover":"SCT","base":10000}],"obsTime":1777118400},"SBPJ":{"icaoId":"SBPJ","flightCategory":"VFR","rawOb":"METAR SBPJ 251200Z 19002KT 9999 FEW025 29/24 Q1014","temp":29,"dewp":24,"wdir":190,"wspd":2,"visib":"6+","altim":1014,"clouds":[{"cover":"FEW","base":2500}],"obsTime":1777118400},"SBCP":{"icaoId":"SBCP","flightCategory":"VFR","rawOb":"METAR SBCP 251200Z 02007KT CAVOK 27/21 Q1015","temp":27,"dewp":21,"wdir":20,"wspd":7,"visib":"6+","altim":1015,"clouds":[],"obsTime":1777118400},"SBGO":{"icaoId":"SBGO","flightCategory":"VFR","rawOb":"METAR SBGO 251200Z VRB02KT CAVOK 23/18 Q1019","temp":23,"dewp":18,"wdir":"VRB","wspd":2,"visib":"6+","altim":1019,"clouds":[],"obsTime":1777118400},"SBAT":{"icaoId":"SBAT","flightCategory":"VFR","rawOb":"METAR SBAT 251200Z 00000KT CAVOK 27/23 Q1014","temp":27,"dewp":23,"wdir":0,"wspd":0,"visib":"6+","altim":1014,"clouds":[],"obsTime":1777118400},"SBRB":{"icaoId":"SBRB","flightCategory":"IFR","rawOb":"METAR SBRB 251200Z 33004KT 3000 BR BKN005 22/22 Q1013","temp":22,"dewp":22,"wdir":330,"wspd":4,"visib":1.86,"altim":1013,"clouds":[{"cover":"BKN","base":500}],"obsTime":1777118400},"SBGR":{"icaoId":"SBGR","flightCategory":"VFR","rawOb":"METAR SBGR 251200Z 07005KT CAVOK 22/17 Q1018","temp":22,"dewp":17,"wdir":70,"wspd":5,"visib":"6+","altim":1018,"clouds":[],"obsTime":1777118400},"SBRF":{"icaoId":"SBRF","flightCategory":"MVFR","rawOb":"METAR SBRF 251200Z 17006KT 9999 VCSH BKN020 BKN050 28/25 Q1012","temp":28,"dewp":25,"wdir":170,"wspd":6,"visib":"6+","altim":1012,"clouds":[{"cover":"BKN","base":2000},{"cover":"BKN","base":5000}],"obsTime":1777118400},"SBCR":{"icaoId":"SBCR","flightCategory":"VFR","rawOb":"METAR SBCR 251200Z 35003KT 300V040 CAVOK 26/23 Q1013","temp":26,"dewp":23,"wdir":350,"wspd":3,"visib":"6+","altim":1013,"clouds":[],"obsTime":1777118400},"SBSG":{"icaoId":"SBSG","flightCategory":"MVFR","rawOb":"METAR SBSG 251200Z 18005KT 150V210 9999 FEW010 BKN023 BKN100 27/24 Q1012","temp":27,"dewp":24,"wdir":180,"wspd":5,"visib":"6+","altim":1012,"clouds":[{"cover":"FEW","base":1000},{"cover":"BKN","base":2300},{"cover":"BKN","base":10000}],"obsTime":1777118400},"SBCB":{"icaoId":"SBCB","flightCategory":"VFR","rawOb":"METAR SBCB 251200Z 04013KT CAVOK 26/21 Q1014","temp":26,"dewp":21,"wdir":40,"wspd":13,"visib":"6+","altim":1014,"clouds":[],"obsTime":1777118400},"SBSL":{"icaoId":"SBSL","flightCategory":"VFR","rawOb":"METAR SBSL 251200Z 14003KT 090V170 9999 SCT020 BKN090 24/24 Q1013","temp":24,"dewp":24,"wdir":140,"wspd":3,"visib":"6+","altim":1013,"clouds":[{"cover":"SCT","base":2000},{"cover":"BKN","base":9000}],"obsTime":1777118400},"SBHT":{"icaoId":"SBHT","flightCategory":"VFR","rawOb":"METAR SBHT 251200Z 24002KT 9999 SCT015 BKN080 29/23 Q1013","temp":29,"dewp":23,"wdir":240,"wspd":2,"visib":"6+","altim":1013,"clouds":[{"cover":"SCT","base":1500},{"cover":"BKN","base":8000}],"obsTime":1777118400},"SBSN":{"icaoId":"SBSN","flightCategory":"VFR","rawOb":"METAR SBSN 251200Z 14003KT 9999 FEW017 SCT100 26/24 Q1012","temp":26,"dewp":24,"wdir":140,"wspd":3,"visib":"6+","altim":1012,"clouds":[{"cover":"FEW","base":1700},{"cover":"SCT","base":10000}],"obsTime":1777118400},"SBCT":{"icaoId":"SBCT","flightCategory":"MVFR","rawOb":"METAR SBCT 251200Z 29004KT 8000 FEW006 19/19 Q1018","temp":19,"dewp":19,"wdir":290,"wspd":4,"visib":4.97,"altim":1018,"clouds":[{"cover":"FEW","base":600}],"obsTime":1777118400},"SBSP":{"icaoId":"SBSP","flightCategory":"VFR","rawOb":"METAR SBSP 251200Z 36006KT CAVOK 23/16 Q1019","temp":23,"dewp":16,"wdir":360,"wspd":6,"visib":"6+","altim":1019,"clouds":[],"obsTime":1777118400},"SBIL":{"icaoId":"SBIL","flightCategory":"VFR","rawOb":"METAR SBIL 251200Z 23006KT 9999 FEW033 BKN070 28/24 Q1016","temp":28,"dewp":24,"wdir":230,"wspd":6,"visib":"6+","altim":1016,"clouds":[{"cover":"FEW","base":3300},{"cover":"BKN","base":7000}],"obsTime":1777118400},"SBSV":{"icaoId":"SBSV","flightCategory":"VFR","rawOb":"METAR SBSV 251200Z 15006KT 100V190 9999 SCT023 FEW025TCU 29/24 Q1014","temp":29,"dewp":24,"wdir":150,"wspd":6,"visib":"6+","altim":1014,"clouds":[{"cover":"SCT","base":2300},{"cover":"FEW","base":2500}],"obsTime":1777118400},"SBBR":{"icaoId":"SBBR","flightCategory":"VFR","rawOb":"METAR SBBR 251200Z 13005KT 090V180 CAVOK 22/17 Q1021","temp":22,"dewp":17,"wdir":130,"wspd":5,"visib":"6+","altim":1021,"clouds":[],"obsTime":1777118400},"SBTE":{"icaoId":"SBTE","flightCategory":"MVFR","rawOb":"METAR SBTE 251200Z 19006KT 9999 BKN012 26/24 Q1013","temp":26,"dewp":24,"wdir":190,"wspd":6,"visib":"6+","altim":1013,"clouds":[{"cover":"BKN","base":1200}],"obsTime":1777118400},"SBJU":{"icaoId":"SBJU","flightCategory":"VFR","rawOb":"METAR SBJU 251200Z 15008KT 9999 FEW020 27/21 Q1015","temp":27,"dewp":21,"wdir":150,"wspd":8,"visib":"6+","altim":1015,"clouds":[{"cover":"FEW","base":2000}],"obsTime":1777118400},"SBUL":{"icaoId":"SBUL","flightCategory":"VFR","rawOb":"METAR SBUL 251200Z 10007KT CAVOK 23/15 Q1021","temp":23,"dewp":15,"wdir":100,"wspd":7,"visib":"6+","altim":1021,"clouds":[],"obsTime":1777118400},"SBCZ":{"icaoId":"SBCZ","flightCategory":"IFR","rawOb":"METAR SBCZ 251200Z 12003KT 5000 BR OVC005 23/23 Q1012","temp":23,"dewp":23,"wdir":120,"wspd":3,"visib":3.11,"altim":1012,"clouds":[{"cover":"OVC","base":500}],"obsTime":1777118400},"SBUR":{"icaoId":"SBUR","flightCategory":"VFR","rawOb":"METAR SBUR 251200Z 01008KT CAVOK 24/15 Q1019","temp":24,"dewp":15,"wdir":10,"wspd":8,"visib":"6+","altim":1019,"clouds":[],"obsTime":1777118400},"SBVT":{"icaoId":"SBVT","flightCategory":"VFR","rawOb":"METAR SBVT 251200Z 33004KT 9999 FEW025 27/21 Q1016","temp":27,"dewp":21,"wdir":330,"wspd":4,"visib":"6+","altim":1016,"clouds":[{"cover":"FEW","base":2500}],"obsTime":1777118400},"SBKP":{"icaoId":"SBKP","flightCategory":"VFR","rawOb":"METAR SBKP 251200Z 02004KT 340V060 9999 SCT045 22/16 Q1018","temp":22,"dewp":16,"wdir":20,"wspd":4,"visib":"6+","altim":1018,"clouds":[{"cover":"SCT","base":4500}],"obsTime":1777118400},"SBCF":{"icaoId":"SBCF","flightCategory":"VFR","rawOb":"METAR SBCF 251200Z 19003KT CAVOK 21/17 Q1021","temp":21,"dewp":17,"wdir":190,"wspd":3,"visib":"6+","altim":1021,"clouds":[],"obsTime":1777118400},"SBLO":{"icaoId":"SBLO","flightCategory":"MVFR","rawOb":"METAR SBLO 251200Z VRB01KT 6000 NSC 23/18 Q1016","temp":23,"dewp":18,"wdir":"VRB","wspd":1,"visib":3.73,"altim":1016,"clouds":[],"obsTime":1777118400},"SBAR":{"icaoId":"SBAR","flightCategory":"VFR","rawOb":"METAR SBAR 251200Z 12009KT 9999 VCSH FEW022 FEW024TCU 29/24 Q1013","temp":29,"dewp":24,"wdir":120,"wspd":9,"visib":"6+","altim":1013,"clouds":[{"cover":"FEW","base":2200},{"cover":"FEW","base":2400}],"obsTime":1777118400},"SBOI":{"icaoId":"SBOI","flightCategory":"IFR","rawOb":"METAR SBOI 251200Z AUTO VRB01KT 9999 FEW005 BKN007 26/24 Q1013","temp":26,"dewp":24,"wdir":"VRB","wspd":1,"visib":"6+","altim":1013,"clouds":[{"cover":"FEW","base":500},{"cover":"BKN","base":700}],"obsTime":1777118400},"SBAU":{"icaoId":"SBAU","flightCategory":"VFR","rawOb":"METAR SBAU 251300Z 36004KT CAVOK 30/19 Q1016","temp":30,"dewp":19,"wdir":360,"wspd":4,"visib":"6+","altim":1016,"clouds":[],"obsTime":1777122000},"SBAX":{"icaoId":"SBAX","flightCategory":"VFR","rawOb":"METAR SBAX 251200Z AUTO 06003KT 360V090 CAVOK 22/14 Q1021","temp":22,"dewp":14,"wdir":60,"wspd":3,"visib":"6+","altim":1021,"clouds":[],"obsTime":1777118400},"SBSC":{"icaoId":"SBSC","flightCategory":"VFR","rawOb":"METAR SBSC 251200Z 36011KT 9999 FEW025 27/18 Q1014","temp":27,"dewp":18,"wdir":360,"wspd":11,"visib":"6+","altim":1014,"clouds":[{"cover":"FEW","base":2500}],"obsTime":1777118400},"SBBH":{"icaoId":"SBBH","flightCategory":"VFR","rawOb":"METAR SBBH 251200Z 10004KT CAVOK 22/17 Q1020","temp":22,"dewp":17,"wdir":100,"wspd":4,"visib":"6+","altim":1020,"clouds":[],"obsTime":1777118400},"SBBQ":{"icaoId":"SBBQ","flightCategory":"VFR","rawOb":"METAR SBBQ 251200Z VRB04KT CAVOK 20/16 Q1023","temp":20,"dewp":16,"wdir":"VRB","wspd":4,"visib":"6+","altim":1023,"clouds":[],"obsTime":1777118400},"SBBU":{"icaoId":"SBBU","flightCategory":"VFR","rawOb":"METAR SBBU 251200Z 06004KT CAVOK 26/19 Q1017","temp":26,"dewp":19,"wdir":60,"wspd":4,"visib":"6+","altim":1017,"clouds":[],"obsTime":1777118400},"SBCA":{"icaoId":"SBCA","flightCategory":"VFR","rawOb":"METAR SBCA 251200Z 01004KT CAVOK 23/16 Q1017","temp":23,"dewp":16,"wdir":10,"wspd":4,"visib":"6+","altim":1017,"clouds":[],"obsTime":1777118400},"SBCC":{"icaoId":"SBCC","flightCategory":"VFR","rawOb":"METAR SBCC 251200Z 03006KT CAVOK 26/21 Q1015","temp":26,"dewp":21,"wdir":30,"wspd":6,"visib":"6+","altim":1015,"clouds":[],"obsTime":1777118400},"SBCJ":{"icaoId":"SBCJ","flightCategory":"VFR","rawOb":"METAR SBCJ 251200Z 18002KT CAVOK 27/21 Q1017","temp":27,"dewp":21,"wdir":180,"wspd":2,"visib":"6+","altim":1017,"clouds":[],"obsTime":1777118400},"SBCO":{"icaoId":"SBCO","flightCategory":"IFR","rawOb":"METAR SBCO 251200Z 29006KT 5000 BR BKN009 OVC020 20/20 Q1014","temp":20,"dewp":20,"wdir":290,"wspd":6,"visib":3.11,"altim":1014,"clouds":[{"cover":"BKN","base":900},{"cover":"OVC","base":2000}],"obsTime":1777118400},"SBDN":{"icaoId":"SBDN","flightCategory":"VFR","rawOb":"METAR SBDN 251200Z 01002KT CAVOK 28/19 Q1016","temp":28,"dewp":19,"wdir":10,"wspd":2,"visib":"6+","altim":1016,"clouds":[],"obsTime":1777118400},"SBES":{"icaoId":"SBES","flightCategory":"VFR","rawOb":"METAR SBES 251200Z 06009KT 330V080 CAVOK 24/// Q1014","temp":null,"dewp":null,"wdir":60,"wspd":9,"visib":"6+","altim":1014,"clouds":[],"obsTime":1777118400},"SBGM":{"icaoId":"SBGM","flightCategory":"VFR","rawOb":"METAR SBGM 251200Z 08002KT 9999 FEW040 26/24 Q1013","temp":26,"dewp":24,"wdir":80,"wspd":2,"visib":"6+","altim":1013,"clouds":[{"cover":"FEW","base":4000}],"obsTime":1777118400},"SBIP":{"icaoId":"SBIP","flightCategory":"VFR","rawOb":"METAR SBIP 251200Z AUTO 36004KT 320V040 9999 OVC037 24/20 Q1018","temp":24,"dewp":20,"wdir":360,"wspd":4,"visib":"6+","altim":1018,"clouds":[{"cover":"OVC","base":3700}],"obsTime":1777118400},"SBKG":{"icaoId":"SBKG","flightCategory":"MVFR","rawOb":"METAR SBKG 251200Z 14008KT 9999 SCT010 BKN015 24/21 Q1015","temp":24,"dewp":21,"wdir":140,"wspd":8,"visib":"6+","altim":1015,"clouds":[{"cover":"SCT","base":1000},{"cover":"BKN","base":1500}],"obsTime":1777118400},"SBPB":{"icaoId":"SBPB","flightCategory":"MVFR","rawOb":"METAR SBPB 251200Z 19004KT 9999 -RA BKN010 OVC100 25/24 Q1013","temp":25,"dewp":24,"wdir":190,"wspd":4,"visib":"6+","altim":1013,"clouds":[{"cover":"BKN","base":1000},{"cover":"OVC","base":10000}],"obsTime":1777118400},"SBPL":{"icaoId":"SBPL","flightCategory":"MVFR","rawOb":"METAR SBPL 251200Z 12011KT 9999 BKN022 27/21 Q1015","temp":27,"dewp":21,"wdir":120,"wspd":11,"visib":"6+","altim":1015,"clouds":[{"cover":"BKN","base":2200}],"obsTime":1777118400},"SBPP":{"icaoId":"SBPP","flightCategory":"VFR","rawOb":"METAR SBPP 251200Z 01002KT CAVOK 24/18 Q1016","temp":24,"dewp":18,"wdir":10,"wspd":2,"visib":"6+","altim":1016,"clouds":[],"obsTime":1777118400},"SBPS":{"icaoId":"SBPS","flightCategory":"VFR","rawOb":"METAR SBPS 251200Z 23004KT 9999 VCSH SCT020 FEW025TCU SCT070 27/23 Q1016","temp":27,"dewp":23,"wdir":230,"wspd":4,"visib":"6+","altim":1016,"clouds":[{"cover":"SCT","base":2000},{"cover":"FEW","base":2500},{"cover":"SCT","base":7000}],"obsTime":1777118400},"SBSJ":{"icaoId":"SBSJ","flightCategory":"MVFR","rawOb":"METAR SBSJ 251200Z 04004KT 010V090 8000 NSC 21/18 Q1018","temp":21,"dewp":18,"wdir":40,"wspd":4,"visib":4.97,"altim":1018,"clouds":[],"obsTime":1777118400},"SBSM":{"icaoId":"SBSM","flightCategory":"LIFR","rawOb":"METAR SBSM 251200Z 18001KT 5000 BR OVC004 19/19 Q1015","temp":19,"dewp":19,"wdir":180,"wspd":1,"visib":3.11,"altim":1015,"clouds":[{"cover":"OVC","base":400}],"obsTime":1777118400},"SBSR":{"icaoId":"SBSR","flightCategory":"VFR","rawOb":"METAR SBSR 251200Z 05007KT 9000 NSC 25/17 Q1017","temp":25,"dewp":17,"wdir":50,"wspd":7,"visib":5.59,"altim":1017,"clouds":[],"obsTime":1777118400},"SBTF":{"icaoId":"SBTF","flightCategory":"VFR","rawOb":"METAR SBTF 251200Z 26004KT 9999 -RA FEW006 BKN100 23/23 Q1013","temp":23,"dewp":23,"wdir":260,"wspd":4,"visib":"6+","altim":1013,"clouds":[{"cover":"FEW","base":600},{"cover":"BKN","base":10000}],"obsTime":1777118400},"SBTT":{"icaoId":"SBTT","flightCategory":"IFR","rawOb":"METAR SBTT 251200Z 14004KT 9999 BKN009 BKN090 23/23 Q1013","temp":23,"dewp":23,"wdir":140,"wspd":4,"visib":"6+","altim":1013,"clouds":[{"cover":"BKN","base":900},{"cover":"BKN","base":9000}],"obsTime":1777118400},"SBUY":{"icaoId":"SBUY","flightCategory":"VFR","rawOb":"METAR SBUY 251200Z 36004KT 9999 SCT003 BKN100 22/22 Q1012","temp":22,"dewp":22,"wdir":360,"wspd":4,"visib":"6+","altim":1012,"clouds":[{"cover":"SCT","base":300},{"cover":"BKN","base":10000}],"obsTime":1777118400},"SBVH":{"icaoId":"SBVH","flightCategory":"VFR","rawOb":"METAR SBVH 251200Z 31002KT 9999 FEW035 25/22 Q1016","temp":25,"dewp":22,"wdir":310,"wspd":2,"visib":"6+","altim":1016,"clouds":[{"cover":"FEW","base":3500}],"obsTime":1777118400},"SBLE":{"icaoId":"SBLE","flightCategory":"MVFR","rawOb":"METAR SBLE 251200Z AUTO 17003KT 100V200 9999 SCT007 BKN010 ///// Q////","temp":null,"dewp":null,"wdir":170,"wspd":3,"visib":"6+","altim":null,"clouds":[{"cover":"SCT","base":700},{"cover":"BKN","base":1000}],"obsTime":1777118400},"SBJP":{"icaoId":"SBJP","flightCategory":"MVFR","rawOb":"METAR SBJP 251200Z 12010KT 9999 BKN017 29/24 Q1012","temp":29,"dewp":24,"wdir":120,"wspd":10,"visib":"6+","altim":1012,"clouds":[{"cover":"BKN","base":1700}],"obsTime":1777118400},"SBTA":{"icaoId":"SBTA","flightCategory":"VFR","rawOb":"METAR SBTA 251200Z 10003KT 050V140 CAVOK 21/18 Q1017","temp":21,"dewp":18,"wdir":100,"wspd":3,"visib":"6+","altim":1017,"clouds":[],"obsTime":1777118400},"SBAN":{"icaoId":"SBAN","flightCategory":"VFR","rawOb":"METAR SBAN 251200Z 11007KT CAVOK 23/17 Q1021","temp":23,"dewp":17,"wdir":110,"wspd":7,"visib":"6+","altim":1021,"clouds":[],"obsTime":1777118400},"SBJV":{"icaoId":"SBJV","flightCategory":"VFR","rawOb":"METAR SBJV 251200Z 34001KT CAVOK 22/21 Q1013","temp":22,"dewp":21,"wdir":340,"wspd":1,"visib":"6+","altim":1013,"clouds":[],"obsTime":1777118400},"SBPF":{"icaoId":"SBPF","flightCategory":"IFR","rawOb":"METAR SBPF 251200Z 35006KT 9999 BKN006 17/15 Q1017","temp":17,"dewp":15,"wdir":350,"wspd":6,"visib":"6+","altim":1017,"clouds":[{"cover":"BKN","base":600}],"obsTime":1777118400},"SBIH":{"icaoId":"SBIH","flightCategory":"VFR","rawOb":"METAR SBIH 251200Z 00000KT 9999 SCT015 28/24 Q1012","temp":28,"dewp":24,"wdir":0,"wspd":0,"visib":"6+","altim":1012,"clouds":[{"cover":"SCT","base":1500}],"obsTime":1777118400},"SBAF":{"icaoId":"SBAF","flightCategory":"VFR","rawOb":"METAR SBAF 251200Z 31002KT CAVOK 26/23 Q1014","temp":26,"dewp":23,"wdir":310,"wspd":2,"visib":"6+","altim":1014,"clouds":[],"obsTime":1777118400},"SBGW":{"icaoId":"SBGW","flightCategory":"VFR","rawOb":"METAR SBGW 251200Z 07004KT 010V130 CAVOK 23/15 Q1018","temp":23,"dewp":15,"wdir":70,"wspd":4,"visib":"6+","altim":1018,"clouds":[],"obsTime":1777118400},"SBJR":{"icaoId":"SBJR","flightCategory":"VFR","rawOb":"METAR SBJR 251200Z 03007KT CAVOK 29/21 Q1013","temp":29,"dewp":21,"wdir":30,"wspd":7,"visib":"6+","altim":1013,"clouds":[],"obsTime":1777118400},"SBLS":{"icaoId":"SBLS","flightCategory":"VFR","rawOb":"METAR SBLS 251200Z 19003KT CAVOK 21/17 Q1020","temp":21,"dewp":17,"wdir":190,"wspd":3,"visib":"6+","altim":1020,"clouds":[],"obsTime":1777118400},"SBMT":{"icaoId":"SBMT","flightCategory":"VFR","rawOb":"METAR SBMT 251200Z 34004KT CAVOK 23/15 Q1018","temp":23,"dewp":15,"wdir":340,"wspd":4,"visib":"6+","altim":1018,"clouds":[],"obsTime":1777118400},"SBST":{"icaoId":"SBST","flightCategory":"VFR","rawOb":"METAR SBST 251200Z 00000KT CAVOK 24/23 Q1013","temp":24,"dewp":23,"wdir":0,"wspd":0,"visib":"6+","altim":1013,"clouds":[],"obsTime":1777118400}}}