{"updated":1776783288,"count":85,"data":{"SBEG":{"icaoId":"SBEG","flightCategory":"VFR","rawOb":"METAR SBEG 211300Z 03003KT 320V080 9999 SCT004 SCT100 26/24 Q1013","temp":26,"dewp":24,"wdir":30,"wspd":3,"visib":"6+","altim":1013,"clouds":[{"cover":"SCT","base":400},{"cover":"SCT","base":10000}],"obsTime":1776776400},"SBAT":{"icaoId":"SBAT","flightCategory":"VFR","rawOb":"METAR SBAT 211300Z 00000KT 9999 SCT016 BKN100 26/25 Q1015","temp":26,"dewp":25,"wdir":0,"wspd":0,"visib":"6+","altim":1015,"clouds":[{"cover":"SCT","base":1600},{"cover":"BKN","base":10000}],"obsTime":1776776400},"SBBE":{"icaoId":"SBBE","flightCategory":"MVFR","rawOb":"METAR SBBE 211300Z 30004KT 9999 BKN015 BKN100 28/24 Q1013","temp":28,"dewp":24,"wdir":300,"wspd":4,"visib":"6+","altim":1013,"clouds":[{"cover":"BKN","base":1500},{"cover":"BKN","base":10000}],"obsTime":1776776400},"SBBR":{"icaoId":"SBBR","flightCategory":"VFR","rawOb":"METAR SBBR 211300Z 09009KT 050V110 CAVOK 25/16 Q1021","temp":25,"dewp":16,"wdir":90,"wspd":9,"visib":"6+","altim":1021,"clouds":[],"obsTime":1776776400},"SBBV":{"icaoId":"SBBV","flightCategory":"MVFR","rawOb":"METAR SBBV 211300Z 10014KT 9999 BKN020 29/23 Q1013","temp":29,"dewp":23,"wdir":100,"wspd":14,"visib":"6+","altim":1013,"clouds":[{"cover":"BKN","base":2000}],"obsTime":1776776400},"SBCB":{"icaoId":"SBCB","flightCategory":"VFR","rawOb":"METAR SBCB 211300Z 31005KT 9999 FEW025 26/20 Q1018","temp":26,"dewp":20,"wdir":310,"wspd":5,"visib":"6+","altim":1018,"clouds":[{"cover":"FEW","base":2500}],"obsTime":1776776400},"SBCF":{"icaoId":"SBCF","flightCategory":"VFR","rawOb":"METAR SBCF 211300Z 12006KT 9999 SCT040 24/19 Q1021","temp":24,"dewp":19,"wdir":120,"wspd":6,"visib":"6+","altim":1021,"clouds":[{"cover":"SCT","base":4000}],"obsTime":1776776400},"SBCG":{"icaoId":"SBCG","flightCategory":"VFR","rawOb":"METAR SBCG 211300Z 08009KT 9999 VCSH SCT045 FEW050TCU SCT100 26/20 Q1017","temp":26,"dewp":20,"wdir":80,"wspd":9,"visib":"6+","altim":1017,"clouds":[{"cover":"SCT","base":4500},{"cover":"FEW","base":5000},{"cover":"SCT","base":10000}],"obsTime":1776776400},"SBCP":{"icaoId":"SBCP","flightCategory":"VFR","rawOb":"METAR SBCP 211300Z 24005KT 9999 FEW020 27/18 Q1018","temp":27,"dewp":18,"wdir":240,"wspd":5,"visib":"6+","altim":1018,"clouds":[{"cover":"FEW","base":2000}],"obsTime":1776776400},"SBCR":{"icaoId":"SBCR","flightCategory":"VFR","rawOb":"METAR SBCR 211300Z 06007KT 030V100 CAVOK 28/24 Q1013","temp":28,"dewp":24,"wdir":60,"wspd":7,"visib":"6+","altim":1013,"clouds":[],"obsTime":1776776400},"SBCT":{"icaoId":"SBCT","flightCategory":"MVFR","rawOb":"METAR SBCT 211300Z 10003KT 030V160 9999 BKN018 19/15 Q1022","temp":19,"dewp":15,"wdir":100,"wspd":3,"visib":"6+","altim":1022,"clouds":[{"cover":"BKN","base":1800}],"obsTime":1776776400},"SBCZ":{"icaoId":"SBCZ","flightCategory":"LIFR","rawOb":"METAR SBCZ 211300Z 03001KT 6000 BKN003 SCT012 BKN080 24/23 Q1013","temp":24,"dewp":23,"wdir":30,"wspd":1,"visib":3.73,"altim":1013,"clouds":[{"cover":"BKN","base":300},{"cover":"SCT","base":1200},{"cover":"BKN","base":8000}],"obsTime":1776776400},"SBFI":{"icaoId":"SBFI","flightCategory":"VFR","rawOb":"METAR SBFI 211300Z 10003KT 9999 SCT025 BKN080 25/23 Q1016","temp":25,"dewp":23,"wdir":100,"wspd":3,"visib":"6+","altim":1016,"clouds":[{"cover":"SCT","base":2500},{"cover":"BKN","base":8000}],"obsTime":1776776400},"SBFL":{"icaoId":"SBFL","flightCategory":"VFR","rawOb":"METAR SBFL 211300Z 31005KT 270V340 CAVOK 24/18 Q1018","temp":24,"dewp":18,"wdir":310,"wspd":5,"visib":"6+","altim":1018,"clouds":[],"obsTime":1776776400},"SBFZ":{"icaoId":"SBFZ","flightCategory":"VFR","rawOb":"METAR SBFZ 211300Z 11005KT 9999 VCSH FEW009 SCT015 FEW025TCU OVC100 25/24 Q1013","temp":25,"dewp":24,"wdir":110,"wspd":5,"visib":"6+","altim":1013,"clouds":[{"cover":"FEW","base":900},{"cover":"SCT","base":1500},{"cover":"FEW","base":2500},{"cover":"OVC","base":10000}],"obsTime":1776776400},"SBGL":{"icaoId":"SBGL","flightCategory":"VFR","rawOb":"METAR SBGL 211300Z 01004KT 9999 SCT035 26/19 Q1018","temp":26,"dewp":19,"wdir":10,"wspd":4,"visib":"6+","altim":1018,"clouds":[{"cover":"SCT","base":3500}],"obsTime":1776776400},"SBGO":{"icaoId":"SBGO","flightCategory":"VFR","rawOb":"METAR SBGO 211300Z 19002KT 9999 FEW030 SCT100 28/21 Q1019","temp":28,"dewp":21,"wdir":190,"wspd":2,"visib":"6+","altim":1019,"clouds":[{"cover":"FEW","base":3000},{"cover":"SCT","base":10000}],"obsTime":1776776400},"SBGR":{"icaoId":"SBGR","flightCategory":"VFR","rawOb":"METAR SBGR 211300Z 06008KT 9999 SCT021 20/15 Q1021","temp":20,"dewp":15,"wdir":60,"wspd":8,"visib":"6+","altim":1021,"clouds":[{"cover":"SCT","base":2100}],"obsTime":1776776400},"SBHT":{"icaoId":"SBHT","flightCategory":"MVFR","rawOb":"METAR SBHT 211300Z 25005KT 9999 BKN015 BKN090 28/24 Q1014","temp":28,"dewp":24,"wdir":250,"wspd":5,"visib":"6+","altim":1014,"clouds":[{"cover":"BKN","base":1500},{"cover":"BKN","base":9000}],"obsTime":1776776400},"SBIL":{"icaoId":"SBIL","flightCategory":"VFR","rawOb":"METAR SBIL 211300Z 20009KT 170V240 9999 SCT024 30/23 Q1016","temp":30,"dewp":23,"wdir":200,"wspd":9,"visib":"6+","altim":1016,"clouds":[{"cover":"SCT","base":2400}],"obsTime":1776776400},"SBJU":{"icaoId":"SBJU","flightCategory":"VFR","rawOb":"METAR SBJU 211300Z 12005KT 9999 FEW020 27/23 Q1016","temp":27,"dewp":23,"wdir":120,"wspd":5,"visib":"6+","altim":1016,"clouds":[{"cover":"FEW","base":2000}],"obsTime":1776776400},"SBKP":{"icaoId":"SBKP","flightCategory":"VFR","rawOb":"METAR SBKP 211300Z 12009KT CAVOK 23/15 Q1020","temp":23,"dewp":15,"wdir":120,"wspd":9,"visib":"6+","altim":1020,"clouds":[],"obsTime":1776776400},"SBLO":{"icaoId":"SBLO","flightCategory":"VFR","rawOb":"METAR SBLO 211300Z 11006KT CAVOK 21/16 Q1019","temp":21,"dewp":16,"wdir":110,"wspd":6,"visib":"6+","altim":1019,"clouds":[],"obsTime":1776776400},"SBMA":{"icaoId":"SBMA","flightCategory":"IFR","rawOb":"METAR SBMA 211300Z 10003KT 3000 -TSRA SCT008 BKN012 FEW020CB OVC080 23/23 Q1015 RERA","temp":23,"dewp":23,"wdir":100,"wspd":3,"visib":1.86,"altim":1015,"clouds":[{"cover":"SCT","base":800},{"cover":"BKN","base":1200},{"cover":"FEW","base":2000},{"cover":"OVC","base":8000}],"obsTime":1776776400},"SBME":{"icaoId":"SBME","flightCategory":"VFR","rawOb":"METAR SBME 211300Z 22005KT CAVOK 29/19 Q1017","temp":29,"dewp":19,"wdir":220,"wspd":5,"visib":"6+","altim":1017,"clouds":[],"obsTime":1776776400},"SBMG":{"icaoId":"SBMG","flightCategory":"VFR","rawOb":"METAR SBMG 211300Z 09011KT CAVOK 24/16 Q1018","temp":24,"dewp":16,"wdir":90,"wspd":11,"visib":"6+","altim":1018,"clouds":[],"obsTime":1776776400},"SBMK":{"icaoId":"SBMK","flightCategory":"VFR","rawOb":"METAR SBMK 211300Z 08008KT 9999 SCT035 26/18 Q1019","temp":26,"dewp":18,"wdir":80,"wspd":8,"visib":"6+","altim":1019,"clouds":[{"cover":"SCT","base":3500}],"obsTime":1776776400},"SBMO":{"icaoId":"SBMO","flightCategory":"IFR","rawOb":"METAR SBMO 211300Z 14006KT 3000 SHRA BKN015 BKN021 FEW025TCU 26/24 Q1013","temp":26,"dewp":24,"wdir":140,"wspd":6,"visib":1.86,"altim":1013,"clouds":[{"cover":"BKN","base":1500},{"cover":"BKN","base":2100},{"cover":"FEW","base":2500}],"obsTime":1776776400},"SBMQ":{"icaoId":"SBMQ","flightCategory":"VFR","rawOb":"METAR SBMQ 211300Z 07007KT 9999 SCT017 29/25 Q1012","temp":29,"dewp":25,"wdir":70,"wspd":7,"visib":"6+","altim":1012,"clouds":[{"cover":"SCT","base":1700}],"obsTime":1776776400},"SBNT":{"icaoId":"SBNT","flightCategory":"VFR","rawOb":"METAR SBNT 211300Z 16005KT 120V200 9999 SCT026 30/25 Q1012","temp":30,"dewp":25,"wdir":160,"wspd":5,"visib":"6+","altim":1012,"clouds":[{"cover":"SCT","base":2600}],"obsTime":1776776400},"SBPA":{"icaoId":"SBPA","flightCategory":"IFR","rawOb":"METAR SBPA 211300Z VRB02KT 6000 BKN006 BKN013 21/19 Q1016","temp":21,"dewp":19,"wdir":"VRB","wspd":2,"visib":3.73,"altim":1016,"clouds":[{"cover":"BKN","base":600},{"cover":"BKN","base":1300}],"obsTime":1776776400},"SBPJ":{"icaoId":"SBPJ","flightCategory":"VFR","rawOb":"METAR SBPJ 211300Z 25004KT 210V280 9999 FEW009 SCT080 29/25 Q1015","temp":29,"dewp":25,"wdir":250,"wspd":4,"visib":"6+","altim":1015,"clouds":[{"cover":"FEW","base":900},{"cover":"SCT","base":8000}],"obsTime":1776776400},"SBPV":{"icaoId":"SBPV","flightCategory":"VFR","rawOb":"METAR SBPV 211300Z 02002KT 9999 FEW003 26/24 Q1012","temp":26,"dewp":24,"wdir":20,"wspd":2,"visib":"6+","altim":1012,"clouds":[{"cover":"FEW","base":300}],"obsTime":1776776400},"SBRB":{"icaoId":"SBRB","flightCategory":"VFR","rawOb":"METAR SBRB 211300Z 33005KT 280V020 9999 SCT011 SCT100 27/24 Q1013","temp":27,"dewp":24,"wdir":330,"wspd":5,"visib":"6+","altim":1013,"clouds":[{"cover":"SCT","base":1100},{"cover":"SCT","base":10000}],"obsTime":1776776400},"SBRF":{"icaoId":"SBRF","flightCategory":"VFR","rawOb":"METAR SBRF 211300Z 13010KT 9999 SCT025 30/23 Q1012","temp":30,"dewp":23,"wdir":130,"wspd":10,"visib":"6+","altim":1012,"clouds":[{"cover":"SCT","base":2500}],"obsTime":1776776400},"SBSG":{"icaoId":"SBSG","flightCategory":"MVFR","rawOb":"METAR SBSG 211300Z 13006KT 080V190 9999 BKN023 30/24 Q1012","temp":30,"dewp":24,"wdir":130,"wspd":6,"visib":"6+","altim":1012,"clouds":[{"cover":"BKN","base":2300}],"obsTime":1776776400},"SBSL":{"icaoId":"SBSL","flightCategory":"VFR","rawOb":"METAR SBSL 211300Z 08003KT 9999 3000S -RA PRFG SCT022 BKN080 28/25 Q1013","temp":28,"dewp":25,"wdir":80,"wspd":3,"visib":"6+","altim":1013,"clouds":[{"cover":"SCT","base":2200},{"cover":"BKN","base":8000}],"obsTime":1776776400},"SBSN":{"icaoId":"SBSN","flightCategory":"VFR","rawOb":"METAR SBSN 211300Z 17004KT 9999 VCSH SCT016 FEW025TCU BKN070 BKN100 24/23 Q1014","temp":24,"dewp":23,"wdir":170,"wspd":4,"visib":"6+","altim":1014,"clouds":[{"cover":"SCT","base":1600},{"cover":"FEW","base":2500},{"cover":"BKN","base":7000},{"cover":"BKN","base":10000}],"obsTime":1776776400},"SBSP":{"icaoId":"SBSP","flightCategory":"VFR","rawOb":"METAR SBSP 211300Z 12007KT 070V150 CAVOK 21/13 Q1022","temp":21,"dewp":13,"wdir":120,"wspd":7,"visib":"6+","altim":1022,"clouds":[],"obsTime":1776776400},"SBSV":{"icaoId":"SBSV","flightCategory":"VFR","rawOb":"METAR SBSV 211300Z 11008KT 080V150 9999 VCSH SCT021 FEW023TCU BKN090 28/24 Q1015","temp":28,"dewp":24,"wdir":110,"wspd":8,"visib":"6+","altim":1015,"clouds":[{"cover":"SCT","base":2100},{"cover":"FEW","base":2300},{"cover":"BKN","base":9000}],"obsTime":1776776400},"SBTE":{"icaoId":"SBTE","flightCategory":"VFR","rawOb":"METAR SBTE 211300Z 15003KT 9999 SCT016 BKN090 27/23 Q1014","temp":27,"dewp":23,"wdir":150,"wspd":3,"visib":"6+","altim":1014,"clouds":[{"cover":"SCT","base":1600},{"cover":"BKN","base":9000}],"obsTime":1776776400},"SBUL":{"icaoId":"SBUL","flightCategory":"VFR","rawOb":"METAR SBUL 211300Z 07010KT 030V110 CAVOK 25/19 Q1020","temp":25,"dewp":19,"wdir":70,"wspd":10,"visib":"6+","altim":1020,"clouds":[],"obsTime":1776776400},"SBUR":{"icaoId":"SBUR","flightCategory":"VFR","rawOb":"METAR SBUR 211300Z 05007KT CAVOK 27/18 Q1019","temp":27,"dewp":18,"wdir":50,"wspd":7,"visib":"6+","altim":1019,"clouds":[],"obsTime":1776776400},"SBVT":{"icaoId":"SBVT","flightCategory":"VFR","rawOb":"METAR SBVT 211300Z 16010KT 9999 FEW040 26/21 Q1017","temp":26,"dewp":21,"wdir":160,"wspd":10,"visib":"6+","altim":1017,"clouds":[{"cover":"FEW","base":4000}],"obsTime":1776776400},"SBCA":{"icaoId":"SBCA","flightCategory":"VFR","rawOb":"METAR SBCA 211300Z 05008KT 9999 FEW040 SCT070 24/17 Q1019","temp":24,"dewp":17,"wdir":50,"wspd":8,"visib":"6+","altim":1019,"clouds":[{"cover":"FEW","base":4000},{"cover":"SCT","base":7000}],"obsTime":1776776400},"SBAR":{"icaoId":"SBAR","flightCategory":"MVFR","rawOb":"METAR SBAR 211300Z 17010KT 100V240 9000 2500W SHRA SCT015 BKN025 BKN100 27/25 Q1013","temp":27,"dewp":25,"wdir":170,"wspd":10,"visib":5.59,"altim":1013,"clouds":[{"cover":"SCT","base":1500},{"cover":"BKN","base":2500},{"cover":"BKN","base":10000}],"obsTime":1776776400},"SBAU":{"icaoId":"SBAU","flightCategory":"VFR","rawOb":"METAR SBAU 211300Z 12008KT CAVOK 24/16 Q1018","temp":24,"dewp":16,"wdir":120,"wspd":8,"visib":"6+","altim":1018,"clouds":[],"obsTime":1776776400},"SBBH":{"icaoId":"SBBH","flightCategory":"MVFR","rawOb":"METAR SBBH 211300Z 08007KT 9999 FEW018 BKN030 23/19 Q1021","temp":23,"dewp":19,"wdir":80,"wspd":7,"visib":"6+","altim":1021,"clouds":[{"cover":"FEW","base":1800},{"cover":"BKN","base":3000}],"obsTime":1776776400},"SBBQ":{"icaoId":"SBBQ","flightCategory":"MVFR","rawOb":"METAR SBBQ 211300Z 09005KT 040V120 7000 OVC010 18/15 Q1024","temp":18,"dewp":15,"wdir":90,"wspd":5,"visib":4.35,"altim":1024,"clouds":[{"cover":"OVC","base":1000}],"obsTime":1776776400},"SBBU":{"icaoId":"SBBU","flightCategory":"VFR","rawOb":"METAR SBBU 211300Z 12010KT CAVOK 23/16 Q1019","temp":23,"dewp":16,"wdir":120,"wspd":10,"visib":"6+","altim":1019,"clouds":[],"obsTime":1776776400},"SBCC":{"icaoId":"SBCC","flightCategory":"VFR","rawOb":"METAR SBCC 211300Z 23002KT 9999 FEW020 BKN100 25/22 Q1016","temp":25,"dewp":22,"wdir":230,"wspd":2,"visib":"6+","altim":1016,"clouds":[{"cover":"FEW","base":2000},{"cover":"BKN","base":10000}],"obsTime":1776776400},"SBCJ":{"icaoId":"SBCJ","flightCategory":"LIFR","rawOb":"METAR SBCJ 211300Z 08007KT 0500 FG VV003 21/20 Q1019","temp":21,"dewp":20,"wdir":80,"wspd":7,"visib":0.31,"altim":1019,"clouds":[{"cover":"OVX","base":300}],"obsTime":1776776400},"SBCO":{"icaoId":"SBCO","flightCategory":"IFR","rawOb":"METAR SBCO 211300Z 28003KT 9999 BKN008 BKN050 21/19 Q1017","temp":21,"dewp":19,"wdir":280,"wspd":3,"visib":"6+","altim":1017,"clouds":[{"cover":"BKN","base":800},{"cover":"BKN","base":5000}],"obsTime":1776776400},"SBDN":{"icaoId":"SBDN","flightCategory":"VFR","rawOb":"METAR SBDN 211300Z 11013KT CAVOK 23/15 Q1018","temp":23,"dewp":15,"wdir":110,"wspd":13,"visib":"6+","altim":1018,"clouds":[],"obsTime":1776776400},"SBES":{"icaoId":"SBES","flightCategory":"VFR","rawOb":"METAR SBES 211300Z VRB04KT 9999 SCT025 26/// Q1018","temp":null,"dewp":null,"wdir":"VRB","wspd":4,"visib":"6+","altim":1018,"clouds":[{"cover":"SCT","base":2500}],"obsTime":1776776400},"SBGM":{"icaoId":"SBGM","flightCategory":"VFR","rawOb":"METAR SBGM 211300Z 30005KT 280V340 CAVOK 28/22 Q1012","temp":28,"dewp":22,"wdir":300,"wspd":5,"visib":"6+","altim":1012,"clouds":[],"obsTime":1776776400},"SBIP":{"icaoId":"SBIP","flightCategory":"VFR","rawOb":"METAR SBIP 211300Z AUTO 36006KT 300V030 9999 BKN044 27/17 Q1019","temp":27,"dewp":17,"wdir":360,"wspd":6,"visib":"6+","altim":1019,"clouds":[{"cover":"BKN","base":4400}],"obsTime":1776776400},"SBKG":{"icaoId":"SBKG","flightCategory":"MVFR","rawOb":"METAR SBKG 211300Z 10006KT 9999 BKN015 27/21 Q1015","temp":27,"dewp":21,"wdir":100,"wspd":6,"visib":"6+","altim":1015,"clouds":[{"cover":"BKN","base":1500}],"obsTime":1776776400},"SBOI":{"icaoId":"SBOI","flightCategory":"MVFR","rawOb":"METAR SBOI 211300Z AUTO 07003KT 040V100 9999 SCT012 BKN016 BKN018 27/25 Q1013","temp":27,"dewp":25,"wdir":70,"wspd":3,"visib":"6+","altim":1013,"clouds":[{"cover":"SCT","base":1200},{"cover":"BKN","base":1600},{"cover":"BKN","base":1800}],"obsTime":1776776400},"SBPB":{"icaoId":"SBPB","flightCategory":"MVFR","rawOb":"METAR SBPB 211300Z 14003KT 9999 BKN016 BKN090 28/24 Q1013","temp":28,"dewp":24,"wdir":140,"wspd":3,"visib":"6+","altim":1013,"clouds":[{"cover":"BKN","base":1600},{"cover":"BKN","base":9000}],"obsTime":1776776400},"SBPL":{"icaoId":"SBPL","flightCategory":"VFR","rawOb":"METAR SBPL 211300Z 09009KT 9999 FEW025 BKN070 29/20 Q1015","temp":29,"dewp":20,"wdir":90,"wspd":9,"visib":"6+","altim":1015,"clouds":[{"cover":"FEW","base":2500},{"cover":"BKN","base":7000}],"obsTime":1776776400},"SBPP":{"icaoId":"SBPP","flightCategory":"VFR","rawOb":"METAR SBPP 211300Z 05013KT 9999 FEW018 SCT080 23/20 Q1017","temp":23,"dewp":20,"wdir":50,"wspd":13,"visib":"6+","altim":1017,"clouds":[{"cover":"FEW","base":1800},{"cover":"SCT","base":8000}],"obsTime":1776776400},"SBPS":{"icaoId":"SBPS","flightCategory":"VFR","rawOb":"METAR SBPS 211300Z 15005KT 080V200 9999 SCT025 28/22 Q1016","temp":28,"dewp":22,"wdir":150,"wspd":5,"visib":"6+","altim":1016,"clouds":[{"cover":"SCT","base":2500}],"obsTime":1776776400},"SBSC":{"icaoId":"SBSC","flightCategory":"VFR","rawOb":"METAR SBSC 211300Z 00000KT 9999 FEW030 SCT050 27/18 Q1018","temp":27,"dewp":18,"wdir":0,"wspd":0,"visib":"6+","altim":1018,"clouds":[{"cover":"FEW","base":3000},{"cover":"SCT","base":5000}],"obsTime":1776776400},"SBSJ":{"icaoId":"SBSJ","flightCategory":"VFR","rawOb":"METAR SBSJ 211300Z 34004KT 9999 SCT017 20/15 Q1021","temp":20,"dewp":15,"wdir":340,"wspd":4,"visib":"6+","altim":1021,"clouds":[{"cover":"SCT","base":1700}],"obsTime":1776776400},"SBSM":{"icaoId":"SBSM","flightCategory":"VFR","rawOb":"METAR SBSM 211300Z 13001KT 9999 FEW004 BKN040 OVC080 20/20 Q1017","temp":20,"dewp":20,"wdir":130,"wspd":1,"visib":"6+","altim":1017,"clouds":[{"cover":"FEW","base":400},{"cover":"BKN","base":4000},{"cover":"OVC","base":8000}],"obsTime":1776776400},"SBSR":{"icaoId":"SBSR","flightCategory":"VFR","rawOb":"METAR SBSR 211300Z 12003KT CAVOK 25/13 Q1018","temp":25,"dewp":13,"wdir":120,"wspd":3,"visib":"6+","altim":1018,"clouds":[],"obsTime":1776776400},"SBTF":{"icaoId":"SBTF","flightCategory":"VFR","rawOb":"METAR SBTF 211300Z 06003KT 9999 FEW010 BKN090 27/25 Q1013","temp":27,"dewp":25,"wdir":60,"wspd":3,"visib":"6+","altim":1013,"clouds":[{"cover":"FEW","base":1000},{"cover":"BKN","base":9000}],"obsTime":1776776400},"SBTT":{"icaoId":"SBTT","flightCategory":"LIFR","rawOb":"METAR SBTT 211300Z 09007KT 9999 BKN004 BKN080 24/23 Q1013","temp":24,"dewp":23,"wdir":90,"wspd":7,"visib":"6+","altim":1013,"clouds":[{"cover":"BKN","base":400},{"cover":"BKN","base":8000}],"obsTime":1776776400},"SBUY":{"icaoId":"SBUY","flightCategory":"MVFR","rawOb":"METAR SBUY 211300Z 05002KT 9999 BKN015 OVC100 27/24 Q1012","temp":27,"dewp":24,"wdir":50,"wspd":2,"visib":"6+","altim":1012,"clouds":[{"cover":"BKN","base":1500},{"cover":"OVC","base":10000}],"obsTime":1776776400},"SBVH":{"icaoId":"SBVH","flightCategory":"VFR","rawOb":"METAR SBVH 211300Z 27002KT 9999 SCT015 SCT020 BKN090 26/23 Q1016","temp":26,"dewp":23,"wdir":270,"wspd":2,"visib":"6+","altim":1016,"clouds":[{"cover":"SCT","base":1500},{"cover":"SCT","base":2000},{"cover":"BKN","base":9000}],"obsTime":1776776400},"SBGW":{"icaoId":"SBGW","flightCategory":"VFR","rawOb":"METAR SBGW 211300Z VRB03KT 9999 SCT015 23/14 Q1021","temp":23,"dewp":14,"wdir":"VRB","wspd":3,"visib":"6+","altim":1021,"clouds":[{"cover":"SCT","base":1500}],"obsTime":1776776400},"SBMT":{"icaoId":"SBMT","flightCategory":"VFR","rawOb":"METAR SBMT 211300Z 10008KT CAVOK 21/14 Q1021","temp":21,"dewp":14,"wdir":100,"wspd":8,"visib":"6+","altim":1021,"clouds":[],"obsTime":1776776400},"SBST":{"icaoId":"SBST","flightCategory":"VFR","rawOb":"METAR SBST 211300Z 13002KT 9999 FEW025 24/21 Q1018","temp":24,"dewp":21,"wdir":130,"wspd":2,"visib":"6+","altim":1018,"clouds":[{"cover":"FEW","base":2500}],"obsTime":1776776400},"SBTA":{"icaoId":"SBTA","flightCategory":"VFR","rawOb":"METAR SBTA 211300Z VRB02KT 9999 SCT020 21/15 Q1020","temp":21,"dewp":15,"wdir":"VRB","wspd":2,"visib":"6+","altim":1020,"clouds":[{"cover":"SCT","base":2000}],"obsTime":1776776400},"SBAF":{"icaoId":"SBAF","flightCategory":"VFR","rawOb":"METAR SBAF 211300Z 31002KT 9999 SCT046 27/18 Q1018","temp":27,"dewp":18,"wdir":310,"wspd":2,"visib":"6+","altim":1018,"clouds":[{"cover":"SCT","base":4600}],"obsTime":1776776400},"SBIH":{"icaoId":"SBIH","flightCategory":"VFR","rawOb":"METAR SBIH 211300Z 26002KT 9999 SCT012 BKN100 28/25 Q1013","temp":28,"dewp":25,"wdir":260,"wspd":2,"visib":"6+","altim":1013,"clouds":[{"cover":"SCT","base":1200},{"cover":"BKN","base":10000}],"obsTime":1776776400},"SBJR":{"icaoId":"SBJR","flightCategory":"VFR","rawOb":"METAR SBJR 211300Z 23003KT 9999 SCT025 30/20 Q1018","temp":30,"dewp":20,"wdir":230,"wspd":3,"visib":"6+","altim":1018,"clouds":[{"cover":"SCT","base":2500}],"obsTime":1776776400},"SBJP":{"icaoId":"SBJP","flightCategory":"IFR","rawOb":"METAR SBJP 211300Z 11006KT 3500 -RA SCT014 BKN018 29/25 Q1013","temp":29,"dewp":25,"wdir":110,"wspd":6,"visib":2.17,"altim":1013,"clouds":[{"cover":"SCT","base":1400},{"cover":"BKN","base":1800}],"obsTime":1776776400},"SBJV":{"icaoId":"SBJV","flightCategory":"VFR","rawOb":"METAR SBJV 211300Z 19002KT 9999 SCT015 25/21 Q1019","temp":25,"dewp":21,"wdir":190,"wspd":2,"visib":"6+","altim":1019,"clouds":[{"cover":"SCT","base":1500}],"obsTime":1776776400},"SBNM":{"icaoId":"SBNM","flightCategory":"MVFR","rawOb":"METAR SBNM 211400Z 10006KT 9999 VCSH FEW010 BKN025 23/20 Q1017","temp":23,"dewp":20,"wdir":100,"wspd":6,"visib":"6+","altim":1017,"clouds":[{"cover":"FEW","base":1000},{"cover":"BKN","base":2500}],"obsTime":1776780000},"SBPF":{"icaoId":"SBPF","flightCategory":"MVFR","rawOb":"METAR SBPF 211300Z 27010KT 7000 -RA NSC 18/17 Q1020","temp":18,"dewp":17,"wdir":270,"wspd":10,"visib":4.35,"altim":1020,"clouds":[],"obsTime":1776776400},"SBAN":{"icaoId":"SBAN","flightCategory":"VFR","rawOb":"METAR SBAN 211300Z 12008KT 070V150 CAVOK 25/17 Q1021","temp":25,"dewp":17,"wdir":120,"wspd":8,"visib":"6+","altim":1021,"clouds":[],"obsTime":1776776400},"SBLE":{"icaoId":"SBLE","flightCategory":"VFR","rawOb":"METAR SBLE 211300Z AUTO 13003KT 060V230 9999 OVC035 24/22 Q1019","temp":24,"dewp":22,"wdir":130,"wspd":3,"visib":"6+","altim":1019,"clouds":[{"cover":"OVC","base":3500}],"obsTime":1776776400},"SBLS":{"icaoId":"SBLS","flightCategory":"MVFR","rawOb":"METAR SBLS 211300Z 13007KT 070V150 9999 BKN022 23/19 Q1021","temp":23,"dewp":19,"wdir":130,"wspd":7,"visib":"6+","altim":1021,"clouds":[{"cover":"BKN","base":2200}],"obsTime":1776776400}}}