{"updated":1777828314,"count":86,"data":{"SBPV":{"icaoId":"SBPV","flightCategory":"VFR","rawOb":"METAR SBPV 031600Z 09009KT CAVOK 33/27 Q1012","temp":33,"dewp":27,"wdir":90,"wspd":9,"visib":"6+","altim":1012,"clouds":[],"obsTime":1777824000},"SBAT":{"icaoId":"SBAT","flightCategory":"VFR","rawOb":"METAR SBAT 031600Z 13013KT 9999 SCT035 33/23 Q1013","temp":33,"dewp":23,"wdir":130,"wspd":13,"visib":"6+","altim":1013,"clouds":[{"cover":"SCT","base":3500}],"obsTime":1777824000},"SBBE":{"icaoId":"SBBE","flightCategory":"VFR","rawOb":"METAR SBBE 031600Z 32005KT 9999 SCT027 BKN032 FEW033TCU 30/25 Q1011","temp":30,"dewp":25,"wdir":320,"wspd":5,"visib":"6+","altim":1011,"clouds":[{"cover":"SCT","base":2700},{"cover":"BKN","base":3200},{"cover":"FEW","base":3300}],"obsTime":1777824000},"SBBR":{"icaoId":"SBBR","flightCategory":"VFR","rawOb":"METAR SBBR 031600Z 12012KT 9999 SCT035 27/14 Q1019","temp":27,"dewp":14,"wdir":120,"wspd":12,"visib":"6+","altim":1019,"clouds":[{"cover":"SCT","base":3500}],"obsTime":1777824000},"SBBV":{"icaoId":"SBBV","flightCategory":"MVFR","rawOb":"METAR SBBV 031600Z 08012KT 9999 BKN030 FEW040TCU BKN080 30/23 Q1013","temp":30,"dewp":23,"wdir":80,"wspd":12,"visib":"6+","altim":1013,"clouds":[{"cover":"BKN","base":3000},{"cover":"FEW","base":4000},{"cover":"BKN","base":8000}],"obsTime":1777824000},"SBCB":{"icaoId":"SBCB","flightCategory":"MVFR","rawOb":"METAR SBCB 031600Z 19012KT 8000 BKN015 OVC040 26/19 Q1019","temp":26,"dewp":19,"wdir":190,"wspd":12,"visib":4.97,"altim":1019,"clouds":[{"cover":"BKN","base":1500},{"cover":"OVC","base":4000}],"obsTime":1777824000},"SBCF":{"icaoId":"SBCF","flightCategory":"VFR","rawOb":"METAR SBCF 031600Z 15006KT 120V190 9999 BKN040 28/15 Q1020","temp":28,"dewp":15,"wdir":150,"wspd":6,"visib":"6+","altim":1020,"clouds":[{"cover":"BKN","base":4000}],"obsTime":1777824000},"SBCG":{"icaoId":"SBCG","flightCategory":"VFR","rawOb":"METAR SBCG 031600Z 04005KT CAVOK 29/15 Q1017","temp":29,"dewp":15,"wdir":40,"wspd":5,"visib":"6+","altim":1017,"clouds":[],"obsTime":1777824000},"SBCP":{"icaoId":"SBCP","flightCategory":"VFR","rawOb":"METAR SBCP 031600Z 21011KT 9999 SCT020 BKN070 27/22 Q1017","temp":27,"dewp":22,"wdir":210,"wspd":11,"visib":"6+","altim":1017,"clouds":[{"cover":"SCT","base":2000},{"cover":"BKN","base":7000}],"obsTime":1777824000},"SBCR":{"icaoId":"SBCR","flightCategory":"VFR","rawOb":"METAR SBCR 031600Z 29006KT 260V330 9999 SCT020 SCT040 FEW045TCU BKN100 29/23 Q1015","temp":29,"dewp":23,"wdir":290,"wspd":6,"visib":"6+","altim":1015,"clouds":[{"cover":"SCT","base":2000},{"cover":"SCT","base":4000},{"cover":"FEW","base":4500},{"cover":"BKN","base":10000}],"obsTime":1777824000},"SBCT":{"icaoId":"SBCT","flightCategory":"IFR","rawOb":"METAR SBCT 031600Z 12008KT 090V150 9999 BKN007 OVC012 13/12 Q1024","temp":13,"dewp":12,"wdir":120,"wspd":8,"visib":"6+","altim":1024,"clouds":[{"cover":"BKN","base":700},{"cover":"OVC","base":1200}],"obsTime":1777824000},"SBCZ":{"icaoId":"SBCZ","flightCategory":"VFR","rawOb":"METAR SBCZ 031600Z 19005KT 9999 SCT015 SCT100 29/25 Q1015","temp":29,"dewp":25,"wdir":190,"wspd":5,"visib":"6+","altim":1015,"clouds":[{"cover":"SCT","base":1500},{"cover":"SCT","base":10000}],"obsTime":1777824000},"SBEG":{"icaoId":"SBEG","flightCategory":"IFR","rawOb":"SPECI SBEG 031513Z 15007KT 5000 -TSRA BKN005 FEW025CB BKN070 25/24 Q1014 RERA","temp":25,"dewp":24,"wdir":150,"wspd":7,"visib":3.11,"altim":1014,"clouds":[{"cover":"BKN","base":500},{"cover":"FEW","base":2500},{"cover":"BKN","base":7000}],"obsTime":1777821180},"SBFI":{"icaoId":"SBFI","flightCategory":"VFR","rawOb":"METAR SBFI 031600Z 09006KT 9999 SCT020 SCT100 24/19 Q1018","temp":24,"dewp":19,"wdir":90,"wspd":6,"visib":"6+","altim":1018,"clouds":[{"cover":"SCT","base":2000},{"cover":"SCT","base":10000}],"obsTime":1777824000},"SBFL":{"icaoId":"SBFL","flightCategory":"VFR","rawOb":"METAR SBFL 031600Z 20008KT CAVOK 21/10 Q1023","temp":21,"dewp":10,"wdir":200,"wspd":8,"visib":"6+","altim":1023,"clouds":[],"obsTime":1777824000},"SBFZ":{"icaoId":"SBFZ","flightCategory":"VFR","rawOb":"METAR SBFZ 031600Z 15007KT 110V170 9999 SCT027 30/25 Q1011","temp":30,"dewp":25,"wdir":150,"wspd":7,"visib":"6+","altim":1011,"clouds":[{"cover":"SCT","base":2700}],"obsTime":1777824000},"SBGL":{"icaoId":"SBGL","flightCategory":"MVFR","rawOb":"SPECI SBGL 031528Z 28004KT 250V320 8000 -RA SCT020 BKN030 BKN036 23/21 Q1019 RERA","temp":23,"dewp":21,"wdir":280,"wspd":4,"visib":4.97,"altim":1019,"clouds":[{"cover":"SCT","base":2000},{"cover":"BKN","base":3000},{"cover":"BKN","base":3600}],"obsTime":1777822080},"SBGO":{"icaoId":"SBGO","flightCategory":"VFR","rawOb":"METAR SBGO 031600Z 10007KT 9999 FEW045 31/15 Q1017","temp":31,"dewp":15,"wdir":100,"wspd":7,"visib":"6+","altim":1017,"clouds":[{"cover":"FEW","base":4500}],"obsTime":1777824000},"SBGR":{"icaoId":"SBGR","flightCategory":"MVFR","rawOb":"METAR SBGR 031600Z 13007KT 8000 -DZ BKN015 OVC021 18/14 Q1023","temp":18,"dewp":14,"wdir":130,"wspd":7,"visib":4.97,"altim":1023,"clouds":[{"cover":"BKN","base":1500},{"cover":"OVC","base":2100}],"obsTime":1777824000},"SBHT":{"icaoId":"SBHT","flightCategory":"MVFR","rawOb":"METAR SBHT 031600Z 10005KT 9999 BKN025 30/25 Q1012","temp":30,"dewp":25,"wdir":100,"wspd":5,"visib":"6+","altim":1012,"clouds":[{"cover":"BKN","base":2500}],"obsTime":1777824000},"SBIL":{"icaoId":"SBIL","flightCategory":"VFR","rawOb":"METAR SBIL 031600Z 15006KT 100V190 9999 FEW024 30/25 Q1015","temp":30,"dewp":25,"wdir":150,"wspd":6,"visib":"6+","altim":1015,"clouds":[{"cover":"FEW","base":2400}],"obsTime":1777824000},"SBJU":{"icaoId":"SBJU","flightCategory":"VFR","rawOb":"METAR SBJU 031600Z 09007KT 9999 FEW022 30/21 Q1014","temp":30,"dewp":21,"wdir":90,"wspd":7,"visib":"6+","altim":1014,"clouds":[{"cover":"FEW","base":2200}],"obsTime":1777824000},"SBKP":{"icaoId":"SBKP","flightCategory":"MVFR","rawOb":"METAR SBKP 031600Z 14016KT 9999 BKN023 22/16 Q1021","temp":22,"dewp":16,"wdir":140,"wspd":16,"visib":"6+","altim":1021,"clouds":[{"cover":"BKN","base":2300}],"obsTime":1777824000},"SBLO":{"icaoId":"SBLO","flightCategory":"VFR","rawOb":"METAR SBLO 031600Z 09009KT 9999 SCT025 24/18 Q1020","temp":24,"dewp":18,"wdir":90,"wspd":9,"visib":"6+","altim":1020,"clouds":[{"cover":"SCT","base":2500}],"obsTime":1777824000},"SBMA":{"icaoId":"SBMA","flightCategory":"MVFR","rawOb":"METAR SBMA 031600Z 04003KT 9999 BKN023 32/26 Q1011","temp":32,"dewp":26,"wdir":40,"wspd":3,"visib":"6+","altim":1011,"clouds":[{"cover":"BKN","base":2300}],"obsTime":1777824000},"SBME":{"icaoId":"SBME","flightCategory":"MVFR","rawOb":"METAR SBME 031600Z 26007KT 9999 SCT010 BKN020 BKN080 23/21 Q1018","temp":23,"dewp":21,"wdir":260,"wspd":7,"visib":"6+","altim":1018,"clouds":[{"cover":"SCT","base":1000},{"cover":"BKN","base":2000},{"cover":"BKN","base":8000}],"obsTime":1777824000},"SBMG":{"icaoId":"SBMG","flightCategory":"VFR","rawOb":"METAR SBMG 031600Z 02007KT 350V050 9999 FEW040 BKN080 26/19 Q1018","temp":26,"dewp":19,"wdir":20,"wspd":7,"visib":"6+","altim":1018,"clouds":[{"cover":"FEW","base":4000},{"cover":"BKN","base":8000}],"obsTime":1777824000},"SBMK":{"icaoId":"SBMK","flightCategory":"VFR","rawOb":"METAR SBMK 031600Z 12004KT 9999 SCT030 30/14 Q1017","temp":30,"dewp":14,"wdir":120,"wspd":4,"visib":"6+","altim":1017,"clouds":[{"cover":"SCT","base":3000}],"obsTime":1777824000},"SBMO":{"icaoId":"SBMO","flightCategory":"VFR","rawOb":"METAR SBMO 031600Z 09005KT 040V120 9999 FEW027 BKN060 29/23 Q1013","temp":29,"dewp":23,"wdir":90,"wspd":5,"visib":"6+","altim":1013,"clouds":[{"cover":"FEW","base":2700},{"cover":"BKN","base":6000}],"obsTime":1777824000},"SBMQ":{"icaoId":"SBMQ","flightCategory":"MVFR","rawOb":"METAR SBMQ 031600Z 36008KT 9999 -RA FEW013 BKN023 28/25 Q1012","temp":28,"dewp":25,"wdir":360,"wspd":8,"visib":"6+","altim":1012,"clouds":[{"cover":"FEW","base":1300},{"cover":"BKN","base":2300}],"obsTime":1777824000},"SBNT":{"icaoId":"SBNT","flightCategory":"VFR","rawOb":"METAR SBNT 031600Z 15011KT 120V180 9999 FEW016 SCT050 BKN100 29/24 Q1012","temp":29,"dewp":24,"wdir":150,"wspd":11,"visib":"6+","altim":1012,"clouds":[{"cover":"FEW","base":1600},{"cover":"SCT","base":5000},{"cover":"BKN","base":10000}],"obsTime":1777824000},"SBPA":{"icaoId":"SBPA","flightCategory":"VFR","rawOb":"METAR SBPA 031600Z VRB02KT CAVOK 18/08 Q1023","temp":18,"dewp":8,"wdir":"VRB","wspd":2,"visib":"6+","altim":1023,"clouds":[],"obsTime":1777824000},"SBPJ":{"icaoId":"SBPJ","flightCategory":"VFR","rawOb":"METAR SBPJ 031600Z 12009KT 9999 SCT045 34/22 Q1013","temp":34,"dewp":22,"wdir":120,"wspd":9,"visib":"6+","altim":1013,"clouds":[{"cover":"SCT","base":4500}],"obsTime":1777824000},"SBRB":{"icaoId":"SBRB","flightCategory":"MVFR","rawOb":"METAR SBRB 031600Z 11005KT 9999 BKN025 FEW030TCU 32/25 Q1014","temp":32,"dewp":25,"wdir":110,"wspd":5,"visib":"6+","altim":1014,"clouds":[{"cover":"BKN","base":2500},{"cover":"FEW","base":3000}],"obsTime":1777824000},"SBRF":{"icaoId":"SBRF","flightCategory":"VFR","rawOb":"METAR SBRF 031600Z 15010KT 120V180 9999 SCT025 30/24 Q1012","temp":30,"dewp":24,"wdir":150,"wspd":10,"visib":"6+","altim":1012,"clouds":[{"cover":"SCT","base":2500}],"obsTime":1777824000},"SBSG":{"icaoId":"SBSG","flightCategory":"MVFR","rawOb":"METAR SBSG 031600Z 13006KT 100V190 9999 BKN020 BKN035 28/24 Q1012","temp":28,"dewp":24,"wdir":130,"wspd":6,"visib":"6+","altim":1012,"clouds":[{"cover":"BKN","base":2000},{"cover":"BKN","base":3500}],"obsTime":1777824000},"SBSL":{"icaoId":"SBSL","flightCategory":"MVFR","rawOb":"METAR SBSL 031600Z 08011KT 9999 SCT017 BKN022 FEW024TCU 27/24 Q1012","temp":27,"dewp":24,"wdir":80,"wspd":11,"visib":"6+","altim":1012,"clouds":[{"cover":"SCT","base":1700},{"cover":"BKN","base":2200},{"cover":"FEW","base":2400}],"obsTime":1777824000},"SBSN":{"icaoId":"SBSN","flightCategory":"VFR","rawOb":"METAR SBSN 031600Z 09011KT 9999 SCT020 SCT080 29/26 Q1011","temp":29,"dewp":26,"wdir":90,"wspd":11,"visib":"6+","altim":1011,"clouds":[{"cover":"SCT","base":2000},{"cover":"SCT","base":8000}],"obsTime":1777824000},"SBSP":{"icaoId":"SBSP","flightCategory":"IFR","rawOb":"METAR SBSP 031600Z 15014KT 6000 BKN007 16/15 Q1024","temp":16,"dewp":15,"wdir":150,"wspd":14,"visib":3.73,"altim":1024,"clouds":[{"cover":"BKN","base":700}],"obsTime":1777824000},"SBSV":{"icaoId":"SBSV","flightCategory":"VFR","rawOb":"METAR SBSV 031600Z 15008KT 9999 SCT025 29/23 Q1014","temp":29,"dewp":23,"wdir":150,"wspd":8,"visib":"6+","altim":1014,"clouds":[{"cover":"SCT","base":2500}],"obsTime":1777824000},"SBTE":{"icaoId":"SBTE","flightCategory":"MVFR","rawOb":"METAR SBTE 031600Z 11007KT 9999 BKN025 FEW030TCU 31/23 Q1011","temp":31,"dewp":23,"wdir":110,"wspd":7,"visib":"6+","altim":1011,"clouds":[{"cover":"BKN","base":2500},{"cover":"FEW","base":3000}],"obsTime":1777824000},"SBUL":{"icaoId":"SBUL","flightCategory":"VFR","rawOb":"METAR SBUL 031600Z 16005KT CAVOK 28/14 Q1020","temp":28,"dewp":14,"wdir":160,"wspd":5,"visib":"6+","altim":1020,"clouds":[],"obsTime":1777824000},"SBUR":{"icaoId":"SBUR","flightCategory":"VFR","rawOb":"METAR SBUR 031600Z 15004KT 9999 SCT049 29/15 Q1019","temp":29,"dewp":15,"wdir":150,"wspd":4,"visib":"6+","altim":1019,"clouds":[{"cover":"SCT","base":4900}],"obsTime":1777824000},"SBVT":{"icaoId":"SBVT","flightCategory":"VFR","rawOb":"METAR SBVT 031600Z 19014KT 9999 FEW040 SCT080 29/20 Q1016","temp":29,"dewp":20,"wdir":190,"wspd":14,"visib":"6+","altim":1016,"clouds":[{"cover":"FEW","base":4000},{"cover":"SCT","base":8000}],"obsTime":1777824000},"SBBH":{"icaoId":"SBBH","flightCategory":"VFR","rawOb":"METAR SBBH 031600Z 11007KT 9999 BKN046 SCT100 28/16 Q1019","temp":28,"dewp":16,"wdir":110,"wspd":7,"visib":"6+","altim":1019,"clouds":[{"cover":"BKN","base":4600},{"cover":"SCT","base":10000}],"obsTime":1777824000},"SBKG":{"icaoId":"SBKG","flightCategory":"MVFR","rawOb":"METAR SBKG 031600Z 13008KT 9999 BKN023 27/21 Q1015","temp":27,"dewp":21,"wdir":130,"wspd":8,"visib":"6+","altim":1015,"clouds":[{"cover":"BKN","base":2300}],"obsTime":1777824000},"SBOI":{"icaoId":"SBOI","flightCategory":"VFR","rawOb":"METAR SBOI 031600Z AUTO 05010KT 020V130 9999 SCT035 32/24 Q1013","temp":32,"dewp":24,"wdir":50,"wspd":10,"visib":"6+","altim":1013,"clouds":[{"cover":"SCT","base":3500}],"obsTime":1777824000},"SBCC":{"icaoId":"SBCC","flightCategory":"VFR","rawOb":"METAR SBCC 031600Z /////KT 9999 SCT030 ///// Q1014","temp":null,"dewp":null,"wdir":null,"wspd":null,"visib":"6+","altim":1014,"clouds":[{"cover":"SCT","base":3000}],"obsTime":1777824000},"SBPB":{"icaoId":"SBPB","flightCategory":"MVFR","rawOb":"METAR SBPB 031600Z 09007KT 9999 BKN016 OVC080 28/24 Q1012","temp":28,"dewp":24,"wdir":90,"wspd":7,"visib":"6+","altim":1012,"clouds":[{"cover":"BKN","base":1600},{"cover":"OVC","base":8000}],"obsTime":1777824000},"SBAR":{"icaoId":"SBAR","flightCategory":"IFR","rawOb":"SPECI SBAR 031514Z 09015KT 2000 RA BKN013 BKN023 FEW025TCU 27/24 Q1014","temp":27,"dewp":24,"wdir":90,"wspd":15,"visib":1.24,"altim":1014,"clouds":[{"cover":"BKN","base":1300},{"cover":"BKN","base":2300},{"cover":"FEW","base":2500}],"obsTime":1777821240},"SBCJ":{"icaoId":"SBCJ","flightCategory":"VFR","rawOb":"METAR SBCJ 031600Z 12004KT 9999 SCT017 28/22 Q1016","temp":28,"dewp":22,"wdir":120,"wspd":4,"visib":"6+","altim":1016,"clouds":[{"cover":"SCT","base":1700}],"obsTime":1777824000},"SBPL":{"icaoId":"SBPL","flightCategory":"VFR","rawOb":"METAR SBPL 031600Z 08010KT 9999 FEW022 30/18 Q1014","temp":30,"dewp":18,"wdir":80,"wspd":10,"visib":"6+","altim":1014,"clouds":[{"cover":"FEW","base":2200}],"obsTime":1777824000},"SBVH":{"icaoId":"SBVH","flightCategory":"VFR","rawOb":"METAR SBVH 031600Z 10013KT CAVOK 29/18 Q1016","temp":29,"dewp":18,"wdir":100,"wspd":13,"visib":"6+","altim":1016,"clouds":[],"obsTime":1777824000},"SBPP":{"icaoId":"SBPP","flightCategory":"VFR","rawOb":"METAR SBPP 031600Z 06010KT 9999 SCT015 BKN070 24/20 Q1019","temp":24,"dewp":20,"wdir":60,"wspd":10,"visib":"6+","altim":1019,"clouds":[{"cover":"SCT","base":1500},{"cover":"BKN","base":7000}],"obsTime":1777824000},"SBBQ":{"icaoId":"SBBQ","flightCategory":"MVFR","rawOb":"METAR SBBQ 031600Z 14007KT 100V190 9999 BKN022 OVC075 21/16 Q1024","temp":21,"dewp":16,"wdir":140,"wspd":7,"visib":"6+","altim":1024,"clouds":[{"cover":"BKN","base":2200},{"cover":"OVC","base":7500}],"obsTime":1777824000},"SBPS":{"icaoId":"SBPS","flightCategory":"VFR","rawOb":"METAR SBPS 031600Z 10008KT 080V160 9999 SCT030 29/23 Q1015","temp":29,"dewp":23,"wdir":100,"wspd":8,"visib":"6+","altim":1015,"clouds":[{"cover":"SCT","base":3000}],"obsTime":1777824000},"SBCO":{"icaoId":"SBCO","flightCategory":"VFR","rawOb":"METAR SBCO 031600Z 13002KT 9999 FEW025 17/09 Q1023","temp":17,"dewp":9,"wdir":130,"wspd":2,"visib":"6+","altim":1023,"clouds":[{"cover":"FEW","base":2500}],"obsTime":1777824000},"SBSC":{"icaoId":"SBSC","flightCategory":"MVFR","rawOb":"METAR SBSC 031600Z 25006KT 6000 -DZ SCT012 BKN020 OVC032 23/19 Q1020","temp":23,"dewp":19,"wdir":250,"wspd":6,"visib":3.73,"altim":1020,"clouds":[{"cover":"SCT","base":1200},{"cover":"BKN","base":2000},{"cover":"OVC","base":3200}],"obsTime":1777824000},"SBSJ":{"icaoId":"SBSJ","flightCategory":"IFR","rawOb":"SPECI SBSJ 031516Z 18008KT 2500 -DZ BR BKN008 OVC016 19/17 Q1023","temp":19,"dewp":17,"wdir":180,"wspd":8,"visib":1.55,"altim":1023,"clouds":[{"cover":"BKN","base":800},{"cover":"OVC","base":1600}],"obsTime":1777821360},"SBUY":{"icaoId":"SBUY","flightCategory":"VFR","rawOb":"METAR SBUY 031600Z 14003KT 9999 FEW020 BKN100 29/24 Q1011","temp":29,"dewp":24,"wdir":140,"wspd":3,"visib":"6+","altim":1011,"clouds":[{"cover":"FEW","base":2000},{"cover":"BKN","base":10000}],"obsTime":1777824000},"SBAX":{"icaoId":"SBAX","flightCategory":"VFR","rawOb":"METAR SBAX 031600Z AUTO 05004KT 340V080 CAVOK 27/14 Q1020","temp":27,"dewp":14,"wdir":50,"wspd":4,"visib":"6+","altim":1020,"clouds":[],"obsTime":1777824000},"SBDN":{"icaoId":"SBDN","flightCategory":"VFR","rawOb":"METAR SBDN 031600Z 10008KT CAVOK 28/16 Q1018","temp":28,"dewp":16,"wdir":100,"wspd":8,"visib":"6+","altim":1018,"clouds":[],"obsTime":1777824000},"SBSM":{"icaoId":"SBSM","flightCategory":"VFR","rawOb":"METAR SBSM 031600Z 12007KT CAVOK 16/07 Q1022","temp":16,"dewp":7,"wdir":120,"wspd":7,"visib":"6+","altim":1022,"clouds":[],"obsTime":1777824000},"SBBU":{"icaoId":"SBBU","flightCategory":"VFR","rawOb":"METAR SBBU 031600Z 10014KT 9999 SCT030 27/18 Q1020","temp":27,"dewp":18,"wdir":100,"wspd":14,"visib":"6+","altim":1020,"clouds":[{"cover":"SCT","base":3000}],"obsTime":1777824000},"SBSR":{"icaoId":"SBSR","flightCategory":"VFR","rawOb":"METAR SBSR 031600Z 16005KT CAVOK 29/14 Q1018","temp":29,"dewp":14,"wdir":160,"wspd":5,"visib":"6+","altim":1018,"clouds":[],"obsTime":1777824000},"SBES":{"icaoId":"SBES","flightCategory":"MVFR","rawOb":"METAR SBES 031600Z 19012KT 160V220 8000 SCT015 OVC040 25/// Q1019","temp":null,"dewp":null,"wdir":190,"wspd":12,"visib":4.97,"altim":1019,"clouds":[{"cover":"SCT","base":1500},{"cover":"OVC","base":4000}],"obsTime":1777824000},"SBTF":{"icaoId":"SBTF","flightCategory":"VFR","rawOb":"METAR SBTF 031600Z 15005KT 9999 FEW012 BKN080 31/26 Q1011","temp":31,"dewp":26,"wdir":150,"wspd":5,"visib":"6+","altim":1011,"clouds":[{"cover":"FEW","base":1200},{"cover":"BKN","base":8000}],"obsTime":1777824000},"SBTT":{"icaoId":"SBTT","flightCategory":"LIFR","rawOb":"SPECI SBTT 031517Z 27004KT 7000 -RA BKN004 BKN070 24/23 Q1015","temp":24,"dewp":23,"wdir":270,"wspd":4,"visib":4.35,"altim":1015,"clouds":[{"cover":"BKN","base":400},{"cover":"BKN","base":7000}],"obsTime":1777821420},"SBAU":{"icaoId":"SBAU","flightCategory":"VFR","rawOb":"METAR SBAU 031700Z 10010KT CAVOK 30/13 Q1016","temp":30,"dewp":13,"wdir":100,"wspd":10,"visib":"6+","altim":1016,"clouds":[],"obsTime":1777827600},"SBGM":{"icaoId":"SBGM","flightCategory":"MVFR","rawOb":"METAR SBGM 031600Z 10010KT 9999 BKN026 32/24 Q1013","temp":32,"dewp":24,"wdir":100,"wspd":10,"visib":"6+","altim":1013,"clouds":[{"cover":"BKN","base":2600}],"obsTime":1777824000},"SBCA":{"icaoId":"SBCA","flightCategory":"VFR","rawOb":"METAR SBCA 031600Z 10008KT 9999 FEW015 SCT100 23/15 Q1020","temp":23,"dewp":15,"wdir":100,"wspd":8,"visib":"6+","altim":1020,"clouds":[{"cover":"FEW","base":1500},{"cover":"SCT","base":10000}],"obsTime":1777824000},"SBIP":{"icaoId":"SBIP","flightCategory":"VFR","rawOb":"METAR SBIP 031600Z AUTO 19005KT 130V270 CAVOK 30/19 Q1016","temp":30,"dewp":19,"wdir":190,"wspd":5,"visib":"6+","altim":1016,"clouds":[],"obsTime":1777824000},"SBJV":{"icaoId":"SBJV","flightCategory":"VFR","rawOb":"METAR SBJV 031600Z 15005KT 9999 OVC035 21/13 Q1023","temp":21,"dewp":13,"wdir":150,"wspd":5,"visib":"6+","altim":1023,"clouds":[{"cover":"OVC","base":3500}],"obsTime":1777824000},"SBTC":{"icaoId":"SBTC","flightCategory":"VFR","rawOb":"METAR SBTC 031600Z 11005KT 9999 SCT025 29/24 Q1014","temp":29,"dewp":24,"wdir":110,"wspd":5,"visib":"6+","altim":1014,"clouds":[{"cover":"SCT","base":2500}],"obsTime":1777824000},"SBAF":{"icaoId":"SBAF","flightCategory":"MVFR","rawOb":" SBAF 031600Z 22009KT 170V250 5000 BR FEW020 SCT030 BKN037 24/21 Q1020","temp":24,"dewp":21,"wdir":220,"wspd":9,"visib":3.11,"altim":1020,"clouds":[{"cover":"FEW","base":2000},{"cover":"SCT","base":3000},{"cover":"BKN","base":3700}],"obsTime":1777824000},"SBJP":{"icaoId":"SBJP","flightCategory":"VFR","rawOb":"METAR SBJP 031600Z 10010KT 9999 SCT020 OVC070 29/23 Q1012","temp":29,"dewp":23,"wdir":100,"wspd":10,"visib":"6+","altim":1012,"clouds":[{"cover":"SCT","base":2000},{"cover":"OVC","base":7000}],"obsTime":1777824000},"SBGW":{"icaoId":"SBGW","flightCategory":"VFR","rawOb":"METAR SBGW 031600Z 20004KT 160V240 9999 SCT025 OVC035 23/15 Q1021","temp":23,"dewp":15,"wdir":200,"wspd":4,"visib":"6+","altim":1021,"clouds":[{"cover":"SCT","base":2500},{"cover":"OVC","base":3500}],"obsTime":1777824000},"SBJR":{"icaoId":"SBJR","flightCategory":"MVFR","rawOb":"METAR SBJR 031600Z 19007KT 9000 BKN015 BKN030 OVC050 26/19 Q1019","temp":26,"dewp":19,"wdir":190,"wspd":7,"visib":5.59,"altim":1019,"clouds":[{"cover":"BKN","base":1500},{"cover":"BKN","base":3000},{"cover":"OVC","base":5000}],"obsTime":1777824000},"SBLS":{"icaoId":"SBLS","flightCategory":"VFR","rawOb":"METAR SBLS 031600Z 15007KT 070V170 9999 BKN045 28/13 Q1019","temp":28,"dewp":13,"wdir":150,"wspd":7,"visib":"6+","altim":1019,"clouds":[{"cover":"BKN","base":4500}],"obsTime":1777824000},"SBIH":{"icaoId":"SBIH","flightCategory":"VFR","rawOb":"METAR SBIH 031600Z 19010KT 9999 -RA SCT018 FEW025TCU 31/26 Q1011","temp":31,"dewp":26,"wdir":190,"wspd":10,"visib":"6+","altim":1011,"clouds":[{"cover":"SCT","base":1800},{"cover":"FEW","base":2500}],"obsTime":1777824000},"SBMT":{"icaoId":"SBMT","flightCategory":"MVFR","rawOb":"METAR SBMT 031600Z 15009KT 110V190 9999 SCT013 OVC015 18/14 Q1023","temp":18,"dewp":14,"wdir":150,"wspd":9,"visib":"6+","altim":1023,"clouds":[{"cover":"SCT","base":1300},{"cover":"OVC","base":1500}],"obsTime":1777824000},"SBST":{"icaoId":"SBST","flightCategory":"IFR","rawOb":"METAR SBST 031600Z /////KT 4000 -RA BR OVC025 ///// Q1022","temp":null,"dewp":null,"wdir":null,"wspd":null,"visib":2.49,"altim":1022,"clouds":[{"cover":"OVC","base":2500}],"obsTime":1777824000},"SBAN":{"icaoId":"SBAN","flightCategory":"VFR","rawOb":"METAR SBAN 031600Z 15008KT 090V200 9999 SCT040 27/14 Q1020","temp":27,"dewp":14,"wdir":150,"wspd":8,"visib":"6+","altim":1020,"clouds":[{"cover":"SCT","base":4000}],"obsTime":1777824000},"SBTA":{"icaoId":"SBTA","flightCategory":"VFR","rawOb":"METAR SBTA 031600Z 17007KT 9999 SCT025 BKN035 22/15 Q1021","temp":22,"dewp":15,"wdir":170,"wspd":7,"visib":"6+","altim":1021,"clouds":[{"cover":"SCT","base":2500},{"cover":"BKN","base":3500}],"obsTime":1777824000},"SBLE":{"icaoId":"SBLE","flightCategory":"VFR","rawOb":"METAR SBLE 031600Z AUTO 15006KT 090V210 9999 FEW032 27/20 Q1017","temp":27,"dewp":20,"wdir":150,"wspd":6,"visib":"6+","altim":1017,"clouds":[{"cover":"FEW","base":3200}],"obsTime":1777824000},"SBPF":{"icaoId":"SBPF","flightCategory":"VFR","rawOb":"METAR SBPF 031600Z 08008KT CAVOK 16/06 Q1023","temp":16,"dewp":6,"wdir":80,"wspd":8,"visib":"6+","altim":1023,"clouds":[],"obsTime":1777824000}}}