{"updated":1784663802,"count":85,"data":{"SBPA":{"icaoId":"SBPA","flightCategory":"IFR","rawOb":"METAR SBPA 211800Z 13003KT 090V180 4000 -RA BR BKN008 FEW035TCU BKN040 20/20 Q1006 RETS","temp":20,"dewp":20,"wdir":130,"wspd":3,"visib":2.49,"altim":1006,"clouds":[{"cover":"BKN","base":800},{"cover":"FEW","base":3500},{"cover":"BKN","base":4000}],"obsTime":1784656800},"SBFL":{"icaoId":"SBFL","flightCategory":"VFR","rawOb":"METAR SBFL 211800Z 11010KT CAVOK 26/19 Q1007","temp":26,"dewp":19,"wdir":110,"wspd":10,"visib":"6+","altim":1007,"clouds":[],"obsTime":1784656800},"SBCP":{"icaoId":"SBCP","flightCategory":"VFR","rawOb":"METAR SBCP 211800Z 07016KT CAVOK 26/20 Q1015","temp":26,"dewp":20,"wdir":70,"wspd":16,"visib":"6+","altim":1015,"clouds":[],"obsTime":1784656800},"SBFZ":{"icaoId":"SBFZ","flightCategory":"VFR","rawOb":"METAR SBFZ 211800Z 10018KT 9999 SCT025 BKN080 29/23 Q1011","temp":29,"dewp":23,"wdir":100,"wspd":18,"visib":"6+","altim":1011,"clouds":[{"cover":"SCT","base":2500},{"cover":"BKN","base":8000}],"obsTime":1784656800},"SBMO":{"icaoId":"SBMO","flightCategory":"VFR","rawOb":"METAR SBMO 211800Z 11011KT 9999 SCT025 BKN070 27/22 Q1014","temp":27,"dewp":22,"wdir":110,"wspd":11,"visib":"6+","altim":1014,"clouds":[{"cover":"SCT","base":2500},{"cover":"BKN","base":7000}],"obsTime":1784656800},"SBBR":{"icaoId":"SBBR","flightCategory":"VFR","rawOb":"METAR SBBR 211800Z VRB03KT CAVOK 27/08 Q1018","temp":27,"dewp":8,"wdir":"VRB","wspd":3,"visib":"6+","altim":1018,"clouds":[],"obsTime":1784656800},"SBCF":{"icaoId":"SBCF","flightCategory":"VFR","rawOb":"METAR SBCF 211800Z 05006KT 9999 BKN040 FEW045TCU 24/13 Q1018","temp":24,"dewp":13,"wdir":50,"wspd":6,"visib":"6+","altim":1018,"clouds":[{"cover":"BKN","base":4000},{"cover":"FEW","base":4500}],"obsTime":1784656800},"SBCZ":{"icaoId":"SBCZ","flightCategory":"VFR","rawOb":"METAR SBCZ 211800Z 35006KT 9999 BKN036 33/24 Q1010","temp":33,"dewp":24,"wdir":350,"wspd":6,"visib":"6+","altim":1010,"clouds":[{"cover":"BKN","base":3600}],"obsTime":1784656800},"SBNT":{"icaoId":"SBNT","flightCategory":"MVFR","rawOb":"METAR SBNT 211800Z 17009KT 8000 VCSH SCT012 BKN015 BKN040 24/22 Q1013","temp":24,"dewp":22,"wdir":170,"wspd":9,"visib":4.97,"altim":1013,"clouds":[{"cover":"SCT","base":1200},{"cover":"BKN","base":1500},{"cover":"BKN","base":4000}],"obsTime":1784656800},"SBBV":{"icaoId":"SBBV","flightCategory":"VFR","rawOb":"METAR SBBV 211800Z 11010KT 060V130 9999 BKN040 FEW045TCU 32/22 Q1010","temp":32,"dewp":22,"wdir":110,"wspd":10,"visib":"6+","altim":1010,"clouds":[{"cover":"BKN","base":4000},{"cover":"FEW","base":4500}],"obsTime":1784656800},"SBGL":{"icaoId":"SBGL","flightCategory":"VFR","rawOb":"METAR SBGL 211800Z 05004KT 360V090 CAVOK 31/12 Q1012","temp":31,"dewp":12,"wdir":50,"wspd":4,"visib":"6+","altim":1012,"clouds":[],"obsTime":1784656800},"SBBE":{"icaoId":"SBBE","flightCategory":"VFR","rawOb":"METAR SBBE 211800Z 11008KT 9999 VCSH SCT035 FEW040TCU 32/23 Q1010","temp":32,"dewp":23,"wdir":110,"wspd":8,"visib":"6+","altim":1010,"clouds":[{"cover":"SCT","base":3500},{"cover":"FEW","base":4000}],"obsTime":1784656800},"SBMA":{"icaoId":"SBMA","flightCategory":"VFR","rawOb":"METAR SBMA 211800Z 11005KT 9999 FEW025 34/19 Q1010","temp":34,"dewp":19,"wdir":110,"wspd":5,"visib":"6+","altim":1010,"clouds":[{"cover":"FEW","base":2500}],"obsTime":1784656800},"SBRF":{"icaoId":"SBRF","flightCategory":"VFR","rawOb":"METAR SBRF 211800Z 14010KT 9999 SCT020 BKN050 27/23 Q1013","temp":27,"dewp":23,"wdir":140,"wspd":10,"visib":"6+","altim":1013,"clouds":[{"cover":"SCT","base":2000},{"cover":"BKN","base":5000}],"obsTime":1784656800},"SBCB":{"icaoId":"SBCB","flightCategory":"VFR","rawOb":"METAR SBCB 211800Z 10016KT CAVOK 26/20 Q1013","temp":26,"dewp":20,"wdir":100,"wspd":16,"visib":"6+","altim":1013,"clouds":[],"obsTime":1784656800},"SBMG":{"icaoId":"SBMG","flightCategory":"VFR","rawOb":"METAR SBMG 211800Z 01016KT CAVOK 30/14 Q1010","temp":30,"dewp":14,"wdir":10,"wspd":16,"visib":"6+","altim":1010,"clouds":[],"obsTime":1784656800},"SBAT":{"icaoId":"SBAT","flightCategory":"VFR","rawOb":"METAR SBAT 211800Z 03004KT 9999 FEW035 34/16 Q1011","temp":34,"dewp":16,"wdir":30,"wspd":4,"visib":"6+","altim":1011,"clouds":[{"cover":"FEW","base":3500}],"obsTime":1784656800},"SBHT":{"icaoId":"SBHT","flightCategory":"VFR","rawOb":"METAR SBHT 211800Z 14004KT 9999 SCT030 32/23 Q1010","temp":32,"dewp":23,"wdir":140,"wspd":4,"visib":"6+","altim":1010,"clouds":[{"cover":"SCT","base":3000}],"obsTime":1784656800},"SBIL":{"icaoId":"SBIL","flightCategory":"VFR","rawOb":"METAR SBIL 211800Z 13009KT 9999 FEW020 FEW025TCU 27/22 Q1016","temp":27,"dewp":22,"wdir":130,"wspd":9,"visib":"6+","altim":1016,"clouds":[{"cover":"FEW","base":2000},{"cover":"FEW","base":2500}],"obsTime":1784656800},"SBJU":{"icaoId":"SBJU","flightCategory":"MVFR","rawOb":"METAR SBJU 211800Z 14006KT 9999 BKN020 31/16 Q1013","temp":31,"dewp":16,"wdir":140,"wspd":6,"visib":"6+","altim":1013,"clouds":[{"cover":"BKN","base":2000}],"obsTime":1784656800},"SBME":{"icaoId":"SBME","flightCategory":"VFR","rawOb":"METAR SBME 211800Z 02013KT 330V050 9999 FEW040 29/19 Q1013","temp":29,"dewp":19,"wdir":20,"wspd":13,"visib":"6+","altim":1013,"clouds":[{"cover":"FEW","base":4000}],"obsTime":1784656800},"SBMK":{"icaoId":"SBMK","flightCategory":"VFR","rawOb":"METAR SBMK 211800Z 33005KT 9999 SCT040 28/10 Q1016","temp":28,"dewp":10,"wdir":330,"wspd":5,"visib":"6+","altim":1016,"clouds":[{"cover":"SCT","base":4000}],"obsTime":1784656800},"SBUL":{"icaoId":"SBUL","flightCategory":"VFR","rawOb":"METAR SBUL 211800Z 04003KT CAVOK 26/08 Q1017","temp":26,"dewp":8,"wdir":40,"wspd":3,"visib":"6+","altim":1017,"clouds":[],"obsTime":1784656800},"SBUR":{"icaoId":"SBUR","flightCategory":"VFR","rawOb":"METAR SBUR 211800Z 35006KT CAVOK 28/08 Q1016","temp":28,"dewp":8,"wdir":350,"wspd":6,"visib":"6+","altim":1016,"clouds":[],"obsTime":1784656800},"SBSL":{"icaoId":"SBSL","flightCategory":"MVFR","rawOb":"METAR SBSL 211800Z 07008KT 6000 -RA BKN015 FEW020TCU BKN100 25/23 Q1010 RERA","temp":25,"dewp":23,"wdir":70,"wspd":8,"visib":3.73,"altim":1010,"clouds":[{"cover":"BKN","base":1500},{"cover":"FEW","base":2000},{"cover":"BKN","base":10000}],"obsTime":1784656800},"SBTE":{"icaoId":"SBTE","flightCategory":"VFR","rawOb":"METAR SBTE 211800Z 25004KT 9999 SCT040 SCT070 34/20 Q1009","temp":34,"dewp":20,"wdir":250,"wspd":4,"visib":"6+","altim":1009,"clouds":[{"cover":"SCT","base":4000},{"cover":"SCT","base":7000}],"obsTime":1784656800},"SBCG":{"icaoId":"SBCG","flightCategory":"VFR","rawOb":"METAR SBCG 211800Z 33014KT CAVOK 31/16 Q1012","temp":31,"dewp":16,"wdir":330,"wspd":14,"visib":"6+","altim":1012,"clouds":[],"obsTime":1784656800},"SBSV":{"icaoId":"SBSV","flightCategory":"VFR","rawOb":"METAR SBSV 211800Z 11007KT 070V180 9999 VCSH FEW009 SCT023 FEW025TCU BKN050 25/22 Q1015","temp":25,"dewp":22,"wdir":110,"wspd":7,"visib":"6+","altim":1015,"clouds":[{"cover":"FEW","base":900},{"cover":"SCT","base":2300},{"cover":"FEW","base":2500},{"cover":"BKN","base":5000}],"obsTime":1784656800},"SBCT":{"icaoId":"SBCT","flightCategory":"VFR","rawOb":"METAR SBCT 211800Z 34012KT 310V020 CAVOK 26/14 Q1013","temp":26,"dewp":14,"wdir":340,"wspd":12,"visib":"6+","altim":1013,"clouds":[],"obsTime":1784656800},"SBSG":{"icaoId":"SBSG","flightCategory":"IFR","rawOb":"METAR SBSG 211800Z 14005KT 090V210 7000 -RA SCT005 BKN008 BKN030 23/23 Q1014","temp":23,"dewp":23,"wdir":140,"wspd":5,"visib":4.35,"altim":1014,"clouds":[{"cover":"SCT","base":500},{"cover":"BKN","base":800},{"cover":"BKN","base":3000}],"obsTime":1784656800},"SBVT":{"icaoId":"SBVT","flightCategory":"MVFR","rawOb":"METAR SBVT 211800Z 03012KT 9999 VCSH FEW014 BKN025 OVC050 22/19 Q1017","temp":22,"dewp":19,"wdir":30,"wspd":12,"visib":"6+","altim":1017,"clouds":[{"cover":"FEW","base":1400},{"cover":"BKN","base":2500},{"cover":"OVC","base":5000}],"obsTime":1784656800},"SBKP":{"icaoId":"SBKP","flightCategory":"VFR","rawOb":"METAR SBKP 211800Z 36009KT 310V030 CAVOK 28/11 Q1015","temp":28,"dewp":11,"wdir":360,"wspd":9,"visib":"6+","altim":1015,"clouds":[],"obsTime":1784656800},"SBSN":{"icaoId":"SBSN","flightCategory":"VFR","rawOb":"METAR SBSN 211800Z 06011KT 360V070 9999 FEW030 31/24 Q1010","temp":31,"dewp":24,"wdir":60,"wspd":11,"visib":"6+","altim":1010,"clouds":[{"cover":"FEW","base":3000}],"obsTime":1784656800},"SBMQ":{"icaoId":"SBMQ","flightCategory":"IFR","rawOb":"METAR SBMQ 211800Z 05016G31KT 2000 RA SCT007 BKN013 25/24 Q1011","temp":25,"dewp":24,"wdir":50,"wspd":16,"visib":1.24,"altim":1011,"clouds":[{"cover":"SCT","base":700},{"cover":"BKN","base":1300}],"obsTime":1784656800},"SBCR":{"icaoId":"SBCR","flightCategory":"VFR","rawOb":"METAR SBCR 211800Z 36009KT 300V040 9999 SCT045 35/19 Q1007","temp":35,"dewp":19,"wdir":360,"wspd":9,"visib":"6+","altim":1007,"clouds":[{"cover":"SCT","base":4500}],"obsTime":1784656800},"SBFI":{"icaoId":"SBFI","flightCategory":"VFR","rawOb":"METAR SBFI 211800Z 01014G25KT 9999 FEW030 SCT100 28/20 Q1005","temp":28,"dewp":20,"wdir":10,"wspd":14,"visib":"6+","altim":1005,"clouds":[{"cover":"FEW","base":3000},{"cover":"SCT","base":10000}],"obsTime":1784656800},"SBRB":{"icaoId":"SBRB","flightCategory":"VFR","rawOb":"METAR SBRB 211800Z 35009KT 300V020 9999 SCT040 33/21 Q1010","temp":33,"dewp":21,"wdir":350,"wspd":9,"visib":"6+","altim":1010,"clouds":[{"cover":"SCT","base":4000}],"obsTime":1784656800},"SBEG":{"icaoId":"SBEG","flightCategory":"VFR","rawOb":"METAR SBEG 211800Z 11011KT 070V140 9999 VCSH SCT030 FEW035TCU 33/23 Q1010","temp":33,"dewp":23,"wdir":110,"wspd":11,"visib":"6+","altim":1010,"clouds":[{"cover":"SCT","base":3000},{"cover":"FEW","base":3500}],"obsTime":1784656800},"SBPV":{"icaoId":"SBPV","flightCategory":"VFR","rawOb":"METAR SBPV 211800Z 02007KT 340V060 9999 SCT045 34/20 Q1009","temp":34,"dewp":20,"wdir":20,"wspd":7,"visib":"6+","altim":1009,"clouds":[{"cover":"SCT","base":4500}],"obsTime":1784656800},"SBLO":{"icaoId":"SBLO","flightCategory":"VFR","rawOb":"METAR SBLO 211800Z 01012KT 330V030 CAVOK 29/13 Q1013","temp":29,"dewp":13,"wdir":10,"wspd":12,"visib":"6+","altim":1013,"clouds":[],"obsTime":1784656800},"SBPJ":{"icaoId":"SBPJ","flightCategory":"VFR","rawOb":"METAR SBPJ 211800Z 28007KT 9999 SCT045 34/16 Q1012","temp":34,"dewp":16,"wdir":280,"wspd":7,"visib":"6+","altim":1012,"clouds":[{"cover":"SCT","base":4500}],"obsTime":1784656800},"SBGR":{"icaoId":"SBGR","flightCategory":"VFR","rawOb":"METAR SBGR 211800Z 32011KT CAVOK 27/10 Q1015","temp":27,"dewp":10,"wdir":320,"wspd":11,"visib":"6+","altim":1015,"clouds":[],"obsTime":1784656800},"SBGO":{"icaoId":"SBGO","flightCategory":"VFR","rawOb":"METAR SBGO 211800Z 35004KT CAVOK 31/10 Q1016","temp":31,"dewp":10,"wdir":350,"wspd":4,"visib":"6+","altim":1016,"clouds":[],"obsTime":1784656800},"SBSP":{"icaoId":"SBSP","flightCategory":"VFR","rawOb":"METAR SBSP 211800Z 31011KT 270V350 CAVOK 27/09 Q1016","temp":27,"dewp":9,"wdir":310,"wspd":11,"visib":"6+","altim":1016,"clouds":[],"obsTime":1784656800},"SBVH":{"icaoId":"SBVH","flightCategory":"VFR","rawOb":"METAR SBVH 211800Z 36009KT 9999 FEW025 31/18 Q1013","temp":31,"dewp":18,"wdir":360,"wspd":9,"visib":"6+","altim":1013,"clouds":[{"cover":"FEW","base":2500}],"obsTime":1784656800},"SBOI":{"icaoId":"SBOI","flightCategory":"VFR","rawOb":"METAR SBOI 211800Z AUTO 09004KT 030V130 CAVOK 33/22 Q1011","temp":33,"dewp":22,"wdir":90,"wspd":4,"visib":"6+","altim":1011,"clouds":[],"obsTime":1784656800},"SBSJ":{"icaoId":"SBSJ","flightCategory":"VFR","rawOb":"METAR SBSJ 211800Z VRB04KT CAVOK 28/11 Q1014","temp":28,"dewp":11,"wdir":"VRB","wspd":4,"visib":"6+","altim":1014,"clouds":[],"obsTime":1784656800},"SBAR":{"icaoId":"SBAR","flightCategory":"VFR","rawOb":"METAR SBAR 211800Z 12009KT 060V160 9999 SCT020 SCT025 27/23 Q1014","temp":27,"dewp":23,"wdir":120,"wspd":9,"visib":"6+","altim":1014,"clouds":[{"cover":"SCT","base":2000},{"cover":"SCT","base":2500}],"obsTime":1784656800},"SBCJ":{"icaoId":"SBCJ","flightCategory":"VFR","rawOb":"METAR SBCJ 211800Z 10003KT 030V140 9999 SCT030 29/18 Q1014","temp":29,"dewp":18,"wdir":100,"wspd":3,"visib":"6+","altim":1014,"clouds":[{"cover":"SCT","base":3000}],"obsTime":1784656800},"SBPP":{"icaoId":"SBPP","flightCategory":"VFR","rawOb":"METAR SBPP 211800Z 36011KT 9999 FEW020 30/17 Q1010","temp":30,"dewp":17,"wdir":360,"wspd":11,"visib":"6+","altim":1010,"clouds":[{"cover":"FEW","base":2000}],"obsTime":1784656800},"SBCA":{"icaoId":"SBCA","flightCategory":"VFR","rawOb":"METAR SBCA 211800Z 35020G32KT 9999 FEW030 28/16 Q1010","temp":28,"dewp":16,"wdir":350,"wspd":20,"visib":"6+","altim":1010,"clouds":[{"cover":"FEW","base":3000}],"obsTime":1784656800},"SBCO":{"icaoId":"SBCO","flightCategory":"LIFR","rawOb":"METAR SBCO 211800Z 12005KT 100V170 3000 -RA BR BKN002 SCT017 BKN080 20/19 Q1006 RERA","temp":20,"dewp":19,"wdir":120,"wspd":5,"visib":1.86,"altim":1006,"clouds":[{"cover":"BKN","base":200},{"cover":"SCT","base":1700},{"cover":"BKN","base":8000}],"obsTime":1784656800},"SBSM":{"icaoId":"SBSM","flightCategory":"IFR","rawOb":"METAR SBSM 211800Z 08009KT 2000 TSRA BR SCT004 BKN045 FEW050CB OVC080 17/17 Q1005 RETSRA","temp":17,"dewp":17,"wdir":80,"wspd":9,"visib":1.24,"altim":1005,"clouds":[{"cover":"SCT","base":400},{"cover":"BKN","base":4500},{"cover":"FEW","base":5000},{"cover":"OVC","base":8000}],"obsTime":1784656800},"SBCC":{"icaoId":"SBCC","flightCategory":"VFR","rawOb":"METAR SBCC 211800Z 09007KT 050V150 9999 SCT045 33/15 Q1013","temp":33,"dewp":15,"wdir":90,"wspd":7,"visib":"6+","altim":1013,"clouds":[{"cover":"SCT","base":4500}],"obsTime":1784656800},"SBGM":{"icaoId":"SBGM","flightCategory":"VFR","rawOb":"METAR SBGM 211800Z 31008KT CAVOK 33/10 Q1010","temp":33,"dewp":10,"wdir":310,"wspd":8,"visib":"6+","altim":1010,"clouds":[],"obsTime":1784656800},"SBUY":{"icaoId":"SBUY","flightCategory":"VFR","rawOb":"METAR SBUY 211800Z 10005KT 9999 FEW025 SCT100 33/22 Q1009","temp":33,"dewp":22,"wdir":100,"wspd":5,"visib":"6+","altim":1009,"clouds":[{"cover":"FEW","base":2500},{"cover":"SCT","base":10000}],"obsTime":1784656800},"SBKG":{"icaoId":"SBKG","flightCategory":"VFR","rawOb":"METAR SBKG 211800Z 13008KT 9999 FEW010 SCT025 BKN070 23/20 Q1016","temp":23,"dewp":20,"wdir":130,"wspd":8,"visib":"6+","altim":1016,"clouds":[{"cover":"FEW","base":1000},{"cover":"SCT","base":2500},{"cover":"BKN","base":7000}],"obsTime":1784656800},"SBAX":{"icaoId":"SBAX","flightCategory":"VFR","rawOb":"METAR SBAX 211800Z AUTO 05005KT 330V100 CAVOK 25/09 Q1018","temp":25,"dewp":9,"wdir":50,"wspd":5,"visib":"6+","altim":1018,"clouds":[],"obsTime":1784656800},"SBBH":{"icaoId":"SBBH","flightCategory":"VFR","rawOb":"METAR SBBH 211800Z 08005KT 9999 BKN040 26/15 Q1018","temp":26,"dewp":15,"wdir":80,"wspd":5,"visib":"6+","altim":1018,"clouds":[{"cover":"BKN","base":4000}],"obsTime":1784656800},"SBBQ":{"icaoId":"SBBQ","flightCategory":"VFR","rawOb":"METAR SBBQ 211800Z 35006KT 9999 SCT045 22/11 Q1021","temp":22,"dewp":11,"wdir":350,"wspd":6,"visib":"6+","altim":1021,"clouds":[{"cover":"SCT","base":4500}],"obsTime":1784656800},"SBBU":{"icaoId":"SBBU","flightCategory":"VFR","rawOb":"METAR SBBU 211800Z 32012KT CAVOK 30/12 Q1014","temp":30,"dewp":12,"wdir":320,"wspd":12,"visib":"6+","altim":1014,"clouds":[],"obsTime":1784656800},"SBDN":{"icaoId":"SBDN","flightCategory":"VFR","rawOb":"METAR SBDN 211800Z 36009KT CAVOK 31/13 Q1012","temp":31,"dewp":13,"wdir":360,"wspd":9,"visib":"6+","altim":1012,"clouds":[],"obsTime":1784656800},"SBIP":{"icaoId":"SBIP","flightCategory":"VFR","rawOb":"METAR SBIP 211800Z AUTO 01006KT 320V080 9999 FEW033 27/17 Q1016","temp":27,"dewp":17,"wdir":10,"wspd":6,"visib":"6+","altim":1016,"clouds":[{"cover":"FEW","base":3300}],"obsTime":1784656800},"SBSC":{"icaoId":"SBSC","flightCategory":"VFR","rawOb":"METAR SBSC 211800Z 35010KT CAVOK 32/13 Q1011","temp":32,"dewp":13,"wdir":350,"wspd":10,"visib":"6+","altim":1011,"clouds":[],"obsTime":1784656800},"SBSR":{"icaoId":"SBSR","flightCategory":"VFR","rawOb":"METAR SBSR 211800Z 36005KT CAVOK 30/09 Q1014","temp":30,"dewp":9,"wdir":360,"wspd":5,"visib":"6+","altim":1014,"clouds":[],"obsTime":1784656800},"SBES":{"icaoId":"SBES","flightCategory":"VFR","rawOb":"METAR SBES 211800Z 06015KT CAVOK 27/// Q1013","temp":null,"dewp":null,"wdir":60,"wspd":15,"visib":"6+","altim":1013,"clouds":[],"obsTime":1784656800},"SBTU":{"icaoId":"SBTU","flightCategory":"VFR","rawOb":"METAR SBTU 211800Z AUTO 22006KT 170V290 9999 // FEW045/// BKN073/// 32/22 Q1011","temp":32,"dewp":22,"wdir":220,"wspd":6,"visib":"6+","altim":1011,"clouds":[{"cover":"FEW","base":4500},{"cover":"BKN","base":7300}],"obsTime":1784656800},"SBPB":{"icaoId":"SBPB","flightCategory":"VFR","rawOb":"METAR SBPB 211800Z 05015KT 9999 SCT020 SCT090 29/24 Q1011","temp":29,"dewp":24,"wdir":50,"wspd":15,"visib":"6+","altim":1011,"clouds":[{"cover":"SCT","base":2000},{"cover":"SCT","base":9000}],"obsTime":1784656800},"SBPS":{"icaoId":"SBPS","flightCategory":"VFR","rawOb":"METAR SBPS 211800Z 10008KT 9999 SCT025 26/21 Q1017","temp":26,"dewp":21,"wdir":100,"wspd":8,"visib":"6+","altim":1017,"clouds":[{"cover":"SCT","base":2500}],"obsTime":1784656800},"SBPL":{"icaoId":"SBPL","flightCategory":"VFR","rawOb":"METAR SBPL 211800Z 11011KT 9999 FEW030 31/17 Q1014","temp":31,"dewp":17,"wdir":110,"wspd":11,"visib":"6+","altim":1014,"clouds":[{"cover":"FEW","base":3000}],"obsTime":1784656800},"SBTF":{"icaoId":"SBTF","flightCategory":"VFR","rawOb":"METAR SBTF 211800Z 35006KT 9999 SCT020 SCT100 31/26 Q1010","temp":31,"dewp":26,"wdir":350,"wspd":6,"visib":"6+","altim":1010,"clouds":[{"cover":"SCT","base":2000},{"cover":"SCT","base":10000}],"obsTime":1784656800},"SBTT":{"icaoId":"SBTT","flightCategory":"MVFR","rawOb":"METAR SBTT 211800Z 21004KT 180V240 9999 BKN020 FEW025TCU 30/25 Q1010","temp":30,"dewp":25,"wdir":210,"wspd":4,"visib":"6+","altim":1010,"clouds":[{"cover":"BKN","base":2000},{"cover":"FEW","base":2500}],"obsTime":1784656800},"SBJP":{"icaoId":"SBJP","flightCategory":"VFR","rawOb":"METAR SBJP 211800Z 12012KT 9999 SCT020 OVC070 27/23 Q1013","temp":27,"dewp":23,"wdir":120,"wspd":12,"visib":"6+","altim":1013,"clouds":[{"cover":"SCT","base":2000},{"cover":"OVC","base":7000}],"obsTime":1784656800},"SBJV":{"icaoId":"SBJV","flightCategory":"VFR","rawOb":"METAR SBJV 211800Z 14007KT CAVOK 27/19 Q1007","temp":27,"dewp":19,"wdir":140,"wspd":7,"visib":"6+","altim":1007,"clouds":[],"obsTime":1784656800},"SBNM":{"icaoId":"SBNM","flightCategory":"MVFR","rawOb":"METAR SBNM 211800Z 11005KT 8000 -TSRA SCT005 FEW030CB BKN100 19/18 Q1006 RERA","temp":19,"dewp":18,"wdir":110,"wspd":5,"visib":4.97,"altim":1006,"clouds":[{"cover":"SCT","base":500},{"cover":"FEW","base":3000},{"cover":"BKN","base":10000}],"obsTime":1784656800},"SBIH":{"icaoId":"SBIH","flightCategory":"VFR","rawOb":"METAR SBIH 211800Z 04004KT 9999 FEW020 33/22 Q1010","temp":33,"dewp":22,"wdir":40,"wspd":4,"visib":"6+","altim":1010,"clouds":[{"cover":"FEW","base":2000}],"obsTime":1784656800},"SBLE":{"icaoId":"SBLE","flightCategory":"VFR","rawOb":"METAR SBLE 211800Z AUTO VRB01KT 9999 FEW034 26/18 Q1017","temp":26,"dewp":18,"wdir":"VRB","wspd":1,"visib":"6+","altim":1017,"clouds":[{"cover":"FEW","base":3400}],"obsTime":1784656800},"SBAN":{"icaoId":"SBAN","flightCategory":"VFR","rawOb":"METAR SBAN 211800Z 34004KT CAVOK 27/08 Q1018","temp":27,"dewp":8,"wdir":340,"wspd":4,"visib":"6+","altim":1018,"clouds":[],"obsTime":1784656800},"SBAF":{"icaoId":"SBAF","flightCategory":"VFR","rawOb":"METAR SBAF 211800Z 02008KT CAVOK 31/13 Q1012","temp":31,"dewp":13,"wdir":20,"wspd":8,"visib":"6+","altim":1012,"clouds":[],"obsTime":1784656800},"SBGW":{"icaoId":"SBGW","flightCategory":"VFR","rawOb":"METAR SBGW 211800Z 34004KT CAVOK 29/06 Q1014","temp":29,"dewp":6,"wdir":340,"wspd":4,"visib":"6+","altim":1014,"clouds":[],"obsTime":1784656800},"SBJR":{"icaoId":"SBJR","flightCategory":"VFR","rawOb":"METAR SBJR 211800Z 01008KT CAVOK 33/12 Q1011","temp":33,"dewp":12,"wdir":10,"wspd":8,"visib":"6+","altim":1011,"clouds":[],"obsTime":1784656800},"SBLS":{"icaoId":"SBLS","flightCategory":"VFR","rawOb":"METAR SBLS 211800Z 02005KT 300V110 9999 BKN045 25/13 Q1018","temp":25,"dewp":13,"wdir":20,"wspd":5,"visib":"6+","altim":1018,"clouds":[{"cover":"BKN","base":4500}],"obsTime":1784656800},"SBMT":{"icaoId":"SBMT","flightCategory":"VFR","rawOb":"METAR SBMT 211800Z 31008KT 270V010 CAVOK 26/09 Q1015","temp":26,"dewp":9,"wdir":310,"wspd":8,"visib":"6+","altim":1015,"clouds":[],"obsTime":1784656800},"SBST":{"icaoId":"SBST","flightCategory":"VFR","rawOb":"METAR SBST 211800Z 01005KT CAVOK 33/13 Q1009","temp":33,"dewp":13,"wdir":10,"wspd":5,"visib":"6+","altim":1009,"clouds":[],"obsTime":1784656800},"SBTA":{"icaoId":"SBTA","flightCategory":"VFR","rawOb":"METAR SBTA 211800Z 35007KT 310V020 CAVOK 28/09 Q1014","temp":28,"dewp":9,"wdir":350,"wspd":7,"visib":"6+","altim":1014,"clouds":[],"obsTime":1784656800}}}