{"updated":1773670307,"count":86,"data":{"SBVT":{"icaoId":"SBVT","flightCategory":"VFR","rawOb":"METAR SBVT 161300Z 14005KT 120V190 9999 SCT030 28/23 Q1014","temp":28,"dewp":23,"wdir":140,"wspd":5,"visib":"6+","altim":1014,"clouds":[{"cover":"SCT","base":3000}],"obsTime":1773666000},"SBAT":{"icaoId":"SBAT","flightCategory":"MVFR","rawOb":"METAR SBAT 161300Z 27004KT 8000 -RA FEW010 BKN016 BKN080 24/23 Q1014","temp":24,"dewp":23,"wdir":270,"wspd":4,"visib":4.97,"altim":1014,"clouds":[{"cover":"FEW","base":1000},{"cover":"BKN","base":1600},{"cover":"BKN","base":8000}],"obsTime":1773666000},"SBBE":{"icaoId":"SBBE","flightCategory":"VFR","rawOb":"METAR SBBE 161300Z 06008KT 9999 FEW010 BKN100 26/25 Q1012","temp":26,"dewp":25,"wdir":60,"wspd":8,"visib":"6+","altim":1012,"clouds":[{"cover":"FEW","base":1000},{"cover":"BKN","base":10000}],"obsTime":1773666000},"SBBR":{"icaoId":"SBBR","flightCategory":"VFR","rawOb":"METAR SBBR 161300Z 36004KT 310V050 9999 FEW025 BKN090 26/19 Q1018","temp":26,"dewp":19,"wdir":360,"wspd":4,"visib":"6+","altim":1018,"clouds":[{"cover":"FEW","base":2500},{"cover":"BKN","base":9000}],"obsTime":1773666000},"SBBV":{"icaoId":"SBBV","flightCategory":"MVFR","rawOb":"METAR SBBV 161300Z 08013KT 9999 BKN025 BKN100 29/22 Q1013","temp":29,"dewp":22,"wdir":80,"wspd":13,"visib":"6+","altim":1013,"clouds":[{"cover":"BKN","base":2500},{"cover":"BKN","base":10000}],"obsTime":1773666000},"SBCB":{"icaoId":"SBCB","flightCategory":"VFR","rawOb":"METAR SBCB 161300Z 09013KT 9999 FEW015 28/23 Q1013","temp":28,"dewp":23,"wdir":90,"wspd":13,"visib":"6+","altim":1013,"clouds":[{"cover":"FEW","base":1500}],"obsTime":1773666000},"SBCF":{"icaoId":"SBCF","flightCategory":"MVFR","rawOb":"METAR SBCF 161300Z 06005KT 010V160 9999 BKN025 26/20 Q1018","temp":26,"dewp":20,"wdir":60,"wspd":5,"visib":"6+","altim":1018,"clouds":[{"cover":"BKN","base":2500}],"obsTime":1773666000},"SBCG":{"icaoId":"SBCG","flightCategory":"VFR","rawOb":"METAR SBCG 161300Z 35013KT 320V020 9999 SCT020 SCT080 29/22 Q1013","temp":29,"dewp":22,"wdir":350,"wspd":13,"visib":"6+","altim":1013,"clouds":[{"cover":"SCT","base":2000},{"cover":"SCT","base":8000}],"obsTime":1773666000},"SBCP":{"icaoId":"SBCP","flightCategory":"VFR","rawOb":"METAR SBCP 161300Z 04008KT 9999 SCT015 30/21 Q1014","temp":30,"dewp":21,"wdir":40,"wspd":8,"visib":"6+","altim":1014,"clouds":[{"cover":"SCT","base":1500}],"obsTime":1773666000},"SBCR":{"icaoId":"SBCR","flightCategory":"VFR","rawOb":"METAR SBCR 161300Z 01007KT 320V050 9999 SCT035 BKN100 28/24 Q1010","temp":28,"dewp":24,"wdir":10,"wspd":7,"visib":"6+","altim":1010,"clouds":[{"cover":"SCT","base":3500},{"cover":"BKN","base":10000}],"obsTime":1773666000},"SBCT":{"icaoId":"SBCT","flightCategory":"VFR","rawOb":"METAR SBCT 161300Z 02006KT 9999 FEW045 SCT065 BKN100 24/10 Q1018","temp":24,"dewp":10,"wdir":20,"wspd":6,"visib":"6+","altim":1018,"clouds":[{"cover":"FEW","base":4500},{"cover":"SCT","base":6500},{"cover":"BKN","base":10000}],"obsTime":1773666000},"SBCZ":{"icaoId":"SBCZ","flightCategory":"VFR","rawOb":"METAR SBCZ 161300Z 27003KT 9999 FEW008 BKN100 26/25 Q1012","temp":26,"dewp":25,"wdir":270,"wspd":3,"visib":"6+","altim":1012,"clouds":[{"cover":"FEW","base":800},{"cover":"BKN","base":10000}],"obsTime":1773666000},"SBEG":{"icaoId":"SBEG","flightCategory":"VFR","rawOb":"METAR SBEG 161300Z 07008KT 9999 SCT010 30/25 Q1011","temp":30,"dewp":25,"wdir":70,"wspd":8,"visib":"6+","altim":1011,"clouds":[{"cover":"SCT","base":1000}],"obsTime":1773666000},"SBFI":{"icaoId":"SBFI","flightCategory":"VFR","rawOb":"METAR SBFI 161300Z 12006KT 9999 FEW030 BKN090 25/23 Q1011","temp":25,"dewp":23,"wdir":120,"wspd":6,"visib":"6+","altim":1011,"clouds":[{"cover":"FEW","base":3000},{"cover":"BKN","base":9000}],"obsTime":1773666000},"SBFL":{"icaoId":"SBFL","flightCategory":"VFR","rawOb":"METAR SBFL 161300Z 36007G17KT CAVOK 29/22 Q1012","temp":29,"dewp":22,"wdir":360,"wspd":7,"visib":"6+","altim":1012,"clouds":[],"obsTime":1773666000},"SBFZ":{"icaoId":"SBFZ","flightCategory":"MVFR","rawOb":"METAR SBFZ 161300Z 10005KT 9999 BKN023 FEW030TCU 29/25 Q1012","temp":29,"dewp":25,"wdir":100,"wspd":5,"visib":"6+","altim":1012,"clouds":[{"cover":"BKN","base":2300},{"cover":"FEW","base":3000}],"obsTime":1773666000},"SBGL":{"icaoId":"SBGL","flightCategory":"VFR","rawOb":"METAR SBGL 161300Z 05003KT 9999 SCT007 29/24 Q1013","temp":29,"dewp":24,"wdir":50,"wspd":3,"visib":"6+","altim":1013,"clouds":[{"cover":"SCT","base":700}],"obsTime":1773666000},"SBGO":{"icaoId":"SBGO","flightCategory":"VFR","rawOb":"METAR SBGO 161300Z 32009G20KT 300V360 9999 FEW040 27/21 Q1016","temp":27,"dewp":21,"wdir":320,"wspd":9,"visib":"6+","altim":1016,"clouds":[{"cover":"FEW","base":4000}],"obsTime":1773666000},"SBGR":{"icaoId":"SBGR","flightCategory":"VFR","rawOb":"METAR SBGR 161300Z 07008KT CAVOK 27/19 Q1017","temp":27,"dewp":19,"wdir":70,"wspd":8,"visib":"6+","altim":1017,"clouds":[],"obsTime":1773666000},"SBIL":{"icaoId":"SBIL","flightCategory":"VFR","rawOb":"METAR SBIL 161300Z 04007KT 9999 SCT020 31/24 Q1014","temp":31,"dewp":24,"wdir":40,"wspd":7,"visib":"6+","altim":1014,"clouds":[{"cover":"SCT","base":2000}],"obsTime":1773666000},"SBJU":{"icaoId":"SBJU","flightCategory":"MVFR","rawOb":"METAR SBJU 161300Z 06009KT 9999 BKN020 FEW022TCU 27/23 Q1015","temp":27,"dewp":23,"wdir":60,"wspd":9,"visib":"6+","altim":1015,"clouds":[{"cover":"BKN","base":2000},{"cover":"FEW","base":2200}],"obsTime":1773666000},"SBKP":{"icaoId":"SBKP","flightCategory":"VFR","rawOb":"METAR SBKP 161300Z 33003KT 290V090 CAVOK 29/18 Q1016","temp":29,"dewp":18,"wdir":330,"wspd":3,"visib":"6+","altim":1016,"clouds":[],"obsTime":1773666000},"SBLO":{"icaoId":"SBLO","flightCategory":"VFR","rawOb":"METAR SBLO 161300Z 06003KT 020V110 CAVOK 28/19 Q1015","temp":28,"dewp":19,"wdir":60,"wspd":3,"visib":"6+","altim":1015,"clouds":[],"obsTime":1773666000},"SBMA":{"icaoId":"SBMA","flightCategory":"VFR","rawOb":"METAR SBMA 161300Z 07007KT 9999 SCT020 ///// Q1012","temp":null,"dewp":null,"wdir":70,"wspd":7,"visib":"6+","altim":1012,"clouds":[{"cover":"SCT","base":2000}],"obsTime":1773666000},"SBME":{"icaoId":"SBME","flightCategory":"VFR","rawOb":"METAR SBME 161300Z 07008KT CAVOK 31/22 Q1013","temp":31,"dewp":22,"wdir":70,"wspd":8,"visib":"6+","altim":1013,"clouds":[],"obsTime":1773666000},"SBMG":{"icaoId":"SBMG","flightCategory":"VFR","rawOb":"METAR SBMG 161300Z 01016KT CAVOK 28/19 Q1014","temp":28,"dewp":19,"wdir":10,"wspd":16,"visib":"6+","altim":1014,"clouds":[],"obsTime":1773666000},"SBMK":{"icaoId":"SBMK","flightCategory":"VFR","rawOb":"METAR SBMK 161300Z 02003KT 9999 SCT025 BKN090 25/22 Q1017","temp":25,"dewp":22,"wdir":20,"wspd":3,"visib":"6+","altim":1017,"clouds":[{"cover":"SCT","base":2500},{"cover":"BKN","base":9000}],"obsTime":1773666000},"SBMO":{"icaoId":"SBMO","flightCategory":"VFR","rawOb":"METAR SBMO 161300Z 03006KT 340V100 9999 SCT030 30/23 Q1012","temp":30,"dewp":23,"wdir":30,"wspd":6,"visib":"6+","altim":1012,"clouds":[{"cover":"SCT","base":3000}],"obsTime":1773666000},"SBMQ":{"icaoId":"SBMQ","flightCategory":"MVFR","rawOb":"METAR SBMQ 161300Z 03009KT 9999 BKN021 29/25 Q1012","temp":29,"dewp":25,"wdir":30,"wspd":9,"visib":"6+","altim":1012,"clouds":[{"cover":"BKN","base":2100}],"obsTime":1773666000},"SBNT":{"icaoId":"SBNT","flightCategory":"MVFR","rawOb":"METAR SBNT 161300Z 08009KT 050V120 9999 BKN027 31/23 Q1012","temp":31,"dewp":23,"wdir":80,"wspd":9,"visib":"6+","altim":1012,"clouds":[{"cover":"BKN","base":2700}],"obsTime":1773666000},"SBPA":{"icaoId":"SBPA","flightCategory":"VFR","rawOb":"METAR SBPA 161300Z VRB01KT CAVOK 29/22 Q1011","temp":29,"dewp":22,"wdir":"VRB","wspd":1,"visib":"6+","altim":1011,"clouds":[],"obsTime":1773666000},"SBPJ":{"icaoId":"SBPJ","flightCategory":"VFR","rawOb":"METAR SBPJ 161300Z 20006KT 9999 FEW020 SCT035 29/25 Q1014","temp":29,"dewp":25,"wdir":200,"wspd":6,"visib":"6+","altim":1014,"clouds":[{"cover":"FEW","base":2000},{"cover":"SCT","base":3500}],"obsTime":1773666000},"SBPV":{"icaoId":"SBPV","flightCategory":"VFR","rawOb":"METAR SBPV 161300Z 06003KT 9999 FEW015 27/23 Q1011","temp":27,"dewp":23,"wdir":60,"wspd":3,"visib":"6+","altim":1011,"clouds":[{"cover":"FEW","base":1500}],"obsTime":1773666000},"SBRB":{"icaoId":"SBRB","flightCategory":"VFR","rawOb":"METAR SBRB 161300Z 36005KT CAVOK 25/23 Q1011","temp":25,"dewp":23,"wdir":360,"wspd":5,"visib":"6+","altim":1011,"clouds":[],"obsTime":1773666000},"SBRF":{"icaoId":"SBRF","flightCategory":"VFR","rawOb":"METAR SBRF 161300Z 04009KT 020V100 9999 SCT023 31/23 Q1012","temp":31,"dewp":23,"wdir":40,"wspd":9,"visib":"6+","altim":1012,"clouds":[{"cover":"SCT","base":2300}],"obsTime":1773666000},"SBSG":{"icaoId":"SBSG","flightCategory":"MVFR","rawOb":"METAR SBSG 161300Z 09007KT 9999 BKN026 30/23 Q1012","temp":30,"dewp":23,"wdir":90,"wspd":7,"visib":"6+","altim":1012,"clouds":[{"cover":"BKN","base":2600}],"obsTime":1773666000},"SBSL":{"icaoId":"SBSL","flightCategory":"MVFR","rawOb":"METAR SBSL 161300Z 29004KT 9999 BKN015 FEW025TCU 28/25 Q1013","temp":28,"dewp":25,"wdir":290,"wspd":4,"visib":"6+","altim":1013,"clouds":[{"cover":"BKN","base":1500},{"cover":"FEW","base":2500}],"obsTime":1773666000},"SBSN":{"icaoId":"SBSN","flightCategory":"VFR","rawOb":"METAR SBSN 161300Z 09013KT 9999 FEW020 29/24 Q1012","temp":29,"dewp":24,"wdir":90,"wspd":13,"visib":"6+","altim":1012,"clouds":[{"cover":"FEW","base":2000}],"obsTime":1773666000},"SBSP":{"icaoId":"SBSP","flightCategory":"VFR","rawOb":"METAR SBSP 161300Z 04004KT CAVOK 28/17 Q1018","temp":28,"dewp":17,"wdir":40,"wspd":4,"visib":"6+","altim":1018,"clouds":[],"obsTime":1773666000},"SBSV":{"icaoId":"SBSV","flightCategory":"VFR","rawOb":"METAR SBSV 161300Z 10008KT 9999 SCT025 30/22 Q1013","temp":30,"dewp":22,"wdir":100,"wspd":8,"visib":"6+","altim":1013,"clouds":[{"cover":"SCT","base":2500}],"obsTime":1773666000},"SBTE":{"icaoId":"SBTE","flightCategory":"MVFR","rawOb":"METAR SBTE 161300Z 34005KT 9999 BKN013 BKN070 28/25 Q1012","temp":28,"dewp":25,"wdir":340,"wspd":5,"visib":"6+","altim":1012,"clouds":[{"cover":"BKN","base":1300},{"cover":"BKN","base":7000}],"obsTime":1773666000},"SBUL":{"icaoId":"SBUL","flightCategory":"VFR","rawOb":"METAR SBUL 161300Z 02004KT 320V080 9999 SCT019 25/21 Q1018","temp":25,"dewp":21,"wdir":20,"wspd":4,"visib":"6+","altim":1018,"clouds":[{"cover":"SCT","base":1900}],"obsTime":1773666000},"SBUR":{"icaoId":"SBUR","flightCategory":"VFR","rawOb":"METAR SBUR 161300Z 36004KT 9999 FEW020 27/21 Q1017","temp":27,"dewp":21,"wdir":360,"wspd":4,"visib":"6+","altim":1017,"clouds":[{"cover":"FEW","base":2000}],"obsTime":1773666000},"SBCJ":{"icaoId":"SBCJ","flightCategory":"VFR","rawOb":"METAR SBCJ 161300Z 07003KT 9999 SCT004 SCT006 24/21 Q1017","temp":24,"dewp":21,"wdir":70,"wspd":3,"visib":"6+","altim":1017,"clouds":[{"cover":"SCT","base":400},{"cover":"SCT","base":600}],"obsTime":1773666000},"SBAX":{"icaoId":"SBAX","flightCategory":"VFR","rawOb":"METAR SBAX 161400Z 05006KT 9999 SCT025 27/20 Q1018","temp":27,"dewp":20,"wdir":50,"wspd":6,"visib":"6+","altim":1018,"clouds":[{"cover":"SCT","base":2500}],"obsTime":1773669600},"SBPB":{"icaoId":"SBPB","flightCategory":"MVFR","rawOb":"METAR SBPB 161300Z 08008KT 9999 TS BKN016 FEW026CB OVC100 29/25 Q1012","temp":29,"dewp":25,"wdir":80,"wspd":8,"visib":"6+","altim":1012,"clouds":[{"cover":"BKN","base":1600},{"cover":"FEW","base":2600},{"cover":"OVC","base":10000}],"obsTime":1773666000},"SBBU":{"icaoId":"SBBU","flightCategory":"VFR","rawOb":"METAR SBBU 161300Z 07006KT CAVOK 29/19 Q1015","temp":29,"dewp":19,"wdir":70,"wspd":6,"visib":"6+","altim":1015,"clouds":[],"obsTime":1773666000},"SBPL":{"icaoId":"SBPL","flightCategory":"MVFR","rawOb":"METAR SBPL 161300Z 04004KT 9999 BKN027 SCT070 29/21 Q1015","temp":29,"dewp":21,"wdir":40,"wspd":4,"visib":"6+","altim":1015,"clouds":[{"cover":"BKN","base":2700},{"cover":"SCT","base":7000}],"obsTime":1773666000},"SBPP":{"icaoId":"SBPP","flightCategory":"VFR","rawOb":"METAR SBPP 161300Z 01012KT 9999 FEW010 SCT025 BKN080 25/22 Q1013","temp":25,"dewp":22,"wdir":10,"wspd":12,"visib":"6+","altim":1013,"clouds":[{"cover":"FEW","base":1000},{"cover":"SCT","base":2500},{"cover":"BKN","base":8000}],"obsTime":1773666000},"SBCO":{"icaoId":"SBCO","flightCategory":"VFR","rawOb":"METAR SBCO 161300Z 07003KT CAVOK 27/22 Q1012","temp":27,"dewp":22,"wdir":70,"wspd":3,"visib":"6+","altim":1012,"clouds":[],"obsTime":1773666000},"SBDN":{"icaoId":"SBDN","flightCategory":"VFR","rawOb":"METAR SBDN 161300Z 01004KT CAVOK 29/20 Q1014","temp":29,"dewp":20,"wdir":10,"wspd":4,"visib":"6+","altim":1014,"clouds":[],"obsTime":1773666000},"SBPS":{"icaoId":"SBPS","flightCategory":"VFR","rawOb":"METAR SBPS 161300Z 02005KT 330V050 9999 SCT025 30/23 Q1014","temp":30,"dewp":23,"wdir":20,"wspd":5,"visib":"6+","altim":1014,"clouds":[{"cover":"SCT","base":2500}],"obsTime":1773666000},"SBSC":{"icaoId":"SBSC","flightCategory":"VFR","rawOb":"METAR SBSC 161300Z 01008KT CAVOK 30/22 Q1013","temp":30,"dewp":22,"wdir":10,"wspd":8,"visib":"6+","altim":1013,"clouds":[],"obsTime":1773666000},"SBBH":{"icaoId":"SBBH","flightCategory":"VFR","rawOb":"METAR SBBH 161300Z 06006KT 9999 SCT030 26/20 Q1018","temp":26,"dewp":20,"wdir":60,"wspd":6,"visib":"6+","altim":1018,"clouds":[{"cover":"SCT","base":3000}],"obsTime":1773666000},"SBSJ":{"icaoId":"SBSJ","flightCategory":"VFR","rawOb":"METAR SBSJ 161300Z 07003KT CAVOK 26/// Q1017","temp":null,"dewp":null,"wdir":70,"wspd":3,"visib":"6+","altim":1017,"clouds":[],"obsTime":1773666000},"SBCA":{"icaoId":"SBCA","flightCategory":"VFR","rawOb":"METAR SBCA 161300Z 04012KT CAVOK 25/18 Q1015","temp":25,"dewp":18,"wdir":40,"wspd":12,"visib":"6+","altim":1015,"clouds":[],"obsTime":1773666000},"SBES":{"icaoId":"SBES","flightCategory":"VFR","rawOb":"METAR SBES 161300Z 06012KT 9999 FEW010 27/// Q1013","temp":null,"dewp":null,"wdir":60,"wspd":12,"visib":"6+","altim":1013,"clouds":[{"cover":"FEW","base":1000}],"obsTime":1773666000},"SBSM":{"icaoId":"SBSM","flightCategory":"VFR","rawOb":"METAR SBSM 161300Z 10005KT 9999 SCT006 24/24 Q1011","temp":24,"dewp":24,"wdir":100,"wspd":5,"visib":"6+","altim":1011,"clouds":[{"cover":"SCT","base":600}],"obsTime":1773666000},"SBSR":{"icaoId":"SBSR","flightCategory":"VFR","rawOb":"METAR SBSR 161300Z 05007KT 360V090 9999 FEW030 27/20 Q1014","temp":27,"dewp":20,"wdir":50,"wspd":7,"visib":"6+","altim":1014,"clouds":[{"cover":"FEW","base":3000}],"obsTime":1773666000},"SBGM":{"icaoId":"SBGM","flightCategory":"VFR","rawOb":"METAR SBGM 161300Z 34005KT 9999 SCT030 26/23 Q1011","temp":26,"dewp":23,"wdir":340,"wspd":5,"visib":"6+","altim":1011,"clouds":[{"cover":"SCT","base":3000}],"obsTime":1773666000},"SBAU":{"icaoId":"SBAU","flightCategory":"VFR","rawOb":"METAR SBAU 161300Z 33004KT CAVOK 29/21 Q1014","temp":29,"dewp":21,"wdir":330,"wspd":4,"visib":"6+","altim":1014,"clouds":[],"obsTime":1773666000},"SBTD":{"icaoId":"SBTD","flightCategory":"VFR","rawOb":"METAR SBTD 161300Z /////KT 9999 FEW030 SCT080 26/20 Q1013","temp":26,"dewp":20,"wdir":null,"wspd":null,"visib":"6+","altim":1013,"clouds":[{"cover":"FEW","base":3000},{"cover":"SCT","base":8000}],"obsTime":1773666000},"SBTF":{"icaoId":"SBTF","flightCategory":"VFR","rawOb":"METAR SBTF 161300Z 09004KT CAVOK 29/26 Q1011","temp":29,"dewp":26,"wdir":90,"wspd":4,"visib":"6+","altim":1011,"clouds":[],"obsTime":1773666000},"SBAR":{"icaoId":"SBAR","flightCategory":"VFR","rawOb":"METAR SBAR 161300Z 08007KT 9999 FEW028 31/22 Q1012","temp":31,"dewp":22,"wdir":80,"wspd":7,"visib":"6+","altim":1012,"clouds":[{"cover":"FEW","base":2800}],"obsTime":1773666000},"SBOI":{"icaoId":"SBOI","flightCategory":"VFR","rawOb":"METAR SBOI 161300Z AUTO 04007KT 010V070 9999 FEW008 SCT010 BKN037 26/24 Q1014 RERA","temp":26,"dewp":24,"wdir":40,"wspd":7,"visib":"6+","altim":1014,"clouds":[{"cover":"FEW","base":800},{"cover":"SCT","base":1000},{"cover":"BKN","base":3700}],"obsTime":1773666000},"SBTT":{"icaoId":"SBTT","flightCategory":"IFR","rawOb":"METAR SBTT 161300Z 16003KT 110V190 9999 BKN007 26/24 Q1011","temp":26,"dewp":24,"wdir":160,"wspd":3,"visib":"6+","altim":1011,"clouds":[{"cover":"BKN","base":700}],"obsTime":1773666000},"SBIP":{"icaoId":"SBIP","flightCategory":"MVFR","rawOb":"METAR SBIP 161300Z AUTO VRB02KT 9999 FEW020 BKN026 28/23 Q1015","temp":28,"dewp":23,"wdir":"VRB","wspd":2,"visib":"6+","altim":1015,"clouds":[{"cover":"FEW","base":2000},{"cover":"BKN","base":2600}],"obsTime":1773666000},"SBUY":{"icaoId":"SBUY","flightCategory":"LIFR","rawOb":"METAR SBUY 161300Z 19002KT 3000 BR OVC004 25/24 Q1011","temp":25,"dewp":24,"wdir":190,"wspd":2,"visib":1.86,"altim":1011,"clouds":[{"cover":"OVC","base":400}],"obsTime":1773666000},"SBBQ":{"icaoId":"SBBQ","flightCategory":"VFR","rawOb":"METAR SBBQ 161300Z 06005KT CAVOK 25/16 Q1021","temp":25,"dewp":16,"wdir":60,"wspd":5,"visib":"6+","altim":1021,"clouds":[],"obsTime":1773666000},"SBKG":{"icaoId":"SBKG","flightCategory":"MVFR","rawOb":"METAR SBKG 161300Z 09010KT 9999 BKN020 28/20 Q1015","temp":28,"dewp":20,"wdir":90,"wspd":10,"visib":"6+","altim":1015,"clouds":[{"cover":"BKN","base":2000}],"obsTime":1773666000},"SBVH":{"icaoId":"SBVH","flightCategory":"VFR","rawOb":"METAR SBVH 161300Z 34006KT 9999 FEW020 SCT100 26/23 Q1015","temp":26,"dewp":23,"wdir":340,"wspd":6,"visib":"6+","altim":1015,"clouds":[{"cover":"FEW","base":2000},{"cover":"SCT","base":10000}],"obsTime":1773666000},"SBCC":{"icaoId":"SBCC","flightCategory":"VFR","rawOb":"METAR SBCC 161300Z 34004KT 9999 SCT040 BKN100 27/21 Q1014","temp":27,"dewp":21,"wdir":340,"wspd":4,"visib":"6+","altim":1014,"clouds":[{"cover":"SCT","base":4000},{"cover":"BKN","base":10000}],"obsTime":1773666000},"SBAF":{"icaoId":"SBAF","flightCategory":"VFR","rawOb":"METAR SBAF 161300Z 03002KT 9999 FEW010 30/23 Q1013","temp":30,"dewp":23,"wdir":30,"wspd":2,"visib":"6+","altim":1013,"clouds":[{"cover":"FEW","base":1000}],"obsTime":1773666000},"SBAN":{"icaoId":"SBAN","flightCategory":"VFR","rawOb":"METAR SBAN 161300Z 36003KT 9999 SCT015 25/18 Q1019","temp":25,"dewp":18,"wdir":360,"wspd":3,"visib":"6+","altim":1019,"clouds":[{"cover":"SCT","base":1500}],"obsTime":1773666000},"SBGW":{"icaoId":"SBGW","flightCategory":"VFR","rawOb":"METAR SBGW 161300Z 04004KT 270V080 9999 FEW025 26/17 Q1016","temp":26,"dewp":17,"wdir":40,"wspd":4,"visib":"6+","altim":1016,"clouds":[{"cover":"FEW","base":2500}],"obsTime":1773666000},"SBIH":{"icaoId":"SBIH","flightCategory":"VFR","rawOb":"METAR SBIH 161300Z 01010KT 9999 FEW010 SCT014 28/25 Q1012","temp":28,"dewp":25,"wdir":10,"wspd":10,"visib":"6+","altim":1012,"clouds":[{"cover":"FEW","base":1000},{"cover":"SCT","base":1400}],"obsTime":1773666000},"SBJP":{"icaoId":"SBJP","flightCategory":"MVFR","rawOb":"METAR SBJP 161300Z 06009KT 030V090 9999 BKN025 SCT070 30/23 Q1013","temp":30,"dewp":23,"wdir":60,"wspd":9,"visib":"6+","altim":1013,"clouds":[{"cover":"BKN","base":2500},{"cover":"SCT","base":7000}],"obsTime":1773666000},"SBJR":{"icaoId":"SBJR","flightCategory":"VFR","rawOb":"METAR SBJR 161300Z 28002KT CAVOK 33/24 Q1013","temp":33,"dewp":24,"wdir":280,"wspd":2,"visib":"6+","altim":1013,"clouds":[],"obsTime":1773666000},"SBJV":{"icaoId":"SBJV","flightCategory":"MVFR","rawOb":"METAR SBJV 161300Z 09002KT 9999 SCT005 BKN025 29/25 Q1013","temp":29,"dewp":25,"wdir":90,"wspd":2,"visib":"6+","altim":1013,"clouds":[{"cover":"SCT","base":500},{"cover":"BKN","base":2500}],"obsTime":1773666000},"SBLE":{"icaoId":"SBLE","flightCategory":"MVFR","rawOb":"METAR SBLE 161300Z AUTO 10006KT 9999 BKN025 BKN032 27/20 Q1017","temp":27,"dewp":20,"wdir":100,"wspd":6,"visib":"6+","altim":1017,"clouds":[{"cover":"BKN","base":2500},{"cover":"BKN","base":3200}],"obsTime":1773666000},"SBLS":{"icaoId":"SBLS","flightCategory":"MVFR","rawOb":"METAR SBLS 161300Z VRB03KT 9999 BKN023 27/20 Q1018","temp":27,"dewp":20,"wdir":"VRB","wspd":3,"visib":"6+","altim":1018,"clouds":[{"cover":"BKN","base":2300}],"obsTime":1773666000},"SBMT":{"icaoId":"SBMT","flightCategory":"VFR","rawOb":"METAR SBMT 161300Z 07004KT 010V150 CAVOK 27/18 Q1017","temp":27,"dewp":18,"wdir":70,"wspd":4,"visib":"6+","altim":1017,"clouds":[],"obsTime":1773666000},"SBNM":{"icaoId":"SBNM","flightCategory":"VFR","rawOb":"METAR SBNM 161400Z 33002KT 9999 SCT030 SCT070 29/21 Q1012","temp":29,"dewp":21,"wdir":330,"wspd":2,"visib":"6+","altim":1012,"clouds":[{"cover":"SCT","base":3000},{"cover":"SCT","base":7000}],"obsTime":1773669600},"SBST":{"icaoId":"SBST","flightCategory":"VFR","rawOb":"METAR SBST 161300Z 23003KT 170V340 CAVOK 28/23 Q1013","temp":28,"dewp":23,"wdir":230,"wspd":3,"visib":"6+","altim":1013,"clouds":[],"obsTime":1773666000},"SBTA":{"icaoId":"SBTA","flightCategory":"VFR","rawOb":"METAR SBTA 161300Z 03004KT 330V070 9999 FEW020 26/19 Q1016","temp":26,"dewp":19,"wdir":30,"wspd":4,"visib":"6+","altim":1016,"clouds":[{"cover":"FEW","base":2000}],"obsTime":1773666000},"SBPF":{"icaoId":"SBPF","flightCategory":"VFR","rawOb":"METAR SBPF 161300Z 06010KT CAVOK 25/18 Q1015","temp":25,"dewp":18,"wdir":60,"wspd":10,"visib":"6+","altim":1015,"clouds":[],"obsTime":1773666000}}}