{"updated":1783028314,"count":85,"data":{"SBFI":{"icaoId":"SBFI","flightCategory":"LIFR","rawOb":"SPECI SBFI 021949Z 23008KT 2500 -RA BR BKN004 SCT015 14/14 Q1021","temp":14,"dewp":14,"wdir":230,"wspd":8,"visib":1.55,"altim":1021,"clouds":[{"cover":"BKN","base":400},{"cover":"SCT","base":1500}],"obsTime":1783021740},"SBMQ":{"icaoId":"SBMQ","flightCategory":"VFR","rawOb":"METAR SBMQ 022000Z 05006KT 9999 VCSH SCT023 BKN055 BKN100 31/26 Q1011","temp":31,"dewp":26,"wdir":50,"wspd":6,"visib":"6+","altim":1011,"clouds":[{"cover":"SCT","base":2300},{"cover":"BKN","base":5500},{"cover":"BKN","base":10000}],"obsTime":1783022400},"SBMG":{"icaoId":"SBMG","flightCategory":"VFR","rawOb":"METAR SBMG 022000Z 02007KT CAVOK 27/17 Q1019","temp":27,"dewp":17,"wdir":20,"wspd":7,"visib":"6+","altim":1019,"clouds":[],"obsTime":1783022400},"SBPA":{"icaoId":"SBPA","flightCategory":"IFR","rawOb":"METAR SBPA 022000Z 23011KT 200V270 3500 -DZ BR OVC009 12/11 Q1022","temp":12,"dewp":11,"wdir":230,"wspd":11,"visib":2.17,"altim":1022,"clouds":[{"cover":"OVC","base":900}],"obsTime":1783022400},"SBIL":{"icaoId":"SBIL","flightCategory":"VFR","rawOb":"METAR SBIL 022000Z 20008KT 170V230 9999 FEW023 26/22 Q1018","temp":26,"dewp":22,"wdir":200,"wspd":8,"visib":"6+","altim":1018,"clouds":[{"cover":"FEW","base":2300}],"obsTime":1783022400},"SBJU":{"icaoId":"SBJU","flightCategory":"VFR","rawOb":"METAR SBJU 022000Z 14004KT CAVOK 31/10 Q1015","temp":31,"dewp":10,"wdir":140,"wspd":4,"visib":"6+","altim":1015,"clouds":[],"obsTime":1783022400},"SBAT":{"icaoId":"SBAT","flightCategory":"VFR","rawOb":"METAR SBAT 022000Z 15006KT 9999 SCT035 34/16 Q1013","temp":34,"dewp":16,"wdir":150,"wspd":6,"visib":"6+","altim":1013,"clouds":[{"cover":"SCT","base":3500}],"obsTime":1783022400},"SBHT":{"icaoId":"SBHT","flightCategory":"VFR","rawOb":"METAR SBHT 022000Z 05005KT 9999 SCT030 32/23 Q1011","temp":32,"dewp":23,"wdir":50,"wspd":5,"visib":"6+","altim":1011,"clouds":[{"cover":"SCT","base":3000}],"obsTime":1783022400},"SBME":{"icaoId":"SBME","flightCategory":"VFR","rawOb":"METAR SBME 022000Z 09005KT CAVOK 25/21 Q1018","temp":25,"dewp":21,"wdir":90,"wspd":5,"visib":"6+","altim":1018,"clouds":[],"obsTime":1783022400},"SBMK":{"icaoId":"SBMK","flightCategory":"VFR","rawOb":"METAR SBMK 022000Z 11008KT CAVOK 26/11 Q1020","temp":26,"dewp":11,"wdir":110,"wspd":8,"visib":"6+","altim":1020,"clouds":[],"obsTime":1783022400},"SBPJ":{"icaoId":"SBPJ","flightCategory":"VFR","rawOb":"METAR SBPJ 022000Z 14005KT 9999 SCT045 33/14 Q1014","temp":33,"dewp":14,"wdir":140,"wspd":5,"visib":"6+","altim":1014,"clouds":[{"cover":"SCT","base":4500}],"obsTime":1783022400},"SBUL":{"icaoId":"SBUL","flightCategory":"VFR","rawOb":"METAR SBUL 022000Z 00000KT 9999 FEW040 25/14 Q1023","temp":25,"dewp":14,"wdir":0,"wspd":0,"visib":"6+","altim":1023,"clouds":[{"cover":"FEW","base":4000}],"obsTime":1783022400},"SBUR":{"icaoId":"SBUR","flightCategory":"VFR","rawOb":"METAR SBUR 022000Z 22003KT CAVOK 27/14 Q1021","temp":27,"dewp":14,"wdir":220,"wspd":3,"visib":"6+","altim":1021,"clouds":[],"obsTime":1783022400},"SBVT":{"icaoId":"SBVT","flightCategory":"VFR","rawOb":"METAR SBVT 022000Z 05011KT CAVOK 25/20 Q1019","temp":25,"dewp":20,"wdir":50,"wspd":11,"visib":"6+","altim":1019,"clouds":[],"obsTime":1783022400},"SBGR":{"icaoId":"SBGR","flightCategory":"VFR","rawOb":"METAR SBGR 022000Z 30006KT CAVOK 25/14 Q1022","temp":25,"dewp":14,"wdir":300,"wspd":6,"visib":"6+","altim":1022,"clouds":[],"obsTime":1783022400},"SBCR":{"icaoId":"SBCR","flightCategory":"MVFR","rawOb":"METAR SBCR 022000Z 22009KT 170V260 9999 BKN013 16/13 Q1022","temp":16,"dewp":13,"wdir":220,"wspd":9,"visib":"6+","altim":1022,"clouds":[{"cover":"BKN","base":1300}],"obsTime":1783022400},"SBCP":{"icaoId":"SBCP","flightCategory":"VFR","rawOb":"METAR SBCP 022000Z 08010KT CAVOK 25/19 Q1018","temp":25,"dewp":19,"wdir":80,"wspd":10,"visib":"6+","altim":1018,"clouds":[],"obsTime":1783022400},"SBGL":{"icaoId":"SBGL","flightCategory":"VFR","rawOb":"METAR SBGL 022000Z 13006KT CAVOK 26/19 Q1018","temp":26,"dewp":19,"wdir":130,"wspd":6,"visib":"6+","altim":1018,"clouds":[],"obsTime":1783022400},"SBKP":{"icaoId":"SBKP","flightCategory":"VFR","rawOb":"METAR SBKP 022000Z 24004KT CAVOK 26/15 Q1021","temp":26,"dewp":15,"wdir":240,"wspd":4,"visib":"6+","altim":1021,"clouds":[],"obsTime":1783022400},"SBCG":{"icaoId":"SBCG","flightCategory":"VFR","rawOb":"METAR SBCG 022000Z 24010KT 9999 SCT049 28/17 Q1019","temp":28,"dewp":17,"wdir":240,"wspd":10,"visib":"6+","altim":1019,"clouds":[{"cover":"SCT","base":4900}],"obsTime":1783022400},"SBMA":{"icaoId":"SBMA","flightCategory":"VFR","rawOb":"METAR SBMA 022000Z 07004KT CAVOK 34/16 Q1011","temp":34,"dewp":16,"wdir":70,"wspd":4,"visib":"6+","altim":1011,"clouds":[],"obsTime":1783022400},"SBFL":{"icaoId":"SBFL","flightCategory":"IFR","rawOb":"METAR SBFL 022000Z 36005KT 4800 BR SCT010 OVC100 18/18 Q1016","temp":18,"dewp":18,"wdir":360,"wspd":5,"visib":2.98,"altim":1016,"clouds":[{"cover":"SCT","base":1000},{"cover":"OVC","base":10000}],"obsTime":1783022400},"SBCZ":{"icaoId":"SBCZ","flightCategory":"MVFR","rawOb":"METAR SBCZ 022000Z 12005KT 9999 BKN030 FEW030TCU 32/23 Q1011","temp":32,"dewp":23,"wdir":120,"wspd":5,"visib":"6+","altim":1011,"clouds":[{"cover":"BKN","base":3000},{"cover":"FEW","base":3000}],"obsTime":1783022400},"SBNT":{"icaoId":"SBNT","flightCategory":"VFR","rawOb":"METAR SBNT 022000Z 15010KT 9999 FEW034 27/20 Q1013","temp":27,"dewp":20,"wdir":150,"wspd":10,"visib":"6+","altim":1013,"clouds":[{"cover":"FEW","base":3400}],"obsTime":1783022400},"SBCB":{"icaoId":"SBCB","flightCategory":"VFR","rawOb":"METAR SBCB 022000Z 22003KT CAVOK 25/19 Q1019","temp":25,"dewp":19,"wdir":220,"wspd":3,"visib":"6+","altim":1019,"clouds":[],"obsTime":1783022400},"SBBE":{"icaoId":"SBBE","flightCategory":"VFR","rawOb":"METAR SBBE 022000Z 13006KT 9999 SCT040 33/22 Q1011","temp":33,"dewp":22,"wdir":130,"wspd":6,"visib":"6+","altim":1011,"clouds":[{"cover":"SCT","base":4000}],"obsTime":1783022400},"SBMO":{"icaoId":"SBMO","flightCategory":"VFR","rawOb":"METAR SBMO 022000Z 19008KT CAVOK 26/20 Q1016","temp":26,"dewp":20,"wdir":190,"wspd":8,"visib":"6+","altim":1016,"clouds":[],"obsTime":1783022400},"SBPV":{"icaoId":"SBPV","flightCategory":"VFR","rawOb":"METAR SBPV 022000Z 10007KT 9999 FEW030 34/19 Q1011","temp":34,"dewp":19,"wdir":100,"wspd":7,"visib":"6+","altim":1011,"clouds":[{"cover":"FEW","base":3000}],"obsTime":1783022400},"SBBR":{"icaoId":"SBBR","flightCategory":"VFR","rawOb":"METAR SBBR 022000Z 11009KT 9999 SCT045 24/14 Q1022","temp":24,"dewp":14,"wdir":110,"wspd":9,"visib":"6+","altim":1022,"clouds":[{"cover":"SCT","base":4500}],"obsTime":1783022400},"SBRF":{"icaoId":"SBRF","flightCategory":"VFR","rawOb":"METAR SBRF 022000Z 17010KT 9999 SCT025 27/21 Q1015","temp":27,"dewp":21,"wdir":170,"wspd":10,"visib":"6+","altim":1015,"clouds":[{"cover":"SCT","base":2500}],"obsTime":1783022400},"SBSL":{"icaoId":"SBSL","flightCategory":"VFR","rawOb":"METAR SBSL 022000Z 06006KT 9999 FEW027 30/24 Q1011","temp":30,"dewp":24,"wdir":60,"wspd":6,"visib":"6+","altim":1011,"clouds":[{"cover":"FEW","base":2700}],"obsTime":1783022400},"SBFZ":{"icaoId":"SBFZ","flightCategory":"VFR","rawOb":"METAR SBFZ 022000Z 11016KT 9999 SCT030 BKN060 28/22 Q1012","temp":28,"dewp":22,"wdir":110,"wspd":16,"visib":"6+","altim":1012,"clouds":[{"cover":"SCT","base":3000},{"cover":"BKN","base":6000}],"obsTime":1783022400},"SBEG":{"icaoId":"SBEG","flightCategory":"VFR","rawOb":"METAR SBEG 022000Z 09010KT 9999 FEW040 33/24 Q1010","temp":33,"dewp":24,"wdir":90,"wspd":10,"visib":"6+","altim":1010,"clouds":[{"cover":"FEW","base":4000}],"obsTime":1783022400},"SBSG":{"icaoId":"SBSG","flightCategory":"VFR","rawOb":"METAR SBSG 022000Z 13007KT 090V170 CAVOK 26/22 Q1014","temp":26,"dewp":22,"wdir":130,"wspd":7,"visib":"6+","altim":1014,"clouds":[],"obsTime":1783022400},"SBRB":{"icaoId":"SBRB","flightCategory":"VFR","rawOb":"METAR SBRB 022000Z 12008KT 9999 SCT030 32/21 Q1012","temp":32,"dewp":21,"wdir":120,"wspd":8,"visib":"6+","altim":1012,"clouds":[{"cover":"SCT","base":3000}],"obsTime":1783022400},"SBSN":{"icaoId":"SBSN","flightCategory":"VFR","rawOb":"METAR SBSN 022000Z 08011KT 9999 FEW020 31/26 Q1010","temp":31,"dewp":26,"wdir":80,"wspd":11,"visib":"6+","altim":1010,"clouds":[{"cover":"FEW","base":2000}],"obsTime":1783022400},"SBGO":{"icaoId":"SBGO","flightCategory":"VFR","rawOb":"METAR SBGO 022000Z 08010KT CAVOK 28/14 Q1020","temp":28,"dewp":14,"wdir":80,"wspd":10,"visib":"6+","altim":1020,"clouds":[],"obsTime":1783022400},"SBCF":{"icaoId":"SBCF","flightCategory":"VFR","rawOb":"METAR SBCF 022000Z 14006KT CAVOK 25/13 Q1022","temp":25,"dewp":13,"wdir":140,"wspd":6,"visib":"6+","altim":1022,"clouds":[],"obsTime":1783022400},"SBTE":{"icaoId":"SBTE","flightCategory":"VFR","rawOb":"METAR SBTE 022000Z 14007KT 9999 FEW025 33/17 Q1011","temp":33,"dewp":17,"wdir":140,"wspd":7,"visib":"6+","altim":1011,"clouds":[{"cover":"FEW","base":2500}],"obsTime":1783022400},"SBSV":{"icaoId":"SBSV","flightCategory":"MVFR","rawOb":"SPECI SBSV 021940Z 16010KT 7000 2000NE RA SCT023 BKN050 25/22 Q1017","temp":25,"dewp":22,"wdir":160,"wspd":10,"visib":4.35,"altim":1017,"clouds":[{"cover":"SCT","base":2300},{"cover":"BKN","base":5000}],"obsTime":1783021200},"SBCT":{"icaoId":"SBCT","flightCategory":"VFR","rawOb":"METAR SBCT 022000Z 31008KT 9999 FEW015 24/16 Q1021","temp":24,"dewp":16,"wdir":310,"wspd":8,"visib":"6+","altim":1021,"clouds":[{"cover":"FEW","base":1500}],"obsTime":1783022400},"SBSP":{"icaoId":"SBSP","flightCategory":"VFR","rawOb":"METAR SBSP 022000Z 32007KT CAVOK 25/13 Q1023","temp":25,"dewp":13,"wdir":320,"wspd":7,"visib":"6+","altim":1023,"clouds":[],"obsTime":1783022400},"SBBV":{"icaoId":"SBBV","flightCategory":"VFR","rawOb":"METAR SBBV 022000Z 12008KT 9999 BKN040 FEW045TCU BKN080 31/23 Q1009","temp":31,"dewp":23,"wdir":120,"wspd":8,"visib":"6+","altim":1009,"clouds":[{"cover":"BKN","base":4000},{"cover":"FEW","base":4500},{"cover":"BKN","base":8000}],"obsTime":1783022400},"SBLO":{"icaoId":"SBLO","flightCategory":"VFR","rawOb":"METAR SBLO 022000Z 34006KT 9999 FEW040 27/16 Q1020","temp":27,"dewp":16,"wdir":340,"wspd":6,"visib":"6+","altim":1020,"clouds":[{"cover":"FEW","base":4000}],"obsTime":1783022400},"SBCJ":{"icaoId":"SBCJ","flightCategory":"VFR","rawOb":"METAR SBCJ 022000Z 14004KT 090V190 CAVOK 29/15 Q1016","temp":29,"dewp":15,"wdir":140,"wspd":4,"visib":"6+","altim":1016,"clouds":[],"obsTime":1783022400},"SBCO":{"icaoId":"SBCO","flightCategory":"IFR","rawOb":"METAR SBCO 022000Z 23008KT 200V270 3500 -RA BR BKN008 OVC013 12/11 Q1023","temp":12,"dewp":11,"wdir":230,"wspd":8,"visib":2.17,"altim":1023,"clouds":[{"cover":"BKN","base":800},{"cover":"OVC","base":1300}],"obsTime":1783022400},"SBSM":{"icaoId":"SBSM","flightCategory":"LIFR","rawOb":"METAR SBSM 022000Z 23003KT 2000 -RADZ BR BKN004 OVC012 10/10 Q1025","temp":10,"dewp":10,"wdir":230,"wspd":3,"visib":1.24,"altim":1025,"clouds":[{"cover":"BKN","base":400},{"cover":"OVC","base":1200}],"obsTime":1783022400},"SBKG":{"icaoId":"SBKG","flightCategory":"VFR","rawOb":"METAR SBKG 022000Z 14005KT CAVOK 25/18 Q1016","temp":25,"dewp":18,"wdir":140,"wspd":5,"visib":"6+","altim":1016,"clouds":[],"obsTime":1783022400},"SBCA":{"icaoId":"SBCA","flightCategory":"MVFR","rawOb":"METAR SBCA 022000Z 29007KT 8000 BCFG FEW001 SCT005 FEW050TCU BKN100 19/17 Q1022","temp":19,"dewp":17,"wdir":290,"wspd":7,"visib":4.97,"altim":1022,"clouds":[{"cover":"FEW","base":100},{"cover":"SCT","base":500},{"cover":"FEW","base":5000},{"cover":"BKN","base":10000}],"obsTime":1783022400},"SBVH":{"icaoId":"SBVH","flightCategory":"VFR","rawOb":"METAR SBVH 022000Z 10007KT 9999 SCT045 30/16 Q1017","temp":30,"dewp":16,"wdir":100,"wspd":7,"visib":"6+","altim":1017,"clouds":[{"cover":"SCT","base":4500}],"obsTime":1783022400},"SBBH":{"icaoId":"SBBH","flightCategory":"VFR","rawOb":"METAR SBBH 022000Z 05004KT CAVOK 25/13 Q1022","temp":25,"dewp":13,"wdir":50,"wspd":4,"visib":"6+","altim":1022,"clouds":[],"obsTime":1783022400},"SBBU":{"icaoId":"SBBU","flightCategory":"VFR","rawOb":"METAR SBBU 022000Z 31006KT CAVOK 28/14 Q1020","temp":28,"dewp":14,"wdir":310,"wspd":6,"visib":"6+","altim":1020,"clouds":[],"obsTime":1783022400},"SBDN":{"icaoId":"SBDN","flightCategory":"VFR","rawOb":"METAR SBDN 022000Z 31002KT CAVOK 29/16 Q1019","temp":29,"dewp":16,"wdir":310,"wspd":2,"visib":"6+","altim":1019,"clouds":[],"obsTime":1783022400},"SBIP":{"icaoId":"SBIP","flightCategory":"VFR","rawOb":"METAR SBIP 022000Z AUTO 33002KT CAVOK 24/16 Q1020","temp":24,"dewp":16,"wdir":330,"wspd":2,"visib":"6+","altim":1020,"clouds":[],"obsTime":1783022400},"SBSC":{"icaoId":"SBSC","flightCategory":"VFR","rawOb":"METAR SBSC 022000Z 21005KT CAVOK 24/20 Q1018","temp":24,"dewp":20,"wdir":210,"wspd":5,"visib":"6+","altim":1018,"clouds":[],"obsTime":1783022400},"SBSR":{"icaoId":"SBSR","flightCategory":"VFR","rawOb":"METAR SBSR 022000Z VRB04KT CAVOK 28/08 Q1020","temp":28,"dewp":8,"wdir":"VRB","wspd":4,"visib":"6+","altim":1020,"clouds":[],"obsTime":1783022400},"SBTU":{"icaoId":"SBTU","flightCategory":"VFR","rawOb":"METAR SBTU 022000Z AUTO 01007KT 9999 // NCD 31/20 Q1013","temp":31,"dewp":20,"wdir":10,"wspd":7,"visib":"6+","altim":1013,"clouds":[],"obsTime":1783022400},"SBES":{"icaoId":"SBES","flightCategory":"VFR","rawOb":"METAR SBES 022000Z 22005KT CAVOK 23/// Q1018","temp":null,"dewp":null,"wdir":220,"wspd":5,"visib":"6+","altim":1018,"clouds":[],"obsTime":1783022400},"SBPP":{"icaoId":"SBPP","flightCategory":"LIFR","rawOb":"METAR SBPP 022000Z 22009KT 0000 FG VV000 14/14 Q1022","temp":14,"dewp":14,"wdir":220,"wspd":9,"visib":0,"altim":1022,"clouds":[{"cover":"OVX","base":0}],"obsTime":1783022400},"SBUY":{"icaoId":"SBUY","flightCategory":"VFR","rawOb":"METAR SBUY 022000Z 19007KT 9999 SCT030 FEW040TCU 31/25 Q1009","temp":31,"dewp":25,"wdir":190,"wspd":7,"visib":"6+","altim":1009,"clouds":[{"cover":"SCT","base":3000},{"cover":"FEW","base":4000}],"obsTime":1783022400},"SBPS":{"icaoId":"SBPS","flightCategory":"MVFR","rawOb":"METAR SBPS 022000Z 18001KT 9999 FEW013 BKN030 OVC039 23/22 Q1019","temp":23,"dewp":22,"wdir":180,"wspd":1,"visib":"6+","altim":1019,"clouds":[{"cover":"FEW","base":1300},{"cover":"BKN","base":3000},{"cover":"OVC","base":3900}],"obsTime":1783022400},"SBSJ":{"icaoId":"SBSJ","flightCategory":"VFR","rawOb":"METAR SBSJ 022000Z 22003KT CAVOK 26/15 Q1021","temp":26,"dewp":15,"wdir":220,"wspd":3,"visib":"6+","altim":1021,"clouds":[],"obsTime":1783022400},"SBTF":{"icaoId":"SBTF","flightCategory":"VFR","rawOb":"METAR SBTF 022000Z 12006KT 9999 FEW020 33/25 Q1009","temp":33,"dewp":25,"wdir":120,"wspd":6,"visib":"6+","altim":1009,"clouds":[{"cover":"FEW","base":2000}],"obsTime":1783022400},"SBPB":{"icaoId":"SBPB","flightCategory":"VFR","rawOb":"METAR SBPB 022000Z 04009KT 9999 FEW016 BKN090 29/22 Q1011","temp":29,"dewp":22,"wdir":40,"wspd":9,"visib":"6+","altim":1011,"clouds":[{"cover":"FEW","base":1600},{"cover":"BKN","base":9000}],"obsTime":1783022400},"SBOI":{"icaoId":"SBOI","flightCategory":"VFR","rawOb":"METAR SBOI 022000Z AUTO 09005KT 030V190 9999 FEW038 29/24 Q1012","temp":29,"dewp":24,"wdir":90,"wspd":5,"visib":"6+","altim":1012,"clouds":[{"cover":"FEW","base":3800}],"obsTime":1783022400},"SBTT":{"icaoId":"SBTT","flightCategory":"VFR","rawOb":"METAR SBTT 022000Z 19010KT 9999 VCSH SCT017 FEW024TCU 30/24 Q1010","temp":30,"dewp":24,"wdir":190,"wspd":10,"visib":"6+","altim":1010,"clouds":[{"cover":"SCT","base":1700},{"cover":"FEW","base":2400}],"obsTime":1783022400},"SBPL":{"icaoId":"SBPL","flightCategory":"VFR","rawOb":"METAR SBPL 022000Z 12011KT CAVOK 31/12 Q1015","temp":31,"dewp":12,"wdir":120,"wspd":11,"visib":"6+","altim":1015,"clouds":[],"obsTime":1783022400},"SBAR":{"icaoId":"SBAR","flightCategory":"IFR","rawOb":"METAR SBAR 022000Z 08005KT 4000 -RA SCT008 BKN016 OVC035 23/22 Q1017","temp":23,"dewp":22,"wdir":80,"wspd":5,"visib":2.49,"altim":1017,"clouds":[{"cover":"SCT","base":800},{"cover":"BKN","base":1600},{"cover":"OVC","base":3500}],"obsTime":1783022400},"SBBQ":{"icaoId":"SBBQ","flightCategory":"VFR","rawOb":"METAR SBBQ 022000Z 09005KT 070V140 CAVOK 22/15 Q1026","temp":22,"dewp":15,"wdir":90,"wspd":5,"visib":"6+","altim":1026,"clouds":[],"obsTime":1783022400},"SBCC":{"icaoId":"SBCC","flightCategory":"VFR","rawOb":"METAR SBCC 022000Z 08011KT 9999 SCT025 30/16 Q1015","temp":30,"dewp":16,"wdir":80,"wspd":11,"visib":"6+","altim":1015,"clouds":[{"cover":"SCT","base":2500}],"obsTime":1783022400},"SBAX":{"icaoId":"SBAX","flightCategory":"VFR","rawOb":"METAR SBAX 022000Z 04003KT CAVOK 25/13 Q1022","temp":25,"dewp":13,"wdir":40,"wspd":3,"visib":"6+","altim":1022,"clouds":[],"obsTime":1783022400},"SBJV":{"icaoId":"SBJV","flightCategory":"MVFR","rawOb":"METAR SBJV 022000Z 03003KT 9999 BKN010 20/18 Q1017","temp":20,"dewp":18,"wdir":30,"wspd":3,"visib":"6+","altim":1017,"clouds":[{"cover":"BKN","base":1000}],"obsTime":1783022400},"SBNM":{"icaoId":"SBNM","flightCategory":"IFR","rawOb":"METAR SBNM 022000Z AUTO 18011KT 5000 -RA BR BKN005 OVC012 10/09 Q1024","temp":10,"dewp":9,"wdir":180,"wspd":11,"visib":3.11,"altim":1024,"clouds":[{"cover":"BKN","base":500},{"cover":"OVC","base":1200}],"obsTime":1783022400},"SBPF":{"icaoId":"SBPF","flightCategory":"LIFR","rawOb":"METAR SBPF 022000Z 18004KT 9999 -DZ OVC003 11/09 Q1021","temp":11,"dewp":9,"wdir":180,"wspd":4,"visib":"6+","altim":1021,"clouds":[{"cover":"OVC","base":300}],"obsTime":1783022400},"SBAN":{"icaoId":"SBAN","flightCategory":"VFR","rawOb":"METAR SBAN 022000Z 11006KT CAVOK 24/14 Q1023","temp":24,"dewp":14,"wdir":110,"wspd":6,"visib":"6+","altim":1023,"clouds":[],"obsTime":1783022400},"SBLE":{"icaoId":"SBLE","flightCategory":"VFR","rawOb":"METAR SBLE 022000Z AUTO 13003KT CAVOK ///// Q1019","temp":null,"dewp":null,"wdir":130,"wspd":3,"visib":"6+","altim":1019,"clouds":[],"obsTime":1783022400},"SBIH":{"icaoId":"SBIH","flightCategory":"VFR","rawOb":"METAR SBIH 022000Z 09004KT 9999 FEW020 34/23 Q1009","temp":34,"dewp":23,"wdir":90,"wspd":4,"visib":"6+","altim":1009,"clouds":[{"cover":"FEW","base":2000}],"obsTime":1783022400},"SBAF":{"icaoId":"SBAF","flightCategory":"VFR","rawOb":"METAR SBAF 022000Z 21005KT CAVOK 26/19 Q1018","temp":26,"dewp":19,"wdir":210,"wspd":5,"visib":"6+","altim":1018,"clouds":[],"obsTime":1783022400},"SBGW":{"icaoId":"SBGW","flightCategory":"VFR","rawOb":"METAR SBGW 022000Z 24003KT CAVOK 27/13 Q1020","temp":27,"dewp":13,"wdir":240,"wspd":3,"visib":"6+","altim":1020,"clouds":[],"obsTime":1783022400},"SBJR":{"icaoId":"SBJR","flightCategory":"VFR","rawOb":"METAR SBJR 022000Z 22002KT CAVOK 25/19 Q1018","temp":25,"dewp":19,"wdir":220,"wspd":2,"visib":"6+","altim":1018,"clouds":[],"obsTime":1783022400},"SBLS":{"icaoId":"SBLS","flightCategory":"VFR","rawOb":"METAR SBLS 022000Z 14008KT CAVOK 24/14 Q1022","temp":24,"dewp":14,"wdir":140,"wspd":8,"visib":"6+","altim":1022,"clouds":[],"obsTime":1783022400},"SBMT":{"icaoId":"SBMT","flightCategory":"VFR","rawOb":"METAR SBMT 022000Z 34004KT 300V010 CAVOK 23/14 Q1021","temp":23,"dewp":14,"wdir":340,"wspd":4,"visib":"6+","altim":1021,"clouds":[],"obsTime":1783022400},"SBST":{"icaoId":"SBST","flightCategory":"IFR","rawOb":"METAR SBST 022000Z 20003KT 4000 BR NSC 21/19 Q1018","temp":21,"dewp":19,"wdir":200,"wspd":3,"visib":2.49,"altim":1018,"clouds":[],"obsTime":1783022400},"SBTA":{"icaoId":"SBTA","flightCategory":"VFR","rawOb":"METAR SBTA 022000Z VRB02KT CAVOK 26/16 Q1020","temp":26,"dewp":16,"wdir":"VRB","wspd":2,"visib":"6+","altim":1020,"clouds":[],"obsTime":1783022400},"SBJP":{"icaoId":"SBJP","flightCategory":"VFR","rawOb":"METAR SBJP 022000Z 13011KT 9999 FEW030 26/21 Q1015","temp":26,"dewp":21,"wdir":130,"wspd":11,"visib":"6+","altim":1015,"clouds":[{"cover":"FEW","base":3000}],"obsTime":1783022400}}}