{"updated":1774265707,"count":81,"data":{"SBCT":{"icaoId":"SBCT","flightCategory":"IFR","rawOb":"METAR SBCT 231000Z 06004KT 9999 BKN009 19/18 Q1017","temp":19,"dewp":18,"wdir":60,"wspd":4,"visib":"6+","altim":1017,"clouds":[{"cover":"BKN","base":900}],"obsTime":1774260000},"SBRB":{"icaoId":"SBRB","flightCategory":"MVFR","rawOb":"METAR SBRB 231000Z 24002KT 8000 FEW020 BKN100 22/21 Q1010","temp":22,"dewp":21,"wdir":240,"wspd":2,"visib":4.97,"altim":1010,"clouds":[{"cover":"FEW","base":2000},{"cover":"BKN","base":10000}],"obsTime":1774260000},"SBBR":{"icaoId":"SBBR","flightCategory":"VFR","rawOb":"METAR SBBR 231000Z 00000KT 9999 FEW040 19/18 Q1017","temp":19,"dewp":18,"wdir":0,"wspd":0,"visib":"6+","altim":1017,"clouds":[{"cover":"FEW","base":4000}],"obsTime":1774260000},"SBBV":{"icaoId":"SBBV","flightCategory":"VFR","rawOb":"METAR SBBV 231000Z 09011KT CAVOK 27/23 Q1009","temp":27,"dewp":23,"wdir":90,"wspd":11,"visib":"6+","altim":1009,"clouds":[],"obsTime":1774260000},"SBCB":{"icaoId":"SBCB","flightCategory":"VFR","rawOb":"METAR SBCB 231000Z 16003KT 9999 FEW020 24/22 Q1013","temp":24,"dewp":22,"wdir":160,"wspd":3,"visib":"6+","altim":1013,"clouds":[{"cover":"FEW","base":2000}],"obsTime":1774260000},"SBCF":{"icaoId":"SBCF","flightCategory":"VFR","rawOb":"METAR SBCF 231000Z 16004KT 9999 FEW023 SCT053 19/18 Q1017","temp":19,"dewp":18,"wdir":160,"wspd":4,"visib":"6+","altim":1017,"clouds":[{"cover":"FEW","base":2300},{"cover":"SCT","base":5300}],"obsTime":1774260000},"SBCG":{"icaoId":"SBCG","flightCategory":"VFR","rawOb":"METAR SBCG 231000Z 36004KT CAVOK 24/22 Q1012","temp":24,"dewp":22,"wdir":360,"wspd":4,"visib":"6+","altim":1012,"clouds":[],"obsTime":1774260000},"SBCP":{"icaoId":"SBCP","flightCategory":"MVFR","rawOb":"METAR SBCP 231000Z 30005KT 9999 BKN015 BKN090 24/23 Q1013","temp":24,"dewp":23,"wdir":300,"wspd":5,"visib":"6+","altim":1013,"clouds":[{"cover":"BKN","base":1500},{"cover":"BKN","base":9000}],"obsTime":1774260000},"SBCR":{"icaoId":"SBCR","flightCategory":"VFR","rawOb":"METAR SBCR 231100Z 10004KT 9999 FEW025 27/25 Q1009","temp":27,"dewp":25,"wdir":100,"wspd":4,"visib":"6+","altim":1009,"clouds":[{"cover":"FEW","base":2500}],"obsTime":1774263600},"SBEG":{"icaoId":"SBEG","flightCategory":"VFR","rawOb":"METAR SBEG 231000Z 09007KT CAVOK 26/24 Q1009","temp":26,"dewp":24,"wdir":90,"wspd":7,"visib":"6+","altim":1009,"clouds":[],"obsTime":1774260000},"SBFI":{"icaoId":"SBFI","flightCategory":"VFR","rawOb":"METAR SBFI 231000Z 07005KT 9999 FEW030 23/23 Q1010","temp":23,"dewp":23,"wdir":70,"wspd":5,"visib":"6+","altim":1010,"clouds":[{"cover":"FEW","base":3000}],"obsTime":1774260000},"SBFL":{"icaoId":"SBFL","flightCategory":"VFR","rawOb":"METAR SBFL 231000Z 29007KT 9999 FEW040 BKN066 26/24 Q1012","temp":26,"dewp":24,"wdir":290,"wspd":7,"visib":"6+","altim":1012,"clouds":[{"cover":"FEW","base":4000},{"cover":"BKN","base":6600}],"obsTime":1774260000},"SBFZ":{"icaoId":"SBFZ","flightCategory":"VFR","rawOb":"METAR SBFZ 231000Z 16004KT 9999 SCT020 27/24 Q1011","temp":27,"dewp":24,"wdir":160,"wspd":4,"visib":"6+","altim":1011,"clouds":[{"cover":"SCT","base":2000}],"obsTime":1774260000},"SBGL":{"icaoId":"SBGL","flightCategory":"VFR","rawOb":"METAR SBGL 231000Z 03002KT 9999 FEW010 SCT014 24/22 Q1013","temp":24,"dewp":22,"wdir":30,"wspd":2,"visib":"6+","altim":1013,"clouds":[{"cover":"FEW","base":1000},{"cover":"SCT","base":1400}],"obsTime":1774260000},"SBGO":{"icaoId":"SBGO","flightCategory":"VFR","rawOb":"METAR SBGO 231000Z 34004KT 300V100 CAVOK 22/21 Q1015","temp":22,"dewp":21,"wdir":340,"wspd":4,"visib":"6+","altim":1015,"clouds":[],"obsTime":1774260000},"SBGR":{"icaoId":"SBGR","flightCategory":"VFR","rawOb":"METAR SBGR 231000Z 07007KT CAVOK 19/17 Q1016","temp":19,"dewp":17,"wdir":70,"wspd":7,"visib":"6+","altim":1016,"clouds":[],"obsTime":1774260000},"SBHT":{"icaoId":"SBHT","flightCategory":"VFR","rawOb":"METAR SBHT 231000Z 10005KT 9999 SCT010 BKN080 26/24 Q1010","temp":26,"dewp":24,"wdir":100,"wspd":5,"visib":"6+","altim":1010,"clouds":[{"cover":"SCT","base":1000},{"cover":"BKN","base":8000}],"obsTime":1774260000},"SBIL":{"icaoId":"SBIL","flightCategory":"VFR","rawOb":"METAR SBIL 231000Z 28005KT 9999 VCSH FEW020 FEW023TCU BKN070 26/24 Q1012","temp":26,"dewp":24,"wdir":280,"wspd":5,"visib":"6+","altim":1012,"clouds":[{"cover":"FEW","base":2000},{"cover":"FEW","base":2300},{"cover":"BKN","base":7000}],"obsTime":1774260000},"SBJU":{"icaoId":"SBJU","flightCategory":"MVFR","rawOb":"METAR SBJU 231000Z 00000KT 9999 FEW010 BKN017 22/21 Q1014","temp":22,"dewp":21,"wdir":0,"wspd":0,"visib":"6+","altim":1014,"clouds":[{"cover":"FEW","base":1000},{"cover":"BKN","base":1700}],"obsTime":1774260000},"SBKP":{"icaoId":"SBKP","flightCategory":"VFR","rawOb":"METAR SBKP 231000Z 12004KT CAVOK 20/16 Q1014","temp":20,"dewp":16,"wdir":120,"wspd":4,"visib":"6+","altim":1014,"clouds":[],"obsTime":1774260000},"SBLO":{"icaoId":"SBLO","flightCategory":"VFR","rawOb":"METAR SBLO 231000Z 07002KT 9999 SCT040 23/21 Q1014","temp":23,"dewp":21,"wdir":70,"wspd":2,"visib":"6+","altim":1014,"clouds":[{"cover":"SCT","base":4000}],"obsTime":1774260000},"SBMA":{"icaoId":"SBMA","flightCategory":"MVFR","rawOb":"METAR SBMA 231000Z 15002KT 9999 FEW010 BKN020 FEW025TCU OVC080 24/23 Q1011 RETS","temp":24,"dewp":23,"wdir":150,"wspd":2,"visib":"6+","altim":1011,"clouds":[{"cover":"FEW","base":1000},{"cover":"BKN","base":2000},{"cover":"FEW","base":2500},{"cover":"OVC","base":8000}],"obsTime":1774260000},"SBME":{"icaoId":"SBME","flightCategory":"VFR","rawOb":"METAR SBME 231000Z 28002KT 9999 FEW030 24/23 Q1013","temp":24,"dewp":23,"wdir":280,"wspd":2,"visib":"6+","altim":1013,"clouds":[{"cover":"FEW","base":3000}],"obsTime":1774260000},"SBMG":{"icaoId":"SBMG","flightCategory":"VFR","rawOb":"METAR SBMG 231000Z 08004KT 040V160 9999 FEW040 BKN045 22/19 Q1012","temp":22,"dewp":19,"wdir":80,"wspd":4,"visib":"6+","altim":1012,"clouds":[{"cover":"FEW","base":4000},{"cover":"BKN","base":4500}],"obsTime":1774260000},"SBMK":{"icaoId":"SBMK","flightCategory":"VFR","rawOb":"METAR SBMK 231000Z 23003KT 9999 FEW030 SCT080 21/20 Q1015","temp":21,"dewp":20,"wdir":230,"wspd":3,"visib":"6+","altim":1015,"clouds":[{"cover":"FEW","base":3000},{"cover":"SCT","base":8000}],"obsTime":1774260000},"SBMO":{"icaoId":"SBMO","flightCategory":"VFR","rawOb":"METAR SBMO 231000Z 02004KT 340V070 9999 FEW020 27/25 Q1012","temp":27,"dewp":25,"wdir":20,"wspd":4,"visib":"6+","altim":1012,"clouds":[{"cover":"FEW","base":2000}],"obsTime":1774260000},"SBMQ":{"icaoId":"SBMQ","flightCategory":"VFR","rawOb":"METAR SBMQ 231000Z 02007KT 9999 SCT008 SCT030 26/25 Q1011","temp":26,"dewp":25,"wdir":20,"wspd":7,"visib":"6+","altim":1011,"clouds":[{"cover":"SCT","base":800},{"cover":"SCT","base":3000}],"obsTime":1774260000},"SBNT":{"icaoId":"SBNT","flightCategory":"VFR","rawOb":"METAR SBNT 231000Z 12004KT 090V170 9999 SCT020 28/24 Q1011","temp":28,"dewp":24,"wdir":120,"wspd":4,"visib":"6+","altim":1011,"clouds":[{"cover":"SCT","base":2000}],"obsTime":1774260000},"SBPA":{"icaoId":"SBPA","flightCategory":"IFR","rawOb":"METAR SBPA 231000Z 06005KT 9999 OVC008 24/22 Q1009","temp":24,"dewp":22,"wdir":60,"wspd":5,"visib":"6+","altim":1009,"clouds":[{"cover":"OVC","base":800}],"obsTime":1774260000},"SBPJ":{"icaoId":"SBPJ","flightCategory":"VFR","rawOb":"METAR SBPJ 231000Z VRB01KT 9000 -RA FEW010 SCT020 FEW035TCU 25/24 Q1012","temp":25,"dewp":24,"wdir":"VRB","wspd":1,"visib":5.59,"altim":1012,"clouds":[{"cover":"FEW","base":1000},{"cover":"SCT","base":2000},{"cover":"FEW","base":3500}],"obsTime":1774260000},"SBPV":{"icaoId":"SBPV","flightCategory":"VFR","rawOb":"METAR SBPV 231000Z 18003KT 9999 FEW035 24/22 Q1009","temp":24,"dewp":22,"wdir":180,"wspd":3,"visib":"6+","altim":1009,"clouds":[{"cover":"FEW","base":3500}],"obsTime":1774260000},"SBBE":{"icaoId":"SBBE","flightCategory":"VFR","rawOb":"METAR SBBE 231000Z 07004KT CAVOK 25/25 Q1010","temp":25,"dewp":25,"wdir":70,"wspd":4,"visib":"6+","altim":1010,"clouds":[],"obsTime":1774260000},"SBRF":{"icaoId":"SBRF","flightCategory":"VFR","rawOb":"METAR SBRF 231000Z 05007KT 9999 SCT021 29/24 Q1012","temp":29,"dewp":24,"wdir":50,"wspd":7,"visib":"6+","altim":1012,"clouds":[{"cover":"SCT","base":2100}],"obsTime":1774260000},"SBSG":{"icaoId":"SBSG","flightCategory":"VFR","rawOb":"METAR SBSG 231000Z VRB02KT 9999 SCT020 26/24 Q1012","temp":26,"dewp":24,"wdir":"VRB","wspd":2,"visib":"6+","altim":1012,"clouds":[{"cover":"SCT","base":2000}],"obsTime":1774260000},"SBSL":{"icaoId":"SBSL","flightCategory":"VFR","rawOb":"METAR SBSL 231000Z 06004KT 9999 FEW020 SCT060 26/24 Q1010","temp":26,"dewp":24,"wdir":60,"wspd":4,"visib":"6+","altim":1010,"clouds":[{"cover":"FEW","base":2000},{"cover":"SCT","base":6000}],"obsTime":1774260000},"SBSN":{"icaoId":"SBSN","flightCategory":"VFR","rawOb":"METAR SBSN 231000Z 08009KT 9999 FEW015 27/25 Q1009","temp":27,"dewp":25,"wdir":80,"wspd":9,"visib":"6+","altim":1009,"clouds":[{"cover":"FEW","base":1500}],"obsTime":1774260000},"SBSP":{"icaoId":"SBSP","flightCategory":"VFR","rawOb":"METAR SBSP 231000Z 10005KT CAVOK 20/17 Q1016","temp":20,"dewp":17,"wdir":100,"wspd":5,"visib":"6+","altim":1016,"clouds":[],"obsTime":1774260000},"SBSV":{"icaoId":"SBSV","flightCategory":"VFR","rawOb":"METAR SBSV 231000Z 29004KT 260V330 9000 VCSH SCT021 FEW023TCU BKN060 26/23 Q1012","temp":26,"dewp":23,"wdir":290,"wspd":4,"visib":5.59,"altim":1012,"clouds":[{"cover":"SCT","base":2100},{"cover":"FEW","base":2300},{"cover":"BKN","base":6000}],"obsTime":1774260000},"SBTE":{"icaoId":"SBTE","flightCategory":"MVFR","rawOb":"METAR SBTE 231000Z 35002KT 9999 BKN012 26/24 Q1011","temp":26,"dewp":24,"wdir":350,"wspd":2,"visib":"6+","altim":1011,"clouds":[{"cover":"BKN","base":1200}],"obsTime":1774260000},"SBUL":{"icaoId":"SBUL","flightCategory":"VFR","rawOb":"METAR SBUL 231000Z 14007KT CAVOK 21/11 Q1016","temp":21,"dewp":11,"wdir":140,"wspd":7,"visib":"6+","altim":1016,"clouds":[],"obsTime":1774260000},"SBUR":{"icaoId":"SBUR","flightCategory":"VFR","rawOb":"METAR SBUR 231000Z 02004KT CAVOK 21/12 Q1015","temp":21,"dewp":12,"wdir":20,"wspd":4,"visib":"6+","altim":1015,"clouds":[],"obsTime":1774260000},"SBVT":{"icaoId":"SBVT","flightCategory":"VFR","rawOb":"METAR SBVT 231000Z 00000KT 9999 FEW030 FEW040TCU SCT100 24/23 Q1013","temp":24,"dewp":23,"wdir":0,"wspd":0,"visib":"6+","altim":1013,"clouds":[{"cover":"FEW","base":3000},{"cover":"FEW","base":4000},{"cover":"SCT","base":10000}],"obsTime":1774260000},"SBPP":{"icaoId":"SBPP","flightCategory":"VFR","rawOb":"SPECI SBPP 231115Z 02007KT CAVOK 26/22 Q1014","temp":26,"dewp":22,"wdir":20,"wspd":7,"visib":"6+","altim":1014,"clouds":[],"obsTime":1774264500},"SBTF":{"icaoId":"SBTF","flightCategory":"VFR","rawOb":"SPECI SBTF 231115Z 15002KT CAVOK 27/27 Q1008","temp":27,"dewp":27,"wdir":150,"wspd":2,"visib":"6+","altim":1008,"clouds":[],"obsTime":1774264500},"SBIP":{"icaoId":"SBIP","flightCategory":"MVFR","rawOb":"METAR SBIP 231000Z AUTO 22009KT 190V250 9999 -RA FEW010 SCT020 OVC025 22/22 Q1014","temp":22,"dewp":22,"wdir":220,"wspd":9,"visib":"6+","altim":1014,"clouds":[{"cover":"FEW","base":1000},{"cover":"SCT","base":2000},{"cover":"OVC","base":2500}],"obsTime":1774260000},"SBSJ":{"icaoId":"SBSJ","flightCategory":"MVFR","rawOb":"METAR SBSJ 231000Z 04003KT 6000 BKN012 19/17 Q1016","temp":19,"dewp":17,"wdir":40,"wspd":3,"visib":3.73,"altim":1016,"clouds":[{"cover":"BKN","base":1200}],"obsTime":1774260000},"SBAX":{"icaoId":"SBAX","flightCategory":"VFR","rawOb":"METAR SBAX 231000Z 29004KT CAVOK 18/13 Q1017","temp":18,"dewp":13,"wdir":290,"wspd":4,"visib":"6+","altim":1017,"clouds":[],"obsTime":1774260000},"SBBH":{"icaoId":"SBBH","flightCategory":"VFR","rawOb":"METAR SBBH 231000Z 10006KT 9999 SCT030 SCT070 21/18 Q1016","temp":21,"dewp":18,"wdir":100,"wspd":6,"visib":"6+","altim":1016,"clouds":[{"cover":"SCT","base":3000},{"cover":"SCT","base":7000}],"obsTime":1774260000},"SBCA":{"icaoId":"SBCA","flightCategory":"VFR","rawOb":"METAR SBCA 231100Z 04010KT 9999 SCT040 25/18 Q1015","temp":25,"dewp":18,"wdir":40,"wspd":10,"visib":"6+","altim":1015,"clouds":[{"cover":"SCT","base":4000}],"obsTime":1774263600},"SBCC":{"icaoId":"SBCC","flightCategory":"VFR","rawOb":"METAR SBCC 231100Z 03004KT 9999 FEW020 BKN100 23/21 Q1013","temp":23,"dewp":21,"wdir":30,"wspd":4,"visib":"6+","altim":1013,"clouds":[{"cover":"FEW","base":2000},{"cover":"BKN","base":10000}],"obsTime":1774263600},"SBCJ":{"icaoId":"SBCJ","flightCategory":"VFR","rawOb":"SPECI SBCJ 231015Z 00000KT CAVOK 22/21 Q1015","temp":22,"dewp":21,"wdir":0,"wspd":0,"visib":"6+","altim":1015,"clouds":[],"obsTime":1774260900},"SBCO":{"icaoId":"SBCO","flightCategory":"IFR","rawOb":"METAR SBCO 231000Z VRB01KT 9999 OVC007 23/22 Q1010","temp":23,"dewp":22,"wdir":"VRB","wspd":1,"visib":"6+","altim":1010,"clouds":[{"cover":"OVC","base":700}],"obsTime":1774260000},"SBDN":{"icaoId":"SBDN","flightCategory":"VFR","rawOb":"METAR SBDN 231000Z 08005KT CAVOK 24/20 Q1012","temp":24,"dewp":20,"wdir":80,"wspd":5,"visib":"6+","altim":1012,"clouds":[],"obsTime":1774260000},"SBES":{"icaoId":"SBES","flightCategory":"VFR","rawOb":"METAR SBES 231000Z 00000KT 9999 SCT025 21/// Q1013","temp":null,"dewp":null,"wdir":0,"wspd":0,"visib":"6+","altim":1013,"clouds":[{"cover":"SCT","base":2500}],"obsTime":1774260000},"SBKG":{"icaoId":"SBKG","flightCategory":"MVFR","rawOb":"METAR SBKG 231000Z 07008KT 9999 BKN016 24/22 Q1015","temp":24,"dewp":22,"wdir":70,"wspd":8,"visib":"6+","altim":1015,"clouds":[{"cover":"BKN","base":1600}],"obsTime":1774260000},"SBOI":{"icaoId":"SBOI","flightCategory":"IFR","rawOb":"METAR SBOI 231000Z AUTO 00000KT 4200 // VV005 24/24 Q1011","temp":24,"dewp":24,"wdir":0,"wspd":0,"visib":2.61,"altim":1011,"clouds":[{"cover":"OVX","base":500}],"obsTime":1774260000},"SBPB":{"icaoId":"SBPB","flightCategory":"VFR","rawOb":"SPECI SBPB 231015Z 09005KT 9999 FEW016 27/24 Q1011","temp":27,"dewp":24,"wdir":90,"wspd":5,"visib":"6+","altim":1011,"clouds":[{"cover":"FEW","base":1600}],"obsTime":1774260900},"SBPL":{"icaoId":"SBPL","flightCategory":"VFR","rawOb":"METAR SBPL 231000Z 10004KT CAVOK 26/22 Q1013","temp":26,"dewp":22,"wdir":100,"wspd":4,"visib":"6+","altim":1013,"clouds":[],"obsTime":1774260000},"SBPS":{"icaoId":"SBPS","flightCategory":"VFR","rawOb":"METAR SBPS 231000Z 04003KT 9999 FEW010 SCT020 OVC080 23/22 Q1014","temp":23,"dewp":22,"wdir":40,"wspd":3,"visib":"6+","altim":1014,"clouds":[{"cover":"FEW","base":1000},{"cover":"SCT","base":2000},{"cover":"OVC","base":8000}],"obsTime":1774260000},"SBSC":{"icaoId":"SBSC","flightCategory":"VFR","rawOb":"METAR SBSC 231000Z 33004KT 9999 FEW015 23/21 Q1014","temp":23,"dewp":21,"wdir":330,"wspd":4,"visib":"6+","altim":1014,"clouds":[{"cover":"FEW","base":1500}],"obsTime":1774260000},"SBAR":{"icaoId":"SBAR","flightCategory":"VFR","rawOb":"METAR SBAR 231000Z 04007KT 9999 FEW024 SCT100 29/23 Q1011","temp":29,"dewp":23,"wdir":40,"wspd":7,"visib":"6+","altim":1011,"clouds":[{"cover":"FEW","base":2400},{"cover":"SCT","base":10000}],"obsTime":1774260000},"SBSM":{"icaoId":"SBSM","flightCategory":"LIFR","rawOb":"METAR SBSM 231000Z 18004KT 110V230 0600 R29///// R11/P2000 FG VV001 21/21 Q1009","temp":21,"dewp":21,"wdir":180,"wspd":4,"visib":0.37,"altim":1009,"clouds":[{"cover":"OVX","base":100}],"obsTime":1774260000},"SBSR":{"icaoId":"SBSR","flightCategory":"VFR","rawOb":"METAR SBSR 231000Z 12003KT CAVOK 24/18 Q1014","temp":24,"dewp":18,"wdir":120,"wspd":3,"visib":"6+","altim":1014,"clouds":[],"obsTime":1774260000},"SBTD":{"icaoId":"SBTD","flightCategory":"VFR","rawOb":"METAR SBTD 231100Z /////KT CAVOK 24/18 Q1014","temp":24,"dewp":18,"wdir":null,"wspd":null,"visib":"6+","altim":1014,"clouds":[],"obsTime":1774263600},"SBTT":{"icaoId":"SBTT","flightCategory":"VFR","rawOb":"METAR SBTT 231100Z 20005KT 9999 FEW030 23/21 Q1010","temp":23,"dewp":21,"wdir":200,"wspd":5,"visib":"6+","altim":1010,"clouds":[{"cover":"FEW","base":3000}],"obsTime":1774263600},"SBUY":{"icaoId":"SBUY","flightCategory":"VFR","rawOb":"METAR SBUY 231100Z 00000KT 9999 FEW030TCU 24/24 Q1008","temp":24,"dewp":24,"wdir":0,"wspd":0,"visib":"6+","altim":1008,"clouds":[{"cover":"FEW","base":3000}],"obsTime":1774263600},"SBVH":{"icaoId":"SBVH","flightCategory":"VFR","rawOb":"METAR SBVH 231100Z 10006KT CAVOK 21/21 Q1013","temp":21,"dewp":21,"wdir":100,"wspd":6,"visib":"6+","altim":1013,"clouds":[],"obsTime":1774263600},"SBBU":{"icaoId":"SBBU","flightCategory":"VFR","rawOb":"METAR SBBU 231000Z 10006KT CAVOK 23/22 Q1014","temp":23,"dewp":22,"wdir":100,"wspd":6,"visib":"6+","altim":1014,"clouds":[],"obsTime":1774260000},"SBAF":{"icaoId":"SBAF","flightCategory":"VFR","rawOb":"METAR SBAF 231000Z VRB02KT 9999 FEW020 23/23 Q1013","temp":23,"dewp":23,"wdir":"VRB","wspd":2,"visib":"6+","altim":1013,"clouds":[{"cover":"FEW","base":2000}],"obsTime":1774260000},"SBGW":{"icaoId":"SBGW","flightCategory":"MVFR","rawOb":"METAR SBGW 231000Z 36003KT 8000 BKN015 18/15 Q1016","temp":18,"dewp":15,"wdir":360,"wspd":3,"visib":4.97,"altim":1016,"clouds":[{"cover":"BKN","base":1500}],"obsTime":1774260000},"SBIH":{"icaoId":"SBIH","flightCategory":"VFR","rawOb":"METAR SBIH 231100Z 23006KT 9999 FEW010 FEW025TCU BKN080 26/24 Q1010","temp":26,"dewp":24,"wdir":230,"wspd":6,"visib":"6+","altim":1010,"clouds":[{"cover":"FEW","base":1000},{"cover":"FEW","base":2500},{"cover":"BKN","base":8000}],"obsTime":1774263600},"SBJP":{"icaoId":"SBJP","flightCategory":"MVFR","rawOb":"METAR SBJP 231000Z 19004KT 9999 BKN018 26/24 Q1012","temp":26,"dewp":24,"wdir":190,"wspd":4,"visib":"6+","altim":1012,"clouds":[{"cover":"BKN","base":1800}],"obsTime":1774260000},"SBJR":{"icaoId":"SBJR","flightCategory":"VFR","rawOb":"METAR SBJR 231000Z 36001KT 9999 FEW015 24/22 Q1013","temp":24,"dewp":22,"wdir":360,"wspd":1,"visib":"6+","altim":1013,"clouds":[{"cover":"FEW","base":1500}],"obsTime":1774260000},"SBJV":{"icaoId":"SBJV","flightCategory":"VFR","rawOb":"METAR SBJV 231000Z 29002KT 9999 FEW015 23/23 Q1012","temp":23,"dewp":23,"wdir":290,"wspd":2,"visib":"6+","altim":1012,"clouds":[{"cover":"FEW","base":1500}],"obsTime":1774260000},"SBLE":{"icaoId":"SBLE","flightCategory":"VFR","rawOb":"METAR SBLE 231000Z AUTO 10003KT 9999 SCT027 BKN038 ///// Q////","temp":null,"dewp":null,"wdir":100,"wspd":3,"visib":"6+","altim":null,"clouds":[{"cover":"SCT","base":2700},{"cover":"BKN","base":3800}],"obsTime":1774260000},"SBLS":{"icaoId":"SBLS","flightCategory":"VFR","rawOb":"METAR SBLS 231000Z 15011KT 9999 SCT020 SCT070 20/18 Q1016","temp":20,"dewp":18,"wdir":150,"wspd":11,"visib":"6+","altim":1016,"clouds":[{"cover":"SCT","base":2000},{"cover":"SCT","base":7000}],"obsTime":1774260000},"SBMT":{"icaoId":"SBMT","flightCategory":"VFR","rawOb":"METAR SBMT 231000Z 08006KT CAVOK 20/17 Q1015","temp":20,"dewp":17,"wdir":80,"wspd":6,"visib":"6+","altim":1015,"clouds":[],"obsTime":1774260000},"SBPF":{"icaoId":"SBPF","flightCategory":"VFR","rawOb":"METAR SBPF 231000Z 04010KT 9999 FEW040 21/20 Q1013","temp":21,"dewp":20,"wdir":40,"wspd":10,"visib":"6+","altim":1013,"clouds":[{"cover":"FEW","base":4000}],"obsTime":1774260000},"SBST":{"icaoId":"SBST","flightCategory":"VFR","rawOb":"METAR SBST 231100Z 28001KT CAVOK 24/22 Q1012","temp":24,"dewp":22,"wdir":280,"wspd":1,"visib":"6+","altim":1012,"clouds":[],"obsTime":1774263600},"SBTA":{"icaoId":"SBTA","flightCategory":"VFR","rawOb":"METAR SBTA 231000Z 18003KT 130V250 9999 FEW017 17/17 Q1015","temp":17,"dewp":17,"wdir":180,"wspd":3,"visib":"6+","altim":1015,"clouds":[{"cover":"FEW","base":1700}],"obsTime":1774260000},"SBAN":{"icaoId":"SBAN","flightCategory":"VFR","rawOb":"METAR SBAN 231000Z 23005KT 9999 FEW020 21/19 Q1018","temp":21,"dewp":19,"wdir":230,"wspd":5,"visib":"6+","altim":1018,"clouds":[{"cover":"FEW","base":2000}],"obsTime":1774260000}}}