{"updated":1776647905,"count":61,"data":{"SBVT":{"icaoId":"SBVT","flightCategory":"VFR","rawOb":"METAR SBVT 200000Z 27003KT 9999 FEW025 24/21 Q1013","temp":24,"dewp":21,"wdir":270,"wspd":3,"visib":"6+","altim":1013,"clouds":[{"cover":"FEW","base":2500}],"obsTime":1776643200},"SBMG":{"icaoId":"SBMG","flightCategory":"VFR","rawOb":"METAR SBMG 200000Z 11008KT CAVOK 26/19 Q1013","temp":26,"dewp":19,"wdir":110,"wspd":8,"visib":"6+","altim":1013,"clouds":[],"obsTime":1776643200},"SBBV":{"icaoId":"SBBV","flightCategory":"VFR","rawOb":"METAR SBBV 200000Z 18004KT 9999 SCT035 FEW040TCU SCT070 31/23 Q1009","temp":31,"dewp":23,"wdir":180,"wspd":4,"visib":"6+","altim":1009,"clouds":[{"cover":"SCT","base":3500},{"cover":"FEW","base":4000},{"cover":"SCT","base":7000}],"obsTime":1776643200},"SBMK":{"icaoId":"SBMK","flightCategory":"VFR","rawOb":"METAR SBMK 200000Z 35003KT CAVOK 22/18 Q1015","temp":22,"dewp":18,"wdir":350,"wspd":3,"visib":"6+","altim":1015,"clouds":[],"obsTime":1776643200},"SBFZ":{"icaoId":"SBFZ","flightCategory":"VFR","rawOb":"METAR SBFZ 200000Z 20002KT 9999 FEW012 SCT100 26/24 Q1009","temp":26,"dewp":24,"wdir":200,"wspd":2,"visib":"6+","altim":1009,"clouds":[{"cover":"FEW","base":1200},{"cover":"SCT","base":10000}],"obsTime":1776643200},"SBCT":{"icaoId":"SBCT","flightCategory":"VFR","rawOb":"METAR SBCT 200000Z 10005KT 9999 SCT007 18/17 Q1019","temp":18,"dewp":17,"wdir":100,"wspd":5,"visib":"6+","altim":1019,"clouds":[{"cover":"SCT","base":700}],"obsTime":1776643200},"SBMO":{"icaoId":"SBMO","flightCategory":"VFR","rawOb":"METAR SBMO 200000Z 08002KT 9999 SCT019 25/24 Q1012","temp":25,"dewp":24,"wdir":80,"wspd":2,"visib":"6+","altim":1012,"clouds":[{"cover":"SCT","base":1900}],"obsTime":1776643200},"SBGL":{"icaoId":"SBGL","flightCategory":"VFR","rawOb":"METAR SBGL 200000Z 22005KT 9999 FEW030 24/20 Q1014","temp":24,"dewp":20,"wdir":220,"wspd":5,"visib":"6+","altim":1014,"clouds":[{"cover":"FEW","base":3000}],"obsTime":1776643200},"SBMQ":{"icaoId":"SBMQ","flightCategory":"VFR","rawOb":"METAR SBMQ 200000Z 02004KT 9999 -RA FEW015 26/24 Q1011","temp":26,"dewp":24,"wdir":20,"wspd":4,"visib":"6+","altim":1011,"clouds":[{"cover":"FEW","base":1500}],"obsTime":1776643200},"SBFL":{"icaoId":"SBFL","flightCategory":"VFR","rawOb":"METAR SBFL 200000Z 16005KT CAVOK 23/14 Q1015","temp":23,"dewp":14,"wdir":160,"wspd":5,"visib":"6+","altim":1015,"clouds":[],"obsTime":1776643200},"SBNT":{"icaoId":"SBNT","flightCategory":"VFR","rawOb":"METAR SBNT 200000Z 16003KT 9999 FEW020 26/25 Q1011","temp":26,"dewp":25,"wdir":160,"wspd":3,"visib":"6+","altim":1011,"clouds":[{"cover":"FEW","base":2000}],"obsTime":1776643200},"SBGO":{"icaoId":"SBGO","flightCategory":"VFR","rawOb":"METAR SBGO 200000Z 12004KT CAVOK 26/19 Q1015","temp":26,"dewp":19,"wdir":120,"wspd":4,"visib":"6+","altim":1015,"clouds":[],"obsTime":1776643200},"SBPA":{"icaoId":"SBPA","flightCategory":"VFR","rawOb":"METAR SBPA 200000Z 09009KT CAVOK 22/17 Q1015","temp":22,"dewp":17,"wdir":90,"wspd":9,"visib":"6+","altim":1015,"clouds":[],"obsTime":1776643200},"SBBR":{"icaoId":"SBBR","flightCategory":"VFR","rawOb":"METAR SBBR 200000Z 27002KT CAVOK 22/15 Q1017","temp":22,"dewp":15,"wdir":270,"wspd":2,"visib":"6+","altim":1017,"clouds":[],"obsTime":1776643200},"SBPJ":{"icaoId":"SBPJ","flightCategory":"VFR","rawOb":"METAR SBPJ 200000Z 11006KT 080V140 9999 VCTS FEW030 FEW035CB BKN090 27/23 Q1012","temp":27,"dewp":23,"wdir":110,"wspd":6,"visib":"6+","altim":1012,"clouds":[{"cover":"FEW","base":3000},{"cover":"FEW","base":3500},{"cover":"BKN","base":9000}],"obsTime":1776643200},"SBGR":{"icaoId":"SBGR","flightCategory":"MVFR","rawOb":"METAR SBGR 200000Z 12005KT 9999 OVC015 20/17 Q1018","temp":20,"dewp":17,"wdir":120,"wspd":5,"visib":"6+","altim":1018,"clouds":[{"cover":"OVC","base":1500}],"obsTime":1776643200},"SBPV":{"icaoId":"SBPV","flightCategory":"VFR","rawOb":"METAR SBPV 200000Z 20002KT 9999 FEW010 24/22 Q1008","temp":24,"dewp":22,"wdir":200,"wspd":2,"visib":"6+","altim":1008,"clouds":[{"cover":"FEW","base":1000}],"obsTime":1776643200},"SBIL":{"icaoId":"SBIL","flightCategory":"VFR","rawOb":"METAR SBIL 200000Z 11006KT 9999 SCT023 28/24 Q1012","temp":28,"dewp":24,"wdir":110,"wspd":6,"visib":"6+","altim":1012,"clouds":[{"cover":"SCT","base":2300}],"obsTime":1776643200},"SBRB":{"icaoId":"SBRB","flightCategory":"VFR","rawOb":"METAR SBRB 200000Z 04003KT 9999 SCT024 BKN100 24/24 Q1010","temp":24,"dewp":24,"wdir":40,"wspd":3,"visib":"6+","altim":1010,"clouds":[{"cover":"SCT","base":2400},{"cover":"BKN","base":10000}],"obsTime":1776643200},"SBRF":{"icaoId":"SBRF","flightCategory":"VFR","rawOb":"METAR SBRF 200000Z 11005KT 9999 SCT022 SCT060 28/25 Q1011","temp":28,"dewp":25,"wdir":110,"wspd":5,"visib":"6+","altim":1011,"clouds":[{"cover":"SCT","base":2200},{"cover":"SCT","base":6000}],"obsTime":1776643200},"SBCF":{"icaoId":"SBCF","flightCategory":"VFR","rawOb":"METAR SBCF 200000Z 21004KT 9999 FEW040 21/16 Q1016","temp":21,"dewp":16,"wdir":210,"wspd":4,"visib":"6+","altim":1016,"clouds":[{"cover":"FEW","base":4000}],"obsTime":1776643200},"SBJU":{"icaoId":"SBJU","flightCategory":"VFR","rawOb":"METAR SBJU 200000Z 00000KT CAVOK 26/23 Q1013","temp":26,"dewp":23,"wdir":0,"wspd":0,"visib":"6+","altim":1013,"clouds":[],"obsTime":1776643200},"SBSG":{"icaoId":"SBSG","flightCategory":"VFR","rawOb":"METAR SBSG 200000Z 18003KT 150V210 9999 FEW015 25/25 Q1011","temp":25,"dewp":25,"wdir":180,"wspd":3,"visib":"6+","altim":1011,"clouds":[{"cover":"FEW","base":1500}],"obsTime":1776643200},"SBEG":{"icaoId":"SBEG","flightCategory":"VFR","rawOb":"METAR SBEG 200000Z VRB01KT 9999 FEW015 SCT100 25/25 Q1009","temp":25,"dewp":25,"wdir":"VRB","wspd":1,"visib":"6+","altim":1009,"clouds":[{"cover":"FEW","base":1500},{"cover":"SCT","base":10000}],"obsTime":1776643200},"SBSL":{"icaoId":"SBSL","flightCategory":"VFR","rawOb":"METAR SBSL 200000Z 16002KT 9999 FEW020 BKN080 26/24 Q1010","temp":26,"dewp":24,"wdir":160,"wspd":2,"visib":"6+","altim":1010,"clouds":[{"cover":"FEW","base":2000},{"cover":"BKN","base":8000}],"obsTime":1776643200},"SBSN":{"icaoId":"SBSN","flightCategory":"VFR","rawOb":"METAR SBSN 200000Z 18004KT CAVOK 26/24 Q1010","temp":26,"dewp":24,"wdir":180,"wspd":4,"visib":"6+","altim":1010,"clouds":[],"obsTime":1776643200},"SBBE":{"icaoId":"SBBE","flightCategory":"VFR","rawOb":"METAR SBBE 200000Z 11003KT 9999 -RA SCT035 SCT087 BKN100 23/23 Q1012","temp":23,"dewp":23,"wdir":110,"wspd":3,"visib":"6+","altim":1012,"clouds":[{"cover":"SCT","base":3500},{"cover":"SCT","base":8700},{"cover":"BKN","base":10000}],"obsTime":1776643200},"SBKP":{"icaoId":"SBKP","flightCategory":"VFR","rawOb":"METAR SBKP 200000Z 12010KT CAVOK 22/17 Q1016","temp":22,"dewp":17,"wdir":120,"wspd":10,"visib":"6+","altim":1016,"clouds":[],"obsTime":1776643200},"SBSP":{"icaoId":"SBSP","flightCategory":"MVFR","rawOb":"METAR SBSP 200000Z 16007KT 9999 BKN013 19/17 Q1019","temp":19,"dewp":17,"wdir":160,"wspd":7,"visib":"6+","altim":1019,"clouds":[{"cover":"BKN","base":1300}],"obsTime":1776643200},"SBSV":{"icaoId":"SBSV","flightCategory":"VFR","rawOb":"METAR SBSV 200000Z 11008KT 9999 SCT022 BKN100 28/24 Q1011","temp":28,"dewp":24,"wdir":110,"wspd":8,"visib":"6+","altim":1011,"clouds":[{"cover":"SCT","base":2200},{"cover":"BKN","base":10000}],"obsTime":1776643200},"SBFI":{"icaoId":"SBFI","flightCategory":"VFR","rawOb":"METAR SBFI 200000Z 06004KT CAVOK 23/23 Q1011","temp":23,"dewp":23,"wdir":60,"wspd":4,"visib":"6+","altim":1011,"clouds":[],"obsTime":1776643200},"SBTE":{"icaoId":"SBTE","flightCategory":"VFR","rawOb":"METAR SBTE 200000Z 31002KT 9999 SCT016 BKN090 25/24 Q1010","temp":25,"dewp":24,"wdir":310,"wspd":2,"visib":"6+","altim":1010,"clouds":[{"cover":"SCT","base":1600},{"cover":"BKN","base":9000}],"obsTime":1776643200},"SBLO":{"icaoId":"SBLO","flightCategory":"VFR","rawOb":"METAR SBLO 200000Z 17003KT CAVOK 25/19 Q1014","temp":25,"dewp":19,"wdir":170,"wspd":3,"visib":"6+","altim":1014,"clouds":[],"obsTime":1776643200},"SBUL":{"icaoId":"SBUL","flightCategory":"VFR","rawOb":"METAR SBUL 200000Z 21007KT CAVOK 23/18 Q1016","temp":23,"dewp":18,"wdir":210,"wspd":7,"visib":"6+","altim":1016,"clouds":[],"obsTime":1776643200},"SBCG":{"icaoId":"SBCG","flightCategory":"VFR","rawOb":"METAR SBCG 200000Z 05003KT 030V110 CAVOK 25/20 Q1012","temp":25,"dewp":20,"wdir":50,"wspd":3,"visib":"6+","altim":1012,"clouds":[],"obsTime":1776643200},"SBMA":{"icaoId":"SBMA","flightCategory":"VFR","rawOb":"METAR SBMA 200000Z 00000KT 9999 FEW016 SCT090 27/25 Q1011","temp":27,"dewp":25,"wdir":0,"wspd":0,"visib":"6+","altim":1011,"clouds":[{"cover":"FEW","base":1600},{"cover":"SCT","base":9000}],"obsTime":1776643200},"SBUR":{"icaoId":"SBUR","flightCategory":"VFR","rawOb":"METAR SBUR 200000Z 24002KT CAVOK 26/19 Q1015","temp":26,"dewp":19,"wdir":240,"wspd":2,"visib":"6+","altim":1015,"clouds":[],"obsTime":1776643200},"SBME":{"icaoId":"SBME","flightCategory":"VFR","rawOb":"METAR SBME 200000Z 32004KT CAVOK 23/20 Q1013","temp":23,"dewp":20,"wdir":320,"wspd":4,"visib":"6+","altim":1013,"clouds":[],"obsTime":1776643200},"SBCZ":{"icaoId":"SBCZ","flightCategory":"VFR","rawOb":"METAR SBCZ 200000Z 02003KT CAVOK 24/24 Q1008","temp":24,"dewp":24,"wdir":20,"wspd":3,"visib":"6+","altim":1008,"clouds":[],"obsTime":1776643200},"SBSR":{"icaoId":"SBSR","flightCategory":"VFR","rawOb":"METAR SBSR 200000Z 21004KT CAVOK 27/18 Q1013","temp":27,"dewp":18,"wdir":210,"wspd":4,"visib":"6+","altim":1013,"clouds":[],"obsTime":1776643200},"SBAR":{"icaoId":"SBAR","flightCategory":"VFR","rawOb":"METAR SBAR 200000Z 12008KT 9999 FEW020 28/23 Q1011","temp":28,"dewp":23,"wdir":120,"wspd":8,"visib":"6+","altim":1011,"clouds":[{"cover":"FEW","base":2000}],"obsTime":1776643200},"SBAX":{"icaoId":"SBAX","flightCategory":"VFR","rawOb":"METAR SBAX 200000Z AUTO 17003KT 140V200 CAVOK 23/17 Q1017","temp":23,"dewp":17,"wdir":170,"wspd":3,"visib":"6+","altim":1017,"clouds":[],"obsTime":1776643200},"SBBH":{"icaoId":"SBBH","flightCategory":"VFR","rawOb":"METAR SBBH 200000Z 07002KT CAVOK 20/18 Q1016","temp":20,"dewp":18,"wdir":70,"wspd":2,"visib":"6+","altim":1016,"clouds":[],"obsTime":1776643200},"SBBU":{"icaoId":"SBBU","flightCategory":"VFR","rawOb":"METAR SBBU 200000Z 12005KT CAVOK 25/19 Q1014","temp":25,"dewp":19,"wdir":120,"wspd":5,"visib":"6+","altim":1014,"clouds":[],"obsTime":1776643200},"SBCO":{"icaoId":"SBCO","flightCategory":"VFR","rawOb":"METAR SBCO 200000Z 09006KT CAVOK 19/16 Q1016","temp":19,"dewp":16,"wdir":90,"wspd":6,"visib":"6+","altim":1016,"clouds":[],"obsTime":1776643200},"SBDN":{"icaoId":"SBDN","flightCategory":"VFR","rawOb":"METAR SBDN 200000Z 11005KT CAVOK 26/19 Q1013","temp":26,"dewp":19,"wdir":110,"wspd":5,"visib":"6+","altim":1013,"clouds":[],"obsTime":1776643200},"SBIP":{"icaoId":"SBIP","flightCategory":"VFR","rawOb":"METAR SBIP 200000Z AUTO VRB02KT CAVOK 24/22 Q1013","temp":24,"dewp":22,"wdir":"VRB","wspd":2,"visib":"6+","altim":1013,"clouds":[],"obsTime":1776643200},"SBKG":{"icaoId":"SBKG","flightCategory":"VFR","rawOb":"METAR SBKG 200000Z 06006KT 9999 FEW006 SCT009 BKN070 24/23 Q1014","temp":24,"dewp":23,"wdir":60,"wspd":6,"visib":"6+","altim":1014,"clouds":[{"cover":"FEW","base":600},{"cover":"SCT","base":900},{"cover":"BKN","base":7000}],"obsTime":1776643200},"SBPL":{"icaoId":"SBPL","flightCategory":"VFR","rawOb":"METAR SBPL 200000Z 20001KT 9999 FEW025 SCT070 26/21 Q1011","temp":26,"dewp":21,"wdir":200,"wspd":1,"visib":"6+","altim":1011,"clouds":[{"cover":"FEW","base":2500},{"cover":"SCT","base":7000}],"obsTime":1776643200},"SBPS":{"icaoId":"SBPS","flightCategory":"VFR","rawOb":"METAR SBPS 200000Z 05004KT 9999 SCT020 27/23 Q1012","temp":27,"dewp":23,"wdir":50,"wspd":4,"visib":"6+","altim":1012,"clouds":[{"cover":"SCT","base":2000}],"obsTime":1776643200},"SBSC":{"icaoId":"SBSC","flightCategory":"VFR","rawOb":"METAR SBSC 200000Z 23002KT 9999 FEW020 22/21 Q1015","temp":22,"dewp":21,"wdir":230,"wspd":2,"visib":"6+","altim":1015,"clouds":[{"cover":"FEW","base":2000}],"obsTime":1776643200},"SBSJ":{"icaoId":"SBSJ","flightCategory":"VFR","rawOb":"METAR SBSJ 200000Z 16003KT 120V190 CAVOK 19/16 Q1017","temp":19,"dewp":16,"wdir":160,"wspd":3,"visib":"6+","altim":1017,"clouds":[],"obsTime":1776643200},"SBSM":{"icaoId":"SBSM","flightCategory":"VFR","rawOb":"METAR SBSM 200000Z 10001KT CAVOK 16/15 Q1013","temp":16,"dewp":15,"wdir":100,"wspd":1,"visib":"6+","altim":1013,"clouds":[],"obsTime":1776643200},"SBLE":{"icaoId":"SBLE","flightCategory":"VFR","rawOb":"METAR SBLE 200000Z AUTO VRB02KT CAVOK ///// Q////","temp":null,"dewp":null,"wdir":"VRB","wspd":2,"visib":"6+","altim":null,"clouds":[],"obsTime":1776643200},"SBJV":{"icaoId":"SBJV","flightCategory":"MVFR","rawOb":"METAR SBJV 200000Z 10004KT 9999 BKN030 25/20 Q1015","temp":25,"dewp":20,"wdir":100,"wspd":4,"visib":"6+","altim":1015,"clouds":[{"cover":"BKN","base":3000}],"obsTime":1776643200},"SBAN":{"icaoId":"SBAN","flightCategory":"VFR","rawOb":"METAR SBAN 200000Z 18004KT CAVOK 20/15 Q1018","temp":20,"dewp":15,"wdir":180,"wspd":4,"visib":"6+","altim":1018,"clouds":[],"obsTime":1776643200},"SBAF":{"icaoId":"SBAF","flightCategory":"VFR","rawOb":"METAR SBAF 200000Z 30001KT 9999 FEW025 21/21 Q1015","temp":21,"dewp":21,"wdir":300,"wspd":1,"visib":"6+","altim":1015,"clouds":[{"cover":"FEW","base":2500}],"obsTime":1776643200},"SBLS":{"icaoId":"SBLS","flightCategory":"VFR","rawOb":"METAR SBLS 200000Z 17009KT 9999 FEW035 20/16 Q1015","temp":20,"dewp":16,"wdir":170,"wspd":9,"visib":"6+","altim":1015,"clouds":[{"cover":"FEW","base":3500}],"obsTime":1776643200},"SBMT":{"icaoId":"SBMT","flightCategory":"MVFR","rawOb":"METAR SBMT 200000Z 12005KT 090V160 8000 SCT015 BKN017 20/17 Q1017","temp":20,"dewp":17,"wdir":120,"wspd":5,"visib":4.97,"altim":1017,"clouds":[{"cover":"SCT","base":1500},{"cover":"BKN","base":1700}],"obsTime":1776643200},"SBJP":{"icaoId":"SBJP","flightCategory":"VFR","rawOb":"METAR SBJP 200000Z 12007KT 9999 FEW017 BKN070 25/24 Q1011","temp":25,"dewp":24,"wdir":120,"wspd":7,"visib":"6+","altim":1011,"clouds":[{"cover":"FEW","base":1700},{"cover":"BKN","base":7000}],"obsTime":1776643200},"SBJR":{"icaoId":"SBJR","flightCategory":"VFR","rawOb":"METAR SBJR 200000Z 29001KT CAVOK 21/20 Q1015","temp":21,"dewp":20,"wdir":290,"wspd":1,"visib":"6+","altim":1015,"clouds":[],"obsTime":1776643200}}}