{"updated":1774738350,"count":80,"data":{"SBVT":{"icaoId":"SBVT","flightCategory":"VFR","rawOb":"METAR SBVT 282100Z 20007KT 9999 FEW035 FEW040TCU 26/22 Q1017","temp":26,"dewp":22,"wdir":200,"wspd":7,"visib":"6+","altim":1017,"clouds":[{"cover":"FEW","base":3500},{"cover":"FEW","base":4000}],"obsTime":1774731600},"SBBE":{"icaoId":"SBBE","flightCategory":"VFR","rawOb":"METAR SBBE 282100Z 07007KT 9999 FEW049 27/24 Q1009","temp":27,"dewp":24,"wdir":70,"wspd":7,"visib":"6+","altim":1009,"clouds":[{"cover":"FEW","base":4900}],"obsTime":1774731600},"SBBR":{"icaoId":"SBBR","flightCategory":"VFR","rawOb":"METAR SBBR 282100Z 12009KT 9999 FEW045 FEW050TCU 25/17 Q1019","temp":25,"dewp":17,"wdir":120,"wspd":9,"visib":"6+","altim":1019,"clouds":[{"cover":"FEW","base":4500},{"cover":"FEW","base":5000}],"obsTime":1774731600},"SBBV":{"icaoId":"SBBV","flightCategory":"MVFR","rawOb":"METAR SBBV 282100Z 25008KT 9999 BKN030 FEW035TCU SCT100 27/24 Q1009","temp":27,"dewp":24,"wdir":250,"wspd":8,"visib":"6+","altim":1009,"clouds":[{"cover":"BKN","base":3000},{"cover":"FEW","base":3500},{"cover":"SCT","base":10000}],"obsTime":1774731600},"SBCB":{"icaoId":"SBCB","flightCategory":"VFR","rawOb":"METAR SBCB 282100Z 10008KT CAVOK 26/23 Q1018","temp":26,"dewp":23,"wdir":100,"wspd":8,"visib":"6+","altim":1018,"clouds":[],"obsTime":1774731600},"SBCF":{"icaoId":"SBCF","flightCategory":"VFR","rawOb":"METAR SBCF 282100Z 11008KT 9999 FEW045 25/16 Q1020","temp":25,"dewp":16,"wdir":110,"wspd":8,"visib":"6+","altim":1020,"clouds":[{"cover":"FEW","base":4500}],"obsTime":1774731600},"SBCG":{"icaoId":"SBCG","flightCategory":"VFR","rawOb":"METAR SBCG 282100Z 08008KT 050V110 9999 VCSH SCT050 FEW055TCU 30/20 Q1015","temp":30,"dewp":20,"wdir":80,"wspd":8,"visib":"6+","altim":1015,"clouds":[{"cover":"SCT","base":5000},{"cover":"FEW","base":5500}],"obsTime":1774731600},"SBCP":{"icaoId":"SBCP","flightCategory":"VFR","rawOb":"METAR SBCP 282100Z 12006KT 9999 FEW020 25/23 Q1018","temp":25,"dewp":23,"wdir":120,"wspd":6,"visib":"6+","altim":1018,"clouds":[{"cover":"FEW","base":2000}],"obsTime":1774731600},"SBCT":{"icaoId":"SBCT","flightCategory":"VFR","rawOb":"METAR SBCT 282100Z 10006KT CAVOK 23/18 Q1023","temp":23,"dewp":18,"wdir":100,"wspd":6,"visib":"6+","altim":1023,"clouds":[],"obsTime":1774731600},"SBCZ":{"icaoId":"SBCZ","flightCategory":"IFR","rawOb":"METAR SBCZ 282100Z 06012KT 2000 TSRA BKN010 BKN022 FEW025CB OVC080 24/24 Q1009 RERA","temp":24,"dewp":24,"wdir":60,"wspd":12,"visib":1.24,"altim":1009,"clouds":[{"cover":"BKN","base":1000},{"cover":"BKN","base":2200},{"cover":"FEW","base":2500},{"cover":"OVC","base":8000}],"obsTime":1774731600},"SBEG":{"icaoId":"SBEG","flightCategory":"VFR","rawOb":"METAR SBEG 282100Z 34001KT 9999 FEW009 SCT020 FEW025TCU BKN080 25/25 Q1009 RETS","temp":25,"dewp":25,"wdir":340,"wspd":1,"visib":"6+","altim":1009,"clouds":[{"cover":"FEW","base":900},{"cover":"SCT","base":2000},{"cover":"FEW","base":2500},{"cover":"BKN","base":8000}],"obsTime":1774731600},"SBFI":{"icaoId":"SBFI","flightCategory":"VFR","rawOb":"METAR SBFI 282100Z 36003KT 9999 FEW040 33/22 Q1014","temp":33,"dewp":22,"wdir":360,"wspd":3,"visib":"6+","altim":1014,"clouds":[{"cover":"FEW","base":4000}],"obsTime":1774731600},"SBFL":{"icaoId":"SBFL","flightCategory":"VFR","rawOb":"METAR SBFL 282100Z 36009KT CAVOK 28/21 Q1017","temp":28,"dewp":21,"wdir":360,"wspd":9,"visib":"6+","altim":1017,"clouds":[],"obsTime":1774731600},"SBFZ":{"icaoId":"SBFZ","flightCategory":"VFR","rawOb":"METAR SBFZ 282100Z 09007KT 9999 SCT023 28/23 Q1009","temp":28,"dewp":23,"wdir":90,"wspd":7,"visib":"6+","altim":1009,"clouds":[{"cover":"SCT","base":2300}],"obsTime":1774731600},"SBGL":{"icaoId":"SBGL","flightCategory":"VFR","rawOb":"METAR SBGL 282100Z 14010KT 9999 FEW040 27/21 Q1017","temp":27,"dewp":21,"wdir":140,"wspd":10,"visib":"6+","altim":1017,"clouds":[{"cover":"FEW","base":4000}],"obsTime":1774731600},"SBGO":{"icaoId":"SBGO","flightCategory":"VFR","rawOb":"METAR SBGO 282100Z 10009KT 9999 FEW049 29/16 Q1017","temp":29,"dewp":16,"wdir":100,"wspd":9,"visib":"6+","altim":1017,"clouds":[{"cover":"FEW","base":4900}],"obsTime":1774731600},"SBGR":{"icaoId":"SBGR","flightCategory":"VFR","rawOb":"METAR SBGR 282100Z 16006KT 9999 SCT019 24/20 Q1021","temp":24,"dewp":20,"wdir":160,"wspd":6,"visib":"6+","altim":1021,"clouds":[{"cover":"SCT","base":1900}],"obsTime":1774731600},"SBIL":{"icaoId":"SBIL","flightCategory":"VFR","rawOb":"METAR SBIL 282100Z 22007KT 9999 VCSH FEW020 FEW025TCU SCT050 26/22 Q1014","temp":26,"dewp":22,"wdir":220,"wspd":7,"visib":"6+","altim":1014,"clouds":[{"cover":"FEW","base":2000},{"cover":"FEW","base":2500},{"cover":"SCT","base":5000}],"obsTime":1774731600},"SBJU":{"icaoId":"SBJU","flightCategory":"VFR","rawOb":"METAR SBJU 282100Z 00000KT 9999 FEW020 28/22 Q1012","temp":28,"dewp":22,"wdir":0,"wspd":0,"visib":"6+","altim":1012,"clouds":[{"cover":"FEW","base":2000}],"obsTime":1774731600},"SBKP":{"icaoId":"SBKP","flightCategory":"VFR","rawOb":"METAR SBKP 282100Z 17007KT CAVOK 30/16 Q1019","temp":30,"dewp":16,"wdir":170,"wspd":7,"visib":"6+","altim":1019,"clouds":[],"obsTime":1774731600},"SBLO":{"icaoId":"SBLO","flightCategory":"VFR","rawOb":"METAR SBLO 282100Z VRB03KT CAVOK 31/18 Q1018","temp":31,"dewp":18,"wdir":"VRB","wspd":3,"visib":"6+","altim":1018,"clouds":[],"obsTime":1774731600},"SBMA":{"icaoId":"SBMA","flightCategory":"VFR","rawOb":"METAR SBMA 282100Z 23003KT 9999 FEW020 FEW023TCU 32/23 Q1008","temp":32,"dewp":23,"wdir":230,"wspd":3,"visib":"6+","altim":1008,"clouds":[{"cover":"FEW","base":2000},{"cover":"FEW","base":2300}],"obsTime":1774731600},"SBME":{"icaoId":"SBME","flightCategory":"VFR","rawOb":"METAR SBME 282100Z 13003KT CAVOK 26/23 Q1018","temp":26,"dewp":23,"wdir":130,"wspd":3,"visib":"6+","altim":1018,"clouds":[],"obsTime":1774731600},"SBMG":{"icaoId":"SBMG","flightCategory":"VFR","rawOb":"METAR SBMG 282100Z 22002KT CAVOK 31/17 Q1017","temp":31,"dewp":17,"wdir":220,"wspd":2,"visib":"6+","altim":1017,"clouds":[],"obsTime":1774731600},"SBMK":{"icaoId":"SBMK","flightCategory":"VFR","rawOb":"METAR SBMK 282100Z 19009KT 9999 VCSH FEW025TCU SCT030 25/19 Q1017","temp":25,"dewp":19,"wdir":190,"wspd":9,"visib":"6+","altim":1017,"clouds":[{"cover":"FEW","base":2500},{"cover":"SCT","base":3000}],"obsTime":1774731600},"SBMO":{"icaoId":"SBMO","flightCategory":"MVFR","rawOb":"METAR SBMO 282100Z 11006KT 9000 -RA BKN023 FEW027TCU SCT065 26/24 Q1012","temp":26,"dewp":24,"wdir":110,"wspd":6,"visib":5.59,"altim":1012,"clouds":[{"cover":"BKN","base":2300},{"cover":"FEW","base":2700},{"cover":"SCT","base":6500}],"obsTime":1774731600},"SBMQ":{"icaoId":"SBMQ","flightCategory":"VFR","rawOb":"METAR SBMQ 282100Z 02006KT 9999 SCT019 29/26 Q1009","temp":29,"dewp":26,"wdir":20,"wspd":6,"visib":"6+","altim":1009,"clouds":[{"cover":"SCT","base":1900}],"obsTime":1774731600},"SBNT":{"icaoId":"SBNT","flightCategory":"VFR","rawOb":"METAR SBNT 282100Z 10007KT 9999 FEW025 28/22 Q1010","temp":28,"dewp":22,"wdir":100,"wspd":7,"visib":"6+","altim":1010,"clouds":[{"cover":"FEW","base":2500}],"obsTime":1774731600},"SBPA":{"icaoId":"SBPA","flightCategory":"VFR","rawOb":"METAR SBPA 282100Z 13007KT 9999 FEW040 32/24 Q1015","temp":32,"dewp":24,"wdir":130,"wspd":7,"visib":"6+","altim":1015,"clouds":[{"cover":"FEW","base":4000}],"obsTime":1774731600},"SBPJ":{"icaoId":"SBPJ","flightCategory":"VFR","rawOb":"METAR SBPJ 282100Z 24003KT 9999 SCT030 32/23 Q1010","temp":32,"dewp":23,"wdir":240,"wspd":3,"visib":"6+","altim":1010,"clouds":[{"cover":"SCT","base":3000}],"obsTime":1774731600},"SBPV":{"icaoId":"SBPV","flightCategory":"MVFR","rawOb":"METAR SBPV 282100Z 11002KT 9999 BKN016 BKN025 FEW030TCU 25/22 Q1009","temp":25,"dewp":22,"wdir":110,"wspd":2,"visib":"6+","altim":1009,"clouds":[{"cover":"BKN","base":1600},{"cover":"BKN","base":2500},{"cover":"FEW","base":3000}],"obsTime":1774731600},"SBRB":{"icaoId":"SBRB","flightCategory":"MVFR","rawOb":"METAR SBRB 282100Z 11003KT 6000 FEW004 SCT009 BKN015 FEW030TCU 23/22 Q1010 RETS","temp":23,"dewp":22,"wdir":110,"wspd":3,"visib":3.73,"altim":1010,"clouds":[{"cover":"FEW","base":400},{"cover":"SCT","base":900},{"cover":"BKN","base":1500},{"cover":"FEW","base":3000}],"obsTime":1774731600},"SBRF":{"icaoId":"SBRF","flightCategory":"MVFR","rawOb":"METAR SBRF 282100Z 09006KT 9000 VCSH BKN023 29/24 Q1011","temp":29,"dewp":24,"wdir":90,"wspd":6,"visib":5.59,"altim":1011,"clouds":[{"cover":"BKN","base":2300}],"obsTime":1774731600},"SBSG":{"icaoId":"SBSG","flightCategory":"VFR","rawOb":"METAR SBSG 282100Z 11007KT 9999 SCT030 27/22 Q1011","temp":27,"dewp":22,"wdir":110,"wspd":7,"visib":"6+","altim":1011,"clouds":[{"cover":"SCT","base":3000}],"obsTime":1774731600},"SBSL":{"icaoId":"SBSL","flightCategory":"VFR","rawOb":"METAR SBSL 282100Z 09009KT 9999 SCT035 BKN080 27/24 Q1009","temp":27,"dewp":24,"wdir":90,"wspd":9,"visib":"6+","altim":1009,"clouds":[{"cover":"SCT","base":3500},{"cover":"BKN","base":8000}],"obsTime":1774731600},"SBSN":{"icaoId":"SBSN","flightCategory":"VFR","rawOb":"METAR SBSN 282100Z 31005KT 9999 SCT016 SCT100 28/24 Q1008","temp":28,"dewp":24,"wdir":310,"wspd":5,"visib":"6+","altim":1008,"clouds":[{"cover":"SCT","base":1600},{"cover":"SCT","base":10000}],"obsTime":1774731600},"SBSP":{"icaoId":"SBSP","flightCategory":"MVFR","rawOb":"METAR SBSP 282100Z 16011KT 9999 BKN015 22/19 Q1022","temp":22,"dewp":19,"wdir":160,"wspd":11,"visib":"6+","altim":1022,"clouds":[{"cover":"BKN","base":1500}],"obsTime":1774731600},"SBSV":{"icaoId":"SBSV","flightCategory":"VFR","rawOb":"METAR SBSV 282100Z 13007KT 9999 SCT023 29/22 Q1012","temp":29,"dewp":22,"wdir":130,"wspd":7,"visib":"6+","altim":1012,"clouds":[{"cover":"SCT","base":2300}],"obsTime":1774731600},"SBTE":{"icaoId":"SBTE","flightCategory":"VFR","rawOb":"METAR SBTE 282100Z 13006KT 9999 FEW025 FEW030TCU 31/22 Q1008","temp":31,"dewp":22,"wdir":130,"wspd":6,"visib":"6+","altim":1008,"clouds":[{"cover":"FEW","base":2500},{"cover":"FEW","base":3000}],"obsTime":1774731600},"SBUL":{"icaoId":"SBUL","flightCategory":"VFR","rawOb":"METAR SBUL 282100Z VRB02KT 9999 SCT035 26/16 Q1020","temp":26,"dewp":16,"wdir":"VRB","wspd":2,"visib":"6+","altim":1020,"clouds":[{"cover":"SCT","base":3500}],"obsTime":1774731600},"SBUR":{"icaoId":"SBUR","flightCategory":"VFR","rawOb":"METAR SBUR 282100Z 15007KT CAVOK 27/17 Q1019","temp":27,"dewp":17,"wdir":150,"wspd":7,"visib":"6+","altim":1019,"clouds":[],"obsTime":1774731600},"SBCR":{"icaoId":"SBCR","flightCategory":"VFR","rawOb":"METAR SBCR 282100Z 03004KT 340V080 9999 FEW033 32/23 Q1011","temp":32,"dewp":23,"wdir":30,"wspd":4,"visib":"6+","altim":1011,"clouds":[{"cover":"FEW","base":3300}],"obsTime":1774731600},"SBHT":{"icaoId":"SBHT","flightCategory":"VFR","rawOb":"METAR SBHT 282100Z 23002KT 9999 FEW015 FEW020TCU SCT100 28/25 Q1009","temp":28,"dewp":25,"wdir":230,"wspd":2,"visib":"6+","altim":1009,"clouds":[{"cover":"FEW","base":1500},{"cover":"FEW","base":2000},{"cover":"SCT","base":10000}],"obsTime":1774731600},"SBTF":{"icaoId":"SBTF","flightCategory":"VFR","rawOb":"METAR SBTF 282100Z 15004KT 9999 FEW015 SCT090 27/26 Q1008","temp":27,"dewp":26,"wdir":150,"wspd":4,"visib":"6+","altim":1008,"clouds":[{"cover":"FEW","base":1500},{"cover":"SCT","base":9000}],"obsTime":1774731600},"SBAX":{"icaoId":"SBAX","flightCategory":"VFR","rawOb":"METAR SBAX 282100Z AUTO 09006KT 060V120 CAVOK 25/15 Q1020","temp":25,"dewp":15,"wdir":90,"wspd":6,"visib":"6+","altim":1020,"clouds":[],"obsTime":1774731600},"SBSR":{"icaoId":"SBSR","flightCategory":"VFR","rawOb":"METAR SBSR 282100Z 10006KT 9999 FEW045 30/14 Q1017","temp":30,"dewp":14,"wdir":100,"wspd":6,"visib":"6+","altim":1017,"clouds":[{"cover":"FEW","base":4500}],"obsTime":1774731600},"SBBH":{"icaoId":"SBBH","flightCategory":"VFR","rawOb":"METAR SBBH 282100Z 10005KT 9999 FEW040 25/17 Q1020","temp":25,"dewp":17,"wdir":100,"wspd":5,"visib":"6+","altim":1020,"clouds":[{"cover":"FEW","base":4000}],"obsTime":1774731600},"SBBU":{"icaoId":"SBBU","flightCategory":"VFR","rawOb":"METAR SBBU 282100Z 12004KT 9999 BKN045 30/18 Q1018","temp":30,"dewp":18,"wdir":120,"wspd":4,"visib":"6+","altim":1018,"clouds":[{"cover":"BKN","base":4500}],"obsTime":1774731600},"SBCA":{"icaoId":"SBCA","flightCategory":"VFR","rawOb":"METAR SBCA 282100Z 34007KT 9999 SCT030 28/19 Q1019","temp":28,"dewp":19,"wdir":340,"wspd":7,"visib":"6+","altim":1019,"clouds":[{"cover":"SCT","base":3000}],"obsTime":1774731600},"SBCO":{"icaoId":"SBCO","flightCategory":"VFR","rawOb":"METAR SBCO 282100Z 11008KT 9999 FEW040 31/25 Q1015","temp":31,"dewp":25,"wdir":110,"wspd":8,"visib":"6+","altim":1015,"clouds":[{"cover":"FEW","base":4000}],"obsTime":1774731600},"SBDN":{"icaoId":"SBDN","flightCategory":"VFR","rawOb":"METAR SBDN 282100Z 07003KT CAVOK 32/19 Q1016","temp":32,"dewp":19,"wdir":70,"wspd":3,"visib":"6+","altim":1016,"clouds":[],"obsTime":1774731600},"SBIP":{"icaoId":"SBIP","flightCategory":"VFR","rawOb":"METAR SBIP 282100Z AUTO 34004KT CAVOK 27/20 Q1017","temp":27,"dewp":20,"wdir":340,"wspd":4,"visib":"6+","altim":1017,"clouds":[],"obsTime":1774731600},"SBKG":{"icaoId":"SBKG","flightCategory":"MVFR","rawOb":"METAR SBKG 282100Z 10008KT 9999 BKN020 26/21 Q1013","temp":26,"dewp":21,"wdir":100,"wspd":8,"visib":"6+","altim":1013,"clouds":[{"cover":"BKN","base":2000}],"obsTime":1774731600},"SBOI":{"icaoId":"SBOI","flightCategory":"VFR","rawOb":"METAR SBOI 282100Z AUTO VRB02KT 9999 FEW028 26/25 Q1010","temp":26,"dewp":25,"wdir":"VRB","wspd":2,"visib":"6+","altim":1010,"clouds":[{"cover":"FEW","base":2800}],"obsTime":1774731600},"SBPL":{"icaoId":"SBPL","flightCategory":"VFR","rawOb":"METAR SBPL 282100Z 22006KT 9999 RA SCT030 SCT070 25/22 Q1011","temp":25,"dewp":22,"wdir":220,"wspd":6,"visib":"6+","altim":1011,"clouds":[{"cover":"SCT","base":3000},{"cover":"SCT","base":7000}],"obsTime":1774731600},"SBPS":{"icaoId":"SBPS","flightCategory":"MVFR","rawOb":"METAR SBPS 282100Z 18003KT 130V220 9999 BKN015 BKN030 26/24 Q1015","temp":26,"dewp":24,"wdir":180,"wspd":3,"visib":"6+","altim":1015,"clouds":[{"cover":"BKN","base":1500},{"cover":"BKN","base":3000}],"obsTime":1774731600},"SBSC":{"icaoId":"SBSC","flightCategory":"VFR","rawOb":"METAR SBSC 282100Z 17006KT 9999 FEW035 SCT050 27/21 Q1017","temp":27,"dewp":21,"wdir":170,"wspd":6,"visib":"6+","altim":1017,"clouds":[{"cover":"FEW","base":3500},{"cover":"SCT","base":5000}],"obsTime":1774731600},"SBSJ":{"icaoId":"SBSJ","flightCategory":"VFR","rawOb":"METAR SBSJ 282100Z 11015KT 9999 SCT045 25/20 Q1019","temp":25,"dewp":20,"wdir":110,"wspd":15,"visib":"6+","altim":1019,"clouds":[{"cover":"SCT","base":4500}],"obsTime":1774731600},"SBSM":{"icaoId":"SBSM","flightCategory":"VFR","rawOb":"METAR SBSM 282100Z 35003KT 9999 TS VCSH FEW035 FEW040CB SCT100 29/23 Q1015","temp":29,"dewp":23,"wdir":350,"wspd":3,"visib":"6+","altim":1015,"clouds":[{"cover":"FEW","base":3500},{"cover":"FEW","base":4000},{"cover":"SCT","base":10000}],"obsTime":1774731600},"SBAR":{"icaoId":"SBAR","flightCategory":"VFR","rawOb":"METAR SBAR 282100Z 12007KT 9999 SCT024 SCT100 29/24 Q1012","temp":29,"dewp":24,"wdir":120,"wspd":7,"visib":"6+","altim":1012,"clouds":[{"cover":"SCT","base":2400},{"cover":"SCT","base":10000}],"obsTime":1774731600},"SBTT":{"icaoId":"SBTT","flightCategory":"VFR","rawOb":"METAR SBTT 282100Z 33004KT 9999 FEW017 BKN100 27/22 Q1008","temp":27,"dewp":22,"wdir":330,"wspd":4,"visib":"6+","altim":1008,"clouds":[{"cover":"FEW","base":1700},{"cover":"BKN","base":10000}],"obsTime":1774731600},"SBUY":{"icaoId":"SBUY","flightCategory":"VFR","rawOb":"METAR SBUY 282100Z 00000KT 9999 SCT025 FEW030TCU SCT100 26/26 Q1007","temp":26,"dewp":26,"wdir":0,"wspd":0,"visib":"6+","altim":1007,"clouds":[{"cover":"SCT","base":2500},{"cover":"FEW","base":3000},{"cover":"SCT","base":10000}],"obsTime":1774731600},"SBVH":{"icaoId":"SBVH","flightCategory":"VFR","rawOb":"METAR SBVH 282100Z 08004KT 9999 SCT035 28/22 Q1012","temp":28,"dewp":22,"wdir":80,"wspd":4,"visib":"6+","altim":1012,"clouds":[{"cover":"SCT","base":3500}],"obsTime":1774731600},"SBPB":{"icaoId":"SBPB","flightCategory":"MVFR","rawOb":"METAR SBPB 282100Z 08008KT 9999 BKN016 BKN080 28/24 Q1009","temp":28,"dewp":24,"wdir":80,"wspd":8,"visib":"6+","altim":1009,"clouds":[{"cover":"BKN","base":1600},{"cover":"BKN","base":8000}],"obsTime":1774731600},"SBCJ":{"icaoId":"SBCJ","flightCategory":"VFR","rawOb":"METAR SBCJ 282100Z 12007KT 9999 SCT027 28/20 Q1013","temp":28,"dewp":20,"wdir":120,"wspd":7,"visib":"6+","altim":1013,"clouds":[{"cover":"SCT","base":2700}],"obsTime":1774731600},"SBPP":{"icaoId":"SBPP","flightCategory":"VFR","rawOb":"METAR SBPP 282100Z 09007KT CAVOK 30/20 Q1017","temp":30,"dewp":20,"wdir":90,"wspd":7,"visib":"6+","altim":1017,"clouds":[],"obsTime":1774731600},"SBES":{"icaoId":"SBES","flightCategory":"VFR","rawOb":"METAR SBES 282100Z 10007KT 070V130 9999 FEW025 25/// Q1018","temp":null,"dewp":null,"wdir":100,"wspd":7,"visib":"6+","altim":1018,"clouds":[{"cover":"FEW","base":2500}],"obsTime":1774731600},"SBMT":{"icaoId":"SBMT","flightCategory":"VFR","rawOb":"METAR SBMT 282100Z 13008KT 090V160 9999 SCT022 23/19 Q1021","temp":23,"dewp":19,"wdir":130,"wspd":8,"visib":"6+","altim":1021,"clouds":[{"cover":"SCT","base":2200}],"obsTime":1774731600},"SBJP":{"icaoId":"SBJP","flightCategory":"VFR","rawOb":"METAR SBJP 282100Z 10006KT 010V130 9999 FEW025 28/23 Q1011","temp":28,"dewp":23,"wdir":100,"wspd":6,"visib":"6+","altim":1011,"clouds":[{"cover":"FEW","base":2500}],"obsTime":1774731600},"SBPF":{"icaoId":"SBPF","flightCategory":"VFR","rawOb":"METAR SBPF 282100Z 00000KT CAVOK 30/19 Q1019","temp":30,"dewp":19,"wdir":0,"wspd":0,"visib":"6+","altim":1019,"clouds":[],"obsTime":1774731600},"SBAN":{"icaoId":"SBAN","flightCategory":"VFR","rawOb":"METAR SBAN 282100Z 15007KT 120V180 9999 FEW025 25/16 Q1020","temp":25,"dewp":16,"wdir":150,"wspd":7,"visib":"6+","altim":1020,"clouds":[{"cover":"FEW","base":2500}],"obsTime":1774731600},"SBLE":{"icaoId":"SBLE","flightCategory":"VFR","rawOb":"METAR SBLE 282100Z AUTO 13005KT 9999 FEW042 24/24 Q1015","temp":24,"dewp":24,"wdir":130,"wspd":5,"visib":"6+","altim":1015,"clouds":[{"cover":"FEW","base":4200}],"obsTime":1774731600},"SBAF":{"icaoId":"SBAF","flightCategory":"VFR","rawOb":"METAR SBAF 282100Z 21009KT 9999 FEW035 27/23 Q1017","temp":27,"dewp":23,"wdir":210,"wspd":9,"visib":"6+","altim":1017,"clouds":[{"cover":"FEW","base":3500}],"obsTime":1774731600},"SBJV":{"icaoId":"SBJV","flightCategory":"VFR","rawOb":"METAR SBJV 282100Z 04005KT 9999 FEW030 28/22 Q1018","temp":28,"dewp":22,"wdir":40,"wspd":5,"visib":"6+","altim":1018,"clouds":[{"cover":"FEW","base":3000}],"obsTime":1774731600},"SBGW":{"icaoId":"SBGW","flightCategory":"VFR","rawOb":"METAR SBGW 282100Z 03004KT 360V060 9999 FEW045 27/15 Q1019","temp":27,"dewp":15,"wdir":30,"wspd":4,"visib":"6+","altim":1019,"clouds":[{"cover":"FEW","base":4500}],"obsTime":1774731600},"SBJR":{"icaoId":"SBJR","flightCategory":"VFR","rawOb":"METAR SBJR 282100Z 10006KT 9999 FEW025 28/20 Q1017","temp":28,"dewp":20,"wdir":100,"wspd":6,"visib":"6+","altim":1017,"clouds":[{"cover":"FEW","base":2500}],"obsTime":1774731600},"SBLS":{"icaoId":"SBLS","flightCategory":"VFR","rawOb":"METAR SBLS 282100Z 14005KT 9999 FEW043 24/17 Q1020","temp":24,"dewp":17,"wdir":140,"wspd":5,"visib":"6+","altim":1020,"clouds":[{"cover":"FEW","base":4300}],"obsTime":1774731600},"SBST":{"icaoId":"SBST","flightCategory":"VFR","rawOb":"METAR SBST 282100Z 16007KT 9000 FEW025 25/22 Q1017","temp":25,"dewp":22,"wdir":160,"wspd":7,"visib":5.59,"altim":1017,"clouds":[{"cover":"FEW","base":2500}],"obsTime":1774731600},"SBTA":{"icaoId":"SBTA","flightCategory":"VFR","rawOb":"METAR SBTA 282100Z 17007KT 9999 FEW040 27/18 Q1018","temp":27,"dewp":18,"wdir":170,"wspd":7,"visib":"6+","altim":1018,"clouds":[{"cover":"FEW","base":4000}],"obsTime":1774731600},"SBIH":{"icaoId":"SBIH","flightCategory":"VFR","rawOb":"METAR SBIH 282100Z 05003KT 9999 FEW020 FEW025TCU 30/24 Q1008","temp":30,"dewp":24,"wdir":50,"wspd":3,"visib":"6+","altim":1008,"clouds":[{"cover":"FEW","base":2000},{"cover":"FEW","base":2500}],"obsTime":1774731600}}}