{"updated":1782507655,"count":85,"data":{"SBSL":{"icaoId":"SBSL","flightCategory":"VFR","rawOb":"METAR SBSL 262000Z 08015KT 9999 FEW030 30/24 Q1013","temp":30,"dewp":24,"wdir":80,"wspd":15,"visib":"6+","altim":1013,"clouds":[{"cover":"FEW","base":3000}],"obsTime":1782504000},"SBPJ":{"icaoId":"SBPJ","flightCategory":"VFR","rawOb":"METAR SBPJ 262000Z 11007KT CAVOK 33/15 Q1015","temp":33,"dewp":15,"wdir":110,"wspd":7,"visib":"6+","altim":1015,"clouds":[],"obsTime":1782504000},"SBFZ":{"icaoId":"SBFZ","flightCategory":"VFR","rawOb":"METAR SBFZ 262000Z 12010KT 9999 FEW023 28/23 Q1014","temp":28,"dewp":23,"wdir":120,"wspd":10,"visib":"6+","altim":1014,"clouds":[{"cover":"FEW","base":2300}],"obsTime":1782504000},"SBMO":{"icaoId":"SBMO","flightCategory":"IFR","rawOb":"SPECI SBMO 261910Z 03003KT 3000 RA BKN008 SCT025 BKN070 24/24 Q1018","temp":24,"dewp":24,"wdir":30,"wspd":3,"visib":1.86,"altim":1018,"clouds":[{"cover":"BKN","base":800},{"cover":"SCT","base":2500},{"cover":"BKN","base":7000}],"obsTime":1782501000},"SBPA":{"icaoId":"SBPA","flightCategory":"VFR","rawOb":"METAR SBPA 262000Z VRB02KT CAVOK 18/07 Q1022","temp":18,"dewp":7,"wdir":"VRB","wspd":2,"visib":"6+","altim":1022,"clouds":[],"obsTime":1782504000},"SBCF":{"icaoId":"SBCF","flightCategory":"VFR","rawOb":"METAR SBCF 262000Z 12008KT 9999 SCT040 SCT100 23/15 Q1024","temp":23,"dewp":15,"wdir":120,"wspd":8,"visib":"6+","altim":1024,"clouds":[{"cover":"SCT","base":4000},{"cover":"SCT","base":10000}],"obsTime":1782504000},"SBBV":{"icaoId":"SBBV","flightCategory":"VFR","rawOb":"METAR SBBV 262000Z 06007KT 9999 FEW008 SCT030 FEW040TCU BKN080 27/24 Q1012","temp":27,"dewp":24,"wdir":60,"wspd":7,"visib":"6+","altim":1012,"clouds":[{"cover":"FEW","base":800},{"cover":"SCT","base":3000},{"cover":"FEW","base":4000},{"cover":"BKN","base":8000}],"obsTime":1782504000},"SBKP":{"icaoId":"SBKP","flightCategory":"VFR","rawOb":"METAR SBKP 262000Z 31004KT CAVOK 22/17 Q1024","temp":22,"dewp":17,"wdir":310,"wspd":4,"visib":"6+","altim":1024,"clouds":[],"obsTime":1782504000},"SBCG":{"icaoId":"SBCG","flightCategory":"VFR","rawOb":"METAR SBCG 262000Z VRB02KT 9999 FEW030 26/17 Q1019","temp":26,"dewp":17,"wdir":"VRB","wspd":2,"visib":"6+","altim":1019,"clouds":[{"cover":"FEW","base":3000}],"obsTime":1782504000},"SBFI":{"icaoId":"SBFI","flightCategory":"VFR","rawOb":"METAR SBFI 262000Z 09004KT 9999 SCT020 SCT070 20/12 Q1020","temp":20,"dewp":12,"wdir":90,"wspd":4,"visib":"6+","altim":1020,"clouds":[{"cover":"SCT","base":2000},{"cover":"SCT","base":7000}],"obsTime":1782504000},"SBSG":{"icaoId":"SBSG","flightCategory":"VFR","rawOb":"METAR SBSG 262000Z 16003KT 100V200 9999 FEW005 FEW025TCU BKN050 24/24 Q1016","temp":24,"dewp":24,"wdir":160,"wspd":3,"visib":"6+","altim":1016,"clouds":[{"cover":"FEW","base":500},{"cover":"FEW","base":2500},{"cover":"BKN","base":5000}],"obsTime":1782504000},"SBFL":{"icaoId":"SBFL","flightCategory":"VFR","rawOb":"METAR SBFL 262000Z 36005KT 9999 BKN036 21/14 Q1023","temp":21,"dewp":14,"wdir":360,"wspd":5,"visib":"6+","altim":1023,"clouds":[{"cover":"BKN","base":3600}],"obsTime":1782504000},"SBLO":{"icaoId":"SBLO","flightCategory":"VFR","rawOb":"METAR SBLO 262000Z 16003KT 9999 SCT020 BKN090 18/15 Q1022","temp":18,"dewp":15,"wdir":160,"wspd":3,"visib":"6+","altim":1022,"clouds":[{"cover":"SCT","base":2000},{"cover":"BKN","base":9000}],"obsTime":1782504000},"SBBR":{"icaoId":"SBBR","flightCategory":"VFR","rawOb":"METAR SBBR 262000Z 10012KT CAVOK 24/12 Q1023","temp":24,"dewp":12,"wdir":100,"wspd":12,"visib":"6+","altim":1023,"clouds":[],"obsTime":1782504000},"SBCB":{"icaoId":"SBCB","flightCategory":"VFR","rawOb":"METAR SBCB 262000Z 12008KT 9999 FEW015 BKN070 23/20 Q1023","temp":23,"dewp":20,"wdir":120,"wspd":8,"visib":"6+","altim":1023,"clouds":[{"cover":"FEW","base":1500},{"cover":"BKN","base":7000}],"obsTime":1782504000},"SBMA":{"icaoId":"SBMA","flightCategory":"VFR","rawOb":"METAR SBMA 262000Z 07006KT 9999 SCT025 33/18 Q1013","temp":33,"dewp":18,"wdir":70,"wspd":6,"visib":"6+","altim":1013,"clouds":[{"cover":"SCT","base":2500}],"obsTime":1782504000},"SBSN":{"icaoId":"SBSN","flightCategory":"VFR","rawOb":"METAR SBSN 262000Z 09012KT 9999 FEW021 31/25 Q1011","temp":31,"dewp":25,"wdir":90,"wspd":12,"visib":"6+","altim":1011,"clouds":[{"cover":"FEW","base":2100}],"obsTime":1782504000},"SBGR":{"icaoId":"SBGR","flightCategory":"VFR","rawOb":"SPECI SBGR 261930Z 04007KT 9999 SCT009 19/16 Q1025","temp":19,"dewp":16,"wdir":40,"wspd":7,"visib":"6+","altim":1025,"clouds":[{"cover":"SCT","base":900}],"obsTime":1782502200},"SBEG":{"icaoId":"SBEG","flightCategory":"VFR","rawOb":"METAR SBEG 262000Z 30002KT 9999 VCSH SCT025 FEW030TCU SCT100 27/24 Q1012","temp":27,"dewp":24,"wdir":300,"wspd":2,"visib":"6+","altim":1012,"clouds":[{"cover":"SCT","base":2500},{"cover":"FEW","base":3000},{"cover":"SCT","base":10000}],"obsTime":1782504000},"SBBE":{"icaoId":"SBBE","flightCategory":"VFR","rawOb":"METAR SBBE 262000Z 09007KT 9999 SCT043 BKN100 32/23 Q1012","temp":32,"dewp":23,"wdir":90,"wspd":7,"visib":"6+","altim":1012,"clouds":[{"cover":"SCT","base":4300},{"cover":"BKN","base":10000}],"obsTime":1782504000},"SBGO":{"icaoId":"SBGO","flightCategory":"VFR","rawOb":"METAR SBGO 262000Z 08011KT CAVOK 28/15 Q1021","temp":28,"dewp":15,"wdir":80,"wspd":11,"visib":"6+","altim":1021,"clouds":[],"obsTime":1782504000},"SBRB":{"icaoId":"SBRB","flightCategory":"MVFR","rawOb":"METAR SBRB 262000Z 20004KT 9999 BKN018 BKN080 25/20 Q1016","temp":25,"dewp":20,"wdir":200,"wspd":4,"visib":"6+","altim":1016,"clouds":[{"cover":"BKN","base":1800},{"cover":"BKN","base":8000}],"obsTime":1782504000},"SBSV":{"icaoId":"SBSV","flightCategory":"VFR","rawOb":"METAR SBSV 262000Z 11011KT 9999 SCT023 BKN060 27/21 Q1019","temp":27,"dewp":21,"wdir":110,"wspd":11,"visib":"6+","altim":1019,"clouds":[{"cover":"SCT","base":2300},{"cover":"BKN","base":6000}],"obsTime":1782504000},"SBCR":{"icaoId":"SBCR","flightCategory":"VFR","rawOb":"METAR SBCR 262000Z 08006KT 060V120 CAVOK 26/17 Q1016","temp":26,"dewp":17,"wdir":80,"wspd":6,"visib":"6+","altim":1016,"clouds":[],"obsTime":1782504000},"SBMQ":{"icaoId":"SBMQ","flightCategory":"VFR","rawOb":"SPECI SBMQ 261937Z 08006KT 9999 TS SCT021 FEW033CB 30/26 Q1012","temp":30,"dewp":26,"wdir":80,"wspd":6,"visib":"6+","altim":1012,"clouds":[{"cover":"SCT","base":2100},{"cover":"FEW","base":3300}],"obsTime":1782502620},"SBRF":{"icaoId":"SBRF","flightCategory":"MVFR","rawOb":"METAR SBRF 262000Z 14008KT 9999 VCSH SCT012 BKN018 BKN060 27/25 Q1016","temp":27,"dewp":25,"wdir":140,"wspd":8,"visib":"6+","altim":1016,"clouds":[{"cover":"SCT","base":1200},{"cover":"BKN","base":1800},{"cover":"BKN","base":6000}],"obsTime":1782504000},"SBGL":{"icaoId":"SBGL","flightCategory":"MVFR","rawOb":"METAR SBGL 262000Z VRB01KT 8000 SCT015 BKN030 22/20 Q1022","temp":22,"dewp":20,"wdir":"VRB","wspd":1,"visib":4.97,"altim":1022,"clouds":[{"cover":"SCT","base":1500},{"cover":"BKN","base":3000}],"obsTime":1782504000},"SBPV":{"icaoId":"SBPV","flightCategory":"VFR","rawOb":"METAR SBPV 262000Z 12004KT 9999 SCT035 31/21 Q1013","temp":31,"dewp":21,"wdir":120,"wspd":4,"visib":"6+","altim":1013,"clouds":[{"cover":"SCT","base":3500}],"obsTime":1782504000},"SBVT":{"icaoId":"SBVT","flightCategory":"VFR","rawOb":"METAR SBVT 262000Z 16007KT 9999 VCSH SCT044 BKN053 23/21 Q1023","temp":23,"dewp":21,"wdir":160,"wspd":7,"visib":"6+","altim":1023,"clouds":[{"cover":"SCT","base":4400},{"cover":"BKN","base":5300}],"obsTime":1782504000},"SBTE":{"icaoId":"SBTE","flightCategory":"VFR","rawOb":"METAR SBTE 262000Z 03005KT 9999 FEW040 33/20 Q1012","temp":33,"dewp":20,"wdir":30,"wspd":5,"visib":"6+","altim":1012,"clouds":[{"cover":"FEW","base":4000}],"obsTime":1782504000},"SBCT":{"icaoId":"SBCT","flightCategory":"VFR","rawOb":"METAR SBCT 262000Z 36007KT 9999 FEW020 SCT100 15/11 Q1025","temp":15,"dewp":11,"wdir":360,"wspd":7,"visib":"6+","altim":1025,"clouds":[{"cover":"FEW","base":2000},{"cover":"SCT","base":10000}],"obsTime":1782504000},"SBCP":{"icaoId":"SBCP","flightCategory":"VFR","rawOb":"METAR SBCP 262000Z 10010KT 9999 SCT020 SCT070 24/19 Q1022","temp":24,"dewp":19,"wdir":100,"wspd":10,"visib":"6+","altim":1022,"clouds":[{"cover":"SCT","base":2000},{"cover":"SCT","base":7000}],"obsTime":1782504000},"SBMG":{"icaoId":"SBMG","flightCategory":"VFR","rawOb":"METAR SBMG 262000Z 07005KT 9999 FEW020 BKN070 19/15 Q1021","temp":19,"dewp":15,"wdir":70,"wspd":5,"visib":"6+","altim":1021,"clouds":[{"cover":"FEW","base":2000},{"cover":"BKN","base":7000}],"obsTime":1782504000},"SBIL":{"icaoId":"SBIL","flightCategory":"MVFR","rawOb":"METAR SBIL 262000Z 15009KT 9999 BKN020 27/22 Q1020","temp":27,"dewp":22,"wdir":150,"wspd":9,"visib":"6+","altim":1020,"clouds":[{"cover":"BKN","base":2000}],"obsTime":1782504000},"SBJU":{"icaoId":"SBJU","flightCategory":"VFR","rawOb":"METAR SBJU 262000Z 12008KT 9999 SCT020 28/19 Q1017","temp":28,"dewp":19,"wdir":120,"wspd":8,"visib":"6+","altim":1017,"clouds":[{"cover":"SCT","base":2000}],"obsTime":1782504000},"SBAT":{"icaoId":"SBAT","flightCategory":"VFR","rawOb":"METAR SBAT 262000Z 14002KT 9999 SCT030 33/18 Q1013","temp":33,"dewp":18,"wdir":140,"wspd":2,"visib":"6+","altim":1013,"clouds":[{"cover":"SCT","base":3000}],"obsTime":1782504000},"SBHT":{"icaoId":"SBHT","flightCategory":"VFR","rawOb":"METAR SBHT 262000Z COR 10006KT 9999 SCT030 33/25 Q1012","temp":33,"dewp":25,"wdir":100,"wspd":6,"visib":"6+","altim":1012,"clouds":[{"cover":"SCT","base":3000}],"obsTime":1782504000},"SBME":{"icaoId":"SBME","flightCategory":"VFR","rawOb":"METAR SBME 262000Z 07007KT 9999 SCT030 BKN070 24/21 Q1022","temp":24,"dewp":21,"wdir":70,"wspd":7,"visib":"6+","altim":1022,"clouds":[{"cover":"SCT","base":3000},{"cover":"BKN","base":7000}],"obsTime":1782504000},"SBMK":{"icaoId":"SBMK","flightCategory":"VFR","rawOb":"METAR SBMK 262000Z 08006KT 9999 SCT046 26/15 Q1022","temp":26,"dewp":15,"wdir":80,"wspd":6,"visib":"6+","altim":1022,"clouds":[{"cover":"SCT","base":4600}],"obsTime":1782504000},"SBUL":{"icaoId":"SBUL","flightCategory":"VFR","rawOb":"METAR SBUL 262000Z 12006KT CAVOK 22/15 Q1024","temp":22,"dewp":15,"wdir":120,"wspd":6,"visib":"6+","altim":1024,"clouds":[],"obsTime":1782504000},"SBUR":{"icaoId":"SBUR","flightCategory":"VFR","rawOb":"METAR SBUR 262000Z 04006KT CAVOK 24/16 Q1023","temp":24,"dewp":16,"wdir":40,"wspd":6,"visib":"6+","altim":1023,"clouds":[],"obsTime":1782504000},"SBCZ":{"icaoId":"SBCZ","flightCategory":"MVFR","rawOb":"METAR SBCZ 262000Z 11003KT 9999 BKN020 BKN030 25/21 Q1015","temp":25,"dewp":21,"wdir":110,"wspd":3,"visib":"6+","altim":1015,"clouds":[{"cover":"BKN","base":2000},{"cover":"BKN","base":3000}],"obsTime":1782504000},"SBNT":{"icaoId":"SBNT","flightCategory":"VFR","rawOb":"METAR SBNT 262000Z 15004KT 9999 FEW009 FEW035TCU BKN060 24/23 Q1016","temp":24,"dewp":23,"wdir":150,"wspd":4,"visib":"6+","altim":1016,"clouds":[{"cover":"FEW","base":900},{"cover":"FEW","base":3500},{"cover":"BKN","base":6000}],"obsTime":1782504000},"SBSP":{"icaoId":"SBSP","flightCategory":"VFR","rawOb":"METAR SBSP 262000Z 09005KT 050V130 9999 FEW015 19/16 Q1025","temp":19,"dewp":16,"wdir":90,"wspd":5,"visib":"6+","altim":1025,"clouds":[{"cover":"FEW","base":1500}],"obsTime":1782504000},"SBAR":{"icaoId":"SBAR","flightCategory":"IFR","rawOb":"SPECI SBAR 261915Z 07009KT 4000 1500N -RA BR FEW009 BKN011 OVC070 24/23 Q1017","temp":24,"dewp":23,"wdir":70,"wspd":9,"visib":2.49,"altim":1017,"clouds":[{"cover":"FEW","base":900},{"cover":"BKN","base":1100},{"cover":"OVC","base":7000}],"obsTime":1782501300},"SBUY":{"icaoId":"SBUY","flightCategory":"MVFR","rawOb":"METAR SBUY 262000Z 17002KT 9999 BKN030 BKN090 28/23 Q1012","temp":28,"dewp":23,"wdir":170,"wspd":2,"visib":"6+","altim":1012,"clouds":[{"cover":"BKN","base":3000},{"cover":"BKN","base":9000}],"obsTime":1782504000},"SBPS":{"icaoId":"SBPS","flightCategory":"VFR","rawOb":"METAR SBPS 262000Z 12005KT 9999 SCT025 BKN100 25/21 Q1021","temp":25,"dewp":21,"wdir":120,"wspd":5,"visib":"6+","altim":1021,"clouds":[{"cover":"SCT","base":2500},{"cover":"BKN","base":10000}],"obsTime":1782504000},"SBPL":{"icaoId":"SBPL","flightCategory":"MVFR","rawOb":"METAR SBPL 262000Z 10008KT 9999 -RA FEW010 BKN020 BKN070 24/24 Q1018","temp":24,"dewp":24,"wdir":100,"wspd":8,"visib":"6+","altim":1018,"clouds":[{"cover":"FEW","base":1000},{"cover":"BKN","base":2000},{"cover":"BKN","base":7000}],"obsTime":1782504000},"SBSJ":{"icaoId":"SBSJ","flightCategory":"VFR","rawOb":"METAR SBSJ 262000Z 35001KT 9999 FEW022 22/17 Q1024","temp":22,"dewp":17,"wdir":350,"wspd":1,"visib":"6+","altim":1024,"clouds":[{"cover":"FEW","base":2200}],"obsTime":1782504000},"SBTT":{"icaoId":"SBTT","flightCategory":"MVFR","rawOb":"METAR SBTT 262000Z 19004KT 9999 BKN022 26/21 Q1014","temp":26,"dewp":21,"wdir":190,"wspd":4,"visib":"6+","altim":1014,"clouds":[{"cover":"BKN","base":2200}],"obsTime":1782504000},"SBPP":{"icaoId":"SBPP","flightCategory":"VFR","rawOb":"METAR SBPP 262000Z 05010KT 9999 SCT010 BKN090 16/14 Q1020","temp":16,"dewp":14,"wdir":50,"wspd":10,"visib":"6+","altim":1020,"clouds":[{"cover":"SCT","base":1000},{"cover":"BKN","base":9000}],"obsTime":1782504000},"SBTF":{"icaoId":"SBTF","flightCategory":"VFR","rawOb":"METAR SBTF 262000Z 19007KT 9999 SCT015 28/25 Q1012","temp":28,"dewp":25,"wdir":190,"wspd":7,"visib":"6+","altim":1012,"clouds":[{"cover":"SCT","base":1500}],"obsTime":1782504000},"SBCJ":{"icaoId":"SBCJ","flightCategory":"VFR","rawOb":"METAR SBCJ 262000Z 07007KT 9999 SCT020 28/18 Q1017","temp":28,"dewp":18,"wdir":70,"wspd":7,"visib":"6+","altim":1017,"clouds":[{"cover":"SCT","base":2000}],"obsTime":1782504000},"SBOI":{"icaoId":"SBOI","flightCategory":"VFR","rawOb":"METAR SBOI 262000Z AUTO VRB02KT CAVOK 27/24 Q1013","temp":27,"dewp":24,"wdir":"VRB","wspd":2,"visib":"6+","altim":1013,"clouds":[],"obsTime":1782504000},"SBBU":{"icaoId":"SBBU","flightCategory":"VFR","rawOb":"METAR SBBU 262000Z 08007KT 9999 FEW030 SCT075 23/19 Q1022","temp":23,"dewp":19,"wdir":80,"wspd":7,"visib":"6+","altim":1022,"clouds":[{"cover":"FEW","base":3000},{"cover":"SCT","base":7500}],"obsTime":1782504000},"SBDN":{"icaoId":"SBDN","flightCategory":"MVFR","rawOb":"METAR SBDN 262000Z 11005KT 9999 BKN015 BKN090 18/16 Q1021","temp":18,"dewp":16,"wdir":110,"wspd":5,"visib":"6+","altim":1021,"clouds":[{"cover":"BKN","base":1500},{"cover":"BKN","base":9000}],"obsTime":1782504000},"SBIP":{"icaoId":"SBIP","flightCategory":"VFR","rawOb":"METAR SBIP 262000Z AUTO 36006KT CAVOK 25/18 Q1022","temp":25,"dewp":18,"wdir":360,"wspd":6,"visib":"6+","altim":1022,"clouds":[],"obsTime":1782504000},"SBSC":{"icaoId":"SBSC","flightCategory":"VFR","rawOb":"METAR SBSC 262000Z 24003KT 9000 FEW030 21/20 Q1023","temp":21,"dewp":20,"wdir":240,"wspd":3,"visib":5.59,"altim":1023,"clouds":[{"cover":"FEW","base":3000}],"obsTime":1782504000},"SBSR":{"icaoId":"SBSR","flightCategory":"VFR","rawOb":"METAR SBSR 262000Z 02003KT 9999 FEW040 25/17 Q1021","temp":25,"dewp":17,"wdir":20,"wspd":3,"visib":"6+","altim":1021,"clouds":[{"cover":"FEW","base":4000}],"obsTime":1782504000},"SBTU":{"icaoId":"SBTU","flightCategory":"VFR","rawOb":"METAR SBTU 262000Z AUTO 28005KT 9999 // SCT090/// 30/22 Q1014","temp":30,"dewp":22,"wdir":280,"wspd":5,"visib":"6+","altim":1014,"clouds":[{"cover":"SCT","base":9000}],"obsTime":1782504000},"SBES":{"icaoId":"SBES","flightCategory":"VFR","rawOb":"METAR SBES 262000Z VRB02KT 9999 FEW015 SCT050 BKN080 22/// Q1023","temp":null,"dewp":null,"wdir":"VRB","wspd":2,"visib":"6+","altim":1023,"clouds":[{"cover":"FEW","base":1500},{"cover":"SCT","base":5000},{"cover":"BKN","base":8000}],"obsTime":1782504000},"SBCA":{"icaoId":"SBCA","flightCategory":"VFR","rawOb":"METAR SBCA 262000Z 03007KT 9999 FEW045 BKN070 18/10 Q1022","temp":18,"dewp":10,"wdir":30,"wspd":7,"visib":"6+","altim":1022,"clouds":[{"cover":"FEW","base":4500},{"cover":"BKN","base":7000}],"obsTime":1782504000},"SBCO":{"icaoId":"SBCO","flightCategory":"VFR","rawOb":"METAR SBCO 262000Z VRB02KT CAVOK 15/08 Q1023","temp":15,"dewp":8,"wdir":"VRB","wspd":2,"visib":"6+","altim":1023,"clouds":[],"obsTime":1782504000},"SBSM":{"icaoId":"SBSM","flightCategory":"VFR","rawOb":"METAR SBSM 262000Z 12006KT CAVOK 16/09 Q1021","temp":16,"dewp":9,"wdir":120,"wspd":6,"visib":"6+","altim":1021,"clouds":[],"obsTime":1782504000},"SBKG":{"icaoId":"SBKG","flightCategory":"MVFR","rawOb":"METAR SBKG 262000Z 07005KT 8000 FEW006 OVC070 22/21 Q1019","temp":22,"dewp":21,"wdir":70,"wspd":5,"visib":4.97,"altim":1019,"clouds":[{"cover":"FEW","base":600},{"cover":"OVC","base":7000}],"obsTime":1782504000},"SBCC":{"icaoId":"SBCC","flightCategory":"VFR","rawOb":"METAR SBCC 262000Z 06011KT CAVOK 31/16 Q1014","temp":31,"dewp":16,"wdir":60,"wspd":11,"visib":"6+","altim":1014,"clouds":[],"obsTime":1782504000},"SBVH":{"icaoId":"SBVH","flightCategory":"VFR","rawOb":"METAR SBVH 262000Z 08006KT 9999 FEW025 28/19 Q1017","temp":28,"dewp":19,"wdir":80,"wspd":6,"visib":"6+","altim":1017,"clouds":[{"cover":"FEW","base":2500}],"obsTime":1782504000},"SBAX":{"icaoId":"SBAX","flightCategory":"VFR","rawOb":"METAR SBAX 262000Z 15006KT 9999 SCT030 BKN100 20/15 Q1024","temp":20,"dewp":15,"wdir":150,"wspd":6,"visib":"6+","altim":1024,"clouds":[{"cover":"SCT","base":3000},{"cover":"BKN","base":10000}],"obsTime":1782504000},"SBBH":{"icaoId":"SBBH","flightCategory":"VFR","rawOb":"METAR SBBH 262000Z 08007KT 9999 FEW048 23/15 Q1024","temp":23,"dewp":15,"wdir":80,"wspd":7,"visib":"6+","altim":1024,"clouds":[{"cover":"FEW","base":4800}],"obsTime":1782504000},"SBBQ":{"icaoId":"SBBQ","flightCategory":"VFR","rawOb":"METAR SBBQ 262000Z 06005KT 030V090 9999 FEW035 BKN083 18/15 Q1028","temp":18,"dewp":15,"wdir":60,"wspd":5,"visib":"6+","altim":1028,"clouds":[{"cover":"FEW","base":3500},{"cover":"BKN","base":8300}],"obsTime":1782504000},"SBPB":{"icaoId":"SBPB","flightCategory":"VFR","rawOb":"METAR SBPB 262000Z 07014KT 9999 FEW020 SCT100 30/24 Q1013","temp":30,"dewp":24,"wdir":70,"wspd":14,"visib":"6+","altim":1013,"clouds":[{"cover":"FEW","base":2000},{"cover":"SCT","base":10000}],"obsTime":1782504000},"SBJP":{"icaoId":"SBJP","flightCategory":"VFR","rawOb":"METAR SBJP 262000Z 16004KT 9999 SCT024 26/23 Q1016","temp":26,"dewp":23,"wdir":160,"wspd":4,"visib":"6+","altim":1016,"clouds":[{"cover":"SCT","base":2400}],"obsTime":1782504000},"SBAN":{"icaoId":"SBAN","flightCategory":"VFR","rawOb":"METAR SBAN 262000Z 12008KT CAVOK 24/14 Q1023","temp":24,"dewp":14,"wdir":120,"wspd":8,"visib":"6+","altim":1023,"clouds":[],"obsTime":1782504000},"SBJV":{"icaoId":"SBJV","flightCategory":"VFR","rawOb":"METAR SBJV 262000Z 13004KT CAVOK 17/13 Q1023","temp":17,"dewp":13,"wdir":130,"wspd":4,"visib":"6+","altim":1023,"clouds":[],"obsTime":1782504000},"SBNM":{"icaoId":"SBNM","flightCategory":"VFR","rawOb":"METAR SBNM 262000Z AUTO 08003KT CAVOK 18/07 Q1021","temp":18,"dewp":7,"wdir":80,"wspd":3,"visib":"6+","altim":1021,"clouds":[],"obsTime":1782504000},"SBPF":{"icaoId":"SBPF","flightCategory":"VFR","rawOb":"METAR SBPF 262000Z 04004KT CAVOK 14/05 Q1023","temp":14,"dewp":5,"wdir":40,"wspd":4,"visib":"6+","altim":1023,"clouds":[],"obsTime":1782504000},"SBIH":{"icaoId":"SBIH","flightCategory":"VFR","rawOb":"METAR SBIH 262000Z 07003KT 9999 SCT020 33/24 Q1011","temp":33,"dewp":24,"wdir":70,"wspd":3,"visib":"6+","altim":1011,"clouds":[{"cover":"SCT","base":2000}],"obsTime":1782504000},"SBAF":{"icaoId":"SBAF","flightCategory":"VFR","rawOb":"METAR SBAF 262000Z 10002KT 9999 SCT020 BKN035 22/22 Q1022","temp":22,"dewp":22,"wdir":100,"wspd":2,"visib":"6+","altim":1022,"clouds":[{"cover":"SCT","base":2000},{"cover":"BKN","base":3500}],"obsTime":1782504000},"SBGW":{"icaoId":"SBGW","flightCategory":"VFR","rawOb":"METAR SBGW 262000Z 02004KT 340V070 9999 FEW025 SCT100 20/14 Q1024","temp":20,"dewp":14,"wdir":20,"wspd":4,"visib":"6+","altim":1024,"clouds":[{"cover":"FEW","base":2500},{"cover":"SCT","base":10000}],"obsTime":1782504000},"SBJR":{"icaoId":"SBJR","flightCategory":"MVFR","rawOb":"METAR SBJR 262000Z 00000KT 9999 SCT020 BKN030 BKN100 22/20 Q1022","temp":22,"dewp":20,"wdir":0,"wspd":0,"visib":"6+","altim":1022,"clouds":[{"cover":"SCT","base":2000},{"cover":"BKN","base":3000},{"cover":"BKN","base":10000}],"obsTime":1782504000},"SBLS":{"icaoId":"SBLS","flightCategory":"VFR","rawOb":"METAR SBLS 262000Z 13006KT 9999 SCT035 SCT100 23/16 Q1024","temp":23,"dewp":16,"wdir":130,"wspd":6,"visib":"6+","altim":1024,"clouds":[{"cover":"SCT","base":3500},{"cover":"SCT","base":10000}],"obsTime":1782504000},"SBMT":{"icaoId":"SBMT","flightCategory":"MVFR","rawOb":"METAR SBMT 262000Z 14006KT 6000 SCT015 18/17 Q1024","temp":18,"dewp":17,"wdir":140,"wspd":6,"visib":3.73,"altim":1024,"clouds":[{"cover":"SCT","base":1500}],"obsTime":1782504000},"SBST":{"icaoId":"SBST","flightCategory":"MVFR","rawOb":"METAR SBST 262000Z 19001KT 9000 OVC014 18/15 Q1024","temp":18,"dewp":15,"wdir":190,"wspd":1,"visib":5.59,"altim":1024,"clouds":[{"cover":"OVC","base":1400}],"obsTime":1782504000},"SBTA":{"icaoId":"SBTA","flightCategory":"VFR","rawOb":"METAR SBTA 262000Z 02003KT 340V060 9999 FEW025 SCT100 22/17 Q1023","temp":22,"dewp":17,"wdir":20,"wspd":3,"visib":"6+","altim":1023,"clouds":[{"cover":"FEW","base":2500},{"cover":"SCT","base":10000}],"obsTime":1782504000},"SBLE":{"icaoId":"SBLE","flightCategory":"MVFR","rawOb":"METAR SBLE 262000Z AUTO 10006KT 9999 FEW004 OVC015 ///// Q////","temp":null,"dewp":null,"wdir":100,"wspd":6,"visib":"6+","altim":null,"clouds":[{"cover":"FEW","base":400},{"cover":"OVC","base":1500}],"obsTime":1782504000}}}