{"updated":1780596320,"count":86,"data":{"SBVT":{"icaoId":"SBVT","flightCategory":"MVFR","rawOb":"METAR SBVT 041700Z 21012KT 180V240 8000 -RA SCT015 BKN020 BKN070 22/19 Q1023","temp":22,"dewp":19,"wdir":210,"wspd":12,"visib":4.97,"altim":1023,"clouds":[{"cover":"SCT","base":1500},{"cover":"BKN","base":2000},{"cover":"BKN","base":7000}],"obsTime":1780592400},"SBMA":{"icaoId":"SBMA","flightCategory":"VFR","rawOb":"METAR SBMA 041700Z 08004KT 9999 SCT020 SCT025TCU 32/22 Q1013","temp":32,"dewp":22,"wdir":80,"wspd":4,"visib":"6+","altim":1013,"clouds":[{"cover":"SCT","base":2000},{"cover":"SCT","base":2500}],"obsTime":1780592400},"SBFI":{"icaoId":"SBFI","flightCategory":"VFR","rawOb":"METAR SBFI 041700Z 10006KT CAVOK 24/16 Q1023","temp":24,"dewp":16,"wdir":100,"wspd":6,"visib":"6+","altim":1023,"clouds":[],"obsTime":1780592400},"SBFL":{"icaoId":"SBFL","flightCategory":"VFR","rawOb":"METAR SBFL 041700Z 33007KT 9999 SCT033 BKN077 23/17 Q1028","temp":23,"dewp":17,"wdir":330,"wspd":7,"visib":"6+","altim":1028,"clouds":[{"cover":"SCT","base":3300},{"cover":"BKN","base":7700}],"obsTime":1780592400},"SBMO":{"icaoId":"SBMO","flightCategory":"MVFR","rawOb":"METAR SBMO 041700Z 15011KT 9999 BKN020 27/23 Q1016","temp":27,"dewp":23,"wdir":150,"wspd":11,"visib":"6+","altim":1016,"clouds":[{"cover":"BKN","base":2000}],"obsTime":1780592400},"SBFZ":{"icaoId":"SBFZ","flightCategory":"VFR","rawOb":"METAR SBFZ 041700Z 11019KT 9999 SCT025 30/23 Q1013","temp":30,"dewp":23,"wdir":110,"wspd":19,"visib":"6+","altim":1013,"clouds":[{"cover":"SCT","base":2500}],"obsTime":1780592400},"SBMQ":{"icaoId":"SBMQ","flightCategory":"VFR","rawOb":"METAR SBMQ 041700Z 07008KT 9999 SCT025 FEW030TCU BKN100 32/25 Q1012","temp":32,"dewp":25,"wdir":70,"wspd":8,"visib":"6+","altim":1012,"clouds":[{"cover":"SCT","base":2500},{"cover":"FEW","base":3000},{"cover":"BKN","base":10000}],"obsTime":1780592400},"SBBV":{"icaoId":"SBBV","flightCategory":"MVFR","rawOb":"METAR SBBV 041700Z 15005KT 9999 VCSH BKN030 FEW035TCU SCT070 30/24 Q1013","temp":30,"dewp":24,"wdir":150,"wspd":5,"visib":"6+","altim":1013,"clouds":[{"cover":"BKN","base":3000},{"cover":"FEW","base":3500},{"cover":"SCT","base":7000}],"obsTime":1780592400},"SBGL":{"icaoId":"SBGL","flightCategory":"MVFR","rawOb":"METAR SBGL 041700Z 13003KT 080V160 9999 BKN020 FEW025TCU BKN070 22/18 Q1026","temp":22,"dewp":18,"wdir":130,"wspd":3,"visib":"6+","altim":1026,"clouds":[{"cover":"BKN","base":2000},{"cover":"FEW","base":2500},{"cover":"BKN","base":7000}],"obsTime":1780592400},"SBPA":{"icaoId":"SBPA","flightCategory":"VFR","rawOb":"METAR SBPA 041700Z 09005KT 020V130 9999 FEW035 23/14 Q1025","temp":23,"dewp":14,"wdir":90,"wspd":5,"visib":"6+","altim":1025,"clouds":[{"cover":"FEW","base":3500}],"obsTime":1780592400},"SBCP":{"icaoId":"SBCP","flightCategory":"MVFR","rawOb":"METAR SBCP 041700Z 08003KT 9999 BKN015 BKN090 22/20 Q1025","temp":22,"dewp":20,"wdir":80,"wspd":3,"visib":"6+","altim":1025,"clouds":[{"cover":"BKN","base":1500},{"cover":"BKN","base":9000}],"obsTime":1780592400},"SBCR":{"icaoId":"SBCR","flightCategory":"VFR","rawOb":"METAR SBCR 041700Z 08011KT CAVOK 30/10 Q1018","temp":30,"dewp":10,"wdir":80,"wspd":11,"visib":"6+","altim":1018,"clouds":[],"obsTime":1780592400},"SBPJ":{"icaoId":"SBPJ","flightCategory":"VFR","rawOb":"METAR SBPJ 041700Z 13006KT 080V180 9999 FEW045 33/19 Q1015","temp":33,"dewp":19,"wdir":130,"wspd":6,"visib":"6+","altim":1015,"clouds":[{"cover":"FEW","base":4500}],"obsTime":1780592400},"SBPV":{"icaoId":"SBPV","flightCategory":"VFR","rawOb":"METAR SBPV 041700Z 08007KT 9999 FEW010 33/17 Q1014","temp":33,"dewp":17,"wdir":80,"wspd":7,"visib":"6+","altim":1014,"clouds":[{"cover":"FEW","base":1000}],"obsTime":1780592400},"SBGO":{"icaoId":"SBGO","flightCategory":"VFR","rawOb":"METAR SBGO 041700Z 09009KT 040V130 CAVOK 28/13 Q1022","temp":28,"dewp":13,"wdir":90,"wspd":9,"visib":"6+","altim":1022,"clouds":[],"obsTime":1780592400},"SBGR":{"icaoId":"SBGR","flightCategory":"VFR","rawOb":"METAR SBGR 041700Z 09008KT 9999 BKN035 21/14 Q1028","temp":21,"dewp":14,"wdir":90,"wspd":8,"visib":"6+","altim":1028,"clouds":[{"cover":"BKN","base":3500}],"obsTime":1780592400},"SBRB":{"icaoId":"SBRB","flightCategory":"VFR","rawOb":"METAR SBRB 041700Z 08010KT 9999 SCT030 32/21 Q1016","temp":32,"dewp":21,"wdir":80,"wspd":10,"visib":"6+","altim":1016,"clouds":[{"cover":"SCT","base":3000}],"obsTime":1780592400},"SBRF":{"icaoId":"SBRF","flightCategory":"MVFR","rawOb":"METAR SBRF 041700Z 15018KT 9999 BKN023 28/23 Q1014","temp":28,"dewp":23,"wdir":150,"wspd":18,"visib":"6+","altim":1014,"clouds":[{"cover":"BKN","base":2300}],"obsTime":1780592400},"SBBR":{"icaoId":"SBBR","flightCategory":"VFR","rawOb":"METAR SBBR 041700Z 13010KT CAVOK 24/12 Q1024","temp":24,"dewp":12,"wdir":130,"wspd":10,"visib":"6+","altim":1024,"clouds":[],"obsTime":1780592400},"SBSG":{"icaoId":"SBSG","flightCategory":"MVFR","rawOb":"METAR SBSG 041700Z 12010KT 100V170 9999 BKN030 30/23 Q1013","temp":30,"dewp":23,"wdir":120,"wspd":10,"visib":"6+","altim":1013,"clouds":[{"cover":"BKN","base":3000}],"obsTime":1780592400},"SBCB":{"icaoId":"SBCB","flightCategory":"VFR","rawOb":"METAR SBCB 041700Z 17006KT 9999 FEW015 BKN050 23/15 Q1026","temp":23,"dewp":15,"wdir":170,"wspd":6,"visib":"6+","altim":1026,"clouds":[{"cover":"FEW","base":1500},{"cover":"BKN","base":5000}],"obsTime":1780592400},"SBCT":{"icaoId":"SBCT","flightCategory":"IFR","rawOb":"METAR SBCT 041700Z 07009KT 040V100 9000 BKN009 BKN015 17/15 Q1029","temp":17,"dewp":15,"wdir":70,"wspd":9,"visib":5.59,"altim":1029,"clouds":[{"cover":"BKN","base":900},{"cover":"BKN","base":1500}],"obsTime":1780592400},"SBSL":{"icaoId":"SBSL","flightCategory":"MVFR","rawOb":"METAR SBSL 041700Z 02007KT 9999 VCSH BKN025 FEW027TCU SCT070 27/25 Q1012","temp":27,"dewp":25,"wdir":20,"wspd":7,"visib":"6+","altim":1012,"clouds":[{"cover":"BKN","base":2500},{"cover":"FEW","base":2700},{"cover":"SCT","base":7000}],"obsTime":1780592400},"SBCF":{"icaoId":"SBCF","flightCategory":"VFR","rawOb":"METAR SBCF 041700Z 10009KT 9999 BKN040 23/12 Q1015","temp":23,"dewp":12,"wdir":100,"wspd":9,"visib":"6+","altim":1015,"clouds":[{"cover":"BKN","base":4000}],"obsTime":1780592400},"SBSN":{"icaoId":"SBSN","flightCategory":"VFR","rawOb":"METAR SBSN 041700Z 07011KT 9999 FEW023 FEW040TCU SCT100 30/25 Q1013","temp":30,"dewp":25,"wdir":70,"wspd":11,"visib":"6+","altim":1013,"clouds":[{"cover":"FEW","base":2300},{"cover":"FEW","base":4000},{"cover":"SCT","base":10000}],"obsTime":1780592400},"SBEG":{"icaoId":"SBEG","flightCategory":"MVFR","rawOb":"METAR SBEG 041700Z 11010KT 5000 -RA SCT020 BKN035 FEW040TCU 30/24 Q1013","temp":30,"dewp":24,"wdir":110,"wspd":10,"visib":3.11,"altim":1013,"clouds":[{"cover":"SCT","base":2000},{"cover":"BKN","base":3500},{"cover":"FEW","base":4000}],"obsTime":1780592400},"SBSP":{"icaoId":"SBSP","flightCategory":"VFR","rawOb":"METAR SBSP 041700Z 14009KT 9999 BKN035 20/14 Q1029","temp":20,"dewp":14,"wdir":140,"wspd":9,"visib":"6+","altim":1029,"clouds":[{"cover":"BKN","base":3500}],"obsTime":1780592400},"SBKP":{"icaoId":"SBKP","flightCategory":"VFR","rawOb":"METAR SBKP 041700Z 11006KT 9999 FEW040 23/13 Q1026","temp":23,"dewp":13,"wdir":110,"wspd":6,"visib":"6+","altim":1026,"clouds":[{"cover":"FEW","base":4000}],"obsTime":1780592400},"SBSV":{"icaoId":"SBSV","flightCategory":"MVFR","rawOb":"METAR SBSV 041700Z 16011KT 9000 VCSH FEW017 BKN024 FEW025TCU BKN070 28/22 Q1018","temp":28,"dewp":22,"wdir":160,"wspd":11,"visib":5.59,"altim":1018,"clouds":[{"cover":"FEW","base":1700},{"cover":"BKN","base":2400},{"cover":"FEW","base":2500},{"cover":"BKN","base":7000}],"obsTime":1780592400},"SBLO":{"icaoId":"SBLO","flightCategory":"VFR","rawOb":"METAR SBLO 041700Z 11008KT CAVOK 23/15 Q1025","temp":23,"dewp":15,"wdir":110,"wspd":8,"visib":"6+","altim":1025,"clouds":[],"obsTime":1780592400},"SBTE":{"icaoId":"SBTE","flightCategory":"MVFR","rawOb":"METAR SBTE 041700Z 12009KT 9999 BKN020 33/21 Q1012","temp":33,"dewp":21,"wdir":120,"wspd":9,"visib":"6+","altim":1012,"clouds":[{"cover":"BKN","base":2000}],"obsTime":1780592400},"SBBE":{"icaoId":"SBBE","flightCategory":"VFR","rawOb":"METAR SBBE 041700Z 11006KT 9999 SCT035 32/24 Q1012","temp":32,"dewp":24,"wdir":110,"wspd":6,"visib":"6+","altim":1012,"clouds":[{"cover":"SCT","base":3500}],"obsTime":1780592400},"SBCG":{"icaoId":"SBCG","flightCategory":"VFR","rawOb":"METAR SBCG 041700Z 03009KT 360V060 CAVOK 28/12 Q1021","temp":28,"dewp":12,"wdir":30,"wspd":9,"visib":"6+","altim":1021,"clouds":[],"obsTime":1780592400},"SBUL":{"icaoId":"SBUL","flightCategory":"VFR","rawOb":"METAR SBUL 041700Z 15007KT 090V180 9999 SCT049 24/12 Q1025","temp":24,"dewp":12,"wdir":150,"wspd":7,"visib":"6+","altim":1025,"clouds":[{"cover":"SCT","base":4900}],"obsTime":1780592400},"SBUR":{"icaoId":"SBUR","flightCategory":"VFR","rawOb":"METAR SBUR 041700Z 13008KT CAVOK 26/12 Q1024","temp":26,"dewp":12,"wdir":130,"wspd":8,"visib":"6+","altim":1024,"clouds":[],"obsTime":1780592400},"SBCZ":{"icaoId":"SBCZ","flightCategory":"VFR","rawOb":"METAR SBCZ 041700Z 14009KT 9999 SCT030 30/23 Q1016","temp":30,"dewp":23,"wdir":140,"wspd":9,"visib":"6+","altim":1016,"clouds":[{"cover":"SCT","base":3000}],"obsTime":1780592400},"SBHT":{"icaoId":"SBHT","flightCategory":"MVFR","rawOb":"METAR SBHT 041700Z 13005KT 9999 BKN025 31/24 Q1013","temp":31,"dewp":24,"wdir":130,"wspd":5,"visib":"6+","altim":1013,"clouds":[{"cover":"BKN","base":2500}],"obsTime":1780592400},"SBIL":{"icaoId":"SBIL","flightCategory":"VFR","rawOb":"METAR SBIL 041700Z 19011KT 160V230 9999 SCT020 28/22 Q1019","temp":28,"dewp":22,"wdir":190,"wspd":11,"visib":"6+","altim":1019,"clouds":[{"cover":"SCT","base":2000}],"obsTime":1780592400},"SBJU":{"icaoId":"SBJU","flightCategory":"VFR","rawOb":"METAR SBJU 041700Z 18008KT 9999 SCT022 28/20 Q1017","temp":28,"dewp":20,"wdir":180,"wspd":8,"visib":"6+","altim":1017,"clouds":[{"cover":"SCT","base":2200}],"obsTime":1780592400},"SBME":{"icaoId":"SBME","flightCategory":"VFR","rawOb":"METAR SBME 041700Z 14009KT 9999 SCT035 BKN080 24/16 Q1025","temp":24,"dewp":16,"wdir":140,"wspd":9,"visib":"6+","altim":1025,"clouds":[{"cover":"SCT","base":3500},{"cover":"BKN","base":8000}],"obsTime":1780592400},"SBMG":{"icaoId":"SBMG","flightCategory":"VFR","rawOb":"METAR SBMG 041700Z 09009KT 050V110 CAVOK 24/14 Q1024","temp":24,"dewp":14,"wdir":90,"wspd":9,"visib":"6+","altim":1024,"clouds":[],"obsTime":1780592400},"SBMK":{"icaoId":"SBMK","flightCategory":"VFR","rawOb":"METAR SBMK 041700Z 09007KT 9999 FEW035 27/12 Q1022","temp":27,"dewp":12,"wdir":90,"wspd":7,"visib":"6+","altim":1022,"clouds":[{"cover":"FEW","base":3500}],"obsTime":1780592400},"SBAT":{"icaoId":"SBAT","flightCategory":"VFR","rawOb":"METAR SBAT 041700Z 12009KT 9999 SCT030 34/20 Q1015","temp":34,"dewp":20,"wdir":120,"wspd":9,"visib":"6+","altim":1015,"clouds":[{"cover":"SCT","base":3000}],"obsTime":1780592400},"SBNT":{"icaoId":"SBNT","flightCategory":"VFR","rawOb":"METAR SBNT 041700Z 13016KT 9999 FEW028 30/23 Q1013","temp":30,"dewp":23,"wdir":130,"wspd":16,"visib":"6+","altim":1013,"clouds":[{"cover":"FEW","base":2800}],"obsTime":1780592400},"SBSJ":{"icaoId":"SBSJ","flightCategory":"VFR","rawOb":"METAR SBSJ 041700Z 16008KT 9999 BKN033 21/14 Q1027","temp":21,"dewp":14,"wdir":160,"wspd":8,"visib":"6+","altim":1027,"clouds":[{"cover":"BKN","base":3300}],"obsTime":1780592400},"SBPL":{"icaoId":"SBPL","flightCategory":"MVFR","rawOb":"METAR SBPL 041700Z 12012KT 9999 BKN030 31/18 Q1016","temp":31,"dewp":18,"wdir":120,"wspd":12,"visib":"6+","altim":1016,"clouds":[{"cover":"BKN","base":3000}],"obsTime":1780592400},"SBOI":{"icaoId":"SBOI","flightCategory":"VFR","rawOb":"METAR SBOI 041700Z AUTO 01006KT 350V050 9999 FEW023 BKN031 31/26 Q1013","temp":31,"dewp":26,"wdir":10,"wspd":6,"visib":"6+","altim":1013,"clouds":[{"cover":"FEW","base":2300},{"cover":"BKN","base":3100}],"obsTime":1780592400},"SBPP":{"icaoId":"SBPP","flightCategory":"VFR","rawOb":"METAR SBPP 041700Z 05010KT CAVOK 22/14 Q1022","temp":22,"dewp":14,"wdir":50,"wspd":10,"visib":"6+","altim":1022,"clouds":[],"obsTime":1780592400},"SBTF":{"icaoId":"SBTF","flightCategory":"VFR","rawOb":"METAR SBTF 041700Z 15013KT 9999 SCT012 SCT090 27/24 Q1014","temp":27,"dewp":24,"wdir":150,"wspd":13,"visib":"6+","altim":1014,"clouds":[{"cover":"SCT","base":1200},{"cover":"SCT","base":9000}],"obsTime":1780592400},"SBTT":{"icaoId":"SBTT","flightCategory":"VFR","rawOb":"METAR SBTT 041700Z 19008KT 9999 FEW025 30/22 Q1015","temp":30,"dewp":22,"wdir":190,"wspd":8,"visib":"6+","altim":1015,"clouds":[{"cover":"FEW","base":2500}],"obsTime":1780592400},"SBPB":{"icaoId":"SBPB","flightCategory":"VFR","rawOb":"METAR SBPB 041700Z 04008KT 9999 FEW020 31/26 Q1012","temp":31,"dewp":26,"wdir":40,"wspd":8,"visib":"6+","altim":1012,"clouds":[{"cover":"FEW","base":2000}],"obsTime":1780592400},"SBPS":{"icaoId":"SBPS","flightCategory":"MVFR","rawOb":"METAR SBPS 041700Z VRB06KT 9999 BKN025 27/20 Q1020","temp":27,"dewp":20,"wdir":"VRB","wspd":6,"visib":"6+","altim":1020,"clouds":[{"cover":"BKN","base":2500}],"obsTime":1780592400},"SBCJ":{"icaoId":"SBCJ","flightCategory":"VFR","rawOb":"METAR SBCJ 041700Z 14010KT 9999 SCT023 29/20 Q1018","temp":29,"dewp":20,"wdir":140,"wspd":10,"visib":"6+","altim":1018,"clouds":[{"cover":"SCT","base":2300}],"obsTime":1780592400},"SBUY":{"icaoId":"SBUY","flightCategory":"VFR","rawOb":"METAR SBUY 041700Z 13006KT 9999 SCT025 BKN100 28/22 Q1014","temp":28,"dewp":22,"wdir":130,"wspd":6,"visib":"6+","altim":1014,"clouds":[{"cover":"SCT","base":2500},{"cover":"BKN","base":10000}],"obsTime":1780592400},"SBAR":{"icaoId":"SBAR","flightCategory":"MVFR","rawOb":"METAR SBAR 041700Z 17009KT 6000 -SHRA FEW011 BKN023 FEW025TCU BKN050 25/23 Q1016","temp":25,"dewp":23,"wdir":170,"wspd":9,"visib":3.73,"altim":1016,"clouds":[{"cover":"FEW","base":1100},{"cover":"BKN","base":2300},{"cover":"FEW","base":2500},{"cover":"BKN","base":5000}],"obsTime":1780592400},"SBES":{"icaoId":"SBES","flightCategory":"VFR","rawOb":"METAR SBES 041700Z 15008KT 080V180 9999 VCSH FEW020 BKN050 22/// Q1026","temp":null,"dewp":null,"wdir":150,"wspd":8,"visib":"6+","altim":1026,"clouds":[{"cover":"FEW","base":2000},{"cover":"BKN","base":5000}],"obsTime":1780592400},"SBGM":{"icaoId":"SBGM","flightCategory":"VFR","rawOb":"METAR SBGM 041700Z VRB05KT CAVOK 32/07 Q1016","temp":32,"dewp":7,"wdir":"VRB","wspd":5,"visib":"6+","altim":1016,"clouds":[],"obsTime":1780592400},"SBIP":{"icaoId":"SBIP","flightCategory":"VFR","rawOb":"METAR SBIP 041700Z AUTO VRB03KT CAVOK 27/16 Q1023","temp":27,"dewp":16,"wdir":"VRB","wspd":3,"visib":"6+","altim":1023,"clouds":[],"obsTime":1780592400},"SBKG":{"icaoId":"SBKG","flightCategory":"IFR","rawOb":"METAR SBKG 041700Z 09007KT 7000 -RA SCT005 BKN008 BKN070 23/22 Q1017","temp":23,"dewp":22,"wdir":90,"wspd":7,"visib":4.35,"altim":1017,"clouds":[{"cover":"SCT","base":500},{"cover":"BKN","base":800},{"cover":"BKN","base":7000}],"obsTime":1780592400},"SBSC":{"icaoId":"SBSC","flightCategory":"IFR","rawOb":"METAR SBSC 041700Z 36002KT 3000 -RA BR BKN010 BKN020 OVC030 20/19 Q1026","temp":20,"dewp":19,"wdir":360,"wspd":2,"visib":1.86,"altim":1026,"clouds":[{"cover":"BKN","base":1000},{"cover":"BKN","base":2000},{"cover":"OVC","base":3000}],"obsTime":1780592400},"SBSM":{"icaoId":"SBSM","flightCategory":"VFR","rawOb":"METAR SBSM 041700Z 10003KT 040V170 CAVOK 22/15 Q1025","temp":22,"dewp":15,"wdir":100,"wspd":3,"visib":"6+","altim":1025,"clouds":[],"obsTime":1780592400},"SBSR":{"icaoId":"SBSR","flightCategory":"VFR","rawOb":"METAR SBSR 041700Z 08006KT 9999 FEW040 28/10 Q1023","temp":28,"dewp":10,"wdir":80,"wspd":6,"visib":"6+","altim":1023,"clouds":[{"cover":"FEW","base":4000}],"obsTime":1780592400},"SBTU":{"icaoId":"SBTU","flightCategory":"VFR","rawOb":"METAR SBTU 041700Z AUTO 30006KT 9999 // FEW029/// SCT067/// ///// Q1014","temp":null,"dewp":null,"wdir":300,"wspd":6,"visib":"6+","altim":1014,"clouds":[{"cover":"FEW","base":2900},{"cover":"SCT","base":6700}],"obsTime":1780592400},"SBVH":{"icaoId":"SBVH","flightCategory":"VFR","rawOb":"METAR SBVH 041700Z 11009KT CAVOK 29/18 Q1019","temp":29,"dewp":18,"wdir":110,"wspd":9,"visib":"6+","altim":1019,"clouds":[],"obsTime":1780592400},"SBAU":{"icaoId":"SBAU","flightCategory":"VFR","rawOb":"METAR SBAU 041700Z 09008KT CAVOK 28/15 Q1022","temp":28,"dewp":15,"wdir":90,"wspd":8,"visib":"6+","altim":1022,"clouds":[],"obsTime":1780592400},"SBAX":{"icaoId":"SBAX","flightCategory":"VFR","rawOb":"METAR SBAX 041700Z AUTO 09006KT 040V140 9999 FEW046 24/11 Q1025","temp":24,"dewp":11,"wdir":90,"wspd":6,"visib":"6+","altim":1025,"clouds":[{"cover":"FEW","base":4600}],"obsTime":1780592400},"SBBH":{"icaoId":"SBBH","flightCategory":"VFR","rawOb":"METAR SBBH 041700Z 08004KT 9999 BKN040 24/13 Q1025","temp":24,"dewp":13,"wdir":80,"wspd":4,"visib":"6+","altim":1025,"clouds":[{"cover":"BKN","base":4000}],"obsTime":1780592400},"SBBQ":{"icaoId":"SBBQ","flightCategory":"VFR","rawOb":"METAR SBBQ 041700Z VRB06KT 9999 BKN035 18/12 Q1030","temp":18,"dewp":12,"wdir":"VRB","wspd":6,"visib":"6+","altim":1030,"clouds":[{"cover":"BKN","base":3500}],"obsTime":1780592400},"SBBU":{"icaoId":"SBBU","flightCategory":"VFR","rawOb":"METAR SBBU 041700Z 10009KT CAVOK 25/14 Q1025","temp":25,"dewp":14,"wdir":100,"wspd":9,"visib":"6+","altim":1025,"clouds":[],"obsTime":1780592400},"SBCA":{"icaoId":"SBCA","flightCategory":"VFR","rawOb":"METAR SBCA 041700Z 07005G15KT CAVOK 22/13 Q1025","temp":22,"dewp":13,"wdir":70,"wspd":5,"visib":"6+","altim":1025,"clouds":[],"obsTime":1780592400},"SBCC":{"icaoId":"SBCC","flightCategory":"MVFR","rawOb":"METAR SBCC 041700Z 07013KT 9999 BKN020 SCT100 32/19 Q1016","temp":32,"dewp":19,"wdir":70,"wspd":13,"visib":"6+","altim":1016,"clouds":[{"cover":"BKN","base":2000},{"cover":"SCT","base":10000}],"obsTime":1780592400},"SBCO":{"icaoId":"SBCO","flightCategory":"VFR","rawOb":"METAR SBCO 041700Z 10006KT 060V140 9999 FEW030 23/14 Q1025","temp":23,"dewp":14,"wdir":100,"wspd":6,"visib":"6+","altim":1025,"clouds":[{"cover":"FEW","base":3000}],"obsTime":1780592400},"SBDN":{"icaoId":"SBDN","flightCategory":"VFR","rawOb":"METAR SBDN 041700Z 09008KT CAVOK 27/15 Q1023","temp":27,"dewp":15,"wdir":90,"wspd":8,"visib":"6+","altim":1023,"clouds":[],"obsTime":1780592400},"SBJP":{"icaoId":"SBJP","flightCategory":"MVFR","rawOb":"SPECI SBJP 041617Z 13014KT 5000 -RA SCT015 BKN040 OVC080 25/24 Q1015 RERA","temp":25,"dewp":24,"wdir":130,"wspd":14,"visib":3.11,"altim":1015,"clouds":[{"cover":"SCT","base":1500},{"cover":"BKN","base":4000},{"cover":"OVC","base":8000}],"obsTime":1780589820},"SBLE":{"icaoId":"SBLE","flightCategory":"VFR","rawOb":"METAR SBLE 041700Z AUTO 13006KT 100V160 9999 FEW033 OVC046 23/19 Q1021","temp":23,"dewp":19,"wdir":130,"wspd":6,"visib":"6+","altim":1021,"clouds":[{"cover":"FEW","base":3300},{"cover":"OVC","base":4600}],"obsTime":1780592400},"SBJV":{"icaoId":"SBJV","flightCategory":"MVFR","rawOb":"METAR SBJV 041700Z 10003KT 9999 BKN012 BKN025 21/19 Q1027","temp":21,"dewp":19,"wdir":100,"wspd":3,"visib":"6+","altim":1027,"clouds":[{"cover":"BKN","base":1200},{"cover":"BKN","base":2500}],"obsTime":1780592400},"SBNM":{"icaoId":"SBNM","flightCategory":"VFR","rawOb":"METAR SBNM 041700Z 03004KT CAVOK 23/13 Q1024","temp":23,"dewp":13,"wdir":30,"wspd":4,"visib":"6+","altim":1024,"clouds":[],"obsTime":1780592400},"SBAF":{"icaoId":"SBAF","flightCategory":"VFR","rawOb":"METAR SBAF 041700Z 25002KT 9999 FEW018 SCT030 BKN070 21/21 Q0102","temp":21,"dewp":21,"wdir":250,"wspd":2,"visib":"6+","altim":102,"clouds":[{"cover":"FEW","base":1800},{"cover":"SCT","base":3000},{"cover":"BKN","base":7000}],"obsTime":1780592400},"SBGW":{"icaoId":"SBGW","flightCategory":"VFR","rawOb":"METAR SBGW 041700Z 01003KT 320V060 9999 SCT045 BKN050 22/11 Q1027","temp":22,"dewp":11,"wdir":10,"wspd":3,"visib":"6+","altim":1027,"clouds":[{"cover":"SCT","base":4500},{"cover":"BKN","base":5000}],"obsTime":1780592400},"SBJR":{"icaoId":"SBJR","flightCategory":"VFR","rawOb":"METAR SBJR 041700Z 07004KT 9999 VCSH FEW013 SCT030 BKN080 24/17 Q1026","temp":24,"dewp":17,"wdir":70,"wspd":4,"visib":"6+","altim":1026,"clouds":[{"cover":"FEW","base":1300},{"cover":"SCT","base":3000},{"cover":"BKN","base":8000}],"obsTime":1780592400},"SBLS":{"icaoId":"SBLS","flightCategory":"VFR","rawOb":"METAR SBLS 041700Z 11007KT 9999 SCT035 24/13 Q1026","temp":24,"dewp":13,"wdir":110,"wspd":7,"visib":"6+","altim":1026,"clouds":[{"cover":"SCT","base":3500}],"obsTime":1780592400},"SBMT":{"icaoId":"SBMT","flightCategory":"VFR","rawOb":"METAR SBMT 041700Z 13009KT 080V160 9999 BKN040 21/12 Q1027","temp":21,"dewp":12,"wdir":130,"wspd":9,"visib":"6+","altim":1027,"clouds":[{"cover":"BKN","base":4000}],"obsTime":1780592400},"SBST":{"icaoId":"SBST","flightCategory":"MVFR","rawOb":"METAR SBST 041700Z 13007KT 9999 BKN024 22/17 Q1026","temp":22,"dewp":17,"wdir":130,"wspd":7,"visib":"6+","altim":1026,"clouds":[{"cover":"BKN","base":2400}],"obsTime":1780592400},"SBTA":{"icaoId":"SBTA","flightCategory":"VFR","rawOb":"METAR SBTA 041700Z 11004KT 070V160 9999 SCT035 OVC050 22/14 Q1026","temp":22,"dewp":14,"wdir":110,"wspd":4,"visib":"6+","altim":1026,"clouds":[{"cover":"SCT","base":3500},{"cover":"OVC","base":5000}],"obsTime":1780592400},"SBIH":{"icaoId":"SBIH","flightCategory":"VFR","rawOb":"METAR SBIH 041700Z 07007KT 9999 SCT020 31/25 Q1012","temp":31,"dewp":25,"wdir":70,"wspd":7,"visib":"6+","altim":1012,"clouds":[{"cover":"SCT","base":2000}],"obsTime":1780592400},"SBAN":{"icaoId":"SBAN","flightCategory":"VFR","rawOb":"METAR SBAN 041700Z 09013KT CAVOK 25/09 Q1025","temp":25,"dewp":9,"wdir":90,"wspd":13,"visib":"6+","altim":1025,"clouds":[],"obsTime":1780592400}}}