{"updated":1776983477,"count":81,"data":{"SBLO":{"icaoId":"SBLO","flightCategory":"VFR","rawOb":"METAR SBLO 232100Z 10005KT CAVOK 27/12 Q1016","temp":27,"dewp":12,"wdir":100,"wspd":5,"visib":"6+","altim":1016,"clouds":[],"obsTime":1776978000},"SBMA":{"icaoId":"SBMA","flightCategory":"VFR","rawOb":"METAR SBMA 232100Z 34001KT 9999 FEW020 FEW025TCU SCT080 26/24 Q1009","temp":26,"dewp":24,"wdir":340,"wspd":1,"visib":"6+","altim":1009,"clouds":[{"cover":"FEW","base":2000},{"cover":"FEW","base":2500},{"cover":"SCT","base":8000}],"obsTime":1776978000},"SBME":{"icaoId":"SBME","flightCategory":"VFR","rawOb":"METAR SBME 232100Z 18002KT CAVOK 24/20 Q1017","temp":24,"dewp":20,"wdir":180,"wspd":2,"visib":"6+","altim":1017,"clouds":[],"obsTime":1776978000},"SBCP":{"icaoId":"SBCP","flightCategory":"VFR","rawOb":"METAR SBCP 232100Z 16006KT CAVOK 24/19 Q1017","temp":24,"dewp":19,"wdir":160,"wspd":6,"visib":"6+","altim":1017,"clouds":[],"obsTime":1776978000},"SBFL":{"icaoId":"SBFL","flightCategory":"VFR","rawOb":"METAR SBFL 232100Z 11007KT 9999 FEW030 24/21 Q1018","temp":24,"dewp":21,"wdir":110,"wspd":7,"visib":"6+","altim":1018,"clouds":[{"cover":"FEW","base":3000}],"obsTime":1776978000},"SBMG":{"icaoId":"SBMG","flightCategory":"VFR","rawOb":"METAR SBMG 232100Z 08008KT CAVOK 27/10 Q1015","temp":27,"dewp":10,"wdir":80,"wspd":8,"visib":"6+","altim":1015,"clouds":[],"obsTime":1776978000},"SBMK":{"icaoId":"SBMK","flightCategory":"VFR","rawOb":"METAR SBMK 232100Z 07006KT CAVOK 26/16 Q1016","temp":26,"dewp":16,"wdir":70,"wspd":6,"visib":"6+","altim":1016,"clouds":[],"obsTime":1776978000},"SBFZ":{"icaoId":"SBFZ","flightCategory":"VFR","rawOb":"METAR SBFZ 232100Z 10010KT 9999 FEW018 28/24 Q1009","temp":28,"dewp":24,"wdir":100,"wspd":10,"visib":"6+","altim":1009,"clouds":[{"cover":"FEW","base":1800}],"obsTime":1776978000},"SBBV":{"icaoId":"SBBV","flightCategory":"VFR","rawOb":"METAR SBBV 232100Z 16004KT 9999 FEW025 FEW030TCU 31/20 Q1009","temp":31,"dewp":20,"wdir":160,"wspd":4,"visib":"6+","altim":1009,"clouds":[{"cover":"FEW","base":2500},{"cover":"FEW","base":3000}],"obsTime":1776978000},"SBMO":{"icaoId":"SBMO","flightCategory":"VFR","rawOb":"METAR SBMO 232100Z 14006KT 9999 SCT020 BKN070 27/24 Q1012","temp":27,"dewp":24,"wdir":140,"wspd":6,"visib":"6+","altim":1012,"clouds":[{"cover":"SCT","base":2000},{"cover":"BKN","base":7000}],"obsTime":1776978000},"SBCF":{"icaoId":"SBCF","flightCategory":"VFR","rawOb":"METAR SBCF 232100Z 12010KT 9999 FEW036 23/15 Q1019","temp":23,"dewp":15,"wdir":120,"wspd":10,"visib":"6+","altim":1019,"clouds":[{"cover":"FEW","base":3600}],"obsTime":1776978000},"SBMQ":{"icaoId":"SBMQ","flightCategory":"VFR","rawOb":"METAR SBMQ 232100Z 07004KT 9999 FEW023 28/25 Q1009","temp":28,"dewp":25,"wdir":70,"wspd":4,"visib":"6+","altim":1009,"clouds":[{"cover":"FEW","base":2300}],"obsTime":1776978000},"SBGL":{"icaoId":"SBGL","flightCategory":"VFR","rawOb":"METAR SBGL 232100Z 14010KT 9999 FEW043 25/19 Q1016","temp":25,"dewp":19,"wdir":140,"wspd":10,"visib":"6+","altim":1016,"clouds":[{"cover":"FEW","base":4300}],"obsTime":1776978000},"SBNT":{"icaoId":"SBNT","flightCategory":"VFR","rawOb":"METAR SBNT 232100Z 13006KT 9999 VCSH FEW024 FEW029TCU SCT050 BKN100 27/25 Q1010","temp":27,"dewp":25,"wdir":130,"wspd":6,"visib":"6+","altim":1010,"clouds":[{"cover":"FEW","base":2400},{"cover":"FEW","base":2900},{"cover":"SCT","base":5000},{"cover":"BKN","base":10000}],"obsTime":1776978000},"SBPA":{"icaoId":"SBPA","flightCategory":"MVFR","rawOb":"METAR SBPA 232100Z 13010KT 100V160 9999 BKN015 OVC023 22/18 Q1018","temp":22,"dewp":18,"wdir":130,"wspd":10,"visib":"6+","altim":1018,"clouds":[{"cover":"BKN","base":1500},{"cover":"OVC","base":2300}],"obsTime":1776978000},"SBCT":{"icaoId":"SBCT","flightCategory":"VFR","rawOb":"METAR SBCT 232100Z 10005KT 9999 FEW015 18/15 Q1021","temp":18,"dewp":15,"wdir":100,"wspd":5,"visib":"6+","altim":1021,"clouds":[{"cover":"FEW","base":1500}],"obsTime":1776978000},"SBGO":{"icaoId":"SBGO","flightCategory":"VFR","rawOb":"METAR SBGO 232100Z 11008KT 9999 FEW045 28/18 Q1015","temp":28,"dewp":18,"wdir":110,"wspd":8,"visib":"6+","altim":1015,"clouds":[{"cover":"FEW","base":4500}],"obsTime":1776978000},"SBPJ":{"icaoId":"SBPJ","flightCategory":"VFR","rawOb":"METAR SBPJ 232100Z 14002KT 9999 FEW040 31/23 Q1010","temp":31,"dewp":23,"wdir":140,"wspd":2,"visib":"6+","altim":1010,"clouds":[{"cover":"FEW","base":4000}],"obsTime":1776978000},"SBPV":{"icaoId":"SBPV","flightCategory":"VFR","rawOb":"METAR SBPV 232100Z VRB02KT 9999 SCT025 FEW030TCU SCT060 26/24 Q1007","temp":26,"dewp":24,"wdir":"VRB","wspd":2,"visib":"6+","altim":1007,"clouds":[{"cover":"SCT","base":2500},{"cover":"FEW","base":3000},{"cover":"SCT","base":6000}],"obsTime":1776978000},"SBCZ":{"icaoId":"SBCZ","flightCategory":"MVFR","rawOb":"METAR SBCZ 232100Z 12012KT 8000 VCSH BKN030 FEW040TCU 29/25 Q1007","temp":29,"dewp":25,"wdir":120,"wspd":12,"visib":4.97,"altim":1007,"clouds":[{"cover":"BKN","base":3000},{"cover":"FEW","base":4000}],"obsTime":1776978000},"SBGR":{"icaoId":"SBGR","flightCategory":"VFR","rawOb":"METAR SBGR 232100Z 16007KT 9999 SCT020 21/18 Q1020","temp":21,"dewp":18,"wdir":160,"wspd":7,"visib":"6+","altim":1020,"clouds":[{"cover":"SCT","base":2000}],"obsTime":1776978000},"SBRB":{"icaoId":"SBRB","flightCategory":"VFR","rawOb":"METAR SBRB 232100Z 14006KT 9999 FEW008 SCT025 FEW030TCU BKN100 25/24 Q1008 RESHRA","temp":25,"dewp":24,"wdir":140,"wspd":6,"visib":"6+","altim":1008,"clouds":[{"cover":"FEW","base":800},{"cover":"SCT","base":2500},{"cover":"FEW","base":3000},{"cover":"BKN","base":10000}],"obsTime":1776978000},"SBTE":{"icaoId":"SBTE","flightCategory":"VFR","rawOb":"METAR SBTE 232100Z 19005KT 9999 FEW025 FEW030TCU BKN080 28/24 Q1008","temp":28,"dewp":24,"wdir":190,"wspd":5,"visib":"6+","altim":1008,"clouds":[{"cover":"FEW","base":2500},{"cover":"FEW","base":3000},{"cover":"BKN","base":8000}],"obsTime":1776978000},"SBBR":{"icaoId":"SBBR","flightCategory":"VFR","rawOb":"METAR SBBR 232100Z 14007KT CAVOK 25/14 Q1018","temp":25,"dewp":14,"wdir":140,"wspd":7,"visib":"6+","altim":1018,"clouds":[],"obsTime":1776978000},"SBFI":{"icaoId":"SBFI","flightCategory":"VFR","rawOb":"METAR SBFI 232100Z 07004KT 9999 FEW040 SCT100 28/23 Q1013","temp":28,"dewp":23,"wdir":70,"wspd":4,"visib":"6+","altim":1013,"clouds":[{"cover":"FEW","base":4000},{"cover":"SCT","base":10000}],"obsTime":1776978000},"SBUR":{"icaoId":"SBUR","flightCategory":"VFR","rawOb":"METAR SBUR 232100Z 04004KT CAVOK 29/15 Q1017","temp":29,"dewp":15,"wdir":40,"wspd":4,"visib":"6+","altim":1017,"clouds":[],"obsTime":1776978000},"SBCG":{"icaoId":"SBCG","flightCategory":"VFR","rawOb":"METAR SBCG 232100Z 12007KT CAVOK 27/14 Q1014","temp":27,"dewp":14,"wdir":120,"wspd":7,"visib":"6+","altim":1014,"clouds":[],"obsTime":1776978000},"SBRF":{"icaoId":"SBRF","flightCategory":"LIFR","rawOb":"SPECI SBRF 232032Z 06009KT 1500 R36/P2000 R18/P2000 RA BR BKN010 BKN017 BKN050 25/24 Q1010 RERA","temp":25,"dewp":24,"wdir":60,"wspd":9,"visib":0.93,"altim":1010,"clouds":[{"cover":"BKN","base":1000},{"cover":"BKN","base":1700},{"cover":"BKN","base":5000}],"obsTime":1776976320},"SBIL":{"icaoId":"SBIL","flightCategory":"VFR","rawOb":"METAR SBIL 232100Z 23007KT 9999 FEW012 SCT016 BKN070 25/24 Q1015","temp":25,"dewp":24,"wdir":230,"wspd":7,"visib":"6+","altim":1015,"clouds":[{"cover":"FEW","base":1200},{"cover":"SCT","base":1600},{"cover":"BKN","base":7000}],"obsTime":1776978000},"SBSG":{"icaoId":"SBSG","flightCategory":"VFR","rawOb":"METAR SBSG 232100Z 13003KT 9999 VCSH FEW030 FEW035TCU SCT050 26/25 Q1011","temp":26,"dewp":25,"wdir":130,"wspd":3,"visib":"6+","altim":1011,"clouds":[{"cover":"FEW","base":3000},{"cover":"FEW","base":3500},{"cover":"SCT","base":5000}],"obsTime":1776978000},"SBSL":{"icaoId":"SBSL","flightCategory":"MVFR","rawOb":"METAR SBSL 232100Z 05006KT 8000 -RA SCT020 FEW025TCU BKN035 26/24 Q1009","temp":26,"dewp":24,"wdir":50,"wspd":6,"visib":4.97,"altim":1009,"clouds":[{"cover":"SCT","base":2000},{"cover":"FEW","base":2500},{"cover":"BKN","base":3500}],"obsTime":1776978000},"SBVT":{"icaoId":"SBVT","flightCategory":"VFR","rawOb":"METAR SBVT 232100Z 17006KT 9999 FEW025 25/20 Q1017","temp":25,"dewp":20,"wdir":170,"wspd":6,"visib":"6+","altim":1017,"clouds":[{"cover":"FEW","base":2500}],"obsTime":1776978000},"SBJU":{"icaoId":"SBJU","flightCategory":"VFR","rawOb":"METAR SBJU 232100Z 00000KT 9999 SCT022 28/23 Q1011","temp":28,"dewp":23,"wdir":0,"wspd":0,"visib":"6+","altim":1011,"clouds":[{"cover":"SCT","base":2200}],"obsTime":1776978000},"SBSN":{"icaoId":"SBSN","flightCategory":"VFR","rawOb":"METAR SBSN 232100Z 17002KT 9999 VCSH FEW010 FEW025TCU OVC100 25/24 Q1011","temp":25,"dewp":24,"wdir":170,"wspd":2,"visib":"6+","altim":1011,"clouds":[{"cover":"FEW","base":1000},{"cover":"FEW","base":2500},{"cover":"OVC","base":10000}],"obsTime":1776978000},"SBSP":{"icaoId":"SBSP","flightCategory":"MVFR","rawOb":"SPECI SBSP 232035Z 16012KT 9999 BKN013 20/17 Q1021","temp":20,"dewp":17,"wdir":160,"wspd":12,"visib":"6+","altim":1021,"clouds":[{"cover":"BKN","base":1300}],"obsTime":1776976500},"SBEG":{"icaoId":"SBEG","flightCategory":"VFR","rawOb":"SPECI SBEG 232044Z 16006KT 9999 3000SW TSRA SCT025 FEW030CB BKN100 25/24 Q1009 RESHRA","temp":25,"dewp":24,"wdir":160,"wspd":6,"visib":"6+","altim":1009,"clouds":[{"cover":"SCT","base":2500},{"cover":"FEW","base":3000},{"cover":"BKN","base":10000}],"obsTime":1776977040},"SBUL":{"icaoId":"SBUL","flightCategory":"VFR","rawOb":"METAR SBUL 232100Z 06006KT 9999 FEW047 SCT070 25/17 Q1018","temp":25,"dewp":17,"wdir":60,"wspd":6,"visib":"6+","altim":1018,"clouds":[{"cover":"FEW","base":4700},{"cover":"SCT","base":7000}],"obsTime":1776978000},"SBBE":{"icaoId":"SBBE","flightCategory":"VFR","rawOb":"METAR SBBE 232100Z 15004KT 9999 SCT025 SCT050 BKN100 25/24 Q1009","temp":25,"dewp":24,"wdir":150,"wspd":4,"visib":"6+","altim":1009,"clouds":[{"cover":"SCT","base":2500},{"cover":"SCT","base":5000},{"cover":"BKN","base":10000}],"obsTime":1776978000},"SBSV":{"icaoId":"SBSV","flightCategory":"VFR","rawOb":"METAR SBSV 232100Z 12008KT 080V160 9999 SCT023 BKN070 28/23 Q1013","temp":28,"dewp":23,"wdir":120,"wspd":8,"visib":"6+","altim":1013,"clouds":[{"cover":"SCT","base":2300},{"cover":"BKN","base":7000}],"obsTime":1776978000},"SBKP":{"icaoId":"SBKP","flightCategory":"VFR","rawOb":"METAR SBKP 232100Z 15010KT CAVOK 27/16 Q1017","temp":27,"dewp":16,"wdir":150,"wspd":10,"visib":"6+","altim":1017,"clouds":[],"obsTime":1776978000},"SBCB":{"icaoId":"SBCB","flightCategory":"VFR","rawOb":"METAR SBCB 232100Z 12003KT CAVOK 24/21 Q1017","temp":24,"dewp":21,"wdir":120,"wspd":3,"visib":"6+","altim":1017,"clouds":[],"obsTime":1776978000},"SBCR":{"icaoId":"SBCR","flightCategory":"VFR","rawOb":"METAR SBCR 232100Z 14005KT CAVOK 32/17 Q1011","temp":32,"dewp":17,"wdir":140,"wspd":5,"visib":"6+","altim":1011,"clouds":[],"obsTime":1776978000},"SBHT":{"icaoId":"SBHT","flightCategory":"MVFR","rawOb":"METAR SBHT 232100Z 29003KT 9999 BKN020 24/24 Q1011 RETSRA","temp":24,"dewp":24,"wdir":290,"wspd":3,"visib":"6+","altim":1011,"clouds":[{"cover":"BKN","base":2000}],"obsTime":1776978000},"SBAT":{"icaoId":"SBAT","flightCategory":"VFR","rawOb":"METAR SBAT 232100Z 00000KT 9999 FEW035 31/24 Q1010","temp":31,"dewp":24,"wdir":0,"wspd":0,"visib":"6+","altim":1010,"clouds":[{"cover":"FEW","base":3500}],"obsTime":1776978000},"SBPL":{"icaoId":"SBPL","flightCategory":"VFR","rawOb":"METAR SBPL 232100Z 04004KT 9999 VCSH SCT020 FEW030TCU 27/24 Q1011 RETS","temp":27,"dewp":24,"wdir":40,"wspd":4,"visib":"6+","altim":1011,"clouds":[{"cover":"SCT","base":2000},{"cover":"FEW","base":3000}],"obsTime":1776978000},"SBOI":{"icaoId":"SBOI","flightCategory":"IFR","rawOb":"METAR SBOI 232100Z AUTO 28003KT 3000 +RA FEW005 OVC018 24/24 Q1011","temp":24,"dewp":24,"wdir":280,"wspd":3,"visib":1.86,"altim":1011,"clouds":[{"cover":"FEW","base":500},{"cover":"OVC","base":1800}],"obsTime":1776978000},"SBBU":{"icaoId":"SBBU","flightCategory":"VFR","rawOb":"METAR SBBU 232100Z 11007KT CAVOK 27/17 Q1016","temp":27,"dewp":17,"wdir":110,"wspd":7,"visib":"6+","altim":1016,"clouds":[],"obsTime":1776978000},"SBPS":{"icaoId":"SBPS","flightCategory":"VFR","rawOb":"METAR SBPS 232100Z 16005KT 9999 FEW020 BKN060 24/22 Q1015","temp":24,"dewp":22,"wdir":160,"wspd":5,"visib":"6+","altim":1015,"clouds":[{"cover":"FEW","base":2000},{"cover":"BKN","base":6000}],"obsTime":1776978000},"SBSC":{"icaoId":"SBSC","flightCategory":"VFR","rawOb":"METAR SBSC 232100Z 16006KT 9999 FEW025 25/18 Q1017","temp":25,"dewp":18,"wdir":160,"wspd":6,"visib":"6+","altim":1017,"clouds":[{"cover":"FEW","base":2500}],"obsTime":1776978000},"SBCA":{"icaoId":"SBCA","flightCategory":"VFR","rawOb":"METAR SBCA 232100Z 01006KT 9999 FEW030 26/17 Q1018","temp":26,"dewp":17,"wdir":10,"wspd":6,"visib":"6+","altim":1018,"clouds":[{"cover":"FEW","base":3000}],"obsTime":1776978000},"SBSJ":{"icaoId":"SBSJ","flightCategory":"VFR","rawOb":"METAR SBSJ 232100Z 12013KT 9999 BKN048 21/17 Q1019","temp":21,"dewp":17,"wdir":120,"wspd":13,"visib":"6+","altim":1019,"clouds":[{"cover":"BKN","base":4800}],"obsTime":1776978000},"SBIP":{"icaoId":"SBIP","flightCategory":"VFR","rawOb":"METAR SBIP 232100Z AUTO 22004KT CAVOK 21/19 Q1016","temp":21,"dewp":19,"wdir":220,"wspd":4,"visib":"6+","altim":1016,"clouds":[],"obsTime":1776978000},"SBSM":{"icaoId":"SBSM","flightCategory":"MVFR","rawOb":"METAR SBSM 232100Z 19004KT 080V250 9999 OVC013 20/19 Q1018","temp":20,"dewp":19,"wdir":190,"wspd":4,"visib":"6+","altim":1018,"clouds":[{"cover":"OVC","base":1300}],"obsTime":1776978000},"SBBH":{"icaoId":"SBBH","flightCategory":"VFR","rawOb":"METAR SBBH 232100Z 10008KT CAVOK 24/17 Q1019","temp":24,"dewp":17,"wdir":100,"wspd":8,"visib":"6+","altim":1019,"clouds":[],"obsTime":1776978000},"SBSR":{"icaoId":"SBSR","flightCategory":"VFR","rawOb":"METAR SBSR 232100Z 00000KT 9999 FEW030 30/13 Q1015","temp":30,"dewp":13,"wdir":0,"wspd":0,"visib":"6+","altim":1015,"clouds":[{"cover":"FEW","base":3000}],"obsTime":1776978000},"SBKG":{"icaoId":"SBKG","flightCategory":"VFR","rawOb":"METAR SBKG 232100Z 10010KT 9999 FEW020 25/22 Q1013","temp":25,"dewp":22,"wdir":100,"wspd":10,"visib":"6+","altim":1013,"clouds":[{"cover":"FEW","base":2000}],"obsTime":1776978000},"SBAR":{"icaoId":"SBAR","flightCategory":"VFR","rawOb":"METAR SBAR 232100Z 10007KT 9999 FEW024 BKN050 28/24 Q1011","temp":28,"dewp":24,"wdir":100,"wspd":7,"visib":"6+","altim":1011,"clouds":[{"cover":"FEW","base":2400},{"cover":"BKN","base":5000}],"obsTime":1776978000},"SBTF":{"icaoId":"SBTF","flightCategory":"VFR","rawOb":"METAR SBTF 232100Z 07005KT 9999 FEW021 FEW030TCU 31/25 Q1007","temp":31,"dewp":25,"wdir":70,"wspd":5,"visib":"6+","altim":1007,"clouds":[{"cover":"FEW","base":2100},{"cover":"FEW","base":3000}],"obsTime":1776978000},"SBTT":{"icaoId":"SBTT","flightCategory":"VFR","rawOb":"METAR SBTT 232100Z COR 13002KT 9999 FEW030 SCT070 29/23 Q1007","temp":29,"dewp":23,"wdir":130,"wspd":2,"visib":"6+","altim":1007,"clouds":[{"cover":"FEW","base":3000},{"cover":"SCT","base":7000}],"obsTime":1776978000},"SBUY":{"icaoId":"SBUY","flightCategory":"VFR","rawOb":"METAR SBUY 232100Z 14005KT 9999 SCT030 SCT080 28/23 Q1006","temp":28,"dewp":23,"wdir":140,"wspd":5,"visib":"6+","altim":1006,"clouds":[{"cover":"SCT","base":3000},{"cover":"SCT","base":8000}],"obsTime":1776978000},"SBVH":{"icaoId":"SBVH","flightCategory":"VFR","rawOb":"METAR SBVH 232100Z 07004KT 9999 FEW040 26/23 Q1012","temp":26,"dewp":23,"wdir":70,"wspd":4,"visib":"6+","altim":1012,"clouds":[{"cover":"FEW","base":4000}],"obsTime":1776978000},"SBAX":{"icaoId":"SBAX","flightCategory":"VFR","rawOb":"METAR SBAX 232100Z 11008KT CAVOK 24/15 Q1019","temp":24,"dewp":15,"wdir":110,"wspd":8,"visib":"6+","altim":1019,"clouds":[],"obsTime":1776978000},"SBCO":{"icaoId":"SBCO","flightCategory":"MVFR","rawOb":"METAR SBCO 232100Z 12012KT 9999 FEW012 OVC017 21/18 Q1018","temp":21,"dewp":18,"wdir":120,"wspd":12,"visib":"6+","altim":1018,"clouds":[{"cover":"FEW","base":1200},{"cover":"OVC","base":1700}],"obsTime":1776978000},"SBDN":{"icaoId":"SBDN","flightCategory":"VFR","rawOb":"METAR SBDN 232100Z 09004KT CAVOK 29/12 Q1015","temp":29,"dewp":12,"wdir":90,"wspd":4,"visib":"6+","altim":1015,"clouds":[],"obsTime":1776978000},"SBPB":{"icaoId":"SBPB","flightCategory":"VFR","rawOb":"METAR SBPB 232100Z 05008KT 9999 FEW016 FEW025TCU SCT080 29/25 Q1009","temp":29,"dewp":25,"wdir":50,"wspd":8,"visib":"6+","altim":1009,"clouds":[{"cover":"FEW","base":1600},{"cover":"FEW","base":2500},{"cover":"SCT","base":8000}],"obsTime":1776978000},"SBCJ":{"icaoId":"SBCJ","flightCategory":"VFR","rawOb":"METAR SBCJ 232100Z 00000KT 9999 SCT020 23/22 Q1014","temp":23,"dewp":22,"wdir":0,"wspd":0,"visib":"6+","altim":1014,"clouds":[{"cover":"SCT","base":2000}],"obsTime":1776978000},"SBES":{"icaoId":"SBES","flightCategory":"VFR","rawOb":"METAR SBES 232100Z 08003KT 040V110 CAVOK 22/// Q1017","temp":null,"dewp":null,"wdir":80,"wspd":3,"visib":"6+","altim":1017,"clouds":[],"obsTime":1776978000},"SBPP":{"icaoId":"SBPP","flightCategory":"VFR","rawOb":"METAR SBPP 232100Z 03004KT CAVOK 26/18 Q1016","temp":26,"dewp":18,"wdir":30,"wspd":4,"visib":"6+","altim":1016,"clouds":[],"obsTime":1776978000},"SBJP":{"icaoId":"SBJP","flightCategory":"VFR","rawOb":"METAR SBJP 232100Z 07006KT 020V120 9999 SCT020 BKN070 25/24 Q1011","temp":25,"dewp":24,"wdir":70,"wspd":6,"visib":"6+","altim":1011,"clouds":[{"cover":"SCT","base":2000},{"cover":"BKN","base":7000}],"obsTime":1776978000},"SBAN":{"icaoId":"SBAN","flightCategory":"VFR","rawOb":"METAR SBAN 232100Z 18008KT CAVOK 24/16 Q1018","temp":24,"dewp":16,"wdir":180,"wspd":8,"visib":"6+","altim":1018,"clouds":[],"obsTime":1776978000},"SBLE":{"icaoId":"SBLE","flightCategory":"VFR","rawOb":"METAR SBLE 232100Z AUTO 13005KT 100V160 9999 BKN042 25/21 Q1015","temp":25,"dewp":21,"wdir":130,"wspd":5,"visib":"6+","altim":1015,"clouds":[{"cover":"BKN","base":4200}],"obsTime":1776978000},"SBAF":{"icaoId":"SBAF","flightCategory":"VFR","rawOb":"METAR SBAF 232100Z 20006KT 9999 FEW040 25/18 Q1017","temp":25,"dewp":18,"wdir":200,"wspd":6,"visib":"6+","altim":1017,"clouds":[{"cover":"FEW","base":4000}],"obsTime":1776978000},"SBGW":{"icaoId":"SBGW","flightCategory":"VFR","rawOb":"METAR SBGW 232100Z 36004KT 9999 FEW045 23/15 Q1018","temp":23,"dewp":15,"wdir":360,"wspd":4,"visib":"6+","altim":1018,"clouds":[{"cover":"FEW","base":4500}],"obsTime":1776978000},"SBJR":{"icaoId":"SBJR","flightCategory":"VFR","rawOb":"METAR SBJR 232100Z 12008KT CAVOK 26/18 Q1016","temp":26,"dewp":18,"wdir":120,"wspd":8,"visib":"6+","altim":1016,"clouds":[],"obsTime":1776978000},"SBLS":{"icaoId":"SBLS","flightCategory":"VFR","rawOb":"METAR SBLS 232100Z 13009KT 9999 FEW035 23/16 Q1019","temp":23,"dewp":16,"wdir":130,"wspd":9,"visib":"6+","altim":1019,"clouds":[{"cover":"FEW","base":3500}],"obsTime":1776978000},"SBMT":{"icaoId":"SBMT","flightCategory":"MVFR","rawOb":"METAR SBMT 232100Z 14007KT 9999 BKN020 21/17 Q1019","temp":21,"dewp":17,"wdir":140,"wspd":7,"visib":"6+","altim":1019,"clouds":[{"cover":"BKN","base":2000}],"obsTime":1776978000},"SBTA":{"icaoId":"SBTA","flightCategory":"VFR","rawOb":"METAR SBTA 232100Z 17009KT 9999 SCT040 23/17 Q1018","temp":23,"dewp":17,"wdir":170,"wspd":9,"visib":"6+","altim":1018,"clouds":[{"cover":"SCT","base":4000}],"obsTime":1776978000},"SBJV":{"icaoId":"SBJV","flightCategory":"VFR","rawOb":"METAR SBJV 232100Z 09003KT CAVOK 24/18 Q1017","temp":24,"dewp":18,"wdir":90,"wspd":3,"visib":"6+","altim":1017,"clouds":[],"obsTime":1776978000},"SBPF":{"icaoId":"SBPF","flightCategory":"VFR","rawOb":"METAR SBPF 232100Z 14010KT 9000 NSC 20/19 Q1019","temp":20,"dewp":19,"wdir":140,"wspd":10,"visib":5.59,"altim":1019,"clouds":[],"obsTime":1776978000},"SBIH":{"icaoId":"SBIH","flightCategory":"VFR","rawOb":"METAR SBIH 232100Z 36002KT 9999 SCT015 BKN080 26/24 Q1009","temp":26,"dewp":24,"wdir":360,"wspd":2,"visib":"6+","altim":1009,"clouds":[{"cover":"SCT","base":1500},{"cover":"BKN","base":8000}],"obsTime":1776978000},"SBST":{"icaoId":"SBST","flightCategory":"MVFR","rawOb":"METAR SBST 232100Z 15003KT 9999 BKN024 23/18 Q1017","temp":23,"dewp":18,"wdir":150,"wspd":3,"visib":"6+","altim":1017,"clouds":[{"cover":"BKN","base":2400}],"obsTime":1776978000}}}