{"updated":1774678447,"count":53,"data":{"SBMG":{"icaoId":"SBMG","flightCategory":"VFR","rawOb":"METAR SBMG 280500Z AUTO 07009KT CAVOK 25/21 Q1017","temp":25,"dewp":21,"wdir":70,"wspd":9,"visib":"6+","altim":1017,"clouds":[],"obsTime":1774674000},"SBFZ":{"icaoId":"SBFZ","flightCategory":"MVFR","rawOb":"METAR SBFZ 280500Z 10005G18KT 070V130 6000 RA BKN020 25/24 Q1009","temp":25,"dewp":24,"wdir":100,"wspd":5,"visib":3.73,"altim":1009,"clouds":[{"cover":"BKN","base":2000}],"obsTime":1774674000},"SBMK":{"icaoId":"SBMK","flightCategory":"VFR","rawOb":"METAR SBMK 280500Z 13002KT CAVOK 21/18 Q1018","temp":21,"dewp":18,"wdir":130,"wspd":2,"visib":"6+","altim":1018,"clouds":[],"obsTime":1774674000},"SBGL":{"icaoId":"SBGL","flightCategory":"VFR","rawOb":"METAR SBGL 280500Z 10004KT CAVOK 24/21 Q1017","temp":24,"dewp":21,"wdir":100,"wspd":4,"visib":"6+","altim":1017,"clouds":[],"obsTime":1774674000},"SBBE":{"icaoId":"SBBE","flightCategory":"VFR","rawOb":"METAR SBBE 280500Z 06004KT CAVOK 26/25 Q1009","temp":26,"dewp":25,"wdir":60,"wspd":4,"visib":"6+","altim":1009,"clouds":[],"obsTime":1774674000},"SBMO":{"icaoId":"SBMO","flightCategory":"MVFR","rawOb":"SPECI SBMO 280433Z 01004KT 330V050 9999 +RA FEW004 BKN021 23/23 Q1011","temp":23,"dewp":23,"wdir":10,"wspd":4,"visib":"6+","altim":1011,"clouds":[{"cover":"FEW","base":400},{"cover":"BKN","base":2100}],"obsTime":1774672380},"SBMQ":{"icaoId":"SBMQ","flightCategory":"VFR","rawOb":"METAR SBMQ 280500Z 36004KT 9999 FEW021 27/25 Q1009","temp":27,"dewp":25,"wdir":360,"wspd":4,"visib":"6+","altim":1009,"clouds":[{"cover":"FEW","base":2100}],"obsTime":1774674000},"SBCT":{"icaoId":"SBCT","flightCategory":"MVFR","rawOb":"METAR SBCT 280500Z 06004KT 9999 BKN017 20/19 Q1022","temp":20,"dewp":19,"wdir":60,"wspd":4,"visib":"6+","altim":1022,"clouds":[{"cover":"BKN","base":1700}],"obsTime":1774674000},"SBGO":{"icaoId":"SBGO","flightCategory":"VFR","rawOb":"METAR SBGO 280500Z 10006KT CAVOK 22/18 Q1017","temp":22,"dewp":18,"wdir":100,"wspd":6,"visib":"6+","altim":1017,"clouds":[],"obsTime":1774674000},"SBNT":{"icaoId":"SBNT","flightCategory":"VFR","rawOb":"METAR SBNT 280500Z 18003KT 9999 SCT020 25/23 Q1010","temp":25,"dewp":23,"wdir":180,"wspd":3,"visib":"6+","altim":1010,"clouds":[{"cover":"SCT","base":2000}],"obsTime":1774674000},"SBBR":{"icaoId":"SBBR","flightCategory":"VFR","rawOb":"METAR SBBR 280500Z 13006KT CAVOK 19/17 Q1019","temp":19,"dewp":17,"wdir":130,"wspd":6,"visib":"6+","altim":1019,"clouds":[],"obsTime":1774674000},"SBPA":{"icaoId":"SBPA","flightCategory":"VFR","rawOb":"METAR SBPA 280500Z 06004KT CAVOK 25/23 Q1015","temp":25,"dewp":23,"wdir":60,"wspd":4,"visib":"6+","altim":1015,"clouds":[],"obsTime":1774674000},"SBUR":{"icaoId":"SBUR","flightCategory":"VFR","rawOb":"METAR SBUR 280500Z 06005KT CAVOK 23/16 Q1019","temp":23,"dewp":16,"wdir":60,"wspd":5,"visib":"6+","altim":1019,"clouds":[],"obsTime":1774674000},"SBME":{"icaoId":"SBME","flightCategory":"VFR","rawOb":"METAR SBME 280500Z 32004KT 9999 SCT020 23/22 Q1017","temp":23,"dewp":22,"wdir":320,"wspd":4,"visib":"6+","altim":1017,"clouds":[{"cover":"SCT","base":2000}],"obsTime":1774674000},"SBVT":{"icaoId":"SBVT","flightCategory":"MVFR","rawOb":"METAR SBVT 280500Z 25006KT 210V300 9000 -RA SCT010 BKN015 OVC040 22/22 Q1016 RETS","temp":22,"dewp":22,"wdir":250,"wspd":6,"visib":5.59,"altim":1016,"clouds":[{"cover":"SCT","base":1000},{"cover":"BKN","base":1500},{"cover":"OVC","base":4000}],"obsTime":1774674000},"SBCF":{"icaoId":"SBCF","flightCategory":"VFR","rawOb":"METAR SBCF 280500Z 20002KT 9999 FEW036 19/16 Q1021","temp":19,"dewp":16,"wdir":200,"wspd":2,"visib":"6+","altim":1021,"clouds":[{"cover":"FEW","base":3600}],"obsTime":1774674000},"SBPJ":{"icaoId":"SBPJ","flightCategory":"VFR","rawOb":"METAR SBPJ 280500Z 17003KT 9999 FEW027 25/21 Q1011","temp":25,"dewp":21,"wdir":170,"wspd":3,"visib":"6+","altim":1011,"clouds":[{"cover":"FEW","base":2700}],"obsTime":1774674000},"SBPV":{"icaoId":"SBPV","flightCategory":"VFR","rawOb":"METAR SBPV 280500Z 05002KT CAVOK 25/23 Q1010","temp":25,"dewp":23,"wdir":50,"wspd":2,"visib":"6+","altim":1010,"clouds":[],"obsTime":1774674000},"SBGR":{"icaoId":"SBGR","flightCategory":"VFR","rawOb":"METAR SBGR 280500Z 00000KT CAVOK 18/17 Q1021","temp":18,"dewp":17,"wdir":0,"wspd":0,"visib":"6+","altim":1021,"clouds":[],"obsTime":1774674000},"SBEG":{"icaoId":"SBEG","flightCategory":"VFR","rawOb":"METAR SBEG 280500Z 27007KT 9999 VCTS FEW007 SCT020 FEW035CB 26/25 Q1010","temp":26,"dewp":25,"wdir":270,"wspd":7,"visib":"6+","altim":1010,"clouds":[{"cover":"FEW","base":700},{"cover":"SCT","base":2000},{"cover":"FEW","base":3500}],"obsTime":1774674000},"SBJU":{"icaoId":"SBJU","flightCategory":"MVFR","rawOb":"METAR SBJU 280500Z 15005KT 9999 VCTS BKN020 FEW020CB 24/20 Q1013","temp":24,"dewp":20,"wdir":150,"wspd":5,"visib":"6+","altim":1013,"clouds":[{"cover":"BKN","base":2000},{"cover":"FEW","base":2000}],"obsTime":1774674000},"SBRF":{"icaoId":"SBRF","flightCategory":"IFR","rawOb":"METAR SBRF 280500Z 24004KT 210V300 9999 BKN007 FEW025TCU BKN100 25/24 Q1010","temp":25,"dewp":24,"wdir":240,"wspd":4,"visib":"6+","altim":1010,"clouds":[{"cover":"BKN","base":700},{"cover":"FEW","base":2500},{"cover":"BKN","base":10000}],"obsTime":1774674000},"SBSG":{"icaoId":"SBSG","flightCategory":"VFR","rawOb":"METAR SBSG 280500Z 20004KT 160V220 9999 SCT020 24/23 Q1010","temp":24,"dewp":23,"wdir":200,"wspd":4,"visib":"6+","altim":1010,"clouds":[{"cover":"SCT","base":2000}],"obsTime":1774674000},"SBCG":{"icaoId":"SBCG","flightCategory":"VFR","rawOb":"METAR SBCG 280500Z 33004KT CAVOK 22/21 Q1016","temp":22,"dewp":21,"wdir":330,"wspd":4,"visib":"6+","altim":1016,"clouds":[],"obsTime":1774674000},"SBSL":{"icaoId":"SBSL","flightCategory":"VFR","rawOb":"METAR SBSL 280500Z 12008KT 9999 FEW017 25/24 Q1009","temp":25,"dewp":24,"wdir":120,"wspd":8,"visib":"6+","altim":1009,"clouds":[{"cover":"FEW","base":1700}],"obsTime":1774674000},"SBFI":{"icaoId":"SBFI","flightCategory":"VFR","rawOb":"METAR SBFI 280500Z 13002KT CAVOK 25/24 Q1015","temp":25,"dewp":24,"wdir":130,"wspd":2,"visib":"6+","altim":1015,"clouds":[],"obsTime":1774674000},"SBKP":{"icaoId":"SBKP","flightCategory":"VFR","rawOb":"METAR SBKP 280500Z 12013KT CAVOK 21/18 Q1019","temp":21,"dewp":18,"wdir":120,"wspd":13,"visib":"6+","altim":1019,"clouds":[],"obsTime":1774674000},"SBSN":{"icaoId":"SBSN","flightCategory":"VFR","rawOb":"METAR SBSN 280500Z 16004KT 9999 TS FEW015 FEW023CB 25/24 Q1009","temp":25,"dewp":24,"wdir":160,"wspd":4,"visib":"6+","altim":1009,"clouds":[{"cover":"FEW","base":1500},{"cover":"FEW","base":2300}],"obsTime":1774674000},"SBLO":{"icaoId":"SBLO","flightCategory":"VFR","rawOb":"METAR SBLO 280500Z 13006KT CAVOK 24/21 Q1018","temp":24,"dewp":21,"wdir":130,"wspd":6,"visib":"6+","altim":1018,"clouds":[],"obsTime":1774674000},"SBSP":{"icaoId":"SBSP","flightCategory":"VFR","rawOb":"METAR SBSP 280500Z AUTO 10004KT 070V150 CAVOK 20/16 Q1022","temp":20,"dewp":16,"wdir":100,"wspd":4,"visib":"6+","altim":1022,"clouds":[],"obsTime":1774674000},"SBBV":{"icaoId":"SBBV","flightCategory":"IFR","rawOb":"METAR SBBV 280500Z 28006KT 8000 TSRA BKN009 SCT030 FEW035CB BKN100 24/24 Q1011","temp":24,"dewp":24,"wdir":280,"wspd":6,"visib":4.97,"altim":1011,"clouds":[{"cover":"BKN","base":900},{"cover":"SCT","base":3000},{"cover":"FEW","base":3500},{"cover":"BKN","base":10000}],"obsTime":1774674000},"SBSV":{"icaoId":"SBSV","flightCategory":"MVFR","rawOb":"METAR SBSV 280500Z 16006KT 130V200 9999 BKN019 27/24 Q1011","temp":27,"dewp":24,"wdir":160,"wspd":6,"visib":"6+","altim":1011,"clouds":[{"cover":"BKN","base":1900}],"obsTime":1774674000},"SBFL":{"icaoId":"SBFL","flightCategory":"VFR","rawOb":"METAR SBFL 280500Z 01005KT 9999 FEW035 26/23 Q1018","temp":26,"dewp":23,"wdir":10,"wspd":5,"visib":"6+","altim":1018,"clouds":[{"cover":"FEW","base":3500}],"obsTime":1774674000},"SBTE":{"icaoId":"SBTE","flightCategory":"VFR","rawOb":"METAR SBTE 280500Z 36003KT 9999 SCT015 OVC100 25/23 Q1009","temp":25,"dewp":23,"wdir":360,"wspd":3,"visib":"6+","altim":1009,"clouds":[{"cover":"SCT","base":1500},{"cover":"OVC","base":10000}],"obsTime":1774674000},"SBUL":{"icaoId":"SBUL","flightCategory":"VFR","rawOb":"METAR SBUL 280500Z 13005KT CAVOK 21/17 Q1020","temp":21,"dewp":17,"wdir":130,"wspd":5,"visib":"6+","altim":1020,"clouds":[],"obsTime":1774674000},"SBMA":{"icaoId":"SBMA","flightCategory":"VFR","rawOb":"METAR SBMA 280500Z 13002KT 9999 FEW015 SCT100 26/25 Q1009","temp":26,"dewp":25,"wdir":130,"wspd":2,"visib":"6+","altim":1009,"clouds":[{"cover":"FEW","base":1500},{"cover":"SCT","base":10000}],"obsTime":1774674000},"SBHT":{"icaoId":"SBHT","flightCategory":"VFR","rawOb":"METAR SBHT 280500Z 00000KT 9999 SCT013 24/23 Q1009","temp":24,"dewp":23,"wdir":0,"wspd":0,"visib":"6+","altim":1009,"clouds":[{"cover":"SCT","base":1300}],"obsTime":1774674000},"SBRB":{"icaoId":"SBRB","flightCategory":"VFR","rawOb":"METAR SBRB 280500Z 01003KT 9999 FEW020 SCT100 26/25 Q1011","temp":26,"dewp":25,"wdir":10,"wspd":3,"visib":"6+","altim":1011,"clouds":[{"cover":"FEW","base":2000},{"cover":"SCT","base":10000}],"obsTime":1774674000},"SBOI":{"icaoId":"SBOI","flightCategory":"VFR","rawOb":"SPECI SBOI 280509Z AUTO VRB01KT 9999 // VV002 24/24 Q1010","temp":24,"dewp":24,"wdir":"VRB","wspd":1,"visib":"6+","altim":1010,"clouds":[{"cover":"OVX","base":200}],"obsTime":1774674540},"SBAX":{"icaoId":"SBAX","flightCategory":"VFR","rawOb":"METAR SBAX 280500Z AUTO 13007KT CAVOK 19/18 Q1020","temp":19,"dewp":18,"wdir":130,"wspd":7,"visib":"6+","altim":1020,"clouds":[],"obsTime":1774674000},"SBPL":{"icaoId":"SBPL","flightCategory":"VFR","rawOb":"METAR SBPL 280500Z 06003KT CAVOK 23/22 Q1013","temp":23,"dewp":22,"wdir":60,"wspd":3,"visib":"6+","altim":1013,"clouds":[],"obsTime":1774674000},"SBIP":{"icaoId":"SBIP","flightCategory":"VFR","rawOb":"METAR SBIP 280500Z AUTO 35003KT CAVOK 21/21 Q1018","temp":21,"dewp":21,"wdir":350,"wspd":3,"visib":"6+","altim":1018,"clouds":[],"obsTime":1774674000},"SBPS":{"icaoId":"SBPS","flightCategory":"MVFR","rawOb":"METAR SBPS 280500Z 28003KT 7000 -TSRA BKN015 FEW020CB BKN070 23/23 Q1014","temp":23,"dewp":23,"wdir":280,"wspd":3,"visib":4.35,"altim":1014,"clouds":[{"cover":"BKN","base":1500},{"cover":"FEW","base":2000},{"cover":"BKN","base":7000}],"obsTime":1774674000},"SBSC":{"icaoId":"SBSC","flightCategory":"VFR","rawOb":"METAR SBSC 280500Z 14004KT CAVOK 24/20 Q1018","temp":24,"dewp":20,"wdir":140,"wspd":4,"visib":"6+","altim":1018,"clouds":[],"obsTime":1774674000},"SBAR":{"icaoId":"SBAR","flightCategory":"VFR","rawOb":"METAR SBAR 280500Z 11009KT 9999 SCT022 28/24 Q1011","temp":28,"dewp":24,"wdir":110,"wspd":9,"visib":"6+","altim":1011,"clouds":[{"cover":"SCT","base":2200}],"obsTime":1774674000},"SBKG":{"icaoId":"SBKG","flightCategory":"VFR","rawOb":"METAR SBKG 280500Z 14003KT 9999 SCT012 SCT070 22/21 Q1013","temp":22,"dewp":21,"wdir":140,"wspd":3,"visib":"6+","altim":1013,"clouds":[{"cover":"SCT","base":1200},{"cover":"SCT","base":7000}],"obsTime":1774674000},"SBSR":{"icaoId":"SBSR","flightCategory":"VFR","rawOb":"METAR SBSR 280500Z 13004KT CAVOK 25/17 Q1017","temp":25,"dewp":17,"wdir":130,"wspd":4,"visib":"6+","altim":1017,"clouds":[],"obsTime":1774674000},"SBDN":{"icaoId":"SBDN","flightCategory":"VFR","rawOb":"METAR SBDN 280500Z 11007KT CAVOK 24/18 Q1016","temp":24,"dewp":18,"wdir":110,"wspd":7,"visib":"6+","altim":1016,"clouds":[],"obsTime":1774674000},"SBSJ":{"icaoId":"SBSJ","flightCategory":"VFR","rawOb":"METAR SBSJ 280500Z 10004KT CAVOK 19/17 Q1021","temp":19,"dewp":17,"wdir":100,"wspd":4,"visib":"6+","altim":1021,"clouds":[],"obsTime":1774674000},"SBLE":{"icaoId":"SBLE","flightCategory":"MVFR","rawOb":"METAR SBLE 280500Z AUTO 15003KT 110V190 9999 FEW004 BKN016 OVC028 ///// Q////","temp":null,"dewp":null,"wdir":150,"wspd":3,"visib":"6+","altim":null,"clouds":[{"cover":"FEW","base":400},{"cover":"BKN","base":1600},{"cover":"OVC","base":2800}],"obsTime":1774674000},"SBAN":{"icaoId":"SBAN","flightCategory":"VFR","rawOb":"METAR SBAN 280500Z 14005KT CAVOK 19/17 Q1021","temp":19,"dewp":17,"wdir":140,"wspd":5,"visib":"6+","altim":1021,"clouds":[],"obsTime":1774674000},"SBJP":{"icaoId":"SBJP","flightCategory":"VFR","rawOb":"METAR SBJP 280500Z 21003KT 9999 FEW020 25/24 Q1010","temp":25,"dewp":24,"wdir":210,"wspd":3,"visib":"6+","altim":1010,"clouds":[{"cover":"FEW","base":2000}],"obsTime":1774674000},"SBPF":{"icaoId":"SBPF","flightCategory":"VFR","rawOb":"METAR SBPF 280500Z AUTO 07009KT 9999 NSC 22/19 Q1020","temp":22,"dewp":19,"wdir":70,"wspd":9,"visib":"6+","altim":1020,"clouds":[],"obsTime":1774674000}}}