{"updated":1781679342,"count":51,"data":{"SBSP":{"icaoId":"SBSP","flightCategory":"VFR","rawOb":"METAR SBSP 170500Z AUTO VRB01KT CAVOK 13/12 Q1022","temp":13,"dewp":12,"wdir":"VRB","wspd":1,"visib":"6+","altim":1022,"clouds":[],"obsTime":1781672400},"SBFZ":{"icaoId":"SBFZ","flightCategory":"MVFR","rawOb":"METAR SBFZ 170500Z 22003KT 9999 BKN020 BKN070 26/24 Q1013","temp":26,"dewp":24,"wdir":220,"wspd":3,"visib":"6+","altim":1013,"clouds":[{"cover":"BKN","base":2000},{"cover":"BKN","base":7000}],"obsTime":1781672400},"SBBR":{"icaoId":"SBBR","flightCategory":"VFR","rawOb":"METAR SBBR 170500Z 21005KT CAVOK 18/16 Q1021","temp":18,"dewp":16,"wdir":210,"wspd":5,"visib":"6+","altim":1021,"clouds":[],"obsTime":1781672400},"SBBV":{"icaoId":"SBBV","flightCategory":"MVFR","rawOb":"METAR SBBV 170500Z 08007KT 9999 BKN020 FEW030TCU BKN070 24/23 Q1015","temp":24,"dewp":23,"wdir":80,"wspd":7,"visib":"6+","altim":1015,"clouds":[{"cover":"BKN","base":2000},{"cover":"FEW","base":3000},{"cover":"BKN","base":7000}],"obsTime":1781672400},"SBCF":{"icaoId":"SBCF","flightCategory":"VFR","rawOb":"METAR SBCF 170500Z 15005KT CAVOK 16/14 Q1020","temp":16,"dewp":14,"wdir":150,"wspd":5,"visib":"6+","altim":1020,"clouds":[],"obsTime":1781672400},"SBCG":{"icaoId":"SBCG","flightCategory":"VFR","rawOb":"METAR SBCG 170500Z 13006KT CAVOK 17/16 Q1020","temp":17,"dewp":16,"wdir":130,"wspd":6,"visib":"6+","altim":1020,"clouds":[],"obsTime":1781672400},"SBCT":{"icaoId":"SBCT","flightCategory":"LIFR","rawOb":"METAR SBCT 170500Z 31002KT 5000 BR MIFG SCT001 OVC003 08/08 Q1022","temp":8,"dewp":8,"wdir":310,"wspd":2,"visib":3.11,"altim":1022,"clouds":[{"cover":"SCT","base":100},{"cover":"OVC","base":300}],"obsTime":1781672400},"SBEG":{"icaoId":"SBEG","flightCategory":"VFR","rawOb":"METAR SBEG 170500Z 00000KT 9999 VCTS FEW030CB 25/24 Q1013","temp":25,"dewp":24,"wdir":0,"wspd":0,"visib":"6+","altim":1013,"clouds":[{"cover":"FEW","base":3000}],"obsTime":1781672400},"SBFI":{"icaoId":"SBFI","flightCategory":"LIFR","rawOb":"METAR SBFI 170500Z 09002KT 0800 R15///// R33///// FG FEW001 06/06 Q1021","temp":6,"dewp":6,"wdir":90,"wspd":2,"visib":0.5,"altim":1021,"clouds":[{"cover":"FEW","base":100}],"obsTime":1781672400},"SBFL":{"icaoId":"SBFL","flightCategory":"VFR","rawOb":"METAR SBFL 170500Z 26005KT CAVOK 13/12 Q1020","temp":13,"dewp":12,"wdir":260,"wspd":5,"visib":"6+","altim":1020,"clouds":[],"obsTime":1781672400},"SBBE":{"icaoId":"SBBE","flightCategory":"VFR","rawOb":"METAR SBBE 170500Z 07004KT 9999 BKN035 FEW040TCU 25/24 Q1013","temp":25,"dewp":24,"wdir":70,"wspd":4,"visib":"6+","altim":1013,"clouds":[{"cover":"BKN","base":3500},{"cover":"FEW","base":4000}],"obsTime":1781672400},"SBGL":{"icaoId":"SBGL","flightCategory":"MVFR","rawOb":"METAR SBGL 170500Z 17004KT 6000 -RA SCT007 BKN013 OVC023 18/17 Q1019","temp":18,"dewp":17,"wdir":170,"wspd":4,"visib":3.73,"altim":1019,"clouds":[{"cover":"SCT","base":700},{"cover":"BKN","base":1300},{"cover":"OVC","base":2300}],"obsTime":1781672400},"SBGO":{"icaoId":"SBGO","flightCategory":"VFR","rawOb":"METAR SBGO 170500Z 15004KT CAVOK 19/18 Q1020","temp":19,"dewp":18,"wdir":150,"wspd":4,"visib":"6+","altim":1020,"clouds":[],"obsTime":1781672400},"SBGR":{"icaoId":"SBGR","flightCategory":"MVFR","rawOb":"METAR SBGR 170500Z 06003KT 9999 BKN020 14/12 Q1022","temp":14,"dewp":12,"wdir":60,"wspd":3,"visib":"6+","altim":1022,"clouds":[{"cover":"BKN","base":2000}],"obsTime":1781672400},"SBJU":{"icaoId":"SBJU","flightCategory":"VFR","rawOb":"METAR SBJU 170500Z 00000KT 9999 SCT020 23/21 Q1016","temp":23,"dewp":21,"wdir":0,"wspd":0,"visib":"6+","altim":1016,"clouds":[{"cover":"SCT","base":2000}],"obsTime":1781672400},"SBKP":{"icaoId":"SBKP","flightCategory":"MVFR","rawOb":"METAR SBKP 170500Z 11004KT 5000 BR NSC 13/12 Q1021","temp":13,"dewp":12,"wdir":110,"wspd":4,"visib":3.11,"altim":1021,"clouds":[],"obsTime":1781672400},"SBLO":{"icaoId":"SBLO","flightCategory":"VFR","rawOb":"METAR SBLO 170500Z 22003KT CAVOK 14/13 Q1021","temp":14,"dewp":13,"wdir":220,"wspd":3,"visib":"6+","altim":1021,"clouds":[],"obsTime":1781672400},"SBMA":{"icaoId":"SBMA","flightCategory":"VFR","rawOb":"METAR SBMA 170500Z 34003KT CAVOK 27/24 Q1013","temp":27,"dewp":24,"wdir":340,"wspd":3,"visib":"6+","altim":1013,"clouds":[],"obsTime":1781672400},"SBME":{"icaoId":"SBME","flightCategory":"MVFR","rawOb":"METAR SBME 170500Z 33003KT 9999 BKN020 OVC070 18/18 Q1019","temp":18,"dewp":18,"wdir":330,"wspd":3,"visib":"6+","altim":1019,"clouds":[{"cover":"BKN","base":2000},{"cover":"OVC","base":7000}],"obsTime":1781672400},"SBMG":{"icaoId":"SBMG","flightCategory":"VFR","rawOb":"METAR SBMG 170500Z AUTO 13008KT CAVOK 15/13 Q1020","temp":15,"dewp":13,"wdir":130,"wspd":8,"visib":"6+","altim":1020,"clouds":[],"obsTime":1781672400},"SBMO":{"icaoId":"SBMO","flightCategory":"VFR","rawOb":"METAR SBMO 170500Z 30003KT CAVOK 21/21 Q1015","temp":21,"dewp":21,"wdir":300,"wspd":3,"visib":"6+","altim":1015,"clouds":[],"obsTime":1781672400},"SBMQ":{"icaoId":"SBMQ","flightCategory":"VFR","rawOb":"METAR SBMQ 170500Z 31004KT CAVOK 25/24 Q1013","temp":25,"dewp":24,"wdir":310,"wspd":4,"visib":"6+","altim":1013,"clouds":[],"obsTime":1781672400},"SBNT":{"icaoId":"SBNT","flightCategory":"MVFR","rawOb":"METAR SBNT 170500Z 10004KT 070V140 5000 -RA BR SCT010 BKN013 FEW025TCU 24/23 Q1014","temp":24,"dewp":23,"wdir":100,"wspd":4,"visib":3.11,"altim":1014,"clouds":[{"cover":"SCT","base":1000},{"cover":"BKN","base":1300},{"cover":"FEW","base":2500}],"obsTime":1781672400},"SBPA":{"icaoId":"SBPA","flightCategory":"MVFR","rawOb":"METAR SBPA 170500Z 27004KT 8000 NSC 08/08 Q1021","temp":8,"dewp":8,"wdir":270,"wspd":4,"visib":4.97,"altim":1021,"clouds":[],"obsTime":1781672400},"SBPJ":{"icaoId":"SBPJ","flightCategory":"VFR","rawOb":"METAR SBPJ 170500Z 14004KT CAVOK 24/19 Q1013","temp":24,"dewp":19,"wdir":140,"wspd":4,"visib":"6+","altim":1013,"clouds":[],"obsTime":1781672400},"SBPV":{"icaoId":"SBPV","flightCategory":"MVFR","rawOb":"METAR SBPV 170500Z 20002KT 9999 BKN030 24/22 Q1013","temp":24,"dewp":22,"wdir":200,"wspd":2,"visib":"6+","altim":1013,"clouds":[{"cover":"BKN","base":3000}],"obsTime":1781672400},"SBRB":{"icaoId":"SBRB","flightCategory":"MVFR","rawOb":"METAR SBRB 170500Z 14003KT 8000 FEW005 BKN020 22/22 Q1016","temp":22,"dewp":22,"wdir":140,"wspd":3,"visib":4.97,"altim":1016,"clouds":[{"cover":"FEW","base":500},{"cover":"BKN","base":2000}],"obsTime":1781672400},"SBRF":{"icaoId":"SBRF","flightCategory":"VFR","rawOb":"METAR SBRF 170500Z VRB01KT 9999 FEW023 23/22 Q1014","temp":23,"dewp":22,"wdir":"VRB","wspd":1,"visib":"6+","altim":1014,"clouds":[{"cover":"FEW","base":2300}],"obsTime":1781672400},"SBSG":{"icaoId":"SBSG","flightCategory":"IFR","rawOb":"METAR SBSG 170500Z VRB02KT 9999 BKN005 BKN065 24/23 Q1014","temp":24,"dewp":23,"wdir":"VRB","wspd":2,"visib":"6+","altim":1014,"clouds":[{"cover":"BKN","base":500},{"cover":"BKN","base":6500}],"obsTime":1781672400},"SBSL":{"icaoId":"SBSL","flightCategory":"MVFR","rawOb":"METAR SBSL 170500Z 06010KT 7000 -RA SCT007 BKN025 26/24 Q1012","temp":26,"dewp":24,"wdir":60,"wspd":10,"visib":4.35,"altim":1012,"clouds":[{"cover":"SCT","base":700},{"cover":"BKN","base":2500}],"obsTime":1781672400},"SBSN":{"icaoId":"SBSN","flightCategory":"VFR","rawOb":"METAR SBSN 170500Z 00000KT CAVOK 25/24 Q1012","temp":25,"dewp":24,"wdir":0,"wspd":0,"visib":"6+","altim":1012,"clouds":[],"obsTime":1781672400},"SBSV":{"icaoId":"SBSV","flightCategory":"VFR","rawOb":"METAR SBSV 170500Z 01004KT 9999 FEW019 SCT050 23/22 Q1014","temp":23,"dewp":22,"wdir":10,"wspd":4,"visib":"6+","altim":1014,"clouds":[{"cover":"FEW","base":1900},{"cover":"SCT","base":5000}],"obsTime":1781672400},"SBTE":{"icaoId":"SBTE","flightCategory":"VFR","rawOb":"METAR SBTE 170500Z 02003KT 9999 FEW015 SCT070 26/23 Q1013","temp":26,"dewp":23,"wdir":20,"wspd":3,"visib":"6+","altim":1013,"clouds":[{"cover":"FEW","base":1500},{"cover":"SCT","base":7000}],"obsTime":1781672400},"SBUL":{"icaoId":"SBUL","flightCategory":"VFR","rawOb":"METAR SBUL 170500Z 20008KT CAVOK 15/13 Q1022","temp":15,"dewp":13,"wdir":200,"wspd":8,"visib":"6+","altim":1022,"clouds":[],"obsTime":1781672400},"SBUR":{"icaoId":"SBUR","flightCategory":"MVFR","rawOb":"METAR SBUR 170500Z 12003KT 8000 FEW010 SCT070 15/14 Q1021","temp":15,"dewp":14,"wdir":120,"wspd":3,"visib":4.97,"altim":1021,"clouds":[{"cover":"FEW","base":1000},{"cover":"SCT","base":7000}],"obsTime":1781672400},"SBVT":{"icaoId":"SBVT","flightCategory":"VFR","rawOb":"METAR SBVT 170500Z 22012KT 9999 SCT011 SCT020 20/19 Q1017","temp":20,"dewp":19,"wdir":220,"wspd":12,"visib":"6+","altim":1017,"clouds":[{"cover":"SCT","base":1100},{"cover":"SCT","base":2000}],"obsTime":1781672400},"SBTU":{"icaoId":"SBTU","flightCategory":"VFR","rawOb":"METAR SBTU 170500Z AUTO 19006KT 9999 // NCD ///// Q1015","temp":null,"dewp":null,"wdir":190,"wspd":6,"visib":"6+","altim":1015,"clouds":[],"obsTime":1781672400},"SBAX":{"icaoId":"SBAX","flightCategory":"VFR","rawOb":"METAR SBAX 170500Z AUTO 19007KT CAVOK 15/15 Q1021","temp":15,"dewp":15,"wdir":190,"wspd":7,"visib":"6+","altim":1021,"clouds":[],"obsTime":1781672400},"SBDN":{"icaoId":"SBDN","flightCategory":"VFR","rawOb":"METAR SBDN 170500Z 00000KT CAVOK 14/12 Q1020","temp":14,"dewp":12,"wdir":0,"wspd":0,"visib":"6+","altim":1020,"clouds":[],"obsTime":1781672400},"SBOI":{"icaoId":"SBOI","flightCategory":"IFR","rawOb":"METAR SBOI 170500Z AUTO 23004KT 200V260 2000 // VV002 23/23 Q1014","temp":23,"dewp":23,"wdir":230,"wspd":4,"visib":1.24,"altim":1014,"clouds":[{"cover":"OVX","base":200}],"obsTime":1781672400},"SBAR":{"icaoId":"SBAR","flightCategory":"VFR","rawOb":"METAR SBAR 170500Z 31002KT 9999 FEW020 22/22 Q1014","temp":22,"dewp":22,"wdir":310,"wspd":2,"visib":"6+","altim":1014,"clouds":[{"cover":"FEW","base":2000}],"obsTime":1781672400},"SBIP":{"icaoId":"SBIP","flightCategory":"VFR","rawOb":"METAR SBIP 170500Z AUTO 21005KT CAVOK 19/18 Q1017","temp":19,"dewp":18,"wdir":210,"wspd":5,"visib":"6+","altim":1017,"clouds":[],"obsTime":1781672400},"SBKG":{"icaoId":"SBKG","flightCategory":"VFR","rawOb":"METAR SBKG 170500Z 08004KT 9999 FEW008 20/20 Q1017","temp":20,"dewp":20,"wdir":80,"wspd":4,"visib":"6+","altim":1017,"clouds":[{"cover":"FEW","base":800}],"obsTime":1781672400},"SBPL":{"icaoId":"SBPL","flightCategory":"VFR","rawOb":"METAR SBPL 170500Z 11004KT CAVOK 25/20 Q1015","temp":25,"dewp":20,"wdir":110,"wspd":4,"visib":"6+","altim":1015,"clouds":[],"obsTime":1781672400},"SBPS":{"icaoId":"SBPS","flightCategory":"VFR","rawOb":"METAR SBPS 170500Z 35005KT 9999 SCT015 24/23 Q1014","temp":24,"dewp":23,"wdir":350,"wspd":5,"visib":"6+","altim":1014,"clouds":[{"cover":"SCT","base":1500}],"obsTime":1781672400},"SBSC":{"icaoId":"SBSC","flightCategory":"MVFR","rawOb":"METAR SBSC 170500Z 24003KT 6000 -RA FEW005 BKN012 OVC030 19/18 Q1019","temp":19,"dewp":18,"wdir":240,"wspd":3,"visib":3.73,"altim":1019,"clouds":[{"cover":"FEW","base":500},{"cover":"BKN","base":1200},{"cover":"OVC","base":3000}],"obsTime":1781672400},"SBSR":{"icaoId":"SBSR","flightCategory":"VFR","rawOb":"METAR SBSR 170500Z 00000KT 9999 FEW035 BKN070 15/14 Q1021","temp":15,"dewp":14,"wdir":0,"wspd":0,"visib":"6+","altim":1021,"clouds":[{"cover":"FEW","base":3500},{"cover":"BKN","base":7000}],"obsTime":1781672400},"SBNM":{"icaoId":"SBNM","flightCategory":"VFR","rawOb":"METAR SBNM 170500Z AUTO VRB01KT CAVOK 07/06 Q1022","temp":7,"dewp":6,"wdir":"VRB","wspd":1,"visib":"6+","altim":1022,"clouds":[],"obsTime":1781672400},"SBJP":{"icaoId":"SBJP","flightCategory":"VFR","rawOb":"METAR SBJP 170500Z 18004KT 9999 FEW020 22/22 Q1014","temp":22,"dewp":22,"wdir":180,"wspd":4,"visib":"6+","altim":1014,"clouds":[{"cover":"FEW","base":2000}],"obsTime":1781672400},"SBAN":{"icaoId":"SBAN","flightCategory":"VFR","rawOb":"METAR SBAN 170500Z 16007KT CAVOK 18/16 Q1023","temp":18,"dewp":16,"wdir":160,"wspd":7,"visib":"6+","altim":1023,"clouds":[],"obsTime":1781672400},"SBLE":{"icaoId":"SBLE","flightCategory":"VFR","rawOb":"METAR SBLE 170500Z AUTO 30003KT CAVOK ///// Q////","temp":null,"dewp":null,"wdir":300,"wspd":3,"visib":"6+","altim":null,"clouds":[],"obsTime":1781672400}}}