{"updated":1784493298,"count":87,"data":{"SBCG":{"icaoId":"SBCG","flightCategory":"VFR","rawOb":"METAR SBCG 191900Z 35018KT CAVOK 30/13 Q1010","temp":30,"dewp":13,"wdir":350,"wspd":18,"visib":"6+","altim":1010,"clouds":[],"obsTime":1784487600},"SBBE":{"icaoId":"SBBE","flightCategory":"VFR","rawOb":"METAR SBBE 191900Z 12009KT 9999 SCT040 BKN100 32/23 Q1009","temp":32,"dewp":23,"wdir":120,"wspd":9,"visib":"6+","altim":1009,"clouds":[{"cover":"SCT","base":4000},{"cover":"BKN","base":10000}],"obsTime":1784487600},"SBSV":{"icaoId":"SBSV","flightCategory":"VFR","rawOb":"METAR SBSV 191900Z 12010KT 090V150 9000 VCSH SCT025 FEW027TCU SCT030 BKN050 25/19 Q1016","temp":25,"dewp":19,"wdir":120,"wspd":10,"visib":5.59,"altim":1016,"clouds":[{"cover":"SCT","base":2500},{"cover":"FEW","base":2700},{"cover":"SCT","base":3000},{"cover":"BKN","base":5000}],"obsTime":1784487600},"SBBR":{"icaoId":"SBBR","flightCategory":"VFR","rawOb":"METAR SBBR 191900Z 05006KT 360V100 CAVOK 26/08 Q1018","temp":26,"dewp":8,"wdir":50,"wspd":6,"visib":"6+","altim":1018,"clouds":[],"obsTime":1784487600},"SBCZ":{"icaoId":"SBCZ","flightCategory":"MVFR","rawOb":"METAR SBCZ 191900Z 34006KT 280V030 9999 BKN030 32/23 Q1010","temp":32,"dewp":23,"wdir":340,"wspd":6,"visib":"6+","altim":1010,"clouds":[{"cover":"BKN","base":3000}],"obsTime":1784487600},"SBNT":{"icaoId":"SBNT","flightCategory":"VFR","rawOb":"METAR SBNT 191900Z 15015KT 9999 BKN040 BKN066 27/21 Q1012","temp":27,"dewp":21,"wdir":150,"wspd":15,"visib":"6+","altim":1012,"clouds":[{"cover":"BKN","base":4000},{"cover":"BKN","base":6600}],"obsTime":1784487600},"SBLO":{"icaoId":"SBLO","flightCategory":"VFR","rawOb":"METAR SBLO 191900Z 02009KT CAVOK 27/12 Q1014","temp":27,"dewp":12,"wdir":20,"wspd":9,"visib":"6+","altim":1014,"clouds":[],"obsTime":1784487600},"SBSP":{"icaoId":"SBSP","flightCategory":"VFR","rawOb":"METAR SBSP 191900Z 33013KT 300V360 CAVOK 24/08 Q1018","temp":24,"dewp":8,"wdir":330,"wspd":13,"visib":"6+","altim":1018,"clouds":[],"obsTime":1784487600},"SBCB":{"icaoId":"SBCB","flightCategory":"VFR","rawOb":"METAR SBCB 191900Z 09016KT CAVOK 24/19 Q1016","temp":24,"dewp":19,"wdir":90,"wspd":16,"visib":"6+","altim":1016,"clouds":[],"obsTime":1784487600},"SBMA":{"icaoId":"SBMA","flightCategory":"VFR","rawOb":"METAR SBMA 191900Z 06007KT 9999 SCT030 35/17 Q1009","temp":35,"dewp":17,"wdir":60,"wspd":7,"visib":"6+","altim":1009,"clouds":[{"cover":"SCT","base":3000}],"obsTime":1784487600},"SBPV":{"icaoId":"SBPV","flightCategory":"VFR","rawOb":"METAR SBPV 191900Z 34005KT 9999 SCT040 33/22 Q1009","temp":33,"dewp":22,"wdir":340,"wspd":5,"visib":"6+","altim":1009,"clouds":[{"cover":"SCT","base":4000}],"obsTime":1784487600},"SBSL":{"icaoId":"SBSL","flightCategory":"VFR","rawOb":"METAR SBSL 191900Z 05002KT 9999 SCT030 BKN060 30/21 Q1009","temp":30,"dewp":21,"wdir":50,"wspd":2,"visib":"6+","altim":1009,"clouds":[{"cover":"SCT","base":3000},{"cover":"BKN","base":6000}],"obsTime":1784487600},"SBMO":{"icaoId":"SBMO","flightCategory":"VFR","rawOb":"METAR SBMO 191900Z 09009KT 9999 VCSH SCT035 26/20 Q1014","temp":26,"dewp":20,"wdir":90,"wspd":9,"visib":"6+","altim":1014,"clouds":[{"cover":"SCT","base":3500}],"obsTime":1784487600},"SBBV":{"icaoId":"SBBV","flightCategory":"VFR","rawOb":"METAR SBBV 191900Z 13007KT 9999 BKN040 FEW045TCU 33/19 Q1009","temp":33,"dewp":19,"wdir":130,"wspd":7,"visib":"6+","altim":1009,"clouds":[{"cover":"BKN","base":4000},{"cover":"FEW","base":4500}],"obsTime":1784487600},"SBRB":{"icaoId":"SBRB","flightCategory":"VFR","rawOb":"METAR SBRB 191900Z 01009KT 9999 SCT030 33/24 Q1009","temp":33,"dewp":24,"wdir":10,"wspd":9,"visib":"6+","altim":1009,"clouds":[{"cover":"SCT","base":3000}],"obsTime":1784487600},"SBIL":{"icaoId":"SBIL","flightCategory":"VFR","rawOb":"METAR SBIL 191900Z 16007KT 120V190 9999 SCT025 26/21 Q1017","temp":26,"dewp":21,"wdir":160,"wspd":7,"visib":"6+","altim":1017,"clouds":[{"cover":"SCT","base":2500}],"obsTime":1784487600},"SBJU":{"icaoId":"SBJU","flightCategory":"VFR","rawOb":"METAR SBJU 191900Z 18008KT CAVOK 32/12 Q1013","temp":32,"dewp":12,"wdir":180,"wspd":8,"visib":"6+","altim":1013,"clouds":[],"obsTime":1784487600},"SBMG":{"icaoId":"SBMG","flightCategory":"VFR","rawOb":"METAR SBMG 191900Z 01015KT CAVOK 28/12 Q1012","temp":28,"dewp":12,"wdir":10,"wspd":15,"visib":"6+","altim":1012,"clouds":[],"obsTime":1784487600},"SBME":{"icaoId":"SBME","flightCategory":"VFR","rawOb":"METAR SBME 191900Z 04018KT 9999 FEW040 27/18 Q1016","temp":27,"dewp":18,"wdir":40,"wspd":18,"visib":"6+","altim":1016,"clouds":[{"cover":"FEW","base":4000}],"obsTime":1784487600},"SBMK":{"icaoId":"SBMK","flightCategory":"VFR","rawOb":"METAR SBMK 191900Z 09008KT CAVOK 27/08 Q1017","temp":27,"dewp":8,"wdir":90,"wspd":8,"visib":"6+","altim":1017,"clouds":[],"obsTime":1784487600},"SBUL":{"icaoId":"SBUL","flightCategory":"VFR","rawOb":"METAR SBUL 191900Z 05010KT 360V090 CAVOK 24/10 Q1018","temp":24,"dewp":10,"wdir":50,"wspd":10,"visib":"6+","altim":1018,"clouds":[],"obsTime":1784487600},"SBUR":{"icaoId":"SBUR","flightCategory":"VFR","rawOb":"METAR SBUR 191900Z 01008KT CAVOK 26/09 Q1017","temp":26,"dewp":9,"wdir":10,"wspd":8,"visib":"6+","altim":1017,"clouds":[],"obsTime":1784487600},"SBAT":{"icaoId":"SBAT","flightCategory":"VFR","rawOb":"METAR SBAT 191900Z 03007KT 9999 FEW035 34/20 Q1010","temp":34,"dewp":20,"wdir":30,"wspd":7,"visib":"6+","altim":1010,"clouds":[{"cover":"FEW","base":3500}],"obsTime":1784487600},"SBHT":{"icaoId":"SBHT","flightCategory":"MVFR","rawOb":"METAR SBHT 191900Z 15005KT 9999 BKN030 34/22 Q1009","temp":34,"dewp":22,"wdir":150,"wspd":5,"visib":"6+","altim":1009,"clouds":[{"cover":"BKN","base":3000}],"obsTime":1784487600},"SBSG":{"icaoId":"SBSG","flightCategory":"VFR","rawOb":"METAR SBSG 191900Z 13008KT 090V170 9999 BKN040 26/22 Q1012","temp":26,"dewp":22,"wdir":130,"wspd":8,"visib":"6+","altim":1012,"clouds":[{"cover":"BKN","base":4000}],"obsTime":1784487600},"SBVT":{"icaoId":"SBVT","flightCategory":"VFR","rawOb":"METAR SBVT 191900Z 06012KT 9999 FEW035 SCT050 25/17 Q1019","temp":25,"dewp":17,"wdir":60,"wspd":12,"visib":"6+","altim":1019,"clouds":[{"cover":"FEW","base":3500},{"cover":"SCT","base":5000}],"obsTime":1784487600},"SBKP":{"icaoId":"SBKP","flightCategory":"VFR","rawOb":"METAR SBKP 191900Z 36011KT CAVOK 25/10 Q1017","temp":25,"dewp":10,"wdir":360,"wspd":11,"visib":"6+","altim":1017,"clouds":[],"obsTime":1784487600},"SBCR":{"icaoId":"SBCR","flightCategory":"VFR","rawOb":"METAR SBCR 191900Z 36011KT 320V030 CAVOK 34/20 Q1005","temp":34,"dewp":20,"wdir":360,"wspd":11,"visib":"6+","altim":1005,"clouds":[],"obsTime":1784487600},"SBFL":{"icaoId":"SBFL","flightCategory":"VFR","rawOb":"METAR SBFL 191900Z 35008KT CAVOK 28/15 Q1008","temp":28,"dewp":15,"wdir":350,"wspd":8,"visib":"6+","altim":1008,"clouds":[],"obsTime":1784487600},"SBCP":{"icaoId":"SBCP","flightCategory":"VFR","rawOb":"METAR SBCP 191900Z 08016KT CAVOK 26/18 Q1018","temp":26,"dewp":18,"wdir":80,"wspd":16,"visib":"6+","altim":1018,"clouds":[],"obsTime":1784487600},"SBSN":{"icaoId":"SBSN","flightCategory":"VFR","rawOb":"METAR SBSN 191900Z 05007KT 9999 FEW023 FEW026TCU 32/25 Q1008","temp":32,"dewp":25,"wdir":50,"wspd":7,"visib":"6+","altim":1008,"clouds":[{"cover":"FEW","base":2300},{"cover":"FEW","base":2600}],"obsTime":1784487600},"SBTE":{"icaoId":"SBTE","flightCategory":"VFR","rawOb":"METAR SBTE 191900Z 14007KT 080V190 9999 FEW030 34/16 Q1009","temp":34,"dewp":16,"wdir":140,"wspd":7,"visib":"6+","altim":1009,"clouds":[{"cover":"FEW","base":3000}],"obsTime":1784487600},"SBPA":{"icaoId":"SBPA","flightCategory":"IFR","rawOb":"METAR SBPA 191900Z COR 24004KT 4000 TSRA SCT018 FEW035CB BKN080 21/18 Q1006","temp":21,"dewp":18,"wdir":240,"wspd":4,"visib":2.49,"altim":1006,"clouds":[{"cover":"SCT","base":1800},{"cover":"FEW","base":3500},{"cover":"BKN","base":8000}],"obsTime":1784487600},"SBMQ":{"icaoId":"SBMQ","flightCategory":"MVFR","rawOb":"METAR SBMQ 191900Z 09002KT 9999 -RA BKN021 FEW030TCU BKN066 26/24 Q1010 RERA","temp":26,"dewp":24,"wdir":90,"wspd":2,"visib":"6+","altim":1010,"clouds":[{"cover":"BKN","base":2100},{"cover":"FEW","base":3000},{"cover":"BKN","base":6600}],"obsTime":1784487600},"SBCT":{"icaoId":"SBCT","flightCategory":"VFR","rawOb":"METAR SBCT 191900Z 33012KT CAVOK 23/11 Q1015","temp":23,"dewp":11,"wdir":330,"wspd":12,"visib":"6+","altim":1015,"clouds":[],"obsTime":1784487600},"SBRF":{"icaoId":"SBRF","flightCategory":"VFR","rawOb":"METAR SBRF 191900Z 16011KT CAVOK 27/19 Q1013","temp":27,"dewp":19,"wdir":160,"wspd":11,"visib":"6+","altim":1013,"clouds":[],"obsTime":1784487600},"SBCF":{"icaoId":"SBCF","flightCategory":"VFR","rawOb":"METAR SBCF 191900Z 07007KT 9999 FEW040 24/11 Q1020","temp":24,"dewp":11,"wdir":70,"wspd":7,"visib":"6+","altim":1020,"clouds":[{"cover":"FEW","base":4000}],"obsTime":1784487600},"SBEG":{"icaoId":"SBEG","flightCategory":"VFR","rawOb":"METAR SBEG 191900Z 11007KT 9999 SCT040 32/22 Q1009","temp":32,"dewp":22,"wdir":110,"wspd":7,"visib":"6+","altim":1009,"clouds":[{"cover":"SCT","base":4000}],"obsTime":1784487600},"SBPJ":{"icaoId":"SBPJ","flightCategory":"VFR","rawOb":"METAR SBPJ 191900Z 27005KT 230V300 CAVOK 33/19 Q1011","temp":33,"dewp":19,"wdir":270,"wspd":5,"visib":"6+","altim":1011,"clouds":[],"obsTime":1784487600},"SBGO":{"icaoId":"SBGO","flightCategory":"VFR","rawOb":"METAR SBGO 191900Z 36006KT 280V080 CAVOK 29/10 Q1016","temp":29,"dewp":10,"wdir":360,"wspd":6,"visib":"6+","altim":1016,"clouds":[],"obsTime":1784487600},"SBGL":{"icaoId":"SBGL","flightCategory":"VFR","rawOb":"METAR SBGL 191900Z 04007KT CAVOK 30/13 Q1014","temp":30,"dewp":13,"wdir":40,"wspd":7,"visib":"6+","altim":1014,"clouds":[],"obsTime":1784487600},"SBGR":{"icaoId":"SBGR","flightCategory":"VFR","rawOb":"METAR SBGR 191900Z 32008KT 280V010 CAVOK 25/11 Q1017","temp":25,"dewp":11,"wdir":320,"wspd":8,"visib":"6+","altim":1017,"clouds":[],"obsTime":1784487600},"SBFI":{"icaoId":"SBFI","flightCategory":"VFR","rawOb":"METAR SBFI 191900Z 03014G24KT 9999 FEW035 FEW040TCU BKN080 30/15 Q1005","temp":30,"dewp":15,"wdir":30,"wspd":14,"visib":"6+","altim":1005,"clouds":[{"cover":"FEW","base":3500},{"cover":"FEW","base":4000},{"cover":"BKN","base":8000}],"obsTime":1784487600},"SBFZ":{"icaoId":"SBFZ","flightCategory":"VFR","rawOb":"METAR SBFZ 191900Z 11015KT CAVOK 30/20 Q1009","temp":30,"dewp":20,"wdir":110,"wspd":15,"visib":"6+","altim":1009,"clouds":[],"obsTime":1784487600},"SBCJ":{"icaoId":"SBCJ","flightCategory":"VFR","rawOb":"METAR SBCJ 191900Z 15006KT 090V200 9999 SCT030 29/17 Q1014","temp":29,"dewp":17,"wdir":150,"wspd":6,"visib":"6+","altim":1014,"clouds":[{"cover":"SCT","base":3000}],"obsTime":1784487600},"SBUY":{"icaoId":"SBUY","flightCategory":"VFR","rawOb":"METAR SBUY 191900Z 12006KT 9999 SCT025 32/22 Q1008","temp":32,"dewp":22,"wdir":120,"wspd":6,"visib":"6+","altim":1008,"clouds":[{"cover":"SCT","base":2500}],"obsTime":1784487600},"SBKG":{"icaoId":"SBKG","flightCategory":"VFR","rawOb":"METAR SBKG 191900Z 14008KT CAVOK 26/17 Q1015","temp":26,"dewp":17,"wdir":140,"wspd":8,"visib":"6+","altim":1015,"clouds":[],"obsTime":1784487600},"SBCA":{"icaoId":"SBCA","flightCategory":"VFR","rawOb":"METAR SBCA 191900Z 03018G28KT 9999 FEW030 27/12 Q1011","temp":27,"dewp":12,"wdir":30,"wspd":18,"visib":"6+","altim":1011,"clouds":[{"cover":"FEW","base":3000}],"obsTime":1784487600},"SBCO":{"icaoId":"SBCO","flightCategory":"VFR","rawOb":"METAR SBCO 191900Z 23005KT 9999 TS VCSH FEW020 FEW035CB BKN080 22/17 Q1006 RETS","temp":22,"dewp":17,"wdir":230,"wspd":5,"visib":"6+","altim":1006,"clouds":[{"cover":"FEW","base":2000},{"cover":"FEW","base":3500},{"cover":"BKN","base":8000}],"obsTime":1784487600},"SBSM":{"icaoId":"SBSM","flightCategory":"VFR","rawOb":"METAR SBSM 191900Z 11006KT 9999 -TSRA SCT007 SCT045 FEW050CB OVC070 18/18 Q1004 RETS","temp":18,"dewp":18,"wdir":110,"wspd":6,"visib":"6+","altim":1004,"clouds":[{"cover":"SCT","base":700},{"cover":"SCT","base":4500},{"cover":"FEW","base":5000},{"cover":"OVC","base":7000}],"obsTime":1784487600},"SBAX":{"icaoId":"SBAX","flightCategory":"VFR","rawOb":"METAR SBAX 191900Z AUTO 02006KT 340V080 CAVOK 24/11 Q1019","temp":24,"dewp":11,"wdir":20,"wspd":6,"visib":"6+","altim":1019,"clouds":[],"obsTime":1784487600},"SBBH":{"icaoId":"SBBH","flightCategory":"VFR","rawOb":"METAR SBBH 191900Z 08006KT 9999 SCT040 24/12 Q1020","temp":24,"dewp":12,"wdir":80,"wspd":6,"visib":"6+","altim":1020,"clouds":[{"cover":"SCT","base":4000}],"obsTime":1784487600},"SBBQ":{"icaoId":"SBBQ","flightCategory":"VFR","rawOb":"METAR SBBQ 191900Z 03006KT 330V080 CAVOK 22/13 Q1023","temp":22,"dewp":13,"wdir":30,"wspd":6,"visib":"6+","altim":1023,"clouds":[],"obsTime":1784487600},"SBBU":{"icaoId":"SBBU","flightCategory":"VFR","rawOb":"METAR SBBU 191900Z 33009KT CAVOK 29/10 Q1015","temp":29,"dewp":10,"wdir":330,"wspd":9,"visib":"6+","altim":1015,"clouds":[],"obsTime":1784487600},"SBDN":{"icaoId":"SBDN","flightCategory":"VFR","rawOb":"METAR SBDN 191900Z 03009KT CAVOK 29/12 Q1012","temp":29,"dewp":12,"wdir":30,"wspd":9,"visib":"6+","altim":1012,"clouds":[],"obsTime":1784487600},"SBOI":{"icaoId":"SBOI","flightCategory":"VFR","rawOb":"METAR SBOI 191900Z AUTO 11006KT 020V170 9999 FEW045 32/23 Q1009","temp":32,"dewp":23,"wdir":110,"wspd":6,"visib":"6+","altim":1009,"clouds":[{"cover":"FEW","base":4500}],"obsTime":1784487600},"SBIP":{"icaoId":"SBIP","flightCategory":"VFR","rawOb":"METAR SBIP 191900Z AUTO 36008KT CAVOK 27/13 Q1018","temp":27,"dewp":13,"wdir":360,"wspd":8,"visib":"6+","altim":1018,"clouds":[],"obsTime":1784487600},"SBSC":{"icaoId":"SBSC","flightCategory":"VFR","rawOb":"METAR SBSC 191900Z 36012KT CAVOK 29/15 Q1014","temp":29,"dewp":15,"wdir":360,"wspd":12,"visib":"6+","altim":1014,"clouds":[],"obsTime":1784487600},"SBSR":{"icaoId":"SBSR","flightCategory":"VFR","rawOb":"METAR SBSR 191900Z 01008KT CAVOK 29/07 Q1014","temp":29,"dewp":7,"wdir":10,"wspd":8,"visib":"6+","altim":1014,"clouds":[],"obsTime":1784487600},"SBCC":{"icaoId":"SBCC","flightCategory":"VFR","rawOb":"METAR SBCC 191900Z 07011KT 040V100 9999 SCT045 32/16 Q1012","temp":32,"dewp":16,"wdir":70,"wspd":11,"visib":"6+","altim":1012,"clouds":[{"cover":"SCT","base":4500}],"obsTime":1784487600},"SBTU":{"icaoId":"SBTU","flightCategory":"VFR","rawOb":"METAR SBTU 191900Z AUTO 28008KT 240V320 9999 // SCT071/// 33/19 Q1011","temp":33,"dewp":19,"wdir":280,"wspd":8,"visib":"6+","altim":1011,"clouds":[{"cover":"SCT","base":7100}],"obsTime":1784487600},"SBVH":{"icaoId":"SBVH","flightCategory":"VFR","rawOb":"METAR SBVH 191900Z 36008KT 9999 SCT040 30/19 Q1012","temp":30,"dewp":19,"wdir":360,"wspd":8,"visib":"6+","altim":1012,"clouds":[{"cover":"SCT","base":4000}],"obsTime":1784487600},"SBES":{"icaoId":"SBES","flightCategory":"VFR","rawOb":"METAR SBES 191900Z 06018G29KT CAVOK 24/// Q1016","temp":null,"dewp":null,"wdir":60,"wspd":18,"visib":"6+","altim":1016,"clouds":[],"obsTime":1784487600},"SBPL":{"icaoId":"SBPL","flightCategory":"VFR","rawOb":"METAR SBPL 191900Z 12011KT 9999 SCT025 SCT070 28/18 Q1014","temp":28,"dewp":18,"wdir":120,"wspd":11,"visib":"6+","altim":1014,"clouds":[{"cover":"SCT","base":2500},{"cover":"SCT","base":7000}],"obsTime":1784487600},"SBTT":{"icaoId":"SBTT","flightCategory":"VFR","rawOb":"METAR SBTT 191900Z 34006KT 320V040 9999 SCT020 FEW025TCU 30/25 Q1009","temp":30,"dewp":25,"wdir":340,"wspd":6,"visib":"6+","altim":1009,"clouds":[{"cover":"SCT","base":2000},{"cover":"FEW","base":2500}],"obsTime":1784487600},"SBPB":{"icaoId":"SBPB","flightCategory":"VFR","rawOb":"METAR SBPB 191900Z 05010KT 9999 FEW020 BKN100 30/24 Q1009","temp":30,"dewp":24,"wdir":50,"wspd":10,"visib":"6+","altim":1009,"clouds":[{"cover":"FEW","base":2000},{"cover":"BKN","base":10000}],"obsTime":1784487600},"SBSJ":{"icaoId":"SBSJ","flightCategory":"VFR","rawOb":"METAR SBSJ 191900Z 01005KT 310V120 CAVOK 26/09 Q1017","temp":26,"dewp":9,"wdir":10,"wspd":5,"visib":"6+","altim":1017,"clouds":[],"obsTime":1784487600},"SBPS":{"icaoId":"SBPS","flightCategory":"MVFR","rawOb":"METAR SBPS 191900Z VRB02KT 8000 VCSH SCT009 BKN019 OVC050 21/20 Q1019","temp":21,"dewp":20,"wdir":"VRB","wspd":2,"visib":4.97,"altim":1019,"clouds":[{"cover":"SCT","base":900},{"cover":"BKN","base":1900},{"cover":"OVC","base":5000}],"obsTime":1784487600},"SBPP":{"icaoId":"SBPP","flightCategory":"VFR","rawOb":"METAR SBPP 191900Z 02022KT CAVOK 29/16 Q1008","temp":29,"dewp":16,"wdir":20,"wspd":22,"visib":"6+","altim":1008,"clouds":[],"obsTime":1784487600},"SBTF":{"icaoId":"SBTF","flightCategory":"VFR","rawOb":"METAR SBTF 191900Z 06003KT 9999 SCT020 33/24 Q1008","temp":33,"dewp":24,"wdir":60,"wspd":3,"visib":"6+","altim":1008,"clouds":[{"cover":"SCT","base":2000}],"obsTime":1784487600},"SBAR":{"icaoId":"SBAR","flightCategory":"VFR","rawOb":"METAR SBAR 191900Z 10017KT 9999 4500N -RA FEW017 BKN045 BKN060 24/22 Q1015","temp":24,"dewp":22,"wdir":100,"wspd":17,"visib":"6+","altim":1015,"clouds":[{"cover":"FEW","base":1700},{"cover":"BKN","base":4500},{"cover":"BKN","base":6000}],"obsTime":1784487600},"SBGM":{"icaoId":"SBGM","flightCategory":"VFR","rawOb":"METAR SBGM 191900Z 27007KT 9999 BKN033 34/21 Q1009","temp":34,"dewp":21,"wdir":270,"wspd":7,"visib":"6+","altim":1009,"clouds":[{"cover":"BKN","base":3300}],"obsTime":1784487600},"SBJP":{"icaoId":"SBJP","flightCategory":"VFR","rawOb":"METAR SBJP 191900Z 13014KT CAVOK 27/20 Q1013","temp":27,"dewp":20,"wdir":130,"wspd":14,"visib":"6+","altim":1013,"clouds":[],"obsTime":1784487600},"SBAN":{"icaoId":"SBAN","flightCategory":"VFR","rawOb":"METAR SBAN 191900Z 05006KT CAVOK 25/08 Q1019","temp":25,"dewp":8,"wdir":50,"wspd":6,"visib":"6+","altim":1019,"clouds":[],"obsTime":1784487600},"SBLE":{"icaoId":"SBLE","flightCategory":"VFR","rawOb":"METAR SBLE 191900Z AUTO 12003KT 080V170 9999 OVC049 25/17 Q1017","temp":25,"dewp":17,"wdir":120,"wspd":3,"visib":"6+","altim":1017,"clouds":[{"cover":"OVC","base":4900}],"obsTime":1784487600},"SBTC":{"icaoId":"SBTC","flightCategory":"VFR","rawOb":"METAR SBTC 191900Z 15007KT 9999 SCT025 25/21 Q1018","temp":25,"dewp":21,"wdir":150,"wspd":7,"visib":"6+","altim":1018,"clouds":[{"cover":"SCT","base":2500}],"obsTime":1784487600},"SBJV":{"icaoId":"SBJV","flightCategory":"VFR","rawOb":"METAR SBJV 191900Z 17003KT CAVOK 28/18 Q1008","temp":28,"dewp":18,"wdir":170,"wspd":3,"visib":"6+","altim":1008,"clouds":[],"obsTime":1784487600},"SBNM":{"icaoId":"SBNM","flightCategory":"VFR","rawOb":"METAR SBNM 191900Z AUTO 36020G30KT CAVOK 25/16 Q1003","temp":25,"dewp":16,"wdir":360,"wspd":20,"visib":"6+","altim":1003,"clouds":[],"obsTime":1784487600},"SBPF":{"icaoId":"SBPF","flightCategory":"VFR","rawOb":"METAR SBPF 191900Z 34012KT CAVOK 23/12 Q1008","temp":23,"dewp":12,"wdir":340,"wspd":12,"visib":"6+","altim":1008,"clouds":[],"obsTime":1784487600},"SBAF":{"icaoId":"SBAF","flightCategory":"VFR","rawOb":"METAR SBAF 191900Z 20006KT 340V050 CAVOK 30/14 Q1015","temp":30,"dewp":14,"wdir":200,"wspd":6,"visib":"6+","altim":1015,"clouds":[],"obsTime":1784487600},"SBGW":{"icaoId":"SBGW","flightCategory":"VFR","rawOb":"METAR SBGW 191900Z 06009KT 030V120 CAVOK 27/09 Q1016","temp":27,"dewp":9,"wdir":60,"wspd":9,"visib":"6+","altim":1016,"clouds":[],"obsTime":1784487600},"SBJR":{"icaoId":"SBJR","flightCategory":"VFR","rawOb":"METAR SBJR 191900Z 29003KT CAVOK 31/19 Q1014","temp":31,"dewp":19,"wdir":290,"wspd":3,"visib":"6+","altim":1014,"clouds":[],"obsTime":1784487600},"SBLS":{"icaoId":"SBLS","flightCategory":"VFR","rawOb":"METAR SBLS 191900Z 14007KT 9999 FEW040 24/12 Q1020","temp":24,"dewp":12,"wdir":140,"wspd":7,"visib":"6+","altim":1020,"clouds":[{"cover":"FEW","base":4000}],"obsTime":1784487600},"SBMT":{"icaoId":"SBMT","flightCategory":"VFR","rawOb":"METAR SBMT 191900Z 31005KT CAVOK 24/08 Q1017","temp":24,"dewp":8,"wdir":310,"wspd":5,"visib":"6+","altim":1017,"clouds":[],"obsTime":1784487600},"SBST":{"icaoId":"SBST","flightCategory":"VFR","rawOb":"METAR SBST 191900Z 16010KT CAVOK 26/11 Q1012","temp":26,"dewp":11,"wdir":160,"wspd":10,"visib":"6+","altim":1012,"clouds":[],"obsTime":1784487600},"SBTA":{"icaoId":"SBTA","flightCategory":"VFR","rawOb":"METAR SBTA 191900Z 03005KT 360V060 CAVOK 27/12 Q1016","temp":27,"dewp":12,"wdir":30,"wspd":5,"visib":"6+","altim":1016,"clouds":[],"obsTime":1784487600},"SBIH":{"icaoId":"SBIH","flightCategory":"VFR","rawOb":"METAR SBIH 191900Z 06004KT 9999 SCT020 34/23 Q1008","temp":34,"dewp":23,"wdir":60,"wspd":4,"visib":"6+","altim":1008,"clouds":[{"cover":"SCT","base":2000}],"obsTime":1784487600}}}