{"updated":1778876194,"count":86,"data":{"SBEG":{"icaoId":"SBEG","flightCategory":"MVFR","rawOb":"METAR SBEG 151900Z VRB01KT 9999 SCT012 BKN015 25/24 Q1012","temp":25,"dewp":24,"wdir":"VRB","wspd":1,"visib":"6+","altim":1012,"clouds":[{"cover":"SCT","base":1200},{"cover":"BKN","base":1500}],"obsTime":1778871600},"SBBE":{"icaoId":"SBBE","flightCategory":"VFR","rawOb":"METAR SBBE 151900Z 05009KT 9999 FEW012 SCT037 FEW040TCU 26/25 Q1011","temp":26,"dewp":25,"wdir":50,"wspd":9,"visib":"6+","altim":1011,"clouds":[{"cover":"FEW","base":1200},{"cover":"SCT","base":3700},{"cover":"FEW","base":4000}],"obsTime":1778871600},"SBBR":{"icaoId":"SBBR","flightCategory":"VFR","rawOb":"METAR SBBR 151900Z VRB02KT 9999 SCT045 BKN070 27/14 Q1019","temp":27,"dewp":14,"wdir":"VRB","wspd":2,"visib":"6+","altim":1019,"clouds":[{"cover":"SCT","base":4500},{"cover":"BKN","base":7000}],"obsTime":1778871600},"SBBV":{"icaoId":"SBBV","flightCategory":"VFR","rawOb":"METAR SBBV 151900Z 12007KT 9999 SCT030 FEW035TCU BKN100 32/22 Q1010","temp":32,"dewp":22,"wdir":120,"wspd":7,"visib":"6+","altim":1010,"clouds":[{"cover":"SCT","base":3000},{"cover":"FEW","base":3500},{"cover":"BKN","base":10000}],"obsTime":1778871600},"SBCB":{"icaoId":"SBCB","flightCategory":"VFR","rawOb":"METAR SBCB 151900Z 25011KT 9999 SCT015 BKN040 24/21 Q1015","temp":24,"dewp":21,"wdir":250,"wspd":11,"visib":"6+","altim":1015,"clouds":[{"cover":"SCT","base":1500},{"cover":"BKN","base":4000}],"obsTime":1778871600},"SBCF":{"icaoId":"SBCF","flightCategory":"VFR","rawOb":"METAR SBCF 151900Z 24004KT 9999 SCT040 28/17 Q1018","temp":28,"dewp":17,"wdir":240,"wspd":4,"visib":"6+","altim":1018,"clouds":[{"cover":"SCT","base":4000}],"obsTime":1778871600},"SBCG":{"icaoId":"SBCG","flightCategory":"MVFR","rawOb":"METAR SBCG 151900Z 30007KT 9999 BKN025 BKN066 24/18 Q1016","temp":24,"dewp":18,"wdir":300,"wspd":7,"visib":"6+","altim":1016,"clouds":[{"cover":"BKN","base":2500},{"cover":"BKN","base":6600}],"obsTime":1778871600},"SBCP":{"icaoId":"SBCP","flightCategory":"VFR","rawOb":"METAR SBCP 151900Z 20011KT 9999 SCT020 FEW025TCU BKN090 26/22 Q1014","temp":26,"dewp":22,"wdir":200,"wspd":11,"visib":"6+","altim":1014,"clouds":[{"cover":"SCT","base":2000},{"cover":"FEW","base":2500},{"cover":"BKN","base":9000}],"obsTime":1778871600},"SBCR":{"icaoId":"SBCR","flightCategory":"IFR","rawOb":"METAR SBCR 151900Z 24005KT 220V280 9999 BKN009 BKN100 23/21 Q1014","temp":23,"dewp":21,"wdir":240,"wspd":5,"visib":"6+","altim":1014,"clouds":[{"cover":"BKN","base":900},{"cover":"BKN","base":10000}],"obsTime":1778871600},"SBCT":{"icaoId":"SBCT","flightCategory":"LIFR","rawOb":"METAR SBCT 151900Z 11003KT 8000 -RA BKN003 SCT009 OVC083 15/15 Q1019 RERA","temp":15,"dewp":15,"wdir":110,"wspd":3,"visib":4.97,"altim":1019,"clouds":[{"cover":"BKN","base":300},{"cover":"SCT","base":900},{"cover":"OVC","base":8300}],"obsTime":1778871600},"SBCZ":{"icaoId":"SBCZ","flightCategory":"MVFR","rawOb":"METAR SBCZ 151900Z VRB05KT 9999 BKN030 31/22 Q1013","temp":31,"dewp":22,"wdir":"VRB","wspd":5,"visib":"6+","altim":1013,"clouds":[{"cover":"BKN","base":3000}],"obsTime":1778871600},"SBAT":{"icaoId":"SBAT","flightCategory":"VFR","rawOb":"METAR SBAT 151900Z 00000KT 9999 VCSH FEW033TCU BKN090 25/24 Q1012 RETS","temp":25,"dewp":24,"wdir":0,"wspd":0,"visib":"6+","altim":1012,"clouds":[{"cover":"FEW","base":3300},{"cover":"BKN","base":9000}],"obsTime":1778871600},"SBFI":{"icaoId":"SBFI","flightCategory":"MVFR","rawOb":"METAR SBFI 151900Z 13003KT 9999 SCT008 BKN020 20/18 Q1014","temp":20,"dewp":18,"wdir":130,"wspd":3,"visib":"6+","altim":1014,"clouds":[{"cover":"SCT","base":800},{"cover":"BKN","base":2000}],"obsTime":1778871600},"SBFL":{"icaoId":"SBFL","flightCategory":"MVFR","rawOb":"METAR SBFL 151900Z VRB02KT 9999 VCSH BKN030 OVC066 17/16 Q1017","temp":17,"dewp":16,"wdir":"VRB","wspd":2,"visib":"6+","altim":1017,"clouds":[{"cover":"BKN","base":3000},{"cover":"OVC","base":6600}],"obsTime":1778871600},"SBFZ":{"icaoId":"SBFZ","flightCategory":"VFR","rawOb":"METAR SBFZ 151900Z 08007KT 040V110 9999 SCT020 FEW030TCU 29/24 Q1011","temp":29,"dewp":24,"wdir":80,"wspd":7,"visib":"6+","altim":1011,"clouds":[{"cover":"SCT","base":2000},{"cover":"FEW","base":3000}],"obsTime":1778871600},"SBGL":{"icaoId":"SBGL","flightCategory":"MVFR","rawOb":"METAR SBGL 151900Z 21005KT 8000 BKN020 OVC026 25/20 Q1015","temp":25,"dewp":20,"wdir":210,"wspd":5,"visib":4.97,"altim":1015,"clouds":[{"cover":"BKN","base":2000},{"cover":"OVC","base":2600}],"obsTime":1778871600},"SBGO":{"icaoId":"SBGO","flightCategory":"VFR","rawOb":"METAR SBGO 151900Z VRB04KT 9999 FEW045 30/15 Q1017","temp":30,"dewp":15,"wdir":"VRB","wspd":4,"visib":"6+","altim":1017,"clouds":[{"cover":"FEW","base":4500}],"obsTime":1778871600},"SBGR":{"icaoId":"SBGR","flightCategory":"MVFR","rawOb":"METAR SBGR 151900Z 27007KT 7000 -RA FEW040 BKN060 OVC080 18/16 Q1020","temp":18,"dewp":16,"wdir":270,"wspd":7,"visib":4.35,"altim":1020,"clouds":[{"cover":"FEW","base":4000},{"cover":"BKN","base":6000},{"cover":"OVC","base":8000}],"obsTime":1778871600},"SBHT":{"icaoId":"SBHT","flightCategory":"VFR","rawOb":"METAR SBHT 151900Z 11006KT 9999 SCT030 31/24 Q1011","temp":31,"dewp":24,"wdir":110,"wspd":6,"visib":"6+","altim":1011,"clouds":[{"cover":"SCT","base":3000}],"obsTime":1778871600},"SBIL":{"icaoId":"SBIL","flightCategory":"VFR","rawOb":"METAR SBIL 151900Z 16005KT 120V180 CAVOK 29/24 Q1015","temp":29,"dewp":24,"wdir":160,"wspd":5,"visib":"6+","altim":1015,"clouds":[],"obsTime":1778871600},"SBJU":{"icaoId":"SBJU","flightCategory":"VFR","rawOb":"METAR SBJU 151900Z 08004KT 9999 SCT022 31/20 Q1013","temp":31,"dewp":20,"wdir":80,"wspd":4,"visib":"6+","altim":1013,"clouds":[{"cover":"SCT","base":2200}],"obsTime":1778871600},"SBKP":{"icaoId":"SBKP","flightCategory":"IFR","rawOb":"METAR SBKP 151900Z 00000KT 4000 -RA BR FEW048 OVC090 18/17 Q1019","temp":18,"dewp":17,"wdir":0,"wspd":0,"visib":2.49,"altim":1019,"clouds":[{"cover":"FEW","base":4800},{"cover":"OVC","base":9000}],"obsTime":1778871600},"SBLO":{"icaoId":"SBLO","flightCategory":"MVFR","rawOb":"METAR SBLO 151900Z 05003KT 9999 SCT009 BKN012 20/19 Q1017","temp":20,"dewp":19,"wdir":50,"wspd":3,"visib":"6+","altim":1017,"clouds":[{"cover":"SCT","base":900},{"cover":"BKN","base":1200}],"obsTime":1778871600},"SBMA":{"icaoId":"SBMA","flightCategory":"VFR","rawOb":"METAR SBMA 151900Z 06004KT 9999 SCT020 31/24 Q1010","temp":31,"dewp":24,"wdir":60,"wspd":4,"visib":"6+","altim":1010,"clouds":[{"cover":"SCT","base":2000}],"obsTime":1778871600},"SBME":{"icaoId":"SBME","flightCategory":"MVFR","rawOb":"METAR SBME 151900Z 19007KT 7000 SCT040 25/21 Q1014","temp":25,"dewp":21,"wdir":190,"wspd":7,"visib":4.35,"altim":1014,"clouds":[{"cover":"SCT","base":4000}],"obsTime":1778871600},"SBMG":{"icaoId":"SBMG","flightCategory":"VFR","rawOb":"METAR SBMG 151900Z 35009KT 320V020 9999 FEW025 BKN036 BKN054 22/19 Q1015","temp":22,"dewp":19,"wdir":350,"wspd":9,"visib":"6+","altim":1015,"clouds":[{"cover":"FEW","base":2500},{"cover":"BKN","base":3600},{"cover":"BKN","base":5400}],"obsTime":1778871600},"SBMK":{"icaoId":"SBMK","flightCategory":"VFR","rawOb":"METAR SBMK 151900Z 31002KT 9999 FEW030 30/15 Q1016","temp":30,"dewp":15,"wdir":310,"wspd":2,"visib":"6+","altim":1016,"clouds":[{"cover":"FEW","base":3000}],"obsTime":1778871600},"SBMO":{"icaoId":"SBMO","flightCategory":"VFR","rawOb":"METAR SBMO 151900Z 19008KT 9999 FEW030 28/22 Q1013","temp":28,"dewp":22,"wdir":190,"wspd":8,"visib":"6+","altim":1013,"clouds":[{"cover":"FEW","base":3000}],"obsTime":1778871600},"SBMQ":{"icaoId":"SBMQ","flightCategory":"VFR","rawOb":"METAR SBMQ 151900Z 05008KT 9999 VCSH FEW020 FEW030TCU 28/24 Q1011","temp":28,"dewp":24,"wdir":50,"wspd":8,"visib":"6+","altim":1011,"clouds":[{"cover":"FEW","base":2000},{"cover":"FEW","base":3000}],"obsTime":1778871600},"SBNT":{"icaoId":"SBNT","flightCategory":"VFR","rawOb":"METAR SBNT 151900Z 15011KT 9999 FEW030 BKN100 29/23 Q1012","temp":29,"dewp":23,"wdir":150,"wspd":11,"visib":"6+","altim":1012,"clouds":[{"cover":"FEW","base":3000},{"cover":"BKN","base":10000}],"obsTime":1778871600},"SBPA":{"icaoId":"SBPA","flightCategory":"VFR","rawOb":"METAR SBPA 151900Z 16010KT 140V200 9999 SCT035 17/11 Q1017","temp":17,"dewp":11,"wdir":160,"wspd":10,"visib":"6+","altim":1017,"clouds":[{"cover":"SCT","base":3500}],"obsTime":1778871600},"SBPJ":{"icaoId":"SBPJ","flightCategory":"VFR","rawOb":"METAR SBPJ 151900Z 24006KT 210V270 9999 SCT045 33/22 Q1012","temp":33,"dewp":22,"wdir":240,"wspd":6,"visib":"6+","altim":1012,"clouds":[{"cover":"SCT","base":4500}],"obsTime":1778871600},"SBPV":{"icaoId":"SBPV","flightCategory":"VFR","rawOb":"METAR SBPV 151900Z 20004KT 9999 SCT030 BKN070 30/26 Q1011","temp":30,"dewp":26,"wdir":200,"wspd":4,"visib":"6+","altim":1011,"clouds":[{"cover":"SCT","base":3000},{"cover":"BKN","base":7000}],"obsTime":1778871600},"SBRB":{"icaoId":"SBRB","flightCategory":"VFR","rawOb":"METAR SBRB 151900Z 18003KT 9999 SCT045 32/21 Q1012","temp":32,"dewp":21,"wdir":180,"wspd":3,"visib":"6+","altim":1012,"clouds":[{"cover":"SCT","base":4500}],"obsTime":1778871600},"SBRF":{"icaoId":"SBRF","flightCategory":"MVFR","rawOb":"METAR SBRF 151900Z 19008KT 170V230 9999 BKN025 BKN050 25/23 Q1013","temp":25,"dewp":23,"wdir":190,"wspd":8,"visib":"6+","altim":1013,"clouds":[{"cover":"BKN","base":2500},{"cover":"BKN","base":5000}],"obsTime":1778871600},"SBSG":{"icaoId":"SBSG","flightCategory":"VFR","rawOb":"METAR SBSG 151900Z 14006KT 100V180 9999 SCT025 BKN100 29/24 Q1012","temp":29,"dewp":24,"wdir":140,"wspd":6,"visib":"6+","altim":1012,"clouds":[{"cover":"SCT","base":2500},{"cover":"BKN","base":10000}],"obsTime":1778871600},"SBSL":{"icaoId":"SBSL","flightCategory":"VFR","rawOb":"METAR SBSL 151900Z 01008KT 9999 SCT020 FEW025TCU BKN100 26/24 Q1011","temp":26,"dewp":24,"wdir":10,"wspd":8,"visib":"6+","altim":1011,"clouds":[{"cover":"SCT","base":2000},{"cover":"FEW","base":2500},{"cover":"BKN","base":10000}],"obsTime":1778871600},"SBSN":{"icaoId":"SBSN","flightCategory":"VFR","rawOb":"METAR SBSN 151900Z 06007KT 9999 FEW020 FEW025TCU 30/23 Q1010","temp":30,"dewp":23,"wdir":60,"wspd":7,"visib":"6+","altim":1010,"clouds":[{"cover":"FEW","base":2000},{"cover":"FEW","base":2500}],"obsTime":1778871600},"SBSP":{"icaoId":"SBSP","flightCategory":"MVFR","rawOb":"METAR SBSP 151900Z 32006KT 6000 -RA BKN040 OVC070 18/16 Q1021","temp":18,"dewp":16,"wdir":320,"wspd":6,"visib":3.73,"altim":1021,"clouds":[{"cover":"BKN","base":4000},{"cover":"OVC","base":7000}],"obsTime":1778871600},"SBSV":{"icaoId":"SBSV","flightCategory":"VFR","rawOb":"METAR SBSV 151900Z 15008KT 9999 SCT023 29/21 Q1014","temp":29,"dewp":21,"wdir":150,"wspd":8,"visib":"6+","altim":1014,"clouds":[{"cover":"SCT","base":2300}],"obsTime":1778871600},"SBTE":{"icaoId":"SBTE","flightCategory":"VFR","rawOb":"METAR SBTE 151900Z 25005KT 9999 SCT020 32/24 Q1010","temp":32,"dewp":24,"wdir":250,"wspd":5,"visib":"6+","altim":1010,"clouds":[{"cover":"SCT","base":2000}],"obsTime":1778871600},"SBUL":{"icaoId":"SBUL","flightCategory":"VFR","rawOb":"METAR SBUL 151900Z 01007KT 9999 VCSH SCT045 FEW050TCU SCT100 28/16 Q1019","temp":28,"dewp":16,"wdir":10,"wspd":7,"visib":"6+","altim":1019,"clouds":[{"cover":"SCT","base":4500},{"cover":"FEW","base":5000},{"cover":"SCT","base":10000}],"obsTime":1778871600},"SBUR":{"icaoId":"SBUR","flightCategory":"VFR","rawOb":"METAR SBUR 151900Z 20006KT 9999 VCSH SCT047 BKN080 27/15 Q1018","temp":27,"dewp":15,"wdir":200,"wspd":6,"visib":"6+","altim":1018,"clouds":[{"cover":"SCT","base":4700},{"cover":"BKN","base":8000}],"obsTime":1778871600},"SBVT":{"icaoId":"SBVT","flightCategory":"VFR","rawOb":"METAR SBVT 151900Z 05010KT 9999 FEW049 BKN100 28/23 Q1014","temp":28,"dewp":23,"wdir":50,"wspd":10,"visib":"6+","altim":1014,"clouds":[{"cover":"FEW","base":4900},{"cover":"BKN","base":10000}],"obsTime":1778871600},"SBUY":{"icaoId":"SBUY","flightCategory":"VFR","rawOb":"METAR SBUY 151900Z 01003KT 9999 -RA SCT025 BKN070 25/24 Q1011","temp":25,"dewp":24,"wdir":10,"wspd":3,"visib":"6+","altim":1011,"clouds":[{"cover":"SCT","base":2500},{"cover":"BKN","base":7000}],"obsTime":1778871600},"SBOI":{"icaoId":"SBOI","flightCategory":"MVFR","rawOb":"METAR SBOI 151900Z AUTO 36008G18KT 340V050 6000 +RA FEW015 BKN021 26/24 Q1012","temp":26,"dewp":24,"wdir":360,"wspd":8,"visib":3.73,"altim":1012,"clouds":[{"cover":"FEW","base":1500},{"cover":"BKN","base":2100}],"obsTime":1778871600},"SBCO":{"icaoId":"SBCO","flightCategory":"VFR","rawOb":"METAR SBCO 151900Z 11009KT 080V150 9999 SCT036 19/11 Q1017","temp":19,"dewp":11,"wdir":110,"wspd":9,"visib":"6+","altim":1017,"clouds":[{"cover":"SCT","base":3600}],"obsTime":1778871600},"SBPB":{"icaoId":"SBPB","flightCategory":"VFR","rawOb":"METAR SBPB 151900Z 05009KT 9999 FEW016 FEW025TCU SCT080 29/25 Q1011","temp":29,"dewp":25,"wdir":50,"wspd":9,"visib":"6+","altim":1011,"clouds":[{"cover":"FEW","base":1600},{"cover":"FEW","base":2500},{"cover":"SCT","base":8000}],"obsTime":1778871600},"SBBU":{"icaoId":"SBBU","flightCategory":"MVFR","rawOb":"METAR SBBU 151900Z 05004KT 6000 SCT003 BKN015 OVC070 19/19 Q1018","temp":19,"dewp":19,"wdir":50,"wspd":4,"visib":3.73,"altim":1018,"clouds":[{"cover":"SCT","base":300},{"cover":"BKN","base":1500},{"cover":"OVC","base":7000}],"obsTime":1778871600},"SBPL":{"icaoId":"SBPL","flightCategory":"VFR","rawOb":"METAR SBPL 151900Z 11009KT 9999 FEW030 33/16 Q1013","temp":33,"dewp":16,"wdir":110,"wspd":9,"visib":"6+","altim":1013,"clouds":[{"cover":"FEW","base":3000}],"obsTime":1778871600},"SBVH":{"icaoId":"SBVH","flightCategory":"MVFR","rawOb":"METAR SBVH 151900Z 05007KT 9999 BKN030 FEW035TCU BKN090 26/21 Q1015","temp":26,"dewp":21,"wdir":50,"wspd":7,"visib":"6+","altim":1015,"clouds":[{"cover":"BKN","base":3000},{"cover":"FEW","base":3500},{"cover":"BKN","base":9000}],"obsTime":1778871600},"SBPP":{"icaoId":"SBPP","flightCategory":"MVFR","rawOb":"SPECI SBPP 151835Z 34007KT 8000 BKN015 20/18 Q1016","temp":20,"dewp":18,"wdir":340,"wspd":7,"visib":4.97,"altim":1016,"clouds":[{"cover":"BKN","base":1500}],"obsTime":1778870100},"SBDN":{"icaoId":"SBDN","flightCategory":"VFR","rawOb":"METAR SBDN 151900Z 03004KT 9999 FEW013 BKN082 23/18 Q1016","temp":23,"dewp":18,"wdir":30,"wspd":4,"visib":"6+","altim":1016,"clouds":[{"cover":"FEW","base":1300},{"cover":"BKN","base":8200}],"obsTime":1778871600},"SBPS":{"icaoId":"SBPS","flightCategory":"VFR","rawOb":"METAR SBPS 151900Z 09006KT 9999 FEW030 27/23 Q1014","temp":27,"dewp":23,"wdir":90,"wspd":6,"visib":"6+","altim":1014,"clouds":[{"cover":"FEW","base":3000}],"obsTime":1778871600},"SBAX":{"icaoId":"SBAX","flightCategory":"VFR","rawOb":"METAR SBAX 151900Z 21005KT 9999 SCT025 26/15 Q1019","temp":26,"dewp":15,"wdir":210,"wspd":5,"visib":"6+","altim":1019,"clouds":[{"cover":"SCT","base":2500}],"obsTime":1778871600},"SBSC":{"icaoId":"SBSC","flightCategory":"MVFR","rawOb":"METAR SBSC 151900Z 20008KT 8000 SCT015 SCT050 BKN070 24/20 Q1016","temp":24,"dewp":20,"wdir":200,"wspd":8,"visib":4.97,"altim":1016,"clouds":[{"cover":"SCT","base":1500},{"cover":"SCT","base":5000},{"cover":"BKN","base":7000}],"obsTime":1778871600},"SBES":{"icaoId":"SBES","flightCategory":"VFR","rawOb":"METAR SBES 151900Z 24007KT 170V290 9999 FEW015 SCT040 BKN080 23/// Q1016","temp":null,"dewp":null,"wdir":240,"wspd":7,"visib":"6+","altim":1016,"clouds":[{"cover":"FEW","base":1500},{"cover":"SCT","base":4000},{"cover":"BKN","base":8000}],"obsTime":1778871600},"SBSJ":{"icaoId":"SBSJ","flightCategory":"MVFR","rawOb":"METAR SBSJ 151900Z 18003KT 6000 NSC 19/16 Q1019","temp":19,"dewp":16,"wdir":180,"wspd":3,"visib":3.73,"altim":1019,"clouds":[],"obsTime":1778871600},"SBCA":{"icaoId":"SBCA","flightCategory":"LIFR","rawOb":"METAR SBCA 151900Z 02008KT 2000 BR BKN002 BKN020 17/17 Q1016","temp":17,"dewp":17,"wdir":20,"wspd":8,"visib":1.24,"altim":1016,"clouds":[{"cover":"BKN","base":200},{"cover":"BKN","base":2000}],"obsTime":1778871600},"SBCC":{"icaoId":"SBCC","flightCategory":"VFR","rawOb":"METAR SBCC 151900Z /////KT 9999 SCT030 SCT100 ///// Q1013","temp":null,"dewp":null,"wdir":null,"wspd":null,"visib":"6+","altim":1013,"clouds":[{"cover":"SCT","base":3000},{"cover":"SCT","base":10000}],"obsTime":1778871600},"SBSM":{"icaoId":"SBSM","flightCategory":"VFR","rawOb":"METAR SBSM 151900Z 10009KT 9999 SCT030 18/11 Q1016","temp":18,"dewp":11,"wdir":100,"wspd":9,"visib":"6+","altim":1016,"clouds":[{"cover":"SCT","base":3000}],"obsTime":1778871600},"SBSR":{"icaoId":"SBSR","flightCategory":"VFR","rawOb":"METAR SBSR 151900Z 15005KT 9000 -DZ SCT010 SCT040 OVC060 20/19 Q1018","temp":20,"dewp":19,"wdir":150,"wspd":5,"visib":5.59,"altim":1018,"clouds":[{"cover":"SCT","base":1000},{"cover":"SCT","base":4000},{"cover":"OVC","base":6000}],"obsTime":1778871600},"SBIP":{"icaoId":"SBIP","flightCategory":"VFR","rawOb":"METAR SBIP 151900Z AUTO 33003KT CAVOK 28/21 Q1015","temp":28,"dewp":21,"wdir":330,"wspd":3,"visib":"6+","altim":1015,"clouds":[],"obsTime":1778871600},"SBTF":{"icaoId":"SBTF","flightCategory":"VFR","rawOb":"METAR SBTF 151900Z 34002KT 9999 SCT013 SCT090 25/25 Q1011","temp":25,"dewp":25,"wdir":340,"wspd":2,"visib":"6+","altim":1011,"clouds":[{"cover":"SCT","base":1300},{"cover":"SCT","base":9000}],"obsTime":1778871600},"SBAR":{"icaoId":"SBAR","flightCategory":"VFR","rawOb":"METAR SBAR 151900Z 16008KT 120V190 9999 SCT033 SCT060 28/22 Q1013","temp":28,"dewp":22,"wdir":160,"wspd":8,"visib":"6+","altim":1013,"clouds":[{"cover":"SCT","base":3300},{"cover":"SCT","base":6000}],"obsTime":1778871600},"SBTT":{"icaoId":"SBTT","flightCategory":"MVFR","rawOb":"METAR SBTT 151900Z 29004KT 9999 BKN017 FEW027TCU 32/22 Q1011","temp":32,"dewp":22,"wdir":290,"wspd":4,"visib":"6+","altim":1011,"clouds":[{"cover":"BKN","base":1700},{"cover":"FEW","base":2700}],"obsTime":1778871600},"SBKG":{"icaoId":"SBKG","flightCategory":"VFR","rawOb":"METAR SBKG 151900Z 14005KT 9999 SCT015 BKN070 26/21 Q1015","temp":26,"dewp":21,"wdir":140,"wspd":5,"visib":"6+","altim":1015,"clouds":[{"cover":"SCT","base":1500},{"cover":"BKN","base":7000}],"obsTime":1778871600},"SBCJ":{"icaoId":"SBCJ","flightCategory":"MVFR","rawOb":"METAR SBCJ 151900Z 12006KT 9999 BKN023 27/22 Q1015","temp":27,"dewp":22,"wdir":120,"wspd":6,"visib":"6+","altim":1015,"clouds":[{"cover":"BKN","base":2300}],"obsTime":1778871600},"SBTU":{"icaoId":"SBTU","flightCategory":"VFR","rawOb":"METAR SBTU 151900Z AUTO 21005KT 160V260 9999 // FEW020/// SCT026/// ///// Q1012","temp":null,"dewp":null,"wdir":210,"wspd":5,"visib":"6+","altim":1012,"clouds":[{"cover":"FEW","base":2000},{"cover":"SCT","base":2600}],"obsTime":1778871600},"SBBH":{"icaoId":"SBBH","flightCategory":"VFR","rawOb":"METAR SBBH 151900Z 27005KT 9999 SCT046 27/17 Q1018","temp":27,"dewp":17,"wdir":270,"wspd":5,"visib":"6+","altim":1018,"clouds":[{"cover":"SCT","base":4600}],"obsTime":1778871600},"SBBQ":{"icaoId":"SBBQ","flightCategory":"MVFR","rawOb":"METAR SBBQ 151900Z VRB02KT 8000 BKN040 22/16 Q1021","temp":22,"dewp":16,"wdir":"VRB","wspd":2,"visib":4.97,"altim":1021,"clouds":[{"cover":"BKN","base":4000}],"obsTime":1778871600},"SBGM":{"icaoId":"SBGM","flightCategory":"VFR","rawOb":"METAR SBGM 151900Z 16003KT 9999 FEW020TCU SCT040 OVC050 31/20 Q1012","temp":31,"dewp":20,"wdir":160,"wspd":3,"visib":"6+","altim":1012,"clouds":[{"cover":"FEW","base":2000},{"cover":"SCT","base":4000},{"cover":"OVC","base":5000}],"obsTime":1778871600},"SBJP":{"icaoId":"SBJP","flightCategory":"VFR","rawOb":"METAR SBJP 151900Z 15011KT 110V190 9999 SCT020 OVC070 26/24 Q1013","temp":26,"dewp":24,"wdir":150,"wspd":11,"visib":"6+","altim":1013,"clouds":[{"cover":"SCT","base":2000},{"cover":"OVC","base":7000}],"obsTime":1778871600},"SBAN":{"icaoId":"SBAN","flightCategory":"VFR","rawOb":"METAR SBAN 151900Z 06002KT 9999 SCT030 FEW040TCU SCT100 27/15 Q1020","temp":27,"dewp":15,"wdir":60,"wspd":2,"visib":"6+","altim":1020,"clouds":[{"cover":"SCT","base":3000},{"cover":"FEW","base":4000},{"cover":"SCT","base":10000}],"obsTime":1778871600},"SBJV":{"icaoId":"SBJV","flightCategory":"LIFR","rawOb":"METAR SBJV 151900Z 15002KT 3000 RA BR BKN004 OVC010 16/16 Q1017","temp":16,"dewp":16,"wdir":150,"wspd":2,"visib":1.86,"altim":1017,"clouds":[{"cover":"BKN","base":400},{"cover":"OVC","base":1000}],"obsTime":1778871600},"SBNM":{"icaoId":"SBNM","flightCategory":"VFR","rawOb":"METAR SBNM 151900Z AUTO 17005KT 140V200 CAVOK 21/12 Q1015","temp":21,"dewp":12,"wdir":170,"wspd":5,"visib":"6+","altim":1015,"clouds":[],"obsTime":1778871600},"SBPF":{"icaoId":"SBPF","flightCategory":"VFR","rawOb":"METAR SBPF 152000Z 04006KT CAVOK 19/08 Q1016","temp":19,"dewp":8,"wdir":40,"wspd":6,"visib":"6+","altim":1016,"clouds":[],"obsTime":1778875200},"SBAF":{"icaoId":"SBAF","flightCategory":"MVFR","rawOb":"METAR SBAF 151900Z 19005KT 7000 OVC021 24/23 Q1016","temp":24,"dewp":23,"wdir":190,"wspd":5,"visib":4.35,"altim":1016,"clouds":[{"cover":"OVC","base":2100}],"obsTime":1778871600},"SBGW":{"icaoId":"SBGW","flightCategory":"MVFR","rawOb":"METAR SBGW 151900Z 22003KT 180V260 7000 SCT030 BKN100 23/15 Q1018","temp":23,"dewp":15,"wdir":220,"wspd":3,"visib":4.35,"altim":1018,"clouds":[{"cover":"SCT","base":3000},{"cover":"BKN","base":10000}],"obsTime":1778871600},"SBJR":{"icaoId":"SBJR","flightCategory":"VFR","rawOb":"METAR SBJR 151900Z 24005KT 9000 SCT015 24/21 Q1016","temp":24,"dewp":21,"wdir":240,"wspd":5,"visib":5.59,"altim":1016,"clouds":[{"cover":"SCT","base":1500}],"obsTime":1778871600},"SBLS":{"icaoId":"SBLS","flightCategory":"VFR","rawOb":"METAR SBLS 151900Z 31003KT 240V010 9999 SCT040 26/17 Q1018","temp":26,"dewp":17,"wdir":310,"wspd":3,"visib":"6+","altim":1018,"clouds":[{"cover":"SCT","base":4000}],"obsTime":1778871600},"SBMT":{"icaoId":"SBMT","flightCategory":"MVFR","rawOb":"METAR SBMT 151900Z 28005KT 5000 -RA BKN025 BKN035 18/16 Q1020","temp":18,"dewp":16,"wdir":280,"wspd":5,"visib":3.11,"altim":1020,"clouds":[{"cover":"BKN","base":2500},{"cover":"BKN","base":3500}],"obsTime":1778871600},"SBTA":{"icaoId":"SBTA","flightCategory":"MVFR","rawOb":"METAR SBTA 151900Z 25005KT 8000 -RA FEW025 BKN090 21/16 Q1017","temp":21,"dewp":16,"wdir":250,"wspd":5,"visib":4.97,"altim":1017,"clouds":[{"cover":"FEW","base":2500},{"cover":"BKN","base":9000}],"obsTime":1778871600},"SBLE":{"icaoId":"SBLE","flightCategory":"VFR","rawOb":"METAR SBLE 151900Z AUTO 21003KT 170V250 CAVOK 29/17 Q1016","temp":29,"dewp":17,"wdir":210,"wspd":3,"visib":"6+","altim":1016,"clouds":[],"obsTime":1778871600},"SBIH":{"icaoId":"SBIH","flightCategory":"VFR","rawOb":"METAR SBIH 151900Z 36008KT 9999 FEW020 FEW025TCU 33/24 Q1009","temp":33,"dewp":24,"wdir":360,"wspd":8,"visib":"6+","altim":1009,"clouds":[{"cover":"FEW","base":2000},{"cover":"FEW","base":2500}],"obsTime":1778871600},"SBST":{"icaoId":"SBST","flightCategory":"IFR","rawOb":"METAR SBST 151900Z 25003KT 4000 DZ BR BKN013 OVC022 21/19 Q1017","temp":21,"dewp":19,"wdir":250,"wspd":3,"visib":2.49,"altim":1017,"clouds":[{"cover":"BKN","base":1300},{"cover":"OVC","base":2200}],"obsTime":1778871600}}}