{"updated":1774050494,"count":73,"data":{"SBME":{"icaoId":"SBME","flightCategory":"IFR","rawOb":"METAR SBME 202200Z 33003KT 4000 -RA BR BKN006 BKN010 OVC070 24/23 Q1009","temp":24,"dewp":23,"wdir":330,"wspd":3,"visib":2.49,"altim":1009,"clouds":[{"cover":"BKN","base":600},{"cover":"BKN","base":1000},{"cover":"OVC","base":7000}],"obsTime":1774044000},"SBBE":{"icaoId":"SBBE","flightCategory":"IFR","rawOb":"METAR SBBE 202200Z 29003KT 5000 -RA BKN009 BKN067 OVC078 24/24 Q1011","temp":24,"dewp":24,"wdir":290,"wspd":3,"visib":3.11,"altim":1011,"clouds":[{"cover":"BKN","base":900},{"cover":"BKN","base":6700},{"cover":"OVC","base":7800}],"obsTime":1774044000},"SBBR":{"icaoId":"SBBR","flightCategory":"VFR","rawOb":"METAR SBBR 202200Z 29005KT 9999 -RA FEW010 BKN060 19/18 Q1016","temp":19,"dewp":18,"wdir":290,"wspd":5,"visib":"6+","altim":1016,"clouds":[{"cover":"FEW","base":1000},{"cover":"BKN","base":6000}],"obsTime":1774044000},"SBVT":{"icaoId":"SBVT","flightCategory":"VFR","rawOb":"METAR SBVT 202200Z 00000KT 9999 FEW010 SCT030 OVC090 25/24 Q1009","temp":25,"dewp":24,"wdir":0,"wspd":0,"visib":"6+","altim":1009,"clouds":[{"cover":"FEW","base":1000},{"cover":"SCT","base":3000},{"cover":"OVC","base":9000}],"obsTime":1774044000},"SBBV":{"icaoId":"SBBV","flightCategory":"VFR","rawOb":"METAR SBBV 202200Z 08010KT 9999 FEW040 BKN090 33/19 Q1007","temp":33,"dewp":19,"wdir":80,"wspd":10,"visib":"6+","altim":1007,"clouds":[{"cover":"FEW","base":4000},{"cover":"BKN","base":9000}],"obsTime":1774044000},"SBUR":{"icaoId":"SBUR","flightCategory":"VFR","rawOb":"METAR SBUR 202200Z 30007KT 9999 SCT040 FEW050TCU BKN080 24/20 Q1012","temp":24,"dewp":20,"wdir":300,"wspd":7,"visib":"6+","altim":1012,"clouds":[{"cover":"SCT","base":4000},{"cover":"FEW","base":5000},{"cover":"BKN","base":8000}],"obsTime":1774044000},"SBUL":{"icaoId":"SBUL","flightCategory":"VFR","rawOb":"METAR SBUL 202200Z 34004KT 290V010 9999 VCTS FEW040 FEW045CB BKN100 22/20 Q1013","temp":22,"dewp":20,"wdir":340,"wspd":4,"visib":"6+","altim":1013,"clouds":[{"cover":"FEW","base":4000},{"cover":"FEW","base":4500},{"cover":"BKN","base":10000}],"obsTime":1774044000},"SBCF":{"icaoId":"SBCF","flightCategory":"VFR","rawOb":"METAR SBCF 202200Z 04004KT 9999 BKN040 BKN070 23/21 Q1013","temp":23,"dewp":21,"wdir":40,"wspd":4,"visib":"6+","altim":1013,"clouds":[{"cover":"BKN","base":4000},{"cover":"BKN","base":7000}],"obsTime":1774044000},"SBCG":{"icaoId":"SBCG","flightCategory":"VFR","rawOb":"METAR SBCG 202200Z 11008KT 9999 VCSH SCT040 FEW045TCU BKN100 26/22 Q1009","temp":26,"dewp":22,"wdir":110,"wspd":8,"visib":"6+","altim":1009,"clouds":[{"cover":"SCT","base":4000},{"cover":"FEW","base":4500},{"cover":"BKN","base":10000}],"obsTime":1774044000},"SBTE":{"icaoId":"SBTE","flightCategory":"VFR","rawOb":"METAR SBTE 202200Z 19002KT 9999 SCT020 SCT100 30/24 Q1006","temp":30,"dewp":24,"wdir":190,"wspd":2,"visib":"6+","altim":1006,"clouds":[{"cover":"SCT","base":2000},{"cover":"SCT","base":10000}],"obsTime":1774044000},"SBSV":{"icaoId":"SBSV","flightCategory":"VFR","rawOb":"METAR SBSV 202200Z 08007KT 9999 FEW023 28/23 Q1010","temp":28,"dewp":23,"wdir":80,"wspd":7,"visib":"6+","altim":1010,"clouds":[{"cover":"FEW","base":2300}],"obsTime":1774044000},"SBSP":{"icaoId":"SBSP","flightCategory":"VFR","rawOb":"METAR SBSP 202200Z 15009KT CAVOK 21/18 Q1014","temp":21,"dewp":18,"wdir":150,"wspd":9,"visib":"6+","altim":1014,"clouds":[],"obsTime":1774044000},"SBSN":{"icaoId":"SBSN","flightCategory":"MVFR","rawOb":"METAR SBSN 202200Z 00000KT 9999 BKN018 BKN100 26/24 Q1008","temp":26,"dewp":24,"wdir":0,"wspd":0,"visib":"6+","altim":1008,"clouds":[{"cover":"BKN","base":1800},{"cover":"BKN","base":10000}],"obsTime":1774044000},"SBCT":{"icaoId":"SBCT","flightCategory":"MVFR","rawOb":"METAR SBCT 202200Z 11007KT 9999 BKN013 21/20 Q1014","temp":21,"dewp":20,"wdir":110,"wspd":7,"visib":"6+","altim":1014,"clouds":[{"cover":"BKN","base":1300}],"obsTime":1774044000},"SBSL":{"icaoId":"SBSL","flightCategory":"VFR","rawOb":"METAR SBSL 202200Z 03009KT 9999 FEW020 BKN080 27/24 Q1008","temp":27,"dewp":24,"wdir":30,"wspd":9,"visib":"6+","altim":1008,"clouds":[{"cover":"FEW","base":2000},{"cover":"BKN","base":8000}],"obsTime":1774044000},"SBCZ":{"icaoId":"SBCZ","flightCategory":"MVFR","rawOb":"METAR SBCZ 202200Z 00000KT 8000 VCSH FEW025 FEW025TCU SCT050 OVC080 26/24 Q1004","temp":26,"dewp":24,"wdir":0,"wspd":0,"visib":4.97,"altim":1004,"clouds":[{"cover":"FEW","base":2500},{"cover":"FEW","base":2500},{"cover":"SCT","base":5000},{"cover":"OVC","base":8000}],"obsTime":1774044000},"SBEG":{"icaoId":"SBEG","flightCategory":"VFR","rawOb":"METAR SBEG 202200Z 33005KT 9999 FEW030 FEW035TCU 28/23 Q1007","temp":28,"dewp":23,"wdir":330,"wspd":5,"visib":"6+","altim":1007,"clouds":[{"cover":"FEW","base":3000},{"cover":"FEW","base":3500}],"obsTime":1774044000},"SBSG":{"icaoId":"SBSG","flightCategory":"VFR","rawOb":"METAR SBSG 202200Z 13005KT 9999 FEW023 27/24 Q1009","temp":27,"dewp":24,"wdir":130,"wspd":5,"visib":"6+","altim":1009,"clouds":[{"cover":"FEW","base":2300}],"obsTime":1774044000},"SBFI":{"icaoId":"SBFI","flightCategory":"VFR","rawOb":"METAR SBFI 202200Z 05002KT 9999 FEW040 FEW045TCU 31/24 Q1005","temp":31,"dewp":24,"wdir":50,"wspd":2,"visib":"6+","altim":1005,"clouds":[{"cover":"FEW","base":4000},{"cover":"FEW","base":4500}],"obsTime":1774044000},"SBRF":{"icaoId":"SBRF","flightCategory":"VFR","rawOb":"METAR SBRF 202200Z 10008KT 9999 SCT023 29/24 Q1009","temp":29,"dewp":24,"wdir":100,"wspd":8,"visib":"6+","altim":1009,"clouds":[{"cover":"SCT","base":2300}],"obsTime":1774044000},"SBFL":{"icaoId":"SBFL","flightCategory":"MVFR","rawOb":"METAR SBFL 202200Z 08007KT 9999 BKN028 26/22 Q1010","temp":26,"dewp":22,"wdir":80,"wspd":7,"visib":"6+","altim":1010,"clouds":[{"cover":"BKN","base":2800}],"obsTime":1774044000},"SBRB":{"icaoId":"SBRB","flightCategory":"VFR","rawOb":"METAR SBRB 202200Z 00000KT 9999 SCT034 BKN100 31/24 Q1004","temp":31,"dewp":24,"wdir":0,"wspd":0,"visib":"6+","altim":1004,"clouds":[{"cover":"SCT","base":3400},{"cover":"BKN","base":10000}],"obsTime":1774044000},"SBFZ":{"icaoId":"SBFZ","flightCategory":"VFR","rawOb":"METAR SBFZ 202200Z 07008KT 9999 FEW020 28/24 Q1007","temp":28,"dewp":24,"wdir":70,"wspd":8,"visib":"6+","altim":1007,"clouds":[{"cover":"FEW","base":2000}],"obsTime":1774044000},"SBPV":{"icaoId":"SBPV","flightCategory":"VFR","rawOb":"METAR SBPV 202200Z 01005KT 9999 FEW035 FEW040TCU 29/23 Q1005","temp":29,"dewp":23,"wdir":10,"wspd":5,"visib":"6+","altim":1005,"clouds":[{"cover":"FEW","base":3500},{"cover":"FEW","base":4000}],"obsTime":1774044000},"SBGL":{"icaoId":"SBGL","flightCategory":"VFR","rawOb":"METAR SBGL 202200Z 14004KT 9999 FEW030 BKN050 BKN066 24/22 Q1010","temp":24,"dewp":22,"wdir":140,"wspd":4,"visib":"6+","altim":1010,"clouds":[{"cover":"FEW","base":3000},{"cover":"BKN","base":5000},{"cover":"BKN","base":6600}],"obsTime":1774044000},"SBPJ":{"icaoId":"SBPJ","flightCategory":"VFR","rawOb":"METAR SBPJ 202200Z 28006KT 9999 VCTS SCT027 FEW035CB 28/24 Q1009","temp":28,"dewp":24,"wdir":280,"wspd":6,"visib":"6+","altim":1009,"clouds":[{"cover":"SCT","base":2700},{"cover":"FEW","base":3500}],"obsTime":1774044000},"SBGO":{"icaoId":"SBGO","flightCategory":"VFR","rawOb":"METAR SBGO 202200Z 35004KT 9999 SCT015 SCT100 22/20 Q1014","temp":22,"dewp":20,"wdir":350,"wspd":4,"visib":"6+","altim":1014,"clouds":[{"cover":"SCT","base":1500},{"cover":"SCT","base":10000}],"obsTime":1774044000},"SBPA":{"icaoId":"SBPA","flightCategory":"VFR","rawOb":"METAR SBPA 202200Z 10018KT CAVOK 25/20 Q1008","temp":25,"dewp":20,"wdir":100,"wspd":18,"visib":"6+","altim":1008,"clouds":[],"obsTime":1774044000},"SBNT":{"icaoId":"SBNT","flightCategory":"VFR","rawOb":"METAR SBNT 202200Z 13007KT 9999 FEW020 28/24 Q1009","temp":28,"dewp":24,"wdir":130,"wspd":7,"visib":"6+","altim":1009,"clouds":[{"cover":"FEW","base":2000}],"obsTime":1774044000},"SBGR":{"icaoId":"SBGR","flightCategory":"MVFR","rawOb":"METAR SBGR 202200Z 13005KT 9999 BKN019 22/18 Q1014","temp":22,"dewp":18,"wdir":130,"wspd":5,"visib":"6+","altim":1014,"clouds":[{"cover":"BKN","base":1900}],"obsTime":1774044000},"SBMQ":{"icaoId":"SBMQ","flightCategory":"IFR","rawOb":"METAR SBMQ 202200Z 34003KT 8000 -RA BKN005 BKN080 24/24 Q1010","temp":24,"dewp":24,"wdir":340,"wspd":3,"visib":4.97,"altim":1010,"clouds":[{"cover":"BKN","base":500},{"cover":"BKN","base":8000}],"obsTime":1774044000},"SBIL":{"icaoId":"SBIL","flightCategory":"VFR","rawOb":"METAR SBIL 202200Z 08008KT CAVOK 29/24 Q1009","temp":29,"dewp":24,"wdir":80,"wspd":8,"visib":"6+","altim":1009,"clouds":[],"obsTime":1774044000},"SBMO":{"icaoId":"SBMO","flightCategory":"VFR","rawOb":"METAR SBMO 202200Z 26008KT 9999 SCT025 27/23 Q1009","temp":27,"dewp":23,"wdir":260,"wspd":8,"visib":"6+","altim":1009,"clouds":[{"cover":"SCT","base":2500}],"obsTime":1774044000},"SBJU":{"icaoId":"SBJU","flightCategory":"VFR","rawOb":"METAR SBJU 202200Z 00000KT 9999 SCT020 27/23 Q1010","temp":27,"dewp":23,"wdir":0,"wspd":0,"visib":"6+","altim":1010,"clouds":[{"cover":"SCT","base":2000}],"obsTime":1774044000},"SBKP":{"icaoId":"SBKP","flightCategory":"VFR","rawOb":"METAR SBKP 202200Z 14010KT CAVOK 25/19 Q1011","temp":25,"dewp":19,"wdir":140,"wspd":10,"visib":"6+","altim":1011,"clouds":[],"obsTime":1774044000},"SBMK":{"icaoId":"SBMK","flightCategory":"VFR","rawOb":"METAR SBMK 202200Z 32003KT 9999 SCT035 BKN080 25/22 Q1012","temp":25,"dewp":22,"wdir":320,"wspd":3,"visib":"6+","altim":1012,"clouds":[{"cover":"SCT","base":3500},{"cover":"BKN","base":8000}],"obsTime":1774044000},"SBLO":{"icaoId":"SBLO","flightCategory":"VFR","rawOb":"METAR SBLO 202200Z 11003KT 9999 FEW030 29/21 Q1009","temp":29,"dewp":21,"wdir":110,"wspd":3,"visib":"6+","altim":1009,"clouds":[{"cover":"FEW","base":3000}],"obsTime":1774044000},"SBMG":{"icaoId":"SBMG","flightCategory":"VFR","rawOb":"METAR SBMG 202200Z 08005KT 9999 FEW040 29/21 Q1007","temp":29,"dewp":21,"wdir":80,"wspd":5,"visib":"6+","altim":1007,"clouds":[{"cover":"FEW","base":4000}],"obsTime":1774044000},"SBMA":{"icaoId":"SBMA","flightCategory":"VFR","rawOb":"METAR SBMA 202200Z 03005KT 9999 VCTS FEW015 FEW030CB BKN100 27/24 Q1010","temp":27,"dewp":24,"wdir":30,"wspd":5,"visib":"6+","altim":1010,"clouds":[{"cover":"FEW","base":1500},{"cover":"FEW","base":3000},{"cover":"BKN","base":10000}],"obsTime":1774044000},"SBCP":{"icaoId":"SBCP","flightCategory":"IFR","rawOb":"METAR SBCP 202200Z 20007KT 8000 -TSRA BKN005 FEW030CB OVC070 24/24 Q1008 RERA","temp":24,"dewp":24,"wdir":200,"wspd":7,"visib":4.97,"altim":1008,"clouds":[{"cover":"BKN","base":500},{"cover":"FEW","base":3000},{"cover":"OVC","base":7000}],"obsTime":1774044000},"SBCA":{"icaoId":"SBCA","flightCategory":"VFR","rawOb":"METAR SBCA 202200Z 31003KT 9999 FEW020 28/21 Q1010","temp":28,"dewp":21,"wdir":310,"wspd":3,"visib":"6+","altim":1010,"clouds":[{"cover":"FEW","base":2000}],"obsTime":1774044000},"SBAR":{"icaoId":"SBAR","flightCategory":"VFR","rawOb":"METAR SBAR 202200Z 08010KT CAVOK 28/24 Q1009","temp":28,"dewp":24,"wdir":80,"wspd":10,"visib":"6+","altim":1009,"clouds":[],"obsTime":1774044000},"SBAX":{"icaoId":"SBAX","flightCategory":"VFR","rawOb":"METAR SBAX 202200Z 29004KT 9999 SCT030 SCT070 23/22 Q1014","temp":23,"dewp":22,"wdir":290,"wspd":4,"visib":"6+","altim":1014,"clouds":[{"cover":"SCT","base":3000},{"cover":"SCT","base":7000}],"obsTime":1774044000},"SBBH":{"icaoId":"SBBH","flightCategory":"MVFR","rawOb":"METAR SBBH 202200Z 00000KT 9999 SCT010 BKN017 BKN065 23/22 Q1012","temp":23,"dewp":22,"wdir":0,"wspd":0,"visib":"6+","altim":1012,"clouds":[{"cover":"SCT","base":1000},{"cover":"BKN","base":1700},{"cover":"BKN","base":6500}],"obsTime":1774044000},"SBVH":{"icaoId":"SBVH","flightCategory":"VFR","rawOb":"METAR SBVH 202200Z 32004KT 9999 SCT035 SCT090 25/23 Q1008","temp":25,"dewp":23,"wdir":320,"wspd":4,"visib":"6+","altim":1008,"clouds":[{"cover":"SCT","base":3500},{"cover":"SCT","base":9000}],"obsTime":1774044000},"SBBU":{"icaoId":"SBBU","flightCategory":"VFR","rawOb":"METAR SBBU 202200Z 08004KT CAVOK 29/22 Q1010","temp":29,"dewp":22,"wdir":80,"wspd":4,"visib":"6+","altim":1010,"clouds":[],"obsTime":1774044000},"SBCO":{"icaoId":"SBCO","flightCategory":"VFR","rawOb":"METAR SBCO 202200Z 11012KT 9999 FEW025 24/21 Q1009","temp":24,"dewp":21,"wdir":110,"wspd":12,"visib":"6+","altim":1009,"clouds":[{"cover":"FEW","base":2500}],"obsTime":1774044000},"SBDN":{"icaoId":"SBDN","flightCategory":"VFR","rawOb":"METAR SBDN 202200Z 07008KT CAVOK 29/21 Q1008","temp":29,"dewp":21,"wdir":70,"wspd":8,"visib":"6+","altim":1008,"clouds":[],"obsTime":1774044000},"SBIP":{"icaoId":"SBIP","flightCategory":"VFR","rawOb":"METAR SBIP 202200Z AUTO 36005KT 9999 -RA SCT021 23/23 Q1010","temp":23,"dewp":23,"wdir":360,"wspd":5,"visib":"6+","altim":1010,"clouds":[{"cover":"SCT","base":2100}],"obsTime":1774044000},"SBKG":{"icaoId":"SBKG","flightCategory":"VFR","rawOb":"METAR SBKG 202200Z 09013KT CAVOK 26/20 Q1011","temp":26,"dewp":20,"wdir":90,"wspd":13,"visib":"6+","altim":1011,"clouds":[],"obsTime":1774044000},"SBOI":{"icaoId":"SBOI","flightCategory":"VFR","rawOb":"METAR SBOI 202200Z AUTO VRB01KT 9999 SCT006 BKN042 24/23 Q1011","temp":24,"dewp":23,"wdir":"VRB","wspd":1,"visib":"6+","altim":1011,"clouds":[{"cover":"SCT","base":600},{"cover":"BKN","base":4200}],"obsTime":1774044000},"SBPL":{"icaoId":"SBPL","flightCategory":"VFR","rawOb":"METAR SBPL 202200Z 00000KT 9999 FEW025 28/23 Q1008","temp":28,"dewp":23,"wdir":0,"wspd":0,"visib":"6+","altim":1008,"clouds":[{"cover":"FEW","base":2500}],"obsTime":1774044000},"SBPS":{"icaoId":"SBPS","flightCategory":"VFR","rawOb":"METAR SBPS 202200Z 04009KT 9999 SCT025 27/24 Q1009","temp":27,"dewp":24,"wdir":40,"wspd":9,"visib":"6+","altim":1009,"clouds":[{"cover":"SCT","base":2500}],"obsTime":1774044000},"SBSC":{"icaoId":"SBSC","flightCategory":"VFR","rawOb":"METAR SBSC 202200Z 20005KT 9999 FEW010 SCT017 BKN040 25/23 Q1010","temp":25,"dewp":23,"wdir":200,"wspd":5,"visib":"6+","altim":1010,"clouds":[{"cover":"FEW","base":1000},{"cover":"SCT","base":1700},{"cover":"BKN","base":4000}],"obsTime":1774044000},"SBSJ":{"icaoId":"SBSJ","flightCategory":"VFR","rawOb":"METAR SBSJ 202200Z 17010KT 9999 SCT045 SCT080 23/// Q1013","temp":null,"dewp":null,"wdir":170,"wspd":10,"visib":"6+","altim":1013,"clouds":[{"cover":"SCT","base":4500},{"cover":"SCT","base":8000}],"obsTime":1774044000},"SBSM":{"icaoId":"SBSM","flightCategory":"VFR","rawOb":"METAR SBSM 202200Z 11003KT CAVOK 26/23 Q1006","temp":26,"dewp":23,"wdir":110,"wspd":3,"visib":"6+","altim":1006,"clouds":[],"obsTime":1774044000},"SBSR":{"icaoId":"SBSR","flightCategory":"VFR","rawOb":"METAR SBSR 202200Z 16004KT 9999 FEW035TCU 28/20 Q1010","temp":28,"dewp":20,"wdir":160,"wspd":4,"visib":"6+","altim":1010,"clouds":[{"cover":"FEW","base":3500}],"obsTime":1774044000},"SBTT":{"icaoId":"SBTT","flightCategory":"VFR","rawOb":"METAR SBTT 202200Z 00000KT 9999 VCSH FEW027 FEW027TCU 31/22 Q1004","temp":31,"dewp":22,"wdir":0,"wspd":0,"visib":"6+","altim":1004,"clouds":[{"cover":"FEW","base":2700},{"cover":"FEW","base":2700}],"obsTime":1774044000},"SBUY":{"icaoId":"SBUY","flightCategory":"VFR","rawOb":"METAR SBUY 202200Z 06001KT 9999 FEW030 29/25 Q1004","temp":29,"dewp":25,"wdir":60,"wspd":1,"visib":"6+","altim":1004,"clouds":[{"cover":"FEW","base":3000}],"obsTime":1774044000},"SBTF":{"icaoId":"SBTF","flightCategory":"VFR","rawOb":"METAR SBTF 202200Z 11003KT 9999 FEW018 31/24 Q1006","temp":31,"dewp":24,"wdir":110,"wspd":3,"visib":"6+","altim":1006,"clouds":[{"cover":"FEW","base":1800}],"obsTime":1774044000},"SBCJ":{"icaoId":"SBCJ","flightCategory":"IFR","rawOb":"METAR SBCJ 202200Z 00000KT 4000 BR FEW020TCU BKN080 22/20 Q1013","temp":22,"dewp":20,"wdir":0,"wspd":0,"visib":2.49,"altim":1013,"clouds":[{"cover":"FEW","base":2000},{"cover":"BKN","base":8000}],"obsTime":1774044000},"SBTA":{"icaoId":"SBTA","flightCategory":"VFR","rawOb":"METAR SBTA 202200Z 17004KT 9999 FEW035 SCT080 23/17 Q1011","temp":23,"dewp":17,"wdir":170,"wspd":4,"visib":"6+","altim":1011,"clouds":[{"cover":"FEW","base":3500},{"cover":"SCT","base":8000}],"obsTime":1774044000},"SBAN":{"icaoId":"SBAN","flightCategory":"VFR","rawOb":"METAR SBAN 202200Z 26001KT 9999 FEW003 BKN100 19/18 Q1016","temp":19,"dewp":18,"wdir":260,"wspd":1,"visib":"6+","altim":1016,"clouds":[{"cover":"FEW","base":300},{"cover":"BKN","base":10000}],"obsTime":1774044000},"SBJP":{"icaoId":"SBJP","flightCategory":"VFR","rawOb":"METAR SBJP 202200Z 10008KT 9999 SCT020 28/24 Q1010","temp":28,"dewp":24,"wdir":100,"wspd":8,"visib":"6+","altim":1010,"clouds":[{"cover":"SCT","base":2000}],"obsTime":1774044000},"SBJR":{"icaoId":"SBJR","flightCategory":"MVFR","rawOb":"METAR SBJR 202200Z 26005KT 8000 BKN012 BKN020 BKN040 25/23 Q1009","temp":25,"dewp":23,"wdir":260,"wspd":5,"visib":4.97,"altim":1009,"clouds":[{"cover":"BKN","base":1200},{"cover":"BKN","base":2000},{"cover":"BKN","base":4000}],"obsTime":1774044000},"SBJV":{"icaoId":"SBJV","flightCategory":"MVFR","rawOb":"METAR SBJV 202200Z 10002KT 9999 BKN030 26/24 Q1009","temp":26,"dewp":24,"wdir":100,"wspd":2,"visib":"6+","altim":1009,"clouds":[{"cover":"BKN","base":3000}],"obsTime":1774044000},"SBLE":{"icaoId":"SBLE","flightCategory":"VFR","rawOb":"METAR SBLE 202200Z AUTO 34001KT CAVOK 23/23 Q1011","temp":23,"dewp":23,"wdir":340,"wspd":1,"visib":"6+","altim":1011,"clouds":[],"obsTime":1774044000},"SBLS":{"icaoId":"SBLS","flightCategory":"VFR","rawOb":"METAR SBLS 202200Z 01003KT 280V060 CAVOK 23/21 Q1012","temp":23,"dewp":21,"wdir":10,"wspd":3,"visib":"6+","altim":1012,"clouds":[],"obsTime":1774044000},"SBMT":{"icaoId":"SBMT","flightCategory":"VFR","rawOb":"METAR SBMT 202200Z 14008KT 110V170 CAVOK 22/18 Q1013","temp":22,"dewp":18,"wdir":140,"wspd":8,"visib":"6+","altim":1013,"clouds":[],"obsTime":1774044000},"SBNM":{"icaoId":"SBNM","flightCategory":"VFR","rawOb":"METAR SBNM 202200Z 16002KT CAVOK 29/21 Q1006","temp":29,"dewp":21,"wdir":160,"wspd":2,"visib":"6+","altim":1006,"clouds":[],"obsTime":1774044000},"SBPF":{"icaoId":"SBPF","flightCategory":"VFR","rawOb":"METAR SBPF 202200Z AUTO 05004KT 9999 NSC 28/16 Q1010","temp":28,"dewp":16,"wdir":50,"wspd":4,"visib":"6+","altim":1010,"clouds":[],"obsTime":1774044000},"SBAF":{"icaoId":"SBAF","flightCategory":"MVFR","rawOb":"METAR SBAF 202200Z 20002KT 8000 FEW010 BKN018 OVC043 25/25 Q1010","temp":25,"dewp":25,"wdir":200,"wspd":2,"visib":4.97,"altim":1010,"clouds":[{"cover":"FEW","base":1000},{"cover":"BKN","base":1800},{"cover":"OVC","base":4300}],"obsTime":1774044000},"SBGW":{"icaoId":"SBGW","flightCategory":"VFR","rawOb":"METAR SBGW 202200Z 14004KT 9999 BKN040 25/16 Q1011","temp":25,"dewp":16,"wdir":140,"wspd":4,"visib":"6+","altim":1011,"clouds":[{"cover":"BKN","base":4000}],"obsTime":1774044000}}}