{"updated":1779031981,"count":88,"data":{"SBJU":{"icaoId":"SBJU","flightCategory":"VFR","rawOb":"METAR SBJU 171400Z 06003KT 9999 SCT020 28/19 Q1016","temp":28,"dewp":19,"wdir":60,"wspd":3,"visib":"6+","altim":1016,"clouds":[{"cover":"SCT","base":2000}],"obsTime":1779026400},"SBKP":{"icaoId":"SBKP","flightCategory":"VFR","rawOb":"METAR SBKP 171400Z 15004KT 110V180 9999 SCT045 BKN080 22/16 Q1019","temp":22,"dewp":16,"wdir":150,"wspd":4,"visib":"6+","altim":1019,"clouds":[{"cover":"SCT","base":4500},{"cover":"BKN","base":8000}],"obsTime":1779026400},"SBVT":{"icaoId":"SBVT","flightCategory":"VFR","rawOb":"METAR SBVT 171400Z 01003KT 9999 SCT030 29/24 Q1016","temp":29,"dewp":24,"wdir":10,"wspd":3,"visib":"6+","altim":1016,"clouds":[{"cover":"SCT","base":3000}],"obsTime":1779026400},"SBIL":{"icaoId":"SBIL","flightCategory":"VFR","rawOb":"METAR SBIL 171400Z 29004KT 260V320 9999 SCT018 BKN070 26/24 Q1016","temp":26,"dewp":24,"wdir":290,"wspd":4,"visib":"6+","altim":1016,"clouds":[{"cover":"SCT","base":1800},{"cover":"BKN","base":7000}],"obsTime":1779026400},"SBCR":{"icaoId":"SBCR","flightCategory":"MVFR","rawOb":"SPECI SBCR 171335Z 26011KT 9999 BKN012 BKN030 BKN080 25/22 Q1015","temp":25,"dewp":22,"wdir":260,"wspd":11,"visib":"6+","altim":1015,"clouds":[{"cover":"BKN","base":1200},{"cover":"BKN","base":3000},{"cover":"BKN","base":8000}],"obsTime":1779024900},"SBBE":{"icaoId":"SBBE","flightCategory":"MVFR","rawOb":"METAR SBBE 171400Z 09007KT 9999 BKN025 30/25 Q1013","temp":30,"dewp":25,"wdir":90,"wspd":7,"visib":"6+","altim":1013,"clouds":[{"cover":"BKN","base":2500}],"obsTime":1779026400},"SBLO":{"icaoId":"SBLO","flightCategory":"LIFR","rawOb":"METAR SBLO 171400Z VRB02KT 4000 -RA BR BKN003 OVC080 18/17 Q1018 RERA","temp":18,"dewp":17,"wdir":"VRB","wspd":2,"visib":2.49,"altim":1018,"clouds":[{"cover":"BKN","base":300},{"cover":"OVC","base":8000}],"obsTime":1779026400},"SBMA":{"icaoId":"SBMA","flightCategory":"MVFR","rawOb":"METAR SBMA 171400Z 34005KT 9999 BKN020 30/24 Q1013","temp":30,"dewp":24,"wdir":340,"wspd":5,"visib":"6+","altim":1013,"clouds":[{"cover":"BKN","base":2000}],"obsTime":1779026400},"SBCB":{"icaoId":"SBCB","flightCategory":"VFR","rawOb":"METAR SBCB 171400Z 04014KT 9999 SCT020 BKN080 27/21 Q1015","temp":27,"dewp":21,"wdir":40,"wspd":14,"visib":"6+","altim":1015,"clouds":[{"cover":"SCT","base":2000},{"cover":"BKN","base":8000}],"obsTime":1779026400},"SBCT":{"icaoId":"SBCT","flightCategory":"MVFR","rawOb":"METAR SBCT 171400Z 32005KT 270V360 7000 -RA BKN014 OVC060 18/17 Q1018","temp":18,"dewp":17,"wdir":320,"wspd":5,"visib":4.35,"altim":1018,"clouds":[{"cover":"BKN","base":1400},{"cover":"OVC","base":6000}],"obsTime":1779026400},"SBME":{"icaoId":"SBME","flightCategory":"VFR","rawOb":"METAR SBME 171400Z 05013KT CAVOK 27/21 Q1014","temp":27,"dewp":21,"wdir":50,"wspd":13,"visib":"6+","altim":1014,"clouds":[],"obsTime":1779026400},"SBCZ":{"icaoId":"SBCZ","flightCategory":"VFR","rawOb":"METAR SBCZ 171400Z 30004KT 260V340 9999 SCT008 BKN090 27/25 Q1014","temp":27,"dewp":25,"wdir":300,"wspd":4,"visib":"6+","altim":1014,"clouds":[{"cover":"SCT","base":800},{"cover":"BKN","base":9000}],"obsTime":1779026400},"SBMG":{"icaoId":"SBMG","flightCategory":"VFR","rawOb":"METAR SBMG 171400Z 03011KT 9999 -RA FEW010 OVC080 18/18 Q1015","temp":18,"dewp":18,"wdir":30,"wspd":11,"visib":"6+","altim":1015,"clouds":[{"cover":"FEW","base":1000},{"cover":"OVC","base":8000}],"obsTime":1779026400},"SBCF":{"icaoId":"SBCF","flightCategory":"VFR","rawOb":"METAR SBCF 171400Z 07006KT 9999 SCT025 24/18 Q1020","temp":24,"dewp":18,"wdir":70,"wspd":6,"visib":"6+","altim":1020,"clouds":[{"cover":"SCT","base":2500}],"obsTime":1779026400},"SBMK":{"icaoId":"SBMK","flightCategory":"VFR","rawOb":"METAR SBMK 171400Z 06006KT 9999 FEW035 28/17 Q1018","temp":28,"dewp":17,"wdir":60,"wspd":6,"visib":"6+","altim":1018,"clouds":[{"cover":"FEW","base":3500}],"obsTime":1779026400},"SBEG":{"icaoId":"SBEG","flightCategory":"VFR","rawOb":"METAR SBEG 171400Z 07003KT 9999 SCT020 30/24 Q1014","temp":30,"dewp":24,"wdir":70,"wspd":3,"visib":"6+","altim":1014,"clouds":[{"cover":"SCT","base":2000}],"obsTime":1779026400},"SBMO":{"icaoId":"SBMO","flightCategory":"VFR","rawOb":"METAR SBMO 171400Z 10008KT 9999 VCSH SCT013 SCT023 FEW025TCU 28/24 Q1015","temp":28,"dewp":24,"wdir":100,"wspd":8,"visib":"6+","altim":1015,"clouds":[{"cover":"SCT","base":1300},{"cover":"SCT","base":2300},{"cover":"FEW","base":2500}],"obsTime":1779026400},"SBBR":{"icaoId":"SBBR","flightCategory":"VFR","rawOb":"METAR SBBR 171400Z 08006KT 030V120 9999 FEW030 25/17 Q1021","temp":25,"dewp":17,"wdir":80,"wspd":6,"visib":"6+","altim":1021,"clouds":[{"cover":"FEW","base":3000}],"obsTime":1779026400},"SBMQ":{"icaoId":"SBMQ","flightCategory":"VFR","rawOb":"METAR SBMQ 171400Z 05004KT 9999 SCT017 BKN070 29/25 Q1014","temp":29,"dewp":25,"wdir":50,"wspd":4,"visib":"6+","altim":1014,"clouds":[{"cover":"SCT","base":1700},{"cover":"BKN","base":7000}],"obsTime":1779026400},"SBNT":{"icaoId":"SBNT","flightCategory":"MVFR","rawOb":"METAR SBNT 171400Z 11005KT 9999 SCT010 BKN023 BKN066 26/24 Q1015","temp":26,"dewp":24,"wdir":110,"wspd":5,"visib":"6+","altim":1015,"clouds":[{"cover":"SCT","base":1000},{"cover":"BKN","base":2300},{"cover":"BKN","base":6600}],"obsTime":1779026400},"SBFI":{"icaoId":"SBFI","flightCategory":"VFR","rawOb":"METAR SBFI 171400Z 23005KT 9999 FEW007 BKN070 20/19 Q1015","temp":20,"dewp":19,"wdir":230,"wspd":5,"visib":"6+","altim":1015,"clouds":[{"cover":"FEW","base":700},{"cover":"BKN","base":7000}],"obsTime":1779026400},"SBPA":{"icaoId":"SBPA","flightCategory":"IFR","rawOb":"METAR SBPA 171400Z 20006KT 160V220 9999 VCSH FEW005 BKN007 BKN035 17/16 Q1016","temp":17,"dewp":16,"wdir":200,"wspd":6,"visib":"6+","altim":1016,"clouds":[{"cover":"FEW","base":500},{"cover":"BKN","base":700},{"cover":"BKN","base":3500}],"obsTime":1779026400},"SBPJ":{"icaoId":"SBPJ","flightCategory":"VFR","rawOb":"METAR SBPJ 171400Z 30005KT 9999 FEW030 32/21 Q1014","temp":32,"dewp":21,"wdir":300,"wspd":5,"visib":"6+","altim":1014,"clouds":[{"cover":"FEW","base":3000}],"obsTime":1779026400},"SBFL":{"icaoId":"SBFL","flightCategory":"MVFR","rawOb":"METAR SBFL 171400Z VRB02KT 9999 FEW010 OVC019 20/18 Q1015","temp":20,"dewp":18,"wdir":"VRB","wspd":2,"visib":"6+","altim":1015,"clouds":[{"cover":"FEW","base":1000},{"cover":"OVC","base":1900}],"obsTime":1779026400},"SBPV":{"icaoId":"SBPV","flightCategory":"VFR","rawOb":"METAR SBPV 171400Z 05004KT 9999 FEW020 29/26 Q1014","temp":29,"dewp":26,"wdir":50,"wspd":4,"visib":"6+","altim":1014,"clouds":[{"cover":"FEW","base":2000}],"obsTime":1779026400},"SBUR":{"icaoId":"SBUR","flightCategory":"VFR","rawOb":"METAR SBUR 171400Z 02010KT CAVOK 28/17 Q1018","temp":28,"dewp":17,"wdir":20,"wspd":10,"visib":"6+","altim":1018,"clouds":[],"obsTime":1779026400},"SBRB":{"icaoId":"SBRB","flightCategory":"VFR","rawOb":"METAR SBRB 171400Z 33004KT 9999 FEW006 SCT100 26/24 Q1015","temp":26,"dewp":24,"wdir":330,"wspd":4,"visib":"6+","altim":1015,"clouds":[{"cover":"FEW","base":600},{"cover":"SCT","base":10000}],"obsTime":1779026400},"SBCG":{"icaoId":"SBCG","flightCategory":"VFR","rawOb":"METAR SBCG 171400Z 31010KT 9999 VCSH FEW018 SCT035 FEW050TCU BKN070 25/21 Q1016","temp":25,"dewp":21,"wdir":310,"wspd":10,"visib":"6+","altim":1016,"clouds":[{"cover":"FEW","base":1800},{"cover":"SCT","base":3500},{"cover":"FEW","base":5000},{"cover":"BKN","base":7000}],"obsTime":1779026400},"SBRF":{"icaoId":"SBRF","flightCategory":"VFR","rawOb":"METAR SBRF 171400Z 17003KT 9999 FEW012 SCT018 BKN050 27/25 Q1014","temp":27,"dewp":25,"wdir":170,"wspd":3,"visib":"6+","altim":1014,"clouds":[{"cover":"FEW","base":1200},{"cover":"SCT","base":1800},{"cover":"BKN","base":5000}],"obsTime":1779026400},"SBSG":{"icaoId":"SBSG","flightCategory":"IFR","rawOb":"METAR SBSG 171400Z 15004KT 110V200 5000 -RA BR BKN005 25/24 Q1015 RERA","temp":25,"dewp":24,"wdir":150,"wspd":4,"visib":3.11,"altim":1015,"clouds":[{"cover":"BKN","base":500}],"obsTime":1779026400},"SBFZ":{"icaoId":"SBFZ","flightCategory":"MVFR","rawOb":"SPECI SBFZ 171335Z 11010KT 6000 -RA SCT008 BKN012 BKN020 FEW025TCU 25/24 Q1014 RERA","temp":25,"dewp":24,"wdir":110,"wspd":10,"visib":3.73,"altim":1014,"clouds":[{"cover":"SCT","base":800},{"cover":"BKN","base":1200},{"cover":"BKN","base":2000},{"cover":"FEW","base":2500}],"obsTime":1779024900},"SBSL":{"icaoId":"SBSL","flightCategory":"MVFR","rawOb":"METAR SBSL 171400Z 06007KT 020V100 9999 BKN023 30/25 Q1013","temp":30,"dewp":25,"wdir":60,"wspd":7,"visib":"6+","altim":1013,"clouds":[{"cover":"BKN","base":2300}],"obsTime":1779026400},"SBGL":{"icaoId":"SBGL","flightCategory":"MVFR","rawOb":"METAR SBGL 171400Z VRB03KT 7000 BKN020 27/21 Q1014","temp":27,"dewp":21,"wdir":"VRB","wspd":3,"visib":4.35,"altim":1014,"clouds":[{"cover":"BKN","base":2000}],"obsTime":1779026400},"SBSN":{"icaoId":"SBSN","flightCategory":"VFR","rawOb":"METAR SBSN 171400Z 08007KT 010V100 9999 SCT018 29/25 Q1013","temp":29,"dewp":25,"wdir":80,"wspd":7,"visib":"6+","altim":1013,"clouds":[{"cover":"SCT","base":1800}],"obsTime":1779026400},"SBBV":{"icaoId":"SBBV","flightCategory":"VFR","rawOb":"METAR SBBV 171400Z 10008KT 9999 FEW035 SCT090 29/22 Q1014","temp":29,"dewp":22,"wdir":100,"wspd":8,"visib":"6+","altim":1014,"clouds":[{"cover":"FEW","base":3500},{"cover":"SCT","base":9000}],"obsTime":1779026400},"SBSP":{"icaoId":"SBSP","flightCategory":"VFR","rawOb":"METAR SBSP 171400Z 33007KT 9999 -DZ SCT030 BKN083 20/17 Q1020","temp":20,"dewp":17,"wdir":330,"wspd":7,"visib":"6+","altim":1020,"clouds":[{"cover":"SCT","base":3000},{"cover":"BKN","base":8300}],"obsTime":1779026400},"SBSV":{"icaoId":"SBSV","flightCategory":"VFR","rawOb":"METAR SBSV 171400Z 21008KT 9999 SCT025 28/23 Q1015","temp":28,"dewp":23,"wdir":210,"wspd":8,"visib":"6+","altim":1015,"clouds":[{"cover":"SCT","base":2500}],"obsTime":1779026400},"SBGO":{"icaoId":"SBGO","flightCategory":"VFR","rawOb":"METAR SBGO 171400Z 04008KT 350V080 9999 FEW040 30/18 Q1018","temp":30,"dewp":18,"wdir":40,"wspd":8,"visib":"6+","altim":1018,"clouds":[{"cover":"FEW","base":4000}],"obsTime":1779026400},"SBTE":{"icaoId":"SBTE","flightCategory":"VFR","rawOb":"METAR SBTE 171400Z 08005KT 9999 SCT020 30/23 Q1013","temp":30,"dewp":23,"wdir":80,"wspd":5,"visib":"6+","altim":1013,"clouds":[{"cover":"SCT","base":2000}],"obsTime":1779026400},"SBCP":{"icaoId":"SBCP","flightCategory":"VFR","rawOb":"METAR SBCP 171400Z 04010KT 9999 SCT015 BKN090 28/22 Q1015","temp":28,"dewp":22,"wdir":40,"wspd":10,"visib":"6+","altim":1015,"clouds":[{"cover":"SCT","base":1500},{"cover":"BKN","base":9000}],"obsTime":1779026400},"SBGR":{"icaoId":"SBGR","flightCategory":"VFR","rawOb":"METAR SBGR 171400Z 00000KT CAVOK 21/16 Q1019","temp":21,"dewp":16,"wdir":0,"wspd":0,"visib":"6+","altim":1019,"clouds":[],"obsTime":1779026400},"SBUL":{"icaoId":"SBUL","flightCategory":"VFR","rawOb":"METAR SBUL 171400Z 07011KT 9999 FEW040 BKN080 24/17 Q1020","temp":24,"dewp":17,"wdir":70,"wspd":11,"visib":"6+","altim":1020,"clouds":[{"cover":"FEW","base":4000},{"cover":"BKN","base":8000}],"obsTime":1779026400},"SBAT":{"icaoId":"SBAT","flightCategory":"VFR","rawOb":"METAR SBAT 171400Z 07002KT 9999 SCT025 32/25 Q1015","temp":32,"dewp":25,"wdir":70,"wspd":2,"visib":"6+","altim":1015,"clouds":[{"cover":"SCT","base":2500}],"obsTime":1779026400},"SBHT":{"icaoId":"SBHT","flightCategory":"MVFR","rawOb":"METAR SBHT 171400Z 10007KT 9999 BKN023 BKN090 28/25 Q1014","temp":28,"dewp":25,"wdir":100,"wspd":7,"visib":"6+","altim":1014,"clouds":[{"cover":"BKN","base":2300},{"cover":"BKN","base":9000}],"obsTime":1779026400},"SBCC":{"icaoId":"SBCC","flightCategory":"MVFR","rawOb":"METAR SBCC 171400Z /////KT 9999 VCSH BKN025 FEW030TCU ///// Q1016","temp":null,"dewp":null,"wdir":null,"wspd":null,"visib":"6+","altim":1016,"clouds":[{"cover":"BKN","base":2500},{"cover":"FEW","base":3000}],"obsTime":1779026400},"SBAR":{"icaoId":"SBAR","flightCategory":"VFR","rawOb":"METAR SBAR 171400Z 11009KT 9999 SCT023 29/23 Q1015","temp":29,"dewp":23,"wdir":110,"wspd":9,"visib":"6+","altim":1015,"clouds":[{"cover":"SCT","base":2300}],"obsTime":1779026400},"SBVH":{"icaoId":"SBVH","flightCategory":"VFR","rawOb":"METAR SBVH 171400Z 36003KT 9999 FEW020 28/21 Q1017","temp":28,"dewp":21,"wdir":360,"wspd":3,"visib":"6+","altim":1017,"clouds":[{"cover":"FEW","base":2000}],"obsTime":1779026400},"SBUY":{"icaoId":"SBUY","flightCategory":"VFR","rawOb":"METAR SBUY 171400Z 09003KT 9999 SCT006 BKN070 26/24 Q1013","temp":26,"dewp":24,"wdir":90,"wspd":3,"visib":"6+","altim":1013,"clouds":[{"cover":"SCT","base":600},{"cover":"BKN","base":7000}],"obsTime":1779026400},"SBAX":{"icaoId":"SBAX","flightCategory":"VFR","rawOb":"METAR SBAX 171400Z AUTO 05007KT 010V090 CAVOK 24/17 Q1020","temp":24,"dewp":17,"wdir":50,"wspd":7,"visib":"6+","altim":1020,"clouds":[],"obsTime":1779026400},"SBTT":{"icaoId":"SBTT","flightCategory":"MVFR","rawOb":"METAR SBTT 171400Z 34005KT 9999 BKN015 27/23 Q1014","temp":27,"dewp":23,"wdir":340,"wspd":5,"visib":"6+","altim":1014,"clouds":[{"cover":"BKN","base":1500}],"obsTime":1779026400},"SBBH":{"icaoId":"SBBH","flightCategory":"VFR","rawOb":"METAR SBBH 171400Z 07005KT 9999 SCT020 25/19 Q1020","temp":25,"dewp":19,"wdir":70,"wspd":5,"visib":"6+","altim":1020,"clouds":[{"cover":"SCT","base":2000}],"obsTime":1779026400},"SBTF":{"icaoId":"SBTF","flightCategory":"VFR","rawOb":"METAR SBTF 171400Z 00000KT 9999 SCT013 SCT090 27/25 Q1014","temp":27,"dewp":25,"wdir":0,"wspd":0,"visib":"6+","altim":1014,"clouds":[{"cover":"SCT","base":1300},{"cover":"SCT","base":9000}],"obsTime":1779026400},"SBBQ":{"icaoId":"SBBQ","flightCategory":"VFR","rawOb":"METAR SBBQ 171400Z 03005KT 340V080 9999 SCT015 BKN100 23/17 Q1023","temp":23,"dewp":17,"wdir":30,"wspd":5,"visib":"6+","altim":1023,"clouds":[{"cover":"SCT","base":1500},{"cover":"BKN","base":10000}],"obsTime":1779026400},"SBSR":{"icaoId":"SBSR","flightCategory":"VFR","rawOb":"METAR SBSR 171400Z 04005KT 9999 FEW035 SCT070 26/18 Q1016","temp":26,"dewp":18,"wdir":40,"wspd":5,"visib":"6+","altim":1016,"clouds":[{"cover":"FEW","base":3500},{"cover":"SCT","base":7000}],"obsTime":1779026400},"SBBU":{"icaoId":"SBBU","flightCategory":"VFR","rawOb":"METAR SBBU 171400Z 11009KT 9999 SCT004 SCT035 FEW040TCU BKN100 22/21 Q1016","temp":22,"dewp":21,"wdir":110,"wspd":9,"visib":"6+","altim":1016,"clouds":[{"cover":"SCT","base":400},{"cover":"SCT","base":3500},{"cover":"FEW","base":4000},{"cover":"BKN","base":10000}],"obsTime":1779026400},"SBSM":{"icaoId":"SBSM","flightCategory":"IFR","rawOb":"METAR SBSM 171400Z 11003KT 070V130 5000 2000E BR OVC005 15/14 Q1017","temp":15,"dewp":14,"wdir":110,"wspd":3,"visib":3.11,"altim":1017,"clouds":[{"cover":"OVC","base":500}],"obsTime":1779026400},"SBCA":{"icaoId":"SBCA","flightCategory":"LIFR","rawOb":"METAR SBCA 171400Z 15005KT 0400 FG OVC001 17/17 Q1017","temp":17,"dewp":17,"wdir":150,"wspd":5,"visib":0.25,"altim":1017,"clouds":[{"cover":"OVC","base":100}],"obsTime":1779026400},"SBSJ":{"icaoId":"SBSJ","flightCategory":"IFR","rawOb":"SPECI SBSJ 171345Z 04004KT 4000 BR FEW005 SCT030 BKN100 20/19 Q1019","temp":20,"dewp":19,"wdir":40,"wspd":4,"visib":2.49,"altim":1019,"clouds":[{"cover":"FEW","base":500},{"cover":"SCT","base":3000},{"cover":"BKN","base":10000}],"obsTime":1779025500},"SBCJ":{"icaoId":"SBCJ","flightCategory":"VFR","rawOb":"METAR SBCJ 171400Z 05003KT 9999 SCT013 27/22 Q1018","temp":27,"dewp":22,"wdir":50,"wspd":3,"visib":"6+","altim":1018,"clouds":[{"cover":"SCT","base":1300}],"obsTime":1779026400},"SBKG":{"icaoId":"SBKG","flightCategory":"MVFR","rawOb":"METAR SBKG 171400Z 11009KT 9999 BKN026 26/22 Q1017","temp":26,"dewp":22,"wdir":110,"wspd":9,"visib":"6+","altim":1017,"clouds":[{"cover":"BKN","base":2600}],"obsTime":1779026400},"SBPB":{"icaoId":"SBPB","flightCategory":"VFR","rawOb":"METAR SBPB 171400Z 07015KT 9999 SCT020 30/25 Q1013","temp":30,"dewp":25,"wdir":70,"wspd":15,"visib":"6+","altim":1013,"clouds":[{"cover":"SCT","base":2000}],"obsTime":1779026400},"SBOI":{"icaoId":"SBOI","flightCategory":"VFR","rawOb":"METAR SBOI 171400Z AUTO 01006KT 340V050 9999 -RA FEW025 SCT030 OVC042 27/25 Q1014 RERA","temp":27,"dewp":25,"wdir":10,"wspd":6,"visib":"6+","altim":1014,"clouds":[{"cover":"FEW","base":2500},{"cover":"SCT","base":3000},{"cover":"OVC","base":4200}],"obsTime":1779026400},"SBSC":{"icaoId":"SBSC","flightCategory":"MVFR","rawOb":"METAR SBSC 171400Z 25007KT 8000 FEW020 BKN100 26/22 Q1015","temp":26,"dewp":22,"wdir":250,"wspd":7,"visib":4.97,"altim":1015,"clouds":[{"cover":"FEW","base":2000},{"cover":"BKN","base":10000}],"obsTime":1779026400},"SBCO":{"icaoId":"SBCO","flightCategory":"IFR","rawOb":"METAR SBCO 171400Z 19005KT 160V220 9999 OVC006 17/16 Q1016","temp":17,"dewp":16,"wdir":190,"wspd":5,"visib":"6+","altim":1016,"clouds":[{"cover":"OVC","base":600}],"obsTime":1779026400},"SBPS":{"icaoId":"SBPS","flightCategory":"MVFR","rawOb":"METAR SBPS 171400Z 18002KT 9000 VCSH FEW010 BKN016 BKN070 27/24 Q1016","temp":27,"dewp":24,"wdir":180,"wspd":2,"visib":5.59,"altim":1016,"clouds":[{"cover":"FEW","base":1000},{"cover":"BKN","base":1600},{"cover":"BKN","base":7000}],"obsTime":1779026400},"SBDN":{"icaoId":"SBDN","flightCategory":"IFR","rawOb":"METAR SBDN 171400Z 11010KT 4000 -TSRA SCT035 FEW050CB OVC070 18/17 Q1017","temp":18,"dewp":17,"wdir":110,"wspd":10,"visib":2.49,"altim":1017,"clouds":[{"cover":"SCT","base":3500},{"cover":"FEW","base":5000},{"cover":"OVC","base":7000}],"obsTime":1779026400},"SBES":{"icaoId":"SBES","flightCategory":"VFR","rawOb":"METAR SBES 171400Z VRB08KT 9999 FEW030 26/// Q1015","temp":null,"dewp":null,"wdir":"VRB","wspd":8,"visib":"6+","altim":1015,"clouds":[{"cover":"FEW","base":3000}],"obsTime":1779026400},"SBPP":{"icaoId":"SBPP","flightCategory":"LIFR","rawOb":"METAR SBPP 171400Z 30002KT 0700 FG VV000 19/19 Q1016","temp":19,"dewp":19,"wdir":300,"wspd":2,"visib":0.43,"altim":1016,"clouds":[{"cover":"OVX","base":0}],"obsTime":1779026400},"SBGM":{"icaoId":"SBGM","flightCategory":"VFR","rawOb":"METAR SBGM 171400Z 28003KT CAVOK 30/23 Q1014","temp":30,"dewp":23,"wdir":280,"wspd":3,"visib":"6+","altim":1014,"clouds":[],"obsTime":1779026400},"SBPL":{"icaoId":"SBPL","flightCategory":"VFR","rawOb":"METAR SBPL 171400Z 10008KT 9999 FEW025 30/18 Q1016","temp":30,"dewp":18,"wdir":100,"wspd":8,"visib":"6+","altim":1016,"clouds":[{"cover":"FEW","base":2500}],"obsTime":1779026400},"SBIP":{"icaoId":"SBIP","flightCategory":"MVFR","rawOb":"METAR SBIP 171400Z AUTO 34005KT 310V020 9999 BKN019 BKN028 25/20 Q1018","temp":25,"dewp":20,"wdir":340,"wspd":5,"visib":"6+","altim":1018,"clouds":[{"cover":"BKN","base":1900},{"cover":"BKN","base":2800}],"obsTime":1779026400},"SBAU":{"icaoId":"SBAU","flightCategory":"VFR","rawOb":"METAR SBAU 171400Z 18012KT 9999 TS SCT030 FEW045CB BKN080 23/19 Q1016","temp":23,"dewp":19,"wdir":180,"wspd":12,"visib":"6+","altim":1016,"clouds":[{"cover":"SCT","base":3000},{"cover":"FEW","base":4500},{"cover":"BKN","base":8000}],"obsTime":1779026400},"SBTU":{"icaoId":"SBTU","flightCategory":"VFR","rawOb":"METAR SBTU 171400Z AUTO 22006KT 170V250 9999 // SCT014/// SCT016/// ///// Q1015","temp":null,"dewp":null,"wdir":220,"wspd":6,"visib":"6+","altim":1015,"clouds":[{"cover":"SCT","base":1400},{"cover":"SCT","base":1600}],"obsTime":1779026400},"SBLS":{"icaoId":"SBLS","flightCategory":"VFR","rawOb":"METAR SBLS 171400Z VRB02KT 9999 SCT020 24/18 Q1020","temp":24,"dewp":18,"wdir":"VRB","wspd":2,"visib":"6+","altim":1020,"clouds":[{"cover":"SCT","base":2000}],"obsTime":1779026400},"SBAN":{"icaoId":"SBAN","flightCategory":"VFR","rawOb":"METAR SBAN 171400Z 16010KT CAVOK 26/16 Q1021","temp":26,"dewp":16,"wdir":160,"wspd":10,"visib":"6+","altim":1021,"clouds":[],"obsTime":1779026400},"SBIH":{"icaoId":"SBIH","flightCategory":"VFR","rawOb":"METAR SBIH 171400Z 09007KT 9999 SCT015 30/25 Q1013","temp":30,"dewp":25,"wdir":90,"wspd":7,"visib":"6+","altim":1013,"clouds":[{"cover":"SCT","base":1500}],"obsTime":1779026400},"SBJV":{"icaoId":"SBJV","flightCategory":"IFR","rawOb":"METAR SBJV 171400Z 05002KT 8000 BKN005 OVC050 20/19 Q1015","temp":20,"dewp":19,"wdir":50,"wspd":2,"visib":4.97,"altim":1015,"clouds":[{"cover":"BKN","base":500},{"cover":"OVC","base":5000}],"obsTime":1779026400},"SBGW":{"icaoId":"SBGW","flightCategory":"IFR","rawOb":"METAR SBGW 171400Z 24004KT 200V280 3000 HZ OVC007 22/16 Q1019","temp":22,"dewp":16,"wdir":240,"wspd":4,"visib":1.86,"altim":1019,"clouds":[{"cover":"OVC","base":700}],"obsTime":1779026400},"SBJR":{"icaoId":"SBJR","flightCategory":"MVFR","rawOb":"METAR SBJR 171400Z 17007KT 8000 NSC 29/22 Q1015","temp":29,"dewp":22,"wdir":170,"wspd":7,"visib":4.97,"altim":1015,"clouds":[],"obsTime":1779026400},"SBJP":{"icaoId":"SBJP","flightCategory":"MVFR","rawOb":"METAR SBJP 171400Z 06006KT 9999 BKN010 BKN020 OVC070 27/25 Q1015","temp":27,"dewp":25,"wdir":60,"wspd":6,"visib":"6+","altim":1015,"clouds":[{"cover":"BKN","base":1000},{"cover":"BKN","base":2000},{"cover":"OVC","base":7000}],"obsTime":1779026400},"SBMT":{"icaoId":"SBMT","flightCategory":"MVFR","rawOb":"METAR SBMT 171400Z 30003KT 9999 FEW010 OVC018 20/16 Q1019","temp":20,"dewp":16,"wdir":300,"wspd":3,"visib":"6+","altim":1019,"clouds":[{"cover":"FEW","base":1000},{"cover":"OVC","base":1800}],"obsTime":1779026400},"SBST":{"icaoId":"SBST","flightCategory":"VFR","rawOb":"METAR SBST 171400Z 21003KT 9000 FEW020 23/21 Q1014","temp":23,"dewp":21,"wdir":210,"wspd":3,"visib":5.59,"altim":1014,"clouds":[{"cover":"FEW","base":2000}],"obsTime":1779026400},"SBTA":{"icaoId":"SBTA","flightCategory":"MVFR","rawOb":"METAR SBTA 171400Z 06004KT 010V100 9000 BKN010 BKN100 23/19 Q1018","temp":23,"dewp":19,"wdir":60,"wspd":4,"visib":5.59,"altim":1018,"clouds":[{"cover":"BKN","base":1000},{"cover":"BKN","base":10000}],"obsTime":1779026400},"SBNM":{"icaoId":"SBNM","flightCategory":"LIFR","rawOb":"METAR SBNM 171400Z 16002KT 1000 BR OVC001 16/16 Q1015","temp":16,"dewp":16,"wdir":160,"wspd":2,"visib":0.62,"altim":1015,"clouds":[{"cover":"OVC","base":100}],"obsTime":1779026400},"SBAF":{"icaoId":"SBAF","flightCategory":"VFR","rawOb":"METAR SBAF 171400Z 30004KT 9000 FEW020 BKN080 28/23 Q1015","temp":28,"dewp":23,"wdir":300,"wspd":4,"visib":5.59,"altim":1015,"clouds":[{"cover":"FEW","base":2000},{"cover":"BKN","base":8000}],"obsTime":1779026400},"SBLE":{"icaoId":"SBLE","flightCategory":"VFR","rawOb":"METAR SBLE 171400Z AUTO 19004KT 140V250 9999 FEW031 25/18 Q1018","temp":25,"dewp":18,"wdir":190,"wspd":4,"visib":"6+","altim":1018,"clouds":[{"cover":"FEW","base":3100}],"obsTime":1779026400},"SBTC":{"icaoId":"SBTC","flightCategory":"VFR","rawOb":"METAR SBTC 171500Z 15009KT 9999 VCSH SCT018 BKN070 27/24 Q1015","temp":27,"dewp":24,"wdir":150,"wspd":9,"visib":"6+","altim":1015,"clouds":[{"cover":"SCT","base":1800},{"cover":"BKN","base":7000}],"obsTime":1779030000},"SBPF":{"icaoId":"SBPF","flightCategory":"MVFR","rawOb":"METAR SBPF 171400Z 17002KT 9999 BKN012 16/13 Q1016","temp":16,"dewp":13,"wdir":170,"wspd":2,"visib":"6+","altim":1016,"clouds":[{"cover":"BKN","base":1200}],"obsTime":1779026400}}}