{"updated":1774141424,"count":65,"data":{"SBEG":{"icaoId":"SBEG","flightCategory":"VFR","rawOb":"METAR SBEG 220000Z 12005KT CAVOK 30/24 Q1008","temp":30,"dewp":24,"wdir":120,"wspd":5,"visib":"6+","altim":1008,"clouds":[],"obsTime":1774137600},"SBBE":{"icaoId":"SBBE","flightCategory":"VFR","rawOb":"METAR SBBE 220000Z 06003KT CAVOK 27/25 Q1011","temp":27,"dewp":25,"wdir":60,"wspd":3,"visib":"6+","altim":1011,"clouds":[],"obsTime":1774137600},"SBBR":{"icaoId":"SBBR","flightCategory":"VFR","rawOb":"METAR SBBR 220000Z 04003KT 360V080 9999 SCT040 FEW045TCU BKN090 22/19 Q1018","temp":22,"dewp":19,"wdir":40,"wspd":3,"visib":"6+","altim":1018,"clouds":[{"cover":"SCT","base":4000},{"cover":"FEW","base":4500},{"cover":"BKN","base":9000}],"obsTime":1774137600},"SBBV":{"icaoId":"SBBV","flightCategory":"VFR","rawOb":"METAR SBBV 220000Z 14011KT 9999 FEW040 SCT100 32/20 Q1008","temp":32,"dewp":20,"wdir":140,"wspd":11,"visib":"6+","altim":1008,"clouds":[{"cover":"FEW","base":4000},{"cover":"SCT","base":10000}],"obsTime":1774137600},"SBCF":{"icaoId":"SBCF","flightCategory":"VFR","rawOb":"METAR SBCF 220000Z 17003KT 9999 FEW030 21/20 Q1016","temp":21,"dewp":20,"wdir":170,"wspd":3,"visib":"6+","altim":1016,"clouds":[{"cover":"FEW","base":3000}],"obsTime":1774137600},"SBCG":{"icaoId":"SBCG","flightCategory":"VFR","rawOb":"METAR SBCG 220000Z 01004KT CAVOK 26/22 Q1012","temp":26,"dewp":22,"wdir":10,"wspd":4,"visib":"6+","altim":1012,"clouds":[],"obsTime":1774137600},"SBCT":{"icaoId":"SBCT","flightCategory":"VFR","rawOb":"METAR SBCT 220000Z 09004KT 9999 FEW005 20/20 Q1016","temp":20,"dewp":20,"wdir":90,"wspd":4,"visib":"6+","altim":1016,"clouds":[{"cover":"FEW","base":500}],"obsTime":1774137600},"SBFI":{"icaoId":"SBFI","flightCategory":"VFR","rawOb":"METAR SBFI 220000Z 06001KT 9999 VCTS FEW035 FEW040CB 26/26 Q1009","temp":26,"dewp":26,"wdir":60,"wspd":1,"visib":"6+","altim":1009,"clouds":[{"cover":"FEW","base":3500},{"cover":"FEW","base":4000}],"obsTime":1774137600},"SBFZ":{"icaoId":"SBFZ","flightCategory":"VFR","rawOb":"METAR SBFZ 220000Z 08003KT CAVOK 28/25 Q1011","temp":28,"dewp":25,"wdir":80,"wspd":3,"visib":"6+","altim":1011,"clouds":[],"obsTime":1774137600},"SBGL":{"icaoId":"SBGL","flightCategory":"VFR","rawOb":"METAR SBGL 220000Z 14002KT 9999 FEW048 24/21 Q1013","temp":24,"dewp":21,"wdir":140,"wspd":2,"visib":"6+","altim":1013,"clouds":[{"cover":"FEW","base":4800}],"obsTime":1774137600},"SBGR":{"icaoId":"SBGR","flightCategory":"VFR","rawOb":"METAR SBGR 220000Z 13004KT 9999 FEW013 21/19 Q1016","temp":21,"dewp":19,"wdir":130,"wspd":4,"visib":"6+","altim":1016,"clouds":[{"cover":"FEW","base":1300}],"obsTime":1774137600},"SBKP":{"icaoId":"SBKP","flightCategory":"VFR","rawOb":"METAR SBKP 220000Z 11006KT CAVOK 24/20 Q1015","temp":24,"dewp":20,"wdir":110,"wspd":6,"visib":"6+","altim":1015,"clouds":[],"obsTime":1774137600},"SBLO":{"icaoId":"SBLO","flightCategory":"VFR","rawOb":"METAR SBLO 220000Z 35003KT CAVOK 29/20 Q1012","temp":29,"dewp":20,"wdir":350,"wspd":3,"visib":"6+","altim":1012,"clouds":[],"obsTime":1774137600},"SBMA":{"icaoId":"SBMA","flightCategory":"VFR","rawOb":"METAR SBMA 220000Z 29002KT CAVOK 27/24 Q1011","temp":27,"dewp":24,"wdir":290,"wspd":2,"visib":"6+","altim":1011,"clouds":[],"obsTime":1774137600},"SBMO":{"icaoId":"SBMO","flightCategory":"VFR","rawOb":"METAR SBMO 220000Z 05002KT 9999 FEW020 26/24 Q1013","temp":26,"dewp":24,"wdir":50,"wspd":2,"visib":"6+","altim":1013,"clouds":[{"cover":"FEW","base":2000}],"obsTime":1774137600},"SBMQ":{"icaoId":"SBMQ","flightCategory":"VFR","rawOb":"METAR SBMQ 220000Z 02004KT CAVOK 27/25 Q1011","temp":27,"dewp":25,"wdir":20,"wspd":4,"visib":"6+","altim":1011,"clouds":[],"obsTime":1774137600},"SBPV":{"icaoId":"SBPV","flightCategory":"VFR","rawOb":"METAR SBPV 220000Z 05003KT CAVOK 30/23 Q1006","temp":30,"dewp":23,"wdir":50,"wspd":3,"visib":"6+","altim":1006,"clouds":[],"obsTime":1774137600},"SBRB":{"icaoId":"SBRB","flightCategory":"VFR","rawOb":"METAR SBRB 220000Z 00000KT CAVOK 27/25 Q1007","temp":27,"dewp":25,"wdir":0,"wspd":0,"visib":"6+","altim":1007,"clouds":[],"obsTime":1774137600},"SBRF":{"icaoId":"SBRF","flightCategory":"VFR","rawOb":"METAR SBRF 220000Z 10005KT 9999 SCT023 29/24 Q1012","temp":29,"dewp":24,"wdir":100,"wspd":5,"visib":"6+","altim":1012,"clouds":[{"cover":"SCT","base":2300}],"obsTime":1774137600},"SBSG":{"icaoId":"SBSG","flightCategory":"VFR","rawOb":"METAR SBSG 220000Z 13003KT 090V160 9999 FEW025 26/24 Q1013","temp":26,"dewp":24,"wdir":130,"wspd":3,"visib":"6+","altim":1013,"clouds":[{"cover":"FEW","base":2500}],"obsTime":1774137600},"SBSL":{"icaoId":"SBSL","flightCategory":"VFR","rawOb":"METAR SBSL 220000Z 08004KT CAVOK 26/23 Q1011","temp":26,"dewp":23,"wdir":80,"wspd":4,"visib":"6+","altim":1011,"clouds":[],"obsTime":1774137600},"SBSN":{"icaoId":"SBSN","flightCategory":"VFR","rawOb":"METAR SBSN 220000Z 15004KT 9999 FEW020 26/24 Q1010","temp":26,"dewp":24,"wdir":150,"wspd":4,"visib":"6+","altim":1010,"clouds":[{"cover":"FEW","base":2000}],"obsTime":1774137600},"SBSP":{"icaoId":"SBSP","flightCategory":"VFR","rawOb":"METAR SBSP 220000Z 14004KT CAVOK 21/19 Q1017","temp":21,"dewp":19,"wdir":140,"wspd":4,"visib":"6+","altim":1017,"clouds":[],"obsTime":1774137600},"SBSV":{"icaoId":"SBSV","flightCategory":"VFR","rawOb":"METAR SBSV 220000Z 07012KT 9999 FEW019 28/23 Q1012","temp":28,"dewp":23,"wdir":70,"wspd":12,"visib":"6+","altim":1012,"clouds":[{"cover":"FEW","base":1900}],"obsTime":1774137600},"SBIL":{"icaoId":"SBIL","flightCategory":"VFR","rawOb":"METAR SBIL 220000Z 06006KT CAVOK 29/26 Q1012","temp":29,"dewp":26,"wdir":60,"wspd":6,"visib":"6+","altim":1012,"clouds":[],"obsTime":1774137600},"SBJU":{"icaoId":"SBJU","flightCategory":"VFR","rawOb":"METAR SBJU 220000Z 12002KT 9999 FEW020 25/23 Q1014","temp":25,"dewp":23,"wdir":120,"wspd":2,"visib":"6+","altim":1014,"clouds":[{"cover":"FEW","base":2000}],"obsTime":1774137600},"SBTE":{"icaoId":"SBTE","flightCategory":"VFR","rawOb":"METAR SBTE 220000Z 32004KT 9999 FEW020 SCT100 26/24 Q1012","temp":26,"dewp":24,"wdir":320,"wspd":4,"visib":"6+","altim":1012,"clouds":[{"cover":"FEW","base":2000},{"cover":"SCT","base":10000}],"obsTime":1774137600},"SBME":{"icaoId":"SBME","flightCategory":"VFR","rawOb":"METAR SBME 220000Z 14002KT 9999 FEW040 26/23 Q1013","temp":26,"dewp":23,"wdir":140,"wspd":2,"visib":"6+","altim":1013,"clouds":[{"cover":"FEW","base":4000}],"obsTime":1774137600},"SBMG":{"icaoId":"SBMG","flightCategory":"VFR","rawOb":"METAR SBMG 220000Z 02006KT CAVOK 28/22 Q1011","temp":28,"dewp":22,"wdir":20,"wspd":6,"visib":"6+","altim":1011,"clouds":[],"obsTime":1774137600},"SBMK":{"icaoId":"SBMK","flightCategory":"VFR","rawOb":"METAR SBMK 220000Z 02003KT 9999 FEW035 SCT090 22/21 Q1016","temp":22,"dewp":21,"wdir":20,"wspd":3,"visib":"6+","altim":1016,"clouds":[{"cover":"FEW","base":3500},{"cover":"SCT","base":9000}],"obsTime":1774137600},"SBUL":{"icaoId":"SBUL","flightCategory":"VFR","rawOb":"METAR SBUL 220000Z 29002KT 9999 FEW040 23/21 Q1017","temp":23,"dewp":21,"wdir":290,"wspd":2,"visib":"6+","altim":1017,"clouds":[{"cover":"FEW","base":4000}],"obsTime":1774137600},"SBNT":{"icaoId":"SBNT","flightCategory":"VFR","rawOb":"METAR SBNT 220000Z 11007KT 9999 FEW023 28/24 Q1012","temp":28,"dewp":24,"wdir":110,"wspd":7,"visib":"6+","altim":1012,"clouds":[{"cover":"FEW","base":2300}],"obsTime":1774137600},"SBPA":{"icaoId":"SBPA","flightCategory":"IFR","rawOb":"METAR SBPA 220000Z 33007KT 280V010 4000 -TSRA SCT030 FEW040CB BKN100 23/22 Q1010","temp":23,"dewp":22,"wdir":330,"wspd":7,"visib":2.49,"altim":1010,"clouds":[{"cover":"SCT","base":3000},{"cover":"FEW","base":4000},{"cover":"BKN","base":10000}],"obsTime":1774137600},"SBPJ":{"icaoId":"SBPJ","flightCategory":"VFR","rawOb":"METAR SBPJ 220000Z 11003KT 9999 FEW027 SCT100 27/24 Q1013","temp":27,"dewp":24,"wdir":110,"wspd":3,"visib":"6+","altim":1013,"clouds":[{"cover":"FEW","base":2700},{"cover":"SCT","base":10000}],"obsTime":1774137600},"SBCB":{"icaoId":"SBCB","flightCategory":"VFR","rawOb":"METAR SBCB 220000Z 09001KT 9999 FEW040 24/21 Q1014","temp":24,"dewp":21,"wdir":90,"wspd":1,"visib":"6+","altim":1014,"clouds":[{"cover":"FEW","base":4000}],"obsTime":1774137600},"SBUR":{"icaoId":"SBUR","flightCategory":"VFR","rawOb":"METAR SBUR 220000Z 16002KT 9999 VCTS FEW045 FEW050CB 26/20 Q1015","temp":26,"dewp":20,"wdir":160,"wspd":2,"visib":"6+","altim":1015,"clouds":[{"cover":"FEW","base":4500},{"cover":"FEW","base":5000}],"obsTime":1774137600},"SBCZ":{"icaoId":"SBCZ","flightCategory":"MVFR","rawOb":"METAR SBCZ 220000Z 00000KT 9999 BKN010 OVC100 24/24 Q1007","temp":24,"dewp":24,"wdir":0,"wspd":0,"visib":"6+","altim":1007,"clouds":[{"cover":"BKN","base":1000},{"cover":"OVC","base":10000}],"obsTime":1774137600},"SBFL":{"icaoId":"SBFL","flightCategory":"VFR","rawOb":"METAR SBFL 220000Z 36010KT 330V030 9999 BKN040 27/23 Q1011","temp":27,"dewp":23,"wdir":360,"wspd":10,"visib":"6+","altim":1011,"clouds":[{"cover":"BKN","base":4000}],"obsTime":1774137600},"SBVT":{"icaoId":"SBVT","flightCategory":"VFR","rawOb":"METAR SBVT 220000Z 27002KT CAVOK 24/23 Q1013","temp":24,"dewp":23,"wdir":270,"wspd":2,"visib":"6+","altim":1013,"clouds":[],"obsTime":1774137600},"SBGO":{"icaoId":"SBGO","flightCategory":"VFR","rawOb":"METAR SBGO 220000Z 36004KT 9999 VCTS FEW040 FEW048CB 26/21 Q1016","temp":26,"dewp":21,"wdir":360,"wspd":4,"visib":"6+","altim":1016,"clouds":[{"cover":"FEW","base":4000},{"cover":"FEW","base":4800}],"obsTime":1774137600},"SBAR":{"icaoId":"SBAR","flightCategory":"VFR","rawOb":"METAR SBAR 220000Z 08009KT 9999 SCT017 28/24 Q1012","temp":28,"dewp":24,"wdir":80,"wspd":9,"visib":"6+","altim":1012,"clouds":[{"cover":"SCT","base":1700}],"obsTime":1774137600},"SBPL":{"icaoId":"SBPL","flightCategory":"VFR","rawOb":"METAR SBPL 220000Z 27002KT 9999 SCT020 BKN070 27/22 Q1013","temp":27,"dewp":22,"wdir":270,"wspd":2,"visib":"6+","altim":1013,"clouds":[{"cover":"SCT","base":2000},{"cover":"BKN","base":7000}],"obsTime":1774137600},"SBSJ":{"icaoId":"SBSJ","flightCategory":"VFR","rawOb":"METAR SBSJ 220000Z 19004KT 9999 SCT020 23/// Q1016","temp":null,"dewp":null,"wdir":190,"wspd":4,"visib":"6+","altim":1016,"clouds":[{"cover":"SCT","base":2000}],"obsTime":1774137600},"SBOI":{"icaoId":"SBOI","flightCategory":"VFR","rawOb":"METAR SBOI 220000Z AUTO 04002KT CAVOK 24/23 Q1012","temp":24,"dewp":23,"wdir":40,"wspd":2,"visib":"6+","altim":1012,"clouds":[],"obsTime":1774137600},"SBPS":{"icaoId":"SBPS","flightCategory":"VFR","rawOb":"METAR SBPS 220000Z 03005KT 360V060 9999 FEW020 SCT100 27/24 Q1012","temp":27,"dewp":24,"wdir":30,"wspd":5,"visib":"6+","altim":1012,"clouds":[{"cover":"FEW","base":2000},{"cover":"SCT","base":10000}],"obsTime":1774137600},"SBDN":{"icaoId":"SBDN","flightCategory":"VFR","rawOb":"METAR SBDN 220000Z 00000KT CAVOK 28/22 Q1011","temp":28,"dewp":22,"wdir":0,"wspd":0,"visib":"6+","altim":1011,"clouds":[],"obsTime":1774137600},"SBES":{"icaoId":"SBES","flightCategory":"VFR","rawOb":"METAR SBES 220000Z 00000KT 9999 FEW020 21/// Q1014","temp":null,"dewp":null,"wdir":0,"wspd":0,"visib":"6+","altim":1014,"clouds":[{"cover":"FEW","base":2000}],"obsTime":1774137600},"SBIP":{"icaoId":"SBIP","flightCategory":"VFR","rawOb":"METAR SBIP 220000Z AUTO 36003KT 310V030 CAVOK 24/24 Q1012","temp":24,"dewp":24,"wdir":360,"wspd":3,"visib":"6+","altim":1012,"clouds":[],"obsTime":1774137600},"SBKG":{"icaoId":"SBKG","flightCategory":"MVFR","rawOb":"METAR SBKG 220000Z 09008KT 9999 BKN015 24/21 Q1015","temp":24,"dewp":21,"wdir":90,"wspd":8,"visib":"6+","altim":1015,"clouds":[{"cover":"BKN","base":1500}],"obsTime":1774137600},"SBSC":{"icaoId":"SBSC","flightCategory":"VFR","rawOb":"METAR SBSC 220000Z 16002KT CAVOK 24/22 Q1013","temp":24,"dewp":22,"wdir":160,"wspd":2,"visib":"6+","altim":1013,"clouds":[],"obsTime":1774137600},"SBSM":{"icaoId":"SBSM","flightCategory":"VFR","rawOb":"METAR SBSM 220000Z VRB02KT 9999 FEW045 FEW050TCU BKN080 23/23 Q1009","temp":23,"dewp":23,"wdir":"VRB","wspd":2,"visib":"6+","altim":1009,"clouds":[{"cover":"FEW","base":4500},{"cover":"FEW","base":5000},{"cover":"BKN","base":8000}],"obsTime":1774137600},"SBSR":{"icaoId":"SBSR","flightCategory":"VFR","rawOb":"METAR SBSR 220000Z 15004KT CAVOK 28/20 Q1013","temp":28,"dewp":20,"wdir":150,"wspd":4,"visib":"6+","altim":1013,"clouds":[],"obsTime":1774137600},"SBAX":{"icaoId":"SBAX","flightCategory":"VFR","rawOb":"METAR SBAX 220000Z AUTO 15003KT CAVOK 23/19 Q1017","temp":23,"dewp":19,"wdir":150,"wspd":3,"visib":"6+","altim":1017,"clouds":[],"obsTime":1774137600},"SBBH":{"icaoId":"SBBH","flightCategory":"VFR","rawOb":"METAR SBBH 220000Z 00000KT CAVOK 21/20 Q1016","temp":21,"dewp":20,"wdir":0,"wspd":0,"visib":"6+","altim":1016,"clouds":[],"obsTime":1774137600},"SBBU":{"icaoId":"SBBU","flightCategory":"VFR","rawOb":"METAR SBBU 220000Z 13005KT CAVOK 29/21 Q1014","temp":29,"dewp":21,"wdir":130,"wspd":5,"visib":"6+","altim":1014,"clouds":[],"obsTime":1774137600},"SBCO":{"icaoId":"SBCO","flightCategory":"IFR","rawOb":"METAR SBCO 220000Z 32004KT 4500 -TSRA SCT025 FEW040CB BKN100 22/21 Q1010","temp":22,"dewp":21,"wdir":320,"wspd":4,"visib":2.8,"altim":1010,"clouds":[{"cover":"SCT","base":2500},{"cover":"FEW","base":4000},{"cover":"BKN","base":10000}],"obsTime":1774137600},"SBJP":{"icaoId":"SBJP","flightCategory":"VFR","rawOb":"METAR SBJP 220000Z 09004KT CAVOK 27/23 Q1013","temp":27,"dewp":23,"wdir":90,"wspd":4,"visib":"6+","altim":1013,"clouds":[],"obsTime":1774137600},"SBPF":{"icaoId":"SBPF","flightCategory":"VFR","rawOb":"SPECI SBPF 212304Z AUTO 32007KT 280V340 9999 -RA VCTS //////CB 19/17 Q1014","temp":19,"dewp":17,"wdir":320,"wspd":7,"visib":"6+","altim":1014,"clouds":[],"obsTime":1774134240},"SBJR":{"icaoId":"SBJR","flightCategory":"VFR","rawOb":"METAR SBJR 220000Z 04002KT CAVOK 25/22 Q1013","temp":25,"dewp":22,"wdir":40,"wspd":2,"visib":"6+","altim":1013,"clouds":[],"obsTime":1774137600},"SBJV":{"icaoId":"SBJV","flightCategory":"MVFR","rawOb":"METAR SBJV 220000Z 02005KT 9999 BKN025 27/24 Q1011","temp":27,"dewp":24,"wdir":20,"wspd":5,"visib":"6+","altim":1011,"clouds":[{"cover":"BKN","base":2500}],"obsTime":1774137600},"SBLE":{"icaoId":"SBLE","flightCategory":"VFR","rawOb":"METAR SBLE 220000Z AUTO 29002KT CAVOK 24/22 Q1015","temp":24,"dewp":22,"wdir":290,"wspd":2,"visib":"6+","altim":1015,"clouds":[],"obsTime":1774137600},"SBLS":{"icaoId":"SBLS","flightCategory":"VFR","rawOb":"METAR SBLS 220000Z 14004KT CAVOK 21/20 Q1016","temp":21,"dewp":20,"wdir":140,"wspd":4,"visib":"6+","altim":1016,"clouds":[],"obsTime":1774137600},"SBMT":{"icaoId":"SBMT","flightCategory":"VFR","rawOb":"METAR SBMT 220000Z 12005KT CAVOK 21/19 Q1016","temp":21,"dewp":19,"wdir":120,"wspd":5,"visib":"6+","altim":1016,"clouds":[],"obsTime":1774137600},"SBAF":{"icaoId":"SBAF","flightCategory":"VFR","rawOb":"METAR SBAF 220000Z 33002KT CAVOK 23/23 Q1013","temp":23,"dewp":23,"wdir":330,"wspd":2,"visib":"6+","altim":1013,"clouds":[],"obsTime":1774137600},"SBAN":{"icaoId":"SBAN","flightCategory":"VFR","rawOb":"METAR SBAN 220000Z 00000KT 9999 FEW030 SCT100 21/19 Q1019","temp":21,"dewp":19,"wdir":0,"wspd":0,"visib":"6+","altim":1019,"clouds":[{"cover":"FEW","base":3000},{"cover":"SCT","base":10000}],"obsTime":1774137600}}}