{"updated":1776279864,"count":85,"data":{"SBVT":{"icaoId":"SBVT","flightCategory":"VFR","rawOb":"METAR SBVT 151800Z 17012KT 9999 FEW030 29/21 Q1012","temp":29,"dewp":21,"wdir":170,"wspd":12,"visib":"6+","altim":1012,"clouds":[{"cover":"FEW","base":3000}],"obsTime":1776276000},"SBBE":{"icaoId":"SBBE","flightCategory":"VFR","rawOb":"METAR SBBE 151800Z 01007KT 9999 BKN035 SCT100 29/24 Q1007","temp":29,"dewp":24,"wdir":10,"wspd":7,"visib":"6+","altim":1007,"clouds":[{"cover":"BKN","base":3500},{"cover":"SCT","base":10000}],"obsTime":1776276000},"SBBR":{"icaoId":"SBBR","flightCategory":"VFR","rawOb":"METAR SBBR 151800Z 15005KT 130V190 9999 4000SW VCSH SCT035 FEW040TCU BKN070 23/19 Q1017","temp":23,"dewp":19,"wdir":150,"wspd":5,"visib":"6+","altim":1017,"clouds":[{"cover":"SCT","base":3500},{"cover":"FEW","base":4000},{"cover":"BKN","base":7000}],"obsTime":1776276000},"SBBV":{"icaoId":"SBBV","flightCategory":"VFR","rawOb":"METAR SBBV 151800Z 12006KT 9999 FEW020 BKN040 FEW045TCU 34/22 Q1008","temp":34,"dewp":22,"wdir":120,"wspd":6,"visib":"6+","altim":1008,"clouds":[{"cover":"FEW","base":2000},{"cover":"BKN","base":4000},{"cover":"FEW","base":4500}],"obsTime":1776276000},"SBCB":{"icaoId":"SBCB","flightCategory":"VFR","rawOb":"METAR SBCB 151800Z 23009KT 9999 FEW025 26/20 Q1014","temp":26,"dewp":20,"wdir":230,"wspd":9,"visib":"6+","altim":1014,"clouds":[{"cover":"FEW","base":2500}],"obsTime":1776276000},"SBCF":{"icaoId":"SBCF","flightCategory":"VFR","rawOb":"METAR SBCF 151800Z 18005KT 9999 BKN040 27/15 Q1017","temp":27,"dewp":15,"wdir":180,"wspd":5,"visib":"6+","altim":1017,"clouds":[{"cover":"BKN","base":4000}],"obsTime":1776276000},"SBCG":{"icaoId":"SBCG","flightCategory":"VFR","rawOb":"METAR SBCG 151800Z 35009KT 9999 VCSH BKN045 FEW050TCU 31/20 Q1011","temp":31,"dewp":20,"wdir":350,"wspd":9,"visib":"6+","altim":1011,"clouds":[{"cover":"BKN","base":4500},{"cover":"FEW","base":5000}],"obsTime":1776276000},"SBCP":{"icaoId":"SBCP","flightCategory":"VFR","rawOb":"METAR SBCP 151800Z 20010KT 9999 SCT020 29/20 Q1013","temp":29,"dewp":20,"wdir":200,"wspd":10,"visib":"6+","altim":1013,"clouds":[{"cover":"SCT","base":2000}],"obsTime":1776276000},"SBCR":{"icaoId":"SBCR","flightCategory":"VFR","rawOb":"METAR SBCR 151800Z 02004KT 320V070 9999 FEW017 SCT035 FEW040TCU 27/23 Q1008","temp":27,"dewp":23,"wdir":20,"wspd":4,"visib":"6+","altim":1008,"clouds":[{"cover":"FEW","base":1700},{"cover":"SCT","base":3500},{"cover":"FEW","base":4000}],"obsTime":1776276000},"SBCT":{"icaoId":"SBCT","flightCategory":"VFR","rawOb":"METAR SBCT 151800Z 09008KT 060V130 9999 SCT035 23/14 Q1018","temp":23,"dewp":14,"wdir":90,"wspd":8,"visib":"6+","altim":1018,"clouds":[{"cover":"SCT","base":3500}],"obsTime":1776276000},"SBEG":{"icaoId":"SBEG","flightCategory":"VFR","rawOb":"METAR SBEG 151800Z VRB02KT 9999 VCSH SCT025 FEW030TCU 31/25 Q1007","temp":31,"dewp":25,"wdir":"VRB","wspd":2,"visib":"6+","altim":1007,"clouds":[{"cover":"SCT","base":2500},{"cover":"FEW","base":3000}],"obsTime":1776276000},"SBFI":{"icaoId":"SBFI","flightCategory":"VFR","rawOb":"SPECI SBFI 151736Z 05013G23KT 9999 FEW025 FEW030TCU OVC090 24/21 Q1010","temp":24,"dewp":21,"wdir":50,"wspd":13,"visib":"6+","altim":1010,"clouds":[{"cover":"FEW","base":2500},{"cover":"FEW","base":3000},{"cover":"OVC","base":9000}],"obsTime":1776274560},"SBFL":{"icaoId":"SBFL","flightCategory":"VFR","rawOb":"METAR SBFL 151800Z 35009KT 9999 FEW025 27/19 Q1015","temp":27,"dewp":19,"wdir":350,"wspd":9,"visib":"6+","altim":1015,"clouds":[{"cover":"FEW","base":2500}],"obsTime":1776276000},"SBFZ":{"icaoId":"SBFZ","flightCategory":"VFR","rawOb":"METAR SBFZ 151800Z 13005KT 9999 FEW010 SCT018 FEW030TCU BKN100 27/25 Q1008","temp":27,"dewp":25,"wdir":130,"wspd":5,"visib":"6+","altim":1008,"clouds":[{"cover":"FEW","base":1000},{"cover":"SCT","base":1800},{"cover":"FEW","base":3000},{"cover":"BKN","base":10000}],"obsTime":1776276000},"SBGL":{"icaoId":"SBGL","flightCategory":"VFR","rawOb":"METAR SBGL 151800Z 12008KT 9999 SCT030 28/19 Q1014","temp":28,"dewp":19,"wdir":120,"wspd":8,"visib":"6+","altim":1014,"clouds":[{"cover":"SCT","base":3000}],"obsTime":1776276000},"SBGO":{"icaoId":"SBGO","flightCategory":"VFR","rawOb":"METAR SBGO 151800Z VRB03KT 9999 VCSH SCT045 FEW048TCU 30/18 Q1015","temp":30,"dewp":18,"wdir":"VRB","wspd":3,"visib":"6+","altim":1015,"clouds":[{"cover":"SCT","base":4500},{"cover":"FEW","base":4800}],"obsTime":1776276000},"SBGR":{"icaoId":"SBGR","flightCategory":"VFR","rawOb":"METAR SBGR 151800Z 05006KT CAVOK 27/13 Q1017","temp":27,"dewp":13,"wdir":50,"wspd":6,"visib":"6+","altim":1017,"clouds":[],"obsTime":1776276000},"SBKP":{"icaoId":"SBKP","flightCategory":"VFR","rawOb":"METAR SBKP 151800Z 02002KT 9999 SCT045 29/11 Q1016","temp":29,"dewp":11,"wdir":20,"wspd":2,"visib":"6+","altim":1016,"clouds":[{"cover":"SCT","base":4500}],"obsTime":1776276000},"SBLO":{"icaoId":"SBLO","flightCategory":"VFR","rawOb":"METAR SBLO 151800Z 06007KT 9999 FEW040 29/17 Q1014","temp":29,"dewp":17,"wdir":60,"wspd":7,"visib":"6+","altim":1014,"clouds":[{"cover":"FEW","base":4000}],"obsTime":1776276000},"SBMA":{"icaoId":"SBMA","flightCategory":"VFR","rawOb":"METAR SBMA 151800Z 07005KT 9999 SCT020 FEW023TCU BKN100 30/25 Q1008","temp":30,"dewp":25,"wdir":70,"wspd":5,"visib":"6+","altim":1008,"clouds":[{"cover":"SCT","base":2000},{"cover":"FEW","base":2300},{"cover":"BKN","base":10000}],"obsTime":1776276000},"SBMO":{"icaoId":"SBMO","flightCategory":"VFR","rawOb":"METAR SBMO 151800Z 13007KT 9999 SCT030 30/22 Q1010","temp":30,"dewp":22,"wdir":130,"wspd":7,"visib":"6+","altim":1010,"clouds":[{"cover":"SCT","base":3000}],"obsTime":1776276000},"SBMQ":{"icaoId":"SBMQ","flightCategory":"VFR","rawOb":"METAR SBMQ 151800Z 02006KT 9999 FEW009 FEW025TCU OVC070 28/25 Q1007","temp":28,"dewp":25,"wdir":20,"wspd":6,"visib":"6+","altim":1007,"clouds":[{"cover":"FEW","base":900},{"cover":"FEW","base":2500},{"cover":"OVC","base":7000}],"obsTime":1776276000},"SBPA":{"icaoId":"SBPA","flightCategory":"VFR","rawOb":"METAR SBPA 151800Z 08008KT CAVOK 30/19 Q1011","temp":30,"dewp":19,"wdir":80,"wspd":8,"visib":"6+","altim":1011,"clouds":[],"obsTime":1776276000},"SBPJ":{"icaoId":"SBPJ","flightCategory":"VFR","rawOb":"METAR SBPJ 151800Z 26003KT 230V290 9999 SCT040 SCT080 32/24 Q1009","temp":32,"dewp":24,"wdir":260,"wspd":3,"visib":"6+","altim":1009,"clouds":[{"cover":"SCT","base":4000},{"cover":"SCT","base":8000}],"obsTime":1776276000},"SBPV":{"icaoId":"SBPV","flightCategory":"VFR","rawOb":"METAR SBPV 151800Z 36005KT 9999 SCT035 32/25 Q1007","temp":32,"dewp":25,"wdir":360,"wspd":5,"visib":"6+","altim":1007,"clouds":[{"cover":"SCT","base":3500}],"obsTime":1776276000},"SBRB":{"icaoId":"SBRB","flightCategory":"MVFR","rawOb":"METAR SBRB 151800Z 02008KT 360V060 9999 BKN025 FEW030TCU SCT100 31/25 Q1008","temp":31,"dewp":25,"wdir":20,"wspd":8,"visib":"6+","altim":1008,"clouds":[{"cover":"BKN","base":2500},{"cover":"FEW","base":3000},{"cover":"SCT","base":10000}],"obsTime":1776276000},"SBRF":{"icaoId":"SBRF","flightCategory":"VFR","rawOb":"METAR SBRF 151800Z 14011KT 9999 SCT025 29/23 Q1009","temp":29,"dewp":23,"wdir":140,"wspd":11,"visib":"6+","altim":1009,"clouds":[{"cover":"SCT","base":2500}],"obsTime":1776276000},"SBSG":{"icaoId":"SBSG","flightCategory":"MVFR","rawOb":"METAR SBSG 151800Z 12006KT 090V160 9999 VCSH BKN017 SCT023 28/24 Q1009","temp":28,"dewp":24,"wdir":120,"wspd":6,"visib":"6+","altim":1009,"clouds":[{"cover":"BKN","base":1700},{"cover":"SCT","base":2300}],"obsTime":1776276000},"SBSL":{"icaoId":"SBSL","flightCategory":"VFR","rawOb":"METAR SBSL 151800Z 07012KT 040V100 9999 SCT030 SCT070 30/24 Q1007","temp":30,"dewp":24,"wdir":70,"wspd":12,"visib":"6+","altim":1007,"clouds":[{"cover":"SCT","base":3000},{"cover":"SCT","base":7000}],"obsTime":1776276000},"SBSN":{"icaoId":"SBSN","flightCategory":"VFR","rawOb":"METAR SBSN 151800Z 08007KT 9999 VCSH SCT021 FEW025TCU 31/26 Q1007","temp":31,"dewp":26,"wdir":80,"wspd":7,"visib":"6+","altim":1007,"clouds":[{"cover":"SCT","base":2100},{"cover":"FEW","base":2500}],"obsTime":1776276000},"SBSP":{"icaoId":"SBSP","flightCategory":"VFR","rawOb":"METAR SBSP 151800Z 09003KT CAVOK 27/10 Q1018","temp":27,"dewp":10,"wdir":90,"wspd":3,"visib":"6+","altim":1018,"clouds":[],"obsTime":1776276000},"SBSV":{"icaoId":"SBSV","flightCategory":"MVFR","rawOb":"METAR SBSV 151800Z 18009KT 150V220 9999 BKN025 29/22 Q1011","temp":29,"dewp":22,"wdir":180,"wspd":9,"visib":"6+","altim":1011,"clouds":[{"cover":"BKN","base":2500}],"obsTime":1776276000},"SBTE":{"icaoId":"SBTE","flightCategory":"MVFR","rawOb":"METAR SBTE 151800Z 21003KT 9999 BKN025 FEW030TCU 32/24 Q1006","temp":32,"dewp":24,"wdir":210,"wspd":3,"visib":"6+","altim":1006,"clouds":[{"cover":"BKN","base":2500},{"cover":"FEW","base":3000}],"obsTime":1776276000},"SBHT":{"icaoId":"SBHT","flightCategory":"MVFR","rawOb":"METAR SBHT 151800Z 00000KT 9999 BKN013 OVC090 26/24 Q1009","temp":26,"dewp":24,"wdir":0,"wspd":0,"visib":"6+","altim":1009,"clouds":[{"cover":"BKN","base":1300},{"cover":"OVC","base":9000}],"obsTime":1776276000},"SBIL":{"icaoId":"SBIL","flightCategory":"VFR","rawOb":"METAR SBIL 151800Z 16008KT 130V190 9999 FEW023 29/23 Q1012","temp":29,"dewp":23,"wdir":160,"wspd":8,"visib":"6+","altim":1012,"clouds":[{"cover":"FEW","base":2300}],"obsTime":1776276000},"SBJU":{"icaoId":"SBJU","flightCategory":"VFR","rawOb":"METAR SBJU 151800Z 12008KT 9999 SCT020 29/21 Q1010","temp":29,"dewp":21,"wdir":120,"wspd":8,"visib":"6+","altim":1010,"clouds":[{"cover":"SCT","base":2000}],"obsTime":1776276000},"SBAT":{"icaoId":"SBAT","flightCategory":"MVFR","rawOb":"METAR SBAT 151800Z 05002KT 9999 -RA VCSH BKN030 FEW035TCU 32/24 Q1008","temp":32,"dewp":24,"wdir":50,"wspd":2,"visib":"6+","altim":1008,"clouds":[{"cover":"BKN","base":3000},{"cover":"FEW","base":3500}],"obsTime":1776276000},"SBME":{"icaoId":"SBME","flightCategory":"VFR","rawOb":"METAR SBME 151800Z 18007KT 9999 FEW025 29/20 Q1013","temp":29,"dewp":20,"wdir":180,"wspd":7,"visib":"6+","altim":1013,"clouds":[{"cover":"FEW","base":2500}],"obsTime":1776276000},"SBMG":{"icaoId":"SBMG","flightCategory":"VFR","rawOb":"METAR SBMG 151800Z 03007KT 350V050 9999 FEW045 29/18 Q1013","temp":29,"dewp":18,"wdir":30,"wspd":7,"visib":"6+","altim":1013,"clouds":[{"cover":"FEW","base":4500}],"obsTime":1776276000},"SBMK":{"icaoId":"SBMK","flightCategory":"VFR","rawOb":"METAR SBMK 151800Z 17005KT 9999 BKN040 27/17 Q1014","temp":27,"dewp":17,"wdir":170,"wspd":5,"visib":"6+","altim":1014,"clouds":[{"cover":"BKN","base":4000}],"obsTime":1776276000},"SBNT":{"icaoId":"SBNT","flightCategory":"VFR","rawOb":"METAR SBNT 151800Z 10011KT 080V140 9999 SCT020 28/24 Q1009","temp":28,"dewp":24,"wdir":100,"wspd":11,"visib":"6+","altim":1009,"clouds":[{"cover":"SCT","base":2000}],"obsTime":1776276000},"SBUL":{"icaoId":"SBUL","flightCategory":"VFR","rawOb":"METAR SBUL 151800Z 09005KT 9999 SCT045 27/16 Q1017","temp":27,"dewp":16,"wdir":90,"wspd":5,"visib":"6+","altim":1017,"clouds":[{"cover":"SCT","base":4500}],"obsTime":1776276000},"SBCZ":{"icaoId":"SBCZ","flightCategory":"MVFR","rawOb":"METAR SBCZ 151800Z 24004KT 9999 BKN030 FEW030TCU 33/24 Q1008","temp":33,"dewp":24,"wdir":240,"wspd":4,"visib":"6+","altim":1008,"clouds":[{"cover":"BKN","base":3000},{"cover":"FEW","base":3000}],"obsTime":1776276000},"SBUR":{"icaoId":"SBUR","flightCategory":"VFR","rawOb":"METAR SBUR 151800Z 05004KT CAVOK 28/14 Q1016","temp":28,"dewp":14,"wdir":50,"wspd":4,"visib":"6+","altim":1016,"clouds":[],"obsTime":1776276000},"SBAR":{"icaoId":"SBAR","flightCategory":"VFR","rawOb":"METAR SBAR 151800Z 12009KT 9999 SCT025 29/24 Q1010","temp":29,"dewp":24,"wdir":120,"wspd":9,"visib":"6+","altim":1010,"clouds":[{"cover":"SCT","base":2500}],"obsTime":1776276000},"SBCJ":{"icaoId":"SBCJ","flightCategory":"MVFR","rawOb":"METAR SBCJ 151800Z 07003KT 9999 BKN025 26/23 Q1012","temp":26,"dewp":23,"wdir":70,"wspd":3,"visib":"6+","altim":1012,"clouds":[{"cover":"BKN","base":2500}],"obsTime":1776276000},"SBOI":{"icaoId":"SBOI","flightCategory":"VFR","rawOb":"METAR SBOI 151800Z AUTO 04012KT 9999 FEW029 31/25 Q1008","temp":31,"dewp":25,"wdir":40,"wspd":12,"visib":"6+","altim":1008,"clouds":[{"cover":"FEW","base":2900}],"obsTime":1776276000},"SBPB":{"icaoId":"SBPB","flightCategory":"VFR","rawOb":"METAR SBPB 151800Z 06011KT 9999 SCT016 FEW025TCU SCT090 29/25 Q1007","temp":29,"dewp":25,"wdir":60,"wspd":11,"visib":"6+","altim":1007,"clouds":[{"cover":"SCT","base":1600},{"cover":"FEW","base":2500},{"cover":"SCT","base":9000}],"obsTime":1776276000},"SBPL":{"icaoId":"SBPL","flightCategory":"VFR","rawOb":"METAR SBPL 151800Z 13011KT 9999 SCT030 BKN070 31/21 Q1010","temp":31,"dewp":21,"wdir":130,"wspd":11,"visib":"6+","altim":1010,"clouds":[{"cover":"SCT","base":3000},{"cover":"BKN","base":7000}],"obsTime":1776276000},"SBPS":{"icaoId":"SBPS","flightCategory":"VFR","rawOb":"METAR SBPS 151800Z 18007KT 9999 SCT025 FEW030TCU 27/21 Q1012","temp":27,"dewp":21,"wdir":180,"wspd":7,"visib":"6+","altim":1012,"clouds":[{"cover":"SCT","base":2500},{"cover":"FEW","base":3000}],"obsTime":1776276000},"SBSJ":{"icaoId":"SBSJ","flightCategory":"VFR","rawOb":"METAR SBSJ 151800Z 07006KT 010V120 CAVOK 27/13 Q1016","temp":27,"dewp":13,"wdir":70,"wspd":6,"visib":"6+","altim":1016,"clouds":[],"obsTime":1776276000},"SBTF":{"icaoId":"SBTF","flightCategory":"VFR","rawOb":"METAR SBTF 151800Z 07005KT 9999 SCT020 34/25 Q1008","temp":34,"dewp":25,"wdir":70,"wspd":5,"visib":"6+","altim":1008,"clouds":[{"cover":"SCT","base":2000}],"obsTime":1776276000},"SBTT":{"icaoId":"SBTT","flightCategory":"VFR","rawOb":"METAR SBTT 151800Z VRB05KT 9999 BKN033 30/24 Q1008","temp":30,"dewp":24,"wdir":"VRB","wspd":5,"visib":"6+","altim":1008,"clouds":[{"cover":"BKN","base":3300}],"obsTime":1776276000},"SBUY":{"icaoId":"SBUY","flightCategory":"VFR","rawOb":"METAR SBUY 151800Z 13007KT 9999 SCT025 31/24 Q1007","temp":31,"dewp":24,"wdir":130,"wspd":7,"visib":"6+","altim":1007,"clouds":[{"cover":"SCT","base":2500}],"obsTime":1776276000},"SBSM":{"icaoId":"SBSM","flightCategory":"VFR","rawOb":"METAR SBSM 151800Z 09006KT 060V120 9999 FEW045 SCT100 28/20 Q1009","temp":28,"dewp":20,"wdir":90,"wspd":6,"visib":"6+","altim":1009,"clouds":[{"cover":"FEW","base":4500},{"cover":"SCT","base":10000}],"obsTime":1776276000},"SBCO":{"icaoId":"SBCO","flightCategory":"VFR","rawOb":"METAR SBCO 151800Z 10007KT 060V120 CAVOK 29/19 Q1011","temp":29,"dewp":19,"wdir":100,"wspd":7,"visib":"6+","altim":1011,"clouds":[],"obsTime":1776276000},"SBDN":{"icaoId":"SBDN","flightCategory":"VFR","rawOb":"METAR SBDN 151800Z 01006KT 9999 FEW049 32/17 Q1012","temp":32,"dewp":17,"wdir":10,"wspd":6,"visib":"6+","altim":1012,"clouds":[{"cover":"FEW","base":4900}],"obsTime":1776276000},"SBES":{"icaoId":"SBES","flightCategory":"VFR","rawOb":"METAR SBES 151800Z 21011KT 170V250 9999 FEW030 26/// Q1014","temp":null,"dewp":null,"wdir":210,"wspd":11,"visib":"6+","altim":1014,"clouds":[{"cover":"FEW","base":3000}],"obsTime":1776276000},"SBGM":{"icaoId":"SBGM","flightCategory":"VFR","rawOb":"METAR SBGM 151800Z 28005KT 9999 SCT020 SCT030 32/24 Q1008","temp":32,"dewp":24,"wdir":280,"wspd":5,"visib":"6+","altim":1008,"clouds":[{"cover":"SCT","base":2000},{"cover":"SCT","base":3000}],"obsTime":1776276000},"SBIP":{"icaoId":"SBIP","flightCategory":"VFR","rawOb":"METAR SBIP 151800Z AUTO 22004KT 170V320 CAVOK 30/17 Q1013","temp":30,"dewp":17,"wdir":220,"wspd":4,"visib":"6+","altim":1013,"clouds":[],"obsTime":1776276000},"SBKG":{"icaoId":"SBKG","flightCategory":"VFR","rawOb":"METAR SBKG 151800Z 08011KT 050V110 9999 FEW026 BKN090 26/22 Q1011","temp":26,"dewp":22,"wdir":80,"wspd":11,"visib":"6+","altim":1011,"clouds":[{"cover":"FEW","base":2600},{"cover":"BKN","base":9000}],"obsTime":1776276000},"SBSR":{"icaoId":"SBSR","flightCategory":"VFR","rawOb":"METAR SBSR 151800Z 36005KT 9999 SCT025 31/15 Q1013","temp":31,"dewp":15,"wdir":360,"wspd":5,"visib":"6+","altim":1013,"clouds":[{"cover":"SCT","base":2500}],"obsTime":1776276000},"SBVH":{"icaoId":"SBVH","flightCategory":"MVFR","rawOb":"METAR SBVH 151800Z 33003KT 9999 BKN030 FEW040TCU SCT100 30/21 Q1010","temp":30,"dewp":21,"wdir":330,"wspd":3,"visib":"6+","altim":1010,"clouds":[{"cover":"BKN","base":3000},{"cover":"FEW","base":4000},{"cover":"SCT","base":10000}],"obsTime":1776276000},"SBPP":{"icaoId":"SBPP","flightCategory":"IFR","rawOb":"METAR SBPP 151800Z 23018KT 2000 -RA BR OVC010 18/17 Q1016","temp":18,"dewp":17,"wdir":230,"wspd":18,"visib":1.24,"altim":1016,"clouds":[{"cover":"OVC","base":1000}],"obsTime":1776276000},"SBSC":{"icaoId":"SBSC","flightCategory":"VFR","rawOb":"METAR SBSC 151800Z 20007KT 9999 FEW030 27/19 Q1014","temp":27,"dewp":19,"wdir":200,"wspd":7,"visib":"6+","altim":1014,"clouds":[{"cover":"FEW","base":3000}],"obsTime":1776276000},"SBAU":{"icaoId":"SBAU","flightCategory":"VFR","rawOb":"METAR SBAU 151800Z 02006KT CAVOK 33/19 Q1012","temp":33,"dewp":19,"wdir":20,"wspd":6,"visib":"6+","altim":1012,"clouds":[],"obsTime":1776276000},"SBAX":{"icaoId":"SBAX","flightCategory":"VFR","rawOb":"METAR SBAX 151800Z 02005KT 9999 SCT040 27/15 Q1017","temp":27,"dewp":15,"wdir":20,"wspd":5,"visib":"6+","altim":1017,"clouds":[{"cover":"SCT","base":4000}],"obsTime":1776276000},"SBBH":{"icaoId":"SBBH","flightCategory":"VFR","rawOb":"METAR SBBH 151800Z 00000KT 9999 SCT045 27/16 Q1016","temp":27,"dewp":16,"wdir":0,"wspd":0,"visib":"6+","altim":1016,"clouds":[{"cover":"SCT","base":4500}],"obsTime":1776276000},"SBBQ":{"icaoId":"SBBQ","flightCategory":"VFR","rawOb":"METAR SBBQ 151800Z 14006KT 9999 SCT045 23/13 Q1020","temp":23,"dewp":13,"wdir":140,"wspd":6,"visib":"6+","altim":1020,"clouds":[{"cover":"SCT","base":4500}],"obsTime":1776276000},"SBBU":{"icaoId":"SBBU","flightCategory":"VFR","rawOb":"METAR SBBU 151800Z 00000KT 9999 SCT040 31/16 Q1014","temp":31,"dewp":16,"wdir":0,"wspd":0,"visib":"6+","altim":1014,"clouds":[{"cover":"SCT","base":4000}],"obsTime":1776276000},"SBCA":{"icaoId":"SBCA","flightCategory":"VFR","rawOb":"METAR SBCA 151800Z 36011KT 9999 FEW020 BKN100 23/18 Q1016","temp":23,"dewp":18,"wdir":360,"wspd":11,"visib":"6+","altim":1016,"clouds":[{"cover":"FEW","base":2000},{"cover":"BKN","base":10000}],"obsTime":1776276000},"SBCC":{"icaoId":"SBCC","flightCategory":"VFR","rawOb":"METAR SBCC 151800Z 34009KT 9999 SCT025 SCT100 27/22 Q1009","temp":27,"dewp":22,"wdir":340,"wspd":9,"visib":"6+","altim":1009,"clouds":[{"cover":"SCT","base":2500},{"cover":"SCT","base":10000}],"obsTime":1776276000},"SBJR":{"icaoId":"SBJR","flightCategory":"VFR","rawOb":"METAR SBJR 151800Z 20005KT 9999 FEW025 29/20 Q1014","temp":29,"dewp":20,"wdir":200,"wspd":5,"visib":"6+","altim":1014,"clouds":[{"cover":"FEW","base":2500}],"obsTime":1776276000},"SBGW":{"icaoId":"SBGW","flightCategory":"VFR","rawOb":"METAR SBGW 151800Z 02005KT 320V110 9999 SCT030 28/13 Q1016","temp":28,"dewp":13,"wdir":20,"wspd":5,"visib":"6+","altim":1016,"clouds":[{"cover":"SCT","base":3000}],"obsTime":1776276000},"SBAN":{"icaoId":"SBAN","flightCategory":"MVFR","rawOb":"METAR SBAN 151800Z 22004KT 5000 -RA BKN025 FEW030TCU BKN080 21/19 Q1018","temp":21,"dewp":19,"wdir":220,"wspd":4,"visib":3.11,"altim":1018,"clouds":[{"cover":"BKN","base":2500},{"cover":"FEW","base":3000},{"cover":"BKN","base":8000}],"obsTime":1776276000},"SBLE":{"icaoId":"SBLE","flightCategory":"VFR","rawOb":"METAR SBLE 151800Z AUTO 15005KT 110V200 9999 SCT047 28/19 Q1013","temp":28,"dewp":19,"wdir":150,"wspd":5,"visib":"6+","altim":1013,"clouds":[{"cover":"SCT","base":4700}],"obsTime":1776276000},"SBJV":{"icaoId":"SBJV","flightCategory":"VFR","rawOb":"METAR SBJV 151800Z 04002KT 9999 FEW025 BKN045 26/21 Q1015","temp":26,"dewp":21,"wdir":40,"wspd":2,"visib":"6+","altim":1015,"clouds":[{"cover":"FEW","base":2500},{"cover":"BKN","base":4500}],"obsTime":1776276000},"SBNM":{"icaoId":"SBNM","flightCategory":"VFR","rawOb":"METAR SBNM 151800Z 04012KT 9999 VCSH SCT030 FEW030TCU OVC100 26/19 Q1010","temp":26,"dewp":19,"wdir":40,"wspd":12,"visib":"6+","altim":1010,"clouds":[{"cover":"SCT","base":3000},{"cover":"FEW","base":3000},{"cover":"OVC","base":10000}],"obsTime":1776276000},"SBIH":{"icaoId":"SBIH","flightCategory":"VFR","rawOb":"METAR SBIH 151800Z 33003KT 9999 FEW020 FEW025TCU 34/26 Q1006","temp":34,"dewp":26,"wdir":330,"wspd":3,"visib":"6+","altim":1006,"clouds":[{"cover":"FEW","base":2000},{"cover":"FEW","base":2500}],"obsTime":1776276000},"SBAF":{"icaoId":"SBAF","flightCategory":"VFR","rawOb":"METAR SBAF 151800Z 20007KT 9999 FEW030 BKN060 28/20 Q1014","temp":28,"dewp":20,"wdir":200,"wspd":7,"visib":"6+","altim":1014,"clouds":[{"cover":"FEW","base":3000},{"cover":"BKN","base":6000}],"obsTime":1776276000},"SBLS":{"icaoId":"SBLS","flightCategory":"VFR","rawOb":"METAR SBLS 151800Z 19004KT 110V230 9999 SCT040 26/14 Q1017","temp":26,"dewp":14,"wdir":190,"wspd":4,"visib":"6+","altim":1017,"clouds":[{"cover":"SCT","base":4000}],"obsTime":1776276000},"SBMT":{"icaoId":"SBMT","flightCategory":"VFR","rawOb":"METAR SBMT 151800Z 09008KT CAVOK 26/11 Q1017","temp":26,"dewp":11,"wdir":90,"wspd":8,"visib":"6+","altim":1017,"clouds":[],"obsTime":1776276000},"SBST":{"icaoId":"SBST","flightCategory":"VFR","rawOb":"METAR SBST 151800Z 17006KT 9999 FEW040 27/19 Q1014","temp":27,"dewp":19,"wdir":170,"wspd":6,"visib":"6+","altim":1014,"clouds":[{"cover":"FEW","base":4000}],"obsTime":1776276000},"SBTA":{"icaoId":"SBTA","flightCategory":"VFR","rawOb":"METAR SBTA 151800Z 02006KT 340V090 9999 FEW030 27/10 Q1015","temp":27,"dewp":10,"wdir":20,"wspd":6,"visib":"6+","altim":1015,"clouds":[{"cover":"FEW","base":3000}],"obsTime":1776276000},"SBJP":{"icaoId":"SBJP","flightCategory":"VFR","rawOb":"METAR SBJP 151800Z 11011KT 9999 SCT030 SCT070 30/24 Q1009","temp":30,"dewp":24,"wdir":110,"wspd":11,"visib":"6+","altim":1009,"clouds":[{"cover":"SCT","base":3000},{"cover":"SCT","base":7000}],"obsTime":1776276000}}}