{"updated":1779878620,"count":72,"data":{"SBGL":{"icaoId":"SBGL","flightCategory":"MVFR","rawOb":"METAR SBGL 270900Z 05003KT 5000 BR FEW007 20/19 Q1015","temp":20,"dewp":19,"wdir":50,"wspd":3,"visib":3.11,"altim":1015,"clouds":[{"cover":"FEW","base":700}],"obsTime":1779872400},"SBNT":{"icaoId":"SBNT","flightCategory":"VFR","rawOb":"METAR SBNT 270900Z 21006KT 9999 FEW013 SCT030 24/23 Q1013","temp":24,"dewp":23,"wdir":210,"wspd":6,"visib":"6+","altim":1013,"clouds":[{"cover":"FEW","base":1300},{"cover":"SCT","base":3000}],"obsTime":1779872400},"SBRF":{"icaoId":"SBRF","flightCategory":"VFR","rawOb":"METAR SBRF 270900Z 20009KT 9000 VCSH SCT023 BKN040 23/22 Q1014","temp":23,"dewp":22,"wdir":200,"wspd":9,"visib":5.59,"altim":1014,"clouds":[{"cover":"SCT","base":2300},{"cover":"BKN","base":4000}],"obsTime":1779872400},"SBBR":{"icaoId":"SBBR","flightCategory":"VFR","rawOb":"METAR SBBR 270900Z 06002KT CAVOK 15/14 Q1022","temp":15,"dewp":14,"wdir":60,"wspd":2,"visib":"6+","altim":1022,"clouds":[],"obsTime":1779872400},"SBBV":{"icaoId":"SBBV","flightCategory":"VFR","rawOb":"METAR SBBV 270900Z 36004KT 9999 FEW004 SCT020 FEW035TCU BKN080 25/24 Q1012","temp":25,"dewp":24,"wdir":360,"wspd":4,"visib":"6+","altim":1012,"clouds":[{"cover":"FEW","base":400},{"cover":"SCT","base":2000},{"cover":"FEW","base":3500},{"cover":"BKN","base":8000}],"obsTime":1779872400},"SBCB":{"icaoId":"SBCB","flightCategory":"MVFR","rawOb":"METAR SBCB 270900Z /////KT 7000 FEW005 SCT015 21/19 Q1015","temp":21,"dewp":19,"wdir":null,"wspd":null,"visib":4.35,"altim":1015,"clouds":[{"cover":"FEW","base":500},{"cover":"SCT","base":1500}],"obsTime":1779872400},"SBCF":{"icaoId":"SBCF","flightCategory":"MVFR","rawOb":"METAR SBCF 270900Z 00000KT 8000 NSC 16/15 Q1021","temp":16,"dewp":15,"wdir":0,"wspd":0,"visib":4.97,"altim":1021,"clouds":[],"obsTime":1779872400},"SBCG":{"icaoId":"SBCG","flightCategory":"IFR","rawOb":"METAR SBCG 270900Z 13008KT 6000 OVC005 21/20 Q1019","temp":21,"dewp":20,"wdir":130,"wspd":8,"visib":3.73,"altim":1019,"clouds":[{"cover":"OVC","base":500}],"obsTime":1779872400},"SBCP":{"icaoId":"SBCP","flightCategory":"VFR","rawOb":"METAR SBCP 271000Z 24006KT CAVOK 20/19 Q1017","temp":20,"dewp":19,"wdir":240,"wspd":6,"visib":"6+","altim":1017,"clouds":[],"obsTime":1779876000},"SBCT":{"icaoId":"SBCT","flightCategory":"IFR","rawOb":"METAR SBCT 270900Z 24004KT 9999 BKN005 16/16 Q1021","temp":16,"dewp":16,"wdir":240,"wspd":4,"visib":"6+","altim":1021,"clouds":[{"cover":"BKN","base":500}],"obsTime":1779872400},"SBEG":{"icaoId":"SBEG","flightCategory":"VFR","rawOb":"METAR SBEG 270900Z 00000KT CAVOK 25/24 Q1011","temp":25,"dewp":24,"wdir":0,"wspd":0,"visib":"6+","altim":1011,"clouds":[],"obsTime":1779872400},"SBFI":{"icaoId":"SBFI","flightCategory":"LIFR","rawOb":"METAR SBFI 270900Z 19003KT 0100 R15///// R33///// FG VV002 15/15 Q1019","temp":15,"dewp":15,"wdir":190,"wspd":3,"visib":0.06,"altim":1019,"clouds":[{"cover":"OVX","base":200}],"obsTime":1779872400},"SBFL":{"icaoId":"SBFL","flightCategory":"VFR","rawOb":"METAR SBFL 270900Z 19011KT CAVOK 18/14 Q1017","temp":18,"dewp":14,"wdir":190,"wspd":11,"visib":"6+","altim":1017,"clouds":[],"obsTime":1779872400},"SBFZ":{"icaoId":"SBFZ","flightCategory":"VFR","rawOb":"METAR SBFZ 270900Z 15010KT 9999 SCT020 SCT060 25/24 Q1012","temp":25,"dewp":24,"wdir":150,"wspd":10,"visib":"6+","altim":1012,"clouds":[{"cover":"SCT","base":2000},{"cover":"SCT","base":6000}],"obsTime":1779872400},"SBGO":{"icaoId":"SBGO","flightCategory":"VFR","rawOb":"METAR SBGO 270900Z 12002KT CAVOK 18/16 Q1019","temp":18,"dewp":16,"wdir":120,"wspd":2,"visib":"6+","altim":1019,"clouds":[],"obsTime":1779872400},"SBGR":{"icaoId":"SBGR","flightCategory":"MVFR","rawOb":"METAR SBGR 270900Z 00000KT 5000 BR BKN026 17/17 Q1020","temp":17,"dewp":17,"wdir":0,"wspd":0,"visib":3.11,"altim":1020,"clouds":[{"cover":"BKN","base":2600}],"obsTime":1779872400},"SBHT":{"icaoId":"SBHT","flightCategory":"VFR","rawOb":"METAR SBHT 271000Z 00000KT 9999 FEW010 SCT080 24/23 Q1012","temp":24,"dewp":23,"wdir":0,"wspd":0,"visib":"6+","altim":1012,"clouds":[{"cover":"FEW","base":1000},{"cover":"SCT","base":8000}],"obsTime":1779876000},"SBIL":{"icaoId":"SBIL","flightCategory":"VFR","rawOb":"METAR SBIL 271000Z 30004KT 9999 VCSH FEW020 BKN050 23/22 Q1017","temp":23,"dewp":22,"wdir":300,"wspd":4,"visib":"6+","altim":1017,"clouds":[{"cover":"FEW","base":2000},{"cover":"BKN","base":5000}],"obsTime":1779876000},"SBJU":{"icaoId":"SBJU","flightCategory":"MVFR","rawOb":"METAR SBJU 270900Z 00000KT 9999 BKN020 22/21 Q1016","temp":22,"dewp":21,"wdir":0,"wspd":0,"visib":"6+","altim":1016,"clouds":[{"cover":"BKN","base":2000}],"obsTime":1779872400},"SBKP":{"icaoId":"SBKP","flightCategory":"VFR","rawOb":"METAR SBKP 270900Z 10004KT CAVOK 17/16 Q1019","temp":17,"dewp":16,"wdir":100,"wspd":4,"visib":"6+","altim":1019,"clouds":[],"obsTime":1779872400},"SBLO":{"icaoId":"SBLO","flightCategory":"VFR","rawOb":"METAR SBLO 270900Z 22003KT CAVOK 18/18 Q1019","temp":18,"dewp":18,"wdir":220,"wspd":3,"visib":"6+","altim":1019,"clouds":[],"obsTime":1779872400},"SBMA":{"icaoId":"SBMA","flightCategory":"VFR","rawOb":"METAR SBMA 270900Z 00000KT CAVOK 22/21 Q1012","temp":22,"dewp":21,"wdir":0,"wspd":0,"visib":"6+","altim":1012,"clouds":[],"obsTime":1779872400},"SBME":{"icaoId":"SBME","flightCategory":"VFR","rawOb":"METAR SBME 270900Z 01002KT CAVOK 19/18 Q1015","temp":19,"dewp":18,"wdir":10,"wspd":2,"visib":"6+","altim":1015,"clouds":[],"obsTime":1779872400},"SBMG":{"icaoId":"SBMG","flightCategory":"LIFR","rawOb":"METAR SBMG 270900Z AUTO 15006KT 0400 R10/0400N FG VV001 17/17 Q1018","temp":17,"dewp":17,"wdir":150,"wspd":6,"visib":0.25,"altim":1018,"clouds":[{"cover":"OVX","base":100}],"obsTime":1779872400},"SBMK":{"icaoId":"SBMK","flightCategory":"VFR","rawOb":"METAR SBMK 270900Z 00000KT CAVOK 16/14 Q1020","temp":16,"dewp":14,"wdir":0,"wspd":0,"visib":"6+","altim":1020,"clouds":[],"obsTime":1779872400},"SBMO":{"icaoId":"SBMO","flightCategory":"VFR","rawOb":"METAR SBMO 270900Z 18003KT 9000 FEW003 SCT025 BKN070 23/22 Q1015","temp":23,"dewp":22,"wdir":180,"wspd":3,"visib":5.59,"altim":1015,"clouds":[{"cover":"FEW","base":300},{"cover":"SCT","base":2500},{"cover":"BKN","base":7000}],"obsTime":1779872400},"SBMQ":{"icaoId":"SBMQ","flightCategory":"VFR","rawOb":"METAR SBMQ 270900Z 30002KT 9999 FEW015 SCT067 25/25 Q1011","temp":25,"dewp":25,"wdir":300,"wspd":2,"visib":"6+","altim":1011,"clouds":[{"cover":"FEW","base":1500},{"cover":"SCT","base":6700}],"obsTime":1779872400},"SBPA":{"icaoId":"SBPA","flightCategory":"IFR","rawOb":"METAR SBPA 270900Z 24003KT 4000 BR BKN006 15/15 Q1021","temp":15,"dewp":15,"wdir":240,"wspd":3,"visib":2.49,"altim":1021,"clouds":[{"cover":"BKN","base":600}],"obsTime":1779872400},"SBPJ":{"icaoId":"SBPJ","flightCategory":"VFR","rawOb":"METAR SBPJ 270900Z 16005KT CAVOK 21/16 Q1014","temp":21,"dewp":16,"wdir":160,"wspd":5,"visib":"6+","altim":1014,"clouds":[],"obsTime":1779872400},"SBPV":{"icaoId":"SBPV","flightCategory":"VFR","rawOb":"METAR SBPV 270900Z 00000KT CAVOK 24/19 Q1012","temp":24,"dewp":19,"wdir":0,"wspd":0,"visib":"6+","altim":1012,"clouds":[],"obsTime":1779872400},"SBRB":{"icaoId":"SBRB","flightCategory":"MVFR","rawOb":"METAR SBRB 270900Z 14003KT 7000 NSC 21/21 Q1013","temp":21,"dewp":21,"wdir":140,"wspd":3,"visib":4.35,"altim":1013,"clouds":[],"obsTime":1779872400},"SBBE":{"icaoId":"SBBE","flightCategory":"VFR","rawOb":"METAR SBBE 270900Z 10004KT 9999 FEW017 BKN080 26/24 Q1011","temp":26,"dewp":24,"wdir":100,"wspd":4,"visib":"6+","altim":1011,"clouds":[{"cover":"FEW","base":1700},{"cover":"BKN","base":8000}],"obsTime":1779872400},"SBSG":{"icaoId":"SBSG","flightCategory":"LIFR","rawOb":"METAR SBSG 270900Z 19004KT 160V230 9999 BKN004 SCT020 23/23 Q1014","temp":23,"dewp":23,"wdir":190,"wspd":4,"visib":"6+","altim":1014,"clouds":[{"cover":"BKN","base":400},{"cover":"SCT","base":2000}],"obsTime":1779872400},"SBSL":{"icaoId":"SBSL","flightCategory":"MVFR","rawOb":"METAR SBSL 270900Z 08003KT 9999 BKN015 BKN090 25/24 Q1011","temp":25,"dewp":24,"wdir":80,"wspd":3,"visib":"6+","altim":1011,"clouds":[{"cover":"BKN","base":1500},{"cover":"BKN","base":9000}],"obsTime":1779872400},"SBSN":{"icaoId":"SBSN","flightCategory":"VFR","rawOb":"METAR SBSN 270900Z 08006KT 9999 SCT008 BKN090 28/26 Q1010","temp":28,"dewp":26,"wdir":80,"wspd":6,"visib":"6+","altim":1010,"clouds":[{"cover":"SCT","base":800},{"cover":"BKN","base":9000}],"obsTime":1779872400},"SBSP":{"icaoId":"SBSP","flightCategory":"VFR","rawOb":"METAR SBSP 270900Z 33004KT 9999 FEW027 BKN033 19/18 Q1021","temp":19,"dewp":18,"wdir":330,"wspd":4,"visib":"6+","altim":1021,"clouds":[{"cover":"FEW","base":2700},{"cover":"BKN","base":3300}],"obsTime":1779872400},"SBSV":{"icaoId":"SBSV","flightCategory":"VFR","rawOb":"METAR SBSV 270900Z 14008KT 9999 SCT023 26/21 Q1016","temp":26,"dewp":21,"wdir":140,"wspd":8,"visib":"6+","altim":1016,"clouds":[{"cover":"SCT","base":2300}],"obsTime":1779872400},"SBTE":{"icaoId":"SBTE","flightCategory":"VFR","rawOb":"METAR SBTE 270900Z 00000KT CAVOK 24/22 Q1011","temp":24,"dewp":22,"wdir":0,"wspd":0,"visib":"6+","altim":1011,"clouds":[],"obsTime":1779872400},"SBUL":{"icaoId":"SBUL","flightCategory":"VFR","rawOb":"METAR SBUL 270900Z 12004KT 9999 FEW035 18/15 Q1021","temp":18,"dewp":15,"wdir":120,"wspd":4,"visib":"6+","altim":1021,"clouds":[{"cover":"FEW","base":3500}],"obsTime":1779872400},"SBUR":{"icaoId":"SBUR","flightCategory":"VFR","rawOb":"METAR SBUR 270900Z 03005KT CAVOK 20/15 Q1020","temp":20,"dewp":15,"wdir":30,"wspd":5,"visib":"6+","altim":1020,"clouds":[],"obsTime":1779872400},"SBVT":{"icaoId":"SBVT","flightCategory":"VFR","rawOb":"METAR SBVT 270900Z 02002KT CAVOK 19/19 Q1017","temp":19,"dewp":19,"wdir":20,"wspd":2,"visib":"6+","altim":1017,"clouds":[],"obsTime":1779872400},"SBPB":{"icaoId":"SBPB","flightCategory":"VFR","rawOb":"SPECI SBPB 271015Z 11009KT 9999 FEW020 27/24 Q1012","temp":27,"dewp":24,"wdir":110,"wspd":9,"visib":"6+","altim":1012,"clouds":[{"cover":"FEW","base":2000}],"obsTime":1779876900},"SBCJ":{"icaoId":"SBCJ","flightCategory":"VFR","rawOb":"SPECI SBCJ 271015Z 00000KT CAVOK 23/17 Q1017","temp":23,"dewp":17,"wdir":0,"wspd":0,"visib":"6+","altim":1017,"clouds":[],"obsTime":1779876900},"SBCO":{"icaoId":"SBCO","flightCategory":"IFR","rawOb":"METAR SBCO 270900Z 22003KT 180V260 7000 -DZ BKN006 OVC014 15/15 Q1021","temp":15,"dewp":15,"wdir":220,"wspd":3,"visib":4.35,"altim":1021,"clouds":[{"cover":"BKN","base":600},{"cover":"OVC","base":1400}],"obsTime":1779872400},"SBPL":{"icaoId":"SBPL","flightCategory":"VFR","rawOb":"METAR SBPL 270900Z 10008KT 9999 SCT020 SCT070 23/20 Q1017","temp":23,"dewp":20,"wdir":100,"wspd":8,"visib":"6+","altim":1017,"clouds":[{"cover":"SCT","base":2000},{"cover":"SCT","base":7000}],"obsTime":1779872400},"SBBU":{"icaoId":"SBBU","flightCategory":"VFR","rawOb":"METAR SBBU 270900Z 10005KT CAVOK 21/19 Q1019","temp":21,"dewp":19,"wdir":100,"wspd":5,"visib":"6+","altim":1019,"clouds":[],"obsTime":1779872400},"SBPS":{"icaoId":"SBPS","flightCategory":"MVFR","rawOb":"METAR SBPS 270900Z 26006KT 9999 BKN025 SCT060 22/21 Q1017","temp":22,"dewp":21,"wdir":260,"wspd":6,"visib":"6+","altim":1017,"clouds":[{"cover":"BKN","base":2500},{"cover":"SCT","base":6000}],"obsTime":1779872400},"SBDN":{"icaoId":"SBDN","flightCategory":"MVFR","rawOb":"METAR SBDN 270900Z 14003KT 6000 NSC 20/18 Q1018","temp":20,"dewp":18,"wdir":140,"wspd":3,"visib":3.73,"altim":1018,"clouds":[],"obsTime":1779872400},"SBSC":{"icaoId":"SBSC","flightCategory":"VFR","rawOb":"METAR SBSC 270900Z 04005KT CAVOK 19/19 Q1015","temp":19,"dewp":19,"wdir":40,"wspd":5,"visib":"6+","altim":1015,"clouds":[],"obsTime":1779872400},"SBBH":{"icaoId":"SBBH","flightCategory":"VFR","rawOb":"METAR SBBH 270900Z 00000KT CAVOK 16/15 Q1021","temp":16,"dewp":15,"wdir":0,"wspd":0,"visib":"6+","altim":1021,"clouds":[],"obsTime":1779872400},"SBSJ":{"icaoId":"SBSJ","flightCategory":"LIFR","rawOb":"METAR SBSJ 270900Z VRB02KT 0050 R34///// R16/0375D FG VV001 17/17 Q1020","temp":17,"dewp":17,"wdir":"VRB","wspd":2,"visib":0.03,"altim":1020,"clouds":[{"cover":"OVX","base":100}],"obsTime":1779872400},"SBES":{"icaoId":"SBES","flightCategory":"VFR","rawOb":"METAR SBES 270900Z VRB03KT CAVOK 18/// Q1015","temp":null,"dewp":null,"wdir":"VRB","wspd":3,"visib":"6+","altim":1015,"clouds":[],"obsTime":1779872400},"SBSM":{"icaoId":"SBSM","flightCategory":"MVFR","rawOb":"METAR SBSM 270900Z 08002KT 9999 BKN012 13/13 Q1022","temp":13,"dewp":13,"wdir":80,"wspd":2,"visib":"6+","altim":1022,"clouds":[{"cover":"BKN","base":1200}],"obsTime":1779872400},"SBCA":{"icaoId":"SBCA","flightCategory":"LIFR","rawOb":"METAR SBCA 270900Z 16005KT 0100 FG VV000 15/15 Q1021","temp":15,"dewp":15,"wdir":160,"wspd":5,"visib":0.06,"altim":1021,"clouds":[{"cover":"OVX","base":0}],"obsTime":1779872400},"SBSR":{"icaoId":"SBSR","flightCategory":"VFR","rawOb":"METAR SBSR 270900Z 00000KT CAVOK 21/18 Q1018","temp":21,"dewp":18,"wdir":0,"wspd":0,"visib":"6+","altim":1018,"clouds":[],"obsTime":1779872400},"SBTU":{"icaoId":"SBTU","flightCategory":"VFR","rawOb":"METAR SBTU 270900Z AUTO 20004KT 9999 // BKN071/// 25/21 Q1013","temp":25,"dewp":21,"wdir":200,"wspd":4,"visib":"6+","altim":1013,"clouds":[{"cover":"BKN","base":7100}],"obsTime":1779872400},"SBAR":{"icaoId":"SBAR","flightCategory":"VFR","rawOb":"METAR SBAR 270900Z 12008KT 9999 FEW023 26/21 Q1015","temp":26,"dewp":21,"wdir":120,"wspd":8,"visib":"6+","altim":1015,"clouds":[{"cover":"FEW","base":2300}],"obsTime":1779872400},"SBIP":{"icaoId":"SBIP","flightCategory":"LIFR","rawOb":"METAR SBIP 270900Z AUTO 00000KT 0250 FG VV002 17/17 Q1019","temp":17,"dewp":17,"wdir":0,"wspd":0,"visib":0.16,"altim":1019,"clouds":[{"cover":"OVX","base":200}],"obsTime":1779872400},"SBKG":{"icaoId":"SBKG","flightCategory":"IFR","rawOb":"METAR SBKG 270900Z 14004KT 9999 BKN007 BKN070 21/21 Q1017","temp":21,"dewp":21,"wdir":140,"wspd":4,"visib":"6+","altim":1017,"clouds":[{"cover":"BKN","base":700},{"cover":"BKN","base":7000}],"obsTime":1779872400},"SBAX":{"icaoId":"SBAX","flightCategory":"VFR","rawOb":"METAR SBAX 270900Z AUTO 13005KT CAVOK 17/14 Q1021","temp":17,"dewp":14,"wdir":130,"wspd":5,"visib":"6+","altim":1021,"clouds":[],"obsTime":1779872400},"SBOI":{"icaoId":"SBOI","flightCategory":"IFR","rawOb":"METAR SBOI 270900Z AUTO VRB01KT 9999 // SCT002/// OVC006/// 24/23 Q1012","temp":24,"dewp":23,"wdir":"VRB","wspd":1,"visib":"6+","altim":1012,"clouds":[{"cover":"SCT","base":200},{"cover":"OVC","base":600}],"obsTime":1779872400},"SBJP":{"icaoId":"SBJP","flightCategory":"MVFR","rawOb":"METAR SBJP 270900Z 14008KT 9999 -RA BKN010 24/24 Q1014","temp":24,"dewp":24,"wdir":140,"wspd":8,"visib":"6+","altim":1014,"clouds":[{"cover":"BKN","base":1000}],"obsTime":1779872400},"SBLE":{"icaoId":"SBLE","flightCategory":"VFR","rawOb":"METAR SBLE 270900Z AUTO 00000KT 9999 FEW021 SCT024 ///// Q////","temp":null,"dewp":null,"wdir":0,"wspd":0,"visib":"6+","altim":null,"clouds":[{"cover":"FEW","base":2100},{"cover":"SCT","base":2400}],"obsTime":1779872400},"SBGW":{"icaoId":"SBGW","flightCategory":"LIFR","rawOb":"METAR SBGW 270900Z 00000KT 0500 FG OVC002 16/13 Q1019","temp":16,"dewp":13,"wdir":0,"wspd":0,"visib":0.31,"altim":1019,"clouds":[{"cover":"OVC","base":200}],"obsTime":1779872400},"SBLS":{"icaoId":"SBLS","flightCategory":"VFR","rawOb":"METAR SBLS 270900Z 17004KT 9999 FEW010 17/15 Q1021","temp":17,"dewp":15,"wdir":170,"wspd":4,"visib":"6+","altim":1021,"clouds":[{"cover":"FEW","base":1000}],"obsTime":1779872400},"SBMT":{"icaoId":"SBMT","flightCategory":"VFR","rawOb":"METAR SBMT 270900Z 00000KT 9999 SCT030 17/16 Q1020","temp":17,"dewp":16,"wdir":0,"wspd":0,"visib":"6+","altim":1020,"clouds":[{"cover":"SCT","base":3000}],"obsTime":1779872400},"SBTA":{"icaoId":"SBTA","flightCategory":"MVFR","rawOb":"METAR SBTA 270900Z VRB01KT 6000 BCFG FEW014 15/// Q1019","temp":null,"dewp":null,"wdir":"VRB","wspd":1,"visib":3.73,"altim":1019,"clouds":[{"cover":"FEW","base":1400}],"obsTime":1779872400},"SBJV":{"icaoId":"SBJV","flightCategory":"LIFR","rawOb":"METAR SBJV 270900Z 31002KT 2000 BR OVC002 18/18 Q1017","temp":18,"dewp":18,"wdir":310,"wspd":2,"visib":1.24,"altim":1017,"clouds":[{"cover":"OVC","base":200}],"obsTime":1779872400},"SBAN":{"icaoId":"SBAN","flightCategory":"VFR","rawOb":"METAR SBAN 270900Z 18005KT CAVOK 17/14 Q1022","temp":17,"dewp":14,"wdir":180,"wspd":5,"visib":"6+","altim":1022,"clouds":[],"obsTime":1779872400},"SBPF":{"icaoId":"SBPF","flightCategory":"VFR","rawOb":"METAR SBPF 270900Z 16009KT 9999 FEW002 BKN070 13/13 Q1022","temp":13,"dewp":13,"wdir":160,"wspd":9,"visib":"6+","altim":1022,"clouds":[{"cover":"FEW","base":200},{"cover":"BKN","base":7000}],"obsTime":1779872400},"SBAF":{"icaoId":"SBAF","flightCategory":"VFR","rawOb":"METAR SBAF 271000Z 23002KT 9999 FEW006 18/18 Q1016","temp":18,"dewp":18,"wdir":230,"wspd":2,"visib":"6+","altim":1016,"clouds":[{"cover":"FEW","base":600}],"obsTime":1779876000},"SBJR":{"icaoId":"SBJR","flightCategory":"VFR","rawOb":"METAR SBJR 271000Z 34005KT 9999 FEW006 21/20 Q1016","temp":21,"dewp":20,"wdir":340,"wspd":5,"visib":"6+","altim":1016,"clouds":[{"cover":"FEW","base":600}],"obsTime":1779876000}}}