{"updated":1774946136,"count":51,"data":{"SBGR":{"icaoId":"SBGR","flightCategory":"VFR","rawOb":"METAR SBGR 310700Z 13002KT 9999 SCT015 OVC080 19/18 Q1014","temp":19,"dewp":18,"wdir":130,"wspd":2,"visib":"6+","altim":1014,"clouds":[{"cover":"SCT","base":1500},{"cover":"OVC","base":8000}],"obsTime":1774940400},"SBMK":{"icaoId":"SBMK","flightCategory":"VFR","rawOb":"METAR SBMK 310800Z 25002KT CAVOK 19/17 Q1014","temp":19,"dewp":17,"wdir":250,"wspd":2,"visib":"6+","altim":1014,"clouds":[],"obsTime":1774944000},"SBFZ":{"icaoId":"SBFZ","flightCategory":"VFR","rawOb":"METAR SBFZ 310700Z 19003KT CAVOK 25/23 Q1009","temp":25,"dewp":23,"wdir":190,"wspd":3,"visib":"6+","altim":1009,"clouds":[],"obsTime":1774940400},"SBMO":{"icaoId":"SBMO","flightCategory":"VFR","rawOb":"METAR SBMO 310700Z 28003KT 9999 FEW010 24/24 Q1010","temp":24,"dewp":24,"wdir":280,"wspd":3,"visib":"6+","altim":1010,"clouds":[{"cover":"FEW","base":1000}],"obsTime":1774940400},"SBMQ":{"icaoId":"SBMQ","flightCategory":"VFR","rawOb":"METAR SBMQ 310700Z 32005KT 9999 SCT005 BKN080 26/25 Q1010","temp":26,"dewp":25,"wdir":320,"wspd":5,"visib":"6+","altim":1010,"clouds":[{"cover":"SCT","base":500},{"cover":"BKN","base":8000}],"obsTime":1774940400},"SBCT":{"icaoId":"SBCT","flightCategory":"IFR","rawOb":"METAR SBCT 310700Z 12004KT 3000 -RA OVC014 17/16 Q1016","temp":17,"dewp":16,"wdir":120,"wspd":4,"visib":1.86,"altim":1016,"clouds":[{"cover":"OVC","base":1400}],"obsTime":1774940400},"SBGL":{"icaoId":"SBGL","flightCategory":"VFR","rawOb":"METAR SBGL 310700Z 06001KT 9999 FEW014 SCT100 25/22 Q1010","temp":25,"dewp":22,"wdir":60,"wspd":1,"visib":"6+","altim":1010,"clouds":[{"cover":"FEW","base":1400},{"cover":"SCT","base":10000}],"obsTime":1774940400},"SBNT":{"icaoId":"SBNT","flightCategory":"VFR","rawOb":"METAR SBNT 310700Z 23004KT 9999 SCT017 SCT080 25/24 Q1009","temp":25,"dewp":24,"wdir":230,"wspd":4,"visib":"6+","altim":1009,"clouds":[{"cover":"SCT","base":1700},{"cover":"SCT","base":8000}],"obsTime":1774940400},"SBBV":{"icaoId":"SBBV","flightCategory":"VFR","rawOb":"METAR SBBV 310700Z 30003KT 9999 FEW015 SCT020 FEW030TCU OVC100 23/22 Q1011","temp":23,"dewp":22,"wdir":300,"wspd":3,"visib":"6+","altim":1011,"clouds":[{"cover":"FEW","base":1500},{"cover":"SCT","base":2000},{"cover":"FEW","base":3000},{"cover":"OVC","base":10000}],"obsTime":1774940400},"SBPA":{"icaoId":"SBPA","flightCategory":"VFR","rawOb":"METAR SBPA 310700Z 10006KT 9999 FEW007 22/20 Q1012","temp":22,"dewp":20,"wdir":100,"wspd":6,"visib":"6+","altim":1012,"clouds":[{"cover":"FEW","base":700}],"obsTime":1774940400},"SBPJ":{"icaoId":"SBPJ","flightCategory":"VFR","rawOb":"METAR SBPJ 310700Z 12003KT 9999 FEW020 BKN090 25/22 Q1010","temp":25,"dewp":22,"wdir":120,"wspd":3,"visib":"6+","altim":1010,"clouds":[{"cover":"FEW","base":2000},{"cover":"BKN","base":9000}],"obsTime":1774940400},"SBGO":{"icaoId":"SBGO","flightCategory":"VFR","rawOb":"METAR SBGO 310700Z 12003KT CAVOK 20/18 Q1014","temp":20,"dewp":18,"wdir":120,"wspd":3,"visib":"6+","altim":1014,"clouds":[],"obsTime":1774940400},"SBBR":{"icaoId":"SBBR","flightCategory":"VFR","rawOb":"METAR SBBR 310700Z VRB01KT CAVOK 19/17 Q1016","temp":19,"dewp":17,"wdir":"VRB","wspd":1,"visib":"6+","altim":1016,"clouds":[],"obsTime":1774940400},"SBPV":{"icaoId":"SBPV","flightCategory":"VFR","rawOb":"METAR SBPV 310700Z 00000KT CAVOK 25/22 Q1010","temp":25,"dewp":22,"wdir":0,"wspd":0,"visib":"6+","altim":1010,"clouds":[],"obsTime":1774940400},"SBRB":{"icaoId":"SBRB","flightCategory":"VFR","rawOb":"METAR SBRB 310700Z 22004KT 9999 FEW040 23/23 Q1011","temp":23,"dewp":23,"wdir":220,"wspd":4,"visib":"6+","altim":1011,"clouds":[{"cover":"FEW","base":4000}],"obsTime":1774940400},"SBRF":{"icaoId":"SBRF","flightCategory":"VFR","rawOb":"METAR SBRF 310700Z VRB02KT 9999 SCT013 SCT018 BKN040 25/24 Q1010","temp":25,"dewp":24,"wdir":"VRB","wspd":2,"visib":"6+","altim":1010,"clouds":[{"cover":"SCT","base":1300},{"cover":"SCT","base":1800},{"cover":"BKN","base":4000}],"obsTime":1774940400},"SBEG":{"icaoId":"SBEG","flightCategory":"VFR","rawOb":"METAR SBEG 310700Z 30003KT 9999 FEW006 SCT100 24/23 Q1009","temp":24,"dewp":23,"wdir":300,"wspd":3,"visib":"6+","altim":1009,"clouds":[{"cover":"FEW","base":600},{"cover":"SCT","base":10000}],"obsTime":1774940400},"SBSG":{"icaoId":"SBSG","flightCategory":"VFR","rawOb":"METAR SBSG 310700Z 22003KT 190V250 9999 -SHRA SCT025 SCT100 24/23 Q1010","temp":24,"dewp":23,"wdir":220,"wspd":3,"visib":"6+","altim":1010,"clouds":[{"cover":"SCT","base":2500},{"cover":"SCT","base":10000}],"obsTime":1774940400},"SBJU":{"icaoId":"SBJU","flightCategory":"MVFR","rawOb":"METAR SBJU 310700Z 00000KT 9999 BKN017 23/22 Q1011","temp":23,"dewp":22,"wdir":0,"wspd":0,"visib":"6+","altim":1011,"clouds":[{"cover":"BKN","base":1700}],"obsTime":1774940400},"SBSL":{"icaoId":"SBSL","flightCategory":"MVFR","rawOb":"METAR SBSL 310700Z 24001KT 9999 BKN020 25/24 Q1010","temp":25,"dewp":24,"wdir":240,"wspd":1,"visib":"6+","altim":1010,"clouds":[{"cover":"BKN","base":2000}],"obsTime":1774940400},"SBSN":{"icaoId":"SBSN","flightCategory":"VFR","rawOb":"METAR SBSN 310700Z 00000KT CAVOK 24/24 Q1009","temp":24,"dewp":24,"wdir":0,"wspd":0,"visib":"6+","altim":1009,"clouds":[],"obsTime":1774940400},"SBKP":{"icaoId":"SBKP","flightCategory":"VFR","rawOb":"METAR SBKP 310700Z 12005KT CAVOK 21/17 Q1013","temp":21,"dewp":17,"wdir":120,"wspd":5,"visib":"6+","altim":1013,"clouds":[],"obsTime":1774940400},"SBCF":{"icaoId":"SBCF","flightCategory":"VFR","rawOb":"METAR SBCF 310700Z 15002KT 9999 FEW046 SCT070 20/18 Q1015","temp":20,"dewp":18,"wdir":150,"wspd":2,"visib":"6+","altim":1015,"clouds":[{"cover":"FEW","base":4600},{"cover":"SCT","base":7000}],"obsTime":1774940400},"SBSP":{"icaoId":"SBSP","flightCategory":"VFR","rawOb":"METAR SBSP 310700Z AUTO 15005KT 9999 FEW008 19/18 Q1015","temp":19,"dewp":18,"wdir":150,"wspd":5,"visib":"6+","altim":1015,"clouds":[{"cover":"FEW","base":800}],"obsTime":1774940400},"SBFI":{"icaoId":"SBFI","flightCategory":"VFR","rawOb":"METAR SBFI 310700Z 09004KT CAVOK 22/22 Q1010","temp":22,"dewp":22,"wdir":90,"wspd":4,"visib":"6+","altim":1010,"clouds":[],"obsTime":1774940400},"SBSV":{"icaoId":"SBSV","flightCategory":"VFR","rawOb":"METAR SBSV 310700Z 33003KT 9999 FEW011 BKN050 25/23 Q1011","temp":25,"dewp":23,"wdir":330,"wspd":3,"visib":"6+","altim":1011,"clouds":[{"cover":"FEW","base":1100},{"cover":"BKN","base":5000}],"obsTime":1774940400},"SBLO":{"icaoId":"SBLO","flightCategory":"VFR","rawOb":"METAR SBLO 310700Z 18002KT CAVOK 21/19 Q1012","temp":21,"dewp":19,"wdir":180,"wspd":2,"visib":"6+","altim":1012,"clouds":[],"obsTime":1774940400},"SBVT":{"icaoId":"SBVT","flightCategory":"VFR","rawOb":"METAR SBVT 310700Z 34002KT 9999 FEW026 22/22 Q1011","temp":22,"dewp":22,"wdir":340,"wspd":2,"visib":"6+","altim":1011,"clouds":[{"cover":"FEW","base":2600}],"obsTime":1774940400},"SBTE":{"icaoId":"SBTE","flightCategory":"IFR","rawOb":"SPECI SBTE 310645Z 27004KT 9999 BKN007 BKN090 24/23 Q1008","temp":24,"dewp":23,"wdir":270,"wspd":4,"visib":"6+","altim":1008,"clouds":[{"cover":"BKN","base":700},{"cover":"BKN","base":9000}],"obsTime":1774939500},"SBMA":{"icaoId":"SBMA","flightCategory":"VFR","rawOb":"METAR SBMA 310700Z 00000KT 9999 FEW012 BKN090 25/24 Q1010","temp":25,"dewp":24,"wdir":0,"wspd":0,"visib":"6+","altim":1010,"clouds":[{"cover":"FEW","base":1200},{"cover":"BKN","base":9000}],"obsTime":1774940400},"SBUL":{"icaoId":"SBUL","flightCategory":"VFR","rawOb":"METAR SBUL 310700Z 07002KT CAVOK 20/16 Q1015","temp":20,"dewp":16,"wdir":70,"wspd":2,"visib":"6+","altim":1015,"clouds":[],"obsTime":1774940400},"SBCG":{"icaoId":"SBCG","flightCategory":"VFR","rawOb":"METAR SBCG 310700Z 08004KT CAVOK 21/19 Q1012","temp":21,"dewp":19,"wdir":80,"wspd":4,"visib":"6+","altim":1012,"clouds":[],"obsTime":1774940400},"SBUR":{"icaoId":"SBUR","flightCategory":"VFR","rawOb":"METAR SBUR 310700Z 03006KT CAVOK 21/17 Q1013","temp":21,"dewp":17,"wdir":30,"wspd":6,"visib":"6+","altim":1013,"clouds":[],"obsTime":1774940400},"SBFL":{"icaoId":"SBFL","flightCategory":"VFR","rawOb":"METAR SBFL 310700Z 29004KT 9999 SCT010 SCT055 22/21 Q1013","temp":22,"dewp":21,"wdir":290,"wspd":4,"visib":"6+","altim":1013,"clouds":[{"cover":"SCT","base":1000},{"cover":"SCT","base":5500}],"obsTime":1774940400},"SBME":{"icaoId":"SBME","flightCategory":"VFR","rawOb":"METAR SBME 310700Z 04007KT CAVOK 24/22 Q1010","temp":24,"dewp":22,"wdir":40,"wspd":7,"visib":"6+","altim":1010,"clouds":[],"obsTime":1774940400},"SBMG":{"icaoId":"SBMG","flightCategory":"VFR","rawOb":"METAR SBMG 310700Z AUTO 21005KT CAVOK 21/18 Q1011","temp":21,"dewp":18,"wdir":210,"wspd":5,"visib":"6+","altim":1011,"clouds":[],"obsTime":1774940400},"SBBE":{"icaoId":"SBBE","flightCategory":"VFR","rawOb":"METAR SBBE 310700Z 15003KT 9999 SCT008 BKN100 26/26 Q1010","temp":26,"dewp":26,"wdir":150,"wspd":3,"visib":"6+","altim":1010,"clouds":[{"cover":"SCT","base":800},{"cover":"BKN","base":10000}],"obsTime":1774940400},"SBSJ":{"icaoId":"SBSJ","flightCategory":"MVFR","rawOb":"SPECI SBSJ 310830Z 00000KT 6000 NSC 19/18 Q1014","temp":19,"dewp":18,"wdir":0,"wspd":0,"visib":3.73,"altim":1014,"clouds":[],"obsTime":1774945800},"SBOI":{"icaoId":"SBOI","flightCategory":"MVFR","rawOb":"METAR SBOI 310800Z AUTO VRB02KT 9999 // SCT006/// SCT008/// OVC025/// 24/23 Q1010","temp":24,"dewp":23,"wdir":"VRB","wspd":2,"visib":"6+","altim":1010,"clouds":[{"cover":"SCT","base":600},{"cover":"SCT","base":800},{"cover":"OVC","base":2500}],"obsTime":1774944000},"SBAX":{"icaoId":"SBAX","flightCategory":"VFR","rawOb":"METAR SBAX 310700Z AUTO 09003KT CAVOK 19/17 Q1015","temp":19,"dewp":17,"wdir":90,"wspd":3,"visib":"6+","altim":1015,"clouds":[],"obsTime":1774940400},"SBDN":{"icaoId":"SBDN","flightCategory":"VFR","rawOb":"METAR SBDN 310700Z 09005KT CAVOK 22/18 Q1011","temp":22,"dewp":18,"wdir":90,"wspd":5,"visib":"6+","altim":1011,"clouds":[],"obsTime":1774940400},"SBSR":{"icaoId":"SBSR","flightCategory":"VFR","rawOb":"METAR SBSR 310700Z VRB03KT CAVOK 23/18 Q1012","temp":23,"dewp":18,"wdir":"VRB","wspd":3,"visib":"6+","altim":1012,"clouds":[],"obsTime":1774940400},"SBAR":{"icaoId":"SBAR","flightCategory":"VFR","rawOb":"METAR SBAR 310700Z 27003KT 9999 SCT023 24/24 Q1010","temp":24,"dewp":24,"wdir":270,"wspd":3,"visib":"6+","altim":1010,"clouds":[{"cover":"SCT","base":2300}],"obsTime":1774940400},"SBIP":{"icaoId":"SBIP","flightCategory":"MVFR","rawOb":"METAR SBIP 310700Z AUTO VRB01KT 9999 BKN026 BKN038 22/21 Q1012","temp":22,"dewp":21,"wdir":"VRB","wspd":1,"visib":"6+","altim":1012,"clouds":[{"cover":"BKN","base":2600},{"cover":"BKN","base":3800}],"obsTime":1774940400},"SBKG":{"icaoId":"SBKG","flightCategory":"MVFR","rawOb":"METAR SBKG 310700Z 15004KT 9999 BKN010 23/22 Q1012","temp":23,"dewp":22,"wdir":150,"wspd":4,"visib":"6+","altim":1012,"clouds":[{"cover":"BKN","base":1000}],"obsTime":1774940400},"SBPL":{"icaoId":"SBPL","flightCategory":"VFR","rawOb":"METAR SBPL 310700Z 11005KT 9999 FEW020 SCT070 24/22 Q1012","temp":24,"dewp":22,"wdir":110,"wspd":5,"visib":"6+","altim":1012,"clouds":[{"cover":"FEW","base":2000},{"cover":"SCT","base":7000}],"obsTime":1774940400},"SBPS":{"icaoId":"SBPS","flightCategory":"VFR","rawOb":"METAR SBPS 310700Z 25004KT 9999 SCT030 BKN070 23/23 Q1012","temp":23,"dewp":23,"wdir":250,"wspd":4,"visib":"6+","altim":1012,"clouds":[{"cover":"SCT","base":3000},{"cover":"BKN","base":7000}],"obsTime":1774940400},"SBSC":{"icaoId":"SBSC","flightCategory":"VFR","rawOb":"METAR SBSC 310700Z 04002KT 9999 OVC046 23/22 Q1011","temp":23,"dewp":22,"wdir":40,"wspd":2,"visib":"6+","altim":1011,"clouds":[{"cover":"OVC","base":4600}],"obsTime":1774940400},"SBAN":{"icaoId":"SBAN","flightCategory":"VFR","rawOb":"METAR SBAN 310700Z 08005KT CAVOK 18/16 Q1018","temp":18,"dewp":16,"wdir":80,"wspd":5,"visib":"6+","altim":1018,"clouds":[],"obsTime":1774940400},"SBLE":{"icaoId":"SBLE","flightCategory":"VFR","rawOb":"METAR SBLE 310700Z AUTO 14003KT 9999 FEW026 ///// Q////","temp":null,"dewp":null,"wdir":140,"wspd":3,"visib":"6+","altim":null,"clouds":[{"cover":"FEW","base":2600}],"obsTime":1774940400},"SBJP":{"icaoId":"SBJP","flightCategory":"VFR","rawOb":"METAR SBJP 310700Z 00000KT 9999 FEW030 24/24 Q1010","temp":24,"dewp":24,"wdir":0,"wspd":0,"visib":"6+","altim":1010,"clouds":[{"cover":"FEW","base":3000}],"obsTime":1774940400}}}