{"updated":1774352173,"count":81,"data":{"SBCT":{"icaoId":"SBCT","flightCategory":"LIFR","rawOb":"METAR SBCT 241000Z 04003KT 4000 BR OVC003 20/20 Q1015","temp":20,"dewp":20,"wdir":40,"wspd":3,"visib":2.49,"altim":1015,"clouds":[{"cover":"OVC","base":300}],"obsTime":1774346400},"SBFI":{"icaoId":"SBFI","flightCategory":"IFR","rawOb":"SPECI SBFI 240937Z 22004KT 3000 0400S R15/P2000 R33/P2000 BR BCFG SCT004 23/23 Q1010","temp":23,"dewp":23,"wdir":220,"wspd":4,"visib":1.86,"altim":1010,"clouds":[{"cover":"SCT","base":400}],"obsTime":1774345020},"SBBV":{"icaoId":"SBBV","flightCategory":"VFR","rawOb":"METAR SBBV 241000Z 09008KT 9999 FEW035 SCT080 26/22 Q1010","temp":26,"dewp":22,"wdir":90,"wspd":8,"visib":"6+","altim":1010,"clouds":[{"cover":"FEW","base":3500},{"cover":"SCT","base":8000}],"obsTime":1774346400},"SBCB":{"icaoId":"SBCB","flightCategory":"VFR","rawOb":"METAR SBCB 241000Z 05009KT CAVOK 25/22 Q1012","temp":25,"dewp":22,"wdir":50,"wspd":9,"visib":"6+","altim":1012,"clouds":[],"obsTime":1774346400},"SBBE":{"icaoId":"SBBE","flightCategory":"VFR","rawOb":"METAR SBBE 241000Z 00000KT 9999 SCT020 25/25 Q1011","temp":25,"dewp":25,"wdir":0,"wspd":0,"visib":"6+","altim":1011,"clouds":[{"cover":"SCT","base":2000}],"obsTime":1774346400},"SBBR":{"icaoId":"SBBR","flightCategory":"VFR","rawOb":"METAR SBBR 241000Z 33003KT 280V030 9999 FEW015 SCT090 19/17 Q1017","temp":19,"dewp":17,"wdir":330,"wspd":3,"visib":"6+","altim":1017,"clouds":[{"cover":"FEW","base":1500},{"cover":"SCT","base":9000}],"obsTime":1774346400},"SBCF":{"icaoId":"SBCF","flightCategory":"VFR","rawOb":"METAR SBCF 241000Z 18002KT 9999 FEW018 SCT090 18/16 Q1017","temp":18,"dewp":16,"wdir":180,"wspd":2,"visib":"6+","altim":1017,"clouds":[{"cover":"FEW","base":1800},{"cover":"SCT","base":9000}],"obsTime":1774346400},"SBCG":{"icaoId":"SBCG","flightCategory":"VFR","rawOb":"METAR SBCG 241000Z 09003KT CAVOK 24/22 Q1012","temp":24,"dewp":22,"wdir":90,"wspd":3,"visib":"6+","altim":1012,"clouds":[],"obsTime":1774346400},"SBCP":{"icaoId":"SBCP","flightCategory":"VFR","rawOb":"METAR SBCP 241000Z 10002KT 9999 FEW015 SCT080 22/22 Q1013","temp":22,"dewp":22,"wdir":100,"wspd":2,"visib":"6+","altim":1013,"clouds":[{"cover":"FEW","base":1500},{"cover":"SCT","base":8000}],"obsTime":1774346400},"SBCR":{"icaoId":"SBCR","flightCategory":"VFR","rawOb":"METAR SBCR 241100Z 20008KT 160V240 9999 SCT026 26/23 Q1010","temp":26,"dewp":23,"wdir":200,"wspd":8,"visib":"6+","altim":1010,"clouds":[{"cover":"SCT","base":2600}],"obsTime":1774350000},"SBEG":{"icaoId":"SBEG","flightCategory":"VFR","rawOb":"METAR SBEG 241000Z 13005KT 9999 FEW015 26/25 Q1009","temp":26,"dewp":25,"wdir":130,"wspd":5,"visib":"6+","altim":1009,"clouds":[{"cover":"FEW","base":1500}],"obsTime":1774346400},"SBFL":{"icaoId":"SBFL","flightCategory":"VFR","rawOb":"METAR SBFL 241000Z 32009KT 9999 BKN036 25/23 Q1009","temp":25,"dewp":23,"wdir":320,"wspd":9,"visib":"6+","altim":1009,"clouds":[{"cover":"BKN","base":3600}],"obsTime":1774346400},"SBFZ":{"icaoId":"SBFZ","flightCategory":"VFR","rawOb":"METAR SBFZ 241000Z 16008KT 9999 FEW020 27/24 Q1011","temp":27,"dewp":24,"wdir":160,"wspd":8,"visib":"6+","altim":1011,"clouds":[{"cover":"FEW","base":2000}],"obsTime":1774346400},"SBGL":{"icaoId":"SBGL","flightCategory":"VFR","rawOb":"METAR SBGL 241000Z 32004KT 9000 NSC 23/21 Q1011","temp":23,"dewp":21,"wdir":320,"wspd":4,"visib":5.59,"altim":1011,"clouds":[],"obsTime":1774346400},"SBGO":{"icaoId":"SBGO","flightCategory":"VFR","rawOb":"METAR SBGO 241000Z 34003KT 9999 FEW040 20/19 Q1015","temp":20,"dewp":19,"wdir":340,"wspd":3,"visib":"6+","altim":1015,"clouds":[{"cover":"FEW","base":4000}],"obsTime":1774346400},"SBGR":{"icaoId":"SBGR","flightCategory":"IFR","rawOb":"METAR SBGR 241000Z 05008KT 9999 BKN009 19/17 Q1015","temp":19,"dewp":17,"wdir":50,"wspd":8,"visib":"6+","altim":1015,"clouds":[{"cover":"BKN","base":900}],"obsTime":1774346400},"SBHT":{"icaoId":"SBHT","flightCategory":"VFR","rawOb":"METAR SBHT 241000Z 13003KT 9999 SCT012 BKN080 24/23 Q1012","temp":24,"dewp":23,"wdir":130,"wspd":3,"visib":"6+","altim":1012,"clouds":[{"cover":"SCT","base":1200},{"cover":"BKN","base":8000}],"obsTime":1774346400},"SBIL":{"icaoId":"SBIL","flightCategory":"VFR","rawOb":"METAR SBIL 241000Z 28004KT 9999 VCSH FEW018 FEW023TCU SCT090 25/24 Q1013","temp":25,"dewp":24,"wdir":280,"wspd":4,"visib":"6+","altim":1013,"clouds":[{"cover":"FEW","base":1800},{"cover":"FEW","base":2300},{"cover":"SCT","base":9000}],"obsTime":1774346400},"SBJU":{"icaoId":"SBJU","flightCategory":"MVFR","rawOb":"METAR SBJU 241000Z 00000KT 8000 BKN010 FEW020TCU 24/23 Q1014","temp":24,"dewp":23,"wdir":0,"wspd":0,"visib":4.97,"altim":1014,"clouds":[{"cover":"BKN","base":1000},{"cover":"FEW","base":2000}],"obsTime":1774346400},"SBKP":{"icaoId":"SBKP","flightCategory":"MVFR","rawOb":"METAR SBKP 241000Z 13005KT 7000 3000E NSC 19/17 Q1014","temp":19,"dewp":17,"wdir":130,"wspd":5,"visib":4.35,"altim":1014,"clouds":[],"obsTime":1774346400},"SBLO":{"icaoId":"SBLO","flightCategory":"VFR","rawOb":"METAR SBLO 241000Z 09004KT 9999 FEW040 SCT100 22/21 Q1013","temp":22,"dewp":21,"wdir":90,"wspd":4,"visib":"6+","altim":1013,"clouds":[{"cover":"FEW","base":4000},{"cover":"SCT","base":10000}],"obsTime":1774346400},"SBMA":{"icaoId":"SBMA","flightCategory":"VFR","rawOb":"METAR SBMA 241000Z 01002KT 9999 FEW008 BKN090 24/23 Q1011","temp":24,"dewp":23,"wdir":10,"wspd":2,"visib":"6+","altim":1011,"clouds":[{"cover":"FEW","base":800},{"cover":"BKN","base":9000}],"obsTime":1774346400},"SBME":{"icaoId":"SBME","flightCategory":"VFR","rawOb":"METAR SBME 241000Z 05009KT CAVOK 23/21 Q1012","temp":23,"dewp":21,"wdir":50,"wspd":9,"visib":"6+","altim":1012,"clouds":[],"obsTime":1774346400},"SBMG":{"icaoId":"SBMG","flightCategory":"VFR","rawOb":"METAR SBMG 241000Z 06005KT 9999 FEW040 23/22 Q1011","temp":23,"dewp":22,"wdir":60,"wspd":5,"visib":"6+","altim":1011,"clouds":[{"cover":"FEW","base":4000}],"obsTime":1774346400},"SBMK":{"icaoId":"SBMK","flightCategory":"VFR","rawOb":"METAR SBMK 241000Z 00000KT CAVOK 20/19 Q1016","temp":20,"dewp":19,"wdir":0,"wspd":0,"visib":"6+","altim":1016,"clouds":[],"obsTime":1774346400},"SBMO":{"icaoId":"SBMO","flightCategory":"VFR","rawOb":"METAR SBMO 241000Z 01003KT 9999 FEW020 25/23 Q1012","temp":25,"dewp":23,"wdir":10,"wspd":3,"visib":"6+","altim":1012,"clouds":[{"cover":"FEW","base":2000}],"obsTime":1774346400},"SBMQ":{"icaoId":"SBMQ","flightCategory":"VFR","rawOb":"METAR SBMQ 241000Z 01004KT 9999 SCT017 BKN083 25/24 Q1011","temp":25,"dewp":24,"wdir":10,"wspd":4,"visib":"6+","altim":1011,"clouds":[{"cover":"SCT","base":1700},{"cover":"BKN","base":8300}],"obsTime":1774346400},"SBNT":{"icaoId":"SBNT","flightCategory":"VFR","rawOb":"METAR SBNT 241000Z 18005KT 160V220 9999 SCT029 26/23 Q1012","temp":26,"dewp":23,"wdir":180,"wspd":5,"visib":"6+","altim":1012,"clouds":[{"cover":"SCT","base":2900}],"obsTime":1774346400},"SBPA":{"icaoId":"SBPA","flightCategory":"MVFR","rawOb":"METAR SBPA 241000Z 19006G16KT 130V270 9000 BKN010 BKN030 21/20 Q1010","temp":21,"dewp":20,"wdir":190,"wspd":6,"visib":5.59,"altim":1010,"clouds":[{"cover":"BKN","base":1000},{"cover":"BKN","base":3000}],"obsTime":1774346400},"SBPJ":{"icaoId":"SBPJ","flightCategory":"VFR","rawOb":"METAR SBPJ 241000Z 10003KT 9999 SCT016 BKN100 24/23 Q1012","temp":24,"dewp":23,"wdir":100,"wspd":3,"visib":"6+","altim":1012,"clouds":[{"cover":"SCT","base":1600},{"cover":"BKN","base":10000}],"obsTime":1774346400},"SBPV":{"icaoId":"SBPV","flightCategory":"VFR","rawOb":"METAR SBPV 241000Z 00000KT 9999 FEW003 24/23 Q1009","temp":24,"dewp":23,"wdir":0,"wspd":0,"visib":"6+","altim":1009,"clouds":[{"cover":"FEW","base":300}],"obsTime":1774346400},"SBRB":{"icaoId":"SBRB","flightCategory":"VFR","rawOb":"METAR SBRB 241000Z 34002KT 9999 FEW030 SCT100 24/24 Q1009","temp":24,"dewp":24,"wdir":340,"wspd":2,"visib":"6+","altim":1009,"clouds":[{"cover":"FEW","base":3000},{"cover":"SCT","base":10000}],"obsTime":1774346400},"SBRF":{"icaoId":"SBRF","flightCategory":"VFR","rawOb":"METAR SBRF 241000Z 10007KT 9999 FEW025 29/23 Q1012","temp":29,"dewp":23,"wdir":100,"wspd":7,"visib":"6+","altim":1012,"clouds":[{"cover":"FEW","base":2500}],"obsTime":1774346400},"SBSG":{"icaoId":"SBSG","flightCategory":"VFR","rawOb":"METAR SBSG 241000Z 19004KT 9999 SCT023 25/23 Q1012","temp":25,"dewp":23,"wdir":190,"wspd":4,"visib":"6+","altim":1012,"clouds":[{"cover":"SCT","base":2300}],"obsTime":1774346400},"SBSL":{"icaoId":"SBSL","flightCategory":"VFR","rawOb":"METAR SBSL 241000Z 06004KT 9999 FEW015 SCT025 26/25 Q1010","temp":26,"dewp":25,"wdir":60,"wspd":4,"visib":"6+","altim":1010,"clouds":[{"cover":"FEW","base":1500},{"cover":"SCT","base":2500}],"obsTime":1774346400},"SBSN":{"icaoId":"SBSN","flightCategory":"VFR","rawOb":"METAR SBSN 241000Z 14005KT 9999 SCT013 SCT100 26/25 Q1010","temp":26,"dewp":25,"wdir":140,"wspd":5,"visib":"6+","altim":1010,"clouds":[{"cover":"SCT","base":1300},{"cover":"SCT","base":10000}],"obsTime":1774346400},"SBSP":{"icaoId":"SBSP","flightCategory":"VFR","rawOb":"METAR SBSP 241000Z 06005KT CAVOK 19/17 Q1016","temp":19,"dewp":17,"wdir":60,"wspd":5,"visib":"6+","altim":1016,"clouds":[],"obsTime":1774346400},"SBSV":{"icaoId":"SBSV","flightCategory":"VFR","rawOb":"METAR SBSV 241000Z VRB02KT 9999 FEW023 FEW025TCU SCT100 27/23 Q1012","temp":27,"dewp":23,"wdir":"VRB","wspd":2,"visib":"6+","altim":1012,"clouds":[{"cover":"FEW","base":2300},{"cover":"FEW","base":2500},{"cover":"SCT","base":10000}],"obsTime":1774346400},"SBTE":{"icaoId":"SBTE","flightCategory":"MVFR","rawOb":"METAR SBTE 241000Z 00000KT 9999 BKN015 25/23 Q1010","temp":25,"dewp":23,"wdir":0,"wspd":0,"visib":"6+","altim":1010,"clouds":[{"cover":"BKN","base":1500}],"obsTime":1774346400},"SBUL":{"icaoId":"SBUL","flightCategory":"VFR","rawOb":"METAR SBUL 241000Z 13005KT 9999 SCT040 SCT080 22/17 Q1015","temp":22,"dewp":17,"wdir":130,"wspd":5,"visib":"6+","altim":1015,"clouds":[{"cover":"SCT","base":4000},{"cover":"SCT","base":8000}],"obsTime":1774346400},"SBUR":{"icaoId":"SBUR","flightCategory":"VFR","rawOb":"METAR SBUR 241000Z 06002KT CAVOK 22/19 Q1014","temp":22,"dewp":19,"wdir":60,"wspd":2,"visib":"6+","altim":1014,"clouds":[],"obsTime":1774346400},"SBVT":{"icaoId":"SBVT","flightCategory":"IFR","rawOb":"METAR SBVT 241000Z VRB02KT 3000 -RA BR BKN008 BKN030 22/22 Q1015","temp":22,"dewp":22,"wdir":"VRB","wspd":2,"visib":1.86,"altim":1015,"clouds":[{"cover":"BKN","base":800},{"cover":"BKN","base":3000}],"obsTime":1774346400},"SBPP":{"icaoId":"SBPP","flightCategory":"MVFR","rawOb":"SPECI SBPP 241115Z 04005KT 9999 BKN015 23/21 Q1013","temp":23,"dewp":21,"wdir":40,"wspd":5,"visib":"6+","altim":1013,"clouds":[{"cover":"BKN","base":1500}],"obsTime":1774350900},"SBTF":{"icaoId":"SBTF","flightCategory":"VFR","rawOb":"SPECI SBTF 241115Z 10003KT 9999 FEW005 26/25 Q1009","temp":26,"dewp":25,"wdir":100,"wspd":3,"visib":"6+","altim":1009,"clouds":[{"cover":"FEW","base":500}],"obsTime":1774350900},"SBAX":{"icaoId":"SBAX","flightCategory":"VFR","rawOb":"METAR SBAX 241000Z 09007KT 9999 BKN035 BKN045 21/18 Q1016","temp":21,"dewp":18,"wdir":90,"wspd":7,"visib":"6+","altim":1016,"clouds":[{"cover":"BKN","base":3500},{"cover":"BKN","base":4500}],"obsTime":1774346400},"SBBH":{"icaoId":"SBBH","flightCategory":"VFR","rawOb":"METAR SBBH 241000Z 11003KT 9999 SCT049 18/16 Q1017","temp":18,"dewp":16,"wdir":110,"wspd":3,"visib":"6+","altim":1017,"clouds":[{"cover":"SCT","base":4900}],"obsTime":1774346400},"SBVH":{"icaoId":"SBVH","flightCategory":"LIFR","rawOb":"METAR SBVH 241100Z 07009KT 8000 OVC002 22/22 Q1014","temp":22,"dewp":22,"wdir":70,"wspd":9,"visib":4.97,"altim":1014,"clouds":[{"cover":"OVC","base":200}],"obsTime":1774350000},"SBAR":{"icaoId":"SBAR","flightCategory":"VFR","rawOb":"METAR SBAR 241000Z 08009KT 9999 FEW023 28/23 Q1012","temp":28,"dewp":23,"wdir":80,"wspd":9,"visib":"6+","altim":1012,"clouds":[{"cover":"FEW","base":2300}],"obsTime":1774346400},"SBBU":{"icaoId":"SBBU","flightCategory":"MVFR","rawOb":"METAR SBBU 241000Z 25005KT 9999 BKN020 BKN070 23/20 Q1013","temp":23,"dewp":20,"wdir":250,"wspd":5,"visib":"6+","altim":1013,"clouds":[{"cover":"BKN","base":2000},{"cover":"BKN","base":7000}],"obsTime":1774346400},"SBCA":{"icaoId":"SBCA","flightCategory":"VFR","rawOb":"METAR SBCA 241000Z 05003KT 9999 FEW040 SCT080 22/20 Q1014","temp":22,"dewp":20,"wdir":50,"wspd":3,"visib":"6+","altim":1014,"clouds":[{"cover":"FEW","base":4000},{"cover":"SCT","base":8000}],"obsTime":1774346400},"SBCC":{"icaoId":"SBCC","flightCategory":"VFR","rawOb":"METAR SBCC 241100Z 03002KT 9999 FEW025 24/22 Q1013","temp":24,"dewp":22,"wdir":30,"wspd":2,"visib":"6+","altim":1013,"clouds":[{"cover":"FEW","base":2500}],"obsTime":1774350000},"SBCJ":{"icaoId":"SBCJ","flightCategory":"VFR","rawOb":"SPECI SBCJ 241015Z 00000KT 9999 SCT004 SCT080 22/20 Q1016","temp":22,"dewp":20,"wdir":0,"wspd":0,"visib":"6+","altim":1016,"clouds":[{"cover":"SCT","base":400},{"cover":"SCT","base":8000}],"obsTime":1774347300},"SBCO":{"icaoId":"SBCO","flightCategory":"MVFR","rawOb":"METAR SBCO 241000Z 18006KT 150V220 9999 FEW007 BKN010 BKN030 21/20 Q1010","temp":21,"dewp":20,"wdir":180,"wspd":6,"visib":"6+","altim":1010,"clouds":[{"cover":"FEW","base":700},{"cover":"BKN","base":1000},{"cover":"BKN","base":3000}],"obsTime":1774346400},"SBDN":{"icaoId":"SBDN","flightCategory":"VFR","rawOb":"METAR SBDN 241000Z 11011KT 9999 VCSH FEW050TCU 23/20 Q1012","temp":23,"dewp":20,"wdir":110,"wspd":11,"visib":"6+","altim":1012,"clouds":[{"cover":"FEW","base":5000}],"obsTime":1774346400},"SBES":{"icaoId":"SBES","flightCategory":"VFR","rawOb":"METAR SBES 241000Z 05008KT 010V070 9999 SCT010 22/// Q1012","temp":null,"dewp":null,"wdir":50,"wspd":8,"visib":"6+","altim":1012,"clouds":[{"cover":"SCT","base":1000}],"obsTime":1774346400},"SBIP":{"icaoId":"SBIP","flightCategory":"MVFR","rawOb":"METAR SBIP 241000Z AUTO 21002KT 7000 SCT007 19/19 Q1015","temp":19,"dewp":19,"wdir":210,"wspd":2,"visib":4.35,"altim":1015,"clouds":[{"cover":"SCT","base":700}],"obsTime":1774346400},"SBKG":{"icaoId":"SBKG","flightCategory":"MVFR","rawOb":"METAR SBKG 241000Z 11006KT 9999 SCT010 BKN015 23/21 Q1015","temp":23,"dewp":21,"wdir":110,"wspd":6,"visib":"6+","altim":1015,"clouds":[{"cover":"SCT","base":1000},{"cover":"BKN","base":1500}],"obsTime":1774346400},"SBOI":{"icaoId":"SBOI","flightCategory":"MVFR","rawOb":"METAR SBOI 241000Z AUTO VRB01KT 9999 // BKN013/// BKN040/// BKN052/// 24/24 Q1011","temp":24,"dewp":24,"wdir":"VRB","wspd":1,"visib":"6+","altim":1011,"clouds":[{"cover":"BKN","base":1300},{"cover":"BKN","base":4000},{"cover":"BKN","base":5200}],"obsTime":1774346400},"SBPB":{"icaoId":"SBPB","flightCategory":"VFR","rawOb":"SPECI SBPB 241015Z 14006KT 9999 SCT020 27/24 Q1010","temp":27,"dewp":24,"wdir":140,"wspd":6,"visib":"6+","altim":1010,"clouds":[{"cover":"SCT","base":2000}],"obsTime":1774347300},"SBPL":{"icaoId":"SBPL","flightCategory":"VFR","rawOb":"METAR SBPL 241000Z 11007KT 9999 FEW025 BKN070 25/22 Q1013","temp":25,"dewp":22,"wdir":110,"wspd":7,"visib":"6+","altim":1013,"clouds":[{"cover":"FEW","base":2500},{"cover":"BKN","base":7000}],"obsTime":1774346400},"SBPS":{"icaoId":"SBPS","flightCategory":"MVFR","rawOb":"METAR SBPS 241000Z 24003KT 9999 SCT008 BKN016 BKN100 24/23 Q1013","temp":24,"dewp":23,"wdir":240,"wspd":3,"visib":"6+","altim":1013,"clouds":[{"cover":"SCT","base":800},{"cover":"BKN","base":1600},{"cover":"BKN","base":10000}],"obsTime":1774346400},"SBSC":{"icaoId":"SBSC","flightCategory":"VFR","rawOb":"METAR SBSC 241000Z 04004KT CAVOK 22/21 Q1012","temp":22,"dewp":21,"wdir":40,"wspd":4,"visib":"6+","altim":1012,"clouds":[],"obsTime":1774346400},"SBSJ":{"icaoId":"SBSJ","flightCategory":"IFR","rawOb":"METAR SBSJ 241000Z 00000KT 5000 BR BKN007 18/17 Q1014","temp":18,"dewp":17,"wdir":0,"wspd":0,"visib":3.11,"altim":1014,"clouds":[{"cover":"BKN","base":700}],"obsTime":1774346400},"SBSM":{"icaoId":"SBSM","flightCategory":"VFR","rawOb":"METAR SBSM 241000Z 22001KT 9999 SCT009 BKN034 19/19 Q1012","temp":19,"dewp":19,"wdir":220,"wspd":1,"visib":"6+","altim":1012,"clouds":[{"cover":"SCT","base":900},{"cover":"BKN","base":3400}],"obsTime":1774346400},"SBSR":{"icaoId":"SBSR","flightCategory":"IFR","rawOb":"METAR SBSR 241000Z COR 20005KT 4000 -RA BR SCT030 BKN070 23/22 Q1012","temp":23,"dewp":22,"wdir":200,"wspd":5,"visib":2.49,"altim":1012,"clouds":[{"cover":"SCT","base":3000},{"cover":"BKN","base":7000}],"obsTime":1774346400},"SBTD":{"icaoId":"SBTD","flightCategory":"VFR","rawOb":"METAR SBTD 241100Z /////KT CAVOK 24/21 Q1012","temp":24,"dewp":21,"wdir":null,"wspd":null,"visib":"6+","altim":1012,"clouds":[],"obsTime":1774350000},"SBTT":{"icaoId":"SBTT","flightCategory":"VFR","rawOb":"METAR SBTT 241100Z 10004KT 9999 FEW015 27/25 Q1010","temp":27,"dewp":25,"wdir":100,"wspd":4,"visib":"6+","altim":1010,"clouds":[{"cover":"FEW","base":1500}],"obsTime":1774350000},"SBUY":{"icaoId":"SBUY","flightCategory":"MVFR","rawOb":"METAR SBUY 241100Z 34002KT 5000 BR SCT003 23/23 Q1009","temp":23,"dewp":23,"wdir":340,"wspd":2,"visib":3.11,"altim":1009,"clouds":[{"cover":"SCT","base":300}],"obsTime":1774350000},"SBAN":{"icaoId":"SBAN","flightCategory":"LIFR","rawOb":"METAR SBAN 241000Z 03003KT 0700 R24R/0700D R06L/P2000N FG SCT001 19/18 Q1018","temp":19,"dewp":18,"wdir":30,"wspd":3,"visib":0.43,"altim":1018,"clouds":[{"cover":"SCT","base":100}],"obsTime":1774346400},"SBLE":{"icaoId":"SBLE","flightCategory":"MVFR","rawOb":"METAR SBLE 241000Z AUTO VRB02KT 9999 BKN016 ///// Q////","temp":null,"dewp":null,"wdir":"VRB","wspd":2,"visib":"6+","altim":null,"clouds":[{"cover":"BKN","base":1600}],"obsTime":1774346400},"SBIH":{"icaoId":"SBIH","flightCategory":"VFR","rawOb":"METAR SBIH 241100Z 00000KT 9999 FEW005 SCT100 25/25 Q1010","temp":25,"dewp":25,"wdir":0,"wspd":0,"visib":"6+","altim":1010,"clouds":[{"cover":"FEW","base":500},{"cover":"SCT","base":10000}],"obsTime":1774350000},"SBAF":{"icaoId":"SBAF","flightCategory":"VFR","rawOb":"METAR SBAF 241000Z 25003KT 220V280 CAVOK 22/22 Q1012","temp":22,"dewp":22,"wdir":250,"wspd":3,"visib":"6+","altim":1012,"clouds":[],"obsTime":1774346400},"SBGW":{"icaoId":"SBGW","flightCategory":"MVFR","rawOb":"METAR SBGW 241000Z 04002KT 8000 BKN015 18/15 Q1014","temp":18,"dewp":15,"wdir":40,"wspd":2,"visib":4.97,"altim":1014,"clouds":[{"cover":"BKN","base":1500}],"obsTime":1774346400},"SBJR":{"icaoId":"SBJR","flightCategory":"VFR","rawOb":"METAR SBJR 241000Z 05003KT CAVOK 24/21 Q1011","temp":24,"dewp":21,"wdir":50,"wspd":3,"visib":"6+","altim":1011,"clouds":[],"obsTime":1774346400},"SBLS":{"icaoId":"SBLS","flightCategory":"VFR","rawOb":"METAR SBLS 241000Z 14003KT 9999 FEW049 SCT080 19/15 Q1016","temp":19,"dewp":15,"wdir":140,"wspd":3,"visib":"6+","altim":1016,"clouds":[{"cover":"FEW","base":4900},{"cover":"SCT","base":8000}],"obsTime":1774346400},"SBMT":{"icaoId":"SBMT","flightCategory":"MVFR","rawOb":"METAR SBMT 241000Z 08008KT 7000 FEW007 BKN013 18/17 Q1015","temp":18,"dewp":17,"wdir":80,"wspd":8,"visib":4.35,"altim":1015,"clouds":[{"cover":"FEW","base":700},{"cover":"BKN","base":1300}],"obsTime":1774346400},"SBST":{"icaoId":"SBST","flightCategory":"VFR","rawOb":"METAR SBST 241100Z 35004KT CAVOK 23/20 Q1011","temp":23,"dewp":20,"wdir":350,"wspd":4,"visib":"6+","altim":1011,"clouds":[],"obsTime":1774350000},"SBTA":{"icaoId":"SBTA","flightCategory":"VFR","rawOb":"METAR SBTA 241000Z VRB01KT CAVOK 18/17 Q1013","temp":18,"dewp":17,"wdir":"VRB","wspd":1,"visib":"6+","altim":1013,"clouds":[],"obsTime":1774346400},"SBJV":{"icaoId":"SBJV","flightCategory":"VFR","rawOb":"METAR SBJV 241000Z 31004KT 9999 FEW030 24/23 Q1011","temp":24,"dewp":23,"wdir":310,"wspd":4,"visib":"6+","altim":1011,"clouds":[{"cover":"FEW","base":3000}],"obsTime":1774346400},"SBPF":{"icaoId":"SBPF","flightCategory":"LIFR","rawOb":"METAR SBPF 241000Z 00000KT 0900 FG VV002 21/20 Q1013","temp":21,"dewp":20,"wdir":0,"wspd":0,"visib":0.56,"altim":1013,"clouds":[{"cover":"OVX","base":200}],"obsTime":1774346400},"SBJP":{"icaoId":"SBJP","flightCategory":"MVFR","rawOb":"METAR SBJP 241000Z 18005KT 9999 BKN023 27/23 Q1012","temp":27,"dewp":23,"wdir":180,"wspd":5,"visib":"6+","altim":1012,"clouds":[{"cover":"BKN","base":2300}],"obsTime":1774346400}}}