{"updated":1774136647,"count":73,"data":{"SBFL":{"icaoId":"SBFL","flightCategory":"VFR","rawOb":"METAR SBFL 212200Z 02009KT 9999 BKN037 BKN046 27/22 Q1009","temp":27,"dewp":22,"wdir":20,"wspd":9,"visib":"6+","altim":1009,"clouds":[{"cover":"BKN","base":3700},{"cover":"BKN","base":4600}],"obsTime":1774130400},"SBCG":{"icaoId":"SBCG","flightCategory":"VFR","rawOb":"METAR SBCG 212200Z 36005KT 9999 FEW035 27/23 Q1010","temp":27,"dewp":23,"wdir":360,"wspd":5,"visib":"6+","altim":1010,"clouds":[{"cover":"FEW","base":3500}],"obsTime":1774130400},"SBMG":{"icaoId":"SBMG","flightCategory":"VFR","rawOb":"METAR SBMG 212200Z 02006KT 9999 FEW045 FEW050TCU 29/21 Q1010","temp":29,"dewp":21,"wdir":20,"wspd":6,"visib":"6+","altim":1010,"clouds":[{"cover":"FEW","base":4500},{"cover":"FEW","base":5000}],"obsTime":1774130400},"SBMK":{"icaoId":"SBMK","flightCategory":"VFR","rawOb":"METAR SBMK 212200Z 05004KT 9999 -RA FEW040 BKN080 23/22 Q1014","temp":23,"dewp":22,"wdir":50,"wspd":4,"visib":"6+","altim":1014,"clouds":[{"cover":"FEW","base":4000},{"cover":"BKN","base":8000}],"obsTime":1774130400},"SBBR":{"icaoId":"SBBR","flightCategory":"VFR","rawOb":"METAR SBBR 212200Z 07006KT 040V100 9999 TS SCT040 FEW045CB BKN100 23/20 Q1016 RETS","temp":23,"dewp":20,"wdir":70,"wspd":6,"visib":"6+","altim":1016,"clouds":[{"cover":"SCT","base":4000},{"cover":"FEW","base":4500},{"cover":"BKN","base":10000}],"obsTime":1774130400},"SBFZ":{"icaoId":"SBFZ","flightCategory":"VFR","rawOb":"METAR SBFZ 212200Z 09004KT CAVOK 28/24 Q1010","temp":28,"dewp":24,"wdir":90,"wspd":4,"visib":"6+","altim":1010,"clouds":[],"obsTime":1774130400},"SBMO":{"icaoId":"SBMO","flightCategory":"VFR","rawOb":"METAR SBMO 212200Z 08006KT 9999 FEW020 27/24 Q1011","temp":27,"dewp":24,"wdir":80,"wspd":6,"visib":"6+","altim":1011,"clouds":[{"cover":"FEW","base":2000}],"obsTime":1774130400},"SBCB":{"icaoId":"SBCB","flightCategory":"VFR","rawOb":"METAR SBCB 212200Z 14002KT 9999 FEW020 25/21 Q1012","temp":25,"dewp":21,"wdir":140,"wspd":2,"visib":"6+","altim":1012,"clouds":[{"cover":"FEW","base":2000}],"obsTime":1774130400},"SBMQ":{"icaoId":"SBMQ","flightCategory":"VFR","rawOb":"METAR SBMQ 212200Z 07003KT 9999 FEW040 28/25 Q1010","temp":28,"dewp":25,"wdir":70,"wspd":3,"visib":"6+","altim":1010,"clouds":[{"cover":"FEW","base":4000}],"obsTime":1774130400},"SBGL":{"icaoId":"SBGL","flightCategory":"VFR","rawOb":"METAR SBGL 212200Z 15009KT 9999 BKN048 BKN100 26/21 Q1012","temp":26,"dewp":21,"wdir":150,"wspd":9,"visib":"6+","altim":1012,"clouds":[{"cover":"BKN","base":4800},{"cover":"BKN","base":10000}],"obsTime":1774130400},"SBNT":{"icaoId":"SBNT","flightCategory":"VFR","rawOb":"METAR SBNT 212200Z 10008KT 9999 FEW020 28/23 Q1010","temp":28,"dewp":23,"wdir":100,"wspd":8,"visib":"6+","altim":1010,"clouds":[{"cover":"FEW","base":2000}],"obsTime":1774130400},"SBVT":{"icaoId":"SBVT","flightCategory":"VFR","rawOb":"METAR SBVT 212200Z 20009KT 9999 FEW015 SCT050 25/23 Q1011","temp":25,"dewp":23,"wdir":200,"wspd":9,"visib":"6+","altim":1011,"clouds":[{"cover":"FEW","base":1500},{"cover":"SCT","base":5000}],"obsTime":1774130400},"SBME":{"icaoId":"SBME","flightCategory":"VFR","rawOb":"METAR SBME 212200Z 15005KT 9999 SCT040 27/23 Q1012","temp":27,"dewp":23,"wdir":150,"wspd":5,"visib":"6+","altim":1012,"clouds":[{"cover":"SCT","base":4000}],"obsTime":1774130400},"SBPA":{"icaoId":"SBPA","flightCategory":"VFR","rawOb":"METAR SBPA 212200Z 10009KT 9999 TS VCSH SCT035 FEW040CB BKN100 28/21 Q1006","temp":28,"dewp":21,"wdir":100,"wspd":9,"visib":"6+","altim":1006,"clouds":[{"cover":"SCT","base":3500},{"cover":"FEW","base":4000},{"cover":"BKN","base":10000}],"obsTime":1774130400},"SBCT":{"icaoId":"SBCT","flightCategory":"VFR","rawOb":"METAR SBCT 212200Z 09006KT 9999 FEW005 22/21 Q1015","temp":22,"dewp":21,"wdir":90,"wspd":6,"visib":"6+","altim":1015,"clouds":[{"cover":"FEW","base":500}],"obsTime":1774130400},"SBPJ":{"icaoId":"SBPJ","flightCategory":"VFR","rawOb":"METAR SBPJ 212200Z 16004KT 9999 FEW027 BKN100 29/24 Q1011","temp":29,"dewp":24,"wdir":160,"wspd":4,"visib":"6+","altim":1011,"clouds":[{"cover":"FEW","base":2700},{"cover":"BKN","base":10000}],"obsTime":1774130400},"SBGO":{"icaoId":"SBGO","flightCategory":"VFR","rawOb":"METAR SBGO 212200Z 29003KT 9999 FEW048 28/20 Q1014","temp":28,"dewp":20,"wdir":290,"wspd":3,"visib":"6+","altim":1014,"clouds":[{"cover":"FEW","base":4800}],"obsTime":1774130400},"SBBV":{"icaoId":"SBBV","flightCategory":"VFR","rawOb":"METAR SBBV 212200Z 16010KT 9999 SCT040 FEW045TCU SCT080 34/19 Q1007","temp":34,"dewp":19,"wdir":160,"wspd":10,"visib":"6+","altim":1007,"clouds":[{"cover":"SCT","base":4000},{"cover":"FEW","base":4500},{"cover":"SCT","base":8000}],"obsTime":1774130400},"SBPV":{"icaoId":"SBPV","flightCategory":"VFR","rawOb":"METAR SBPV 212200Z 05005KT 020V080 CAVOK 32/23 Q1005","temp":32,"dewp":23,"wdir":50,"wspd":5,"visib":"6+","altim":1005,"clouds":[],"obsTime":1774130400},"SBGR":{"icaoId":"SBGR","flightCategory":"MVFR","rawOb":"METAR SBGR 212200Z 16006KT 9999 BKN015 BKN050 23/20 Q1015","temp":23,"dewp":20,"wdir":160,"wspd":6,"visib":"6+","altim":1015,"clouds":[{"cover":"BKN","base":1500},{"cover":"BKN","base":5000}],"obsTime":1774130400},"SBRB":{"icaoId":"SBRB","flightCategory":"VFR","rawOb":"METAR SBRB 212200Z 04007KT 9999 FEW040 31/25 Q1005","temp":31,"dewp":25,"wdir":40,"wspd":7,"visib":"6+","altim":1005,"clouds":[{"cover":"FEW","base":4000}],"obsTime":1774130400},"SBCZ":{"icaoId":"SBCZ","flightCategory":"VFR","rawOb":"METAR SBCZ 212200Z 15002KT 9999 SCT011 OVC100 24/24 Q1005","temp":24,"dewp":24,"wdir":150,"wspd":2,"visib":"6+","altim":1005,"clouds":[{"cover":"SCT","base":1100},{"cover":"OVC","base":10000}],"obsTime":1774130400},"SBRF":{"icaoId":"SBRF","flightCategory":"VFR","rawOb":"METAR SBRF 212200Z 07006KT 9999 FEW025 29/23 Q1011","temp":29,"dewp":23,"wdir":70,"wspd":6,"visib":"6+","altim":1011,"clouds":[{"cover":"FEW","base":2500}],"obsTime":1774130400},"SBIL":{"icaoId":"SBIL","flightCategory":"VFR","rawOb":"METAR SBIL 212200Z 07005KT CAVOK 29/25 Q1010","temp":29,"dewp":25,"wdir":70,"wspd":5,"visib":"6+","altim":1010,"clouds":[],"obsTime":1774130400},"SBSG":{"icaoId":"SBSG","flightCategory":"VFR","rawOb":"METAR SBSG 212200Z 12005KT 090V150 9999 FEW027 27/24 Q1011","temp":27,"dewp":24,"wdir":120,"wspd":5,"visib":"6+","altim":1011,"clouds":[{"cover":"FEW","base":2700}],"obsTime":1774130400},"SBCF":{"icaoId":"SBCF","flightCategory":"VFR","rawOb":"METAR SBCF 212200Z 09003KT 050V150 9999 VCTS SCT030 FEW035CB SCT100 23/19 Q1015","temp":23,"dewp":19,"wdir":90,"wspd":3,"visib":"6+","altim":1015,"clouds":[{"cover":"SCT","base":3000},{"cover":"FEW","base":3500},{"cover":"SCT","base":10000}],"obsTime":1774130400},"SBSL":{"icaoId":"SBSL","flightCategory":"VFR","rawOb":"METAR SBSL 212200Z 06005KT CAVOK 26/23 Q1011","temp":26,"dewp":23,"wdir":60,"wspd":5,"visib":"6+","altim":1011,"clouds":[],"obsTime":1774130400},"SBSN":{"icaoId":"SBSN","flightCategory":"VFR","rawOb":"METAR SBSN 212200Z COR 13004KT 9999 FEW020 27/23 Q1009","temp":27,"dewp":23,"wdir":130,"wspd":4,"visib":"6+","altim":1009,"clouds":[{"cover":"FEW","base":2000}],"obsTime":1774130400},"SBJU":{"icaoId":"SBJU","flightCategory":"VFR","rawOb":"METAR SBJU 212200Z 00000KT 9999 FEW022 FEW022TCU 27/23 Q1012","temp":27,"dewp":23,"wdir":0,"wspd":0,"visib":"6+","altim":1012,"clouds":[{"cover":"FEW","base":2200},{"cover":"FEW","base":2200}],"obsTime":1774130400},"SBSP":{"icaoId":"SBSP","flightCategory":"MVFR","rawOb":"METAR SBSP 212200Z 15007KT 9999 BKN011 22/19 Q1016","temp":22,"dewp":19,"wdir":150,"wspd":7,"visib":"6+","altim":1016,"clouds":[{"cover":"BKN","base":1100}],"obsTime":1774130400},"SBEG":{"icaoId":"SBEG","flightCategory":"VFR","rawOb":"METAR SBEG 212200Z 11006KT 9999 FEW025 31/24 Q1007","temp":31,"dewp":24,"wdir":110,"wspd":6,"visib":"6+","altim":1007,"clouds":[{"cover":"FEW","base":2500}],"obsTime":1774130400},"SBKP":{"icaoId":"SBKP","flightCategory":"VFR","rawOb":"METAR SBKP 212200Z 24005KT 200V260 CAVOK 29/15 Q1013","temp":29,"dewp":15,"wdir":240,"wspd":5,"visib":"6+","altim":1013,"clouds":[],"obsTime":1774130400},"SBSV":{"icaoId":"SBSV","flightCategory":"VFR","rawOb":"METAR SBSV 212200Z 07011KT CAVOK 28/23 Q1010","temp":28,"dewp":23,"wdir":70,"wspd":11,"visib":"6+","altim":1010,"clouds":[],"obsTime":1774130400},"SBBE":{"icaoId":"SBBE","flightCategory":"VFR","rawOb":"METAR SBBE 212200Z 30004KT CAVOK 29/24 Q1009","temp":29,"dewp":24,"wdir":300,"wspd":4,"visib":"6+","altim":1009,"clouds":[],"obsTime":1774130400},"SBTE":{"icaoId":"SBTE","flightCategory":"VFR","rawOb":"METAR SBTE 212200Z 34006KT 9999 FEW020 SCT100 27/24 Q1011","temp":27,"dewp":24,"wdir":340,"wspd":6,"visib":"6+","altim":1011,"clouds":[{"cover":"FEW","base":2000},{"cover":"SCT","base":10000}],"obsTime":1774130400},"SBLO":{"icaoId":"SBLO","flightCategory":"VFR","rawOb":"METAR SBLO 212200Z 01004KT 9999 FEW020 30/20 Q1011","temp":30,"dewp":20,"wdir":10,"wspd":4,"visib":"6+","altim":1011,"clouds":[{"cover":"FEW","base":2000}],"obsTime":1774130400},"SBUL":{"icaoId":"SBUL","flightCategory":"MVFR","rawOb":"METAR SBUL 212200Z 01007KT 7000 -TSRA FEW013 FEW040CB SCT100 20/19 Q1015 RERA","temp":20,"dewp":19,"wdir":10,"wspd":7,"visib":4.35,"altim":1015,"clouds":[{"cover":"FEW","base":1300},{"cover":"FEW","base":4000},{"cover":"SCT","base":10000}],"obsTime":1774130400},"SBFI":{"icaoId":"SBFI","flightCategory":"VFR","rawOb":"METAR SBFI 212200Z 02004KT 9999 FEW040TCU 28/25 Q1007","temp":28,"dewp":25,"wdir":20,"wspd":4,"visib":"6+","altim":1007,"clouds":[{"cover":"FEW","base":4000}],"obsTime":1774130400},"SBUR":{"icaoId":"SBUR","flightCategory":"VFR","rawOb":"METAR SBUR 212200Z 17004KT CAVOK 27/20 Q1013","temp":27,"dewp":20,"wdir":170,"wspd":4,"visib":"6+","altim":1013,"clouds":[],"obsTime":1774130400},"SBMA":{"icaoId":"SBMA","flightCategory":"VFR","rawOb":"METAR SBMA 212200Z 16003KT 9999 FEW023 BKN100 28/24 Q1010","temp":28,"dewp":24,"wdir":160,"wspd":3,"visib":"6+","altim":1010,"clouds":[{"cover":"FEW","base":2300},{"cover":"BKN","base":10000}],"obsTime":1774130400},"SBCP":{"icaoId":"SBCP","flightCategory":"VFR","rawOb":"METAR SBCP 212200Z 19002KT 9999 SCT020 25/24 Q1012","temp":25,"dewp":24,"wdir":190,"wspd":2,"visib":"6+","altim":1012,"clouds":[{"cover":"SCT","base":2000}],"obsTime":1774130400},"SBSM":{"icaoId":"SBSM","flightCategory":"VFR","rawOb":"METAR SBSM 212200Z 36004KT 9999 VCSH VCTS SCT040 FEW050CB BKN100 23/23 Q1008","temp":23,"dewp":23,"wdir":360,"wspd":4,"visib":"6+","altim":1008,"clouds":[{"cover":"SCT","base":4000},{"cover":"FEW","base":5000},{"cover":"BKN","base":10000}],"obsTime":1774130400},"SBAR":{"icaoId":"SBAR","flightCategory":"VFR","rawOb":"METAR SBAR 212200Z 09010KT CAVOK 28/24 Q1010","temp":28,"dewp":24,"wdir":90,"wspd":10,"visib":"6+","altim":1010,"clouds":[],"obsTime":1774130400},"SBAX":{"icaoId":"SBAX","flightCategory":"VFR","rawOb":"METAR SBAX 212200Z AUTO VRB02KT CAVOK 26/19 Q1015","temp":26,"dewp":19,"wdir":"VRB","wspd":2,"visib":"6+","altim":1015,"clouds":[],"obsTime":1774130400},"SBBH":{"icaoId":"SBBH","flightCategory":"VFR","rawOb":"METAR SBBH 212200Z 00000KT CAVOK 21/20 Q1015 RETS RETSRA","temp":21,"dewp":20,"wdir":0,"wspd":0,"visib":"6+","altim":1015,"clouds":[],"obsTime":1774130400},"SBBU":{"icaoId":"SBBU","flightCategory":"VFR","rawOb":"METAR SBBU 212200Z 17002KT CAVOK 31/20 Q1012","temp":31,"dewp":20,"wdir":170,"wspd":2,"visib":"6+","altim":1012,"clouds":[],"obsTime":1774130400},"SBCA":{"icaoId":"SBCA","flightCategory":"VFR","rawOb":"METAR SBCA 212200Z 35007KT 9999 FEW040 FEW050TCU BKN070 27/23 Q1012","temp":27,"dewp":23,"wdir":350,"wspd":7,"visib":"6+","altim":1012,"clouds":[{"cover":"FEW","base":4000},{"cover":"FEW","base":5000},{"cover":"BKN","base":7000}],"obsTime":1774130400},"SBCO":{"icaoId":"SBCO","flightCategory":"VFR","rawOb":"METAR SBCO 212200Z 10010KT 9999 FEW040TCU BKN100 27/22 Q1006","temp":27,"dewp":22,"wdir":100,"wspd":10,"visib":"6+","altim":1006,"clouds":[{"cover":"FEW","base":4000},{"cover":"BKN","base":10000}],"obsTime":1774130400},"SBDN":{"icaoId":"SBDN","flightCategory":"VFR","rawOb":"METAR SBDN 212200Z 07002KT CAVOK 30/22 Q1010","temp":30,"dewp":22,"wdir":70,"wspd":2,"visib":"6+","altim":1010,"clouds":[],"obsTime":1774130400},"SBES":{"icaoId":"SBES","flightCategory":"VFR","rawOb":"METAR SBES 212200Z 09003KT 9999 FEW040 23/// Q1012","temp":null,"dewp":null,"wdir":90,"wspd":3,"visib":"6+","altim":1012,"clouds":[{"cover":"FEW","base":4000}],"obsTime":1774130400},"SBIP":{"icaoId":"SBIP","flightCategory":"VFR","rawOb":"METAR SBIP 212200Z AUTO 19003KT 160V220 CAVOK 25/24 Q1011","temp":25,"dewp":24,"wdir":190,"wspd":3,"visib":"6+","altim":1011,"clouds":[],"obsTime":1774130400},"SBKG":{"icaoId":"SBKG","flightCategory":"MVFR","rawOb":"METAR SBKG 212200Z 08013KT 9999 BKN018 26/21 Q1013","temp":26,"dewp":21,"wdir":80,"wspd":13,"visib":"6+","altim":1013,"clouds":[{"cover":"BKN","base":1800}],"obsTime":1774130400},"SBOI":{"icaoId":"SBOI","flightCategory":"VFR","rawOb":"METAR SBOI 212200Z AUTO 07003KT 030V100 CAVOK 26/24 Q1010","temp":26,"dewp":24,"wdir":70,"wspd":3,"visib":"6+","altim":1010,"clouds":[],"obsTime":1774130400},"SBPL":{"icaoId":"SBPL","flightCategory":"VFR","rawOb":"METAR SBPL 212200Z 07003KT 9999 FEW035 30/22 Q1011","temp":30,"dewp":22,"wdir":70,"wspd":3,"visib":"6+","altim":1011,"clouds":[{"cover":"FEW","base":3500}],"obsTime":1774130400},"SBPS":{"icaoId":"SBPS","flightCategory":"VFR","rawOb":"METAR SBPS 212200Z 04009KT 9999 SCT020 BKN080 27/25 Q1010","temp":27,"dewp":25,"wdir":40,"wspd":9,"visib":"6+","altim":1010,"clouds":[{"cover":"SCT","base":2000},{"cover":"BKN","base":8000}],"obsTime":1774130400},"SBSC":{"icaoId":"SBSC","flightCategory":"VFR","rawOb":"METAR SBSC 212200Z 11008KT 9999 SCT040 25/23 Q1011","temp":25,"dewp":23,"wdir":110,"wspd":8,"visib":"6+","altim":1011,"clouds":[{"cover":"SCT","base":4000}],"obsTime":1774130400},"SBSJ":{"icaoId":"SBSJ","flightCategory":"VFR","rawOb":"METAR SBSJ 212200Z 18010KT CAVOK 24/// Q1014","temp":null,"dewp":null,"wdir":180,"wspd":10,"visib":"6+","altim":1014,"clouds":[],"obsTime":1774130400},"SBSR":{"icaoId":"SBSR","flightCategory":"VFR","rawOb":"METAR SBSR 212200Z 23002KT CAVOK 29/19 Q1011","temp":29,"dewp":19,"wdir":230,"wspd":2,"visib":"6+","altim":1011,"clouds":[],"obsTime":1774130400},"SBTT":{"icaoId":"SBTT","flightCategory":"VFR","rawOb":"METAR SBTT 212200Z COR 22006KT 9999 FEW050TCU SCT050 30/24 Q1005","temp":30,"dewp":24,"wdir":220,"wspd":6,"visib":"6+","altim":1005,"clouds":[{"cover":"FEW","base":5000},{"cover":"SCT","base":5000}],"obsTime":1774130400},"SBVH":{"icaoId":"SBVH","flightCategory":"VFR","rawOb":"METAR SBVH 212200Z 07004KT 9999 SCT035 BKN100 26/23 Q1010","temp":26,"dewp":23,"wdir":70,"wspd":4,"visib":"6+","altim":1010,"clouds":[{"cover":"SCT","base":3500},{"cover":"BKN","base":10000}],"obsTime":1774130400},"SBTF":{"icaoId":"SBTF","flightCategory":"VFR","rawOb":"METAR SBTF 212200Z 14004KT 9999 FEW018 33/26 Q1006","temp":33,"dewp":26,"wdir":140,"wspd":4,"visib":"6+","altim":1006,"clouds":[{"cover":"FEW","base":1800}],"obsTime":1774130400},"SBUY":{"icaoId":"SBUY","flightCategory":"VFR","rawOb":"METAR SBUY 212200Z 11002KT 9999 FEW040 33/23 Q1004","temp":33,"dewp":23,"wdir":110,"wspd":2,"visib":"6+","altim":1004,"clouds":[{"cover":"FEW","base":4000}],"obsTime":1774130400},"SBPB":{"icaoId":"SBPB","flightCategory":"VFR","rawOb":"SPECI SBPB 212145Z 26004KT 9999 SCT015 OVC080 24/23 Q1011","temp":24,"dewp":23,"wdir":260,"wspd":4,"visib":"6+","altim":1011,"clouds":[{"cover":"SCT","base":1500},{"cover":"OVC","base":8000}],"obsTime":1774129500},"SBPF":{"icaoId":"SBPF","flightCategory":"MVFR","rawOb":"METAR SBPF 212200Z 33012KT 9999 BKN025 27/20 Q1011","temp":27,"dewp":20,"wdir":330,"wspd":12,"visib":"6+","altim":1011,"clouds":[{"cover":"BKN","base":2500}],"obsTime":1774130400},"SBAF":{"icaoId":"SBAF","flightCategory":"VFR","rawOb":"METAR SBAF 212200Z 21007KT 9999 SCT040 26/24 Q1012","temp":26,"dewp":24,"wdir":210,"wspd":7,"visib":"6+","altim":1012,"clouds":[{"cover":"SCT","base":4000}],"obsTime":1774130400},"SBAN":{"icaoId":"SBAN","flightCategory":"VFR","rawOb":"METAR SBAN 212200Z 00000KT 9999 FEW030 FEW035TCU SCT100 23/20 Q1017","temp":23,"dewp":20,"wdir":0,"wspd":0,"visib":"6+","altim":1017,"clouds":[{"cover":"FEW","base":3000},{"cover":"FEW","base":3500},{"cover":"SCT","base":10000}],"obsTime":1774130400},"SBJP":{"icaoId":"SBJP","flightCategory":"VFR","rawOb":"METAR SBJP 212200Z 08006KT 9999 FEW022 28/23 Q1011","temp":28,"dewp":23,"wdir":80,"wspd":6,"visib":"6+","altim":1011,"clouds":[{"cover":"FEW","base":2200}],"obsTime":1774130400},"SBJR":{"icaoId":"SBJR","flightCategory":"VFR","rawOb":"METAR SBJR 212200Z 15007KT 9999 FEW030 SCT060 27/21 Q1012","temp":27,"dewp":21,"wdir":150,"wspd":7,"visib":"6+","altim":1012,"clouds":[{"cover":"FEW","base":3000},{"cover":"SCT","base":6000}],"obsTime":1774130400},"SBJV":{"icaoId":"SBJV","flightCategory":"VFR","rawOb":"METAR SBJV 212200Z 04007KT 9999 SCT025 27/24 Q1010","temp":27,"dewp":24,"wdir":40,"wspd":7,"visib":"6+","altim":1010,"clouds":[{"cover":"SCT","base":2500}],"obsTime":1774130400},"SBLE":{"icaoId":"SBLE","flightCategory":"VFR","rawOb":"METAR SBLE 212200Z AUTO 00000KT CAVOK 25/22 Q1013","temp":25,"dewp":22,"wdir":0,"wspd":0,"visib":"6+","altim":1013,"clouds":[],"obsTime":1774130400},"SBLS":{"icaoId":"SBLS","flightCategory":"VFR","rawOb":"METAR SBLS 212200Z VRB02KT 9999 FEW026 SCT100 23/19 Q1014 RETS","temp":23,"dewp":19,"wdir":"VRB","wspd":2,"visib":"6+","altim":1014,"clouds":[{"cover":"FEW","base":2600},{"cover":"SCT","base":10000}],"obsTime":1774130400},"SBMT":{"icaoId":"SBMT","flightCategory":"VFR","rawOb":"METAR SBMT 212200Z 17006KT 9999 SCT030 22/19 Q1015","temp":22,"dewp":19,"wdir":170,"wspd":6,"visib":"6+","altim":1015,"clouds":[{"cover":"SCT","base":3000}],"obsTime":1774130400},"SBGW":{"icaoId":"SBGW","flightCategory":"VFR","rawOb":"METAR SBGW 212200Z 15006KT 9999 FEW030 26/17 Q1013","temp":26,"dewp":17,"wdir":150,"wspd":6,"visib":"6+","altim":1013,"clouds":[{"cover":"FEW","base":3000}],"obsTime":1774130400}}}