{"updated":1777533795,"count":50,"data":{"SBMO":{"icaoId":"SBMO","flightCategory":"MVFR","rawOb":"METAR SBMO 300600Z 24003KT 190V260 9999 -RA FEW011 BKN015 23/23 Q1011","temp":23,"dewp":23,"wdir":240,"wspd":3,"visib":"6+","altim":1011,"clouds":[{"cover":"FEW","base":1100},{"cover":"BKN","base":1500}],"obsTime":1777528800},"SBMG":{"icaoId":"SBMG","flightCategory":"LIFR","rawOb":"METAR SBMG 300600Z AUTO 15006KT 0400 R10/0450N FG VV001 19/19 Q1015","temp":19,"dewp":19,"wdir":150,"wspd":6,"visib":0.25,"altim":1015,"clouds":[{"cover":"OVX","base":100}],"obsTime":1777528800},"SBME":{"icaoId":"SBME","flightCategory":"VFR","rawOb":"METAR SBME 300600Z 30001KT 9999 SCT020 24/22 Q1014","temp":24,"dewp":22,"wdir":300,"wspd":1,"visib":"6+","altim":1014,"clouds":[{"cover":"SCT","base":2000}],"obsTime":1777528800},"SBCF":{"icaoId":"SBCF","flightCategory":"VFR","rawOb":"METAR SBCF 300600Z 18002KT CAVOK 18/16 Q1018","temp":18,"dewp":16,"wdir":180,"wspd":2,"visib":"6+","altim":1018,"clouds":[],"obsTime":1777528800},"SBFI":{"icaoId":"SBFI","flightCategory":"LIFR","rawOb":"SPECI SBFI 300535Z 06004KT 0800 R33/1200U R15/1200U FG VV003 18/18 Q1014","temp":18,"dewp":18,"wdir":60,"wspd":4,"visib":0.5,"altim":1014,"clouds":[{"cover":"OVX","base":300}],"obsTime":1777527300},"SBFL":{"icaoId":"SBFL","flightCategory":"MVFR","rawOb":"METAR SBFL 300600Z VRB02KT 9999 BKN025 19/18 Q1014","temp":19,"dewp":18,"wdir":"VRB","wspd":2,"visib":"6+","altim":1014,"clouds":[{"cover":"BKN","base":2500}],"obsTime":1777528800},"SBCG":{"icaoId":"SBCG","flightCategory":"IFR","rawOb":"METAR SBCG 300600Z 14011KT 9999 BKN005 23/22 Q1015","temp":23,"dewp":22,"wdir":140,"wspd":11,"visib":"6+","altim":1015,"clouds":[{"cover":"BKN","base":500}],"obsTime":1777528800},"SBMQ":{"icaoId":"SBMQ","flightCategory":"VFR","rawOb":"METAR SBMQ 300600Z 32003KT 9999 FEW005 25/25 Q1009","temp":25,"dewp":25,"wdir":320,"wspd":3,"visib":"6+","altim":1009,"clouds":[{"cover":"FEW","base":500}],"obsTime":1777528800},"SBFZ":{"icaoId":"SBFZ","flightCategory":"VFR","rawOb":"METAR SBFZ 300600Z 15006KT 9999 SCT020 25/24 Q1008","temp":25,"dewp":24,"wdir":150,"wspd":6,"visib":"6+","altim":1008,"clouds":[{"cover":"SCT","base":2000}],"obsTime":1777528800},"SBNT":{"icaoId":"SBNT","flightCategory":"VFR","rawOb":"METAR SBNT 300600Z 19005KT 9999 FEW018 23/22 Q1009","temp":23,"dewp":22,"wdir":190,"wspd":5,"visib":"6+","altim":1009,"clouds":[{"cover":"FEW","base":1800}],"obsTime":1777528800},"SBGL":{"icaoId":"SBGL","flightCategory":"VFR","rawOb":"METAR SBGL 300600Z 26010KT 9999 SCT018 OVC035 24/21 Q1015","temp":24,"dewp":21,"wdir":260,"wspd":10,"visib":"6+","altim":1015,"clouds":[{"cover":"SCT","base":1800},{"cover":"OVC","base":3500}],"obsTime":1777528800},"SBPA":{"icaoId":"SBPA","flightCategory":"MVFR","rawOb":"METAR SBPA 300600Z VRB02KT 8000 FEW010 13/12 Q1015","temp":13,"dewp":12,"wdir":"VRB","wspd":2,"visib":4.97,"altim":1015,"clouds":[{"cover":"FEW","base":1000}],"obsTime":1777528800},"SBBE":{"icaoId":"SBBE","flightCategory":"VFR","rawOb":"METAR SBBE 300600Z 06002KT 9999 FEW040 SCT070 26/25 Q1008","temp":26,"dewp":25,"wdir":60,"wspd":2,"visib":"6+","altim":1008,"clouds":[{"cover":"FEW","base":4000},{"cover":"SCT","base":7000}],"obsTime":1777528800},"SBPJ":{"icaoId":"SBPJ","flightCategory":"VFR","rawOb":"METAR SBPJ 300600Z 10002KT 9999 FEW035 SCT070 24/23 Q1011","temp":24,"dewp":23,"wdir":100,"wspd":2,"visib":"6+","altim":1011,"clouds":[{"cover":"FEW","base":3500},{"cover":"SCT","base":7000}],"obsTime":1777528800},"SBGO":{"icaoId":"SBGO","flightCategory":"VFR","rawOb":"METAR SBGO 300600Z 15003KT CAVOK 21/15 Q1016","temp":21,"dewp":15,"wdir":150,"wspd":3,"visib":"6+","altim":1016,"clouds":[],"obsTime":1777528800},"SBPV":{"icaoId":"SBPV","flightCategory":"VFR","rawOb":"METAR SBPV 300600Z 33001KT CAVOK 26/23 Q1009","temp":26,"dewp":23,"wdir":330,"wspd":1,"visib":"6+","altim":1009,"clouds":[],"obsTime":1777528800},"SBBV":{"icaoId":"SBBV","flightCategory":"MVFR","rawOb":"SPECI SBBV 300529Z 13008KT 6000 RA VCTS SCT014 SCT040 FEW045CB BKN075 24/23 Q1011","temp":24,"dewp":23,"wdir":130,"wspd":8,"visib":3.73,"altim":1011,"clouds":[{"cover":"SCT","base":1400},{"cover":"SCT","base":4000},{"cover":"FEW","base":4500},{"cover":"BKN","base":7500}],"obsTime":1777526940},"SBRB":{"icaoId":"SBRB","flightCategory":"MVFR","rawOb":"METAR SBRB 300600Z 00000KT 8000 FEW030 23/23 Q1010","temp":23,"dewp":23,"wdir":0,"wspd":0,"visib":4.97,"altim":1010,"clouds":[{"cover":"FEW","base":3000}],"obsTime":1777528800},"SBCT":{"icaoId":"SBCT","flightCategory":"LIFR","rawOb":"METAR SBCT 300600Z 26004KT 9999 BKN004 16/16 Q1018","temp":16,"dewp":16,"wdir":260,"wspd":4,"visib":"6+","altim":1018,"clouds":[{"cover":"BKN","base":400}],"obsTime":1777528800},"SBRF":{"icaoId":"SBRF","flightCategory":"MVFR","rawOb":"METAR SBRF 300600Z 21005KT 9999 BKN023 24/23 Q1009","temp":24,"dewp":23,"wdir":210,"wspd":5,"visib":"6+","altim":1009,"clouds":[{"cover":"BKN","base":2300}],"obsTime":1777528800},"SBSG":{"icaoId":"SBSG","flightCategory":"VFR","rawOb":"METAR SBSG 300600Z 20003KT 160V230 9999 FEW023 23/22 Q1010","temp":23,"dewp":22,"wdir":200,"wspd":3,"visib":"6+","altim":1010,"clouds":[{"cover":"FEW","base":2300}],"obsTime":1777528800},"SBGR":{"icaoId":"SBGR","flightCategory":"MVFR","rawOb":"METAR SBGR 300600Z 17003KT 9999 BKN013 OVC045 17/16 Q1020","temp":17,"dewp":16,"wdir":170,"wspd":3,"visib":"6+","altim":1020,"clouds":[{"cover":"BKN","base":1300},{"cover":"OVC","base":4500}],"obsTime":1777528800},"SBSL":{"icaoId":"SBSL","flightCategory":"VFR","rawOb":"METAR SBSL 300600Z 30002KT 9999 FEW020 BKN100 24/24 Q1008","temp":24,"dewp":24,"wdir":300,"wspd":2,"visib":"6+","altim":1008,"clouds":[{"cover":"FEW","base":2000},{"cover":"BKN","base":10000}],"obsTime":1777528800},"SBJU":{"icaoId":"SBJU","flightCategory":"VFR","rawOb":"METAR SBJU 300600Z 15003KT 9999 SCT020 21/18 Q1012","temp":21,"dewp":18,"wdir":150,"wspd":3,"visib":"6+","altim":1012,"clouds":[{"cover":"SCT","base":2000}],"obsTime":1777528800},"SBSN":{"icaoId":"SBSN","flightCategory":"VFR","rawOb":"METAR SBSN 300600Z 17001KT 9999 FEW017 SCT100 24/23 Q1009","temp":24,"dewp":23,"wdir":170,"wspd":1,"visib":"6+","altim":1009,"clouds":[{"cover":"FEW","base":1700},{"cover":"SCT","base":10000}],"obsTime":1777528800},"SBSV":{"icaoId":"SBSV","flightCategory":"VFR","rawOb":"METAR SBSV 300600Z 12005KT 060V180 9999 SCT030 SCT070 27/22 Q1012","temp":27,"dewp":22,"wdir":120,"wspd":5,"visib":"6+","altim":1012,"clouds":[{"cover":"SCT","base":3000},{"cover":"SCT","base":7000}],"obsTime":1777528800},"SBSP":{"icaoId":"SBSP","flightCategory":"MVFR","rawOb":"SPECI SBSP 300525Z AUTO 21007KT 180V240 9999 -RA SCT008 OVC016 18/17 Q1021","temp":18,"dewp":17,"wdir":210,"wspd":7,"visib":"6+","altim":1021,"clouds":[{"cover":"SCT","base":800},{"cover":"OVC","base":1600}],"obsTime":1777526700},"SBVT":{"icaoId":"SBVT","flightCategory":"VFR","rawOb":"METAR SBVT 300600Z 00000KT 9999 FEW030 SCT080 22/21 Q1014","temp":22,"dewp":21,"wdir":0,"wspd":0,"visib":"6+","altim":1014,"clouds":[{"cover":"FEW","base":3000},{"cover":"SCT","base":8000}],"obsTime":1777528800},"SBKP":{"icaoId":"SBKP","flightCategory":"MVFR","rawOb":"SPECI SBKP 300528Z 21008KT 7000 -RA SCT009 BKN018 OVC090 19/18 Q1019 RERA","temp":19,"dewp":18,"wdir":210,"wspd":8,"visib":4.35,"altim":1019,"clouds":[{"cover":"SCT","base":900},{"cover":"BKN","base":1800},{"cover":"OVC","base":9000}],"obsTime":1777526880},"SBUL":{"icaoId":"SBUL","flightCategory":"VFR","rawOb":"METAR SBUL 300600Z 13006KT CAVOK 20/14 Q1018","temp":20,"dewp":14,"wdir":130,"wspd":6,"visib":"6+","altim":1018,"clouds":[],"obsTime":1777528800},"SBEG":{"icaoId":"SBEG","flightCategory":"VFR","rawOb":"METAR SBEG 300600Z 35002KT 9999 SCT010 SCT100 24/24 Q1010","temp":24,"dewp":24,"wdir":350,"wspd":2,"visib":"6+","altim":1010,"clouds":[{"cover":"SCT","base":1000},{"cover":"SCT","base":10000}],"obsTime":1777528800},"SBTE":{"icaoId":"SBTE","flightCategory":"IFR","rawOb":"METAR SBTE 300600Z 34004KT 9999 BKN006 SCT100 34/24 Q1009","temp":34,"dewp":24,"wdir":340,"wspd":4,"visib":"6+","altim":1009,"clouds":[{"cover":"BKN","base":600},{"cover":"SCT","base":10000}],"obsTime":1777528800},"SBUR":{"icaoId":"SBUR","flightCategory":"VFR","rawOb":"METAR SBUR 300600Z 03006KT CAVOK 22/14 Q1017","temp":22,"dewp":14,"wdir":30,"wspd":6,"visib":"6+","altim":1017,"clouds":[],"obsTime":1777528800},"SBLO":{"icaoId":"SBLO","flightCategory":"IFR","rawOb":"SPECI SBLO 300545Z 09005KT 9999 SCT004 BKN006 BKN080 18/18 Q1016","temp":18,"dewp":18,"wdir":90,"wspd":5,"visib":"6+","altim":1016,"clouds":[{"cover":"SCT","base":400},{"cover":"BKN","base":600},{"cover":"BKN","base":8000}],"obsTime":1777527900},"SBBR":{"icaoId":"SBBR","flightCategory":"VFR","rawOb":"METAR SBBR 300600Z 26002KT CAVOK 16/14 Q1018","temp":16,"dewp":14,"wdir":260,"wspd":2,"visib":"6+","altim":1018,"clouds":[],"obsTime":1777528800},"SBMA":{"icaoId":"SBMA","flightCategory":"VFR","rawOb":"METAR SBMA 300600Z 00000KT CAVOK 26/25 Q1009","temp":26,"dewp":25,"wdir":0,"wspd":0,"visib":"6+","altim":1009,"clouds":[],"obsTime":1777528800},"SBAR":{"icaoId":"SBAR","flightCategory":"VFR","rawOb":"METAR SBAR 300600Z 13011KT 9999 SCT023 BKN060 27/23 Q1011 RESHRA","temp":27,"dewp":23,"wdir":130,"wspd":11,"visib":"6+","altim":1011,"clouds":[{"cover":"SCT","base":2300},{"cover":"BKN","base":6000}],"obsTime":1777528800},"SBAX":{"icaoId":"SBAX","flightCategory":"VFR","rawOb":"METAR SBAX 300600Z AUTO 19003KT CAVOK 19/14 Q1019","temp":19,"dewp":14,"wdir":190,"wspd":3,"visib":"6+","altim":1019,"clouds":[],"obsTime":1777528800},"SBDN":{"icaoId":"SBDN","flightCategory":"VFR","rawOb":"METAR SBDN 300600Z 10006KT 9999 FEW009 SCT045 21/19 Q1015","temp":21,"dewp":19,"wdir":100,"wspd":6,"visib":"6+","altim":1015,"clouds":[{"cover":"FEW","base":900},{"cover":"SCT","base":4500}],"obsTime":1777528800},"SBIP":{"icaoId":"SBIP","flightCategory":"VFR","rawOb":"METAR SBIP 300600Z AUTO 00000KT 9999 SCT036 23/21 Q1016","temp":23,"dewp":21,"wdir":0,"wspd":0,"visib":"6+","altim":1016,"clouds":[{"cover":"SCT","base":3600}],"obsTime":1777528800},"SBKG":{"icaoId":"SBKG","flightCategory":"VFR","rawOb":"METAR SBKG 300600Z 17004KT CAVOK 20/20 Q1012","temp":20,"dewp":20,"wdir":170,"wspd":4,"visib":"6+","altim":1012,"clouds":[],"obsTime":1777528800},"SBOI":{"icaoId":"SBOI","flightCategory":"VFR","rawOb":"METAR SBOI 300600Z AUTO 00000KT 9999 // FEW001/// BKN055/// OVC063/// 25/24 Q1009","temp":25,"dewp":24,"wdir":0,"wspd":0,"visib":"6+","altim":1009,"clouds":[{"cover":"FEW","base":100},{"cover":"BKN","base":5500},{"cover":"OVC","base":6300}],"obsTime":1777528800},"SBPL":{"icaoId":"SBPL","flightCategory":"VFR","rawOb":"METAR SBPL 300600Z 16003KT CAVOK 22/20 Q1013","temp":22,"dewp":20,"wdir":160,"wspd":3,"visib":"6+","altim":1013,"clouds":[],"obsTime":1777528800},"SBPS":{"icaoId":"SBPS","flightCategory":"IFR","rawOb":"METAR SBPS 300600Z 03004KT 2500 RA BR BKN017 BKN060 23/23 Q1014","temp":23,"dewp":23,"wdir":30,"wspd":4,"visib":1.55,"altim":1014,"clouds":[{"cover":"BKN","base":1700},{"cover":"BKN","base":6000}],"obsTime":1777528800},"SBSC":{"icaoId":"SBSC","flightCategory":"MVFR","rawOb":"METAR SBSC 300600Z 21005KT 8000 FEW022 SCT050 23/21 Q1015","temp":23,"dewp":21,"wdir":210,"wspd":5,"visib":4.97,"altim":1015,"clouds":[{"cover":"FEW","base":2200},{"cover":"SCT","base":5000}],"obsTime":1777528800},"SBSJ":{"icaoId":"SBSJ","flightCategory":"VFR","rawOb":"METAR SBSJ 300600Z 17003KT 9999 FEW012 BKN036 18/17 Q1019","temp":18,"dewp":17,"wdir":170,"wspd":3,"visib":"6+","altim":1019,"clouds":[{"cover":"FEW","base":1200},{"cover":"BKN","base":3600}],"obsTime":1777528800},"SBSR":{"icaoId":"SBSR","flightCategory":"VFR","rawOb":"METAR SBSR 300600Z 17015KT 9999 FEW010 BKN035 22/19 Q1016","temp":22,"dewp":19,"wdir":170,"wspd":15,"visib":"6+","altim":1016,"clouds":[{"cover":"FEW","base":1000},{"cover":"BKN","base":3500}],"obsTime":1777528800},"SBJP":{"icaoId":"SBJP","flightCategory":"VFR","rawOb":"METAR SBJP 300600Z 19006KT 9999 FEW020 23/22 Q1010","temp":23,"dewp":22,"wdir":190,"wspd":6,"visib":"6+","altim":1010,"clouds":[{"cover":"FEW","base":2000}],"obsTime":1777528800},"SBAN":{"icaoId":"SBAN","flightCategory":"VFR","rawOb":"METAR SBAN 300600Z 18004KT CAVOK 18/12 Q1019","temp":18,"dewp":12,"wdir":180,"wspd":4,"visib":"6+","altim":1019,"clouds":[],"obsTime":1777528800},"SBLE":{"icaoId":"SBLE","flightCategory":"VFR","rawOb":"METAR SBLE 300600Z AUTO VRB02KT 9999 FEW017 OVC033 ///// Q////","temp":null,"dewp":null,"wdir":"VRB","wspd":2,"visib":"6+","altim":null,"clouds":[{"cover":"FEW","base":1700},{"cover":"OVC","base":3300}],"obsTime":1777528800}}}