{"updated":1777118491,"count":82,"data":{"SBBE":{"icaoId":"SBBE","flightCategory":"VFR","rawOb":"METAR SBBE 251100Z 08005KT 9999 FEW010 24/24 Q1012","temp":24,"dewp":24,"wdir":80,"wspd":5,"visib":"6+","altim":1012,"clouds":[{"cover":"FEW","base":1000}],"obsTime":1777114800},"SBCP":{"icaoId":"SBCP","flightCategory":"VFR","rawOb":"METAR SBCP 251100Z 01005KT CAVOK 24/22 Q1015","temp":24,"dewp":22,"wdir":10,"wspd":5,"visib":"6+","altim":1015,"clouds":[],"obsTime":1777114800},"SBFZ":{"icaoId":"SBFZ","flightCategory":"VFR","rawOb":"METAR SBFZ 251100Z 19009KT 9999 FEW020 SCT100 27/24 Q1012","temp":27,"dewp":24,"wdir":190,"wspd":9,"visib":"6+","altim":1012,"clouds":[{"cover":"FEW","base":2000},{"cover":"SCT","base":10000}],"obsTime":1777114800},"SBMO":{"icaoId":"SBMO","flightCategory":"VFR","rawOb":"METAR SBMO 251100Z 26002KT 9999 FEW020 25/25 Q1013","temp":25,"dewp":25,"wdir":260,"wspd":2,"visib":"6+","altim":1013,"clouds":[{"cover":"FEW","base":2000}],"obsTime":1777114800},"SBCB":{"icaoId":"SBCB","flightCategory":"VFR","rawOb":"METAR SBCB 251100Z 04013KT 9999 SCT040 25/21 Q1014","temp":25,"dewp":21,"wdir":40,"wspd":13,"visib":"6+","altim":1014,"clouds":[{"cover":"SCT","base":4000}],"obsTime":1777114800},"SBGL":{"icaoId":"SBGL","flightCategory":"VFR","rawOb":"METAR SBGL 251100Z 08002KT 9999 FEW008 SCT100 24/21 Q1014","temp":24,"dewp":21,"wdir":80,"wspd":2,"visib":"6+","altim":1014,"clouds":[{"cover":"FEW","base":800},{"cover":"SCT","base":10000}],"obsTime":1777114800},"SBCR":{"icaoId":"SBCR","flightCategory":"VFR","rawOb":"METAR SBCR 251100Z 00000KT CAVOK 25/23 Q1013","temp":25,"dewp":23,"wdir":0,"wspd":0,"visib":"6+","altim":1013,"clouds":[],"obsTime":1777114800},"SBPA":{"icaoId":"SBPA","flightCategory":"IFR","rawOb":"METAR SBPA 251100Z 25005KT 8000 BKN008 OVC019 20/20 Q1012","temp":20,"dewp":20,"wdir":250,"wspd":5,"visib":4.97,"altim":1012,"clouds":[{"cover":"BKN","base":800},{"cover":"OVC","base":1900}],"obsTime":1777114800},"SBGO":{"icaoId":"SBGO","flightCategory":"VFR","rawOb":"METAR SBGO 251100Z 12004KT CAVOK 20/17 Q1018","temp":20,"dewp":17,"wdir":120,"wspd":4,"visib":"6+","altim":1018,"clouds":[],"obsTime":1777114800},"SBPJ":{"icaoId":"SBPJ","flightCategory":"VFR","rawOb":"METAR SBPJ 251100Z 11003KT 9999 FEW025 26/24 Q1014","temp":26,"dewp":24,"wdir":110,"wspd":3,"visib":"6+","altim":1014,"clouds":[{"cover":"FEW","base":2500}],"obsTime":1777114800},"SBPV":{"icaoId":"SBPV","flightCategory":"LIFR","rawOb":"SPECI SBPV 251009Z VRB01KT 9999 BKN004 24/23 Q1011","temp":24,"dewp":23,"wdir":"VRB","wspd":1,"visib":"6+","altim":1011,"clouds":[{"cover":"BKN","base":400}],"obsTime":1777111740},"SBVT":{"icaoId":"SBVT","flightCategory":"VFR","rawOb":"METAR SBVT 251100Z 31005KT CAVOK 25/21 Q1016","temp":25,"dewp":21,"wdir":310,"wspd":5,"visib":"6+","altim":1016,"clouds":[],"obsTime":1777114800},"SBCT":{"icaoId":"SBCT","flightCategory":"LIFR","rawOb":"METAR SBCT 251100Z 26002KT 0800 R15/0800 R33/1400 FG OVC003 17/17 Q1018","temp":17,"dewp":17,"wdir":260,"wspd":2,"visib":0.5,"altim":1018,"clouds":[{"cover":"OVC","base":300}],"obsTime":1777114800},"SBFL":{"icaoId":"SBFL","flightCategory":"VFR","rawOb":"METAR SBFL 251100Z 34009KT 9999 FEW030 BKN100 24/21 Q1011","temp":24,"dewp":21,"wdir":340,"wspd":9,"visib":"6+","altim":1011,"clouds":[{"cover":"FEW","base":3000},{"cover":"BKN","base":10000}],"obsTime":1777114800},"SBGR":{"icaoId":"SBGR","flightCategory":"VFR","rawOb":"METAR SBGR 251100Z 07005KT CAVOK 19/17 Q1018","temp":19,"dewp":17,"wdir":70,"wspd":5,"visib":"6+","altim":1018,"clouds":[],"obsTime":1777114800},"SBRB":{"icaoId":"SBRB","flightCategory":"LIFR","rawOb":"METAR SBRB 251100Z 35004KT 0800 R07///// R25///// FG BKN003 22/22 Q1012","temp":22,"dewp":22,"wdir":350,"wspd":4,"visib":0.5,"altim":1012,"clouds":[{"cover":"BKN","base":300}],"obsTime":1777114800},"SBBV":{"icaoId":"SBBV","flightCategory":"VFR","rawOb":"METAR SBBV 251100Z 36004KT 9999 FEW040 FEW045TCU BKN100 25/24 Q1012","temp":25,"dewp":24,"wdir":360,"wspd":4,"visib":"6+","altim":1012,"clouds":[{"cover":"FEW","base":4000},{"cover":"FEW","base":4500},{"cover":"BKN","base":10000}],"obsTime":1777114800},"SBRF":{"icaoId":"SBRF","flightCategory":"VFR","rawOb":"METAR SBRF 251100Z 21004KT 9999 SCT025 BKN050 28/24 Q1012","temp":28,"dewp":24,"wdir":210,"wspd":4,"visib":"6+","altim":1012,"clouds":[{"cover":"SCT","base":2500},{"cover":"BKN","base":5000}],"obsTime":1777114800},"SBCF":{"icaoId":"SBCF","flightCategory":"VFR","rawOb":"METAR SBCF 251100Z 22002KT CAVOK 18/16 Q1020","temp":18,"dewp":16,"wdir":220,"wspd":2,"visib":"6+","altim":1020,"clouds":[],"obsTime":1777114800},"SBSG":{"icaoId":"SBSG","flightCategory":"VFR","rawOb":"METAR SBSG 251100Z 17004KT 110V210 9999 FEW010 SCT023 BKN100 25/24 Q1012","temp":25,"dewp":24,"wdir":170,"wspd":4,"visib":"6+","altim":1012,"clouds":[{"cover":"FEW","base":1000},{"cover":"SCT","base":2300},{"cover":"BKN","base":10000}],"obsTime":1777114800},"SBCG":{"icaoId":"SBCG","flightCategory":"VFR","rawOb":"METAR SBCG 251100Z VRB01KT CAVOK 24/18 Q1016","temp":24,"dewp":18,"wdir":"VRB","wspd":1,"visib":"6+","altim":1016,"clouds":[],"obsTime":1777114800},"SBSL":{"icaoId":"SBSL","flightCategory":"MVFR","rawOb":"METAR SBSL 251100Z VRB01KT 8000 -RA SCT013 BKN017 OVC070 24/23 Q1013","temp":24,"dewp":23,"wdir":"VRB","wspd":1,"visib":4.97,"altim":1013,"clouds":[{"cover":"SCT","base":1300},{"cover":"BKN","base":1700},{"cover":"OVC","base":7000}],"obsTime":1777114800},"SBEG":{"icaoId":"SBEG","flightCategory":"VFR","rawOb":"METAR SBEG 251100Z 00000KT 9999 FEW005 BKN100 24/24 Q1012","temp":24,"dewp":24,"wdir":0,"wspd":0,"visib":"6+","altim":1012,"clouds":[{"cover":"FEW","base":500},{"cover":"BKN","base":10000}],"obsTime":1777114800},"SBSN":{"icaoId":"SBSN","flightCategory":"VFR","rawOb":"METAR SBSN 251100Z 18004KT 9999 FEW017 SCT100 24/23 Q1012","temp":24,"dewp":23,"wdir":180,"wspd":4,"visib":"6+","altim":1012,"clouds":[{"cover":"FEW","base":1700},{"cover":"SCT","base":10000}],"obsTime":1777114800},"SBKP":{"icaoId":"SBKP","flightCategory":"MVFR","rawOb":"METAR SBKP 251100Z 11002KT 8000 NSC 19/16 Q1018","temp":19,"dewp":16,"wdir":110,"wspd":2,"visib":4.97,"altim":1018,"clouds":[],"obsTime":1777114800},"SBSP":{"icaoId":"SBSP","flightCategory":"VFR","rawOb":"METAR SBSP 251100Z 01005KT CAVOK 21/16 Q1019","temp":21,"dewp":16,"wdir":10,"wspd":5,"visib":"6+","altim":1019,"clouds":[],"obsTime":1777114800},"SBSV":{"icaoId":"SBSV","flightCategory":"VFR","rawOb":"METAR SBSV 251100Z 13007KT 9999 VCSH SCT023 FEW025TCU 29/23 Q1014","temp":29,"dewp":23,"wdir":130,"wspd":7,"visib":"6+","altim":1014,"clouds":[{"cover":"SCT","base":2300},{"cover":"FEW","base":2500}],"obsTime":1777114800},"SBBR":{"icaoId":"SBBR","flightCategory":"VFR","rawOb":"METAR SBBR 251100Z VRB02KT CAVOK 20/17 Q1020","temp":20,"dewp":17,"wdir":"VRB","wspd":2,"visib":"6+","altim":1020,"clouds":[],"obsTime":1777114800},"SBLO":{"icaoId":"SBLO","flightCategory":"MVFR","rawOb":"METAR SBLO 251100Z 17002KT 6000 NSC 21/18 Q1016","temp":21,"dewp":18,"wdir":170,"wspd":2,"visib":3.73,"altim":1016,"clouds":[],"obsTime":1777114800},"SBTE":{"icaoId":"SBTE","flightCategory":"MVFR","rawOb":"METAR SBTE 251100Z 15002KT 9999 SCT006 BKN010 BKN090 24/23 Q1012","temp":24,"dewp":23,"wdir":150,"wspd":2,"visib":"6+","altim":1012,"clouds":[{"cover":"SCT","base":600},{"cover":"BKN","base":1000},{"cover":"BKN","base":9000}],"obsTime":1777114800},"SBMA":{"icaoId":"SBMA","flightCategory":"VFR","rawOb":"METAR SBMA 251100Z 16002KT 9999 SCT012 BKN100 25/24 Q1012","temp":25,"dewp":24,"wdir":160,"wspd":2,"visib":"6+","altim":1012,"clouds":[{"cover":"SCT","base":1200},{"cover":"BKN","base":10000}],"obsTime":1777114800},"SBFI":{"icaoId":"SBFI","flightCategory":"VFR","rawOb":"METAR SBFI 251100Z 10002KT CAVOK 20/20 Q1013","temp":20,"dewp":20,"wdir":100,"wspd":2,"visib":"6+","altim":1013,"clouds":[],"obsTime":1777114800},"SBUL":{"icaoId":"SBUL","flightCategory":"VFR","rawOb":"METAR SBUL 251100Z 12004KT CAVOK 21/15 Q1020","temp":21,"dewp":15,"wdir":120,"wspd":4,"visib":"6+","altim":1020,"clouds":[],"obsTime":1777114800},"SBUR":{"icaoId":"SBUR","flightCategory":"VFR","rawOb":"METAR SBUR 251100Z 02006KT CAVOK 22/15 Q1019","temp":22,"dewp":15,"wdir":20,"wspd":6,"visib":"6+","altim":1019,"clouds":[],"obsTime":1777114800},"SBMQ":{"icaoId":"SBMQ","flightCategory":"VFR","rawOb":"METAR SBMQ 251100Z 01005KT 9999 SCT004 SCT020 26/25 Q1012","temp":26,"dewp":25,"wdir":10,"wspd":5,"visib":"6+","altim":1012,"clouds":[{"cover":"SCT","base":400},{"cover":"SCT","base":2000}],"obsTime":1777114800},"SBCZ":{"icaoId":"SBCZ","flightCategory":"IFR","rawOb":"METAR SBCZ 251100Z 00000KT 9999 OVC005 23/23 Q1012","temp":23,"dewp":23,"wdir":0,"wspd":0,"visib":"6+","altim":1012,"clouds":[{"cover":"OVC","base":500}],"obsTime":1777114800},"SBHT":{"icaoId":"SBHT","flightCategory":"VFR","rawOb":"METAR SBHT 251100Z 25002KT 9999 SCT010 BKN080 25/24 Q1012","temp":25,"dewp":24,"wdir":250,"wspd":2,"visib":"6+","altim":1012,"clouds":[{"cover":"SCT","base":1000},{"cover":"BKN","base":8000}],"obsTime":1777114800},"SBIL":{"icaoId":"SBIL","flightCategory":"VFR","rawOb":"METAR SBIL 251100Z 28004KT 9999 FEW043 BKN070 25/24 Q1016","temp":25,"dewp":24,"wdir":280,"wspd":4,"visib":"6+","altim":1016,"clouds":[{"cover":"FEW","base":4300},{"cover":"BKN","base":7000}],"obsTime":1777114800},"SBJU":{"icaoId":"SBJU","flightCategory":"VFR","rawOb":"METAR SBJU 251100Z 18005KT 9999 FEW020 25/21 Q1014","temp":25,"dewp":21,"wdir":180,"wspd":5,"visib":"6+","altim":1014,"clouds":[{"cover":"FEW","base":2000}],"obsTime":1777114800},"SBME":{"icaoId":"SBME","flightCategory":"VFR","rawOb":"METAR SBME 251100Z 03008KT CAVOK 26/19 Q1014","temp":26,"dewp":19,"wdir":30,"wspd":8,"visib":"6+","altim":1014,"clouds":[],"obsTime":1777114800},"SBMG":{"icaoId":"SBMG","flightCategory":"VFR","rawOb":"METAR SBMG 251100Z 01003KT CAVOK 23/18 Q1015","temp":23,"dewp":18,"wdir":10,"wspd":3,"visib":"6+","altim":1015,"clouds":[],"obsTime":1777114800},"SBMK":{"icaoId":"SBMK","flightCategory":"VFR","rawOb":"METAR SBMK 251100Z 24002KT CAVOK 22/17 Q1019","temp":22,"dewp":17,"wdir":240,"wspd":2,"visib":"6+","altim":1019,"clouds":[],"obsTime":1777114800},"SBAT":{"icaoId":"SBAT","flightCategory":"VFR","rawOb":"METAR SBAT 251100Z 00000KT CAVOK 25/24 Q1014","temp":25,"dewp":24,"wdir":0,"wspd":0,"visib":"6+","altim":1014,"clouds":[],"obsTime":1777114800},"SBNT":{"icaoId":"SBNT","flightCategory":"VFR","rawOb":"METAR SBNT 251100Z 16007KT 9999 SCT021 FEW027TCU BKN100 26/24 Q1011","temp":26,"dewp":24,"wdir":160,"wspd":7,"visib":"6+","altim":1011,"clouds":[{"cover":"SCT","base":2100},{"cover":"FEW","base":2700},{"cover":"BKN","base":10000}],"obsTime":1777114800},"SBUY":{"icaoId":"SBUY","flightCategory":"MVFR","rawOb":"METAR SBUY 251100Z 00000KT 5000 BR FEW003 SCT090 22/21 Q1012","temp":22,"dewp":21,"wdir":0,"wspd":0,"visib":3.11,"altim":1012,"clouds":[{"cover":"FEW","base":300},{"cover":"SCT","base":9000}],"obsTime":1777114800},"SBCJ":{"icaoId":"SBCJ","flightCategory":"VFR","rawOb":"SPECI SBCJ 251015Z 00000KT CAVOK 22/21 Q1016","temp":22,"dewp":21,"wdir":0,"wspd":0,"visib":"6+","altim":1016,"clouds":[],"obsTime":1777112100},"SBPL":{"icaoId":"SBPL","flightCategory":"VFR","rawOb":"METAR SBPL 251100Z 13008KT 9999 SCT022 26/22 Q1015","temp":26,"dewp":22,"wdir":130,"wspd":8,"visib":"6+","altim":1015,"clouds":[{"cover":"SCT","base":2200}],"obsTime":1777114800},"SBAR":{"icaoId":"SBAR","flightCategory":"VFR","rawOb":"METAR SBAR 251100Z 12009KT 9999 FEW024 FEW026TCU 29/24 Q1013","temp":29,"dewp":24,"wdir":120,"wspd":9,"visib":"6+","altim":1013,"clouds":[{"cover":"FEW","base":2400},{"cover":"FEW","base":2600}],"obsTime":1777114800},"SBTF":{"icaoId":"SBTF","flightCategory":"VFR","rawOb":"SPECI SBTF 251115Z 20003KT 9999 -RA SCT006 OVC100 23/23 Q1012","temp":23,"dewp":23,"wdir":200,"wspd":3,"visib":"6+","altim":1012,"clouds":[{"cover":"SCT","base":600},{"cover":"OVC","base":10000}],"obsTime":1777115700},"SBPP":{"icaoId":"SBPP","flightCategory":"VFR","rawOb":"SPECI SBPP 251115Z 01003KT CAVOK 23/17 Q1016","temp":23,"dewp":17,"wdir":10,"wspd":3,"visib":"6+","altim":1016,"clouds":[],"obsTime":1777115700},"SBOI":{"icaoId":"SBOI","flightCategory":"LIFR","rawOb":"SPECI SBOI 251006Z AUTO VRB01KT 9999 // BKN002/// BKN016/// BKN027/// 23/23 Q1012","temp":23,"dewp":23,"wdir":"VRB","wspd":1,"visib":"6+","altim":1012,"clouds":[{"cover":"BKN","base":200},{"cover":"BKN","base":1600},{"cover":"BKN","base":2700}],"obsTime":1777111560},"SBPS":{"icaoId":"SBPS","flightCategory":"VFR","rawOb":"METAR SBPS 251100Z 23003KT 180V260 9999 VCSH SCT020 SCT070 25/22 Q1016","temp":25,"dewp":22,"wdir":230,"wspd":3,"visib":"6+","altim":1016,"clouds":[{"cover":"SCT","base":2000},{"cover":"SCT","base":7000}],"obsTime":1777114800},"SBTT":{"icaoId":"SBTT","flightCategory":"MVFR","rawOb":"METAR SBTT 251100Z 14003KT 9999 BKN010 BKN090 23/21 Q1012","temp":23,"dewp":21,"wdir":140,"wspd":3,"visib":"6+","altim":1012,"clouds":[{"cover":"BKN","base":1000},{"cover":"BKN","base":9000}],"obsTime":1777114800},"SBSJ":{"icaoId":"SBSJ","flightCategory":"MVFR","rawOb":"METAR SBSJ 251100Z 05003KT 350V090 6000 NSC 19/17 Q1018","temp":19,"dewp":17,"wdir":50,"wspd":3,"visib":3.73,"altim":1018,"clouds":[],"obsTime":1777114800},"SBPB":{"icaoId":"SBPB","flightCategory":"MVFR","rawOb":"SPECI SBPB 251015Z 24004KT 9999 BKN010 25/24 Q1012","temp":25,"dewp":24,"wdir":240,"wspd":4,"visib":"6+","altim":1012,"clouds":[{"cover":"BKN","base":1000}],"obsTime":1777112100},"SBSC":{"icaoId":"SBSC","flightCategory":"VFR","rawOb":"METAR SBSC 251100Z 35007KT CAVOK 25/19 Q1014","temp":25,"dewp":19,"wdir":350,"wspd":7,"visib":"6+","altim":1014,"clouds":[],"obsTime":1777114800},"SBSM":{"icaoId":"SBSM","flightCategory":"LIFR","rawOb":"METAR SBSM 251100Z 08001KT 1600 R29///// R11/P2000 BR OVC004 19/19 Q1014","temp":19,"dewp":19,"wdir":80,"wspd":1,"visib":0.99,"altim":1014,"clouds":[{"cover":"OVC","base":400}],"obsTime":1777114800},"SBSR":{"icaoId":"SBSR","flightCategory":"VFR","rawOb":"METAR SBSR 251100Z 04005KT 9000 FEW030 23/17 Q1016","temp":23,"dewp":17,"wdir":40,"wspd":5,"visib":5.59,"altim":1016,"clouds":[{"cover":"FEW","base":3000}],"obsTime":1777114800},"SBAX":{"icaoId":"SBAX","flightCategory":"VFR","rawOb":"METAR SBAX 251100Z AUTO VRB01KT CAVOK 20/15 Q1020","temp":20,"dewp":15,"wdir":"VRB","wspd":1,"visib":"6+","altim":1020,"clouds":[],"obsTime":1777114800},"SBBH":{"icaoId":"SBBH","flightCategory":"VFR","rawOb":"METAR SBBH 251100Z 10006KT CAVOK 20/16 Q1020","temp":20,"dewp":16,"wdir":100,"wspd":6,"visib":"6+","altim":1020,"clouds":[],"obsTime":1777114800},"SBBU":{"icaoId":"SBBU","flightCategory":"VFR","rawOb":"METAR SBBU 251100Z 05004KT CAVOK 23/18 Q1017","temp":23,"dewp":18,"wdir":50,"wspd":4,"visib":"6+","altim":1017,"clouds":[],"obsTime":1777114800},"SBCA":{"icaoId":"SBCA","flightCategory":"VFR","rawOb":"METAR SBCA 251100Z 01004KT CAVOK 21/16 Q1017","temp":21,"dewp":16,"wdir":10,"wspd":4,"visib":"6+","altim":1017,"clouds":[],"obsTime":1777114800},"SBCC":{"icaoId":"SBCC","flightCategory":"VFR","rawOb":"METAR SBCC 251100Z 03005KT CAVOK 23/20 Q1015","temp":23,"dewp":20,"wdir":30,"wspd":5,"visib":"6+","altim":1015,"clouds":[],"obsTime":1777114800},"SBCO":{"icaoId":"SBCO","flightCategory":"IFR","rawOb":"METAR SBCO 251100Z 27004KT 4500 BR BKN007 OVC020 20/20 Q1013","temp":20,"dewp":20,"wdir":270,"wspd":4,"visib":2.8,"altim":1013,"clouds":[{"cover":"BKN","base":700},{"cover":"OVC","base":2000}],"obsTime":1777114800},"SBDN":{"icaoId":"SBDN","flightCategory":"VFR","rawOb":"METAR SBDN 251100Z 05003KT CAVOK 25/18 Q1015","temp":25,"dewp":18,"wdir":50,"wspd":3,"visib":"6+","altim":1015,"clouds":[],"obsTime":1777114800},"SBES":{"icaoId":"SBES","flightCategory":"VFR","rawOb":"METAR SBES 251100Z VRB07KT CAVOK 24/// Q1014","temp":null,"dewp":null,"wdir":"VRB","wspd":7,"visib":"6+","altim":1014,"clouds":[],"obsTime":1777114800},"SBIP":{"icaoId":"SBIP","flightCategory":"VFR","rawOb":"METAR SBIP 251100Z AUTO VRB02KT 9999 OVC036 22/20 Q1018","temp":22,"dewp":20,"wdir":"VRB","wspd":2,"visib":"6+","altim":1018,"clouds":[{"cover":"OVC","base":3600}],"obsTime":1777114800},"SBKG":{"icaoId":"SBKG","flightCategory":"MVFR","rawOb":"METAR SBKG 251100Z 17006KT 9999 BKN010 BKN070 23/22 Q1015","temp":23,"dewp":22,"wdir":170,"wspd":6,"visib":"6+","altim":1015,"clouds":[{"cover":"BKN","base":1000},{"cover":"BKN","base":7000}],"obsTime":1777114800},"SBVH":{"icaoId":"SBVH","flightCategory":"VFR","rawOb":"METAR SBVH 251100Z 32002KT 9999 FEW035 23/22 Q1016","temp":23,"dewp":22,"wdir":320,"wspd":2,"visib":"6+","altim":1016,"clouds":[{"cover":"FEW","base":3500}],"obsTime":1777114800},"SBJP":{"icaoId":"SBJP","flightCategory":"MVFR","rawOb":"METAR SBJP 251100Z 15008KT 120V200 9999 BKN030 28/25 Q1012","temp":28,"dewp":25,"wdir":150,"wspd":8,"visib":"6+","altim":1012,"clouds":[{"cover":"BKN","base":3000}],"obsTime":1777114800},"SBAN":{"icaoId":"SBAN","flightCategory":"VFR","rawOb":"METAR SBAN 251100Z 11008KT CAVOK 21/17 Q1021","temp":21,"dewp":17,"wdir":110,"wspd":8,"visib":"6+","altim":1021,"clouds":[],"obsTime":1777114800},"SBLE":{"icaoId":"SBLE","flightCategory":"MVFR","rawOb":"METAR SBLE 251100Z AUTO 16003KT 110V210 9999 FEW006 BKN024 ///// Q////","temp":null,"dewp":null,"wdir":160,"wspd":3,"visib":"6+","altim":null,"clouds":[{"cover":"FEW","base":600},{"cover":"BKN","base":2400}],"obsTime":1777114800},"SBJV":{"icaoId":"SBJV","flightCategory":"VFR","rawOb":"METAR SBJV 251100Z 01001KT CAVOK 21/21 Q1013","temp":21,"dewp":21,"wdir":10,"wspd":1,"visib":"6+","altim":1013,"clouds":[],"obsTime":1777114800},"SBPF":{"icaoId":"SBPF","flightCategory":"VFR","rawOb":"METAR SBPF 251100Z 32002KT CAVOK 17/15 Q1016","temp":17,"dewp":15,"wdir":320,"wspd":2,"visib":"6+","altim":1016,"clouds":[],"obsTime":1777114800},"SBAF":{"icaoId":"SBAF","flightCategory":"VFR","rawOb":"METAR SBAF 251100Z 34002KT CAVOK 24/24 Q1014","temp":24,"dewp":24,"wdir":340,"wspd":2,"visib":"6+","altim":1014,"clouds":[],"obsTime":1777114800},"SBGW":{"icaoId":"SBGW","flightCategory":"VFR","rawOb":"METAR SBGW 251100Z VRB01KT CAVOK 19/15 Q1017","temp":19,"dewp":15,"wdir":"VRB","wspd":1,"visib":"6+","altim":1017,"clouds":[],"obsTime":1777114800},"SBJR":{"icaoId":"SBJR","flightCategory":"VFR","rawOb":"METAR SBJR 251100Z 36004KT CAVOK 26/22 Q1013","temp":26,"dewp":22,"wdir":360,"wspd":4,"visib":"6+","altim":1013,"clouds":[],"obsTime":1777114800},"SBLS":{"icaoId":"SBLS","flightCategory":"VFR","rawOb":"METAR SBLS 251100Z 15006KT CAVOK 19/16 Q1020","temp":19,"dewp":16,"wdir":150,"wspd":6,"visib":"6+","altim":1020,"clouds":[],"obsTime":1777114800},"SBMT":{"icaoId":"SBMT","flightCategory":"VFR","rawOb":"METAR SBMT 251100Z 09004KT CAVOK 20/17 Q1018","temp":20,"dewp":17,"wdir":90,"wspd":4,"visib":"6+","altim":1018,"clouds":[],"obsTime":1777114800},"SBST":{"icaoId":"SBST","flightCategory":"VFR","rawOb":"METAR SBST 251100Z 00000KT CAVOK 21/21 Q1013","temp":21,"dewp":21,"wdir":0,"wspd":0,"visib":"6+","altim":1013,"clouds":[],"obsTime":1777114800},"SBTA":{"icaoId":"SBTA","flightCategory":"VFR","rawOb":"METAR SBTA 251100Z VRB02KT CAVOK 18/17 Q1017","temp":18,"dewp":17,"wdir":"VRB","wspd":2,"visib":"6+","altim":1017,"clouds":[],"obsTime":1777114800},"SBIH":{"icaoId":"SBIH","flightCategory":"VFR","rawOb":"METAR SBIH 251100Z 00000KT 9999 FEW010 25/24 Q1012","temp":25,"dewp":24,"wdir":0,"wspd":0,"visib":"6+","altim":1012,"clouds":[{"cover":"FEW","base":1000}],"obsTime":1777114800}}}