{"updated":1782673287,"count":88,"data":{"SBGO":{"icaoId":"SBGO","flightCategory":"VFR","rawOb":"METAR SBGO 281800Z VRB04KT CAVOK 30/13 Q1019","temp":30,"dewp":13,"wdir":"VRB","wspd":4,"visib":"6+","altim":1019,"clouds":[],"obsTime":1782669600},"SBPV":{"icaoId":"SBPV","flightCategory":"VFR","rawOb":"METAR SBPV 281800Z 33003KT 9999 SCT030 32/22 Q1012","temp":32,"dewp":22,"wdir":330,"wspd":3,"visib":"6+","altim":1012,"clouds":[{"cover":"SCT","base":3000}],"obsTime":1782669600},"SBTE":{"icaoId":"SBTE","flightCategory":"VFR","rawOb":"METAR SBTE 281800Z 14008KT 9999 SCT030 BKN080 30/22 Q1011","temp":30,"dewp":22,"wdir":140,"wspd":8,"visib":"6+","altim":1011,"clouds":[{"cover":"SCT","base":3000},{"cover":"BKN","base":8000}],"obsTime":1782669600},"SBKP":{"icaoId":"SBKP","flightCategory":"VFR","rawOb":"METAR SBKP 281800Z 34008KT 320V020 9999 FEW045 27/16 Q1019","temp":27,"dewp":16,"wdir":340,"wspd":8,"visib":"6+","altim":1019,"clouds":[{"cover":"FEW","base":4500}],"obsTime":1782669600},"SBCR":{"icaoId":"SBCR","flightCategory":"VFR","rawOb":"METAR SBCR 281800Z 35007KT 300V030 9999 SCT040 33/19 Q1013","temp":33,"dewp":19,"wdir":350,"wspd":7,"visib":"6+","altim":1013,"clouds":[{"cover":"SCT","base":4000}],"obsTime":1782669600},"SBCG":{"icaoId":"SBCG","flightCategory":"VFR","rawOb":"METAR SBCG 281800Z 32016KT CAVOK 29/17 Q1017","temp":29,"dewp":17,"wdir":320,"wspd":16,"visib":"6+","altim":1017,"clouds":[],"obsTime":1782669600},"SBPJ":{"icaoId":"SBPJ","flightCategory":"VFR","rawOb":"METAR SBPJ 281800Z 13010KT 9999 FEW035 34/17 Q1014","temp":34,"dewp":17,"wdir":130,"wspd":10,"visib":"6+","altim":1014,"clouds":[{"cover":"FEW","base":3500}],"obsTime":1782669600},"SBSG":{"icaoId":"SBSG","flightCategory":"VFR","rawOb":"METAR SBSG 281800Z 13010KT 090V180 9999 FEW033 28/21 Q1013","temp":28,"dewp":21,"wdir":130,"wspd":10,"visib":"6+","altim":1013,"clouds":[{"cover":"FEW","base":3300}],"obsTime":1782669600},"SBFL":{"icaoId":"SBFL","flightCategory":"VFR","rawOb":"METAR SBFL 281800Z 01011KT 9999 FEW016 BKN100 21/18 Q1014","temp":21,"dewp":18,"wdir":10,"wspd":11,"visib":"6+","altim":1014,"clouds":[{"cover":"FEW","base":1600},{"cover":"BKN","base":10000}],"obsTime":1782669600},"SBRB":{"icaoId":"SBRB","flightCategory":"VFR","rawOb":"METAR SBRB 281800Z 25003KT 9999 SCT030 29/22 Q1015","temp":29,"dewp":22,"wdir":250,"wspd":3,"visib":"6+","altim":1015,"clouds":[{"cover":"SCT","base":3000}],"obsTime":1782669600},"SBCF":{"icaoId":"SBCF","flightCategory":"VFR","rawOb":"METAR SBCF 281800Z 06009KT CAVOK 25/12 Q1022","temp":25,"dewp":12,"wdir":60,"wspd":9,"visib":"6+","altim":1022,"clouds":[],"obsTime":1782669600},"SBVT":{"icaoId":"SBVT","flightCategory":"VFR","rawOb":"METAR SBVT 281800Z 06008KT 9999 BKN045 26/19 Q1020","temp":26,"dewp":19,"wdir":60,"wspd":8,"visib":"6+","altim":1020,"clouds":[{"cover":"BKN","base":4500}],"obsTime":1782669600},"SBCB":{"icaoId":"SBCB","flightCategory":"VFR","rawOb":"METAR SBCB 281800Z 10019KT CAVOK 25/21 Q1019","temp":25,"dewp":21,"wdir":100,"wspd":19,"visib":"6+","altim":1019,"clouds":[],"obsTime":1782669600},"SBBR":{"icaoId":"SBBR","flightCategory":"VFR","rawOb":"METAR SBBR 281800Z 10006KT 060V140 CAVOK 24/14 Q1022","temp":24,"dewp":14,"wdir":100,"wspd":6,"visib":"6+","altim":1022,"clouds":[],"obsTime":1782669600},"SBBV":{"icaoId":"SBBV","flightCategory":"MVFR","rawOb":"METAR SBBV 281800Z 11008KT 9999 VCSH BKN030 FEW040TCU SCT070 31/23 Q1012","temp":31,"dewp":23,"wdir":110,"wspd":8,"visib":"6+","altim":1012,"clouds":[{"cover":"BKN","base":3000},{"cover":"FEW","base":4000},{"cover":"SCT","base":7000}],"obsTime":1782669600},"SBFZ":{"icaoId":"SBFZ","flightCategory":"VFR","rawOb":"METAR SBFZ 281800Z 10011KT 9999 FEW025 BKN070 27/23 Q1013","temp":27,"dewp":23,"wdir":100,"wspd":11,"visib":"6+","altim":1013,"clouds":[{"cover":"FEW","base":2500},{"cover":"BKN","base":7000}],"obsTime":1782669600},"SBSP":{"icaoId":"SBSP","flightCategory":"VFR","rawOb":"METAR SBSP 281800Z 32012KT 9999 FEW035 26/13 Q1020","temp":26,"dewp":13,"wdir":320,"wspd":12,"visib":"6+","altim":1020,"clouds":[{"cover":"FEW","base":3500}],"obsTime":1782669600},"SBGL":{"icaoId":"SBGL","flightCategory":"VFR","rawOb":"METAR SBGL 281800Z 11007KT 9999 FEW020 28/18 Q1017","temp":28,"dewp":18,"wdir":110,"wspd":7,"visib":"6+","altim":1017,"clouds":[{"cover":"FEW","base":2000}],"obsTime":1782669600},"SBSV":{"icaoId":"SBSV","flightCategory":"VFR","rawOb":"METAR SBSV 281800Z 14010KT 100V170 9999 SCT023 SCT060 29/22 Q1017","temp":29,"dewp":22,"wdir":140,"wspd":10,"visib":"6+","altim":1017,"clouds":[{"cover":"SCT","base":2300},{"cover":"SCT","base":6000}],"obsTime":1782669600},"SBCP":{"icaoId":"SBCP","flightCategory":"VFR","rawOb":"METAR SBCP 281800Z 08013KT 9999 FEW020 27/18 Q1019","temp":27,"dewp":18,"wdir":80,"wspd":13,"visib":"6+","altim":1019,"clouds":[{"cover":"FEW","base":2000}],"obsTime":1782669600},"SBRF":{"icaoId":"SBRF","flightCategory":"VFR","rawOb":"METAR SBRF 281800Z 15011KT 9999 SCT025 28/21 Q1014","temp":28,"dewp":21,"wdir":150,"wspd":11,"visib":"6+","altim":1014,"clouds":[{"cover":"SCT","base":2500}],"obsTime":1782669600},"SBSN":{"icaoId":"SBSN","flightCategory":"VFR","rawOb":"METAR SBSN 281800Z 10006KT 9999 VCSH SCT021 FEW025TCU SCT073 BKN090 26/24 Q1011 RETS","temp":26,"dewp":24,"wdir":100,"wspd":6,"visib":"6+","altim":1011,"clouds":[{"cover":"SCT","base":2100},{"cover":"FEW","base":2500},{"cover":"SCT","base":7300},{"cover":"BKN","base":9000}],"obsTime":1782669600},"SBMA":{"icaoId":"SBMA","flightCategory":"VFR","rawOb":"METAR SBMA 281800Z 08006KT 9999 SCT020 33/19 Q1011","temp":33,"dewp":19,"wdir":80,"wspd":6,"visib":"6+","altim":1011,"clouds":[{"cover":"SCT","base":2000}],"obsTime":1782669600},"SBLO":{"icaoId":"SBLO","flightCategory":"VFR","rawOb":"METAR SBLO 281800Z 03006KT 010V070 9999 FEW029 25/18 Q1018","temp":25,"dewp":18,"wdir":30,"wspd":6,"visib":"6+","altim":1018,"clouds":[{"cover":"FEW","base":2900}],"obsTime":1782669600},"SBPA":{"icaoId":"SBPA","flightCategory":"IFR","rawOb":"METAR SBPA 281800Z 34005KT 4000 -RA BR FEW004 BKN035 FEW045TCU BKN100 17/17 Q1013","temp":17,"dewp":17,"wdir":340,"wspd":5,"visib":2.49,"altim":1013,"clouds":[{"cover":"FEW","base":400},{"cover":"BKN","base":3500},{"cover":"FEW","base":4500},{"cover":"BKN","base":10000}],"obsTime":1782669600},"SBGR":{"icaoId":"SBGR","flightCategory":"VFR","rawOb":"METAR SBGR 281800Z 35006KT CAVOK 27/15 Q1020","temp":27,"dewp":15,"wdir":350,"wspd":6,"visib":"6+","altim":1020,"clouds":[],"obsTime":1782669600},"SBMQ":{"icaoId":"SBMQ","flightCategory":"VFR","rawOb":"METAR SBMQ 281800Z 06010KT 020V100 9999 SCT020 FEW023TCU SCT100 31/25 Q1011","temp":31,"dewp":25,"wdir":60,"wspd":10,"visib":"6+","altim":1011,"clouds":[{"cover":"SCT","base":2000},{"cover":"FEW","base":2300},{"cover":"SCT","base":10000}],"obsTime":1782669600},"SBBE":{"icaoId":"SBBE","flightCategory":"VFR","rawOb":"METAR SBBE 281800Z 13008KT 9999 SCT037 FEW040TCU 32/23 Q1010","temp":32,"dewp":23,"wdir":130,"wspd":8,"visib":"6+","altim":1010,"clouds":[{"cover":"SCT","base":3700},{"cover":"FEW","base":4000}],"obsTime":1782669600},"SBEG":{"icaoId":"SBEG","flightCategory":"MVFR","rawOb":"SPECI SBEG 281730Z 13009KT 8000 3000SW SHRA SCT020 FEW025TCU SCT100 29/25 Q1012","temp":29,"dewp":25,"wdir":130,"wspd":9,"visib":4.97,"altim":1012,"clouds":[{"cover":"SCT","base":2000},{"cover":"FEW","base":2500},{"cover":"SCT","base":10000}],"obsTime":1782667800},"SBCT":{"icaoId":"SBCT","flightCategory":"VFR","rawOb":"METAR SBCT 281800Z 33012KT 9999 FEW020 SCT030 23/16 Q1019","temp":23,"dewp":16,"wdir":330,"wspd":12,"visib":"6+","altim":1019,"clouds":[{"cover":"FEW","base":2000},{"cover":"SCT","base":3000}],"obsTime":1782669600},"SBFI":{"icaoId":"SBFI","flightCategory":"VFR","rawOb":"METAR SBFI 281800Z 01008KT 9999 VCSH SCT030 FEW035TCU BKN100 23/19 Q1013","temp":23,"dewp":19,"wdir":10,"wspd":8,"visib":"6+","altim":1013,"clouds":[{"cover":"SCT","base":3000},{"cover":"FEW","base":3500},{"cover":"BKN","base":10000}],"obsTime":1782669600},"SBHT":{"icaoId":"SBHT","flightCategory":"MVFR","rawOb":"METAR SBHT 281800Z 13003KT 9999 BKN020 BKN100 28/25 Q1012","temp":28,"dewp":25,"wdir":130,"wspd":3,"visib":"6+","altim":1012,"clouds":[{"cover":"BKN","base":2000},{"cover":"BKN","base":10000}],"obsTime":1782669600},"SBME":{"icaoId":"SBME","flightCategory":"VFR","rawOb":"METAR SBME 281800Z 05014KT 9999 FEW040 28/19 Q1018","temp":28,"dewp":19,"wdir":50,"wspd":14,"visib":"6+","altim":1018,"clouds":[{"cover":"FEW","base":4000}],"obsTime":1782669600},"SBMK":{"icaoId":"SBMK","flightCategory":"VFR","rawOb":"METAR SBMK 281800Z 09006KT CAVOK 27/13 Q1020","temp":27,"dewp":13,"wdir":90,"wspd":6,"visib":"6+","altim":1020,"clouds":[],"obsTime":1782669600},"SBUL":{"icaoId":"SBUL","flightCategory":"VFR","rawOb":"METAR SBUL 281800Z 08008KT CAVOK 25/15 Q1021","temp":25,"dewp":15,"wdir":80,"wspd":8,"visib":"6+","altim":1021,"clouds":[],"obsTime":1782669600},"SBUR":{"icaoId":"SBUR","flightCategory":"VFR","rawOb":"METAR SBUR 281800Z 01007KT 9999 FEW045 27/14 Q1020","temp":27,"dewp":14,"wdir":10,"wspd":7,"visib":"6+","altim":1020,"clouds":[{"cover":"FEW","base":4500}],"obsTime":1782669600},"SBMO":{"icaoId":"SBMO","flightCategory":"VFR","rawOb":"METAR SBMO 281800Z 06008KT 9999 FEW030 28/20 Q1015","temp":28,"dewp":20,"wdir":60,"wspd":8,"visib":"6+","altim":1015,"clouds":[{"cover":"FEW","base":3000}],"obsTime":1782669600},"SBSL":{"icaoId":"SBSL","flightCategory":"MVFR","rawOb":"METAR SBSL 281800Z 35007KT 9999 SCT016 BKN025 FEW030TCU 27/26 Q1011","temp":27,"dewp":26,"wdir":350,"wspd":7,"visib":"6+","altim":1011,"clouds":[{"cover":"SCT","base":1600},{"cover":"BKN","base":2500},{"cover":"FEW","base":3000}],"obsTime":1782669600},"SBCZ":{"icaoId":"SBCZ","flightCategory":"VFR","rawOb":"METAR SBCZ 281800Z 15003KT 9999 FEW025 30/21 Q1015","temp":30,"dewp":21,"wdir":150,"wspd":3,"visib":"6+","altim":1015,"clouds":[{"cover":"FEW","base":2500}],"obsTime":1782669600},"SBNT":{"icaoId":"SBNT","flightCategory":"VFR","rawOb":"METAR SBNT 281800Z 13015KT 9999 FEW033 29/21 Q1013","temp":29,"dewp":21,"wdir":130,"wspd":15,"visib":"6+","altim":1013,"clouds":[{"cover":"FEW","base":3300}],"obsTime":1782669600},"SBMG":{"icaoId":"SBMG","flightCategory":"VFR","rawOb":"METAR SBMG 281800Z 01013KT 9999 FEW035 27/18 Q1016","temp":27,"dewp":18,"wdir":10,"wspd":13,"visib":"6+","altim":1016,"clouds":[{"cover":"FEW","base":3500}],"obsTime":1782669600},"SBIL":{"icaoId":"SBIL","flightCategory":"VFR","rawOb":"METAR SBIL 281800Z 19008KT 9999 SCT025 28/21 Q1018","temp":28,"dewp":21,"wdir":190,"wspd":8,"visib":"6+","altim":1018,"clouds":[{"cover":"SCT","base":2500}],"obsTime":1782669600},"SBJU":{"icaoId":"SBJU","flightCategory":"VFR","rawOb":"METAR SBJU 281800Z 18004KT 9999 SCT022 31/16 Q1014","temp":31,"dewp":16,"wdir":180,"wspd":4,"visib":"6+","altim":1014,"clouds":[{"cover":"SCT","base":2200}],"obsTime":1782669600},"SBAT":{"icaoId":"SBAT","flightCategory":"VFR","rawOb":"METAR SBAT 281800Z 07005KT 9999 SCT035 34/21 Q1013","temp":34,"dewp":21,"wdir":70,"wspd":5,"visib":"6+","altim":1013,"clouds":[{"cover":"SCT","base":3500}],"obsTime":1782669600},"SBPB":{"icaoId":"SBPB","flightCategory":"MVFR","rawOb":"METAR SBPB 281800Z 06008KT 9999 BKN017 OVC100 27/24 Q1012 RERA","temp":27,"dewp":24,"wdir":60,"wspd":8,"visib":"6+","altim":1012,"clouds":[{"cover":"BKN","base":1700},{"cover":"OVC","base":10000}],"obsTime":1782669600},"SBOI":{"icaoId":"SBOI","flightCategory":"VFR","rawOb":"METAR SBOI 281800Z AUTO 21004KT 140V240 9999 FEW046 27/25 Q1012 RERA","temp":27,"dewp":25,"wdir":210,"wspd":4,"visib":"6+","altim":1012,"clouds":[{"cover":"FEW","base":4600}],"obsTime":1782669600},"SBTT":{"icaoId":"SBTT","flightCategory":"VFR","rawOb":"METAR SBTT 281800Z 23004KT 9999 FEW012 SCT020 27/22 Q1014","temp":27,"dewp":22,"wdir":230,"wspd":4,"visib":"6+","altim":1014,"clouds":[{"cover":"FEW","base":1200},{"cover":"SCT","base":2000}],"obsTime":1782669600},"SBAR":{"icaoId":"SBAR","flightCategory":"VFR","rawOb":"METAR SBAR 281800Z 14008KT 9999 VCSH SCT030 BKN060 BKN080 27/24 Q1016","temp":27,"dewp":24,"wdir":140,"wspd":8,"visib":"6+","altim":1016,"clouds":[{"cover":"SCT","base":3000},{"cover":"BKN","base":6000},{"cover":"BKN","base":8000}],"obsTime":1782669600},"SBTF":{"icaoId":"SBTF","flightCategory":"VFR","rawOb":"METAR SBTF 281800Z 36006KT 9999 SCT015 FEW025TCU BKN090 28/25 Q1012","temp":28,"dewp":25,"wdir":360,"wspd":6,"visib":"6+","altim":1012,"clouds":[{"cover":"SCT","base":1500},{"cover":"FEW","base":2500},{"cover":"BKN","base":9000}],"obsTime":1782669600},"SBCJ":{"icaoId":"SBCJ","flightCategory":"VFR","rawOb":"METAR SBCJ 281800Z 12006KT 9999 SCT030 29/18 Q1016","temp":29,"dewp":18,"wdir":120,"wspd":6,"visib":"6+","altim":1016,"clouds":[{"cover":"SCT","base":3000}],"obsTime":1782669600},"SBPS":{"icaoId":"SBPS","flightCategory":"MVFR","rawOb":"METAR SBPS 281800Z VRB04KT 8000 -RA SCT015 BKN025 FEW030TCU 26/21 Q1019","temp":26,"dewp":21,"wdir":"VRB","wspd":4,"visib":4.97,"altim":1019,"clouds":[{"cover":"SCT","base":1500},{"cover":"BKN","base":2500},{"cover":"FEW","base":3000}],"obsTime":1782669600},"SBSJ":{"icaoId":"SBSJ","flightCategory":"VFR","rawOb":"METAR SBSJ 281800Z 34006KT CAVOK 24/16 Q1020","temp":24,"dewp":16,"wdir":340,"wspd":6,"visib":"6+","altim":1020,"clouds":[],"obsTime":1782669600},"SBPL":{"icaoId":"SBPL","flightCategory":"MVFR","rawOb":"METAR SBPL 281800Z 11012KT 9999 BKN030 30/17 Q1015","temp":30,"dewp":17,"wdir":110,"wspd":12,"visib":"6+","altim":1015,"clouds":[{"cover":"BKN","base":3000}],"obsTime":1782669600},"SBUY":{"icaoId":"SBUY","flightCategory":"MVFR","rawOb":"METAR SBUY 281800Z 15004KT 9999 BKN025 BKN100 28/23 Q1012","temp":28,"dewp":23,"wdir":150,"wspd":4,"visib":"6+","altim":1012,"clouds":[{"cover":"BKN","base":2500},{"cover":"BKN","base":10000}],"obsTime":1782669600},"SBCC":{"icaoId":"SBCC","flightCategory":"VFR","rawOb":"METAR SBCC 281800Z 10009KT 9999 SCT025 32/19 Q1014","temp":32,"dewp":19,"wdir":100,"wspd":9,"visib":"6+","altim":1014,"clouds":[{"cover":"SCT","base":2500}],"obsTime":1782669600},"SBGM":{"icaoId":"SBGM","flightCategory":"VFR","rawOb":"METAR SBGM 281800Z 17004KT 9999 BKN036 30/22 Q1013","temp":30,"dewp":22,"wdir":170,"wspd":4,"visib":"6+","altim":1013,"clouds":[{"cover":"BKN","base":3600}],"obsTime":1782669600},"SBVH":{"icaoId":"SBVH","flightCategory":"VFR","rawOb":"METAR SBVH 281800Z 10006KT 030V140 9999 FEW030 30/18 Q1016","temp":30,"dewp":18,"wdir":100,"wspd":6,"visib":"6+","altim":1016,"clouds":[{"cover":"FEW","base":3000}],"obsTime":1782669600},"SBAU":{"icaoId":"SBAU","flightCategory":"VFR","rawOb":"METAR SBAU 281800Z 01008KT CAVOK 32/16 Q1017","temp":32,"dewp":16,"wdir":10,"wspd":8,"visib":"6+","altim":1017,"clouds":[],"obsTime":1782669600},"SBAX":{"icaoId":"SBAX","flightCategory":"VFR","rawOb":"METAR SBAX 281800Z AUTO 07004KT 340V120 9999 FEW045 24/14 Q1022","temp":24,"dewp":14,"wdir":70,"wspd":4,"visib":"6+","altim":1022,"clouds":[{"cover":"FEW","base":4500}],"obsTime":1782669600},"SBBH":{"icaoId":"SBBH","flightCategory":"VFR","rawOb":"METAR SBBH 281800Z 09008KT CAVOK 25/13 Q1022","temp":25,"dewp":13,"wdir":90,"wspd":8,"visib":"6+","altim":1022,"clouds":[],"obsTime":1782669600},"SBBQ":{"icaoId":"SBBQ","flightCategory":"VFR","rawOb":"METAR SBBQ 281800Z 03008KT 340V060 9999 FEW035 21/12 Q1025","temp":21,"dewp":12,"wdir":30,"wspd":8,"visib":"6+","altim":1025,"clouds":[{"cover":"FEW","base":3500}],"obsTime":1782669600},"SBBU":{"icaoId":"SBBU","flightCategory":"VFR","rawOb":"METAR SBBU 281800Z 02005KT CAVOK 28/17 Q1019","temp":28,"dewp":17,"wdir":20,"wspd":5,"visib":"6+","altim":1019,"clouds":[],"obsTime":1782669600},"SBDN":{"icaoId":"SBDN","flightCategory":"VFR","rawOb":"METAR SBDN 281800Z 35007KT CAVOK 29/17 Q1017","temp":29,"dewp":17,"wdir":350,"wspd":7,"visib":"6+","altim":1017,"clouds":[],"obsTime":1782669600},"SBIP":{"icaoId":"SBIP","flightCategory":"VFR","rawOb":"METAR SBIP 281800Z AUTO 34006KT 310V040 CAVOK 26/16 Q1021","temp":26,"dewp":16,"wdir":340,"wspd":6,"visib":"6+","altim":1021,"clouds":[],"obsTime":1782669600},"SBSC":{"icaoId":"SBSC","flightCategory":"VFR","rawOb":"METAR SBSC 281800Z 02011KT CAVOK 29/18 Q1017","temp":29,"dewp":18,"wdir":20,"wspd":11,"visib":"6+","altim":1017,"clouds":[],"obsTime":1782669600},"SBSR":{"icaoId":"SBSR","flightCategory":"VFR","rawOb":"METAR SBSR 281800Z 03005KT CAVOK 29/14 Q1018","temp":29,"dewp":14,"wdir":30,"wspd":5,"visib":"6+","altim":1018,"clouds":[],"obsTime":1782669600},"SBTU":{"icaoId":"SBTU","flightCategory":"VFR","rawOb":"METAR SBTU 281800Z AUTO 31008KT 9999 // SCT029/// BKN089/// ///// Q1013","temp":null,"dewp":null,"wdir":310,"wspd":8,"visib":"6+","altim":1013,"clouds":[{"cover":"SCT","base":2900},{"cover":"BKN","base":8900}],"obsTime":1782669600},"SBES":{"icaoId":"SBES","flightCategory":"VFR","rawOb":"METAR SBES 281800Z 07016KT CAVOK 26/// Q1019","temp":null,"dewp":null,"wdir":70,"wspd":16,"visib":"6+","altim":1019,"clouds":[],"obsTime":1782669600},"SBSM":{"icaoId":"SBSM","flightCategory":"VFR","rawOb":"METAR SBSM 281800Z VRB02KT 9999 3000W SCT001 SCT015 FEW040TCU OVC070 17/17 Q1014","temp":17,"dewp":17,"wdir":"VRB","wspd":2,"visib":"6+","altim":1014,"clouds":[{"cover":"SCT","base":100},{"cover":"SCT","base":1500},{"cover":"FEW","base":4000},{"cover":"OVC","base":7000}],"obsTime":1782669600},"SBPP":{"icaoId":"SBPP","flightCategory":"MVFR","rawOb":"METAR SBPP 281800Z 35015KT 9999 BKN025 28/17 Q1016","temp":28,"dewp":17,"wdir":350,"wspd":15,"visib":"6+","altim":1016,"clouds":[{"cover":"BKN","base":2500}],"obsTime":1782669600},"SBCA":{"icaoId":"SBCA","flightCategory":"MVFR","rawOb":"METAR SBCA 281800Z 03013KT 8000 -TSRA SCT030 FEW040CB BKN100 22/17 Q1018","temp":22,"dewp":17,"wdir":30,"wspd":13,"visib":4.97,"altim":1018,"clouds":[{"cover":"SCT","base":3000},{"cover":"FEW","base":4000},{"cover":"BKN","base":10000}],"obsTime":1782669600},"SBCO":{"icaoId":"SBCO","flightCategory":"IFR","rawOb":"METAR SBCO 281800Z 33006KT 4000 -RA BR BKN045 OVC100 17/16 Q1013","temp":17,"dewp":16,"wdir":330,"wspd":6,"visib":2.49,"altim":1013,"clouds":[{"cover":"BKN","base":4500},{"cover":"OVC","base":10000}],"obsTime":1782669600},"SBKG":{"icaoId":"SBKG","flightCategory":"VFR","rawOb":"METAR SBKG 281800Z 13011KT CAVOK 27/15 Q1016","temp":27,"dewp":15,"wdir":130,"wspd":11,"visib":"6+","altim":1016,"clouds":[],"obsTime":1782669600},"SBLE":{"icaoId":"SBLE","flightCategory":"IFR","rawOb":"SPECI SBLE 281709Z AUTO 14007KT 110V170 5000 -RA BKN005 OVC011 ///// Q////","temp":null,"dewp":null,"wdir":140,"wspd":7,"visib":3.11,"altim":null,"clouds":[{"cover":"BKN","base":500},{"cover":"OVC","base":1100}],"obsTime":1782666540},"SBPF":{"icaoId":"SBPF","flightCategory":"VFR","rawOb":"METAR SBPF 281800Z 25005KT 9999 -RA NSC 16/16 Q1019","temp":16,"dewp":16,"wdir":250,"wspd":5,"visib":"6+","altim":1019,"clouds":[],"obsTime":1782669600},"SBAN":{"icaoId":"SBAN","flightCategory":"VFR","rawOb":"METAR SBAN 281800Z 08005KT 9999 FEW030 26/12 Q1022","temp":26,"dewp":12,"wdir":80,"wspd":5,"visib":"6+","altim":1022,"clouds":[{"cover":"FEW","base":3000}],"obsTime":1782669600},"SBJP":{"icaoId":"SBJP","flightCategory":"VFR","rawOb":"METAR SBJP 281800Z 11011KT 9999 BKN033 28/21 Q1014","temp":28,"dewp":21,"wdir":110,"wspd":11,"visib":"6+","altim":1014,"clouds":[{"cover":"BKN","base":3300}],"obsTime":1782669600},"SBNM":{"icaoId":"SBNM","flightCategory":"VFR","rawOb":"METAR SBNM 281800Z AUTO 33003KT 260V040 9999 -RA NSC 16/15 Q1015","temp":16,"dewp":15,"wdir":330,"wspd":3,"visib":"6+","altim":1015,"clouds":[],"obsTime":1782669600},"SBJV":{"icaoId":"SBJV","flightCategory":"VFR","rawOb":"METAR SBJV 281800Z 36005KT 9999 FEW020 SCT100 25/19 Q1014","temp":25,"dewp":19,"wdir":360,"wspd":5,"visib":"6+","altim":1014,"clouds":[{"cover":"FEW","base":2000},{"cover":"SCT","base":10000}],"obsTime":1782669600},"SBTC":{"icaoId":"SBTC","flightCategory":"VFR","rawOb":"METAR SBTC 281800Z 16008KT 9999 SCT020 27/22 Q1019","temp":27,"dewp":22,"wdir":160,"wspd":8,"visib":"6+","altim":1019,"clouds":[{"cover":"SCT","base":2000}],"obsTime":1782669600},"SBIH":{"icaoId":"SBIH","flightCategory":"VFR","rawOb":"METAR SBIH 281800Z 02003KT 9999 FEW020 FEW025TCU 32/24 Q1011","temp":32,"dewp":24,"wdir":20,"wspd":3,"visib":"6+","altim":1011,"clouds":[{"cover":"FEW","base":2000},{"cover":"FEW","base":2500}],"obsTime":1782669600},"SBAF":{"icaoId":"SBAF","flightCategory":"VFR","rawOb":"METAR SBAF 281800Z 05006KT 9999 FEW030 29/18 Q1017","temp":29,"dewp":18,"wdir":50,"wspd":6,"visib":"6+","altim":1017,"clouds":[{"cover":"FEW","base":3000}],"obsTime":1782669600},"SBGW":{"icaoId":"SBGW","flightCategory":"VFR","rawOb":"METAR SBGW 281800Z 05006KT CAVOK 27/14 Q1019","temp":27,"dewp":14,"wdir":50,"wspd":6,"visib":"6+","altim":1019,"clouds":[],"obsTime":1782669600},"SBJR":{"icaoId":"SBJR","flightCategory":"VFR","rawOb":"METAR SBJR 281800Z 04006KT 9000 NSC 30/18 Q1017","temp":30,"dewp":18,"wdir":40,"wspd":6,"visib":5.59,"altim":1017,"clouds":[],"obsTime":1782669600},"SBLS":{"icaoId":"SBLS","flightCategory":"VFR","rawOb":"METAR SBLS 281800Z 12007KT 040V120 9999 FEW045 24/13 Q1022","temp":24,"dewp":13,"wdir":120,"wspd":7,"visib":"6+","altim":1022,"clouds":[{"cover":"FEW","base":4500}],"obsTime":1782669600},"SBMT":{"icaoId":"SBMT","flightCategory":"VFR","rawOb":"METAR SBMT 281800Z VRB05KT CAVOK 27/16 Q1020","temp":27,"dewp":16,"wdir":"VRB","wspd":5,"visib":"6+","altim":1020,"clouds":[],"obsTime":1782669600},"SBST":{"icaoId":"SBST","flightCategory":"IFR","rawOb":"METAR SBST 281800Z 20002KT 4000 HZ OVC015 23/19 Q1016","temp":23,"dewp":19,"wdir":200,"wspd":2,"visib":2.49,"altim":1016,"clouds":[{"cover":"OVC","base":1500}],"obsTime":1782669600},"SBTA":{"icaoId":"SBTA","flightCategory":"VFR","rawOb":"METAR SBTA 281800Z 03004KT 320V080 9999 FEW020 26/17 Q1019","temp":26,"dewp":17,"wdir":30,"wspd":4,"visib":"6+","altim":1019,"clouds":[{"cover":"FEW","base":2000}],"obsTime":1782669600}}}