{"updated":1777759394,"count":80,"data":{"SBCG":{"icaoId":"SBCG","flightCategory":"VFR","rawOb":"METAR SBCG 022100Z 24005KT 9999 FEW040 28/19 Q1017","temp":28,"dewp":19,"wdir":240,"wspd":5,"visib":"6+","altim":1017,"clouds":[{"cover":"FEW","base":4000}],"obsTime":1777755600},"SBLO":{"icaoId":"SBLO","flightCategory":"MVFR","rawOb":"METAR SBLO 022100Z 20010KT 150V220 6000 SCT020 BKN070 20/16 Q1021","temp":20,"dewp":16,"wdir":200,"wspd":10,"visib":3.73,"altim":1021,"clouds":[{"cover":"SCT","base":2000},{"cover":"BKN","base":7000}],"obsTime":1777755600},"SBFI":{"icaoId":"SBFI","flightCategory":"LIFR","rawOb":"METAR SBFI 022100Z 18002KT 7000 BKN004 BKN020 OVC070 21/21 Q1018","temp":21,"dewp":21,"wdir":180,"wspd":2,"visib":4.35,"altim":1018,"clouds":[{"cover":"BKN","base":400},{"cover":"BKN","base":2000},{"cover":"OVC","base":7000}],"obsTime":1777755600},"SBMA":{"icaoId":"SBMA","flightCategory":"VFR","rawOb":"METAR SBMA 022100Z 18003KT 9999 SCT020 FEW023TCU 25/24 Q1011 RETS","temp":25,"dewp":24,"wdir":180,"wspd":3,"visib":"6+","altim":1011,"clouds":[{"cover":"SCT","base":2000},{"cover":"FEW","base":2300}],"obsTime":1777755600},"SBFL":{"icaoId":"SBFL","flightCategory":"MVFR","rawOb":"METAR SBFL 022100Z 16008G19KT 9999 BKN019 BKN043 22/18 Q1016","temp":22,"dewp":18,"wdir":160,"wspd":8,"visib":"6+","altim":1016,"clouds":[{"cover":"BKN","base":1900},{"cover":"BKN","base":4300}],"obsTime":1777755600},"SBBV":{"icaoId":"SBBV","flightCategory":"VFR","rawOb":"METAR SBBV 022100Z 12010KT 9999 FEW040 FEW045TCU SCT100 33/23 Q1008","temp":33,"dewp":23,"wdir":120,"wspd":10,"visib":"6+","altim":1008,"clouds":[{"cover":"FEW","base":4000},{"cover":"FEW","base":4500},{"cover":"SCT","base":10000}],"obsTime":1777755600},"SBCP":{"icaoId":"SBCP","flightCategory":"VFR","rawOb":"METAR SBCP 022100Z 07006KT 9999 FEW030 26/22 Q1015","temp":26,"dewp":22,"wdir":70,"wspd":6,"visib":"6+","altim":1015,"clouds":[{"cover":"FEW","base":3000}],"obsTime":1777755600},"SBFZ":{"icaoId":"SBFZ","flightCategory":"MVFR","rawOb":"METAR SBFZ 022100Z 09010KT 9999 BKN016 BKN100 27/24 Q1011","temp":27,"dewp":24,"wdir":90,"wspd":10,"visib":"6+","altim":1011,"clouds":[{"cover":"BKN","base":1600},{"cover":"BKN","base":10000}],"obsTime":1777755600},"SBMO":{"icaoId":"SBMO","flightCategory":"VFR","rawOb":"METAR SBMO 022100Z 15004KT 9999 FEW019 BKN100 27/23 Q1013","temp":27,"dewp":23,"wdir":150,"wspd":4,"visib":"6+","altim":1013,"clouds":[{"cover":"FEW","base":1900},{"cover":"BKN","base":10000}],"obsTime":1777755600},"SBMQ":{"icaoId":"SBMQ","flightCategory":"VFR","rawOb":"METAR SBMQ 022100Z 05007KT 9999 SCT017 28/26 Q1010","temp":28,"dewp":26,"wdir":50,"wspd":7,"visib":"6+","altim":1010,"clouds":[{"cover":"SCT","base":1700}],"obsTime":1777755600},"SBVT":{"icaoId":"SBVT","flightCategory":"VFR","rawOb":"METAR SBVT 022100Z 03008KT 9999 SCT049 27/22 Q1015","temp":27,"dewp":22,"wdir":30,"wspd":8,"visib":"6+","altim":1015,"clouds":[{"cover":"SCT","base":4900}],"obsTime":1777755600},"SBGL":{"icaoId":"SBGL","flightCategory":"VFR","rawOb":"SPECI SBGL 022015Z 21018KT 9999 FEW025 SCT080 29/18 Q1015","temp":29,"dewp":18,"wdir":210,"wspd":18,"visib":"6+","altim":1015,"clouds":[{"cover":"FEW","base":2500},{"cover":"SCT","base":8000}],"obsTime":1777752900},"SBBR":{"icaoId":"SBBR","flightCategory":"VFR","rawOb":"METAR SBBR 022100Z 20006KT CAVOK 26/14 Q1020","temp":26,"dewp":14,"wdir":200,"wspd":6,"visib":"6+","altim":1020,"clouds":[],"obsTime":1777755600},"SBPA":{"icaoId":"SBPA","flightCategory":"VFR","rawOb":"METAR SBPA 022100Z 20007KT 160V240 9999 BKN045 18/14 Q1020","temp":18,"dewp":14,"wdir":200,"wspd":7,"visib":"6+","altim":1020,"clouds":[{"cover":"BKN","base":4500}],"obsTime":1777755600},"SBGO":{"icaoId":"SBGO","flightCategory":"VFR","rawOb":"METAR SBGO 022100Z 13006KT 100V170 CAVOK 29/16 Q1019","temp":29,"dewp":16,"wdir":130,"wspd":6,"visib":"6+","altim":1019,"clouds":[],"obsTime":1777755600},"SBPJ":{"icaoId":"SBPJ","flightCategory":"VFR","rawOb":"METAR SBPJ 022100Z 21005KT 9999 FEW040 32/25 Q1012","temp":32,"dewp":25,"wdir":210,"wspd":5,"visib":"6+","altim":1012,"clouds":[{"cover":"FEW","base":4000}],"obsTime":1777755600},"SBCT":{"icaoId":"SBCT","flightCategory":"VFR","rawOb":"METAR SBCT 022100Z 30007KT 9999 -RA BKN045 OVC100 17/15 Q1022","temp":17,"dewp":15,"wdir":300,"wspd":7,"visib":"6+","altim":1022,"clouds":[{"cover":"BKN","base":4500},{"cover":"OVC","base":10000}],"obsTime":1777755600},"SBPV":{"icaoId":"SBPV","flightCategory":"VFR","rawOb":"METAR SBPV 022100Z 11005KT 9999 FEW047 33/25 Q1009","temp":33,"dewp":25,"wdir":110,"wspd":5,"visib":"6+","altim":1009,"clouds":[{"cover":"FEW","base":4700}],"obsTime":1777755600},"SBCF":{"icaoId":"SBCF","flightCategory":"VFR","rawOb":"METAR SBCF 022100Z 27004KT 9999 SCT048 24/15 Q1020","temp":24,"dewp":15,"wdir":270,"wspd":4,"visib":"6+","altim":1020,"clouds":[{"cover":"SCT","base":4800}],"obsTime":1777755600},"SBRB":{"icaoId":"SBRB","flightCategory":"VFR","rawOb":"METAR SBRB 022100Z 09002KT 9999 FEW027 SCT100 31/25 Q1010","temp":31,"dewp":25,"wdir":90,"wspd":2,"visib":"6+","altim":1010,"clouds":[{"cover":"FEW","base":2700},{"cover":"SCT","base":10000}],"obsTime":1777755600},"SBRF":{"icaoId":"SBRF","flightCategory":"VFR","rawOb":"METAR SBRF 022100Z 15012KT 9999 SCT022 SCT070 28/24 Q1012","temp":28,"dewp":24,"wdir":150,"wspd":12,"visib":"6+","altim":1012,"clouds":[{"cover":"SCT","base":2200},{"cover":"SCT","base":7000}],"obsTime":1777755600},"SBGR":{"icaoId":"SBGR","flightCategory":"VFR","rawOb":"METAR SBGR 022100Z 24007KT 9999 BKN045 22/15 Q1021","temp":22,"dewp":15,"wdir":240,"wspd":7,"visib":"6+","altim":1021,"clouds":[{"cover":"BKN","base":4500}],"obsTime":1777755600},"SBSG":{"icaoId":"SBSG","flightCategory":"VFR","rawOb":"METAR SBSG 022100Z 19004KT 140V220 9999 FEW045 BKN100 25/23 Q1013","temp":25,"dewp":23,"wdir":190,"wspd":4,"visib":"6+","altim":1013,"clouds":[{"cover":"FEW","base":4500},{"cover":"BKN","base":10000}],"obsTime":1777755600},"SBKP":{"icaoId":"SBKP","flightCategory":"VFR","rawOb":"SPECI SBKP 022010Z 19021KT 9999 4000S -RA FEW010 SCT040 BKN080 21/18 Q1020 RETSRA","temp":21,"dewp":18,"wdir":190,"wspd":21,"visib":"6+","altim":1020,"clouds":[{"cover":"FEW","base":1000},{"cover":"SCT","base":4000},{"cover":"BKN","base":8000}],"obsTime":1777752600},"SBSV":{"icaoId":"SBSV","flightCategory":"VFR","rawOb":"METAR SBSV 022100Z 12007KT 9999 SCT031 28/22 Q1014","temp":28,"dewp":22,"wdir":120,"wspd":7,"visib":"6+","altim":1014,"clouds":[{"cover":"SCT","base":3100}],"obsTime":1777755600},"SBBE":{"icaoId":"SBBE","flightCategory":"VFR","rawOb":"METAR SBBE 022100Z 05006KT 9999 SCT030 28/25 Q1009","temp":28,"dewp":25,"wdir":50,"wspd":6,"visib":"6+","altim":1009,"clouds":[{"cover":"SCT","base":3000}],"obsTime":1777755600},"SBSL":{"icaoId":"SBSL","flightCategory":"VFR","rawOb":"METAR SBSL 022100Z 07006KT 9999 FEW027 BKN090 26/24 Q1010","temp":26,"dewp":24,"wdir":70,"wspd":6,"visib":"6+","altim":1010,"clouds":[{"cover":"FEW","base":2700},{"cover":"BKN","base":9000}],"obsTime":1777755600},"SBEG":{"icaoId":"SBEG","flightCategory":"VFR","rawOb":"METAR SBEG 022100Z 16004KT 9999 SCT025 SCT080 28/25 Q1009","temp":28,"dewp":25,"wdir":160,"wspd":4,"visib":"6+","altim":1009,"clouds":[{"cover":"SCT","base":2500},{"cover":"SCT","base":8000}],"obsTime":1777755600},"SBSN":{"icaoId":"SBSN","flightCategory":"VFR","rawOb":"METAR SBSN 022100Z 07006KT 9999 FEW017 SCT100 30/26 Q1009","temp":30,"dewp":26,"wdir":70,"wspd":6,"visib":"6+","altim":1009,"clouds":[{"cover":"FEW","base":1700},{"cover":"SCT","base":10000}],"obsTime":1777755600},"SBTE":{"icaoId":"SBTE","flightCategory":"VFR","rawOb":"METAR SBTE 022100Z 19009KT 9999 FEW025 FEW030TCU 32/23 Q1009","temp":32,"dewp":23,"wdir":190,"wspd":9,"visib":"6+","altim":1009,"clouds":[{"cover":"FEW","base":2500},{"cover":"FEW","base":3000}],"obsTime":1777755600},"SBSP":{"icaoId":"SBSP","flightCategory":"MVFR","rawOb":"METAR SBSP 022100Z 24005KT 170V310 9999 BKN015 21/14 Q1022","temp":21,"dewp":14,"wdir":240,"wspd":5,"visib":"6+","altim":1022,"clouds":[{"cover":"BKN","base":1500}],"obsTime":1777755600},"SBCB":{"icaoId":"SBCB","flightCategory":"IFR","rawOb":"METAR SBCB 022100Z 32004KT 7000 BKN008 BKN040 27/21 Q1015","temp":27,"dewp":21,"wdir":320,"wspd":4,"visib":4.35,"altim":1015,"clouds":[{"cover":"BKN","base":800},{"cover":"BKN","base":4000}],"obsTime":1777755600},"SBCR":{"icaoId":"SBCR","flightCategory":"VFR","rawOb":"METAR SBCR 022100Z 17003KT 140V200 9999 FEW040 SCT080 32/22 Q1013","temp":32,"dewp":22,"wdir":170,"wspd":3,"visib":"6+","altim":1013,"clouds":[{"cover":"FEW","base":4000},{"cover":"SCT","base":8000}],"obsTime":1777755600},"SBCZ":{"icaoId":"SBCZ","flightCategory":"VFR","rawOb":"METAR SBCZ 022100Z 00000KT 9999 FEW040 BKN100 26/25 Q1010","temp":26,"dewp":25,"wdir":0,"wspd":0,"visib":"6+","altim":1010,"clouds":[{"cover":"FEW","base":4000},{"cover":"BKN","base":10000}],"obsTime":1777755600},"SBHT":{"icaoId":"SBHT","flightCategory":"VFR","rawOb":"METAR SBHT 022100Z 13003KT 9999 FEW030 31/24 Q1009","temp":31,"dewp":24,"wdir":130,"wspd":3,"visib":"6+","altim":1009,"clouds":[{"cover":"FEW","base":3000}],"obsTime":1777755600},"SBIL":{"icaoId":"SBIL","flightCategory":"VFR","rawOb":"METAR SBIL 022100Z 28003KT 9999 FEW019 BKN070 25/24 Q1016","temp":25,"dewp":24,"wdir":280,"wspd":3,"visib":"6+","altim":1016,"clouds":[{"cover":"FEW","base":1900},{"cover":"BKN","base":7000}],"obsTime":1777755600},"SBJU":{"icaoId":"SBJU","flightCategory":"VFR","rawOb":"METAR SBJU 022100Z 26005KT 9999 SCT020 FEW021TCU 25/23 Q1013","temp":25,"dewp":23,"wdir":260,"wspd":5,"visib":"6+","altim":1013,"clouds":[{"cover":"SCT","base":2000},{"cover":"FEW","base":2100}],"obsTime":1777755600},"SBME":{"icaoId":"SBME","flightCategory":"VFR","rawOb":"METAR SBME 022100Z 13002KT 9999 SCT030 27/23 Q1014","temp":27,"dewp":23,"wdir":130,"wspd":2,"visib":"6+","altim":1014,"clouds":[{"cover":"SCT","base":3000}],"obsTime":1777755600},"SBMG":{"icaoId":"SBMG","flightCategory":"VFR","rawOb":"METAR SBMG 022100Z 15014KT 9000 -RA FEW017 BKN060 OVC080 18/17 Q1021 RETSRA","temp":18,"dewp":17,"wdir":150,"wspd":14,"visib":5.59,"altim":1021,"clouds":[{"cover":"FEW","base":1700},{"cover":"BKN","base":6000},{"cover":"OVC","base":8000}],"obsTime":1777755600},"SBMK":{"icaoId":"SBMK","flightCategory":"VFR","rawOb":"METAR SBMK 022100Z 17004KT CAVOK 27/18 Q1018","temp":27,"dewp":18,"wdir":170,"wspd":4,"visib":"6+","altim":1018,"clouds":[],"obsTime":1777755600},"SBAT":{"icaoId":"SBAT","flightCategory":"VFR","rawOb":"METAR SBAT 022100Z 21003KT CAVOK 30/23 Q1012","temp":30,"dewp":23,"wdir":210,"wspd":3,"visib":"6+","altim":1012,"clouds":[],"obsTime":1777755600},"SBNT":{"icaoId":"SBNT","flightCategory":"VFR","rawOb":"METAR SBNT 022100Z 18006KT 150V210 9999 FEW023 BKN100 26/23 Q1012","temp":26,"dewp":23,"wdir":180,"wspd":6,"visib":"6+","altim":1012,"clouds":[{"cover":"FEW","base":2300},{"cover":"BKN","base":10000}],"obsTime":1777755600},"SBUR":{"icaoId":"SBUR","flightCategory":"VFR","rawOb":"METAR SBUR 022100Z 18005KT CAVOK 26/16 Q1019","temp":26,"dewp":16,"wdir":180,"wspd":5,"visib":"6+","altim":1019,"clouds":[],"obsTime":1777755600},"SBUL":{"icaoId":"SBUL","flightCategory":"VFR","rawOb":"METAR SBUL 022100Z 11003KT 9999 FEW030 26/15 Q1021","temp":26,"dewp":15,"wdir":110,"wspd":3,"visib":"6+","altim":1021,"clouds":[{"cover":"FEW","base":3000}],"obsTime":1777755600},"SBAR":{"icaoId":"SBAR","flightCategory":"VFR","rawOb":"METAR SBAR 022100Z 13007KT 9999 FEW026 28/22 Q1013","temp":28,"dewp":22,"wdir":130,"wspd":7,"visib":"6+","altim":1013,"clouds":[{"cover":"FEW","base":2600}],"obsTime":1777755600},"SBPL":{"icaoId":"SBPL","flightCategory":"VFR","rawOb":"METAR SBPL 022100Z 11008KT 9999 FEW030 FEW035TCU 30/20 Q1013","temp":30,"dewp":20,"wdir":110,"wspd":8,"visib":"6+","altim":1013,"clouds":[{"cover":"FEW","base":3000},{"cover":"FEW","base":3500}],"obsTime":1777755600},"SBSJ":{"icaoId":"SBSJ","flightCategory":"VFR","rawOb":"METAR SBSJ 022100Z 20006KT 9999 FEW045 FEW050TCU SCT100 22/16 Q1020","temp":22,"dewp":16,"wdir":200,"wspd":6,"visib":"6+","altim":1020,"clouds":[{"cover":"FEW","base":4500},{"cover":"FEW","base":5000},{"cover":"SCT","base":10000}],"obsTime":1777755600},"SBTF":{"icaoId":"SBTF","flightCategory":"VFR","rawOb":"METAR SBTF 022100Z 05006KT 9999 FEW016 FEW025TCU SCT080 31/21 Q1008","temp":31,"dewp":21,"wdir":50,"wspd":6,"visib":"6+","altim":1008,"clouds":[{"cover":"FEW","base":1600},{"cover":"FEW","base":2500},{"cover":"SCT","base":8000}],"obsTime":1777755600},"SBPS":{"icaoId":"SBPS","flightCategory":"VFR","rawOb":"METAR SBPS 022100Z 23003KT 9999 FEW017 BKN070 24/22 Q1016","temp":24,"dewp":22,"wdir":230,"wspd":3,"visib":"6+","altim":1016,"clouds":[{"cover":"FEW","base":1700},{"cover":"BKN","base":7000}],"obsTime":1777755600},"SBOI":{"icaoId":"SBOI","flightCategory":"MVFR","rawOb":"METAR SBOI 022200Z AUTO 04003KT 9999 BKN023 28/25 Q1011","temp":28,"dewp":25,"wdir":40,"wspd":3,"visib":"6+","altim":1011,"clouds":[{"cover":"BKN","base":2300}],"obsTime":1777759200},"SBTT":{"icaoId":"SBTT","flightCategory":"VFR","rawOb":"METAR SBTT 022100Z 12006KT 080V160 9999 VCSH BKN040 29/23 Q1008","temp":29,"dewp":23,"wdir":120,"wspd":6,"visib":"6+","altim":1008,"clouds":[{"cover":"BKN","base":4000}],"obsTime":1777755600},"SBUY":{"icaoId":"SBUY","flightCategory":"VFR","rawOb":"METAR SBUY 022100Z 17004KT 9999 FEW025 FEW035TCU 30/24 Q1007","temp":30,"dewp":24,"wdir":170,"wspd":4,"visib":"6+","altim":1007,"clouds":[{"cover":"FEW","base":2500},{"cover":"FEW","base":3500}],"obsTime":1777755600},"SBPB":{"icaoId":"SBPB","flightCategory":"MVFR","rawOb":"METAR SBPB 022100Z 00000KT 9999 BKN016 FEW025TCU BKN080 26/24 Q1010","temp":26,"dewp":24,"wdir":0,"wspd":0,"visib":"6+","altim":1010,"clouds":[{"cover":"BKN","base":1600},{"cover":"FEW","base":2500},{"cover":"BKN","base":8000}],"obsTime":1777755600},"SBCJ":{"icaoId":"SBCJ","flightCategory":"VFR","rawOb":"METAR SBCJ 022100Z 10002KT 9999 TS SCT017 SCT030CB 25/22 Q1016","temp":25,"dewp":22,"wdir":100,"wspd":2,"visib":"6+","altim":1016,"clouds":[{"cover":"SCT","base":1700},{"cover":"SCT","base":3000}],"obsTime":1777755600},"SBIP":{"icaoId":"SBIP","flightCategory":"VFR","rawOb":"METAR SBIP 022100Z AUTO 18003KT CAVOK 23/20 Q1016","temp":23,"dewp":20,"wdir":180,"wspd":3,"visib":"6+","altim":1016,"clouds":[],"obsTime":1777755600},"SBKG":{"icaoId":"SBKG","flightCategory":"MVFR","rawOb":"METAR SBKG 022100Z 15002KT 9999 BKN020 BKN070 23/21 Q1015","temp":23,"dewp":21,"wdir":150,"wspd":2,"visib":"6+","altim":1015,"clouds":[{"cover":"BKN","base":2000},{"cover":"BKN","base":7000}],"obsTime":1777755600},"SBPP":{"icaoId":"SBPP","flightCategory":"MVFR","rawOb":"METAR SBPP 022100Z 14014KT 9999 BKN025 OVC100 20/18 Q1018","temp":20,"dewp":18,"wdir":140,"wspd":14,"visib":"6+","altim":1018,"clouds":[{"cover":"BKN","base":2500},{"cover":"OVC","base":10000}],"obsTime":1777755600},"SBSC":{"icaoId":"SBSC","flightCategory":"VFR","rawOb":"METAR SBSC 022100Z 21009KT 9999 FEW015 BKN070 25/22 Q1016","temp":25,"dewp":22,"wdir":210,"wspd":9,"visib":"6+","altim":1016,"clouds":[{"cover":"FEW","base":1500},{"cover":"BKN","base":7000}],"obsTime":1777755600},"SBSM":{"icaoId":"SBSM","flightCategory":"VFR","rawOb":"METAR SBSM 022100Z VRB03KT CAVOK 18/11 Q1021","temp":18,"dewp":11,"wdir":"VRB","wspd":3,"visib":"6+","altim":1021,"clouds":[],"obsTime":1777755600},"SBSR":{"icaoId":"SBSR","flightCategory":"VFR","rawOb":"METAR SBSR 022100Z 20005KT CAVOK 28/14 Q1018","temp":28,"dewp":14,"wdir":200,"wspd":5,"visib":"6+","altim":1018,"clouds":[],"obsTime":1777755600},"SBVH":{"icaoId":"SBVH","flightCategory":"VFR","rawOb":"METAR SBVH 022100Z 10005KT 9999 FEW040 29/22 Q1015","temp":29,"dewp":22,"wdir":100,"wspd":5,"visib":"6+","altim":1015,"clouds":[{"cover":"FEW","base":4000}],"obsTime":1777755600},"SBAX":{"icaoId":"SBAX","flightCategory":"VFR","rawOb":"METAR SBAX 022100Z AUTO 31002KT CAVOK 25/14 Q1021","temp":25,"dewp":14,"wdir":310,"wspd":2,"visib":"6+","altim":1021,"clouds":[],"obsTime":1777755600},"SBBH":{"icaoId":"SBBH","flightCategory":"VFR","rawOb":"METAR SBBH 022100Z 27005KT CAVOK 26/15 Q1020","temp":26,"dewp":15,"wdir":270,"wspd":5,"visib":"6+","altim":1020,"clouds":[],"obsTime":1777755600},"SBBU":{"icaoId":"SBBU","flightCategory":"VFR","rawOb":"METAR SBBU 022100Z 17013KT 9999 FEW030 26/18 Q1019","temp":26,"dewp":18,"wdir":170,"wspd":13,"visib":"6+","altim":1019,"clouds":[{"cover":"FEW","base":3000}],"obsTime":1777755600},"SBCA":{"icaoId":"SBCA","flightCategory":"VFR","rawOb":"METAR SBCA 022100Z 06006KT 9999 FEW005 BKN070 19/18 Q1021","temp":19,"dewp":18,"wdir":60,"wspd":6,"visib":"6+","altim":1021,"clouds":[{"cover":"FEW","base":500},{"cover":"BKN","base":7000}],"obsTime":1777755600},"SBCO":{"icaoId":"SBCO","flightCategory":"VFR","rawOb":"METAR SBCO 022100Z 18007KT 9999 SCT040 BKN050 18/14 Q1020","temp":18,"dewp":14,"wdir":180,"wspd":7,"visib":"6+","altim":1020,"clouds":[{"cover":"SCT","base":4000},{"cover":"BKN","base":5000}],"obsTime":1777755600},"SBDN":{"icaoId":"SBDN","flightCategory":"VFR","rawOb":"METAR SBDN 022100Z 19003KT CAVOK 29/17 Q1018","temp":29,"dewp":17,"wdir":190,"wspd":3,"visib":"6+","altim":1018,"clouds":[],"obsTime":1777755600},"SBES":{"icaoId":"SBES","flightCategory":"VFR","rawOb":"METAR SBES 022100Z VRB04KT 9999 FEW020 BKN040 25/// Q1015","temp":null,"dewp":null,"wdir":"VRB","wspd":4,"visib":"6+","altim":1015,"clouds":[{"cover":"FEW","base":2000},{"cover":"BKN","base":4000}],"obsTime":1777755600},"SBJP":{"icaoId":"SBJP","flightCategory":"VFR","rawOb":"METAR SBJP 022100Z 17003KT 9999 SCT020 26/24 Q1013","temp":26,"dewp":24,"wdir":170,"wspd":3,"visib":"6+","altim":1013,"clouds":[{"cover":"SCT","base":2000}],"obsTime":1777755600},"SBIH":{"icaoId":"SBIH","flightCategory":"VFR","rawOb":"METAR SBIH 022100Z 31002KT 9999 SCT018 SCT080 28/25 Q1009 RETS","temp":28,"dewp":25,"wdir":310,"wspd":2,"visib":"6+","altim":1009,"clouds":[{"cover":"SCT","base":1800},{"cover":"SCT","base":8000}],"obsTime":1777755600},"SBAF":{"icaoId":"SBAF","flightCategory":"VFR","rawOb":"METAR SBAF 022100Z 22012KT 9999 FEW030 SCT080 27/23 Q1016","temp":27,"dewp":23,"wdir":220,"wspd":12,"visib":"6+","altim":1016,"clouds":[{"cover":"FEW","base":3000},{"cover":"SCT","base":8000}],"obsTime":1777755600},"SBGW":{"icaoId":"SBGW","flightCategory":"VFR","rawOb":"METAR SBGW 022100Z 00000KT CAVOK 24/17 Q1018","temp":24,"dewp":17,"wdir":0,"wspd":0,"visib":"6+","altim":1018,"clouds":[],"obsTime":1777755600},"SBJR":{"icaoId":"SBJR","flightCategory":"VFR","rawOb":"METAR SBJR 022100Z 23006KT 9999 SCT035 SCT080 26/22 Q1015","temp":26,"dewp":22,"wdir":230,"wspd":6,"visib":"6+","altim":1015,"clouds":[{"cover":"SCT","base":3500},{"cover":"SCT","base":8000}],"obsTime":1777755600},"SBLS":{"icaoId":"SBLS","flightCategory":"VFR","rawOb":"METAR SBLS 022100Z 28005KT 9999 FEW049 24/15 Q1020","temp":24,"dewp":15,"wdir":280,"wspd":5,"visib":"6+","altim":1020,"clouds":[{"cover":"FEW","base":4900}],"obsTime":1777755600},"SBMT":{"icaoId":"SBMT","flightCategory":"MVFR","rawOb":"METAR SBMT 022100Z 28009KT 9999 BKN023 21/15 Q1021","temp":21,"dewp":15,"wdir":280,"wspd":9,"visib":"6+","altim":1021,"clouds":[{"cover":"BKN","base":2300}],"obsTime":1777755600},"SBTA":{"icaoId":"SBTA","flightCategory":"VFR","rawOb":"METAR SBTA 022100Z 20006KT 9999 FEW030 23/17 Q1018","temp":23,"dewp":17,"wdir":200,"wspd":6,"visib":"6+","altim":1018,"clouds":[{"cover":"FEW","base":3000}],"obsTime":1777755600},"SBJV":{"icaoId":"SBJV","flightCategory":"VFR","rawOb":"METAR SBJV 022100Z 06006KT 040V100 9999 SCT030 BKN100 22/20 Q1015","temp":22,"dewp":20,"wdir":60,"wspd":6,"visib":"6+","altim":1015,"clouds":[{"cover":"SCT","base":3000},{"cover":"BKN","base":10000}],"obsTime":1777755600},"SBAN":{"icaoId":"SBAN","flightCategory":"VFR","rawOb":"METAR SBAN 022100Z 28005KT 260V320 CAVOK 26/14 Q1022","temp":26,"dewp":14,"wdir":280,"wspd":5,"visib":"6+","altim":1022,"clouds":[],"obsTime":1777755600},"SBST":{"icaoId":"SBST","flightCategory":"VFR","rawOb":"METAR SBST 022100Z /////KT 9999 SCT040 ///// Q1016","temp":null,"dewp":null,"wdir":null,"wspd":null,"visib":"6+","altim":1016,"clouds":[{"cover":"SCT","base":4000}],"obsTime":1777755600},"SBLE":{"icaoId":"SBLE","flightCategory":"VFR","rawOb":"METAR SBLE 022100Z AUTO 20002KT CAVOK ///// Q////","temp":null,"dewp":null,"wdir":200,"wspd":2,"visib":"6+","altim":null,"clouds":[],"obsTime":1777755600}}}