{"updated":1776510416,"count":73,"data":{"SBRB":{"icaoId":"SBRB","flightCategory":"MVFR","rawOb":"METAR SBRB 181000Z 00000KT 8000 NSC 23/22 Q1009","temp":23,"dewp":22,"wdir":0,"wspd":0,"visib":4.97,"altim":1009,"clouds":[],"obsTime":1776506400},"SBBE":{"icaoId":"SBBE","flightCategory":"VFR","rawOb":"METAR SBBE 181000Z 09002KT CAVOK 24/24 Q1007","temp":24,"dewp":24,"wdir":90,"wspd":2,"visib":"6+","altim":1007,"clouds":[],"obsTime":1776506400},"SBBR":{"icaoId":"SBBR","flightCategory":"VFR","rawOb":"METAR SBBR 181000Z VRB01KT CAVOK 18/17 Q1015","temp":18,"dewp":17,"wdir":"VRB","wspd":1,"visib":"6+","altim":1015,"clouds":[],"obsTime":1776506400},"SBBV":{"icaoId":"SBBV","flightCategory":"VFR","rawOb":"METAR SBBV 181000Z 08005KT 9999 FEW030 SCT070 26/21 Q1009","temp":26,"dewp":21,"wdir":80,"wspd":5,"visib":"6+","altim":1009,"clouds":[{"cover":"FEW","base":3000},{"cover":"SCT","base":7000}],"obsTime":1776506400},"SBCB":{"icaoId":"SBCB","flightCategory":"MVFR","rawOb":"METAR SBCB 181000Z 05010KT 9999 SCT010 BKN015 24/22 Q1008","temp":24,"dewp":22,"wdir":50,"wspd":10,"visib":"6+","altim":1008,"clouds":[{"cover":"SCT","base":1000},{"cover":"BKN","base":1500}],"obsTime":1776506400},"SBCF":{"icaoId":"SBCF","flightCategory":"MVFR","rawOb":"METAR SBCF 181000Z VRB01KT 7000 NSC 17/15 Q1015","temp":17,"dewp":15,"wdir":"VRB","wspd":1,"visib":4.35,"altim":1015,"clouds":[],"obsTime":1776506400},"SBCG":{"icaoId":"SBCG","flightCategory":"VFR","rawOb":"METAR SBCG 181000Z 01004KT 9999 FEW025 22/21 Q1012","temp":22,"dewp":21,"wdir":10,"wspd":4,"visib":"6+","altim":1012,"clouds":[{"cover":"FEW","base":2500}],"obsTime":1776506400},"SBCP":{"icaoId":"SBCP","flightCategory":"VFR","rawOb":"METAR SBCP 181000Z 04004KT CAVOK 22/21 Q1009","temp":22,"dewp":21,"wdir":40,"wspd":4,"visib":"6+","altim":1009,"clouds":[],"obsTime":1776506400},"SBCR":{"icaoId":"SBCR","flightCategory":"VFR","rawOb":"METAR SBCR 181100Z VRB02KT CAVOK 25/23 Q1009","temp":25,"dewp":23,"wdir":"VRB","wspd":2,"visib":"6+","altim":1009,"clouds":[],"obsTime":1776510000},"SBCT":{"icaoId":"SBCT","flightCategory":"VFR","rawOb":"METAR SBCT 181000Z 24005KT CAVOK 16/16 Q1013","temp":16,"dewp":16,"wdir":240,"wspd":5,"visib":"6+","altim":1013,"clouds":[],"obsTime":1776506400},"SBEG":{"icaoId":"SBEG","flightCategory":"VFR","rawOb":"METAR SBEG 181000Z 28006KT 9999 SCT006 SCT015 25/24 Q1008","temp":25,"dewp":24,"wdir":280,"wspd":6,"visib":"6+","altim":1008,"clouds":[{"cover":"SCT","base":600},{"cover":"SCT","base":1500}],"obsTime":1776506400},"SBFI":{"icaoId":"SBFI","flightCategory":"MVFR","rawOb":"METAR SBFI 181000Z 00000KT 5000 0800NW R15/0375N R33/1000N BCFG FEW003 15/15 Q1011","temp":15,"dewp":15,"wdir":0,"wspd":0,"visib":3.11,"altim":1011,"clouds":[{"cover":"FEW","base":300}],"obsTime":1776506400},"SBFL":{"icaoId":"SBFL","flightCategory":"VFR","rawOb":"METAR SBFL 181000Z 23004KT 9999 FEW040 SCT080 21/21 Q1008","temp":21,"dewp":21,"wdir":230,"wspd":4,"visib":"6+","altim":1008,"clouds":[{"cover":"FEW","base":4000},{"cover":"SCT","base":8000}],"obsTime":1776506400},"SBFZ":{"icaoId":"SBFZ","flightCategory":"VFR","rawOb":"METAR SBFZ 181000Z 16007KT 9999 FEW018 BKN060 27/25 Q1007","temp":27,"dewp":25,"wdir":160,"wspd":7,"visib":"6+","altim":1007,"clouds":[{"cover":"FEW","base":1800},{"cover":"BKN","base":6000}],"obsTime":1776506400},"SBGL":{"icaoId":"SBGL","flightCategory":"MVFR","rawOb":"METAR SBGL 181000Z 28002KT 7000 FEW010 SCT070 23/21 Q1009","temp":23,"dewp":21,"wdir":280,"wspd":2,"visib":4.35,"altim":1009,"clouds":[{"cover":"FEW","base":1000},{"cover":"SCT","base":7000}],"obsTime":1776506400},"SBGO":{"icaoId":"SBGO","flightCategory":"VFR","rawOb":"METAR SBGO 181000Z 32002KT 9999 FEW020 20/19 Q1014","temp":20,"dewp":19,"wdir":320,"wspd":2,"visib":"6+","altim":1014,"clouds":[{"cover":"FEW","base":2000}],"obsTime":1776506400},"SBGR":{"icaoId":"SBGR","flightCategory":"VFR","rawOb":"METAR SBGR 181000Z 11006KT 9000 VCSH BKN046 FEW050TCU BKN090 20/17 Q1014","temp":20,"dewp":17,"wdir":110,"wspd":6,"visib":5.59,"altim":1014,"clouds":[{"cover":"BKN","base":4600},{"cover":"FEW","base":5000},{"cover":"BKN","base":9000}],"obsTime":1776506400},"SBKP":{"icaoId":"SBKP","flightCategory":"VFR","rawOb":"METAR SBKP 181000Z 03004KT 010V080 9000 FEW045 BKN060 22/15 Q1013","temp":22,"dewp":15,"wdir":30,"wspd":4,"visib":5.59,"altim":1013,"clouds":[{"cover":"FEW","base":4500},{"cover":"BKN","base":6000}],"obsTime":1776506400},"SBLO":{"icaoId":"SBLO","flightCategory":"VFR","rawOb":"METAR SBLO 181000Z 22002KT CAVOK 22/20 Q1011","temp":22,"dewp":20,"wdir":220,"wspd":2,"visib":"6+","altim":1011,"clouds":[],"obsTime":1776506400},"SBMA":{"icaoId":"SBMA","flightCategory":"MVFR","rawOb":"METAR SBMA 181000Z 00000KT 9999 SCT008 BKN015 OVC080 25/25 Q1008","temp":25,"dewp":25,"wdir":0,"wspd":0,"visib":"6+","altim":1008,"clouds":[{"cover":"SCT","base":800},{"cover":"BKN","base":1500},{"cover":"OVC","base":8000}],"obsTime":1776506400},"SBMO":{"icaoId":"SBMO","flightCategory":"MVFR","rawOb":"METAR SBMO 181000Z 25004KT 9999 BKN015 25/24 Q1009","temp":25,"dewp":24,"wdir":250,"wspd":4,"visib":"6+","altim":1009,"clouds":[{"cover":"BKN","base":1500}],"obsTime":1776506400},"SBMQ":{"icaoId":"SBMQ","flightCategory":"MVFR","rawOb":"METAR SBMQ 181000Z 01006KT 9999 SCT006 BKN025 25/25 Q1008","temp":25,"dewp":25,"wdir":10,"wspd":6,"visib":"6+","altim":1008,"clouds":[{"cover":"SCT","base":600},{"cover":"BKN","base":2500}],"obsTime":1776506400},"SBNT":{"icaoId":"SBNT","flightCategory":"VFR","rawOb":"METAR SBNT 181000Z 17007KT 9999 VCSH SCT017 FEW030TCU SCT040 BKN070 26/24 Q1008","temp":26,"dewp":24,"wdir":170,"wspd":7,"visib":"6+","altim":1008,"clouds":[{"cover":"SCT","base":1700},{"cover":"FEW","base":3000},{"cover":"SCT","base":4000},{"cover":"BKN","base":7000}],"obsTime":1776506400},"SBPA":{"icaoId":"SBPA","flightCategory":"VFR","rawOb":"METAR SBPA 181000Z 29008KT 9999 FEW015 19/18 Q1009","temp":19,"dewp":18,"wdir":290,"wspd":8,"visib":"6+","altim":1009,"clouds":[{"cover":"FEW","base":1500}],"obsTime":1776506400},"SBPJ":{"icaoId":"SBPJ","flightCategory":"VFR","rawOb":"METAR SBPJ 181000Z 00000KT 9999 FEW010 FEW027TCU SCT040 25/24 Q1010","temp":25,"dewp":24,"wdir":0,"wspd":0,"visib":"6+","altim":1010,"clouds":[{"cover":"FEW","base":1000},{"cover":"FEW","base":2700},{"cover":"SCT","base":4000}],"obsTime":1776506400},"SBPV":{"icaoId":"SBPV","flightCategory":"IFR","rawOb":"METAR SBPV 181000Z 00000KT 3000 BR OVC005 24/23 Q1008","temp":24,"dewp":23,"wdir":0,"wspd":0,"visib":1.86,"altim":1008,"clouds":[{"cover":"OVC","base":500}],"obsTime":1776506400},"SBRF":{"icaoId":"SBRF","flightCategory":"VFR","rawOb":"METAR SBRF 181000Z 14011KT 9999 VCSH SCT018 28/25 Q1008","temp":28,"dewp":25,"wdir":140,"wspd":11,"visib":"6+","altim":1008,"clouds":[{"cover":"SCT","base":1800}],"obsTime":1776506400},"SBSG":{"icaoId":"SBSG","flightCategory":"VFR","rawOb":"METAR SBSG 181000Z 17004KT 130V200 9999 SCT007 SCT020 FEW025TCU 25/24 Q1009","temp":25,"dewp":24,"wdir":170,"wspd":4,"visib":"6+","altim":1009,"clouds":[{"cover":"SCT","base":700},{"cover":"SCT","base":2000},{"cover":"FEW","base":2500}],"obsTime":1776506400},"SBSL":{"icaoId":"SBSL","flightCategory":"VFR","rawOb":"METAR SBSL 181000Z 13006KT 9999 FEW020 26/25 Q1007","temp":26,"dewp":25,"wdir":130,"wspd":6,"visib":"6+","altim":1007,"clouds":[{"cover":"FEW","base":2000}],"obsTime":1776506400},"SBSN":{"icaoId":"SBSN","flightCategory":"MVFR","rawOb":"METAR SBSN 181000Z VRB02KT 9999 BKN013 FEW030TCU 26/25 Q1007","temp":26,"dewp":25,"wdir":"VRB","wspd":2,"visib":"6+","altim":1007,"clouds":[{"cover":"BKN","base":1300},{"cover":"FEW","base":3000}],"obsTime":1776506400},"SBSP":{"icaoId":"SBSP","flightCategory":"VFR","rawOb":"METAR SBSP 181000Z 07006KT 9999 SCT046 21/17 Q1014","temp":21,"dewp":17,"wdir":70,"wspd":6,"visib":"6+","altim":1014,"clouds":[{"cover":"SCT","base":4600}],"obsTime":1776506400},"SBSV":{"icaoId":"SBSV","flightCategory":"VFR","rawOb":"METAR SBSV 181000Z VRB02KT 9999 FEW023 26/23 Q1010","temp":26,"dewp":23,"wdir":"VRB","wspd":2,"visib":"6+","altim":1010,"clouds":[{"cover":"FEW","base":2300}],"obsTime":1776506400},"SBTE":{"icaoId":"SBTE","flightCategory":"VFR","rawOb":"METAR SBTE 181000Z 00000KT 9999 FEW015 25/24 Q1007","temp":25,"dewp":24,"wdir":0,"wspd":0,"visib":"6+","altim":1007,"clouds":[{"cover":"FEW","base":1500}],"obsTime":1776506400},"SBVT":{"icaoId":"SBVT","flightCategory":"VFR","rawOb":"METAR SBVT 181000Z 35002KT CAVOK 22/22 Q1010","temp":22,"dewp":22,"wdir":350,"wspd":2,"visib":"6+","altim":1010,"clouds":[],"obsTime":1776506400},"SBUR":{"icaoId":"SBUR","flightCategory":"VFR","rawOb":"METAR SBUR 181000Z 03006KT CAVOK 20/15 Q1014","temp":20,"dewp":15,"wdir":30,"wspd":6,"visib":"6+","altim":1014,"clouds":[],"obsTime":1776506400},"SBME":{"icaoId":"SBME","flightCategory":"VFR","rawOb":"METAR SBME 181000Z 03002KT CAVOK 21/20 Q1008","temp":21,"dewp":20,"wdir":30,"wspd":2,"visib":"6+","altim":1008,"clouds":[],"obsTime":1776506400},"SBMG":{"icaoId":"SBMG","flightCategory":"LIFR","rawOb":"METAR SBMG 181000Z COR 17004KT 0200 R10/0700N FG NSC 20/19 Q1011","temp":20,"dewp":19,"wdir":170,"wspd":4,"visib":0.12,"altim":1011,"clouds":[],"obsTime":1776506400},"SBMK":{"icaoId":"SBMK","flightCategory":"VFR","rawOb":"METAR SBMK 181000Z 20002KT CAVOK 19/17 Q1013","temp":19,"dewp":17,"wdir":200,"wspd":2,"visib":"6+","altim":1013,"clouds":[],"obsTime":1776506400},"SBUL":{"icaoId":"SBUL","flightCategory":"VFR","rawOb":"METAR SBUL 181000Z 14006KT CAVOK 20/15 Q1015","temp":20,"dewp":15,"wdir":140,"wspd":6,"visib":"6+","altim":1015,"clouds":[],"obsTime":1776506400},"SBHT":{"icaoId":"SBHT","flightCategory":"VFR","rawOb":"METAR SBHT 181000Z 00000KT 9999 FEW010 BKN080 25/24 Q1008","temp":25,"dewp":24,"wdir":0,"wspd":0,"visib":"6+","altim":1008,"clouds":[{"cover":"FEW","base":1000},{"cover":"BKN","base":8000}],"obsTime":1776506400},"SBIL":{"icaoId":"SBIL","flightCategory":"VFR","rawOb":"METAR SBIL 181000Z 28004KT 240V320 9999 FEW020 24/24 Q1011","temp":24,"dewp":24,"wdir":280,"wspd":4,"visib":"6+","altim":1011,"clouds":[{"cover":"FEW","base":2000}],"obsTime":1776506400},"SBJU":{"icaoId":"SBJU","flightCategory":"VFR","rawOb":"METAR SBJU 181000Z 15006KT 9999 SCT020 25/22 Q1010","temp":25,"dewp":22,"wdir":150,"wspd":6,"visib":"6+","altim":1010,"clouds":[{"cover":"SCT","base":2000}],"obsTime":1776506400},"SBAR":{"icaoId":"SBAR","flightCategory":"VFR","rawOb":"METAR SBAR 181000Z 00000KT 9999 FEW025 27/24 Q1009","temp":27,"dewp":24,"wdir":0,"wspd":0,"visib":"6+","altim":1009,"clouds":[{"cover":"FEW","base":2500}],"obsTime":1776506400},"SBCJ":{"icaoId":"SBCJ","flightCategory":"VFR","rawOb":"SPECI SBCJ 181015Z 00000KT 9999 SCT010 BKN080 21/20 Q1013","temp":21,"dewp":20,"wdir":0,"wspd":0,"visib":"6+","altim":1013,"clouds":[{"cover":"SCT","base":1000},{"cover":"BKN","base":8000}],"obsTime":1776507300},"SBOI":{"icaoId":"SBOI","flightCategory":"VFR","rawOb":"METAR SBOI 181000Z AUTO 00000KT 9999 // SCT017/// BKN075/// 25/24 Q1008","temp":25,"dewp":24,"wdir":0,"wspd":0,"visib":"6+","altim":1008,"clouds":[{"cover":"SCT","base":1700},{"cover":"BKN","base":7500}],"obsTime":1776506400},"SBPB":{"icaoId":"SBPB","flightCategory":"VFR","rawOb":"SPECI SBPB 181015Z 11005KT 9999 FEW020 27/24 Q1007","temp":27,"dewp":24,"wdir":110,"wspd":5,"visib":"6+","altim":1007,"clouds":[{"cover":"FEW","base":2000}],"obsTime":1776507300},"SBPL":{"icaoId":"SBPL","flightCategory":"VFR","rawOb":"METAR SBPL 181000Z 11005KT 9999 FEW020 25/21 Q1011","temp":25,"dewp":21,"wdir":110,"wspd":5,"visib":"6+","altim":1011,"clouds":[{"cover":"FEW","base":2000}],"obsTime":1776506400},"SBPS":{"icaoId":"SBPS","flightCategory":"VFR","rawOb":"METAR SBPS 181000Z 25004KT 9999 FEW020 23/22 Q1011","temp":23,"dewp":22,"wdir":250,"wspd":4,"visib":"6+","altim":1011,"clouds":[{"cover":"FEW","base":2000}],"obsTime":1776506400},"SBSJ":{"icaoId":"SBSJ","flightCategory":"VFR","rawOb":"METAR SBSJ 181000Z 12001KT CAVOK 18/16 Q1013","temp":18,"dewp":16,"wdir":120,"wspd":1,"visib":"6+","altim":1013,"clouds":[],"obsTime":1776506400},"SBTT":{"icaoId":"SBTT","flightCategory":"IFR","rawOb":"METAR SBTT 181100Z 12002KT 4000 -RA SCT006 BKN080 23/22 Q1010","temp":23,"dewp":22,"wdir":120,"wspd":2,"visib":2.49,"altim":1010,"clouds":[{"cover":"SCT","base":600},{"cover":"BKN","base":8000}],"obsTime":1776510000},"SBUY":{"icaoId":"SBUY","flightCategory":"IFR","rawOb":"METAR SBUY 181100Z 11001KT 3000 0600E BR FEW002 BKN070 23/23 Q1008","temp":23,"dewp":23,"wdir":110,"wspd":1,"visib":1.86,"altim":1008,"clouds":[{"cover":"FEW","base":200},{"cover":"BKN","base":7000}],"obsTime":1776510000},"SBKG":{"icaoId":"SBKG","flightCategory":"MVFR","rawOb":"METAR SBKG 181000Z 11007KT 9999 SCT007 BKN015 23/22 Q1011","temp":23,"dewp":22,"wdir":110,"wspd":7,"visib":"6+","altim":1011,"clouds":[{"cover":"SCT","base":700},{"cover":"BKN","base":1500}],"obsTime":1776506400},"SBSC":{"icaoId":"SBSC","flightCategory":"VFR","rawOb":"METAR SBSC 181000Z 19012KT 9999 FEW020 25/21 Q1010","temp":25,"dewp":21,"wdir":190,"wspd":12,"visib":"6+","altim":1010,"clouds":[{"cover":"FEW","base":2000}],"obsTime":1776506400},"SBSR":{"icaoId":"SBSR","flightCategory":"VFR","rawOb":"METAR SBSR 181000Z 03001KT CAVOK 21/18 Q1011","temp":21,"dewp":18,"wdir":30,"wspd":1,"visib":"6+","altim":1011,"clouds":[],"obsTime":1776506400},"SBSM":{"icaoId":"SBSM","flightCategory":"VFR","rawOb":"METAR SBSM 181000Z 00000KT 9999 MIFG NSC 15/15 Q1011","temp":15,"dewp":15,"wdir":0,"wspd":0,"visib":"6+","altim":1011,"clouds":[],"obsTime":1776506400},"SBAX":{"icaoId":"SBAX","flightCategory":"VFR","rawOb":"METAR SBAX 181000Z AUTO VRB02KT CAVOK 19/15 Q1015","temp":19,"dewp":15,"wdir":"VRB","wspd":2,"visib":"6+","altim":1015,"clouds":[],"obsTime":1776506400},"SBBH":{"icaoId":"SBBH","flightCategory":"VFR","rawOb":"METAR SBBH 181000Z 00000KT CAVOK 18/17 Q1015","temp":18,"dewp":17,"wdir":0,"wspd":0,"visib":"6+","altim":1015,"clouds":[],"obsTime":1776506400},"SBBU":{"icaoId":"SBBU","flightCategory":"VFR","rawOb":"METAR SBBU 181000Z 05002KT CAVOK 23/20 Q1012","temp":23,"dewp":20,"wdir":50,"wspd":2,"visib":"6+","altim":1012,"clouds":[],"obsTime":1776506400},"SBCO":{"icaoId":"SBCO","flightCategory":"VFR","rawOb":"METAR SBCO 181000Z 29008KT 9999 SCT045 19/17 Q1009","temp":19,"dewp":17,"wdir":290,"wspd":8,"visib":"6+","altim":1009,"clouds":[{"cover":"SCT","base":4500}],"obsTime":1776506400},"SBES":{"icaoId":"SBES","flightCategory":"IFR","rawOb":"METAR SBES 181000Z VRB06KT 9000 BKN006 22/// Q1008","temp":null,"dewp":null,"wdir":"VRB","wspd":6,"visib":5.59,"altim":1008,"clouds":[{"cover":"BKN","base":600}],"obsTime":1776506400},"SBDN":{"icaoId":"SBDN","flightCategory":"VFR","rawOb":"METAR SBDN 181000Z 00000KT CAVOK 22/19 Q1011","temp":22,"dewp":19,"wdir":0,"wspd":0,"visib":"6+","altim":1011,"clouds":[],"obsTime":1776506400},"SBIP":{"icaoId":"SBIP","flightCategory":"LIFR","rawOb":"METAR SBIP 181000Z AUTO 00000KT 0600 FG VV001 19/19 Q1013","temp":19,"dewp":19,"wdir":0,"wspd":0,"visib":0.37,"altim":1013,"clouds":[{"cover":"OVX","base":100}],"obsTime":1776506400},"SBJP":{"icaoId":"SBJP","flightCategory":"VFR","rawOb":"METAR SBJP 181000Z 19005KT 9999 SCT020 26/25 Q1009","temp":26,"dewp":25,"wdir":190,"wspd":5,"visib":"6+","altim":1009,"clouds":[{"cover":"SCT","base":2000}],"obsTime":1776506400},"SBJV":{"icaoId":"SBJV","flightCategory":"IFR","rawOb":"METAR SBJV 181000Z 33002KT 5000 BR BKN006 21/21 Q1008","temp":21,"dewp":21,"wdir":330,"wspd":2,"visib":3.11,"altim":1008,"clouds":[{"cover":"BKN","base":600}],"obsTime":1776506400},"SBPF":{"icaoId":"SBPF","flightCategory":"MVFR","rawOb":"METAR SBPF 181000Z 21005KT 9999 BKN010 15/12 Q1013","temp":15,"dewp":12,"wdir":210,"wspd":5,"visib":"6+","altim":1013,"clouds":[{"cover":"BKN","base":1000}],"obsTime":1776506400},"SBAN":{"icaoId":"SBAN","flightCategory":"VFR","rawOb":"METAR SBAN 181000Z 18002KT CAVOK 19/18 Q1016","temp":19,"dewp":18,"wdir":180,"wspd":2,"visib":"6+","altim":1016,"clouds":[],"obsTime":1776506400},"SBLE":{"icaoId":"SBLE","flightCategory":"MVFR","rawOb":"METAR SBLE 181000Z AUTO 30002KT 9999 -RA BKN012 OVC014 ///// Q////","temp":null,"dewp":null,"wdir":300,"wspd":2,"visib":"6+","altim":null,"clouds":[{"cover":"BKN","base":1200},{"cover":"OVC","base":1400}],"obsTime":1776506400},"SBAF":{"icaoId":"SBAF","flightCategory":"VFR","rawOb":"METAR SBAF 181000Z 25005KT 210V290 9999 FEW020 SCT100 23/23 Q1009","temp":23,"dewp":23,"wdir":250,"wspd":5,"visib":"6+","altim":1009,"clouds":[{"cover":"FEW","base":2000},{"cover":"SCT","base":10000}],"obsTime":1776506400},"SBJR":{"icaoId":"SBJR","flightCategory":"VFR","rawOb":"METAR SBJR 181000Z 25007KT 9000 FEW020 24/21 Q1009","temp":24,"dewp":21,"wdir":250,"wspd":7,"visib":5.59,"altim":1009,"clouds":[{"cover":"FEW","base":2000}],"obsTime":1776506400},"SBLS":{"icaoId":"SBLS","flightCategory":"VFR","rawOb":"METAR SBLS 181000Z 19004KT CAVOK 16/15 Q1015","temp":16,"dewp":15,"wdir":190,"wspd":4,"visib":"6+","altim":1015,"clouds":[],"obsTime":1776506400},"SBTA":{"icaoId":"SBTA","flightCategory":"VFR","rawOb":"METAR SBTA 181000Z VRB01KT CAVOK 18/18 Q1012","temp":18,"dewp":18,"wdir":"VRB","wspd":1,"visib":"6+","altim":1012,"clouds":[],"obsTime":1776506400},"SBMT":{"icaoId":"SBMT","flightCategory":"MVFR","rawOb":"METAR SBMT 181000Z 09006KT 060V120 8000 3500S VCSH BKN040 FEW045TCU 20/17 Q1014","temp":20,"dewp":17,"wdir":90,"wspd":6,"visib":4.97,"altim":1014,"clouds":[{"cover":"BKN","base":4000},{"cover":"FEW","base":4500}],"obsTime":1776506400},"SBGW":{"icaoId":"SBGW","flightCategory":"VFR","rawOb":"METAR SBGW 181000Z 27002KT CAVOK 17/13 Q1013","temp":17,"dewp":13,"wdir":270,"wspd":2,"visib":"6+","altim":1013,"clouds":[],"obsTime":1776506400}}}