{"updated":1782628795,"count":51,"data":{"SBSV":{"icaoId":"SBSV","flightCategory":"VFR","rawOb":"METAR SBSV 280500Z 12005KT 9999 SCT018 SCT040 23/22 Q1018","temp":23,"dewp":22,"wdir":120,"wspd":5,"visib":"6+","altim":1018,"clouds":[{"cover":"SCT","base":1800},{"cover":"SCT","base":4000}],"obsTime":1782622800},"SBSP":{"icaoId":"SBSP","flightCategory":"VFR","rawOb":"METAR SBSP 280500Z AUTO 00000KT CAVOK 17/17 Q1024","temp":17,"dewp":17,"wdir":0,"wspd":0,"visib":"6+","altim":1024,"clouds":[],"obsTime":1782622800},"SBSN":{"icaoId":"SBSN","flightCategory":"VFR","rawOb":"METAR SBSN 280500Z 08007KT 9999 SCT016 BKN100 27/24 Q1013","temp":27,"dewp":24,"wdir":80,"wspd":7,"visib":"6+","altim":1013,"clouds":[{"cover":"SCT","base":1600},{"cover":"BKN","base":10000}],"obsTime":1782622800},"SBPJ":{"icaoId":"SBPJ","flightCategory":"VFR","rawOb":"METAR SBPJ 280500Z 13006KT CAVOK 28/20 Q1015","temp":28,"dewp":20,"wdir":130,"wspd":6,"visib":"6+","altim":1015,"clouds":[],"obsTime":1782622800},"SBFI":{"icaoId":"SBFI","flightCategory":"MVFR","rawOb":"METAR SBFI 280500Z 08006KT 9999 SCT008 BKN019 FEW040TCU 17/16 Q1017 RETS","temp":17,"dewp":16,"wdir":80,"wspd":6,"visib":"6+","altim":1017,"clouds":[{"cover":"SCT","base":800},{"cover":"BKN","base":1900},{"cover":"FEW","base":4000}],"obsTime":1782622800},"SBCG":{"icaoId":"SBCG","flightCategory":"VFR","rawOb":"METAR SBCG 280500Z 08004KT CAVOK 21/17 Q1018","temp":21,"dewp":17,"wdir":80,"wspd":4,"visib":"6+","altim":1018,"clouds":[],"obsTime":1782622800},"SBCT":{"icaoId":"SBCT","flightCategory":"VFR","rawOb":"METAR SBCT 280500Z 01004KT 9000 -RA FEW020 BKN080 14/13 Q1025","temp":14,"dewp":13,"wdir":10,"wspd":4,"visib":5.59,"altim":1025,"clouds":[{"cover":"FEW","base":2000},{"cover":"BKN","base":8000}],"obsTime":1782622800},"SBMG":{"icaoId":"SBMG","flightCategory":"LIFR","rawOb":"METAR SBMG 280500Z AUTO 23009KT 180V250 0750 R10/1300D FG VV001 16/16 Q1019","temp":16,"dewp":16,"wdir":230,"wspd":9,"visib":0.47,"altim":1019,"clouds":[{"cover":"OVX","base":100}],"obsTime":1782622800},"SBUR":{"icaoId":"SBUR","flightCategory":"VFR","rawOb":"METAR SBUR 280500Z 02005KT CAVOK 18/14 Q1022","temp":18,"dewp":14,"wdir":20,"wspd":5,"visib":"6+","altim":1022,"clouds":[],"obsTime":1782622800},"SBMQ":{"icaoId":"SBMQ","flightCategory":"VFR","rawOb":"METAR SBMQ 280500Z 33002KT CAVOK 25/24 Q1013","temp":25,"dewp":24,"wdir":330,"wspd":2,"visib":"6+","altim":1013,"clouds":[],"obsTime":1782622800},"SBJU":{"icaoId":"SBJU","flightCategory":"MVFR","rawOb":"METAR SBJU 280500Z 00000KT 9999 SCT010 BKN018 21/21 Q1017","temp":21,"dewp":21,"wdir":0,"wspd":0,"visib":"6+","altim":1017,"clouds":[{"cover":"SCT","base":1000},{"cover":"BKN","base":1800}],"obsTime":1782622800},"SBME":{"icaoId":"SBME","flightCategory":"VFR","rawOb":"METAR SBME 280500Z 00000KT CAVOK 20/19 Q1022","temp":20,"dewp":19,"wdir":0,"wspd":0,"visib":"6+","altim":1022,"clouds":[],"obsTime":1782622800},"SBUL":{"icaoId":"SBUL","flightCategory":"VFR","rawOb":"METAR SBUL 280500Z 10007KT CAVOK 18/13 Q1023","temp":18,"dewp":13,"wdir":100,"wspd":7,"visib":"6+","altim":1023,"clouds":[],"obsTime":1782622800},"SBGR":{"icaoId":"SBGR","flightCategory":"MVFR","rawOb":"METAR SBGR 280500Z 00000KT 6000 NSC 15/14 Q1024","temp":15,"dewp":14,"wdir":0,"wspd":0,"visib":3.73,"altim":1024,"clouds":[],"obsTime":1782622800},"SBMO":{"icaoId":"SBMO","flightCategory":"VFR","rawOb":"METAR SBMO 280500Z 13003KT 9999 FEW025 22/20 Q1017","temp":22,"dewp":20,"wdir":130,"wspd":3,"visib":"6+","altim":1017,"clouds":[{"cover":"FEW","base":2500}],"obsTime":1782622800},"SBBR":{"icaoId":"SBBR","flightCategory":"VFR","rawOb":"METAR SBBR 280500Z 11006KT CAVOK 18/14 Q1024","temp":18,"dewp":14,"wdir":110,"wspd":6,"visib":"6+","altim":1024,"clouds":[],"obsTime":1782622800},"SBEG":{"icaoId":"SBEG","flightCategory":"VFR","rawOb":"METAR SBEG 280500Z 07002KT 9999 FEW020 BKN080 25/24 Q1014","temp":25,"dewp":24,"wdir":70,"wspd":2,"visib":"6+","altim":1014,"clouds":[{"cover":"FEW","base":2000},{"cover":"BKN","base":8000}],"obsTime":1782622800},"SBBE":{"icaoId":"SBBE","flightCategory":"VFR","rawOb":"METAR SBBE 280500Z 11003KT CAVOK 26/23 Q1013","temp":26,"dewp":23,"wdir":110,"wspd":3,"visib":"6+","altim":1013,"clouds":[],"obsTime":1782622800},"SBCF":{"icaoId":"SBCF","flightCategory":"VFR","rawOb":"METAR SBCF 280500Z 16004KT CAVOK 16/14 Q1025","temp":16,"dewp":14,"wdir":160,"wspd":4,"visib":"6+","altim":1025,"clouds":[],"obsTime":1782622800},"SBSL":{"icaoId":"SBSL","flightCategory":"VFR","rawOb":"METAR SBSL 280500Z 15003KT CAVOK 25/24 Q1013","temp":25,"dewp":24,"wdir":150,"wspd":3,"visib":"6+","altim":1013,"clouds":[],"obsTime":1782622800},"SBSG":{"icaoId":"SBSG","flightCategory":"IFR","rawOb":"METAR SBSG 280500Z 19004KT 9999 -RA BKN007 SCT023 FEW030TCU 23/23 Q1015","temp":23,"dewp":23,"wdir":190,"wspd":4,"visib":"6+","altim":1015,"clouds":[{"cover":"BKN","base":700},{"cover":"SCT","base":2300},{"cover":"FEW","base":3000}],"obsTime":1782622800},"SBRB":{"icaoId":"SBRB","flightCategory":"VFR","rawOb":"METAR SBRB 280500Z 35002KT CAVOK 20/19 Q1015","temp":20,"dewp":19,"wdir":350,"wspd":2,"visib":"6+","altim":1015,"clouds":[],"obsTime":1782622800},"SBFZ":{"icaoId":"SBFZ","flightCategory":"VFR","rawOb":"METAR SBFZ 280500Z 17007KT 9999 SCT020 BKN060 25/24 Q1013","temp":25,"dewp":24,"wdir":170,"wspd":7,"visib":"6+","altim":1013,"clouds":[{"cover":"SCT","base":2000},{"cover":"BKN","base":6000}],"obsTime":1782622800},"SBGL":{"icaoId":"SBGL","flightCategory":"IFR","rawOb":"METAR SBGL 280500Z 29002KT 3000 BR FEW008 BKN015 21/20 Q1021","temp":21,"dewp":20,"wdir":290,"wspd":2,"visib":1.86,"altim":1021,"clouds":[{"cover":"FEW","base":800},{"cover":"BKN","base":1500}],"obsTime":1782622800},"SBFL":{"icaoId":"SBFL","flightCategory":"VFR","rawOb":"METAR SBFL 280500Z 33008KT 9999 -SHRA FEW010 BKN100 17/16 Q1020","temp":17,"dewp":16,"wdir":330,"wspd":8,"visib":"6+","altim":1020,"clouds":[{"cover":"FEW","base":1000},{"cover":"BKN","base":10000}],"obsTime":1782622800},"SBVT":{"icaoId":"SBVT","flightCategory":"VFR","rawOb":"METAR SBVT 280500Z 34002KT 9999 FEW021 19/19 Q1022","temp":19,"dewp":19,"wdir":340,"wspd":2,"visib":"6+","altim":1022,"clouds":[{"cover":"FEW","base":2100}],"obsTime":1782622800},"SBPV":{"icaoId":"SBPV","flightCategory":"VFR","rawOb":"METAR SBPV 280500Z 20001KT 9999 FEW018 23/22 Q1014","temp":23,"dewp":22,"wdir":200,"wspd":1,"visib":"6+","altim":1014,"clouds":[{"cover":"FEW","base":1800}],"obsTime":1782622800},"SBGO":{"icaoId":"SBGO","flightCategory":"VFR","rawOb":"METAR SBGO 280500Z 11004KT 090V150 CAVOK 21/16 Q1021","temp":21,"dewp":16,"wdir":110,"wspd":4,"visib":"6+","altim":1021,"clouds":[],"obsTime":1782622800},"SBLO":{"icaoId":"SBLO","flightCategory":"VFR","rawOb":"METAR SBLO 280500Z 18003KT 150V210 CAVOK 18/17 Q1021","temp":18,"dewp":17,"wdir":180,"wspd":3,"visib":"6+","altim":1021,"clouds":[],"obsTime":1782622800},"SBNT":{"icaoId":"SBNT","flightCategory":"IFR","rawOb":"METAR SBNT 280500Z 17007KT 6000 -RA BKN008 SCT015 23/23 Q1015","temp":23,"dewp":23,"wdir":170,"wspd":7,"visib":3.73,"altim":1015,"clouds":[{"cover":"BKN","base":800},{"cover":"SCT","base":1500}],"obsTime":1782622800},"SBKP":{"icaoId":"SBKP","flightCategory":"VFR","rawOb":"METAR SBKP 280500Z 12005KT CAVOK 17/15 Q1023","temp":17,"dewp":15,"wdir":120,"wspd":5,"visib":"6+","altim":1023,"clouds":[],"obsTime":1782622800},"SBMA":{"icaoId":"SBMA","flightCategory":"VFR","rawOb":"METAR SBMA 280500Z 00000KT 9999 SCT020 BKN080 26/22 Q1014","temp":26,"dewp":22,"wdir":0,"wspd":0,"visib":"6+","altim":1014,"clouds":[{"cover":"SCT","base":2000},{"cover":"BKN","base":8000}],"obsTime":1782622800},"SBRF":{"icaoId":"SBRF","flightCategory":"VFR","rawOb":"METAR SBRF 280500Z 14011KT 9999 FEW020 BKN050 26/20 Q1015","temp":26,"dewp":20,"wdir":140,"wspd":11,"visib":"6+","altim":1015,"clouds":[{"cover":"FEW","base":2000},{"cover":"BKN","base":5000}],"obsTime":1782622800},"SBTE":{"icaoId":"SBTE","flightCategory":"VFR","rawOb":"METAR SBTE 280500Z 16004KT 9999 -RA FEW008 SCT040 BKN070 24/22 Q1014","temp":24,"dewp":22,"wdir":160,"wspd":4,"visib":"6+","altim":1014,"clouds":[{"cover":"FEW","base":800},{"cover":"SCT","base":4000},{"cover":"BKN","base":7000}],"obsTime":1782622800},"SBPA":{"icaoId":"SBPA","flightCategory":"VFR","rawOb":"METAR SBPA 280500Z 07006KT 9000 -RA FEW030TCU SCT035 BKN100 14/12 Q1016","temp":14,"dewp":12,"wdir":70,"wspd":6,"visib":5.59,"altim":1016,"clouds":[{"cover":"FEW","base":3000},{"cover":"SCT","base":3500},{"cover":"BKN","base":10000}],"obsTime":1782622800},"SBBV":{"icaoId":"SBBV","flightCategory":"VFR","rawOb":"METAR SBBV 280500Z 32002KT 9999 FEW030 BKN100 25/24 Q1014","temp":25,"dewp":24,"wdir":320,"wspd":2,"visib":"6+","altim":1014,"clouds":[{"cover":"FEW","base":3000},{"cover":"BKN","base":10000}],"obsTime":1782622800},"SBPS":{"icaoId":"SBPS","flightCategory":"VFR","rawOb":"METAR SBPS 280500Z 23002KT 9999 FEW025 BKN050 22/20 Q1021","temp":22,"dewp":20,"wdir":230,"wspd":2,"visib":"6+","altim":1021,"clouds":[{"cover":"FEW","base":2500},{"cover":"BKN","base":5000}],"obsTime":1782622800},"SBDN":{"icaoId":"SBDN","flightCategory":"VFR","rawOb":"METAR SBDN 280500Z 13006KT CAVOK 19/16 Q1019","temp":19,"dewp":16,"wdir":130,"wspd":6,"visib":"6+","altim":1019,"clouds":[],"obsTime":1782622800},"SBIP":{"icaoId":"SBIP","flightCategory":"VFR","rawOb":"METAR SBIP 280500Z AUTO 00000KT 9000 FEW041 17/17 Q1023","temp":17,"dewp":17,"wdir":0,"wspd":0,"visib":5.59,"altim":1023,"clouds":[{"cover":"FEW","base":4100}],"obsTime":1782622800},"SBAX":{"icaoId":"SBAX","flightCategory":"VFR","rawOb":"METAR SBAX 280500Z AUTO 09003KT CAVOK 16/14 Q1024","temp":16,"dewp":14,"wdir":90,"wspd":3,"visib":"6+","altim":1024,"clouds":[],"obsTime":1782622800},"SBSC":{"icaoId":"SBSC","flightCategory":"MVFR","rawOb":"METAR SBSC 280500Z 01005KT 5000 BR SCT005 SCT025 18/17 Q1021","temp":18,"dewp":17,"wdir":10,"wspd":5,"visib":3.11,"altim":1021,"clouds":[{"cover":"SCT","base":500},{"cover":"SCT","base":2500}],"obsTime":1782622800},"SBOI":{"icaoId":"SBOI","flightCategory":"VFR","rawOb":"METAR SBOI 280500Z AUTO VRB02KT 9000 -RA FEW003 BKN043 24/24 Q1013 RERA","temp":24,"dewp":24,"wdir":"VRB","wspd":2,"visib":5.59,"altim":1013,"clouds":[{"cover":"FEW","base":300},{"cover":"BKN","base":4300}],"obsTime":1782622800},"SBSR":{"icaoId":"SBSR","flightCategory":"VFR","rawOb":"METAR SBSR 280500Z 12004KT CAVOK 20/16 Q1021","temp":20,"dewp":16,"wdir":120,"wspd":4,"visib":"6+","altim":1021,"clouds":[],"obsTime":1782622800},"SBPL":{"icaoId":"SBPL","flightCategory":"VFR","rawOb":"METAR SBPL 280500Z 12010KT 9999 FEW025 23/18 Q1018","temp":23,"dewp":18,"wdir":120,"wspd":10,"visib":"6+","altim":1018,"clouds":[{"cover":"FEW","base":2500}],"obsTime":1782622800},"SBKG":{"icaoId":"SBKG","flightCategory":"VFR","rawOb":"METAR SBKG 280500Z 14007KT 9999 FEW007 SCT070 21/20 Q1018","temp":21,"dewp":20,"wdir":140,"wspd":7,"visib":"6+","altim":1018,"clouds":[{"cover":"FEW","base":700},{"cover":"SCT","base":7000}],"obsTime":1782622800},"SBAR":{"icaoId":"SBAR","flightCategory":"VFR","rawOb":"METAR SBAR 280500Z 11007KT CAVOK 24/21 Q1017","temp":24,"dewp":21,"wdir":110,"wspd":7,"visib":"6+","altim":1017,"clouds":[],"obsTime":1782622800},"SBTU":{"icaoId":"SBTU","flightCategory":"VFR","rawOb":"METAR SBTU 280500Z AUTO 29002KT 9999 // SCT041/// ///// Q1015","temp":null,"dewp":null,"wdir":290,"wspd":2,"visib":"6+","altim":1015,"clouds":[{"cover":"SCT","base":4100}],"obsTime":1782622800},"SBNM":{"icaoId":"SBNM","flightCategory":"VFR","rawOb":"METAR SBNM 280500Z AUTO 08007KT 9999 -RA NSC 16/15 Q1015","temp":16,"dewp":15,"wdir":80,"wspd":7,"visib":"6+","altim":1015,"clouds":[],"obsTime":1782622800},"SBJP":{"icaoId":"SBJP","flightCategory":"VFR","rawOb":"METAR SBJP 280500Z 16005KT 9999 FEW025 BKN070 24/23 Q1015","temp":24,"dewp":23,"wdir":160,"wspd":5,"visib":"6+","altim":1015,"clouds":[{"cover":"FEW","base":2500},{"cover":"BKN","base":7000}],"obsTime":1782622800},"SBLE":{"icaoId":"SBLE","flightCategory":"LIFR","rawOb":"METAR SBLE 280500Z AUTO VRB02KT 9999 OVC002 ///// Q////","temp":null,"dewp":null,"wdir":"VRB","wspd":2,"visib":"6+","altim":null,"clouds":[{"cover":"OVC","base":200}],"obsTime":1782622800},"SBAN":{"icaoId":"SBAN","flightCategory":"VFR","rawOb":"METAR SBAN 280500Z 09006KT CAVOK 18/15 Q1024","temp":18,"dewp":15,"wdir":90,"wspd":6,"visib":"6+","altim":1024,"clouds":[],"obsTime":1782622800}}}