{"updated":1773709268,"count":63,"data":{"SBRB":{"icaoId":"SBRB","flightCategory":"VFR","rawOb":"METAR SBRB 170000Z 36002KT 9999 VCTS FEW030 FEW035CB SCT100 26/25 Q1007","temp":26,"dewp":25,"wdir":360,"wspd":2,"visib":"6+","altim":1007,"clouds":[{"cover":"FEW","base":3000},{"cover":"FEW","base":3500},{"cover":"SCT","base":10000}],"obsTime":1773705600},"SBBE":{"icaoId":"SBBE","flightCategory":"VFR","rawOb":"METAR SBBE 170000Z 03007KT 9999 FEW049 BKN100 26/25 Q1010","temp":26,"dewp":25,"wdir":30,"wspd":7,"visib":"6+","altim":1010,"clouds":[{"cover":"FEW","base":4900},{"cover":"BKN","base":10000}],"obsTime":1773705600},"SBBR":{"icaoId":"SBBR","flightCategory":"VFR","rawOb":"METAR SBBR 170000Z VRB02KT 9999 SCT040 SCT090 22/19 Q1017","temp":22,"dewp":19,"wdir":"VRB","wspd":2,"visib":"6+","altim":1017,"clouds":[{"cover":"SCT","base":4000},{"cover":"SCT","base":9000}],"obsTime":1773705600},"SBBV":{"icaoId":"SBBV","flightCategory":"VFR","rawOb":"METAR SBBV 170000Z 08010KT 9999 FEW045 31/22 Q1008","temp":31,"dewp":22,"wdir":80,"wspd":10,"visib":"6+","altim":1008,"clouds":[{"cover":"FEW","base":4500}],"obsTime":1773705600},"SBCF":{"icaoId":"SBCF","flightCategory":"VFR","rawOb":"METAR SBCF 170000Z 08003KT 020V110 9999 FEW045 25/18 Q1017","temp":25,"dewp":18,"wdir":80,"wspd":3,"visib":"6+","altim":1017,"clouds":[{"cover":"FEW","base":4500}],"obsTime":1773705600},"SBCG":{"icaoId":"SBCG","flightCategory":"VFR","rawOb":"METAR SBCG 170000Z 08007KT CAVOK 24/22 Q1011","temp":24,"dewp":22,"wdir":80,"wspd":7,"visib":"6+","altim":1011,"clouds":[],"obsTime":1773705600},"SBCT":{"icaoId":"SBCT","flightCategory":"IFR","rawOb":"SPECI SBCT 162318Z 10004KT 9999 BKN009 21/20 Q1017","temp":21,"dewp":20,"wdir":100,"wspd":4,"visib":"6+","altim":1017,"clouds":[{"cover":"BKN","base":900}],"obsTime":1773703080},"SBEG":{"icaoId":"SBEG","flightCategory":"VFR","rawOb":"METAR SBEG 170000Z 08004KT CAVOK 26/24 Q1008","temp":26,"dewp":24,"wdir":80,"wspd":4,"visib":"6+","altim":1008,"clouds":[],"obsTime":1773705600},"SBFI":{"icaoId":"SBFI","flightCategory":"VFR","rawOb":"METAR SBFI 170000Z 09002KT 9999 FEW006 BKN100 21/21 Q1009","temp":21,"dewp":21,"wdir":90,"wspd":2,"visib":"6+","altim":1009,"clouds":[{"cover":"FEW","base":600},{"cover":"BKN","base":10000}],"obsTime":1773705600},"SBFL":{"icaoId":"SBFL","flightCategory":"VFR","rawOb":"METAR SBFL 170000Z 06005KT 9999 SCT030 27/23 Q1012","temp":27,"dewp":23,"wdir":60,"wspd":5,"visib":"6+","altim":1012,"clouds":[{"cover":"SCT","base":3000}],"obsTime":1773705600},"SBFZ":{"icaoId":"SBFZ","flightCategory":"VFR","rawOb":"METAR SBFZ 170000Z 08003KT 9999 FEW022 28/24 Q1011","temp":28,"dewp":24,"wdir":80,"wspd":3,"visib":"6+","altim":1011,"clouds":[{"cover":"FEW","base":2200}],"obsTime":1773705600},"SBGL":{"icaoId":"SBGL","flightCategory":"VFR","rawOb":"METAR SBGL 170000Z 09007KT CAVOK 25/20 Q1013","temp":25,"dewp":20,"wdir":90,"wspd":7,"visib":"6+","altim":1013,"clouds":[],"obsTime":1773705600},"SBGO":{"icaoId":"SBGO","flightCategory":"VFR","rawOb":"SPECI SBGO 162342Z 25008KT 200V290 9999 4700N RA FEW020 BKN035 FEW045TCU BKN090 24/21 Q1015","temp":24,"dewp":21,"wdir":250,"wspd":8,"visib":"6+","altim":1015,"clouds":[{"cover":"FEW","base":2000},{"cover":"BKN","base":3500},{"cover":"FEW","base":4500},{"cover":"BKN","base":9000}],"obsTime":1773704520},"SBGR":{"icaoId":"SBGR","flightCategory":"VFR","rawOb":"METAR SBGR 170000Z 09004KT CAVOK 23/19 Q1017","temp":23,"dewp":19,"wdir":90,"wspd":4,"visib":"6+","altim":1017,"clouds":[],"obsTime":1773705600},"SBKP":{"icaoId":"SBKP","flightCategory":"VFR","rawOb":"METAR SBKP 170000Z 13010KT CAVOK 26/18 Q1015","temp":26,"dewp":18,"wdir":130,"wspd":10,"visib":"6+","altim":1015,"clouds":[],"obsTime":1773705600},"SBLO":{"icaoId":"SBLO","flightCategory":"VFR","rawOb":"METAR SBLO 170000Z 01004KT CAVOK 29/16 Q1013","temp":29,"dewp":16,"wdir":10,"wspd":4,"visib":"6+","altim":1013,"clouds":[],"obsTime":1773705600},"SBMA":{"icaoId":"SBMA","flightCategory":"VFR","rawOb":"METAR SBMA 170000Z 14004KT 9999 VCTS FEW020CB 28/25 Q1009","temp":28,"dewp":25,"wdir":140,"wspd":4,"visib":"6+","altim":1009,"clouds":[{"cover":"FEW","base":2000}],"obsTime":1773705600},"SBMO":{"icaoId":"SBMO","flightCategory":"VFR","rawOb":"METAR SBMO 170000Z 02004KT CAVOK 25/24 Q1012","temp":25,"dewp":24,"wdir":20,"wspd":4,"visib":"6+","altim":1012,"clouds":[],"obsTime":1773705600},"SBPA":{"icaoId":"SBPA","flightCategory":"VFR","rawOb":"METAR SBPA 170000Z 11013KT CAVOK 26/23 Q1010","temp":26,"dewp":23,"wdir":110,"wspd":13,"visib":"6+","altim":1010,"clouds":[],"obsTime":1773705600},"SBPV":{"icaoId":"SBPV","flightCategory":"VFR","rawOb":"METAR SBPV 170000Z 00000KT 9999 VCTS SCT035 FEW040CB 26/24 Q1007","temp":26,"dewp":24,"wdir":0,"wspd":0,"visib":"6+","altim":1007,"clouds":[{"cover":"SCT","base":3500},{"cover":"FEW","base":4000}],"obsTime":1773705600},"SBRF":{"icaoId":"SBRF","flightCategory":"VFR","rawOb":"METAR SBRF 170000Z 07004KT 9999 SCT025 29/24 Q1012","temp":29,"dewp":24,"wdir":70,"wspd":4,"visib":"6+","altim":1012,"clouds":[{"cover":"SCT","base":2500}],"obsTime":1773705600},"SBSG":{"icaoId":"SBSG","flightCategory":"VFR","rawOb":"METAR SBSG 170000Z 06005KT 9999 FEW025 28/24 Q1012","temp":28,"dewp":24,"wdir":60,"wspd":5,"visib":"6+","altim":1012,"clouds":[{"cover":"FEW","base":2500}],"obsTime":1773705600},"SBSL":{"icaoId":"SBSL","flightCategory":"VFR","rawOb":"METAR SBSL 170000Z 07004KT 9999 FEW017 FEW025TCU BKN080 26/24 Q1010","temp":26,"dewp":24,"wdir":70,"wspd":4,"visib":"6+","altim":1010,"clouds":[{"cover":"FEW","base":1700},{"cover":"FEW","base":2500},{"cover":"BKN","base":8000}],"obsTime":1773705600},"SBSN":{"icaoId":"SBSN","flightCategory":"VFR","rawOb":"METAR SBSN 170000Z 10006KT 9999 FEW020 28/26 Q1009","temp":28,"dewp":26,"wdir":100,"wspd":6,"visib":"6+","altim":1009,"clouds":[{"cover":"FEW","base":2000}],"obsTime":1773705600},"SBSV":{"icaoId":"SBSV","flightCategory":"VFR","rawOb":"METAR SBSV 170000Z 08007KT 9999 FEW023 27/22 Q1012","temp":27,"dewp":22,"wdir":80,"wspd":7,"visib":"6+","altim":1012,"clouds":[{"cover":"FEW","base":2300}],"obsTime":1773705600},"SBVT":{"icaoId":"SBVT","flightCategory":"VFR","rawOb":"METAR SBVT 170000Z 13004KT 9999 FEW027 26/22 Q1014","temp":26,"dewp":22,"wdir":130,"wspd":4,"visib":"6+","altim":1014,"clouds":[{"cover":"FEW","base":2700}],"obsTime":1773705600},"SBMQ":{"icaoId":"SBMQ","flightCategory":"MVFR","rawOb":"METAR SBMQ 170000Z 01006KT 5000 -RA SCT008 OVC020 26/26 Q1010 RERA","temp":26,"dewp":26,"wdir":10,"wspd":6,"visib":3.11,"altim":1010,"clouds":[{"cover":"SCT","base":800},{"cover":"OVC","base":2000}],"obsTime":1773705600},"SBIL":{"icaoId":"SBIL","flightCategory":"VFR","rawOb":"METAR SBIL 170000Z 10007KT CAVOK 28/24 Q1012","temp":28,"dewp":24,"wdir":100,"wspd":7,"visib":"6+","altim":1012,"clouds":[],"obsTime":1773705600},"SBJU":{"icaoId":"SBJU","flightCategory":"VFR","rawOb":"METAR SBJU 170000Z 00000KT 9999 SCT020 26/23 Q1013","temp":26,"dewp":23,"wdir":0,"wspd":0,"visib":"6+","altim":1013,"clouds":[{"cover":"SCT","base":2000}],"obsTime":1773705600},"SBUL":{"icaoId":"SBUL","flightCategory":"VFR","rawOb":"METAR SBUL 170000Z 02003KT 9999 SCT045 SCT100 23/20 Q1017","temp":23,"dewp":20,"wdir":20,"wspd":3,"visib":"6+","altim":1017,"clouds":[{"cover":"SCT","base":4500},{"cover":"SCT","base":10000}],"obsTime":1773705600},"SBME":{"icaoId":"SBME","flightCategory":"VFR","rawOb":"METAR SBME 170000Z VRB02KT 9999 FEW017 24/21 Q1014","temp":24,"dewp":21,"wdir":"VRB","wspd":2,"visib":"6+","altim":1014,"clouds":[{"cover":"FEW","base":1700}],"obsTime":1773705600},"SBMG":{"icaoId":"SBMG","flightCategory":"VFR","rawOb":"METAR SBMG 170000Z 03006KT CAVOK 28/17 Q1012","temp":28,"dewp":17,"wdir":30,"wspd":6,"visib":"6+","altim":1012,"clouds":[],"obsTime":1773705600},"SBMK":{"icaoId":"SBMK","flightCategory":"VFR","rawOb":"METAR SBMK 170000Z 09002KT 9999 FEW040 SCT100 22/21 Q1016","temp":22,"dewp":21,"wdir":90,"wspd":2,"visib":"6+","altim":1016,"clouds":[{"cover":"FEW","base":4000},{"cover":"SCT","base":10000}],"obsTime":1773705600},"SBUR":{"icaoId":"SBUR","flightCategory":"VFR","rawOb":"METAR SBUR 170000Z 33005KT 9999 -TSRA BKN035 FEW049CB 22/21 Q1015","temp":22,"dewp":21,"wdir":330,"wspd":5,"visib":"6+","altim":1015,"clouds":[{"cover":"BKN","base":3500},{"cover":"FEW","base":4900}],"obsTime":1773705600},"SBNT":{"icaoId":"SBNT","flightCategory":"VFR","rawOb":"METAR SBNT 170000Z 09004KT 070V130 9999 SCT022 28/24 Q1012","temp":28,"dewp":24,"wdir":90,"wspd":4,"visib":"6+","altim":1012,"clouds":[{"cover":"SCT","base":2200}],"obsTime":1773705600},"SBSP":{"icaoId":"SBSP","flightCategory":"VFR","rawOb":"METAR SBSP 170000Z 13006KT 090V160 CAVOK 21/19 Q1018","temp":21,"dewp":19,"wdir":130,"wspd":6,"visib":"6+","altim":1018,"clouds":[],"obsTime":1773705600},"SBPJ":{"icaoId":"SBPJ","flightCategory":"VFR","rawOb":"METAR SBPJ 170000Z 19004KT 090V210 9999 FEW032 25/23 Q1011","temp":25,"dewp":23,"wdir":190,"wspd":4,"visib":"6+","altim":1011,"clouds":[{"cover":"FEW","base":3200}],"obsTime":1773705600},"SBCZ":{"icaoId":"SBCZ","flightCategory":"VFR","rawOb":"METAR SBCZ 170000Z 00000KT CAVOK 27/24 Q1007","temp":27,"dewp":24,"wdir":0,"wspd":0,"visib":"6+","altim":1007,"clouds":[],"obsTime":1773705600},"SBTE":{"icaoId":"SBTE","flightCategory":"VFR","rawOb":"METAR SBTE 170000Z 09005KT 9999 TS SCT020 FEW025CB BKN100 26/24 Q1012","temp":26,"dewp":24,"wdir":90,"wspd":5,"visib":"6+","altim":1012,"clouds":[{"cover":"SCT","base":2000},{"cover":"FEW","base":2500},{"cover":"BKN","base":10000}],"obsTime":1773705600},"SBAR":{"icaoId":"SBAR","flightCategory":"VFR","rawOb":"METAR SBAR 170000Z 10009KT 9999 FEW023 28/23 Q1012","temp":28,"dewp":23,"wdir":100,"wspd":9,"visib":"6+","altim":1012,"clouds":[{"cover":"FEW","base":2300}],"obsTime":1773705600},"SBSJ":{"icaoId":"SBSJ","flightCategory":"VFR","rawOb":"METAR SBSJ 170000Z 13006KT 110V180 CAVOK 22/18 Q1016","temp":22,"dewp":18,"wdir":130,"wspd":6,"visib":"6+","altim":1016,"clouds":[],"obsTime":1773705600},"SBPL":{"icaoId":"SBPL","flightCategory":"VFR","rawOb":"METAR SBPL 170000Z 00000KT CAVOK 26/19 Q1012","temp":26,"dewp":19,"wdir":0,"wspd":0,"visib":"6+","altim":1012,"clouds":[],"obsTime":1773705600},"SBPS":{"icaoId":"SBPS","flightCategory":"VFR","rawOb":"METAR SBPS 170000Z 04004KT 9999 FEW025 26/24 Q1013","temp":26,"dewp":24,"wdir":40,"wspd":4,"visib":"6+","altim":1013,"clouds":[{"cover":"FEW","base":2500}],"obsTime":1773705600},"SBOI":{"icaoId":"SBOI","flightCategory":"VFR","rawOb":"METAR SBOI 170000Z AUTO 02006KT 9999 BKN047 25/23 Q1012","temp":25,"dewp":23,"wdir":20,"wspd":6,"visib":"6+","altim":1012,"clouds":[{"cover":"BKN","base":4700}],"obsTime":1773705600},"SBCO":{"icaoId":"SBCO","flightCategory":"VFR","rawOb":"METAR SBCO 170000Z 11012KT CAVOK 25/23 Q1011","temp":25,"dewp":23,"wdir":110,"wspd":12,"visib":"6+","altim":1011,"clouds":[],"obsTime":1773705600},"SBDN":{"icaoId":"SBDN","flightCategory":"VFR","rawOb":"METAR SBDN 170000Z 09004KT CAVOK 28/19 Q1012","temp":28,"dewp":19,"wdir":90,"wspd":4,"visib":"6+","altim":1012,"clouds":[],"obsTime":1773705600},"SBIP":{"icaoId":"SBIP","flightCategory":"VFR","rawOb":"METAR SBIP 170000Z AUTO VRB01KT CAVOK 23/23 Q1013","temp":23,"dewp":23,"wdir":"VRB","wspd":1,"visib":"6+","altim":1013,"clouds":[],"obsTime":1773705600},"SBKG":{"icaoId":"SBKG","flightCategory":"VFR","rawOb":"METAR SBKG 170000Z 07009KT 9999 FEW012 24/21 Q1014","temp":24,"dewp":21,"wdir":70,"wspd":9,"visib":"6+","altim":1014,"clouds":[{"cover":"FEW","base":1200}],"obsTime":1773705600},"SBSC":{"icaoId":"SBSC","flightCategory":"VFR","rawOb":"METAR SBSC 170000Z 23003KT CAVOK 25/23 Q1013","temp":25,"dewp":23,"wdir":230,"wspd":3,"visib":"6+","altim":1013,"clouds":[],"obsTime":1773705600},"SBSM":{"icaoId":"SBSM","flightCategory":"VFR","rawOb":"METAR SBSM 170000Z VRB04KT 9999 FEW040 FEW045TCU SCT070 24/20 Q1010","temp":24,"dewp":20,"wdir":"VRB","wspd":4,"visib":"6+","altim":1010,"clouds":[{"cover":"FEW","base":4000},{"cover":"FEW","base":4500},{"cover":"SCT","base":7000}],"obsTime":1773705600},"SBSR":{"icaoId":"SBSR","flightCategory":"VFR","rawOb":"METAR SBSR 170000Z 18002KT 9999 FEW040 28/20 Q1012","temp":28,"dewp":20,"wdir":180,"wspd":2,"visib":"6+","altim":1012,"clouds":[{"cover":"FEW","base":4000}],"obsTime":1773705600},"SBAX":{"icaoId":"SBAX","flightCategory":"VFR","rawOb":"METAR SBAX 170000Z 04004KT CAVOK 22/22 Q1017","temp":22,"dewp":22,"wdir":40,"wspd":4,"visib":"6+","altim":1017,"clouds":[],"obsTime":1773705600},"SBBH":{"icaoId":"SBBH","flightCategory":"VFR","rawOb":"METAR SBBH 170000Z 10005KT CAVOK 25/19 Q1016","temp":25,"dewp":19,"wdir":100,"wspd":5,"visib":"6+","altim":1016,"clouds":[],"obsTime":1773705600},"SBBU":{"icaoId":"SBBU","flightCategory":"VFR","rawOb":"METAR SBBU 170000Z 16006KT CAVOK 28/19 Q1013","temp":28,"dewp":19,"wdir":160,"wspd":6,"visib":"6+","altim":1013,"clouds":[],"obsTime":1773705600},"SBCA":{"icaoId":"SBCA","flightCategory":"VFR","rawOb":"METAR SBCA 170000Z 12005KT 9999 SCT040 FEW050TCU BKN100 25/20 Q1013","temp":25,"dewp":20,"wdir":120,"wspd":5,"visib":"6+","altim":1013,"clouds":[{"cover":"SCT","base":4000},{"cover":"FEW","base":5000},{"cover":"BKN","base":10000}],"obsTime":1773705600},"SBJP":{"icaoId":"SBJP","flightCategory":"VFR","rawOb":"METAR SBJP 170000Z 08004KT 9999 FEW020 27/24 Q1012","temp":27,"dewp":24,"wdir":80,"wspd":4,"visib":"6+","altim":1012,"clouds":[{"cover":"FEW","base":2000}],"obsTime":1773705600},"SBJR":{"icaoId":"SBJR","flightCategory":"VFR","rawOb":"METAR SBJR 170000Z 29002KT CAVOK 25/23 Q1013","temp":25,"dewp":23,"wdir":290,"wspd":2,"visib":"6+","altim":1013,"clouds":[],"obsTime":1773705600},"SBJV":{"icaoId":"SBJV","flightCategory":"MVFR","rawOb":"METAR SBJV 170000Z 05003KT 350V080 9999 SCT010 BKN020 27/25 Q1013","temp":27,"dewp":25,"wdir":50,"wspd":3,"visib":"6+","altim":1013,"clouds":[{"cover":"SCT","base":1000},{"cover":"BKN","base":2000}],"obsTime":1773705600},"SBLE":{"icaoId":"SBLE","flightCategory":"VFR","rawOb":"METAR SBLE 170000Z AUTO 03004KT CAVOK 23/19 Q1014","temp":23,"dewp":19,"wdir":30,"wspd":4,"visib":"6+","altim":1014,"clouds":[],"obsTime":1773705600},"SBLS":{"icaoId":"SBLS","flightCategory":"VFR","rawOb":"METAR SBLS 170000Z 15005KT 9999 FEW045 24/20 Q1016","temp":24,"dewp":20,"wdir":150,"wspd":5,"visib":"6+","altim":1016,"clouds":[{"cover":"FEW","base":4500}],"obsTime":1773705600},"SBMT":{"icaoId":"SBMT","flightCategory":"VFR","rawOb":"METAR SBMT 170000Z 12004KT CAVOK 23/17 Q1017","temp":23,"dewp":17,"wdir":120,"wspd":4,"visib":"6+","altim":1017,"clouds":[],"obsTime":1773705600},"SBAN":{"icaoId":"SBAN","flightCategory":"VFR","rawOb":"METAR SBAN 170000Z 15003KT 110V210 9999 VCSH VCTS FEW035 FEW040CB SCT080 22/20 Q1018","temp":22,"dewp":20,"wdir":150,"wspd":3,"visib":"6+","altim":1018,"clouds":[{"cover":"FEW","base":3500},{"cover":"FEW","base":4000},{"cover":"SCT","base":8000}],"obsTime":1773705600},"SBTA":{"icaoId":"SBTA","flightCategory":"VFR","rawOb":"METAR SBTA 170000Z VRB02KT CAVOK 23/16 Q1015","temp":23,"dewp":16,"wdir":"VRB","wspd":2,"visib":"6+","altim":1015,"clouds":[],"obsTime":1773705600}}}