{"updated":1782157884,"count":87,"data":{"SBCT":{"icaoId":"SBCT","flightCategory":"VFR","rawOb":"METAR SBCT 221800Z 35014KT 9999 FEW020 SCT035 BKN100 21/14 Q1013","temp":21,"dewp":14,"wdir":350,"wspd":14,"visib":"6+","altim":1013,"clouds":[{"cover":"FEW","base":2000},{"cover":"SCT","base":3500},{"cover":"BKN","base":10000}],"obsTime":1782151200},"SBRF":{"icaoId":"SBRF","flightCategory":"IFR","rawOb":"METAR SBRF 221800Z 08005KT 040V110 4000 BR SCT008 BKN015 BKN050 24/24 Q1014","temp":24,"dewp":24,"wdir":80,"wspd":5,"visib":2.49,"altim":1014,"clouds":[{"cover":"SCT","base":800},{"cover":"BKN","base":1500},{"cover":"BKN","base":5000}],"obsTime":1782151200},"SBBE":{"icaoId":"SBBE","flightCategory":"VFR","rawOb":"METAR SBBE 221800Z 13005KT 9999 BKN040 FEW045TCU 32/24 Q1011","temp":32,"dewp":24,"wdir":130,"wspd":5,"visib":"6+","altim":1011,"clouds":[{"cover":"BKN","base":4000},{"cover":"FEW","base":4500}],"obsTime":1782151200},"SBBR":{"icaoId":"SBBR","flightCategory":"VFR","rawOb":"METAR SBBR 221800Z VRB03KT 9999 FEW040 26/13 Q1020","temp":26,"dewp":13,"wdir":"VRB","wspd":3,"visib":"6+","altim":1020,"clouds":[{"cover":"FEW","base":4000}],"obsTime":1782151200},"SBRB":{"icaoId":"SBRB","flightCategory":"VFR","rawOb":"METAR SBRB 221800Z 36007KT 9999 BKN040 33/23 Q1013","temp":33,"dewp":23,"wdir":360,"wspd":7,"visib":"6+","altim":1013,"clouds":[{"cover":"BKN","base":4000}],"obsTime":1782151200},"SBAT":{"icaoId":"SBAT","flightCategory":"VFR","rawOb":"METAR SBAT 221800Z 09005KT 9999 BKN035 FEW040TCU 35/22 Q1013","temp":35,"dewp":22,"wdir":90,"wspd":5,"visib":"6+","altim":1013,"clouds":[{"cover":"BKN","base":3500},{"cover":"FEW","base":4000}],"obsTime":1782151200},"SBBV":{"icaoId":"SBBV","flightCategory":"VFR","rawOb":"METAR SBBV 221800Z 08010KT 9999 BKN035 FEW040TCU 32/22 Q1011","temp":32,"dewp":22,"wdir":80,"wspd":10,"visib":"6+","altim":1011,"clouds":[{"cover":"BKN","base":3500},{"cover":"FEW","base":4000}],"obsTime":1782151200},"SBCB":{"icaoId":"SBCB","flightCategory":"VFR","rawOb":"METAR SBCB 221800Z /////KT CAVOK 26/19 Q1015","temp":26,"dewp":19,"wdir":null,"wspd":null,"visib":"6+","altim":1015,"clouds":[],"obsTime":1782151200},"SBCF":{"icaoId":"SBCF","flightCategory":"VFR","rawOb":"METAR SBCF 221800Z 18001KT 9999 SCT048 24/12 Q1020","temp":24,"dewp":12,"wdir":180,"wspd":1,"visib":"6+","altim":1020,"clouds":[{"cover":"SCT","base":4800}],"obsTime":1782151200},"SBCG":{"icaoId":"SBCG","flightCategory":"MVFR","rawOb":"METAR SBCG 221800Z 29011KT 9999 VCSH BKN025 FEW040TCU BKN100 24/21 Q1014 RESHRA","temp":24,"dewp":21,"wdir":290,"wspd":11,"visib":"6+","altim":1014,"clouds":[{"cover":"BKN","base":2500},{"cover":"FEW","base":4000},{"cover":"BKN","base":10000}],"obsTime":1782151200},"SBCP":{"icaoId":"SBCP","flightCategory":"VFR","rawOb":"METAR SBCP 221800Z 08009KT 9999 FEW020 27/19 Q1015","temp":27,"dewp":19,"wdir":80,"wspd":9,"visib":"6+","altim":1015,"clouds":[{"cover":"FEW","base":2000}],"obsTime":1782151200},"SBCR":{"icaoId":"SBCR","flightCategory":"VFR","rawOb":"METAR SBCR 221800Z 24016KT 200V270 9999 SCT035 SCT080 26/17 Q1014","temp":26,"dewp":17,"wdir":240,"wspd":16,"visib":"6+","altim":1014,"clouds":[{"cover":"SCT","base":3500},{"cover":"SCT","base":8000}],"obsTime":1782151200},"SBCZ":{"icaoId":"SBCZ","flightCategory":"VFR","rawOb":"METAR SBCZ 221800Z 01007KT 320V050 9999 SCT033 32/22 Q1013","temp":32,"dewp":22,"wdir":10,"wspd":7,"visib":"6+","altim":1013,"clouds":[{"cover":"SCT","base":3300}],"obsTime":1782151200},"SBEG":{"icaoId":"SBEG","flightCategory":"VFR","rawOb":"METAR SBEG 221800Z VRB03KT 9999 SCT035 FEW040TCU 33/24 Q1011","temp":33,"dewp":24,"wdir":"VRB","wspd":3,"visib":"6+","altim":1011,"clouds":[{"cover":"SCT","base":3500},{"cover":"FEW","base":4000}],"obsTime":1782151200},"SBFI":{"icaoId":"SBFI","flightCategory":"MVFR","rawOb":"METAR SBFI 221800Z 23010KT 9999 BKN010 BKN080 15/14 Q1013","temp":15,"dewp":14,"wdir":230,"wspd":10,"visib":"6+","altim":1013,"clouds":[{"cover":"BKN","base":1000},{"cover":"BKN","base":8000}],"obsTime":1782151200},"SBFL":{"icaoId":"SBFL","flightCategory":"MVFR","rawOb":"METAR SBFL 221800Z 36014KT 9999 FEW015 BKN025 OVC060 19/16 Q1009","temp":19,"dewp":16,"wdir":360,"wspd":14,"visib":"6+","altim":1009,"clouds":[{"cover":"FEW","base":1500},{"cover":"BKN","base":2500},{"cover":"OVC","base":6000}],"obsTime":1782151200},"SBFZ":{"icaoId":"SBFZ","flightCategory":"VFR","rawOb":"METAR SBFZ 221800Z 10015KT 9999 FEW027 29/23 Q1012","temp":29,"dewp":23,"wdir":100,"wspd":15,"visib":"6+","altim":1012,"clouds":[{"cover":"FEW","base":2700}],"obsTime":1782151200},"SBGL":{"icaoId":"SBGL","flightCategory":"VFR","rawOb":"METAR SBGL 221800Z 04007KT CAVOK 26/18 Q1013","temp":26,"dewp":18,"wdir":40,"wspd":7,"visib":"6+","altim":1013,"clouds":[],"obsTime":1782151200},"SBGO":{"icaoId":"SBGO","flightCategory":"VFR","rawOb":"METAR SBGO 221800Z VRB04KT 9999 FEW045 30/14 Q1017","temp":30,"dewp":14,"wdir":"VRB","wspd":4,"visib":"6+","altim":1017,"clouds":[{"cover":"FEW","base":4500}],"obsTime":1782151200},"SBGR":{"icaoId":"SBGR","flightCategory":"VFR","rawOb":"METAR SBGR 221800Z 35010KT CAVOK 27/11 Q1015","temp":27,"dewp":11,"wdir":350,"wspd":10,"visib":"6+","altim":1015,"clouds":[],"obsTime":1782151200},"SBHT":{"icaoId":"SBHT","flightCategory":"MVFR","rawOb":"METAR SBHT 221800Z 11004KT 9999 BKN030 31/25 Q1011","temp":31,"dewp":25,"wdir":110,"wspd":4,"visib":"6+","altim":1011,"clouds":[{"cover":"BKN","base":3000}],"obsTime":1782151200},"SBIL":{"icaoId":"SBIL","flightCategory":"VFR","rawOb":"METAR SBIL 221800Z 16008KT 9999 FEW025 27/19 Q1017","temp":27,"dewp":19,"wdir":160,"wspd":8,"visib":"6+","altim":1017,"clouds":[{"cover":"FEW","base":2500}],"obsTime":1782151200},"SBJU":{"icaoId":"SBJU","flightCategory":"VFR","rawOb":"METAR SBJU 221800Z 21005KT 9999 SCT022 32/15 Q1014","temp":32,"dewp":15,"wdir":210,"wspd":5,"visib":"6+","altim":1014,"clouds":[{"cover":"SCT","base":2200}],"obsTime":1782151200},"SBKP":{"icaoId":"SBKP","flightCategory":"VFR","rawOb":"METAR SBKP 221800Z 35012KT CAVOK 28/10 Q1015","temp":28,"dewp":10,"wdir":350,"wspd":12,"visib":"6+","altim":1015,"clouds":[],"obsTime":1782151200},"SBLO":{"icaoId":"SBLO","flightCategory":"VFR","rawOb":"METAR SBLO 221800Z 02007KT 9999 FEW040 SCT090 20/18 Q1013","temp":20,"dewp":18,"wdir":20,"wspd":7,"visib":"6+","altim":1013,"clouds":[{"cover":"FEW","base":4000},{"cover":"SCT","base":9000}],"obsTime":1782151200},"SBMA":{"icaoId":"SBMA","flightCategory":"VFR","rawOb":"METAR SBMA 221800Z 35003KT 9999 SCT025 34/21 Q1011","temp":34,"dewp":21,"wdir":350,"wspd":3,"visib":"6+","altim":1011,"clouds":[{"cover":"SCT","base":2500}],"obsTime":1782151200},"SBME":{"icaoId":"SBME","flightCategory":"VFR","rawOb":"METAR SBME 221800Z 03011KT 9999 FEW040 28/18 Q1015","temp":28,"dewp":18,"wdir":30,"wspd":11,"visib":"6+","altim":1015,"clouds":[{"cover":"FEW","base":4000}],"obsTime":1782151200},"SBMG":{"icaoId":"SBMG","flightCategory":"VFR","rawOb":"METAR SBMG 221800Z 36012KT 310V020 9999 VCSH SCT030 SCT035 BKN100 22/19 Q1012","temp":22,"dewp":19,"wdir":360,"wspd":12,"visib":"6+","altim":1012,"clouds":[{"cover":"SCT","base":3000},{"cover":"SCT","base":3500},{"cover":"BKN","base":10000}],"obsTime":1782151200},"SBMK":{"icaoId":"SBMK","flightCategory":"VFR","rawOb":"METAR SBMK 221800Z 11004KT CAVOK 27/12 Q1018","temp":27,"dewp":12,"wdir":110,"wspd":4,"visib":"6+","altim":1018,"clouds":[],"obsTime":1782151200},"SBMO":{"icaoId":"SBMO","flightCategory":"MVFR","rawOb":"METAR SBMO 221800Z 12011KT 9999 4000NE -SHRA SCT012 BKN023 25/23 Q1015","temp":25,"dewp":23,"wdir":120,"wspd":11,"visib":"6+","altim":1015,"clouds":[{"cover":"SCT","base":1200},{"cover":"BKN","base":2300}],"obsTime":1782151200},"SBMQ":{"icaoId":"SBMQ","flightCategory":"VFR","rawOb":"METAR SBMQ 221800Z 06009KT 9999 SCT035 32/24 Q1011","temp":32,"dewp":24,"wdir":60,"wspd":9,"visib":"6+","altim":1011,"clouds":[{"cover":"SCT","base":3500}],"obsTime":1782151200},"SBNT":{"icaoId":"SBNT","flightCategory":"MVFR","rawOb":"METAR SBNT 221800Z 13014KT 9999 VCSH BKN027 FEW030TCU BKN050 29/22 Q1013","temp":29,"dewp":22,"wdir":130,"wspd":14,"visib":"6+","altim":1013,"clouds":[{"cover":"BKN","base":2700},{"cover":"FEW","base":3000},{"cover":"BKN","base":5000}],"obsTime":1782151200},"SBPA":{"icaoId":"SBPA","flightCategory":"IFR","rawOb":"METAR SBPA 221800Z 24008KT 3500 -DZ OVC005 12/12 Q1009","temp":12,"dewp":12,"wdir":240,"wspd":8,"visib":2.17,"altim":1009,"clouds":[{"cover":"OVC","base":500}],"obsTime":1782151200},"SBPJ":{"icaoId":"SBPJ","flightCategory":"VFR","rawOb":"METAR SBPJ 221800Z 02004KT 9999 FEW035 34/14 Q1013","temp":34,"dewp":14,"wdir":20,"wspd":4,"visib":"6+","altim":1013,"clouds":[{"cover":"FEW","base":3500}],"obsTime":1782151200},"SBPV":{"icaoId":"SBPV","flightCategory":"VFR","rawOb":"METAR SBPV 221800Z 34007KT 9999 VCSH SCT035 FEW040TCU 28/23 Q1012","temp":28,"dewp":23,"wdir":340,"wspd":7,"visib":"6+","altim":1012,"clouds":[{"cover":"SCT","base":3500},{"cover":"FEW","base":4000}],"obsTime":1782151200},"SBSG":{"icaoId":"SBSG","flightCategory":"MVFR","rawOb":"METAR SBSG 221800Z 17004KT 140V200 9999 VCSH BKN023 FEW030TCU BKN045 27/24 Q1013","temp":27,"dewp":24,"wdir":170,"wspd":4,"visib":"6+","altim":1013,"clouds":[{"cover":"BKN","base":2300},{"cover":"FEW","base":3000},{"cover":"BKN","base":4500}],"obsTime":1782151200},"SBSL":{"icaoId":"SBSL","flightCategory":"MVFR","rawOb":"METAR SBSL 221800Z 07011KT 9999 BKN027 30/25 Q1011","temp":30,"dewp":25,"wdir":70,"wspd":11,"visib":"6+","altim":1011,"clouds":[{"cover":"BKN","base":2700}],"obsTime":1782151200},"SBSN":{"icaoId":"SBSN","flightCategory":"VFR","rawOb":"METAR SBSN 221800Z 09009KT 9999 FEW020 FEW025TCU SCT100 30/24 Q1011","temp":30,"dewp":24,"wdir":90,"wspd":9,"visib":"6+","altim":1011,"clouds":[{"cover":"FEW","base":2000},{"cover":"FEW","base":2500},{"cover":"SCT","base":10000}],"obsTime":1782151200},"SBSP":{"icaoId":"SBSP","flightCategory":"VFR","rawOb":"METAR SBSP 221800Z 34011KT 300V030 CAVOK 26/10 Q1016","temp":26,"dewp":10,"wdir":340,"wspd":11,"visib":"6+","altim":1016,"clouds":[],"obsTime":1782151200},"SBSV":{"icaoId":"SBSV","flightCategory":"VFR","rawOb":"METAR SBSV 221800Z 16008KT 120V210 9999 FEW028 27/16 Q1016","temp":27,"dewp":16,"wdir":160,"wspd":8,"visib":"6+","altim":1016,"clouds":[{"cover":"FEW","base":2800}],"obsTime":1782151200},"SBTE":{"icaoId":"SBTE","flightCategory":"VFR","rawOb":"METAR SBTE 221800Z 20008KT 9999 SCT025 33/22 Q1011","temp":33,"dewp":22,"wdir":200,"wspd":8,"visib":"6+","altim":1011,"clouds":[{"cover":"SCT","base":2500}],"obsTime":1782151200},"SBUL":{"icaoId":"SBUL","flightCategory":"VFR","rawOb":"METAR SBUL 221800Z 05009KT 010V100 9999 FEW040 26/12 Q1019","temp":26,"dewp":12,"wdir":50,"wspd":9,"visib":"6+","altim":1019,"clouds":[{"cover":"FEW","base":4000}],"obsTime":1782151200},"SBUR":{"icaoId":"SBUR","flightCategory":"VFR","rawOb":"METAR SBUR 221800Z 33008KT CAVOK 28/11 Q1018","temp":28,"dewp":11,"wdir":330,"wspd":8,"visib":"6+","altim":1018,"clouds":[],"obsTime":1782151200},"SBVT":{"icaoId":"SBVT","flightCategory":"VFR","rawOb":"METAR SBVT 221800Z 11007KT 9999 FEW040 25/19 Q1017","temp":25,"dewp":19,"wdir":110,"wspd":7,"visib":"6+","altim":1017,"clouds":[{"cover":"FEW","base":4000}],"obsTime":1782151200},"SBPP":{"icaoId":"SBPP","flightCategory":"LIFR","rawOb":"METAR SBPP 221800Z 21017KT 0000 FG VV000 13/13 Q1015","temp":13,"dewp":13,"wdir":210,"wspd":17,"visib":0,"altim":1015,"clouds":[{"cover":"OVX","base":0}],"obsTime":1782151200},"SBAR":{"icaoId":"SBAR","flightCategory":"VFR","rawOb":"METAR SBAR 221800Z 16008KT 120V220 9999 FEW025 28/22 Q1015","temp":28,"dewp":22,"wdir":160,"wspd":8,"visib":"6+","altim":1015,"clouds":[{"cover":"FEW","base":2500}],"obsTime":1782151200},"SBPB":{"icaoId":"SBPB","flightCategory":"VFR","rawOb":"METAR SBPB 221800Z 06008KT 9999 FEW020 31/25 Q1011","temp":31,"dewp":25,"wdir":60,"wspd":8,"visib":"6+","altim":1011,"clouds":[{"cover":"FEW","base":2000}],"obsTime":1782151200},"SBCO":{"icaoId":"SBCO","flightCategory":"LIFR","rawOb":"METAR SBCO 221800Z 25008KT 3500 -DZ BR BKN003 OVC005 12/12 Q1010","temp":12,"dewp":12,"wdir":250,"wspd":8,"visib":2.17,"altim":1010,"clouds":[{"cover":"BKN","base":300},{"cover":"OVC","base":500}],"obsTime":1782151200},"SBPL":{"icaoId":"SBPL","flightCategory":"VFR","rawOb":"METAR SBPL 221800Z 08008KT 9999 FEW035 32/12 Q1014","temp":32,"dewp":12,"wdir":80,"wspd":8,"visib":"6+","altim":1014,"clouds":[{"cover":"FEW","base":3500}],"obsTime":1782151200},"SBOI":{"icaoId":"SBOI","flightCategory":"VFR","rawOb":"METAR SBOI 221800Z AUTO 24004KT 120V290 9999 FEW028 30/25 Q1011","temp":30,"dewp":25,"wdir":240,"wspd":4,"visib":"6+","altim":1011,"clouds":[{"cover":"FEW","base":2800}],"obsTime":1782151200},"SBCJ":{"icaoId":"SBCJ","flightCategory":"VFR","rawOb":"METAR SBCJ 221800Z 12007KT 9999 SCT020 29/20 Q1016","temp":29,"dewp":20,"wdir":120,"wspd":7,"visib":"6+","altim":1016,"clouds":[{"cover":"SCT","base":2000}],"obsTime":1782151200},"SBBU":{"icaoId":"SBBU","flightCategory":"VFR","rawOb":"METAR SBBU 221800Z 36013KT CAVOK 29/16 Q1014","temp":29,"dewp":16,"wdir":360,"wspd":13,"visib":"6+","altim":1014,"clouds":[],"obsTime":1782151200},"SBDN":{"icaoId":"SBDN","flightCategory":"VFR","rawOb":"METAR SBDN 221800Z 35008KT 9999 BKN040 25/18 Q1013","temp":25,"dewp":18,"wdir":350,"wspd":8,"visib":"6+","altim":1013,"clouds":[{"cover":"BKN","base":4000}],"obsTime":1782151200},"SBPS":{"icaoId":"SBPS","flightCategory":"VFR","rawOb":"METAR SBPS 221800Z 13005KT 9999 SCT025 BKN070 25/20 Q1017","temp":25,"dewp":20,"wdir":130,"wspd":5,"visib":"6+","altim":1017,"clouds":[{"cover":"SCT","base":2500},{"cover":"BKN","base":7000}],"obsTime":1782151200},"SBSC":{"icaoId":"SBSC","flightCategory":"VFR","rawOb":"METAR SBSC 221800Z 02007KT CAVOK 30/18 Q1013","temp":30,"dewp":18,"wdir":20,"wspd":7,"visib":"6+","altim":1013,"clouds":[],"obsTime":1782151200},"SBBH":{"icaoId":"SBBH","flightCategory":"VFR","rawOb":"METAR SBBH 221800Z 32002KT 9999 FEW048 25/12 Q1019","temp":25,"dewp":12,"wdir":320,"wspd":2,"visib":"6+","altim":1019,"clouds":[{"cover":"FEW","base":4800}],"obsTime":1782151200},"SBSJ":{"icaoId":"SBSJ","flightCategory":"VFR","rawOb":"METAR SBSJ 221800Z 06005KT 030V090 CAVOK 25/13 Q1015","temp":25,"dewp":13,"wdir":60,"wspd":5,"visib":"6+","altim":1015,"clouds":[],"obsTime":1782151200},"SBES":{"icaoId":"SBES","flightCategory":"VFR","rawOb":"METAR SBES 221800Z 05012KT 030V090 CAVOK 25/// Q1014","temp":null,"dewp":null,"wdir":50,"wspd":12,"visib":"6+","altim":1014,"clouds":[],"obsTime":1782151200},"SBSM":{"icaoId":"SBSM","flightCategory":"IFR","rawOb":"METAR SBSM 221800Z 26006KT 210V290 9999 -DZ BKN008 OVC030 11/11 Q1013","temp":11,"dewp":11,"wdir":260,"wspd":6,"visib":"6+","altim":1013,"clouds":[{"cover":"BKN","base":800},{"cover":"OVC","base":3000}],"obsTime":1782151200},"SBAX":{"icaoId":"SBAX","flightCategory":"VFR","rawOb":"METAR SBAX 221800Z 31006KT 9999 SCT035 26/10 Q1019","temp":26,"dewp":10,"wdir":310,"wspd":6,"visib":"6+","altim":1019,"clouds":[{"cover":"SCT","base":3500}],"obsTime":1782151200},"SBSR":{"icaoId":"SBSR","flightCategory":"VFR","rawOb":"METAR SBSR 221800Z 01009KT CAVOK 30/13 Q1015","temp":30,"dewp":13,"wdir":10,"wspd":9,"visib":"6+","altim":1015,"clouds":[],"obsTime":1782151200},"SBGM":{"icaoId":"SBGM","flightCategory":"VFR","rawOb":"METAR SBGM 221800Z 30005KT 9999 SCT040 33/21 Q1012","temp":33,"dewp":21,"wdir":300,"wspd":5,"visib":"6+","altim":1012,"clouds":[{"cover":"SCT","base":4000}],"obsTime":1782151200},"SBCA":{"icaoId":"SBCA","flightCategory":"LIFR","rawOb":"METAR SBCA 221800Z 23006KT 190V260 3000 -RA BKN001 SCT010 14/14 Q1014","temp":14,"dewp":14,"wdir":230,"wspd":6,"visib":1.86,"altim":1014,"clouds":[{"cover":"BKN","base":100},{"cover":"SCT","base":1000}],"obsTime":1782151200},"SBTF":{"icaoId":"SBTF","flightCategory":"VFR","rawOb":"METAR SBTF 221800Z 24002KT 9999 FEW020 33/25 Q1010","temp":33,"dewp":25,"wdir":240,"wspd":2,"visib":"6+","altim":1010,"clouds":[{"cover":"FEW","base":2000}],"obsTime":1782151200},"SBIP":{"icaoId":"SBIP","flightCategory":"VFR","rawOb":"METAR SBIP 221800Z AUTO 36003KT 320V050 CAVOK 27/15 Q1017","temp":27,"dewp":15,"wdir":360,"wspd":3,"visib":"6+","altim":1017,"clouds":[],"obsTime":1782151200},"SBTT":{"icaoId":"SBTT","flightCategory":"MVFR","rawOb":"METAR SBTT 221800Z 34004KT 9999 BKN015 31/24 Q1012","temp":31,"dewp":24,"wdir":340,"wspd":4,"visib":"6+","altim":1012,"clouds":[{"cover":"BKN","base":1500}],"obsTime":1782151200},"SBTU":{"icaoId":"SBTU","flightCategory":"VFR","rawOb":"METAR SBTU 221800Z AUTO VRB03KT 9999 // FEW038/// 32/22 Q1013","temp":32,"dewp":22,"wdir":"VRB","wspd":3,"visib":"6+","altim":1013,"clouds":[{"cover":"FEW","base":3800}],"obsTime":1782151200},"SBCC":{"icaoId":"SBCC","flightCategory":"MVFR","rawOb":"METAR SBCC 221800Z 06008KT 010V110 9999 BKN030 FEW035TCU 32/20 Q1014","temp":32,"dewp":20,"wdir":60,"wspd":8,"visib":"6+","altim":1014,"clouds":[{"cover":"BKN","base":3000},{"cover":"FEW","base":3500}],"obsTime":1782151200},"SBUY":{"icaoId":"SBUY","flightCategory":"VFR","rawOb":"METAR SBUY 221800Z 07002KT 9999 SCT030 SCT100 32/23 Q1010","temp":32,"dewp":23,"wdir":70,"wspd":2,"visib":"6+","altim":1010,"clouds":[{"cover":"SCT","base":3000},{"cover":"SCT","base":10000}],"obsTime":1782151200},"SBKG":{"icaoId":"SBKG","flightCategory":"VFR","rawOb":"METAR SBKG 221800Z 13008KT 9999 SCT023 27/21 Q1016","temp":27,"dewp":21,"wdir":130,"wspd":8,"visib":"6+","altim":1016,"clouds":[{"cover":"SCT","base":2300}],"obsTime":1782151200},"SBBQ":{"icaoId":"SBBQ","flightCategory":"VFR","rawOb":"METAR SBBQ 221800Z 29008KT CAVOK 23/10 Q1022","temp":23,"dewp":10,"wdir":290,"wspd":8,"visib":"6+","altim":1022,"clouds":[],"obsTime":1782151200},"SBVH":{"icaoId":"SBVH","flightCategory":"VFR","rawOb":"METAR SBVH 221800Z 05008KT 9999 SCT015 26/20 Q1016 RESHRA","temp":26,"dewp":20,"wdir":50,"wspd":8,"visib":"6+","altim":1016,"clouds":[{"cover":"SCT","base":1500}],"obsTime":1782151200},"SBAU":{"icaoId":"SBAU","flightCategory":"VFR","rawOb":"METAR SBAU 221800Z 36012KT CAVOK 31/15 Q1013","temp":31,"dewp":15,"wdir":360,"wspd":12,"visib":"6+","altim":1013,"clouds":[],"obsTime":1782151200},"SBAN":{"icaoId":"SBAN","flightCategory":"VFR","rawOb":"METAR SBAN 221800Z 16005KT 9999 BKN045 26/13 Q1021","temp":26,"dewp":13,"wdir":160,"wspd":5,"visib":"6+","altim":1021,"clouds":[{"cover":"BKN","base":4500}],"obsTime":1782151200},"SBLE":{"icaoId":"SBLE","flightCategory":"VFR","rawOb":"METAR SBLE 221800Z AUTO 13004KT 050V200 CAVOK 27/15 Q1017","temp":27,"dewp":15,"wdir":130,"wspd":4,"visib":"6+","altim":1017,"clouds":[],"obsTime":1782151200},"SBJV":{"icaoId":"SBJV","flightCategory":"VFR","rawOb":"METAR SBJV 221800Z 12004KT 9999 FEW030 BKN090 21/17 Q1008","temp":21,"dewp":17,"wdir":120,"wspd":4,"visib":"6+","altim":1008,"clouds":[{"cover":"FEW","base":3000},{"cover":"BKN","base":9000}],"obsTime":1782151200},"SBNM":{"icaoId":"SBNM","flightCategory":"MVFR","rawOb":"METAR SBNM 221800Z AUTO 25007KT 9999 BKN011 BKN018 BKN028 13/11 Q1013","temp":13,"dewp":11,"wdir":250,"wspd":7,"visib":"6+","altim":1013,"clouds":[{"cover":"BKN","base":1100},{"cover":"BKN","base":1800},{"cover":"BKN","base":2800}],"obsTime":1782151200},"SBPF":{"icaoId":"SBPF","flightCategory":"LIFR","rawOb":"METAR SBPF 221800Z 26012KT 5000 BR BKN002 BKN070 12/11 Q1011","temp":12,"dewp":11,"wdir":260,"wspd":12,"visib":3.11,"altim":1011,"clouds":[{"cover":"BKN","base":200},{"cover":"BKN","base":7000}],"obsTime":1782151200},"SBIH":{"icaoId":"SBIH","flightCategory":"VFR","rawOb":"METAR SBIH 221800Z 05012KT 9999 FEW020 FEW023TCU 33/24 Q1010","temp":33,"dewp":24,"wdir":50,"wspd":12,"visib":"6+","altim":1010,"clouds":[{"cover":"FEW","base":2000},{"cover":"FEW","base":2300}],"obsTime":1782151200},"SBAF":{"icaoId":"SBAF","flightCategory":"VFR","rawOb":"METAR SBAF 221800Z 04006KT CAVOK 28/18 Q1013","temp":28,"dewp":18,"wdir":40,"wspd":6,"visib":"6+","altim":1013,"clouds":[],"obsTime":1782151200},"SBGW":{"icaoId":"SBGW","flightCategory":"VFR","rawOb":"METAR SBGW 221800Z 03004KT 360V070 CAVOK 27/10 Q1015","temp":27,"dewp":10,"wdir":30,"wspd":4,"visib":"6+","altim":1015,"clouds":[],"obsTime":1782151200},"SBJR":{"icaoId":"SBJR","flightCategory":"VFR","rawOb":"METAR SBJR 221800Z 21002KT CAVOK 29/20 Q1013","temp":29,"dewp":20,"wdir":210,"wspd":2,"visib":"6+","altim":1013,"clouds":[],"obsTime":1782151200},"SBLS":{"icaoId":"SBLS","flightCategory":"VFR","rawOb":"METAR SBLS 221800Z VRB02KT 9999 SCT040 25/12 Q1019","temp":25,"dewp":12,"wdir":"VRB","wspd":2,"visib":"6+","altim":1019,"clouds":[{"cover":"SCT","base":4000}],"obsTime":1782151200},"SBMT":{"icaoId":"SBMT","flightCategory":"VFR","rawOb":"METAR SBMT 221800Z 33004KT CAVOK 26/09 Q1015","temp":26,"dewp":9,"wdir":330,"wspd":4,"visib":"6+","altim":1015,"clouds":[],"obsTime":1782151200},"SBST":{"icaoId":"SBST","flightCategory":"VFR","rawOb":"METAR SBST 221800Z 15005KT CAVOK 28/18 Q1010","temp":28,"dewp":18,"wdir":150,"wspd":5,"visib":"6+","altim":1010,"clouds":[],"obsTime":1782151200},"SBTA":{"icaoId":"SBTA","flightCategory":"VFR","rawOb":"METAR SBTA 221800Z 05006KT 020V090 CAVOK 27/13 Q1015","temp":27,"dewp":13,"wdir":50,"wspd":6,"visib":"6+","altim":1015,"clouds":[],"obsTime":1782151200},"SBJP":{"icaoId":"SBJP","flightCategory":"IFR","rawOb":"METAR SBJP 221800Z 14009KT 3000 -RA BKN009 BKN025 OVC070 25/24 Q1014","temp":25,"dewp":24,"wdir":140,"wspd":9,"visib":1.86,"altim":1014,"clouds":[{"cover":"BKN","base":900},{"cover":"BKN","base":2500},{"cover":"OVC","base":7000}],"obsTime":1782151200}}}