{"updated":1782424938,"count":83,"data":{"SBLO":{"icaoId":"SBLO","flightCategory":"VFR","rawOb":"METAR SBLO 252100Z 12007KT CAVOK 14/10 Q1024","temp":14,"dewp":10,"wdir":120,"wspd":7,"visib":"6+","altim":1024,"clouds":[],"obsTime":1782421200},"SBMA":{"icaoId":"SBMA","flightCategory":"VFR","rawOb":"METAR SBMA 252100Z 11003KT 9999 FEW020 33/19 Q1010","temp":33,"dewp":19,"wdir":110,"wspd":3,"visib":"6+","altim":1010,"clouds":[{"cover":"FEW","base":2000}],"obsTime":1782421200},"SBBR":{"icaoId":"SBBR","flightCategory":"VFR","rawOb":"METAR SBBR 252100Z 15006KT CAVOK 25/15 Q1023","temp":25,"dewp":15,"wdir":150,"wspd":6,"visib":"6+","altim":1023,"clouds":[],"obsTime":1782421200},"SBFL":{"icaoId":"SBFL","flightCategory":"VFR","rawOb":"METAR SBFL 252100Z 35006KT CAVOK 14/07 Q1025","temp":14,"dewp":7,"wdir":350,"wspd":6,"visib":"6+","altim":1025,"clouds":[],"obsTime":1782421200},"SBFZ":{"icaoId":"SBFZ","flightCategory":"VFR","rawOb":"METAR SBFZ 252100Z 10010KT 9999 FEW020 SCT060 28/22 Q1013","temp":28,"dewp":22,"wdir":100,"wspd":10,"visib":"6+","altim":1013,"clouds":[{"cover":"FEW","base":2000},{"cover":"SCT","base":6000}],"obsTime":1782421200},"SBBV":{"icaoId":"SBBV","flightCategory":"VFR","rawOb":"METAR SBBV 252100Z 13007KT 9999 SCT035 FEW040TCU 31/23 Q1010","temp":31,"dewp":23,"wdir":130,"wspd":7,"visib":"6+","altim":1010,"clouds":[{"cover":"SCT","base":3500},{"cover":"FEW","base":4000}],"obsTime":1782421200},"SBMO":{"icaoId":"SBMO","flightCategory":"LIFR","rawOb":"METAR SBMO 252100Z 20005KT 160V220 2500 +DZ BR BKN004 OVC007 22/22 Q1017","temp":22,"dewp":22,"wdir":200,"wspd":5,"visib":1.55,"altim":1017,"clouds":[{"cover":"BKN","base":400},{"cover":"OVC","base":700}],"obsTime":1782421200},"SBGL":{"icaoId":"SBGL","flightCategory":"IFR","rawOb":"METAR SBGL 252100Z 16005KT 130V190 3000 -RA BR SCT004 BKN011 OVC020 20/18 Q1024","temp":20,"dewp":18,"wdir":160,"wspd":5,"visib":1.86,"altim":1024,"clouds":[{"cover":"SCT","base":400},{"cover":"BKN","base":1100},{"cover":"OVC","base":2000}],"obsTime":1782421200},"SBMQ":{"icaoId":"SBMQ","flightCategory":"VFR","rawOb":"METAR SBMQ 252100Z 03004KT CAVOK 31/23 Q1010","temp":31,"dewp":23,"wdir":30,"wspd":4,"visib":"6+","altim":1010,"clouds":[],"obsTime":1782421200},"SBCP":{"icaoId":"SBCP","flightCategory":"MVFR","rawOb":"METAR SBCP 252100Z 23005KT 8000 SCT010 BKN080 21/20 Q1024","temp":21,"dewp":20,"wdir":230,"wspd":5,"visib":4.97,"altim":1024,"clouds":[{"cover":"SCT","base":1000},{"cover":"BKN","base":8000}],"obsTime":1782421200},"SBVT":{"icaoId":"SBVT","flightCategory":"MVFR","rawOb":"METAR SBVT 252100Z 20008KT 9999 SCT015 BKN025 22/19 Q1023","temp":22,"dewp":19,"wdir":200,"wspd":8,"visib":"6+","altim":1023,"clouds":[{"cover":"SCT","base":1500},{"cover":"BKN","base":2500}],"obsTime":1782421200},"SBPA":{"icaoId":"SBPA","flightCategory":"VFR","rawOb":"METAR SBPA 252100Z 32004KT 220V350 CAVOK 15/06 Q1023","temp":15,"dewp":6,"wdir":320,"wspd":4,"visib":"6+","altim":1023,"clouds":[],"obsTime":1782421200},"SBGO":{"icaoId":"SBGO","flightCategory":"VFR","rawOb":"METAR SBGO 252100Z 15007KT 9999 FEW045 SCT050 26/17 Q1021","temp":26,"dewp":17,"wdir":150,"wspd":7,"visib":"6+","altim":1021,"clouds":[{"cover":"FEW","base":4500},{"cover":"SCT","base":5000}],"obsTime":1782421200},"SBPJ":{"icaoId":"SBPJ","flightCategory":"VFR","rawOb":"METAR SBPJ 252100Z VRB01KT CAVOK 31/14 Q1013","temp":31,"dewp":14,"wdir":"VRB","wspd":1,"visib":"6+","altim":1013,"clouds":[],"obsTime":1782421200},"SBGR":{"icaoId":"SBGR","flightCategory":"IFR","rawOb":"METAR SBGR 252100Z 07009KT 8000 -RA BKN007 OVC015 12/11 Q1027","temp":12,"dewp":11,"wdir":70,"wspd":9,"visib":4.97,"altim":1027,"clouds":[{"cover":"BKN","base":700},{"cover":"OVC","base":1500}],"obsTime":1782421200},"SBPV":{"icaoId":"SBPV","flightCategory":"MVFR","rawOb":"METAR SBPV 252100Z 19004KT 9999 FEW010 OVC017 24/20 Q1013","temp":24,"dewp":20,"wdir":190,"wspd":4,"visib":"6+","altim":1013,"clouds":[{"cover":"FEW","base":1000},{"cover":"OVC","base":1700}],"obsTime":1782421200},"SBTE":{"icaoId":"SBTE","flightCategory":"VFR","rawOb":"METAR SBTE 252100Z 32004KT CAVOK 32/20 Q1011","temp":32,"dewp":20,"wdir":320,"wspd":4,"visib":"6+","altim":1011,"clouds":[],"obsTime":1782421200},"SBRB":{"icaoId":"SBRB","flightCategory":"MVFR","rawOb":"METAR SBRB 252100Z VRB02KT 8000 BKN018 21/17 Q1015","temp":21,"dewp":17,"wdir":"VRB","wspd":2,"visib":4.97,"altim":1015,"clouds":[{"cover":"BKN","base":1800}],"obsTime":1782421200},"SBRF":{"icaoId":"SBRF","flightCategory":"VFR","rawOb":"METAR SBRF 252100Z 19006KT 9999 SCT014 25/24 Q1016","temp":25,"dewp":24,"wdir":190,"wspd":6,"visib":"6+","altim":1016,"clouds":[{"cover":"SCT","base":1400}],"obsTime":1782421200},"SBCT":{"icaoId":"SBCT","flightCategory":"VFR","rawOb":"METAR SBCT 252100Z 04005KT 9999 FEW025 10/08 Q1026","temp":10,"dewp":8,"wdir":40,"wspd":5,"visib":"6+","altim":1026,"clouds":[{"cover":"FEW","base":2500}],"obsTime":1782421200},"SBCF":{"icaoId":"SBCF","flightCategory":"VFR","rawOb":"METAR SBCF 252100Z 12010KT 9999 SCT045 21/14 Q1024","temp":21,"dewp":14,"wdir":120,"wspd":10,"visib":"6+","altim":1024,"clouds":[{"cover":"SCT","base":4500}],"obsTime":1782421200},"SBSG":{"icaoId":"SBSG","flightCategory":"VFR","rawOb":"METAR SBSG 252100Z 12005KT 100V160 9999 FEW025 25/23 Q1015","temp":25,"dewp":23,"wdir":120,"wspd":5,"visib":"6+","altim":1015,"clouds":[{"cover":"FEW","base":2500}],"obsTime":1782421200},"SBSL":{"icaoId":"SBSL","flightCategory":"VFR","rawOb":"METAR SBSL 252100Z 07008KT 9999 FEW030 28/24 Q1012","temp":28,"dewp":24,"wdir":70,"wspd":8,"visib":"6+","altim":1012,"clouds":[{"cover":"FEW","base":3000}],"obsTime":1782421200},"SBEG":{"icaoId":"SBEG","flightCategory":"VFR","rawOb":"METAR SBEG 252100Z 21004KT 9999 FEW010 FEW025TCU SCT070 26/24 Q1012","temp":26,"dewp":24,"wdir":210,"wspd":4,"visib":"6+","altim":1012,"clouds":[{"cover":"FEW","base":1000},{"cover":"FEW","base":2500},{"cover":"SCT","base":7000}],"obsTime":1782421200},"SBBE":{"icaoId":"SBBE","flightCategory":"LIFR","rawOb":"SPECI SBBE 252011Z 14013KT 0800 R07///// TSRA BKN008 BKN035 FEW040CB 27/24 Q1012","temp":27,"dewp":24,"wdir":140,"wspd":13,"visib":0.5,"altim":1012,"clouds":[{"cover":"BKN","base":800},{"cover":"BKN","base":3500},{"cover":"FEW","base":4000}],"obsTime":1782418260},"SBSN":{"icaoId":"SBSN","flightCategory":"VFR","rawOb":"METAR SBSN 252100Z 08007KT 9999 FEW040TCU BKN090 29/25 Q1010 RESHRA","temp":29,"dewp":25,"wdir":80,"wspd":7,"visib":"6+","altim":1010,"clouds":[{"cover":"FEW","base":4000},{"cover":"BKN","base":9000}],"obsTime":1782421200},"SBKP":{"icaoId":"SBKP","flightCategory":"VFR","rawOb":"METAR SBKP 252100Z 11011KT 9999 -RA SCT030 OVC100 14/13 Q1024","temp":14,"dewp":13,"wdir":110,"wspd":11,"visib":"6+","altim":1024,"clouds":[{"cover":"SCT","base":3000},{"cover":"OVC","base":10000}],"obsTime":1782421200},"SBSP":{"icaoId":"SBSP","flightCategory":"IFR","rawOb":"METAR SBSP 252100Z 19006KT 140V240 8000 OVC005 11/11 Q1028","temp":11,"dewp":11,"wdir":190,"wspd":6,"visib":4.97,"altim":1028,"clouds":[{"cover":"OVC","base":500}],"obsTime":1782421200},"SBFI":{"icaoId":"SBFI","flightCategory":"VFR","rawOb":"METAR SBFI 252100Z 17003KT CAVOK 15/08 Q1023","temp":15,"dewp":8,"wdir":170,"wspd":3,"visib":"6+","altim":1023,"clouds":[],"obsTime":1782421200},"SBSV":{"icaoId":"SBSV","flightCategory":"MVFR","rawOb":"METAR SBSV 252100Z 07011KT 030V090 7000 -RA FEW005 SCT016 OVC026 24/23 Q1018","temp":24,"dewp":23,"wdir":70,"wspd":11,"visib":4.35,"altim":1018,"clouds":[{"cover":"FEW","base":500},{"cover":"SCT","base":1600},{"cover":"OVC","base":2600}],"obsTime":1782421200},"SBCG":{"icaoId":"SBCG","flightCategory":"VFR","rawOb":"METAR SBCG 252100Z 08007KT 9999 BKN035 BKN070 18/11 Q1021","temp":18,"dewp":11,"wdir":80,"wspd":7,"visib":"6+","altim":1021,"clouds":[{"cover":"BKN","base":3500},{"cover":"BKN","base":7000}],"obsTime":1782421200},"SBCB":{"icaoId":"SBCB","flightCategory":"IFR","rawOb":"METAR SBCB 252100Z 15004KT 2000 -RA BR BKN005 OVC020 20/19 Q1024","temp":20,"dewp":19,"wdir":150,"wspd":4,"visib":1.24,"altim":1024,"clouds":[{"cover":"BKN","base":500},{"cover":"OVC","base":2000}],"obsTime":1782421200},"SBCR":{"icaoId":"SBCR","flightCategory":"VFR","rawOb":"METAR SBCR 252100Z 20005KT 160V240 9999 FEW028 BKN060 19/14 Q1020","temp":19,"dewp":14,"wdir":200,"wspd":5,"visib":"6+","altim":1020,"clouds":[{"cover":"FEW","base":2800},{"cover":"BKN","base":6000}],"obsTime":1782421200},"SBCZ":{"icaoId":"SBCZ","flightCategory":"MVFR","rawOb":"METAR SBCZ 252100Z 17007KT 9999 OVC016 21/19 Q1013","temp":21,"dewp":19,"wdir":170,"wspd":7,"visib":"6+","altim":1013,"clouds":[{"cover":"OVC","base":1600}],"obsTime":1782421200},"SBHT":{"icaoId":"SBHT","flightCategory":"VFR","rawOb":"METAR SBHT 252100Z 00000KT 9999 SCT030 29/24 Q1011","temp":29,"dewp":24,"wdir":0,"wspd":0,"visib":"6+","altim":1011,"clouds":[{"cover":"SCT","base":3000}],"obsTime":1782421200},"SBIL":{"icaoId":"SBIL","flightCategory":"VFR","rawOb":"METAR SBIL 252100Z 23004KT 9999 VCSH SCT025 BKN050 26/22 Q1019","temp":26,"dewp":22,"wdir":230,"wspd":4,"visib":"6+","altim":1019,"clouds":[{"cover":"SCT","base":2500},{"cover":"BKN","base":5000}],"obsTime":1782421200},"SBJU":{"icaoId":"SBJU","flightCategory":"VFR","rawOb":"METAR SBJU 252100Z 15008KT 9999 FEW020 28/18 Q1016","temp":28,"dewp":18,"wdir":150,"wspd":8,"visib":"6+","altim":1016,"clouds":[{"cover":"FEW","base":2000}],"obsTime":1782421200},"SBME":{"icaoId":"SBME","flightCategory":"MVFR","rawOb":"METAR SBME 252100Z 26003KT 7000 OVC017 20/19 Q1024","temp":20,"dewp":19,"wdir":260,"wspd":3,"visib":4.35,"altim":1024,"clouds":[{"cover":"OVC","base":1700}],"obsTime":1782421200},"SBMG":{"icaoId":"SBMG","flightCategory":"VFR","rawOb":"METAR SBMG 252100Z 15007KT CAVOK 15/10 Q1022","temp":15,"dewp":10,"wdir":150,"wspd":7,"visib":"6+","altim":1022,"clouds":[],"obsTime":1782421200},"SBMK":{"icaoId":"SBMK","flightCategory":"VFR","rawOb":"METAR SBMK 252100Z 10010KT CAVOK 25/12 Q1021","temp":25,"dewp":12,"wdir":100,"wspd":10,"visib":"6+","altim":1021,"clouds":[],"obsTime":1782421200},"SBAT":{"icaoId":"SBAT","flightCategory":"VFR","rawOb":"METAR SBAT 252100Z 14003KT CAVOK 31/20 Q1013","temp":31,"dewp":20,"wdir":140,"wspd":3,"visib":"6+","altim":1013,"clouds":[],"obsTime":1782421200},"SBNT":{"icaoId":"SBNT","flightCategory":"VFR","rawOb":"METAR SBNT 252100Z 14008KT 9999 FEW036 SCT067 26/23 Q1015","temp":26,"dewp":23,"wdir":140,"wspd":8,"visib":"6+","altim":1015,"clouds":[{"cover":"FEW","base":3600},{"cover":"SCT","base":6700}],"obsTime":1782421200},"SBUR":{"icaoId":"SBUR","flightCategory":"MVFR","rawOb":"METAR SBUR 252100Z COR 12004KT 5000 BR VCSH FEW004 SCT049 OVC100 16/15 Q1024","temp":16,"dewp":15,"wdir":120,"wspd":4,"visib":3.11,"altim":1024,"clouds":[{"cover":"FEW","base":400},{"cover":"SCT","base":4900},{"cover":"OVC","base":10000}],"obsTime":1782421200},"SBUL":{"icaoId":"SBUL","flightCategory":"VFR","rawOb":"METAR SBUL 252100Z 24012KT 9999 SCT005 BKN100 17/15 Q1024","temp":17,"dewp":15,"wdir":240,"wspd":12,"visib":"6+","altim":1024,"clouds":[{"cover":"SCT","base":500},{"cover":"BKN","base":10000}],"obsTime":1782421200},"SBUY":{"icaoId":"SBUY","flightCategory":"MVFR","rawOb":"METAR SBUY 252100Z 21002KT 9999 BKN016 BKN090 25/23 Q1011","temp":25,"dewp":23,"wdir":210,"wspd":2,"visib":"6+","altim":1011,"clouds":[{"cover":"BKN","base":1600},{"cover":"BKN","base":9000}],"obsTime":1782421200},"SBPL":{"icaoId":"SBPL","flightCategory":"VFR","rawOb":"METAR SBPL 252100Z 10006KT 9999 FEW030 28/15 Q1016","temp":28,"dewp":15,"wdir":100,"wspd":6,"visib":"6+","altim":1016,"clouds":[{"cover":"FEW","base":3000}],"obsTime":1782421200},"SBAR":{"icaoId":"SBAR","flightCategory":"VFR","rawOb":"METAR SBAR 252100Z 15004KT 100V190 9999 FEW015 BKN050 26/22 Q1017","temp":26,"dewp":22,"wdir":150,"wspd":4,"visib":"6+","altim":1017,"clouds":[{"cover":"FEW","base":1500},{"cover":"BKN","base":5000}],"obsTime":1782421200},"SBPP":{"icaoId":"SBPP","flightCategory":"VFR","rawOb":"METAR SBPP 252100Z 05006KT 9999 FEW030 16/05 Q1022","temp":16,"dewp":5,"wdir":50,"wspd":6,"visib":"6+","altim":1022,"clouds":[{"cover":"FEW","base":3000}],"obsTime":1782421200},"SBOI":{"icaoId":"SBOI","flightCategory":"MVFR","rawOb":"SPECI SBOI 252007Z AUTO 30004KT 240V340 9999 BKN011 BKN039 27/25 Q1012","temp":27,"dewp":25,"wdir":300,"wspd":4,"visib":"6+","altim":1012,"clouds":[{"cover":"BKN","base":1100},{"cover":"BKN","base":3900}],"obsTime":1782418020},"SBPS":{"icaoId":"SBPS","flightCategory":"VFR","rawOb":"METAR SBPS 252100Z VRB05KT 9999 SCT025 BKN050 BKN070 22/21 Q1021","temp":22,"dewp":21,"wdir":"VRB","wspd":5,"visib":"6+","altim":1021,"clouds":[{"cover":"SCT","base":2500},{"cover":"BKN","base":5000},{"cover":"BKN","base":7000}],"obsTime":1782421200},"SBTF":{"icaoId":"SBTF","flightCategory":"VFR","rawOb":"METAR SBTF 252100Z 16006KT 9999 FEW012 SCT080 27/25 Q1011","temp":27,"dewp":25,"wdir":160,"wspd":6,"visib":"6+","altim":1011,"clouds":[{"cover":"FEW","base":1200},{"cover":"SCT","base":8000}],"obsTime":1782421200},"SBSJ":{"icaoId":"SBSJ","flightCategory":"LIFR","rawOb":"METAR SBSJ 252003Z 22005KT 1600 R16/P2000 R34/P2000 -RA BR BKN004 BKN010 OVC013 14/13 Q1026 REDZ","temp":14,"dewp":13,"wdir":220,"wspd":5,"visib":0.99,"altim":1026,"clouds":[{"cover":"BKN","base":400},{"cover":"BKN","base":1000},{"cover":"OVC","base":1300}],"obsTime":1782417780},"SBTT":{"icaoId":"SBTT","flightCategory":"VFR","rawOb":"METAR SBTT 252100Z 20005KT 9999 SCT016 SCT100 27/23 Q1012","temp":27,"dewp":23,"wdir":200,"wspd":5,"visib":"6+","altim":1012,"clouds":[{"cover":"SCT","base":1600},{"cover":"SCT","base":10000}],"obsTime":1782421200},"SBPB":{"icaoId":"SBPB","flightCategory":"VFR","rawOb":"METAR SBPB 252100Z 04005KT 9999 FEW020 FEW025TCU SCT090 28/25 Q1012","temp":28,"dewp":25,"wdir":40,"wspd":5,"visib":"6+","altim":1012,"clouds":[{"cover":"FEW","base":2000},{"cover":"FEW","base":2500},{"cover":"SCT","base":9000}],"obsTime":1782421200},"SBCJ":{"icaoId":"SBCJ","flightCategory":"VFR","rawOb":"METAR SBCJ 252100Z 16005KT CAVOK 29/15 Q1016","temp":29,"dewp":15,"wdir":160,"wspd":5,"visib":"6+","altim":1016,"clouds":[],"obsTime":1782421200},"SBKG":{"icaoId":"SBKG","flightCategory":"IFR","rawOb":"METAR SBKG 252100Z 11005KT 9999 -RA BKN009 22/21 Q1018","temp":22,"dewp":21,"wdir":110,"wspd":5,"visib":"6+","altim":1018,"clouds":[{"cover":"BKN","base":900}],"obsTime":1782421200},"SBSC":{"icaoId":"SBSC","flightCategory":"IFR","rawOb":"METAR SBSC 252100Z 22003KT 4000 -DZ BR SCT005 BKN012 OVC030 18/18 Q1025","temp":18,"dewp":18,"wdir":220,"wspd":3,"visib":2.49,"altim":1025,"clouds":[{"cover":"SCT","base":500},{"cover":"BKN","base":1200},{"cover":"OVC","base":3000}],"obsTime":1782421200},"SBVH":{"icaoId":"SBVH","flightCategory":"VFR","rawOb":"METAR SBVH 252100Z 10007KT 9999 SCT015 25/20 Q1017","temp":25,"dewp":20,"wdir":100,"wspd":7,"visib":"6+","altim":1017,"clouds":[{"cover":"SCT","base":1500}],"obsTime":1782421200},"SBAX":{"icaoId":"SBAX","flightCategory":"VFR","rawOb":"METAR SBAX 252100Z 22006KT 9999 BKN035 20/17 Q1024","temp":20,"dewp":17,"wdir":220,"wspd":6,"visib":"6+","altim":1024,"clouds":[{"cover":"BKN","base":3500}],"obsTime":1782421200},"SBBH":{"icaoId":"SBBH","flightCategory":"VFR","rawOb":"METAR SBBH 252100Z 11010KT 9999 SCT048 21/15 Q1024","temp":21,"dewp":15,"wdir":110,"wspd":10,"visib":"6+","altim":1024,"clouds":[{"cover":"SCT","base":4800}],"obsTime":1782421200},"SBBU":{"icaoId":"SBBU","flightCategory":"MVFR","rawOb":"METAR SBBU 252100Z 11011KT 9999 SCT007 BKN015 OVC027 15/14 Q1024","temp":15,"dewp":14,"wdir":110,"wspd":11,"visib":"6+","altim":1024,"clouds":[{"cover":"SCT","base":700},{"cover":"BKN","base":1500},{"cover":"OVC","base":2700}],"obsTime":1782421200},"SBCA":{"icaoId":"SBCA","flightCategory":"VFR","rawOb":"METAR SBCA 252100Z 11005KT CAVOK 15/M03 Q1024","temp":15,"dewp":-3,"wdir":110,"wspd":5,"visib":"6+","altim":1024,"clouds":[],"obsTime":1782421200},"SBCC":{"icaoId":"SBCC","flightCategory":"VFR","rawOb":"METAR SBCC 252100Z 06009KT CAVOK 30/15 Q1014","temp":30,"dewp":15,"wdir":60,"wspd":9,"visib":"6+","altim":1014,"clouds":[],"obsTime":1782421200},"SBCO":{"icaoId":"SBCO","flightCategory":"VFR","rawOb":"METAR SBCO 252100Z 35003KT CAVOK 12/07 Q1024","temp":12,"dewp":7,"wdir":350,"wspd":3,"visib":"6+","altim":1024,"clouds":[],"obsTime":1782421200},"SBDN":{"icaoId":"SBDN","flightCategory":"VFR","rawOb":"METAR SBDN 252100Z 11006KT CAVOK 16/11 Q1023","temp":16,"dewp":11,"wdir":110,"wspd":6,"visib":"6+","altim":1023,"clouds":[],"obsTime":1782421200},"SBES":{"icaoId":"SBES","flightCategory":"IFR","rawOb":"METAR SBES 252100Z 00000KT 3000 -DZ BR FEW003 BKN007 BKN030 19/// Q1024","temp":null,"dewp":null,"wdir":0,"wspd":0,"visib":1.86,"altim":1024,"clouds":[{"cover":"FEW","base":300},{"cover":"BKN","base":700},{"cover":"BKN","base":3000}],"obsTime":1782421200},"SBIP":{"icaoId":"SBIP","flightCategory":"VFR","rawOb":"METAR SBIP 252100Z AUTO 22001KT CAVOK 21/20 Q1022","temp":21,"dewp":20,"wdir":220,"wspd":1,"visib":"6+","altim":1022,"clouds":[],"obsTime":1782421200},"SBSM":{"icaoId":"SBSM","flightCategory":"VFR","rawOb":"METAR SBSM 252100Z 32003KT 290V360 CAVOK 12/08 Q1023","temp":12,"dewp":8,"wdir":320,"wspd":3,"visib":"6+","altim":1023,"clouds":[],"obsTime":1782421200},"SBSR":{"icaoId":"SBSR","flightCategory":"MVFR","rawOb":"METAR SBSR 252100Z 13004KT 8000 FEW010 SCT025 OVC070 16/15 Q1022","temp":16,"dewp":15,"wdir":130,"wspd":4,"visib":4.97,"altim":1022,"clouds":[{"cover":"FEW","base":1000},{"cover":"SCT","base":2500},{"cover":"OVC","base":7000}],"obsTime":1782421200},"SBJP":{"icaoId":"SBJP","flightCategory":"VFR","rawOb":"METAR SBJP 252100Z 12004KT CAVOK 24/22 Q1016","temp":24,"dewp":22,"wdir":120,"wspd":4,"visib":"6+","altim":1016,"clouds":[],"obsTime":1782421200},"SBLE":{"icaoId":"SBLE","flightCategory":"VFR","rawOb":"METAR SBLE 252100Z AUTO VRB01KT CAVOK 22/20 Q1019","temp":22,"dewp":20,"wdir":"VRB","wspd":1,"visib":"6+","altim":1019,"clouds":[],"obsTime":1782421200},"SBJV":{"icaoId":"SBJV","flightCategory":"VFR","rawOb":"METAR SBJV 252100Z 03003KT CAVOK 14/09 Q1026","temp":14,"dewp":9,"wdir":30,"wspd":3,"visib":"6+","altim":1026,"clouds":[],"obsTime":1782421200},"SBNM":{"icaoId":"SBNM","flightCategory":"VFR","rawOb":"SPECI SBNM 252006Z AUTO VRB02KT CAVOK 14/03 Q1023","temp":14,"dewp":3,"wdir":"VRB","wspd":2,"visib":"6+","altim":1023,"clouds":[],"obsTime":1782417960},"SBPF":{"icaoId":"SBPF","flightCategory":"VFR","rawOb":"METAR SBPF 252100Z 00000KT CAVOK 11/03 Q1024","temp":11,"dewp":3,"wdir":0,"wspd":0,"visib":"6+","altim":1024,"clouds":[],"obsTime":1782421200},"SBAN":{"icaoId":"SBAN","flightCategory":"VFR","rawOb":"METAR SBAN 252100Z 12005KT 9999 FEW045 SCT070 22/15 Q1023","temp":22,"dewp":15,"wdir":120,"wspd":5,"visib":"6+","altim":1023,"clouds":[{"cover":"FEW","base":4500},{"cover":"SCT","base":7000}],"obsTime":1782421200},"SBIH":{"icaoId":"SBIH","flightCategory":"VFR","rawOb":"METAR SBIH 252100Z 00000KT 9999 SCT020 FEW025TCU BKN080 27/24 Q1011","temp":27,"dewp":24,"wdir":0,"wspd":0,"visib":"6+","altim":1011,"clouds":[{"cover":"SCT","base":2000},{"cover":"FEW","base":2500},{"cover":"BKN","base":8000}],"obsTime":1782421200},"SBAF":{"icaoId":"SBAF","flightCategory":"IFR","rawOb":"METAR SBAF 252100Z 20004KT 2500 BR BKN007 OVC015 19/19 Q1025","temp":19,"dewp":19,"wdir":200,"wspd":4,"visib":1.55,"altim":1025,"clouds":[{"cover":"BKN","base":700},{"cover":"OVC","base":1500}],"obsTime":1782421200},"SBJR":{"icaoId":"SBJR","flightCategory":"IFR","rawOb":"METAR SBJR 252100Z 20002KT 3000 -RA BR BKN005 OVC025 19/19 Q1024","temp":19,"dewp":19,"wdir":200,"wspd":2,"visib":1.86,"altim":1024,"clouds":[{"cover":"BKN","base":500},{"cover":"OVC","base":2500}],"obsTime":1782421200},"SBLS":{"icaoId":"SBLS","flightCategory":"VFR","rawOb":"METAR SBLS 252100Z 13010KT CAVOK 20/15 Q1024","temp":20,"dewp":15,"wdir":130,"wspd":10,"visib":"6+","altim":1024,"clouds":[],"obsTime":1782421200},"SBMT":{"icaoId":"SBMT","flightCategory":"IFR","rawOb":"METAR SBMT 252100Z 12004KT 4000 BR OVC007 11/10 Q1027","temp":11,"dewp":10,"wdir":120,"wspd":4,"visib":2.49,"altim":1027,"clouds":[{"cover":"OVC","base":700}],"obsTime":1782421200},"SBST":{"icaoId":"SBST","flightCategory":"MVFR","rawOb":"METAR SBST 252100Z 04002KT 7000 OVC029 14/14 Q1026","temp":14,"dewp":14,"wdir":40,"wspd":2,"visib":4.35,"altim":1026,"clouds":[{"cover":"OVC","base":2900}],"obsTime":1782421200},"SBTA":{"icaoId":"SBTA","flightCategory":"IFR","rawOb":"METAR SBTA 252100Z 19006KT 3000 -RA BR BKN009 OVC015 16/15 Q1026","temp":16,"dewp":15,"wdir":190,"wspd":6,"visib":1.86,"altim":1026,"clouds":[{"cover":"BKN","base":900},{"cover":"OVC","base":1500}],"obsTime":1782421200},"SBGW":{"icaoId":"SBGW","flightCategory":"IFR","rawOb":"METAR SBGW 252100Z 21003KT 4000 -RA HZ BKN012 OVC018 16/13 Q1026","temp":16,"dewp":13,"wdir":210,"wspd":3,"visib":2.49,"altim":1026,"clouds":[{"cover":"BKN","base":1200},{"cover":"OVC","base":1800}],"obsTime":1782421200}}}