{"updated":1773936737,"count":87,"data":{"SBAT":{"icaoId":"SBAT","flightCategory":"MVFR","rawOb":"METAR SBAT 191500Z 09004KT 9999 VCSH BKN018 26/24 Q1012","temp":26,"dewp":24,"wdir":90,"wspd":4,"visib":"6+","altim":1012,"clouds":[{"cover":"BKN","base":1800}],"obsTime":1773932400},"SBBE":{"icaoId":"SBBE","flightCategory":"VFR","rawOb":"METAR SBBE 191500Z 27005KT 9999 FEW017 SCT020 BKN045 29/25 Q1010","temp":29,"dewp":25,"wdir":270,"wspd":5,"visib":"6+","altim":1010,"clouds":[{"cover":"FEW","base":1700},{"cover":"SCT","base":2000},{"cover":"BKN","base":4500}],"obsTime":1773932400},"SBBR":{"icaoId":"SBBR","flightCategory":"VFR","rawOb":"METAR SBBR 191500Z 33007KT 280V010 9999 SCT040 28/18 Q1015","temp":28,"dewp":18,"wdir":330,"wspd":7,"visib":"6+","altim":1015,"clouds":[{"cover":"SCT","base":4000}],"obsTime":1773932400},"SBBV":{"icaoId":"SBBV","flightCategory":"VFR","rawOb":"METAR SBBV 191500Z 07009G20KT 9999 FEW040 SCT100 32/19 Q1012","temp":32,"dewp":19,"wdir":70,"wspd":9,"visib":"6+","altim":1012,"clouds":[{"cover":"FEW","base":4000},{"cover":"SCT","base":10000}],"obsTime":1773932400},"SBCB":{"icaoId":"SBCB","flightCategory":"VFR","rawOb":"METAR SBCB 191500Z 07009KT 9999 FEW015 SCT050 29/23 Q1009","temp":29,"dewp":23,"wdir":70,"wspd":9,"visib":"6+","altim":1009,"clouds":[{"cover":"FEW","base":1500},{"cover":"SCT","base":5000}],"obsTime":1773932400},"SBCF":{"icaoId":"SBCF","flightCategory":"LIFR","rawOb":"METAR SBCF 191500Z 16007KT 4000 BR BKN003 SCT090 22/21 Q1015","temp":22,"dewp":21,"wdir":160,"wspd":7,"visib":2.49,"altim":1015,"clouds":[{"cover":"BKN","base":300},{"cover":"SCT","base":9000}],"obsTime":1773932400},"SBCG":{"icaoId":"SBCG","flightCategory":"VFR","rawOb":"METAR SBCG 191500Z 33005KT 280V030 9999 SCT021 27/21 Q1012","temp":27,"dewp":21,"wdir":330,"wspd":5,"visib":"6+","altim":1012,"clouds":[{"cover":"SCT","base":2100}],"obsTime":1773932400},"SBCP":{"icaoId":"SBCP","flightCategory":"VFR","rawOb":"METAR SBCP 191500Z 08004KT 9999 SCT015 SCT100 31/25 Q1008","temp":31,"dewp":25,"wdir":80,"wspd":4,"visib":"6+","altim":1008,"clouds":[{"cover":"SCT","base":1500},{"cover":"SCT","base":10000}],"obsTime":1773932400},"SBCR":{"icaoId":"SBCR","flightCategory":"MVFR","rawOb":"METAR SBCR 191500Z 03004KT 310V080 9999 SCT014 BKN025 28/24 Q1009","temp":28,"dewp":24,"wdir":30,"wspd":4,"visib":"6+","altim":1009,"clouds":[{"cover":"SCT","base":1400},{"cover":"BKN","base":2500}],"obsTime":1773932400},"SBCT":{"icaoId":"SBCT","flightCategory":"VFR","rawOb":"METAR SBCT 191500Z VRB03KT 9999 FEW025 BKN035 27/21 Q1013","temp":27,"dewp":21,"wdir":"VRB","wspd":3,"visib":"6+","altim":1013,"clouds":[{"cover":"FEW","base":2500},{"cover":"BKN","base":3500}],"obsTime":1773932400},"SBCZ":{"icaoId":"SBCZ","flightCategory":"MVFR","rawOb":"METAR SBCZ 191500Z 30003KT 9999 BKN015 BKN100 28/25 Q1012","temp":28,"dewp":25,"wdir":300,"wspd":3,"visib":"6+","altim":1012,"clouds":[{"cover":"BKN","base":1500},{"cover":"BKN","base":10000}],"obsTime":1773932400},"SBEG":{"icaoId":"SBEG","flightCategory":"IFR","rawOb":"METAR SBEG 191500Z 25010KT 5000 -TSRA BKN007 FEW030CB BKN100 23/23 Q1013","temp":23,"dewp":23,"wdir":250,"wspd":10,"visib":3.11,"altim":1013,"clouds":[{"cover":"BKN","base":700},{"cover":"FEW","base":3000},{"cover":"BKN","base":10000}],"obsTime":1773932400},"SBFI":{"icaoId":"SBFI","flightCategory":"VFR","rawOb":"METAR SBFI 191500Z 04003KT 9999 FEW025 31/24 Q1009","temp":31,"dewp":24,"wdir":40,"wspd":3,"visib":"6+","altim":1009,"clouds":[{"cover":"FEW","base":2500}],"obsTime":1773932400},"SBFL":{"icaoId":"SBFL","flightCategory":"VFR","rawOb":"METAR SBFL 191500Z 33005KT 280V030 9999 FEW025 FEW030TCU SCT050 31/25 Q1009","temp":31,"dewp":25,"wdir":330,"wspd":5,"visib":"6+","altim":1009,"clouds":[{"cover":"FEW","base":2500},{"cover":"FEW","base":3000},{"cover":"SCT","base":5000}],"obsTime":1773932400},"SBFZ":{"icaoId":"SBFZ","flightCategory":"VFR","rawOb":"METAR SBFZ 191500Z 08010KT 060V140 9999 FEW020 31/26 Q1009","temp":31,"dewp":26,"wdir":80,"wspd":10,"visib":"6+","altim":1009,"clouds":[{"cover":"FEW","base":2000}],"obsTime":1773932400},"SBGL":{"icaoId":"SBGL","flightCategory":"VFR","rawOb":"METAR SBGL 191500Z 12007KT 9999 FEW020 BKN100 28/23 Q1008","temp":28,"dewp":23,"wdir":120,"wspd":7,"visib":"6+","altim":1008,"clouds":[{"cover":"FEW","base":2000},{"cover":"BKN","base":10000}],"obsTime":1773932400},"SBGO":{"icaoId":"SBGO","flightCategory":"VFR","rawOb":"METAR SBGO 191500Z VRB06KT 9999 SCT040 29/19 Q1014","temp":29,"dewp":19,"wdir":"VRB","wspd":6,"visib":"6+","altim":1014,"clouds":[{"cover":"SCT","base":4000}],"obsTime":1773932400},"SBGR":{"icaoId":"SBGR","flightCategory":"MVFR","rawOb":"METAR SBGR 191500Z 08005KT 7000 FEW048 25/22 Q1013","temp":25,"dewp":22,"wdir":80,"wspd":5,"visib":4.35,"altim":1013,"clouds":[{"cover":"FEW","base":4800}],"obsTime":1773932400},"SBHT":{"icaoId":"SBHT","flightCategory":"MVFR","rawOb":"METAR SBHT 191500Z 13006KT 9999 BKN015 BKN100 29/23 Q1011","temp":29,"dewp":23,"wdir":130,"wspd":6,"visib":"6+","altim":1011,"clouds":[{"cover":"BKN","base":1500},{"cover":"BKN","base":10000}],"obsTime":1773932400},"SBIL":{"icaoId":"SBIL","flightCategory":"VFR","rawOb":"METAR SBIL 191500Z 06010KT 9999 FEW025 32/24 Q1010","temp":32,"dewp":24,"wdir":60,"wspd":10,"visib":"6+","altim":1010,"clouds":[{"cover":"FEW","base":2500}],"obsTime":1773932400},"SBJU":{"icaoId":"SBJU","flightCategory":"VFR","rawOb":"METAR SBJU 191500Z 00000KT 9999 SCT020 BKN080 26/22 Q1013","temp":26,"dewp":22,"wdir":0,"wspd":0,"visib":"6+","altim":1013,"clouds":[{"cover":"SCT","base":2000},{"cover":"BKN","base":8000}],"obsTime":1773932400},"SBKP":{"icaoId":"SBKP","flightCategory":"VFR","rawOb":"METAR SBKP 191500Z VRB04KT 9999 SCT020 27/21 Q1011","temp":27,"dewp":21,"wdir":"VRB","wspd":4,"visib":"6+","altim":1011,"clouds":[{"cover":"SCT","base":2000}],"obsTime":1773932400},"SBLO":{"icaoId":"SBLO","flightCategory":"MVFR","rawOb":"METAR SBLO 191500Z 12005KT 070V190 9999 BKN020 27/23 Q1011","temp":27,"dewp":23,"wdir":120,"wspd":5,"visib":"6+","altim":1011,"clouds":[{"cover":"BKN","base":2000}],"obsTime":1773932400},"SBMA":{"icaoId":"SBMA","flightCategory":"VFR","rawOb":"METAR SBMA 191500Z 01003KT 9999 SCT020 BKN100 29/24 Q1011","temp":29,"dewp":24,"wdir":10,"wspd":3,"visib":"6+","altim":1011,"clouds":[{"cover":"SCT","base":2000},{"cover":"BKN","base":10000}],"obsTime":1773932400},"SBME":{"icaoId":"SBME","flightCategory":"VFR","rawOb":"METAR SBME 191500Z 13012KT 9999 SCT030 BKN100 29/24 Q1008","temp":29,"dewp":24,"wdir":130,"wspd":12,"visib":"6+","altim":1008,"clouds":[{"cover":"SCT","base":3000},{"cover":"BKN","base":10000}],"obsTime":1773932400},"SBMG":{"icaoId":"SBMG","flightCategory":"VFR","rawOb":"METAR SBMG 191500Z VRB06KT 9999 SCT035 32/20 Q1010","temp":32,"dewp":20,"wdir":"VRB","wspd":6,"visib":"6+","altim":1010,"clouds":[{"cover":"SCT","base":3500}],"obsTime":1773932400},"SBMK":{"icaoId":"SBMK","flightCategory":"VFR","rawOb":"METAR SBMK 191500Z 29008KT 9999 FEW040TCU SCT040 26/23 Q1012","temp":26,"dewp":23,"wdir":290,"wspd":8,"visib":"6+","altim":1012,"clouds":[{"cover":"FEW","base":4000},{"cover":"SCT","base":4000}],"obsTime":1773932400},"SBMO":{"icaoId":"SBMO","flightCategory":"VFR","rawOb":"METAR SBMO 191500Z 10011KT 9999 SCT030 32/22 Q1010","temp":32,"dewp":22,"wdir":100,"wspd":11,"visib":"6+","altim":1010,"clouds":[{"cover":"SCT","base":3000}],"obsTime":1773932400},"SBMQ":{"icaoId":"SBMQ","flightCategory":"MVFR","rawOb":"METAR SBMQ 191500Z 07006KT 8000 -RA BKN025 OVC050 28/25 Q1011","temp":28,"dewp":25,"wdir":70,"wspd":6,"visib":4.97,"altim":1011,"clouds":[{"cover":"BKN","base":2500},{"cover":"OVC","base":5000}],"obsTime":1773932400},"SBNT":{"icaoId":"SBNT","flightCategory":"VFR","rawOb":"METAR SBNT 191500Z 12011KT 090V160 9999 SCT037 31/22 Q1009","temp":31,"dewp":22,"wdir":120,"wspd":11,"visib":"6+","altim":1009,"clouds":[{"cover":"SCT","base":3700}],"obsTime":1773932400},"SBPA":{"icaoId":"SBPA","flightCategory":"MVFR","rawOb":"SPECI SBPA 191423Z 18005KT 9999 FEW010 BKN015 27/22 Q1010","temp":27,"dewp":22,"wdir":180,"wspd":5,"visib":"6+","altim":1010,"clouds":[{"cover":"FEW","base":1000},{"cover":"BKN","base":1500}],"obsTime":1773930180},"SBPJ":{"icaoId":"SBPJ","flightCategory":"VFR","rawOb":"METAR SBPJ 191500Z 35006KT 9999 SCT025 SCT100 30/24 Q1012","temp":30,"dewp":24,"wdir":350,"wspd":6,"visib":"6+","altim":1012,"clouds":[{"cover":"SCT","base":2500},{"cover":"SCT","base":10000}],"obsTime":1773932400},"SBPV":{"icaoId":"SBPV","flightCategory":"MVFR","rawOb":"SPECI SBPV 191415Z 32003KT 9999 BKN012 28/23 Q1012","temp":28,"dewp":23,"wdir":320,"wspd":3,"visib":"6+","altim":1012,"clouds":[{"cover":"BKN","base":1200}],"obsTime":1773929700},"SBRB":{"icaoId":"SBRB","flightCategory":"MVFR","rawOb":"METAR SBRB 191500Z 06003KT 9999 BKN023 BKN100 29/24 Q1012","temp":29,"dewp":24,"wdir":60,"wspd":3,"visib":"6+","altim":1012,"clouds":[{"cover":"BKN","base":2300},{"cover":"BKN","base":10000}],"obsTime":1773932400},"SBRF":{"icaoId":"SBRF","flightCategory":"VFR","rawOb":"METAR SBRF 191500Z 10010KT 070V130 9999 SCT025 30/23 Q1010","temp":30,"dewp":23,"wdir":100,"wspd":10,"visib":"6+","altim":1010,"clouds":[{"cover":"SCT","base":2500}],"obsTime":1773932400},"SBSG":{"icaoId":"SBSG","flightCategory":"VFR","rawOb":"METAR SBSG 191500Z 12007KT 080V190 9999 BKN033 31/23 Q1009","temp":31,"dewp":23,"wdir":120,"wspd":7,"visib":"6+","altim":1009,"clouds":[{"cover":"BKN","base":3300}],"obsTime":1773932400},"SBSL":{"icaoId":"SBSL","flightCategory":"MVFR","rawOb":"METAR SBSL 191500Z 08010KT 050V110 9000 VCSH SCT012 BKN020 FEW025TCU 29/25 Q1009","temp":29,"dewp":25,"wdir":80,"wspd":10,"visib":5.59,"altim":1009,"clouds":[{"cover":"SCT","base":1200},{"cover":"BKN","base":2000},{"cover":"FEW","base":2500}],"obsTime":1773932400},"SBSN":{"icaoId":"SBSN","flightCategory":"VFR","rawOb":"METAR SBSN 191500Z 06003KT 9999 SCT010 BKN100 26/24 Q1011","temp":26,"dewp":24,"wdir":60,"wspd":3,"visib":"6+","altim":1011,"clouds":[{"cover":"SCT","base":1000},{"cover":"BKN","base":10000}],"obsTime":1773932400},"SBSP":{"icaoId":"SBSP","flightCategory":"MVFR","rawOb":"METAR SBSP 191500Z 12003KT 6000 SCT008 BKN083 25/20 Q1013","temp":25,"dewp":20,"wdir":120,"wspd":3,"visib":3.73,"altim":1013,"clouds":[{"cover":"SCT","base":800},{"cover":"BKN","base":8300}],"obsTime":1773932400},"SBSV":{"icaoId":"SBSV","flightCategory":"VFR","rawOb":"METAR SBSV 191500Z 10011KT 9999 SCT023 30/22 Q1011","temp":30,"dewp":22,"wdir":100,"wspd":11,"visib":"6+","altim":1011,"clouds":[{"cover":"SCT","base":2300}],"obsTime":1773932400},"SBTE":{"icaoId":"SBTE","flightCategory":"MVFR","rawOb":"SPECI SBTE 191428Z 16002KT 9999 BKN016 BKN100 27/24 Q1011","temp":27,"dewp":24,"wdir":160,"wspd":2,"visib":"6+","altim":1011,"clouds":[{"cover":"BKN","base":1600},{"cover":"BKN","base":10000}],"obsTime":1773930480},"SBUL":{"icaoId":"SBUL","flightCategory":"MVFR","rawOb":"METAR SBUL 191500Z 01006KT 9999 BKN025 26/20 Q1014","temp":26,"dewp":20,"wdir":10,"wspd":6,"visib":"6+","altim":1014,"clouds":[{"cover":"BKN","base":2500}],"obsTime":1773932400},"SBUR":{"icaoId":"SBUR","flightCategory":"VFR","rawOb":"METAR SBUR 191500Z 31006KT 9999 SCT025 FEW027TCU BKN100 22/21 Q1012","temp":22,"dewp":21,"wdir":310,"wspd":6,"visib":"6+","altim":1012,"clouds":[{"cover":"SCT","base":2500},{"cover":"FEW","base":2700},{"cover":"BKN","base":10000}],"obsTime":1773932400},"SBVT":{"icaoId":"SBVT","flightCategory":"VFR","rawOb":"METAR SBVT 191500Z 01010KT 320V050 9999 FEW030 FEW040TCU SCT090 32/24 Q1008","temp":32,"dewp":24,"wdir":10,"wspd":10,"visib":"6+","altim":1008,"clouds":[{"cover":"FEW","base":3000},{"cover":"FEW","base":4000},{"cover":"SCT","base":9000}],"obsTime":1773932400},"SBSJ":{"icaoId":"SBSJ","flightCategory":"IFR","rawOb":"METAR SBSJ 191500Z 04004KT 4000 BR BKN015 BKN100 24/// Q1013","temp":null,"dewp":null,"wdir":40,"wspd":4,"visib":2.49,"altim":1013,"clouds":[{"cover":"BKN","base":1500},{"cover":"BKN","base":10000}],"obsTime":1773932400},"SBAR":{"icaoId":"SBAR","flightCategory":"VFR","rawOb":"METAR SBAR 191500Z 10009KT 9999 FEW024 31/23 Q1010","temp":31,"dewp":23,"wdir":100,"wspd":9,"visib":"6+","altim":1010,"clouds":[{"cover":"FEW","base":2400}],"obsTime":1773932400},"SBAU":{"icaoId":"SBAU","flightCategory":"VFR","rawOb":"METAR SBAU 191500Z 10004KT 9999 SCT030 31/22 Q1010","temp":31,"dewp":22,"wdir":100,"wspd":4,"visib":"6+","altim":1010,"clouds":[{"cover":"SCT","base":3000}],"obsTime":1773932400},"SBAX":{"icaoId":"SBAX","flightCategory":"MVFR","rawOb":"METAR SBAX 191500Z 01005KT 9999 BKN020 FEW030TCU 26/21 Q1014","temp":26,"dewp":21,"wdir":10,"wspd":5,"visib":"6+","altim":1014,"clouds":[{"cover":"BKN","base":2000},{"cover":"FEW","base":3000}],"obsTime":1773932400},"SBBH":{"icaoId":"SBBH","flightCategory":"VFR","rawOb":"METAR SBBH 191500Z 08005KT 9999 SCT009 BKN080 22/21 Q1014 RETS","temp":22,"dewp":21,"wdir":80,"wspd":5,"visib":"6+","altim":1014,"clouds":[{"cover":"SCT","base":900},{"cover":"BKN","base":8000}],"obsTime":1773932400},"SBBQ":{"icaoId":"SBBQ","flightCategory":"MVFR","rawOb":"METAR SBBQ 191500Z 34003KT 9999 BKN015 BKN025 OVC090 23/19 Q1017","temp":23,"dewp":19,"wdir":340,"wspd":3,"visib":"6+","altim":1017,"clouds":[{"cover":"BKN","base":1500},{"cover":"BKN","base":2500},{"cover":"OVC","base":9000}],"obsTime":1773932400},"SBBU":{"icaoId":"SBBU","flightCategory":"MVFR","rawOb":"METAR SBBU 191500Z 33005KT 9999 BKN020 BKN070 28/23 Q1011","temp":28,"dewp":23,"wdir":330,"wspd":5,"visib":"6+","altim":1011,"clouds":[{"cover":"BKN","base":2000},{"cover":"BKN","base":7000}],"obsTime":1773932400},"SBCC":{"icaoId":"SBCC","flightCategory":"MVFR","rawOb":"METAR SBCC 191500Z 31005KT 9999 BKN018 28/23 Q1012","temp":28,"dewp":23,"wdir":310,"wspd":5,"visib":"6+","altim":1012,"clouds":[{"cover":"BKN","base":1800}],"obsTime":1773932400},"SBCJ":{"icaoId":"SBCJ","flightCategory":"MVFR","rawOb":"METAR SBCJ 191500Z 13007KT 9999 BKN015 25/21 Q1015","temp":25,"dewp":21,"wdir":130,"wspd":7,"visib":"6+","altim":1015,"clouds":[{"cover":"BKN","base":1500}],"obsTime":1773932400},"SBCO":{"icaoId":"SBCO","flightCategory":"MVFR","rawOb":"METAR SBCO 191500Z 17008KT 140V210 9999 BKN016 BKN028 27/23 Q1010","temp":27,"dewp":23,"wdir":170,"wspd":8,"visib":"6+","altim":1010,"clouds":[{"cover":"BKN","base":1600},{"cover":"BKN","base":2800}],"obsTime":1773932400},"SBDN":{"icaoId":"SBDN","flightCategory":"MVFR","rawOb":"METAR SBDN 191500Z 01003KT 9999 BKN030 FEW050TCU 31/22 Q1010","temp":31,"dewp":22,"wdir":10,"wspd":3,"visib":"6+","altim":1010,"clouds":[{"cover":"BKN","base":3000},{"cover":"FEW","base":5000}],"obsTime":1773932400},"SBES":{"icaoId":"SBES","flightCategory":"VFR","rawOb":"METAR SBES 191500Z 06009KT 9999 SCT015 BKN100 28/// Q1009","temp":null,"dewp":null,"wdir":60,"wspd":9,"visib":"6+","altim":1009,"clouds":[{"cover":"SCT","base":1500},{"cover":"BKN","base":10000}],"obsTime":1773932400},"SBGM":{"icaoId":"SBGM","flightCategory":"VFR","rawOb":"METAR SBGM 191500Z VRB05KT 9999 FEW010 29/20 Q1011","temp":29,"dewp":20,"wdir":"VRB","wspd":5,"visib":"6+","altim":1011,"clouds":[{"cover":"FEW","base":1000}],"obsTime":1773932400},"SBIP":{"icaoId":"SBIP","flightCategory":"MVFR","rawOb":"METAR SBIP 191500Z AUTO VRB03KT 9999 BKN024 30/23 Q1010","temp":30,"dewp":23,"wdir":"VRB","wspd":3,"visib":"6+","altim":1010,"clouds":[{"cover":"BKN","base":2400}],"obsTime":1773932400},"SBKG":{"icaoId":"SBKG","flightCategory":"VFR","rawOb":"METAR SBKG 191500Z 13008KT 9999 SCT023 29/20 Q1012","temp":29,"dewp":20,"wdir":130,"wspd":8,"visib":"6+","altim":1012,"clouds":[{"cover":"SCT","base":2300}],"obsTime":1773932400},"SBOI":{"icaoId":"SBOI","flightCategory":"MVFR","rawOb":"METAR SBOI 191500Z AUTO 34006KT 310V010 9999 -RA OVC027 27/24 Q1011 RERA","temp":27,"dewp":24,"wdir":340,"wspd":6,"visib":"6+","altim":1011,"clouds":[{"cover":"OVC","base":2700}],"obsTime":1773932400},"SBPB":{"icaoId":"SBPB","flightCategory":"VFR","rawOb":"METAR SBPB 191500Z 10006KT 9999 FEW010 BKN070 28/25 Q1011","temp":28,"dewp":25,"wdir":100,"wspd":6,"visib":"6+","altim":1011,"clouds":[{"cover":"FEW","base":1000},{"cover":"BKN","base":7000}],"obsTime":1773932400},"SBPL":{"icaoId":"SBPL","flightCategory":"VFR","rawOb":"METAR SBPL 191500Z 15004KT 9999 SCT025 31/21 Q1012","temp":31,"dewp":21,"wdir":150,"wspd":4,"visib":"6+","altim":1012,"clouds":[{"cover":"SCT","base":2500}],"obsTime":1773932400},"SBPP":{"icaoId":"SBPP","flightCategory":"VFR","rawOb":"METAR SBPP 191500Z 02005KT 9999 FEW020 29/22 Q1012","temp":29,"dewp":22,"wdir":20,"wspd":5,"visib":"6+","altim":1012,"clouds":[{"cover":"FEW","base":2000}],"obsTime":1773932400},"SBPS":{"icaoId":"SBPS","flightCategory":"VFR","rawOb":"METAR SBPS 191500Z 08013KT 9999 SCT025 30/25 Q1010","temp":30,"dewp":25,"wdir":80,"wspd":13,"visib":"6+","altim":1010,"clouds":[{"cover":"SCT","base":2500}],"obsTime":1773932400},"SBSC":{"icaoId":"SBSC","flightCategory":"VFR","rawOb":"METAR SBSC 191500Z 32005KT 9999 FEW025 30/23 Q1008","temp":30,"dewp":23,"wdir":320,"wspd":5,"visib":"6+","altim":1008,"clouds":[{"cover":"FEW","base":2500}],"obsTime":1773932400},"SBSM":{"icaoId":"SBSM","flightCategory":"MVFR","rawOb":"METAR SBSM 191500Z 11005KT 060V160 9999 BKN015 OVC020 24/21 Q1011","temp":24,"dewp":21,"wdir":110,"wspd":5,"visib":"6+","altim":1011,"clouds":[{"cover":"BKN","base":1500},{"cover":"OVC","base":2000}],"obsTime":1773932400},"SBSR":{"icaoId":"SBSR","flightCategory":"VFR","rawOb":"METAR SBSR 191500Z VRB04KT 9999 SCT015 SCT020 FEW025TCU BKN070 27/21 Q1011","temp":27,"dewp":21,"wdir":"VRB","wspd":4,"visib":"6+","altim":1011,"clouds":[{"cover":"SCT","base":1500},{"cover":"SCT","base":2000},{"cover":"FEW","base":2500},{"cover":"BKN","base":7000}],"obsTime":1773932400},"SBTD":{"icaoId":"SBTD","flightCategory":"VFR","rawOb":"METAR SBTD 191500Z /////KT 9999 SCT030 30/23 Q1011","temp":30,"dewp":23,"wdir":null,"wspd":null,"visib":"6+","altim":1011,"clouds":[{"cover":"SCT","base":3000}],"obsTime":1773932400},"SBTF":{"icaoId":"SBTF","flightCategory":"VFR","rawOb":"METAR SBTF 191500Z 11009KT 9999 FEW007 OVC100 26/24 Q1011","temp":26,"dewp":24,"wdir":110,"wspd":9,"visib":"6+","altim":1011,"clouds":[{"cover":"FEW","base":700},{"cover":"OVC","base":10000}],"obsTime":1773932400},"SBTT":{"icaoId":"SBTT","flightCategory":"MVFR","rawOb":"METAR SBTT 191500Z 15002KT 9999 BKN012 26/22 Q1012","temp":26,"dewp":22,"wdir":150,"wspd":2,"visib":"6+","altim":1012,"clouds":[{"cover":"BKN","base":1200}],"obsTime":1773932400},"SBUY":{"icaoId":"SBUY","flightCategory":"MVFR","rawOb":"METAR SBUY 191500Z 14005KT 9999 -RA BKN012 BKN080 25/23 Q1011","temp":25,"dewp":23,"wdir":140,"wspd":5,"visib":"6+","altim":1011,"clouds":[{"cover":"BKN","base":1200},{"cover":"BKN","base":8000}],"obsTime":1773932400},"SBVH":{"icaoId":"SBVH","flightCategory":"VFR","rawOb":"METAR SBVH 191500Z 30005KT 9999 VCSH SCT016 SCT025 FEW035TCU BKN093 26/23 Q1013","temp":26,"dewp":23,"wdir":300,"wspd":5,"visib":"6+","altim":1013,"clouds":[{"cover":"SCT","base":1600},{"cover":"SCT","base":2500},{"cover":"FEW","base":3500},{"cover":"BKN","base":9300}],"obsTime":1773932400},"SBCA":{"icaoId":"SBCA","flightCategory":"VFR","rawOb":"METAR SBCA 191500Z VRB04KT 9999 SCT020 FEW025TCU 30/20 Q1012","temp":30,"dewp":20,"wdir":"VRB","wspd":4,"visib":"6+","altim":1012,"clouds":[{"cover":"SCT","base":2000},{"cover":"FEW","base":2500}],"obsTime":1773932400},"SBTA":{"icaoId":"SBTA","flightCategory":"IFR","rawOb":"METAR SBTA 191500Z VRB02KT 3000 -RA BR FEW005 SCT011 BKN030 22/22 Q1012","temp":22,"dewp":22,"wdir":"VRB","wspd":2,"visib":1.86,"altim":1012,"clouds":[{"cover":"FEW","base":500},{"cover":"SCT","base":1100},{"cover":"BKN","base":3000}],"obsTime":1773932400},"SBAF":{"icaoId":"SBAF","flightCategory":"MVFR","rawOb":" SBAF 191500Z 20007KT 6000 FEW010 SCT026 BKN100 29/26 Q1008","temp":29,"dewp":26,"wdir":200,"wspd":7,"visib":3.73,"altim":1008,"clouds":[{"cover":"FEW","base":1000},{"cover":"SCT","base":2600},{"cover":"BKN","base":10000}],"obsTime":1773932400},"SBAN":{"icaoId":"SBAN","flightCategory":"VFR","rawOb":"METAR SBAN 191500Z VRB04KT 9999 SCT025 27/17 Q1017","temp":27,"dewp":17,"wdir":"VRB","wspd":4,"visib":"6+","altim":1017,"clouds":[{"cover":"SCT","base":2500}],"obsTime":1773932400},"SBGW":{"icaoId":"SBGW","flightCategory":"IFR","rawOb":"METAR SBGW 191500Z 07002KT 4000 HZ SCT012 BKN035 24/18 Q1012","temp":24,"dewp":18,"wdir":70,"wspd":2,"visib":2.49,"altim":1012,"clouds":[{"cover":"SCT","base":1200},{"cover":"BKN","base":3500}],"obsTime":1773932400},"SBIH":{"icaoId":"SBIH","flightCategory":"MVFR","rawOb":"METAR SBIH 191500Z 02008KT 5000 -RA BR FEW008 SCT016 OVC080 24/24 Q1011 RERA","temp":24,"dewp":24,"wdir":20,"wspd":8,"visib":3.11,"altim":1011,"clouds":[{"cover":"FEW","base":800},{"cover":"SCT","base":1600},{"cover":"OVC","base":8000}],"obsTime":1773932400},"SBJP":{"icaoId":"SBJP","flightCategory":"VFR","rawOb":"METAR SBJP 191500Z 12009KT 9999 SCT030 31/22 Q1010","temp":31,"dewp":22,"wdir":120,"wspd":9,"visib":"6+","altim":1010,"clouds":[{"cover":"SCT","base":3000}],"obsTime":1773932400},"SBJR":{"icaoId":"SBJR","flightCategory":"MVFR","rawOb":"METAR SBJR 191500Z 18005KT 8000 SCT020 BKN100 30/23 Q1008","temp":30,"dewp":23,"wdir":180,"wspd":5,"visib":4.97,"altim":1008,"clouds":[{"cover":"SCT","base":2000},{"cover":"BKN","base":10000}],"obsTime":1773932400},"SBJV":{"icaoId":"SBJV","flightCategory":"MVFR","rawOb":"METAR SBJV 191500Z 20003KT 9999 BKN025 29/24 Q1009","temp":29,"dewp":24,"wdir":200,"wspd":3,"visib":"6+","altim":1009,"clouds":[{"cover":"BKN","base":2500}],"obsTime":1773932400},"SBLE":{"icaoId":"SBLE","flightCategory":"VFR","rawOb":"METAR SBLE 191500Z AUTO VRB05KT CAVOK 29/19 Q1013","temp":29,"dewp":19,"wdir":"VRB","wspd":5,"visib":"6+","altim":1013,"clouds":[],"obsTime":1773932400},"SBLS":{"icaoId":"SBLS","flightCategory":"MVFR","rawOb":"METAR SBLS 191500Z 16009KT 5000 BR SCT003 SCT030 21/20 Q1014","temp":21,"dewp":20,"wdir":160,"wspd":9,"visib":3.11,"altim":1014,"clouds":[{"cover":"SCT","base":300},{"cover":"SCT","base":3000}],"obsTime":1773932400},"SBMT":{"icaoId":"SBMT","flightCategory":"MVFR","rawOb":"METAR SBMT 191500Z 07002KT 6000 -RA SCT020 BKN080 25/18 Q1012","temp":25,"dewp":18,"wdir":70,"wspd":2,"visib":3.73,"altim":1012,"clouds":[{"cover":"SCT","base":2000},{"cover":"BKN","base":8000}],"obsTime":1773932400},"SBPF":{"icaoId":"SBPF","flightCategory":"VFR","rawOb":"METAR SBPF 191500Z 00000KT CAVOK 27/19 Q1013","temp":27,"dewp":19,"wdir":0,"wspd":0,"visib":"6+","altim":1013,"clouds":[],"obsTime":1773932400},"SBST":{"icaoId":"SBST","flightCategory":"MVFR","rawOb":"METAR SBST 191500Z 00000KT 7000 BKN018 27/22 Q1009","temp":27,"dewp":22,"wdir":0,"wspd":0,"visib":4.35,"altim":1009,"clouds":[{"cover":"BKN","base":1800}],"obsTime":1773932400},"SBNM":{"icaoId":"SBNM","flightCategory":"VFR","rawOb":"METAR SBNM 191500Z 18002KT 9999 FEW015 29/22 Q1010","temp":29,"dewp":22,"wdir":180,"wspd":2,"visib":"6+","altim":1010,"clouds":[{"cover":"FEW","base":1500}],"obsTime":1773932400}}}