{"updated":1775168448,"count":81,"data":{"SBFL":{"icaoId":"SBFL","flightCategory":"MVFR","rawOb":"METAR SBFL 022100Z 11004KT 8000 VCSH VCTS SCT025 FEW030CB BKN050 26/22 Q1011","temp":26,"dewp":22,"wdir":110,"wspd":4,"visib":4.97,"altim":1011,"clouds":[{"cover":"SCT","base":2500},{"cover":"FEW","base":3000},{"cover":"BKN","base":5000}],"obsTime":1775163600},"SBBV":{"icaoId":"SBBV","flightCategory":"VFR","rawOb":"METAR SBBV 022100Z 13005KT 9999 SCT040 SCT080 33/20 Q1007","temp":33,"dewp":20,"wdir":130,"wspd":5,"visib":"6+","altim":1007,"clouds":[{"cover":"SCT","base":4000},{"cover":"SCT","base":8000}],"obsTime":1775163600},"SBRB":{"icaoId":"SBRB","flightCategory":"VFR","rawOb":"METAR SBRB 022100Z 09004KT 9999 BKN035 31/24 Q1006","temp":31,"dewp":24,"wdir":90,"wspd":4,"visib":"6+","altim":1006,"clouds":[{"cover":"BKN","base":3500}],"obsTime":1775163600},"SBBE":{"icaoId":"SBBE","flightCategory":"VFR","rawOb":"METAR SBBE 022100Z 10004KT 9999 FEW049 26/25 Q1010","temp":26,"dewp":25,"wdir":100,"wspd":4,"visib":"6+","altim":1010,"clouds":[{"cover":"FEW","base":4900}],"obsTime":1775163600},"SBBR":{"icaoId":"SBBR","flightCategory":"MVFR","rawOb":"METAR SBBR 022100Z 25003KT 210V290 9999 BKN017 FEW030TCU BKN080 20/19 Q1018 RETS","temp":20,"dewp":19,"wdir":250,"wspd":3,"visib":"6+","altim":1018,"clouds":[{"cover":"BKN","base":1700},{"cover":"FEW","base":3000},{"cover":"BKN","base":8000}],"obsTime":1775163600},"SBCF":{"icaoId":"SBCF","flightCategory":"VFR","rawOb":"METAR SBCF 022100Z 09004KT 060V130 9999 SCT035 23/19 Q1018","temp":23,"dewp":19,"wdir":90,"wspd":4,"visib":"6+","altim":1018,"clouds":[{"cover":"SCT","base":3500}],"obsTime":1775163600},"SBCG":{"icaoId":"SBCG","flightCategory":"VFR","rawOb":"METAR SBCG 022100Z 21008KT 9999 SCT050 FEW055TCU 30/20 Q1012","temp":30,"dewp":20,"wdir":210,"wspd":8,"visib":"6+","altim":1012,"clouds":[{"cover":"SCT","base":5000},{"cover":"FEW","base":5500}],"obsTime":1775163600},"SBCP":{"icaoId":"SBCP","flightCategory":"VFR","rawOb":"METAR SBCP 022100Z 10005KT CAVOK 26/22 Q1014","temp":26,"dewp":22,"wdir":100,"wspd":5,"visib":"6+","altim":1014,"clouds":[],"obsTime":1775163600},"SBCT":{"icaoId":"SBCT","flightCategory":"VFR","rawOb":"METAR SBCT 022100Z 31002KT 9999 FEW030 24/17 Q1016","temp":24,"dewp":17,"wdir":310,"wspd":2,"visib":"6+","altim":1016,"clouds":[{"cover":"FEW","base":3000}],"obsTime":1775163600},"SBCZ":{"icaoId":"SBCZ","flightCategory":"MVFR","rawOb":"METAR SBCZ 022100Z 30007KT 9999 TS VCSH SCT008 BKN015 FEW030CB OVC080 25/25 Q1007","temp":25,"dewp":25,"wdir":300,"wspd":7,"visib":"6+","altim":1007,"clouds":[{"cover":"SCT","base":800},{"cover":"BKN","base":1500},{"cover":"FEW","base":3000},{"cover":"OVC","base":8000}],"obsTime":1775163600},"SBEG":{"icaoId":"SBEG","flightCategory":"VFR","rawOb":"METAR SBEG 022100Z 08002KT 9999 VCSH SCT025 FEW030TCU 27/25 Q1008 RESHRA","temp":27,"dewp":25,"wdir":80,"wspd":2,"visib":"6+","altim":1008,"clouds":[{"cover":"SCT","base":2500},{"cover":"FEW","base":3000}],"obsTime":1775163600},"SBFI":{"icaoId":"SBFI","flightCategory":"VFR","rawOb":"METAR SBFI 022100Z 03005KT 9999 FEW040 FEW045TCU 29/23 Q1010","temp":29,"dewp":23,"wdir":30,"wspd":5,"visib":"6+","altim":1010,"clouds":[{"cover":"FEW","base":4000},{"cover":"FEW","base":4500}],"obsTime":1775163600},"SBFZ":{"icaoId":"SBFZ","flightCategory":"VFR","rawOb":"METAR SBFZ 022100Z 10005KT 9999 FEW020 BKN070 27/24 Q1011","temp":27,"dewp":24,"wdir":100,"wspd":5,"visib":"6+","altim":1011,"clouds":[{"cover":"FEW","base":2000},{"cover":"BKN","base":7000}],"obsTime":1775163600},"SBGL":{"icaoId":"SBGL","flightCategory":"LIFR","rawOb":"SPECI SBGL 022030Z 24024G34KT 1500 R15/P2000 R33/P2000 R10/P2000 R28/P2000 +TSRA BKN036 FEW046CB BKN070 23/22 Q1012 RERA","temp":23,"dewp":22,"wdir":240,"wspd":24,"visib":0.93,"altim":1012,"clouds":[{"cover":"BKN","base":3600},{"cover":"FEW","base":4600},{"cover":"BKN","base":7000}],"obsTime":1775161800},"SBGO":{"icaoId":"SBGO","flightCategory":"VFR","rawOb":"METAR SBGO 022100Z 31003KT 9999 FEW034 FEW042TCU 27/20 Q1015","temp":27,"dewp":20,"wdir":310,"wspd":3,"visib":"6+","altim":1015,"clouds":[{"cover":"FEW","base":3400},{"cover":"FEW","base":4200}],"obsTime":1775163600},"SBGR":{"icaoId":"SBGR","flightCategory":"VFR","rawOb":"SPECI SBGR 022033Z 17004KT 9999 SCT040 BKN100 21/19 Q1017 RETS","temp":21,"dewp":19,"wdir":170,"wspd":4,"visib":"6+","altim":1017,"clouds":[{"cover":"SCT","base":4000},{"cover":"BKN","base":10000}],"obsTime":1775161980},"SBIL":{"icaoId":"SBIL","flightCategory":"VFR","rawOb":"METAR SBIL 022100Z 14005KT CAVOK 29/22 Q1013","temp":29,"dewp":22,"wdir":140,"wspd":5,"visib":"6+","altim":1013,"clouds":[],"obsTime":1775163600},"SBJU":{"icaoId":"SBJU","flightCategory":"VFR","rawOb":"METAR SBJU 022100Z COR 29003KT 9999 VCTS FEW020 FEW021CB BKN070 26/24 Q1012","temp":26,"dewp":24,"wdir":290,"wspd":3,"visib":"6+","altim":1012,"clouds":[{"cover":"FEW","base":2000},{"cover":"FEW","base":2100},{"cover":"BKN","base":7000}],"obsTime":1775163600},"SBKP":{"icaoId":"SBKP","flightCategory":"VFR","rawOb":"METAR SBKP 022100Z 20009KT 9999 -RA SCT040 FEW045TCU SCT100 23/20 Q1015","temp":23,"dewp":20,"wdir":200,"wspd":9,"visib":"6+","altim":1015,"clouds":[{"cover":"SCT","base":4000},{"cover":"FEW","base":4500},{"cover":"SCT","base":10000}],"obsTime":1775163600},"SBLO":{"icaoId":"SBLO","flightCategory":"VFR","rawOb":"METAR SBLO 022100Z 23005KT 130V290 9999 FEW040 28/18 Q1013","temp":28,"dewp":18,"wdir":230,"wspd":5,"visib":"6+","altim":1013,"clouds":[{"cover":"FEW","base":4000}],"obsTime":1775163600},"SBMA":{"icaoId":"SBMA","flightCategory":"VFR","rawOb":"METAR SBMA 022100Z 36003KT 9999 -RA FEW009 SCT015 OVC100 24/23 Q1012","temp":24,"dewp":23,"wdir":360,"wspd":3,"visib":"6+","altim":1012,"clouds":[{"cover":"FEW","base":900},{"cover":"SCT","base":1500},{"cover":"OVC","base":10000}],"obsTime":1775163600},"SBME":{"icaoId":"SBME","flightCategory":"VFR","rawOb":"METAR SBME 022100Z 07007KT CAVOK 26/21 Q1013","temp":26,"dewp":21,"wdir":70,"wspd":7,"visib":"6+","altim":1013,"clouds":[],"obsTime":1775163600},"SBMG":{"icaoId":"SBMG","flightCategory":"VFR","rawOb":"METAR SBMG 022100Z 27005KT 9999 FEW046 28/18 Q1012","temp":28,"dewp":18,"wdir":270,"wspd":5,"visib":"6+","altim":1012,"clouds":[{"cover":"FEW","base":4600}],"obsTime":1775163600},"SBMK":{"icaoId":"SBMK","flightCategory":"VFR","rawOb":"METAR SBMK 022100Z 15005KT 9999 FEW035 BKN100 25/20 Q1016","temp":25,"dewp":20,"wdir":150,"wspd":5,"visib":"6+","altim":1016,"clouds":[{"cover":"FEW","base":3500},{"cover":"BKN","base":10000}],"obsTime":1775163600},"SBMO":{"icaoId":"SBMO","flightCategory":"VFR","rawOb":"METAR SBMO 022100Z 09008KT 9999 FEW020 27/24 Q1012","temp":27,"dewp":24,"wdir":90,"wspd":8,"visib":"6+","altim":1012,"clouds":[{"cover":"FEW","base":2000}],"obsTime":1775163600},"SBMQ":{"icaoId":"SBMQ","flightCategory":"VFR","rawOb":"METAR SBMQ 022100Z 09003KT 9999 SCT015 FEW027TCU 28/24 Q1010","temp":28,"dewp":24,"wdir":90,"wspd":3,"visib":"6+","altim":1010,"clouds":[{"cover":"SCT","base":1500},{"cover":"FEW","base":2700}],"obsTime":1775163600},"SBNT":{"icaoId":"SBNT","flightCategory":"VFR","rawOb":"METAR SBNT 022100Z 10006KT 9999 FEW019 SCT033 BKN090 28/25 Q1011","temp":28,"dewp":25,"wdir":100,"wspd":6,"visib":"6+","altim":1011,"clouds":[{"cover":"FEW","base":1900},{"cover":"SCT","base":3300},{"cover":"BKN","base":9000}],"obsTime":1775163600},"SBPA":{"icaoId":"SBPA","flightCategory":"VFR","rawOb":"METAR SBPA 022100Z 16008KT 9999 FEW040 27/18 Q1010","temp":27,"dewp":18,"wdir":160,"wspd":8,"visib":"6+","altim":1010,"clouds":[{"cover":"FEW","base":4000}],"obsTime":1775163600},"SBPJ":{"icaoId":"SBPJ","flightCategory":"VFR","rawOb":"METAR SBPJ 022100Z 03003KT 9999 SCT016 SCT030 BKN100 25/23 Q1013","temp":25,"dewp":23,"wdir":30,"wspd":3,"visib":"6+","altim":1013,"clouds":[{"cover":"SCT","base":1600},{"cover":"SCT","base":3000},{"cover":"BKN","base":10000}],"obsTime":1775163600},"SBPV":{"icaoId":"SBPV","flightCategory":"VFR","rawOb":"METAR SBPV 022100Z 07006KT 9999 FEW035 32/20 Q1006","temp":32,"dewp":20,"wdir":70,"wspd":6,"visib":"6+","altim":1006,"clouds":[{"cover":"FEW","base":3500}],"obsTime":1775163600},"SBRF":{"icaoId":"SBRF","flightCategory":"VFR","rawOb":"METAR SBRF 022100Z 12006KT 090V150 9999 FEW020 28/25 Q1011","temp":28,"dewp":25,"wdir":120,"wspd":6,"visib":"6+","altim":1011,"clouds":[{"cover":"FEW","base":2000}],"obsTime":1775163600},"SBSG":{"icaoId":"SBSG","flightCategory":"VFR","rawOb":"METAR SBSG 022100Z 11007KT 9999 SCT025 FEW030TCU SCT100 28/24 Q1011","temp":28,"dewp":24,"wdir":110,"wspd":7,"visib":"6+","altim":1011,"clouds":[{"cover":"SCT","base":2500},{"cover":"FEW","base":3000},{"cover":"SCT","base":10000}],"obsTime":1775163600},"SBSL":{"icaoId":"SBSL","flightCategory":"VFR","rawOb":"METAR SBSL 022100Z 10002KT 9999 FEW035 BKN090 27/24 Q1010","temp":27,"dewp":24,"wdir":100,"wspd":2,"visib":"6+","altim":1010,"clouds":[{"cover":"FEW","base":3500},{"cover":"BKN","base":9000}],"obsTime":1775163600},"SBSN":{"icaoId":"SBSN","flightCategory":"VFR","rawOb":"METAR SBSN 022100Z 06007KT 9999 FEW020 30/24 Q1009","temp":30,"dewp":24,"wdir":60,"wspd":7,"visib":"6+","altim":1009,"clouds":[{"cover":"FEW","base":2000}],"obsTime":1775163600},"SBSP":{"icaoId":"SBSP","flightCategory":"VFR","rawOb":"METAR SBSP 022100Z 20006KT 9999 FEW043 21/18 Q1018","temp":21,"dewp":18,"wdir":200,"wspd":6,"visib":"6+","altim":1018,"clouds":[{"cover":"FEW","base":4300}],"obsTime":1775163600},"SBSV":{"icaoId":"SBSV","flightCategory":"VFR","rawOb":"METAR SBSV 022100Z 12008KT 9999 SCT023 28/23 Q1012","temp":28,"dewp":23,"wdir":120,"wspd":8,"visib":"6+","altim":1012,"clouds":[{"cover":"SCT","base":2300}],"obsTime":1775163600},"SBTE":{"icaoId":"SBTE","flightCategory":"VFR","rawOb":"METAR SBTE 022100Z 33004KT 9999 VCSH SCT016 FEW025TCU BKN070 28/25 Q1010","temp":28,"dewp":25,"wdir":330,"wspd":4,"visib":"6+","altim":1010,"clouds":[{"cover":"SCT","base":1600},{"cover":"FEW","base":2500},{"cover":"BKN","base":7000}],"obsTime":1775163600},"SBUL":{"icaoId":"SBUL","flightCategory":"MVFR","rawOb":"METAR SBUL 022100Z 08007KT 9999 VCSH BKN025 FEW030TCU BKN090 24/16 Q1017","temp":24,"dewp":16,"wdir":80,"wspd":7,"visib":"6+","altim":1017,"clouds":[{"cover":"BKN","base":2500},{"cover":"FEW","base":3000},{"cover":"BKN","base":9000}],"obsTime":1775163600},"SBUR":{"icaoId":"SBUR","flightCategory":"VFR","rawOb":"METAR SBUR 022100Z 31005KT 9999 VCSH SCT050 FEW054TCU 28/18 Q1015","temp":28,"dewp":18,"wdir":310,"wspd":5,"visib":"6+","altim":1015,"clouds":[{"cover":"SCT","base":5000},{"cover":"FEW","base":5400}],"obsTime":1775163600},"SBVT":{"icaoId":"SBVT","flightCategory":"VFR","rawOb":"METAR SBVT 022100Z 05006KT 9999 SCT035 26/23 Q1014","temp":26,"dewp":23,"wdir":50,"wspd":6,"visib":"6+","altim":1014,"clouds":[{"cover":"SCT","base":3500}],"obsTime":1775163600},"SBCB":{"icaoId":"SBCB","flightCategory":"VFR","rawOb":"METAR SBCB 022100Z 07012KT 9999 FEW005 SCT015 26/22 Q1013","temp":26,"dewp":22,"wdir":70,"wspd":12,"visib":"6+","altim":1013,"clouds":[{"cover":"FEW","base":500},{"cover":"SCT","base":1500}],"obsTime":1775163600},"SBCR":{"icaoId":"SBCR","flightCategory":"VFR","rawOb":"METAR SBCR 022100Z 15008KT 080V180 9999 FEW040 FEW045TCU BKN100 31/20 Q1008","temp":31,"dewp":20,"wdir":150,"wspd":8,"visib":"6+","altim":1008,"clouds":[{"cover":"FEW","base":4000},{"cover":"FEW","base":4500},{"cover":"BKN","base":10000}],"obsTime":1775163600},"SBAT":{"icaoId":"SBAT","flightCategory":"VFR","rawOb":"METAR SBAT 022100Z 08002KT 9999 BKN035 31/23 Q1009","temp":31,"dewp":23,"wdir":80,"wspd":2,"visib":"6+","altim":1009,"clouds":[{"cover":"BKN","base":3500}],"obsTime":1775163600},"SBHT":{"icaoId":"SBHT","flightCategory":"VFR","rawOb":"METAR SBHT 022100Z 14002KT 9999 FEW015 BKN090 28/24 Q1011","temp":28,"dewp":24,"wdir":140,"wspd":2,"visib":"6+","altim":1011,"clouds":[{"cover":"FEW","base":1500},{"cover":"BKN","base":9000}],"obsTime":1775163600},"SBAX":{"icaoId":"SBAX","flightCategory":"VFR","rawOb":"METAR SBAX 022100Z 03004KT 9999 SCT040 23/18 Q1017","temp":23,"dewp":18,"wdir":30,"wspd":4,"visib":"6+","altim":1017,"clouds":[{"cover":"SCT","base":4000}],"obsTime":1775163600},"SBTT":{"icaoId":"SBTT","flightCategory":"VFR","rawOb":"METAR SBTT 022100Z 33003KT 240V010 9999 SCT023 27/23 Q1006","temp":27,"dewp":23,"wdir":330,"wspd":3,"visib":"6+","altim":1006,"clouds":[{"cover":"SCT","base":2300}],"obsTime":1775163600},"SBUY":{"icaoId":"SBUY","flightCategory":"VFR","rawOb":"METAR SBUY 022100Z 11003KT 9999 SCT030 33/23 Q1004","temp":33,"dewp":23,"wdir":110,"wspd":3,"visib":"6+","altim":1004,"clouds":[{"cover":"SCT","base":3000}],"obsTime":1775163600},"SBVH":{"icaoId":"SBVH","flightCategory":"MVFR","rawOb":"METAR SBVH 022100Z 06008KT 9999 BKN025 FEW035TCU SCT091 24/21 Q1012","temp":24,"dewp":21,"wdir":60,"wspd":8,"visib":"6+","altim":1012,"clouds":[{"cover":"BKN","base":2500},{"cover":"FEW","base":3500},{"cover":"SCT","base":9100}],"obsTime":1775163600},"SBOI":{"icaoId":"SBOI","flightCategory":"VFR","rawOb":"METAR SBOI 022100Z AUTO 07005KT 350V130 CAVOK 29/24 Q1009","temp":29,"dewp":24,"wdir":70,"wspd":5,"visib":"6+","altim":1009,"clouds":[],"obsTime":1775163600},"SBCJ":{"icaoId":"SBCJ","flightCategory":"LIFR","rawOb":"METAR SBCJ 022100Z 00000KT 0200 FG VV001 21/20 Q1016","temp":21,"dewp":20,"wdir":0,"wspd":0,"visib":0.12,"altim":1016,"clouds":[{"cover":"OVX","base":100}],"obsTime":1775163600},"SBPL":{"icaoId":"SBPL","flightCategory":"VFR","rawOb":"METAR SBPL 022100Z 10010KT 9999 TS SCT025 FEW030CB 26/21 Q1012","temp":26,"dewp":21,"wdir":100,"wspd":10,"visib":"6+","altim":1012,"clouds":[{"cover":"SCT","base":2500},{"cover":"FEW","base":3000}],"obsTime":1775163600},"SBBU":{"icaoId":"SBBU","flightCategory":"VFR","rawOb":"METAR SBBU 022100Z 13005KT 9999 FEW035 28/21 Q1014","temp":28,"dewp":21,"wdir":130,"wspd":5,"visib":"6+","altim":1014,"clouds":[{"cover":"FEW","base":3500}],"obsTime":1775163600},"SBCO":{"icaoId":"SBCO","flightCategory":"VFR","rawOb":"METAR SBCO 022100Z 16006KT CAVOK 26/19 Q1010","temp":26,"dewp":19,"wdir":160,"wspd":6,"visib":"6+","altim":1010,"clouds":[],"obsTime":1775163600},"SBPS":{"icaoId":"SBPS","flightCategory":"VFR","rawOb":"METAR SBPS 022100Z VRB02KT 9999 SCT020 26/23 Q1014","temp":26,"dewp":23,"wdir":"VRB","wspd":2,"visib":"6+","altim":1014,"clouds":[{"cover":"SCT","base":2000}],"obsTime":1775163600},"SBSC":{"icaoId":"SBSC","flightCategory":"IFR","rawOb":"METAR SBSC 022100Z 36006KT 3000 -TSRA BR SCT032 FEW035CB BKN100 23/22 Q1013 RETS","temp":23,"dewp":22,"wdir":360,"wspd":6,"visib":1.86,"altim":1013,"clouds":[{"cover":"SCT","base":3200},{"cover":"FEW","base":3500},{"cover":"BKN","base":10000}],"obsTime":1775163600},"SBDN":{"icaoId":"SBDN","flightCategory":"VFR","rawOb":"METAR SBDN 022100Z 00000KT 9999 FEW045 FEW050TCU 29/19 Q1012","temp":29,"dewp":19,"wdir":0,"wspd":0,"visib":"6+","altim":1012,"clouds":[{"cover":"FEW","base":4500},{"cover":"FEW","base":5000}],"obsTime":1775163600},"SBAR":{"icaoId":"SBAR","flightCategory":"VFR","rawOb":"METAR SBAR 022100Z 11008KT 9999 SCT022 29/23 Q1011","temp":29,"dewp":23,"wdir":110,"wspd":8,"visib":"6+","altim":1011,"clouds":[{"cover":"SCT","base":2200}],"obsTime":1775163600},"SBSJ":{"icaoId":"SBSJ","flightCategory":"VFR","rawOb":"METAR SBSJ 022100Z 15004KT 9999 VCTS FEW033 FEW045CB BKN100 21/19 Q1016","temp":21,"dewp":19,"wdir":150,"wspd":4,"visib":"6+","altim":1016,"clouds":[{"cover":"FEW","base":3300},{"cover":"FEW","base":4500},{"cover":"BKN","base":10000}],"obsTime":1775163600},"SBSM":{"icaoId":"SBSM","flightCategory":"VFR","rawOb":"METAR SBSM 022100Z 00000KT CAVOK 28/22 Q1009","temp":28,"dewp":22,"wdir":0,"wspd":0,"visib":"6+","altim":1009,"clouds":[],"obsTime":1775163600},"SBCA":{"icaoId":"SBCA","flightCategory":"VFR","rawOb":"METAR SBCA 022100Z 34008KT 9999 SCT020 25/19 Q1015","temp":25,"dewp":19,"wdir":340,"wspd":8,"visib":"6+","altim":1015,"clouds":[{"cover":"SCT","base":2000}],"obsTime":1775163600},"SBIP":{"icaoId":"SBIP","flightCategory":"VFR","rawOb":"METAR SBIP 022100Z AUTO 00000KT CAVOK 25/20 Q1015","temp":25,"dewp":20,"wdir":0,"wspd":0,"visib":"6+","altim":1015,"clouds":[],"obsTime":1775163600},"SBSR":{"icaoId":"SBSR","flightCategory":"VFR","rawOb":"METAR SBSR 022100Z 24004KT 9999 SCT025 29/18 Q1013","temp":29,"dewp":18,"wdir":240,"wspd":4,"visib":"6+","altim":1013,"clouds":[{"cover":"SCT","base":2500}],"obsTime":1775163600},"SBTF":{"icaoId":"SBTF","flightCategory":"VFR","rawOb":"METAR SBTF 022100Z 09006KT 9999 FEW018 33/24 Q1006","temp":33,"dewp":24,"wdir":90,"wspd":6,"visib":"6+","altim":1006,"clouds":[{"cover":"FEW","base":1800}],"obsTime":1775163600},"SBBH":{"icaoId":"SBBH","flightCategory":"VFR","rawOb":"METAR SBBH 022100Z 08008KT 9999 SCT045 25/19 Q1017","temp":25,"dewp":19,"wdir":80,"wspd":8,"visib":"6+","altim":1017,"clouds":[{"cover":"SCT","base":4500}],"obsTime":1775163600},"SBKG":{"icaoId":"SBKG","flightCategory":"VFR","rawOb":"METAR SBKG 022100Z 09005KT CAVOK 25/23 Q1014","temp":25,"dewp":23,"wdir":90,"wspd":5,"visib":"6+","altim":1014,"clouds":[],"obsTime":1775163600},"SBPB":{"icaoId":"SBPB","flightCategory":"MVFR","rawOb":"METAR SBPB 022100Z 06003KT 9999 BKN015 OVC080 27/25 Q1010","temp":27,"dewp":25,"wdir":60,"wspd":3,"visib":"6+","altim":1010,"clouds":[{"cover":"BKN","base":1500},{"cover":"OVC","base":8000}],"obsTime":1775163600},"SBES":{"icaoId":"SBES","flightCategory":"VFR","rawOb":"METAR SBES 022100Z 06011KT 020V080 CAVOK 25/// Q1013","temp":null,"dewp":null,"wdir":60,"wspd":11,"visib":"6+","altim":1013,"clouds":[],"obsTime":1775163600},"SBPP":{"icaoId":"SBPP","flightCategory":"VFR","rawOb":"METAR SBPP 022100Z 06005KT 9999 SCT025 25/20 Q1014","temp":25,"dewp":20,"wdir":60,"wspd":5,"visib":"6+","altim":1014,"clouds":[{"cover":"SCT","base":2500}],"obsTime":1775163600},"SBJP":{"icaoId":"SBJP","flightCategory":"VFR","rawOb":"METAR SBJP 022100Z 09005KT 9999 SCT020 BKN070 28/24 Q1011","temp":28,"dewp":24,"wdir":90,"wspd":5,"visib":"6+","altim":1011,"clouds":[{"cover":"SCT","base":2000},{"cover":"BKN","base":7000}],"obsTime":1775163600},"SBAF":{"icaoId":"SBAF","flightCategory":"VFR","rawOb":" SBAF 022100Z 20005KT 140V270 9999 -TSRA SCT025 FEW040CB 23/23 Q1013 RERA","temp":23,"dewp":23,"wdir":200,"wspd":5,"visib":"6+","altim":1013,"clouds":[{"cover":"SCT","base":2500},{"cover":"FEW","base":4000}],"obsTime":1775163600},"SBGW":{"icaoId":"SBGW","flightCategory":"VFR","rawOb":"METAR SBGW 022100Z VRB02KT 9999 FEW035 FEW040TCU SCT100 25/18 Q1014","temp":25,"dewp":18,"wdir":"VRB","wspd":2,"visib":"6+","altim":1014,"clouds":[{"cover":"FEW","base":3500},{"cover":"FEW","base":4000},{"cover":"SCT","base":10000}],"obsTime":1775163600},"SBJR":{"icaoId":"SBJR","flightCategory":"MVFR","rawOb":"METAR SBJR 022100Z 03011KT 5000 -TSRA BR BKN010 FEW035CB BKN080 24/21 Q1013 RETS","temp":24,"dewp":21,"wdir":30,"wspd":11,"visib":3.11,"altim":1013,"clouds":[{"cover":"BKN","base":1000},{"cover":"FEW","base":3500},{"cover":"BKN","base":8000}],"obsTime":1775163600},"SBLS":{"icaoId":"SBLS","flightCategory":"VFR","rawOb":"METAR SBLS 022100Z 13007KT 9999 FEW035 FEW040TCU 23/20 Q1017","temp":23,"dewp":20,"wdir":130,"wspd":7,"visib":"6+","altim":1017,"clouds":[{"cover":"FEW","base":3500},{"cover":"FEW","base":4000}],"obsTime":1775163600},"SBMT":{"icaoId":"SBMT","flightCategory":"VFR","rawOb":"METAR SBMT 022100Z 27004KT 9999 SCT030 21/20 Q1016","temp":21,"dewp":20,"wdir":270,"wspd":4,"visib":"6+","altim":1016,"clouds":[{"cover":"SCT","base":3000}],"obsTime":1775163600},"SBTA":{"icaoId":"SBTA","flightCategory":"VFR","rawOb":"METAR SBTA 022100Z 24003KT 140V260 9999 VCSH FEW030 FEW040TCU SCT050 24/21 Q1015","temp":24,"dewp":21,"wdir":240,"wspd":3,"visib":"6+","altim":1015,"clouds":[{"cover":"FEW","base":3000},{"cover":"FEW","base":4000},{"cover":"SCT","base":5000}],"obsTime":1775163600},"SBAN":{"icaoId":"SBAN","flightCategory":"MVFR","rawOb":"METAR SBAN 022100Z 16007KT 9000 TS VCSH FEW010 BKN025 FEW035CB BKN100 21/18 Q1019","temp":21,"dewp":18,"wdir":160,"wspd":7,"visib":5.59,"altim":1019,"clouds":[{"cover":"FEW","base":1000},{"cover":"BKN","base":2500},{"cover":"FEW","base":3500},{"cover":"BKN","base":10000}],"obsTime":1775163600},"SBJV":{"icaoId":"SBJV","flightCategory":"VFR","rawOb":"METAR SBJV 022100Z 03003KT 9999 FEW030 28/24 Q1011","temp":28,"dewp":24,"wdir":30,"wspd":3,"visib":"6+","altim":1011,"clouds":[{"cover":"FEW","base":3000}],"obsTime":1775163600},"SBIH":{"icaoId":"SBIH","flightCategory":"VFR","rawOb":"METAR SBIH 022100Z 06005KT 9999 FEW020 31/24 Q1008","temp":31,"dewp":24,"wdir":60,"wspd":5,"visib":"6+","altim":1008,"clouds":[{"cover":"FEW","base":2000}],"obsTime":1775163600},"SBLE":{"icaoId":"SBLE","flightCategory":"VFR","rawOb":"METAR SBLE 022100Z AUTO 16003KT 9999 BKN041 26/22 Q1014","temp":26,"dewp":22,"wdir":160,"wspd":3,"visib":"6+","altim":1014,"clouds":[{"cover":"BKN","base":4100}],"obsTime":1775163600},"SBPF":{"icaoId":"SBPF","flightCategory":"VFR","rawOb":"METAR SBPF 022100Z 04006KT 9999 FEW040 25/18 Q1014","temp":25,"dewp":18,"wdir":40,"wspd":6,"visib":"6+","altim":1014,"clouds":[{"cover":"FEW","base":4000}],"obsTime":1775163600},"SBST":{"icaoId":"SBST","flightCategory":"MVFR","rawOb":"METAR SBST 022100Z 27008KT 210V330 6000 +TSRA BKN035CB OVC048 22/21 Q1015","temp":22,"dewp":21,"wdir":270,"wspd":8,"visib":3.73,"altim":1015,"clouds":[{"cover":"BKN","base":3500},{"cover":"OVC","base":4800}],"obsTime":1775163600}}}