{"updated":1776941488,"count":70,"data":{"SBEG":{"icaoId":"SBEG","flightCategory":"MVFR","rawOb":"METAR SBEG 230900Z 06001KT 9999 BKN012 BKN100 24/23 Q1010","temp":24,"dewp":23,"wdir":60,"wspd":1,"visib":"6+","altim":1010,"clouds":[{"cover":"BKN","base":1200},{"cover":"BKN","base":10000}],"obsTime":1776934800},"SBPV":{"icaoId":"SBPV","flightCategory":"LIFR","rawOb":"METAR SBPV 230900Z 35001KT 2000 BR BKN002 24/23 Q1010","temp":24,"dewp":23,"wdir":350,"wspd":1,"visib":1.24,"altim":1010,"clouds":[{"cover":"BKN","base":200}],"obsTime":1776934800},"SBCT":{"icaoId":"SBCT","flightCategory":"LIFR","rawOb":"METAR SBCT 230900Z 05002KT 0300 R33/0400 R15/0500 FG VV001 12/12 Q1021","temp":12,"dewp":12,"wdir":50,"wspd":2,"visib":0.19,"altim":1021,"clouds":[{"cover":"OVX","base":100}],"obsTime":1776934800},"SBSV":{"icaoId":"SBSV","flightCategory":"VFR","rawOb":"METAR SBSV 230900Z 14007KT 9000 VCSH SCT020 OVC055 25/24 Q1013","temp":25,"dewp":24,"wdir":140,"wspd":7,"visib":5.59,"altim":1013,"clouds":[{"cover":"SCT","base":2000},{"cover":"OVC","base":5500}],"obsTime":1776934800},"SBFI":{"icaoId":"SBFI","flightCategory":"IFR","rawOb":"METAR SBFI 230900Z 16002KT 2000 BR BCFG SCT002 20/20 Q1015","temp":20,"dewp":20,"wdir":160,"wspd":2,"visib":1.24,"altim":1015,"clouds":[{"cover":"SCT","base":200}],"obsTime":1776934800},"SBVT":{"icaoId":"SBVT","flightCategory":"VFR","rawOb":"METAR SBVT 230900Z 29003KT 9999 FEW026 BKN094 22/22 Q1017","temp":22,"dewp":22,"wdir":290,"wspd":3,"visib":"6+","altim":1017,"clouds":[{"cover":"FEW","base":2600},{"cover":"BKN","base":9400}],"obsTime":1776934800},"SBBR":{"icaoId":"SBBR","flightCategory":"VFR","rawOb":"METAR SBBR 230900Z VRB02KT CAVOK 17/15 Q1019","temp":17,"dewp":15,"wdir":"VRB","wspd":2,"visib":"6+","altim":1019,"clouds":[],"obsTime":1776934800},"SBBV":{"icaoId":"SBBV","flightCategory":"VFR","rawOb":"METAR SBBV 230900Z 13005KT 9999 FEW030 FEW040TCU BKN100 23/23 Q1011","temp":23,"dewp":23,"wdir":130,"wspd":5,"visib":"6+","altim":1011,"clouds":[{"cover":"FEW","base":3000},{"cover":"FEW","base":4000},{"cover":"BKN","base":10000}],"obsTime":1776934800},"SBCB":{"icaoId":"SBCB","flightCategory":"VFR","rawOb":"METAR SBCB 230900Z 02002KT CAVOK 19/17 Q1017","temp":19,"dewp":17,"wdir":20,"wspd":2,"visib":"6+","altim":1017,"clouds":[],"obsTime":1776934800},"SBCF":{"icaoId":"SBCF","flightCategory":"VFR","rawOb":"METAR SBCF 230900Z 13007KT CAVOK 20/17 Q1020","temp":20,"dewp":17,"wdir":130,"wspd":7,"visib":"6+","altim":1020,"clouds":[],"obsTime":1776934800},"SBCG":{"icaoId":"SBCG","flightCategory":"VFR","rawOb":"METAR SBCG 230900Z 10006KT CAVOK 22/13 Q1016","temp":22,"dewp":13,"wdir":100,"wspd":6,"visib":"6+","altim":1016,"clouds":[],"obsTime":1776934800},"SBCP":{"icaoId":"SBCP","flightCategory":"VFR","rawOb":"METAR SBCP 231000Z 28003KT CAVOK 21/20 Q1018","temp":21,"dewp":20,"wdir":280,"wspd":3,"visib":"6+","altim":1018,"clouds":[],"obsTime":1776938400},"SBFL":{"icaoId":"SBFL","flightCategory":"VFR","rawOb":"METAR SBFL 230900Z 23002KT 9999 BKN040 20/19 Q1017","temp":20,"dewp":19,"wdir":230,"wspd":2,"visib":"6+","altim":1017,"clouds":[{"cover":"BKN","base":4000}],"obsTime":1776934800},"SBFZ":{"icaoId":"SBFZ","flightCategory":"MVFR","rawOb":"METAR SBFZ 230900Z COR 25003KT 8000 SHRA SCT020 FEW025TCU 25/24 Q1010","temp":25,"dewp":24,"wdir":250,"wspd":3,"visib":4.97,"altim":1010,"clouds":[{"cover":"SCT","base":2000},{"cover":"FEW","base":2500}],"obsTime":1776934800},"SBGL":{"icaoId":"SBGL","flightCategory":"VFR","rawOb":"METAR SBGL 230900Z 02003KT 350V060 9999 FEW009 BKN040 21/19 Q1017","temp":21,"dewp":19,"wdir":20,"wspd":3,"visib":"6+","altim":1017,"clouds":[{"cover":"FEW","base":900},{"cover":"BKN","base":4000}],"obsTime":1776934800},"SBGO":{"icaoId":"SBGO","flightCategory":"VFR","rawOb":"METAR SBGO 230900Z 09002KT CAVOK 20/18 Q1017","temp":20,"dewp":18,"wdir":90,"wspd":2,"visib":"6+","altim":1017,"clouds":[],"obsTime":1776934800},"SBGR":{"icaoId":"SBGR","flightCategory":"MVFR","rawOb":"METAR SBGR 230900Z 10003KT 9999 OVC013 19/16 Q1020","temp":19,"dewp":16,"wdir":100,"wspd":3,"visib":"6+","altim":1020,"clouds":[{"cover":"OVC","base":1300}],"obsTime":1776934800},"SBHT":{"icaoId":"SBHT","flightCategory":"VFR","rawOb":"METAR SBHT 231000Z 00000KT 9999 FEW010 BKN080 24/24 Q1011","temp":24,"dewp":24,"wdir":0,"wspd":0,"visib":"6+","altim":1011,"clouds":[{"cover":"FEW","base":1000},{"cover":"BKN","base":8000}],"obsTime":1776938400},"SBIL":{"icaoId":"SBIL","flightCategory":"VFR","rawOb":"METAR SBIL 231000Z 25006KT 230V290 9999 VCSH SCT020 BKN035 25/23 Q1015","temp":25,"dewp":23,"wdir":250,"wspd":6,"visib":"6+","altim":1015,"clouds":[{"cover":"SCT","base":2000},{"cover":"BKN","base":3500}],"obsTime":1776938400},"SBJU":{"icaoId":"SBJU","flightCategory":"VFR","rawOb":"METAR SBJU 230900Z 18003KT 9999 FEW011 SCT020 23/21 Q1013","temp":23,"dewp":21,"wdir":180,"wspd":3,"visib":"6+","altim":1013,"clouds":[{"cover":"FEW","base":1100},{"cover":"SCT","base":2000}],"obsTime":1776934800},"SBKP":{"icaoId":"SBKP","flightCategory":"VFR","rawOb":"METAR SBKP 230900Z 11009KT CAVOK 18/16 Q1019","temp":18,"dewp":16,"wdir":110,"wspd":9,"visib":"6+","altim":1019,"clouds":[],"obsTime":1776934800},"SBLO":{"icaoId":"SBLO","flightCategory":"VFR","rawOb":"METAR SBLO 230900Z 14002KT CAVOK 17/15 Q1018","temp":17,"dewp":15,"wdir":140,"wspd":2,"visib":"6+","altim":1018,"clouds":[],"obsTime":1776934800},"SBMA":{"icaoId":"SBMA","flightCategory":"VFR","rawOb":"METAR SBMA 230900Z 12002KT 9999 FEW008 BKN100 24/24 Q1010","temp":24,"dewp":24,"wdir":120,"wspd":2,"visib":"6+","altim":1010,"clouds":[{"cover":"FEW","base":800},{"cover":"BKN","base":10000}],"obsTime":1776934800},"SBME":{"icaoId":"SBME","flightCategory":"VFR","rawOb":"METAR SBME 230900Z VRB01KT CAVOK 19/18 Q1017","temp":19,"dewp":18,"wdir":"VRB","wspd":1,"visib":"6+","altim":1017,"clouds":[],"obsTime":1776934800},"SBMG":{"icaoId":"SBMG","flightCategory":"VFR","rawOb":"METAR SBMG 230900Z AUTO 14005KT CAVOK 20/15 Q1016","temp":20,"dewp":15,"wdir":140,"wspd":5,"visib":"6+","altim":1016,"clouds":[],"obsTime":1776934800},"SBMK":{"icaoId":"SBMK","flightCategory":"VFR","rawOb":"METAR SBMK 230900Z 00000KT CAVOK 18/16 Q1019","temp":18,"dewp":16,"wdir":0,"wspd":0,"visib":"6+","altim":1019,"clouds":[],"obsTime":1776934800},"SBMO":{"icaoId":"SBMO","flightCategory":"VFR","rawOb":"METAR SBMO 230900Z 32003KT 9999 VCSH SCT020 FEW025TCU 24/23 Q1012","temp":24,"dewp":23,"wdir":320,"wspd":3,"visib":"6+","altim":1012,"clouds":[{"cover":"SCT","base":2000},{"cover":"FEW","base":2500}],"obsTime":1776934800},"SBMQ":{"icaoId":"SBMQ","flightCategory":"VFR","rawOb":"METAR SBMQ 230900Z 32002KT 9999 FEW004 25/25 Q1010","temp":25,"dewp":25,"wdir":320,"wspd":2,"visib":"6+","altim":1010,"clouds":[{"cover":"FEW","base":400}],"obsTime":1776934800},"SBNT":{"icaoId":"SBNT","flightCategory":"VFR","rawOb":"METAR SBNT 230900Z 16004KT 120V190 9999 FEW020 SCT060 24/24 Q1011","temp":24,"dewp":24,"wdir":160,"wspd":4,"visib":"6+","altim":1011,"clouds":[{"cover":"FEW","base":2000},{"cover":"SCT","base":6000}],"obsTime":1776934800},"SBPA":{"icaoId":"SBPA","flightCategory":"VFR","rawOb":"METAR SBPA 230900Z 06004KT 030V090 9000 SCT025 21/19 Q1018","temp":21,"dewp":19,"wdir":60,"wspd":4,"visib":5.59,"altim":1018,"clouds":[{"cover":"SCT","base":2500}],"obsTime":1776934800},"SBPJ":{"icaoId":"SBPJ","flightCategory":"VFR","rawOb":"METAR SBPJ 230900Z 14004KT 9999 FEW008 23/22 Q1012","temp":23,"dewp":22,"wdir":140,"wspd":4,"visib":"6+","altim":1012,"clouds":[{"cover":"FEW","base":800}],"obsTime":1776934800},"SBRB":{"icaoId":"SBRB","flightCategory":"MVFR","rawOb":"METAR SBRB 230900Z 00000KT 6000 -RA FEW016 BKN080 22/22 Q1010 RERA","temp":22,"dewp":22,"wdir":0,"wspd":0,"visib":3.73,"altim":1010,"clouds":[{"cover":"FEW","base":1600},{"cover":"BKN","base":8000}],"obsTime":1776934800},"SBRF":{"icaoId":"SBRF","flightCategory":"VFR","rawOb":"METAR SBRF 230900Z 21004KT 9999 SCT020 25/24 Q1011","temp":25,"dewp":24,"wdir":210,"wspd":4,"visib":"6+","altim":1011,"clouds":[{"cover":"SCT","base":2000}],"obsTime":1776934800},"SBSG":{"icaoId":"SBSG","flightCategory":"VFR","rawOb":"METAR SBSG 230900Z 17003KT 130V200 9999 FEW020 24/23 Q1011","temp":24,"dewp":23,"wdir":170,"wspd":3,"visib":"6+","altim":1011,"clouds":[{"cover":"FEW","base":2000}],"obsTime":1776934800},"SBSL":{"icaoId":"SBSL","flightCategory":"VFR","rawOb":"METAR SBSL 230900Z 12004KT 9999 FEW020 SCT100 25/24 Q1010","temp":25,"dewp":24,"wdir":120,"wspd":4,"visib":"6+","altim":1010,"clouds":[{"cover":"FEW","base":2000},{"cover":"SCT","base":10000}],"obsTime":1776934800},"SBSN":{"icaoId":"SBSN","flightCategory":"MVFR","rawOb":"METAR SBSN 230900Z 23003KT 8000 -TSRA FEW003 SCT010 FEW025CB OVC080 24/23 Q1011 RERA","temp":24,"dewp":23,"wdir":230,"wspd":3,"visib":4.97,"altim":1011,"clouds":[{"cover":"FEW","base":300},{"cover":"SCT","base":1000},{"cover":"FEW","base":2500},{"cover":"OVC","base":8000}],"obsTime":1776934800},"SBSP":{"icaoId":"SBSP","flightCategory":"VFR","rawOb":"METAR SBSP 230900Z 14004KT 100V170 9999 SCT018 18/16 Q1021","temp":18,"dewp":16,"wdir":140,"wspd":4,"visib":"6+","altim":1021,"clouds":[{"cover":"SCT","base":1800}],"obsTime":1776934800},"SBTE":{"icaoId":"SBTE","flightCategory":"VFR","rawOb":"METAR SBTE 230900Z 00000KT 9999 FEW015 BKN040 25/24 Q1010","temp":25,"dewp":24,"wdir":0,"wspd":0,"visib":"6+","altim":1010,"clouds":[{"cover":"FEW","base":1500},{"cover":"BKN","base":4000}],"obsTime":1776934800},"SBUL":{"icaoId":"SBUL","flightCategory":"VFR","rawOb":"METAR SBUL 230900Z 10002KT CAVOK 20/19 Q1019","temp":20,"dewp":19,"wdir":100,"wspd":2,"visib":"6+","altim":1019,"clouds":[],"obsTime":1776934800},"SBUR":{"icaoId":"SBUR","flightCategory":"VFR","rawOb":"METAR SBUR 230900Z 06003KT CAVOK 21/17 Q1018","temp":21,"dewp":17,"wdir":60,"wspd":3,"visib":"6+","altim":1018,"clouds":[],"obsTime":1776934800},"SBBE":{"icaoId":"SBBE","flightCategory":"VFR","rawOb":"METAR SBBE 230900Z 10003KT 9999 FEW008 25/25 Q1009","temp":25,"dewp":25,"wdir":100,"wspd":3,"visib":"6+","altim":1009,"clouds":[{"cover":"FEW","base":800}],"obsTime":1776934800},"SBAR":{"icaoId":"SBAR","flightCategory":"VFR","rawOb":"METAR SBAR 230900Z 10005KT 9999 VCSH FEW008 SCT020 BKN050 25/24 Q1012","temp":25,"dewp":24,"wdir":100,"wspd":5,"visib":"6+","altim":1012,"clouds":[{"cover":"FEW","base":800},{"cover":"SCT","base":2000},{"cover":"BKN","base":5000}],"obsTime":1776934800},"SBCJ":{"icaoId":"SBCJ","flightCategory":"VFR","rawOb":"SPECI SBCJ 231015Z 11007KT CAVOK 24/21 Q1015","temp":24,"dewp":21,"wdir":110,"wspd":7,"visib":"6+","altim":1015,"clouds":[],"obsTime":1776939300},"SBPB":{"icaoId":"SBPB","flightCategory":"VFR","rawOb":"SPECI SBPB 231015Z 15003KT 9999 SCT018 26/25 Q1011","temp":26,"dewp":25,"wdir":150,"wspd":3,"visib":"6+","altim":1011,"clouds":[{"cover":"SCT","base":1800}],"obsTime":1776939300},"SBSR":{"icaoId":"SBSR","flightCategory":"VFR","rawOb":"METAR SBSR 230900Z 18003KT CAVOK 20/15 Q1016","temp":20,"dewp":15,"wdir":180,"wspd":3,"visib":"6+","altim":1016,"clouds":[],"obsTime":1776934800},"SBAX":{"icaoId":"SBAX","flightCategory":"VFR","rawOb":"METAR SBAX 230900Z AUTO 12007KT CAVOK 20/18 Q1019","temp":20,"dewp":18,"wdir":120,"wspd":7,"visib":"6+","altim":1019,"clouds":[],"obsTime":1776934800},"SBBH":{"icaoId":"SBBH","flightCategory":"VFR","rawOb":"METAR SBBH 230900Z 10007KT 9999 BKN049 20/17 Q1020","temp":20,"dewp":17,"wdir":100,"wspd":7,"visib":"6+","altim":1020,"clouds":[{"cover":"BKN","base":4900}],"obsTime":1776934800},"SBBU":{"icaoId":"SBBU","flightCategory":"VFR","rawOb":"METAR SBBU 230900Z 11007KT CAVOK 17/15 Q1018","temp":17,"dewp":15,"wdir":110,"wspd":7,"visib":"6+","altim":1018,"clouds":[],"obsTime":1776934800},"SBCO":{"icaoId":"SBCO","flightCategory":"VFR","rawOb":"METAR SBCO 230900Z 00000KT 9999 SCT045 20/19 Q1018","temp":20,"dewp":19,"wdir":0,"wspd":0,"visib":"6+","altim":1018,"clouds":[{"cover":"SCT","base":4500}],"obsTime":1776934800},"SBDN":{"icaoId":"SBDN","flightCategory":"VFR","rawOb":"METAR SBDN 230900Z 11009KT CAVOK 19/13 Q1016","temp":19,"dewp":13,"wdir":110,"wspd":9,"visib":"6+","altim":1016,"clouds":[],"obsTime":1776934800},"SBES":{"icaoId":"SBES","flightCategory":"VFR","rawOb":"METAR SBES 230900Z 01002KT CAVOK 15/// Q1017","temp":null,"dewp":null,"wdir":10,"wspd":2,"visib":"6+","altim":1017,"clouds":[],"obsTime":1776934800},"SBIP":{"icaoId":"SBIP","flightCategory":"VFR","rawOb":"METAR SBIP 230900Z AUTO VRB01KT 9999 FEW035 BKN045 20/20 Q1018","temp":20,"dewp":20,"wdir":"VRB","wspd":1,"visib":"6+","altim":1018,"clouds":[{"cover":"FEW","base":3500},{"cover":"BKN","base":4500}],"obsTime":1776934800},"SBKG":{"icaoId":"SBKG","flightCategory":"VFR","rawOb":"METAR SBKG 230900Z 14003KT 9999 SCT010 22/21 Q1014","temp":22,"dewp":21,"wdir":140,"wspd":3,"visib":"6+","altim":1014,"clouds":[{"cover":"SCT","base":1000}],"obsTime":1776934800},"SBOI":{"icaoId":"SBOI","flightCategory":"VFR","rawOb":"METAR SBOI 230900Z AUTO VRB01KT 9999 // SCT016/// BKN032/// 24/24 Q1011","temp":24,"dewp":24,"wdir":"VRB","wspd":1,"visib":"6+","altim":1011,"clouds":[{"cover":"SCT","base":1600},{"cover":"BKN","base":3200}],"obsTime":1776934800},"SBPL":{"icaoId":"SBPL","flightCategory":"MVFR","rawOb":"METAR SBPL 230900Z 13008KT 9999 BKN020 24/21 Q1014","temp":24,"dewp":21,"wdir":130,"wspd":8,"visib":"6+","altim":1014,"clouds":[{"cover":"BKN","base":2000}],"obsTime":1776934800},"SBPS":{"icaoId":"SBPS","flightCategory":"VFR","rawOb":"METAR SBPS 230900Z 25005KT 9999 SCT020 22/21 Q1015","temp":22,"dewp":21,"wdir":250,"wspd":5,"visib":"6+","altim":1015,"clouds":[{"cover":"SCT","base":2000}],"obsTime":1776934800},"SBSC":{"icaoId":"SBSC","flightCategory":"MVFR","rawOb":"METAR SBSC 230900Z 03002KT 8000 FEW020 SCT050 20/19 Q1017","temp":20,"dewp":19,"wdir":30,"wspd":2,"visib":4.97,"altim":1017,"clouds":[{"cover":"FEW","base":2000},{"cover":"SCT","base":5000}],"obsTime":1776934800},"SBSJ":{"icaoId":"SBSJ","flightCategory":"MVFR","rawOb":"METAR SBSJ 230900Z 12004KT 020V080 6000 OVC014 19/17 Q1020","temp":19,"dewp":17,"wdir":120,"wspd":4,"visib":3.73,"altim":1020,"clouds":[{"cover":"OVC","base":1400}],"obsTime":1776934800},"SBSM":{"icaoId":"SBSM","flightCategory":"MVFR","rawOb":"METAR SBSM 230900Z VRB02KT 9999 BKN013 OVC020 20/19 Q1018","temp":20,"dewp":19,"wdir":"VRB","wspd":2,"visib":"6+","altim":1018,"clouds":[{"cover":"BKN","base":1300},{"cover":"OVC","base":2000}],"obsTime":1776934800},"SBPF":{"icaoId":"SBPF","flightCategory":"LIFR","rawOb":"METAR SBPF 230900Z 16008KT 0200 FG VV002 18/17 Q1019","temp":18,"dewp":17,"wdir":160,"wspd":8,"visib":0.12,"altim":1019,"clouds":[{"cover":"OVX","base":200}],"obsTime":1776934800},"SBLE":{"icaoId":"SBLE","flightCategory":"VFR","rawOb":"METAR SBLE 230900Z AUTO VRB01KT CAVOK ///// Q////","temp":null,"dewp":null,"wdir":"VRB","wspd":1,"visib":"6+","altim":null,"clouds":[],"obsTime":1776934800},"SBAF":{"icaoId":"SBAF","flightCategory":"VFR","rawOb":"METAR SBAF 231000Z 23002KT 9999 FEW030 19/19 Q1018","temp":19,"dewp":19,"wdir":230,"wspd":2,"visib":"6+","altim":1018,"clouds":[{"cover":"FEW","base":3000}],"obsTime":1776938400},"SBGW":{"icaoId":"SBGW","flightCategory":"MVFR","rawOb":"METAR SBGW 230900Z 03004KT 350V080 8000 BKN030 19/14 Q1019","temp":19,"dewp":14,"wdir":30,"wspd":4,"visib":4.97,"altim":1019,"clouds":[{"cover":"BKN","base":3000}],"obsTime":1776934800},"SBJR":{"icaoId":"SBJR","flightCategory":"VFR","rawOb":"METAR SBJR 231000Z 02002KT 9999 FEW035 21/20 Q1018","temp":21,"dewp":20,"wdir":20,"wspd":2,"visib":"6+","altim":1018,"clouds":[{"cover":"FEW","base":3500}],"obsTime":1776938400},"SBLS":{"icaoId":"SBLS","flightCategory":"VFR","rawOb":"METAR SBLS 230900Z 14008KT 9999 SCT040 BKN080 20/17 Q1020","temp":20,"dewp":17,"wdir":140,"wspd":8,"visib":"6+","altim":1020,"clouds":[{"cover":"SCT","base":4000},{"cover":"BKN","base":8000}],"obsTime":1776934800},"SBMT":{"icaoId":"SBMT","flightCategory":"MVFR","rawOb":"METAR SBMT 230900Z 09006KT 8000 SCT017 BKN025 19/16 Q1020","temp":19,"dewp":16,"wdir":90,"wspd":6,"visib":4.97,"altim":1020,"clouds":[{"cover":"SCT","base":1700},{"cover":"BKN","base":2500}],"obsTime":1776934800},"SBTA":{"icaoId":"SBTA","flightCategory":"MVFR","rawOb":"METAR SBTA 230900Z 07004KT 040V100 8000 SCT025 BKN035 19/18 Q1019","temp":19,"dewp":18,"wdir":70,"wspd":4,"visib":4.97,"altim":1019,"clouds":[{"cover":"SCT","base":2500},{"cover":"BKN","base":3500}],"obsTime":1776934800},"SBJV":{"icaoId":"SBJV","flightCategory":"VFR","rawOb":"METAR SBJV 230900Z 00000KT CAVOK 16/16 Q1018","temp":16,"dewp":16,"wdir":0,"wspd":0,"visib":"6+","altim":1018,"clouds":[],"obsTime":1776934800},"SBJP":{"icaoId":"SBJP","flightCategory":"VFR","rawOb":"METAR SBJP 230900Z 00000KT 9999 FEW022 24/23 Q1012","temp":24,"dewp":23,"wdir":0,"wspd":0,"visib":"6+","altim":1012,"clouds":[{"cover":"FEW","base":2200}],"obsTime":1776934800},"SBAN":{"icaoId":"SBAN","flightCategory":"VFR","rawOb":"METAR SBAN 230900Z 16006KT CAVOK 18/15 Q1020","temp":18,"dewp":15,"wdir":160,"wspd":6,"visib":"6+","altim":1020,"clouds":[],"obsTime":1776934800}}}