{"updated":1778107036,"count":82,"data":{"SBEG":{"icaoId":"SBEG","flightCategory":"VFR","rawOb":"METAR SBEG 062100Z 26005KT 9999 VCSH SCT025 FEW030TCU SCT100 28/25 Q1011","temp":28,"dewp":25,"wdir":260,"wspd":5,"visib":"6+","altim":1011,"clouds":[{"cover":"SCT","base":2500},{"cover":"FEW","base":3000},{"cover":"SCT","base":10000}],"obsTime":1778101200},"SBBE":{"icaoId":"SBBE","flightCategory":"VFR","rawOb":"METAR SBBE 062100Z 08006KT 9999 SCT037 27/24 Q1011","temp":27,"dewp":24,"wdir":80,"wspd":6,"visib":"6+","altim":1011,"clouds":[{"cover":"SCT","base":3700}],"obsTime":1778101200},"SBBR":{"icaoId":"SBBR","flightCategory":"VFR","rawOb":"METAR SBBR 062100Z 11007KT 9999 SCT045 24/15 Q1020","temp":24,"dewp":15,"wdir":110,"wspd":7,"visib":"6+","altim":1020,"clouds":[{"cover":"SCT","base":4500}],"obsTime":1778101200},"SBBV":{"icaoId":"SBBV","flightCategory":"VFR","rawOb":"METAR SBBV 062100Z 09008KT 9999 SCT040 FEW045TCU 32/21 Q1011","temp":32,"dewp":21,"wdir":90,"wspd":8,"visib":"6+","altim":1011,"clouds":[{"cover":"SCT","base":4000},{"cover":"FEW","base":4500}],"obsTime":1778101200},"SBCF":{"icaoId":"SBCF","flightCategory":"VFR","rawOb":"METAR SBCF 062100Z 12008KT 9999 FEW043 23/16 Q1022","temp":23,"dewp":16,"wdir":120,"wspd":8,"visib":"6+","altim":1022,"clouds":[{"cover":"FEW","base":4300}],"obsTime":1778101200},"SBCG":{"icaoId":"SBCG","flightCategory":"VFR","rawOb":"METAR SBCG 062100Z 33005KT CAVOK 29/17 Q1015","temp":29,"dewp":17,"wdir":330,"wspd":5,"visib":"6+","altim":1015,"clouds":[],"obsTime":1778101200},"SBCP":{"icaoId":"SBCP","flightCategory":"VFR","rawOb":"METAR SBCP 062100Z COR 10007KT 9999 FEW030 25/23 Q1018","temp":25,"dewp":23,"wdir":100,"wspd":7,"visib":"6+","altim":1018,"clouds":[{"cover":"FEW","base":3000}],"obsTime":1778101200},"SBCT":{"icaoId":"SBCT","flightCategory":"VFR","rawOb":"METAR SBCT 062100Z 07006KT CAVOK 23/18 Q1021","temp":23,"dewp":18,"wdir":70,"wspd":6,"visib":"6+","altim":1021,"clouds":[],"obsTime":1778101200},"SBCZ":{"icaoId":"SBCZ","flightCategory":"VFR","rawOb":"METAR SBCZ 062100Z 33006KT 9999 VCSH SCT030 FEW030TCU 29/26 Q1011","temp":29,"dewp":26,"wdir":330,"wspd":6,"visib":"6+","altim":1011,"clouds":[{"cover":"SCT","base":3000},{"cover":"FEW","base":3000}],"obsTime":1778101200},"SBFI":{"icaoId":"SBFI","flightCategory":"VFR","rawOb":"METAR SBFI 062100Z 05006KT CAVOK 27/23 Q1012","temp":27,"dewp":23,"wdir":50,"wspd":6,"visib":"6+","altim":1012,"clouds":[],"obsTime":1778101200},"SBFL":{"icaoId":"SBFL","flightCategory":"VFR","rawOb":"METAR SBFL 062100Z 32008KT CAVOK 24/22 Q1015","temp":24,"dewp":22,"wdir":320,"wspd":8,"visib":"6+","altim":1015,"clouds":[],"obsTime":1778101200},"SBFZ":{"icaoId":"SBFZ","flightCategory":"VFR","rawOb":"METAR SBFZ 062100Z 10008KT 9999 FEW020 28/24 Q1011","temp":28,"dewp":24,"wdir":100,"wspd":8,"visib":"6+","altim":1011,"clouds":[{"cover":"FEW","base":2000}],"obsTime":1778101200},"SBGL":{"icaoId":"SBGL","flightCategory":"VFR","rawOb":"METAR SBGL 062100Z 14006KT CAVOK 26/22 Q1017","temp":26,"dewp":22,"wdir":140,"wspd":6,"visib":"6+","altim":1017,"clouds":[],"obsTime":1778101200},"SBGO":{"icaoId":"SBGO","flightCategory":"VFR","rawOb":"METAR SBGO 062100Z 09007KT CAVOK 28/15 Q1018","temp":28,"dewp":15,"wdir":90,"wspd":7,"visib":"6+","altim":1018,"clouds":[],"obsTime":1778101200},"SBGR":{"icaoId":"SBGR","flightCategory":"VFR","rawOb":"METAR SBGR 062100Z 08003KT CAVOK 26/16 Q1021","temp":26,"dewp":16,"wdir":80,"wspd":3,"visib":"6+","altim":1021,"clouds":[],"obsTime":1778101200},"SBIL":{"icaoId":"SBIL","flightCategory":"VFR","rawOb":"METAR SBIL 062100Z 28004KT 9999 FEW018 FEW020TCU SCT070 25/23 Q1016","temp":25,"dewp":23,"wdir":280,"wspd":4,"visib":"6+","altim":1016,"clouds":[{"cover":"FEW","base":1800},{"cover":"FEW","base":2000},{"cover":"SCT","base":7000}],"obsTime":1778101200},"SBJU":{"icaoId":"SBJU","flightCategory":"VFR","rawOb":"METAR SBJU 062100Z 06003KT CAVOK 28/20 Q1013","temp":28,"dewp":20,"wdir":60,"wspd":3,"visib":"6+","altim":1013,"clouds":[],"obsTime":1778101200},"SBKP":{"icaoId":"SBKP","flightCategory":"VFR","rawOb":"METAR SBKP 062100Z 15002KT 9999 FEW040 28/15 Q1019","temp":28,"dewp":15,"wdir":150,"wspd":2,"visib":"6+","altim":1019,"clouds":[{"cover":"FEW","base":4000}],"obsTime":1778101200},"SBLO":{"icaoId":"SBLO","flightCategory":"VFR","rawOb":"METAR SBLO 062100Z 03003KT CAVOK 27/19 Q1018","temp":27,"dewp":19,"wdir":30,"wspd":3,"visib":"6+","altim":1018,"clouds":[],"obsTime":1778101200},"SBMA":{"icaoId":"SBMA","flightCategory":"VFR","rawOb":"METAR SBMA 062100Z 00000KT 9999 FEW020 FEW025TCU 31/25 Q1010","temp":31,"dewp":25,"wdir":0,"wspd":0,"visib":"6+","altim":1010,"clouds":[{"cover":"FEW","base":2000},{"cover":"FEW","base":2500}],"obsTime":1778101200},"SBME":{"icaoId":"SBME","flightCategory":"VFR","rawOb":"METAR SBME 062100Z 08007KT 9999 FEW020 26/23 Q1018","temp":26,"dewp":23,"wdir":80,"wspd":7,"visib":"6+","altim":1018,"clouds":[{"cover":"FEW","base":2000}],"obsTime":1778101200},"SBMG":{"icaoId":"SBMG","flightCategory":"VFR","rawOb":"METAR SBMG 062100Z 07008KT CAVOK 26/18 Q1016","temp":26,"dewp":18,"wdir":70,"wspd":8,"visib":"6+","altim":1016,"clouds":[],"obsTime":1778101200},"SBMK":{"icaoId":"SBMK","flightCategory":"VFR","rawOb":"METAR SBMK 062100Z 10006KT CAVOK 25/17 Q1019","temp":25,"dewp":17,"wdir":100,"wspd":6,"visib":"6+","altim":1019,"clouds":[],"obsTime":1778101200},"SBMO":{"icaoId":"SBMO","flightCategory":"MVFR","rawOb":"METAR SBMO 062100Z 15005KT 110V180 9999 BKN025 SCT070 27/23 Q1013","temp":27,"dewp":23,"wdir":150,"wspd":5,"visib":"6+","altim":1013,"clouds":[{"cover":"BKN","base":2500},{"cover":"SCT","base":7000}],"obsTime":1778101200},"SBMQ":{"icaoId":"SBMQ","flightCategory":"VFR","rawOb":"METAR SBMQ 062100Z 03007KT 9999 FEW019 FEW040TCU BKN080 27/25 Q1010","temp":27,"dewp":25,"wdir":30,"wspd":7,"visib":"6+","altim":1010,"clouds":[{"cover":"FEW","base":1900},{"cover":"FEW","base":4000},{"cover":"BKN","base":8000}],"obsTime":1778101200},"SBNT":{"icaoId":"SBNT","flightCategory":"VFR","rawOb":"METAR SBNT 062100Z 15007KT 9999 FEW025 27/23 Q1012","temp":27,"dewp":23,"wdir":150,"wspd":7,"visib":"6+","altim":1012,"clouds":[{"cover":"FEW","base":2500}],"obsTime":1778101200},"SBPA":{"icaoId":"SBPA","flightCategory":"VFR","rawOb":"METAR SBPA 062100Z VRB02KT CAVOK 28/22 Q1012","temp":28,"dewp":22,"wdir":"VRB","wspd":2,"visib":"6+","altim":1012,"clouds":[],"obsTime":1778101200},"SBPJ":{"icaoId":"SBPJ","flightCategory":"VFR","rawOb":"METAR SBPJ 062100Z 16002KT CAVOK 31/22 Q1013","temp":31,"dewp":22,"wdir":160,"wspd":2,"visib":"6+","altim":1013,"clouds":[],"obsTime":1778101200},"SBPV":{"icaoId":"SBPV","flightCategory":"VFR","rawOb":"METAR SBPV 062100Z 02004KT 9999 SCT020 FEW026TCU 27/23 Q1011","temp":27,"dewp":23,"wdir":20,"wspd":4,"visib":"6+","altim":1011,"clouds":[{"cover":"SCT","base":2000},{"cover":"FEW","base":2600}],"obsTime":1778101200},"SBRB":{"icaoId":"SBRB","flightCategory":"MVFR","rawOb":"METAR SBRB 062100Z 03003KT 9999 VCSH BKN030 31/24 Q1010","temp":31,"dewp":24,"wdir":30,"wspd":3,"visib":"6+","altim":1010,"clouds":[{"cover":"BKN","base":3000}],"obsTime":1778101200},"SBRF":{"icaoId":"SBRF","flightCategory":"VFR","rawOb":"METAR SBRF 062100Z 21003KT 190V250 9999 FEW022 BKN050 25/24 Q1012","temp":25,"dewp":24,"wdir":210,"wspd":3,"visib":"6+","altim":1012,"clouds":[{"cover":"FEW","base":2200},{"cover":"BKN","base":5000}],"obsTime":1778101200},"SBSG":{"icaoId":"SBSG","flightCategory":"VFR","rawOb":"METAR SBSG 062100Z 14004KT 110V170 9999 FEW025 26/23 Q1012","temp":26,"dewp":23,"wdir":140,"wspd":4,"visib":"6+","altim":1012,"clouds":[{"cover":"FEW","base":2500}],"obsTime":1778101200},"SBSL":{"icaoId":"SBSL","flightCategory":"MVFR","rawOb":"METAR SBSL 062100Z 32001KT 9999 FEW012 BKN020 25/24 Q1012","temp":25,"dewp":24,"wdir":320,"wspd":1,"visib":"6+","altim":1012,"clouds":[{"cover":"FEW","base":1200},{"cover":"BKN","base":2000}],"obsTime":1778101200},"SBSN":{"icaoId":"SBSN","flightCategory":"VFR","rawOb":"METAR SBSN 062100Z 09006KT 040V100 9999 FEW022 FEW025TCU 30/23 Q1010","temp":30,"dewp":23,"wdir":90,"wspd":6,"visib":"6+","altim":1010,"clouds":[{"cover":"FEW","base":2200},{"cover":"FEW","base":2500}],"obsTime":1778101200},"SBSP":{"icaoId":"SBSP","flightCategory":"VFR","rawOb":"METAR SBSP 062100Z 16008KT CAVOK 24/19 Q1021","temp":24,"dewp":19,"wdir":160,"wspd":8,"visib":"6+","altim":1021,"clouds":[],"obsTime":1778101200},"SBSV":{"icaoId":"SBSV","flightCategory":"MVFR","rawOb":"METAR SBSV 062100Z 19008KT 160V220 9000 VCSH BKN016 SCT022 FEW026TCU 26/24 Q1015","temp":26,"dewp":24,"wdir":190,"wspd":8,"visib":5.59,"altim":1015,"clouds":[{"cover":"BKN","base":1600},{"cover":"SCT","base":2200},{"cover":"FEW","base":2600}],"obsTime":1778101200},"SBTE":{"icaoId":"SBTE","flightCategory":"VFR","rawOb":"METAR SBTE 062100Z 15005KT 9999 FEW030 31/23 Q1010","temp":31,"dewp":23,"wdir":150,"wspd":5,"visib":"6+","altim":1010,"clouds":[{"cover":"FEW","base":3000}],"obsTime":1778101200},"SBUL":{"icaoId":"SBUL","flightCategory":"VFR","rawOb":"METAR SBUL 062100Z 11003KT CAVOK 26/14 Q1020","temp":26,"dewp":14,"wdir":110,"wspd":3,"visib":"6+","altim":1020,"clouds":[],"obsTime":1778101200},"SBUR":{"icaoId":"SBUR","flightCategory":"VFR","rawOb":"METAR SBUR 062100Z 08004KT CAVOK 28/13 Q1019","temp":28,"dewp":13,"wdir":80,"wspd":4,"visib":"6+","altim":1019,"clouds":[],"obsTime":1778101200},"SBVT":{"icaoId":"SBVT","flightCategory":"VFR","rawOb":"METAR SBVT 062100Z 19004KT 9999 SCT030 25/23 Q1018","temp":25,"dewp":23,"wdir":190,"wspd":4,"visib":"6+","altim":1018,"clouds":[{"cover":"SCT","base":3000}],"obsTime":1778101200},"SBCB":{"icaoId":"SBCB","flightCategory":"VFR","rawOb":"METAR SBCB 062100Z 07010KT CAVOK 25/22 Q1018","temp":25,"dewp":22,"wdir":70,"wspd":10,"visib":"6+","altim":1018,"clouds":[],"obsTime":1778101200},"SBCR":{"icaoId":"SBCR","flightCategory":"VFR","rawOb":"METAR SBCR 062100Z 04008KT 010V070 CAVOK 32/21 Q1011","temp":32,"dewp":21,"wdir":40,"wspd":8,"visib":"6+","altim":1011,"clouds":[],"obsTime":1778101200},"SBAT":{"icaoId":"SBAT","flightCategory":"VFR","rawOb":"METAR SBAT 062100Z 12002KT 9999 FEW045 32/20 Q1012","temp":32,"dewp":20,"wdir":120,"wspd":2,"visib":"6+","altim":1012,"clouds":[{"cover":"FEW","base":4500}],"obsTime":1778101200},"SBHT":{"icaoId":"SBHT","flightCategory":"VFR","rawOb":"METAR SBHT 062100Z 00000KT 9999 FEW030 30/25 Q1010","temp":30,"dewp":25,"wdir":0,"wspd":0,"visib":"6+","altim":1010,"clouds":[{"cover":"FEW","base":3000}],"obsTime":1778101200},"SBVH":{"icaoId":"SBVH","flightCategory":"VFR","rawOb":"METAR SBVH 062100Z 08006KT 9999 FEW040 28/21 Q1015","temp":28,"dewp":21,"wdir":80,"wspd":6,"visib":"6+","altim":1015,"clouds":[{"cover":"FEW","base":4000}],"obsTime":1778101200},"SBPL":{"icaoId":"SBPL","flightCategory":"VFR","rawOb":"METAR SBPL 062100Z 13005KT 9999 FEW025 30/15 Q1013","temp":30,"dewp":15,"wdir":130,"wspd":5,"visib":"6+","altim":1013,"clouds":[{"cover":"FEW","base":2500}],"obsTime":1778101200},"SBCO":{"icaoId":"SBCO","flightCategory":"VFR","rawOb":"METAR SBCO 062100Z 07002KT CAVOK 26/23 Q1012","temp":26,"dewp":23,"wdir":70,"wspd":2,"visib":"6+","altim":1012,"clouds":[],"obsTime":1778101200},"SBBH":{"icaoId":"SBBH","flightCategory":"VFR","rawOb":"METAR SBBH 062100Z 10006KT CAVOK 24/16 Q1021","temp":24,"dewp":16,"wdir":100,"wspd":6,"visib":"6+","altim":1021,"clouds":[],"obsTime":1778101200},"SBDN":{"icaoId":"SBDN","flightCategory":"VFR","rawOb":"METAR SBDN 062100Z 07005KT CAVOK 28/15 Q1016","temp":28,"dewp":15,"wdir":70,"wspd":5,"visib":"6+","altim":1016,"clouds":[],"obsTime":1778101200},"SBPS":{"icaoId":"SBPS","flightCategory":"VFR","rawOb":"METAR SBPS 062100Z 15003KT 9999 SCT018 26/24 Q1017","temp":26,"dewp":24,"wdir":150,"wspd":3,"visib":"6+","altim":1017,"clouds":[{"cover":"SCT","base":1800}],"obsTime":1778101200},"SBCA":{"icaoId":"SBCA","flightCategory":"VFR","rawOb":"METAR SBCA 062100Z 05014KT CAVOK 26/18 Q1018","temp":26,"dewp":18,"wdir":50,"wspd":14,"visib":"6+","altim":1018,"clouds":[],"obsTime":1778101200},"SBSC":{"icaoId":"SBSC","flightCategory":"VFR","rawOb":"METAR SBSC 062100Z 27005KT CAVOK 24/22 Q1017","temp":24,"dewp":22,"wdir":270,"wspd":5,"visib":"6+","altim":1017,"clouds":[],"obsTime":1778101200},"SBES":{"icaoId":"SBES","flightCategory":"VFR","rawOb":"METAR SBES 062100Z 06011KT 020V090 9999 FEW012 24/// Q1018","temp":null,"dewp":null,"wdir":60,"wspd":11,"visib":"6+","altim":1018,"clouds":[{"cover":"FEW","base":1200}],"obsTime":1778101200},"SBSJ":{"icaoId":"SBSJ","flightCategory":"VFR","rawOb":"METAR SBSJ 062100Z 13004KT 070V140 9999 FEW048 25/16 Q1020","temp":25,"dewp":16,"wdir":130,"wspd":4,"visib":"6+","altim":1020,"clouds":[{"cover":"FEW","base":4800}],"obsTime":1778101200},"SBBU":{"icaoId":"SBBU","flightCategory":"VFR","rawOb":"METAR SBBU 062100Z 12003KT CAVOK 29/16 Q1018","temp":29,"dewp":16,"wdir":120,"wspd":3,"visib":"6+","altim":1018,"clouds":[],"obsTime":1778101200},"SBAR":{"icaoId":"SBAR","flightCategory":"MVFR","rawOb":"METAR SBAR 062100Z 11018KT 9000 -RA FEW011 BKN030 26/24 Q1013","temp":26,"dewp":24,"wdir":110,"wspd":18,"visib":5.59,"altim":1013,"clouds":[{"cover":"FEW","base":1100},{"cover":"BKN","base":3000}],"obsTime":1778101200},"SBSM":{"icaoId":"SBSM","flightCategory":"VFR","rawOb":"METAR SBSM 062100Z 01004KT 330V040 CAVOK 29/20 Q1011","temp":29,"dewp":20,"wdir":10,"wspd":4,"visib":"6+","altim":1011,"clouds":[],"obsTime":1778101200},"SBIP":{"icaoId":"SBIP","flightCategory":"VFR","rawOb":"METAR SBIP 062100Z AUTO 00000KT CAVOK 22/20 Q1018","temp":22,"dewp":20,"wdir":0,"wspd":0,"visib":"6+","altim":1018,"clouds":[],"obsTime":1778101200},"SBSR":{"icaoId":"SBSR","flightCategory":"VFR","rawOb":"METAR SBSR 062100Z 08004KT CAVOK 29/11 Q1017","temp":29,"dewp":11,"wdir":80,"wspd":4,"visib":"6+","altim":1017,"clouds":[],"obsTime":1778101200},"SBTF":{"icaoId":"SBTF","flightCategory":"VFR","rawOb":"METAR SBTF 062100Z 05005KT 9999 FEW009 BKN100 25/24 Q1012","temp":25,"dewp":24,"wdir":50,"wspd":5,"visib":"6+","altim":1012,"clouds":[{"cover":"FEW","base":900},{"cover":"BKN","base":10000}],"obsTime":1778101200},"SBAX":{"icaoId":"SBAX","flightCategory":"VFR","rawOb":"METAR SBAX 062100Z 09004KT CAVOK 24/14 Q1021","temp":24,"dewp":14,"wdir":90,"wspd":4,"visib":"6+","altim":1021,"clouds":[],"obsTime":1778101200},"SBKG":{"icaoId":"SBKG","flightCategory":"VFR","rawOb":"METAR SBKG 062100Z 09006KT 9999 FEW040 SCT070 23/22 Q1015","temp":23,"dewp":22,"wdir":90,"wspd":6,"visib":"6+","altim":1015,"clouds":[{"cover":"FEW","base":4000},{"cover":"SCT","base":7000}],"obsTime":1778101200},"SBTT":{"icaoId":"SBTT","flightCategory":"MVFR","rawOb":"METAR SBTT 062100Z 13004KT 9999 BKN030 BKN070 30/23 Q1010","temp":30,"dewp":23,"wdir":130,"wspd":4,"visib":"6+","altim":1010,"clouds":[{"cover":"BKN","base":3000},{"cover":"BKN","base":7000}],"obsTime":1778101200},"SBOI":{"icaoId":"SBOI","flightCategory":"VFR","rawOb":"METAR SBOI 062100Z AUTO 04007KT 9999 SCT030 BKN045 29/23 Q1011","temp":29,"dewp":23,"wdir":40,"wspd":7,"visib":"6+","altim":1011,"clouds":[{"cover":"SCT","base":3000},{"cover":"BKN","base":4500}],"obsTime":1778101200},"SBTU":{"icaoId":"SBTU","flightCategory":"VFR","rawOb":"METAR SBTU 062100Z AUTO 03002KT 9999 // ///////// ///// Q1012","temp":null,"dewp":null,"wdir":30,"wspd":2,"visib":"6+","altim":1012,"clouds":[],"obsTime":1778101200},"SBUY":{"icaoId":"SBUY","flightCategory":"VFR","rawOb":"METAR SBUY 062100Z 08007KT 9999 SCT010 FEW030TCU BKN090 26/25 Q1011","temp":26,"dewp":25,"wdir":80,"wspd":7,"visib":"6+","altim":1011,"clouds":[{"cover":"SCT","base":1000},{"cover":"FEW","base":3000},{"cover":"BKN","base":9000}],"obsTime":1778101200},"SBPB":{"icaoId":"SBPB","flightCategory":"MVFR","rawOb":"METAR SBPB 062100Z 02003KT 9999 BKN015 FEW025TCU BKN080 28/26 Q1010","temp":28,"dewp":26,"wdir":20,"wspd":3,"visib":"6+","altim":1010,"clouds":[{"cover":"BKN","base":1500},{"cover":"FEW","base":2500},{"cover":"BKN","base":8000}],"obsTime":1778101200},"SBCJ":{"icaoId":"SBCJ","flightCategory":"VFR","rawOb":"METAR SBCJ 062100Z 00000KT CAVOK 26/21 Q1015","temp":26,"dewp":21,"wdir":0,"wspd":0,"visib":"6+","altim":1015,"clouds":[],"obsTime":1778101200},"SBPP":{"icaoId":"SBPP","flightCategory":"VFR","rawOb":"METAR SBPP 062100Z 03006KT 9999 FEW020 27/21 Q1015","temp":27,"dewp":21,"wdir":30,"wspd":6,"visib":"6+","altim":1015,"clouds":[{"cover":"FEW","base":2000}],"obsTime":1778101200},"SBAN":{"icaoId":"SBAN","flightCategory":"VFR","rawOb":"METAR SBAN 062100Z 21006KT 9999 FEW045 23/14 Q1021","temp":23,"dewp":14,"wdir":210,"wspd":6,"visib":"6+","altim":1021,"clouds":[{"cover":"FEW","base":4500}],"obsTime":1778101200},"SBAF":{"icaoId":"SBAF","flightCategory":"VFR","rawOb":"METAR SBAF 062100Z 16005KT CAVOK 26/23 Q1017","temp":26,"dewp":23,"wdir":160,"wspd":5,"visib":"6+","altim":1017,"clouds":[],"obsTime":1778101200},"SBGW":{"icaoId":"SBGW","flightCategory":"VFR","rawOb":"METAR SBGW 062100Z 02003KT CAVOK 24/15 Q1019","temp":24,"dewp":15,"wdir":20,"wspd":3,"visib":"6+","altim":1019,"clouds":[],"obsTime":1778101200},"SBJR":{"icaoId":"SBJR","flightCategory":"VFR","rawOb":"METAR SBJR 062100Z 29001KT CAVOK 24/22 Q1017","temp":24,"dewp":22,"wdir":290,"wspd":1,"visib":"6+","altim":1017,"clouds":[],"obsTime":1778101200},"SBLS":{"icaoId":"SBLS","flightCategory":"VFR","rawOb":"METAR SBLS 062100Z 13008KT 9999 FEW045 23/16 Q1021","temp":23,"dewp":16,"wdir":130,"wspd":8,"visib":"6+","altim":1021,"clouds":[{"cover":"FEW","base":4500}],"obsTime":1778101200},"SBJP":{"icaoId":"SBJP","flightCategory":"VFR","rawOb":"METAR SBJP 062100Z 14006KT CAVOK 26/23 Q1012","temp":26,"dewp":23,"wdir":140,"wspd":6,"visib":"6+","altim":1012,"clouds":[],"obsTime":1778101200},"SBMT":{"icaoId":"SBMT","flightCategory":"VFR","rawOb":"METAR SBMT 062100Z 08005KT CAVOK 26/14 Q1020","temp":26,"dewp":14,"wdir":80,"wspd":5,"visib":"6+","altim":1020,"clouds":[],"obsTime":1778101200},"SBTA":{"icaoId":"SBTA","flightCategory":"VFR","rawOb":"METAR SBTA 062100Z 06002KT 9999 FEW040 24/17 Q1019","temp":24,"dewp":17,"wdir":60,"wspd":2,"visib":"6+","altim":1019,"clouds":[{"cover":"FEW","base":4000}],"obsTime":1778101200},"SBLE":{"icaoId":"SBLE","flightCategory":"IFR","rawOb":"METAR SBLE 062100Z AUTO 10006KT 080V140 9999 -RA BKN007 ///// Q////","temp":null,"dewp":null,"wdir":100,"wspd":6,"visib":"6+","altim":null,"clouds":[{"cover":"BKN","base":700}],"obsTime":1778101200},"SBJV":{"icaoId":"SBJV","flightCategory":"VFR","rawOb":"METAR SBJV 062100Z 21003KT 9999 SCT015 24/23 Q1016","temp":24,"dewp":23,"wdir":210,"wspd":3,"visib":"6+","altim":1016,"clouds":[{"cover":"SCT","base":1500}],"obsTime":1778101200},"SBST":{"icaoId":"SBST","flightCategory":"MVFR","rawOb":"METAR SBST 062100Z /////KT 9999 BKN018 ///// Q1017","temp":null,"dewp":null,"wdir":null,"wspd":null,"visib":"6+","altim":1017,"clouds":[{"cover":"BKN","base":1800}],"obsTime":1778101200},"SBPF":{"icaoId":"SBPF","flightCategory":"VFR","rawOb":"METAR SBPF 062100Z 35007KT CAVOK 24/17 Q1018","temp":24,"dewp":17,"wdir":350,"wspd":7,"visib":"6+","altim":1018,"clouds":[],"obsTime":1778101200},"SBIH":{"icaoId":"SBIH","flightCategory":"VFR","rawOb":"METAR SBIH 062100Z 15003KT 9999 FEW018 FEW025TCU SCT100 29/25 Q1010","temp":29,"dewp":25,"wdir":150,"wspd":3,"visib":"6+","altim":1010,"clouds":[{"cover":"FEW","base":1800},{"cover":"FEW","base":2500},{"cover":"SCT","base":10000}],"obsTime":1778101200}}}