{"updated":1773806310,"count":59,"data":{"SBNT":{"icaoId":"SBNT","flightCategory":"MVFR","rawOb":"METAR SBNT 180200Z 20005KT 9999 VCSH BKN017 26/25 Q1012","temp":26,"dewp":25,"wdir":200,"wspd":5,"visib":"6+","altim":1012,"clouds":[{"cover":"BKN","base":1700}],"obsTime":1773799200},"SBBR":{"icaoId":"SBBR","flightCategory":"VFR","rawOb":"METAR SBBR 180200Z 18004KT 9999 SCT020 22/19 Q1018","temp":22,"dewp":19,"wdir":180,"wspd":4,"visib":"6+","altim":1018,"clouds":[{"cover":"SCT","base":2000}],"obsTime":1773799200},"SBVT":{"icaoId":"SBVT","flightCategory":"VFR","rawOb":"METAR SBVT 180200Z 30003KT 9999 BKN038 25/22 Q1013","temp":25,"dewp":22,"wdir":300,"wspd":3,"visib":"6+","altim":1013,"clouds":[{"cover":"BKN","base":3800}],"obsTime":1773799200},"SBBV":{"icaoId":"SBBV","flightCategory":"VFR","rawOb":"METAR SBBV 180200Z 08007KT CAVOK 29/20 Q1010","temp":29,"dewp":20,"wdir":80,"wspd":7,"visib":"6+","altim":1010,"clouds":[],"obsTime":1773799200},"SBCB":{"icaoId":"SBCB","flightCategory":"VFR","rawOb":"METAR SBCB 180200Z 09003KT CAVOK 24/21 Q1014","temp":24,"dewp":21,"wdir":90,"wspd":3,"visib":"6+","altim":1014,"clouds":[],"obsTime":1773799200},"SBCF":{"icaoId":"SBCF","flightCategory":"VFR","rawOb":"METAR SBCF 180200Z 12003KT 070V150 9999 FEW020 FEW030TCU SCT100 22/20 Q1017","temp":22,"dewp":20,"wdir":120,"wspd":3,"visib":"6+","altim":1017,"clouds":[{"cover":"FEW","base":2000},{"cover":"FEW","base":3000},{"cover":"SCT","base":10000}],"obsTime":1773799200},"SBCG":{"icaoId":"SBCG","flightCategory":"VFR","rawOb":"METAR SBCG 180200Z 35004KT CAVOK 24/20 Q1013","temp":24,"dewp":20,"wdir":350,"wspd":4,"visib":"6+","altim":1013,"clouds":[],"obsTime":1773799200},"SBCT":{"icaoId":"SBCT","flightCategory":"IFR","rawOb":"METAR SBCT 180200Z 07007KT 9999 OVC008 20/19 Q1018","temp":20,"dewp":19,"wdir":70,"wspd":7,"visib":"6+","altim":1018,"clouds":[{"cover":"OVC","base":800}],"obsTime":1773799200},"SBEG":{"icaoId":"SBEG","flightCategory":"VFR","rawOb":"METAR SBEG 180200Z 00000KT 9999 FEW006 SCT020 25/25 Q1011","temp":25,"dewp":25,"wdir":0,"wspd":0,"visib":"6+","altim":1011,"clouds":[{"cover":"FEW","base":600},{"cover":"SCT","base":2000}],"obsTime":1773799200},"SBFI":{"icaoId":"SBFI","flightCategory":"VFR","rawOb":"METAR SBFI 180200Z 12004KT 9999 FEW030 SCT100 23/23 Q1010","temp":23,"dewp":23,"wdir":120,"wspd":4,"visib":"6+","altim":1010,"clouds":[{"cover":"FEW","base":3000},{"cover":"SCT","base":10000}],"obsTime":1773799200},"SBFL":{"icaoId":"SBFL","flightCategory":"VFR","rawOb":"METAR SBFL 180200Z 35008KT 320V020 9999 BKN040 26/23 Q1012","temp":26,"dewp":23,"wdir":350,"wspd":8,"visib":"6+","altim":1012,"clouds":[{"cover":"BKN","base":4000}],"obsTime":1773799200},"SBFZ":{"icaoId":"SBFZ","flightCategory":"VFR","rawOb":"METAR SBFZ 180200Z 09005KT 9999 SCT020 28/24 Q1011","temp":28,"dewp":24,"wdir":90,"wspd":5,"visib":"6+","altim":1011,"clouds":[{"cover":"SCT","base":2000}],"obsTime":1773799200},"SBGL":{"icaoId":"SBGL","flightCategory":"VFR","rawOb":"METAR SBGL 180200Z 14003KT 9999 FEW045 25/22 Q1013","temp":25,"dewp":22,"wdir":140,"wspd":3,"visib":"6+","altim":1013,"clouds":[{"cover":"FEW","base":4500}],"obsTime":1773799200},"SBGO":{"icaoId":"SBGO","flightCategory":"VFR","rawOb":"METAR SBGO 180200Z 03003KT 9999 FEW013 OVC100 22/21 Q1016","temp":22,"dewp":21,"wdir":30,"wspd":3,"visib":"6+","altim":1016,"clouds":[{"cover":"FEW","base":1300},{"cover":"OVC","base":10000}],"obsTime":1773799200},"SBGR":{"icaoId":"SBGR","flightCategory":"VFR","rawOb":"METAR SBGR 180200Z 14002KT CAVOK 20/19 Q1017","temp":20,"dewp":19,"wdir":140,"wspd":2,"visib":"6+","altim":1017,"clouds":[],"obsTime":1773799200},"SBJU":{"icaoId":"SBJU","flightCategory":"VFR","rawOb":"METAR SBJU 180200Z 00000KT 9999 FEW020 24/23 Q1014","temp":24,"dewp":23,"wdir":0,"wspd":0,"visib":"6+","altim":1014,"clouds":[{"cover":"FEW","base":2000}],"obsTime":1773799200},"SBKP":{"icaoId":"SBKP","flightCategory":"VFR","rawOb":"METAR SBKP 180200Z 12011KT CAVOK 24/20 Q1015","temp":24,"dewp":20,"wdir":120,"wspd":11,"visib":"6+","altim":1015,"clouds":[],"obsTime":1773799200},"SBLO":{"icaoId":"SBLO","flightCategory":"VFR","rawOb":"METAR SBLO 180200Z 08006KT 9999 -TSRA SCT014 FEW050CB BKN080 22/20 Q1015","temp":22,"dewp":20,"wdir":80,"wspd":6,"visib":"6+","altim":1015,"clouds":[{"cover":"SCT","base":1400},{"cover":"FEW","base":5000},{"cover":"BKN","base":8000}],"obsTime":1773799200},"SBMA":{"icaoId":"SBMA","flightCategory":"VFR","rawOb":"METAR SBMA 180200Z 00000KT 9999 FEW012 BKN100 26/25 Q1012","temp":26,"dewp":25,"wdir":0,"wspd":0,"visib":"6+","altim":1012,"clouds":[{"cover":"FEW","base":1200},{"cover":"BKN","base":10000}],"obsTime":1773799200},"SBME":{"icaoId":"SBME","flightCategory":"VFR","rawOb":"METAR SBME 180200Z 06004KT 9999 SCT025 25/22 Q1013","temp":25,"dewp":22,"wdir":60,"wspd":4,"visib":"6+","altim":1013,"clouds":[{"cover":"SCT","base":2500}],"obsTime":1773799200},"SBMG":{"icaoId":"SBMG","flightCategory":"VFR","rawOb":"METAR SBMG 180200Z 11009KT 9999 SCT040 BKN100 23/19 Q1012","temp":23,"dewp":19,"wdir":110,"wspd":9,"visib":"6+","altim":1012,"clouds":[{"cover":"SCT","base":4000},{"cover":"BKN","base":10000}],"obsTime":1773799200},"SBMK":{"icaoId":"SBMK","flightCategory":"VFR","rawOb":"METAR SBMK 180200Z 00000KT CAVOK 23/21 Q1015","temp":23,"dewp":21,"wdir":0,"wspd":0,"visib":"6+","altim":1015,"clouds":[],"obsTime":1773799200},"SBMO":{"icaoId":"SBMO","flightCategory":"VFR","rawOb":"METAR SBMO 180200Z 03002KT CAVOK 24/23 Q1012","temp":24,"dewp":23,"wdir":30,"wspd":2,"visib":"6+","altim":1012,"clouds":[],"obsTime":1773799200},"SBMQ":{"icaoId":"SBMQ","flightCategory":"MVFR","rawOb":"METAR SBMQ 180200Z 06014KT 8000 -RA BKN012 FEW027TCU BKN060 24/24 Q1012","temp":24,"dewp":24,"wdir":60,"wspd":14,"visib":4.97,"altim":1012,"clouds":[{"cover":"BKN","base":1200},{"cover":"FEW","base":2700},{"cover":"BKN","base":6000}],"obsTime":1773799200},"SBPA":{"icaoId":"SBPA","flightCategory":"MVFR","rawOb":"METAR SBPA 180200Z 02005KT 350V060 6000 -RA SCT008 SCT030 BKN090 24/23 Q1011","temp":24,"dewp":23,"wdir":20,"wspd":5,"visib":3.73,"altim":1011,"clouds":[{"cover":"SCT","base":800},{"cover":"SCT","base":3000},{"cover":"BKN","base":9000}],"obsTime":1773799200},"SBPJ":{"icaoId":"SBPJ","flightCategory":"VFR","rawOb":"METAR SBPJ 180200Z 16003KT 9999 SCT025 SCT080 25/24 Q1013","temp":25,"dewp":24,"wdir":160,"wspd":3,"visib":"6+","altim":1013,"clouds":[{"cover":"SCT","base":2500},{"cover":"SCT","base":8000}],"obsTime":1773799200},"SBPV":{"icaoId":"SBPV","flightCategory":"VFR","rawOb":"METAR SBPV 180200Z 09004KT 9999 VCTS SCT030 FEW035CB 26/23 Q1009","temp":26,"dewp":23,"wdir":90,"wspd":4,"visib":"6+","altim":1009,"clouds":[{"cover":"SCT","base":3000},{"cover":"FEW","base":3500}],"obsTime":1773799200},"SBRB":{"icaoId":"SBRB","flightCategory":"MVFR","rawOb":"METAR SBRB 180200Z 06003KT 8000 NSC 26/25 Q1008","temp":26,"dewp":25,"wdir":60,"wspd":3,"visib":4.97,"altim":1008,"clouds":[],"obsTime":1773799200},"SBRF":{"icaoId":"SBRF","flightCategory":"VFR","rawOb":"METAR SBRF 180200Z 13008KT 9999 SCT025 29/24 Q1012","temp":29,"dewp":24,"wdir":130,"wspd":8,"visib":"6+","altim":1012,"clouds":[{"cover":"SCT","base":2500}],"obsTime":1773799200},"SBSG":{"icaoId":"SBSG","flightCategory":"VFR","rawOb":"METAR SBSG 180200Z 19003KT 9999 VCSH SCT020 FEW030TCU 25/24 Q1012","temp":25,"dewp":24,"wdir":190,"wspd":3,"visib":"6+","altim":1012,"clouds":[{"cover":"SCT","base":2000},{"cover":"FEW","base":3000}],"obsTime":1773799200},"SBSL":{"icaoId":"SBSL","flightCategory":"VFR","rawOb":"METAR SBSL 180200Z 12003KT 9999 FEW020 SCT090 25/24 Q1012","temp":25,"dewp":24,"wdir":120,"wspd":3,"visib":"6+","altim":1012,"clouds":[{"cover":"FEW","base":2000},{"cover":"SCT","base":9000}],"obsTime":1773799200},"SBSN":{"icaoId":"SBSN","flightCategory":"VFR","rawOb":"METAR SBSN 180200Z 11001KT 9999 VCTS FEW015 FEW020CB 25/25 Q1010 RETS","temp":25,"dewp":25,"wdir":110,"wspd":1,"visib":"6+","altim":1010,"clouds":[{"cover":"FEW","base":1500},{"cover":"FEW","base":2000}],"obsTime":1773799200},"SBSP":{"icaoId":"SBSP","flightCategory":"VFR","rawOb":"METAR SBSP 180200Z 15004KT CAVOK 20/17 Q1018","temp":20,"dewp":17,"wdir":150,"wspd":4,"visib":"6+","altim":1018,"clouds":[],"obsTime":1773799200},"SBSV":{"icaoId":"SBSV","flightCategory":"VFR","rawOb":"METAR SBSV 180200Z 11006KT 9999 FEW021 28/22 Q1012","temp":28,"dewp":22,"wdir":110,"wspd":6,"visib":"6+","altim":1012,"clouds":[{"cover":"FEW","base":2100}],"obsTime":1773799200},"SBTE":{"icaoId":"SBTE","flightCategory":"VFR","rawOb":"METAR SBTE 180200Z 08003KT 9999 FEW025 OVC100 24/22 Q1012","temp":24,"dewp":22,"wdir":80,"wspd":3,"visib":"6+","altim":1012,"clouds":[{"cover":"FEW","base":2500},{"cover":"OVC","base":10000}],"obsTime":1773799200},"SBUL":{"icaoId":"SBUL","flightCategory":"VFR","rawOb":"METAR SBUL 180200Z 07004KT 9999 FEW040 SCT100 21/20 Q1017","temp":21,"dewp":20,"wdir":70,"wspd":4,"visib":"6+","altim":1017,"clouds":[{"cover":"FEW","base":4000},{"cover":"SCT","base":10000}],"obsTime":1773799200},"SBUR":{"icaoId":"SBUR","flightCategory":"VFR","rawOb":"METAR SBUR 180200Z 05003KT CAVOK 22/20 Q1016","temp":22,"dewp":20,"wdir":50,"wspd":3,"visib":"6+","altim":1016,"clouds":[],"obsTime":1773799200},"SBBE":{"icaoId":"SBBE","flightCategory":"VFR","rawOb":"METAR SBBE 180200Z 05005KT CAVOK 24/24 Q1012","temp":24,"dewp":24,"wdir":50,"wspd":5,"visib":"6+","altim":1012,"clouds":[],"obsTime":1773799200},"SBAR":{"icaoId":"SBAR","flightCategory":"VFR","rawOb":"METAR SBAR 180200Z 07007KT 9999 SCT025 28/22 Q1012","temp":28,"dewp":22,"wdir":70,"wspd":7,"visib":"6+","altim":1012,"clouds":[{"cover":"SCT","base":2500}],"obsTime":1773799200},"SBSR":{"icaoId":"SBSR","flightCategory":"VFR","rawOb":"METAR SBSR 180200Z 11006KT 9999 SCT045 25/21 Q1014","temp":25,"dewp":21,"wdir":110,"wspd":6,"visib":"6+","altim":1014,"clouds":[{"cover":"SCT","base":4500}],"obsTime":1773799200},"SBAX":{"icaoId":"SBAX","flightCategory":"VFR","rawOb":"METAR SBAX 180200Z AUTO 11003KT CAVOK ///// Q1017","temp":null,"dewp":null,"wdir":110,"wspd":3,"visib":"6+","altim":1017,"clouds":[],"obsTime":1773799200},"SBCO":{"icaoId":"SBCO","flightCategory":"MVFR","rawOb":"METAR SBCO 180200Z 01002KT 8000 SCT020 BKN100 23/23 Q1012","temp":23,"dewp":23,"wdir":10,"wspd":2,"visib":4.97,"altim":1012,"clouds":[{"cover":"SCT","base":2000},{"cover":"BKN","base":10000}],"obsTime":1773799200},"SBDN":{"icaoId":"SBDN","flightCategory":"VFR","rawOb":"METAR SBDN 180200Z 12009KT 9999 -TSRA SCT049 FEW060CB BKN082 BKN100 23/22 Q1013 RERA","temp":23,"dewp":22,"wdir":120,"wspd":9,"visib":"6+","altim":1013,"clouds":[{"cover":"SCT","base":4900},{"cover":"FEW","base":6000},{"cover":"BKN","base":8200},{"cover":"BKN","base":10000}],"obsTime":1773799200},"SBIP":{"icaoId":"SBIP","flightCategory":"VFR","rawOb":"METAR SBIP 180200Z AUTO VRB01KT CAVOK 22/22 Q1013","temp":22,"dewp":22,"wdir":"VRB","wspd":1,"visib":"6+","altim":1013,"clouds":[],"obsTime":1773799200},"SBKG":{"icaoId":"SBKG","flightCategory":"VFR","rawOb":"METAR SBKG 180200Z 10008KT 9999 SCT012 24/22 Q1015","temp":24,"dewp":22,"wdir":100,"wspd":8,"visib":"6+","altim":1015,"clouds":[{"cover":"SCT","base":1200}],"obsTime":1773799200},"SBOI":{"icaoId":"SBOI","flightCategory":"VFR","rawOb":"METAR SBOI 180200Z AUTO VRB01KT 9999 FEW027 24/23 Q1013","temp":24,"dewp":23,"wdir":"VRB","wspd":1,"visib":"6+","altim":1013,"clouds":[{"cover":"FEW","base":2700}],"obsTime":1773799200},"SBPL":{"icaoId":"SBPL","flightCategory":"VFR","rawOb":"METAR SBPL 180200Z 00000KT CAVOK 24/19 Q1013","temp":24,"dewp":19,"wdir":0,"wspd":0,"visib":"6+","altim":1013,"clouds":[],"obsTime":1773799200},"SBPS":{"icaoId":"SBPS","flightCategory":"MVFR","rawOb":"METAR SBPS 180200Z VRB01KT 9999 BKN020 25/24 Q1013","temp":25,"dewp":24,"wdir":"VRB","wspd":1,"visib":"6+","altim":1013,"clouds":[{"cover":"BKN","base":2000}],"obsTime":1773799200},"SBSC":{"icaoId":"SBSC","flightCategory":"VFR","rawOb":"METAR SBSC 180200Z 23003KT 9999 FEW033 24/22 Q1013","temp":24,"dewp":22,"wdir":230,"wspd":3,"visib":"6+","altim":1013,"clouds":[{"cover":"FEW","base":3300}],"obsTime":1773799200},"SBSM":{"icaoId":"SBSM","flightCategory":"VFR","rawOb":"METAR SBSM 180200Z 02004KT 9999 SCT045 BKN080 24/22 Q1010","temp":24,"dewp":22,"wdir":20,"wspd":4,"visib":"6+","altim":1010,"clouds":[{"cover":"SCT","base":4500},{"cover":"BKN","base":8000}],"obsTime":1773799200},"SBSJ":{"icaoId":"SBSJ","flightCategory":"VFR","rawOb":"METAR SBSJ 180200Z 20005KT CAVOK 22/// Q1016","temp":null,"dewp":null,"wdir":200,"wspd":5,"visib":"6+","altim":1016,"clouds":[],"obsTime":1773799200},"SBBH":{"icaoId":"SBBH","flightCategory":"VFR","rawOb":"METAR SBBH 180200Z 03003KT 9999 FEW025 23/20 Q1017","temp":23,"dewp":20,"wdir":30,"wspd":3,"visib":"6+","altim":1017,"clouds":[{"cover":"FEW","base":2500}],"obsTime":1773799200},"SBBU":{"icaoId":"SBBU","flightCategory":"VFR","rawOb":"METAR SBBU 180200Z 05003KT CAVOK 23/21 Q1014","temp":23,"dewp":21,"wdir":50,"wspd":3,"visib":"6+","altim":1014,"clouds":[],"obsTime":1773799200},"SBLE":{"icaoId":"SBLE","flightCategory":"VFR","rawOb":"METAR SBLE 180200Z AUTO 32002KT CAVOK 20/20 Q1015","temp":20,"dewp":20,"wdir":320,"wspd":2,"visib":"6+","altim":1015,"clouds":[],"obsTime":1773799200},"SBAN":{"icaoId":"SBAN","flightCategory":"IFR","rawOb":"METAR SBAN 180200Z 33001KT 2000 BR FEW004 BKN100 20/19 Q1019","temp":20,"dewp":19,"wdir":330,"wspd":1,"visib":1.24,"altim":1019,"clouds":[{"cover":"FEW","base":400},{"cover":"BKN","base":10000}],"obsTime":1773799200},"SBJP":{"icaoId":"SBJP","flightCategory":"VFR","rawOb":"METAR SBJP 180200Z 11003KT 9999 FEW020 26/23 Q1012","temp":26,"dewp":23,"wdir":110,"wspd":3,"visib":"6+","altim":1012,"clouds":[{"cover":"FEW","base":2000}],"obsTime":1773799200},"SBTA":{"icaoId":"SBTA","flightCategory":"VFR","rawOb":"METAR SBTA 180200Z 00000KT CAVOK 21/19 Q1015","temp":21,"dewp":19,"wdir":0,"wspd":0,"visib":"6+","altim":1015,"clouds":[],"obsTime":1773799200},"SBMT":{"icaoId":"SBMT","flightCategory":"VFR","rawOb":"METAR SBMT 180200Z 08003KT CAVOK 21/18 Q1017","temp":21,"dewp":18,"wdir":80,"wspd":3,"visib":"6+","altim":1017,"clouds":[],"obsTime":1773799200},"SBJV":{"icaoId":"SBJV","flightCategory":"MVFR","rawOb":"METAR SBJV 180200Z 36005KT 330V030 9999 BKN030 26/23 Q1013","temp":26,"dewp":23,"wdir":360,"wspd":5,"visib":"6+","altim":1013,"clouds":[{"cover":"BKN","base":3000}],"obsTime":1773799200}}}