{"updated":1776089483,"count":87,"data":{"SBVT":{"icaoId":"SBVT","flightCategory":"VFR","rawOb":"METAR SBVT 131300Z 18008KT 9999 FEW010 SCT020 26/22 Q1018","temp":26,"dewp":22,"wdir":180,"wspd":8,"visib":"6+","altim":1018,"clouds":[{"cover":"FEW","base":1000},{"cover":"SCT","base":2000}],"obsTime":1776085200},"SBAT":{"icaoId":"SBAT","flightCategory":"VFR","rawOb":"METAR SBAT 131300Z 00000KT CAVOK 28/25 Q1015","temp":28,"dewp":25,"wdir":0,"wspd":0,"visib":"6+","altim":1015,"clouds":[],"obsTime":1776085200},"SBBE":{"icaoId":"SBBE","flightCategory":"VFR","rawOb":"METAR SBBE 131300Z 04005KT 9999 SCT012 SCT020 29/25 Q1013","temp":29,"dewp":25,"wdir":40,"wspd":5,"visib":"6+","altim":1013,"clouds":[{"cover":"SCT","base":1200},{"cover":"SCT","base":2000}],"obsTime":1776085200},"SBBR":{"icaoId":"SBBR","flightCategory":"IFR","rawOb":"METAR SBBR 131300Z 11008KT 9999 OVC009 20/18 Q1022","temp":20,"dewp":18,"wdir":110,"wspd":8,"visib":"6+","altim":1022,"clouds":[{"cover":"OVC","base":900}],"obsTime":1776085200},"SBBV":{"icaoId":"SBBV","flightCategory":"VFR","rawOb":"METAR SBBV 131300Z 09016KT 9999 FEW030 29/21 Q1013","temp":29,"dewp":21,"wdir":90,"wspd":16,"visib":"6+","altim":1013,"clouds":[{"cover":"FEW","base":3000}],"obsTime":1776085200},"SBCB":{"icaoId":"SBCB","flightCategory":"VFR","rawOb":"METAR SBCB 131300Z 10010KT 9999 SCT020 28/19 Q1019","temp":28,"dewp":19,"wdir":100,"wspd":10,"visib":"6+","altim":1019,"clouds":[{"cover":"SCT","base":2000}],"obsTime":1776085200},"SBCF":{"icaoId":"SBCF","flightCategory":"MVFR","rawOb":"METAR SBCF 131300Z 14005KT 070V190 9999 BKN030 23/17 Q1022","temp":23,"dewp":17,"wdir":140,"wspd":5,"visib":"6+","altim":1022,"clouds":[{"cover":"BKN","base":3000}],"obsTime":1776085200},"SBCG":{"icaoId":"SBCG","flightCategory":"VFR","rawOb":"METAR SBCG 131300Z 04012KT 9999 FEW025 BKN100 24/19 Q1017","temp":24,"dewp":19,"wdir":40,"wspd":12,"visib":"6+","altim":1017,"clouds":[{"cover":"FEW","base":2500},{"cover":"BKN","base":10000}],"obsTime":1776085200},"SBCP":{"icaoId":"SBCP","flightCategory":"MVFR","rawOb":"METAR SBCP 131300Z 27002KT 9999 BKN020 28/20 Q1018","temp":28,"dewp":20,"wdir":270,"wspd":2,"visib":"6+","altim":1018,"clouds":[{"cover":"BKN","base":2000}],"obsTime":1776085200},"SBCR":{"icaoId":"SBCR","flightCategory":"VFR","rawOb":"METAR SBCR 131300Z 09008KT 050V140 9999 SCT014 28/23 Q1014","temp":28,"dewp":23,"wdir":90,"wspd":8,"visib":"6+","altim":1014,"clouds":[{"cover":"SCT","base":1400}],"obsTime":1776085200},"SBCT":{"icaoId":"SBCT","flightCategory":"VFR","rawOb":"METAR SBCT 131300Z 04005KT 9999 FEW020 20/16 Q1022","temp":20,"dewp":16,"wdir":40,"wspd":5,"visib":"6+","altim":1022,"clouds":[{"cover":"FEW","base":2000}],"obsTime":1776085200},"SBCZ":{"icaoId":"SBCZ","flightCategory":"IFR","rawOb":"METAR SBCZ 131300Z 04003KT 9999 BKN005 OVC090 25/24 Q1014","temp":25,"dewp":24,"wdir":40,"wspd":3,"visib":"6+","altim":1014,"clouds":[{"cover":"BKN","base":500},{"cover":"OVC","base":9000}],"obsTime":1776085200},"SBEG":{"icaoId":"SBEG","flightCategory":"VFR","rawOb":"METAR SBEG 131300Z 11003KT 080V150 9999 SCT015 29/25 Q1013","temp":29,"dewp":25,"wdir":110,"wspd":3,"visib":"6+","altim":1013,"clouds":[{"cover":"SCT","base":1500}],"obsTime":1776085200},"SBFI":{"icaoId":"SBFI","flightCategory":"VFR","rawOb":"METAR SBFI 131300Z 10004KT CAVOK 23/20 Q1017","temp":23,"dewp":20,"wdir":100,"wspd":4,"visib":"6+","altim":1017,"clouds":[],"obsTime":1776085200},"SBFL":{"icaoId":"SBFL","flightCategory":"VFR","rawOb":"METAR SBFL 131300Z 02004KT 9999 FEW020 BKN100 25/21 Q1018","temp":25,"dewp":21,"wdir":20,"wspd":4,"visib":"6+","altim":1018,"clouds":[{"cover":"FEW","base":2000},{"cover":"BKN","base":10000}],"obsTime":1776085200},"SBFZ":{"icaoId":"SBFZ","flightCategory":"VFR","rawOb":"METAR SBFZ 131300Z 15009KT 9999 SCT020 28/24 Q1012","temp":28,"dewp":24,"wdir":150,"wspd":9,"visib":"6+","altim":1012,"clouds":[{"cover":"SCT","base":2000}],"obsTime":1776085200},"SBGL":{"icaoId":"SBGL","flightCategory":"VFR","rawOb":"METAR SBGL 131300Z 16004KT 9999 FEW013 SCT018 25/21 Q1018","temp":25,"dewp":21,"wdir":160,"wspd":4,"visib":"6+","altim":1018,"clouds":[{"cover":"FEW","base":1300},{"cover":"SCT","base":1800}],"obsTime":1776085200},"SBGO":{"icaoId":"SBGO","flightCategory":"VFR","rawOb":"METAR SBGO 131300Z 09009KT CAVOK 27/19 Q1020","temp":27,"dewp":19,"wdir":90,"wspd":9,"visib":"6+","altim":1020,"clouds":[],"obsTime":1776085200},"SBGR":{"icaoId":"SBGR","flightCategory":"VFR","rawOb":"SPECI SBGR 131235Z 07007KT 9999 SCT011 20/17 Q1021","temp":20,"dewp":17,"wdir":70,"wspd":7,"visib":"6+","altim":1021,"clouds":[{"cover":"SCT","base":1100}],"obsTime":1776083700},"SBHT":{"icaoId":"SBHT","flightCategory":"VFR","rawOb":"METAR SBHT 131300Z 06006KT 9999 SCT012 SCT015 BKN080 28/24 Q1013","temp":28,"dewp":24,"wdir":60,"wspd":6,"visib":"6+","altim":1013,"clouds":[{"cover":"SCT","base":1200},{"cover":"SCT","base":1500},{"cover":"BKN","base":8000}],"obsTime":1776085200},"SBIL":{"icaoId":"SBIL","flightCategory":"VFR","rawOb":"METAR SBIL 131300Z 21007KT 170V250 9999 VCSH FEW020 FEW023TCU SCT040 28/24 Q1016","temp":28,"dewp":24,"wdir":210,"wspd":7,"visib":"6+","altim":1016,"clouds":[{"cover":"FEW","base":2000},{"cover":"FEW","base":2300},{"cover":"SCT","base":4000}],"obsTime":1776085200},"SBJU":{"icaoId":"SBJU","flightCategory":"MVFR","rawOb":"METAR SBJU 131300Z 09003KT 9999 BKN021 27/22 Q1015","temp":27,"dewp":22,"wdir":90,"wspd":3,"visib":"6+","altim":1015,"clouds":[{"cover":"BKN","base":2100}],"obsTime":1776085200},"SBKP":{"icaoId":"SBKP","flightCategory":"VFR","rawOb":"METAR SBKP 131300Z 05007KT 020V080 CAVOK 25/16 Q1020","temp":25,"dewp":16,"wdir":50,"wspd":7,"visib":"6+","altim":1020,"clouds":[],"obsTime":1776085200},"SBLO":{"icaoId":"SBLO","flightCategory":"VFR","rawOb":"METAR SBLO 131300Z 09009KT CAVOK 23/17 Q1019","temp":23,"dewp":17,"wdir":90,"wspd":9,"visib":"6+","altim":1019,"clouds":[],"obsTime":1776085200},"SBMA":{"icaoId":"SBMA","flightCategory":"VFR","rawOb":"METAR SBMA 131300Z 16003KT 9999 FEW010 SCT012 BKN100 28/25 Q1013","temp":28,"dewp":25,"wdir":160,"wspd":3,"visib":"6+","altim":1013,"clouds":[{"cover":"FEW","base":1000},{"cover":"SCT","base":1200},{"cover":"BKN","base":10000}],"obsTime":1776085200},"SBME":{"icaoId":"SBME","flightCategory":"MVFR","rawOb":"METAR SBME 131300Z 15004KT 9999 BKN028 26/21 Q1018","temp":26,"dewp":21,"wdir":150,"wspd":4,"visib":"6+","altim":1018,"clouds":[{"cover":"BKN","base":2800}],"obsTime":1776085200},"SBMG":{"icaoId":"SBMG","flightCategory":"VFR","rawOb":"METAR SBMG 131300Z 08008KT CAVOK 23/19 Q1018","temp":23,"dewp":19,"wdir":80,"wspd":8,"visib":"6+","altim":1018,"clouds":[],"obsTime":1776085200},"SBMK":{"icaoId":"SBMK","flightCategory":"VFR","rawOb":"METAR SBMK 131300Z 10007KT 9999 SCT040 25/17 Q1020","temp":25,"dewp":17,"wdir":100,"wspd":7,"visib":"6+","altim":1020,"clouds":[{"cover":"SCT","base":4000}],"obsTime":1776085200},"SBMO":{"icaoId":"SBMO","flightCategory":"VFR","rawOb":"METAR SBMO 131300Z 20003KT 9999 SCT020 26/24 Q1014","temp":26,"dewp":24,"wdir":200,"wspd":3,"visib":"6+","altim":1014,"clouds":[{"cover":"SCT","base":2000}],"obsTime":1776085200},"SBMQ":{"icaoId":"SBMQ","flightCategory":"MVFR","rawOb":"METAR SBMQ 131300Z 02006KT 8000 -RA BKN015 SCT047 BKN070 27/25 Q1013","temp":27,"dewp":25,"wdir":20,"wspd":6,"visib":4.97,"altim":1013,"clouds":[{"cover":"BKN","base":1500},{"cover":"SCT","base":4700},{"cover":"BKN","base":7000}],"obsTime":1776085200},"SBNT":{"icaoId":"SBNT","flightCategory":"MVFR","rawOb":"METAR SBNT 131300Z 16008KT 9999 BKN016 BKN100 28/24 Q1012","temp":28,"dewp":24,"wdir":160,"wspd":8,"visib":"6+","altim":1012,"clouds":[{"cover":"BKN","base":1600},{"cover":"BKN","base":10000}],"obsTime":1776085200},"SBPA":{"icaoId":"SBPA","flightCategory":"VFR","rawOb":"METAR SBPA 131300Z 31003KT 230V010 9999 FEW025 24/18 Q1017","temp":24,"dewp":18,"wdir":310,"wspd":3,"visib":"6+","altim":1017,"clouds":[{"cover":"FEW","base":2500}],"obsTime":1776085200},"SBPJ":{"icaoId":"SBPJ","flightCategory":"VFR","rawOb":"METAR SBPJ 131300Z 20006KT CAVOK 29/26 Q1014","temp":29,"dewp":26,"wdir":200,"wspd":6,"visib":"6+","altim":1014,"clouds":[],"obsTime":1776085200},"SBPV":{"icaoId":"SBPV","flightCategory":"IFR","rawOb":"SPECI SBPV 131226Z VRB02KT 9999 BKN006 26/24 Q1012","temp":26,"dewp":24,"wdir":"VRB","wspd":2,"visib":"6+","altim":1012,"clouds":[{"cover":"BKN","base":600}],"obsTime":1776083160},"SBRB":{"icaoId":"SBRB","flightCategory":"VFR","rawOb":"METAR SBRB 131300Z 26002KT 9999 SCT004 SCT100 26/24 Q1014","temp":26,"dewp":24,"wdir":260,"wspd":2,"visib":"6+","altim":1014,"clouds":[{"cover":"SCT","base":400},{"cover":"SCT","base":10000}],"obsTime":1776085200},"SBRF":{"icaoId":"SBRF","flightCategory":"VFR","rawOb":"METAR SBRF 131300Z 13005KT 080V190 9999 SCT025 SCT070 30/25 Q1012","temp":30,"dewp":25,"wdir":130,"wspd":5,"visib":"6+","altim":1012,"clouds":[{"cover":"SCT","base":2500},{"cover":"SCT","base":7000}],"obsTime":1776085200},"SBSG":{"icaoId":"SBSG","flightCategory":"VFR","rawOb":"METAR SBSG 131300Z 18003KT 140V230 9999 SCT025 BKN100 26/24 Q1012","temp":26,"dewp":24,"wdir":180,"wspd":3,"visib":"6+","altim":1012,"clouds":[{"cover":"SCT","base":2500},{"cover":"BKN","base":10000}],"obsTime":1776085200},"SBSL":{"icaoId":"SBSL","flightCategory":"VFR","rawOb":"METAR SBSL 131300Z 11006KT 9999 SCT025 BKN070 27/25 Q1013","temp":27,"dewp":25,"wdir":110,"wspd":6,"visib":"6+","altim":1013,"clouds":[{"cover":"SCT","base":2500},{"cover":"BKN","base":7000}],"obsTime":1776085200},"SBSN":{"icaoId":"SBSN","flightCategory":"VFR","rawOb":"METAR SBSN 131300Z 08009KT 020V100 9999 SCT014 FEW040TCU BKN070 29/26 Q1013","temp":29,"dewp":26,"wdir":80,"wspd":9,"visib":"6+","altim":1013,"clouds":[{"cover":"SCT","base":1400},{"cover":"FEW","base":4000},{"cover":"BKN","base":7000}],"obsTime":1776085200},"SBSP":{"icaoId":"SBSP","flightCategory":"VFR","rawOb":"METAR SBSP 131300Z 05005KT 020V120 CAVOK 22/17 Q1022","temp":22,"dewp":17,"wdir":50,"wspd":5,"visib":"6+","altim":1022,"clouds":[],"obsTime":1776085200},"SBSV":{"icaoId":"SBSV","flightCategory":"VFR","rawOb":"METAR SBSV 131300Z 13009KT 9999 -SHRA SCT021 FEW023TCU SCT060 27/23 Q1014","temp":27,"dewp":23,"wdir":130,"wspd":9,"visib":"6+","altim":1014,"clouds":[{"cover":"SCT","base":2100},{"cover":"FEW","base":2300},{"cover":"SCT","base":6000}],"obsTime":1776085200},"SBTE":{"icaoId":"SBTE","flightCategory":"MVFR","rawOb":"METAR SBTE 131300Z 06004KT 010V120 9999 BKN018 BKN080 29/24 Q1012","temp":29,"dewp":24,"wdir":60,"wspd":4,"visib":"6+","altim":1012,"clouds":[{"cover":"BKN","base":1800},{"cover":"BKN","base":8000}],"obsTime":1776085200},"SBUL":{"icaoId":"SBUL","flightCategory":"VFR","rawOb":"METAR SBUL 131300Z 08012KT CAVOK 23/18 Q1022","temp":23,"dewp":18,"wdir":80,"wspd":12,"visib":"6+","altim":1022,"clouds":[],"obsTime":1776085200},"SBUR":{"icaoId":"SBUR","flightCategory":"VFR","rawOb":"METAR SBUR 131300Z 02009KT CAVOK 25/16 Q1020","temp":25,"dewp":16,"wdir":20,"wspd":9,"visib":"6+","altim":1020,"clouds":[],"obsTime":1776085200},"SBKG":{"icaoId":"SBKG","flightCategory":"MVFR","rawOb":"METAR SBKG 131300Z 13006KT 9999 BKN020 26/22 Q1015","temp":26,"dewp":22,"wdir":130,"wspd":6,"visib":"6+","altim":1015,"clouds":[{"cover":"BKN","base":2000}],"obsTime":1776085200},"SBCC":{"icaoId":"SBCC","flightCategory":"VFR","rawOb":"METAR SBCC 131300Z 06004KT 9999 FEW020 SCT100 27/22 Q1016","temp":27,"dewp":22,"wdir":60,"wspd":4,"visib":"6+","altim":1016,"clouds":[{"cover":"FEW","base":2000},{"cover":"SCT","base":10000}],"obsTime":1776085200},"SBOI":{"icaoId":"SBOI","flightCategory":"VFR","rawOb":"METAR SBOI 131300Z AUTO 03009KT 360V060 9999 SCT018 28/24 Q1013","temp":28,"dewp":24,"wdir":30,"wspd":9,"visib":"6+","altim":1013,"clouds":[{"cover":"SCT","base":1800}],"obsTime":1776085200},"SBAR":{"icaoId":"SBAR","flightCategory":"VFR","rawOb":"METAR SBAR 131300Z 15008KT 9999 VCSH SCT017 FEW020TCU SCT060 27/23 Q1013","temp":27,"dewp":23,"wdir":150,"wspd":8,"visib":"6+","altim":1013,"clouds":[{"cover":"SCT","base":1700},{"cover":"FEW","base":2000},{"cover":"SCT","base":6000}],"obsTime":1776085200},"SBPB":{"icaoId":"SBPB","flightCategory":"VFR","rawOb":"METAR SBPB 131300Z 10006KT 9999 SCT020 30/25 Q1012","temp":30,"dewp":25,"wdir":100,"wspd":6,"visib":"6+","altim":1012,"clouds":[{"cover":"SCT","base":2000}],"obsTime":1776085200},"SBCJ":{"icaoId":"SBCJ","flightCategory":"MVFR","rawOb":"METAR SBCJ 131300Z 04004KT 9999 BKN017 26/22 Q1018","temp":26,"dewp":22,"wdir":40,"wspd":4,"visib":"6+","altim":1018,"clouds":[{"cover":"BKN","base":1700}],"obsTime":1776085200},"SBPL":{"icaoId":"SBPL","flightCategory":"MVFR","rawOb":"METAR SBPL 131300Z 13009KT 9999 BKN023 SCT070 27/22 Q1015","temp":27,"dewp":22,"wdir":130,"wspd":9,"visib":"6+","altim":1015,"clouds":[{"cover":"BKN","base":2300},{"cover":"SCT","base":7000}],"obsTime":1776085200},"SBBQ":{"icaoId":"SBBQ","flightCategory":"MVFR","rawOb":"METAR SBBQ 131300Z 07004KT 9999 BKN010 17/15 Q1025","temp":17,"dewp":15,"wdir":70,"wspd":4,"visib":"6+","altim":1025,"clouds":[{"cover":"BKN","base":1000}],"obsTime":1776085200},"SBPP":{"icaoId":"SBPP","flightCategory":"VFR","rawOb":"METAR SBPP 131300Z 06005KT 9999 FEW015 BKN080 21/19 Q1017","temp":21,"dewp":19,"wdir":60,"wspd":5,"visib":"6+","altim":1017,"clouds":[{"cover":"FEW","base":1500},{"cover":"BKN","base":8000}],"obsTime":1776085200},"SBCO":{"icaoId":"SBCO","flightCategory":"VFR","rawOb":"METAR SBCO 131300Z 01003KT 9999 FEW020 25/18 Q1018","temp":25,"dewp":18,"wdir":10,"wspd":3,"visib":"6+","altim":1018,"clouds":[{"cover":"FEW","base":2000}],"obsTime":1776085200},"SBPS":{"icaoId":"SBPS","flightCategory":"MVFR","rawOb":"METAR SBPS 131300Z 16006KT 070V230 9999 BKN027 28/22 Q1016","temp":28,"dewp":22,"wdir":160,"wspd":6,"visib":"6+","altim":1016,"clouds":[{"cover":"BKN","base":2700}],"obsTime":1776085200},"SBAX":{"icaoId":"SBAX","flightCategory":"VFR","rawOb":"METAR SBAX 131300Z 05008KT 9999 FEW023 22/17 Q1022","temp":22,"dewp":17,"wdir":50,"wspd":8,"visib":"6+","altim":1022,"clouds":[{"cover":"FEW","base":2300}],"obsTime":1776085200},"SBSC":{"icaoId":"SBSC","flightCategory":"VFR","rawOb":"METAR SBSC 131300Z 03009KT 9999 FEW015 27/19 Q1018","temp":27,"dewp":19,"wdir":30,"wspd":9,"visib":"6+","altim":1018,"clouds":[{"cover":"FEW","base":1500}],"obsTime":1776085200},"SBDN":{"icaoId":"SBDN","flightCategory":"MVFR","rawOb":"METAR SBDN 131300Z 14008KT 9999 SCT008 BKN020 22/19 Q1018","temp":22,"dewp":19,"wdir":140,"wspd":8,"visib":"6+","altim":1018,"clouds":[{"cover":"SCT","base":800},{"cover":"BKN","base":2000}],"obsTime":1776085200},"SBVH":{"icaoId":"SBVH","flightCategory":"LIFR","rawOb":"METAR SBVH 131300Z 04007KT 9000 BKN003 BKN006 24/22 Q1016","temp":24,"dewp":22,"wdir":40,"wspd":7,"visib":5.59,"altim":1016,"clouds":[{"cover":"BKN","base":300},{"cover":"BKN","base":600}],"obsTime":1776085200},"SBSJ":{"icaoId":"SBSJ","flightCategory":"MVFR","rawOb":"SPECI SBSJ 131241Z 07005KT 360V110 6000 FEW013 BKN017 21/17 Q1021","temp":21,"dewp":17,"wdir":70,"wspd":5,"visib":3.73,"altim":1021,"clouds":[{"cover":"FEW","base":1300},{"cover":"BKN","base":1700}],"obsTime":1776084060},"SBBU":{"icaoId":"SBBU","flightCategory":"VFR","rawOb":"METAR SBBU 131300Z 06004KT CAVOK 25/19 Q1019","temp":25,"dewp":19,"wdir":60,"wspd":4,"visib":"6+","altim":1019,"clouds":[],"obsTime":1776085200},"SBSM":{"icaoId":"SBSM","flightCategory":"VFR","rawOb":"METAR SBSM 131300Z 12001KT 9999 FEW015 BKN045 22/19 Q1018","temp":22,"dewp":19,"wdir":120,"wspd":1,"visib":"6+","altim":1018,"clouds":[{"cover":"FEW","base":1500},{"cover":"BKN","base":4500}],"obsTime":1776085200},"SBES":{"icaoId":"SBES","flightCategory":"VFR","rawOb":"METAR SBES 131300Z VRB06KT 9999 SCT025 27/// Q1018","temp":null,"dewp":null,"wdir":"VRB","wspd":6,"visib":"6+","altim":1018,"clouds":[{"cover":"SCT","base":2500}],"obsTime":1776085200},"SBSR":{"icaoId":"SBSR","flightCategory":"VFR","rawOb":"METAR SBSR 131300Z 06008KT 9999 FEW035 BKN070 25/18 Q1018","temp":25,"dewp":18,"wdir":60,"wspd":8,"visib":"6+","altim":1018,"clouds":[{"cover":"FEW","base":3500},{"cover":"BKN","base":7000}],"obsTime":1776085200},"SBTD":{"icaoId":"SBTD","flightCategory":"VFR","rawOb":"METAR SBTD 131300Z /////KT 9999 FEW020 SCT080 23/17 Q1018","temp":23,"dewp":17,"wdir":null,"wspd":null,"visib":"6+","altim":1018,"clouds":[{"cover":"FEW","base":2000},{"cover":"SCT","base":8000}],"obsTime":1776085200},"SBAU":{"icaoId":"SBAU","flightCategory":"VFR","rawOb":"METAR SBAU 131300Z 03006KT 9999 SCT035 BKN100 25/19 Q1017","temp":25,"dewp":19,"wdir":30,"wspd":6,"visib":"6+","altim":1017,"clouds":[{"cover":"SCT","base":3500},{"cover":"BKN","base":10000}],"obsTime":1776085200},"SBTF":{"icaoId":"SBTF","flightCategory":"VFR","rawOb":"METAR SBTF 131300Z 18006KT 9999 FEW022 SCT100 26/25 Q1013","temp":26,"dewp":25,"wdir":180,"wspd":6,"visib":"6+","altim":1013,"clouds":[{"cover":"FEW","base":2200},{"cover":"SCT","base":10000}],"obsTime":1776085200},"SBGM":{"icaoId":"SBGM","flightCategory":"MVFR","rawOb":"METAR SBGM 131300Z 28003KT 240V330 9999 BKN013 BKN066 26/24 Q1013","temp":26,"dewp":24,"wdir":280,"wspd":3,"visib":"6+","altim":1013,"clouds":[{"cover":"BKN","base":1300},{"cover":"BKN","base":6600}],"obsTime":1776085200},"SBCA":{"icaoId":"SBCA","flightCategory":"VFR","rawOb":"METAR SBCA 131300Z 08006KT CAVOK 22/17 Q1019","temp":22,"dewp":17,"wdir":80,"wspd":6,"visib":"6+","altim":1019,"clouds":[],"obsTime":1776085200},"SBTT":{"icaoId":"SBTT","flightCategory":"IFR","rawOb":"METAR SBTT 131300Z 27003KT 9999 BKN006 BKN100 25/23 Q1014","temp":25,"dewp":23,"wdir":270,"wspd":3,"visib":"6+","altim":1014,"clouds":[{"cover":"BKN","base":600},{"cover":"BKN","base":10000}],"obsTime":1776085200},"SBIP":{"icaoId":"SBIP","flightCategory":"VFR","rawOb":"METAR SBIP 131300Z AUTO VRB02KT 9999 SCT038 BKN043 27/18 Q1019","temp":27,"dewp":18,"wdir":"VRB","wspd":2,"visib":"6+","altim":1019,"clouds":[{"cover":"SCT","base":3800},{"cover":"BKN","base":4300}],"obsTime":1776085200},"SBUY":{"icaoId":"SBUY","flightCategory":"MVFR","rawOb":"METAR SBUY 131300Z 06002KT 7000 SCT006 SCT090 26/25 Q1012","temp":26,"dewp":25,"wdir":60,"wspd":2,"visib":4.35,"altim":1012,"clouds":[{"cover":"SCT","base":600},{"cover":"SCT","base":9000}],"obsTime":1776085200},"SBBH":{"icaoId":"SBBH","flightCategory":"MVFR","rawOb":"METAR SBBH 131300Z 06006KT 9999 BKN020 23/18 Q1022","temp":23,"dewp":18,"wdir":60,"wspd":6,"visib":"6+","altim":1022,"clouds":[{"cover":"BKN","base":2000}],"obsTime":1776085200},"SBTA":{"icaoId":"SBTA","flightCategory":"VFR","rawOb":"METAR SBTA 131300Z 05007KT 360V090 9999 SCT020 22/17 Q1020","temp":22,"dewp":17,"wdir":50,"wspd":7,"visib":"6+","altim":1020,"clouds":[{"cover":"SCT","base":2000}],"obsTime":1776085200},"SBJP":{"icaoId":"SBJP","flightCategory":"MVFR","rawOb":"METAR SBJP 131300Z 15008KT 9999 -RA BKN017 BKN070 28/25 Q1013","temp":28,"dewp":25,"wdir":150,"wspd":8,"visib":"6+","altim":1013,"clouds":[{"cover":"BKN","base":1700},{"cover":"BKN","base":7000}],"obsTime":1776085200},"SBAN":{"icaoId":"SBAN","flightCategory":"MVFR","rawOb":"METAR SBAN 131300Z 13013KT 9999 BKN010 22/17 Q1023","temp":22,"dewp":17,"wdir":130,"wspd":13,"visib":"6+","altim":1023,"clouds":[{"cover":"BKN","base":1000}],"obsTime":1776085200},"SBIH":{"icaoId":"SBIH","flightCategory":"VFR","rawOb":"METAR SBIH 131300Z 14002KT 9999 SCT015 SCT080 28/25 Q1013","temp":28,"dewp":25,"wdir":140,"wspd":2,"visib":"6+","altim":1013,"clouds":[{"cover":"SCT","base":1500},{"cover":"SCT","base":8000}],"obsTime":1776085200},"SBLE":{"icaoId":"SBLE","flightCategory":"MVFR","rawOb":"METAR SBLE 131300Z AUTO 15006KT 130V190 9999 BKN015 24/24 Q1018","temp":24,"dewp":24,"wdir":150,"wspd":6,"visib":"6+","altim":1018,"clouds":[{"cover":"BKN","base":1500}],"obsTime":1776085200},"SBJV":{"icaoId":"SBJV","flightCategory":"VFR","rawOb":"METAR SBJV 131300Z 07002KT 9999 FEW015 26/21 Q1018","temp":26,"dewp":21,"wdir":70,"wspd":2,"visib":"6+","altim":1018,"clouds":[{"cover":"FEW","base":1500}],"obsTime":1776085200},"SBNM":{"icaoId":"SBNM","flightCategory":"VFR","rawOb":"METAR SBNM 131400Z 13004KT 9999 FEW020 23/19 Q1018","temp":23,"dewp":19,"wdir":130,"wspd":4,"visib":"6+","altim":1018,"clouds":[{"cover":"FEW","base":2000}],"obsTime":1776088800},"SBPF":{"icaoId":"SBPF","flightCategory":"VFR","rawOb":"METAR SBPF 131300Z 04011KT CAVOK 20/15 Q1020","temp":20,"dewp":15,"wdir":40,"wspd":11,"visib":"6+","altim":1020,"clouds":[],"obsTime":1776085200},"SBAF":{"icaoId":"SBAF","flightCategory":"VFR","rawOb":"METAR SBAF 131300Z 32002KT 9999 SCT026 26/22 Q1018","temp":26,"dewp":22,"wdir":320,"wspd":2,"visib":"6+","altim":1018,"clouds":[{"cover":"SCT","base":2600}],"obsTime":1776085200},"SBGW":{"icaoId":"SBGW","flightCategory":"MVFR","rawOb":"METAR SBGW 131300Z 05005KT 340V090 9999 SCT012 BKN017 23/15 Q1020","temp":23,"dewp":15,"wdir":50,"wspd":5,"visib":"6+","altim":1020,"clouds":[{"cover":"SCT","base":1200},{"cover":"BKN","base":1700}],"obsTime":1776085200},"SBJR":{"icaoId":"SBJR","flightCategory":"VFR","rawOb":"METAR SBJR 131300Z 17004KT 9999 FEW025 28/20 Q1018","temp":28,"dewp":20,"wdir":170,"wspd":4,"visib":"6+","altim":1018,"clouds":[{"cover":"FEW","base":2500}],"obsTime":1776085200},"SBLS":{"icaoId":"SBLS","flightCategory":"MVFR","rawOb":"METAR SBLS 131300Z 13005KT 010V160 9999 BKN020 22/17 Q1021","temp":22,"dewp":17,"wdir":130,"wspd":5,"visib":"6+","altim":1021,"clouds":[{"cover":"BKN","base":2000}],"obsTime":1776085200},"SBMT":{"icaoId":"SBMT","flightCategory":"VFR","rawOb":"METAR SBMT 131300Z 07006KT 030V140 CAVOK 22/17 Q1021","temp":22,"dewp":17,"wdir":70,"wspd":6,"visib":"6+","altim":1021,"clouds":[],"obsTime":1776085200},"SBST":{"icaoId":"SBST","flightCategory":"VFR","rawOb":"METAR SBST 131300Z 25005KT CAVOK 24/21 Q1018","temp":24,"dewp":21,"wdir":250,"wspd":5,"visib":"6+","altim":1018,"clouds":[],"obsTime":1776085200}}}