{"updated":1775377774,"count":50,"data":{"SBBE":{"icaoId":"SBBE","flightCategory":"VFR","rawOb":"METAR SBBE 050700Z 00000KT CAVOK 25/25 Q1010","temp":25,"dewp":25,"wdir":0,"wspd":0,"visib":"6+","altim":1010,"clouds":[],"obsTime":1775372400},"SBBR":{"icaoId":"SBBR","flightCategory":"VFR","rawOb":"METAR SBBR 050700Z 26003KT CAVOK 20/18 Q1019","temp":20,"dewp":18,"wdir":260,"wspd":3,"visib":"6+","altim":1019,"clouds":[],"obsTime":1775372400},"SBBV":{"icaoId":"SBBV","flightCategory":"MVFR","rawOb":"METAR SBBV 050700Z 15002KT 9999 BKN015 BKN020 FEW030TCU BKN100 24/23 Q1013","temp":24,"dewp":23,"wdir":150,"wspd":2,"visib":"6+","altim":1013,"clouds":[{"cover":"BKN","base":1500},{"cover":"BKN","base":2000},{"cover":"FEW","base":3000},{"cover":"BKN","base":10000}],"obsTime":1775372400},"SBCF":{"icaoId":"SBCF","flightCategory":"VFR","rawOb":"METAR SBCF 050700Z 19002KT CAVOK 21/19 Q1018","temp":21,"dewp":19,"wdir":190,"wspd":2,"visib":"6+","altim":1018,"clouds":[],"obsTime":1775372400},"SBCG":{"icaoId":"SBCG","flightCategory":"VFR","rawOb":"METAR SBCG 050700Z 00000KT 9999 VCTS FEW035CB 22/21 Q1015 RETS","temp":22,"dewp":21,"wdir":0,"wspd":0,"visib":"6+","altim":1015,"clouds":[{"cover":"FEW","base":3500}],"obsTime":1775372400},"SBCT":{"icaoId":"SBCT","flightCategory":"IFR","rawOb":"METAR SBCT 050700Z 05002KT 3000 BR BKN005 19/19 Q1019","temp":19,"dewp":19,"wdir":50,"wspd":2,"visib":1.86,"altim":1019,"clouds":[{"cover":"BKN","base":500}],"obsTime":1775372400},"SBEG":{"icaoId":"SBEG","flightCategory":"VFR","rawOb":"METAR SBEG 050700Z VRB01KT 9999 1300NW R11/1400U R29/P2000N BCFG SCT001 23/22 Q1010","temp":23,"dewp":22,"wdir":"VRB","wspd":1,"visib":"6+","altim":1010,"clouds":[{"cover":"SCT","base":100}],"obsTime":1775372400},"SBFI":{"icaoId":"SBFI","flightCategory":"VFR","rawOb":"METAR SBFI 050700Z 19002KT CAVOK 22/21 Q1014","temp":22,"dewp":21,"wdir":190,"wspd":2,"visib":"6+","altim":1014,"clouds":[],"obsTime":1775372400},"SBFL":{"icaoId":"SBFL","flightCategory":"VFR","rawOb":"METAR SBFL 050700Z 24003KT 9999 SCT025 SCT070 23/22 Q1015","temp":23,"dewp":22,"wdir":240,"wspd":3,"visib":"6+","altim":1015,"clouds":[{"cover":"SCT","base":2500},{"cover":"SCT","base":7000}],"obsTime":1775372400},"SBFZ":{"icaoId":"SBFZ","flightCategory":"VFR","rawOb":"METAR SBFZ 050700Z 17004KT 9999 SCT024 26/24 Q1009","temp":26,"dewp":24,"wdir":170,"wspd":4,"visib":"6+","altim":1009,"clouds":[{"cover":"SCT","base":2400}],"obsTime":1775372400},"SBGL":{"icaoId":"SBGL","flightCategory":"VFR","rawOb":"METAR SBGL 050700Z 03002KT 9999 FEW004 23/22 Q1013","temp":23,"dewp":22,"wdir":30,"wspd":2,"visib":"6+","altim":1013,"clouds":[{"cover":"FEW","base":400}],"obsTime":1775372400},"SBGO":{"icaoId":"SBGO","flightCategory":"VFR","rawOb":"METAR SBGO 050700Z 13003KT CAVOK 21/20 Q1017","temp":21,"dewp":20,"wdir":130,"wspd":3,"visib":"6+","altim":1017,"clouds":[],"obsTime":1775372400},"SBGR":{"icaoId":"SBGR","flightCategory":"IFR","rawOb":"METAR SBGR 050700Z 06003KT 6000 2000E SCT003 BKN006 19/19 Q1018","temp":19,"dewp":19,"wdir":60,"wspd":3,"visib":3.73,"altim":1018,"clouds":[{"cover":"SCT","base":300},{"cover":"BKN","base":600}],"obsTime":1775372400},"SBJU":{"icaoId":"SBJU","flightCategory":"MVFR","rawOb":"METAR SBJU 050700Z 00000KT 9999 BKN020 24/22 Q1013","temp":24,"dewp":22,"wdir":0,"wspd":0,"visib":"6+","altim":1013,"clouds":[{"cover":"BKN","base":2000}],"obsTime":1775372400},"SBKP":{"icaoId":"SBKP","flightCategory":"VFR","rawOb":"METAR SBKP 050700Z 12005KT 9999 FEW045 SCT100 21/19 Q1017","temp":21,"dewp":19,"wdir":120,"wspd":5,"visib":"6+","altim":1017,"clouds":[{"cover":"FEW","base":4500},{"cover":"SCT","base":10000}],"obsTime":1775372400},"SBLO":{"icaoId":"SBLO","flightCategory":"VFR","rawOb":"METAR SBLO 050700Z 23003KT CAVOK 21/20 Q1015","temp":21,"dewp":20,"wdir":230,"wspd":3,"visib":"6+","altim":1015,"clouds":[],"obsTime":1775372400},"SBMA":{"icaoId":"SBMA","flightCategory":"VFR","rawOb":"METAR SBMA 050700Z 00000KT 9999 SCT010 26/25 Q1010","temp":26,"dewp":25,"wdir":0,"wspd":0,"visib":"6+","altim":1010,"clouds":[{"cover":"SCT","base":1000}],"obsTime":1775372400},"SBME":{"icaoId":"SBME","flightCategory":"VFR","rawOb":"METAR SBME 050700Z 32002KT CAVOK 23/22 Q1013","temp":23,"dewp":22,"wdir":320,"wspd":2,"visib":"6+","altim":1013,"clouds":[],"obsTime":1775372400},"SBMG":{"icaoId":"SBMG","flightCategory":"VFR","rawOb":"METAR SBMG 050700Z AUTO 02004KT CAVOK 23/18 Q1014","temp":23,"dewp":18,"wdir":20,"wspd":4,"visib":"6+","altim":1014,"clouds":[],"obsTime":1775372400},"SBMK":{"icaoId":"SBMK","flightCategory":"VFR","rawOb":"METAR SBMK 050800Z 00000KT CAVOK 19/18 Q1017","temp":19,"dewp":18,"wdir":0,"wspd":0,"visib":"6+","altim":1017,"clouds":[],"obsTime":1775376000},"SBMO":{"icaoId":"SBMO","flightCategory":"VFR","rawOb":"METAR SBMO 050700Z 26002KT 9000 -RA FEW015 SCT017 24/24 Q1012","temp":24,"dewp":24,"wdir":260,"wspd":2,"visib":5.59,"altim":1012,"clouds":[{"cover":"FEW","base":1500},{"cover":"SCT","base":1700}],"obsTime":1775372400},"SBMQ":{"icaoId":"SBMQ","flightCategory":"IFR","rawOb":"METAR SBMQ 050700Z 01006KT 4500 -RA BR SCT027 OVC077 24/24 Q1011","temp":24,"dewp":24,"wdir":10,"wspd":6,"visib":2.8,"altim":1011,"clouds":[{"cover":"SCT","base":2700},{"cover":"OVC","base":7700}],"obsTime":1775372400},"SBNT":{"icaoId":"SBNT","flightCategory":"VFR","rawOb":"METAR SBNT 050700Z 20006KT 9999 SCT020 25/23 Q1011","temp":25,"dewp":23,"wdir":200,"wspd":6,"visib":"6+","altim":1011,"clouds":[{"cover":"SCT","base":2000}],"obsTime":1775372400},"SBPA":{"icaoId":"SBPA","flightCategory":"IFR","rawOb":"METAR SBPA 050700Z 15006KT 6000 VCSH BKN008 BKN011 OVC030 21/20 Q1017","temp":21,"dewp":20,"wdir":150,"wspd":6,"visib":3.73,"altim":1017,"clouds":[{"cover":"BKN","base":800},{"cover":"BKN","base":1100},{"cover":"OVC","base":3000}],"obsTime":1775372400},"SBPJ":{"icaoId":"SBPJ","flightCategory":"VFR","rawOb":"METAR SBPJ 050700Z 18004KT 9999 VCTS FEW025 FEW030CB SCT080 25/24 Q1012","temp":25,"dewp":24,"wdir":180,"wspd":4,"visib":"6+","altim":1012,"clouds":[{"cover":"FEW","base":2500},{"cover":"FEW","base":3000},{"cover":"SCT","base":8000}],"obsTime":1775372400},"SBPV":{"icaoId":"SBPV","flightCategory":"VFR","rawOb":"METAR SBPV 050700Z 21002KT 9999 SCT004 23/22 Q1010","temp":23,"dewp":22,"wdir":210,"wspd":2,"visib":"6+","altim":1010,"clouds":[{"cover":"SCT","base":400}],"obsTime":1775372400},"SBRB":{"icaoId":"SBRB","flightCategory":"MVFR","rawOb":"METAR SBRB 050700Z 17002KT 9999 BKN011 BKN100 23/22 Q1012","temp":23,"dewp":22,"wdir":170,"wspd":2,"visib":"6+","altim":1012,"clouds":[{"cover":"BKN","base":1100},{"cover":"BKN","base":10000}],"obsTime":1775372400},"SBRF":{"icaoId":"SBRF","flightCategory":"VFR","rawOb":"METAR SBRF 050700Z 28002KT 9999 FEW020 24/23 Q1011","temp":24,"dewp":23,"wdir":280,"wspd":2,"visib":"6+","altim":1011,"clouds":[{"cover":"FEW","base":2000}],"obsTime":1775372400},"SBSG":{"icaoId":"SBSG","flightCategory":"VFR","rawOb":"METAR SBSG 050700Z 20004KT 9999 VCSH SCT020 24/23 Q1011","temp":24,"dewp":23,"wdir":200,"wspd":4,"visib":"6+","altim":1011,"clouds":[{"cover":"SCT","base":2000}],"obsTime":1775372400},"SBSL":{"icaoId":"SBSL","flightCategory":"VFR","rawOb":"METAR SBSL 050700Z 07003KT 9999 FEW030 SCT100 25/25 Q1010","temp":25,"dewp":25,"wdir":70,"wspd":3,"visib":"6+","altim":1010,"clouds":[{"cover":"FEW","base":3000},{"cover":"SCT","base":10000}],"obsTime":1775372400},"SBSN":{"icaoId":"SBSN","flightCategory":"VFR","rawOb":"METAR SBSN 050700Z COR 14002KT 9999 SCT010 SCT020 BKN100 24/24 Q1011","temp":24,"dewp":24,"wdir":140,"wspd":2,"visib":"6+","altim":1011,"clouds":[{"cover":"SCT","base":1000},{"cover":"SCT","base":2000},{"cover":"BKN","base":10000}],"obsTime":1775372400},"SBSP":{"icaoId":"SBSP","flightCategory":"VFR","rawOb":"METAR SBSP 050800Z AUTO VRB02KT CAVOK 21/19 Q1018","temp":21,"dewp":19,"wdir":"VRB","wspd":2,"visib":"6+","altim":1018,"clouds":[],"obsTime":1775376000},"SBSV":{"icaoId":"SBSV","flightCategory":"MVFR","rawOb":"METAR SBSV 050700Z 07011KT 8000 -RA BKN017 BKN030 BKN090 24/23 Q1012","temp":24,"dewp":23,"wdir":70,"wspd":11,"visib":4.97,"altim":1012,"clouds":[{"cover":"BKN","base":1700},{"cover":"BKN","base":3000},{"cover":"BKN","base":9000}],"obsTime":1775372400},"SBTE":{"icaoId":"SBTE","flightCategory":"VFR","rawOb":"METAR SBTE 050700Z 27003KT 9999 FEW008 BKN100 25/24 Q1010","temp":25,"dewp":24,"wdir":270,"wspd":3,"visib":"6+","altim":1010,"clouds":[{"cover":"FEW","base":800},{"cover":"BKN","base":10000}],"obsTime":1775372400},"SBUL":{"icaoId":"SBUL","flightCategory":"VFR","rawOb":"METAR SBUL 050700Z 14007KT CAVOK 20/17 Q1019","temp":20,"dewp":17,"wdir":140,"wspd":7,"visib":"6+","altim":1019,"clouds":[],"obsTime":1775372400},"SBUR":{"icaoId":"SBUR","flightCategory":"VFR","rawOb":"METAR SBUR 050700Z 05003KT CAVOK 21/18 Q1017","temp":21,"dewp":18,"wdir":50,"wspd":3,"visib":"6+","altim":1017,"clouds":[],"obsTime":1775372400},"SBVT":{"icaoId":"SBVT","flightCategory":"VFR","rawOb":"METAR SBVT 050700Z 31002KT CAVOK 22/22 Q1014","temp":22,"dewp":22,"wdir":310,"wspd":2,"visib":"6+","altim":1014,"clouds":[],"obsTime":1775372400},"SBIP":{"icaoId":"SBIP","flightCategory":"VFR","rawOb":"METAR SBIP 050700Z AUTO 03003KT 9999 FEW023 SCT031 BKN042 23/23 Q1016","temp":23,"dewp":23,"wdir":30,"wspd":3,"visib":"6+","altim":1016,"clouds":[{"cover":"FEW","base":2300},{"cover":"SCT","base":3100},{"cover":"BKN","base":4200}],"obsTime":1775372400},"SBOI":{"icaoId":"SBOI","flightCategory":"VFR","rawOb":"METAR SBOI 050700Z AUTO 00000KT 9999 // SCT025/// 24/23 Q1011","temp":24,"dewp":23,"wdir":0,"wspd":0,"visib":"6+","altim":1011,"clouds":[{"cover":"SCT","base":2500}],"obsTime":1775372400},"SBPL":{"icaoId":"SBPL","flightCategory":"VFR","rawOb":"METAR SBPL 050700Z 10007KT 9999 FEW020 SCT070 26/21 Q1013","temp":26,"dewp":21,"wdir":100,"wspd":7,"visib":"6+","altim":1013,"clouds":[{"cover":"FEW","base":2000},{"cover":"SCT","base":7000}],"obsTime":1775372400},"SBDN":{"icaoId":"SBDN","flightCategory":"VFR","rawOb":"METAR SBDN 050700Z 07005KT CAVOK 23/19 Q1015","temp":23,"dewp":19,"wdir":70,"wspd":5,"visib":"6+","altim":1015,"clouds":[],"obsTime":1775372400},"SBKG":{"icaoId":"SBKG","flightCategory":"VFR","rawOb":"METAR SBKG 050700Z 09003KT 9999 SCT009 22/21 Q1014","temp":22,"dewp":21,"wdir":90,"wspd":3,"visib":"6+","altim":1014,"clouds":[{"cover":"SCT","base":900}],"obsTime":1775372400},"SBPS":{"icaoId":"SBPS","flightCategory":"MVFR","rawOb":"METAR SBPS 050700Z 25003KT 9999 BKN016 24/23 Q1014","temp":24,"dewp":23,"wdir":250,"wspd":3,"visib":"6+","altim":1014,"clouds":[{"cover":"BKN","base":1600}],"obsTime":1775372400},"SBSC":{"icaoId":"SBSC","flightCategory":"VFR","rawOb":"METAR SBSC 050700Z 04003KT CAVOK 22/21 Q1013","temp":22,"dewp":21,"wdir":40,"wspd":3,"visib":"6+","altim":1013,"clouds":[],"obsTime":1775372400},"SBAX":{"icaoId":"SBAX","flightCategory":"VFR","rawOb":"METAR SBAX 050700Z AUTO VRB02KT CAVOK ///// Q1019","temp":null,"dewp":null,"wdir":"VRB","wspd":2,"visib":"6+","altim":1019,"clouds":[],"obsTime":1775372400},"SBSR":{"icaoId":"SBSR","flightCategory":"VFR","rawOb":"METAR SBSR 050700Z 08002KT 9999 FEW030 SCT070 24/20 Q1016","temp":24,"dewp":20,"wdir":80,"wspd":2,"visib":"6+","altim":1016,"clouds":[{"cover":"FEW","base":3000},{"cover":"SCT","base":7000}],"obsTime":1775372400},"SBAR":{"icaoId":"SBAR","flightCategory":"VFR","rawOb":"METAR SBAR 050700Z 10003KT 9999 FEW021 24/24 Q1012","temp":24,"dewp":24,"wdir":100,"wspd":3,"visib":"6+","altim":1012,"clouds":[{"cover":"FEW","base":2100}],"obsTime":1775372400},"SBLE":{"icaoId":"SBLE","flightCategory":"MVFR","rawOb":"METAR SBLE 050700Z AUTO 19003KT 9999 OVC026 ///// Q////","temp":null,"dewp":null,"wdir":190,"wspd":3,"visib":"6+","altim":null,"clouds":[{"cover":"OVC","base":2600}],"obsTime":1775372400},"SBAN":{"icaoId":"SBAN","flightCategory":"VFR","rawOb":"METAR SBAN 050700Z 15003KT 9999 FEW030 19/18 Q1020","temp":19,"dewp":18,"wdir":150,"wspd":3,"visib":"6+","altim":1020,"clouds":[{"cover":"FEW","base":3000}],"obsTime":1775372400},"SBJP":{"icaoId":"SBJP","flightCategory":"VFR","rawOb":"METAR SBJP 050700Z 29003KT 250V360 9999 SCT010 BKN070 24/24 Q1012","temp":24,"dewp":24,"wdir":290,"wspd":3,"visib":"6+","altim":1012,"clouds":[{"cover":"SCT","base":1000},{"cover":"BKN","base":7000}],"obsTime":1775372400}}}