{"updated":1784752502,"count":86,"data":{"SBCF":{"icaoId":"SBCF","flightCategory":"VFR","rawOb":"METAR SBCF 221900Z 02003KT 9999 SCT045 27/08 Q1017","temp":27,"dewp":8,"wdir":20,"wspd":3,"visib":"6+","altim":1017,"clouds":[{"cover":"SCT","base":4500}],"obsTime":1784746800},"SBFZ":{"icaoId":"SBFZ","flightCategory":"VFR","rawOb":"METAR SBFZ 221900Z 09012KT 9999 FEW020 29/23 Q1011","temp":29,"dewp":23,"wdir":90,"wspd":12,"visib":"6+","altim":1011,"clouds":[{"cover":"FEW","base":2000}],"obsTime":1784746800},"SBLO":{"icaoId":"SBLO","flightCategory":"IFR","rawOb":"SPECI SBLO 221843Z 19012KT 3000 RA SCT018 BKN090 17/16 Q1017","temp":17,"dewp":16,"wdir":190,"wspd":12,"visib":1.86,"altim":1017,"clouds":[{"cover":"SCT","base":1800},{"cover":"BKN","base":9000}],"obsTime":1784745780},"SBBE":{"icaoId":"SBBE","flightCategory":"VFR","rawOb":"METAR SBBE 221900Z 35010KT 9999 VCSH BKN035 FEW045TCU BKN100 29/25 Q1010","temp":29,"dewp":25,"wdir":350,"wspd":10,"visib":"6+","altim":1010,"clouds":[{"cover":"BKN","base":3500},{"cover":"FEW","base":4500},{"cover":"BKN","base":10000}],"obsTime":1784746800},"SBBV":{"icaoId":"SBBV","flightCategory":"VFR","rawOb":"METAR SBBV 221900Z 12010KT 9999 BKN040 FEW045TCU BKN080 33/21 Q1010","temp":33,"dewp":21,"wdir":120,"wspd":10,"visib":"6+","altim":1010,"clouds":[{"cover":"BKN","base":4000},{"cover":"FEW","base":4500},{"cover":"BKN","base":8000}],"obsTime":1784746800},"SBSP":{"icaoId":"SBSP","flightCategory":"VFR","rawOb":"METAR SBSP 221900Z 15006KT CAVOK 21/13 Q1017","temp":21,"dewp":13,"wdir":150,"wspd":6,"visib":"6+","altim":1017,"clouds":[],"obsTime":1784746800},"SBRB":{"icaoId":"SBRB","flightCategory":"VFR","rawOb":"METAR SBRB 221900Z 01006KT 330V050 9999 SCT035 33/23 Q1010","temp":33,"dewp":23,"wdir":10,"wspd":6,"visib":"6+","altim":1010,"clouds":[{"cover":"SCT","base":3500}],"obsTime":1784746800},"SBSL":{"icaoId":"SBSL","flightCategory":"VFR","rawOb":"METAR SBSL 221900Z 05009KT 030V090 9999 SCT030 30/23 Q1010","temp":30,"dewp":23,"wdir":50,"wspd":9,"visib":"6+","altim":1010,"clouds":[{"cover":"SCT","base":3000}],"obsTime":1784746800},"SBRF":{"icaoId":"SBRF","flightCategory":"MVFR","rawOb":"METAR SBRF 221900Z 12008KT 9000 VCSH BKN011 BKN023 26/23 Q1013","temp":26,"dewp":23,"wdir":120,"wspd":8,"visib":5.59,"altim":1013,"clouds":[{"cover":"BKN","base":1100},{"cover":"BKN","base":2300}],"obsTime":1784746800},"SBGL":{"icaoId":"SBGL","flightCategory":"VFR","rawOb":"METAR SBGL 221900Z 22016KT 9999 SCT030 28/15 Q1012","temp":28,"dewp":15,"wdir":220,"wspd":16,"visib":"6+","altim":1012,"clouds":[{"cover":"SCT","base":3000}],"obsTime":1784746800},"SBFL":{"icaoId":"SBFL","flightCategory":"VFR","rawOb":"METAR SBFL 221900Z 10005KT 9999 FEW045 OVC100 20/17 Q1010","temp":20,"dewp":17,"wdir":100,"wspd":5,"visib":"6+","altim":1010,"clouds":[{"cover":"FEW","base":4500},{"cover":"OVC","base":10000}],"obsTime":1784746800},"SBCB":{"icaoId":"SBCB","flightCategory":"VFR","rawOb":"METAR SBCB 221900Z 10011KT CAVOK 26/20 Q1012","temp":26,"dewp":20,"wdir":100,"wspd":11,"visib":"6+","altim":1012,"clouds":[],"obsTime":1784746800},"SBSN":{"icaoId":"SBSN","flightCategory":"VFR","rawOb":"METAR SBSN 221900Z 10012KT 9999 FEW025 SCT100 31/24 Q1010","temp":31,"dewp":24,"wdir":100,"wspd":12,"visib":"6+","altim":1010,"clouds":[{"cover":"FEW","base":2500},{"cover":"SCT","base":10000}],"obsTime":1784746800},"SBIL":{"icaoId":"SBIL","flightCategory":"VFR","rawOb":"METAR SBIL 221900Z 19004KT 9999 FEW020 FEW023TCU BKN070 27/21 Q1017","temp":27,"dewp":21,"wdir":190,"wspd":4,"visib":"6+","altim":1017,"clouds":[{"cover":"FEW","base":2000},{"cover":"FEW","base":2300},{"cover":"BKN","base":7000}],"obsTime":1784746800},"SBKP":{"icaoId":"SBKP","flightCategory":"VFR","rawOb":"METAR SBKP 221900Z 26005KT 240V330 CAVOK 28/12 Q1015","temp":28,"dewp":12,"wdir":260,"wspd":5,"visib":"6+","altim":1015,"clouds":[],"obsTime":1784746800},"SBJU":{"icaoId":"SBJU","flightCategory":"VFR","rawOb":"METAR SBJU 221900Z 18005KT 9999 SCT020 33/16 Q1013","temp":33,"dewp":16,"wdir":180,"wspd":5,"visib":"6+","altim":1013,"clouds":[{"cover":"SCT","base":2000}],"obsTime":1784746800},"SBAT":{"icaoId":"SBAT","flightCategory":"VFR","rawOb":"METAR SBAT 221900Z 03006KT 9999 FEW040 34/19 Q1011","temp":34,"dewp":19,"wdir":30,"wspd":6,"visib":"6+","altim":1011,"clouds":[{"cover":"FEW","base":4000}],"obsTime":1784746800},"SBHT":{"icaoId":"SBHT","flightCategory":"VFR","rawOb":"METAR SBHT 221900Z 11003KT 9999 SCT030 31/25 Q1010","temp":31,"dewp":25,"wdir":110,"wspd":3,"visib":"6+","altim":1010,"clouds":[{"cover":"SCT","base":3000}],"obsTime":1784746800},"SBMG":{"icaoId":"SBMG","flightCategory":"IFR","rawOb":"METAR SBMG 221900Z 11014G24KT 4500 RA FEW002 BKN050 BKN080 16/15 Q1015 RERA","temp":16,"dewp":15,"wdir":110,"wspd":14,"visib":2.8,"altim":1015,"clouds":[{"cover":"FEW","base":200},{"cover":"BKN","base":5000},{"cover":"BKN","base":8000}],"obsTime":1784746800},"SBME":{"icaoId":"SBME","flightCategory":"VFR","rawOb":"METAR SBME 221900Z 31006KT 9999 FEW033 31/15 Q1012","temp":31,"dewp":15,"wdir":310,"wspd":6,"visib":"6+","altim":1012,"clouds":[{"cover":"FEW","base":3300}],"obsTime":1784746800},"SBCR":{"icaoId":"SBCR","flightCategory":"VFR","rawOb":"METAR SBCR 221900Z 21013KT 170V250 9999 SCT040 SCT100 26/21 Q1011","temp":26,"dewp":21,"wdir":210,"wspd":13,"visib":"6+","altim":1011,"clouds":[{"cover":"SCT","base":4000},{"cover":"SCT","base":10000}],"obsTime":1784746800},"SBMK":{"icaoId":"SBMK","flightCategory":"VFR","rawOb":"METAR SBMK 221900Z 00000KT 9999 SCT046 30/10 Q1016","temp":30,"dewp":10,"wdir":0,"wspd":0,"visib":"6+","altim":1016,"clouds":[{"cover":"SCT","base":4600}],"obsTime":1784746800},"SBCZ":{"icaoId":"SBCZ","flightCategory":"MVFR","rawOb":"METAR SBCZ 221900Z 30005KT 9999 BKN030 FEW040TCU 28/23 Q1010","temp":28,"dewp":23,"wdir":300,"wspd":5,"visib":"6+","altim":1010,"clouds":[{"cover":"BKN","base":3000},{"cover":"FEW","base":4000}],"obsTime":1784746800},"SBUL":{"icaoId":"SBUL","flightCategory":"VFR","rawOb":"METAR SBUL 221900Z VRB03KT CAVOK 28/06 Q1018","temp":28,"dewp":6,"wdir":"VRB","wspd":3,"visib":"6+","altim":1018,"clouds":[],"obsTime":1784746800},"SBNT":{"icaoId":"SBNT","flightCategory":"MVFR","rawOb":"METAR SBNT 221900Z 13009KT 100V160 9999 SCT016 BKN020 28/23 Q1012","temp":28,"dewp":23,"wdir":130,"wspd":9,"visib":"6+","altim":1012,"clouds":[{"cover":"SCT","base":1600},{"cover":"BKN","base":2000}],"obsTime":1784746800},"SBUR":{"icaoId":"SBUR","flightCategory":"VFR","rawOb":"METAR SBUR 221900Z 31005KT CAVOK 30/08 Q1016","temp":30,"dewp":8,"wdir":310,"wspd":5,"visib":"6+","altim":1016,"clouds":[],"obsTime":1784746800},"SBPA":{"icaoId":"SBPA","flightCategory":"IFR","rawOb":"METAR SBPA 221900Z 17003KT 4500 -DZ BR BKN009 OVC016 18/18 Q1010","temp":18,"dewp":18,"wdir":170,"wspd":3,"visib":2.8,"altim":1010,"clouds":[{"cover":"BKN","base":900},{"cover":"OVC","base":1600}],"obsTime":1784746800},"SBGO":{"icaoId":"SBGO","flightCategory":"VFR","rawOb":"METAR SBGO 221900Z 01006KT 310V070 CAVOK 30/10 Q1016","temp":30,"dewp":10,"wdir":10,"wspd":6,"visib":"6+","altim":1016,"clouds":[],"obsTime":1784746800},"SBMQ":{"icaoId":"SBMQ","flightCategory":"VFR","rawOb":"METAR SBMQ 221900Z 06009KT 9999 SCT035 31/23 Q1011","temp":31,"dewp":23,"wdir":60,"wspd":9,"visib":"6+","altim":1011,"clouds":[{"cover":"SCT","base":3500}],"obsTime":1784746800},"SBPV":{"icaoId":"SBPV","flightCategory":"VFR","rawOb":"METAR SBPV 221900Z 01006KT 320V090 9999 SCT045 34/20 Q1009","temp":34,"dewp":20,"wdir":10,"wspd":6,"visib":"6+","altim":1009,"clouds":[{"cover":"SCT","base":4500}],"obsTime":1784746800},"SBTE":{"icaoId":"SBTE","flightCategory":"VFR","rawOb":"METAR SBTE 221900Z 09004KT 9999 SCT040 BKN080 34/20 Q1009","temp":34,"dewp":20,"wdir":90,"wspd":4,"visib":"6+","altim":1009,"clouds":[{"cover":"SCT","base":4000},{"cover":"BKN","base":8000}],"obsTime":1784746800},"SBMA":{"icaoId":"SBMA","flightCategory":"VFR","rawOb":"METAR SBMA 221900Z 14003KT 9999 SCT020 FEW025TCU 35/22 Q1009","temp":35,"dewp":22,"wdir":140,"wspd":3,"visib":"6+","altim":1009,"clouds":[{"cover":"SCT","base":2000},{"cover":"FEW","base":2500}],"obsTime":1784746800},"SBFI":{"icaoId":"SBFI","flightCategory":"IFR","rawOb":"METAR SBFI 221900Z 22003KT 3000 -DZ BR SCT005 OVC010 19/19 Q1012","temp":19,"dewp":19,"wdir":220,"wspd":3,"visib":1.86,"altim":1012,"clouds":[{"cover":"SCT","base":500},{"cover":"OVC","base":1000}],"obsTime":1784746800},"SBBR":{"icaoId":"SBBR","flightCategory":"VFR","rawOb":"METAR SBBR 221900Z 14003KT 060V200 9999 SCT045 SCT080 27/08 Q1019","temp":27,"dewp":8,"wdir":140,"wspd":3,"visib":"6+","altim":1019,"clouds":[{"cover":"SCT","base":4500},{"cover":"SCT","base":8000}],"obsTime":1784746800},"SBGR":{"icaoId":"SBGR","flightCategory":"VFR","rawOb":"METAR SBGR 221900Z 17003KT CAVOK 23/14 Q1016","temp":23,"dewp":14,"wdir":170,"wspd":3,"visib":"6+","altim":1016,"clouds":[],"obsTime":1784746800},"SBEG":{"icaoId":"SBEG","flightCategory":"VFR","rawOb":"METAR SBEG 221900Z 12008KT 080V170 9999 SCT035 33/23 Q1010","temp":33,"dewp":23,"wdir":120,"wspd":8,"visib":"6+","altim":1010,"clouds":[{"cover":"SCT","base":3500}],"obsTime":1784746800},"SBCG":{"icaoId":"SBCG","flightCategory":"VFR","rawOb":"METAR SBCG 221900Z 29010KT 9999 FEW045 BKN100 28/19 Q1013","temp":28,"dewp":19,"wdir":290,"wspd":10,"visib":"6+","altim":1013,"clouds":[{"cover":"FEW","base":4500},{"cover":"BKN","base":10000}],"obsTime":1784746800},"SBCP":{"icaoId":"SBCP","flightCategory":"VFR","rawOb":"METAR SBCP 221900Z 09014KT 9999 FEW020 28/18 Q1013","temp":28,"dewp":18,"wdir":90,"wspd":14,"visib":"6+","altim":1013,"clouds":[{"cover":"FEW","base":2000}],"obsTime":1784746800},"SBPJ":{"icaoId":"SBPJ","flightCategory":"VFR","rawOb":"METAR SBPJ 221900Z 30006KT 9999 SCT030 35/15 Q1011","temp":35,"dewp":15,"wdir":300,"wspd":6,"visib":"6+","altim":1011,"clouds":[{"cover":"SCT","base":3000}],"obsTime":1784746800},"SBMO":{"icaoId":"SBMO","flightCategory":"MVFR","rawOb":"METAR SBMO 221900Z 09011KT 9999 BKN021 25/23 Q1014","temp":25,"dewp":23,"wdir":90,"wspd":11,"visib":"6+","altim":1014,"clouds":[{"cover":"BKN","base":2100}],"obsTime":1784746800},"SBSV":{"icaoId":"SBSV","flightCategory":"VFR","rawOb":"METAR SBSV 221900Z 13008KT 100V160 9999 FEW025 BKN100 27/20 Q1016","temp":27,"dewp":20,"wdir":130,"wspd":8,"visib":"6+","altim":1016,"clouds":[{"cover":"FEW","base":2500},{"cover":"BKN","base":10000}],"obsTime":1784746800},"SBVT":{"icaoId":"SBVT","flightCategory":"VFR","rawOb":"METAR SBVT 221900Z 05015KT 9999 SCT035 26/20 Q1014","temp":26,"dewp":20,"wdir":50,"wspd":15,"visib":"6+","altim":1014,"clouds":[{"cover":"SCT","base":3500}],"obsTime":1784746800},"SBSG":{"icaoId":"SBSG","flightCategory":"MVFR","rawOb":"METAR SBSG 221900Z 11009KT 9999 VCSH BKN023 FEW030TCU 27/24 Q1012","temp":27,"dewp":24,"wdir":110,"wspd":9,"visib":"6+","altim":1012,"clouds":[{"cover":"BKN","base":2300},{"cover":"FEW","base":3000}],"obsTime":1784746800},"SBCT":{"icaoId":"SBCT","flightCategory":"VFR","rawOb":"METAR SBCT 221900Z 26009KT 9999 -RA FEW005 SCT013 OVC083 14/13 Q1019","temp":14,"dewp":13,"wdir":260,"wspd":9,"visib":"6+","altim":1019,"clouds":[{"cover":"FEW","base":500},{"cover":"SCT","base":1300},{"cover":"OVC","base":8300}],"obsTime":1784746800},"SBAR":{"icaoId":"SBAR","flightCategory":"VFR","rawOb":"METAR SBAR 221900Z 11006KT 9999 VCSH FEW015 SCT025 BKN040 26/23 Q1015","temp":26,"dewp":23,"wdir":110,"wspd":6,"visib":"6+","altim":1015,"clouds":[{"cover":"FEW","base":1500},{"cover":"SCT","base":2500},{"cover":"BKN","base":4000}],"obsTime":1784746800},"SBCO":{"icaoId":"SBCO","flightCategory":"LIFR","rawOb":"METAR SBCO 221900Z 15004KT 4000 -RA BR BKN004 OVC012 17/17 Q1010","temp":17,"dewp":17,"wdir":150,"wspd":4,"visib":2.49,"altim":1010,"clouds":[{"cover":"BKN","base":400},{"cover":"OVC","base":1200}],"obsTime":1784746800},"SBUY":{"icaoId":"SBUY","flightCategory":"VFR","rawOb":"METAR SBUY 221900Z 13008KT 9999 SCT025 33/22 Q1008","temp":33,"dewp":22,"wdir":130,"wspd":8,"visib":"6+","altim":1008,"clouds":[{"cover":"SCT","base":2500}],"obsTime":1784746800},"SBSM":{"icaoId":"SBSM","flightCategory":"MVFR","rawOb":"METAR SBSM 221900Z VRB02KT 6000 -RA SCT006 BKN016 BKN030 17/17 Q1012","temp":17,"dewp":17,"wdir":"VRB","wspd":2,"visib":3.73,"altim":1012,"clouds":[{"cover":"SCT","base":600},{"cover":"BKN","base":1600},{"cover":"BKN","base":3000}],"obsTime":1784746800},"SBPB":{"icaoId":"SBPB","flightCategory":"VFR","rawOb":"METAR SBPB 221900Z 08013KT 9999 FEW023 30/24 Q1010","temp":30,"dewp":24,"wdir":80,"wspd":13,"visib":"6+","altim":1010,"clouds":[{"cover":"FEW","base":2300}],"obsTime":1784746800},"SBAX":{"icaoId":"SBAX","flightCategory":"VFR","rawOb":"METAR SBAX 221900Z AUTO 34005KT 300V360 CAVOK 26/09 Q1017","temp":26,"dewp":9,"wdir":340,"wspd":5,"visib":"6+","altim":1017,"clouds":[],"obsTime":1784746800},"SBBH":{"icaoId":"SBBH","flightCategory":"VFR","rawOb":"METAR SBBH 221900Z 27003KT 9999 SCT040 SCT080 26/10 Q1017","temp":26,"dewp":10,"wdir":270,"wspd":3,"visib":"6+","altim":1017,"clouds":[{"cover":"SCT","base":4000},{"cover":"SCT","base":8000}],"obsTime":1784746800},"SBBU":{"icaoId":"SBBU","flightCategory":"VFR","rawOb":"METAR SBBU 221900Z 32012KT CAVOK 31/13 Q1013","temp":31,"dewp":13,"wdir":320,"wspd":12,"visib":"6+","altim":1013,"clouds":[],"obsTime":1784746800},"SBSJ":{"icaoId":"SBSJ","flightCategory":"VFR","rawOb":"METAR SBSJ 221900Z VRB08G18KT CAVOK 24/14 Q1015","temp":24,"dewp":14,"wdir":"VRB","wspd":8,"visib":"6+","altim":1015,"clouds":[],"obsTime":1784746800},"SBDN":{"icaoId":"SBDN","flightCategory":"VFR","rawOb":"METAR SBDN 221900Z 29009KT CAVOK 29/14 Q1012","temp":29,"dewp":14,"wdir":290,"wspd":9,"visib":"6+","altim":1012,"clouds":[],"obsTime":1784746800},"SBPS":{"icaoId":"SBPS","flightCategory":"MVFR","rawOb":"METAR SBPS 221900Z VRB02KT 6000 VCSH SCT025 OVC040 23/21 Q1017","temp":23,"dewp":21,"wdir":"VRB","wspd":2,"visib":3.73,"altim":1017,"clouds":[{"cover":"SCT","base":2500},{"cover":"OVC","base":4000}],"obsTime":1784746800},"SBIP":{"icaoId":"SBIP","flightCategory":"VFR","rawOb":"METAR SBIP 221900Z AUTO 02007KT 360V070 CAVOK 28/15 Q1015","temp":28,"dewp":15,"wdir":20,"wspd":7,"visib":"6+","altim":1015,"clouds":[],"obsTime":1784746800},"SBKG":{"icaoId":"SBKG","flightCategory":"MVFR","rawOb":"METAR SBKG 221900Z 10011KT 9999 SCT010 BKN020 BKN070 24/22 Q1015","temp":24,"dewp":22,"wdir":100,"wspd":11,"visib":"6+","altim":1015,"clouds":[{"cover":"SCT","base":1000},{"cover":"BKN","base":2000},{"cover":"BKN","base":7000}],"obsTime":1784746800},"SBSC":{"icaoId":"SBSC","flightCategory":"VFR","rawOb":"METAR SBSC 221900Z 22012G22KT 9999 FEW020 23/19 Q1014","temp":23,"dewp":19,"wdir":220,"wspd":12,"visib":"6+","altim":1014,"clouds":[{"cover":"FEW","base":2000}],"obsTime":1784746800},"SBCC":{"icaoId":"SBCC","flightCategory":"VFR","rawOb":"METAR SBCC 221900Z 02007KT 330V070 9999 SCT045 32/14 Q1013","temp":32,"dewp":14,"wdir":20,"wspd":7,"visib":"6+","altim":1013,"clouds":[{"cover":"SCT","base":4500}],"obsTime":1784746800},"SBSR":{"icaoId":"SBSR","flightCategory":"VFR","rawOb":"METAR SBSR 221900Z VRB06KT CAVOK 31/09 Q1013","temp":31,"dewp":9,"wdir":"VRB","wspd":6,"visib":"6+","altim":1013,"clouds":[],"obsTime":1784746800},"SBES":{"icaoId":"SBES","flightCategory":"VFR","rawOb":"METAR SBES 221900Z 07009KT 9999 FEW030 27/// Q1012","temp":null,"dewp":null,"wdir":70,"wspd":9,"visib":"6+","altim":1012,"clouds":[{"cover":"FEW","base":3000}],"obsTime":1784746800},"SBTU":{"icaoId":"SBTU","flightCategory":"VFR","rawOb":"METAR SBTU 221900Z AUTO 20005KT 160V250 9999 // FEW037/// ///// Q1012","temp":null,"dewp":null,"wdir":200,"wspd":5,"visib":"6+","altim":1012,"clouds":[{"cover":"FEW","base":3700}],"obsTime":1784746800},"SBCJ":{"icaoId":"SBCJ","flightCategory":"VFR","rawOb":"METAR SBCJ 221900Z 00000KT 9999 FEW020 29/19 Q1014","temp":29,"dewp":19,"wdir":0,"wspd":0,"visib":"6+","altim":1014,"clouds":[{"cover":"FEW","base":2000}],"obsTime":1784746800},"SBOI":{"icaoId":"SBOI","flightCategory":"VFR","rawOb":"METAR SBOI 221900Z AUTO 12007KT 080V170 CAVOK 32/20 Q1010","temp":32,"dewp":20,"wdir":120,"wspd":7,"visib":"6+","altim":1010,"clouds":[],"obsTime":1784746800},"SBPP":{"icaoId":"SBPP","flightCategory":"LIFR","rawOb":"METAR SBPP 221900Z 22011KT 1000 BR VV001 18/17 Q1013","temp":18,"dewp":17,"wdir":220,"wspd":11,"visib":0.62,"altim":1013,"clouds":[{"cover":"OVX","base":100}],"obsTime":1784746800},"SBTT":{"icaoId":"SBTT","flightCategory":"MVFR","rawOb":"METAR SBTT 221900Z 19005KT 120V250 9999 BKN025 FEW030TCU 30/25 Q1009","temp":30,"dewp":25,"wdir":190,"wspd":5,"visib":"6+","altim":1009,"clouds":[{"cover":"BKN","base":2500},{"cover":"FEW","base":3000}],"obsTime":1784746800},"SBGM":{"icaoId":"SBGM","flightCategory":"VFR","rawOb":"METAR SBGM 221900Z 29009KT 9999 BKN041 34/08 Q1010","temp":34,"dewp":8,"wdir":290,"wspd":9,"visib":"6+","altim":1010,"clouds":[{"cover":"BKN","base":4100}],"obsTime":1784746800},"SBTF":{"icaoId":"SBTF","flightCategory":"VFR","rawOb":"METAR SBTF 221900Z 10008KT 9999 SCT020 33/23 Q1009","temp":33,"dewp":23,"wdir":100,"wspd":8,"visib":"6+","altim":1009,"clouds":[{"cover":"SCT","base":2000}],"obsTime":1784746800},"SBPL":{"icaoId":"SBPL","flightCategory":"VFR","rawOb":"METAR SBPL 221900Z 12007KT 9999 SCT030 32/16 Q1013","temp":32,"dewp":16,"wdir":120,"wspd":7,"visib":"6+","altim":1013,"clouds":[{"cover":"SCT","base":3000}],"obsTime":1784746800},"SBVH":{"icaoId":"SBVH","flightCategory":"VFR","rawOb":"METAR SBVH 221900Z 32005KT 250V040 9999 SCT040 32/17 Q1014","temp":32,"dewp":17,"wdir":320,"wspd":5,"visib":"6+","altim":1014,"clouds":[{"cover":"SCT","base":4000}],"obsTime":1784746800},"SBCA":{"icaoId":"SBCA","flightCategory":"IFR","rawOb":"METAR SBCA 221900Z 02014KT 4000 -TSRA BR SCT006 BKN014 FEW035CB OVC070 16/15 Q1014","temp":16,"dewp":15,"wdir":20,"wspd":14,"visib":2.49,"altim":1014,"clouds":[{"cover":"SCT","base":600},{"cover":"BKN","base":1400},{"cover":"FEW","base":3500},{"cover":"OVC","base":7000}],"obsTime":1784746800},"SBBQ":{"icaoId":"SBBQ","flightCategory":"VFR","rawOb":"METAR SBBQ 221900Z 33006KT 300V020 CAVOK 24/09 Q1020","temp":24,"dewp":9,"wdir":330,"wspd":6,"visib":"6+","altim":1020,"clouds":[],"obsTime":1784746800},"SBNM":{"icaoId":"SBNM","flightCategory":"MVFR","rawOb":"METAR SBNM 221900Z AUTO 23007KT 9999 SCT004 OVC016 18/17 Q1012","temp":18,"dewp":17,"wdir":230,"wspd":7,"visib":"6+","altim":1012,"clouds":[{"cover":"SCT","base":400},{"cover":"OVC","base":1600}],"obsTime":1784746800},"SBJP":{"icaoId":"SBJP","flightCategory":"MVFR","rawOb":"METAR SBJP 221900Z 12012KT 9999 SCT014 BKN025 BKN090 26/23 Q1013","temp":26,"dewp":23,"wdir":120,"wspd":12,"visib":"6+","altim":1013,"clouds":[{"cover":"SCT","base":1400},{"cover":"BKN","base":2500},{"cover":"BKN","base":9000}],"obsTime":1784746800},"SBTA":{"icaoId":"SBTA","flightCategory":"VFR","rawOb":"METAR SBTA 221900Z 24004KT 190V280 CAVOK 26/14 Q1014","temp":26,"dewp":14,"wdir":240,"wspd":4,"visib":"6+","altim":1014,"clouds":[],"obsTime":1784746800},"SBLE":{"icaoId":"SBLE","flightCategory":"VFR","rawOb":"METAR SBLE 221900Z AUTO 18005KT 140V220 9999 FEW041 ///// Q1018","temp":null,"dewp":null,"wdir":180,"wspd":5,"visib":"6+","altim":1018,"clouds":[{"cover":"FEW","base":4100}],"obsTime":1784746800},"SBIH":{"icaoId":"SBIH","flightCategory":"VFR","rawOb":"METAR SBIH 221900Z 07007KT 9999 FEW020 32/23 Q1010","temp":32,"dewp":23,"wdir":70,"wspd":7,"visib":"6+","altim":1010,"clouds":[{"cover":"FEW","base":2000}],"obsTime":1784746800},"SBJV":{"icaoId":"SBJV","flightCategory":"VFR","rawOb":"METAR SBJV 221900Z 02008KT 9999 FEW040 OVC100 18/17 Q1011","temp":18,"dewp":17,"wdir":20,"wspd":8,"visib":"6+","altim":1011,"clouds":[{"cover":"FEW","base":4000},{"cover":"OVC","base":10000}],"obsTime":1784746800},"SBPF":{"icaoId":"SBPF","flightCategory":"MVFR","rawOb":"METAR SBPF 221900Z 33010KT 9999 BKN020 17/16 Q1012","temp":17,"dewp":16,"wdir":330,"wspd":10,"visib":"6+","altim":1012,"clouds":[{"cover":"BKN","base":2000}],"obsTime":1784746800},"SBAN":{"icaoId":"SBAN","flightCategory":"VFR","rawOb":"METAR SBAN 221900Z 30004KT 9999 SCT045 26/08 Q1019","temp":26,"dewp":8,"wdir":300,"wspd":4,"visib":"6+","altim":1019,"clouds":[{"cover":"SCT","base":4500}],"obsTime":1784746800},"SBAF":{"icaoId":"SBAF","flightCategory":"VFR","rawOb":"METAR SBAF 221900Z 23010KT 9999 FEW030 27/15 Q1013","temp":27,"dewp":15,"wdir":230,"wspd":10,"visib":"6+","altim":1013,"clouds":[{"cover":"FEW","base":3000}],"obsTime":1784746800},"SBGW":{"icaoId":"SBGW","flightCategory":"VFR","rawOb":"METAR SBGW 221900Z 25008KT CAVOK 28/13 Q1014","temp":28,"dewp":13,"wdir":250,"wspd":8,"visib":"6+","altim":1014,"clouds":[],"obsTime":1784746800},"SBJR":{"icaoId":"SBJR","flightCategory":"VFR","rawOb":"METAR SBJR 221900Z 24006KT 9999 FEW020 26/19 Q1013","temp":26,"dewp":19,"wdir":240,"wspd":6,"visib":"6+","altim":1013,"clouds":[{"cover":"FEW","base":2000}],"obsTime":1784746800},"SBLS":{"icaoId":"SBLS","flightCategory":"VFR","rawOb":"METAR SBLS 221900Z 02003KT 300V050 9999 FEW040 SCT070 26/10 Q1017","temp":26,"dewp":10,"wdir":20,"wspd":3,"visib":"6+","altim":1017,"clouds":[{"cover":"FEW","base":4000},{"cover":"SCT","base":7000}],"obsTime":1784746800},"SBMT":{"icaoId":"SBMT","flightCategory":"VFR","rawOb":"METAR SBMT 221900Z 13004KT 070V190 CAVOK 21/13 Q1016","temp":21,"dewp":13,"wdir":130,"wspd":4,"visib":"6+","altim":1016,"clouds":[],"obsTime":1784746800},"SBST":{"icaoId":"SBST","flightCategory":"VFR","rawOb":"METAR SBST 221900Z 18003KT CAVOK 24/14 Q1014","temp":24,"dewp":14,"wdir":180,"wspd":3,"visib":"6+","altim":1014,"clouds":[],"obsTime":1784746800}}}