{"updated":1784523432,"count":55,"data":{"SBMA":{"icaoId":"SBMA","flightCategory":"VFR","rawOb":"METAR SBMA 200300Z 00000KT CAVOK 26/19 Q1011","temp":26,"dewp":19,"wdir":0,"wspd":0,"visib":"6+","altim":1011,"clouds":[],"obsTime":1784516400},"SBSP":{"icaoId":"SBSP","flightCategory":"VFR","rawOb":"METAR SBSP 200300Z AUTO 02009KT CAVOK 20/10 Q1019","temp":20,"dewp":10,"wdir":20,"wspd":9,"visib":"6+","altim":1019,"clouds":[],"obsTime":1784516400},"SBFI":{"icaoId":"SBFI","flightCategory":"VFR","rawOb":"METAR SBFI 200300Z 02012KT CAVOK 25/14 Q1007","temp":25,"dewp":14,"wdir":20,"wspd":12,"visib":"6+","altim":1007,"clouds":[],"obsTime":1784516400},"SBNT":{"icaoId":"SBNT","flightCategory":"MVFR","rawOb":"METAR SBNT 200300Z 17008KT 8000 VCSH BKN020 FEW025TCU BKN060 24/21 Q1013","temp":24,"dewp":21,"wdir":170,"wspd":8,"visib":4.97,"altim":1013,"clouds":[{"cover":"BKN","base":2000},{"cover":"FEW","base":2500},{"cover":"BKN","base":6000}],"obsTime":1784516400},"SBPJ":{"icaoId":"SBPJ","flightCategory":"VFR","rawOb":"METAR SBPJ 200300Z 12003KT CAVOK 22/15 Q1013","temp":22,"dewp":15,"wdir":120,"wspd":3,"visib":"6+","altim":1013,"clouds":[],"obsTime":1784516400},"SBCF":{"icaoId":"SBCF","flightCategory":"VFR","rawOb":"METAR SBCF 200300Z 16002KT CAVOK 16/11 Q1022","temp":16,"dewp":11,"wdir":160,"wspd":2,"visib":"6+","altim":1022,"clouds":[],"obsTime":1784516400},"SBGR":{"icaoId":"SBGR","flightCategory":"VFR","rawOb":"METAR SBGR 200300Z 04008KT CAVOK 18/11 Q1019","temp":18,"dewp":11,"wdir":40,"wspd":8,"visib":"6+","altim":1019,"clouds":[],"obsTime":1784516400},"SBVT":{"icaoId":"SBVT","flightCategory":"MVFR","rawOb":"METAR SBVT 200300Z 31001KT 9999 -RA SCT017 BKN025 20/19 Q1020","temp":20,"dewp":19,"wdir":310,"wspd":1,"visib":"6+","altim":1020,"clouds":[{"cover":"SCT","base":1700},{"cover":"BKN","base":2500}],"obsTime":1784516400},"SBFZ":{"icaoId":"SBFZ","flightCategory":"VFR","rawOb":"METAR SBFZ 200300Z 11011KT 9999 FEW018 BKN070 27/24 Q1012","temp":27,"dewp":24,"wdir":110,"wspd":11,"visib":"6+","altim":1012,"clouds":[{"cover":"FEW","base":1800},{"cover":"BKN","base":7000}],"obsTime":1784516400},"SBMO":{"icaoId":"SBMO","flightCategory":"VFR","rawOb":"METAR SBMO 200300Z 30003KT 9999 SCT040 21/21 Q1016","temp":21,"dewp":21,"wdir":300,"wspd":3,"visib":"6+","altim":1016,"clouds":[{"cover":"SCT","base":4000}],"obsTime":1784516400},"SBLO":{"icaoId":"SBLO","flightCategory":"VFR","rawOb":"METAR SBLO 200300Z 04005KT CAVOK 19/12 Q1014","temp":19,"dewp":12,"wdir":40,"wspd":5,"visib":"6+","altim":1014,"clouds":[],"obsTime":1784516400},"SBRB":{"icaoId":"SBRB","flightCategory":"VFR","rawOb":"METAR SBRB 200300Z 01003KT CAVOK 26/23 Q1010","temp":26,"dewp":23,"wdir":10,"wspd":3,"visib":"6+","altim":1010,"clouds":[],"obsTime":1784516400},"SBBE":{"icaoId":"SBBE","flightCategory":"VFR","rawOb":"METAR SBBE 200300Z 06009KT CAVOK 26/24 Q1012","temp":26,"dewp":24,"wdir":60,"wspd":9,"visib":"6+","altim":1012,"clouds":[],"obsTime":1784516400},"SBBR":{"icaoId":"SBBR","flightCategory":"VFR","rawOb":"METAR SBBR 200300Z 11005KT CAVOK 18/11 Q1021","temp":18,"dewp":11,"wdir":110,"wspd":5,"visib":"6+","altim":1021,"clouds":[],"obsTime":1784516400},"SBEG":{"icaoId":"SBEG","flightCategory":"VFR","rawOb":"METAR SBEG 200300Z 13001KT CAVOK 26/24 Q1011","temp":26,"dewp":24,"wdir":130,"wspd":1,"visib":"6+","altim":1011,"clouds":[],"obsTime":1784516400},"SBCT":{"icaoId":"SBCT","flightCategory":"VFR","rawOb":"METAR SBCT 200300Z 02007KT CAVOK 16/11 Q1017","temp":16,"dewp":11,"wdir":20,"wspd":7,"visib":"6+","altim":1017,"clouds":[],"obsTime":1784516400},"SBCG":{"icaoId":"SBCG","flightCategory":"VFR","rawOb":"METAR SBCG 200300Z 01009KT CAVOK 24/14 Q1012","temp":24,"dewp":14,"wdir":10,"wspd":9,"visib":"6+","altim":1012,"clouds":[],"obsTime":1784516400},"SBPV":{"icaoId":"SBPV","flightCategory":"VFR","rawOb":"METAR SBPV 200300Z 34002KT CAVOK 26/23 Q1010","temp":26,"dewp":23,"wdir":340,"wspd":2,"visib":"6+","altim":1010,"clouds":[],"obsTime":1784516400},"SBKP":{"icaoId":"SBKP","flightCategory":"VFR","rawOb":"METAR SBKP 200300Z 08004KT CAVOK 18/11 Q1018","temp":18,"dewp":11,"wdir":80,"wspd":4,"visib":"6+","altim":1018,"clouds":[],"obsTime":1784516400},"SBSL":{"icaoId":"SBSL","flightCategory":"VFR","rawOb":"METAR SBSL 200300Z 08004KT CAVOK 26/24 Q1012","temp":26,"dewp":24,"wdir":80,"wspd":4,"visib":"6+","altim":1012,"clouds":[],"obsTime":1784516400},"SBBV":{"icaoId":"SBBV","flightCategory":"VFR","rawOb":"METAR SBBV 200300Z 12004KT 9999 FEW040 BKN100 29/23 Q1011","temp":29,"dewp":23,"wdir":120,"wspd":4,"visib":"6+","altim":1011,"clouds":[{"cover":"FEW","base":4000},{"cover":"BKN","base":10000}],"obsTime":1784516400},"SBTE":{"icaoId":"SBTE","flightCategory":"VFR","rawOb":"METAR SBTE 200300Z 26002KT CAVOK 26/20 Q1011","temp":26,"dewp":20,"wdir":260,"wspd":2,"visib":"6+","altim":1011,"clouds":[],"obsTime":1784516400},"SBGO":{"icaoId":"SBGO","flightCategory":"VFR","rawOb":"METAR SBGO 200300Z VRB02KT CAVOK 18/12 Q1018","temp":18,"dewp":12,"wdir":"VRB","wspd":2,"visib":"6+","altim":1018,"clouds":[],"obsTime":1784516400},"SBRF":{"icaoId":"SBRF","flightCategory":"VFR","rawOb":"METAR SBRF 200300Z 13012KT 9999 FEW025 BKN060 26/22 Q1014","temp":26,"dewp":22,"wdir":130,"wspd":12,"visib":"6+","altim":1014,"clouds":[{"cover":"FEW","base":2500},{"cover":"BKN","base":6000}],"obsTime":1784516400},"SBSG":{"icaoId":"SBSG","flightCategory":"MVFR","rawOb":"METAR SBSG 200300Z 16007KT 120V200 9999 BKN025 24/21 Q1014","temp":24,"dewp":21,"wdir":160,"wspd":7,"visib":"6+","altim":1014,"clouds":[{"cover":"BKN","base":2500}],"obsTime":1784516400},"SBSV":{"icaoId":"SBSV","flightCategory":"VFR","rawOb":"METAR SBSV 200300Z 12007KT 100V160 9999 SCT027 25/19 Q1017","temp":25,"dewp":19,"wdir":120,"wspd":7,"visib":"6+","altim":1017,"clouds":[{"cover":"SCT","base":2700}],"obsTime":1784516400},"SBUR":{"icaoId":"SBUR","flightCategory":"VFR","rawOb":"METAR SBUR 200300Z 04007KT CAVOK 19/10 Q1019","temp":19,"dewp":10,"wdir":40,"wspd":7,"visib":"6+","altim":1019,"clouds":[],"obsTime":1784516400},"SBUL":{"icaoId":"SBUL","flightCategory":"VFR","rawOb":"METAR SBUL 200300Z 10007KT CAVOK 18/11 Q1020","temp":18,"dewp":11,"wdir":100,"wspd":7,"visib":"6+","altim":1020,"clouds":[],"obsTime":1784516400},"SBMK":{"icaoId":"SBMK","flightCategory":"VFR","rawOb":"METAR SBMK 200300Z 08005KT CAVOK 18/11 Q1020","temp":18,"dewp":11,"wdir":80,"wspd":5,"visib":"6+","altim":1020,"clouds":[],"obsTime":1784516400},"SBGL":{"icaoId":"SBGL","flightCategory":"VFR","rawOb":"METAR SBGL 200300Z VRB02KT CAVOK 18/16 Q1016","temp":18,"dewp":16,"wdir":"VRB","wspd":2,"visib":"6+","altim":1016,"clouds":[],"obsTime":1784516400},"SBME":{"icaoId":"SBME","flightCategory":"VFR","rawOb":"METAR SBME 200300Z 03010KT CAVOK 20/18 Q1018","temp":20,"dewp":18,"wdir":30,"wspd":10,"visib":"6+","altim":1018,"clouds":[],"obsTime":1784516400},"SBSN":{"icaoId":"SBSN","flightCategory":"VFR","rawOb":"METAR SBSN 200300Z 16002KT CAVOK 25/24 Q1011","temp":25,"dewp":24,"wdir":160,"wspd":2,"visib":"6+","altim":1011,"clouds":[],"obsTime":1784516400},"SBJU":{"icaoId":"SBJU","flightCategory":"VFR","rawOb":"METAR SBJU 200300Z 14004KT 9999 FEW020 23/16 Q1016","temp":23,"dewp":16,"wdir":140,"wspd":4,"visib":"6+","altim":1016,"clouds":[{"cover":"FEW","base":2000}],"obsTime":1784516400},"SBMQ":{"icaoId":"SBMQ","flightCategory":"VFR","rawOb":"METAR SBMQ 200300Z 00000KT 9999 BKN040 BKN090 25/25 Q1012","temp":25,"dewp":25,"wdir":0,"wspd":0,"visib":"6+","altim":1012,"clouds":[{"cover":"BKN","base":4000},{"cover":"BKN","base":9000}],"obsTime":1784516400},"SBMG":{"icaoId":"SBMG","flightCategory":"VFR","rawOb":"METAR SBMG 200300Z 03011KT CAVOK 21/12 Q1012","temp":21,"dewp":12,"wdir":30,"wspd":11,"visib":"6+","altim":1012,"clouds":[],"obsTime":1784516400},"SBFL":{"icaoId":"SBFL","flightCategory":"VFR","rawOb":"METAR SBFL 200300Z 09003KT CAVOK 18/15 Q1012","temp":18,"dewp":15,"wdir":90,"wspd":3,"visib":"6+","altim":1012,"clouds":[],"obsTime":1784516400},"SBPA":{"icaoId":"SBPA","flightCategory":"MVFR","rawOb":"METAR SBPA 200300Z 10004KT 6000 -TSRA BKN030 FEW035CB BKN080 17/17 Q1010 RETS","temp":17,"dewp":17,"wdir":100,"wspd":4,"visib":3.73,"altim":1010,"clouds":[{"cover":"BKN","base":3000},{"cover":"FEW","base":3500},{"cover":"BKN","base":8000}],"obsTime":1784516400},"SBAR":{"icaoId":"SBAR","flightCategory":"MVFR","rawOb":"METAR SBAR 200300Z 08009KT 8000 -RA SCT007 OVC015 23/21 Q1016","temp":23,"dewp":21,"wdir":80,"wspd":9,"visib":4.97,"altim":1016,"clouds":[{"cover":"SCT","base":700},{"cover":"OVC","base":1500}],"obsTime":1784516400},"SBIP":{"icaoId":"SBIP","flightCategory":"IFR","rawOb":"METAR SBIP 200300Z AUTO 00000KT 1900 BR NSC 15/15 Q1020","temp":15,"dewp":15,"wdir":0,"wspd":0,"visib":1.18,"altim":1020,"clouds":[],"obsTime":1784516400},"SBSJ":{"icaoId":"SBSJ","flightCategory":"VFR","rawOb":"METAR SBSJ 200300Z 19003G13KT CAVOK 13/09 Q1019","temp":13,"dewp":9,"wdir":190,"wspd":3,"visib":"6+","altim":1019,"clouds":[],"obsTime":1784516400},"SBOI":{"icaoId":"SBOI","flightCategory":"VFR","rawOb":"METAR SBOI 200300Z AUTO 00000KT CAVOK 25/24 Q1013","temp":25,"dewp":24,"wdir":0,"wspd":0,"visib":"6+","altim":1013,"clouds":[],"obsTime":1784516400},"SBKG":{"icaoId":"SBKG","flightCategory":"VFR","rawOb":"METAR SBKG 200300Z 15004KT CAVOK 20/17 Q1017","temp":20,"dewp":17,"wdir":150,"wspd":4,"visib":"6+","altim":1017,"clouds":[],"obsTime":1784516400},"SBSR":{"icaoId":"SBSR","flightCategory":"VFR","rawOb":"METAR SBSR 200300Z 06002KT CAVOK 19/09 Q1016","temp":19,"dewp":9,"wdir":60,"wspd":2,"visib":"6+","altim":1016,"clouds":[],"obsTime":1784516400},"SBPS":{"icaoId":"SBPS","flightCategory":"MVFR","rawOb":"METAR SBPS 200300Z 14004KT 090V210 9999 BKN015 OVC030 21/20 Q1019","temp":21,"dewp":20,"wdir":140,"wspd":4,"visib":"6+","altim":1019,"clouds":[{"cover":"BKN","base":1500},{"cover":"OVC","base":3000}],"obsTime":1784516400},"SBAX":{"icaoId":"SBAX","flightCategory":"VFR","rawOb":"METAR SBAX 200300Z AUTO 07004KT CAVOK 15/10 Q1021","temp":15,"dewp":10,"wdir":70,"wspd":4,"visib":"6+","altim":1021,"clouds":[],"obsTime":1784516400},"SBDN":{"icaoId":"SBDN","flightCategory":"VFR","rawOb":"METAR SBDN 200300Z 05009KT CAVOK 20/10 Q1013","temp":20,"dewp":10,"wdir":50,"wspd":9,"visib":"6+","altim":1013,"clouds":[],"obsTime":1784516400},"SBSC":{"icaoId":"SBSC","flightCategory":"VFR","rawOb":"METAR SBSC 200300Z COR 02004KT CAVOK 21/17 Q1017","temp":21,"dewp":17,"wdir":20,"wspd":4,"visib":"6+","altim":1017,"clouds":[],"obsTime":1784516400},"SBTU":{"icaoId":"SBTU","flightCategory":"VFR","rawOb":"METAR SBTU 200300Z AUTO 32004KT 9999 // NCD ///// Q1013","temp":null,"dewp":null,"wdir":320,"wspd":4,"visib":"6+","altim":1013,"clouds":[],"obsTime":1784516400},"SBPL":{"icaoId":"SBPL","flightCategory":"MVFR","rawOb":"METAR SBPL 200300Z 12010KT 9999 -RA BKN015 OVC070 21/20 Q1017","temp":21,"dewp":20,"wdir":120,"wspd":10,"visib":"6+","altim":1017,"clouds":[{"cover":"BKN","base":1500},{"cover":"OVC","base":7000}],"obsTime":1784516400},"SBCO":{"icaoId":"SBCO","flightCategory":"MVFR","rawOb":"METAR SBCO 200300Z 12005KT 100V160 7000 TSRA FEW020 FEW035CB SCT045 OVC080 17/16 Q1011 RETS","temp":17,"dewp":16,"wdir":120,"wspd":5,"visib":4.35,"altim":1011,"clouds":[{"cover":"FEW","base":2000},{"cover":"FEW","base":3500},{"cover":"SCT","base":4500},{"cover":"OVC","base":8000}],"obsTime":1784516400},"SBSM":{"icaoId":"SBSM","flightCategory":"VFR","rawOb":"METAR SBSM 200300Z 12003KT 9999 TS FEW007 SCT040 FEW045CB OVC070 18/17 Q1007 RETS","temp":18,"dewp":17,"wdir":120,"wspd":3,"visib":"6+","altim":1007,"clouds":[{"cover":"FEW","base":700},{"cover":"SCT","base":4000},{"cover":"FEW","base":4500},{"cover":"OVC","base":7000}],"obsTime":1784516400},"SBLE":{"icaoId":"SBLE","flightCategory":"VFR","rawOb":"METAR SBLE 200300Z AUTO 09001KT CAVOK ///// Q1020","temp":null,"dewp":null,"wdir":90,"wspd":1,"visib":"6+","altim":1020,"clouds":[],"obsTime":1784516400},"SBAN":{"icaoId":"SBAN","flightCategory":"VFR","rawOb":"METAR SBAN 200300Z 11002KT CAVOK 14/09 Q1020","temp":14,"dewp":9,"wdir":110,"wspd":2,"visib":"6+","altim":1020,"clouds":[],"obsTime":1784516400},"SBNM":{"icaoId":"SBNM","flightCategory":"IFR","rawOb":"METAR SBNM 200400Z AUTO 07006KT 030V130 3400 RA FEW010 18/17 Q1008","temp":18,"dewp":17,"wdir":70,"wspd":6,"visib":2.11,"altim":1008,"clouds":[{"cover":"FEW","base":1000}],"obsTime":1784520000},"SBJP":{"icaoId":"SBJP","flightCategory":"IFR","rawOb":"METAR SBJP 200300Z 15006KT 4000 -RA BKN018 OVC070 23/21 Q1015","temp":23,"dewp":21,"wdir":150,"wspd":6,"visib":2.49,"altim":1015,"clouds":[{"cover":"BKN","base":1800},{"cover":"OVC","base":7000}],"obsTime":1784516400}}}