{"updated":1774930203,"count":53,"data":{"SBLO":{"icaoId":"SBLO","flightCategory":"VFR","rawOb":"METAR SBLO 310300Z 18006KT 9999 FEW040 22/19 Q1015","temp":22,"dewp":19,"wdir":180,"wspd":6,"visib":"6+","altim":1015,"clouds":[{"cover":"FEW","base":4000}],"obsTime":1774926000},"SBMA":{"icaoId":"SBMA","flightCategory":"VFR","rawOb":"METAR SBMA 310300Z 35002KT 9999 FEW012 SCT100 25/23 Q1011","temp":25,"dewp":23,"wdir":350,"wspd":2,"visib":"6+","altim":1011,"clouds":[{"cover":"FEW","base":1200},{"cover":"SCT","base":10000}],"obsTime":1774926000},"SBFL":{"icaoId":"SBFL","flightCategory":"IFR","rawOb":"SPECI SBFL 310211Z 14006KT 4000 DZ BKN010 BKN035 BKN100 22/21 Q1016","temp":22,"dewp":21,"wdir":140,"wspd":6,"visib":2.49,"altim":1016,"clouds":[{"cover":"BKN","base":1000},{"cover":"BKN","base":3500},{"cover":"BKN","base":10000}],"obsTime":1774923060},"SBVT":{"icaoId":"SBVT","flightCategory":"VFR","rawOb":"METAR SBVT 310300Z 33004KT 9999 SCT026 BKN050 23/23 Q1013","temp":23,"dewp":23,"wdir":330,"wspd":4,"visib":"6+","altim":1013,"clouds":[{"cover":"SCT","base":2600},{"cover":"BKN","base":5000}],"obsTime":1774926000},"SBBE":{"icaoId":"SBBE","flightCategory":"VFR","rawOb":"METAR SBBE 310300Z 16002KT 9999 FEW025 BKN070 26/26 Q1012","temp":26,"dewp":26,"wdir":160,"wspd":2,"visib":"6+","altim":1012,"clouds":[{"cover":"FEW","base":2500},{"cover":"BKN","base":7000}],"obsTime":1774926000},"SBCG":{"icaoId":"SBCG","flightCategory":"VFR","rawOb":"METAR SBCG 310300Z 15003KT CAVOK 23/19 Q1013","temp":23,"dewp":19,"wdir":150,"wspd":3,"visib":"6+","altim":1013,"clouds":[],"obsTime":1774926000},"SBFZ":{"icaoId":"SBFZ","flightCategory":"VFR","rawOb":"METAR SBFZ 310300Z 31002KT 9999 FEW020 26/22 Q1010","temp":26,"dewp":22,"wdir":310,"wspd":2,"visib":"6+","altim":1010,"clouds":[{"cover":"FEW","base":2000}],"obsTime":1774926000},"SBMO":{"icaoId":"SBMO","flightCategory":"VFR","rawOb":"METAR SBMO 310300Z 32003KT 9999 SCT015 SCT050 24/24 Q1012","temp":24,"dewp":24,"wdir":320,"wspd":3,"visib":"6+","altim":1012,"clouds":[{"cover":"SCT","base":1500},{"cover":"SCT","base":5000}],"obsTime":1774926000},"SBCT":{"icaoId":"SBCT","flightCategory":"MVFR","rawOb":"METAR SBCT 310300Z 11005KT 9999 BKN014 18/17 Q1018","temp":18,"dewp":17,"wdir":110,"wspd":5,"visib":"6+","altim":1018,"clouds":[{"cover":"BKN","base":1400}],"obsTime":1774926000},"SBMQ":{"icaoId":"SBMQ","flightCategory":"VFR","rawOb":"METAR SBMQ 310300Z 01004KT CAVOK 27/26 Q1011","temp":27,"dewp":26,"wdir":10,"wspd":4,"visib":"6+","altim":1011,"clouds":[],"obsTime":1774926000},"SBGL":{"icaoId":"SBGL","flightCategory":"VFR","rawOb":"METAR SBGL 310300Z 13004KT 9999 FEW025 SCT100 25/22 Q1012","temp":25,"dewp":22,"wdir":130,"wspd":4,"visib":"6+","altim":1012,"clouds":[{"cover":"FEW","base":2500},{"cover":"SCT","base":10000}],"obsTime":1774926000},"SBNT":{"icaoId":"SBNT","flightCategory":"MVFR","rawOb":"METAR SBNT 310300Z 19003KT 9000 VCSH BKN017 FEW030TCU 25/24 Q1010","temp":25,"dewp":24,"wdir":190,"wspd":3,"visib":5.59,"altim":1010,"clouds":[{"cover":"BKN","base":1700},{"cover":"FEW","base":3000}],"obsTime":1774926000},"SBPA":{"icaoId":"SBPA","flightCategory":"VFR","rawOb":"METAR SBPA 310300Z 11008KT 9999 FEW007 23/22 Q1013","temp":23,"dewp":22,"wdir":110,"wspd":8,"visib":"6+","altim":1013,"clouds":[{"cover":"FEW","base":700}],"obsTime":1774926000},"SBGO":{"icaoId":"SBGO","flightCategory":"VFR","rawOb":"METAR SBGO 310300Z 00000KT CAVOK 22/18 Q1015","temp":22,"dewp":18,"wdir":0,"wspd":0,"visib":"6+","altim":1015,"clouds":[],"obsTime":1774926000},"SBBV":{"icaoId":"SBBV","flightCategory":"VFR","rawOb":"METAR SBBV 310300Z 26003KT 9999 FEW020 FEW030TCU OVC100 23/23 Q1013","temp":23,"dewp":23,"wdir":260,"wspd":3,"visib":"6+","altim":1013,"clouds":[{"cover":"FEW","base":2000},{"cover":"FEW","base":3000},{"cover":"OVC","base":10000}],"obsTime":1774926000},"SBPJ":{"icaoId":"SBPJ","flightCategory":"VFR","rawOb":"METAR SBPJ 310300Z 03006KT 9999 VCSH VCTS SCT020 FEW033CB BKN070 26/21 Q1013","temp":26,"dewp":21,"wdir":30,"wspd":6,"visib":"6+","altim":1013,"clouds":[{"cover":"SCT","base":2000},{"cover":"FEW","base":3300},{"cover":"BKN","base":7000}],"obsTime":1774926000},"SBPV":{"icaoId":"SBPV","flightCategory":"VFR","rawOb":"METAR SBPV 310300Z 15004KT CAVOK 26/22 Q1010","temp":26,"dewp":22,"wdir":150,"wspd":4,"visib":"6+","altim":1010,"clouds":[],"obsTime":1774926000},"SBCF":{"icaoId":"SBCF","flightCategory":"VFR","rawOb":"METAR SBCF 310300Z 14005KT 9999 FEW046 21/17 Q1017","temp":21,"dewp":17,"wdir":140,"wspd":5,"visib":"6+","altim":1017,"clouds":[{"cover":"FEW","base":4600}],"obsTime":1774926000},"SBRB":{"icaoId":"SBRB","flightCategory":"VFR","rawOb":"METAR SBRB 310300Z 00000KT 9000 NSC 23/23 Q1012","temp":23,"dewp":23,"wdir":0,"wspd":0,"visib":5.59,"altim":1012,"clouds":[],"obsTime":1774926000},"SBGR":{"icaoId":"SBGR","flightCategory":"VFR","rawOb":"METAR SBGR 310300Z 14005KT 9999 SCT015 OVC080 20/18 Q1017","temp":20,"dewp":18,"wdir":140,"wspd":5,"visib":"6+","altim":1017,"clouds":[{"cover":"SCT","base":1500},{"cover":"OVC","base":8000}],"obsTime":1774926000},"SBTE":{"icaoId":"SBTE","flightCategory":"VFR","rawOb":"METAR SBTE 310300Z 08004KT 9999 -RA SCT015 OVC090 24/23 Q1011","temp":24,"dewp":23,"wdir":80,"wspd":4,"visib":"6+","altim":1011,"clouds":[{"cover":"SCT","base":1500},{"cover":"OVC","base":9000}],"obsTime":1774926000},"SBSV":{"icaoId":"SBSV","flightCategory":"VFR","rawOb":"METAR SBSV 310300Z 06003KT 020V110 9999 FEW023 BKN070 25/22 Q1012","temp":25,"dewp":22,"wdir":60,"wspd":3,"visib":"6+","altim":1012,"clouds":[{"cover":"FEW","base":2300},{"cover":"BKN","base":7000}],"obsTime":1774926000},"SBEG":{"icaoId":"SBEG","flightCategory":"VFR","rawOb":"METAR SBEG 310300Z 36005KT 9999 VCTS FEW020 FEW025CB 24/23 Q1012","temp":24,"dewp":23,"wdir":360,"wspd":5,"visib":"6+","altim":1012,"clouds":[{"cover":"FEW","base":2000},{"cover":"FEW","base":2500}],"obsTime":1774926000},"SBRF":{"icaoId":"SBRF","flightCategory":"MVFR","rawOb":"SPECI SBRF 310213Z VRB04KT 6000 2500N RA BKN016 FEW023TCU BKN050 25/24 Q1011","temp":25,"dewp":24,"wdir":"VRB","wspd":4,"visib":3.73,"altim":1011,"clouds":[{"cover":"BKN","base":1600},{"cover":"FEW","base":2300},{"cover":"BKN","base":5000}],"obsTime":1774923180},"SBSG":{"icaoId":"SBSG","flightCategory":"VFR","rawOb":"METAR SBSG 310300Z 21004KT 9999 SCT025 25/23 Q1010","temp":25,"dewp":23,"wdir":210,"wspd":4,"visib":"6+","altim":1010,"clouds":[{"cover":"SCT","base":2500}],"obsTime":1774926000},"SBFI":{"icaoId":"SBFI","flightCategory":"VFR","rawOb":"METAR SBFI 310300Z 05001KT CAVOK 22/22 Q1011","temp":22,"dewp":22,"wdir":50,"wspd":1,"visib":"6+","altim":1011,"clouds":[],"obsTime":1774926000},"SBSL":{"icaoId":"SBSL","flightCategory":"VFR","rawOb":"METAR SBSL 310300Z 08002KT 9999 SCT020 25/24 Q1012","temp":25,"dewp":24,"wdir":80,"wspd":2,"visib":"6+","altim":1012,"clouds":[{"cover":"SCT","base":2000}],"obsTime":1774926000},"SBKP":{"icaoId":"SBKP","flightCategory":"VFR","rawOb":"METAR SBKP 310300Z 12010KT CAVOK 22/18 Q1014","temp":22,"dewp":18,"wdir":120,"wspd":10,"visib":"6+","altim":1014,"clouds":[],"obsTime":1774926000},"SBSN":{"icaoId":"SBSN","flightCategory":"VFR","rawOb":"METAR SBSN 310300Z 20002KT 9999 VCTS FEW019 FEW025CB 25/24 Q1011","temp":25,"dewp":24,"wdir":200,"wspd":2,"visib":"6+","altim":1011,"clouds":[{"cover":"FEW","base":1900},{"cover":"FEW","base":2500}],"obsTime":1774926000},"SBBR":{"icaoId":"SBBR","flightCategory":"VFR","rawOb":"METAR SBBR 310300Z 22004KT CAVOK 21/17 Q1017","temp":21,"dewp":17,"wdir":220,"wspd":4,"visib":"6+","altim":1017,"clouds":[],"obsTime":1774926000},"SBSP":{"icaoId":"SBSP","flightCategory":"VFR","rawOb":"SPECI SBSP 310220Z 15006KT CAVOK 19/18 Q1017","temp":19,"dewp":18,"wdir":150,"wspd":6,"visib":"6+","altim":1017,"clouds":[],"obsTime":1774923600},"SBJU":{"icaoId":"SBJU","flightCategory":"MVFR","rawOb":"METAR SBJU 310300Z 00000KT 9999 BKN020 23/22 Q1014","temp":23,"dewp":22,"wdir":0,"wspd":0,"visib":"6+","altim":1014,"clouds":[{"cover":"BKN","base":2000}],"obsTime":1774926000},"SBME":{"icaoId":"SBME","flightCategory":"VFR","rawOb":"METAR SBME 310300Z 32005KT CAVOK 24/22 Q1013","temp":24,"dewp":22,"wdir":320,"wspd":5,"visib":"6+","altim":1013,"clouds":[],"obsTime":1774926000},"SBMG":{"icaoId":"SBMG","flightCategory":"VFR","rawOb":"METAR SBMG 310300Z 15011KT CAVOK 25/18 Q1013","temp":25,"dewp":18,"wdir":150,"wspd":11,"visib":"6+","altim":1013,"clouds":[],"obsTime":1774926000},"SBMK":{"icaoId":"SBMK","flightCategory":"VFR","rawOb":"METAR SBMK 310300Z 00000KT CAVOK 20/18 Q1015","temp":20,"dewp":18,"wdir":0,"wspd":0,"visib":"6+","altim":1015,"clouds":[],"obsTime":1774926000},"SBUL":{"icaoId":"SBUL","flightCategory":"VFR","rawOb":"METAR SBUL 310300Z 11005KT 9999 FEW048 22/16 Q1017","temp":22,"dewp":16,"wdir":110,"wspd":5,"visib":"6+","altim":1017,"clouds":[{"cover":"FEW","base":4800}],"obsTime":1774926000},"SBUR":{"icaoId":"SBUR","flightCategory":"VFR","rawOb":"METAR SBUR 310300Z 07002KT CAVOK 24/17 Q1015","temp":24,"dewp":17,"wdir":70,"wspd":2,"visib":"6+","altim":1015,"clouds":[],"obsTime":1774926000},"SBAR":{"icaoId":"SBAR","flightCategory":"VFR","rawOb":"METAR SBAR 310300Z 07003KT 9999 FEW016 25/24 Q1011","temp":25,"dewp":24,"wdir":70,"wspd":3,"visib":"6+","altim":1011,"clouds":[{"cover":"FEW","base":1600}],"obsTime":1774926000},"SBPL":{"icaoId":"SBPL","flightCategory":"VFR","rawOb":"METAR SBPL 310300Z 10007KT 9999 FEW020 BKN070 26/22 Q1013","temp":26,"dewp":22,"wdir":100,"wspd":7,"visib":"6+","altim":1013,"clouds":[{"cover":"FEW","base":2000},{"cover":"BKN","base":7000}],"obsTime":1774926000},"SBPS":{"icaoId":"SBPS","flightCategory":"VFR","rawOb":"METAR SBPS 310300Z VRB01KT 9999 FEW030 BKN070 24/23 Q1013","temp":24,"dewp":23,"wdir":"VRB","wspd":1,"visib":"6+","altim":1013,"clouds":[{"cover":"FEW","base":3000},{"cover":"BKN","base":7000}],"obsTime":1774926000},"SBSJ":{"icaoId":"SBSJ","flightCategory":"VFR","rawOb":"SPECI SBSJ 310230Z 13005KT 100V160 CAVOK 20/18 Q1016","temp":20,"dewp":18,"wdir":130,"wspd":5,"visib":"6+","altim":1016,"clouds":[],"obsTime":1774924200},"SBIP":{"icaoId":"SBIP","flightCategory":"VFR","rawOb":"METAR SBIP 310300Z AUTO VRB01KT CAVOK 21/21 Q1014","temp":21,"dewp":21,"wdir":"VRB","wspd":1,"visib":"6+","altim":1014,"clouds":[],"obsTime":1774926000},"SBKG":{"icaoId":"SBKG","flightCategory":"MVFR","rawOb":"METAR SBKG 310300Z 13003KT 9999 BKN010 23/22 Q1013","temp":23,"dewp":22,"wdir":130,"wspd":3,"visib":"6+","altim":1013,"clouds":[{"cover":"BKN","base":1000}],"obsTime":1774926000},"SBSC":{"icaoId":"SBSC","flightCategory":"VFR","rawOb":"METAR SBSC 310300Z 20002KT 9999 SCT040 BKN050 24/22 Q1013","temp":24,"dewp":22,"wdir":200,"wspd":2,"visib":"6+","altim":1013,"clouds":[{"cover":"SCT","base":4000},{"cover":"BKN","base":5000}],"obsTime":1774926000},"SBSR":{"icaoId":"SBSR","flightCategory":"VFR","rawOb":"METAR SBSR 310300Z 00000KT CAVOK 26/16 Q1013","temp":26,"dewp":16,"wdir":0,"wspd":0,"visib":"6+","altim":1013,"clouds":[],"obsTime":1774926000},"SBAX":{"icaoId":"SBAX","flightCategory":"VFR","rawOb":"METAR SBAX 310300Z AUTO 18004KT CAVOK 21/15 Q1017","temp":21,"dewp":15,"wdir":180,"wspd":4,"visib":"6+","altim":1017,"clouds":[],"obsTime":1774926000},"SBCO":{"icaoId":"SBCO","flightCategory":"VFR","rawOb":"METAR SBCO 310300Z 11005KT 9999 SCT008 22/21 Q1014","temp":22,"dewp":21,"wdir":110,"wspd":5,"visib":"6+","altim":1014,"clouds":[{"cover":"SCT","base":800}],"obsTime":1774926000},"SBDN":{"icaoId":"SBDN","flightCategory":"VFR","rawOb":"METAR SBDN 310300Z 00000KT CAVOK 25/19 Q1012","temp":25,"dewp":19,"wdir":0,"wspd":0,"visib":"6+","altim":1012,"clouds":[],"obsTime":1774926000},"SBSM":{"icaoId":"SBSM","flightCategory":"VFR","rawOb":"METAR SBSM 310300Z 12005KT 090V150 CAVOK 23/23 Q1013","temp":23,"dewp":23,"wdir":120,"wspd":5,"visib":"6+","altim":1013,"clouds":[],"obsTime":1774926000},"SBJP":{"icaoId":"SBJP","flightCategory":"VFR","rawOb":"METAR SBJP 310300Z 00000KT 9999 SCT030 26/24 Q1011","temp":26,"dewp":24,"wdir":0,"wspd":0,"visib":"6+","altim":1011,"clouds":[{"cover":"SCT","base":3000}],"obsTime":1774926000},"SBLE":{"icaoId":"SBLE","flightCategory":"VFR","rawOb":"METAR SBLE 310300Z AUTO VRB02KT 9999 FEW013 OVC047 ///// Q////","temp":null,"dewp":null,"wdir":"VRB","wspd":2,"visib":"6+","altim":null,"clouds":[{"cover":"FEW","base":1300},{"cover":"OVC","base":4700}],"obsTime":1774926000},"SBAN":{"icaoId":"SBAN","flightCategory":"VFR","rawOb":"METAR SBAN 310300Z 11005KT CAVOK 19/16 Q1019","temp":19,"dewp":16,"wdir":110,"wspd":5,"visib":"6+","altim":1019,"clouds":[],"obsTime":1774926000},"SBTA":{"icaoId":"SBTA","flightCategory":"VFR","rawOb":"METAR SBTA 310300Z 00000KT 9999 FEW010 BKN100 20/16 Q1015","temp":20,"dewp":16,"wdir":0,"wspd":0,"visib":"6+","altim":1015,"clouds":[{"cover":"FEW","base":1000},{"cover":"BKN","base":10000}],"obsTime":1774926000}}}