{"updated":1774221360,"count":73,"data":{"SBME":{"icaoId":"SBME","flightCategory":"MVFR","rawOb":"METAR SBME 222200Z 31004KT 9999 BKN013 OVC080 26/23 Q1012","temp":26,"dewp":23,"wdir":310,"wspd":4,"visib":"6+","altim":1012,"clouds":[{"cover":"BKN","base":1300},{"cover":"OVC","base":8000}],"obsTime":1774216800},"SBBE":{"icaoId":"SBBE","flightCategory":"VFR","rawOb":"METAR SBBE 222200Z 02009KT 9999 VCTS SCT030 FEW040CB 28/25 Q1009","temp":28,"dewp":25,"wdir":20,"wspd":9,"visib":"6+","altim":1009,"clouds":[{"cover":"SCT","base":3000},{"cover":"FEW","base":4000}],"obsTime":1774216800},"SBMG":{"icaoId":"SBMG","flightCategory":"VFR","rawOb":"METAR SBMG 222200Z 13013KT 9999 VCTS FEW030 FEW040CB BKN100 22/21 Q1012 RETS","temp":22,"dewp":21,"wdir":130,"wspd":13,"visib":"6+","altim":1012,"clouds":[{"cover":"FEW","base":3000},{"cover":"FEW","base":4000},{"cover":"BKN","base":10000}],"obsTime":1774216800},"SBFZ":{"icaoId":"SBFZ","flightCategory":"VFR","rawOb":"METAR SBFZ 222200Z 06005KT 9999 FEW020 28/23 Q1010","temp":28,"dewp":23,"wdir":60,"wspd":5,"visib":"6+","altim":1010,"clouds":[{"cover":"FEW","base":2000}],"obsTime":1774216800},"SBMK":{"icaoId":"SBMK","flightCategory":"VFR","rawOb":"METAR SBMK 222200Z 35002KT CAVOK 26/20 Q1012","temp":26,"dewp":20,"wdir":350,"wspd":2,"visib":"6+","altim":1012,"clouds":[],"obsTime":1774216800},"SBGL":{"icaoId":"SBGL","flightCategory":"VFR","rawOb":"METAR SBGL 222200Z 14011KT 9999 FEW033 BKN050 26/21 Q1011","temp":26,"dewp":21,"wdir":140,"wspd":11,"visib":"6+","altim":1011,"clouds":[{"cover":"FEW","base":3300},{"cover":"BKN","base":5000}],"obsTime":1774216800},"SBMO":{"icaoId":"SBMO","flightCategory":"VFR","rawOb":"METAR SBMO 222200Z 07005KT 9999 FEW020 27/24 Q1011","temp":27,"dewp":24,"wdir":70,"wspd":5,"visib":"6+","altim":1011,"clouds":[{"cover":"FEW","base":2000}],"obsTime":1774216800},"SBCT":{"icaoId":"SBCT","flightCategory":"VFR","rawOb":"METAR SBCT 222200Z COR 23006KT 200V260 9999 TS SCT025 FEW040CB SCT100 25/21 Q1016","temp":25,"dewp":21,"wdir":230,"wspd":6,"visib":"6+","altim":1016,"clouds":[{"cover":"SCT","base":2500},{"cover":"FEW","base":4000},{"cover":"SCT","base":10000}],"obsTime":1774216800},"SBMQ":{"icaoId":"SBMQ","flightCategory":"VFR","rawOb":"METAR SBMQ 222200Z 07008KT 9999 FEW018 FEW025TCU 29/25 Q1009","temp":29,"dewp":25,"wdir":70,"wspd":8,"visib":"6+","altim":1009,"clouds":[{"cover":"FEW","base":1800},{"cover":"FEW","base":2500}],"obsTime":1774216800},"SBNT":{"icaoId":"SBNT","flightCategory":"VFR","rawOb":"METAR SBNT 222200Z 09011KT 9999 FEW020 28/24 Q1010","temp":28,"dewp":24,"wdir":90,"wspd":11,"visib":"6+","altim":1010,"clouds":[{"cover":"FEW","base":2000}],"obsTime":1774216800},"SBCZ":{"icaoId":"SBCZ","flightCategory":"VFR","rawOb":"METAR SBCZ 222200Z 34003KT 9999 -RA FEW006 BKN090 23/23 Q1007","temp":23,"dewp":23,"wdir":340,"wspd":3,"visib":"6+","altim":1007,"clouds":[{"cover":"FEW","base":600},{"cover":"BKN","base":9000}],"obsTime":1774216800},"SBGO":{"icaoId":"SBGO","flightCategory":"VFR","rawOb":"METAR SBGO 222200Z 08002KT 9999 FEW048 FEW050TCU 28/21 Q1013","temp":28,"dewp":21,"wdir":80,"wspd":2,"visib":"6+","altim":1013,"clouds":[{"cover":"FEW","base":4800},{"cover":"FEW","base":5000}],"obsTime":1774216800},"SBPA":{"icaoId":"SBPA","flightCategory":"MVFR","rawOb":"METAR SBPA 222200Z 16003KT 110V230 9999 BKN019 OVC035 24/21 Q1013","temp":24,"dewp":21,"wdir":160,"wspd":3,"visib":"6+","altim":1013,"clouds":[{"cover":"BKN","base":1900},{"cover":"OVC","base":3500}],"obsTime":1774216800},"SBCF":{"icaoId":"SBCF","flightCategory":"VFR","rawOb":"METAR SBCF 222200Z 31001KT CAVOK 26/19 Q1014","temp":26,"dewp":19,"wdir":310,"wspd":1,"visib":"6+","altim":1014,"clouds":[],"obsTime":1774216800},"SBPJ":{"icaoId":"SBPJ","flightCategory":"VFR","rawOb":"METAR SBPJ 222200Z 18003KT 9999 SCT030 FEW040TCU SCT090 28/24 Q1010","temp":28,"dewp":24,"wdir":180,"wspd":3,"visib":"6+","altim":1010,"clouds":[{"cover":"SCT","base":3000},{"cover":"FEW","base":4000},{"cover":"SCT","base":9000}],"obsTime":1774216800},"SBPV":{"icaoId":"SBPV","flightCategory":"VFR","rawOb":"METAR SBPV 222200Z 35001KT CAVOK 30/24 Q1005","temp":30,"dewp":24,"wdir":350,"wspd":1,"visib":"6+","altim":1005,"clouds":[],"obsTime":1774216800},"SBGR":{"icaoId":"SBGR","flightCategory":"VFR","rawOb":"METAR SBGR 222200Z 15003KT CAVOK 25/16 Q1015","temp":25,"dewp":16,"wdir":150,"wspd":3,"visib":"6+","altim":1015,"clouds":[],"obsTime":1774216800},"SBBV":{"icaoId":"SBBV","flightCategory":"VFR","rawOb":"METAR SBBV 222200Z 10006KT 9999 FEW040 BKN070 36/19 Q1006","temp":36,"dewp":19,"wdir":100,"wspd":6,"visib":"6+","altim":1006,"clouds":[{"cover":"FEW","base":4000},{"cover":"BKN","base":7000}],"obsTime":1774216800},"SBRB":{"icaoId":"SBRB","flightCategory":"VFR","rawOb":"METAR SBRB 222200Z 00000KT 9999 FEW020 SCT100 24/23 Q1007","temp":24,"dewp":23,"wdir":0,"wspd":0,"visib":"6+","altim":1007,"clouds":[{"cover":"FEW","base":2000},{"cover":"SCT","base":10000}],"obsTime":1774216800},"SBRF":{"icaoId":"SBRF","flightCategory":"VFR","rawOb":"METAR SBRF 222200Z 08007KT 9999 SCT021 29/24 Q1010","temp":29,"dewp":24,"wdir":80,"wspd":7,"visib":"6+","altim":1010,"clouds":[{"cover":"SCT","base":2100}],"obsTime":1774216800},"SBIL":{"icaoId":"SBIL","flightCategory":"VFR","rawOb":"METAR SBIL 222200Z 08008KT 9999 VCSH SCT020 FEW025TCU SCT070 29/25 Q1010","temp":29,"dewp":25,"wdir":80,"wspd":8,"visib":"6+","altim":1010,"clouds":[{"cover":"SCT","base":2000},{"cover":"FEW","base":2500},{"cover":"SCT","base":7000}],"obsTime":1774216800},"SBSG":{"icaoId":"SBSG","flightCategory":"VFR","rawOb":"METAR SBSG 222200Z 09013KT 9999 FEW030 28/24 Q1011","temp":28,"dewp":24,"wdir":90,"wspd":13,"visib":"6+","altim":1011,"clouds":[{"cover":"FEW","base":3000}],"obsTime":1774216800},"SBEG":{"icaoId":"SBEG","flightCategory":"VFR","rawOb":"METAR SBEG 222200Z 02002KT 9999 FEW030 32/25 Q1006","temp":32,"dewp":25,"wdir":20,"wspd":2,"visib":"6+","altim":1006,"clouds":[{"cover":"FEW","base":3000}],"obsTime":1774216800},"SBJU":{"icaoId":"SBJU","flightCategory":"MVFR","rawOb":"METAR SBJU 222200Z 00000KT 9999 BKN020 FEW020TCU 28/24 Q1012","temp":28,"dewp":24,"wdir":0,"wspd":0,"visib":"6+","altim":1012,"clouds":[{"cover":"BKN","base":2000},{"cover":"FEW","base":2000}],"obsTime":1774216800},"SBSL":{"icaoId":"SBSL","flightCategory":"VFR","rawOb":"METAR SBSL 222200Z 06006KT CAVOK 27/25 Q1009","temp":27,"dewp":25,"wdir":60,"wspd":6,"visib":"6+","altim":1009,"clouds":[],"obsTime":1774216800},"SBFI":{"icaoId":"SBFI","flightCategory":"VFR","rawOb":"METAR SBFI 222200Z 15011KT 9999 TS VCSH SCT030 FEW040CB BKN070 27/25 Q1010","temp":27,"dewp":25,"wdir":150,"wspd":11,"visib":"6+","altim":1010,"clouds":[{"cover":"SCT","base":3000},{"cover":"FEW","base":4000},{"cover":"BKN","base":7000}],"obsTime":1774216800},"SBSN":{"icaoId":"SBSN","flightCategory":"VFR","rawOb":"METAR SBSN 222200Z 09004KT CAVOK 29/24 Q1007","temp":29,"dewp":24,"wdir":90,"wspd":4,"visib":"6+","altim":1007,"clouds":[],"obsTime":1774216800},"SBKP":{"icaoId":"SBKP","flightCategory":"VFR","rawOb":"METAR SBKP 222200Z 19003KT 9999 SCT048 30/18 Q1013","temp":30,"dewp":18,"wdir":190,"wspd":3,"visib":"6+","altim":1013,"clouds":[{"cover":"SCT","base":4800}],"obsTime":1774216800},"SBSP":{"icaoId":"SBSP","flightCategory":"VFR","rawOb":"METAR SBSP 222200Z 14005KT CAVOK 23/17 Q1016","temp":23,"dewp":17,"wdir":140,"wspd":5,"visib":"6+","altim":1016,"clouds":[],"obsTime":1774216800},"SBCG":{"icaoId":"SBCG","flightCategory":"VFR","rawOb":"METAR SBCG 222200Z 22003KT 190V260 9999 SCT040 FEW050TCU BKN080 26/21 Q1011","temp":26,"dewp":21,"wdir":220,"wspd":3,"visib":"6+","altim":1011,"clouds":[{"cover":"SCT","base":4000},{"cover":"FEW","base":5000},{"cover":"BKN","base":8000}],"obsTime":1774216800},"SBSV":{"icaoId":"SBSV","flightCategory":"VFR","rawOb":"METAR SBSV 222200Z 06011KT CAVOK 28/22 Q1010","temp":28,"dewp":22,"wdir":60,"wspd":11,"visib":"6+","altim":1010,"clouds":[],"obsTime":1774216800},"SBLO":{"icaoId":"SBLO","flightCategory":"VFR","rawOb":"METAR SBLO 222200Z 21008KT 180V280 9999 TS FEW040 FEW050CB SCT100 25/21 Q1012","temp":25,"dewp":21,"wdir":210,"wspd":8,"visib":"6+","altim":1012,"clouds":[{"cover":"FEW","base":4000},{"cover":"FEW","base":5000},{"cover":"SCT","base":10000}],"obsTime":1774216800},"SBTE":{"icaoId":"SBTE","flightCategory":"VFR","rawOb":"METAR SBTE 222200Z 34003KT 9999 VCTS FEW030CB 30/26 Q1008","temp":30,"dewp":26,"wdir":340,"wspd":3,"visib":"6+","altim":1008,"clouds":[{"cover":"FEW","base":3000}],"obsTime":1774216800},"SBFL":{"icaoId":"SBFL","flightCategory":"VFR","rawOb":"METAR SBFL 222200Z VRB03KT CAVOK 26/22 Q1012","temp":26,"dewp":22,"wdir":"VRB","wspd":3,"visib":"6+","altim":1012,"clouds":[],"obsTime":1774216800},"SBUL":{"icaoId":"SBUL","flightCategory":"VFR","rawOb":"METAR SBUL 222200Z 21007KT 9999 SCT030 25/15 Q1015","temp":25,"dewp":15,"wdir":210,"wspd":7,"visib":"6+","altim":1015,"clouds":[{"cover":"SCT","base":3000}],"obsTime":1774216800},"SBMA":{"icaoId":"SBMA","flightCategory":"VFR","rawOb":"METAR SBMA 222200Z 00000KT 9999 FEW023 29/24 Q1008","temp":29,"dewp":24,"wdir":0,"wspd":0,"visib":"6+","altim":1008,"clouds":[{"cover":"FEW","base":2300}],"obsTime":1774216800},"SBUR":{"icaoId":"SBUR","flightCategory":"VFR","rawOb":"METAR SBUR 222200Z 12003KT CAVOK 28/13 Q1014","temp":28,"dewp":13,"wdir":120,"wspd":3,"visib":"6+","altim":1014,"clouds":[],"obsTime":1774216800},"SBBR":{"icaoId":"SBBR","flightCategory":"VFR","rawOb":"METAR SBBR 222200Z 06006KT 030V090 9999 VCTS SCT035 FEW045CB 23/20 Q1015","temp":23,"dewp":20,"wdir":60,"wspd":6,"visib":"6+","altim":1015,"clouds":[{"cover":"SCT","base":3500},{"cover":"FEW","base":4500}],"obsTime":1774216800},"SBVT":{"icaoId":"SBVT","flightCategory":"VFR","rawOb":"METAR SBVT 222200Z 19006KT 9999 FEW020 BKN100 26/23 Q1011","temp":26,"dewp":23,"wdir":190,"wspd":6,"visib":"6+","altim":1011,"clouds":[{"cover":"FEW","base":2000},{"cover":"BKN","base":10000}],"obsTime":1774216800},"SBCP":{"icaoId":"SBCP","flightCategory":"VFR","rawOb":"METAR SBCP 222200Z 16004KT 9999 SCT025 BKN080 25/23 Q1012","temp":25,"dewp":23,"wdir":160,"wspd":4,"visib":"6+","altim":1012,"clouds":[{"cover":"SCT","base":2500},{"cover":"BKN","base":8000}],"obsTime":1774216800},"SBPS":{"icaoId":"SBPS","flightCategory":"VFR","rawOb":"METAR SBPS 222200Z 13003KT 9999 SCT020 FEW025TCU BKN100 26/25 Q1011","temp":26,"dewp":25,"wdir":130,"wspd":3,"visib":"6+","altim":1011,"clouds":[{"cover":"SCT","base":2000},{"cover":"FEW","base":2500},{"cover":"BKN","base":10000}],"obsTime":1774216800},"SBAR":{"icaoId":"SBAR","flightCategory":"VFR","rawOb":"METAR SBAR 222200Z 10011KT CAVOK 28/23 Q1010","temp":28,"dewp":23,"wdir":100,"wspd":11,"visib":"6+","altim":1010,"clouds":[],"obsTime":1774216800},"SBAX":{"icaoId":"SBAX","flightCategory":"VFR","rawOb":"METAR SBAX 222200Z AUTO 18006KT CAVOK 25/13 Q1015","temp":25,"dewp":13,"wdir":180,"wspd":6,"visib":"6+","altim":1015,"clouds":[],"obsTime":1774216800},"SBBH":{"icaoId":"SBBH","flightCategory":"VFR","rawOb":"METAR SBBH 222200Z 00000KT 9999 FEW045 24/21 Q1013","temp":24,"dewp":21,"wdir":0,"wspd":0,"visib":"6+","altim":1013,"clouds":[{"cover":"FEW","base":4500}],"obsTime":1774216800},"SBBU":{"icaoId":"SBBU","flightCategory":"VFR","rawOb":"METAR SBBU 222200Z 04002KT CAVOK 31/20 Q1012","temp":31,"dewp":20,"wdir":40,"wspd":2,"visib":"6+","altim":1012,"clouds":[],"obsTime":1774216800},"SBCO":{"icaoId":"SBCO","flightCategory":"MVFR","rawOb":"METAR SBCO 222200Z 13003KT 9999 BKN020 OVC070 23/21 Q1013","temp":23,"dewp":21,"wdir":130,"wspd":3,"visib":"6+","altim":1013,"clouds":[{"cover":"BKN","base":2000},{"cover":"OVC","base":7000}],"obsTime":1774216800},"SBDN":{"icaoId":"SBDN","flightCategory":"VFR","rawOb":"METAR SBDN 222200Z 20003KT CAVOK 31/21 Q1011","temp":31,"dewp":21,"wdir":200,"wspd":3,"visib":"6+","altim":1011,"clouds":[],"obsTime":1774216800},"SBIP":{"icaoId":"SBIP","flightCategory":"VFR","rawOb":"METAR SBIP 222200Z AUTO VRB01KT CAVOK 24/23 Q1010","temp":24,"dewp":23,"wdir":"VRB","wspd":1,"visib":"6+","altim":1010,"clouds":[],"obsTime":1774216800},"SBKG":{"icaoId":"SBKG","flightCategory":"MVFR","rawOb":"METAR SBKG 222200Z 08011KT 9999 BKN015 25/22 Q1013 RETS","temp":25,"dewp":22,"wdir":80,"wspd":11,"visib":"6+","altim":1013,"clouds":[{"cover":"BKN","base":1500}],"obsTime":1774216800},"SBOI":{"icaoId":"SBOI","flightCategory":"VFR","rawOb":"METAR SBOI 222200Z AUTO 11003KT 070V160 CAVOK 28/24 Q1010","temp":28,"dewp":24,"wdir":110,"wspd":3,"visib":"6+","altim":1010,"clouds":[],"obsTime":1774216800},"SBPL":{"icaoId":"SBPL","flightCategory":"VFR","rawOb":"METAR SBPL 222200Z 32002KT CAVOK 30/21 Q1010","temp":30,"dewp":21,"wdir":320,"wspd":2,"visib":"6+","altim":1010,"clouds":[],"obsTime":1774216800},"SBSC":{"icaoId":"SBSC","flightCategory":"VFR","rawOb":"METAR SBSC 222200Z 17008KT 9999 FEW040 SCT060 26/22 Q1012","temp":26,"dewp":22,"wdir":170,"wspd":8,"visib":"6+","altim":1012,"clouds":[{"cover":"FEW","base":4000},{"cover":"SCT","base":6000}],"obsTime":1774216800},"SBSJ":{"icaoId":"SBSJ","flightCategory":"VFR","rawOb":"METAR SBSJ 222200Z 15008KT CAVOK 25/// Q1014","temp":null,"dewp":null,"wdir":150,"wspd":8,"visib":"6+","altim":1014,"clouds":[],"obsTime":1774216800},"SBSM":{"icaoId":"SBSM","flightCategory":"IFR","rawOb":"METAR SBSM 222200Z 11005KT 060V160 9999 OVC008 23/21 Q1012","temp":23,"dewp":21,"wdir":110,"wspd":5,"visib":"6+","altim":1012,"clouds":[{"cover":"OVC","base":800}],"obsTime":1774216800},"SBSR":{"icaoId":"SBSR","flightCategory":"VFR","rawOb":"METAR SBSR 222200Z 21004KT CAVOK 31/16 Q1012","temp":31,"dewp":16,"wdir":210,"wspd":4,"visib":"6+","altim":1012,"clouds":[],"obsTime":1774216800},"SBTT":{"icaoId":"SBTT","flightCategory":"VFR","rawOb":"METAR SBTT 222200Z 11004KT 9999 FEW025 33/22 Q1004","temp":33,"dewp":22,"wdir":110,"wspd":4,"visib":"6+","altim":1004,"clouds":[{"cover":"FEW","base":2500}],"obsTime":1774216800},"SBVH":{"icaoId":"SBVH","flightCategory":"VFR","rawOb":"METAR SBVH 222200Z 28002KT 9999 FEW030 BKN089 25/23 Q1011","temp":25,"dewp":23,"wdir":280,"wspd":2,"visib":"6+","altim":1011,"clouds":[{"cover":"FEW","base":3000},{"cover":"BKN","base":8900}],"obsTime":1774216800},"SBTF":{"icaoId":"SBTF","flightCategory":"VFR","rawOb":"METAR SBTF 222200Z 12003KT CAVOK 34/26 Q1005","temp":34,"dewp":26,"wdir":120,"wspd":3,"visib":"6+","altim":1005,"clouds":[],"obsTime":1774216800},"SBUY":{"icaoId":"SBUY","flightCategory":"VFR","rawOb":"METAR SBUY 222200Z 03001KT 9999 FEW035TCU 31/25 Q1004","temp":31,"dewp":25,"wdir":30,"wspd":1,"visib":"6+","altim":1004,"clouds":[{"cover":"FEW","base":3500}],"obsTime":1774216800},"SBCA":{"icaoId":"SBCA","flightCategory":"VFR","rawOb":"METAR SBCA 222200Z 07010KT 9999 VCSH VCTS FEW030 FEW030CB SCT070 22/21 Q1015","temp":22,"dewp":21,"wdir":70,"wspd":10,"visib":"6+","altim":1015,"clouds":[{"cover":"FEW","base":3000},{"cover":"FEW","base":3000},{"cover":"SCT","base":7000}],"obsTime":1774216800},"SBPB":{"icaoId":"SBPB","flightCategory":"VFR","rawOb":"SPECI SBPB 222145Z 07006KT 9999 SCT016 BKN090 28/25 Q1009","temp":28,"dewp":25,"wdir":70,"wspd":6,"visib":"6+","altim":1009,"clouds":[{"cover":"SCT","base":1600},{"cover":"BKN","base":9000}],"obsTime":1774215900},"SBCJ":{"icaoId":"SBCJ","flightCategory":"VFR","rawOb":"SPECI SBCJ 222130Z 00000KT CAVOK 24/22 Q1013","temp":24,"dewp":22,"wdir":0,"wspd":0,"visib":"6+","altim":1013,"clouds":[],"obsTime":1774215000},"SBPF":{"icaoId":"SBPF","flightCategory":"MVFR","rawOb":"METAR SBPF 222200Z 12008KT 9999 -RA BKN010 BKN020 21/19 Q1014 RETSRA","temp":21,"dewp":19,"wdir":120,"wspd":8,"visib":"6+","altim":1014,"clouds":[{"cover":"BKN","base":1000},{"cover":"BKN","base":2000}],"obsTime":1774216800},"SBAF":{"icaoId":"SBAF","flightCategory":"VFR","rawOb":"METAR SBAF 222200Z 19004KT 160V290 9999 FEW025 SCT050 26/24 Q1012","temp":26,"dewp":24,"wdir":190,"wspd":4,"visib":"6+","altim":1012,"clouds":[{"cover":"FEW","base":2500},{"cover":"SCT","base":5000}],"obsTime":1774216800},"SBAN":{"icaoId":"SBAN","flightCategory":"VFR","rawOb":"METAR SBAN 222200Z 02003KT 9999 VCTS SCT040 FEW045CB 22/19 Q1016","temp":22,"dewp":19,"wdir":20,"wspd":3,"visib":"6+","altim":1016,"clouds":[{"cover":"SCT","base":4000},{"cover":"FEW","base":4500}],"obsTime":1774216800},"SBIH":{"icaoId":"SBIH","flightCategory":"VFR","rawOb":"METAR SBIH 222200Z 30006KT 9999 FEW020 SCT080 29/23 Q1007","temp":29,"dewp":23,"wdir":300,"wspd":6,"visib":"6+","altim":1007,"clouds":[{"cover":"FEW","base":2000},{"cover":"SCT","base":8000}],"obsTime":1774216800},"SBJP":{"icaoId":"SBJP","flightCategory":"VFR","rawOb":"METAR SBJP 222200Z 07006KT 9999 FEW040 28/24 Q1011","temp":28,"dewp":24,"wdir":70,"wspd":6,"visib":"6+","altim":1011,"clouds":[{"cover":"FEW","base":4000}],"obsTime":1774216800},"SBJR":{"icaoId":"SBJR","flightCategory":"VFR","rawOb":"METAR SBJR 222200Z 13007KT 9999 SCT040 27/22 Q1011","temp":27,"dewp":22,"wdir":130,"wspd":7,"visib":"6+","altim":1011,"clouds":[{"cover":"SCT","base":4000}],"obsTime":1774216800},"SBJV":{"icaoId":"SBJV","flightCategory":"VFR","rawOb":"METAR SBJV 222200Z 17005KT 9999 -RA SCT013 BKN040 26/25 Q1012","temp":26,"dewp":25,"wdir":170,"wspd":5,"visib":"6+","altim":1012,"clouds":[{"cover":"SCT","base":1300},{"cover":"BKN","base":4000}],"obsTime":1774216800},"SBLE":{"icaoId":"SBLE","flightCategory":"VFR","rawOb":"METAR SBLE 222200Z AUTO 04004KT 9999 SCT046 26/24 Q1012","temp":26,"dewp":24,"wdir":40,"wspd":4,"visib":"6+","altim":1012,"clouds":[{"cover":"SCT","base":4600}],"obsTime":1774216800},"SBLS":{"icaoId":"SBLS","flightCategory":"VFR","rawOb":"METAR SBLS 222200Z 35002KT 9999 FEW048 25/19 Q1013","temp":25,"dewp":19,"wdir":350,"wspd":2,"visib":"6+","altim":1013,"clouds":[{"cover":"FEW","base":4800}],"obsTime":1774216800},"SBMT":{"icaoId":"SBMT","flightCategory":"VFR","rawOb":"METAR SBMT 222200Z 15004KT CAVOK 24/16 Q1015","temp":24,"dewp":16,"wdir":150,"wspd":4,"visib":"6+","altim":1015,"clouds":[],"obsTime":1774216800},"SBGW":{"icaoId":"SBGW","flightCategory":"VFR","rawOb":"METAR SBGW 222200Z 22004KT 9999 FEW030 24/14 Q1013","temp":24,"dewp":14,"wdir":220,"wspd":4,"visib":"6+","altim":1013,"clouds":[{"cover":"FEW","base":3000}],"obsTime":1774216800}}}