{"updated":1775475534,"count":83,"data":{"SBFL":{"icaoId":"SBFL","flightCategory":"VFR","rawOb":"METAR SBFL 061000Z 20006KT 9999 -RA SCT025 OVC043 22/21 Q1019","temp":22,"dewp":21,"wdir":200,"wspd":6,"visib":"6+","altim":1019,"clouds":[{"cover":"SCT","base":2500},{"cover":"OVC","base":4300}],"obsTime":1775469600},"SBSV":{"icaoId":"SBSV","flightCategory":"VFR","rawOb":"METAR SBSV 061000Z 29004KT 9999 VCSH SCT018 SCT050 25/24 Q1015","temp":25,"dewp":24,"wdir":290,"wspd":4,"visib":"6+","altim":1015,"clouds":[{"cover":"SCT","base":1800},{"cover":"SCT","base":5000}],"obsTime":1775469600},"SBPV":{"icaoId":"SBPV","flightCategory":"VFR","rawOb":"METAR SBPV 061000Z 00000KT 9999 SCT010 24/23 Q1010","temp":24,"dewp":23,"wdir":0,"wspd":0,"visib":"6+","altim":1010,"clouds":[{"cover":"SCT","base":1000}],"obsTime":1775469600},"SBBV":{"icaoId":"SBBV","flightCategory":"VFR","rawOb":"METAR SBBV 061000Z 12005KT CAVOK 25/23 Q1011","temp":25,"dewp":23,"wdir":120,"wspd":5,"visib":"6+","altim":1011,"clouds":[],"obsTime":1775469600},"SBCB":{"icaoId":"SBCB","flightCategory":"VFR","rawOb":"METAR SBCB 061000Z 01003KT 9999 FEW010 SCT035 24/23 Q1017","temp":24,"dewp":23,"wdir":10,"wspd":3,"visib":"6+","altim":1017,"clouds":[{"cover":"FEW","base":1000},{"cover":"SCT","base":3500}],"obsTime":1775469600},"SBVT":{"icaoId":"SBVT","flightCategory":"VFR","rawOb":"METAR SBVT 061000Z 32003KT 9999 FEW025 23/22 Q1017","temp":23,"dewp":22,"wdir":320,"wspd":3,"visib":"6+","altim":1017,"clouds":[{"cover":"FEW","base":2500}],"obsTime":1775469600},"SBBE":{"icaoId":"SBBE","flightCategory":"LIFR","rawOb":"METAR SBBE 061000Z 14004KT 0400 R07/0900D FG BKN002 OVC005 24/24 Q1012","temp":24,"dewp":24,"wdir":140,"wspd":4,"visib":0.25,"altim":1012,"clouds":[{"cover":"BKN","base":200},{"cover":"OVC","base":500}],"obsTime":1775469600},"SBBR":{"icaoId":"SBBR","flightCategory":"VFR","rawOb":"METAR SBBR 061000Z VRB02KT 9999 FEW025 SCT100 20/18 Q1019","temp":20,"dewp":18,"wdir":"VRB","wspd":2,"visib":"6+","altim":1019,"clouds":[{"cover":"FEW","base":2500},{"cover":"SCT","base":10000}],"obsTime":1775469600},"SBCF":{"icaoId":"SBCF","flightCategory":"VFR","rawOb":"METAR SBCF 061000Z 12009KT CAVOK 21/19 Q1021","temp":21,"dewp":19,"wdir":120,"wspd":9,"visib":"6+","altim":1021,"clouds":[],"obsTime":1775469600},"SBCG":{"icaoId":"SBCG","flightCategory":"VFR","rawOb":"METAR SBCG 061000Z 06004KT CAVOK 20/19 Q1015","temp":20,"dewp":19,"wdir":60,"wspd":4,"visib":"6+","altim":1015,"clouds":[],"obsTime":1775469600},"SBCP":{"icaoId":"SBCP","flightCategory":"VFR","rawOb":"METAR SBCP 061000Z /////KT CAVOK ///// Q1017","temp":null,"dewp":null,"wdir":null,"wspd":null,"visib":"6+","altim":1017,"clouds":[],"obsTime":1775469600},"SBCR":{"icaoId":"SBCR","flightCategory":"VFR","rawOb":"METAR SBCR 061100Z 10003KT CAVOK 25/22 Q1012","temp":25,"dewp":22,"wdir":100,"wspd":3,"visib":"6+","altim":1012,"clouds":[],"obsTime":1775473200},"SBCT":{"icaoId":"SBCT","flightCategory":"LIFR","rawOb":"METAR SBCT 061000Z 10003KT 9999 BKN004 BKN025 18/18 Q1022","temp":18,"dewp":18,"wdir":100,"wspd":3,"visib":"6+","altim":1022,"clouds":[{"cover":"BKN","base":400},{"cover":"BKN","base":2500}],"obsTime":1775469600},"SBEG":{"icaoId":"SBEG","flightCategory":"VFR","rawOb":"METAR SBEG 061000Z 07004KT CAVOK 25/24 Q1011","temp":25,"dewp":24,"wdir":70,"wspd":4,"visib":"6+","altim":1011,"clouds":[],"obsTime":1775469600},"SBFI":{"icaoId":"SBFI","flightCategory":"VFR","rawOb":"METAR SBFI 061000Z 07006KT CAVOK 23/21 Q1013","temp":23,"dewp":21,"wdir":70,"wspd":6,"visib":"6+","altim":1013,"clouds":[],"obsTime":1775469600},"SBFZ":{"icaoId":"SBFZ","flightCategory":"MVFR","rawOb":"METAR SBFZ 061000Z 18003KT 9999 BKN020 FEW025TCU BKN080 25/24 Q1012","temp":25,"dewp":24,"wdir":180,"wspd":3,"visib":"6+","altim":1012,"clouds":[{"cover":"BKN","base":2000},{"cover":"FEW","base":2500},{"cover":"BKN","base":8000}],"obsTime":1775469600},"SBGL":{"icaoId":"SBGL","flightCategory":"VFR","rawOb":"METAR SBGL 061000Z 36004KT 340V040 9999 4000SW FEW005 SCT013 24/22 Q1016","temp":24,"dewp":22,"wdir":360,"wspd":4,"visib":"6+","altim":1016,"clouds":[{"cover":"FEW","base":500},{"cover":"SCT","base":1300}],"obsTime":1775469600},"SBGO":{"icaoId":"SBGO","flightCategory":"VFR","rawOb":"METAR SBGO 061000Z 13006KT CAVOK 22/20 Q1018","temp":22,"dewp":20,"wdir":130,"wspd":6,"visib":"6+","altim":1018,"clouds":[],"obsTime":1775469600},"SBGR":{"icaoId":"SBGR","flightCategory":"IFR","rawOb":"METAR SBGR 061000Z 05006KT 6000 OVC006 20/19 Q1020","temp":20,"dewp":19,"wdir":50,"wspd":6,"visib":3.73,"altim":1020,"clouds":[{"cover":"OVC","base":600}],"obsTime":1775469600},"SBHT":{"icaoId":"SBHT","flightCategory":"VFR","rawOb":"METAR SBHT 061000Z 00000KT 9999 FEW010 BKN080 24/23 Q1012","temp":24,"dewp":23,"wdir":0,"wspd":0,"visib":"6+","altim":1012,"clouds":[{"cover":"FEW","base":1000},{"cover":"BKN","base":8000}],"obsTime":1775469600},"SBIL":{"icaoId":"SBIL","flightCategory":"VFR","rawOb":"METAR SBIL 061000Z 30006KT 9999 SCT020 24/24 Q1015","temp":24,"dewp":24,"wdir":300,"wspd":6,"visib":"6+","altim":1015,"clouds":[{"cover":"SCT","base":2000}],"obsTime":1775469600},"SBJU":{"icaoId":"SBJU","flightCategory":"MVFR","rawOb":"METAR SBJU 061000Z 00000KT 9999 BKN020 24/22 Q1016","temp":24,"dewp":22,"wdir":0,"wspd":0,"visib":"6+","altim":1016,"clouds":[{"cover":"BKN","base":2000}],"obsTime":1775469600},"SBKP":{"icaoId":"SBKP","flightCategory":"VFR","rawOb":"METAR SBKP 061000Z 11006KT CAVOK 21/18 Q1019","temp":21,"dewp":18,"wdir":110,"wspd":6,"visib":"6+","altim":1019,"clouds":[],"obsTime":1775469600},"SBLO":{"icaoId":"SBLO","flightCategory":"VFR","rawOb":"METAR SBLO 061000Z 08004KT CAVOK 21/19 Q1018","temp":21,"dewp":19,"wdir":80,"wspd":4,"visib":"6+","altim":1018,"clouds":[],"obsTime":1775469600},"SBMA":{"icaoId":"SBMA","flightCategory":"VFR","rawOb":"METAR SBMA 061000Z 27002KT 9999 FEW010 BKN100 25/24 Q1012","temp":25,"dewp":24,"wdir":270,"wspd":2,"visib":"6+","altim":1012,"clouds":[{"cover":"FEW","base":1000},{"cover":"BKN","base":10000}],"obsTime":1775469600},"SBME":{"icaoId":"SBME","flightCategory":"VFR","rawOb":"METAR SBME 061000Z 34002KT CAVOK 23/22 Q1017","temp":23,"dewp":22,"wdir":340,"wspd":2,"visib":"6+","altim":1017,"clouds":[],"obsTime":1775469600},"SBMG":{"icaoId":"SBMG","flightCategory":"VFR","rawOb":"METAR SBMG 061000Z 06004KT 030V090 9999 FEW040 22/19 Q1017","temp":22,"dewp":19,"wdir":60,"wspd":4,"visib":"6+","altim":1017,"clouds":[{"cover":"FEW","base":4000}],"obsTime":1775469600},"SBMK":{"icaoId":"SBMK","flightCategory":"VFR","rawOb":"METAR SBMK 061000Z 00000KT 9999 FEW040 23/20 Q1019","temp":23,"dewp":20,"wdir":0,"wspd":0,"visib":"6+","altim":1019,"clouds":[{"cover":"FEW","base":4000}],"obsTime":1775469600},"SBMO":{"icaoId":"SBMO","flightCategory":"MVFR","rawOb":"METAR SBMO 061000Z 33005KT 9999 VCSH FEW005 BKN023 24/24 Q1015","temp":24,"dewp":24,"wdir":330,"wspd":5,"visib":"6+","altim":1015,"clouds":[{"cover":"FEW","base":500},{"cover":"BKN","base":2300}],"obsTime":1775469600},"SBMQ":{"icaoId":"SBMQ","flightCategory":"MVFR","rawOb":"METAR SBMQ 061000Z 30002KT 9999 BKN030 25/25 Q1012","temp":25,"dewp":25,"wdir":300,"wspd":2,"visib":"6+","altim":1012,"clouds":[{"cover":"BKN","base":3000}],"obsTime":1775469600},"SBNT":{"icaoId":"SBNT","flightCategory":"VFR","rawOb":"METAR SBNT 061000Z 19005KT 9999 SCT026 FEW030TCU BKN036 BKN100 25/24 Q1013","temp":25,"dewp":24,"wdir":190,"wspd":5,"visib":"6+","altim":1013,"clouds":[{"cover":"SCT","base":2600},{"cover":"FEW","base":3000},{"cover":"BKN","base":3600},{"cover":"BKN","base":10000}],"obsTime":1775469600},"SBPA":{"icaoId":"SBPA","flightCategory":"VFR","rawOb":"METAR SBPA 061000Z 10009KT 9999 FEW040 SCT090 21/18 Q1018","temp":21,"dewp":18,"wdir":100,"wspd":9,"visib":"6+","altim":1018,"clouds":[{"cover":"FEW","base":4000},{"cover":"SCT","base":9000}],"obsTime":1775469600},"SBPJ":{"icaoId":"SBPJ","flightCategory":"VFR","rawOb":"METAR SBPJ 061000Z 14003KT 9999 -RA FEW017 FEW033TCU BKN080 24/23 Q1014 RETS","temp":24,"dewp":23,"wdir":140,"wspd":3,"visib":"6+","altim":1014,"clouds":[{"cover":"FEW","base":1700},{"cover":"FEW","base":3300},{"cover":"BKN","base":8000}],"obsTime":1775469600},"SBRB":{"icaoId":"SBRB","flightCategory":"VFR","rawOb":"METAR SBRB 061000Z 12005KT 9000 SCT003 SCT008 23/23 Q1011","temp":23,"dewp":23,"wdir":120,"wspd":5,"visib":5.59,"altim":1011,"clouds":[{"cover":"SCT","base":300},{"cover":"SCT","base":800}],"obsTime":1775469600},"SBRF":{"icaoId":"SBRF","flightCategory":"VFR","rawOb":"METAR SBRF 061000Z VRB02KT 9999 SCT017 26/24 Q1014","temp":26,"dewp":24,"wdir":"VRB","wspd":2,"visib":"6+","altim":1014,"clouds":[{"cover":"SCT","base":1700}],"obsTime":1775469600},"SBSG":{"icaoId":"SBSG","flightCategory":"MVFR","rawOb":"METAR SBSG 061000Z 19003KT 160V230 9999 BKN023 25/24 Q1013","temp":25,"dewp":24,"wdir":190,"wspd":3,"visib":"6+","altim":1013,"clouds":[{"cover":"BKN","base":2300}],"obsTime":1775469600},"SBSL":{"icaoId":"SBSL","flightCategory":"VFR","rawOb":"METAR SBSL 061000Z 14004KT 9999 FEW005 BKN100 24/23 Q1012","temp":24,"dewp":23,"wdir":140,"wspd":4,"visib":"6+","altim":1012,"clouds":[{"cover":"FEW","base":500},{"cover":"BKN","base":10000}],"obsTime":1775469600},"SBSN":{"icaoId":"SBSN","flightCategory":"MVFR","rawOb":"METAR SBSN 061000Z 13004KT 9999 BKN015 SCT100 25/24 Q1011","temp":25,"dewp":24,"wdir":130,"wspd":4,"visib":"6+","altim":1011,"clouds":[{"cover":"BKN","base":1500},{"cover":"SCT","base":10000}],"obsTime":1775469600},"SBSP":{"icaoId":"SBSP","flightCategory":"VFR","rawOb":"METAR SBSP 061000Z 09003KT 040V160 CAVOK 21/18 Q1021","temp":21,"dewp":18,"wdir":90,"wspd":3,"visib":"6+","altim":1021,"clouds":[],"obsTime":1775469600},"SBTE":{"icaoId":"SBTE","flightCategory":"VFR","rawOb":"METAR SBTE 061000Z 34005KT 9999 SCT015 BKN090 25/24 Q1013","temp":25,"dewp":24,"wdir":340,"wspd":5,"visib":"6+","altim":1013,"clouds":[{"cover":"SCT","base":1500},{"cover":"BKN","base":9000}],"obsTime":1775469600},"SBUL":{"icaoId":"SBUL","flightCategory":"VFR","rawOb":"METAR SBUL 061000Z 13006KT 9999 FEW040 21/18 Q1020","temp":21,"dewp":18,"wdir":130,"wspd":6,"visib":"6+","altim":1020,"clouds":[{"cover":"FEW","base":4000}],"obsTime":1775469600},"SBUR":{"icaoId":"SBUR","flightCategory":"VFR","rawOb":"METAR SBUR 061000Z 18002KT CAVOK 21/18 Q1019","temp":21,"dewp":18,"wdir":180,"wspd":2,"visib":"6+","altim":1019,"clouds":[],"obsTime":1775469600},"SBAT":{"icaoId":"SBAT","flightCategory":"VFR","rawOb":"METAR SBAT 061100Z 00000KT CAVOK 24/24 Q1014","temp":24,"dewp":24,"wdir":0,"wspd":0,"visib":"6+","altim":1014,"clouds":[],"obsTime":1775473200},"SBSJ":{"icaoId":"SBSJ","flightCategory":"IFR","rawOb":"METAR SBSJ 061000Z VRB02KT 5000 BR BKN007 20/19 Q1020","temp":20,"dewp":19,"wdir":"VRB","wspd":2,"visib":3.11,"altim":1020,"clouds":[{"cover":"BKN","base":700}],"obsTime":1775469600},"SBTF":{"icaoId":"SBTF","flightCategory":"VFR","rawOb":"SPECI SBTF 061115Z 17002KT CAVOK 25/25 Q1011","temp":25,"dewp":25,"wdir":170,"wspd":2,"visib":"6+","altim":1011,"clouds":[],"obsTime":1775474100},"SBPP":{"icaoId":"SBPP","flightCategory":"VFR","rawOb":"SPECI SBPP 061115Z 35006KT CAVOK 24/20 Q1016","temp":24,"dewp":20,"wdir":350,"wspd":6,"visib":"6+","altim":1016,"clouds":[],"obsTime":1775474100},"SBBH":{"icaoId":"SBBH","flightCategory":"VFR","rawOb":"METAR SBBH 061000Z 09004KT CAVOK 22/19 Q1020","temp":22,"dewp":19,"wdir":90,"wspd":4,"visib":"6+","altim":1020,"clouds":[],"obsTime":1775469600},"SBBQ":{"icaoId":"SBBQ","flightCategory":"IFR","rawOb":"METAR SBBQ 061100Z 11004KT 5000 BR BKN007 19/18 Q1024","temp":19,"dewp":18,"wdir":110,"wspd":4,"visib":3.11,"altim":1024,"clouds":[{"cover":"BKN","base":700}],"obsTime":1775473200},"SBBU":{"icaoId":"SBBU","flightCategory":"VFR","rawOb":"METAR SBBU 061000Z 09005KT CAVOK 22/20 Q1018","temp":22,"dewp":20,"wdir":90,"wspd":5,"visib":"6+","altim":1018,"clouds":[],"obsTime":1775469600},"SBCA":{"icaoId":"SBCA","flightCategory":"VFR","rawOb":"METAR SBCA 061100Z 07010G20KT 9999 FEW030 22/19 Q1019","temp":22,"dewp":19,"wdir":70,"wspd":10,"visib":"6+","altim":1019,"clouds":[{"cover":"FEW","base":3000}],"obsTime":1775473200},"SBCC":{"icaoId":"SBCC","flightCategory":"VFR","rawOb":"METAR SBCC 061100Z 05004KT 9999 FEW020 BKN100 21/20 Q1015","temp":21,"dewp":20,"wdir":50,"wspd":4,"visib":"6+","altim":1015,"clouds":[{"cover":"FEW","base":2000},{"cover":"BKN","base":10000}],"obsTime":1775473200},"SBCJ":{"icaoId":"SBCJ","flightCategory":"LIFR","rawOb":"SPECI SBCJ 061015Z 12004KT 0800 FG BKN001 21/21 Q1017","temp":21,"dewp":21,"wdir":120,"wspd":4,"visib":0.5,"altim":1017,"clouds":[{"cover":"BKN","base":100}],"obsTime":1775470500},"SBAR":{"icaoId":"SBAR","flightCategory":"VFR","rawOb":"METAR SBAR 061000Z 30003KT 250V340 9999 VCSH FEW015 SCT020 FEW023TCU BKN050 25/24 Q1014","temp":25,"dewp":24,"wdir":300,"wspd":3,"visib":"6+","altim":1014,"clouds":[{"cover":"FEW","base":1500},{"cover":"SCT","base":2000},{"cover":"FEW","base":2300},{"cover":"BKN","base":5000}],"obsTime":1775469600},"SBAX":{"icaoId":"SBAX","flightCategory":"VFR","rawOb":"METAR SBAX 061000Z 10005KT 9999 SCT045 SCT080 20/19 Q1020","temp":20,"dewp":19,"wdir":100,"wspd":5,"visib":"6+","altim":1020,"clouds":[{"cover":"SCT","base":4500},{"cover":"SCT","base":8000}],"obsTime":1775469600},"SBCO":{"icaoId":"SBCO","flightCategory":"VFR","rawOb":"METAR SBCO 061000Z 10004KT 9999 FEW036 SCT100 19/18 Q1018","temp":19,"dewp":18,"wdir":100,"wspd":4,"visib":"6+","altim":1018,"clouds":[{"cover":"FEW","base":3600},{"cover":"SCT","base":10000}],"obsTime":1775469600},"SBDN":{"icaoId":"SBDN","flightCategory":"VFR","rawOb":"METAR SBDN 061000Z 13005KT CAVOK 22/21 Q1016","temp":22,"dewp":21,"wdir":130,"wspd":5,"visib":"6+","altim":1016,"clouds":[],"obsTime":1775469600},"SBES":{"icaoId":"SBES","flightCategory":"VFR","rawOb":"METAR SBES 061000Z VRB02KT CAVOK 21/// Q1017","temp":null,"dewp":null,"wdir":"VRB","wspd":2,"visib":"6+","altim":1017,"clouds":[],"obsTime":1775469600},"SBIP":{"icaoId":"SBIP","flightCategory":"VFR","rawOb":"METAR SBIP 061000Z AUTO 04003KT 360V070 9999 BKN033 BKN039 23/22 Q1018","temp":23,"dewp":22,"wdir":40,"wspd":3,"visib":"6+","altim":1018,"clouds":[{"cover":"BKN","base":3300},{"cover":"BKN","base":3900}],"obsTime":1775469600},"SBKG":{"icaoId":"SBKG","flightCategory":"MVFR","rawOb":"METAR SBKG 061000Z 17003KT 9999 BKN012 23/22 Q1016","temp":23,"dewp":22,"wdir":170,"wspd":3,"visib":"6+","altim":1016,"clouds":[{"cover":"BKN","base":1200}],"obsTime":1775469600},"SBOI":{"icaoId":"SBOI","flightCategory":"IFR","rawOb":"METAR SBOI 061000Z AUTO 04003KT 360V110 4400 // BKN006/// OVC021/// 24/24 Q1012","temp":24,"dewp":24,"wdir":40,"wspd":3,"visib":2.73,"altim":1012,"clouds":[{"cover":"BKN","base":600},{"cover":"OVC","base":2100}],"obsTime":1775469600},"SBPB":{"icaoId":"SBPB","flightCategory":"VFR","rawOb":"SPECI SBPB 061015Z 14003KT 9999 SCT015 BKN080 24/23 Q1013","temp":24,"dewp":23,"wdir":140,"wspd":3,"visib":"6+","altim":1013,"clouds":[{"cover":"SCT","base":1500},{"cover":"BKN","base":8000}],"obsTime":1775470500},"SBPL":{"icaoId":"SBPL","flightCategory":"MVFR","rawOb":"METAR SBPL 061000Z 12006KT 9999 BKN020 25/21 Q1016","temp":25,"dewp":21,"wdir":120,"wspd":6,"visib":"6+","altim":1016,"clouds":[{"cover":"BKN","base":2000}],"obsTime":1775469600},"SBPS":{"icaoId":"SBPS","flightCategory":"VFR","rawOb":"METAR SBPS 061000Z 28003KT 9999 SCT020 24/23 Q1016","temp":24,"dewp":23,"wdir":280,"wspd":3,"visib":"6+","altim":1016,"clouds":[{"cover":"SCT","base":2000}],"obsTime":1775469600},"SBSC":{"icaoId":"SBSC","flightCategory":"VFR","rawOb":"METAR SBSC 061000Z 34004KT 9999 FEW020 23/21 Q1016","temp":23,"dewp":21,"wdir":340,"wspd":4,"visib":"6+","altim":1016,"clouds":[{"cover":"FEW","base":2000}],"obsTime":1775469600},"SBSM":{"icaoId":"SBSM","flightCategory":"VFR","rawOb":"METAR SBSM 061000Z 12006KT 9999 FEW040 19/16 Q1016","temp":19,"dewp":16,"wdir":120,"wspd":6,"visib":"6+","altim":1016,"clouds":[{"cover":"FEW","base":4000}],"obsTime":1775469600},"SBSR":{"icaoId":"SBSR","flightCategory":"VFR","rawOb":"METAR SBSR 061000Z 21002KT 9999 FEW030 BKN070 21/20 Q1017","temp":21,"dewp":20,"wdir":210,"wspd":2,"visib":"6+","altim":1017,"clouds":[{"cover":"FEW","base":3000},{"cover":"BKN","base":7000}],"obsTime":1775469600},"SBTD":{"icaoId":"SBTD","flightCategory":"VFR","rawOb":"METAR SBTD 061100Z /////KT 9999 FEW030 23/18 Q1018","temp":23,"dewp":18,"wdir":null,"wspd":null,"visib":"6+","altim":1018,"clouds":[{"cover":"FEW","base":3000}],"obsTime":1775473200},"SBTT":{"icaoId":"SBTT","flightCategory":"MVFR","rawOb":"METAR SBTT 061100Z 04003KT 360V070 5000 -RA BKN013 OVC090 24/22 Q1011","temp":24,"dewp":22,"wdir":40,"wspd":3,"visib":3.11,"altim":1011,"clouds":[{"cover":"BKN","base":1300},{"cover":"OVC","base":9000}],"obsTime":1775473200},"SBUY":{"icaoId":"SBUY","flightCategory":"VFR","rawOb":"METAR SBUY 061100Z 30001KT CAVOK 23/23 Q1010","temp":23,"dewp":23,"wdir":300,"wspd":1,"visib":"6+","altim":1010,"clouds":[],"obsTime":1775473200},"SBVH":{"icaoId":"SBVH","flightCategory":"VFR","rawOb":"METAR SBVH 061100Z 09005KT CAVOK 22/21 Q1015","temp":22,"dewp":21,"wdir":90,"wspd":5,"visib":"6+","altim":1015,"clouds":[],"obsTime":1775473200},"SBLE":{"icaoId":"SBLE","flightCategory":"MVFR","rawOb":"METAR SBLE 061000Z AUTO VRB02KT 9999 FEW002 BKN024 BKN033 ///// Q////","temp":null,"dewp":null,"wdir":"VRB","wspd":2,"visib":"6+","altim":null,"clouds":[{"cover":"FEW","base":200},{"cover":"BKN","base":2400},{"cover":"BKN","base":3300}],"obsTime":1775469600},"SBJV":{"icaoId":"SBJV","flightCategory":"MVFR","rawOb":"METAR SBJV 061000Z 23003KT 9000 SCT004 OVC010 22/22 Q1018","temp":22,"dewp":22,"wdir":230,"wspd":3,"visib":5.59,"altim":1018,"clouds":[{"cover":"SCT","base":400},{"cover":"OVC","base":1000}],"obsTime":1775469600},"SBJP":{"icaoId":"SBJP","flightCategory":"MVFR","rawOb":"METAR SBJP 061000Z 19005KT 9999 BKN020 26/24 Q1014","temp":26,"dewp":24,"wdir":190,"wspd":5,"visib":"6+","altim":1014,"clouds":[{"cover":"BKN","base":2000}],"obsTime":1775469600},"SBPF":{"icaoId":"SBPF","flightCategory":"VFR","rawOb":"METAR SBPF 061000Z 07010KT CAVOK 19/17 Q1019","temp":19,"dewp":17,"wdir":70,"wspd":10,"visib":"6+","altim":1019,"clouds":[],"obsTime":1775469600},"SBIH":{"icaoId":"SBIH","flightCategory":"MVFR","rawOb":"METAR SBIH 061100Z 00000KT 7000 SCT010 25/24 Q1012","temp":25,"dewp":24,"wdir":0,"wspd":0,"visib":4.35,"altim":1012,"clouds":[{"cover":"SCT","base":1000}],"obsTime":1775473200},"SBAN":{"icaoId":"SBAN","flightCategory":"VFR","rawOb":"METAR SBAN 061000Z 10007KT CAVOK 20/18 Q1020","temp":20,"dewp":18,"wdir":100,"wspd":7,"visib":"6+","altim":1020,"clouds":[],"obsTime":1775469600},"SBAF":{"icaoId":"SBAF","flightCategory":"MVFR","rawOb":"METAR SBAF 061000Z 26003KT 7000 SCT010 BKN015 23/23 Q1017","temp":23,"dewp":23,"wdir":260,"wspd":3,"visib":4.35,"altim":1017,"clouds":[{"cover":"SCT","base":1000},{"cover":"BKN","base":1500}],"obsTime":1775469600},"SBGW":{"icaoId":"SBGW","flightCategory":"IFR","rawOb":"METAR SBGW 061000Z 01002KT 2500 BR BKN006 21/18 Q1019","temp":21,"dewp":18,"wdir":10,"wspd":2,"visib":1.55,"altim":1019,"clouds":[{"cover":"BKN","base":600}],"obsTime":1775469600},"SBJR":{"icaoId":"SBJR","flightCategory":"VFR","rawOb":"METAR SBJR 061000Z 02001KT 9999 FEW012 24/22 Q1016","temp":24,"dewp":22,"wdir":20,"wspd":1,"visib":"6+","altim":1016,"clouds":[{"cover":"FEW","base":1200}],"obsTime":1775469600},"SBLS":{"icaoId":"SBLS","flightCategory":"VFR","rawOb":"METAR SBLS 061000Z 14009KT 9999 FEW020 21/19 Q1020","temp":21,"dewp":19,"wdir":140,"wspd":9,"visib":"6+","altim":1020,"clouds":[{"cover":"FEW","base":2000}],"obsTime":1775469600},"SBMT":{"icaoId":"SBMT","flightCategory":"MVFR","rawOb":"METAR SBMT 061000Z 10008KT 070V130 9999 BKN013 20/18 Q1020","temp":20,"dewp":18,"wdir":100,"wspd":8,"visib":"6+","altim":1020,"clouds":[{"cover":"BKN","base":1300}],"obsTime":1775469600},"SBST":{"icaoId":"SBST","flightCategory":"VFR","rawOb":"METAR SBST 061100Z 02001KT 9999 FEW040 23/23 Q1017","temp":23,"dewp":23,"wdir":20,"wspd":1,"visib":"6+","altim":1017,"clouds":[{"cover":"FEW","base":4000}],"obsTime":1775473200},"SBTA":{"icaoId":"SBTA","flightCategory":"IFR","rawOb":"METAR SBTA 061000Z VRB01KT 6000 BKN008 BKN016 19/19 Q1019","temp":19,"dewp":19,"wdir":"VRB","wspd":1,"visib":3.73,"altim":1019,"clouds":[{"cover":"BKN","base":800},{"cover":"BKN","base":1600}],"obsTime":1775469600}}}