{"updated":1775593983,"count":83,"data":{"SBRB":{"icaoId":"SBRB","flightCategory":"VFR","rawOb":"METAR SBRB 071900Z 05009KT 9999 VCSH SCT018 SCT034 FEW036TCU 28/24 Q1010","temp":28,"dewp":24,"wdir":50,"wspd":9,"visib":"6+","altim":1010,"clouds":[{"cover":"SCT","base":1800},{"cover":"SCT","base":3400},{"cover":"FEW","base":3600}],"obsTime":1775588400},"SBRF":{"icaoId":"SBRF","flightCategory":"MVFR","rawOb":"METAR SBRF 071900Z 12007KT 9999 BKN017 BKN050 28/25 Q1012","temp":28,"dewp":25,"wdir":120,"wspd":7,"visib":"6+","altim":1012,"clouds":[{"cover":"BKN","base":1700},{"cover":"BKN","base":5000}],"obsTime":1775588400},"SBCG":{"icaoId":"SBCG","flightCategory":"VFR","rawOb":"METAR SBCG 071900Z 05004KT 010V070 9999 VCSH VCTS SCT035 FEW040CB BKN100 25/22 Q1013 RETS","temp":25,"dewp":22,"wdir":50,"wspd":4,"visib":"6+","altim":1013,"clouds":[{"cover":"SCT","base":3500},{"cover":"FEW","base":4000},{"cover":"BKN","base":10000}],"obsTime":1775588400},"SBBR":{"icaoId":"SBBR","flightCategory":"VFR","rawOb":"METAR SBBR 071900Z 06008KT 9999 VCTS SCT040 FEW045CB 26/18 Q1018","temp":26,"dewp":18,"wdir":60,"wspd":8,"visib":"6+","altim":1018,"clouds":[{"cover":"SCT","base":4000},{"cover":"FEW","base":4500}],"obsTime":1775588400},"SBVT":{"icaoId":"SBVT","flightCategory":"VFR","rawOb":"METAR SBVT 071900Z 08007KT 9999 FEW030 28/23 Q1015","temp":28,"dewp":23,"wdir":80,"wspd":7,"visib":"6+","altim":1015,"clouds":[{"cover":"FEW","base":3000}],"obsTime":1775588400},"SBAT":{"icaoId":"SBAT","flightCategory":"VFR","rawOb":"METAR SBAT 071900Z 11003KT 9999 SCT035 35/23 Q1011","temp":35,"dewp":23,"wdir":110,"wspd":3,"visib":"6+","altim":1011,"clouds":[{"cover":"SCT","base":3500}],"obsTime":1775588400},"SBBE":{"icaoId":"SBBE","flightCategory":"MVFR","rawOb":"SPECI SBBE 071836Z 06007KT 5000 -RA BKN022 FEW035TCU BKN040 26/26 Q1011 RERA","temp":26,"dewp":26,"wdir":60,"wspd":7,"visib":3.11,"altim":1011,"clouds":[{"cover":"BKN","base":2200},{"cover":"FEW","base":3500},{"cover":"BKN","base":4000}],"obsTime":1775586960},"SBBV":{"icaoId":"SBBV","flightCategory":"VFR","rawOb":"METAR SBBV 071900Z 07008KT 9999 BKN040 FEW045TCU 32/21 Q1010","temp":32,"dewp":21,"wdir":70,"wspd":8,"visib":"6+","altim":1010,"clouds":[{"cover":"BKN","base":4000},{"cover":"FEW","base":4500}],"obsTime":1775588400},"SBCB":{"icaoId":"SBCB","flightCategory":"VFR","rawOb":"METAR SBCB 071900Z 08015KT 9999 FEW005 SCT020 28/23 Q1015","temp":28,"dewp":23,"wdir":80,"wspd":15,"visib":"6+","altim":1015,"clouds":[{"cover":"FEW","base":500},{"cover":"SCT","base":2000}],"obsTime":1775588400},"SBCF":{"icaoId":"SBCF","flightCategory":"VFR","rawOb":"METAR SBCF 071900Z 08007KT 050V120 9999 BKN040 28/17 Q1019","temp":28,"dewp":17,"wdir":80,"wspd":7,"visib":"6+","altim":1019,"clouds":[{"cover":"BKN","base":4000}],"obsTime":1775588400},"SBCP":{"icaoId":"SBCP","flightCategory":"VFR","rawOb":"METAR SBCP 071900Z /////KT 9999 FEW020 ///// Q1015","temp":null,"dewp":null,"wdir":null,"wspd":null,"visib":"6+","altim":1015,"clouds":[{"cover":"FEW","base":2000}],"obsTime":1775588400},"SBCR":{"icaoId":"SBCR","flightCategory":"VFR","rawOb":"METAR SBCR 071900Z 34010KT 310V010 9999 FEW040 FEW045TCU 34/23 Q1009","temp":34,"dewp":23,"wdir":340,"wspd":10,"visib":"6+","altim":1009,"clouds":[{"cover":"FEW","base":4000},{"cover":"FEW","base":4500}],"obsTime":1775588400},"SBCT":{"icaoId":"SBCT","flightCategory":"MVFR","rawOb":"METAR SBCT 071900Z 34010KT 9999 VCSH BKN030 FEW045TCU 27/18 Q1016","temp":27,"dewp":18,"wdir":340,"wspd":10,"visib":"6+","altim":1016,"clouds":[{"cover":"BKN","base":3000},{"cover":"FEW","base":4500}],"obsTime":1775588400},"SBCZ":{"icaoId":"SBCZ","flightCategory":"VFR","rawOb":"METAR SBCZ 071900Z 10007KT 9999 SCT030 FEW035TCU 29/25 Q1010","temp":29,"dewp":25,"wdir":100,"wspd":7,"visib":"6+","altim":1010,"clouds":[{"cover":"SCT","base":3000},{"cover":"FEW","base":3500}],"obsTime":1775588400},"SBEG":{"icaoId":"SBEG","flightCategory":"LIFR","rawOb":"SPECI SBEG 071845Z 11004KT 1000 R29/1800 R11/P2000 TSRA SCT020 FEW025CB 30/25 Q1010","temp":30,"dewp":25,"wdir":110,"wspd":4,"visib":0.62,"altim":1010,"clouds":[{"cover":"SCT","base":2000},{"cover":"FEW","base":2500}],"obsTime":1775587500},"SBFI":{"icaoId":"SBFI","flightCategory":"LIFR","rawOb":"SPECI SBFI 071835Z 26019G34KT 1500 R15/0750D R33/1100D +TSRA BKN030 FEW035CB BKN080 24/24 Q1009","temp":24,"dewp":24,"wdir":260,"wspd":19,"visib":0.93,"altim":1009,"clouds":[{"cover":"BKN","base":3000},{"cover":"FEW","base":3500},{"cover":"BKN","base":8000}],"obsTime":1775586900},"SBFL":{"icaoId":"SBFL","flightCategory":"VFR","rawOb":"METAR SBFL 071900Z 10014KT 9999 FEW019 28/24 Q1010","temp":28,"dewp":24,"wdir":100,"wspd":14,"visib":"6+","altim":1010,"clouds":[{"cover":"FEW","base":1900}],"obsTime":1775588400},"SBFZ":{"icaoId":"SBFZ","flightCategory":"VFR","rawOb":"METAR SBFZ 071900Z 10011KT 9999 SCT018 BKN080 28/24 Q1011","temp":28,"dewp":24,"wdir":100,"wspd":11,"visib":"6+","altim":1011,"clouds":[{"cover":"SCT","base":1800},{"cover":"BKN","base":8000}],"obsTime":1775588400},"SBGL":{"icaoId":"SBGL","flightCategory":"VFR","rawOb":"METAR SBGL 071900Z 14008KT 9999 FEW030 30/23 Q1013","temp":30,"dewp":23,"wdir":140,"wspd":8,"visib":"6+","altim":1013,"clouds":[{"cover":"FEW","base":3000}],"obsTime":1775588400},"SBGO":{"icaoId":"SBGO","flightCategory":"VFR","rawOb":"METAR SBGO 071900Z 34005KT 9999 TS VCSH SCT046 FEW050CB BKN100 28/20 Q1016","temp":28,"dewp":20,"wdir":340,"wspd":5,"visib":"6+","altim":1016,"clouds":[{"cover":"SCT","base":4600},{"cover":"FEW","base":5000},{"cover":"BKN","base":10000}],"obsTime":1775588400},"SBGR":{"icaoId":"SBGR","flightCategory":"MVFR","rawOb":"SPECI SBGR 071835Z 23009KT 7000 -TSRA BKN025 FEW040CB BKN100 21/19 Q1017","temp":21,"dewp":19,"wdir":230,"wspd":9,"visib":4.35,"altim":1017,"clouds":[{"cover":"BKN","base":2500},{"cover":"FEW","base":4000},{"cover":"BKN","base":10000}],"obsTime":1775586900},"SBHT":{"icaoId":"SBHT","flightCategory":"VFR","rawOb":"METAR SBHT 071900Z 11005KT 9999 SCT030 32/23 Q1009","temp":32,"dewp":23,"wdir":110,"wspd":5,"visib":"6+","altim":1009,"clouds":[{"cover":"SCT","base":3000}],"obsTime":1775588400},"SBIL":{"icaoId":"SBIL","flightCategory":"VFR","rawOb":"METAR SBIL 071900Z 16007KT 120V190 9999 SCT023 SCT060 30/25 Q1014","temp":30,"dewp":25,"wdir":160,"wspd":7,"visib":"6+","altim":1014,"clouds":[{"cover":"SCT","base":2300},{"cover":"SCT","base":6000}],"obsTime":1775588400},"SBJU":{"icaoId":"SBJU","flightCategory":"VFR","rawOb":"METAR SBJU 071900Z 14006KT 9999 FEW022 SCT080 31/21 Q1012","temp":31,"dewp":21,"wdir":140,"wspd":6,"visib":"6+","altim":1012,"clouds":[{"cover":"FEW","base":2200},{"cover":"SCT","base":8000}],"obsTime":1775588400},"SBKP":{"icaoId":"SBKP","flightCategory":"VFR","rawOb":"METAR SBKP 071900Z 32007KT 9999 FEW040 29/20 Q1016","temp":29,"dewp":20,"wdir":320,"wspd":7,"visib":"6+","altim":1016,"clouds":[{"cover":"FEW","base":4000}],"obsTime":1775588400},"SBLO":{"icaoId":"SBLO","flightCategory":"VFR","rawOb":"METAR SBLO 071900Z 03006KT 9999 SCT030 30/21 Q1013","temp":30,"dewp":21,"wdir":30,"wspd":6,"visib":"6+","altim":1013,"clouds":[{"cover":"SCT","base":3000}],"obsTime":1775588400},"SBMA":{"icaoId":"SBMA","flightCategory":"VFR","rawOb":"METAR SBMA 071900Z 22007KT 9999 SCT020 FEW023TCU 34/23 Q1009","temp":34,"dewp":23,"wdir":220,"wspd":7,"visib":"6+","altim":1009,"clouds":[{"cover":"SCT","base":2000},{"cover":"FEW","base":2300}],"obsTime":1775588400},"SBME":{"icaoId":"SBME","flightCategory":"VFR","rawOb":"METAR SBME 071900Z 11008KT 9999 FEW030 28/23 Q1015","temp":28,"dewp":23,"wdir":110,"wspd":8,"visib":"6+","altim":1015,"clouds":[{"cover":"FEW","base":3000}],"obsTime":1775588400},"SBMG":{"icaoId":"SBMG","flightCategory":"VFR","rawOb":"METAR SBMG 071900Z 01012KT 330V030 9999 VCSH SCT040 FEW040TCU 31/20 Q1011","temp":31,"dewp":20,"wdir":10,"wspd":12,"visib":"6+","altim":1011,"clouds":[{"cover":"SCT","base":4000},{"cover":"FEW","base":4000}],"obsTime":1775588400},"SBMK":{"icaoId":"SBMK","flightCategory":"VFR","rawOb":"METAR SBMK 071900Z 09007KT 9999 FEW040 30/16 Q1017","temp":30,"dewp":16,"wdir":90,"wspd":7,"visib":"6+","altim":1017,"clouds":[{"cover":"FEW","base":4000}],"obsTime":1775588400},"SBMO":{"icaoId":"SBMO","flightCategory":"VFR","rawOb":"METAR SBMO 071900Z 10010KT 9999 SCT025 BKN080 29/24 Q1013","temp":29,"dewp":24,"wdir":100,"wspd":10,"visib":"6+","altim":1013,"clouds":[{"cover":"SCT","base":2500},{"cover":"BKN","base":8000}],"obsTime":1775588400},"SBMQ":{"icaoId":"SBMQ","flightCategory":"VFR","rawOb":"METAR SBMQ 071900Z 05010KT 9999 SCT019 FEW035TCU 29/26 Q1010","temp":29,"dewp":26,"wdir":50,"wspd":10,"visib":"6+","altim":1010,"clouds":[{"cover":"SCT","base":1900},{"cover":"FEW","base":3500}],"obsTime":1775588400},"SBNT":{"icaoId":"SBNT","flightCategory":"MVFR","rawOb":"METAR SBNT 071900Z 11009KT 9999 VCSH BKN017 FEW025TCU SCT100 29/24 Q1012","temp":29,"dewp":24,"wdir":110,"wspd":9,"visib":"6+","altim":1012,"clouds":[{"cover":"BKN","base":1700},{"cover":"FEW","base":2500},{"cover":"SCT","base":10000}],"obsTime":1775588400},"SBPA":{"icaoId":"SBPA","flightCategory":"IFR","rawOb":"METAR SBPA 071900Z 07005KT 9999 BKN008 FEW040TCU BKN060 23/20 Q1006","temp":23,"dewp":20,"wdir":70,"wspd":5,"visib":"6+","altim":1006,"clouds":[{"cover":"BKN","base":800},{"cover":"FEW","base":4000},{"cover":"BKN","base":6000}],"obsTime":1775588400},"SBPJ":{"icaoId":"SBPJ","flightCategory":"VFR","rawOb":"METAR SBPJ 071900Z 25005KT 9999 SCT033 FEW035TCU 32/25 Q1011","temp":32,"dewp":25,"wdir":250,"wspd":5,"visib":"6+","altim":1011,"clouds":[{"cover":"SCT","base":3300},{"cover":"FEW","base":3500}],"obsTime":1775588400},"SBPV":{"icaoId":"SBPV","flightCategory":"VFR","rawOb":"METAR SBPV 071900Z 33005KT 9999 SCT030 FEW035TCU 32/25 Q1009","temp":32,"dewp":25,"wdir":330,"wspd":5,"visib":"6+","altim":1009,"clouds":[{"cover":"SCT","base":3000},{"cover":"FEW","base":3500}],"obsTime":1775588400},"SBSG":{"icaoId":"SBSG","flightCategory":"MVFR","rawOb":"METAR SBSG 071900Z 10008KT 9999 VCSH BKN020 FEW030TCU 29/24 Q1012","temp":29,"dewp":24,"wdir":100,"wspd":8,"visib":"6+","altim":1012,"clouds":[{"cover":"BKN","base":2000},{"cover":"FEW","base":3000}],"obsTime":1775588400},"SBSL":{"icaoId":"SBSL","flightCategory":"VFR","rawOb":"METAR SBSL 071900Z 07012KT 9999 SCT030 31/24 Q1009","temp":31,"dewp":24,"wdir":70,"wspd":12,"visib":"6+","altim":1009,"clouds":[{"cover":"SCT","base":3000}],"obsTime":1775588400},"SBSN":{"icaoId":"SBSN","flightCategory":"VFR","rawOb":"METAR SBSN 071900Z 08008KT 9999 FEW023 FEW026TCU 31/25 Q1009","temp":31,"dewp":25,"wdir":80,"wspd":8,"visib":"6+","altim":1009,"clouds":[{"cover":"FEW","base":2300},{"cover":"FEW","base":2600}],"obsTime":1775588400},"SBSP":{"icaoId":"SBSP","flightCategory":"MVFR","rawOb":"METAR SBSP 071900Z COR 34011KT 290V020 9999 TSRA BKN030 FEW040CB OVC083 24/19 Q1018","temp":24,"dewp":19,"wdir":340,"wspd":11,"visib":"6+","altim":1018,"clouds":[{"cover":"BKN","base":3000},{"cover":"FEW","base":4000},{"cover":"OVC","base":8300}],"obsTime":1775588400},"SBSV":{"icaoId":"SBSV","flightCategory":"VFR","rawOb":"METAR SBSV 071900Z 14006KT 9999 SCT025 29/23 Q1014","temp":29,"dewp":23,"wdir":140,"wspd":6,"visib":"6+","altim":1014,"clouds":[{"cover":"SCT","base":2500}],"obsTime":1775588400},"SBTE":{"icaoId":"SBTE","flightCategory":"VFR","rawOb":"METAR SBTE 071900Z 14004KT 9999 SCT025 FEW030TCU 29/25 Q1009","temp":29,"dewp":25,"wdir":140,"wspd":4,"visib":"6+","altim":1009,"clouds":[{"cover":"SCT","base":2500},{"cover":"FEW","base":3000}],"obsTime":1775588400},"SBUL":{"icaoId":"SBUL","flightCategory":"VFR","rawOb":"METAR SBUL 071900Z 06007KT 010V090 9999 4000S -TSRA SCT025 FEW035CB BKN080 28/18 Q1018","temp":28,"dewp":18,"wdir":60,"wspd":7,"visib":"6+","altim":1018,"clouds":[{"cover":"SCT","base":2500},{"cover":"FEW","base":3500},{"cover":"BKN","base":8000}],"obsTime":1775588400},"SBUR":{"icaoId":"SBUR","flightCategory":"VFR","rawOb":"METAR SBUR 071900Z 13010KT 9999 VCSH BKN045 FEW050TCU 26/19 Q1017","temp":26,"dewp":19,"wdir":130,"wspd":10,"visib":"6+","altim":1017,"clouds":[{"cover":"BKN","base":4500},{"cover":"FEW","base":5000}],"obsTime":1775588400},"SBSJ":{"icaoId":"SBSJ","flightCategory":"VFR","rawOb":"METAR SBSJ 071900Z VRB02KT 9999 FEW040 FEW045TCU SCT100 28/20 Q1015","temp":28,"dewp":20,"wdir":"VRB","wspd":2,"visib":"6+","altim":1015,"clouds":[{"cover":"FEW","base":4000},{"cover":"FEW","base":4500},{"cover":"SCT","base":10000}],"obsTime":1775588400},"SBAR":{"icaoId":"SBAR","flightCategory":"VFR","rawOb":"METAR SBAR 071900Z 14010KT 9999 FEW023 FEW025TCU SCT055 29/25 Q1013","temp":29,"dewp":25,"wdir":140,"wspd":10,"visib":"6+","altim":1013,"clouds":[{"cover":"FEW","base":2300},{"cover":"FEW","base":2500},{"cover":"SCT","base":5500}],"obsTime":1775588400},"SBAX":{"icaoId":"SBAX","flightCategory":"VFR","rawOb":"METAR SBAX 071900Z 05003KT 9999 SCT025 28/18 Q1018","temp":28,"dewp":18,"wdir":50,"wspd":3,"visib":"6+","altim":1018,"clouds":[{"cover":"SCT","base":2500}],"obsTime":1775588400},"SBVH":{"icaoId":"SBVH","flightCategory":"VFR","rawOb":"METAR SBVH 071900Z 08004KT 9999 SCT040 SCT090 30/23 Q1013","temp":30,"dewp":23,"wdir":80,"wspd":4,"visib":"6+","altim":1013,"clouds":[{"cover":"SCT","base":4000},{"cover":"SCT","base":9000}],"obsTime":1775588400},"SBBH":{"icaoId":"SBBH","flightCategory":"VFR","rawOb":"METAR SBBH 071900Z 07006KT 9999 SCT048 29/17 Q1018","temp":29,"dewp":17,"wdir":70,"wspd":6,"visib":"6+","altim":1018,"clouds":[{"cover":"SCT","base":4800}],"obsTime":1775588400},"SBBQ":{"icaoId":"SBBQ","flightCategory":"VFR","rawOb":"METAR SBBQ 071900Z 03005KT 340V140 9999 FEW030 25/17 Q1022","temp":25,"dewp":17,"wdir":30,"wspd":5,"visib":"6+","altim":1022,"clouds":[{"cover":"FEW","base":3000}],"obsTime":1775588400},"SBBU":{"icaoId":"SBBU","flightCategory":"VFR","rawOb":"METAR SBBU 071900Z 05006KT 9999 SCT040 32/21 Q1014","temp":32,"dewp":21,"wdir":50,"wspd":6,"visib":"6+","altim":1014,"clouds":[{"cover":"SCT","base":4000}],"obsTime":1775588400},"SBCA":{"icaoId":"SBCA","flightCategory":"VFR","rawOb":"METAR SBCA 071900Z 34011KT 9999 FEW030 FEW040TCU 27/20 Q1012","temp":27,"dewp":20,"wdir":340,"wspd":11,"visib":"6+","altim":1012,"clouds":[{"cover":"FEW","base":3000},{"cover":"FEW","base":4000}],"obsTime":1775588400},"SBCC":{"icaoId":"SBCC","flightCategory":"MVFR","rawOb":"METAR SBCC 071900Z 06009KT 9999 BKN025 FEW030TCU 31/20 Q1012","temp":31,"dewp":20,"wdir":60,"wspd":9,"visib":"6+","altim":1012,"clouds":[{"cover":"BKN","base":2500},{"cover":"FEW","base":3000}],"obsTime":1775588400},"SBCJ":{"icaoId":"SBCJ","flightCategory":"VFR","rawOb":"METAR SBCJ 071900Z 16006KT 9999 FEW017 SCT023 28/22 Q1014","temp":28,"dewp":22,"wdir":160,"wspd":6,"visib":"6+","altim":1014,"clouds":[{"cover":"FEW","base":1700},{"cover":"SCT","base":2300}],"obsTime":1775588400},"SBCO":{"icaoId":"SBCO","flightCategory":"VFR","rawOb":"METAR SBCO 071900Z 11004KT 070V160 9999 VCTS FEW008 FEW030CB SCT040 23/21 Q1007","temp":23,"dewp":21,"wdir":110,"wspd":4,"visib":"6+","altim":1007,"clouds":[{"cover":"FEW","base":800},{"cover":"FEW","base":3000},{"cover":"SCT","base":4000}],"obsTime":1775588400},"SBDN":{"icaoId":"SBDN","flightCategory":"VFR","rawOb":"METAR SBDN 071900Z 35004KT 9999 SCT043 FEW060TCU 33/20 Q1012","temp":33,"dewp":20,"wdir":350,"wspd":4,"visib":"6+","altim":1012,"clouds":[{"cover":"SCT","base":4300},{"cover":"FEW","base":6000}],"obsTime":1775588400},"SBES":{"icaoId":"SBES","flightCategory":"VFR","rawOb":"METAR SBES 071900Z 06015KT 9999 FEW020 28/// Q1014","temp":null,"dewp":null,"wdir":60,"wspd":15,"visib":"6+","altim":1014,"clouds":[{"cover":"FEW","base":2000}],"obsTime":1775588400},"SBIP":{"icaoId":"SBIP","flightCategory":"VFR","rawOb":"METAR SBIP 071900Z AUTO 02008KT 350V050 CAVOK 31/18 Q1016","temp":31,"dewp":18,"wdir":20,"wspd":8,"visib":"6+","altim":1016,"clouds":[],"obsTime":1775588400},"SBKG":{"icaoId":"SBKG","flightCategory":"IFR","rawOb":"METAR SBKG 071900Z 12012KT 4000 -RA BR BKN012 FEW025TCU BKN080 23/22 Q1015","temp":23,"dewp":22,"wdir":120,"wspd":12,"visib":2.49,"altim":1015,"clouds":[{"cover":"BKN","base":1200},{"cover":"FEW","base":2500},{"cover":"BKN","base":8000}],"obsTime":1775588400},"SBOI":{"icaoId":"SBOI","flightCategory":"VFR","rawOb":"METAR SBOI 071900Z AUTO 07006KT 010V130 9999 SCT036 30/24 Q1010","temp":30,"dewp":24,"wdir":70,"wspd":6,"visib":"6+","altim":1010,"clouds":[{"cover":"SCT","base":3600}],"obsTime":1775588400},"SBPB":{"icaoId":"SBPB","flightCategory":"MVFR","rawOb":"METAR SBPB 071900Z 04012KT 9999 BKN016 30/25 Q1010","temp":30,"dewp":25,"wdir":40,"wspd":12,"visib":"6+","altim":1010,"clouds":[{"cover":"BKN","base":1600}],"obsTime":1775588400},"SBPL":{"icaoId":"SBPL","flightCategory":"VFR","rawOb":"METAR SBPL 071900Z 02004KT 9999 FEW030 33/18 Q1012","temp":33,"dewp":18,"wdir":20,"wspd":4,"visib":"6+","altim":1012,"clouds":[{"cover":"FEW","base":3000}],"obsTime":1775588400},"SBPP":{"icaoId":"SBPP","flightCategory":"MVFR","rawOb":"METAR SBPP 071900Z 31011KT 9999 TS BKN020 FEW025CB OVC070 24/22 Q1013","temp":24,"dewp":22,"wdir":310,"wspd":11,"visib":"6+","altim":1013,"clouds":[{"cover":"BKN","base":2000},{"cover":"FEW","base":2500},{"cover":"OVC","base":7000}],"obsTime":1775588400},"SBPS":{"icaoId":"SBPS","flightCategory":"VFR","rawOb":"METAR SBPS 071900Z 14004KT 080V200 9999 SCT020 28/24 Q1015","temp":28,"dewp":24,"wdir":140,"wspd":4,"visib":"6+","altim":1015,"clouds":[{"cover":"SCT","base":2000}],"obsTime":1775588400},"SBSC":{"icaoId":"SBSC","flightCategory":"VFR","rawOb":"METAR SBSC 071900Z 01005KT 9999 FEW030 32/21 Q1013","temp":32,"dewp":21,"wdir":10,"wspd":5,"visib":"6+","altim":1013,"clouds":[{"cover":"FEW","base":3000}],"obsTime":1775588400},"SBSM":{"icaoId":"SBSM","flightCategory":"VFR","rawOb":"METAR SBSM 071900Z 33008KT 280V020 CAVOK 23/19 Q1004","temp":23,"dewp":19,"wdir":330,"wspd":8,"visib":"6+","altim":1004,"clouds":[],"obsTime":1775588400},"SBSR":{"icaoId":"SBSR","flightCategory":"VFR","rawOb":"METAR SBSR 071900Z 35004KT 9999 SCT030 SCT070 31/18 Q1014","temp":31,"dewp":18,"wdir":350,"wspd":4,"visib":"6+","altim":1014,"clouds":[{"cover":"SCT","base":3000},{"cover":"SCT","base":7000}],"obsTime":1775588400},"SBTF":{"icaoId":"SBTF","flightCategory":"VFR","rawOb":"METAR SBTF 071900Z 22002KT 9999 FEW010 OVC080 24/24 Q1010","temp":24,"dewp":24,"wdir":220,"wspd":2,"visib":"6+","altim":1010,"clouds":[{"cover":"FEW","base":1000},{"cover":"OVC","base":8000}],"obsTime":1775588400},"SBTT":{"icaoId":"SBTT","flightCategory":"VFR","rawOb":"METAR SBTT 071900Z 22005KT 9999 FEW025 BKN090 30/23 Q1011","temp":30,"dewp":23,"wdir":220,"wspd":5,"visib":"6+","altim":1011,"clouds":[{"cover":"FEW","base":2500},{"cover":"BKN","base":9000}],"obsTime":1775588400},"SBUY":{"icaoId":"SBUY","flightCategory":"VFR","rawOb":"METAR SBUY 071900Z 31002KT 9999 FEW020 SCT100 29/24 Q1009","temp":29,"dewp":24,"wdir":310,"wspd":2,"visib":"6+","altim":1009,"clouds":[{"cover":"FEW","base":2000},{"cover":"SCT","base":10000}],"obsTime":1775588400},"SBGM":{"icaoId":"SBGM","flightCategory":"MVFR","rawOb":"METAR SBGM 071900Z 16007KT 6000 TS SCT020CB BKN036 BKN043 26/24 Q1011","temp":26,"dewp":24,"wdir":160,"wspd":7,"visib":3.73,"altim":1011,"clouds":[{"cover":"SCT","base":2000},{"cover":"BKN","base":3600},{"cover":"BKN","base":4300}],"obsTime":1775588400},"SBAF":{"icaoId":"SBAF","flightCategory":"VFR","rawOb":"METAR SBAF 071900Z 17006KT 130V210 9999 FEW030 32/23 Q1013","temp":32,"dewp":23,"wdir":170,"wspd":6,"visib":"6+","altim":1013,"clouds":[{"cover":"FEW","base":3000}],"obsTime":1775588400},"SBGW":{"icaoId":"SBGW","flightCategory":"VFR","rawOb":"METAR SBGW 071900Z 02005KT 340V060 9999 SCT030 FEW035TCU 30/18 Q1015","temp":30,"dewp":18,"wdir":20,"wspd":5,"visib":"6+","altim":1015,"clouds":[{"cover":"SCT","base":3000},{"cover":"FEW","base":3500}],"obsTime":1775588400},"SBJR":{"icaoId":"SBJR","flightCategory":"VFR","rawOb":"METAR SBJR 071900Z 13005KT 9999 FEW030 33/23 Q1013","temp":33,"dewp":23,"wdir":130,"wspd":5,"visib":"6+","altim":1013,"clouds":[{"cover":"FEW","base":3000}],"obsTime":1775588400},"SBLS":{"icaoId":"SBLS","flightCategory":"VFR","rawOb":"METAR SBLS 071900Z 12006KT 020V130 9999 SCT046 28/17 Q1018","temp":28,"dewp":17,"wdir":120,"wspd":6,"visib":"6+","altim":1018,"clouds":[{"cover":"SCT","base":4600}],"obsTime":1775588400},"SBMT":{"icaoId":"SBMT","flightCategory":"VFR","rawOb":"METAR SBMT 071900Z 32006KT 9999 BKN040 22/19 Q1017","temp":22,"dewp":19,"wdir":320,"wspd":6,"visib":"6+","altim":1017,"clouds":[{"cover":"BKN","base":4000}],"obsTime":1775588400},"SBST":{"icaoId":"SBST","flightCategory":"MVFR","rawOb":"METAR SBST 071900Z 14004KT 8000 -RA SCT029 26/25 Q1012","temp":26,"dewp":25,"wdir":140,"wspd":4,"visib":4.97,"altim":1012,"clouds":[{"cover":"SCT","base":2900}],"obsTime":1775588400},"SBTA":{"icaoId":"SBTA","flightCategory":"VFR","rawOb":"METAR SBTA 071900Z 06004KT 010V090 9999 VCSH SCT035 FEW040TCU 30/19 Q1014","temp":30,"dewp":19,"wdir":60,"wspd":4,"visib":"6+","altim":1014,"clouds":[{"cover":"SCT","base":3500},{"cover":"FEW","base":4000}],"obsTime":1775588400},"SBJV":{"icaoId":"SBJV","flightCategory":"VFR","rawOb":"METAR SBJV 071900Z 06005KT 9999 SCT025 29/25 Q1010","temp":29,"dewp":25,"wdir":60,"wspd":5,"visib":"6+","altim":1010,"clouds":[{"cover":"SCT","base":2500}],"obsTime":1775588400},"SBIH":{"icaoId":"SBIH","flightCategory":"VFR","rawOb":"METAR SBIH 071900Z 03007KT 9999 FEW020 FEW025TCU 32/25 Q1008","temp":32,"dewp":25,"wdir":30,"wspd":7,"visib":"6+","altim":1008,"clouds":[{"cover":"FEW","base":2000},{"cover":"FEW","base":2500}],"obsTime":1775588400},"SBJP":{"icaoId":"SBJP","flightCategory":"VFR","rawOb":"METAR SBJP 071900Z 06005KT 9999 SCT022 SCT070 27/25 Q1012","temp":27,"dewp":25,"wdir":60,"wspd":5,"visib":"6+","altim":1012,"clouds":[{"cover":"SCT","base":2200},{"cover":"SCT","base":7000}],"obsTime":1775588400},"SBPF":{"icaoId":"SBPF","flightCategory":"VFR","rawOb":"METAR SBPF 072000Z 28012KT 9000 -RA NSC 18/16 Q1012","temp":18,"dewp":16,"wdir":280,"wspd":12,"visib":5.59,"altim":1012,"clouds":[],"obsTime":1775592000},"SBAN":{"icaoId":"SBAN","flightCategory":"VFR","rawOb":"METAR SBAN 071900Z 04006KT 9999 TS VCSH BKN035 FEW040CB 22/19 Q1019 RETS","temp":22,"dewp":19,"wdir":40,"wspd":6,"visib":"6+","altim":1019,"clouds":[{"cover":"BKN","base":3500},{"cover":"FEW","base":4000}],"obsTime":1775588400}}}