{"updated":1774649917,"count":81,"data":{"SBBE":{"icaoId":"SBBE","flightCategory":"VFR","rawOb":"METAR SBBE 272100Z 33007KT 9999 BKN042 30/25 Q1007","temp":30,"dewp":25,"wdir":330,"wspd":7,"visib":"6+","altim":1007,"clouds":[{"cover":"BKN","base":4200}],"obsTime":1774645200},"SBME":{"icaoId":"SBME","flightCategory":"VFR","rawOb":"METAR SBME 272100Z 11006KT 9999 FEW030 26/23 Q1017","temp":26,"dewp":23,"wdir":110,"wspd":6,"visib":"6+","altim":1017,"clouds":[{"cover":"FEW","base":3000}],"obsTime":1774645200},"SBCP":{"icaoId":"SBCP","flightCategory":"VFR","rawOb":"METAR SBCP 272100Z 13008KT CAVOK 26/23 Q1017","temp":26,"dewp":23,"wdir":130,"wspd":8,"visib":"6+","altim":1017,"clouds":[],"obsTime":1774645200},"SBMA":{"icaoId":"SBMA","flightCategory":"VFR","rawOb":"METAR SBMA 272100Z 00000KT 9999 FEW020 FEW023TCU BKN100 30/25 Q1007","temp":30,"dewp":25,"wdir":0,"wspd":0,"visib":"6+","altim":1007,"clouds":[{"cover":"FEW","base":2000},{"cover":"FEW","base":2300},{"cover":"BKN","base":10000}],"obsTime":1774645200},"SBMG":{"icaoId":"SBMG","flightCategory":"VFR","rawOb":"METAR SBMG 272100Z 18006KT 9999 TS VCSH BKN045 FEW050CB 27/27 Q1015","temp":27,"dewp":27,"wdir":180,"wspd":6,"visib":"6+","altim":1015,"clouds":[{"cover":"BKN","base":4500},{"cover":"FEW","base":5000}],"obsTime":1774645200},"SBMK":{"icaoId":"SBMK","flightCategory":"VFR","rawOb":"METAR SBMK 272100Z 11003KT 9999 FEW040 26/17 Q1017","temp":26,"dewp":17,"wdir":110,"wspd":3,"visib":"6+","altim":1017,"clouds":[{"cover":"FEW","base":4000}],"obsTime":1774645200},"SBFZ":{"icaoId":"SBFZ","flightCategory":"VFR","rawOb":"METAR SBFZ 272100Z 08007KT 9999 SCT020 28/24 Q1009","temp":28,"dewp":24,"wdir":80,"wspd":7,"visib":"6+","altim":1009,"clouds":[{"cover":"SCT","base":2000}],"obsTime":1774645200},"SBGL":{"icaoId":"SBGL","flightCategory":"VFR","rawOb":"METAR SBGL 272100Z 14007KT 9999 FEW030 28/22 Q1016","temp":28,"dewp":22,"wdir":140,"wspd":7,"visib":"6+","altim":1016,"clouds":[{"cover":"FEW","base":3000}],"obsTime":1774645200},"SBMO":{"icaoId":"SBMO","flightCategory":"VFR","rawOb":"METAR SBMO 272100Z 09005KT 9999 FEW015 BKN070 25/24 Q1011 RERA","temp":25,"dewp":24,"wdir":90,"wspd":5,"visib":"6+","altim":1011,"clouds":[{"cover":"FEW","base":1500},{"cover":"BKN","base":7000}],"obsTime":1774645200},"SBCT":{"icaoId":"SBCT","flightCategory":"VFR","rawOb":"METAR SBCT 272100Z 11008KT CAVOK 24/19 Q1021","temp":24,"dewp":19,"wdir":110,"wspd":8,"visib":"6+","altim":1021,"clouds":[],"obsTime":1774645200},"SBMQ":{"icaoId":"SBMQ","flightCategory":"VFR","rawOb":"METAR SBMQ 272100Z 07011KT 9999 SCT025 29/25 Q1007","temp":29,"dewp":25,"wdir":70,"wspd":11,"visib":"6+","altim":1007,"clouds":[{"cover":"SCT","base":2500}],"obsTime":1774645200},"SBCF":{"icaoId":"SBCF","flightCategory":"VFR","rawOb":"METAR SBCF 272100Z 12009KT CAVOK 25/15 Q1020","temp":25,"dewp":15,"wdir":120,"wspd":9,"visib":"6+","altim":1020,"clouds":[],"obsTime":1774645200},"SBNT":{"icaoId":"SBNT","flightCategory":"VFR","rawOb":"METAR SBNT 272100Z 11009KT CAVOK 28/23 Q1010","temp":28,"dewp":23,"wdir":110,"wspd":9,"visib":"6+","altim":1010,"clouds":[],"obsTime":1774645200},"SBPA":{"icaoId":"SBPA","flightCategory":"VFR","rawOb":"METAR SBPA 272100Z 16007KT 9999 FEW035 FEW040TCU 32/25 Q1013","temp":32,"dewp":25,"wdir":160,"wspd":7,"visib":"6+","altim":1013,"clouds":[{"cover":"FEW","base":3500},{"cover":"FEW","base":4000}],"obsTime":1774645200},"SBGO":{"icaoId":"SBGO","flightCategory":"VFR","rawOb":"METAR SBGO 272100Z 10006KT 9999 FEW050 FEW052TCU 29/18 Q1015","temp":29,"dewp":18,"wdir":100,"wspd":6,"visib":"6+","altim":1015,"clouds":[{"cover":"FEW","base":5000},{"cover":"FEW","base":5200}],"obsTime":1774645200},"SBGR":{"icaoId":"SBGR","flightCategory":"VFR","rawOb":"METAR SBGR 272100Z 16008KT 9999 FEW045 25/20 Q1020","temp":25,"dewp":20,"wdir":160,"wspd":8,"visib":"6+","altim":1020,"clouds":[{"cover":"FEW","base":4500}],"obsTime":1774645200},"SBPJ":{"icaoId":"SBPJ","flightCategory":"VFR","rawOb":"METAR SBPJ 272100Z 12004KT 9999 FEW038 FEW043TCU 31/23 Q1009","temp":31,"dewp":23,"wdir":120,"wspd":4,"visib":"6+","altim":1009,"clouds":[{"cover":"FEW","base":3800},{"cover":"FEW","base":4300}],"obsTime":1774645200},"SBBV":{"icaoId":"SBBV","flightCategory":"VFR","rawOb":"METAR SBBV 272100Z 30002KT 9999 BKN040 FEW045TCU SCT070 33/21 Q1005","temp":33,"dewp":21,"wdir":300,"wspd":2,"visib":"6+","altim":1005,"clouds":[{"cover":"BKN","base":4000},{"cover":"FEW","base":4500},{"cover":"SCT","base":7000}],"obsTime":1774645200},"SBPV":{"icaoId":"SBPV","flightCategory":"VFR","rawOb":"METAR SBPV 272100Z 10006KT 9999 SCT030 28/24 Q1007","temp":28,"dewp":24,"wdir":100,"wspd":6,"visib":"6+","altim":1007,"clouds":[{"cover":"SCT","base":3000}],"obsTime":1774645200},"SBRB":{"icaoId":"SBRB","flightCategory":"VFR","rawOb":"METAR SBRB 272100Z 27002KT 9999 SCT024 FEW030TCU BKN100 31/24 Q1006","temp":31,"dewp":24,"wdir":270,"wspd":2,"visib":"6+","altim":1006,"clouds":[{"cover":"SCT","base":2400},{"cover":"FEW","base":3000},{"cover":"BKN","base":10000}],"obsTime":1774645200},"SBCZ":{"icaoId":"SBCZ","flightCategory":"VFR","rawOb":"METAR SBCZ 272100Z 22002KT 9999 SCT030 31/23 Q1006","temp":31,"dewp":23,"wdir":220,"wspd":2,"visib":"6+","altim":1006,"clouds":[{"cover":"SCT","base":3000}],"obsTime":1774645200},"SBRF":{"icaoId":"SBRF","flightCategory":"VFR","rawOb":"METAR SBRF 272100Z 13009KT 100V160 9999 SCT018 SCT060 29/24 Q1010","temp":29,"dewp":24,"wdir":130,"wspd":9,"visib":"6+","altim":1010,"clouds":[{"cover":"SCT","base":1800},{"cover":"SCT","base":6000}],"obsTime":1774645200},"SBEG":{"icaoId":"SBEG","flightCategory":"VFR","rawOb":"METAR SBEG 272100Z 11006KT 9999 FEW030 FEW035TCU 32/24 Q1005","temp":32,"dewp":24,"wdir":110,"wspd":6,"visib":"6+","altim":1005,"clouds":[{"cover":"FEW","base":3000},{"cover":"FEW","base":3500}],"obsTime":1774645200},"SBIL":{"icaoId":"SBIL","flightCategory":"VFR","rawOb":"METAR SBIL 272100Z 21006KT 9999 SCT023 SCT060 27/25 Q1014","temp":27,"dewp":25,"wdir":210,"wspd":6,"visib":"6+","altim":1014,"clouds":[{"cover":"SCT","base":2300},{"cover":"SCT","base":6000}],"obsTime":1774645200},"SBSG":{"icaoId":"SBSG","flightCategory":"VFR","rawOb":"METAR SBSG 272100Z 11007KT 080V140 9999 SCT027 28/23 Q1010","temp":28,"dewp":23,"wdir":110,"wspd":7,"visib":"6+","altim":1010,"clouds":[{"cover":"SCT","base":2700}],"obsTime":1774645200},"SBJU":{"icaoId":"SBJU","flightCategory":"MVFR","rawOb":"METAR SBJU 272100Z 12002KT 9999 BKN022 29/22 Q1011","temp":29,"dewp":22,"wdir":120,"wspd":2,"visib":"6+","altim":1011,"clouds":[{"cover":"BKN","base":2200}],"obsTime":1774645200},"SBSL":{"icaoId":"SBSL","flightCategory":"VFR","rawOb":"METAR SBSL 272100Z 08007KT 9999 FEW020 SCT080 27/24 Q1008","temp":27,"dewp":24,"wdir":80,"wspd":7,"visib":"6+","altim":1008,"clouds":[{"cover":"FEW","base":2000},{"cover":"SCT","base":8000}],"obsTime":1774645200},"SBCG":{"icaoId":"SBCG","flightCategory":"VFR","rawOb":"METAR SBCG 272100Z 27004KT 210V290 9999 VCSH BKN045 FEW050TCU SCT080 27/22 Q1014","temp":27,"dewp":22,"wdir":270,"wspd":4,"visib":"6+","altim":1014,"clouds":[{"cover":"BKN","base":4500},{"cover":"FEW","base":5000},{"cover":"SCT","base":8000}],"obsTime":1774645200},"SBSN":{"icaoId":"SBSN","flightCategory":"VFR","rawOb":"METAR SBSN 272100Z 11007KT 9999 FEW020 FEW030TCU 30/24 Q1006","temp":30,"dewp":24,"wdir":110,"wspd":7,"visib":"6+","altim":1006,"clouds":[{"cover":"FEW","base":2000},{"cover":"FEW","base":3000}],"obsTime":1774645200},"SBBR":{"icaoId":"SBBR","flightCategory":"VFR","rawOb":"METAR SBBR 272100Z 11012KT 9999 SCT040 FEW045TCU 25/17 Q1018","temp":25,"dewp":17,"wdir":110,"wspd":12,"visib":"6+","altim":1018,"clouds":[{"cover":"SCT","base":4000},{"cover":"FEW","base":4500}],"obsTime":1774645200},"SBSP":{"icaoId":"SBSP","flightCategory":"VFR","rawOb":"METAR SBSP 272100Z 15012KT CAVOK 23/19 Q1021","temp":23,"dewp":19,"wdir":150,"wspd":12,"visib":"6+","altim":1021,"clouds":[],"obsTime":1774645200},"SBKP":{"icaoId":"SBKP","flightCategory":"VFR","rawOb":"METAR SBKP 272100Z 15010KT CAVOK 31/13 Q1017","temp":31,"dewp":13,"wdir":150,"wspd":10,"visib":"6+","altim":1017,"clouds":[],"obsTime":1774645200},"SBSV":{"icaoId":"SBSV","flightCategory":"VFR","rawOb":"METAR SBSV 272100Z 13008KT 9999 SCT022 SCT050 28/24 Q1012","temp":28,"dewp":24,"wdir":130,"wspd":8,"visib":"6+","altim":1012,"clouds":[{"cover":"SCT","base":2200},{"cover":"SCT","base":5000}],"obsTime":1774645200},"SBFI":{"icaoId":"SBFI","flightCategory":"VFR","rawOb":"METAR SBFI 272100Z 04004KT 9999 FEW040 SCT070 32/23 Q1013","temp":32,"dewp":23,"wdir":40,"wspd":4,"visib":"6+","altim":1013,"clouds":[{"cover":"FEW","base":4000},{"cover":"SCT","base":7000}],"obsTime":1774645200},"SBTE":{"icaoId":"SBTE","flightCategory":"VFR","rawOb":"METAR SBTE 272100Z 29004KT 9999 VCTS FEW030CB 29/25 Q1008","temp":29,"dewp":25,"wdir":290,"wspd":4,"visib":"6+","altim":1008,"clouds":[{"cover":"FEW","base":3000}],"obsTime":1774645200},"SBUL":{"icaoId":"SBUL","flightCategory":"VFR","rawOb":"METAR SBUL 272100Z 07006KT 9999 VCSH SCT042 FEW049TCU SCT080 25/19 Q1018","temp":25,"dewp":19,"wdir":70,"wspd":6,"visib":"6+","altim":1018,"clouds":[{"cover":"SCT","base":4200},{"cover":"FEW","base":4900},{"cover":"SCT","base":8000}],"obsTime":1774645200},"SBLO":{"icaoId":"SBLO","flightCategory":"VFR","rawOb":"METAR SBLO 272100Z 08005KT 9999 FEW040 30/20 Q1015","temp":30,"dewp":20,"wdir":80,"wspd":5,"visib":"6+","altim":1015,"clouds":[{"cover":"FEW","base":4000}],"obsTime":1774645200},"SBUR":{"icaoId":"SBUR","flightCategory":"VFR","rawOb":"METAR SBUR 272100Z 15004KT CAVOK 27/19 Q1017","temp":27,"dewp":19,"wdir":150,"wspd":4,"visib":"6+","altim":1017,"clouds":[],"obsTime":1774645200},"SBFL":{"icaoId":"SBFL","flightCategory":"VFR","rawOb":"METAR SBFL 272100Z VRB06KT 9999 FEW040TCU 29/24 Q1016","temp":29,"dewp":24,"wdir":"VRB","wspd":6,"visib":"6+","altim":1016,"clouds":[{"cover":"FEW","base":4000}],"obsTime":1774645200},"SBVT":{"icaoId":"SBVT","flightCategory":"MVFR","rawOb":"METAR SBVT 272100Z 18010KT 9999 VCSH SCT015 BKN020 FEW030TCU 25/22 Q1017","temp":25,"dewp":22,"wdir":180,"wspd":10,"visib":"6+","altim":1017,"clouds":[{"cover":"SCT","base":1500},{"cover":"BKN","base":2000},{"cover":"FEW","base":3000}],"obsTime":1774645200},"SBCB":{"icaoId":"SBCB","flightCategory":"VFR","rawOb":"METAR SBCB 272100Z 09010KT CAVOK 26/23 Q1018","temp":26,"dewp":23,"wdir":90,"wspd":10,"visib":"6+","altim":1018,"clouds":[],"obsTime":1774645200},"SBCR":{"icaoId":"SBCR","flightCategory":"VFR","rawOb":"METAR SBCR 272100Z 17004KT 130V210 9999 FEW030 28/23 Q1010","temp":28,"dewp":23,"wdir":170,"wspd":4,"visib":"6+","altim":1010,"clouds":[{"cover":"FEW","base":3000}],"obsTime":1774645200},"SBHT":{"icaoId":"SBHT","flightCategory":"VFR","rawOb":"METAR SBHT 272100Z 14002KT 9999 FEW025 SCT100 30/24 Q1006","temp":30,"dewp":24,"wdir":140,"wspd":2,"visib":"6+","altim":1006,"clouds":[{"cover":"FEW","base":2500},{"cover":"SCT","base":10000}],"obsTime":1774645200},"SBPS":{"icaoId":"SBPS","flightCategory":"VFR","rawOb":"METAR SBPS 272100Z 18004KT 9999 SCT020 26/24 Q1014","temp":26,"dewp":24,"wdir":180,"wspd":4,"visib":"6+","altim":1014,"clouds":[{"cover":"SCT","base":2000}],"obsTime":1774645200},"SBCO":{"icaoId":"SBCO","flightCategory":"VFR","rawOb":"METAR SBCO 272100Z 11007KT 9999 VCTS FEW030CB 32/24 Q1014","temp":32,"dewp":24,"wdir":110,"wspd":7,"visib":"6+","altim":1014,"clouds":[{"cover":"FEW","base":3000}],"obsTime":1774645200},"SBPL":{"icaoId":"SBPL","flightCategory":"MVFR","rawOb":"METAR SBPL 272100Z 08011KT 9999 BKN025 FEW030TCU 28/21 Q1012","temp":28,"dewp":21,"wdir":80,"wspd":11,"visib":"6+","altim":1012,"clouds":[{"cover":"BKN","base":2500},{"cover":"FEW","base":3000}],"obsTime":1774645200},"SBDN":{"icaoId":"SBDN","flightCategory":"VFR","rawOb":"METAR SBDN 272100Z 07006KT CAVOK 31/18 Q1014","temp":31,"dewp":18,"wdir":70,"wspd":6,"visib":"6+","altim":1014,"clouds":[],"obsTime":1774645200},"SBAR":{"icaoId":"SBAR","flightCategory":"VFR","rawOb":"METAR SBAR 272100Z 15009KT 9999 VCSH FEW020 FEW023TCU 28/24 Q1011","temp":28,"dewp":24,"wdir":150,"wspd":9,"visib":"6+","altim":1011,"clouds":[{"cover":"FEW","base":2000},{"cover":"FEW","base":2300}],"obsTime":1774645200},"SBBU":{"icaoId":"SBBU","flightCategory":"VFR","rawOb":"METAR SBBU 272100Z 10007KT CAVOK 30/19 Q1016","temp":30,"dewp":19,"wdir":100,"wspd":7,"visib":"6+","altim":1016,"clouds":[],"obsTime":1774645200},"SBUY":{"icaoId":"SBUY","flightCategory":"VFR","rawOb":"METAR SBUY 272100Z 12006KT 9999 SCT025 FEW030TCU BKN090 27/24 Q1005","temp":27,"dewp":24,"wdir":120,"wspd":6,"visib":"6+","altim":1005,"clouds":[{"cover":"SCT","base":2500},{"cover":"FEW","base":3000},{"cover":"BKN","base":9000}],"obsTime":1774645200},"SBVH":{"icaoId":"SBVH","flightCategory":"MVFR","rawOb":"METAR SBVH 272100Z 32012KT 9999 SCT010 BKN014 BKN100 22/21 Q1012","temp":22,"dewp":21,"wdir":320,"wspd":12,"visib":"6+","altim":1012,"clouds":[{"cover":"SCT","base":1000},{"cover":"BKN","base":1400},{"cover":"BKN","base":10000}],"obsTime":1774645200},"SBAX":{"icaoId":"SBAX","flightCategory":"VFR","rawOb":"METAR SBAX 272100Z 10005KT 9999 FEW020 25/17 Q1019","temp":25,"dewp":17,"wdir":100,"wspd":5,"visib":"6+","altim":1019,"clouds":[{"cover":"FEW","base":2000}],"obsTime":1774645200},"SBSC":{"icaoId":"SBSC","flightCategory":"VFR","rawOb":"METAR SBSC 272100Z 13006KT CAVOK 28/21 Q1016","temp":28,"dewp":21,"wdir":130,"wspd":6,"visib":"6+","altim":1016,"clouds":[],"obsTime":1774645200},"SBES":{"icaoId":"SBES","flightCategory":"VFR","rawOb":"METAR SBES 272100Z 09008KT 9999 FEW040 25/// Q1018","temp":null,"dewp":null,"wdir":90,"wspd":8,"visib":"6+","altim":1018,"clouds":[{"cover":"FEW","base":4000}],"obsTime":1774645200},"SBSJ":{"icaoId":"SBSJ","flightCategory":"VFR","rawOb":"METAR SBSJ 272100Z 12015KT 9999 FEW035 25/20 Q1018","temp":25,"dewp":20,"wdir":120,"wspd":15,"visib":"6+","altim":1018,"clouds":[{"cover":"FEW","base":3500}],"obsTime":1774645200},"SBCA":{"icaoId":"SBCA","flightCategory":"VFR","rawOb":"METAR SBCA 272100Z 07011KT 9999 SCT020 FEW025TCU 25/21 Q1018","temp":25,"dewp":21,"wdir":70,"wspd":11,"visib":"6+","altim":1018,"clouds":[{"cover":"SCT","base":2000},{"cover":"FEW","base":2500}],"obsTime":1774645200},"SBSM":{"icaoId":"SBSM","flightCategory":"VFR","rawOb":"METAR SBSM 272100Z 05004KT 9999 FEW040TCU 29/25 Q1013","temp":29,"dewp":25,"wdir":50,"wspd":4,"visib":"6+","altim":1013,"clouds":[{"cover":"FEW","base":4000}],"obsTime":1774645200},"SBIP":{"icaoId":"SBIP","flightCategory":"VFR","rawOb":"METAR SBIP 272100Z AUTO 21003KT CAVOK 24/21 Q1016","temp":24,"dewp":21,"wdir":210,"wspd":3,"visib":"6+","altim":1016,"clouds":[],"obsTime":1774645200},"SBSR":{"icaoId":"SBSR","flightCategory":"VFR","rawOb":"METAR SBSR 272100Z 09006KT 9999 FEW035 30/15 Q1015","temp":30,"dewp":15,"wdir":90,"wspd":6,"visib":"6+","altim":1015,"clouds":[{"cover":"FEW","base":3500}],"obsTime":1774645200},"SBBH":{"icaoId":"SBBH","flightCategory":"VFR","rawOb":"METAR SBBH 272100Z 08007KT CAVOK 26/15 Q1019","temp":26,"dewp":15,"wdir":80,"wspd":7,"visib":"6+","altim":1019,"clouds":[],"obsTime":1774645200},"SBTF":{"icaoId":"SBTF","flightCategory":"MVFR","rawOb":"METAR SBTF 272100Z COR 20009KT 5000 TSRA SCT010 SCT025CB OVC080 25/25 Q1007","temp":25,"dewp":25,"wdir":200,"wspd":9,"visib":3.11,"altim":1007,"clouds":[{"cover":"SCT","base":1000},{"cover":"SCT","base":2500},{"cover":"OVC","base":8000}],"obsTime":1774645200},"SBKG":{"icaoId":"SBKG","flightCategory":"MVFR","rawOb":"METAR SBKG 272100Z 13009KT 9999 -RA BKN020 22/21 Q1012 RERA","temp":22,"dewp":21,"wdir":130,"wspd":9,"visib":"6+","altim":1012,"clouds":[{"cover":"BKN","base":2000}],"obsTime":1774645200},"SBTT":{"icaoId":"SBTT","flightCategory":"VFR","rawOb":"METAR SBTT 272100Z 21006KT 9999 FEW030 31/23 Q1005","temp":31,"dewp":23,"wdir":210,"wspd":6,"visib":"6+","altim":1005,"clouds":[{"cover":"FEW","base":3000}],"obsTime":1774645200},"SBOI":{"icaoId":"SBOI","flightCategory":"VFR","rawOb":"METAR SBOI 272100Z AUTO 36003KT 330V040 CAVOK 25/24 Q1009","temp":25,"dewp":24,"wdir":360,"wspd":3,"visib":"6+","altim":1009,"clouds":[],"obsTime":1774645200},"SBPB":{"icaoId":"SBPB","flightCategory":"MVFR","rawOb":"METAR SBPB 272100Z 06009KT 9999 BKN016 BKN080 28/25 Q1008","temp":28,"dewp":25,"wdir":60,"wspd":9,"visib":"6+","altim":1008,"clouds":[{"cover":"BKN","base":1600},{"cover":"BKN","base":8000}],"obsTime":1774645200},"SBCJ":{"icaoId":"SBCJ","flightCategory":"VFR","rawOb":"METAR SBCJ 272100Z 10003KT 9999 SCT013 FEW025TCU 23/21 Q1013","temp":23,"dewp":21,"wdir":100,"wspd":3,"visib":"6+","altim":1013,"clouds":[{"cover":"SCT","base":1300},{"cover":"FEW","base":2500}],"obsTime":1774645200},"SBPP":{"icaoId":"SBPP","flightCategory":"VFR","rawOb":"METAR SBPP 272100Z 06005KT 9999 SCT025 28/21 Q1014","temp":28,"dewp":21,"wdir":60,"wspd":5,"visib":"6+","altim":1014,"clouds":[{"cover":"SCT","base":2500}],"obsTime":1774645200},"SBMT":{"icaoId":"SBMT","flightCategory":"VFR","rawOb":"METAR SBMT 272100Z 14009KT 100V180 CAVOK 24/19 Q1020","temp":24,"dewp":19,"wdir":140,"wspd":9,"visib":"6+","altim":1020,"clouds":[],"obsTime":1774645200},"SBTA":{"icaoId":"SBTA","flightCategory":"VFR","rawOb":"METAR SBTA 272100Z 16007KT 140V210 9999 FEW035 SCT060 27/21 Q1017","temp":27,"dewp":21,"wdir":160,"wspd":7,"visib":"6+","altim":1017,"clouds":[{"cover":"FEW","base":3500},{"cover":"SCT","base":6000}],"obsTime":1774645200},"SBLE":{"icaoId":"SBLE","flightCategory":"VFR","rawOb":"METAR SBLE 272100Z AUTO 15003KT CAVOK 26/20 Q1014","temp":26,"dewp":20,"wdir":150,"wspd":3,"visib":"6+","altim":1014,"clouds":[],"obsTime":1774645200},"SBNM":{"icaoId":"SBNM","flightCategory":"VFR","rawOb":"METAR SBNM 272100Z 31002KT 9999 FEW025 30/24 Q1014","temp":30,"dewp":24,"wdir":310,"wspd":2,"visib":"6+","altim":1014,"clouds":[{"cover":"FEW","base":2500}],"obsTime":1774645200},"SBPF":{"icaoId":"SBPF","flightCategory":"VFR","rawOb":"METAR SBPF 272100Z 00000KT CAVOK 30/18 Q1018","temp":30,"dewp":18,"wdir":0,"wspd":0,"visib":"6+","altim":1018,"clouds":[],"obsTime":1774645200},"SBIH":{"icaoId":"SBIH","flightCategory":"VFR","rawOb":"METAR SBIH 272100Z 06003KT 9999 FEW013 FEW025TCU BKN100 26/24 Q1006","temp":26,"dewp":24,"wdir":60,"wspd":3,"visib":"6+","altim":1006,"clouds":[{"cover":"FEW","base":1300},{"cover":"FEW","base":2500},{"cover":"BKN","base":10000}],"obsTime":1774645200},"SBAF":{"icaoId":"SBAF","flightCategory":"VFR","rawOb":"METAR SBAF 272100Z 20007KT 9999 FEW040 28/22 Q1016","temp":28,"dewp":22,"wdir":200,"wspd":7,"visib":"6+","altim":1016,"clouds":[{"cover":"FEW","base":4000}],"obsTime":1774645200},"SBJP":{"icaoId":"SBJP","flightCategory":"VFR","rawOb":"METAR SBJP 272100Z 10009KT 070V140 9999 SCT021 FEW025TCU 28/24 Q1010","temp":28,"dewp":24,"wdir":100,"wspd":9,"visib":"6+","altim":1010,"clouds":[{"cover":"SCT","base":2100},{"cover":"FEW","base":2500}],"obsTime":1774645200},"SBGW":{"icaoId":"SBGW","flightCategory":"VFR","rawOb":"METAR SBGW 272100Z 03004KT 9999 FEW030 27/15 Q1018","temp":27,"dewp":15,"wdir":30,"wspd":4,"visib":"6+","altim":1018,"clouds":[{"cover":"FEW","base":3000}],"obsTime":1774645200},"SBAN":{"icaoId":"SBAN","flightCategory":"VFR","rawOb":"METAR SBAN 272100Z 14005KT 9999 FEW040 24/16 Q1018","temp":24,"dewp":16,"wdir":140,"wspd":5,"visib":"6+","altim":1018,"clouds":[{"cover":"FEW","base":4000}],"obsTime":1774645200},"SBJR":{"icaoId":"SBJR","flightCategory":"VFR","rawOb":"METAR SBJR 272100Z 12009KT 9999 FEW016 28/21 Q1016","temp":28,"dewp":21,"wdir":120,"wspd":9,"visib":"6+","altim":1016,"clouds":[{"cover":"FEW","base":1600}],"obsTime":1774645200},"SBLS":{"icaoId":"SBLS","flightCategory":"VFR","rawOb":"METAR SBLS 272100Z 14008KT 9999 FEW045 25/15 Q1019","temp":25,"dewp":15,"wdir":140,"wspd":8,"visib":"6+","altim":1019,"clouds":[{"cover":"FEW","base":4500}],"obsTime":1774645200},"SBJV":{"icaoId":"SBJV","flightCategory":"VFR","rawOb":"METAR SBJV 272100Z 05006KT 010V080 9999 FEW015 SCT030 29/25 Q1016","temp":29,"dewp":25,"wdir":50,"wspd":6,"visib":"6+","altim":1016,"clouds":[{"cover":"FEW","base":1500},{"cover":"SCT","base":3000}],"obsTime":1774645200},"SBST":{"icaoId":"SBST","flightCategory":"MVFR","rawOb":"METAR SBST 272100Z 16004KT 8000 SCT030 26/23 Q1016","temp":26,"dewp":23,"wdir":160,"wspd":4,"visib":4.97,"altim":1016,"clouds":[{"cover":"SCT","base":3000}],"obsTime":1774645200}}}