{"updated":1776515550,"count":84,"data":{"SBKP":{"icaoId":"SBKP","flightCategory":"VFR","rawOb":"METAR SBKP 181100Z 06003KT 030V100 9999 VCSH FEW045TCU BKN060 21/17 Q1013","temp":21,"dewp":17,"wdir":60,"wspd":3,"visib":"6+","altim":1013,"clouds":[{"cover":"FEW","base":4500},{"cover":"BKN","base":6000}],"obsTime":1776510000},"SBAT":{"icaoId":"SBAT","flightCategory":"IFR","rawOb":"METAR SBAT 181100Z 00000KT 8000 BKN007 SCT090 24/24 Q1011","temp":24,"dewp":24,"wdir":0,"wspd":0,"visib":4.97,"altim":1011,"clouds":[{"cover":"BKN","base":700},{"cover":"SCT","base":9000}],"obsTime":1776510000},"SBVT":{"icaoId":"SBVT","flightCategory":"VFR","rawOb":"METAR SBVT 181100Z 35003KT CAVOK 25/22 Q1011","temp":25,"dewp":22,"wdir":350,"wspd":3,"visib":"6+","altim":1011,"clouds":[],"obsTime":1776510000},"SBBE":{"icaoId":"SBBE","flightCategory":"VFR","rawOb":"METAR SBBE 181100Z 08004KT 9999 FEW017 26/25 Q1008","temp":26,"dewp":25,"wdir":80,"wspd":4,"visib":"6+","altim":1008,"clouds":[{"cover":"FEW","base":1700}],"obsTime":1776510000},"SBUR":{"icaoId":"SBUR","flightCategory":"VFR","rawOb":"METAR SBUR 181100Z 04007KT CAVOK 22/16 Q1014","temp":22,"dewp":16,"wdir":40,"wspd":7,"visib":"6+","altim":1014,"clouds":[],"obsTime":1776510000},"SBBR":{"icaoId":"SBBR","flightCategory":"VFR","rawOb":"METAR SBBR 181100Z 35002KT CAVOK 20/18 Q1016","temp":20,"dewp":18,"wdir":350,"wspd":2,"visib":"6+","altim":1016,"clouds":[],"obsTime":1776510000},"SBUL":{"icaoId":"SBUL","flightCategory":"VFR","rawOb":"METAR SBUL 181100Z 11004KT CAVOK 22/15 Q1015","temp":22,"dewp":15,"wdir":110,"wspd":4,"visib":"6+","altim":1015,"clouds":[],"obsTime":1776510000},"SBBV":{"icaoId":"SBBV","flightCategory":"VFR","rawOb":"METAR SBBV 181100Z 09002KT 9999 FEW030 SCT070 26/23 Q1010","temp":26,"dewp":23,"wdir":90,"wspd":2,"visib":"6+","altim":1010,"clouds":[{"cover":"FEW","base":3000},{"cover":"SCT","base":7000}],"obsTime":1776510000},"SBTE":{"icaoId":"SBTE","flightCategory":"VFR","rawOb":"METAR SBTE 181100Z 01002KT CAVOK 27/24 Q1008","temp":27,"dewp":24,"wdir":10,"wspd":2,"visib":"6+","altim":1008,"clouds":[],"obsTime":1776510000},"SBCB":{"icaoId":"SBCB","flightCategory":"MVFR","rawOb":"METAR SBCB 181100Z 04007KT 9999 SCT010 BKN020 24/22 Q1009","temp":24,"dewp":22,"wdir":40,"wspd":7,"visib":"6+","altim":1009,"clouds":[{"cover":"SCT","base":1000},{"cover":"BKN","base":2000}],"obsTime":1776510000},"SBSV":{"icaoId":"SBSV","flightCategory":"VFR","rawOb":"METAR SBSV 181100Z 10004KT 050V160 9999 SCT023 29/23 Q1010","temp":29,"dewp":23,"wdir":100,"wspd":4,"visib":"6+","altim":1010,"clouds":[{"cover":"SCT","base":2300}],"obsTime":1776510000},"SBCF":{"icaoId":"SBCF","flightCategory":"MVFR","rawOb":"METAR SBCF 181100Z VRB02KT 8000 NSC 18/16 Q1015","temp":18,"dewp":16,"wdir":"VRB","wspd":2,"visib":4.97,"altim":1015,"clouds":[],"obsTime":1776510000},"SBCG":{"icaoId":"SBCG","flightCategory":"VFR","rawOb":"METAR SBCG 181100Z VRB02KT 9999 FEW025 25/22 Q1012","temp":25,"dewp":22,"wdir":"VRB","wspd":2,"visib":"6+","altim":1012,"clouds":[{"cover":"FEW","base":2500}],"obsTime":1776510000},"SBSP":{"icaoId":"SBSP","flightCategory":"VFR","rawOb":"METAR SBSP 181100Z COR 02006KT 9999 -RA BKN046 21/17 Q1015","temp":21,"dewp":17,"wdir":20,"wspd":6,"visib":"6+","altim":1015,"clouds":[{"cover":"BKN","base":4600}],"obsTime":1776510000},"SBSN":{"icaoId":"SBSN","flightCategory":"MVFR","rawOb":"METAR SBSN 181100Z 08006KT 040V130 9999 SCT011 BKN015 BKN024 27/25 Q1008","temp":27,"dewp":25,"wdir":80,"wspd":6,"visib":"6+","altim":1008,"clouds":[{"cover":"SCT","base":1100},{"cover":"BKN","base":1500},{"cover":"BKN","base":2400}],"obsTime":1776510000},"SBCP":{"icaoId":"SBCP","flightCategory":"VFR","rawOb":"METAR SBCP 181100Z 36010KT CAVOK 25/22 Q1009","temp":25,"dewp":22,"wdir":360,"wspd":10,"visib":"6+","altim":1009,"clouds":[],"obsTime":1776510000},"SBSL":{"icaoId":"SBSL","flightCategory":"VFR","rawOb":"METAR SBSL 181100Z 14005KT 9999 FEW020 27/26 Q1007","temp":27,"dewp":26,"wdir":140,"wspd":5,"visib":"6+","altim":1007,"clouds":[{"cover":"FEW","base":2000}],"obsTime":1776510000},"SBCR":{"icaoId":"SBCR","flightCategory":"VFR","rawOb":"METAR SBCR 181100Z VRB02KT CAVOK 25/23 Q1009","temp":25,"dewp":23,"wdir":"VRB","wspd":2,"visib":"6+","altim":1009,"clouds":[],"obsTime":1776510000},"SBSG":{"icaoId":"SBSG","flightCategory":"VFR","rawOb":"METAR SBSG 181100Z 16005KT 110V210 9999 FEW009 SCT050 27/25 Q1009","temp":27,"dewp":25,"wdir":160,"wspd":5,"visib":"6+","altim":1009,"clouds":[{"cover":"FEW","base":900},{"cover":"SCT","base":5000}],"obsTime":1776510000},"SBCT":{"icaoId":"SBCT","flightCategory":"VFR","rawOb":"METAR SBCT 181100Z 25004KT 9999 FEW025 18/17 Q1013","temp":18,"dewp":17,"wdir":250,"wspd":4,"visib":"6+","altim":1013,"clouds":[{"cover":"FEW","base":2500}],"obsTime":1776510000},"SBCZ":{"icaoId":"SBCZ","flightCategory":"LIFR","rawOb":"METAR SBCZ 181200Z VRB02KT 5000 -RA BKN003 SCT010 OVC080 24/23 Q1010","temp":24,"dewp":23,"wdir":"VRB","wspd":2,"visib":3.11,"altim":1010,"clouds":[{"cover":"BKN","base":300},{"cover":"SCT","base":1000},{"cover":"OVC","base":8000}],"obsTime":1776513600},"SBRF":{"icaoId":"SBRF","flightCategory":"MVFR","rawOb":"METAR SBRF 181100Z 12009KT 9999 BKN018 29/25 Q1009","temp":29,"dewp":25,"wdir":120,"wspd":9,"visib":"6+","altim":1009,"clouds":[{"cover":"BKN","base":1800}],"obsTime":1776510000},"SBRB":{"icaoId":"SBRB","flightCategory":"MVFR","rawOb":"METAR SBRB 181100Z 21001KT 8000 NSC 23/23 Q1010","temp":23,"dewp":23,"wdir":210,"wspd":1,"visib":4.97,"altim":1010,"clouds":[],"obsTime":1776510000},"SBEG":{"icaoId":"SBEG","flightCategory":"VFR","rawOb":"METAR SBEG 181100Z 00000KT 9999 FEW006 SCT100 24/24 Q1010","temp":24,"dewp":24,"wdir":0,"wspd":0,"visib":"6+","altim":1010,"clouds":[{"cover":"FEW","base":600},{"cover":"SCT","base":10000}],"obsTime":1776510000},"SBFI":{"icaoId":"SBFI","flightCategory":"VFR","rawOb":"METAR SBFI 181100Z 13003KT 9999 0600SE R33/0700U R15/P2000N BCFG FEW005 18/18 Q1011","temp":18,"dewp":18,"wdir":130,"wspd":3,"visib":"6+","altim":1011,"clouds":[{"cover":"FEW","base":500}],"obsTime":1776510000},"SBPV":{"icaoId":"SBPV","flightCategory":"MVFR","rawOb":"SPECI SBPV 181036Z 00000KT 7000 -RA SCT004 BKN030 24/23 Q1008","temp":24,"dewp":23,"wdir":0,"wspd":0,"visib":4.35,"altim":1008,"clouds":[{"cover":"SCT","base":400},{"cover":"BKN","base":3000}],"obsTime":1776508560},"SBPJ":{"icaoId":"SBPJ","flightCategory":"VFR","rawOb":"METAR SBPJ 181100Z 05003KT 9999 FEW010 FEW027TCU SCT040 26/25 Q1011","temp":26,"dewp":25,"wdir":50,"wspd":3,"visib":"6+","altim":1011,"clouds":[{"cover":"FEW","base":1000},{"cover":"FEW","base":2700},{"cover":"SCT","base":4000}],"obsTime":1776510000},"SBFL":{"icaoId":"SBFL","flightCategory":"VFR","rawOb":"METAR SBFL 181100Z 26003KT 9999 FEW040 SCT080 23/22 Q1008","temp":23,"dewp":22,"wdir":260,"wspd":3,"visib":"6+","altim":1008,"clouds":[{"cover":"FEW","base":4000},{"cover":"SCT","base":8000}],"obsTime":1776510000},"SBPA":{"icaoId":"SBPA","flightCategory":"VFR","rawOb":"METAR SBPA 181100Z 29010KT 9999 FEW020 20/18 Q1009","temp":20,"dewp":18,"wdir":290,"wspd":10,"visib":"6+","altim":1009,"clouds":[{"cover":"FEW","base":2000}],"obsTime":1776510000},"SBFZ":{"icaoId":"SBFZ","flightCategory":"VFR","rawOb":"METAR SBFZ 181100Z 16008KT 9999 SCT016 BKN060 29/25 Q1008","temp":29,"dewp":25,"wdir":160,"wspd":8,"visib":"6+","altim":1008,"clouds":[{"cover":"SCT","base":1600},{"cover":"BKN","base":6000}],"obsTime":1776510000},"SBGL":{"icaoId":"SBGL","flightCategory":"VFR","rawOb":"METAR SBGL 181100Z 26009KT 9000 NSC 26/21 Q1009","temp":26,"dewp":21,"wdir":260,"wspd":9,"visib":5.59,"altim":1009,"clouds":[],"obsTime":1776510000},"SBNT":{"icaoId":"SBNT","flightCategory":"VFR","rawOb":"METAR SBNT 181100Z 16009KT 9999 SCT014 FEW030TCU SCT033 BKN080 28/24 Q1009","temp":28,"dewp":24,"wdir":160,"wspd":9,"visib":"6+","altim":1009,"clouds":[{"cover":"SCT","base":1400},{"cover":"FEW","base":3000},{"cover":"SCT","base":3300},{"cover":"BKN","base":8000}],"obsTime":1776510000},"SBMQ":{"icaoId":"SBMQ","flightCategory":"IFR","rawOb":"METAR SBMQ 181100Z 36006KT 9999 BKN007 BKN080 26/25 Q1009","temp":26,"dewp":25,"wdir":360,"wspd":6,"visib":"6+","altim":1009,"clouds":[{"cover":"BKN","base":700},{"cover":"BKN","base":8000}],"obsTime":1776510000},"SBGO":{"icaoId":"SBGO","flightCategory":"VFR","rawOb":"METAR SBGO 181100Z 11002KT CAVOK 22/20 Q1014","temp":22,"dewp":20,"wdir":110,"wspd":2,"visib":"6+","altim":1014,"clouds":[],"obsTime":1776510000},"SBMO":{"icaoId":"SBMO","flightCategory":"VFR","rawOb":"METAR SBMO 181100Z 28003KT 9999 VCSH SCT017 26/25 Q1010","temp":26,"dewp":25,"wdir":280,"wspd":3,"visib":"6+","altim":1010,"clouds":[{"cover":"SCT","base":1700}],"obsTime":1776510000},"SBGR":{"icaoId":"SBGR","flightCategory":"VFR","rawOb":"METAR SBGR 181100Z 05008KT 9000 VCSH FEW007 SCT046 FEW050TCU BKN090 21/17 Q1014","temp":21,"dewp":17,"wdir":50,"wspd":8,"visib":5.59,"altim":1014,"clouds":[{"cover":"FEW","base":700},{"cover":"SCT","base":4600},{"cover":"FEW","base":5000},{"cover":"BKN","base":9000}],"obsTime":1776510000},"SBMK":{"icaoId":"SBMK","flightCategory":"VFR","rawOb":"METAR SBMK 181100Z 27002KT CAVOK 22/15 Q1014","temp":22,"dewp":15,"wdir":270,"wspd":2,"visib":"6+","altim":1014,"clouds":[],"obsTime":1776510000},"SBHT":{"icaoId":"SBHT","flightCategory":"VFR","rawOb":"METAR SBHT 181100Z 00000KT 9999 FEW010 BKN080 25/24 Q1008","temp":25,"dewp":24,"wdir":0,"wspd":0,"visib":"6+","altim":1008,"clouds":[{"cover":"FEW","base":1000},{"cover":"BKN","base":8000}],"obsTime":1776510000},"SBMG":{"icaoId":"SBMG","flightCategory":"LIFR","rawOb":"METAR SBMG 181100Z COR 17005KT 0900 R10/P2000N FG FEW002 BKN030 21/20 Q1012","temp":21,"dewp":20,"wdir":170,"wspd":5,"visib":0.56,"altim":1012,"clouds":[{"cover":"FEW","base":200},{"cover":"BKN","base":3000}],"obsTime":1776510000},"SBIL":{"icaoId":"SBIL","flightCategory":"VFR","rawOb":"METAR SBIL 181100Z 29004KT 250V340 9999 FEW020 26/24 Q1011","temp":26,"dewp":24,"wdir":290,"wspd":4,"visib":"6+","altim":1011,"clouds":[{"cover":"FEW","base":2000}],"obsTime":1776510000},"SBME":{"icaoId":"SBME","flightCategory":"VFR","rawOb":"METAR SBME 181100Z 04005KT CAVOK 25/21 Q1008","temp":25,"dewp":21,"wdir":40,"wspd":5,"visib":"6+","altim":1008,"clouds":[],"obsTime":1776510000},"SBJU":{"icaoId":"SBJU","flightCategory":"VFR","rawOb":"METAR SBJU 181100Z 12006KT 9999 SCT020 27/23 Q1011","temp":27,"dewp":23,"wdir":120,"wspd":6,"visib":"6+","altim":1011,"clouds":[{"cover":"SCT","base":2000}],"obsTime":1776510000},"SBMA":{"icaoId":"SBMA","flightCategory":"IFR","rawOb":"METAR SBMA 181100Z 00000KT 3000 -RA BR SCT006 BKN012 OVC080 25/25 Q1009","temp":25,"dewp":25,"wdir":0,"wspd":0,"visib":1.86,"altim":1009,"clouds":[{"cover":"SCT","base":600},{"cover":"BKN","base":1200},{"cover":"OVC","base":8000}],"obsTime":1776510000},"SBLO":{"icaoId":"SBLO","flightCategory":"VFR","rawOb":"METAR SBLO 181100Z VRB02KT CAVOK 23/21 Q1012","temp":23,"dewp":21,"wdir":"VRB","wspd":2,"visib":"6+","altim":1012,"clouds":[],"obsTime":1776510000},"SBCC":{"icaoId":"SBCC","flightCategory":"VFR","rawOb":"METAR SBCC 181100Z 36002KT 9999 SCT004 22/21 Q1012","temp":22,"dewp":21,"wdir":360,"wspd":2,"visib":"6+","altim":1012,"clouds":[{"cover":"SCT","base":400}],"obsTime":1776510000},"SBAX":{"icaoId":"SBAX","flightCategory":"VFR","rawOb":"METAR SBAX 181100Z AUTO 10003KT 070V130 CAVOK 21/16 Q1016","temp":21,"dewp":16,"wdir":100,"wspd":3,"visib":"6+","altim":1016,"clouds":[],"obsTime":1776510000},"SBBH":{"icaoId":"SBBH","flightCategory":"VFR","rawOb":"METAR SBBH 181100Z 00000KT CAVOK 21/16 Q1015","temp":21,"dewp":16,"wdir":0,"wspd":0,"visib":"6+","altim":1015,"clouds":[],"obsTime":1776510000},"SBBQ":{"icaoId":"SBBQ","flightCategory":"VFR","rawOb":"METAR SBBQ 181200Z 28004KT 190V320 CAVOK 21/15 Q1018","temp":21,"dewp":15,"wdir":280,"wspd":4,"visib":"6+","altim":1018,"clouds":[],"obsTime":1776513600},"SBBU":{"icaoId":"SBBU","flightCategory":"VFR","rawOb":"METAR SBBU 181100Z 05002KT CAVOK 25/20 Q1012","temp":25,"dewp":20,"wdir":50,"wspd":2,"visib":"6+","altim":1012,"clouds":[],"obsTime":1776510000},"SBCA":{"icaoId":"SBCA","flightCategory":"VFR","rawOb":"METAR SBCA 181100Z VRB01KT CAVOK 19/18 Q1014","temp":19,"dewp":18,"wdir":"VRB","wspd":1,"visib":"6+","altim":1014,"clouds":[],"obsTime":1776510000},"SBAR":{"icaoId":"SBAR","flightCategory":"VFR","rawOb":"METAR SBAR 181100Z 12008KT 9999 SCT025 29/23 Q1010","temp":29,"dewp":23,"wdir":120,"wspd":8,"visib":"6+","altim":1010,"clouds":[{"cover":"SCT","base":2500}],"obsTime":1776510000},"SBCJ":{"icaoId":"SBCJ","flightCategory":"VFR","rawOb":"METAR SBCJ 181100Z 00000KT 9999 SCT010 BKN080 22/20 Q1013","temp":22,"dewp":20,"wdir":0,"wspd":0,"visib":"6+","altim":1013,"clouds":[{"cover":"SCT","base":1000},{"cover":"BKN","base":8000}],"obsTime":1776510000},"SBCO":{"icaoId":"SBCO","flightCategory":"VFR","rawOb":"METAR SBCO 181100Z 29009KT CAVOK 20/17 Q1010","temp":20,"dewp":17,"wdir":290,"wspd":9,"visib":"6+","altim":1010,"clouds":[],"obsTime":1776510000},"SBDN":{"icaoId":"SBDN","flightCategory":"VFR","rawOb":"METAR SBDN 181100Z 00000KT CAVOK 25/20 Q1011","temp":25,"dewp":20,"wdir":0,"wspd":0,"visib":"6+","altim":1011,"clouds":[],"obsTime":1776510000},"SBES":{"icaoId":"SBES","flightCategory":"VFR","rawOb":"METAR SBES 181100Z VRB05KT 9000 SCT006 22/// Q1009","temp":null,"dewp":null,"wdir":"VRB","wspd":5,"visib":5.59,"altim":1009,"clouds":[{"cover":"SCT","base":600}],"obsTime":1776510000},"SBGM":{"icaoId":"SBGM","flightCategory":"LIFR","rawOb":"METAR SBGM 181200Z VRB01KT 0400 FU OVC010 24/21 Q1010","temp":24,"dewp":21,"wdir":"VRB","wspd":1,"visib":0.25,"altim":1010,"clouds":[{"cover":"OVC","base":1000}],"obsTime":1776513600},"SBIP":{"icaoId":"SBIP","flightCategory":"LIFR","rawOb":"METAR SBIP 181100Z AUTO 00000KT 9999 BKN002 20/20 Q1013","temp":20,"dewp":20,"wdir":0,"wspd":0,"visib":"6+","altim":1013,"clouds":[{"cover":"BKN","base":200}],"obsTime":1776510000},"SBKG":{"icaoId":"SBKG","flightCategory":"MVFR","rawOb":"METAR SBKG 181100Z 12008KT 9999 BKN015 24/22 Q1012","temp":24,"dewp":22,"wdir":120,"wspd":8,"visib":"6+","altim":1012,"clouds":[{"cover":"BKN","base":1500}],"obsTime":1776510000},"SBOI":{"icaoId":"SBOI","flightCategory":"VFR","rawOb":"METAR SBOI 181100Z AUTO 03004KT 9999 SCT014 26/24 Q1009","temp":26,"dewp":24,"wdir":30,"wspd":4,"visib":"6+","altim":1009,"clouds":[{"cover":"SCT","base":1400}],"obsTime":1776510000},"SBPB":{"icaoId":"SBPB","flightCategory":"VFR","rawOb":"METAR SBPB 181100Z 11007KT 9999 FEW020 28/25 Q1007","temp":28,"dewp":25,"wdir":110,"wspd":7,"visib":"6+","altim":1007,"clouds":[{"cover":"FEW","base":2000}],"obsTime":1776510000},"SBPL":{"icaoId":"SBPL","flightCategory":"MVFR","rawOb":"METAR SBPL 181100Z 12008KT 9999 BKN025 27/21 Q1011","temp":27,"dewp":21,"wdir":120,"wspd":8,"visib":"6+","altim":1011,"clouds":[{"cover":"BKN","base":2500}],"obsTime":1776510000},"SBPP":{"icaoId":"SBPP","flightCategory":"VFR","rawOb":"SPECI SBPP 181115Z 05005KT 9999 SCT015 22/21 Q1013","temp":22,"dewp":21,"wdir":50,"wspd":5,"visib":"6+","altim":1013,"clouds":[{"cover":"SCT","base":1500}],"obsTime":1776510900},"SBPS":{"icaoId":"SBPS","flightCategory":"VFR","rawOb":"METAR SBPS 181100Z 25004KT 9999 FEW020 25/23 Q1011","temp":25,"dewp":23,"wdir":250,"wspd":4,"visib":"6+","altim":1011,"clouds":[{"cover":"FEW","base":2000}],"obsTime":1776510000},"SBSC":{"icaoId":"SBSC","flightCategory":"VFR","rawOb":"METAR SBSC 181100Z 35005KT 9999 FEW020 25/21 Q1009","temp":25,"dewp":21,"wdir":350,"wspd":5,"visib":"6+","altim":1009,"clouds":[{"cover":"FEW","base":2000}],"obsTime":1776510000},"SBSJ":{"icaoId":"SBSJ","flightCategory":"VFR","rawOb":"METAR SBSJ 181100Z 35002KT CAVOK 19/17 Q1013","temp":19,"dewp":17,"wdir":350,"wspd":2,"visib":"6+","altim":1013,"clouds":[],"obsTime":1776510000},"SBSM":{"icaoId":"SBSM","flightCategory":"VFR","rawOb":"METAR SBSM 181100Z 00000KT CAVOK 18/17 Q1012","temp":18,"dewp":17,"wdir":0,"wspd":0,"visib":"6+","altim":1012,"clouds":[],"obsTime":1776510000},"SBSR":{"icaoId":"SBSR","flightCategory":"VFR","rawOb":"METAR SBSR 181100Z 03002KT CAVOK 24/18 Q1012","temp":24,"dewp":18,"wdir":30,"wspd":2,"visib":"6+","altim":1012,"clouds":[],"obsTime":1776510000},"SBTF":{"icaoId":"SBTF","flightCategory":"VFR","rawOb":"SPECI SBTF 181115Z 35004KT 9999 SCT005 SCT090 25/25 Q1009","temp":25,"dewp":25,"wdir":350,"wspd":4,"visib":"6+","altim":1009,"clouds":[{"cover":"SCT","base":500},{"cover":"SCT","base":9000}],"obsTime":1776510900},"SBTT":{"icaoId":"SBTT","flightCategory":"IFR","rawOb":"METAR SBTT 181100Z 12002KT 4000 -RA SCT006 BKN080 23/22 Q1010","temp":23,"dewp":22,"wdir":120,"wspd":2,"visib":2.49,"altim":1010,"clouds":[{"cover":"SCT","base":600},{"cover":"BKN","base":8000}],"obsTime":1776510000},"SBUY":{"icaoId":"SBUY","flightCategory":"IFR","rawOb":"METAR SBUY 181100Z 11001KT 3000 0600E BR FEW002 BKN070 23/23 Q1008","temp":23,"dewp":23,"wdir":110,"wspd":1,"visib":1.86,"altim":1008,"clouds":[{"cover":"FEW","base":200},{"cover":"BKN","base":7000}],"obsTime":1776510000},"SBVH":{"icaoId":"SBVH","flightCategory":"VFR","rawOb":"METAR SBVH 181100Z 07003KT CAVOK 22/21 Q1012","temp":22,"dewp":21,"wdir":70,"wspd":3,"visib":"6+","altim":1012,"clouds":[],"obsTime":1776510000},"SBJV":{"icaoId":"SBJV","flightCategory":"VFR","rawOb":"METAR SBJV 181100Z 33002KT 9000 FEW003 23/22 Q1008","temp":23,"dewp":22,"wdir":330,"wspd":2,"visib":5.59,"altim":1008,"clouds":[{"cover":"FEW","base":300}],"obsTime":1776510000},"SBJP":{"icaoId":"SBJP","flightCategory":"VFR","rawOb":"METAR SBJP 181100Z 14007KT 9999 SCT020 29/25 Q1009","temp":29,"dewp":25,"wdir":140,"wspd":7,"visib":"6+","altim":1009,"clouds":[{"cover":"SCT","base":2000}],"obsTime":1776510000},"SBPF":{"icaoId":"SBPF","flightCategory":"VFR","rawOb":"METAR SBPF 181100Z 19003KT CAVOK 17/14 Q1014","temp":17,"dewp":14,"wdir":190,"wspd":3,"visib":"6+","altim":1014,"clouds":[],"obsTime":1776510000},"SBAF":{"icaoId":"SBAF","flightCategory":"VFR","rawOb":"METAR SBAF 181100Z 28008KT 9999 FEW010 SCT080 25/22 Q1010","temp":25,"dewp":22,"wdir":280,"wspd":8,"visib":"6+","altim":1010,"clouds":[{"cover":"FEW","base":1000},{"cover":"SCT","base":8000}],"obsTime":1776510000},"SBAN":{"icaoId":"SBAN","flightCategory":"VFR","rawOb":"METAR SBAN 181100Z 18003KT CAVOK 21/18 Q1017","temp":21,"dewp":18,"wdir":180,"wspd":3,"visib":"6+","altim":1017,"clouds":[],"obsTime":1776510000},"SBGW":{"icaoId":"SBGW","flightCategory":"VFR","rawOb":"METAR SBGW 181100Z 22005KT 190V270 CAVOK 19/14 Q1013","temp":19,"dewp":14,"wdir":220,"wspd":5,"visib":"6+","altim":1013,"clouds":[],"obsTime":1776510000},"SBJR":{"icaoId":"SBJR","flightCategory":"VFR","rawOb":"METAR SBJR 181100Z 24005KT CAVOK 26/21 Q1009","temp":26,"dewp":21,"wdir":240,"wspd":5,"visib":"6+","altim":1009,"clouds":[],"obsTime":1776510000},"SBLS":{"icaoId":"SBLS","flightCategory":"VFR","rawOb":"METAR SBLS 181100Z 18004KT 130V190 CAVOK 19/16 Q1015","temp":19,"dewp":16,"wdir":180,"wspd":4,"visib":"6+","altim":1015,"clouds":[],"obsTime":1776510000},"SBMT":{"icaoId":"SBMT","flightCategory":"MVFR","rawOb":"METAR SBMT 181100Z 07007KT 030V100 8000 3500W VCSH BKN026 FEW045TCU 21/17 Q1014","temp":21,"dewp":17,"wdir":70,"wspd":7,"visib":4.97,"altim":1014,"clouds":[{"cover":"BKN","base":2600},{"cover":"FEW","base":4500}],"obsTime":1776510000},"SBST":{"icaoId":"SBST","flightCategory":"MVFR","rawOb":"METAR SBST 181100Z 35007KT 8000 FEW025 22/21 Q1007","temp":22,"dewp":21,"wdir":350,"wspd":7,"visib":4.97,"altim":1007,"clouds":[{"cover":"FEW","base":2500}],"obsTime":1776510000},"SBLE":{"icaoId":"SBLE","flightCategory":"MVFR","rawOb":"METAR SBLE 181100Z AUTO 01003KT 9999 OVC017 ///// Q////","temp":null,"dewp":null,"wdir":10,"wspd":3,"visib":"6+","altim":null,"clouds":[{"cover":"OVC","base":1700}],"obsTime":1776510000},"SBTA":{"icaoId":"SBTA","flightCategory":"VFR","rawOb":"METAR SBTA 181100Z VRB02KT CAVOK 20/17 Q1013","temp":20,"dewp":17,"wdir":"VRB","wspd":2,"visib":"6+","altim":1013,"clouds":[],"obsTime":1776510000},"SBIH":{"icaoId":"SBIH","flightCategory":"MVFR","rawOb":"METAR SBIH 181100Z 22004KT 7000 SCT008 26/25 Q1008","temp":26,"dewp":25,"wdir":220,"wspd":4,"visib":4.35,"altim":1008,"clouds":[{"cover":"SCT","base":800}],"obsTime":1776510000}}}