{"updated":1773661060,"count":81,"data":{"SBPA":{"icaoId":"SBPA","flightCategory":"IFR","rawOb":"SPECI SBPA 160939Z 07005KT 4000 BR BKN005 23/21 Q1010","temp":23,"dewp":21,"wdir":70,"wspd":5,"visib":2.49,"altim":1010,"clouds":[{"cover":"BKN","base":500}],"obsTime":1773653940},"SBFL":{"icaoId":"SBFL","flightCategory":"VFR","rawOb":"METAR SBFL 161000Z 33007KT CAVOK 25/23 Q1012","temp":25,"dewp":23,"wdir":330,"wspd":7,"visib":"6+","altim":1012,"clouds":[],"obsTime":1773655200},"SBFZ":{"icaoId":"SBFZ","flightCategory":"VFR","rawOb":"METAR SBFZ 161000Z 21002KT 9999 SCT019 BKN100 26/23 Q1011","temp":26,"dewp":23,"wdir":210,"wspd":2,"visib":"6+","altim":1011,"clouds":[{"cover":"SCT","base":1900},{"cover":"BKN","base":10000}],"obsTime":1773655200},"SBMK":{"icaoId":"SBMK","flightCategory":"VFR","rawOb":"METAR SBMK 161000Z 31002KT 9999 SCT025 22/21 Q1016","temp":22,"dewp":21,"wdir":310,"wspd":2,"visib":"6+","altim":1016,"clouds":[{"cover":"SCT","base":2500}],"obsTime":1773655200},"SBCP":{"icaoId":"SBCP","flightCategory":"LIFR","rawOb":"METAR SBCP 161000Z 01002KT 0500 FG NSC 23/23 Q1013","temp":23,"dewp":23,"wdir":10,"wspd":2,"visib":0.31,"altim":1013,"clouds":[],"obsTime":1773655200},"SBMO":{"icaoId":"SBMO","flightCategory":"VFR","rawOb":"METAR SBMO 161000Z 33002KT 9999 FEW025 25/25 Q1012","temp":25,"dewp":25,"wdir":330,"wspd":2,"visib":"6+","altim":1012,"clouds":[{"cover":"FEW","base":2500}],"obsTime":1773655200},"SBCB":{"icaoId":"SBCB","flightCategory":"VFR","rawOb":"METAR SBCB 161000Z 06007KT CAVOK 25/23 Q1012","temp":25,"dewp":23,"wdir":60,"wspd":7,"visib":"6+","altim":1012,"clouds":[],"obsTime":1773655200},"SBMQ":{"icaoId":"SBMQ","flightCategory":"MVFR","rawOb":"METAR SBMQ 161000Z 36002KT 8000 FEW007 SCT070 26/25 Q1010","temp":26,"dewp":25,"wdir":360,"wspd":2,"visib":4.97,"altim":1010,"clouds":[{"cover":"FEW","base":700},{"cover":"SCT","base":7000}],"obsTime":1773655200},"SBNT":{"icaoId":"SBNT","flightCategory":"VFR","rawOb":"METAR SBNT 161000Z 00000KT 9999 FEW020 27/24 Q1012","temp":27,"dewp":24,"wdir":0,"wspd":0,"visib":"6+","altim":1012,"clouds":[{"cover":"FEW","base":2000}],"obsTime":1773655200},"SBBE":{"icaoId":"SBBE","flightCategory":"VFR","rawOb":"METAR SBBE 161000Z 16002KT 9999 -RA FEW010 SCT030 BKN080 25/25 Q1012","temp":25,"dewp":25,"wdir":160,"wspd":2,"visib":"6+","altim":1012,"clouds":[{"cover":"FEW","base":1000},{"cover":"SCT","base":3000},{"cover":"BKN","base":8000}],"obsTime":1773655200},"SBVT":{"icaoId":"SBVT","flightCategory":"VFR","rawOb":"METAR SBVT 161000Z VRB02KT 9999 FEW025 23/22 Q1013","temp":23,"dewp":22,"wdir":"VRB","wspd":2,"visib":"6+","altim":1013,"clouds":[{"cover":"FEW","base":2500}],"obsTime":1773655200},"SBCG":{"icaoId":"SBCG","flightCategory":"VFR","rawOb":"METAR SBCG 161000Z 36006KT CAVOK 24/21 Q1011","temp":24,"dewp":21,"wdir":360,"wspd":6,"visib":"6+","altim":1011,"clouds":[],"obsTime":1773655200},"SBMG":{"icaoId":"SBMG","flightCategory":"VFR","rawOb":"METAR SBMG 161000Z 02009KT CAVOK 24/18 Q1012","temp":24,"dewp":18,"wdir":20,"wspd":9,"visib":"6+","altim":1012,"clouds":[],"obsTime":1773655200},"SBGL":{"icaoId":"SBGL","flightCategory":"IFR","rawOb":"METAR SBGL 161000Z 05002KT 4000 BR OVC007 24/23 Q1012","temp":24,"dewp":23,"wdir":50,"wspd":2,"visib":2.49,"altim":1012,"clouds":[{"cover":"OVC","base":700}],"obsTime":1773655200},"SBPJ":{"icaoId":"SBPJ","flightCategory":"VFR","rawOb":"METAR SBPJ 161000Z 09003KT 9999 FEW010 SCT050 24/24 Q1012","temp":24,"dewp":24,"wdir":90,"wspd":3,"visib":"6+","altim":1012,"clouds":[{"cover":"FEW","base":1000},{"cover":"SCT","base":5000}],"obsTime":1773655200},"SBGO":{"icaoId":"SBGO","flightCategory":"VFR","rawOb":"METAR SBGO 161000Z 28003KT CAVOK 22/21 Q1015","temp":22,"dewp":21,"wdir":280,"wspd":3,"visib":"6+","altim":1015,"clouds":[],"obsTime":1773655200},"SBPV":{"icaoId":"SBPV","flightCategory":"VFR","rawOb":"METAR SBPV 161000Z 00000KT 9999 FEW015 23/22 Q1011","temp":23,"dewp":22,"wdir":0,"wspd":0,"visib":"6+","altim":1011,"clouds":[{"cover":"FEW","base":1500}],"obsTime":1773655200},"SBCR":{"icaoId":"SBCR","flightCategory":"VFR","rawOb":"METAR SBCR 161100Z 06003KT 340V120 9999 FEW006 SCT030 27/24 Q1009","temp":27,"dewp":24,"wdir":60,"wspd":3,"visib":"6+","altim":1009,"clouds":[{"cover":"FEW","base":600},{"cover":"SCT","base":3000}],"obsTime":1773658800},"SBCF":{"icaoId":"SBCF","flightCategory":"VFR","rawOb":"METAR SBCF 161000Z 15004KT 110V180 CAVOK 21/20 Q1017","temp":21,"dewp":20,"wdir":150,"wspd":4,"visib":"6+","altim":1017,"clouds":[],"obsTime":1773655200},"SBRB":{"icaoId":"SBRB","flightCategory":"MVFR","rawOb":"METAR SBRB 161000Z 34003KT 7000 NSC 22/22 Q1009","temp":22,"dewp":22,"wdir":340,"wspd":3,"visib":4.35,"altim":1009,"clouds":[],"obsTime":1773655200},"SBGR":{"icaoId":"SBGR","flightCategory":"VFR","rawOb":"METAR SBGR 161000Z 03003KT 9000 NSC 19/18 Q1017","temp":19,"dewp":18,"wdir":30,"wspd":3,"visib":5.59,"altim":1017,"clouds":[],"obsTime":1773655200},"SBRF":{"icaoId":"SBRF","flightCategory":"VFR","rawOb":"METAR SBRF 161000Z 31003KT 280V350 9999 SCT021 28/24 Q1011","temp":28,"dewp":24,"wdir":310,"wspd":3,"visib":"6+","altim":1011,"clouds":[{"cover":"SCT","base":2100}],"obsTime":1773655200},"SBSG":{"icaoId":"SBSG","flightCategory":"VFR","rawOb":"METAR SBSG 161000Z 18003KT 140V220 9999 FEW021 26/24 Q1012","temp":26,"dewp":24,"wdir":180,"wspd":3,"visib":"6+","altim":1012,"clouds":[{"cover":"FEW","base":2100}],"obsTime":1773655200},"SBIL":{"icaoId":"SBIL","flightCategory":"VFR","rawOb":"METAR SBIL 161000Z 30004KT 9999 FEW020 26/25 Q1012","temp":26,"dewp":25,"wdir":300,"wspd":4,"visib":"6+","altim":1012,"clouds":[{"cover":"FEW","base":2000}],"obsTime":1773655200},"SBSL":{"icaoId":"SBSL","flightCategory":"VFR","rawOb":"METAR SBSL 161000Z 03003KT 9999 SCT016 BKN080 25/24 Q1011","temp":25,"dewp":24,"wdir":30,"wspd":3,"visib":"6+","altim":1011,"clouds":[{"cover":"SCT","base":1600},{"cover":"BKN","base":8000}],"obsTime":1773655200},"SBCT":{"icaoId":"SBCT","flightCategory":"VFR","rawOb":"METAR SBCT 161000Z 08004KT 060V120 9999 FEW020 BKN070 19/19 Q1017","temp":19,"dewp":19,"wdir":80,"wspd":4,"visib":"6+","altim":1017,"clouds":[{"cover":"FEW","base":2000},{"cover":"BKN","base":7000}],"obsTime":1773655200},"SBSN":{"icaoId":"SBSN","flightCategory":"VFR","rawOb":"METAR SBSN 161000Z 09010KT 9999 VCSH FEW016 FEW023TCU SCT073 BKN100 27/24 Q1010","temp":27,"dewp":24,"wdir":90,"wspd":10,"visib":"6+","altim":1010,"clouds":[{"cover":"FEW","base":1600},{"cover":"FEW","base":2300},{"cover":"SCT","base":7300},{"cover":"BKN","base":10000}],"obsTime":1773655200},"SBJU":{"icaoId":"SBJU","flightCategory":"MVFR","rawOb":"METAR SBJU 161000Z 00000KT 9999 BKN020 24/23 Q1014","temp":24,"dewp":23,"wdir":0,"wspd":0,"visib":"6+","altim":1014,"clouds":[{"cover":"BKN","base":2000}],"obsTime":1773655200},"SBBR":{"icaoId":"SBBR","flightCategory":"VFR","rawOb":"METAR SBBR 161000Z 32004KT 300V020 9999 FEW010 BKN080 19/19 Q1017","temp":19,"dewp":19,"wdir":320,"wspd":4,"visib":"6+","altim":1017,"clouds":[{"cover":"FEW","base":1000},{"cover":"BKN","base":8000}],"obsTime":1773655200},"SBSP":{"icaoId":"SBSP","flightCategory":"VFR","rawOb":"METAR SBSP 161000Z 13001KT CAVOK 21/19 Q1017","temp":21,"dewp":19,"wdir":130,"wspd":1,"visib":"6+","altim":1017,"clouds":[],"obsTime":1773655200},"SBEG":{"icaoId":"SBEG","flightCategory":"VFR","rawOb":"METAR SBEG 161000Z 12005KT 9999 FEW015 26/25 Q1009","temp":26,"dewp":25,"wdir":120,"wspd":5,"visib":"6+","altim":1009,"clouds":[{"cover":"FEW","base":1500}],"obsTime":1773655200},"SBSV":{"icaoId":"SBSV","flightCategory":"VFR","rawOb":"METAR SBSV 161000Z 34003KT 310V020 9999 SCT025 27/21 Q1012","temp":27,"dewp":21,"wdir":340,"wspd":3,"visib":"6+","altim":1012,"clouds":[{"cover":"SCT","base":2500}],"obsTime":1773655200},"SBTE":{"icaoId":"SBTE","flightCategory":"IFR","rawOb":"METAR SBTE 161000Z VRB02KT 9999 OVC007 25/24 Q1011","temp":25,"dewp":24,"wdir":"VRB","wspd":2,"visib":"6+","altim":1011,"clouds":[{"cover":"OVC","base":700}],"obsTime":1773655200},"SBKP":{"icaoId":"SBKP","flightCategory":"VFR","rawOb":"METAR SBKP 161000Z 11006KT CAVOK 21/18 Q1015","temp":21,"dewp":18,"wdir":110,"wspd":6,"visib":"6+","altim":1015,"clouds":[],"obsTime":1773655200},"SBUL":{"icaoId":"SBUL","flightCategory":"LIFR","rawOb":"METAR SBUL 161000Z 04004KT 360V060 9999 BKN004 BKN100 21/20 Q1017","temp":21,"dewp":20,"wdir":40,"wspd":4,"visib":"6+","altim":1017,"clouds":[{"cover":"BKN","base":400},{"cover":"BKN","base":10000}],"obsTime":1773655200},"SBFI":{"icaoId":"SBFI","flightCategory":"VFR","rawOb":"METAR SBFI 161000Z 21002KT 9999 FEW030 FEW040TCU BKN090 23/22 Q1009","temp":23,"dewp":22,"wdir":210,"wspd":2,"visib":"6+","altim":1009,"clouds":[{"cover":"FEW","base":3000},{"cover":"FEW","base":4000},{"cover":"BKN","base":9000}],"obsTime":1773655200},"SBUR":{"icaoId":"SBUR","flightCategory":"VFR","rawOb":"METAR SBUR 161000Z 36006KT CAVOK 21/18 Q1016","temp":21,"dewp":18,"wdir":360,"wspd":6,"visib":"6+","altim":1016,"clouds":[],"obsTime":1773655200},"SBLO":{"icaoId":"SBLO","flightCategory":"VFR","rawOb":"METAR SBLO 161000Z 00000KT CAVOK 21/19 Q1013","temp":21,"dewp":19,"wdir":0,"wspd":0,"visib":"6+","altim":1013,"clouds":[],"obsTime":1773655200},"SBBV":{"icaoId":"SBBV","flightCategory":"VFR","rawOb":"METAR SBBV 161000Z 07011KT 9999 FEW040 FEW045TCU BKN090 26/22 Q1010","temp":26,"dewp":22,"wdir":70,"wspd":11,"visib":"6+","altim":1010,"clouds":[{"cover":"FEW","base":4000},{"cover":"FEW","base":4500},{"cover":"BKN","base":9000}],"obsTime":1773655200},"SBMA":{"icaoId":"SBMA","flightCategory":"VFR","rawOb":"METAR SBMA 161000Z 05004KT 9999 FEW012 ///// Q1010","temp":null,"dewp":null,"wdir":50,"wspd":4,"visib":"6+","altim":1010,"clouds":[{"cover":"FEW","base":1200}],"obsTime":1773655200},"SBME":{"icaoId":"SBME","flightCategory":"VFR","rawOb":"METAR SBME 161000Z 02003KT CAVOK 24/22 Q1012","temp":24,"dewp":22,"wdir":20,"wspd":3,"visib":"6+","altim":1012,"clouds":[],"obsTime":1773655200},"SBTF":{"icaoId":"SBTF","flightCategory":"VFR","rawOb":"SPECI SBTF 161115Z 19002KT CAVOK 25/25 Q1009","temp":25,"dewp":25,"wdir":190,"wspd":2,"visib":"6+","altim":1009,"clouds":[],"obsTime":1773659700},"SBPP":{"icaoId":"SBPP","flightCategory":"VFR","rawOb":"SPECI SBPP 161115Z 24004KT 9999 SCT025 24/20 Q1012","temp":24,"dewp":20,"wdir":240,"wspd":4,"visib":"6+","altim":1012,"clouds":[{"cover":"SCT","base":2500}],"obsTime":1773659700},"SBAX":{"icaoId":"SBAX","flightCategory":"VFR","rawOb":"METAR SBAX 161000Z AUTO VRB01KT 9999 FEW003 BKN039 ///// Q1017","temp":null,"dewp":null,"wdir":"VRB","wspd":1,"visib":"6+","altim":1017,"clouds":[{"cover":"FEW","base":300},{"cover":"BKN","base":3900}],"obsTime":1773655200},"SBBH":{"icaoId":"SBBH","flightCategory":"VFR","rawOb":"METAR SBBH 161000Z 11006KT CAVOK 22/20 Q1017","temp":22,"dewp":20,"wdir":110,"wspd":6,"visib":"6+","altim":1017,"clouds":[],"obsTime":1773655200},"SBTT":{"icaoId":"SBTT","flightCategory":"LIFR","rawOb":"METAR SBTT 161100Z 13003KT 9999 BKN004 25/23 Q1010","temp":25,"dewp":23,"wdir":130,"wspd":3,"visib":"6+","altim":1010,"clouds":[{"cover":"BKN","base":400}],"obsTime":1773658800},"SBBU":{"icaoId":"SBBU","flightCategory":"VFR","rawOb":"METAR SBBU 161000Z 07005KT CAVOK 24/19 Q1014","temp":24,"dewp":19,"wdir":70,"wspd":5,"visib":"6+","altim":1014,"clouds":[],"obsTime":1773655200},"SBCA":{"icaoId":"SBCA","flightCategory":"VFR","rawOb":"METAR SBCA 161100Z 04010KT CAVOK 25/17 Q1015","temp":25,"dewp":17,"wdir":40,"wspd":10,"visib":"6+","altim":1015,"clouds":[],"obsTime":1773658800},"SBCC":{"icaoId":"SBCC","flightCategory":"VFR","rawOb":"METAR SBCC 161100Z 35003KT 9999 SCT040 BKN080 22/22 Q1014","temp":22,"dewp":22,"wdir":350,"wspd":3,"visib":"6+","altim":1014,"clouds":[{"cover":"SCT","base":4000},{"cover":"BKN","base":8000}],"obsTime":1773658800},"SBAR":{"icaoId":"SBAR","flightCategory":"VFR","rawOb":"METAR SBAR 161000Z 31003KT 9999 FEW025 26/23 Q1012","temp":26,"dewp":23,"wdir":310,"wspd":3,"visib":"6+","altim":1012,"clouds":[{"cover":"FEW","base":2500}],"obsTime":1773655200},"SBCJ":{"icaoId":"SBCJ","flightCategory":"MVFR","rawOb":"SPECI SBCJ 161015Z 05004KT 5000 BR FEW004 22/21 Q1014","temp":22,"dewp":21,"wdir":50,"wspd":4,"visib":3.11,"altim":1014,"clouds":[{"cover":"FEW","base":400}],"obsTime":1773656100},"SBCO":{"icaoId":"SBCO","flightCategory":"LIFR","rawOb":"METAR SBCO 161000Z 12004KT 2500 BR BKN004 22/22 Q1011","temp":22,"dewp":22,"wdir":120,"wspd":4,"visib":1.55,"altim":1011,"clouds":[{"cover":"BKN","base":400}],"obsTime":1773655200},"SBTD":{"icaoId":"SBTD","flightCategory":"VFR","rawOb":"METAR SBTD 161100Z /////KT 9999 FEW030 SCT080 24/18 Q1013","temp":24,"dewp":18,"wdir":null,"wspd":null,"visib":"6+","altim":1013,"clouds":[{"cover":"FEW","base":3000},{"cover":"SCT","base":8000}],"obsTime":1773658800},"SBDN":{"icaoId":"SBDN","flightCategory":"VFR","rawOb":"METAR SBDN 161000Z 06004KT CAVOK 23/17 Q1012","temp":23,"dewp":17,"wdir":60,"wspd":4,"visib":"6+","altim":1012,"clouds":[],"obsTime":1773655200},"SBSR":{"icaoId":"SBSR","flightCategory":"VFR","rawOb":"METAR SBSR 161000Z 00000KT 9999 NSC 22/19 Q1013","temp":22,"dewp":19,"wdir":0,"wspd":0,"visib":"6+","altim":1013,"clouds":[],"obsTime":1773655200},"SBSM":{"icaoId":"SBSM","flightCategory":"LIFR","rawOb":"METAR SBSM 161000Z 11003KT 0600 R29///// R11/1600 FG VV002 21/21 Q1010","temp":21,"dewp":21,"wdir":110,"wspd":3,"visib":0.37,"altim":1010,"clouds":[{"cover":"OVX","base":200}],"obsTime":1773655200},"SBES":{"icaoId":"SBES","flightCategory":"VFR","rawOb":"METAR SBES 161000Z 05006KT 010V080 9999 FEW010 23/// Q1012","temp":null,"dewp":null,"wdir":50,"wspd":6,"visib":"6+","altim":1012,"clouds":[{"cover":"FEW","base":1000}],"obsTime":1773655200},"SBIP":{"icaoId":"SBIP","flightCategory":"MVFR","rawOb":"METAR SBIP 161000Z AUTO 00000KT 9999 FEW007 BKN027 22/22 Q1014","temp":22,"dewp":22,"wdir":0,"wspd":0,"visib":"6+","altim":1014,"clouds":[{"cover":"FEW","base":700},{"cover":"BKN","base":2700}],"obsTime":1773655200},"SBPB":{"icaoId":"SBPB","flightCategory":"MVFR","rawOb":"SPECI SBPB 161015Z 15004KT 9999 BKN016 BKN100 26/25 Q1011","temp":26,"dewp":25,"wdir":150,"wspd":4,"visib":"6+","altim":1011,"clouds":[{"cover":"BKN","base":1600},{"cover":"BKN","base":10000}],"obsTime":1773656100},"SBUY":{"icaoId":"SBUY","flightCategory":"LIFR","rawOb":"METAR SBUY 161100Z 28002KT 0800 FG VV002 24/23 Q1009","temp":24,"dewp":23,"wdir":280,"wspd":2,"visib":0.5,"altim":1009,"clouds":[{"cover":"OVX","base":200}],"obsTime":1773658800},"SBPL":{"icaoId":"SBPL","flightCategory":"VFR","rawOb":"METAR SBPL 161000Z 10007KT 9999 SCT023 SCT070 26/21 Q1013","temp":26,"dewp":21,"wdir":100,"wspd":7,"visib":"6+","altim":1013,"clouds":[{"cover":"SCT","base":2300},{"cover":"SCT","base":7000}],"obsTime":1773655200},"SBKG":{"icaoId":"SBKG","flightCategory":"VFR","rawOb":"METAR SBKG 161000Z 08006KT 9999 SCT015 24/22 Q1014","temp":24,"dewp":22,"wdir":80,"wspd":6,"visib":"6+","altim":1014,"clouds":[{"cover":"SCT","base":1500}],"obsTime":1773655200},"SBSJ":{"icaoId":"SBSJ","flightCategory":"LIFR","rawOb":"METAR SBSJ 161000Z VRB01KT 0200 R34///// R16///// FG VV001 18/18 Q1016","temp":18,"dewp":18,"wdir":"VRB","wspd":1,"visib":0.12,"altim":1016,"clouds":[{"cover":"OVX","base":100}],"obsTime":1773655200},"SBSC":{"icaoId":"SBSC","flightCategory":"VFR","rawOb":"METAR SBSC 161000Z 34007KT CAVOK 24/21 Q1012","temp":24,"dewp":21,"wdir":340,"wspd":7,"visib":"6+","altim":1012,"clouds":[],"obsTime":1773655200},"SBPS":{"icaoId":"SBPS","flightCategory":"VFR","rawOb":"METAR SBPS 161000Z 01002KT 9999 FEW020 BKN100 25/25 Q1012","temp":25,"dewp":25,"wdir":10,"wspd":2,"visib":"6+","altim":1012,"clouds":[{"cover":"FEW","base":2000},{"cover":"BKN","base":10000}],"obsTime":1773655200},"SBOI":{"icaoId":"SBOI","flightCategory":"IFR","rawOb":"METAR SBOI 161000Z AUTO 03003KT 340V060 5000 // OVC008/// 24/24 Q1012","temp":24,"dewp":24,"wdir":30,"wspd":3,"visib":3.11,"altim":1012,"clouds":[{"cover":"OVC","base":800}],"obsTime":1773655200},"SBVH":{"icaoId":"SBVH","flightCategory":"VFR","rawOb":"METAR SBVH 161100Z 36006KT CAVOK 23/22 Q1013","temp":23,"dewp":22,"wdir":360,"wspd":6,"visib":"6+","altim":1013,"clouds":[],"obsTime":1773658800},"SBIH":{"icaoId":"SBIH","flightCategory":"MVFR","rawOb":"METAR SBIH 161100Z 00000KT 8000 SCT007 26/25 Q1011","temp":26,"dewp":25,"wdir":0,"wspd":0,"visib":4.97,"altim":1011,"clouds":[{"cover":"SCT","base":700}],"obsTime":1773658800},"SBLE":{"icaoId":"SBLE","flightCategory":"VFR","rawOb":"METAR SBLE 161000Z AUTO 05005KT 9999 FEW015 OVC036 ///// Q////","temp":null,"dewp":null,"wdir":50,"wspd":5,"visib":"6+","altim":null,"clouds":[{"cover":"FEW","base":1500},{"cover":"OVC","base":3600}],"obsTime":1773655200},"SBLS":{"icaoId":"SBLS","flightCategory":"VFR","rawOb":"METAR SBLS 161000Z 14007KT 9999 FEW020 22/20 Q1017","temp":22,"dewp":20,"wdir":140,"wspd":7,"visib":"6+","altim":1017,"clouds":[{"cover":"FEW","base":2000}],"obsTime":1773655200},"SBAN":{"icaoId":"SBAN","flightCategory":"VFR","rawOb":"METAR SBAN 161000Z 09005KT 9999 FEW010 SCT100 19/18 Q1018","temp":19,"dewp":18,"wdir":90,"wspd":5,"visib":"6+","altim":1018,"clouds":[{"cover":"FEW","base":1000},{"cover":"SCT","base":10000}],"obsTime":1773655200},"SBMT":{"icaoId":"SBMT","flightCategory":"VFR","rawOb":"METAR SBMT 161000Z 09003KT CAVOK 20/18 Q1016","temp":20,"dewp":18,"wdir":90,"wspd":3,"visib":"6+","altim":1016,"clouds":[],"obsTime":1773655200},"SBJP":{"icaoId":"SBJP","flightCategory":"VFR","rawOb":"METAR SBJP 161000Z 00000KT CAVOK 29/25 Q1012","temp":29,"dewp":25,"wdir":0,"wspd":0,"visib":"6+","altim":1012,"clouds":[],"obsTime":1773655200},"SBJR":{"icaoId":"SBJR","flightCategory":"VFR","rawOb":"METAR SBJR 161000Z 01004KT 9999 FEW009 25/23 Q1012","temp":25,"dewp":23,"wdir":10,"wspd":4,"visib":"6+","altim":1012,"clouds":[{"cover":"FEW","base":900}],"obsTime":1773655200},"SBPF":{"icaoId":"SBPF","flightCategory":"VFR","rawOb":"METAR SBPF 161000Z 07010KT CAVOK 18/14 Q1014","temp":18,"dewp":14,"wdir":70,"wspd":10,"visib":"6+","altim":1014,"clouds":[],"obsTime":1773655200},"SBGW":{"icaoId":"SBGW","flightCategory":"VFR","rawOb":"METAR SBGW 161000Z 00000KT CAVOK 19/16 Q1016","temp":19,"dewp":16,"wdir":0,"wspd":0,"visib":"6+","altim":1016,"clouds":[],"obsTime":1773655200},"SBST":{"icaoId":"SBST","flightCategory":"MVFR","rawOb":"METAR SBST 161100Z 04003KT 7000 FEW013 25/23 Q1012","temp":25,"dewp":23,"wdir":40,"wspd":3,"visib":4.35,"altim":1012,"clouds":[{"cover":"FEW","base":1300}],"obsTime":1773658800},"SBTA":{"icaoId":"SBTA","flightCategory":"VFR","rawOb":"METAR SBTA 161000Z 00000KT CAVOK 19/19 Q1015","temp":19,"dewp":19,"wdir":0,"wspd":0,"visib":"6+","altim":1015,"clouds":[],"obsTime":1773655200},"SBJV":{"icaoId":"SBJV","flightCategory":"MVFR","rawOb":"METAR SBJV 161000Z 00000KT 9999 BKN025 25/25 Q1012","temp":25,"dewp":25,"wdir":0,"wspd":0,"visib":"6+","altim":1012,"clouds":[{"cover":"BKN","base":2500}],"obsTime":1773655200},"SBAF":{"icaoId":"SBAF","flightCategory":"IFR","rawOb":"METAR SBAF 161000Z 00000KT 4000 BR BKN009 24/24 Q1012","temp":24,"dewp":24,"wdir":0,"wspd":0,"visib":2.49,"altim":1012,"clouds":[{"cover":"BKN","base":900}],"obsTime":1773655200},"SBNM":{"icaoId":"SBNM","flightCategory":"VFR","rawOb":"METAR SBNM 161000Z 31002KT 9999 FEW030 21/18 Q1010","temp":21,"dewp":18,"wdir":310,"wspd":2,"visib":"6+","altim":1010,"clouds":[{"cover":"FEW","base":3000}],"obsTime":1773655200}}}