{"updated":1783023156,"count":86,"data":{"SBBR":{"icaoId":"SBBR","flightCategory":"VFR","rawOb":"METAR SBBR 021900Z 09009KT 9999 SCT045 25/13 Q1022","temp":25,"dewp":13,"wdir":90,"wspd":9,"visib":"6+","altim":1022,"clouds":[{"cover":"SCT","base":4500}],"obsTime":1783018800},"SBMK":{"icaoId":"SBMK","flightCategory":"VFR","rawOb":"METAR SBMK 021900Z 10006KT CAVOK 27/12 Q1020","temp":27,"dewp":12,"wdir":100,"wspd":6,"visib":"6+","altim":1020,"clouds":[],"obsTime":1783018800},"SBMA":{"icaoId":"SBMA","flightCategory":"VFR","rawOb":"METAR SBMA 021900Z 11005KT CAVOK 35/16 Q1011","temp":35,"dewp":16,"wdir":110,"wspd":5,"visib":"6+","altim":1011,"clouds":[],"obsTime":1783018800},"SBRF":{"icaoId":"SBRF","flightCategory":"VFR","rawOb":"METAR SBRF 021900Z 16011KT 9999 SCT025 27/21 Q1014","temp":27,"dewp":21,"wdir":160,"wspd":11,"visib":"6+","altim":1014,"clouds":[{"cover":"SCT","base":2500}],"obsTime":1783018800},"SBLO":{"icaoId":"SBLO","flightCategory":"VFR","rawOb":"METAR SBLO 021900Z 35007KT 9999 FEW040 27/15 Q1020","temp":27,"dewp":15,"wdir":350,"wspd":7,"visib":"6+","altim":1020,"clouds":[{"cover":"FEW","base":4000}],"obsTime":1783018800},"SBFZ":{"icaoId":"SBFZ","flightCategory":"VFR","rawOb":"METAR SBFZ 021900Z 12014KT 9999 BKN040 BKN060 29/21 Q1012","temp":29,"dewp":21,"wdir":120,"wspd":14,"visib":"6+","altim":1012,"clouds":[{"cover":"BKN","base":4000},{"cover":"BKN","base":6000}],"obsTime":1783018800},"SBEG":{"icaoId":"SBEG","flightCategory":"VFR","rawOb":"METAR SBEG 021900Z 10012KT 9999 SCT040 33/23 Q1010","temp":33,"dewp":23,"wdir":100,"wspd":12,"visib":"6+","altim":1010,"clouds":[{"cover":"SCT","base":4000}],"obsTime":1783018800},"SBSN":{"icaoId":"SBSN","flightCategory":"VFR","rawOb":"METAR SBSN 021900Z 07008KT 9999 FEW020 32/26 Q1010","temp":32,"dewp":26,"wdir":70,"wspd":8,"visib":"6+","altim":1010,"clouds":[{"cover":"FEW","base":2000}],"obsTime":1783018800},"SBSG":{"icaoId":"SBSG","flightCategory":"VFR","rawOb":"METAR SBSG 021900Z 13007KT 090V170 9999 SCT030 28/22 Q1014","temp":28,"dewp":22,"wdir":130,"wspd":7,"visib":"6+","altim":1014,"clouds":[{"cover":"SCT","base":3000}],"obsTime":1783018800},"SBFL":{"icaoId":"SBFL","flightCategory":"IFR","rawOb":"SPECI SBFL 021845Z 33005KT 300V360 4000 -RA BR BKN007 BKN011 OVC100 19/18 Q1017","temp":19,"dewp":18,"wdir":330,"wspd":5,"visib":2.49,"altim":1017,"clouds":[{"cover":"BKN","base":700},{"cover":"BKN","base":1100},{"cover":"OVC","base":10000}],"obsTime":1783017900},"SBCT":{"icaoId":"SBCT","flightCategory":"VFR","rawOb":"METAR SBCT 021900Z 29011KT 9999 FEW010 25/15 Q1021","temp":25,"dewp":15,"wdir":290,"wspd":11,"visib":"6+","altim":1021,"clouds":[{"cover":"FEW","base":1000}],"obsTime":1783018800},"SBMQ":{"icaoId":"SBMQ","flightCategory":"VFR","rawOb":"METAR SBMQ 021900Z 06007KT 9999 SCT023 BKN050 BKN092 31/25 Q1011","temp":31,"dewp":25,"wdir":60,"wspd":7,"visib":"6+","altim":1011,"clouds":[{"cover":"SCT","base":2300},{"cover":"BKN","base":5000},{"cover":"BKN","base":9200}],"obsTime":1783018800},"SBPV":{"icaoId":"SBPV","flightCategory":"VFR","rawOb":"METAR SBPV 021900Z 09007KT 9999 FEW030 34/18 Q1011","temp":34,"dewp":18,"wdir":90,"wspd":7,"visib":"6+","altim":1011,"clouds":[{"cover":"FEW","base":3000}],"obsTime":1783018800},"SBKP":{"icaoId":"SBKP","flightCategory":"VFR","rawOb":"METAR SBKP 021900Z 33004KT CAVOK 27/15 Q1021","temp":27,"dewp":15,"wdir":330,"wspd":4,"visib":"6+","altim":1021,"clouds":[],"obsTime":1783018800},"SBCG":{"icaoId":"SBCG","flightCategory":"VFR","rawOb":"METAR SBCG 021900Z 24009KT 220V280 9999 SCT049 29/16 Q1019","temp":29,"dewp":16,"wdir":240,"wspd":9,"visib":"6+","altim":1019,"clouds":[{"cover":"SCT","base":4900}],"obsTime":1783018800},"SBUL":{"icaoId":"SBUL","flightCategory":"VFR","rawOb":"METAR SBUL 021900Z VRB04KT 9999 FEW040 25/14 Q1022","temp":25,"dewp":14,"wdir":"VRB","wspd":4,"visib":"6+","altim":1022,"clouds":[{"cover":"FEW","base":4000}],"obsTime":1783018800},"SBSL":{"icaoId":"SBSL","flightCategory":"VFR","rawOb":"METAR SBSL 021900Z 03005KT 9999 FEW027 SCT070 30/24 Q1011","temp":30,"dewp":24,"wdir":30,"wspd":5,"visib":"6+","altim":1011,"clouds":[{"cover":"FEW","base":2700},{"cover":"SCT","base":7000}],"obsTime":1783018800},"SBBE":{"icaoId":"SBBE","flightCategory":"VFR","rawOb":"METAR SBBE 021900Z 14008KT 9999 SCT040 33/22 Q1011","temp":33,"dewp":22,"wdir":140,"wspd":8,"visib":"6+","altim":1011,"clouds":[{"cover":"SCT","base":4000}],"obsTime":1783018800},"SBMG":{"icaoId":"SBMG","flightCategory":"VFR","rawOb":"METAR SBMG 021900Z 02006KT 340V050 CAVOK 28/16 Q1019","temp":28,"dewp":16,"wdir":20,"wspd":6,"visib":"6+","altim":1019,"clouds":[],"obsTime":1783018800},"SBUR":{"icaoId":"SBUR","flightCategory":"VFR","rawOb":"METAR SBUR 021900Z 33005KT CAVOK 27/14 Q1021","temp":27,"dewp":14,"wdir":330,"wspd":5,"visib":"6+","altim":1021,"clouds":[],"obsTime":1783018800},"SBBV":{"icaoId":"SBBV","flightCategory":"VFR","rawOb":"METAR SBBV 021900Z 11012KT 9999 BKN040 FEW045TCU BKN080 31/22 Q1010","temp":31,"dewp":22,"wdir":110,"wspd":12,"visib":"6+","altim":1010,"clouds":[{"cover":"BKN","base":4000},{"cover":"FEW","base":4500},{"cover":"BKN","base":8000}],"obsTime":1783018800},"SBRB":{"icaoId":"SBRB","flightCategory":"VFR","rawOb":"METAR SBRB 021900Z 12007KT 9999 SCT030 33/21 Q1013","temp":33,"dewp":21,"wdir":120,"wspd":7,"visib":"6+","altim":1013,"clouds":[{"cover":"SCT","base":3000}],"obsTime":1783018800},"SBCF":{"icaoId":"SBCF","flightCategory":"VFR","rawOb":"METAR SBCF 021900Z 12006KT 070V190 CAVOK 26/14 Q1022","temp":26,"dewp":14,"wdir":120,"wspd":6,"visib":"6+","altim":1022,"clouds":[],"obsTime":1783018800},"SBMO":{"icaoId":"SBMO","flightCategory":"VFR","rawOb":"METAR SBMO 021900Z 14009KT CAVOK 28/19 Q1015","temp":28,"dewp":19,"wdir":140,"wspd":9,"visib":"6+","altim":1015,"clouds":[],"obsTime":1783018800},"SBAT":{"icaoId":"SBAT","flightCategory":"VFR","rawOb":"METAR SBAT 021900Z 15006KT 9999 SCT035 35/16 Q1013","temp":35,"dewp":16,"wdir":150,"wspd":6,"visib":"6+","altim":1013,"clouds":[{"cover":"SCT","base":3500}],"obsTime":1783018800},"SBPJ":{"icaoId":"SBPJ","flightCategory":"VFR","rawOb":"METAR SBPJ 021900Z 13006KT 9999 SCT045 33/15 Q1014","temp":33,"dewp":15,"wdir":130,"wspd":6,"visib":"6+","altim":1014,"clouds":[{"cover":"SCT","base":4500}],"obsTime":1783018800},"SBPA":{"icaoId":"SBPA","flightCategory":"IFR","rawOb":"METAR SBPA 021900Z 22012G22KT 3500 -DZ BR OVC009 12/12 Q1021","temp":12,"dewp":12,"wdir":220,"wspd":12,"visib":2.17,"altim":1021,"clouds":[{"cover":"OVC","base":900}],"obsTime":1783018800},"SBIL":{"icaoId":"SBIL","flightCategory":"VFR","rawOb":"METAR SBIL 021900Z 18008KT 9999 FEW023 26/22 Q1018","temp":26,"dewp":22,"wdir":180,"wspd":8,"visib":"6+","altim":1018,"clouds":[{"cover":"FEW","base":2300}],"obsTime":1783018800},"SBVT":{"icaoId":"SBVT","flightCategory":"VFR","rawOb":"METAR SBVT 021900Z 05015KT CAVOK 26/20 Q1018","temp":26,"dewp":20,"wdir":50,"wspd":15,"visib":"6+","altim":1018,"clouds":[],"obsTime":1783018800},"SBCZ":{"icaoId":"SBCZ","flightCategory":"MVFR","rawOb":"METAR SBCZ 021900Z 09007KT 9999 BKN030 31/24 Q1012","temp":31,"dewp":24,"wdir":90,"wspd":7,"visib":"6+","altim":1012,"clouds":[{"cover":"BKN","base":3000}],"obsTime":1783018800},"SBNT":{"icaoId":"SBNT","flightCategory":"VFR","rawOb":"METAR SBNT 021900Z 15017KT 9999 FEW040 28/21 Q1013","temp":28,"dewp":21,"wdir":150,"wspd":17,"visib":"6+","altim":1013,"clouds":[{"cover":"FEW","base":4000}],"obsTime":1783018800},"SBHT":{"icaoId":"SBHT","flightCategory":"VFR","rawOb":"METAR SBHT 021900Z 09005KT 9999 SCT030 32/22 Q1011","temp":32,"dewp":22,"wdir":90,"wspd":5,"visib":"6+","altim":1011,"clouds":[{"cover":"SCT","base":3000}],"obsTime":1783018800},"SBJU":{"icaoId":"SBJU","flightCategory":"VFR","rawOb":"METAR SBJU 021900Z 12009KT CAVOK 32/11 Q1015","temp":32,"dewp":11,"wdir":120,"wspd":9,"visib":"6+","altim":1015,"clouds":[],"obsTime":1783018800},"SBGL":{"icaoId":"SBGL","flightCategory":"VFR","rawOb":"METAR SBGL 021900Z 12005KT CAVOK 28/19 Q1018","temp":28,"dewp":19,"wdir":120,"wspd":5,"visib":"6+","altim":1018,"clouds":[],"obsTime":1783018800},"SBFI":{"icaoId":"SBFI","flightCategory":"LIFR","rawOb":"METAR SBFI 021900Z 22008KT 5000 -RA BR BKN004 SCT015 15/15 Q1021","temp":15,"dewp":15,"wdir":220,"wspd":8,"visib":3.11,"altim":1021,"clouds":[{"cover":"BKN","base":400},{"cover":"SCT","base":1500}],"obsTime":1783018800},"SBSP":{"icaoId":"SBSP","flightCategory":"VFR","rawOb":"METAR SBSP 021900Z 33007KT 300V010 CAVOK 26/13 Q1022","temp":26,"dewp":13,"wdir":330,"wspd":7,"visib":"6+","altim":1022,"clouds":[],"obsTime":1783018800},"SBSV":{"icaoId":"SBSV","flightCategory":"VFR","rawOb":"METAR SBSV 021900Z 17008KT 9999 SCT030 28/21 Q1017","temp":28,"dewp":21,"wdir":170,"wspd":8,"visib":"6+","altim":1017,"clouds":[{"cover":"SCT","base":3000}],"obsTime":1783018800},"SBGR":{"icaoId":"SBGR","flightCategory":"VFR","rawOb":"METAR SBGR 021900Z 31007KT CAVOK 26/13 Q1022","temp":26,"dewp":13,"wdir":310,"wspd":7,"visib":"6+","altim":1022,"clouds":[],"obsTime":1783018800},"SBTE":{"icaoId":"SBTE","flightCategory":"VFR","rawOb":"METAR SBTE 021900Z 12005KT 9999 SCT025 33/17 Q1011","temp":33,"dewp":17,"wdir":120,"wspd":5,"visib":"6+","altim":1011,"clouds":[{"cover":"SCT","base":2500}],"obsTime":1783018800},"SBCB":{"icaoId":"SBCB","flightCategory":"VFR","rawOb":"METAR SBCB 021900Z 24004KT CAVOK 26/19 Q1018","temp":26,"dewp":19,"wdir":240,"wspd":4,"visib":"6+","altim":1018,"clouds":[],"obsTime":1783018800},"SBGO":{"icaoId":"SBGO","flightCategory":"VFR","rawOb":"METAR SBGO 021900Z 07008KT CAVOK 29/14 Q1020","temp":29,"dewp":14,"wdir":70,"wspd":8,"visib":"6+","altim":1020,"clouds":[],"obsTime":1783018800},"SBCR":{"icaoId":"SBCR","flightCategory":"MVFR","rawOb":"METAR SBCR 021900Z 23009G20KT 9999 OVC013 16/13 Q1021","temp":16,"dewp":13,"wdir":230,"wspd":9,"visib":"6+","altim":1021,"clouds":[{"cover":"OVC","base":1300}],"obsTime":1783018800},"SBCP":{"icaoId":"SBCP","flightCategory":"VFR","rawOb":"METAR SBCP 021900Z 10012KT CAVOK 28/18 Q1018","temp":28,"dewp":18,"wdir":100,"wspd":12,"visib":"6+","altim":1018,"clouds":[],"obsTime":1783018800},"SBME":{"icaoId":"SBME","flightCategory":"VFR","rawOb":"METAR SBME 021900Z 11006KT CAVOK 25/21 Q1018","temp":25,"dewp":21,"wdir":110,"wspd":6,"visib":"6+","altim":1018,"clouds":[],"obsTime":1783018800},"SBTT":{"icaoId":"SBTT","flightCategory":"MVFR","rawOb":"METAR SBTT 021900Z 13004KT 9999 BKN017 FEW024TCU 31/24 Q1011","temp":31,"dewp":24,"wdir":130,"wspd":4,"visib":"6+","altim":1011,"clouds":[{"cover":"BKN","base":1700},{"cover":"FEW","base":2400}],"obsTime":1783018800},"SBCA":{"icaoId":"SBCA","flightCategory":"VFR","rawOb":"METAR SBCA 021900Z 30009KT 9999 SCT010 SCT025 FEW050TCU BKN100 21/18 Q1021","temp":21,"dewp":18,"wdir":300,"wspd":9,"visib":"6+","altim":1021,"clouds":[{"cover":"SCT","base":1000},{"cover":"SCT","base":2500},{"cover":"FEW","base":5000},{"cover":"BKN","base":10000}],"obsTime":1783018800},"SBAR":{"icaoId":"SBAR","flightCategory":"MVFR","rawOb":"METAR SBAR 021900Z 16010KT 6000 -RA FEW025 OVC030 25/22 Q1016","temp":25,"dewp":22,"wdir":160,"wspd":10,"visib":3.73,"altim":1016,"clouds":[{"cover":"FEW","base":2500},{"cover":"OVC","base":3000}],"obsTime":1783018800},"SBCO":{"icaoId":"SBCO","flightCategory":"IFR","rawOb":"METAR SBCO 021900Z 22009KT 190V250 3500 -RA BR OVC008 12/11 Q1022","temp":12,"dewp":11,"wdir":220,"wspd":9,"visib":2.17,"altim":1022,"clouds":[{"cover":"OVC","base":800}],"obsTime":1783018800},"SBSM":{"icaoId":"SBSM","flightCategory":"IFR","rawOb":"METAR SBSM 021900Z 21004KT 2000 -RADZ BKN005 OVC012 10/10 Q1025","temp":10,"dewp":10,"wdir":210,"wspd":4,"visib":1.24,"altim":1025,"clouds":[{"cover":"BKN","base":500},{"cover":"OVC","base":1200}],"obsTime":1783018800},"SBCC":{"icaoId":"SBCC","flightCategory":"VFR","rawOb":"METAR SBCC 021900Z 06013KT 9999 SCT025 31/16 Q1014","temp":31,"dewp":16,"wdir":60,"wspd":13,"visib":"6+","altim":1014,"clouds":[{"cover":"SCT","base":2500}],"obsTime":1783018800},"SBTF":{"icaoId":"SBTF","flightCategory":"VFR","rawOb":"METAR SBTF 021900Z 13006KT 9999 FEW020 33/26 Q1009","temp":33,"dewp":26,"wdir":130,"wspd":6,"visib":"6+","altim":1009,"clouds":[{"cover":"FEW","base":2000}],"obsTime":1783018800},"SBVH":{"icaoId":"SBVH","flightCategory":"VFR","rawOb":"METAR SBVH 021900Z 12010KT 9999 SCT045 31/15 Q1017","temp":31,"dewp":15,"wdir":120,"wspd":10,"visib":"6+","altim":1017,"clouds":[{"cover":"SCT","base":4500}],"obsTime":1783018800},"SBAX":{"icaoId":"SBAX","flightCategory":"VFR","rawOb":"METAR SBAX 021900Z 10002KT CAVOK 26/13 Q1022","temp":26,"dewp":13,"wdir":100,"wspd":2,"visib":"6+","altim":1022,"clouds":[],"obsTime":1783018800},"SBBH":{"icaoId":"SBBH","flightCategory":"VFR","rawOb":"METAR SBBH 021900Z 06005KT CAVOK 26/13 Q1022","temp":26,"dewp":13,"wdir":60,"wspd":5,"visib":"6+","altim":1022,"clouds":[],"obsTime":1783018800},"SBBQ":{"icaoId":"SBBQ","flightCategory":"VFR","rawOb":"METAR SBBQ 021900Z 09006KT 060V120 CAVOK 24/17 Q1025","temp":24,"dewp":17,"wdir":90,"wspd":6,"visib":"6+","altim":1025,"clouds":[],"obsTime":1783018800},"SBBU":{"icaoId":"SBBU","flightCategory":"VFR","rawOb":"METAR SBBU 021900Z 31005KT CAVOK 29/13 Q1020","temp":29,"dewp":13,"wdir":310,"wspd":5,"visib":"6+","altim":1020,"clouds":[],"obsTime":1783018800},"SBDN":{"icaoId":"SBDN","flightCategory":"VFR","rawOb":"METAR SBDN 021900Z 33003KT CAVOK 29/15 Q1019","temp":29,"dewp":15,"wdir":330,"wspd":3,"visib":"6+","altim":1019,"clouds":[],"obsTime":1783018800},"SBIP":{"icaoId":"SBIP","flightCategory":"VFR","rawOb":"METAR SBIP 021900Z AUTO 35004KT 310V020 CAVOK 28/14 Q1020","temp":28,"dewp":14,"wdir":350,"wspd":4,"visib":"6+","altim":1020,"clouds":[],"obsTime":1783018800},"SBSC":{"icaoId":"SBSC","flightCategory":"VFR","rawOb":"METAR SBSC 021900Z 20006KT CAVOK 26/20 Q1018","temp":26,"dewp":20,"wdir":200,"wspd":6,"visib":"6+","altim":1018,"clouds":[],"obsTime":1783018800},"SBSR":{"icaoId":"SBSR","flightCategory":"VFR","rawOb":"METAR SBSR 021900Z 03005KT CAVOK 29/09 Q1020","temp":29,"dewp":9,"wdir":30,"wspd":5,"visib":"6+","altim":1020,"clouds":[],"obsTime":1783018800},"SBKG":{"icaoId":"SBKG","flightCategory":"VFR","rawOb":"METAR SBKG 021900Z 14008KT 9999 SCT025 26/17 Q1016","temp":26,"dewp":17,"wdir":140,"wspd":8,"visib":"6+","altim":1016,"clouds":[{"cover":"SCT","base":2500}],"obsTime":1783018800},"SBES":{"icaoId":"SBES","flightCategory":"VFR","rawOb":"METAR SBES 021900Z 22004KT 190V260 CAVOK 25/// Q1018","temp":null,"dewp":null,"wdir":220,"wspd":4,"visib":"6+","altim":1018,"clouds":[],"obsTime":1783018800},"SBTU":{"icaoId":"SBTU","flightCategory":"VFR","rawOb":"METAR SBTU 021900Z AUTO 36008KT 330V040 9999 // NCD 32/20 Q1013","temp":32,"dewp":20,"wdir":360,"wspd":8,"visib":"6+","altim":1013,"clouds":[],"obsTime":1783018800},"SBUY":{"icaoId":"SBUY","flightCategory":"VFR","rawOb":"METAR SBUY 021900Z 18006KT 9999 SCT030 FEW040TCU 31/25 Q1009","temp":31,"dewp":25,"wdir":180,"wspd":6,"visib":"6+","altim":1009,"clouds":[{"cover":"SCT","base":3000},{"cover":"FEW","base":4000}],"obsTime":1783018800},"SBPB":{"icaoId":"SBPB","flightCategory":"VFR","rawOb":"METAR SBPB 022000Z 04009KT 9999 FEW016 BKN090 29/22 Q1011","temp":29,"dewp":22,"wdir":40,"wspd":9,"visib":"6+","altim":1011,"clouds":[{"cover":"FEW","base":1600},{"cover":"BKN","base":9000}],"obsTime":1783022400},"SBPS":{"icaoId":"SBPS","flightCategory":"MVFR","rawOb":"METAR SBPS 021900Z 15001KT 9999 FEW012 BKN030 OVC039 23/22 Q1019","temp":23,"dewp":22,"wdir":150,"wspd":1,"visib":"6+","altim":1019,"clouds":[{"cover":"FEW","base":1200},{"cover":"BKN","base":3000},{"cover":"OVC","base":3900}],"obsTime":1783018800},"SBPP":{"icaoId":"SBPP","flightCategory":"LIFR","rawOb":"METAR SBPP 021900Z 22012KT 0500 FG VV000 15/15 Q1022","temp":15,"dewp":15,"wdir":220,"wspd":12,"visib":0.31,"altim":1022,"clouds":[{"cover":"OVX","base":0}],"obsTime":1783018800},"SBCJ":{"icaoId":"SBCJ","flightCategory":"VFR","rawOb":"METAR SBCJ 021900Z COR 14006KT CAVOK 30/16 Q1016","temp":30,"dewp":16,"wdir":140,"wspd":6,"visib":"6+","altim":1016,"clouds":[],"obsTime":1783018800},"SBSJ":{"icaoId":"SBSJ","flightCategory":"VFR","rawOb":"METAR SBSJ 021900Z 22004KT CAVOK 27/14 Q1021","temp":27,"dewp":14,"wdir":220,"wspd":4,"visib":"6+","altim":1021,"clouds":[],"obsTime":1783018800},"SBOI":{"icaoId":"SBOI","flightCategory":"VFR","rawOb":"METAR SBOI 021900Z AUTO VRB04KT CAVOK 30/25 Q1012","temp":30,"dewp":25,"wdir":"VRB","wspd":4,"visib":"6+","altim":1012,"clouds":[],"obsTime":1783018800},"SBPL":{"icaoId":"SBPL","flightCategory":"VFR","rawOb":"METAR SBPL 021900Z 12010KT CAVOK 31/12 Q1015","temp":31,"dewp":12,"wdir":120,"wspd":10,"visib":"6+","altim":1015,"clouds":[],"obsTime":1783018800},"SBGM":{"icaoId":"SBGM","flightCategory":"VFR","rawOb":"METAR SBGM 021900Z 11008KT CAVOK 34/18 Q1013","temp":34,"dewp":18,"wdir":110,"wspd":8,"visib":"6+","altim":1013,"clouds":[],"obsTime":1783018800},"SBNM":{"icaoId":"SBNM","flightCategory":"LIFR","rawOb":"METAR SBNM 021900Z AUTO 18011KT 5000 -RA BR BKN004 OVC011 10/10 Q1023","temp":10,"dewp":10,"wdir":180,"wspd":11,"visib":3.11,"altim":1023,"clouds":[{"cover":"BKN","base":400},{"cover":"OVC","base":1100}],"obsTime":1783018800},"SBJV":{"icaoId":"SBJV","flightCategory":"MVFR","rawOb":"METAR SBJV 021900Z 07001KT 9999 FEW005 OVC010 20/18 Q1018","temp":20,"dewp":18,"wdir":70,"wspd":1,"visib":"6+","altim":1018,"clouds":[{"cover":"FEW","base":500},{"cover":"OVC","base":1000}],"obsTime":1783018800},"SBPF":{"icaoId":"SBPF","flightCategory":"LIFR","rawOb":"METAR SBPF 021900Z 16005KT 8000 -DZ OVC002 12/11 Q1020","temp":12,"dewp":11,"wdir":160,"wspd":5,"visib":4.97,"altim":1020,"clouds":[{"cover":"OVC","base":200}],"obsTime":1783018800},"SBIH":{"icaoId":"SBIH","flightCategory":"VFR","rawOb":"METAR SBIH 021900Z 05008KT 9999 SCT020 35/24 Q1010","temp":35,"dewp":24,"wdir":50,"wspd":8,"visib":"6+","altim":1010,"clouds":[{"cover":"SCT","base":2000}],"obsTime":1783018800},"SBAF":{"icaoId":"SBAF","flightCategory":"VFR","rawOb":"METAR SBAF 021900Z 17008KT CAVOK 29/18 Q1018","temp":29,"dewp":18,"wdir":170,"wspd":8,"visib":"6+","altim":1018,"clouds":[],"obsTime":1783018800},"SBGW":{"icaoId":"SBGW","flightCategory":"VFR","rawOb":"METAR SBGW 021900Z 27003KT 220V010 CAVOK 29/12 Q1020","temp":29,"dewp":12,"wdir":270,"wspd":3,"visib":"6+","altim":1020,"clouds":[],"obsTime":1783018800},"SBJR":{"icaoId":"SBJR","flightCategory":"VFR","rawOb":"METAR SBJR 021900Z 20005KT CAVOK 29/20 Q1018","temp":29,"dewp":20,"wdir":200,"wspd":5,"visib":"6+","altim":1018,"clouds":[],"obsTime":1783018800},"SBLS":{"icaoId":"SBLS","flightCategory":"VFR","rawOb":"METAR SBLS 021900Z 12006KT 050V130 CAVOK 25/13 Q1022","temp":25,"dewp":13,"wdir":120,"wspd":6,"visib":"6+","altim":1022,"clouds":[],"obsTime":1783018800},"SBAN":{"icaoId":"SBAN","flightCategory":"VFR","rawOb":"METAR SBAN 021900Z 12006KT 9999 FEW030 24/14 Q1023","temp":24,"dewp":14,"wdir":120,"wspd":6,"visib":"6+","altim":1023,"clouds":[{"cover":"FEW","base":3000}],"obsTime":1783018800},"SBMT":{"icaoId":"SBMT","flightCategory":"VFR","rawOb":"METAR SBMT 021900Z 35005KT 310V050 CAVOK 26/14 Q1021","temp":26,"dewp":14,"wdir":350,"wspd":5,"visib":"6+","altim":1021,"clouds":[],"obsTime":1783018800},"SBST":{"icaoId":"SBST","flightCategory":"IFR","rawOb":"METAR SBST 021900Z 23004KT 4000 BR NSC 22/19 Q1018","temp":22,"dewp":19,"wdir":230,"wspd":4,"visib":2.49,"altim":1018,"clouds":[],"obsTime":1783018800},"SBTA":{"icaoId":"SBTA","flightCategory":"VFR","rawOb":"METAR SBTA 021900Z VRB02KT CAVOK 28/16 Q1020","temp":28,"dewp":16,"wdir":"VRB","wspd":2,"visib":"6+","altim":1020,"clouds":[],"obsTime":1783018800},"SBLE":{"icaoId":"SBLE","flightCategory":"VFR","rawOb":"METAR SBLE 021900Z AUTO 10009KT 070V130 CAVOK ///// Q1019","temp":null,"dewp":null,"wdir":100,"wspd":9,"visib":"6+","altim":1019,"clouds":[],"obsTime":1783018800},"SBJP":{"icaoId":"SBJP","flightCategory":"VFR","rawOb":"METAR SBJP 021900Z 12014KT 9999 FEW030 28/21 Q1014","temp":28,"dewp":21,"wdir":120,"wspd":14,"visib":"6+","altim":1014,"clouds":[{"cover":"FEW","base":3000}],"obsTime":1783018800}}}