{"updated":1775340971,"count":80,"data":{"SBRB":{"icaoId":"SBRB","flightCategory":"MVFR","rawOb":"METAR SBRB 042100Z 36003KT 9999 VCSH BKN027 FEW040TCU SCT090 27/25 Q1009 RETS","temp":27,"dewp":25,"wdir":360,"wspd":3,"visib":"6+","altim":1009,"clouds":[{"cover":"BKN","base":2700},{"cover":"FEW","base":4000},{"cover":"SCT","base":9000}],"obsTime":1775336400},"SBMA":{"icaoId":"SBMA","flightCategory":"VFR","rawOb":"METAR SBMA 042100Z 11002KT 9999 FEW020 FEW025TCU BKN100 30/26 Q1008","temp":30,"dewp":26,"wdir":110,"wspd":2,"visib":"6+","altim":1008,"clouds":[{"cover":"FEW","base":2000},{"cover":"FEW","base":2500},{"cover":"BKN","base":10000}],"obsTime":1775336400},"SBCP":{"icaoId":"SBCP","flightCategory":"VFR","rawOb":"METAR SBCP 042100Z 08010KT 9999 FEW020 BKN100 27/23 Q1013","temp":27,"dewp":23,"wdir":80,"wspd":10,"visib":"6+","altim":1013,"clouds":[{"cover":"FEW","base":2000},{"cover":"BKN","base":10000}],"obsTime":1775336400},"SBME":{"icaoId":"SBME","flightCategory":"VFR","rawOb":"METAR SBME 042100Z 31002KT 9999 -TSRA FEW030 FEW040CB BKN080 24/22 Q1014","temp":24,"dewp":22,"wdir":310,"wspd":2,"visib":"6+","altim":1014,"clouds":[{"cover":"FEW","base":3000},{"cover":"FEW","base":4000},{"cover":"BKN","base":8000}],"obsTime":1775336400},"SBMG":{"icaoId":"SBMG","flightCategory":"VFR","rawOb":"METAR SBMG 042100Z 15004KT CAVOK 30/18 Q1013","temp":30,"dewp":18,"wdir":150,"wspd":4,"visib":"6+","altim":1013,"clouds":[],"obsTime":1775336400},"SBFL":{"icaoId":"SBFL","flightCategory":"VFR","rawOb":"METAR SBFL 042100Z 10006KT 9999 SCT040 BKN090 25/23 Q1013 RETS","temp":25,"dewp":23,"wdir":100,"wspd":6,"visib":"6+","altim":1013,"clouds":[{"cover":"SCT","base":4000},{"cover":"BKN","base":9000}],"obsTime":1775336400},"SBMK":{"icaoId":"SBMK","flightCategory":"VFR","rawOb":"METAR SBMK 042100Z 14004KT 9999 FEW040 28/19 Q1015","temp":28,"dewp":19,"wdir":140,"wspd":4,"visib":"6+","altim":1015,"clouds":[{"cover":"FEW","base":4000}],"obsTime":1775336400},"SBBR":{"icaoId":"SBBR","flightCategory":"VFR","rawOb":"METAR SBBR 042100Z 11007KT 9999 FEW045 FEW050TCU SCT100 27/17 Q1017","temp":27,"dewp":17,"wdir":110,"wspd":7,"visib":"6+","altim":1017,"clouds":[{"cover":"FEW","base":4500},{"cover":"FEW","base":5000},{"cover":"SCT","base":10000}],"obsTime":1775336400},"SBFZ":{"icaoId":"SBFZ","flightCategory":"MVFR","rawOb":"METAR SBFZ 042100Z 09010KT 5000 -RA BKN020 FEW025TCU 28/25 Q1010","temp":28,"dewp":25,"wdir":90,"wspd":10,"visib":3.11,"altim":1010,"clouds":[{"cover":"BKN","base":2000},{"cover":"FEW","base":2500}],"obsTime":1775336400},"SBMO":{"icaoId":"SBMO","flightCategory":"VFR","rawOb":"METAR SBMO 042100Z 08005KT 9999 SCT025 26/24 Q1013","temp":26,"dewp":24,"wdir":80,"wspd":5,"visib":"6+","altim":1013,"clouds":[{"cover":"SCT","base":2500}],"obsTime":1775336400},"SBVT":{"icaoId":"SBVT","flightCategory":"VFR","rawOb":"METAR SBVT 042100Z 04010KT 9999 FEW040 SCT100 27/24 Q1014","temp":27,"dewp":24,"wdir":40,"wspd":10,"visib":"6+","altim":1014,"clouds":[{"cover":"FEW","base":4000},{"cover":"SCT","base":10000}],"obsTime":1775336400},"SBCB":{"icaoId":"SBCB","flightCategory":"VFR","rawOb":"METAR SBCB 042100Z 03004KT 9999 FEW015 BKN070 26/23 Q1013","temp":26,"dewp":23,"wdir":30,"wspd":4,"visib":"6+","altim":1013,"clouds":[{"cover":"FEW","base":1500},{"cover":"BKN","base":7000}],"obsTime":1775336400},"SBMQ":{"icaoId":"SBMQ","flightCategory":"MVFR","rawOb":"SPECI SBMQ 042025Z 06015KT 6000 -TSRA BKN015 FEW030CB SCT080 28/25 Q1009","temp":28,"dewp":25,"wdir":60,"wspd":15,"visib":3.73,"altim":1009,"clouds":[{"cover":"BKN","base":1500},{"cover":"FEW","base":3000},{"cover":"SCT","base":8000}],"obsTime":1775334300},"SBGL":{"icaoId":"SBGL","flightCategory":"VFR","rawOb":"METAR SBGL 042100Z 06011KT 9999 VCTS FEW025 FEW030CB SCT050 26/21 Q1013 RETS","temp":26,"dewp":21,"wdir":60,"wspd":11,"visib":"6+","altim":1013,"clouds":[{"cover":"FEW","base":2500},{"cover":"FEW","base":3000},{"cover":"SCT","base":5000}],"obsTime":1775336400},"SBNT":{"icaoId":"SBNT","flightCategory":"VFR","rawOb":"METAR SBNT 042100Z 10008KT 9999 FEW020 SCT070 28/24 Q1011","temp":28,"dewp":24,"wdir":100,"wspd":8,"visib":"6+","altim":1011,"clouds":[{"cover":"FEW","base":2000},{"cover":"SCT","base":7000}],"obsTime":1775336400},"SBPA":{"icaoId":"SBPA","flightCategory":"VFR","rawOb":"METAR SBPA 042100Z 21008KT 180V250 9999 VCSH VCTS FEW015 FEW030CB 28/21 Q1013","temp":28,"dewp":21,"wdir":210,"wspd":8,"visib":"6+","altim":1013,"clouds":[{"cover":"FEW","base":1500},{"cover":"FEW","base":3000}],"obsTime":1775336400},"SBBE":{"icaoId":"SBBE","flightCategory":"VFR","rawOb":"METAR SBBE 042100Z 06005KT 9999 FEW013 SCT025 BKN083 27/25 Q1009","temp":27,"dewp":25,"wdir":60,"wspd":5,"visib":"6+","altim":1009,"clouds":[{"cover":"FEW","base":1300},{"cover":"SCT","base":2500},{"cover":"BKN","base":8300}],"obsTime":1775336400},"SBGO":{"icaoId":"SBGO","flightCategory":"VFR","rawOb":"METAR SBGO 042100Z 33005KT 9999 FEW045 FEW048TCU 25/20 Q1016 RETS","temp":25,"dewp":20,"wdir":330,"wspd":5,"visib":"6+","altim":1016,"clouds":[{"cover":"FEW","base":4500},{"cover":"FEW","base":4800}],"obsTime":1775336400},"SBPJ":{"icaoId":"SBPJ","flightCategory":"VFR","rawOb":"METAR SBPJ 042100Z 12004KT 9999 FEW033 31/23 Q1010","temp":31,"dewp":23,"wdir":120,"wspd":4,"visib":"6+","altim":1010,"clouds":[{"cover":"FEW","base":3300}],"obsTime":1775336400},"SBPV":{"icaoId":"SBPV","flightCategory":"MVFR","rawOb":"SPECI SBPV 042022Z 33003KT 9999 BKN013 26/24 Q1008","temp":26,"dewp":24,"wdir":330,"wspd":3,"visib":"6+","altim":1008,"clouds":[{"cover":"BKN","base":1300}],"obsTime":1775334120},"SBUR":{"icaoId":"SBUR","flightCategory":"VFR","rawOb":"METAR SBUR 042100Z 09009KT 9999 4000E TS VCSH FEW048 FEW049CB 25/16 Q1016","temp":25,"dewp":16,"wdir":90,"wspd":9,"visib":"6+","altim":1016,"clouds":[{"cover":"FEW","base":4800},{"cover":"FEW","base":4900}],"obsTime":1775336400},"SBCT":{"icaoId":"SBCT","flightCategory":"VFR","rawOb":"METAR SBCT 042100Z 11005KT 9999 SCT045 25/21 Q1017","temp":25,"dewp":21,"wdir":110,"wspd":5,"visib":"6+","altim":1017,"clouds":[{"cover":"SCT","base":4500}],"obsTime":1775336400},"SBGR":{"icaoId":"SBGR","flightCategory":"VFR","rawOb":"METAR SBGR 042100Z 15007KT 9999 -RA BKN040 BKN100 22/20 Q1017","temp":22,"dewp":20,"wdir":150,"wspd":7,"visib":"6+","altim":1017,"clouds":[{"cover":"BKN","base":4000},{"cover":"BKN","base":10000}],"obsTime":1775336400},"SBUL":{"icaoId":"SBUL","flightCategory":"VFR","rawOb":"METAR SBUL 042100Z 21013KT 170V230 9999 -TSRA SCT045 FEW049CB 22/17 Q1018 RETS","temp":22,"dewp":17,"wdir":210,"wspd":13,"visib":"6+","altim":1018,"clouds":[{"cover":"SCT","base":4500},{"cover":"FEW","base":4900}],"obsTime":1775336400},"SBLO":{"icaoId":"SBLO","flightCategory":"VFR","rawOb":"METAR SBLO 042100Z VRB02KT 9999 FEW045TCU 29/20 Q1014","temp":29,"dewp":20,"wdir":"VRB","wspd":2,"visib":"6+","altim":1014,"clouds":[{"cover":"FEW","base":4500}],"obsTime":1775336400},"SBCG":{"icaoId":"SBCG","flightCategory":"VFR","rawOb":"METAR SBCG 042100Z 13003KT 090V160 9999 VCSH VCTS SCT045 FEW050CB BKN100 29/20 Q1014","temp":29,"dewp":20,"wdir":130,"wspd":3,"visib":"6+","altim":1014,"clouds":[{"cover":"SCT","base":4500},{"cover":"FEW","base":5000},{"cover":"BKN","base":10000}],"obsTime":1775336400},"SBRF":{"icaoId":"SBRF","flightCategory":"IFR","rawOb":"SPECI SBRF 042035Z 12013KT 4000 -RA BR BKN016 FEW027TCU BKN050 25/23 Q1012","temp":25,"dewp":23,"wdir":120,"wspd":13,"visib":2.49,"altim":1012,"clouds":[{"cover":"BKN","base":1600},{"cover":"FEW","base":2700},{"cover":"BKN","base":5000}],"obsTime":1775334900},"SBCF":{"icaoId":"SBCF","flightCategory":"VFR","rawOb":"METAR SBCF 042100Z 12006KT 9999 FEW045 FEW050TCU SCT100 26/19 Q1018","temp":26,"dewp":19,"wdir":120,"wspd":6,"visib":"6+","altim":1018,"clouds":[{"cover":"FEW","base":4500},{"cover":"FEW","base":5000},{"cover":"SCT","base":10000}],"obsTime":1775336400},"SBCZ":{"icaoId":"SBCZ","flightCategory":"MVFR","rawOb":"METAR SBCZ 042100Z 15004KT 9999 BKN030 31/23 Q1007","temp":31,"dewp":23,"wdir":150,"wspd":4,"visib":"6+","altim":1007,"clouds":[{"cover":"BKN","base":3000}],"obsTime":1775336400},"SBSG":{"icaoId":"SBSG","flightCategory":"VFR","rawOb":"METAR SBSG 042100Z 13004KT 090V160 9999 SCT023 BKN070 27/24 Q1012","temp":27,"dewp":24,"wdir":130,"wspd":4,"visib":"6+","altim":1012,"clouds":[{"cover":"SCT","base":2300},{"cover":"BKN","base":7000}],"obsTime":1775336400},"SBIL":{"icaoId":"SBIL","flightCategory":"VFR","rawOb":"METAR SBIL 042100Z 12009KT 9999 SCT018 FEW023TCU 28/25 Q1014","temp":28,"dewp":25,"wdir":120,"wspd":9,"visib":"6+","altim":1014,"clouds":[{"cover":"SCT","base":1800},{"cover":"FEW","base":2300}],"obsTime":1775336400},"SBSL":{"icaoId":"SBSL","flightCategory":"VFR","rawOb":"METAR SBSL 042100Z 08005KT 9999 SCT020 SCT100 25/24 Q1009","temp":25,"dewp":24,"wdir":80,"wspd":5,"visib":"6+","altim":1009,"clouds":[{"cover":"SCT","base":2000},{"cover":"SCT","base":10000}],"obsTime":1775336400},"SBSN":{"icaoId":"SBSN","flightCategory":"VFR","rawOb":"METAR SBSN 042100Z 10008KT 9999 VCSH FEW020 FEW026TCU SCT080 31/24 Q1008","temp":31,"dewp":24,"wdir":100,"wspd":8,"visib":"6+","altim":1008,"clouds":[{"cover":"FEW","base":2000},{"cover":"FEW","base":2600},{"cover":"SCT","base":8000}],"obsTime":1775336400},"SBJU":{"icaoId":"SBJU","flightCategory":"VFR","rawOb":"METAR SBJU 042100Z 18010KT 9999 SCT020 FEW020TCU 28/22 Q1012","temp":28,"dewp":22,"wdir":180,"wspd":10,"visib":"6+","altim":1012,"clouds":[{"cover":"SCT","base":2000},{"cover":"FEW","base":2000}],"obsTime":1775336400},"SBBV":{"icaoId":"SBBV","flightCategory":"VFR","rawOb":"METAR SBBV 042100Z 27006KT 9999 -RA SCT009 SCT020 OVC100 24/23 Q1010","temp":24,"dewp":23,"wdir":270,"wspd":6,"visib":"6+","altim":1010,"clouds":[{"cover":"SCT","base":900},{"cover":"SCT","base":2000},{"cover":"OVC","base":10000}],"obsTime":1775336400},"SBSP":{"icaoId":"SBSP","flightCategory":"VFR","rawOb":"METAR SBSP 042100Z 12005KT CAVOK 24/19 Q1018","temp":24,"dewp":19,"wdir":120,"wspd":5,"visib":"6+","altim":1018,"clouds":[],"obsTime":1775336400},"SBEG":{"icaoId":"SBEG","flightCategory":"MVFR","rawOb":"METAR SBEG 042100Z 30006KT 9999 FEW006 BKN015 FEW025TCU BKN060 25/23 Q1009","temp":25,"dewp":23,"wdir":300,"wspd":6,"visib":"6+","altim":1009,"clouds":[{"cover":"FEW","base":600},{"cover":"BKN","base":1500},{"cover":"FEW","base":2500},{"cover":"BKN","base":6000}],"obsTime":1775336400},"SBSV":{"icaoId":"SBSV","flightCategory":"VFR","rawOb":"METAR SBSV 042100Z 12008KT 090V150 9999 SCT019 FEW023TCU 28/23 Q1013","temp":28,"dewp":23,"wdir":120,"wspd":8,"visib":"6+","altim":1013,"clouds":[{"cover":"SCT","base":1900},{"cover":"FEW","base":2300}],"obsTime":1775336400},"SBKP":{"icaoId":"SBKP","flightCategory":"VFR","rawOb":"METAR SBKP 042100Z 26004KT 9999 VCSH FEW045 FEW047TCU 30/19 Q1015","temp":30,"dewp":19,"wdir":260,"wspd":4,"visib":"6+","altim":1015,"clouds":[{"cover":"FEW","base":4500},{"cover":"FEW","base":4700}],"obsTime":1775336400},"SBTE":{"icaoId":"SBTE","flightCategory":"VFR","rawOb":"METAR SBTE 042100Z 12002KT 9999 SCT016 FEW025TCU SCT090 32/23 Q1008","temp":32,"dewp":23,"wdir":120,"wspd":2,"visib":"6+","altim":1008,"clouds":[{"cover":"SCT","base":1600},{"cover":"FEW","base":2500},{"cover":"SCT","base":9000}],"obsTime":1775336400},"SBFI":{"icaoId":"SBFI","flightCategory":"VFR","rawOb":"METAR SBFI 042100Z 35001KT 9999 FEW035 FEW040TCU 32/24 Q1012","temp":32,"dewp":24,"wdir":350,"wspd":1,"visib":"6+","altim":1012,"clouds":[{"cover":"FEW","base":3500},{"cover":"FEW","base":4000}],"obsTime":1775336400},"SBCR":{"icaoId":"SBCR","flightCategory":"VFR","rawOb":"METAR SBCR 042100Z 13004KT 100V210 9999 FEW030 FEW040TCU 31/22 Q1010","temp":31,"dewp":22,"wdir":130,"wspd":4,"visib":"6+","altim":1010,"clouds":[{"cover":"FEW","base":3000},{"cover":"FEW","base":4000}],"obsTime":1775336400},"SBHT":{"icaoId":"SBHT","flightCategory":"VFR","rawOb":"METAR SBHT 042100Z 00000KT 9999 SCT012 BKN080 27/25 Q1009","temp":27,"dewp":25,"wdir":0,"wspd":0,"visib":"6+","altim":1009,"clouds":[{"cover":"SCT","base":1200},{"cover":"BKN","base":8000}],"obsTime":1775336400},"SBAT":{"icaoId":"SBAT","flightCategory":"VFR","rawOb":"METAR SBAT 042100Z 19003KT 9999 FEW035 27/23 Q1010","temp":27,"dewp":23,"wdir":190,"wspd":3,"visib":"6+","altim":1010,"clouds":[{"cover":"FEW","base":3500}],"obsTime":1775336400},"SBUY":{"icaoId":"SBUY","flightCategory":"VFR","rawOb":"METAR SBUY 042100Z 10005KT 9999 FEW025 FEW030TCU SCT100 29/24 Q1007","temp":29,"dewp":24,"wdir":100,"wspd":5,"visib":"6+","altim":1007,"clouds":[{"cover":"FEW","base":2500},{"cover":"FEW","base":3000},{"cover":"SCT","base":10000}],"obsTime":1775336400},"SBOI":{"icaoId":"SBOI","flightCategory":"VFR","rawOb":"METAR SBOI 042100Z AUTO 07006KT 020V120 9999 SCT034 29/23 Q1009","temp":29,"dewp":23,"wdir":70,"wspd":6,"visib":"6+","altim":1009,"clouds":[{"cover":"SCT","base":3400}],"obsTime":1775336400},"SBTT":{"icaoId":"SBTT","flightCategory":"VFR","rawOb":"METAR SBTT 042100Z 33003KT 9999 SCT025 31/22 Q1007","temp":31,"dewp":22,"wdir":330,"wspd":3,"visib":"6+","altim":1007,"clouds":[{"cover":"SCT","base":2500}],"obsTime":1775336400},"SBAX":{"icaoId":"SBAX","flightCategory":"VFR","rawOb":"METAR SBAX 042100Z AUTO 08003KT 360V120 9999 -RA NSC ///// Q1019","temp":null,"dewp":null,"wdir":80,"wspd":3,"visib":"6+","altim":1019,"clouds":[],"obsTime":1775336400},"SBPL":{"icaoId":"SBPL","flightCategory":"VFR","rawOb":"METAR SBPL 042100Z 01003KT 9999 VCSH FEW030 FEW035TCU 30/22 Q1011","temp":30,"dewp":22,"wdir":10,"wspd":3,"visib":"6+","altim":1011,"clouds":[{"cover":"FEW","base":3000},{"cover":"FEW","base":3500}],"obsTime":1775336400},"SBAR":{"icaoId":"SBAR","flightCategory":"VFR","rawOb":"METAR SBAR 042100Z 11009KT 9999 SCT021 29/24 Q1012","temp":29,"dewp":24,"wdir":110,"wspd":9,"visib":"6+","altim":1012,"clouds":[{"cover":"SCT","base":2100}],"obsTime":1775336400},"SBDN":{"icaoId":"SBDN","flightCategory":"VFR","rawOb":"METAR SBDN 042100Z 07002KT 9999 FEW055TCU 28/21 Q1013","temp":28,"dewp":21,"wdir":70,"wspd":2,"visib":"6+","altim":1013,"clouds":[{"cover":"FEW","base":5500}],"obsTime":1775336400},"SBBU":{"icaoId":"SBBU","flightCategory":"VFR","rawOb":"METAR SBBU 042100Z 19005KT 9999 FEW040 28/21 Q1015","temp":28,"dewp":21,"wdir":190,"wspd":5,"visib":"6+","altim":1015,"clouds":[{"cover":"FEW","base":4000}],"obsTime":1775336400},"SBPS":{"icaoId":"SBPS","flightCategory":"VFR","rawOb":"METAR SBPS 042100Z 08012KT 9999 SCT020 SCT070 26/24 Q1015","temp":26,"dewp":24,"wdir":80,"wspd":12,"visib":"6+","altim":1015,"clouds":[{"cover":"SCT","base":2000},{"cover":"SCT","base":7000}],"obsTime":1775336400},"SBSC":{"icaoId":"SBSC","flightCategory":"VFR","rawOb":"METAR SBSC 042100Z 16002KT 9999 FEW030 FEW040TCU 26/21 Q1013","temp":26,"dewp":21,"wdir":160,"wspd":2,"visib":"6+","altim":1013,"clouds":[{"cover":"FEW","base":3000},{"cover":"FEW","base":4000}],"obsTime":1775336400},"SBVH":{"icaoId":"SBVH","flightCategory":"MVFR","rawOb":"METAR SBVH 042100Z 07002KT 9000 SCT014 BKN030 BKN090 23/23 Q1012","temp":23,"dewp":23,"wdir":70,"wspd":2,"visib":5.59,"altim":1012,"clouds":[{"cover":"SCT","base":1400},{"cover":"BKN","base":3000},{"cover":"BKN","base":9000}],"obsTime":1775336400},"SBSJ":{"icaoId":"SBSJ","flightCategory":"IFR","rawOb":"SPECI SBSJ 042024Z 24012KT 4000 BR TS VCSH BKN036 FEW045CB BKN083 24/20 Q1017","temp":24,"dewp":20,"wdir":240,"wspd":12,"visib":2.49,"altim":1017,"clouds":[{"cover":"BKN","base":3600},{"cover":"FEW","base":4500},{"cover":"BKN","base":8300}],"obsTime":1775334240},"SBIP":{"icaoId":"SBIP","flightCategory":"VFR","rawOb":"METAR SBIP 042100Z AUTO 00000KT CAVOK 25/23 Q1014","temp":25,"dewp":23,"wdir":0,"wspd":0,"visib":"6+","altim":1014,"clouds":[],"obsTime":1775336400},"SBSM":{"icaoId":"SBSM","flightCategory":"VFR","rawOb":"METAR SBSM 042100Z 29002KT 9999 FEW019 SCT100 25/22 Q1014","temp":25,"dewp":22,"wdir":290,"wspd":2,"visib":"6+","altim":1014,"clouds":[{"cover":"FEW","base":1900},{"cover":"SCT","base":10000}],"obsTime":1775336400},"SBBH":{"icaoId":"SBBH","flightCategory":"VFR","rawOb":"METAR SBBH 042100Z 10006KT 9999 FEW045 FEW050TCU SCT100 26/18 Q1017","temp":26,"dewp":18,"wdir":100,"wspd":6,"visib":"6+","altim":1017,"clouds":[{"cover":"FEW","base":4500},{"cover":"FEW","base":5000},{"cover":"SCT","base":10000}],"obsTime":1775336400},"SBSR":{"icaoId":"SBSR","flightCategory":"VFR","rawOb":"METAR SBSR 042100Z 33002KT 9999 FEW040 SCT070 26/20 Q1014","temp":26,"dewp":20,"wdir":330,"wspd":2,"visib":"6+","altim":1014,"clouds":[{"cover":"FEW","base":4000},{"cover":"SCT","base":7000}],"obsTime":1775336400},"SBKG":{"icaoId":"SBKG","flightCategory":"VFR","rawOb":"METAR SBKG 042100Z 08012KT 9999 SCT020 SCT080 23/22 Q1015","temp":23,"dewp":22,"wdir":80,"wspd":12,"visib":"6+","altim":1015,"clouds":[{"cover":"SCT","base":2000},{"cover":"SCT","base":8000}],"obsTime":1775336400},"SBCO":{"icaoId":"SBCO","flightCategory":"VFR","rawOb":"METAR SBCO 042100Z 23005KT 200V270 9999 VCSH VCTS FEW028 FEW035CB 28/21 Q1013","temp":28,"dewp":21,"wdir":230,"wspd":5,"visib":"6+","altim":1013,"clouds":[{"cover":"FEW","base":2800},{"cover":"FEW","base":3500}],"obsTime":1775336400},"SBTF":{"icaoId":"SBTF","flightCategory":"VFR","rawOb":"METAR SBTF 042100Z 11005KT 9999 FEW020 SCT090 30/25 Q1008","temp":30,"dewp":25,"wdir":110,"wspd":5,"visib":"6+","altim":1008,"clouds":[{"cover":"FEW","base":2000},{"cover":"SCT","base":9000}],"obsTime":1775336400},"SBPB":{"icaoId":"SBPB","flightCategory":"VFR","rawOb":"METAR SBPB 042100Z 09009KT 9999 SCT020 BKN100 29/25 Q1009","temp":29,"dewp":25,"wdir":90,"wspd":9,"visib":"6+","altim":1009,"clouds":[{"cover":"SCT","base":2000},{"cover":"BKN","base":10000}],"obsTime":1775336400},"SBCJ":{"icaoId":"SBCJ","flightCategory":"VFR","rawOb":"METAR SBCJ 042100Z 00000KT 9999 FEW020 BKN070 24/22 Q1014","temp":24,"dewp":22,"wdir":0,"wspd":0,"visib":"6+","altim":1014,"clouds":[{"cover":"FEW","base":2000},{"cover":"BKN","base":7000}],"obsTime":1775336400},"SBES":{"icaoId":"SBES","flightCategory":"VFR","rawOb":"METAR SBES 042100Z 04004KT 360V070 9999 VCSH FEW025 SCT050 BKN100 22/// Q1013","temp":null,"dewp":null,"wdir":40,"wspd":4,"visib":"6+","altim":1013,"clouds":[{"cover":"FEW","base":2500},{"cover":"SCT","base":5000},{"cover":"BKN","base":10000}],"obsTime":1775336400},"SBPP":{"icaoId":"SBPP","flightCategory":"VFR","rawOb":"METAR SBPP 042100Z 13008KT 9999 FEW025 30/19 Q1014","temp":30,"dewp":19,"wdir":130,"wspd":8,"visib":"6+","altim":1014,"clouds":[{"cover":"FEW","base":2500}],"obsTime":1775336400},"SBAN":{"icaoId":"SBAN","flightCategory":"VFR","rawOb":"METAR SBAN 042100Z 31002KT 9999 SCT030 FEW040TCU BKN100 23/19 Q1018","temp":23,"dewp":19,"wdir":310,"wspd":2,"visib":"6+","altim":1018,"clouds":[{"cover":"SCT","base":3000},{"cover":"FEW","base":4000},{"cover":"BKN","base":10000}],"obsTime":1775336400},"SBGW":{"icaoId":"SBGW","flightCategory":"VFR","rawOb":"METAR SBGW 042100Z 31004KT 280V340 9999 SCT030 26/17 Q1016","temp":26,"dewp":17,"wdir":310,"wspd":4,"visib":"6+","altim":1016,"clouds":[{"cover":"SCT","base":3000}],"obsTime":1775336400},"SBJR":{"icaoId":"SBJR","flightCategory":"VFR","rawOb":"METAR SBJR 042100Z 30004KT 9999 SCT025 FEW030TCU 27/23 Q1013","temp":27,"dewp":23,"wdir":300,"wspd":4,"visib":"6+","altim":1013,"clouds":[{"cover":"SCT","base":2500},{"cover":"FEW","base":3000}],"obsTime":1775336400},"SBLS":{"icaoId":"SBLS","flightCategory":"VFR","rawOb":"METAR SBLS 042100Z 15005KT 9999 FEW040 FEW045TCU SCT100 26/19 Q1017","temp":26,"dewp":19,"wdir":150,"wspd":5,"visib":"6+","altim":1017,"clouds":[{"cover":"FEW","base":4000},{"cover":"FEW","base":4500},{"cover":"SCT","base":10000}],"obsTime":1775336400},"SBMT":{"icaoId":"SBMT","flightCategory":"MVFR","rawOb":"METAR SBMT 042100Z 12004KT 9999 BKN017 FEW040TCU 23/20 Q1017","temp":23,"dewp":20,"wdir":120,"wspd":4,"visib":"6+","altim":1017,"clouds":[{"cover":"BKN","base":1700},{"cover":"FEW","base":4000}],"obsTime":1775336400},"SBJV":{"icaoId":"SBJV","flightCategory":"VFR","rawOb":"METAR SBJV 042100Z 02005KT 9999 FEW035 29/25 Q1011","temp":29,"dewp":25,"wdir":20,"wspd":5,"visib":"6+","altim":1011,"clouds":[{"cover":"FEW","base":3500}],"obsTime":1775336400},"SBLE":{"icaoId":"SBLE","flightCategory":"VFR","rawOb":"METAR SBLE 042100Z AUTO VRB01KT CAVOK 26/26 Q1015","temp":26,"dewp":26,"wdir":"VRB","wspd":1,"visib":"6+","altim":1015,"clouds":[],"obsTime":1775336400},"SBJP":{"icaoId":"SBJP","flightCategory":"VFR","rawOb":"METAR SBJP 042100Z 08008KT 9999 FEW025 28/23 Q1012","temp":28,"dewp":23,"wdir":80,"wspd":8,"visib":"6+","altim":1012,"clouds":[{"cover":"FEW","base":2500}],"obsTime":1775336400},"SBAF":{"icaoId":"SBAF","flightCategory":"VFR","rawOb":"METAR SBAF 042100Z 05007KT 9999 SCT025 FEW035TCU BKN040 27/24 Q1014","temp":27,"dewp":24,"wdir":50,"wspd":7,"visib":"6+","altim":1014,"clouds":[{"cover":"SCT","base":2500},{"cover":"FEW","base":3500},{"cover":"BKN","base":4000}],"obsTime":1775336400},"SBST":{"icaoId":"SBST","flightCategory":"VFR","rawOb":"METAR SBST 042100Z 09002KT CAVOK 26/23 Q1012","temp":26,"dewp":23,"wdir":90,"wspd":2,"visib":"6+","altim":1012,"clouds":[],"obsTime":1775336400},"SBTA":{"icaoId":"SBTA","flightCategory":"VFR","rawOb":"METAR SBTA 042100Z VRB02KT 9999 VCSH BKN040 FEW045TCU SCT080 25/20 Q1015","temp":25,"dewp":20,"wdir":"VRB","wspd":2,"visib":"6+","altim":1015,"clouds":[{"cover":"BKN","base":4000},{"cover":"FEW","base":4500},{"cover":"SCT","base":8000}],"obsTime":1775336400},"SBIH":{"icaoId":"SBIH","flightCategory":"VFR","rawOb":"METAR SBIH 042100Z 01004KT 9999 FEW018 FEW025TCU 33/23 Q1007","temp":33,"dewp":23,"wdir":10,"wspd":4,"visib":"6+","altim":1007,"clouds":[{"cover":"FEW","base":1800},{"cover":"FEW","base":2500}],"obsTime":1775336400},"SBPF":{"icaoId":"SBPF","flightCategory":"VFR","rawOb":"METAR SBPF 042100Z AUTO 19007KT 9999 NSC 26/16 Q1017","temp":26,"dewp":16,"wdir":190,"wspd":7,"visib":"6+","altim":1017,"clouds":[],"obsTime":1775336400}}}