{"updated":1775327017,"count":84,"data":{"SBGL":{"icaoId":"SBGL","flightCategory":"VFR","rawOb":"METAR SBGL 041700Z 05005KT 010V070 9999 FEW030 FEW030TCU 33/22 Q1012","temp":33,"dewp":22,"wdir":50,"wspd":5,"visib":"6+","altim":1012,"clouds":[{"cover":"FEW","base":3000},{"cover":"FEW","base":3000}],"obsTime":1775322000},"SBPV":{"icaoId":"SBPV","flightCategory":"MVFR","rawOb":"METAR SBPV 041700Z 02005KT 9999 FEW010 BKN025 FEW030TCU 27/23 Q1012","temp":27,"dewp":23,"wdir":20,"wspd":5,"visib":"6+","altim":1012,"clouds":[{"cover":"FEW","base":1000},{"cover":"BKN","base":2500},{"cover":"FEW","base":3000}],"obsTime":1775322000},"SBCT":{"icaoId":"SBCT","flightCategory":"VFR","rawOb":"METAR SBCT 041700Z 26006KT 220V290 9999 SCT045 28/15 Q1018","temp":28,"dewp":15,"wdir":260,"wspd":6,"visib":"6+","altim":1018,"clouds":[{"cover":"SCT","base":4500}],"obsTime":1775322000},"SBBE":{"icaoId":"SBBE","flightCategory":"LIFR","rawOb":"SPECI SBBE 041654Z 05015G26KT 0400 R07/P2000 +TSRA SCT012 BKN025 FEW030CB 27/25 Q1012","temp":27,"dewp":25,"wdir":50,"wspd":15,"visib":0.25,"altim":1012,"clouds":[{"cover":"SCT","base":1200},{"cover":"BKN","base":2500},{"cover":"FEW","base":3000}],"obsTime":1775321640},"SBBR":{"icaoId":"SBBR","flightCategory":"VFR","rawOb":"METAR SBBR 041700Z 03005KT 330V100 9999 SCT040 28/17 Q1019","temp":28,"dewp":17,"wdir":30,"wspd":5,"visib":"6+","altim":1019,"clouds":[{"cover":"SCT","base":4000}],"obsTime":1775322000},"SBBV":{"icaoId":"SBBV","flightCategory":"IFR","rawOb":"METAR SBBV 041700Z 24010G21KT 9999 BKN006 SCT035 FEW040TCU BKN100 26/24 Q1013","temp":26,"dewp":24,"wdir":240,"wspd":10,"visib":"6+","altim":1013,"clouds":[{"cover":"BKN","base":600},{"cover":"SCT","base":3500},{"cover":"FEW","base":4000},{"cover":"BKN","base":10000}],"obsTime":1775322000},"SBCB":{"icaoId":"SBCB","flightCategory":"VFR","rawOb":"METAR SBCB 041700Z 08013KT CAVOK 29/23 Q1013","temp":29,"dewp":23,"wdir":80,"wspd":13,"visib":"6+","altim":1013,"clouds":[],"obsTime":1775322000},"SBCF":{"icaoId":"SBCF","flightCategory":"VFR","rawOb":"METAR SBCF 041700Z 06005KT 350V110 9999 BKN040 29/17 Q1019","temp":29,"dewp":17,"wdir":60,"wspd":5,"visib":"6+","altim":1019,"clouds":[{"cover":"BKN","base":4000}],"obsTime":1775322000},"SBCG":{"icaoId":"SBCG","flightCategory":"VFR","rawOb":"METAR SBCG 041700Z 26005KT 210V340 9999 VCSH BKN045 FEW050TCU 32/20 Q1015","temp":32,"dewp":20,"wdir":260,"wspd":5,"visib":"6+","altim":1015,"clouds":[{"cover":"BKN","base":4500},{"cover":"FEW","base":5000}],"obsTime":1775322000},"SBCP":{"icaoId":"SBCP","flightCategory":"VFR","rawOb":"METAR SBCP 041700Z 11008KT 9999 SCT020 BKN100 30/23 Q1013","temp":30,"dewp":23,"wdir":110,"wspd":8,"visib":"6+","altim":1013,"clouds":[{"cover":"SCT","base":2000},{"cover":"BKN","base":10000}],"obsTime":1775322000},"SBCR":{"icaoId":"SBCR","flightCategory":"VFR","rawOb":"METAR SBCR 041700Z 02005KT 320V060 9999 BKN045 34/23 Q1012","temp":34,"dewp":23,"wdir":20,"wspd":5,"visib":"6+","altim":1012,"clouds":[{"cover":"BKN","base":4500}],"obsTime":1775322000},"SBAT":{"icaoId":"SBAT","flightCategory":"VFR","rawOb":"METAR SBAT 041700Z 11008KT 9999 SCT030 32/23 Q1012","temp":32,"dewp":23,"wdir":110,"wspd":8,"visib":"6+","altim":1012,"clouds":[{"cover":"SCT","base":3000}],"obsTime":1775322000},"SBCZ":{"icaoId":"SBCZ","flightCategory":"MVFR","rawOb":"METAR SBCZ 041700Z 10004KT 9999 BKN022 28/24 Q1013","temp":28,"dewp":24,"wdir":100,"wspd":4,"visib":"6+","altim":1013,"clouds":[{"cover":"BKN","base":2200}],"obsTime":1775322000},"SBEG":{"icaoId":"SBEG","flightCategory":"IFR","rawOb":"METAR SBEG 041700Z 27011KT 3000 RA SCT004 BKN015 FEW025TCU 23/22 Q1014","temp":23,"dewp":22,"wdir":270,"wspd":11,"visib":1.86,"altim":1014,"clouds":[{"cover":"SCT","base":400},{"cover":"BKN","base":1500},{"cover":"FEW","base":2500}],"obsTime":1775322000},"SBFI":{"icaoId":"SBFI","flightCategory":"MVFR","rawOb":"METAR SBFI 041700Z 25004KT 9999 BKN030 33/22 Q1014","temp":33,"dewp":22,"wdir":250,"wspd":4,"visib":"6+","altim":1014,"clouds":[{"cover":"BKN","base":3000}],"obsTime":1775322000},"SBFL":{"icaoId":"SBFL","flightCategory":"VFR","rawOb":"METAR SBFL 041700Z 11011KT 9999 FEW040 27/22 Q1012","temp":27,"dewp":22,"wdir":110,"wspd":11,"visib":"6+","altim":1012,"clouds":[{"cover":"FEW","base":4000}],"obsTime":1775322000},"SBFZ":{"icaoId":"SBFZ","flightCategory":"VFR","rawOb":"METAR SBFZ 041700Z 12016KT 9999 SCT024 30/25 Q1010","temp":30,"dewp":25,"wdir":120,"wspd":16,"visib":"6+","altim":1010,"clouds":[{"cover":"SCT","base":2400}],"obsTime":1775322000},"SBGO":{"icaoId":"SBGO","flightCategory":"VFR","rawOb":"METAR SBGO 041700Z VRB06KT 9999 SCT045 31/19 Q1017","temp":31,"dewp":19,"wdir":"VRB","wspd":6,"visib":"6+","altim":1017,"clouds":[{"cover":"SCT","base":4500}],"obsTime":1775322000},"SBGR":{"icaoId":"SBGR","flightCategory":"VFR","rawOb":"METAR SBGR 041700Z 32007KT 9999 FEW045TCU BKN050 31/18 Q1017","temp":31,"dewp":18,"wdir":320,"wspd":7,"visib":"6+","altim":1017,"clouds":[{"cover":"FEW","base":4500},{"cover":"BKN","base":5000}],"obsTime":1775322000},"SBHT":{"icaoId":"SBHT","flightCategory":"VFR","rawOb":"METAR SBHT 041700Z 15002KT 9999 SCT012 BKN080 27/24 Q1011","temp":27,"dewp":24,"wdir":150,"wspd":2,"visib":"6+","altim":1011,"clouds":[{"cover":"SCT","base":1200},{"cover":"BKN","base":8000}],"obsTime":1775322000},"SBIL":{"icaoId":"SBIL","flightCategory":"VFR","rawOb":"METAR SBIL 041700Z 13007KT 100V170 9999 SCT020 30/26 Q1014","temp":30,"dewp":26,"wdir":130,"wspd":7,"visib":"6+","altim":1014,"clouds":[{"cover":"SCT","base":2000}],"obsTime":1775322000},"SBJU":{"icaoId":"SBJU","flightCategory":"MVFR","rawOb":"METAR SBJU 041700Z 12010KT 9999 BKN022 31/22 Q1012","temp":31,"dewp":22,"wdir":120,"wspd":10,"visib":"6+","altim":1012,"clouds":[{"cover":"BKN","base":2200}],"obsTime":1775322000},"SBKP":{"icaoId":"SBKP","flightCategory":"VFR","rawOb":"METAR SBKP 041700Z VRB04KT 9999 BKN040 31/19 Q1017","temp":31,"dewp":19,"wdir":"VRB","wspd":4,"visib":"6+","altim":1017,"clouds":[{"cover":"BKN","base":4000}],"obsTime":1775322000},"SBLO":{"icaoId":"SBLO","flightCategory":"VFR","rawOb":"METAR SBLO 041700Z VRB02KT 9999 SCT040 30/20 Q1016","temp":30,"dewp":20,"wdir":"VRB","wspd":2,"visib":"6+","altim":1016,"clouds":[{"cover":"SCT","base":4000}],"obsTime":1775322000},"SBMA":{"icaoId":"SBMA","flightCategory":"VFR","rawOb":"METAR SBMA 041700Z 16006KT 9999 SCT025 FEW027TCU 31/25 Q1010","temp":31,"dewp":25,"wdir":160,"wspd":6,"visib":"6+","altim":1010,"clouds":[{"cover":"SCT","base":2500},{"cover":"FEW","base":2700}],"obsTime":1775322000},"SBME":{"icaoId":"SBME","flightCategory":"MVFR","rawOb":"METAR SBME 041700Z VRB02KT 8000 -TSRA SCT030 FEW040CB BKN080 24/21 Q1013 RETS","temp":24,"dewp":21,"wdir":"VRB","wspd":2,"visib":4.97,"altim":1013,"clouds":[{"cover":"SCT","base":3000},{"cover":"FEW","base":4000},{"cover":"BKN","base":8000}],"obsTime":1775322000},"SBMG":{"icaoId":"SBMG","flightCategory":"VFR","rawOb":"METAR SBMG 041700Z 26006KT 210V300 CAVOK 32/17 Q1015","temp":32,"dewp":17,"wdir":260,"wspd":6,"visib":"6+","altim":1015,"clouds":[],"obsTime":1775322000},"SBMK":{"icaoId":"SBMK","flightCategory":"VFR","rawOb":"METAR SBMK 041700Z 07006KT 9999 SCT030 29/19 Q1017","temp":29,"dewp":19,"wdir":70,"wspd":6,"visib":"6+","altim":1017,"clouds":[{"cover":"SCT","base":3000}],"obsTime":1775322000},"SBMO":{"icaoId":"SBMO","flightCategory":"VFR","rawOb":"METAR SBMO 041700Z 10012KT 060V120 9999 VCSH SCT025 30/23 Q1012","temp":30,"dewp":23,"wdir":100,"wspd":12,"visib":"6+","altim":1012,"clouds":[{"cover":"SCT","base":2500}],"obsTime":1775322000},"SBMQ":{"icaoId":"SBMQ","flightCategory":"MVFR","rawOb":"METAR SBMQ 041700Z 05015KT 9999 BKN019 FEW030TCU 30/25 Q1010","temp":30,"dewp":25,"wdir":50,"wspd":15,"visib":"6+","altim":1010,"clouds":[{"cover":"BKN","base":1900},{"cover":"FEW","base":3000}],"obsTime":1775322000},"SBNT":{"icaoId":"SBNT","flightCategory":"VFR","rawOb":"METAR SBNT 041700Z 10015G26KT 060V130 9999 VCSH SCT021 FEW028TCU 29/24 Q1011","temp":29,"dewp":24,"wdir":100,"wspd":15,"visib":"6+","altim":1011,"clouds":[{"cover":"SCT","base":2100},{"cover":"FEW","base":2800}],"obsTime":1775322000},"SBPA":{"icaoId":"SBPA","flightCategory":"VFR","rawOb":"METAR SBPA 041700Z 28007KT 240V320 9999 SCT035 FEW040TCU 30/21 Q1013","temp":30,"dewp":21,"wdir":280,"wspd":7,"visib":"6+","altim":1013,"clouds":[{"cover":"SCT","base":3500},{"cover":"FEW","base":4000}],"obsTime":1775322000},"SBPJ":{"icaoId":"SBPJ","flightCategory":"VFR","rawOb":"METAR SBPJ 041700Z 11006KT 9999 SCT045 32/23 Q1012","temp":32,"dewp":23,"wdir":110,"wspd":6,"visib":"6+","altim":1012,"clouds":[{"cover":"SCT","base":4500}],"obsTime":1775322000},"SBRB":{"icaoId":"SBRB","flightCategory":"MVFR","rawOb":"METAR SBRB 041700Z 10005KT 080V250 9999 TS VCSH BKN021 FEW040CB SCT070 29/24 Q1012","temp":29,"dewp":24,"wdir":100,"wspd":5,"visib":"6+","altim":1012,"clouds":[{"cover":"BKN","base":2100},{"cover":"FEW","base":4000},{"cover":"SCT","base":7000}],"obsTime":1775322000},"SBRF":{"icaoId":"SBRF","flightCategory":"MVFR","rawOb":"METAR SBRF 041700Z 13014KT 9999 BKN023 29/24 Q1012","temp":29,"dewp":24,"wdir":130,"wspd":14,"visib":"6+","altim":1012,"clouds":[{"cover":"BKN","base":2300}],"obsTime":1775322000},"SBSG":{"icaoId":"SBSG","flightCategory":"MVFR","rawOb":"METAR SBSG 041700Z 10017KT 9999 BKN030 FEW033TCU 31/24 Q1011","temp":31,"dewp":24,"wdir":100,"wspd":17,"visib":"6+","altim":1011,"clouds":[{"cover":"BKN","base":3000},{"cover":"FEW","base":3300}],"obsTime":1775322000},"SBSL":{"icaoId":"SBSL","flightCategory":"VFR","rawOb":"METAR SBSL 041700Z 07009KT 9999 VCTS SCT020 FEW025CB 27/25 Q1010 RETS","temp":27,"dewp":25,"wdir":70,"wspd":9,"visib":"6+","altim":1010,"clouds":[{"cover":"SCT","base":2000},{"cover":"FEW","base":2500}],"obsTime":1775322000},"SBSN":{"icaoId":"SBSN","flightCategory":"VFR","rawOb":"METAR SBSN 041700Z 06006KT 9999 FEW020 FEW023TCU 31/24 Q1010","temp":31,"dewp":24,"wdir":60,"wspd":6,"visib":"6+","altim":1010,"clouds":[{"cover":"FEW","base":2000},{"cover":"FEW","base":2300}],"obsTime":1775322000},"SBSP":{"icaoId":"SBSP","flightCategory":"VFR","rawOb":"METAR SBSP 041700Z 33006KT 9999 SCT045 30/17 Q1018","temp":30,"dewp":17,"wdir":330,"wspd":6,"visib":"6+","altim":1018,"clouds":[{"cover":"SCT","base":4500}],"obsTime":1775322000},"SBSV":{"icaoId":"SBSV","flightCategory":"VFR","rawOb":"METAR SBSV 041700Z 12010KT 090V160 9999 FEW023 30/23 Q1013","temp":30,"dewp":23,"wdir":120,"wspd":10,"visib":"6+","altim":1013,"clouds":[{"cover":"FEW","base":2300}],"obsTime":1775322000},"SBTE":{"icaoId":"SBTE","flightCategory":"MVFR","rawOb":"METAR SBTE 041700Z 12009KT 9999 -RA BKN020 29/25 Q1009","temp":29,"dewp":25,"wdir":120,"wspd":9,"visib":"6+","altim":1009,"clouds":[{"cover":"BKN","base":2000}],"obsTime":1775322000},"SBUL":{"icaoId":"SBUL","flightCategory":"VFR","rawOb":"METAR SBUL 041700Z 04007KT 340V080 9999 BKN040 FEW045TCU 28/17 Q1019","temp":28,"dewp":17,"wdir":40,"wspd":7,"visib":"6+","altim":1019,"clouds":[{"cover":"BKN","base":4000},{"cover":"FEW","base":4500}],"obsTime":1775322000},"SBUR":{"icaoId":"SBUR","flightCategory":"VFR","rawOb":"METAR SBUR 041700Z 26007KT 9999 BKN048 30/19 Q1018","temp":30,"dewp":19,"wdir":260,"wspd":7,"visib":"6+","altim":1018,"clouds":[{"cover":"BKN","base":4800}],"obsTime":1775322000},"SBVT":{"icaoId":"SBVT","flightCategory":"VFR","rawOb":"METAR SBVT 041700Z 07013KT 9999 FEW030 29/24 Q1014","temp":29,"dewp":24,"wdir":70,"wspd":13,"visib":"6+","altim":1014,"clouds":[{"cover":"FEW","base":3000}],"obsTime":1775322000},"SBSJ":{"icaoId":"SBSJ","flightCategory":"VFR","rawOb":"METAR SBSJ 041700Z VRB02KT 9999 SCT046 30/19 Q1017","temp":30,"dewp":19,"wdir":"VRB","wspd":2,"visib":"6+","altim":1017,"clouds":[{"cover":"SCT","base":4600}],"obsTime":1775322000},"SBAR":{"icaoId":"SBAR","flightCategory":"VFR","rawOb":"METAR SBAR 041700Z 10011KT 9999 SCT024 30/24 Q1012","temp":30,"dewp":24,"wdir":100,"wspd":11,"visib":"6+","altim":1012,"clouds":[{"cover":"SCT","base":2400}],"obsTime":1775322000},"SBAX":{"icaoId":"SBAX","flightCategory":"VFR","rawOb":"METAR SBAX 041700Z AUTO 33005KT 260V060 9999 FEW047 29/17 Q1018","temp":29,"dewp":17,"wdir":330,"wspd":5,"visib":"6+","altim":1018,"clouds":[{"cover":"FEW","base":4700}],"obsTime":1775322000},"SBBH":{"icaoId":"SBBH","flightCategory":"VFR","rawOb":"METAR SBBH 041700Z 06007KT 9999 BKN043 FEW045TCU 29/18 Q1018","temp":29,"dewp":18,"wdir":60,"wspd":7,"visib":"6+","altim":1018,"clouds":[{"cover":"BKN","base":4300},{"cover":"FEW","base":4500}],"obsTime":1775322000},"SBBQ":{"icaoId":"SBBQ","flightCategory":"MVFR","rawOb":"METAR SBBQ 041700Z 13011KT 080V180 7000 TSRA BKN030 FEW035CB 19/17 Q1022","temp":19,"dewp":17,"wdir":130,"wspd":11,"visib":4.35,"altim":1022,"clouds":[{"cover":"BKN","base":3000},{"cover":"FEW","base":3500}],"obsTime":1775322000},"SBBU":{"icaoId":"SBBU","flightCategory":"VFR","rawOb":"METAR SBBU 041700Z 32003KT 9999 SCT040 31/21 Q1016","temp":31,"dewp":21,"wdir":320,"wspd":3,"visib":"6+","altim":1016,"clouds":[{"cover":"SCT","base":4000}],"obsTime":1775322000},"SBCC":{"icaoId":"SBCC","flightCategory":"MVFR","rawOb":"METAR SBCC 041700Z 08009KT 9999 VCSH BKN020 FEW025TCU BKN100 30/21 Q1013","temp":30,"dewp":21,"wdir":80,"wspd":9,"visib":"6+","altim":1013,"clouds":[{"cover":"BKN","base":2000},{"cover":"FEW","base":2500},{"cover":"BKN","base":10000}],"obsTime":1775322000},"SBCJ":{"icaoId":"SBCJ","flightCategory":"VFR","rawOb":"METAR SBCJ 041700Z 13008KT 9999 SCT022 29/22 Q1015","temp":29,"dewp":22,"wdir":130,"wspd":8,"visib":"6+","altim":1015,"clouds":[{"cover":"SCT","base":2200}],"obsTime":1775322000},"SBCO":{"icaoId":"SBCO","flightCategory":"VFR","rawOb":"METAR SBCO 041700Z COR 29007KT 250V310 9999 SCT040 FEW043TCU 31/22 Q1013","temp":31,"dewp":22,"wdir":290,"wspd":7,"visib":"6+","altim":1013,"clouds":[{"cover":"SCT","base":4000},{"cover":"FEW","base":4300}],"obsTime":1775322000},"SBDN":{"icaoId":"SBDN","flightCategory":"VFR","rawOb":"METAR SBDN 041700Z 25002KT 9999 BKN050 FEW060TCU 33/19 Q1015","temp":33,"dewp":19,"wdir":250,"wspd":2,"visib":"6+","altim":1015,"clouds":[{"cover":"BKN","base":5000},{"cover":"FEW","base":6000}],"obsTime":1775322000},"SBES":{"icaoId":"SBES","flightCategory":"VFR","rawOb":"METAR SBES 041700Z 08009KT 040V120 9999 TS FEW020 FEW025CB 32/// Q1013 RETS","temp":null,"dewp":null,"wdir":80,"wspd":9,"visib":"6+","altim":1013,"clouds":[{"cover":"FEW","base":2000},{"cover":"FEW","base":2500}],"obsTime":1775322000},"SBGM":{"icaoId":"SBGM","flightCategory":"MVFR","rawOb":"METAR SBGM 041700Z 19005KT 8000 BKN013 BKN020 29/22 Q1011","temp":29,"dewp":22,"wdir":190,"wspd":5,"visib":4.97,"altim":1011,"clouds":[{"cover":"BKN","base":1300},{"cover":"BKN","base":2000}],"obsTime":1775322000},"SBIP":{"icaoId":"SBIP","flightCategory":"VFR","rawOb":"METAR SBIP 041700Z AUTO 05006KT 010V090 CAVOK 30/21 Q1015","temp":30,"dewp":21,"wdir":50,"wspd":6,"visib":"6+","altim":1015,"clouds":[],"obsTime":1775322000},"SBKG":{"icaoId":"SBKG","flightCategory":"MVFR","rawOb":"METAR SBKG 041700Z 10012G22KT 9999 BKN030 29/21 Q1014","temp":29,"dewp":21,"wdir":100,"wspd":12,"visib":"6+","altim":1014,"clouds":[{"cover":"BKN","base":3000}],"obsTime":1775322000},"SBOI":{"icaoId":"SBOI","flightCategory":"VFR","rawOb":"METAR SBOI 041700Z AUTO 10006KT 050V160 9999 FEW030 32/24 Q1011","temp":32,"dewp":24,"wdir":100,"wspd":6,"visib":"6+","altim":1011,"clouds":[{"cover":"FEW","base":3000}],"obsTime":1775322000},"SBPB":{"icaoId":"SBPB","flightCategory":"VFR","rawOb":"METAR SBPB 041700Z 06012KT 9999 SCT020 31/25 Q1009","temp":31,"dewp":25,"wdir":60,"wspd":12,"visib":"6+","altim":1009,"clouds":[{"cover":"SCT","base":2000}],"obsTime":1775322000},"SBPL":{"icaoId":"SBPL","flightCategory":"VFR","rawOb":"METAR SBPL 041700Z 10006KT 9999 SCT030 32/19 Q1012","temp":32,"dewp":19,"wdir":100,"wspd":6,"visib":"6+","altim":1012,"clouds":[{"cover":"SCT","base":3000}],"obsTime":1775322000},"SBPP":{"icaoId":"SBPP","flightCategory":"VFR","rawOb":"METAR SBPP 041700Z 20006KT 9999 SCT025 30/18 Q1017","temp":30,"dewp":18,"wdir":200,"wspd":6,"visib":"6+","altim":1017,"clouds":[{"cover":"SCT","base":2500}],"obsTime":1775322000},"SBPS":{"icaoId":"SBPS","flightCategory":"VFR","rawOb":"METAR SBPS 041700Z 13006KT 9999 SCT020 29/24 Q1015","temp":29,"dewp":24,"wdir":130,"wspd":6,"visib":"6+","altim":1015,"clouds":[{"cover":"SCT","base":2000}],"obsTime":1775322000},"SBSC":{"icaoId":"SBSC","flightCategory":"VFR","rawOb":"METAR SBSC 041700Z 16008KT CAVOK 30/22 Q1014","temp":30,"dewp":22,"wdir":160,"wspd":8,"visib":"6+","altim":1014,"clouds":[],"obsTime":1775322000},"SBSM":{"icaoId":"SBSM","flightCategory":"VFR","rawOb":"METAR SBSM 041700Z 26005G15KT 9999 FEW040 BKN100 27/23 Q1014","temp":27,"dewp":23,"wdir":260,"wspd":5,"visib":"6+","altim":1014,"clouds":[{"cover":"FEW","base":4000},{"cover":"BKN","base":10000}],"obsTime":1775322000},"SBSR":{"icaoId":"SBSR","flightCategory":"MVFR","rawOb":"METAR SBSR 041700Z VRB03KT 9999 BKN025 FEW030TCU 30/19 Q1016","temp":30,"dewp":19,"wdir":"VRB","wspd":3,"visib":"6+","altim":1016,"clouds":[{"cover":"BKN","base":2500},{"cover":"FEW","base":3000}],"obsTime":1775322000},"SBTF":{"icaoId":"SBTF","flightCategory":"VFR","rawOb":"METAR SBTF 041700Z 35004KT 9999 SCT015 BKN100 30/24 Q1012","temp":30,"dewp":24,"wdir":350,"wspd":4,"visib":"6+","altim":1012,"clouds":[{"cover":"SCT","base":1500},{"cover":"BKN","base":10000}],"obsTime":1775322000},"SBTT":{"icaoId":"SBTT","flightCategory":"VFR","rawOb":"METAR SBTT 041700Z 29004KT 9999 SCT015 30/23 Q1012","temp":30,"dewp":23,"wdir":290,"wspd":4,"visib":"6+","altim":1012,"clouds":[{"cover":"SCT","base":1500}],"obsTime":1775322000},"SBUY":{"icaoId":"SBUY","flightCategory":"VFR","rawOb":"METAR SBUY 041700Z 32002KT 9999 SCT020 BKN100 29/24 Q1011","temp":29,"dewp":24,"wdir":320,"wspd":2,"visib":"6+","altim":1011,"clouds":[{"cover":"SCT","base":2000},{"cover":"BKN","base":10000}],"obsTime":1775322000},"SBVH":{"icaoId":"SBVH","flightCategory":"MVFR","rawOb":"METAR SBVH 041700Z 11011KT 9999 BKN030 29/23 Q1015","temp":29,"dewp":23,"wdir":110,"wspd":11,"visib":"6+","altim":1015,"clouds":[{"cover":"BKN","base":3000}],"obsTime":1775322000},"SBAN":{"icaoId":"SBAN","flightCategory":"MVFR","rawOb":"METAR SBAN 041700Z 08004KT 9999 VCSH BKN030 FEW035TCU 27/19 Q1020","temp":27,"dewp":19,"wdir":80,"wspd":4,"visib":"6+","altim":1020,"clouds":[{"cover":"BKN","base":3000},{"cover":"FEW","base":3500}],"obsTime":1775322000},"SBAF":{"icaoId":"SBAF","flightCategory":"VFR","rawOb":"METAR SBAF 041700Z 19012KT 9999 SCT027 32/23 Q1012","temp":32,"dewp":23,"wdir":190,"wspd":12,"visib":"6+","altim":1012,"clouds":[{"cover":"SCT","base":2700}],"obsTime":1775322000},"SBIH":{"icaoId":"SBIH","flightCategory":"VFR","rawOb":"METAR SBIH 041700Z 04006KT 9999 FEW018 33/24 Q1010","temp":33,"dewp":24,"wdir":40,"wspd":6,"visib":"6+","altim":1010,"clouds":[{"cover":"FEW","base":1800}],"obsTime":1775322000},"SBJV":{"icaoId":"SBJV","flightCategory":"VFR","rawOb":"METAR SBJV 041700Z 12007KT 080V140 9999 SCT030 32/26 Q1012","temp":32,"dewp":26,"wdir":120,"wspd":7,"visib":"6+","altim":1012,"clouds":[{"cover":"SCT","base":3000}],"obsTime":1775322000},"SBLE":{"icaoId":"SBLE","flightCategory":"VFR","rawOb":"METAR SBLE 041700Z AUTO 14005KT 100V210 9999 FEW037 28/21 Q1015","temp":28,"dewp":21,"wdir":140,"wspd":5,"visib":"6+","altim":1015,"clouds":[{"cover":"FEW","base":3700}],"obsTime":1775322000},"SBTC":{"icaoId":"SBTC","flightCategory":"VFR","rawOb":"METAR SBTC 041700Z 12005KT 9999 SCT025 29/24 Q1014","temp":29,"dewp":24,"wdir":120,"wspd":5,"visib":"6+","altim":1014,"clouds":[{"cover":"SCT","base":2500}],"obsTime":1775322000},"SBJP":{"icaoId":"SBJP","flightCategory":"VFR","rawOb":"METAR SBJP 041700Z 08010KT 9999 SCT020 SCT070 31/24 Q1011","temp":31,"dewp":24,"wdir":80,"wspd":10,"visib":"6+","altim":1011,"clouds":[{"cover":"SCT","base":2000},{"cover":"SCT","base":7000}],"obsTime":1775322000},"SBGW":{"icaoId":"SBGW","flightCategory":"VFR","rawOb":"METAR SBGW 041700Z 34004KT 9999 SCT030 31/19 Q1016","temp":31,"dewp":19,"wdir":340,"wspd":4,"visib":"6+","altim":1016,"clouds":[{"cover":"SCT","base":3000}],"obsTime":1775322000},"SBJR":{"icaoId":"SBJR","flightCategory":"VFR","rawOb":"METAR SBJR 041700Z 20005KT 9999 FEW025 FEW030TCU 31/24 Q1013","temp":31,"dewp":24,"wdir":200,"wspd":5,"visib":"6+","altim":1013,"clouds":[{"cover":"FEW","base":2500},{"cover":"FEW","base":3000}],"obsTime":1775322000},"SBLS":{"icaoId":"SBLS","flightCategory":"VFR","rawOb":"METAR SBLS 041700Z 04005KT 320V080 9999 SCT035 28/18 Q1018","temp":28,"dewp":18,"wdir":40,"wspd":5,"visib":"6+","altim":1018,"clouds":[{"cover":"SCT","base":3500}],"obsTime":1775322000},"SBMT":{"icaoId":"SBMT","flightCategory":"VFR","rawOb":"METAR SBMT 041700Z 29006KT 250V350 9999 SCT025 FEW040TCU 29/18 Q1017","temp":29,"dewp":18,"wdir":290,"wspd":6,"visib":"6+","altim":1017,"clouds":[{"cover":"SCT","base":2500},{"cover":"FEW","base":4000}],"obsTime":1775322000},"SBST":{"icaoId":"SBST","flightCategory":"VFR","rawOb":"METAR SBST 041700Z 21005KT CAVOK 29/23 Q1013","temp":29,"dewp":23,"wdir":210,"wspd":5,"visib":"6+","altim":1013,"clouds":[],"obsTime":1775322000},"SBTA":{"icaoId":"SBTA","flightCategory":"VFR","rawOb":"METAR SBTA 041700Z 01002KT 9999 SCT035 FEW040TCU 29/17 Q1016","temp":29,"dewp":17,"wdir":10,"wspd":2,"visib":"6+","altim":1016,"clouds":[{"cover":"SCT","base":3500},{"cover":"FEW","base":4000}],"obsTime":1775322000},"SBPF":{"icaoId":"SBPF","flightCategory":"VFR","rawOb":"METAR SBPF 041700Z AUTO 25009KT 220V280 9999 NSC 28/17 Q1017","temp":28,"dewp":17,"wdir":250,"wspd":9,"visib":"6+","altim":1017,"clouds":[],"obsTime":1775322000}}}