{"updated":1774670036,"count":57,"data":{"SBVT":{"icaoId":"SBVT","flightCategory":"VFR","rawOb":"METAR SBVT 280200Z 26003KT 9000 -TSRA SCT012 FEW030CB OVC035 22/22 Q1018 RERA","temp":22,"dewp":22,"wdir":260,"wspd":3,"visib":5.59,"altim":1018,"clouds":[{"cover":"SCT","base":1200},{"cover":"FEW","base":3000},{"cover":"OVC","base":3500}],"obsTime":1774663200},"SBSN":{"icaoId":"SBSN","flightCategory":"VFR","rawOb":"METAR SBSN 280200Z 00000KT CAVOK 25/25 Q1010","temp":25,"dewp":25,"wdir":0,"wspd":0,"visib":"6+","altim":1010,"clouds":[],"obsTime":1774663200},"SBRF":{"icaoId":"SBRF","flightCategory":"MVFR","rawOb":"METAR SBRF 280200Z 22003KT 9999 VCSH BKN018 FEW023TCU BKN100 26/24 Q1012","temp":26,"dewp":24,"wdir":220,"wspd":3,"visib":"6+","altim":1012,"clouds":[{"cover":"BKN","base":1800},{"cover":"FEW","base":2300},{"cover":"BKN","base":10000}],"obsTime":1774663200},"SBMO":{"icaoId":"SBMO","flightCategory":"VFR","rawOb":"METAR SBMO 280200Z 26002KT 9999 FEW010 SCT020 BKN080 24/23 Q1013","temp":24,"dewp":23,"wdir":260,"wspd":2,"visib":"6+","altim":1013,"clouds":[{"cover":"FEW","base":1000},{"cover":"SCT","base":2000},{"cover":"BKN","base":8000}],"obsTime":1774663200},"SBSG":{"icaoId":"SBSG","flightCategory":"VFR","rawOb":"METAR SBSG 280200Z 19003KT 9999 FEW023 26/23 Q1012","temp":26,"dewp":23,"wdir":190,"wspd":3,"visib":"6+","altim":1012,"clouds":[{"cover":"FEW","base":2300}],"obsTime":1774663200},"SBMA":{"icaoId":"SBMA","flightCategory":"VFR","rawOb":"METAR SBMA 280200Z 03002KT CAVOK 26/24 Q1010","temp":26,"dewp":24,"wdir":30,"wspd":2,"visib":"6+","altim":1010,"clouds":[],"obsTime":1774663200},"SBMG":{"icaoId":"SBMG","flightCategory":"VFR","rawOb":"METAR SBMG 280200Z 14008KT CAVOK 24/22 Q1017","temp":24,"dewp":22,"wdir":140,"wspd":8,"visib":"6+","altim":1017,"clouds":[],"obsTime":1774663200},"SBSL":{"icaoId":"SBSL","flightCategory":"VFR","rawOb":"METAR SBSL 280200Z 10009KT 9999 FEW017 FEW020TCU SCT100 26/24 Q1010","temp":26,"dewp":24,"wdir":100,"wspd":9,"visib":"6+","altim":1010,"clouds":[{"cover":"FEW","base":1700},{"cover":"FEW","base":2000},{"cover":"SCT","base":10000}],"obsTime":1774663200},"SBFZ":{"icaoId":"SBFZ","flightCategory":"VFR","rawOb":"METAR SBFZ 280200Z 09007KT 9999 FEW020 28/24 Q1011","temp":28,"dewp":24,"wdir":90,"wspd":7,"visib":"6+","altim":1011,"clouds":[{"cover":"FEW","base":2000}],"obsTime":1774663200},"SBPA":{"icaoId":"SBPA","flightCategory":"VFR","rawOb":"METAR SBPA 280200Z 10004KT CAVOK 26/23 Q1016","temp":26,"dewp":23,"wdir":100,"wspd":4,"visib":"6+","altim":1016,"clouds":[],"obsTime":1774663200},"SBKP":{"icaoId":"SBKP","flightCategory":"VFR","rawOb":"METAR SBKP 280200Z 12010KT CAVOK 23/19 Q1020","temp":23,"dewp":19,"wdir":120,"wspd":10,"visib":"6+","altim":1020,"clouds":[],"obsTime":1774663200},"SBNT":{"icaoId":"SBNT","flightCategory":"VFR","rawOb":"METAR SBNT 280200Z 11007KT 9999 SCT020 28/24 Q1011","temp":28,"dewp":24,"wdir":110,"wspd":7,"visib":"6+","altim":1011,"clouds":[{"cover":"SCT","base":2000}],"obsTime":1774663200},"SBGL":{"icaoId":"SBGL","flightCategory":"VFR","rawOb":"METAR SBGL 280200Z 11006KT CAVOK 26/22 Q1018","temp":26,"dewp":22,"wdir":110,"wspd":6,"visib":"6+","altim":1018,"clouds":[],"obsTime":1774663200},"SBCG":{"icaoId":"SBCG","flightCategory":"VFR","rawOb":"METAR SBCG 280200Z 06008KT 9999 FEW045 FEW050TCU 24/21 Q1017","temp":24,"dewp":21,"wdir":60,"wspd":8,"visib":"6+","altim":1017,"clouds":[{"cover":"FEW","base":4500},{"cover":"FEW","base":5000}],"obsTime":1774663200},"SBEG":{"icaoId":"SBEG","flightCategory":"VFR","rawOb":"METAR SBEG 280200Z 31003KT 9999 VCTS FEW030 FEW035CB 27/26 Q1010","temp":27,"dewp":26,"wdir":310,"wspd":3,"visib":"6+","altim":1010,"clouds":[{"cover":"FEW","base":3000},{"cover":"FEW","base":3500}],"obsTime":1774663200},"SBMQ":{"icaoId":"SBMQ","flightCategory":"VFR","rawOb":"METAR SBMQ 280200Z 01006KT 9999 FEW017 SCT050 28/25 Q1010","temp":28,"dewp":25,"wdir":10,"wspd":6,"visib":"6+","altim":1010,"clouds":[{"cover":"FEW","base":1700},{"cover":"SCT","base":5000}],"obsTime":1774663200},"SBMK":{"icaoId":"SBMK","flightCategory":"VFR","rawOb":"METAR SBMK 280200Z 15006KT CAVOK 22/18 Q1019","temp":22,"dewp":18,"wdir":150,"wspd":6,"visib":"6+","altim":1019,"clouds":[],"obsTime":1774663200},"SBTE":{"icaoId":"SBTE","flightCategory":"MVFR","rawOb":"METAR SBTE 280200Z 04009KT 360V080 9999 TS BKN020 FEW030CB 26/24 Q1011","temp":26,"dewp":24,"wdir":40,"wspd":9,"visib":"6+","altim":1011,"clouds":[{"cover":"BKN","base":2000},{"cover":"FEW","base":3000}],"obsTime":1774663200},"SBBV":{"icaoId":"SBBV","flightCategory":"MVFR","rawOb":"METAR SBBV 280200Z 14009KT 6000 TSRA SCT025 FEW040CB BKN100 25/24 Q1010","temp":25,"dewp":24,"wdir":140,"wspd":9,"visib":3.73,"altim":1010,"clouds":[{"cover":"SCT","base":2500},{"cover":"FEW","base":4000},{"cover":"BKN","base":10000}],"obsTime":1774663200},"SBPV":{"icaoId":"SBPV","flightCategory":"VFR","rawOb":"METAR SBPV 280200Z 09002KT CAVOK 25/23 Q1009","temp":25,"dewp":23,"wdir":90,"wspd":2,"visib":"6+","altim":1009,"clouds":[],"obsTime":1774663200},"SBLO":{"icaoId":"SBLO","flightCategory":"VFR","rawOb":"METAR SBLO 280200Z 14007KT 9999 FEW040 SCT100 25/21 Q1019","temp":25,"dewp":21,"wdir":140,"wspd":7,"visib":"6+","altim":1019,"clouds":[{"cover":"FEW","base":4000},{"cover":"SCT","base":10000}],"obsTime":1774663200},"SBGR":{"icaoId":"SBGR","flightCategory":"VFR","rawOb":"METAR SBGR 280200Z 12005KT 9999 SCT046 21/19 Q1022","temp":21,"dewp":19,"wdir":120,"wspd":5,"visib":"6+","altim":1022,"clouds":[{"cover":"SCT","base":4600}],"obsTime":1774663200},"SBRB":{"icaoId":"SBRB","flightCategory":"VFR","rawOb":"METAR SBRB 280200Z 00000KT 9999 SCT040 SCT100 25/25 Q1010 RETS","temp":25,"dewp":25,"wdir":0,"wspd":0,"visib":"6+","altim":1010,"clouds":[{"cover":"SCT","base":4000},{"cover":"SCT","base":10000}],"obsTime":1774663200},"SBGO":{"icaoId":"SBGO","flightCategory":"VFR","rawOb":"METAR SBGO 280200Z 11008KT CAVOK 23/19 Q1018","temp":23,"dewp":19,"wdir":110,"wspd":8,"visib":"6+","altim":1018,"clouds":[],"obsTime":1774663200},"SBFI":{"icaoId":"SBFI","flightCategory":"VFR","rawOb":"METAR SBFI 280200Z 13006KT CAVOK 26/24 Q1015","temp":26,"dewp":24,"wdir":130,"wspd":6,"visib":"6+","altim":1015,"clouds":[],"obsTime":1774663200},"SBCT":{"icaoId":"SBCT","flightCategory":"VFR","rawOb":"METAR SBCT 280200Z 11004KT 9999 SCT023 20/19 Q1024","temp":20,"dewp":19,"wdir":110,"wspd":4,"visib":"6+","altim":1024,"clouds":[{"cover":"SCT","base":2300}],"obsTime":1774663200},"SBFL":{"icaoId":"SBFL","flightCategory":"VFR","rawOb":"METAR SBFL 280200Z 36007KT 9999 FEW028 SCT040 27/24 Q1019","temp":27,"dewp":24,"wdir":360,"wspd":7,"visib":"6+","altim":1019,"clouds":[{"cover":"FEW","base":2800},{"cover":"SCT","base":4000}],"obsTime":1774663200},"SBSV":{"icaoId":"SBSV","flightCategory":"VFR","rawOb":"METAR SBSV 280200Z 10008KT 070V130 9000 VCSH FEW015 SCT020 FEW025TCU BKN050 27/24 Q1013","temp":27,"dewp":24,"wdir":100,"wspd":8,"visib":5.59,"altim":1013,"clouds":[{"cover":"FEW","base":1500},{"cover":"SCT","base":2000},{"cover":"FEW","base":2500},{"cover":"BKN","base":5000}],"obsTime":1774663200},"SBPJ":{"icaoId":"SBPJ","flightCategory":"VFR","rawOb":"METAR SBPJ 280200Z 12006KT 9999 SCT018 SCT080 27/23 Q1012","temp":27,"dewp":23,"wdir":120,"wspd":6,"visib":"6+","altim":1012,"clouds":[{"cover":"SCT","base":1800},{"cover":"SCT","base":8000}],"obsTime":1774663200},"SBBE":{"icaoId":"SBBE","flightCategory":"VFR","rawOb":"METAR SBBE 280200Z 06008KT CAVOK 27/24 Q1010","temp":27,"dewp":24,"wdir":60,"wspd":8,"visib":"6+","altim":1010,"clouds":[],"obsTime":1774663200},"SBSP":{"icaoId":"SBSP","flightCategory":"VFR","rawOb":"METAR SBSP 280200Z 13006KT CAVOK 21/18 Q1023","temp":21,"dewp":18,"wdir":130,"wspd":6,"visib":"6+","altim":1023,"clouds":[],"obsTime":1774663200},"SBUL":{"icaoId":"SBUL","flightCategory":"VFR","rawOb":"METAR SBUL 280200Z 14004KT 9999 BKN040 BKN080 22/18 Q1020","temp":22,"dewp":18,"wdir":140,"wspd":4,"visib":"6+","altim":1020,"clouds":[{"cover":"BKN","base":4000},{"cover":"BKN","base":8000}],"obsTime":1774663200},"SBUR":{"icaoId":"SBUR","flightCategory":"VFR","rawOb":"METAR SBUR 280200Z 06006KT CAVOK 24/17 Q1019","temp":24,"dewp":17,"wdir":60,"wspd":6,"visib":"6+","altim":1019,"clouds":[],"obsTime":1774663200},"SBCF":{"icaoId":"SBCF","flightCategory":"VFR","rawOb":"METAR SBCF 280200Z 14006KT CAVOK 22/16 Q1022","temp":22,"dewp":16,"wdir":140,"wspd":6,"visib":"6+","altim":1022,"clouds":[],"obsTime":1774663200},"SBME":{"icaoId":"SBME","flightCategory":"VFR","rawOb":"METAR SBME 280200Z 30002KT 9999 SCT023 24/23 Q1019","temp":24,"dewp":23,"wdir":300,"wspd":2,"visib":"6+","altim":1019,"clouds":[{"cover":"SCT","base":2300}],"obsTime":1774663200},"SBBR":{"icaoId":"SBBR","flightCategory":"VFR","rawOb":"METAR SBBR 280200Z 11008KT CAVOK 20/17 Q1020","temp":20,"dewp":17,"wdir":110,"wspd":8,"visib":"6+","altim":1020,"clouds":[],"obsTime":1774663200},"SBJU":{"icaoId":"SBJU","flightCategory":"VFR","rawOb":"METAR SBJU 280200Z 16005KT 9999 SCT020 24/21 Q1014","temp":24,"dewp":21,"wdir":160,"wspd":5,"visib":"6+","altim":1014,"clouds":[{"cover":"SCT","base":2000}],"obsTime":1774663200},"SBSR":{"icaoId":"SBSR","flightCategory":"VFR","rawOb":"METAR SBSR 280200Z 13002KT CAVOK 27/17 Q1017","temp":27,"dewp":17,"wdir":130,"wspd":2,"visib":"6+","altim":1017,"clouds":[],"obsTime":1774663200},"SBAR":{"icaoId":"SBAR","flightCategory":"VFR","rawOb":"METAR SBAR 280200Z 13007KT 9999 SCT022 28/24 Q1012","temp":28,"dewp":24,"wdir":130,"wspd":7,"visib":"6+","altim":1012,"clouds":[{"cover":"SCT","base":2200}],"obsTime":1774663200},"SBAX":{"icaoId":"SBAX","flightCategory":"VFR","rawOb":"METAR SBAX 280200Z AUTO 12007KT CAVOK 20/18 Q1021","temp":20,"dewp":18,"wdir":120,"wspd":7,"visib":"6+","altim":1021,"clouds":[],"obsTime":1774663200},"SBCO":{"icaoId":"SBCO","flightCategory":"VFR","rawOb":"METAR SBCO 280200Z 11005KT CAVOK 24/23 Q1016","temp":24,"dewp":23,"wdir":110,"wspd":5,"visib":"6+","altim":1016,"clouds":[],"obsTime":1774663200},"SBDN":{"icaoId":"SBDN","flightCategory":"VFR","rawOb":"METAR SBDN 280200Z 06004KT CAVOK 26/19 Q1017","temp":26,"dewp":19,"wdir":60,"wspd":4,"visib":"6+","altim":1017,"clouds":[],"obsTime":1774663200},"SBIP":{"icaoId":"SBIP","flightCategory":"VFR","rawOb":"METAR SBIP 280200Z AUTO VRB02KT CAVOK 23/23 Q1018","temp":23,"dewp":23,"wdir":"VRB","wspd":2,"visib":"6+","altim":1018,"clouds":[],"obsTime":1774663200},"SBKG":{"icaoId":"SBKG","flightCategory":"VFR","rawOb":"METAR SBKG 280200Z 11004KT 9999 FEW012 SCT070 22/22 Q1014","temp":22,"dewp":22,"wdir":110,"wspd":4,"visib":"6+","altim":1014,"clouds":[{"cover":"FEW","base":1200},{"cover":"SCT","base":7000}],"obsTime":1774663200},"SBPL":{"icaoId":"SBPL","flightCategory":"VFR","rawOb":"METAR SBPL 280200Z 07006KT CAVOK 24/21 Q1014","temp":24,"dewp":21,"wdir":70,"wspd":6,"visib":"6+","altim":1014,"clouds":[],"obsTime":1774663200},"SBPS":{"icaoId":"SBPS","flightCategory":"MVFR","rawOb":"METAR SBPS 280200Z 23002KT 9000 FEW006 BKN015 FEW025TCU BKN070 24/24 Q1016","temp":24,"dewp":24,"wdir":230,"wspd":2,"visib":5.59,"altim":1016,"clouds":[{"cover":"FEW","base":600},{"cover":"BKN","base":1500},{"cover":"FEW","base":2500},{"cover":"BKN","base":7000}],"obsTime":1774663200},"SBSC":{"icaoId":"SBSC","flightCategory":"VFR","rawOb":"METAR SBSC 280200Z 32003KT CAVOK 25/21 Q1018","temp":25,"dewp":21,"wdir":320,"wspd":3,"visib":"6+","altim":1018,"clouds":[],"obsTime":1774663200},"SBSJ":{"icaoId":"SBSJ","flightCategory":"VFR","rawOb":"METAR SBSJ 280200Z 11010KT CAVOK 21/18 Q1021","temp":21,"dewp":18,"wdir":110,"wspd":10,"visib":"6+","altim":1021,"clouds":[],"obsTime":1774663200},"SBSM":{"icaoId":"SBSM","flightCategory":"VFR","rawOb":"METAR SBSM 280200Z VRB02KT CAVOK 24/24 Q1015","temp":24,"dewp":24,"wdir":"VRB","wspd":2,"visib":"6+","altim":1015,"clouds":[],"obsTime":1774663200},"SBBH":{"icaoId":"SBBH","flightCategory":"VFR","rawOb":"METAR SBBH 280200Z 08004KT CAVOK 21/16 Q1021","temp":21,"dewp":16,"wdir":80,"wspd":4,"visib":"6+","altim":1021,"clouds":[],"obsTime":1774663200},"SBBU":{"icaoId":"SBBU","flightCategory":"VFR","rawOb":"METAR SBBU 280200Z 13015KT CAVOK 25/20 Q1019","temp":25,"dewp":20,"wdir":130,"wspd":15,"visib":"6+","altim":1019,"clouds":[],"obsTime":1774663200},"SBAN":{"icaoId":"SBAN","flightCategory":"VFR","rawOb":"METAR SBAN 280200Z 14007KT CAVOK 20/17 Q1021","temp":20,"dewp":17,"wdir":140,"wspd":7,"visib":"6+","altim":1021,"clouds":[],"obsTime":1774663200},"SBJP":{"icaoId":"SBJP","flightCategory":"VFR","rawOb":"METAR SBJP 280200Z 05007KT 9999 FEW020 26/23 Q1012","temp":26,"dewp":23,"wdir":50,"wspd":7,"visib":"6+","altim":1012,"clouds":[{"cover":"FEW","base":2000}],"obsTime":1774663200},"SBLE":{"icaoId":"SBLE","flightCategory":"MVFR","rawOb":"METAR SBLE 280200Z AUTO 15004KT 9999 BKN026 BKN032 ///// Q////","temp":null,"dewp":null,"wdir":150,"wspd":4,"visib":"6+","altim":null,"clouds":[{"cover":"BKN","base":2600},{"cover":"BKN","base":3200}],"obsTime":1774663200},"SBTA":{"icaoId":"SBTA","flightCategory":"VFR","rawOb":"METAR SBTA 280200Z /////KT 9999 SCT049 22/17 Q1020","temp":22,"dewp":17,"wdir":null,"wspd":null,"visib":"6+","altim":1020,"clouds":[{"cover":"SCT","base":4900}],"obsTime":1774663200},"SBJV":{"icaoId":"SBJV","flightCategory":"MVFR","rawOb":"METAR SBJV 280200Z 06003KT 9999 FEW010 BKN030 25/25 Q1019","temp":25,"dewp":25,"wdir":60,"wspd":3,"visib":"6+","altim":1019,"clouds":[{"cover":"FEW","base":1000},{"cover":"BKN","base":3000}],"obsTime":1774663200},"SBMT":{"icaoId":"SBMT","flightCategory":"VFR","rawOb":"METAR SBMT 280200Z 12006KT 070V140 CAVOK 21/18 Q1022","temp":21,"dewp":18,"wdir":120,"wspd":6,"visib":"6+","altim":1022,"clouds":[],"obsTime":1774663200}}}