{"updated":1773733480,"count":49,"data":{"SBFI":{"icaoId":"SBFI","flightCategory":"VFR","rawOb":"METAR SBFI 170600Z 27005KT 9999 -RA FEW006 BKN090 21/21 Q1009","temp":21,"dewp":21,"wdir":270,"wspd":5,"visib":"6+","altim":1009,"clouds":[{"cover":"FEW","base":600},{"cover":"BKN","base":9000}],"obsTime":1773727200},"SBBE":{"icaoId":"SBBE","flightCategory":"VFR","rawOb":"METAR SBBE 170600Z 02003KT 9999 SCT009 BKN062 BKN100 25/24 Q1010","temp":25,"dewp":24,"wdir":20,"wspd":3,"visib":"6+","altim":1010,"clouds":[{"cover":"SCT","base":900},{"cover":"BKN","base":6200},{"cover":"BKN","base":10000}],"obsTime":1773727200},"SBBR":{"icaoId":"SBBR","flightCategory":"VFR","rawOb":"METAR SBBR 170600Z 05001KT 9999 FEW040 BKN090 20/20 Q1017","temp":20,"dewp":20,"wdir":50,"wspd":1,"visib":"6+","altim":1017,"clouds":[{"cover":"FEW","base":4000},{"cover":"BKN","base":9000}],"obsTime":1773727200},"SBBV":{"icaoId":"SBBV","flightCategory":"VFR","rawOb":"METAR SBBV 170600Z 09012KT CAVOK 26/21 Q1010","temp":26,"dewp":21,"wdir":90,"wspd":12,"visib":"6+","altim":1010,"clouds":[],"obsTime":1773727200},"SBSG":{"icaoId":"SBSG","flightCategory":"VFR","rawOb":"METAR SBSG 170600Z VRB02KT 9999 -SHRA FEW021 24/24 Q1010","temp":24,"dewp":24,"wdir":"VRB","wspd":2,"visib":"6+","altim":1010,"clouds":[{"cover":"FEW","base":2100}],"obsTime":1773727200},"SBCF":{"icaoId":"SBCF","flightCategory":"VFR","rawOb":"METAR SBCF 170600Z 10007KT CAVOK 21/19 Q1015","temp":21,"dewp":19,"wdir":100,"wspd":7,"visib":"6+","altim":1015,"clouds":[],"obsTime":1773727200},"SBCG":{"icaoId":"SBCG","flightCategory":"VFR","rawOb":"METAR SBCG 170600Z 05009KT 9999 SCT035 BKN090 24/21 Q1011","temp":24,"dewp":21,"wdir":50,"wspd":9,"visib":"6+","altim":1011,"clouds":[{"cover":"SCT","base":3500},{"cover":"BKN","base":9000}],"obsTime":1773727200},"SBCT":{"icaoId":"SBCT","flightCategory":"MVFR","rawOb":"METAR SBCT 170600Z 09003KT 8000 NSC 18/18 Q1016","temp":18,"dewp":18,"wdir":90,"wspd":3,"visib":4.97,"altim":1016,"clouds":[],"obsTime":1773727200},"SBEG":{"icaoId":"SBEG","flightCategory":"VFR","rawOb":"METAR SBEG 170600Z 00000KT CAVOK 24/24 Q1009","temp":24,"dewp":24,"wdir":0,"wspd":0,"visib":"6+","altim":1009,"clouds":[],"obsTime":1773727200},"SBFL":{"icaoId":"SBFL","flightCategory":"VFR","rawOb":"METAR SBFL 170600Z 01008KT 9999 FEW035 26/23 Q1012","temp":26,"dewp":23,"wdir":10,"wspd":8,"visib":"6+","altim":1012,"clouds":[{"cover":"FEW","base":3500}],"obsTime":1773727200},"SBFZ":{"icaoId":"SBFZ","flightCategory":"VFR","rawOb":"METAR SBFZ 170600Z 30002KT 9999 SCT023 26/24 Q1009","temp":26,"dewp":24,"wdir":300,"wspd":2,"visib":"6+","altim":1009,"clouds":[{"cover":"SCT","base":2300}],"obsTime":1773727200},"SBGL":{"icaoId":"SBGL","flightCategory":"VFR","rawOb":"METAR SBGL 170600Z 14004KT 9999 FEW017 23/21 Q1012","temp":23,"dewp":21,"wdir":140,"wspd":4,"visib":"6+","altim":1012,"clouds":[{"cover":"FEW","base":1700}],"obsTime":1773727200},"SBGO":{"icaoId":"SBGO","flightCategory":"VFR","rawOb":"METAR SBGO 170600Z 29004KT 9999 -RA FEW004 SCT040 FEW045TCU OVC100 22/21 Q1015","temp":22,"dewp":21,"wdir":290,"wspd":4,"visib":"6+","altim":1015,"clouds":[{"cover":"FEW","base":400},{"cover":"SCT","base":4000},{"cover":"FEW","base":4500},{"cover":"OVC","base":10000}],"obsTime":1773727200},"SBGR":{"icaoId":"SBGR","flightCategory":"VFR","rawOb":"METAR SBGR 170600Z 07006KT CAVOK 18/17 Q1015","temp":18,"dewp":17,"wdir":70,"wspd":6,"visib":"6+","altim":1015,"clouds":[],"obsTime":1773727200},"SBJU":{"icaoId":"SBJU","flightCategory":"MVFR","rawOb":"METAR SBJU 170600Z 00000KT 9999 BKN020 24/22 Q1013","temp":24,"dewp":22,"wdir":0,"wspd":0,"visib":"6+","altim":1013,"clouds":[{"cover":"BKN","base":2000}],"obsTime":1773727200},"SBKP":{"icaoId":"SBKP","flightCategory":"VFR","rawOb":"METAR SBKP 170600Z 12008KT CAVOK 21/17 Q1014","temp":21,"dewp":17,"wdir":120,"wspd":8,"visib":"6+","altim":1014,"clouds":[],"obsTime":1773727200},"SBLO":{"icaoId":"SBLO","flightCategory":"VFR","rawOb":"METAR SBLO 170600Z 08003KT 070V130 CAVOK 23/17 Q1012","temp":23,"dewp":17,"wdir":80,"wspd":3,"visib":"6+","altim":1012,"clouds":[],"obsTime":1773727200},"SBMA":{"icaoId":"SBMA","flightCategory":"IFR","rawOb":"METAR SBMA 170600Z 16002KT 9999 BKN008 26/25 Q1009","temp":26,"dewp":25,"wdir":160,"wspd":2,"visib":"6+","altim":1009,"clouds":[{"cover":"BKN","base":800}],"obsTime":1773727200},"SBME":{"icaoId":"SBME","flightCategory":"VFR","rawOb":"METAR SBME 170600Z 03003KT CAVOK 21/20 Q1012","temp":21,"dewp":20,"wdir":30,"wspd":3,"visib":"6+","altim":1012,"clouds":[],"obsTime":1773727200},"SBMG":{"icaoId":"SBMG","flightCategory":"VFR","rawOb":"METAR SBMG 170600Z AUTO 04006KT CAVOK 24/17 Q1010","temp":24,"dewp":17,"wdir":40,"wspd":6,"visib":"6+","altim":1010,"clouds":[],"obsTime":1773727200},"SBMO":{"icaoId":"SBMO","flightCategory":"VFR","rawOb":"METAR SBMO 170600Z 01004KT 9999 FEW025 24/23 Q1010","temp":24,"dewp":23,"wdir":10,"wspd":4,"visib":"6+","altim":1010,"clouds":[{"cover":"FEW","base":2500}],"obsTime":1773727200},"SBMQ":{"icaoId":"SBMQ","flightCategory":"VFR","rawOb":"METAR SBMQ 170600Z 34003KT 9999 FEW006 SCT083 26/25 Q1009","temp":26,"dewp":25,"wdir":340,"wspd":3,"visib":"6+","altim":1009,"clouds":[{"cover":"FEW","base":600},{"cover":"SCT","base":8300}],"obsTime":1773727200},"SBNT":{"icaoId":"SBNT","flightCategory":"VFR","rawOb":"METAR SBNT 170600Z 08001KT 9999 SCT020 27/24 Q1010","temp":27,"dewp":24,"wdir":80,"wspd":1,"visib":"6+","altim":1010,"clouds":[{"cover":"SCT","base":2000}],"obsTime":1773727200},"SBPA":{"icaoId":"SBPA","flightCategory":"VFR","rawOb":"METAR SBPA 170600Z 10007KT CAVOK 24/22 Q1009","temp":24,"dewp":22,"wdir":100,"wspd":7,"visib":"6+","altim":1009,"clouds":[],"obsTime":1773727200},"SBPJ":{"icaoId":"SBPJ","flightCategory":"VFR","rawOb":"METAR SBPJ 170600Z 13003KT 9999 FEW016 FEW027TCU SCT050 24/23 Q1012 RETS","temp":24,"dewp":23,"wdir":130,"wspd":3,"visib":"6+","altim":1012,"clouds":[{"cover":"FEW","base":1600},{"cover":"FEW","base":2700},{"cover":"SCT","base":5000}],"obsTime":1773727200},"SBPV":{"icaoId":"SBPV","flightCategory":"VFR","rawOb":"METAR SBPV 170600Z 00000KT 9999 FEW030 25/24 Q1008","temp":25,"dewp":24,"wdir":0,"wspd":0,"visib":"6+","altim":1008,"clouds":[{"cover":"FEW","base":3000}],"obsTime":1773727200},"SBRB":{"icaoId":"SBRB","flightCategory":"MVFR","rawOb":"METAR SBRB 170600Z 33003KT 8000 FEW020 SCT100 24/24 Q1009","temp":24,"dewp":24,"wdir":330,"wspd":3,"visib":4.97,"altim":1009,"clouds":[{"cover":"FEW","base":2000},{"cover":"SCT","base":10000}],"obsTime":1773727200},"SBRF":{"icaoId":"SBRF","flightCategory":"VFR","rawOb":"METAR SBRF 170600Z 06005KT 020V100 9999 FEW020 28/24 Q1010","temp":28,"dewp":24,"wdir":60,"wspd":5,"visib":"6+","altim":1010,"clouds":[{"cover":"FEW","base":2000}],"obsTime":1773727200},"SBSL":{"icaoId":"SBSL","flightCategory":"MVFR","rawOb":"METAR SBSL 170600Z 06004KT 9999 -RA BKN010 BKN080 25/24 Q1009","temp":25,"dewp":24,"wdir":60,"wspd":4,"visib":"6+","altim":1009,"clouds":[{"cover":"BKN","base":1000},{"cover":"BKN","base":8000}],"obsTime":1773727200},"SBSN":{"icaoId":"SBSN","flightCategory":"VFR","rawOb":"METAR SBSN 170600Z 10015KT 9999 TS VCSH SCT015 FEW020CB BKN073 27/24 Q1009","temp":27,"dewp":24,"wdir":100,"wspd":15,"visib":"6+","altim":1009,"clouds":[{"cover":"SCT","base":1500},{"cover":"FEW","base":2000},{"cover":"BKN","base":7300}],"obsTime":1773727200},"SBSP":{"icaoId":"SBSP","flightCategory":"VFR","rawOb":"METAR SBSP 170600Z AUTO VRB02KT CAVOK 20/17 Q1016","temp":20,"dewp":17,"wdir":"VRB","wspd":2,"visib":"6+","altim":1016,"clouds":[],"obsTime":1773727200},"SBSV":{"icaoId":"SBSV","flightCategory":"VFR","rawOb":"METAR SBSV 170600Z 07003KT 9999 FEW024 26/22 Q1011","temp":26,"dewp":22,"wdir":70,"wspd":3,"visib":"6+","altim":1011,"clouds":[{"cover":"FEW","base":2400}],"obsTime":1773727200},"SBTE":{"icaoId":"SBTE","flightCategory":"VFR","rawOb":"METAR SBTE 170600Z 21003KT 9999 FEW016 BKN090 24/22 Q1008","temp":24,"dewp":22,"wdir":210,"wspd":3,"visib":"6+","altim":1008,"clouds":[{"cover":"FEW","base":1600},{"cover":"BKN","base":9000}],"obsTime":1773727200},"SBUL":{"icaoId":"SBUL","flightCategory":"VFR","rawOb":"METAR SBUL 170600Z 08007KT 9999 3000W FEW001 SCT007 FEW035TCU 21/21 Q1015","temp":21,"dewp":21,"wdir":80,"wspd":7,"visib":"6+","altim":1015,"clouds":[{"cover":"FEW","base":100},{"cover":"SCT","base":700},{"cover":"FEW","base":3500}],"obsTime":1773727200},"SBUR":{"icaoId":"SBUR","flightCategory":"VFR","rawOb":"METAR SBUR 170600Z 04005KT CAVOK 23/21 Q1014","temp":23,"dewp":21,"wdir":40,"wspd":5,"visib":"6+","altim":1014,"clouds":[],"obsTime":1773727200},"SBVT":{"icaoId":"SBVT","flightCategory":"VFR","rawOb":"METAR SBVT 170600Z 00000KT 9999 SCT025 22/22 Q1013","temp":22,"dewp":22,"wdir":0,"wspd":0,"visib":"6+","altim":1013,"clouds":[{"cover":"SCT","base":2500}],"obsTime":1773727200},"SBSR":{"icaoId":"SBSR","flightCategory":"VFR","rawOb":"METAR SBSR 170600Z 00000KT CAVOK 25/21 Q1012","temp":25,"dewp":21,"wdir":0,"wspd":0,"visib":"6+","altim":1012,"clouds":[],"obsTime":1773727200},"SBAX":{"icaoId":"SBAX","flightCategory":"VFR","rawOb":"METAR SBAX 170600Z AUTO 13004KT CAVOK 22/22 Q1016","temp":22,"dewp":22,"wdir":130,"wspd":4,"visib":"6+","altim":1016,"clouds":[],"obsTime":1773727200},"SBDN":{"icaoId":"SBDN","flightCategory":"VFR","rawOb":"METAR SBDN 170600Z 06003KT CAVOK 25/19 Q1010","temp":25,"dewp":19,"wdir":60,"wspd":3,"visib":"6+","altim":1010,"clouds":[],"obsTime":1773727200},"SBIP":{"icaoId":"SBIP","flightCategory":"MVFR","rawOb":"METAR SBIP 170600Z AUTO 03003KT 9999 BKN026 BKN033 24/24 Q1013","temp":24,"dewp":24,"wdir":30,"wspd":3,"visib":"6+","altim":1013,"clouds":[{"cover":"BKN","base":2600},{"cover":"BKN","base":3300}],"obsTime":1773727200},"SBKG":{"icaoId":"SBKG","flightCategory":"MVFR","rawOb":"METAR SBKG 170600Z 07008KT 9999 BKN010 23/22 Q1013","temp":23,"dewp":22,"wdir":70,"wspd":8,"visib":"6+","altim":1013,"clouds":[{"cover":"BKN","base":1000}],"obsTime":1773727200},"SBOI":{"icaoId":"SBOI","flightCategory":"VFR","rawOb":"METAR SBOI 170700Z AUTO 01003KT CAVOK 24/23 Q1010","temp":24,"dewp":23,"wdir":10,"wspd":3,"visib":"6+","altim":1010,"clouds":[],"obsTime":1773730800},"SBPL":{"icaoId":"SBPL","flightCategory":"VFR","rawOb":"METAR SBPL 170600Z 13003KT CAVOK 23/19 Q1012","temp":23,"dewp":19,"wdir":130,"wspd":3,"visib":"6+","altim":1012,"clouds":[],"obsTime":1773727200},"SBPS":{"icaoId":"SBPS","flightCategory":"VFR","rawOb":"METAR SBPS 170600Z 00000KT 9999 FEW010 SCT015 25/24 Q1012","temp":25,"dewp":24,"wdir":0,"wspd":0,"visib":"6+","altim":1012,"clouds":[{"cover":"FEW","base":1000},{"cover":"SCT","base":1500}],"obsTime":1773727200},"SBSC":{"icaoId":"SBSC","flightCategory":"VFR","rawOb":"METAR SBSC 170600Z 32003KT 9999 FEW015 22/21 Q1013","temp":22,"dewp":21,"wdir":320,"wspd":3,"visib":"6+","altim":1013,"clouds":[{"cover":"FEW","base":1500}],"obsTime":1773727200},"SBAR":{"icaoId":"SBAR","flightCategory":"VFR","rawOb":"METAR SBAR 170600Z 12007KT 9999 SCT025 28/22 Q1011","temp":28,"dewp":22,"wdir":120,"wspd":7,"visib":"6+","altim":1011,"clouds":[{"cover":"SCT","base":2500}],"obsTime":1773727200},"SBAN":{"icaoId":"SBAN","flightCategory":"VFR","rawOb":"METAR SBAN 170600Z VRB01KT 9999 -RA SCT003 SCT020 FEW035TCU BKN070 20/19 Q1017","temp":20,"dewp":19,"wdir":"VRB","wspd":1,"visib":"6+","altim":1017,"clouds":[{"cover":"SCT","base":300},{"cover":"SCT","base":2000},{"cover":"FEW","base":3500},{"cover":"BKN","base":7000}],"obsTime":1773727200},"SBJP":{"icaoId":"SBJP","flightCategory":"MVFR","rawOb":"METAR SBJP 170600Z 00000KT 9999 BKN020 BKN070 24/22 Q1010","temp":24,"dewp":22,"wdir":0,"wspd":0,"visib":"6+","altim":1010,"clouds":[{"cover":"BKN","base":2000},{"cover":"BKN","base":7000}],"obsTime":1773727200},"SBLE":{"icaoId":"SBLE","flightCategory":"MVFR","rawOb":"METAR SBLE 170600Z AUTO 08003KT 9999 OVC017 22/22 Q1015","temp":22,"dewp":22,"wdir":80,"wspd":3,"visib":"6+","altim":1015,"clouds":[{"cover":"OVC","base":1700}],"obsTime":1773727200}}}