{"updated":1776077924,"count":70,"data":{"SBVT":{"icaoId":"SBVT","flightCategory":"VFR","rawOb":"METAR SBVT 130900Z 32002KT 9999 FEW002 SCT023 BKN050 20/20 Q1016","temp":20,"dewp":20,"wdir":320,"wspd":2,"visib":"6+","altim":1016,"clouds":[{"cover":"FEW","base":200},{"cover":"SCT","base":2300},{"cover":"BKN","base":5000}],"obsTime":1776070800},"SBBR":{"icaoId":"SBBR","flightCategory":"IFR","rawOb":"METAR SBBR 130900Z 13008KT 9999 BKN009 BKN017 19/17 Q1019","temp":19,"dewp":17,"wdir":130,"wspd":8,"visib":"6+","altim":1019,"clouds":[{"cover":"BKN","base":900},{"cover":"BKN","base":1700}],"obsTime":1776070800},"SBBV":{"icaoId":"SBBV","flightCategory":"VFR","rawOb":"METAR SBBV 130900Z 10012KT 9999 FEW040 SCT100 26/22 Q1011","temp":26,"dewp":22,"wdir":100,"wspd":12,"visib":"6+","altim":1011,"clouds":[{"cover":"FEW","base":4000},{"cover":"SCT","base":10000}],"obsTime":1776070800},"SBCB":{"icaoId":"SBCB","flightCategory":"VFR","rawOb":"METAR SBCB 130900Z 01002KT 9999 FEW025 SCT070 21/20 Q1017","temp":21,"dewp":20,"wdir":10,"wspd":2,"visib":"6+","altim":1017,"clouds":[{"cover":"FEW","base":2500},{"cover":"SCT","base":7000}],"obsTime":1776070800},"SBCF":{"icaoId":"SBCF","flightCategory":"MVFR","rawOb":"METAR SBCF 130900Z 18002KT 9999 BKN020 18/17 Q1020","temp":18,"dewp":17,"wdir":180,"wspd":2,"visib":"6+","altim":1020,"clouds":[{"cover":"BKN","base":2000}],"obsTime":1776070800},"SBCG":{"icaoId":"SBCG","flightCategory":"VFR","rawOb":"METAR SBCG 130900Z 07004KT 9999 FEW003 SCT060 21/20 Q1016","temp":21,"dewp":20,"wdir":70,"wspd":4,"visib":"6+","altim":1016,"clouds":[{"cover":"FEW","base":300},{"cover":"SCT","base":6000}],"obsTime":1776070800},"SBCP":{"icaoId":"SBCP","flightCategory":"VFR","rawOb":"METAR SBCP 131000Z 26004KT CAVOK 22/21 Q1018","temp":22,"dewp":21,"wdir":260,"wspd":4,"visib":"6+","altim":1018,"clouds":[],"obsTime":1776074400},"SBCT":{"icaoId":"SBCT","flightCategory":"MVFR","rawOb":"METAR SBCT 130900Z 13004KT 9999 BKN014 15/15 Q1020","temp":15,"dewp":15,"wdir":130,"wspd":4,"visib":"6+","altim":1020,"clouds":[{"cover":"BKN","base":1400}],"obsTime":1776070800},"SBEG":{"icaoId":"SBEG","flightCategory":"VFR","rawOb":"METAR SBEG 130900Z 35003KT 320V030 9999 VCTS SCT012 FEW025CB BKN100 24/23 Q1011","temp":24,"dewp":23,"wdir":350,"wspd":3,"visib":"6+","altim":1011,"clouds":[{"cover":"SCT","base":1200},{"cover":"FEW","base":2500},{"cover":"BKN","base":10000}],"obsTime":1776070800},"SBFI":{"icaoId":"SBFI","flightCategory":"VFR","rawOb":"METAR SBFI 130900Z 12003KT CAVOK 18/18 Q1014","temp":18,"dewp":18,"wdir":120,"wspd":3,"visib":"6+","altim":1014,"clouds":[],"obsTime":1776070800},"SBFL":{"icaoId":"SBFL","flightCategory":"VFR","rawOb":"METAR SBFL 130900Z 32008KT 9999 FEW009 BKN083 22/21 Q1016","temp":22,"dewp":21,"wdir":320,"wspd":8,"visib":"6+","altim":1016,"clouds":[{"cover":"FEW","base":900},{"cover":"BKN","base":8300}],"obsTime":1776070800},"SBFZ":{"icaoId":"SBFZ","flightCategory":"IFR","rawOb":"METAR SBFZ 130900Z 14005KT 6000 -RA BKN008 BKN015 OVC025 24/24 Q1011","temp":24,"dewp":24,"wdir":140,"wspd":5,"visib":3.73,"altim":1011,"clouds":[{"cover":"BKN","base":800},{"cover":"BKN","base":1500},{"cover":"OVC","base":2500}],"obsTime":1776070800},"SBGL":{"icaoId":"SBGL","flightCategory":"VFR","rawOb":"METAR SBGL 130900Z 08003KT 9999 FEW046 21/19 Q1017","temp":21,"dewp":19,"wdir":80,"wspd":3,"visib":"6+","altim":1017,"clouds":[{"cover":"FEW","base":4600}],"obsTime":1776070800},"SBGO":{"icaoId":"SBGO","flightCategory":"VFR","rawOb":"METAR SBGO 130900Z 14003KT CAVOK 20/18 Q1017","temp":20,"dewp":18,"wdir":140,"wspd":3,"visib":"6+","altim":1017,"clouds":[],"obsTime":1776070800},"SBGR":{"icaoId":"SBGR","flightCategory":"IFR","rawOb":"METAR SBGR 130900Z 06008KT 9999 BKN009 18/17 Q1019","temp":18,"dewp":17,"wdir":60,"wspd":8,"visib":"6+","altim":1019,"clouds":[{"cover":"BKN","base":900}],"obsTime":1776070800},"SBHT":{"icaoId":"SBHT","flightCategory":"VFR","rawOb":"METAR SBHT 131000Z 00000KT 9999 SCT012 BKN080 25/24 Q1012","temp":25,"dewp":24,"wdir":0,"wspd":0,"visib":"6+","altim":1012,"clouds":[{"cover":"SCT","base":1200},{"cover":"BKN","base":8000}],"obsTime":1776074400},"SBIL":{"icaoId":"SBIL","flightCategory":"VFR","rawOb":"METAR SBIL 131000Z 23007KT 200V270 9999 VCSH FEW020 FEW023TCU SCT045 BKN070 24/23 Q1015","temp":24,"dewp":23,"wdir":230,"wspd":7,"visib":"6+","altim":1015,"clouds":[{"cover":"FEW","base":2000},{"cover":"FEW","base":2300},{"cover":"SCT","base":4500},{"cover":"BKN","base":7000}],"obsTime":1776074400},"SBJU":{"icaoId":"SBJU","flightCategory":"MVFR","rawOb":"METAR SBJU 130900Z 00000KT 9999 FEW010 BKN020 23/22 Q1013","temp":23,"dewp":22,"wdir":0,"wspd":0,"visib":"6+","altim":1013,"clouds":[{"cover":"FEW","base":1000},{"cover":"BKN","base":2000}],"obsTime":1776070800},"SBKP":{"icaoId":"SBKP","flightCategory":"VFR","rawOb":"METAR SBKP 130900Z 12005KT CAVOK 17/16 Q1018","temp":17,"dewp":16,"wdir":120,"wspd":5,"visib":"6+","altim":1018,"clouds":[],"obsTime":1776070800},"SBLO":{"icaoId":"SBLO","flightCategory":"VFR","rawOb":"METAR SBLO 130900Z 08007KT CAVOK 20/19 Q1015","temp":20,"dewp":19,"wdir":80,"wspd":7,"visib":"6+","altim":1015,"clouds":[],"obsTime":1776070800},"SBMA":{"icaoId":"SBMA","flightCategory":"VFR","rawOb":"METAR SBMA 130900Z 03004KT 9999 FEW015 BKN080 25/25 Q1010","temp":25,"dewp":25,"wdir":30,"wspd":4,"visib":"6+","altim":1010,"clouds":[{"cover":"FEW","base":1500},{"cover":"BKN","base":8000}],"obsTime":1776070800},"SBME":{"icaoId":"SBME","flightCategory":"VFR","rawOb":"METAR SBME 130900Z 30004KT 9999 SCT035 22/20 Q1017","temp":22,"dewp":20,"wdir":300,"wspd":4,"visib":"6+","altim":1017,"clouds":[{"cover":"SCT","base":3500}],"obsTime":1776070800},"SBMG":{"icaoId":"SBMG","flightCategory":"VFR","rawOb":"METAR SBMG 130900Z AUTO 13009KT CAVOK 20/18 Q1015","temp":20,"dewp":18,"wdir":130,"wspd":9,"visib":"6+","altim":1015,"clouds":[],"obsTime":1776070800},"SBMK":{"icaoId":"SBMK","flightCategory":"VFR","rawOb":"METAR SBMK 130900Z 10004KT 9999 SCT030 20/18 Q1018","temp":20,"dewp":18,"wdir":100,"wspd":4,"visib":"6+","altim":1018,"clouds":[{"cover":"SCT","base":3000}],"obsTime":1776070800},"SBMO":{"icaoId":"SBMO","flightCategory":"MVFR","rawOb":"METAR SBMO 130900Z 27003KT 7000 FEW020 SCT030 24/23 Q1012","temp":24,"dewp":23,"wdir":270,"wspd":3,"visib":4.35,"altim":1012,"clouds":[{"cover":"FEW","base":2000},{"cover":"SCT","base":3000}],"obsTime":1776070800},"SBMQ":{"icaoId":"SBMQ","flightCategory":"VFR","rawOb":"METAR SBMQ 130900Z 01005KT 9999 -RA FEW006 BKN040 OVC070 25/24 Q1010","temp":25,"dewp":24,"wdir":10,"wspd":5,"visib":"6+","altim":1010,"clouds":[{"cover":"FEW","base":600},{"cover":"BKN","base":4000},{"cover":"OVC","base":7000}],"obsTime":1776070800},"SBNT":{"icaoId":"SBNT","flightCategory":"VFR","rawOb":"METAR SBNT 130900Z 12005KT 9999 -RA FEW018 BKN040 BKN100 24/23 Q1011","temp":24,"dewp":23,"wdir":120,"wspd":5,"visib":"6+","altim":1011,"clouds":[{"cover":"FEW","base":1800},{"cover":"BKN","base":4000},{"cover":"BKN","base":10000}],"obsTime":1776070800},"SBPA":{"icaoId":"SBPA","flightCategory":"VFR","rawOb":"METAR SBPA 130900Z 26004KT 230V290 9999 OVC040 21/19 Q1016","temp":21,"dewp":19,"wdir":260,"wspd":4,"visib":"6+","altim":1016,"clouds":[{"cover":"OVC","base":4000}],"obsTime":1776070800},"SBPJ":{"icaoId":"SBPJ","flightCategory":"VFR","rawOb":"METAR SBPJ 130900Z 12004KT 9999 FEW009 24/23 Q1012","temp":24,"dewp":23,"wdir":120,"wspd":4,"visib":"6+","altim":1012,"clouds":[{"cover":"FEW","base":900}],"obsTime":1776070800},"SBPV":{"icaoId":"SBPV","flightCategory":"VFR","rawOb":"METAR SBPV 130900Z 17002KT 9999 -RA VCTS BKN040 FEW045CB 25/24 Q1010","temp":25,"dewp":24,"wdir":170,"wspd":2,"visib":"6+","altim":1010,"clouds":[{"cover":"BKN","base":4000},{"cover":"FEW","base":4500}],"obsTime":1776070800},"SBRB":{"icaoId":"SBRB","flightCategory":"MVFR","rawOb":"METAR SBRB 130900Z 27002KT 8000 FEW002 BKN100 23/23 Q1011","temp":23,"dewp":23,"wdir":270,"wspd":2,"visib":4.97,"altim":1011,"clouds":[{"cover":"FEW","base":200},{"cover":"BKN","base":10000}],"obsTime":1776070800},"SBRF":{"icaoId":"SBRF","flightCategory":"VFR","rawOb":"METAR SBRF 130900Z 28002KT 9999 SCT020 BKN070 24/23 Q1011","temp":24,"dewp":23,"wdir":280,"wspd":2,"visib":"6+","altim":1011,"clouds":[{"cover":"SCT","base":2000},{"cover":"BKN","base":7000}],"obsTime":1776070800},"SBSG":{"icaoId":"SBSG","flightCategory":"IFR","rawOb":"METAR SBSG 130900Z 14003KT 080V180 8000 BKN007 BKN015 24/23 Q1012","temp":24,"dewp":23,"wdir":140,"wspd":3,"visib":4.97,"altim":1012,"clouds":[{"cover":"BKN","base":700},{"cover":"BKN","base":1500}],"obsTime":1776070800},"SBSL":{"icaoId":"SBSL","flightCategory":"VFR","rawOb":"METAR SBSL 130900Z 11008KT 9999 VCSH SCT016 FEW025TCU BKN070 25/23 Q1010","temp":25,"dewp":23,"wdir":110,"wspd":8,"visib":"6+","altim":1010,"clouds":[{"cover":"SCT","base":1600},{"cover":"FEW","base":2500},{"cover":"BKN","base":7000}],"obsTime":1776070800},"SBSN":{"icaoId":"SBSN","flightCategory":"VFR","rawOb":"METAR SBSN 130900Z 08010KT 9999 SCT010 FEW035TCU BKN090 26/25 Q1010 RETS","temp":26,"dewp":25,"wdir":80,"wspd":10,"visib":"6+","altim":1010,"clouds":[{"cover":"SCT","base":1000},{"cover":"FEW","base":3500},{"cover":"BKN","base":9000}],"obsTime":1776070800},"SBSP":{"icaoId":"SBSP","flightCategory":"IFR","rawOb":"METAR SBSP 130900Z 05006KT 020V080 9999 BKN009 18/16 Q1020","temp":18,"dewp":16,"wdir":50,"wspd":6,"visib":"6+","altim":1020,"clouds":[{"cover":"BKN","base":900}],"obsTime":1776070800},"SBSV":{"icaoId":"SBSV","flightCategory":"VFR","rawOb":"METAR SBSV 130900Z 11007KT 9999 SCT020 BKN060 26/23 Q1013","temp":26,"dewp":23,"wdir":110,"wspd":7,"visib":"6+","altim":1013,"clouds":[{"cover":"SCT","base":2000},{"cover":"BKN","base":6000}],"obsTime":1776070800},"SBTE":{"icaoId":"SBTE","flightCategory":"VFR","rawOb":"METAR SBTE 130900Z 03003KT 9999 FEW015 BKN080 25/24 Q1010","temp":25,"dewp":24,"wdir":30,"wspd":3,"visib":"6+","altim":1010,"clouds":[{"cover":"FEW","base":1500},{"cover":"BKN","base":8000}],"obsTime":1776070800},"SBUL":{"icaoId":"SBUL","flightCategory":"VFR","rawOb":"METAR SBUL 130900Z 13006KT 080V150 CAVOK 18/16 Q1019","temp":18,"dewp":16,"wdir":130,"wspd":6,"visib":"6+","altim":1019,"clouds":[],"obsTime":1776070800},"SBUR":{"icaoId":"SBUR","flightCategory":"VFR","rawOb":"METAR SBUR 130900Z 03006KT CAVOK 20/16 Q1018","temp":20,"dewp":16,"wdir":30,"wspd":6,"visib":"6+","altim":1018,"clouds":[],"obsTime":1776070800},"SBBE":{"icaoId":"SBBE","flightCategory":"VFR","rawOb":"METAR SBBE 130900Z 14003KT 9999 FEW017 25/25 Q1010","temp":25,"dewp":25,"wdir":140,"wspd":3,"visib":"6+","altim":1010,"clouds":[{"cover":"FEW","base":1700}],"obsTime":1776070800},"SBAR":{"icaoId":"SBAR","flightCategory":"IFR","rawOb":"METAR SBAR 130900Z 25004KT 3000 RA BKN020 25/24 Q1012","temp":25,"dewp":24,"wdir":250,"wspd":4,"visib":1.86,"altim":1012,"clouds":[{"cover":"BKN","base":2000}],"obsTime":1776070800},"SBCJ":{"icaoId":"SBCJ","flightCategory":"VFR","rawOb":"SPECI SBCJ 131015Z 00000KT CAVOK 22/21 Q1016","temp":22,"dewp":21,"wdir":0,"wspd":0,"visib":"6+","altim":1016,"clouds":[],"obsTime":1776075300},"SBPB":{"icaoId":"SBPB","flightCategory":"VFR","rawOb":"SPECI SBPB 131015Z 12005KT 9999 SCT020 26/25 Q1011","temp":26,"dewp":25,"wdir":120,"wspd":5,"visib":"6+","altim":1011,"clouds":[{"cover":"SCT","base":2000}],"obsTime":1776075300},"SBSM":{"icaoId":"SBSM","flightCategory":"VFR","rawOb":"METAR SBSM 130900Z 04002KT 9999 SCT045 BKN080 18/18 Q1016","temp":18,"dewp":18,"wdir":40,"wspd":2,"visib":"6+","altim":1016,"clouds":[{"cover":"SCT","base":4500},{"cover":"BKN","base":8000}],"obsTime":1776070800},"SBAX":{"icaoId":"SBAX","flightCategory":"VFR","rawOb":"METAR SBAX 130900Z AUTO 11008KT CAVOK 17/17 Q1020","temp":17,"dewp":17,"wdir":110,"wspd":8,"visib":"6+","altim":1020,"clouds":[],"obsTime":1776070800},"SBSJ":{"icaoId":"SBSJ","flightCategory":"MVFR","rawOb":"METAR SBSJ 130900Z 06003KT 030V100 5000 BR BKN013 18/16 Q1019","temp":18,"dewp":16,"wdir":60,"wspd":3,"visib":3.11,"altim":1019,"clouds":[{"cover":"BKN","base":1300}],"obsTime":1776070800},"SBBH":{"icaoId":"SBBH","flightCategory":"MVFR","rawOb":"METAR SBBH 130900Z 10004KT 9999 BKN018 BKN025 BKN090 19/16 Q1020","temp":19,"dewp":16,"wdir":100,"wspd":4,"visib":"6+","altim":1020,"clouds":[{"cover":"BKN","base":1800},{"cover":"BKN","base":2500},{"cover":"BKN","base":9000}],"obsTime":1776070800},"SBSC":{"icaoId":"SBSC","flightCategory":"MVFR","rawOb":"METAR SBSC 130900Z 36003KT 8000 FEW020 SCT030 20/20 Q1017","temp":20,"dewp":20,"wdir":360,"wspd":3,"visib":4.97,"altim":1017,"clouds":[{"cover":"FEW","base":2000},{"cover":"SCT","base":3000}],"obsTime":1776070800},"SBBU":{"icaoId":"SBBU","flightCategory":"VFR","rawOb":"METAR SBBU 130900Z 07007KT CAVOK 19/18 Q1017","temp":19,"dewp":18,"wdir":70,"wspd":7,"visib":"6+","altim":1017,"clouds":[],"obsTime":1776070800},"SBPS":{"icaoId":"SBPS","flightCategory":"VFR","rawOb":"METAR SBPS 130900Z 24005KT 9999 SCT020 SCT070 22/22 Q1015","temp":22,"dewp":22,"wdir":240,"wspd":5,"visib":"6+","altim":1015,"clouds":[{"cover":"SCT","base":2000},{"cover":"SCT","base":7000}],"obsTime":1776070800},"SBCO":{"icaoId":"SBCO","flightCategory":"VFR","rawOb":"METAR SBCO 130900Z 28003KT 9999 FEW005 OVC040 20/19 Q1016","temp":20,"dewp":19,"wdir":280,"wspd":3,"visib":"6+","altim":1016,"clouds":[{"cover":"FEW","base":500},{"cover":"OVC","base":4000}],"obsTime":1776070800},"SBPL":{"icaoId":"SBPL","flightCategory":"VFR","rawOb":"METAR SBPL 130900Z 12006KT 9999 SCT022 24/21 Q1013","temp":24,"dewp":21,"wdir":120,"wspd":6,"visib":"6+","altim":1013,"clouds":[{"cover":"SCT","base":2200}],"obsTime":1776070800},"SBDN":{"icaoId":"SBDN","flightCategory":"VFR","rawOb":"METAR SBDN 130900Z 04005KT 9999 -RA NSC 20/18 Q1016","temp":20,"dewp":18,"wdir":40,"wspd":5,"visib":"6+","altim":1016,"clouds":[],"obsTime":1776070800},"SBES":{"icaoId":"SBES","flightCategory":"VFR","rawOb":"METAR SBES 130900Z 00000KT 9999 FEW025 18/// Q1017","temp":null,"dewp":null,"wdir":0,"wspd":0,"visib":"6+","altim":1017,"clouds":[{"cover":"FEW","base":2500}],"obsTime":1776070800},"SBOI":{"icaoId":"SBOI","flightCategory":"VFR","rawOb":"METAR SBOI 131000Z AUTO 00000KT 9999 SCT019 24/23 Q1011","temp":24,"dewp":23,"wdir":0,"wspd":0,"visib":"6+","altim":1011,"clouds":[{"cover":"SCT","base":1900}],"obsTime":1776074400},"SBKG":{"icaoId":"SBKG","flightCategory":"VFR","rawOb":"METAR SBKG 130900Z 00000KT 9999 FEW010 BKN070 22/21 Q1014","temp":22,"dewp":21,"wdir":0,"wspd":0,"visib":"6+","altim":1014,"clouds":[{"cover":"FEW","base":1000},{"cover":"BKN","base":7000}],"obsTime":1776070800},"SBIP":{"icaoId":"SBIP","flightCategory":"VFR","rawOb":"METAR SBIP 130900Z AUTO 00000KT 9999 SCT034 19/19 Q1018","temp":19,"dewp":19,"wdir":0,"wspd":0,"visib":"6+","altim":1018,"clouds":[{"cover":"SCT","base":3400}],"obsTime":1776070800},"SBSR":{"icaoId":"SBSR","flightCategory":"VFR","rawOb":"METAR SBSR 130900Z 09005KT 9999 FEW030 BKN070 22/18 Q1016","temp":22,"dewp":18,"wdir":90,"wspd":5,"visib":"6+","altim":1016,"clouds":[{"cover":"FEW","base":3000},{"cover":"BKN","base":7000}],"obsTime":1776070800},"SBTA":{"icaoId":"SBTA","flightCategory":"VFR","rawOb":"METAR SBTA 130900Z 00000KT 9999 FEW020 16/15 Q1018","temp":16,"dewp":15,"wdir":0,"wspd":0,"visib":"6+","altim":1018,"clouds":[{"cover":"FEW","base":2000}],"obsTime":1776070800},"SBLE":{"icaoId":"SBLE","flightCategory":"LIFR","rawOb":"METAR SBLE 130900Z AUTO 16005KT 110V200 9999 OVC002 ///// Q////","temp":null,"dewp":null,"wdir":160,"wspd":5,"visib":"6+","altim":null,"clouds":[{"cover":"OVC","base":200}],"obsTime":1776070800},"SBJV":{"icaoId":"SBJV","flightCategory":"VFR","rawOb":"METAR SBJV 130900Z 36002KT CAVOK 21/20 Q1016","temp":21,"dewp":20,"wdir":360,"wspd":2,"visib":"6+","altim":1016,"clouds":[],"obsTime":1776070800},"SBAN":{"icaoId":"SBAN","flightCategory":"VFR","rawOb":"METAR SBAN 130900Z 15010KT CAVOK 17/16 Q1020","temp":17,"dewp":16,"wdir":150,"wspd":10,"visib":"6+","altim":1020,"clouds":[],"obsTime":1776070800},"SBPF":{"icaoId":"SBPF","flightCategory":"VFR","rawOb":"METAR SBPF 130900Z 05008KT CAVOK 15/12 Q1017","temp":15,"dewp":12,"wdir":50,"wspd":8,"visib":"6+","altim":1017,"clouds":[],"obsTime":1776070800},"SBAF":{"icaoId":"SBAF","flightCategory":"VFR","rawOb":"METAR SBAF 131000Z VRB02KT CAVOK 21/21 Q1017","temp":21,"dewp":21,"wdir":"VRB","wspd":2,"visib":"6+","altim":1017,"clouds":[],"obsTime":1776074400},"SBGW":{"icaoId":"SBGW","flightCategory":"MVFR","rawOb":"METAR SBGW 130900Z VRB02KT 6000 FEW005 SCT012 BKN100 18/14 Q1019","temp":18,"dewp":14,"wdir":"VRB","wspd":2,"visib":3.73,"altim":1019,"clouds":[{"cover":"FEW","base":500},{"cover":"SCT","base":1200},{"cover":"BKN","base":10000}],"obsTime":1776070800},"SBJR":{"icaoId":"SBJR","flightCategory":"VFR","rawOb":"METAR SBJR 131000Z 04003KT CAVOK 23/20 Q1017","temp":23,"dewp":20,"wdir":40,"wspd":3,"visib":"6+","altim":1017,"clouds":[],"obsTime":1776074400},"SBLS":{"icaoId":"SBLS","flightCategory":"MVFR","rawOb":"METAR SBLS 130900Z 14008KT 9999 BKN020 18/17 Q1019","temp":18,"dewp":17,"wdir":140,"wspd":8,"visib":"6+","altim":1019,"clouds":[{"cover":"BKN","base":2000}],"obsTime":1776070800},"SBMT":{"icaoId":"SBMT","flightCategory":"MVFR","rawOb":"METAR SBMT 130900Z 08006KT 050V120 8000 BKN011 18/16 Q1019","temp":18,"dewp":16,"wdir":80,"wspd":6,"visib":4.97,"altim":1019,"clouds":[{"cover":"BKN","base":1100}],"obsTime":1776070800},"SBJP":{"icaoId":"SBJP","flightCategory":"VFR","rawOb":"METAR SBJP 130900Z 12002KT 9999 FEW020 24/23 Q1012","temp":24,"dewp":23,"wdir":120,"wspd":2,"visib":"6+","altim":1012,"clouds":[{"cover":"FEW","base":2000}],"obsTime":1776070800}}}