{"updated":1778355449,"count":85,"data":{"SBSL":{"icaoId":"SBSL","flightCategory":"MVFR","rawOb":"METAR SBSL 091800Z 04010KT 9999 VCSH BKN020 FEW025TCU 29/24 Q1009","temp":29,"dewp":24,"wdir":40,"wspd":10,"visib":"6+","altim":1009,"clouds":[{"cover":"BKN","base":2000},{"cover":"FEW","base":2500}],"obsTime":1778349600},"SBMA":{"icaoId":"SBMA","flightCategory":"VFR","rawOb":"METAR SBMA 091800Z 07004KT 9999 SCT029 FEW030TCU BKN100 33/24 Q1010","temp":33,"dewp":24,"wdir":70,"wspd":4,"visib":"6+","altim":1010,"clouds":[{"cover":"SCT","base":2900},{"cover":"FEW","base":3000},{"cover":"BKN","base":10000}],"obsTime":1778349600},"SBBR":{"icaoId":"SBBR","flightCategory":"VFR","rawOb":"METAR SBBR 091800Z 11009KT 070V140 9999 FEW045 28/13 Q1018","temp":28,"dewp":13,"wdir":110,"wspd":9,"visib":"6+","altim":1018,"clouds":[{"cover":"FEW","base":4500}],"obsTime":1778349600},"SBME":{"icaoId":"SBME","flightCategory":"VFR","rawOb":"METAR SBME 091800Z 04012KT 9999 FEW040 34/21 Q1013","temp":34,"dewp":21,"wdir":40,"wspd":12,"visib":"6+","altim":1013,"clouds":[{"cover":"FEW","base":4000}],"obsTime":1778349600},"SBCF":{"icaoId":"SBCF","flightCategory":"VFR","rawOb":"METAR SBCF 091800Z 08010KT 040V110 9999 SCT048 28/15 Q1019","temp":28,"dewp":15,"wdir":80,"wspd":10,"visib":"6+","altim":1019,"clouds":[{"cover":"SCT","base":4800}],"obsTime":1778349600},"SBMG":{"icaoId":"SBMG","flightCategory":"LIFR","rawOb":"METAR SBMG 091800Z 23015KT 2000 RA BR BKN002 BKN008 OVC035 14/14 Q1014","temp":14,"dewp":14,"wdir":230,"wspd":15,"visib":1.24,"altim":1014,"clouds":[{"cover":"BKN","base":200},{"cover":"BKN","base":800},{"cover":"OVC","base":3500}],"obsTime":1778349600},"SBEG":{"icaoId":"SBEG","flightCategory":"MVFR","rawOb":"METAR SBEG 091800Z 12008KT 9999 VCSH BKN025 FEW030TCU 31/24 Q1010","temp":31,"dewp":24,"wdir":120,"wspd":8,"visib":"6+","altim":1010,"clouds":[{"cover":"BKN","base":2500},{"cover":"FEW","base":3000}],"obsTime":1778349600},"SBMK":{"icaoId":"SBMK","flightCategory":"VFR","rawOb":"METAR SBMK 091800Z 36007KT 9999 SCT045 30/15 Q1017","temp":30,"dewp":15,"wdir":360,"wspd":7,"visib":"6+","altim":1017,"clouds":[{"cover":"SCT","base":4500}],"obsTime":1778349600},"SBMO":{"icaoId":"SBMO","flightCategory":"MVFR","rawOb":"METAR SBMO 091800Z 10009KT 5000 -RA BR FEW008 BKN012 25/25 Q1012","temp":25,"dewp":25,"wdir":100,"wspd":9,"visib":3.11,"altim":1012,"clouds":[{"cover":"FEW","base":800},{"cover":"BKN","base":1200}],"obsTime":1778349600},"SBFI":{"icaoId":"SBFI","flightCategory":"VFR","rawOb":"METAR SBFI 091800Z 17006KT 9999 FEW030 BKN080 14/06 Q1019","temp":14,"dewp":6,"wdir":170,"wspd":6,"visib":"6+","altim":1019,"clouds":[{"cover":"FEW","base":3000},{"cover":"BKN","base":8000}],"obsTime":1778349600},"SBMQ":{"icaoId":"SBMQ","flightCategory":"VFR","rawOb":"METAR SBMQ 091800Z 07007KT 9999 VCTS SCT040 FEW050CB SCT100 32/24 Q1009","temp":32,"dewp":24,"wdir":70,"wspd":7,"visib":"6+","altim":1009,"clouds":[{"cover":"SCT","base":4000},{"cover":"FEW","base":5000},{"cover":"SCT","base":10000}],"obsTime":1778349600},"SBNT":{"icaoId":"SBNT","flightCategory":"VFR","rawOb":"METAR SBNT 091800Z 10012KT 070V140 9999 FEW030 30/24 Q1010","temp":30,"dewp":24,"wdir":100,"wspd":12,"visib":"6+","altim":1010,"clouds":[{"cover":"FEW","base":3000}],"obsTime":1778349600},"SBAT":{"icaoId":"SBAT","flightCategory":"VFR","rawOb":"METAR SBAT 091800Z 08005KT 9999 SCT035 34/23 Q1011","temp":34,"dewp":23,"wdir":80,"wspd":5,"visib":"6+","altim":1011,"clouds":[{"cover":"SCT","base":3500}],"obsTime":1778349600},"SBCT":{"icaoId":"SBCT","flightCategory":"LIFR","rawOb":"METAR SBCT 091800Z 23011KT 5000 BR OVC003 11/11 Q1016","temp":11,"dewp":11,"wdir":230,"wspd":11,"visib":3.11,"altim":1016,"clouds":[{"cover":"OVC","base":300}],"obsTime":1778349600},"SBKP":{"icaoId":"SBKP","flightCategory":"VFR","rawOb":"METAR SBKP 091800Z 35011KT 9999 SCT045 SCT100 29/17 Q1015","temp":29,"dewp":17,"wdir":350,"wspd":11,"visib":"6+","altim":1015,"clouds":[{"cover":"SCT","base":4500},{"cover":"SCT","base":10000}],"obsTime":1778349600},"SBLO":{"icaoId":"SBLO","flightCategory":"LIFR","rawOb":"METAR SBLO 091800Z 06005KT 3000 -RA BKN002 SCT040 OVC090 19/18 Q1013 RERA","temp":19,"dewp":18,"wdir":60,"wspd":5,"visib":1.86,"altim":1013,"clouds":[{"cover":"BKN","base":200},{"cover":"SCT","base":4000},{"cover":"OVC","base":9000}],"obsTime":1778349600},"SBCZ":{"icaoId":"SBCZ","flightCategory":"VFR","rawOb":"METAR SBCZ 091800Z 35005KT 9999 SCT025 30/24 Q1010","temp":30,"dewp":24,"wdir":350,"wspd":5,"visib":"6+","altim":1010,"clouds":[{"cover":"SCT","base":2500}],"obsTime":1778349600},"SBFL":{"icaoId":"SBFL","flightCategory":"IFR","rawOb":"METAR SBFL 091800Z 18003KT 130V200 4800 -RA SCT013 OVC030 15/13 Q1016","temp":15,"dewp":13,"wdir":180,"wspd":3,"visib":2.98,"altim":1016,"clouds":[{"cover":"SCT","base":1300},{"cover":"OVC","base":3000}],"obsTime":1778349600},"SBPA":{"icaoId":"SBPA","flightCategory":"VFR","rawOb":"METAR SBPA 091800Z 30013KT CAVOK 17/04 Q1015","temp":17,"dewp":4,"wdir":300,"wspd":13,"visib":"6+","altim":1015,"clouds":[],"obsTime":1778349600},"SBPJ":{"icaoId":"SBPJ","flightCategory":"VFR","rawOb":"METAR SBPJ 091800Z 26004KT 9999 SCT025 34/21 Q1012","temp":34,"dewp":21,"wdir":260,"wspd":4,"visib":"6+","altim":1012,"clouds":[{"cover":"SCT","base":2500}],"obsTime":1778349600},"SBBE":{"icaoId":"SBBE","flightCategory":"VFR","rawOb":"METAR SBBE 091800Z 22003KT 9999 SCT038 FEW040TCU BKN100 30/24 Q1009","temp":30,"dewp":24,"wdir":220,"wspd":3,"visib":"6+","altim":1009,"clouds":[{"cover":"SCT","base":3800},{"cover":"FEW","base":4000},{"cover":"BKN","base":10000}],"obsTime":1778349600},"SBFZ":{"icaoId":"SBFZ","flightCategory":"VFR","rawOb":"METAR SBFZ 091800Z 10009KT 9999 FEW025 BKN060 29/24 Q1009","temp":29,"dewp":24,"wdir":100,"wspd":9,"visib":"6+","altim":1009,"clouds":[{"cover":"FEW","base":2500},{"cover":"BKN","base":6000}],"obsTime":1778349600},"SBPV":{"icaoId":"SBPV","flightCategory":"VFR","rawOb":"METAR SBPV 091800Z 02005KT 9999 SCT030 31/27 Q1010","temp":31,"dewp":27,"wdir":20,"wspd":5,"visib":"6+","altim":1010,"clouds":[{"cover":"SCT","base":3000}],"obsTime":1778349600},"SBGL":{"icaoId":"SBGL","flightCategory":"VFR","rawOb":"METAR SBGL 091800Z 04007KT CAVOK 34/18 Q1012","temp":34,"dewp":18,"wdir":40,"wspd":7,"visib":"6+","altim":1012,"clouds":[],"obsTime":1778349600},"SBRB":{"icaoId":"SBRB","flightCategory":"VFR","rawOb":"METAR SBRB 091800Z 35007KT 9999 FEW025 BKN100 31/25 Q1011","temp":31,"dewp":25,"wdir":350,"wspd":7,"visib":"6+","altim":1011,"clouds":[{"cover":"FEW","base":2500},{"cover":"BKN","base":10000}],"obsTime":1778349600},"SBCG":{"icaoId":"SBCG","flightCategory":"LIFR","rawOb":"METAR SBCG 091800Z 18014KT 3000 TSRA BKN002 BKN005 BKN015 FEW040CB 14/13 Q1015","temp":14,"dewp":13,"wdir":180,"wspd":14,"visib":1.86,"altim":1015,"clouds":[{"cover":"BKN","base":200},{"cover":"BKN","base":500},{"cover":"BKN","base":1500},{"cover":"FEW","base":4000}],"obsTime":1778349600},"SBRF":{"icaoId":"SBRF","flightCategory":"VFR","rawOb":"METAR SBRF 091800Z 11010KT 9999 SCT020 29/25 Q1011","temp":29,"dewp":25,"wdir":110,"wspd":10,"visib":"6+","altim":1011,"clouds":[{"cover":"SCT","base":2000}],"obsTime":1778349600},"SBCP":{"icaoId":"SBCP","flightCategory":"VFR","rawOb":"METAR SBCP 091800Z 08014KT 9999 FEW020 31/22 Q1014","temp":31,"dewp":22,"wdir":80,"wspd":14,"visib":"6+","altim":1014,"clouds":[{"cover":"FEW","base":2000}],"obsTime":1778349600},"SBSG":{"icaoId":"SBSG","flightCategory":"VFR","rawOb":"METAR SBSG 091800Z 11011KT 9999 SCT030 FEW035TCU 30/22 Q1010","temp":30,"dewp":22,"wdir":110,"wspd":11,"visib":"6+","altim":1010,"clouds":[{"cover":"SCT","base":3000},{"cover":"FEW","base":3500}],"obsTime":1778349600},"SBGO":{"icaoId":"SBGO","flightCategory":"VFR","rawOb":"METAR SBGO 091800Z 33004KT 9999 SCT049 29/16 Q1016","temp":29,"dewp":16,"wdir":330,"wspd":4,"visib":"6+","altim":1016,"clouds":[{"cover":"SCT","base":4900}],"obsTime":1778349600},"SBSN":{"icaoId":"SBSN","flightCategory":"VFR","rawOb":"METAR SBSN 091800Z 06009KT 9999 SCT023 31/25 Q1010","temp":31,"dewp":25,"wdir":60,"wspd":9,"visib":"6+","altim":1010,"clouds":[{"cover":"SCT","base":2300}],"obsTime":1778349600},"SBBV":{"icaoId":"SBBV","flightCategory":"VFR","rawOb":"METAR SBBV 091800Z 06008KT 9999 SCT035 FEW040TCU 32/21 Q1010","temp":32,"dewp":21,"wdir":60,"wspd":8,"visib":"6+","altim":1010,"clouds":[{"cover":"SCT","base":3500},{"cover":"FEW","base":4000}],"obsTime":1778349600},"SBGR":{"icaoId":"SBGR","flightCategory":"VFR","rawOb":"METAR SBGR 091800Z 31009KT CAVOK 28/17 Q1016","temp":28,"dewp":17,"wdir":310,"wspd":9,"visib":"6+","altim":1016,"clouds":[],"obsTime":1778349600},"SBSP":{"icaoId":"SBSP","flightCategory":"VFR","rawOb":"METAR SBSP 091800Z 34011KT 9999 SCT045 27/16 Q1017","temp":27,"dewp":16,"wdir":340,"wspd":11,"visib":"6+","altim":1017,"clouds":[{"cover":"SCT","base":4500}],"obsTime":1778349600},"SBCB":{"icaoId":"SBCB","flightCategory":"VFR","rawOb":"METAR SBCB 091800Z 07016KT CAVOK 28/22 Q1013","temp":28,"dewp":22,"wdir":70,"wspd":16,"visib":"6+","altim":1013,"clouds":[],"obsTime":1778349600},"SBSV":{"icaoId":"SBSV","flightCategory":"MVFR","rawOb":"METAR SBSV 091800Z 12011KT 8000 VCSH SCT023 FEW025TCU BKN060 29/23 Q1014","temp":29,"dewp":23,"wdir":120,"wspd":11,"visib":4.97,"altim":1014,"clouds":[{"cover":"SCT","base":2300},{"cover":"FEW","base":2500},{"cover":"BKN","base":6000}],"obsTime":1778349600},"SBHT":{"icaoId":"SBHT","flightCategory":"MVFR","rawOb":"METAR SBHT 091800Z 12004KT 9999 BKN023 BKN090 31/23 Q1011","temp":31,"dewp":23,"wdir":120,"wspd":4,"visib":"6+","altim":1011,"clouds":[{"cover":"BKN","base":2300},{"cover":"BKN","base":9000}],"obsTime":1778349600},"SBTE":{"icaoId":"SBTE","flightCategory":"VFR","rawOb":"METAR SBTE 091800Z 11005KT 9999 SCT020 33/23 Q1009","temp":33,"dewp":23,"wdir":110,"wspd":5,"visib":"6+","altim":1009,"clouds":[{"cover":"SCT","base":2000}],"obsTime":1778349600},"SBUL":{"icaoId":"SBUL","flightCategory":"VFR","rawOb":"METAR SBUL 091800Z 04009KT 9999 SCT045 27/15 Q1018","temp":27,"dewp":15,"wdir":40,"wspd":9,"visib":"6+","altim":1018,"clouds":[{"cover":"SCT","base":4500}],"obsTime":1778349600},"SBIL":{"icaoId":"SBIL","flightCategory":"VFR","rawOb":"METAR SBIL 091800Z 14009KT 100V170 9999 FEW023 30/24 Q1016","temp":30,"dewp":24,"wdir":140,"wspd":9,"visib":"6+","altim":1016,"clouds":[{"cover":"FEW","base":2300}],"obsTime":1778349600},"SBUR":{"icaoId":"SBUR","flightCategory":"VFR","rawOb":"METAR SBUR 091800Z 32012KT 9999 SCT047 29/15 Q1017","temp":29,"dewp":15,"wdir":320,"wspd":12,"visib":"6+","altim":1017,"clouds":[{"cover":"SCT","base":4700}],"obsTime":1778349600},"SBVT":{"icaoId":"SBVT","flightCategory":"VFR","rawOb":"METAR SBVT 091800Z 05013KT 9999 SCT030 29/23 Q1016","temp":29,"dewp":23,"wdir":50,"wspd":13,"visib":"6+","altim":1016,"clouds":[{"cover":"SCT","base":3000}],"obsTime":1778349600},"SBCR":{"icaoId":"SBCR","flightCategory":"IFR","rawOb":"METAR SBCR 091800Z 21013G23KT 170V240 3000 -RA BKN005 FEW025TCU OVC070 15/15 Q1016","temp":15,"dewp":15,"wdir":210,"wspd":13,"visib":1.86,"altim":1016,"clouds":[{"cover":"BKN","base":500},{"cover":"FEW","base":2500},{"cover":"OVC","base":7000}],"obsTime":1778349600},"SBJU":{"icaoId":"SBJU","flightCategory":"VFR","rawOb":"METAR SBJU 091800Z 15007KT 9999 SCT022 30/22 Q1012","temp":30,"dewp":22,"wdir":150,"wspd":7,"visib":"6+","altim":1012,"clouds":[{"cover":"SCT","base":2200}],"obsTime":1778349600},"SBVH":{"icaoId":"SBVH","flightCategory":"VFR","rawOb":"METAR SBVH 091800Z 33008KT 310V020 9999 SCT035 FEW040TCU 30/23 Q1013","temp":30,"dewp":23,"wdir":330,"wspd":8,"visib":"6+","altim":1013,"clouds":[{"cover":"SCT","base":3500},{"cover":"FEW","base":4000}],"obsTime":1778349600},"SBAR":{"icaoId":"SBAR","flightCategory":"VFR","rawOb":"METAR SBAR 091800Z 14013KT 9999 FEW025 BKN045 28/23 Q1012","temp":28,"dewp":23,"wdir":140,"wspd":13,"visib":"6+","altim":1012,"clouds":[{"cover":"FEW","base":2500},{"cover":"BKN","base":4500}],"obsTime":1778349600},"SBBH":{"icaoId":"SBBH","flightCategory":"VFR","rawOb":"METAR SBBH 091800Z 05006KT 9999 BKN048 29/15 Q1018","temp":29,"dewp":15,"wdir":50,"wspd":6,"visib":"6+","altim":1018,"clouds":[{"cover":"BKN","base":4800}],"obsTime":1778349600},"SBBQ":{"icaoId":"SBBQ","flightCategory":"VFR","rawOb":"METAR SBBQ 091800Z 01006KT 9999 SCT045 26/15 Q1022","temp":26,"dewp":15,"wdir":10,"wspd":6,"visib":"6+","altim":1022,"clouds":[{"cover":"SCT","base":4500}],"obsTime":1778349600},"SBBU":{"icaoId":"SBBU","flightCategory":"VFR","rawOb":"METAR SBBU 091800Z 33012KT 9999 SCT040 30/18 Q1013","temp":30,"dewp":18,"wdir":330,"wspd":12,"visib":"6+","altim":1013,"clouds":[{"cover":"SCT","base":4000}],"obsTime":1778349600},"SBCA":{"icaoId":"SBCA","flightCategory":"IFR","rawOb":"METAR SBCA 091800Z 16009G20KT 6000 -RA FEW003 BKN005 OVC070 10/09 Q1018","temp":10,"dewp":9,"wdir":160,"wspd":9,"visib":3.73,"altim":1018,"clouds":[{"cover":"FEW","base":300},{"cover":"BKN","base":500},{"cover":"OVC","base":7000}],"obsTime":1778349600},"SBCC":{"icaoId":"SBCC","flightCategory":"VFR","rawOb":"METAR SBCC 091800Z 03011KT 360V060 9999 SCT030 32/19 Q1012","temp":32,"dewp":19,"wdir":30,"wspd":11,"visib":"6+","altim":1012,"clouds":[{"cover":"SCT","base":3000}],"obsTime":1778349600},"SBCJ":{"icaoId":"SBCJ","flightCategory":"VFR","rawOb":"METAR SBCJ 091800Z 13006KT 9999 SCT030 30/21 Q1015","temp":30,"dewp":21,"wdir":130,"wspd":6,"visib":"6+","altim":1015,"clouds":[{"cover":"SCT","base":3000}],"obsTime":1778349600},"SBCO":{"icaoId":"SBCO","flightCategory":"VFR","rawOb":"METAR SBCO 091800Z 29012KT CAVOK 17/04 Q1016","temp":17,"dewp":4,"wdir":290,"wspd":12,"visib":"6+","altim":1016,"clouds":[],"obsTime":1778349600},"SBDN":{"icaoId":"SBDN","flightCategory":"VFR","rawOb":"METAR SBDN 091800Z 11005KT 9999 FEW004 OVC080 22/20 Q1012 RETS","temp":22,"dewp":20,"wdir":110,"wspd":5,"visib":"6+","altim":1012,"clouds":[{"cover":"FEW","base":400},{"cover":"OVC","base":8000}],"obsTime":1778349600},"SBES":{"icaoId":"SBES","flightCategory":"VFR","rawOb":"METAR SBES 091800Z 06015G25KT 030V090 CAVOK 29/// Q1013","temp":null,"dewp":null,"wdir":60,"wspd":15,"visib":"6+","altim":1013,"clouds":[],"obsTime":1778349600},"SBGM":{"icaoId":"SBGM","flightCategory":"MVFR","rawOb":"METAR SBGM 091800Z 32008KT 9999 BKN026 31/23 Q1010","temp":31,"dewp":23,"wdir":320,"wspd":8,"visib":"6+","altim":1010,"clouds":[{"cover":"BKN","base":2600}],"obsTime":1778349600},"SBIP":{"icaoId":"SBIP","flightCategory":"VFR","rawOb":"METAR SBIP 091800Z AUTO 01009KT 340V060 CAVOK 31/19 Q1016","temp":31,"dewp":19,"wdir":10,"wspd":9,"visib":"6+","altim":1016,"clouds":[],"obsTime":1778349600},"SBKG":{"icaoId":"SBKG","flightCategory":"VFR","rawOb":"METAR SBKG 091800Z 10008KT 9999 SCT025 FEW026TCU 28/23 Q1013","temp":28,"dewp":23,"wdir":100,"wspd":8,"visib":"6+","altim":1013,"clouds":[{"cover":"SCT","base":2500},{"cover":"FEW","base":2600}],"obsTime":1778349600},"SBOI":{"icaoId":"SBOI","flightCategory":"VFR","rawOb":"METAR SBOI 091800Z AUTO 02009KT 9999 FEW023 SCT040 31/25 Q1010","temp":31,"dewp":25,"wdir":20,"wspd":9,"visib":"6+","altim":1010,"clouds":[{"cover":"FEW","base":2300},{"cover":"SCT","base":4000}],"obsTime":1778349600},"SBPB":{"icaoId":"SBPB","flightCategory":"VFR","rawOb":"METAR SBPB 091800Z 06014KT 9999 SCT020 BKN100 31/24 Q1009","temp":31,"dewp":24,"wdir":60,"wspd":14,"visib":"6+","altim":1009,"clouds":[{"cover":"SCT","base":2000},{"cover":"BKN","base":10000}],"obsTime":1778349600},"SBPL":{"icaoId":"SBPL","flightCategory":"VFR","rawOb":"METAR SBPL 091800Z 14008KT 9999 SCT030 33/20 Q1012","temp":33,"dewp":20,"wdir":140,"wspd":8,"visib":"6+","altim":1012,"clouds":[{"cover":"SCT","base":3000}],"obsTime":1778349600},"SBPP":{"icaoId":"SBPP","flightCategory":"IFR","rawOb":"SPECI SBPP 091740Z 20022KT 3000 -RA BR SCT010 OVC070 09/08 Q1019","temp":9,"dewp":8,"wdir":200,"wspd":22,"visib":1.86,"altim":1019,"clouds":[{"cover":"SCT","base":1000},{"cover":"OVC","base":7000}],"obsTime":1778348400},"SBPS":{"icaoId":"SBPS","flightCategory":"VFR","rawOb":"METAR SBPS 091800Z 09009KT 9999 SCT025 29/23 Q1016","temp":29,"dewp":23,"wdir":90,"wspd":9,"visib":"6+","altim":1016,"clouds":[{"cover":"SCT","base":2500}],"obsTime":1778349600},"SBSC":{"icaoId":"SBSC","flightCategory":"VFR","rawOb":"METAR SBSC 091800Z 04008KT CAVOK 33/20 Q1012","temp":33,"dewp":20,"wdir":40,"wspd":8,"visib":"6+","altim":1012,"clouds":[],"obsTime":1778349600},"SBSJ":{"icaoId":"SBSJ","flightCategory":"VFR","rawOb":"METAR SBSJ 091800Z 02004KT 9999 FEW045 28/17 Q1016","temp":28,"dewp":17,"wdir":20,"wspd":4,"visib":"6+","altim":1016,"clouds":[{"cover":"FEW","base":4500}],"obsTime":1778349600},"SBSM":{"icaoId":"SBSM","flightCategory":"VFR","rawOb":"METAR SBSM 091800Z 28014KT 250V310 9999 FEW045 16/03 Q1018","temp":16,"dewp":3,"wdir":280,"wspd":14,"visib":"6+","altim":1018,"clouds":[{"cover":"FEW","base":4500}],"obsTime":1778349600},"SBSR":{"icaoId":"SBSR","flightCategory":"VFR","rawOb":"METAR SBSR 091800Z 36009KT 9999 SCT035 SCT080 31/13 Q1014","temp":31,"dewp":13,"wdir":360,"wspd":9,"visib":"6+","altim":1014,"clouds":[{"cover":"SCT","base":3500},{"cover":"SCT","base":8000}],"obsTime":1778349600},"SBTF":{"icaoId":"SBTF","flightCategory":"VFR","rawOb":"METAR SBTF 091800Z 13007KT 9999 SCT016 32/25 Q1009","temp":32,"dewp":25,"wdir":130,"wspd":7,"visib":"6+","altim":1009,"clouds":[{"cover":"SCT","base":1600}],"obsTime":1778349600},"SBTT":{"icaoId":"SBTT","flightCategory":"VFR","rawOb":"METAR SBTT 091800Z 14006KT 080V200 9999 SCT030 SCT090 30/23 Q1011","temp":30,"dewp":23,"wdir":140,"wspd":6,"visib":"6+","altim":1011,"clouds":[{"cover":"SCT","base":3000},{"cover":"SCT","base":9000}],"obsTime":1778349600},"SBTU":{"icaoId":"SBTU","flightCategory":"VFR","rawOb":"METAR SBTU 091800Z AUTO VRB03KT 9999 // ///////// ///// Q1011","temp":null,"dewp":null,"wdir":"VRB","wspd":3,"visib":"6+","altim":1011,"clouds":[],"obsTime":1778349600},"SBUY":{"icaoId":"SBUY","flightCategory":"VFR","rawOb":"METAR SBUY 091800Z 14005KT 9999 SCT030 31/23 Q1009","temp":31,"dewp":23,"wdir":140,"wspd":5,"visib":"6+","altim":1009,"clouds":[{"cover":"SCT","base":3000}],"obsTime":1778349600},"SBNM":{"icaoId":"SBNM","flightCategory":"VFR","rawOb":"METAR SBNM 091800Z 29007KT 9999 SCT030 16/04 Q1019","temp":16,"dewp":4,"wdir":290,"wspd":7,"visib":"6+","altim":1019,"clouds":[{"cover":"SCT","base":3000}],"obsTime":1778349600},"SBJP":{"icaoId":"SBJP","flightCategory":"VFR","rawOb":"METAR SBJP 091800Z VRB08KT 9999 SCT025 30/23 Q1011","temp":30,"dewp":23,"wdir":"VRB","wspd":8,"visib":"6+","altim":1011,"clouds":[{"cover":"SCT","base":2500}],"obsTime":1778349600},"SBTC":{"icaoId":"SBTC","flightCategory":"VFR","rawOb":"METAR SBTC 091800Z 13005KT 9999 SCT025 29/23 Q1016","temp":29,"dewp":23,"wdir":130,"wspd":5,"visib":"6+","altim":1016,"clouds":[{"cover":"SCT","base":2500}],"obsTime":1778349600},"SBGW":{"icaoId":"SBGW","flightCategory":"VFR","rawOb":"METAR SBGW 091800Z 07005KT 030V170 9999 SCT030 BKN100 30/14 Q1015","temp":30,"dewp":14,"wdir":70,"wspd":5,"visib":"6+","altim":1015,"clouds":[{"cover":"SCT","base":3000},{"cover":"BKN","base":10000}],"obsTime":1778349600},"SBJR":{"icaoId":"SBJR","flightCategory":"VFR","rawOb":"METAR SBJR 091800Z 23005KT CAVOK 34/19 Q1012","temp":34,"dewp":19,"wdir":230,"wspd":5,"visib":"6+","altim":1012,"clouds":[],"obsTime":1778349600},"SBLS":{"icaoId":"SBLS","flightCategory":"VFR","rawOb":"METAR SBLS 091800Z 06006KT 340V150 9999 SCT045 27/15 Q1019","temp":27,"dewp":15,"wdir":60,"wspd":6,"visib":"6+","altim":1019,"clouds":[{"cover":"SCT","base":4500}],"obsTime":1778349600},"SBAN":{"icaoId":"SBAN","flightCategory":"VFR","rawOb":"METAR SBAN 091800Z 07004KT 9999 SCT045 27/14 Q1019","temp":27,"dewp":14,"wdir":70,"wspd":4,"visib":"6+","altim":1019,"clouds":[{"cover":"SCT","base":4500}],"obsTime":1778349600},"SBAF":{"icaoId":"SBAF","flightCategory":"VFR","rawOb":"METAR SBAF 091800Z 02007KT CAVOK 34/17 Q1012","temp":34,"dewp":17,"wdir":20,"wspd":7,"visib":"6+","altim":1012,"clouds":[],"obsTime":1778349600},"SBIH":{"icaoId":"SBIH","flightCategory":"VFR","rawOb":"METAR SBIH 091800Z 05004KT 9999 SCT020 33/24 Q1009","temp":33,"dewp":24,"wdir":50,"wspd":4,"visib":"6+","altim":1009,"clouds":[{"cover":"SCT","base":2000}],"obsTime":1778349600},"SBLE":{"icaoId":"SBLE","flightCategory":"VFR","rawOb":"METAR SBLE 091800Z AUTO VRB03KT 9999 FEW038 28/19 Q1016","temp":28,"dewp":19,"wdir":"VRB","wspd":3,"visib":"6+","altim":1016,"clouds":[{"cover":"FEW","base":3800}],"obsTime":1778349600},"SBMT":{"icaoId":"SBMT","flightCategory":"VFR","rawOb":"METAR SBMT 091800Z 31008KT 9999 FEW023 27/16 Q1016","temp":27,"dewp":16,"wdir":310,"wspd":8,"visib":"6+","altim":1016,"clouds":[{"cover":"FEW","base":2300}],"obsTime":1778349600},"SBST":{"icaoId":"SBST","flightCategory":"VFR","rawOb":"METAR SBST 091800Z 27002KT 9000 FEW014TCU OVC034 25/22 Q1013","temp":25,"dewp":22,"wdir":270,"wspd":2,"visib":5.59,"altim":1013,"clouds":[{"cover":"FEW","base":1400},{"cover":"OVC","base":3400}],"obsTime":1778349600},"SBTA":{"icaoId":"SBTA","flightCategory":"VFR","rawOb":"METAR SBTA 091800Z 07007KT 9999 FEW040 SCT080 29/15 Q1015","temp":29,"dewp":15,"wdir":70,"wspd":7,"visib":"6+","altim":1015,"clouds":[{"cover":"FEW","base":4000},{"cover":"SCT","base":8000}],"obsTime":1778349600},"SBJV":{"icaoId":"SBJV","flightCategory":"IFR","rawOb":"METAR SBJV 091800Z 20003KT 4000 RA BKN008 BKN030 14/14 Q1016","temp":14,"dewp":14,"wdir":200,"wspd":3,"visib":2.49,"altim":1016,"clouds":[{"cover":"BKN","base":800},{"cover":"BKN","base":3000}],"obsTime":1778349600}}}