{"updated":1776801415,"count":85,"data":{"SBMO":{"icaoId":"SBMO","flightCategory":"VFR","rawOb":"METAR SBMO 211800Z 23005KT 9999 VCSH SCT018 FEW025TCU BKN055 26/24 Q1011","temp":26,"dewp":24,"wdir":230,"wspd":5,"visib":"6+","altim":1011,"clouds":[{"cover":"SCT","base":1800},{"cover":"FEW","base":2500},{"cover":"BKN","base":5500}],"obsTime":1776794400},"SBSL":{"icaoId":"SBSL","flightCategory":"VFR","rawOb":"METAR SBSL 211800Z 02006KT 330V050 9999 SCT025 BKN100 28/24 Q1010","temp":28,"dewp":24,"wdir":20,"wspd":6,"visib":"6+","altim":1010,"clouds":[{"cover":"SCT","base":2500},{"cover":"BKN","base":10000}],"obsTime":1776794400},"SBPV":{"icaoId":"SBPV","flightCategory":"VFR","rawOb":"METAR SBPV 211800Z 01007KT 330V050 9999 VCSH SCT040 FEW045TCU 32/27 Q1009","temp":32,"dewp":27,"wdir":10,"wspd":7,"visib":"6+","altim":1009,"clouds":[{"cover":"SCT","base":4000},{"cover":"FEW","base":4500}],"obsTime":1776794400},"SBMK":{"icaoId":"SBMK","flightCategory":"VFR","rawOb":"METAR SBMK 211800Z 06005KT 9999 FEW046 29/16 Q1015","temp":29,"dewp":16,"wdir":60,"wspd":5,"visib":"6+","altim":1015,"clouds":[{"cover":"FEW","base":4600}],"obsTime":1776794400},"SBFL":{"icaoId":"SBFL","flightCategory":"VFR","rawOb":"METAR SBFL 211800Z 01008KT CAVOK 27/19 Q1016","temp":27,"dewp":19,"wdir":10,"wspd":8,"visib":"6+","altim":1016,"clouds":[],"obsTime":1776794400},"SBCG":{"icaoId":"SBCG","flightCategory":"VFR","rawOb":"METAR SBCG 211800Z 09006KT 9999 VCSH SCT045 FEW050TCU 30/20 Q1014","temp":30,"dewp":20,"wdir":90,"wspd":6,"visib":"6+","altim":1014,"clouds":[{"cover":"SCT","base":4500},{"cover":"FEW","base":5000}],"obsTime":1776794400},"SBMQ":{"icaoId":"SBMQ","flightCategory":"VFR","rawOb":"METAR SBMQ 211800Z 11004KT 9999 SCT023 32/23 Q1009","temp":32,"dewp":23,"wdir":110,"wspd":4,"visib":"6+","altim":1009,"clouds":[{"cover":"SCT","base":2300}],"obsTime":1776794400},"SBFZ":{"icaoId":"SBFZ","flightCategory":"VFR","rawOb":"METAR SBFZ 211800Z 12003KT 080V150 9999 FEW018 28/24 Q1009","temp":28,"dewp":24,"wdir":120,"wspd":3,"visib":"6+","altim":1009,"clouds":[{"cover":"FEW","base":1800}],"obsTime":1776794400},"SBCP":{"icaoId":"SBCP","flightCategory":"VFR","rawOb":"METAR SBCP 211800Z COR 19005KT 9999 SCT025 28/19 Q1015","temp":28,"dewp":19,"wdir":190,"wspd":5,"visib":"6+","altim":1015,"clouds":[{"cover":"SCT","base":2500}],"obsTime":1776794400},"SBNT":{"icaoId":"SBNT","flightCategory":"MVFR","rawOb":"METAR SBNT 211800Z 12011KT 9999 BKN025 30/23 Q1009","temp":30,"dewp":23,"wdir":120,"wspd":11,"visib":"6+","altim":1009,"clouds":[{"cover":"BKN","base":2500}],"obsTime":1776794400},"SBGL":{"icaoId":"SBGL","flightCategory":"VFR","rawOb":"METAR SBGL 211800Z 12011KT 090V150 9999 SCT027 27/19 Q1015","temp":27,"dewp":19,"wdir":120,"wspd":11,"visib":"6+","altim":1015,"clouds":[{"cover":"SCT","base":2700}],"obsTime":1776794400},"SBPA":{"icaoId":"SBPA","flightCategory":"VFR","rawOb":"METAR SBPA 211800Z 33004KT 300V360 9999 FEW013 BKN060 24/19 Q1015","temp":24,"dewp":19,"wdir":330,"wspd":4,"visib":"6+","altim":1015,"clouds":[{"cover":"FEW","base":1300},{"cover":"BKN","base":6000}],"obsTime":1776794400},"SBBE":{"icaoId":"SBBE","flightCategory":"VFR","rawOb":"METAR SBBE 211800Z 03006KT 9999 VCSH SCT038 FEW040TCU BKN096 29/25 Q1009","temp":29,"dewp":25,"wdir":30,"wspd":6,"visib":"6+","altim":1009,"clouds":[{"cover":"SCT","base":3800},{"cover":"FEW","base":4000},{"cover":"BKN","base":9600}],"obsTime":1776794400},"SBPJ":{"icaoId":"SBPJ","flightCategory":"VFR","rawOb":"METAR SBPJ 211800Z 13009KT 9999 -RA FEW013 SCT025 FEW030TCU BKN070 26/24 Q1012","temp":26,"dewp":24,"wdir":130,"wspd":9,"visib":"6+","altim":1012,"clouds":[{"cover":"FEW","base":1300},{"cover":"SCT","base":2500},{"cover":"FEW","base":3000},{"cover":"BKN","base":7000}],"obsTime":1776794400},"SBAT":{"icaoId":"SBAT","flightCategory":"VFR","rawOb":"METAR SBAT 211800Z 03011KT 9999 1000NW VCSH SCT025 FEW032TCU SCT100 25/24 Q1011 RERA","temp":25,"dewp":24,"wdir":30,"wspd":11,"visib":"6+","altim":1011,"clouds":[{"cover":"SCT","base":2500},{"cover":"FEW","base":3200},{"cover":"SCT","base":10000}],"obsTime":1776794400},"SBGO":{"icaoId":"SBGO","flightCategory":"VFR","rawOb":"METAR SBGO 211800Z 34004KT 270V050 9999 SCT050 FEW056TCU 32/18 Q1015","temp":32,"dewp":18,"wdir":340,"wspd":4,"visib":"6+","altim":1015,"clouds":[{"cover":"SCT","base":5000},{"cover":"FEW","base":5600}],"obsTime":1776794400},"SBRB":{"icaoId":"SBRB","flightCategory":"MVFR","rawOb":"METAR SBRB 211800Z 25008KT 220V280 7000 VCSH FEW007 BKN020 BKN060 26/24 Q1012","temp":26,"dewp":24,"wdir":250,"wspd":8,"visib":4.35,"altim":1012,"clouds":[{"cover":"FEW","base":700},{"cover":"BKN","base":2000},{"cover":"BKN","base":6000}],"obsTime":1776794400},"SBCR":{"icaoId":"SBCR","flightCategory":"VFR","rawOb":"METAR SBCR 211800Z 16004KT 9999 VCTS SCT035 FEW045CB BKN070 27/25 Q1010 RETS","temp":27,"dewp":25,"wdir":160,"wspd":4,"visib":"6+","altim":1010,"clouds":[{"cover":"SCT","base":3500},{"cover":"FEW","base":4500},{"cover":"BKN","base":7000}],"obsTime":1776794400},"SBRF":{"icaoId":"SBRF","flightCategory":"VFR","rawOb":"METAR SBRF 211800Z 13014KT 9999 SCT025 30/23 Q1010","temp":30,"dewp":23,"wdir":130,"wspd":14,"visib":"6+","altim":1010,"clouds":[{"cover":"SCT","base":2500}],"obsTime":1776794400},"SBGR":{"icaoId":"SBGR","flightCategory":"VFR","rawOb":"METAR SBGR 211800Z 13005KT 9999 FEW040 26/13 Q1018","temp":26,"dewp":13,"wdir":130,"wspd":5,"visib":"6+","altim":1018,"clouds":[{"cover":"FEW","base":4000}],"obsTime":1776794400},"SBSG":{"icaoId":"SBSG","flightCategory":"MVFR","rawOb":"METAR SBSG 211800Z 12007KT 090V150 9999 BKN030 29/24 Q1010","temp":29,"dewp":24,"wdir":120,"wspd":7,"visib":"6+","altim":1010,"clouds":[{"cover":"BKN","base":3000}],"obsTime":1776794400},"SBCT":{"icaoId":"SBCT","flightCategory":"VFR","rawOb":"METAR SBCT 211800Z 06005KT 9999 FEW035 23/12 Q1020","temp":23,"dewp":12,"wdir":60,"wspd":5,"visib":"6+","altim":1020,"clouds":[{"cover":"FEW","base":3500}],"obsTime":1776794400},"SBHT":{"icaoId":"SBHT","flightCategory":"VFR","rawOb":"METAR SBHT 211800Z 07003KT 9999 SCT020 BKN090 28/25 Q1010","temp":28,"dewp":25,"wdir":70,"wspd":3,"visib":"6+","altim":1010,"clouds":[{"cover":"SCT","base":2000},{"cover":"BKN","base":9000}],"obsTime":1776794400},"SBSN":{"icaoId":"SBSN","flightCategory":"MVFR","rawOb":"METAR SBSN 211800Z 01005KT 320V030 9999 SCT010 BKN016 FEW025TCU BKN080 27/25 Q1010","temp":27,"dewp":25,"wdir":10,"wspd":5,"visib":"6+","altim":1010,"clouds":[{"cover":"SCT","base":1000},{"cover":"BKN","base":1600},{"cover":"FEW","base":2500},{"cover":"BKN","base":8000}],"obsTime":1776794400},"SBSP":{"icaoId":"SBSP","flightCategory":"VFR","rawOb":"METAR SBSP 211800Z 17011KT 130V220 CAVOK 25/16 Q1019","temp":25,"dewp":16,"wdir":170,"wspd":11,"visib":"6+","altim":1019,"clouds":[],"obsTime":1776794400},"SBCB":{"icaoId":"SBCB","flightCategory":"VFR","rawOb":"METAR SBCB 211800Z 22009KT CAVOK 26/20 Q1015","temp":26,"dewp":20,"wdir":220,"wspd":9,"visib":"6+","altim":1015,"clouds":[],"obsTime":1776794400},"SBSV":{"icaoId":"SBSV","flightCategory":"VFR","rawOb":"METAR SBSV 211800Z 13007KT 100V180 9999 SCT023 SCT070 29/23 Q1012","temp":29,"dewp":23,"wdir":130,"wspd":7,"visib":"6+","altim":1012,"clouds":[{"cover":"SCT","base":2300},{"cover":"SCT","base":7000}],"obsTime":1776794400},"SBIL":{"icaoId":"SBIL","flightCategory":"VFR","rawOb":"METAR SBIL 211800Z 17008KT CAVOK 30/22 Q1013","temp":30,"dewp":22,"wdir":170,"wspd":8,"visib":"6+","altim":1013,"clouds":[],"obsTime":1776794400},"SBTE":{"icaoId":"SBTE","flightCategory":"VFR","rawOb":"METAR SBTE 211800Z 27006KT 9999 SCT020 SCT100 29/25 Q1009","temp":29,"dewp":25,"wdir":270,"wspd":6,"visib":"6+","altim":1009,"clouds":[{"cover":"SCT","base":2000},{"cover":"SCT","base":10000}],"obsTime":1776794400},"SBJU":{"icaoId":"SBJU","flightCategory":"VFR","rawOb":"METAR SBJU 211800Z 09003KT 9999 SCT022 30/22 Q1012","temp":30,"dewp":22,"wdir":90,"wspd":3,"visib":"6+","altim":1012,"clouds":[{"cover":"SCT","base":2200}],"obsTime":1776794400},"SBUL":{"icaoId":"SBUL","flightCategory":"VFR","rawOb":"METAR SBUL 211800Z 05008KT 360V070 9999 VCSH FEW030 FEW040TCU 27/18 Q1017","temp":27,"dewp":18,"wdir":50,"wspd":8,"visib":"6+","altim":1017,"clouds":[{"cover":"FEW","base":3000},{"cover":"FEW","base":4000}],"obsTime":1776794400},"SBBR":{"icaoId":"SBBR","flightCategory":"VFR","rawOb":"METAR SBBR 211800Z 11008KT 060V140 9999 SCT030 FEW040TCU 28/15 Q1017","temp":28,"dewp":15,"wdir":110,"wspd":8,"visib":"6+","altim":1017,"clouds":[{"cover":"SCT","base":3000},{"cover":"FEW","base":4000}],"obsTime":1776794400},"SBUR":{"icaoId":"SBUR","flightCategory":"VFR","rawOb":"METAR SBUR 211800Z 27004KT CAVOK 32/17 Q1015","temp":32,"dewp":17,"wdir":270,"wspd":4,"visib":"6+","altim":1015,"clouds":[],"obsTime":1776794400},"SBCZ":{"icaoId":"SBCZ","flightCategory":"VFR","rawOb":"METAR SBCZ 211800Z COR 36008KT 320V050 9999 SCT020 FEW025TCU BKN090 28/24 Q1012","temp":28,"dewp":24,"wdir":360,"wspd":8,"visib":"6+","altim":1012,"clouds":[{"cover":"SCT","base":2000},{"cover":"FEW","base":2500},{"cover":"BKN","base":9000}],"obsTime":1776794400},"SBVT":{"icaoId":"SBVT","flightCategory":"VFR","rawOb":"METAR SBVT 211800Z 16012KT 9999 FEW040 26/21 Q1015","temp":26,"dewp":21,"wdir":160,"wspd":12,"visib":"6+","altim":1015,"clouds":[{"cover":"FEW","base":4000}],"obsTime":1776794400},"SBKP":{"icaoId":"SBKP","flightCategory":"VFR","rawOb":"METAR SBKP 211800Z 21005KT CAVOK 29/14 Q1016","temp":29,"dewp":14,"wdir":210,"wspd":5,"visib":"6+","altim":1016,"clouds":[],"obsTime":1776794400},"SBCF":{"icaoId":"SBCF","flightCategory":"VFR","rawOb":"METAR SBCF 211800Z 06006KT 9999 BKN040 FEW045TCU 27/18 Q1017","temp":27,"dewp":18,"wdir":60,"wspd":6,"visib":"6+","altim":1017,"clouds":[{"cover":"BKN","base":4000},{"cover":"FEW","base":4500}],"obsTime":1776794400},"SBLO":{"icaoId":"SBLO","flightCategory":"VFR","rawOb":"METAR SBLO 211800Z 10009KT CAVOK 28/12 Q1016","temp":28,"dewp":12,"wdir":100,"wspd":9,"visib":"6+","altim":1016,"clouds":[],"obsTime":1776794400},"SBEG":{"icaoId":"SBEG","flightCategory":"VFR","rawOb":"METAR SBEG 211800Z 01004KT 280V060 9999 SCT025 FEW030TCU 30/23 Q1010","temp":30,"dewp":23,"wdir":10,"wspd":4,"visib":"6+","altim":1010,"clouds":[{"cover":"SCT","base":2500},{"cover":"FEW","base":3000}],"obsTime":1776794400},"SBME":{"icaoId":"SBME","flightCategory":"VFR","rawOb":"METAR SBME 211800Z 16006KT 9999 BKN045 27/19 Q1015","temp":27,"dewp":19,"wdir":160,"wspd":6,"visib":"6+","altim":1015,"clouds":[{"cover":"BKN","base":4500}],"obsTime":1776794400},"SBMA":{"icaoId":"SBMA","flightCategory":"VFR","rawOb":"METAR SBMA 211800Z 27002KT 9999 -RA FEW008 SCT012 BKN090 25/23 Q1010","temp":25,"dewp":23,"wdir":270,"wspd":2,"visib":"6+","altim":1010,"clouds":[{"cover":"FEW","base":800},{"cover":"SCT","base":1200},{"cover":"BKN","base":9000}],"obsTime":1776794400},"SBBV":{"icaoId":"SBBV","flightCategory":"VFR","rawOb":"METAR SBBV 211800Z 12010KT 9999 BKN035 FEW040TCU 33/21 Q1010","temp":33,"dewp":21,"wdir":120,"wspd":10,"visib":"6+","altim":1010,"clouds":[{"cover":"BKN","base":3500},{"cover":"FEW","base":4000}],"obsTime":1776794400},"SBMG":{"icaoId":"SBMG","flightCategory":"VFR","rawOb":"METAR SBMG 211800Z 16004KT 100V200 CAVOK 28/15 Q1015","temp":28,"dewp":15,"wdir":160,"wspd":4,"visib":"6+","altim":1015,"clouds":[],"obsTime":1776794400},"SBFI":{"icaoId":"SBFI","flightCategory":"VFR","rawOb":"METAR SBFI 211800Z 34007KT 9999 SCT030 FEW040TCU BKN080 29/23 Q1014","temp":29,"dewp":23,"wdir":340,"wspd":7,"visib":"6+","altim":1014,"clouds":[{"cover":"SCT","base":3000},{"cover":"FEW","base":4000},{"cover":"BKN","base":8000}],"obsTime":1776794400},"SBOI":{"icaoId":"SBOI","flightCategory":"VFR","rawOb":"METAR SBOI 211800Z AUTO 07003KT 010V100 9999 FEW019 28/24 Q1010","temp":28,"dewp":24,"wdir":70,"wspd":3,"visib":"6+","altim":1010,"clouds":[{"cover":"FEW","base":1900}],"obsTime":1776794400},"SBBU":{"icaoId":"SBBU","flightCategory":"VFR","rawOb":"METAR SBBU 211800Z 12007KT CAVOK 29/15 Q1015","temp":29,"dewp":15,"wdir":120,"wspd":7,"visib":"6+","altim":1015,"clouds":[],"obsTime":1776794400},"SBPB":{"icaoId":"SBPB","flightCategory":"VFR","rawOb":"METAR SBPB 211800Z 05008KT 9999 SCT015 OVC080 26/24 Q1010","temp":26,"dewp":24,"wdir":50,"wspd":8,"visib":"6+","altim":1010,"clouds":[{"cover":"SCT","base":1500},{"cover":"OVC","base":8000}],"obsTime":1776794400},"SBCO":{"icaoId":"SBCO","flightCategory":"MVFR","rawOb":"METAR SBCO 211800Z 32004KT 290V030 9000 -RA BKN020 BKN050 24/19 Q1015","temp":24,"dewp":19,"wdir":320,"wspd":4,"visib":5.59,"altim":1015,"clouds":[{"cover":"BKN","base":2000},{"cover":"BKN","base":5000}],"obsTime":1776794400},"SBAR":{"icaoId":"SBAR","flightCategory":"MVFR","rawOb":"METAR SBAR 211800Z 13002KT 6000 -RA SCT012 BKN020 OVC050 24/24 Q1011 RERA","temp":24,"dewp":24,"wdir":130,"wspd":2,"visib":3.73,"altim":1011,"clouds":[{"cover":"SCT","base":1200},{"cover":"BKN","base":2000},{"cover":"OVC","base":5000}],"obsTime":1776794400},"SBPL":{"icaoId":"SBPL","flightCategory":"VFR","rawOb":"METAR SBPL 211800Z 10009KT 9999 SCT030 BKN070 32/21 Q1011","temp":32,"dewp":21,"wdir":100,"wspd":9,"visib":"6+","altim":1011,"clouds":[{"cover":"SCT","base":3000},{"cover":"BKN","base":7000}],"obsTime":1776794400},"SBCA":{"icaoId":"SBCA","flightCategory":"VFR","rawOb":"METAR SBCA 211800Z 06005KT 020V090 9999 FEW040 BKN070 24/19 Q1018","temp":24,"dewp":19,"wdir":60,"wspd":5,"visib":"6+","altim":1018,"clouds":[{"cover":"FEW","base":4000},{"cover":"BKN","base":7000}],"obsTime":1776794400},"SBPP":{"icaoId":"SBPP","flightCategory":"VFR","rawOb":"METAR SBPP 211800Z 06007KT 9999 FEW020 BKN070 26/20 Q1016","temp":26,"dewp":20,"wdir":60,"wspd":7,"visib":"6+","altim":1016,"clouds":[{"cover":"FEW","base":2000},{"cover":"BKN","base":7000}],"obsTime":1776794400},"SBDN":{"icaoId":"SBDN","flightCategory":"VFR","rawOb":"METAR SBDN 211800Z 14005KT CAVOK 30/13 Q1015","temp":30,"dewp":13,"wdir":140,"wspd":5,"visib":"6+","altim":1015,"clouds":[],"obsTime":1776794400},"SBPS":{"icaoId":"SBPS","flightCategory":"VFR","rawOb":"METAR SBPS 211800Z 15005KT 090V230 9999 SCT025 FEW030TCU 28/23 Q1014","temp":28,"dewp":23,"wdir":150,"wspd":5,"visib":"6+","altim":1014,"clouds":[{"cover":"SCT","base":2500},{"cover":"FEW","base":3000}],"obsTime":1776794400},"SBES":{"icaoId":"SBES","flightCategory":"VFR","rawOb":"METAR SBES 211800Z 22009KT 170V260 9999 FEW020 26/// Q1015","temp":null,"dewp":null,"wdir":220,"wspd":9,"visib":"6+","altim":1015,"clouds":[{"cover":"FEW","base":2000}],"obsTime":1776794400},"SBSC":{"icaoId":"SBSC","flightCategory":"VFR","rawOb":"METAR SBSC 211800Z 20008KT 9999 FEW030 26/20 Q1015","temp":26,"dewp":20,"wdir":200,"wspd":8,"visib":"6+","altim":1015,"clouds":[{"cover":"FEW","base":3000}],"obsTime":1776794400},"SBBQ":{"icaoId":"SBBQ","flightCategory":"VFR","rawOb":"METAR SBBQ 211800Z 09005KT 050V130 9999 BKN035 22/16 Q1021","temp":22,"dewp":16,"wdir":90,"wspd":5,"visib":"6+","altim":1021,"clouds":[{"cover":"BKN","base":3500}],"obsTime":1776794400},"SBSJ":{"icaoId":"SBSJ","flightCategory":"VFR","rawOb":"METAR SBSJ 211800Z 18004KT CAVOK 26/14 Q1017","temp":26,"dewp":14,"wdir":180,"wspd":4,"visib":"6+","altim":1017,"clouds":[],"obsTime":1776794400},"SBSM":{"icaoId":"SBSM","flightCategory":"VFR","rawOb":"METAR SBSM 211800Z 11004KT 9999 SCT045 SCT080 24/20 Q1014","temp":24,"dewp":20,"wdir":110,"wspd":4,"visib":"6+","altim":1014,"clouds":[{"cover":"SCT","base":4500},{"cover":"SCT","base":8000}],"obsTime":1776794400},"SBBH":{"icaoId":"SBBH","flightCategory":"VFR","rawOb":"METAR SBBH 211800Z 36004KT 9999 SCT046 28/18 Q1017","temp":28,"dewp":18,"wdir":360,"wspd":4,"visib":"6+","altim":1017,"clouds":[{"cover":"SCT","base":4600}],"obsTime":1776794400},"SBSR":{"icaoId":"SBSR","flightCategory":"VFR","rawOb":"METAR SBSR 211800Z 22007KT CAVOK 31/12 Q1014","temp":31,"dewp":12,"wdir":220,"wspd":7,"visib":"6+","altim":1014,"clouds":[],"obsTime":1776794400},"SBGM":{"icaoId":"SBGM","flightCategory":"MVFR","rawOb":"METAR SBGM 211800Z 34006KT 8000 BKN016 OVC040 25/23 Q1011","temp":25,"dewp":23,"wdir":340,"wspd":6,"visib":4.97,"altim":1011,"clouds":[{"cover":"BKN","base":1600},{"cover":"OVC","base":4000}],"obsTime":1776794400},"SBIP":{"icaoId":"SBIP","flightCategory":"VFR","rawOb":"METAR SBIP 211800Z AUTO 02005KT 320V080 CAVOK 30/17 Q1015","temp":30,"dewp":17,"wdir":20,"wspd":5,"visib":"6+","altim":1015,"clouds":[],"obsTime":1776794400},"SBTF":{"icaoId":"SBTF","flightCategory":"VFR","rawOb":"METAR SBTF 211800Z 33006KT 9999 SCT015 30/26 Q1010","temp":30,"dewp":26,"wdir":330,"wspd":6,"visib":"6+","altim":1010,"clouds":[{"cover":"SCT","base":1500}],"obsTime":1776794400},"SBCC":{"icaoId":"SBCC","flightCategory":"VFR","rawOb":"METAR SBCC 211800Z 25006KT 9999 VCSH SCT030 FEW035TCU SCT100 28/22 Q1012","temp":28,"dewp":22,"wdir":250,"wspd":6,"visib":"6+","altim":1012,"clouds":[{"cover":"SCT","base":3000},{"cover":"FEW","base":3500},{"cover":"SCT","base":10000}],"obsTime":1776794400},"SBTT":{"icaoId":"SBTT","flightCategory":"VFR","rawOb":"METAR SBTT 211800Z 09005KT 9999 SCT011 OVC100 26/20 Q1012","temp":26,"dewp":20,"wdir":90,"wspd":5,"visib":"6+","altim":1012,"clouds":[{"cover":"SCT","base":1100},{"cover":"OVC","base":10000}],"obsTime":1776794400},"SBUY":{"icaoId":"SBUY","flightCategory":"VFR","rawOb":"METAR SBUY 211800Z 30003KT 9999 VCSH SCT020 FEW030TCU SCT100 30/25 Q1009","temp":30,"dewp":25,"wdir":300,"wspd":3,"visib":"6+","altim":1009,"clouds":[{"cover":"SCT","base":2000},{"cover":"FEW","base":3000},{"cover":"SCT","base":10000}],"obsTime":1776794400},"SBKG":{"icaoId":"SBKG","flightCategory":"VFR","rawOb":"METAR SBKG 211800Z 02002KT 9999 SCT016 BKN070 26/21 Q1012","temp":26,"dewp":21,"wdir":20,"wspd":2,"visib":"6+","altim":1012,"clouds":[{"cover":"SCT","base":1600},{"cover":"BKN","base":7000}],"obsTime":1776794400},"SBVH":{"icaoId":"SBVH","flightCategory":"VFR","rawOb":"METAR SBVH 211800Z 28005KT 9999 SCT030 FEW035TCU SCT100 28/22 Q1013","temp":28,"dewp":22,"wdir":280,"wspd":5,"visib":"6+","altim":1013,"clouds":[{"cover":"SCT","base":3000},{"cover":"FEW","base":3500},{"cover":"SCT","base":10000}],"obsTime":1776794400},"SBCJ":{"icaoId":"SBCJ","flightCategory":"VFR","rawOb":"METAR SBCJ 211800Z 07004KT 9999 SCT013 SCT080 24/21 Q1015","temp":24,"dewp":21,"wdir":70,"wspd":4,"visib":"6+","altim":1015,"clouds":[{"cover":"SCT","base":1300},{"cover":"SCT","base":8000}],"obsTime":1776794400},"SBAU":{"icaoId":"SBAU","flightCategory":"VFR","rawOb":"METAR SBAU 211800Z 15003KT CAVOK 32/13 Q1014","temp":32,"dewp":13,"wdir":150,"wspd":3,"visib":"6+","altim":1014,"clouds":[],"obsTime":1776794400},"SBJP":{"icaoId":"SBJP","flightCategory":"VFR","rawOb":"METAR SBJP 211800Z 11013KT 080V140 9999 SCT029 29/23 Q1010","temp":29,"dewp":23,"wdir":110,"wspd":13,"visib":"6+","altim":1010,"clouds":[{"cover":"SCT","base":2900}],"obsTime":1776794400},"SBLE":{"icaoId":"SBLE","flightCategory":"VFR","rawOb":"METAR SBLE 211800Z AUTO 15005KT 100V200 CAVOK 29/19 Q1014","temp":29,"dewp":19,"wdir":150,"wspd":5,"visib":"6+","altim":1014,"clouds":[],"obsTime":1776794400},"SBAF":{"icaoId":"SBAF","flightCategory":"VFR","rawOb":"METAR SBAF 211800Z 19012KT 9999 SCT048 27/19 Q1015","temp":27,"dewp":19,"wdir":190,"wspd":12,"visib":"6+","altim":1015,"clouds":[{"cover":"SCT","base":4800}],"obsTime":1776794400},"SBJV":{"icaoId":"SBJV","flightCategory":"VFR","rawOb":"METAR SBJV 211800Z 12005KT 9999 FEW030 27/20 Q1016","temp":27,"dewp":20,"wdir":120,"wspd":5,"visib":"6+","altim":1016,"clouds":[{"cover":"FEW","base":3000}],"obsTime":1776794400},"SBAN":{"icaoId":"SBAN","flightCategory":"VFR","rawOb":"METAR SBAN 211800Z VRB03KT 9999 VCSH SCT040 FEW045TCU SCT100 26/17 Q1018","temp":26,"dewp":17,"wdir":"VRB","wspd":3,"visib":"6+","altim":1018,"clouds":[{"cover":"SCT","base":4000},{"cover":"FEW","base":4500},{"cover":"SCT","base":10000}],"obsTime":1776794400},"SBGW":{"icaoId":"SBGW","flightCategory":"VFR","rawOb":"METAR SBGW 211800Z VRB03KT 9999 FEW030 28/13 Q1016","temp":28,"dewp":13,"wdir":"VRB","wspd":3,"visib":"6+","altim":1016,"clouds":[{"cover":"FEW","base":3000}],"obsTime":1776794400},"SBJR":{"icaoId":"SBJR","flightCategory":"VFR","rawOb":"METAR SBJR 211800Z 18006KT 9999 FEW030 28/20 Q1015","temp":28,"dewp":20,"wdir":180,"wspd":6,"visib":"6+","altim":1015,"clouds":[{"cover":"FEW","base":3000}],"obsTime":1776794400},"SBLS":{"icaoId":"SBLS","flightCategory":"VFR","rawOb":"METAR SBLS 211800Z VRB06KT 9999 SCT035 27/18 Q1017","temp":27,"dewp":18,"wdir":"VRB","wspd":6,"visib":"6+","altim":1017,"clouds":[{"cover":"SCT","base":3500}],"obsTime":1776794400},"SBMT":{"icaoId":"SBMT","flightCategory":"VFR","rawOb":"METAR SBMT 211800Z 12004KT CAVOK 25/11 Q1017","temp":25,"dewp":11,"wdir":120,"wspd":4,"visib":"6+","altim":1017,"clouds":[],"obsTime":1776794400},"SBST":{"icaoId":"SBST","flightCategory":"VFR","rawOb":"METAR SBST 211800Z 19006KT 140V250 9999 SCT035 25/17 Q1015","temp":25,"dewp":17,"wdir":190,"wspd":6,"visib":"6+","altim":1015,"clouds":[{"cover":"SCT","base":3500}],"obsTime":1776794400},"SBTA":{"icaoId":"SBTA","flightCategory":"VFR","rawOb":"METAR SBTA 211800Z 35003KT 290V060 9999 FEW040 27/14 Q1016","temp":27,"dewp":14,"wdir":350,"wspd":3,"visib":"6+","altim":1016,"clouds":[{"cover":"FEW","base":4000}],"obsTime":1776794400},"SBIH":{"icaoId":"SBIH","flightCategory":"VFR","rawOb":"METAR SBIH 211800Z 35003KT 9999 -TSRA SCT018 FEW025CB BKN100 25/24 Q1010","temp":25,"dewp":24,"wdir":350,"wspd":3,"visib":"6+","altim":1010,"clouds":[{"cover":"SCT","base":1800},{"cover":"FEW","base":2500},{"cover":"BKN","base":10000}],"obsTime":1776794400},"SBPF":{"icaoId":"SBPF","flightCategory":"VFR","rawOb":"METAR SBPF 211800Z AUTO 02005KT 340V040 9999 FEW047 23/17 Q1018","temp":23,"dewp":17,"wdir":20,"wspd":5,"visib":"6+","altim":1018,"clouds":[{"cover":"FEW","base":4700}],"obsTime":1776794400},"SBNM":{"icaoId":"SBNM","flightCategory":"VFR","rawOb":"METAR SBNM 211800Z 33004KT 9999 SCT030 BKN070 26/22 Q1014","temp":26,"dewp":22,"wdir":330,"wspd":4,"visib":"6+","altim":1014,"clouds":[{"cover":"SCT","base":3000},{"cover":"BKN","base":7000}],"obsTime":1776794400}}}