{"updated":1781899769,"count":85,"data":{"SBPA":{"icaoId":"SBPA","flightCategory":"VFR","rawOb":"METAR SBPA 191900Z 29007KT 260V320 9999 VCSH FEW013 BKN056 BKN065 16/13 Q1014","temp":16,"dewp":13,"wdir":290,"wspd":7,"visib":"6+","altim":1014,"clouds":[{"cover":"FEW","base":1300},{"cover":"BKN","base":5600},{"cover":"BKN","base":6500}],"obsTime":1781895600},"SBBE":{"icaoId":"SBBE","flightCategory":"VFR","rawOb":"METAR SBBE 191900Z 36008KT 9999 VCSH SCT035 FEW040TCU 29/24 Q1011","temp":29,"dewp":24,"wdir":360,"wspd":8,"visib":"6+","altim":1011,"clouds":[{"cover":"SCT","base":3500},{"cover":"FEW","base":4000}],"obsTime":1781895600},"SBCT":{"icaoId":"SBCT","flightCategory":"VFR","rawOb":"METAR SBCT 191900Z 33009KT CAVOK 21/12 Q1018","temp":21,"dewp":12,"wdir":330,"wspd":9,"visib":"6+","altim":1018,"clouds":[],"obsTime":1781895600},"SBBR":{"icaoId":"SBBR","flightCategory":"VFR","rawOb":"METAR SBBR 191900Z 17004KT 050V210 9999 FEW040 27/12 Q1020","temp":27,"dewp":12,"wdir":170,"wspd":4,"visib":"6+","altim":1020,"clouds":[{"cover":"FEW","base":4000}],"obsTime":1781895600},"SBBV":{"icaoId":"SBBV","flightCategory":"MVFR","rawOb":"METAR SBBV 191900Z 21007KT 9999 VCSH BKN025 FEW030TCU BKN080 29/24 Q1012","temp":29,"dewp":24,"wdir":210,"wspd":7,"visib":"6+","altim":1012,"clouds":[{"cover":"BKN","base":2500},{"cover":"FEW","base":3000},{"cover":"BKN","base":8000}],"obsTime":1781895600},"SBCB":{"icaoId":"SBCB","flightCategory":"VFR","rawOb":"METAR SBCB 191900Z /////KT CAVOK 23/18 Q1018","temp":23,"dewp":18,"wdir":null,"wspd":null,"visib":"6+","altim":1018,"clouds":[],"obsTime":1781895600},"SBCF":{"icaoId":"SBCF","flightCategory":"VFR","rawOb":"METAR SBCF 191900Z 04007KT CAVOK 22/10 Q1021","temp":22,"dewp":10,"wdir":40,"wspd":7,"visib":"6+","altim":1021,"clouds":[],"obsTime":1781895600},"SBCG":{"icaoId":"SBCG","flightCategory":"MVFR","rawOb":"SPECI SBCG 191822Z 35006KT 5000 -TSRA BR BKN030 FEW045CB OVC070 20/19 Q1017 RERA","temp":20,"dewp":19,"wdir":350,"wspd":6,"visib":3.11,"altim":1017,"clouds":[{"cover":"BKN","base":3000},{"cover":"FEW","base":4500},{"cover":"OVC","base":7000}],"obsTime":1781893320},"SBCP":{"icaoId":"SBCP","flightCategory":"VFR","rawOb":"METAR SBCP 191900Z 11012KT 9999 FEW020 25/16 Q1019","temp":25,"dewp":16,"wdir":110,"wspd":12,"visib":"6+","altim":1019,"clouds":[{"cover":"FEW","base":2000}],"obsTime":1781895600},"SBCR":{"icaoId":"SBCR","flightCategory":"MVFR","rawOb":"METAR SBCR 191900Z 22013KT 9999 FEW020 BKN025 BKN070 21/15 Q1017","temp":21,"dewp":15,"wdir":220,"wspd":13,"visib":"6+","altim":1017,"clouds":[{"cover":"FEW","base":2000},{"cover":"BKN","base":2500},{"cover":"BKN","base":7000}],"obsTime":1781895600},"SBCZ":{"icaoId":"SBCZ","flightCategory":"MVFR","rawOb":"METAR SBCZ 191900Z 04002KT 8000 VCSH BKN030 29/25 Q1013","temp":29,"dewp":25,"wdir":40,"wspd":2,"visib":4.97,"altim":1013,"clouds":[{"cover":"BKN","base":3000}],"obsTime":1781895600},"SBEG":{"icaoId":"SBEG","flightCategory":"MVFR","rawOb":"SPECI SBEG 191819Z VRB05KT 5000 2000W -TSRA SCT025 FEW030CB SCT080 25/24 Q1013 RERA","temp":25,"dewp":24,"wdir":"VRB","wspd":5,"visib":3.11,"altim":1013,"clouds":[{"cover":"SCT","base":2500},{"cover":"FEW","base":3000},{"cover":"SCT","base":8000}],"obsTime":1781893140},"SBFI":{"icaoId":"SBFI","flightCategory":"MVFR","rawOb":"METAR SBFI 191900Z 06006KT 9999 SCT007 BKN018 OVC040 14/14 Q1016","temp":14,"dewp":14,"wdir":60,"wspd":6,"visib":"6+","altim":1016,"clouds":[{"cover":"SCT","base":700},{"cover":"BKN","base":1800},{"cover":"OVC","base":4000}],"obsTime":1781895600},"SBFL":{"icaoId":"SBFL","flightCategory":"VFR","rawOb":"METAR SBFL 191900Z 34009KT 9999 FEW040 21/15 Q1016","temp":21,"dewp":15,"wdir":340,"wspd":9,"visib":"6+","altim":1016,"clouds":[{"cover":"FEW","base":4000}],"obsTime":1781895600},"SBGL":{"icaoId":"SBGL","flightCategory":"VFR","rawOb":"METAR SBGL 191900Z 14005KT CAVOK 24/16 Q1017","temp":24,"dewp":16,"wdir":140,"wspd":5,"visib":"6+","altim":1017,"clouds":[],"obsTime":1781895600},"SBGO":{"icaoId":"SBGO","flightCategory":"VFR","rawOb":"METAR SBGO 191900Z VRB02KT 9999 FEW048 31/14 Q1018","temp":31,"dewp":14,"wdir":"VRB","wspd":2,"visib":"6+","altim":1018,"clouds":[{"cover":"FEW","base":4800}],"obsTime":1781895600},"SBGR":{"icaoId":"SBGR","flightCategory":"VFR","rawOb":"METAR SBGR 191900Z 33009KT CAVOK 25/11 Q1019","temp":25,"dewp":11,"wdir":330,"wspd":9,"visib":"6+","altim":1019,"clouds":[],"obsTime":1781895600},"SBKP":{"icaoId":"SBKP","flightCategory":"VFR","rawOb":"METAR SBKP 191900Z 35009KT CAVOK 25/12 Q1019","temp":25,"dewp":12,"wdir":350,"wspd":9,"visib":"6+","altim":1019,"clouds":[],"obsTime":1781895600},"SBLO":{"icaoId":"SBLO","flightCategory":"VFR","rawOb":"METAR SBLO 191900Z 06005KT CAVOK 22/16 Q1016","temp":22,"dewp":16,"wdir":60,"wspd":5,"visib":"6+","altim":1016,"clouds":[],"obsTime":1781895600},"SBMA":{"icaoId":"SBMA","flightCategory":"VFR","rawOb":"METAR SBMA 191900Z 01005KT 9999 SCT025 FEW030TCU 33/21 Q1011","temp":33,"dewp":21,"wdir":10,"wspd":5,"visib":"6+","altim":1011,"clouds":[{"cover":"SCT","base":2500},{"cover":"FEW","base":3000}],"obsTime":1781895600},"SBMO":{"icaoId":"SBMO","flightCategory":"VFR","rawOb":"METAR SBMO 191900Z 14016KT 9999 SCT020 BKN060 26/23 Q1015","temp":26,"dewp":23,"wdir":140,"wspd":16,"visib":"6+","altim":1015,"clouds":[{"cover":"SCT","base":2000},{"cover":"BKN","base":6000}],"obsTime":1781895600},"SBMQ":{"icaoId":"SBMQ","flightCategory":"VFR","rawOb":"METAR SBMQ 191900Z 05007KT 9999 FEW040 FEW050TCU 32/21 Q1011","temp":32,"dewp":21,"wdir":50,"wspd":7,"visib":"6+","altim":1011,"clouds":[{"cover":"FEW","base":4000},{"cover":"FEW","base":5000}],"obsTime":1781895600},"SBNT":{"icaoId":"SBNT","flightCategory":"VFR","rawOb":"METAR SBNT 191900Z 15016KT 9999 FEW023 FEW026TCU SCT036 28/22 Q1013","temp":28,"dewp":22,"wdir":150,"wspd":16,"visib":"6+","altim":1013,"clouds":[{"cover":"FEW","base":2300},{"cover":"FEW","base":2600},{"cover":"SCT","base":3600}],"obsTime":1781895600},"SBPJ":{"icaoId":"SBPJ","flightCategory":"VFR","rawOb":"METAR SBPJ 191900Z 20005KT 140V270 CAVOK 33/21 Q1013","temp":33,"dewp":21,"wdir":200,"wspd":5,"visib":"6+","altim":1013,"clouds":[],"obsTime":1781895600},"SBPV":{"icaoId":"SBPV","flightCategory":"VFR","rawOb":"METAR SBPV 191900Z 02004KT 9999 SCT040 32/20 Q1013","temp":32,"dewp":20,"wdir":20,"wspd":4,"visib":"6+","altim":1013,"clouds":[{"cover":"SCT","base":4000}],"obsTime":1781895600},"SBRB":{"icaoId":"SBRB","flightCategory":"VFR","rawOb":"METAR SBRB 191900Z 36006KT 9999 BKN036 30/22 Q1015","temp":30,"dewp":22,"wdir":360,"wspd":6,"visib":"6+","altim":1015,"clouds":[{"cover":"BKN","base":3600}],"obsTime":1781895600},"SBRF":{"icaoId":"SBRF","flightCategory":"VFR","rawOb":"METAR SBRF 191900Z 16014KT 9999 SCT018 BKN040 26/22 Q1014","temp":26,"dewp":22,"wdir":160,"wspd":14,"visib":"6+","altim":1014,"clouds":[{"cover":"SCT","base":1800},{"cover":"BKN","base":4000}],"obsTime":1781895600},"SBSG":{"icaoId":"SBSG","flightCategory":"VFR","rawOb":"METAR SBSG 191900Z 13009KT 090V170 9999 SCT030 FEW033TCU 28/22 Q1013","temp":28,"dewp":22,"wdir":130,"wspd":9,"visib":"6+","altim":1013,"clouds":[{"cover":"SCT","base":3000},{"cover":"FEW","base":3300}],"obsTime":1781895600},"SBSL":{"icaoId":"SBSL","flightCategory":"VFR","rawOb":"METAR SBSL 191900Z 07009KT 9999 FEW025 SCT070 29/23 Q1011","temp":29,"dewp":23,"wdir":70,"wspd":9,"visib":"6+","altim":1011,"clouds":[{"cover":"FEW","base":2500},{"cover":"SCT","base":7000}],"obsTime":1781895600},"SBSN":{"icaoId":"SBSN","flightCategory":"VFR","rawOb":"METAR SBSN 191900Z 06007KT 9999 FEW020 FEW025TCU 31/24 Q1012","temp":31,"dewp":24,"wdir":60,"wspd":7,"visib":"6+","altim":1012,"clouds":[{"cover":"FEW","base":2000},{"cover":"FEW","base":2500}],"obsTime":1781895600},"SBSP":{"icaoId":"SBSP","flightCategory":"VFR","rawOb":"METAR SBSP 191900Z 33009KT CAVOK 24/10 Q1020","temp":24,"dewp":10,"wdir":330,"wspd":9,"visib":"6+","altim":1020,"clouds":[],"obsTime":1781895600},"SBSV":{"icaoId":"SBSV","flightCategory":"MVFR","rawOb":"METAR SBSV 191900Z 16015KT 9999 VCSH BKN030 BKN050 25/20 Q1017","temp":25,"dewp":20,"wdir":160,"wspd":15,"visib":"6+","altim":1017,"clouds":[{"cover":"BKN","base":3000},{"cover":"BKN","base":5000}],"obsTime":1781895600},"SBTE":{"icaoId":"SBTE","flightCategory":"VFR","rawOb":"METAR SBTE 191900Z 12006KT 040V180 9999 FEW030 34/18 Q1010","temp":34,"dewp":18,"wdir":120,"wspd":6,"visib":"6+","altim":1010,"clouds":[{"cover":"FEW","base":3000}],"obsTime":1781895600},"SBVT":{"icaoId":"SBVT","flightCategory":"VFR","rawOb":"METAR SBVT 191900Z 13008KT CAVOK 24/17 Q1019","temp":24,"dewp":17,"wdir":130,"wspd":8,"visib":"6+","altim":1019,"clouds":[],"obsTime":1781895600},"SBHT":{"icaoId":"SBHT","flightCategory":"VFR","rawOb":"METAR SBHT 191900Z 00000KT 9999 SCT035 34/24 Q1012","temp":34,"dewp":24,"wdir":0,"wspd":0,"visib":"6+","altim":1012,"clouds":[{"cover":"SCT","base":3500}],"obsTime":1781895600},"SBIL":{"icaoId":"SBIL","flightCategory":"VFR","rawOb":"METAR SBIL 191900Z 20010KT 9999 FEW030 BKN070 26/19 Q1018","temp":26,"dewp":19,"wdir":200,"wspd":10,"visib":"6+","altim":1018,"clouds":[{"cover":"FEW","base":3000},{"cover":"BKN","base":7000}],"obsTime":1781895600},"SBJU":{"icaoId":"SBJU","flightCategory":"MVFR","rawOb":"METAR SBJU 191900Z 15010KT 9999 BKN022 28/19 Q1015","temp":28,"dewp":19,"wdir":150,"wspd":10,"visib":"6+","altim":1015,"clouds":[{"cover":"BKN","base":2200}],"obsTime":1781895600},"SBME":{"icaoId":"SBME","flightCategory":"VFR","rawOb":"METAR SBME 191900Z 08012KT 9999 FEW040 23/19 Q1018","temp":23,"dewp":19,"wdir":80,"wspd":12,"visib":"6+","altim":1018,"clouds":[{"cover":"FEW","base":4000}],"obsTime":1781895600},"SBMG":{"icaoId":"SBMG","flightCategory":"MVFR","rawOb":"METAR SBMG 191900Z 24009KT 5000 -RA BR NSC 19/16 Q1017","temp":19,"dewp":16,"wdir":240,"wspd":9,"visib":3.11,"altim":1017,"clouds":[],"obsTime":1781895600},"SBMK":{"icaoId":"SBMK","flightCategory":"VFR","rawOb":"METAR SBMK 191900Z 06004KT CAVOK 25/11 Q1020","temp":25,"dewp":11,"wdir":60,"wspd":4,"visib":"6+","altim":1020,"clouds":[],"obsTime":1781895600},"SBUR":{"icaoId":"SBUR","flightCategory":"VFR","rawOb":"METAR SBUR 191900Z 36004KT CAVOK 27/12 Q1019","temp":27,"dewp":12,"wdir":360,"wspd":4,"visib":"6+","altim":1019,"clouds":[],"obsTime":1781895600},"SBAT":{"icaoId":"SBAT","flightCategory":"VFR","rawOb":"METAR SBAT 191900Z 07003KT 9999 SCT035 34/21 Q1013","temp":34,"dewp":21,"wdir":70,"wspd":3,"visib":"6+","altim":1013,"clouds":[{"cover":"SCT","base":3500}],"obsTime":1781895600},"SBUL":{"icaoId":"SBUL","flightCategory":"VFR","rawOb":"METAR SBUL 191900Z 05006KT 330V120 CAVOK 25/13 Q1021","temp":25,"dewp":13,"wdir":50,"wspd":6,"visib":"6+","altim":1021,"clouds":[],"obsTime":1781895600},"SBFZ":{"icaoId":"SBFZ","flightCategory":"VFR","rawOb":"METAR SBFZ 191900Z 10009KT 060V120 9999 FEW030 30/23 Q1011","temp":30,"dewp":23,"wdir":100,"wspd":9,"visib":"6+","altim":1011,"clouds":[{"cover":"FEW","base":3000}],"obsTime":1781895600},"SBPP":{"icaoId":"SBPP","flightCategory":"MVFR","rawOb":"METAR SBPP 191900Z 34005KT 6000 -RA BKN020 OVC070 20/18 Q1015","temp":20,"dewp":18,"wdir":340,"wspd":5,"visib":3.73,"altim":1015,"clouds":[{"cover":"BKN","base":2000},{"cover":"OVC","base":7000}],"obsTime":1781895600},"SBPS":{"icaoId":"SBPS","flightCategory":"VFR","rawOb":"METAR SBPS 191900Z VRB04KT 9999 SCT030 24/17 Q1019","temp":24,"dewp":17,"wdir":"VRB","wspd":4,"visib":"6+","altim":1019,"clouds":[{"cover":"SCT","base":3000}],"obsTime":1781895600},"SBPB":{"icaoId":"SBPB","flightCategory":"VFR","rawOb":"METAR SBPB 191900Z 05010KT 9999 FEW020 31/25 Q1011","temp":31,"dewp":25,"wdir":50,"wspd":10,"visib":"6+","altim":1011,"clouds":[{"cover":"FEW","base":2000}],"obsTime":1781895600},"SBCJ":{"icaoId":"SBCJ","flightCategory":"VFR","rawOb":"METAR SBCJ 191900Z 00000KT 9999 SCT020 27/22 Q1016","temp":27,"dewp":22,"wdir":0,"wspd":0,"visib":"6+","altim":1016,"clouds":[{"cover":"SCT","base":2000}],"obsTime":1781895600},"SBSJ":{"icaoId":"SBSJ","flightCategory":"VFR","rawOb":"METAR SBSJ 191900Z 06005KT CAVOK 23/12 Q1019","temp":23,"dewp":12,"wdir":60,"wspd":5,"visib":"6+","altim":1019,"clouds":[],"obsTime":1781895600},"SBAR":{"icaoId":"SBAR","flightCategory":"VFR","rawOb":"METAR SBAR 191900Z 16008KT 9999 SCT030 27/19 Q1016","temp":27,"dewp":19,"wdir":160,"wspd":8,"visib":"6+","altim":1016,"clouds":[{"cover":"SCT","base":3000}],"obsTime":1781895600},"SBPL":{"icaoId":"SBPL","flightCategory":"MVFR","rawOb":"METAR SBPL 191900Z 13011KT 9999 BKN030 29/17 Q1016","temp":29,"dewp":17,"wdir":130,"wspd":11,"visib":"6+","altim":1016,"clouds":[{"cover":"BKN","base":3000}],"obsTime":1781895600},"SBOI":{"icaoId":"SBOI","flightCategory":"VFR","rawOb":"METAR SBOI 191900Z AUTO 01009KT 9999 -RA NSC 23/22 Q1013","temp":23,"dewp":22,"wdir":10,"wspd":9,"visib":"6+","altim":1013,"clouds":[],"obsTime":1781895600},"SBTF":{"icaoId":"SBTF","flightCategory":"VFR","rawOb":"METAR SBTF 191900Z 11004KT 9999 SCT020 33/24 Q1012","temp":33,"dewp":24,"wdir":110,"wspd":4,"visib":"6+","altim":1012,"clouds":[{"cover":"SCT","base":2000}],"obsTime":1781895600},"SBUY":{"icaoId":"SBUY","flightCategory":"VFR","rawOb":"METAR SBUY 191900Z 18005KT 9999 SCT020 32/24 Q1011","temp":32,"dewp":24,"wdir":180,"wspd":5,"visib":"6+","altim":1011,"clouds":[{"cover":"SCT","base":2000}],"obsTime":1781895600},"SBTT":{"icaoId":"SBTT","flightCategory":"IFR","rawOb":"SPECI SBTT 191815Z 03007KT 4000 RA BKN020 25/23 Q1014","temp":25,"dewp":23,"wdir":30,"wspd":7,"visib":2.49,"altim":1014,"clouds":[{"cover":"BKN","base":2000}],"obsTime":1781892900},"SBTU":{"icaoId":"SBTU","flightCategory":"VFR","rawOb":"METAR SBTU 191900Z AUTO 30012G22KT 270V340 9999 // SCT022/// BKN032/// BKN063/// ///// Q1014","temp":null,"dewp":null,"wdir":300,"wspd":12,"visib":"6+","altim":1014,"clouds":[{"cover":"SCT","base":2200},{"cover":"BKN","base":3200},{"cover":"BKN","base":6300}],"obsTime":1781895600},"SBSC":{"icaoId":"SBSC","flightCategory":"VFR","rawOb":"METAR SBSC 191900Z 34009KT CAVOK 26/14 Q1017","temp":26,"dewp":14,"wdir":340,"wspd":9,"visib":"6+","altim":1017,"clouds":[],"obsTime":1781895600},"SBSM":{"icaoId":"SBSM","flightCategory":"IFR","rawOb":"METAR SBSM 191900Z 27008KT 9999 BKN008 OVC016 14/13 Q1016","temp":14,"dewp":13,"wdir":270,"wspd":8,"visib":"6+","altim":1016,"clouds":[{"cover":"BKN","base":800},{"cover":"OVC","base":1600}],"obsTime":1781895600},"SBSR":{"icaoId":"SBSR","flightCategory":"VFR","rawOb":"METAR SBSR 191900Z 03006KT CAVOK 28/12 Q1017","temp":28,"dewp":12,"wdir":30,"wspd":6,"visib":"6+","altim":1017,"clouds":[],"obsTime":1781895600},"SBVH":{"icaoId":"SBVH","flightCategory":"VFR","rawOb":"METAR SBVH 191900Z 28006KT 9999 FEW015 SCT100 26/21 Q1017","temp":26,"dewp":21,"wdir":280,"wspd":6,"visib":"6+","altim":1017,"clouds":[{"cover":"FEW","base":1500},{"cover":"SCT","base":10000}],"obsTime":1781895600},"SBBH":{"icaoId":"SBBH","flightCategory":"VFR","rawOb":"METAR SBBH 191900Z 08004KT CAVOK 22/11 Q1021","temp":22,"dewp":11,"wdir":80,"wspd":4,"visib":"6+","altim":1021,"clouds":[],"obsTime":1781895600},"SBBQ":{"icaoId":"SBBQ","flightCategory":"VFR","rawOb":"METAR SBBQ 191900Z 34005KT CAVOK 19/10 Q1024","temp":19,"dewp":10,"wdir":340,"wspd":5,"visib":"6+","altim":1024,"clouds":[],"obsTime":1781895600},"SBBU":{"icaoId":"SBBU","flightCategory":"VFR","rawOb":"METAR SBBU 191900Z 01005KT CAVOK 28/15 Q1017","temp":28,"dewp":15,"wdir":10,"wspd":5,"visib":"6+","altim":1017,"clouds":[],"obsTime":1781895600},"SBCA":{"icaoId":"SBCA","flightCategory":"LIFR","rawOb":"METAR SBCA 191900Z 16012KT 0600 -RA FG BKN001 SCT030 OVC080 11/11 Q1019 RETS","temp":11,"dewp":11,"wdir":160,"wspd":12,"visib":0.37,"altim":1019,"clouds":[{"cover":"BKN","base":100},{"cover":"SCT","base":3000},{"cover":"OVC","base":8000}],"obsTime":1781895600},"SBCC":{"icaoId":"SBCC","flightCategory":"VFR","rawOb":"METAR SBCC 191900Z 02007KT 330V080 9999 BKN040 FEW050TCU 32/18 Q1014","temp":32,"dewp":18,"wdir":20,"wspd":7,"visib":"6+","altim":1014,"clouds":[{"cover":"BKN","base":4000},{"cover":"FEW","base":5000}],"obsTime":1781895600},"SBCO":{"icaoId":"SBCO","flightCategory":"VFR","rawOb":"METAR SBCO 191900Z 29007KT 9999 BKN045 17/13 Q1014","temp":17,"dewp":13,"wdir":290,"wspd":7,"visib":"6+","altim":1014,"clouds":[{"cover":"BKN","base":4500}],"obsTime":1781895600},"SBDN":{"icaoId":"SBDN","flightCategory":"VFR","rawOb":"METAR SBDN 191900Z 33003KT CAVOK 27/16 Q1015","temp":27,"dewp":16,"wdir":330,"wspd":3,"visib":"6+","altim":1015,"clouds":[],"obsTime":1781895600},"SBES":{"icaoId":"SBES","flightCategory":"VFR","rawOb":"METAR SBES 191900Z 07015KT CAVOK 23/// Q1018","temp":null,"dewp":null,"wdir":70,"wspd":15,"visib":"6+","altim":1018,"clouds":[],"obsTime":1781895600},"SBGM":{"icaoId":"SBGM","flightCategory":"VFR","rawOb":"METAR SBGM 191900Z 29004KT CAVOK 31/14 Q1014","temp":31,"dewp":14,"wdir":290,"wspd":4,"visib":"6+","altim":1014,"clouds":[],"obsTime":1781895600},"SBIP":{"icaoId":"SBIP","flightCategory":"VFR","rawOb":"METAR SBIP 191900Z AUTO 36005KT 320V020 CAVOK 25/11 Q1020","temp":25,"dewp":11,"wdir":360,"wspd":5,"visib":"6+","altim":1020,"clouds":[],"obsTime":1781895600},"SBKG":{"icaoId":"SBKG","flightCategory":"MVFR","rawOb":"METAR SBKG 191900Z 17011KT 5000 -RA BKN015 SCT022 22/21 Q1016","temp":22,"dewp":21,"wdir":170,"wspd":11,"visib":3.11,"altim":1016,"clouds":[{"cover":"BKN","base":1500},{"cover":"SCT","base":2200}],"obsTime":1781895600},"SBJP":{"icaoId":"SBJP","flightCategory":"MVFR","rawOb":"METAR SBJP 191900Z 14011KT 9999 3000W VCSH BKN017 FEW025TCU 27/23 Q1014","temp":27,"dewp":23,"wdir":140,"wspd":11,"visib":"6+","altim":1014,"clouds":[{"cover":"BKN","base":1700},{"cover":"FEW","base":2500}],"obsTime":1781895600},"SBNM":{"icaoId":"SBNM","flightCategory":"IFR","rawOb":"METAR SBNM 191900Z AUTO 27007KT 9999 SCT003 BKN005 14/14 Q1016","temp":14,"dewp":14,"wdir":270,"wspd":7,"visib":"6+","altim":1016,"clouds":[{"cover":"SCT","base":300},{"cover":"BKN","base":500}],"obsTime":1781895600},"SBJV":{"icaoId":"SBJV","flightCategory":"MVFR","rawOb":"METAR SBJV 191900Z 20005KT 9999 BKN030 21/16 Q1017","temp":21,"dewp":16,"wdir":200,"wspd":5,"visib":"6+","altim":1017,"clouds":[{"cover":"BKN","base":3000}],"obsTime":1781895600},"SBPF":{"icaoId":"SBPF","flightCategory":"VFR","rawOb":"METAR SBPF 191900Z 33003KT 9999 SCT012 BKN070 12/10 Q1018","temp":12,"dewp":10,"wdir":330,"wspd":3,"visib":"6+","altim":1018,"clouds":[{"cover":"SCT","base":1200},{"cover":"BKN","base":7000}],"obsTime":1781895600},"SBLE":{"icaoId":"SBLE","flightCategory":"VFR","rawOb":"METAR SBLE 191900Z AUTO 19003KT 150V240 9999 SCT034 BKN045 23/16 Q1019","temp":23,"dewp":16,"wdir":190,"wspd":3,"visib":"6+","altim":1019,"clouds":[{"cover":"SCT","base":3400},{"cover":"BKN","base":4500}],"obsTime":1781895600},"SBAF":{"icaoId":"SBAF","flightCategory":"VFR","rawOb":"METAR SBAF 191900Z 13006KT CAVOK 25/12 Q1017","temp":25,"dewp":12,"wdir":130,"wspd":6,"visib":"6+","altim":1017,"clouds":[],"obsTime":1781895600},"SBGW":{"icaoId":"SBGW","flightCategory":"VFR","rawOb":"METAR SBGW 191900Z 04004KT 360V090 CAVOK 24/09 Q1018","temp":24,"dewp":9,"wdir":40,"wspd":4,"visib":"6+","altim":1018,"clouds":[],"obsTime":1781895600},"SBJR":{"icaoId":"SBJR","flightCategory":"VFR","rawOb":"METAR SBJR 191900Z 12006KT CAVOK 26/17 Q1017","temp":26,"dewp":17,"wdir":120,"wspd":6,"visib":"6+","altim":1017,"clouds":[],"obsTime":1781895600},"SBLS":{"icaoId":"SBLS","flightCategory":"VFR","rawOb":"METAR SBLS 191900Z VRB01KT CAVOK 23/10 Q1021","temp":23,"dewp":10,"wdir":"VRB","wspd":1,"visib":"6+","altim":1021,"clouds":[],"obsTime":1781895600},"SBMT":{"icaoId":"SBMT","flightCategory":"VFR","rawOb":"METAR SBMT 191900Z 34005KT CAVOK 25/11 Q1019","temp":25,"dewp":11,"wdir":340,"wspd":5,"visib":"6+","altim":1019,"clouds":[],"obsTime":1781895600},"SBST":{"icaoId":"SBST","flightCategory":"VFR","rawOb":"METAR SBST 191900Z 14006KT 9999 FEW025 23/14 Q1015","temp":23,"dewp":14,"wdir":140,"wspd":6,"visib":"6+","altim":1015,"clouds":[{"cover":"FEW","base":2500}],"obsTime":1781895600},"SBTA":{"icaoId":"SBTA","flightCategory":"VFR","rawOb":"METAR SBTA 191900Z 04005KT CAVOK 24/11 Q1018","temp":24,"dewp":11,"wdir":40,"wspd":5,"visib":"6+","altim":1018,"clouds":[],"obsTime":1781895600},"SBIH":{"icaoId":"SBIH","flightCategory":"VFR","rawOb":"METAR SBIH 191900Z 03005KT 9999 SCT020 34/24 Q1011","temp":34,"dewp":24,"wdir":30,"wspd":5,"visib":"6+","altim":1011,"clouds":[{"cover":"SCT","base":2000}],"obsTime":1781895600},"SBAN":{"icaoId":"SBAN","flightCategory":"VFR","rawOb":"METAR SBAN 191900Z 18006KT 9999 SCT030 28/12 Q1021","temp":28,"dewp":12,"wdir":180,"wspd":6,"visib":"6+","altim":1021,"clouds":[{"cover":"SCT","base":3000}],"obsTime":1781895600}}}