{"updated":1775989588,"count":70,"data":{"SBRB":{"icaoId":"SBRB","flightCategory":"LIFR","rawOb":"METAR SBRB 120900Z 01002KT 0900 FG FEW020 23/23 Q1011","temp":23,"dewp":23,"wdir":10,"wspd":2,"visib":0.56,"altim":1011,"clouds":[{"cover":"FEW","base":2000}],"obsTime":1775984400},"SBVT":{"icaoId":"SBVT","flightCategory":"MVFR","rawOb":"METAR SBVT 120900Z 35003KT 8000 VCSH FEW007 BKN020 BKN050 21/21 Q1019","temp":21,"dewp":21,"wdir":350,"wspd":3,"visib":4.97,"altim":1019,"clouds":[{"cover":"FEW","base":700},{"cover":"BKN","base":2000},{"cover":"BKN","base":5000}],"obsTime":1775984400},"SBUR":{"icaoId":"SBUR","flightCategory":"VFR","rawOb":"METAR SBUR 120900Z 06010KT CAVOK 20/17 Q1020","temp":20,"dewp":17,"wdir":60,"wspd":10,"visib":"6+","altim":1020,"clouds":[],"obsTime":1775984400},"SBBR":{"icaoId":"SBBR","flightCategory":"IFR","rawOb":"METAR SBBR 120900Z 11013KT 9999 BKN008 20/19 Q1020","temp":20,"dewp":19,"wdir":110,"wspd":13,"visib":"6+","altim":1020,"clouds":[{"cover":"BKN","base":800}],"obsTime":1775984400},"SBUL":{"icaoId":"SBUL","flightCategory":"VFR","rawOb":"METAR SBUL 120900Z 12007KT 080V140 CAVOK 19/18 Q1021","temp":19,"dewp":18,"wdir":120,"wspd":7,"visib":"6+","altim":1021,"clouds":[],"obsTime":1775984400},"SBBV":{"icaoId":"SBBV","flightCategory":"VFR","rawOb":"METAR SBBV 120900Z 08010KT CAVOK 26/22 Q1012","temp":26,"dewp":22,"wdir":80,"wspd":10,"visib":"6+","altim":1012,"clouds":[],"obsTime":1775984400},"SBCB":{"icaoId":"SBCB","flightCategory":"VFR","rawOb":"METAR SBCB 120900Z 01004KT 9999 SCT020 22/20 Q1020","temp":22,"dewp":20,"wdir":10,"wspd":4,"visib":"6+","altim":1020,"clouds":[{"cover":"SCT","base":2000}],"obsTime":1775984400},"SBTE":{"icaoId":"SBTE","flightCategory":"VFR","rawOb":"METAR SBTE 120900Z 27004KT 9999 FEW010 BKN090 25/24 Q1012","temp":25,"dewp":24,"wdir":270,"wspd":4,"visib":"6+","altim":1012,"clouds":[{"cover":"FEW","base":1000},{"cover":"BKN","base":9000}],"obsTime":1775984400},"SBCF":{"icaoId":"SBCF","flightCategory":"MVFR","rawOb":"METAR SBCF 120900Z 14011KT 9999 BKN020 18/16 Q1022","temp":18,"dewp":16,"wdir":140,"wspd":11,"visib":"6+","altim":1022,"clouds":[{"cover":"BKN","base":2000}],"obsTime":1775984400},"SBSV":{"icaoId":"SBSV","flightCategory":"VFR","rawOb":"METAR SBSV 120900Z 11005KT 9999 VCSH SCT023 FEW025TCU 27/22 Q1014","temp":27,"dewp":22,"wdir":110,"wspd":5,"visib":"6+","altim":1014,"clouds":[{"cover":"SCT","base":2300},{"cover":"FEW","base":2500}],"obsTime":1775984400},"SBCG":{"icaoId":"SBCG","flightCategory":"VFR","rawOb":"METAR SBCG 120900Z 07015KT CAVOK 24/20 Q1016","temp":24,"dewp":20,"wdir":70,"wspd":15,"visib":"6+","altim":1016,"clouds":[],"obsTime":1775984400},"SBSP":{"icaoId":"SBSP","flightCategory":"VFR","rawOb":"METAR SBSP 120900Z COR 07006KT CAVOK 16/14 Q1023","temp":16,"dewp":14,"wdir":70,"wspd":6,"visib":"6+","altim":1023,"clouds":[],"obsTime":1775984400},"SBCP":{"icaoId":"SBCP","flightCategory":"VFR","rawOb":"METAR SBCP 121000Z 24004KT 9999 SCT020 SCT090 22/21 Q1020","temp":22,"dewp":21,"wdir":240,"wspd":4,"visib":"6+","altim":1020,"clouds":[{"cover":"SCT","base":2000},{"cover":"SCT","base":9000}],"obsTime":1775988000},"SBCT":{"icaoId":"SBCT","flightCategory":"VFR","rawOb":"METAR SBCT 120900Z 09002KT 9999 FEW010 14/14 Q1023","temp":14,"dewp":14,"wdir":90,"wspd":2,"visib":"6+","altim":1023,"clouds":[{"cover":"FEW","base":1000}],"obsTime":1775984400},"SBSN":{"icaoId":"SBSN","flightCategory":"VFR","rawOb":"METAR SBSN 120900Z 08011KT 9999 SCT013 BKN080 27/24 Q1011","temp":27,"dewp":24,"wdir":80,"wspd":11,"visib":"6+","altim":1011,"clouds":[{"cover":"SCT","base":1300},{"cover":"BKN","base":8000}],"obsTime":1775984400},"SBSL":{"icaoId":"SBSL","flightCategory":"VFR","rawOb":"METAR SBSL 120900Z 12006KT CAVOK 25/24 Q1011","temp":25,"dewp":24,"wdir":120,"wspd":6,"visib":"6+","altim":1011,"clouds":[],"obsTime":1775984400},"SBEG":{"icaoId":"SBEG","flightCategory":"VFR","rawOb":"METAR SBEG 120900Z 00000KT 9999 VCTS FEW010 FEW025CB BKN090 24/24 Q1011","temp":24,"dewp":24,"wdir":0,"wspd":0,"visib":"6+","altim":1011,"clouds":[{"cover":"FEW","base":1000},{"cover":"FEW","base":2500},{"cover":"BKN","base":9000}],"obsTime":1775984400},"SBSG":{"icaoId":"SBSG","flightCategory":"IFR","rawOb":"METAR SBSG 120900Z 25002KT 6000 BKN006 FEW025TCU BKN040 24/24 Q1012","temp":24,"dewp":24,"wdir":250,"wspd":2,"visib":3.73,"altim":1012,"clouds":[{"cover":"BKN","base":600},{"cover":"FEW","base":2500},{"cover":"BKN","base":4000}],"obsTime":1775984400},"SBFI":{"icaoId":"SBFI","flightCategory":"VFR","rawOb":"METAR SBFI 120900Z 09005KT 9999 VCTS FEW030 FEW035CB BKN100 22/20 Q1015","temp":22,"dewp":20,"wdir":90,"wspd":5,"visib":"6+","altim":1015,"clouds":[{"cover":"FEW","base":3000},{"cover":"FEW","base":3500},{"cover":"BKN","base":10000}],"obsTime":1775984400},"SBBE":{"icaoId":"SBBE","flightCategory":"VFR","rawOb":"METAR SBBE 120900Z 11002KT 9999 FEW020 25/25 Q1012","temp":25,"dewp":25,"wdir":110,"wspd":2,"visib":"6+","altim":1012,"clouds":[{"cover":"FEW","base":2000}],"obsTime":1775984400},"SBFL":{"icaoId":"SBFL","flightCategory":"VFR","rawOb":"METAR SBFL 120900Z 28003KT 9999 FEW010 BKN033 21/19 Q1020","temp":21,"dewp":19,"wdir":280,"wspd":3,"visib":"6+","altim":1020,"clouds":[{"cover":"FEW","base":1000},{"cover":"BKN","base":3300}],"obsTime":1775984400},"SBFZ":{"icaoId":"SBFZ","flightCategory":"VFR","rawOb":"METAR SBFZ 120900Z 18003KT 9999 SCT017 BKN070 25/24 Q1011","temp":25,"dewp":24,"wdir":180,"wspd":3,"visib":"6+","altim":1011,"clouds":[{"cover":"SCT","base":1700},{"cover":"BKN","base":7000}],"obsTime":1775984400},"SBRF":{"icaoId":"SBRF","flightCategory":"MVFR","rawOb":"METAR SBRF 120900Z 19004KT 8000 VCSH FEW010 BKN020 FEW023TCU BKN060 24/24 Q1013","temp":24,"dewp":24,"wdir":190,"wspd":4,"visib":4.97,"altim":1013,"clouds":[{"cover":"FEW","base":1000},{"cover":"BKN","base":2000},{"cover":"FEW","base":2300},{"cover":"BKN","base":6000}],"obsTime":1775984400},"SBGL":{"icaoId":"SBGL","flightCategory":"MVFR","rawOb":"METAR SBGL 120900Z 33005KT 8000 FEW008 21/20 Q1020","temp":21,"dewp":20,"wdir":330,"wspd":5,"visib":4.97,"altim":1020,"clouds":[{"cover":"FEW","base":800}],"obsTime":1775984400},"SBGO":{"icaoId":"SBGO","flightCategory":"VFR","rawOb":"METAR SBGO 120900Z 15004KT CAVOK 22/19 Q1018","temp":22,"dewp":19,"wdir":150,"wspd":4,"visib":"6+","altim":1018,"clouds":[],"obsTime":1775984400},"SBGR":{"icaoId":"SBGR","flightCategory":"VFR","rawOb":"METAR SBGR 120900Z 07008KT 9999 FEW010 15/14 Q1023","temp":15,"dewp":14,"wdir":70,"wspd":8,"visib":"6+","altim":1023,"clouds":[{"cover":"FEW","base":1000}],"obsTime":1775984400},"SBPV":{"icaoId":"SBPV","flightCategory":"VFR","rawOb":"METAR SBPV 120900Z 12001KT CAVOK 25/23 Q1010","temp":25,"dewp":23,"wdir":120,"wspd":1,"visib":"6+","altim":1010,"clouds":[],"obsTime":1775984400},"SBHT":{"icaoId":"SBHT","flightCategory":"VFR","rawOb":"METAR SBHT 121000Z 09005KT 9999 SCT010 BKN080 26/25 Q1013","temp":26,"dewp":25,"wdir":90,"wspd":5,"visib":"6+","altim":1013,"clouds":[{"cover":"SCT","base":1000},{"cover":"BKN","base":8000}],"obsTime":1775988000},"SBIL":{"icaoId":"SBIL","flightCategory":"VFR","rawOb":"METAR SBIL 121000Z 24006KT 9999 VCSH SCT018 BKN050 24/23 Q1016","temp":24,"dewp":23,"wdir":240,"wspd":6,"visib":"6+","altim":1016,"clouds":[{"cover":"SCT","base":1800},{"cover":"BKN","base":5000}],"obsTime":1775988000},"SBPJ":{"icaoId":"SBPJ","flightCategory":"VFR","rawOb":"METAR SBPJ 120900Z 12003KT 080V160 9999 FEW011 SCT090 25/24 Q1013","temp":25,"dewp":24,"wdir":120,"wspd":3,"visib":"6+","altim":1013,"clouds":[{"cover":"FEW","base":1100},{"cover":"SCT","base":9000}],"obsTime":1775984400},"SBJU":{"icaoId":"SBJU","flightCategory":"VFR","rawOb":"METAR SBJU 120900Z 00000KT 9999 FEW020 23/21 Q1015","temp":23,"dewp":21,"wdir":0,"wspd":0,"visib":"6+","altim":1015,"clouds":[{"cover":"FEW","base":2000}],"obsTime":1775984400},"SBPA":{"icaoId":"SBPA","flightCategory":"MVFR","rawOb":"METAR SBPA 120900Z 06011KT 8000 -RA BKN035 FEW040TCU OVC090 19/18 Q1017","temp":19,"dewp":18,"wdir":60,"wspd":11,"visib":4.97,"altim":1017,"clouds":[{"cover":"BKN","base":3500},{"cover":"FEW","base":4000},{"cover":"OVC","base":9000}],"obsTime":1775984400},"SBKP":{"icaoId":"SBKP","flightCategory":"VFR","rawOb":"METAR SBKP 120900Z 11007KT CAVOK 16/14 Q1021","temp":16,"dewp":14,"wdir":110,"wspd":7,"visib":"6+","altim":1021,"clouds":[],"obsTime":1775984400},"SBLO":{"icaoId":"SBLO","flightCategory":"VFR","rawOb":"METAR SBLO 120900Z 09002KT CAVOK 17/14 Q1020","temp":17,"dewp":14,"wdir":90,"wspd":2,"visib":"6+","altim":1020,"clouds":[],"obsTime":1775984400},"SBNT":{"icaoId":"SBNT","flightCategory":"IFR","rawOb":"METAR SBNT 120900Z 16002KT 9000 -RA BKN009 BKN016 OVC100 25/25 Q1012","temp":25,"dewp":25,"wdir":160,"wspd":2,"visib":5.59,"altim":1012,"clouds":[{"cover":"BKN","base":900},{"cover":"BKN","base":1600},{"cover":"OVC","base":10000}],"obsTime":1775984400},"SBMA":{"icaoId":"SBMA","flightCategory":"MVFR","rawOb":"METAR SBMA 120900Z 03006KT 9999 BKN010 25/24 Q1012","temp":25,"dewp":24,"wdir":30,"wspd":6,"visib":"6+","altim":1012,"clouds":[{"cover":"BKN","base":1000}],"obsTime":1775984400},"SBMQ":{"icaoId":"SBMQ","flightCategory":"MVFR","rawOb":"METAR SBMQ 120900Z 28002KT 9999 SCT013 OVC026 24/24 Q1012","temp":24,"dewp":24,"wdir":280,"wspd":2,"visib":"6+","altim":1012,"clouds":[{"cover":"SCT","base":1300},{"cover":"OVC","base":2600}],"obsTime":1775984400},"SBMO":{"icaoId":"SBMO","flightCategory":"MVFR","rawOb":"METAR SBMO 120900Z 13003KT 9999 FEW010 BKN015 BKN020 24/23 Q1014","temp":24,"dewp":23,"wdir":130,"wspd":3,"visib":"6+","altim":1014,"clouds":[{"cover":"FEW","base":1000},{"cover":"BKN","base":1500},{"cover":"BKN","base":2000}],"obsTime":1775984400},"SBME":{"icaoId":"SBME","flightCategory":"MVFR","rawOb":"METAR SBME 120900Z 27002KT 9999 BKN030 21/20 Q1020","temp":21,"dewp":20,"wdir":270,"wspd":2,"visib":"6+","altim":1020,"clouds":[{"cover":"BKN","base":3000}],"obsTime":1775984400},"SBMG":{"icaoId":"SBMG","flightCategory":"VFR","rawOb":"METAR SBMG 120900Z AUTO 09008KT CAVOK 19/13 Q1018","temp":19,"dewp":13,"wdir":90,"wspd":8,"visib":"6+","altim":1018,"clouds":[],"obsTime":1775984400},"SBMK":{"icaoId":"SBMK","flightCategory":"MVFR","rawOb":"METAR SBMK 120900Z 06003KT 9999 BKN030 21/18 Q1020","temp":21,"dewp":18,"wdir":60,"wspd":3,"visib":"6+","altim":1020,"clouds":[{"cover":"BKN","base":3000}],"obsTime":1775984400},"SBCJ":{"icaoId":"SBCJ","flightCategory":"MVFR","rawOb":"SPECI SBCJ 121015Z 05004KT 9999 SCT003 BKN010 22/21 Q1017","temp":22,"dewp":21,"wdir":50,"wspd":4,"visib":"6+","altim":1017,"clouds":[{"cover":"SCT","base":300},{"cover":"BKN","base":1000}],"obsTime":1775988900},"SBPB":{"icaoId":"SBPB","flightCategory":"VFR","rawOb":"SPECI SBPB 121015Z 10005KT 9999 FEW016 FEW025TCU 27/24 Q1012","temp":27,"dewp":24,"wdir":100,"wspd":5,"visib":"6+","altim":1012,"clouds":[{"cover":"FEW","base":1600},{"cover":"FEW","base":2500}],"obsTime":1775988900},"SBAX":{"icaoId":"SBAX","flightCategory":"VFR","rawOb":"METAR SBAX 120900Z AUTO 09008KT 060V120 9999 FEW014 18/18 Q1022","temp":18,"dewp":18,"wdir":90,"wspd":8,"visib":"6+","altim":1022,"clouds":[{"cover":"FEW","base":1400}],"obsTime":1775984400},"SBBH":{"icaoId":"SBBH","flightCategory":"MVFR","rawOb":"METAR SBBH 120900Z 10005KT 9999 OVC026 19/16 Q1022","temp":19,"dewp":16,"wdir":100,"wspd":5,"visib":"6+","altim":1022,"clouds":[{"cover":"OVC","base":2600}],"obsTime":1775984400},"SBSR":{"icaoId":"SBSR","flightCategory":"VFR","rawOb":"METAR SBSR 120900Z 13006KT 9999 SCT025 21/18 Q1018","temp":21,"dewp":18,"wdir":130,"wspd":6,"visib":"6+","altim":1018,"clouds":[{"cover":"SCT","base":2500}],"obsTime":1775984400},"SBAR":{"icaoId":"SBAR","flightCategory":"VFR","rawOb":"METAR SBAR 120900Z 26003KT 9999 FEW015 SCT020 25/24 Q1013","temp":25,"dewp":24,"wdir":260,"wspd":3,"visib":"6+","altim":1013,"clouds":[{"cover":"FEW","base":1500},{"cover":"SCT","base":2000}],"obsTime":1775984400},"SBBU":{"icaoId":"SBBU","flightCategory":"VFR","rawOb":"METAR SBBU 120900Z 11009KT CAVOK 18/16 Q1020","temp":18,"dewp":16,"wdir":110,"wspd":9,"visib":"6+","altim":1020,"clouds":[],"obsTime":1775984400},"SBCO":{"icaoId":"SBCO","flightCategory":"MVFR","rawOb":"METAR SBCO 120900Z 05007KT 9000 -RA BKN030 FEW040TCU OVC100 19/18 Q1017","temp":19,"dewp":18,"wdir":50,"wspd":7,"visib":5.59,"altim":1017,"clouds":[{"cover":"BKN","base":3000},{"cover":"FEW","base":4000},{"cover":"OVC","base":10000}],"obsTime":1775984400},"SBDN":{"icaoId":"SBDN","flightCategory":"VFR","rawOb":"METAR SBDN 120900Z 10008KT CAVOK 19/14 Q1018","temp":19,"dewp":14,"wdir":100,"wspd":8,"visib":"6+","altim":1018,"clouds":[],"obsTime":1775984400},"SBES":{"icaoId":"SBES","flightCategory":"MVFR","rawOb":"METAR SBES 120900Z VRB03KT 9000 VCSH SCT010 BKN030 20/// Q1020","temp":null,"dewp":null,"wdir":"VRB","wspd":3,"visib":5.59,"altim":1020,"clouds":[{"cover":"SCT","base":1000},{"cover":"BKN","base":3000}],"obsTime":1775984400},"SBIP":{"icaoId":"SBIP","flightCategory":"VFR","rawOb":"METAR SBIP 120900Z AUTO 21004KT 9999 BKN044 20/20 Q1020","temp":20,"dewp":20,"wdir":210,"wspd":4,"visib":"6+","altim":1020,"clouds":[{"cover":"BKN","base":4400}],"obsTime":1775984400},"SBKG":{"icaoId":"SBKG","flightCategory":"VFR","rawOb":"METAR SBKG 120900Z 00000KT 9999 SCT010 22/21 Q1015","temp":22,"dewp":21,"wdir":0,"wspd":0,"visib":"6+","altim":1015,"clouds":[{"cover":"SCT","base":1000}],"obsTime":1775984400},"SBOI":{"icaoId":"SBOI","flightCategory":"VFR","rawOb":"METAR SBOI 120900Z AUTO VRB01KT 9999 // OVC077/// 25/24 Q1012","temp":25,"dewp":24,"wdir":"VRB","wspd":1,"visib":"6+","altim":1012,"clouds":[{"cover":"OVC","base":7700}],"obsTime":1775984400},"SBPL":{"icaoId":"SBPL","flightCategory":"MVFR","rawOb":"METAR SBPL 120900Z 11006KT 9999 BKN020 25/22 Q1015","temp":25,"dewp":22,"wdir":110,"wspd":6,"visib":"6+","altim":1015,"clouds":[{"cover":"BKN","base":2000}],"obsTime":1775984400},"SBPS":{"icaoId":"SBPS","flightCategory":"MVFR","rawOb":"METAR SBPS 120900Z 24003KT 8000 SCT015 BKN050 23/22 Q1017","temp":23,"dewp":22,"wdir":240,"wspd":3,"visib":4.97,"altim":1017,"clouds":[{"cover":"SCT","base":1500},{"cover":"BKN","base":5000}],"obsTime":1775984400},"SBSC":{"icaoId":"SBSC","flightCategory":"VFR","rawOb":"METAR SBSC 120900Z 02004KT 9999 FEW010 19/18 Q1020","temp":19,"dewp":18,"wdir":20,"wspd":4,"visib":"6+","altim":1020,"clouds":[{"cover":"FEW","base":1000}],"obsTime":1775984400},"SBSJ":{"icaoId":"SBSJ","flightCategory":"MVFR","rawOb":"SPECI SBSJ 120830Z VRB02KT 8000 NSC 14/13 Q1022","temp":14,"dewp":13,"wdir":"VRB","wspd":2,"visib":4.97,"altim":1022,"clouds":[],"obsTime":1775982600},"SBSM":{"icaoId":"SBSM","flightCategory":"VFR","rawOb":"METAR SBSM 120900Z 03017G28KT 9999 FEW040 BKN090 22/18 Q1014","temp":22,"dewp":18,"wdir":30,"wspd":17,"visib":"6+","altim":1014,"clouds":[{"cover":"FEW","base":4000},{"cover":"BKN","base":9000}],"obsTime":1775984400},"SBTA":{"icaoId":"SBTA","flightCategory":"VFR","rawOb":"METAR SBTA 120900Z VRB01KT 9999 FEW020 14/13 Q1022","temp":14,"dewp":13,"wdir":"VRB","wspd":1,"visib":"6+","altim":1022,"clouds":[{"cover":"FEW","base":2000}],"obsTime":1775984400},"SBLE":{"icaoId":"SBLE","flightCategory":"VFR","rawOb":"METAR SBLE 120900Z AUTO 35002KT 9999 FEW019 ///// Q////","temp":null,"dewp":null,"wdir":350,"wspd":2,"visib":"6+","altim":null,"clouds":[{"cover":"FEW","base":1900}],"obsTime":1775984400},"SBJV":{"icaoId":"SBJV","flightCategory":"VFR","rawOb":"METAR SBJV 120900Z 00000KT 9999 FEW004 18/18 Q1020","temp":18,"dewp":18,"wdir":0,"wspd":0,"visib":"6+","altim":1020,"clouds":[{"cover":"FEW","base":400}],"obsTime":1775984400},"SBPF":{"icaoId":"SBPF","flightCategory":"MVFR","rawOb":"METAR SBPF 120900Z 13010KT 9999 -RA BKN015 BKN070 17/17 Q1023","temp":17,"dewp":17,"wdir":130,"wspd":10,"visib":"6+","altim":1023,"clouds":[{"cover":"BKN","base":1500},{"cover":"BKN","base":7000}],"obsTime":1775984400},"SBAN":{"icaoId":"SBAN","flightCategory":"VFR","rawOb":"METAR SBAN 120900Z 14011KT 9999 FEW005 19/18 Q1021","temp":19,"dewp":18,"wdir":140,"wspd":11,"visib":"6+","altim":1021,"clouds":[{"cover":"FEW","base":500}],"obsTime":1775984400},"SBAF":{"icaoId":"SBAF","flightCategory":"MVFR","rawOb":"METAR SBAF 121000Z VRB01KT 9999 FEW010 BKN016 19/19 Q1021","temp":19,"dewp":19,"wdir":"VRB","wspd":1,"visib":"6+","altim":1021,"clouds":[{"cover":"FEW","base":1000},{"cover":"BKN","base":1600}],"obsTime":1775988000},"SBGW":{"icaoId":"SBGW","flightCategory":"IFR","rawOb":"METAR SBGW 120900Z 09003KT 060V160 4000 HZ SCT030 17/12 Q1022","temp":17,"dewp":12,"wdir":90,"wspd":3,"visib":2.49,"altim":1022,"clouds":[{"cover":"SCT","base":3000}],"obsTime":1775984400},"SBJR":{"icaoId":"SBJR","flightCategory":"MVFR","rawOb":"METAR SBJR 121000Z 02002KT 9999 FEW015 BKN025 21/21 Q1021","temp":21,"dewp":21,"wdir":20,"wspd":2,"visib":"6+","altim":1021,"clouds":[{"cover":"FEW","base":1500},{"cover":"BKN","base":2500}],"obsTime":1775988000},"SBLS":{"icaoId":"SBLS","flightCategory":"MVFR","rawOb":"METAR SBLS 120900Z 15010KT 9999 FEW010 BKN020 18/16 Q1022","temp":18,"dewp":16,"wdir":150,"wspd":10,"visib":"6+","altim":1022,"clouds":[{"cover":"FEW","base":1000},{"cover":"BKN","base":2000}],"obsTime":1775984400},"SBMT":{"icaoId":"SBMT","flightCategory":"VFR","rawOb":"METAR SBMT 120900Z 09008KT 070V130 9999 FEW011 16/14 Q1022","temp":16,"dewp":14,"wdir":90,"wspd":8,"visib":"6+","altim":1022,"clouds":[{"cover":"FEW","base":1100}],"obsTime":1775984400},"SBJP":{"icaoId":"SBJP","flightCategory":"MVFR","rawOb":"METAR SBJP 120900Z 21008KT 9999 BKN018 25/24 Q1013","temp":25,"dewp":24,"wdir":210,"wspd":8,"visib":"6+","altim":1013,"clouds":[{"cover":"BKN","base":1800}],"obsTime":1775984400}}}