{"updated":1782902136,"count":73,"data":{"SBFI":{"icaoId":"SBFI","flightCategory":"LIFR","rawOb":"METAR SBFI 010900Z 09004KT 0500 R33///// R15///// FG VV002 17/17 Q1013","temp":17,"dewp":17,"wdir":90,"wspd":4,"visib":0.31,"altim":1013,"clouds":[{"cover":"OVX","base":200}],"obsTime":1782896400},"SBSP":{"icaoId":"SBSP","flightCategory":"VFR","rawOb":"METAR SBSP 010900Z 31003KT CAVOK 16/13 Q1021","temp":16,"dewp":13,"wdir":310,"wspd":3,"visib":"6+","altim":1021,"clouds":[],"obsTime":1782896400},"SBSG":{"icaoId":"SBSG","flightCategory":"MVFR","rawOb":"METAR SBSG 010900Z 19004KT 140V230 9999 SCT004 BKN017 22/22 Q1014","temp":22,"dewp":22,"wdir":190,"wspd":4,"visib":"6+","altim":1014,"clouds":[{"cover":"SCT","base":400},{"cover":"BKN","base":1700}],"obsTime":1782896400},"SBMG":{"icaoId":"SBMG","flightCategory":"VFR","rawOb":"METAR SBMG 010900Z AUTO 03012KT CAVOK 21/14 Q1016","temp":21,"dewp":14,"wdir":30,"wspd":12,"visib":"6+","altim":1016,"clouds":[],"obsTime":1782896400},"SBBE":{"icaoId":"SBBE","flightCategory":"VFR","rawOb":"METAR SBBE 010900Z 10004KT CAVOK 25/24 Q1011","temp":25,"dewp":24,"wdir":100,"wspd":4,"visib":"6+","altim":1011,"clouds":[],"obsTime":1782896400},"SBCB":{"icaoId":"SBCB","flightCategory":"VFR","rawOb":"METAR SBCB 010900Z 08010KT CAVOK 22/20 Q1017","temp":22,"dewp":20,"wdir":80,"wspd":10,"visib":"6+","altim":1017,"clouds":[],"obsTime":1782896400},"SBPV":{"icaoId":"SBPV","flightCategory":"VFR","rawOb":"METAR SBPV 010900Z 18001KT CAVOK 23/22 Q1010","temp":23,"dewp":22,"wdir":180,"wspd":1,"visib":"6+","altim":1010,"clouds":[],"obsTime":1782896400},"SBFZ":{"icaoId":"SBFZ","flightCategory":"VFR","rawOb":"METAR SBFZ 010900Z 16009KT CAVOK 24/20 Q1012","temp":24,"dewp":20,"wdir":160,"wspd":9,"visib":"6+","altim":1012,"clouds":[],"obsTime":1782896400},"SBNT":{"icaoId":"SBNT","flightCategory":"MVFR","rawOb":"METAR SBNT 010900Z 20006KT 9000 VCSH SCT020 FEW027TCU BKN030 BKN070 22/22 Q1014","temp":22,"dewp":22,"wdir":200,"wspd":6,"visib":5.59,"altim":1014,"clouds":[{"cover":"SCT","base":2000},{"cover":"FEW","base":2700},{"cover":"BKN","base":3000},{"cover":"BKN","base":7000}],"obsTime":1782896400},"SBPJ":{"icaoId":"SBPJ","flightCategory":"VFR","rawOb":"METAR SBPJ 010900Z 19003KT 160V230 CAVOK 22/16 Q1014","temp":22,"dewp":16,"wdir":190,"wspd":3,"visib":"6+","altim":1014,"clouds":[],"obsTime":1782896400},"SBBR":{"icaoId":"SBBR","flightCategory":"VFR","rawOb":"METAR SBBR 010900Z 29003KT CAVOK 11/09 Q1021","temp":11,"dewp":9,"wdir":290,"wspd":3,"visib":"6+","altim":1021,"clouds":[],"obsTime":1782896400},"SBGL":{"icaoId":"SBGL","flightCategory":"IFR","rawOb":"METAR SBGL 010900Z VRB02KT 3000 BR FEW003 19/18 Q1016","temp":19,"dewp":18,"wdir":"VRB","wspd":2,"visib":1.86,"altim":1016,"clouds":[{"cover":"FEW","base":300}],"obsTime":1782896400},"SBSL":{"icaoId":"SBSL","flightCategory":"VFR","rawOb":"METAR SBSL 010900Z 08002KT CAVOK 26/24 Q1011","temp":26,"dewp":24,"wdir":80,"wspd":2,"visib":"6+","altim":1011,"clouds":[],"obsTime":1782896400},"SBEG":{"icaoId":"SBEG","flightCategory":"VFR","rawOb":"METAR SBEG 010900Z 33002KT 9999 FEW015 SCT100 24/24 Q1011","temp":24,"dewp":24,"wdir":330,"wspd":2,"visib":"6+","altim":1011,"clouds":[{"cover":"FEW","base":1500},{"cover":"SCT","base":10000}],"obsTime":1782896400},"SBRB":{"icaoId":"SBRB","flightCategory":"VFR","rawOb":"METAR SBRB 010900Z 00000KT CAVOK 22/21 Q1011","temp":22,"dewp":21,"wdir":0,"wspd":0,"visib":"6+","altim":1011,"clouds":[],"obsTime":1782896400},"SBRF":{"icaoId":"SBRF","flightCategory":"MVFR","rawOb":"METAR SBRF 010900Z 13013KT 8000 VCSH SCT012 BKN022 BKN040 26/21 Q1015","temp":26,"dewp":21,"wdir":130,"wspd":13,"visib":4.97,"altim":1015,"clouds":[{"cover":"SCT","base":1200},{"cover":"BKN","base":2200},{"cover":"BKN","base":4000}],"obsTime":1782896400},"SBBV":{"icaoId":"SBBV","flightCategory":"VFR","rawOb":"METAR SBBV 010900Z 27003KT 9999 SCT025 FEW030TCU BKN070 26/24 Q1011","temp":26,"dewp":24,"wdir":270,"wspd":3,"visib":"6+","altim":1011,"clouds":[{"cover":"SCT","base":2500},{"cover":"FEW","base":3000},{"cover":"BKN","base":7000}],"obsTime":1782896400},"SBGR":{"icaoId":"SBGR","flightCategory":"VFR","rawOb":"METAR SBGR 010900Z 08001KT CAVOK 15/13 Q1020","temp":15,"dewp":13,"wdir":80,"wspd":1,"visib":"6+","altim":1020,"clouds":[],"obsTime":1782896400},"SBCT":{"icaoId":"SBCT","flightCategory":"VFR","rawOb":"METAR SBCT 010900Z 01008KT CAVOK 17/15 Q1018","temp":17,"dewp":15,"wdir":10,"wspd":8,"visib":"6+","altim":1018,"clouds":[],"obsTime":1782896400},"SBSN":{"icaoId":"SBSN","flightCategory":"VFR","rawOb":"METAR SBSN 010900Z 12001KT 9999 FEW015 SCT100 23/23 Q1011","temp":23,"dewp":23,"wdir":120,"wspd":1,"visib":"6+","altim":1011,"clouds":[{"cover":"FEW","base":1500},{"cover":"SCT","base":10000}],"obsTime":1782896400},"SBMA":{"icaoId":"SBMA","flightCategory":"VFR","rawOb":"METAR SBMA 010900Z 00000KT CAVOK 23/22 Q1012","temp":23,"dewp":22,"wdir":0,"wspd":0,"visib":"6+","altim":1012,"clouds":[],"obsTime":1782896400},"SBTE":{"icaoId":"SBTE","flightCategory":"VFR","rawOb":"METAR SBTE 010900Z 18004KT CAVOK 24/21 Q1012","temp":24,"dewp":21,"wdir":180,"wspd":4,"visib":"6+","altim":1012,"clouds":[],"obsTime":1782896400},"SBKP":{"icaoId":"SBKP","flightCategory":"VFR","rawOb":"METAR SBKP 010900Z 08002KT CAVOK 16/13 Q1020","temp":16,"dewp":13,"wdir":80,"wspd":2,"visib":"6+","altim":1020,"clouds":[],"obsTime":1782896400},"SBGO":{"icaoId":"SBGO","flightCategory":"VFR","rawOb":"METAR SBGO 010900Z VRB02KT CAVOK 18/12 Q1019","temp":18,"dewp":12,"wdir":"VRB","wspd":2,"visib":"6+","altim":1019,"clouds":[],"obsTime":1782896400},"SBFL":{"icaoId":"SBFL","flightCategory":"IFR","rawOb":"METAR SBFL 010900Z 10006KT 4500 -RA BR SCT004 OVC090 17/17 Q1016","temp":17,"dewp":17,"wdir":100,"wspd":6,"visib":2.8,"altim":1016,"clouds":[{"cover":"SCT","base":400},{"cover":"OVC","base":9000}],"obsTime":1782896400},"SBIL":{"icaoId":"SBIL","flightCategory":"MVFR","rawOb":"METAR SBIL 011000Z 15010KT 8000 VCSH SCT013 BKN020 BKN050 25/23 Q1018","temp":25,"dewp":23,"wdir":150,"wspd":10,"visib":4.97,"altim":1018,"clouds":[{"cover":"SCT","base":1300},{"cover":"BKN","base":2000},{"cover":"BKN","base":5000}],"obsTime":1782900000},"SBJU":{"icaoId":"SBJU","flightCategory":"VFR","rawOb":"METAR SBJU 010900Z 15005KT 9999 FEW021 20/17 Q1017","temp":20,"dewp":17,"wdir":150,"wspd":5,"visib":"6+","altim":1017,"clouds":[{"cover":"FEW","base":2100}],"obsTime":1782896400},"SBME":{"icaoId":"SBME","flightCategory":"VFR","rawOb":"METAR SBME 010900Z 02012KT CAVOK 21/19 Q1017","temp":21,"dewp":19,"wdir":20,"wspd":12,"visib":"6+","altim":1017,"clouds":[],"obsTime":1782896400},"SBMK":{"icaoId":"SBMK","flightCategory":"VFR","rawOb":"METAR SBMK 010900Z 00000KT CAVOK 15/14 Q1021","temp":15,"dewp":14,"wdir":0,"wspd":0,"visib":"6+","altim":1021,"clouds":[],"obsTime":1782896400},"SBUL":{"icaoId":"SBUL","flightCategory":"VFR","rawOb":"METAR SBUL 010900Z 10008KT CAVOK 17/11 Q1021","temp":17,"dewp":11,"wdir":100,"wspd":8,"visib":"6+","altim":1021,"clouds":[],"obsTime":1782896400},"SBUR":{"icaoId":"SBUR","flightCategory":"VFR","rawOb":"METAR SBUR 010900Z 03005KT CAVOK 16/11 Q1020","temp":16,"dewp":11,"wdir":30,"wspd":5,"visib":"6+","altim":1020,"clouds":[],"obsTime":1782896400},"SBHT":{"icaoId":"SBHT","flightCategory":"VFR","rawOb":"METAR SBHT 011000Z 00000KT CAVOK 23/23 Q1012","temp":23,"dewp":23,"wdir":0,"wspd":0,"visib":"6+","altim":1012,"clouds":[],"obsTime":1782900000},"SBPA":{"icaoId":"SBPA","flightCategory":"IFR","rawOb":"METAR SBPA 010900Z 16003KT 110V180 9999 -DZ VCFG FEW003 OVC006 13/13 Q1016","temp":13,"dewp":13,"wdir":160,"wspd":3,"visib":"6+","altim":1016,"clouds":[{"cover":"FEW","base":300},{"cover":"OVC","base":600}],"obsTime":1782896400},"SBMO":{"icaoId":"SBMO","flightCategory":"VFR","rawOb":"METAR SBMO 010900Z 10003KT 9999 FEW020 SCT070 22/21 Q1016","temp":22,"dewp":21,"wdir":100,"wspd":3,"visib":"6+","altim":1016,"clouds":[{"cover":"FEW","base":2000},{"cover":"SCT","base":7000}],"obsTime":1782896400},"SBSV":{"icaoId":"SBSV","flightCategory":"VFR","rawOb":"METAR SBSV 010900Z 07004KT 9999 FEW023 SCT050 23/22 Q1017","temp":23,"dewp":22,"wdir":70,"wspd":4,"visib":"6+","altim":1017,"clouds":[{"cover":"FEW","base":2300},{"cover":"SCT","base":5000}],"obsTime":1782896400},"SBLO":{"icaoId":"SBLO","flightCategory":"VFR","rawOb":"METAR SBLO 010900Z VRB02KT CAVOK 17/16 Q1018","temp":17,"dewp":16,"wdir":"VRB","wspd":2,"visib":"6+","altim":1018,"clouds":[],"obsTime":1782896400},"SBCG":{"icaoId":"SBCG","flightCategory":"VFR","rawOb":"METAR SBCG 010900Z 04006KT CAVOK 18/15 Q1015","temp":18,"dewp":15,"wdir":40,"wspd":6,"visib":"6+","altim":1015,"clouds":[],"obsTime":1782896400},"SBCF":{"icaoId":"SBCF","flightCategory":"VFR","rawOb":"METAR SBCF 010900Z 14005KT CAVOK 16/15 Q1023","temp":16,"dewp":15,"wdir":140,"wspd":5,"visib":"6+","altim":1023,"clouds":[],"obsTime":1782896400},"SBVT":{"icaoId":"SBVT","flightCategory":"MVFR","rawOb":"METAR SBVT 010900Z 34003KT 6000 -RA SCT012 SCT015 BKN024 20/20 Q1020","temp":20,"dewp":20,"wdir":340,"wspd":3,"visib":3.73,"altim":1020,"clouds":[{"cover":"SCT","base":1200},{"cover":"SCT","base":1500},{"cover":"BKN","base":2400}],"obsTime":1782896400},"SBMQ":{"icaoId":"SBMQ","flightCategory":"MVFR","rawOb":"METAR SBMQ 010900Z 36004KT 9999 BKN019 27/25 Q1011","temp":27,"dewp":25,"wdir":360,"wspd":4,"visib":"6+","altim":1011,"clouds":[{"cover":"BKN","base":1900}],"obsTime":1782896400},"SBCP":{"icaoId":"SBCP","flightCategory":"VFR","rawOb":"METAR SBCP 011000Z 06006KT CAVOK 19/19 Q1019","temp":19,"dewp":19,"wdir":60,"wspd":6,"visib":"6+","altim":1019,"clouds":[],"obsTime":1782900000},"SBSJ":{"icaoId":"SBSJ","flightCategory":"IFR","rawOb":"METAR SBSJ 010900Z 16002KT 4000 BR NSC 13/12 Q1020","temp":13,"dewp":12,"wdir":160,"wspd":2,"visib":2.49,"altim":1020,"clouds":[],"obsTime":1782896400},"SBCJ":{"icaoId":"SBCJ","flightCategory":"VFR","rawOb":"SPECI SBCJ 011015Z 00000KT CAVOK 21/19 Q1017","temp":21,"dewp":19,"wdir":0,"wspd":0,"visib":"6+","altim":1017,"clouds":[],"obsTime":1782900900},"SBPB":{"icaoId":"SBPB","flightCategory":"VFR","rawOb":"SPECI SBPB 011015Z 10007KT CAVOK 26/23 Q1012","temp":26,"dewp":23,"wdir":100,"wspd":7,"visib":"6+","altim":1012,"clouds":[],"obsTime":1782900900},"SBIP":{"icaoId":"SBIP","flightCategory":"MVFR","rawOb":"METAR SBIP 010900Z AUTO 35002KT 9999 BKN024 19/19 Q1021","temp":19,"dewp":19,"wdir":350,"wspd":2,"visib":"6+","altim":1021,"clouds":[{"cover":"BKN","base":2400}],"obsTime":1782896400},"SBCO":{"icaoId":"SBCO","flightCategory":"LIFR","rawOb":"METAR SBCO 010900Z 13002KT 4000 -DZ BR OVC004 13/12 Q1017","temp":13,"dewp":12,"wdir":130,"wspd":2,"visib":2.49,"altim":1017,"clouds":[{"cover":"OVC","base":400}],"obsTime":1782896400},"SBES":{"icaoId":"SBES","flightCategory":"VFR","rawOb":"METAR SBES 010900Z 04006KT 360V080 CAVOK 20/// Q1017","temp":null,"dewp":null,"wdir":40,"wspd":6,"visib":"6+","altim":1017,"clouds":[],"obsTime":1782896400},"SBSM":{"icaoId":"SBSM","flightCategory":"LIFR","rawOb":"METAR SBSM 010900Z 12004KT 0200 R29///// R11/1100N FG VV002 12/12 Q1015","temp":12,"dewp":12,"wdir":120,"wspd":4,"visib":0.12,"altim":1015,"clouds":[{"cover":"OVX","base":200}],"obsTime":1782896400},"SBTU":{"icaoId":"SBTU","flightCategory":"VFR","rawOb":"METAR SBTU 010900Z AUTO 23004KT 9999 // NCD ///// Q1013","temp":null,"dewp":null,"wdir":230,"wspd":4,"visib":"6+","altim":1013,"clouds":[],"obsTime":1782896400},"SBOI":{"icaoId":"SBOI","flightCategory":"VFR","rawOb":"METAR SBOI 010900Z AUTO 00000KT 9999 FEW036 24/24 Q1011","temp":24,"dewp":24,"wdir":0,"wspd":0,"visib":"6+","altim":1011,"clouds":[{"cover":"FEW","base":3600}],"obsTime":1782896400},"SBKG":{"icaoId":"SBKG","flightCategory":"MVFR","rawOb":"METAR SBKG 010900Z 14008KT 9999 SCT005 BKN010 BKN070 20/20 Q1017","temp":20,"dewp":20,"wdir":140,"wspd":8,"visib":"6+","altim":1017,"clouds":[{"cover":"SCT","base":500},{"cover":"BKN","base":1000},{"cover":"BKN","base":7000}],"obsTime":1782896400},"SBAX":{"icaoId":"SBAX","flightCategory":"VFR","rawOb":"METAR SBAX 010900Z AUTO 09005KT CAVOK ///// Q1022","temp":null,"dewp":null,"wdir":90,"wspd":5,"visib":"6+","altim":1022,"clouds":[],"obsTime":1782896400},"SBPS":{"icaoId":"SBPS","flightCategory":"VFR","rawOb":"METAR SBPS 010900Z 24004KT 9999 SCT025 OVC070 21/21 Q1019","temp":21,"dewp":21,"wdir":240,"wspd":4,"visib":"6+","altim":1019,"clouds":[{"cover":"SCT","base":2500},{"cover":"OVC","base":7000}],"obsTime":1782896400},"SBBH":{"icaoId":"SBBH","flightCategory":"VFR","rawOb":"METAR SBBH 010900Z 00000KT CAVOK 15/15 Q1022","temp":15,"dewp":15,"wdir":0,"wspd":0,"visib":"6+","altim":1022,"clouds":[],"obsTime":1782896400},"SBBU":{"icaoId":"SBBU","flightCategory":"VFR","rawOb":"METAR SBBU 010900Z 04005KT CAVOK 20/15 Q1018","temp":20,"dewp":15,"wdir":40,"wspd":5,"visib":"6+","altim":1018,"clouds":[],"obsTime":1782896400},"SBPL":{"icaoId":"SBPL","flightCategory":"VFR","rawOb":"METAR SBPL 010900Z 12006KT 9999 FEW020 21/19 Q1018","temp":21,"dewp":19,"wdir":120,"wspd":6,"visib":"6+","altim":1018,"clouds":[{"cover":"FEW","base":2000}],"obsTime":1782896400},"SBAR":{"icaoId":"SBAR","flightCategory":"VFR","rawOb":"METAR SBAR 010900Z 12007KT 9999 FEW025 25/20 Q1016","temp":25,"dewp":20,"wdir":120,"wspd":7,"visib":"6+","altim":1016,"clouds":[{"cover":"FEW","base":2500}],"obsTime":1782896400},"SBDN":{"icaoId":"SBDN","flightCategory":"VFR","rawOb":"METAR SBDN 010900Z 03007KT CAVOK 19/14 Q1016","temp":19,"dewp":14,"wdir":30,"wspd":7,"visib":"6+","altim":1016,"clouds":[],"obsTime":1782896400},"SBSC":{"icaoId":"SBSC","flightCategory":"VFR","rawOb":"METAR SBSC 010900Z 32010KT CAVOK 21/18 Q1016","temp":21,"dewp":18,"wdir":320,"wspd":10,"visib":"6+","altim":1016,"clouds":[],"obsTime":1782896400},"SBSR":{"icaoId":"SBSR","flightCategory":"VFR","rawOb":"METAR SBSR 010900Z 08004KT CAVOK 18/12 Q1018","temp":18,"dewp":12,"wdir":80,"wspd":4,"visib":"6+","altim":1018,"clouds":[],"obsTime":1782896400},"SBCA":{"icaoId":"SBCA","flightCategory":"VFR","rawOb":"METAR SBCA 010900Z 03012KT 9999 FEW030 SCT080 18/16 Q1017","temp":18,"dewp":16,"wdir":30,"wspd":12,"visib":"6+","altim":1017,"clouds":[{"cover":"FEW","base":3000},{"cover":"SCT","base":8000}],"obsTime":1782896400},"SBNM":{"icaoId":"SBNM","flightCategory":"LIFR","rawOb":"METAR SBNM 010900Z AUTO 13005KT 0600 FG VV001 14/14 Q1014","temp":14,"dewp":14,"wdir":130,"wspd":5,"visib":0.37,"altim":1014,"clouds":[{"cover":"OVX","base":100}],"obsTime":1782896400},"SBPF":{"icaoId":"SBPF","flightCategory":"LIFR","rawOb":"METAR SBPF 011000Z 06004KT 0500 FG VV001 14/13 Q1017","temp":14,"dewp":13,"wdir":60,"wspd":4,"visib":0.31,"altim":1017,"clouds":[{"cover":"OVX","base":100}],"obsTime":1782900000},"SBLE":{"icaoId":"SBLE","flightCategory":"VFR","rawOb":"METAR SBLE 010900Z AUTO 00000KT 9999 BKN037 OVC046 ///// Q////","temp":null,"dewp":null,"wdir":0,"wspd":0,"visib":"6+","altim":null,"clouds":[{"cover":"BKN","base":3700},{"cover":"OVC","base":4600}],"obsTime":1782896400},"SBJP":{"icaoId":"SBJP","flightCategory":"IFR","rawOb":"SPECI SBJP 010841Z 17006KT 3000 -RA BKN021 OVC035 23/22 Q1015","temp":23,"dewp":22,"wdir":170,"wspd":6,"visib":1.86,"altim":1015,"clouds":[{"cover":"BKN","base":2100},{"cover":"OVC","base":3500}],"obsTime":1782895260},"SBAN":{"icaoId":"SBAN","flightCategory":"VFR","rawOb":"METAR SBAN 010900Z 08006KT CAVOK 15/10 Q1021","temp":15,"dewp":10,"wdir":80,"wspd":6,"visib":"6+","altim":1021,"clouds":[],"obsTime":1782896400},"SBAF":{"icaoId":"SBAF","flightCategory":"VFR","rawOb":"METAR SBAF 011000Z 25002KT CAVOK 17/17 Q1017","temp":17,"dewp":17,"wdir":250,"wspd":2,"visib":"6+","altim":1017,"clouds":[],"obsTime":1782900000},"SBGW":{"icaoId":"SBGW","flightCategory":"VFR","rawOb":"METAR SBGW 010900Z 19002KT CAVOK 12/09 Q1020","temp":12,"dewp":9,"wdir":190,"wspd":2,"visib":"6+","altim":1020,"clouds":[],"obsTime":1782896400},"SBJR":{"icaoId":"SBJR","flightCategory":"VFR","rawOb":"METAR SBJR 011000Z 35003KT CAVOK 20/19 Q1016","temp":20,"dewp":19,"wdir":350,"wspd":3,"visib":"6+","altim":1016,"clouds":[],"obsTime":1782900000},"SBLS":{"icaoId":"SBLS","flightCategory":"VFR","rawOb":"METAR SBLS 010900Z 14005KT 9999 FEW010 16/15 Q1022","temp":16,"dewp":15,"wdir":140,"wspd":5,"visib":"6+","altim":1022,"clouds":[{"cover":"FEW","base":1000}],"obsTime":1782896400},"SBMT":{"icaoId":"SBMT","flightCategory":"VFR","rawOb":"METAR SBMT 010900Z 28001KT CAVOK 14/12 Q1020","temp":14,"dewp":12,"wdir":280,"wspd":1,"visib":"6+","altim":1020,"clouds":[],"obsTime":1782896400},"SBTA":{"icaoId":"SBTA","flightCategory":"VFR","rawOb":"METAR SBTA 010900Z VRB02KT CAVOK 12/11 Q1020","temp":12,"dewp":11,"wdir":"VRB","wspd":2,"visib":"6+","altim":1020,"clouds":[],"obsTime":1782896400},"SBJV":{"icaoId":"SBJV","flightCategory":"VFR","rawOb":"METAR SBJV 010900Z 14001KT 9999 SCT012 16/16 Q1016","temp":16,"dewp":16,"wdir":140,"wspd":1,"visib":"6+","altim":1016,"clouds":[{"cover":"SCT","base":1200}],"obsTime":1782896400}}}