{"updated":1779644864,"count":88,"data":{"SBSL":{"icaoId":"SBSL","flightCategory":"VFR","rawOb":"METAR SBSL 241600Z 06009KT 9999 SCT022 FEW024TCU SCT100 28/23 Q1011","temp":28,"dewp":23,"wdir":60,"wspd":9,"visib":"6+","altim":1011,"clouds":[{"cover":"SCT","base":2200},{"cover":"FEW","base":2400},{"cover":"SCT","base":10000}],"obsTime":1779638400},"SBME":{"icaoId":"SBME","flightCategory":"VFR","rawOb":"METAR SBME 241600Z 10003KT 9999 FEW025 28/19 Q1018","temp":28,"dewp":19,"wdir":100,"wspd":3,"visib":"6+","altim":1018,"clouds":[{"cover":"FEW","base":2500}],"obsTime":1779638400},"SBFI":{"icaoId":"SBFI","flightCategory":"VFR","rawOb":"METAR SBFI 241600Z 35002KT 9999 FEW020 BKN070 23/18 Q1018","temp":23,"dewp":18,"wdir":350,"wspd":2,"visib":"6+","altim":1018,"clouds":[{"cover":"FEW","base":2000},{"cover":"BKN","base":7000}],"obsTime":1779638400},"SBMG":{"icaoId":"SBMG","flightCategory":"VFR","rawOb":"METAR SBMG 241600Z 35005KT 300V040 9999 FEW020 23/19 Q1019","temp":23,"dewp":19,"wdir":350,"wspd":5,"visib":"6+","altim":1019,"clouds":[{"cover":"FEW","base":2000}],"obsTime":1779638400},"SBCG":{"icaoId":"SBCG","flightCategory":"VFR","rawOb":"METAR SBCG 241600Z 05007KT 020V090 9999 FEW030 SCT100 24/19 Q1018","temp":24,"dewp":19,"wdir":50,"wspd":7,"visib":"6+","altim":1018,"clouds":[{"cover":"FEW","base":3000},{"cover":"SCT","base":10000}],"obsTime":1779638400},"SBMK":{"icaoId":"SBMK","flightCategory":"VFR","rawOb":"METAR SBMK 241600Z 12006KT 9999 BKN035 26/16 Q1020","temp":26,"dewp":16,"wdir":120,"wspd":6,"visib":"6+","altim":1020,"clouds":[{"cover":"BKN","base":3500}],"obsTime":1779638400},"SBFL":{"icaoId":"SBFL","flightCategory":"MVFR","rawOb":"METAR SBFL 241600Z 18013KT 8000 SCT010 BKN020 BKN090 18/17 Q1020","temp":18,"dewp":17,"wdir":180,"wspd":13,"visib":4.97,"altim":1020,"clouds":[{"cover":"SCT","base":1000},{"cover":"BKN","base":2000},{"cover":"BKN","base":9000}],"obsTime":1779638400},"SBMO":{"icaoId":"SBMO","flightCategory":"VFR","rawOb":"METAR SBMO 241600Z 14008KT 9999 FEW030 BKN050 29/17 Q1014","temp":29,"dewp":17,"wdir":140,"wspd":8,"visib":"6+","altim":1014,"clouds":[{"cover":"FEW","base":3000},{"cover":"BKN","base":5000}],"obsTime":1779638400},"SBFZ":{"icaoId":"SBFZ","flightCategory":"MVFR","rawOb":"METAR SBFZ 241600Z 13010KT 9999 BKN030 30/21 Q1012","temp":30,"dewp":21,"wdir":130,"wspd":10,"visib":"6+","altim":1012,"clouds":[{"cover":"BKN","base":3000}],"obsTime":1779638400},"SBMQ":{"icaoId":"SBMQ","flightCategory":"MVFR","rawOb":"METAR SBMQ 241600Z 36005KT 310V040 9999 BKN018 SCT080 30/24 Q1013","temp":30,"dewp":24,"wdir":360,"wspd":5,"visib":"6+","altim":1013,"clouds":[{"cover":"BKN","base":1800},{"cover":"SCT","base":8000}],"obsTime":1779638400},"SBCP":{"icaoId":"SBCP","flightCategory":"MVFR","rawOb":"METAR SBCP 241600Z 01008KT 9999 BKN020 28/19 Q1018","temp":28,"dewp":19,"wdir":10,"wspd":8,"visib":"6+","altim":1018,"clouds":[{"cover":"BKN","base":2000}],"obsTime":1779638400},"SBNT":{"icaoId":"SBNT","flightCategory":"VFR","rawOb":"METAR SBNT 241600Z 13014KT 9999 VCSH SCT026 FEW030TCU BKN036 BKN050 30/22 Q1012","temp":30,"dewp":22,"wdir":130,"wspd":14,"visib":"6+","altim":1012,"clouds":[{"cover":"SCT","base":2600},{"cover":"FEW","base":3000},{"cover":"BKN","base":3600},{"cover":"BKN","base":5000}],"obsTime":1779638400},"SBPA":{"icaoId":"SBPA","flightCategory":"MVFR","rawOb":"METAR SBPA 241600Z 10011KT 9999 VCSH FEW010 BKN020 BKN044 19/14 Q1022","temp":19,"dewp":14,"wdir":100,"wspd":11,"visib":"6+","altim":1022,"clouds":[{"cover":"FEW","base":1000},{"cover":"BKN","base":2000},{"cover":"BKN","base":4400}],"obsTime":1779638400},"SBBV":{"icaoId":"SBBV","flightCategory":"MVFR","rawOb":"METAR SBBV 241600Z 35003KT 9999 BKN018 FEW030TCU BKN080 29/22 Q1014","temp":29,"dewp":22,"wdir":350,"wspd":3,"visib":"6+","altim":1014,"clouds":[{"cover":"BKN","base":1800},{"cover":"FEW","base":3000},{"cover":"BKN","base":8000}],"obsTime":1779638400},"SBGL":{"icaoId":"SBGL","flightCategory":"MVFR","rawOb":"METAR SBGL 241600Z 36004KT 6000 FEW018 26/20 Q1017","temp":26,"dewp":20,"wdir":360,"wspd":4,"visib":3.73,"altim":1017,"clouds":[{"cover":"FEW","base":1800}],"obsTime":1779638400},"SBPJ":{"icaoId":"SBPJ","flightCategory":"VFR","rawOb":"METAR SBPJ 241600Z 12008KT 080V160 9999 SCT040 33/18 Q1015","temp":33,"dewp":18,"wdir":120,"wspd":8,"visib":"6+","altim":1015,"clouds":[{"cover":"SCT","base":4000}],"obsTime":1779638400},"SBBR":{"icaoId":"SBBR","flightCategory":"MVFR","rawOb":"METAR SBBR 241600Z COR 10009KT 9999 -RA BKN016 22/17 Q1023","temp":22,"dewp":17,"wdir":100,"wspd":9,"visib":"6+","altim":1023,"clouds":[{"cover":"BKN","base":1600}],"obsTime":1779638400},"SBPV":{"icaoId":"SBPV","flightCategory":"VFR","rawOb":"METAR SBPV 241600Z 13007KT 9999 FEW020 27/24 Q1015","temp":27,"dewp":24,"wdir":130,"wspd":7,"visib":"6+","altim":1015,"clouds":[{"cover":"FEW","base":2000}],"obsTime":1779638400},"SBGO":{"icaoId":"SBGO","flightCategory":"VFR","rawOb":"METAR SBGO 241600Z 06008KT 020V120 9999 BKN038 BKN060 27/18 Q1020","temp":27,"dewp":18,"wdir":60,"wspd":8,"visib":"6+","altim":1020,"clouds":[{"cover":"BKN","base":3800},{"cover":"BKN","base":6000}],"obsTime":1779638400},"SBRB":{"icaoId":"SBRB","flightCategory":"VFR","rawOb":"METAR SBRB 241600Z 12005KT 9999 FEW020 25/18 Q1017","temp":25,"dewp":18,"wdir":120,"wspd":5,"visib":"6+","altim":1017,"clouds":[{"cover":"FEW","base":2000}],"obsTime":1779638400},"SBCR":{"icaoId":"SBCR","flightCategory":"VFR","rawOb":"METAR SBCR 241600Z 31003KT 260V050 CAVOK 24/17 Q1016","temp":24,"dewp":17,"wdir":310,"wspd":3,"visib":"6+","altim":1016,"clouds":[],"obsTime":1779638400},"SBRF":{"icaoId":"SBRF","flightCategory":"VFR","rawOb":"METAR SBRF 241600Z 14016KT 9999 VCSH SCT023 FEW025TCU BKN040 27/23 Q1013","temp":27,"dewp":23,"wdir":140,"wspd":16,"visib":"6+","altim":1013,"clouds":[{"cover":"SCT","base":2300},{"cover":"FEW","base":2500},{"cover":"BKN","base":4000}],"obsTime":1779638400},"SBGR":{"icaoId":"SBGR","flightCategory":"VFR","rawOb":"METAR SBGR 241600Z 33006KT 9999 BKN035 FEW045TCU 25/19 Q1020","temp":25,"dewp":19,"wdir":330,"wspd":6,"visib":"6+","altim":1020,"clouds":[{"cover":"BKN","base":3500},{"cover":"FEW","base":4500}],"obsTime":1779638400},"SBSG":{"icaoId":"SBSG","flightCategory":"MVFR","rawOb":"METAR SBSG 241600Z 12011G21KT 100V160 9999 BKN030 28/22 Q1012","temp":28,"dewp":22,"wdir":120,"wspd":11,"visib":"6+","altim":1012,"clouds":[{"cover":"BKN","base":3000}],"obsTime":1779638400},"SBCB":{"icaoId":"SBCB","flightCategory":"VFR","rawOb":"METAR SBCB 241600Z 22007KT 9999 FEW020 25/19 Q1018","temp":25,"dewp":19,"wdir":220,"wspd":7,"visib":"6+","altim":1018,"clouds":[{"cover":"FEW","base":2000}],"obsTime":1779638400},"SBEG":{"icaoId":"SBEG","flightCategory":"MVFR","rawOb":"METAR SBEG 241600Z 20004KT 150V240 9999 BKN011 BKN090 26/23 Q1015","temp":26,"dewp":23,"wdir":200,"wspd":4,"visib":"6+","altim":1015,"clouds":[{"cover":"BKN","base":1100},{"cover":"BKN","base":9000}],"obsTime":1779638400},"SBBE":{"icaoId":"SBBE","flightCategory":"VFR","rawOb":"METAR SBBE 241600Z 35004KT 9999 FEW019 SCT024 BKN100 29/24 Q1012","temp":29,"dewp":24,"wdir":350,"wspd":4,"visib":"6+","altim":1012,"clouds":[{"cover":"FEW","base":1900},{"cover":"SCT","base":2400},{"cover":"BKN","base":10000}],"obsTime":1779638400},"SBMA":{"icaoId":"SBMA","flightCategory":"VFR","rawOb":"METAR SBMA 241600Z 07006KT 9999 SCT023 33/21 Q1012","temp":33,"dewp":21,"wdir":70,"wspd":6,"visib":"6+","altim":1012,"clouds":[{"cover":"SCT","base":2300}],"obsTime":1779638400},"SBHT":{"icaoId":"SBHT","flightCategory":"MVFR","rawOb":"METAR SBHT 241600Z 35003KT 9999 BKN020 BKN080 25/23 Q1013","temp":25,"dewp":23,"wdir":350,"wspd":3,"visib":"6+","altim":1013,"clouds":[{"cover":"BKN","base":2000},{"cover":"BKN","base":8000}],"obsTime":1779638400},"SBSN":{"icaoId":"SBSN","flightCategory":"IFR","rawOb":"METAR SBSN 241600Z 21002KT 4000 -TSRA FEW006 BKN015 FEW025CB OVC070 24/23 Q1013 RERA","temp":24,"dewp":23,"wdir":210,"wspd":2,"visib":2.49,"altim":1013,"clouds":[{"cover":"FEW","base":600},{"cover":"BKN","base":1500},{"cover":"FEW","base":2500},{"cover":"OVC","base":7000}],"obsTime":1779638400},"SBCT":{"icaoId":"SBCT","flightCategory":"MVFR","rawOb":"METAR SBCT 241600Z 36003KT 8000 BKN010 18/16 Q1022","temp":18,"dewp":16,"wdir":360,"wspd":3,"visib":4.97,"altim":1022,"clouds":[{"cover":"BKN","base":1000}],"obsTime":1779638400},"SBSP":{"icaoId":"SBSP","flightCategory":"MVFR","rawOb":"METAR SBSP 241600Z 31005KT 280V360 9999 BKN020 23/18 Q1021","temp":23,"dewp":18,"wdir":310,"wspd":5,"visib":"6+","altim":1021,"clouds":[{"cover":"BKN","base":2000}],"obsTime":1779638400},"SBIL":{"icaoId":"SBIL","flightCategory":"VFR","rawOb":"METAR SBIL 241600Z 20013KT 170V240 9999 SCT025 BKN080 29/23 Q1017","temp":29,"dewp":23,"wdir":200,"wspd":13,"visib":"6+","altim":1017,"clouds":[{"cover":"SCT","base":2500},{"cover":"BKN","base":8000}],"obsTime":1779638400},"SBSV":{"icaoId":"SBSV","flightCategory":"MVFR","rawOb":"METAR SBSV 241600Z 11011KT 070V130 9999 BKN021 FEW023TCU 29/24 Q1015","temp":29,"dewp":24,"wdir":110,"wspd":11,"visib":"6+","altim":1015,"clouds":[{"cover":"BKN","base":2100},{"cover":"FEW","base":2300}],"obsTime":1779638400},"SBCF":{"icaoId":"SBCF","flightCategory":"VFR","rawOb":"METAR SBCF 241600Z 16004KT 9999 BKN035 26/16 Q1022","temp":26,"dewp":16,"wdir":160,"wspd":4,"visib":"6+","altim":1022,"clouds":[{"cover":"BKN","base":3500}],"obsTime":1779638400},"SBTE":{"icaoId":"SBTE","flightCategory":"MVFR","rawOb":"METAR SBTE 241600Z 11005KT 9999 BKN020 31/21 Q1012","temp":31,"dewp":21,"wdir":110,"wspd":5,"visib":"6+","altim":1012,"clouds":[{"cover":"BKN","base":2000}],"obsTime":1779638400},"SBJU":{"icaoId":"SBJU","flightCategory":"VFR","rawOb":"METAR SBJU 241600Z 00000KT 9999 FEW020 30/18 Q1015","temp":30,"dewp":18,"wdir":0,"wspd":0,"visib":"6+","altim":1015,"clouds":[{"cover":"FEW","base":2000}],"obsTime":1779638400},"SBUL":{"icaoId":"SBUL","flightCategory":"VFR","rawOb":"METAR SBUL 241600Z 06011KT 010V090 9999 SCT025 23/17 Q1023","temp":23,"dewp":17,"wdir":60,"wspd":11,"visib":"6+","altim":1023,"clouds":[{"cover":"SCT","base":2500}],"obsTime":1779638400},"SBCZ":{"icaoId":"SBCZ","flightCategory":"VFR","rawOb":"METAR SBCZ 241600Z 13009KT 9999 SCT017 26/18 Q1017","temp":26,"dewp":18,"wdir":130,"wspd":9,"visib":"6+","altim":1017,"clouds":[{"cover":"SCT","base":1700}],"obsTime":1779638400},"SBUR":{"icaoId":"SBUR","flightCategory":"VFR","rawOb":"METAR SBUR 241600Z 35008KT 9999 SCT040 SCT100 27/16 Q1021","temp":27,"dewp":16,"wdir":350,"wspd":8,"visib":"6+","altim":1021,"clouds":[{"cover":"SCT","base":4000},{"cover":"SCT","base":10000}],"obsTime":1779638400},"SBKP":{"icaoId":"SBKP","flightCategory":"VFR","rawOb":"METAR SBKP 241600Z 35007KT 320V020 9999 FEW040 25/18 Q1020","temp":25,"dewp":18,"wdir":350,"wspd":7,"visib":"6+","altim":1020,"clouds":[{"cover":"FEW","base":4000}],"obsTime":1779638400},"SBVT":{"icaoId":"SBVT","flightCategory":"VFR","rawOb":"METAR SBVT 241600Z 09007KT 9999 SCT035 27/19 Q1018","temp":27,"dewp":19,"wdir":90,"wspd":7,"visib":"6+","altim":1018,"clouds":[{"cover":"SCT","base":3500}],"obsTime":1779638400},"SBAT":{"icaoId":"SBAT","flightCategory":"VFR","rawOb":"METAR SBAT 241600Z 10008KT 9999 SCT030 33/21 Q1014","temp":33,"dewp":21,"wdir":100,"wspd":8,"visib":"6+","altim":1014,"clouds":[{"cover":"SCT","base":3000}],"obsTime":1779638400},"SBLO":{"icaoId":"SBLO","flightCategory":"IFR","rawOb":"METAR SBLO 241600Z 09003KT 050V120 6000 BKN008 BKN010 20/18 Q1020","temp":20,"dewp":18,"wdir":90,"wspd":3,"visib":3.73,"altim":1020,"clouds":[{"cover":"BKN","base":800},{"cover":"BKN","base":1000}],"obsTime":1779638400},"SBOI":{"icaoId":"SBOI","flightCategory":"VFR","rawOb":"METAR SBOI 241600Z AUTO 33003KT 300V020 9999 SCT005 BKN034 OVC043 26/24 Q1014 RERA","temp":26,"dewp":24,"wdir":330,"wspd":3,"visib":"6+","altim":1014,"clouds":[{"cover":"SCT","base":500},{"cover":"BKN","base":3400},{"cover":"OVC","base":4300}],"obsTime":1779638400},"SBAR":{"icaoId":"SBAR","flightCategory":"VFR","rawOb":"METAR SBAR 241600Z 11010KT 9999 FEW027 29/20 Q1014","temp":29,"dewp":20,"wdir":110,"wspd":10,"visib":"6+","altim":1014,"clouds":[{"cover":"FEW","base":2700}],"obsTime":1779638400},"SBPB":{"icaoId":"SBPB","flightCategory":"VFR","rawOb":"METAR SBPB 241600Z 06007KT 9999 FEW020 32/25 Q1011","temp":32,"dewp":25,"wdir":60,"wspd":7,"visib":"6+","altim":1011,"clouds":[{"cover":"FEW","base":2000}],"obsTime":1779638400},"SBCJ":{"icaoId":"SBCJ","flightCategory":"VFR","rawOb":"METAR SBCJ 241600Z 14007KT 9999 FEW020 29/19 Q1018","temp":29,"dewp":19,"wdir":140,"wspd":7,"visib":"6+","altim":1018,"clouds":[{"cover":"FEW","base":2000}],"obsTime":1779638400},"SBPL":{"icaoId":"SBPL","flightCategory":"MVFR","rawOb":"METAR SBPL 241600Z 08010KT 9999 BKN030 32/17 Q1015","temp":32,"dewp":17,"wdir":80,"wspd":10,"visib":"6+","altim":1015,"clouds":[{"cover":"BKN","base":3000}],"obsTime":1779638400},"SBBQ":{"icaoId":"SBBQ","flightCategory":"VFR","rawOb":"METAR SBBQ 241600Z 26005KT 200V320 9999 FEW027 23/15 Q1025","temp":23,"dewp":15,"wdir":260,"wspd":5,"visib":"6+","altim":1025,"clouds":[{"cover":"FEW","base":2700}],"obsTime":1779638400},"SBPP":{"icaoId":"SBPP","flightCategory":"VFR","rawOb":"METAR SBPP 241600Z 05009KT 9999 FEW015 BKN090 21/17 Q1019","temp":21,"dewp":17,"wdir":50,"wspd":9,"visib":"6+","altim":1019,"clouds":[{"cover":"FEW","base":1500},{"cover":"BKN","base":9000}],"obsTime":1779638400},"SBCO":{"icaoId":"SBCO","flightCategory":"MVFR","rawOb":"METAR SBCO 241600Z 11009KT 080V150 9999 VCSH BKN017 BKN043 19/15 Q1022","temp":19,"dewp":15,"wdir":110,"wspd":9,"visib":"6+","altim":1022,"clouds":[{"cover":"BKN","base":1700},{"cover":"BKN","base":4300}],"obsTime":1779638400},"SBPS":{"icaoId":"SBPS","flightCategory":"VFR","rawOb":"METAR SBPS 241600Z 16007KT 9999 FEW030 27/20 Q1018","temp":27,"dewp":20,"wdir":160,"wspd":7,"visib":"6+","altim":1018,"clouds":[{"cover":"FEW","base":3000}],"obsTime":1779638400},"SBAX":{"icaoId":"SBAX","flightCategory":"VFR","rawOb":"METAR SBAX 241600Z AUTO VRB03KT 9999 FEW034 BKN039 24/16 Q1022","temp":24,"dewp":16,"wdir":"VRB","wspd":3,"visib":"6+","altim":1022,"clouds":[{"cover":"FEW","base":3400},{"cover":"BKN","base":3900}],"obsTime":1779638400},"SBSC":{"icaoId":"SBSC","flightCategory":"VFR","rawOb":"METAR SBSC 241600Z 20006KT 9999 FEW017 25/20 Q1018","temp":25,"dewp":20,"wdir":200,"wspd":6,"visib":"6+","altim":1018,"clouds":[{"cover":"FEW","base":1700}],"obsTime":1779638400},"SBDN":{"icaoId":"SBDN","flightCategory":"VFR","rawOb":"METAR SBDN 241600Z 05004KT 9999 FEW049 24/20 Q1018","temp":24,"dewp":20,"wdir":50,"wspd":4,"visib":"6+","altim":1018,"clouds":[{"cover":"FEW","base":4900}],"obsTime":1779638400},"SBSJ":{"icaoId":"SBSJ","flightCategory":"MVFR","rawOb":"METAR SBSJ 241600Z VRB03KT 8000 NSC 23/18 Q1020","temp":23,"dewp":18,"wdir":"VRB","wspd":3,"visib":4.97,"altim":1020,"clouds":[],"obsTime":1779638400},"SBBU":{"icaoId":"SBBU","flightCategory":"VFR","rawOb":"METAR SBBU 241600Z 32005KT CAVOK 26/21 Q1020","temp":26,"dewp":21,"wdir":320,"wspd":5,"visib":"6+","altim":1020,"clouds":[],"obsTime":1779638400},"SBSM":{"icaoId":"SBSM","flightCategory":"MVFR","rawOb":"METAR SBSM 241600Z 11007KT 9999 BKN018 OVC025 17/13 Q1021","temp":17,"dewp":13,"wdir":110,"wspd":7,"visib":"6+","altim":1021,"clouds":[{"cover":"BKN","base":1800},{"cover":"OVC","base":2500}],"obsTime":1779638400},"SBSR":{"icaoId":"SBSR","flightCategory":"VFR","rawOb":"METAR SBSR 241600Z 05005KT 9999 FEW035 SCT080 28/17 Q1019","temp":28,"dewp":17,"wdir":50,"wspd":5,"visib":"6+","altim":1019,"clouds":[{"cover":"FEW","base":3500},{"cover":"SCT","base":8000}],"obsTime":1779638400},"SBAU":{"icaoId":"SBAU","flightCategory":"VFR","rawOb":"METAR SBAU 241700Z 01006KT 9999 SCT025 SCT100 30/19 Q1017","temp":30,"dewp":19,"wdir":10,"wspd":6,"visib":"6+","altim":1017,"clouds":[{"cover":"SCT","base":2500},{"cover":"SCT","base":10000}],"obsTime":1779642000},"SBTF":{"icaoId":"SBTF","flightCategory":"VFR","rawOb":"METAR SBTF 241600Z 18006KT 9999 SCT013 SCT090 26/23 Q1015","temp":26,"dewp":23,"wdir":180,"wspd":6,"visib":"6+","altim":1015,"clouds":[{"cover":"SCT","base":1300},{"cover":"SCT","base":9000}],"obsTime":1779638400},"SBTT":{"icaoId":"SBTT","flightCategory":"MVFR","rawOb":"METAR SBTT 241600Z 21004KT 9999 BKN014 OVC019 24/21 Q1016","temp":24,"dewp":21,"wdir":210,"wspd":4,"visib":"6+","altim":1016,"clouds":[{"cover":"BKN","base":1400},{"cover":"OVC","base":1900}],"obsTime":1779638400},"SBGM":{"icaoId":"SBGM","flightCategory":"VFR","rawOb":"METAR SBGM 241600Z 09006KT 9999 SCT023 27/19 Q1016","temp":27,"dewp":19,"wdir":90,"wspd":6,"visib":"6+","altim":1016,"clouds":[{"cover":"SCT","base":2300}],"obsTime":1779638400},"SBTU":{"icaoId":"SBTU","flightCategory":"VFR","rawOb":"METAR SBTU 241600Z AUTO 28005KT 220V320 9999 // SCT031/// 31/23 Q1014","temp":31,"dewp":23,"wdir":280,"wspd":5,"visib":"6+","altim":1014,"clouds":[{"cover":"SCT","base":3100}],"obsTime":1779638400},"SBCA":{"icaoId":"SBCA","flightCategory":"MVFR","rawOb":"METAR SBCA 241600Z 35007KT 310V020 9999 BKN025 SCT070 21/17 Q1020","temp":21,"dewp":17,"wdir":350,"wspd":7,"visib":"6+","altim":1020,"clouds":[{"cover":"BKN","base":2500},{"cover":"SCT","base":7000}],"obsTime":1779638400},"SBIP":{"icaoId":"SBIP","flightCategory":"VFR","rawOb":"METAR SBIP 241600Z AUTO 34004KT 310V020 9999 FEW024 OVC043 25/18 Q1020","temp":25,"dewp":18,"wdir":340,"wspd":4,"visib":"6+","altim":1020,"clouds":[{"cover":"FEW","base":2400},{"cover":"OVC","base":4300}],"obsTime":1779638400},"SBUY":{"icaoId":"SBUY","flightCategory":"MVFR","rawOb":"METAR SBUY 241600Z 18002KT 9999 BKN017 BKN070 24/22 Q1014","temp":24,"dewp":22,"wdir":180,"wspd":2,"visib":"6+","altim":1014,"clouds":[{"cover":"BKN","base":1700},{"cover":"BKN","base":7000}],"obsTime":1779638400},"SBBH":{"icaoId":"SBBH","flightCategory":"VFR","rawOb":"METAR SBBH 241600Z 00000KT 9999 SCT035 24/16 Q1022","temp":24,"dewp":16,"wdir":0,"wspd":0,"visib":"6+","altim":1022,"clouds":[{"cover":"SCT","base":3500}],"obsTime":1779638400},"SBVH":{"icaoId":"SBVH","flightCategory":"VFR","rawOb":"METAR SBVH 241600Z 07006KT 9999 FEW020 26/20 Q1018","temp":26,"dewp":20,"wdir":70,"wspd":6,"visib":"6+","altim":1018,"clouds":[{"cover":"FEW","base":2000}],"obsTime":1779638400},"SBKG":{"icaoId":"SBKG","flightCategory":"VFR","rawOb":"METAR SBKG 241600Z 14010KT 9999 SCT020 28/18 Q1015","temp":28,"dewp":18,"wdir":140,"wspd":10,"visib":"6+","altim":1015,"clouds":[{"cover":"SCT","base":2000}],"obsTime":1779638400},"SBES":{"icaoId":"SBES","flightCategory":"VFR","rawOb":"METAR SBES 241600Z VRB08KT 9999 FEW020 24/// Q1018","temp":null,"dewp":null,"wdir":"VRB","wspd":8,"visib":"6+","altim":1018,"clouds":[{"cover":"FEW","base":2000}],"obsTime":1779638400},"SBCC":{"icaoId":"SBCC","flightCategory":"MVFR","rawOb":"METAR SBCC 241600Z 06012KT 9999 BKN020 31/18 Q1015","temp":31,"dewp":18,"wdir":60,"wspd":12,"visib":"6+","altim":1015,"clouds":[{"cover":"BKN","base":2000}],"obsTime":1779638400},"SBLE":{"icaoId":"SBLE","flightCategory":"IFR","rawOb":"METAR SBLE 241600Z AUTO 16008KT 110V210 9999 -RA FEW006 BKN008 OVC031 ///// Q////","temp":null,"dewp":null,"wdir":160,"wspd":8,"visib":"6+","altim":null,"clouds":[{"cover":"FEW","base":600},{"cover":"BKN","base":800},{"cover":"OVC","base":3100}],"obsTime":1779638400},"SBPF":{"icaoId":"SBPF","flightCategory":"VFR","rawOb":"METAR SBPF 241700Z AUTO 07008KT 050V110 //// // FEW025/// 18/10 Q1021","temp":18,"dewp":10,"wdir":70,"wspd":8,"visib":null,"altim":1021,"clouds":[{"cover":"FEW","base":2500}],"obsTime":1779642000},"SBJV":{"icaoId":"SBJV","flightCategory":"MVFR","rawOb":"METAR SBJV 241600Z 28002KT 9999 FEW010 BKN030 BKN050 19/16 Q1020","temp":19,"dewp":16,"wdir":280,"wspd":2,"visib":"6+","altim":1020,"clouds":[{"cover":"FEW","base":1000},{"cover":"BKN","base":3000},{"cover":"BKN","base":5000}],"obsTime":1779638400},"SBJP":{"icaoId":"SBJP","flightCategory":"VFR","rawOb":"METAR SBJP 241600Z 12012KT 9999 SCT025 29/24 Q1013","temp":29,"dewp":24,"wdir":120,"wspd":12,"visib":"6+","altim":1013,"clouds":[{"cover":"SCT","base":2500}],"obsTime":1779638400},"SBAN":{"icaoId":"SBAN","flightCategory":"MVFR","rawOb":"METAR SBAN 241600Z 17009KT 9999 FEW012 BKN020 23/16 Q1023","temp":23,"dewp":16,"wdir":170,"wspd":9,"visib":"6+","altim":1023,"clouds":[{"cover":"FEW","base":1200},{"cover":"BKN","base":2000}],"obsTime":1779638400},"SBIH":{"icaoId":"SBIH","flightCategory":"MVFR","rawOb":"METAR SBIH 241600Z 21003KT 9999 SCT011 BKN018 BKN080 26/24 Q1013","temp":26,"dewp":24,"wdir":210,"wspd":3,"visib":"6+","altim":1013,"clouds":[{"cover":"SCT","base":1100},{"cover":"BKN","base":1800},{"cover":"BKN","base":8000}],"obsTime":1779638400},"SBNM":{"icaoId":"SBNM","flightCategory":"VFR","rawOb":"METAR SBNM 241600Z 12002KT 9999 SCT030 21/13 Q1020","temp":21,"dewp":13,"wdir":120,"wspd":2,"visib":"6+","altim":1020,"clouds":[{"cover":"SCT","base":3000}],"obsTime":1779638400},"SBTC":{"icaoId":"SBTC","flightCategory":"VFR","rawOb":"METAR SBTC 241600Z 17008KT 9999 SCT025 28/22 Q1017","temp":28,"dewp":22,"wdir":170,"wspd":8,"visib":"6+","altim":1017,"clouds":[{"cover":"SCT","base":2500}],"obsTime":1779638400},"SBAF":{"icaoId":"SBAF","flightCategory":"VFR","rawOb":"METAR SBAF 241600Z 15002KT 9999 FEW020 SCT100 27/20 Q1018","temp":27,"dewp":20,"wdir":150,"wspd":2,"visib":"6+","altim":1018,"clouds":[{"cover":"FEW","base":2000},{"cover":"SCT","base":10000}],"obsTime":1779638400},"SBGW":{"icaoId":"SBGW","flightCategory":"VFR","rawOb":"METAR SBGW 241600Z 35003KT 300V090 9999 FEW025 25/16 Q1019","temp":25,"dewp":16,"wdir":350,"wspd":3,"visib":"6+","altim":1019,"clouds":[{"cover":"FEW","base":2500}],"obsTime":1779638400},"SBJR":{"icaoId":"SBJR","flightCategory":"VFR","rawOb":"METAR SBJR 241600Z 17005KT 9999 FEW018 28/20 Q1018","temp":28,"dewp":20,"wdir":170,"wspd":5,"visib":"6+","altim":1018,"clouds":[{"cover":"FEW","base":1800}],"obsTime":1779638400},"SBLS":{"icaoId":"SBLS","flightCategory":"VFR","rawOb":"METAR SBLS 241600Z VRB04KT 9999 SCT035 25/16 Q1022","temp":25,"dewp":16,"wdir":"VRB","wspd":4,"visib":"6+","altim":1022,"clouds":[{"cover":"SCT","base":3500}],"obsTime":1779638400},"SBMT":{"icaoId":"SBMT","flightCategory":"VFR","rawOb":"METAR SBMT 241600Z 32006KT 230V010 CAVOK 25/19 Q1020","temp":25,"dewp":19,"wdir":320,"wspd":6,"visib":"6+","altim":1020,"clouds":[],"obsTime":1779638400},"SBST":{"icaoId":"SBST","flightCategory":"MVFR","rawOb":"METAR SBST 241600Z 22003KT 150V260 7000 OVC012 20/18 Q1019","temp":20,"dewp":18,"wdir":220,"wspd":3,"visib":4.35,"altim":1019,"clouds":[{"cover":"OVC","base":1200}],"obsTime":1779638400},"SBTA":{"icaoId":"SBTA","flightCategory":"VFR","rawOb":"METAR SBTA 241600Z 06004KT 360V090 9999 FEW015 SCT100 25/17 Q1019","temp":25,"dewp":17,"wdir":60,"wspd":4,"visib":"6+","altim":1019,"clouds":[{"cover":"FEW","base":1500},{"cover":"SCT","base":10000}],"obsTime":1779638400}}}