{"updated":1780099156,"count":73,"data":{"SBMQ":{"icaoId":"SBMQ","flightCategory":"VFR","rawOb":"METAR SBMQ 292200Z 09002KT 9999 FEW020 FEW025TCU 27/25 Q1011","temp":27,"dewp":25,"wdir":90,"wspd":2,"visib":"6+","altim":1011,"clouds":[{"cover":"FEW","base":2000},{"cover":"FEW","base":2500}],"obsTime":1780092000},"SBBR":{"icaoId":"SBBR","flightCategory":"VFR","rawOb":"METAR SBBR 292200Z 12008KT 9999 SCT040 SCT100 21/14 Q1020","temp":21,"dewp":14,"wdir":120,"wspd":8,"visib":"6+","altim":1020,"clouds":[{"cover":"SCT","base":4000},{"cover":"SCT","base":10000}],"obsTime":1780092000},"SBBV":{"icaoId":"SBBV","flightCategory":"VFR","rawOb":"METAR SBBV 292200Z 11010KT 9999 VCSH SCT025 FEW030TCU SCT070 28/25 Q1010","temp":28,"dewp":25,"wdir":110,"wspd":10,"visib":"6+","altim":1010,"clouds":[{"cover":"SCT","base":2500},{"cover":"FEW","base":3000},{"cover":"SCT","base":7000}],"obsTime":1780092000},"SBCF":{"icaoId":"SBCF","flightCategory":"VFR","rawOb":"METAR SBCF 292200Z 11008KT 9999 FEW045 SCT070 21/17 Q1022","temp":21,"dewp":17,"wdir":110,"wspd":8,"visib":"6+","altim":1022,"clouds":[{"cover":"FEW","base":4500},{"cover":"SCT","base":7000}],"obsTime":1780092000},"SBVT":{"icaoId":"SBVT","flightCategory":"VFR","rawOb":"METAR SBVT 292200Z 21007KT 9999 FEW045 SCT100 21/17 Q1020","temp":21,"dewp":17,"wdir":210,"wspd":7,"visib":"6+","altim":1020,"clouds":[{"cover":"FEW","base":4500},{"cover":"SCT","base":10000}],"obsTime":1780092000},"SBBE":{"icaoId":"SBBE","flightCategory":"IFR","rawOb":"METAR SBBE 292200Z 09006KT 4000 -TSRA FEW003 BKN013 FEW020CB BKN100 24/24 Q1012 RERA","temp":24,"dewp":24,"wdir":90,"wspd":6,"visib":2.49,"altim":1012,"clouds":[{"cover":"FEW","base":300},{"cover":"BKN","base":1300},{"cover":"FEW","base":2000},{"cover":"BKN","base":10000}],"obsTime":1780092000},"SBCG":{"icaoId":"SBCG","flightCategory":"VFR","rawOb":"METAR SBCG 292200Z 09009KT 9999 FEW040 25/17 Q1018","temp":25,"dewp":17,"wdir":90,"wspd":9,"visib":"6+","altim":1018,"clouds":[{"cover":"FEW","base":4000}],"obsTime":1780092000},"SBCT":{"icaoId":"SBCT","flightCategory":"VFR","rawOb":"METAR SBCT 292200Z 12004KT 9999 OVC033 13/11 Q1024","temp":13,"dewp":11,"wdir":120,"wspd":4,"visib":"6+","altim":1024,"clouds":[{"cover":"OVC","base":3300}],"obsTime":1780092000},"SBCZ":{"icaoId":"SBCZ","flightCategory":"VFR","rawOb":"METAR SBCZ 292200Z 15002KT 9999 FEW030 29/23 Q1011","temp":29,"dewp":23,"wdir":150,"wspd":2,"visib":"6+","altim":1011,"clouds":[{"cover":"FEW","base":3000}],"obsTime":1780092000},"SBEG":{"icaoId":"SBEG","flightCategory":"VFR","rawOb":"METAR SBEG 292200Z VRB02KT 9999 FEW030 FEW035TCU 29/24 Q1010","temp":29,"dewp":24,"wdir":"VRB","wspd":2,"visib":"6+","altim":1010,"clouds":[{"cover":"FEW","base":3000},{"cover":"FEW","base":3500}],"obsTime":1780092000},"SBFI":{"icaoId":"SBFI","flightCategory":"VFR","rawOb":"METAR SBFI 292200Z 12010KT 9999 -RA VCTS SCT005 SCT025 FEW040CB BKN070 17/17 Q1017","temp":17,"dewp":17,"wdir":120,"wspd":10,"visib":"6+","altim":1017,"clouds":[{"cover":"SCT","base":500},{"cover":"SCT","base":2500},{"cover":"FEW","base":4000},{"cover":"BKN","base":7000}],"obsTime":1780092000},"SBFL":{"icaoId":"SBFL","flightCategory":"VFR","rawOb":"METAR SBFL 292200Z 11007KT 9999 FEW040 BKN070 18/16 Q1022","temp":18,"dewp":16,"wdir":110,"wspd":7,"visib":"6+","altim":1022,"clouds":[{"cover":"FEW","base":4000},{"cover":"BKN","base":7000}],"obsTime":1780092000},"SBFZ":{"icaoId":"SBFZ","flightCategory":"VFR","rawOb":"METAR SBFZ 292200Z 09008KT 9999 FEW020 BKN070 28/24 Q1012","temp":28,"dewp":24,"wdir":90,"wspd":8,"visib":"6+","altim":1012,"clouds":[{"cover":"FEW","base":2000},{"cover":"BKN","base":7000}],"obsTime":1780092000},"SBGL":{"icaoId":"SBGL","flightCategory":"VFR","rawOb":"METAR SBGL 292200Z 16005KT 9999 BKN040 22/16 Q1021","temp":22,"dewp":16,"wdir":160,"wspd":5,"visib":"6+","altim":1021,"clouds":[{"cover":"BKN","base":4000}],"obsTime":1780092000},"SBGO":{"icaoId":"SBGO","flightCategory":"VFR","rawOb":"METAR SBGO 292200Z 15008KT CAVOK 23/18 Q1019","temp":23,"dewp":18,"wdir":150,"wspd":8,"visib":"6+","altim":1019,"clouds":[],"obsTime":1780092000},"SBGR":{"icaoId":"SBGR","flightCategory":"MVFR","rawOb":"METAR SBGR 292200Z COR 11007KT 9999 BKN011 OVC020 16/14 Q1022","temp":16,"dewp":14,"wdir":110,"wspd":7,"visib":"6+","altim":1022,"clouds":[{"cover":"BKN","base":1100},{"cover":"OVC","base":2000}],"obsTime":1780092000},"SBIL":{"icaoId":"SBIL","flightCategory":"VFR","rawOb":"METAR SBIL 292200Z 22006KT 9999 SCT020 BKN045 24/23 Q1018","temp":24,"dewp":23,"wdir":220,"wspd":6,"visib":"6+","altim":1018,"clouds":[{"cover":"SCT","base":2000},{"cover":"BKN","base":4500}],"obsTime":1780092000},"SBJU":{"icaoId":"SBJU","flightCategory":"MVFR","rawOb":"METAR SBJU 292200Z 00000KT 9999 BKN020 29/18 Q1015","temp":29,"dewp":18,"wdir":0,"wspd":0,"visib":"6+","altim":1015,"clouds":[{"cover":"BKN","base":2000}],"obsTime":1780092000},"SBKP":{"icaoId":"SBKP","flightCategory":"VFR","rawOb":"METAR SBKP 292200Z 12008KT CAVOK 19/14 Q1020","temp":19,"dewp":14,"wdir":120,"wspd":8,"visib":"6+","altim":1020,"clouds":[],"obsTime":1780092000},"SBLO":{"icaoId":"SBLO","flightCategory":"VFR","rawOb":"METAR SBLO 292200Z 12005KT CAVOK 18/14 Q1020","temp":18,"dewp":14,"wdir":120,"wspd":5,"visib":"6+","altim":1020,"clouds":[],"obsTime":1780092000},"SBMA":{"icaoId":"SBMA","flightCategory":"VFR","rawOb":"METAR SBMA 292200Z 00000KT 9999 FEW020 FEW025TCU BKN080 30/23 Q1011","temp":30,"dewp":23,"wdir":0,"wspd":0,"visib":"6+","altim":1011,"clouds":[{"cover":"FEW","base":2000},{"cover":"FEW","base":2500},{"cover":"BKN","base":8000}],"obsTime":1780092000},"SBME":{"icaoId":"SBME","flightCategory":"VFR","rawOb":"METAR SBME 292200Z 16006KT 9999 SCT040 23/16 Q1021","temp":23,"dewp":16,"wdir":160,"wspd":6,"visib":"6+","altim":1021,"clouds":[{"cover":"SCT","base":4000}],"obsTime":1780092000},"SBMG":{"icaoId":"SBMG","flightCategory":"VFR","rawOb":"METAR SBMG 292200Z 15005KT CAVOK 20/16 Q1019","temp":20,"dewp":16,"wdir":150,"wspd":5,"visib":"6+","altim":1019,"clouds":[],"obsTime":1780092000},"SBMK":{"icaoId":"SBMK","flightCategory":"VFR","rawOb":"METAR SBMK 292200Z 12006KT 9999 SCT040 21/15 Q1021","temp":21,"dewp":15,"wdir":120,"wspd":6,"visib":"6+","altim":1021,"clouds":[{"cover":"SCT","base":4000}],"obsTime":1780092000},"SBMO":{"icaoId":"SBMO","flightCategory":"VFR","rawOb":"METAR SBMO 292200Z 21004KT 9999 -RA FEW020 SCT025 24/23 Q1016","temp":24,"dewp":23,"wdir":210,"wspd":4,"visib":"6+","altim":1016,"clouds":[{"cover":"FEW","base":2000},{"cover":"SCT","base":2500}],"obsTime":1780092000},"SBNT":{"icaoId":"SBNT","flightCategory":"VFR","rawOb":"METAR SBNT 292200Z 16006KT 9999 VCSH FEW019 BKN041 26/23 Q1013","temp":26,"dewp":23,"wdir":160,"wspd":6,"visib":"6+","altim":1013,"clouds":[{"cover":"FEW","base":1900},{"cover":"BKN","base":4100}],"obsTime":1780092000},"SBPA":{"icaoId":"SBPA","flightCategory":"VFR","rawOb":"METAR SBPA 292200Z 11011KT 9999 FEW012 SCT100 17/14 Q1021","temp":17,"dewp":14,"wdir":110,"wspd":11,"visib":"6+","altim":1021,"clouds":[{"cover":"FEW","base":1200},{"cover":"SCT","base":10000}],"obsTime":1780092000},"SBPJ":{"icaoId":"SBPJ","flightCategory":"VFR","rawOb":"METAR SBPJ 292200Z 12005KT CAVOK 28/18 Q1013","temp":28,"dewp":18,"wdir":120,"wspd":5,"visib":"6+","altim":1013,"clouds":[],"obsTime":1780092000},"SBPV":{"icaoId":"SBPV","flightCategory":"VFR","rawOb":"METAR SBPV 292200Z 12002KT 9999 FEW030 30/22 Q1010","temp":30,"dewp":22,"wdir":120,"wspd":2,"visib":"6+","altim":1010,"clouds":[{"cover":"FEW","base":3000}],"obsTime":1780092000},"SBRB":{"icaoId":"SBRB","flightCategory":"VFR","rawOb":"METAR SBRB 292200Z 14002KT 9999 SCT033 SCT100 28/22 Q1012","temp":28,"dewp":22,"wdir":140,"wspd":2,"visib":"6+","altim":1012,"clouds":[{"cover":"SCT","base":3300},{"cover":"SCT","base":10000}],"obsTime":1780092000},"SBRF":{"icaoId":"SBRF","flightCategory":"MVFR","rawOb":"METAR SBRF 292200Z 17010KT 9999 VCSH BKN021 BKN070 27/23 Q1014","temp":27,"dewp":23,"wdir":170,"wspd":10,"visib":"6+","altim":1014,"clouds":[{"cover":"BKN","base":2100},{"cover":"BKN","base":7000}],"obsTime":1780092000},"SBSG":{"icaoId":"SBSG","flightCategory":"MVFR","rawOb":"METAR SBSG 292200Z 16004KT 130V190 9999 BKN026 FEW030TCU 25/23 Q1014","temp":25,"dewp":23,"wdir":160,"wspd":4,"visib":"6+","altim":1014,"clouds":[{"cover":"BKN","base":2600},{"cover":"FEW","base":3000}],"obsTime":1780092000},"SBSL":{"icaoId":"SBSL","flightCategory":"VFR","rawOb":"METAR SBSL 292200Z 07005KT 9999 SCT020 BKN080 25/24 Q1011","temp":25,"dewp":24,"wdir":70,"wspd":5,"visib":"6+","altim":1011,"clouds":[{"cover":"SCT","base":2000},{"cover":"BKN","base":8000}],"obsTime":1780092000},"SBSN":{"icaoId":"SBSN","flightCategory":"VFR","rawOb":"METAR SBSN 292200Z 10008KT 9999 FEW020 FEW040TCU BKN100 28/25 Q1011","temp":28,"dewp":25,"wdir":100,"wspd":8,"visib":"6+","altim":1011,"clouds":[{"cover":"FEW","base":2000},{"cover":"FEW","base":4000},{"cover":"BKN","base":10000}],"obsTime":1780092000},"SBSP":{"icaoId":"SBSP","flightCategory":"MVFR","rawOb":"METAR SBSP 292200Z 15010KT 9999 BKN012 16/14 Q1023","temp":16,"dewp":14,"wdir":150,"wspd":10,"visib":"6+","altim":1023,"clouds":[{"cover":"BKN","base":1200}],"obsTime":1780092000},"SBSV":{"icaoId":"SBSV","flightCategory":"VFR","rawOb":"METAR SBSV 292200Z 13006KT 9999 SCT019 BKN040 26/22 Q1016","temp":26,"dewp":22,"wdir":130,"wspd":6,"visib":"6+","altim":1016,"clouds":[{"cover":"SCT","base":1900},{"cover":"BKN","base":4000}],"obsTime":1780092000},"SBTE":{"icaoId":"SBTE","flightCategory":"VFR","rawOb":"METAR SBTE 292200Z 33004KT CAVOK 31/24 Q1011","temp":31,"dewp":24,"wdir":330,"wspd":4,"visib":"6+","altim":1011,"clouds":[],"obsTime":1780092000},"SBUL":{"icaoId":"SBUL","flightCategory":"VFR","rawOb":"METAR SBUL 292200Z 07006KT CAVOK 21/16 Q1021","temp":21,"dewp":16,"wdir":70,"wspd":6,"visib":"6+","altim":1021,"clouds":[],"obsTime":1780092000},"SBUR":{"icaoId":"SBUR","flightCategory":"VFR","rawOb":"METAR SBUR 292200Z 02002KT CAVOK 25/16 Q1019","temp":25,"dewp":16,"wdir":20,"wspd":2,"visib":"6+","altim":1019,"clouds":[],"obsTime":1780092000},"SBCP":{"icaoId":"SBCP","flightCategory":"VFR","rawOb":"METAR SBCP 292200Z 17004KT CAVOK 21/17 Q1021","temp":21,"dewp":17,"wdir":170,"wspd":4,"visib":"6+","altim":1021,"clouds":[],"obsTime":1780092000},"SBVH":{"icaoId":"SBVH","flightCategory":"VFR","rawOb":"METAR SBVH 292200Z 08006KT 9999 SCT035 BKN100 24/21 Q1016","temp":24,"dewp":21,"wdir":80,"wspd":6,"visib":"6+","altim":1016,"clouds":[{"cover":"SCT","base":3500},{"cover":"BKN","base":10000}],"obsTime":1780092000},"SBAR":{"icaoId":"SBAR","flightCategory":"VFR","rawOb":"METAR SBAR 292200Z 14008KT 9999 SCT030 27/21 Q1016","temp":27,"dewp":21,"wdir":140,"wspd":8,"visib":"6+","altim":1016,"clouds":[{"cover":"SCT","base":3000}],"obsTime":1780092000},"SBAX":{"icaoId":"SBAX","flightCategory":"VFR","rawOb":"METAR SBAX 292200Z 08003KT 9999 SCT045 22/16 Q1021","temp":22,"dewp":16,"wdir":80,"wspd":3,"visib":"6+","altim":1021,"clouds":[{"cover":"SCT","base":4500}],"obsTime":1780092000},"SBBH":{"icaoId":"SBBH","flightCategory":"VFR","rawOb":"METAR SBBH 292200Z 11009KT 9999 SCT045 OVC070 22/17 Q1022","temp":22,"dewp":17,"wdir":110,"wspd":9,"visib":"6+","altim":1022,"clouds":[{"cover":"SCT","base":4500},{"cover":"OVC","base":7000}],"obsTime":1780092000},"SBBU":{"icaoId":"SBBU","flightCategory":"VFR","rawOb":"METAR SBBU 292200Z 11006KT CAVOK 20/15 Q1020","temp":20,"dewp":15,"wdir":110,"wspd":6,"visib":"6+","altim":1020,"clouds":[],"obsTime":1780092000},"SBCA":{"icaoId":"SBCA","flightCategory":"MVFR","rawOb":"METAR SBCA 292200Z 22004KT 6000 SCT004 SCT030 17/17 Q1022","temp":17,"dewp":17,"wdir":220,"wspd":4,"visib":3.73,"altim":1022,"clouds":[{"cover":"SCT","base":400},{"cover":"SCT","base":3000}],"obsTime":1780092000},"SBCO":{"icaoId":"SBCO","flightCategory":"VFR","rawOb":"METAR SBCO 292200Z 12008KT 9999 FEW045 BKN100 16/14 Q1021","temp":16,"dewp":14,"wdir":120,"wspd":8,"visib":"6+","altim":1021,"clouds":[{"cover":"FEW","base":4500},{"cover":"BKN","base":10000}],"obsTime":1780092000},"SBDN":{"icaoId":"SBDN","flightCategory":"VFR","rawOb":"METAR SBDN 292200Z 12008KT CAVOK 21/14 Q1018","temp":21,"dewp":14,"wdir":120,"wspd":8,"visib":"6+","altim":1018,"clouds":[],"obsTime":1780092000},"SBIP":{"icaoId":"SBIP","flightCategory":"VFR","rawOb":"METAR SBIP 292200Z AUTO 00000KT CAVOK 20/19 Q1019","temp":20,"dewp":19,"wdir":0,"wspd":0,"visib":"6+","altim":1019,"clouds":[],"obsTime":1780092000},"SBKG":{"icaoId":"SBKG","flightCategory":"MVFR","rawOb":"METAR SBKG 292200Z 11006KT 9999 BKN013 BKN070 22/22 Q1017","temp":22,"dewp":22,"wdir":110,"wspd":6,"visib":"6+","altim":1017,"clouds":[{"cover":"BKN","base":1300},{"cover":"BKN","base":7000}],"obsTime":1780092000},"SBPL":{"icaoId":"SBPL","flightCategory":"VFR","rawOb":"METAR SBPL 292200Z 12006KT 9999 FEW020 SCT070 30/16 Q1015","temp":30,"dewp":16,"wdir":120,"wspd":6,"visib":"6+","altim":1015,"clouds":[{"cover":"FEW","base":2000},{"cover":"SCT","base":7000}],"obsTime":1780092000},"SBPS":{"icaoId":"SBPS","flightCategory":"MVFR","rawOb":"METAR SBPS 292200Z 17006KT 110V250 9999 BKN020 OVC030 24/20 Q1019","temp":24,"dewp":20,"wdir":170,"wspd":6,"visib":"6+","altim":1019,"clouds":[{"cover":"BKN","base":2000},{"cover":"OVC","base":3000}],"obsTime":1780092000},"SBSC":{"icaoId":"SBSC","flightCategory":"VFR","rawOb":"METAR SBSC 292200Z 13002KT 9999 FEW010 SCT040 BKN075 21/17 Q1021","temp":21,"dewp":17,"wdir":130,"wspd":2,"visib":"6+","altim":1021,"clouds":[{"cover":"FEW","base":1000},{"cover":"SCT","base":4000},{"cover":"BKN","base":7500}],"obsTime":1780092000},"SBSJ":{"icaoId":"SBSJ","flightCategory":"MVFR","rawOb":"METAR SBSJ 292200Z 15011KT 9999 OVC027 17/14 Q1022","temp":17,"dewp":14,"wdir":150,"wspd":11,"visib":"6+","altim":1022,"clouds":[{"cover":"OVC","base":2700}],"obsTime":1780092000},"SBSM":{"icaoId":"SBSM","flightCategory":"MVFR","rawOb":"METAR SBSM 292200Z 11003KT 6000 FEW008 SCT013 BKN080 15/15 Q1020","temp":15,"dewp":15,"wdir":110,"wspd":3,"visib":3.73,"altim":1020,"clouds":[{"cover":"FEW","base":800},{"cover":"SCT","base":1300},{"cover":"BKN","base":8000}],"obsTime":1780092000},"SBSR":{"icaoId":"SBSR","flightCategory":"VFR","rawOb":"METAR SBSR 292200Z 20006KT CAVOK 23/13 Q1018","temp":23,"dewp":13,"wdir":200,"wspd":6,"visib":"6+","altim":1018,"clouds":[],"obsTime":1780092000},"SBTT":{"icaoId":"SBTT","flightCategory":"MVFR","rawOb":"METAR SBTT 292200Z 00000KT 5000 -RA BR SCT025 OVC080 25/24 Q1011","temp":25,"dewp":24,"wdir":0,"wspd":0,"visib":3.11,"altim":1011,"clouds":[{"cover":"SCT","base":2500},{"cover":"OVC","base":8000}],"obsTime":1780092000},"SBUY":{"icaoId":"SBUY","flightCategory":"VFR","rawOb":"METAR SBUY 292200Z 19002KT 9999 FEW030 27/25 Q1008","temp":27,"dewp":25,"wdir":190,"wspd":2,"visib":"6+","altim":1008,"clouds":[{"cover":"FEW","base":3000}],"obsTime":1780092000},"SBTF":{"icaoId":"SBTF","flightCategory":"VFR","rawOb":"METAR SBTF 292200Z 02005KT 9999 -RA FEW022 FEW030TCU 27/25 Q1009","temp":27,"dewp":25,"wdir":20,"wspd":5,"visib":"6+","altim":1009,"clouds":[{"cover":"FEW","base":2200},{"cover":"FEW","base":3000}],"obsTime":1780092000},"SBOI":{"icaoId":"SBOI","flightCategory":"VFR","rawOb":"METAR SBOI 292200Z AUTO VRB01KT CAVOK 26/25 Q1011","temp":26,"dewp":25,"wdir":"VRB","wspd":1,"visib":"6+","altim":1011,"clouds":[],"obsTime":1780092000},"SBES":{"icaoId":"SBES","flightCategory":"VFR","rawOb":"METAR SBES 292200Z 00000KT 9999 FEW025 SCT070 17/// Q1021","temp":null,"dewp":null,"wdir":0,"wspd":0,"visib":"6+","altim":1021,"clouds":[{"cover":"FEW","base":2500},{"cover":"SCT","base":7000}],"obsTime":1780092000},"SBNM":{"icaoId":"SBNM","flightCategory":"VFR","rawOb":"METAR SBNM 292200Z AUTO 12009KT 9000 NSC 16/15 Q1020","temp":16,"dewp":15,"wdir":120,"wspd":9,"visib":5.59,"altim":1020,"clouds":[],"obsTime":1780092000},"SBJP":{"icaoId":"SBJP","flightCategory":"MVFR","rawOb":"METAR SBJP 292200Z 14007KT 9999 SCT010 BKN020 BKN070 25/24 Q1014","temp":25,"dewp":24,"wdir":140,"wspd":7,"visib":"6+","altim":1014,"clouds":[{"cover":"SCT","base":1000},{"cover":"BKN","base":2000},{"cover":"BKN","base":7000}],"obsTime":1780092000},"SBTA":{"icaoId":"SBTA","flightCategory":"MVFR","rawOb":"METAR SBTA 292200Z 17008KT 9999 SCT015 OVC025 18/14 Q1021","temp":18,"dewp":14,"wdir":170,"wspd":8,"visib":"6+","altim":1021,"clouds":[{"cover":"SCT","base":1500},{"cover":"OVC","base":2500}],"obsTime":1780092000},"SBAN":{"icaoId":"SBAN","flightCategory":"VFR","rawOb":"METAR SBAN 292200Z 23005KT CAVOK 20/16 Q1021","temp":20,"dewp":16,"wdir":230,"wspd":5,"visib":"6+","altim":1021,"clouds":[],"obsTime":1780092000},"SBLE":{"icaoId":"SBLE","flightCategory":"VFR","rawOb":"METAR SBLE 292200Z AUTO 10004KT 9999 BKN036 OVC046 23/22 Q1018","temp":23,"dewp":22,"wdir":100,"wspd":4,"visib":"6+","altim":1018,"clouds":[{"cover":"BKN","base":3600},{"cover":"OVC","base":4600}],"obsTime":1780092000},"SBJV":{"icaoId":"SBJV","flightCategory":"VFR","rawOb":"METAR SBJV 292200Z 08004KT 9999 FEW020 BKN050 18/17 Q1022","temp":18,"dewp":17,"wdir":80,"wspd":4,"visib":"6+","altim":1022,"clouds":[{"cover":"FEW","base":2000},{"cover":"BKN","base":5000}],"obsTime":1780092000},"SBPF":{"icaoId":"SBPF","flightCategory":"VFR","rawOb":"METAR SBPF 292300Z 19004KT 9999 -RA FEW004 OVC070 15/14 Q1022","temp":15,"dewp":14,"wdir":190,"wspd":4,"visib":"6+","altim":1022,"clouds":[{"cover":"FEW","base":400},{"cover":"OVC","base":7000}],"obsTime":1780095600},"SBAF":{"icaoId":"SBAF","flightCategory":"VFR","rawOb":"METAR SBAF 292200Z 17004KT 120V210 9999 FEW040 BKN080 20/20 Q1021","temp":20,"dewp":20,"wdir":170,"wspd":4,"visib":"6+","altim":1021,"clouds":[{"cover":"FEW","base":4000},{"cover":"BKN","base":8000}],"obsTime":1780092000},"SBJR":{"icaoId":"SBJR","flightCategory":"VFR","rawOb":"METAR SBJR 292200Z 00000KT 9999 FEW018 SCT040 BKN080 20/17 Q1021","temp":20,"dewp":17,"wdir":0,"wspd":0,"visib":"6+","altim":1021,"clouds":[{"cover":"FEW","base":1800},{"cover":"SCT","base":4000},{"cover":"BKN","base":8000}],"obsTime":1780092000},"SBLS":{"icaoId":"SBLS","flightCategory":"VFR","rawOb":"METAR SBLS 292200Z 12009KT 9999 FEW045 SCT060 21/17 Q1021","temp":21,"dewp":17,"wdir":120,"wspd":9,"visib":"6+","altim":1021,"clouds":[{"cover":"FEW","base":4500},{"cover":"SCT","base":6000}],"obsTime":1780092000},"SBMT":{"icaoId":"SBMT","flightCategory":"MVFR","rawOb":"METAR SBMT 292200Z 14007KT 110V180 9999 BKN017 16/13 Q1022","temp":16,"dewp":13,"wdir":140,"wspd":7,"visib":"6+","altim":1022,"clouds":[{"cover":"BKN","base":1700}],"obsTime":1780092000},"SBGW":{"icaoId":"SBGW","flightCategory":"VFR","rawOb":"METAR SBGW 292200Z 04004KT 360V070 9999 SCT030 BKN040 19/13 Q1021","temp":19,"dewp":13,"wdir":40,"wspd":4,"visib":"6+","altim":1021,"clouds":[{"cover":"SCT","base":3000},{"cover":"BKN","base":4000}],"obsTime":1780092000}}}