{"updated":1784846584,"count":82,"data":{"SBBE":{"icaoId":"SBBE","flightCategory":"VFR","rawOb":"METAR SBBE 232100Z 36005KT 9999 SCT048 30/25 Q1010","temp":30,"dewp":25,"wdir":360,"wspd":5,"visib":"6+","altim":1010,"clouds":[{"cover":"SCT","base":4800}],"obsTime":1784840400},"SBSL":{"icaoId":"SBSL","flightCategory":"VFR","rawOb":"METAR SBSL 232100Z 05009KT 9999 SCT025 28/24 Q1011","temp":28,"dewp":24,"wdir":50,"wspd":9,"visib":"6+","altim":1011,"clouds":[{"cover":"SCT","base":2500}],"obsTime":1784840400},"SBGL":{"icaoId":"SBGL","flightCategory":"VFR","rawOb":"METAR SBGL 232100Z 24005KT 9999 SCT030 BKN100 24/17 Q1016","temp":24,"dewp":17,"wdir":240,"wspd":5,"visib":"6+","altim":1016,"clouds":[{"cover":"SCT","base":3000},{"cover":"BKN","base":10000}],"obsTime":1784840400},"SBBV":{"icaoId":"SBBV","flightCategory":"VFR","rawOb":"METAR SBBV 232100Z 08007KT 9999 BKN045 SCT090 33/19 Q1009","temp":33,"dewp":19,"wdir":80,"wspd":7,"visib":"6+","altim":1009,"clouds":[{"cover":"BKN","base":4500},{"cover":"SCT","base":9000}],"obsTime":1784840400},"SBCZ":{"icaoId":"SBCZ","flightCategory":"VFR","rawOb":"METAR SBCZ 232100Z 34004KT 310V010 9999 SCT030 FEW030TCU SCT100 25/25 Q1009","temp":25,"dewp":25,"wdir":340,"wspd":4,"visib":"6+","altim":1009,"clouds":[{"cover":"SCT","base":3000},{"cover":"FEW","base":3000},{"cover":"SCT","base":10000}],"obsTime":1784840400},"SBKP":{"icaoId":"SBKP","flightCategory":"VFR","rawOb":"METAR SBKP 232100Z 17005KT CAVOK 21/15 Q1017","temp":21,"dewp":15,"wdir":170,"wspd":5,"visib":"6+","altim":1017,"clouds":[],"obsTime":1784840400},"SBPA":{"icaoId":"SBPA","flightCategory":"VFR","rawOb":"METAR SBPA 232100Z 15008KT 9999 FEW020 SCT060 16/14 Q1019","temp":16,"dewp":14,"wdir":150,"wspd":8,"visib":"6+","altim":1019,"clouds":[{"cover":"FEW","base":2000},{"cover":"SCT","base":6000}],"obsTime":1784840400},"SBRF":{"icaoId":"SBRF","flightCategory":"MVFR","rawOb":"METAR SBRF 232100Z 14012KT 9999 BKN018 SCT022 OVC080 26/24 Q1015","temp":26,"dewp":24,"wdir":140,"wspd":12,"visib":"6+","altim":1015,"clouds":[{"cover":"BKN","base":1800},{"cover":"SCT","base":2200},{"cover":"OVC","base":8000}],"obsTime":1784840400},"SBTE":{"icaoId":"SBTE","flightCategory":"VFR","rawOb":"METAR SBTE 232100Z 33004KT 9999 FEW040 33/20 Q1009","temp":33,"dewp":20,"wdir":330,"wspd":4,"visib":"6+","altim":1009,"clouds":[{"cover":"FEW","base":4000}],"obsTime":1784840400},"SBMA":{"icaoId":"SBMA","flightCategory":"VFR","rawOb":"METAR SBMA 232100Z 06006KT 9999 FEW025 BKN100 35/19 Q1009","temp":35,"dewp":19,"wdir":60,"wspd":6,"visib":"6+","altim":1009,"clouds":[{"cover":"FEW","base":2500},{"cover":"BKN","base":10000}],"obsTime":1784840400},"SBFI":{"icaoId":"SBFI","flightCategory":"VFR","rawOb":"METAR SBFI 232100Z 28003KT 9999 BKN040 20/17 Q1015","temp":20,"dewp":17,"wdir":280,"wspd":3,"visib":"6+","altim":1015,"clouds":[{"cover":"BKN","base":4000}],"obsTime":1784840400},"SBMQ":{"icaoId":"SBMQ","flightCategory":"VFR","rawOb":"METAR SBMQ 232100Z 05010KT 9999 SCT030 FEW040TCU 31/25 Q1010","temp":31,"dewp":25,"wdir":50,"wspd":10,"visib":"6+","altim":1010,"clouds":[{"cover":"SCT","base":3000},{"cover":"FEW","base":4000}],"obsTime":1784840400},"SBCG":{"icaoId":"SBCG","flightCategory":"VFR","rawOb":"METAR SBCG 232100Z 24006KT 9999 FEW035 SCT060 BKN100 24/20 Q1015","temp":24,"dewp":20,"wdir":240,"wspd":6,"visib":"6+","altim":1015,"clouds":[{"cover":"FEW","base":3500},{"cover":"SCT","base":6000},{"cover":"BKN","base":10000}],"obsTime":1784840400},"SBMG":{"icaoId":"SBMG","flightCategory":"IFR","rawOb":"METAR SBMG 232100Z 14005KT 4500 -RA BR SCT035 BKN077 OVC100 18/17 Q1017 RERA","temp":18,"dewp":17,"wdir":140,"wspd":5,"visib":2.8,"altim":1017,"clouds":[{"cover":"SCT","base":3500},{"cover":"BKN","base":7700},{"cover":"OVC","base":10000}],"obsTime":1784840400},"SBCF":{"icaoId":"SBCF","flightCategory":"VFR","rawOb":"METAR SBCF 232100Z 07005KT CAVOK 27/09 Q1017","temp":27,"dewp":9,"wdir":70,"wspd":5,"visib":"6+","altim":1017,"clouds":[],"obsTime":1784840400},"SBVT":{"icaoId":"SBVT","flightCategory":"VFR","rawOb":"METAR SBVT 232100Z 05013KT CAVOK 24/21 Q1013","temp":24,"dewp":21,"wdir":50,"wspd":13,"visib":"6+","altim":1013,"clouds":[],"obsTime":1784840400},"SBIL":{"icaoId":"SBIL","flightCategory":"VFR","rawOb":"METAR SBIL 232100Z 10006KT CAVOK 25/21 Q1016","temp":25,"dewp":21,"wdir":100,"wspd":6,"visib":"6+","altim":1016,"clouds":[],"obsTime":1784840400},"SBJU":{"icaoId":"SBJU","flightCategory":"VFR","rawOb":"METAR SBJU 232100Z 10004KT 9999 SCT020 BKN070 27/19 Q1015","temp":27,"dewp":19,"wdir":100,"wspd":4,"visib":"6+","altim":1015,"clouds":[{"cover":"SCT","base":2000},{"cover":"BKN","base":7000}],"obsTime":1784840400},"SBME":{"icaoId":"SBME","flightCategory":"VFR","rawOb":"METAR SBME 232100Z 18007KT 9999 FEW030 BKN070 23/20 Q1015","temp":23,"dewp":20,"wdir":180,"wspd":7,"visib":"6+","altim":1015,"clouds":[{"cover":"FEW","base":3000},{"cover":"BKN","base":7000}],"obsTime":1784840400},"SBMK":{"icaoId":"SBMK","flightCategory":"VFR","rawOb":"METAR SBMK 232100Z 17004KT CAVOK 27/09 Q1016","temp":27,"dewp":9,"wdir":170,"wspd":4,"visib":"6+","altim":1016,"clouds":[],"obsTime":1784840400},"SBUL":{"icaoId":"SBUL","flightCategory":"VFR","rawOb":"METAR SBUL 232100Z 05002KT CAVOK 26/10 Q1018","temp":26,"dewp":10,"wdir":50,"wspd":2,"visib":"6+","altim":1018,"clouds":[],"obsTime":1784840400},"SBUR":{"icaoId":"SBUR","flightCategory":"VFR","rawOb":"METAR SBUR 232100Z 25003KT CAVOK 27/13 Q1016","temp":27,"dewp":13,"wdir":250,"wspd":3,"visib":"6+","altim":1016,"clouds":[],"obsTime":1784840400},"SBFZ":{"icaoId":"SBFZ","flightCategory":"VFR","rawOb":"METAR SBFZ 232100Z 10009KT 9999 SCT020 27/24 Q1012","temp":27,"dewp":24,"wdir":100,"wspd":9,"visib":"6+","altim":1012,"clouds":[{"cover":"SCT","base":2000}],"obsTime":1784840400},"SBPV":{"icaoId":"SBPV","flightCategory":"VFR","rawOb":"METAR SBPV 232100Z 03005KT 9999 SCT047 33/19 Q1009","temp":33,"dewp":19,"wdir":30,"wspd":5,"visib":"6+","altim":1009,"clouds":[{"cover":"SCT","base":4700}],"obsTime":1784840400},"SBEG":{"icaoId":"SBEG","flightCategory":"VFR","rawOb":"METAR SBEG 232100Z 11008KT 9999 SCT045 33/23 Q1009","temp":33,"dewp":23,"wdir":110,"wspd":8,"visib":"6+","altim":1009,"clouds":[{"cover":"SCT","base":4500}],"obsTime":1784840400},"SBRB":{"icaoId":"SBRB","flightCategory":"VFR","rawOb":"METAR SBRB 232100Z 03007KT 9999 SCT030 FEW030TCU 33/22 Q1010","temp":33,"dewp":22,"wdir":30,"wspd":7,"visib":"6+","altim":1010,"clouds":[{"cover":"SCT","base":3000},{"cover":"FEW","base":3000}],"obsTime":1784840400},"SBCT":{"icaoId":"SBCT","flightCategory":"IFR","rawOb":"METAR SBCT 232100Z 08007KT 9999 BKN008 12/12 Q1020","temp":12,"dewp":12,"wdir":80,"wspd":7,"visib":"6+","altim":1020,"clouds":[{"cover":"BKN","base":800}],"obsTime":1784840400},"SBBR":{"icaoId":"SBBR","flightCategory":"VFR","rawOb":"METAR SBBR 232100Z 17005KT 140V200 CAVOK 28/09 Q1018","temp":28,"dewp":9,"wdir":170,"wspd":5,"visib":"6+","altim":1018,"clouds":[],"obsTime":1784840400},"SBGO":{"icaoId":"SBGO","flightCategory":"VFR","rawOb":"METAR SBGO 232100Z 15004KT CAVOK 30/11 Q1015","temp":30,"dewp":11,"wdir":150,"wspd":4,"visib":"6+","altim":1015,"clouds":[],"obsTime":1784840400},"SBSV":{"icaoId":"SBSV","flightCategory":"VFR","rawOb":"METAR SBSV 232100Z 09009KT 9999 SCT021 25/21 Q1016","temp":25,"dewp":21,"wdir":90,"wspd":9,"visib":"6+","altim":1016,"clouds":[{"cover":"SCT","base":2100}],"obsTime":1784840400},"SBGR":{"icaoId":"SBGR","flightCategory":"IFR","rawOb":"METAR SBGR 232100Z 17010KT 6000 OVC007 16/15 Q1019","temp":16,"dewp":15,"wdir":170,"wspd":10,"visib":3.73,"altim":1019,"clouds":[{"cover":"OVC","base":700}],"obsTime":1784840400},"SBFL":{"icaoId":"SBFL","flightCategory":"VFR","rawOb":"METAR SBFL 232100Z 12009KT 9999 FEW030 18/14 Q1018","temp":18,"dewp":14,"wdir":120,"wspd":9,"visib":"6+","altim":1018,"clouds":[{"cover":"FEW","base":3000}],"obsTime":1784840400},"SBPJ":{"icaoId":"SBPJ","flightCategory":"VFR","rawOb":"METAR SBPJ 232100Z 22003KT 9999 FEW045 33/18 Q1011","temp":33,"dewp":18,"wdir":220,"wspd":3,"visib":"6+","altim":1011,"clouds":[{"cover":"FEW","base":4500}],"obsTime":1784840400},"SBSG":{"icaoId":"SBSG","flightCategory":"MVFR","rawOb":"METAR SBSG 232100Z 11009KT 080V160 6000 RA SCT007 BKN011 24/24 Q1014 RERA","temp":24,"dewp":24,"wdir":110,"wspd":9,"visib":3.73,"altim":1014,"clouds":[{"cover":"SCT","base":700},{"cover":"BKN","base":1100}],"obsTime":1784840400},"SBMO":{"icaoId":"SBMO","flightCategory":"MVFR","rawOb":"METAR SBMO 232100Z 14007KT 9999 BKN017 25/22 Q1016","temp":25,"dewp":22,"wdir":140,"wspd":7,"visib":"6+","altim":1016,"clouds":[{"cover":"BKN","base":1700}],"obsTime":1784840400},"SBCP":{"icaoId":"SBCP","flightCategory":"VFR","rawOb":"METAR SBCP 232100Z 19005KT CAVOK 24/20 Q1014","temp":24,"dewp":20,"wdir":190,"wspd":5,"visib":"6+","altim":1014,"clouds":[],"obsTime":1784840400},"SBSP":{"icaoId":"SBSP","flightCategory":"LIFR","rawOb":"SPECI SBSP 232054Z 19012KT 3000 BR BKN003 BKN005 BKN020 15/15 Q1020","temp":15,"dewp":15,"wdir":190,"wspd":12,"visib":1.86,"altim":1020,"clouds":[{"cover":"BKN","base":300},{"cover":"BKN","base":500},{"cover":"BKN","base":2000}],"obsTime":1784840040},"SBLO":{"icaoId":"SBLO","flightCategory":"MVFR","rawOb":"METAR SBLO 232100Z VRB02KT 8000 -TSRA FEW050CB BKN100 19/17 Q1018","temp":19,"dewp":17,"wdir":"VRB","wspd":2,"visib":4.97,"altim":1018,"clouds":[{"cover":"FEW","base":5000},{"cover":"BKN","base":10000}],"obsTime":1784840400},"SBSN":{"icaoId":"SBSN","flightCategory":"VFR","rawOb":"METAR SBSN 232100Z 08006KT 9999 FEW017 31/24 Q1010","temp":31,"dewp":24,"wdir":80,"wspd":6,"visib":"6+","altim":1010,"clouds":[{"cover":"FEW","base":1700}],"obsTime":1784840400},"SBNT":{"icaoId":"SBNT","flightCategory":"MVFR","rawOb":"METAR SBNT 232100Z 14010KT 9000 4000S -RA FEW008 OVC011 24/23 Q1014","temp":24,"dewp":23,"wdir":140,"wspd":10,"visib":5.59,"altim":1014,"clouds":[{"cover":"FEW","base":800},{"cover":"OVC","base":1100}],"obsTime":1784840400},"SBCB":{"icaoId":"SBCB","flightCategory":"VFR","rawOb":"METAR SBCB 232100Z 27007KT 9999 FEW025 BKN100 22/19 Q1016","temp":22,"dewp":19,"wdir":270,"wspd":7,"visib":"6+","altim":1016,"clouds":[{"cover":"FEW","base":2500},{"cover":"BKN","base":10000}],"obsTime":1784840400},"SBAT":{"icaoId":"SBAT","flightCategory":"VFR","rawOb":"METAR SBAT 232100Z 07002KT 9999 SCT045 34/17 Q1010","temp":34,"dewp":17,"wdir":70,"wspd":2,"visib":"6+","altim":1010,"clouds":[{"cover":"SCT","base":4500}],"obsTime":1784840400},"SBHT":{"icaoId":"SBHT","flightCategory":"VFR","rawOb":"METAR SBHT 232100Z 15001KT 9999 FEW030 32/24 Q1010","temp":32,"dewp":24,"wdir":150,"wspd":1,"visib":"6+","altim":1010,"clouds":[{"cover":"FEW","base":3000}],"obsTime":1784840400},"SBCR":{"icaoId":"SBCR","flightCategory":"VFR","rawOb":"METAR SBCR 232100Z 22008KT 190V250 9999 FEW025 21/16 Q1013","temp":21,"dewp":16,"wdir":220,"wspd":8,"visib":"6+","altim":1013,"clouds":[{"cover":"FEW","base":2500}],"obsTime":1784840400},"SBIP":{"icaoId":"SBIP","flightCategory":"VFR","rawOb":"METAR SBIP 232100Z AUTO 19002KT CAVOK 21/17 Q1014","temp":21,"dewp":17,"wdir":190,"wspd":2,"visib":"6+","altim":1014,"clouds":[],"obsTime":1784840400},"SBAR":{"icaoId":"SBAR","flightCategory":"VFR","rawOb":"METAR SBAR 232100Z 11008KT 9999 FEW021 SCT080 26/22 Q1015","temp":26,"dewp":22,"wdir":110,"wspd":8,"visib":"6+","altim":1015,"clouds":[{"cover":"FEW","base":2100},{"cover":"SCT","base":8000}],"obsTime":1784840400},"SBSJ":{"icaoId":"SBSJ","flightCategory":"VFR","rawOb":"METAR SBSJ 232100Z 19008KT 110V220 CAVOK 19/14 Q1018","temp":19,"dewp":14,"wdir":190,"wspd":8,"visib":"6+","altim":1018,"clouds":[],"obsTime":1784840400},"SBPS":{"icaoId":"SBPS","flightCategory":"VFR","rawOb":"METAR SBPS 232100Z 04008KT 9999 FEW020 BKN100 24/21 Q1016","temp":24,"dewp":21,"wdir":40,"wspd":8,"visib":"6+","altim":1016,"clouds":[{"cover":"FEW","base":2000},{"cover":"BKN","base":10000}],"obsTime":1784840400},"SBUY":{"icaoId":"SBUY","flightCategory":"VFR","rawOb":"METAR SBUY 232100Z 08002KT 9999 FEW030 FEW035TCU 32/23 Q1008","temp":32,"dewp":23,"wdir":80,"wspd":2,"visib":"6+","altim":1008,"clouds":[{"cover":"FEW","base":3000},{"cover":"FEW","base":3500}],"obsTime":1784840400},"SBOI":{"icaoId":"SBOI","flightCategory":"VFR","rawOb":"METAR SBOI 232100Z AUTO 07003KT 020V120 CAVOK 31/22 Q1011","temp":31,"dewp":22,"wdir":70,"wspd":3,"visib":"6+","altim":1011,"clouds":[],"obsTime":1784840400},"SBTT":{"icaoId":"SBTT","flightCategory":"VFR","rawOb":"METAR SBTT 232100Z 14007KT 9999 FEW025 32/23 Q1008","temp":32,"dewp":23,"wdir":140,"wspd":7,"visib":"6+","altim":1008,"clouds":[{"cover":"FEW","base":2500}],"obsTime":1784840400},"SBTF":{"icaoId":"SBTF","flightCategory":"VFR","rawOb":"METAR SBTF 232100Z 13003KT 9999 SCT020 32/24 Q1008","temp":32,"dewp":24,"wdir":130,"wspd":3,"visib":"6+","altim":1008,"clouds":[{"cover":"SCT","base":2000}],"obsTime":1784840400},"SBPL":{"icaoId":"SBPL","flightCategory":"VFR","rawOb":"METAR SBPL 232100Z 12007KT CAVOK 30/16 Q1014","temp":30,"dewp":16,"wdir":120,"wspd":7,"visib":"6+","altim":1014,"clouds":[],"obsTime":1784840400},"SBVH":{"icaoId":"SBVH","flightCategory":"VFR","rawOb":"METAR SBVH 232100Z 08007KT 9999 FEW040 29/17 Q1013","temp":29,"dewp":17,"wdir":80,"wspd":7,"visib":"6+","altim":1013,"clouds":[{"cover":"FEW","base":4000}],"obsTime":1784840400},"SBCA":{"icaoId":"SBCA","flightCategory":"VFR","rawOb":"METAR SBCA 232100Z 01007KT 9999 FEW005 SCT020 BKN070 17/15 Q1018","temp":17,"dewp":15,"wdir":10,"wspd":7,"visib":"6+","altim":1018,"clouds":[{"cover":"FEW","base":500},{"cover":"SCT","base":2000},{"cover":"BKN","base":7000}],"obsTime":1784840400},"SBCO":{"icaoId":"SBCO","flightCategory":"VFR","rawOb":"METAR SBCO 232100Z 14009KT 9999 SCT028 BKN050 16/14 Q1020","temp":16,"dewp":14,"wdir":140,"wspd":9,"visib":"6+","altim":1020,"clouds":[{"cover":"SCT","base":2800},{"cover":"BKN","base":5000}],"obsTime":1784840400},"SBSM":{"icaoId":"SBSM","flightCategory":"MVFR","rawOb":"METAR SBSM 232100Z 11008KT 9999 SCT008 BKN020 BKN035 15/14 Q1019","temp":15,"dewp":14,"wdir":110,"wspd":8,"visib":"6+","altim":1019,"clouds":[{"cover":"SCT","base":800},{"cover":"BKN","base":2000},{"cover":"BKN","base":3500}],"obsTime":1784840400},"SBKG":{"icaoId":"SBKG","flightCategory":"MVFR","rawOb":"METAR SBKG 232100Z 14003KT 8000 SCT009 BKN070 21/21 Q1017","temp":21,"dewp":21,"wdir":140,"wspd":3,"visib":4.97,"altim":1017,"clouds":[{"cover":"SCT","base":900},{"cover":"BKN","base":7000}],"obsTime":1784840400},"SBBH":{"icaoId":"SBBH","flightCategory":"VFR","rawOb":"METAR SBBH 232100Z 28002KT CAVOK 24/12 Q1017","temp":24,"dewp":12,"wdir":280,"wspd":2,"visib":"6+","altim":1017,"clouds":[],"obsTime":1784840400},"SBBU":{"icaoId":"SBBU","flightCategory":"VFR","rawOb":"METAR SBBU 232100Z 17005KT CAVOK 23/18 Q1016","temp":23,"dewp":18,"wdir":170,"wspd":5,"visib":"6+","altim":1016,"clouds":[],"obsTime":1784840400},"SBDN":{"icaoId":"SBDN","flightCategory":"MVFR","rawOb":"METAR SBDN 232100Z 17006KT 9999 BKN030 FEW050TCU 22/15 Q1016","temp":22,"dewp":15,"wdir":170,"wspd":6,"visib":"6+","altim":1016,"clouds":[{"cover":"BKN","base":3000},{"cover":"FEW","base":5000}],"obsTime":1784840400},"SBSC":{"icaoId":"SBSC","flightCategory":"VFR","rawOb":"METAR SBSC 232100Z 19006KT 9999 FEW030 BKN090 22/19 Q1016","temp":22,"dewp":19,"wdir":190,"wspd":6,"visib":"6+","altim":1016,"clouds":[{"cover":"FEW","base":3000},{"cover":"BKN","base":9000}],"obsTime":1784840400},"SBSR":{"icaoId":"SBSR","flightCategory":"VFR","rawOb":"METAR SBSR 232100Z 23004KT CAVOK 27/17 Q1015","temp":27,"dewp":17,"wdir":230,"wspd":4,"visib":"6+","altim":1015,"clouds":[],"obsTime":1784840400},"SBES":{"icaoId":"SBES","flightCategory":"VFR","rawOb":"METAR SBES 232100Z 22007KT 9999 FEW020 SCT040 BKN100 22/// Q1016","temp":null,"dewp":null,"wdir":220,"wspd":7,"visib":"6+","altim":1016,"clouds":[{"cover":"FEW","base":2000},{"cover":"SCT","base":4000},{"cover":"BKN","base":10000}],"obsTime":1784840400},"SBTU":{"icaoId":"SBTU","flightCategory":"VFR","rawOb":"METAR SBTU 232100Z AUTO 25006KT 9999 // FEW047/// 30/22 Q1012","temp":30,"dewp":22,"wdir":250,"wspd":6,"visib":"6+","altim":1012,"clouds":[{"cover":"FEW","base":4700}],"obsTime":1784840400},"SBPB":{"icaoId":"SBPB","flightCategory":"VFR","rawOb":"METAR SBPB 232100Z 06016KT 9999 FEW020 FEW025TCU 28/25 Q1011","temp":28,"dewp":25,"wdir":60,"wspd":16,"visib":"6+","altim":1011,"clouds":[{"cover":"FEW","base":2000},{"cover":"FEW","base":2500}],"obsTime":1784840400},"SBCJ":{"icaoId":"SBCJ","flightCategory":"VFR","rawOb":"METAR SBCJ 232100Z 00000KT 9999 SCT025 28/21 Q1014","temp":28,"dewp":21,"wdir":0,"wspd":0,"visib":"6+","altim":1014,"clouds":[{"cover":"SCT","base":2500}],"obsTime":1784840400},"SBPP":{"icaoId":"SBPP","flightCategory":"LIFR","rawOb":"METAR SBPP 232100Z 04006KT 9999 BKN002 OVC010 17/17 Q1016","temp":17,"dewp":17,"wdir":40,"wspd":6,"visib":"6+","altim":1016,"clouds":[{"cover":"BKN","base":200},{"cover":"OVC","base":1000}],"obsTime":1784840400},"SBNM":{"icaoId":"SBNM","flightCategory":"VFR","rawOb":"METAR SBNM 232100Z AUTO 13006KT 9999 OVC038 16/13 Q1017","temp":16,"dewp":13,"wdir":130,"wspd":6,"visib":"6+","altim":1017,"clouds":[{"cover":"OVC","base":3800}],"obsTime":1784840400},"SBJP":{"icaoId":"SBJP","flightCategory":"MVFR","rawOb":"METAR SBJP 232100Z 12006KT 9999 BKN015 BKN070 25/24 Q1015","temp":25,"dewp":24,"wdir":120,"wspd":6,"visib":"6+","altim":1015,"clouds":[{"cover":"BKN","base":1500},{"cover":"BKN","base":7000}],"obsTime":1784840400},"SBIH":{"icaoId":"SBIH","flightCategory":"VFR","rawOb":"METAR SBIH 232100Z 05006KT 9999 FEW020 33/24 Q1009","temp":33,"dewp":24,"wdir":50,"wspd":6,"visib":"6+","altim":1009,"clouds":[{"cover":"FEW","base":2000}],"obsTime":1784840400},"SBJV":{"icaoId":"SBJV","flightCategory":"VFR","rawOb":"METAR SBJV 232100Z 04002KT 9999 BKN035 19/14 Q1018","temp":19,"dewp":14,"wdir":40,"wspd":2,"visib":"6+","altim":1018,"clouds":[{"cover":"BKN","base":3500}],"obsTime":1784840400},"SBPF":{"icaoId":"SBPF","flightCategory":"VFR","rawOb":"METAR SBPF 232100Z 15010KT CAVOK 14/11 Q1019","temp":14,"dewp":11,"wdir":150,"wspd":10,"visib":"6+","altim":1019,"clouds":[],"obsTime":1784840400},"SBAN":{"icaoId":"SBAN","flightCategory":"VFR","rawOb":"METAR SBAN 232100Z 04004KT CAVOK 25/10 Q1019","temp":25,"dewp":10,"wdir":40,"wspd":4,"visib":"6+","altim":1019,"clouds":[],"obsTime":1784840400},"SBLE":{"icaoId":"SBLE","flightCategory":"VFR","rawOb":"METAR SBLE 232100Z AUTO 29002KT CAVOK ///// Q1017","temp":null,"dewp":null,"wdir":290,"wspd":2,"visib":"6+","altim":1017,"clouds":[],"obsTime":1784840400},"SBAF":{"icaoId":"SBAF","flightCategory":"VFR","rawOb":"METAR SBAF 232100Z 20008KT 9999 FEW030 BKN100 22/21 Q1016","temp":22,"dewp":21,"wdir":200,"wspd":8,"visib":"6+","altim":1016,"clouds":[{"cover":"FEW","base":3000},{"cover":"BKN","base":10000}],"obsTime":1784840400},"SBGW":{"icaoId":"SBGW","flightCategory":"VFR","rawOb":"METAR SBGW 232100Z 21004KT 150V260 9999 SCT030 BKN070 23/15 Q1016","temp":23,"dewp":15,"wdir":210,"wspd":4,"visib":"6+","altim":1016,"clouds":[{"cover":"SCT","base":3000},{"cover":"BKN","base":7000}],"obsTime":1784840400},"SBJR":{"icaoId":"SBJR","flightCategory":"VFR","rawOb":"METAR SBJR 232100Z 23004KT 9999 SCT020 BKN100 22/19 Q1016","temp":22,"dewp":19,"wdir":230,"wspd":4,"visib":"6+","altim":1016,"clouds":[{"cover":"SCT","base":2000},{"cover":"BKN","base":10000}],"obsTime":1784840400},"SBLS":{"icaoId":"SBLS","flightCategory":"VFR","rawOb":"METAR SBLS 232100Z 03003KT CAVOK 25/10 Q1017","temp":25,"dewp":10,"wdir":30,"wspd":3,"visib":"6+","altim":1017,"clouds":[],"obsTime":1784840400},"SBMT":{"icaoId":"SBMT","flightCategory":"IFR","rawOb":"METAR SBMT 232100Z 16010KT 130V190 9999 SCT007 BKN009 16/13 Q1019","temp":16,"dewp":13,"wdir":160,"wspd":10,"visib":"6+","altim":1019,"clouds":[{"cover":"SCT","base":700},{"cover":"BKN","base":900}],"obsTime":1784840400},"SBTA":{"icaoId":"SBTA","flightCategory":"VFR","rawOb":"METAR SBTA 232100Z 18006KT 130V220 9999 SCT040 21/16 Q1017","temp":21,"dewp":16,"wdir":180,"wspd":6,"visib":"6+","altim":1017,"clouds":[{"cover":"SCT","base":4000}],"obsTime":1784840400},"SBST":{"icaoId":"SBST","flightCategory":"MVFR","rawOb":"METAR SBST 232100Z 30007KT 9999 OVC017 19/16 Q1018","temp":19,"dewp":16,"wdir":300,"wspd":7,"visib":"6+","altim":1018,"clouds":[{"cover":"OVC","base":1700}],"obsTime":1784840400}}}