{"updated":1774641289,"count":85,"data":{"SBAT":{"icaoId":"SBAT","flightCategory":"VFR","rawOb":"METAR SBAT 271800Z 17006KT 9999 SCT025 BKN100 28/24 Q1010","temp":28,"dewp":24,"wdir":170,"wspd":6,"visib":"6+","altim":1010,"clouds":[{"cover":"SCT","base":2500},{"cover":"BKN","base":10000}],"obsTime":1774634400},"SBBE":{"icaoId":"SBBE","flightCategory":"VFR","rawOb":"METAR SBBE 271800Z 11007KT 9999 SCT044 33/23 Q1007","temp":33,"dewp":23,"wdir":110,"wspd":7,"visib":"6+","altim":1007,"clouds":[{"cover":"SCT","base":4400}],"obsTime":1774634400},"SBBR":{"icaoId":"SBBR","flightCategory":"VFR","rawOb":"METAR SBBR 271800Z 09011KT 9999 SCT040 FEW045TCU 27/16 Q1018","temp":27,"dewp":16,"wdir":90,"wspd":11,"visib":"6+","altim":1018,"clouds":[{"cover":"SCT","base":4000},{"cover":"FEW","base":4500}],"obsTime":1774634400},"SBBV":{"icaoId":"SBBV","flightCategory":"MVFR","rawOb":"METAR SBBV 271800Z 14005KT 9999 BKN030 FEW045TCU BKN100 33/21 Q1007","temp":33,"dewp":21,"wdir":140,"wspd":5,"visib":"6+","altim":1007,"clouds":[{"cover":"BKN","base":3000},{"cover":"FEW","base":4500},{"cover":"BKN","base":10000}],"obsTime":1774634400},"SBCB":{"icaoId":"SBCB","flightCategory":"VFR","rawOb":"METAR SBCB 271800Z 09012KT CAVOK 28/23 Q1017","temp":28,"dewp":23,"wdir":90,"wspd":12,"visib":"6+","altim":1017,"clouds":[],"obsTime":1774634400},"SBCF":{"icaoId":"SBCF","flightCategory":"VFR","rawOb":"METAR SBCF 271800Z 10009KT 9999 SCT035 28/15 Q1020","temp":28,"dewp":15,"wdir":100,"wspd":9,"visib":"6+","altim":1020,"clouds":[{"cover":"SCT","base":3500}],"obsTime":1774634400},"SBCG":{"icaoId":"SBCG","flightCategory":"VFR","rawOb":"METAR SBCG 271800Z 35008KT 290V030 9999 VCSH VCTS BKN045 FEW050CB 30/19 Q1014","temp":30,"dewp":19,"wdir":350,"wspd":8,"visib":"6+","altim":1014,"clouds":[{"cover":"BKN","base":4500},{"cover":"FEW","base":5000}],"obsTime":1774634400},"SBCP":{"icaoId":"SBCP","flightCategory":"VFR","rawOb":"METAR SBCP 271800Z 11010KT 9999 SCT020 30/22 Q1017","temp":30,"dewp":22,"wdir":110,"wspd":10,"visib":"6+","altim":1017,"clouds":[{"cover":"SCT","base":2000}],"obsTime":1774634400},"SBCR":{"icaoId":"SBCR","flightCategory":"VFR","rawOb":"METAR SBCR 271800Z 07009KT 9999 BKN034 30/22 Q1011","temp":30,"dewp":22,"wdir":70,"wspd":9,"visib":"6+","altim":1011,"clouds":[{"cover":"BKN","base":3400}],"obsTime":1774634400},"SBCT":{"icaoId":"SBCT","flightCategory":"VFR","rawOb":"METAR SBCT 271800Z 08005KT 360V140 9999 FEW033 28/18 Q1021","temp":28,"dewp":18,"wdir":80,"wspd":5,"visib":"6+","altim":1021,"clouds":[{"cover":"FEW","base":3300}],"obsTime":1774634400},"SBCZ":{"icaoId":"SBCZ","flightCategory":"VFR","rawOb":"METAR SBCZ 271800Z 27007KT 220V300 9999 SCT025 29/24 Q1010","temp":29,"dewp":24,"wdir":270,"wspd":7,"visib":"6+","altim":1010,"clouds":[{"cover":"SCT","base":2500}],"obsTime":1774634400},"SBEG":{"icaoId":"SBEG","flightCategory":"MVFR","rawOb":"METAR SBEG 271800Z 10012KT 9999 VCSH BKN030 FEW035TCU 33/25 Q1007","temp":33,"dewp":25,"wdir":100,"wspd":12,"visib":"6+","altim":1007,"clouds":[{"cover":"BKN","base":3000},{"cover":"FEW","base":3500}],"obsTime":1774634400},"SBFI":{"icaoId":"SBFI","flightCategory":"VFR","rawOb":"METAR SBFI 271800Z 33007KT 9999 VCSH BKN040 34/23 Q1014","temp":34,"dewp":23,"wdir":330,"wspd":7,"visib":"6+","altim":1014,"clouds":[{"cover":"BKN","base":4000}],"obsTime":1774634400},"SBFL":{"icaoId":"SBFL","flightCategory":"VFR","rawOb":"METAR SBFL 271800Z 34010KT 9999 FEW040 32/24 Q1015","temp":32,"dewp":24,"wdir":340,"wspd":10,"visib":"6+","altim":1015,"clouds":[{"cover":"FEW","base":4000}],"obsTime":1774634400},"SBFZ":{"icaoId":"SBFZ","flightCategory":"VFR","rawOb":"METAR SBFZ 271800Z 08010KT 9999 FEW030 30/23 Q1008","temp":30,"dewp":23,"wdir":80,"wspd":10,"visib":"6+","altim":1008,"clouds":[{"cover":"FEW","base":3000}],"obsTime":1774634400},"SBGL":{"icaoId":"SBGL","flightCategory":"VFR","rawOb":"METAR SBGL 271800Z 13010KT 9999 FEW030 31/22 Q1016","temp":31,"dewp":22,"wdir":130,"wspd":10,"visib":"6+","altim":1016,"clouds":[{"cover":"FEW","base":3000}],"obsTime":1774634400},"SBGO":{"icaoId":"SBGO","flightCategory":"VFR","rawOb":"METAR SBGO 271800Z 10010KT 060V140 9999 BKN046 30/19 Q1016","temp":30,"dewp":19,"wdir":100,"wspd":10,"visib":"6+","altim":1016,"clouds":[{"cover":"BKN","base":4600}],"obsTime":1774634400},"SBGR":{"icaoId":"SBGR","flightCategory":"VFR","rawOb":"METAR SBGR 271800Z 12006KT CAVOK 30/14 Q1019","temp":30,"dewp":14,"wdir":120,"wspd":6,"visib":"6+","altim":1019,"clouds":[],"obsTime":1774634400},"SBHT":{"icaoId":"SBHT","flightCategory":"VFR","rawOb":"METAR SBHT 271800Z 14002KT 9999 SCT020 BKN090 29/24 Q1008","temp":29,"dewp":24,"wdir":140,"wspd":2,"visib":"6+","altim":1008,"clouds":[{"cover":"SCT","base":2000},{"cover":"BKN","base":9000}],"obsTime":1774634400},"SBIL":{"icaoId":"SBIL","flightCategory":"MVFR","rawOb":"METAR SBIL 271800Z 20012KT 180V240 9999 SCT018 BKN025 28/25 Q1013","temp":28,"dewp":25,"wdir":200,"wspd":12,"visib":"6+","altim":1013,"clouds":[{"cover":"SCT","base":1800},{"cover":"BKN","base":2500}],"obsTime":1774634400},"SBJU":{"icaoId":"SBJU","flightCategory":"MVFR","rawOb":"METAR SBJU 271800Z 10010KT 9999 BKN022 32/20 Q1010","temp":32,"dewp":20,"wdir":100,"wspd":10,"visib":"6+","altim":1010,"clouds":[{"cover":"BKN","base":2200}],"obsTime":1774634400},"SBKP":{"icaoId":"SBKP","flightCategory":"VFR","rawOb":"METAR SBKP 271800Z 11005KT 030V160 9999 FEW045 32/13 Q1018","temp":32,"dewp":13,"wdir":110,"wspd":5,"visib":"6+","altim":1018,"clouds":[{"cover":"FEW","base":4500}],"obsTime":1774634400},"SBLO":{"icaoId":"SBLO","flightCategory":"VFR","rawOb":"METAR SBLO 271800Z 05006KT 9999 FEW040 32/20 Q1016","temp":32,"dewp":20,"wdir":50,"wspd":6,"visib":"6+","altim":1016,"clouds":[{"cover":"FEW","base":4000}],"obsTime":1774634400},"SBMA":{"icaoId":"SBMA","flightCategory":"VFR","rawOb":"METAR SBMA 271800Z 18003KT 9999 SCT020 FEW023TCU BKN100 31/25 Q1008","temp":31,"dewp":25,"wdir":180,"wspd":3,"visib":"6+","altim":1008,"clouds":[{"cover":"SCT","base":2000},{"cover":"FEW","base":2300},{"cover":"BKN","base":10000}],"obsTime":1774634400},"SBME":{"icaoId":"SBME","flightCategory":"VFR","rawOb":"METAR SBME 271800Z 13007KT 9999 FEW030 SCT070 29/24 Q1017","temp":29,"dewp":24,"wdir":130,"wspd":7,"visib":"6+","altim":1017,"clouds":[{"cover":"FEW","base":3000},{"cover":"SCT","base":7000}],"obsTime":1774634400},"SBMG":{"icaoId":"SBMG","flightCategory":"VFR","rawOb":"METAR SBMG 271800Z 03011KT 9999 VCSH BKN045 FEW050TCU 32/20 Q1015","temp":32,"dewp":20,"wdir":30,"wspd":11,"visib":"6+","altim":1015,"clouds":[{"cover":"BKN","base":4500},{"cover":"FEW","base":5000}],"obsTime":1774634400},"SBMK":{"icaoId":"SBMK","flightCategory":"VFR","rawOb":"METAR SBMK 271800Z 09007KT 9999 SCT045 BKN070 29/17 Q1017","temp":29,"dewp":17,"wdir":90,"wspd":7,"visib":"6+","altim":1017,"clouds":[{"cover":"SCT","base":4500},{"cover":"BKN","base":7000}],"obsTime":1774634400},"SBMO":{"icaoId":"SBMO","flightCategory":"VFR","rawOb":"METAR SBMO 271800Z 10014KT 9999 FEW015 BKN080 28/23 Q1010","temp":28,"dewp":23,"wdir":100,"wspd":14,"visib":"6+","altim":1010,"clouds":[{"cover":"FEW","base":1500},{"cover":"BKN","base":8000}],"obsTime":1774634400},"SBMQ":{"icaoId":"SBMQ","flightCategory":"VFR","rawOb":"METAR SBMQ 271800Z 07012KT 9999 FEW020 31/24 Q1007","temp":31,"dewp":24,"wdir":70,"wspd":12,"visib":"6+","altim":1007,"clouds":[{"cover":"FEW","base":2000}],"obsTime":1774634400},"SBNT":{"icaoId":"SBNT","flightCategory":"VFR","rawOb":"METAR SBNT 271800Z 11013KT 080V140 CAVOK 31/23 Q1009","temp":31,"dewp":23,"wdir":110,"wspd":13,"visib":"6+","altim":1009,"clouds":[],"obsTime":1774634400},"SBPA":{"icaoId":"SBPA","flightCategory":"VFR","rawOb":"METAR SBPA 271800Z VRB03KT 9999 FEW035 34/22 Q1013","temp":34,"dewp":22,"wdir":"VRB","wspd":3,"visib":"6+","altim":1013,"clouds":[{"cover":"FEW","base":3500}],"obsTime":1774634400},"SBPJ":{"icaoId":"SBPJ","flightCategory":"VFR","rawOb":"METAR SBPJ 271800Z 08004KT 010V150 9999 SCT035 FEW040TCU 33/24 Q1010","temp":33,"dewp":24,"wdir":80,"wspd":4,"visib":"6+","altim":1010,"clouds":[{"cover":"SCT","base":3500},{"cover":"FEW","base":4000}],"obsTime":1774634400},"SBPV":{"icaoId":"SBPV","flightCategory":"VFR","rawOb":"METAR SBPV 271800Z 09005KT 9999 VCSH SCT025 FEW030TCU 30/22 Q1009","temp":30,"dewp":22,"wdir":90,"wspd":5,"visib":"6+","altim":1009,"clouds":[{"cover":"SCT","base":2500},{"cover":"FEW","base":3000}],"obsTime":1774634400},"SBRB":{"icaoId":"SBRB","flightCategory":"VFR","rawOb":"METAR SBRB 271800Z 14002KT 9999 SCT020 BKN100 30/25 Q1010","temp":30,"dewp":25,"wdir":140,"wspd":2,"visib":"6+","altim":1010,"clouds":[{"cover":"SCT","base":2000},{"cover":"BKN","base":10000}],"obsTime":1774634400},"SBRF":{"icaoId":"SBRF","flightCategory":"VFR","rawOb":"METAR SBRF 271800Z 12009KT 9999 FEW025 30/24 Q1009","temp":30,"dewp":24,"wdir":120,"wspd":9,"visib":"6+","altim":1009,"clouds":[{"cover":"FEW","base":2500}],"obsTime":1774634400},"SBSG":{"icaoId":"SBSG","flightCategory":"VFR","rawOb":"METAR SBSG 271800Z 09014KT 9999 SCT030 32/20 Q1009","temp":32,"dewp":20,"wdir":90,"wspd":14,"visib":"6+","altim":1009,"clouds":[{"cover":"SCT","base":3000}],"obsTime":1774634400},"SBSL":{"icaoId":"SBSL","flightCategory":"VFR","rawOb":"METAR SBSL 271800Z 09009KT 9999 SCT020 BKN080 29/24 Q1009","temp":29,"dewp":24,"wdir":90,"wspd":9,"visib":"6+","altim":1009,"clouds":[{"cover":"SCT","base":2000},{"cover":"BKN","base":8000}],"obsTime":1774634400},"SBSN":{"icaoId":"SBSN","flightCategory":"VFR","rawOb":"METAR SBSN 271800Z 09013KT 9999 SCT020 FEW030TCU SCT100 31/26 Q1007","temp":31,"dewp":26,"wdir":90,"wspd":13,"visib":"6+","altim":1007,"clouds":[{"cover":"SCT","base":2000},{"cover":"FEW","base":3000},{"cover":"SCT","base":10000}],"obsTime":1774634400},"SBSP":{"icaoId":"SBSP","flightCategory":"VFR","rawOb":"METAR SBSP 271800Z 16011KT 9999 FEW043 28/19 Q1020","temp":28,"dewp":19,"wdir":160,"wspd":11,"visib":"6+","altim":1020,"clouds":[{"cover":"FEW","base":4300}],"obsTime":1774634400},"SBSV":{"icaoId":"SBSV","flightCategory":"VFR","rawOb":"METAR SBSV 271800Z 16011KT 9999 SCT021 FEW023TCU 30/23 Q1012","temp":30,"dewp":23,"wdir":160,"wspd":11,"visib":"6+","altim":1012,"clouds":[{"cover":"SCT","base":2100},{"cover":"FEW","base":2300}],"obsTime":1774634400},"SBTE":{"icaoId":"SBTE","flightCategory":"VFR","rawOb":"METAR SBTE 271800Z 14004KT 9999 FEW030 32/23 Q1007","temp":32,"dewp":23,"wdir":140,"wspd":4,"visib":"6+","altim":1007,"clouds":[{"cover":"FEW","base":3000}],"obsTime":1774634400},"SBUL":{"icaoId":"SBUL","flightCategory":"VFR","rawOb":"METAR SBUL 271800Z 07009KT 9999 SCT030 FEW040TCU 28/19 Q1018","temp":28,"dewp":19,"wdir":70,"wspd":9,"visib":"6+","altim":1018,"clouds":[{"cover":"SCT","base":3000},{"cover":"FEW","base":4000}],"obsTime":1774634400},"SBUR":{"icaoId":"SBUR","flightCategory":"VFR","rawOb":"METAR SBUR 271800Z 05004KT CAVOK 29/17 Q1018","temp":29,"dewp":17,"wdir":50,"wspd":4,"visib":"6+","altim":1018,"clouds":[],"obsTime":1774634400},"SBVT":{"icaoId":"SBVT","flightCategory":"VFR","rawOb":"METAR SBVT 271800Z 16008KT 9999 SCT030 28/23 Q1016","temp":28,"dewp":23,"wdir":160,"wspd":8,"visib":"6+","altim":1016,"clouds":[{"cover":"SCT","base":3000}],"obsTime":1774634400},"SBOI":{"icaoId":"SBOI","flightCategory":"VFR","rawOb":"METAR SBOI 271800Z AUTO 02005KT 340V090 9999 FEW009 SCT025 28/26 Q1008","temp":28,"dewp":26,"wdir":20,"wspd":5,"visib":"6+","altim":1008,"clouds":[{"cover":"FEW","base":900},{"cover":"SCT","base":2500}],"obsTime":1774634400},"SBAR":{"icaoId":"SBAR","flightCategory":"VFR","rawOb":"METAR SBAR 271800Z 15013KT 9999 SCT025 31/23 Q1010","temp":31,"dewp":23,"wdir":150,"wspd":13,"visib":"6+","altim":1010,"clouds":[{"cover":"SCT","base":2500}],"obsTime":1774634400},"SBBU":{"icaoId":"SBBU","flightCategory":"VFR","rawOb":"METAR SBBU 271800Z 06005KT 9999 SCT040 32/19 Q1017","temp":32,"dewp":19,"wdir":60,"wspd":5,"visib":"6+","altim":1017,"clouds":[{"cover":"SCT","base":4000}],"obsTime":1774634400},"SBCJ":{"icaoId":"SBCJ","flightCategory":"VFR","rawOb":"METAR SBCJ 271800Z 10005KT 9999 SCT015 26/22 Q1013","temp":26,"dewp":22,"wdir":100,"wspd":5,"visib":"6+","altim":1013,"clouds":[{"cover":"SCT","base":1500}],"obsTime":1774634400},"SBCO":{"icaoId":"SBCO","flightCategory":"VFR","rawOb":"METAR SBCO 271800Z VRB03KT 9999 FEW040 33/24 Q1014","temp":33,"dewp":24,"wdir":"VRB","wspd":3,"visib":"6+","altim":1014,"clouds":[{"cover":"FEW","base":4000}],"obsTime":1774634400},"SBPB":{"icaoId":"SBPB","flightCategory":"MVFR","rawOb":"METAR SBPB 271800Z 03012KT 9999 BKN016 FEW025TCU BKN090 29/25 Q1008","temp":29,"dewp":25,"wdir":30,"wspd":12,"visib":"6+","altim":1008,"clouds":[{"cover":"BKN","base":1600},{"cover":"FEW","base":2500},{"cover":"BKN","base":9000}],"obsTime":1774634400},"SBAX":{"icaoId":"SBAX","flightCategory":"VFR","rawOb":"METAR SBAX 271800Z AUTO 09008KT 050V110 9999 FEW041 27/17 Q1019","temp":27,"dewp":17,"wdir":90,"wspd":8,"visib":"6+","altim":1019,"clouds":[{"cover":"FEW","base":4100}],"obsTime":1774634400},"SBPL":{"icaoId":"SBPL","flightCategory":"VFR","rawOb":"METAR SBPL 271800Z 09007KT 9999 SCT030 32/18 Q1010","temp":32,"dewp":18,"wdir":90,"wspd":7,"visib":"6+","altim":1010,"clouds":[{"cover":"SCT","base":3000}],"obsTime":1774634400},"SBBQ":{"icaoId":"SBBQ","flightCategory":"VFR","rawOb":"METAR SBBQ 271800Z 09007KT 020V150 9999 FEW045 25/12 Q1023","temp":25,"dewp":12,"wdir":90,"wspd":7,"visib":"6+","altim":1023,"clouds":[{"cover":"FEW","base":4500}],"obsTime":1774634400},"SBPP":{"icaoId":"SBPP","flightCategory":"VFR","rawOb":"METAR SBPP 271800Z 06007KT 9999 SCT025 30/20 Q1016","temp":30,"dewp":20,"wdir":60,"wspd":7,"visib":"6+","altim":1016,"clouds":[{"cover":"SCT","base":2500}],"obsTime":1774634400},"SBPS":{"icaoId":"SBPS","flightCategory":"MVFR","rawOb":"METAR SBPS 271800Z 16007KT 9999 BKN016 28/24 Q1014","temp":28,"dewp":24,"wdir":160,"wspd":7,"visib":"6+","altim":1014,"clouds":[{"cover":"BKN","base":1600}],"obsTime":1774634400},"SBDN":{"icaoId":"SBDN","flightCategory":"VFR","rawOb":"METAR SBDN 271800Z 06008KT CAVOK 33/19 Q1015","temp":33,"dewp":19,"wdir":60,"wspd":8,"visib":"6+","altim":1015,"clouds":[],"obsTime":1774634400},"SBSC":{"icaoId":"SBSC","flightCategory":"VFR","rawOb":"METAR SBSC 271800Z 17009KT 9999 FEW030 31/22 Q1015","temp":31,"dewp":22,"wdir":170,"wspd":9,"visib":"6+","altim":1015,"clouds":[{"cover":"FEW","base":3000}],"obsTime":1774634400},"SBCA":{"icaoId":"SBCA","flightCategory":"MVFR","rawOb":"METAR SBCA 271800Z 02011KT 9999 BKN020 FEW025TCU 29/19 Q1018","temp":29,"dewp":19,"wdir":20,"wspd":11,"visib":"6+","altim":1018,"clouds":[{"cover":"BKN","base":2000},{"cover":"FEW","base":2500}],"obsTime":1774634400},"SBSJ":{"icaoId":"SBSJ","flightCategory":"VFR","rawOb":"METAR SBSJ 271800Z 06004KT 010V110 CAVOK 30/13 Q1018","temp":30,"dewp":13,"wdir":60,"wspd":4,"visib":"6+","altim":1018,"clouds":[],"obsTime":1774634400},"SBES":{"icaoId":"SBES","flightCategory":"VFR","rawOb":"METAR SBES 271800Z 07012KT 030V090 9999 FEW020 29/// Q1017","temp":null,"dewp":null,"wdir":70,"wspd":12,"visib":"6+","altim":1017,"clouds":[{"cover":"FEW","base":2000}],"obsTime":1774634400},"SBSM":{"icaoId":"SBSM","flightCategory":"VFR","rawOb":"METAR SBSM 271800Z VRB04KT 9999 FEW030 FEW040TCU 33/26 Q1013","temp":33,"dewp":26,"wdir":"VRB","wspd":4,"visib":"6+","altim":1013,"clouds":[{"cover":"FEW","base":3000},{"cover":"FEW","base":4000}],"obsTime":1774634400},"SBBH":{"icaoId":"SBBH","flightCategory":"VFR","rawOb":"METAR SBBH 271800Z 10009KT 9999 FEW048 28/14 Q1019","temp":28,"dewp":14,"wdir":100,"wspd":9,"visib":"6+","altim":1019,"clouds":[{"cover":"FEW","base":4800}],"obsTime":1774634400},"SBSR":{"icaoId":"SBSR","flightCategory":"MVFR","rawOb":"METAR SBSR 271800Z 09008KT 030V160 9999 BKN030 31/16 Q1016","temp":31,"dewp":16,"wdir":90,"wspd":8,"visib":"6+","altim":1016,"clouds":[{"cover":"BKN","base":3000}],"obsTime":1774634400},"SBGM":{"icaoId":"SBGM","flightCategory":"MVFR","rawOb":"METAR SBGM 271800Z VRB01KT 9999 BKN020 29/19 Q1009","temp":29,"dewp":19,"wdir":"VRB","wspd":1,"visib":"6+","altim":1009,"clouds":[{"cover":"BKN","base":2000}],"obsTime":1774634400},"SBTF":{"icaoId":"SBTF","flightCategory":"VFR","rawOb":"METAR SBTF 271800Z 16005KT 9999 SCT017 33/25 Q1006","temp":33,"dewp":25,"wdir":160,"wspd":5,"visib":"6+","altim":1006,"clouds":[{"cover":"SCT","base":1700}],"obsTime":1774634400},"SBIP":{"icaoId":"SBIP","flightCategory":"VFR","rawOb":"METAR SBIP 271800Z AUTO VRB02KT CAVOK 31/18 Q1016","temp":31,"dewp":18,"wdir":"VRB","wspd":2,"visib":"6+","altim":1016,"clouds":[],"obsTime":1774634400},"SBCC":{"icaoId":"SBCC","flightCategory":"MVFR","rawOb":"METAR SBCC 271800Z 11006KT 9999 VCSH BKN020 FEW025TCU BKN100 30/21 Q1011","temp":30,"dewp":21,"wdir":110,"wspd":6,"visib":"6+","altim":1011,"clouds":[{"cover":"BKN","base":2000},{"cover":"FEW","base":2500},{"cover":"BKN","base":10000}],"obsTime":1774634400},"SBTT":{"icaoId":"SBTT","flightCategory":"VFR","rawOb":"METAR SBTT 271800Z 20008KT 9999 FEW025 BKN090 30/23 Q1009","temp":30,"dewp":23,"wdir":200,"wspd":8,"visib":"6+","altim":1009,"clouds":[{"cover":"FEW","base":2500},{"cover":"BKN","base":9000}],"obsTime":1774634400},"SBUY":{"icaoId":"SBUY","flightCategory":"VFR","rawOb":"METAR SBUY 271800Z 24003KT 9999 SCT030 32/24 Q1006","temp":32,"dewp":24,"wdir":240,"wspd":3,"visib":"6+","altim":1006,"clouds":[{"cover":"SCT","base":3000}],"obsTime":1774634400},"SBKG":{"icaoId":"SBKG","flightCategory":"MVFR","rawOb":"METAR SBKG 271800Z 16008KT 9999 BKN030 30/21 Q1011","temp":30,"dewp":21,"wdir":160,"wspd":8,"visib":"6+","altim":1011,"clouds":[{"cover":"BKN","base":3000}],"obsTime":1774634400},"SBVH":{"icaoId":"SBVH","flightCategory":"MVFR","rawOb":"METAR SBVH 271800Z 03006KT 9999 SCT015 BKN020 25/21 Q1013","temp":25,"dewp":21,"wdir":30,"wspd":6,"visib":"6+","altim":1013,"clouds":[{"cover":"SCT","base":1500},{"cover":"BKN","base":2000}],"obsTime":1774634400},"SBLE":{"icaoId":"SBLE","flightCategory":"VFR","rawOb":"METAR SBLE 271800Z AUTO 15007KT 100V210 CAVOK 29/20 Q1014","temp":29,"dewp":20,"wdir":150,"wspd":7,"visib":"6+","altim":1014,"clouds":[],"obsTime":1774634400},"SBJP":{"icaoId":"SBJP","flightCategory":"VFR","rawOb":"METAR SBJP 271800Z 09010KT 9999 SCT030 31/23 Q1009","temp":31,"dewp":23,"wdir":90,"wspd":10,"visib":"6+","altim":1009,"clouds":[{"cover":"SCT","base":3000}],"obsTime":1774634400},"SBLS":{"icaoId":"SBLS","flightCategory":"VFR","rawOb":"METAR SBLS 271800Z 13008KT 050V130 9999 SCT045 27/16 Q1019","temp":27,"dewp":16,"wdir":130,"wspd":8,"visib":"6+","altim":1019,"clouds":[{"cover":"SCT","base":4500}],"obsTime":1774634400},"SBAN":{"icaoId":"SBAN","flightCategory":"VFR","rawOb":"METAR SBAN 271800Z 15011KT 9999 BKN035 26/18 Q1019","temp":26,"dewp":18,"wdir":150,"wspd":11,"visib":"6+","altim":1019,"clouds":[{"cover":"BKN","base":3500}],"obsTime":1774634400},"SBMT":{"icaoId":"SBMT","flightCategory":"VFR","rawOb":"METAR SBMT 271800Z 09007KT 050V170 CAVOK 29/14 Q1019","temp":29,"dewp":14,"wdir":90,"wspd":7,"visib":"6+","altim":1019,"clouds":[],"obsTime":1774634400},"SBJR":{"icaoId":"SBJR","flightCategory":"VFR","rawOb":"METAR SBJR 271800Z 14006KT 9999 FEW025 33/21 Q1016","temp":33,"dewp":21,"wdir":140,"wspd":6,"visib":"6+","altim":1016,"clouds":[{"cover":"FEW","base":2500}],"obsTime":1774634400},"SBNM":{"icaoId":"SBNM","flightCategory":"VFR","rawOb":"METAR SBNM 271900Z 36002KT 9999 FEW025 SCT030 35/21 Q1014","temp":35,"dewp":21,"wdir":360,"wspd":2,"visib":"6+","altim":1014,"clouds":[{"cover":"FEW","base":2500},{"cover":"SCT","base":3000}],"obsTime":1774638000},"SBPF":{"icaoId":"SBPF","flightCategory":"VFR","rawOb":"METAR SBPF 271800Z 01006KT CAVOK 29/18 Q1018","temp":29,"dewp":18,"wdir":10,"wspd":6,"visib":"6+","altim":1018,"clouds":[],"obsTime":1774634400},"SBIH":{"icaoId":"SBIH","flightCategory":"VFR","rawOb":"METAR SBIH 271800Z 08004KT 9999 FEW015 FEW025TCU BKN100 27/24 Q1008","temp":27,"dewp":24,"wdir":80,"wspd":4,"visib":"6+","altim":1008,"clouds":[{"cover":"FEW","base":1500},{"cover":"FEW","base":2500},{"cover":"BKN","base":10000}],"obsTime":1774634400},"SBJV":{"icaoId":"SBJV","flightCategory":"VFR","rawOb":"METAR SBJV 271800Z 13009KT 9999 SCT035 32/25 Q1016","temp":32,"dewp":25,"wdir":130,"wspd":9,"visib":"6+","altim":1016,"clouds":[{"cover":"SCT","base":3500}],"obsTime":1774634400},"SBST":{"icaoId":"SBST","flightCategory":"MVFR","rawOb":"METAR SBST 271800Z 22005KT 170V290 8000 SCT026 28/23 Q1016","temp":28,"dewp":23,"wdir":220,"wspd":5,"visib":4.97,"altim":1016,"clouds":[{"cover":"SCT","base":2600}],"obsTime":1774634400},"SBTA":{"icaoId":"SBTA","flightCategory":"VFR","rawOb":"METAR SBTA 271800Z VRB04KT 9999 FEW030 30/21 Q1017","temp":30,"dewp":21,"wdir":"VRB","wspd":4,"visib":"6+","altim":1017,"clouds":[{"cover":"FEW","base":3000}],"obsTime":1774634400},"SBAF":{"icaoId":"SBAF","flightCategory":"VFR","rawOb":"METAR SBAF 271800Z 20010KT 9999 FEW040 31/22 Q1016","temp":31,"dewp":22,"wdir":200,"wspd":10,"visib":"6+","altim":1016,"clouds":[{"cover":"FEW","base":4000}],"obsTime":1774634400},"SBGW":{"icaoId":"SBGW","flightCategory":"VFR","rawOb":"METAR SBGW 271800Z 36005KT 9999 FEW030 31/15 Q1018","temp":31,"dewp":15,"wdir":360,"wspd":5,"visib":"6+","altim":1018,"clouds":[{"cover":"FEW","base":3000}],"obsTime":1774634400}}}