{"updated":1774093328,"count":81,"data":{"SBFL":{"icaoId":"SBFL","flightCategory":"VFR","rawOb":"METAR SBFL 211000Z 30007KT 9999 FEW014 24/23 Q1010","temp":24,"dewp":23,"wdir":300,"wspd":7,"visib":"6+","altim":1010,"clouds":[{"cover":"FEW","base":1400}],"obsTime":1774087200},"SBBR":{"icaoId":"SBBR","flightCategory":"VFR","rawOb":"METAR SBBR 211000Z 33001KT CAVOK 19/19 Q1017","temp":19,"dewp":19,"wdir":330,"wspd":1,"visib":"6+","altim":1017,"clouds":[],"obsTime":1774087200},"SBMG":{"icaoId":"SBMG","flightCategory":"VFR","rawOb":"METAR SBMG 211000Z 05010KT 9999 FEW045 23/20 Q1011","temp":23,"dewp":20,"wdir":50,"wspd":10,"visib":"6+","altim":1011,"clouds":[{"cover":"FEW","base":4500}],"obsTime":1774087200},"SBFZ":{"icaoId":"SBFZ","flightCategory":"MVFR","rawOb":"METAR SBFZ 211000Z 24002KT 9999 BKN020 FEW025TCU BKN070 25/24 Q1010","temp":25,"dewp":24,"wdir":240,"wspd":2,"visib":"6+","altim":1010,"clouds":[{"cover":"BKN","base":2000},{"cover":"FEW","base":2500},{"cover":"BKN","base":7000}],"obsTime":1774087200},"SBMK":{"icaoId":"SBMK","flightCategory":"VFR","rawOb":"METAR SBMK 211000Z 02003KT 9999 BKN040 OVC080 21/20 Q1014","temp":21,"dewp":20,"wdir":20,"wspd":3,"visib":"6+","altim":1014,"clouds":[{"cover":"BKN","base":4000},{"cover":"OVC","base":8000}],"obsTime":1774087200},"SBCP":{"icaoId":"SBCP","flightCategory":"VFR","rawOb":"METAR SBCP 211000Z 29003KT 9999 FEW010 SCT080 23/23 Q1010","temp":23,"dewp":23,"wdir":290,"wspd":3,"visib":"6+","altim":1010,"clouds":[{"cover":"FEW","base":1000},{"cover":"SCT","base":8000}],"obsTime":1774087200},"SBMO":{"icaoId":"SBMO","flightCategory":"VFR","rawOb":"METAR SBMO 211000Z 36004KT 9999 FEW025 26/24 Q1011","temp":26,"dewp":24,"wdir":360,"wspd":4,"visib":"6+","altim":1011,"clouds":[{"cover":"FEW","base":2500}],"obsTime":1774087200},"SBMA":{"icaoId":"SBMA","flightCategory":"VFR","rawOb":"METAR SBMA 211000Z 22001KT 9999 SCT010 BKN080 24/23 Q1011","temp":24,"dewp":23,"wdir":220,"wspd":1,"visib":"6+","altim":1011,"clouds":[{"cover":"SCT","base":1000},{"cover":"BKN","base":8000}],"obsTime":1774087200},"SBME":{"icaoId":"SBME","flightCategory":"MVFR","rawOb":"METAR SBME 211000Z 29003KT 9999 BKN017 OVC090 24/23 Q1010","temp":24,"dewp":23,"wdir":290,"wspd":3,"visib":"6+","altim":1010,"clouds":[{"cover":"BKN","base":1700},{"cover":"OVC","base":9000}],"obsTime":1774087200},"SBGL":{"icaoId":"SBGL","flightCategory":"IFR","rawOb":"METAR SBGL 211000Z 25002KT 3000 BR FEW013 24/22 Q1011","temp":24,"dewp":22,"wdir":250,"wspd":2,"visib":1.86,"altim":1011,"clouds":[{"cover":"FEW","base":1300}],"obsTime":1774087200},"SBMQ":{"icaoId":"SBMQ","flightCategory":"LIFR","rawOb":"METAR SBMQ 211000Z 25002KT 2000 BR BKN002 OVC009 24/24 Q1010","temp":24,"dewp":24,"wdir":250,"wspd":2,"visib":1.24,"altim":1010,"clouds":[{"cover":"BKN","base":200},{"cover":"OVC","base":900}],"obsTime":1774087200},"SBNT":{"icaoId":"SBNT","flightCategory":"MVFR","rawOb":"METAR SBNT 211000Z 19003KT 160V240 9999 BKN023 26/24 Q1011","temp":26,"dewp":24,"wdir":190,"wspd":3,"visib":"6+","altim":1011,"clouds":[{"cover":"BKN","base":2300}],"obsTime":1774087200},"SBCR":{"icaoId":"SBCR","flightCategory":"VFR","rawOb":"METAR SBCR 211100Z 36002KT 9999 FEW015 SCT100 26/24 Q1008","temp":26,"dewp":24,"wdir":360,"wspd":2,"visib":"6+","altim":1008,"clouds":[{"cover":"FEW","base":1500},{"cover":"SCT","base":10000}],"obsTime":1774090800},"SBGO":{"icaoId":"SBGO","flightCategory":"VFR","rawOb":"METAR SBGO 211000Z 29003KT CAVOK 21/20 Q1014","temp":21,"dewp":20,"wdir":290,"wspd":3,"visib":"6+","altim":1014,"clouds":[],"obsTime":1774087200},"SBPA":{"icaoId":"SBPA","flightCategory":"VFR","rawOb":"METAR SBPA 211000Z 10004KT CAVOK 21/20 Q1008","temp":21,"dewp":20,"wdir":100,"wspd":4,"visib":"6+","altim":1008,"clouds":[],"obsTime":1774087200},"SBGR":{"icaoId":"SBGR","flightCategory":"IFR","rawOb":"METAR SBGR 211000Z 06006KT 6000 BKN008 19/18 Q1015","temp":19,"dewp":18,"wdir":60,"wspd":6,"visib":3.73,"altim":1015,"clouds":[{"cover":"BKN","base":800}],"obsTime":1774087200},"SBPJ":{"icaoId":"SBPJ","flightCategory":"VFR","rawOb":"METAR SBPJ 211000Z 00000KT 9999 SCT016 BKN050 23/22 Q1013","temp":23,"dewp":22,"wdir":0,"wspd":0,"visib":"6+","altim":1013,"clouds":[{"cover":"SCT","base":1600},{"cover":"BKN","base":5000}],"obsTime":1774087200},"SBBE":{"icaoId":"SBBE","flightCategory":"VFR","rawOb":"METAR SBBE 211000Z 09005KT 9999 FEW009 SCT013 OVC100 23/23 Q1010","temp":23,"dewp":23,"wdir":90,"wspd":5,"visib":"6+","altim":1010,"clouds":[{"cover":"FEW","base":900},{"cover":"SCT","base":1300},{"cover":"OVC","base":10000}],"obsTime":1774087200},"SBPV":{"icaoId":"SBPV","flightCategory":"VFR","rawOb":"METAR SBPV 211000Z 04004KT CAVOK 25/23 Q1008","temp":25,"dewp":23,"wdir":40,"wspd":4,"visib":"6+","altim":1008,"clouds":[],"obsTime":1774087200},"SBCT":{"icaoId":"SBCT","flightCategory":"VFR","rawOb":"METAR SBCT 211000Z 04003KT CAVOK 18/18 Q1016","temp":18,"dewp":18,"wdir":40,"wspd":3,"visib":"6+","altim":1016,"clouds":[],"obsTime":1774087200},"SBRB":{"icaoId":"SBRB","flightCategory":"MVFR","rawOb":"METAR SBRB 211000Z 12003KT 8000 FEW003 BKN100 24/23 Q1007","temp":24,"dewp":23,"wdir":120,"wspd":3,"visib":4.97,"altim":1007,"clouds":[{"cover":"FEW","base":300},{"cover":"BKN","base":10000}],"obsTime":1774087200},"SBHT":{"icaoId":"SBHT","flightCategory":"MVFR","rawOb":"METAR SBHT 211000Z 00000KT 9999 BKN010 OVC080 24/23 Q1011","temp":24,"dewp":23,"wdir":0,"wspd":0,"visib":"6+","altim":1011,"clouds":[{"cover":"BKN","base":1000},{"cover":"OVC","base":8000}],"obsTime":1774087200},"SBRF":{"icaoId":"SBRF","flightCategory":"VFR","rawOb":"METAR SBRF 211000Z 12008KT 9999 SCT022 29/24 Q1011","temp":29,"dewp":24,"wdir":120,"wspd":8,"visib":"6+","altim":1011,"clouds":[{"cover":"SCT","base":2200}],"obsTime":1774087200},"SBCF":{"icaoId":"SBCF","flightCategory":"IFR","rawOb":"METAR SBCF 211000Z 03005KT 3000 BR OVC008 20/19 Q1015","temp":20,"dewp":19,"wdir":30,"wspd":5,"visib":1.86,"altim":1015,"clouds":[{"cover":"OVC","base":800}],"obsTime":1774087200},"SBSG":{"icaoId":"SBSG","flightCategory":"VFR","rawOb":"METAR SBSG 211000Z 21003KT 170V240 9999 VCSH SCT025 FEW030TCU 25/24 Q1011","temp":25,"dewp":24,"wdir":210,"wspd":3,"visib":"6+","altim":1011,"clouds":[{"cover":"SCT","base":2500},{"cover":"FEW","base":3000}],"obsTime":1774087200},"SBIL":{"icaoId":"SBIL","flightCategory":"VFR","rawOb":"METAR SBIL 211000Z 30005KT 9999 FEW025 25/24 Q1011","temp":25,"dewp":24,"wdir":300,"wspd":5,"visib":"6+","altim":1011,"clouds":[{"cover":"FEW","base":2500}],"obsTime":1774087200},"SBSL":{"icaoId":"SBSL","flightCategory":"IFR","rawOb":"METAR SBSL 211000Z 35006KT 2000 RA BR BKN008 OVC020 24/23 Q1013 RERA","temp":24,"dewp":23,"wdir":350,"wspd":6,"visib":1.24,"altim":1013,"clouds":[{"cover":"BKN","base":800},{"cover":"OVC","base":2000}],"obsTime":1774087200},"SBEG":{"icaoId":"SBEG","flightCategory":"VFR","rawOb":"METAR SBEG 211000Z 09005KT CAVOK 25/23 Q1009","temp":25,"dewp":23,"wdir":90,"wspd":5,"visib":"6+","altim":1009,"clouds":[],"obsTime":1774087200},"SBSN":{"icaoId":"SBSN","flightCategory":"VFR","rawOb":"METAR SBSN 211000Z 14004KT 9999 SCT015 23/23 Q1010","temp":23,"dewp":23,"wdir":140,"wspd":4,"visib":"6+","altim":1010,"clouds":[{"cover":"SCT","base":1500}],"obsTime":1774087200},"SBJU":{"icaoId":"SBJU","flightCategory":"MVFR","rawOb":"METAR SBJU 211000Z 00000KT 9999 BKN020 24/22 Q1013","temp":24,"dewp":22,"wdir":0,"wspd":0,"visib":"6+","altim":1013,"clouds":[{"cover":"BKN","base":2000}],"obsTime":1774087200},"SBSP":{"icaoId":"SBSP","flightCategory":"IFR","rawOb":"METAR SBSP 211000Z 08004KT 9999 BKN009 20/18 Q1016","temp":20,"dewp":18,"wdir":80,"wspd":4,"visib":"6+","altim":1016,"clouds":[{"cover":"BKN","base":900}],"obsTime":1774087200},"SBBV":{"icaoId":"SBBV","flightCategory":"VFR","rawOb":"METAR SBBV 211000Z 12006KT CAVOK 24/22 Q1010","temp":24,"dewp":22,"wdir":120,"wspd":6,"visib":"6+","altim":1010,"clouds":[],"obsTime":1774087200},"SBSV":{"icaoId":"SBSV","flightCategory":"VFR","rawOb":"METAR SBSV 211000Z 36003KT 9999 SCT019 27/24 Q1011","temp":27,"dewp":24,"wdir":360,"wspd":3,"visib":"6+","altim":1011,"clouds":[{"cover":"SCT","base":1900}],"obsTime":1774087200},"SBKP":{"icaoId":"SBKP","flightCategory":"MVFR","rawOb":"METAR SBKP 211000Z 11004KT 8000 NSC 19/18 Q1014","temp":19,"dewp":18,"wdir":110,"wspd":4,"visib":4.97,"altim":1014,"clouds":[],"obsTime":1774087200},"SBTE":{"icaoId":"SBTE","flightCategory":"MVFR","rawOb":"METAR SBTE 211000Z 33005KT 9999 BKN014 25/23 Q1011","temp":25,"dewp":23,"wdir":330,"wspd":5,"visib":"6+","altim":1011,"clouds":[{"cover":"BKN","base":1400}],"obsTime":1774087200},"SBFI":{"icaoId":"SBFI","flightCategory":"VFR","rawOb":"METAR SBFI 211000Z 06002KT 9999 FEW020 SCT070 24/24 Q1007","temp":24,"dewp":24,"wdir":60,"wspd":2,"visib":"6+","altim":1007,"clouds":[{"cover":"FEW","base":2000},{"cover":"SCT","base":7000}],"obsTime":1774087200},"SBUL":{"icaoId":"SBUL","flightCategory":"VFR","rawOb":"METAR SBUL 211000Z 08003KT 9999 1600N R22/P2000 R04/P2000 SCT004 SCT010 21/20 Q1015","temp":21,"dewp":20,"wdir":80,"wspd":3,"visib":"6+","altim":1015,"clouds":[{"cover":"SCT","base":400},{"cover":"SCT","base":1000}],"obsTime":1774087200},"SBLO":{"icaoId":"SBLO","flightCategory":"VFR","rawOb":"METAR SBLO 211000Z 11004KT 9999 FEW027 21/20 Q1013","temp":21,"dewp":20,"wdir":110,"wspd":4,"visib":"6+","altim":1013,"clouds":[{"cover":"FEW","base":2700}],"obsTime":1774087200},"SBUR":{"icaoId":"SBUR","flightCategory":"VFR","rawOb":"METAR SBUR 211000Z 01005KT 9999 SCT028 21/20 Q1014","temp":21,"dewp":20,"wdir":10,"wspd":5,"visib":"6+","altim":1014,"clouds":[{"cover":"SCT","base":2800}],"obsTime":1774087200},"SBVT":{"icaoId":"SBVT","flightCategory":"VFR","rawOb":"METAR SBVT 211000Z 26005KT 9999 FEW030 FEW035TCU BKN095 23/22 Q1010 RETS","temp":23,"dewp":22,"wdir":260,"wspd":5,"visib":"6+","altim":1010,"clouds":[{"cover":"FEW","base":3000},{"cover":"FEW","base":3500},{"cover":"BKN","base":9500}],"obsTime":1774087200},"SBCG":{"icaoId":"SBCG","flightCategory":"VFR","rawOb":"METAR SBCG 211000Z 02007KT CAVOK 23/21 Q1011","temp":23,"dewp":21,"wdir":20,"wspd":7,"visib":"6+","altim":1011,"clouds":[],"obsTime":1774087200},"SBCB":{"icaoId":"SBCB","flightCategory":"VFR","rawOb":"METAR SBCB 211000Z 23004KT 9999 FEW030 24/22 Q1011","temp":24,"dewp":22,"wdir":230,"wspd":4,"visib":"6+","altim":1011,"clouds":[{"cover":"FEW","base":3000}],"obsTime":1774087200},"SBTF":{"icaoId":"SBTF","flightCategory":"VFR","rawOb":"SPECI SBTF 211115Z 00000KT CAVOK 25/24 Q1008","temp":25,"dewp":24,"wdir":0,"wspd":0,"visib":"6+","altim":1008,"clouds":[],"obsTime":1774091700},"SBPP":{"icaoId":"SBPP","flightCategory":"VFR","rawOb":"SPECI SBPP 211115Z 35012KT CAVOK 24/22 Q1011","temp":24,"dewp":22,"wdir":350,"wspd":12,"visib":"6+","altim":1011,"clouds":[],"obsTime":1774091700},"SBOI":{"icaoId":"SBOI","flightCategory":"LIFR","rawOb":"METAR SBOI 211000Z AUTO VRB02KT 1000 // VV002 23/23 Q1010","temp":23,"dewp":23,"wdir":"VRB","wspd":2,"visib":0.62,"altim":1010,"clouds":[{"cover":"OVX","base":200}],"obsTime":1774087200},"SBBU":{"icaoId":"SBBU","flightCategory":"VFR","rawOb":"METAR SBBU 211000Z 09005KT CAVOK 21/19 Q1013","temp":21,"dewp":19,"wdir":90,"wspd":5,"visib":"6+","altim":1013,"clouds":[],"obsTime":1774087200},"SBCA":{"icaoId":"SBCA","flightCategory":"MVFR","rawOb":"METAR SBCA 211000Z 04011KT 9999 BKN025 FEW030TCU 23/21 Q1012","temp":23,"dewp":21,"wdir":40,"wspd":11,"visib":"6+","altim":1012,"clouds":[{"cover":"BKN","base":2500},{"cover":"FEW","base":3000}],"obsTime":1774087200},"SBCC":{"icaoId":"SBCC","flightCategory":"VFR","rawOb":"METAR SBCC 211100Z 34006KT 310V030 9999 FEW020 BKN100 22/21 Q1013","temp":22,"dewp":21,"wdir":340,"wspd":6,"visib":"6+","altim":1013,"clouds":[{"cover":"FEW","base":2000},{"cover":"BKN","base":10000}],"obsTime":1774090800},"SBCJ":{"icaoId":"SBCJ","flightCategory":"VFR","rawOb":"SPECI SBCJ 211015Z 00000KT 9999 FEW010 BKN080 21/20 Q1015","temp":21,"dewp":20,"wdir":0,"wspd":0,"visib":"6+","altim":1015,"clouds":[{"cover":"FEW","base":1000},{"cover":"BKN","base":8000}],"obsTime":1774088100},"SBSC":{"icaoId":"SBSC","flightCategory":"LIFR","rawOb":"METAR SBSC 211000Z 02003KT 0600 R23/0300D R05/0325D FG OVC002 23/22 Q1011","temp":23,"dewp":22,"wdir":20,"wspd":3,"visib":0.37,"altim":1011,"clouds":[{"cover":"OVC","base":200}],"obsTime":1774087200},"SBAR":{"icaoId":"SBAR","flightCategory":"VFR","rawOb":"METAR SBAR 211000Z 33003KT 9999 FEW023 28/24 Q1011","temp":28,"dewp":24,"wdir":330,"wspd":3,"visib":"6+","altim":1011,"clouds":[{"cover":"FEW","base":2300}],"obsTime":1774087200},"SBAX":{"icaoId":"SBAX","flightCategory":"IFR","rawOb":"METAR SBAX 211000Z AUTO 23003KT 9999 FEW004 BKN007 ///// Q1016","temp":null,"dewp":null,"wdir":230,"wspd":3,"visib":"6+","altim":1016,"clouds":[{"cover":"FEW","base":400},{"cover":"BKN","base":700}],"obsTime":1774087200},"SBBH":{"icaoId":"SBBH","flightCategory":"IFR","rawOb":"METAR SBBH 211000Z 34002KT 9000 BKN005 BKN012 21/20 Q1015","temp":21,"dewp":20,"wdir":340,"wspd":2,"visib":5.59,"altim":1015,"clouds":[{"cover":"BKN","base":500},{"cover":"BKN","base":1200}],"obsTime":1774087200},"SBCO":{"icaoId":"SBCO","flightCategory":"MVFR","rawOb":"METAR SBCO 211000Z 08002KT 7000 2000E BCFG FEW012 20/19 Q1009","temp":20,"dewp":19,"wdir":80,"wspd":2,"visib":4.35,"altim":1009,"clouds":[{"cover":"FEW","base":1200}],"obsTime":1774087200},"SBDN":{"icaoId":"SBDN","flightCategory":"VFR","rawOb":"METAR SBDN 211000Z 10005KT 9999 FEW012 24/22 Q1011","temp":24,"dewp":22,"wdir":100,"wspd":5,"visib":"6+","altim":1011,"clouds":[{"cover":"FEW","base":1200}],"obsTime":1774087200},"SBES":{"icaoId":"SBES","flightCategory":"VFR","rawOb":"METAR SBES 211000Z 00000KT 9999 FEW010 SCT022 21/// Q1011","temp":null,"dewp":null,"wdir":0,"wspd":0,"visib":"6+","altim":1011,"clouds":[{"cover":"FEW","base":1000},{"cover":"SCT","base":2200}],"obsTime":1774087200},"SBIP":{"icaoId":"SBIP","flightCategory":"VFR","rawOb":"METAR SBIP 211000Z AUTO 00000KT 9999 FEW021 SCT037 23/23 Q1011","temp":23,"dewp":23,"wdir":0,"wspd":0,"visib":"6+","altim":1011,"clouds":[{"cover":"FEW","base":2100},{"cover":"SCT","base":3700}],"obsTime":1774087200},"SBKG":{"icaoId":"SBKG","flightCategory":"VFR","rawOb":"METAR SBKG 211000Z 09006KT 9999 SCT012 24/22 Q1013","temp":24,"dewp":22,"wdir":90,"wspd":6,"visib":"6+","altim":1013,"clouds":[{"cover":"SCT","base":1200}],"obsTime":1774087200},"SBPB":{"icaoId":"SBPB","flightCategory":"VFR","rawOb":"SPECI SBPB 211015Z 15003KT 9999 SCT010 SCT015 26/25 Q1011","temp":26,"dewp":25,"wdir":150,"wspd":3,"visib":"6+","altim":1011,"clouds":[{"cover":"SCT","base":1000},{"cover":"SCT","base":1500}],"obsTime":1774088100},"SBPL":{"icaoId":"SBPL","flightCategory":"VFR","rawOb":"METAR SBPL 211000Z 14004KT 9999 FEW030 26/21 Q1013","temp":26,"dewp":21,"wdir":140,"wspd":4,"visib":"6+","altim":1013,"clouds":[{"cover":"FEW","base":3000}],"obsTime":1774087200},"SBPS":{"icaoId":"SBPS","flightCategory":"VFR","rawOb":"METAR SBPS 211000Z 34005KT 9999 FEW017 26/24 Q1011","temp":26,"dewp":24,"wdir":340,"wspd":5,"visib":"6+","altim":1011,"clouds":[{"cover":"FEW","base":1700}],"obsTime":1774087200},"SBSJ":{"icaoId":"SBSJ","flightCategory":"IFR","rawOb":"METAR SBSJ 211000Z 00000KT 3000 BR OVC011 19/// Q1014","temp":null,"dewp":null,"wdir":0,"wspd":0,"visib":1.86,"altim":1014,"clouds":[{"cover":"OVC","base":1100}],"obsTime":1774087200},"SBSM":{"icaoId":"SBSM","flightCategory":"LIFR","rawOb":"METAR SBSM 211000Z 12005KT 0600 R29///// R11/1100 FG VV002 21/21 Q1006","temp":21,"dewp":21,"wdir":120,"wspd":5,"visib":0.37,"altim":1006,"clouds":[{"cover":"OVX","base":200}],"obsTime":1774087200},"SBSR":{"icaoId":"SBSR","flightCategory":"VFR","rawOb":"METAR SBSR 211000Z 06003KT 9999 SCT012 SCT070 22/21 Q1012","temp":22,"dewp":21,"wdir":60,"wspd":3,"visib":"6+","altim":1012,"clouds":[{"cover":"SCT","base":1200},{"cover":"SCT","base":7000}],"obsTime":1774087200},"SBTT":{"icaoId":"SBTT","flightCategory":"VFR","rawOb":"METAR SBTT 211100Z 13003KT CAVOK 24/22 Q1007","temp":24,"dewp":22,"wdir":130,"wspd":3,"visib":"6+","altim":1007,"clouds":[],"obsTime":1774090800},"SBUY":{"icaoId":"SBUY","flightCategory":"VFR","rawOb":"METAR SBUY 211100Z 00000KT CAVOK 22/22 Q1007","temp":22,"dewp":22,"wdir":0,"wspd":0,"visib":"6+","altim":1007,"clouds":[],"obsTime":1774090800},"SBVH":{"icaoId":"SBVH","flightCategory":"VFR","rawOb":"METAR SBVH 211100Z 07004KT CAVOK 21/21 Q1012","temp":21,"dewp":21,"wdir":70,"wspd":4,"visib":"6+","altim":1012,"clouds":[],"obsTime":1774090800},"SBLE":{"icaoId":"SBLE","flightCategory":"MVFR","rawOb":"METAR SBLE 211000Z AUTO 00000KT 9999 BKN018 BKN023 OVC038 ///// Q////","temp":null,"dewp":null,"wdir":0,"wspd":0,"visib":"6+","altim":null,"clouds":[{"cover":"BKN","base":1800},{"cover":"BKN","base":2300},{"cover":"OVC","base":3800}],"obsTime":1774087200},"SBAN":{"icaoId":"SBAN","flightCategory":"VFR","rawOb":"METAR SBAN 211000Z 05003KT 9999 FEW002 BKN100 18/18 Q1017","temp":18,"dewp":18,"wdir":50,"wspd":3,"visib":"6+","altim":1017,"clouds":[{"cover":"FEW","base":200},{"cover":"BKN","base":10000}],"obsTime":1774087200},"SBLS":{"icaoId":"SBLS","flightCategory":"LIFR","rawOb":"METAR SBLS 211000Z 01003KT 2000 BR OVC004 20/19 Q1015","temp":20,"dewp":19,"wdir":10,"wspd":3,"visib":1.24,"altim":1015,"clouds":[{"cover":"OVC","base":400}],"obsTime":1774087200},"SBJP":{"icaoId":"SBJP","flightCategory":"VFR","rawOb":"METAR SBJP 211000Z 19004KT 140V220 9999 FEW024 27/25 Q1011","temp":27,"dewp":25,"wdir":190,"wspd":4,"visib":"6+","altim":1011,"clouds":[{"cover":"FEW","base":2400}],"obsTime":1774087200},"SBMT":{"icaoId":"SBMT","flightCategory":"MVFR","rawOb":"METAR SBMT 211000Z 08004KT 5000 BR BKN010 19/18 Q1015","temp":19,"dewp":18,"wdir":80,"wspd":4,"visib":3.11,"altim":1015,"clouds":[{"cover":"BKN","base":1000}],"obsTime":1774087200},"SBAF":{"icaoId":"SBAF","flightCategory":"VFR","rawOb":"METAR SBAF 211000Z 27001KT 9999 FEW015 22/22 Q1011","temp":22,"dewp":22,"wdir":270,"wspd":1,"visib":"6+","altim":1011,"clouds":[{"cover":"FEW","base":1500}],"obsTime":1774087200},"SBPF":{"icaoId":"SBPF","flightCategory":"VFR","rawOb":"METAR SBPF 211000Z 08010KT CAVOK 19/18 Q1012","temp":19,"dewp":18,"wdir":80,"wspd":10,"visib":"6+","altim":1012,"clouds":[],"obsTime":1774087200},"SBST":{"icaoId":"SBST","flightCategory":"MVFR","rawOb":"METAR SBST 211100Z 35003KT 8000 FEW020 24/21 Q1011","temp":24,"dewp":21,"wdir":350,"wspd":3,"visib":4.97,"altim":1011,"clouds":[{"cover":"FEW","base":2000}],"obsTime":1774090800},"SBJR":{"icaoId":"SBJR","flightCategory":"VFR","rawOb":"METAR SBJR 211000Z 01002KT CAVOK 23/23 Q1011","temp":23,"dewp":23,"wdir":10,"wspd":2,"visib":"6+","altim":1011,"clouds":[],"obsTime":1774087200},"SBTA":{"icaoId":"SBTA","flightCategory":"MVFR","rawOb":"METAR SBTA 211000Z 00000KT 9999 BKN014 19/19 Q1013","temp":19,"dewp":19,"wdir":0,"wspd":0,"visib":"6+","altim":1013,"clouds":[{"cover":"BKN","base":1400}],"obsTime":1774087200},"SBGW":{"icaoId":"SBGW","flightCategory":"IFR","rawOb":"METAR SBGW 211000Z 18002KT 4000 HZ SCT010 21/17 Q1014","temp":21,"dewp":17,"wdir":180,"wspd":2,"visib":2.49,"altim":1014,"clouds":[{"cover":"SCT","base":1000}],"obsTime":1774087200},"SBTC":{"icaoId":"SBTC","flightCategory":"VFR","rawOb":"METAR SBTC 211000Z 08003KT 9999 FEW020 26/24 Q1011","temp":26,"dewp":24,"wdir":80,"wspd":3,"visib":"6+","altim":1011,"clouds":[{"cover":"FEW","base":2000}],"obsTime":1774087200},"SBJV":{"icaoId":"SBJV","flightCategory":"MVFR","rawOb":"METAR SBJV 211000Z 36001KT 9999 BKN020 24/24 Q1011","temp":24,"dewp":24,"wdir":360,"wspd":1,"visib":"6+","altim":1011,"clouds":[{"cover":"BKN","base":2000}],"obsTime":1774087200},"SBIH":{"icaoId":"SBIH","flightCategory":"VFR","rawOb":"METAR SBIH 211100Z 06005KT 9999 SCT008 OVC080 24/24 Q1011","temp":24,"dewp":24,"wdir":60,"wspd":5,"visib":"6+","altim":1011,"clouds":[{"cover":"SCT","base":800},{"cover":"OVC","base":8000}],"obsTime":1774090800}}}