{"updated":1782280539,"count":52,"data":{"SBSP":{"icaoId":"SBSP","flightCategory":"MVFR","rawOb":"METAR SBSP 240400Z AUTO 15008KT 9999 -RA FEW006 BKN015 OVC034 13/13 Q1019","temp":13,"dewp":13,"wdir":150,"wspd":8,"visib":"6+","altim":1019,"clouds":[{"cover":"FEW","base":600},{"cover":"BKN","base":1500},{"cover":"OVC","base":3400}],"obsTime":1782273600},"SBCG":{"icaoId":"SBCG","flightCategory":"IFR","rawOb":"METAR SBCG 240400Z 11011KT 5000 -DZ VCTS BKN005 BKN040 FEW045CB 09/08 Q1019 RETS","temp":9,"dewp":8,"wdir":110,"wspd":11,"visib":3.11,"altim":1019,"clouds":[{"cover":"BKN","base":500},{"cover":"BKN","base":4000},{"cover":"FEW","base":4500}],"obsTime":1782273600},"SBNT":{"icaoId":"SBNT","flightCategory":"IFR","rawOb":"METAR SBNT 240400Z 16006KT 9000 4000E -RA BKN009 BKN021 BKN040 23/22 Q1012","temp":23,"dewp":22,"wdir":160,"wspd":6,"visib":5.59,"altim":1012,"clouds":[{"cover":"BKN","base":900},{"cover":"BKN","base":2100},{"cover":"BKN","base":4000}],"obsTime":1782273600},"SBGL":{"icaoId":"SBGL","flightCategory":"MVFR","rawOb":"METAR SBGL 240400Z 33005KT 8000 BKN017 OVC045 22/19 Q1016","temp":22,"dewp":19,"wdir":330,"wspd":5,"visib":4.97,"altim":1016,"clouds":[{"cover":"BKN","base":1700},{"cover":"OVC","base":4500}],"obsTime":1782273600},"SBPA":{"icaoId":"SBPA","flightCategory":"VFR","rawOb":"METAR SBPA 240400Z VRB01KT CAVOK 04/04 Q1021","temp":4,"dewp":4,"wdir":"VRB","wspd":1,"visib":"6+","altim":1021,"clouds":[],"obsTime":1782273600},"SBBV":{"icaoId":"SBBV","flightCategory":"MVFR","rawOb":"METAR SBBV 240400Z 16005G18KT 5000 -SHRA VCTS FEW005 BKN015 BKN030 FEW035CB 25/23 Q1013","temp":25,"dewp":23,"wdir":160,"wspd":5,"visib":3.11,"altim":1013,"clouds":[{"cover":"FEW","base":500},{"cover":"BKN","base":1500},{"cover":"BKN","base":3000},{"cover":"FEW","base":3500}],"obsTime":1782273600},"SBGO":{"icaoId":"SBGO","flightCategory":"VFR","rawOb":"METAR SBGO 240400Z 13008KT 9999 FEW045 BKN100 21/19 Q1018","temp":21,"dewp":19,"wdir":130,"wspd":8,"visib":"6+","altim":1018,"clouds":[{"cover":"FEW","base":4500},{"cover":"BKN","base":10000}],"obsTime":1782273600},"SBPJ":{"icaoId":"SBPJ","flightCategory":"VFR","rawOb":"METAR SBPJ 240400Z 15005KT CAVOK 21/15 Q1013","temp":21,"dewp":15,"wdir":150,"wspd":5,"visib":"6+","altim":1013,"clouds":[],"obsTime":1782273600},"SBCT":{"icaoId":"SBCT","flightCategory":"LIFR","rawOb":"METAR SBCT 240400Z 14002KT 8000 -DZ OVC002 08/08 Q1020","temp":8,"dewp":8,"wdir":140,"wspd":2,"visib":4.97,"altim":1020,"clouds":[{"cover":"OVC","base":200}],"obsTime":1782273600},"SBPV":{"icaoId":"SBPV","flightCategory":"VFR","rawOb":"METAR SBPV 240400Z 26001KT CAVOK 24/22 Q1012","temp":24,"dewp":22,"wdir":260,"wspd":1,"visib":"6+","altim":1012,"clouds":[],"obsTime":1782273600},"SBRB":{"icaoId":"SBRB","flightCategory":"LIFR","rawOb":"METAR SBRB 240400Z 15007KT 100V180 8000 BKN004 23/22 Q1014","temp":23,"dewp":22,"wdir":150,"wspd":7,"visib":4.97,"altim":1014,"clouds":[{"cover":"BKN","base":400}],"obsTime":1782273600},"SBGR":{"icaoId":"SBGR","flightCategory":"IFR","rawOb":"METAR SBGR 240400Z 15003KT 6000 -RA BKN007 14/13 Q1019","temp":14,"dewp":13,"wdir":150,"wspd":3,"visib":3.73,"altim":1019,"clouds":[{"cover":"BKN","base":700}],"obsTime":1782273600},"SBBE":{"icaoId":"SBBE","flightCategory":"VFR","rawOb":"METAR SBBE 240400Z 03003KT CAVOK 26/25 Q1012","temp":26,"dewp":25,"wdir":30,"wspd":3,"visib":"6+","altim":1012,"clouds":[],"obsTime":1782273600},"SBRF":{"icaoId":"SBRF","flightCategory":"MVFR","rawOb":"METAR SBRF 240400Z 15011KT 9999 BKN023 26/22 Q1013","temp":26,"dewp":22,"wdir":150,"wspd":11,"visib":"6+","altim":1013,"clouds":[{"cover":"BKN","base":2300}],"obsTime":1782273600},"SBJU":{"icaoId":"SBJU","flightCategory":"VFR","rawOb":"METAR SBJU 240400Z 00000KT 9999 SCT020 24/19 Q1015","temp":24,"dewp":19,"wdir":0,"wspd":0,"visib":"6+","altim":1015,"clouds":[{"cover":"SCT","base":2000}],"obsTime":1782273600},"SBSG":{"icaoId":"SBSG","flightCategory":"IFR","rawOb":"METAR SBSG 240400Z 19004KT 150V230 9999 BKN007 BKN025 23/22 Q1013","temp":23,"dewp":22,"wdir":190,"wspd":4,"visib":"6+","altim":1013,"clouds":[{"cover":"BKN","base":700},{"cover":"BKN","base":2500}],"obsTime":1782273600},"SBSL":{"icaoId":"SBSL","flightCategory":"VFR","rawOb":"METAR SBSL 240400Z 09005KT 9999 FEW020 26/25 Q1011","temp":26,"dewp":25,"wdir":90,"wspd":5,"visib":"6+","altim":1011,"clouds":[{"cover":"FEW","base":2000}],"obsTime":1782273600},"SBEG":{"icaoId":"SBEG","flightCategory":"VFR","rawOb":"METAR SBEG 240400Z 19003KT CAVOK 26/24 Q1012","temp":26,"dewp":24,"wdir":190,"wspd":3,"visib":"6+","altim":1012,"clouds":[],"obsTime":1782273600},"SBKP":{"icaoId":"SBKP","flightCategory":"MVFR","rawOb":"METAR SBKP 240400Z 12009KT 9999 -RA FEW008 BKN010 OVC020 15/14 Q1018","temp":15,"dewp":14,"wdir":120,"wspd":9,"visib":"6+","altim":1018,"clouds":[{"cover":"FEW","base":800},{"cover":"BKN","base":1000},{"cover":"OVC","base":2000}],"obsTime":1782273600},"SBSN":{"icaoId":"SBSN","flightCategory":"VFR","rawOb":"METAR SBSN 240400Z VRB02KT CAVOK 25/24 Q1011","temp":25,"dewp":24,"wdir":"VRB","wspd":2,"visib":"6+","altim":1011,"clouds":[],"obsTime":1782273600},"SBMO":{"icaoId":"SBMO","flightCategory":"VFR","rawOb":"METAR SBMO 240400Z 29002KT 9999 SCT017 22/22 Q1014","temp":22,"dewp":22,"wdir":290,"wspd":2,"visib":"6+","altim":1014,"clouds":[{"cover":"SCT","base":1700}],"obsTime":1782273600},"SBBR":{"icaoId":"SBBR","flightCategory":"VFR","rawOb":"METAR SBBR 240400Z VRB02KT CAVOK 17/15 Q1020","temp":17,"dewp":15,"wdir":"VRB","wspd":2,"visib":"6+","altim":1020,"clouds":[],"obsTime":1782273600},"SBMQ":{"icaoId":"SBMQ","flightCategory":"VFR","rawOb":"METAR SBMQ 240400Z 02003KT CAVOK 27/25 Q1012","temp":27,"dewp":25,"wdir":20,"wspd":3,"visib":"6+","altim":1012,"clouds":[],"obsTime":1782273600},"SBMG":{"icaoId":"SBMG","flightCategory":"VFR","rawOb":"METAR SBMG 240400Z AUTO 24005KT CAVOK 09/08 Q1018","temp":9,"dewp":8,"wdir":240,"wspd":5,"visib":"6+","altim":1018,"clouds":[],"obsTime":1782273600},"SBFZ":{"icaoId":"SBFZ","flightCategory":"MVFR","rawOb":"METAR SBFZ 240400Z 11014KT 9999 BKN020 27/24 Q1011","temp":27,"dewp":24,"wdir":110,"wspd":14,"visib":"6+","altim":1011,"clouds":[{"cover":"BKN","base":2000}],"obsTime":1782273600},"SBFI":{"icaoId":"SBFI","flightCategory":"VFR","rawOb":"METAR SBFI 240400Z 02001KT CAVOK 03/03 Q1021","temp":3,"dewp":3,"wdir":20,"wspd":1,"visib":"6+","altim":1021,"clouds":[],"obsTime":1782273600},"SBSV":{"icaoId":"SBSV","flightCategory":"MVFR","rawOb":"METAR SBSV 240400Z 31002KT 7000 SCT009 SCT019 BKN055 23/21 Q1015","temp":23,"dewp":21,"wdir":310,"wspd":2,"visib":4.35,"altim":1015,"clouds":[{"cover":"SCT","base":900},{"cover":"SCT","base":1900},{"cover":"BKN","base":5500}],"obsTime":1782273600},"SBLO":{"icaoId":"SBLO","flightCategory":"VFR","rawOb":"METAR SBLO 240400Z 26004KT 9000 -RA SCT040 BKN070 11/10 Q1018","temp":11,"dewp":10,"wdir":260,"wspd":4,"visib":5.59,"altim":1018,"clouds":[{"cover":"SCT","base":4000},{"cover":"BKN","base":7000}],"obsTime":1782273600},"SBCF":{"icaoId":"SBCF","flightCategory":"VFR","rawOb":"METAR SBCF 240400Z 17002KT CAVOK 16/14 Q1019","temp":16,"dewp":14,"wdir":170,"wspd":2,"visib":"6+","altim":1019,"clouds":[],"obsTime":1782273600},"SBTE":{"icaoId":"SBTE","flightCategory":"VFR","rawOb":"METAR SBTE 240400Z 01004KT 9999 SCT025 SCT090 27/23 Q1010","temp":27,"dewp":23,"wdir":10,"wspd":4,"visib":"6+","altim":1010,"clouds":[{"cover":"SCT","base":2500},{"cover":"SCT","base":9000}],"obsTime":1782273600},"SBMA":{"icaoId":"SBMA","flightCategory":"VFR","rawOb":"METAR SBMA 240400Z 00000KT CAVOK 26/24 Q1011","temp":26,"dewp":24,"wdir":0,"wspd":0,"visib":"6+","altim":1011,"clouds":[],"obsTime":1782273600},"SBUL":{"icaoId":"SBUL","flightCategory":"LIFR","rawOb":"METAR SBUL 240400Z 15006KT 9999 BKN004 BKN080 17/17 Q1019","temp":17,"dewp":17,"wdir":150,"wspd":6,"visib":"6+","altim":1019,"clouds":[{"cover":"BKN","base":400},{"cover":"BKN","base":8000}],"obsTime":1782273600},"SBUR":{"icaoId":"SBUR","flightCategory":"VFR","rawOb":"METAR SBUR 240400Z 06006KT 9999 SCT002 BKN060 18/17 Q1018 RERA","temp":18,"dewp":17,"wdir":60,"wspd":6,"visib":"6+","altim":1018,"clouds":[{"cover":"SCT","base":200},{"cover":"BKN","base":6000}],"obsTime":1782273600},"SBVT":{"icaoId":"SBVT","flightCategory":"VFR","rawOb":"METAR SBVT 240400Z 34006KT 9999 SCT020 22/19 Q1016","temp":22,"dewp":19,"wdir":340,"wspd":6,"visib":"6+","altim":1016,"clouds":[{"cover":"SCT","base":2000}],"obsTime":1782273600},"SBME":{"icaoId":"SBME","flightCategory":"VFR","rawOb":"METAR SBME 240400Z 29003KT CAVOK 19/17 Q1015","temp":19,"dewp":17,"wdir":290,"wspd":3,"visib":"6+","altim":1015,"clouds":[],"obsTime":1782273600},"SBFL":{"icaoId":"SBFL","flightCategory":"VFR","rawOb":"METAR SBFL 240400Z 26007KT 9999 FEW040 11/10 Q1020","temp":11,"dewp":10,"wdir":260,"wspd":7,"visib":"6+","altim":1020,"clouds":[{"cover":"FEW","base":4000}],"obsTime":1782273600},"SBMK":{"icaoId":"SBMK","flightCategory":"VFR","rawOb":"METAR SBMK 240400Z 24003KT CAVOK 16/13 Q1018","temp":16,"dewp":13,"wdir":240,"wspd":3,"visib":"6+","altim":1018,"clouds":[],"obsTime":1782273600},"SBIP":{"icaoId":"SBIP","flightCategory":"LIFR","rawOb":"METAR SBIP 240400Z AUTO 00000KT 0450 FG VV004 14/14 Q1017","temp":14,"dewp":14,"wdir":0,"wspd":0,"visib":0.28,"altim":1017,"clouds":[{"cover":"OVX","base":400}],"obsTime":1782273600},"SBDN":{"icaoId":"SBDN","flightCategory":"VFR","rawOb":"METAR SBDN 240400Z 23008KT 9999 FEW008 SCT040 OVC070 11/09 Q1019","temp":11,"dewp":9,"wdir":230,"wspd":8,"visib":"6+","altim":1019,"clouds":[{"cover":"FEW","base":800},{"cover":"SCT","base":4000},{"cover":"OVC","base":7000}],"obsTime":1782273600},"SBPL":{"icaoId":"SBPL","flightCategory":"VFR","rawOb":"METAR SBPL 240400Z 08012KT CAVOK 25/19 Q1015","temp":25,"dewp":19,"wdir":80,"wspd":12,"visib":"6+","altim":1015,"clouds":[],"obsTime":1782273600},"SBAR":{"icaoId":"SBAR","flightCategory":"VFR","rawOb":"METAR SBAR 240400Z 11007KT 9999 FEW025 BKN050 25/21 Q1014","temp":25,"dewp":21,"wdir":110,"wspd":7,"visib":"6+","altim":1014,"clouds":[{"cover":"FEW","base":2500},{"cover":"BKN","base":5000}],"obsTime":1782273600},"SBPS":{"icaoId":"SBPS","flightCategory":"VFR","rawOb":"METAR SBPS 240400Z 26002KT 9999 SCT015 BKN080 22/21 Q1016","temp":22,"dewp":21,"wdir":260,"wspd":2,"visib":"6+","altim":1016,"clouds":[{"cover":"SCT","base":1500},{"cover":"BKN","base":8000}],"obsTime":1782273600},"SBSC":{"icaoId":"SBSC","flightCategory":"MVFR","rawOb":"METAR SBSC 240400Z 21004KT 6000 SCT006 BKN012 OVC030 21/20 Q1016","temp":21,"dewp":20,"wdir":210,"wspd":4,"visib":3.73,"altim":1016,"clouds":[{"cover":"SCT","base":600},{"cover":"BKN","base":1200},{"cover":"OVC","base":3000}],"obsTime":1782273600},"SBAX":{"icaoId":"SBAX","flightCategory":"VFR","rawOb":"METAR SBAX 240400Z AUTO 19006KT 160V220 CAVOK 18/18 Q1019","temp":18,"dewp":18,"wdir":190,"wspd":6,"visib":"6+","altim":1019,"clouds":[],"obsTime":1782273600},"SBSR":{"icaoId":"SBSR","flightCategory":"VFR","rawOb":"METAR SBSR 240400Z 23006KT 9999 SCT007 SCT015 OVC070 15/14 Q1018","temp":15,"dewp":14,"wdir":230,"wspd":6,"visib":"6+","altim":1018,"clouds":[{"cover":"SCT","base":700},{"cover":"SCT","base":1500},{"cover":"OVC","base":7000}],"obsTime":1782273600},"SBOI":{"icaoId":"SBOI","flightCategory":"VFR","rawOb":"METAR SBOI 240400Z AUTO 19002KT 9999 FEW002 24/24 Q1013","temp":24,"dewp":24,"wdir":190,"wspd":2,"visib":"6+","altim":1013,"clouds":[{"cover":"FEW","base":200}],"obsTime":1782273600},"SBKG":{"icaoId":"SBKG","flightCategory":"IFR","rawOb":"METAR SBKG 240400Z 14008KT 9999 BKN006 BKN070 21/20 Q1016","temp":21,"dewp":20,"wdir":140,"wspd":8,"visib":"6+","altim":1016,"clouds":[{"cover":"BKN","base":600},{"cover":"BKN","base":7000}],"obsTime":1782273600},"SBTU":{"icaoId":"SBTU","flightCategory":"VFR","rawOb":"METAR SBTU 240400Z AUTO 13002KT 9999 // NCD ///// Q1013","temp":null,"dewp":null,"wdir":130,"wspd":2,"visib":"6+","altim":1013,"clouds":[],"obsTime":1782273600},"SBNM":{"icaoId":"SBNM","flightCategory":"VFR","rawOb":"METAR SBNM 240400Z AUTO VRB02KT CAVOK 05/01 Q1022","temp":5,"dewp":1,"wdir":"VRB","wspd":2,"visib":"6+","altim":1022,"clouds":[],"obsTime":1782273600},"SBLE":{"icaoId":"SBLE","flightCategory":"MVFR","rawOb":"METAR SBLE 240400Z AUTO 00000KT 9999 OVC021 ///// Q////","temp":null,"dewp":null,"wdir":0,"wspd":0,"visib":"6+","altim":null,"clouds":[{"cover":"OVC","base":2100}],"obsTime":1782273600},"SBAN":{"icaoId":"SBAN","flightCategory":"VFR","rawOb":"METAR SBAN 240400Z 24002KT CAVOK 18/14 Q1021","temp":18,"dewp":14,"wdir":240,"wspd":2,"visib":"6+","altim":1021,"clouds":[],"obsTime":1782273600},"SBJP":{"icaoId":"SBJP","flightCategory":"MVFR","rawOb":"METAR SBJP 240400Z 17004KT 9999 BKN025 BKN070 23/23 Q1013","temp":23,"dewp":23,"wdir":170,"wspd":4,"visib":"6+","altim":1013,"clouds":[{"cover":"BKN","base":2500},{"cover":"BKN","base":7000}],"obsTime":1782273600}}}