{"updated":1774323092,"count":60,"data":{"SBCG":{"icaoId":"SBCG","flightCategory":"VFR","rawOb":"METAR SBCG 240200Z 29005KT CAVOK 26/22 Q1012","temp":26,"dewp":22,"wdir":290,"wspd":5,"visib":"6+","altim":1012,"clouds":[],"obsTime":1774317600},"SBFZ":{"icaoId":"SBFZ","flightCategory":"VFR","rawOb":"METAR SBFZ 240200Z 11004KT 9999 FEW020 27/24 Q1010","temp":27,"dewp":24,"wdir":110,"wspd":4,"visib":"6+","altim":1010,"clouds":[{"cover":"FEW","base":2000}],"obsTime":1774317600},"SBCT":{"icaoId":"SBCT","flightCategory":"IFR","rawOb":"METAR SBCT 240200Z 08002KT 9999 BKN005 20/19 Q1017","temp":20,"dewp":19,"wdir":80,"wspd":2,"visib":"6+","altim":1017,"clouds":[{"cover":"BKN","base":500}],"obsTime":1774317600},"SBMO":{"icaoId":"SBMO","flightCategory":"VFR","rawOb":"METAR SBMO 240200Z 04003KT 9999 FEW020 25/23 Q1012","temp":25,"dewp":23,"wdir":40,"wspd":3,"visib":"6+","altim":1012,"clouds":[{"cover":"FEW","base":2000}],"obsTime":1774317600},"SBGL":{"icaoId":"SBGL","flightCategory":"VFR","rawOb":"METAR SBGL 240200Z 08003KT 9999 FEW020 23/20 Q1012","temp":23,"dewp":20,"wdir":80,"wspd":3,"visib":"6+","altim":1012,"clouds":[{"cover":"FEW","base":2000}],"obsTime":1774317600},"SBMQ":{"icaoId":"SBMQ","flightCategory":"VFR","rawOb":"METAR SBMQ 240200Z 02006KT CAVOK 27/25 Q1011","temp":27,"dewp":25,"wdir":20,"wspd":6,"visib":"6+","altim":1011,"clouds":[],"obsTime":1774317600},"SBNT":{"icaoId":"SBNT","flightCategory":"VFR","rawOb":"METAR SBNT 240200Z 16005KT 9999 FEW020 26/23 Q1011","temp":26,"dewp":23,"wdir":160,"wspd":5,"visib":"6+","altim":1011,"clouds":[{"cover":"FEW","base":2000}],"obsTime":1774317600},"SBBV":{"icaoId":"SBBV","flightCategory":"VFR","rawOb":"METAR SBBV 240200Z 15004KT CAVOK 29/22 Q1008","temp":29,"dewp":22,"wdir":150,"wspd":4,"visib":"6+","altim":1008,"clouds":[],"obsTime":1774317600},"SBGO":{"icaoId":"SBGO","flightCategory":"VFR","rawOb":"METAR SBGO 240200Z 16003KT CAVOK 25/19 Q1014","temp":25,"dewp":19,"wdir":160,"wspd":3,"visib":"6+","altim":1014,"clouds":[],"obsTime":1774317600},"SBPA":{"icaoId":"SBPA","flightCategory":"VFR","rawOb":"METAR SBPA 240200Z 08003KT 9000 FEW007 SCT100 24/23 Q1008","temp":24,"dewp":23,"wdir":80,"wspd":3,"visib":5.59,"altim":1008,"clouds":[{"cover":"FEW","base":700},{"cover":"SCT","base":10000}],"obsTime":1774317600},"SBBR":{"icaoId":"SBBR","flightCategory":"VFR","rawOb":"METAR SBBR 240200Z 07005KT 030V100 9999 VCTS BKN040 FEW045CB BKN080 23/19 Q1016","temp":23,"dewp":19,"wdir":70,"wspd":5,"visib":"6+","altim":1016,"clouds":[{"cover":"BKN","base":4000},{"cover":"FEW","base":4500},{"cover":"BKN","base":8000}],"obsTime":1774317600},"SBPJ":{"icaoId":"SBPJ","flightCategory":"VFR","rawOb":"METAR SBPJ 240200Z 01005KT 9999 TS VCSH FEW020 FEW030CB BKN070 25/22 Q1012","temp":25,"dewp":22,"wdir":10,"wspd":5,"visib":"6+","altim":1012,"clouds":[{"cover":"FEW","base":2000},{"cover":"FEW","base":3000},{"cover":"BKN","base":7000}],"obsTime":1774317600},"SBGR":{"icaoId":"SBGR","flightCategory":"VFR","rawOb":"METAR SBGR 240200Z 11004KT 9000 SCT013 20/18 Q1016","temp":20,"dewp":18,"wdir":110,"wspd":4,"visib":5.59,"altim":1016,"clouds":[{"cover":"SCT","base":1300}],"obsTime":1774317600},"SBPV":{"icaoId":"SBPV","flightCategory":"VFR","rawOb":"METAR SBPV 240200Z 06003KT CAVOK 25/23 Q1007","temp":25,"dewp":23,"wdir":60,"wspd":3,"visib":"6+","altim":1007,"clouds":[],"obsTime":1774317600},"SBJU":{"icaoId":"SBJU","flightCategory":"MVFR","rawOb":"METAR SBJU 240200Z 00000KT 9999 BKN020 23/22 Q1013","temp":23,"dewp":22,"wdir":0,"wspd":0,"visib":"6+","altim":1013,"clouds":[{"cover":"BKN","base":2000}],"obsTime":1774317600},"SBRB":{"icaoId":"SBRB","flightCategory":"VFR","rawOb":"METAR SBRB 240200Z 29002KT 9999 FEW030 25/24 Q1008","temp":25,"dewp":24,"wdir":290,"wspd":2,"visib":"6+","altim":1008,"clouds":[{"cover":"FEW","base":3000}],"obsTime":1774317600},"SBEG":{"icaoId":"SBEG","flightCategory":"VFR","rawOb":"METAR SBEG 240200Z 11009KT 9999 FEW020 26/25 Q1009","temp":26,"dewp":25,"wdir":110,"wspd":9,"visib":"6+","altim":1009,"clouds":[{"cover":"FEW","base":2000}],"obsTime":1774317600},"SBRF":{"icaoId":"SBRF","flightCategory":"VFR","rawOb":"METAR SBRF 240200Z 10006KT 9999 SCT025 28/23 Q1011","temp":28,"dewp":23,"wdir":100,"wspd":6,"visib":"6+","altim":1011,"clouds":[{"cover":"SCT","base":2500}],"obsTime":1774317600},"SBFI":{"icaoId":"SBFI","flightCategory":"VFR","rawOb":"METAR SBFI 240200Z 09002KT 9999 TS SCT030 FEW035CB BKN070 24/24 Q1011","temp":24,"dewp":24,"wdir":90,"wspd":2,"visib":"6+","altim":1011,"clouds":[{"cover":"SCT","base":3000},{"cover":"FEW","base":3500},{"cover":"BKN","base":7000}],"obsTime":1774317600},"SBSG":{"icaoId":"SBSG","flightCategory":"VFR","rawOb":"METAR SBSG 240200Z 20003KT 9999 FEW020 25/24 Q1012","temp":25,"dewp":24,"wdir":200,"wspd":3,"visib":"6+","altim":1012,"clouds":[{"cover":"FEW","base":2000}],"obsTime":1774317600},"SBKP":{"icaoId":"SBKP","flightCategory":"VFR","rawOb":"METAR SBKP 240200Z 13007KT CAVOK 22/18 Q1014","temp":22,"dewp":18,"wdir":130,"wspd":7,"visib":"6+","altim":1014,"clouds":[],"obsTime":1774317600},"SBSL":{"icaoId":"SBSL","flightCategory":"VFR","rawOb":"METAR SBSL 240200Z 06006KT 9999 FEW020 SCT080 27/25 Q1010","temp":27,"dewp":25,"wdir":60,"wspd":6,"visib":"6+","altim":1010,"clouds":[{"cover":"FEW","base":2000},{"cover":"SCT","base":8000}],"obsTime":1774317600},"SBCF":{"icaoId":"SBCF","flightCategory":"VFR","rawOb":"METAR SBCF 240200Z 07008KT 9999 VCTS SCT035 BKN050 FEW050CB 20/18 Q1017","temp":20,"dewp":18,"wdir":70,"wspd":8,"visib":"6+","altim":1017,"clouds":[{"cover":"SCT","base":3500},{"cover":"BKN","base":5000},{"cover":"FEW","base":5000}],"obsTime":1774317600},"SBSN":{"icaoId":"SBSN","flightCategory":"VFR","rawOb":"METAR SBSN 240200Z 16004KT 9999 FEW017 SCT100 27/24 Q1009","temp":27,"dewp":24,"wdir":160,"wspd":4,"visib":"6+","altim":1009,"clouds":[{"cover":"FEW","base":1700},{"cover":"SCT","base":10000}],"obsTime":1774317600},"SBMK":{"icaoId":"SBMK","flightCategory":"MVFR","rawOb":"METAR SBMK 240200Z 05005KT 9999 BKN024 OVC080 20/20 Q1016","temp":20,"dewp":20,"wdir":50,"wspd":5,"visib":"6+","altim":1016,"clouds":[{"cover":"BKN","base":2400},{"cover":"OVC","base":8000}],"obsTime":1774317600},"SBSP":{"icaoId":"SBSP","flightCategory":"VFR","rawOb":"METAR SBSP 240200Z 14004KT 100V160 CAVOK 20/18 Q1016","temp":20,"dewp":18,"wdir":140,"wspd":4,"visib":"6+","altim":1016,"clouds":[],"obsTime":1774317600},"SBLO":{"icaoId":"SBLO","flightCategory":"VFR","rawOb":"METAR SBLO 240200Z 23003KT CAVOK 24/21 Q1013","temp":24,"dewp":21,"wdir":230,"wspd":3,"visib":"6+","altim":1013,"clouds":[],"obsTime":1774317600},"SBBE":{"icaoId":"SBBE","flightCategory":"VFR","rawOb":"METAR SBBE 240200Z 08004KT 9999 FEW020 26/25 Q1011","temp":26,"dewp":25,"wdir":80,"wspd":4,"visib":"6+","altim":1011,"clouds":[{"cover":"FEW","base":2000}],"obsTime":1774317600},"SBSV":{"icaoId":"SBSV","flightCategory":"VFR","rawOb":"METAR SBSV 240200Z 07006KT 9999 FEW024 27/22 Q1012","temp":27,"dewp":22,"wdir":70,"wspd":6,"visib":"6+","altim":1012,"clouds":[{"cover":"FEW","base":2400}],"obsTime":1774317600},"SBTE":{"icaoId":"SBTE","flightCategory":"VFR","rawOb":"METAR SBTE 240200Z 34006KT 9999 FEW035 25/24 Q1011","temp":25,"dewp":24,"wdir":340,"wspd":6,"visib":"6+","altim":1011,"clouds":[{"cover":"FEW","base":3500}],"obsTime":1774317600},"SBMA":{"icaoId":"SBMA","flightCategory":"MVFR","rawOb":"METAR SBMA 240200Z 22005KT 9999 VCTS BKN020 FEW025CB 26/24 Q1011","temp":26,"dewp":24,"wdir":220,"wspd":5,"visib":"6+","altim":1011,"clouds":[{"cover":"BKN","base":2000},{"cover":"FEW","base":2500}],"obsTime":1774317600},"SBUL":{"icaoId":"SBUL","flightCategory":"VFR","rawOb":"METAR SBUL 240200Z 20006KT CAVOK 24/16 Q1015","temp":24,"dewp":16,"wdir":200,"wspd":6,"visib":"6+","altim":1015,"clouds":[],"obsTime":1774317600},"SBME":{"icaoId":"SBME","flightCategory":"VFR","rawOb":"METAR SBME 240200Z 34002KT CAVOK 22/21 Q1012","temp":22,"dewp":21,"wdir":340,"wspd":2,"visib":"6+","altim":1012,"clouds":[],"obsTime":1774317600},"SBUR":{"icaoId":"SBUR","flightCategory":"VFR","rawOb":"METAR SBUR 240200Z 12003KT CAVOK 25/19 Q1014","temp":25,"dewp":19,"wdir":120,"wspd":3,"visib":"6+","altim":1014,"clouds":[],"obsTime":1774317600},"SBFL":{"icaoId":"SBFL","flightCategory":"VFR","rawOb":"METAR SBFL 240200Z 32010KT CAVOK 26/22 Q1011","temp":26,"dewp":22,"wdir":320,"wspd":10,"visib":"6+","altim":1011,"clouds":[],"obsTime":1774317600},"SBVT":{"icaoId":"SBVT","flightCategory":"VFR","rawOb":"METAR SBVT 240200Z 30003KT 9999 VCTS FEW022 SCT031 FEW040CB OVC057 23/22 Q1013","temp":23,"dewp":22,"wdir":300,"wspd":3,"visib":"6+","altim":1013,"clouds":[{"cover":"FEW","base":2200},{"cover":"SCT","base":3100},{"cover":"FEW","base":4000},{"cover":"OVC","base":5700}],"obsTime":1774317600},"SBMG":{"icaoId":"SBMG","flightCategory":"VFR","rawOb":"METAR SBMG 240200Z 14004KT CAVOK 26/22 Q1012","temp":26,"dewp":22,"wdir":140,"wspd":4,"visib":"6+","altim":1012,"clouds":[],"obsTime":1774317600},"SBDN":{"icaoId":"SBDN","flightCategory":"VFR","rawOb":"METAR SBDN 240200Z 09005KT CAVOK 24/20 Q1012","temp":24,"dewp":20,"wdir":90,"wspd":5,"visib":"6+","altim":1012,"clouds":[],"obsTime":1774317600},"SBAR":{"icaoId":"SBAR","flightCategory":"MVFR","rawOb":"METAR SBAR 240200Z 08011KT 9999 BKN023 28/23 Q1011","temp":28,"dewp":23,"wdir":80,"wspd":11,"visib":"6+","altim":1011,"clouds":[{"cover":"BKN","base":2300}],"obsTime":1774317600},"SBPL":{"icaoId":"SBPL","flightCategory":"VFR","rawOb":"METAR SBPL 240200Z 00000KT 9999 FEW020 SCT070 24/24 Q1013","temp":24,"dewp":24,"wdir":0,"wspd":0,"visib":"6+","altim":1013,"clouds":[{"cover":"FEW","base":2000},{"cover":"SCT","base":7000}],"obsTime":1774317600},"SBCO":{"icaoId":"SBCO","flightCategory":"VFR","rawOb":"METAR SBCO 240200Z VRB02KT CAVOK 23/22 Q1008","temp":23,"dewp":22,"wdir":"VRB","wspd":2,"visib":"6+","altim":1008,"clouds":[],"obsTime":1774317600},"SBPS":{"icaoId":"SBPS","flightCategory":"VFR","rawOb":"METAR SBPS 240200Z 13002KT CAVOK 24/23 Q1013","temp":24,"dewp":23,"wdir":130,"wspd":2,"visib":"6+","altim":1013,"clouds":[],"obsTime":1774317600},"SBSC":{"icaoId":"SBSC","flightCategory":"VFR","rawOb":"METAR SBSC 240200Z 04002KT CAVOK 22/20 Q1012","temp":22,"dewp":20,"wdir":40,"wspd":2,"visib":"6+","altim":1012,"clouds":[],"obsTime":1774317600},"SBIP":{"icaoId":"SBIP","flightCategory":"VFR","rawOb":"METAR SBIP 240200Z AUTO 20005KT 9999 -RA OVC031 22/21 Q1015","temp":22,"dewp":21,"wdir":200,"wspd":5,"visib":"6+","altim":1015,"clouds":[{"cover":"OVC","base":3100}],"obsTime":1774317600},"SBOI":{"icaoId":"SBOI","flightCategory":"VFR","rawOb":"METAR SBOI 240200Z AUTO VRB01KT 9999 FEW017 25/24 Q1011","temp":25,"dewp":24,"wdir":"VRB","wspd":1,"visib":"6+","altim":1011,"clouds":[{"cover":"FEW","base":1700}],"obsTime":1774317600},"SBKG":{"icaoId":"SBKG","flightCategory":"MVFR","rawOb":"METAR SBKG 240200Z 10006KT 9999 BKN011 24/22 Q1014","temp":24,"dewp":22,"wdir":100,"wspd":6,"visib":"6+","altim":1014,"clouds":[{"cover":"BKN","base":1100}],"obsTime":1774317600},"SBSM":{"icaoId":"SBSM","flightCategory":"VFR","rawOb":"METAR SBSM 240200Z 34004KT 9999 FEW020 SCT030 BKN100 24/23 Q1008","temp":24,"dewp":23,"wdir":340,"wspd":4,"visib":"6+","altim":1008,"clouds":[{"cover":"FEW","base":2000},{"cover":"SCT","base":3000},{"cover":"BKN","base":10000}],"obsTime":1774317600},"SBAX":{"icaoId":"SBAX","flightCategory":"VFR","rawOb":"METAR SBAX 240200Z AUTO 23004KT CAVOK 22/15 Q1015","temp":22,"dewp":15,"wdir":230,"wspd":4,"visib":"6+","altim":1015,"clouds":[],"obsTime":1774317600},"SBSR":{"icaoId":"SBSR","flightCategory":"VFR","rawOb":"METAR SBSR 240200Z 27002KT CAVOK 26/20 Q1013","temp":26,"dewp":20,"wdir":270,"wspd":2,"visib":"6+","altim":1013,"clouds":[],"obsTime":1774317600},"SBSJ":{"icaoId":"SBSJ","flightCategory":"VFR","rawOb":"METAR SBSJ 240200Z 12007KT 9999 FEW045 SCT070 20/18 Q1015","temp":20,"dewp":18,"wdir":120,"wspd":7,"visib":"6+","altim":1015,"clouds":[{"cover":"FEW","base":4500},{"cover":"SCT","base":7000}],"obsTime":1774317600},"SBBH":{"icaoId":"SBBH","flightCategory":"VFR","rawOb":"METAR SBBH 240200Z 10011KT 9999 SCT048 20/17 Q1016 RETS","temp":20,"dewp":17,"wdir":100,"wspd":11,"visib":"6+","altim":1016,"clouds":[{"cover":"SCT","base":4800}],"obsTime":1774317600},"SBBU":{"icaoId":"SBBU","flightCategory":"VFR","rawOb":"METAR SBBU 240200Z 22004KT CAVOK 27/23 Q1013","temp":27,"dewp":23,"wdir":220,"wspd":4,"visib":"6+","altim":1013,"clouds":[],"obsTime":1774317600},"SBLE":{"icaoId":"SBLE","flightCategory":"VFR","rawOb":"METAR SBLE 240200Z AUTO VRB01KT 9999 BKN033 ///// Q////","temp":null,"dewp":null,"wdir":"VRB","wspd":1,"visib":"6+","altim":null,"clouds":[{"cover":"BKN","base":3300}],"obsTime":1774317600},"SBPF":{"icaoId":"SBPF","flightCategory":"VFR","rawOb":"METAR SBPF 240200Z AUTO 03007KT 9999 SCT001 21/20 Q1014","temp":21,"dewp":20,"wdir":30,"wspd":7,"visib":"6+","altim":1014,"clouds":[{"cover":"SCT","base":100}],"obsTime":1774317600},"SBTA":{"icaoId":"SBTA","flightCategory":"VFR","rawOb":"METAR SBTA 240200Z 14004KT 090V170 9999 BKN045 21/18 Q1014","temp":21,"dewp":18,"wdir":140,"wspd":4,"visib":"6+","altim":1014,"clouds":[{"cover":"BKN","base":4500}],"obsTime":1774317600},"SBAN":{"icaoId":"SBAN","flightCategory":"VFR","rawOb":"METAR SBAN 240200Z 22005KT 9999 VCTS FEW035 FEW040CB 23/16 Q1017","temp":23,"dewp":16,"wdir":220,"wspd":5,"visib":"6+","altim":1017,"clouds":[{"cover":"FEW","base":3500},{"cover":"FEW","base":4000}],"obsTime":1774317600},"SBJP":{"icaoId":"SBJP","flightCategory":"VFR","rawOb":"METAR SBJP 240200Z 14004KT 9999 SCT020 26/23 Q1012","temp":26,"dewp":23,"wdir":140,"wspd":4,"visib":"6+","altim":1012,"clouds":[{"cover":"SCT","base":2000}],"obsTime":1774317600},"SBJV":{"icaoId":"SBJV","flightCategory":"VFR","rawOb":"METAR SBJV 240200Z 33005KT 9999 FEW020 26/23 Q1011","temp":26,"dewp":23,"wdir":330,"wspd":5,"visib":"6+","altim":1011,"clouds":[{"cover":"FEW","base":2000}],"obsTime":1774317600},"SBAF":{"icaoId":"SBAF","flightCategory":"VFR","rawOb":"METAR SBAF 240200Z 27004KT CAVOK 21/21 Q1012","temp":21,"dewp":21,"wdir":270,"wspd":4,"visib":"6+","altim":1012,"clouds":[],"obsTime":1774317600},"SBMT":{"icaoId":"SBMT","flightCategory":"VFR","rawOb":"METAR SBMT 240200Z 10007KT CAVOK 20/17 Q1015","temp":20,"dewp":17,"wdir":100,"wspd":7,"visib":"6+","altim":1015,"clouds":[],"obsTime":1774317600}}}