{"updated":1775302030,"count":81,"data":{"SBLO":{"icaoId":"SBLO","flightCategory":"VFR","rawOb":"METAR SBLO 041000Z 19002KT CAVOK 20/20 Q1017","temp":20,"dewp":20,"wdir":190,"wspd":2,"visib":"6+","altim":1017,"clouds":[],"obsTime":1775296800},"SBVT":{"icaoId":"SBVT","flightCategory":"VFR","rawOb":"METAR SBVT 041000Z 34002KT CAVOK 24/23 Q1015","temp":24,"dewp":23,"wdir":340,"wspd":2,"visib":"6+","altim":1015,"clouds":[],"obsTime":1775296800},"SBBE":{"icaoId":"SBBE","flightCategory":"VFR","rawOb":"METAR SBBE 041000Z 07004KT CAVOK 25/25 Q1011","temp":25,"dewp":25,"wdir":70,"wspd":4,"visib":"6+","altim":1011,"clouds":[],"obsTime":1775296800},"SBUR":{"icaoId":"SBUR","flightCategory":"VFR","rawOb":"METAR SBUR 041000Z 03004KT CAVOK 21/18 Q1019","temp":21,"dewp":18,"wdir":30,"wspd":4,"visib":"6+","altim":1019,"clouds":[],"obsTime":1775296800},"SBBR":{"icaoId":"SBBR","flightCategory":"VFR","rawOb":"METAR SBBR 041000Z 11005KT 9999 SCT008 20/19 Q1020","temp":20,"dewp":19,"wdir":110,"wspd":5,"visib":"6+","altim":1020,"clouds":[{"cover":"SCT","base":800}],"obsTime":1775296800},"SBUL":{"icaoId":"SBUL","flightCategory":"VFR","rawOb":"METAR SBUL 041000Z 13005KT CAVOK 20/19 Q1020","temp":20,"dewp":19,"wdir":130,"wspd":5,"visib":"6+","altim":1020,"clouds":[],"obsTime":1775296800},"SBTE":{"icaoId":"SBTE","flightCategory":"VFR","rawOb":"METAR SBTE 041000Z VRB01KT 9999 FEW008 25/24 Q1011","temp":25,"dewp":24,"wdir":"VRB","wspd":1,"visib":"6+","altim":1011,"clouds":[{"cover":"FEW","base":800}],"obsTime":1775296800},"SBBV":{"icaoId":"SBBV","flightCategory":"VFR","rawOb":"METAR SBBV 041000Z 05003KT 9999 SCT030 FEW040TCU BKN070 25/24 Q1011","temp":25,"dewp":24,"wdir":50,"wspd":3,"visib":"6+","altim":1011,"clouds":[{"cover":"SCT","base":3000},{"cover":"FEW","base":4000},{"cover":"BKN","base":7000}],"obsTime":1775296800},"SBSV":{"icaoId":"SBSV","flightCategory":"VFR","rawOb":"METAR SBSV 041000Z 12006KT 9999 VCSH SCT022 FEW025TCU 27/23 Q1014","temp":27,"dewp":23,"wdir":120,"wspd":6,"visib":"6+","altim":1014,"clouds":[{"cover":"SCT","base":2200},{"cover":"FEW","base":2500}],"obsTime":1775296800},"SBCB":{"icaoId":"SBCB","flightCategory":"VFR","rawOb":"METAR SBCB 041000Z 09004KT 9999 FEW015 SCT060 25/23 Q1013","temp":25,"dewp":23,"wdir":90,"wspd":4,"visib":"6+","altim":1013,"clouds":[{"cover":"FEW","base":1500},{"cover":"SCT","base":6000}],"obsTime":1775296800},"SBSP":{"icaoId":"SBSP","flightCategory":"VFR","rawOb":"METAR SBSP 041000Z 06003KT 030V090 CAVOK 21/19 Q1019","temp":21,"dewp":19,"wdir":60,"wspd":3,"visib":"6+","altim":1019,"clouds":[],"obsTime":1775296800},"SBCF":{"icaoId":"SBCF","flightCategory":"VFR","rawOb":"METAR SBCF 041000Z 17002KT 9999 FEW030 SCT100 21/19 Q1020","temp":21,"dewp":19,"wdir":170,"wspd":2,"visib":"6+","altim":1020,"clouds":[{"cover":"FEW","base":3000},{"cover":"SCT","base":10000}],"obsTime":1775296800},"SBSN":{"icaoId":"SBSN","flightCategory":"VFR","rawOb":"METAR SBSN 041000Z 18004KT CAVOK 24/23 Q1011","temp":24,"dewp":23,"wdir":180,"wspd":4,"visib":"6+","altim":1011,"clouds":[],"obsTime":1775296800},"SBCG":{"icaoId":"SBCG","flightCategory":"VFR","rawOb":"METAR SBCG 041000Z 10002KT CAVOK 22/20 Q1016","temp":22,"dewp":20,"wdir":100,"wspd":2,"visib":"6+","altim":1016,"clouds":[],"obsTime":1775296800},"SBSL":{"icaoId":"SBSL","flightCategory":"VFR","rawOb":"METAR SBSL 041000Z 13006KT CAVOK 26/25 Q1011","temp":26,"dewp":25,"wdir":130,"wspd":6,"visib":"6+","altim":1011,"clouds":[],"obsTime":1775296800},"SBCP":{"icaoId":"SBCP","flightCategory":"VFR","rawOb":"METAR SBCP 041000Z 02003KT CAVOK 24/24 Q1014","temp":24,"dewp":24,"wdir":20,"wspd":3,"visib":"6+","altim":1014,"clouds":[],"obsTime":1775296800},"SBCR":{"icaoId":"SBCR","flightCategory":"VFR","rawOb":"METAR SBCR 041100Z VRB02KT CAVOK 28/24 Q1013","temp":28,"dewp":24,"wdir":"VRB","wspd":2,"visib":"6+","altim":1013,"clouds":[],"obsTime":1775300400},"SBSG":{"icaoId":"SBSG","flightCategory":"VFR","rawOb":"METAR SBSG 041000Z 17003KT 140V220 9999 SCT020 FEW030TCU BKN070 25/24 Q1013","temp":25,"dewp":24,"wdir":170,"wspd":3,"visib":"6+","altim":1013,"clouds":[{"cover":"SCT","base":2000},{"cover":"FEW","base":3000},{"cover":"BKN","base":7000}],"obsTime":1775296800},"SBCT":{"icaoId":"SBCT","flightCategory":"VFR","rawOb":"METAR SBCT 041000Z 00000KT CAVOK 17/17 Q1019","temp":17,"dewp":17,"wdir":0,"wspd":0,"visib":"6+","altim":1019,"clouds":[],"obsTime":1775296800},"SBRF":{"icaoId":"SBRF","flightCategory":"MVFR","rawOb":"METAR SBRF 041000Z VRB02KT 9999 BKN023 BKN080 27/25 Q1014","temp":27,"dewp":25,"wdir":"VRB","wspd":2,"visib":"6+","altim":1014,"clouds":[{"cover":"BKN","base":2300},{"cover":"BKN","base":8000}],"obsTime":1775296800},"SBRB":{"icaoId":"SBRB","flightCategory":"LIFR","rawOb":"METAR SBRB 041000Z 22002KT 0800 FG BKN002 BKN005 23/23 Q1011","temp":23,"dewp":23,"wdir":220,"wspd":2,"visib":0.5,"altim":1011,"clouds":[{"cover":"BKN","base":200},{"cover":"BKN","base":500}],"obsTime":1775296800},"SBEG":{"icaoId":"SBEG","flightCategory":"MVFR","rawOb":"SPECI SBEG 040945Z 30005KT 5000 -TSRA SCT007 SCT020 FEW025CB 22/22 Q1012 RERA","temp":22,"dewp":22,"wdir":300,"wspd":5,"visib":3.11,"altim":1012,"clouds":[{"cover":"SCT","base":700},{"cover":"SCT","base":2000},{"cover":"FEW","base":2500}],"obsTime":1775295900},"SBFI":{"icaoId":"SBFI","flightCategory":"VFR","rawOb":"METAR SBFI 041000Z 08002KT CAVOK 21/21 Q1014","temp":21,"dewp":21,"wdir":80,"wspd":2,"visib":"6+","altim":1014,"clouds":[],"obsTime":1775296800},"SBPV":{"icaoId":"SBPV","flightCategory":"MVFR","rawOb":"METAR SBPV 041000Z COR 29001KT 9999 VCTS SCT006 BKN030 FEW035CB 24/23 Q1010 RETS","temp":24,"dewp":23,"wdir":290,"wspd":1,"visib":"6+","altim":1010,"clouds":[{"cover":"SCT","base":600},{"cover":"BKN","base":3000},{"cover":"FEW","base":3500}],"obsTime":1775296800},"SBPJ":{"icaoId":"SBPJ","flightCategory":"VFR","rawOb":"METAR SBPJ 041000Z 14003KT CAVOK 25/23 Q1014","temp":25,"dewp":23,"wdir":140,"wspd":3,"visib":"6+","altim":1014,"clouds":[],"obsTime":1775296800},"SBFL":{"icaoId":"SBFL","flightCategory":"VFR","rawOb":"METAR SBFL 041000Z 20001KT CAVOK 21/21 Q1013","temp":21,"dewp":21,"wdir":200,"wspd":1,"visib":"6+","altim":1013,"clouds":[],"obsTime":1775296800},"SBFZ":{"icaoId":"SBFZ","flightCategory":"VFR","rawOb":"METAR SBFZ 041000Z 16007KT 9999 SCT020 25/23 Q1012","temp":25,"dewp":23,"wdir":160,"wspd":7,"visib":"6+","altim":1012,"clouds":[{"cover":"SCT","base":2000}],"obsTime":1775296800},"SBPA":{"icaoId":"SBPA","flightCategory":"VFR","rawOb":"METAR SBPA 041000Z 00000KT CAVOK 21/20 Q1013","temp":21,"dewp":20,"wdir":0,"wspd":0,"visib":"6+","altim":1013,"clouds":[],"obsTime":1775296800},"SBNT":{"icaoId":"SBNT","flightCategory":"MVFR","rawOb":"METAR SBNT 041000Z 15004KT 120V180 9999 BKN020 FEW030TCU BKN080 25/24 Q1012","temp":25,"dewp":24,"wdir":150,"wspd":4,"visib":"6+","altim":1012,"clouds":[{"cover":"BKN","base":2000},{"cover":"FEW","base":3000},{"cover":"BKN","base":8000}],"obsTime":1775296800},"SBGL":{"icaoId":"SBGL","flightCategory":"VFR","rawOb":"METAR SBGL 041000Z 01004KT 9999 FEW023 SCT100 23/22 Q1014","temp":23,"dewp":22,"wdir":10,"wspd":4,"visib":"6+","altim":1014,"clouds":[{"cover":"FEW","base":2300},{"cover":"SCT","base":10000}],"obsTime":1775296800},"SBGO":{"icaoId":"SBGO","flightCategory":"VFR","rawOb":"METAR SBGO 041000Z 00000KT CAVOK 21/20 Q1019","temp":21,"dewp":20,"wdir":0,"wspd":0,"visib":"6+","altim":1019,"clouds":[],"obsTime":1775296800},"SBMQ":{"icaoId":"SBMQ","flightCategory":"IFR","rawOb":"METAR SBMQ 041000Z 01005KT 9999 BKN005 25/25 Q1011","temp":25,"dewp":25,"wdir":10,"wspd":5,"visib":"6+","altim":1011,"clouds":[{"cover":"BKN","base":500}],"obsTime":1775296800},"SBMO":{"icaoId":"SBMO","flightCategory":"MVFR","rawOb":"METAR SBMO 041000Z 35003KT 5000 -RA BR BKN017 24/24 Q1014","temp":24,"dewp":24,"wdir":350,"wspd":3,"visib":3.11,"altim":1014,"clouds":[{"cover":"BKN","base":1700}],"obsTime":1775296800},"SBAT":{"icaoId":"SBAT","flightCategory":"MVFR","rawOb":"METAR SBAT 041100Z 00000KT 5000 BR NSC 25/25 Q1014","temp":25,"dewp":25,"wdir":0,"wspd":0,"visib":3.11,"altim":1014,"clouds":[],"obsTime":1775300400},"SBGR":{"icaoId":"SBGR","flightCategory":"LIFR","rawOb":"METAR SBGR 041000Z 06004KT 7000 3000E BCFG BKN004 19/19 Q1019","temp":19,"dewp":19,"wdir":60,"wspd":4,"visib":4.35,"altim":1019,"clouds":[{"cover":"BKN","base":400}],"obsTime":1775296800},"SBHT":{"icaoId":"SBHT","flightCategory":"VFR","rawOb":"METAR SBHT 041000Z 00000KT 9999 SCT015 24/23 Q1011","temp":24,"dewp":23,"wdir":0,"wspd":0,"visib":"6+","altim":1011,"clouds":[{"cover":"SCT","base":1500}],"obsTime":1775296800},"SBMK":{"icaoId":"SBMK","flightCategory":"VFR","rawOb":"METAR SBMK 041000Z 25001KT CAVOK 21/19 Q1018","temp":21,"dewp":19,"wdir":250,"wspd":1,"visib":"6+","altim":1018,"clouds":[],"obsTime":1775296800},"SBIL":{"icaoId":"SBIL","flightCategory":"VFR","rawOb":"METAR SBIL 041000Z 26004KT 9999 SCT020 25/24 Q1015","temp":25,"dewp":24,"wdir":260,"wspd":4,"visib":"6+","altim":1015,"clouds":[{"cover":"SCT","base":2000}],"obsTime":1775296800},"SBMG":{"icaoId":"SBMG","flightCategory":"VFR","rawOb":"METAR SBMG 041000Z 06003KT CAVOK 22/20 Q1016","temp":22,"dewp":20,"wdir":60,"wspd":3,"visib":"6+","altim":1016,"clouds":[],"obsTime":1775296800},"SBJU":{"icaoId":"SBJU","flightCategory":"MVFR","rawOb":"METAR SBJU 041000Z 15004KT 9999 BKN020 23/22 Q1016","temp":23,"dewp":22,"wdir":150,"wspd":4,"visib":"6+","altim":1016,"clouds":[{"cover":"BKN","base":2000}],"obsTime":1775296800},"SBME":{"icaoId":"SBME","flightCategory":"VFR","rawOb":"METAR SBME 041000Z 05006KT CAVOK 25/23 Q1013","temp":25,"dewp":23,"wdir":50,"wspd":6,"visib":"6+","altim":1013,"clouds":[],"obsTime":1775296800},"SBKP":{"icaoId":"SBKP","flightCategory":"VFR","rawOb":"METAR SBKP 041000Z 09002KT CAVOK 21/19 Q1018","temp":21,"dewp":19,"wdir":90,"wspd":2,"visib":"6+","altim":1018,"clouds":[],"obsTime":1775296800},"SBMA":{"icaoId":"SBMA","flightCategory":"VFR","rawOb":"METAR SBMA 041000Z 00000KT 9999 FEW020TCU 25/24 Q1012","temp":25,"dewp":24,"wdir":0,"wspd":0,"visib":"6+","altim":1012,"clouds":[{"cover":"FEW","base":2000}],"obsTime":1775296800},"SBPP":{"icaoId":"SBPP","flightCategory":"VFR","rawOb":"SPECI SBPP 041115Z 05005KT CAVOK 25/19 Q1017","temp":25,"dewp":19,"wdir":50,"wspd":5,"visib":"6+","altim":1017,"clouds":[],"obsTime":1775301300},"SBTF":{"icaoId":"SBTF","flightCategory":"VFR","rawOb":"SPECI SBTF 041115Z 00000KT 9999 SCT040 SCT070 23/23 Q1010","temp":23,"dewp":23,"wdir":0,"wspd":0,"visib":"6+","altim":1010,"clouds":[{"cover":"SCT","base":4000},{"cover":"SCT","base":7000}],"obsTime":1775301300},"SBCC":{"icaoId":"SBCC","flightCategory":"VFR","rawOb":"METAR SBCC 041100Z 05003KT CAVOK 25/22 Q1015","temp":25,"dewp":22,"wdir":50,"wspd":3,"visib":"6+","altim":1015,"clouds":[],"obsTime":1775300400},"SBSC":{"icaoId":"SBSC","flightCategory":"MVFR","rawOb":"METAR SBSC 041000Z 35011KT 8000 FEW015 SCT050 25/22 Q1014","temp":25,"dewp":22,"wdir":350,"wspd":11,"visib":4.97,"altim":1014,"clouds":[{"cover":"FEW","base":1500},{"cover":"SCT","base":5000}],"obsTime":1775296800},"SBCJ":{"icaoId":"SBCJ","flightCategory":"VFR","rawOb":"SPECI SBCJ 041015Z 16002KT 9999 FEW013 24/21 Q1016","temp":24,"dewp":21,"wdir":160,"wspd":2,"visib":"6+","altim":1016,"clouds":[{"cover":"FEW","base":1300}],"obsTime":1775297700},"SBSJ":{"icaoId":"SBSJ","flightCategory":"LIFR","rawOb":"SPECI SBSJ 040940Z 35002KT 3000 BR OVC004 19/19 Q1018","temp":19,"dewp":19,"wdir":350,"wspd":2,"visib":1.86,"altim":1018,"clouds":[{"cover":"OVC","base":400}],"obsTime":1775295600},"SBVH":{"icaoId":"SBVH","flightCategory":"VFR","rawOb":"METAR SBVH 041100Z 09007KT CAVOK 23/22 Q1015","temp":23,"dewp":22,"wdir":90,"wspd":7,"visib":"6+","altim":1015,"clouds":[],"obsTime":1775300400},"SBCO":{"icaoId":"SBCO","flightCategory":"IFR","rawOb":"METAR SBCO 041000Z 31003KT 4500 BR FEW002 19/19 Q1013","temp":19,"dewp":19,"wdir":310,"wspd":3,"visib":2.8,"altim":1013,"clouds":[{"cover":"FEW","base":200}],"obsTime":1775296800},"SBSM":{"icaoId":"SBSM","flightCategory":"LIFR","rawOb":"METAR SBSM 041000Z 01001KT 0800 0300NE R29///// R11/P2000 FG SCT002 19/19 Q1013","temp":19,"dewp":19,"wdir":10,"wspd":1,"visib":0.5,"altim":1013,"clouds":[{"cover":"SCT","base":200}],"obsTime":1775296800},"SBSR":{"icaoId":"SBSR","flightCategory":"VFR","rawOb":"METAR SBSR 041000Z 06004KT CAVOK 23/19 Q1017","temp":23,"dewp":19,"wdir":60,"wspd":4,"visib":"6+","altim":1017,"clouds":[],"obsTime":1775296800},"SBAX":{"icaoId":"SBAX","flightCategory":"VFR","rawOb":"METAR SBAX 041000Z AUTO 09002KT CAVOK 20/20 Q1020","temp":20,"dewp":20,"wdir":90,"wspd":2,"visib":"6+","altim":1020,"clouds":[],"obsTime":1775296800},"SBPL":{"icaoId":"SBPL","flightCategory":"MVFR","rawOb":"METAR SBPL 041000Z 11007KT 9999 BKN022 25/21 Q1015","temp":25,"dewp":21,"wdir":110,"wspd":7,"visib":"6+","altim":1015,"clouds":[{"cover":"BKN","base":2200}],"obsTime":1775296800},"SBPS":{"icaoId":"SBPS","flightCategory":"MVFR","rawOb":"METAR SBPS 041000Z 25003KT 7000 -RA SCT015 BKN100 24/23 Q1016","temp":24,"dewp":23,"wdir":250,"wspd":3,"visib":4.35,"altim":1016,"clouds":[{"cover":"SCT","base":1500},{"cover":"BKN","base":10000}],"obsTime":1775296800},"SBAR":{"icaoId":"SBAR","flightCategory":"VFR","rawOb":"METAR SBAR 041000Z 10006KT 9999 VCSH SCT021 FEW021TCU 29/24 Q1014","temp":29,"dewp":24,"wdir":100,"wspd":6,"visib":"6+","altim":1014,"clouds":[{"cover":"SCT","base":2100},{"cover":"FEW","base":2100}],"obsTime":1775296800},"SBBU":{"icaoId":"SBBU","flightCategory":"VFR","rawOb":"METAR SBBU 041000Z 02003KT CAVOK 23/22 Q1017","temp":23,"dewp":22,"wdir":20,"wspd":3,"visib":"6+","altim":1017,"clouds":[],"obsTime":1775296800},"SBOI":{"icaoId":"SBOI","flightCategory":"IFR","rawOb":"METAR SBOI 041000Z AUTO 00000KT 1900 // VV001 24/24 Q1011","temp":24,"dewp":24,"wdir":0,"wspd":0,"visib":1.18,"altim":1011,"clouds":[{"cover":"OVX","base":100}],"obsTime":1775296800},"SBPB":{"icaoId":"SBPB","flightCategory":"VFR","rawOb":"SPECI SBPB 041015Z 10005KT 9999 FEW020 26/10 Q1011","temp":26,"dewp":10,"wdir":100,"wspd":5,"visib":"6+","altim":1011,"clouds":[{"cover":"FEW","base":2000}],"obsTime":1775297700},"SBCA":{"icaoId":"SBCA","flightCategory":"VFR","rawOb":"METAR SBCA 041100Z 36005KT CAVOK 24/19 Q1019","temp":24,"dewp":19,"wdir":360,"wspd":5,"visib":"6+","altim":1019,"clouds":[],"obsTime":1775300400},"SBTT":{"icaoId":"SBTT","flightCategory":"LIFR","rawOb":"METAR SBTT 041100Z 07003KT 3500 BR BKN003 OVC006 23/22 Q1012","temp":23,"dewp":22,"wdir":70,"wspd":3,"visib":2.17,"altim":1012,"clouds":[{"cover":"BKN","base":300},{"cover":"OVC","base":600}],"obsTime":1775300400},"SBUY":{"icaoId":"SBUY","flightCategory":"IFR","rawOb":"METAR SBUY 041100Z 03001KT 4000 BR FEW003 BKN090 21/21 Q1010","temp":21,"dewp":21,"wdir":30,"wspd":1,"visib":2.49,"altim":1010,"clouds":[{"cover":"FEW","base":300},{"cover":"BKN","base":9000}],"obsTime":1775300400},"SBDN":{"icaoId":"SBDN","flightCategory":"VFR","rawOb":"METAR SBDN 041000Z 10002KT CAVOK 22/19 Q1016","temp":22,"dewp":19,"wdir":100,"wspd":2,"visib":"6+","altim":1016,"clouds":[],"obsTime":1775296800},"SBBH":{"icaoId":"SBBH","flightCategory":"VFR","rawOb":"METAR SBBH 041000Z 10003KT CAVOK 22/18 Q1019","temp":22,"dewp":18,"wdir":100,"wspd":3,"visib":"6+","altim":1019,"clouds":[],"obsTime":1775296800},"SBES":{"icaoId":"SBES","flightCategory":"VFR","rawOb":"METAR SBES 041000Z 03004KT 340V070 9999 FEW010 BKN080 23/// Q1013","temp":null,"dewp":null,"wdir":30,"wspd":4,"visib":"6+","altim":1013,"clouds":[{"cover":"FEW","base":1000},{"cover":"BKN","base":8000}],"obsTime":1775296800},"SBIP":{"icaoId":"SBIP","flightCategory":"VFR","rawOb":"METAR SBIP 041000Z AUTO 00000KT 9999 SCT025 23/22 Q1017","temp":23,"dewp":22,"wdir":0,"wspd":0,"visib":"6+","altim":1017,"clouds":[{"cover":"SCT","base":2500}],"obsTime":1775296800},"SBKG":{"icaoId":"SBKG","flightCategory":"VFR","rawOb":"METAR SBKG 041000Z 12006KT 9999 FEW018 SCT100 24/22 Q1016","temp":24,"dewp":22,"wdir":120,"wspd":6,"visib":"6+","altim":1016,"clouds":[{"cover":"FEW","base":1800},{"cover":"SCT","base":10000}],"obsTime":1775296800},"SBLE":{"icaoId":"SBLE","flightCategory":"MVFR","rawOb":"METAR SBLE 041000Z AUTO 16004KT 120V200 9999 FEW019 OVC028 ///// Q////","temp":null,"dewp":null,"wdir":160,"wspd":4,"visib":"6+","altim":null,"clouds":[{"cover":"FEW","base":1900},{"cover":"OVC","base":2800}],"obsTime":1775296800},"SBIH":{"icaoId":"SBIH","flightCategory":"VFR","rawOb":"METAR SBIH 041100Z 35002KT 9999 FEW008 25/24 Q1012","temp":25,"dewp":24,"wdir":350,"wspd":2,"visib":"6+","altim":1012,"clouds":[{"cover":"FEW","base":800}],"obsTime":1775300400},"SBJV":{"icaoId":"SBJV","flightCategory":"VFR","rawOb":"METAR SBJV 041000Z 29001KT CAVOK 22/22 Q1013","temp":22,"dewp":22,"wdir":290,"wspd":1,"visib":"6+","altim":1013,"clouds":[],"obsTime":1775296800},"SBPF":{"icaoId":"SBPF","flightCategory":"VFR","rawOb":"METAR SBPF 041000Z 06010KT CAVOK 19/17 Q1017","temp":19,"dewp":17,"wdir":60,"wspd":10,"visib":"6+","altim":1017,"clouds":[],"obsTime":1775296800},"SBAN":{"icaoId":"SBAN","flightCategory":"LIFR","rawOb":"METAR SBAN 041000Z 10005KT 1000 R06L/P2000 R24R/P2000 BR FEW001 BKN002 19/18 Q1021","temp":19,"dewp":18,"wdir":100,"wspd":5,"visib":0.62,"altim":1021,"clouds":[{"cover":"FEW","base":100},{"cover":"BKN","base":200}],"obsTime":1775296800},"SBAF":{"icaoId":"SBAF","flightCategory":"VFR","rawOb":"METAR SBAF 041000Z 10003KT CAVOK 23/23 Q1014","temp":23,"dewp":23,"wdir":100,"wspd":3,"visib":"6+","altim":1014,"clouds":[],"obsTime":1775296800},"SBGW":{"icaoId":"SBGW","flightCategory":"IFR","rawOb":"METAR SBGW 041000Z 35002KT 5000 BR BKN007 19/16 Q1018","temp":19,"dewp":16,"wdir":350,"wspd":2,"visib":3.11,"altim":1018,"clouds":[{"cover":"BKN","base":700}],"obsTime":1775296800},"SBJR":{"icaoId":"SBJR","flightCategory":"VFR","rawOb":"METAR SBJR 041000Z 33001KT 9999 FEW020 SCT100 25/22 Q1013","temp":25,"dewp":22,"wdir":330,"wspd":1,"visib":"6+","altim":1013,"clouds":[{"cover":"FEW","base":2000},{"cover":"SCT","base":10000}],"obsTime":1775296800},"SBLS":{"icaoId":"SBLS","flightCategory":"VFR","rawOb":"METAR SBLS 041000Z 16005KT 9999 FEW015 SCT100 21/18 Q1019","temp":21,"dewp":18,"wdir":160,"wspd":5,"visib":"6+","altim":1019,"clouds":[{"cover":"FEW","base":1500},{"cover":"SCT","base":10000}],"obsTime":1775296800},"SBMT":{"icaoId":"SBMT","flightCategory":"VFR","rawOb":"METAR SBMT 041000Z 10003KT CAVOK 20/19 Q1018","temp":20,"dewp":19,"wdir":100,"wspd":3,"visib":"6+","altim":1018,"clouds":[],"obsTime":1775296800},"SBST":{"icaoId":"SBST","flightCategory":"VFR","rawOb":"METAR SBST 041100Z 15002KT CAVOK 25/24 Q1014","temp":25,"dewp":24,"wdir":150,"wspd":2,"visib":"6+","altim":1014,"clouds":[],"obsTime":1775300400},"SBTA":{"icaoId":"SBTA","flightCategory":"LIFR","rawOb":"METAR SBTA 041000Z VRB02KT 0500 FG VV002 19/18 Q1017","temp":19,"dewp":18,"wdir":"VRB","wspd":2,"visib":0.31,"altim":1017,"clouds":[{"cover":"OVX","base":200}],"obsTime":1775296800},"SBJP":{"icaoId":"SBJP","flightCategory":"VFR","rawOb":"METAR SBJP 041000Z 17004KT 9999 SCT022 BKN070 26/24 Q1014","temp":26,"dewp":24,"wdir":170,"wspd":4,"visib":"6+","altim":1014,"clouds":[{"cover":"SCT","base":2200},{"cover":"BKN","base":7000}],"obsTime":1775296800}}}