{"updated":1778104203,"count":84,"data":{"SBBR":{"icaoId":"SBBR","flightCategory":"VFR","rawOb":"METAR SBBR 062000Z 09009KT 9999 SCT045 26/13 Q1020","temp":26,"dewp":13,"wdir":90,"wspd":9,"visib":"6+","altim":1020,"clouds":[{"cover":"SCT","base":4500}],"obsTime":1778097600},"SBLO":{"icaoId":"SBLO","flightCategory":"VFR","rawOb":"METAR SBLO 062000Z 06004KT CAVOK 29/19 Q1017","temp":29,"dewp":19,"wdir":60,"wspd":4,"visib":"6+","altim":1017,"clouds":[],"obsTime":1778097600},"SBCG":{"icaoId":"SBCG","flightCategory":"VFR","rawOb":"METAR SBCG 062000Z 01010KT CAVOK 31/14 Q1015","temp":31,"dewp":14,"wdir":10,"wspd":10,"visib":"6+","altim":1015,"clouds":[],"obsTime":1778097600},"SBMA":{"icaoId":"SBMA","flightCategory":"VFR","rawOb":"METAR SBMA 062000Z 17002KT 9999 FEW020 FEW025TCU 32/23 Q1010","temp":32,"dewp":23,"wdir":170,"wspd":2,"visib":"6+","altim":1010,"clouds":[{"cover":"FEW","base":2000},{"cover":"FEW","base":2500}],"obsTime":1778097600},"SBFI":{"icaoId":"SBFI","flightCategory":"VFR","rawOb":"METAR SBFI 062000Z 03007KT CAVOK 29/23 Q1013","temp":29,"dewp":23,"wdir":30,"wspd":7,"visib":"6+","altim":1013,"clouds":[],"obsTime":1778097600},"SBME":{"icaoId":"SBME","flightCategory":"VFR","rawOb":"METAR SBME 062000Z 08009KT 9999 FEW025 26/23 Q1017","temp":26,"dewp":23,"wdir":80,"wspd":9,"visib":"6+","altim":1017,"clouds":[{"cover":"FEW","base":2500}],"obsTime":1778097600},"SBMG":{"icaoId":"SBMG","flightCategory":"VFR","rawOb":"METAR SBMG 062000Z 07008KT 9999 FEW045 28/17 Q1016","temp":28,"dewp":17,"wdir":70,"wspd":8,"visib":"6+","altim":1016,"clouds":[{"cover":"FEW","base":4500}],"obsTime":1778097600},"SBCP":{"icaoId":"SBCP","flightCategory":"VFR","rawOb":"METAR SBCP 062000Z 10009KT 9999 FEW025TCU 27/23 Q1018","temp":27,"dewp":23,"wdir":100,"wspd":9,"visib":"6+","altim":1018,"clouds":[{"cover":"FEW","base":2500}],"obsTime":1778097600},"SBMK":{"icaoId":"SBMK","flightCategory":"VFR","rawOb":"METAR SBMK 062000Z 09008KT 9999 FEW045 BKN070 27/16 Q1019","temp":27,"dewp":16,"wdir":90,"wspd":8,"visib":"6+","altim":1019,"clouds":[{"cover":"FEW","base":4500},{"cover":"BKN","base":7000}],"obsTime":1778097600},"SBFL":{"icaoId":"SBFL","flightCategory":"VFR","rawOb":"METAR SBFL 062000Z 32006KT CAVOK 25/22 Q1015","temp":25,"dewp":22,"wdir":320,"wspd":6,"visib":"6+","altim":1015,"clouds":[],"obsTime":1778097600},"SBBE":{"icaoId":"SBBE","flightCategory":"VFR","rawOb":"METAR SBBE 062000Z 06008KT 9999 FEW049 SCT100 28/24 Q1010","temp":28,"dewp":24,"wdir":60,"wspd":8,"visib":"6+","altim":1010,"clouds":[{"cover":"FEW","base":4900},{"cover":"SCT","base":10000}],"obsTime":1778097600},"SBMO":{"icaoId":"SBMO","flightCategory":"VFR","rawOb":"METAR SBMO 062000Z 13006KT 9999 SCT025 27/23 Q1013","temp":27,"dewp":23,"wdir":130,"wspd":6,"visib":"6+","altim":1013,"clouds":[{"cover":"SCT","base":2500}],"obsTime":1778097600},"SBMQ":{"icaoId":"SBMQ","flightCategory":"VFR","rawOb":"METAR SBMQ 062000Z 01010KT 9999 VCSH SCT019 FEW040TCU BKN100 28/25 Q1010","temp":28,"dewp":25,"wdir":10,"wspd":10,"visib":"6+","altim":1010,"clouds":[{"cover":"SCT","base":1900},{"cover":"FEW","base":4000},{"cover":"BKN","base":10000}],"obsTime":1778097600},"SBFZ":{"icaoId":"SBFZ","flightCategory":"VFR","rawOb":"METAR SBFZ 062000Z 09010KT 9999 FEW023 29/23 Q1011","temp":29,"dewp":23,"wdir":90,"wspd":10,"visib":"6+","altim":1011,"clouds":[{"cover":"FEW","base":2300}],"obsTime":1778097600},"SBNT":{"icaoId":"SBNT","flightCategory":"VFR","rawOb":"METAR SBNT 062000Z 15007KT 9999 FEW030 28/23 Q1011","temp":28,"dewp":23,"wdir":150,"wspd":7,"visib":"6+","altim":1011,"clouds":[{"cover":"FEW","base":3000}],"obsTime":1778097600},"SBCB":{"icaoId":"SBCB","flightCategory":"VFR","rawOb":"METAR SBCB 062000Z 08012KT CAVOK 25/23 Q1018","temp":25,"dewp":23,"wdir":80,"wspd":12,"visib":"6+","altim":1018,"clouds":[],"obsTime":1778097600},"SBGL":{"icaoId":"SBGL","flightCategory":"VFR","rawOb":"METAR SBGL 062000Z 14006KT CAVOK 27/22 Q1016","temp":27,"dewp":22,"wdir":140,"wspd":6,"visib":"6+","altim":1016,"clouds":[],"obsTime":1778097600},"SBPA":{"icaoId":"SBPA","flightCategory":"VFR","rawOb":"METAR SBPA 062000Z 29003KT 270V340 CAVOK 32/20 Q1012","temp":32,"dewp":20,"wdir":290,"wspd":3,"visib":"6+","altim":1012,"clouds":[],"obsTime":1778097600},"SBGO":{"icaoId":"SBGO","flightCategory":"VFR","rawOb":"METAR SBGO 062000Z 09005KT CAVOK 29/15 Q1018","temp":29,"dewp":15,"wdir":90,"wspd":5,"visib":"6+","altim":1018,"clouds":[],"obsTime":1778097600},"SBPJ":{"icaoId":"SBPJ","flightCategory":"VFR","rawOb":"METAR SBPJ 062000Z 00000KT 9999 FEW045 32/22 Q1013","temp":32,"dewp":22,"wdir":0,"wspd":0,"visib":"6+","altim":1013,"clouds":[{"cover":"FEW","base":4500}],"obsTime":1778097600},"SBCR":{"icaoId":"SBCR","flightCategory":"VFR","rawOb":"METAR SBCR 062000Z 03010KT 360V060 9999 FEW040 34/20 Q1010","temp":34,"dewp":20,"wdir":30,"wspd":10,"visib":"6+","altim":1010,"clouds":[{"cover":"FEW","base":4000}],"obsTime":1778097600},"SBPV":{"icaoId":"SBPV","flightCategory":"MVFR","rawOb":"METAR SBPV 062000Z 01009KT 9999 VCSH BKN020 FEW026TCU 28/24 Q1010","temp":28,"dewp":24,"wdir":10,"wspd":9,"visib":"6+","altim":1010,"clouds":[{"cover":"BKN","base":2000},{"cover":"FEW","base":2600}],"obsTime":1778097600},"SBRB":{"icaoId":"SBRB","flightCategory":"MVFR","rawOb":"METAR SBRB 062000Z 32004KT 9999 BKN030 31/24 Q1011","temp":31,"dewp":24,"wdir":320,"wspd":4,"visib":"6+","altim":1011,"clouds":[{"cover":"BKN","base":3000}],"obsTime":1778097600},"SBCT":{"icaoId":"SBCT","flightCategory":"VFR","rawOb":"METAR SBCT 062000Z 04007KT CAVOK 27/16 Q1021","temp":27,"dewp":16,"wdir":40,"wspd":7,"visib":"6+","altim":1021,"clouds":[],"obsTime":1778097600},"SBRF":{"icaoId":"SBRF","flightCategory":"VFR","rawOb":"METAR SBRF 062000Z 15005KT 9999 FEW022 BKN050 26/24 Q1012","temp":26,"dewp":24,"wdir":150,"wspd":5,"visib":"6+","altim":1012,"clouds":[{"cover":"FEW","base":2200},{"cover":"BKN","base":5000}],"obsTime":1778097600},"SBGR":{"icaoId":"SBGR","flightCategory":"VFR","rawOb":"METAR SBGR 062000Z 07008KT CAVOK 28/15 Q1020","temp":28,"dewp":15,"wdir":70,"wspd":8,"visib":"6+","altim":1020,"clouds":[],"obsTime":1778097600},"SBSG":{"icaoId":"SBSG","flightCategory":"VFR","rawOb":"METAR SBSG 062000Z 15004KT 110V190 9999 FEW025 27/23 Q1011","temp":27,"dewp":23,"wdir":150,"wspd":4,"visib":"6+","altim":1011,"clouds":[{"cover":"FEW","base":2500}],"obsTime":1778097600},"SBHT":{"icaoId":"SBHT","flightCategory":"VFR","rawOb":"METAR SBHT 062000Z 09004KT 9999 FEW030 31/23 Q1010","temp":31,"dewp":23,"wdir":90,"wspd":4,"visib":"6+","altim":1010,"clouds":[{"cover":"FEW","base":3000}],"obsTime":1778097600},"SBSL":{"icaoId":"SBSL","flightCategory":"MVFR","rawOb":"METAR SBSL 062000Z 06005KT 9999 FEW012 BKN014 25/24 Q1011 RETS","temp":25,"dewp":24,"wdir":60,"wspd":5,"visib":"6+","altim":1011,"clouds":[{"cover":"FEW","base":1200},{"cover":"BKN","base":1400}],"obsTime":1778097600},"SBBV":{"icaoId":"SBBV","flightCategory":"VFR","rawOb":"METAR SBBV 062000Z 11007KT 9999 SCT035 FEW040TCU 32/21 Q1011","temp":32,"dewp":21,"wdir":110,"wspd":7,"visib":"6+","altim":1011,"clouds":[{"cover":"SCT","base":3500},{"cover":"FEW","base":4000}],"obsTime":1778097600},"SBCZ":{"icaoId":"SBCZ","flightCategory":"VFR","rawOb":"METAR SBCZ 062000Z 11003KT 9999 SCT030 31/24 Q1011","temp":31,"dewp":24,"wdir":110,"wspd":3,"visib":"6+","altim":1011,"clouds":[{"cover":"SCT","base":3000}],"obsTime":1778097600},"SBSN":{"icaoId":"SBSN","flightCategory":"VFR","rawOb":"METAR SBSN 062000Z 08005KT 030V100 9999 FEW023 FEW025TCU 30/23 Q1010","temp":30,"dewp":23,"wdir":80,"wspd":5,"visib":"6+","altim":1010,"clouds":[{"cover":"FEW","base":2300},{"cover":"FEW","base":2500}],"obsTime":1778097600},"SBIL":{"icaoId":"SBIL","flightCategory":"MVFR","rawOb":"METAR SBIL 062000Z COR 22005KT 8000 VCSH SCT018 FEW020TCU BKN060 25/22 Q1016","temp":25,"dewp":22,"wdir":220,"wspd":5,"visib":4.97,"altim":1016,"clouds":[{"cover":"SCT","base":1800},{"cover":"FEW","base":2000},{"cover":"BKN","base":6000}],"obsTime":1778097600},"SBSP":{"icaoId":"SBSP","flightCategory":"VFR","rawOb":"METAR SBSP 062000Z 17008KT CAVOK 27/18 Q1021","temp":27,"dewp":18,"wdir":170,"wspd":8,"visib":"6+","altim":1021,"clouds":[],"obsTime":1778097600},"SBSV":{"icaoId":"SBSV","flightCategory":"VFR","rawOb":"METAR SBSV 062000Z 19006KT 9999 SCT022 FEW026TCU SCT030 27/24 Q1014","temp":27,"dewp":24,"wdir":190,"wspd":6,"visib":"6+","altim":1014,"clouds":[{"cover":"SCT","base":2200},{"cover":"FEW","base":2600},{"cover":"SCT","base":3000}],"obsTime":1778097600},"SBJU":{"icaoId":"SBJU","flightCategory":"VFR","rawOb":"METAR SBJU 062000Z 12003KT 9999 FEW022 29/19 Q1013","temp":29,"dewp":19,"wdir":120,"wspd":3,"visib":"6+","altim":1013,"clouds":[{"cover":"FEW","base":2200}],"obsTime":1778097600},"SBCF":{"icaoId":"SBCF","flightCategory":"VFR","rawOb":"METAR SBCF 062000Z 13008KT 9999 SCT045 25/17 Q1022","temp":25,"dewp":17,"wdir":130,"wspd":8,"visib":"6+","altim":1022,"clouds":[{"cover":"SCT","base":4500}],"obsTime":1778097600},"SBTE":{"icaoId":"SBTE","flightCategory":"VFR","rawOb":"METAR SBTE 062000Z 15007KT 9999 FEW035 32/23 Q1009","temp":32,"dewp":23,"wdir":150,"wspd":7,"visib":"6+","altim":1009,"clouds":[{"cover":"FEW","base":3500}],"obsTime":1778097600},"SBKP":{"icaoId":"SBKP","flightCategory":"VFR","rawOb":"METAR SBKP 062000Z 13004KT 100V170 CAVOK 30/14 Q1019","temp":30,"dewp":14,"wdir":130,"wspd":4,"visib":"6+","altim":1019,"clouds":[],"obsTime":1778097600},"SBUL":{"icaoId":"SBUL","flightCategory":"VFR","rawOb":"METAR SBUL 062000Z 14005KT 9999 FEW049 27/14 Q1021","temp":27,"dewp":14,"wdir":140,"wspd":5,"visib":"6+","altim":1021,"clouds":[{"cover":"FEW","base":4900}],"obsTime":1778097600},"SBUR":{"icaoId":"SBUR","flightCategory":"VFR","rawOb":"METAR SBUR 062000Z 08006KT CAVOK 29/13 Q1019","temp":29,"dewp":13,"wdir":80,"wspd":6,"visib":"6+","altim":1019,"clouds":[],"obsTime":1778097600},"SBEG":{"icaoId":"SBEG","flightCategory":"VFR","rawOb":"METAR SBEG 062000Z 23008KT 9999 SCT025 SCT100 29/25 Q1011","temp":29,"dewp":25,"wdir":230,"wspd":8,"visib":"6+","altim":1011,"clouds":[{"cover":"SCT","base":2500},{"cover":"SCT","base":10000}],"obsTime":1778097600},"SBVT":{"icaoId":"SBVT","flightCategory":"VFR","rawOb":"METAR SBVT 062000Z 15009KT 9999 FEW030 SCT100 25/23 Q1018","temp":25,"dewp":23,"wdir":150,"wspd":9,"visib":"6+","altim":1018,"clouds":[{"cover":"FEW","base":3000},{"cover":"SCT","base":10000}],"obsTime":1778097600},"SBAT":{"icaoId":"SBAT","flightCategory":"VFR","rawOb":"METAR SBAT 062000Z 13004KT 9999 SCT045 31/19 Q1012","temp":31,"dewp":19,"wdir":130,"wspd":4,"visib":"6+","altim":1012,"clouds":[{"cover":"SCT","base":4500}],"obsTime":1778097600},"SBPB":{"icaoId":"SBPB","flightCategory":"VFR","rawOb":"METAR SBPB 062000Z 36004KT 9999 SCT016 FEW025TCU BKN080 29/26 Q1010","temp":29,"dewp":26,"wdir":360,"wspd":4,"visib":"6+","altim":1010,"clouds":[{"cover":"SCT","base":1600},{"cover":"FEW","base":2500},{"cover":"BKN","base":8000}],"obsTime":1778097600},"SBCJ":{"icaoId":"SBCJ","flightCategory":"VFR","rawOb":"METAR SBCJ 062000Z 15004KT 9999 FEW020 28/21 Q1015","temp":28,"dewp":21,"wdir":150,"wspd":4,"visib":"6+","altim":1015,"clouds":[{"cover":"FEW","base":2000}],"obsTime":1778097600},"SBCO":{"icaoId":"SBCO","flightCategory":"VFR","rawOb":"METAR SBCO 062000Z 32002KT 9999 FEW010 31/23 Q1012","temp":31,"dewp":23,"wdir":320,"wspd":2,"visib":"6+","altim":1012,"clouds":[{"cover":"FEW","base":1000}],"obsTime":1778097600},"SBPL":{"icaoId":"SBPL","flightCategory":"VFR","rawOb":"METAR SBPL 062000Z 13009KT 9999 FEW025 32/16 Q1013","temp":32,"dewp":16,"wdir":130,"wspd":9,"visib":"6+","altim":1013,"clouds":[{"cover":"FEW","base":2500}],"obsTime":1778097600},"SBPP":{"icaoId":"SBPP","flightCategory":"VFR","rawOb":"METAR SBPP 062000Z 04010KT 9999 FEW020 29/18 Q1016","temp":29,"dewp":18,"wdir":40,"wspd":10,"visib":"6+","altim":1016,"clouds":[{"cover":"FEW","base":2000}],"obsTime":1778097600},"SBBH":{"icaoId":"SBBH","flightCategory":"VFR","rawOb":"METAR SBBH 062000Z 10008KT 9999 SCT045 25/15 Q1021","temp":25,"dewp":15,"wdir":100,"wspd":8,"visib":"6+","altim":1021,"clouds":[{"cover":"SCT","base":4500}],"obsTime":1778097600},"SBPS":{"icaoId":"SBPS","flightCategory":"VFR","rawOb":"METAR SBPS 062000Z 15003KT 9999 SCT018 27/24 Q1017","temp":27,"dewp":24,"wdir":150,"wspd":3,"visib":"6+","altim":1017,"clouds":[{"cover":"SCT","base":1800}],"obsTime":1778097600},"SBDN":{"icaoId":"SBDN","flightCategory":"VFR","rawOb":"METAR SBDN 062000Z 06007KT CAVOK 31/02 Q1016","temp":31,"dewp":2,"wdir":60,"wspd":7,"visib":"6+","altim":1016,"clouds":[],"obsTime":1778097600},"SBCA":{"icaoId":"SBCA","flightCategory":"VFR","rawOb":"METAR SBCA 062000Z 04014KT 9999 SCT020 27/18 Q1017","temp":27,"dewp":18,"wdir":40,"wspd":14,"visib":"6+","altim":1017,"clouds":[{"cover":"SCT","base":2000}],"obsTime":1778097600},"SBSC":{"icaoId":"SBSC","flightCategory":"VFR","rawOb":"METAR SBSC 062000Z 25005KT CAVOK 27/23 Q1017","temp":27,"dewp":23,"wdir":250,"wspd":5,"visib":"6+","altim":1017,"clouds":[],"obsTime":1778097600},"SBSJ":{"icaoId":"SBSJ","flightCategory":"VFR","rawOb":"METAR SBSJ 062000Z VRB01KT 9999 FEW048 29/15 Q1020","temp":29,"dewp":15,"wdir":"VRB","wspd":1,"visib":"6+","altim":1020,"clouds":[{"cover":"FEW","base":4800}],"obsTime":1778097600},"SBES":{"icaoId":"SBES","flightCategory":"VFR","rawOb":"METAR SBES 062000Z 07012KT 030V090 9999 FEW015 25/// Q1018","temp":null,"dewp":null,"wdir":70,"wspd":12,"visib":"6+","altim":1018,"clouds":[{"cover":"FEW","base":1500}],"obsTime":1778097600},"SBSM":{"icaoId":"SBSM","flightCategory":"VFR","rawOb":"METAR SBSM 062000Z 36005KT 320V020 9999 FEW030 32/20 Q1011","temp":32,"dewp":20,"wdir":360,"wspd":5,"visib":"6+","altim":1011,"clouds":[{"cover":"FEW","base":3000}],"obsTime":1778097600},"SBAX":{"icaoId":"SBAX","flightCategory":"VFR","rawOb":"METAR SBAX 062000Z 09004KT CAVOK 26/13 Q1021","temp":26,"dewp":13,"wdir":90,"wspd":4,"visib":"6+","altim":1021,"clouds":[],"obsTime":1778097600},"SBSR":{"icaoId":"SBSR","flightCategory":"VFR","rawOb":"METAR SBSR 062000Z 08007KT CAVOK 31/11 Q1017","temp":31,"dewp":11,"wdir":80,"wspd":7,"visib":"6+","altim":1017,"clouds":[],"obsTime":1778097600},"SBIP":{"icaoId":"SBIP","flightCategory":"VFR","rawOb":"METAR SBIP 062000Z AUTO 31002KT CAVOK 26/20 Q1018","temp":26,"dewp":20,"wdir":310,"wspd":2,"visib":"6+","altim":1018,"clouds":[],"obsTime":1778097600},"SBTF":{"icaoId":"SBTF","flightCategory":"VFR","rawOb":"METAR SBTF 062000Z 05007KT 9999 FEW007 FEW030TCU BKN100 25/24 Q1012","temp":25,"dewp":24,"wdir":50,"wspd":7,"visib":"6+","altim":1012,"clouds":[{"cover":"FEW","base":700},{"cover":"FEW","base":3000},{"cover":"BKN","base":10000}],"obsTime":1778097600},"SBAR":{"icaoId":"SBAR","flightCategory":"VFR","rawOb":"METAR SBAR 062000Z 09008KT 9999 FEW020 BKN040 28/23 Q1013","temp":28,"dewp":23,"wdir":90,"wspd":8,"visib":"6+","altim":1013,"clouds":[{"cover":"FEW","base":2000},{"cover":"BKN","base":4000}],"obsTime":1778097600},"SBKG":{"icaoId":"SBKG","flightCategory":"VFR","rawOb":"METAR SBKG 062000Z 09006KT 9999 SCT040 SCT070 23/21 Q1014","temp":23,"dewp":21,"wdir":90,"wspd":6,"visib":"6+","altim":1014,"clouds":[{"cover":"SCT","base":4000},{"cover":"SCT","base":7000}],"obsTime":1778097600},"SBTT":{"icaoId":"SBTT","flightCategory":"MVFR","rawOb":"METAR SBTT 062000Z 34006KT 9999 BKN022 30/22 Q1010","temp":30,"dewp":22,"wdir":340,"wspd":6,"visib":"6+","altim":1010,"clouds":[{"cover":"BKN","base":2200}],"obsTime":1778097600},"SBTU":{"icaoId":"SBTU","flightCategory":"VFR","rawOb":"METAR SBTU 062000Z AUTO 04004KT 360V100 9999 // ///////// ///// Q1012","temp":null,"dewp":null,"wdir":40,"wspd":4,"visib":"6+","altim":1012,"clouds":[],"obsTime":1778097600},"SBBU":{"icaoId":"SBBU","flightCategory":"VFR","rawOb":"METAR SBBU 062000Z VRB02KT 9999 FEW048 31/16 Q1018","temp":31,"dewp":16,"wdir":"VRB","wspd":2,"visib":"6+","altim":1018,"clouds":[{"cover":"FEW","base":4800}],"obsTime":1778097600},"SBUY":{"icaoId":"SBUY","flightCategory":"VFR","rawOb":"METAR SBUY 062000Z 08003KT 9999 FEW020 FEW030TCU BKN090 26/25 Q1010 RERA","temp":26,"dewp":25,"wdir":80,"wspd":3,"visib":"6+","altim":1010,"clouds":[{"cover":"FEW","base":2000},{"cover":"FEW","base":3000},{"cover":"BKN","base":9000}],"obsTime":1778097600},"SBOI":{"icaoId":"SBOI","flightCategory":"VFR","rawOb":"METAR SBOI 062000Z AUTO 03007KT 9999 BKN041 30/24 Q1011","temp":30,"dewp":24,"wdir":30,"wspd":7,"visib":"6+","altim":1011,"clouds":[{"cover":"BKN","base":4100}],"obsTime":1778097600},"SBVH":{"icaoId":"SBVH","flightCategory":"VFR","rawOb":"METAR SBVH 062000Z 07008KT 9999 FEW040 29/21 Q1014","temp":29,"dewp":21,"wdir":70,"wspd":8,"visib":"6+","altim":1014,"clouds":[{"cover":"FEW","base":4000}],"obsTime":1778097600},"SBBQ":{"icaoId":"SBBQ","flightCategory":"VFR","rawOb":"METAR SBBQ 062000Z 10005KT CAVOK 22/13 Q1025","temp":22,"dewp":13,"wdir":100,"wspd":5,"visib":"6+","altim":1025,"clouds":[],"obsTime":1778097600},"SBCC":{"icaoId":"SBCC","flightCategory":"VFR","rawOb":"METAR SBCC 062000Z 08008KT CAVOK 31/17 Q1013","temp":31,"dewp":17,"wdir":80,"wspd":8,"visib":"6+","altim":1013,"clouds":[],"obsTime":1778097600},"SBST":{"icaoId":"SBST","flightCategory":"MVFR","rawOb":"METAR SBST 062000Z /////KT 7000 BKN018 ///// Q1017","temp":null,"dewp":null,"wdir":null,"wspd":null,"visib":4.35,"altim":1017,"clouds":[{"cover":"BKN","base":1800}],"obsTime":1778097600},"SBAN":{"icaoId":"SBAN","flightCategory":"VFR","rawOb":"METAR SBAN 062000Z 21006KT 150V250 9999 FEW045 26/14 Q1021","temp":26,"dewp":14,"wdir":210,"wspd":6,"visib":"6+","altim":1021,"clouds":[{"cover":"FEW","base":4500}],"obsTime":1778097600},"SBJV":{"icaoId":"SBJV","flightCategory":"VFR","rawOb":"METAR SBJV 062000Z 14005KT 9999 FEW015 25/23 Q1016","temp":25,"dewp":23,"wdir":140,"wspd":5,"visib":"6+","altim":1016,"clouds":[{"cover":"FEW","base":1500}],"obsTime":1778097600},"SBPF":{"icaoId":"SBPF","flightCategory":"VFR","rawOb":"METAR SBPF 062000Z 35006KT CAVOK 27/17 Q1017","temp":27,"dewp":17,"wdir":350,"wspd":6,"visib":"6+","altim":1017,"clouds":[],"obsTime":1778097600},"SBAF":{"icaoId":"SBAF","flightCategory":"VFR","rawOb":"METAR SBAF 062000Z 16006KT CAVOK 28/22 Q1017","temp":28,"dewp":22,"wdir":160,"wspd":6,"visib":"6+","altim":1017,"clouds":[],"obsTime":1778097600},"SBGW":{"icaoId":"SBGW","flightCategory":"VFR","rawOb":"METAR SBGW 062000Z 01003KT 9999 FEW030 28/15 Q1019","temp":28,"dewp":15,"wdir":10,"wspd":3,"visib":"6+","altim":1019,"clouds":[{"cover":"FEW","base":3000}],"obsTime":1778097600},"SBJR":{"icaoId":"SBJR","flightCategory":"VFR","rawOb":"METAR SBJR 062000Z 29004KT CAVOK 27/23 Q1017","temp":27,"dewp":23,"wdir":290,"wspd":4,"visib":"6+","altim":1017,"clouds":[],"obsTime":1778097600},"SBLS":{"icaoId":"SBLS","flightCategory":"VFR","rawOb":"METAR SBLS 062000Z 13008KT 9999 SCT040 24/17 Q1021","temp":24,"dewp":17,"wdir":130,"wspd":8,"visib":"6+","altim":1021,"clouds":[{"cover":"SCT","base":4000}],"obsTime":1778097600},"SBMT":{"icaoId":"SBMT","flightCategory":"VFR","rawOb":"METAR SBMT 062000Z 08007KT 9999 FEW030 27/12 Q1020","temp":27,"dewp":12,"wdir":80,"wspd":7,"visib":"6+","altim":1020,"clouds":[{"cover":"FEW","base":3000}],"obsTime":1778097600},"SBTA":{"icaoId":"SBTA","flightCategory":"VFR","rawOb":"METAR SBTA 062000Z 06005KT 9999 FEW040 28/16 Q1018","temp":28,"dewp":16,"wdir":60,"wspd":5,"visib":"6+","altim":1018,"clouds":[{"cover":"FEW","base":4000}],"obsTime":1778097600},"SBIH":{"icaoId":"SBIH","flightCategory":"VFR","rawOb":"METAR SBIH 062000Z 05003KT 9999 VCSH SCT018 FEW025TCU BKN100 28/26 Q1010","temp":28,"dewp":26,"wdir":50,"wspd":3,"visib":"6+","altim":1010,"clouds":[{"cover":"SCT","base":1800},{"cover":"FEW","base":2500},{"cover":"BKN","base":10000}],"obsTime":1778097600},"SBLE":{"icaoId":"SBLE","flightCategory":"VFR","rawOb":"METAR SBLE 062000Z AUTO VRB02KT 9999 BKN036 25/25 Q1017","temp":25,"dewp":25,"wdir":"VRB","wspd":2,"visib":"6+","altim":1017,"clouds":[{"cover":"BKN","base":3600}],"obsTime":1778097600},"SBJP":{"icaoId":"SBJP","flightCategory":"VFR","rawOb":"METAR SBJP 062000Z 12007KT 9999 FEW025 27/23 Q1012","temp":27,"dewp":23,"wdir":120,"wspd":7,"visib":"6+","altim":1012,"clouds":[{"cover":"FEW","base":2500}],"obsTime":1778097600}}}