{"updated":1778508939,"count":88,"data":{"SBPV":{"icaoId":"SBPV","flightCategory":"MVFR","rawOb":"METAR SBPV 111300Z 16009KT 9999 BKN017 BKN100 20/17 Q1017","temp":20,"dewp":17,"wdir":160,"wspd":9,"visib":"6+","altim":1017,"clouds":[{"cover":"BKN","base":1700},{"cover":"BKN","base":10000}],"obsTime":1778504400},"SBBE":{"icaoId":"SBBE","flightCategory":"VFR","rawOb":"METAR SBBE 111300Z 13007KT 9999 SCT013 SCT017 28/25 Q1012","temp":28,"dewp":25,"wdir":130,"wspd":7,"visib":"6+","altim":1012,"clouds":[{"cover":"SCT","base":1300},{"cover":"SCT","base":1700}],"obsTime":1778504400},"SBBR":{"icaoId":"SBBR","flightCategory":"VFR","rawOb":"METAR SBBR 111300Z 18005KT 160V220 9999 3000S VV004 18/16 Q1023","temp":18,"dewp":16,"wdir":180,"wspd":5,"visib":"6+","altim":1023,"clouds":[{"cover":"OVX","base":400}],"obsTime":1778504400},"SBBV":{"icaoId":"SBBV","flightCategory":"VFR","rawOb":"METAR SBBV 111300Z 07012KT 9999 SCT030 FEW035TCU BKN100 29/23 Q1013","temp":29,"dewp":23,"wdir":70,"wspd":12,"visib":"6+","altim":1013,"clouds":[{"cover":"SCT","base":3000},{"cover":"FEW","base":3500},{"cover":"BKN","base":10000}],"obsTime":1778504400},"SBCB":{"icaoId":"SBCB","flightCategory":"MVFR","rawOb":"METAR SBCB 111300Z 24012KT 9999 SCT010 OVC025 22/19 Q1019","temp":22,"dewp":19,"wdir":240,"wspd":12,"visib":"6+","altim":1019,"clouds":[{"cover":"SCT","base":1000},{"cover":"OVC","base":2500}],"obsTime":1778504400},"SBCF":{"icaoId":"SBCF","flightCategory":"VFR","rawOb":"METAR SBCF 111300Z 22004KT 9999 BKN035 BKN070 23/19 Q1021","temp":23,"dewp":19,"wdir":220,"wspd":4,"visib":"6+","altim":1021,"clouds":[{"cover":"BKN","base":3500},{"cover":"BKN","base":7000}],"obsTime":1778504400},"SBCG":{"icaoId":"SBCG","flightCategory":"VFR","rawOb":"METAR SBCG 111300Z 14011KT 110V170 CAVOK 12/06 Q1023","temp":12,"dewp":6,"wdir":140,"wspd":11,"visib":"6+","altim":1023,"clouds":[],"obsTime":1778504400},"SBCP":{"icaoId":"SBCP","flightCategory":"IFR","rawOb":"METAR SBCP 111300Z 23010KT 8000 -RA BKN008 OVC090 20/20 Q1018","temp":20,"dewp":20,"wdir":230,"wspd":10,"visib":4.97,"altim":1018,"clouds":[{"cover":"BKN","base":800},{"cover":"OVC","base":9000}],"obsTime":1778504400},"SBCR":{"icaoId":"SBCR","flightCategory":"VFR","rawOb":"METAR SBCR 111300Z 22005KT 190V260 CAVOK 17/09 Q1023","temp":17,"dewp":9,"wdir":220,"wspd":5,"visib":"6+","altim":1023,"clouds":[],"obsTime":1778504400},"SBCT":{"icaoId":"SBCT","flightCategory":"VFR","rawOb":"METAR SBCT 111300Z 26005KT 220V310 CAVOK 08/04 Q1023","temp":8,"dewp":4,"wdir":260,"wspd":5,"visib":"6+","altim":1023,"clouds":[],"obsTime":1778504400},"SBCZ":{"icaoId":"SBCZ","flightCategory":"IFR","rawOb":"METAR SBCZ 111300Z 17005KT 130V200 9999 BKN006 BKN080 18/17 Q1020","temp":18,"dewp":17,"wdir":170,"wspd":5,"visib":"6+","altim":1020,"clouds":[{"cover":"BKN","base":600},{"cover":"BKN","base":8000}],"obsTime":1778504400},"SBEG":{"icaoId":"SBEG","flightCategory":"VFR","rawOb":"METAR SBEG 111300Z 17003KT 9999 SCT010 SCT025 FEW030TCU 27/25 Q1013","temp":27,"dewp":25,"wdir":170,"wspd":3,"visib":"6+","altim":1013,"clouds":[{"cover":"SCT","base":1000},{"cover":"SCT","base":2500},{"cover":"FEW","base":3000}],"obsTime":1778504400},"SBFI":{"icaoId":"SBFI","flightCategory":"VFR","rawOb":"METAR SBFI 111300Z 09004KT CAVOK 11/07 Q1025","temp":11,"dewp":7,"wdir":90,"wspd":4,"visib":"6+","altim":1025,"clouds":[],"obsTime":1778504400},"SBFL":{"icaoId":"SBFL","flightCategory":"VFR","rawOb":"METAR SBFL 111300Z 30004KT 250V350 CAVOK 15/05 Q1021","temp":15,"dewp":5,"wdir":300,"wspd":4,"visib":"6+","altim":1021,"clouds":[],"obsTime":1778504400},"SBFZ":{"icaoId":"SBFZ","flightCategory":"MVFR","rawOb":"METAR SBFZ 111300Z 15005KT 9999 BKN020 BKN080 28/26 Q1013","temp":28,"dewp":26,"wdir":150,"wspd":5,"visib":"6+","altim":1013,"clouds":[{"cover":"BKN","base":2000},{"cover":"BKN","base":8000}],"obsTime":1778504400},"SBGL":{"icaoId":"SBGL","flightCategory":"MVFR","rawOb":"METAR SBGL 111300Z 27010KT 9000 FEW010 BKN015 OVC035 20/17 Q1020","temp":20,"dewp":17,"wdir":270,"wspd":10,"visib":5.59,"altim":1020,"clouds":[{"cover":"FEW","base":1000},{"cover":"BKN","base":1500},{"cover":"OVC","base":3500}],"obsTime":1778504400},"SBGO":{"icaoId":"SBGO","flightCategory":"IFR","rawOb":"METAR SBGO 111300Z 15008KT 9999 BKN008 17/15 Q1022","temp":17,"dewp":15,"wdir":150,"wspd":8,"visib":"6+","altim":1022,"clouds":[{"cover":"BKN","base":800}],"obsTime":1778504400},"SBGR":{"icaoId":"SBGR","flightCategory":"VFR","rawOb":"METAR SBGR 111300Z 27003KT CAVOK 13/06 Q1023","temp":13,"dewp":6,"wdir":270,"wspd":3,"visib":"6+","altim":1023,"clouds":[],"obsTime":1778504400},"SBHT":{"icaoId":"SBHT","flightCategory":"MVFR","rawOb":"METAR SBHT 111300Z 10005KT 9999 BKN017 BKN090 28/25 Q1013","temp":28,"dewp":25,"wdir":100,"wspd":5,"visib":"6+","altim":1013,"clouds":[{"cover":"BKN","base":1700},{"cover":"BKN","base":9000}],"obsTime":1778504400},"SBIL":{"icaoId":"SBIL","flightCategory":"VFR","rawOb":"METAR SBIL 111300Z 16004KT 120V200 9999 FEW020 28/22 Q1016","temp":28,"dewp":22,"wdir":160,"wspd":4,"visib":"6+","altim":1016,"clouds":[{"cover":"FEW","base":2000}],"obsTime":1778504400},"SBJU":{"icaoId":"SBJU","flightCategory":"VFR","rawOb":"METAR SBJU 111300Z 15003KT 9999 SCT022 28/22 Q1016","temp":28,"dewp":22,"wdir":150,"wspd":3,"visib":"6+","altim":1016,"clouds":[{"cover":"SCT","base":2200}],"obsTime":1778504400},"SBKP":{"icaoId":"SBKP","flightCategory":"VFR","rawOb":"METAR SBKP 111300Z VRB02KT 9999 SCT005 12/09 Q1023","temp":12,"dewp":9,"wdir":"VRB","wspd":2,"visib":"6+","altim":1023,"clouds":[{"cover":"SCT","base":500}],"obsTime":1778504400},"SBLO":{"icaoId":"SBLO","flightCategory":"VFR","rawOb":"METAR SBLO 111300Z 15002KT CAVOK 11/08 Q1024","temp":11,"dewp":8,"wdir":150,"wspd":2,"visib":"6+","altim":1024,"clouds":[],"obsTime":1778504400},"SBMA":{"icaoId":"SBMA","flightCategory":"VFR","rawOb":"METAR SBMA 111300Z 08002KT 9999 FEW015 SCT100 29/23 Q1013","temp":29,"dewp":23,"wdir":80,"wspd":2,"visib":"6+","altim":1013,"clouds":[{"cover":"FEW","base":1500},{"cover":"SCT","base":10000}],"obsTime":1778504400},"SBME":{"icaoId":"SBME","flightCategory":"MVFR","rawOb":"METAR SBME 111300Z 24008KT 6000 -RA SCT010 OVC050 21/19 Q1018","temp":21,"dewp":19,"wdir":240,"wspd":8,"visib":3.73,"altim":1018,"clouds":[{"cover":"SCT","base":1000},{"cover":"OVC","base":5000}],"obsTime":1778504400},"SBMG":{"icaoId":"SBMG","flightCategory":"VFR","rawOb":"METAR SBMG 111300Z 13006KT 110V170 9999 FEW004 10/06 Q1023","temp":10,"dewp":6,"wdir":130,"wspd":6,"visib":"6+","altim":1023,"clouds":[{"cover":"FEW","base":400}],"obsTime":1778504400},"SBMK":{"icaoId":"SBMK","flightCategory":"VFR","rawOb":"METAR SBMK 111300Z 35002KT CAVOK 26/16 Q1019","temp":26,"dewp":16,"wdir":350,"wspd":2,"visib":"6+","altim":1019,"clouds":[],"obsTime":1778504400},"SBMO":{"icaoId":"SBMO","flightCategory":"VFR","rawOb":"METAR SBMO 111300Z 16005KT 080V210 9999 SCT023 29/24 Q1015","temp":29,"dewp":24,"wdir":160,"wspd":5,"visib":"6+","altim":1015,"clouds":[{"cover":"SCT","base":2300}],"obsTime":1778504400},"SBMQ":{"icaoId":"SBMQ","flightCategory":"MVFR","rawOb":"METAR SBMQ 111300Z 07004KT 9999 BKN017 FEW023TCU 29/26 Q1013","temp":29,"dewp":26,"wdir":70,"wspd":4,"visib":"6+","altim":1013,"clouds":[{"cover":"BKN","base":1700},{"cover":"FEW","base":2300}],"obsTime":1778504400},"SBNT":{"icaoId":"SBNT","flightCategory":"MVFR","rawOb":"METAR SBNT 111300Z 16009KT 130V200 9999 BKN023 29/24 Q1014","temp":29,"dewp":24,"wdir":160,"wspd":9,"visib":"6+","altim":1014,"clouds":[{"cover":"BKN","base":2300}],"obsTime":1778504400},"SBPA":{"icaoId":"SBPA","flightCategory":"VFR","rawOb":"METAR SBPA 111300Z 28014KT CAVOK 13/06 Q1022","temp":13,"dewp":6,"wdir":280,"wspd":14,"visib":"6+","altim":1022,"clouds":[],"obsTime":1778504400},"SBPJ":{"icaoId":"SBPJ","flightCategory":"VFR","rawOb":"METAR SBPJ 111300Z VRB04KT CAVOK 32/19 Q1015","temp":32,"dewp":19,"wdir":"VRB","wspd":4,"visib":"6+","altim":1015,"clouds":[],"obsTime":1778504400},"SBAT":{"icaoId":"SBAT","flightCategory":"MVFR","rawOb":"METAR SBAT 111300Z 19006KT 9999 BKN020 21/18 Q1017","temp":21,"dewp":18,"wdir":190,"wspd":6,"visib":"6+","altim":1017,"clouds":[{"cover":"BKN","base":2000}],"obsTime":1778504400},"SBRB":{"icaoId":"SBRB","flightCategory":"VFR","rawOb":"METAR SBRB 111300Z 15006KT 110V210 9000 FEW010 BKN066 17/14 Q1019","temp":17,"dewp":14,"wdir":150,"wspd":6,"visib":5.59,"altim":1019,"clouds":[{"cover":"FEW","base":1000},{"cover":"BKN","base":6600}],"obsTime":1778504400},"SBRF":{"icaoId":"SBRF","flightCategory":"VFR","rawOb":"METAR SBRF 111300Z 19010KT 9999 FEW025 BKN050 28/23 Q1014","temp":28,"dewp":23,"wdir":190,"wspd":10,"visib":"6+","altim":1014,"clouds":[{"cover":"FEW","base":2500},{"cover":"BKN","base":5000}],"obsTime":1778504400},"SBSG":{"icaoId":"SBSG","flightCategory":"MVFR","rawOb":"METAR SBSG 111300Z 16006KT 090V210 9999 BKN020 28/24 Q1014","temp":28,"dewp":24,"wdir":160,"wspd":6,"visib":"6+","altim":1014,"clouds":[{"cover":"BKN","base":2000}],"obsTime":1778504400},"SBSL":{"icaoId":"SBSL","flightCategory":"VFR","rawOb":"METAR SBSL 111300Z 09005KT 9999 SCT018 29/24 Q1012","temp":29,"dewp":24,"wdir":90,"wspd":5,"visib":"6+","altim":1012,"clouds":[{"cover":"SCT","base":1800}],"obsTime":1778504400},"SBSN":{"icaoId":"SBSN","flightCategory":"IFR","rawOb":"METAR SBSN 111300Z 07011KT 9999 -RA BKN008 OVC100 26/25 Q1013","temp":26,"dewp":25,"wdir":70,"wspd":11,"visib":"6+","altim":1013,"clouds":[{"cover":"BKN","base":800},{"cover":"OVC","base":10000}],"obsTime":1778504400},"SBSP":{"icaoId":"SBSP","flightCategory":"VFR","rawOb":"METAR SBSP 111300Z 17003KT 120V250 CAVOK 13/07 Q1023","temp":13,"dewp":7,"wdir":170,"wspd":3,"visib":"6+","altim":1023,"clouds":[],"obsTime":1778504400},"SBSV":{"icaoId":"SBSV","flightCategory":"MVFR","rawOb":"METAR SBSV 111300Z 20007KT 9999 VCSH SCT011 BKN023 FEW025TCU BKN050 27/24 Q1015","temp":27,"dewp":24,"wdir":200,"wspd":7,"visib":"6+","altim":1015,"clouds":[{"cover":"SCT","base":1100},{"cover":"BKN","base":2300},{"cover":"FEW","base":2500},{"cover":"BKN","base":5000}],"obsTime":1778504400},"SBTE":{"icaoId":"SBTE","flightCategory":"MVFR","rawOb":"METAR SBTE 111300Z 17005KT 9999 BKN020 28/24 Q1012","temp":28,"dewp":24,"wdir":170,"wspd":5,"visib":"6+","altim":1012,"clouds":[{"cover":"BKN","base":2000}],"obsTime":1778504400},"SBUL":{"icaoId":"SBUL","flightCategory":"IFR","rawOb":"METAR SBUL 111300Z 22006KT 5000 BR OVC005 15/13 Q1023","temp":15,"dewp":13,"wdir":220,"wspd":6,"visib":3.11,"altim":1023,"clouds":[{"cover":"OVC","base":500}],"obsTime":1778504400},"SBUR":{"icaoId":"SBUR","flightCategory":"IFR","rawOb":"METAR SBUR 111300Z 16007KT 9000 BKN006 OVC070 14/12 Q1022","temp":14,"dewp":12,"wdir":160,"wspd":7,"visib":5.59,"altim":1022,"clouds":[{"cover":"BKN","base":600},{"cover":"OVC","base":7000}],"obsTime":1778504400},"SBVT":{"icaoId":"SBVT","flightCategory":"VFR","rawOb":"METAR SBVT 111300Z 19010KT 9999 FEW015 SCT025 BKN070 25/21 Q1017","temp":25,"dewp":21,"wdir":190,"wspd":10,"visib":"6+","altim":1017,"clouds":[{"cover":"FEW","base":1500},{"cover":"SCT","base":2500},{"cover":"BKN","base":7000}],"obsTime":1778504400},"SBOI":{"icaoId":"SBOI","flightCategory":"VFR","rawOb":"METAR SBOI 111300Z AUTO VRB01KT 9999 BKN039 26/25 Q1013","temp":26,"dewp":25,"wdir":"VRB","wspd":1,"visib":"6+","altim":1013,"clouds":[{"cover":"BKN","base":3900}],"obsTime":1778504400},"SBCJ":{"icaoId":"SBCJ","flightCategory":"LIFR","rawOb":"METAR SBCJ 111300Z 11005KT 0500 -RA FG BKN004 OVC080 23/21 Q1019","temp":23,"dewp":21,"wdir":110,"wspd":5,"visib":0.31,"altim":1019,"clouds":[{"cover":"BKN","base":400},{"cover":"OVC","base":8000}],"obsTime":1778504400},"SBPB":{"icaoId":"SBPB","flightCategory":"VFR","rawOb":"METAR SBPB 111300Z 12004KT 9999 FEW020 29/24 Q1012","temp":29,"dewp":24,"wdir":120,"wspd":4,"visib":"6+","altim":1012,"clouds":[{"cover":"FEW","base":2000}],"obsTime":1778504400},"SBPL":{"icaoId":"SBPL","flightCategory":"MVFR","rawOb":"METAR SBPL 111300Z 10011KT 9999 BKN022 27/20 Q1016","temp":27,"dewp":20,"wdir":100,"wspd":11,"visib":"6+","altim":1016,"clouds":[{"cover":"BKN","base":2200}],"obsTime":1778504400},"SBAU":{"icaoId":"SBAU","flightCategory":"VFR","rawOb":"METAR SBAU 111300Z 18008KT CAVOK 15/09 Q1023","temp":15,"dewp":9,"wdir":180,"wspd":8,"visib":"6+","altim":1023,"clouds":[],"obsTime":1778504400},"SBCO":{"icaoId":"SBCO","flightCategory":"VFR","rawOb":"METAR SBCO 111300Z 29010KT 270V330 9999 FEW030 13/05 Q1022","temp":13,"dewp":5,"wdir":290,"wspd":10,"visib":"6+","altim":1022,"clouds":[{"cover":"FEW","base":3000}],"obsTime":1778504400},"SBPP":{"icaoId":"SBPP","flightCategory":"VFR","rawOb":"METAR SBPP 111300Z 13007KT CAVOK 08/04 Q1024","temp":8,"dewp":4,"wdir":130,"wspd":7,"visib":"6+","altim":1024,"clouds":[],"obsTime":1778504400},"SBBU":{"icaoId":"SBBU","flightCategory":"VFR","rawOb":"METAR SBBU 111300Z 13003KT CAVOK 15/11 Q1023","temp":15,"dewp":11,"wdir":130,"wspd":3,"visib":"6+","altim":1023,"clouds":[],"obsTime":1778504400},"SBPS":{"icaoId":"SBPS","flightCategory":"VFR","rawOb":"METAR SBPS 111300Z 24003KT 9999 FEW020 28/21 Q1017","temp":28,"dewp":21,"wdir":240,"wspd":3,"visib":"6+","altim":1017,"clouds":[{"cover":"FEW","base":2000}],"obsTime":1778504400},"SBDN":{"icaoId":"SBDN","flightCategory":"VFR","rawOb":"METAR SBDN 111300Z 19002KT CAVOK 11/07 Q1023","temp":11,"dewp":7,"wdir":190,"wspd":2,"visib":"6+","altim":1023,"clouds":[],"obsTime":1778504400},"SBSC":{"icaoId":"SBSC","flightCategory":"MVFR","rawOb":"METAR SBSC 111300Z 24005KT 9999 FEW010 SCT020 BKN030 19/17 Q1020","temp":19,"dewp":17,"wdir":240,"wspd":5,"visib":"6+","altim":1020,"clouds":[{"cover":"FEW","base":1000},{"cover":"SCT","base":2000},{"cover":"BKN","base":3000}],"obsTime":1778504400},"SBBH":{"icaoId":"SBBH","flightCategory":"VFR","rawOb":"METAR SBBH 111300Z 26003KT 9999 SCT030 BKN065 23/18 Q1021","temp":23,"dewp":18,"wdir":260,"wspd":3,"visib":"6+","altim":1021,"clouds":[{"cover":"SCT","base":3000},{"cover":"BKN","base":6500}],"obsTime":1778504400},"SBSJ":{"icaoId":"SBSJ","flightCategory":"MVFR","rawOb":"METAR SBSJ 111300Z 25007KT 9999 BKN025 15/07 Q1023","temp":15,"dewp":7,"wdir":250,"wspd":7,"visib":"6+","altim":1023,"clouds":[{"cover":"BKN","base":2500}],"obsTime":1778504400},"SBSM":{"icaoId":"SBSM","flightCategory":"VFR","rawOb":"METAR SBSM 111300Z 29009KT CAVOK 13/05 Q1023","temp":13,"dewp":5,"wdir":290,"wspd":9,"visib":"6+","altim":1023,"clouds":[],"obsTime":1778504400},"SBCA":{"icaoId":"SBCA","flightCategory":"VFR","rawOb":"METAR SBCA 111300Z 16012KT CAVOK 07/04 Q1024","temp":7,"dewp":4,"wdir":160,"wspd":12,"visib":"6+","altim":1024,"clouds":[],"obsTime":1778504400},"SBSR":{"icaoId":"SBSR","flightCategory":"VFR","rawOb":"METAR SBSR 111300Z 19007KT 9999 FEW040 BKN070 17/10 Q1023","temp":17,"dewp":10,"wdir":190,"wspd":7,"visib":"6+","altim":1023,"clouds":[{"cover":"FEW","base":4000},{"cover":"BKN","base":7000}],"obsTime":1778504400},"SBES":{"icaoId":"SBES","flightCategory":"MVFR","rawOb":"METAR SBES 111300Z VRB08KT 9999 3000SW -DZ SCT009 BKN019 OVC035 19/// Q1019","temp":null,"dewp":null,"wdir":"VRB","wspd":8,"visib":"6+","altim":1019,"clouds":[{"cover":"SCT","base":900},{"cover":"BKN","base":1900},{"cover":"OVC","base":3500}],"obsTime":1778504400},"SBGM":{"icaoId":"SBGM","flightCategory":"VFR","rawOb":"METAR SBGM 111300Z 10013KT CAVOK 19/12 Q1018","temp":19,"dewp":12,"wdir":100,"wspd":13,"visib":"6+","altim":1018,"clouds":[],"obsTime":1778504400},"SBTD":{"icaoId":"SBTD","flightCategory":"VFR","rawOb":"METAR SBTD 111300Z /////KT CAVOK 10/04 Q1024","temp":10,"dewp":4,"wdir":null,"wspd":null,"visib":"6+","altim":1024,"clouds":[],"obsTime":1778504400},"SBAR":{"icaoId":"SBAR","flightCategory":"VFR","rawOb":"METAR SBAR 111300Z 15006KT 110V180 9999 VCSH SCT020 SCT036 28/24 Q1015","temp":28,"dewp":24,"wdir":150,"wspd":6,"visib":"6+","altim":1015,"clouds":[{"cover":"SCT","base":2000},{"cover":"SCT","base":3600}],"obsTime":1778504400},"SBTF":{"icaoId":"SBTF","flightCategory":"VFR","rawOb":"METAR SBTF 111300Z 20007KT 9999 SCT006 BKN090 25/23 Q1014","temp":25,"dewp":23,"wdir":200,"wspd":7,"visib":"6+","altim":1014,"clouds":[{"cover":"SCT","base":600},{"cover":"BKN","base":9000}],"obsTime":1778504400},"SBCC":{"icaoId":"SBCC","flightCategory":"MVFR","rawOb":"METAR SBCC 111300Z 13006KT 9999 OVC010 21/19 Q1017","temp":21,"dewp":19,"wdir":130,"wspd":6,"visib":"6+","altim":1017,"clouds":[{"cover":"OVC","base":1000}],"obsTime":1778504400},"SBTT":{"icaoId":"SBTT","flightCategory":"IFR","rawOb":"METAR SBTT 111300Z 19009KT 9999 BKN008 20/18 Q1017","temp":20,"dewp":18,"wdir":190,"wspd":9,"visib":"6+","altim":1017,"clouds":[{"cover":"BKN","base":800}],"obsTime":1778504400},"SBTU":{"icaoId":"SBTU","flightCategory":"VFR","rawOb":"METAR SBTU 111300Z AUTO 24005KT 190V280 9999 // ///////// ///// Q1014","temp":null,"dewp":null,"wdir":240,"wspd":5,"visib":"6+","altim":1014,"clouds":[],"obsTime":1778504400},"SBIP":{"icaoId":"SBIP","flightCategory":"VFR","rawOb":"METAR SBIP 111300Z AUTO 08005KT 360V170 CAVOK 27/19 Q1018","temp":27,"dewp":19,"wdir":80,"wspd":5,"visib":"6+","altim":1018,"clouds":[],"obsTime":1778504400},"SBUY":{"icaoId":"SBUY","flightCategory":"MVFR","rawOb":"METAR SBUY 111300Z COR 20004KT 140V240 5000 BR SCT010 BKN070 21/20 Q1015","temp":21,"dewp":20,"wdir":200,"wspd":4,"visib":3.11,"altim":1015,"clouds":[{"cover":"SCT","base":1000},{"cover":"BKN","base":7000}],"obsTime":1778504400},"SBBQ":{"icaoId":"SBBQ","flightCategory":"IFR","rawOb":"METAR SBBQ 111300Z VRB02KT 7000 BKN005 BKN040 18/17 Q1024","temp":18,"dewp":17,"wdir":"VRB","wspd":2,"visib":4.35,"altim":1024,"clouds":[{"cover":"BKN","base":500},{"cover":"BKN","base":4000}],"obsTime":1778504400},"SBVH":{"icaoId":"SBVH","flightCategory":"VFR","rawOb":"METAR SBVH 111300Z 12012KT CAVOK 16/11 Q1020","temp":16,"dewp":11,"wdir":120,"wspd":12,"visib":"6+","altim":1020,"clouds":[],"obsTime":1778504400},"SBKG":{"icaoId":"SBKG","flightCategory":"MVFR","rawOb":"METAR SBKG 111300Z 13008KT 9999 BKN020 27/21 Q1016","temp":27,"dewp":21,"wdir":130,"wspd":8,"visib":"6+","altim":1016,"clouds":[{"cover":"BKN","base":2000}],"obsTime":1778504400},"SBAX":{"icaoId":"SBAX","flightCategory":"VFR","rawOb":"METAR SBAX 111300Z 21002KT 9999 SCT010 18/15 Q1022","temp":18,"dewp":15,"wdir":210,"wspd":2,"visib":"6+","altim":1022,"clouds":[{"cover":"SCT","base":1000}],"obsTime":1778504400},"SBJP":{"icaoId":"SBJP","flightCategory":"VFR","rawOb":"METAR SBJP 111300Z 18012KT 140V220 9999 SCT020 SCT070 29/24 Q1014","temp":29,"dewp":24,"wdir":180,"wspd":12,"visib":"6+","altim":1014,"clouds":[{"cover":"SCT","base":2000},{"cover":"SCT","base":7000}],"obsTime":1778504400},"SBAF":{"icaoId":"SBAF","flightCategory":"MVFR","rawOb":"METAR SBAF 111300Z 24004KT 200V280 9999 FEW013 BKN021 BKN036 20/19 Q1020","temp":20,"dewp":19,"wdir":240,"wspd":4,"visib":"6+","altim":1020,"clouds":[{"cover":"FEW","base":1300},{"cover":"BKN","base":2100},{"cover":"BKN","base":3600}],"obsTime":1778504400},"SBJV":{"icaoId":"SBJV","flightCategory":"VFR","rawOb":"METAR SBJV 111300Z 26002KT CAVOK 15/06 Q1022","temp":15,"dewp":6,"wdir":260,"wspd":2,"visib":"6+","altim":1022,"clouds":[],"obsTime":1778504400},"SBNM":{"icaoId":"SBNM","flightCategory":"VFR","rawOb":"METAR SBNM 111300Z AUTO VRB02KT CAVOK 11/04 Q1025","temp":11,"dewp":4,"wdir":"VRB","wspd":2,"visib":"6+","altim":1025,"clouds":[],"obsTime":1778504400},"SBPF":{"icaoId":"SBPF","flightCategory":"VFR","rawOb":"METAR SBPF 111300Z 25006KT 9999 FEW015 07/02 Q1024","temp":7,"dewp":2,"wdir":250,"wspd":6,"visib":"6+","altim":1024,"clouds":[{"cover":"FEW","base":1500}],"obsTime":1778504400},"SBLE":{"icaoId":"SBLE","flightCategory":"VFR","rawOb":"METAR SBLE 111300Z AUTO 13004KT 050V200 9999 FEW019 24/20 Q1018","temp":24,"dewp":20,"wdir":130,"wspd":4,"visib":"6+","altim":1018,"clouds":[{"cover":"FEW","base":1900}],"obsTime":1778504400},"SBJR":{"icaoId":"SBJR","flightCategory":"MVFR","rawOb":"METAR SBJR 111300Z 26005KT 9999 -DZ FEW007 BKN010 OVC040 20/18 Q1020","temp":20,"dewp":18,"wdir":260,"wspd":5,"visib":"6+","altim":1020,"clouds":[{"cover":"FEW","base":700},{"cover":"BKN","base":1000},{"cover":"OVC","base":4000}],"obsTime":1778504400},"SBIH":{"icaoId":"SBIH","flightCategory":"VFR","rawOb":"METAR SBIH 111300Z 03003KT 9999 SCT015 28/25 Q1013","temp":28,"dewp":25,"wdir":30,"wspd":3,"visib":"6+","altim":1013,"clouds":[{"cover":"SCT","base":1500}],"obsTime":1778504400},"SBLS":{"icaoId":"SBLS","flightCategory":"VFR","rawOb":"METAR SBLS 111300Z 20003KT 120V260 9999 BCFG FEW007 SCT040 BKN090 22/18 Q1021","temp":22,"dewp":18,"wdir":200,"wspd":3,"visib":"6+","altim":1021,"clouds":[{"cover":"FEW","base":700},{"cover":"SCT","base":4000},{"cover":"BKN","base":9000}],"obsTime":1778504400},"SBMT":{"icaoId":"SBMT","flightCategory":"VFR","rawOb":"METAR SBMT 111300Z 23002KT CAVOK 13/06 Q1023","temp":13,"dewp":6,"wdir":230,"wspd":2,"visib":"6+","altim":1023,"clouds":[],"obsTime":1778504400},"SBGW":{"icaoId":"SBGW","flightCategory":"MVFR","rawOb":"METAR SBGW 111300Z 25006KT 210V280 6000 BKN020 OVC030 17/09 Q1021","temp":17,"dewp":9,"wdir":250,"wspd":6,"visib":3.73,"altim":1021,"clouds":[{"cover":"BKN","base":2000},{"cover":"OVC","base":3000}],"obsTime":1778504400},"SBST":{"icaoId":"SBST","flightCategory":"VFR","rawOb":"METAR SBST 111300Z 01004KT CAVOK 18/08 Q1021","temp":18,"dewp":8,"wdir":10,"wspd":4,"visib":"6+","altim":1021,"clouds":[],"obsTime":1778504400},"SBTA":{"icaoId":"SBTA","flightCategory":"IFR","rawOb":"METAR SBTA 111300Z 27006KT 220V310 9999 BKN009 OVC025 15/09 Q1022","temp":15,"dewp":9,"wdir":270,"wspd":6,"visib":"6+","altim":1022,"clouds":[{"cover":"BKN","base":900},{"cover":"OVC","base":2500}],"obsTime":1778504400},"SBAN":{"icaoId":"SBAN","flightCategory":"LIFR","rawOb":"METAR SBAN 111300Z 24010KT 200V260 0300 R06L/P2000 R24R/P2000 FG BKN004 OVC009 16/15 Q1023","temp":16,"dewp":15,"wdir":240,"wspd":10,"visib":0.19,"altim":1023,"clouds":[{"cover":"BKN","base":400},{"cover":"OVC","base":900}],"obsTime":1778504400}}}