{"updated":1784337148,"count":66,"data":{"SBLO":{"icaoId":"SBLO","flightCategory":"VFR","rawOb":"METAR SBLO 180000Z 06005KT CAVOK 20/12 Q1017","temp":20,"dewp":12,"wdir":60,"wspd":5,"visib":"6+","altim":1017,"clouds":[],"obsTime":1784332800},"SBGO":{"icaoId":"SBGO","flightCategory":"VFR","rawOb":"METAR SBGO 180000Z VRB02KT CAVOK 22/07 Q1021","temp":22,"dewp":7,"wdir":"VRB","wspd":2,"visib":"6+","altim":1021,"clouds":[],"obsTime":1784332800},"SBNT":{"icaoId":"SBNT","flightCategory":"IFR","rawOb":"METAR SBNT 180000Z 18011KT 5000 -RA BR BKN007 BKN015 FEW024TCU OVC026 23/22 Q1016","temp":23,"dewp":22,"wdir":180,"wspd":11,"visib":3.11,"altim":1016,"clouds":[{"cover":"BKN","base":700},{"cover":"BKN","base":1500},{"cover":"FEW","base":2400},{"cover":"OVC","base":2600}],"obsTime":1784332800},"SBSV":{"icaoId":"SBSV","flightCategory":"VFR","rawOb":"METAR SBSV 180000Z 11013KT 9999 FEW030 BKN070 25/18 Q1021","temp":25,"dewp":18,"wdir":110,"wspd":13,"visib":"6+","altim":1021,"clouds":[{"cover":"FEW","base":3000},{"cover":"BKN","base":7000}],"obsTime":1784332800},"SBCF":{"icaoId":"SBCF","flightCategory":"VFR","rawOb":"METAR SBCF 180000Z 09006KT 060V120 CAVOK 17/10 Q1025","temp":17,"dewp":10,"wdir":90,"wspd":6,"visib":"6+","altim":1025,"clouds":[],"obsTime":1784332800},"SBSL":{"icaoId":"SBSL","flightCategory":"VFR","rawOb":"METAR SBSL 180000Z 07004KT 9999 FEW017 BKN080 27/25 Q1014","temp":27,"dewp":25,"wdir":70,"wspd":4,"visib":"6+","altim":1014,"clouds":[{"cover":"FEW","base":1700},{"cover":"BKN","base":8000}],"obsTime":1784332800},"SBPV":{"icaoId":"SBPV","flightCategory":"VFR","rawOb":"METAR SBPV 180000Z 20002KT 9999 FEW030 BKN100 26/24 Q1012","temp":26,"dewp":24,"wdir":200,"wspd":2,"visib":"6+","altim":1012,"clouds":[{"cover":"FEW","base":3000},{"cover":"BKN","base":10000}],"obsTime":1784332800},"SBBE":{"icaoId":"SBBE","flightCategory":"VFR","rawOb":"METAR SBBE 180000Z 06006KT 9999 BKN040 BKN080 27/23 Q1013","temp":27,"dewp":23,"wdir":60,"wspd":6,"visib":"6+","altim":1013,"clouds":[{"cover":"BKN","base":4000},{"cover":"BKN","base":8000}],"obsTime":1784332800},"SBEG":{"icaoId":"SBEG","flightCategory":"VFR","rawOb":"METAR SBEG 180000Z 07006KT CAVOK 27/23 Q1012","temp":27,"dewp":23,"wdir":70,"wspd":6,"visib":"6+","altim":1012,"clouds":[],"obsTime":1784332800},"SBBR":{"icaoId":"SBBR","flightCategory":"VFR","rawOb":"METAR SBBR 180000Z 10003KT CAVOK 16/07 Q1023","temp":16,"dewp":7,"wdir":100,"wspd":3,"visib":"6+","altim":1023,"clouds":[],"obsTime":1784332800},"SBBV":{"icaoId":"SBBV","flightCategory":"VFR","rawOb":"METAR SBBV 180000Z 20001KT 9999 FEW040 28/25 Q1011","temp":28,"dewp":25,"wdir":200,"wspd":1,"visib":"6+","altim":1011,"clouds":[{"cover":"FEW","base":4000}],"obsTime":1784332800},"SBFZ":{"icaoId":"SBFZ","flightCategory":"VFR","rawOb":"METAR SBFZ 180000Z 12015KT 9999 SCT020 BKN060 27/24 Q1014","temp":27,"dewp":24,"wdir":120,"wspd":15,"visib":"6+","altim":1014,"clouds":[{"cover":"SCT","base":2000},{"cover":"BKN","base":6000}],"obsTime":1784332800},"SBSG":{"icaoId":"SBSG","flightCategory":"LIFR","rawOb":"METAR SBSG 180000Z 16008KT 130V190 3000 -RA BR BKN004 BKN025 23/23 Q1016","temp":23,"dewp":23,"wdir":160,"wspd":8,"visib":1.86,"altim":1016,"clouds":[{"cover":"BKN","base":400},{"cover":"BKN","base":2500}],"obsTime":1784332800},"SBRB":{"icaoId":"SBRB","flightCategory":"VFR","rawOb":"METAR SBRB 180000Z 09002KT 9999 FEW010 SCT100 23/23 Q1012","temp":23,"dewp":23,"wdir":90,"wspd":2,"visib":"6+","altim":1012,"clouds":[{"cover":"FEW","base":1000},{"cover":"SCT","base":10000}],"obsTime":1784332800},"SBMO":{"icaoId":"SBMO","flightCategory":"MVFR","rawOb":"METAR SBMO 180000Z 16010KT 9999 VCSH BKN023 24/21 Q1019","temp":24,"dewp":21,"wdir":160,"wspd":10,"visib":"6+","altim":1019,"clouds":[{"cover":"BKN","base":2300}],"obsTime":1784332800},"SBPJ":{"icaoId":"SBPJ","flightCategory":"VFR","rawOb":"METAR SBPJ 180000Z 12006KT CAVOK 24/17 Q1016","temp":24,"dewp":17,"wdir":120,"wspd":6,"visib":"6+","altim":1016,"clouds":[],"obsTime":1784332800},"SBSN":{"icaoId":"SBSN","flightCategory":"VFR","rawOb":"METAR SBSN 180000Z 09006KT CAVOK 28/25 Q1012","temp":28,"dewp":25,"wdir":90,"wspd":6,"visib":"6+","altim":1012,"clouds":[],"obsTime":1784332800},"SBMG":{"icaoId":"SBMG","flightCategory":"VFR","rawOb":"METAR SBMG 180000Z 04016KT CAVOK 23/13 Q1015","temp":23,"dewp":13,"wdir":40,"wspd":16,"visib":"6+","altim":1015,"clouds":[],"obsTime":1784332800},"SBIL":{"icaoId":"SBIL","flightCategory":"VFR","rawOb":"METAR SBIL 180000Z 23004KT 9999 FEW020 BKN045 22/19 Q1022","temp":22,"dewp":19,"wdir":230,"wspd":4,"visib":"6+","altim":1022,"clouds":[{"cover":"FEW","base":2000},{"cover":"BKN","base":4500}],"obsTime":1784332800},"SBJU":{"icaoId":"SBJU","flightCategory":"VFR","rawOb":"METAR SBJU 180000Z 18005KT 9999 FEW020 26/16 Q1018","temp":26,"dewp":16,"wdir":180,"wspd":5,"visib":"6+","altim":1018,"clouds":[{"cover":"FEW","base":2000}],"obsTime":1784332800},"SBME":{"icaoId":"SBME","flightCategory":"VFR","rawOb":"METAR SBME 180000Z 01007KT CAVOK 20/16 Q1022","temp":20,"dewp":16,"wdir":10,"wspd":7,"visib":"6+","altim":1022,"clouds":[],"obsTime":1784332800},"SBMK":{"icaoId":"SBMK","flightCategory":"VFR","rawOb":"METAR SBMK 180000Z 08007KT CAVOK 18/10 Q1024","temp":18,"dewp":10,"wdir":80,"wspd":7,"visib":"6+","altim":1024,"clouds":[],"obsTime":1784332800},"SBUL":{"icaoId":"SBUL","flightCategory":"VFR","rawOb":"METAR SBUL 180000Z 10010KT CAVOK 17/07 Q1023","temp":17,"dewp":7,"wdir":100,"wspd":10,"visib":"6+","altim":1023,"clouds":[],"obsTime":1784332800},"SBUR":{"icaoId":"SBUR","flightCategory":"VFR","rawOb":"METAR SBUR 180000Z 04007KT CAVOK 19/07 Q1021","temp":19,"dewp":7,"wdir":40,"wspd":7,"visib":"6+","altim":1021,"clouds":[],"obsTime":1784332800},"SBVT":{"icaoId":"SBVT","flightCategory":"VFR","rawOb":"METAR SBVT 180000Z 04005KT 9999 SCT030 BKN049 22/18 Q1024","temp":22,"dewp":18,"wdir":40,"wspd":5,"visib":"6+","altim":1024,"clouds":[{"cover":"SCT","base":3000},{"cover":"BKN","base":4900}],"obsTime":1784332800},"SBCG":{"icaoId":"SBCG","flightCategory":"VFR","rawOb":"METAR SBCG 180000Z 02013KT CAVOK 26/18 Q1014","temp":26,"dewp":18,"wdir":20,"wspd":13,"visib":"6+","altim":1014,"clouds":[],"obsTime":1784332800},"SBFI":{"icaoId":"SBFI","flightCategory":"VFR","rawOb":"METAR SBFI 180000Z 03014KT CAVOK 27/18 Q1008","temp":27,"dewp":18,"wdir":30,"wspd":14,"visib":"6+","altim":1008,"clouds":[],"obsTime":1784332800},"SBFL":{"icaoId":"SBFL","flightCategory":"VFR","rawOb":"METAR SBFL 180000Z 30011KT CAVOK 17/16 Q1014","temp":17,"dewp":16,"wdir":300,"wspd":11,"visib":"6+","altim":1014,"clouds":[],"obsTime":1784332800},"SBMA":{"icaoId":"SBMA","flightCategory":"VFR","rawOb":"METAR SBMA 180000Z 00000KT CAVOK 28/20 Q1014","temp":28,"dewp":20,"wdir":0,"wspd":0,"visib":"6+","altim":1014,"clouds":[],"obsTime":1784332800},"SBGR":{"icaoId":"SBGR","flightCategory":"VFR","rawOb":"METAR SBGR 180000Z 01009KT CAVOK 18/08 Q1021","temp":18,"dewp":8,"wdir":10,"wspd":9,"visib":"6+","altim":1021,"clouds":[],"obsTime":1784332800},"SBSP":{"icaoId":"SBSP","flightCategory":"VFR","rawOb":"METAR SBSP 180000Z 01008KT CAVOK 19/09 Q1022","temp":19,"dewp":9,"wdir":10,"wspd":8,"visib":"6+","altim":1022,"clouds":[],"obsTime":1784332800},"SBKP":{"icaoId":"SBKP","flightCategory":"VFR","rawOb":"METAR SBKP 180000Z 05006KT CAVOK 19/09 Q1021","temp":19,"dewp":9,"wdir":50,"wspd":6,"visib":"6+","altim":1021,"clouds":[],"obsTime":1784332800},"SBPA":{"icaoId":"SBPA","flightCategory":"VFR","rawOb":"METAR SBPA 180000Z VRB02KT CAVOK 25/16 Q1005","temp":25,"dewp":16,"wdir":"VRB","wspd":2,"visib":"6+","altim":1005,"clouds":[],"obsTime":1784332800},"SBGL":{"icaoId":"SBGL","flightCategory":"VFR","rawOb":"METAR SBGL 180000Z 02003KT 360V060 CAVOK 20/13 Q1019","temp":20,"dewp":13,"wdir":20,"wspd":3,"visib":"6+","altim":1019,"clouds":[],"obsTime":1784332800},"SBMQ":{"icaoId":"SBMQ","flightCategory":"VFR","rawOb":"METAR SBMQ 180000Z 03008KT 010V070 9999 SCT019 28/25 Q1013","temp":28,"dewp":25,"wdir":30,"wspd":8,"visib":"6+","altim":1013,"clouds":[{"cover":"SCT","base":1900}],"obsTime":1784332800},"SBCT":{"icaoId":"SBCT","flightCategory":"VFR","rawOb":"METAR SBCT 180000Z 03006KT CAVOK 17/12 Q1020","temp":17,"dewp":12,"wdir":30,"wspd":6,"visib":"6+","altim":1020,"clouds":[],"obsTime":1784332800},"SBRF":{"icaoId":"SBRF","flightCategory":"MVFR","rawOb":"SPECI SBRF 172325Z 18011KT 9999 VCSH SCT012 BKN023 OVC050 24/23 Q1017","temp":24,"dewp":23,"wdir":180,"wspd":11,"visib":"6+","altim":1017,"clouds":[{"cover":"SCT","base":1200},{"cover":"BKN","base":2300},{"cover":"OVC","base":5000}],"obsTime":1784330700},"SBTE":{"icaoId":"SBTE","flightCategory":"VFR","rawOb":"METAR SBTE 180000Z 35004KT CAVOK 27/20 Q1013","temp":27,"dewp":20,"wdir":350,"wspd":4,"visib":"6+","altim":1013,"clouds":[],"obsTime":1784332800},"SBCZ":{"icaoId":"SBCZ","flightCategory":"VFR","rawOb":"METAR SBCZ 180000Z 00000KT CAVOK 25/25 Q1012","temp":25,"dewp":25,"wdir":0,"wspd":0,"visib":"6+","altim":1012,"clouds":[],"obsTime":1784332800},"SBTF":{"icaoId":"SBTF","flightCategory":"VFR","rawOb":"METAR SBTF 180000Z 00000KT 9999 FEW015 27/26 Q1010","temp":27,"dewp":26,"wdir":0,"wspd":0,"visib":"6+","altim":1010,"clouds":[{"cover":"FEW","base":1500}],"obsTime":1784332800},"SBSJ":{"icaoId":"SBSJ","flightCategory":"VFR","rawOb":"METAR SBSJ 180000Z 08003G13KT CAVOK 17/10 Q1021","temp":17,"dewp":10,"wdir":80,"wspd":3,"visib":"6+","altim":1021,"clouds":[],"obsTime":1784332800},"SBPS":{"icaoId":"SBPS","flightCategory":"VFR","rawOb":"METAR SBPS 180000Z 25003KT 9999 SCT022 BKN050 20/19 Q1023","temp":20,"dewp":19,"wdir":250,"wspd":3,"visib":"6+","altim":1023,"clouds":[{"cover":"SCT","base":2200},{"cover":"BKN","base":5000}],"obsTime":1784332800},"SBOI":{"icaoId":"SBOI","flightCategory":"VFR","rawOb":"METAR SBOI 180000Z AUTO VRB02KT CAVOK 26/23 Q1014","temp":26,"dewp":23,"wdir":"VRB","wspd":2,"visib":"6+","altim":1014,"clouds":[],"obsTime":1784332800},"SBCO":{"icaoId":"SBCO","flightCategory":"VFR","rawOb":"METAR SBCO 180000Z 34004KT 310V020 CAVOK 27/16 Q1005","temp":27,"dewp":16,"wdir":340,"wspd":4,"visib":"6+","altim":1005,"clouds":[],"obsTime":1784332800},"SBSM":{"icaoId":"SBSM","flightCategory":"VFR","rawOb":"METAR SBSM 180000Z 02015G26KT 340V050 CAVOK 28/18 Q1003 WS ALL RWY","temp":28,"dewp":18,"wdir":20,"wspd":15,"visib":"6+","altim":1003,"clouds":[],"obsTime":1784332800},"SBKG":{"icaoId":"SBKG","flightCategory":"IFR","rawOb":"METAR SBKG 180000Z 15008KT 9999 BKN008 BKN070 21/20 Q1019","temp":21,"dewp":20,"wdir":150,"wspd":8,"visib":"6+","altim":1019,"clouds":[{"cover":"BKN","base":800},{"cover":"BKN","base":7000}],"obsTime":1784332800},"SBAX":{"icaoId":"SBAX","flightCategory":"VFR","rawOb":"METAR SBAX 180000Z AUTO 08005KT CAVOK 14/08 Q1024","temp":14,"dewp":8,"wdir":80,"wspd":5,"visib":"6+","altim":1024,"clouds":[],"obsTime":1784332800},"SBBH":{"icaoId":"SBBH","flightCategory":"VFR","rawOb":"METAR SBBH 180000Z 10005KT CAVOK 16/10 Q1025","temp":16,"dewp":10,"wdir":100,"wspd":5,"visib":"6+","altim":1025,"clouds":[],"obsTime":1784332800},"SBBU":{"icaoId":"SBBU","flightCategory":"VFR","rawOb":"METAR SBBU 180000Z 08006KT CAVOK 22/12 Q1020","temp":22,"dewp":12,"wdir":80,"wspd":6,"visib":"6+","altim":1020,"clouds":[],"obsTime":1784332800},"SBDN":{"icaoId":"SBDN","flightCategory":"VFR","rawOb":"METAR SBDN 180000Z 06006KT CAVOK 22/12 Q1016","temp":22,"dewp":12,"wdir":60,"wspd":6,"visib":"6+","altim":1016,"clouds":[],"obsTime":1784332800},"SBIP":{"icaoId":"SBIP","flightCategory":"VFR","rawOb":"METAR SBIP 180000Z AUTO VRB02KT CAVOK 16/14 Q1024","temp":16,"dewp":14,"wdir":"VRB","wspd":2,"visib":"6+","altim":1024,"clouds":[],"obsTime":1784332800},"SBSC":{"icaoId":"SBSC","flightCategory":"VFR","rawOb":"METAR SBSC 180000Z 36005KT CAVOK 21/13 Q1019","temp":21,"dewp":13,"wdir":360,"wspd":5,"visib":"6+","altim":1019,"clouds":[],"obsTime":1784332800},"SBSR":{"icaoId":"SBSR","flightCategory":"VFR","rawOb":"METAR SBSR 180000Z 07006KT CAVOK 23/06 Q1019","temp":23,"dewp":6,"wdir":70,"wspd":6,"visib":"6+","altim":1019,"clouds":[],"obsTime":1784332800},"SBAR":{"icaoId":"SBAR","flightCategory":"VFR","rawOb":"METAR SBAR 180000Z 13013KT 9999 FEW026 25/20 Q1019","temp":25,"dewp":20,"wdir":130,"wspd":13,"visib":"6+","altim":1019,"clouds":[{"cover":"FEW","base":2600}],"obsTime":1784332800},"SBTU":{"icaoId":"SBTU","flightCategory":"VFR","rawOb":"METAR SBTU 180000Z AUTO 29004KT 9999 // NCD ///// Q1015","temp":null,"dewp":null,"wdir":290,"wspd":4,"visib":"6+","altim":1015,"clouds":[],"obsTime":1784332800},"SBPL":{"icaoId":"SBPL","flightCategory":"VFR","rawOb":"METAR SBPL 180000Z 13012KT CAVOK 24/17 Q1019","temp":24,"dewp":17,"wdir":130,"wspd":12,"visib":"6+","altim":1019,"clouds":[],"obsTime":1784332800},"SBMT":{"icaoId":"SBMT","flightCategory":"VFR","rawOb":"METAR SBMT 180000Z 03001KT CAVOK 16/07 Q1021","temp":16,"dewp":7,"wdir":30,"wspd":1,"visib":"6+","altim":1021,"clouds":[],"obsTime":1784332800},"SBTA":{"icaoId":"SBTA","flightCategory":"VFR","rawOb":"METAR SBTA 180000Z VRB01KT CAVOK 11/09 Q1021","temp":11,"dewp":9,"wdir":"VRB","wspd":1,"visib":"6+","altim":1021,"clouds":[],"obsTime":1784332800},"SBAN":{"icaoId":"SBAN","flightCategory":"VFR","rawOb":"METAR SBAN 180000Z 09006KT CAVOK 16/06 Q1023","temp":16,"dewp":6,"wdir":90,"wspd":6,"visib":"6+","altim":1023,"clouds":[],"obsTime":1784332800},"SBJV":{"icaoId":"SBJV","flightCategory":"IFR","rawOb":"METAR SBJV 180000Z 00000KT 3000 BR FEW010 15/15 Q1015","temp":15,"dewp":15,"wdir":0,"wspd":0,"visib":1.86,"altim":1015,"clouds":[{"cover":"FEW","base":1000}],"obsTime":1784332800},"SBLE":{"icaoId":"SBLE","flightCategory":"VFR","rawOb":"METAR SBLE 180000Z AUTO 09005KT 9999 BKN035 OVC044 19/19 Q1023","temp":19,"dewp":19,"wdir":90,"wspd":5,"visib":"6+","altim":1023,"clouds":[{"cover":"BKN","base":3500},{"cover":"OVC","base":4400}],"obsTime":1784332800},"SBAF":{"icaoId":"SBAF","flightCategory":"VFR","rawOb":"METAR SBAF 180000Z 24003KT CAVOK 15/15 Q1020","temp":15,"dewp":15,"wdir":240,"wspd":3,"visib":"6+","altim":1020,"clouds":[],"obsTime":1784332800},"SBLS":{"icaoId":"SBLS","flightCategory":"VFR","rawOb":"METAR SBLS 180000Z 11007KT CAVOK 17/10 Q1025","temp":17,"dewp":10,"wdir":110,"wspd":7,"visib":"6+","altim":1025,"clouds":[],"obsTime":1784332800},"SBNM":{"icaoId":"SBNM","flightCategory":"VFR","rawOb":"METAR SBNM 180000Z AUTO 02012KT CAVOK 25/18 Q1006","temp":25,"dewp":18,"wdir":20,"wspd":12,"visib":"6+","altim":1006,"clouds":[],"obsTime":1784332800},"SBJP":{"icaoId":"SBJP","flightCategory":"IFR","rawOb":"METAR SBJP 180000Z 16006KT 4000 -RA BKN006 OVC014 23/23 Q1017","temp":23,"dewp":23,"wdir":160,"wspd":6,"visib":2.49,"altim":1017,"clouds":[{"cover":"BKN","base":600},{"cover":"OVC","base":1400}],"obsTime":1784332800},"SBJR":{"icaoId":"SBJR","flightCategory":"VFR","rawOb":"METAR SBJR 180000Z 35004KT CAVOK 20/13 Q1019","temp":20,"dewp":13,"wdir":350,"wspd":4,"visib":"6+","altim":1019,"clouds":[],"obsTime":1784332800}}}