{"updated":1779569221,"count":86,"data":{"SBGR":{"icaoId":"SBGR","flightCategory":"IFR","rawOb":"METAR SBGR 231900Z 09003KT 4500 -RA BR OVC010 18/16 Q1022","temp":18,"dewp":16,"wdir":90,"wspd":3,"visib":2.8,"altim":1022,"clouds":[{"cover":"OVC","base":1000}],"obsTime":1779562800},"SBAT":{"icaoId":"SBAT","flightCategory":"VFR","rawOb":"METAR SBAT 231900Z 10003KT 9999 SCT035 33/22 Q1013","temp":33,"dewp":22,"wdir":100,"wspd":3,"visib":"6+","altim":1013,"clouds":[{"cover":"SCT","base":3500}],"obsTime":1779562800},"SBVT":{"icaoId":"SBVT","flightCategory":"VFR","rawOb":"METAR SBVT 231900Z 19005KT 9999 VCSH SCT026 BKN038 23/20 Q1021","temp":23,"dewp":20,"wdir":190,"wspd":5,"visib":"6+","altim":1021,"clouds":[{"cover":"SCT","base":2600},{"cover":"BKN","base":3800}],"obsTime":1779562800},"SBBE":{"icaoId":"SBBE","flightCategory":"VFR","rawOb":"METAR SBBE 231900Z 30005KT 9999 SCT040 BKN100 31/25 Q1011","temp":31,"dewp":25,"wdir":300,"wspd":5,"visib":"6+","altim":1011,"clouds":[{"cover":"SCT","base":4000},{"cover":"BKN","base":10000}],"obsTime":1779562800},"SBBR":{"icaoId":"SBBR","flightCategory":"MVFR","rawOb":"METAR SBBR 231900Z 12009KT 9999 BKN025 23/16 Q1022","temp":23,"dewp":16,"wdir":120,"wspd":9,"visib":"6+","altim":1022,"clouds":[{"cover":"BKN","base":2500}],"obsTime":1779562800},"SBBV":{"icaoId":"SBBV","flightCategory":"MVFR","rawOb":"METAR SBBV 231900Z 06008KT 9999 -SHRA BKN030 FEW035TCU BKN080 27/25 Q1012","temp":27,"dewp":25,"wdir":60,"wspd":8,"visib":"6+","altim":1012,"clouds":[{"cover":"BKN","base":3000},{"cover":"FEW","base":3500},{"cover":"BKN","base":8000}],"obsTime":1779562800},"SBCB":{"icaoId":"SBCB","flightCategory":"VFR","rawOb":"METAR SBCB 231900Z 05014KT 9999 FEW020 SCT070 23/18 Q1020","temp":23,"dewp":18,"wdir":50,"wspd":14,"visib":"6+","altim":1020,"clouds":[{"cover":"FEW","base":2000},{"cover":"SCT","base":7000}],"obsTime":1779562800},"SBCF":{"icaoId":"SBCF","flightCategory":"VFR","rawOb":"METAR SBCF 231900Z 11006KT 9999 BKN035 22/15 Q1023","temp":22,"dewp":15,"wdir":110,"wspd":6,"visib":"6+","altim":1023,"clouds":[{"cover":"BKN","base":3500}],"obsTime":1779562800},"SBCG":{"icaoId":"SBCG","flightCategory":"VFR","rawOb":"METAR SBCG 231900Z 23006KT 9999 BKN040 BKN050 24/18 Q1019","temp":24,"dewp":18,"wdir":230,"wspd":6,"visib":"6+","altim":1019,"clouds":[{"cover":"BKN","base":4000},{"cover":"BKN","base":5000}],"obsTime":1779562800},"SBCP":{"icaoId":"SBCP","flightCategory":"VFR","rawOb":"METAR SBCP 231900Z 09006KT 9999 FEW015 SCT020 BKN070 23/18 Q1021","temp":23,"dewp":18,"wdir":90,"wspd":6,"visib":"6+","altim":1021,"clouds":[{"cover":"FEW","base":1500},{"cover":"SCT","base":2000},{"cover":"BKN","base":7000}],"obsTime":1779562800},"SBCR":{"icaoId":"SBCR","flightCategory":"VFR","rawOb":"METAR SBCR 231900Z 21010KT CAVOK 22/14 Q1018","temp":22,"dewp":14,"wdir":210,"wspd":10,"visib":"6+","altim":1018,"clouds":[],"obsTime":1779562800},"SBCT":{"icaoId":"SBCT","flightCategory":"MVFR","rawOb":"METAR SBCT 231900Z VRB02KT 7000 OVC013 16/14 Q1023","temp":16,"dewp":14,"wdir":"VRB","wspd":2,"visib":4.35,"altim":1023,"clouds":[{"cover":"OVC","base":1300}],"obsTime":1779562800},"SBCZ":{"icaoId":"SBCZ","flightCategory":"VFR","rawOb":"METAR SBCZ 231900Z 12005KT 9999 SCT030 BKN100 25/20 Q1016","temp":25,"dewp":20,"wdir":120,"wspd":5,"visib":"6+","altim":1016,"clouds":[{"cover":"SCT","base":3000},{"cover":"BKN","base":10000}],"obsTime":1779562800},"SBEG":{"icaoId":"SBEG","flightCategory":"VFR","rawOb":"METAR SBEG 231900Z 23006KT 9999 SCT025 FEW030TCU SCT100 29/24 Q1012","temp":29,"dewp":24,"wdir":230,"wspd":6,"visib":"6+","altim":1012,"clouds":[{"cover":"SCT","base":2500},{"cover":"FEW","base":3000},{"cover":"SCT","base":10000}],"obsTime":1779562800},"SBFI":{"icaoId":"SBFI","flightCategory":"MVFR","rawOb":"METAR SBFI 231900Z 20003KT 9999 SCT012 OVC015 17/16 Q1020","temp":17,"dewp":16,"wdir":200,"wspd":3,"visib":"6+","altim":1020,"clouds":[{"cover":"SCT","base":1200},{"cover":"OVC","base":1500}],"obsTime":1779562800},"SBFL":{"icaoId":"SBFL","flightCategory":"IFR","rawOb":"METAR SBFL 231900Z 09001KT 2500 DZ BR SCT004 BKN007 OVC025 16/16 Q1022","temp":16,"dewp":16,"wdir":90,"wspd":1,"visib":1.55,"altim":1022,"clouds":[{"cover":"SCT","base":400},{"cover":"BKN","base":700},{"cover":"OVC","base":2500}],"obsTime":1779562800},"SBFZ":{"icaoId":"SBFZ","flightCategory":"VFR","rawOb":"METAR SBFZ 231900Z 09010KT 9999 SCT030 BKN060 29/23 Q1011","temp":29,"dewp":23,"wdir":90,"wspd":10,"visib":"6+","altim":1011,"clouds":[{"cover":"SCT","base":3000},{"cover":"BKN","base":6000}],"obsTime":1779562800},"SBGL":{"icaoId":"SBGL","flightCategory":"VFR","rawOb":"METAR SBGL 231900Z 12007KT 090V150 9999 FEW025 BKN050 25/19 Q1019","temp":25,"dewp":19,"wdir":120,"wspd":7,"visib":"6+","altim":1019,"clouds":[{"cover":"FEW","base":2500},{"cover":"BKN","base":5000}],"obsTime":1779562800},"SBGO":{"icaoId":"SBGO","flightCategory":"VFR","rawOb":"METAR SBGO 231900Z 09010KT 9999 FEW045 27/17 Q1020","temp":27,"dewp":17,"wdir":90,"wspd":10,"visib":"6+","altim":1020,"clouds":[{"cover":"FEW","base":4500}],"obsTime":1779562800},"SBHT":{"icaoId":"SBHT","flightCategory":"VFR","rawOb":"METAR SBHT 231900Z 04004KT 9999 FEW030 SCT100 30/25 Q1011","temp":30,"dewp":25,"wdir":40,"wspd":4,"visib":"6+","altim":1011,"clouds":[{"cover":"FEW","base":3000},{"cover":"SCT","base":10000}],"obsTime":1779562800},"SBIL":{"icaoId":"SBIL","flightCategory":"MVFR","rawOb":"METAR SBIL 231900Z 20005KT 160V240 6000 -RA FEW007 SCT020 FEW025TCU BKN070 25/24 Q1018","temp":25,"dewp":24,"wdir":200,"wspd":5,"visib":3.73,"altim":1018,"clouds":[{"cover":"FEW","base":700},{"cover":"SCT","base":2000},{"cover":"FEW","base":2500},{"cover":"BKN","base":7000}],"obsTime":1779562800},"SBJU":{"icaoId":"SBJU","flightCategory":"VFR","rawOb":"METAR SBJU 231900Z 18010KT 9999 SCT022 31/21 Q1013","temp":31,"dewp":21,"wdir":180,"wspd":10,"visib":"6+","altim":1013,"clouds":[{"cover":"SCT","base":2200}],"obsTime":1779562800},"SBKP":{"icaoId":"SBKP","flightCategory":"VFR","rawOb":"METAR SBKP 231900Z 36004KT 9999 FEW019 SCT035 22/18 Q1021","temp":22,"dewp":18,"wdir":360,"wspd":4,"visib":"6+","altim":1021,"clouds":[{"cover":"FEW","base":1900},{"cover":"SCT","base":3500}],"obsTime":1779562800},"SBLO":{"icaoId":"SBLO","flightCategory":"VFR","rawOb":"METAR SBLO 231900Z 09003KT CAVOK 21/17 Q1021","temp":21,"dewp":17,"wdir":90,"wspd":3,"visib":"6+","altim":1021,"clouds":[],"obsTime":1779562800},"SBMA":{"icaoId":"SBMA","flightCategory":"VFR","rawOb":"METAR SBMA 231900Z 00000KT 9999 FEW025 33/22 Q1011","temp":33,"dewp":22,"wdir":0,"wspd":0,"visib":"6+","altim":1011,"clouds":[{"cover":"FEW","base":2500}],"obsTime":1779562800},"SBME":{"icaoId":"SBME","flightCategory":"MVFR","rawOb":"METAR SBME 231900Z 07009KT 9999 BKN030 BKN080 24/18 Q1020","temp":24,"dewp":18,"wdir":70,"wspd":9,"visib":"6+","altim":1020,"clouds":[{"cover":"BKN","base":3000},{"cover":"BKN","base":8000}],"obsTime":1779562800},"SBMG":{"icaoId":"SBMG","flightCategory":"MVFR","rawOb":"METAR SBMG 231900Z 21005KT 160V260 9999 BKN030 BKN100 23/17 Q1019","temp":23,"dewp":17,"wdir":210,"wspd":5,"visib":"6+","altim":1019,"clouds":[{"cover":"BKN","base":3000},{"cover":"BKN","base":10000}],"obsTime":1779562800},"SBMK":{"icaoId":"SBMK","flightCategory":"MVFR","rawOb":"METAR SBMK 231900Z 09010KT 8000 -DZ SCT015 BKN035 OVC070 25/17 Q1021","temp":25,"dewp":17,"wdir":90,"wspd":10,"visib":4.97,"altim":1021,"clouds":[{"cover":"SCT","base":1500},{"cover":"BKN","base":3500},{"cover":"OVC","base":7000}],"obsTime":1779562800},"SBMO":{"icaoId":"SBMO","flightCategory":"IFR","rawOb":"METAR SBMO 231900Z 11016KT 4000 -RA BR BKN025 24/23 Q1015","temp":24,"dewp":23,"wdir":110,"wspd":16,"visib":2.49,"altim":1015,"clouds":[{"cover":"BKN","base":2500}],"obsTime":1779562800},"SBMQ":{"icaoId":"SBMQ","flightCategory":"VFR","rawOb":"METAR SBMQ 231900Z 34003KT 9999 SCT009 BKN088 28/25 Q1012","temp":28,"dewp":25,"wdir":340,"wspd":3,"visib":"6+","altim":1012,"clouds":[{"cover":"SCT","base":900},{"cover":"BKN","base":8800}],"obsTime":1779562800},"SBNT":{"icaoId":"SBNT","flightCategory":"VFR","rawOb":"METAR SBNT 231900Z 14016KT 9999 FEW032 29/22 Q1012","temp":29,"dewp":22,"wdir":140,"wspd":16,"visib":"6+","altim":1012,"clouds":[{"cover":"FEW","base":3200}],"obsTime":1779562800},"SBPA":{"icaoId":"SBPA","flightCategory":"IFR","rawOb":"METAR SBPA 231900Z 10015KT 2200 -DZ BR BKN007 OVC012 15/14 Q1023","temp":15,"dewp":14,"wdir":100,"wspd":15,"visib":1.37,"altim":1023,"clouds":[{"cover":"BKN","base":700},{"cover":"OVC","base":1200}],"obsTime":1779562800},"SBPJ":{"icaoId":"SBPJ","flightCategory":"VFR","rawOb":"METAR SBPJ 231900Z 13010KT 9999 SCT040 34/17 Q1013","temp":34,"dewp":17,"wdir":130,"wspd":10,"visib":"6+","altim":1013,"clouds":[{"cover":"SCT","base":4000}],"obsTime":1779562800},"SBPV":{"icaoId":"SBPV","flightCategory":"VFR","rawOb":"METAR SBPV 231900Z 12003KT 9999 BKN032 BKN065 27/22 Q1014","temp":27,"dewp":22,"wdir":120,"wspd":3,"visib":"6+","altim":1014,"clouds":[{"cover":"BKN","base":3200},{"cover":"BKN","base":6500}],"obsTime":1779562800},"SBRB":{"icaoId":"SBRB","flightCategory":"MVFR","rawOb":"METAR SBRB 231900Z 18005KT 9999 BKN025 24/18 Q1017","temp":24,"dewp":18,"wdir":180,"wspd":5,"visib":"6+","altim":1017,"clouds":[{"cover":"BKN","base":2500}],"obsTime":1779562800},"SBRF":{"icaoId":"SBRF","flightCategory":"VFR","rawOb":"METAR SBRF 231900Z 14013KT 9999 SCT025 28/23 Q1013","temp":28,"dewp":23,"wdir":140,"wspd":13,"visib":"6+","altim":1013,"clouds":[{"cover":"SCT","base":2500}],"obsTime":1779562800},"SBSG":{"icaoId":"SBSG","flightCategory":"VFR","rawOb":"METAR SBSG 231900Z 13008KT 090V170 9999 SCT035 28/21 Q1013","temp":28,"dewp":21,"wdir":130,"wspd":8,"visib":"6+","altim":1013,"clouds":[{"cover":"SCT","base":3500}],"obsTime":1779562800},"SBSL":{"icaoId":"SBSL","flightCategory":"VFR","rawOb":"METAR SBSL 231900Z 17006KT 9999 SCT030 SCT090 31/23 Q1010","temp":31,"dewp":23,"wdir":170,"wspd":6,"visib":"6+","altim":1010,"clouds":[{"cover":"SCT","base":3000},{"cover":"SCT","base":9000}],"obsTime":1779562800},"SBSN":{"icaoId":"SBSN","flightCategory":"VFR","rawOb":"METAR SBSN 231900Z 11007KT 9000 -TSRA SCT017 FEW025CB BKN070 26/24 Q1011","temp":26,"dewp":24,"wdir":110,"wspd":7,"visib":5.59,"altim":1011,"clouds":[{"cover":"SCT","base":1700},{"cover":"FEW","base":2500},{"cover":"BKN","base":7000}],"obsTime":1779562800},"SBSP":{"icaoId":"SBSP","flightCategory":"LIFR","rawOb":"METAR SBSP 231900Z COR 18007KT 5000 -RA BR OVC004 17/16 Q1023","temp":17,"dewp":16,"wdir":180,"wspd":7,"visib":3.11,"altim":1023,"clouds":[{"cover":"OVC","base":400}],"obsTime":1779562800},"SBSV":{"icaoId":"SBSV","flightCategory":"VFR","rawOb":"METAR SBSV 231900Z 10010KT 9000 SCT021 FEW025TCU BKN050 27/24 Q1016","temp":27,"dewp":24,"wdir":100,"wspd":10,"visib":5.59,"altim":1016,"clouds":[{"cover":"SCT","base":2100},{"cover":"FEW","base":2500},{"cover":"BKN","base":5000}],"obsTime":1779562800},"SBTE":{"icaoId":"SBTE","flightCategory":"VFR","rawOb":"METAR SBTE 231900Z 14007KT 9999 FEW025 32/21 Q1010","temp":32,"dewp":21,"wdir":140,"wspd":7,"visib":"6+","altim":1010,"clouds":[{"cover":"FEW","base":2500}],"obsTime":1779562800},"SBUL":{"icaoId":"SBUL","flightCategory":"VFR","rawOb":"METAR SBUL 231900Z 07011KT 030V100 9999 SCT040 24/16 Q1022","temp":24,"dewp":16,"wdir":70,"wspd":11,"visib":"6+","altim":1022,"clouds":[{"cover":"SCT","base":4000}],"obsTime":1779562800},"SBUR":{"icaoId":"SBUR","flightCategory":"VFR","rawOb":"METAR SBUR 231900Z 35007KT 9999 SCT043 26/15 Q1021","temp":26,"dewp":15,"wdir":350,"wspd":7,"visib":"6+","altim":1021,"clouds":[{"cover":"SCT","base":4300}],"obsTime":1779562800},"SBAR":{"icaoId":"SBAR","flightCategory":"VFR","rawOb":"METAR SBAR 231900Z 12009KT 9999 VCSH FEW025 BKN045 27/21 Q1015","temp":27,"dewp":21,"wdir":120,"wspd":9,"visib":"6+","altim":1015,"clouds":[{"cover":"FEW","base":2500},{"cover":"BKN","base":4500}],"obsTime":1779562800},"SBAX":{"icaoId":"SBAX","flightCategory":"VFR","rawOb":"METAR SBAX 231900Z AUTO 04004KT 360V070 CAVOK 24/16 Q1022","temp":24,"dewp":16,"wdir":40,"wspd":4,"visib":"6+","altim":1022,"clouds":[],"obsTime":1779562800},"SBBH":{"icaoId":"SBBH","flightCategory":"MVFR","rawOb":"METAR SBBH 231900Z 09007KT 9999 BKN030 22/15 Q1023","temp":22,"dewp":15,"wdir":90,"wspd":7,"visib":"6+","altim":1023,"clouds":[{"cover":"BKN","base":3000}],"obsTime":1779562800},"SBBQ":{"icaoId":"SBBQ","flightCategory":"VFR","rawOb":"METAR SBBQ 231900Z 08004KT 9999 SCT025 19/14 Q1026","temp":19,"dewp":14,"wdir":80,"wspd":4,"visib":"6+","altim":1026,"clouds":[{"cover":"SCT","base":2500}],"obsTime":1779562800},"SBBU":{"icaoId":"SBBU","flightCategory":"LIFR","rawOb":"METAR SBBU 231900Z 19001KT 2500 -TSRA BR BKN003 BKN012 FEW025CB 20/20 Q1021","temp":20,"dewp":20,"wdir":190,"wspd":1,"visib":1.55,"altim":1021,"clouds":[{"cover":"BKN","base":300},{"cover":"BKN","base":1200},{"cover":"FEW","base":2500}],"obsTime":1779562800},"SBCA":{"icaoId":"SBCA","flightCategory":"LIFR","rawOb":"METAR SBCA 231900Z VRB02KT 0900 -DZ FG OVC001 15/15 Q1022","temp":15,"dewp":15,"wdir":"VRB","wspd":2,"visib":0.56,"altim":1022,"clouds":[{"cover":"OVC","base":100}],"obsTime":1779562800},"SBCC":{"icaoId":"SBCC","flightCategory":"MVFR","rawOb":"METAR SBCC 231900Z 05009KT 9999 BKN030 31/17 Q1014","temp":31,"dewp":17,"wdir":50,"wspd":9,"visib":"6+","altim":1014,"clouds":[{"cover":"BKN","base":3000}],"obsTime":1779562800},"SBCJ":{"icaoId":"SBCJ","flightCategory":"VFR","rawOb":"METAR SBCJ 231900Z 14008KT 9999 FEW025 29/19 Q1016","temp":29,"dewp":19,"wdir":140,"wspd":8,"visib":"6+","altim":1016,"clouds":[{"cover":"FEW","base":2500}],"obsTime":1779562800},"SBCO":{"icaoId":"SBCO","flightCategory":"IFR","rawOb":"METAR SBCO 231900Z 11017KT 3000 -RA BR BKN008 OVC014 15/14 Q1024","temp":15,"dewp":14,"wdir":110,"wspd":17,"visib":1.86,"altim":1024,"clouds":[{"cover":"BKN","base":800},{"cover":"OVC","base":1400}],"obsTime":1779562800},"SBDN":{"icaoId":"SBDN","flightCategory":"IFR","rawOb":"METAR SBDN 231900Z 04003KT 4000 -TSRA FEW010 BKN036 FEW060CB 19/18 Q1020","temp":19,"dewp":18,"wdir":40,"wspd":3,"visib":2.49,"altim":1020,"clouds":[{"cover":"FEW","base":1000},{"cover":"BKN","base":3600},{"cover":"FEW","base":6000}],"obsTime":1779562800},"SBES":{"icaoId":"SBES","flightCategory":"VFR","rawOb":"METAR SBES 231900Z VRB12G22KT 9999 FEW020 22/// Q1020","temp":null,"dewp":null,"wdir":"VRB","wspd":12,"visib":"6+","altim":1020,"clouds":[{"cover":"FEW","base":2000}],"obsTime":1779562800},"SBIP":{"icaoId":"SBIP","flightCategory":"VFR","rawOb":"METAR SBIP 231900Z AUTO 01003KT 330V030 9999 OVC047 25/17 Q1021","temp":25,"dewp":17,"wdir":10,"wspd":3,"visib":"6+","altim":1021,"clouds":[{"cover":"OVC","base":4700}],"obsTime":1779562800},"SBKG":{"icaoId":"SBKG","flightCategory":"VFR","rawOb":"METAR SBKG 231900Z 13009KT 9999 SCT020 SCT070 26/21 Q1015","temp":26,"dewp":21,"wdir":130,"wspd":9,"visib":"6+","altim":1015,"clouds":[{"cover":"SCT","base":2000},{"cover":"SCT","base":7000}],"obsTime":1779562800},"SBOI":{"icaoId":"SBOI","flightCategory":"VFR","rawOb":"METAR SBOI 231900Z AUTO 03004KT 340V080 CAVOK 26/24 Q1013","temp":26,"dewp":24,"wdir":30,"wspd":4,"visib":"6+","altim":1013,"clouds":[],"obsTime":1779562800},"SBPB":{"icaoId":"SBPB","flightCategory":"VFR","rawOb":"METAR SBPB 231900Z 06006KT 9999 FEW020 BKN100 30/25 Q1010","temp":30,"dewp":25,"wdir":60,"wspd":6,"visib":"6+","altim":1010,"clouds":[{"cover":"FEW","base":2000},{"cover":"BKN","base":10000}],"obsTime":1779562800},"SBPL":{"icaoId":"SBPL","flightCategory":"VFR","rawOb":"METAR SBPL 231900Z 09010KT 9999 SCT030 32/16 Q1014","temp":32,"dewp":16,"wdir":90,"wspd":10,"visib":"6+","altim":1014,"clouds":[{"cover":"SCT","base":3000}],"obsTime":1779562800},"SBPP":{"icaoId":"SBPP","flightCategory":"MVFR","rawOb":"METAR SBPP 231900Z 09004KT 9999 BKN015 BKN070 19/15 Q1021","temp":19,"dewp":15,"wdir":90,"wspd":4,"visib":"6+","altim":1021,"clouds":[{"cover":"BKN","base":1500},{"cover":"BKN","base":7000}],"obsTime":1779562800},"SBPS":{"icaoId":"SBPS","flightCategory":"MVFR","rawOb":"METAR SBPS 231900Z 14007KT 070V190 9999 FEW015 BKN030 OVC070 26/21 Q1018","temp":26,"dewp":21,"wdir":140,"wspd":7,"visib":"6+","altim":1018,"clouds":[{"cover":"FEW","base":1500},{"cover":"BKN","base":3000},{"cover":"OVC","base":7000}],"obsTime":1779562800},"SBSC":{"icaoId":"SBSC","flightCategory":"MVFR","rawOb":"METAR SBSC 231900Z 24004KT 8000 SCT015 SCT050 BKN083 24/19 Q1020","temp":24,"dewp":19,"wdir":240,"wspd":4,"visib":4.97,"altim":1020,"clouds":[{"cover":"SCT","base":1500},{"cover":"SCT","base":5000},{"cover":"BKN","base":8300}],"obsTime":1779562800},"SBSJ":{"icaoId":"SBSJ","flightCategory":"MVFR","rawOb":"METAR SBSJ 231900Z 15004KT 130V200 8000 BKN022 21/16 Q1022","temp":21,"dewp":16,"wdir":150,"wspd":4,"visib":4.97,"altim":1022,"clouds":[{"cover":"BKN","base":2200}],"obsTime":1779562800},"SBSM":{"icaoId":"SBSM","flightCategory":"VFR","rawOb":"METAR SBSM 231900Z 10008KT 080V140 9999 FEW035 18/11 Q1023","temp":18,"dewp":11,"wdir":100,"wspd":8,"visib":"6+","altim":1023,"clouds":[{"cover":"FEW","base":3500}],"obsTime":1779562800},"SBSR":{"icaoId":"SBSR","flightCategory":"VFR","rawOb":"METAR SBSR 231900Z 03005KT 9999 SCT035 28/16 Q1019","temp":28,"dewp":16,"wdir":30,"wspd":5,"visib":"6+","altim":1019,"clouds":[{"cover":"SCT","base":3500}],"obsTime":1779562800},"SBTF":{"icaoId":"SBTF","flightCategory":"MVFR","rawOb":"METAR SBTF 231900Z 25004KT 9999 FEW007 BKN015 26/23 Q1013","temp":26,"dewp":23,"wdir":250,"wspd":4,"visib":"6+","altim":1013,"clouds":[{"cover":"FEW","base":700},{"cover":"BKN","base":1500}],"obsTime":1779562800},"SBTT":{"icaoId":"SBTT","flightCategory":"VFR","rawOb":"METAR SBTT 231900Z 23006KT 9999 SCT022 BKN050 25/20 Q1015","temp":25,"dewp":20,"wdir":230,"wspd":6,"visib":"6+","altim":1015,"clouds":[{"cover":"SCT","base":2200},{"cover":"BKN","base":5000}],"obsTime":1779562800},"SBTU":{"icaoId":"SBTU","flightCategory":"VFR","rawOb":"METAR SBTU 231900Z AUTO 28006KT 250V310 9999 // FEW036/// SCT086/// 31/23 Q1012","temp":31,"dewp":23,"wdir":280,"wspd":6,"visib":"6+","altim":1012,"clouds":[{"cover":"FEW","base":3600},{"cover":"SCT","base":8600}],"obsTime":1779562800},"SBUY":{"icaoId":"SBUY","flightCategory":"MVFR","rawOb":"METAR SBUY 231900Z 28002KT 9999 BKN020 BKN100 25/22 Q1013","temp":25,"dewp":22,"wdir":280,"wspd":2,"visib":"6+","altim":1013,"clouds":[{"cover":"BKN","base":2000},{"cover":"BKN","base":10000}],"obsTime":1779562800},"SBVH":{"icaoId":"SBVH","flightCategory":"MVFR","rawOb":"METAR SBVH 231900Z 09006KT 9999 BKN026 25/20 Q1017","temp":25,"dewp":20,"wdir":90,"wspd":6,"visib":"6+","altim":1017,"clouds":[{"cover":"BKN","base":2600}],"obsTime":1779562800},"SBGM":{"icaoId":"SBGM","flightCategory":"MVFR","rawOb":"METAR SBGM 231900Z 13006KT 9999 OVC025 24/18 Q1016","temp":24,"dewp":18,"wdir":130,"wspd":6,"visib":"6+","altim":1016,"clouds":[{"cover":"OVC","base":2500}],"obsTime":1779562800},"SBLE":{"icaoId":"SBLE","flightCategory":"MVFR","rawOb":"METAR SBLE 231900Z AUTO 19004KT 160V230 9999 OVC026 ///// Q////","temp":null,"dewp":null,"wdir":190,"wspd":4,"visib":"6+","altim":null,"clouds":[{"cover":"OVC","base":2600}],"obsTime":1779562800},"SBIH":{"icaoId":"SBIH","flightCategory":"VFR","rawOb":"METAR SBIH 231900Z 07002KT 9999 SCT018 FEW023TCU 32/23 Q1010","temp":32,"dewp":23,"wdir":70,"wspd":2,"visib":"6+","altim":1010,"clouds":[{"cover":"SCT","base":1800},{"cover":"FEW","base":2300}],"obsTime":1779562800},"SBAN":{"icaoId":"SBAN","flightCategory":"VFR","rawOb":"METAR SBAN 231900Z 18008KT 140V220 9999 SCT027 BKN100 23/16 Q1022","temp":23,"dewp":16,"wdir":180,"wspd":8,"visib":"6+","altim":1022,"clouds":[{"cover":"SCT","base":2700},{"cover":"BKN","base":10000}],"obsTime":1779562800},"SBJV":{"icaoId":"SBJV","flightCategory":"VFR","rawOb":"METAR SBJV 231900Z 05002KT 9999 FEW010 OVC040 18/15 Q1022","temp":18,"dewp":15,"wdir":50,"wspd":2,"visib":"6+","altim":1022,"clouds":[{"cover":"FEW","base":1000},{"cover":"OVC","base":4000}],"obsTime":1779562800},"SBNM":{"icaoId":"SBNM","flightCategory":"VFR","rawOb":"METAR SBNM 231900Z 17002KT 9999 SCT030 19/12 Q1021","temp":19,"dewp":12,"wdir":170,"wspd":2,"visib":"6+","altim":1021,"clouds":[{"cover":"SCT","base":3000}],"obsTime":1779562800},"SBAF":{"icaoId":"SBAF","flightCategory":"VFR","rawOb":" SBAF 231900Z 20007KT 9999 FEW035 BKN051 24/22 Q1020","temp":24,"dewp":22,"wdir":200,"wspd":7,"visib":"6+","altim":1020,"clouds":[{"cover":"FEW","base":3500},{"cover":"BKN","base":5100}],"obsTime":1779562800},"SBGW":{"icaoId":"SBGW","flightCategory":"VFR","rawOb":"METAR SBGW 231900Z 05005KT 9999 SCT027 BKN075 22/14 Q1021","temp":22,"dewp":14,"wdir":50,"wspd":5,"visib":"6+","altim":1021,"clouds":[{"cover":"SCT","base":2700},{"cover":"BKN","base":7500}],"obsTime":1779562800},"SBJR":{"icaoId":"SBJR","flightCategory":"VFR","rawOb":"METAR SBJR 231900Z 22002KT 9999 FEW025 BKN090 25/20 Q1019","temp":25,"dewp":20,"wdir":220,"wspd":2,"visib":"6+","altim":1019,"clouds":[{"cover":"FEW","base":2500},{"cover":"BKN","base":9000}],"obsTime":1779562800},"SBLS":{"icaoId":"SBLS","flightCategory":"MVFR","rawOb":"METAR SBLS 231900Z 14008KT 070V130 9999 BKN030 22/16 Q1023","temp":22,"dewp":16,"wdir":140,"wspd":8,"visib":"6+","altim":1023,"clouds":[{"cover":"BKN","base":3000}],"obsTime":1779562800},"SBMT":{"icaoId":"SBMT","flightCategory":"IFR","rawOb":"METAR SBMT 231900Z 09004KT 3500 BR BKN011 OVC013 17/16 Q1022 RERA","temp":17,"dewp":16,"wdir":90,"wspd":4,"visib":2.17,"altim":1022,"clouds":[{"cover":"BKN","base":1100},{"cover":"OVC","base":1300}],"obsTime":1779562800},"SBST":{"icaoId":"SBST","flightCategory":"IFR","rawOb":"METAR SBST 231900Z 04003KT 4000 -DZ BR FEW004 BKN007 OVC009 18/18 Q1021 RERA","temp":18,"dewp":18,"wdir":40,"wspd":3,"visib":2.49,"altim":1021,"clouds":[{"cover":"FEW","base":400},{"cover":"BKN","base":700},{"cover":"OVC","base":900}],"obsTime":1779562800},"SBTA":{"icaoId":"SBTA","flightCategory":"VFR","rawOb":"METAR SBTA 231900Z 02005KT 9999 FEW020 SCT045 22/16 Q1021","temp":22,"dewp":16,"wdir":20,"wspd":5,"visib":"6+","altim":1021,"clouds":[{"cover":"FEW","base":2000},{"cover":"SCT","base":4500}],"obsTime":1779562800},"SBJP":{"icaoId":"SBJP","flightCategory":"VFR","rawOb":"METAR SBJP 231900Z 14011KT 9999 SCT030 28/21 Q1013","temp":28,"dewp":21,"wdir":140,"wspd":11,"visib":"6+","altim":1013,"clouds":[{"cover":"SCT","base":3000}],"obsTime":1779562800},"SBTC":{"icaoId":"SBTC","flightCategory":"VFR","rawOb":"METAR SBTC 231900Z 16006KT 9999 SCT020 BKN080 27/22 Q1018","temp":27,"dewp":22,"wdir":160,"wspd":6,"visib":"6+","altim":1018,"clouds":[{"cover":"SCT","base":2000},{"cover":"BKN","base":8000}],"obsTime":1779562800}}}