{"updated":1775113057,"count":48,"data":{"SBSL":{"icaoId":"SBSL","flightCategory":"VFR","rawOb":"METAR SBSL 020500Z 02003KT 9999 VCTS SCT020 FEW025CB SCT080 26/24 Q1009","temp":26,"dewp":24,"wdir":20,"wspd":3,"visib":"6+","altim":1009,"clouds":[{"cover":"SCT","base":2000},{"cover":"FEW","base":2500},{"cover":"SCT","base":8000}],"obsTime":1775106000},"SBMO":{"icaoId":"SBMO","flightCategory":"VFR","rawOb":"METAR SBMO 020500Z 01003KT 9999 SCT005 SCT015 BKN050 23/23 Q1012","temp":23,"dewp":23,"wdir":10,"wspd":3,"visib":"6+","altim":1012,"clouds":[{"cover":"SCT","base":500},{"cover":"SCT","base":1500},{"cover":"BKN","base":5000}],"obsTime":1775106000},"SBFZ":{"icaoId":"SBFZ","flightCategory":"MVFR","rawOb":"METAR SBFZ 020500Z 19006KT 9999 BKN020 26/24 Q1009","temp":26,"dewp":24,"wdir":190,"wspd":6,"visib":"6+","altim":1009,"clouds":[{"cover":"BKN","base":2000}],"obsTime":1775106000},"SBBR":{"icaoId":"SBBR","flightCategory":"MVFR","rawOb":"METAR SBBR 020500Z 06003KT 9999 BKN015 SCT100 19/18 Q0118","temp":19,"dewp":18,"wdir":60,"wspd":3,"visib":"6+","altim":118,"clouds":[{"cover":"BKN","base":1500},{"cover":"SCT","base":10000}],"obsTime":1775106000},"SBBV":{"icaoId":"SBBV","flightCategory":"VFR","rawOb":"METAR SBBV 020500Z 07007KT 9999 BKN040 FEW045TCU BKN100 27/22 Q1011","temp":27,"dewp":22,"wdir":70,"wspd":7,"visib":"6+","altim":1011,"clouds":[{"cover":"BKN","base":4000},{"cover":"FEW","base":4500},{"cover":"BKN","base":10000}],"obsTime":1775106000},"SBCF":{"icaoId":"SBCF","flightCategory":"VFR","rawOb":"METAR SBCF 020500Z 14002KT 9999 FEW025 SCT100 19/19 Q1019","temp":19,"dewp":19,"wdir":140,"wspd":2,"visib":"6+","altim":1019,"clouds":[{"cover":"FEW","base":2500},{"cover":"SCT","base":10000}],"obsTime":1775106000},"SBCG":{"icaoId":"SBCG","flightCategory":"VFR","rawOb":"METAR SBCG 020500Z 07010KT CAVOK 23/16 Q1013","temp":23,"dewp":16,"wdir":70,"wspd":10,"visib":"6+","altim":1013,"clouds":[],"obsTime":1775106000},"SBCT":{"icaoId":"SBCT","flightCategory":"MVFR","rawOb":"METAR SBCT 020500Z 35005KT 9999 OVC010 18/18 Q1016","temp":18,"dewp":18,"wdir":350,"wspd":5,"visib":"6+","altim":1016,"clouds":[{"cover":"OVC","base":1000}],"obsTime":1775106000},"SBEG":{"icaoId":"SBEG","flightCategory":"VFR","rawOb":"METAR SBEG 020500Z 13003KT CAVOK 25/24 Q1011","temp":25,"dewp":24,"wdir":130,"wspd":3,"visib":"6+","altim":1011,"clouds":[],"obsTime":1775106000},"SBFI":{"icaoId":"SBFI","flightCategory":"VFR","rawOb":"METAR SBFI 020500Z 03002KT 9999 FEW030 BKN100 22/22 Q1011","temp":22,"dewp":22,"wdir":30,"wspd":2,"visib":"6+","altim":1011,"clouds":[{"cover":"FEW","base":3000},{"cover":"BKN","base":10000}],"obsTime":1775106000},"SBFL":{"icaoId":"SBFL","flightCategory":"VFR","rawOb":"METAR SBFL 020500Z 31006KT 9999 BKN035 24/21 Q1011","temp":24,"dewp":21,"wdir":310,"wspd":6,"visib":"6+","altim":1011,"clouds":[{"cover":"BKN","base":3500}],"obsTime":1775106000},"SBBE":{"icaoId":"SBBE","flightCategory":"MVFR","rawOb":"METAR SBBE 020500Z 36004KT 9999 SCT010 BKN029 26/25 Q1010","temp":26,"dewp":25,"wdir":360,"wspd":4,"visib":"6+","altim":1010,"clouds":[{"cover":"SCT","base":1000},{"cover":"BKN","base":2900}],"obsTime":1775106000},"SBGL":{"icaoId":"SBGL","flightCategory":"MVFR","rawOb":"METAR SBGL 020500Z 09003KT 7000 NSC 23/22 Q1012","temp":23,"dewp":22,"wdir":90,"wspd":3,"visib":4.35,"altim":1012,"clouds":[],"obsTime":1775106000},"SBGO":{"icaoId":"SBGO","flightCategory":"VFR","rawOb":"METAR SBGO 020500Z 00000KT 9999 FEW040 BKN090 21/20 Q1016","temp":21,"dewp":20,"wdir":0,"wspd":0,"visib":"6+","altim":1016,"clouds":[{"cover":"FEW","base":4000},{"cover":"BKN","base":9000}],"obsTime":1775106000},"SBGR":{"icaoId":"SBGR","flightCategory":"VFR","rawOb":"METAR SBGR 020500Z 08003KT CAVOK 20/18 Q1016","temp":20,"dewp":18,"wdir":80,"wspd":3,"visib":"6+","altim":1016,"clouds":[],"obsTime":1775106000},"SBJU":{"icaoId":"SBJU","flightCategory":"MVFR","rawOb":"METAR SBJU 020500Z 00000KT 9999 BKN020 22/21 Q1012","temp":22,"dewp":21,"wdir":0,"wspd":0,"visib":"6+","altim":1012,"clouds":[{"cover":"BKN","base":2000}],"obsTime":1775106000},"SBKP":{"icaoId":"SBKP","flightCategory":"VFR","rawOb":"METAR SBKP 020500Z 03006KT 9999 SCT009 OVC100 21/19 Q1015","temp":21,"dewp":19,"wdir":30,"wspd":6,"visib":"6+","altim":1015,"clouds":[{"cover":"SCT","base":900},{"cover":"OVC","base":10000}],"obsTime":1775106000},"SBLO":{"icaoId":"SBLO","flightCategory":"IFR","rawOb":"METAR SBLO 020500Z 30002KT 8000 BKN005 BKN070 20/19 Q1014","temp":20,"dewp":19,"wdir":300,"wspd":2,"visib":4.97,"altim":1014,"clouds":[{"cover":"BKN","base":500},{"cover":"BKN","base":7000}],"obsTime":1775106000},"SBMA":{"icaoId":"SBMA","flightCategory":"VFR","rawOb":"METAR SBMA 020500Z 02003KT 9999 FEW012 FEW025TCU SCT100 25/24 Q1011","temp":25,"dewp":24,"wdir":20,"wspd":3,"visib":"6+","altim":1011,"clouds":[{"cover":"FEW","base":1200},{"cover":"FEW","base":2500},{"cover":"SCT","base":10000}],"obsTime":1775106000},"SBME":{"icaoId":"SBME","flightCategory":"VFR","rawOb":"METAR SBME 020500Z 05006KT CAVOK 25/23 Q1013","temp":25,"dewp":23,"wdir":50,"wspd":6,"visib":"6+","altim":1013,"clouds":[],"obsTime":1775106000},"SBMG":{"icaoId":"SBMG","flightCategory":"VFR","rawOb":"METAR SBMG 020500Z AUTO 07008KT CAVOK 21/20 Q1012","temp":21,"dewp":20,"wdir":70,"wspd":8,"visib":"6+","altim":1012,"clouds":[],"obsTime":1775106000},"SBMQ":{"icaoId":"SBMQ","flightCategory":"VFR","rawOb":"METAR SBMQ 020500Z 34002KT 9999 -RA SCT021 FEW033TCU 26/25 Q1010","temp":26,"dewp":25,"wdir":340,"wspd":2,"visib":"6+","altim":1010,"clouds":[{"cover":"SCT","base":2100},{"cover":"FEW","base":3300}],"obsTime":1775106000},"SBNT":{"icaoId":"SBNT","flightCategory":"VFR","rawOb":"METAR SBNT 020500Z 20003KT 9999 VCSH SCT020 FEW025TCU BKN090 24/23 Q1010","temp":24,"dewp":23,"wdir":200,"wspd":3,"visib":"6+","altim":1010,"clouds":[{"cover":"SCT","base":2000},{"cover":"FEW","base":2500},{"cover":"BKN","base":9000}],"obsTime":1775106000},"SBPA":{"icaoId":"SBPA","flightCategory":"VFR","rawOb":"METAR SBPA 020500Z 03003KT CAVOK 23/20 Q1009","temp":23,"dewp":20,"wdir":30,"wspd":3,"visib":"6+","altim":1009,"clouds":[],"obsTime":1775106000},"SBPJ":{"icaoId":"SBPJ","flightCategory":"MVFR","rawOb":"METAR SBPJ 020500Z 13007KT 7000 -TSRA FEW008 SCT016 FEW033CB OVC070 22/21 Q1013","temp":22,"dewp":21,"wdir":130,"wspd":7,"visib":4.35,"altim":1013,"clouds":[{"cover":"FEW","base":800},{"cover":"SCT","base":1600},{"cover":"FEW","base":3300},{"cover":"OVC","base":7000}],"obsTime":1775106000},"SBPV":{"icaoId":"SBPV","flightCategory":"VFR","rawOb":"METAR SBPV 020500Z 36002KT 9999 FEW015 23/22 Q1010","temp":23,"dewp":22,"wdir":360,"wspd":2,"visib":"6+","altim":1010,"clouds":[{"cover":"FEW","base":1500}],"obsTime":1775106000},"SBRB":{"icaoId":"SBRB","flightCategory":"MVFR","rawOb":"METAR SBRB 020500Z 00000KT 8000 NSC 24/23 Q1010","temp":24,"dewp":23,"wdir":0,"wspd":0,"visib":4.97,"altim":1010,"clouds":[],"obsTime":1775106000},"SBRF":{"icaoId":"SBRF","flightCategory":"VFR","rawOb":"METAR SBRF 020500Z 34004KT 9999 FEW017 BKN050 24/24 Q1010","temp":24,"dewp":24,"wdir":340,"wspd":4,"visib":"6+","altim":1010,"clouds":[{"cover":"FEW","base":1700},{"cover":"BKN","base":5000}],"obsTime":1775106000},"SBSG":{"icaoId":"SBSG","flightCategory":"MVFR","rawOb":"METAR SBSG 020500Z 17003KT 120V220 5000 -RA FEW010 BKN020 BKN060 24/23 Q1010","temp":24,"dewp":23,"wdir":170,"wspd":3,"visib":3.11,"altim":1010,"clouds":[{"cover":"FEW","base":1000},{"cover":"BKN","base":2000},{"cover":"BKN","base":6000}],"obsTime":1775106000},"SBSN":{"icaoId":"SBSN","flightCategory":"VFR","rawOb":"METAR SBSN 020500Z 19004KT CAVOK 23/22 Q1011","temp":23,"dewp":22,"wdir":190,"wspd":4,"visib":"6+","altim":1011,"clouds":[],"obsTime":1775106000},"SBSV":{"icaoId":"SBSV","flightCategory":"VFR","rawOb":"METAR SBSV 020500Z 27002KT 9999 FEW021 SCT050 24/23 Q1012","temp":24,"dewp":23,"wdir":270,"wspd":2,"visib":"6+","altim":1012,"clouds":[{"cover":"FEW","base":2100},{"cover":"SCT","base":5000}],"obsTime":1775106000},"SBTE":{"icaoId":"SBTE","flightCategory":"VFR","rawOb":"METAR SBTE 020500Z 31007KT 9999 SCT015 BKN090 26/14 Q1009","temp":26,"dewp":14,"wdir":310,"wspd":7,"visib":"6+","altim":1009,"clouds":[{"cover":"SCT","base":1500},{"cover":"BKN","base":9000}],"obsTime":1775106000},"SBUL":{"icaoId":"SBUL","flightCategory":"IFR","rawOb":"METAR SBUL 020500Z 06007KT 9999 BKN008 20/19 Q1018","temp":20,"dewp":19,"wdir":60,"wspd":7,"visib":"6+","altim":1018,"clouds":[{"cover":"BKN","base":800}],"obsTime":1775106000},"SBUR":{"icaoId":"SBUR","flightCategory":"VFR","rawOb":"METAR SBUR 020500Z 36005KT CAVOK 21/18 Q1016","temp":21,"dewp":18,"wdir":360,"wspd":5,"visib":"6+","altim":1016,"clouds":[],"obsTime":1775106000},"SBVT":{"icaoId":"SBVT","flightCategory":"VFR","rawOb":"METAR SBVT 020500Z 00000KT 9999 SCT020 23/23 Q1014","temp":23,"dewp":23,"wdir":0,"wspd":0,"visib":"6+","altim":1014,"clouds":[{"cover":"SCT","base":2000}],"obsTime":1775106000},"SBSP":{"icaoId":"SBSP","flightCategory":"VFR","rawOb":"METAR SBSP 020500Z AUTO 03004KT 350V050 CAVOK 21/18 Q1016","temp":21,"dewp":18,"wdir":30,"wspd":4,"visib":"6+","altim":1016,"clouds":[],"obsTime":1775106000},"SBKG":{"icaoId":"SBKG","flightCategory":"IFR","rawOb":"METAR SBKG 020500Z 09006KT 5000 -RA BR BKN006 BKN009 22/21 Q1013","temp":22,"dewp":21,"wdir":90,"wspd":6,"visib":3.11,"altim":1013,"clouds":[{"cover":"BKN","base":600},{"cover":"BKN","base":900}],"obsTime":1775106000},"SBAX":{"icaoId":"SBAX","flightCategory":"VFR","rawOb":"METAR SBAX 020500Z AUTO VRB02KT CAVOK ///// Q1018","temp":null,"dewp":null,"wdir":"VRB","wspd":2,"visib":"6+","altim":1018,"clouds":[],"obsTime":1775106000},"SBPL":{"icaoId":"SBPL","flightCategory":"MVFR","rawOb":"METAR SBPL 020500Z 12006KT 9999 BKN025 26/22 Q1012","temp":26,"dewp":22,"wdir":120,"wspd":6,"visib":"6+","altim":1012,"clouds":[{"cover":"BKN","base":2500}],"obsTime":1775106000},"SBIP":{"icaoId":"SBIP","flightCategory":"VFR","rawOb":"METAR SBIP 020500Z AUTO 36003KT 320V020 9999 FEW030 SCT040 23/23 Q1015","temp":23,"dewp":23,"wdir":360,"wspd":3,"visib":"6+","altim":1015,"clouds":[{"cover":"FEW","base":3000},{"cover":"SCT","base":4000}],"obsTime":1775106000},"SBPS":{"icaoId":"SBPS","flightCategory":"VFR","rawOb":"METAR SBPS 020500Z 25003KT 9999 FEW020 24/23 Q1014","temp":24,"dewp":23,"wdir":250,"wspd":3,"visib":"6+","altim":1014,"clouds":[{"cover":"FEW","base":2000}],"obsTime":1775106000},"SBSC":{"icaoId":"SBSC","flightCategory":"VFR","rawOb":"METAR SBSC 020500Z 07003KT 9999 SCT040 22/21 Q1013","temp":22,"dewp":21,"wdir":70,"wspd":3,"visib":"6+","altim":1013,"clouds":[{"cover":"SCT","base":4000}],"obsTime":1775106000},"SBAR":{"icaoId":"SBAR","flightCategory":"VFR","rawOb":"METAR SBAR 020500Z 11009KT 9999 FEW020 BKN050 BKN090 27/24 Q1011","temp":27,"dewp":24,"wdir":110,"wspd":9,"visib":"6+","altim":1011,"clouds":[{"cover":"FEW","base":2000},{"cover":"BKN","base":5000},{"cover":"BKN","base":9000}],"obsTime":1775106000},"SBSR":{"icaoId":"SBSR","flightCategory":"VFR","rawOb":"METAR SBSR 020500Z 02003KT 9999 SCT030 BKN070 21/19 Q1015","temp":21,"dewp":19,"wdir":20,"wspd":3,"visib":"6+","altim":1015,"clouds":[{"cover":"SCT","base":3000},{"cover":"BKN","base":7000}],"obsTime":1775106000},"SBDN":{"icaoId":"SBDN","flightCategory":"VFR","rawOb":"METAR SBDN 020500Z 06006KT CAVOK 22/19 Q1013","temp":22,"dewp":19,"wdir":60,"wspd":6,"visib":"6+","altim":1013,"clouds":[],"obsTime":1775106000},"SBLE":{"icaoId":"SBLE","flightCategory":"LIFR","rawOb":"METAR SBLE 020500Z AUTO 09002KT 1200 BR SCT001 BKN004 OVC045 ///// Q////","temp":null,"dewp":null,"wdir":90,"wspd":2,"visib":0.75,"altim":null,"clouds":[{"cover":"SCT","base":100},{"cover":"BKN","base":400},{"cover":"OVC","base":4500}],"obsTime":1775106000},"SBJP":{"icaoId":"SBJP","flightCategory":"VFR","rawOb":"METAR SBJP 020500Z 20003KT CAVOK 24/24 Q1010","temp":24,"dewp":24,"wdir":200,"wspd":3,"visib":"6+","altim":1010,"clouds":[],"obsTime":1775106000},"SBAN":{"icaoId":"SBAN","flightCategory":"VFR","rawOb":"METAR SBAN 020500Z 08004KT 9999 FEW020 19/18 Q1019","temp":19,"dewp":18,"wdir":80,"wspd":4,"visib":"6+","altim":1019,"clouds":[{"cover":"FEW","base":2000}],"obsTime":1775106000}}}