{"updated":1778266125,"count":86,"data":{"SBCG":{"icaoId":"SBCG","flightCategory":"VFR","rawOb":"METAR SBCG 081700Z 31005KT CAVOK 24/18 Q1012","temp":24,"dewp":18,"wdir":310,"wspd":5,"visib":"6+","altim":1012,"clouds":[],"obsTime":1778259600},"SBBE":{"icaoId":"SBBE","flightCategory":"MVFR","rawOb":"METAR SBBE 081700Z 36010KT 9999 FEW015 BKN020 FEW025TCU 29/25 Q1010","temp":29,"dewp":25,"wdir":360,"wspd":10,"visib":"6+","altim":1010,"clouds":[{"cover":"FEW","base":1500},{"cover":"BKN","base":2000},{"cover":"FEW","base":2500}],"obsTime":1778259600},"SBCT":{"icaoId":"SBCT","flightCategory":"IFR","rawOb":"METAR SBCT 081700Z 28010KT 7000 -RA BKN009 OVC080 17/17 Q1014","temp":17,"dewp":17,"wdir":280,"wspd":10,"visib":4.35,"altim":1014,"clouds":[{"cover":"BKN","base":900},{"cover":"OVC","base":8000}],"obsTime":1778259600},"SBMG":{"icaoId":"SBMG","flightCategory":"MVFR","rawOb":"METAR SBMG 081700Z 02009KT 5000 -TSRA FEW003 BKN045 FEW050CB OVC070 21/19 Q1010","temp":21,"dewp":19,"wdir":20,"wspd":9,"visib":3.11,"altim":1010,"clouds":[{"cover":"FEW","base":300},{"cover":"BKN","base":4500},{"cover":"FEW","base":5000},{"cover":"OVC","base":7000}],"obsTime":1778259600},"SBCZ":{"icaoId":"SBCZ","flightCategory":"VFR","rawOb":"METAR SBCZ 081700Z 35006KT 9999 SCT015 30/24 Q1011","temp":30,"dewp":24,"wdir":350,"wspd":6,"visib":"6+","altim":1011,"clouds":[{"cover":"SCT","base":1500}],"obsTime":1778259600},"SBMK":{"icaoId":"SBMK","flightCategory":"VFR","rawOb":"METAR SBMK 081700Z 07009KT 9999 SCT040 29/16 Q1017","temp":29,"dewp":16,"wdir":70,"wspd":9,"visib":"6+","altim":1017,"clouds":[{"cover":"SCT","base":4000}],"obsTime":1778259600},"SBMO":{"icaoId":"SBMO","flightCategory":"MVFR","rawOb":"METAR SBMO 081700Z 12014KT 9999 VCSH BKN030 28/24 Q1012","temp":28,"dewp":24,"wdir":120,"wspd":14,"visib":"6+","altim":1012,"clouds":[{"cover":"BKN","base":3000}],"obsTime":1778259600},"SBEG":{"icaoId":"SBEG","flightCategory":"VFR","rawOb":"METAR SBEG 081700Z 17007KT 130V210 9999 VCSH SCT020 FEW025TCU BKN100 29/25 Q1011","temp":29,"dewp":25,"wdir":170,"wspd":7,"visib":"6+","altim":1011,"clouds":[{"cover":"SCT","base":2000},{"cover":"FEW","base":2500},{"cover":"BKN","base":10000}],"obsTime":1778259600},"SBMQ":{"icaoId":"SBMQ","flightCategory":"MVFR","rawOb":"METAR SBMQ 081700Z 07009KT 9999 VCSH BKN018 29/24 Q1011","temp":29,"dewp":24,"wdir":70,"wspd":9,"visib":"6+","altim":1011,"clouds":[{"cover":"BKN","base":1800}],"obsTime":1778259600},"SBCB":{"icaoId":"SBCB","flightCategory":"VFR","rawOb":"METAR SBCB 081700Z 06011KT CAVOK 28/22 Q1012","temp":28,"dewp":22,"wdir":60,"wspd":11,"visib":"6+","altim":1012,"clouds":[],"obsTime":1778259600},"SBFI":{"icaoId":"SBFI","flightCategory":"VFR","rawOb":"METAR SBFI 081700Z 24006KT 9999 FEW015 OVC100 16/12 Q1012","temp":16,"dewp":12,"wdir":240,"wspd":6,"visib":"6+","altim":1012,"clouds":[{"cover":"FEW","base":1500},{"cover":"OVC","base":10000}],"obsTime":1778259600},"SBNT":{"icaoId":"SBNT","flightCategory":"VFR","rawOb":"METAR SBNT 081700Z 12013KT 9999 VCSH SCT028 FEW030TCU BKN050 BKN090 30/24 Q1010","temp":30,"dewp":24,"wdir":120,"wspd":13,"visib":"6+","altim":1010,"clouds":[{"cover":"SCT","base":2800},{"cover":"FEW","base":3000},{"cover":"BKN","base":5000},{"cover":"BKN","base":9000}],"obsTime":1778259600},"SBPA":{"icaoId":"SBPA","flightCategory":"VFR","rawOb":"METAR SBPA 081700Z 28018KT CAVOK 20/07 Q1006","temp":20,"dewp":7,"wdir":280,"wspd":18,"visib":"6+","altim":1006,"clouds":[],"obsTime":1778259600},"SBAT":{"icaoId":"SBAT","flightCategory":"VFR","rawOb":"METAR SBAT 081700Z 07003KT 9999 BKN040 32/23 Q1012","temp":32,"dewp":23,"wdir":70,"wspd":3,"visib":"6+","altim":1012,"clouds":[{"cover":"BKN","base":4000}],"obsTime":1778259600},"SBPJ":{"icaoId":"SBPJ","flightCategory":"VFR","rawOb":"METAR SBPJ 081700Z 09005KT 9999 SCT045 35/22 Q1012","temp":35,"dewp":22,"wdir":90,"wspd":5,"visib":"6+","altim":1012,"clouds":[{"cover":"SCT","base":4500}],"obsTime":1778259600},"SBCF":{"icaoId":"SBCF","flightCategory":"VFR","rawOb":"METAR SBCF 081700Z 01010KT 9999 FEW030 28/13 Q1018","temp":28,"dewp":13,"wdir":10,"wspd":10,"visib":"6+","altim":1018,"clouds":[{"cover":"FEW","base":3000}],"obsTime":1778259600},"SBFL":{"icaoId":"SBFL","flightCategory":"VFR","rawOb":"METAR SBFL 081700Z 33013KT 9999 SCT040 BKN100 26/18 Q1005","temp":26,"dewp":18,"wdir":330,"wspd":13,"visib":"6+","altim":1005,"clouds":[{"cover":"SCT","base":4000},{"cover":"BKN","base":10000}],"obsTime":1778259600},"SBPV":{"icaoId":"SBPV","flightCategory":"VFR","rawOb":"METAR SBPV 081700Z 01006KT 9999 SCT030 31/27 Q1010","temp":31,"dewp":27,"wdir":10,"wspd":6,"visib":"6+","altim":1010,"clouds":[{"cover":"SCT","base":3000}],"obsTime":1778259600},"SBBV":{"icaoId":"SBBV","flightCategory":"VFR","rawOb":"METAR SBBV 081700Z 10015KT 9999 BKN040 FEW045TCU 31/20 Q1011","temp":31,"dewp":20,"wdir":100,"wspd":15,"visib":"6+","altim":1011,"clouds":[{"cover":"BKN","base":4000},{"cover":"FEW","base":4500}],"obsTime":1778259600},"SBME":{"icaoId":"SBME","flightCategory":"VFR","rawOb":"METAR SBME 081700Z 04013KT CAVOK 34/17 Q1012","temp":34,"dewp":17,"wdir":40,"wspd":13,"visib":"6+","altim":1012,"clouds":[],"obsTime":1778259600},"SBJU":{"icaoId":"SBJU","flightCategory":"VFR","rawOb":"METAR SBJU 081700Z 11005KT 9999 SCT022 31/22 Q1012","temp":31,"dewp":22,"wdir":110,"wspd":5,"visib":"6+","altim":1012,"clouds":[{"cover":"SCT","base":2200}],"obsTime":1778259600},"SBKP":{"icaoId":"SBKP","flightCategory":"VFR","rawOb":"METAR SBKP 081700Z 35014G24KT 9999 BKN045 30/16 Q1012","temp":30,"dewp":16,"wdir":350,"wspd":14,"visib":"6+","altim":1012,"clouds":[{"cover":"BKN","base":4500}],"obsTime":1778259600},"SBLO":{"icaoId":"SBLO","flightCategory":"IFR","rawOb":"METAR SBLO 081700Z 32013G23KT 2500 RA BKN015 BKN070 20/18 Q1012","temp":20,"dewp":18,"wdir":320,"wspd":13,"visib":1.55,"altim":1012,"clouds":[{"cover":"BKN","base":1500},{"cover":"BKN","base":7000}],"obsTime":1778259600},"SBMA":{"icaoId":"SBMA","flightCategory":"MVFR","rawOb":"METAR SBMA 081700Z 05004KT 9999 BKN020 33/23 Q1010","temp":33,"dewp":23,"wdir":50,"wspd":4,"visib":"6+","altim":1010,"clouds":[{"cover":"BKN","base":2000}],"obsTime":1778259600},"SBRB":{"icaoId":"SBRB","flightCategory":"MVFR","rawOb":"METAR SBRB 081700Z 33003KT 8000 VCSH SCT025 FEW030TCU BKN080 28/25 Q1011","temp":28,"dewp":25,"wdir":330,"wspd":3,"visib":4.97,"altim":1011,"clouds":[{"cover":"SCT","base":2500},{"cover":"FEW","base":3000},{"cover":"BKN","base":8000}],"obsTime":1778259600},"SBFZ":{"icaoId":"SBFZ","flightCategory":"VFR","rawOb":"METAR SBFZ 081700Z 10011KT 9999 SCT030 30/24 Q1010","temp":30,"dewp":24,"wdir":100,"wspd":11,"visib":"6+","altim":1010,"clouds":[{"cover":"SCT","base":3000}],"obsTime":1778259600},"SBRF":{"icaoId":"SBRF","flightCategory":"MVFR","rawOb":"METAR SBRF 081700Z 15015KT 9999 VCSH BKN017 FEW025TCU BKN050 28/25 Q1011","temp":28,"dewp":25,"wdir":150,"wspd":15,"visib":"6+","altim":1011,"clouds":[{"cover":"BKN","base":1700},{"cover":"FEW","base":2500},{"cover":"BKN","base":5000}],"obsTime":1778259600},"SBSG":{"icaoId":"SBSG","flightCategory":"VFR","rawOb":"METAR SBSG 081700Z 11009KT 090V150 9999 VCSH SCT033 FEW040TCU 31/24 Q1010","temp":31,"dewp":24,"wdir":110,"wspd":9,"visib":"6+","altim":1010,"clouds":[{"cover":"SCT","base":3300},{"cover":"FEW","base":4000}],"obsTime":1778259600},"SBGL":{"icaoId":"SBGL","flightCategory":"VFR","rawOb":"METAR SBGL 081700Z 05008KT CAVOK 32/17 Q1010","temp":32,"dewp":17,"wdir":50,"wspd":8,"visib":"6+","altim":1010,"clouds":[],"obsTime":1778259600},"SBSL":{"icaoId":"SBSL","flightCategory":"MVFR","rawOb":"METAR SBSL 081700Z 03007KT 9999 SCT013 BKN020 BKN100 27/24 Q1010","temp":27,"dewp":24,"wdir":30,"wspd":7,"visib":"6+","altim":1010,"clouds":[{"cover":"SCT","base":1300},{"cover":"BKN","base":2000},{"cover":"BKN","base":10000}],"obsTime":1778259600},"SBSN":{"icaoId":"SBSN","flightCategory":"VFR","rawOb":"METAR SBSN 081700Z 09008KT 9999 FEW020 FEW025TCU 30/24 Q1010","temp":30,"dewp":24,"wdir":90,"wspd":8,"visib":"6+","altim":1010,"clouds":[{"cover":"FEW","base":2000},{"cover":"FEW","base":2500}],"obsTime":1778259600},"SBGO":{"icaoId":"SBGO","flightCategory":"VFR","rawOb":"METAR SBGO 081700Z 33008KT 9999 BKN048 30/17 Q1016","temp":30,"dewp":17,"wdir":330,"wspd":8,"visib":"6+","altim":1016,"clouds":[{"cover":"BKN","base":4800}],"obsTime":1778259600},"SBSP":{"icaoId":"SBSP","flightCategory":"VFR","rawOb":"METAR SBSP 081700Z 34013KT 290V360 9999 BKN045 27/16 Q1014","temp":27,"dewp":16,"wdir":340,"wspd":13,"visib":"6+","altim":1014,"clouds":[{"cover":"BKN","base":4500}],"obsTime":1778259600},"SBSV":{"icaoId":"SBSV","flightCategory":"VFR","rawOb":"METAR SBSV 081700Z 13009KT 090V160 9999 SCT026 30/22 Q1014","temp":30,"dewp":22,"wdir":130,"wspd":9,"visib":"6+","altim":1014,"clouds":[{"cover":"SCT","base":2600}],"obsTime":1778259600},"SBBR":{"icaoId":"SBBR","flightCategory":"VFR","rawOb":"METAR SBBR 081700Z 07006KT 020V100 9999 SCT045 28/13 Q1018","temp":28,"dewp":13,"wdir":70,"wspd":6,"visib":"6+","altim":1018,"clouds":[{"cover":"SCT","base":4500}],"obsTime":1778259600},"SBGR":{"icaoId":"SBGR","flightCategory":"VFR","rawOb":"METAR SBGR 081700Z 35012KT 330V030 9999 BKN049 28/17 Q1013 WS R10R","temp":28,"dewp":17,"wdir":350,"wspd":12,"visib":"6+","altim":1013,"clouds":[{"cover":"BKN","base":4900}],"obsTime":1778259600},"SBTE":{"icaoId":"SBTE","flightCategory":"MVFR","rawOb":"METAR SBTE 081700Z 14005KT 9999 BKN025 32/22 Q1010","temp":32,"dewp":22,"wdir":140,"wspd":5,"visib":"6+","altim":1010,"clouds":[{"cover":"BKN","base":2500}],"obsTime":1778259600},"SBCP":{"icaoId":"SBCP","flightCategory":"VFR","rawOb":"METAR SBCP 081700Z 09014KT 9999 FEW020 30/20 Q1013","temp":30,"dewp":20,"wdir":90,"wspd":14,"visib":"6+","altim":1013,"clouds":[{"cover":"FEW","base":2000}],"obsTime":1778259600},"SBUL":{"icaoId":"SBUL","flightCategory":"VFR","rawOb":"METAR SBUL 081700Z 05012KT 9999 BKN040 27/16 Q1017","temp":27,"dewp":16,"wdir":50,"wspd":12,"visib":"6+","altim":1017,"clouds":[{"cover":"BKN","base":4000}],"obsTime":1778259600},"SBHT":{"icaoId":"SBHT","flightCategory":"MVFR","rawOb":"METAR SBHT 081700Z 11002KT 9999 BKN030 31/24 Q1011","temp":31,"dewp":24,"wdir":110,"wspd":2,"visib":"6+","altim":1011,"clouds":[{"cover":"BKN","base":3000}],"obsTime":1778259600},"SBUR":{"icaoId":"SBUR","flightCategory":"VFR","rawOb":"METAR SBUR 081700Z 35013KT CAVOK 29/16 Q1015","temp":29,"dewp":16,"wdir":350,"wspd":13,"visib":"6+","altim":1015,"clouds":[],"obsTime":1778259600},"SBVT":{"icaoId":"SBVT","flightCategory":"VFR","rawOb":"METAR SBVT 081700Z 07013KT 9999 FEW035 29/23 Q1014","temp":29,"dewp":23,"wdir":70,"wspd":13,"visib":"6+","altim":1014,"clouds":[{"cover":"FEW","base":3500}],"obsTime":1778259600},"SBIL":{"icaoId":"SBIL","flightCategory":"VFR","rawOb":"METAR SBIL 081700Z 16007KT 9999 SCT023 SCT070 30/25 Q1015","temp":30,"dewp":25,"wdir":160,"wspd":7,"visib":"6+","altim":1015,"clouds":[{"cover":"SCT","base":2300},{"cover":"SCT","base":7000}],"obsTime":1778259600},"SBCR":{"icaoId":"SBCR","flightCategory":"IFR","rawOb":"METAR SBCR 081700Z 25011KT 9000 BKN007 OVC090 19/18 Q1010","temp":19,"dewp":18,"wdir":250,"wspd":11,"visib":5.59,"altim":1010,"clouds":[{"cover":"BKN","base":700},{"cover":"OVC","base":9000}],"obsTime":1778259600},"SBVH":{"icaoId":"SBVH","flightCategory":"VFR","rawOb":"METAR SBVH 081700Z 36008KT 9999 BKN035 29/21 Q1013","temp":29,"dewp":21,"wdir":360,"wspd":8,"visib":"6+","altim":1013,"clouds":[{"cover":"BKN","base":3500}],"obsTime":1778259600},"SBAR":{"icaoId":"SBAR","flightCategory":"VFR","rawOb":"METAR SBAR 081700Z 11011KT 9999 FEW027 30/22 Q1013","temp":30,"dewp":22,"wdir":110,"wspd":11,"visib":"6+","altim":1013,"clouds":[{"cover":"FEW","base":2700}],"obsTime":1778259600},"SBAU":{"icaoId":"SBAU","flightCategory":"VFR","rawOb":"METAR SBAU 081700Z 36014KT CAVOK 33/17 Q1010","temp":33,"dewp":17,"wdir":360,"wspd":14,"visib":"6+","altim":1010,"clouds":[],"obsTime":1778259600},"SBAX":{"icaoId":"SBAX","flightCategory":"VFR","rawOb":"METAR SBAX 081700Z AUTO 01008KT 310V070 CAVOK 28/15 Q1017","temp":28,"dewp":15,"wdir":10,"wspd":8,"visib":"6+","altim":1017,"clouds":[],"obsTime":1778259600},"SBBH":{"icaoId":"SBBH","flightCategory":"VFR","rawOb":"METAR SBBH 081700Z 06004KT 9999 FEW030 28/16 Q1017","temp":28,"dewp":16,"wdir":60,"wspd":4,"visib":"6+","altim":1017,"clouds":[{"cover":"FEW","base":3000}],"obsTime":1778259600},"SBBQ":{"icaoId":"SBBQ","flightCategory":"VFR","rawOb":"METAR SBBQ 081700Z 35006KT 300V040 CAVOK 26/14 Q1020","temp":26,"dewp":14,"wdir":350,"wspd":6,"visib":"6+","altim":1020,"clouds":[],"obsTime":1778259600},"SBBU":{"icaoId":"SBBU","flightCategory":"VFR","rawOb":"METAR SBBU 081700Z 30010G20KT 9999 FEW035 32/15 Q1011","temp":32,"dewp":15,"wdir":300,"wspd":10,"visib":"6+","altim":1011,"clouds":[{"cover":"FEW","base":3500}],"obsTime":1778259600},"SBCA":{"icaoId":"SBCA","flightCategory":"LIFR","rawOb":"METAR SBCA 081700Z 18010KT 2500 -RA BR BKN003 BKN025 OVC070 13/13 Q1012","temp":13,"dewp":13,"wdir":180,"wspd":10,"visib":1.55,"altim":1012,"clouds":[{"cover":"BKN","base":300},{"cover":"BKN","base":2500},{"cover":"OVC","base":7000}],"obsTime":1778259600},"SBCC":{"icaoId":"SBCC","flightCategory":"VFR","rawOb":"METAR SBCC 081700Z 05008KT 9999 SCT025 31/19 Q1013","temp":31,"dewp":19,"wdir":50,"wspd":8,"visib":"6+","altim":1013,"clouds":[{"cover":"SCT","base":2500}],"obsTime":1778259600},"SBCJ":{"icaoId":"SBCJ","flightCategory":"MVFR","rawOb":"METAR SBCJ 081700Z 08003KT 9999 BKN021 28/22 Q1015","temp":28,"dewp":22,"wdir":80,"wspd":3,"visib":"6+","altim":1015,"clouds":[{"cover":"BKN","base":2100}],"obsTime":1778259600},"SBCO":{"icaoId":"SBCO","flightCategory":"VFR","rawOb":"METAR SBCO 081700Z 27017G27KT 250V310 CAVOK 20/08 Q1006","temp":20,"dewp":8,"wdir":270,"wspd":17,"visib":"6+","altim":1006,"clouds":[],"obsTime":1778259600},"SBDN":{"icaoId":"SBDN","flightCategory":"VFR","rawOb":"METAR SBDN 081700Z 26003KT CAVOK 26/17 Q1010","temp":26,"dewp":17,"wdir":260,"wspd":3,"visib":"6+","altim":1010,"clouds":[],"obsTime":1778259600},"SBES":{"icaoId":"SBES","flightCategory":"VFR","rawOb":"METAR SBES 081700Z 06011KT 350V080 CAVOK 29/// Q1012","temp":null,"dewp":null,"wdir":60,"wspd":11,"visib":"6+","altim":1012,"clouds":[],"obsTime":1778259600},"SBGM":{"icaoId":"SBGM","flightCategory":"MVFR","rawOb":"METAR SBGM 081700Z 30009KT 9999 BKN026 32/24 Q1010","temp":32,"dewp":24,"wdir":300,"wspd":9,"visib":"6+","altim":1010,"clouds":[{"cover":"BKN","base":2600}],"obsTime":1778259600},"SBIP":{"icaoId":"SBIP","flightCategory":"VFR","rawOb":"METAR SBIP 081700Z AUTO 04009KT 010V070 CAVOK 29/18 Q1016","temp":29,"dewp":18,"wdir":40,"wspd":9,"visib":"6+","altim":1016,"clouds":[],"obsTime":1778259600},"SBKG":{"icaoId":"SBKG","flightCategory":"MVFR","rawOb":"METAR SBKG 081700Z 14006KT 9999 -RA BKN015 24/23 Q1013","temp":24,"dewp":23,"wdir":140,"wspd":6,"visib":"6+","altim":1013,"clouds":[{"cover":"BKN","base":1500}],"obsTime":1778259600},"SBOI":{"icaoId":"SBOI","flightCategory":"VFR","rawOb":"METAR SBOI 081700Z AUTO 35003KT 310V060 9999 FEW038 28/25 Q1011 RERA","temp":28,"dewp":25,"wdir":350,"wspd":3,"visib":"6+","altim":1011,"clouds":[{"cover":"FEW","base":3800}],"obsTime":1778259600},"SBPB":{"icaoId":"SBPB","flightCategory":"VFR","rawOb":"METAR SBPB 081700Z 06007KT 9999 FEW020 BKN100 33/25 Q1009","temp":33,"dewp":25,"wdir":60,"wspd":7,"visib":"6+","altim":1009,"clouds":[{"cover":"FEW","base":2000},{"cover":"BKN","base":10000}],"obsTime":1778259600},"SBPL":{"icaoId":"SBPL","flightCategory":"VFR","rawOb":"METAR SBPL 081700Z 12009KT 9999 SCT030 BKN070 32/20 Q1013","temp":32,"dewp":20,"wdir":120,"wspd":9,"visib":"6+","altim":1013,"clouds":[{"cover":"SCT","base":3000},{"cover":"BKN","base":7000}],"obsTime":1778259600},"SBPP":{"icaoId":"SBPP","flightCategory":"LIFR","rawOb":"METAR SBPP 081700Z 22011KT 0500 FG VV000 14/13 Q1012","temp":14,"dewp":13,"wdir":220,"wspd":11,"visib":0.31,"altim":1012,"clouds":[{"cover":"OVX","base":0}],"obsTime":1778259600},"SBPS":{"icaoId":"SBPS","flightCategory":"VFR","rawOb":"METAR SBPS 081700Z 10008KT 9999 SCT020 BKN100 28/24 Q1015","temp":28,"dewp":24,"wdir":100,"wspd":8,"visib":"6+","altim":1015,"clouds":[{"cover":"SCT","base":2000},{"cover":"BKN","base":10000}],"obsTime":1778259600},"SBSC":{"icaoId":"SBSC","flightCategory":"VFR","rawOb":"METAR SBSC 081700Z 01011KT CAVOK 31/21 Q1010","temp":31,"dewp":21,"wdir":10,"wspd":11,"visib":"6+","altim":1010,"clouds":[],"obsTime":1778259600},"SBSJ":{"icaoId":"SBSJ","flightCategory":"VFR","rawOb":"METAR SBSJ 081700Z 01007KT 9999 FEW035 29/16 Q1013","temp":29,"dewp":16,"wdir":10,"wspd":7,"visib":"6+","altim":1013,"clouds":[{"cover":"FEW","base":3500}],"obsTime":1778259600},"SBSM":{"icaoId":"SBSM","flightCategory":"VFR","rawOb":"METAR SBSM 081700Z 29013KT 250V320 9999 FEW035 17/05 Q1009 WS R29","temp":17,"dewp":5,"wdir":290,"wspd":13,"visib":"6+","altim":1009,"clouds":[{"cover":"FEW","base":3500}],"obsTime":1778259600},"SBSR":{"icaoId":"SBSR","flightCategory":"VFR","rawOb":"METAR SBSR 081700Z 01014KT 9999 SCT035 31/13 Q1012","temp":31,"dewp":13,"wdir":10,"wspd":14,"visib":"6+","altim":1012,"clouds":[{"cover":"SCT","base":3500}],"obsTime":1778259600},"SBTF":{"icaoId":"SBTF","flightCategory":"VFR","rawOb":"METAR SBTF 081700Z 09003KT 9999 -RA SCT010 OVC080 25/24 Q1011","temp":25,"dewp":24,"wdir":90,"wspd":3,"visib":"6+","altim":1011,"clouds":[{"cover":"SCT","base":1000},{"cover":"OVC","base":8000}],"obsTime":1778259600},"SBTT":{"icaoId":"SBTT","flightCategory":"MVFR","rawOb":"METAR SBTT 081700Z 30004KT 9999 BKN025 30/23 Q1011","temp":30,"dewp":23,"wdir":300,"wspd":4,"visib":"6+","altim":1011,"clouds":[{"cover":"BKN","base":2500}],"obsTime":1778259600},"SBTU":{"icaoId":"SBTU","flightCategory":"VFR","rawOb":"METAR SBTU 081700Z AUTO VRB02KT 9999 // ///////// ///// Q1012","temp":null,"dewp":null,"wdir":"VRB","wspd":2,"visib":"6+","altim":1012,"clouds":[],"obsTime":1778259600},"SBUY":{"icaoId":"SBUY","flightCategory":"VFR","rawOb":"METAR SBUY 081700Z 05005KT 9999 SCT025 BKN100 28/24 Q1011","temp":28,"dewp":24,"wdir":50,"wspd":5,"visib":"6+","altim":1011,"clouds":[{"cover":"SCT","base":2500},{"cover":"BKN","base":10000}],"obsTime":1778259600},"SBJP":{"icaoId":"SBJP","flightCategory":"MVFR","rawOb":"METAR SBJP 081700Z 11012KT 9999 BKN022 BKN070 29/24 Q1011","temp":29,"dewp":24,"wdir":110,"wspd":12,"visib":"6+","altim":1011,"clouds":[{"cover":"BKN","base":2200},{"cover":"BKN","base":7000}],"obsTime":1778259600},"SBIH":{"icaoId":"SBIH","flightCategory":"VFR","rawOb":"METAR SBIH 081700Z 00000KT 9999 SCT018 FEW025TCU 33/25 Q1010","temp":33,"dewp":25,"wdir":0,"wspd":0,"visib":"6+","altim":1010,"clouds":[{"cover":"SCT","base":1800},{"cover":"FEW","base":2500}],"obsTime":1778259600},"SBAF":{"icaoId":"SBAF","flightCategory":"VFR","rawOb":"METAR SBAF 081700Z 35006KT CAVOK 32/18 Q1011","temp":32,"dewp":18,"wdir":350,"wspd":6,"visib":"6+","altim":1011,"clouds":[],"obsTime":1778259600},"SBJV":{"icaoId":"SBJV","flightCategory":"VFR","rawOb":"METAR SBJV 081700Z 34011KT 9999 -RA FEW030 BKN100 25/18 Q1008","temp":25,"dewp":18,"wdir":340,"wspd":11,"visib":"6+","altim":1008,"clouds":[{"cover":"FEW","base":3000},{"cover":"BKN","base":10000}],"obsTime":1778259600},"SBGW":{"icaoId":"SBGW","flightCategory":"VFR","rawOb":"METAR SBGW 081700Z 36007KT 280V040 9999 SCT030 30/15 Q1013","temp":30,"dewp":15,"wdir":360,"wspd":7,"visib":"6+","altim":1013,"clouds":[{"cover":"SCT","base":3000}],"obsTime":1778259600},"SBJR":{"icaoId":"SBJR","flightCategory":"VFR","rawOb":"METAR SBJR 081700Z 36007KT CAVOK 33/19 Q1010","temp":33,"dewp":19,"wdir":360,"wspd":7,"visib":"6+","altim":1010,"clouds":[],"obsTime":1778259600},"SBAN":{"icaoId":"SBAN","flightCategory":"VFR","rawOb":"METAR SBAN 081700Z 11005KT 050V150 9999 BKN035 28/15 Q1019","temp":28,"dewp":15,"wdir":110,"wspd":5,"visib":"6+","altim":1019,"clouds":[{"cover":"BKN","base":3500}],"obsTime":1778259600},"SBLS":{"icaoId":"SBLS","flightCategory":"VFR","rawOb":"METAR SBLS 081700Z VRB04KT 9999 FEW030 28/13 Q1018","temp":28,"dewp":13,"wdir":"VRB","wspd":4,"visib":"6+","altim":1018,"clouds":[{"cover":"FEW","base":3000}],"obsTime":1778259600},"SBMT":{"icaoId":"SBMT","flightCategory":"VFR","rawOb":"METAR SBMT 081700Z 32009KT 9999 BKN035 28/16 Q1013","temp":28,"dewp":16,"wdir":320,"wspd":9,"visib":"6+","altim":1013,"clouds":[{"cover":"BKN","base":3500}],"obsTime":1778259600},"SBNM":{"icaoId":"SBNM","flightCategory":"VFR","rawOb":"METAR SBNM 081700Z AUTO 29011KT CAVOK 18/07 Q1011","temp":18,"dewp":7,"wdir":290,"wspd":11,"visib":"6+","altim":1011,"clouds":[],"obsTime":1778259600},"SBST":{"icaoId":"SBST","flightCategory":"VFR","rawOb":"METAR SBST 081700Z 36007KT 9999 FEW020 36/17 Q1007","temp":36,"dewp":17,"wdir":360,"wspd":7,"visib":"6+","altim":1007,"clouds":[{"cover":"FEW","base":2000}],"obsTime":1778259600},"SBLE":{"icaoId":"SBLE","flightCategory":"VFR","rawOb":"METAR SBLE 081700Z AUTO 13004KT 070V200 9999 FEW039 28/18 Q1016","temp":28,"dewp":18,"wdir":130,"wspd":4,"visib":"6+","altim":1016,"clouds":[{"cover":"FEW","base":3900}],"obsTime":1778259600},"SBTA":{"icaoId":"SBTA","flightCategory":"VFR","rawOb":"METAR SBTA 081700Z 05007KT 350V080 9999 FEW035 29/15 Q1012","temp":29,"dewp":15,"wdir":50,"wspd":7,"visib":"6+","altim":1012,"clouds":[{"cover":"FEW","base":3500}],"obsTime":1778259600}}}