{"updated":1781606877,"count":73,"data":{"SBLO":{"icaoId":"SBLO","flightCategory":"IFR","rawOb":"METAR SBLO 160900Z 10005KT 9000 OVC005 15/15 Q1020","temp":15,"dewp":15,"wdir":100,"wspd":5,"visib":5.59,"altim":1020,"clouds":[{"cover":"OVC","base":500}],"obsTime":1781600400},"SBPA":{"icaoId":"SBPA","flightCategory":"MVFR","rawOb":"METAR SBPA 160900Z VRB01KT 6000 BCFG SCT002 05/05 Q1021","temp":5,"dewp":5,"wdir":"VRB","wspd":1,"visib":3.73,"altim":1021,"clouds":[{"cover":"SCT","base":200}],"obsTime":1781600400},"SBBV":{"icaoId":"SBBV","flightCategory":"VFR","rawOb":"METAR SBBV 160900Z 32003KT 9999 FEW030 FEW035TCU SCT100 24/23 Q1014","temp":24,"dewp":23,"wdir":320,"wspd":3,"visib":"6+","altim":1014,"clouds":[{"cover":"FEW","base":3000},{"cover":"FEW","base":3500},{"cover":"SCT","base":10000}],"obsTime":1781600400},"SBCB":{"icaoId":"SBCB","flightCategory":"LIFR","rawOb":"METAR SBCB 160900Z 13003KT 1500 RA BR BKN004 OVC015 21/20 Q1015","temp":21,"dewp":20,"wdir":130,"wspd":3,"visib":0.93,"altim":1015,"clouds":[{"cover":"BKN","base":400},{"cover":"OVC","base":1500}],"obsTime":1781600400},"SBFL":{"icaoId":"SBFL","flightCategory":"VFR","rawOb":"METAR SBFL 160900Z 26003KT 9999 SCT029 13/11 Q1020","temp":13,"dewp":11,"wdir":260,"wspd":3,"visib":"6+","altim":1020,"clouds":[{"cover":"SCT","base":2900}],"obsTime":1781600400},"SBBE":{"icaoId":"SBBE","flightCategory":"VFR","rawOb":"METAR SBBE 160900Z 07005KT CAVOK 26/25 Q1012","temp":26,"dewp":25,"wdir":70,"wspd":5,"visib":"6+","altim":1012,"clouds":[],"obsTime":1781600400},"SBBR":{"icaoId":"SBBR","flightCategory":"VFR","rawOb":"METAR SBBR 160900Z VRB03KT CAVOK 17/16 Q1021","temp":17,"dewp":16,"wdir":"VRB","wspd":3,"visib":"6+","altim":1021,"clouds":[],"obsTime":1781600400},"SBCF":{"icaoId":"SBCF","flightCategory":"VFR","rawOb":"METAR SBCF 160900Z 24001KT CAVOK 16/16 Q1019","temp":16,"dewp":16,"wdir":240,"wspd":1,"visib":"6+","altim":1019,"clouds":[],"obsTime":1781600400},"SBCG":{"icaoId":"SBCG","flightCategory":"VFR","rawOb":"METAR SBCG 160900Z 13002KT 9999 SCT045 BKN100 17/16 Q1019","temp":17,"dewp":16,"wdir":130,"wspd":2,"visib":"6+","altim":1019,"clouds":[{"cover":"SCT","base":4500},{"cover":"BKN","base":10000}],"obsTime":1781600400},"SBCP":{"icaoId":"SBCP","flightCategory":"VFR","rawOb":"METAR SBCP 161000Z 25004KT 9999 FEW020 BKN080 21/21 Q1015","temp":21,"dewp":21,"wdir":250,"wspd":4,"visib":"6+","altim":1015,"clouds":[{"cover":"FEW","base":2000},{"cover":"BKN","base":8000}],"obsTime":1781604000},"SBCT":{"icaoId":"SBCT","flightCategory":"LIFR","rawOb":"METAR SBCT 160900Z 05002KT 4000 BR OVC002 11/11 Q1021","temp":11,"dewp":11,"wdir":50,"wspd":2,"visib":2.49,"altim":1021,"clouds":[{"cover":"OVC","base":200}],"obsTime":1781600400},"SBEG":{"icaoId":"SBEG","flightCategory":"VFR","rawOb":"METAR SBEG 160900Z 00000KT 9999 FEW030 24/24 Q1013","temp":24,"dewp":24,"wdir":0,"wspd":0,"visib":"6+","altim":1013,"clouds":[{"cover":"FEW","base":3000}],"obsTime":1781600400},"SBFI":{"icaoId":"SBFI","flightCategory":"LIFR","rawOb":"METAR SBFI 160900Z 00000KT 0500 R15///// R33///// FG OVC002 06/06 Q1020","temp":6,"dewp":6,"wdir":0,"wspd":0,"visib":0.31,"altim":1020,"clouds":[{"cover":"OVC","base":200}],"obsTime":1781600400},"SBFZ":{"icaoId":"SBFZ","flightCategory":"VFR","rawOb":"METAR SBFZ 160900Z 18006KT 9999 SCT020 25/23 Q1013","temp":25,"dewp":23,"wdir":180,"wspd":6,"visib":"6+","altim":1013,"clouds":[{"cover":"SCT","base":2000}],"obsTime":1781600400},"SBGL":{"icaoId":"SBGL","flightCategory":"IFR","rawOb":"METAR SBGL 160900Z 30003KT 3000 -RA BR BKN006 BKN070 20/19 Q1016","temp":20,"dewp":19,"wdir":300,"wspd":3,"visib":1.86,"altim":1016,"clouds":[{"cover":"BKN","base":600},{"cover":"BKN","base":7000}],"obsTime":1781600400},"SBGO":{"icaoId":"SBGO","flightCategory":"VFR","rawOb":"METAR SBGO 160900Z 00000KT CAVOK 19/18 Q1019","temp":19,"dewp":18,"wdir":0,"wspd":0,"visib":"6+","altim":1019,"clouds":[],"obsTime":1781600400},"SBGR":{"icaoId":"SBGR","flightCategory":"IFR","rawOb":"METAR SBGR 160900Z 19002KT 9999 BKN008 OVC013 15/14 Q1020","temp":15,"dewp":14,"wdir":190,"wspd":2,"visib":"6+","altim":1020,"clouds":[{"cover":"BKN","base":800},{"cover":"OVC","base":1300}],"obsTime":1781600400},"SBHT":{"icaoId":"SBHT","flightCategory":"VFR","rawOb":"METAR SBHT 161000Z 00000KT 9999 SCT015 24/24 Q1013","temp":24,"dewp":24,"wdir":0,"wspd":0,"visib":"6+","altim":1013,"clouds":[{"cover":"SCT","base":1500}],"obsTime":1781604000},"SBIL":{"icaoId":"SBIL","flightCategory":"VFR","rawOb":"METAR SBIL 161000Z 30008KT 9999 FEW005 22/22 Q1016","temp":22,"dewp":22,"wdir":300,"wspd":8,"visib":"6+","altim":1016,"clouds":[{"cover":"FEW","base":500}],"obsTime":1781604000},"SBJU":{"icaoId":"SBJU","flightCategory":"MVFR","rawOb":"METAR SBJU 160900Z 17005KT 9999 BKN020 24/21 Q1016","temp":24,"dewp":21,"wdir":170,"wspd":5,"visib":"6+","altim":1016,"clouds":[{"cover":"BKN","base":2000}],"obsTime":1781600400},"SBKP":{"icaoId":"SBKP","flightCategory":"VFR","rawOb":"METAR SBKP 160900Z 13005KT 9999 BKN048 16/14 Q1019","temp":16,"dewp":14,"wdir":130,"wspd":5,"visib":"6+","altim":1019,"clouds":[{"cover":"BKN","base":4800}],"obsTime":1781600400},"SBMA":{"icaoId":"SBMA","flightCategory":"VFR","rawOb":"METAR SBMA 160900Z 00000KT CAVOK 24/23 Q1013","temp":24,"dewp":23,"wdir":0,"wspd":0,"visib":"6+","altim":1013,"clouds":[],"obsTime":1781600400},"SBME":{"icaoId":"SBME","flightCategory":"VFR","rawOb":"METAR SBME 160900Z 25004KT 9999 SCT040 OVC070 21/20 Q1015","temp":21,"dewp":20,"wdir":250,"wspd":4,"visib":"6+","altim":1015,"clouds":[{"cover":"SCT","base":4000},{"cover":"OVC","base":7000}],"obsTime":1781600400},"SBMG":{"icaoId":"SBMG","flightCategory":"LIFR","rawOb":"METAR SBMG 160900Z AUTO VRB02KT 0450 R10/0500N FG VV001 13/13 Q1019","temp":13,"dewp":13,"wdir":"VRB","wspd":2,"visib":0.28,"altim":1019,"clouds":[{"cover":"OVX","base":100}],"obsTime":1781600400},"SBMK":{"icaoId":"SBMK","flightCategory":"VFR","rawOb":"METAR SBMK 160900Z 22002KT CAVOK 17/16 Q1018","temp":17,"dewp":16,"wdir":220,"wspd":2,"visib":"6+","altim":1018,"clouds":[],"obsTime":1781600400},"SBMO":{"icaoId":"SBMO","flightCategory":"MVFR","rawOb":"METAR SBMO 160900Z 11001KT 9999 BKN015 BKN060 23/23 Q1015","temp":23,"dewp":23,"wdir":110,"wspd":1,"visib":"6+","altim":1015,"clouds":[{"cover":"BKN","base":1500},{"cover":"BKN","base":6000}],"obsTime":1781600400},"SBMQ":{"icaoId":"SBMQ","flightCategory":"VFR","rawOb":"METAR SBMQ 160900Z 34002KT 9999 FEW015 FEW050TCU BKN100 26/25 Q1012","temp":26,"dewp":25,"wdir":340,"wspd":2,"visib":"6+","altim":1012,"clouds":[{"cover":"FEW","base":1500},{"cover":"FEW","base":5000},{"cover":"BKN","base":10000}],"obsTime":1781600400},"SBNT":{"icaoId":"SBNT","flightCategory":"VFR","rawOb":"METAR SBNT 160900Z 21003KT 9999 VCSH FEW021 BKN040 23/22 Q1014","temp":23,"dewp":22,"wdir":210,"wspd":3,"visib":"6+","altim":1014,"clouds":[{"cover":"FEW","base":2100},{"cover":"BKN","base":4000}],"obsTime":1781600400},"SBPJ":{"icaoId":"SBPJ","flightCategory":"VFR","rawOb":"METAR SBPJ 160900Z 14003KT CAVOK 22/20 Q1014","temp":22,"dewp":20,"wdir":140,"wspd":3,"visib":"6+","altim":1014,"clouds":[],"obsTime":1781600400},"SBPV":{"icaoId":"SBPV","flightCategory":"VFR","rawOb":"METAR SBPV 160900Z 00000KT CAVOK 24/23 Q1013","temp":24,"dewp":23,"wdir":0,"wspd":0,"visib":"6+","altim":1013,"clouds":[],"obsTime":1781600400},"SBRB":{"icaoId":"SBRB","flightCategory":"LIFR","rawOb":"METAR SBRB 160900Z COR 13005KT 4000 -DZ OVC003 22/22 Q1015","temp":22,"dewp":22,"wdir":130,"wspd":5,"visib":2.49,"altim":1015,"clouds":[{"cover":"OVC","base":300}],"obsTime":1781600400},"SBRF":{"icaoId":"SBRF","flightCategory":"VFR","rawOb":"METAR SBRF 160900Z 12006KT 9999 VCSH FEW018 FEW025TCU SCT060 26/23 Q1014","temp":26,"dewp":23,"wdir":120,"wspd":6,"visib":"6+","altim":1014,"clouds":[{"cover":"FEW","base":1800},{"cover":"FEW","base":2500},{"cover":"SCT","base":6000}],"obsTime":1781600400},"SBSG":{"icaoId":"SBSG","flightCategory":"VFR","rawOb":"METAR SBSG 160900Z 20004KT 9999 SCT020 23/22 Q1014","temp":23,"dewp":22,"wdir":200,"wspd":4,"visib":"6+","altim":1014,"clouds":[{"cover":"SCT","base":2000}],"obsTime":1781600400},"SBSL":{"icaoId":"SBSL","flightCategory":"VFR","rawOb":"METAR SBSL 160900Z 08005KT CAVOK 26/24 Q1012","temp":26,"dewp":24,"wdir":80,"wspd":5,"visib":"6+","altim":1012,"clouds":[],"obsTime":1781600400},"SBSN":{"icaoId":"SBSN","flightCategory":"VFR","rawOb":"METAR SBSN 160900Z 15002KT CAVOK 24/24 Q1012","temp":24,"dewp":24,"wdir":150,"wspd":2,"visib":"6+","altim":1012,"clouds":[],"obsTime":1781600400},"SBSP":{"icaoId":"SBSP","flightCategory":"IFR","rawOb":"SPECI SBSP 160849Z AUTO 17005KT 9999 BKN005 BKN012 OVC025 14/14 Q1021","temp":14,"dewp":14,"wdir":170,"wspd":5,"visib":"6+","altim":1021,"clouds":[{"cover":"BKN","base":500},{"cover":"BKN","base":1200},{"cover":"OVC","base":2500}],"obsTime":1781599740},"SBSV":{"icaoId":"SBSV","flightCategory":"MVFR","rawOb":"METAR SBSV 160900Z 36003KT 340V040 9999 -RA FEW013 BKN015 24/23 Q1015","temp":24,"dewp":23,"wdir":360,"wspd":3,"visib":"6+","altim":1015,"clouds":[{"cover":"FEW","base":1300},{"cover":"BKN","base":1500}],"obsTime":1781600400},"SBTE":{"icaoId":"SBTE","flightCategory":"VFR","rawOb":"METAR SBTE 160900Z 00000KT 9999 FEW008 25/23 Q1012","temp":25,"dewp":23,"wdir":0,"wspd":0,"visib":"6+","altim":1012,"clouds":[{"cover":"FEW","base":800}],"obsTime":1781600400},"SBUL":{"icaoId":"SBUL","flightCategory":"LIFR","rawOb":"METAR SBUL 160900Z 25004KT 200V280 8000 BKN003 BKN009 BKN070 17/17 Q1021","temp":17,"dewp":17,"wdir":250,"wspd":4,"visib":4.97,"altim":1021,"clouds":[{"cover":"BKN","base":300},{"cover":"BKN","base":900},{"cover":"BKN","base":7000}],"obsTime":1781600400},"SBUR":{"icaoId":"SBUR","flightCategory":"LIFR","rawOb":"METAR SBUR 160900Z 21004KT 9999 OVC004 18/17 Q1019","temp":18,"dewp":17,"wdir":210,"wspd":4,"visib":"6+","altim":1019,"clouds":[{"cover":"OVC","base":400}],"obsTime":1781600400},"SBVT":{"icaoId":"SBVT","flightCategory":"MVFR","rawOb":"METAR SBVT 160900Z 00000KT 5000 BR VCSH FEW013 SCT020 BKN100 20/20 Q1014","temp":20,"dewp":20,"wdir":0,"wspd":0,"visib":3.11,"altim":1014,"clouds":[{"cover":"FEW","base":1300},{"cover":"SCT","base":2000},{"cover":"BKN","base":10000}],"obsTime":1781600400},"SBCJ":{"icaoId":"SBCJ","flightCategory":"VFR","rawOb":"SPECI SBCJ 161015Z 01006KT CAVOK 24/21 Q1018","temp":24,"dewp":21,"wdir":10,"wspd":6,"visib":"6+","altim":1018,"clouds":[],"obsTime":1781604900},"SBPB":{"icaoId":"SBPB","flightCategory":"VFR","rawOb":"SPECI SBPB 161015Z 09008KT 9999 FEW016 26/24 Q1012","temp":26,"dewp":24,"wdir":90,"wspd":8,"visib":"6+","altim":1012,"clouds":[{"cover":"FEW","base":1600}],"obsTime":1781604900},"SBIP":{"icaoId":"SBIP","flightCategory":"MVFR","rawOb":"METAR SBIP 160900Z AUTO 18001KT 7000 FEW002 20/20 Q1016","temp":20,"dewp":20,"wdir":180,"wspd":1,"visib":4.35,"altim":1016,"clouds":[{"cover":"FEW","base":200}],"obsTime":1781600400},"SBTU":{"icaoId":"SBTU","flightCategory":"VFR","rawOb":"METAR SBTU 160900Z AUTO 18005KT 9999 // NCD ///// Q1014","temp":null,"dewp":null,"wdir":180,"wspd":5,"visib":"6+","altim":1014,"clouds":[],"obsTime":1781600400},"SBSC":{"icaoId":"SBSC","flightCategory":"IFR","rawOb":"METAR SBSC 160900Z 13008KT 3000 -RA BR OVC010 19/19 Q1017","temp":19,"dewp":19,"wdir":130,"wspd":8,"visib":1.86,"altim":1017,"clouds":[{"cover":"OVC","base":1000}],"obsTime":1781600400},"SBPS":{"icaoId":"SBPS","flightCategory":"VFR","rawOb":"METAR SBPS 160900Z 32004KT 9999 FEW015 22/21 Q1015","temp":22,"dewp":21,"wdir":320,"wspd":4,"visib":"6+","altim":1015,"clouds":[{"cover":"FEW","base":1500}],"obsTime":1781600400},"SBCO":{"icaoId":"SBCO","flightCategory":"LIFR","rawOb":"METAR SBCO 160900Z 00000KT 0800 R13///// R31/1100 FG VV005 03/02 Q1022","temp":3,"dewp":2,"wdir":0,"wspd":0,"visib":0.5,"altim":1022,"clouds":[{"cover":"OVX","base":500}],"obsTime":1781600400},"SBSJ":{"icaoId":"SBSJ","flightCategory":"IFR","rawOb":"METAR SBSJ 160900Z 27003KT 4000 BR SCT004 BKN020 15/15 Q1020","temp":15,"dewp":15,"wdir":270,"wspd":3,"visib":2.49,"altim":1020,"clouds":[{"cover":"SCT","base":400},{"cover":"BKN","base":2000}],"obsTime":1781600400},"SBSM":{"icaoId":"SBSM","flightCategory":"VFR","rawOb":"METAR SBSM 160900Z 20001KT CAVOK 01/01 Q1022","temp":1,"dewp":1,"wdir":200,"wspd":1,"visib":"6+","altim":1022,"clouds":[],"obsTime":1781600400},"SBAR":{"icaoId":"SBAR","flightCategory":"IFR","rawOb":"METAR SBAR 160900Z 32004KT 9999 -RA BKN009 BKN012 23/23 Q1015","temp":23,"dewp":23,"wdir":320,"wspd":4,"visib":"6+","altim":1015,"clouds":[{"cover":"BKN","base":900},{"cover":"BKN","base":1200}],"obsTime":1781600400},"SBSR":{"icaoId":"SBSR","flightCategory":"IFR","rawOb":"METAR SBSR 160900Z 20003KT 9999 BKN007 BKN070 17/16 Q1019","temp":17,"dewp":16,"wdir":200,"wspd":3,"visib":"6+","altim":1019,"clouds":[{"cover":"BKN","base":700},{"cover":"BKN","base":7000}],"obsTime":1781600400},"SBDN":{"icaoId":"SBDN","flightCategory":"IFR","rawOb":"METAR SBDN 160900Z 13003KT 9999 SCT003 BKN008 16/15 Q1019","temp":16,"dewp":15,"wdir":130,"wspd":3,"visib":"6+","altim":1019,"clouds":[{"cover":"SCT","base":300},{"cover":"BKN","base":800}],"obsTime":1781600400},"SBPL":{"icaoId":"SBPL","flightCategory":"MVFR","rawOb":"METAR SBPL 160900Z 10006KT 9999 BKN020 23/20 Q1017","temp":23,"dewp":20,"wdir":100,"wspd":6,"visib":"6+","altim":1017,"clouds":[{"cover":"BKN","base":2000}],"obsTime":1781600400},"SBBH":{"icaoId":"SBBH","flightCategory":"VFR","rawOb":"METAR SBBH 160900Z 00000KT 9999 SCT040 16/16 Q1019","temp":16,"dewp":16,"wdir":0,"wspd":0,"visib":"6+","altim":1019,"clouds":[{"cover":"SCT","base":4000}],"obsTime":1781600400},"SBES":{"icaoId":"SBES","flightCategory":"MVFR","rawOb":"METAR SBES 160900Z 00000KT 5000 -RA BR SCT004 BKN010 20/// Q1015","temp":null,"dewp":null,"wdir":0,"wspd":0,"visib":3.11,"altim":1015,"clouds":[{"cover":"SCT","base":400},{"cover":"BKN","base":1000}],"obsTime":1781600400},"SBCA":{"icaoId":"SBCA","flightCategory":"VFR","rawOb":"METAR SBCA 160900Z 12005KT CAVOK 07/07 Q1020","temp":7,"dewp":7,"wdir":120,"wspd":5,"visib":"6+","altim":1020,"clouds":[],"obsTime":1781600400},"SBAX":{"icaoId":"SBAX","flightCategory":"LIFR","rawOb":"METAR SBAX 160900Z AUTO 31002KT 0400 FG VV001 ///// Q1020","temp":null,"dewp":null,"wdir":310,"wspd":2,"visib":0.25,"altim":1020,"clouds":[{"cover":"OVX","base":100}],"obsTime":1781600400},"SBBU":{"icaoId":"SBBU","flightCategory":"VFR","rawOb":"METAR SBBU 160900Z 16001KT 9999 FEW005 15/15 Q1020","temp":15,"dewp":15,"wdir":160,"wspd":1,"visib":"6+","altim":1020,"clouds":[{"cover":"FEW","base":500}],"obsTime":1781600400},"SBKG":{"icaoId":"SBKG","flightCategory":"VFR","rawOb":"METAR SBKG 160900Z 16002KT 9999 SCT008 SCT070 20/20 Q1017","temp":20,"dewp":20,"wdir":160,"wspd":2,"visib":"6+","altim":1017,"clouds":[{"cover":"SCT","base":800},{"cover":"SCT","base":7000}],"obsTime":1781600400},"SBCC":{"icaoId":"SBCC","flightCategory":"VFR","rawOb":"METAR SBCC 161000Z 03004KT CAVOK 22/19 Q1016","temp":22,"dewp":19,"wdir":30,"wspd":4,"visib":"6+","altim":1016,"clouds":[],"obsTime":1781604000},"SBJP":{"icaoId":"SBJP","flightCategory":"MVFR","rawOb":"METAR SBJP 160900Z 16005KT 120V200 8000 VCSH BKN020 SCT070 24/23 Q1015","temp":24,"dewp":23,"wdir":160,"wspd":5,"visib":4.97,"altim":1015,"clouds":[{"cover":"BKN","base":2000},{"cover":"SCT","base":7000}],"obsTime":1781600400},"SBAN":{"icaoId":"SBAN","flightCategory":"VFR","rawOb":"METAR SBAN 160900Z 15005KT CAVOK 18/16 Q1022","temp":18,"dewp":16,"wdir":150,"wspd":5,"visib":"6+","altim":1022,"clouds":[],"obsTime":1781600400},"SBLE":{"icaoId":"SBLE","flightCategory":"MVFR","rawOb":"METAR SBLE 160900Z AUTO 03004KT 9999 OVC016 ///// Q////","temp":null,"dewp":null,"wdir":30,"wspd":4,"visib":"6+","altim":null,"clouds":[{"cover":"OVC","base":1600}],"obsTime":1781600400},"SBJV":{"icaoId":"SBJV","flightCategory":"IFR","rawOb":"METAR SBJV 160900Z 27002KT 3000 -DZ BR OVC010 14/13 Q1021","temp":14,"dewp":13,"wdir":270,"wspd":2,"visib":1.86,"altim":1021,"clouds":[{"cover":"OVC","base":1000}],"obsTime":1781600400},"SBNM":{"icaoId":"SBNM","flightCategory":"LIFR","rawOb":"METAR SBNM 160900Z AUTO VRB02KT 0600 FG VV001 01/01 Q1021","temp":1,"dewp":1,"wdir":"VRB","wspd":2,"visib":0.37,"altim":1021,"clouds":[{"cover":"OVX","base":100}],"obsTime":1781600400},"SBPF":{"icaoId":"SBPF","flightCategory":"VFR","rawOb":"METAR SBPF 160900Z 05003KT CAVOK 03/02 Q1021","temp":3,"dewp":2,"wdir":50,"wspd":3,"visib":"6+","altim":1021,"clouds":[],"obsTime":1781600400},"SBAF":{"icaoId":"SBAF","flightCategory":"IFR","rawOb":"METAR SBAF 161000Z 20007KT 2000 -DZ BR BKN007 OVC029 19/19 Q1018","temp":19,"dewp":19,"wdir":200,"wspd":7,"visib":1.24,"altim":1018,"clouds":[{"cover":"BKN","base":700},{"cover":"OVC","base":2900}],"obsTime":1781604000},"SBGW":{"icaoId":"SBGW","flightCategory":"LIFR","rawOb":"METAR SBGW 160900Z 25005KT 3000 -RA BR BKN004 BKN012 16/13 Q1019","temp":16,"dewp":13,"wdir":250,"wspd":5,"visib":1.86,"altim":1019,"clouds":[{"cover":"BKN","base":400},{"cover":"BKN","base":1200}],"obsTime":1781600400},"SBJR":{"icaoId":"SBJR","flightCategory":"LIFR","rawOb":"METAR SBJR 161000Z 19006KT 2000 -RA BR BKN004 OVC020 20/19 Q1017","temp":20,"dewp":19,"wdir":190,"wspd":6,"visib":1.24,"altim":1017,"clouds":[{"cover":"BKN","base":400},{"cover":"OVC","base":2000}],"obsTime":1781604000},"SBLS":{"icaoId":"SBLS","flightCategory":"VFR","rawOb":"METAR SBLS 160900Z 19002KT 9999 4000SW BCFG SCT030 17/16 Q1018","temp":17,"dewp":16,"wdir":190,"wspd":2,"visib":"6+","altim":1018,"clouds":[{"cover":"SCT","base":3000}],"obsTime":1781600400},"SBMT":{"icaoId":"SBMT","flightCategory":"IFR","rawOb":"METAR SBMT 160900Z 20004KT 4000 BR BKN008 14/13 Q1020","temp":14,"dewp":13,"wdir":200,"wspd":4,"visib":2.49,"altim":1020,"clouds":[{"cover":"BKN","base":800}],"obsTime":1781600400},"SBTA":{"icaoId":"SBTA","flightCategory":"IFR","rawOb":"METAR SBTA 160900Z 24004KT 4000 BR BKN005 OVC020 16/15 Q1019","temp":16,"dewp":15,"wdir":240,"wspd":4,"visib":2.49,"altim":1019,"clouds":[{"cover":"BKN","base":500},{"cover":"OVC","base":2000}],"obsTime":1781600400}}}