{"updated":1776851804,"count":62,"data":{"SBCT":{"icaoId":"SBCT","flightCategory":"MVFR","rawOb":"METAR SBCT 220800Z 08003KT 9999 BKN011 14/14 Q1020","temp":14,"dewp":14,"wdir":80,"wspd":3,"visib":"6+","altim":1020,"clouds":[{"cover":"BKN","base":1100}],"obsTime":1776844800},"SBSV":{"icaoId":"SBSV","flightCategory":"VFR","rawOb":"METAR SBSV 220800Z 04005KT 9999 SCT021 BKN060 25/23 Q1013","temp":25,"dewp":23,"wdir":40,"wspd":5,"visib":"6+","altim":1013,"clouds":[{"cover":"SCT","base":2100},{"cover":"BKN","base":6000}],"obsTime":1776844800},"SBPA":{"icaoId":"SBPA","flightCategory":"MVFR","rawOb":"METAR SBPA 220800Z 00000KT 7000 FEW017 BKN100 19/19 Q1013","temp":19,"dewp":19,"wdir":0,"wspd":0,"visib":4.35,"altim":1013,"clouds":[{"cover":"FEW","base":1700},{"cover":"BKN","base":10000}],"obsTime":1776844800},"SBBV":{"icaoId":"SBBV","flightCategory":"VFR","rawOb":"METAR SBBV 220800Z 09005KT 9999 VCTS SCT015 SCT035 FEW045CB BKN070 27/24 Q1009","temp":27,"dewp":24,"wdir":90,"wspd":5,"visib":"6+","altim":1009,"clouds":[{"cover":"SCT","base":1500},{"cover":"SCT","base":3500},{"cover":"FEW","base":4500},{"cover":"BKN","base":7000}],"obsTime":1776844800},"SBCB":{"icaoId":"SBCB","flightCategory":"VFR","rawOb":"METAR SBCB 220900Z 01003KT 9999 FEW020 21/19 Q1017","temp":21,"dewp":19,"wdir":10,"wspd":3,"visib":"6+","altim":1017,"clouds":[{"cover":"FEW","base":2000}],"obsTime":1776848400},"SBCF":{"icaoId":"SBCF","flightCategory":"VFR","rawOb":"METAR SBCF 220800Z 11004KT CAVOK 19/17 Q1019","temp":19,"dewp":17,"wdir":110,"wspd":4,"visib":"6+","altim":1019,"clouds":[],"obsTime":1776844800},"SBCG":{"icaoId":"SBCG","flightCategory":"VFR","rawOb":"METAR SBCG 220800Z 11007KT CAVOK 22/16 Q1015","temp":22,"dewp":16,"wdir":110,"wspd":7,"visib":"6+","altim":1015,"clouds":[],"obsTime":1776844800},"SBFL":{"icaoId":"SBFL","flightCategory":"VFR","rawOb":"METAR SBFL 220800Z 31006KT CAVOK 21/20 Q1016","temp":21,"dewp":20,"wdir":310,"wspd":6,"visib":"6+","altim":1016,"clouds":[],"obsTime":1776844800},"SBBE":{"icaoId":"SBBE","flightCategory":"VFR","rawOb":"METAR SBBE 220800Z 11005KT 9999 SCT006 24/23 Q1010","temp":24,"dewp":23,"wdir":110,"wspd":5,"visib":"6+","altim":1010,"clouds":[{"cover":"SCT","base":600}],"obsTime":1776844800},"SBBR":{"icaoId":"SBBR","flightCategory":"VFR","rawOb":"METAR SBBR 220800Z 00000KT CAVOK 18/17 Q1019","temp":18,"dewp":17,"wdir":0,"wspd":0,"visib":"6+","altim":1019,"clouds":[],"obsTime":1776844800},"SBEG":{"icaoId":"SBEG","flightCategory":"VFR","rawOb":"METAR SBEG 220800Z 08005KT 9999 FEW010 SCT020 BKN090 25/24 Q1010","temp":25,"dewp":24,"wdir":80,"wspd":5,"visib":"6+","altim":1010,"clouds":[{"cover":"FEW","base":1000},{"cover":"SCT","base":2000},{"cover":"BKN","base":9000}],"obsTime":1776844800},"SBFI":{"icaoId":"SBFI","flightCategory":"MVFR","rawOb":"METAR SBFI 220800Z 27002KT 8000 BCFG FEW015 SCT070 21/21 Q1015","temp":21,"dewp":21,"wdir":270,"wspd":2,"visib":4.97,"altim":1015,"clouds":[{"cover":"FEW","base":1500},{"cover":"SCT","base":7000}],"obsTime":1776844800},"SBFZ":{"icaoId":"SBFZ","flightCategory":"VFR","rawOb":"METAR SBFZ 220800Z 15004KT 9999 SCT020 24/22 Q1010","temp":24,"dewp":22,"wdir":150,"wspd":4,"visib":"6+","altim":1010,"clouds":[{"cover":"SCT","base":2000}],"obsTime":1776844800},"SBGL":{"icaoId":"SBGL","flightCategory":"VFR","rawOb":"METAR SBGL 220800Z 32003KT 9999 FEW040 BKN070 22/19 Q1016","temp":22,"dewp":19,"wdir":320,"wspd":3,"visib":"6+","altim":1016,"clouds":[{"cover":"FEW","base":4000},{"cover":"BKN","base":7000}],"obsTime":1776844800},"SBGO":{"icaoId":"SBGO","flightCategory":"VFR","rawOb":"METAR SBGO 220800Z 00000KT 9999 FEW045 SCT080 20/19 Q1017","temp":20,"dewp":19,"wdir":0,"wspd":0,"visib":"6+","altim":1017,"clouds":[{"cover":"FEW","base":4500},{"cover":"SCT","base":8000}],"obsTime":1776844800},"SBGR":{"icaoId":"SBGR","flightCategory":"MVFR","rawOb":"METAR SBGR 220800Z 11002KT 9999 BKN011 16/15 Q1019","temp":16,"dewp":15,"wdir":110,"wspd":2,"visib":"6+","altim":1019,"clouds":[{"cover":"BKN","base":1100}],"obsTime":1776844800},"SBJU":{"icaoId":"SBJU","flightCategory":"VFR","rawOb":"METAR SBJU 220800Z 00000KT 9999 SCT020 24/23 Q1013","temp":24,"dewp":23,"wdir":0,"wspd":0,"visib":"6+","altim":1013,"clouds":[{"cover":"SCT","base":2000}],"obsTime":1776844800},"SBKP":{"icaoId":"SBKP","flightCategory":"VFR","rawOb":"METAR SBKP 220800Z 12011KT CAVOK 17/14 Q1018","temp":17,"dewp":14,"wdir":120,"wspd":11,"visib":"6+","altim":1018,"clouds":[],"obsTime":1776844800},"SBLO":{"icaoId":"SBLO","flightCategory":"VFR","rawOb":"METAR SBLO 220800Z 20002KT CAVOK 17/14 Q1017","temp":17,"dewp":14,"wdir":200,"wspd":2,"visib":"6+","altim":1017,"clouds":[],"obsTime":1776844800},"SBMA":{"icaoId":"SBMA","flightCategory":"VFR","rawOb":"METAR SBMA 220800Z 18002KT 9999 SCT020 BKN100 24/23 Q1010","temp":24,"dewp":23,"wdir":180,"wspd":2,"visib":"6+","altim":1010,"clouds":[{"cover":"SCT","base":2000},{"cover":"BKN","base":10000}],"obsTime":1776844800},"SBME":{"icaoId":"SBME","flightCategory":"VFR","rawOb":"METAR SBME 220800Z 33003KT CAVOK 20/18 Q1016","temp":20,"dewp":18,"wdir":330,"wspd":3,"visib":"6+","altim":1016,"clouds":[],"obsTime":1776844800},"SBMG":{"icaoId":"SBMG","flightCategory":"VFR","rawOb":"METAR SBMG 220800Z AUTO 05005KT CAVOK 20/14 Q1016","temp":20,"dewp":14,"wdir":50,"wspd":5,"visib":"6+","altim":1016,"clouds":[],"obsTime":1776844800},"SBMK":{"icaoId":"SBMK","flightCategory":"VFR","rawOb":"METAR SBMK 220800Z 24002KT CAVOK 18/16 Q1018","temp":18,"dewp":16,"wdir":240,"wspd":2,"visib":"6+","altim":1018,"clouds":[],"obsTime":1776844800},"SBMO":{"icaoId":"SBMO","flightCategory":"VFR","rawOb":"METAR SBMO 220800Z 32003KT 9999 FEW020 22/22 Q1012","temp":22,"dewp":22,"wdir":320,"wspd":3,"visib":"6+","altim":1012,"clouds":[{"cover":"FEW","base":2000}],"obsTime":1776844800},"SBMQ":{"icaoId":"SBMQ","flightCategory":"MVFR","rawOb":"METAR SBMQ 220800Z 02002KT 8000 -RA FEW010 SCT019 OVC070 25/25 Q1010","temp":25,"dewp":25,"wdir":20,"wspd":2,"visib":4.97,"altim":1010,"clouds":[{"cover":"FEW","base":1000},{"cover":"SCT","base":1900},{"cover":"OVC","base":7000}],"obsTime":1776844800},"SBNT":{"icaoId":"SBNT","flightCategory":"VFR","rawOb":"METAR SBNT 220800Z 22003KT 190V250 9999 FEW020 23/22 Q1011","temp":23,"dewp":22,"wdir":220,"wspd":3,"visib":"6+","altim":1011,"clouds":[{"cover":"FEW","base":2000}],"obsTime":1776844800},"SBPJ":{"icaoId":"SBPJ","flightCategory":"VFR","rawOb":"METAR SBPJ 220800Z 13003KT 9999 FEW009 SCT100 23/23 Q1012","temp":23,"dewp":23,"wdir":130,"wspd":3,"visib":"6+","altim":1012,"clouds":[{"cover":"FEW","base":900},{"cover":"SCT","base":10000}],"obsTime":1776844800},"SBPV":{"icaoId":"SBPV","flightCategory":"VFR","rawOb":"METAR SBPV 220800Z 36001KT 9999 -RA FEW030 BKN070 23/21 Q1010","temp":23,"dewp":21,"wdir":360,"wspd":1,"visib":"6+","altim":1010,"clouds":[{"cover":"FEW","base":3000},{"cover":"BKN","base":7000}],"obsTime":1776844800},"SBRB":{"icaoId":"SBRB","flightCategory":"VFR","rawOb":"METAR SBRB 220800Z 07001KT 9999 FEW016 23/22 Q1011","temp":23,"dewp":22,"wdir":70,"wspd":1,"visib":"6+","altim":1011,"clouds":[{"cover":"FEW","base":1600}],"obsTime":1776844800},"SBRF":{"icaoId":"SBRF","flightCategory":"MVFR","rawOb":"METAR SBRF 220800Z VRB02KT 9999 FEW012 BKN018 24/23 Q1011","temp":24,"dewp":23,"wdir":"VRB","wspd":2,"visib":"6+","altim":1011,"clouds":[{"cover":"FEW","base":1200},{"cover":"BKN","base":1800}],"obsTime":1776844800},"SBSG":{"icaoId":"SBSG","flightCategory":"VFR","rawOb":"METAR SBSG 220800Z 20003KT 9999 FEW020 23/22 Q1011","temp":23,"dewp":22,"wdir":200,"wspd":3,"visib":"6+","altim":1011,"clouds":[{"cover":"FEW","base":2000}],"obsTime":1776844800},"SBSL":{"icaoId":"SBSL","flightCategory":"VFR","rawOb":"METAR SBSL 220800Z 28002KT 9999 FEW017 24/24 Q1010","temp":24,"dewp":24,"wdir":280,"wspd":2,"visib":"6+","altim":1010,"clouds":[{"cover":"FEW","base":1700}],"obsTime":1776844800},"SBSN":{"icaoId":"SBSN","flightCategory":"VFR","rawOb":"METAR SBSN 220800Z 13002KT 9999 FEW016 24/23 Q1010","temp":24,"dewp":23,"wdir":130,"wspd":2,"visib":"6+","altim":1010,"clouds":[{"cover":"FEW","base":1600}],"obsTime":1776844800},"SBSP":{"icaoId":"SBSP","flightCategory":"VFR","rawOb":"METAR SBSP 220800Z AUTO 15003KT 9999 SCT016 15/14 Q1020","temp":15,"dewp":14,"wdir":150,"wspd":3,"visib":"6+","altim":1020,"clouds":[{"cover":"SCT","base":1600}],"obsTime":1776844800},"SBTE":{"icaoId":"SBTE","flightCategory":"IFR","rawOb":"METAR SBTE 220800Z 18003KT 9999 OVC007 23/23 Q1011","temp":23,"dewp":23,"wdir":180,"wspd":3,"visib":"6+","altim":1011,"clouds":[{"cover":"OVC","base":700}],"obsTime":1776844800},"SBUL":{"icaoId":"SBUL","flightCategory":"VFR","rawOb":"METAR SBUL 220800Z 09003KT 050V160 CAVOK 21/17 Q1018","temp":21,"dewp":17,"wdir":90,"wspd":3,"visib":"6+","altim":1018,"clouds":[],"obsTime":1776844800},"SBUR":{"icaoId":"SBUR","flightCategory":"VFR","rawOb":"METAR SBUR 220800Z 04004KT CAVOK 21/18 Q1017","temp":21,"dewp":18,"wdir":40,"wspd":4,"visib":"6+","altim":1017,"clouds":[],"obsTime":1776844800},"SBVT":{"icaoId":"SBVT","flightCategory":"VFR","rawOb":"METAR SBVT 220800Z 36002KT 9999 FEW025 SCT100 20/19 Q1016","temp":20,"dewp":19,"wdir":360,"wspd":2,"visib":"6+","altim":1016,"clouds":[{"cover":"FEW","base":2500},{"cover":"SCT","base":10000}],"obsTime":1776844800},"SBSM":{"icaoId":"SBSM","flightCategory":"MVFR","rawOb":"METAR SBSM 220900Z 36002KT 7000 SCT003 SCT090 18/18 Q1015","temp":18,"dewp":18,"wdir":360,"wspd":2,"visib":4.35,"altim":1015,"clouds":[{"cover":"SCT","base":300},{"cover":"SCT","base":9000}],"obsTime":1776848400},"SBAR":{"icaoId":"SBAR","flightCategory":"VFR","rawOb":"METAR SBAR 220800Z 27004KT 9999 FEW015 SCT050 23/22 Q1012","temp":23,"dewp":22,"wdir":270,"wspd":4,"visib":"6+","altim":1012,"clouds":[{"cover":"FEW","base":1500},{"cover":"SCT","base":5000}],"obsTime":1776844800},"SBBH":{"icaoId":"SBBH","flightCategory":"VFR","rawOb":"METAR SBBH 220900Z 09003KT 9999 FEW049 19/17 Q1019","temp":19,"dewp":17,"wdir":90,"wspd":3,"visib":"6+","altim":1019,"clouds":[{"cover":"FEW","base":4900}],"obsTime":1776848400},"SBBU":{"icaoId":"SBBU","flightCategory":"VFR","rawOb":"METAR SBBU 220900Z 11010KT CAVOK 17/15 Q1017","temp":17,"dewp":15,"wdir":110,"wspd":10,"visib":"6+","altim":1017,"clouds":[],"obsTime":1776848400},"SBCO":{"icaoId":"SBCO","flightCategory":"MVFR","rawOb":"METAR SBCO 220900Z VRB02KT 8000 FEW020 BKN100 19/19 Q1014","temp":19,"dewp":19,"wdir":"VRB","wspd":2,"visib":4.97,"altim":1014,"clouds":[{"cover":"FEW","base":2000},{"cover":"BKN","base":10000}],"obsTime":1776848400},"SBDN":{"icaoId":"SBDN","flightCategory":"VFR","rawOb":"METAR SBDN 220800Z 11009KT CAVOK 19/14 Q1016","temp":19,"dewp":14,"wdir":110,"wspd":9,"visib":"6+","altim":1016,"clouds":[],"obsTime":1776844800},"SBES":{"icaoId":"SBES","flightCategory":"VFR","rawOb":"METAR SBES 220800Z 00000KT CAVOK 16/// Q1016","temp":null,"dewp":null,"wdir":0,"wspd":0,"visib":"6+","altim":1016,"clouds":[],"obsTime":1776844800},"SBSR":{"icaoId":"SBSR","flightCategory":"VFR","rawOb":"METAR SBSR 220800Z 17005KT CAVOK 19/15 Q1016","temp":19,"dewp":15,"wdir":170,"wspd":5,"visib":"6+","altim":1016,"clouds":[],"obsTime":1776844800},"SBIP":{"icaoId":"SBIP","flightCategory":"MVFR","rawOb":"METAR SBIP 220800Z AUTO VRB02KT 9000 OVC030 21/21 Q1017","temp":21,"dewp":21,"wdir":"VRB","wspd":2,"visib":5.59,"altim":1017,"clouds":[{"cover":"OVC","base":3000}],"obsTime":1776844800},"SBKG":{"icaoId":"SBKG","flightCategory":"VFR","rawOb":"METAR SBKG 220800Z 03002KT 9999 FEW016 21/20 Q1014","temp":21,"dewp":20,"wdir":30,"wspd":2,"visib":"6+","altim":1014,"clouds":[{"cover":"FEW","base":1600}],"obsTime":1776844800},"SBOI":{"icaoId":"SBOI","flightCategory":"MVFR","rawOb":"METAR SBOI 220800Z AUTO 00000KT 9999 // FEW004/// BKN015/// 25/24 Q1010","temp":25,"dewp":24,"wdir":0,"wspd":0,"visib":"6+","altim":1010,"clouds":[{"cover":"FEW","base":400},{"cover":"BKN","base":1500}],"obsTime":1776844800},"SBPL":{"icaoId":"SBPL","flightCategory":"VFR","rawOb":"METAR SBPL 220800Z 13007KT 9999 FEW020 BKN070 25/20 Q1014","temp":25,"dewp":20,"wdir":130,"wspd":7,"visib":"6+","altim":1014,"clouds":[{"cover":"FEW","base":2000},{"cover":"BKN","base":7000}],"obsTime":1776844800},"SBPS":{"icaoId":"SBPS","flightCategory":"VFR","rawOb":"METAR SBPS 220800Z 24006KT 9999 SCT020 BKN100 23/22 Q1015","temp":23,"dewp":22,"wdir":240,"wspd":6,"visib":"6+","altim":1015,"clouds":[{"cover":"SCT","base":2000},{"cover":"BKN","base":10000}],"obsTime":1776844800},"SBSC":{"icaoId":"SBSC","flightCategory":"VFR","rawOb":"METAR SBSC 220800Z 21002KT 9999 FEW015 BKN070 20/18 Q1016","temp":20,"dewp":18,"wdir":210,"wspd":2,"visib":"6+","altim":1016,"clouds":[{"cover":"FEW","base":1500},{"cover":"BKN","base":7000}],"obsTime":1776844800},"SBSJ":{"icaoId":"SBSJ","flightCategory":"MVFR","rawOb":"SPECI SBSJ 220830Z 30002KT 9999 BKN030 17/15 Q1019","temp":17,"dewp":15,"wdir":300,"wspd":2,"visib":"6+","altim":1019,"clouds":[{"cover":"BKN","base":3000}],"obsTime":1776846600},"SBJP":{"icaoId":"SBJP","flightCategory":"VFR","rawOb":"METAR SBJP 220800Z 22002KT 9999 FEW020 23/22 Q1012","temp":23,"dewp":22,"wdir":220,"wspd":2,"visib":"6+","altim":1012,"clouds":[{"cover":"FEW","base":2000}],"obsTime":1776844800},"SBAN":{"icaoId":"SBAN","flightCategory":"VFR","rawOb":"METAR SBAN 220800Z 10004KT 9999 FEW045 SCT070 17/16 Q1019","temp":17,"dewp":16,"wdir":100,"wspd":4,"visib":"6+","altim":1019,"clouds":[{"cover":"FEW","base":4500},{"cover":"SCT","base":7000}],"obsTime":1776844800},"SBJV":{"icaoId":"SBJV","flightCategory":"VFR","rawOb":"METAR SBJV 220900Z 31002KT CAVOK 18/18 Q1017","temp":18,"dewp":18,"wdir":310,"wspd":2,"visib":"6+","altim":1017,"clouds":[],"obsTime":1776848400},"SBPF":{"icaoId":"SBPF","flightCategory":"VFR","rawOb":"METAR SBPF 220900Z 03008KT 9999 SCT020 17/14 Q1018","temp":17,"dewp":14,"wdir":30,"wspd":8,"visib":"6+","altim":1018,"clouds":[{"cover":"SCT","base":2000}],"obsTime":1776848400},"SBLE":{"icaoId":"SBLE","flightCategory":"VFR","rawOb":"METAR SBLE 220800Z AUTO 00000KT 9999 FEW040 ///// Q////","temp":null,"dewp":null,"wdir":0,"wspd":0,"visib":"6+","altim":null,"clouds":[{"cover":"FEW","base":4000}],"obsTime":1776844800},"SBGW":{"icaoId":"SBGW","flightCategory":"MVFR","rawOb":"METAR SBGW 220900Z VRB02KT 8000 BKN030 19/14 Q1019","temp":19,"dewp":14,"wdir":"VRB","wspd":2,"visib":4.97,"altim":1019,"clouds":[{"cover":"BKN","base":3000}],"obsTime":1776848400},"SBLS":{"icaoId":"SBLS","flightCategory":"VFR","rawOb":"METAR SBLS 220900Z 14007KT 9999 FEW020 19/17 Q1019","temp":19,"dewp":17,"wdir":140,"wspd":7,"visib":"6+","altim":1019,"clouds":[{"cover":"FEW","base":2000}],"obsTime":1776848400},"SBMT":{"icaoId":"SBMT","flightCategory":"VFR","rawOb":"METAR SBMT 220900Z 10006KT 9999 FEW012 16/14 Q1019","temp":16,"dewp":14,"wdir":100,"wspd":6,"visib":"6+","altim":1019,"clouds":[{"cover":"FEW","base":1200}],"obsTime":1776848400},"SBTA":{"icaoId":"SBTA","flightCategory":"MVFR","rawOb":"METAR SBTA 220900Z VRB01KT 8000 FEW017 BKN030 17/17 Q1018","temp":17,"dewp":17,"wdir":"VRB","wspd":1,"visib":4.97,"altim":1018,"clouds":[{"cover":"FEW","base":1700},{"cover":"BKN","base":3000}],"obsTime":1776848400}}}