{"updated":1778362299,"count":83,"data":{"SBAT":{"icaoId":"SBAT","flightCategory":"VFR","rawOb":"METAR SBAT 092000Z 03005KT 9999 VCSH FEW035 FEW038TCU 34/23 Q1010","temp":34,"dewp":23,"wdir":30,"wspd":5,"visib":"6+","altim":1010,"clouds":[{"cover":"FEW","base":3500},{"cover":"FEW","base":3800}],"obsTime":1778356800},"SBBE":{"icaoId":"SBBE","flightCategory":"LIFR","rawOb":"SPECI SBBE 091936Z 35007KT 1000 R07/////N RA BR SCT015 FEW020TCU BKN023 27/25 Q1010","temp":27,"dewp":25,"wdir":350,"wspd":7,"visib":0.62,"altim":1010,"clouds":[{"cover":"SCT","base":1500},{"cover":"FEW","base":2000},{"cover":"BKN","base":2300}],"obsTime":1778355360},"SBBR":{"icaoId":"SBBR","flightCategory":"VFR","rawOb":"METAR SBBR 092000Z 08008KT 9999 FEW045 28/13 Q1018","temp":28,"dewp":13,"wdir":80,"wspd":8,"visib":"6+","altim":1018,"clouds":[{"cover":"FEW","base":4500}],"obsTime":1778356800},"SBBV":{"icaoId":"SBBV","flightCategory":"VFR","rawOb":"METAR SBBV 092000Z 08008KT 9999 SCT040 FEW045TCU SCT080 32/22 Q1009","temp":32,"dewp":22,"wdir":80,"wspd":8,"visib":"6+","altim":1009,"clouds":[{"cover":"SCT","base":4000},{"cover":"FEW","base":4500},{"cover":"SCT","base":8000}],"obsTime":1778356800},"SBCB":{"icaoId":"SBCB","flightCategory":"VFR","rawOb":"METAR SBCB 092000Z 07013KT CAVOK 26/21 Q1013","temp":26,"dewp":21,"wdir":70,"wspd":13,"visib":"6+","altim":1013,"clouds":[],"obsTime":1778356800},"SBCF":{"icaoId":"SBCF","flightCategory":"VFR","rawOb":"METAR SBCF 092000Z 09005KT 9999 SCT048 26/15 Q1019","temp":26,"dewp":15,"wdir":90,"wspd":5,"visib":"6+","altim":1019,"clouds":[{"cover":"SCT","base":4800}],"obsTime":1778356800},"SBCG":{"icaoId":"SBCG","flightCategory":"LIFR","rawOb":"METAR SBCG 092000Z 15016G26KT 5000 -TSRA BR BKN003 BKN005 BKN019 FEW040CB 12/12 Q1016 RERA","temp":12,"dewp":12,"wdir":150,"wspd":16,"visib":3.11,"altim":1016,"clouds":[{"cover":"BKN","base":300},{"cover":"BKN","base":500},{"cover":"BKN","base":1900},{"cover":"FEW","base":4000}],"obsTime":1778356800},"SBCP":{"icaoId":"SBCP","flightCategory":"VFR","rawOb":"METAR SBCP 092000Z 08012KT 9999 FEW020 27/22 Q1015","temp":27,"dewp":22,"wdir":80,"wspd":12,"visib":"6+","altim":1015,"clouds":[{"cover":"FEW","base":2000}],"obsTime":1778356800},"SBCR":{"icaoId":"SBCR","flightCategory":"IFR","rawOb":"METAR SBCR 092000Z 20012G23KT 160V230 4000 -RA FEW006 BKN007 FEW025TCU OVC070 15/14 Q1017 RETS","temp":15,"dewp":14,"wdir":200,"wspd":12,"visib":2.49,"altim":1017,"clouds":[{"cover":"FEW","base":600},{"cover":"BKN","base":700},{"cover":"FEW","base":2500},{"cover":"OVC","base":7000}],"obsTime":1778356800},"SBCT":{"icaoId":"SBCT","flightCategory":"IFR","rawOb":"METAR SBCT 092000Z 21009KT 4000 -RA BR BKN005 OVC009 11/10 Q1018","temp":11,"dewp":10,"wdir":210,"wspd":9,"visib":2.49,"altim":1018,"clouds":[{"cover":"BKN","base":500},{"cover":"OVC","base":900}],"obsTime":1778356800},"SBCZ":{"icaoId":"SBCZ","flightCategory":"VFR","rawOb":"METAR SBCZ 092000Z 33003KT 9999 SCT025 FEW030TCU 30/25 Q1008","temp":30,"dewp":25,"wdir":330,"wspd":3,"visib":"6+","altim":1008,"clouds":[{"cover":"SCT","base":2500},{"cover":"FEW","base":3000}],"obsTime":1778356800},"SBEG":{"icaoId":"SBEG","flightCategory":"VFR","rawOb":"METAR SBEG 092000Z 11008KT 9999 VCSH SCT030 FEW035TCU 31/24 Q1008","temp":31,"dewp":24,"wdir":110,"wspd":8,"visib":"6+","altim":1008,"clouds":[{"cover":"SCT","base":3000},{"cover":"FEW","base":3500}],"obsTime":1778356800},"SBFI":{"icaoId":"SBFI","flightCategory":"VFR","rawOb":"METAR SBFI 092000Z 20003KT 9999 FEW030 BKN080 13/09 Q1020","temp":13,"dewp":9,"wdir":200,"wspd":3,"visib":"6+","altim":1020,"clouds":[{"cover":"FEW","base":3000},{"cover":"BKN","base":8000}],"obsTime":1778356800},"SBFL":{"icaoId":"SBFL","flightCategory":"MVFR","rawOb":"METAR SBFL 092000Z VRB02KT 4900 -RA FEW014 OVC030 14/12 Q1017","temp":14,"dewp":12,"wdir":"VRB","wspd":2,"visib":3.04,"altim":1017,"clouds":[{"cover":"FEW","base":1400},{"cover":"OVC","base":3000}],"obsTime":1778356800},"SBFZ":{"icaoId":"SBFZ","flightCategory":"VFR","rawOb":"METAR SBFZ 092000Z 10009KT 9999 FEW020 BKN070 28/24 Q1010","temp":28,"dewp":24,"wdir":100,"wspd":9,"visib":"6+","altim":1010,"clouds":[{"cover":"FEW","base":2000},{"cover":"BKN","base":7000}],"obsTime":1778356800},"SBGL":{"icaoId":"SBGL","flightCategory":"VFR","rawOb":"METAR SBGL 092000Z 13005KT CAVOK 31/20 Q1012","temp":31,"dewp":20,"wdir":130,"wspd":5,"visib":"6+","altim":1012,"clouds":[],"obsTime":1778356800},"SBGO":{"icaoId":"SBGO","flightCategory":"VFR","rawOb":"METAR SBGO 092000Z 31006KT 9999 FEW049 31/16 Q1016","temp":31,"dewp":16,"wdir":310,"wspd":6,"visib":"6+","altim":1016,"clouds":[{"cover":"FEW","base":4900}],"obsTime":1778356800},"SBGR":{"icaoId":"SBGR","flightCategory":"VFR","rawOb":"METAR SBGR 092000Z 35005KT CAVOK 27/17 Q1016","temp":27,"dewp":17,"wdir":350,"wspd":5,"visib":"6+","altim":1016,"clouds":[],"obsTime":1778356800},"SBHT":{"icaoId":"SBHT","flightCategory":"MVFR","rawOb":"METAR SBHT 092000Z 12004KT 9999 BKN023 BKN090 31/23 Q1009","temp":31,"dewp":23,"wdir":120,"wspd":4,"visib":"6+","altim":1009,"clouds":[{"cover":"BKN","base":2300},{"cover":"BKN","base":9000}],"obsTime":1778356800},"SBIL":{"icaoId":"SBIL","flightCategory":"VFR","rawOb":"METAR SBIL 092000Z 15007KT 120V180 CAVOK 29/22 Q1016","temp":29,"dewp":22,"wdir":150,"wspd":7,"visib":"6+","altim":1016,"clouds":[],"obsTime":1778356800},"SBJU":{"icaoId":"SBJU","flightCategory":"VFR","rawOb":"METAR SBJU 092000Z 36004KT 9999 FEW022 28/23 Q1012","temp":28,"dewp":23,"wdir":360,"wspd":4,"visib":"6+","altim":1012,"clouds":[{"cover":"FEW","base":2200}],"obsTime":1778356800},"SBKP":{"icaoId":"SBKP","flightCategory":"VFR","rawOb":"METAR SBKP 092000Z 33005KT 9999 FEW045 28/16 Q1015","temp":28,"dewp":16,"wdir":330,"wspd":5,"visib":"6+","altim":1015,"clouds":[{"cover":"FEW","base":4500}],"obsTime":1778356800},"SBLO":{"icaoId":"SBLO","flightCategory":"LIFR","rawOb":"METAR SBLO 092000Z 20007KT 130V250 2500 RA BKN002 OVC010 19/18 Q1014","temp":19,"dewp":18,"wdir":200,"wspd":7,"visib":1.55,"altim":1014,"clouds":[{"cover":"BKN","base":200},{"cover":"OVC","base":1000}],"obsTime":1778356800},"SBMA":{"icaoId":"SBMA","flightCategory":"VFR","rawOb":"METAR SBMA 092000Z 22003KT 9999 SCT025 SCT027TCU BKN100 30/22 Q1009","temp":30,"dewp":22,"wdir":220,"wspd":3,"visib":"6+","altim":1009,"clouds":[{"cover":"SCT","base":2500},{"cover":"SCT","base":2700},{"cover":"BKN","base":10000}],"obsTime":1778356800},"SBME":{"icaoId":"SBME","flightCategory":"VFR","rawOb":"METAR SBME 092000Z 04021KT CAVOK 31/21 Q1013","temp":31,"dewp":21,"wdir":40,"wspd":21,"visib":"6+","altim":1013,"clouds":[],"obsTime":1778356800},"SBMG":{"icaoId":"SBMG","flightCategory":"LIFR","rawOb":"METAR SBMG 092000Z 20014KT 3000 -RA BR BKN003 OVC010 12/12 Q1015","temp":12,"dewp":12,"wdir":200,"wspd":14,"visib":1.86,"altim":1015,"clouds":[{"cover":"BKN","base":300},{"cover":"OVC","base":1000}],"obsTime":1778356800},"SBMK":{"icaoId":"SBMK","flightCategory":"VFR","rawOb":"METAR SBMK 092000Z 02005KT 9999 FEW045 29/16 Q1017","temp":29,"dewp":16,"wdir":20,"wspd":5,"visib":"6+","altim":1017,"clouds":[{"cover":"FEW","base":4500}],"obsTime":1778356800},"SBMO":{"icaoId":"SBMO","flightCategory":"IFR","rawOb":"METAR SBMO 092000Z 12008KT 3000 -RA BR BKN007 OVC010 24/24 Q1013","temp":24,"dewp":24,"wdir":120,"wspd":8,"visib":1.86,"altim":1013,"clouds":[{"cover":"BKN","base":700},{"cover":"OVC","base":1000}],"obsTime":1778356800},"SBMQ":{"icaoId":"SBMQ","flightCategory":"VFR","rawOb":"METAR SBMQ 092000Z 06008KT 030V090 9999 BKN040 SCT100 30/25 Q1009","temp":30,"dewp":25,"wdir":60,"wspd":8,"visib":"6+","altim":1009,"clouds":[{"cover":"BKN","base":4000},{"cover":"SCT","base":10000}],"obsTime":1778356800},"SBNT":{"icaoId":"SBNT","flightCategory":"VFR","rawOb":"METAR SBNT 092000Z 11010KT 9999 SCT025 28/24 Q1011","temp":28,"dewp":24,"wdir":110,"wspd":10,"visib":"6+","altim":1011,"clouds":[{"cover":"SCT","base":2500}],"obsTime":1778356800},"SBPA":{"icaoId":"SBPA","flightCategory":"VFR","rawOb":"METAR SBPA 092000Z 29013KT CAVOK 17/04 Q1015","temp":17,"dewp":4,"wdir":290,"wspd":13,"visib":"6+","altim":1015,"clouds":[],"obsTime":1778356800},"SBPJ":{"icaoId":"SBPJ","flightCategory":"VFR","rawOb":"METAR SBPJ 092000Z 18003KT 9999 SCT025 34/21 Q1011","temp":34,"dewp":21,"wdir":180,"wspd":3,"visib":"6+","altim":1011,"clouds":[{"cover":"SCT","base":2500}],"obsTime":1778356800},"SBPV":{"icaoId":"SBPV","flightCategory":"VFR","rawOb":"METAR SBPV 092000Z 01004KT 9999 SCT030 32/26 Q1008","temp":32,"dewp":26,"wdir":10,"wspd":4,"visib":"6+","altim":1008,"clouds":[{"cover":"SCT","base":3000}],"obsTime":1778356800},"SBRB":{"icaoId":"SBRB","flightCategory":"VFR","rawOb":"METAR SBRB 092000Z 32005KT 9999 SCT030 BKN100 30/25 Q1009","temp":30,"dewp":25,"wdir":320,"wspd":5,"visib":"6+","altim":1009,"clouds":[{"cover":"SCT","base":3000},{"cover":"BKN","base":10000}],"obsTime":1778356800},"SBRF":{"icaoId":"SBRF","flightCategory":"VFR","rawOb":"METAR SBRF 092000Z 13008KT 9999 SCT020 FEW025TCU 28/24 Q1011","temp":28,"dewp":24,"wdir":130,"wspd":8,"visib":"6+","altim":1011,"clouds":[{"cover":"SCT","base":2000},{"cover":"FEW","base":2500}],"obsTime":1778356800},"SBSG":{"icaoId":"SBSG","flightCategory":"VFR","rawOb":"METAR SBSG 092000Z 12007KT 9999 SCT026 FEW030TCU 28/23 Q1011","temp":28,"dewp":23,"wdir":120,"wspd":7,"visib":"6+","altim":1011,"clouds":[{"cover":"SCT","base":2600},{"cover":"FEW","base":3000}],"obsTime":1778356800},"SBSL":{"icaoId":"SBSL","flightCategory":"MVFR","rawOb":"METAR SBSL 092000Z 05004KT 9999 -TSRA FEW006 BKN015 FEW020CB 24/23 Q1011 RERA","temp":24,"dewp":23,"wdir":50,"wspd":4,"visib":"6+","altim":1011,"clouds":[{"cover":"FEW","base":600},{"cover":"BKN","base":1500},{"cover":"FEW","base":2000}],"obsTime":1778356800},"SBSN":{"icaoId":"SBSN","flightCategory":"VFR","rawOb":"METAR SBSN 092000Z 07009KT 9999 FEW023 31/24 Q1009","temp":31,"dewp":24,"wdir":70,"wspd":9,"visib":"6+","altim":1009,"clouds":[{"cover":"FEW","base":2300}],"obsTime":1778356800},"SBSP":{"icaoId":"SBSP","flightCategory":"VFR","rawOb":"METAR SBSP 092000Z 34007KT CAVOK 27/15 Q1017","temp":27,"dewp":15,"wdir":340,"wspd":7,"visib":"6+","altim":1017,"clouds":[],"obsTime":1778356800},"SBSV":{"icaoId":"SBSV","flightCategory":"VFR","rawOb":"METAR SBSV 092000Z 12010KT 9999 FEW025 28/22 Q1015","temp":28,"dewp":22,"wdir":120,"wspd":10,"visib":"6+","altim":1015,"clouds":[{"cover":"FEW","base":2500}],"obsTime":1778356800},"SBTE":{"icaoId":"SBTE","flightCategory":"VFR","rawOb":"METAR SBTE 092000Z 13006KT 9999 FEW020 32/22 Q1009","temp":32,"dewp":22,"wdir":130,"wspd":6,"visib":"6+","altim":1009,"clouds":[{"cover":"FEW","base":2000}],"obsTime":1778356800},"SBUL":{"icaoId":"SBUL","flightCategory":"VFR","rawOb":"METAR SBUL 092000Z 07009KT 9999 FEW045 27/16 Q1018","temp":27,"dewp":16,"wdir":70,"wspd":9,"visib":"6+","altim":1018,"clouds":[{"cover":"FEW","base":4500}],"obsTime":1778356800},"SBUR":{"icaoId":"SBUR","flightCategory":"VFR","rawOb":"METAR SBUR 092000Z 33011KT CAVOK 29/14 Q1016","temp":29,"dewp":14,"wdir":330,"wspd":11,"visib":"6+","altim":1016,"clouds":[],"obsTime":1778356800},"SBVT":{"icaoId":"SBVT","flightCategory":"VFR","rawOb":"METAR SBVT 092000Z 05012KT 9999 FEW030 27/22 Q1016","temp":27,"dewp":22,"wdir":50,"wspd":12,"visib":"6+","altim":1016,"clouds":[{"cover":"FEW","base":3000}],"obsTime":1778356800},"SBCO":{"icaoId":"SBCO","flightCategory":"VFR","rawOb":"METAR SBCO 092000Z 30010KT CAVOK 17/06 Q1016","temp":17,"dewp":6,"wdir":300,"wspd":10,"visib":"6+","altim":1016,"clouds":[],"obsTime":1778356800},"SBAR":{"icaoId":"SBAR","flightCategory":"VFR","rawOb":"METAR SBAR 092000Z 14013KT 9999 BKN048 28/22 Q1013","temp":28,"dewp":22,"wdir":140,"wspd":13,"visib":"6+","altim":1013,"clouds":[{"cover":"BKN","base":4800}],"obsTime":1778356800},"SBBH":{"icaoId":"SBBH","flightCategory":"VFR","rawOb":"METAR SBBH 092000Z 05005KT 9999 SCT049 27/14 Q1019","temp":27,"dewp":14,"wdir":50,"wspd":5,"visib":"6+","altim":1019,"clouds":[{"cover":"SCT","base":4900}],"obsTime":1778356800},"SBBU":{"icaoId":"SBBU","flightCategory":"VFR","rawOb":"METAR SBBU 092000Z 34006KT 9999 SCT040 BKN100 30/16 Q1013","temp":30,"dewp":16,"wdir":340,"wspd":6,"visib":"6+","altim":1013,"clouds":[{"cover":"SCT","base":4000},{"cover":"BKN","base":10000}],"obsTime":1778356800},"SBCA":{"icaoId":"SBCA","flightCategory":"VFR","rawOb":"METAR SBCA 092000Z 17012KT 9999 FEW005 OVC070 08/07 Q1020","temp":8,"dewp":7,"wdir":170,"wspd":12,"visib":"6+","altim":1020,"clouds":[{"cover":"FEW","base":500},{"cover":"OVC","base":7000}],"obsTime":1778356800},"SBCJ":{"icaoId":"SBCJ","flightCategory":"VFR","rawOb":"METAR SBCJ 092000Z 13005KT 9999 FEW030 29/21 Q1014","temp":29,"dewp":21,"wdir":130,"wspd":5,"visib":"6+","altim":1014,"clouds":[{"cover":"FEW","base":3000}],"obsTime":1778356800},"SBDN":{"icaoId":"SBDN","flightCategory":"IFR","rawOb":"METAR SBDN 092000Z 22011KT 9999 BKN007 BKN017 FEW050TCU 16/15 Q1014","temp":16,"dewp":15,"wdir":220,"wspd":11,"visib":"6+","altim":1014,"clouds":[{"cover":"BKN","base":700},{"cover":"BKN","base":1700},{"cover":"FEW","base":5000}],"obsTime":1778356800},"SBES":{"icaoId":"SBES","flightCategory":"VFR","rawOb":"METAR SBES 092000Z 06013KT 020V080 CAVOK 26/// Q1013","temp":null,"dewp":null,"wdir":60,"wspd":13,"visib":"6+","altim":1013,"clouds":[],"obsTime":1778356800},"SBIP":{"icaoId":"SBIP","flightCategory":"VFR","rawOb":"METAR SBIP 092000Z AUTO 01003KT 320V050 CAVOK 28/20 Q1016","temp":28,"dewp":20,"wdir":10,"wspd":3,"visib":"6+","altim":1016,"clouds":[],"obsTime":1778356800},"SBKG":{"icaoId":"SBKG","flightCategory":"VFR","rawOb":"METAR SBKG 092000Z 09010KT 9999 SCT023 FEW025TCU 25/23 Q1014","temp":25,"dewp":23,"wdir":90,"wspd":10,"visib":"6+","altim":1014,"clouds":[{"cover":"SCT","base":2300},{"cover":"FEW","base":2500}],"obsTime":1778356800},"SBOI":{"icaoId":"SBOI","flightCategory":"VFR","rawOb":"METAR SBOI 092000Z AUTO 34003KT 320V030 CAVOK 27/26 Q1010","temp":27,"dewp":26,"wdir":340,"wspd":3,"visib":"6+","altim":1010,"clouds":[],"obsTime":1778356800},"SBPB":{"icaoId":"SBPB","flightCategory":"VFR","rawOb":"METAR SBPB 092000Z 09006KT 9999 FEW020 BKN100 29/23 Q1010","temp":29,"dewp":23,"wdir":90,"wspd":6,"visib":"6+","altim":1010,"clouds":[{"cover":"FEW","base":2000},{"cover":"BKN","base":10000}],"obsTime":1778356800},"SBPL":{"icaoId":"SBPL","flightCategory":"MVFR","rawOb":"METAR SBPL 092000Z 10008KT 9999 BKN020 BKN070 31/20 Q1013","temp":31,"dewp":20,"wdir":100,"wspd":8,"visib":"6+","altim":1013,"clouds":[{"cover":"BKN","base":2000},{"cover":"BKN","base":7000}],"obsTime":1778356800},"SBPP":{"icaoId":"SBPP","flightCategory":"MVFR","rawOb":"METAR SBPP 092000Z 19007KT 9999 -RA BKN010 OVC070 08/05 Q1020","temp":8,"dewp":5,"wdir":190,"wspd":7,"visib":"6+","altim":1020,"clouds":[{"cover":"BKN","base":1000},{"cover":"OVC","base":7000}],"obsTime":1778356800},"SBPS":{"icaoId":"SBPS","flightCategory":"VFR","rawOb":"METAR SBPS 092000Z 09007KT 9999 FEW025 27/21 Q1017","temp":27,"dewp":21,"wdir":90,"wspd":7,"visib":"6+","altim":1017,"clouds":[{"cover":"FEW","base":2500}],"obsTime":1778356800},"SBSC":{"icaoId":"SBSC","flightCategory":"VFR","rawOb":"METAR SBSC 092000Z 02003KT 9999 FEW040 30/21 Q1012","temp":30,"dewp":21,"wdir":20,"wspd":3,"visib":"6+","altim":1012,"clouds":[{"cover":"FEW","base":4000}],"obsTime":1778356800},"SBSJ":{"icaoId":"SBSJ","flightCategory":"VFR","rawOb":"METAR SBSJ 092000Z 02003KT 310V070 9999 FEW045 SCT060 27/16 Q1016","temp":27,"dewp":16,"wdir":20,"wspd":3,"visib":"6+","altim":1016,"clouds":[{"cover":"FEW","base":4500},{"cover":"SCT","base":6000}],"obsTime":1778356800},"SBSM":{"icaoId":"SBSM","flightCategory":"VFR","rawOb":"METAR SBSM 092000Z 27010KT 240V300 9999 FEW045 15/05 Q1018","temp":15,"dewp":5,"wdir":270,"wspd":10,"visib":"6+","altim":1018,"clouds":[{"cover":"FEW","base":4500}],"obsTime":1778356800},"SBSR":{"icaoId":"SBSR","flightCategory":"VFR","rawOb":"METAR SBSR 092000Z 36007KT 330V040 9999 FEW035 SCT100 31/14 Q1013","temp":31,"dewp":14,"wdir":360,"wspd":7,"visib":"6+","altim":1013,"clouds":[{"cover":"FEW","base":3500},{"cover":"SCT","base":10000}],"obsTime":1778356800},"SBTF":{"icaoId":"SBTF","flightCategory":"VFR","rawOb":"METAR SBTF 092000Z 13012KT 9999 SCT018 32/26 Q1007","temp":32,"dewp":26,"wdir":130,"wspd":12,"visib":"6+","altim":1007,"clouds":[{"cover":"SCT","base":1800}],"obsTime":1778356800},"SBTT":{"icaoId":"SBTT","flightCategory":"VFR","rawOb":"METAR SBTT 092000Z 09007KT 9999 SCT033 31/21 Q1007","temp":31,"dewp":21,"wdir":90,"wspd":7,"visib":"6+","altim":1007,"clouds":[{"cover":"SCT","base":3300}],"obsTime":1778356800},"SBTU":{"icaoId":"SBTU","flightCategory":"VFR","rawOb":"METAR SBTU 092000Z AUTO 34009G24KT 310V010 9999 // ///////// ///// Q1012","temp":null,"dewp":null,"wdir":340,"wspd":9,"visib":"6+","altim":1012,"clouds":[],"obsTime":1778356800},"SBUY":{"icaoId":"SBUY","flightCategory":"VFR","rawOb":"METAR SBUY 092000Z 10002KT 9999 SCT040 30/24 Q1007","temp":30,"dewp":24,"wdir":100,"wspd":2,"visib":"6+","altim":1007,"clouds":[{"cover":"SCT","base":4000}],"obsTime":1778356800},"SBVH":{"icaoId":"SBVH","flightCategory":"VFR","rawOb":"METAR SBVH 092000Z 33005KT 9999 SCT035 BKN088 28/22 Q1012","temp":28,"dewp":22,"wdir":330,"wspd":5,"visib":"6+","altim":1012,"clouds":[{"cover":"SCT","base":3500},{"cover":"BKN","base":8800}],"obsTime":1778356800},"SBCC":{"icaoId":"SBCC","flightCategory":"VFR","rawOb":"METAR SBCC 092000Z 04010KT 330V070 9999 SCT040 32/19 Q1011","temp":32,"dewp":19,"wdir":40,"wspd":10,"visib":"6+","altim":1011,"clouds":[{"cover":"SCT","base":4000}],"obsTime":1778356800},"SBST":{"icaoId":"SBST","flightCategory":"MVFR","rawOb":"METAR SBST 092000Z 17005KT 9000 OVC017 24/22 Q1013","temp":24,"dewp":22,"wdir":170,"wspd":5,"visib":5.59,"altim":1013,"clouds":[{"cover":"OVC","base":1700}],"obsTime":1778356800},"SBJP":{"icaoId":"SBJP","flightCategory":"VFR","rawOb":"METAR SBJP 092000Z 09007KT 020V120 9999 FEW020 28/23 Q1011","temp":28,"dewp":23,"wdir":90,"wspd":7,"visib":"6+","altim":1011,"clouds":[{"cover":"FEW","base":2000}],"obsTime":1778356800},"SBTA":{"icaoId":"SBTA","flightCategory":"VFR","rawOb":"METAR SBTA 092000Z 08004KT 9999 FEW045 26/16 Q1015","temp":26,"dewp":16,"wdir":80,"wspd":4,"visib":"6+","altim":1015,"clouds":[{"cover":"FEW","base":4500}],"obsTime":1778356800},"SBIH":{"icaoId":"SBIH","flightCategory":"VFR","rawOb":"METAR SBIH 092000Z 06005KT 9999 SCT020 FEW025TCU 33/24 Q1008","temp":33,"dewp":24,"wdir":60,"wspd":5,"visib":"6+","altim":1008,"clouds":[{"cover":"SCT","base":2000},{"cover":"FEW","base":2500}],"obsTime":1778356800},"SBJV":{"icaoId":"SBJV","flightCategory":"IFR","rawOb":"METAR SBJV 092000Z 17005KT 3000 RA BKN008 BKN030 13/13 Q1018","temp":13,"dewp":13,"wdir":170,"wspd":5,"visib":1.86,"altim":1018,"clouds":[{"cover":"BKN","base":800},{"cover":"BKN","base":3000}],"obsTime":1778356800},"SBNM":{"icaoId":"SBNM","flightCategory":"VFR","rawOb":"METAR SBNM 092000Z AUTO 27008KT CAVOK 15/05 Q1019","temp":15,"dewp":5,"wdir":270,"wspd":8,"visib":"6+","altim":1019,"clouds":[],"obsTime":1778356800},"SBAF":{"icaoId":"SBAF","flightCategory":"VFR","rawOb":"METAR SBAF 092000Z 06005KT CAVOK 33/18 Q1012","temp":33,"dewp":18,"wdir":60,"wspd":5,"visib":"6+","altim":1012,"clouds":[],"obsTime":1778356800},"SBAN":{"icaoId":"SBAN","flightCategory":"VFR","rawOb":"METAR SBAN 092000Z 06003KT 9999 FEW045 27/14 Q1019","temp":27,"dewp":14,"wdir":60,"wspd":3,"visib":"6+","altim":1019,"clouds":[{"cover":"FEW","base":4500}],"obsTime":1778356800},"SBGW":{"icaoId":"SBGW","flightCategory":"VFR","rawOb":"METAR SBGW 092000Z 11004KT 010V150 9999 FEW035 BKN100 28/14 Q1015","temp":28,"dewp":14,"wdir":110,"wspd":4,"visib":"6+","altim":1015,"clouds":[{"cover":"FEW","base":3500},{"cover":"BKN","base":10000}],"obsTime":1778356800},"SBLE":{"icaoId":"SBLE","flightCategory":"VFR","rawOb":"METAR SBLE 092000Z AUTO VRB01KT CAVOK 27/20 Q1016","temp":27,"dewp":20,"wdir":"VRB","wspd":1,"visib":"6+","altim":1016,"clouds":[],"obsTime":1778356800},"SBJR":{"icaoId":"SBJR","flightCategory":"VFR","rawOb":"METAR SBJR 092000Z 32001KT 9999 FEW025 28/22 Q1012","temp":28,"dewp":22,"wdir":320,"wspd":1,"visib":"6+","altim":1012,"clouds":[{"cover":"FEW","base":2500}],"obsTime":1778356800},"SBLS":{"icaoId":"SBLS","flightCategory":"VFR","rawOb":"METAR SBLS 092000Z VRB02KT 9999 SCT048 26/15 Q1019","temp":26,"dewp":15,"wdir":"VRB","wspd":2,"visib":"6+","altim":1019,"clouds":[{"cover":"SCT","base":4800}],"obsTime":1778356800},"SBMT":{"icaoId":"SBMT","flightCategory":"VFR","rawOb":"METAR SBMT 092000Z 32005KT 9999 FEW023 27/15 Q1016","temp":27,"dewp":15,"wdir":320,"wspd":5,"visib":"6+","altim":1016,"clouds":[{"cover":"FEW","base":2300}],"obsTime":1778356800},"SBTC":{"icaoId":"SBTC","flightCategory":"VFR","rawOb":"METAR SBTC 092000Z 13004KT 9999 FEW025 28/22 Q1016","temp":28,"dewp":22,"wdir":130,"wspd":4,"visib":"6+","altim":1016,"clouds":[{"cover":"FEW","base":2500}],"obsTime":1778356800}}}