{"updated":1774438354,"count":82,"data":{"SBRB":{"icaoId":"SBRB","flightCategory":"MVFR","rawOb":"METAR SBRB 251000Z 00000KT 6000 FEW004 BKN100 23/23 Q1009","temp":23,"dewp":23,"wdir":0,"wspd":0,"visib":3.73,"altim":1009,"clouds":[{"cover":"FEW","base":400},{"cover":"BKN","base":10000}],"obsTime":1774432800},"SBVT":{"icaoId":"SBVT","flightCategory":"VFR","rawOb":"METAR SBVT 251000Z 00000KT 9999 VCTS FEW030 FEW040CB SCT050 BKN100 22/22 Q1016","temp":22,"dewp":22,"wdir":0,"wspd":0,"visib":"6+","altim":1016,"clouds":[{"cover":"FEW","base":3000},{"cover":"FEW","base":4000},{"cover":"SCT","base":5000},{"cover":"BKN","base":10000}],"obsTime":1774432800},"SBBR":{"icaoId":"SBBR","flightCategory":"MVFR","rawOb":"METAR SBBR 251000Z VRB02KT 5000 -RA SCT005 BKN040 OVC090 19/18 Q1019 RETSRA","temp":19,"dewp":18,"wdir":"VRB","wspd":2,"visib":3.11,"altim":1019,"clouds":[{"cover":"SCT","base":500},{"cover":"BKN","base":4000},{"cover":"OVC","base":9000}],"obsTime":1774432800},"SBBE":{"icaoId":"SBBE","flightCategory":"MVFR","rawOb":"METAR SBBE 251000Z 05007KT 9999 SCT010 BKN020 OVC040 25/24 Q1012","temp":25,"dewp":24,"wdir":50,"wspd":7,"visib":"6+","altim":1012,"clouds":[{"cover":"SCT","base":1000},{"cover":"BKN","base":2000},{"cover":"OVC","base":4000}],"obsTime":1774432800},"SBBV":{"icaoId":"SBBV","flightCategory":"VFR","rawOb":"METAR SBBV 251000Z 10013KT CAVOK 26/22 Q1010","temp":26,"dewp":22,"wdir":100,"wspd":13,"visib":"6+","altim":1010,"clouds":[],"obsTime":1774432800},"SBCB":{"icaoId":"SBCB","flightCategory":"VFR","rawOb":"METAR SBCB 251000Z 07010KT CAVOK 25/23 Q1014","temp":25,"dewp":23,"wdir":70,"wspd":10,"visib":"6+","altim":1014,"clouds":[],"obsTime":1774432800},"SBCF":{"icaoId":"SBCF","flightCategory":"VFR","rawOb":"METAR SBCF 251000Z 15003KT 9999 FEW020 SCT100 20/19 Q1019","temp":20,"dewp":19,"wdir":150,"wspd":3,"visib":"6+","altim":1019,"clouds":[{"cover":"FEW","base":2000},{"cover":"SCT","base":10000}],"obsTime":1774432800},"SBCG":{"icaoId":"SBCG","flightCategory":"VFR","rawOb":"METAR SBCG 251000Z 05003KT 9999 FEW004 BKN100 23/22 Q1013","temp":23,"dewp":22,"wdir":50,"wspd":3,"visib":"6+","altim":1013,"clouds":[{"cover":"FEW","base":400},{"cover":"BKN","base":10000}],"obsTime":1774432800},"SBCP":{"icaoId":"SBCP","flightCategory":"VFR","rawOb":"METAR SBCP 251000Z 06004KT 9999 FEW020 24/22 Q1015","temp":24,"dewp":22,"wdir":60,"wspd":4,"visib":"6+","altim":1015,"clouds":[{"cover":"FEW","base":2000}],"obsTime":1774432800},"SBCR":{"icaoId":"SBCR","flightCategory":"LIFR","rawOb":"METAR SBCR 251100Z 34003KT 0600 FG BKN002 OVC005 23/23 Q1012","temp":23,"dewp":23,"wdir":340,"wspd":3,"visib":0.37,"altim":1012,"clouds":[{"cover":"BKN","base":200},{"cover":"OVC","base":500}],"obsTime":1774436400},"SBCT":{"icaoId":"SBCT","flightCategory":"VFR","rawOb":"METAR SBCT 251000Z 13005KT CAVOK 16/15 Q1018","temp":16,"dewp":15,"wdir":130,"wspd":5,"visib":"6+","altim":1018,"clouds":[],"obsTime":1774432800},"SBEG":{"icaoId":"SBEG","flightCategory":"VFR","rawOb":"METAR SBEG 251000Z 13002KT 9999 FEW005 SCT100 26/25 Q1008","temp":26,"dewp":25,"wdir":130,"wspd":2,"visib":"6+","altim":1008,"clouds":[{"cover":"FEW","base":500},{"cover":"SCT","base":10000}],"obsTime":1774432800},"SBFI":{"icaoId":"SBFI","flightCategory":"VFR","rawOb":"METAR SBFI 251000Z 06002KT CAVOK 23/23 Q1012","temp":23,"dewp":23,"wdir":60,"wspd":2,"visib":"6+","altim":1012,"clouds":[],"obsTime":1774432800},"SBFL":{"icaoId":"SBFL","flightCategory":"VFR","rawOb":"METAR SBFL 251000Z 10008KT 9999 SCT012 BKN070 22/22 Q1014","temp":22,"dewp":22,"wdir":100,"wspd":8,"visib":"6+","altim":1014,"clouds":[{"cover":"SCT","base":1200},{"cover":"BKN","base":7000}],"obsTime":1774432800},"SBFZ":{"icaoId":"SBFZ","flightCategory":"VFR","rawOb":"METAR SBFZ 251000Z 18004KT 9999 SCT020 27/24 Q1011","temp":27,"dewp":24,"wdir":180,"wspd":4,"visib":"6+","altim":1011,"clouds":[{"cover":"SCT","base":2000}],"obsTime":1774432800},"SBGL":{"icaoId":"SBGL","flightCategory":"VFR","rawOb":"METAR SBGL 251000Z 12001KT CAVOK 25/23 Q1013","temp":25,"dewp":23,"wdir":120,"wspd":1,"visib":"6+","altim":1013,"clouds":[],"obsTime":1774432800},"SBGO":{"icaoId":"SBGO","flightCategory":"VFR","rawOb":"METAR SBGO 251000Z 13003KT 9999 FEW023 BKN080 20/19 Q1016","temp":20,"dewp":19,"wdir":130,"wspd":3,"visib":"6+","altim":1016,"clouds":[{"cover":"FEW","base":2300},{"cover":"BKN","base":8000}],"obsTime":1774432800},"SBGR":{"icaoId":"SBGR","flightCategory":"VFR","rawOb":"METAR SBGR 251000Z 07003KT CAVOK 20/19 Q1017","temp":20,"dewp":19,"wdir":70,"wspd":3,"visib":"6+","altim":1017,"clouds":[],"obsTime":1774432800},"SBHT":{"icaoId":"SBHT","flightCategory":"VFR","rawOb":"METAR SBHT 251000Z COR 00000KT 9999 SCT011 25/24 Q1011","temp":25,"dewp":24,"wdir":0,"wspd":0,"visib":"6+","altim":1011,"clouds":[{"cover":"SCT","base":1100}],"obsTime":1774432800},"SBIL":{"icaoId":"SBIL","flightCategory":"VFR","rawOb":"METAR SBIL 251000Z COR 30006KT 9999 VCSH SCT020 BKN070 24/23 Q1014","temp":24,"dewp":23,"wdir":300,"wspd":6,"visib":"6+","altim":1014,"clouds":[{"cover":"SCT","base":2000},{"cover":"BKN","base":7000}],"obsTime":1774432800},"SBJU":{"icaoId":"SBJU","flightCategory":"MVFR","rawOb":"METAR SBJU 251000Z 00000KT 9999 BKN018 23/22 Q1014","temp":23,"dewp":22,"wdir":0,"wspd":0,"visib":"6+","altim":1014,"clouds":[{"cover":"BKN","base":1800}],"obsTime":1774432800},"SBKP":{"icaoId":"SBKP","flightCategory":"VFR","rawOb":"METAR SBKP 251000Z 12003KT 9000 NSC 21/19 Q1016","temp":21,"dewp":19,"wdir":120,"wspd":3,"visib":5.59,"altim":1016,"clouds":[],"obsTime":1774432800},"SBLO":{"icaoId":"SBLO","flightCategory":"VFR","rawOb":"METAR SBLO 251000Z 14006KT CAVOK 22/19 Q1015","temp":22,"dewp":19,"wdir":140,"wspd":6,"visib":"6+","altim":1015,"clouds":[],"obsTime":1774432800},"SBMA":{"icaoId":"SBMA","flightCategory":"MVFR","rawOb":"METAR SBMA 251000Z 20004KT 8000 -RA FEW012 BKN080 24/23 Q1012","temp":24,"dewp":23,"wdir":200,"wspd":4,"visib":4.97,"altim":1012,"clouds":[{"cover":"FEW","base":1200},{"cover":"BKN","base":8000}],"obsTime":1774432800},"SBME":{"icaoId":"SBME","flightCategory":"VFR","rawOb":"METAR SBME 251000Z 06006KT CAVOK 25/23 Q1014","temp":25,"dewp":23,"wdir":60,"wspd":6,"visib":"6+","altim":1014,"clouds":[],"obsTime":1774432800},"SBMG":{"icaoId":"SBMG","flightCategory":"VFR","rawOb":"METAR SBMG 251000Z VRB01KT 9999 4000W BCFG FEW002 22/21 Q1014","temp":22,"dewp":21,"wdir":"VRB","wspd":1,"visib":"6+","altim":1014,"clouds":[{"cover":"FEW","base":200}],"obsTime":1774432800},"SBMK":{"icaoId":"SBMK","flightCategory":"VFR","rawOb":"METAR SBMK 251000Z 15002KT 9999 SCT030 BKN070 21/19 Q1017","temp":21,"dewp":19,"wdir":150,"wspd":2,"visib":"6+","altim":1017,"clouds":[{"cover":"SCT","base":3000},{"cover":"BKN","base":7000}],"obsTime":1774432800},"SBMO":{"icaoId":"SBMO","flightCategory":"VFR","rawOb":"METAR SBMO 251000Z 29003KT 9999 FEW025 25/23 Q1013","temp":25,"dewp":23,"wdir":290,"wspd":3,"visib":"6+","altim":1013,"clouds":[{"cover":"FEW","base":2500}],"obsTime":1774432800},"SBMQ":{"icaoId":"SBMQ","flightCategory":"VFR","rawOb":"METAR SBMQ 251000Z 02002KT 9999 FEW015 25/24 Q1011","temp":25,"dewp":24,"wdir":20,"wspd":2,"visib":"6+","altim":1011,"clouds":[{"cover":"FEW","base":1500}],"obsTime":1774432800},"SBNT":{"icaoId":"SBNT","flightCategory":"VFR","rawOb":"METAR SBNT 251000Z 19005KT 160V220 9999 FEW025 26/23 Q1011","temp":26,"dewp":23,"wdir":190,"wspd":5,"visib":"6+","altim":1011,"clouds":[{"cover":"FEW","base":2500}],"obsTime":1774432800},"SBPA":{"icaoId":"SBPA","flightCategory":"IFR","rawOb":"SPECI SBPA 250947Z 12006KT 4000 -RA OVC006 22/21 Q1013","temp":22,"dewp":21,"wdir":120,"wspd":6,"visib":2.49,"altim":1013,"clouds":[{"cover":"OVC","base":600}],"obsTime":1774432020},"SBPJ":{"icaoId":"SBPJ","flightCategory":"VFR","rawOb":"METAR SBPJ 251000Z 08003KT 9999 FEW016 BKN080 23/23 Q1013","temp":23,"dewp":23,"wdir":80,"wspd":3,"visib":"6+","altim":1013,"clouds":[{"cover":"FEW","base":1600},{"cover":"BKN","base":8000}],"obsTime":1774432800},"SBPV":{"icaoId":"SBPV","flightCategory":"VFR","rawOb":"METAR SBPV 251000Z 16004KT CAVOK 24/23 Q1010","temp":24,"dewp":23,"wdir":160,"wspd":4,"visib":"6+","altim":1010,"clouds":[],"obsTime":1774432800},"SBRF":{"icaoId":"SBRF","flightCategory":"VFR","rawOb":"METAR SBRF 251000Z VRB02KT 9999 SCT025 27/23 Q1012","temp":27,"dewp":23,"wdir":"VRB","wspd":2,"visib":"6+","altim":1012,"clouds":[{"cover":"SCT","base":2500}],"obsTime":1774432800},"SBSG":{"icaoId":"SBSG","flightCategory":"VFR","rawOb":"METAR SBSG 251000Z 20004KT 180V240 9999 FEW020 24/23 Q1012","temp":24,"dewp":23,"wdir":200,"wspd":4,"visib":"6+","altim":1012,"clouds":[{"cover":"FEW","base":2000}],"obsTime":1774432800},"SBSL":{"icaoId":"SBSL","flightCategory":"VFR","rawOb":"METAR SBSL 251000Z 12003KT 9999 SCT025 SCT080 27/25 Q1011","temp":27,"dewp":25,"wdir":120,"wspd":3,"visib":"6+","altim":1011,"clouds":[{"cover":"SCT","base":2500},{"cover":"SCT","base":8000}],"obsTime":1774432800},"SBSN":{"icaoId":"SBSN","flightCategory":"VFR","rawOb":"METAR SBSN 251000Z 08011KT 9999 SCT017 27/24 Q1009","temp":27,"dewp":24,"wdir":80,"wspd":11,"visib":"6+","altim":1009,"clouds":[{"cover":"SCT","base":1700}],"obsTime":1774432800},"SBSP":{"icaoId":"SBSP","flightCategory":"VFR","rawOb":"METAR SBSP 251000Z 05004KT 020V090 CAVOK 22/18 Q1018","temp":22,"dewp":18,"wdir":50,"wspd":4,"visib":"6+","altim":1018,"clouds":[],"obsTime":1774432800},"SBSV":{"icaoId":"SBSV","flightCategory":"VFR","rawOb":"METAR SBSV 251000Z 24004KT 9999 SCT023 25/24 Q1013","temp":25,"dewp":24,"wdir":240,"wspd":4,"visib":"6+","altim":1013,"clouds":[{"cover":"SCT","base":2300}],"obsTime":1774432800},"SBTE":{"icaoId":"SBTE","flightCategory":"MVFR","rawOb":"METAR SBTE 251000Z 00000KT 9999 BKN015 25/22 Q1011","temp":25,"dewp":22,"wdir":0,"wspd":0,"visib":"6+","altim":1011,"clouds":[{"cover":"BKN","base":1500}],"obsTime":1774432800},"SBUL":{"icaoId":"SBUL","flightCategory":"VFR","rawOb":"METAR SBUL 251000Z 10004KT 9999 VCSH SCT030 FEW040TCU BKN070 19/18 Q1018","temp":19,"dewp":18,"wdir":100,"wspd":4,"visib":"6+","altim":1018,"clouds":[{"cover":"SCT","base":3000},{"cover":"FEW","base":4000},{"cover":"BKN","base":7000}],"obsTime":1774432800},"SBUR":{"icaoId":"SBUR","flightCategory":"VFR","rawOb":"METAR SBUR 251000Z 03007KT 9999 SCT025 BKN100 21/19 Q1017","temp":21,"dewp":19,"wdir":30,"wspd":7,"visib":"6+","altim":1017,"clouds":[{"cover":"SCT","base":2500},{"cover":"BKN","base":10000}],"obsTime":1774432800},"SBPP":{"icaoId":"SBPP","flightCategory":"VFR","rawOb":"SPECI SBPP 251115Z 04005KT CAVOK 22/20 Q1014","temp":22,"dewp":20,"wdir":40,"wspd":5,"visib":"6+","altim":1014,"clouds":[],"obsTime":1774437300},"SBTF":{"icaoId":"SBTF","flightCategory":"VFR","rawOb":"SPECI SBTF 251115Z 17006KT 9999 FEW005 BKN090 24/24 Q1009","temp":24,"dewp":24,"wdir":170,"wspd":6,"visib":"6+","altim":1009,"clouds":[{"cover":"FEW","base":500},{"cover":"BKN","base":9000}],"obsTime":1774437300},"SBVH":{"icaoId":"SBVH","flightCategory":"IFR","rawOb":"METAR SBVH 251100Z 05007KT 6000 VCFG SCT002 OVC005 22/22 Q1013","temp":22,"dewp":22,"wdir":50,"wspd":7,"visib":3.73,"altim":1013,"clouds":[{"cover":"SCT","base":200},{"cover":"OVC","base":500}],"obsTime":1774436400},"SBAX":{"icaoId":"SBAX","flightCategory":"MVFR","rawOb":"METAR SBAX 251000Z 08004KT 9999 -RA BKN010 BKN018 BKN100 18/17 Q1019","temp":18,"dewp":17,"wdir":80,"wspd":4,"visib":"6+","altim":1019,"clouds":[{"cover":"BKN","base":1000},{"cover":"BKN","base":1800},{"cover":"BKN","base":10000}],"obsTime":1774432800},"SBBU":{"icaoId":"SBBU","flightCategory":"LIFR","rawOb":"METAR SBBU 251000Z COR 09007KT 0900 FG OVC001 20/19 Q1015","temp":20,"dewp":19,"wdir":90,"wspd":7,"visib":0.56,"altim":1015,"clouds":[{"cover":"OVC","base":100}],"obsTime":1774432800},"SBCA":{"icaoId":"SBCA","flightCategory":"VFR","rawOb":"METAR SBCA 251000Z VRB02KT CAVOK 22/20 Q1016","temp":22,"dewp":20,"wdir":"VRB","wspd":2,"visib":"6+","altim":1016,"clouds":[],"obsTime":1774432800},"SBCC":{"icaoId":"SBCC","flightCategory":"VFR","rawOb":"METAR SBCC 251100Z 02006KT CAVOK 23/20 Q1013","temp":23,"dewp":20,"wdir":20,"wspd":6,"visib":"6+","altim":1013,"clouds":[],"obsTime":1774436400},"SBCJ":{"icaoId":"SBCJ","flightCategory":"LIFR","rawOb":"SPECI SBCJ 251015Z 09005KT 0800 -RA FG BKN005 OVC080 21/20 Q1016","temp":21,"dewp":20,"wdir":90,"wspd":5,"visib":0.5,"altim":1016,"clouds":[{"cover":"BKN","base":500},{"cover":"OVC","base":8000}],"obsTime":1774433700},"SBCO":{"icaoId":"SBCO","flightCategory":"IFR","rawOb":"METAR SBCO 251000Z 11005KT 6000 -DZ OVC005 22/21 Q1013","temp":22,"dewp":21,"wdir":110,"wspd":5,"visib":3.73,"altim":1013,"clouds":[{"cover":"OVC","base":500}],"obsTime":1774432800},"SBDN":{"icaoId":"SBDN","flightCategory":"MVFR","rawOb":"METAR SBDN 251000Z 03003KT 9999 FEW013 BKN020 22/21 Q1014","temp":22,"dewp":21,"wdir":30,"wspd":3,"visib":"6+","altim":1014,"clouds":[{"cover":"FEW","base":1300},{"cover":"BKN","base":2000}],"obsTime":1774432800},"SBES":{"icaoId":"SBES","flightCategory":"VFR","rawOb":"METAR SBES 251000Z 04005KT 360V080 9999 FEW010 23/// Q1014","temp":null,"dewp":null,"wdir":40,"wspd":5,"visib":"6+","altim":1014,"clouds":[{"cover":"FEW","base":1000}],"obsTime":1774432800},"SBIP":{"icaoId":"SBIP","flightCategory":"MVFR","rawOb":"METAR SBIP 251000Z AUTO VRB01KT 9999 BKN025 OVC032 22/22 Q1017","temp":22,"dewp":22,"wdir":"VRB","wspd":1,"visib":"6+","altim":1017,"clouds":[{"cover":"BKN","base":2500},{"cover":"OVC","base":3200}],"obsTime":1774432800},"SBKG":{"icaoId":"SBKG","flightCategory":"VFR","rawOb":"METAR SBKG 251000Z 10007KT 9999 SCT015 23/21 Q1014","temp":23,"dewp":21,"wdir":100,"wspd":7,"visib":"6+","altim":1014,"clouds":[{"cover":"SCT","base":1500}],"obsTime":1774432800},"SBPB":{"icaoId":"SBPB","flightCategory":"VFR","rawOb":"SPECI SBPB 251015Z 13004KT 9999 FEW020 27/24 Q1011","temp":27,"dewp":24,"wdir":130,"wspd":4,"visib":"6+","altim":1011,"clouds":[{"cover":"FEW","base":2000}],"obsTime":1774433700},"SBPL":{"icaoId":"SBPL","flightCategory":"VFR","rawOb":"METAR SBPL 251000Z 14005KT 9999 SCT020 BKN070 25/22 Q1014","temp":25,"dewp":22,"wdir":140,"wspd":5,"visib":"6+","altim":1014,"clouds":[{"cover":"SCT","base":2000},{"cover":"BKN","base":7000}],"obsTime":1774432800},"SBPS":{"icaoId":"SBPS","flightCategory":"VFR","rawOb":"METAR SBPS 251000Z 26005KT 9999 FEW020 BKN100 23/23 Q1015","temp":23,"dewp":23,"wdir":260,"wspd":5,"visib":"6+","altim":1015,"clouds":[{"cover":"FEW","base":2000},{"cover":"BKN","base":10000}],"obsTime":1774432800},"SBSC":{"icaoId":"SBSC","flightCategory":"VFR","rawOb":"METAR SBSC 251000Z 36003KT CAVOK 25/21 Q1013","temp":25,"dewp":21,"wdir":360,"wspd":3,"visib":"6+","altim":1013,"clouds":[],"obsTime":1774432800},"SBSJ":{"icaoId":"SBSJ","flightCategory":"VFR","rawOb":"METAR SBSJ 251000Z 02004KT 340V060 CAVOK 21/19 Q1017","temp":21,"dewp":19,"wdir":20,"wspd":4,"visib":"6+","altim":1017,"clouds":[],"obsTime":1774432800},"SBSM":{"icaoId":"SBSM","flightCategory":"VFR","rawOb":"METAR SBSM 251000Z COR 12006KT 9999 -RA SCT005 BKN070 OVC100 19/19 Q1013 RERA","temp":19,"dewp":19,"wdir":120,"wspd":6,"visib":"6+","altim":1013,"clouds":[{"cover":"SCT","base":500},{"cover":"BKN","base":7000},{"cover":"OVC","base":10000}],"obsTime":1774432800},"SBSR":{"icaoId":"SBSR","flightCategory":"MVFR","rawOb":"METAR SBSR 251000Z 05002KT 8000 FEW007 SCT025 21/20 Q1015","temp":21,"dewp":20,"wdir":50,"wspd":2,"visib":4.97,"altim":1015,"clouds":[{"cover":"FEW","base":700},{"cover":"SCT","base":2500}],"obsTime":1774432800},"SBTD":{"icaoId":"SBTD","flightCategory":"VFR","rawOb":"METAR SBTD 251100Z /////KT CAVOK 23/19 Q1015","temp":23,"dewp":19,"wdir":null,"wspd":null,"visib":"6+","altim":1015,"clouds":[],"obsTime":1774436400},"SBTT":{"icaoId":"SBTT","flightCategory":"VFR","rawOb":"METAR SBTT 251100Z VRB02KT 9999 FEW005 24/23 Q1009","temp":24,"dewp":23,"wdir":"VRB","wspd":2,"visib":"6+","altim":1009,"clouds":[{"cover":"FEW","base":500}],"obsTime":1774436400},"SBUY":{"icaoId":"SBUY","flightCategory":"IFR","rawOb":"METAR SBUY 251100Z 14002KT 2000 BR SCT004 BKN070 23/23 Q1009","temp":23,"dewp":23,"wdir":140,"wspd":2,"visib":1.24,"altim":1009,"clouds":[{"cover":"SCT","base":400},{"cover":"BKN","base":7000}],"obsTime":1774436400},"SBAR":{"icaoId":"SBAR","flightCategory":"VFR","rawOb":"METAR SBAR 251000Z 10005KT 9999 SCT023 27/24 Q1012","temp":27,"dewp":24,"wdir":100,"wspd":5,"visib":"6+","altim":1012,"clouds":[{"cover":"SCT","base":2300}],"obsTime":1774432800},"SBBH":{"icaoId":"SBBH","flightCategory":"MVFR","rawOb":"METAR SBBH 251000Z 08004KT 9999 BKN020 21/19 Q1019","temp":21,"dewp":19,"wdir":80,"wspd":4,"visib":"6+","altim":1019,"clouds":[{"cover":"BKN","base":2000}],"obsTime":1774432800},"SBBQ":{"icaoId":"SBBQ","flightCategory":"VFR","rawOb":"METAR SBBQ 251100Z 04004KT CAVOK 20/17 Q1022","temp":20,"dewp":17,"wdir":40,"wspd":4,"visib":"6+","altim":1022,"clouds":[],"obsTime":1774436400},"SBOI":{"icaoId":"SBOI","flightCategory":"MVFR","rawOb":"METAR SBOI 251000Z AUTO 00000KT 5000 // VV009 22/22 Q1011","temp":22,"dewp":22,"wdir":0,"wspd":0,"visib":3.11,"altim":1011,"clouds":[{"cover":"OVX","base":900}],"obsTime":1774432800},"SBTA":{"icaoId":"SBTA","flightCategory":"VFR","rawOb":"METAR SBTA 251000Z VRB02KT CAVOK 19/19 Q1016","temp":19,"dewp":19,"wdir":"VRB","wspd":2,"visib":"6+","altim":1016,"clouds":[],"obsTime":1774432800},"SBIH":{"icaoId":"SBIH","flightCategory":"VFR","rawOb":"METAR SBIH 251100Z 08004KT CAVOK 26/24 Q1009","temp":26,"dewp":24,"wdir":80,"wspd":4,"visib":"6+","altim":1009,"clouds":[],"obsTime":1774436400},"SBJV":{"icaoId":"SBJV","flightCategory":"VFR","rawOb":"METAR SBJV 251000Z 00000KT 9999 FEW010 22/22 Q1014","temp":22,"dewp":22,"wdir":0,"wspd":0,"visib":"6+","altim":1014,"clouds":[{"cover":"FEW","base":1000}],"obsTime":1774432800},"SBPF":{"icaoId":"SBPF","flightCategory":"VFR","rawOb":"METAR SBPF 251000Z 05007KT CAVOK 20/19 Q1016","temp":20,"dewp":19,"wdir":50,"wspd":7,"visib":"6+","altim":1016,"clouds":[],"obsTime":1774432800},"SBLE":{"icaoId":"SBLE","flightCategory":"VFR","rawOb":"METAR SBLE 251000Z AUTO 11003KT 080V160 9999 SCT024 BKN031 OVC044 ///// Q////","temp":null,"dewp":null,"wdir":110,"wspd":3,"visib":"6+","altim":null,"clouds":[{"cover":"SCT","base":2400},{"cover":"BKN","base":3100},{"cover":"OVC","base":4400}],"obsTime":1774432800},"SBAF":{"icaoId":"SBAF","flightCategory":"VFR","rawOb":"METAR SBAF 251000Z 22001KT CAVOK 24/24 Q1014","temp":24,"dewp":24,"wdir":220,"wspd":1,"visib":"6+","altim":1014,"clouds":[],"obsTime":1774432800},"SBGW":{"icaoId":"SBGW","flightCategory":"VFR","rawOb":"METAR SBGW 251000Z 11004KT 060V190 CAVOK 22/16 Q1016","temp":22,"dewp":16,"wdir":110,"wspd":4,"visib":"6+","altim":1016,"clouds":[],"obsTime":1774432800},"SBLS":{"icaoId":"SBLS","flightCategory":"VFR","rawOb":"METAR SBLS 251000Z 15007KT 9999 SCT020 SCT100 20/19 Q1018","temp":20,"dewp":19,"wdir":150,"wspd":7,"visib":"6+","altim":1018,"clouds":[{"cover":"SCT","base":2000},{"cover":"SCT","base":10000}],"obsTime":1774432800},"SBJR":{"icaoId":"SBJR","flightCategory":"VFR","rawOb":"METAR SBJR 251000Z 35003KT CAVOK 26/23 Q1013","temp":26,"dewp":23,"wdir":350,"wspd":3,"visib":"6+","altim":1013,"clouds":[],"obsTime":1774432800},"SBMT":{"icaoId":"SBMT","flightCategory":"VFR","rawOb":"METAR SBMT 251000Z 09003KT 050V110 CAVOK 21/19 Q1017","temp":21,"dewp":19,"wdir":90,"wspd":3,"visib":"6+","altim":1017,"clouds":[],"obsTime":1774432800},"SBST":{"icaoId":"SBST","flightCategory":"MVFR","rawOb":"METAR SBST 251100Z 06001KT 6000 NSC 24/21 Q1014","temp":24,"dewp":21,"wdir":60,"wspd":1,"visib":3.73,"altim":1014,"clouds":[],"obsTime":1774436400},"SBJP":{"icaoId":"SBJP","flightCategory":"VFR","rawOb":"METAR SBJP 251000Z 21004KT 9999 FEW025 26/23 Q1012","temp":26,"dewp":23,"wdir":210,"wspd":4,"visib":"6+","altim":1012,"clouds":[{"cover":"FEW","base":2500}],"obsTime":1774432800},"SBAN":{"icaoId":"SBAN","flightCategory":"LIFR","rawOb":"METAR SBAN 251000Z 10008KT 0100 R24R/0450 R06L/P2000 FG BKN002 18/17 Q1019","temp":18,"dewp":17,"wdir":100,"wspd":8,"visib":0.06,"altim":1019,"clouds":[{"cover":"BKN","base":200}],"obsTime":1774432800}}}