{"updated":1783727048,"count":76,"data":{"SBCF":{"icaoId":"SBCF","flightCategory":"VFR","rawOb":"METAR SBCF 102200Z 35005KT CAVOK 23/08 Q1018","temp":23,"dewp":8,"wdir":350,"wspd":5,"visib":"6+","altim":1018,"clouds":[],"obsTime":1783720800},"SBIL":{"icaoId":"SBIL","flightCategory":"VFR","rawOb":"METAR SBIL 102200Z 09004KT CAVOK 25/21 Q1016","temp":25,"dewp":21,"wdir":90,"wspd":4,"visib":"6+","altim":1016,"clouds":[],"obsTime":1783720800},"SBJU":{"icaoId":"SBJU","flightCategory":"VFR","rawOb":"METAR SBJU 102200Z 00000KT 9999 SCT022 27/16 Q1015","temp":27,"dewp":16,"wdir":0,"wspd":0,"visib":"6+","altim":1015,"clouds":[{"cover":"SCT","base":2200}],"obsTime":1783720800},"SBME":{"icaoId":"SBME","flightCategory":"VFR","rawOb":"METAR SBME 102200Z 31001KT CAVOK 20/19 Q1013","temp":20,"dewp":19,"wdir":310,"wspd":1,"visib":"6+","altim":1013,"clouds":[],"obsTime":1783720800},"SBMK":{"icaoId":"SBMK","flightCategory":"VFR","rawOb":"METAR SBMK 102200Z 14003KT CAVOK 24/13 Q1017","temp":24,"dewp":13,"wdir":140,"wspd":3,"visib":"6+","altim":1017,"clouds":[],"obsTime":1783720800},"SBUL":{"icaoId":"SBUL","flightCategory":"VFR","rawOb":"METAR SBUL 102200Z 35003KT CAVOK 24/09 Q1019","temp":24,"dewp":9,"wdir":350,"wspd":3,"visib":"6+","altim":1019,"clouds":[],"obsTime":1783720800},"SBUR":{"icaoId":"SBUR","flightCategory":"VFR","rawOb":"METAR SBUR 102200Z 24001KT CAVOK 24/06 Q1017","temp":24,"dewp":6,"wdir":240,"wspd":1,"visib":"6+","altim":1017,"clouds":[],"obsTime":1783720800},"SBMG":{"icaoId":"SBMG","flightCategory":"VFR","rawOb":"METAR SBMG 102200Z 03007KT CAVOK 23/15 Q1014","temp":23,"dewp":15,"wdir":30,"wspd":7,"visib":"6+","altim":1014,"clouds":[],"obsTime":1783720800},"SBBE":{"icaoId":"SBBE","flightCategory":"VFR","rawOb":"METAR SBBE 102200Z 07006KT CAVOK 27/23 Q1012","temp":27,"dewp":23,"wdir":70,"wspd":6,"visib":"6+","altim":1012,"clouds":[],"obsTime":1783720800},"SBSV":{"icaoId":"SBSV","flightCategory":"VFR","rawOb":"METAR SBSV 102200Z 15005KT 9999 SCT024 BKN080 25/22 Q1016","temp":25,"dewp":22,"wdir":150,"wspd":5,"visib":"6+","altim":1016,"clouds":[{"cover":"SCT","base":2400},{"cover":"BKN","base":8000}],"obsTime":1783720800},"SBBR":{"icaoId":"SBBR","flightCategory":"VFR","rawOb":"METAR SBBR 102200Z 16005KT 130V200 9999 FEW035 SCT070 24/11 Q1019","temp":24,"dewp":11,"wdir":160,"wspd":5,"visib":"6+","altim":1019,"clouds":[{"cover":"FEW","base":3500},{"cover":"SCT","base":7000}],"obsTime":1783720800},"SBEG":{"icaoId":"SBEG","flightCategory":"VFR","rawOb":"METAR SBEG 102200Z 06003KT 9999 FEW030 28/23 Q1008","temp":28,"dewp":23,"wdir":60,"wspd":3,"visib":"6+","altim":1008,"clouds":[{"cover":"FEW","base":3000}],"obsTime":1783720800},"SBFZ":{"icaoId":"SBFZ","flightCategory":"VFR","rawOb":"METAR SBFZ 102200Z 09008KT CAVOK 27/24 Q1013","temp":27,"dewp":24,"wdir":90,"wspd":8,"visib":"6+","altim":1013,"clouds":[],"obsTime":1783720800},"SBBV":{"icaoId":"SBBV","flightCategory":"VFR","rawOb":"METAR SBBV 102200Z 12009KT 9999 FEW035 FEW040TCU SCT080 29/23 Q1010","temp":29,"dewp":23,"wdir":120,"wspd":9,"visib":"6+","altim":1010,"clouds":[{"cover":"FEW","base":3500},{"cover":"FEW","base":4000},{"cover":"SCT","base":8000}],"obsTime":1783720800},"SBSL":{"icaoId":"SBSL","flightCategory":"VFR","rawOb":"METAR SBSL 102200Z 05011KT CAVOK 28/23 Q1012","temp":28,"dewp":23,"wdir":50,"wspd":11,"visib":"6+","altim":1012,"clouds":[],"obsTime":1783720800},"SBMO":{"icaoId":"SBMO","flightCategory":"VFR","rawOb":"METAR SBMO 102200Z 10005KT 9999 SCT020 23/21 Q1016","temp":23,"dewp":21,"wdir":100,"wspd":5,"visib":"6+","altim":1016,"clouds":[{"cover":"SCT","base":2000}],"obsTime":1783720800},"SBRF":{"icaoId":"SBRF","flightCategory":"VFR","rawOb":"METAR SBRF 102200Z 16012KT 9999 SCT021 26/22 Q1016","temp":26,"dewp":22,"wdir":160,"wspd":12,"visib":"6+","altim":1016,"clouds":[{"cover":"SCT","base":2100}],"obsTime":1783720800},"SBSN":{"icaoId":"SBSN","flightCategory":"VFR","rawOb":"METAR SBSN 102200Z 13004KT 9999 FEW025TCU 29/25 Q1010","temp":29,"dewp":25,"wdir":130,"wspd":4,"visib":"6+","altim":1010,"clouds":[{"cover":"FEW","base":2500}],"obsTime":1783720800},"SBGR":{"icaoId":"SBGR","flightCategory":"VFR","rawOb":"METAR SBGR 102200Z 00000KT CAVOK 18/11 Q1018","temp":18,"dewp":11,"wdir":0,"wspd":0,"visib":"6+","altim":1018,"clouds":[],"obsTime":1783720800},"SBCZ":{"icaoId":"SBCZ","flightCategory":"MVFR","rawOb":"METAR SBCZ 102200Z 03004KT 330V110 5000 -TSRA SCT006 BKN035 FEW035CB OVC090 23/23 Q1012","temp":23,"dewp":23,"wdir":30,"wspd":4,"visib":3.11,"altim":1012,"clouds":[{"cover":"SCT","base":600},{"cover":"BKN","base":3500},{"cover":"FEW","base":3500},{"cover":"OVC","base":9000}],"obsTime":1783720800},"SBNT":{"icaoId":"SBNT","flightCategory":"VFR","rawOb":"METAR SBNT 102200Z 16008KT 9999 FEW020 25/23 Q1014","temp":25,"dewp":23,"wdir":160,"wspd":8,"visib":"6+","altim":1014,"clouds":[{"cover":"FEW","base":2000}],"obsTime":1783720800},"SBMA":{"icaoId":"SBMA","flightCategory":"VFR","rawOb":"METAR SBMA 102200Z 36004KT 9999 SCT020 FEW025TCU 29/22 Q1012","temp":29,"dewp":22,"wdir":360,"wspd":4,"visib":"6+","altim":1012,"clouds":[{"cover":"SCT","base":2000},{"cover":"FEW","base":2500}],"obsTime":1783720800},"SBRB":{"icaoId":"SBRB","flightCategory":"VFR","rawOb":"METAR SBRB 102200Z 05003KT 9999 FEW020 BKN100 29/23 Q1010","temp":29,"dewp":23,"wdir":50,"wspd":3,"visib":"6+","altim":1010,"clouds":[{"cover":"FEW","base":2000},{"cover":"BKN","base":10000}],"obsTime":1783720800},"SBSP":{"icaoId":"SBSP","flightCategory":"VFR","rawOb":"METAR SBSP 102200Z VRB03KT CAVOK 22/09 Q1019","temp":22,"dewp":9,"wdir":"VRB","wspd":3,"visib":"6+","altim":1019,"clouds":[],"obsTime":1783720800},"SBFL":{"icaoId":"SBFL","flightCategory":"VFR","rawOb":"METAR SBFL 102200Z VRB01KT 9999 FEW040 OVC090 16/15 Q1015","temp":16,"dewp":15,"wdir":"VRB","wspd":1,"visib":"6+","altim":1015,"clouds":[{"cover":"FEW","base":4000},{"cover":"OVC","base":9000}],"obsTime":1783720800},"SBPV":{"icaoId":"SBPV","flightCategory":"VFR","rawOb":"METAR SBPV 102200Z VRB02KT 9999 FEW045TCU BKN100 28/24 Q1009","temp":28,"dewp":24,"wdir":"VRB","wspd":2,"visib":"6+","altim":1009,"clouds":[{"cover":"FEW","base":4500},{"cover":"BKN","base":10000}],"obsTime":1783720800},"SBLO":{"icaoId":"SBLO","flightCategory":"VFR","rawOb":"METAR SBLO 102200Z 10004KT CAVOK 21/14 Q1015","temp":21,"dewp":14,"wdir":100,"wspd":4,"visib":"6+","altim":1015,"clouds":[],"obsTime":1783720800},"SBPJ":{"icaoId":"SBPJ","flightCategory":"VFR","rawOb":"METAR SBPJ 102200Z 11006KT 9999 FEW045 29/20 Q1013","temp":29,"dewp":20,"wdir":110,"wspd":6,"visib":"6+","altim":1013,"clouds":[{"cover":"FEW","base":4500}],"obsTime":1783720800},"SBSG":{"icaoId":"SBSG","flightCategory":"VFR","rawOb":"METAR SBSG 102200Z 14004KT 100V170 9999 FEW025 25/23 Q1015","temp":25,"dewp":23,"wdir":140,"wspd":4,"visib":"6+","altim":1015,"clouds":[{"cover":"FEW","base":2500}],"obsTime":1783720800},"SBCG":{"icaoId":"SBCG","flightCategory":"VFR","rawOb":"METAR SBCG 102200Z 33003KT 300V360 CAVOK 25/17 Q1014","temp":25,"dewp":17,"wdir":330,"wspd":3,"visib":"6+","altim":1014,"clouds":[],"obsTime":1783720800},"SBTE":{"icaoId":"SBTE","flightCategory":"VFR","rawOb":"METAR SBTE 102200Z 34005KT 9999 FEW030 30/22 Q1011","temp":30,"dewp":22,"wdir":340,"wspd":5,"visib":"6+","altim":1011,"clouds":[{"cover":"FEW","base":3000}],"obsTime":1783720800},"SBKP":{"icaoId":"SBKP","flightCategory":"VFR","rawOb":"METAR SBKP 102200Z 19005KT CAVOK 22/12 Q1017","temp":22,"dewp":12,"wdir":190,"wspd":5,"visib":"6+","altim":1017,"clouds":[],"obsTime":1783720800},"SBCT":{"icaoId":"SBCT","flightCategory":"IFR","rawOb":"METAR SBCT 102200Z 17005KT 4500 -RA BR SCT005 OVC060 15/15 Q1018","temp":15,"dewp":15,"wdir":170,"wspd":5,"visib":2.8,"altim":1018,"clouds":[{"cover":"SCT","base":500},{"cover":"OVC","base":6000}],"obsTime":1783720800},"SBPA":{"icaoId":"SBPA","flightCategory":"VFR","rawOb":"METAR SBPA 102200Z 12007KT 9999 BKN045 16/08 Q1014","temp":16,"dewp":8,"wdir":120,"wspd":7,"visib":"6+","altim":1014,"clouds":[{"cover":"BKN","base":4500}],"obsTime":1783720800},"SBVT":{"icaoId":"SBVT","flightCategory":"VFR","rawOb":"METAR SBVT 102200Z 04011KT CAVOK 23/20 Q1014","temp":23,"dewp":20,"wdir":40,"wspd":11,"visib":"6+","altim":1014,"clouds":[],"obsTime":1783720800},"SBMQ":{"icaoId":"SBMQ","flightCategory":"VFR","rawOb":"METAR SBMQ 102200Z 04011KT 9999 FEW020 29/23 Q1012","temp":29,"dewp":23,"wdir":40,"wspd":11,"visib":"6+","altim":1012,"clouds":[{"cover":"FEW","base":2000}],"obsTime":1783720800},"SBGO":{"icaoId":"SBGO","flightCategory":"VFR","rawOb":"METAR SBGO 102200Z 12004KT CAVOK 26/13 Q1017","temp":26,"dewp":13,"wdir":120,"wspd":4,"visib":"6+","altim":1017,"clouds":[],"obsTime":1783720800},"SBFI":{"icaoId":"SBFI","flightCategory":"VFR","rawOb":"METAR SBFI 102200Z 09007KT 9999 FEW030 21/19 Q1010","temp":21,"dewp":19,"wdir":90,"wspd":7,"visib":"6+","altim":1010,"clouds":[{"cover":"FEW","base":3000}],"obsTime":1783720800},"SBGL":{"icaoId":"SBGL","flightCategory":"VFR","rawOb":"METAR SBGL 102200Z 15006KT CAVOK 22/19 Q1013","temp":22,"dewp":19,"wdir":150,"wspd":6,"visib":"6+","altim":1013,"clouds":[],"obsTime":1783720800},"SBCP":{"icaoId":"SBCP","flightCategory":"VFR","rawOb":"METAR SBCP 102200Z 05005KT CAVOK 20/18 Q1014","temp":20,"dewp":18,"wdir":50,"wspd":5,"visib":"6+","altim":1014,"clouds":[],"obsTime":1783720800},"SBDN":{"icaoId":"SBDN","flightCategory":"VFR","rawOb":"METAR SBDN 102200Z 07002KT CAVOK 23/14 Q1014","temp":23,"dewp":14,"wdir":70,"wspd":2,"visib":"6+","altim":1014,"clouds":[],"obsTime":1783720800},"SBKG":{"icaoId":"SBKG","flightCategory":"VFR","rawOb":"METAR SBKG 102200Z 10005KT 9999 SCT020 23/20 Q1018","temp":23,"dewp":20,"wdir":100,"wspd":5,"visib":"6+","altim":1018,"clouds":[{"cover":"SCT","base":2000}],"obsTime":1783720800},"SBVH":{"icaoId":"SBVH","flightCategory":"VFR","rawOb":"METAR SBVH 102200Z 00000KT 9999 FEW035 SCT100 26/19 Q1013","temp":26,"dewp":19,"wdir":0,"wspd":0,"visib":"6+","altim":1013,"clouds":[{"cover":"FEW","base":3500},{"cover":"SCT","base":10000}],"obsTime":1783720800},"SBAX":{"icaoId":"SBAX","flightCategory":"VFR","rawOb":"METAR SBAX 102200Z 04003KT CAVOK 22/09 Q1019","temp":22,"dewp":9,"wdir":40,"wspd":3,"visib":"6+","altim":1019,"clouds":[],"obsTime":1783720800},"SBBH":{"icaoId":"SBBH","flightCategory":"VFR","rawOb":"METAR SBBH 102200Z 00000KT CAVOK 19/13 Q1018","temp":19,"dewp":13,"wdir":0,"wspd":0,"visib":"6+","altim":1018,"clouds":[],"obsTime":1783720800},"SBBQ":{"icaoId":"SBBQ","flightCategory":"VFR","rawOb":"METAR SBBQ 102200Z VRB01KT CAVOK 15/10 Q1021","temp":15,"dewp":10,"wdir":"VRB","wspd":1,"visib":"6+","altim":1021,"clouds":[],"obsTime":1783720800},"SBBU":{"icaoId":"SBBU","flightCategory":"VFR","rawOb":"METAR SBBU 102200Z 00000KT CAVOK 24/10 Q1016","temp":24,"dewp":10,"wdir":0,"wspd":0,"visib":"6+","altim":1016,"clouds":[],"obsTime":1783720800},"SBES":{"icaoId":"SBES","flightCategory":"MVFR","rawOb":"METAR SBES 102200Z 00000KT 6000 NSC 17/// Q1013","temp":null,"dewp":null,"wdir":0,"wspd":0,"visib":3.73,"altim":1013,"clouds":[],"obsTime":1783720800},"SBIP":{"icaoId":"SBIP","flightCategory":"VFR","rawOb":"METAR SBIP 102200Z AUTO 00000KT CAVOK 18/17 Q1015","temp":18,"dewp":17,"wdir":0,"wspd":0,"visib":"6+","altim":1015,"clouds":[],"obsTime":1783720800},"SBSC":{"icaoId":"SBSC","flightCategory":"VFR","rawOb":"METAR SBSC 102200Z 19005KT CAVOK 20/19 Q1014","temp":20,"dewp":19,"wdir":190,"wspd":5,"visib":"6+","altim":1014,"clouds":[],"obsTime":1783720800},"SBSR":{"icaoId":"SBSR","flightCategory":"VFR","rawOb":"METAR SBSR 102200Z 00000KT CAVOK 24/11 Q1016","temp":24,"dewp":11,"wdir":0,"wspd":0,"visib":"6+","altim":1016,"clouds":[],"obsTime":1783720800},"SBCA":{"icaoId":"SBCA","flightCategory":"VFR","rawOb":"METAR SBCA 102200Z 33003KT 9999 FEW030 21/16 Q1015","temp":21,"dewp":16,"wdir":330,"wspd":3,"visib":"6+","altim":1015,"clouds":[{"cover":"FEW","base":3000}],"obsTime":1783720800},"SBCO":{"icaoId":"SBCO","flightCategory":"VFR","rawOb":"METAR SBCO 102200Z 10005KT 9999 SCT045 SCT100 14/08 Q1014","temp":14,"dewp":8,"wdir":100,"wspd":5,"visib":"6+","altim":1014,"clouds":[{"cover":"SCT","base":4500},{"cover":"SCT","base":10000}],"obsTime":1783720800},"SBSM":{"icaoId":"SBSM","flightCategory":"VFR","rawOb":"METAR SBSM 102200Z 13004KT 9999 FEW017 BKN050 BKN100 17/15 Q1013","temp":17,"dewp":15,"wdir":130,"wspd":4,"visib":"6+","altim":1013,"clouds":[{"cover":"FEW","base":1700},{"cover":"BKN","base":5000},{"cover":"BKN","base":10000}],"obsTime":1783720800},"SBTF":{"icaoId":"SBTF","flightCategory":"VFR","rawOb":"METAR SBTF 102200Z 00000KT 9999 FEW023 27/26 Q1008","temp":27,"dewp":26,"wdir":0,"wspd":0,"visib":"6+","altim":1008,"clouds":[{"cover":"FEW","base":2300}],"obsTime":1783720800},"SBUY":{"icaoId":"SBUY","flightCategory":"VFR","rawOb":"METAR SBUY 102200Z 30003KT CAVOK 28/26 Q1008","temp":28,"dewp":26,"wdir":300,"wspd":3,"visib":"6+","altim":1008,"clouds":[],"obsTime":1783720800},"SBPS":{"icaoId":"SBPS","flightCategory":"VFR","rawOb":"METAR SBPS 102200Z 03007KT 9999 FEW025 24/21 Q1016","temp":24,"dewp":21,"wdir":30,"wspd":7,"visib":"6+","altim":1016,"clouds":[{"cover":"FEW","base":2500}],"obsTime":1783720800},"SBOI":{"icaoId":"SBOI","flightCategory":"VFR","rawOb":"METAR SBOI 102200Z AUTO 09003KT 020V140 CAVOK 28/24 Q1013","temp":28,"dewp":24,"wdir":90,"wspd":3,"visib":"6+","altim":1013,"clouds":[],"obsTime":1783720800},"SBTT":{"icaoId":"SBTT","flightCategory":"VFR","rawOb":"METAR SBTT 102200Z 28004KT 9999 FEW027 FEW027TCU 27/23 Q1009","temp":27,"dewp":23,"wdir":280,"wspd":4,"visib":"6+","altim":1009,"clouds":[{"cover":"FEW","base":2700},{"cover":"FEW","base":2700}],"obsTime":1783720800},"SBPL":{"icaoId":"SBPL","flightCategory":"VFR","rawOb":"METAR SBPL 102200Z 15004KT 9999 FEW025 29/14 Q1016","temp":29,"dewp":14,"wdir":150,"wspd":4,"visib":"6+","altim":1016,"clouds":[{"cover":"FEW","base":2500}],"obsTime":1783720800},"SBSJ":{"icaoId":"SBSJ","flightCategory":"VFR","rawOb":"METAR SBSJ 102200Z 00000KT CAVOK 19/14 Q1017","temp":19,"dewp":14,"wdir":0,"wspd":0,"visib":"6+","altim":1017,"clouds":[],"obsTime":1783720800},"SBAR":{"icaoId":"SBAR","flightCategory":"VFR","rawOb":"METAR SBAR 102200Z 09005KT CAVOK 25/21 Q1016","temp":25,"dewp":21,"wdir":90,"wspd":5,"visib":"6+","altim":1016,"clouds":[],"obsTime":1783720800},"SBTU":{"icaoId":"SBTU","flightCategory":"VFR","rawOb":"METAR SBTU 102200Z AUTO 27007KT 9999 // FEW031/// SCT039/// BKN069/// 27/23 Q1014","temp":27,"dewp":23,"wdir":270,"wspd":7,"visib":"6+","altim":1014,"clouds":[{"cover":"FEW","base":3100},{"cover":"SCT","base":3900},{"cover":"BKN","base":6900}],"obsTime":1783720800},"SBPB":{"icaoId":"SBPB","flightCategory":"VFR","rawOb":"SPECI SBPB 102145Z 07012KT CAVOK 28/24 Q1012","temp":28,"dewp":24,"wdir":70,"wspd":12,"visib":"6+","altim":1012,"clouds":[],"obsTime":1783719900},"SBJP":{"icaoId":"SBJP","flightCategory":"VFR","rawOb":"METAR SBJP 102200Z 13007KT 9999 FEW030 25/23 Q1016","temp":25,"dewp":23,"wdir":130,"wspd":7,"visib":"6+","altim":1016,"clouds":[{"cover":"FEW","base":3000}],"obsTime":1783720800},"SBAN":{"icaoId":"SBAN","flightCategory":"VFR","rawOb":"METAR SBAN 102200Z 22001KT CAVOK 21/12 Q1020","temp":21,"dewp":12,"wdir":220,"wspd":1,"visib":"6+","altim":1020,"clouds":[],"obsTime":1783720800},"SBLE":{"icaoId":"SBLE","flightCategory":"VFR","rawOb":"METAR SBLE 102200Z AUTO 36003KT CAVOK ///// Q1018","temp":null,"dewp":null,"wdir":360,"wspd":3,"visib":"6+","altim":1018,"clouds":[],"obsTime":1783720800},"SBAF":{"icaoId":"SBAF","flightCategory":"MVFR","rawOb":"METAR SBAF 102200Z 24004KT 8000 NSC 20/20 Q1013","temp":20,"dewp":20,"wdir":240,"wspd":4,"visib":4.97,"altim":1013,"clouds":[],"obsTime":1783720800},"SBJR":{"icaoId":"SBJR","flightCategory":"MVFR","rawOb":"METAR SBJR 102200Z 31001KT 6000 NSC 18/17 Q1013","temp":18,"dewp":17,"wdir":310,"wspd":1,"visib":3.73,"altim":1013,"clouds":[],"obsTime":1783720800},"SBLS":{"icaoId":"SBLS","flightCategory":"VFR","rawOb":"METAR SBLS 102200Z 29003KT CAVOK 22/09 Q1018","temp":22,"dewp":9,"wdir":290,"wspd":3,"visib":"6+","altim":1018,"clouds":[],"obsTime":1783720800},"SBMT":{"icaoId":"SBMT","flightCategory":"VFR","rawOb":"METAR SBMT 102200Z 00000KT CAVOK 20/10 Q1017","temp":20,"dewp":10,"wdir":0,"wspd":0,"visib":"6+","altim":1017,"clouds":[],"obsTime":1783720800},"SBTA":{"icaoId":"SBTA","flightCategory":"VFR","rawOb":"METAR SBTA 102200Z VRB02KT CAVOK 17/14 Q1016","temp":17,"dewp":14,"wdir":"VRB","wspd":2,"visib":"6+","altim":1016,"clouds":[],"obsTime":1783720800},"SBJV":{"icaoId":"SBJV","flightCategory":"MVFR","rawOb":"METAR SBJV 102200Z 19001KT 5000 BR SCT003 BKN060 16/16 Q1015","temp":16,"dewp":16,"wdir":190,"wspd":1,"visib":3.11,"altim":1015,"clouds":[{"cover":"SCT","base":300},{"cover":"BKN","base":6000}],"obsTime":1783720800},"SBNM":{"icaoId":"SBNM","flightCategory":"MVFR","rawOb":"METAR SBNM 102200Z AUTO 08005KT 040V100 9999 BKN021 BKN031 18/17 Q1012","temp":18,"dewp":17,"wdir":80,"wspd":5,"visib":"6+","altim":1012,"clouds":[{"cover":"BKN","base":2100},{"cover":"BKN","base":3100}],"obsTime":1783720800},"SBPF":{"icaoId":"SBPF","flightCategory":"IFR","rawOb":"METAR SBPF 102200Z 05005KT 8000 -RA BKN006 15/14 Q1015","temp":15,"dewp":14,"wdir":50,"wspd":5,"visib":4.97,"altim":1015,"clouds":[{"cover":"BKN","base":600}],"obsTime":1783720800},"SBGW":{"icaoId":"SBGW","flightCategory":"VFR","rawOb":"METAR SBGW 102200Z 00000KT CAVOK 17/12 Q1016","temp":17,"dewp":12,"wdir":0,"wspd":0,"visib":"6+","altim":1016,"clouds":[],"obsTime":1783720800}}}