{"updated":1776869647,"count":87,"data":{"SBBV":{"icaoId":"SBBV","flightCategory":"MVFR","rawOb":"METAR SBBV 221300Z 10005KT 6000 -TSRA SCT003 FEW045CB BKN100 24/24 Q1014 RERA","temp":24,"dewp":24,"wdir":100,"wspd":5,"visib":3.73,"altim":1014,"clouds":[{"cover":"SCT","base":300},{"cover":"FEW","base":4500},{"cover":"BKN","base":10000}],"obsTime":1776862800},"SBEG":{"icaoId":"SBEG","flightCategory":"VFR","rawOb":"METAR SBEG 221300Z 16006KT 130V200 9999 -RA SCT015 SCT020 FEW025TCU BKN070 25/24 Q1013","temp":25,"dewp":24,"wdir":160,"wspd":6,"visib":"6+","altim":1013,"clouds":[{"cover":"SCT","base":1500},{"cover":"SCT","base":2000},{"cover":"FEW","base":2500},{"cover":"BKN","base":7000}],"obsTime":1776862800},"SBBE":{"icaoId":"SBBE","flightCategory":"VFR","rawOb":"METAR SBBE 221300Z 12004KT 9999 SCT015 BKN100 28/25 Q1011","temp":28,"dewp":25,"wdir":120,"wspd":4,"visib":"6+","altim":1011,"clouds":[{"cover":"SCT","base":1500},{"cover":"BKN","base":10000}],"obsTime":1776862800},"SBBR":{"icaoId":"SBBR","flightCategory":"VFR","rawOb":"METAR SBBR 221300Z 08009KT CAVOK 25/16 Q1021","temp":25,"dewp":16,"wdir":80,"wspd":9,"visib":"6+","altim":1021,"clouds":[],"obsTime":1776862800},"SBVT":{"icaoId":"SBVT","flightCategory":"VFR","rawOb":"METAR SBVT 221300Z 14007KT 9999 SCT030 27/21 Q1018","temp":27,"dewp":21,"wdir":140,"wspd":7,"visib":"6+","altim":1018,"clouds":[{"cover":"SCT","base":3000}],"obsTime":1776862800},"SBAT":{"icaoId":"SBAT","flightCategory":"VFR","rawOb":"METAR SBAT 221300Z 03001KT 9999 SCT018 28/25 Q1013","temp":28,"dewp":25,"wdir":30,"wspd":1,"visib":"6+","altim":1013,"clouds":[{"cover":"SCT","base":1800}],"obsTime":1776862800},"SBCB":{"icaoId":"SBCB","flightCategory":"VFR","rawOb":"METAR SBCB 221300Z 28004KT 9999 FEW020 26/20 Q1018","temp":26,"dewp":20,"wdir":280,"wspd":4,"visib":"6+","altim":1018,"clouds":[{"cover":"FEW","base":2000}],"obsTime":1776862800},"SBCF":{"icaoId":"SBCF","flightCategory":"VFR","rawOb":"METAR SBCF 221300Z 06007KT 9999 SCT025 23/17 Q1022","temp":23,"dewp":17,"wdir":60,"wspd":7,"visib":"6+","altim":1022,"clouds":[{"cover":"SCT","base":2500}],"obsTime":1776862800},"SBCG":{"icaoId":"SBCG","flightCategory":"VFR","rawOb":"METAR SBCG 221300Z 09010KT CAVOK 27/17 Q1017","temp":27,"dewp":17,"wdir":90,"wspd":10,"visib":"6+","altim":1017,"clouds":[],"obsTime":1776862800},"SBCP":{"icaoId":"SBCP","flightCategory":"VFR","rawOb":"METAR SBCP 221300Z 04004KT CAVOK 28/19 Q1018","temp":28,"dewp":19,"wdir":40,"wspd":4,"visib":"6+","altim":1018,"clouds":[],"obsTime":1776862800},"SBCR":{"icaoId":"SBCR","flightCategory":"VFR","rawOb":"METAR SBCR 221300Z VRB02KT CAVOK 25/23 Q1015","temp":25,"dewp":23,"wdir":"VRB","wspd":2,"visib":"6+","altim":1015,"clouds":[],"obsTime":1776862800},"SBCT":{"icaoId":"SBCT","flightCategory":"VFR","rawOb":"METAR SBCT 221300Z 07004KT 010V110 CAVOK 19/14 Q1022","temp":19,"dewp":14,"wdir":70,"wspd":4,"visib":"6+","altim":1022,"clouds":[],"obsTime":1776862800},"SBCZ":{"icaoId":"SBCZ","flightCategory":"IFR","rawOb":"METAR SBCZ 221300Z 06004KT 020V090 9999 BKN005 BKN100 24/23 Q1013","temp":24,"dewp":23,"wdir":60,"wspd":4,"visib":"6+","altim":1013,"clouds":[{"cover":"BKN","base":500},{"cover":"BKN","base":10000}],"obsTime":1776862800},"SBFI":{"icaoId":"SBFI","flightCategory":"VFR","rawOb":"METAR SBFI 221300Z 11004KT 9999 FEW010 26/23 Q1017","temp":26,"dewp":23,"wdir":110,"wspd":4,"visib":"6+","altim":1017,"clouds":[{"cover":"FEW","base":1000}],"obsTime":1776862800},"SBFL":{"icaoId":"SBFL","flightCategory":"VFR","rawOb":"METAR SBFL 221300Z 33010KT CAVOK 26/20 Q1017","temp":26,"dewp":20,"wdir":330,"wspd":10,"visib":"6+","altim":1017,"clouds":[],"obsTime":1776862800},"SBFZ":{"icaoId":"SBFZ","flightCategory":"VFR","rawOb":"METAR SBFZ 221300Z 14010KT 9999 SCT019 BKN100 29/24 Q1013","temp":29,"dewp":24,"wdir":140,"wspd":10,"visib":"6+","altim":1013,"clouds":[{"cover":"SCT","base":1900},{"cover":"BKN","base":10000}],"obsTime":1776862800},"SBGL":{"icaoId":"SBGL","flightCategory":"VFR","rawOb":"METAR SBGL 221300Z 01005KT 9999 FEW011 25/20 Q1018","temp":25,"dewp":20,"wdir":10,"wspd":5,"visib":"6+","altim":1018,"clouds":[{"cover":"FEW","base":1100}],"obsTime":1776862800},"SBGO":{"icaoId":"SBGO","flightCategory":"VFR","rawOb":"METAR SBGO 221300Z 36006KT 320V040 CAVOK 27/20 Q1019","temp":27,"dewp":20,"wdir":360,"wspd":6,"visib":"6+","altim":1019,"clouds":[],"obsTime":1776862800},"SBGR":{"icaoId":"SBGR","flightCategory":"VFR","rawOb":"METAR SBGR 221300Z 05006KT 9999 SCT020 21/15 Q1021","temp":21,"dewp":15,"wdir":50,"wspd":6,"visib":"6+","altim":1021,"clouds":[{"cover":"SCT","base":2000}],"obsTime":1776862800},"SBHT":{"icaoId":"SBHT","flightCategory":"MVFR","rawOb":"METAR SBHT 221300Z 07007KT 9999 BKN015 27/24 Q1013","temp":27,"dewp":24,"wdir":70,"wspd":7,"visib":"6+","altim":1013,"clouds":[{"cover":"BKN","base":1500}],"obsTime":1776862800},"SBIL":{"icaoId":"SBIL","flightCategory":"VFR","rawOb":"METAR SBIL 221300Z 19008KT 160V230 9999 SCT023 30/24 Q1017","temp":30,"dewp":24,"wdir":190,"wspd":8,"visib":"6+","altim":1017,"clouds":[{"cover":"SCT","base":2300}],"obsTime":1776862800},"SBJU":{"icaoId":"SBJU","flightCategory":"MVFR","rawOb":"METAR SBJU 221300Z 00000KT 9999 SCT011 BKN018 24/23 Q1017","temp":24,"dewp":23,"wdir":0,"wspd":0,"visib":"6+","altim":1017,"clouds":[{"cover":"SCT","base":1100},{"cover":"BKN","base":1800}],"obsTime":1776862800},"SBKP":{"icaoId":"SBKP","flightCategory":"VFR","rawOb":"METAR SBKP 221300Z 13006KT CAVOK 22/16 Q1020","temp":22,"dewp":16,"wdir":130,"wspd":6,"visib":"6+","altim":1020,"clouds":[],"obsTime":1776862800},"SBLO":{"icaoId":"SBLO","flightCategory":"VFR","rawOb":"METAR SBLO 221300Z 12006KT CAVOK 21/16 Q1019","temp":21,"dewp":16,"wdir":120,"wspd":6,"visib":"6+","altim":1019,"clouds":[],"obsTime":1776862800},"SBMA":{"icaoId":"SBMA","flightCategory":"VFR","rawOb":"METAR SBMA 221300Z 15006KT 9999 SCT018 28/24 Q1013","temp":28,"dewp":24,"wdir":150,"wspd":6,"visib":"6+","altim":1013,"clouds":[{"cover":"SCT","base":1800}],"obsTime":1776862800},"SBME":{"icaoId":"SBME","flightCategory":"VFR","rawOb":"METAR SBME 221300Z 35002KT 9999 FEW025 29/18 Q1018","temp":29,"dewp":18,"wdir":350,"wspd":2,"visib":"6+","altim":1018,"clouds":[{"cover":"FEW","base":2500}],"obsTime":1776862800},"SBMG":{"icaoId":"SBMG","flightCategory":"VFR","rawOb":"METAR SBMG 221300Z 09007KT CAVOK 24/15 Q1018","temp":24,"dewp":15,"wdir":90,"wspd":7,"visib":"6+","altim":1018,"clouds":[],"obsTime":1776862800},"SBMK":{"icaoId":"SBMK","flightCategory":"VFR","rawOb":"METAR SBMK 221300Z 07008KT 9999 SCT035 26/18 Q1020","temp":26,"dewp":18,"wdir":70,"wspd":8,"visib":"6+","altim":1020,"clouds":[{"cover":"SCT","base":3500}],"obsTime":1776862800},"SBMO":{"icaoId":"SBMO","flightCategory":"MVFR","rawOb":"METAR SBMO 221300Z 30006KT 9999 BKN017 SCT050 27/24 Q1014","temp":27,"dewp":24,"wdir":300,"wspd":6,"visib":"6+","altim":1014,"clouds":[{"cover":"BKN","base":1700},{"cover":"SCT","base":5000}],"obsTime":1776862800},"SBMQ":{"icaoId":"SBMQ","flightCategory":"MVFR","rawOb":"METAR SBMQ 221300Z 07006KT 9999 BKN015 29/25 Q1012","temp":29,"dewp":25,"wdir":70,"wspd":6,"visib":"6+","altim":1012,"clouds":[{"cover":"BKN","base":1500}],"obsTime":1776862800},"SBNT":{"icaoId":"SBNT","flightCategory":"MVFR","rawOb":"METAR SBNT 221300Z 15007KT 9999 BKN025 29/23 Q1013","temp":29,"dewp":23,"wdir":150,"wspd":7,"visib":"6+","altim":1013,"clouds":[{"cover":"BKN","base":2500}],"obsTime":1776862800},"SBPA":{"icaoId":"SBPA","flightCategory":"VFR","rawOb":"METAR SBPA 221300Z 29004KT 250V330 9999 SCT040 23/20 Q1016","temp":23,"dewp":20,"wdir":290,"wspd":4,"visib":"6+","altim":1016,"clouds":[{"cover":"SCT","base":4000}],"obsTime":1776862800},"SBPJ":{"icaoId":"SBPJ","flightCategory":"VFR","rawOb":"METAR SBPJ 221300Z 15004KT 100V200 9999 FEW015 28/24 Q1015","temp":28,"dewp":24,"wdir":150,"wspd":4,"visib":"6+","altim":1015,"clouds":[{"cover":"FEW","base":1500}],"obsTime":1776862800},"SBPV":{"icaoId":"SBPV","flightCategory":"VFR","rawOb":"METAR SBPV 221300Z 18004KT 150V230 9999 SCT007 BKN100 25/23 Q1013","temp":25,"dewp":23,"wdir":180,"wspd":4,"visib":"6+","altim":1013,"clouds":[{"cover":"SCT","base":700},{"cover":"BKN","base":10000}],"obsTime":1776862800},"SBRB":{"icaoId":"SBRB","flightCategory":"LIFR","rawOb":"METAR SBRB 221300Z 02003KT 9999 BKN004 BKN100 25/24 Q1013","temp":25,"dewp":24,"wdir":20,"wspd":3,"visib":"6+","altim":1013,"clouds":[{"cover":"BKN","base":400},{"cover":"BKN","base":10000}],"obsTime":1776862800},"SBRF":{"icaoId":"SBRF","flightCategory":"VFR","rawOb":"METAR SBRF 221300Z 14006KT 110V180 9999 SCT025 30/23 Q1013","temp":30,"dewp":23,"wdir":140,"wspd":6,"visib":"6+","altim":1013,"clouds":[{"cover":"SCT","base":2500}],"obsTime":1776862800},"SBSG":{"icaoId":"SBSG","flightCategory":"MVFR","rawOb":"METAR SBSG 221300Z 15005KT 080V210 9999 BKN026 29/23 Q1013","temp":29,"dewp":23,"wdir":150,"wspd":5,"visib":"6+","altim":1013,"clouds":[{"cover":"BKN","base":2600}],"obsTime":1776862800},"SBSL":{"icaoId":"SBSL","flightCategory":"MVFR","rawOb":"METAR SBSL 221300Z 10007KT 9999 BKN020 SCT100 28/25 Q1013","temp":28,"dewp":25,"wdir":100,"wspd":7,"visib":"6+","altim":1013,"clouds":[{"cover":"BKN","base":2000},{"cover":"SCT","base":10000}],"obsTime":1776862800},"SBSN":{"icaoId":"SBSN","flightCategory":"MVFR","rawOb":"METAR SBSN 221300Z 10008KT 9999 BKN016 28/25 Q1013","temp":28,"dewp":25,"wdir":100,"wspd":8,"visib":"6+","altim":1013,"clouds":[{"cover":"BKN","base":1600}],"obsTime":1776862800},"SBSP":{"icaoId":"SBSP","flightCategory":"VFR","rawOb":"METAR SBSP 221300Z VRB03KT CAVOK 22/15 Q1022","temp":22,"dewp":15,"wdir":"VRB","wspd":3,"visib":"6+","altim":1022,"clouds":[],"obsTime":1776862800},"SBSV":{"icaoId":"SBSV","flightCategory":"MVFR","rawOb":"METAR SBSV 221300Z 31005KT 5000 -RA BR BKN010 BKN020 BKN040 25/25 Q1016","temp":25,"dewp":25,"wdir":310,"wspd":5,"visib":3.11,"altim":1016,"clouds":[{"cover":"BKN","base":1000},{"cover":"BKN","base":2000},{"cover":"BKN","base":4000}],"obsTime":1776862800},"SBTE":{"icaoId":"SBTE","flightCategory":"MVFR","rawOb":"METAR SBTE 221300Z 13005KT 9999 BKN015 26/23 Q1013","temp":26,"dewp":23,"wdir":130,"wspd":5,"visib":"6+","altim":1013,"clouds":[{"cover":"BKN","base":1500}],"obsTime":1776862800},"SBUL":{"icaoId":"SBUL","flightCategory":"VFR","rawOb":"METAR SBUL 221300Z 09008KT CAVOK 25/18 Q1021","temp":25,"dewp":18,"wdir":90,"wspd":8,"visib":"6+","altim":1021,"clouds":[],"obsTime":1776862800},"SBUR":{"icaoId":"SBUR","flightCategory":"VFR","rawOb":"METAR SBUR 221300Z 01008KT CAVOK 26/19 Q1019","temp":26,"dewp":19,"wdir":10,"wspd":8,"visib":"6+","altim":1019,"clouds":[],"obsTime":1776862800},"SBVH":{"icaoId":"SBVH","flightCategory":"VFR","rawOb":"METAR SBVH 221300Z 10006KT 9999 FEW020 SCT100 25/23 Q1016","temp":25,"dewp":23,"wdir":100,"wspd":6,"visib":"6+","altim":1016,"clouds":[{"cover":"FEW","base":2000},{"cover":"SCT","base":10000}],"obsTime":1776862800},"SBAR":{"icaoId":"SBAR","flightCategory":"VFR","rawOb":"METAR SBAR 221300Z 20009KT 9999 SCT017 SCT050 28/24 Q1014","temp":28,"dewp":24,"wdir":200,"wspd":9,"visib":"6+","altim":1014,"clouds":[{"cover":"SCT","base":1700},{"cover":"SCT","base":5000}],"obsTime":1776862800},"SBAU":{"icaoId":"SBAU","flightCategory":"VFR","rawOb":"METAR SBAU 221300Z 12012KT CAVOK 24/16 Q1017","temp":24,"dewp":16,"wdir":120,"wspd":12,"visib":"6+","altim":1017,"clouds":[],"obsTime":1776862800},"SBAX":{"icaoId":"SBAX","flightCategory":"VFR","rawOb":"METAR SBAX 221300Z 06007KT 9999 SCT040 24/19 Q1021","temp":24,"dewp":19,"wdir":60,"wspd":7,"visib":"6+","altim":1021,"clouds":[{"cover":"SCT","base":4000}],"obsTime":1776862800},"SBBH":{"icaoId":"SBBH","flightCategory":"VFR","rawOb":"METAR SBBH 221300Z 10006KT 9999 SCT025 23/17 Q1021","temp":23,"dewp":17,"wdir":100,"wspd":6,"visib":"6+","altim":1021,"clouds":[{"cover":"SCT","base":2500}],"obsTime":1776862800},"SBBQ":{"icaoId":"SBBQ","flightCategory":"MVFR","rawOb":"METAR SBBQ 221300Z 10007KT 5000 BR BKN010 OVC020 18/16 Q1024","temp":18,"dewp":16,"wdir":100,"wspd":7,"visib":3.11,"altim":1024,"clouds":[{"cover":"BKN","base":1000},{"cover":"OVC","base":2000}],"obsTime":1776862800},"SBBU":{"icaoId":"SBBU","flightCategory":"VFR","rawOb":"METAR SBBU 221300Z COR 09007KT CAVOK 23/16 Q1019","temp":23,"dewp":16,"wdir":90,"wspd":7,"visib":"6+","altim":1019,"clouds":[],"obsTime":1776862800},"SBCA":{"icaoId":"SBCA","flightCategory":"VFR","rawOb":"METAR SBCA 221300Z 16007KT CAVOK 24/19 Q1020","temp":24,"dewp":19,"wdir":160,"wspd":7,"visib":"6+","altim":1020,"clouds":[],"obsTime":1776862800},"SBCC":{"icaoId":"SBCC","flightCategory":"VFR","rawOb":"METAR SBCC 221300Z 04006KT 9999 FEW015 BKN070 26/22 Q1015","temp":26,"dewp":22,"wdir":40,"wspd":6,"visib":"6+","altim":1015,"clouds":[{"cover":"FEW","base":1500},{"cover":"BKN","base":7000}],"obsTime":1776862800},"SBCJ":{"icaoId":"SBCJ","flightCategory":"VFR","rawOb":"METAR SBCJ 221300Z 19003KT 9999 FEW013 25/21 Q1017","temp":25,"dewp":21,"wdir":190,"wspd":3,"visib":"6+","altim":1017,"clouds":[{"cover":"FEW","base":1300}],"obsTime":1776862800},"SBCO":{"icaoId":"SBCO","flightCategory":"MVFR","rawOb":"METAR SBCO 221300Z 30004KT 8000 NSC 24/20 Q1016","temp":24,"dewp":20,"wdir":300,"wspd":4,"visib":4.97,"altim":1016,"clouds":[],"obsTime":1776862800},"SBDN":{"icaoId":"SBDN","flightCategory":"VFR","rawOb":"METAR SBDN 221300Z 09009KT CAVOK 25/15 Q1018","temp":25,"dewp":15,"wdir":90,"wspd":9,"visib":"6+","altim":1018,"clouds":[],"obsTime":1776862800},"SBES":{"icaoId":"SBES","flightCategory":"VFR","rawOb":"METAR SBES 221300Z VRB03KT 9999 FEW020 26/// Q1018","temp":null,"dewp":null,"wdir":"VRB","wspd":3,"visib":"6+","altim":1018,"clouds":[{"cover":"FEW","base":2000}],"obsTime":1776862800},"SBGM":{"icaoId":"SBGM","flightCategory":"VFR","rawOb":"METAR SBGM 221300Z 08004KT 9999 SCT008 BKN100 25/23 Q1013","temp":25,"dewp":23,"wdir":80,"wspd":4,"visib":"6+","altim":1013,"clouds":[{"cover":"SCT","base":800},{"cover":"BKN","base":10000}],"obsTime":1776862800},"SBIP":{"icaoId":"SBIP","flightCategory":"VFR","rawOb":"METAR SBIP 221300Z AUTO 02006KT 340V060 9999 SCT030 BKN037 26/18 Q1020","temp":26,"dewp":18,"wdir":20,"wspd":6,"visib":"6+","altim":1020,"clouds":[{"cover":"SCT","base":3000},{"cover":"BKN","base":3700}],"obsTime":1776862800},"SBKG":{"icaoId":"SBKG","flightCategory":"VFR","rawOb":"METAR SBKG 221300Z 15005KT 9999 SCT020 27/20 Q1016","temp":27,"dewp":20,"wdir":150,"wspd":5,"visib":"6+","altim":1016,"clouds":[{"cover":"SCT","base":2000}],"obsTime":1776862800},"SBOI":{"icaoId":"SBOI","flightCategory":"MVFR","rawOb":"METAR SBOI 221300Z AUTO 11004KT 080V140 9999 FEW010 SCT012 BKN015 27/24 Q1013","temp":27,"dewp":24,"wdir":110,"wspd":4,"visib":"6+","altim":1013,"clouds":[{"cover":"FEW","base":1000},{"cover":"SCT","base":1200},{"cover":"BKN","base":1500}],"obsTime":1776862800},"SBPB":{"icaoId":"SBPB","flightCategory":"VFR","rawOb":"METAR SBPB 221300Z 07009KT 9999 SCT020 30/23 Q1012","temp":30,"dewp":23,"wdir":70,"wspd":9,"visib":"6+","altim":1012,"clouds":[{"cover":"SCT","base":2000}],"obsTime":1776862800},"SBPL":{"icaoId":"SBPL","flightCategory":"MVFR","rawOb":"METAR SBPL 221300Z 14009KT 9999 BKN025 SCT070 28/21 Q1016","temp":28,"dewp":21,"wdir":140,"wspd":9,"visib":"6+","altim":1016,"clouds":[{"cover":"BKN","base":2500},{"cover":"SCT","base":7000}],"obsTime":1776862800},"SBPP":{"icaoId":"SBPP","flightCategory":"VFR","rawOb":"METAR SBPP 221300Z 03012KT CAVOK 25/18 Q1018","temp":25,"dewp":18,"wdir":30,"wspd":12,"visib":"6+","altim":1018,"clouds":[],"obsTime":1776862800},"SBPS":{"icaoId":"SBPS","flightCategory":"MVFR","rawOb":"METAR SBPS 221300Z 16005KT 9999 BKN025 28/24 Q1017","temp":28,"dewp":24,"wdir":160,"wspd":5,"visib":"6+","altim":1017,"clouds":[{"cover":"BKN","base":2500}],"obsTime":1776862800},"SBSC":{"icaoId":"SBSC","flightCategory":"VFR","rawOb":"METAR SBSC 221300Z 02007KT 9999 FEW020 27/19 Q1018","temp":27,"dewp":19,"wdir":20,"wspd":7,"visib":"6+","altim":1018,"clouds":[{"cover":"FEW","base":2000}],"obsTime":1776862800},"SBSJ":{"icaoId":"SBSJ","flightCategory":"MVFR","rawOb":"METAR SBSJ 221300Z 03004KT 340V070 9999 SCT014 BKN017 20/16 Q1020","temp":20,"dewp":16,"wdir":30,"wspd":4,"visib":"6+","altim":1020,"clouds":[{"cover":"SCT","base":1400},{"cover":"BKN","base":1700}],"obsTime":1776862800},"SBSM":{"icaoId":"SBSM","flightCategory":"VFR","rawOb":"METAR SBSM 221300Z 00000KT 9999 3000NE FEW004 23/22 Q1017","temp":23,"dewp":22,"wdir":0,"wspd":0,"visib":"6+","altim":1017,"clouds":[{"cover":"FEW","base":400}],"obsTime":1776862800},"SBSR":{"icaoId":"SBSR","flightCategory":"MVFR","rawOb":"METAR SBSR 221300Z 10006KT 8000 NSC 25/14 Q1018","temp":25,"dewp":14,"wdir":100,"wspd":6,"visib":4.97,"altim":1018,"clouds":[],"obsTime":1776862800},"SBTD":{"icaoId":"SBTD","flightCategory":"VFR","rawOb":"METAR SBTD 221300Z /////KT CAVOK 24/20 Q1019","temp":24,"dewp":20,"wdir":null,"wspd":null,"visib":"6+","altim":1019,"clouds":[],"obsTime":1776862800},"SBTF":{"icaoId":"SBTF","flightCategory":"VFR","rawOb":"METAR SBTF 221300Z 13004KT 9999 FEW006 SCT040 BKN070 26/25 Q1013","temp":26,"dewp":25,"wdir":130,"wspd":4,"visib":"6+","altim":1013,"clouds":[{"cover":"FEW","base":600},{"cover":"SCT","base":4000},{"cover":"BKN","base":7000}],"obsTime":1776862800},"SBTT":{"icaoId":"SBTT","flightCategory":"VFR","rawOb":"METAR SBTT 221300Z 11003KT 9999 FEW005 24/22 Q1013","temp":24,"dewp":22,"wdir":110,"wspd":3,"visib":"6+","altim":1013,"clouds":[{"cover":"FEW","base":500}],"obsTime":1776862800},"SBUY":{"icaoId":"SBUY","flightCategory":"LIFR","rawOb":"METAR SBUY 221300Z 18001KT 2500 BR BKN004 BKN080 24/23 Q1012","temp":24,"dewp":23,"wdir":180,"wspd":1,"visib":1.55,"altim":1012,"clouds":[{"cover":"BKN","base":400},{"cover":"BKN","base":8000}],"obsTime":1776862800},"SBJP":{"icaoId":"SBJP","flightCategory":"VFR","rawOb":"METAR SBJP 221300Z 13006KT 9999 FEW020 SCT070 29/23 Q1013","temp":29,"dewp":23,"wdir":130,"wspd":6,"visib":"6+","altim":1013,"clouds":[{"cover":"FEW","base":2000},{"cover":"SCT","base":7000}],"obsTime":1776862800},"SBAN":{"icaoId":"SBAN","flightCategory":"VFR","rawOb":"METAR SBAN 221300Z 10008KT CAVOK 25/17 Q1021","temp":25,"dewp":17,"wdir":100,"wspd":8,"visib":"6+","altim":1021,"clouds":[],"obsTime":1776862800},"SBJV":{"icaoId":"SBJV","flightCategory":"VFR","rawOb":"METAR SBJV 221300Z 27002KT 9999 FEW025 25/18 Q1018","temp":25,"dewp":18,"wdir":270,"wspd":2,"visib":"6+","altim":1018,"clouds":[{"cover":"FEW","base":2500}],"obsTime":1776862800},"SBNM":{"icaoId":"SBNM","flightCategory":"VFR","rawOb":"METAR SBNM 221400Z 35002KT 9999 SCT015 27/23 Q1018","temp":27,"dewp":23,"wdir":350,"wspd":2,"visib":"6+","altim":1018,"clouds":[{"cover":"SCT","base":1500}],"obsTime":1776866400},"SBPF":{"icaoId":"SBPF","flightCategory":"VFR","rawOb":"METAR SBPF 221300Z 04004KT CAVOK 21/18 Q1020","temp":21,"dewp":18,"wdir":40,"wspd":4,"visib":"6+","altim":1020,"clouds":[],"obsTime":1776862800},"SBIH":{"icaoId":"SBIH","flightCategory":"VFR","rawOb":"METAR SBIH 221300Z 04008KT 9999 SCT015 SCT080 29/25 Q1012","temp":29,"dewp":25,"wdir":40,"wspd":8,"visib":"6+","altim":1012,"clouds":[{"cover":"SCT","base":1500},{"cover":"SCT","base":8000}],"obsTime":1776862800},"SBLE":{"icaoId":"SBLE","flightCategory":"MVFR","rawOb":"METAR SBLE 221300Z AUTO 16005KT 120V220 9999 OVC030 24/19 Q1020","temp":24,"dewp":19,"wdir":160,"wspd":5,"visib":"6+","altim":1020,"clouds":[{"cover":"OVC","base":3000}],"obsTime":1776862800},"SBAF":{"icaoId":"SBAF","flightCategory":"VFR","rawOb":"METAR SBAF 221300Z 01004KT 9999 FEW030 27/19 Q1018","temp":27,"dewp":19,"wdir":10,"wspd":4,"visib":"6+","altim":1018,"clouds":[{"cover":"FEW","base":3000}],"obsTime":1776862800},"SBGW":{"icaoId":"SBGW","flightCategory":"MVFR","rawOb":"METAR SBGW 221300Z 05007KT 350V090 9999 FEW021 BKN030 23/14 Q1020","temp":23,"dewp":14,"wdir":50,"wspd":7,"visib":"6+","altim":1020,"clouds":[{"cover":"FEW","base":2100},{"cover":"BKN","base":3000}],"obsTime":1776862800},"SBJR":{"icaoId":"SBJR","flightCategory":"VFR","rawOb":"METAR SBJR 221300Z 30002KT 9999 FEW020 31/20 Q1018","temp":31,"dewp":20,"wdir":300,"wspd":2,"visib":"6+","altim":1018,"clouds":[{"cover":"FEW","base":2000}],"obsTime":1776862800},"SBLS":{"icaoId":"SBLS","flightCategory":"VFR","rawOb":"METAR SBLS 221300Z 14004KT 050V170 9999 SCT020 23/18 Q1021","temp":23,"dewp":18,"wdir":140,"wspd":4,"visib":"6+","altim":1021,"clouds":[{"cover":"SCT","base":2000}],"obsTime":1776862800},"SBMT":{"icaoId":"SBMT","flightCategory":"VFR","rawOb":"METAR SBMT 221300Z 10005KT 9999 FEW020 21/15 Q1021","temp":21,"dewp":15,"wdir":100,"wspd":5,"visib":"6+","altim":1021,"clouds":[{"cover":"FEW","base":2000}],"obsTime":1776862800},"SBST":{"icaoId":"SBST","flightCategory":"VFR","rawOb":"METAR SBST 221300Z 34003KT CAVOK 24/21 Q1018","temp":24,"dewp":21,"wdir":340,"wspd":3,"visib":"6+","altim":1018,"clouds":[],"obsTime":1776862800},"SBTA":{"icaoId":"SBTA","flightCategory":"MVFR","rawOb":"METAR SBTA 221300Z 03004KT 010V070 9999 FEW018 BKN021 21/17 Q1020","temp":21,"dewp":17,"wdir":30,"wspd":4,"visib":"6+","altim":1020,"clouds":[{"cover":"FEW","base":1800},{"cover":"BKN","base":2100}],"obsTime":1776862800}}}