{"updated":1773598897,"count":86,"data":{"SBVT":{"icaoId":"SBVT","flightCategory":"VFR","rawOb":"METAR SBVT 151700Z 14010KT 9999 FEW040 28/22 Q1010","temp":28,"dewp":22,"wdir":140,"wspd":10,"visib":"6+","altim":1010,"clouds":[{"cover":"FEW","base":4000}],"obsTime":1773594000},"SBAT":{"icaoId":"SBAT","flightCategory":"MVFR","rawOb":"METAR SBAT 151700Z 02005KT 9999 BKN030 32/24 Q1011","temp":32,"dewp":24,"wdir":20,"wspd":5,"visib":"6+","altim":1011,"clouds":[{"cover":"BKN","base":3000}],"obsTime":1773594000},"SBBE":{"icaoId":"SBBE","flightCategory":"MVFR","rawOb":"SPECI SBBE 151635Z 33009KT 9999 -TSRA BKN025 FEW030CB BKN033 28/25 Q1010","temp":28,"dewp":25,"wdir":330,"wspd":9,"visib":"6+","altim":1010,"clouds":[{"cover":"BKN","base":2500},{"cover":"FEW","base":3000},{"cover":"BKN","base":3300}],"obsTime":1773592500},"SBBR":{"icaoId":"SBBR","flightCategory":"VFR","rawOb":"METAR SBBR 151700Z 04006KT 360V060 9999 BKN040 FEW045TCU BKN090 27/19 Q1015","temp":27,"dewp":19,"wdir":40,"wspd":6,"visib":"6+","altim":1015,"clouds":[{"cover":"BKN","base":4000},{"cover":"FEW","base":4500},{"cover":"BKN","base":9000}],"obsTime":1773594000},"SBBV":{"icaoId":"SBBV","flightCategory":"VFR","rawOb":"METAR SBBV 151700Z 10011KT 9999 BKN035 FEW040TCU BKN090 33/20 Q1010","temp":33,"dewp":20,"wdir":100,"wspd":11,"visib":"6+","altim":1010,"clouds":[{"cover":"BKN","base":3500},{"cover":"FEW","base":4000},{"cover":"BKN","base":9000}],"obsTime":1773594000},"SBCB":{"icaoId":"SBCB","flightCategory":"VFR","rawOb":"METAR SBCB 151700Z 09011KT CAVOK 28/21 Q1010","temp":28,"dewp":21,"wdir":90,"wspd":11,"visib":"6+","altim":1010,"clouds":[],"obsTime":1773594000},"SBCF":{"icaoId":"SBCF","flightCategory":"VFR","rawOb":"METAR SBCF 151700Z VRB02KT 9999 BKN036 29/20 Q1013","temp":29,"dewp":20,"wdir":"VRB","wspd":2,"visib":"6+","altim":1013,"clouds":[{"cover":"BKN","base":3600}],"obsTime":1773594000},"SBCG":{"icaoId":"SBCG","flightCategory":"MVFR","rawOb":"METAR SBCG 151700Z 34008KT 310V020 9999 BKN030 30/21 Q1011","temp":30,"dewp":21,"wdir":340,"wspd":8,"visib":"6+","altim":1011,"clouds":[{"cover":"BKN","base":3000}],"obsTime":1773594000},"SBCP":{"icaoId":"SBCP","flightCategory":"VFR","rawOb":"METAR SBCP 151700Z 10003KT 9999 SCT020 31/22 Q1009","temp":31,"dewp":22,"wdir":100,"wspd":3,"visib":"6+","altim":1009,"clouds":[{"cover":"SCT","base":2000}],"obsTime":1773594000},"SBCR":{"icaoId":"SBCR","flightCategory":"VFR","rawOb":"METAR SBCR 151700Z 05012KT 020V080 9999 BKN040 FEW045TCU 32/24 Q1007","temp":32,"dewp":24,"wdir":50,"wspd":12,"visib":"6+","altim":1007,"clouds":[{"cover":"BKN","base":4000},{"cover":"FEW","base":4500}],"obsTime":1773594000},"SBCT":{"icaoId":"SBCT","flightCategory":"VFR","rawOb":"METAR SBCT 151700Z 27010KT 9999 SCT040 30/14 Q1014","temp":30,"dewp":14,"wdir":270,"wspd":10,"visib":"6+","altim":1014,"clouds":[{"cover":"SCT","base":4000}],"obsTime":1773594000},"SBCZ":{"icaoId":"SBCZ","flightCategory":"IFR","rawOb":"METAR SBCZ 151700Z 35006KT 9999 OVC007 25/23 Q1011","temp":25,"dewp":23,"wdir":350,"wspd":6,"visib":"6+","altim":1011,"clouds":[{"cover":"OVC","base":700}],"obsTime":1773594000},"SBEG":{"icaoId":"SBEG","flightCategory":"VFR","rawOb":"METAR SBEG 151700Z 07006KT 9999 SCT025 32/24 Q1010","temp":32,"dewp":24,"wdir":70,"wspd":6,"visib":"6+","altim":1010,"clouds":[{"cover":"SCT","base":2500}],"obsTime":1773594000},"SBFI":{"icaoId":"SBFI","flightCategory":"VFR","rawOb":"METAR SBFI 151700Z 35008KT 9999 SCT040 34/21 Q1007","temp":34,"dewp":21,"wdir":350,"wspd":8,"visib":"6+","altim":1007,"clouds":[{"cover":"SCT","base":4000}],"obsTime":1773594000},"SBFL":{"icaoId":"SBFL","flightCategory":"VFR","rawOb":"METAR SBFL 151700Z 02010KT 9999 FEW040 31/24 Q1007","temp":31,"dewp":24,"wdir":20,"wspd":10,"visib":"6+","altim":1007,"clouds":[{"cover":"FEW","base":4000}],"obsTime":1773594000},"SBFZ":{"icaoId":"SBFZ","flightCategory":"MVFR","rawOb":"METAR SBFZ 151700Z 09008KT 060V130 8000 VCSH BKN018 FEW025TCU BKN070 29/24 Q1009","temp":29,"dewp":24,"wdir":90,"wspd":8,"visib":4.97,"altim":1009,"clouds":[{"cover":"BKN","base":1800},{"cover":"FEW","base":2500},{"cover":"BKN","base":7000}],"obsTime":1773594000},"SBGL":{"icaoId":"SBGL","flightCategory":"VFR","rawOb":"METAR SBGL 151700Z 13005KT 090V170 9999 FEW030 30/22 Q1009","temp":30,"dewp":22,"wdir":130,"wspd":5,"visib":"6+","altim":1009,"clouds":[{"cover":"FEW","base":3000}],"obsTime":1773594000},"SBGO":{"icaoId":"SBGO","flightCategory":"VFR","rawOb":"SPECI SBGO 151627Z 25003KT 200V300 9999 -TSRA FEW036 FEW045CB BKN090 23/21 Q1015 RERA","temp":23,"dewp":21,"wdir":250,"wspd":3,"visib":"6+","altim":1015,"clouds":[{"cover":"FEW","base":3600},{"cover":"FEW","base":4500},{"cover":"BKN","base":9000}],"obsTime":1773592020},"SBGR":{"icaoId":"SBGR","flightCategory":"VFR","rawOb":"METAR SBGR 151700Z 32006KT CAVOK 30/17 Q1013","temp":30,"dewp":17,"wdir":320,"wspd":6,"visib":"6+","altim":1013,"clouds":[],"obsTime":1773594000},"SBHT":{"icaoId":"SBHT","flightCategory":"MVFR","rawOb":"METAR SBHT 151700Z 11005KT 9999 BKN025 32/24 Q1010","temp":32,"dewp":24,"wdir":110,"wspd":5,"visib":"6+","altim":1010,"clouds":[{"cover":"BKN","base":2500}],"obsTime":1773594000},"SBIL":{"icaoId":"SBIL","flightCategory":"VFR","rawOb":"METAR SBIL 151700Z 06008KT 9999 SCT030 31/26 Q1010","temp":31,"dewp":26,"wdir":60,"wspd":8,"visib":"6+","altim":1010,"clouds":[{"cover":"SCT","base":3000}],"obsTime":1773594000},"SBJU":{"icaoId":"SBJU","flightCategory":"MVFR","rawOb":"METAR SBJU 151700Z 21007KT 9999 BKN022 FEW023TCU 29/22 Q1011","temp":29,"dewp":22,"wdir":210,"wspd":7,"visib":"6+","altim":1011,"clouds":[{"cover":"BKN","base":2200},{"cover":"FEW","base":2300}],"obsTime":1773594000},"SBKP":{"icaoId":"SBKP","flightCategory":"VFR","rawOb":"METAR SBKP 151700Z 25006KT 9999 SCT040 31/19 Q1013","temp":31,"dewp":19,"wdir":250,"wspd":6,"visib":"6+","altim":1013,"clouds":[{"cover":"SCT","base":4000}],"obsTime":1773594000},"SBLO":{"icaoId":"SBLO","flightCategory":"VFR","rawOb":"METAR SBLO 151700Z 10008KT 9999 SCT040 32/18 Q1011","temp":32,"dewp":18,"wdir":100,"wspd":8,"visib":"6+","altim":1011,"clouds":[{"cover":"SCT","base":4000}],"obsTime":1773594000},"SBMA":{"icaoId":"SBMA","flightCategory":"MVFR","rawOb":"METAR SBMA 151700Z 13008KT 9999 BKN020 SCT100 30/24 Q1010","temp":30,"dewp":24,"wdir":130,"wspd":8,"visib":"6+","altim":1010,"clouds":[{"cover":"BKN","base":2000},{"cover":"SCT","base":10000}],"obsTime":1773594000},"SBME":{"icaoId":"SBME","flightCategory":"VFR","rawOb":"METAR SBME 151700Z 15008KT 9999 FEW030 30/22 Q1009","temp":30,"dewp":22,"wdir":150,"wspd":8,"visib":"6+","altim":1009,"clouds":[{"cover":"FEW","base":3000}],"obsTime":1773594000},"SBMG":{"icaoId":"SBMG","flightCategory":"VFR","rawOb":"METAR SBMG 151700Z 36008KT 290V050 9999 SCT050 FEW050TCU 34/18 Q1010","temp":34,"dewp":18,"wdir":360,"wspd":8,"visib":"6+","altim":1010,"clouds":[{"cover":"SCT","base":5000},{"cover":"FEW","base":5000}],"obsTime":1773594000},"SBMK":{"icaoId":"SBMK","flightCategory":"VFR","rawOb":"METAR SBMK 151700Z 01003KT 9999 SCT038 23/21 Q1012 RETS","temp":23,"dewp":21,"wdir":10,"wspd":3,"visib":"6+","altim":1012,"clouds":[{"cover":"SCT","base":3800}],"obsTime":1773594000},"SBMO":{"icaoId":"SBMO","flightCategory":"VFR","rawOb":"METAR SBMO 151700Z 10012KT 060V140 9999 FEW040 33/23 Q1009","temp":33,"dewp":23,"wdir":100,"wspd":12,"visib":"6+","altim":1009,"clouds":[{"cover":"FEW","base":4000}],"obsTime":1773594000},"SBMQ":{"icaoId":"SBMQ","flightCategory":"VFR","rawOb":"METAR SBMQ 151700Z 05010KT 9999 FEW010 SCT023 BKN100 28/26 Q1010","temp":28,"dewp":26,"wdir":50,"wspd":10,"visib":"6+","altim":1010,"clouds":[{"cover":"FEW","base":1000},{"cover":"SCT","base":2300},{"cover":"BKN","base":10000}],"obsTime":1773594000},"SBNT":{"icaoId":"SBNT","flightCategory":"VFR","rawOb":"METAR SBNT 151700Z 07009KT 9999 FEW030 31/24 Q1009","temp":31,"dewp":24,"wdir":70,"wspd":9,"visib":"6+","altim":1009,"clouds":[{"cover":"FEW","base":3000}],"obsTime":1773594000},"SBPA":{"icaoId":"SBPA","flightCategory":"VFR","rawOb":"METAR SBPA 151700Z 26006KT 180V290 9999 FEW030 31/19 Q1008","temp":31,"dewp":19,"wdir":260,"wspd":6,"visib":"6+","altim":1008,"clouds":[{"cover":"FEW","base":3000}],"obsTime":1773594000},"SBPJ":{"icaoId":"SBPJ","flightCategory":"VFR","rawOb":"METAR SBPJ 151700Z 35004KT 9999 FEW020 SCT050 30/23 Q1011","temp":30,"dewp":23,"wdir":350,"wspd":4,"visib":"6+","altim":1011,"clouds":[{"cover":"FEW","base":2000},{"cover":"SCT","base":5000}],"obsTime":1773594000},"SBPV":{"icaoId":"SBPV","flightCategory":"VFR","rawOb":"METAR SBPV 151700Z 02004KT 9999 SCT025 31/24 Q1009","temp":31,"dewp":24,"wdir":20,"wspd":4,"visib":"6+","altim":1009,"clouds":[{"cover":"SCT","base":2500}],"obsTime":1773594000},"SBRB":{"icaoId":"SBRB","flightCategory":"MVFR","rawOb":"METAR SBRB 151700Z 31007KT 9999 BKN023 31/25 Q1010","temp":31,"dewp":25,"wdir":310,"wspd":7,"visib":"6+","altim":1010,"clouds":[{"cover":"BKN","base":2300}],"obsTime":1773594000},"SBRF":{"icaoId":"SBRF","flightCategory":"VFR","rawOb":"METAR SBRF 151700Z 09009KT 060V150 9999 FEW020 31/24 Q1009","temp":31,"dewp":24,"wdir":90,"wspd":9,"visib":"6+","altim":1009,"clouds":[{"cover":"FEW","base":2000}],"obsTime":1773594000},"SBSG":{"icaoId":"SBSG","flightCategory":"VFR","rawOb":"METAR SBSG 151700Z 08009KT 9999 SCT030 32/22 Q1009","temp":32,"dewp":22,"wdir":80,"wspd":9,"visib":"6+","altim":1009,"clouds":[{"cover":"SCT","base":3000}],"obsTime":1773594000},"SBSL":{"icaoId":"SBSL","flightCategory":"MVFR","rawOb":"SPECI SBSL 151630Z 02008KT 5000 -TSRA BKN015 FEW025CB BKN080 25/24 Q1010 RERA","temp":25,"dewp":24,"wdir":20,"wspd":8,"visib":3.11,"altim":1010,"clouds":[{"cover":"BKN","base":1500},{"cover":"FEW","base":2500},{"cover":"BKN","base":8000}],"obsTime":1773592200},"SBSN":{"icaoId":"SBSN","flightCategory":"VFR","rawOb":"METAR SBSN 151700Z 02004KT 9999 SCT020 29/24 Q1010","temp":29,"dewp":24,"wdir":20,"wspd":4,"visib":"6+","altim":1010,"clouds":[{"cover":"SCT","base":2000}],"obsTime":1773594000},"SBSP":{"icaoId":"SBSP","flightCategory":"VFR","rawOb":"METAR SBSP 151700Z 26005KT 200V320 9999 VCSH BKN035 FEW040TCU 29/16 Q1014","temp":29,"dewp":16,"wdir":260,"wspd":5,"visib":"6+","altim":1014,"clouds":[{"cover":"BKN","base":3500},{"cover":"FEW","base":4000}],"obsTime":1773594000},"SBSV":{"icaoId":"SBSV","flightCategory":"VFR","rawOb":"METAR SBSV 151700Z 08012KT 9999 FEW023 30/24 Q1009","temp":30,"dewp":24,"wdir":80,"wspd":12,"visib":"6+","altim":1009,"clouds":[{"cover":"FEW","base":2300}],"obsTime":1773594000},"SBTE":{"icaoId":"SBTE","flightCategory":"VFR","rawOb":"METAR SBTE 151700Z 17004KT 080V240 9999 SCT020 FEW025TCU 32/25 Q1008","temp":32,"dewp":25,"wdir":170,"wspd":4,"visib":"6+","altim":1008,"clouds":[{"cover":"SCT","base":2000},{"cover":"FEW","base":2500}],"obsTime":1773594000},"SBUL":{"icaoId":"SBUL","flightCategory":"VFR","rawOb":"METAR SBUL 151700Z 29009KT 240V310 9999 4500S -TSRA SCT030 FEW040CB SCT100 22/19 Q1015","temp":22,"dewp":19,"wdir":290,"wspd":9,"visib":"6+","altim":1015,"clouds":[{"cover":"SCT","base":3000},{"cover":"FEW","base":4000},{"cover":"SCT","base":10000}],"obsTime":1773594000},"SBUR":{"icaoId":"SBUR","flightCategory":"VFR","rawOb":"METAR SBUR 151700Z 36002KT 9999 SCT045 FEW050TCU 30/17 Q1013","temp":30,"dewp":17,"wdir":360,"wspd":2,"visib":"6+","altim":1013,"clouds":[{"cover":"SCT","base":4500},{"cover":"FEW","base":5000}],"obsTime":1773594000},"SBCA":{"icaoId":"SBCA","flightCategory":"VFR","rawOb":"METAR SBCA 151700Z 34007G17KT 9999 SCT040 31/17 Q1013","temp":31,"dewp":17,"wdir":340,"wspd":7,"visib":"6+","altim":1013,"clouds":[{"cover":"SCT","base":4000}],"obsTime":1773594000},"SBAX":{"icaoId":"SBAX","flightCategory":"VFR","rawOb":"METAR SBAX 151700Z AUTO VRB03KT CAVOK 29/16 Q1014","temp":29,"dewp":16,"wdir":"VRB","wspd":3,"visib":"6+","altim":1014,"clouds":[],"obsTime":1773594000},"SBBH":{"icaoId":"SBBH","flightCategory":"VFR","rawOb":"METAR SBBH 151700Z 24003KT 9999 BKN043 32/19 Q1013","temp":32,"dewp":19,"wdir":240,"wspd":3,"visib":"6+","altim":1013,"clouds":[{"cover":"BKN","base":4300}],"obsTime":1773594000},"SBBQ":{"icaoId":"SBBQ","flightCategory":"VFR","rawOb":"METAR SBBQ 151700Z 23002KT 9999 BKN045 28/15 Q1017","temp":28,"dewp":15,"wdir":230,"wspd":2,"visib":"6+","altim":1017,"clouds":[{"cover":"BKN","base":4500}],"obsTime":1773594000},"SBBU":{"icaoId":"SBBU","flightCategory":"VFR","rawOb":"METAR SBBU 151700Z 22004KT 9999 SCT045 32/17 Q1012","temp":32,"dewp":17,"wdir":220,"wspd":4,"visib":"6+","altim":1012,"clouds":[{"cover":"SCT","base":4500}],"obsTime":1773594000},"SBAR":{"icaoId":"SBAR","flightCategory":"VFR","rawOb":"METAR SBAR 151700Z 10014KT 9999 FEW023 32/24 Q1009","temp":32,"dewp":24,"wdir":100,"wspd":14,"visib":"6+","altim":1009,"clouds":[{"cover":"FEW","base":2300}],"obsTime":1773594000},"SBCC":{"icaoId":"SBCC","flightCategory":"MVFR","rawOb":"METAR SBCC 151700Z 02007KT 9999 BKN025 FEW030TCU 26/21 Q1012","temp":26,"dewp":21,"wdir":20,"wspd":7,"visib":"6+","altim":1012,"clouds":[{"cover":"BKN","base":2500},{"cover":"FEW","base":3000}],"obsTime":1773594000},"SBCJ":{"icaoId":"SBCJ","flightCategory":"MVFR","rawOb":"METAR SBCJ 151700Z 08005KT 9999 BKN017 27/22 Q1015","temp":27,"dewp":22,"wdir":80,"wspd":5,"visib":"6+","altim":1015,"clouds":[{"cover":"BKN","base":1700}],"obsTime":1773594000},"SBCO":{"icaoId":"SBCO","flightCategory":"VFR","rawOb":"METAR SBCO 151700Z 24005KT 170V290 9999 FEW035 31/18 Q1008","temp":31,"dewp":18,"wdir":240,"wspd":5,"visib":"6+","altim":1008,"clouds":[{"cover":"FEW","base":3500}],"obsTime":1773594000},"SBDN":{"icaoId":"SBDN","flightCategory":"VFR","rawOb":"METAR SBDN 151700Z 33005KT 9999 SCT049 34/18 Q1011","temp":34,"dewp":18,"wdir":330,"wspd":5,"visib":"6+","altim":1011,"clouds":[{"cover":"SCT","base":4900}],"obsTime":1773594000},"SBES":{"icaoId":"SBES","flightCategory":"VFR","rawOb":"METAR SBES 151700Z 10009KT 070V130 9999 FEW020 29/// Q1010","temp":null,"dewp":null,"wdir":100,"wspd":9,"visib":"6+","altim":1010,"clouds":[{"cover":"FEW","base":2000}],"obsTime":1773594000},"SBGM":{"icaoId":"SBGM","flightCategory":"VFR","rawOb":"METAR SBGM 151700Z 29009KT 9999 SCT016 33/17 Q1009","temp":33,"dewp":17,"wdir":290,"wspd":9,"visib":"6+","altim":1009,"clouds":[{"cover":"SCT","base":1600}],"obsTime":1773594000},"SBIP":{"icaoId":"SBIP","flightCategory":"VFR","rawOb":"METAR SBIP 151700Z AUTO VRB01KT 9999 FEW034 31/22 Q1010","temp":31,"dewp":22,"wdir":"VRB","wspd":1,"visib":"6+","altim":1010,"clouds":[{"cover":"FEW","base":3400}],"obsTime":1773594000},"SBKG":{"icaoId":"SBKG","flightCategory":"VFR","rawOb":"METAR SBKG 151700Z 09012KT 050V120 9999 SCT030 30/21 Q1011","temp":30,"dewp":21,"wdir":90,"wspd":12,"visib":"6+","altim":1011,"clouds":[{"cover":"SCT","base":3000}],"obsTime":1773594000},"SBOI":{"icaoId":"SBOI","flightCategory":"VFR","rawOb":"METAR SBOI 151700Z AUTO 06006KT 030V160 9999 -RA FEW029 BKN037 27/25 Q1010","temp":27,"dewp":25,"wdir":60,"wspd":6,"visib":"6+","altim":1010,"clouds":[{"cover":"FEW","base":2900},{"cover":"BKN","base":3700}],"obsTime":1773594000},"SBPB":{"icaoId":"SBPB","flightCategory":"MVFR","rawOb":"METAR SBPB 151700Z 04008KT 9999 BKN020 30/25 Q1009","temp":30,"dewp":25,"wdir":40,"wspd":8,"visib":"6+","altim":1009,"clouds":[{"cover":"BKN","base":2000}],"obsTime":1773594000},"SBPL":{"icaoId":"SBPL","flightCategory":"VFR","rawOb":"METAR SBPL 151700Z 30003KT 9999 SCT030 35/20 Q1009","temp":35,"dewp":20,"wdir":300,"wspd":3,"visib":"6+","altim":1009,"clouds":[{"cover":"SCT","base":3000}],"obsTime":1773594000},"SBPP":{"icaoId":"SBPP","flightCategory":"MVFR","rawOb":"METAR SBPP 151700Z 36012KT 9999 BKN025 31/18 Q1011","temp":31,"dewp":18,"wdir":360,"wspd":12,"visib":"6+","altim":1011,"clouds":[{"cover":"BKN","base":2500}],"obsTime":1773594000},"SBPS":{"icaoId":"SBPS","flightCategory":"MVFR","rawOb":"METAR SBPS 151700Z 11006KT 9999 FEW014 BKN017 BKN050 27/25 Q1010","temp":27,"dewp":25,"wdir":110,"wspd":6,"visib":"6+","altim":1010,"clouds":[{"cover":"FEW","base":1400},{"cover":"BKN","base":1700},{"cover":"BKN","base":5000}],"obsTime":1773594000},"SBSC":{"icaoId":"SBSC","flightCategory":"VFR","rawOb":"METAR SBSC 151700Z 21007KT 9999 FEW030 31/23 Q1009","temp":31,"dewp":23,"wdir":210,"wspd":7,"visib":"6+","altim":1009,"clouds":[{"cover":"FEW","base":3000}],"obsTime":1773594000},"SBSJ":{"icaoId":"SBSJ","flightCategory":"VFR","rawOb":"METAR SBSJ 151700Z 28003KT 9999 FEW035 30/16 Q1013","temp":30,"dewp":16,"wdir":280,"wspd":3,"visib":"6+","altim":1013,"clouds":[{"cover":"FEW","base":3500}],"obsTime":1773594000},"SBSM":{"icaoId":"SBSM","flightCategory":"VFR","rawOb":"METAR SBSM 151700Z VRB05KT CAVOK 32/20 Q1008","temp":32,"dewp":20,"wdir":"VRB","wspd":5,"visib":"6+","altim":1008,"clouds":[],"obsTime":1773594000},"SBSR":{"icaoId":"SBSR","flightCategory":"VFR","rawOb":"METAR SBSR 151700Z 12003KT 9999 SCT025 31/18 Q1011","temp":31,"dewp":18,"wdir":120,"wspd":3,"visib":"6+","altim":1011,"clouds":[{"cover":"SCT","base":2500}],"obsTime":1773594000},"SBTF":{"icaoId":"SBTF","flightCategory":"VFR","rawOb":"METAR SBTF 151700Z 08005KT 9999 SCT020 33/27 Q1009","temp":33,"dewp":27,"wdir":80,"wspd":5,"visib":"6+","altim":1009,"clouds":[{"cover":"SCT","base":2000}],"obsTime":1773594000},"SBTT":{"icaoId":"SBTT","flightCategory":"VFR","rawOb":"METAR SBTT 151700Z 17002KT 9999 SCT017 BKN100 28/22 Q1011","temp":28,"dewp":22,"wdir":170,"wspd":2,"visib":"6+","altim":1011,"clouds":[{"cover":"SCT","base":1700},{"cover":"BKN","base":10000}],"obsTime":1773594000},"SBUY":{"icaoId":"SBUY","flightCategory":"VFR","rawOb":"METAR SBUY 151700Z 15003KT 9999 SCT025 FEW030TCU SCT100 32/25 Q1008","temp":32,"dewp":25,"wdir":150,"wspd":3,"visib":"6+","altim":1008,"clouds":[{"cover":"SCT","base":2500},{"cover":"FEW","base":3000},{"cover":"SCT","base":10000}],"obsTime":1773594000},"SBVH":{"icaoId":"SBVH","flightCategory":"VFR","rawOb":"METAR SBVH 151700Z 34012KT 9999 SCT025 SCT080 28/22 Q1012","temp":28,"dewp":22,"wdir":340,"wspd":12,"visib":"6+","altim":1012,"clouds":[{"cover":"SCT","base":2500},{"cover":"SCT","base":8000}],"obsTime":1773594000},"SBAU":{"icaoId":"SBAU","flightCategory":"VFR","rawOb":"METAR SBAU 151700Z 01006KT 9999 FEW030 34/19 Q1010","temp":34,"dewp":19,"wdir":10,"wspd":6,"visib":"6+","altim":1010,"clouds":[{"cover":"FEW","base":3000}],"obsTime":1773594000},"SBTC":{"icaoId":"SBTC","flightCategory":"VFR","rawOb":"METAR SBTC 151700Z 04007KT 9999 SCT025 SCT070 30/24 Q1009","temp":30,"dewp":24,"wdir":40,"wspd":7,"visib":"6+","altim":1009,"clouds":[{"cover":"SCT","base":2500},{"cover":"SCT","base":7000}],"obsTime":1773594000},"SBAF":{"icaoId":"SBAF","flightCategory":"VFR","rawOb":"METAR SBAF 151700Z VRB04KT CAVOK 33/19 Q1009","temp":33,"dewp":19,"wdir":"VRB","wspd":4,"visib":"6+","altim":1009,"clouds":[],"obsTime":1773594000},"SBAN":{"icaoId":"SBAN","flightCategory":"MVFR","rawOb":"METAR SBAN 151700Z 26010KT 9999 VCSH VCTS FEW004 BKN030 FEW035CB 22/19 Q1016","temp":22,"dewp":19,"wdir":260,"wspd":10,"visib":"6+","altim":1016,"clouds":[{"cover":"FEW","base":400},{"cover":"BKN","base":3000},{"cover":"FEW","base":3500}],"obsTime":1773594000},"SBGW":{"icaoId":"SBGW","flightCategory":"VFR","rawOb":"METAR SBGW 151700Z 24004KT 190V290 9999 SCT030 32/12 Q1012","temp":32,"dewp":12,"wdir":240,"wspd":4,"visib":"6+","altim":1012,"clouds":[{"cover":"SCT","base":3000}],"obsTime":1773594000},"SBIH":{"icaoId":"SBIH","flightCategory":"VFR","rawOb":"METAR SBIH 151700Z 03008KT 9999 SCT015 FEW025TCU 29/24 Q1010","temp":29,"dewp":24,"wdir":30,"wspd":8,"visib":"6+","altim":1010,"clouds":[{"cover":"SCT","base":1500},{"cover":"FEW","base":2500}],"obsTime":1773594000},"SBJP":{"icaoId":"SBJP","flightCategory":"VFR","rawOb":"METAR SBJP 151700Z 08010KT 060V120 9999 SCT040 31/23 Q1009","temp":31,"dewp":23,"wdir":80,"wspd":10,"visib":"6+","altim":1009,"clouds":[{"cover":"SCT","base":4000}],"obsTime":1773594000},"SBJR":{"icaoId":"SBJR","flightCategory":"VFR","rawOb":"METAR SBJR 151700Z 16009KT 9999 FEW025 31/23 Q1009","temp":31,"dewp":23,"wdir":160,"wspd":9,"visib":"6+","altim":1009,"clouds":[{"cover":"FEW","base":2500}],"obsTime":1773594000},"SBJV":{"icaoId":"SBJV","flightCategory":"VFR","rawOb":"METAR SBJV 151700Z 14004KT 9999 SCT035 32/25 Q1008","temp":32,"dewp":25,"wdir":140,"wspd":4,"visib":"6+","altim":1008,"clouds":[{"cover":"SCT","base":3500}],"obsTime":1773594000},"SBLE":{"icaoId":"SBLE","flightCategory":"VFR","rawOb":"METAR SBLE 151700Z AUTO VRB03KT CAVOK 32/22 Q1011","temp":32,"dewp":22,"wdir":"VRB","wspd":3,"visib":"6+","altim":1011,"clouds":[],"obsTime":1773594000},"SBLS":{"icaoId":"SBLS","flightCategory":"VFR","rawOb":"METAR SBLS 151700Z 18004KT 080V200 9999 BKN035 29/19 Q1013","temp":29,"dewp":19,"wdir":180,"wspd":4,"visib":"6+","altim":1013,"clouds":[{"cover":"BKN","base":3500}],"obsTime":1773594000},"SBMT":{"icaoId":"SBMT","flightCategory":"MVFR","rawOb":"METAR SBMT 151700Z 28007KT 9999 BKN030 FEW040TCU 30/17 Q1013","temp":30,"dewp":17,"wdir":280,"wspd":7,"visib":"6+","altim":1013,"clouds":[{"cover":"BKN","base":3000},{"cover":"FEW","base":4000}],"obsTime":1773594000},"SBPF":{"icaoId":"SBPF","flightCategory":"VFR","rawOb":"METAR SBPF 151700Z 28012KT 9999 FEW040 30/14 Q1012","temp":30,"dewp":14,"wdir":280,"wspd":12,"visib":"6+","altim":1012,"clouds":[{"cover":"FEW","base":4000}],"obsTime":1773594000},"SBST":{"icaoId":"SBST","flightCategory":"VFR","rawOb":"METAR SBST 151700Z 18005KT 9999 SCT030 29/21 Q1009","temp":29,"dewp":21,"wdir":180,"wspd":5,"visib":"6+","altim":1009,"clouds":[{"cover":"SCT","base":3000}],"obsTime":1773594000},"SBTA":{"icaoId":"SBTA","flightCategory":"VFR","rawOb":"METAR SBTA 151700Z VRB05KT 9999 FEW030 31/15 Q1012","temp":31,"dewp":15,"wdir":"VRB","wspd":5,"visib":"6+","altim":1012,"clouds":[{"cover":"FEW","base":3000}],"obsTime":1773594000}}}