{"updated":1778708954,"count":84,"data":{"SBMQ":{"icaoId":"SBMQ","flightCategory":"VFR","rawOb":"METAR SBMQ 132000Z 26005KT 9999 FEW008 SCT100 25/24 Q1011","temp":25,"dewp":24,"wdir":260,"wspd":5,"visib":"6+","altim":1011,"clouds":[{"cover":"FEW","base":800},{"cover":"SCT","base":10000}],"obsTime":1778702400},"SBMA":{"icaoId":"SBMA","flightCategory":"MVFR","rawOb":"METAR SBMA 132000Z 00000KT 5000 -TSRA SCT020 FEW023CB SCT100 24/23 Q1013","temp":24,"dewp":23,"wdir":0,"wspd":0,"visib":3.11,"altim":1013,"clouds":[{"cover":"SCT","base":2000},{"cover":"FEW","base":2300},{"cover":"SCT","base":10000}],"obsTime":1778702400},"SBCG":{"icaoId":"SBCG","flightCategory":"VFR","rawOb":"METAR SBCG 132000Z 29006KT CAVOK 25/14 Q1016","temp":25,"dewp":14,"wdir":290,"wspd":6,"visib":"6+","altim":1016,"clouds":[],"obsTime":1778702400},"SBME":{"icaoId":"SBME","flightCategory":"VFR","rawOb":"METAR SBME 132000Z 10008KT CAVOK 25/21 Q1014","temp":25,"dewp":21,"wdir":100,"wspd":8,"visib":"6+","altim":1014,"clouds":[],"obsTime":1778702400},"SBFI":{"icaoId":"SBFI","flightCategory":"VFR","rawOb":"METAR SBFI 132000Z 33002KT CAVOK 23/13 Q1015","temp":23,"dewp":13,"wdir":330,"wspd":2,"visib":"6+","altim":1015,"clouds":[],"obsTime":1778702400},"SBMG":{"icaoId":"SBMG","flightCategory":"VFR","rawOb":"METAR SBMG 132000Z 20003KT CAVOK 20/12 Q1016","temp":20,"dewp":12,"wdir":200,"wspd":3,"visib":"6+","altim":1016,"clouds":[],"obsTime":1778702400},"SBFL":{"icaoId":"SBFL","flightCategory":"VFR","rawOb":"METAR SBFL 132000Z 12006KT 9999 FEW030 20/16 Q1016","temp":20,"dewp":16,"wdir":120,"wspd":6,"visib":"6+","altim":1016,"clouds":[{"cover":"FEW","base":3000}],"obsTime":1778702400},"SBMK":{"icaoId":"SBMK","flightCategory":"VFR","rawOb":"METAR SBMK 132000Z 08006KT 9999 FEW030 27/16 Q1018","temp":27,"dewp":16,"wdir":80,"wspd":6,"visib":"6+","altim":1018,"clouds":[{"cover":"FEW","base":3000}],"obsTime":1778702400},"SBBV":{"icaoId":"SBBV","flightCategory":"VFR","rawOb":"METAR SBBV 132000Z 14008KT 9999 SCT030 FEW035TCU SCT100 30/23 Q1012","temp":30,"dewp":23,"wdir":140,"wspd":8,"visib":"6+","altim":1012,"clouds":[{"cover":"SCT","base":3000},{"cover":"FEW","base":3500},{"cover":"SCT","base":10000}],"obsTime":1778702400},"SBMO":{"icaoId":"SBMO","flightCategory":"VFR","rawOb":"METAR SBMO 132000Z 12008KT 9999 FEW015 SCT026 27/22 Q1014","temp":27,"dewp":22,"wdir":120,"wspd":8,"visib":"6+","altim":1014,"clouds":[{"cover":"FEW","base":1500},{"cover":"SCT","base":2600}],"obsTime":1778702400},"SBBE":{"icaoId":"SBBE","flightCategory":"MVFR","rawOb":"METAR SBBE 132000Z 34004KT 9999 FEW020 BKN025 FEW030TCU 28/24 Q1011","temp":28,"dewp":24,"wdir":340,"wspd":4,"visib":"6+","altim":1011,"clouds":[{"cover":"FEW","base":2000},{"cover":"BKN","base":2500},{"cover":"FEW","base":3000}],"obsTime":1778702400},"SBFZ":{"icaoId":"SBFZ","flightCategory":"VFR","rawOb":"METAR SBFZ 132000Z 12004KT 9999 FEW025 28/24 Q1011","temp":28,"dewp":24,"wdir":120,"wspd":4,"visib":"6+","altim":1011,"clouds":[{"cover":"FEW","base":2500}],"obsTime":1778702400},"SBNT":{"icaoId":"SBNT","flightCategory":"VFR","rawOb":"METAR SBNT 132000Z 14009KT 9999 FEW030 28/24 Q1012","temp":28,"dewp":24,"wdir":140,"wspd":9,"visib":"6+","altim":1012,"clouds":[{"cover":"FEW","base":3000}],"obsTime":1778702400},"SBGL":{"icaoId":"SBGL","flightCategory":"VFR","rawOb":"METAR SBGL 132000Z 13008KT CAVOK 24/19 Q1015","temp":24,"dewp":19,"wdir":130,"wspd":8,"visib":"6+","altim":1015,"clouds":[],"obsTime":1778702400},"SBPA":{"icaoId":"SBPA","flightCategory":"VFR","rawOb":"METAR SBPA 132000Z 29008KT CAVOK 20/09 Q1016","temp":20,"dewp":9,"wdir":290,"wspd":8,"visib":"6+","altim":1016,"clouds":[],"obsTime":1778702400},"SBCP":{"icaoId":"SBCP","flightCategory":"VFR","rawOb":"METAR SBCP 132000Z 06007KT 9999 FEW030 25/20 Q1015","temp":25,"dewp":20,"wdir":60,"wspd":7,"visib":"6+","altim":1015,"clouds":[{"cover":"FEW","base":3000}],"obsTime":1778702400},"SBPJ":{"icaoId":"SBPJ","flightCategory":"VFR","rawOb":"METAR SBPJ 132000Z 24005KT 9999 FEW040 33/23 Q1012","temp":33,"dewp":23,"wdir":240,"wspd":5,"visib":"6+","altim":1012,"clouds":[{"cover":"FEW","base":4000}],"obsTime":1778702400},"SBAT":{"icaoId":"SBAT","flightCategory":"VFR","rawOb":"METAR SBAT 132000Z 06002KT 9999 FEW030 BKN100 33/22 Q1012","temp":33,"dewp":22,"wdir":60,"wspd":2,"visib":"6+","altim":1012,"clouds":[{"cover":"FEW","base":3000},{"cover":"BKN","base":10000}],"obsTime":1778702400},"SBPV":{"icaoId":"SBPV","flightCategory":"VFR","rawOb":"METAR SBPV 132000Z 25002KT 9999 BKN035 27/23 Q1013","temp":27,"dewp":23,"wdir":250,"wspd":2,"visib":"6+","altim":1013,"clouds":[{"cover":"BKN","base":3500}],"obsTime":1778702400},"SBGO":{"icaoId":"SBGO","flightCategory":"VFR","rawOb":"METAR SBGO 132000Z 31004KT 9999 FEW045 29/17 Q1017","temp":29,"dewp":17,"wdir":310,"wspd":4,"visib":"6+","altim":1017,"clouds":[{"cover":"FEW","base":4500}],"obsTime":1778702400},"SBRB":{"icaoId":"SBRB","flightCategory":"VFR","rawOb":"METAR SBRB 132000Z 34003KT 9999 FEW030 SCT100 27/20 Q1014","temp":27,"dewp":20,"wdir":340,"wspd":3,"visib":"6+","altim":1014,"clouds":[{"cover":"FEW","base":3000},{"cover":"SCT","base":10000}],"obsTime":1778702400},"SBCR":{"icaoId":"SBCR","flightCategory":"VFR","rawOb":"METAR SBCR 132000Z 01004KT 310V050 CAVOK 26/15 Q1013","temp":26,"dewp":15,"wdir":10,"wspd":4,"visib":"6+","altim":1013,"clouds":[],"obsTime":1778702400},"SBRF":{"icaoId":"SBRF","flightCategory":"VFR","rawOb":"METAR SBRF 132000Z 16011KT 9999 VCSH SCT023 BKN060 28/23 Q1013","temp":28,"dewp":23,"wdir":160,"wspd":11,"visib":"6+","altim":1013,"clouds":[{"cover":"SCT","base":2300},{"cover":"BKN","base":6000}],"obsTime":1778702400},"SBSG":{"icaoId":"SBSG","flightCategory":"VFR","rawOb":"METAR SBSG 132000Z 13006KT 100V160 9999 FEW039 27/23 Q1012","temp":27,"dewp":23,"wdir":130,"wspd":6,"visib":"6+","altim":1012,"clouds":[{"cover":"FEW","base":3900}],"obsTime":1778702400},"SBGR":{"icaoId":"SBGR","flightCategory":"VFR","rawOb":"METAR SBGR 132000Z 00000KT CAVOK 23/11 Q1018","temp":23,"dewp":11,"wdir":0,"wspd":0,"visib":"6+","altim":1018,"clouds":[],"obsTime":1778702400},"SBSL":{"icaoId":"SBSL","flightCategory":"MVFR","rawOb":"METAR SBSL 132000Z 05002KT 6000 -RA BKN020 OVC100 24/23 Q1012 RETS","temp":24,"dewp":23,"wdir":50,"wspd":2,"visib":3.73,"altim":1012,"clouds":[{"cover":"BKN","base":2000},{"cover":"OVC","base":10000}],"obsTime":1778702400},"SBCB":{"icaoId":"SBCB","flightCategory":"VFR","rawOb":"METAR SBCB 132000Z 08012KT CAVOK 24/20 Q1015","temp":24,"dewp":20,"wdir":80,"wspd":12,"visib":"6+","altim":1015,"clouds":[],"obsTime":1778702400},"SBHT":{"icaoId":"SBHT","flightCategory":"MVFR","rawOb":"METAR SBHT 132000Z 03003KT 5000 -RA BR SCT015 SCT025 OVC100 25/24 Q1013","temp":25,"dewp":24,"wdir":30,"wspd":3,"visib":3.11,"altim":1013,"clouds":[{"cover":"SCT","base":1500},{"cover":"SCT","base":2500},{"cover":"OVC","base":10000}],"obsTime":1778702400},"SBBR":{"icaoId":"SBBR","flightCategory":"VFR","rawOb":"METAR SBBR 132000Z 10005KT 9999 SCT045 26/16 Q1019","temp":26,"dewp":16,"wdir":100,"wspd":5,"visib":"6+","altim":1019,"clouds":[{"cover":"SCT","base":4500}],"obsTime":1778702400},"SBEG":{"icaoId":"SBEG","flightCategory":"VFR","rawOb":"METAR SBEG 132000Z 29005KT 250V360 9999 SCT025 FEW030TCU 29/24 Q1012","temp":29,"dewp":24,"wdir":290,"wspd":5,"visib":"6+","altim":1012,"clouds":[{"cover":"SCT","base":2500},{"cover":"FEW","base":3000}],"obsTime":1778702400},"SBSN":{"icaoId":"SBSN","flightCategory":"VFR","rawOb":"METAR SBSN 132000Z 32006KT 9999 SCT015 FEW025TCU BKN070 27/24 Q1012","temp":27,"dewp":24,"wdir":320,"wspd":6,"visib":"6+","altim":1012,"clouds":[{"cover":"SCT","base":1500},{"cover":"FEW","base":2500},{"cover":"BKN","base":7000}],"obsTime":1778702400},"SBCT":{"icaoId":"SBCT","flightCategory":"VFR","rawOb":"METAR SBCT 132000Z 21004KT CAVOK 20/05 Q1018","temp":20,"dewp":5,"wdir":210,"wspd":4,"visib":"6+","altim":1018,"clouds":[],"obsTime":1778702400},"SBSP":{"icaoId":"SBSP","flightCategory":"VFR","rawOb":"METAR SBSP 132000Z 19009KT CAVOK 22/12 Q1019","temp":22,"dewp":12,"wdir":190,"wspd":9,"visib":"6+","altim":1019,"clouds":[],"obsTime":1778702400},"SBIL":{"icaoId":"SBIL","flightCategory":"VFR","rawOb":"METAR SBIL 132000Z 16003KT 130V210 CAVOK 27/23 Q1016","temp":27,"dewp":23,"wdir":160,"wspd":3,"visib":"6+","altim":1016,"clouds":[],"obsTime":1778702400},"SBSV":{"icaoId":"SBSV","flightCategory":"MVFR","rawOb":"METAR SBSV 132000Z 12006KT 080V150 9999 VCSH BKN023 FEW025TCU 28/22 Q1015","temp":28,"dewp":22,"wdir":120,"wspd":6,"visib":"6+","altim":1015,"clouds":[{"cover":"BKN","base":2300},{"cover":"FEW","base":2500}],"obsTime":1778702400},"SBTE":{"icaoId":"SBTE","flightCategory":"VFR","rawOb":"METAR SBTE 132000Z 13007KT 9999 SCT020 BKN080 30/23 Q1010","temp":30,"dewp":23,"wdir":130,"wspd":7,"visib":"6+","altim":1010,"clouds":[{"cover":"SCT","base":2000},{"cover":"BKN","base":8000}],"obsTime":1778702400},"SBCF":{"icaoId":"SBCF","flightCategory":"VFR","rawOb":"METAR SBCF 132000Z 07006KT 9999 SCT040 FEW050TCU 25/18 Q1019","temp":25,"dewp":18,"wdir":70,"wspd":6,"visib":"6+","altim":1019,"clouds":[{"cover":"SCT","base":4000},{"cover":"FEW","base":5000}],"obsTime":1778702400},"SBJU":{"icaoId":"SBJU","flightCategory":"VFR","rawOb":"METAR SBJU 132000Z 07003KT 9999 FEW021 BKN070 27/21 Q1014","temp":27,"dewp":21,"wdir":70,"wspd":3,"visib":"6+","altim":1014,"clouds":[{"cover":"FEW","base":2100},{"cover":"BKN","base":7000}],"obsTime":1778702400},"SBUL":{"icaoId":"SBUL","flightCategory":"VFR","rawOb":"METAR SBUL 132000Z 36007KT 9999 VCSH SCT045 SCT100 27/15 Q1018","temp":27,"dewp":15,"wdir":360,"wspd":7,"visib":"6+","altim":1018,"clouds":[{"cover":"SCT","base":4500},{"cover":"SCT","base":10000}],"obsTime":1778702400},"SBCZ":{"icaoId":"SBCZ","flightCategory":"MVFR","rawOb":"METAR SBCZ 132000Z 15003KT 9999 BKN030 BKN100 28/21 Q1014","temp":28,"dewp":21,"wdir":150,"wspd":3,"visib":"6+","altim":1014,"clouds":[{"cover":"BKN","base":3000},{"cover":"BKN","base":10000}],"obsTime":1778702400},"SBUR":{"icaoId":"SBUR","flightCategory":"VFR","rawOb":"METAR SBUR 132000Z 20009KT CAVOK 27/15 Q1018","temp":27,"dewp":15,"wdir":200,"wspd":9,"visib":"6+","altim":1018,"clouds":[],"obsTime":1778702400},"SBKP":{"icaoId":"SBKP","flightCategory":"VFR","rawOb":"METAR SBKP 132000Z 00000KT CAVOK 24/10 Q1018","temp":24,"dewp":10,"wdir":0,"wspd":0,"visib":"6+","altim":1018,"clouds":[],"obsTime":1778702400},"SBVT":{"icaoId":"SBVT","flightCategory":"VFR","rawOb":"METAR SBVT 132000Z 04010KT CAVOK 26/21 Q1016","temp":26,"dewp":21,"wdir":40,"wspd":10,"visib":"6+","altim":1016,"clouds":[],"obsTime":1778702400},"SBLO":{"icaoId":"SBLO","flightCategory":"VFR","rawOb":"METAR SBLO 132000Z 02005KT CAVOK 21/11 Q1017","temp":21,"dewp":11,"wdir":20,"wspd":5,"visib":"6+","altim":1017,"clouds":[],"obsTime":1778702400},"SBPB":{"icaoId":"SBPB","flightCategory":"MVFR","rawOb":"METAR SBPB 132000Z 08005KT 9999 BKN016 OVC080 27/25 Q1012","temp":27,"dewp":25,"wdir":80,"wspd":5,"visib":"6+","altim":1012,"clouds":[{"cover":"BKN","base":1600},{"cover":"OVC","base":8000}],"obsTime":1778702400},"SBCJ":{"icaoId":"SBCJ","flightCategory":"VFR","rawOb":"METAR SBCJ 132000Z 00000KT 9999 TS FEW030CB SCT100 27/23 Q1016","temp":27,"dewp":23,"wdir":0,"wspd":0,"visib":"6+","altim":1016,"clouds":[{"cover":"FEW","base":3000},{"cover":"SCT","base":10000}],"obsTime":1778702400},"SBAX":{"icaoId":"SBAX","flightCategory":"VFR","rawOb":"METAR SBAX 132000Z 25004KT 9999 SCT035 25/16 Q1018","temp":25,"dewp":16,"wdir":250,"wspd":4,"visib":"6+","altim":1018,"clouds":[{"cover":"SCT","base":3500}],"obsTime":1778702400},"SBBH":{"icaoId":"SBBH","flightCategory":"VFR","rawOb":"METAR SBBH 132000Z 12008KT 9999 SCT040 BKN100 24/18 Q1018","temp":24,"dewp":18,"wdir":120,"wspd":8,"visib":"6+","altim":1018,"clouds":[{"cover":"SCT","base":4000},{"cover":"BKN","base":10000}],"obsTime":1778702400},"SBVH":{"icaoId":"SBVH","flightCategory":"VFR","rawOb":"METAR SBVH 132000Z 31004KT 9999 FEW040 28/20 Q1015","temp":28,"dewp":20,"wdir":310,"wspd":4,"visib":"6+","altim":1015,"clouds":[{"cover":"FEW","base":4000}],"obsTime":1778702400},"SBAR":{"icaoId":"SBAR","flightCategory":"VFR","rawOb":"METAR SBAR 132000Z 13007KT 9999 VCSH FEW024 SCT060 BKN080 28/22 Q1014","temp":28,"dewp":22,"wdir":130,"wspd":7,"visib":"6+","altim":1014,"clouds":[{"cover":"FEW","base":2400},{"cover":"SCT","base":6000},{"cover":"BKN","base":8000}],"obsTime":1778702400},"SBBU":{"icaoId":"SBBU","flightCategory":"VFR","rawOb":"METAR SBBU 132000Z 26003KT 9999 FEW035 26/09 Q1017","temp":26,"dewp":9,"wdir":260,"wspd":3,"visib":"6+","altim":1017,"clouds":[{"cover":"FEW","base":3500}],"obsTime":1778702400},"SBCA":{"icaoId":"SBCA","flightCategory":"VFR","rawOb":"METAR SBCA 132000Z 32005KT CAVOK 20/07 Q1018","temp":20,"dewp":7,"wdir":320,"wspd":5,"visib":"6+","altim":1018,"clouds":[],"obsTime":1778702400},"SBCO":{"icaoId":"SBCO","flightCategory":"VFR","rawOb":"METAR SBCO 132000Z 27006KT CAVOK 19/10 Q1016","temp":19,"dewp":10,"wdir":270,"wspd":6,"visib":"6+","altim":1016,"clouds":[],"obsTime":1778702400},"SBDN":{"icaoId":"SBDN","flightCategory":"VFR","rawOb":"METAR SBDN 132000Z 28001KT CAVOK 25/10 Q1017","temp":25,"dewp":10,"wdir":280,"wspd":1,"visib":"6+","altim":1017,"clouds":[],"obsTime":1778702400},"SBES":{"icaoId":"SBES","flightCategory":"VFR","rawOb":"METAR SBES 132000Z VRB07KT 9999 FEW040 24/// Q1015","temp":null,"dewp":null,"wdir":"VRB","wspd":7,"visib":"6+","altim":1015,"clouds":[{"cover":"FEW","base":4000}],"obsTime":1778702400},"SBIP":{"icaoId":"SBIP","flightCategory":"VFR","rawOb":"METAR SBIP 132000Z AUTO 36005KT CAVOK 25/19 Q1017","temp":25,"dewp":19,"wdir":360,"wspd":5,"visib":"6+","altim":1017,"clouds":[],"obsTime":1778702400},"SBKG":{"icaoId":"SBKG","flightCategory":"VFR","rawOb":"METAR SBKG 132000Z 13004KT 9999 FEW016 BKN080 24/21 Q1015","temp":24,"dewp":21,"wdir":130,"wspd":4,"visib":"6+","altim":1015,"clouds":[{"cover":"FEW","base":1600},{"cover":"BKN","base":8000}],"obsTime":1778702400},"SBOI":{"icaoId":"SBOI","flightCategory":"VFR","rawOb":"METAR SBOI 132000Z AUTO 06006KT 020V090 9999 FEW037 30/24 Q1012","temp":30,"dewp":24,"wdir":60,"wspd":6,"visib":"6+","altim":1012,"clouds":[{"cover":"FEW","base":3700}],"obsTime":1778702400},"SBPL":{"icaoId":"SBPL","flightCategory":"VFR","rawOb":"METAR SBPL 132000Z 13006KT 9999 FEW025 SCT080 32/15 Q1013","temp":32,"dewp":15,"wdir":130,"wspd":6,"visib":"6+","altim":1013,"clouds":[{"cover":"FEW","base":2500},{"cover":"SCT","base":8000}],"obsTime":1778702400},"SBPP":{"icaoId":"SBPP","flightCategory":"VFR","rawOb":"METAR SBPP 132000Z 07006KT CAVOK 20/13 Q1017","temp":20,"dewp":13,"wdir":70,"wspd":6,"visib":"6+","altim":1017,"clouds":[],"obsTime":1778702400},"SBPS":{"icaoId":"SBPS","flightCategory":"VFR","rawOb":"METAR SBPS 132000Z 16004KT 9999 SCT025 26/23 Q1016","temp":26,"dewp":23,"wdir":160,"wspd":4,"visib":"6+","altim":1016,"clouds":[{"cover":"SCT","base":2500}],"obsTime":1778702400},"SBSC":{"icaoId":"SBSC","flightCategory":"VFR","rawOb":"METAR SBSC 132000Z 19007KT CAVOK 23/19 Q1016","temp":23,"dewp":19,"wdir":190,"wspd":7,"visib":"6+","altim":1016,"clouds":[],"obsTime":1778702400},"SBSJ":{"icaoId":"SBSJ","flightCategory":"VFR","rawOb":"METAR SBSJ 132000Z 16003KT CAVOK 23/13 Q1017","temp":23,"dewp":13,"wdir":160,"wspd":3,"visib":"6+","altim":1017,"clouds":[],"obsTime":1778702400},"SBSM":{"icaoId":"SBSM","flightCategory":"VFR","rawOb":"METAR SBSM 132000Z VRB02KT CAVOK 19/10 Q1016","temp":19,"dewp":10,"wdir":"VRB","wspd":2,"visib":"6+","altim":1016,"clouds":[],"obsTime":1778702400},"SBSR":{"icaoId":"SBSR","flightCategory":"VFR","rawOb":"METAR SBSR 132000Z 24007KT 9999 FEW040 SCT070 27/06 Q1017","temp":27,"dewp":6,"wdir":240,"wspd":7,"visib":"6+","altim":1017,"clouds":[{"cover":"FEW","base":4000},{"cover":"SCT","base":7000}],"obsTime":1778702400},"SBTF":{"icaoId":"SBTF","flightCategory":"VFR","rawOb":"METAR SBTF 132000Z 33003KT 9999 FEW015 BKN090 28/24 Q1012","temp":28,"dewp":24,"wdir":330,"wspd":3,"visib":"6+","altim":1012,"clouds":[{"cover":"FEW","base":1500},{"cover":"BKN","base":9000}],"obsTime":1778702400},"SBTT":{"icaoId":"SBTT","flightCategory":"MVFR","rawOb":"METAR SBTT 132000Z 27003KT 9999 OVC020 23/20 Q1014","temp":23,"dewp":20,"wdir":270,"wspd":3,"visib":"6+","altim":1014,"clouds":[{"cover":"OVC","base":2000}],"obsTime":1778702400},"SBTU":{"icaoId":"SBTU","flightCategory":"VFR","rawOb":"METAR SBTU 132000Z AUTO 13006KT 9999 // ///////// ///// Q1014","temp":null,"dewp":null,"wdir":130,"wspd":6,"visib":"6+","altim":1014,"clouds":[],"obsTime":1778702400},"SBUY":{"icaoId":"SBUY","flightCategory":"VFR","rawOb":"METAR SBUY 132000Z 08003KT 9999 SCT025 BKN100 29/23 Q1011","temp":29,"dewp":23,"wdir":80,"wspd":3,"visib":"6+","altim":1011,"clouds":[{"cover":"SCT","base":2500},{"cover":"BKN","base":10000}],"obsTime":1778702400},"SBCC":{"icaoId":"SBCC","flightCategory":"VFR","rawOb":"METAR SBCC 132000Z /////KT 9999 SCT030 SCT100 ///// Q1013","temp":null,"dewp":null,"wdir":null,"wspd":null,"visib":"6+","altim":1013,"clouds":[{"cover":"SCT","base":3000},{"cover":"SCT","base":10000}],"obsTime":1778702400},"SBTA":{"icaoId":"SBTA","flightCategory":"VFR","rawOb":"METAR SBTA 132000Z 28004KT 9999 FEW035 24/14 Q1016","temp":24,"dewp":14,"wdir":280,"wspd":4,"visib":"6+","altim":1016,"clouds":[{"cover":"FEW","base":3500}],"obsTime":1778702400},"SBJP":{"icaoId":"SBJP","flightCategory":"MVFR","rawOb":"METAR SBJP 132000Z 16011KT 9999 BKN020 25/24 Q1013","temp":25,"dewp":24,"wdir":160,"wspd":11,"visib":"6+","altim":1013,"clouds":[{"cover":"BKN","base":2000}],"obsTime":1778702400},"SBAN":{"icaoId":"SBAN","flightCategory":"VFR","rawOb":"METAR SBAN 132000Z 07002KT 9999 FEW040 26/15 Q1020","temp":26,"dewp":15,"wdir":70,"wspd":2,"visib":"6+","altim":1020,"clouds":[{"cover":"FEW","base":4000}],"obsTime":1778702400},"SBLE":{"icaoId":"SBLE","flightCategory":"VFR","rawOb":"METAR SBLE 132000Z AUTO 17003KT 120V210 CAVOK 26/18 Q1017","temp":26,"dewp":18,"wdir":170,"wspd":3,"visib":"6+","altim":1017,"clouds":[],"obsTime":1778702400},"SBJV":{"icaoId":"SBJV","flightCategory":"VFR","rawOb":"METAR SBJV 132000Z 12003KT CAVOK 22/14 Q1015","temp":22,"dewp":14,"wdir":120,"wspd":3,"visib":"6+","altim":1015,"clouds":[],"obsTime":1778702400},"SBNM":{"icaoId":"SBNM","flightCategory":"VFR","rawOb":"METAR SBNM 132000Z 23007KT CAVOK 21/09 Q1017","temp":21,"dewp":9,"wdir":230,"wspd":7,"visib":"6+","altim":1017,"clouds":[],"obsTime":1778702400},"SBPF":{"icaoId":"SBPF","flightCategory":"VFR","rawOb":"METAR SBPF 132000Z 23006KT CAVOK 18/04 Q1018","temp":18,"dewp":4,"wdir":230,"wspd":6,"visib":"6+","altim":1018,"clouds":[],"obsTime":1778702400},"SBIH":{"icaoId":"SBIH","flightCategory":"VFR","rawOb":"METAR SBIH 132000Z 00000KT 9999 -RA FEW017 FEW025TCU BKN100 25/25 Q1012","temp":25,"dewp":25,"wdir":0,"wspd":0,"visib":"6+","altim":1012,"clouds":[{"cover":"FEW","base":1700},{"cover":"FEW","base":2500},{"cover":"BKN","base":10000}],"obsTime":1778702400},"SBAF":{"icaoId":"SBAF","flightCategory":"VFR","rawOb":"METAR SBAF 132000Z 18009KT CAVOK 24/19 Q1015","temp":24,"dewp":19,"wdir":180,"wspd":9,"visib":"6+","altim":1015,"clouds":[],"obsTime":1778702400},"SBGW":{"icaoId":"SBGW","flightCategory":"VFR","rawOb":"METAR SBGW 132000Z 25003KT 210V290 9999 FEW027 24/14 Q1017","temp":24,"dewp":14,"wdir":250,"wspd":3,"visib":"6+","altim":1017,"clouds":[{"cover":"FEW","base":2700}],"obsTime":1778702400},"SBJR":{"icaoId":"SBJR","flightCategory":"VFR","rawOb":"METAR SBJR 132000Z 21003KT CAVOK 23/19 Q1015","temp":23,"dewp":19,"wdir":210,"wspd":3,"visib":"6+","altim":1015,"clouds":[],"obsTime":1778702400},"SBLS":{"icaoId":"SBLS","flightCategory":"VFR","rawOb":"METAR SBLS 132000Z 12007KT 9999 SCT030 FEW045TCU SCT100 23/18 Q1018","temp":23,"dewp":18,"wdir":120,"wspd":7,"visib":"6+","altim":1018,"clouds":[{"cover":"SCT","base":3000},{"cover":"FEW","base":4500},{"cover":"SCT","base":10000}],"obsTime":1778702400},"SBMT":{"icaoId":"SBMT","flightCategory":"VFR","rawOb":"METAR SBMT 132000Z 26003KT CAVOK 23/09 Q1018","temp":23,"dewp":9,"wdir":260,"wspd":3,"visib":"6+","altim":1018,"clouds":[],"obsTime":1778702400},"SBST":{"icaoId":"SBST","flightCategory":"VFR","rawOb":"METAR SBST 132000Z 15003KT 9999 SCT045 21/17 Q1016","temp":21,"dewp":17,"wdir":150,"wspd":3,"visib":"6+","altim":1016,"clouds":[{"cover":"SCT","base":4500}],"obsTime":1778702400}}}