{"updated":1775779012,"count":74,"data":{"SBPV":{"icaoId":"SBPV","flightCategory":"VFR","rawOb":"METAR SBPV 092200Z 00000KT 9999 SCT030 FEW035TCU 27/25 Q1009","temp":27,"dewp":25,"wdir":0,"wspd":0,"visib":"6+","altim":1009,"clouds":[{"cover":"SCT","base":3000},{"cover":"FEW","base":3500}],"obsTime":1775772000},"SBFL":{"icaoId":"SBFL","flightCategory":"VFR","rawOb":"METAR SBFL 092200Z 18011KT CAVOK 23/15 Q1014","temp":23,"dewp":15,"wdir":180,"wspd":11,"visib":"6+","altim":1014,"clouds":[],"obsTime":1775772000},"SBMG":{"icaoId":"SBMG","flightCategory":"VFR","rawOb":"METAR SBMG 092200Z 14004KT CAVOK 23/19 Q1014","temp":23,"dewp":19,"wdir":140,"wspd":4,"visib":"6+","altim":1014,"clouds":[],"obsTime":1775772000},"SBMK":{"icaoId":"SBMK","flightCategory":"VFR","rawOb":"METAR SBMK 092200Z 32002KT 9999 -RA SCT035 BKN090 22/21 Q1016 RETS","temp":22,"dewp":21,"wdir":320,"wspd":2,"visib":"6+","altim":1016,"clouds":[{"cover":"SCT","base":3500},{"cover":"BKN","base":9000}],"obsTime":1775772000},"SBFZ":{"icaoId":"SBFZ","flightCategory":"VFR","rawOb":"METAR SBFZ 092200Z 01003KT 340V070 CAVOK 28/24 Q1011","temp":28,"dewp":24,"wdir":10,"wspd":3,"visib":"6+","altim":1011,"clouds":[],"obsTime":1775772000},"SBBE":{"icaoId":"SBBE","flightCategory":"VFR","rawOb":"METAR SBBE 092200Z 03007KT 9999 BKN045 BKN070 29/25 Q1010","temp":29,"dewp":25,"wdir":30,"wspd":7,"visib":"6+","altim":1010,"clouds":[{"cover":"BKN","base":4500},{"cover":"BKN","base":7000}],"obsTime":1775772000},"SBMO":{"icaoId":"SBMO","flightCategory":"VFR","rawOb":"METAR SBMO 092200Z 10004KT 9999 FEW030 25/22 Q1012","temp":25,"dewp":22,"wdir":100,"wspd":4,"visib":"6+","altim":1012,"clouds":[{"cover":"FEW","base":3000}],"obsTime":1775772000},"SBMQ":{"icaoId":"SBMQ","flightCategory":"VFR","rawOb":"METAR SBMQ 092200Z 04009KT 9999 FEW025TCU 29/25 Q1009","temp":29,"dewp":25,"wdir":40,"wspd":9,"visib":"6+","altim":1009,"clouds":[{"cover":"FEW","base":2500}],"obsTime":1775772000},"SBGL":{"icaoId":"SBGL","flightCategory":"VFR","rawOb":"METAR SBGL 092200Z 24006KT 9999 FEW020 BKN040 26/23 Q1013","temp":26,"dewp":23,"wdir":240,"wspd":6,"visib":"6+","altim":1013,"clouds":[{"cover":"FEW","base":2000},{"cover":"BKN","base":4000}],"obsTime":1775772000},"SBNT":{"icaoId":"SBNT","flightCategory":"MVFR","rawOb":"METAR SBNT 092200Z 12008KT 080V140 9999 VCTS BKN022 FEW030CB BKN070 27/23 Q1011","temp":27,"dewp":23,"wdir":120,"wspd":8,"visib":"6+","altim":1011,"clouds":[{"cover":"BKN","base":2200},{"cover":"FEW","base":3000},{"cover":"BKN","base":7000}],"obsTime":1775772000},"SBBV":{"icaoId":"SBBV","flightCategory":"MVFR","rawOb":"METAR SBBV 092200Z 12006KT 8000 -TSRA FEW010 BKN040 FEW045CB BKN080 27/24 Q1009","temp":27,"dewp":24,"wdir":120,"wspd":6,"visib":4.97,"altim":1009,"clouds":[{"cover":"FEW","base":1000},{"cover":"BKN","base":4000},{"cover":"FEW","base":4500},{"cover":"BKN","base":8000}],"obsTime":1775772000},"SBPA":{"icaoId":"SBPA","flightCategory":"VFR","rawOb":"METAR SBPA 092200Z 16006KT 9999 FEW045 22/15 Q1016","temp":22,"dewp":15,"wdir":160,"wspd":6,"visib":"6+","altim":1016,"clouds":[{"cover":"FEW","base":4500}],"obsTime":1775772000},"SBPJ":{"icaoId":"SBPJ","flightCategory":"VFR","rawOb":"METAR SBPJ 092200Z 15006KT 9999 VCTS FEW027 FEW033CB 26/24 Q1012","temp":26,"dewp":24,"wdir":150,"wspd":6,"visib":"6+","altim":1012,"clouds":[{"cover":"FEW","base":2700},{"cover":"FEW","base":3300}],"obsTime":1775772000},"SBCT":{"icaoId":"SBCT","flightCategory":"VFR","rawOb":"METAR SBCT 092200Z 12006KT CAVOK 17/15 Q1018","temp":17,"dewp":15,"wdir":120,"wspd":6,"visib":"6+","altim":1018,"clouds":[],"obsTime":1775772000},"SBME":{"icaoId":"SBME","flightCategory":"VFR","rawOb":"METAR SBME 092200Z 22008KT CAVOK 28/22 Q1012","temp":28,"dewp":22,"wdir":220,"wspd":8,"visib":"6+","altim":1012,"clouds":[],"obsTime":1775772000},"SBMA":{"icaoId":"SBMA","flightCategory":"VFR","rawOb":"METAR SBMA 092200Z 09001KT 9999 SCT025 29/25 Q1010","temp":29,"dewp":25,"wdir":90,"wspd":1,"visib":"6+","altim":1010,"clouds":[{"cover":"SCT","base":2500}],"obsTime":1775772000},"SBCG":{"icaoId":"SBCG","flightCategory":"VFR","rawOb":"METAR SBCG 092200Z 24006KT 9999 FEW040 FEW050TCU 25/21 Q1014","temp":25,"dewp":21,"wdir":240,"wspd":6,"visib":"6+","altim":1014,"clouds":[{"cover":"FEW","base":4000},{"cover":"FEW","base":5000}],"obsTime":1775772000},"SBGO":{"icaoId":"SBGO","flightCategory":"VFR","rawOb":"METAR SBGO 092200Z 10002KT 9999 FEW048 FEW050TCU 27/21 Q1015","temp":27,"dewp":21,"wdir":100,"wspd":2,"visib":"6+","altim":1015,"clouds":[{"cover":"FEW","base":4800},{"cover":"FEW","base":5000}],"obsTime":1775772000},"SBBR":{"icaoId":"SBBR","flightCategory":"MVFR","rawOb":"METAR SBBR 092200Z 02004KT 350V060 8000 -TSRA FEW020 SCT045 FEW050CB BKN090 21/19 Q1018 RERA RETSRA","temp":21,"dewp":19,"wdir":20,"wspd":4,"visib":4.97,"altim":1018,"clouds":[{"cover":"FEW","base":2000},{"cover":"SCT","base":4500},{"cover":"FEW","base":5000},{"cover":"BKN","base":9000}],"obsTime":1775772000},"SBRB":{"icaoId":"SBRB","flightCategory":"MVFR","rawOb":"METAR SBRB 092200Z 24003KT 8000 BKN030 FEW040TCU 29/24 Q1009","temp":29,"dewp":24,"wdir":240,"wspd":3,"visib":4.97,"altim":1009,"clouds":[{"cover":"BKN","base":3000},{"cover":"FEW","base":4000}],"obsTime":1775772000},"SBGR":{"icaoId":"SBGR","flightCategory":"MVFR","rawOb":"METAR SBGR 092200Z 15005KT 9999 BKN015 21/17 Q1017","temp":21,"dewp":17,"wdir":150,"wspd":5,"visib":"6+","altim":1017,"clouds":[{"cover":"BKN","base":1500}],"obsTime":1775772000},"SBRF":{"icaoId":"SBRF","flightCategory":"VFR","rawOb":"METAR SBRF 092200Z 13008KT 9999 FEW023 28/23 Q1012","temp":28,"dewp":23,"wdir":130,"wspd":8,"visib":"6+","altim":1012,"clouds":[{"cover":"FEW","base":2300}],"obsTime":1775772000},"SBSG":{"icaoId":"SBSG","flightCategory":"MVFR","rawOb":"METAR SBSG 092200Z VRB02KT 9999 BKN023 FEW026TCU BKN070 26/23 Q1011","temp":26,"dewp":23,"wdir":"VRB","wspd":2,"visib":"6+","altim":1011,"clouds":[{"cover":"BKN","base":2300},{"cover":"FEW","base":2600},{"cover":"BKN","base":7000}],"obsTime":1775772000},"SBCZ":{"icaoId":"SBCZ","flightCategory":"MVFR","rawOb":"METAR SBCZ 092200Z 30002KT 8000 TS VCSH FEW030 FEW030CB BKN100 28/25 Q1009","temp":28,"dewp":25,"wdir":300,"wspd":2,"visib":4.97,"altim":1009,"clouds":[{"cover":"FEW","base":3000},{"cover":"FEW","base":3000},{"cover":"BKN","base":10000}],"obsTime":1775772000},"SBIL":{"icaoId":"SBIL","flightCategory":"VFR","rawOb":"METAR SBIL 092200Z 08008KT CAVOK 28/23 Q1012","temp":28,"dewp":23,"wdir":80,"wspd":8,"visib":"6+","altim":1012,"clouds":[],"obsTime":1775772000},"SBSL":{"icaoId":"SBSL","flightCategory":"VFR","rawOb":"METAR SBSL 092200Z 07006KT 9999 FEW020 BKN080 26/25 Q1010","temp":26,"dewp":25,"wdir":70,"wspd":6,"visib":"6+","altim":1010,"clouds":[{"cover":"FEW","base":2000},{"cover":"BKN","base":8000}],"obsTime":1775772000},"SBJU":{"icaoId":"SBJU","flightCategory":"VFR","rawOb":"METAR SBJU 092200Z 00000KT CAVOK 26/22 Q1013","temp":26,"dewp":22,"wdir":0,"wspd":0,"visib":"6+","altim":1013,"clouds":[],"obsTime":1775772000},"SBSN":{"icaoId":"SBSN","flightCategory":"VFR","rawOb":"METAR SBSN 092200Z 11005KT CAVOK 28/25 Q1009","temp":28,"dewp":25,"wdir":110,"wspd":5,"visib":"6+","altim":1009,"clouds":[],"obsTime":1775772000},"SBSP":{"icaoId":"SBSP","flightCategory":"MVFR","rawOb":"METAR SBSP 092200Z 16010KT 9999 BKN013 19/17 Q1018","temp":19,"dewp":17,"wdir":160,"wspd":10,"visib":"6+","altim":1018,"clouds":[{"cover":"BKN","base":1300}],"obsTime":1775772000},"SBEG":{"icaoId":"SBEG","flightCategory":"MVFR","rawOb":"METAR SBEG 092200Z 15002KT 9999 BKN015 SCT022 FEW025TCU 25/24 Q1009","temp":25,"dewp":24,"wdir":150,"wspd":2,"visib":"6+","altim":1009,"clouds":[{"cover":"BKN","base":1500},{"cover":"SCT","base":2200},{"cover":"FEW","base":2500}],"obsTime":1775772000},"SBCF":{"icaoId":"SBCF","flightCategory":"VFR","rawOb":"METAR SBCF 092200Z 28004KT 9999 VCTS SCT040 FEW045CB 26/18 Q1017","temp":26,"dewp":18,"wdir":280,"wspd":4,"visib":"6+","altim":1017,"clouds":[{"cover":"SCT","base":4000},{"cover":"FEW","base":4500}],"obsTime":1775772000},"SBSV":{"icaoId":"SBSV","flightCategory":"VFR","rawOb":"METAR SBSV 092200Z 10007KT CAVOK 28/21 Q1012","temp":28,"dewp":21,"wdir":100,"wspd":7,"visib":"6+","altim":1012,"clouds":[],"obsTime":1775772000},"SBTE":{"icaoId":"SBTE","flightCategory":"VFR","rawOb":"METAR SBTE 092200Z 06003KT CAVOK 30/24 Q1010","temp":30,"dewp":24,"wdir":60,"wspd":3,"visib":"6+","altim":1010,"clouds":[],"obsTime":1775772000},"SBKP":{"icaoId":"SBKP","flightCategory":"VFR","rawOb":"METAR SBKP 092200Z 17004KT 9999 FEW048 26/20 Q1015","temp":26,"dewp":20,"wdir":170,"wspd":4,"visib":"6+","altim":1015,"clouds":[{"cover":"FEW","base":4800}],"obsTime":1775772000},"SBFI":{"icaoId":"SBFI","flightCategory":"VFR","rawOb":"METAR SBFI 092200Z 23004KT CAVOK 22/17 Q1015","temp":22,"dewp":17,"wdir":230,"wspd":4,"visib":"6+","altim":1015,"clouds":[],"obsTime":1775772000},"SBUL":{"icaoId":"SBUL","flightCategory":"VFR","rawOb":"METAR SBUL 092200Z 21007KT 170V230 9999 VCTS FEW048 FEW050CB SCT070 25/19 Q1017","temp":25,"dewp":19,"wdir":210,"wspd":7,"visib":"6+","altim":1017,"clouds":[{"cover":"FEW","base":4800},{"cover":"FEW","base":5000},{"cover":"SCT","base":7000}],"obsTime":1775772000},"SBLO":{"icaoId":"SBLO","flightCategory":"VFR","rawOb":"METAR SBLO 092200Z 23003KT CAVOK 24/18 Q1015","temp":24,"dewp":18,"wdir":230,"wspd":3,"visib":"6+","altim":1015,"clouds":[],"obsTime":1775772000},"SBUR":{"icaoId":"SBUR","flightCategory":"VFR","rawOb":"METAR SBUR 092200Z 15004KT 9999 FEW025TCU 24/19 Q1016","temp":24,"dewp":19,"wdir":150,"wspd":4,"visib":"6+","altim":1016,"clouds":[{"cover":"FEW","base":2500}],"obsTime":1775772000},"SBVT":{"icaoId":"SBVT","flightCategory":"VFR","rawOb":"METAR SBVT 092200Z 26002KT 9999 VCTS FEW030 FEW040CB SCT050 25/23 Q1012","temp":25,"dewp":23,"wdir":260,"wspd":2,"visib":"6+","altim":1012,"clouds":[{"cover":"FEW","base":3000},{"cover":"FEW","base":4000},{"cover":"SCT","base":5000}],"obsTime":1775772000},"SBCP":{"icaoId":"SBCP","flightCategory":"VFR","rawOb":"METAR SBCP 092200Z 21012KT 9999 FEW025 SCT040 28/22 Q1012","temp":28,"dewp":22,"wdir":210,"wspd":12,"visib":"6+","altim":1012,"clouds":[{"cover":"FEW","base":2500},{"cover":"SCT","base":4000}],"obsTime":1775772000},"SBCC":{"icaoId":"SBCC","flightCategory":"MVFR","rawOb":"METAR SBCC 092200Z 03005KT 9000 -TSRA FEW015 BKN020 FEW025CB BKN100 23/21 Q1012","temp":23,"dewp":21,"wdir":30,"wspd":5,"visib":5.59,"altim":1012,"clouds":[{"cover":"FEW","base":1500},{"cover":"BKN","base":2000},{"cover":"FEW","base":2500},{"cover":"BKN","base":10000}],"obsTime":1775772000},"SBBH":{"icaoId":"SBBH","flightCategory":"VFR","rawOb":"METAR SBBH 092200Z 25008KT 9999 SCT035 FEW040TCU 25/20 Q1016","temp":25,"dewp":20,"wdir":250,"wspd":8,"visib":"6+","altim":1016,"clouds":[{"cover":"SCT","base":3500},{"cover":"FEW","base":4000}],"obsTime":1775772000},"SBCO":{"icaoId":"SBCO","flightCategory":"VFR","rawOb":"METAR SBCO 092200Z 12002KT 9999 SCT045 20/15 Q1016","temp":20,"dewp":15,"wdir":120,"wspd":2,"visib":"6+","altim":1016,"clouds":[{"cover":"SCT","base":4500}],"obsTime":1775772000},"SBPL":{"icaoId":"SBPL","flightCategory":"VFR","rawOb":"METAR SBPL 092200Z 33003KT 9999 FEW030 SCT070 27/22 Q1012","temp":27,"dewp":22,"wdir":330,"wspd":3,"visib":"6+","altim":1012,"clouds":[{"cover":"FEW","base":3000},{"cover":"SCT","base":7000}],"obsTime":1775772000},"SBAR":{"icaoId":"SBAR","flightCategory":"VFR","rawOb":"METAR SBAR 092200Z 11009KT 9999 FEW025 28/22 Q1012","temp":28,"dewp":22,"wdir":110,"wspd":9,"visib":"6+","altim":1012,"clouds":[{"cover":"FEW","base":2500}],"obsTime":1775772000},"SBPS":{"icaoId":"SBPS","flightCategory":"VFR","rawOb":"METAR SBPS 092200Z 04006KT 9999 FEW020 27/23 Q1012","temp":27,"dewp":23,"wdir":40,"wspd":6,"visib":"6+","altim":1012,"clouds":[{"cover":"FEW","base":2000}],"obsTime":1775772000},"SBCA":{"icaoId":"SBCA","flightCategory":"VFR","rawOb":"METAR SBCA 092200Z 19008KT 9999 FEW030 18/14 Q1017","temp":18,"dewp":14,"wdir":190,"wspd":8,"visib":"6+","altim":1017,"clouds":[{"cover":"FEW","base":3000}],"obsTime":1775772000},"SBSC":{"icaoId":"SBSC","flightCategory":"VFR","rawOb":"METAR SBSC 092200Z 18006KT 9999 BKN035 25/22 Q1013","temp":25,"dewp":22,"wdir":180,"wspd":6,"visib":"6+","altim":1013,"clouds":[{"cover":"BKN","base":3500}],"obsTime":1775772000},"SBSJ":{"icaoId":"SBSJ","flightCategory":"VFR","rawOb":"METAR SBSJ 092200Z 16009KT 9999 SCT045 BKN080 21/17 Q1016","temp":21,"dewp":17,"wdir":160,"wspd":9,"visib":"6+","altim":1016,"clouds":[{"cover":"SCT","base":4500},{"cover":"BKN","base":8000}],"obsTime":1775772000},"SBDN":{"icaoId":"SBDN","flightCategory":"VFR","rawOb":"METAR SBDN 092200Z 20005KT CAVOK 26/19 Q1013","temp":26,"dewp":19,"wdir":200,"wspd":5,"visib":"6+","altim":1013,"clouds":[],"obsTime":1775772000},"SBSM":{"icaoId":"SBSM","flightCategory":"VFR","rawOb":"METAR SBSM 092200Z 32001KT 9999 FEW045 17/14 Q1017","temp":17,"dewp":14,"wdir":320,"wspd":1,"visib":"6+","altim":1017,"clouds":[{"cover":"FEW","base":4500}],"obsTime":1775772000},"SBES":{"icaoId":"SBES","flightCategory":"MVFR","rawOb":"METAR SBES 092200Z 24010KT 120V280 8000 -RA BKN010 BKN020 24/// Q1013 RERA","temp":null,"dewp":null,"wdir":240,"wspd":10,"visib":4.97,"altim":1013,"clouds":[{"cover":"BKN","base":1000},{"cover":"BKN","base":2000}],"obsTime":1775772000},"SBAX":{"icaoId":"SBAX","flightCategory":"VFR","rawOb":"METAR SBAX 092200Z 01001KT CAVOK 23/20 Q1017","temp":23,"dewp":20,"wdir":10,"wspd":1,"visib":"6+","altim":1017,"clouds":[],"obsTime":1775772000},"SBSR":{"icaoId":"SBSR","flightCategory":"VFR","rawOb":"METAR SBSR 092200Z 20004KT CAVOK 26/19 Q1014","temp":26,"dewp":19,"wdir":200,"wspd":4,"visib":"6+","altim":1014,"clouds":[],"obsTime":1775772000},"SBIP":{"icaoId":"SBIP","flightCategory":"VFR","rawOb":"METAR SBIP 092200Z AUTO 00000KT CAVOK 24/22 Q1012","temp":24,"dewp":22,"wdir":0,"wspd":0,"visib":"6+","altim":1012,"clouds":[],"obsTime":1775772000},"SBOI":{"icaoId":"SBOI","flightCategory":"VFR","rawOb":"METAR SBOI 092200Z AUTO 05004KT 9999 FEW031 27/23 Q1011","temp":27,"dewp":23,"wdir":50,"wspd":4,"visib":"6+","altim":1011,"clouds":[{"cover":"FEW","base":3100}],"obsTime":1775772000},"SBTT":{"icaoId":"SBTT","flightCategory":"VFR","rawOb":"METAR SBTT 092200Z 04002KT 9999 VCSH SCT030 FEW035TCU SCT100 27/24 Q1008 RERA","temp":27,"dewp":24,"wdir":40,"wspd":2,"visib":"6+","altim":1008,"clouds":[{"cover":"SCT","base":3000},{"cover":"FEW","base":3500},{"cover":"SCT","base":10000}],"obsTime":1775772000},"SBBU":{"icaoId":"SBBU","flightCategory":"VFR","rawOb":"METAR SBBU 092200Z 23004KT CAVOK 27/21 Q1014","temp":27,"dewp":21,"wdir":230,"wspd":4,"visib":"6+","altim":1014,"clouds":[],"obsTime":1775772000},"SBKG":{"icaoId":"SBKG","flightCategory":"VFR","rawOb":"METAR SBKG 092200Z 08010KT CAVOK 25/22 Q1014","temp":25,"dewp":22,"wdir":80,"wspd":10,"visib":"6+","altim":1014,"clouds":[],"obsTime":1775772000},"SBVH":{"icaoId":"SBVH","flightCategory":"MVFR","rawOb":"METAR SBVH 092200Z VRB02KT 5000 -RA FEW004 SCT025 BKN040 22/22 Q1014 RETS","temp":22,"dewp":22,"wdir":"VRB","wspd":2,"visib":3.11,"altim":1014,"clouds":[{"cover":"FEW","base":400},{"cover":"SCT","base":2500},{"cover":"BKN","base":4000}],"obsTime":1775772000},"SBTF":{"icaoId":"SBTF","flightCategory":"VFR","rawOb":"METAR SBTF 092200Z 00000KT 9999 FEW020 BKN090 25/24 Q1008","temp":25,"dewp":24,"wdir":0,"wspd":0,"visib":"6+","altim":1008,"clouds":[{"cover":"FEW","base":2000},{"cover":"BKN","base":9000}],"obsTime":1775772000},"SBUY":{"icaoId":"SBUY","flightCategory":"VFR","rawOb":"METAR SBUY 092200Z 33002KT 9999 FEW025 FEW030TCU SCT100 28/26 Q1008","temp":28,"dewp":26,"wdir":330,"wspd":2,"visib":"6+","altim":1008,"clouds":[{"cover":"FEW","base":2500},{"cover":"FEW","base":3000},{"cover":"SCT","base":10000}],"obsTime":1775772000},"SBJP":{"icaoId":"SBJP","flightCategory":"VFR","rawOb":"METAR SBJP 092200Z 11006KT 9999 FEW020 SCT100 27/24 Q1012","temp":27,"dewp":24,"wdir":110,"wspd":6,"visib":"6+","altim":1012,"clouds":[{"cover":"FEW","base":2000},{"cover":"SCT","base":10000}],"obsTime":1775772000},"SBJV":{"icaoId":"SBJV","flightCategory":"VFR","rawOb":"METAR SBJV 092200Z 11004KT 9999 FEW015 BKN040 23/19 Q1014","temp":23,"dewp":19,"wdir":110,"wspd":4,"visib":"6+","altim":1014,"clouds":[{"cover":"FEW","base":1500},{"cover":"BKN","base":4000}],"obsTime":1775772000},"SBPF":{"icaoId":"SBPF","flightCategory":"VFR","rawOb":"METAR SBPF 092300Z 17005KT CAVOK 16/12 Q1018","temp":16,"dewp":12,"wdir":170,"wspd":5,"visib":"6+","altim":1018,"clouds":[],"obsTime":1775775600},"SBAF":{"icaoId":"SBAF","flightCategory":"MVFR","rawOb":"METAR SBAF 092200Z 22007KT 8000 -DZ FEW017 BKN025 BKN033 25/25 Q1013","temp":25,"dewp":25,"wdir":220,"wspd":7,"visib":4.97,"altim":1013,"clouds":[{"cover":"FEW","base":1700},{"cover":"BKN","base":2500},{"cover":"BKN","base":3300}],"obsTime":1775772000},"SBJR":{"icaoId":"SBJR","flightCategory":"MVFR","rawOb":"METAR SBJR 092200Z 22002KT 9999 BKN018 BKN050 26/23 Q1013","temp":26,"dewp":23,"wdir":220,"wspd":2,"visib":"6+","altim":1013,"clouds":[{"cover":"BKN","base":1800},{"cover":"BKN","base":5000}],"obsTime":1775772000},"SBLS":{"icaoId":"SBLS","flightCategory":"VFR","rawOb":"METAR SBLS 092200Z 27004KT 9999 VCTS SCT040 FEW045CB 26/18 Q1016","temp":26,"dewp":18,"wdir":270,"wspd":4,"visib":"6+","altim":1016,"clouds":[{"cover":"SCT","base":4000},{"cover":"FEW","base":4500}],"obsTime":1775772000},"SBMT":{"icaoId":"SBMT","flightCategory":"MVFR","rawOb":"METAR SBMT 092200Z 16007KT 130V200 9999 OVC019 20/17 Q1017","temp":20,"dewp":17,"wdir":160,"wspd":7,"visib":"6+","altim":1017,"clouds":[{"cover":"OVC","base":1900}],"obsTime":1775772000},"SBST":{"icaoId":"SBST","flightCategory":"MVFR","rawOb":"METAR SBST 092200Z 24003KT 9999 BKN030 25/19 Q1013","temp":25,"dewp":19,"wdir":240,"wspd":3,"visib":"6+","altim":1013,"clouds":[{"cover":"BKN","base":3000}],"obsTime":1775772000},"SBTA":{"icaoId":"SBTA","flightCategory":"VFR","rawOb":"METAR SBTA 092200Z 18010KT 9999 BKN035 22/18 Q1015","temp":22,"dewp":18,"wdir":180,"wspd":10,"visib":"6+","altim":1015,"clouds":[{"cover":"BKN","base":3500}],"obsTime":1775772000},"SBLE":{"icaoId":"SBLE","flightCategory":"VFR","rawOb":"METAR SBLE 092200Z AUTO VRB01KT 9999 SCT048 24/24 Q1014","temp":24,"dewp":24,"wdir":"VRB","wspd":1,"visib":"6+","altim":1014,"clouds":[{"cover":"SCT","base":4800}],"obsTime":1775772000},"SBAN":{"icaoId":"SBAN","flightCategory":"VFR","rawOb":"METAR SBAN 092200Z 15004KT 9999 -RA VCTS SCT030 FEW035CB BKN100 23/19 Q1018","temp":23,"dewp":19,"wdir":150,"wspd":4,"visib":"6+","altim":1018,"clouds":[{"cover":"SCT","base":3000},{"cover":"FEW","base":3500},{"cover":"BKN","base":10000}],"obsTime":1775772000},"SBGW":{"icaoId":"SBGW","flightCategory":"VFR","rawOb":"METAR SBGW 092200Z 15004KT 100V200 9999 BKN045 25/17 Q1014","temp":25,"dewp":17,"wdir":150,"wspd":4,"visib":"6+","altim":1014,"clouds":[{"cover":"BKN","base":4500}],"obsTime":1775772000}}}