{"updated":1775065216,"count":87,"data":{"SBRF":{"icaoId":"SBRF","flightCategory":"MVFR","rawOb":"METAR SBRF 011600Z 26002KT 9999 VCSH FEW006 BKN016 BKN050 26/25 Q1010","temp":26,"dewp":25,"wdir":260,"wspd":2,"visib":"6+","altim":1010,"clouds":[{"cover":"FEW","base":600},{"cover":"BKN","base":1600},{"cover":"BKN","base":5000}],"obsTime":1775059200},"SBMA":{"icaoId":"SBMA","flightCategory":"VFR","rawOb":"METAR SBMA 011600Z 35004KT 9999 SCT020 FEW023TCU 31/25 Q1010","temp":31,"dewp":25,"wdir":350,"wspd":4,"visib":"6+","altim":1010,"clouds":[{"cover":"SCT","base":2000},{"cover":"FEW","base":2300}],"obsTime":1775059200},"SBBE":{"icaoId":"SBBE","flightCategory":"VFR","rawOb":"METAR SBBE 011600Z 35010KT 9999 SCT020 BKN045 29/25 Q1010","temp":29,"dewp":25,"wdir":350,"wspd":10,"visib":"6+","altim":1010,"clouds":[{"cover":"SCT","base":2000},{"cover":"BKN","base":4500}],"obsTime":1775059200},"SBME":{"icaoId":"SBME","flightCategory":"VFR","rawOb":"METAR SBME 011600Z 05012KT 9999 FEW030 SCT100 33/22 Q1013","temp":33,"dewp":22,"wdir":50,"wspd":12,"visib":"6+","altim":1013,"clouds":[{"cover":"FEW","base":3000},{"cover":"SCT","base":10000}],"obsTime":1775059200},"SBFI":{"icaoId":"SBFI","flightCategory":"VFR","rawOb":"METAR SBFI 011600Z 36007KT 9999 FEW030 30/21 Q1010","temp":30,"dewp":21,"wdir":360,"wspd":7,"visib":"6+","altim":1010,"clouds":[{"cover":"FEW","base":3000}],"obsTime":1775059200},"SBMG":{"icaoId":"SBMG","flightCategory":"VFR","rawOb":"METAR SBMG 011600Z 01007KT 9999 4000SW TS VCSH SCT020 FEW030CB BKN080 24/20 Q1013","temp":24,"dewp":20,"wdir":10,"wspd":7,"visib":"6+","altim":1013,"clouds":[{"cover":"SCT","base":2000},{"cover":"FEW","base":3000},{"cover":"BKN","base":8000}],"obsTime":1775059200},"SBMK":{"icaoId":"SBMK","flightCategory":"VFR","rawOb":"METAR SBMK 011600Z 08009KT 9999 SCT040 SCT080 29/19 Q1015","temp":29,"dewp":19,"wdir":80,"wspd":9,"visib":"6+","altim":1015,"clouds":[{"cover":"SCT","base":4000},{"cover":"SCT","base":8000}],"obsTime":1775059200},"SBFL":{"icaoId":"SBFL","flightCategory":"VFR","rawOb":"METAR SBFL 011600Z 35009KT 320V020 9999 FEW032 28/21 Q1011","temp":28,"dewp":21,"wdir":350,"wspd":9,"visib":"6+","altim":1011,"clouds":[{"cover":"FEW","base":3200}],"obsTime":1775059200},"SBCG":{"icaoId":"SBCG","flightCategory":"VFR","rawOb":"METAR SBCG 011600Z 28006KT 240V330 9999 SCT040 31/18 Q1013","temp":31,"dewp":18,"wdir":280,"wspd":6,"visib":"6+","altim":1013,"clouds":[{"cover":"SCT","base":4000}],"obsTime":1775059200},"SBMO":{"icaoId":"SBMO","flightCategory":"MVFR","rawOb":"METAR SBMO 011600Z 05008KT 9999 BKN016 OVC050 27/25 Q1011","temp":27,"dewp":25,"wdir":50,"wspd":8,"visib":"6+","altim":1011,"clouds":[{"cover":"BKN","base":1600},{"cover":"OVC","base":5000}],"obsTime":1775059200},"SBCP":{"icaoId":"SBCP","flightCategory":"VFR","rawOb":"METAR SBCP 011600Z 08011KT 9999 SCT020 31/22 Q1013","temp":31,"dewp":22,"wdir":80,"wspd":11,"visib":"6+","altim":1013,"clouds":[{"cover":"SCT","base":2000}],"obsTime":1775059200},"SBMQ":{"icaoId":"SBMQ","flightCategory":"VFR","rawOb":"METAR SBMQ 011600Z 23002KT 9999 FEW025 29/25 Q1011","temp":29,"dewp":25,"wdir":230,"wspd":2,"visib":"6+","altim":1011,"clouds":[{"cover":"FEW","base":2500}],"obsTime":1775059200},"SBFZ":{"icaoId":"SBFZ","flightCategory":"MVFR","rawOb":"METAR SBFZ 011600Z 10007KT 070V130 9999 BKN030 30/24 Q1009","temp":30,"dewp":24,"wdir":100,"wspd":7,"visib":"6+","altim":1009,"clouds":[{"cover":"BKN","base":3000}],"obsTime":1775059200},"SBNT":{"icaoId":"SBNT","flightCategory":"MVFR","rawOb":"METAR SBNT 011600Z 13002KT 9999 FEW007 BKN020 FEW025TCU BKN100 25/23 Q1010","temp":25,"dewp":23,"wdir":130,"wspd":2,"visib":"6+","altim":1010,"clouds":[{"cover":"FEW","base":700},{"cover":"BKN","base":2000},{"cover":"FEW","base":2500},{"cover":"BKN","base":10000}],"obsTime":1775059200},"SBBV":{"icaoId":"SBBV","flightCategory":"MVFR","rawOb":"METAR SBBV 011600Z 09009KT 9999 BKN020 FEW025TCU BKN080 28/22 Q1013","temp":28,"dewp":22,"wdir":90,"wspd":9,"visib":"6+","altim":1013,"clouds":[{"cover":"BKN","base":2000},{"cover":"FEW","base":2500},{"cover":"BKN","base":8000}],"obsTime":1775059200},"SBPA":{"icaoId":"SBPA","flightCategory":"VFR","rawOb":"METAR SBPA 011600Z 06003KT 9999 FEW040 SCT100 29/18 Q1009","temp":29,"dewp":18,"wdir":60,"wspd":3,"visib":"6+","altim":1009,"clouds":[{"cover":"FEW","base":4000},{"cover":"SCT","base":10000}],"obsTime":1775059200},"SBPJ":{"icaoId":"SBPJ","flightCategory":"VFR","rawOb":"METAR SBPJ 011600Z 24005KT 200V290 9000 -SHRA SCT030 FEW035TCU SCT080 28/24 Q1011","temp":28,"dewp":24,"wdir":240,"wspd":5,"visib":5.59,"altim":1011,"clouds":[{"cover":"SCT","base":3000},{"cover":"FEW","base":3500},{"cover":"SCT","base":8000}],"obsTime":1775059200},"SBGL":{"icaoId":"SBGL","flightCategory":"MVFR","rawOb":"METAR SBGL 011600Z VRB03KT 8000 FEW020 BKN100 29/22 Q1012","temp":29,"dewp":22,"wdir":"VRB","wspd":3,"visib":4.97,"altim":1012,"clouds":[{"cover":"FEW","base":2000},{"cover":"BKN","base":10000}],"obsTime":1775059200},"SBAT":{"icaoId":"SBAT","flightCategory":"MVFR","rawOb":"METAR SBAT 011600Z 29006KT 9999 VCSH BKN030 FEW035TCU 30/23 Q1011","temp":30,"dewp":23,"wdir":290,"wspd":6,"visib":"6+","altim":1011,"clouds":[{"cover":"BKN","base":3000},{"cover":"FEW","base":3500}],"obsTime":1775059200},"SBPV":{"icaoId":"SBPV","flightCategory":"IFR","rawOb":"METAR SBPV 011600Z 05005KT 5000 -RA BR BKN006 SCT040 25/23 Q1012","temp":25,"dewp":23,"wdir":50,"wspd":5,"visib":3.11,"altim":1012,"clouds":[{"cover":"BKN","base":600},{"cover":"SCT","base":4000}],"obsTime":1775059200},"SBGO":{"icaoId":"SBGO","flightCategory":"VFR","rawOb":"METAR SBGO 011600Z VRB04KT 9999 SCT045 30/19 Q1015","temp":30,"dewp":19,"wdir":"VRB","wspd":4,"visib":"6+","altim":1015,"clouds":[{"cover":"SCT","base":4500}],"obsTime":1775059200},"SBRB":{"icaoId":"SBRB","flightCategory":"VFR","rawOb":"METAR SBRB 011600Z 10001KT 9999 SCT020 FEW030TCU BKN100 30/24 Q1011","temp":30,"dewp":24,"wdir":100,"wspd":1,"visib":"6+","altim":1011,"clouds":[{"cover":"SCT","base":2000},{"cover":"FEW","base":3000},{"cover":"BKN","base":10000}],"obsTime":1775059200},"SBLO":{"icaoId":"SBLO","flightCategory":"MVFR","rawOb":"METAR SBLO 011600Z 03003KT 8000 BKN014 23/20 Q1014","temp":23,"dewp":20,"wdir":30,"wspd":3,"visib":4.97,"altim":1014,"clouds":[{"cover":"BKN","base":1400}],"obsTime":1775059200},"SBCF":{"icaoId":"SBCF","flightCategory":"MVFR","rawOb":"METAR SBCF 011600Z COR 01006KT 9999 BKN027 FEW030TCU 26/19 Q1018","temp":26,"dewp":19,"wdir":10,"wspd":6,"visib":"6+","altim":1018,"clouds":[{"cover":"BKN","base":2700},{"cover":"FEW","base":3000}],"obsTime":1775059200},"SBEG":{"icaoId":"SBEG","flightCategory":"VFR","rawOb":"METAR SBEG 011600Z 03004KT 9999 SCT008 BKN070 26/24 Q1013","temp":26,"dewp":24,"wdir":30,"wspd":4,"visib":"6+","altim":1013,"clouds":[{"cover":"SCT","base":800},{"cover":"BKN","base":7000}],"obsTime":1775059200},"SBCR":{"icaoId":"SBCR","flightCategory":"VFR","rawOb":"METAR SBCR 011600Z VRB03KT 9999 SCT035 34/24 Q1009","temp":34,"dewp":24,"wdir":"VRB","wspd":3,"visib":"6+","altim":1009,"clouds":[{"cover":"SCT","base":3500}],"obsTime":1775059200},"SBGR":{"icaoId":"SBGR","flightCategory":"VFR","rawOb":"METAR SBGR 011600Z 06003KT 9999 SCT030 SCT050 26/19 Q1015","temp":26,"dewp":19,"wdir":60,"wspd":3,"visib":"6+","altim":1015,"clouds":[{"cover":"SCT","base":3000},{"cover":"SCT","base":5000}],"obsTime":1775059200},"SBSG":{"icaoId":"SBSG","flightCategory":"IFR","rawOb":"METAR SBSG 011600Z VRB02KT 9999 VCSH BKN006 BKN023 FEW026TCU 25/24 Q1011","temp":25,"dewp":24,"wdir":"VRB","wspd":2,"visib":"6+","altim":1011,"clouds":[{"cover":"BKN","base":600},{"cover":"BKN","base":2300},{"cover":"FEW","base":2600}],"obsTime":1775059200},"SBSL":{"icaoId":"SBSL","flightCategory":"VFR","rawOb":"METAR SBSL 011600Z 08011KT 9999 SCT015 FEW025TCU 28/25 Q1009 RETS","temp":28,"dewp":25,"wdir":80,"wspd":11,"visib":"6+","altim":1009,"clouds":[{"cover":"SCT","base":1500},{"cover":"FEW","base":2500}],"obsTime":1775059200},"SBCT":{"icaoId":"SBCT","flightCategory":"MVFR","rawOb":"METAR SBCT 011600Z 05006KT 9999 BKN030 24/17 Q1016","temp":24,"dewp":17,"wdir":50,"wspd":6,"visib":"6+","altim":1016,"clouds":[{"cover":"BKN","base":3000}],"obsTime":1775059200},"SBHT":{"icaoId":"SBHT","flightCategory":"MVFR","rawOb":"METAR SBHT 011600Z 04003KT 9999 BKN023 BKN100 31/24 Q1011","temp":31,"dewp":24,"wdir":40,"wspd":3,"visib":"6+","altim":1011,"clouds":[{"cover":"BKN","base":2300},{"cover":"BKN","base":10000}],"obsTime":1775059200},"SBSN":{"icaoId":"SBSN","flightCategory":"MVFR","rawOb":"METAR SBSN 011600Z 31009KT 9999 BKN010 BKN090 27/24 Q1013","temp":27,"dewp":24,"wdir":310,"wspd":9,"visib":"6+","altim":1013,"clouds":[{"cover":"BKN","base":1000},{"cover":"BKN","base":9000}],"obsTime":1775059200},"SBCB":{"icaoId":"SBCB","flightCategory":"VFR","rawOb":"METAR SBCB 011600Z 03012KT 9999 FEW015 SCT040 30/23 Q1013","temp":30,"dewp":23,"wdir":30,"wspd":12,"visib":"6+","altim":1013,"clouds":[{"cover":"FEW","base":1500},{"cover":"SCT","base":4000}],"obsTime":1775059200},"SBSP":{"icaoId":"SBSP","flightCategory":"VFR","rawOb":"METAR SBSP 011600Z 34005KT 280V040 9999 SCT040 26/16 Q1016","temp":26,"dewp":16,"wdir":340,"wspd":5,"visib":"6+","altim":1016,"clouds":[{"cover":"SCT","base":4000}],"obsTime":1775059200},"SBIL":{"icaoId":"SBIL","flightCategory":"VFR","rawOb":"METAR SBIL 011600Z 13006KT 100V170 9999 SCT025 SCT100 31/24 Q1013","temp":31,"dewp":24,"wdir":130,"wspd":6,"visib":"6+","altim":1013,"clouds":[{"cover":"SCT","base":2500},{"cover":"SCT","base":10000}],"obsTime":1775059200},"SBSV":{"icaoId":"SBSV","flightCategory":"VFR","rawOb":"METAR SBSV 011600Z 11011KT 9999 SCT023 30/23 Q1012","temp":30,"dewp":23,"wdir":110,"wspd":11,"visib":"6+","altim":1012,"clouds":[{"cover":"SCT","base":2300}],"obsTime":1775059200},"SBBR":{"icaoId":"SBBR","flightCategory":"MVFR","rawOb":"METAR SBBR 011600Z 05005KT 020V080 8000 TS SCT040 FEW045CB BKN090 21/18 Q1018 RETSRA","temp":21,"dewp":18,"wdir":50,"wspd":5,"visib":4.97,"altim":1018,"clouds":[{"cover":"SCT","base":4000},{"cover":"FEW","base":4500},{"cover":"BKN","base":9000}],"obsTime":1775059200},"SBTE":{"icaoId":"SBTE","flightCategory":"VFR","rawOb":"METAR SBTE 011600Z 01003KT 9999 SCT020 32/24 Q1008","temp":32,"dewp":24,"wdir":10,"wspd":3,"visib":"6+","altim":1008,"clouds":[{"cover":"SCT","base":2000}],"obsTime":1775059200},"SBUL":{"icaoId":"SBUL","flightCategory":"VFR","rawOb":"METAR SBUL 011600Z 06010KT 010V090 9999 SCT023 25/19 Q1017","temp":25,"dewp":19,"wdir":60,"wspd":10,"visib":"6+","altim":1017,"clouds":[{"cover":"SCT","base":2300}],"obsTime":1775059200},"SBJU":{"icaoId":"SBJU","flightCategory":"MVFR","rawOb":"METAR SBJU 011600Z 12012KT 9999 BKN022 30/22 Q1011","temp":30,"dewp":22,"wdir":120,"wspd":12,"visib":"6+","altim":1011,"clouds":[{"cover":"BKN","base":2200}],"obsTime":1775059200},"SBKP":{"icaoId":"SBKP","flightCategory":"VFR","rawOb":"METAR SBKP 011600Z 01009KT 330V050 9999 SCT035 28/18 Q1015","temp":28,"dewp":18,"wdir":10,"wspd":9,"visib":"6+","altim":1015,"clouds":[{"cover":"SCT","base":3500}],"obsTime":1775059200},"SBUR":{"icaoId":"SBUR","flightCategory":"VFR","rawOb":"METAR SBUR 011600Z 31008KT 9999 BKN040 29/17 Q1015","temp":29,"dewp":17,"wdir":310,"wspd":8,"visib":"6+","altim":1015,"clouds":[{"cover":"BKN","base":4000}],"obsTime":1775059200},"SBCZ":{"icaoId":"SBCZ","flightCategory":"MVFR","rawOb":"METAR SBCZ 011600Z 36004KT 9999 BKN020 29/24 Q1011","temp":29,"dewp":24,"wdir":360,"wspd":4,"visib":"6+","altim":1011,"clouds":[{"cover":"BKN","base":2000}],"obsTime":1775059200},"SBVT":{"icaoId":"SBVT","flightCategory":"VFR","rawOb":"METAR SBVT 011600Z 06011KT 9999 SCT030 30/23 Q1014","temp":30,"dewp":23,"wdir":60,"wspd":11,"visib":"6+","altim":1014,"clouds":[{"cover":"SCT","base":3000}],"obsTime":1775059200},"SBVH":{"icaoId":"SBVH","flightCategory":"VFR","rawOb":"METAR SBVH 011600Z 35006KT 300V090 9999 SCT035 BKN100 29/22 Q1014","temp":29,"dewp":22,"wdir":350,"wspd":6,"visib":"6+","altim":1014,"clouds":[{"cover":"SCT","base":3500},{"cover":"BKN","base":10000}],"obsTime":1775059200},"SBAR":{"icaoId":"SBAR","flightCategory":"VFR","rawOb":"METAR SBAR 011600Z 10012KT 9999 SCT021 SCT080 30/24 Q1011","temp":30,"dewp":24,"wdir":100,"wspd":12,"visib":"6+","altim":1011,"clouds":[{"cover":"SCT","base":2100},{"cover":"SCT","base":8000}],"obsTime":1775059200},"SBAU":{"icaoId":"SBAU","flightCategory":"VFR","rawOb":"METAR SBAU 011600Z 35006KT 9999 FEW040 32/19 Q1012","temp":32,"dewp":19,"wdir":350,"wspd":6,"visib":"6+","altim":1012,"clouds":[{"cover":"FEW","base":4000}],"obsTime":1775059200},"SBAX":{"icaoId":"SBAX","flightCategory":"VFR","rawOb":"METAR SBAX 011600Z 02006KT 9999 SCT020 SCT030 BKN060 25/18 Q1017","temp":25,"dewp":18,"wdir":20,"wspd":6,"visib":"6+","altim":1017,"clouds":[{"cover":"SCT","base":2000},{"cover":"SCT","base":3000},{"cover":"BKN","base":6000}],"obsTime":1775059200},"SBBH":{"icaoId":"SBBH","flightCategory":"VFR","rawOb":"METAR SBBH 011600Z 34006KT 9999 BKN033 BKN100 26/19 Q1017","temp":26,"dewp":19,"wdir":340,"wspd":6,"visib":"6+","altim":1017,"clouds":[{"cover":"BKN","base":3300},{"cover":"BKN","base":10000}],"obsTime":1775059200},"SBBQ":{"icaoId":"SBBQ","flightCategory":"MVFR","rawOb":"METAR SBBQ 011600Z 35005KT 300V050 9999 -RA OVC025 22/17 Q1020","temp":22,"dewp":17,"wdir":350,"wspd":5,"visib":"6+","altim":1020,"clouds":[{"cover":"OVC","base":2500}],"obsTime":1775059200},"SBBU":{"icaoId":"SBBU","flightCategory":"VFR","rawOb":"METAR SBBU 011600Z 05003KT 9999 FEW035 SCT080 30/20 Q1014","temp":30,"dewp":20,"wdir":50,"wspd":3,"visib":"6+","altim":1014,"clouds":[{"cover":"FEW","base":3500},{"cover":"SCT","base":8000}],"obsTime":1775059200},"SBCA":{"icaoId":"SBCA","flightCategory":"VFR","rawOb":"METAR SBCA 011700Z 34006G16KT 9999 SCT025 FEW050TCU 25/20 Q1014","temp":25,"dewp":20,"wdir":340,"wspd":6,"visib":"6+","altim":1014,"clouds":[{"cover":"SCT","base":2500},{"cover":"FEW","base":5000}],"obsTime":1775062800},"SBCC":{"icaoId":"SBCC","flightCategory":"IFR","rawOb":"METAR SBCC 011600Z 28012KT 4000 -TSRA SCT008 BKN020 FEW025CB BKN100 23/22 Q1013 RERA","temp":23,"dewp":22,"wdir":280,"wspd":12,"visib":2.49,"altim":1013,"clouds":[{"cover":"SCT","base":800},{"cover":"BKN","base":2000},{"cover":"FEW","base":2500},{"cover":"BKN","base":10000}],"obsTime":1775059200},"SBCJ":{"icaoId":"SBCJ","flightCategory":"MVFR","rawOb":"METAR SBCJ 011600Z 06005KT 9999 FEW009 BKN015 FEW020TCU 27/22 Q1014","temp":27,"dewp":22,"wdir":60,"wspd":5,"visib":"6+","altim":1014,"clouds":[{"cover":"FEW","base":900},{"cover":"BKN","base":1500},{"cover":"FEW","base":2000}],"obsTime":1775059200},"SBCO":{"icaoId":"SBCO","flightCategory":"VFR","rawOb":"METAR SBCO 011600Z 13004KT CAVOK 30/20 Q1010","temp":30,"dewp":20,"wdir":130,"wspd":4,"visib":"6+","altim":1010,"clouds":[],"obsTime":1775059200},"SBDN":{"icaoId":"SBDN","flightCategory":"VFR","rawOb":"METAR SBDN 011600Z 15007KT CAVOK 26/19 Q1013","temp":26,"dewp":19,"wdir":150,"wspd":7,"visib":"6+","altim":1013,"clouds":[],"obsTime":1775059200},"SBES":{"icaoId":"SBES","flightCategory":"VFR","rawOb":"METAR SBES 011600Z 06010KT 020V080 9999 FEW020 SCT100 29/// Q1013","temp":null,"dewp":null,"wdir":60,"wspd":10,"visib":"6+","altim":1013,"clouds":[{"cover":"FEW","base":2000},{"cover":"SCT","base":10000}],"obsTime":1775059200},"SBGM":{"icaoId":"SBGM","flightCategory":"VFR","rawOb":"METAR SBGM 011600Z 36005KT 9999 SCT023 30/24 Q1011","temp":30,"dewp":24,"wdir":360,"wspd":5,"visib":"6+","altim":1011,"clouds":[{"cover":"SCT","base":2300}],"obsTime":1775059200},"SBIP":{"icaoId":"SBIP","flightCategory":"VFR","rawOb":"METAR SBIP 011600Z AUTO 34007KT 310V010 9999 FEW040 29/21 Q1014","temp":29,"dewp":21,"wdir":340,"wspd":7,"visib":"6+","altim":1014,"clouds":[{"cover":"FEW","base":4000}],"obsTime":1775059200},"SBKG":{"icaoId":"SBKG","flightCategory":"VFR","rawOb":"METAR SBKG 011600Z 09010KT 9999 FEW005 SCT010 BKN070 24/21 Q1012","temp":24,"dewp":21,"wdir":90,"wspd":10,"visib":"6+","altim":1012,"clouds":[{"cover":"FEW","base":500},{"cover":"SCT","base":1000},{"cover":"BKN","base":7000}],"obsTime":1775059200},"SBOI":{"icaoId":"SBOI","flightCategory":"VFR","rawOb":"METAR SBOI 011700Z AUTO VRB01KT 9999 FEW027 26/25 Q1010","temp":26,"dewp":25,"wdir":"VRB","wspd":1,"visib":"6+","altim":1010,"clouds":[{"cover":"FEW","base":2700}],"obsTime":1775062800},"SBPB":{"icaoId":"SBPB","flightCategory":"VFR","rawOb":"METAR SBPB 011600Z 05012KT 9999 SCT020 31/25 Q1009","temp":31,"dewp":25,"wdir":50,"wspd":12,"visib":"6+","altim":1009,"clouds":[{"cover":"SCT","base":2000}],"obsTime":1775059200},"SBPL":{"icaoId":"SBPL","flightCategory":"VFR","rawOb":"METAR SBPL 011600Z 09008KT 9999 FEW030 BKN070 29/21 Q1012","temp":29,"dewp":21,"wdir":90,"wspd":8,"visib":"6+","altim":1012,"clouds":[{"cover":"FEW","base":3000},{"cover":"BKN","base":7000}],"obsTime":1775059200},"SBPP":{"icaoId":"SBPP","flightCategory":"VFR","rawOb":"METAR SBPP 011600Z 30008KT 9999 SCT025 FEW031TCU 29/20 Q1013","temp":29,"dewp":20,"wdir":300,"wspd":8,"visib":"6+","altim":1013,"clouds":[{"cover":"SCT","base":2500},{"cover":"FEW","base":3100}],"obsTime":1775059200},"SBPS":{"icaoId":"SBPS","flightCategory":"VFR","rawOb":"METAR SBPS 011600Z 09013KT 9999 SCT025 28/23 Q1014","temp":28,"dewp":23,"wdir":90,"wspd":13,"visib":"6+","altim":1014,"clouds":[{"cover":"SCT","base":2500}],"obsTime":1775059200},"SBSC":{"icaoId":"SBSC","flightCategory":"VFR","rawOb":"METAR SBSC 011600Z 03009KT 9999 FEW030 BKN080 31/21 Q1012","temp":31,"dewp":21,"wdir":30,"wspd":9,"visib":"6+","altim":1012,"clouds":[{"cover":"FEW","base":3000},{"cover":"BKN","base":8000}],"obsTime":1775059200},"SBSJ":{"icaoId":"SBSJ","flightCategory":"VFR","rawOb":"METAR SBSJ 011600Z 33004KT 230V030 9999 SCT036 SCT100 26/18 Q1015","temp":26,"dewp":18,"wdir":330,"wspd":4,"visib":"6+","altim":1015,"clouds":[{"cover":"SCT","base":3600},{"cover":"SCT","base":10000}],"obsTime":1775059200},"SBSM":{"icaoId":"SBSM","flightCategory":"VFR","rawOb":"METAR SBSM 011600Z 11005KT 9999 FEW035 30/22 Q1009","temp":30,"dewp":22,"wdir":110,"wspd":5,"visib":"6+","altim":1009,"clouds":[{"cover":"FEW","base":3500}],"obsTime":1775059200},"SBSR":{"icaoId":"SBSR","flightCategory":"VFR","rawOb":"METAR SBSR 011600Z VRB04KT 9999 FEW035 29/19 Q1013","temp":29,"dewp":19,"wdir":"VRB","wspd":4,"visib":"6+","altim":1013,"clouds":[{"cover":"FEW","base":3500}],"obsTime":1775059200},"SBTF":{"icaoId":"SBTF","flightCategory":"VFR","rawOb":"METAR SBTF 011600Z 25004KT 9999 FEW013 BKN070 29/24 Q1012","temp":29,"dewp":24,"wdir":250,"wspd":4,"visib":"6+","altim":1012,"clouds":[{"cover":"FEW","base":1300},{"cover":"BKN","base":7000}],"obsTime":1775059200},"SBTT":{"icaoId":"SBTT","flightCategory":"VFR","rawOb":"METAR SBTT 011600Z 33005KT 9999 SCT016 BKN080 27/23 Q1012","temp":27,"dewp":23,"wdir":330,"wspd":5,"visib":"6+","altim":1012,"clouds":[{"cover":"SCT","base":1600},{"cover":"BKN","base":8000}],"obsTime":1775059200},"SBUY":{"icaoId":"SBUY","flightCategory":"MVFR","rawOb":"METAR SBUY 011600Z 01002KT 9999 BKN012 BKN090 25/23 Q1011","temp":25,"dewp":23,"wdir":10,"wspd":2,"visib":"6+","altim":1011,"clouds":[{"cover":"BKN","base":1200},{"cover":"BKN","base":9000}],"obsTime":1775059200},"SBTD":{"icaoId":"SBTD","flightCategory":"VFR","rawOb":"METAR SBTD 011600Z /////KT 9999 VCSH FEW030 FEW035TCU SCT080 25/19 Q1014","temp":25,"dewp":19,"wdir":null,"wspd":null,"visib":"6+","altim":1014,"clouds":[{"cover":"FEW","base":3000},{"cover":"FEW","base":3500},{"cover":"SCT","base":8000}],"obsTime":1775059200},"SBAN":{"icaoId":"SBAN","flightCategory":"MVFR","rawOb":"METAR SBAN 011600Z 32004KT 9999 BKN020 FEW025TCU SCT100 26/18 Q1018","temp":26,"dewp":18,"wdir":320,"wspd":4,"visib":"6+","altim":1018,"clouds":[{"cover":"BKN","base":2000},{"cover":"FEW","base":2500},{"cover":"SCT","base":10000}],"obsTime":1775059200},"SBJP":{"icaoId":"SBJP","flightCategory":"IFR","rawOb":"METAR SBJP 011600Z 03006KT 4000 -RA BKN009 BKN011 BKN070 25/24 Q1011","temp":25,"dewp":24,"wdir":30,"wspd":6,"visib":2.49,"altim":1011,"clouds":[{"cover":"BKN","base":900},{"cover":"BKN","base":1100},{"cover":"BKN","base":7000}],"obsTime":1775059200},"SBMT":{"icaoId":"SBMT","flightCategory":"VFR","rawOb":"METAR SBMT 011600Z VRB06KT 9999 SCT040 26/17 Q1015","temp":26,"dewp":17,"wdir":"VRB","wspd":6,"visib":"6+","altim":1015,"clouds":[{"cover":"SCT","base":4000}],"obsTime":1775059200},"SBJR":{"icaoId":"SBJR","flightCategory":"VFR","rawOb":"METAR SBJR 011600Z 20003KT 9999 FEW030 BKN090 30/23 Q1012","temp":30,"dewp":23,"wdir":200,"wspd":3,"visib":"6+","altim":1012,"clouds":[{"cover":"FEW","base":3000},{"cover":"BKN","base":9000}],"obsTime":1775059200},"SBST":{"icaoId":"SBST","flightCategory":"VFR","rawOb":"METAR SBST 011600Z 16005KT 9999 FEW025 27/23 Q1011","temp":27,"dewp":23,"wdir":160,"wspd":5,"visib":"6+","altim":1011,"clouds":[{"cover":"FEW","base":2500}],"obsTime":1775059200},"SBGW":{"icaoId":"SBGW","flightCategory":"VFR","rawOb":"METAR SBGW 011600Z 05007KT 9999 FEW020 SCT100 27/17 Q1014","temp":27,"dewp":17,"wdir":50,"wspd":7,"visib":"6+","altim":1014,"clouds":[{"cover":"FEW","base":2000},{"cover":"SCT","base":10000}],"obsTime":1775059200},"SBTA":{"icaoId":"SBTA","flightCategory":"VFR","rawOb":"METAR SBTA 011600Z VRB03KT 9999 SCT030 26/25 Q1014","temp":26,"dewp":25,"wdir":"VRB","wspd":3,"visib":"6+","altim":1014,"clouds":[{"cover":"SCT","base":3000}],"obsTime":1775059200},"SBLS":{"icaoId":"SBLS","flightCategory":"MVFR","rawOb":"METAR SBLS 011600Z VRB04KT 9999 VCSH BKN025 FEW030TCU 25/19 Q1017","temp":25,"dewp":19,"wdir":"VRB","wspd":4,"visib":"6+","altim":1017,"clouds":[{"cover":"BKN","base":2500},{"cover":"FEW","base":3000}],"obsTime":1775059200},"SBIH":{"icaoId":"SBIH","flightCategory":"MVFR","rawOb":"METAR SBIH 011600Z 29002KT 9999 VCSH BKN015 FEW025TCU BKN100 27/25 Q1012","temp":27,"dewp":25,"wdir":290,"wspd":2,"visib":"6+","altim":1012,"clouds":[{"cover":"BKN","base":1500},{"cover":"FEW","base":2500},{"cover":"BKN","base":10000}],"obsTime":1775059200},"SBJV":{"icaoId":"SBJV","flightCategory":"MVFR","rawOb":"METAR SBJV 011600Z 12007KT 080V140 9999 BKN030 SCT100 28/23 Q1012","temp":28,"dewp":23,"wdir":120,"wspd":7,"visib":"6+","altim":1012,"clouds":[{"cover":"BKN","base":3000},{"cover":"SCT","base":10000}],"obsTime":1775059200},"SBAF":{"icaoId":"SBAF","flightCategory":"VFR","rawOb":"METAR SBAF 011600Z 10005KT 9999 FEW025 30/24 Q1012","temp":30,"dewp":24,"wdir":100,"wspd":5,"visib":"6+","altim":1012,"clouds":[{"cover":"FEW","base":2500}],"obsTime":1775059200},"SBLE":{"icaoId":"SBLE","flightCategory":"MVFR","rawOb":"METAR SBLE 011600Z AUTO 14005KT 090V170 9999 -RA SCT018 OVC025 ///// Q////","temp":null,"dewp":null,"wdir":140,"wspd":5,"visib":"6+","altim":null,"clouds":[{"cover":"SCT","base":1800},{"cover":"OVC","base":2500}],"obsTime":1775059200},"SBNM":{"icaoId":"SBNM","flightCategory":"VFR","rawOb":"METAR SBNM 011600Z 30003KT 9999 FEW030 32/20 Q1010","temp":32,"dewp":20,"wdir":300,"wspd":3,"visib":"6+","altim":1010,"clouds":[{"cover":"FEW","base":3000}],"obsTime":1775059200},"SBPF":{"icaoId":"SBPF","flightCategory":"VFR","rawOb":"METAR SBPF 011600Z AUTO VRB02KT 9999 BKN041 26/16 Q1013","temp":26,"dewp":16,"wdir":"VRB","wspd":2,"visib":"6+","altim":1013,"clouds":[{"cover":"BKN","base":4100}],"obsTime":1775059200}}}