{"updated":1774909305,"count":80,"data":{"SBRF":{"icaoId":"SBRF","flightCategory":"VFR","rawOb":"METAR SBRF 302100Z 14009KT 9999 SCT023 28/24 Q1010","temp":28,"dewp":24,"wdir":140,"wspd":9,"visib":"6+","altim":1010,"clouds":[{"cover":"SCT","base":2300}],"obsTime":1774904400},"SBUL":{"icaoId":"SBUL","flightCategory":"VFR","rawOb":"METAR SBUL 302100Z 00000KT 9999 BKN048 26/17 Q1015","temp":26,"dewp":17,"wdir":0,"wspd":0,"visib":"6+","altim":1015,"clouds":[{"cover":"BKN","base":4800}],"obsTime":1774904400},"SBBV":{"icaoId":"SBBV","flightCategory":"MVFR","rawOb":"METAR SBBV 302100Z 22014KT 7000 -TSRA FEW005 BKN013 FEW020CB OVC080 24/23 Q1011 RERA","temp":24,"dewp":23,"wdir":220,"wspd":14,"visib":4.35,"altim":1011,"clouds":[{"cover":"FEW","base":500},{"cover":"BKN","base":1300},{"cover":"FEW","base":2000},{"cover":"OVC","base":8000}],"obsTime":1774904400},"SBMG":{"icaoId":"SBMG","flightCategory":"VFR","rawOb":"METAR SBMG 302100Z 21006KT 9999 FEW045 FEW050TCU 32/17 Q1012","temp":32,"dewp":17,"wdir":210,"wspd":6,"visib":"6+","altim":1012,"clouds":[{"cover":"FEW","base":4500},{"cover":"FEW","base":5000}],"obsTime":1774904400},"SBFZ":{"icaoId":"SBFZ","flightCategory":"VFR","rawOb":"METAR SBFZ 302100Z 10005KT 9999 FEW018 27/24 Q1008","temp":27,"dewp":24,"wdir":100,"wspd":5,"visib":"6+","altim":1008,"clouds":[{"cover":"FEW","base":1800}],"obsTime":1774904400},"SBMK":{"icaoId":"SBMK","flightCategory":"VFR","rawOb":"METAR SBMK 302100Z 36004KT 9999 FEW045 26/19 Q1013","temp":26,"dewp":19,"wdir":360,"wspd":4,"visib":"6+","altim":1013,"clouds":[{"cover":"FEW","base":4500}],"obsTime":1774904400},"SBCF":{"icaoId":"SBCF","flightCategory":"VFR","rawOb":"METAR SBCF 302100Z 21002KT 9999 SCT040 FEW045TCU 25/17 Q1015","temp":25,"dewp":17,"wdir":210,"wspd":2,"visib":"6+","altim":1015,"clouds":[{"cover":"SCT","base":4000},{"cover":"FEW","base":4500}],"obsTime":1774904400},"SBMO":{"icaoId":"SBMO","flightCategory":"VFR","rawOb":"METAR SBMO 302100Z 13005KT 9999 SCT020 BKN070 26/24 Q1011","temp":26,"dewp":24,"wdir":130,"wspd":5,"visib":"6+","altim":1011,"clouds":[{"cover":"SCT","base":2000},{"cover":"BKN","base":7000}],"obsTime":1774904400},"SBGL":{"icaoId":"SBGL","flightCategory":"VFR","rawOb":"METAR SBGL 302100Z 14008KT 9999 FEW030 FEW030TCU BKN050 26/21 Q1012","temp":26,"dewp":21,"wdir":140,"wspd":8,"visib":"6+","altim":1012,"clouds":[{"cover":"FEW","base":3000},{"cover":"FEW","base":3000},{"cover":"BKN","base":5000}],"obsTime":1774904400},"SBMQ":{"icaoId":"SBMQ","flightCategory":"VFR","rawOb":"METAR SBMQ 302100Z 06005KT 9999 SCT030 FEW050TCU SCT100 30/24 Q1008","temp":30,"dewp":24,"wdir":60,"wspd":5,"visib":"6+","altim":1008,"clouds":[{"cover":"SCT","base":3000},{"cover":"FEW","base":5000},{"cover":"SCT","base":10000}],"obsTime":1774904400},"SBCT":{"icaoId":"SBCT","flightCategory":"MVFR","rawOb":"METAR SBCT 302100Z 10008KT 9999 BKN011 BKN100 21/19 Q1017","temp":21,"dewp":19,"wdir":100,"wspd":8,"visib":"6+","altim":1017,"clouds":[{"cover":"BKN","base":1100},{"cover":"BKN","base":10000}],"obsTime":1774904400},"SBNT":{"icaoId":"SBNT","flightCategory":"VFR","rawOb":"METAR SBNT 302100Z 09006KT 9999 FEW023 SCT033 FEW036TCU BKN075 29/24 Q1009","temp":29,"dewp":24,"wdir":90,"wspd":6,"visib":"6+","altim":1009,"clouds":[{"cover":"FEW","base":2300},{"cover":"SCT","base":3300},{"cover":"FEW","base":3600},{"cover":"BKN","base":7500}],"obsTime":1774904400},"SBPA":{"icaoId":"SBPA","flightCategory":"VFR","rawOb":"METAR SBPA 302100Z 12010KT 9999 SCT023 SCT100 26/22 Q1013","temp":26,"dewp":22,"wdir":120,"wspd":10,"visib":"6+","altim":1013,"clouds":[{"cover":"SCT","base":2300},{"cover":"SCT","base":10000}],"obsTime":1774904400},"SBGO":{"icaoId":"SBGO","flightCategory":"VFR","rawOb":"METAR SBGO 302100Z 13007KT 9999 FEW045TCU 29/17 Q1013","temp":29,"dewp":17,"wdir":130,"wspd":7,"visib":"6+","altim":1013,"clouds":[{"cover":"FEW","base":4500}],"obsTime":1774904400},"SBPJ":{"icaoId":"SBPJ","flightCategory":"VFR","rawOb":"METAR SBPJ 302100Z 19004KT 9999 FEW027TCU 32/22 Q1008","temp":32,"dewp":22,"wdir":190,"wspd":4,"visib":"6+","altim":1008,"clouds":[{"cover":"FEW","base":2700}],"obsTime":1774904400},"SBGR":{"icaoId":"SBGR","flightCategory":"MVFR","rawOb":"METAR SBGR 302100Z 15005KT 9999 BKN020 23/18 Q1016","temp":23,"dewp":18,"wdir":150,"wspd":5,"visib":"6+","altim":1016,"clouds":[{"cover":"BKN","base":2000}],"obsTime":1774904400},"SBBR":{"icaoId":"SBBR","flightCategory":"VFR","rawOb":"METAR SBBR 302100Z 15006KT 9999 SCT045 FEW050TCU 27/14 Q1015","temp":27,"dewp":14,"wdir":150,"wspd":6,"visib":"6+","altim":1015,"clouds":[{"cover":"SCT","base":4500},{"cover":"FEW","base":5000}],"obsTime":1774904400},"SBPV":{"icaoId":"SBPV","flightCategory":"VFR","rawOb":"METAR SBPV 302100Z 07005KT 9999 SCT035 31/21 Q1007","temp":31,"dewp":21,"wdir":70,"wspd":5,"visib":"6+","altim":1007,"clouds":[{"cover":"SCT","base":3500}],"obsTime":1774904400},"SBRB":{"icaoId":"SBRB","flightCategory":"VFR","rawOb":"METAR SBRB 302100Z 12005KT 9999 SCT025 FEW030TCU 28/23 Q1009","temp":28,"dewp":23,"wdir":120,"wspd":5,"visib":"6+","altim":1009,"clouds":[{"cover":"SCT","base":2500},{"cover":"FEW","base":3000}],"obsTime":1774904400},"SBCZ":{"icaoId":"SBCZ","flightCategory":"VFR","rawOb":"METAR SBCZ 302100Z 21005KT 9999 SCT030 31/22 Q1008","temp":31,"dewp":22,"wdir":210,"wspd":5,"visib":"6+","altim":1008,"clouds":[{"cover":"SCT","base":3000}],"obsTime":1774904400},"SBCG":{"icaoId":"SBCG","flightCategory":"VFR","rawOb":"METAR SBCG 302100Z 08004KT CAVOK 31/17 Q1013","temp":31,"dewp":17,"wdir":80,"wspd":4,"visib":"6+","altim":1013,"clouds":[],"obsTime":1774904400},"SBIL":{"icaoId":"SBIL","flightCategory":"VFR","rawOb":"METAR SBIL 302100Z 19006KT 9999 FEW020 27/24 Q1011","temp":27,"dewp":24,"wdir":190,"wspd":6,"visib":"6+","altim":1011,"clouds":[{"cover":"FEW","base":2000}],"obsTime":1774904400},"SBSG":{"icaoId":"SBSG","flightCategory":"VFR","rawOb":"METAR SBSG 302100Z 07009KT 9999 SCT030 FEW033TCU 29/23 Q1009","temp":29,"dewp":23,"wdir":70,"wspd":9,"visib":"6+","altim":1009,"clouds":[{"cover":"SCT","base":3000},{"cover":"FEW","base":3300}],"obsTime":1774904400},"SBEG":{"icaoId":"SBEG","flightCategory":"VFR","rawOb":"METAR SBEG 302100Z 33004KT 9999 VCTS FEW020 FEW025CB 28/24 Q1008","temp":28,"dewp":24,"wdir":330,"wspd":4,"visib":"6+","altim":1008,"clouds":[{"cover":"FEW","base":2000},{"cover":"FEW","base":2500}],"obsTime":1774904400},"SBSL":{"icaoId":"SBSL","flightCategory":"VFR","rawOb":"METAR SBSL 302100Z 08009KT 9999 SCT020 FEW025TCU 28/24 Q1009","temp":28,"dewp":24,"wdir":80,"wspd":9,"visib":"6+","altim":1009,"clouds":[{"cover":"SCT","base":2000},{"cover":"FEW","base":2500}],"obsTime":1774904400},"SBJU":{"icaoId":"SBJU","flightCategory":"MVFR","rawOb":"METAR SBJU 302100Z 00000KT 9999 BKN020 23/21 Q1011","temp":23,"dewp":21,"wdir":0,"wspd":0,"visib":"6+","altim":1011,"clouds":[{"cover":"BKN","base":2000}],"obsTime":1774904400},"SBSN":{"icaoId":"SBSN","flightCategory":"VFR","rawOb":"METAR SBSN 302100Z 33006KT 9999 SCT020 SCT090 28/25 Q1007","temp":28,"dewp":25,"wdir":330,"wspd":6,"visib":"6+","altim":1007,"clouds":[{"cover":"SCT","base":2000},{"cover":"SCT","base":9000}],"obsTime":1774904400},"SBKP":{"icaoId":"SBKP","flightCategory":"VFR","rawOb":"METAR SBKP 302100Z 13013KT CAVOK 27/19 Q1014","temp":27,"dewp":19,"wdir":130,"wspd":13,"visib":"6+","altim":1014,"clouds":[],"obsTime":1774904400},"SBSP":{"icaoId":"SBSP","flightCategory":"VFR","rawOb":"METAR SBSP 302100Z 14009KT CAVOK 21/17 Q1017","temp":21,"dewp":17,"wdir":140,"wspd":9,"visib":"6+","altim":1017,"clouds":[],"obsTime":1774904400},"SBBE":{"icaoId":"SBBE","flightCategory":"VFR","rawOb":"METAR SBBE 302100Z 02008KT 9999 SCT035 FEW037TCU 29/25 Q1008","temp":29,"dewp":25,"wdir":20,"wspd":8,"visib":"6+","altim":1008,"clouds":[{"cover":"SCT","base":3500},{"cover":"FEW","base":3700}],"obsTime":1774904400},"SBSV":{"icaoId":"SBSV","flightCategory":"VFR","rawOb":"METAR SBSV 302100Z 20004KT 130V240 9999 SCT020 BKN070 27/23 Q1010","temp":27,"dewp":23,"wdir":200,"wspd":4,"visib":"6+","altim":1010,"clouds":[{"cover":"SCT","base":2000},{"cover":"BKN","base":7000}],"obsTime":1774904400},"SBFI":{"icaoId":"SBFI","flightCategory":"VFR","rawOb":"METAR SBFI 302100Z 25004KT CAVOK 34/20 Q1011","temp":34,"dewp":20,"wdir":250,"wspd":4,"visib":"6+","altim":1011,"clouds":[],"obsTime":1774904400},"SBTE":{"icaoId":"SBTE","flightCategory":"VFR","rawOb":"METAR SBTE 302100Z 03004KT 9999 SCT016 FEW025TCU BKN090 27/23 Q1009","temp":27,"dewp":23,"wdir":30,"wspd":4,"visib":"6+","altim":1009,"clouds":[{"cover":"SCT","base":1600},{"cover":"FEW","base":2500},{"cover":"BKN","base":9000}],"obsTime":1774904400},"SBLO":{"icaoId":"SBLO","flightCategory":"VFR","rawOb":"METAR SBLO 302100Z 35007KT 310V030 9999 VCSH FEW040TCU 30/18 Q1012","temp":30,"dewp":18,"wdir":350,"wspd":7,"visib":"6+","altim":1012,"clouds":[{"cover":"FEW","base":4000}],"obsTime":1774904400},"SBMA":{"icaoId":"SBMA","flightCategory":"VFR","rawOb":"METAR SBMA 302100Z 34003KT 9999 SCT020 FEW023TCU BKN100 28/25 Q1009","temp":28,"dewp":25,"wdir":340,"wspd":3,"visib":"6+","altim":1009,"clouds":[{"cover":"SCT","base":2000},{"cover":"FEW","base":2300},{"cover":"BKN","base":10000}],"obsTime":1774904400},"SBUR":{"icaoId":"SBUR","flightCategory":"VFR","rawOb":"METAR SBUR 302100Z 18004KT CAVOK 28/16 Q1014","temp":28,"dewp":16,"wdir":180,"wspd":4,"visib":"6+","altim":1014,"clouds":[],"obsTime":1774904400},"SBFL":{"icaoId":"SBFL","flightCategory":"IFR","rawOb":"METAR SBFL 302100Z 12011KT 9999 BKN009 BKN015 BKN100 23/22 Q1014","temp":23,"dewp":22,"wdir":120,"wspd":11,"visib":"6+","altim":1014,"clouds":[{"cover":"BKN","base":900},{"cover":"BKN","base":1500},{"cover":"BKN","base":10000}],"obsTime":1774904400},"SBCP":{"icaoId":"SBCP","flightCategory":"VFR","rawOb":"METAR SBCP 302100Z 14005KT 9999 FEW020 FEW030TCU 26/22 Q1012","temp":26,"dewp":22,"wdir":140,"wspd":5,"visib":"6+","altim":1012,"clouds":[{"cover":"FEW","base":2000},{"cover":"FEW","base":3000}],"obsTime":1774904400},"SBVT":{"icaoId":"SBVT","flightCategory":"VFR","rawOb":"METAR SBVT 302100Z 06004KT 9999 SCT030 26/23 Q1012","temp":26,"dewp":23,"wdir":60,"wspd":4,"visib":"6+","altim":1012,"clouds":[{"cover":"SCT","base":3000}],"obsTime":1774904400},"SBME":{"icaoId":"SBME","flightCategory":"VFR","rawOb":"METAR SBME 302100Z 16006KT 9999 SCT030 27/22 Q1012","temp":27,"dewp":22,"wdir":160,"wspd":6,"visib":"6+","altim":1012,"clouds":[{"cover":"SCT","base":3000}],"obsTime":1774904400},"SBCB":{"icaoId":"SBCB","flightCategory":"VFR","rawOb":"METAR SBCB 302100Z 15004KT 9999 SCT030 26/22 Q1013","temp":26,"dewp":22,"wdir":150,"wspd":4,"visib":"6+","altim":1013,"clouds":[{"cover":"SCT","base":3000}],"obsTime":1774904400},"SBCR":{"icaoId":"SBCR","flightCategory":"VFR","rawOb":"METAR SBCR 302100Z 18004KT 9999 SCT036 33/21 Q1010","temp":33,"dewp":21,"wdir":180,"wspd":4,"visib":"6+","altim":1010,"clouds":[{"cover":"SCT","base":3600}],"obsTime":1774904400},"SBHT":{"icaoId":"SBHT","flightCategory":"VFR","rawOb":"METAR SBHT 302100Z 15004KT 9999 FEW020 SCT100 29/25 Q1008","temp":29,"dewp":25,"wdir":150,"wspd":4,"visib":"6+","altim":1008,"clouds":[{"cover":"FEW","base":2000},{"cover":"SCT","base":10000}],"obsTime":1774904400},"SBKG":{"icaoId":"SBKG","flightCategory":"VFR","rawOb":"METAR SBKG 302100Z 10009KT 9999 SCT023 FEW025TCU SCT080 25/22 Q1012","temp":25,"dewp":22,"wdir":100,"wspd":9,"visib":"6+","altim":1012,"clouds":[{"cover":"SCT","base":2300},{"cover":"FEW","base":2500},{"cover":"SCT","base":8000}],"obsTime":1774904400},"SBAR":{"icaoId":"SBAR","flightCategory":"VFR","rawOb":"METAR SBAR 302100Z 13010KT 9999 VCSH SCT020 FEW023TCU BKN050 27/21 Q1010","temp":27,"dewp":21,"wdir":130,"wspd":10,"visib":"6+","altim":1010,"clouds":[{"cover":"SCT","base":2000},{"cover":"FEW","base":2300},{"cover":"BKN","base":5000}],"obsTime":1774904400},"SBVH":{"icaoId":"SBVH","flightCategory":"VFR","rawOb":"METAR SBVH 302100Z 10004KT 9999 SCT040 30/22 Q1011","temp":30,"dewp":22,"wdir":100,"wspd":4,"visib":"6+","altim":1011,"clouds":[{"cover":"SCT","base":4000}],"obsTime":1774904400},"SBAX":{"icaoId":"SBAX","flightCategory":"VFR","rawOb":"METAR SBAX 302100Z 28002KT CAVOK 24/17 Q1016","temp":24,"dewp":17,"wdir":280,"wspd":2,"visib":"6+","altim":1016,"clouds":[],"obsTime":1774904400},"SBUY":{"icaoId":"SBUY","flightCategory":"VFR","rawOb":"METAR SBUY 302100Z 17005KT 9999 VCSH FEW025 FEW030TCU SCT100 31/23 Q1005","temp":31,"dewp":23,"wdir":170,"wspd":5,"visib":"6+","altim":1005,"clouds":[{"cover":"FEW","base":2500},{"cover":"FEW","base":3000},{"cover":"SCT","base":10000}],"obsTime":1774904400},"SBBH":{"icaoId":"SBBH","flightCategory":"VFR","rawOb":"METAR SBBH 302100Z 00000KT 9999 FEW040 25/17 Q1015","temp":25,"dewp":17,"wdir":0,"wspd":0,"visib":"6+","altim":1015,"clouds":[{"cover":"FEW","base":4000}],"obsTime":1774904400},"SBTT":{"icaoId":"SBTT","flightCategory":"MVFR","rawOb":"METAR SBTT 302100Z 14006KT 9999 TS VCSH BKN024 FEW027CB 29/23 Q1007","temp":29,"dewp":23,"wdir":140,"wspd":6,"visib":"6+","altim":1007,"clouds":[{"cover":"BKN","base":2400},{"cover":"FEW","base":2700}],"obsTime":1774904400},"SBBU":{"icaoId":"SBBU","flightCategory":"VFR","rawOb":"METAR SBBU 302100Z 25004KT CAVOK 32/18 Q1013","temp":32,"dewp":18,"wdir":250,"wspd":4,"visib":"6+","altim":1013,"clouds":[],"obsTime":1774904400},"SBTF":{"icaoId":"SBTF","flightCategory":"VFR","rawOb":"METAR SBTF 302100Z 10007KT 9999 FEW021 32/25 Q1006","temp":32,"dewp":25,"wdir":100,"wspd":7,"visib":"6+","altim":1006,"clouds":[{"cover":"FEW","base":2100}],"obsTime":1774904400},"SBCA":{"icaoId":"SBCA","flightCategory":"VFR","rawOb":"METAR SBCA 302100Z 19004KT 9999 FEW030 29/15 Q1015","temp":29,"dewp":15,"wdir":190,"wspd":4,"visib":"6+","altim":1015,"clouds":[{"cover":"FEW","base":3000}],"obsTime":1774904400},"SBSR":{"icaoId":"SBSR","flightCategory":"VFR","rawOb":"METAR SBSR 302100Z 24006KT 9999 SCT030 FEW035TCU 31/14 Q1012","temp":31,"dewp":14,"wdir":240,"wspd":6,"visib":"6+","altim":1012,"clouds":[{"cover":"SCT","base":3000},{"cover":"FEW","base":3500}],"obsTime":1774904400},"SBSM":{"icaoId":"SBSM","flightCategory":"VFR","rawOb":"METAR SBSM 302100Z 13002KT 9999 FEW040TCU 27/24 Q1013","temp":27,"dewp":24,"wdir":130,"wspd":2,"visib":"6+","altim":1013,"clouds":[{"cover":"FEW","base":4000}],"obsTime":1774904400},"SBSJ":{"icaoId":"SBSJ","flightCategory":"VFR","rawOb":"METAR SBSJ 302100Z 12013KT CAVOK 23/17 Q1016","temp":23,"dewp":17,"wdir":120,"wspd":13,"visib":"6+","altim":1016,"clouds":[],"obsTime":1774904400},"SBCO":{"icaoId":"SBCO","flightCategory":"MVFR","rawOb":"METAR SBCO 302100Z 09010KT 9999 BKN019 BKN090 26/23 Q1014","temp":26,"dewp":23,"wdir":90,"wspd":10,"visib":"6+","altim":1014,"clouds":[{"cover":"BKN","base":1900},{"cover":"BKN","base":9000}],"obsTime":1774904400},"SBSC":{"icaoId":"SBSC","flightCategory":"VFR","rawOb":"METAR SBSC 302100Z 22005KT 9999 SCT040 25/22 Q1013","temp":25,"dewp":22,"wdir":220,"wspd":5,"visib":"6+","altim":1013,"clouds":[{"cover":"SCT","base":4000}],"obsTime":1774904400},"SBDN":{"icaoId":"SBDN","flightCategory":"VFR","rawOb":"METAR SBDN 302100Z 27002KT CAVOK 33/19 Q1012","temp":33,"dewp":19,"wdir":270,"wspd":2,"visib":"6+","altim":1012,"clouds":[],"obsTime":1774904400},"SBPS":{"icaoId":"SBPS","flightCategory":"VFR","rawOb":"METAR SBPS 302100Z 16003KT 9999 SCT017 25/23 Q1012","temp":25,"dewp":23,"wdir":160,"wspd":3,"visib":"6+","altim":1012,"clouds":[{"cover":"SCT","base":1700}],"obsTime":1774904400},"SBPL":{"icaoId":"SBPL","flightCategory":"VFR","rawOb":"METAR SBPL 302100Z 14005KT 9999 SCT030 28/22 Q1010","temp":28,"dewp":22,"wdir":140,"wspd":5,"visib":"6+","altim":1010,"clouds":[{"cover":"SCT","base":3000}],"obsTime":1774904400},"SBIP":{"icaoId":"SBIP","flightCategory":"VFR","rawOb":"METAR SBIP 302100Z AUTO 36003KT CAVOK 25/21 Q1011","temp":25,"dewp":21,"wdir":360,"wspd":3,"visib":"6+","altim":1011,"clouds":[],"obsTime":1774904400},"SBPB":{"icaoId":"SBPB","flightCategory":"MVFR","rawOb":"METAR SBPB 302100Z 10004KT 9999 -TSRA BKN017 FEW026CB BKN100 24/23 Q1010","temp":24,"dewp":23,"wdir":100,"wspd":4,"visib":"6+","altim":1010,"clouds":[{"cover":"BKN","base":1700},{"cover":"FEW","base":2600},{"cover":"BKN","base":10000}],"obsTime":1774904400},"SBCJ":{"icaoId":"SBCJ","flightCategory":"VFR","rawOb":"METAR SBCJ 302100Z 00000KT CAVOK 23/21 Q1013","temp":23,"dewp":21,"wdir":0,"wspd":0,"visib":"6+","altim":1013,"clouds":[],"obsTime":1774904400},"SBOI":{"icaoId":"SBOI","flightCategory":"VFR","rawOb":"METAR SBOI 302100Z AUTO 30003KT 9999 FEW009 25/25 Q1011","temp":25,"dewp":25,"wdir":300,"wspd":3,"visib":"6+","altim":1011,"clouds":[{"cover":"FEW","base":900}],"obsTime":1774904400},"SBPP":{"icaoId":"SBPP","flightCategory":"VFR","rawOb":"METAR SBPP 302100Z 13005KT 9999 FEW025 30/18 Q1014","temp":30,"dewp":18,"wdir":130,"wspd":5,"visib":"6+","altim":1014,"clouds":[{"cover":"FEW","base":2500}],"obsTime":1774904400},"SBES":{"icaoId":"SBES","flightCategory":"VFR","rawOb":"METAR SBES 302100Z 18005KT 130V200 9999 FEW015 25/// Q1012","temp":null,"dewp":null,"wdir":180,"wspd":5,"visib":"6+","altim":1012,"clouds":[{"cover":"FEW","base":1500}],"obsTime":1774904400},"SBJP":{"icaoId":"SBJP","flightCategory":"MVFR","rawOb":"METAR SBJP 302100Z 11009KT 090V150 9999 -RA BKN020 28/24 Q1010","temp":28,"dewp":24,"wdir":110,"wspd":9,"visib":"6+","altim":1010,"clouds":[{"cover":"BKN","base":2000}],"obsTime":1774904400},"SBAN":{"icaoId":"SBAN","flightCategory":"VFR","rawOb":"METAR SBAN 302100Z 15005KT 9999 2000W SCT040 FEW045TCU 24/16 Q1016","temp":24,"dewp":16,"wdir":150,"wspd":5,"visib":"6+","altim":1016,"clouds":[{"cover":"SCT","base":4000},{"cover":"FEW","base":4500}],"obsTime":1774904400},"SBLE":{"icaoId":"SBLE","flightCategory":"VFR","rawOb":"METAR SBLE 302100Z AUTO 17002KT CAVOK 25/25 Q1013","temp":25,"dewp":25,"wdir":170,"wspd":2,"visib":"6+","altim":1013,"clouds":[],"obsTime":1774904400},"SBJV":{"icaoId":"SBJV","flightCategory":"VFR","rawOb":"METAR SBJV 302100Z 31003KT 9999 SCT030 BKN100 26/23 Q1013","temp":26,"dewp":23,"wdir":310,"wspd":3,"visib":"6+","altim":1013,"clouds":[{"cover":"SCT","base":3000},{"cover":"BKN","base":10000}],"obsTime":1774904400},"SBPF":{"icaoId":"SBPF","flightCategory":"VFR","rawOb":"METAR SBPF 302100Z 14015KT 9999 SCT040 26/19 Q1015","temp":26,"dewp":19,"wdir":140,"wspd":15,"visib":"6+","altim":1015,"clouds":[{"cover":"SCT","base":4000}],"obsTime":1774904400},"SBAF":{"icaoId":"SBAF","flightCategory":"VFR","rawOb":"METAR SBAF 302100Z 21008KT 9999 SCT025 BKN045 26/22 Q1013","temp":26,"dewp":22,"wdir":210,"wspd":8,"visib":"6+","altim":1013,"clouds":[{"cover":"SCT","base":2500},{"cover":"BKN","base":4500}],"obsTime":1774904400},"SBGW":{"icaoId":"SBGW","flightCategory":"MVFR","rawOb":"METAR SBGW 302100Z 15006KT 100V190 9999 VCSH VCTS BKN030 FEW035CB 24/14 Q1014 RETS","temp":24,"dewp":14,"wdir":150,"wspd":6,"visib":"6+","altim":1014,"clouds":[{"cover":"BKN","base":3000},{"cover":"FEW","base":3500}],"obsTime":1774904400},"SBJR":{"icaoId":"SBJR","flightCategory":"VFR","rawOb":"METAR SBJR 302100Z 22003KT 9999 FEW025 SCT040 25/21 Q1013","temp":25,"dewp":21,"wdir":220,"wspd":3,"visib":"6+","altim":1013,"clouds":[{"cover":"FEW","base":2500},{"cover":"SCT","base":4000}],"obsTime":1774904400},"SBLS":{"icaoId":"SBLS","flightCategory":"VFR","rawOb":"METAR SBLS 302100Z 12004KT 9999 FEW030 FEW035TCU 24/18 Q1015","temp":24,"dewp":18,"wdir":120,"wspd":4,"visib":"6+","altim":1015,"clouds":[{"cover":"FEW","base":3000},{"cover":"FEW","base":3500}],"obsTime":1774904400},"SBMT":{"icaoId":"SBMT","flightCategory":"VFR","rawOb":"METAR SBMT 302100Z 13003KT CAVOK 22/17 Q1016","temp":22,"dewp":17,"wdir":130,"wspd":3,"visib":"6+","altim":1016,"clouds":[],"obsTime":1774904400},"SBTA":{"icaoId":"SBTA","flightCategory":"VFR","rawOb":"METAR SBTA 302100Z 17009KT 140V210 9999 SCT025 FEW030TCU BKN100 25/19 Q1014","temp":25,"dewp":19,"wdir":170,"wspd":9,"visib":"6+","altim":1014,"clouds":[{"cover":"SCT","base":2500},{"cover":"FEW","base":3000},{"cover":"BKN","base":10000}],"obsTime":1774904400},"SBIH":{"icaoId":"SBIH","flightCategory":"VFR","rawOb":"METAR SBIH 302100Z 30003KT 9999 TS SCT016 FEW025CB 29/24 Q1007","temp":29,"dewp":24,"wdir":300,"wspd":3,"visib":"6+","altim":1007,"clouds":[{"cover":"SCT","base":1600},{"cover":"FEW","base":2500}],"obsTime":1774904400},"SBST":{"icaoId":"SBST","flightCategory":"VFR","rawOb":"METAR SBST 302100Z 15004KT CAVOK 24/21 Q1013","temp":24,"dewp":21,"wdir":150,"wspd":4,"visib":"6+","altim":1013,"clouds":[],"obsTime":1774904400}}}