{"updated":1778073787,"count":87,"data":{"SBAT":{"icaoId":"SBAT","flightCategory":"VFR","rawOb":"METAR SBAT 061200Z 00000KT CAVOK 27/24 Q1016","temp":27,"dewp":24,"wdir":0,"wspd":0,"visib":"6+","altim":1016,"clouds":[],"obsTime":1778068800},"SBBE":{"icaoId":"SBBE","flightCategory":"VFR","rawOb":"METAR SBBE 061200Z 05003KT 9999 FEW020 27/24 Q1014","temp":27,"dewp":24,"wdir":50,"wspd":3,"visib":"6+","altim":1014,"clouds":[{"cover":"FEW","base":2000}],"obsTime":1778068800},"SBBR":{"icaoId":"SBBR","flightCategory":"VFR","rawOb":"METAR SBBR 061200Z 11014KT 9999 FEW017 21/16 Q1024","temp":21,"dewp":16,"wdir":110,"wspd":14,"visib":"6+","altim":1024,"clouds":[{"cover":"FEW","base":1700}],"obsTime":1778068800},"SBBV":{"icaoId":"SBBV","flightCategory":"VFR","rawOb":"METAR SBBV 061200Z 12005KT 9999 SCT016 BKN100 26/23 Q1016","temp":26,"dewp":23,"wdir":120,"wspd":5,"visib":"6+","altim":1016,"clouds":[{"cover":"SCT","base":1600},{"cover":"BKN","base":10000}],"obsTime":1778068800},"SBCB":{"icaoId":"SBCB","flightCategory":"VFR","rawOb":"METAR SBCB 061200Z 04012KT 9999 FEW015 26/21 Q1021","temp":26,"dewp":21,"wdir":40,"wspd":12,"visib":"6+","altim":1021,"clouds":[{"cover":"FEW","base":1500}],"obsTime":1778068800},"SBCF":{"icaoId":"SBCF","flightCategory":"VFR","rawOb":"METAR SBCF 061200Z 11008KT CAVOK 23/17 Q1024","temp":23,"dewp":17,"wdir":110,"wspd":8,"visib":"6+","altim":1024,"clouds":[],"obsTime":1778068800},"SBCG":{"icaoId":"SBCG","flightCategory":"VFR","rawOb":"METAR SBCG 061200Z 05012KT CAVOK 27/16 Q1019","temp":27,"dewp":16,"wdir":50,"wspd":12,"visib":"6+","altim":1019,"clouds":[],"obsTime":1778068800},"SBCP":{"icaoId":"SBCP","flightCategory":"MVFR","rawOb":"METAR SBCP 061200Z 29004KT 9999 BKN020 26/21 Q1021","temp":26,"dewp":21,"wdir":290,"wspd":4,"visib":"6+","altim":1021,"clouds":[{"cover":"BKN","base":2000}],"obsTime":1778068800},"SBCR":{"icaoId":"SBCR","flightCategory":"VFR","rawOb":"METAR SBCR 061200Z 07006KT CAVOK 28/21 Q1015","temp":28,"dewp":21,"wdir":70,"wspd":6,"visib":"6+","altim":1015,"clouds":[],"obsTime":1778068800},"SBCT":{"icaoId":"SBCT","flightCategory":"VFR","rawOb":"METAR SBCT 061200Z VRB01KT CAVOK 21/18 Q1025","temp":21,"dewp":18,"wdir":"VRB","wspd":1,"visib":"6+","altim":1025,"clouds":[],"obsTime":1778068800},"SBCZ":{"icaoId":"SBCZ","flightCategory":"VFR","rawOb":"METAR SBCZ 061200Z 00000KT 9999 SCT006 BKN100 24/24 Q1015","temp":24,"dewp":24,"wdir":0,"wspd":0,"visib":"6+","altim":1015,"clouds":[{"cover":"SCT","base":600},{"cover":"BKN","base":10000}],"obsTime":1778068800},"SBEG":{"icaoId":"SBEG","flightCategory":"MVFR","rawOb":"METAR SBEG 061200Z 07005KT 8000 -DZ SCT007 FEW025TCU BKN070 24/23 Q1016","temp":24,"dewp":23,"wdir":70,"wspd":5,"visib":4.97,"altim":1016,"clouds":[{"cover":"SCT","base":700},{"cover":"FEW","base":2500},{"cover":"BKN","base":7000}],"obsTime":1778068800},"SBFI":{"icaoId":"SBFI","flightCategory":"VFR","rawOb":"METAR SBFI 061200Z 10007KT CAVOK 24/22 Q1018","temp":24,"dewp":22,"wdir":100,"wspd":7,"visib":"6+","altim":1018,"clouds":[],"obsTime":1778068800},"SBFL":{"icaoId":"SBFL","flightCategory":"VFR","rawOb":"METAR SBFL 061200Z 35011KT 9999 FEW008 23/22 Q1019","temp":23,"dewp":22,"wdir":350,"wspd":11,"visib":"6+","altim":1019,"clouds":[{"cover":"FEW","base":800}],"obsTime":1778068800},"SBFZ":{"icaoId":"SBFZ","flightCategory":"VFR","rawOb":"METAR SBFZ 061200Z 16014KT 9999 FEW020 29/23 Q1013","temp":29,"dewp":23,"wdir":160,"wspd":14,"visib":"6+","altim":1013,"clouds":[{"cover":"FEW","base":2000}],"obsTime":1778068800},"SBGL":{"icaoId":"SBGL","flightCategory":"VFR","rawOb":"METAR SBGL 061200Z 30001KT CAVOK 26/21 Q1021","temp":26,"dewp":21,"wdir":300,"wspd":1,"visib":"6+","altim":1021,"clouds":[],"obsTime":1778068800},"SBGO":{"icaoId":"SBGO","flightCategory":"VFR","rawOb":"METAR SBGO 061200Z 05011KT CAVOK 24/17 Q1022","temp":24,"dewp":17,"wdir":50,"wspd":11,"visib":"6+","altim":1022,"clouds":[],"obsTime":1778068800},"SBGR":{"icaoId":"SBGR","flightCategory":"VFR","rawOb":"METAR SBGR 061200Z 05009KT CAVOK 21/18 Q1024","temp":21,"dewp":18,"wdir":50,"wspd":9,"visib":"6+","altim":1024,"clouds":[],"obsTime":1778068800},"SBHT":{"icaoId":"SBHT","flightCategory":"MVFR","rawOb":"METAR SBHT 061200Z 07001KT 9999 BKN015 SCT080 26/23 Q1014","temp":26,"dewp":23,"wdir":70,"wspd":1,"visib":"6+","altim":1014,"clouds":[{"cover":"BKN","base":1500},{"cover":"SCT","base":8000}],"obsTime":1778068800},"SBJU":{"icaoId":"SBJU","flightCategory":"MVFR","rawOb":"METAR SBJU 061200Z 15010KT 9999 BKN020 26/22 Q1017","temp":26,"dewp":22,"wdir":150,"wspd":10,"visib":"6+","altim":1017,"clouds":[{"cover":"BKN","base":2000}],"obsTime":1778068800},"SBKP":{"icaoId":"SBKP","flightCategory":"VFR","rawOb":"METAR SBKP 061200Z 12004KT CAVOK 24/17 Q1023","temp":24,"dewp":17,"wdir":120,"wspd":4,"visib":"6+","altim":1023,"clouds":[],"obsTime":1778068800},"SBLO":{"icaoId":"SBLO","flightCategory":"VFR","rawOb":"METAR SBLO 061200Z 17003KT CAVOK 23/19 Q1022","temp":23,"dewp":19,"wdir":170,"wspd":3,"visib":"6+","altim":1022,"clouds":[],"obsTime":1778068800},"SBMA":{"icaoId":"SBMA","flightCategory":"MVFR","rawOb":"METAR SBMA 061200Z 02002KT 9999 BKN015 OVC080 26/24 Q1014","temp":26,"dewp":24,"wdir":20,"wspd":2,"visib":"6+","altim":1014,"clouds":[{"cover":"BKN","base":1500},{"cover":"OVC","base":8000}],"obsTime":1778068800},"SBME":{"icaoId":"SBME","flightCategory":"VFR","rawOb":"METAR SBME 061200Z 03009KT CAVOK 27/20 Q1021","temp":27,"dewp":20,"wdir":30,"wspd":9,"visib":"6+","altim":1021,"clouds":[],"obsTime":1778068800},"SBMG":{"icaoId":"SBMG","flightCategory":"VFR","rawOb":"METAR SBMG 061200Z 07009KT CAVOK 26/19 Q1020","temp":26,"dewp":19,"wdir":70,"wspd":9,"visib":"6+","altim":1020,"clouds":[],"obsTime":1778068800},"SBMK":{"icaoId":"SBMK","flightCategory":"VFR","rawOb":"METAR SBMK 061200Z 10007KT CAVOK 25/17 Q1022","temp":25,"dewp":17,"wdir":100,"wspd":7,"visib":"6+","altim":1022,"clouds":[],"obsTime":1778068800},"SBMO":{"icaoId":"SBMO","flightCategory":"VFR","rawOb":"METAR SBMO 061200Z 14011KT 110V170 9999 SCT029 29/23 Q1015","temp":29,"dewp":23,"wdir":140,"wspd":11,"visib":"6+","altim":1015,"clouds":[{"cover":"SCT","base":2900}],"obsTime":1778068800},"SBMQ":{"icaoId":"SBMQ","flightCategory":"IFR","rawOb":"METAR SBMQ 061200Z 29006KT 9999 BKN007 BKN080 26/24 Q1015","temp":26,"dewp":24,"wdir":290,"wspd":6,"visib":"6+","altim":1015,"clouds":[{"cover":"BKN","base":700},{"cover":"BKN","base":8000}],"obsTime":1778068800},"SBNT":{"icaoId":"SBNT","flightCategory":"VFR","rawOb":"METAR SBNT 061200Z 16011KT 130V190 9999 SCT030 FEW033TCU SCT040 28/23 Q1014","temp":28,"dewp":23,"wdir":160,"wspd":11,"visib":"6+","altim":1014,"clouds":[{"cover":"SCT","base":3000},{"cover":"FEW","base":3300},{"cover":"SCT","base":4000}],"obsTime":1778068800},"SBPA":{"icaoId":"SBPA","flightCategory":"VFR","rawOb":"METAR SBPA 061200Z VRB01KT CAVOK 22/20 Q1016","temp":22,"dewp":20,"wdir":"VRB","wspd":1,"visib":"6+","altim":1016,"clouds":[],"obsTime":1778068800},"SBPJ":{"icaoId":"SBPJ","flightCategory":"VFR","rawOb":"METAR SBPJ 061200Z 12010KT 090V160 CAVOK 29/19 Q1016","temp":29,"dewp":19,"wdir":120,"wspd":10,"visib":"6+","altim":1016,"clouds":[],"obsTime":1778068800},"SBPV":{"icaoId":"SBPV","flightCategory":"VFR","rawOb":"METAR SBPV 061200Z 34002KT CAVOK 27/25 Q1014","temp":27,"dewp":25,"wdir":340,"wspd":2,"visib":"6+","altim":1014,"clouds":[],"obsTime":1778068800},"SBRB":{"icaoId":"SBRB","flightCategory":"VFR","rawOb":"METAR SBRB 061200Z 00000KT CAVOK 26/24 Q1015","temp":26,"dewp":24,"wdir":0,"wspd":0,"visib":"6+","altim":1015,"clouds":[],"obsTime":1778068800},"SBRF":{"icaoId":"SBRF","flightCategory":"MVFR","rawOb":"METAR SBRF 061200Z 17013KT 9999 BKN025 BKN050 28/23 Q1014","temp":28,"dewp":23,"wdir":170,"wspd":13,"visib":"6+","altim":1014,"clouds":[{"cover":"BKN","base":2500},{"cover":"BKN","base":5000}],"obsTime":1778068800},"SBSG":{"icaoId":"SBSG","flightCategory":"VFR","rawOb":"METAR SBSG 061200Z 17010KT 130V210 9999 SCT023 28/23 Q1014","temp":28,"dewp":23,"wdir":170,"wspd":10,"visib":"6+","altim":1014,"clouds":[{"cover":"SCT","base":2300}],"obsTime":1778068800},"SBSL":{"icaoId":"SBSL","flightCategory":"VFR","rawOb":"METAR SBSL 061200Z 34004KT 9999 SCT014 28/26 Q1013","temp":28,"dewp":26,"wdir":340,"wspd":4,"visib":"6+","altim":1013,"clouds":[{"cover":"SCT","base":1400}],"obsTime":1778068800},"SBSN":{"icaoId":"SBSN","flightCategory":"VFR","rawOb":"METAR SBSN 061200Z 01004KT 9999 FEW012 SCT016 BKN090 26/24 Q1014","temp":26,"dewp":24,"wdir":10,"wspd":4,"visib":"6+","altim":1014,"clouds":[{"cover":"FEW","base":1200},{"cover":"SCT","base":1600},{"cover":"BKN","base":9000}],"obsTime":1778068800},"SBSP":{"icaoId":"SBSP","flightCategory":"VFR","rawOb":"METAR SBSP 061200Z 09005KT 040V130 CAVOK 23/17 Q1025","temp":23,"dewp":17,"wdir":90,"wspd":5,"visib":"6+","altim":1025,"clouds":[],"obsTime":1778068800},"SBSV":{"icaoId":"SBSV","flightCategory":"VFR","rawOb":"METAR SBSV 061200Z 11009KT 9999 SCT025 BKN070 28/23 Q1017","temp":28,"dewp":23,"wdir":110,"wspd":9,"visib":"6+","altim":1017,"clouds":[{"cover":"SCT","base":2500},{"cover":"BKN","base":7000}],"obsTime":1778068800},"SBTE":{"icaoId":"SBTE","flightCategory":"VFR","rawOb":"METAR SBTE 061200Z 35003KT 9999 SCT018 BKN080 28/24 Q1014","temp":28,"dewp":24,"wdir":350,"wspd":3,"visib":"6+","altim":1014,"clouds":[{"cover":"SCT","base":1800},{"cover":"BKN","base":8000}],"obsTime":1778068800},"SBUL":{"icaoId":"SBUL","flightCategory":"VFR","rawOb":"METAR SBUL 061200Z 09009KT CAVOK 22/16 Q1024","temp":22,"dewp":16,"wdir":90,"wspd":9,"visib":"6+","altim":1024,"clouds":[],"obsTime":1778068800},"SBUR":{"icaoId":"SBUR","flightCategory":"VFR","rawOb":"METAR SBUR 061200Z 05010KT CAVOK 24/15 Q1022","temp":24,"dewp":15,"wdir":50,"wspd":10,"visib":"6+","altim":1022,"clouds":[],"obsTime":1778068800},"SBVT":{"icaoId":"SBVT","flightCategory":"MVFR","rawOb":"METAR SBVT 061200Z 20003KT 9999 SCT013 BKN020 26/24 Q1021","temp":26,"dewp":24,"wdir":200,"wspd":3,"visib":"6+","altim":1021,"clouds":[{"cover":"SCT","base":1300},{"cover":"BKN","base":2000}],"obsTime":1778068800},"SBIL":{"icaoId":"SBIL","flightCategory":"VFR","rawOb":"METAR SBIL 061200Z 22005KT 9999 SCT023 FEW025TCU SCT060 27/25 Q1018","temp":27,"dewp":25,"wdir":220,"wspd":5,"visib":"6+","altim":1018,"clouds":[{"cover":"SCT","base":2300},{"cover":"FEW","base":2500},{"cover":"SCT","base":6000}],"obsTime":1778068800},"SBCC":{"icaoId":"SBCC","flightCategory":"VFR","rawOb":"METAR SBCC 061200Z 05007KT CAVOK 26/19 Q1017","temp":26,"dewp":19,"wdir":50,"wspd":7,"visib":"6+","altim":1017,"clouds":[],"obsTime":1778068800},"SBAX":{"icaoId":"SBAX","flightCategory":"VFR","rawOb":"METAR SBAX 061200Z 10010KT CAVOK 21/15 Q1024","temp":21,"dewp":15,"wdir":100,"wspd":10,"visib":"6+","altim":1024,"clouds":[],"obsTime":1778068800},"SBBH":{"icaoId":"SBBH","flightCategory":"VFR","rawOb":"METAR SBBH 061200Z 11010KT 9999 FEW020 23/17 Q1024","temp":23,"dewp":17,"wdir":110,"wspd":10,"visib":"6+","altim":1024,"clouds":[{"cover":"FEW","base":2000}],"obsTime":1778068800},"SBBQ":{"icaoId":"SBBQ","flightCategory":"VFR","rawOb":"METAR SBBQ 061200Z 09005KT 060V140 9999 FEW010 20/16 Q1028","temp":20,"dewp":16,"wdir":90,"wspd":5,"visib":"6+","altim":1028,"clouds":[{"cover":"FEW","base":1000}],"obsTime":1778068800},"SBBU":{"icaoId":"SBBU","flightCategory":"VFR","rawOb":"METAR SBBU 061200Z 10007KT CAVOK 26/19 Q1022","temp":26,"dewp":19,"wdir":100,"wspd":7,"visib":"6+","altim":1022,"clouds":[],"obsTime":1778068800},"SBCA":{"icaoId":"SBCA","flightCategory":"VFR","rawOb":"METAR SBCA 061200Z 06010KT CAVOK 23/18 Q1022","temp":23,"dewp":18,"wdir":60,"wspd":10,"visib":"6+","altim":1022,"clouds":[],"obsTime":1778068800},"SBAR":{"icaoId":"SBAR","flightCategory":"VFR","rawOb":"METAR SBAR 061200Z 13010KT 9999 SCT025 SCT050 29/22 Q1015","temp":29,"dewp":22,"wdir":130,"wspd":10,"visib":"6+","altim":1015,"clouds":[{"cover":"SCT","base":2500},{"cover":"SCT","base":5000}],"obsTime":1778068800},"SBCJ":{"icaoId":"SBCJ","flightCategory":"VFR","rawOb":"METAR SBCJ 061200Z 14003KT 9999 FEW012 26/22 Q1019","temp":26,"dewp":22,"wdir":140,"wspd":3,"visib":"6+","altim":1019,"clouds":[{"cover":"FEW","base":1200}],"obsTime":1778068800},"SBCO":{"icaoId":"SBCO","flightCategory":"VFR","rawOb":"METAR SBCO 061200Z 00000KT CAVOK 21/20 Q1017","temp":21,"dewp":20,"wdir":0,"wspd":0,"visib":"6+","altim":1017,"clouds":[],"obsTime":1778068800},"SBDN":{"icaoId":"SBDN","flightCategory":"VFR","rawOb":"METAR SBDN 061200Z 06009KT CAVOK 26/17 Q1020","temp":26,"dewp":17,"wdir":60,"wspd":9,"visib":"6+","altim":1020,"clouds":[],"obsTime":1778068800},"SBES":{"icaoId":"SBES","flightCategory":"VFR","rawOb":"METAR SBES 061200Z 04009KT 320V080 9999 FEW020 25/// Q1021","temp":null,"dewp":null,"wdir":40,"wspd":9,"visib":"6+","altim":1021,"clouds":[{"cover":"FEW","base":2000}],"obsTime":1778068800},"SBGM":{"icaoId":"SBGM","flightCategory":"VFR","rawOb":"METAR SBGM 061200Z 25001KT 9999 FEW033 26/24 Q1015","temp":26,"dewp":24,"wdir":250,"wspd":1,"visib":"6+","altim":1015,"clouds":[{"cover":"FEW","base":3300}],"obsTime":1778068800},"SBIP":{"icaoId":"SBIP","flightCategory":"VFR","rawOb":"METAR SBIP 061200Z AUTO 20005KT 9999 BKN038 22/19 Q1022","temp":22,"dewp":19,"wdir":200,"wspd":5,"visib":"6+","altim":1022,"clouds":[{"cover":"BKN","base":3800}],"obsTime":1778068800},"SBKG":{"icaoId":"SBKG","flightCategory":"MVFR","rawOb":"METAR SBKG 061200Z 15009KT 9999 BKN023 25/20 Q1017","temp":25,"dewp":20,"wdir":150,"wspd":9,"visib":"6+","altim":1017,"clouds":[{"cover":"BKN","base":2300}],"obsTime":1778068800},"SBOI":{"icaoId":"SBOI","flightCategory":"MVFR","rawOb":"METAR SBOI 061300Z AUTO 05007KT 020V090 9999 BKN023 BKN026 29/24 Q1015","temp":29,"dewp":24,"wdir":50,"wspd":7,"visib":"6+","altim":1015,"clouds":[{"cover":"BKN","base":2300},{"cover":"BKN","base":2600}],"obsTime":1778072400},"SBPB":{"icaoId":"SBPB","flightCategory":"VFR","rawOb":"METAR SBPB 061200Z 14006KT 9999 FEW020 29/25 Q1013","temp":29,"dewp":25,"wdir":140,"wspd":6,"visib":"6+","altim":1013,"clouds":[{"cover":"FEW","base":2000}],"obsTime":1778068800},"SBPL":{"icaoId":"SBPL","flightCategory":"MVFR","rawOb":"METAR SBPL 061200Z 13010KT 9999 BKN022 SCT070 26/21 Q1017","temp":26,"dewp":21,"wdir":130,"wspd":10,"visib":"6+","altim":1017,"clouds":[{"cover":"BKN","base":2200},{"cover":"SCT","base":7000}],"obsTime":1778068800},"SBPP":{"icaoId":"SBPP","flightCategory":"VFR","rawOb":"METAR SBPP 061200Z 05004KT CAVOK 22/19 Q1020","temp":22,"dewp":19,"wdir":50,"wspd":4,"visib":"6+","altim":1020,"clouds":[],"obsTime":1778068800},"SBPS":{"icaoId":"SBPS","flightCategory":"VFR","rawOb":"METAR SBPS 061200Z 18002KT 9999 SCT020 26/24 Q1019","temp":26,"dewp":24,"wdir":180,"wspd":2,"visib":"6+","altim":1019,"clouds":[{"cover":"SCT","base":2000}],"obsTime":1778068800},"SBSC":{"icaoId":"SBSC","flightCategory":"VFR","rawOb":"METAR SBSC 061200Z 02007KT CAVOK 27/20 Q1021","temp":27,"dewp":20,"wdir":20,"wspd":7,"visib":"6+","altim":1021,"clouds":[],"obsTime":1778068800},"SBSJ":{"icaoId":"SBSJ","flightCategory":"MVFR","rawOb":"METAR SBSJ 061200Z 27001KT 7000 NSC 22/18 Q1024","temp":22,"dewp":18,"wdir":270,"wspd":1,"visib":4.35,"altim":1024,"clouds":[],"obsTime":1778068800},"SBSM":{"icaoId":"SBSM","flightCategory":"VFR","rawOb":"METAR SBSM 061200Z 01009KT 340V040 9999 FEW045 27/19 Q1016","temp":27,"dewp":19,"wdir":10,"wspd":9,"visib":"6+","altim":1016,"clouds":[{"cover":"FEW","base":4500}],"obsTime":1778068800},"SBSR":{"icaoId":"SBSR","flightCategory":"VFR","rawOb":"METAR SBSR 061200Z 06010KT CAVOK 24/15 Q1021","temp":24,"dewp":15,"wdir":60,"wspd":10,"visib":"6+","altim":1021,"clouds":[],"obsTime":1778068800},"SBTD":{"icaoId":"SBTD","flightCategory":"VFR","rawOb":"METAR SBTD 061200Z /////KT CAVOK 23/19 Q1021","temp":23,"dewp":19,"wdir":null,"wspd":null,"visib":"6+","altim":1021,"clouds":[],"obsTime":1778068800},"SBTF":{"icaoId":"SBTF","flightCategory":"VFR","rawOb":"METAR SBTF 061200Z 00000KT 9999 SCT006 SCT090 26/25 Q1014","temp":26,"dewp":25,"wdir":0,"wspd":0,"visib":"6+","altim":1014,"clouds":[{"cover":"SCT","base":600},{"cover":"SCT","base":9000}],"obsTime":1778068800},"SBTT":{"icaoId":"SBTT","flightCategory":"VFR","rawOb":"METAR SBTT 061200Z 14003KT 9999 SCT008 BKN080 24/22 Q1015","temp":24,"dewp":22,"wdir":140,"wspd":3,"visib":"6+","altim":1015,"clouds":[{"cover":"SCT","base":800},{"cover":"BKN","base":8000}],"obsTime":1778068800},"SBUY":{"icaoId":"SBUY","flightCategory":"IFR","rawOb":"METAR SBUY 061200Z 02002KT 3000 BR BKN006 BKN070 24/24 Q1014","temp":24,"dewp":24,"wdir":20,"wspd":2,"visib":1.86,"altim":1014,"clouds":[{"cover":"BKN","base":600},{"cover":"BKN","base":7000}],"obsTime":1778068800},"SBVH":{"icaoId":"SBVH","flightCategory":"VFR","rawOb":"METAR SBVH 061200Z 08004KT CAVOK 24/22 Q1019","temp":24,"dewp":22,"wdir":80,"wspd":4,"visib":"6+","altim":1019,"clouds":[],"obsTime":1778068800},"SBAU":{"icaoId":"SBAU","flightCategory":"VFR","rawOb":"METAR SBAU 061300Z 03010KT CAVOK 28/17 Q1021","temp":28,"dewp":17,"wdir":30,"wspd":10,"visib":"6+","altim":1021,"clouds":[],"obsTime":1778072400},"SBJV":{"icaoId":"SBJV","flightCategory":"LIFR","rawOb":"METAR SBJV 061200Z 36002KT 1000 R33/1300 BR OVC001 21/21 Q1020","temp":21,"dewp":21,"wdir":360,"wspd":2,"visib":0.62,"altim":1020,"clouds":[{"cover":"OVC","base":100}],"obsTime":1778068800},"SBAN":{"icaoId":"SBAN","flightCategory":"VFR","rawOb":"METAR SBAN 061200Z 15020KT 110V170 9999 FEW015 20/15 Q1024","temp":20,"dewp":15,"wdir":150,"wspd":20,"visib":"6+","altim":1024,"clouds":[{"cover":"FEW","base":1500}],"obsTime":1778068800},"SBIH":{"icaoId":"SBIH","flightCategory":"VFR","rawOb":"METAR SBIH 061200Z 00000KT 9999 SCT011 26/24 Q1015","temp":26,"dewp":24,"wdir":0,"wspd":0,"visib":"6+","altim":1015,"clouds":[{"cover":"SCT","base":1100}],"obsTime":1778068800},"SBAF":{"icaoId":"SBAF","flightCategory":"VFR","rawOb":"METAR SBAF 061200Z 10002KT CAVOK ///// Q1021","temp":null,"dewp":null,"wdir":100,"wspd":2,"visib":"6+","altim":1021,"clouds":[],"obsTime":1778068800},"SBGW":{"icaoId":"SBGW","flightCategory":"VFR","rawOb":"METAR SBGW 061200Z 07003KT 010V140 CAVOK 23/16 Q1023","temp":23,"dewp":16,"wdir":70,"wspd":3,"visib":"6+","altim":1023,"clouds":[],"obsTime":1778068800},"SBJR":{"icaoId":"SBJR","flightCategory":"VFR","rawOb":"METAR SBJR 061200Z 02001KT CAVOK 28/21 Q1021","temp":28,"dewp":21,"wdir":20,"wspd":1,"visib":"6+","altim":1021,"clouds":[],"obsTime":1778068800},"SBLS":{"icaoId":"SBLS","flightCategory":"VFR","rawOb":"METAR SBLS 061200Z 14011KT CAVOK 22/17 Q1024","temp":22,"dewp":17,"wdir":140,"wspd":11,"visib":"6+","altim":1024,"clouds":[],"obsTime":1778068800},"SBMT":{"icaoId":"SBMT","flightCategory":"VFR","rawOb":"METAR SBMT 061200Z 08005KT CAVOK 22/18 Q1024","temp":22,"dewp":18,"wdir":80,"wspd":5,"visib":"6+","altim":1024,"clouds":[],"obsTime":1778068800},"SBTA":{"icaoId":"SBTA","flightCategory":"VFR","rawOb":"METAR SBTA 061200Z VRB01KT CAVOK 22/16 Q1023","temp":22,"dewp":16,"wdir":"VRB","wspd":1,"visib":"6+","altim":1023,"clouds":[],"obsTime":1778068800},"SBLE":{"icaoId":"SBLE","flightCategory":"MVFR","rawOb":"METAR SBLE 061200Z AUTO 17004KT 090V230 9999 BKN025 OVC034 23/23 Q1020","temp":23,"dewp":23,"wdir":170,"wspd":4,"visib":"6+","altim":1020,"clouds":[{"cover":"BKN","base":2500},{"cover":"OVC","base":3400}],"obsTime":1778068800},"SBPF":{"icaoId":"SBPF","flightCategory":"VFR","rawOb":"METAR SBPF 061200Z 03011KT CAVOK 20/16 Q1022","temp":20,"dewp":16,"wdir":30,"wspd":11,"visib":"6+","altim":1022,"clouds":[],"obsTime":1778068800},"SBJP":{"icaoId":"SBJP","flightCategory":"IFR","rawOb":"METAR SBJP 061200Z 12007KT 3000 -RA BKN014 OVC030 26/24 Q1015","temp":26,"dewp":24,"wdir":120,"wspd":7,"visib":1.86,"altim":1015,"clouds":[{"cover":"BKN","base":1400},{"cover":"OVC","base":3000}],"obsTime":1778068800},"SBST":{"icaoId":"SBST","flightCategory":"VFR","rawOb":"METAR SBST 061200Z /////KT 9000 FEW015 ///// Q1019","temp":null,"dewp":null,"wdir":null,"wspd":null,"visib":5.59,"altim":1019,"clouds":[{"cover":"FEW","base":1500}],"obsTime":1778068800},"SBNM":{"icaoId":"SBNM","flightCategory":"VFR","rawOb":"METAR SBNM 061200Z 07004KT 9999 FEW030 24/20 Q1018","temp":24,"dewp":20,"wdir":70,"wspd":4,"visib":"6+","altim":1018,"clouds":[{"cover":"FEW","base":3000}],"obsTime":1778068800}}}