{"updated":1781827655,"count":72,"data":{"SBVT":{"icaoId":"SBVT","flightCategory":"VFR","rawOb":"METAR SBVT 182300Z 21006KT CAVOK 20/15 Q1024","temp":20,"dewp":15,"wdir":210,"wspd":6,"visib":"6+","altim":1024,"clouds":[],"obsTime":1781823600},"SBBR":{"icaoId":"SBBR","flightCategory":"VFR","rawOb":"METAR SBBR 182300Z 12007KT CAVOK 21/12 Q1023","temp":21,"dewp":12,"wdir":120,"wspd":7,"visib":"6+","altim":1023,"clouds":[],"obsTime":1781823600},"SBBV":{"icaoId":"SBBV","flightCategory":"MVFR","rawOb":"METAR SBBV 182300Z 20005KT 9999 BKN025 FEW040TCU BKN080 26/23 Q1013","temp":26,"dewp":23,"wdir":200,"wspd":5,"visib":"6+","altim":1013,"clouds":[{"cover":"BKN","base":2500},{"cover":"FEW","base":4000},{"cover":"BKN","base":8000}],"obsTime":1781823600},"SBCF":{"icaoId":"SBCF","flightCategory":"VFR","rawOb":"METAR SBCF 182300Z 13007KT 9999 FEW040 18/12 Q1025","temp":18,"dewp":12,"wdir":130,"wspd":7,"visib":"6+","altim":1025,"clouds":[{"cover":"FEW","base":4000}],"obsTime":1781823600},"SBCG":{"icaoId":"SBCG","flightCategory":"VFR","rawOb":"METAR SBCG 182300Z 08011KT CAVOK 21/15 Q1017","temp":21,"dewp":15,"wdir":80,"wspd":11,"visib":"6+","altim":1017,"clouds":[],"obsTime":1781823600},"SBCT":{"icaoId":"SBCT","flightCategory":"VFR","rawOb":"METAR SBCT 182300Z 07003KT 9999 FEW007 10/09 Q1026","temp":10,"dewp":9,"wdir":70,"wspd":3,"visib":"6+","altim":1026,"clouds":[{"cover":"FEW","base":700}],"obsTime":1781823600},"SBCZ":{"icaoId":"SBCZ","flightCategory":"VFR","rawOb":"METAR SBCZ 182300Z 11004KT 9999 FEW030 BKN100 26/25 Q1013","temp":26,"dewp":25,"wdir":110,"wspd":4,"visib":"6+","altim":1013,"clouds":[{"cover":"FEW","base":3000},{"cover":"BKN","base":10000}],"obsTime":1781823600},"SBEG":{"icaoId":"SBEG","flightCategory":"VFR","rawOb":"METAR SBEG 182300Z 27001KT 9999 FEW020 SCT100 24/24 Q1013","temp":24,"dewp":24,"wdir":270,"wspd":1,"visib":"6+","altim":1013,"clouds":[{"cover":"FEW","base":2000},{"cover":"SCT","base":10000}],"obsTime":1781823600},"SBFI":{"icaoId":"SBFI","flightCategory":"VFR","rawOb":"METAR SBFI 182300Z 06007KT CAVOK 18/10 Q1015 WS R15","temp":18,"dewp":10,"wdir":60,"wspd":7,"visib":"6+","altim":1015,"clouds":[],"obsTime":1781823600},"SBFL":{"icaoId":"SBFL","flightCategory":"MVFR","rawOb":"METAR SBFL 182300Z 34006KT 5000 -RA BKN015 OVC030 16/15 Q1024","temp":16,"dewp":15,"wdir":340,"wspd":6,"visib":3.11,"altim":1024,"clouds":[{"cover":"BKN","base":1500},{"cover":"OVC","base":3000}],"obsTime":1781823600},"SBFZ":{"icaoId":"SBFZ","flightCategory":"VFR","rawOb":"METAR SBFZ 182300Z 08005KT CAVOK 27/24 Q1014","temp":27,"dewp":24,"wdir":80,"wspd":5,"visib":"6+","altim":1014,"clouds":[],"obsTime":1781823600},"SBGL":{"icaoId":"SBGL","flightCategory":"VFR","rawOb":"METAR SBGL 182300Z VRB02KT 9999 SCT040 19/14 Q1025","temp":19,"dewp":14,"wdir":"VRB","wspd":2,"visib":"6+","altim":1025,"clouds":[{"cover":"SCT","base":4000}],"obsTime":1781823600},"SBGO":{"icaoId":"SBGO","flightCategory":"VFR","rawOb":"METAR SBGO 182300Z 14004KT CAVOK 23/13 Q1020","temp":23,"dewp":13,"wdir":140,"wspd":4,"visib":"6+","altim":1020,"clouds":[],"obsTime":1781823600},"SBGR":{"icaoId":"SBGR","flightCategory":"VFR","rawOb":"METAR SBGR 182300Z 11003KT CAVOK 13/10 Q1026","temp":13,"dewp":10,"wdir":110,"wspd":3,"visib":"6+","altim":1026,"clouds":[],"obsTime":1781823600},"SBKP":{"icaoId":"SBKP","flightCategory":"VFR","rawOb":"METAR SBKP 182300Z 12010KT CAVOK 15/07 Q1023","temp":15,"dewp":7,"wdir":120,"wspd":10,"visib":"6+","altim":1023,"clouds":[],"obsTime":1781823600},"SBLO":{"icaoId":"SBLO","flightCategory":"VFR","rawOb":"METAR SBLO 182300Z 13006KT CAVOK 15/11 Q1021","temp":15,"dewp":11,"wdir":130,"wspd":6,"visib":"6+","altim":1021,"clouds":[],"obsTime":1781823600},"SBMA":{"icaoId":"SBMA","flightCategory":"VFR","rawOb":"METAR SBMA 182300Z 00000KT CAVOK 28/24 Q1013","temp":28,"dewp":24,"wdir":0,"wspd":0,"visib":"6+","altim":1013,"clouds":[],"obsTime":1781823600},"SBMO":{"icaoId":"SBMO","flightCategory":"VFR","rawOb":"METAR SBMO 182300Z 15004KT 9999 FEW017 25/23 Q1017","temp":25,"dewp":23,"wdir":150,"wspd":4,"visib":"6+","altim":1017,"clouds":[{"cover":"FEW","base":1700}],"obsTime":1781823600},"SBMQ":{"icaoId":"SBMQ","flightCategory":"VFR","rawOb":"METAR SBMQ 182300Z 03007KT CAVOK 28/25 Q1012","temp":28,"dewp":25,"wdir":30,"wspd":7,"visib":"6+","altim":1012,"clouds":[],"obsTime":1781823600},"SBNT":{"icaoId":"SBNT","flightCategory":"VFR","rawOb":"METAR SBNT 182300Z 15007KT 9999 FEW023 25/23 Q1015","temp":25,"dewp":23,"wdir":150,"wspd":7,"visib":"6+","altim":1015,"clouds":[{"cover":"FEW","base":2300}],"obsTime":1781823600},"SBPA":{"icaoId":"SBPA","flightCategory":"VFR","rawOb":"METAR SBPA 182300Z 09011KT CAVOK 14/11 Q1018","temp":14,"dewp":11,"wdir":90,"wspd":11,"visib":"6+","altim":1018,"clouds":[],"obsTime":1781823600},"SBPJ":{"icaoId":"SBPJ","flightCategory":"VFR","rawOb":"METAR SBPJ 182300Z 12003KT 090V150 CAVOK 28/20 Q1014","temp":28,"dewp":20,"wdir":120,"wspd":3,"visib":"6+","altim":1014,"clouds":[],"obsTime":1781823600},"SBPV":{"icaoId":"SBPV","flightCategory":"VFR","rawOb":"METAR SBPV 182300Z 00000KT CAVOK 26/23 Q1012","temp":26,"dewp":23,"wdir":0,"wspd":0,"visib":"6+","altim":1012,"clouds":[],"obsTime":1781823600},"SBRB":{"icaoId":"SBRB","flightCategory":"VFR","rawOb":"METAR SBRB 182300Z 21003KT 9999 FEW020 23/22 Q1014","temp":23,"dewp":22,"wdir":210,"wspd":3,"visib":"6+","altim":1014,"clouds":[{"cover":"FEW","base":2000}],"obsTime":1781823600},"SBRF":{"icaoId":"SBRF","flightCategory":"VFR","rawOb":"METAR SBRF 182300Z 17010KT 9999 SCT022 26/22 Q1016","temp":26,"dewp":22,"wdir":170,"wspd":10,"visib":"6+","altim":1016,"clouds":[{"cover":"SCT","base":2200}],"obsTime":1781823600},"SBSG":{"icaoId":"SBSG","flightCategory":"VFR","rawOb":"METAR SBSG 182300Z 13005KT 080V170 9999 FEW020 25/24 Q1016","temp":25,"dewp":24,"wdir":130,"wspd":5,"visib":"6+","altim":1016,"clouds":[{"cover":"FEW","base":2000}],"obsTime":1781823600},"SBSL":{"icaoId":"SBSL","flightCategory":"VFR","rawOb":"METAR SBSL 182300Z 06006KT CAVOK 26/24 Q1013","temp":26,"dewp":24,"wdir":60,"wspd":6,"visib":"6+","altim":1013,"clouds":[],"obsTime":1781823600},"SBSN":{"icaoId":"SBSN","flightCategory":"VFR","rawOb":"METAR SBSN 182300Z 08002KT 9999 FEW020 27/25 Q1012","temp":27,"dewp":25,"wdir":80,"wspd":2,"visib":"6+","altim":1012,"clouds":[{"cover":"FEW","base":2000}],"obsTime":1781823600},"SBSP":{"icaoId":"SBSP","flightCategory":"VFR","rawOb":"METAR SBSP 182300Z 13008KT CAVOK 12/10 Q1026","temp":12,"dewp":10,"wdir":130,"wspd":8,"visib":"6+","altim":1026,"clouds":[],"obsTime":1781823600},"SBSV":{"icaoId":"SBSV","flightCategory":"MVFR","rawOb":"METAR SBSV 182300Z 15015KT 9999 BKN023 OVC050 26/20 Q1019","temp":26,"dewp":20,"wdir":150,"wspd":15,"visib":"6+","altim":1019,"clouds":[{"cover":"BKN","base":2300},{"cover":"OVC","base":5000}],"obsTime":1781823600},"SBTE":{"icaoId":"SBTE","flightCategory":"VFR","rawOb":"METAR SBTE 182300Z 34004KT 9999 VCTS SCT020 FEW030CB 28/21 Q1012","temp":28,"dewp":21,"wdir":340,"wspd":4,"visib":"6+","altim":1012,"clouds":[{"cover":"SCT","base":2000},{"cover":"FEW","base":3000}],"obsTime":1781823600},"SBBE":{"icaoId":"SBBE","flightCategory":"VFR","rawOb":"METAR SBBE 182300Z 06006KT 9999 SCT028 BKN090 27/24 Q1013","temp":27,"dewp":24,"wdir":60,"wspd":6,"visib":"6+","altim":1013,"clouds":[{"cover":"SCT","base":2800},{"cover":"BKN","base":9000}],"obsTime":1781823600},"SBUR":{"icaoId":"SBUR","flightCategory":"VFR","rawOb":"METAR SBUR 182300Z 08003KT CAVOK 22/09 Q1021","temp":22,"dewp":9,"wdir":80,"wspd":3,"visib":"6+","altim":1021,"clouds":[],"obsTime":1781823600},"SBME":{"icaoId":"SBME","flightCategory":"VFR","rawOb":"METAR SBME 182300Z 29002KT CAVOK 17/14 Q1025","temp":17,"dewp":14,"wdir":290,"wspd":2,"visib":"6+","altim":1025,"clouds":[],"obsTime":1781823600},"SBMG":{"icaoId":"SBMG","flightCategory":"VFR","rawOb":"METAR SBMG 182300Z 07013KT CAVOK 17/10 Q1019","temp":17,"dewp":10,"wdir":70,"wspd":13,"visib":"6+","altim":1019,"clouds":[],"obsTime":1781823600},"SBMK":{"icaoId":"SBMK","flightCategory":"VFR","rawOb":"METAR SBMK 182300Z 13006KT CAVOK 21/13 Q1022","temp":21,"dewp":13,"wdir":130,"wspd":6,"visib":"6+","altim":1022,"clouds":[],"obsTime":1781823600},"SBUL":{"icaoId":"SBUL","flightCategory":"VFR","rawOb":"METAR SBUL 182300Z 11005KT 070V130 CAVOK 21/09 Q1022","temp":21,"dewp":9,"wdir":110,"wspd":5,"visib":"6+","altim":1022,"clouds":[],"obsTime":1781823600},"SBIL":{"icaoId":"SBIL","flightCategory":"VFR","rawOb":"METAR SBIL 182300Z 21007KT 9999 FEW040 SCT070 24/20 Q1021","temp":24,"dewp":20,"wdir":210,"wspd":7,"visib":"6+","altim":1021,"clouds":[{"cover":"FEW","base":4000},{"cover":"SCT","base":7000}],"obsTime":1781823600},"SBJU":{"icaoId":"SBJU","flightCategory":"VFR","rawOb":"METAR SBJU 182300Z 18005KT 9999 SCT020 27/16 Q1016","temp":27,"dewp":16,"wdir":180,"wspd":5,"visib":"6+","altim":1016,"clouds":[{"cover":"SCT","base":2000}],"obsTime":1781823600},"SBPS":{"icaoId":"SBPS","flightCategory":"MVFR","rawOb":"METAR SBPS 182300Z 20003KT 7000 -RA BKN016 21/20 Q1022","temp":21,"dewp":20,"wdir":200,"wspd":3,"visib":4.35,"altim":1022,"clouds":[{"cover":"BKN","base":1600}],"obsTime":1781823600},"SBPL":{"icaoId":"SBPL","flightCategory":"VFR","rawOb":"METAR SBPL 182300Z 12008KT CAVOK 29/19 Q1017","temp":29,"dewp":19,"wdir":120,"wspd":8,"visib":"6+","altim":1017,"clouds":[],"obsTime":1781823600},"SBAR":{"icaoId":"SBAR","flightCategory":"VFR","rawOb":"METAR SBAR 182300Z 16007KT 9999 FEW020 27/22 Q1017","temp":27,"dewp":22,"wdir":160,"wspd":7,"visib":"6+","altim":1017,"clouds":[{"cover":"FEW","base":2000}],"obsTime":1781823600},"SBSJ":{"icaoId":"SBSJ","flightCategory":"VFR","rawOb":"METAR SBSJ 182300Z 16010KT CAVOK 13/10 Q1025","temp":13,"dewp":10,"wdir":160,"wspd":10,"visib":"6+","altim":1025,"clouds":[],"obsTime":1781823600},"SBOI":{"icaoId":"SBOI","flightCategory":"MVFR","rawOb":"METAR SBOI 182300Z AUTO 01002KT 9999 BKN028 26/24 Q1014","temp":26,"dewp":24,"wdir":10,"wspd":2,"visib":"6+","altim":1014,"clouds":[{"cover":"BKN","base":2800}],"obsTime":1781823600},"SBTU":{"icaoId":"SBTU","flightCategory":"VFR","rawOb":"METAR SBTU 182300Z AUTO 25002KT 9999 // NCD ///// Q1014","temp":null,"dewp":null,"wdir":250,"wspd":2,"visib":"6+","altim":1014,"clouds":[],"obsTime":1781823600},"SBCC":{"icaoId":"SBCC","flightCategory":"VFR","rawOb":"METAR SBCC 182300Z 22002KT 9999 SCT030 FEW035TCU SCT100 24/21 Q1015","temp":24,"dewp":21,"wdir":220,"wspd":2,"visib":"6+","altim":1015,"clouds":[{"cover":"SCT","base":3000},{"cover":"FEW","base":3500},{"cover":"SCT","base":10000}],"obsTime":1781823600},"SBCO":{"icaoId":"SBCO","flightCategory":"VFR","rawOb":"METAR SBCO 182300Z 09010KT CAVOK 14/11 Q1018","temp":14,"dewp":11,"wdir":90,"wspd":10,"visib":"6+","altim":1018,"clouds":[],"obsTime":1781823600},"SBDN":{"icaoId":"SBDN","flightCategory":"VFR","rawOb":"METAR SBDN 182300Z 09009KT CAVOK 19/09 Q1019","temp":19,"dewp":9,"wdir":90,"wspd":9,"visib":"6+","altim":1019,"clouds":[],"obsTime":1781823600},"SBES":{"icaoId":"SBES","flightCategory":"VFR","rawOb":"METAR SBES 182300Z 00000KT CAVOK 14/// Q1025","temp":null,"dewp":null,"wdir":0,"wspd":0,"visib":"6+","altim":1025,"clouds":[],"obsTime":1781823600},"SBIP":{"icaoId":"SBIP","flightCategory":"VFR","rawOb":"METAR SBIP 182300Z AUTO 19002KT 9999 OVC048 19/19 Q1022","temp":19,"dewp":19,"wdir":190,"wspd":2,"visib":"6+","altim":1022,"clouds":[{"cover":"OVC","base":4800}],"obsTime":1781823600},"SBKG":{"icaoId":"SBKG","flightCategory":"VFR","rawOb":"METAR SBKG 182300Z 11008KT CAVOK 23/20 Q1018","temp":23,"dewp":20,"wdir":110,"wspd":8,"visib":"6+","altim":1018,"clouds":[],"obsTime":1781823600},"SBSC":{"icaoId":"SBSC","flightCategory":"VFR","rawOb":"METAR SBSC 182300Z 00000KT 9999 FEW045 16/15 Q1025","temp":16,"dewp":15,"wdir":0,"wspd":0,"visib":"6+","altim":1025,"clouds":[{"cover":"FEW","base":4500}],"obsTime":1781823600},"SBSM":{"icaoId":"SBSM","flightCategory":"VFR","rawOb":"METAR SBSM 182300Z 12007KT CAVOK 12/11 Q1015","temp":12,"dewp":11,"wdir":120,"wspd":7,"visib":"6+","altim":1015,"clouds":[],"obsTime":1781823600},"SBSR":{"icaoId":"SBSR","flightCategory":"VFR","rawOb":"METAR SBSR 182300Z 16002KT CAVOK 21/08 Q1020","temp":21,"dewp":8,"wdir":160,"wspd":2,"visib":"6+","altim":1020,"clouds":[],"obsTime":1781823600},"SBTT":{"icaoId":"SBTT","flightCategory":"VFR","rawOb":"METAR SBTT 182300Z 00000KT 9999 FEW030TCU 26/24 Q1012","temp":26,"dewp":24,"wdir":0,"wspd":0,"visib":"6+","altim":1012,"clouds":[{"cover":"FEW","base":3000}],"obsTime":1781823600},"SBVH":{"icaoId":"SBVH","flightCategory":"VFR","rawOb":"METAR SBVH 182300Z 35005KT CAVOK 25/20 Q1016","temp":25,"dewp":20,"wdir":350,"wspd":5,"visib":"6+","altim":1016,"clouds":[],"obsTime":1781823600},"SBAX":{"icaoId":"SBAX","flightCategory":"VFR","rawOb":"METAR SBAX 182300Z 11010KT CAVOK 17/12 Q1024","temp":17,"dewp":12,"wdir":110,"wspd":10,"visib":"6+","altim":1024,"clouds":[],"obsTime":1781823600},"SBBH":{"icaoId":"SBBH","flightCategory":"VFR","rawOb":"METAR SBBH 182300Z 10005KT CAVOK 17/12 Q1025","temp":17,"dewp":12,"wdir":100,"wspd":5,"visib":"6+","altim":1025,"clouds":[],"obsTime":1781823600},"SBBU":{"icaoId":"SBBU","flightCategory":"VFR","rawOb":"METAR SBBU 182300Z 10008KT CAVOK 17/09 Q1022","temp":17,"dewp":9,"wdir":100,"wspd":8,"visib":"6+","altim":1022,"clouds":[],"obsTime":1781823600},"SBCA":{"icaoId":"SBCA","flightCategory":"VFR","rawOb":"METAR SBCA 182300Z 05017G27KT CAVOK 15/08 Q1019","temp":15,"dewp":8,"wdir":50,"wspd":17,"visib":"6+","altim":1019,"clouds":[],"obsTime":1781823600},"SBTF":{"icaoId":"SBTF","flightCategory":"VFR","rawOb":"SPECI SBTF 182245Z 10005KT 9999 SCT012 SCT080 25/23 Q1012","temp":25,"dewp":23,"wdir":100,"wspd":5,"visib":"6+","altim":1012,"clouds":[{"cover":"SCT","base":1200},{"cover":"SCT","base":8000}],"obsTime":1781822700},"SBJP":{"icaoId":"SBJP","flightCategory":"VFR","rawOb":"METAR SBJP 182300Z 15007KT 9999 FEW020 SCT100 25/23 Q1016","temp":25,"dewp":23,"wdir":150,"wspd":7,"visib":"6+","altim":1016,"clouds":[{"cover":"FEW","base":2000},{"cover":"SCT","base":10000}],"obsTime":1781823600},"SBJV":{"icaoId":"SBJV","flightCategory":"VFR","rawOb":"METAR SBJV 182300Z 00000KT 9999 FEW030 13/13 Q1024","temp":13,"dewp":13,"wdir":0,"wspd":0,"visib":"6+","altim":1024,"clouds":[{"cover":"FEW","base":3000}],"obsTime":1781823600},"SBNM":{"icaoId":"SBNM","flightCategory":"VFR","rawOb":"METAR SBNM 182300Z 08008KT CAVOK 15/10 Q1014","temp":15,"dewp":10,"wdir":80,"wspd":8,"visib":"6+","altim":1014,"clouds":[],"obsTime":1781823600},"SBPF":{"icaoId":"SBPF","flightCategory":"VFR","rawOb":"METAR SBPF 182300Z 05012KT CAVOK 13/09 Q1019","temp":13,"dewp":9,"wdir":50,"wspd":12,"visib":"6+","altim":1019,"clouds":[],"obsTime":1781823600},"SBLE":{"icaoId":"SBLE","flightCategory":"VFR","rawOb":"METAR SBLE 182300Z AUTO 35003KT 310V040 9999 -RA BKN033 OVC041 ///// Q////","temp":null,"dewp":null,"wdir":350,"wspd":3,"visib":"6+","altim":null,"clouds":[{"cover":"BKN","base":3300},{"cover":"OVC","base":4100}],"obsTime":1781823600},"SBAF":{"icaoId":"SBAF","flightCategory":"VFR","rawOb":"METAR SBAF 182300Z 22004KT 190V260 9999 FEW030 19/17 Q1025","temp":19,"dewp":17,"wdir":220,"wspd":4,"visib":"6+","altim":1025,"clouds":[{"cover":"FEW","base":3000}],"obsTime":1781823600},"SBAN":{"icaoId":"SBAN","flightCategory":"VFR","rawOb":"METAR SBAN 182300Z 15004KT CAVOK 20/10 Q1022","temp":20,"dewp":10,"wdir":150,"wspd":4,"visib":"6+","altim":1022,"clouds":[],"obsTime":1781823600},"SBLS":{"icaoId":"SBLS","flightCategory":"VFR","rawOb":"METAR SBLS 182300Z 14009KT 9999 FEW040 17/13 Q1024","temp":17,"dewp":13,"wdir":140,"wspd":9,"visib":"6+","altim":1024,"clouds":[{"cover":"FEW","base":4000}],"obsTime":1781823600},"SBMT":{"icaoId":"SBMT","flightCategory":"VFR","rawOb":"METAR SBMT 182300Z 12008KT CAVOK 11/09 Q1025","temp":11,"dewp":9,"wdir":120,"wspd":8,"visib":"6+","altim":1025,"clouds":[],"obsTime":1781823600},"SBTA":{"icaoId":"SBTA","flightCategory":"VFR","rawOb":"METAR SBTA 182300Z 13003KT CAVOK 14/11 Q1024","temp":14,"dewp":11,"wdir":130,"wspd":3,"visib":"6+","altim":1024,"clouds":[],"obsTime":1781823600},"SBJR":{"icaoId":"SBJR","flightCategory":"VFR","rawOb":"METAR SBJR 182300Z 00000KT 9999 FEW040 16/15 Q1025","temp":16,"dewp":15,"wdir":0,"wspd":0,"visib":"6+","altim":1025,"clouds":[{"cover":"FEW","base":4000}],"obsTime":1781823600}}}