{"updated":1774540036,"count":88,"data":{"SBMO":{"icaoId":"SBMO","flightCategory":"MVFR","rawOb":"METAR SBMO 261400Z 14009KT 9999 BKN023 31/22 Q1012","temp":31,"dewp":22,"wdir":140,"wspd":9,"visib":"6+","altim":1012,"clouds":[{"cover":"BKN","base":2300}],"obsTime":1774533600},"SBBR":{"icaoId":"SBBR","flightCategory":"VFR","rawOb":"METAR SBBR 261400Z 09008KT 050V130 9999 FEW020 SCT045 24/19 Q1020","temp":24,"dewp":19,"wdir":90,"wspd":8,"visib":"6+","altim":1020,"clouds":[{"cover":"FEW","base":2000},{"cover":"SCT","base":4500}],"obsTime":1774533600},"SBAT":{"icaoId":"SBAT","flightCategory":"MVFR","rawOb":"METAR SBAT 261400Z 04005KT 9999 BKN022 27/23 Q1014","temp":27,"dewp":23,"wdir":40,"wspd":5,"visib":"6+","altim":1014,"clouds":[{"cover":"BKN","base":2200}],"obsTime":1774533600},"SBBE":{"icaoId":"SBBE","flightCategory":"VFR","rawOb":"METAR SBBE 261400Z 10007KT 9999 SCT022 SCT026 30/23 Q1012","temp":30,"dewp":23,"wdir":100,"wspd":7,"visib":"6+","altim":1012,"clouds":[{"cover":"SCT","base":2200},{"cover":"SCT","base":2600}],"obsTime":1774533600},"SBBV":{"icaoId":"SBBV","flightCategory":"MVFR","rawOb":"METAR SBBV 261400Z 05008KT 9999 BKN025 FEW030TCU BKN070 29/23 Q1011","temp":29,"dewp":23,"wdir":50,"wspd":8,"visib":"6+","altim":1011,"clouds":[{"cover":"BKN","base":2500},{"cover":"FEW","base":3000},{"cover":"BKN","base":7000}],"obsTime":1774533600},"SBCB":{"icaoId":"SBCB","flightCategory":"VFR","rawOb":"METAR SBCB 261400Z 04014KT CAVOK 30/22 Q1017","temp":30,"dewp":22,"wdir":40,"wspd":14,"visib":"6+","altim":1017,"clouds":[],"obsTime":1774533600},"SBCF":{"icaoId":"SBCF","flightCategory":"VFR","rawOb":"METAR SBCF 261400Z 12005KT 080V210 9999 BKN033 24/17 Q1022","temp":24,"dewp":17,"wdir":120,"wspd":5,"visib":"6+","altim":1022,"clouds":[{"cover":"BKN","base":3300}],"obsTime":1774533600},"SBCG":{"icaoId":"SBCG","flightCategory":"MVFR","rawOb":"METAR SBCG 261400Z VRB02KT 9999 BKN025 BKN035 26/20 Q1016","temp":26,"dewp":20,"wdir":"VRB","wspd":2,"visib":"6+","altim":1016,"clouds":[{"cover":"BKN","base":2500},{"cover":"BKN","base":3500}],"obsTime":1774533600},"SBCP":{"icaoId":"SBCP","flightCategory":"MVFR","rawOb":"METAR SBCP 261400Z 06007KT 9999 BKN020 30/22 Q1019","temp":30,"dewp":22,"wdir":60,"wspd":7,"visib":"6+","altim":1019,"clouds":[{"cover":"BKN","base":2000}],"obsTime":1774533600},"SBCR":{"icaoId":"SBCR","flightCategory":"VFR","rawOb":"METAR SBCR 261400Z 32005KT 270V010 CAVOK 28/24 Q1013","temp":28,"dewp":24,"wdir":320,"wspd":5,"visib":"6+","altim":1013,"clouds":[],"obsTime":1774533600},"SBCT":{"icaoId":"SBCT","flightCategory":"VFR","rawOb":"METAR SBCT 261400Z 01008KT 9999 FEW030 27/19 Q1021","temp":27,"dewp":19,"wdir":10,"wspd":8,"visib":"6+","altim":1021,"clouds":[{"cover":"FEW","base":3000}],"obsTime":1774533600},"SBCZ":{"icaoId":"SBCZ","flightCategory":"MVFR","rawOb":"METAR SBCZ 261400Z 03009KT 9999 BKN015 OVC100 27/24 Q1012","temp":27,"dewp":24,"wdir":30,"wspd":9,"visib":"6+","altim":1012,"clouds":[{"cover":"BKN","base":1500},{"cover":"OVC","base":10000}],"obsTime":1774533600},"SBEG":{"icaoId":"SBEG","flightCategory":"MVFR","rawOb":"METAR SBEG 261400Z 11003KT 080V150 9999 BKN015 BKN100 27/23 Q1012","temp":27,"dewp":23,"wdir":110,"wspd":3,"visib":"6+","altim":1012,"clouds":[{"cover":"BKN","base":1500},{"cover":"BKN","base":10000}],"obsTime":1774533600},"SBFI":{"icaoId":"SBFI","flightCategory":"VFR","rawOb":"METAR SBFI 261400Z 04007KT 9999 SCT025 30/25 Q1014","temp":30,"dewp":25,"wdir":40,"wspd":7,"visib":"6+","altim":1014,"clouds":[{"cover":"SCT","base":2500}],"obsTime":1774533600},"SBFL":{"icaoId":"SBFL","flightCategory":"VFR","rawOb":"METAR SBFL 261400Z 01005KT CAVOK 30/22 Q1016","temp":30,"dewp":22,"wdir":10,"wspd":5,"visib":"6+","altim":1016,"clouds":[],"obsTime":1774533600},"SBFZ":{"icaoId":"SBFZ","flightCategory":"MVFR","rawOb":"METAR SBFZ 261400Z 12013KT 9999 BKN030 30/24 Q1010","temp":30,"dewp":24,"wdir":120,"wspd":13,"visib":"6+","altim":1010,"clouds":[{"cover":"BKN","base":3000}],"obsTime":1774533600},"SBGL":{"icaoId":"SBGL","flightCategory":"VFR","rawOb":"METAR SBGL 261400Z 35007KT 9999 FEW020 30/24 Q1016","temp":30,"dewp":24,"wdir":350,"wspd":7,"visib":"6+","altim":1016,"clouds":[{"cover":"FEW","base":2000}],"obsTime":1774533600},"SBGO":{"icaoId":"SBGO","flightCategory":"VFR","rawOb":"METAR SBGO 261400Z 06005KT 360V110 9999 SCT030 27/20 Q1019","temp":27,"dewp":20,"wdir":60,"wspd":5,"visib":"6+","altim":1019,"clouds":[{"cover":"SCT","base":3000}],"obsTime":1774533600},"SBGR":{"icaoId":"SBGR","flightCategory":"VFR","rawOb":"METAR SBGR 261400Z 03007KT 9999 SCT030 29/19 Q1020","temp":29,"dewp":19,"wdir":30,"wspd":7,"visib":"6+","altim":1020,"clouds":[{"cover":"SCT","base":3000}],"obsTime":1774533600},"SBHT":{"icaoId":"SBHT","flightCategory":"MVFR","rawOb":"METAR SBHT 261400Z 11004KT 9999 BKN015 BKN080 28/24 Q1013","temp":28,"dewp":24,"wdir":110,"wspd":4,"visib":"6+","altim":1013,"clouds":[{"cover":"BKN","base":1500},{"cover":"BKN","base":8000}],"obsTime":1774533600},"SBIL":{"icaoId":"SBIL","flightCategory":"VFR","rawOb":"METAR SBIL 261400Z 18008KT 9999 SCT023 FEW027TCU 30/25 Q1015","temp":30,"dewp":25,"wdir":180,"wspd":8,"visib":"6+","altim":1015,"clouds":[{"cover":"SCT","base":2300},{"cover":"FEW","base":2700}],"obsTime":1774533600},"SBJU":{"icaoId":"SBJU","flightCategory":"VFR","rawOb":"METAR SBJU 261400Z 00000KT 9999 SCT020 29/22 Q1014","temp":29,"dewp":22,"wdir":0,"wspd":0,"visib":"6+","altim":1014,"clouds":[{"cover":"SCT","base":2000}],"obsTime":1774533600},"SBKP":{"icaoId":"SBKP","flightCategory":"VFR","rawOb":"METAR SBKP 261400Z 36008KT 9999 FEW030 27/19 Q1020","temp":27,"dewp":19,"wdir":360,"wspd":8,"visib":"6+","altim":1020,"clouds":[{"cover":"FEW","base":3000}],"obsTime":1774533600},"SBLO":{"icaoId":"SBLO","flightCategory":"MVFR","rawOb":"METAR SBLO 261400Z 06009KT 010V080 9999 BKN026 27/20 Q1018","temp":27,"dewp":20,"wdir":60,"wspd":9,"visib":"6+","altim":1018,"clouds":[{"cover":"BKN","base":2600}],"obsTime":1774533600},"SBMA":{"icaoId":"SBMA","flightCategory":"VFR","rawOb":"METAR SBMA 261400Z 14005KT 9999 SCT020 30/24 Q1013","temp":30,"dewp":24,"wdir":140,"wspd":5,"visib":"6+","altim":1013,"clouds":[{"cover":"SCT","base":2000}],"obsTime":1774533600},"SBME":{"icaoId":"SBME","flightCategory":"VFR","rawOb":"METAR SBME 261400Z 05015KT 9999 FEW020 32/22 Q1017","temp":32,"dewp":22,"wdir":50,"wspd":15,"visib":"6+","altim":1017,"clouds":[{"cover":"FEW","base":2000}],"obsTime":1774533600},"SBMG":{"icaoId":"SBMG","flightCategory":"VFR","rawOb":"METAR SBMG 261400Z 04010KT 9999 SCT025 27/20 Q1016","temp":27,"dewp":20,"wdir":40,"wspd":10,"visib":"6+","altim":1016,"clouds":[{"cover":"SCT","base":2500}],"obsTime":1774533600},"SBMK":{"icaoId":"SBMK","flightCategory":"VFR","rawOb":"METAR SBMK 261400Z 09009KT 9999 FEW030 26/17 Q1019","temp":26,"dewp":17,"wdir":90,"wspd":9,"visib":"6+","altim":1019,"clouds":[{"cover":"FEW","base":3000}],"obsTime":1774533600},"SBMQ":{"icaoId":"SBMQ","flightCategory":"VFR","rawOb":"METAR SBMQ 261400Z 08007KT 9999 SCT020 SCT100 28/23 Q1012","temp":28,"dewp":23,"wdir":80,"wspd":7,"visib":"6+","altim":1012,"clouds":[{"cover":"SCT","base":2000},{"cover":"SCT","base":10000}],"obsTime":1774533600},"SBNT":{"icaoId":"SBNT","flightCategory":"VFR","rawOb":"METAR SBNT 261400Z 13009KT 110V170 9999 BKN033 BKN040 BKN090 31/22 Q1011","temp":31,"dewp":22,"wdir":130,"wspd":9,"visib":"6+","altim":1011,"clouds":[{"cover":"BKN","base":3300},{"cover":"BKN","base":4000},{"cover":"BKN","base":9000}],"obsTime":1774533600},"SBPA":{"icaoId":"SBPA","flightCategory":"IFR","rawOb":"METAR SBPA 261400Z 23005KT 160V250 7000 OVC005 24/22 Q1016","temp":24,"dewp":22,"wdir":230,"wspd":5,"visib":4.35,"altim":1016,"clouds":[{"cover":"OVC","base":500}],"obsTime":1774533600},"SBPJ":{"icaoId":"SBPJ","flightCategory":"VFR","rawOb":"METAR SBPJ 261400Z 23006KT 9999 FEW020 28/23 Q1014","temp":28,"dewp":23,"wdir":230,"wspd":6,"visib":"6+","altim":1014,"clouds":[{"cover":"FEW","base":2000}],"obsTime":1774533600},"SBPV":{"icaoId":"SBPV","flightCategory":"VFR","rawOb":"METAR SBPV 261400Z 20002KT 9999 SCT009 FEW030TCU BKN035 27/23 Q1012","temp":27,"dewp":23,"wdir":200,"wspd":2,"visib":"6+","altim":1012,"clouds":[{"cover":"SCT","base":900},{"cover":"FEW","base":3000},{"cover":"BKN","base":3500}],"obsTime":1774533600},"SBRB":{"icaoId":"SBRB","flightCategory":"IFR","rawOb":"METAR SBRB 261400Z 17004KT 9999 BKN005 BKN080 24/23 Q1013","temp":24,"dewp":23,"wdir":170,"wspd":4,"visib":"6+","altim":1013,"clouds":[{"cover":"BKN","base":500},{"cover":"BKN","base":8000}],"obsTime":1774533600},"SBRF":{"icaoId":"SBRF","flightCategory":"VFR","rawOb":"METAR SBRF 261400Z 14013KT 9999 SCT024 FEW025TCU 30/23 Q1011","temp":30,"dewp":23,"wdir":140,"wspd":13,"visib":"6+","altim":1011,"clouds":[{"cover":"SCT","base":2400},{"cover":"FEW","base":2500}],"obsTime":1774533600},"SBSG":{"icaoId":"SBSG","flightCategory":"MVFR","rawOb":"METAR SBSG 261400Z 13007KT 090V170 9999 BKN030 31/23 Q1011","temp":31,"dewp":23,"wdir":130,"wspd":7,"visib":"6+","altim":1011,"clouds":[{"cover":"BKN","base":3000}],"obsTime":1774533600},"SBSL":{"icaoId":"SBSL","flightCategory":"VFR","rawOb":"METAR SBSL 261400Z 08007KT 9999 SCT020 30/24 Q1011","temp":30,"dewp":24,"wdir":80,"wspd":7,"visib":"6+","altim":1011,"clouds":[{"cover":"SCT","base":2000}],"obsTime":1774533600},"SBSN":{"icaoId":"SBSN","flightCategory":"MVFR","rawOb":"METAR SBSN 261400Z 09011KT 9999 BKN016 SCT080 30/25 Q1011","temp":30,"dewp":25,"wdir":90,"wspd":11,"visib":"6+","altim":1011,"clouds":[{"cover":"BKN","base":1600},{"cover":"SCT","base":8000}],"obsTime":1774533600},"SBSP":{"icaoId":"SBSP","flightCategory":"VFR","rawOb":"METAR SBSP 261400Z 07007KT 330V040 9999 SCT035 28/19 Q1021","temp":28,"dewp":19,"wdir":70,"wspd":7,"visib":"6+","altim":1021,"clouds":[{"cover":"SCT","base":3500}],"obsTime":1774533600},"SBSV":{"icaoId":"SBSV","flightCategory":"VFR","rawOb":"METAR SBSV 261400Z 21007KT 9999 FEW015 SCT023 FEW025TCU 28/24 Q1014","temp":28,"dewp":24,"wdir":210,"wspd":7,"visib":"6+","altim":1014,"clouds":[{"cover":"FEW","base":1500},{"cover":"SCT","base":2300},{"cover":"FEW","base":2500}],"obsTime":1774533600},"SBTE":{"icaoId":"SBTE","flightCategory":"VFR","rawOb":"METAR SBTE 261400Z 20002KT 9999 SCT016 BKN090 29/24 Q1011","temp":29,"dewp":24,"wdir":200,"wspd":2,"visib":"6+","altim":1011,"clouds":[{"cover":"SCT","base":1600},{"cover":"BKN","base":9000}],"obsTime":1774533600},"SBUL":{"icaoId":"SBUL","flightCategory":"MVFR","rawOb":"METAR SBUL 261400Z 09010KT 040V120 9999 VCSH BKN017 SCT025 FEW030TCU BKN080 23/19 Q1021","temp":23,"dewp":19,"wdir":90,"wspd":10,"visib":"6+","altim":1021,"clouds":[{"cover":"BKN","base":1700},{"cover":"SCT","base":2500},{"cover":"FEW","base":3000},{"cover":"BKN","base":8000}],"obsTime":1774533600},"SBUR":{"icaoId":"SBUR","flightCategory":"VFR","rawOb":"METAR SBUR 261400Z 03005KT 9999 FEW040 BKN080 24/20 Q1020","temp":24,"dewp":20,"wdir":30,"wspd":5,"visib":"6+","altim":1020,"clouds":[{"cover":"FEW","base":4000},{"cover":"BKN","base":8000}],"obsTime":1774533600},"SBVT":{"icaoId":"SBVT","flightCategory":"MVFR","rawOb":"METAR SBVT 261400Z 05008KT 9999 BKN025 31/22 Q1018","temp":31,"dewp":22,"wdir":50,"wspd":8,"visib":"6+","altim":1018,"clouds":[{"cover":"BKN","base":2500}],"obsTime":1774533600},"SBOI":{"icaoId":"SBOI","flightCategory":"MVFR","rawOb":"METAR SBOI 261400Z AUTO 12009KT 090V170 9999 -RA FEW012 BKN015 27/25 Q1012","temp":27,"dewp":25,"wdir":120,"wspd":9,"visib":"6+","altim":1012,"clouds":[{"cover":"FEW","base":1200},{"cover":"BKN","base":1500}],"obsTime":1774533600},"SBPB":{"icaoId":"SBPB","flightCategory":"VFR","rawOb":"METAR SBPB 261400Z 09012KT 9999 FEW020 31/25 Q1010","temp":31,"dewp":25,"wdir":90,"wspd":12,"visib":"6+","altim":1010,"clouds":[{"cover":"FEW","base":2000}],"obsTime":1774533600},"SBCJ":{"icaoId":"SBCJ","flightCategory":"VFR","rawOb":"METAR SBCJ 261400Z 10005KT 9999 FEW017 SCT090 26/21 Q1017","temp":26,"dewp":21,"wdir":100,"wspd":5,"visib":"6+","altim":1017,"clouds":[{"cover":"FEW","base":1700},{"cover":"SCT","base":9000}],"obsTime":1774533600},"SBPL":{"icaoId":"SBPL","flightCategory":"MVFR","rawOb":"METAR SBPL 261400Z 10010KT 9999 BKN030 29/21 Q1014","temp":29,"dewp":21,"wdir":100,"wspd":10,"visib":"6+","altim":1014,"clouds":[{"cover":"BKN","base":3000}],"obsTime":1774533600},"SBBQ":{"icaoId":"SBBQ","flightCategory":"MVFR","rawOb":"METAR SBBQ 261400Z 07006KT 360V110 9999 BKN030 23/15 Q1025","temp":23,"dewp":15,"wdir":70,"wspd":6,"visib":"6+","altim":1025,"clouds":[{"cover":"BKN","base":3000}],"obsTime":1774533600},"SBCO":{"icaoId":"SBCO","flightCategory":"LIFR","rawOb":"METAR SBCO 261400Z 26004KT 220V290 9999 OVC004 23/22 Q1017","temp":23,"dewp":22,"wdir":260,"wspd":4,"visib":"6+","altim":1017,"clouds":[{"cover":"OVC","base":400}],"obsTime":1774533600},"SBPP":{"icaoId":"SBPP","flightCategory":"VFR","rawOb":"METAR SBPP 261400Z 06006KT 9999 FEW020 26/22 Q1017","temp":26,"dewp":22,"wdir":60,"wspd":6,"visib":"6+","altim":1017,"clouds":[{"cover":"FEW","base":2000}],"obsTime":1774533600},"SBPS":{"icaoId":"SBPS","flightCategory":"VFR","rawOb":"METAR SBPS 261400Z 12008KT 090V150 9999 SCT020 29/24 Q1016","temp":29,"dewp":24,"wdir":120,"wspd":8,"visib":"6+","altim":1016,"clouds":[{"cover":"SCT","base":2000}],"obsTime":1774533600},"SBAX":{"icaoId":"SBAX","flightCategory":"MVFR","rawOb":"METAR SBAX 261400Z 06007KT 9999 SCT016 BKN020 23/19 Q1021","temp":23,"dewp":19,"wdir":60,"wspd":7,"visib":"6+","altim":1021,"clouds":[{"cover":"SCT","base":1600},{"cover":"BKN","base":2000}],"obsTime":1774533600},"SBSC":{"icaoId":"SBSC","flightCategory":"VFR","rawOb":"METAR SBSC 261400Z 36007KT 9999 FEW045 32/22 Q1016","temp":32,"dewp":22,"wdir":360,"wspd":7,"visib":"6+","altim":1016,"clouds":[{"cover":"FEW","base":4500}],"obsTime":1774533600},"SBDN":{"icaoId":"SBDN","flightCategory":"VFR","rawOb":"METAR SBDN 261400Z 05009KT 9999 SCT023 28/21 Q1016","temp":28,"dewp":21,"wdir":50,"wspd":9,"visib":"6+","altim":1016,"clouds":[{"cover":"SCT","base":2300}],"obsTime":1774533600},"SBBU":{"icaoId":"SBBU","flightCategory":"VFR","rawOb":"METAR SBBU 261400Z 06007KT 9999 FEW030 29/20 Q1019","temp":29,"dewp":20,"wdir":60,"wspd":7,"visib":"6+","altim":1019,"clouds":[{"cover":"FEW","base":3000}],"obsTime":1774533600},"SBSJ":{"icaoId":"SBSJ","flightCategory":"VFR","rawOb":"METAR SBSJ 261400Z 12001KT 9999 FEW015 27/// Q1020","temp":null,"dewp":null,"wdir":120,"wspd":1,"visib":"6+","altim":1020,"clouds":[{"cover":"FEW","base":1500}],"obsTime":1774533600},"SBAR":{"icaoId":"SBAR","flightCategory":"VFR","rawOb":"METAR SBAR 261400Z 13010KT 9999 SCT020 29/24 Q1013","temp":29,"dewp":24,"wdir":130,"wspd":10,"visib":"6+","altim":1013,"clouds":[{"cover":"SCT","base":2000}],"obsTime":1774533600},"SBES":{"icaoId":"SBES","flightCategory":"VFR","rawOb":"METAR SBES 261400Z 05014KT 020V080 CAVOK 29/// Q1017","temp":null,"dewp":null,"wdir":50,"wspd":14,"visib":"6+","altim":1017,"clouds":[],"obsTime":1774533600},"SBSR":{"icaoId":"SBSR","flightCategory":"VFR","rawOb":"METAR SBSR 261400Z 08009KT 9999 FEW030 SCT070 27/19 Q1018","temp":27,"dewp":19,"wdir":80,"wspd":9,"visib":"6+","altim":1018,"clouds":[{"cover":"FEW","base":3000},{"cover":"SCT","base":7000}],"obsTime":1774533600},"SBAU":{"icaoId":"SBAU","flightCategory":"VFR","rawOb":"METAR SBAU 261400Z 03012KT 9999 FEW040 30/19 Q1016","temp":30,"dewp":19,"wdir":30,"wspd":12,"visib":"6+","altim":1016,"clouds":[{"cover":"FEW","base":4000}],"obsTime":1774533600},"SBTD":{"icaoId":"SBTD","flightCategory":"VFR","rawOb":"METAR SBTD 261400Z /////KT 9999 FEW025 27/21 Q1017","temp":27,"dewp":21,"wdir":null,"wspd":null,"visib":"6+","altim":1017,"clouds":[{"cover":"FEW","base":2500}],"obsTime":1774533600},"SBGM":{"icaoId":"SBGM","flightCategory":"MVFR","rawOb":"METAR SBGM 261400Z 33003KT 290V360 8000 SCT016 OVC030 24/22 Q1013","temp":24,"dewp":22,"wdir":330,"wspd":3,"visib":4.97,"altim":1013,"clouds":[{"cover":"SCT","base":1600},{"cover":"OVC","base":3000}],"obsTime":1774533600},"SBTF":{"icaoId":"SBTF","flightCategory":"VFR","rawOb":"METAR SBTF 261400Z 09007KT 9999 FEW013 29/25 Q1011","temp":29,"dewp":25,"wdir":90,"wspd":7,"visib":"6+","altim":1011,"clouds":[{"cover":"FEW","base":1300}],"obsTime":1774533600},"SBCA":{"icaoId":"SBCA","flightCategory":"VFR","rawOb":"METAR SBCA 261400Z 06007KT CAVOK 26/20 Q1019","temp":26,"dewp":20,"wdir":60,"wspd":7,"visib":"6+","altim":1019,"clouds":[],"obsTime":1774533600},"SBTT":{"icaoId":"SBTT","flightCategory":"VFR","rawOb":"METAR SBTT 261400Z 15007KT 9999 SCT010 27/23 Q1011","temp":27,"dewp":23,"wdir":150,"wspd":7,"visib":"6+","altim":1011,"clouds":[{"cover":"SCT","base":1000}],"obsTime":1774533600},"SBIP":{"icaoId":"SBIP","flightCategory":"VFR","rawOb":"METAR SBIP 261400Z AUTO VRB04KT 9999 FEW020 28/21 Q1019","temp":28,"dewp":21,"wdir":"VRB","wspd":4,"visib":"6+","altim":1019,"clouds":[{"cover":"FEW","base":2000}],"obsTime":1774533600},"SBBH":{"icaoId":"SBBH","flightCategory":"VFR","rawOb":"METAR SBBH 261400Z 08009KT 9999 BKN036 SCT100 25/17 Q1021","temp":25,"dewp":17,"wdir":80,"wspd":9,"visib":"6+","altim":1021,"clouds":[{"cover":"BKN","base":3600},{"cover":"SCT","base":10000}],"obsTime":1774533600},"SBUY":{"icaoId":"SBUY","flightCategory":"VFR","rawOb":"METAR SBUY 261400Z 17005KT 9999 SCT018 28/24 Q1010","temp":28,"dewp":24,"wdir":170,"wspd":5,"visib":"6+","altim":1010,"clouds":[{"cover":"SCT","base":1800}],"obsTime":1774533600},"SBVH":{"icaoId":"SBVH","flightCategory":"IFR","rawOb":"METAR SBVH 261400Z 08008KT 8000 BKN007 OVC080 23/22 Q1016","temp":23,"dewp":22,"wdir":80,"wspd":8,"visib":4.97,"altim":1016,"clouds":[{"cover":"BKN","base":700},{"cover":"OVC","base":8000}],"obsTime":1774533600},"SBKG":{"icaoId":"SBKG","flightCategory":"VFR","rawOb":"METAR SBKG 261400Z 14006KT 9999 FEW020 SCT080 27/19 Q1014","temp":27,"dewp":19,"wdir":140,"wspd":6,"visib":"6+","altim":1014,"clouds":[{"cover":"FEW","base":2000},{"cover":"SCT","base":8000}],"obsTime":1774533600},"SBCC":{"icaoId":"SBCC","flightCategory":"VFR","rawOb":"METAR SBCC 261400Z 05005KT 9999 FEW020 BKN100 27/22 Q1015","temp":27,"dewp":22,"wdir":50,"wspd":5,"visib":"6+","altim":1015,"clouds":[{"cover":"FEW","base":2000},{"cover":"BKN","base":10000}],"obsTime":1774533600},"SBSM":{"icaoId":"SBSM","flightCategory":"LIFR","rawOb":"METAR SBSM 261400Z 11007KT 3000 BR OVC004 21/21 Q1017","temp":21,"dewp":21,"wdir":110,"wspd":7,"visib":1.86,"altim":1017,"clouds":[{"cover":"OVC","base":400}],"obsTime":1774533600},"SBJV":{"icaoId":"SBJV","flightCategory":"VFR","rawOb":"METAR SBJV 261400Z 11005KT 9999 SCT030 29/24 Q1016","temp":29,"dewp":24,"wdir":110,"wspd":5,"visib":"6+","altim":1016,"clouds":[{"cover":"SCT","base":3000}],"obsTime":1774533600},"SBNM":{"icaoId":"SBNM","flightCategory":"VFR","rawOb":"METAR SBNM 261400Z 14002KT 9999 SCT010 28/24 Q1016","temp":28,"dewp":24,"wdir":140,"wspd":2,"visib":"6+","altim":1016,"clouds":[{"cover":"SCT","base":1000}],"obsTime":1774533600},"SBTC":{"icaoId":"SBTC","flightCategory":"VFR","rawOb":"METAR SBTC 261400Z 18007KT 9999 SCT025 30/25 Q1015","temp":30,"dewp":25,"wdir":180,"wspd":7,"visib":"6+","altim":1015,"clouds":[{"cover":"SCT","base":2500}],"obsTime":1774533600},"SBAF":{"icaoId":"SBAF","flightCategory":"VFR","rawOb":"METAR SBAF 261400Z 12002KT 9999 SCT035 32/23 Q1016","temp":32,"dewp":23,"wdir":120,"wspd":2,"visib":"6+","altim":1016,"clouds":[{"cover":"SCT","base":3500}],"obsTime":1774533600},"SBGW":{"icaoId":"SBGW","flightCategory":"VFR","rawOb":"METAR SBGW 261400Z 03004KT 350V100 9999 FEW022 29/19 Q1019","temp":29,"dewp":19,"wdir":30,"wspd":4,"visib":"6+","altim":1019,"clouds":[{"cover":"FEW","base":2200}],"obsTime":1774533600},"SBJR":{"icaoId":"SBJR","flightCategory":"VFR","rawOb":"METAR SBJR 261400Z 18004KT 9999 FEW025 33/24 Q1016","temp":33,"dewp":24,"wdir":180,"wspd":4,"visib":"6+","altim":1016,"clouds":[{"cover":"FEW","base":2500}],"obsTime":1774533600},"SBLS":{"icaoId":"SBLS","flightCategory":"MVFR","rawOb":"METAR SBLS 261400Z 13007KT 050V140 9999 BKN030 24/18 Q1021","temp":24,"dewp":18,"wdir":130,"wspd":7,"visib":"6+","altim":1021,"clouds":[{"cover":"BKN","base":3000}],"obsTime":1774533600},"SBMT":{"icaoId":"SBMT","flightCategory":"VFR","rawOb":"METAR SBMT 261400Z 35006KT 9999 SCT040 27/20 Q1020","temp":27,"dewp":20,"wdir":350,"wspd":6,"visib":"6+","altim":1020,"clouds":[{"cover":"SCT","base":4000}],"obsTime":1774533600},"SBST":{"icaoId":"SBST","flightCategory":"MVFR","rawOb":"METAR SBST 261400Z 28002KT 7000 SCT025 28/22 Q1016","temp":28,"dewp":22,"wdir":280,"wspd":2,"visib":4.35,"altim":1016,"clouds":[{"cover":"SCT","base":2500}],"obsTime":1774533600},"SBTA":{"icaoId":"SBTA","flightCategory":"VFR","rawOb":"METAR SBTA 261400Z 02006KT 340V080 9999 FEW025 SCT100 25/24 Q1019","temp":25,"dewp":24,"wdir":20,"wspd":6,"visib":"6+","altim":1019,"clouds":[{"cover":"FEW","base":2500},{"cover":"SCT","base":10000}],"obsTime":1774533600},"SBAN":{"icaoId":"SBAN","flightCategory":"MVFR","rawOb":"METAR SBAN 261400Z 09007KT 040V120 9999 SCT010 BKN015 BKN040 24/18 Q1021","temp":24,"dewp":18,"wdir":90,"wspd":7,"visib":"6+","altim":1021,"clouds":[{"cover":"SCT","base":1000},{"cover":"BKN","base":1500},{"cover":"BKN","base":4000}],"obsTime":1774533600},"SBIH":{"icaoId":"SBIH","flightCategory":"VFR","rawOb":"METAR SBIH 261400Z 04005KT 9999 SCT016 28/25 Q1012","temp":28,"dewp":25,"wdir":40,"wspd":5,"visib":"6+","altim":1012,"clouds":[{"cover":"SCT","base":1600}],"obsTime":1774533600},"SBJP":{"icaoId":"SBJP","flightCategory":"MVFR","rawOb":"METAR SBJP 261400Z 14006KT 9999 BKN030 31/23 Q1012","temp":31,"dewp":23,"wdir":140,"wspd":6,"visib":"6+","altim":1012,"clouds":[{"cover":"BKN","base":3000}],"obsTime":1774533600},"SBLE":{"icaoId":"SBLE","flightCategory":"VFR","rawOb":"METAR SBLE 261400Z AUTO VRB01KT 9999 FEW013 SCT032 BKN040 25/25 Q1017","temp":25,"dewp":25,"wdir":"VRB","wspd":1,"visib":"6+","altim":1017,"clouds":[{"cover":"FEW","base":1300},{"cover":"SCT","base":3200},{"cover":"BKN","base":4000}],"obsTime":1774533600},"SBPF":{"icaoId":"SBPF","flightCategory":"VFR","rawOb":"METAR SBPF 261400Z 36005KT CAVOK 26/19 Q1019","temp":26,"dewp":19,"wdir":360,"wspd":5,"visib":"6+","altim":1019,"clouds":[],"obsTime":1774533600}}}