{"updated":1783958472,"count":86,"data":{"SBBV":{"icaoId":"SBBV","flightCategory":"VFR","rawOb":"METAR SBBV 131500Z 06003KT 320V120 9999 FEW020 SCT100 30/24 Q1016","temp":30,"dewp":24,"wdir":60,"wspd":3,"visib":"6+","altim":1016,"clouds":[{"cover":"FEW","base":2000},{"cover":"SCT","base":10000}],"obsTime":1783954800},"SBBE":{"icaoId":"SBBE","flightCategory":"MVFR","rawOb":"METAR SBBE 131500Z 05007KT 9999 BKN030 31/24 Q1015","temp":31,"dewp":24,"wdir":50,"wspd":7,"visib":"6+","altim":1015,"clouds":[{"cover":"BKN","base":3000}],"obsTime":1783954800},"SBRF":{"icaoId":"SBRF","flightCategory":"VFR","rawOb":"METAR SBRF 131500Z 07007KT 030V100 9999 FEW025 30/21 Q1014","temp":30,"dewp":21,"wdir":70,"wspd":7,"visib":"6+","altim":1014,"clouds":[{"cover":"FEW","base":2500}],"obsTime":1783954800},"SBSL":{"icaoId":"SBSL","flightCategory":"VFR","rawOb":"METAR SBSL 131500Z 04013KT 9999 SCT030 30/25 Q1014","temp":30,"dewp":25,"wdir":40,"wspd":13,"visib":"6+","altim":1014,"clouds":[{"cover":"SCT","base":3000}],"obsTime":1783954800},"SBBR":{"icaoId":"SBBR","flightCategory":"VFR","rawOb":"METAR SBBR 131500Z 21007KT 180V250 9999 FEW035 25/15 Q1022","temp":25,"dewp":15,"wdir":210,"wspd":7,"visib":"6+","altim":1022,"clouds":[{"cover":"FEW","base":3500}],"obsTime":1783954800},"SBPV":{"icaoId":"SBPV","flightCategory":"VFR","rawOb":"METAR SBPV 131500Z 16009KT 9999 SCT030 30/20 Q1017","temp":30,"dewp":20,"wdir":160,"wspd":9,"visib":"6+","altim":1017,"clouds":[{"cover":"SCT","base":3000}],"obsTime":1783954800},"SBCB":{"icaoId":"SBCB","flightCategory":"VFR","rawOb":"METAR SBCB 131500Z 31014KT 9999 FEW015 BKN040 22/16 Q1017","temp":22,"dewp":16,"wdir":310,"wspd":14,"visib":"6+","altim":1017,"clouds":[{"cover":"FEW","base":1500},{"cover":"BKN","base":4000}],"obsTime":1783954800},"SBSG":{"icaoId":"SBSG","flightCategory":"MVFR","rawOb":"METAR SBSG 131500Z 09010KT 050V130 9999 BKN030 30/22 Q1014","temp":30,"dewp":22,"wdir":90,"wspd":10,"visib":"6+","altim":1014,"clouds":[{"cover":"BKN","base":3000}],"obsTime":1783954800},"SBFZ":{"icaoId":"SBFZ","flightCategory":"MVFR","rawOb":"METAR SBFZ 131500Z 09010KT 070V140 9999 BKN020 30/24 Q1014","temp":30,"dewp":24,"wdir":90,"wspd":10,"visib":"6+","altim":1014,"clouds":[{"cover":"BKN","base":2000}],"obsTime":1783954800},"SBSV":{"icaoId":"SBSV","flightCategory":"VFR","rawOb":"METAR SBSV 131500Z 35007KT 310V030 CAVOK 30/20 Q1014","temp":30,"dewp":20,"wdir":350,"wspd":7,"visib":"6+","altim":1014,"clouds":[],"obsTime":1783954800},"SBKP":{"icaoId":"SBKP","flightCategory":"VFR","rawOb":"METAR SBKP 131500Z 15007KT 9999 SCT030 17/10 Q1020","temp":17,"dewp":10,"wdir":150,"wspd":7,"visib":"6+","altim":1020,"clouds":[{"cover":"SCT","base":3000}],"obsTime":1783954800},"SBCZ":{"icaoId":"SBCZ","flightCategory":"VFR","rawOb":"METAR SBCZ 131500Z 21003KT 9999 SCT010 OVC100 25/23 Q1019","temp":25,"dewp":23,"wdir":210,"wspd":3,"visib":"6+","altim":1019,"clouds":[{"cover":"SCT","base":1000},{"cover":"OVC","base":10000}],"obsTime":1783954800},"SBNT":{"icaoId":"SBNT","flightCategory":"VFR","rawOb":"METAR SBNT 131500Z 09009KT 050V120 9999 SCT028 FEW030TCU BKN036 29/22 Q1014","temp":29,"dewp":22,"wdir":90,"wspd":9,"visib":"6+","altim":1014,"clouds":[{"cover":"SCT","base":2800},{"cover":"FEW","base":3000},{"cover":"BKN","base":3600}],"obsTime":1783954800},"SBSN":{"icaoId":"SBSN","flightCategory":"VFR","rawOb":"METAR SBSN 131500Z 06009KT 9999 FEW020 30/24 Q1015","temp":30,"dewp":24,"wdir":60,"wspd":9,"visib":"6+","altim":1015,"clouds":[{"cover":"FEW","base":2000}],"obsTime":1783954800},"SBGL":{"icaoId":"SBGL","flightCategory":"MVFR","rawOb":"METAR SBGL 131500Z 32008KT 7000 SCT020 OVC040 19/14 Q1019","temp":19,"dewp":14,"wdir":320,"wspd":8,"visib":4.35,"altim":1019,"clouds":[{"cover":"SCT","base":2000},{"cover":"OVC","base":4000}],"obsTime":1783954800},"SBMA":{"icaoId":"SBMA","flightCategory":"VFR","rawOb":"METAR SBMA 131500Z 33004KT 9999 SCT020 32/24 Q1014","temp":32,"dewp":24,"wdir":330,"wspd":4,"visib":"6+","altim":1014,"clouds":[{"cover":"SCT","base":2000}],"obsTime":1783954800},"SBTE":{"icaoId":"SBTE","flightCategory":"VFR","rawOb":"METAR SBTE 131500Z 28005KT 9999 SCT025 30/22 Q1014","temp":30,"dewp":22,"wdir":280,"wspd":5,"visib":"6+","altim":1014,"clouds":[{"cover":"SCT","base":2500}],"obsTime":1783954800},"SBLO":{"icaoId":"SBLO","flightCategory":"VFR","rawOb":"METAR SBLO 131500Z 16004KT CAVOK 16/08 Q1021","temp":16,"dewp":8,"wdir":160,"wspd":4,"visib":"6+","altim":1021,"clouds":[],"obsTime":1783954800},"SBPA":{"icaoId":"SBPA","flightCategory":"MVFR","rawOb":"METAR SBPA 131500Z 24003KT 200V270 9999 FEW006 BKN011 BKN025 13/10 Q1024","temp":13,"dewp":10,"wdir":240,"wspd":3,"visib":"6+","altim":1024,"clouds":[{"cover":"FEW","base":600},{"cover":"BKN","base":1100},{"cover":"BKN","base":2500}],"obsTime":1783954800},"SBFL":{"icaoId":"SBFL","flightCategory":"VFR","rawOb":"METAR SBFL 131500Z VRB05KT CAVOK 17/09 Q1022","temp":17,"dewp":9,"wdir":"VRB","wspd":5,"visib":"6+","altim":1022,"clouds":[],"obsTime":1783954800},"SBPJ":{"icaoId":"SBPJ","flightCategory":"VFR","rawOb":"METAR SBPJ 131500Z 23008KT 9999 FEW035 33/22 Q1015","temp":33,"dewp":22,"wdir":230,"wspd":8,"visib":"6+","altim":1015,"clouds":[{"cover":"FEW","base":3500}],"obsTime":1783954800},"SBVT":{"icaoId":"SBVT","flightCategory":"MVFR","rawOb":"METAR SBVT 131500Z 20015G25KT 9999 BKN025 BKN045 22/16 Q1016","temp":22,"dewp":16,"wdir":200,"wspd":15,"visib":"6+","altim":1016,"clouds":[{"cover":"BKN","base":2500},{"cover":"BKN","base":4500}],"obsTime":1783954800},"SBMQ":{"icaoId":"SBMQ","flightCategory":"VFR","rawOb":"METAR SBMQ 131500Z 07007KT 9999 SCT033 31/26 Q1015","temp":31,"dewp":26,"wdir":70,"wspd":7,"visib":"6+","altim":1015,"clouds":[{"cover":"SCT","base":3300}],"obsTime":1783954800},"SBRB":{"icaoId":"SBRB","flightCategory":"IFR","rawOb":"METAR SBRB 131500Z 15006KT 9999 BKN008 25/23 Q1019","temp":25,"dewp":23,"wdir":150,"wspd":6,"visib":"6+","altim":1019,"clouds":[{"cover":"BKN","base":800}],"obsTime":1783954800},"SBCG":{"icaoId":"SBCG","flightCategory":"VFR","rawOb":"METAR SBCG 131500Z 13005KT 070V170 CAVOK 18/10 Q1021","temp":18,"dewp":10,"wdir":130,"wspd":5,"visib":"6+","altim":1021,"clouds":[],"obsTime":1783954800},"SBCR":{"icaoId":"SBCR","flightCategory":"VFR","rawOb":"METAR SBCR 131500Z 31004KT 250V010 CAVOK 22/15 Q1020","temp":22,"dewp":15,"wdir":310,"wspd":4,"visib":"6+","altim":1020,"clouds":[],"obsTime":1783954800},"SBCP":{"icaoId":"SBCP","flightCategory":"VFR","rawOb":"METAR SBCP 131500Z 21013KT 9999 SCT020 OVC100 22/15 Q1016","temp":22,"dewp":15,"wdir":210,"wspd":13,"visib":"6+","altim":1016,"clouds":[{"cover":"SCT","base":2000},{"cover":"OVC","base":10000}],"obsTime":1783954800},"SBFI":{"icaoId":"SBFI","flightCategory":"VFR","rawOb":"METAR SBFI 131500Z 11003KT CAVOK 16/09 Q1023","temp":16,"dewp":9,"wdir":110,"wspd":3,"visib":"6+","altim":1023,"clouds":[],"obsTime":1783954800},"SBGO":{"icaoId":"SBGO","flightCategory":"VFR","rawOb":"METAR SBGO 131500Z VRB03KT 9999 FEW033 27/18 Q1020","temp":27,"dewp":18,"wdir":"VRB","wspd":3,"visib":"6+","altim":1020,"clouds":[{"cover":"FEW","base":3300}],"obsTime":1783954800},"SBMG":{"icaoId":"SBMG","flightCategory":"VFR","rawOb":"METAR SBMG 131500Z 16006KT 110V200 CAVOK 16/09 Q1020","temp":16,"dewp":9,"wdir":160,"wspd":6,"visib":"6+","altim":1020,"clouds":[],"obsTime":1783954800},"SBAT":{"icaoId":"SBAT","flightCategory":"VFR","rawOb":"METAR SBAT 131500Z 17005KT 9999 FEW025 30/21 Q1017","temp":30,"dewp":21,"wdir":170,"wspd":5,"visib":"6+","altim":1017,"clouds":[{"cover":"FEW","base":2500}],"obsTime":1783954800},"SBHT":{"icaoId":"SBHT","flightCategory":"MVFR","rawOb":"METAR SBHT 131500Z 09005KT 9999 BKN025 30/24 Q1015","temp":30,"dewp":24,"wdir":90,"wspd":5,"visib":"6+","altim":1015,"clouds":[{"cover":"BKN","base":2500}],"obsTime":1783954800},"SBIL":{"icaoId":"SBIL","flightCategory":"VFR","rawOb":"METAR SBIL 131500Z 05007KT CAVOK 29/23 Q1013","temp":29,"dewp":23,"wdir":50,"wspd":7,"visib":"6+","altim":1013,"clouds":[],"obsTime":1783954800},"SBJU":{"icaoId":"SBJU","flightCategory":"VFR","rawOb":"METAR SBJU 131500Z 33008KT CAVOK 29/19 Q1017","temp":29,"dewp":19,"wdir":330,"wspd":8,"visib":"6+","altim":1017,"clouds":[],"obsTime":1783954800},"SBMO":{"icaoId":"SBMO","flightCategory":"MVFR","rawOb":"METAR SBMO 131500Z 05007KT 9999 BKN030 30/21 Q1014","temp":30,"dewp":21,"wdir":50,"wspd":7,"visib":"6+","altim":1014,"clouds":[{"cover":"BKN","base":3000}],"obsTime":1783954800},"SBME":{"icaoId":"SBME","flightCategory":"VFR","rawOb":"METAR SBME 131500Z 23013KT 9999 FEW025 SCT080 23/13 Q1017","temp":23,"dewp":13,"wdir":230,"wspd":13,"visib":"6+","altim":1017,"clouds":[{"cover":"FEW","base":2500},{"cover":"SCT","base":8000}],"obsTime":1783954800},"SBMK":{"icaoId":"SBMK","flightCategory":"VFR","rawOb":"METAR SBMK 131500Z 22009KT 9999 FEW030 31/13 Q1017","temp":31,"dewp":13,"wdir":220,"wspd":9,"visib":"6+","altim":1017,"clouds":[{"cover":"FEW","base":3000}],"obsTime":1783954800},"SBUL":{"icaoId":"SBUL","flightCategory":"MVFR","rawOb":"METAR SBUL 131500Z 26008KT 210V290 9999 BKN020 20/16 Q1021","temp":20,"dewp":16,"wdir":260,"wspd":8,"visib":"6+","altim":1021,"clouds":[{"cover":"BKN","base":2000}],"obsTime":1783954800},"SBUR":{"icaoId":"SBUR","flightCategory":"VFR","rawOb":"METAR SBUR 131500Z 27006KT 9999 FEW030 22/13 Q1020","temp":22,"dewp":13,"wdir":270,"wspd":6,"visib":"6+","altim":1020,"clouds":[{"cover":"FEW","base":3000}],"obsTime":1783954800},"SBEG":{"icaoId":"SBEG","flightCategory":"VFR","rawOb":"METAR SBEG 131500Z 21004KT 120V270 9999 SCT025 30/24 Q1016","temp":30,"dewp":24,"wdir":210,"wspd":4,"visib":"6+","altim":1016,"clouds":[{"cover":"SCT","base":2500}],"obsTime":1783954800},"SBCF":{"icaoId":"SBCF","flightCategory":"VFR","rawOb":"METAR SBCF 131500Z 25009KT 9999 SCT036 SCT070 24/15 Q1018","temp":24,"dewp":15,"wdir":250,"wspd":9,"visib":"6+","altim":1018,"clouds":[{"cover":"SCT","base":3600},{"cover":"SCT","base":7000}],"obsTime":1783954800},"SBGR":{"icaoId":"SBGR","flightCategory":"MVFR","rawOb":"METAR SBGR 131500Z 16007KT 9999 BKN026 16/09 Q1021","temp":16,"dewp":9,"wdir":160,"wspd":7,"visib":"6+","altim":1021,"clouds":[{"cover":"BKN","base":2600}],"obsTime":1783954800},"SBSP":{"icaoId":"SBSP","flightCategory":"VFR","rawOb":"METAR SBSP 131500Z 15011KT 9999 SCT019 15/10 Q1022","temp":15,"dewp":10,"wdir":150,"wspd":11,"visib":"6+","altim":1022,"clouds":[{"cover":"SCT","base":1900}],"obsTime":1783954800},"SBCT":{"icaoId":"SBCT","flightCategory":"VFR","rawOb":"METAR SBCT 131500Z 04001KT 9999 SCT025 13/06 Q1022","temp":13,"dewp":6,"wdir":40,"wspd":1,"visib":"6+","altim":1022,"clouds":[{"cover":"SCT","base":2500}],"obsTime":1783954800},"SBPS":{"icaoId":"SBPS","flightCategory":"MVFR","rawOb":"METAR SBPS 131500Z VRB04KT 9999 BKN020 SCT070 27/22 Q1014","temp":27,"dewp":22,"wdir":"VRB","wspd":4,"visib":"6+","altim":1014,"clouds":[{"cover":"BKN","base":2000},{"cover":"SCT","base":7000}],"obsTime":1783954800},"SBUY":{"icaoId":"SBUY","flightCategory":"VFR","rawOb":"METAR SBUY 131500Z 18004KT 9999 SCT025 27/22 Q1016","temp":27,"dewp":22,"wdir":180,"wspd":4,"visib":"6+","altim":1016,"clouds":[{"cover":"SCT","base":2500}],"obsTime":1783954800},"SBCJ":{"icaoId":"SBCJ","flightCategory":"MVFR","rawOb":"METAR SBCJ 131500Z 10003KT 9999 BKN023 29/22 Q1018","temp":29,"dewp":22,"wdir":100,"wspd":3,"visib":"6+","altim":1018,"clouds":[{"cover":"BKN","base":2300}],"obsTime":1783954800},"SBOI":{"icaoId":"SBOI","flightCategory":"VFR","rawOb":"METAR SBOI 131500Z AUTO VRB05KT 9999 FEW030 SCT036 32/24 Q1015","temp":32,"dewp":24,"wdir":"VRB","wspd":5,"visib":"6+","altim":1015,"clouds":[{"cover":"FEW","base":3000},{"cover":"SCT","base":3600}],"obsTime":1783954800},"SBES":{"icaoId":"SBES","flightCategory":"VFR","rawOb":"METAR SBES 131500Z 26008KT 210V340 9999 FEW015 SCT040 21/// Q1017","temp":null,"dewp":null,"wdir":260,"wspd":8,"visib":"6+","altim":1017,"clouds":[{"cover":"FEW","base":1500},{"cover":"SCT","base":4000}],"obsTime":1783954800},"SBPL":{"icaoId":"SBPL","flightCategory":"VFR","rawOb":"METAR SBPL 131500Z 02004KT CAVOK 33/16 Q1015","temp":33,"dewp":16,"wdir":20,"wspd":4,"visib":"6+","altim":1015,"clouds":[],"obsTime":1783954800},"SBTT":{"icaoId":"SBTT","flightCategory":"MVFR","rawOb":"METAR SBTT 131500Z 17004KT 110V240 8000 BKN011 BKN015 25/23 Q1018","temp":25,"dewp":23,"wdir":170,"wspd":4,"visib":4.97,"altim":1018,"clouds":[{"cover":"BKN","base":1100},{"cover":"BKN","base":1500}],"obsTime":1783954800},"SBAR":{"icaoId":"SBAR","flightCategory":"VFR","rawOb":"METAR SBAR 131500Z 07009KT 9999 FEW018 28/21 Q1014","temp":28,"dewp":21,"wdir":70,"wspd":9,"visib":"6+","altim":1014,"clouds":[{"cover":"FEW","base":1800}],"obsTime":1783954800},"SBTD":{"icaoId":"SBTD","flightCategory":"VFR","rawOb":"METAR SBTD 131500Z /////KT CAVOK 18/12 Q1022","temp":18,"dewp":12,"wdir":null,"wspd":null,"visib":"6+","altim":1022,"clouds":[],"obsTime":1783954800},"SBSJ":{"icaoId":"SBSJ","flightCategory":"VFR","rawOb":"METAR SBSJ 131500Z 21006KT 9999 FEW027 BKN035 BKN045 18/09 Q1021","temp":18,"dewp":9,"wdir":210,"wspd":6,"visib":"6+","altim":1021,"clouds":[{"cover":"FEW","base":2700},{"cover":"BKN","base":3500},{"cover":"BKN","base":4500}],"obsTime":1783954800},"SBCA":{"icaoId":"SBCA","flightCategory":"VFR","rawOb":"METAR SBCA 131500Z 16007KT CAVOK 13/07 Q1023","temp":13,"dewp":7,"wdir":160,"wspd":7,"visib":"6+","altim":1023,"clouds":[],"obsTime":1783954800},"SBCO":{"icaoId":"SBCO","flightCategory":"MVFR","rawOb":"METAR SBCO 131500Z 27005KT 9999 SCT016 BKN020 13/10 Q1025","temp":13,"dewp":10,"wdir":270,"wspd":5,"visib":"6+","altim":1025,"clouds":[{"cover":"SCT","base":1600},{"cover":"BKN","base":2000}],"obsTime":1783954800},"SBSM":{"icaoId":"SBSM","flightCategory":"MVFR","rawOb":"METAR SBSM 131500Z VRB03KT 9999 FEW015 OVC020 11/07 Q1025","temp":11,"dewp":7,"wdir":"VRB","wspd":3,"visib":"6+","altim":1025,"clouds":[{"cover":"FEW","base":1500},{"cover":"OVC","base":2000}],"obsTime":1783954800},"SBCC":{"icaoId":"SBCC","flightCategory":"VFR","rawOb":"METAR SBCC 131500Z 14007KT CAVOK 29/21 Q1018","temp":29,"dewp":21,"wdir":140,"wspd":7,"visib":"6+","altim":1018,"clouds":[],"obsTime":1783954800},"SBGM":{"icaoId":"SBGM","flightCategory":"MVFR","rawOb":"METAR SBGM 131500Z 11008KT 090V160 8000 SCT010 BKN012 OVC014 25/20 Q1018","temp":25,"dewp":20,"wdir":110,"wspd":8,"visib":4.97,"altim":1018,"clouds":[{"cover":"SCT","base":1000},{"cover":"BKN","base":1200},{"cover":"OVC","base":1400}],"obsTime":1783954800},"SBVH":{"icaoId":"SBVH","flightCategory":"VFR","rawOb":"METAR SBVH 131500Z 13008KT CAVOK 26/19 Q1020","temp":26,"dewp":19,"wdir":130,"wspd":8,"visib":"6+","altim":1020,"clouds":[],"obsTime":1783954800},"SBKG":{"icaoId":"SBKG","flightCategory":"VFR","rawOb":"METAR SBKG 131500Z 08005KT 9999 SCT025 27/19 Q1017","temp":27,"dewp":19,"wdir":80,"wspd":5,"visib":"6+","altim":1017,"clouds":[{"cover":"SCT","base":2500}],"obsTime":1783954800},"SBAX":{"icaoId":"SBAX","flightCategory":"MVFR","rawOb":"METAR SBAX 131500Z 26010KT 9999 BKN025 22/14 Q1020","temp":22,"dewp":14,"wdir":260,"wspd":10,"visib":"6+","altim":1020,"clouds":[{"cover":"BKN","base":2500}],"obsTime":1783954800},"SBBH":{"icaoId":"SBBH","flightCategory":"VFR","rawOb":"METAR SBBH 131500Z 26006KT 9999 BKN040 26/14 Q1018","temp":26,"dewp":14,"wdir":260,"wspd":6,"visib":"6+","altim":1018,"clouds":[{"cover":"BKN","base":4000}],"obsTime":1783954800},"SBBQ":{"icaoId":"SBBQ","flightCategory":"IFR","rawOb":"METAR SBBQ 131500Z 13003KT 9999 OVC009 15/12 Q1022","temp":15,"dewp":12,"wdir":130,"wspd":3,"visib":"6+","altim":1022,"clouds":[{"cover":"OVC","base":900}],"obsTime":1783954800},"SBBU":{"icaoId":"SBBU","flightCategory":"VFR","rawOb":"METAR SBBU 131500Z 12006KT 9999 SCT030 19/11 Q1020","temp":19,"dewp":11,"wdir":120,"wspd":6,"visib":"6+","altim":1020,"clouds":[{"cover":"SCT","base":3000}],"obsTime":1783954800},"SBDN":{"icaoId":"SBDN","flightCategory":"VFR","rawOb":"METAR SBDN 131500Z 17004KT CAVOK 18/10 Q1020","temp":18,"dewp":10,"wdir":170,"wspd":4,"visib":"6+","altim":1020,"clouds":[],"obsTime":1783954800},"SBIP":{"icaoId":"SBIP","flightCategory":"VFR","rawOb":"METAR SBIP 131500Z AUTO 18006KT 110V230 CAVOK 26/17 Q1015","temp":26,"dewp":17,"wdir":180,"wspd":6,"visib":"6+","altim":1015,"clouds":[],"obsTime":1783954800},"SBSC":{"icaoId":"SBSC","flightCategory":"VFR","rawOb":"METAR SBSC 131500Z 24008KT 9999 SCT030 BKN050 21/15 Q1019","temp":21,"dewp":15,"wdir":240,"wspd":8,"visib":"6+","altim":1019,"clouds":[{"cover":"SCT","base":3000},{"cover":"BKN","base":5000}],"obsTime":1783954800},"SBSR":{"icaoId":"SBSR","flightCategory":"VFR","rawOb":"METAR SBSR 131500Z VRB02KT 9999 FEW030 20/12 Q1020","temp":20,"dewp":12,"wdir":"VRB","wspd":2,"visib":"6+","altim":1020,"clouds":[{"cover":"FEW","base":3000}],"obsTime":1783954800},"SBTU":{"icaoId":"SBTU","flightCategory":"VFR","rawOb":"METAR SBTU 131500Z AUTO 21003KT 160V250 9999 // FEW016/// SCT023/// BKN032/// 28/24 Q1017","temp":28,"dewp":24,"wdir":210,"wspd":3,"visib":"6+","altim":1017,"clouds":[{"cover":"FEW","base":1600},{"cover":"SCT","base":2300},{"cover":"BKN","base":3200}],"obsTime":1783954800},"SBPB":{"icaoId":"SBPB","flightCategory":"VFR","rawOb":"METAR SBPB 131500Z 05014KT 9999 FEW020 31/25 Q1014","temp":31,"dewp":25,"wdir":50,"wspd":14,"visib":"6+","altim":1014,"clouds":[{"cover":"FEW","base":2000}],"obsTime":1783954800},"SBTF":{"icaoId":"SBTF","flightCategory":"VFR","rawOb":"METAR SBTF 131500Z 18006KT 9999 SCT015 28/24 Q1016","temp":28,"dewp":24,"wdir":180,"wspd":6,"visib":"6+","altim":1016,"clouds":[{"cover":"SCT","base":1500}],"obsTime":1783954800},"SBPP":{"icaoId":"SBPP","flightCategory":"VFR","rawOb":"METAR SBPP 131500Z 12006KT CAVOK 17/09 Q1022","temp":17,"dewp":9,"wdir":120,"wspd":6,"visib":"6+","altim":1022,"clouds":[],"obsTime":1783954800},"SBJP":{"icaoId":"SBJP","flightCategory":"MVFR","rawOb":"METAR SBJP 131500Z 07008KT 9999 BKN025 29/21 Q1014","temp":29,"dewp":21,"wdir":70,"wspd":8,"visib":"6+","altim":1014,"clouds":[{"cover":"BKN","base":2500}],"obsTime":1783954800},"SBJV":{"icaoId":"SBJV","flightCategory":"VFR","rawOb":"METAR SBJV 131500Z 16005KT 9999 FEW025 17/09 Q1022","temp":17,"dewp":9,"wdir":160,"wspd":5,"visib":"6+","altim":1022,"clouds":[{"cover":"FEW","base":2500}],"obsTime":1783954800},"SBNM":{"icaoId":"SBNM","flightCategory":"MVFR","rawOb":"METAR SBNM 131500Z 10004KT 9999 BKN020 12/07 Q1025","temp":12,"dewp":7,"wdir":100,"wspd":4,"visib":"6+","altim":1025,"clouds":[{"cover":"BKN","base":2000}],"obsTime":1783954800},"SBAN":{"icaoId":"SBAN","flightCategory":"VFR","rawOb":"METAR SBAN 131500Z 19009KT 9999 FEW030 25/15 Q1022","temp":25,"dewp":15,"wdir":190,"wspd":9,"visib":"6+","altim":1022,"clouds":[{"cover":"FEW","base":3000}],"obsTime":1783954800},"SBIH":{"icaoId":"SBIH","flightCategory":"VFR","rawOb":"METAR SBIH 131500Z 03005KT 9999 FEW016 33/25 Q1015","temp":33,"dewp":25,"wdir":30,"wspd":5,"visib":"6+","altim":1015,"clouds":[{"cover":"FEW","base":1600}],"obsTime":1783954800},"SBLE":{"icaoId":"SBLE","flightCategory":"VFR","rawOb":"METAR SBLE 131500Z AUTO 04003KT 340V110 CAVOK 30/20 Q1016","temp":30,"dewp":20,"wdir":40,"wspd":3,"visib":"6+","altim":1016,"clouds":[],"obsTime":1783954800},"SBAF":{"icaoId":"SBAF","flightCategory":"MVFR","rawOb":"METAR SBAF 131500Z 26008KT 8000 SCT015 OVC040 19/17 Q1019","temp":19,"dewp":17,"wdir":260,"wspd":8,"visib":4.97,"altim":1019,"clouds":[{"cover":"SCT","base":1500},{"cover":"OVC","base":4000}],"obsTime":1783954800},"SBGW":{"icaoId":"SBGW","flightCategory":"VFR","rawOb":"METAR SBGW 131500Z 25008KT 9999 SCT030 19/10 Q1020","temp":19,"dewp":10,"wdir":250,"wspd":8,"visib":"6+","altim":1020,"clouds":[{"cover":"SCT","base":3000}],"obsTime":1783954800},"SBJR":{"icaoId":"SBJR","flightCategory":"VFR","rawOb":"METAR SBJR 131500Z 29004KT 9999 SCT020 BKN035 21/15 Q1018","temp":21,"dewp":15,"wdir":290,"wspd":4,"visib":"6+","altim":1018,"clouds":[{"cover":"SCT","base":2000},{"cover":"BKN","base":3500}],"obsTime":1783954800},"SBLS":{"icaoId":"SBLS","flightCategory":"VFR","rawOb":"METAR SBLS 131500Z 29008KT 9999 SCT035 SCT090 24/14 Q1018","temp":24,"dewp":14,"wdir":290,"wspd":8,"visib":"6+","altim":1018,"clouds":[{"cover":"SCT","base":3500},{"cover":"SCT","base":9000}],"obsTime":1783954800},"SBMT":{"icaoId":"SBMT","flightCategory":"MVFR","rawOb":"METAR SBMT 131500Z 13004KT 9999 BKN025 15/06 Q1021","temp":15,"dewp":6,"wdir":130,"wspd":4,"visib":"6+","altim":1021,"clouds":[{"cover":"BKN","base":2500}],"obsTime":1783954800},"SBST":{"icaoId":"SBST","flightCategory":"MVFR","rawOb":"METAR SBST 131500Z 24005KT 180V300 8000 BKN027 BKN070 18/12 Q1020","temp":18,"dewp":12,"wdir":240,"wspd":5,"visib":4.97,"altim":1020,"clouds":[{"cover":"BKN","base":2700},{"cover":"BKN","base":7000}],"obsTime":1783954800},"SBTA":{"icaoId":"SBTA","flightCategory":"MVFR","rawOb":"METAR SBTA 131500Z 12004KT 060V170 9999 BKN025 BKN030 17/10 Q1020","temp":17,"dewp":10,"wdir":120,"wspd":4,"visib":"6+","altim":1020,"clouds":[{"cover":"BKN","base":2500},{"cover":"BKN","base":3000}],"obsTime":1783954800}}}