{"updated":1776202779,"count":82,"data":{"SBSL":{"icaoId":"SBSL","flightCategory":"VFR","rawOb":"METAR SBSL 142000Z 07013KT 9999 VCSH SCT015 FEW020TCU 29/24 Q1007","temp":29,"dewp":24,"wdir":70,"wspd":13,"visib":"6+","altim":1007,"clouds":[{"cover":"SCT","base":1500},{"cover":"FEW","base":2000}],"obsTime":1776196800},"SBAT":{"icaoId":"SBAT","flightCategory":"VFR","rawOb":"METAR SBAT 142000Z 09004KT 9999 TS SCT035 FEW040CB 29/24 Q1008","temp":29,"dewp":24,"wdir":90,"wspd":4,"visib":"6+","altim":1008,"clouds":[{"cover":"SCT","base":3500},{"cover":"FEW","base":4000}],"obsTime":1776196800},"SBVT":{"icaoId":"SBVT","flightCategory":"VFR","rawOb":"METAR SBVT 142000Z 18011KT CAVOK 26/20 Q1013","temp":26,"dewp":20,"wdir":180,"wspd":11,"visib":"6+","altim":1013,"clouds":[],"obsTime":1776196800},"SBBE":{"icaoId":"SBBE","flightCategory":"VFR","rawOb":"METAR SBBE 142000Z 06005KT 9999 SCT025 SCT100 27/24 Q1006","temp":27,"dewp":24,"wdir":60,"wspd":5,"visib":"6+","altim":1006,"clouds":[{"cover":"SCT","base":2500},{"cover":"SCT","base":10000}],"obsTime":1776196800},"SBBR":{"icaoId":"SBBR","flightCategory":"VFR","rawOb":"METAR SBBR 142000Z 07005KT 030V120 9999 FEW040 FEW050TCU SCT070 26/16 Q1015","temp":26,"dewp":16,"wdir":70,"wspd":5,"visib":"6+","altim":1015,"clouds":[{"cover":"FEW","base":4000},{"cover":"FEW","base":5000},{"cover":"SCT","base":7000}],"obsTime":1776196800},"SBUR":{"icaoId":"SBUR","flightCategory":"VFR","rawOb":"METAR SBUR 142000Z 16008KT 9999 FEW049 28/14 Q1014","temp":28,"dewp":14,"wdir":160,"wspd":8,"visib":"6+","altim":1014,"clouds":[{"cover":"FEW","base":4900}],"obsTime":1776196800},"SBUL":{"icaoId":"SBUL","flightCategory":"VFR","rawOb":"METAR SBUL 142000Z 06007KT 9999 SCT045 27/16 Q1015","temp":27,"dewp":16,"wdir":60,"wspd":7,"visib":"6+","altim":1015,"clouds":[{"cover":"SCT","base":4500}],"obsTime":1776196800},"SBBV":{"icaoId":"SBBV","flightCategory":"VFR","rawOb":"METAR SBBV 142000Z 13004KT 9999 BKN040 FEW045TCU BKN090 33/21 Q1006","temp":33,"dewp":21,"wdir":130,"wspd":4,"visib":"6+","altim":1006,"clouds":[{"cover":"BKN","base":4000},{"cover":"FEW","base":4500},{"cover":"BKN","base":9000}],"obsTime":1776196800},"SBCB":{"icaoId":"SBCB","flightCategory":"VFR","rawOb":"METAR SBCB 142000Z 18007KT CAVOK 25/20 Q1015","temp":25,"dewp":20,"wdir":180,"wspd":7,"visib":"6+","altim":1015,"clouds":[],"obsTime":1776196800},"SBTE":{"icaoId":"SBTE","flightCategory":"VFR","rawOb":"METAR SBTE 142000Z 09003KT 9999 -RA SCT014 SCT020 BKN090 25/24 Q1008 RETS","temp":25,"dewp":24,"wdir":90,"wspd":3,"visib":"6+","altim":1008,"clouds":[{"cover":"SCT","base":1400},{"cover":"SCT","base":2000},{"cover":"BKN","base":9000}],"obsTime":1776196800},"SBSV":{"icaoId":"SBSV","flightCategory":"VFR","rawOb":"METAR SBSV 142000Z 14008KT 9999 SCT023 FEW025TCU SCT070 28/22 Q1011","temp":28,"dewp":22,"wdir":140,"wspd":8,"visib":"6+","altim":1011,"clouds":[{"cover":"SCT","base":2300},{"cover":"FEW","base":2500},{"cover":"SCT","base":7000}],"obsTime":1776196800},"SBCF":{"icaoId":"SBCF","flightCategory":"VFR","rawOb":"METAR SBCF 142000Z 20005KT 150V260 9999 SCT040 FEW045TCU SCT080 25/17 Q1016","temp":25,"dewp":17,"wdir":200,"wspd":5,"visib":"6+","altim":1016,"clouds":[{"cover":"SCT","base":4000},{"cover":"FEW","base":4500},{"cover":"SCT","base":8000}],"obsTime":1776196800},"SBSP":{"icaoId":"SBSP","flightCategory":"VFR","rawOb":"METAR SBSP 142000Z 15012KT 9999 FEW023 21/17 Q1018","temp":21,"dewp":17,"wdir":150,"wspd":12,"visib":"6+","altim":1018,"clouds":[{"cover":"FEW","base":2300}],"obsTime":1776196800},"SBCG":{"icaoId":"SBCG","flightCategory":"VFR","rawOb":"METAR SBCG 142000Z 32011KT 9999 VCSH SCT045 FEW050TCU BKN066 BKN100 30/18 Q1011","temp":30,"dewp":18,"wdir":320,"wspd":11,"visib":"6+","altim":1011,"clouds":[{"cover":"SCT","base":4500},{"cover":"FEW","base":5000},{"cover":"BKN","base":6600},{"cover":"BKN","base":10000}],"obsTime":1776196800},"SBSN":{"icaoId":"SBSN","flightCategory":"VFR","rawOb":"METAR SBSN 142000Z 05006KT 9999 FEW020 FEW026TCU 30/24 Q1006 RETS","temp":30,"dewp":24,"wdir":50,"wspd":6,"visib":"6+","altim":1006,"clouds":[{"cover":"FEW","base":2000},{"cover":"FEW","base":2600}],"obsTime":1776196800},"SBCP":{"icaoId":"SBCP","flightCategory":"VFR","rawOb":"METAR SBCP 142000Z 18007KT 9999 FEW020 26/19 Q1013","temp":26,"dewp":19,"wdir":180,"wspd":7,"visib":"6+","altim":1013,"clouds":[{"cover":"FEW","base":2000}],"obsTime":1776196800},"SBCR":{"icaoId":"SBCR","flightCategory":"VFR","rawOb":"METAR SBCR 142000Z 02008KT 340V060 9999 FEW040 SCT100 33/23 Q1006","temp":33,"dewp":23,"wdir":20,"wspd":8,"visib":"6+","altim":1006,"clouds":[{"cover":"FEW","base":4000},{"cover":"SCT","base":10000}],"obsTime":1776196800},"SBCT":{"icaoId":"SBCT","flightCategory":"VFR","rawOb":"METAR SBCT 142000Z 08008KT 9999 SCT033 21/13 Q1018","temp":21,"dewp":13,"wdir":80,"wspd":8,"visib":"6+","altim":1018,"clouds":[{"cover":"SCT","base":3300}],"obsTime":1776196800},"SBSG":{"icaoId":"SBSG","flightCategory":"VFR","rawOb":"METAR SBSG 142000Z 12004KT 100V160 9999 FEW021 FEW025TCU BKN080 26/25 Q1009","temp":26,"dewp":25,"wdir":120,"wspd":4,"visib":"6+","altim":1009,"clouds":[{"cover":"FEW","base":2100},{"cover":"FEW","base":2500},{"cover":"BKN","base":8000}],"obsTime":1776196800},"SBCZ":{"icaoId":"SBCZ","flightCategory":"MVFR","rawOb":"METAR SBCZ 142000Z 00000KT 9999 BKN030 33/23 Q1006","temp":33,"dewp":23,"wdir":0,"wspd":0,"visib":"6+","altim":1006,"clouds":[{"cover":"BKN","base":3000}],"obsTime":1776196800},"SBEG":{"icaoId":"SBEG","flightCategory":"IFR","rawOb":"METAR SBEG 142000Z 30006KT 9999 BKN007 BKN060 26/24 Q1008","temp":26,"dewp":24,"wdir":300,"wspd":6,"visib":"6+","altim":1008,"clouds":[{"cover":"BKN","base":700},{"cover":"BKN","base":6000}],"obsTime":1776196800},"SBRF":{"icaoId":"SBRF","flightCategory":"VFR","rawOb":"METAR SBRF 142000Z 14008KT 100V170 9999 SCT023 SCT060 28/24 Q1009","temp":28,"dewp":24,"wdir":140,"wspd":8,"visib":"6+","altim":1009,"clouds":[{"cover":"SCT","base":2300},{"cover":"SCT","base":6000}],"obsTime":1776196800},"SBRB":{"icaoId":"SBRB","flightCategory":"VFR","rawOb":"METAR SBRB 142000Z 03004KT 9999 VCSH FEW008 SCT020 FEW030TCU 27/25 Q1008","temp":27,"dewp":25,"wdir":30,"wspd":4,"visib":"6+","altim":1008,"clouds":[{"cover":"FEW","base":800},{"cover":"SCT","base":2000},{"cover":"FEW","base":3000}],"obsTime":1776196800},"SBFI":{"icaoId":"SBFI","flightCategory":"VFR","rawOb":"METAR SBFI 142000Z 05009KT 9999 SCT035 29/22 Q1009","temp":29,"dewp":22,"wdir":50,"wspd":9,"visib":"6+","altim":1009,"clouds":[{"cover":"SCT","base":3500}],"obsTime":1776196800},"SBPV":{"icaoId":"SBPV","flightCategory":"VFR","rawOb":"METAR SBPV 142000Z 33004KT 9999 SCT030 32/23 Q1005","temp":32,"dewp":23,"wdir":330,"wspd":4,"visib":"6+","altim":1005,"clouds":[{"cover":"SCT","base":3000}],"obsTime":1776196800},"SBFL":{"icaoId":"SBFL","flightCategory":"VFR","rawOb":"METAR SBFL 142000Z 07006KT 9999 SCT030 25/21 Q1015","temp":25,"dewp":21,"wdir":70,"wspd":6,"visib":"6+","altim":1015,"clouds":[{"cover":"SCT","base":3000}],"obsTime":1776196800},"SBFZ":{"icaoId":"SBFZ","flightCategory":"MVFR","rawOb":"METAR SBFZ 142000Z 09005KT 070V130 8000 -RA BKN015 FEW030TCU OVC070 26/24 Q1008","temp":26,"dewp":24,"wdir":90,"wspd":5,"visib":4.97,"altim":1008,"clouds":[{"cover":"BKN","base":1500},{"cover":"FEW","base":3000},{"cover":"OVC","base":7000}],"obsTime":1776196800},"SBPJ":{"icaoId":"SBPJ","flightCategory":"VFR","rawOb":"METAR SBPJ 142000Z 24002KT 9999 SCT035 32/24 Q1007","temp":32,"dewp":24,"wdir":240,"wspd":2,"visib":"6+","altim":1007,"clouds":[{"cover":"SCT","base":3500}],"obsTime":1776196800},"SBPA":{"icaoId":"SBPA","flightCategory":"VFR","rawOb":"METAR SBPA 142000Z 18005KT 150V210 9999 FEW045 28/21 Q1012","temp":28,"dewp":21,"wdir":180,"wspd":5,"visib":"6+","altim":1012,"clouds":[{"cover":"FEW","base":4500}],"obsTime":1776196800},"SBGL":{"icaoId":"SBGL","flightCategory":"VFR","rawOb":"METAR SBGL 142000Z 12009KT 9999 FEW040 25/19 Q1014","temp":25,"dewp":19,"wdir":120,"wspd":9,"visib":"6+","altim":1014,"clouds":[{"cover":"FEW","base":4000}],"obsTime":1776196800},"SBNT":{"icaoId":"SBNT","flightCategory":"VFR","rawOb":"METAR SBNT 142000Z 13006KT 9999 FEW017 FEW025TCU BKN050 BKN080 28/25 Q1009","temp":28,"dewp":25,"wdir":130,"wspd":6,"visib":"6+","altim":1009,"clouds":[{"cover":"FEW","base":1700},{"cover":"FEW","base":2500},{"cover":"BKN","base":5000},{"cover":"BKN","base":8000}],"obsTime":1776196800},"SBGO":{"icaoId":"SBGO","flightCategory":"VFR","rawOb":"METAR SBGO 142000Z 15005KT CAVOK 28/18 Q1013","temp":28,"dewp":18,"wdir":150,"wspd":5,"visib":"6+","altim":1013,"clouds":[],"obsTime":1776196800},"SBMQ":{"icaoId":"SBMQ","flightCategory":"VFR","rawOb":"METAR SBMQ 142000Z 06009KT 9999 VCTS SCT040 FEW050CB SCT080 30/25 Q1006","temp":30,"dewp":25,"wdir":60,"wspd":9,"visib":"6+","altim":1006,"clouds":[{"cover":"SCT","base":4000},{"cover":"FEW","base":5000},{"cover":"SCT","base":8000}],"obsTime":1776196800},"SBGR":{"icaoId":"SBGR","flightCategory":"VFR","rawOb":"METAR SBGR 142000Z 16008KT CAVOK 24/17 Q1016","temp":24,"dewp":17,"wdir":160,"wspd":8,"visib":"6+","altim":1016,"clouds":[],"obsTime":1776196800},"SBMO":{"icaoId":"SBMO","flightCategory":"VFR","rawOb":"METAR SBMO 142000Z 11009KT 9999 SCT025 SCT060 27/23 Q1010","temp":27,"dewp":23,"wdir":110,"wspd":9,"visib":"6+","altim":1010,"clouds":[{"cover":"SCT","base":2500},{"cover":"SCT","base":6000}],"obsTime":1776196800},"SBHT":{"icaoId":"SBHT","flightCategory":"MVFR","rawOb":"METAR SBHT 142000Z 12003KT 9999 BKN030 32/24 Q1006","temp":32,"dewp":24,"wdir":120,"wspd":3,"visib":"6+","altim":1006,"clouds":[{"cover":"BKN","base":3000}],"obsTime":1776196800},"SBMK":{"icaoId":"SBMK","flightCategory":"VFR","rawOb":"METAR SBMK 142000Z 08004KT 9999 FEW030 26/17 Q1014","temp":26,"dewp":17,"wdir":80,"wspd":4,"visib":"6+","altim":1014,"clouds":[{"cover":"FEW","base":3000}],"obsTime":1776196800},"SBIL":{"icaoId":"SBIL","flightCategory":"VFR","rawOb":"METAR SBIL 142000Z 19009KT CAVOK 29/23 Q1012","temp":29,"dewp":23,"wdir":190,"wspd":9,"visib":"6+","altim":1012,"clouds":[],"obsTime":1776196800},"SBMG":{"icaoId":"SBMG","flightCategory":"VFR","rawOb":"METAR SBMG 142000Z 04007KT 9999 SCT046 28/19 Q1012","temp":28,"dewp":19,"wdir":40,"wspd":7,"visib":"6+","altim":1012,"clouds":[{"cover":"SCT","base":4600}],"obsTime":1776196800},"SBJU":{"icaoId":"SBJU","flightCategory":"VFR","rawOb":"METAR SBJU 142000Z 15005KT 9999 SCT022 28/22 Q1010","temp":28,"dewp":22,"wdir":150,"wspd":5,"visib":"6+","altim":1010,"clouds":[{"cover":"SCT","base":2200}],"obsTime":1776196800},"SBME":{"icaoId":"SBME","flightCategory":"VFR","rawOb":"METAR SBME 142000Z 18004KT 9999 FEW040 25/20 Q1014","temp":25,"dewp":20,"wdir":180,"wspd":4,"visib":"6+","altim":1014,"clouds":[{"cover":"FEW","base":4000}],"obsTime":1776196800},"SBKP":{"icaoId":"SBKP","flightCategory":"VFR","rawOb":"METAR SBKP 142000Z 12006KT CAVOK 27/14 Q1015","temp":27,"dewp":14,"wdir":120,"wspd":6,"visib":"6+","altim":1015,"clouds":[],"obsTime":1776196800},"SBLO":{"icaoId":"SBLO","flightCategory":"VFR","rawOb":"METAR SBLO 142000Z 09006KT CAVOK 28/18 Q1013","temp":28,"dewp":18,"wdir":90,"wspd":6,"visib":"6+","altim":1013,"clouds":[],"obsTime":1776196800},"SBMA":{"icaoId":"SBMA","flightCategory":"VFR","rawOb":"METAR SBMA 142000Z 15006KT 9999 SCT025 FEW030TCU 32/23 Q1005","temp":32,"dewp":23,"wdir":150,"wspd":6,"visib":"6+","altim":1005,"clouds":[{"cover":"SCT","base":2500},{"cover":"FEW","base":3000}],"obsTime":1776196800},"SBAR":{"icaoId":"SBAR","flightCategory":"VFR","rawOb":"METAR SBAR 142000Z 12007KT 9999 VCSH FEW022 FEW024TCU 28/24 Q1010","temp":28,"dewp":24,"wdir":120,"wspd":7,"visib":"6+","altim":1010,"clouds":[{"cover":"FEW","base":2200},{"cover":"FEW","base":2400}],"obsTime":1776196800},"SBOI":{"icaoId":"SBOI","flightCategory":"VFR","rawOb":"METAR SBOI 142000Z AUTO 31003KT 280V340 9999 FEW006 SCT022 BKN035 26/25 Q1007","temp":26,"dewp":25,"wdir":310,"wspd":3,"visib":"6+","altim":1007,"clouds":[{"cover":"FEW","base":600},{"cover":"SCT","base":2200},{"cover":"BKN","base":3500}],"obsTime":1776196800},"SBPB":{"icaoId":"SBPB","flightCategory":"MVFR","rawOb":"METAR SBPB 142000Z COR 10011KT 6000 TSRA BKN015 FEW025CB OVC070 24/24 Q1008","temp":24,"dewp":24,"wdir":100,"wspd":11,"visib":3.73,"altim":1008,"clouds":[{"cover":"BKN","base":1500},{"cover":"FEW","base":2500},{"cover":"OVC","base":7000}],"obsTime":1776196800},"SBPL":{"icaoId":"SBPL","flightCategory":"VFR","rawOb":"METAR SBPL 142000Z 14008KT 9999 FEW030 31/20 Q1009","temp":31,"dewp":20,"wdir":140,"wspd":8,"visib":"6+","altim":1009,"clouds":[{"cover":"FEW","base":3000}],"obsTime":1776196800},"SBCO":{"icaoId":"SBCO","flightCategory":"VFR","rawOb":"METAR SBCO 142000Z 20005KT 9999 FEW045 28/21 Q1013","temp":28,"dewp":21,"wdir":200,"wspd":5,"visib":"6+","altim":1013,"clouds":[{"cover":"FEW","base":4500}],"obsTime":1776196800},"SBPP":{"icaoId":"SBPP","flightCategory":"VFR","rawOb":"METAR SBPP 142000Z 03014KT 9999 FEW020 27/21 Q1011","temp":27,"dewp":21,"wdir":30,"wspd":14,"visib":"6+","altim":1011,"clouds":[{"cover":"FEW","base":2000}],"obsTime":1776196800},"SBPS":{"icaoId":"SBPS","flightCategory":"VFR","rawOb":"METAR SBPS 142000Z 14003KT CAVOK 26/21 Q1012","temp":26,"dewp":21,"wdir":140,"wspd":3,"visib":"6+","altim":1012,"clouds":[],"obsTime":1776196800},"SBBU":{"icaoId":"SBBU","flightCategory":"VFR","rawOb":"METAR SBBU 142000Z 12006KT CAVOK 28/16 Q1014","temp":28,"dewp":16,"wdir":120,"wspd":6,"visib":"6+","altim":1014,"clouds":[],"obsTime":1776196800},"SBDN":{"icaoId":"SBDN","flightCategory":"VFR","rawOb":"METAR SBDN 142000Z 09005KT 9999 SCT049 BKN070 29/18 Q1012","temp":29,"dewp":18,"wdir":90,"wspd":5,"visib":"6+","altim":1012,"clouds":[{"cover":"SCT","base":4900},{"cover":"BKN","base":7000}],"obsTime":1776196800},"SBSC":{"icaoId":"SBSC","flightCategory":"VFR","rawOb":"METAR SBSC 142000Z 19008KT CAVOK 25/20 Q1014","temp":25,"dewp":20,"wdir":190,"wspd":8,"visib":"6+","altim":1014,"clouds":[],"obsTime":1776196800},"SBSJ":{"icaoId":"SBSJ","flightCategory":"VFR","rawOb":"METAR SBSJ 142000Z 15005KT 9999 FEW045 24/14 Q1016","temp":24,"dewp":14,"wdir":150,"wspd":5,"visib":"6+","altim":1016,"clouds":[{"cover":"FEW","base":4500}],"obsTime":1776196800},"SBES":{"icaoId":"SBES","flightCategory":"VFR","rawOb":"METAR SBES 142000Z 20009KT 160V220 9999 FEW020 25/// Q1015","temp":null,"dewp":null,"wdir":200,"wspd":9,"visib":"6+","altim":1015,"clouds":[{"cover":"FEW","base":2000}],"obsTime":1776196800},"SBSM":{"icaoId":"SBSM","flightCategory":"VFR","rawOb":"METAR SBSM 142000Z 11005KT CAVOK 26/22 Q1011","temp":26,"dewp":22,"wdir":110,"wspd":5,"visib":"6+","altim":1011,"clouds":[],"obsTime":1776196800},"SBCA":{"icaoId":"SBCA","flightCategory":"VFR","rawOb":"METAR SBCA 142000Z 06012KT 020V090 9999 SCT030 BKN080 25/18 Q1014","temp":25,"dewp":18,"wdir":60,"wspd":12,"visib":"6+","altim":1014,"clouds":[{"cover":"SCT","base":3000},{"cover":"BKN","base":8000}],"obsTime":1776196800},"SBSR":{"icaoId":"SBSR","flightCategory":"VFR","rawOb":"METAR SBSR 142000Z 13005KT 090V200 9999 FEW035 30/12 Q1012","temp":30,"dewp":12,"wdir":130,"wspd":5,"visib":"6+","altim":1012,"clouds":[{"cover":"FEW","base":3500}],"obsTime":1776196800},"SBTF":{"icaoId":"SBTF","flightCategory":"VFR","rawOb":"METAR SBTF 142000Z 03004KT 9999 SCT018 30/26 Q1006","temp":30,"dewp":26,"wdir":30,"wspd":4,"visib":"6+","altim":1006,"clouds":[{"cover":"SCT","base":1800}],"obsTime":1776196800},"SBIP":{"icaoId":"SBIP","flightCategory":"VFR","rawOb":"METAR SBIP 142000Z AUTO VRB02KT CAVOK 26/19 Q1012","temp":26,"dewp":19,"wdir":"VRB","wspd":2,"visib":"6+","altim":1012,"clouds":[],"obsTime":1776196800},"SBVH":{"icaoId":"SBVH","flightCategory":"VFR","rawOb":"METAR SBVH 142000Z 34006KT 9999 BKN035 FEW040TCU 28/22 Q1009","temp":28,"dewp":22,"wdir":340,"wspd":6,"visib":"6+","altim":1009,"clouds":[{"cover":"BKN","base":3500},{"cover":"FEW","base":4000}],"obsTime":1776196800},"SBTT":{"icaoId":"SBTT","flightCategory":"VFR","rawOb":"SPECI SBTT 141945Z 09007KT 050V140 9999 TS VCSH SCT040 FEW045CB 28/24 Q1006","temp":28,"dewp":24,"wdir":90,"wspd":7,"visib":"6+","altim":1006,"clouds":[{"cover":"SCT","base":4000},{"cover":"FEW","base":4500}],"obsTime":1776195900},"SBKG":{"icaoId":"SBKG","flightCategory":"VFR","rawOb":"METAR SBKG 142000Z 10006KT 9999 SCT010 24/23 Q1011","temp":24,"dewp":23,"wdir":100,"wspd":6,"visib":"6+","altim":1011,"clouds":[{"cover":"SCT","base":1000}],"obsTime":1776196800},"SBUY":{"icaoId":"SBUY","flightCategory":"VFR","rawOb":"METAR SBUY 142000Z 14006KT 9999 SCT030 30/25 Q1005","temp":30,"dewp":25,"wdir":140,"wspd":6,"visib":"6+","altim":1005,"clouds":[{"cover":"SCT","base":3000}],"obsTime":1776196800},"SBBH":{"icaoId":"SBBH","flightCategory":"VFR","rawOb":"METAR SBBH 142000Z 12004KT 9999 BKN035 FEW040TCU 23/19 Q1016","temp":23,"dewp":19,"wdir":120,"wspd":4,"visib":"6+","altim":1016,"clouds":[{"cover":"BKN","base":3500},{"cover":"FEW","base":4000}],"obsTime":1776196800},"SBAX":{"icaoId":"SBAX","flightCategory":"VFR","rawOb":"METAR SBAX 142000Z 07005KT 9999 SCT030 27/13 Q1015","temp":27,"dewp":13,"wdir":70,"wspd":5,"visib":"6+","altim":1015,"clouds":[{"cover":"SCT","base":3000}],"obsTime":1776196800},"SBCJ":{"icaoId":"SBCJ","flightCategory":"VFR","rawOb":"METAR SBCJ 142000Z 00000KT 9999 FEW025 26/24 Q1011","temp":26,"dewp":24,"wdir":0,"wspd":0,"visib":"6+","altim":1011,"clouds":[{"cover":"FEW","base":2500}],"obsTime":1776196800},"SBCC":{"icaoId":"SBCC","flightCategory":"VFR","rawOb":"METAR SBCC 142000Z 23002KT 9999 SCT025 FEW030TCU SCT100 26/22 Q1009","temp":26,"dewp":22,"wdir":230,"wspd":2,"visib":"6+","altim":1009,"clouds":[{"cover":"SCT","base":2500},{"cover":"FEW","base":3000},{"cover":"SCT","base":10000}],"obsTime":1776196800},"SBJP":{"icaoId":"SBJP","flightCategory":"MVFR","rawOb":"METAR SBJP 142000Z 16008KT 9999 4000W -RA SCT013 BKN020 FEW025TCU 27/24 Q1009","temp":27,"dewp":24,"wdir":160,"wspd":8,"visib":"6+","altim":1009,"clouds":[{"cover":"SCT","base":1300},{"cover":"BKN","base":2000},{"cover":"FEW","base":2500}],"obsTime":1776196800},"SBAF":{"icaoId":"SBAF","flightCategory":"VFR","rawOb":"METAR SBAF 142000Z 19012KT 9999 FEW030 25/19 Q1014","temp":25,"dewp":19,"wdir":190,"wspd":12,"visib":"6+","altim":1014,"clouds":[{"cover":"FEW","base":3000}],"obsTime":1776196800},"SBAN":{"icaoId":"SBAN","flightCategory":"VFR","rawOb":"METAR SBAN 142000Z 33002KT 9999 VCSH FEW030 SCT040 FEW045TCU 25/17 Q1016","temp":25,"dewp":17,"wdir":330,"wspd":2,"visib":"6+","altim":1016,"clouds":[{"cover":"FEW","base":3000},{"cover":"SCT","base":4000},{"cover":"FEW","base":4500}],"obsTime":1776196800},"SBGW":{"icaoId":"SBGW","flightCategory":"VFR","rawOb":"METAR SBGW 142000Z 32004KT 9999 FEW035 26/13 Q1015","temp":26,"dewp":13,"wdir":320,"wspd":4,"visib":"6+","altim":1015,"clouds":[{"cover":"FEW","base":3500}],"obsTime":1776196800},"SBLE":{"icaoId":"SBLE","flightCategory":"VFR","rawOb":"METAR SBLE 142000Z AUTO 14003KT 110V180 CAVOK 26/21 Q1013","temp":26,"dewp":21,"wdir":140,"wspd":3,"visib":"6+","altim":1013,"clouds":[],"obsTime":1776196800},"SBJR":{"icaoId":"SBJR","flightCategory":"VFR","rawOb":"METAR SBJR 142000Z 17005KT 9999 FEW025 26/20 Q1014","temp":26,"dewp":20,"wdir":170,"wspd":5,"visib":"6+","altim":1014,"clouds":[{"cover":"FEW","base":2500}],"obsTime":1776196800},"SBPF":{"icaoId":"SBPF","flightCategory":"VFR","rawOb":"METAR SBPF 142000Z 05010KT 9999 FEW045 25/16 Q1016","temp":25,"dewp":16,"wdir":50,"wspd":10,"visib":"6+","altim":1016,"clouds":[{"cover":"FEW","base":4500}],"obsTime":1776196800},"SBLS":{"icaoId":"SBLS","flightCategory":"VFR","rawOb":"METAR SBLS 142000Z 16004KT 090V190 9999 VCSH SCT040 SCT090 26/15 Q1015","temp":26,"dewp":15,"wdir":160,"wspd":4,"visib":"6+","altim":1015,"clouds":[{"cover":"SCT","base":4000},{"cover":"SCT","base":9000}],"obsTime":1776196800},"SBMT":{"icaoId":"SBMT","flightCategory":"VFR","rawOb":"METAR SBMT 142000Z 16008KT 120V190 9999 FEW029 22/16 Q1016","temp":22,"dewp":16,"wdir":160,"wspd":8,"visib":"6+","altim":1016,"clouds":[{"cover":"FEW","base":2900}],"obsTime":1776196800},"SBIH":{"icaoId":"SBIH","flightCategory":"VFR","rawOb":"METAR SBIH 142000Z 28004KT 9999 FEW020 FEW025TCU 30/25 Q1006","temp":30,"dewp":25,"wdir":280,"wspd":4,"visib":"6+","altim":1006,"clouds":[{"cover":"FEW","base":2000},{"cover":"FEW","base":2500}],"obsTime":1776196800},"SBST":{"icaoId":"SBST","flightCategory":"VFR","rawOb":"METAR SBST 142000Z 16008KT 9999 FEW025 25/17 Q1014","temp":25,"dewp":17,"wdir":160,"wspd":8,"visib":"6+","altim":1014,"clouds":[{"cover":"FEW","base":2500}],"obsTime":1776196800},"SBJV":{"icaoId":"SBJV","flightCategory":"VFR","rawOb":"METAR SBJV 142000Z 07006KT 040V110 9999 SCT030 27/18 Q1015","temp":27,"dewp":18,"wdir":70,"wspd":6,"visib":"6+","altim":1015,"clouds":[{"cover":"SCT","base":3000}],"obsTime":1776196800},"SBTA":{"icaoId":"SBTA","flightCategory":"VFR","rawOb":"METAR SBTA 142000Z 00000KT 9999 FEW040 26/12 Q1014","temp":26,"dewp":12,"wdir":0,"wspd":0,"visib":"6+","altim":1014,"clouds":[{"cover":"FEW","base":4000}],"obsTime":1776196800}}}