{"updated":1782332081,"count":85,"data":{"SBPV":{"icaoId":"SBPV","flightCategory":"MVFR","rawOb":"METAR SBPV 241900Z 30002KT 9999 -RA BKN018 26/23 Q1011","temp":26,"dewp":23,"wdir":300,"wspd":2,"visib":"6+","altim":1011,"clouds":[{"cover":"BKN","base":1800}],"obsTime":1782327600},"SBAT":{"icaoId":"SBAT","flightCategory":"VFR","rawOb":"METAR SBAT 241900Z 13003KT 9999 SCT030 33/21 Q1011","temp":33,"dewp":21,"wdir":130,"wspd":3,"visib":"6+","altim":1011,"clouds":[{"cover":"SCT","base":3000}],"obsTime":1782327600},"SBBE":{"icaoId":"SBBE","flightCategory":"MVFR","rawOb":"METAR SBBE 241900Z 03007KT 8000 -RA FEW042 FEW045TCU BKN049 26/24 Q1009","temp":26,"dewp":24,"wdir":30,"wspd":7,"visib":4.97,"altim":1009,"clouds":[{"cover":"FEW","base":4200},{"cover":"FEW","base":4500},{"cover":"BKN","base":4900}],"obsTime":1782327600},"SBBR":{"icaoId":"SBBR","flightCategory":"VFR","rawOb":"METAR SBBR 241900Z 29005KT 240V340 9999 SCT045 28/12 Q1018","temp":28,"dewp":12,"wdir":290,"wspd":5,"visib":"6+","altim":1018,"clouds":[{"cover":"SCT","base":4500}],"obsTime":1782327600},"SBVT":{"icaoId":"SBVT","flightCategory":"VFR","rawOb":"METAR SBVT 241900Z 04009KT 9999 FEW020 25/21 Q1013","temp":25,"dewp":21,"wdir":40,"wspd":9,"visib":"6+","altim":1013,"clouds":[{"cover":"FEW","base":2000}],"obsTime":1782327600},"SBBV":{"icaoId":"SBBV","flightCategory":"IFR","rawOb":"METAR SBBV 241900Z COR 03005KT 4000 RA BKN010 FEW030TCU BKN070 26/24 Q1010","temp":26,"dewp":24,"wdir":30,"wspd":5,"visib":2.49,"altim":1010,"clouds":[{"cover":"BKN","base":1000},{"cover":"FEW","base":3000},{"cover":"BKN","base":7000}],"obsTime":1782327600},"SBCB":{"icaoId":"SBCB","flightCategory":"MVFR","rawOb":"METAR SBCB 241900Z 29010KT 9999 FEW015 BKN020 OVC050 22/20 Q1015","temp":22,"dewp":20,"wdir":290,"wspd":10,"visib":"6+","altim":1015,"clouds":[{"cover":"FEW","base":1500},{"cover":"BKN","base":2000},{"cover":"OVC","base":5000}],"obsTime":1782327600},"SBCF":{"icaoId":"SBCF","flightCategory":"VFR","rawOb":"METAR SBCF 241900Z 01005KT CAVOK 26/13 Q1017","temp":26,"dewp":13,"wdir":10,"wspd":5,"visib":"6+","altim":1017,"clouds":[],"obsTime":1782327600},"SBCG":{"icaoId":"SBCG","flightCategory":"VFR","rawOb":"METAR SBCG 241900Z 11004KT 070V160 9999 FEW030 14/06 Q1019","temp":14,"dewp":6,"wdir":110,"wspd":4,"visib":"6+","altim":1019,"clouds":[{"cover":"FEW","base":3000}],"obsTime":1782327600},"SBCP":{"icaoId":"SBCP","flightCategory":"VFR","rawOb":"METAR SBCP 241900Z 08010KT CAVOK 27/20 Q1013","temp":27,"dewp":20,"wdir":80,"wspd":10,"visib":"6+","altim":1013,"clouds":[],"obsTime":1782327600},"SBCR":{"icaoId":"SBCR","flightCategory":"VFR","rawOb":"METAR SBCR 241900Z 01005KT 300V040 9999 FEW030 BKN100 17/10 Q1019","temp":17,"dewp":10,"wdir":10,"wspd":5,"visib":"6+","altim":1019,"clouds":[{"cover":"FEW","base":3000},{"cover":"BKN","base":10000}],"obsTime":1782327600},"SBCT":{"icaoId":"SBCT","flightCategory":"MVFR","rawOb":"METAR SBCT 241900Z 27006KT 9999 SCT013 BKN020 10/05 Q1020","temp":10,"dewp":5,"wdir":270,"wspd":6,"visib":"6+","altim":1020,"clouds":[{"cover":"SCT","base":1300},{"cover":"BKN","base":2000}],"obsTime":1782327600},"SBCZ":{"icaoId":"SBCZ","flightCategory":"MVFR","rawOb":"METAR SBCZ 241900Z COR 18003KT 9999 BKN030 FEW030TCU BKN090 27/24 Q1010","temp":27,"dewp":24,"wdir":180,"wspd":3,"visib":"6+","altim":1010,"clouds":[{"cover":"BKN","base":3000},{"cover":"FEW","base":3000},{"cover":"BKN","base":9000}],"obsTime":1782327600},"SBEG":{"icaoId":"SBEG","flightCategory":"VFR","rawOb":"METAR SBEG 241900Z 26004KT 190V310 9999 SCT030 FEW035TCU 32/25 Q1009","temp":32,"dewp":25,"wdir":260,"wspd":4,"visib":"6+","altim":1009,"clouds":[{"cover":"SCT","base":3000},{"cover":"FEW","base":3500}],"obsTime":1782327600},"SBFI":{"icaoId":"SBFI","flightCategory":"VFR","rawOb":"METAR SBFI 241900Z 11003KT CAVOK 15/03 Q1020","temp":15,"dewp":3,"wdir":110,"wspd":3,"visib":"6+","altim":1020,"clouds":[],"obsTime":1782327600},"SBFL":{"icaoId":"SBFL","flightCategory":"VFR","rawOb":"METAR SBFL 241900Z 12006KT 9999 FEW035 14/04 Q1020","temp":14,"dewp":4,"wdir":120,"wspd":6,"visib":"6+","altim":1020,"clouds":[{"cover":"FEW","base":3500}],"obsTime":1782327600},"SBFZ":{"icaoId":"SBFZ","flightCategory":"VFR","rawOb":"METAR SBFZ 241900Z 10011KT 9999 FEW030 BKN100 29/23 Q1010","temp":29,"dewp":23,"wdir":100,"wspd":11,"visib":"6+","altim":1010,"clouds":[{"cover":"FEW","base":3000},{"cover":"BKN","base":10000}],"obsTime":1782327600},"SBGL":{"icaoId":"SBGL","flightCategory":"IFR","rawOb":"METAR SBGL 241900Z 24007KT 3000 RA BKN010 OVC080 20/19 Q1016","temp":20,"dewp":19,"wdir":240,"wspd":7,"visib":1.86,"altim":1016,"clouds":[{"cover":"BKN","base":1000},{"cover":"OVC","base":8000}],"obsTime":1782327600},"SBGO":{"icaoId":"SBGO","flightCategory":"VFR","rawOb":"METAR SBGO 241900Z 24010KT 9999 FEW040 BKN100 28/18 Q1016","temp":28,"dewp":18,"wdir":240,"wspd":10,"visib":"6+","altim":1016,"clouds":[{"cover":"FEW","base":4000},{"cover":"BKN","base":10000}],"obsTime":1782327600},"SBGR":{"icaoId":"SBGR","flightCategory":"IFR","rawOb":"METAR SBGR 241900Z 18003KT 4000 -RA BR BKN007 OVC013 13/13 Q1019","temp":13,"dewp":13,"wdir":180,"wspd":3,"visib":2.49,"altim":1019,"clouds":[{"cover":"BKN","base":700},{"cover":"OVC","base":1300}],"obsTime":1782327600},"SBHT":{"icaoId":"SBHT","flightCategory":"VFR","rawOb":"METAR SBHT 241900Z 14002KT 9999 SCT030 31/23 Q1009","temp":31,"dewp":23,"wdir":140,"wspd":2,"visib":"6+","altim":1009,"clouds":[{"cover":"SCT","base":3000}],"obsTime":1782327600},"SBIL":{"icaoId":"SBIL","flightCategory":"VFR","rawOb":"METAR SBIL 241900Z 11008KT 9999 VCSH FEW025 BKN060 26/22 Q1015","temp":26,"dewp":22,"wdir":110,"wspd":8,"visib":"6+","altim":1015,"clouds":[{"cover":"FEW","base":2500},{"cover":"BKN","base":6000}],"obsTime":1782327600},"SBJU":{"icaoId":"SBJU","flightCategory":"VFR","rawOb":"METAR SBJU 241900Z 18010KT 9999 FEW022 32/16 Q1012","temp":32,"dewp":16,"wdir":180,"wspd":10,"visib":"6+","altim":1012,"clouds":[{"cover":"FEW","base":2200}],"obsTime":1782327600},"SBKP":{"icaoId":"SBKP","flightCategory":"LIFR","rawOb":"METAR SBKP 241900Z 25007KT 4000 -DZ BR BKN002 OVC004 14/13 Q1020","temp":14,"dewp":13,"wdir":250,"wspd":7,"visib":2.49,"altim":1020,"clouds":[{"cover":"BKN","base":200},{"cover":"OVC","base":400}],"obsTime":1782327600},"SBLO":{"icaoId":"SBLO","flightCategory":"VFR","rawOb":"METAR SBLO 241900Z 21004KT 9999 FEW020 14/09 Q1019","temp":14,"dewp":9,"wdir":210,"wspd":4,"visib":"6+","altim":1019,"clouds":[{"cover":"FEW","base":2000}],"obsTime":1782327600},"SBMA":{"icaoId":"SBMA","flightCategory":"VFR","rawOb":"METAR SBMA 241900Z 17005KT 9999 FEW020 FEW025TCU 34/20 Q1009","temp":34,"dewp":20,"wdir":170,"wspd":5,"visib":"6+","altim":1009,"clouds":[{"cover":"FEW","base":2000},{"cover":"FEW","base":2500}],"obsTime":1782327600},"SBME":{"icaoId":"SBME","flightCategory":"VFR","rawOb":"METAR SBME 241900Z 20016KT 9999 SCT040 24/20 Q1014","temp":24,"dewp":20,"wdir":200,"wspd":16,"visib":"6+","altim":1014,"clouds":[{"cover":"SCT","base":4000}],"obsTime":1782327600},"SBMG":{"icaoId":"SBMG","flightCategory":"VFR","rawOb":"METAR SBMG 241900Z 24005KT 190V280 9999 FEW020 15/07 Q1019","temp":15,"dewp":7,"wdir":240,"wspd":5,"visib":"6+","altim":1019,"clouds":[{"cover":"FEW","base":2000}],"obsTime":1782327600},"SBMK":{"icaoId":"SBMK","flightCategory":"VFR","rawOb":"METAR SBMK 241900Z 07005KT CAVOK 29/11 Q1015","temp":29,"dewp":11,"wdir":70,"wspd":5,"visib":"6+","altim":1015,"clouds":[],"obsTime":1782327600},"SBMO":{"icaoId":"SBMO","flightCategory":"MVFR","rawOb":"METAR SBMO 241900Z 11008KT 9999 BKN025 27/22 Q1014","temp":27,"dewp":22,"wdir":110,"wspd":8,"visib":"6+","altim":1014,"clouds":[{"cover":"BKN","base":2500}],"obsTime":1782327600},"SBMQ":{"icaoId":"SBMQ","flightCategory":"VFR","rawOb":"METAR SBMQ 241900Z 08008KT 9999 VCSH FEW025 FEW030TCU 31/25 Q1009","temp":31,"dewp":25,"wdir":80,"wspd":8,"visib":"6+","altim":1009,"clouds":[{"cover":"FEW","base":2500},{"cover":"FEW","base":3000}],"obsTime":1782327600},"SBNT":{"icaoId":"SBNT","flightCategory":"VFR","rawOb":"METAR SBNT 241900Z 14014KT 9999 FEW033 SCT070 29/20 Q1012","temp":29,"dewp":20,"wdir":140,"wspd":14,"visib":"6+","altim":1012,"clouds":[{"cover":"FEW","base":3300},{"cover":"SCT","base":7000}],"obsTime":1782327600},"SBPA":{"icaoId":"SBPA","flightCategory":"VFR","rawOb":"METAR SBPA 241900Z 30009KT 270V340 9999 FEW040 14/03 Q1018","temp":14,"dewp":3,"wdir":300,"wspd":9,"visib":"6+","altim":1018,"clouds":[{"cover":"FEW","base":4000}],"obsTime":1782327600},"SBPJ":{"icaoId":"SBPJ","flightCategory":"VFR","rawOb":"METAR SBPJ 241900Z 23004KT 200V260 CAVOK 34/16 Q1011","temp":34,"dewp":16,"wdir":230,"wspd":4,"visib":"6+","altim":1011,"clouds":[],"obsTime":1782327600},"SBRB":{"icaoId":"SBRB","flightCategory":"IFR","rawOb":"METAR SBRB 241900Z COR 16007KT 110V210 9999 BKN009 OVC100 17/16 Q1015","temp":17,"dewp":16,"wdir":160,"wspd":7,"visib":"6+","altim":1015,"clouds":[{"cover":"BKN","base":900},{"cover":"OVC","base":10000}],"obsTime":1782327600},"SBRF":{"icaoId":"SBRF","flightCategory":"VFR","rawOb":"METAR SBRF 241900Z 16013KT 9999 FEW025 27/22 Q1013","temp":27,"dewp":22,"wdir":160,"wspd":13,"visib":"6+","altim":1013,"clouds":[{"cover":"FEW","base":2500}],"obsTime":1782327600},"SBSG":{"icaoId":"SBSG","flightCategory":"VFR","rawOb":"METAR SBSG 241900Z 13009KT 100V160 9999 BKN036 28/21 Q1012","temp":28,"dewp":21,"wdir":130,"wspd":9,"visib":"6+","altim":1012,"clouds":[{"cover":"BKN","base":3600}],"obsTime":1782327600},"SBSL":{"icaoId":"SBSL","flightCategory":"VFR","rawOb":"METAR SBSL 241900Z 14002KT 9999 SCT023 FEW025TCU BKN070 26/24 Q1010","temp":26,"dewp":24,"wdir":140,"wspd":2,"visib":"6+","altim":1010,"clouds":[{"cover":"SCT","base":2300},{"cover":"FEW","base":2500},{"cover":"BKN","base":7000}],"obsTime":1782327600},"SBSN":{"icaoId":"SBSN","flightCategory":"VFR","rawOb":"METAR SBSN 241900Z 07009KT 9999 VCSH SCT020 FEW025TCU 31/24 Q1009","temp":31,"dewp":24,"wdir":70,"wspd":9,"visib":"6+","altim":1009,"clouds":[{"cover":"SCT","base":2000},{"cover":"FEW","base":2500}],"obsTime":1782327600},"SBSP":{"icaoId":"SBSP","flightCategory":"IFR","rawOb":"METAR SBSP 241900Z 20007KT 160V230 8000 OVC007 12/11 Q1020","temp":12,"dewp":11,"wdir":200,"wspd":7,"visib":4.97,"altim":1020,"clouds":[{"cover":"OVC","base":700}],"obsTime":1782327600},"SBSV":{"icaoId":"SBSV","flightCategory":"VFR","rawOb":"METAR SBSV 241900Z 08009KT 9999 SCT023 27/22 Q1014","temp":27,"dewp":22,"wdir":80,"wspd":9,"visib":"6+","altim":1014,"clouds":[{"cover":"SCT","base":2300}],"obsTime":1782327600},"SBTE":{"icaoId":"SBTE","flightCategory":"VFR","rawOb":"METAR SBTE 241900Z 15004KT 050V220 9999 FEW030 34/21 Q1008","temp":34,"dewp":21,"wdir":150,"wspd":4,"visib":"6+","altim":1008,"clouds":[{"cover":"FEW","base":3000}],"obsTime":1782327600},"SBUL":{"icaoId":"SBUL","flightCategory":"LIFR","rawOb":"METAR SBUL 241900Z 26012KT 210V280 2500 -RA BR BKN003 BKN020 13/13 Q1021 REDZ","temp":13,"dewp":13,"wdir":260,"wspd":12,"visib":1.55,"altim":1021,"clouds":[{"cover":"BKN","base":300},{"cover":"BKN","base":2000}],"obsTime":1782327600},"SBUR":{"icaoId":"SBUR","flightCategory":"LIFR","rawOb":"METAR SBUR 241900Z COR 06001KT 3000 -RA BR BKN003 OVC070 14/14 Q1020","temp":14,"dewp":14,"wdir":60,"wspd":1,"visib":1.86,"altim":1020,"clouds":[{"cover":"BKN","base":300},{"cover":"OVC","base":7000}],"obsTime":1782327600},"SBAX":{"icaoId":"SBAX","flightCategory":"IFR","rawOb":"METAR SBAX 241900Z AUTO 24014KT 9999 -RA OVC007 ///// Q1020","temp":null,"dewp":null,"wdir":240,"wspd":14,"visib":"6+","altim":1020,"clouds":[{"cover":"OVC","base":700}],"obsTime":1782327600},"SBSM":{"icaoId":"SBSM","flightCategory":"VFR","rawOb":"METAR SBSM 241900Z 27008G18KT CAVOK 15/03 Q1018","temp":15,"dewp":3,"wdir":270,"wspd":8,"visib":"6+","altim":1018,"clouds":[],"obsTime":1782327600},"SBBH":{"icaoId":"SBBH","flightCategory":"VFR","rawOb":"METAR SBBH 241900Z 26003KT CAVOK 27/14 Q1017","temp":27,"dewp":14,"wdir":260,"wspd":3,"visib":"6+","altim":1017,"clouds":[],"obsTime":1782327600},"SBBU":{"icaoId":"SBBU","flightCategory":"LIFR","rawOb":"METAR SBBU 241900Z 23004KT 5000 BR OVC003 14/14 Q1020","temp":14,"dewp":14,"wdir":230,"wspd":4,"visib":3.11,"altim":1020,"clouds":[{"cover":"OVC","base":300}],"obsTime":1782327600},"SBCA":{"icaoId":"SBCA","flightCategory":"VFR","rawOb":"METAR SBCA 241900Z 13007KT CAVOK 12/00 Q1020","temp":12,"dewp":0,"wdir":130,"wspd":7,"visib":"6+","altim":1020,"clouds":[],"obsTime":1782327600},"SBCC":{"icaoId":"SBCC","flightCategory":"MVFR","rawOb":"METAR SBCC 241900Z 07008KT 9999 BKN025 32/16 Q1012","temp":32,"dewp":16,"wdir":70,"wspd":8,"visib":"6+","altim":1012,"clouds":[{"cover":"BKN","base":2500}],"obsTime":1782327600},"SBCJ":{"icaoId":"SBCJ","flightCategory":"VFR","rawOb":"METAR SBCJ 241900Z 18003KT 9999 FEW020 29/19 Q1015","temp":29,"dewp":19,"wdir":180,"wspd":3,"visib":"6+","altim":1015,"clouds":[{"cover":"FEW","base":2000}],"obsTime":1782327600},"SBCO":{"icaoId":"SBCO","flightCategory":"VFR","rawOb":"METAR SBCO 241900Z 28008KT 9999 FEW040 15/04 Q1018","temp":15,"dewp":4,"wdir":280,"wspd":8,"visib":"6+","altim":1018,"clouds":[{"cover":"FEW","base":4000}],"obsTime":1782327600},"SBDN":{"icaoId":"SBDN","flightCategory":"VFR","rawOb":"METAR SBDN 241900Z 22006KT 9999 FEW011 13/08 Q1019","temp":13,"dewp":8,"wdir":220,"wspd":6,"visib":"6+","altim":1019,"clouds":[{"cover":"FEW","base":1100}],"obsTime":1782327600},"SBES":{"icaoId":"SBES","flightCategory":"MVFR","rawOb":"METAR SBES 241900Z 23009KT 190V270 9000 -DZ SCT010 BKN030 OVC060 21/// Q1015","temp":null,"dewp":null,"wdir":230,"wspd":9,"visib":5.59,"altim":1015,"clouds":[{"cover":"SCT","base":1000},{"cover":"BKN","base":3000},{"cover":"OVC","base":6000}],"obsTime":1782327600},"SBIP":{"icaoId":"SBIP","flightCategory":"VFR","rawOb":"METAR SBIP 241900Z AUTO 04006KT 360V070 CAVOK 28/15 Q1015","temp":28,"dewp":15,"wdir":40,"wspd":6,"visib":"6+","altim":1015,"clouds":[],"obsTime":1782327600},"SBKG":{"icaoId":"SBKG","flightCategory":"VFR","rawOb":"METAR SBKG 241900Z 13009KT 9999 SCT030 26/19 Q1015","temp":26,"dewp":19,"wdir":130,"wspd":9,"visib":"6+","altim":1015,"clouds":[{"cover":"SCT","base":3000}],"obsTime":1782327600},"SBOI":{"icaoId":"SBOI","flightCategory":"VFR","rawOb":"METAR SBOI 241900Z AUTO 35006KT 9999 -RA NSC 29/26 Q1010","temp":29,"dewp":26,"wdir":350,"wspd":6,"visib":"6+","altim":1010,"clouds":[],"obsTime":1782327600},"SBPB":{"icaoId":"SBPB","flightCategory":"VFR","rawOb":"METAR SBPB 241900Z 08010KT 9999 SCT016 FEW025TCU 30/26 Q1009","temp":30,"dewp":26,"wdir":80,"wspd":10,"visib":"6+","altim":1009,"clouds":[{"cover":"SCT","base":1600},{"cover":"FEW","base":2500}],"obsTime":1782327600},"SBPL":{"icaoId":"SBPL","flightCategory":"VFR","rawOb":"METAR SBPL 241900Z 09007KT 9999 FEW030 32/14 Q1013","temp":32,"dewp":14,"wdir":90,"wspd":7,"visib":"6+","altim":1013,"clouds":[{"cover":"FEW","base":3000}],"obsTime":1782327600},"SBPP":{"icaoId":"SBPP","flightCategory":"VFR","rawOb":"METAR SBPP 241900Z 15008KT CAVOK 15/M00 Q1019","temp":15,"dewp":0,"wdir":150,"wspd":8,"visib":"6+","altim":1019,"clouds":[],"obsTime":1782327600},"SBPS":{"icaoId":"SBPS","flightCategory":"VFR","rawOb":"METAR SBPS 241900Z 04009KT 9999 SCT015 BKN050 24/21 Q1015","temp":24,"dewp":21,"wdir":40,"wspd":9,"visib":"6+","altim":1015,"clouds":[{"cover":"SCT","base":1500},{"cover":"BKN","base":5000}],"obsTime":1782327600},"SBSC":{"icaoId":"SBSC","flightCategory":"VFR","rawOb":"METAR SBSC 241900Z 01006KT 9000 -RA SCT010 OVC040 19/18 Q1016","temp":19,"dewp":18,"wdir":10,"wspd":6,"visib":5.59,"altim":1016,"clouds":[{"cover":"SCT","base":1000},{"cover":"OVC","base":4000}],"obsTime":1782327600},"SBSJ":{"icaoId":"SBSJ","flightCategory":"MVFR","rawOb":"METAR SBSJ 241900Z 07002KT 6000 FEW007 SCT016 BKN100 15/14 Q1018","temp":15,"dewp":14,"wdir":70,"wspd":2,"visib":3.73,"altim":1018,"clouds":[{"cover":"FEW","base":700},{"cover":"SCT","base":1600},{"cover":"BKN","base":10000}],"obsTime":1782327600},"SBAR":{"icaoId":"SBAR","flightCategory":"VFR","rawOb":"METAR SBAR 241900Z 14007KT 9999 FEW023 27/22 Q1014","temp":27,"dewp":22,"wdir":140,"wspd":7,"visib":"6+","altim":1014,"clouds":[{"cover":"FEW","base":2300}],"obsTime":1782327600},"SBSR":{"icaoId":"SBSR","flightCategory":"MVFR","rawOb":"METAR SBSR 241900Z 26010KT 9999 BKN010 OVC070 13/12 Q1020","temp":13,"dewp":12,"wdir":260,"wspd":10,"visib":"6+","altim":1020,"clouds":[{"cover":"BKN","base":1000},{"cover":"OVC","base":7000}],"obsTime":1782327600},"SBTF":{"icaoId":"SBTF","flightCategory":"VFR","rawOb":"METAR SBTF 241900Z 00000KT 9999 SCT018 31/25 Q1009 RERA","temp":31,"dewp":25,"wdir":0,"wspd":0,"visib":"6+","altim":1009,"clouds":[{"cover":"SCT","base":1800}],"obsTime":1782327600},"SBTT":{"icaoId":"SBTT","flightCategory":"VFR","rawOb":"METAR SBTT 241900Z 26004KT 9999 SCT025 SCT100 30/23 Q1010","temp":30,"dewp":23,"wdir":260,"wspd":4,"visib":"6+","altim":1010,"clouds":[{"cover":"SCT","base":2500},{"cover":"SCT","base":10000}],"obsTime":1782327600},"SBTU":{"icaoId":"SBTU","flightCategory":"VFR","rawOb":"METAR SBTU 241900Z AUTO 36005KT 320V040 9999 // NCD 31/23 Q1011","temp":31,"dewp":23,"wdir":360,"wspd":5,"visib":"6+","altim":1011,"clouds":[],"obsTime":1782327600},"SBUY":{"icaoId":"SBUY","flightCategory":"VFR","rawOb":"METAR SBUY 241900Z 29002KT 9999 SCT030 BKN100 30/25 Q1008","temp":30,"dewp":25,"wdir":290,"wspd":2,"visib":"6+","altim":1008,"clouds":[{"cover":"SCT","base":3000},{"cover":"BKN","base":10000}],"obsTime":1782327600},"SBVH":{"icaoId":"SBVH","flightCategory":"IFR","rawOb":"METAR SBVH 241900Z 16008KT 140V200 9999 OVC006 18/16 Q1016","temp":18,"dewp":16,"wdir":160,"wspd":8,"visib":"6+","altim":1016,"clouds":[{"cover":"OVC","base":600}],"obsTime":1782327600},"SBBQ":{"icaoId":"SBBQ","flightCategory":"VFR","rawOb":"METAR SBBQ 241900Z 31006KT 9999 BKN040 22/15 Q1020","temp":22,"dewp":15,"wdir":310,"wspd":6,"visib":"6+","altim":1020,"clouds":[{"cover":"BKN","base":4000}],"obsTime":1782327600},"SBGM":{"icaoId":"SBGM","flightCategory":"MVFR","rawOb":"METAR SBGM 241900Z 15011KT 9999 SCT007 OVC013 18/15 Q1014","temp":18,"dewp":15,"wdir":150,"wspd":11,"visib":"6+","altim":1014,"clouds":[{"cover":"SCT","base":700},{"cover":"OVC","base":1300}],"obsTime":1782327600},"SBAF":{"icaoId":"SBAF","flightCategory":"IFR","rawOb":" SBAF 241900Z 24006KT 4000 -RA BR SCT012 BKN023 OVC030 19/19 Q1017","temp":19,"dewp":19,"wdir":240,"wspd":6,"visib":2.49,"altim":1017,"clouds":[{"cover":"SCT","base":1200},{"cover":"BKN","base":2300},{"cover":"OVC","base":3000}],"obsTime":1782327600},"SBJP":{"icaoId":"SBJP","flightCategory":"VFR","rawOb":"METAR SBJP 241900Z 13010KT 9999 SCT030 28/21 Q1013","temp":28,"dewp":21,"wdir":130,"wspd":10,"visib":"6+","altim":1013,"clouds":[{"cover":"SCT","base":3000}],"obsTime":1782327600},"SBAN":{"icaoId":"SBAN","flightCategory":"VFR","rawOb":"METAR SBAN 241900Z 31004KT 9999 SCT045 26/15 Q1019","temp":26,"dewp":15,"wdir":310,"wspd":4,"visib":"6+","altim":1019,"clouds":[{"cover":"SCT","base":4500}],"obsTime":1782327600},"SBLE":{"icaoId":"SBLE","flightCategory":"VFR","rawOb":"METAR SBLE 241900Z AUTO VRB02KT CAVOK 29/17 Q1015","temp":29,"dewp":17,"wdir":"VRB","wspd":2,"visib":"6+","altim":1015,"clouds":[],"obsTime":1782327600},"SBIH":{"icaoId":"SBIH","flightCategory":"VFR","rawOb":"METAR SBIH 241900Z 15006KT 9999 FEW020 FEW025TCU 34/24 Q1008","temp":34,"dewp":24,"wdir":150,"wspd":6,"visib":"6+","altim":1008,"clouds":[{"cover":"FEW","base":2000},{"cover":"FEW","base":2500}],"obsTime":1782327600},"SBJV":{"icaoId":"SBJV","flightCategory":"VFR","rawOb":"METAR SBJV 241900Z 08004KT 9999 SCT045 14/07 Q1020","temp":14,"dewp":7,"wdir":80,"wspd":4,"visib":"6+","altim":1020,"clouds":[{"cover":"SCT","base":4500}],"obsTime":1782327600},"SBPF":{"icaoId":"SBPF","flightCategory":"VFR","rawOb":"METAR SBPF 241900Z 28007KT 9999 FEW030 10/02 Q1019","temp":10,"dewp":2,"wdir":280,"wspd":7,"visib":"6+","altim":1019,"clouds":[{"cover":"FEW","base":3000}],"obsTime":1782327600},"SBGW":{"icaoId":"SBGW","flightCategory":"IFR","rawOb":"METAR SBGW 241900Z 21003KT 3000 -RA HZ BKN007 OVC023 16/13 Q1019","temp":16,"dewp":13,"wdir":210,"wspd":3,"visib":1.86,"altim":1019,"clouds":[{"cover":"BKN","base":700},{"cover":"OVC","base":2300}],"obsTime":1782327600},"SBJR":{"icaoId":"SBJR","flightCategory":"LIFR","rawOb":"METAR SBJR 241900Z 27004KT 3000 -RA BR BKN004 OVC020 20/19 Q1017","temp":20,"dewp":19,"wdir":270,"wspd":4,"visib":1.86,"altim":1017,"clouds":[{"cover":"BKN","base":400},{"cover":"OVC","base":2000}],"obsTime":1782327600},"SBLS":{"icaoId":"SBLS","flightCategory":"VFR","rawOb":"METAR SBLS 241900Z VRB02KT 9999 FEW040 26/14 Q1017","temp":26,"dewp":14,"wdir":"VRB","wspd":2,"visib":"6+","altim":1017,"clouds":[{"cover":"FEW","base":4000}],"obsTime":1782327600},"SBMT":{"icaoId":"SBMT","flightCategory":"IFR","rawOb":"METAR SBMT 241900Z 22005KT 170V300 2500 -RA BR SCT008 OVC009 12/12 Q1020","temp":12,"dewp":12,"wdir":220,"wspd":5,"visib":1.55,"altim":1020,"clouds":[{"cover":"SCT","base":800},{"cover":"OVC","base":900}],"obsTime":1782327600},"SBST":{"icaoId":"SBST","flightCategory":"IFR","rawOb":"METAR SBST 241900Z 31005KT 4000 BR BKN011 15/13 Q1019","temp":15,"dewp":13,"wdir":310,"wspd":5,"visib":2.49,"altim":1019,"clouds":[{"cover":"BKN","base":1100}],"obsTime":1782327600},"SBTA":{"icaoId":"SBTA","flightCategory":"MVFR","rawOb":"METAR SBTA 241900Z 26004KT 5000 -RA BR SCT008 SCT018 OVC100 15/14 Q1018","temp":15,"dewp":14,"wdir":260,"wspd":4,"visib":3.11,"altim":1018,"clouds":[{"cover":"SCT","base":800},{"cover":"SCT","base":1800},{"cover":"OVC","base":10000}],"obsTime":1782327600}}}