{"updated":1777055627,"count":84,"data":{"SBPA":{"icaoId":"SBPA","flightCategory":"IFR","rawOb":"METAR SBPA 241700Z 10012KT 4000 RA BKN007 OVC030 21/20 Q1014","temp":21,"dewp":20,"wdir":100,"wspd":12,"visib":2.49,"altim":1014,"clouds":[{"cover":"BKN","base":700},{"cover":"OVC","base":3000}],"obsTime":1777050000},"SBIL":{"icaoId":"SBIL","flightCategory":"MVFR","rawOb":"METAR SBIL 241700Z 21008KT 8000 VCSH SCT018 FEW025TCU BKN070 26/25 Q1015","temp":26,"dewp":25,"wdir":210,"wspd":8,"visib":4.97,"altim":1015,"clouds":[{"cover":"SCT","base":1800},{"cover":"FEW","base":2500},{"cover":"BKN","base":7000}],"obsTime":1777050000},"SBME":{"icaoId":"SBME","flightCategory":"VFR","rawOb":"METAR SBME 241700Z 12008KT 9999 FEW040 29/21 Q1015","temp":29,"dewp":21,"wdir":120,"wspd":8,"visib":"6+","altim":1015,"clouds":[{"cover":"FEW","base":4000}],"obsTime":1777050000},"SBBV":{"icaoId":"SBBV","flightCategory":"VFR","rawOb":"METAR SBBV 241700Z 12006KT 9999 FEW035 32/22 Q1011","temp":32,"dewp":22,"wdir":120,"wspd":6,"visib":"6+","altim":1011,"clouds":[{"cover":"FEW","base":3500}],"obsTime":1777050000},"SBFI":{"icaoId":"SBFI","flightCategory":"VFR","rawOb":"METAR SBFI 241700Z 36008KT CAVOK 30/19 Q1014","temp":30,"dewp":19,"wdir":360,"wspd":8,"visib":"6+","altim":1014,"clouds":[],"obsTime":1777050000},"SBMG":{"icaoId":"SBMG","flightCategory":"VFR","rawOb":"METAR SBMG 241700Z 02006KT 330V080 9999 FEW040 30/17 Q1015","temp":30,"dewp":17,"wdir":20,"wspd":6,"visib":"6+","altim":1015,"clouds":[{"cover":"FEW","base":4000}],"obsTime":1777050000},"SBCG":{"icaoId":"SBCG","flightCategory":"VFR","rawOb":"METAR SBCG 241700Z 34008KT 290V030 CAVOK 31/17 Q1015","temp":31,"dewp":17,"wdir":340,"wspd":8,"visib":"6+","altim":1015,"clouds":[],"obsTime":1777050000},"SBMK":{"icaoId":"SBMK","flightCategory":"VFR","rawOb":"METAR SBMK 241700Z 08007KT 9999 FEW040 29/16 Q1017","temp":29,"dewp":16,"wdir":80,"wspd":7,"visib":"6+","altim":1017,"clouds":[{"cover":"FEW","base":4000}],"obsTime":1777050000},"SBMO":{"icaoId":"SBMO","flightCategory":"MVFR","rawOb":"METAR SBMO 241700Z 11008KT 9999 BKN030 30/23 Q1011","temp":30,"dewp":23,"wdir":110,"wspd":8,"visib":"6+","altim":1011,"clouds":[{"cover":"BKN","base":3000}],"obsTime":1777050000},"SBFL":{"icaoId":"SBFL","flightCategory":"VFR","rawOb":"METAR SBFL 241700Z 34011KT 9999 SCT040 28/20 Q1014","temp":28,"dewp":20,"wdir":340,"wspd":11,"visib":"6+","altim":1014,"clouds":[{"cover":"SCT","base":4000}],"obsTime":1777050000},"SBFZ":{"icaoId":"SBFZ","flightCategory":"VFR","rawOb":"METAR SBFZ 241700Z 08008KT 9999 SCT025 31/24 Q1009","temp":31,"dewp":24,"wdir":80,"wspd":8,"visib":"6+","altim":1009,"clouds":[{"cover":"SCT","base":2500}],"obsTime":1777050000},"SBMQ":{"icaoId":"SBMQ","flightCategory":"MVFR","rawOb":"METAR SBMQ 241700Z 00000KT 9999 -RA FEW011 BKN030 OVC100 27/24 Q1012","temp":27,"dewp":24,"wdir":0,"wspd":0,"visib":"6+","altim":1012,"clouds":[{"cover":"FEW","base":1100},{"cover":"BKN","base":3000},{"cover":"OVC","base":10000}],"obsTime":1777050000},"SBBE":{"icaoId":"SBBE","flightCategory":"MVFR","rawOb":"METAR SBBE 241700Z 33007KT 9999 FEW009 BKN015 BKN020 FEW025TCU 25/24 Q1011","temp":25,"dewp":24,"wdir":330,"wspd":7,"visib":"6+","altim":1011,"clouds":[{"cover":"FEW","base":900},{"cover":"BKN","base":1500},{"cover":"BKN","base":2000},{"cover":"FEW","base":2500}],"obsTime":1777050000},"SBNT":{"icaoId":"SBNT","flightCategory":"IFR","rawOb":"METAR SBNT 241700Z 19011KT 3000 RA BR BKN008 BKN011 OVC023 22/22 Q1011","temp":22,"dewp":22,"wdir":190,"wspd":11,"visib":1.86,"altim":1011,"clouds":[{"cover":"BKN","base":800},{"cover":"BKN","base":1100},{"cover":"OVC","base":2300}],"obsTime":1777050000},"SBCP":{"icaoId":"SBCP","flightCategory":"VFR","rawOb":"METAR SBCP 241700Z 11009KT 9999 FEW020 31/17 Q1016","temp":31,"dewp":17,"wdir":110,"wspd":9,"visib":"6+","altim":1016,"clouds":[{"cover":"FEW","base":2000}],"obsTime":1777050000},"SBPJ":{"icaoId":"SBPJ","flightCategory":"VFR","rawOb":"METAR SBPJ 241700Z 09008KT 9999 VCSH FEW032TCU SCT033 30/24 Q1012","temp":30,"dewp":24,"wdir":90,"wspd":8,"visib":"6+","altim":1012,"clouds":[{"cover":"FEW","base":3200},{"cover":"SCT","base":3300}],"obsTime":1777050000},"SBGL":{"icaoId":"SBGL","flightCategory":"VFR","rawOb":"METAR SBGL 241700Z 12010KT 090V150 9999 FEW030 29/20 Q1015","temp":29,"dewp":20,"wdir":120,"wspd":10,"visib":"6+","altim":1015,"clouds":[{"cover":"FEW","base":3000}],"obsTime":1777050000},"SBPV":{"icaoId":"SBPV","flightCategory":"MVFR","rawOb":"METAR SBPV 241700Z 04004KT 270V080 9999 VCSH BKN025 FEW030TCU 30/27 Q1011","temp":30,"dewp":27,"wdir":40,"wspd":4,"visib":"6+","altim":1011,"clouds":[{"cover":"BKN","base":2500},{"cover":"FEW","base":3000}],"obsTime":1777050000},"SBCR":{"icaoId":"SBCR","flightCategory":"VFR","rawOb":"METAR SBCR 241700Z 33004KT 280V010 CAVOK 32/20 Q1012","temp":32,"dewp":20,"wdir":330,"wspd":4,"visib":"6+","altim":1012,"clouds":[],"obsTime":1777050000},"SBRB":{"icaoId":"SBRB","flightCategory":"MVFR","rawOb":"METAR SBRB 241700Z 06010KT 020V100 9999 SCT007 BKN020 BKN100 30/24 Q1012","temp":30,"dewp":24,"wdir":60,"wspd":10,"visib":"6+","altim":1012,"clouds":[{"cover":"SCT","base":700},{"cover":"BKN","base":2000},{"cover":"BKN","base":10000}],"obsTime":1777050000},"SBGO":{"icaoId":"SBGO","flightCategory":"VFR","rawOb":"METAR SBGO 241700Z 10007KT 040V150 CAVOK 31/15 Q1016","temp":31,"dewp":15,"wdir":100,"wspd":7,"visib":"6+","altim":1016,"clouds":[],"obsTime":1777050000},"SBBR":{"icaoId":"SBBR","flightCategory":"VFR","rawOb":"METAR SBBR 241700Z 05004KT 340V150 9999 SCT045 28/14 Q1019","temp":28,"dewp":14,"wdir":50,"wspd":4,"visib":"6+","altim":1019,"clouds":[{"cover":"SCT","base":4500}],"obsTime":1777050000},"SBRF":{"icaoId":"SBRF","flightCategory":"VFR","rawOb":"METAR SBRF 241700Z 15010KT 9999 FEW025 29/23 Q1010","temp":29,"dewp":23,"wdir":150,"wspd":10,"visib":"6+","altim":1010,"clouds":[{"cover":"FEW","base":2500}],"obsTime":1777050000},"SBGR":{"icaoId":"SBGR","flightCategory":"VFR","rawOb":"METAR SBGR 241700Z 31003KT 9999 SCT043 SCT050 28/15 Q1018","temp":28,"dewp":15,"wdir":310,"wspd":3,"visib":"6+","altim":1018,"clouds":[{"cover":"SCT","base":4300},{"cover":"SCT","base":5000}],"obsTime":1777050000},"SBSG":{"icaoId":"SBSG","flightCategory":"LIFR","rawOb":"METAR SBSG 241700Z 17008KT 120V190 1500 R30///// R12/2000D -RA BR BKN004 BKN007 23/23 Q1012","temp":23,"dewp":23,"wdir":170,"wspd":8,"visib":0.93,"altim":1012,"clouds":[{"cover":"BKN","base":400},{"cover":"BKN","base":700}],"obsTime":1777050000},"SBSL":{"icaoId":"SBSL","flightCategory":"MVFR","rawOb":"METAR SBSL 241700Z 01007KT 9999 FEW011 BKN025 FEW030TCU 28/25 Q1009","temp":28,"dewp":25,"wdir":10,"wspd":7,"visib":"6+","altim":1009,"clouds":[{"cover":"FEW","base":1100},{"cover":"BKN","base":2500},{"cover":"FEW","base":3000}],"obsTime":1777050000},"SBHT":{"icaoId":"SBHT","flightCategory":"MVFR","rawOb":"METAR SBHT 241700Z 09004KT 9999 BKN020 BKN090 28/23 Q1012","temp":28,"dewp":23,"wdir":90,"wspd":4,"visib":"6+","altim":1012,"clouds":[{"cover":"BKN","base":2000},{"cover":"BKN","base":9000}],"obsTime":1777050000},"SBCT":{"icaoId":"SBCT","flightCategory":"VFR","rawOb":"METAR SBCT 241700Z VRB06KT 9999 SCT035 25/16 Q1019","temp":25,"dewp":16,"wdir":"VRB","wspd":6,"visib":"6+","altim":1019,"clouds":[{"cover":"SCT","base":3500}],"obsTime":1777050000},"SBSN":{"icaoId":"SBSN","flightCategory":"VFR","rawOb":"METAR SBSN 241700Z 09012KT 9999 SCT018 29/24 Q1011","temp":29,"dewp":24,"wdir":90,"wspd":12,"visib":"6+","altim":1011,"clouds":[{"cover":"SCT","base":1800}],"obsTime":1777050000},"SBSP":{"icaoId":"SBSP","flightCategory":"VFR","rawOb":"METAR SBSP 241700Z VRB02KT 9999 BKN040 26/13 Q1019","temp":26,"dewp":13,"wdir":"VRB","wspd":2,"visib":"6+","altim":1019,"clouds":[{"cover":"BKN","base":4000}],"obsTime":1777050000},"SBAT":{"icaoId":"SBAT","flightCategory":"VFR","rawOb":"METAR SBAT 241700Z 12003KT 9999 SCT025 32/25 Q1012","temp":32,"dewp":25,"wdir":120,"wspd":3,"visib":"6+","altim":1012,"clouds":[{"cover":"SCT","base":2500}],"obsTime":1777050000},"SBEG":{"icaoId":"SBEG","flightCategory":"VFR","rawOb":"METAR SBEG 241700Z VRB02KT 9999 VCSH SCT020 FEW025TCU SCT100 30/24 Q1011","temp":30,"dewp":24,"wdir":"VRB","wspd":2,"visib":"6+","altim":1011,"clouds":[{"cover":"SCT","base":2000},{"cover":"FEW","base":2500},{"cover":"SCT","base":10000}],"obsTime":1777050000},"SBMA":{"icaoId":"SBMA","flightCategory":"VFR","rawOb":"METAR SBMA 241700Z 36002KT 9999 SCT020 FEW023TCU BKN100 30/25 Q1011","temp":30,"dewp":25,"wdir":360,"wspd":2,"visib":"6+","altim":1011,"clouds":[{"cover":"SCT","base":2000},{"cover":"FEW","base":2300},{"cover":"BKN","base":10000}],"obsTime":1777050000},"SBSV":{"icaoId":"SBSV","flightCategory":"MVFR","rawOb":"METAR SBSV 241700Z 12009KT 090V160 5000 -SHRA BR BKN023 FEW025TCU OVC040 26/24 Q1013","temp":26,"dewp":24,"wdir":120,"wspd":9,"visib":3.11,"altim":1013,"clouds":[{"cover":"BKN","base":2300},{"cover":"FEW","base":2500},{"cover":"OVC","base":4000}],"obsTime":1777050000},"SBCB":{"icaoId":"SBCB","flightCategory":"VFR","rawOb":"METAR SBCB 241700Z 09010KT CAVOK 27/21 Q1016","temp":27,"dewp":21,"wdir":90,"wspd":10,"visib":"6+","altim":1016,"clouds":[],"obsTime":1777050000},"SBTE":{"icaoId":"SBTE","flightCategory":"MVFR","rawOb":"METAR SBTE 241700Z 16004KT 9999 BKN025 33/22 Q1009","temp":33,"dewp":22,"wdir":160,"wspd":4,"visib":"6+","altim":1009,"clouds":[{"cover":"BKN","base":2500}],"obsTime":1777050000},"SBUL":{"icaoId":"SBUL","flightCategory":"VFR","rawOb":"METAR SBUL 241700Z 10007KT 9999 SCT040 BKN080 26/15 Q1019","temp":26,"dewp":15,"wdir":100,"wspd":7,"visib":"6+","altim":1019,"clouds":[{"cover":"SCT","base":4000},{"cover":"BKN","base":8000}],"obsTime":1777050000},"SBJU":{"icaoId":"SBJU","flightCategory":"VFR","rawOb":"METAR SBJU 241700Z 11003KT 9999 SCT022 30/22 Q1012","temp":30,"dewp":22,"wdir":110,"wspd":3,"visib":"6+","altim":1012,"clouds":[{"cover":"SCT","base":2200}],"obsTime":1777050000},"SBCF":{"icaoId":"SBCF","flightCategory":"VFR","rawOb":"METAR SBCF 241700Z 11007KT 070V150 9999 BKN040 26/16 Q1019","temp":26,"dewp":16,"wdir":110,"wspd":7,"visib":"6+","altim":1019,"clouds":[{"cover":"BKN","base":4000}],"obsTime":1777050000},"SBUR":{"icaoId":"SBUR","flightCategory":"VFR","rawOb":"METAR SBUR 241700Z 07008KT 9999 FEW045 SCT080 28/13 Q1018","temp":28,"dewp":13,"wdir":70,"wspd":8,"visib":"6+","altim":1018,"clouds":[{"cover":"FEW","base":4500},{"cover":"SCT","base":8000}],"obsTime":1777050000},"SBVT":{"icaoId":"SBVT","flightCategory":"VFR","rawOb":"METAR SBVT 241700Z 15010KT 9999 FEW035 27/21 Q1016","temp":27,"dewp":21,"wdir":150,"wspd":10,"visib":"6+","altim":1016,"clouds":[{"cover":"FEW","base":3500}],"obsTime":1777050000},"SBCZ":{"icaoId":"SBCZ","flightCategory":"VFR","rawOb":"METAR SBCZ 241700Z 15004KT 9999 FEW008 SCT020 OVC100 26/23 Q1013","temp":26,"dewp":23,"wdir":150,"wspd":4,"visib":"6+","altim":1013,"clouds":[{"cover":"FEW","base":800},{"cover":"SCT","base":2000},{"cover":"OVC","base":10000}],"obsTime":1777050000},"SBKP":{"icaoId":"SBKP","flightCategory":"VFR","rawOb":"METAR SBKP 241700Z 34005KT 240V030 9999 FEW045 SCT060 29/16 Q1017","temp":29,"dewp":16,"wdir":340,"wspd":5,"visib":"6+","altim":1017,"clouds":[{"cover":"FEW","base":4500},{"cover":"SCT","base":6000}],"obsTime":1777050000},"SBLO":{"icaoId":"SBLO","flightCategory":"VFR","rawOb":"METAR SBLO 241700Z 12004KT 050V200 CAVOK 28/18 Q1016","temp":28,"dewp":18,"wdir":120,"wspd":4,"visib":"6+","altim":1016,"clouds":[],"obsTime":1777050000},"SBCC":{"icaoId":"SBCC","flightCategory":"MVFR","rawOb":"METAR SBCC 241700Z 06010KT 9999 BKN030 31/21 Q1013","temp":31,"dewp":21,"wdir":60,"wspd":10,"visib":"6+","altim":1013,"clouds":[{"cover":"BKN","base":3000}],"obsTime":1777050000},"SBKG":{"icaoId":"SBKG","flightCategory":"VFR","rawOb":"METAR SBKG 241700Z 12012KT 060V160 9999 FEW023 BKN100 25/22 Q1013","temp":25,"dewp":22,"wdir":120,"wspd":12,"visib":"6+","altim":1013,"clouds":[{"cover":"FEW","base":2300},{"cover":"BKN","base":10000}],"obsTime":1777050000},"SBOI":{"icaoId":"SBOI","flightCategory":"MVFR","rawOb":"METAR SBOI 241700Z AUTO 06005KT 030V100 9999 BKN012 25/23 Q1012","temp":25,"dewp":23,"wdir":60,"wspd":5,"visib":"6+","altim":1012,"clouds":[{"cover":"BKN","base":1200}],"obsTime":1777050000},"SBAR":{"icaoId":"SBAR","flightCategory":"VFR","rawOb":"METAR SBAR 241700Z 12010KT 9999 VCSH SCT025 FEW027TCU 30/23 Q1011","temp":30,"dewp":23,"wdir":120,"wspd":10,"visib":"6+","altim":1011,"clouds":[{"cover":"SCT","base":2500},{"cover":"FEW","base":2700}],"obsTime":1777050000},"SBPB":{"icaoId":"SBPB","flightCategory":"VFR","rawOb":"METAR SBPB 241700Z 06013KT 9999 FEW020 SCT100 31/25 Q1008","temp":31,"dewp":25,"wdir":60,"wspd":13,"visib":"6+","altim":1008,"clouds":[{"cover":"FEW","base":2000},{"cover":"SCT","base":10000}],"obsTime":1777050000},"SBAX":{"icaoId":"SBAX","flightCategory":"VFR","rawOb":"METAR SBAX 241700Z AUTO VRB04KT 9999 FEW047 26/13 Q1019","temp":26,"dewp":13,"wdir":"VRB","wspd":4,"visib":"6+","altim":1019,"clouds":[{"cover":"FEW","base":4700}],"obsTime":1777050000},"SBPL":{"icaoId":"SBPL","flightCategory":"VFR","rawOb":"METAR SBPL 241700Z 16005KT 9999 FEW025 32/18 Q1012","temp":32,"dewp":18,"wdir":160,"wspd":5,"visib":"6+","altim":1012,"clouds":[{"cover":"FEW","base":2500}],"obsTime":1777050000},"SBCJ":{"icaoId":"SBCJ","flightCategory":"VFR","rawOb":"METAR SBCJ 241700Z 13002KT 9999 FEW003 SCT018 26/22 Q1015","temp":26,"dewp":22,"wdir":130,"wspd":2,"visib":"6+","altim":1015,"clouds":[{"cover":"FEW","base":300},{"cover":"SCT","base":1800}],"obsTime":1777050000},"SBCO":{"icaoId":"SBCO","flightCategory":"IFR","rawOb":"METAR SBCO 241700Z 10012KT 3000 RA BKN010 BKN025 OVC070 20/20 Q1014","temp":20,"dewp":20,"wdir":100,"wspd":12,"visib":1.86,"altim":1014,"clouds":[{"cover":"BKN","base":1000},{"cover":"BKN","base":2500},{"cover":"OVC","base":7000}],"obsTime":1777050000},"SBPP":{"icaoId":"SBPP","flightCategory":"VFR","rawOb":"METAR SBPP 241700Z 32006KT CAVOK 28/15 Q1016","temp":28,"dewp":15,"wdir":320,"wspd":6,"visib":"6+","altim":1016,"clouds":[],"obsTime":1777050000},"SBPS":{"icaoId":"SBPS","flightCategory":"MVFR","rawOb":"METAR SBPS 241700Z 21002KT 8000 -RA SCT015 FEW025TCU OVC040 25/24 Q1015","temp":25,"dewp":24,"wdir":210,"wspd":2,"visib":4.97,"altim":1015,"clouds":[{"cover":"SCT","base":1500},{"cover":"FEW","base":2500},{"cover":"OVC","base":4000}],"obsTime":1777050000},"SBBQ":{"icaoId":"SBBQ","flightCategory":"VFR","rawOb":"METAR SBBQ 241700Z 02005KT 9999 BKN040 23/13 Q1022","temp":23,"dewp":13,"wdir":20,"wspd":5,"visib":"6+","altim":1022,"clouds":[{"cover":"BKN","base":4000}],"obsTime":1777050000},"SBDN":{"icaoId":"SBDN","flightCategory":"VFR","rawOb":"METAR SBDN 241700Z 36004KT 9999 FEW030 32/19 Q1015","temp":32,"dewp":19,"wdir":360,"wspd":4,"visib":"6+","altim":1015,"clouds":[{"cover":"FEW","base":3000}],"obsTime":1777050000},"SBSC":{"icaoId":"SBSC","flightCategory":"VFR","rawOb":"METAR SBSC 241700Z 17009KT 9999 FEW030 30/21 Q1015","temp":30,"dewp":21,"wdir":170,"wspd":9,"visib":"6+","altim":1015,"clouds":[{"cover":"FEW","base":3000}],"obsTime":1777050000},"SBSJ":{"icaoId":"SBSJ","flightCategory":"VFR","rawOb":"METAR SBSJ 241700Z 27003KT CAVOK 28/15 Q1018","temp":28,"dewp":15,"wdir":270,"wspd":3,"visib":"6+","altim":1018,"clouds":[],"obsTime":1777050000},"SBBU":{"icaoId":"SBBU","flightCategory":"VFR","rawOb":"METAR SBBU 241700Z 02010KT 9999 FEW035 30/19 Q1016","temp":30,"dewp":19,"wdir":20,"wspd":10,"visib":"6+","altim":1016,"clouds":[{"cover":"FEW","base":3500}],"obsTime":1777050000},"SBSM":{"icaoId":"SBSM","flightCategory":"IFR","rawOb":"METAR SBSM 241700Z 11006KT 3000 RA BR BKN005 OVC100 20/19 Q1015","temp":20,"dewp":19,"wdir":110,"wspd":6,"visib":1.86,"altim":1015,"clouds":[{"cover":"BKN","base":500},{"cover":"OVC","base":10000}],"obsTime":1777050000},"SBES":{"icaoId":"SBES","flightCategory":"VFR","rawOb":"METAR SBES 241700Z 06009KT 300V090 9999 FEW020 29/// Q1016","temp":null,"dewp":null,"wdir":60,"wspd":9,"visib":"6+","altim":1016,"clouds":[{"cover":"FEW","base":2000}],"obsTime":1777050000},"SBSR":{"icaoId":"SBSR","flightCategory":"VFR","rawOb":"METAR SBSR 241700Z VRB08KT 9999 FEW030 SCT070 30/16 Q1016","temp":30,"dewp":16,"wdir":"VRB","wspd":8,"visib":"6+","altim":1016,"clouds":[{"cover":"FEW","base":3000},{"cover":"SCT","base":7000}],"obsTime":1777050000},"SBAU":{"icaoId":"SBAU","flightCategory":"VFR","rawOb":"METAR SBAU 241700Z 03010KT CAVOK 33/19 Q1014","temp":33,"dewp":19,"wdir":30,"wspd":10,"visib":"6+","altim":1014,"clouds":[],"obsTime":1777050000},"SBTF":{"icaoId":"SBTF","flightCategory":"VFR","rawOb":"METAR SBTF 241700Z 15006KT 9999 SCT020 SCT100 32/25 Q1011","temp":32,"dewp":25,"wdir":150,"wspd":6,"visib":"6+","altim":1011,"clouds":[{"cover":"SCT","base":2000},{"cover":"SCT","base":10000}],"obsTime":1777050000},"SBGM":{"icaoId":"SBGM","flightCategory":"VFR","rawOb":"METAR SBGM 241700Z 35009KT 9999 FEW033 SCT036 33/17 Q1011","temp":33,"dewp":17,"wdir":350,"wspd":9,"visib":"6+","altim":1011,"clouds":[{"cover":"FEW","base":3300},{"cover":"SCT","base":3600}],"obsTime":1777050000},"SBTT":{"icaoId":"SBTT","flightCategory":"VFR","rawOb":"METAR SBTT 241700Z 00000KT 9999 FEW015 BKN100 26/21 Q1013","temp":26,"dewp":21,"wdir":0,"wspd":0,"visib":"6+","altim":1013,"clouds":[{"cover":"FEW","base":1500},{"cover":"BKN","base":10000}],"obsTime":1777050000},"SBCA":{"icaoId":"SBCA","flightCategory":"VFR","rawOb":"METAR SBCA 241700Z 35008KT 320V040 CAVOK 27/15 Q1017","temp":27,"dewp":15,"wdir":350,"wspd":8,"visib":"6+","altim":1017,"clouds":[],"obsTime":1777050000},"SBUY":{"icaoId":"SBUY","flightCategory":"IFR","rawOb":"METAR SBUY 241700Z 12002KT 5000 -RA BKN007 OVC090 24/23 Q1011","temp":24,"dewp":23,"wdir":120,"wspd":2,"visib":3.11,"altim":1011,"clouds":[{"cover":"BKN","base":700},{"cover":"OVC","base":9000}],"obsTime":1777050000},"SBIP":{"icaoId":"SBIP","flightCategory":"VFR","rawOb":"METAR SBIP 241700Z AUTO 03005KT 310V070 9999 FEW046 29/17 Q1016","temp":29,"dewp":17,"wdir":30,"wspd":5,"visib":"6+","altim":1016,"clouds":[{"cover":"FEW","base":4600}],"obsTime":1777050000},"SBVH":{"icaoId":"SBVH","flightCategory":"VFR","rawOb":"METAR SBVH 241700Z 09007KT 9999 SCT025 29/23 Q1015","temp":29,"dewp":23,"wdir":90,"wspd":7,"visib":"6+","altim":1015,"clouds":[{"cover":"SCT","base":2500}],"obsTime":1777050000},"SBBH":{"icaoId":"SBBH","flightCategory":"VFR","rawOb":"METAR SBBH 241700Z 07006KT 9999 SCT045 BKN060 27/16 Q1019","temp":27,"dewp":16,"wdir":70,"wspd":6,"visib":"6+","altim":1019,"clouds":[{"cover":"SCT","base":4500},{"cover":"BKN","base":6000}],"obsTime":1777050000},"SBLE":{"icaoId":"SBLE","flightCategory":"VFR","rawOb":"METAR SBLE 241700Z AUTO 15005KT 110V210 9999 SCT025 SCT047 28/23 Q1015","temp":28,"dewp":23,"wdir":150,"wspd":5,"visib":"6+","altim":1015,"clouds":[{"cover":"SCT","base":2500},{"cover":"SCT","base":4700}],"obsTime":1777050000},"SBIH":{"icaoId":"SBIH","flightCategory":"VFR","rawOb":"METAR SBIH 241700Z 28002KT 9999 SCT018 28/24 Q1012","temp":28,"dewp":24,"wdir":280,"wspd":2,"visib":"6+","altim":1012,"clouds":[{"cover":"SCT","base":1800}],"obsTime":1777050000},"SBAF":{"icaoId":"SBAF","flightCategory":"VFR","rawOb":"METAR SBAF 241700Z 18005KT 120V240 9999 FEW040 30/20 Q1015","temp":30,"dewp":20,"wdir":180,"wspd":5,"visib":"6+","altim":1015,"clouds":[{"cover":"FEW","base":4000}],"obsTime":1777050000},"SBGW":{"icaoId":"SBGW","flightCategory":"VFR","rawOb":"METAR SBGW 241700Z VRB03KT 9999 FEW030 29/14 Q1017","temp":29,"dewp":14,"wdir":"VRB","wspd":3,"visib":"6+","altim":1017,"clouds":[{"cover":"FEW","base":3000}],"obsTime":1777050000},"SBJP":{"icaoId":"SBJP","flightCategory":"VFR","rawOb":"METAR SBJP 241700Z 13009KT 9999 SCT020 OVC093 28/23 Q1011","temp":28,"dewp":23,"wdir":130,"wspd":9,"visib":"6+","altim":1011,"clouds":[{"cover":"SCT","base":2000},{"cover":"OVC","base":9300}],"obsTime":1777050000},"SBJV":{"icaoId":"SBJV","flightCategory":"MVFR","rawOb":"METAR SBJV 241700Z 04005KT 310V080 9999 BKN030 28/20 Q1014","temp":28,"dewp":20,"wdir":40,"wspd":5,"visib":"6+","altim":1014,"clouds":[{"cover":"BKN","base":3000}],"obsTime":1777050000},"SBJR":{"icaoId":"SBJR","flightCategory":"VFR","rawOb":"METAR SBJR 241700Z 13008KT 9999 FEW030 30/20 Q1015","temp":30,"dewp":20,"wdir":130,"wspd":8,"visib":"6+","altim":1015,"clouds":[{"cover":"FEW","base":3000}],"obsTime":1777050000},"SBLS":{"icaoId":"SBLS","flightCategory":"VFR","rawOb":"METAR SBLS 241700Z 14005KT 060V150 9999 BKN045 25/15 Q1019","temp":25,"dewp":15,"wdir":140,"wspd":5,"visib":"6+","altim":1019,"clouds":[{"cover":"BKN","base":4500}],"obsTime":1777050000},"SBMT":{"icaoId":"SBMT","flightCategory":"VFR","rawOb":"METAR SBMT 241700Z 00000KT 9999 BKN045 26/14 Q1018","temp":26,"dewp":14,"wdir":0,"wspd":0,"visib":"6+","altim":1018,"clouds":[{"cover":"BKN","base":4500}],"obsTime":1777050000},"SBST":{"icaoId":"SBST","flightCategory":"VFR","rawOb":"METAR SBST 241700Z 17008KT 130V210 9999 FEW035 27/20 Q1015","temp":27,"dewp":20,"wdir":170,"wspd":8,"visib":"6+","altim":1015,"clouds":[{"cover":"FEW","base":3500}],"obsTime":1777050000},"SBTA":{"icaoId":"SBTA","flightCategory":"VFR","rawOb":"METAR SBTA 241700Z 06005KT 010V100 9999 FEW035 27/15 Q1017","temp":27,"dewp":15,"wdir":60,"wspd":5,"visib":"6+","altim":1017,"clouds":[{"cover":"FEW","base":3500}],"obsTime":1777050000},"SBAN":{"icaoId":"SBAN","flightCategory":"VFR","rawOb":"METAR SBAN 241700Z 17007KT 140V200 9999 SCT030 27/13 Q1020","temp":27,"dewp":13,"wdir":170,"wspd":7,"visib":"6+","altim":1020,"clouds":[{"cover":"SCT","base":3000}],"obsTime":1777050000}}}