{"updated":1779398385,"count":83,"data":{"SBBR":{"icaoId":"SBBR","flightCategory":"VFR","rawOb":"METAR SBBR 212000Z 13010KT 100V190 9999 SCT045 26/16 Q1020","temp":26,"dewp":16,"wdir":130,"wspd":10,"visib":"6+","altim":1020,"clouds":[{"cover":"SCT","base":4500}],"obsTime":1779393600},"SBLO":{"icaoId":"SBLO","flightCategory":"VFR","rawOb":"METAR SBLO 212000Z 06002KT 9999 FEW030 20/15 Q1021","temp":20,"dewp":15,"wdir":60,"wspd":2,"visib":"6+","altim":1021,"clouds":[{"cover":"FEW","base":3000}],"obsTime":1779393600},"SBEG":{"icaoId":"SBEG","flightCategory":"IFR","rawOb":"METAR SBEG 212000Z 20003KT 120V230 9999 BKN008 BKN025 FEW030TCU BKN100 25/24 Q1012","temp":25,"dewp":24,"wdir":200,"wspd":3,"visib":"6+","altim":1012,"clouds":[{"cover":"BKN","base":800},{"cover":"BKN","base":2500},{"cover":"FEW","base":3000},{"cover":"BKN","base":10000}],"obsTime":1779393600},"SBMA":{"icaoId":"SBMA","flightCategory":"VFR","rawOb":"METAR SBMA 212000Z 04006KT 9999 FEW020 FEW025TCU 33/23 Q1010","temp":33,"dewp":23,"wdir":40,"wspd":6,"visib":"6+","altim":1010,"clouds":[{"cover":"FEW","base":2000},{"cover":"FEW","base":2500}],"obsTime":1779393600},"SBCG":{"icaoId":"SBCG","flightCategory":"VFR","rawOb":"METAR SBCG 212000Z 17005KT CAVOK 22/13 Q1019","temp":22,"dewp":13,"wdir":170,"wspd":5,"visib":"6+","altim":1019,"clouds":[],"obsTime":1779393600},"SBME":{"icaoId":"SBME","flightCategory":"MVFR","rawOb":"METAR SBME 212000Z 25008KT 5000 -RA BKN010 OVC070 20/18 Q1022","temp":20,"dewp":18,"wdir":250,"wspd":8,"visib":3.11,"altim":1022,"clouds":[{"cover":"BKN","base":1000},{"cover":"OVC","base":7000}],"obsTime":1779393600},"SBMG":{"icaoId":"SBMG","flightCategory":"VFR","rawOb":"METAR SBMG 212000Z 10006KT 9999 FEW030 21/14 Q1020","temp":21,"dewp":14,"wdir":100,"wspd":6,"visib":"6+","altim":1020,"clouds":[{"cover":"FEW","base":3000}],"obsTime":1779393600},"SBFI":{"icaoId":"SBFI","flightCategory":"VFR","rawOb":"METAR SBFI 212000Z 20006KT CAVOK 20/11 Q1021","temp":20,"dewp":11,"wdir":200,"wspd":6,"visib":"6+","altim":1021,"clouds":[],"obsTime":1779393600},"SBMK":{"icaoId":"SBMK","flightCategory":"VFR","rawOb":"METAR SBMK 212000Z 10012KT CAVOK 27/16 Q1019","temp":27,"dewp":16,"wdir":100,"wspd":12,"visib":"6+","altim":1019,"clouds":[],"obsTime":1779393600},"SBFL":{"icaoId":"SBFL","flightCategory":"VFR","rawOb":"METAR SBFL 212000Z 14008KT 9999 FEW030 17/10 Q1024","temp":17,"dewp":10,"wdir":140,"wspd":8,"visib":"6+","altim":1024,"clouds":[{"cover":"FEW","base":3000}],"obsTime":1779393600},"SBBV":{"icaoId":"SBBV","flightCategory":"VFR","rawOb":"METAR SBBV 212000Z 24002KT 9999 VCSH SCT030 FEW035TCU 31/23 Q1010","temp":31,"dewp":23,"wdir":240,"wspd":2,"visib":"6+","altim":1010,"clouds":[{"cover":"SCT","base":3000},{"cover":"FEW","base":3500}],"obsTime":1779393600},"SBMO":{"icaoId":"SBMO","flightCategory":"VFR","rawOb":"METAR SBMO 212000Z 12009KT 9999 FEW035 27/22 Q1014","temp":27,"dewp":22,"wdir":120,"wspd":9,"visib":"6+","altim":1014,"clouds":[{"cover":"FEW","base":3500}],"obsTime":1779393600},"SBMQ":{"icaoId":"SBMQ","flightCategory":"VFR","rawOb":"METAR SBMQ 212000Z 06011KT 9999 FEW023 31/25 Q1010","temp":31,"dewp":25,"wdir":60,"wspd":11,"visib":"6+","altim":1010,"clouds":[{"cover":"FEW","base":2300}],"obsTime":1779393600},"SBBE":{"icaoId":"SBBE","flightCategory":"VFR","rawOb":"METAR SBBE 212000Z 01012KT 9999 SCT040 FEW041TCU 27/24 Q1010","temp":27,"dewp":24,"wdir":10,"wspd":12,"visib":"6+","altim":1010,"clouds":[{"cover":"SCT","base":4000},{"cover":"FEW","base":4100}],"obsTime":1779393600},"SBFZ":{"icaoId":"SBFZ","flightCategory":"VFR","rawOb":"METAR SBFZ 212000Z 10013KT 9999 FEW023 BKN070 29/23 Q1012","temp":29,"dewp":23,"wdir":100,"wspd":13,"visib":"6+","altim":1012,"clouds":[{"cover":"FEW","base":2300},{"cover":"BKN","base":7000}],"obsTime":1779393600},"SBNT":{"icaoId":"SBNT","flightCategory":"VFR","rawOb":"METAR SBNT 212000Z 13011KT 9999 FEW021 SCT046 BKN070 28/22 Q1013","temp":28,"dewp":22,"wdir":130,"wspd":11,"visib":"6+","altim":1013,"clouds":[{"cover":"FEW","base":2100},{"cover":"SCT","base":4600},{"cover":"BKN","base":7000}],"obsTime":1779393600},"SBCP":{"icaoId":"SBCP","flightCategory":"VFR","rawOb":"METAR SBCP 212000Z COR 21009KT 9999 SCT015 OVC080 23/19 Q1021","temp":23,"dewp":19,"wdir":210,"wspd":9,"visib":"6+","altim":1021,"clouds":[{"cover":"SCT","base":1500},{"cover":"OVC","base":8000}],"obsTime":1779393600},"SBPA":{"icaoId":"SBPA","flightCategory":"VFR","rawOb":"METAR SBPA 212000Z 22004KT 160V280 9999 FEW045 15/05 Q1026","temp":15,"dewp":5,"wdir":220,"wspd":4,"visib":"6+","altim":1026,"clouds":[{"cover":"FEW","base":4500}],"obsTime":1779393600},"SBGL":{"icaoId":"SBGL","flightCategory":"MVFR","rawOb":"METAR SBGL 212000Z 07005KT 7000 BKN014 OVC040 19/18 Q1023","temp":19,"dewp":18,"wdir":70,"wspd":5,"visib":4.35,"altim":1023,"clouds":[{"cover":"BKN","base":1400},{"cover":"OVC","base":4000}],"obsTime":1779393600},"SBPJ":{"icaoId":"SBPJ","flightCategory":"VFR","rawOb":"METAR SBPJ 212000Z 11004KT 9999 FEW040 34/17 Q1012","temp":34,"dewp":17,"wdir":110,"wspd":4,"visib":"6+","altim":1012,"clouds":[{"cover":"FEW","base":4000}],"obsTime":1779393600},"SBCR":{"icaoId":"SBCR","flightCategory":"VFR","rawOb":"METAR SBCR 212000Z 22009KT 9999 OVC043 19/13 Q1020","temp":19,"dewp":13,"wdir":220,"wspd":9,"visib":"6+","altim":1020,"clouds":[{"cover":"OVC","base":4300}],"obsTime":1779393600},"SBPV":{"icaoId":"SBPV","flightCategory":"MVFR","rawOb":"METAR SBPV 212000Z 11006KT 9999 OVC020 26/22 Q1014","temp":26,"dewp":22,"wdir":110,"wspd":6,"visib":"6+","altim":1014,"clouds":[{"cover":"OVC","base":2000}],"obsTime":1779393600},"SBGO":{"icaoId":"SBGO","flightCategory":"VFR","rawOb":"METAR SBGO 212000Z 14009KT 9999 SCT045 29/20 Q1018","temp":29,"dewp":20,"wdir":140,"wspd":9,"visib":"6+","altim":1018,"clouds":[{"cover":"SCT","base":4500}],"obsTime":1779393600},"SBRB":{"icaoId":"SBRB","flightCategory":"MVFR","rawOb":"METAR SBRB 212000Z 14007KT 9999 BKN026 24/19 Q1016","temp":24,"dewp":19,"wdir":140,"wspd":7,"visib":"6+","altim":1016,"clouds":[{"cover":"BKN","base":2600}],"obsTime":1779393600},"SBGR":{"icaoId":"SBGR","flightCategory":"MVFR","rawOb":"METAR SBGR 212000Z 15007KT 9999 BKN013 15/12 Q1025","temp":15,"dewp":12,"wdir":150,"wspd":7,"visib":"6+","altim":1025,"clouds":[{"cover":"BKN","base":1300}],"obsTime":1779393600},"SBRF":{"icaoId":"SBRF","flightCategory":"VFR","rawOb":"METAR SBRF 212000Z 16011KT 9999 FEW025 27/21 Q1014","temp":27,"dewp":21,"wdir":160,"wspd":11,"visib":"6+","altim":1014,"clouds":[{"cover":"FEW","base":2500}],"obsTime":1779393600},"SBSG":{"icaoId":"SBSG","flightCategory":"MVFR","rawOb":"METAR SBSG 212000Z 12005KT 9999 VCSH BKN025 FEW030TCU BKN040 25/24 Q1014","temp":25,"dewp":24,"wdir":120,"wspd":5,"visib":"6+","altim":1014,"clouds":[{"cover":"BKN","base":2500},{"cover":"FEW","base":3000},{"cover":"BKN","base":4000}],"obsTime":1779393600},"SBAT":{"icaoId":"SBAT","flightCategory":"VFR","rawOb":"METAR SBAT 212000Z 20005KT 9999 SCT025 29/23 Q1013","temp":29,"dewp":23,"wdir":200,"wspd":5,"visib":"6+","altim":1013,"clouds":[{"cover":"SCT","base":2500}],"obsTime":1779393600},"SBHT":{"icaoId":"SBHT","flightCategory":"VFR","rawOb":"METAR SBHT 212000Z 00000KT 9999 FEW025 BKN100 28/25 Q1010","temp":28,"dewp":25,"wdir":0,"wspd":0,"visib":"6+","altim":1010,"clouds":[{"cover":"FEW","base":2500},{"cover":"BKN","base":10000}],"obsTime":1779393600},"SBSL":{"icaoId":"SBSL","flightCategory":"VFR","rawOb":"METAR SBSL 212000Z 06009KT 9999 SCT025 31/23 Q1011","temp":31,"dewp":23,"wdir":60,"wspd":9,"visib":"6+","altim":1011,"clouds":[{"cover":"SCT","base":2500}],"obsTime":1779393600},"SBVT":{"icaoId":"SBVT","flightCategory":"VFR","rawOb":"METAR SBVT 212000Z 19010KT 9999 FEW025 SCT052 BKN089 24/20 Q1019","temp":24,"dewp":20,"wdir":190,"wspd":10,"visib":"6+","altim":1019,"clouds":[{"cover":"FEW","base":2500},{"cover":"SCT","base":5200},{"cover":"BKN","base":8900}],"obsTime":1779393600},"SBCB":{"icaoId":"SBCB","flightCategory":"MVFR","rawOb":"METAR SBCB 212000Z 21009KT 9999 BKN015 OVC040 23/15 Q1022","temp":23,"dewp":15,"wdir":210,"wspd":9,"visib":"6+","altim":1022,"clouds":[{"cover":"BKN","base":1500},{"cover":"OVC","base":4000}],"obsTime":1779393600},"SBSN":{"icaoId":"SBSN","flightCategory":"IFR","rawOb":"SPECI SBSN 211948Z 19004KT 2000 SHRA BKN025 SCT040TCU BKN100 26/25 Q1010","temp":26,"dewp":25,"wdir":190,"wspd":4,"visib":1.24,"altim":1010,"clouds":[{"cover":"BKN","base":2500},{"cover":"SCT","base":4000},{"cover":"BKN","base":10000}],"obsTime":1779392880},"SBIL":{"icaoId":"SBIL","flightCategory":"VFR","rawOb":"METAR SBIL 212000Z 19008KT 150V240 9999 FEW023 28/22 Q1017","temp":28,"dewp":22,"wdir":190,"wspd":8,"visib":"6+","altim":1017,"clouds":[{"cover":"FEW","base":2300}],"obsTime":1779393600},"SBSP":{"icaoId":"SBSP","flightCategory":"IFR","rawOb":"METAR SBSP 212000Z 17009KT 9999 SCT005 BKN007 OVC009 14/13 Q1025","temp":14,"dewp":13,"wdir":170,"wspd":9,"visib":"6+","altim":1025,"clouds":[{"cover":"SCT","base":500},{"cover":"BKN","base":700},{"cover":"OVC","base":900}],"obsTime":1779393600},"SBSV":{"icaoId":"SBSV","flightCategory":"VFR","rawOb":"METAR SBSV 212000Z 15009KT 9999 SCT023 28/20 Q1015","temp":28,"dewp":20,"wdir":150,"wspd":9,"visib":"6+","altim":1015,"clouds":[{"cover":"SCT","base":2300}],"obsTime":1779393600},"SBCT":{"icaoId":"SBCT","flightCategory":"IFR","rawOb":"METAR SBCT 212000Z 09008KT 9999 BKN009 11/10 Q1025","temp":11,"dewp":10,"wdir":90,"wspd":8,"visib":"6+","altim":1025,"clouds":[{"cover":"BKN","base":900}],"obsTime":1779393600},"SBTE":{"icaoId":"SBTE","flightCategory":"VFR","rawOb":"METAR SBTE 212000Z 12005KT CAVOK 33/20 Q1010","temp":33,"dewp":20,"wdir":120,"wspd":5,"visib":"6+","altim":1010,"clouds":[],"obsTime":1779393600},"SBJU":{"icaoId":"SBJU","flightCategory":"VFR","rawOb":"METAR SBJU 212000Z 00000KT 9999 FEW022 31/16 Q1014","temp":31,"dewp":16,"wdir":0,"wspd":0,"visib":"6+","altim":1014,"clouds":[{"cover":"FEW","base":2200}],"obsTime":1779393600},"SBUL":{"icaoId":"SBUL","flightCategory":"VFR","rawOb":"METAR SBUL 212000Z 22009KT 9999 FEW030 25/17 Q1021","temp":25,"dewp":17,"wdir":220,"wspd":9,"visib":"6+","altim":1021,"clouds":[{"cover":"FEW","base":3000}],"obsTime":1779393600},"SBCF":{"icaoId":"SBCF","flightCategory":"VFR","rawOb":"METAR SBCF 212000Z 13010KT 9999 SCT036 24/18 Q1021","temp":24,"dewp":18,"wdir":130,"wspd":10,"visib":"6+","altim":1021,"clouds":[{"cover":"SCT","base":3600}],"obsTime":1779393600},"SBKP":{"icaoId":"SBKP","flightCategory":"VFR","rawOb":"METAR SBKP 212000Z 14015KT 9999 FEW040 18/13 Q1022","temp":18,"dewp":13,"wdir":140,"wspd":15,"visib":"6+","altim":1022,"clouds":[{"cover":"FEW","base":4000}],"obsTime":1779393600},"SBUR":{"icaoId":"SBUR","flightCategory":"VFR","rawOb":"METAR SBUR 212000Z 18006KT CAVOK 24/16 Q1020","temp":24,"dewp":16,"wdir":180,"wspd":6,"visib":"6+","altim":1020,"clouds":[],"obsTime":1779393600},"SBCZ":{"icaoId":"SBCZ","flightCategory":"MVFR","rawOb":"METAR SBCZ 212000Z 16006KT 9999 BKN022 26/21 Q1015","temp":26,"dewp":21,"wdir":160,"wspd":6,"visib":"6+","altim":1015,"clouds":[{"cover":"BKN","base":2200}],"obsTime":1779393600},"SBCJ":{"icaoId":"SBCJ","flightCategory":"VFR","rawOb":"METAR SBCJ 212000Z 11008KT 9999 FEW025 29/20 Q1015","temp":29,"dewp":20,"wdir":110,"wspd":8,"visib":"6+","altim":1015,"clouds":[{"cover":"FEW","base":2500}],"obsTime":1779393600},"SBAX":{"icaoId":"SBAX","flightCategory":"VFR","rawOb":"METAR SBAX 212000Z 29003KT 9999 FEW025 25/15 Q1021","temp":25,"dewp":15,"wdir":290,"wspd":3,"visib":"6+","altim":1021,"clouds":[{"cover":"FEW","base":2500}],"obsTime":1779393600},"SBBH":{"icaoId":"SBBH","flightCategory":"VFR","rawOb":"METAR SBBH 212000Z 10007KT 9999 FEW048 24/18 Q1021","temp":24,"dewp":18,"wdir":100,"wspd":7,"visib":"6+","altim":1021,"clouds":[{"cover":"FEW","base":4800}],"obsTime":1779393600},"SBBU":{"icaoId":"SBBU","flightCategory":"VFR","rawOb":"METAR SBBU 212000Z 11008KT 9999 FEW040 SCT100 22/16 Q1021","temp":22,"dewp":16,"wdir":110,"wspd":8,"visib":"6+","altim":1021,"clouds":[{"cover":"FEW","base":4000},{"cover":"SCT","base":10000}],"obsTime":1779393600},"SBCA":{"icaoId":"SBCA","flightCategory":"VFR","rawOb":"METAR SBCA 212000Z 16008KT CAVOK 17/07 Q1022","temp":17,"dewp":7,"wdir":160,"wspd":8,"visib":"6+","altim":1022,"clouds":[],"obsTime":1779393600},"SBAR":{"icaoId":"SBAR","flightCategory":"MVFR","rawOb":"METAR SBAR 212000Z 21007KT 150V240 9999 VCSH FEW005 BKN015 BKN030 24/23 Q1015","temp":24,"dewp":23,"wdir":210,"wspd":7,"visib":"6+","altim":1015,"clouds":[{"cover":"FEW","base":500},{"cover":"BKN","base":1500},{"cover":"BKN","base":3000}],"obsTime":1779393600},"SBCO":{"icaoId":"SBCO","flightCategory":"VFR","rawOb":"METAR SBCO 212000Z 26004KT 230V290 9999 FEW045 15/05 Q1026","temp":15,"dewp":5,"wdir":260,"wspd":4,"visib":"6+","altim":1026,"clouds":[{"cover":"FEW","base":4500}],"obsTime":1779393600},"SBDN":{"icaoId":"SBDN","flightCategory":"VFR","rawOb":"METAR SBDN 212000Z 14003KT 9999 FEW040 23/16 Q1020","temp":23,"dewp":16,"wdir":140,"wspd":3,"visib":"6+","altim":1020,"clouds":[{"cover":"FEW","base":4000}],"obsTime":1779393600},"SBES":{"icaoId":"SBES","flightCategory":"MVFR","rawOb":"METAR SBES 212000Z 22006KT 130V270 9999 VCSH FEW010 BKN020 BKN040 21/// Q1022","temp":null,"dewp":null,"wdir":220,"wspd":6,"visib":"6+","altim":1022,"clouds":[{"cover":"FEW","base":1000},{"cover":"BKN","base":2000},{"cover":"BKN","base":4000}],"obsTime":1779393600},"SBKG":{"icaoId":"SBKG","flightCategory":"VFR","rawOb":"METAR SBKG 212000Z 09006KT 9999 FEW022 BKN070 25/21 Q1016","temp":25,"dewp":21,"wdir":90,"wspd":6,"visib":"6+","altim":1016,"clouds":[{"cover":"FEW","base":2200},{"cover":"BKN","base":7000}],"obsTime":1779393600},"SBOI":{"icaoId":"SBOI","flightCategory":"VFR","rawOb":"METAR SBOI 212000Z AUTO 05004KT 020V080 9999 FEW039 SCT045 30/24 Q1011","temp":30,"dewp":24,"wdir":50,"wspd":4,"visib":"6+","altim":1011,"clouds":[{"cover":"FEW","base":3900},{"cover":"SCT","base":4500}],"obsTime":1779393600},"SBPB":{"icaoId":"SBPB","flightCategory":"VFR","rawOb":"METAR SBPB 212000Z 04011KT 9999 FEW020 BKN100 30/25 Q1011","temp":30,"dewp":25,"wdir":40,"wspd":11,"visib":"6+","altim":1011,"clouds":[{"cover":"FEW","base":2000},{"cover":"BKN","base":10000}],"obsTime":1779393600},"SBPL":{"icaoId":"SBPL","flightCategory":"VFR","rawOb":"METAR SBPL 212000Z 10010KT 9999 FEW030 31/17 Q1014","temp":31,"dewp":17,"wdir":100,"wspd":10,"visib":"6+","altim":1014,"clouds":[{"cover":"FEW","base":3000}],"obsTime":1779393600},"SBPP":{"icaoId":"SBPP","flightCategory":"VFR","rawOb":"METAR SBPP 212000Z 19007KT CAVOK 18/06 Q1021","temp":18,"dewp":6,"wdir":190,"wspd":7,"visib":"6+","altim":1021,"clouds":[],"obsTime":1779393600},"SBPS":{"icaoId":"SBPS","flightCategory":"VFR","rawOb":"METAR SBPS 212000Z 15003KT 9999 SCT020 26/22 Q1017","temp":26,"dewp":22,"wdir":150,"wspd":3,"visib":"6+","altim":1017,"clouds":[{"cover":"SCT","base":2000}],"obsTime":1779393600},"SBSC":{"icaoId":"SBSC","flightCategory":"MVFR","rawOb":"METAR SBSC 212000Z COR 25003KT 8000 SCT015 BKN035 OVC050 19/18 Q1023","temp":19,"dewp":18,"wdir":250,"wspd":3,"visib":4.97,"altim":1023,"clouds":[{"cover":"SCT","base":1500},{"cover":"BKN","base":3500},{"cover":"OVC","base":5000}],"obsTime":1779393600},"SBSJ":{"icaoId":"SBSJ","flightCategory":"VFR","rawOb":"METAR SBSJ 212000Z 13009KT 9999 BKN040 17/13 Q1024","temp":17,"dewp":13,"wdir":130,"wspd":9,"visib":"6+","altim":1024,"clouds":[{"cover":"BKN","base":4000}],"obsTime":1779393600},"SBSM":{"icaoId":"SBSM","flightCategory":"VFR","rawOb":"METAR SBSM 212000Z 12003KT 090V150 9999 SCT040 13/07 Q1026","temp":13,"dewp":7,"wdir":120,"wspd":3,"visib":"6+","altim":1026,"clouds":[{"cover":"SCT","base":4000}],"obsTime":1779393600},"SBSR":{"icaoId":"SBSR","flightCategory":"VFR","rawOb":"METAR SBSR 212000Z 18005KT 9999 FEW030 SCT070 24/16 Q1020","temp":24,"dewp":16,"wdir":180,"wspd":5,"visib":"6+","altim":1020,"clouds":[{"cover":"FEW","base":3000},{"cover":"SCT","base":7000}],"obsTime":1779393600},"SBTF":{"icaoId":"SBTF","flightCategory":"VFR","rawOb":"METAR SBTF 212000Z 19004KT 9999 SCT015 BKN080 26/24 Q1012","temp":26,"dewp":24,"wdir":190,"wspd":4,"visib":"6+","altim":1012,"clouds":[{"cover":"SCT","base":1500},{"cover":"BKN","base":8000}],"obsTime":1779393600},"SBTT":{"icaoId":"SBTT","flightCategory":"MVFR","rawOb":"METAR SBTT 212000Z 18009KT 9999 OVC015 22/21 Q1015","temp":22,"dewp":21,"wdir":180,"wspd":9,"visib":"6+","altim":1015,"clouds":[{"cover":"OVC","base":1500}],"obsTime":1779393600},"SBTU":{"icaoId":"SBTU","flightCategory":"VFR","rawOb":"METAR SBTU 212000Z AUTO 27007KT 9999 // NCD 30/23 Q1012","temp":30,"dewp":23,"wdir":270,"wspd":7,"visib":"6+","altim":1012,"clouds":[],"obsTime":1779393600},"SBUY":{"icaoId":"SBUY","flightCategory":"MVFR","rawOb":"METAR SBUY 212000Z 19003KT 9999 BKN025 BKN100 25/23 Q1012","temp":25,"dewp":23,"wdir":190,"wspd":3,"visib":"6+","altim":1012,"clouds":[{"cover":"BKN","base":2500},{"cover":"BKN","base":10000}],"obsTime":1779393600},"SBVH":{"icaoId":"SBVH","flightCategory":"VFR","rawOb":"METAR SBVH 212000Z 21009KT 9999 SCT030 22/18 Q1018","temp":22,"dewp":18,"wdir":210,"wspd":9,"visib":"6+","altim":1018,"clouds":[{"cover":"SCT","base":3000}],"obsTime":1779393600},"SBCC":{"icaoId":"SBCC","flightCategory":"MVFR","rawOb":"METAR SBCC 212000Z 11000KT 9999 BKN025 FEW030TCU 29/19 Q1013","temp":29,"dewp":19,"wdir":110,"wspd":0,"visib":"6+","altim":1013,"clouds":[{"cover":"BKN","base":2500},{"cover":"FEW","base":3000}],"obsTime":1779393600},"SBJV":{"icaoId":"SBJV","flightCategory":"VFR","rawOb":"METAR SBJV 212000Z 09005KT 9999 FEW025 BKN035 17/12 Q1024","temp":17,"dewp":12,"wdir":90,"wspd":5,"visib":"6+","altim":1024,"clouds":[{"cover":"FEW","base":2500},{"cover":"BKN","base":3500}],"obsTime":1779393600},"SBNM":{"icaoId":"SBNM","flightCategory":"VFR","rawOb":"METAR SBNM 212000Z AUTO 13006KT CAVOK 16/06 Q1024","temp":16,"dewp":6,"wdir":130,"wspd":6,"visib":"6+","altim":1024,"clouds":[],"obsTime":1779393600},"SBPF":{"icaoId":"SBPF","flightCategory":"VFR","rawOb":"METAR SBPF 212000Z 16007KT CAVOK 12/04 Q1025","temp":12,"dewp":4,"wdir":160,"wspd":7,"visib":"6+","altim":1025,"clouds":[],"obsTime":1779393600},"SBLE":{"icaoId":"SBLE","flightCategory":"VFR","rawOb":"METAR SBLE 212000Z AUTO 23003KT 190V260 CAVOK 26/19 Q1017","temp":26,"dewp":19,"wdir":230,"wspd":3,"visib":"6+","altim":1017,"clouds":[],"obsTime":1779393600},"SBAN":{"icaoId":"SBAN","flightCategory":"VFR","rawOb":"METAR SBAN 212000Z 19006KT 9999 FEW040 26/16 Q1021","temp":26,"dewp":16,"wdir":190,"wspd":6,"visib":"6+","altim":1021,"clouds":[{"cover":"FEW","base":4000}],"obsTime":1779393600},"SBIH":{"icaoId":"SBIH","flightCategory":"VFR","rawOb":"METAR SBIH 212000Z 19004KT 9999 FEW015 29/26 Q1010","temp":29,"dewp":26,"wdir":190,"wspd":4,"visib":"6+","altim":1010,"clouds":[{"cover":"FEW","base":1500}],"obsTime":1779393600},"SBAF":{"icaoId":"SBAF","flightCategory":"VFR","rawOb":"METAR SBAF 212000Z VRB02KT 9999 FEW008 SCT025 OVC045 20/20 Q1023","temp":20,"dewp":20,"wdir":"VRB","wspd":2,"visib":"6+","altim":1023,"clouds":[{"cover":"FEW","base":800},{"cover":"SCT","base":2500},{"cover":"OVC","base":4500}],"obsTime":1779393600},"SBGW":{"icaoId":"SBGW","flightCategory":"MVFR","rawOb":"METAR SBGW 212000Z 14005KT 110V180 7000 -RA OVC030 19/11 Q1023","temp":19,"dewp":11,"wdir":140,"wspd":5,"visib":4.35,"altim":1023,"clouds":[{"cover":"OVC","base":3000}],"obsTime":1779393600},"SBJR":{"icaoId":"SBJR","flightCategory":"MVFR","rawOb":"METAR SBJR 212000Z 28002KT 6000 -RA FEW010 BKN018 OVC030 20/17 Q1022","temp":20,"dewp":17,"wdir":280,"wspd":2,"visib":3.73,"altim":1022,"clouds":[{"cover":"FEW","base":1000},{"cover":"BKN","base":1800},{"cover":"OVC","base":3000}],"obsTime":1779393600},"SBLS":{"icaoId":"SBLS","flightCategory":"VFR","rawOb":"METAR SBLS 212000Z 13010KT 9999 FEW040 23/18 Q1020","temp":23,"dewp":18,"wdir":130,"wspd":10,"visib":"6+","altim":1020,"clouds":[{"cover":"FEW","base":4000}],"obsTime":1779393600},"SBMT":{"icaoId":"SBMT","flightCategory":"MVFR","rawOb":"METAR SBMT 212000Z 13008KT 8000 BKN013 14/12 Q1025","temp":14,"dewp":12,"wdir":130,"wspd":8,"visib":4.97,"altim":1025,"clouds":[{"cover":"BKN","base":1300}],"obsTime":1779393600},"SBST":{"icaoId":"SBST","flightCategory":"MVFR","rawOb":"METAR SBST 212000Z 01003KT 7000 FEW015 OVC037 17/16 Q1024","temp":17,"dewp":16,"wdir":10,"wspd":3,"visib":4.35,"altim":1024,"clouds":[{"cover":"FEW","base":1500},{"cover":"OVC","base":3700}],"obsTime":1779393600},"SBTA":{"icaoId":"SBTA","flightCategory":"VFR","rawOb":"METAR SBTA 212000Z 17009KT 150V210 9999 FEW020 SCT030 BKN040 18/13 Q1023","temp":18,"dewp":13,"wdir":170,"wspd":9,"visib":"6+","altim":1023,"clouds":[{"cover":"FEW","base":2000},{"cover":"SCT","base":3000},{"cover":"BKN","base":4000}],"obsTime":1779393600},"SBJP":{"icaoId":"SBJP","flightCategory":"VFR","rawOb":"METAR SBJP 212000Z 12009KT CAVOK 27/22 Q1014","temp":27,"dewp":22,"wdir":120,"wspd":9,"visib":"6+","altim":1014,"clouds":[],"obsTime":1779393600}}}