{"updated":1777416212,"count":82,"data":{"SBMQ":{"icaoId":"SBMQ","flightCategory":"VFR","rawOb":"METAR SBMQ 282100Z 07010KT 9999 VCSH VCTS SCT030 FEW035CB 30/25 Q1009","temp":30,"dewp":25,"wdir":70,"wspd":10,"visib":"6+","altim":1009,"clouds":[{"cover":"SCT","base":3000},{"cover":"FEW","base":3500}],"obsTime":1777410000},"SBCP":{"icaoId":"SBCP","flightCategory":"VFR","rawOb":"METAR SBCP 282100Z 10004KT 9999 FEW020 26/22 Q1014","temp":26,"dewp":22,"wdir":100,"wspd":4,"visib":"6+","altim":1014,"clouds":[{"cover":"FEW","base":2000}],"obsTime":1777410000},"SBFZ":{"icaoId":"SBFZ","flightCategory":"VFR","rawOb":"METAR SBFZ 282100Z 09004KT 9999 SCT021 FEW025TCU 28/24 Q1010","temp":28,"dewp":24,"wdir":90,"wspd":4,"visib":"6+","altim":1010,"clouds":[{"cover":"SCT","base":2100},{"cover":"FEW","base":2500}],"obsTime":1777410000},"SBMG":{"icaoId":"SBMG","flightCategory":"IFR","rawOb":"METAR SBMG 282100Z 16006KT 9999 BKN005 BKN045 21/20 Q1014","temp":21,"dewp":20,"wdir":160,"wspd":6,"visib":"6+","altim":1014,"clouds":[{"cover":"BKN","base":500},{"cover":"BKN","base":4500}],"obsTime":1777410000},"SBCF":{"icaoId":"SBCF","flightCategory":"VFR","rawOb":"METAR SBCF 282100Z 10006KT 9999 FEW045 26/17 Q1018","temp":26,"dewp":17,"wdir":100,"wspd":6,"visib":"6+","altim":1018,"clouds":[{"cover":"FEW","base":4500}],"obsTime":1777410000},"SBMK":{"icaoId":"SBMK","flightCategory":"VFR","rawOb":"METAR SBMK 282100Z 09006KT CAVOK 27/16 Q1016","temp":27,"dewp":16,"wdir":90,"wspd":6,"visib":"6+","altim":1016,"clouds":[],"obsTime":1777410000},"SBCT":{"icaoId":"SBCT","flightCategory":"IFR","rawOb":"METAR SBCT 282100Z 11005KT 6000 -RA BKN005 OVC011 15/15 Q1019","temp":15,"dewp":15,"wdir":110,"wspd":5,"visib":3.73,"altim":1019,"clouds":[{"cover":"BKN","base":500},{"cover":"OVC","base":1100}],"obsTime":1777410000},"SBMO":{"icaoId":"SBMO","flightCategory":"VFR","rawOb":"METAR SBMO 282100Z 09005KT 9999 FEW019 SCT025 BKN070 25/24 Q1012","temp":25,"dewp":24,"wdir":90,"wspd":5,"visib":"6+","altim":1012,"clouds":[{"cover":"FEW","base":1900},{"cover":"SCT","base":2500},{"cover":"BKN","base":7000}],"obsTime":1777410000},"SBGL":{"icaoId":"SBGL","flightCategory":"VFR","rawOb":"METAR SBGL 282100Z 15008KT 9999 SCT033 26/23 Q1013","temp":26,"dewp":23,"wdir":150,"wspd":8,"visib":"6+","altim":1013,"clouds":[{"cover":"SCT","base":3300}],"obsTime":1777410000},"SBVT":{"icaoId":"SBVT","flightCategory":"VFR","rawOb":"METAR SBVT 282100Z 04011KT CAVOK 26/22 Q1014","temp":26,"dewp":22,"wdir":40,"wspd":11,"visib":"6+","altim":1014,"clouds":[],"obsTime":1777410000},"SBME":{"icaoId":"SBME","flightCategory":"VFR","rawOb":"METAR SBME 282100Z 04001KT 9999 FEW030 26/23 Q1014","temp":26,"dewp":23,"wdir":40,"wspd":1,"visib":"6+","altim":1014,"clouds":[{"cover":"FEW","base":3000}],"obsTime":1777410000},"SBBV":{"icaoId":"SBBV","flightCategory":"VFR","rawOb":"METAR SBBV 282100Z 10006KT 9999 SCT040 FEW045TCU 33/20 Q1008","temp":33,"dewp":20,"wdir":100,"wspd":6,"visib":"6+","altim":1008,"clouds":[{"cover":"SCT","base":4000},{"cover":"FEW","base":4500}],"obsTime":1777410000},"SBNT":{"icaoId":"SBNT","flightCategory":"IFR","rawOb":"METAR SBNT 282100Z 14006KT 4500 -RA SCT005 BKN015 BKN040 25/25 Q1011 RESHRA","temp":25,"dewp":25,"wdir":140,"wspd":6,"visib":2.8,"altim":1011,"clouds":[{"cover":"SCT","base":500},{"cover":"BKN","base":1500},{"cover":"BKN","base":4000}],"obsTime":1777410000},"SBPA":{"icaoId":"SBPA","flightCategory":"VFR","rawOb":"METAR SBPA 282100Z 25005KT CAVOK 17/06 Q1016","temp":17,"dewp":6,"wdir":250,"wspd":5,"visib":"6+","altim":1016,"clouds":[],"obsTime":1777410000},"SBGO":{"icaoId":"SBGO","flightCategory":"VFR","rawOb":"METAR SBGO 282100Z 08006KT CAVOK 30/17 Q1015","temp":30,"dewp":17,"wdir":80,"wspd":6,"visib":"6+","altim":1015,"clouds":[],"obsTime":1777410000},"SBGR":{"icaoId":"SBGR","flightCategory":"IFR","rawOb":"METAR SBGR 282100Z 20006KT 9999 OVC007 22/20 Q1018","temp":22,"dewp":20,"wdir":200,"wspd":6,"visib":"6+","altim":1018,"clouds":[{"cover":"OVC","base":700}],"obsTime":1777410000},"SBPJ":{"icaoId":"SBPJ","flightCategory":"VFR","rawOb":"METAR SBPJ 282100Z 36004KT 9999 VCSH SCT030 FEW033TCU 28/24 Q1011","temp":28,"dewp":24,"wdir":360,"wspd":4,"visib":"6+","altim":1011,"clouds":[{"cover":"SCT","base":3000},{"cover":"FEW","base":3300}],"obsTime":1777410000},"SBPV":{"icaoId":"SBPV","flightCategory":"VFR","rawOb":"METAR SBPV 282100Z 01003KT 9999 SCT025 FEW030TCU 32/23 Q1007","temp":32,"dewp":23,"wdir":10,"wspd":3,"visib":"6+","altim":1007,"clouds":[{"cover":"SCT","base":2500},{"cover":"FEW","base":3000}],"obsTime":1777410000},"SBCG":{"icaoId":"SBCG","flightCategory":"VFR","rawOb":"METAR SBCG 282100Z 24003KT 9999 FEW030 FEW035TCU 26/22 Q1014","temp":26,"dewp":22,"wdir":240,"wspd":3,"visib":"6+","altim":1014,"clouds":[{"cover":"FEW","base":3000},{"cover":"FEW","base":3500}],"obsTime":1777410000},"SBRB":{"icaoId":"SBRB","flightCategory":"MVFR","rawOb":"METAR SBRB 282100Z 02001KT 9999 VCSH BKN030 FEW034TCU BKN100 28/25 Q1010","temp":28,"dewp":25,"wdir":20,"wspd":1,"visib":"6+","altim":1010,"clouds":[{"cover":"BKN","base":3000},{"cover":"FEW","base":3400},{"cover":"BKN","base":10000}],"obsTime":1777410000},"SBCZ":{"icaoId":"SBCZ","flightCategory":"VFR","rawOb":"METAR SBCZ 282100Z 24005KT 9999 SCT015 FEW030TCU BKN100 27/25 Q1009","temp":27,"dewp":25,"wdir":240,"wspd":5,"visib":"6+","altim":1009,"clouds":[{"cover":"SCT","base":1500},{"cover":"FEW","base":3000},{"cover":"BKN","base":10000}],"obsTime":1777410000},"SBIL":{"icaoId":"SBIL","flightCategory":"VFR","rawOb":"METAR SBIL 282100Z 17004KT 9999 FEW020 28/23 Q1014","temp":28,"dewp":23,"wdir":170,"wspd":4,"visib":"6+","altim":1014,"clouds":[{"cover":"FEW","base":2000}],"obsTime":1777410000},"SBRF":{"icaoId":"SBRF","flightCategory":"MVFR","rawOb":"METAR SBRF 282100Z 11011KT 9999 BKN022 28/24 Q1011","temp":28,"dewp":24,"wdir":110,"wspd":11,"visib":"6+","altim":1011,"clouds":[{"cover":"BKN","base":2200}],"obsTime":1777410000},"SBEG":{"icaoId":"SBEG","flightCategory":"VFR","rawOb":"METAR SBEG 282100Z 26002KT 9999 VCSH SCT030 FEW035TCU SCT100 28/26 Q1008","temp":28,"dewp":26,"wdir":260,"wspd":2,"visib":"6+","altim":1008,"clouds":[{"cover":"SCT","base":3000},{"cover":"FEW","base":3500},{"cover":"SCT","base":10000}],"obsTime":1777410000},"SBSG":{"icaoId":"SBSG","flightCategory":"VFR","rawOb":"METAR SBSG 282100Z 13004KT 100V160 9999 VCSH SCT020 FEW025TCU SCT090 26/24 Q1012","temp":26,"dewp":24,"wdir":130,"wspd":4,"visib":"6+","altim":1012,"clouds":[{"cover":"SCT","base":2000},{"cover":"FEW","base":2500},{"cover":"SCT","base":9000}],"obsTime":1777410000},"SBJU":{"icaoId":"SBJU","flightCategory":"MVFR","rawOb":"METAR SBJU 282100Z 06003KT 9999 BKN020 28/23 Q1013","temp":28,"dewp":23,"wdir":60,"wspd":3,"visib":"6+","altim":1013,"clouds":[{"cover":"BKN","base":2000}],"obsTime":1777410000},"SBSL":{"icaoId":"SBSL","flightCategory":"VFR","rawOb":"METAR SBSL 282100Z 09004KT 9999 -RA SCT020 BKN070 26/24 Q1011","temp":26,"dewp":24,"wdir":90,"wspd":4,"visib":"6+","altim":1011,"clouds":[{"cover":"SCT","base":2000},{"cover":"BKN","base":7000}],"obsTime":1777410000},"SBSN":{"icaoId":"SBSN","flightCategory":"VFR","rawOb":"METAR SBSN 282100Z 05003KT 9999 FEW020 FEW025TCU 30/24 Q1008","temp":30,"dewp":24,"wdir":50,"wspd":3,"visib":"6+","altim":1008,"clouds":[{"cover":"FEW","base":2000},{"cover":"FEW","base":2500}],"obsTime":1777410000},"SBBE":{"icaoId":"SBBE","flightCategory":"VFR","rawOb":"METAR SBBE 282100Z 08006KT 9999 SCT040 BKN057 27/25 Q1009","temp":27,"dewp":25,"wdir":80,"wspd":6,"visib":"6+","altim":1009,"clouds":[{"cover":"SCT","base":4000},{"cover":"BKN","base":5700}],"obsTime":1777410000},"SBSP":{"icaoId":"SBSP","flightCategory":"IFR","rawOb":"METAR SBSP 282100Z 19008KT 9999 OVC006 21/19 Q1019","temp":21,"dewp":19,"wdir":190,"wspd":8,"visib":"6+","altim":1019,"clouds":[{"cover":"OVC","base":600}],"obsTime":1777410000},"SBKP":{"icaoId":"SBKP","flightCategory":"VFR","rawOb":"METAR SBKP 282100Z 25005KT 200V320 9999 -RA VCTS SCT020 FEW035CB BKN070 22/19 Q1016 RETSRA","temp":22,"dewp":19,"wdir":250,"wspd":5,"visib":"6+","altim":1016,"clouds":[{"cover":"SCT","base":2000},{"cover":"FEW","base":3500},{"cover":"BKN","base":7000}],"obsTime":1777410000},"SBBR":{"icaoId":"SBBR","flightCategory":"VFR","rawOb":"METAR SBBR 282100Z 13007KT CAVOK 27/15 Q1018","temp":27,"dewp":15,"wdir":130,"wspd":7,"visib":"6+","altim":1018,"clouds":[],"obsTime":1777410000},"SBSV":{"icaoId":"SBSV","flightCategory":"VFR","rawOb":"METAR SBSV 282100Z 08010KT 9999 SCT025 BKN060 28/23 Q1013","temp":28,"dewp":23,"wdir":80,"wspd":10,"visib":"6+","altim":1013,"clouds":[{"cover":"SCT","base":2500},{"cover":"BKN","base":6000}],"obsTime":1777410000},"SBLO":{"icaoId":"SBLO","flightCategory":"MVFR","rawOb":"METAR SBLO 282100Z 16002KT 9000 BKN015 BKN090 23/22 Q1015 RERA","temp":23,"dewp":22,"wdir":160,"wspd":2,"visib":5.59,"altim":1015,"clouds":[{"cover":"BKN","base":1500},{"cover":"BKN","base":9000}],"obsTime":1777410000},"SBTE":{"icaoId":"SBTE","flightCategory":"VFR","rawOb":"METAR SBTE 282100Z 08003KT 9999 FEW020 FEW025TCU SCT100 31/23 Q1009","temp":31,"dewp":23,"wdir":80,"wspd":3,"visib":"6+","altim":1009,"clouds":[{"cover":"FEW","base":2000},{"cover":"FEW","base":2500},{"cover":"SCT","base":10000}],"obsTime":1777410000},"SBUL":{"icaoId":"SBUL","flightCategory":"VFR","rawOb":"METAR SBUL 282100Z 07005KT CAVOK 27/16 Q1018","temp":27,"dewp":16,"wdir":70,"wspd":5,"visib":"6+","altim":1018,"clouds":[],"obsTime":1777410000},"SBFI":{"icaoId":"SBFI","flightCategory":"MVFR","rawOb":"METAR SBFI 282100Z 04005KT 5000 -RA FEW040TCU OVC100 16/16 Q1015","temp":16,"dewp":16,"wdir":40,"wspd":5,"visib":3.11,"altim":1015,"clouds":[{"cover":"FEW","base":4000},{"cover":"OVC","base":10000}],"obsTime":1777410000},"SBUR":{"icaoId":"SBUR","flightCategory":"VFR","rawOb":"METAR SBUR 282100Z 01004KT CAVOK 29/16 Q1016","temp":29,"dewp":16,"wdir":10,"wspd":4,"visib":"6+","altim":1016,"clouds":[],"obsTime":1777410000},"SBFL":{"icaoId":"SBFL","flightCategory":"VFR","rawOb":"METAR SBFL 282100Z 13004KT 100V160 9999 BKN043 20/13 Q1017","temp":20,"dewp":13,"wdir":130,"wspd":4,"visib":"6+","altim":1017,"clouds":[{"cover":"BKN","base":4300}],"obsTime":1777410000},"SBMA":{"icaoId":"SBMA","flightCategory":"VFR","rawOb":"METAR SBMA 282100Z 00000KT 9999 FEW020 FEW025TCU SCT100 28/23 Q1009","temp":28,"dewp":23,"wdir":0,"wspd":0,"visib":"6+","altim":1009,"clouds":[{"cover":"FEW","base":2000},{"cover":"FEW","base":2500},{"cover":"SCT","base":10000}],"obsTime":1777410000},"SBCB":{"icaoId":"SBCB","flightCategory":"VFR","rawOb":"METAR SBCB 282100Z 08005KT CAVOK 25/23 Q1014","temp":25,"dewp":23,"wdir":80,"wspd":5,"visib":"6+","altim":1014,"clouds":[],"obsTime":1777410000},"SBCR":{"icaoId":"SBCR","flightCategory":"MVFR","rawOb":"METAR SBCR 282100Z 06003KT 9999 BKN030 28/23 Q1011","temp":28,"dewp":23,"wdir":60,"wspd":3,"visib":"6+","altim":1011,"clouds":[{"cover":"BKN","base":3000}],"obsTime":1777410000},"SBHT":{"icaoId":"SBHT","flightCategory":"MVFR","rawOb":"METAR SBHT 282100Z 02002KT 9999 BKN025 29/25 Q1009","temp":29,"dewp":25,"wdir":20,"wspd":2,"visib":"6+","altim":1009,"clouds":[{"cover":"BKN","base":2500}],"obsTime":1777410000},"SBAT":{"icaoId":"SBAT","flightCategory":"VFR","rawOb":"METAR SBAT 282100Z 10001KT 9999 FEW035 30/24 Q1011","temp":30,"dewp":24,"wdir":100,"wspd":1,"visib":"6+","altim":1011,"clouds":[{"cover":"FEW","base":3500}],"obsTime":1777410000},"SBKG":{"icaoId":"SBKG","flightCategory":"VFR","rawOb":"METAR SBKG 282100Z 10003KT 9999 SCT015 SCT080 23/23 Q1014","temp":23,"dewp":23,"wdir":100,"wspd":3,"visib":"6+","altim":1014,"clouds":[{"cover":"SCT","base":1500},{"cover":"SCT","base":8000}],"obsTime":1777410000},"SBOI":{"icaoId":"SBOI","flightCategory":"VFR","rawOb":"METAR SBOI 282100Z AUTO 13006KT 090V170 9999 FEW027 BKN046 27/24 Q1010","temp":27,"dewp":24,"wdir":130,"wspd":6,"visib":"6+","altim":1010,"clouds":[{"cover":"FEW","base":2700},{"cover":"BKN","base":4600}],"obsTime":1777410000},"SBAR":{"icaoId":"SBAR","flightCategory":"IFR","rawOb":"METAR SBAR 282100Z 13007KT 3000 RA BKN009 BKN015 FEW030TCU 26/24 Q1012","temp":26,"dewp":24,"wdir":130,"wspd":7,"visib":1.86,"altim":1012,"clouds":[{"cover":"BKN","base":900},{"cover":"BKN","base":1500},{"cover":"FEW","base":3000}],"obsTime":1777410000},"SBAX":{"icaoId":"SBAX","flightCategory":"VFR","rawOb":"METAR SBAX 282100Z 03006KT 9999 SCT030 26/14 Q1018","temp":26,"dewp":14,"wdir":30,"wspd":6,"visib":"6+","altim":1018,"clouds":[{"cover":"SCT","base":3000}],"obsTime":1777410000},"SBUY":{"icaoId":"SBUY","flightCategory":"VFR","rawOb":"METAR SBUY 282100Z 20002KT 9999 FEW025 FEW030TCU BKN090 28/27 Q1006","temp":28,"dewp":27,"wdir":200,"wspd":2,"visib":"6+","altim":1006,"clouds":[{"cover":"FEW","base":2500},{"cover":"FEW","base":3000},{"cover":"BKN","base":9000}],"obsTime":1777410000},"SBTT":{"icaoId":"SBTT","flightCategory":"VFR","rawOb":"METAR SBTT 282100Z 29004KT 9999 SCT015 28/22 Q1009","temp":28,"dewp":22,"wdir":290,"wspd":4,"visib":"6+","altim":1009,"clouds":[{"cover":"SCT","base":1500}],"obsTime":1777410000},"SBBH":{"icaoId":"SBBH","flightCategory":"VFR","rawOb":"METAR SBBH 282100Z 08006KT CAVOK 26/17 Q1018","temp":26,"dewp":17,"wdir":80,"wspd":6,"visib":"6+","altim":1018,"clouds":[],"obsTime":1777410000},"SBBU":{"icaoId":"SBBU","flightCategory":"VFR","rawOb":"METAR SBBU 282100Z 22005KT CAVOK 29/21 Q1015","temp":29,"dewp":21,"wdir":220,"wspd":5,"visib":"6+","altim":1015,"clouds":[],"obsTime":1777410000},"SBTF":{"icaoId":"SBTF","flightCategory":"VFR","rawOb":"METAR SBTF 282100Z 04005KT 9999 FEW020 BKN090 26/25 Q1008","temp":26,"dewp":25,"wdir":40,"wspd":5,"visib":"6+","altim":1008,"clouds":[{"cover":"FEW","base":2000},{"cover":"BKN","base":9000}],"obsTime":1777410000},"SBSR":{"icaoId":"SBSR","flightCategory":"VFR","rawOb":"METAR SBSR 282100Z 22003KT 9999 FEW040 SCT080 30/18 Q1014","temp":30,"dewp":18,"wdir":220,"wspd":3,"visib":"6+","altim":1014,"clouds":[{"cover":"FEW","base":4000},{"cover":"SCT","base":8000}],"obsTime":1777410000},"SBCA":{"icaoId":"SBCA","flightCategory":"IFR","rawOb":"METAR SBCA 282100Z 20005KT 3000 -RA SCT003 BKN005 FEW050TCU 18/17 Q1017","temp":18,"dewp":17,"wdir":200,"wspd":5,"visib":1.86,"altim":1017,"clouds":[{"cover":"SCT","base":300},{"cover":"BKN","base":500},{"cover":"FEW","base":5000}],"obsTime":1777410000},"SBVH":{"icaoId":"SBVH","flightCategory":"VFR","rawOb":"METAR SBVH 282100Z 29004KT 9999 VCSH SCT035 SCT100 26/22 Q1012","temp":26,"dewp":22,"wdir":290,"wspd":4,"visib":"6+","altim":1012,"clouds":[{"cover":"SCT","base":3500},{"cover":"SCT","base":10000}],"obsTime":1777410000},"SBSM":{"icaoId":"SBSM","flightCategory":"VFR","rawOb":"METAR SBSM 282100Z 19002KT CAVOK 13/08 Q1016","temp":13,"dewp":8,"wdir":190,"wspd":2,"visib":"6+","altim":1016,"clouds":[],"obsTime":1777410000},"SBCO":{"icaoId":"SBCO","flightCategory":"VFR","rawOb":"METAR SBCO 282100Z 24004KT CAVOK 16/06 Q1016","temp":16,"dewp":6,"wdir":240,"wspd":4,"visib":"6+","altim":1016,"clouds":[],"obsTime":1777410000},"SBSJ":{"icaoId":"SBSJ","flightCategory":"MVFR","rawOb":"METAR SBSJ 282100Z 15006KT 7000 BKN025 BKN040 24/21 Q1016","temp":24,"dewp":21,"wdir":150,"wspd":6,"visib":4.35,"altim":1016,"clouds":[{"cover":"BKN","base":2500},{"cover":"BKN","base":4000}],"obsTime":1777410000},"SBDN":{"icaoId":"SBDN","flightCategory":"VFR","rawOb":"METAR SBDN 282100Z 14002KT 9999 FEW026 26/21 Q1014","temp":26,"dewp":21,"wdir":140,"wspd":2,"visib":"6+","altim":1014,"clouds":[{"cover":"FEW","base":2600}],"obsTime":1777410000},"SBSC":{"icaoId":"SBSC","flightCategory":"MVFR","rawOb":"METAR SBSC 282100Z 17005KT 8000 SCT019 OVC025 26/23 Q1013","temp":26,"dewp":23,"wdir":170,"wspd":5,"visib":4.97,"altim":1013,"clouds":[{"cover":"SCT","base":1900},{"cover":"OVC","base":2500}],"obsTime":1777410000},"SBES":{"icaoId":"SBES","flightCategory":"VFR","rawOb":"METAR SBES 282100Z 04004KT 340V080 CAVOK 24/// Q1014","temp":null,"dewp":null,"wdir":40,"wspd":4,"visib":"6+","altim":1014,"clouds":[],"obsTime":1777410000},"SBPS":{"icaoId":"SBPS","flightCategory":"VFR","rawOb":"METAR SBPS 282100Z 05002KT 9999 FEW020 27/22 Q1014","temp":27,"dewp":22,"wdir":50,"wspd":2,"visib":"6+","altim":1014,"clouds":[{"cover":"FEW","base":2000}],"obsTime":1777410000},"SBIP":{"icaoId":"SBIP","flightCategory":"VFR","rawOb":"METAR SBIP 282100Z AUTO 22001KT CAVOK 24/21 Q1015","temp":24,"dewp":21,"wdir":220,"wspd":1,"visib":"6+","altim":1015,"clouds":[],"obsTime":1777410000},"SBPL":{"icaoId":"SBPL","flightCategory":"VFR","rawOb":"METAR SBPL 282100Z 15005KT CAVOK 31/16 Q1011","temp":31,"dewp":16,"wdir":150,"wspd":5,"visib":"6+","altim":1011,"clouds":[],"obsTime":1777410000},"SBPB":{"icaoId":"SBPB","flightCategory":"MVFR","rawOb":"METAR SBPB 282100Z 36005KT 9999 TS BKN019 FEW026CB OVC100 27/24 Q1010","temp":27,"dewp":24,"wdir":360,"wspd":5,"visib":"6+","altim":1010,"clouds":[{"cover":"BKN","base":1900},{"cover":"FEW","base":2600},{"cover":"OVC","base":10000}],"obsTime":1777410000},"SBCJ":{"icaoId":"SBCJ","flightCategory":"VFR","rawOb":"METAR SBCJ 282100Z 00000KT 9999 SCT015 SCT070 23/22 Q1015","temp":23,"dewp":22,"wdir":0,"wspd":0,"visib":"6+","altim":1015,"clouds":[{"cover":"SCT","base":1500},{"cover":"SCT","base":7000}],"obsTime":1777410000},"SBPP":{"icaoId":"SBPP","flightCategory":"MVFR","rawOb":"METAR SBPP 282100Z 27005KT 9999 BKN015 21/19 Q1015","temp":21,"dewp":19,"wdir":270,"wspd":5,"visib":"6+","altim":1015,"clouds":[{"cover":"BKN","base":1500}],"obsTime":1777410000},"SBJP":{"icaoId":"SBJP","flightCategory":"VFR","rawOb":"METAR SBJP 282100Z 08006KT 9999 FEW020 BKN070 27/24 Q1012","temp":27,"dewp":24,"wdir":80,"wspd":6,"visib":"6+","altim":1012,"clouds":[{"cover":"FEW","base":2000},{"cover":"BKN","base":7000}],"obsTime":1777410000},"SBJV":{"icaoId":"SBJV","flightCategory":"IFR","rawOb":"METAR SBJV 282100Z 34003KT 4000 -RA BKN005 BKN030 17/17 Q1017","temp":17,"dewp":17,"wdir":340,"wspd":3,"visib":2.49,"altim":1017,"clouds":[{"cover":"BKN","base":500},{"cover":"BKN","base":3000}],"obsTime":1777410000},"SBNM":{"icaoId":"SBNM","flightCategory":"VFR","rawOb":"METAR SBNM 282100Z 17002KT CAVOK 19/08 Q1016","temp":19,"dewp":8,"wdir":170,"wspd":2,"visib":"6+","altim":1016,"clouds":[],"obsTime":1777410000},"SBAN":{"icaoId":"SBAN","flightCategory":"VFR","rawOb":"METAR SBAN 282100Z 18004KT 9999 FEW040 25/17 Q1018","temp":25,"dewp":17,"wdir":180,"wspd":4,"visib":"6+","altim":1018,"clouds":[{"cover":"FEW","base":4000}],"obsTime":1777410000},"SBAF":{"icaoId":"SBAF","flightCategory":"VFR","rawOb":"METAR SBAF 282100Z 19006KT 9999 FEW015 SCT025 26/26 Q1013","temp":26,"dewp":26,"wdir":190,"wspd":6,"visib":"6+","altim":1013,"clouds":[{"cover":"FEW","base":1500},{"cover":"SCT","base":2500}],"obsTime":1777410000},"SBGW":{"icaoId":"SBGW","flightCategory":"VFR","rawOb":"METAR SBGW 282100Z 03002KT 9999 SCT035 BKN100 25/18 Q1015","temp":25,"dewp":18,"wdir":30,"wspd":2,"visib":"6+","altim":1015,"clouds":[{"cover":"SCT","base":3500},{"cover":"BKN","base":10000}],"obsTime":1777410000},"SBJR":{"icaoId":"SBJR","flightCategory":"VFR","rawOb":"METAR SBJR 282100Z 14001KT 9999 FEW015 SCT025 27/23 Q1013","temp":27,"dewp":23,"wdir":140,"wspd":1,"visib":"6+","altim":1013,"clouds":[{"cover":"FEW","base":1500},{"cover":"SCT","base":2500}],"obsTime":1777410000},"SBLS":{"icaoId":"SBLS","flightCategory":"VFR","rawOb":"METAR SBLS 282100Z 12005KT 9999 FEW048 25/18 Q1018","temp":25,"dewp":18,"wdir":120,"wspd":5,"visib":"6+","altim":1018,"clouds":[{"cover":"FEW","base":4800}],"obsTime":1777410000},"SBMT":{"icaoId":"SBMT","flightCategory":"IFR","rawOb":"METAR SBMT 282100Z 14005KT 4000 BR BKN012 21/19 Q1017","temp":21,"dewp":19,"wdir":140,"wspd":5,"visib":2.49,"altim":1017,"clouds":[{"cover":"BKN","base":1200}],"obsTime":1777410000},"SBTA":{"icaoId":"SBTA","flightCategory":"VFR","rawOb":"METAR SBTA 282100Z 20003KT 9999 VCSH BKN035 FEW040TCU BKN070 22/22 Q1015","temp":22,"dewp":22,"wdir":200,"wspd":3,"visib":"6+","altim":1015,"clouds":[{"cover":"BKN","base":3500},{"cover":"FEW","base":4000},{"cover":"BKN","base":7000}],"obsTime":1777410000},"SBLE":{"icaoId":"SBLE","flightCategory":"VFR","rawOb":"METAR SBLE 282100Z AUTO 00000KT CAVOK 24/21 Q1015","temp":24,"dewp":21,"wdir":0,"wspd":0,"visib":"6+","altim":1015,"clouds":[],"obsTime":1777410000},"SBST":{"icaoId":"SBST","flightCategory":"LIFR","rawOb":"METAR SBST 282100Z /////KT 1000 -DZ BR FEW005 BKN011 OVC015 ///// Q1014","temp":null,"dewp":null,"wdir":null,"wspd":null,"visib":0.62,"altim":1014,"clouds":[{"cover":"FEW","base":500},{"cover":"BKN","base":1100},{"cover":"OVC","base":1500}],"obsTime":1777410000},"SBPF":{"icaoId":"SBPF","flightCategory":"VFR","rawOb":"METAR SBPF 282100Z 23004KT CAVOK 16/01 Q1018","temp":16,"dewp":1,"wdir":230,"wspd":4,"visib":"6+","altim":1018,"clouds":[],"obsTime":1777410000},"SBIH":{"icaoId":"SBIH","flightCategory":"VFR","rawOb":"METAR SBIH 282100Z 15003KT 9999 FEW020 FEW023TCU 30/24 Q1007","temp":30,"dewp":24,"wdir":150,"wspd":3,"visib":"6+","altim":1007,"clouds":[{"cover":"FEW","base":2000},{"cover":"FEW","base":2300}],"obsTime":1777410000}}}