{"updated":1781905168,"count":84,"data":{"SBCG":{"icaoId":"SBCG","flightCategory":"IFR","rawOb":"METAR SBCG 192000Z 36006KT 3000 TSRA BR BKN030 FEW045CB OVC080 20/19 Q1017","temp":20,"dewp":19,"wdir":360,"wspd":6,"visib":1.86,"altim":1017,"clouds":[{"cover":"BKN","base":3000},{"cover":"FEW","base":4500},{"cover":"OVC","base":8000}],"obsTime":1781899200},"SBAT":{"icaoId":"SBAT","flightCategory":"VFR","rawOb":"METAR SBAT 192000Z 04003KT 9999 SCT035 33/21 Q1012","temp":33,"dewp":21,"wdir":40,"wspd":3,"visib":"6+","altim":1012,"clouds":[{"cover":"SCT","base":3500}],"obsTime":1781899200},"SBBE":{"icaoId":"SBBE","flightCategory":"VFR","rawOb":"METAR SBBE 192000Z 02011KT 9999 TS VCSH SCT020 SCT025 FEW030CB BKN100 29/24 Q1012","temp":29,"dewp":24,"wdir":20,"wspd":11,"visib":"6+","altim":1012,"clouds":[{"cover":"SCT","base":2000},{"cover":"SCT","base":2500},{"cover":"FEW","base":3000},{"cover":"BKN","base":10000}],"obsTime":1781899200},"SBBR":{"icaoId":"SBBR","flightCategory":"VFR","rawOb":"METAR SBBR 192000Z 17009KT 9999 FEW045 26/15 Q1020","temp":26,"dewp":15,"wdir":170,"wspd":9,"visib":"6+","altim":1020,"clouds":[{"cover":"FEW","base":4500}],"obsTime":1781899200},"SBBV":{"icaoId":"SBBV","flightCategory":"MVFR","rawOb":"METAR SBBV 192000Z 21011KT 9999 VCSH BKN025 FEW030TCU BKN080 28/23 Q1012","temp":28,"dewp":23,"wdir":210,"wspd":11,"visib":"6+","altim":1012,"clouds":[{"cover":"BKN","base":2500},{"cover":"FEW","base":3000},{"cover":"BKN","base":8000}],"obsTime":1781899200},"SBCB":{"icaoId":"SBCB","flightCategory":"VFR","rawOb":"METAR SBCB 192000Z /////KT CAVOK 22/18 Q1018","temp":22,"dewp":18,"wdir":null,"wspd":null,"visib":"6+","altim":1018,"clouds":[],"obsTime":1781899200},"SBCF":{"icaoId":"SBCF","flightCategory":"VFR","rawOb":"METAR SBCF 192000Z 04005KT CAVOK 21/10 Q1022","temp":21,"dewp":10,"wdir":40,"wspd":5,"visib":"6+","altim":1022,"clouds":[],"obsTime":1781899200},"SBCP":{"icaoId":"SBCP","flightCategory":"VFR","rawOb":"METAR SBCP 192000Z 10009KT 9999 FEW020 23/16 Q1019","temp":23,"dewp":16,"wdir":100,"wspd":9,"visib":"6+","altim":1019,"clouds":[{"cover":"FEW","base":2000}],"obsTime":1781899200},"SBCR":{"icaoId":"SBCR","flightCategory":"MVFR","rawOb":"METAR SBCR 192000Z 22014KT 190V250 9999 BKN020 BKN070 19/15 Q1017","temp":19,"dewp":15,"wdir":220,"wspd":14,"visib":"6+","altim":1017,"clouds":[{"cover":"BKN","base":2000},{"cover":"BKN","base":7000}],"obsTime":1781899200},"SBCT":{"icaoId":"SBCT","flightCategory":"VFR","rawOb":"METAR SBCT 192000Z 32006KT 9999 SCT035 BKN060 19/13 Q1019","temp":19,"dewp":13,"wdir":320,"wspd":6,"visib":"6+","altim":1019,"clouds":[{"cover":"SCT","base":3500},{"cover":"BKN","base":6000}],"obsTime":1781899200},"SBCZ":{"icaoId":"SBCZ","flightCategory":"MVFR","rawOb":"METAR SBCZ 192000Z 01004KT 8000 VCSH BKN030 31/23 Q1012","temp":31,"dewp":23,"wdir":10,"wspd":4,"visib":4.97,"altim":1012,"clouds":[{"cover":"BKN","base":3000}],"obsTime":1781899200},"SBEG":{"icaoId":"SBEG","flightCategory":"VFR","rawOb":"METAR SBEG 192000Z 36002KT 9999 FEW025 FEW030TCU 28/25 Q1013","temp":28,"dewp":25,"wdir":360,"wspd":2,"visib":"6+","altim":1013,"clouds":[{"cover":"FEW","base":2500},{"cover":"FEW","base":3000}],"obsTime":1781899200},"SBFI":{"icaoId":"SBFI","flightCategory":"MVFR","rawOb":"METAR SBFI 192000Z 05009KT 9999 SCT007 BKN020 OVC040 14/14 Q1016","temp":14,"dewp":14,"wdir":50,"wspd":9,"visib":"6+","altim":1016,"clouds":[{"cover":"SCT","base":700},{"cover":"BKN","base":2000},{"cover":"OVC","base":4000}],"obsTime":1781899200},"SBFL":{"icaoId":"SBFL","flightCategory":"VFR","rawOb":"METAR SBFL 192000Z 35007KT 9999 FEW036 20/15 Q1016","temp":20,"dewp":15,"wdir":350,"wspd":7,"visib":"6+","altim":1016,"clouds":[{"cover":"FEW","base":3600}],"obsTime":1781899200},"SBFZ":{"icaoId":"SBFZ","flightCategory":"VFR","rawOb":"METAR SBFZ 192000Z 08007KT 9999 FEW025 28/23 Q1011","temp":28,"dewp":23,"wdir":80,"wspd":7,"visib":"6+","altim":1011,"clouds":[{"cover":"FEW","base":2500}],"obsTime":1781899200},"SBGL":{"icaoId":"SBGL","flightCategory":"VFR","rawOb":"METAR SBGL 192000Z 13007KT CAVOK 23/17 Q1017","temp":23,"dewp":17,"wdir":130,"wspd":7,"visib":"6+","altim":1017,"clouds":[],"obsTime":1781899200},"SBGO":{"icaoId":"SBGO","flightCategory":"VFR","rawOb":"METAR SBGO 192000Z 23003KT 140V260 CAVOK 31/14 Q1017","temp":31,"dewp":14,"wdir":230,"wspd":3,"visib":"6+","altim":1017,"clouds":[],"obsTime":1781899200},"SBGR":{"icaoId":"SBGR","flightCategory":"VFR","rawOb":"METAR SBGR 192000Z 34006KT CAVOK 24/12 Q1020","temp":24,"dewp":12,"wdir":340,"wspd":6,"visib":"6+","altim":1020,"clouds":[],"obsTime":1781899200},"SBHT":{"icaoId":"SBHT","flightCategory":"VFR","rawOb":"METAR SBHT 192000Z 12002KT 9999 FEW035 32/23 Q1011","temp":32,"dewp":23,"wdir":120,"wspd":2,"visib":"6+","altim":1011,"clouds":[{"cover":"FEW","base":3500}],"obsTime":1781899200},"SBIL":{"icaoId":"SBIL","flightCategory":"VFR","rawOb":"METAR SBIL 192000Z 19011KT 9999 FEW040 BKN070 26/18 Q1018","temp":26,"dewp":18,"wdir":190,"wspd":11,"visib":"6+","altim":1018,"clouds":[{"cover":"FEW","base":4000},{"cover":"BKN","base":7000}],"obsTime":1781899200},"SBJU":{"icaoId":"SBJU","flightCategory":"MVFR","rawOb":"METAR SBJU 192000Z 18010KT 9999 BKN022 27/19 Q1015","temp":27,"dewp":19,"wdir":180,"wspd":10,"visib":"6+","altim":1015,"clouds":[{"cover":"BKN","base":2200}],"obsTime":1781899200},"SBKP":{"icaoId":"SBKP","flightCategory":"VFR","rawOb":"METAR SBKP 192000Z 36006KT CAVOK 25/12 Q1019","temp":25,"dewp":12,"wdir":360,"wspd":6,"visib":"6+","altim":1019,"clouds":[],"obsTime":1781899200},"SBLO":{"icaoId":"SBLO","flightCategory":"VFR","rawOb":"METAR SBLO 192000Z 04004KT CAVOK 22/16 Q1017","temp":22,"dewp":16,"wdir":40,"wspd":4,"visib":"6+","altim":1017,"clouds":[],"obsTime":1781899200},"SBMA":{"icaoId":"SBMA","flightCategory":"VFR","rawOb":"METAR SBMA 192000Z 08004KT 9999 SCT025 FEW030TCU 32/22 Q1011","temp":32,"dewp":22,"wdir":80,"wspd":4,"visib":"6+","altim":1011,"clouds":[{"cover":"SCT","base":2500},{"cover":"FEW","base":3000}],"obsTime":1781899200},"SBME":{"icaoId":"SBME","flightCategory":"VFR","rawOb":"METAR SBME 192000Z 07012KT CAVOK 23/18 Q1019","temp":23,"dewp":18,"wdir":70,"wspd":12,"visib":"6+","altim":1019,"clouds":[],"obsTime":1781899200},"SBMG":{"icaoId":"SBMG","flightCategory":"VFR","rawOb":"METAR SBMG 192000Z VRB01KT 9999 VCSH BKN040 OVC100 19/16 Q1016","temp":19,"dewp":16,"wdir":"VRB","wspd":1,"visib":"6+","altim":1016,"clouds":[{"cover":"BKN","base":4000},{"cover":"OVC","base":10000}],"obsTime":1781899200},"SBMK":{"icaoId":"SBMK","flightCategory":"VFR","rawOb":"METAR SBMK 192000Z 08007KT CAVOK 24/12 Q1020","temp":24,"dewp":12,"wdir":80,"wspd":7,"visib":"6+","altim":1020,"clouds":[],"obsTime":1781899200},"SBMO":{"icaoId":"SBMO","flightCategory":"MVFR","rawOb":"METAR SBMO 192000Z 15011KT 9999 BKN020 25/23 Q1015","temp":25,"dewp":23,"wdir":150,"wspd":11,"visib":"6+","altim":1015,"clouds":[{"cover":"BKN","base":2000}],"obsTime":1781899200},"SBMQ":{"icaoId":"SBMQ","flightCategory":"VFR","rawOb":"METAR SBMQ 192000Z 06007KT 9999 FEW040 FEW050TCU 32/20 Q1011","temp":32,"dewp":20,"wdir":60,"wspd":7,"visib":"6+","altim":1011,"clouds":[{"cover":"FEW","base":4000},{"cover":"FEW","base":5000}],"obsTime":1781899200},"SBNT":{"icaoId":"SBNT","flightCategory":"VFR","rawOb":"METAR SBNT 192000Z 15012KT 9999 FEW021 FEW024TCU SCT070 27/22 Q1013","temp":27,"dewp":22,"wdir":150,"wspd":12,"visib":"6+","altim":1013,"clouds":[{"cover":"FEW","base":2100},{"cover":"FEW","base":2400},{"cover":"SCT","base":7000}],"obsTime":1781899200},"SBPA":{"icaoId":"SBPA","flightCategory":"VFR","rawOb":"METAR SBPA 192000Z 27007KT 9999 VCSH FEW009 SCT030 BKN036 16/14 Q1015","temp":16,"dewp":14,"wdir":270,"wspd":7,"visib":"6+","altim":1015,"clouds":[{"cover":"FEW","base":900},{"cover":"SCT","base":3000},{"cover":"BKN","base":3600}],"obsTime":1781899200},"SBPJ":{"icaoId":"SBPJ","flightCategory":"VFR","rawOb":"METAR SBPJ 192000Z 22005KT 170V250 CAVOK 32/23 Q1013","temp":32,"dewp":23,"wdir":220,"wspd":5,"visib":"6+","altim":1013,"clouds":[],"obsTime":1781899200},"SBPV":{"icaoId":"SBPV","flightCategory":"VFR","rawOb":"METAR SBPV 192000Z 33003KT 9999 FEW040 32/22 Q1012","temp":32,"dewp":22,"wdir":330,"wspd":3,"visib":"6+","altim":1012,"clouds":[{"cover":"FEW","base":4000}],"obsTime":1781899200},"SBRB":{"icaoId":"SBRB","flightCategory":"VFR","rawOb":"METAR SBRB 192000Z 36005KT 9999 BKN036 31/21 Q1014","temp":31,"dewp":21,"wdir":360,"wspd":5,"visib":"6+","altim":1014,"clouds":[{"cover":"BKN","base":3600}],"obsTime":1781899200},"SBRF":{"icaoId":"SBRF","flightCategory":"IFR","rawOb":"SPECI SBRF 191946Z 16016G26KT 4500 -SHRA BKN014 BKN018 BKN050 25/23 Q1014","temp":25,"dewp":23,"wdir":160,"wspd":16,"visib":2.8,"altim":1014,"clouds":[{"cover":"BKN","base":1400},{"cover":"BKN","base":1800},{"cover":"BKN","base":5000}],"obsTime":1781898360},"SBSG":{"icaoId":"SBSG","flightCategory":"VFR","rawOb":"METAR SBSG 192000Z 13008KT 100V180 9999 SCT030 27/22 Q1013","temp":27,"dewp":22,"wdir":130,"wspd":8,"visib":"6+","altim":1013,"clouds":[{"cover":"SCT","base":3000}],"obsTime":1781899200},"SBSL":{"icaoId":"SBSL","flightCategory":"VFR","rawOb":"METAR SBSL 192000Z 05011KT 9999 FEW020 BKN035 29/24 Q1011","temp":29,"dewp":24,"wdir":50,"wspd":11,"visib":"6+","altim":1011,"clouds":[{"cover":"FEW","base":2000},{"cover":"BKN","base":3500}],"obsTime":1781899200},"SBSN":{"icaoId":"SBSN","flightCategory":"VFR","rawOb":"METAR SBSN 192000Z 06006KT 9999 FEW020 FEW025TCU 31/24 Q1011","temp":31,"dewp":24,"wdir":60,"wspd":6,"visib":"6+","altim":1011,"clouds":[{"cover":"FEW","base":2000},{"cover":"FEW","base":2500}],"obsTime":1781899200},"SBSP":{"icaoId":"SBSP","flightCategory":"VFR","rawOb":"METAR SBSP 192000Z 34007KT CAVOK 22/10 Q1020","temp":22,"dewp":10,"wdir":340,"wspd":7,"visib":"6+","altim":1020,"clouds":[],"obsTime":1781899200},"SBSV":{"icaoId":"SBSV","flightCategory":"MVFR","rawOb":"METAR SBSV 192000Z 21006KT 9999 VCSH BKN023 BKN050 24/22 Q1017","temp":24,"dewp":22,"wdir":210,"wspd":6,"visib":"6+","altim":1017,"clouds":[{"cover":"BKN","base":2300},{"cover":"BKN","base":5000}],"obsTime":1781899200},"SBTE":{"icaoId":"SBTE","flightCategory":"VFR","rawOb":"METAR SBTE 192000Z 19005KT 9999 FEW030 34/18 Q1010","temp":34,"dewp":18,"wdir":190,"wspd":5,"visib":"6+","altim":1010,"clouds":[{"cover":"FEW","base":3000}],"obsTime":1781899200},"SBUL":{"icaoId":"SBUL","flightCategory":"VFR","rawOb":"METAR SBUL 192000Z 05005KT 350V100 CAVOK 24/13 Q1020","temp":24,"dewp":13,"wdir":50,"wspd":5,"visib":"6+","altim":1020,"clouds":[],"obsTime":1781899200},"SBUR":{"icaoId":"SBUR","flightCategory":"VFR","rawOb":"METAR SBUR 192000Z 29006KT CAVOK 27/12 Q1019","temp":27,"dewp":12,"wdir":290,"wspd":6,"visib":"6+","altim":1019,"clouds":[],"obsTime":1781899200},"SBVT":{"icaoId":"SBVT","flightCategory":"VFR","rawOb":"METAR SBVT 192000Z 13005KT CAVOK 22/18 Q1019","temp":22,"dewp":18,"wdir":130,"wspd":5,"visib":"6+","altim":1019,"clouds":[],"obsTime":1781899200},"SBCJ":{"icaoId":"SBCJ","flightCategory":"VFR","rawOb":"METAR SBCJ 192000Z 00000KT 9999 FEW020 27/21 Q1016","temp":27,"dewp":21,"wdir":0,"wspd":0,"visib":"6+","altim":1016,"clouds":[{"cover":"FEW","base":2000}],"obsTime":1781899200},"SBCA":{"icaoId":"SBCA","flightCategory":"LIFR","rawOb":"METAR SBCA 192000Z 15008KT 3000 -RA BR BKN001 SCT030 OVC080 11/11 Q1020","temp":11,"dewp":11,"wdir":150,"wspd":8,"visib":1.86,"altim":1020,"clouds":[{"cover":"BKN","base":100},{"cover":"SCT","base":3000},{"cover":"OVC","base":8000}],"obsTime":1781899200},"SBPB":{"icaoId":"SBPB","flightCategory":"VFR","rawOb":"METAR SBPB 192000Z 06006KT 9999 FEW020 30/25 Q1011","temp":30,"dewp":25,"wdir":60,"wspd":6,"visib":"6+","altim":1011,"clouds":[{"cover":"FEW","base":2000}],"obsTime":1781899200},"SBPL":{"icaoId":"SBPL","flightCategory":"MVFR","rawOb":"METAR SBPL 192000Z 13011KT 9999 BKN030 28/18 Q1016","temp":28,"dewp":18,"wdir":130,"wspd":11,"visib":"6+","altim":1016,"clouds":[{"cover":"BKN","base":3000}],"obsTime":1781899200},"SBCO":{"icaoId":"SBCO","flightCategory":"VFR","rawOb":"METAR SBCO 192000Z 28007KT 9999 BKN033 16/13 Q1015","temp":16,"dewp":13,"wdir":280,"wspd":7,"visib":"6+","altim":1015,"clouds":[{"cover":"BKN","base":3300}],"obsTime":1781899200},"SBAR":{"icaoId":"SBAR","flightCategory":"VFR","rawOb":"METAR SBAR 192000Z 17008KT 9999 FEW033 26/19 Q1016","temp":26,"dewp":19,"wdir":170,"wspd":8,"visib":"6+","altim":1016,"clouds":[{"cover":"FEW","base":3300}],"obsTime":1781899200},"SBBH":{"icaoId":"SBBH","flightCategory":"VFR","rawOb":"METAR SBBH 192000Z 09003KT CAVOK 21/11 Q1021","temp":21,"dewp":11,"wdir":90,"wspd":3,"visib":"6+","altim":1021,"clouds":[],"obsTime":1781899200},"SBPP":{"icaoId":"SBPP","flightCategory":"LIFR","rawOb":"SPECI SBPP 191945Z 21021KT 0500 FG VV000 15/14 Q1017","temp":15,"dewp":14,"wdir":210,"wspd":21,"visib":0.31,"altim":1017,"clouds":[{"cover":"OVX","base":0}],"obsTime":1781898300},"SBDN":{"icaoId":"SBDN","flightCategory":"VFR","rawOb":"METAR SBDN 192000Z 00000KT 9999 SCT040 26/16 Q1015","temp":26,"dewp":16,"wdir":0,"wspd":0,"visib":"6+","altim":1015,"clouds":[{"cover":"SCT","base":4000}],"obsTime":1781899200},"SBPS":{"icaoId":"SBPS","flightCategory":"VFR","rawOb":"METAR SBPS 192000Z 15003KT 080V240 9999 SCT030 23/17 Q1019","temp":23,"dewp":17,"wdir":150,"wspd":3,"visib":"6+","altim":1019,"clouds":[{"cover":"SCT","base":3000}],"obsTime":1781899200},"SBSC":{"icaoId":"SBSC","flightCategory":"VFR","rawOb":"METAR SBSC 192000Z 03006KT CAVOK 25/15 Q1017","temp":25,"dewp":15,"wdir":30,"wspd":6,"visib":"6+","altim":1017,"clouds":[],"obsTime":1781899200},"SBES":{"icaoId":"SBES","flightCategory":"VFR","rawOb":"METAR SBES 192000Z 07011KT CAVOK 21/// Q1018","temp":null,"dewp":null,"wdir":70,"wspd":11,"visib":"6+","altim":1018,"clouds":[],"obsTime":1781899200},"SBSJ":{"icaoId":"SBSJ","flightCategory":"VFR","rawOb":"METAR SBSJ 192000Z 05003KT CAVOK 22/12 Q1019","temp":22,"dewp":12,"wdir":50,"wspd":3,"visib":"6+","altim":1019,"clouds":[],"obsTime":1781899200},"SBAX":{"icaoId":"SBAX","flightCategory":"VFR","rawOb":"METAR SBAX 192100Z 01003KT CAVOK 22/12 Q1021","temp":22,"dewp":12,"wdir":10,"wspd":3,"visib":"6+","altim":1021,"clouds":[],"obsTime":1781902800},"SBSM":{"icaoId":"SBSM","flightCategory":"MVFR","rawOb":"METAR SBSM 192000Z 27008KT 9999 BKN010 OVC016 14/12 Q1017","temp":14,"dewp":12,"wdir":270,"wspd":8,"visib":"6+","altim":1017,"clouds":[{"cover":"BKN","base":1000},{"cover":"OVC","base":1600}],"obsTime":1781899200},"SBSR":{"icaoId":"SBSR","flightCategory":"VFR","rawOb":"METAR SBSR 192000Z 03004KT CAVOK 28/13 Q1016","temp":28,"dewp":13,"wdir":30,"wspd":4,"visib":"6+","altim":1016,"clouds":[],"obsTime":1781899200},"SBIP":{"icaoId":"SBIP","flightCategory":"VFR","rawOb":"METAR SBIP 192000Z AUTO 34005KT CAVOK 23/12 Q1020","temp":23,"dewp":12,"wdir":340,"wspd":5,"visib":"6+","altim":1020,"clouds":[],"obsTime":1781899200},"SBKG":{"icaoId":"SBKG","flightCategory":"MVFR","rawOb":"METAR SBKG 192000Z 15008KT 9999 -RA BKN015 SCT022 22/21 Q1016","temp":22,"dewp":21,"wdir":150,"wspd":8,"visib":"6+","altim":1016,"clouds":[{"cover":"BKN","base":1500},{"cover":"SCT","base":2200}],"obsTime":1781899200},"SBTF":{"icaoId":"SBTF","flightCategory":"VFR","rawOb":"METAR SBTF 192000Z 10006KT 9999 SCT020 33/24 Q1011","temp":33,"dewp":24,"wdir":100,"wspd":6,"visib":"6+","altim":1011,"clouds":[{"cover":"SCT","base":2000}],"obsTime":1781899200},"SBTT":{"icaoId":"SBTT","flightCategory":"VFR","rawOb":"METAR SBTT 192000Z 01003KT 9999 SCT020 SCT080 26/24 Q1013","temp":26,"dewp":24,"wdir":10,"wspd":3,"visib":"6+","altim":1013,"clouds":[{"cover":"SCT","base":2000},{"cover":"SCT","base":8000}],"obsTime":1781899200},"SBBU":{"icaoId":"SBBU","flightCategory":"VFR","rawOb":"METAR SBBU 192000Z 01002KT CAVOK 27/16 Q1017","temp":27,"dewp":16,"wdir":10,"wspd":2,"visib":"6+","altim":1017,"clouds":[],"obsTime":1781899200},"SBOI":{"icaoId":"SBOI","flightCategory":"VFR","rawOb":"METAR SBOI 192000Z AUTO 14006KT 080V180 9999 -RA FEW008 24/22 Q1013","temp":24,"dewp":22,"wdir":140,"wspd":6,"visib":"6+","altim":1013,"clouds":[{"cover":"FEW","base":800}],"obsTime":1781899200},"SBUY":{"icaoId":"SBUY","flightCategory":"VFR","rawOb":"METAR SBUY 192000Z 13006KT 9999 SCT025 32/22 Q1010","temp":32,"dewp":22,"wdir":130,"wspd":6,"visib":"6+","altim":1010,"clouds":[{"cover":"SCT","base":2500}],"obsTime":1781899200},"SBVH":{"icaoId":"SBVH","flightCategory":"VFR","rawOb":"METAR SBVH 192000Z 24006KT 9999 FEW011 27/21 Q1017","temp":27,"dewp":21,"wdir":240,"wspd":6,"visib":"6+","altim":1017,"clouds":[{"cover":"FEW","base":1100}],"obsTime":1781899200},"SBBQ":{"icaoId":"SBBQ","flightCategory":"VFR","rawOb":"METAR SBBQ 192000Z 02002KT CAVOK 18/10 Q1024","temp":18,"dewp":10,"wdir":20,"wspd":2,"visib":"6+","altim":1024,"clouds":[],"obsTime":1781899200},"SBCC":{"icaoId":"SBCC","flightCategory":"VFR","rawOb":"METAR SBCC 192000Z 02006G16KT 9999 SCT040 FEW050TCU 32/18 Q1014","temp":32,"dewp":18,"wdir":20,"wspd":6,"visib":"6+","altim":1014,"clouds":[{"cover":"SCT","base":4000},{"cover":"FEW","base":5000}],"obsTime":1781899200},"SBNM":{"icaoId":"SBNM","flightCategory":"LIFR","rawOb":"METAR SBNM 192000Z AUTO 24006KT 9999 BKN003 OVC008 14/13 Q1017","temp":14,"dewp":13,"wdir":240,"wspd":6,"visib":"6+","altim":1017,"clouds":[{"cover":"BKN","base":300},{"cover":"OVC","base":800}],"obsTime":1781899200},"SBJV":{"icaoId":"SBJV","flightCategory":"VFR","rawOb":"METAR SBJV 192000Z 21003KT 9999 FEW030 19/14 Q1017","temp":19,"dewp":14,"wdir":210,"wspd":3,"visib":"6+","altim":1017,"clouds":[{"cover":"FEW","base":3000}],"obsTime":1781899200},"SBJP":{"icaoId":"SBJP","flightCategory":"VFR","rawOb":"METAR SBJP 192000Z 15010KT 9999 SCT020 FEW025TCU 26/23 Q1014","temp":26,"dewp":23,"wdir":150,"wspd":10,"visib":"6+","altim":1014,"clouds":[{"cover":"SCT","base":2000},{"cover":"FEW","base":2500}],"obsTime":1781899200},"SBPF":{"icaoId":"SBPF","flightCategory":"VFR","rawOb":"METAR SBPF 192000Z 35007KT 9999 FEW012 12/11 Q1017","temp":12,"dewp":11,"wdir":350,"wspd":7,"visib":"6+","altim":1017,"clouds":[{"cover":"FEW","base":1200}],"obsTime":1781899200},"SBAN":{"icaoId":"SBAN","flightCategory":"VFR","rawOb":"METAR SBAN 192000Z 22004KT 9999 FEW030 27/12 Q1021","temp":27,"dewp":12,"wdir":220,"wspd":4,"visib":"6+","altim":1021,"clouds":[{"cover":"FEW","base":3000}],"obsTime":1781899200},"SBLE":{"icaoId":"SBLE","flightCategory":"VFR","rawOb":"METAR SBLE 192000Z AUTO 24003KT 200V270 CAVOK 22/16 Q1019","temp":22,"dewp":16,"wdir":240,"wspd":3,"visib":"6+","altim":1019,"clouds":[],"obsTime":1781899200},"SBAF":{"icaoId":"SBAF","flightCategory":"VFR","rawOb":"METAR SBAF 192000Z 08004KT 050V120 CAVOK 25/13 Q1017","temp":25,"dewp":13,"wdir":80,"wspd":4,"visib":"6+","altim":1017,"clouds":[],"obsTime":1781899200},"SBGW":{"icaoId":"SBGW","flightCategory":"VFR","rawOb":"METAR SBGW 192000Z 36004KT 320V020 CAVOK 22/10 Q1019","temp":22,"dewp":10,"wdir":360,"wspd":4,"visib":"6+","altim":1019,"clouds":[],"obsTime":1781899200},"SBJR":{"icaoId":"SBJR","flightCategory":"VFR","rawOb":"METAR SBJR 192000Z 12005KT CAVOK 24/17 Q1017","temp":24,"dewp":17,"wdir":120,"wspd":5,"visib":"6+","altim":1017,"clouds":[],"obsTime":1781899200},"SBLS":{"icaoId":"SBLS","flightCategory":"VFR","rawOb":"METAR SBLS 192000Z 13005KT 060V130 CAVOK 21/12 Q1021","temp":21,"dewp":12,"wdir":130,"wspd":5,"visib":"6+","altim":1021,"clouds":[],"obsTime":1781899200},"SBMT":{"icaoId":"SBMT","flightCategory":"VFR","rawOb":"METAR SBMT 192000Z 35003KT CAVOK 21/11 Q1019","temp":21,"dewp":11,"wdir":350,"wspd":3,"visib":"6+","altim":1019,"clouds":[],"obsTime":1781899200},"SBST":{"icaoId":"SBST","flightCategory":"VFR","rawOb":"METAR SBST 192000Z 15005KT CAVOK 21/13 Q1015","temp":21,"dewp":13,"wdir":150,"wspd":5,"visib":"6+","altim":1015,"clouds":[],"obsTime":1781899200},"SBTA":{"icaoId":"SBTA","flightCategory":"VFR","rawOb":"METAR SBTA 192000Z 01002KT CAVOK 22/12 Q1019","temp":22,"dewp":12,"wdir":10,"wspd":2,"visib":"6+","altim":1019,"clouds":[],"obsTime":1781899200},"SBIH":{"icaoId":"SBIH","flightCategory":"VFR","rawOb":"METAR SBIH 192000Z 02004KT 9999 SCT020 FEW025TCU 33/24 Q1011","temp":33,"dewp":24,"wdir":20,"wspd":4,"visib":"6+","altim":1011,"clouds":[{"cover":"SCT","base":2000},{"cover":"FEW","base":2500}],"obsTime":1781899200}}}