{"updated":1777482760,"count":86,"data":{"SBCZ":{"icaoId":"SBCZ","flightCategory":"VFR","rawOb":"METAR SBCZ 291600Z 12002KT 9999 SCT014 29/23 Q1012","temp":29,"dewp":23,"wdir":120,"wspd":2,"visib":"6+","altim":1012,"clouds":[{"cover":"SCT","base":1400}],"obsTime":1777478400},"SBBE":{"icaoId":"SBBE","flightCategory":"MVFR","rawOb":"METAR SBBE 291600Z 34004KT 9999 VCSH FEW010 FEW020TCU BKN030 30/25 Q1010","temp":30,"dewp":25,"wdir":340,"wspd":4,"visib":"6+","altim":1010,"clouds":[{"cover":"FEW","base":1000},{"cover":"FEW","base":2000},{"cover":"BKN","base":3000}],"obsTime":1777478400},"SBBR":{"icaoId":"SBBR","flightCategory":"VFR","rawOb":"METAR SBBR 291600Z 10009KT 030V140 9999 FEW045 27/10 Q1018","temp":27,"dewp":10,"wdir":100,"wspd":9,"visib":"6+","altim":1018,"clouds":[{"cover":"FEW","base":4500}],"obsTime":1777478400},"SBBV":{"icaoId":"SBBV","flightCategory":"VFR","rawOb":"METAR SBBV 291600Z 08012KT 9999 SCT035 FEW040TCU 32/23 Q1011","temp":32,"dewp":23,"wdir":80,"wspd":12,"visib":"6+","altim":1011,"clouds":[{"cover":"SCT","base":3500},{"cover":"FEW","base":4000}],"obsTime":1777478400},"SBCB":{"icaoId":"SBCB","flightCategory":"VFR","rawOb":"METAR SBCB 291600Z 07009KT CAVOK 31/22 Q1012","temp":31,"dewp":22,"wdir":70,"wspd":9,"visib":"6+","altim":1012,"clouds":[],"obsTime":1777478400},"SBCF":{"icaoId":"SBCF","flightCategory":"VFR","rawOb":"METAR SBCF 291600Z 07008KT 040V100 9999 SCT030 27/13 Q1019","temp":27,"dewp":13,"wdir":70,"wspd":8,"visib":"6+","altim":1019,"clouds":[{"cover":"SCT","base":3000}],"obsTime":1777478400},"SBCG":{"icaoId":"SBCG","flightCategory":"VFR","rawOb":"METAR SBCG 291600Z 32012KT 9999 FEW040 30/20 Q1014","temp":30,"dewp":20,"wdir":320,"wspd":12,"visib":"6+","altim":1014,"clouds":[{"cover":"FEW","base":4000}],"obsTime":1777478400},"SBCP":{"icaoId":"SBCP","flightCategory":"VFR","rawOb":"METAR SBCP 291600Z 09014KT 9999 FEW020 32/20 Q1013","temp":32,"dewp":20,"wdir":90,"wspd":14,"visib":"6+","altim":1013,"clouds":[{"cover":"FEW","base":2000}],"obsTime":1777478400},"SBCR":{"icaoId":"SBCR","flightCategory":"MVFR","rawOb":"METAR SBCR 291600Z 31006KT 270V010 9999 BKN015 27/23 Q1012","temp":27,"dewp":23,"wdir":310,"wspd":6,"visib":"6+","altim":1012,"clouds":[{"cover":"BKN","base":1500}],"obsTime":1777478400},"SBCT":{"icaoId":"SBCT","flightCategory":"IFR","rawOb":"SPECI SBCT 291520Z VRB02KT 4000 -RA BR FEW020 OVC060 16/15 Q1019 RERA","temp":16,"dewp":15,"wdir":"VRB","wspd":2,"visib":2.49,"altim":1019,"clouds":[{"cover":"FEW","base":2000},{"cover":"OVC","base":6000}],"obsTime":1777476000},"SBAT":{"icaoId":"SBAT","flightCategory":"VFR","rawOb":"METAR SBAT 291600Z 07002KT 9999 SCT025 32/23 Q1012","temp":32,"dewp":23,"wdir":70,"wspd":2,"visib":"6+","altim":1012,"clouds":[{"cover":"SCT","base":2500}],"obsTime":1777478400},"SBEG":{"icaoId":"SBEG","flightCategory":"VFR","rawOb":"METAR SBEG 291600Z 10005KT 040V170 9999 VCSH SCT030 FEW033TCU SCT100 33/24 Q1010","temp":33,"dewp":24,"wdir":100,"wspd":5,"visib":"6+","altim":1010,"clouds":[{"cover":"SCT","base":3000},{"cover":"FEW","base":3300},{"cover":"SCT","base":10000}],"obsTime":1777478400},"SBFI":{"icaoId":"SBFI","flightCategory":"LIFR","rawOb":"METAR SBFI 291600Z 18003KT 4000 BR BKN004 OVC015 18/18 Q1013","temp":18,"dewp":18,"wdir":180,"wspd":3,"visib":2.49,"altim":1013,"clouds":[{"cover":"BKN","base":400},{"cover":"OVC","base":1500}],"obsTime":1777478400},"SBFL":{"icaoId":"SBFL","flightCategory":"MVFR","rawOb":"SPECI SBFL 291530Z 05004KT 9999 BKN015 BKN040 20/18 Q1013","temp":20,"dewp":18,"wdir":50,"wspd":4,"visib":"6+","altim":1013,"clouds":[{"cover":"BKN","base":1500},{"cover":"BKN","base":4000}],"obsTime":1777476600},"SBFZ":{"icaoId":"SBFZ","flightCategory":"MVFR","rawOb":"METAR SBFZ 291600Z 14011KT 9999 BKN025 31/24 Q1009","temp":31,"dewp":24,"wdir":140,"wspd":11,"visib":"6+","altim":1009,"clouds":[{"cover":"BKN","base":2500}],"obsTime":1777478400},"SBGL":{"icaoId":"SBGL","flightCategory":"MVFR","rawOb":"METAR SBGL 291600Z 15005KT 7000 NSC 32/22 Q1012","temp":32,"dewp":22,"wdir":150,"wspd":5,"visib":4.35,"altim":1012,"clouds":[],"obsTime":1777478400},"SBGO":{"icaoId":"SBGO","flightCategory":"VFR","rawOb":"METAR SBGO 291600Z VRB04KT CAVOK 31/16 Q1016","temp":31,"dewp":16,"wdir":"VRB","wspd":4,"visib":"6+","altim":1016,"clouds":[],"obsTime":1777478400},"SBGR":{"icaoId":"SBGR","flightCategory":"VFR","rawOb":"METAR SBGR 291600Z 28005KT 9999 SCT036 29/20 Q1017","temp":29,"dewp":20,"wdir":280,"wspd":5,"visib":"6+","altim":1017,"clouds":[{"cover":"SCT","base":3600}],"obsTime":1777478400},"SBHT":{"icaoId":"SBHT","flightCategory":"MVFR","rawOb":"METAR SBHT 291600Z 10006KT 9999 BKN030 31/24 Q1011","temp":31,"dewp":24,"wdir":100,"wspd":6,"visib":"6+","altim":1011,"clouds":[{"cover":"BKN","base":3000}],"obsTime":1777478400},"SBIL":{"icaoId":"SBIL","flightCategory":"VFR","rawOb":"METAR SBIL 291600Z 14007KT 9999 SCT020 30/24 Q1015","temp":30,"dewp":24,"wdir":140,"wspd":7,"visib":"6+","altim":1015,"clouds":[{"cover":"SCT","base":2000}],"obsTime":1777478400},"SBJU":{"icaoId":"SBJU","flightCategory":"MVFR","rawOb":"METAR SBJU 291600Z 15008KT 9999 BKN021 30/22 Q1012","temp":30,"dewp":22,"wdir":150,"wspd":8,"visib":"6+","altim":1012,"clouds":[{"cover":"BKN","base":2100}],"obsTime":1777478400},"SBKP":{"icaoId":"SBKP","flightCategory":"VFR","rawOb":"METAR SBKP 291600Z 35008KT 310V030 9999 FEW045 BKN100 29/21 Q1016","temp":29,"dewp":21,"wdir":350,"wspd":8,"visib":"6+","altim":1016,"clouds":[{"cover":"FEW","base":4500},{"cover":"BKN","base":10000}],"obsTime":1777478400},"SBLO":{"icaoId":"SBLO","flightCategory":"VFR","rawOb":"METAR SBLO 291600Z 05005KT 360V080 9999 SCT011 25/21 Q1015","temp":25,"dewp":21,"wdir":50,"wspd":5,"visib":"6+","altim":1015,"clouds":[{"cover":"SCT","base":1100}],"obsTime":1777478400},"SBMA":{"icaoId":"SBMA","flightCategory":"MVFR","rawOb":"METAR SBMA 291600Z 34004KT 9999 BKN020 31/24 Q1011","temp":31,"dewp":24,"wdir":340,"wspd":4,"visib":"6+","altim":1011,"clouds":[{"cover":"BKN","base":2000}],"obsTime":1777478400},"SBME":{"icaoId":"SBME","flightCategory":"VFR","rawOb":"METAR SBME 291600Z 01009KT CAVOK 35/20 Q1012","temp":35,"dewp":20,"wdir":10,"wspd":9,"visib":"6+","altim":1012,"clouds":[],"obsTime":1777478400},"SBMG":{"icaoId":"SBMG","flightCategory":"MVFR","rawOb":"METAR SBMG 291600Z 01014KT 9999 BKN020 27/22 Q1013","temp":27,"dewp":22,"wdir":10,"wspd":14,"visib":"6+","altim":1013,"clouds":[{"cover":"BKN","base":2000}],"obsTime":1777478400},"SBMK":{"icaoId":"SBMK","flightCategory":"VFR","rawOb":"METAR SBMK 291600Z 09009KT 9999 FEW034 29/15 Q1016","temp":29,"dewp":15,"wdir":90,"wspd":9,"visib":"6+","altim":1016,"clouds":[{"cover":"FEW","base":3400}],"obsTime":1777478400},"SBMO":{"icaoId":"SBMO","flightCategory":"VFR","rawOb":"METAR SBMO 291600Z 11011KT 070V160 9999 FEW033 BKN070 29/22 Q1012","temp":29,"dewp":22,"wdir":110,"wspd":11,"visib":"6+","altim":1012,"clouds":[{"cover":"FEW","base":3300},{"cover":"BKN","base":7000}],"obsTime":1777478400},"SBMQ":{"icaoId":"SBMQ","flightCategory":"VFR","rawOb":"METAR SBMQ 291600Z 08009KT 040V130 9999 VCSH BKN040 FEW050TCU SCT080 31/26 Q1010","temp":31,"dewp":26,"wdir":80,"wspd":9,"visib":"6+","altim":1010,"clouds":[{"cover":"BKN","base":4000},{"cover":"FEW","base":5000},{"cover":"SCT","base":8000}],"obsTime":1777478400},"SBNT":{"icaoId":"SBNT","flightCategory":"VFR","rawOb":"METAR SBNT 291600Z 01016KT 9999 FEW033 31/23 Q1010","temp":31,"dewp":23,"wdir":10,"wspd":16,"visib":"6+","altim":1010,"clouds":[{"cover":"FEW","base":3300}],"obsTime":1777478400},"SBPA":{"icaoId":"SBPA","flightCategory":"VFR","rawOb":"METAR SBPA 291600Z 09006KT CAVOK 21/09 Q1014","temp":21,"dewp":9,"wdir":90,"wspd":6,"visib":"6+","altim":1014,"clouds":[],"obsTime":1777478400},"SBPJ":{"icaoId":"SBPJ","flightCategory":"VFR","rawOb":"METAR SBPJ 291600Z 26005KT 9999 BKN040 FEW045TCU 30/24 Q1011","temp":30,"dewp":24,"wdir":260,"wspd":5,"visib":"6+","altim":1011,"clouds":[{"cover":"BKN","base":4000},{"cover":"FEW","base":4500}],"obsTime":1777478400},"SBPV":{"icaoId":"SBPV","flightCategory":"VFR","rawOb":"METAR SBPV 291600Z 20003KT 9999 FEW030 30/27 Q1011","temp":30,"dewp":27,"wdir":200,"wspd":3,"visib":"6+","altim":1011,"clouds":[{"cover":"FEW","base":3000}],"obsTime":1777478400},"SBRB":{"icaoId":"SBRB","flightCategory":"MVFR","rawOb":"METAR SBRB 291600Z 12002KT 9999 BKN015 SCT100 29/25 Q1013","temp":29,"dewp":25,"wdir":120,"wspd":2,"visib":"6+","altim":1013,"clouds":[{"cover":"BKN","base":1500},{"cover":"SCT","base":10000}],"obsTime":1777478400},"SBRF":{"icaoId":"SBRF","flightCategory":"VFR","rawOb":"METAR SBRF 291600Z 14012KT 9999 FEW025 30/23 Q1011","temp":30,"dewp":23,"wdir":140,"wspd":12,"visib":"6+","altim":1011,"clouds":[{"cover":"FEW","base":2500}],"obsTime":1777478400},"SBSG":{"icaoId":"SBSG","flightCategory":"VFR","rawOb":"METAR SBSG 291600Z 14008KT 080V180 9999 SCT033 31/23 Q1010","temp":31,"dewp":23,"wdir":140,"wspd":8,"visib":"6+","altim":1010,"clouds":[{"cover":"SCT","base":3300}],"obsTime":1777478400},"SBSL":{"icaoId":"SBSL","flightCategory":"MVFR","rawOb":"METAR SBSL 291600Z 02007KT 9999 BKN025 30/25 Q1009","temp":30,"dewp":25,"wdir":20,"wspd":7,"visib":"6+","altim":1009,"clouds":[{"cover":"BKN","base":2500}],"obsTime":1777478400},"SBSN":{"icaoId":"SBSN","flightCategory":"VFR","rawOb":"METAR SBSN 291600Z 08011KT 9999 SCT020 FEW025TCU 30/24 Q1010","temp":30,"dewp":24,"wdir":80,"wspd":11,"visib":"6+","altim":1010,"clouds":[{"cover":"SCT","base":2000},{"cover":"FEW","base":2500}],"obsTime":1777478400},"SBSP":{"icaoId":"SBSP","flightCategory":"VFR","rawOb":"METAR SBSP 291600Z 30008KT 270V330 9999 FEW033 SCT100 29/18 Q1018","temp":29,"dewp":18,"wdir":300,"wspd":8,"visib":"6+","altim":1018,"clouds":[{"cover":"FEW","base":3300},{"cover":"SCT","base":10000}],"obsTime":1777478400},"SBSV":{"icaoId":"SBSV","flightCategory":"VFR","rawOb":"METAR SBSV 291600Z 09013KT 9999 FEW021 30/22 Q1013","temp":30,"dewp":22,"wdir":90,"wspd":13,"visib":"6+","altim":1013,"clouds":[{"cover":"FEW","base":2100}],"obsTime":1777478400},"SBTE":{"icaoId":"SBTE","flightCategory":"MVFR","rawOb":"METAR SBTE 291600Z 12007KT 9999 BKN020 31/24 Q1009","temp":31,"dewp":24,"wdir":120,"wspd":7,"visib":"6+","altim":1009,"clouds":[{"cover":"BKN","base":2000}],"obsTime":1777478400},"SBUL":{"icaoId":"SBUL","flightCategory":"VFR","rawOb":"METAR SBUL 291600Z 07009KT 9999 FEW045 27/16 Q1018","temp":27,"dewp":16,"wdir":70,"wspd":9,"visib":"6+","altim":1018,"clouds":[{"cover":"FEW","base":4500}],"obsTime":1777478400},"SBUR":{"icaoId":"SBUR","flightCategory":"VFR","rawOb":"METAR SBUR 291600Z 02007KT 9999 SCT045 30/15 Q1017","temp":30,"dewp":15,"wdir":20,"wspd":7,"visib":"6+","altim":1017,"clouds":[{"cover":"SCT","base":4500}],"obsTime":1777478400},"SBVT":{"icaoId":"SBVT","flightCategory":"VFR","rawOb":"METAR SBVT 291600Z 06012KT 9999 FEW040 SCT100 28/22 Q1015","temp":28,"dewp":22,"wdir":60,"wspd":12,"visib":"6+","altim":1015,"clouds":[{"cover":"FEW","base":4000},{"cover":"SCT","base":10000}],"obsTime":1777478400},"SBOI":{"icaoId":"SBOI","flightCategory":"MVFR","rawOb":"METAR SBOI 291600Z AUTO 06007KT 010V110 9999 -RA BKN021 29/25 Q1011","temp":29,"dewp":25,"wdir":60,"wspd":7,"visib":"6+","altim":1011,"clouds":[{"cover":"BKN","base":2100}],"obsTime":1777478400},"SBCJ":{"icaoId":"SBCJ","flightCategory":"MVFR","rawOb":"METAR SBCJ 291600Z 09007KT 9999 BKN017 28/22 Q1015","temp":28,"dewp":22,"wdir":90,"wspd":7,"visib":"6+","altim":1015,"clouds":[{"cover":"BKN","base":1700}],"obsTime":1777478400},"SBBQ":{"icaoId":"SBBQ","flightCategory":"VFR","rawOb":"METAR SBBQ 291600Z 03005KT 9999 SCT030 25/16 Q1021","temp":25,"dewp":16,"wdir":30,"wspd":5,"visib":"6+","altim":1021,"clouds":[{"cover":"SCT","base":3000}],"obsTime":1777478400},"SBPB":{"icaoId":"SBPB","flightCategory":"VFR","rawOb":"METAR SBPB 291600Z 02007KT 9999 SCT016 FEW025TCU 31/25 Q1009","temp":31,"dewp":25,"wdir":20,"wspd":7,"visib":"6+","altim":1009,"clouds":[{"cover":"SCT","base":1600},{"cover":"FEW","base":2500}],"obsTime":1777478400},"SBPL":{"icaoId":"SBPL","flightCategory":"VFR","rawOb":"METAR SBPL 291600Z 14006KT 9999 SCT020 BKN070 29/22 Q1013","temp":29,"dewp":22,"wdir":140,"wspd":6,"visib":"6+","altim":1013,"clouds":[{"cover":"SCT","base":2000},{"cover":"BKN","base":7000}],"obsTime":1777478400},"SBCO":{"icaoId":"SBCO","flightCategory":"VFR","rawOb":"METAR SBCO 291600Z 10006KT CAVOK 21/07 Q1015","temp":21,"dewp":7,"wdir":100,"wspd":6,"visib":"6+","altim":1015,"clouds":[],"obsTime":1777478400},"SBBU":{"icaoId":"SBBU","flightCategory":"VFR","rawOb":"METAR SBBU 291600Z 01002KT 9999 FEW030 30/21 Q1015","temp":30,"dewp":21,"wdir":10,"wspd":2,"visib":"6+","altim":1015,"clouds":[{"cover":"FEW","base":3000}],"obsTime":1777478400},"SBPP":{"icaoId":"SBPP","flightCategory":"MVFR","rawOb":"METAR SBPP 291600Z 35009KT 9999 BKN015 26/20 Q1014","temp":26,"dewp":20,"wdir":350,"wspd":9,"visib":"6+","altim":1014,"clouds":[{"cover":"BKN","base":1500}],"obsTime":1777478400},"SBDN":{"icaoId":"SBDN","flightCategory":"VFR","rawOb":"METAR SBDN 291600Z 04005KT 9999 BKN049 BKN082 28/21 Q1014","temp":28,"dewp":21,"wdir":40,"wspd":5,"visib":"6+","altim":1014,"clouds":[{"cover":"BKN","base":4900},{"cover":"BKN","base":8200}],"obsTime":1777478400},"SBPS":{"icaoId":"SBPS","flightCategory":"VFR","rawOb":"METAR SBPS 291600Z 12007KT 9999 SCT020 29/24 Q1015","temp":29,"dewp":24,"wdir":120,"wspd":7,"visib":"6+","altim":1015,"clouds":[{"cover":"SCT","base":2000}],"obsTime":1777478400},"SBSC":{"icaoId":"SBSC","flightCategory":"VFR","rawOb":"METAR SBSC 291600Z 21007KT 9999 FEW012 28/24 Q1012","temp":28,"dewp":24,"wdir":210,"wspd":7,"visib":"6+","altim":1012,"clouds":[{"cover":"FEW","base":1200}],"obsTime":1777478400},"SBBH":{"icaoId":"SBBH","flightCategory":"VFR","rawOb":"METAR SBBH 291600Z 08006KT 9999 SCT040 27/16 Q1018","temp":27,"dewp":16,"wdir":80,"wspd":6,"visib":"6+","altim":1018,"clouds":[{"cover":"SCT","base":4000}],"obsTime":1777478400},"SBSJ":{"icaoId":"SBSJ","flightCategory":"VFR","rawOb":"METAR SBSJ 291600Z 32004KT CAVOK 28/21 Q1016","temp":28,"dewp":21,"wdir":320,"wspd":4,"visib":"6+","altim":1016,"clouds":[],"obsTime":1777478400},"SBES":{"icaoId":"SBES","flightCategory":"VFR","rawOb":"METAR SBES 291600Z VRB09KT CAVOK 32/// Q1012","temp":null,"dewp":null,"wdir":"VRB","wspd":9,"visib":"6+","altim":1012,"clouds":[],"obsTime":1777478400},"SBCA":{"icaoId":"SBCA","flightCategory":"LIFR","rawOb":"METAR SBCA 291600Z 29005KT 3000 -TSRA BR BKN002 FEW040CB OVC070 18/18 Q1015","temp":18,"dewp":18,"wdir":290,"wspd":5,"visib":1.86,"altim":1015,"clouds":[{"cover":"BKN","base":200},{"cover":"FEW","base":4000},{"cover":"OVC","base":7000}],"obsTime":1777478400},"SBSM":{"icaoId":"SBSM","flightCategory":"VFR","rawOb":"METAR SBSM 291600Z 10006KT CAVOK 21/08 Q1014","temp":21,"dewp":8,"wdir":100,"wspd":6,"visib":"6+","altim":1014,"clouds":[],"obsTime":1777478400},"SBSR":{"icaoId":"SBSR","flightCategory":"VFR","rawOb":"METAR SBSR 291600Z 04009KT 9999 SCT035 32/15 Q1014","temp":32,"dewp":15,"wdir":40,"wspd":9,"visib":"6+","altim":1014,"clouds":[{"cover":"SCT","base":3500}],"obsTime":1777478400},"SBGM":{"icaoId":"SBGM","flightCategory":"MVFR","rawOb":"METAR SBGM 291600Z VRB02KT 9999 BKN010 27/21 Q1012","temp":27,"dewp":21,"wdir":"VRB","wspd":2,"visib":"6+","altim":1012,"clouds":[{"cover":"BKN","base":1000}],"obsTime":1777478400},"SBAU":{"icaoId":"SBAU","flightCategory":"VFR","rawOb":"METAR SBAU 291600Z 03008KT 9999 SCT040 34/20 Q1013","temp":34,"dewp":20,"wdir":30,"wspd":8,"visib":"6+","altim":1013,"clouds":[{"cover":"SCT","base":4000}],"obsTime":1777478400},"SBIP":{"icaoId":"SBIP","flightCategory":"VFR","rawOb":"METAR SBIP 291600Z AUTO 01007KT 320V060 9999 FEW042 31/18 Q1016","temp":31,"dewp":18,"wdir":10,"wspd":7,"visib":"6+","altim":1016,"clouds":[{"cover":"FEW","base":4200}],"obsTime":1777478400},"SBTF":{"icaoId":"SBTF","flightCategory":"VFR","rawOb":"METAR SBTF 291600Z 02002KT 9999 FEW006 SCT025 BKN070 27/24 Q1012","temp":27,"dewp":24,"wdir":20,"wspd":2,"visib":"6+","altim":1012,"clouds":[{"cover":"FEW","base":600},{"cover":"SCT","base":2500},{"cover":"BKN","base":7000}],"obsTime":1777478400},"SBCC":{"icaoId":"SBCC","flightCategory":"VFR","rawOb":"METAR SBCC 291600Z 04006KT 010V100 9999 SCT030 FEW035TCU 29/21 Q1013","temp":29,"dewp":21,"wdir":40,"wspd":6,"visib":"6+","altim":1013,"clouds":[{"cover":"SCT","base":3000},{"cover":"FEW","base":3500}],"obsTime":1777478400},"SBTT":{"icaoId":"SBTT","flightCategory":"VFR","rawOb":"METAR SBTT 291600Z 19003KT 9999 FEW010 BKN100 29/23 Q1012","temp":29,"dewp":23,"wdir":190,"wspd":3,"visib":"6+","altim":1012,"clouds":[{"cover":"FEW","base":1000},{"cover":"BKN","base":10000}],"obsTime":1777478400},"SBKG":{"icaoId":"SBKG","flightCategory":"MVFR","rawOb":"METAR SBKG 291600Z VRB04KT 9999 SCT015 BKN020 26/21 Q1013","temp":26,"dewp":21,"wdir":"VRB","wspd":4,"visib":"6+","altim":1013,"clouds":[{"cover":"SCT","base":1500},{"cover":"BKN","base":2000}],"obsTime":1777478400},"SBUY":{"icaoId":"SBUY","flightCategory":"VFR","rawOb":"METAR SBUY 291600Z 19002KT 9999 SCT018 SCT100 30/25 Q1011","temp":30,"dewp":25,"wdir":190,"wspd":2,"visib":"6+","altim":1011,"clouds":[{"cover":"SCT","base":1800},{"cover":"SCT","base":10000}],"obsTime":1777478400},"SBVH":{"icaoId":"SBVH","flightCategory":"VFR","rawOb":"METAR SBVH 291600Z 09003KT 9999 SCT025 SCT070 28/23 Q1014","temp":28,"dewp":23,"wdir":90,"wspd":3,"visib":"6+","altim":1014,"clouds":[{"cover":"SCT","base":2500},{"cover":"SCT","base":7000}],"obsTime":1777478400},"SBAR":{"icaoId":"SBAR","flightCategory":"VFR","rawOb":"METAR SBAR 291600Z 11011KT 9999 FEW028 30/23 Q1012","temp":30,"dewp":23,"wdir":110,"wspd":11,"visib":"6+","altim":1012,"clouds":[{"cover":"FEW","base":2800}],"obsTime":1777478400},"SBAX":{"icaoId":"SBAX","flightCategory":"VFR","rawOb":"METAR SBAX 291600Z 04005KT 9999 SCT030 28/17 Q1018","temp":28,"dewp":17,"wdir":40,"wspd":5,"visib":"6+","altim":1018,"clouds":[{"cover":"SCT","base":3000}],"obsTime":1777478400},"SBTD":{"icaoId":"SBTD","flightCategory":"IFR","rawOb":"METAR SBTD 291600Z /////KT 5000 -TSRA BR SCT001 BKN005 FEW040CB 19/19 Q1014","temp":19,"dewp":19,"wdir":null,"wspd":null,"visib":3.11,"altim":1014,"clouds":[{"cover":"SCT","base":100},{"cover":"BKN","base":500},{"cover":"FEW","base":4000}],"obsTime":1777478400},"SBJP":{"icaoId":"SBJP","flightCategory":"VFR","rawOb":"METAR SBJP 291600Z 12012KT 090V160 9999 SCT030 SCT070 30/23 Q1011","temp":30,"dewp":23,"wdir":120,"wspd":12,"visib":"6+","altim":1011,"clouds":[{"cover":"SCT","base":3000},{"cover":"SCT","base":7000}],"obsTime":1777478400},"SBLE":{"icaoId":"SBLE","flightCategory":"VFR","rawOb":"METAR SBLE 291600Z AUTO 11005KT 060V180 9999 FEW010 SCT042 25/22 Q1016","temp":25,"dewp":22,"wdir":110,"wspd":5,"visib":"6+","altim":1016,"clouds":[{"cover":"FEW","base":1000},{"cover":"SCT","base":4200}],"obsTime":1777478400},"SBIH":{"icaoId":"SBIH","flightCategory":"VFR","rawOb":"METAR SBIH 291600Z 07005KT 9999 TS SCT018 FEW025CB 33/25 Q1009","temp":33,"dewp":25,"wdir":70,"wspd":5,"visib":"6+","altim":1009,"clouds":[{"cover":"SCT","base":1800},{"cover":"FEW","base":2500}],"obsTime":1777478400},"SBAF":{"icaoId":"SBAF","flightCategory":"MVFR","rawOb":"METAR SBAF 291600Z 15004KT 090V190 8000 FEW030 33/23 Q1012","temp":33,"dewp":23,"wdir":150,"wspd":4,"visib":4.97,"altim":1012,"clouds":[{"cover":"FEW","base":3000}],"obsTime":1777478400},"SBGW":{"icaoId":"SBGW","flightCategory":"VFR","rawOb":"METAR SBGW 291600Z VRB02KT 9999 FEW025 30/18 Q1015","temp":30,"dewp":18,"wdir":"VRB","wspd":2,"visib":"6+","altim":1015,"clouds":[{"cover":"FEW","base":2500}],"obsTime":1777478400},"SBJR":{"icaoId":"SBJR","flightCategory":"MVFR","rawOb":"METAR SBJR 291600Z 18007KT 6000 FEW015 31/24 Q1012","temp":31,"dewp":24,"wdir":180,"wspd":7,"visib":3.73,"altim":1012,"clouds":[{"cover":"FEW","base":1500}],"obsTime":1777478400},"SBLS":{"icaoId":"SBLS","flightCategory":"VFR","rawOb":"METAR SBLS 291600Z VRB04KT 9999 BKN045 27/14 Q1018","temp":27,"dewp":14,"wdir":"VRB","wspd":4,"visib":"6+","altim":1018,"clouds":[{"cover":"BKN","base":4500}],"obsTime":1777478400},"SBMT":{"icaoId":"SBMT","flightCategory":"VFR","rawOb":"METAR SBMT 291600Z 30006KT 250V340 9999 FEW040 28/19 Q1016","temp":28,"dewp":19,"wdir":300,"wspd":6,"visib":"6+","altim":1016,"clouds":[{"cover":"FEW","base":4000}],"obsTime":1777478400},"SBTA":{"icaoId":"SBTA","flightCategory":"VFR","rawOb":"METAR SBTA 291600Z VRB03KT 9999 FEW025 29/19 Q1015","temp":29,"dewp":19,"wdir":"VRB","wspd":3,"visib":"6+","altim":1015,"clouds":[{"cover":"FEW","base":2500}],"obsTime":1777478400},"SBST":{"icaoId":"SBST","flightCategory":"MVFR","rawOb":"METAR SBST 291600Z /////KT 9999 FEW015 OVC021 ///// Q1014","temp":null,"dewp":null,"wdir":null,"wspd":null,"visib":"6+","altim":1014,"clouds":[{"cover":"FEW","base":1500},{"cover":"OVC","base":2100}],"obsTime":1777478400},"SBJV":{"icaoId":"SBJV","flightCategory":"VFR","rawOb":"METAR SBJV 291600Z 31006KT 280V340 9000 -RA SCT005 BKN050 BKN100 21/20 Q1014","temp":21,"dewp":20,"wdir":310,"wspd":6,"visib":5.59,"altim":1014,"clouds":[{"cover":"SCT","base":500},{"cover":"BKN","base":5000},{"cover":"BKN","base":10000}],"obsTime":1777478400},"SBAN":{"icaoId":"SBAN","flightCategory":"VFR","rawOb":"METAR SBAN 291600Z 14007KT 060V210 9999 FEW045 27/12 Q1019","temp":27,"dewp":12,"wdir":140,"wspd":7,"visib":"6+","altim":1019,"clouds":[{"cover":"FEW","base":4500}],"obsTime":1777478400},"SBNM":{"icaoId":"SBNM","flightCategory":"VFR","rawOb":"METAR SBNM 291600Z 24004KT 9999 FEW025 24/15 Q1013","temp":24,"dewp":15,"wdir":240,"wspd":4,"visib":"6+","altim":1013,"clouds":[{"cover":"FEW","base":2500}],"obsTime":1777478400}}}