{"updated":1774826433,"count":74,"data":{"SBCG":{"icaoId":"SBCG","flightCategory":"VFR","rawOb":"METAR SBCG 292200Z 10007KT CAVOK 29/17 Q1015","temp":29,"dewp":17,"wdir":100,"wspd":7,"visib":"6+","altim":1015,"clouds":[],"obsTime":1774821600},"SBFL":{"icaoId":"SBFL","flightCategory":"VFR","rawOb":"METAR SBFL 292200Z 36005KT 9999 FEW040 28/23 Q1015","temp":28,"dewp":23,"wdir":360,"wspd":5,"visib":"6+","altim":1015,"clouds":[{"cover":"FEW","base":4000}],"obsTime":1774821600},"SBMG":{"icaoId":"SBMG","flightCategory":"VFR","rawOb":"METAR SBMG 292200Z 20005KT CAVOK 29/17 Q1016","temp":29,"dewp":17,"wdir":200,"wspd":5,"visib":"6+","altim":1016,"clouds":[],"obsTime":1774821600},"SBBR":{"icaoId":"SBBR","flightCategory":"VFR","rawOb":"METAR SBBR 292200Z 14007KT 9999 FEW045 SCT070 24/16 Q1018","temp":24,"dewp":16,"wdir":140,"wspd":7,"visib":"6+","altim":1018,"clouds":[{"cover":"FEW","base":4500},{"cover":"SCT","base":7000}],"obsTime":1774821600},"SBMK":{"icaoId":"SBMK","flightCategory":"VFR","rawOb":"METAR SBMK 292200Z 02002KT CAVOK 23/17 Q1016","temp":23,"dewp":17,"wdir":20,"wspd":2,"visib":"6+","altim":1016,"clouds":[],"obsTime":1774821600},"SBFZ":{"icaoId":"SBFZ","flightCategory":"VFR","rawOb":"METAR SBFZ 292200Z 02004KT 9999 FEW020 BKN100 28/23 Q1010","temp":28,"dewp":23,"wdir":20,"wspd":4,"visib":"6+","altim":1010,"clouds":[{"cover":"FEW","base":2000},{"cover":"BKN","base":10000}],"obsTime":1774821600},"SBMA":{"icaoId":"SBMA","flightCategory":"VFR","rawOb":"METAR SBMA 292200Z 00000KT 9999 SCT016 FEW020TCU BKN090 26/24 Q1010","temp":26,"dewp":24,"wdir":0,"wspd":0,"visib":"6+","altim":1010,"clouds":[{"cover":"SCT","base":1600},{"cover":"FEW","base":2000},{"cover":"BKN","base":9000}],"obsTime":1774821600},"SBME":{"icaoId":"SBME","flightCategory":"VFR","rawOb":"METAR SBME 292200Z 16002KT 9999 FEW040 26/23 Q1016","temp":26,"dewp":23,"wdir":160,"wspd":2,"visib":"6+","altim":1016,"clouds":[{"cover":"FEW","base":4000}],"obsTime":1774821600},"SBMO":{"icaoId":"SBMO","flightCategory":"IFR","rawOb":"METAR SBMO 292200Z 12008KT 4000 -RA BR SCT005 BKN010 OVC050 24/24 Q1012","temp":24,"dewp":24,"wdir":120,"wspd":8,"visib":2.49,"altim":1012,"clouds":[{"cover":"SCT","base":500},{"cover":"BKN","base":1000},{"cover":"OVC","base":5000}],"obsTime":1774821600},"SBMQ":{"icaoId":"SBMQ","flightCategory":"VFR","rawOb":"METAR SBMQ 292200Z 09006KT 050V150 9999 VCSH SCT021 BKN050 28/26 Q1010","temp":28,"dewp":26,"wdir":90,"wspd":6,"visib":"6+","altim":1010,"clouds":[{"cover":"SCT","base":2100},{"cover":"BKN","base":5000}],"obsTime":1774821600},"SBCB":{"icaoId":"SBCB","flightCategory":"VFR","rawOb":"METAR SBCB 292200Z 10003KT CAVOK 26/22 Q1016","temp":26,"dewp":22,"wdir":100,"wspd":3,"visib":"6+","altim":1016,"clouds":[],"obsTime":1774821600},"SBGL":{"icaoId":"SBGL","flightCategory":"VFR","rawOb":"METAR SBGL 292200Z 15012KT CAVOK 26/22 Q1016","temp":26,"dewp":22,"wdir":150,"wspd":12,"visib":"6+","altim":1016,"clouds":[],"obsTime":1774821600},"SBNT":{"icaoId":"SBNT","flightCategory":"VFR","rawOb":"METAR SBNT 292200Z 13005KT CAVOK 28/23 Q1010","temp":28,"dewp":23,"wdir":130,"wspd":5,"visib":"6+","altim":1010,"clouds":[],"obsTime":1774821600},"SBCT":{"icaoId":"SBCT","flightCategory":"VFR","rawOb":"METAR SBCT 292200Z 10005KT CAVOK 23/19 Q1020","temp":23,"dewp":19,"wdir":100,"wspd":5,"visib":"6+","altim":1020,"clouds":[],"obsTime":1774821600},"SBPA":{"icaoId":"SBPA","flightCategory":"VFR","rawOb":"METAR SBPA 292200Z 13009KT 9999 FEW015 28/23 Q1015","temp":28,"dewp":23,"wdir":130,"wspd":9,"visib":"6+","altim":1015,"clouds":[{"cover":"FEW","base":1500}],"obsTime":1774821600},"SBGO":{"icaoId":"SBGO","flightCategory":"VFR","rawOb":"METAR SBGO 292200Z 14005KT CAVOK 27/18 Q1016","temp":27,"dewp":18,"wdir":140,"wspd":5,"visib":"6+","altim":1016,"clouds":[],"obsTime":1774821600},"SBPJ":{"icaoId":"SBPJ","flightCategory":"VFR","rawOb":"METAR SBPJ 292200Z 18004KT 9999 FEW035TCU SCT050 31/21 Q1010","temp":31,"dewp":21,"wdir":180,"wspd":4,"visib":"6+","altim":1010,"clouds":[{"cover":"FEW","base":3500},{"cover":"SCT","base":5000}],"obsTime":1774821600},"SBPV":{"icaoId":"SBPV","flightCategory":"MVFR","rawOb":"METAR SBPV 292200Z 00000KT 8000 -RA SCT007 BKN030 24/23 Q1009","temp":24,"dewp":23,"wdir":0,"wspd":0,"visib":4.97,"altim":1009,"clouds":[{"cover":"SCT","base":700},{"cover":"BKN","base":3000}],"obsTime":1774821600},"SBGR":{"icaoId":"SBGR","flightCategory":"MVFR","rawOb":"METAR SBGR 292200Z 17007KT 9999 BKN017 24/20 Q1019","temp":24,"dewp":20,"wdir":170,"wspd":7,"visib":"6+","altim":1019,"clouds":[{"cover":"BKN","base":1700}],"obsTime":1774821600},"SBBE":{"icaoId":"SBBE","flightCategory":"VFR","rawOb":"METAR SBBE 292200Z 06002KT 9999 -RA SCT012 BKN080 25/25 Q1011 RETSRA","temp":25,"dewp":25,"wdir":60,"wspd":2,"visib":"6+","altim":1011,"clouds":[{"cover":"SCT","base":1200},{"cover":"BKN","base":8000}],"obsTime":1774821600},"SBRB":{"icaoId":"SBRB","flightCategory":"MVFR","rawOb":"METAR SBRB 292200Z 01004KT 9999 VCSH BKN028 FEW030TCU SCT100 26/24 Q1010","temp":26,"dewp":24,"wdir":10,"wspd":4,"visib":"6+","altim":1010,"clouds":[{"cover":"BKN","base":2800},{"cover":"FEW","base":3000},{"cover":"SCT","base":10000}],"obsTime":1774821600},"SBCZ":{"icaoId":"SBCZ","flightCategory":"VFR","rawOb":"METAR SBCZ 292200Z 25005KT 9999 VCSH FEW012 SCT025 FEW025TCU BKN080 24/23 Q1011","temp":24,"dewp":23,"wdir":250,"wspd":5,"visib":"6+","altim":1011,"clouds":[{"cover":"FEW","base":1200},{"cover":"SCT","base":2500},{"cover":"FEW","base":2500},{"cover":"BKN","base":8000}],"obsTime":1774821600},"SBRF":{"icaoId":"SBRF","flightCategory":"VFR","rawOb":"METAR SBRF 292200Z 15011KT 9999 SCT018 BKN100 28/24 Q1011","temp":28,"dewp":24,"wdir":150,"wspd":11,"visib":"6+","altim":1011,"clouds":[{"cover":"SCT","base":1800},{"cover":"BKN","base":10000}],"obsTime":1774821600},"SBIL":{"icaoId":"SBIL","flightCategory":"VFR","rawOb":"METAR SBIL 292200Z 21004KT 9999 SCT018 FEW023TCU BKN070 27/24 Q1013","temp":27,"dewp":24,"wdir":210,"wspd":4,"visib":"6+","altim":1013,"clouds":[{"cover":"SCT","base":1800},{"cover":"FEW","base":2300},{"cover":"BKN","base":7000}],"obsTime":1774821600},"SBSG":{"icaoId":"SBSG","flightCategory":"VFR","rawOb":"METAR SBSG 292200Z 11004KT 9999 FEW023 27/23 Q1010","temp":27,"dewp":23,"wdir":110,"wspd":4,"visib":"6+","altim":1010,"clouds":[{"cover":"FEW","base":2300}],"obsTime":1774821600},"SBCF":{"icaoId":"SBCF","flightCategory":"VFR","rawOb":"METAR SBCF 292200Z 07006KT 9999 FEW040 SCT100 24/17 Q1019","temp":24,"dewp":17,"wdir":70,"wspd":6,"visib":"6+","altim":1019,"clouds":[{"cover":"FEW","base":4000},{"cover":"SCT","base":10000}],"obsTime":1774821600},"SBSL":{"icaoId":"SBSL","flightCategory":"VFR","rawOb":"METAR SBSL 292200Z 02005KT 9999 FEW021 SCT080 26/24 Q1010","temp":26,"dewp":24,"wdir":20,"wspd":5,"visib":"6+","altim":1010,"clouds":[{"cover":"FEW","base":2100},{"cover":"SCT","base":8000}],"obsTime":1774821600},"SBJU":{"icaoId":"SBJU","flightCategory":"VFR","rawOb":"METAR SBJU 292200Z 00000KT 9999 SCT022 28/22 Q1012","temp":28,"dewp":22,"wdir":0,"wspd":0,"visib":"6+","altim":1012,"clouds":[{"cover":"SCT","base":2200}],"obsTime":1774821600},"SBSN":{"icaoId":"SBSN","flightCategory":"VFR","rawOb":"METAR SBSN 292200Z 17004KT 9999 TS VCSH SCT017 FEW023CB BKN080 26/25 Q1010","temp":26,"dewp":25,"wdir":170,"wspd":4,"visib":"6+","altim":1010,"clouds":[{"cover":"SCT","base":1700},{"cover":"FEW","base":2300},{"cover":"BKN","base":8000}],"obsTime":1774821600},"SBEG":{"icaoId":"SBEG","flightCategory":"VFR","rawOb":"METAR SBEG 292200Z 26002KT 9999 FEW020 SCT100 26/24 Q1009","temp":26,"dewp":24,"wdir":260,"wspd":2,"visib":"6+","altim":1009,"clouds":[{"cover":"FEW","base":2000},{"cover":"SCT","base":10000}],"obsTime":1774821600},"SBSP":{"icaoId":"SBSP","flightCategory":"VFR","rawOb":"METAR SBSP 292200Z 17010KT CAVOK 22/19 Q1021","temp":22,"dewp":19,"wdir":170,"wspd":10,"visib":"6+","altim":1021,"clouds":[],"obsTime":1774821600},"SBKP":{"icaoId":"SBKP","flightCategory":"VFR","rawOb":"METAR SBKP 292200Z 24005KT CAVOK 29/17 Q1017","temp":29,"dewp":17,"wdir":240,"wspd":5,"visib":"6+","altim":1017,"clouds":[],"obsTime":1774821600},"SBSV":{"icaoId":"SBSV","flightCategory":"MVFR","rawOb":"METAR SBSV 292200Z 12005KT 090V150 9999 BKN021 FEW023TCU 27/23 Q1012","temp":27,"dewp":23,"wdir":120,"wspd":5,"visib":"6+","altim":1012,"clouds":[{"cover":"BKN","base":2100},{"cover":"FEW","base":2300}],"obsTime":1774821600},"SBBV":{"icaoId":"SBBV","flightCategory":"VFR","rawOb":"METAR SBBV 292200Z 18005KT 9999 FEW040 FEW045TCU BKN070 33/22 Q1007","temp":33,"dewp":22,"wdir":180,"wspd":5,"visib":"6+","altim":1007,"clouds":[{"cover":"FEW","base":4000},{"cover":"FEW","base":4500},{"cover":"BKN","base":7000}],"obsTime":1774821600},"SBTE":{"icaoId":"SBTE","flightCategory":"VFR","rawOb":"METAR SBTE 292200Z 34004KT 9999 FEW025TCU BKN090 27/24 Q1010","temp":27,"dewp":24,"wdir":340,"wspd":4,"visib":"6+","altim":1010,"clouds":[{"cover":"FEW","base":2500},{"cover":"BKN","base":9000}],"obsTime":1774821600},"SBLO":{"icaoId":"SBLO","flightCategory":"VFR","rawOb":"METAR SBLO 292200Z 11003KT 9999 FEW035 29/18 Q1017","temp":29,"dewp":18,"wdir":110,"wspd":3,"visib":"6+","altim":1017,"clouds":[{"cover":"FEW","base":3500}],"obsTime":1774821600},"SBUL":{"icaoId":"SBUL","flightCategory":"VFR","rawOb":"METAR SBUL 292200Z 09005KT CAVOK 26/17 Q1019","temp":26,"dewp":17,"wdir":90,"wspd":5,"visib":"6+","altim":1019,"clouds":[],"obsTime":1774821600},"SBFI":{"icaoId":"SBFI","flightCategory":"VFR","rawOb":"METAR SBFI 292200Z 24002KT CAVOK 31/22 Q1014","temp":31,"dewp":22,"wdir":240,"wspd":2,"visib":"6+","altim":1014,"clouds":[],"obsTime":1774821600},"SBUR":{"icaoId":"SBUR","flightCategory":"VFR","rawOb":"METAR SBUR 292200Z 15006KT CAVOK 26/17 Q1017","temp":26,"dewp":17,"wdir":150,"wspd":6,"visib":"6+","altim":1017,"clouds":[],"obsTime":1774821600},"SBVT":{"icaoId":"SBVT","flightCategory":"VFR","rawOb":"METAR SBVT 292200Z 19006KT 9999 FEW020 SCT070 25/22 Q1015","temp":25,"dewp":22,"wdir":190,"wspd":6,"visib":"6+","altim":1015,"clouds":[{"cover":"FEW","base":2000},{"cover":"SCT","base":7000}],"obsTime":1774821600},"SBCP":{"icaoId":"SBCP","flightCategory":"VFR","rawOb":"METAR SBCP 292200Z 11004KT 9999 FEW020 24/22 Q1016","temp":24,"dewp":22,"wdir":110,"wspd":4,"visib":"6+","altim":1016,"clouds":[{"cover":"FEW","base":2000}],"obsTime":1774821600},"SBOI":{"icaoId":"SBOI","flightCategory":"VFR","rawOb":"METAR SBOI 292200Z AUTO VRB02KT 9999 FEW024 BKN031 26/25 Q1010","temp":26,"dewp":25,"wdir":"VRB","wspd":2,"visib":"6+","altim":1010,"clouds":[{"cover":"FEW","base":2400},{"cover":"BKN","base":3100}],"obsTime":1774821600},"SBTT":{"icaoId":"SBTT","flightCategory":"VFR","rawOb":"METAR SBTT 292200Z 11005KT 9999 SCT020 FEW027TCU 28/23 Q1008","temp":28,"dewp":23,"wdir":110,"wspd":5,"visib":"6+","altim":1008,"clouds":[{"cover":"SCT","base":2000},{"cover":"FEW","base":2700}],"obsTime":1774821600},"SBBH":{"icaoId":"SBBH","flightCategory":"VFR","rawOb":"METAR SBBH 292200Z 03005KT 9999 FEW045 25/17 Q1018","temp":25,"dewp":17,"wdir":30,"wspd":5,"visib":"6+","altim":1018,"clouds":[{"cover":"FEW","base":4500}],"obsTime":1774821600},"SBPL":{"icaoId":"SBPL","flightCategory":"VFR","rawOb":"METAR SBPL 292200Z 13003KT 9999 SCT020 BKN070 30/20 Q1011","temp":30,"dewp":20,"wdir":130,"wspd":3,"visib":"6+","altim":1011,"clouds":[{"cover":"SCT","base":2000},{"cover":"BKN","base":7000}],"obsTime":1774821600},"SBCO":{"icaoId":"SBCO","flightCategory":"VFR","rawOb":"METAR SBCO 292200Z 12007KT 9999 FEW035 SCT100 27/24 Q1016","temp":27,"dewp":24,"wdir":120,"wspd":7,"visib":"6+","altim":1016,"clouds":[{"cover":"FEW","base":3500},{"cover":"SCT","base":10000}],"obsTime":1774821600},"SBPS":{"icaoId":"SBPS","flightCategory":"MVFR","rawOb":"METAR SBPS 292200Z 14003KT 090V220 9999 BKN016 BKN060 26/24 Q1014","temp":26,"dewp":24,"wdir":140,"wspd":3,"visib":"6+","altim":1014,"clouds":[{"cover":"BKN","base":1600},{"cover":"BKN","base":6000}],"obsTime":1774821600},"SBBU":{"icaoId":"SBBU","flightCategory":"VFR","rawOb":"METAR SBBU 292200Z /////KT CAVOK 30/18 Q1017","temp":30,"dewp":18,"wdir":null,"wspd":null,"visib":"6+","altim":1017,"clouds":[],"obsTime":1774821600},"SBSC":{"icaoId":"SBSC","flightCategory":"VFR","rawOb":"METAR SBSC 292200Z 19005KT CAVOK 25/21 Q1016","temp":25,"dewp":21,"wdir":190,"wspd":5,"visib":"6+","altim":1016,"clouds":[],"obsTime":1774821600},"SBDN":{"icaoId":"SBDN","flightCategory":"VFR","rawOb":"METAR SBDN 292200Z 00000KT CAVOK 29/18 Q1015","temp":29,"dewp":18,"wdir":0,"wspd":0,"visib":"6+","altim":1015,"clouds":[],"obsTime":1774821600},"SBSJ":{"icaoId":"SBSJ","flightCategory":"VFR","rawOb":"METAR SBSJ 292200Z 15006KT 100V190 CAVOK 23/18 Q1018","temp":23,"dewp":18,"wdir":150,"wspd":6,"visib":"6+","altim":1018,"clouds":[],"obsTime":1774821600},"SBAX":{"icaoId":"SBAX","flightCategory":"VFR","rawOb":"METAR SBAX 292200Z AUTO 10006KT CAVOK 24/16 Q1019","temp":24,"dewp":16,"wdir":100,"wspd":6,"visib":"6+","altim":1019,"clouds":[],"obsTime":1774821600},"SBSM":{"icaoId":"SBSM","flightCategory":"VFR","rawOb":"METAR SBSM 292200Z VRB02KT 9999 VCTS FEW040 FEW045CB 28/25 Q1015","temp":28,"dewp":25,"wdir":"VRB","wspd":2,"visib":"6+","altim":1015,"clouds":[{"cover":"FEW","base":4000},{"cover":"FEW","base":4500}],"obsTime":1774821600},"SBIP":{"icaoId":"SBIP","flightCategory":"VFR","rawOb":"METAR SBIP 292200Z AUTO 19004KT CAVOK 23/22 Q1016","temp":23,"dewp":22,"wdir":190,"wspd":4,"visib":"6+","altim":1016,"clouds":[],"obsTime":1774821600},"SBSR":{"icaoId":"SBSR","flightCategory":"VFR","rawOb":"METAR SBSR 292200Z 16002KT CAVOK 29/15 Q1016","temp":29,"dewp":15,"wdir":160,"wspd":2,"visib":"6+","altim":1016,"clouds":[],"obsTime":1774821600},"SBVH":{"icaoId":"SBVH","flightCategory":"VFR","rawOb":"METAR SBVH 292200Z 32005KT 9999 FEW040 BKN100 24/22 Q1014","temp":24,"dewp":22,"wdir":320,"wspd":5,"visib":"6+","altim":1014,"clouds":[{"cover":"FEW","base":4000},{"cover":"BKN","base":10000}],"obsTime":1774821600},"SBAR":{"icaoId":"SBAR","flightCategory":"VFR","rawOb":"METAR SBAR 292200Z 09010KT 9999 SCT015 SCT020 BKN070 27/24 Q1012","temp":27,"dewp":24,"wdir":90,"wspd":10,"visib":"6+","altim":1012,"clouds":[{"cover":"SCT","base":1500},{"cover":"SCT","base":2000},{"cover":"BKN","base":7000}],"obsTime":1774821600},"SBKG":{"icaoId":"SBKG","flightCategory":"VFR","rawOb":"METAR SBKG 292200Z 09007KT CAVOK 25/18 Q1013","temp":25,"dewp":18,"wdir":90,"wspd":7,"visib":"6+","altim":1013,"clouds":[],"obsTime":1774821600},"SBTF":{"icaoId":"SBTF","flightCategory":"VFR","rawOb":"METAR SBTF 292200Z 18004KT 9999 FEW020 BKN090 28/25 Q1009","temp":28,"dewp":25,"wdir":180,"wspd":4,"visib":"6+","altim":1009,"clouds":[{"cover":"FEW","base":2000},{"cover":"BKN","base":9000}],"obsTime":1774821600},"SBCC":{"icaoId":"SBCC","flightCategory":"VFR","rawOb":"METAR SBCC 292200Z 07003KT CAVOK 28/21 Q1012","temp":28,"dewp":21,"wdir":70,"wspd":3,"visib":"6+","altim":1012,"clouds":[],"obsTime":1774821600},"SBUY":{"icaoId":"SBUY","flightCategory":"VFR","rawOb":"METAR SBUY 292200Z 09003KT 9999 FEW030 BKN100 25/23 Q1008","temp":25,"dewp":23,"wdir":90,"wspd":3,"visib":"6+","altim":1008,"clouds":[{"cover":"FEW","base":3000},{"cover":"BKN","base":10000}],"obsTime":1774821600},"SBPB":{"icaoId":"SBPB","flightCategory":"VFR","rawOb":"SPECI SBPB 292145Z 06004KT 9999 FEW020 BKN100 27/24 Q1010","temp":27,"dewp":24,"wdir":60,"wspd":4,"visib":"6+","altim":1010,"clouds":[{"cover":"FEW","base":2000},{"cover":"BKN","base":10000}],"obsTime":1774820700},"SBCJ":{"icaoId":"SBCJ","flightCategory":"VFR","rawOb":"SPECI SBCJ 292130Z 00000KT 9999 TS FEW027CB 22/21 Q1013","temp":22,"dewp":21,"wdir":0,"wspd":0,"visib":"6+","altim":1013,"clouds":[{"cover":"FEW","base":2700}],"obsTime":1774819800},"SBMT":{"icaoId":"SBMT","flightCategory":"VFR","rawOb":"METAR SBMT 292200Z 15008KT 120V180 CAVOK 23/19 Q1019","temp":23,"dewp":19,"wdir":150,"wspd":8,"visib":"6+","altim":1019,"clouds":[],"obsTime":1774821600},"SBJP":{"icaoId":"SBJP","flightCategory":"VFR","rawOb":"METAR SBJP 292200Z 08006KT CAVOK 27/22 Q1011","temp":27,"dewp":22,"wdir":80,"wspd":6,"visib":"6+","altim":1011,"clouds":[],"obsTime":1774821600},"SBJV":{"icaoId":"SBJV","flightCategory":"VFR","rawOb":"METAR SBJV 292200Z 01003KT 9999 FEW020 27/23 Q1015","temp":27,"dewp":23,"wdir":10,"wspd":3,"visib":"6+","altim":1015,"clouds":[{"cover":"FEW","base":2000}],"obsTime":1774821600},"SBPF":{"icaoId":"SBPF","flightCategory":"VFR","rawOb":"METAR SBPF 292200Z 15010KT CAVOK 28/19 Q1019","temp":28,"dewp":19,"wdir":150,"wspd":10,"visib":"6+","altim":1019,"clouds":[],"obsTime":1774821600},"SBAN":{"icaoId":"SBAN","flightCategory":"VFR","rawOb":"METAR SBAN 292200Z 32002KT 9999 FEW040 FEW045TCU 22/17 Q1020","temp":22,"dewp":17,"wdir":320,"wspd":2,"visib":"6+","altim":1020,"clouds":[{"cover":"FEW","base":4000},{"cover":"FEW","base":4500}],"obsTime":1774821600},"SBLE":{"icaoId":"SBLE","flightCategory":"VFR","rawOb":"METAR SBLE 292200Z AUTO 16002KT 9999 FEW048 25/24 Q1015","temp":25,"dewp":24,"wdir":160,"wspd":2,"visib":"6+","altim":1015,"clouds":[{"cover":"FEW","base":4800}],"obsTime":1774821600},"SBAF":{"icaoId":"SBAF","flightCategory":"VFR","rawOb":"METAR SBAF 292200Z 20007KT CAVOK 25/24 Q1016","temp":25,"dewp":24,"wdir":200,"wspd":7,"visib":"6+","altim":1016,"clouds":[],"obsTime":1774821600},"SBJR":{"icaoId":"SBJR","flightCategory":"VFR","rawOb":"METAR SBJR 292200Z 11004KT 9999 FEW018 26/21 Q1016","temp":26,"dewp":21,"wdir":110,"wspd":4,"visib":"6+","altim":1016,"clouds":[{"cover":"FEW","base":1800}],"obsTime":1774821600},"SBLS":{"icaoId":"SBLS","flightCategory":"VFR","rawOb":"METAR SBLS 292200Z 12004KT CAVOK 23/17 Q1019","temp":23,"dewp":17,"wdir":120,"wspd":4,"visib":"6+","altim":1019,"clouds":[],"obsTime":1774821600},"SBNM":{"icaoId":"SBNM","flightCategory":"VFR","rawOb":"METAR SBNM 292200Z 18002KT 9999 FEW030 32/17 Q1015","temp":32,"dewp":17,"wdir":180,"wspd":2,"visib":"6+","altim":1015,"clouds":[{"cover":"FEW","base":3000}],"obsTime":1774821600},"SBGW":{"icaoId":"SBGW","flightCategory":"VFR","rawOb":"METAR SBGW 292200Z 33003KT 300V050 CAVOK 25/15 Q1017","temp":25,"dewp":15,"wdir":330,"wspd":3,"visib":"6+","altim":1017,"clouds":[],"obsTime":1774821600}}}