{"updated":1774191022,"count":86,"data":{"SBRB":{"icaoId":"SBRB","flightCategory":"VFR","rawOb":"METAR SBRB 221300Z 00000KT 9999 SCT002 SCT100 24/23 Q1012","temp":24,"dewp":23,"wdir":0,"wspd":0,"visib":"6+","altim":1012,"clouds":[{"cover":"SCT","base":200},{"cover":"SCT","base":10000}],"obsTime":1774184400},"SBBR":{"icaoId":"SBBR","flightCategory":"IFR","rawOb":"METAR SBBR 221300Z 24014KT 1800 R11R/P2000 R29L/P2000 R11L/P2000 R29R/P2000 SHRA BKN020 FEW025TCU SCT080 21/20 Q1020 RESHRA","temp":21,"dewp":20,"wdir":240,"wspd":14,"visib":1.12,"altim":1020,"clouds":[{"cover":"BKN","base":2000},{"cover":"FEW","base":2500},{"cover":"SCT","base":8000}],"obsTime":1774184400},"SBVT":{"icaoId":"SBVT","flightCategory":"VFR","rawOb":"METAR SBVT 221300Z 15011KT CAVOK 27/23 Q1013","temp":27,"dewp":23,"wdir":150,"wspd":11,"visib":"6+","altim":1013,"clouds":[],"obsTime":1774184400},"SBAT":{"icaoId":"SBAT","flightCategory":"VFR","rawOb":"METAR SBAT 221300Z 09003KT 9999 FEW018 30/24 Q1014","temp":30,"dewp":24,"wdir":90,"wspd":3,"visib":"6+","altim":1014,"clouds":[{"cover":"FEW","base":1800}],"obsTime":1774184400},"SBBE":{"icaoId":"SBBE","flightCategory":"VFR","rawOb":"METAR SBBE 221300Z 10007KT 9999 FEW020 30/24 Q1012","temp":30,"dewp":24,"wdir":100,"wspd":7,"visib":"6+","altim":1012,"clouds":[{"cover":"FEW","base":2000}],"obsTime":1774184400},"SBBV":{"icaoId":"SBBV","flightCategory":"VFR","rawOb":"METAR SBBV 221300Z 08011KT CAVOK 29/22 Q1012","temp":29,"dewp":22,"wdir":80,"wspd":11,"visib":"6+","altim":1012,"clouds":[],"obsTime":1774184400},"SBCB":{"icaoId":"SBCB","flightCategory":"VFR","rawOb":"METAR SBCB 221300Z 08007KT 9999 FEW015 28/20 Q1013","temp":28,"dewp":20,"wdir":80,"wspd":7,"visib":"6+","altim":1013,"clouds":[{"cover":"FEW","base":1500}],"obsTime":1774184400},"SBCF":{"icaoId":"SBCF","flightCategory":"VFR","rawOb":"METAR SBCF 221300Z 19003KT 9999 SCT020 25/20 Q1018","temp":25,"dewp":20,"wdir":190,"wspd":3,"visib":"6+","altim":1018,"clouds":[{"cover":"SCT","base":2000}],"obsTime":1774184400},"SBCG":{"icaoId":"SBCG","flightCategory":"VFR","rawOb":"METAR SBCG 221300Z 33007KT 9999 FEW020 29/23 Q1015","temp":29,"dewp":23,"wdir":330,"wspd":7,"visib":"6+","altim":1015,"clouds":[{"cover":"FEW","base":2000}],"obsTime":1774184400},"SBCP":{"icaoId":"SBCP","flightCategory":"VFR","rawOb":"METAR SBCP 221300Z 34005KT 9999 FEW020 29/22 Q1013","temp":29,"dewp":22,"wdir":340,"wspd":5,"visib":"6+","altim":1013,"clouds":[{"cover":"FEW","base":2000}],"obsTime":1774184400},"SBCR":{"icaoId":"SBCR","flightCategory":"VFR","rawOb":"METAR SBCR 221300Z 06006KT 010V100 CAVOK 29/25 Q1012","temp":29,"dewp":25,"wdir":60,"wspd":6,"visib":"6+","altim":1012,"clouds":[],"obsTime":1774184400},"SBCT":{"icaoId":"SBCT","flightCategory":"MVFR","rawOb":"METAR SBCT 221300Z 28007KT 8000 SCT005 BKN100 22/21 Q1018","temp":22,"dewp":21,"wdir":280,"wspd":7,"visib":4.97,"altim":1018,"clouds":[{"cover":"SCT","base":500},{"cover":"BKN","base":10000}],"obsTime":1774184400},"SBCZ":{"icaoId":"SBCZ","flightCategory":"LIFR","rawOb":"METAR SBCZ 221300Z 15001KT 3000 BR BKN004 OVC070 23/23 Q1010","temp":23,"dewp":23,"wdir":150,"wspd":1,"visib":1.86,"altim":1010,"clouds":[{"cover":"BKN","base":400},{"cover":"OVC","base":7000}],"obsTime":1774184400},"SBEG":{"icaoId":"SBEG","flightCategory":"VFR","rawOb":"METAR SBEG 221300Z 08011KT 9999 FEW020 30/24 Q1011","temp":30,"dewp":24,"wdir":80,"wspd":11,"visib":"6+","altim":1011,"clouds":[{"cover":"FEW","base":2000}],"obsTime":1774184400},"SBFI":{"icaoId":"SBFI","flightCategory":"VFR","rawOb":"METAR SBFI 221300Z 01004KT 9999 SCT030 SCT070 31/26 Q1012","temp":31,"dewp":26,"wdir":10,"wspd":4,"visib":"6+","altim":1012,"clouds":[{"cover":"SCT","base":3000},{"cover":"SCT","base":7000}],"obsTime":1774184400},"SBFL":{"icaoId":"SBFL","flightCategory":"VFR","rawOb":"METAR SBFL 221300Z 35013KT CAVOK 28/23 Q1011","temp":28,"dewp":23,"wdir":350,"wspd":13,"visib":"6+","altim":1011,"clouds":[],"obsTime":1774184400},"SBFZ":{"icaoId":"SBFZ","flightCategory":"VFR","rawOb":"METAR SBFZ 221300Z 10010KT 9999 SCT023 BKN100 29/24 Q1012","temp":29,"dewp":24,"wdir":100,"wspd":10,"visib":"6+","altim":1012,"clouds":[{"cover":"SCT","base":2300},{"cover":"BKN","base":10000}],"obsTime":1774184400},"SBGL":{"icaoId":"SBGL","flightCategory":"VFR","rawOb":"METAR SBGL 221300Z VRB03KT 9999 FEW010 27/23 Q1013","temp":27,"dewp":23,"wdir":"VRB","wspd":3,"visib":"6+","altim":1013,"clouds":[{"cover":"FEW","base":1000}],"obsTime":1774184400},"SBGO":{"icaoId":"SBGO","flightCategory":"MVFR","rawOb":"METAR SBGO 221300Z VRB02KT 9999 FEW013 BKN015 BKN100 25/22 Q1018","temp":25,"dewp":22,"wdir":"VRB","wspd":2,"visib":"6+","altim":1018,"clouds":[{"cover":"FEW","base":1300},{"cover":"BKN","base":1500},{"cover":"BKN","base":10000}],"obsTime":1774184400},"SBGR":{"icaoId":"SBGR","flightCategory":"MVFR","rawOb":"METAR SBGR 221300Z 31001KT 8000 NSC 23/18 Q1017","temp":23,"dewp":18,"wdir":310,"wspd":1,"visib":4.97,"altim":1017,"clouds":[],"obsTime":1774184400},"SBHT":{"icaoId":"SBHT","flightCategory":"MVFR","rawOb":"METAR SBHT 221300Z 10007KT 9999 BKN020 30/24 Q1012","temp":30,"dewp":24,"wdir":100,"wspd":7,"visib":"6+","altim":1012,"clouds":[{"cover":"BKN","base":2000}],"obsTime":1774184400},"SBIL":{"icaoId":"SBIL","flightCategory":"VFR","rawOb":"METAR SBIL 221300Z 04007KT 9999 FEW020 FEW023TCU 31/25 Q1013","temp":31,"dewp":25,"wdir":40,"wspd":7,"visib":"6+","altim":1013,"clouds":[{"cover":"FEW","base":2000},{"cover":"FEW","base":2300}],"obsTime":1774184400},"SBJU":{"icaoId":"SBJU","flightCategory":"MVFR","rawOb":"METAR SBJU 221300Z 00000KT 9999 BKN020 29/23 Q1015","temp":29,"dewp":23,"wdir":0,"wspd":0,"visib":"6+","altim":1015,"clouds":[{"cover":"BKN","base":2000}],"obsTime":1774184400},"SBKP":{"icaoId":"SBKP","flightCategory":"VFR","rawOb":"METAR SBKP 221300Z VRB01KT CAVOK 25/19 Q1017","temp":25,"dewp":19,"wdir":"VRB","wspd":1,"visib":"6+","altim":1017,"clouds":[],"obsTime":1774184400},"SBLO":{"icaoId":"SBLO","flightCategory":"VFR","rawOb":"METAR SBLO 221300Z 03005KT 9999 FEW030 28/22 Q1016","temp":28,"dewp":22,"wdir":30,"wspd":5,"visib":"6+","altim":1016,"clouds":[{"cover":"FEW","base":3000}],"obsTime":1774184400},"SBMA":{"icaoId":"SBMA","flightCategory":"VFR","rawOb":"METAR SBMA 221300Z 26002KT 9999 SCT020 31/24 Q1012","temp":31,"dewp":24,"wdir":260,"wspd":2,"visib":"6+","altim":1012,"clouds":[{"cover":"SCT","base":2000}],"obsTime":1774184400},"SBME":{"icaoId":"SBME","flightCategory":"VFR","rawOb":"METAR SBME 221300Z 16006KT 9999 FEW025 29/22 Q1012","temp":29,"dewp":22,"wdir":160,"wspd":6,"visib":"6+","altim":1012,"clouds":[{"cover":"FEW","base":2500}],"obsTime":1774184400},"SBMG":{"icaoId":"SBMG","flightCategory":"VFR","rawOb":"METAR SBMG 221300Z 35006KT 9999 SCT045 SCT070 29/23 Q1015","temp":29,"dewp":23,"wdir":350,"wspd":6,"visib":"6+","altim":1015,"clouds":[{"cover":"SCT","base":4500},{"cover":"SCT","base":7000}],"obsTime":1774184400},"SBMK":{"icaoId":"SBMK","flightCategory":"VFR","rawOb":"METAR SBMK 221300Z 16002KT 9999 FEW020 26/21 Q1017","temp":26,"dewp":21,"wdir":160,"wspd":2,"visib":"6+","altim":1017,"clouds":[{"cover":"FEW","base":2000}],"obsTime":1774184400},"SBMO":{"icaoId":"SBMO","flightCategory":"MVFR","rawOb":"METAR SBMO 221300Z 05007KT 360V080 9999 FEW026 BKN030 31/24 Q1012","temp":31,"dewp":24,"wdir":50,"wspd":7,"visib":"6+","altim":1012,"clouds":[{"cover":"FEW","base":2600},{"cover":"BKN","base":3000}],"obsTime":1774184400},"SBMQ":{"icaoId":"SBMQ","flightCategory":"VFR","rawOb":"METAR SBMQ 221300Z 06011KT 9999 FEW020 30/24 Q1012","temp":30,"dewp":24,"wdir":60,"wspd":11,"visib":"6+","altim":1012,"clouds":[{"cover":"FEW","base":2000}],"obsTime":1774184400},"SBNT":{"icaoId":"SBNT","flightCategory":"MVFR","rawOb":"METAR SBNT 221300Z 11013KT 9999 BKN025 31/23 Q1012","temp":31,"dewp":23,"wdir":110,"wspd":13,"visib":"6+","altim":1012,"clouds":[{"cover":"BKN","base":2500}],"obsTime":1774184400},"SBPA":{"icaoId":"SBPA","flightCategory":"IFR","rawOb":"METAR SBPA 221300Z 19007KT 5000 -DZ BKN009 OVC023 24/22 Q1013","temp":24,"dewp":22,"wdir":190,"wspd":7,"visib":3.11,"altim":1013,"clouds":[{"cover":"BKN","base":900},{"cover":"OVC","base":2300}],"obsTime":1774184400},"SBPJ":{"icaoId":"SBPJ","flightCategory":"VFR","rawOb":"METAR SBPJ 221300Z 22007KT 9999 FEW016 SCT100 29/25 Q1015","temp":29,"dewp":25,"wdir":220,"wspd":7,"visib":"6+","altim":1015,"clouds":[{"cover":"FEW","base":1600},{"cover":"SCT","base":10000}],"obsTime":1774184400},"SBPV":{"icaoId":"SBPV","flightCategory":"VFR","rawOb":"METAR SBPV 221300Z 05007KT CAVOK 29/23 Q1010","temp":29,"dewp":23,"wdir":50,"wspd":7,"visib":"6+","altim":1010,"clouds":[],"obsTime":1774184400},"SBRF":{"icaoId":"SBRF","flightCategory":"VFR","rawOb":"METAR SBRF 221300Z 09008KT 9999 SCT020 BKN050 31/24 Q1012","temp":31,"dewp":24,"wdir":90,"wspd":8,"visib":"6+","altim":1012,"clouds":[{"cover":"SCT","base":2000},{"cover":"BKN","base":5000}],"obsTime":1774184400},"SBSG":{"icaoId":"SBSG","flightCategory":"VFR","rawOb":"METAR SBSG 221300Z 12008KT 080V160 9999 SCT027 30/24 Q1013","temp":30,"dewp":24,"wdir":120,"wspd":8,"visib":"6+","altim":1013,"clouds":[{"cover":"SCT","base":2700}],"obsTime":1774184400},"SBSL":{"icaoId":"SBSL","flightCategory":"MVFR","rawOb":"METAR SBSL 221300Z 10010KT 9999 BKN017 SCT100 29/25 Q1012","temp":29,"dewp":25,"wdir":100,"wspd":10,"visib":"6+","altim":1012,"clouds":[{"cover":"BKN","base":1700},{"cover":"SCT","base":10000}],"obsTime":1774184400},"SBSN":{"icaoId":"SBSN","flightCategory":"VFR","rawOb":"METAR SBSN 221300Z 09012KT 9999 SCT018 29/25 Q1012","temp":29,"dewp":25,"wdir":90,"wspd":12,"visib":"6+","altim":1012,"clouds":[{"cover":"SCT","base":1800}],"obsTime":1774184400},"SBSP":{"icaoId":"SBSP","flightCategory":"MVFR","rawOb":"METAR SBSP 221300Z VRB02KT 7000 NSC 22/18 Q1018","temp":22,"dewp":18,"wdir":"VRB","wspd":2,"visib":4.35,"altim":1018,"clouds":[],"obsTime":1774184400},"SBSV":{"icaoId":"SBSV","flightCategory":"MVFR","rawOb":"METAR SBSV 221300Z 04005KT 340V090 9999 BKN020 29/22 Q1013","temp":29,"dewp":22,"wdir":40,"wspd":5,"visib":"6+","altim":1013,"clouds":[{"cover":"BKN","base":2000}],"obsTime":1774184400},"SBTE":{"icaoId":"SBTE","flightCategory":"MVFR","rawOb":"METAR SBTE 221300Z 15005KT 9999 BKN020 30/24 Q1012","temp":30,"dewp":24,"wdir":150,"wspd":5,"visib":"6+","altim":1012,"clouds":[{"cover":"BKN","base":2000}],"obsTime":1774184400},"SBUL":{"icaoId":"SBUL","flightCategory":"VFR","rawOb":"METAR SBUL 221300Z VRB02KT 9999 FEW002 SCT009 24/21 Q1019","temp":24,"dewp":21,"wdir":"VRB","wspd":2,"visib":"6+","altim":1019,"clouds":[{"cover":"FEW","base":200},{"cover":"SCT","base":900}],"obsTime":1774184400},"SBUR":{"icaoId":"SBUR","flightCategory":"VFR","rawOb":"METAR SBUR 221300Z 35003KT CAVOK 29/19 Q1018","temp":29,"dewp":19,"wdir":350,"wspd":3,"visib":"6+","altim":1018,"clouds":[],"obsTime":1774184400},"SBVH":{"icaoId":"SBVH","flightCategory":"VFR","rawOb":"METAR SBVH 221300Z 06007KT 9999 SCT020 26/23 Q1015","temp":26,"dewp":23,"wdir":60,"wspd":7,"visib":"6+","altim":1015,"clouds":[{"cover":"SCT","base":2000}],"obsTime":1774184400},"SBAR":{"icaoId":"SBAR","flightCategory":"VFR","rawOb":"METAR SBAR 221300Z 08008KT 9999 SCT025 31/24 Q1012","temp":31,"dewp":24,"wdir":80,"wspd":8,"visib":"6+","altim":1012,"clouds":[{"cover":"SCT","base":2500}],"obsTime":1774184400},"SBAU":{"icaoId":"SBAU","flightCategory":"VFR","rawOb":"METAR SBAU 221400Z 06006KT CAVOK 33/21 Q1014","temp":33,"dewp":21,"wdir":60,"wspd":6,"visib":"6+","altim":1014,"clouds":[],"obsTime":1774188000},"SBAX":{"icaoId":"SBAX","flightCategory":"VFR","rawOb":"METAR SBAX 221300Z AUTO 31004KT 200V010 CAVOK 25/20 Q1019","temp":25,"dewp":20,"wdir":310,"wspd":4,"visib":"6+","altim":1019,"clouds":[],"obsTime":1774184400},"SBBH":{"icaoId":"SBBH","flightCategory":"VFR","rawOb":"METAR SBBH 221300Z 15003KT 9999 SCT025 26/19 Q1017","temp":26,"dewp":19,"wdir":150,"wspd":3,"visib":"6+","altim":1017,"clouds":[{"cover":"SCT","base":2500}],"obsTime":1774184400},"SBBQ":{"icaoId":"SBBQ","flightCategory":"VFR","rawOb":"METAR SBBQ 221300Z 32005KT 9999 SCT025 24/18 Q1020","temp":24,"dewp":18,"wdir":320,"wspd":5,"visib":"6+","altim":1020,"clouds":[{"cover":"SCT","base":2500}],"obsTime":1774184400},"SBBU":{"icaoId":"SBBU","flightCategory":"VFR","rawOb":"METAR SBBU 221300Z 02002KT CAVOK 30/20 Q1016","temp":30,"dewp":20,"wdir":20,"wspd":2,"visib":"6+","altim":1016,"clouds":[],"obsTime":1774184400},"SBCA":{"icaoId":"SBCA","flightCategory":"VFR","rawOb":"METAR SBCA 221300Z 36009KT 9999 FEW020 27/22 Q1017","temp":27,"dewp":22,"wdir":360,"wspd":9,"visib":"6+","altim":1017,"clouds":[{"cover":"FEW","base":2000}],"obsTime":1774184400},"SBCC":{"icaoId":"SBCC","flightCategory":"VFR","rawOb":"METAR SBCC 221300Z 05007KT 9999 SCT020 28/22 Q1015","temp":28,"dewp":22,"wdir":50,"wspd":7,"visib":"6+","altim":1015,"clouds":[{"cover":"SCT","base":2000}],"obsTime":1774184400},"SBCJ":{"icaoId":"SBCJ","flightCategory":"VFR","rawOb":"METAR SBCJ 221300Z 11005KT 9999 SCT017 26/21 Q1016","temp":26,"dewp":21,"wdir":110,"wspd":5,"visib":"6+","altim":1016,"clouds":[{"cover":"SCT","base":1700}],"obsTime":1774184400},"SBCO":{"icaoId":"SBCO","flightCategory":"IFR","rawOb":"METAR SBCO 221300Z 13003KT 090V170 3000 -DZ SCT004 OVC016 23/23 Q1013","temp":23,"dewp":23,"wdir":130,"wspd":3,"visib":1.86,"altim":1013,"clouds":[{"cover":"SCT","base":400},{"cover":"OVC","base":1600}],"obsTime":1774184400},"SBES":{"icaoId":"SBES","flightCategory":"VFR","rawOb":"METAR SBES 221300Z 07005KT 030V160 9999 SCT020 28/// Q1013","temp":null,"dewp":null,"wdir":70,"wspd":5,"visib":"6+","altim":1013,"clouds":[{"cover":"SCT","base":2000}],"obsTime":1774184400},"SBGM":{"icaoId":"SBGM","flightCategory":"VFR","rawOb":"METAR SBGM 221300Z 15004KT 9999 SCT040 BKN100 24/22 Q1012","temp":24,"dewp":22,"wdir":150,"wspd":4,"visib":"6+","altim":1012,"clouds":[{"cover":"SCT","base":4000},{"cover":"BKN","base":10000}],"obsTime":1774184400},"SBIP":{"icaoId":"SBIP","flightCategory":"MVFR","rawOb":"METAR SBIP 221300Z AUTO VRB02KT 9999 OVC030 27/21 Q1015","temp":27,"dewp":21,"wdir":"VRB","wspd":2,"visib":"6+","altim":1015,"clouds":[{"cover":"OVC","base":3000}],"obsTime":1774184400},"SBKG":{"icaoId":"SBKG","flightCategory":"MVFR","rawOb":"METAR SBKG 221300Z 10007KT 9999 BKN022 28/21 Q1015","temp":28,"dewp":21,"wdir":100,"wspd":7,"visib":"6+","altim":1015,"clouds":[{"cover":"BKN","base":2200}],"obsTime":1774184400},"SBOI":{"icaoId":"SBOI","flightCategory":"MVFR","rawOb":"METAR SBOI 221300Z AUTO 07006KT 020V120 9999 SCT022 BKN026 29/24 Q1012","temp":29,"dewp":24,"wdir":70,"wspd":6,"visib":"6+","altim":1012,"clouds":[{"cover":"SCT","base":2200},{"cover":"BKN","base":2600}],"obsTime":1774184400},"SBPB":{"icaoId":"SBPB","flightCategory":"VFR","rawOb":"METAR SBPB 221300Z 10011KT 9999 SCT016 BKN090 29/25 Q1012","temp":29,"dewp":25,"wdir":100,"wspd":11,"visib":"6+","altim":1012,"clouds":[{"cover":"SCT","base":1600},{"cover":"BKN","base":9000}],"obsTime":1774184400},"SBPL":{"icaoId":"SBPL","flightCategory":"VFR","rawOb":"METAR SBPL 221300Z 03004KT 9999 FEW025 31/21 Q1014","temp":31,"dewp":21,"wdir":30,"wspd":4,"visib":"6+","altim":1014,"clouds":[{"cover":"FEW","base":2500}],"obsTime":1774184400},"SBPP":{"icaoId":"SBPP","flightCategory":"VFR","rawOb":"METAR SBPP 221300Z 32009KT CAVOK 29/22 Q1015","temp":29,"dewp":22,"wdir":320,"wspd":9,"visib":"6+","altim":1015,"clouds":[],"obsTime":1774184400},"SBPS":{"icaoId":"SBPS","flightCategory":"VFR","rawOb":"METAR SBPS 221300Z 10005KT 9999 SCT020 BKN050 27/24 Q1013","temp":27,"dewp":24,"wdir":100,"wspd":5,"visib":"6+","altim":1013,"clouds":[{"cover":"SCT","base":2000},{"cover":"BKN","base":5000}],"obsTime":1774184400},"SBSC":{"icaoId":"SBSC","flightCategory":"VFR","rawOb":"METAR SBSC 221300Z 35007KT 9999 FEW020 30/22 Q1013","temp":30,"dewp":22,"wdir":350,"wspd":7,"visib":"6+","altim":1013,"clouds":[{"cover":"FEW","base":2000}],"obsTime":1774184400},"SBSJ":{"icaoId":"SBSJ","flightCategory":"MVFR","rawOb":"METAR SBSJ 221300Z 33002KT 8000 SCT019 SCT083 25/// Q1017","temp":null,"dewp":null,"wdir":330,"wspd":2,"visib":4.97,"altim":1017,"clouds":[{"cover":"SCT","base":1900},{"cover":"SCT","base":8300}],"obsTime":1774184400},"SBSM":{"icaoId":"SBSM","flightCategory":"IFR","rawOb":"METAR SBSM 221300Z VRB02KT 4000 -DZ BKN010 OVC025 22/21 Q1013","temp":22,"dewp":21,"wdir":"VRB","wspd":2,"visib":2.49,"altim":1013,"clouds":[{"cover":"BKN","base":1000},{"cover":"OVC","base":2500}],"obsTime":1774184400},"SBSR":{"icaoId":"SBSR","flightCategory":"VFR","rawOb":"METAR SBSR 221300Z 08005KT CAVOK 29/20 Q1016","temp":29,"dewp":20,"wdir":80,"wspd":5,"visib":"6+","altim":1016,"clouds":[],"obsTime":1774184400},"SBTF":{"icaoId":"SBTF","flightCategory":"VFR","rawOb":"METAR SBTF 221300Z 11005KT CAVOK 31/27 Q1009","temp":31,"dewp":27,"wdir":110,"wspd":5,"visib":"6+","altim":1009,"clouds":[],"obsTime":1774184400},"SBTT":{"icaoId":"SBTT","flightCategory":"VFR","rawOb":"METAR SBTT 221300Z 13006KT CAVOK 28/23 Q1009","temp":28,"dewp":23,"wdir":130,"wspd":6,"visib":"6+","altim":1009,"clouds":[],"obsTime":1774184400},"SBUY":{"icaoId":"SBUY","flightCategory":"VFR","rawOb":"METAR SBUY 221300Z 09006KT CAVOK 29/25 Q1008","temp":29,"dewp":25,"wdir":90,"wspd":6,"visib":"6+","altim":1008,"clouds":[],"obsTime":1774184400},"SBDN":{"icaoId":"SBDN","flightCategory":"VFR","rawOb":"METAR SBDN 221300Z 02004KT CAVOK 32/22 Q1015","temp":32,"dewp":22,"wdir":20,"wspd":4,"visib":"6+","altim":1015,"clouds":[],"obsTime":1774184400},"SBTA":{"icaoId":"SBTA","flightCategory":"MVFR","rawOb":"METAR SBTA 221300Z VRB02KT 9999 BKN015 23/23 Q1016","temp":23,"dewp":23,"wdir":"VRB","wspd":2,"visib":"6+","altim":1016,"clouds":[{"cover":"BKN","base":1500}],"obsTime":1774184400},"SBAF":{"icaoId":"SBAF","flightCategory":"MVFR","rawOb":"METAR SBAF 221300Z 03002KT 8000 SCT017 29/23 Q1013","temp":29,"dewp":23,"wdir":30,"wspd":2,"visib":4.97,"altim":1013,"clouds":[{"cover":"SCT","base":1700}],"obsTime":1774184400},"SBAN":{"icaoId":"SBAN","flightCategory":"VFR","rawOb":"METAR SBAN 221300Z 25004KT 9999 SCT015 BKN100 23/19 Q1021","temp":23,"dewp":19,"wdir":250,"wspd":4,"visib":"6+","altim":1021,"clouds":[{"cover":"SCT","base":1500},{"cover":"BKN","base":10000}],"obsTime":1774184400},"SBGW":{"icaoId":"SBGW","flightCategory":"MVFR","rawOb":"METAR SBGW 221300Z 23004KT 200V270 5000 HZ OVC011 23/17 Q1016","temp":23,"dewp":17,"wdir":230,"wspd":4,"visib":3.11,"altim":1016,"clouds":[{"cover":"OVC","base":1100}],"obsTime":1774184400},"SBIH":{"icaoId":"SBIH","flightCategory":"VFR","rawOb":"METAR SBIH 221300Z 03006KT CAVOK 29/24 Q1011","temp":29,"dewp":24,"wdir":30,"wspd":6,"visib":"6+","altim":1011,"clouds":[],"obsTime":1774184400},"SBJP":{"icaoId":"SBJP","flightCategory":"VFR","rawOb":"METAR SBJP 221300Z 10008KT 9999 SCT020 31/23 Q1012","temp":31,"dewp":23,"wdir":100,"wspd":8,"visib":"6+","altim":1012,"clouds":[{"cover":"SCT","base":2000}],"obsTime":1774184400},"SBJR":{"icaoId":"SBJR","flightCategory":"VFR","rawOb":"METAR SBJR 221300Z 19004KT 9999 FEW022 31/23 Q1013","temp":31,"dewp":23,"wdir":190,"wspd":4,"visib":"6+","altim":1013,"clouds":[{"cover":"FEW","base":2200}],"obsTime":1774184400},"SBJV":{"icaoId":"SBJV","flightCategory":"VFR","rawOb":"METAR SBJV 221300Z 12003KT 9999 FEW020 BKN100 28/25 Q1012","temp":28,"dewp":25,"wdir":120,"wspd":3,"visib":"6+","altim":1012,"clouds":[{"cover":"FEW","base":2000},{"cover":"BKN","base":10000}],"obsTime":1774184400},"SBLE":{"icaoId":"SBLE","flightCategory":"VFR","rawOb":"METAR SBLE 221300Z AUTO VRB03KT 9999 FEW030 BKN037 26/22 Q1017","temp":26,"dewp":22,"wdir":"VRB","wspd":3,"visib":"6+","altim":1017,"clouds":[{"cover":"FEW","base":3000},{"cover":"BKN","base":3700}],"obsTime":1774184400},"SBLS":{"icaoId":"SBLS","flightCategory":"MVFR","rawOb":"METAR SBLS 221300Z VRB02KT 9999 BKN026 25/20 Q1018","temp":25,"dewp":20,"wdir":"VRB","wspd":2,"visib":"6+","altim":1018,"clouds":[{"cover":"BKN","base":2600}],"obsTime":1774184400},"SBMT":{"icaoId":"SBMT","flightCategory":"VFR","rawOb":"METAR SBMT 221300Z VRB02KT CAVOK 21/18 Q1017","temp":21,"dewp":18,"wdir":"VRB","wspd":2,"visib":"6+","altim":1017,"clouds":[],"obsTime":1774184400},"SBNM":{"icaoId":"SBNM","flightCategory":"VFR","rawOb":"METAR SBNM 221400Z 12002KT 9999 -RA SCT010 SCT020 26/23 Q1012","temp":26,"dewp":23,"wdir":120,"wspd":2,"visib":"6+","altim":1012,"clouds":[{"cover":"SCT","base":1000},{"cover":"SCT","base":2000}],"obsTime":1774188000},"SBPF":{"icaoId":"SBPF","flightCategory":"VFR","rawOb":"METAR SBPF 221300Z 04010KT 9999 FEW040 24/20 Q1015","temp":24,"dewp":20,"wdir":40,"wspd":10,"visib":"6+","altim":1015,"clouds":[{"cover":"FEW","base":4000}],"obsTime":1774184400},"SBST":{"icaoId":"SBST","flightCategory":"VFR","rawOb":"METAR SBST 221300Z 10002KT CAVOK 27/21 Q1013","temp":27,"dewp":21,"wdir":100,"wspd":2,"visib":"6+","altim":1013,"clouds":[],"obsTime":1774184400}}}