{"updated":1777900015,"count":85,"data":{"SBCZ":{"icaoId":"SBCZ","flightCategory":"LIFR","rawOb":"METAR SBCZ 041200Z 13005KT 0300 FG VV002 23/23 Q1014","temp":23,"dewp":23,"wdir":130,"wspd":5,"visib":0.19,"altim":1014,"clouds":[{"cover":"OVX","base":200}],"obsTime":1777896000},"SBBE":{"icaoId":"SBBE","flightCategory":"VFR","rawOb":"METAR SBBE 041200Z 13004KT 9999 FEW009 26/24 Q1013","temp":26,"dewp":24,"wdir":130,"wspd":4,"visib":"6+","altim":1013,"clouds":[{"cover":"FEW","base":900}],"obsTime":1777896000},"SBBR":{"icaoId":"SBBR","flightCategory":"VFR","rawOb":"METAR SBBR 041200Z 11007KT CAVOK 21/15 Q1022","temp":21,"dewp":15,"wdir":110,"wspd":7,"visib":"6+","altim":1022,"clouds":[],"obsTime":1777896000},"SBBV":{"icaoId":"SBBV","flightCategory":"VFR","rawOb":"METAR SBBV 041200Z 09009KT 9999 SCT013 FEW040TCU BKN080 27/24 Q1014","temp":27,"dewp":24,"wdir":90,"wspd":9,"visib":"6+","altim":1014,"clouds":[{"cover":"SCT","base":1300},{"cover":"FEW","base":4000},{"cover":"BKN","base":8000}],"obsTime":1777896000},"SBCB":{"icaoId":"SBCB","flightCategory":"VFR","rawOb":"METAR SBCB 041200Z 06003KT 9999 FEW015 25/17 Q1022","temp":25,"dewp":17,"wdir":60,"wspd":3,"visib":"6+","altim":1022,"clouds":[{"cover":"FEW","base":1500}],"obsTime":1777896000},"SBCF":{"icaoId":"SBCF","flightCategory":"MVFR","rawOb":"METAR SBCF 041200Z 18003KT 6000 SCT004 BKN035 18/18 Q1024","temp":18,"dewp":18,"wdir":180,"wspd":3,"visib":3.73,"altim":1024,"clouds":[{"cover":"SCT","base":400},{"cover":"BKN","base":3500}],"obsTime":1777896000},"SBCG":{"icaoId":"SBCG","flightCategory":"VFR","rawOb":"METAR SBCG 041200Z 06015KT CAVOK 23/18 Q1017","temp":23,"dewp":18,"wdir":60,"wspd":15,"visib":"6+","altim":1017,"clouds":[],"obsTime":1777896000},"SBCP":{"icaoId":"SBCP","flightCategory":"VFR","rawOb":"METAR SBCP 041200Z 23007KT 9999 FEW020 BKN090 24/18 Q1022","temp":24,"dewp":18,"wdir":230,"wspd":7,"visib":"6+","altim":1022,"clouds":[{"cover":"FEW","base":2000},{"cover":"BKN","base":9000}],"obsTime":1777896000},"SBCR":{"icaoId":"SBCR","flightCategory":"IFR","rawOb":"METAR SBCR 041200Z 27003KT 220V300 9000 OVC007 22/21 Q1014","temp":22,"dewp":21,"wdir":270,"wspd":3,"visib":5.59,"altim":1014,"clouds":[{"cover":"OVC","base":700}],"obsTime":1777896000},"SBCT":{"icaoId":"SBCT","flightCategory":"IFR","rawOb":"METAR SBCT 041200Z 04008KT 7000 -RA OVC008 14/13 Q1023","temp":14,"dewp":13,"wdir":40,"wspd":8,"visib":4.35,"altim":1023,"clouds":[{"cover":"OVC","base":800}],"obsTime":1777896000},"SBEG":{"icaoId":"SBEG","flightCategory":"IFR","rawOb":"SPECI SBEG 041132Z 05005KT 5000 RA BKN007 FEW025TCU BKN100 23/23 Q1014","temp":23,"dewp":23,"wdir":50,"wspd":5,"visib":3.11,"altim":1014,"clouds":[{"cover":"BKN","base":700},{"cover":"FEW","base":2500},{"cover":"BKN","base":10000}],"obsTime":1777894320},"SBFI":{"icaoId":"SBFI","flightCategory":"VFR","rawOb":"METAR SBFI 041200Z 05007KT 9999 FEW008 BKN100 22/21 Q1016","temp":22,"dewp":21,"wdir":50,"wspd":7,"visib":"6+","altim":1016,"clouds":[{"cover":"FEW","base":800},{"cover":"BKN","base":10000}],"obsTime":1777896000},"SBFL":{"icaoId":"SBFL","flightCategory":"VFR","rawOb":"METAR SBFL 041200Z 33006KT 9999 SCT035 BKN060 20/16 Q1020","temp":20,"dewp":16,"wdir":330,"wspd":6,"visib":"6+","altim":1020,"clouds":[{"cover":"SCT","base":3500},{"cover":"BKN","base":6000}],"obsTime":1777896000},"SBFZ":{"icaoId":"SBFZ","flightCategory":"MVFR","rawOb":"METAR SBFZ 041200Z 12009KT 9999 BKN020 29/24 Q1013","temp":29,"dewp":24,"wdir":120,"wspd":9,"visib":"6+","altim":1013,"clouds":[{"cover":"BKN","base":2000}],"obsTime":1777896000},"SBGL":{"icaoId":"SBGL","flightCategory":"VFR","rawOb":"METAR SBGL 041200Z 05005KT 9999 FEW009 22/19 Q1021","temp":22,"dewp":19,"wdir":50,"wspd":5,"visib":"6+","altim":1021,"clouds":[{"cover":"FEW","base":900}],"obsTime":1777896000},"SBGO":{"icaoId":"SBGO","flightCategory":"VFR","rawOb":"METAR SBGO 041200Z 15006KT CAVOK 23/16 Q1020","temp":23,"dewp":16,"wdir":150,"wspd":6,"visib":"6+","altim":1020,"clouds":[],"obsTime":1777896000},"SBGR":{"icaoId":"SBGR","flightCategory":"MVFR","rawOb":"METAR SBGR 041200Z 06013KT 9999 BKN011 17/15 Q1023","temp":17,"dewp":15,"wdir":60,"wspd":13,"visib":"6+","altim":1023,"clouds":[{"cover":"BKN","base":1100}],"obsTime":1777896000},"SBKP":{"icaoId":"SBKP","flightCategory":"VFR","rawOb":"METAR SBKP 041200Z 12006KT 9999 FEW049 20/15 Q1022","temp":20,"dewp":15,"wdir":120,"wspd":6,"visib":"6+","altim":1022,"clouds":[{"cover":"FEW","base":4900}],"obsTime":1777896000},"SBLO":{"icaoId":"SBLO","flightCategory":"VFR","rawOb":"METAR SBLO 041200Z 12006KT CAVOK 18/14 Q1021","temp":18,"dewp":14,"wdir":120,"wspd":6,"visib":"6+","altim":1021,"clouds":[],"obsTime":1777896000},"SBMA":{"icaoId":"SBMA","flightCategory":"MVFR","rawOb":"METAR SBMA 041200Z 33003KT 9999 BKN015 BKN070 26/23 Q1014","temp":26,"dewp":23,"wdir":330,"wspd":3,"visib":"6+","altim":1014,"clouds":[{"cover":"BKN","base":1500},{"cover":"BKN","base":7000}],"obsTime":1777896000},"SBMO":{"icaoId":"SBMO","flightCategory":"MVFR","rawOb":"METAR SBMO 041200Z 17009KT 9999 BKN020 SCT060 27/23 Q1015","temp":27,"dewp":23,"wdir":170,"wspd":9,"visib":"6+","altim":1015,"clouds":[{"cover":"BKN","base":2000},{"cover":"SCT","base":6000}],"obsTime":1777896000},"SBMQ":{"icaoId":"SBMQ","flightCategory":"IFR","rawOb":"SPECI SBMQ 041122Z 33002KT 9999 -RA BKN006 BKN014 BKN023 25/25 Q1013","temp":25,"dewp":25,"wdir":330,"wspd":2,"visib":"6+","altim":1013,"clouds":[{"cover":"BKN","base":600},{"cover":"BKN","base":1400},{"cover":"BKN","base":2300}],"obsTime":1777893720},"SBNT":{"icaoId":"SBNT","flightCategory":"VFR","rawOb":"METAR SBNT 041200Z 17013KT 140V200 9999 SCT020 29/24 Q1013","temp":29,"dewp":24,"wdir":170,"wspd":13,"visib":"6+","altim":1013,"clouds":[{"cover":"SCT","base":2000}],"obsTime":1777896000},"SBPA":{"icaoId":"SBPA","flightCategory":"VFR","rawOb":"METAR SBPA 041200Z 03003KT 340V080 CAVOK 15/11 Q1017","temp":15,"dewp":11,"wdir":30,"wspd":3,"visib":"6+","altim":1017,"clouds":[],"obsTime":1777896000},"SBPJ":{"icaoId":"SBPJ","flightCategory":"VFR","rawOb":"METAR SBPJ 041200Z 13006KT 9999 FEW027 SCT100 30/22 Q1015","temp":30,"dewp":22,"wdir":130,"wspd":6,"visib":"6+","altim":1015,"clouds":[{"cover":"FEW","base":2700},{"cover":"SCT","base":10000}],"obsTime":1777896000},"SBPV":{"icaoId":"SBPV","flightCategory":"VFR","rawOb":"METAR SBPV 041200Z 33004KT 9999 FEW010 25/23 Q1013","temp":25,"dewp":23,"wdir":330,"wspd":4,"visib":"6+","altim":1013,"clouds":[{"cover":"FEW","base":1000}],"obsTime":1777896000},"SBRB":{"icaoId":"SBRB","flightCategory":"VFR","rawOb":"METAR SBRB 041200Z 15002KT 9999 FEW030 SCT100 25/24 Q1014","temp":25,"dewp":24,"wdir":150,"wspd":2,"visib":"6+","altim":1014,"clouds":[{"cover":"FEW","base":3000},{"cover":"SCT","base":10000}],"obsTime":1777896000},"SBRF":{"icaoId":"SBRF","flightCategory":"VFR","rawOb":"METAR SBRF 041200Z 19008KT 9999 SCT019 28/25 Q1014","temp":28,"dewp":25,"wdir":190,"wspd":8,"visib":"6+","altim":1014,"clouds":[{"cover":"SCT","base":1900}],"obsTime":1777896000},"SBSG":{"icaoId":"SBSG","flightCategory":"VFR","rawOb":"METAR SBSG 041200Z 17008G18KT 120V210 9999 SCT023 28/24 Q1013","temp":28,"dewp":24,"wdir":170,"wspd":8,"visib":"6+","altim":1013,"clouds":[{"cover":"SCT","base":2300}],"obsTime":1777896000},"SBSL":{"icaoId":"SBSL","flightCategory":"VFR","rawOb":"METAR SBSL 041200Z 12008KT 9999 SCT020 SCT100 28/24 Q1013","temp":28,"dewp":24,"wdir":120,"wspd":8,"visib":"6+","altim":1013,"clouds":[{"cover":"SCT","base":2000},{"cover":"SCT","base":10000}],"obsTime":1777896000},"SBSN":{"icaoId":"SBSN","flightCategory":"VFR","rawOb":"METAR SBSN 041200Z 06003KT 9999 FEW010 OVC100 26/24 Q1012","temp":26,"dewp":24,"wdir":60,"wspd":3,"visib":"6+","altim":1012,"clouds":[{"cover":"FEW","base":1000},{"cover":"OVC","base":10000}],"obsTime":1777896000},"SBSP":{"icaoId":"SBSP","flightCategory":"VFR","rawOb":"METAR SBSP 041200Z 07006KT 040V120 9999 SCT013 BKN048 18/14 Q1024","temp":18,"dewp":14,"wdir":70,"wspd":6,"visib":"6+","altim":1024,"clouds":[{"cover":"SCT","base":1300},{"cover":"BKN","base":4800}],"obsTime":1777896000},"SBSV":{"icaoId":"SBSV","flightCategory":"MVFR","rawOb":"METAR SBSV 041200Z 15011KT 9999 BKN025 29/21 Q1016","temp":29,"dewp":21,"wdir":150,"wspd":11,"visib":"6+","altim":1016,"clouds":[{"cover":"BKN","base":2500}],"obsTime":1777896000},"SBTE":{"icaoId":"SBTE","flightCategory":"MVFR","rawOb":"METAR SBTE 041200Z 18008KT 9999 BKN016 27/24 Q1013","temp":27,"dewp":24,"wdir":180,"wspd":8,"visib":"6+","altim":1013,"clouds":[{"cover":"BKN","base":1600}],"obsTime":1777896000},"SBVT":{"icaoId":"SBVT","flightCategory":"MVFR","rawOb":"METAR SBVT 041200Z 20010KT 9999 BKN030 BKN050 24/20 Q1021","temp":24,"dewp":20,"wdir":200,"wspd":10,"visib":"6+","altim":1021,"clouds":[{"cover":"BKN","base":3000},{"cover":"BKN","base":5000}],"obsTime":1777896000},"SBHT":{"icaoId":"SBHT","flightCategory":"MVFR","rawOb":"METAR SBHT 041200Z 10006KT 9999 BKN015 27/24 Q1013","temp":27,"dewp":24,"wdir":100,"wspd":6,"visib":"6+","altim":1013,"clouds":[{"cover":"BKN","base":1500}],"obsTime":1777896000},"SBIL":{"icaoId":"SBIL","flightCategory":"VFR","rawOb":"METAR SBIL 041200Z 20006KT 9999 FEW020 29/25 Q1018","temp":29,"dewp":25,"wdir":200,"wspd":6,"visib":"6+","altim":1018,"clouds":[{"cover":"FEW","base":2000}],"obsTime":1777896000},"SBJU":{"icaoId":"SBJU","flightCategory":"VFR","rawOb":"METAR SBJU 041200Z 18005KT CAVOK 27/21 Q1016","temp":27,"dewp":21,"wdir":180,"wspd":5,"visib":"6+","altim":1016,"clouds":[],"obsTime":1777896000},"SBUR":{"icaoId":"SBUR","flightCategory":"VFR","rawOb":"METAR SBUR 041200Z 03011KT CAVOK 24/17 Q1021","temp":24,"dewp":17,"wdir":30,"wspd":11,"visib":"6+","altim":1021,"clouds":[],"obsTime":1777896000},"SBME":{"icaoId":"SBME","flightCategory":"VFR","rawOb":"METAR SBME 041200Z 28003KT 9999 BKN049 27/18 Q1022","temp":27,"dewp":18,"wdir":280,"wspd":3,"visib":"6+","altim":1022,"clouds":[{"cover":"BKN","base":4900}],"obsTime":1777896000},"SBMG":{"icaoId":"SBMG","flightCategory":"VFR","rawOb":"METAR SBMG 041200Z 08008KT CAVOK 20/15 Q1019","temp":20,"dewp":15,"wdir":80,"wspd":8,"visib":"6+","altim":1019,"clouds":[],"obsTime":1777896000},"SBMK":{"icaoId":"SBMK","flightCategory":"VFR","rawOb":"METAR SBMK 041200Z 08004KT CAVOK 24/16 Q1022","temp":24,"dewp":16,"wdir":80,"wspd":4,"visib":"6+","altim":1022,"clouds":[],"obsTime":1777896000},"SBUL":{"icaoId":"SBUL","flightCategory":"VFR","rawOb":"METAR SBUL 041200Z 12010KT CAVOK 22/15 Q1023","temp":22,"dewp":15,"wdir":120,"wspd":10,"visib":"6+","altim":1023,"clouds":[],"obsTime":1777896000},"SBAT":{"icaoId":"SBAT","flightCategory":"VFR","rawOb":"METAR SBAT 041200Z 00000KT CAVOK 26/24 Q1014","temp":26,"dewp":24,"wdir":0,"wspd":0,"visib":"6+","altim":1014,"clouds":[],"obsTime":1777896000},"SBPS":{"icaoId":"SBPS","flightCategory":"VFR","rawOb":"METAR SBPS 041200Z 24007KT 9999 FEW012 BKN040 26/23 Q1018","temp":26,"dewp":23,"wdir":240,"wspd":7,"visib":"6+","altim":1018,"clouds":[{"cover":"FEW","base":1200},{"cover":"BKN","base":4000}],"obsTime":1777896000},"SBPL":{"icaoId":"SBPL","flightCategory":"MVFR","rawOb":"METAR SBPL 041200Z 13011KT 9999 BKN025 26/20 Q1018","temp":26,"dewp":20,"wdir":130,"wspd":11,"visib":"6+","altim":1018,"clouds":[{"cover":"BKN","base":2500}],"obsTime":1777896000},"SBUY":{"icaoId":"SBUY","flightCategory":"MVFR","rawOb":"METAR SBUY 041200Z 00000KT 5000 BR SCT004 BKN080 24/23 Q1012","temp":24,"dewp":23,"wdir":0,"wspd":0,"visib":3.11,"altim":1012,"clouds":[{"cover":"SCT","base":400},{"cover":"BKN","base":8000}],"obsTime":1777896000},"SBSJ":{"icaoId":"SBSJ","flightCategory":"MVFR","rawOb":"SPECI SBSJ 041109Z 05007KT 360V090 9999 BKN017 18/14 Q1022","temp":18,"dewp":14,"wdir":50,"wspd":7,"visib":"6+","altim":1022,"clouds":[{"cover":"BKN","base":1700}],"obsTime":1777892940},"SBCJ":{"icaoId":"SBCJ","flightCategory":"VFR","rawOb":"METAR SBCJ 041200Z 09004KT CAVOK 24/21 Q1018","temp":24,"dewp":21,"wdir":90,"wspd":4,"visib":"6+","altim":1018,"clouds":[],"obsTime":1777896000},"SBAR":{"icaoId":"SBAR","flightCategory":"MVFR","rawOb":"METAR SBAR 041200Z 16006KT 9999 VCSH BKN021 28/23 Q1015","temp":28,"dewp":23,"wdir":160,"wspd":6,"visib":"6+","altim":1015,"clouds":[{"cover":"BKN","base":2100}],"obsTime":1777896000},"SBPP":{"icaoId":"SBPP","flightCategory":"VFR","rawOb":"SPECI SBPP 041115Z 01006KT CAVOK 18/17 Q1017","temp":18,"dewp":17,"wdir":10,"wspd":6,"visib":"6+","altim":1017,"clouds":[],"obsTime":1777893300},"SBTD":{"icaoId":"SBTD","flightCategory":"VFR","rawOb":"METAR SBTD 041200Z /////KT 9999 FEW045 BKN070 20/16 Q1019","temp":20,"dewp":16,"wdir":null,"wspd":null,"visib":"6+","altim":1019,"clouds":[{"cover":"FEW","base":4500},{"cover":"BKN","base":7000}],"obsTime":1777896000},"SBPB":{"icaoId":"SBPB","flightCategory":"VFR","rawOb":"METAR SBPB 041200Z 08009KT 9999 FEW020 SCT100 30/25 Q1012","temp":30,"dewp":25,"wdir":80,"wspd":9,"visib":"6+","altim":1012,"clouds":[{"cover":"FEW","base":2000},{"cover":"SCT","base":10000}],"obsTime":1777896000},"SBOI":{"icaoId":"SBOI","flightCategory":"VFR","rawOb":"METAR SBOI 041200Z AUTO 01002KT 9999 FEW024 27/25 Q1014","temp":27,"dewp":25,"wdir":10,"wspd":2,"visib":"6+","altim":1014,"clouds":[{"cover":"FEW","base":2400}],"obsTime":1777896000},"SBTT":{"icaoId":"SBTT","flightCategory":"VFR","rawOb":"METAR SBTT 041200Z 16003KT 9999 FEW025 23/21 Q1014","temp":23,"dewp":21,"wdir":160,"wspd":3,"visib":"6+","altim":1014,"clouds":[{"cover":"FEW","base":2500}],"obsTime":1777896000},"SBTF":{"icaoId":"SBTF","flightCategory":"VFR","rawOb":"SPECI SBTF 041115Z 00000KT 9999 SCT008 OVC080 25/25 Q1012","temp":25,"dewp":25,"wdir":0,"wspd":0,"visib":"6+","altim":1012,"clouds":[{"cover":"SCT","base":800},{"cover":"OVC","base":8000}],"obsTime":1777893300},"SBGM":{"icaoId":"SBGM","flightCategory":"LIFR","rawOb":"METAR SBGM 041200Z 09007KT 9999 BKN003 25/24 Q1013","temp":25,"dewp":24,"wdir":90,"wspd":7,"visib":"6+","altim":1013,"clouds":[{"cover":"BKN","base":300}],"obsTime":1777896000},"SBIP":{"icaoId":"SBIP","flightCategory":"VFR","rawOb":"METAR SBIP 041200Z AUTO 21005KT 180V240 CAVOK 23/18 Q1022","temp":23,"dewp":18,"wdir":210,"wspd":5,"visib":"6+","altim":1022,"clouds":[],"obsTime":1777896000},"SBKG":{"icaoId":"SBKG","flightCategory":"MVFR","rawOb":"METAR SBKG 041200Z 18007KT 9999 BKN020 24/21 Q1017","temp":24,"dewp":21,"wdir":180,"wspd":7,"visib":"6+","altim":1017,"clouds":[{"cover":"BKN","base":2000}],"obsTime":1777896000},"SBSC":{"icaoId":"SBSC","flightCategory":"MVFR","rawOb":"METAR SBSC 041200Z 03005KT 8000 FEW030 SCT070 23/19 Q1022","temp":23,"dewp":19,"wdir":30,"wspd":5,"visib":4.97,"altim":1022,"clouds":[{"cover":"FEW","base":3000},{"cover":"SCT","base":7000}],"obsTime":1777896000},"SBSM":{"icaoId":"SBSM","flightCategory":"LIFR","rawOb":"METAR SBSM 041200Z 11004KT 0300 R29///// R11/0550N FG VV001 10/10 Q1016","temp":10,"dewp":10,"wdir":110,"wspd":4,"visib":0.19,"altim":1016,"clouds":[{"cover":"OVX","base":100}],"obsTime":1777896000},"SBSR":{"icaoId":"SBSR","flightCategory":"VFR","rawOb":"METAR SBSR 041200Z 10006KT CAVOK 23/16 Q1019","temp":23,"dewp":16,"wdir":100,"wspd":6,"visib":"6+","altim":1019,"clouds":[],"obsTime":1777896000},"SBVH":{"icaoId":"SBVH","flightCategory":"VFR","rawOb":"METAR SBVH 041200Z 04003KT CAVOK 26/19 Q1016","temp":26,"dewp":19,"wdir":40,"wspd":3,"visib":"6+","altim":1016,"clouds":[],"obsTime":1777896000},"SBAX":{"icaoId":"SBAX","flightCategory":"VFR","rawOb":"METAR SBAX 041200Z 11012KT CAVOK 20/17 Q1023","temp":20,"dewp":17,"wdir":110,"wspd":12,"visib":"6+","altim":1023,"clouds":[],"obsTime":1777896000},"SBBH":{"icaoId":"SBBH","flightCategory":"VFR","rawOb":"METAR SBBH 041200Z 10006KT 9999 BKN035 20/16 Q1024","temp":20,"dewp":16,"wdir":100,"wspd":6,"visib":"6+","altim":1024,"clouds":[{"cover":"BKN","base":3500}],"obsTime":1777896000},"SBBQ":{"icaoId":"SBBQ","flightCategory":"IFR","rawOb":"METAR SBBQ 041200Z 09008KT 050V130 5000 BR SCT007 BKN009 OVC015 15/13 Q1027","temp":15,"dewp":13,"wdir":90,"wspd":8,"visib":3.11,"altim":1027,"clouds":[{"cover":"SCT","base":700},{"cover":"BKN","base":900},{"cover":"OVC","base":1500}],"obsTime":1777896000},"SBBU":{"icaoId":"SBBU","flightCategory":"VFR","rawOb":"METAR SBBU 041200Z 09009KT CAVOK 20/16 Q1021","temp":20,"dewp":16,"wdir":90,"wspd":9,"visib":"6+","altim":1021,"clouds":[],"obsTime":1777896000},"SBCA":{"icaoId":"SBCA","flightCategory":"VFR","rawOb":"METAR SBCA 041200Z 04009G19KT 9999 SCT030 BKN080 19/16 Q1020","temp":19,"dewp":16,"wdir":40,"wspd":9,"visib":"6+","altim":1020,"clouds":[{"cover":"SCT","base":3000},{"cover":"BKN","base":8000}],"obsTime":1777896000},"SBCC":{"icaoId":"SBCC","flightCategory":"VFR","rawOb":"METAR SBCC 041200Z /////KT CAVOK ///// Q1015","temp":null,"dewp":null,"wdir":null,"wspd":null,"visib":"6+","altim":1015,"clouds":[],"obsTime":1777896000},"SBCO":{"icaoId":"SBCO","flightCategory":"VFR","rawOb":"METAR SBCO 041200Z 00000KT CAVOK 14/11 Q1017","temp":14,"dewp":11,"wdir":0,"wspd":0,"visib":"6+","altim":1017,"clouds":[],"obsTime":1777896000},"SBDN":{"icaoId":"SBDN","flightCategory":"VFR","rawOb":"METAR SBDN 041200Z 10010KT CAVOK 20/14 Q1019","temp":20,"dewp":14,"wdir":100,"wspd":10,"visib":"6+","altim":1019,"clouds":[],"obsTime":1777896000},"SBES":{"icaoId":"SBES","flightCategory":"VFR","rawOb":"METAR SBES 041200Z VRB04KT CAVOK 24/// Q1022","temp":null,"dewp":null,"wdir":"VRB","wspd":4,"visib":"6+","altim":1022,"clouds":[],"obsTime":1777896000},"SBJP":{"icaoId":"SBJP","flightCategory":"MVFR","rawOb":"METAR SBJP 041200Z 16011KT 9999 BKN018 29/24 Q1014","temp":29,"dewp":24,"wdir":160,"wspd":11,"visib":"6+","altim":1014,"clouds":[{"cover":"BKN","base":1800}],"obsTime":1777896000},"SBJV":{"icaoId":"SBJV","flightCategory":"MVFR","rawOb":"METAR SBJV 041200Z 22002KT 9999 SCT010 OVC030 18/17 Q1021","temp":18,"dewp":17,"wdir":220,"wspd":2,"visib":"6+","altim":1021,"clouds":[{"cover":"SCT","base":1000},{"cover":"OVC","base":3000}],"obsTime":1777896000},"SBPF":{"icaoId":"SBPF","flightCategory":"VFR","rawOb":"METAR SBPF 041200Z 04012KT 9999 BKN040 15/12 Q1019","temp":15,"dewp":12,"wdir":40,"wspd":12,"visib":"6+","altim":1019,"clouds":[{"cover":"BKN","base":4000}],"obsTime":1777896000},"SBAN":{"icaoId":"SBAN","flightCategory":"VFR","rawOb":"METAR SBAN 041200Z 16012KT CAVOK 22/15 Q1022","temp":22,"dewp":15,"wdir":160,"wspd":12,"visib":"6+","altim":1022,"clouds":[],"obsTime":1777896000},"SBLE":{"icaoId":"SBLE","flightCategory":"VFR","rawOb":"METAR SBLE 041200Z AUTO 17005KT 110V210 9999 SCT018 24/23 Q1020","temp":24,"dewp":23,"wdir":170,"wspd":5,"visib":"6+","altim":1020,"clouds":[{"cover":"SCT","base":1800}],"obsTime":1777896000},"SBAF":{"icaoId":"SBAF","flightCategory":"VFR","rawOb":"METAR SBAF 041200Z 05004KT 9999 FEW014 23/22 Q1022","temp":23,"dewp":22,"wdir":50,"wspd":4,"visib":"6+","altim":1022,"clouds":[{"cover":"FEW","base":1400}],"obsTime":1777896000},"SBGW":{"icaoId":"SBGW","flightCategory":"MVFR","rawOb":"METAR SBGW 041200Z 04009KT 6000 BKN016 20/13 Q1023","temp":20,"dewp":13,"wdir":40,"wspd":9,"visib":3.73,"altim":1023,"clouds":[{"cover":"BKN","base":1600}],"obsTime":1777896000},"SBIH":{"icaoId":"SBIH","flightCategory":"VFR","rawOb":"METAR SBIH 041200Z 02003KT 9999 SCT010 BKN080 26/24 Q1013","temp":26,"dewp":24,"wdir":20,"wspd":3,"visib":"6+","altim":1013,"clouds":[{"cover":"SCT","base":1000},{"cover":"BKN","base":8000}],"obsTime":1777896000},"SBLS":{"icaoId":"SBLS","flightCategory":"MVFR","rawOb":"METAR SBLS 041200Z 16005KT 090V170 8000 FEW010 BKN033 19/16 Q1024","temp":19,"dewp":16,"wdir":160,"wspd":5,"visib":4.97,"altim":1024,"clouds":[{"cover":"FEW","base":1000},{"cover":"BKN","base":3300}],"obsTime":1777896000},"SBMT":{"icaoId":"SBMT","flightCategory":"MVFR","rawOb":"METAR SBMT 041200Z 06008KT 9999 SCT008 BKN012 18/14 Q1023","temp":18,"dewp":14,"wdir":60,"wspd":8,"visib":"6+","altim":1023,"clouds":[{"cover":"SCT","base":800},{"cover":"BKN","base":1200}],"obsTime":1777896000},"SBTA":{"icaoId":"SBTA","flightCategory":"MVFR","rawOb":"METAR SBTA 041200Z 05007KT 030V090 9999 BKN016 19/14 Q1022","temp":19,"dewp":14,"wdir":50,"wspd":7,"visib":"6+","altim":1022,"clouds":[{"cover":"BKN","base":1600}],"obsTime":1777896000},"SBST":{"icaoId":"SBST","flightCategory":"VFR","rawOb":"METAR SBST 041200Z /////KT 9999 FEW040 ///// Q1020","temp":null,"dewp":null,"wdir":null,"wspd":null,"visib":"6+","altim":1020,"clouds":[{"cover":"FEW","base":4000}],"obsTime":1777896000},"SBJR":{"icaoId":"SBJR","flightCategory":"VFR","rawOb":"METAR SBJR 041200Z 36004KT 9999 FEW025 SCT090 26/19 Q1021","temp":26,"dewp":19,"wdir":360,"wspd":4,"visib":"6+","altim":1021,"clouds":[{"cover":"FEW","base":2500},{"cover":"SCT","base":9000}],"obsTime":1777896000}}}