{"updated":1780094766,"count":83,"data":{"SBLO":{"icaoId":"SBLO","flightCategory":"VFR","rawOb":"METAR SBLO 292100Z 08006KT CAVOK 20/14 Q1019","temp":20,"dewp":14,"wdir":80,"wspd":6,"visib":"6+","altim":1019,"clouds":[],"obsTime":1780088400},"SBVT":{"icaoId":"SBVT","flightCategory":"VFR","rawOb":"METAR SBVT 292100Z 20011KT 9999 SCT045 BKN100 22/16 Q1020","temp":22,"dewp":16,"wdir":200,"wspd":11,"visib":"6+","altim":1020,"clouds":[{"cover":"SCT","base":4500},{"cover":"BKN","base":10000}],"obsTime":1780088400},"SBMA":{"icaoId":"SBMA","flightCategory":"VFR","rawOb":"METAR SBMA 292100Z 00000KT 9999 FEW020 FEW025TCU BKN080 31/22 Q1010","temp":31,"dewp":22,"wdir":0,"wspd":0,"visib":"6+","altim":1010,"clouds":[{"cover":"FEW","base":2000},{"cover":"FEW","base":2500},{"cover":"BKN","base":8000}],"obsTime":1780088400},"SBFI":{"icaoId":"SBFI","flightCategory":"IFR","rawOb":"METAR SBFI 292100Z 16006KT 3000 -TSRA BKN005 BKN025 FEW040CB BKN070 18/17 Q1019","temp":18,"dewp":17,"wdir":160,"wspd":6,"visib":1.86,"altim":1019,"clouds":[{"cover":"BKN","base":500},{"cover":"BKN","base":2500},{"cover":"FEW","base":4000},{"cover":"BKN","base":7000}],"obsTime":1780088400},"SBME":{"icaoId":"SBME","flightCategory":"VFR","rawOb":"METAR SBME 292100Z 15006KT 9999 SCT040 23/16 Q1020","temp":23,"dewp":16,"wdir":150,"wspd":6,"visib":"6+","altim":1020,"clouds":[{"cover":"SCT","base":4000}],"obsTime":1780088400},"SBCP":{"icaoId":"SBCP","flightCategory":"VFR","rawOb":"METAR SBCP 292100Z 20004KT 9999 FEW020 BKN060 22/17 Q1021","temp":22,"dewp":17,"wdir":200,"wspd":4,"visib":"6+","altim":1021,"clouds":[{"cover":"FEW","base":2000},{"cover":"BKN","base":6000}],"obsTime":1780088400},"SBMG":{"icaoId":"SBMG","flightCategory":"VFR","rawOb":"METAR SBMG 292100Z 12002KT CAVOK 22/16 Q1018","temp":22,"dewp":16,"wdir":120,"wspd":2,"visib":"6+","altim":1018,"clouds":[],"obsTime":1780088400},"SBFL":{"icaoId":"SBFL","flightCategory":"VFR","rawOb":"METAR SBFL 292100Z 10006KT 9999 FEW040 BKN070 19/15 Q1021","temp":19,"dewp":15,"wdir":100,"wspd":6,"visib":"6+","altim":1021,"clouds":[{"cover":"FEW","base":4000},{"cover":"BKN","base":7000}],"obsTime":1780088400},"SBMK":{"icaoId":"SBMK","flightCategory":"VFR","rawOb":"METAR SBMK 292100Z 10006KT 9999 SCT040 22/15 Q1020","temp":22,"dewp":15,"wdir":100,"wspd":6,"visib":"6+","altim":1020,"clouds":[{"cover":"SCT","base":4000}],"obsTime":1780088400},"SBFZ":{"icaoId":"SBFZ","flightCategory":"VFR","rawOb":"METAR SBFZ 292100Z 10009KT 9999 FEW020 BKN070 28/24 Q1011","temp":28,"dewp":24,"wdir":100,"wspd":9,"visib":"6+","altim":1011,"clouds":[{"cover":"FEW","base":2000},{"cover":"BKN","base":7000}],"obsTime":1780088400},"SBMO":{"icaoId":"SBMO","flightCategory":"MVFR","rawOb":"METAR SBMO 292100Z 19004KT 130V210 9999 SCT020 BKN025 BKN070 24/23 Q1015","temp":24,"dewp":23,"wdir":190,"wspd":4,"visib":"6+","altim":1015,"clouds":[{"cover":"SCT","base":2000},{"cover":"BKN","base":2500},{"cover":"BKN","base":7000}],"obsTime":1780088400},"SBBV":{"icaoId":"SBBV","flightCategory":"VFR","rawOb":"METAR SBBV 292100Z 14007KT 9999 VCSH SCT025 FEW030TCU SCT070 30/24 Q1009","temp":30,"dewp":24,"wdir":140,"wspd":7,"visib":"6+","altim":1009,"clouds":[{"cover":"SCT","base":2500},{"cover":"FEW","base":3000},{"cover":"SCT","base":7000}],"obsTime":1780088400},"SBMQ":{"icaoId":"SBMQ","flightCategory":"VFR","rawOb":"METAR SBMQ 292100Z 08004KT 9999 VCSH SCT020 FEW025TCU 28/25 Q1013","temp":28,"dewp":25,"wdir":80,"wspd":4,"visib":"6+","altim":1013,"clouds":[{"cover":"SCT","base":2000},{"cover":"FEW","base":2500}],"obsTime":1780088400},"SBBR":{"icaoId":"SBBR","flightCategory":"VFR","rawOb":"METAR SBBR 292100Z 14006KT 9999 FEW045 SCT100 23/15 Q1020","temp":23,"dewp":15,"wdir":140,"wspd":6,"visib":"6+","altim":1020,"clouds":[{"cover":"FEW","base":4500},{"cover":"SCT","base":10000}],"obsTime":1780088400},"SBNT":{"icaoId":"SBNT","flightCategory":"VFR","rawOb":"METAR SBNT 292100Z 15010KT 9999 FEW015 BKN042 BKN060 26/23 Q1013","temp":26,"dewp":23,"wdir":150,"wspd":10,"visib":"6+","altim":1013,"clouds":[{"cover":"FEW","base":1500},{"cover":"BKN","base":4200},{"cover":"BKN","base":6000}],"obsTime":1780088400},"SBGL":{"icaoId":"SBGL","flightCategory":"VFR","rawOb":"METAR SBGL 292100Z 15007KT 9999 FEW040 BKN080 22/17 Q1020","temp":22,"dewp":17,"wdir":150,"wspd":7,"visib":"6+","altim":1020,"clouds":[{"cover":"FEW","base":4000},{"cover":"BKN","base":8000}],"obsTime":1780088400},"SBPA":{"icaoId":"SBPA","flightCategory":"VFR","rawOb":"METAR SBPA 292100Z 11010KT 9999 FEW025 SCT100 18/14 Q1020","temp":18,"dewp":14,"wdir":110,"wspd":10,"visib":"6+","altim":1020,"clouds":[{"cover":"FEW","base":2500},{"cover":"SCT","base":10000}],"obsTime":1780088400},"SBPJ":{"icaoId":"SBPJ","flightCategory":"VFR","rawOb":"METAR SBPJ 292100Z 12005KT CAVOK 30/18 Q1013","temp":30,"dewp":18,"wdir":120,"wspd":5,"visib":"6+","altim":1013,"clouds":[],"obsTime":1780088400},"SBCF":{"icaoId":"SBCF","flightCategory":"VFR","rawOb":"METAR SBCF 292100Z 11008KT 9999 FEW045 22/16 Q1021","temp":22,"dewp":16,"wdir":110,"wspd":8,"visib":"6+","altim":1021,"clouds":[{"cover":"FEW","base":4500}],"obsTime":1780088400},"SBGO":{"icaoId":"SBGO","flightCategory":"VFR","rawOb":"METAR SBGO 292100Z 14007KT CAVOK 24/18 Q1018","temp":24,"dewp":18,"wdir":140,"wspd":7,"visib":"6+","altim":1018,"clouds":[],"obsTime":1780088400},"SBPV":{"icaoId":"SBPV","flightCategory":"VFR","rawOb":"METAR SBPV 292100Z 08005KT 9999 FEW030 32/21 Q1010","temp":32,"dewp":21,"wdir":80,"wspd":5,"visib":"6+","altim":1010,"clouds":[{"cover":"FEW","base":3000}],"obsTime":1780088400},"SBRB":{"icaoId":"SBRB","flightCategory":"VFR","rawOb":"METAR SBRB 292100Z 13008KT 9999 SCT033 SCT100 30/22 Q1012","temp":30,"dewp":22,"wdir":130,"wspd":8,"visib":"6+","altim":1012,"clouds":[{"cover":"SCT","base":3300},{"cover":"SCT","base":10000}],"obsTime":1780088400},"SBCT":{"icaoId":"SBCT","flightCategory":"VFR","rawOb":"METAR SBCT 292100Z 11005KT 9999 SCT013 OVC033 13/12 Q1023","temp":13,"dewp":12,"wdir":110,"wspd":5,"visib":"6+","altim":1023,"clouds":[{"cover":"SCT","base":1300},{"cover":"OVC","base":3300}],"obsTime":1780088400},"SBRF":{"icaoId":"SBRF","flightCategory":"MVFR","rawOb":"METAR SBRF 292100Z 16012KT 9999 VCSH BKN021 BKN070 27/23 Q1014","temp":27,"dewp":23,"wdir":160,"wspd":12,"visib":"6+","altim":1014,"clouds":[{"cover":"BKN","base":2100},{"cover":"BKN","base":7000}],"obsTime":1780088400},"SBGR":{"icaoId":"SBGR","flightCategory":"MVFR","rawOb":"METAR SBGR 292100Z 13004KT 9999 FEW013 OVC021 16/14 Q1022","temp":16,"dewp":14,"wdir":130,"wspd":4,"visib":"6+","altim":1022,"clouds":[{"cover":"FEW","base":1300},{"cover":"OVC","base":2100}],"obsTime":1780088400},"SBSG":{"icaoId":"SBSG","flightCategory":"MVFR","rawOb":"METAR SBSG 292100Z 15006KT 100V190 9999 SCT017 BKN026 FEW030TCU 26/23 Q1013","temp":26,"dewp":23,"wdir":150,"wspd":6,"visib":"6+","altim":1013,"clouds":[{"cover":"SCT","base":1700},{"cover":"BKN","base":2600},{"cover":"FEW","base":3000}],"obsTime":1780088400},"SBBE":{"icaoId":"SBBE","flightCategory":"MVFR","rawOb":"METAR SBBE 292100Z 03005KT 9999 FEW011 BKN024 FEW025TCU BKN057 27/26 Q1011","temp":27,"dewp":26,"wdir":30,"wspd":5,"visib":"6+","altim":1011,"clouds":[{"cover":"FEW","base":1100},{"cover":"BKN","base":2400},{"cover":"FEW","base":2500},{"cover":"BKN","base":5700}],"obsTime":1780088400},"SBSL":{"icaoId":"SBSL","flightCategory":"MVFR","rawOb":"METAR SBSL 292100Z 05007KT 8000 -RA SCT020 FEW025TCU BKN080 24/23 Q1011 RETSRA","temp":24,"dewp":23,"wdir":50,"wspd":7,"visib":4.97,"altim":1011,"clouds":[{"cover":"SCT","base":2000},{"cover":"FEW","base":2500},{"cover":"BKN","base":8000}],"obsTime":1780088400},"SBCZ":{"icaoId":"SBCZ","flightCategory":"VFR","rawOb":"METAR SBCZ 292100Z 12003KT 9999 SCT030 31/22 Q1011","temp":31,"dewp":22,"wdir":120,"wspd":3,"visib":"6+","altim":1011,"clouds":[{"cover":"SCT","base":3000}],"obsTime":1780088400},"SBIL":{"icaoId":"SBIL","flightCategory":"VFR","rawOb":"METAR SBIL 292100Z 23007KT 200V260 9000 -RA SCT020 BKN045 24/23 Q1017","temp":24,"dewp":23,"wdir":230,"wspd":7,"visib":5.59,"altim":1017,"clouds":[{"cover":"SCT","base":2000},{"cover":"BKN","base":4500}],"obsTime":1780088400},"SBSN":{"icaoId":"SBSN","flightCategory":"VFR","rawOb":"METAR SBSN 292100Z 09011KT 9999 FEW020 FEW023TCU BKN100 28/25 Q1009","temp":28,"dewp":25,"wdir":90,"wspd":11,"visib":"6+","altim":1009,"clouds":[{"cover":"FEW","base":2000},{"cover":"FEW","base":2300},{"cover":"BKN","base":10000}],"obsTime":1780088400},"SBEG":{"icaoId":"SBEG","flightCategory":"VFR","rawOb":"METAR SBEG 292100Z 12006KT 090V160 9999 FEW030 FEW035TCU 32/23 Q1009","temp":32,"dewp":23,"wdir":120,"wspd":6,"visib":"6+","altim":1009,"clouds":[{"cover":"FEW","base":3000},{"cover":"FEW","base":3500}],"obsTime":1780088400},"SBSP":{"icaoId":"SBSP","flightCategory":"MVFR","rawOb":"METAR SBSP 292100Z 15010KT 9999 BKN015 16/13 Q1023","temp":16,"dewp":13,"wdir":150,"wspd":10,"visib":"6+","altim":1023,"clouds":[{"cover":"BKN","base":1500}],"obsTime":1780088400},"SBJU":{"icaoId":"SBJU","flightCategory":"MVFR","rawOb":"METAR SBJU 292100Z 09003KT 9999 BKN020 29/19 Q1014","temp":29,"dewp":19,"wdir":90,"wspd":3,"visib":"6+","altim":1014,"clouds":[{"cover":"BKN","base":2000}],"obsTime":1780088400},"SBSV":{"icaoId":"SBSV","flightCategory":"MVFR","rawOb":"METAR SBSV 292100Z 13006KT 070V180 9999 SCT019 BKN030 26/22 Q1016","temp":26,"dewp":22,"wdir":130,"wspd":6,"visib":"6+","altim":1016,"clouds":[{"cover":"SCT","base":1900},{"cover":"BKN","base":3000}],"obsTime":1780088400},"SBTE":{"icaoId":"SBTE","flightCategory":"VFR","rawOb":"METAR SBTE 292100Z 09002KT 9999 SCT040 SCT100 32/21 Q1010","temp":32,"dewp":21,"wdir":90,"wspd":2,"visib":"6+","altim":1010,"clouds":[{"cover":"SCT","base":4000},{"cover":"SCT","base":10000}],"obsTime":1780088400},"SBCG":{"icaoId":"SBCG","flightCategory":"VFR","rawOb":"METAR SBCG 292100Z 05005KT 9999 FEW040 26/16 Q1017","temp":26,"dewp":16,"wdir":50,"wspd":5,"visib":"6+","altim":1017,"clouds":[{"cover":"FEW","base":4000}],"obsTime":1780088400},"SBKP":{"icaoId":"SBKP","flightCategory":"VFR","rawOb":"METAR SBKP 292100Z 12008KT CAVOK 20/14 Q1020","temp":20,"dewp":14,"wdir":120,"wspd":8,"visib":"6+","altim":1020,"clouds":[],"obsTime":1780088400},"SBUL":{"icaoId":"SBUL","flightCategory":"VFR","rawOb":"METAR SBUL 292100Z 07006KT 9999 FEW049 22/15 Q1021","temp":22,"dewp":15,"wdir":70,"wspd":6,"visib":"6+","altim":1021,"clouds":[{"cover":"FEW","base":4900}],"obsTime":1780088400},"SBUR":{"icaoId":"SBUR","flightCategory":"VFR","rawOb":"METAR SBUR 292100Z 02003KT CAVOK 26/16 Q1019","temp":26,"dewp":16,"wdir":20,"wspd":3,"visib":"6+","altim":1019,"clouds":[],"obsTime":1780088400},"SBAT":{"icaoId":"SBAT","flightCategory":"VFR","rawOb":"METAR SBAT 292100Z 35001KT 9999 SCT035 32/22 Q1012","temp":32,"dewp":22,"wdir":350,"wspd":1,"visib":"6+","altim":1012,"clouds":[{"cover":"SCT","base":3500}],"obsTime":1780088400},"SBCB":{"icaoId":"SBCB","flightCategory":"VFR","rawOb":"METAR SBCB 292100Z /////KT CAVOK 21/16 Q1021","temp":21,"dewp":16,"wdir":null,"wspd":null,"visib":"6+","altim":1021,"clouds":[],"obsTime":1780088400},"SBCR":{"icaoId":"SBCR","flightCategory":"VFR","rawOb":"METAR SBCR 292100Z 03004KT 360V060 CAVOK 31/19 Q1013","temp":31,"dewp":19,"wdir":30,"wspd":4,"visib":"6+","altim":1013,"clouds":[],"obsTime":1780088400},"SBHT":{"icaoId":"SBHT","flightCategory":"MVFR","rawOb":"METAR SBHT 292100Z 11002KT 9999 BKN025 30/26 Q1010","temp":30,"dewp":26,"wdir":110,"wspd":2,"visib":"6+","altim":1010,"clouds":[{"cover":"BKN","base":2500}],"obsTime":1780088400},"SBVH":{"icaoId":"SBVH","flightCategory":"VFR","rawOb":"METAR SBVH 292100Z 12004KT 9999 SCT030 BKN100 26/21 Q1016","temp":26,"dewp":21,"wdir":120,"wspd":4,"visib":"6+","altim":1016,"clouds":[{"cover":"SCT","base":3000},{"cover":"BKN","base":10000}],"obsTime":1780088400},"SBCO":{"icaoId":"SBCO","flightCategory":"VFR","rawOb":"METAR SBCO 292100Z 11009KT 9999 SCT045 BKN100 17/14 Q1021","temp":17,"dewp":14,"wdir":110,"wspd":9,"visib":"6+","altim":1021,"clouds":[{"cover":"SCT","base":4500},{"cover":"BKN","base":10000}],"obsTime":1780088400},"SBPL":{"icaoId":"SBPL","flightCategory":"VFR","rawOb":"METAR SBPL 292100Z 10008KT 9999 SCT030 30/16 Q1014","temp":30,"dewp":16,"wdir":100,"wspd":8,"visib":"6+","altim":1014,"clouds":[{"cover":"SCT","base":3000}],"obsTime":1780088400},"SBBU":{"icaoId":"SBBU","flightCategory":"VFR","rawOb":"METAR SBBU 292100Z 10006KT CAVOK 22/15 Q1019","temp":22,"dewp":15,"wdir":100,"wspd":6,"visib":"6+","altim":1019,"clouds":[],"obsTime":1780088400},"SBPS":{"icaoId":"SBPS","flightCategory":"MVFR","rawOb":"METAR SBPS 292100Z 17006KT 8000 VCSH BKN015 FEW025TCU OVC030 24/22 Q1018","temp":24,"dewp":22,"wdir":170,"wspd":6,"visib":4.97,"altim":1018,"clouds":[{"cover":"BKN","base":1500},{"cover":"FEW","base":2500},{"cover":"OVC","base":3000}],"obsTime":1780088400},"SBDN":{"icaoId":"SBDN","flightCategory":"VFR","rawOb":"METAR SBDN 292100Z 13004KT CAVOK 23/14 Q1018","temp":23,"dewp":14,"wdir":130,"wspd":4,"visib":"6+","altim":1018,"clouds":[],"obsTime":1780088400},"SBAR":{"icaoId":"SBAR","flightCategory":"VFR","rawOb":"METAR SBAR 292100Z 15007KT 9999 FEW030 27/21 Q1015","temp":27,"dewp":21,"wdir":150,"wspd":7,"visib":"6+","altim":1015,"clouds":[{"cover":"FEW","base":3000}],"obsTime":1780088400},"SBSC":{"icaoId":"SBSC","flightCategory":"VFR","rawOb":"METAR SBSC 292100Z 16009KT 9999 FEW010 SCT040 BKN075 21/17 Q1021","temp":21,"dewp":17,"wdir":160,"wspd":9,"visib":"6+","altim":1021,"clouds":[{"cover":"FEW","base":1000},{"cover":"SCT","base":4000},{"cover":"BKN","base":7500}],"obsTime":1780088400},"SBES":{"icaoId":"SBES","flightCategory":"VFR","rawOb":"METAR SBES 292100Z 00000KT 9999 FEW025 SCT070 20/// Q1021","temp":null,"dewp":null,"wdir":0,"wspd":0,"visib":"6+","altim":1021,"clouds":[{"cover":"FEW","base":2500},{"cover":"SCT","base":7000}],"obsTime":1780088400},"SBSJ":{"icaoId":"SBSJ","flightCategory":"MVFR","rawOb":"METAR SBSJ 292100Z 16010KT 9999 OVC026 17/14 Q1021","temp":17,"dewp":14,"wdir":160,"wspd":10,"visib":"6+","altim":1021,"clouds":[{"cover":"OVC","base":2600}],"obsTime":1780088400},"SBCA":{"icaoId":"SBCA","flightCategory":"VFR","rawOb":"METAR SBCA 292100Z 23006KT 9999 -RA FEW004 SCT030 19/16 Q1021","temp":19,"dewp":16,"wdir":230,"wspd":6,"visib":"6+","altim":1021,"clouds":[{"cover":"FEW","base":400},{"cover":"SCT","base":3000}],"obsTime":1780088400},"SBSM":{"icaoId":"SBSM","flightCategory":"MVFR","rawOb":"METAR SBSM 292100Z 08003KT 6000 FEW010 BKN070 OVC100 15/15 Q1020","temp":15,"dewp":15,"wdir":80,"wspd":3,"visib":3.73,"altim":1020,"clouds":[{"cover":"FEW","base":1000},{"cover":"BKN","base":7000},{"cover":"OVC","base":10000}],"obsTime":1780088400},"SBIP":{"icaoId":"SBIP","flightCategory":"VFR","rawOb":"METAR SBIP 292100Z AUTO 22001KT CAVOK 21/19 Q1019","temp":21,"dewp":19,"wdir":220,"wspd":1,"visib":"6+","altim":1019,"clouds":[],"obsTime":1780088400},"SBSR":{"icaoId":"SBSR","flightCategory":"VFR","rawOb":"METAR SBSR 292100Z 20004KT CAVOK 26/12 Q1018","temp":26,"dewp":12,"wdir":200,"wspd":4,"visib":"6+","altim":1018,"clouds":[],"obsTime":1780088400},"SBTF":{"icaoId":"SBTF","flightCategory":"VFR","rawOb":"METAR SBTF 292100Z 15002KT 9999 FEW021 31/27 Q1009","temp":31,"dewp":27,"wdir":150,"wspd":2,"visib":"6+","altim":1009,"clouds":[{"cover":"FEW","base":2100}],"obsTime":1780088400},"SBUY":{"icaoId":"SBUY","flightCategory":"VFR","rawOb":"METAR SBUY 292100Z 18004KT 9999 FEW030 30/25 Q1008","temp":30,"dewp":25,"wdir":180,"wspd":4,"visib":"6+","altim":1008,"clouds":[{"cover":"FEW","base":3000}],"obsTime":1780088400},"SBAX":{"icaoId":"SBAX","flightCategory":"VFR","rawOb":"METAR SBAX 292100Z 36004KT 9999 SCT045 SCT070 23/14 Q1021","temp":23,"dewp":14,"wdir":360,"wspd":4,"visib":"6+","altim":1021,"clouds":[{"cover":"SCT","base":4500},{"cover":"SCT","base":7000}],"obsTime":1780088400},"SBKG":{"icaoId":"SBKG","flightCategory":"VFR","rawOb":"METAR SBKG 292100Z 11005KT 9999 SCT017 BKN070 22/22 Q1016","temp":22,"dewp":22,"wdir":110,"wspd":5,"visib":"6+","altim":1016,"clouds":[{"cover":"SCT","base":1700},{"cover":"BKN","base":7000}],"obsTime":1780088400},"SBTT":{"icaoId":"SBTT","flightCategory":"MVFR","rawOb":"METAR SBTT 292100Z 03002KT 5000 -RA SCT012 OVC070 24/23 Q1011 RERA","temp":24,"dewp":23,"wdir":30,"wspd":2,"visib":3.11,"altim":1011,"clouds":[{"cover":"SCT","base":1200},{"cover":"OVC","base":7000}],"obsTime":1780088400},"SBOI":{"icaoId":"SBOI","flightCategory":"VFR","rawOb":"METAR SBOI 292100Z AUTO VRB01KT 9999 FEW025 27/25 Q1011","temp":27,"dewp":25,"wdir":"VRB","wspd":1,"visib":"6+","altim":1011,"clouds":[{"cover":"FEW","base":2500}],"obsTime":1780088400},"SBBH":{"icaoId":"SBBH","flightCategory":"VFR","rawOb":"METAR SBBH 292100Z 10005KT 9999 SCT045 OVC070 22/16 Q1021","temp":22,"dewp":16,"wdir":100,"wspd":5,"visib":"6+","altim":1021,"clouds":[{"cover":"SCT","base":4500},{"cover":"OVC","base":7000}],"obsTime":1780088400},"SBPB":{"icaoId":"SBPB","flightCategory":"VFR","rawOb":"METAR SBPB 292100Z 06009KT 9999 SCT020 BKN100 29/25 Q1011","temp":29,"dewp":25,"wdir":60,"wspd":9,"visib":"6+","altim":1011,"clouds":[{"cover":"SCT","base":2000},{"cover":"BKN","base":10000}],"obsTime":1780088400},"SBCJ":{"icaoId":"SBCJ","flightCategory":"VFR","rawOb":"METAR SBCJ 292100Z 00000KT 9999 FEW025 28/19 Q1015","temp":28,"dewp":19,"wdir":0,"wspd":0,"visib":"6+","altim":1015,"clouds":[{"cover":"FEW","base":2500}],"obsTime":1780088400},"SBPP":{"icaoId":"SBPP","flightCategory":"MVFR","rawOb":"METAR SBPP 292100Z 21023KT 9999 TS BKN015 FEW030CB 17/15 Q1021","temp":17,"dewp":15,"wdir":210,"wspd":23,"visib":"6+","altim":1021,"clouds":[{"cover":"BKN","base":1500},{"cover":"FEW","base":3000}],"obsTime":1780088400},"SBTU":{"icaoId":"SBTU","flightCategory":"VFR","rawOb":"METAR SBTU 292100Z AUTO 25003KT 9999 // SCT100/// 28/24 Q1012","temp":28,"dewp":24,"wdir":250,"wspd":3,"visib":"6+","altim":1012,"clouds":[{"cover":"SCT","base":10000}],"obsTime":1780088400},"SBJP":{"icaoId":"SBJP","flightCategory":"MVFR","rawOb":"METAR SBJP 292100Z 14007KT 9999 SCT010 BKN020 OVC070 24/24 Q1014","temp":24,"dewp":24,"wdir":140,"wspd":7,"visib":"6+","altim":1014,"clouds":[{"cover":"SCT","base":1000},{"cover":"BKN","base":2000},{"cover":"OVC","base":7000}],"obsTime":1780088400},"SBLE":{"icaoId":"SBLE","flightCategory":"VFR","rawOb":"METAR SBLE 292100Z AUTO 14003KT 9999 FEW045 24/21 Q1018","temp":24,"dewp":21,"wdir":140,"wspd":3,"visib":"6+","altim":1018,"clouds":[{"cover":"FEW","base":4500}],"obsTime":1780088400},"SBJV":{"icaoId":"SBJV","flightCategory":"VFR","rawOb":"METAR SBJV 292100Z 15003KT 9999 SCT020 BKN050 19/17 Q1021","temp":19,"dewp":17,"wdir":150,"wspd":3,"visib":"6+","altim":1021,"clouds":[{"cover":"SCT","base":2000},{"cover":"BKN","base":5000}],"obsTime":1780088400},"SBNM":{"icaoId":"SBNM","flightCategory":"VFR","rawOb":"METAR SBNM 292100Z AUTO 12006KT 9999 FEW011 16/16 Q1019","temp":16,"dewp":16,"wdir":120,"wspd":6,"visib":"6+","altim":1019,"clouds":[{"cover":"FEW","base":1100}],"obsTime":1780088400},"SBAN":{"icaoId":"SBAN","flightCategory":"VFR","rawOb":"METAR SBAN 292100Z 23006KT 9999 FEW045 BKN100 21/16 Q1021","temp":21,"dewp":16,"wdir":230,"wspd":6,"visib":"6+","altim":1021,"clouds":[{"cover":"FEW","base":4500},{"cover":"BKN","base":10000}],"obsTime":1780088400},"SBAF":{"icaoId":"SBAF","flightCategory":"VFR","rawOb":"METAR SBAF 292100Z 19007KT 9999 FEW015 SCT030 BKN080 20/20 Q1021","temp":20,"dewp":20,"wdir":190,"wspd":7,"visib":"6+","altim":1021,"clouds":[{"cover":"FEW","base":1500},{"cover":"SCT","base":3000},{"cover":"BKN","base":8000}],"obsTime":1780088400},"SBGW":{"icaoId":"SBGW","flightCategory":"VFR","rawOb":"METAR SBGW 292100Z 03003KT 9999 SCT030 BKN040 20/13 Q1021","temp":20,"dewp":13,"wdir":30,"wspd":3,"visib":"6+","altim":1021,"clouds":[{"cover":"SCT","base":3000},{"cover":"BKN","base":4000}],"obsTime":1780088400},"SBJR":{"icaoId":"SBJR","flightCategory":"VFR","rawOb":"METAR SBJR 292100Z 15004KT 9999 FEW020 BKN060 22/17 Q1021","temp":22,"dewp":17,"wdir":150,"wspd":4,"visib":"6+","altim":1021,"clouds":[{"cover":"FEW","base":2000},{"cover":"BKN","base":6000}],"obsTime":1780088400},"SBLS":{"icaoId":"SBLS","flightCategory":"VFR","rawOb":"METAR SBLS 292100Z 13008KT 9999 FEW040 SCT060 22/17 Q1021","temp":22,"dewp":17,"wdir":130,"wspd":8,"visib":"6+","altim":1021,"clouds":[{"cover":"FEW","base":4000},{"cover":"SCT","base":6000}],"obsTime":1780088400},"SBMT":{"icaoId":"SBMT","flightCategory":"MVFR","rawOb":"METAR SBMT 292100Z 14009KT 110V180 9999 BKN019 17/13 Q1022","temp":17,"dewp":13,"wdir":140,"wspd":9,"visib":"6+","altim":1022,"clouds":[{"cover":"BKN","base":1900}],"obsTime":1780088400},"SBTA":{"icaoId":"SBTA","flightCategory":"MVFR","rawOb":"METAR SBTA 292100Z 17008KT 9999 SCT015 OVC025 19/14 Q1021","temp":19,"dewp":14,"wdir":170,"wspd":8,"visib":"6+","altim":1021,"clouds":[{"cover":"SCT","base":1500},{"cover":"OVC","base":2500}],"obsTime":1780088400},"SBIH":{"icaoId":"SBIH","flightCategory":"VFR","rawOb":"METAR SBIH 292100Z 06004KT 9999 FEW020 33/24 Q1009","temp":33,"dewp":24,"wdir":60,"wspd":4,"visib":"6+","altim":1009,"clouds":[{"cover":"FEW","base":2000}],"obsTime":1780088400},"SBST":{"icaoId":"SBST","flightCategory":"VFR","rawOb":"METAR SBST 292100Z 16003KT 9999 FEW025 20/15 Q1020","temp":20,"dewp":15,"wdir":160,"wspd":3,"visib":"6+","altim":1020,"clouds":[{"cover":"FEW","base":2500}],"obsTime":1780088400},"SBPF":{"icaoId":"SBPF","flightCategory":"VFR","rawOb":"METAR SBPF 292100Z 19003KT CAVOK 16/14 Q1021","temp":16,"dewp":14,"wdir":190,"wspd":3,"visib":"6+","altim":1021,"clouds":[],"obsTime":1780088400}}}