{"updated":1776812751,"count":72,"data":{"SBFI":{"icaoId":"SBFI","flightCategory":"VFR","rawOb":"METAR SBFI 212200Z 19003KT 9999 FEW030 BKN070 25/24 Q1014","temp":25,"dewp":24,"wdir":190,"wspd":3,"visib":"6+","altim":1014,"clouds":[{"cover":"FEW","base":3000},{"cover":"BKN","base":7000}],"obsTime":1776808800},"SBBR":{"icaoId":"SBBR","flightCategory":"VFR","rawOb":"METAR SBBR 212200Z 11007KT CAVOK 25/17 Q1017","temp":25,"dewp":17,"wdir":110,"wspd":7,"visib":"6+","altim":1017,"clouds":[],"obsTime":1776808800},"SBBV":{"icaoId":"SBBV","flightCategory":"VFR","rawOb":"METAR SBBV 212200Z 19005KT 9999 FEW040 FEW045TCU 31/23 Q1007","temp":31,"dewp":23,"wdir":190,"wspd":5,"visib":"6+","altim":1007,"clouds":[{"cover":"FEW","base":4000},{"cover":"FEW","base":4500}],"obsTime":1776808800},"SBCF":{"icaoId":"SBCF","flightCategory":"VFR","rawOb":"METAR SBCF 212200Z 10008KT 9999 SCT045 23/18 Q1018","temp":23,"dewp":18,"wdir":100,"wspd":8,"visib":"6+","altim":1018,"clouds":[{"cover":"SCT","base":4500}],"obsTime":1776808800},"SBCG":{"icaoId":"SBCG","flightCategory":"VFR","rawOb":"METAR SBCG 212200Z 14006KT 9999 FEW045 FEW050TCU SCT080 27/20 Q1015","temp":27,"dewp":20,"wdir":140,"wspd":6,"visib":"6+","altim":1015,"clouds":[{"cover":"FEW","base":4500},{"cover":"FEW","base":5000},{"cover":"SCT","base":8000}],"obsTime":1776808800},"SBCT":{"icaoId":"SBCT","flightCategory":"VFR","rawOb":"METAR SBCT 212200Z 11005KT CAVOK 17/15 Q1020","temp":17,"dewp":15,"wdir":110,"wspd":5,"visib":"6+","altim":1020,"clouds":[],"obsTime":1776808800},"SBCZ":{"icaoId":"SBCZ","flightCategory":"VFR","rawOb":"METAR SBCZ 212200Z 36006KT 330V040 9999 FEW025 SCT100 28/23 Q1009","temp":28,"dewp":23,"wdir":360,"wspd":6,"visib":"6+","altim":1009,"clouds":[{"cover":"FEW","base":2500},{"cover":"SCT","base":10000}],"obsTime":1776808800},"SBEG":{"icaoId":"SBEG","flightCategory":"VFR","rawOb":"METAR SBEG 212200Z 10006KT 9999 FEW025 FEW030TCU SCT100 28/24 Q1008","temp":28,"dewp":24,"wdir":100,"wspd":6,"visib":"6+","altim":1008,"clouds":[{"cover":"FEW","base":2500},{"cover":"FEW","base":3000},{"cover":"SCT","base":10000}],"obsTime":1776808800},"SBBE":{"icaoId":"SBBE","flightCategory":"VFR","rawOb":"METAR SBBE 212200Z 15004KT CAVOK 26/24 Q1010","temp":26,"dewp":24,"wdir":150,"wspd":4,"visib":"6+","altim":1010,"clouds":[],"obsTime":1776808800},"SBFL":{"icaoId":"SBFL","flightCategory":"VFR","rawOb":"METAR SBFL 212200Z VRB02KT CAVOK 22/20 Q1016","temp":22,"dewp":20,"wdir":"VRB","wspd":2,"visib":"6+","altim":1016,"clouds":[],"obsTime":1776808800},"SBFZ":{"icaoId":"SBFZ","flightCategory":"VFR","rawOb":"METAR SBFZ 212200Z VRB02KT 9999 FEW020 26/24 Q1011","temp":26,"dewp":24,"wdir":"VRB","wspd":2,"visib":"6+","altim":1011,"clouds":[{"cover":"FEW","base":2000}],"obsTime":1776808800},"SBGL":{"icaoId":"SBGL","flightCategory":"VFR","rawOb":"METAR SBGL 212200Z 12004KT 9999 FEW025 BKN070 24/17 Q1016","temp":24,"dewp":17,"wdir":120,"wspd":4,"visib":"6+","altim":1016,"clouds":[{"cover":"FEW","base":2500},{"cover":"BKN","base":7000}],"obsTime":1776808800},"SBGO":{"icaoId":"SBGO","flightCategory":"VFR","rawOb":"METAR SBGO 212200Z 24004KT 9999 FEW050 FEW056TCU 25/19 Q1015","temp":25,"dewp":19,"wdir":240,"wspd":4,"visib":"6+","altim":1015,"clouds":[{"cover":"FEW","base":5000},{"cover":"FEW","base":5600}],"obsTime":1776808800},"SBGR":{"icaoId":"SBGR","flightCategory":"VFR","rawOb":"METAR SBGR 212200Z 16004KT 9999 SCT017 19/15 Q1019","temp":19,"dewp":15,"wdir":160,"wspd":4,"visib":"6+","altim":1019,"clouds":[{"cover":"SCT","base":1700}],"obsTime":1776808800},"SBKP":{"icaoId":"SBKP","flightCategory":"VFR","rawOb":"METAR SBKP 212200Z 13009KT CAVOK 23/14 Q1017","temp":23,"dewp":14,"wdir":130,"wspd":9,"visib":"6+","altim":1017,"clouds":[],"obsTime":1776808800},"SBLO":{"icaoId":"SBLO","flightCategory":"VFR","rawOb":"METAR SBLO 212200Z 10003KT CAVOK 24/13 Q1016","temp":24,"dewp":13,"wdir":100,"wspd":3,"visib":"6+","altim":1016,"clouds":[],"obsTime":1776808800},"SBMA":{"icaoId":"SBMA","flightCategory":"VFR","rawOb":"METAR SBMA 212200Z 24002KT 9999 FEW015 BKN080 25/24 Q1011","temp":25,"dewp":24,"wdir":240,"wspd":2,"visib":"6+","altim":1011,"clouds":[{"cover":"FEW","base":1500},{"cover":"BKN","base":8000}],"obsTime":1776808800},"SBMO":{"icaoId":"SBMO","flightCategory":"VFR","rawOb":"METAR SBMO 212200Z 31004KT 9999 VCSH SCT020 SCT060 24/24 Q1013","temp":24,"dewp":24,"wdir":310,"wspd":4,"visib":"6+","altim":1013,"clouds":[{"cover":"SCT","base":2000},{"cover":"SCT","base":6000}],"obsTime":1776808800},"SBMQ":{"icaoId":"SBMQ","flightCategory":"VFR","rawOb":"METAR SBMQ 212200Z 06008KT CAVOK 29/26 Q1010","temp":29,"dewp":26,"wdir":60,"wspd":8,"visib":"6+","altim":1010,"clouds":[],"obsTime":1776808800},"SBNT":{"icaoId":"SBNT","flightCategory":"VFR","rawOb":"METAR SBNT 212200Z 15005KT 9999 SCT025 BKN100 27/24 Q1012","temp":27,"dewp":24,"wdir":150,"wspd":5,"visib":"6+","altim":1012,"clouds":[{"cover":"SCT","base":2500},{"cover":"BKN","base":10000}],"obsTime":1776808800},"SBPA":{"icaoId":"SBPA","flightCategory":"MVFR","rawOb":"METAR SBPA 212200Z VRB01KT 6000 FEW030 BKN060 23/19 Q1014","temp":23,"dewp":19,"wdir":"VRB","wspd":1,"visib":3.73,"altim":1014,"clouds":[{"cover":"FEW","base":3000},{"cover":"BKN","base":6000}],"obsTime":1776808800},"SBPJ":{"icaoId":"SBPJ","flightCategory":"VFR","rawOb":"METAR SBPJ 212200Z 35003KT 9999 VCSH FEW018 SCT050 BKN070 26/24 Q1012","temp":26,"dewp":24,"wdir":350,"wspd":3,"visib":"6+","altim":1012,"clouds":[{"cover":"FEW","base":1800},{"cover":"SCT","base":5000},{"cover":"BKN","base":7000}],"obsTime":1776808800},"SBPV":{"icaoId":"SBPV","flightCategory":"VFR","rawOb":"METAR SBPV 212200Z VRB01KT 9999 SCT035 FEW040TCU BKN100 27/23 Q1009","temp":27,"dewp":23,"wdir":"VRB","wspd":1,"visib":"6+","altim":1009,"clouds":[{"cover":"SCT","base":3500},{"cover":"FEW","base":4000},{"cover":"BKN","base":10000}],"obsTime":1776808800},"SBRB":{"icaoId":"SBRB","flightCategory":"VFR","rawOb":"METAR SBRB 212200Z 21005KT 9999 SCT020 SCT080 26/24 Q1009","temp":26,"dewp":24,"wdir":210,"wspd":5,"visib":"6+","altim":1009,"clouds":[{"cover":"SCT","base":2000},{"cover":"SCT","base":8000}],"obsTime":1776808800},"SBRF":{"icaoId":"SBRF","flightCategory":"VFR","rawOb":"METAR SBRF 212200Z 15009KT 9999 FEW026 28/22 Q1012","temp":28,"dewp":22,"wdir":150,"wspd":9,"visib":"6+","altim":1012,"clouds":[{"cover":"FEW","base":2600}],"obsTime":1776808800},"SBSG":{"icaoId":"SBSG","flightCategory":"VFR","rawOb":"METAR SBSG 212200Z 14003KT 090V170 9999 FEW030 BKN080 26/24 Q1012","temp":26,"dewp":24,"wdir":140,"wspd":3,"visib":"6+","altim":1012,"clouds":[{"cover":"FEW","base":3000},{"cover":"BKN","base":8000}],"obsTime":1776808800},"SBSL":{"icaoId":"SBSL","flightCategory":"VFR","rawOb":"METAR SBSL 212200Z 08005KT 9000 -RA SCT017 BKN100 24/24 Q1011","temp":24,"dewp":24,"wdir":80,"wspd":5,"visib":5.59,"altim":1011,"clouds":[{"cover":"SCT","base":1700},{"cover":"BKN","base":10000}],"obsTime":1776808800},"SBSN":{"icaoId":"SBSN","flightCategory":"VFR","rawOb":"METAR SBSN 212200Z 07001KT 9999 FEW021 FEW025TCU BKN100 26/25 Q1009","temp":26,"dewp":25,"wdir":70,"wspd":1,"visib":"6+","altim":1009,"clouds":[{"cover":"FEW","base":2100},{"cover":"FEW","base":2500},{"cover":"BKN","base":10000}],"obsTime":1776808800},"SBSP":{"icaoId":"SBSP","flightCategory":"VFR","rawOb":"METAR SBSP 212200Z 17010KT 9999 FEW015 18/15 Q1020","temp":18,"dewp":15,"wdir":170,"wspd":10,"visib":"6+","altim":1020,"clouds":[{"cover":"FEW","base":1500}],"obsTime":1776808800},"SBSV":{"icaoId":"SBSV","flightCategory":"IFR","rawOb":"SPECI SBSV 212146Z 14011G23KT 3000 SHRA BKN019 FEW023TCU OVC050 28/23 Q1012","temp":28,"dewp":23,"wdir":140,"wspd":11,"visib":1.86,"altim":1012,"clouds":[{"cover":"BKN","base":1900},{"cover":"FEW","base":2300},{"cover":"OVC","base":5000}],"obsTime":1776807960},"SBTE":{"icaoId":"SBTE","flightCategory":"MVFR","rawOb":"METAR SBTE 212200Z 04004KT 350V090 5000 TSRA SCT015 FEW025CB BKN070 24/23 Q1012","temp":24,"dewp":23,"wdir":40,"wspd":4,"visib":3.11,"altim":1012,"clouds":[{"cover":"SCT","base":1500},{"cover":"FEW","base":2500},{"cover":"BKN","base":7000}],"obsTime":1776808800},"SBVT":{"icaoId":"SBVT","flightCategory":"VFR","rawOb":"METAR SBVT 212200Z 19004KT 9999 BKN045 OVC080 24/20 Q1016","temp":24,"dewp":20,"wdir":190,"wspd":4,"visib":"6+","altim":1016,"clouds":[{"cover":"BKN","base":4500},{"cover":"OVC","base":8000}],"obsTime":1776808800},"SBME":{"icaoId":"SBME","flightCategory":"VFR","rawOb":"METAR SBME 212200Z 20005KT 9999 SCT040 24/20 Q1016","temp":24,"dewp":20,"wdir":200,"wspd":5,"visib":"6+","altim":1016,"clouds":[{"cover":"SCT","base":4000}],"obsTime":1776808800},"SBMG":{"icaoId":"SBMG","flightCategory":"VFR","rawOb":"METAR SBMG 212200Z 25002KT CAVOK 25/15 Q1015","temp":25,"dewp":15,"wdir":250,"wspd":2,"visib":"6+","altim":1015,"clouds":[],"obsTime":1776808800},"SBMK":{"icaoId":"SBMK","flightCategory":"VFR","rawOb":"METAR SBMK 212200Z 07005KT 9999 FEW035 26/18 Q1016","temp":26,"dewp":18,"wdir":70,"wspd":5,"visib":"6+","altim":1016,"clouds":[{"cover":"FEW","base":3500}],"obsTime":1776808800},"SBUL":{"icaoId":"SBUL","flightCategory":"VFR","rawOb":"METAR SBUL 212200Z 04008KT 9999 SCT045 FEW050TCU 24/18 Q1017","temp":24,"dewp":18,"wdir":40,"wspd":8,"visib":"6+","altim":1017,"clouds":[{"cover":"SCT","base":4500},{"cover":"FEW","base":5000}],"obsTime":1776808800},"SBCP":{"icaoId":"SBCP","flightCategory":"VFR","rawOb":"METAR SBCP 212200Z 18005KT 9999 SCT040 23/18 Q1016","temp":23,"dewp":18,"wdir":180,"wspd":5,"visib":"6+","altim":1016,"clouds":[{"cover":"SCT","base":4000}],"obsTime":1776808800},"SBUR":{"icaoId":"SBUR","flightCategory":"VFR","rawOb":"METAR SBUR 212200Z 18004KT 9999 VCSH FEW050TCU 27/17 Q1016","temp":27,"dewp":17,"wdir":180,"wspd":4,"visib":"6+","altim":1016,"clouds":[{"cover":"FEW","base":5000}],"obsTime":1776808800},"SBJU":{"icaoId":"SBJU","flightCategory":"VFR","rawOb":"METAR SBJU 212200Z 11003KT 9999 FEW020 26/22 Q1013","temp":26,"dewp":22,"wdir":110,"wspd":3,"visib":"6+","altim":1013,"clouds":[{"cover":"FEW","base":2000}],"obsTime":1776808800},"SBHT":{"icaoId":"SBHT","flightCategory":"VFR","rawOb":"METAR SBHT 212200Z 00000KT CAVOK 25/24 Q1010","temp":25,"dewp":24,"wdir":0,"wspd":0,"visib":"6+","altim":1010,"clouds":[],"obsTime":1776808800},"SBIL":{"icaoId":"SBIL","flightCategory":"VFR","rawOb":"METAR SBIL 212200Z 19007KT 150V230 CAVOK 28/23 Q1014","temp":28,"dewp":23,"wdir":190,"wspd":7,"visib":"6+","altim":1014,"clouds":[],"obsTime":1776808800},"SBSJ":{"icaoId":"SBSJ","flightCategory":"VFR","rawOb":"METAR SBSJ 212200Z 14011KT CAVOK 19/15 Q1018","temp":19,"dewp":15,"wdir":140,"wspd":11,"visib":"6+","altim":1018,"clouds":[],"obsTime":1776808800},"SBTT":{"icaoId":"SBTT","flightCategory":"VFR","rawOb":"METAR SBTT 212200Z 34004KT 9999 SCT015 27/22 Q1009","temp":27,"dewp":22,"wdir":340,"wspd":4,"visib":"6+","altim":1009,"clouds":[{"cover":"SCT","base":1500}],"obsTime":1776808800},"SBOI":{"icaoId":"SBOI","flightCategory":"VFR","rawOb":"METAR SBOI 212200Z AUTO 34003KT 9999 -RA NSC 26/25 Q1010","temp":26,"dewp":25,"wdir":340,"wspd":3,"visib":"6+","altim":1010,"clouds":[],"obsTime":1776808800},"SBPS":{"icaoId":"SBPS","flightCategory":"VFR","rawOb":"METAR SBPS 212200Z 12005KT 090V170 9999 SCT020 BKN070 26/21 Q1014","temp":26,"dewp":21,"wdir":120,"wspd":5,"visib":"6+","altim":1014,"clouds":[{"cover":"SCT","base":2000},{"cover":"BKN","base":7000}],"obsTime":1776808800},"SBPL":{"icaoId":"SBPL","flightCategory":"VFR","rawOb":"METAR SBPL 212200Z 08005KT 9999 SCT025 BKN070 30/20 Q1012","temp":30,"dewp":20,"wdir":80,"wspd":5,"visib":"6+","altim":1012,"clouds":[{"cover":"SCT","base":2500},{"cover":"BKN","base":7000}],"obsTime":1776808800},"SBAR":{"icaoId":"SBAR","flightCategory":"VFR","rawOb":"METAR SBAR 212200Z VRB02KT 9999 VCSH SCT019 SCT035 BKN070 25/24 Q1012","temp":25,"dewp":24,"wdir":"VRB","wspd":2,"visib":"6+","altim":1012,"clouds":[{"cover":"SCT","base":1900},{"cover":"SCT","base":3500},{"cover":"BKN","base":7000}],"obsTime":1776808800},"SBTF":{"icaoId":"SBTF","flightCategory":"VFR","rawOb":"METAR SBTF 212200Z 18003KT 9999 SCT013 SCT025TCU BKN080 28/27 Q1009","temp":28,"dewp":27,"wdir":180,"wspd":3,"visib":"6+","altim":1009,"clouds":[{"cover":"SCT","base":1300},{"cover":"SCT","base":2500},{"cover":"BKN","base":8000}],"obsTime":1776808800},"SBIP":{"icaoId":"SBIP","flightCategory":"VFR","rawOb":"METAR SBIP 212200Z AUTO 00000KT CAVOK 21/20 Q1015","temp":21,"dewp":20,"wdir":0,"wspd":0,"visib":"6+","altim":1015,"clouds":[],"obsTime":1776808800},"SBKG":{"icaoId":"SBKG","flightCategory":"MVFR","rawOb":"METAR SBKG 212200Z 12007KT 9999 SCT010 BKN017 23/23 Q1015","temp":23,"dewp":23,"wdir":120,"wspd":7,"visib":"6+","altim":1015,"clouds":[{"cover":"SCT","base":1000},{"cover":"BKN","base":1700}],"obsTime":1776808800},"SBSC":{"icaoId":"SBSC","flightCategory":"VFR","rawOb":"METAR SBSC 212200Z 19004KT 9999 FEW020 BKN050 23/20 Q1016","temp":23,"dewp":20,"wdir":190,"wspd":4,"visib":"6+","altim":1016,"clouds":[{"cover":"FEW","base":2000},{"cover":"BKN","base":5000}],"obsTime":1776808800},"SBSM":{"icaoId":"SBSM","flightCategory":"VFR","rawOb":"METAR SBSM 212200Z 12002KT 9999 BKN045 BKN100 22/20 Q1014","temp":22,"dewp":20,"wdir":120,"wspd":2,"visib":"6+","altim":1014,"clouds":[{"cover":"BKN","base":4500},{"cover":"BKN","base":10000}],"obsTime":1776808800},"SBSR":{"icaoId":"SBSR","flightCategory":"VFR","rawOb":"METAR SBSR 212200Z 20008KT CAVOK 26/12 Q1014","temp":26,"dewp":12,"wdir":200,"wspd":8,"visib":"6+","altim":1014,"clouds":[],"obsTime":1776808800},"SBVH":{"icaoId":"SBVH","flightCategory":"MVFR","rawOb":"METAR SBVH 212200Z 09001KT 8000 FEW015 BKN035 FEW040TCU BKN071 23/23 Q1013 RETS","temp":23,"dewp":23,"wdir":90,"wspd":1,"visib":4.97,"altim":1013,"clouds":[{"cover":"FEW","base":1500},{"cover":"BKN","base":3500},{"cover":"FEW","base":4000},{"cover":"BKN","base":7100}],"obsTime":1776808800},"SBBH":{"icaoId":"SBBH","flightCategory":"VFR","rawOb":"METAR SBBH 212200Z 10004KT 9999 BKN040 BKN080 24/18 Q1018","temp":24,"dewp":18,"wdir":100,"wspd":4,"visib":"6+","altim":1018,"clouds":[{"cover":"BKN","base":4000},{"cover":"BKN","base":8000}],"obsTime":1776808800},"SBBU":{"icaoId":"SBBU","flightCategory":"VFR","rawOb":"METAR SBBU 212200Z 11008KT CAVOK 25/16 Q1016","temp":25,"dewp":16,"wdir":110,"wspd":8,"visib":"6+","altim":1016,"clouds":[],"obsTime":1776808800},"SBCA":{"icaoId":"SBCA","flightCategory":"VFR","rawOb":"METAR SBCA 212200Z 34006KT CAVOK 23/18 Q1018","temp":23,"dewp":18,"wdir":340,"wspd":6,"visib":"6+","altim":1018,"clouds":[],"obsTime":1776808800},"SBCO":{"icaoId":"SBCO","flightCategory":"VFR","rawOb":"METAR SBCO 212200Z 00000KT 9999 FEW016 BKN060 22/20 Q1015","temp":22,"dewp":20,"wdir":0,"wspd":0,"visib":"6+","altim":1015,"clouds":[{"cover":"FEW","base":1600},{"cover":"BKN","base":6000}],"obsTime":1776808800},"SBDN":{"icaoId":"SBDN","flightCategory":"VFR","rawOb":"METAR SBDN 212200Z 15003KT CAVOK 25/14 Q1015","temp":25,"dewp":14,"wdir":150,"wspd":3,"visib":"6+","altim":1015,"clouds":[],"obsTime":1776808800},"SBES":{"icaoId":"SBES","flightCategory":"VFR","rawOb":"METAR SBES 212200Z 21006KT 180V260 9999 FEW015 SCT040 23/// Q1016","temp":null,"dewp":null,"wdir":210,"wspd":6,"visib":"6+","altim":1016,"clouds":[{"cover":"FEW","base":1500},{"cover":"SCT","base":4000}],"obsTime":1776808800},"SBUY":{"icaoId":"SBUY","flightCategory":"LIFR","rawOb":"METAR SBUY 212200Z 17001KT 1400 -RA BR FEW007 FEW030TCU BKN070 22/22 Q1010 RERA","temp":22,"dewp":22,"wdir":170,"wspd":1,"visib":0.87,"altim":1010,"clouds":[{"cover":"FEW","base":700},{"cover":"FEW","base":3000},{"cover":"BKN","base":7000}],"obsTime":1776808800},"SBPB":{"icaoId":"SBPB","flightCategory":"MVFR","rawOb":"SPECI SBPB 212145Z 07003KT 9999 BKN015 OVC080 27/24 Q1011","temp":27,"dewp":24,"wdir":70,"wspd":3,"visib":"6+","altim":1011,"clouds":[{"cover":"BKN","base":1500},{"cover":"OVC","base":8000}],"obsTime":1776807900},"SBCJ":{"icaoId":"SBCJ","flightCategory":"VFR","rawOb":"SPECI SBCJ 212130Z 00000KT 9999 FEW013 SCT090 23/21 Q1014","temp":23,"dewp":21,"wdir":0,"wspd":0,"visib":"6+","altim":1014,"clouds":[{"cover":"FEW","base":1300},{"cover":"SCT","base":9000}],"obsTime":1776807000},"SBJP":{"icaoId":"SBJP","flightCategory":"VFR","rawOb":"METAR SBJP 212200Z 13004KT CAVOK 26/23 Q1012","temp":26,"dewp":23,"wdir":130,"wspd":4,"visib":"6+","altim":1012,"clouds":[],"obsTime":1776808800},"SBJV":{"icaoId":"SBJV","flightCategory":"MVFR","rawOb":"METAR SBJV 212200Z 00000KT 9999 BKN030 22/21 Q1016","temp":22,"dewp":21,"wdir":0,"wspd":0,"visib":"6+","altim":1016,"clouds":[{"cover":"BKN","base":3000}],"obsTime":1776808800},"SBLE":{"icaoId":"SBLE","flightCategory":"VFR","rawOb":"METAR SBLE 212200Z AUTO VRB01KT CAVOK 24/22 Q1015","temp":24,"dewp":22,"wdir":"VRB","wspd":1,"visib":"6+","altim":1015,"clouds":[],"obsTime":1776808800},"SBAF":{"icaoId":"SBAF","flightCategory":"VFR","rawOb":"METAR SBAF 212200Z 25003KT 200V290 9999 SCT044 23/22 Q1016","temp":23,"dewp":22,"wdir":250,"wspd":3,"visib":"6+","altim":1016,"clouds":[{"cover":"SCT","base":4400}],"obsTime":1776808800},"SBGW":{"icaoId":"SBGW","flightCategory":"VFR","rawOb":"METAR SBGW 212200Z VRB02KT CAVOK 22/15 Q1017","temp":22,"dewp":15,"wdir":"VRB","wspd":2,"visib":"6+","altim":1017,"clouds":[],"obsTime":1776808800},"SBAN":{"icaoId":"SBAN","flightCategory":"VFR","rawOb":"METAR SBAN 212200Z 27004KT 9999 FEW040 FEW045TCU 21/17 Q1018","temp":21,"dewp":17,"wdir":270,"wspd":4,"visib":"6+","altim":1018,"clouds":[{"cover":"FEW","base":4000},{"cover":"FEW","base":4500}],"obsTime":1776808800},"SBLS":{"icaoId":"SBLS","flightCategory":"VFR","rawOb":"METAR SBLS 212200Z 13008KT 9999 FEW030 BKN100 23/18 Q1017","temp":23,"dewp":18,"wdir":130,"wspd":8,"visib":"6+","altim":1017,"clouds":[{"cover":"FEW","base":3000},{"cover":"BKN","base":10000}],"obsTime":1776808800},"SBMT":{"icaoId":"SBMT","flightCategory":"VFR","rawOb":"METAR SBMT 212200Z 13005KT 100V170 CAVOK 19/15 Q1019","temp":19,"dewp":15,"wdir":130,"wspd":5,"visib":"6+","altim":1019,"clouds":[],"obsTime":1776808800},"SBJR":{"icaoId":"SBJR","flightCategory":"VFR","rawOb":"METAR SBJR 212200Z 22002KT 9999 FEW035 22/20 Q1016","temp":22,"dewp":20,"wdir":220,"wspd":2,"visib":"6+","altim":1016,"clouds":[{"cover":"FEW","base":3500}],"obsTime":1776808800}}}