{"updated":1779911718,"count":86,"data":{"SBEG":{"icaoId":"SBEG","flightCategory":"VFR","rawOb":"METAR SBEG 271800Z 09011KT 9999 SCT030 SCT100 32/23 Q1010","temp":32,"dewp":23,"wdir":90,"wspd":11,"visib":"6+","altim":1010,"clouds":[{"cover":"SCT","base":3000},{"cover":"SCT","base":10000}],"obsTime":1779904800},"SBLO":{"icaoId":"SBLO","flightCategory":"VFR","rawOb":"METAR SBLO 271800Z 22005KT 9999 SCT030 26/17 Q1018","temp":26,"dewp":17,"wdir":220,"wspd":5,"visib":"6+","altim":1018,"clouds":[{"cover":"SCT","base":3000}],"obsTime":1779904800},"SBMA":{"icaoId":"SBMA","flightCategory":"MVFR","rawOb":"METAR SBMA 271800Z 09006KT 9999 BKN030 33/19 Q1009","temp":33,"dewp":19,"wdir":90,"wspd":6,"visib":"6+","altim":1009,"clouds":[{"cover":"BKN","base":3000}],"obsTime":1779904800},"SBBR":{"icaoId":"SBBR","flightCategory":"VFR","rawOb":"METAR SBBR 271800Z VRB04KT 9999 SCT045 27/14 Q1019","temp":27,"dewp":14,"wdir":"VRB","wspd":4,"visib":"6+","altim":1019,"clouds":[{"cover":"SCT","base":4500}],"obsTime":1779904800},"SBME":{"icaoId":"SBME","flightCategory":"VFR","rawOb":"METAR SBME 271800Z 16003KT 9999 FEW030 27/21 Q1014","temp":27,"dewp":21,"wdir":160,"wspd":3,"visib":"6+","altim":1014,"clouds":[{"cover":"FEW","base":3000}],"obsTime":1779904800},"SBFI":{"icaoId":"SBFI","flightCategory":"VFR","rawOb":"METAR SBFI 271800Z 10002KT 9999 SCT025 BKN100 23/16 Q1018","temp":23,"dewp":16,"wdir":100,"wspd":2,"visib":"6+","altim":1018,"clouds":[{"cover":"SCT","base":2500},{"cover":"BKN","base":10000}],"obsTime":1779904800},"SBAT":{"icaoId":"SBAT","flightCategory":"VFR","rawOb":"METAR SBAT 271800Z 15008KT 9999 SCT035 33/18 Q1011","temp":33,"dewp":18,"wdir":150,"wspd":8,"visib":"6+","altim":1011,"clouds":[{"cover":"SCT","base":3500}],"obsTime":1779904800},"SBMG":{"icaoId":"SBMG","flightCategory":"VFR","rawOb":"METAR SBMG 271800Z 19005KT 160V250 9999 FEW030 26/18 Q1018","temp":26,"dewp":18,"wdir":190,"wspd":5,"visib":"6+","altim":1018,"clouds":[{"cover":"FEW","base":3000}],"obsTime":1779904800},"SBCG":{"icaoId":"SBCG","flightCategory":"VFR","rawOb":"METAR SBCG 271800Z 12007KT 090V170 9999 SCT023 26/20 Q1018","temp":26,"dewp":20,"wdir":120,"wspd":7,"visib":"6+","altim":1018,"clouds":[{"cover":"SCT","base":2300}],"obsTime":1779904800},"SBMK":{"icaoId":"SBMK","flightCategory":"VFR","rawOb":"METAR SBMK 271800Z 15005KT 9999 BKN038 26/17 Q1018","temp":26,"dewp":17,"wdir":150,"wspd":5,"visib":"6+","altim":1018,"clouds":[{"cover":"BKN","base":3800}],"obsTime":1779904800},"SBFL":{"icaoId":"SBFL","flightCategory":"VFR","rawOb":"METAR SBFL 271800Z 18013KT 150V210 9999 FEW049 22/13 Q1019","temp":22,"dewp":13,"wdir":180,"wspd":13,"visib":"6+","altim":1019,"clouds":[{"cover":"FEW","base":4900}],"obsTime":1779904800},"SBMO":{"icaoId":"SBMO","flightCategory":"MVFR","rawOb":"METAR SBMO 271800Z 17011KT 9999 BKN023 28/23 Q1013","temp":28,"dewp":23,"wdir":170,"wspd":11,"visib":"6+","altim":1013,"clouds":[{"cover":"BKN","base":2300}],"obsTime":1779904800},"SBMQ":{"icaoId":"SBMQ","flightCategory":"MVFR","rawOb":"METAR SBMQ 271800Z 07007KT 8000 -RA SCT019 SCT050 BKN068 29/26 Q1009","temp":29,"dewp":26,"wdir":70,"wspd":7,"visib":4.97,"altim":1009,"clouds":[{"cover":"SCT","base":1900},{"cover":"SCT","base":5000},{"cover":"BKN","base":6800}],"obsTime":1779904800},"SBCP":{"icaoId":"SBCP","flightCategory":"VFR","rawOb":"METAR SBCP 271800Z 33008KT CAVOK 29/19 Q1014","temp":29,"dewp":19,"wdir":330,"wspd":8,"visib":"6+","altim":1014,"clouds":[],"obsTime":1779904800},"SBFZ":{"icaoId":"SBFZ","flightCategory":"VFR","rawOb":"METAR SBFZ 271800Z 10014KT 9999 FEW030 30/23 Q1009","temp":30,"dewp":23,"wdir":100,"wspd":14,"visib":"6+","altim":1009,"clouds":[{"cover":"FEW","base":3000}],"obsTime":1779904800},"SBNT":{"icaoId":"SBNT","flightCategory":"MVFR","rawOb":"METAR SBNT 271800Z 14012KT 120V180 9999 VCSH BKN026 FEW033TCU BKN050 28/23 Q1011","temp":28,"dewp":23,"wdir":140,"wspd":12,"visib":"6+","altim":1011,"clouds":[{"cover":"BKN","base":2600},{"cover":"FEW","base":3300},{"cover":"BKN","base":5000}],"obsTime":1779904800},"SBPA":{"icaoId":"SBPA","flightCategory":"VFR","rawOb":"METAR SBPA 271800Z 18004KT 9999 VCSH SCT025 19/14 Q1021","temp":19,"dewp":14,"wdir":180,"wspd":4,"visib":"6+","altim":1021,"clouds":[{"cover":"SCT","base":2500}],"obsTime":1779904800},"SBBV":{"icaoId":"SBBV","flightCategory":"MVFR","rawOb":"METAR SBBV 271800Z 36004KT 9999 VCSH BKN030 FEW035TCU BKN070 30/23 Q1010","temp":30,"dewp":23,"wdir":360,"wspd":4,"visib":"6+","altim":1010,"clouds":[{"cover":"BKN","base":3000},{"cover":"FEW","base":3500},{"cover":"BKN","base":7000}],"obsTime":1779904800},"SBPJ":{"icaoId":"SBPJ","flightCategory":"VFR","rawOb":"METAR SBPJ 271800Z 13008KT CAVOK 34/16 Q1012","temp":34,"dewp":16,"wdir":130,"wspd":8,"visib":"6+","altim":1012,"clouds":[],"obsTime":1779904800},"SBGL":{"icaoId":"SBGL","flightCategory":"VFR","rawOb":"METAR SBGL 271800Z 22015KT 9000 SCT015 27/20 Q1016","temp":27,"dewp":20,"wdir":220,"wspd":15,"visib":5.59,"altim":1016,"clouds":[{"cover":"SCT","base":1500}],"obsTime":1779904800},"SBGO":{"icaoId":"SBGO","flightCategory":"VFR","rawOb":"METAR SBGO 271800Z 10005KT 050V150 9999 FEW049 SCT070 30/14 Q1017","temp":30,"dewp":14,"wdir":100,"wspd":5,"visib":"6+","altim":1017,"clouds":[{"cover":"FEW","base":4900},{"cover":"SCT","base":7000}],"obsTime":1779904800},"SBPV":{"icaoId":"SBPV","flightCategory":"VFR","rawOb":"METAR SBPV 271800Z 06007KT 9999 FEW020 34/20 Q1011","temp":34,"dewp":20,"wdir":60,"wspd":7,"visib":"6+","altim":1011,"clouds":[{"cover":"FEW","base":2000}],"obsTime":1779904800},"SBCR":{"icaoId":"SBCR","flightCategory":"VFR","rawOb":"METAR SBCR 271800Z VRB04KT CAVOK 28/21 Q1015","temp":28,"dewp":21,"wdir":"VRB","wspd":4,"visib":"6+","altim":1015,"clouds":[],"obsTime":1779904800},"SBRB":{"icaoId":"SBRB","flightCategory":"MVFR","rawOb":"METAR SBRB 271800Z 19005KT 9999 BKN030 30/22 Q1014","temp":30,"dewp":22,"wdir":190,"wspd":5,"visib":"6+","altim":1014,"clouds":[{"cover":"BKN","base":3000}],"obsTime":1779904800},"SBCB":{"icaoId":"SBCB","flightCategory":"VFR","rawOb":"METAR SBCB 271800Z /////KT CAVOK 25/21 Q1015","temp":25,"dewp":21,"wdir":null,"wspd":null,"visib":"6+","altim":1015,"clouds":[],"obsTime":1779904800},"SBRF":{"icaoId":"SBRF","flightCategory":"MVFR","rawOb":"METAR SBRF 271800Z 22003KT 8000 VCSH SCT010 BKN020 BKN050 25/24 Q1012","temp":25,"dewp":24,"wdir":220,"wspd":3,"visib":4.97,"altim":1012,"clouds":[{"cover":"SCT","base":1000},{"cover":"BKN","base":2000},{"cover":"BKN","base":5000}],"obsTime":1779904800},"SBGR":{"icaoId":"SBGR","flightCategory":"IFR","rawOb":"METAR SBGR 271800Z 15006KT 9999 OVC009 18/16 Q1021","temp":18,"dewp":16,"wdir":150,"wspd":6,"visib":"6+","altim":1021,"clouds":[{"cover":"OVC","base":900}],"obsTime":1779904800},"SBSG":{"icaoId":"SBSG","flightCategory":"MVFR","rawOb":"METAR SBSG 271800Z 12011KT 100V160 9999 VCSH BKN020 FEW030TCU 28/24 Q1012","temp":28,"dewp":24,"wdir":120,"wspd":11,"visib":"6+","altim":1012,"clouds":[{"cover":"BKN","base":2000},{"cover":"FEW","base":3000}],"obsTime":1779904800},"SBSL":{"icaoId":"SBSL","flightCategory":"VFR","rawOb":"METAR SBSL 271800Z 17003KT 9999 SCT025 FEW025TCU 30/25 Q1008","temp":30,"dewp":25,"wdir":170,"wspd":3,"visib":"6+","altim":1008,"clouds":[{"cover":"SCT","base":2500},{"cover":"FEW","base":2500}],"obsTime":1779904800},"SBBE":{"icaoId":"SBBE","flightCategory":"VFR","rawOb":"METAR SBBE 271800Z 16004KT 9999 SCT033 BKN090 32/25 Q1009","temp":32,"dewp":25,"wdir":160,"wspd":4,"visib":"6+","altim":1009,"clouds":[{"cover":"SCT","base":3300},{"cover":"BKN","base":9000}],"obsTime":1779904800},"SBHT":{"icaoId":"SBHT","flightCategory":"VFR","rawOb":"METAR SBHT 271800Z 15006KT 9999 SCT030 BKN100 31/23 Q1009","temp":31,"dewp":23,"wdir":150,"wspd":6,"visib":"6+","altim":1009,"clouds":[{"cover":"SCT","base":3000},{"cover":"BKN","base":10000}],"obsTime":1779904800},"SBSN":{"icaoId":"SBSN","flightCategory":"VFR","rawOb":"METAR SBSN 271800Z 05005KT 9999 SCT020 SCT100 31/25 Q1009","temp":31,"dewp":25,"wdir":50,"wspd":5,"visib":"6+","altim":1009,"clouds":[{"cover":"SCT","base":2000},{"cover":"SCT","base":10000}],"obsTime":1779904800},"SBCT":{"icaoId":"SBCT","flightCategory":"VFR","rawOb":"METAR SBCT 271800Z 22006KT 160V270 9999 FEW030 20/11 Q1021","temp":20,"dewp":11,"wdir":220,"wspd":6,"visib":"6+","altim":1021,"clouds":[{"cover":"FEW","base":3000}],"obsTime":1779904800},"SBSP":{"icaoId":"SBSP","flightCategory":"IFR","rawOb":"METAR SBSP 271800Z 18010KT 9999 BKN009 OVC012 18/16 Q1022","temp":18,"dewp":16,"wdir":180,"wspd":10,"visib":"6+","altim":1022,"clouds":[{"cover":"BKN","base":900},{"cover":"OVC","base":1200}],"obsTime":1779904800},"SBSV":{"icaoId":"SBSV","flightCategory":"VFR","rawOb":"METAR SBSV 271800Z 18007KT 9999 SCT021 28/22 Q1014","temp":28,"dewp":22,"wdir":180,"wspd":7,"visib":"6+","altim":1014,"clouds":[{"cover":"SCT","base":2100}],"obsTime":1779904800},"SBIL":{"icaoId":"SBIL","flightCategory":"VFR","rawOb":"METAR SBIL 271800Z 16005KT 9999 FEW023 28/24 Q1015","temp":28,"dewp":24,"wdir":160,"wspd":5,"visib":"6+","altim":1015,"clouds":[{"cover":"FEW","base":2300}],"obsTime":1779904800},"SBCF":{"icaoId":"SBCF","flightCategory":"VFR","rawOb":"METAR SBCF 271800Z 26004KT 180V310 9999 FEW045 28/14 Q1019","temp":28,"dewp":14,"wdir":260,"wspd":4,"visib":"6+","altim":1019,"clouds":[{"cover":"FEW","base":4500}],"obsTime":1779904800},"SBTE":{"icaoId":"SBTE","flightCategory":"VFR","rawOb":"METAR SBTE 271800Z 14006KT 9999 SCT030 SCT090 33/22 Q1009","temp":33,"dewp":22,"wdir":140,"wspd":6,"visib":"6+","altim":1009,"clouds":[{"cover":"SCT","base":3000},{"cover":"SCT","base":9000}],"obsTime":1779904800},"SBJU":{"icaoId":"SBJU","flightCategory":"MVFR","rawOb":"METAR SBJU 271800Z COR 18009KT 9999 BKN020 27/20 Q1014","temp":27,"dewp":20,"wdir":180,"wspd":9,"visib":"6+","altim":1014,"clouds":[{"cover":"BKN","base":2000}],"obsTime":1779904800},"SBUL":{"icaoId":"SBUL","flightCategory":"VFR","rawOb":"METAR SBUL 271800Z 17005KT 9999 FEW030 27/13 Q1020","temp":27,"dewp":13,"wdir":170,"wspd":5,"visib":"6+","altim":1020,"clouds":[{"cover":"FEW","base":3000}],"obsTime":1779904800},"SBUR":{"icaoId":"SBUR","flightCategory":"VFR","rawOb":"METAR SBUR 271800Z 17003KT CAVOK 28/14 Q1018","temp":28,"dewp":14,"wdir":170,"wspd":3,"visib":"6+","altim":1018,"clouds":[],"obsTime":1779904800},"SBCZ":{"icaoId":"SBCZ","flightCategory":"VFR","rawOb":"METAR SBCZ 271800Z 14006KT 090V180 9999 SCT035 30/22 Q1014","temp":30,"dewp":22,"wdir":140,"wspd":6,"visib":"6+","altim":1014,"clouds":[{"cover":"SCT","base":3500}],"obsTime":1779904800},"SBKP":{"icaoId":"SBKP","flightCategory":"VFR","rawOb":"METAR SBKP 271800Z 24007KT 9999 SCT040 26/17 Q1019","temp":26,"dewp":17,"wdir":240,"wspd":7,"visib":"6+","altim":1019,"clouds":[{"cover":"SCT","base":4000}],"obsTime":1779904800},"SBVT":{"icaoId":"SBVT","flightCategory":"VFR","rawOb":"METAR SBVT 271800Z 06011KT CAVOK 27/22 Q1014","temp":27,"dewp":22,"wdir":60,"wspd":11,"visib":"6+","altim":1014,"clouds":[],"obsTime":1779904800},"SBCC":{"icaoId":"SBCC","flightCategory":"VFR","rawOb":"METAR SBCC 271800Z 06012KT 9999 SCT045 31/16 Q1013","temp":31,"dewp":16,"wdir":60,"wspd":12,"visib":"6+","altim":1013,"clouds":[{"cover":"SCT","base":4500}],"obsTime":1779904800},"SBAR":{"icaoId":"SBAR","flightCategory":"VFR","rawOb":"METAR SBAR 271800Z 14009KT 9999 FEW030 29/19 Q1013","temp":29,"dewp":19,"wdir":140,"wspd":9,"visib":"6+","altim":1013,"clouds":[{"cover":"FEW","base":3000}],"obsTime":1779904800},"SBAU":{"icaoId":"SBAU","flightCategory":"MVFR","rawOb":"METAR SBAU 271900Z 18006KT 9999 BKN030 31/19 Q1016","temp":31,"dewp":19,"wdir":180,"wspd":6,"visib":"6+","altim":1016,"clouds":[{"cover":"BKN","base":3000}],"obsTime":1779908400},"SBAX":{"icaoId":"SBAX","flightCategory":"VFR","rawOb":"METAR SBAX 271800Z 27004KT 9999 SCT035 27/14 Q1020","temp":27,"dewp":14,"wdir":270,"wspd":4,"visib":"6+","altim":1020,"clouds":[{"cover":"SCT","base":3500}],"obsTime":1779904800},"SBBH":{"icaoId":"SBBH","flightCategory":"VFR","rawOb":"METAR SBBH 271800Z 23002KT 9999 FEW033 28/14 Q1018","temp":28,"dewp":14,"wdir":230,"wspd":2,"visib":"6+","altim":1018,"clouds":[{"cover":"FEW","base":3300}],"obsTime":1779904800},"SBBQ":{"icaoId":"SBBQ","flightCategory":"VFR","rawOb":"METAR SBBQ 271800Z 25004KT 180V320 9999 SCT030 25/17 Q1022","temp":25,"dewp":17,"wdir":250,"wspd":4,"visib":"6+","altim":1022,"clouds":[{"cover":"SCT","base":3000}],"obsTime":1779904800},"SBBU":{"icaoId":"SBBU","flightCategory":"VFR","rawOb":"METAR SBBU 271800Z 25005KT 9999 SCT045 30/17 Q1018","temp":30,"dewp":17,"wdir":250,"wspd":5,"visib":"6+","altim":1018,"clouds":[{"cover":"SCT","base":4500}],"obsTime":1779904800},"SBCA":{"icaoId":"SBCA","flightCategory":"VFR","rawOb":"METAR SBCA 271800Z 23004KT 9999 FEW030 23/16 Q1020","temp":23,"dewp":16,"wdir":230,"wspd":4,"visib":"6+","altim":1020,"clouds":[{"cover":"FEW","base":3000}],"obsTime":1779904800},"SBCJ":{"icaoId":"SBCJ","flightCategory":"VFR","rawOb":"METAR SBCJ 271800Z 14007KT 9999 FEW015 29/17 Q1015","temp":29,"dewp":17,"wdir":140,"wspd":7,"visib":"6+","altim":1015,"clouds":[{"cover":"FEW","base":1500}],"obsTime":1779904800},"SBCO":{"icaoId":"SBCO","flightCategory":"MVFR","rawOb":"METAR SBCO 271800Z 18003KT 120V260 9999 BKN026 20/14 Q1022","temp":20,"dewp":14,"wdir":180,"wspd":3,"visib":"6+","altim":1022,"clouds":[{"cover":"BKN","base":2600}],"obsTime":1779904800},"SBDN":{"icaoId":"SBDN","flightCategory":"VFR","rawOb":"METAR SBDN 271800Z 18005KT 9999 SCT045 28/18 Q1017","temp":28,"dewp":18,"wdir":180,"wspd":5,"visib":"6+","altim":1017,"clouds":[{"cover":"SCT","base":4500}],"obsTime":1779904800},"SBES":{"icaoId":"SBES","flightCategory":"VFR","rawOb":"METAR SBES 271800Z VRB09KT 9999 FEW030 25/// Q1015","temp":null,"dewp":null,"wdir":"VRB","wspd":9,"visib":"6+","altim":1015,"clouds":[{"cover":"FEW","base":3000}],"obsTime":1779904800},"SBGM":{"icaoId":"SBGM","flightCategory":"VFR","rawOb":"METAR SBGM 271800Z 14009KT 9999 SCT033 30/22 Q1013","temp":30,"dewp":22,"wdir":140,"wspd":9,"visib":"6+","altim":1013,"clouds":[{"cover":"SCT","base":3300}],"obsTime":1779904800},"SBIP":{"icaoId":"SBIP","flightCategory":"VFR","rawOb":"METAR SBIP 271800Z AUTO 05005KT 010V100 CAVOK 28/18 Q1016","temp":28,"dewp":18,"wdir":50,"wspd":5,"visib":"6+","altim":1016,"clouds":[],"obsTime":1779904800},"SBKG":{"icaoId":"SBKG","flightCategory":"IFR","rawOb":"METAR SBKG 271800Z 14008KT 3000 -RA BR FEW006 BKN010 OVC070 23/22 Q1014","temp":23,"dewp":22,"wdir":140,"wspd":8,"visib":1.86,"altim":1014,"clouds":[{"cover":"FEW","base":600},{"cover":"BKN","base":1000},{"cover":"OVC","base":7000}],"obsTime":1779904800},"SBOI":{"icaoId":"SBOI","flightCategory":"VFR","rawOb":"METAR SBOI 271800Z AUTO VRB02KT 9999 FEW039 28/25 Q1010 RERA","temp":28,"dewp":25,"wdir":"VRB","wspd":2,"visib":"6+","altim":1010,"clouds":[{"cover":"FEW","base":3900}],"obsTime":1779904800},"SBPB":{"icaoId":"SBPB","flightCategory":"VFR","rawOb":"METAR SBPB 271800Z 03006KT 9999 FEW016 32/26 Q1008","temp":32,"dewp":26,"wdir":30,"wspd":6,"visib":"6+","altim":1008,"clouds":[{"cover":"FEW","base":1600}],"obsTime":1779904800},"SBPL":{"icaoId":"SBPL","flightCategory":"VFR","rawOb":"METAR SBPL 271800Z 10011KT 9999 SCT030 32/17 Q1013","temp":32,"dewp":17,"wdir":100,"wspd":11,"visib":"6+","altim":1013,"clouds":[{"cover":"SCT","base":3000}],"obsTime":1779904800},"SBPP":{"icaoId":"SBPP","flightCategory":"MVFR","rawOb":"METAR SBPP 271800Z 08008KT 9999 OVC015 20/18 Q1019","temp":20,"dewp":18,"wdir":80,"wspd":8,"visib":"6+","altim":1019,"clouds":[{"cover":"OVC","base":1500}],"obsTime":1779904800},"SBPS":{"icaoId":"SBPS","flightCategory":"VFR","rawOb":"METAR SBPS 271800Z 07007KT 9999 VCSH SCT025 BKN050 27/22 Q1015","temp":27,"dewp":22,"wdir":70,"wspd":7,"visib":"6+","altim":1015,"clouds":[{"cover":"SCT","base":2500},{"cover":"BKN","base":5000}],"obsTime":1779904800},"SBSC":{"icaoId":"SBSC","flightCategory":"MVFR","rawOb":"METAR SBSC 271800Z 21010KT 9999 SCT012 BKN030 24/21 Q1017","temp":24,"dewp":21,"wdir":210,"wspd":10,"visib":"6+","altim":1017,"clouds":[{"cover":"SCT","base":1200},{"cover":"BKN","base":3000}],"obsTime":1779904800},"SBSJ":{"icaoId":"SBSJ","flightCategory":"MVFR","rawOb":"METAR SBSJ 271800Z COR 21009KT 6000 BKN015 BKN036 21/17 Q1020","temp":21,"dewp":17,"wdir":210,"wspd":9,"visib":3.73,"altim":1020,"clouds":[{"cover":"BKN","base":1500},{"cover":"BKN","base":3600}],"obsTime":1779904800},"SBSM":{"icaoId":"SBSM","flightCategory":"VFR","rawOb":"METAR SBSM 271800Z 11007KT 080V160 9999 SCT030 BKN040 19/14 Q1021","temp":19,"dewp":14,"wdir":110,"wspd":7,"visib":"6+","altim":1021,"clouds":[{"cover":"SCT","base":3000},{"cover":"BKN","base":4000}],"obsTime":1779904800},"SBSR":{"icaoId":"SBSR","flightCategory":"VFR","rawOb":"METAR SBSR 271800Z 20005KT 9999 SCT035 30/15 Q1017","temp":30,"dewp":15,"wdir":200,"wspd":5,"visib":"6+","altim":1017,"clouds":[{"cover":"SCT","base":3500}],"obsTime":1779904800},"SBTF":{"icaoId":"SBTF","flightCategory":"VFR","rawOb":"METAR SBTF 271800Z 30005KT 9999 FEW015 BKN090 28/26 Q1010","temp":28,"dewp":26,"wdir":300,"wspd":5,"visib":"6+","altim":1010,"clouds":[{"cover":"FEW","base":1500},{"cover":"BKN","base":9000}],"obsTime":1779904800},"SBTT":{"icaoId":"SBTT","flightCategory":"MVFR","rawOb":"METAR SBTT 271800Z 20004KT 9999 BKN014 BKN040 30/24 Q1012","temp":30,"dewp":24,"wdir":200,"wspd":4,"visib":"6+","altim":1012,"clouds":[{"cover":"BKN","base":1400},{"cover":"BKN","base":4000}],"obsTime":1779904800},"SBTU":{"icaoId":"SBTU","flightCategory":"VFR","rawOb":"METAR SBTU 271800Z AUTO VRB05KT 9999 // SCT041/// 32/23 Q1011","temp":32,"dewp":23,"wdir":"VRB","wspd":5,"visib":"6+","altim":1011,"clouds":[{"cover":"SCT","base":4100}],"obsTime":1779904800},"SBUY":{"icaoId":"SBUY","flightCategory":"VFR","rawOb":"METAR SBUY 271800Z 17002KT 9999 SCT020 BKN100 29/25 Q1010","temp":29,"dewp":25,"wdir":170,"wspd":2,"visib":"6+","altim":1010,"clouds":[{"cover":"SCT","base":2000},{"cover":"BKN","base":10000}],"obsTime":1779904800},"SBVH":{"icaoId":"SBVH","flightCategory":"VFR","rawOb":"METAR SBVH 271800Z 08009KT 9999 SCT035 29/19 Q1015","temp":29,"dewp":19,"wdir":80,"wspd":9,"visib":"6+","altim":1015,"clouds":[{"cover":"SCT","base":3500}],"obsTime":1779904800},"SBLS":{"icaoId":"SBLS","flightCategory":"VFR","rawOb":"METAR SBLS 271800Z VRB04KT 9999 FEW045 27/15 Q1019","temp":27,"dewp":15,"wdir":"VRB","wspd":4,"visib":"6+","altim":1019,"clouds":[{"cover":"FEW","base":4500}],"obsTime":1779904800},"SBMT":{"icaoId":"SBMT","flightCategory":"MVFR","rawOb":"METAR SBMT 271800Z 17009KT 9000 SCT011 OVC015 18/16 Q1021","temp":18,"dewp":16,"wdir":170,"wspd":9,"visib":5.59,"altim":1021,"clouds":[{"cover":"SCT","base":1100},{"cover":"OVC","base":1500}],"obsTime":1779904800},"SBST":{"icaoId":"SBST","flightCategory":"MVFR","rawOb":"METAR SBST 271800Z 25005KT 6000 BKN020 OVC030 20/16 Q1019","temp":20,"dewp":16,"wdir":250,"wspd":5,"visib":3.73,"altim":1019,"clouds":[{"cover":"BKN","base":2000},{"cover":"OVC","base":3000}],"obsTime":1779904800},"SBGW":{"icaoId":"SBGW","flightCategory":"MVFR","rawOb":"METAR SBGW 271800Z 24008KT 210V290 8000 BKN035 26/16 Q1018","temp":26,"dewp":16,"wdir":240,"wspd":8,"visib":4.97,"altim":1018,"clouds":[{"cover":"BKN","base":3500}],"obsTime":1779904800},"SBTA":{"icaoId":"SBTA","flightCategory":"VFR","rawOb":"METAR SBTA 271800Z 18007KT 9999 SCT030 BKN035 BKN080 24/17 Q1018","temp":24,"dewp":17,"wdir":180,"wspd":7,"visib":"6+","altim":1018,"clouds":[{"cover":"SCT","base":3000},{"cover":"BKN","base":3500},{"cover":"BKN","base":8000}],"obsTime":1779904800},"SBJP":{"icaoId":"SBJP","flightCategory":"MVFR","rawOb":"METAR SBJP 271800Z 16010KT 9999 BKN018 BKN070 25/24 Q1012","temp":25,"dewp":24,"wdir":160,"wspd":10,"visib":"6+","altim":1012,"clouds":[{"cover":"BKN","base":1800},{"cover":"BKN","base":7000}],"obsTime":1779904800},"SBAF":{"icaoId":"SBAF","flightCategory":"MVFR","rawOb":"METAR SBAF 271800Z 22012KT 180V250 9999 BKN030 25/22 Q1017","temp":25,"dewp":22,"wdir":220,"wspd":12,"visib":"6+","altim":1017,"clouds":[{"cover":"BKN","base":3000}],"obsTime":1779904800},"SBLE":{"icaoId":"SBLE","flightCategory":"VFR","rawOb":"METAR SBLE 271800Z AUTO 16005KT 090V220 CAVOK 28/18 Q1016","temp":28,"dewp":18,"wdir":160,"wspd":5,"visib":"6+","altim":1016,"clouds":[],"obsTime":1779904800},"SBIH":{"icaoId":"SBIH","flightCategory":"VFR","rawOb":"METAR SBIH 271800Z 10006KT 9999 FEW020 34/22 Q1009","temp":34,"dewp":22,"wdir":100,"wspd":6,"visib":"6+","altim":1009,"clouds":[{"cover":"FEW","base":2000}],"obsTime":1779904800},"SBJV":{"icaoId":"SBJV","flightCategory":"VFR","rawOb":"METAR SBJV 271800Z 13008KT 9999 FEW030 23/18 Q1018","temp":23,"dewp":18,"wdir":130,"wspd":8,"visib":"6+","altim":1018,"clouds":[{"cover":"FEW","base":3000}],"obsTime":1779904800},"SBNM":{"icaoId":"SBNM","flightCategory":"VFR","rawOb":"METAR SBNM 271800Z AUTO 09007KT 060V130 CAVOK 21/13 Q1020","temp":21,"dewp":13,"wdir":90,"wspd":7,"visib":"6+","altim":1020,"clouds":[],"obsTime":1779904800},"SBJR":{"icaoId":"SBJR","flightCategory":"IFR","rawOb":"METAR SBJR 271800Z 24007KT 9999 BKN008 BKN050 27/22 Q1017","temp":27,"dewp":22,"wdir":240,"wspd":7,"visib":"6+","altim":1017,"clouds":[{"cover":"BKN","base":800},{"cover":"BKN","base":5000}],"obsTime":1779904800},"SBAN":{"icaoId":"SBAN","flightCategory":"VFR","rawOb":"METAR SBAN 271800Z 20005KT 9999 SCT030 27/14 Q1020","temp":27,"dewp":14,"wdir":200,"wspd":5,"visib":"6+","altim":1020,"clouds":[{"cover":"SCT","base":3000}],"obsTime":1779904800}}}