{"updated":1774899939,"count":85,"data":{"SBPV":{"icaoId":"SBPV","flightCategory":"VFR","rawOb":"METAR SBPV 301800Z 14003KT 9999 BKN035 30/21 Q1011","temp":30,"dewp":21,"wdir":140,"wspd":3,"visib":"6+","altim":1011,"clouds":[{"cover":"BKN","base":3500}],"obsTime":1774893600},"SBBE":{"icaoId":"SBBE","flightCategory":"VFR","rawOb":"METAR SBBE 301800Z 04013KT 9999 -TSRA FEW027 FEW035CB BKN041 30/25 Q1008","temp":30,"dewp":25,"wdir":40,"wspd":13,"visib":"6+","altim":1008,"clouds":[{"cover":"FEW","base":2700},{"cover":"FEW","base":3500},{"cover":"BKN","base":4100}],"obsTime":1774893600},"SBBR":{"icaoId":"SBBR","flightCategory":"VFR","rawOb":"METAR SBBR 301800Z VRB04KT 9999 SCT045 29/14 Q1016","temp":29,"dewp":14,"wdir":"VRB","wspd":4,"visib":"6+","altim":1016,"clouds":[{"cover":"SCT","base":4500}],"obsTime":1774893600},"SBBV":{"icaoId":"SBBV","flightCategory":"MVFR","rawOb":"METAR SBBV 301800Z 15008KT 9999 VCSH BKN030 FEW035TCU BKN080 29/22 Q1010","temp":29,"dewp":22,"wdir":150,"wspd":8,"visib":"6+","altim":1010,"clouds":[{"cover":"BKN","base":3000},{"cover":"FEW","base":3500},{"cover":"BKN","base":8000}],"obsTime":1774893600},"SBCB":{"icaoId":"SBCB","flightCategory":"VFR","rawOb":"METAR SBCB 301800Z 18009KT 9999 FEW030 28/21 Q1013","temp":28,"dewp":21,"wdir":180,"wspd":9,"visib":"6+","altim":1013,"clouds":[{"cover":"FEW","base":3000}],"obsTime":1774893600},"SBCF":{"icaoId":"SBCF","flightCategory":"VFR","rawOb":"METAR SBCF 301800Z 35003KT 9999 BKN040 FEW040TCU 28/17 Q1016","temp":28,"dewp":17,"wdir":350,"wspd":3,"visib":"6+","altim":1016,"clouds":[{"cover":"BKN","base":4000},{"cover":"FEW","base":4000}],"obsTime":1774893600},"SBCG":{"icaoId":"SBCG","flightCategory":"VFR","rawOb":"METAR SBCG 301800Z 12005KT 070V160 CAVOK 32/17 Q1014","temp":32,"dewp":17,"wdir":120,"wspd":5,"visib":"6+","altim":1014,"clouds":[],"obsTime":1774893600},"SBCP":{"icaoId":"SBCP","flightCategory":"MVFR","rawOb":"METAR SBCP 301800Z 15009KT 9999 BKN020 30/23 Q1011","temp":30,"dewp":23,"wdir":150,"wspd":9,"visib":"6+","altim":1011,"clouds":[{"cover":"BKN","base":2000}],"obsTime":1774893600},"SBCR":{"icaoId":"SBCR","flightCategory":"VFR","rawOb":"METAR SBCR 301800Z VRB05KT 9999 SCT033 35/21 Q1011","temp":35,"dewp":21,"wdir":"VRB","wspd":5,"visib":"6+","altim":1011,"clouds":[{"cover":"SCT","base":3300}],"obsTime":1774893600},"SBCT":{"icaoId":"SBCT","flightCategory":"MVFR","rawOb":"METAR SBCT 301800Z 10008KT 070V130 9000 -TSRA BKN030 FEW040CB BKN100 24/20 Q1017 RETS","temp":24,"dewp":20,"wdir":100,"wspd":8,"visib":5.59,"altim":1017,"clouds":[{"cover":"BKN","base":3000},{"cover":"FEW","base":4000},{"cover":"BKN","base":10000}],"obsTime":1774893600},"SBCZ":{"icaoId":"SBCZ","flightCategory":"MVFR","rawOb":"METAR SBCZ 301800Z 24005KT 9999 BKN030 28/24 Q1012","temp":28,"dewp":24,"wdir":240,"wspd":5,"visib":"6+","altim":1012,"clouds":[{"cover":"BKN","base":3000}],"obsTime":1774893600},"SBEG":{"icaoId":"SBEG","flightCategory":"VFR","rawOb":"METAR SBEG 301800Z 14007KT 080V170 9999 VCSH SCT020 FEW025TCU SCT100 30/24 Q1010","temp":30,"dewp":24,"wdir":140,"wspd":7,"visib":"6+","altim":1010,"clouds":[{"cover":"SCT","base":2000},{"cover":"FEW","base":2500},{"cover":"SCT","base":10000}],"obsTime":1774893600},"SBFI":{"icaoId":"SBFI","flightCategory":"VFR","rawOb":"METAR SBFI 301800Z 20006KT 9999 FEW035 35/17 Q1012","temp":35,"dewp":17,"wdir":200,"wspd":6,"visib":"6+","altim":1012,"clouds":[{"cover":"FEW","base":3500}],"obsTime":1774893600},"SBFL":{"icaoId":"SBFL","flightCategory":"MVFR","rawOb":"METAR SBFL 301800Z 12013KT 9999 VCSH BKN015 BKN100 27/23 Q1014","temp":27,"dewp":23,"wdir":120,"wspd":13,"visib":"6+","altim":1014,"clouds":[{"cover":"BKN","base":1500},{"cover":"BKN","base":10000}],"obsTime":1774893600},"SBFZ":{"icaoId":"SBFZ","flightCategory":"VFR","rawOb":"METAR SBFZ 301800Z 06007KT 030V090 9999 TS VCSH SCT018 FEW025CB 30/23 Q1008","temp":30,"dewp":23,"wdir":60,"wspd":7,"visib":"6+","altim":1008,"clouds":[{"cover":"SCT","base":1800},{"cover":"FEW","base":2500}],"obsTime":1774893600},"SBGL":{"icaoId":"SBGL","flightCategory":"VFR","rawOb":"METAR SBGL 301800Z 13015KT 9999 FEW030 FEW030TCU 28/20 Q1012","temp":28,"dewp":20,"wdir":130,"wspd":15,"visib":"6+","altim":1012,"clouds":[{"cover":"FEW","base":3000},{"cover":"FEW","base":3000}],"obsTime":1774893600},"SBGO":{"icaoId":"SBGO","flightCategory":"VFR","rawOb":"METAR SBGO 301800Z 13010KT 110V170 9999 FEW045TCU SCT048 29/18 Q1014","temp":29,"dewp":18,"wdir":130,"wspd":10,"visib":"6+","altim":1014,"clouds":[{"cover":"FEW","base":4500},{"cover":"SCT","base":4800}],"obsTime":1774893600},"SBGR":{"icaoId":"SBGR","flightCategory":"VFR","rawOb":"METAR SBGR 301800Z 15006KT 9999 FEW030 27/20 Q1016","temp":27,"dewp":20,"wdir":150,"wspd":6,"visib":"6+","altim":1016,"clouds":[{"cover":"FEW","base":3000}],"obsTime":1774893600},"SBHT":{"icaoId":"SBHT","flightCategory":"MVFR","rawOb":"METAR SBHT 301800Z 06004KT 9999 BKN023 BKN100 28/24 Q1009","temp":28,"dewp":24,"wdir":60,"wspd":4,"visib":"6+","altim":1009,"clouds":[{"cover":"BKN","base":2300},{"cover":"BKN","base":10000}],"obsTime":1774893600},"SBIL":{"icaoId":"SBIL","flightCategory":"VFR","rawOb":"METAR SBIL 301800Z 18006KT 9999 FEW020 SCT070 28/23 Q1011","temp":28,"dewp":23,"wdir":180,"wspd":6,"visib":"6+","altim":1011,"clouds":[{"cover":"FEW","base":2000},{"cover":"SCT","base":7000}],"obsTime":1774893600},"SBJU":{"icaoId":"SBJU","flightCategory":"MVFR","rawOb":"METAR SBJU 301800Z 00000KT 9999 BKN020 31/21 Q1010","temp":31,"dewp":21,"wdir":0,"wspd":0,"visib":"6+","altim":1010,"clouds":[{"cover":"BKN","base":2000}],"obsTime":1774893600},"SBKP":{"icaoId":"SBKP","flightCategory":"VFR","rawOb":"METAR SBKP 301800Z 26006KT 210V310 9999 FEW045 31/17 Q1014","temp":31,"dewp":17,"wdir":260,"wspd":6,"visib":"6+","altim":1014,"clouds":[{"cover":"FEW","base":4500}],"obsTime":1774893600},"SBLO":{"icaoId":"SBLO","flightCategory":"VFR","rawOb":"METAR SBLO 301800Z VRB03KT 9999 FEW040 33/17 Q1013","temp":33,"dewp":17,"wdir":"VRB","wspd":3,"visib":"6+","altim":1013,"clouds":[{"cover":"FEW","base":4000}],"obsTime":1774893600},"SBMA":{"icaoId":"SBMA","flightCategory":"VFR","rawOb":"METAR SBMA 301800Z 09005KT 9999 SCT020 FEW023TCU BKN100 28/24 Q1009","temp":28,"dewp":24,"wdir":90,"wspd":5,"visib":"6+","altim":1009,"clouds":[{"cover":"SCT","base":2000},{"cover":"FEW","base":2300},{"cover":"BKN","base":10000}],"obsTime":1774893600},"SBME":{"icaoId":"SBME","flightCategory":"VFR","rawOb":"METAR SBME 301800Z 14008KT 9999 FEW030 30/23 Q1012","temp":30,"dewp":23,"wdir":140,"wspd":8,"visib":"6+","altim":1012,"clouds":[{"cover":"FEW","base":3000}],"obsTime":1774893600},"SBMG":{"icaoId":"SBMG","flightCategory":"VFR","rawOb":"METAR SBMG 301800Z 23005KT 170V300 9999 FEW045 34/18 Q1013","temp":34,"dewp":18,"wdir":230,"wspd":5,"visib":"6+","altim":1013,"clouds":[{"cover":"FEW","base":4500}],"obsTime":1774893600},"SBMK":{"icaoId":"SBMK","flightCategory":"VFR","rawOb":"METAR SBMK 301800Z 05006KT 9999 SCT044 29/17 Q1014","temp":29,"dewp":17,"wdir":50,"wspd":6,"visib":"6+","altim":1014,"clouds":[{"cover":"SCT","base":4400}],"obsTime":1774893600},"SBMO":{"icaoId":"SBMO","flightCategory":"VFR","rawOb":"METAR SBMO 301800Z 13009KT 9999 SCT025 SCT080 29/24 Q1009","temp":29,"dewp":24,"wdir":130,"wspd":9,"visib":"6+","altim":1009,"clouds":[{"cover":"SCT","base":2500},{"cover":"SCT","base":8000}],"obsTime":1774893600},"SBMQ":{"icaoId":"SBMQ","flightCategory":"MVFR","rawOb":"METAR SBMQ 301800Z 04002KT 9999 BKN021 FEW035TCU 31/25 Q1009","temp":31,"dewp":25,"wdir":40,"wspd":2,"visib":"6+","altim":1009,"clouds":[{"cover":"BKN","base":2100},{"cover":"FEW","base":3500}],"obsTime":1774893600},"SBNT":{"icaoId":"SBNT","flightCategory":"VFR","rawOb":"METAR SBNT 301800Z 09011KT 060V120 9999 SCT024 SCT034 BKN070 30/24 Q1008","temp":30,"dewp":24,"wdir":90,"wspd":11,"visib":"6+","altim":1008,"clouds":[{"cover":"SCT","base":2400},{"cover":"SCT","base":3400},{"cover":"BKN","base":7000}],"obsTime":1774893600},"SBPA":{"icaoId":"SBPA","flightCategory":"MVFR","rawOb":"METAR SBPA 301800Z 13006KT 9999 VCSH FEW015 BKN023 FEW035TCU BKN080 26/24 Q1014 RERA","temp":26,"dewp":24,"wdir":130,"wspd":6,"visib":"6+","altim":1014,"clouds":[{"cover":"FEW","base":1500},{"cover":"BKN","base":2300},{"cover":"FEW","base":3500},{"cover":"BKN","base":8000}],"obsTime":1774893600},"SBPJ":{"icaoId":"SBPJ","flightCategory":"VFR","rawOb":"METAR SBPJ 301800Z 23005KT 9999 FEW020 SCT045 31/24 Q1010","temp":31,"dewp":24,"wdir":230,"wspd":5,"visib":"6+","altim":1010,"clouds":[{"cover":"FEW","base":2000},{"cover":"SCT","base":4500}],"obsTime":1774893600},"SBAT":{"icaoId":"SBAT","flightCategory":"VFR","rawOb":"METAR SBAT 301800Z 09004KT 9999 SCT030 FEW035TCU 33/22 Q1010","temp":33,"dewp":22,"wdir":90,"wspd":4,"visib":"6+","altim":1010,"clouds":[{"cover":"SCT","base":3000},{"cover":"FEW","base":3500}],"obsTime":1774893600},"SBRB":{"icaoId":"SBRB","flightCategory":"MVFR","rawOb":"METAR SBRB 301800Z 13006KT 9999 BKN020 FEW030TCU 30/24 Q1012","temp":30,"dewp":24,"wdir":130,"wspd":6,"visib":"6+","altim":1012,"clouds":[{"cover":"BKN","base":2000},{"cover":"FEW","base":3000}],"obsTime":1774893600},"SBRF":{"icaoId":"SBRF","flightCategory":"VFR","rawOb":"METAR SBRF 301800Z 14012KT 9999 SCT023 29/24 Q1008","temp":29,"dewp":24,"wdir":140,"wspd":12,"visib":"6+","altim":1008,"clouds":[{"cover":"SCT","base":2300}],"obsTime":1774893600},"SBSG":{"icaoId":"SBSG","flightCategory":"VFR","rawOb":"METAR SBSG 301800Z 07012KT 9999 SCT033 30/24 Q1008","temp":30,"dewp":24,"wdir":70,"wspd":12,"visib":"6+","altim":1008,"clouds":[{"cover":"SCT","base":3300}],"obsTime":1774893600},"SBSL":{"icaoId":"SBSL","flightCategory":"VFR","rawOb":"METAR SBSL 301800Z 05009KT 9999 SCT020 FEW025TCU BKN100 30/24 Q1008","temp":30,"dewp":24,"wdir":50,"wspd":9,"visib":"6+","altim":1008,"clouds":[{"cover":"SCT","base":2000},{"cover":"FEW","base":2500},{"cover":"BKN","base":10000}],"obsTime":1774893600},"SBSN":{"icaoId":"SBSN","flightCategory":"MVFR","rawOb":"METAR SBSN 301800Z 08008KT 9999 SCT016 BKN020 BKN090 28/25 Q1009","temp":28,"dewp":25,"wdir":80,"wspd":8,"visib":"6+","altim":1009,"clouds":[{"cover":"SCT","base":1600},{"cover":"BKN","base":2000},{"cover":"BKN","base":9000}],"obsTime":1774893600},"SBSP":{"icaoId":"SBSP","flightCategory":"VFR","rawOb":"METAR SBSP 301800Z 16010KT 140V200 9999 FEW030 25/19 Q1017","temp":25,"dewp":19,"wdir":160,"wspd":10,"visib":"6+","altim":1017,"clouds":[{"cover":"FEW","base":3000}],"obsTime":1774893600},"SBSV":{"icaoId":"SBSV","flightCategory":"VFR","rawOb":"METAR SBSV 301800Z 20007KT 150V230 9999 VCSH FEW009 SCT020 FEW025TCU BKN060 27/23 Q1011","temp":27,"dewp":23,"wdir":200,"wspd":7,"visib":"6+","altim":1011,"clouds":[{"cover":"FEW","base":900},{"cover":"SCT","base":2000},{"cover":"FEW","base":2500},{"cover":"BKN","base":6000}],"obsTime":1774893600},"SBTE":{"icaoId":"SBTE","flightCategory":"VFR","rawOb":"METAR SBTE 301800Z 19005KT 9999 VCSH SCT016 FEW025TCU BKN090 29/23 Q1007","temp":29,"dewp":23,"wdir":190,"wspd":5,"visib":"6+","altim":1007,"clouds":[{"cover":"SCT","base":1600},{"cover":"FEW","base":2500},{"cover":"BKN","base":9000}],"obsTime":1774893600},"SBUL":{"icaoId":"SBUL","flightCategory":"VFR","rawOb":"METAR SBUL 301800Z 16004KT 9999 BKN048 29/14 Q1016","temp":29,"dewp":14,"wdir":160,"wspd":4,"visib":"6+","altim":1016,"clouds":[{"cover":"BKN","base":4800}],"obsTime":1774893600},"SBUR":{"icaoId":"SBUR","flightCategory":"VFR","rawOb":"METAR SBUR 301800Z 19008KT 9999 FEW047 SCT070 30/16 Q1015","temp":30,"dewp":16,"wdir":190,"wspd":8,"visib":"6+","altim":1015,"clouds":[{"cover":"FEW","base":4700},{"cover":"SCT","base":7000}],"obsTime":1774893600},"SBVT":{"icaoId":"SBVT","flightCategory":"VFR","rawOb":"METAR SBVT 301800Z 12008KT 9999 FEW025 28/23 Q1012","temp":28,"dewp":23,"wdir":120,"wspd":8,"visib":"6+","altim":1012,"clouds":[{"cover":"FEW","base":2500}],"obsTime":1774893600},"SBVH":{"icaoId":"SBVH","flightCategory":"VFR","rawOb":"METAR SBVH 301800Z 11006KT 9999 SCT040 30/21 Q1013","temp":30,"dewp":21,"wdir":110,"wspd":6,"visib":"6+","altim":1013,"clouds":[{"cover":"SCT","base":4000}],"obsTime":1774893600},"SBBQ":{"icaoId":"SBBQ","flightCategory":"VFR","rawOb":"METAR SBBQ 301800Z VRB04KT 9999 BKN040 26/15 Q1019","temp":26,"dewp":15,"wdir":"VRB","wspd":4,"visib":"6+","altim":1019,"clouds":[{"cover":"BKN","base":4000}],"obsTime":1774893600},"SBOI":{"icaoId":"SBOI","flightCategory":"VFR","rawOb":"METAR SBOI 301800Z AUTO 01006KT 9999 -RA SCT005 26/25 Q1010","temp":26,"dewp":25,"wdir":10,"wspd":6,"visib":"6+","altim":1010,"clouds":[{"cover":"SCT","base":500}],"obsTime":1774893600},"SBAR":{"icaoId":"SBAR","flightCategory":"VFR","rawOb":"METAR SBAR 301800Z 12008KT 9999 SCT020 SCT100 29/23 Q1010","temp":29,"dewp":23,"wdir":120,"wspd":8,"visib":"6+","altim":1010,"clouds":[{"cover":"SCT","base":2000},{"cover":"SCT","base":10000}],"obsTime":1774893600},"SBKG":{"icaoId":"SBKG","flightCategory":"VFR","rawOb":"METAR SBKG 301800Z 09009KT 9999 SCT028 SCT090 29/21 Q1011","temp":29,"dewp":21,"wdir":90,"wspd":9,"visib":"6+","altim":1011,"clouds":[{"cover":"SCT","base":2800},{"cover":"SCT","base":9000}],"obsTime":1774893600},"SBPB":{"icaoId":"SBPB","flightCategory":"VFR","rawOb":"METAR SBPB 301800Z 36010KT 9999 SCT020 BKN100 30/24 Q1008","temp":30,"dewp":24,"wdir":360,"wspd":10,"visib":"6+","altim":1008,"clouds":[{"cover":"SCT","base":2000},{"cover":"BKN","base":10000}],"obsTime":1774893600},"SBPL":{"icaoId":"SBPL","flightCategory":"MVFR","rawOb":"METAR SBPL 301800Z 14010KT 9999 BKN030 30/22 Q1010","temp":30,"dewp":22,"wdir":140,"wspd":10,"visib":"6+","altim":1010,"clouds":[{"cover":"BKN","base":3000}],"obsTime":1774893600},"SBCJ":{"icaoId":"SBCJ","flightCategory":"VFR","rawOb":"METAR SBCJ 301800Z 00000KT 9999 FEW015 SCT020TCU 25/22 Q1013","temp":25,"dewp":22,"wdir":0,"wspd":0,"visib":"6+","altim":1013,"clouds":[{"cover":"FEW","base":1500},{"cover":"SCT","base":2000}],"obsTime":1774893600},"SBCO":{"icaoId":"SBCO","flightCategory":"MVFR","rawOb":"METAR SBCO 301800Z 08009KT 050V110 8000 -RA BKN027 FEW035TCU BKN090 26/23 Q1015","temp":26,"dewp":23,"wdir":80,"wspd":9,"visib":4.97,"altim":1015,"clouds":[{"cover":"BKN","base":2700},{"cover":"FEW","base":3500},{"cover":"BKN","base":9000}],"obsTime":1774893600},"SBPP":{"icaoId":"SBPP","flightCategory":"VFR","rawOb":"METAR SBPP 301800Z 35003KT 9999 SCT025 31/17 Q1016","temp":31,"dewp":17,"wdir":350,"wspd":3,"visib":"6+","altim":1016,"clouds":[{"cover":"SCT","base":2500}],"obsTime":1774893600},"SBBU":{"icaoId":"SBBU","flightCategory":"VFR","rawOb":"METAR SBBU 301800Z 24007KT 9999 FEW045 33/19 Q1014","temp":33,"dewp":19,"wdir":240,"wspd":7,"visib":"6+","altim":1014,"clouds":[{"cover":"FEW","base":4500}],"obsTime":1774893600},"SBPS":{"icaoId":"SBPS","flightCategory":"VFR","rawOb":"METAR SBPS 301800Z 12006KT 9999 SCT020 26/23 Q1012","temp":26,"dewp":23,"wdir":120,"wspd":6,"visib":"6+","altim":1012,"clouds":[{"cover":"SCT","base":2000}],"obsTime":1774893600},"SBSC":{"icaoId":"SBSC","flightCategory":"VFR","rawOb":"METAR SBSC 301800Z 22011KT 9999 FEW020 27/22 Q1012","temp":27,"dewp":22,"wdir":220,"wspd":11,"visib":"6+","altim":1012,"clouds":[{"cover":"FEW","base":2000}],"obsTime":1774893600},"SBDN":{"icaoId":"SBDN","flightCategory":"VFR","rawOb":"METAR SBDN 301800Z 24005KT CAVOK 34/17 Q1013","temp":34,"dewp":17,"wdir":240,"wspd":5,"visib":"6+","altim":1013,"clouds":[],"obsTime":1774893600},"SBBH":{"icaoId":"SBBH","flightCategory":"VFR","rawOb":"METAR SBBH 301800Z 06007KT 9999 SCT040 SCT070 28/16 Q1015","temp":28,"dewp":16,"wdir":60,"wspd":7,"visib":"6+","altim":1015,"clouds":[{"cover":"SCT","base":4000},{"cover":"SCT","base":7000}],"obsTime":1774893600},"SBSJ":{"icaoId":"SBSJ","flightCategory":"VFR","rawOb":"METAR SBSJ 301800Z 12014KT 9999 FEW040 26/18 Q1015","temp":26,"dewp":18,"wdir":120,"wspd":14,"visib":"6+","altim":1015,"clouds":[{"cover":"FEW","base":4000}],"obsTime":1774893600},"SBSM":{"icaoId":"SBSM","flightCategory":"VFR","rawOb":"METAR SBSM 301800Z 14004KT 100V180 9999 FEW040TCU 29/24 Q1013","temp":29,"dewp":24,"wdir":140,"wspd":4,"visib":"6+","altim":1013,"clouds":[{"cover":"FEW","base":4000}],"obsTime":1774893600},"SBES":{"icaoId":"SBES","flightCategory":"VFR","rawOb":"METAR SBES 301800Z 16008KT 120V250 9999 FEW020 28/// Q1012","temp":null,"dewp":null,"wdir":160,"wspd":8,"visib":"6+","altim":1012,"clouds":[{"cover":"FEW","base":2000}],"obsTime":1774893600},"SBSR":{"icaoId":"SBSR","flightCategory":"MVFR","rawOb":"METAR SBSR 301800Z VRB05KT 9999 BKN030 32/15 Q1013","temp":32,"dewp":15,"wdir":"VRB","wspd":5,"visib":"6+","altim":1013,"clouds":[{"cover":"BKN","base":3000}],"obsTime":1774893600},"SBCA":{"icaoId":"SBCA","flightCategory":"VFR","rawOb":"METAR SBCA 301800Z 20008KT 9999 SCT030 32/16 Q1016","temp":32,"dewp":16,"wdir":200,"wspd":8,"visib":"6+","altim":1016,"clouds":[{"cover":"SCT","base":3000}],"obsTime":1774893600},"SBGM":{"icaoId":"SBGM","flightCategory":"VFR","rawOb":"METAR SBGM 301800Z 09005KT 9999 SCT033 31/21 Q1012","temp":31,"dewp":21,"wdir":90,"wspd":5,"visib":"6+","altim":1012,"clouds":[{"cover":"SCT","base":3300}],"obsTime":1774893600},"SBTF":{"icaoId":"SBTF","flightCategory":"VFR","rawOb":"METAR SBTF 301800Z 06008KT 9999 SCT019 32/26 Q1009","temp":32,"dewp":26,"wdir":60,"wspd":8,"visib":"6+","altim":1009,"clouds":[{"cover":"SCT","base":1900}],"obsTime":1774893600},"SBAX":{"icaoId":"SBAX","flightCategory":"VFR","rawOb":"METAR SBAX 301800Z 09002KT CAVOK 27/16 Q1016","temp":27,"dewp":16,"wdir":90,"wspd":2,"visib":"6+","altim":1016,"clouds":[],"obsTime":1774893600},"SBTT":{"icaoId":"SBTT","flightCategory":"MVFR","rawOb":"METAR SBTT 301800Z 23004KT 9999 BKN021 SCT070 30/24 Q1010","temp":30,"dewp":24,"wdir":230,"wspd":4,"visib":"6+","altim":1010,"clouds":[{"cover":"BKN","base":2100},{"cover":"SCT","base":7000}],"obsTime":1774893600},"SBIP":{"icaoId":"SBIP","flightCategory":"VFR","rawOb":"METAR SBIP 301800Z AUTO 05006KT 360V090 CAVOK 31/19 Q1012","temp":31,"dewp":19,"wdir":50,"wspd":6,"visib":"6+","altim":1012,"clouds":[],"obsTime":1774893600},"SBUY":{"icaoId":"SBUY","flightCategory":"VFR","rawOb":"METAR SBUY 301800Z 18004KT 9999 SCT025 FEW030TCU SCT100 29/25 Q1008","temp":29,"dewp":25,"wdir":180,"wspd":4,"visib":"6+","altim":1008,"clouds":[{"cover":"SCT","base":2500},{"cover":"FEW","base":3000},{"cover":"SCT","base":10000}],"obsTime":1774893600},"SBCC":{"icaoId":"SBCC","flightCategory":"MVFR","rawOb":"METAR SBCC 301800Z 07015KT 9999 TS VCSH BKN020 FEW025CB BKN100 26/21 Q1012","temp":26,"dewp":21,"wdir":70,"wspd":15,"visib":"6+","altim":1012,"clouds":[{"cover":"BKN","base":2000},{"cover":"FEW","base":2500},{"cover":"BKN","base":10000}],"obsTime":1774893600},"SBAU":{"icaoId":"SBAU","flightCategory":"VFR","rawOb":"METAR SBAU 301800Z 21005KT 9999 FEW040 34/17 Q1012","temp":34,"dewp":17,"wdir":210,"wspd":5,"visib":"6+","altim":1012,"clouds":[{"cover":"FEW","base":4000}],"obsTime":1774893600},"SBAF":{"icaoId":"SBAF","flightCategory":"VFR","rawOb":"METAR SBAF 301800Z 19013KT 9999 FEW025 29/21 Q1012","temp":29,"dewp":21,"wdir":190,"wspd":13,"visib":"6+","altim":1012,"clouds":[{"cover":"FEW","base":2500}],"obsTime":1774893600},"SBAN":{"icaoId":"SBAN","flightCategory":"VFR","rawOb":"METAR SBAN 301800Z 20003KT 9999 BKN040 28/15 Q1017","temp":28,"dewp":15,"wdir":200,"wspd":3,"visib":"6+","altim":1017,"clouds":[{"cover":"BKN","base":4000}],"obsTime":1774893600},"SBGW":{"icaoId":"SBGW","flightCategory":"VFR","rawOb":"METAR SBGW 301800Z VRB03KT 9999 SCT025 31/17 Q1013","temp":31,"dewp":17,"wdir":"VRB","wspd":3,"visib":"6+","altim":1013,"clouds":[{"cover":"SCT","base":2500}],"obsTime":1774893600},"SBIH":{"icaoId":"SBIH","flightCategory":"VFR","rawOb":"METAR SBIH 301800Z 25005KT 9999 SCT016 27/25 Q1010","temp":27,"dewp":25,"wdir":250,"wspd":5,"visib":"6+","altim":1010,"clouds":[{"cover":"SCT","base":1600}],"obsTime":1774893600},"SBJP":{"icaoId":"SBJP","flightCategory":"MVFR","rawOb":"METAR SBJP 301800Z 10010KT 060V170 9999 BKN030 31/23 Q1008","temp":31,"dewp":23,"wdir":100,"wspd":10,"visib":"6+","altim":1008,"clouds":[{"cover":"BKN","base":3000}],"obsTime":1774893600},"SBJR":{"icaoId":"SBJR","flightCategory":"VFR","rawOb":"METAR SBJR 301800Z 17008KT 9999 FEW030 30/21 Q1012","temp":30,"dewp":21,"wdir":170,"wspd":8,"visib":"6+","altim":1012,"clouds":[{"cover":"FEW","base":3000}],"obsTime":1774893600},"SBJV":{"icaoId":"SBJV","flightCategory":"VFR","rawOb":"METAR SBJV 301800Z 07007KT 9999 SCT025 BKN080 30/23 Q1012","temp":30,"dewp":23,"wdir":70,"wspd":7,"visib":"6+","altim":1012,"clouds":[{"cover":"SCT","base":2500},{"cover":"BKN","base":8000}],"obsTime":1774893600},"SBLE":{"icaoId":"SBLE","flightCategory":"VFR","rawOb":"METAR SBLE 301800Z AUTO 12004KT 070V160 CAVOK 27/21 Q1013","temp":27,"dewp":21,"wdir":120,"wspd":4,"visib":"6+","altim":1013,"clouds":[],"obsTime":1774893600},"SBLS":{"icaoId":"SBLS","flightCategory":"VFR","rawOb":"METAR SBLS 301800Z 13003KT 060V120 9999 VCSH SCT035 FEW040TCU 26/17 Q1015","temp":26,"dewp":17,"wdir":130,"wspd":3,"visib":"6+","altim":1015,"clouds":[{"cover":"SCT","base":3500},{"cover":"FEW","base":4000}],"obsTime":1774893600},"SBMT":{"icaoId":"SBMT","flightCategory":"VFR","rawOb":"METAR SBMT 301800Z 16009KT 120V200 9999 SCT040 26/18 Q1016","temp":26,"dewp":18,"wdir":160,"wspd":9,"visib":"6+","altim":1016,"clouds":[{"cover":"SCT","base":4000}],"obsTime":1774893600},"SBPF":{"icaoId":"SBPF","flightCategory":"VFR","rawOb":"METAR SBPF 301900Z 22008KT 9999 FEW040 31/17 Q1015","temp":31,"dewp":17,"wdir":220,"wspd":8,"visib":"6+","altim":1015,"clouds":[{"cover":"FEW","base":4000}],"obsTime":1774897200},"SBST":{"icaoId":"SBST","flightCategory":"VFR","rawOb":"METAR SBST 301800Z 26004KT 9999 FEW027 26/20 Q1013","temp":26,"dewp":20,"wdir":260,"wspd":4,"visib":"6+","altim":1013,"clouds":[{"cover":"FEW","base":2700}],"obsTime":1774893600},"SBTA":{"icaoId":"SBTA","flightCategory":"VFR","rawOb":"METAR SBTA 301800Z 21010KT 9999 TS VCSH SCT030 FEW035CB SCT100 27/26 Q1013","temp":27,"dewp":26,"wdir":210,"wspd":10,"visib":"6+","altim":1013,"clouds":[{"cover":"SCT","base":3000},{"cover":"FEW","base":3500},{"cover":"SCT","base":10000}],"obsTime":1774893600}}}