{"updated":1781394875,"count":72,"data":{"SBBR":{"icaoId":"SBBR","flightCategory":"MVFR","rawOb":"METAR SBBR 132200Z 19004KT 150V250 9999 VCTS BKN013 BKN040 FEW045CB 19/17 Q1023","temp":19,"dewp":17,"wdir":190,"wspd":4,"visib":"6+","altim":1023,"clouds":[{"cover":"BKN","base":1300},{"cover":"BKN","base":4000},{"cover":"FEW","base":4500}],"obsTime":1781388000},"SBVT":{"icaoId":"SBVT","flightCategory":"VFR","rawOb":"METAR SBVT 132200Z 33005KT 9999 FEW030 25/18 Q1014","temp":25,"dewp":18,"wdir":330,"wspd":5,"visib":"6+","altim":1014,"clouds":[{"cover":"FEW","base":3000}],"obsTime":1781388000},"SBBV":{"icaoId":"SBBV","flightCategory":"VFR","rawOb":"METAR SBBV 132200Z 08004KT 9999 FEW040 FEW045TCU BKN100 31/23 Q1010","temp":31,"dewp":23,"wdir":80,"wspd":4,"visib":"6+","altim":1010,"clouds":[{"cover":"FEW","base":4000},{"cover":"FEW","base":4500},{"cover":"BKN","base":10000}],"obsTime":1781388000},"SBCF":{"icaoId":"SBCF","flightCategory":"VFR","rawOb":"METAR SBCF 132200Z 03006KT 9999 FEW025 19/17 Q1021","temp":19,"dewp":17,"wdir":30,"wspd":6,"visib":"6+","altim":1021,"clouds":[{"cover":"FEW","base":2500}],"obsTime":1781388000},"SBCG":{"icaoId":"SBCG","flightCategory":"VFR","rawOb":"METAR SBCG 132200Z 08004KT 9999 FEW004 BKN080 20/19 Q1016","temp":20,"dewp":19,"wdir":80,"wspd":4,"visib":"6+","altim":1016,"clouds":[{"cover":"FEW","base":400},{"cover":"BKN","base":8000}],"obsTime":1781388000},"SBCT":{"icaoId":"SBCT","flightCategory":"VFR","rawOb":"METAR SBCT 132200Z 22003KT CAVOK 15/09 Q1019","temp":15,"dewp":9,"wdir":220,"wspd":3,"visib":"6+","altim":1019,"clouds":[],"obsTime":1781388000},"SBCZ":{"icaoId":"SBCZ","flightCategory":"MVFR","rawOb":"METAR SBCZ 132200Z 12002KT 9999 BKN030 31/26 Q1011","temp":31,"dewp":26,"wdir":120,"wspd":2,"visib":"6+","altim":1011,"clouds":[{"cover":"BKN","base":3000}],"obsTime":1781388000},"SBEG":{"icaoId":"SBEG","flightCategory":"VFR","rawOb":"METAR SBEG 132200Z 11007KT 9999 FEW030 30/23 Q1011","temp":30,"dewp":23,"wdir":110,"wspd":7,"visib":"6+","altim":1011,"clouds":[{"cover":"FEW","base":3000}],"obsTime":1781388000},"SBFI":{"icaoId":"SBFI","flightCategory":"VFR","rawOb":"METAR SBFI 132200Z 28001KT CAVOK 17/15 Q1015","temp":17,"dewp":15,"wdir":280,"wspd":1,"visib":"6+","altim":1015,"clouds":[],"obsTime":1781388000},"SBFL":{"icaoId":"SBFL","flightCategory":"VFR","rawOb":"METAR SBFL 132200Z 13006KT 100V170 CAVOK 17/13 Q1016","temp":17,"dewp":13,"wdir":130,"wspd":6,"visib":"6+","altim":1016,"clouds":[],"obsTime":1781388000},"SBFZ":{"icaoId":"SBFZ","flightCategory":"VFR","rawOb":"METAR SBFZ 132200Z 09011KT 9999 SCT020 27/23 Q1014","temp":27,"dewp":23,"wdir":90,"wspd":11,"visib":"6+","altim":1014,"clouds":[{"cover":"SCT","base":2000}],"obsTime":1781388000},"SBGL":{"icaoId":"SBGL","flightCategory":"MVFR","rawOb":"METAR SBGL 132200Z 25003KT 210V270 9999 BKN025 OVC030 24/18 Q1016","temp":24,"dewp":18,"wdir":250,"wspd":3,"visib":"6+","altim":1016,"clouds":[{"cover":"BKN","base":2500},{"cover":"OVC","base":3000}],"obsTime":1781388000},"SBGO":{"icaoId":"SBGO","flightCategory":"VFR","rawOb":"METAR SBGO 132200Z 10008KT 9999 TS SCT040 FEW050CB 21/19 Q1019 RERA","temp":21,"dewp":19,"wdir":100,"wspd":8,"visib":"6+","altim":1019,"clouds":[{"cover":"SCT","base":4000},{"cover":"FEW","base":5000}],"obsTime":1781388000},"SBGR":{"icaoId":"SBGR","flightCategory":"VFR","rawOb":"METAR SBGR 132200Z 30006KT 9999 SCT023 20/16 Q1019","temp":20,"dewp":16,"wdir":300,"wspd":6,"visib":"6+","altim":1019,"clouds":[{"cover":"SCT","base":2300}],"obsTime":1781388000},"SBIL":{"icaoId":"SBIL","flightCategory":"VFR","rawOb":"METAR SBIL 132200Z 06003KT CAVOK 26/23 Q1019","temp":26,"dewp":23,"wdir":60,"wspd":3,"visib":"6+","altim":1019,"clouds":[],"obsTime":1781388000},"SBJU":{"icaoId":"SBJU","flightCategory":"VFR","rawOb":"METAR SBJU 132200Z 36002KT 9999 FEW022 27/17 Q1017","temp":27,"dewp":17,"wdir":360,"wspd":2,"visib":"6+","altim":1017,"clouds":[{"cover":"FEW","base":2200}],"obsTime":1781388000},"SBKP":{"icaoId":"SBKP","flightCategory":"VFR","rawOb":"METAR SBKP 132200Z 32008KT CAVOK 21/16 Q1019","temp":21,"dewp":16,"wdir":320,"wspd":8,"visib":"6+","altim":1019,"clouds":[],"obsTime":1781388000},"SBLO":{"icaoId":"SBLO","flightCategory":"MVFR","rawOb":"METAR SBLO 132200Z 36006KT 9999 -RA BKN013 OVC025 18/18 Q1018","temp":18,"dewp":18,"wdir":360,"wspd":6,"visib":"6+","altim":1018,"clouds":[{"cover":"BKN","base":1300},{"cover":"OVC","base":2500}],"obsTime":1781388000},"SBMA":{"icaoId":"SBMA","flightCategory":"VFR","rawOb":"METAR SBMA 132200Z 03003KT 9999 SCT020 31/22 Q1012","temp":31,"dewp":22,"wdir":30,"wspd":3,"visib":"6+","altim":1012,"clouds":[{"cover":"SCT","base":2000}],"obsTime":1781388000},"SBME":{"icaoId":"SBME","flightCategory":"VFR","rawOb":"METAR SBME 132200Z 21007KT CAVOK 23/20 Q1016","temp":23,"dewp":20,"wdir":210,"wspd":7,"visib":"6+","altim":1016,"clouds":[],"obsTime":1781388000},"SBMG":{"icaoId":"SBMG","flightCategory":"LIFR","rawOb":"METAR SBMG 132200Z 36004KT 9000 -DZ BKN004 BKN013 BKN016 18/17 Q1017","temp":18,"dewp":17,"wdir":360,"wspd":4,"visib":5.59,"altim":1017,"clouds":[{"cover":"BKN","base":400},{"cover":"BKN","base":1300},{"cover":"BKN","base":1600}],"obsTime":1781388000},"SBMK":{"icaoId":"SBMK","flightCategory":"VFR","rawOb":"METAR SBMK 132200Z 26002KT 9999 SCT030 18/17 Q1020","temp":18,"dewp":17,"wdir":260,"wspd":2,"visib":"6+","altim":1020,"clouds":[{"cover":"SCT","base":3000}],"obsTime":1781388000},"SBMO":{"icaoId":"SBMO","flightCategory":"VFR","rawOb":"METAR SBMO 132200Z 19004KT 9999 FEW015 BKN070 25/24 Q1018","temp":25,"dewp":24,"wdir":190,"wspd":4,"visib":"6+","altim":1018,"clouds":[{"cover":"FEW","base":1500},{"cover":"BKN","base":7000}],"obsTime":1781388000},"SBMQ":{"icaoId":"SBMQ","flightCategory":"VFR","rawOb":"METAR SBMQ 132200Z 07006KT 9999 VCSH VCTS SCT021 FEW025CB BKN094 28/25 Q1013 RETS","temp":28,"dewp":25,"wdir":70,"wspd":6,"visib":"6+","altim":1013,"clouds":[{"cover":"SCT","base":2100},{"cover":"FEW","base":2500},{"cover":"BKN","base":9400}],"obsTime":1781388000},"SBNT":{"icaoId":"SBNT","flightCategory":"VFR","rawOb":"METAR SBNT 132200Z 14006KT 9999 FEW027 SCT070 26/24 Q1015","temp":26,"dewp":24,"wdir":140,"wspd":6,"visib":"6+","altim":1015,"clouds":[{"cover":"FEW","base":2700},{"cover":"SCT","base":7000}],"obsTime":1781388000},"SBPA":{"icaoId":"SBPA","flightCategory":"VFR","rawOb":"METAR SBPA 132200Z 27003KT 9999 SCT045 14/12 Q1017","temp":14,"dewp":12,"wdir":270,"wspd":3,"visib":"6+","altim":1017,"clouds":[{"cover":"SCT","base":4500}],"obsTime":1781388000},"SBPJ":{"icaoId":"SBPJ","flightCategory":"VFR","rawOb":"METAR SBPJ 132200Z 14001KT CAVOK 28/19 Q1014","temp":28,"dewp":19,"wdir":140,"wspd":1,"visib":"6+","altim":1014,"clouds":[],"obsTime":1781388000},"SBPV":{"icaoId":"SBPV","flightCategory":"VFR","rawOb":"METAR SBPV 132200Z 36002KT 9999 FEW035 29/24 Q1010","temp":29,"dewp":24,"wdir":360,"wspd":2,"visib":"6+","altim":1010,"clouds":[{"cover":"FEW","base":3500}],"obsTime":1781388000},"SBRB":{"icaoId":"SBRB","flightCategory":"VFR","rawOb":"METAR SBRB 132200Z 27002KT 9999 SCT030 30/24 Q1011","temp":30,"dewp":24,"wdir":270,"wspd":2,"visib":"6+","altim":1011,"clouds":[{"cover":"SCT","base":3000}],"obsTime":1781388000},"SBRF":{"icaoId":"SBRF","flightCategory":"VFR","rawOb":"METAR SBRF 132200Z 14011KT 9999 FEW025 27/23 Q1016","temp":27,"dewp":23,"wdir":140,"wspd":11,"visib":"6+","altim":1016,"clouds":[{"cover":"FEW","base":2500}],"obsTime":1781388000},"SBSG":{"icaoId":"SBSG","flightCategory":"VFR","rawOb":"METAR SBSG 132200Z 13004KT 090V160 CAVOK 26/24 Q1015","temp":26,"dewp":24,"wdir":130,"wspd":4,"visib":"6+","altim":1015,"clouds":[],"obsTime":1781388000},"SBSL":{"icaoId":"SBSL","flightCategory":"VFR","rawOb":"METAR SBSL 132200Z 07010KT 9999 FEW020 28/25 Q1012","temp":28,"dewp":25,"wdir":70,"wspd":10,"visib":"6+","altim":1012,"clouds":[{"cover":"FEW","base":2000}],"obsTime":1781388000},"SBSN":{"icaoId":"SBSN","flightCategory":"VFR","rawOb":"METAR SBSN 132200Z 11004KT 9999 FEW023 28/25 Q1012","temp":28,"dewp":25,"wdir":110,"wspd":4,"visib":"6+","altim":1012,"clouds":[{"cover":"FEW","base":2300}],"obsTime":1781388000},"SBSP":{"icaoId":"SBSP","flightCategory":"VFR","rawOb":"METAR SBSP 132200Z 33006KT CAVOK 19/16 Q1020","temp":19,"dewp":16,"wdir":330,"wspd":6,"visib":"6+","altim":1020,"clouds":[],"obsTime":1781388000},"SBSV":{"icaoId":"SBSV","flightCategory":"VFR","rawOb":"METAR SBSV 132200Z 09004KT 9999 FEW027 25/21 Q1018","temp":25,"dewp":21,"wdir":90,"wspd":4,"visib":"6+","altim":1018,"clouds":[{"cover":"FEW","base":2700}],"obsTime":1781388000},"SBTE":{"icaoId":"SBTE","flightCategory":"VFR","rawOb":"METAR SBTE 132200Z 31002KT CAVOK 31/21 Q1012","temp":31,"dewp":21,"wdir":310,"wspd":2,"visib":"6+","altim":1012,"clouds":[],"obsTime":1781388000},"SBUL":{"icaoId":"SBUL","flightCategory":"VFR","rawOb":"METAR SBUL 132200Z 12008KT 9999 SCT002 16/16 Q1022 RETS","temp":16,"dewp":16,"wdir":120,"wspd":8,"visib":"6+","altim":1022,"clouds":[{"cover":"SCT","base":200}],"obsTime":1781388000},"SBUR":{"icaoId":"SBUR","flightCategory":"LIFR","rawOb":"METAR SBUR 132200Z 10005KT 9999 BKN003 OVC100 17/16 Q1020","temp":17,"dewp":16,"wdir":100,"wspd":5,"visib":"6+","altim":1020,"clouds":[{"cover":"BKN","base":300},{"cover":"OVC","base":10000}],"obsTime":1781388000},"SBBE":{"icaoId":"SBBE","flightCategory":"VFR","rawOb":"METAR SBBE 132200Z 04005KT 9999 BKN040 27/25 Q1013","temp":27,"dewp":25,"wdir":40,"wspd":5,"visib":"6+","altim":1013,"clouds":[{"cover":"BKN","base":4000}],"obsTime":1781388000},"SBCP":{"icaoId":"SBCP","flightCategory":"VFR","rawOb":"METAR SBCP 132200Z 23010KT CAVOK 24/20 Q1016","temp":24,"dewp":20,"wdir":230,"wspd":10,"visib":"6+","altim":1016,"clouds":[],"obsTime":1781388000},"SBVH":{"icaoId":"SBVH","flightCategory":"VFR","rawOb":"METAR SBVH 132200Z 34005KT 9999 FEW035 27/22 Q1015","temp":27,"dewp":22,"wdir":340,"wspd":5,"visib":"6+","altim":1015,"clouds":[{"cover":"FEW","base":3500}],"obsTime":1781388000},"SBPS":{"icaoId":"SBPS","flightCategory":"VFR","rawOb":"METAR SBPS 132200Z 26003KT 9999 FEW025 FEW030TCU SCT100 24/22 Q1019","temp":24,"dewp":22,"wdir":260,"wspd":3,"visib":"6+","altim":1019,"clouds":[{"cover":"FEW","base":2500},{"cover":"FEW","base":3000},{"cover":"SCT","base":10000}],"obsTime":1781388000},"SBCO":{"icaoId":"SBCO","flightCategory":"VFR","rawOb":"METAR SBCO 132200Z VRB01KT 9999 SCT045 12/11 Q1017","temp":12,"dewp":11,"wdir":"VRB","wspd":1,"visib":"6+","altim":1017,"clouds":[{"cover":"SCT","base":4500}],"obsTime":1781388000},"SBSC":{"icaoId":"SBSC","flightCategory":"MVFR","rawOb":"METAR SBSC 132200Z 20005KT 9999 FEW015 BKN025 22/18 Q1017","temp":22,"dewp":18,"wdir":200,"wspd":5,"visib":"6+","altim":1017,"clouds":[{"cover":"FEW","base":1500},{"cover":"BKN","base":2500}],"obsTime":1781388000},"SBBU":{"icaoId":"SBBU","flightCategory":"IFR","rawOb":"METAR SBBU 132200Z 36004KT 2000 -RA BR BKN005 BKN010 OVC030 19/19 Q1020","temp":19,"dewp":19,"wdir":360,"wspd":4,"visib":1.24,"altim":1020,"clouds":[{"cover":"BKN","base":500},{"cover":"BKN","base":1000},{"cover":"OVC","base":3000}],"obsTime":1781388000},"SBSJ":{"icaoId":"SBSJ","flightCategory":"VFR","rawOb":"METAR SBSJ 132200Z 28003KT 9999 FEW045 BKN060 20/15 Q1019","temp":20,"dewp":15,"wdir":280,"wspd":3,"visib":"6+","altim":1019,"clouds":[{"cover":"FEW","base":4500},{"cover":"BKN","base":6000}],"obsTime":1781388000},"SBDN":{"icaoId":"SBDN","flightCategory":"IFR","rawOb":"METAR SBDN 132200Z 02005KT 9999 -RA OVC006 19/17 Q1018","temp":19,"dewp":17,"wdir":20,"wspd":5,"visib":"6+","altim":1018,"clouds":[{"cover":"OVC","base":600}],"obsTime":1781388000},"SBSM":{"icaoId":"SBSM","flightCategory":"VFR","rawOb":"METAR SBSM 132200Z 08002KT 9999 FEW020 BKN045 14/14 Q1017","temp":14,"dewp":14,"wdir":80,"wspd":2,"visib":"6+","altim":1017,"clouds":[{"cover":"FEW","base":2000},{"cover":"BKN","base":4500}],"obsTime":1781388000},"SBIP":{"icaoId":"SBIP","flightCategory":"VFR","rawOb":"METAR SBIP 132200Z AUTO VRB01KT 9999 FEW025 20/20 Q1019","temp":20,"dewp":20,"wdir":"VRB","wspd":1,"visib":"6+","altim":1019,"clouds":[{"cover":"FEW","base":2500}],"obsTime":1781388000},"SBSR":{"icaoId":"SBSR","flightCategory":"IFR","rawOb":"METAR SBSR 132200Z 06004KT 9000 BKN005 BKN020 18/17 Q1019","temp":18,"dewp":17,"wdir":60,"wspd":4,"visib":5.59,"altim":1019,"clouds":[{"cover":"BKN","base":500},{"cover":"BKN","base":2000}],"obsTime":1781388000},"SBAR":{"icaoId":"SBAR","flightCategory":"VFR","rawOb":"METAR SBAR 132200Z 07010KT 9999 FEW010 25/23 Q1017","temp":25,"dewp":23,"wdir":70,"wspd":10,"visib":"6+","altim":1017,"clouds":[{"cover":"FEW","base":1000}],"obsTime":1781388000},"SBCA":{"icaoId":"SBCA","flightCategory":"MVFR","rawOb":"METAR SBCA 132200Z 02009KT 9999 BKN030 17/12 Q1017","temp":17,"dewp":12,"wdir":20,"wspd":9,"visib":"6+","altim":1017,"clouds":[{"cover":"BKN","base":3000}],"obsTime":1781388000},"SBBH":{"icaoId":"SBBH","flightCategory":"VFR","rawOb":"METAR SBBH 132200Z 00000KT CAVOK 18/17 Q1021","temp":18,"dewp":17,"wdir":0,"wspd":0,"visib":"6+","altim":1021,"clouds":[],"obsTime":1781388000},"SBTT":{"icaoId":"SBTT","flightCategory":"VFR","rawOb":"METAR SBTT 132200Z 36002KT 9999 SCT017 SCT080 26/24 Q1011","temp":26,"dewp":24,"wdir":360,"wspd":2,"visib":"6+","altim":1011,"clouds":[{"cover":"SCT","base":1700},{"cover":"SCT","base":8000}],"obsTime":1781388000},"SBKG":{"icaoId":"SBKG","flightCategory":"VFR","rawOb":"METAR SBKG 132200Z 11004KT CAVOK 24/20 Q1018","temp":24,"dewp":20,"wdir":110,"wspd":4,"visib":"6+","altim":1018,"clouds":[],"obsTime":1781388000},"SBTU":{"icaoId":"SBTU","flightCategory":"VFR","rawOb":"METAR SBTU 132200Z AUTO 27004KT 9999 // NCD ///// Q1014","temp":null,"dewp":null,"wdir":270,"wspd":4,"visib":"6+","altim":1014,"clouds":[],"obsTime":1781388000},"SBOI":{"icaoId":"SBOI","flightCategory":"VFR","rawOb":"METAR SBOI 132200Z AUTO VRB02KT CAVOK 28/23 Q1013","temp":28,"dewp":23,"wdir":"VRB","wspd":2,"visib":"6+","altim":1013,"clouds":[],"obsTime":1781388000},"SBAX":{"icaoId":"SBAX","flightCategory":"VFR","rawOb":"METAR SBAX 132200Z AUTO 29004KT 260V320 9999 -RA FEW001 ///// Q1022","temp":null,"dewp":null,"wdir":290,"wspd":4,"visib":"6+","altim":1022,"clouds":[{"cover":"FEW","base":100}],"obsTime":1781388000},"SBPL":{"icaoId":"SBPL","flightCategory":"VFR","rawOb":"METAR SBPL 132200Z 32003KT CAVOK 26/18 Q1017","temp":26,"dewp":18,"wdir":320,"wspd":3,"visib":"6+","altim":1017,"clouds":[],"obsTime":1781388000},"SBTF":{"icaoId":"SBTF","flightCategory":"VFR","rawOb":"METAR SBTF 132200Z 00000KT CAVOK 29/27 Q1010","temp":29,"dewp":27,"wdir":0,"wspd":0,"visib":"6+","altim":1010,"clouds":[],"obsTime":1781388000},"SBUY":{"icaoId":"SBUY","flightCategory":"VFR","rawOb":"METAR SBUY 132200Z 00000KT 9999 FEW025 SCT100 27/26 Q1009","temp":27,"dewp":26,"wdir":0,"wspd":0,"visib":"6+","altim":1009,"clouds":[{"cover":"FEW","base":2500},{"cover":"SCT","base":10000}],"obsTime":1781388000},"SBAN":{"icaoId":"SBAN","flightCategory":"MVFR","rawOb":"METAR SBAN 132200Z 14007KT 8000 -RA VCTS FEW005 SCT020 FEW025CB 18/17 Q1022 RETSRA","temp":18,"dewp":17,"wdir":140,"wspd":7,"visib":4.97,"altim":1022,"clouds":[{"cover":"FEW","base":500},{"cover":"SCT","base":2000},{"cover":"FEW","base":2500}],"obsTime":1781388000},"SBJP":{"icaoId":"SBJP","flightCategory":"VFR","rawOb":"METAR SBJP 132200Z 14008KT CAVOK 25/23 Q1016","temp":25,"dewp":23,"wdir":140,"wspd":8,"visib":"6+","altim":1016,"clouds":[],"obsTime":1781388000},"SBJV":{"icaoId":"SBJV","flightCategory":"VFR","rawOb":"METAR SBJV 132200Z 28003KT 230V310 9999 FEW030 BKN050 18/16 Q1016","temp":18,"dewp":16,"wdir":280,"wspd":3,"visib":"6+","altim":1016,"clouds":[{"cover":"FEW","base":3000},{"cover":"BKN","base":5000}],"obsTime":1781388000},"SBNM":{"icaoId":"SBNM","flightCategory":"MVFR","rawOb":"METAR SBNM 132200Z AUTO VRB02KT 9999 OVC024 14/11 Q1017","temp":14,"dewp":11,"wdir":"VRB","wspd":2,"visib":"6+","altim":1017,"clouds":[{"cover":"OVC","base":2400}],"obsTime":1781388000},"SBPF":{"icaoId":"SBPF","flightCategory":"MVFR","rawOb":"METAR SBPF 132200Z 18007KT 9999 BKN020 11/09 Q1018","temp":11,"dewp":9,"wdir":180,"wspd":7,"visib":"6+","altim":1018,"clouds":[{"cover":"BKN","base":2000}],"obsTime":1781388000},"SBAF":{"icaoId":"SBAF","flightCategory":"MVFR","rawOb":"METAR SBAF 132200Z 23007KT 200V270 9999 BKN023 23/21 Q1017","temp":23,"dewp":21,"wdir":230,"wspd":7,"visib":"6+","altim":1017,"clouds":[{"cover":"BKN","base":2300}],"obsTime":1781388000},"SBJR":{"icaoId":"SBJR","flightCategory":"MVFR","rawOb":"METAR SBJR 132200Z 23002KT 9999 BKN017 BKN040 23/19 Q1016","temp":23,"dewp":19,"wdir":230,"wspd":2,"visib":"6+","altim":1016,"clouds":[{"cover":"BKN","base":1700},{"cover":"BKN","base":4000}],"obsTime":1781388000},"SBLS":{"icaoId":"SBLS","flightCategory":"VFR","rawOb":"METAR SBLS 132200Z 03004KT 330V050 9999 FEW020 18/16 Q1021","temp":18,"dewp":16,"wdir":30,"wspd":4,"visib":"6+","altim":1021,"clouds":[{"cover":"FEW","base":2000}],"obsTime":1781388000},"SBMT":{"icaoId":"SBMT","flightCategory":"VFR","rawOb":"METAR SBMT 132200Z 33003KT CAVOK 16/15 Q1019","temp":16,"dewp":15,"wdir":330,"wspd":3,"visib":"6+","altim":1019,"clouds":[],"obsTime":1781388000},"SBLE":{"icaoId":"SBLE","flightCategory":"VFR","rawOb":"METAR SBLE 132200Z AUTO 35002KT CAVOK ///// Q////","temp":null,"dewp":null,"wdir":350,"wspd":2,"visib":"6+","altim":null,"clouds":[],"obsTime":1781388000},"SBGW":{"icaoId":"SBGW","flightCategory":"VFR","rawOb":"METAR SBGW 132200Z 21001KT 9999 FEW020 BKN060 19/15 Q1018","temp":19,"dewp":15,"wdir":210,"wspd":1,"visib":"6+","altim":1018,"clouds":[{"cover":"FEW","base":2000},{"cover":"BKN","base":6000}],"obsTime":1781388000}}}