{"updated":1774567134,"count":74,"data":{"SBME":{"icaoId":"SBME","flightCategory":"VFR","rawOb":"METAR SBME 262200Z 08009KT 9999 FEW025 26/22 Q1015","temp":26,"dewp":22,"wdir":80,"wspd":9,"visib":"6+","altim":1015,"clouds":[{"cover":"FEW","base":2500}],"obsTime":1774562400},"SBFZ":{"icaoId":"SBFZ","flightCategory":"VFR","rawOb":"METAR SBFZ 262200Z 09007KT CAVOK 29/23 Q1009","temp":29,"dewp":23,"wdir":90,"wspd":7,"visib":"6+","altim":1009,"clouds":[],"obsTime":1774562400},"SBMG":{"icaoId":"SBMG","flightCategory":"VFR","rawOb":"METAR SBMG 262200Z 02006KT 9999 FEW045 FEW045TCU 27/20 Q1014","temp":27,"dewp":20,"wdir":20,"wspd":6,"visib":"6+","altim":1014,"clouds":[{"cover":"FEW","base":4500},{"cover":"FEW","base":4500}],"obsTime":1774562400},"SBCF":{"icaoId":"SBCF","flightCategory":"VFR","rawOb":"METAR SBCF 262200Z 12009KT 9999 FEW045 SCT100 24/17 Q1019","temp":24,"dewp":17,"wdir":120,"wspd":9,"visib":"6+","altim":1019,"clouds":[{"cover":"FEW","base":4500},{"cover":"SCT","base":10000}],"obsTime":1774562400},"SBMK":{"icaoId":"SBMK","flightCategory":"VFR","rawOb":"METAR SBMK 262200Z 07004KT 9999 FEW030 24/18 Q1016","temp":24,"dewp":18,"wdir":70,"wspd":4,"visib":"6+","altim":1016,"clouds":[{"cover":"FEW","base":3000}],"obsTime":1774562400},"SBMO":{"icaoId":"SBMO","flightCategory":"VFR","rawOb":"METAR SBMO 262200Z 14004KT 9999 FEW013 SCT025 BKN090 26/23 Q1012","temp":26,"dewp":23,"wdir":140,"wspd":4,"visib":"6+","altim":1012,"clouds":[{"cover":"FEW","base":1300},{"cover":"SCT","base":2500},{"cover":"BKN","base":9000}],"obsTime":1774562400},"SBGL":{"icaoId":"SBGL","flightCategory":"VFR","rawOb":"METAR SBGL 262200Z 14006KT 9999 FEW030 28/23 Q1014","temp":28,"dewp":23,"wdir":140,"wspd":6,"visib":"6+","altim":1014,"clouds":[{"cover":"FEW","base":3000}],"obsTime":1774562400},"SBCT":{"icaoId":"SBCT","flightCategory":"VFR","rawOb":"METAR SBCT 262200Z 09007KT 9999 FEW008 SCT083 22/21 Q1019","temp":22,"dewp":21,"wdir":90,"wspd":7,"visib":"6+","altim":1019,"clouds":[{"cover":"FEW","base":800},{"cover":"SCT","base":8300}],"obsTime":1774562400},"SBMQ":{"icaoId":"SBMQ","flightCategory":"VFR","rawOb":"METAR SBMQ 262200Z 04009KT 9999 FEW040 28/24 Q1009","temp":28,"dewp":24,"wdir":40,"wspd":9,"visib":"6+","altim":1009,"clouds":[{"cover":"FEW","base":4000}],"obsTime":1774562400},"SBGO":{"icaoId":"SBGO","flightCategory":"VFR","rawOb":"METAR SBGO 262200Z 10010KT 9999 FEW040 FEW045TCU 23/20 Q1016","temp":23,"dewp":20,"wdir":100,"wspd":10,"visib":"6+","altim":1016,"clouds":[{"cover":"FEW","base":4000},{"cover":"FEW","base":4500}],"obsTime":1774562400},"SBNT":{"icaoId":"SBNT","flightCategory":"VFR","rawOb":"METAR SBNT 262200Z 13010KT 9999 SCT025 28/23 Q1010","temp":28,"dewp":23,"wdir":130,"wspd":10,"visib":"6+","altim":1010,"clouds":[{"cover":"SCT","base":2500}],"obsTime":1774562400},"SBBE":{"icaoId":"SBBE","flightCategory":"VFR","rawOb":"METAR SBBE 262200Z 09003KT 9999 FEW049 26/24 Q1009","temp":26,"dewp":24,"wdir":90,"wspd":3,"visib":"6+","altim":1009,"clouds":[{"cover":"FEW","base":4900}],"obsTime":1774562400},"SBPA":{"icaoId":"SBPA","flightCategory":"MVFR","rawOb":"METAR SBPA 262200Z 16006KT 9999 BKN026 26/23 Q1014","temp":26,"dewp":23,"wdir":160,"wspd":6,"visib":"6+","altim":1014,"clouds":[{"cover":"BKN","base":2600}],"obsTime":1774562400},"SBCZ":{"icaoId":"SBCZ","flightCategory":"LIFR","rawOb":"METAR SBCZ 262200Z 15004KT 5000 -RA BR BKN004 OVC100 23/22 Q1009","temp":23,"dewp":22,"wdir":150,"wspd":4,"visib":3.11,"altim":1009,"clouds":[{"cover":"BKN","base":400},{"cover":"OVC","base":10000}],"obsTime":1774562400},"SBPJ":{"icaoId":"SBPJ","flightCategory":"VFR","rawOb":"METAR SBPJ 262200Z 11004KT 080V140 9999 -RA FEW030 SCT050 BKN080 24/24 Q1011","temp":24,"dewp":24,"wdir":110,"wspd":4,"visib":"6+","altim":1011,"clouds":[{"cover":"FEW","base":3000},{"cover":"SCT","base":5000},{"cover":"BKN","base":8000}],"obsTime":1774562400},"SBPV":{"icaoId":"SBPV","flightCategory":"VFR","rawOb":"METAR SBPV 262200Z 24001KT 9999 SCT026 BKN060 BKN100 27/23 Q1008","temp":27,"dewp":23,"wdir":240,"wspd":1,"visib":"6+","altim":1008,"clouds":[{"cover":"SCT","base":2600},{"cover":"BKN","base":6000},{"cover":"BKN","base":10000}],"obsTime":1774562400},"SBGR":{"icaoId":"SBGR","flightCategory":"MVFR","rawOb":"METAR SBGR 262200Z 15004KT 8000 SCT046 24/21 Q1019","temp":24,"dewp":21,"wdir":150,"wspd":4,"visib":4.97,"altim":1019,"clouds":[{"cover":"SCT","base":4600}],"obsTime":1774562400},"SBEG":{"icaoId":"SBEG","flightCategory":"VFR","rawOb":"METAR SBEG 262200Z 11005KT 9999 VCSH FEW030 FEW035TCU 30/24 Q1007","temp":30,"dewp":24,"wdir":110,"wspd":5,"visib":"6+","altim":1007,"clouds":[{"cover":"FEW","base":3000},{"cover":"FEW","base":3500}],"obsTime":1774562400},"SBRB":{"icaoId":"SBRB","flightCategory":"VFR","rawOb":"METAR SBRB 262200Z 21003KT 9999 FEW020 BKN100 25/23 Q1008","temp":25,"dewp":23,"wdir":210,"wspd":3,"visib":"6+","altim":1008,"clouds":[{"cover":"FEW","base":2000},{"cover":"BKN","base":10000}],"obsTime":1774562400},"SBRF":{"icaoId":"SBRF","flightCategory":"VFR","rawOb":"METAR SBRF 262200Z 17008KT 9999 FEW025 28/23 Q1011","temp":28,"dewp":23,"wdir":170,"wspd":8,"visib":"6+","altim":1011,"clouds":[{"cover":"FEW","base":2500}],"obsTime":1774562400},"SBIL":{"icaoId":"SBIL","flightCategory":"VFR","rawOb":"METAR SBIL 262200Z 17003KT 9999 SCT025 SCT070 28/24 Q1014","temp":28,"dewp":24,"wdir":170,"wspd":3,"visib":"6+","altim":1014,"clouds":[{"cover":"SCT","base":2500},{"cover":"SCT","base":7000}],"obsTime":1774562400},"SBBR":{"icaoId":"SBBR","flightCategory":"VFR","rawOb":"METAR SBBR 262200Z 19003KT 150V250 9999 SCT040 FEW045TCU BKN100 21/19 Q1018 RETS","temp":21,"dewp":19,"wdir":190,"wspd":3,"visib":"6+","altim":1018,"clouds":[{"cover":"SCT","base":4000},{"cover":"FEW","base":4500},{"cover":"BKN","base":10000}],"obsTime":1774562400},"SBSG":{"icaoId":"SBSG","flightCategory":"VFR","rawOb":"METAR SBSG 262200Z 12008KT 090V150 9999 FEW023 27/23 Q1011","temp":27,"dewp":23,"wdir":120,"wspd":8,"visib":"6+","altim":1011,"clouds":[{"cover":"FEW","base":2300}],"obsTime":1774562400},"SBJU":{"icaoId":"SBJU","flightCategory":"VFR","rawOb":"METAR SBJU 262200Z 00000KT 9999 SCT020 27/22 Q1011","temp":27,"dewp":22,"wdir":0,"wspd":0,"visib":"6+","altim":1011,"clouds":[{"cover":"SCT","base":2000}],"obsTime":1774562400},"SBSL":{"icaoId":"SBSL","flightCategory":"VFR","rawOb":"METAR SBSL 262200Z 05008KT 9999 TS SCT007 SCT016 FEW020CB BKN060 26/25 Q1009","temp":26,"dewp":25,"wdir":50,"wspd":8,"visib":"6+","altim":1009,"clouds":[{"cover":"SCT","base":700},{"cover":"SCT","base":1600},{"cover":"FEW","base":2000},{"cover":"BKN","base":6000}],"obsTime":1774562400},"SBFI":{"icaoId":"SBFI","flightCategory":"VFR","rawOb":"METAR SBFI 262200Z 02003KT 9999 FEW040TCU 29/24 Q1011","temp":29,"dewp":24,"wdir":20,"wspd":3,"visib":"6+","altim":1011,"clouds":[{"cover":"FEW","base":4000}],"obsTime":1774562400},"SBSN":{"icaoId":"SBSN","flightCategory":"VFR","rawOb":"METAR SBSN 262200Z 08008KT 9999 FEW020 30/25 Q1007","temp":30,"dewp":25,"wdir":80,"wspd":8,"visib":"6+","altim":1007,"clouds":[{"cover":"FEW","base":2000}],"obsTime":1774562400},"SBKP":{"icaoId":"SBKP","flightCategory":"VFR","rawOb":"METAR SBKP 262200Z 12010KT CAVOK 26/19 Q1017","temp":26,"dewp":19,"wdir":120,"wspd":10,"visib":"6+","altim":1017,"clouds":[],"obsTime":1774562400},"SBSP":{"icaoId":"SBSP","flightCategory":"VFR","rawOb":"METAR SBSP 262200Z 13006KT CAVOK 22/20 Q1020","temp":22,"dewp":20,"wdir":130,"wspd":6,"visib":"6+","altim":1020,"clouds":[],"obsTime":1774562400},"SBCG":{"icaoId":"SBCG","flightCategory":"MVFR","rawOb":"METAR SBCG 262200Z 14002KT 9999 BKN030 SCT040 25/22 Q1012","temp":25,"dewp":22,"wdir":140,"wspd":2,"visib":"6+","altim":1012,"clouds":[{"cover":"BKN","base":3000},{"cover":"SCT","base":4000}],"obsTime":1774562400},"SBSV":{"icaoId":"SBSV","flightCategory":"VFR","rawOb":"METAR SBSV 262200Z 13009KT 9999 SCT023 28/22 Q1013","temp":28,"dewp":22,"wdir":130,"wspd":9,"visib":"6+","altim":1013,"clouds":[{"cover":"SCT","base":2300}],"obsTime":1774562400},"SBTE":{"icaoId":"SBTE","flightCategory":"VFR","rawOb":"METAR SBTE 262200Z 33001KT CAVOK 28/26 Q1008","temp":28,"dewp":26,"wdir":330,"wspd":1,"visib":"6+","altim":1008,"clouds":[],"obsTime":1774562400},"SBLO":{"icaoId":"SBLO","flightCategory":"VFR","rawOb":"METAR SBLO 262200Z 10004KT 9999 FEW040 27/19 Q1015","temp":27,"dewp":19,"wdir":100,"wspd":4,"visib":"6+","altim":1015,"clouds":[{"cover":"FEW","base":4000}],"obsTime":1774562400},"SBMA":{"icaoId":"SBMA","flightCategory":"VFR","rawOb":"METAR SBMA 262200Z 19002KT 9999 FEW023 FEW025TCU BKN100 29/25 Q1008","temp":29,"dewp":25,"wdir":190,"wspd":2,"visib":"6+","altim":1008,"clouds":[{"cover":"FEW","base":2300},{"cover":"FEW","base":2500},{"cover":"BKN","base":10000}],"obsTime":1774562400},"SBUL":{"icaoId":"SBUL","flightCategory":"VFR","rawOb":"METAR SBUL 262200Z 16007KT 9999 SCT040 FEW045TCU SCT080 21/18 Q1018","temp":21,"dewp":18,"wdir":160,"wspd":7,"visib":"6+","altim":1018,"clouds":[{"cover":"SCT","base":4000},{"cover":"FEW","base":4500},{"cover":"SCT","base":8000}],"obsTime":1774562400},"SBFL":{"icaoId":"SBFL","flightCategory":"VFR","rawOb":"METAR SBFL 262200Z 05003KT 010V080 9999 FEW022 27/24 Q1015","temp":27,"dewp":24,"wdir":50,"wspd":3,"visib":"6+","altim":1015,"clouds":[{"cover":"FEW","base":2200}],"obsTime":1774562400},"SBUR":{"icaoId":"SBUR","flightCategory":"VFR","rawOb":"METAR SBUR 262200Z 08001KT 9999 -RA SCT020 OVC100 21/20 Q1018","temp":21,"dewp":20,"wdir":80,"wspd":1,"visib":"6+","altim":1018,"clouds":[{"cover":"SCT","base":2000},{"cover":"OVC","base":10000}],"obsTime":1774562400},"SBVT":{"icaoId":"SBVT","flightCategory":"VFR","rawOb":"METAR SBVT 262200Z 09003KT 9999 FEW025 26/23 Q1016","temp":26,"dewp":23,"wdir":90,"wspd":3,"visib":"6+","altim":1016,"clouds":[{"cover":"FEW","base":2500}],"obsTime":1774562400},"SBBV":{"icaoId":"SBBV","flightCategory":"VFR","rawOb":"METAR SBBV 262200Z 12011KT 9999 SCT040 FEW045TCU SCT100 32/22 Q1006","temp":32,"dewp":22,"wdir":120,"wspd":11,"visib":"6+","altim":1006,"clouds":[{"cover":"SCT","base":4000},{"cover":"FEW","base":4500},{"cover":"SCT","base":10000}],"obsTime":1774562400},"SBCP":{"icaoId":"SBCP","flightCategory":"VFR","rawOb":"METAR SBCP 262200Z 10005KT 9999 FEW020 24/23 Q1016","temp":24,"dewp":23,"wdir":100,"wspd":5,"visib":"6+","altim":1016,"clouds":[{"cover":"FEW","base":2000}],"obsTime":1774562400},"SBOI":{"icaoId":"SBOI","flightCategory":"IFR","rawOb":"METAR SBOI 262200Z AUTO 36006KT 320V040 6000 +RA BKN007 BKN011 OVC036 25/25 Q1010","temp":25,"dewp":25,"wdir":360,"wspd":6,"visib":3.73,"altim":1010,"clouds":[{"cover":"BKN","base":700},{"cover":"BKN","base":1100},{"cover":"OVC","base":3600}],"obsTime":1774562400},"SBVH":{"icaoId":"SBVH","flightCategory":"VFR","rawOb":"METAR SBVH 262200Z 09006KT 9999 VCSH SCT030 FEW035TCU BKN050 23/23 Q1011","temp":23,"dewp":23,"wdir":90,"wspd":6,"visib":"6+","altim":1011,"clouds":[{"cover":"SCT","base":3000},{"cover":"FEW","base":3500},{"cover":"BKN","base":5000}],"obsTime":1774562400},"SBTT":{"icaoId":"SBTT","flightCategory":"MVFR","rawOb":"METAR SBTT 262200Z 20010KT 8000 -RA BKN025 OVC100 25/22 Q1007","temp":25,"dewp":22,"wdir":200,"wspd":10,"visib":4.97,"altim":1007,"clouds":[{"cover":"BKN","base":2500},{"cover":"OVC","base":10000}],"obsTime":1774562400},"SBPL":{"icaoId":"SBPL","flightCategory":"VFR","rawOb":"METAR SBPL 262200Z 12010KT 9999 FEW030 29/21 Q1011","temp":29,"dewp":21,"wdir":120,"wspd":10,"visib":"6+","altim":1011,"clouds":[{"cover":"FEW","base":3000}],"obsTime":1774562400},"SBBH":{"icaoId":"SBBH","flightCategory":"VFR","rawOb":"METAR SBBH 262200Z 10006KT 9999 FEW048 24/18 Q1019","temp":24,"dewp":18,"wdir":100,"wspd":6,"visib":"6+","altim":1019,"clouds":[{"cover":"FEW","base":4800}],"obsTime":1774562400},"SBCO":{"icaoId":"SBCO","flightCategory":"VFR","rawOb":"METAR SBCO 262200Z 14005KT 9999 SCT015 BKN040 26/24 Q1014","temp":26,"dewp":24,"wdir":140,"wspd":5,"visib":"6+","altim":1014,"clouds":[{"cover":"SCT","base":1500},{"cover":"BKN","base":4000}],"obsTime":1774562400},"SBPS":{"icaoId":"SBPS","flightCategory":"VFR","rawOb":"METAR SBPS 262200Z 15003KT 9999 FEW020 26/24 Q1015","temp":26,"dewp":24,"wdir":150,"wspd":3,"visib":"6+","altim":1015,"clouds":[{"cover":"FEW","base":2000}],"obsTime":1774562400},"SBAX":{"icaoId":"SBAX","flightCategory":"VFR","rawOb":"METAR SBAX 262200Z 20002KT CAVOK 21/21 Q1019","temp":21,"dewp":21,"wdir":200,"wspd":2,"visib":"6+","altim":1019,"clouds":[],"obsTime":1774562400},"SBSC":{"icaoId":"SBSC","flightCategory":"VFR","rawOb":"METAR SBSC 262200Z 22004KT CAVOK 26/23 Q1015","temp":26,"dewp":23,"wdir":220,"wspd":4,"visib":"6+","altim":1015,"clouds":[],"obsTime":1774562400},"SBKG":{"icaoId":"SBKG","flightCategory":"VFR","rawOb":"METAR SBKG 262200Z 15009KT 9999 SCT020 SCT080 24/21 Q1014","temp":24,"dewp":21,"wdir":150,"wspd":9,"visib":"6+","altim":1014,"clouds":[{"cover":"SCT","base":2000},{"cover":"SCT","base":8000}],"obsTime":1774562400},"SBDN":{"icaoId":"SBDN","flightCategory":"VFR","rawOb":"METAR SBDN 262200Z 06003KT CAVOK 28/20 Q1014","temp":28,"dewp":20,"wdir":60,"wspd":3,"visib":"6+","altim":1014,"clouds":[],"obsTime":1774562400},"SBSJ":{"icaoId":"SBSJ","flightCategory":"VFR","rawOb":"SPECI SBSJ 262119Z 18007KT 9999 VCTS VCSH SCT036 FEW045CB 26/// Q1018","temp":null,"dewp":null,"wdir":180,"wspd":7,"visib":"6+","altim":1018,"clouds":[{"cover":"SCT","base":3600},{"cover":"FEW","base":4500}],"obsTime":1774559940},"SBBU":{"icaoId":"SBBU","flightCategory":"VFR","rawOb":"METAR SBBU 262200Z 09003KT CAVOK 30/20 Q1016","temp":30,"dewp":20,"wdir":90,"wspd":3,"visib":"6+","altim":1016,"clouds":[],"obsTime":1774562400},"SBSM":{"icaoId":"SBSM","flightCategory":"MVFR","rawOb":"METAR SBSM 262200Z 09004KT 9999 OVC014 24/22 Q1014","temp":24,"dewp":22,"wdir":90,"wspd":4,"visib":"6+","altim":1014,"clouds":[{"cover":"OVC","base":1400}],"obsTime":1774562400},"SBES":{"icaoId":"SBES","flightCategory":"VFR","rawOb":"METAR SBES 262200Z 06011KT CAVOK 25/// Q1016","temp":null,"dewp":null,"wdir":60,"wspd":11,"visib":"6+","altim":1016,"clouds":[],"obsTime":1774562400},"SBSR":{"icaoId":"SBSR","flightCategory":"VFR","rawOb":"METAR SBSR 262200Z 07012KT 9999 -RA SCT030 BKN080 26/21 Q1016","temp":26,"dewp":21,"wdir":70,"wspd":12,"visib":"6+","altim":1016,"clouds":[{"cover":"SCT","base":3000},{"cover":"BKN","base":8000}],"obsTime":1774562400},"SBAR":{"icaoId":"SBAR","flightCategory":"VFR","rawOb":"METAR SBAR 262200Z 13010KT 9999 FEW027 29/22 Q1012","temp":29,"dewp":22,"wdir":130,"wspd":10,"visib":"6+","altim":1012,"clouds":[{"cover":"FEW","base":2700}],"obsTime":1774562400},"SBCA":{"icaoId":"SBCA","flightCategory":"VFR","rawOb":"METAR SBCA 262200Z 08007KT CAVOK 26/19 Q1016","temp":26,"dewp":19,"wdir":80,"wspd":7,"visib":"6+","altim":1016,"clouds":[],"obsTime":1774562400},"SBIP":{"icaoId":"SBIP","flightCategory":"VFR","rawOb":"METAR SBIP 262200Z AUTO VRB01KT CAVOK 23/23 Q1016","temp":23,"dewp":23,"wdir":"VRB","wspd":1,"visib":"6+","altim":1016,"clouds":[],"obsTime":1774562400},"SBTF":{"icaoId":"SBTF","flightCategory":"VFR","rawOb":"METAR SBTF 262200Z 12003KT 9999 FEW020 32/25 Q1005","temp":32,"dewp":25,"wdir":120,"wspd":3,"visib":"6+","altim":1005,"clouds":[{"cover":"FEW","base":2000}],"obsTime":1774562400},"SBUY":{"icaoId":"SBUY","flightCategory":"VFR","rawOb":"METAR SBUY 262200Z 23001KT 9999 FEW025 29/23 Q1005","temp":29,"dewp":23,"wdir":230,"wspd":1,"visib":"6+","altim":1005,"clouds":[{"cover":"FEW","base":2500}],"obsTime":1774562400},"SBPB":{"icaoId":"SBPB","flightCategory":"MVFR","rawOb":"SPECI SBPB 262145Z 04011KT 9999 BKN020 29/25 Q1008","temp":29,"dewp":25,"wdir":40,"wspd":11,"visib":"6+","altim":1008,"clouds":[{"cover":"BKN","base":2000}],"obsTime":1774561500},"SBCJ":{"icaoId":"SBCJ","flightCategory":"VFR","rawOb":"SPECI SBCJ 262130Z 00000KT 9999 FEW025 FEW027TCU SCT070 23/22 Q1013","temp":23,"dewp":22,"wdir":0,"wspd":0,"visib":"6+","altim":1013,"clouds":[{"cover":"FEW","base":2500},{"cover":"FEW","base":2700},{"cover":"SCT","base":7000}],"obsTime":1774560600},"SBTA":{"icaoId":"SBTA","flightCategory":"VFR","rawOb":"METAR SBTA 262200Z 34004KT 280V010 9999 SCT040 FEW045TCU BKN060 26/17 Q1017","temp":26,"dewp":17,"wdir":340,"wspd":4,"visib":"6+","altim":1017,"clouds":[{"cover":"SCT","base":4000},{"cover":"FEW","base":4500},{"cover":"BKN","base":6000}],"obsTime":1774562400},"SBJP":{"icaoId":"SBJP","flightCategory":"VFR","rawOb":"METAR SBJP 262200Z 13009KT 9999 SCT030 SCT070 27/23 Q1011","temp":27,"dewp":23,"wdir":130,"wspd":9,"visib":"6+","altim":1011,"clouds":[{"cover":"SCT","base":3000},{"cover":"SCT","base":7000}],"obsTime":1774562400},"SBAN":{"icaoId":"SBAN","flightCategory":"MVFR","rawOb":"METAR SBAN 262200Z 15006KT 7000 3000SE -RA VCTS FEW010 BKN020 BKN035 FEW040CB 20/19 Q1019 RETSRA","temp":20,"dewp":19,"wdir":150,"wspd":6,"visib":4.35,"altim":1019,"clouds":[{"cover":"FEW","base":1000},{"cover":"BKN","base":2000},{"cover":"BKN","base":3500},{"cover":"FEW","base":4000}],"obsTime":1774562400},"SBLE":{"icaoId":"SBLE","flightCategory":"VFR","rawOb":"METAR SBLE 262200Z AUTO VRB02KT 9999 BKN041 BKN048 ///// Q////","temp":null,"dewp":null,"wdir":"VRB","wspd":2,"visib":"6+","altim":null,"clouds":[{"cover":"BKN","base":4100},{"cover":"BKN","base":4800}],"obsTime":1774562400},"SBJV":{"icaoId":"SBJV","flightCategory":"VFR","rawOb":"METAR SBJV 262200Z 02002KT 9999 SCT015 SCT030 27/25 Q1015","temp":27,"dewp":25,"wdir":20,"wspd":2,"visib":"6+","altim":1015,"clouds":[{"cover":"SCT","base":1500},{"cover":"SCT","base":3000}],"obsTime":1774562400},"SBAF":{"icaoId":"SBAF","flightCategory":"VFR","rawOb":"METAR SBAF 262200Z 23002KT 9999 FEW035 27/23 Q1014","temp":27,"dewp":23,"wdir":230,"wspd":2,"visib":"6+","altim":1014,"clouds":[{"cover":"FEW","base":3500}],"obsTime":1774562400},"SBJR":{"icaoId":"SBJR","flightCategory":"VFR","rawOb":"METAR SBJR 262200Z 00000KT 9999 FEW030 26/22 Q1014","temp":26,"dewp":22,"wdir":0,"wspd":0,"visib":"6+","altim":1014,"clouds":[{"cover":"FEW","base":3000}],"obsTime":1774562400},"SBLS":{"icaoId":"SBLS","flightCategory":"VFR","rawOb":"METAR SBLS 262200Z 14007KT 9999 FEW040 SCT080 23/17 Q1019","temp":23,"dewp":17,"wdir":140,"wspd":7,"visib":"6+","altim":1019,"clouds":[{"cover":"FEW","base":4000},{"cover":"SCT","base":8000}],"obsTime":1774562400},"SBMT":{"icaoId":"SBMT","flightCategory":"VFR","rawOb":"METAR SBMT 262200Z 13006KT 9999 SCT015 23/19 Q1018","temp":23,"dewp":19,"wdir":130,"wspd":6,"visib":"6+","altim":1018,"clouds":[{"cover":"SCT","base":1500}],"obsTime":1774562400},"SBPF":{"icaoId":"SBPF","flightCategory":"VFR","rawOb":"METAR SBPF 262200Z 00000KT CAVOK 24/20 Q1016","temp":24,"dewp":20,"wdir":0,"wspd":0,"visib":"6+","altim":1016,"clouds":[],"obsTime":1774562400},"SBGW":{"icaoId":"SBGW","flightCategory":"VFR","rawOb":"METAR SBGW 262200Z 02003KT 9999 SCT030 27/18 Q1017","temp":27,"dewp":18,"wdir":20,"wspd":3,"visib":"6+","altim":1017,"clouds":[{"cover":"SCT","base":3000}],"obsTime":1774562400}}}