{"updated":1775982904,"count":51,"data":{"SBGR":{"icaoId":"SBGR","flightCategory":"VFR","rawOb":"METAR SBGR 120700Z 09002KT 9999 SCT013 15/14 Q1022","temp":15,"dewp":14,"wdir":90,"wspd":2,"visib":"6+","altim":1022,"clouds":[{"cover":"SCT","base":1300}],"obsTime":1775977200},"SBMK":{"icaoId":"SBMK","flightCategory":"MVFR","rawOb":"METAR SBMK 120800Z 07004KT 9999 BKN030 21/18 Q1019","temp":21,"dewp":18,"wdir":70,"wspd":4,"visib":"6+","altim":1019,"clouds":[{"cover":"BKN","base":3000}],"obsTime":1775980800},"SBMO":{"icaoId":"SBMO","flightCategory":"VFR","rawOb":"METAR SBMO 120700Z 32004KT 9000 FEW015 OVC070 23/23 Q1013","temp":23,"dewp":23,"wdir":320,"wspd":4,"visib":5.59,"altim":1013,"clouds":[{"cover":"FEW","base":1500},{"cover":"OVC","base":7000}],"obsTime":1775977200},"SBFZ":{"icaoId":"SBFZ","flightCategory":"VFR","rawOb":"METAR SBFZ 120700Z 24002KT 9999 SCT017 25/24 Q1011","temp":25,"dewp":24,"wdir":240,"wspd":2,"visib":"6+","altim":1011,"clouds":[{"cover":"SCT","base":1700}],"obsTime":1775977200},"SBMQ":{"icaoId":"SBMQ","flightCategory":"MVFR","rawOb":"METAR SBMQ 120700Z 32003KT 9999 -RA FEW004 BKN021 BKN100 24/24 Q1011","temp":24,"dewp":24,"wdir":320,"wspd":3,"visib":"6+","altim":1011,"clouds":[{"cover":"FEW","base":400},{"cover":"BKN","base":2100},{"cover":"BKN","base":10000}],"obsTime":1775977200},"SBCG":{"icaoId":"SBCG","flightCategory":"VFR","rawOb":"METAR SBCG 120700Z 08012KT CAVOK 24/20 Q1015","temp":24,"dewp":20,"wdir":80,"wspd":12,"visib":"6+","altim":1015,"clouds":[],"obsTime":1775977200},"SBBV":{"icaoId":"SBBV","flightCategory":"VFR","rawOb":"METAR SBBV 120700Z 09010KT CAVOK 26/22 Q1011","temp":26,"dewp":22,"wdir":90,"wspd":10,"visib":"6+","altim":1011,"clouds":[],"obsTime":1775977200},"SBNT":{"icaoId":"SBNT","flightCategory":"VFR","rawOb":"METAR SBNT 120700Z 21006KT 9999 FEW013 SCT025 25/24 Q1011","temp":25,"dewp":24,"wdir":210,"wspd":6,"visib":"6+","altim":1011,"clouds":[{"cover":"FEW","base":1300},{"cover":"SCT","base":2500}],"obsTime":1775977200},"SBGL":{"icaoId":"SBGL","flightCategory":"VFR","rawOb":"METAR SBGL 120700Z 33002KT 9999 FEW035 21/19 Q1019","temp":21,"dewp":19,"wdir":330,"wspd":2,"visib":"6+","altim":1019,"clouds":[{"cover":"FEW","base":3500}],"obsTime":1775977200},"SBPA":{"icaoId":"SBPA","flightCategory":"MVFR","rawOb":"METAR SBPA 120700Z 30008KT 8000 -RA SCT030 FEW035TCU BKN090 21/18 Q1019","temp":21,"dewp":18,"wdir":300,"wspd":8,"visib":4.97,"altim":1019,"clouds":[{"cover":"SCT","base":3000},{"cover":"FEW","base":3500},{"cover":"BKN","base":9000}],"obsTime":1775977200},"SBCT":{"icaoId":"SBCT","flightCategory":"MVFR","rawOb":"METAR SBCT 120700Z 03003KT 9999 BKN014 15/14 Q1023","temp":15,"dewp":14,"wdir":30,"wspd":3,"visib":"6+","altim":1023,"clouds":[{"cover":"BKN","base":1400}],"obsTime":1775977200},"SBPJ":{"icaoId":"SBPJ","flightCategory":"VFR","rawOb":"METAR SBPJ 120700Z 14005KT 9999 FEW011 SCT090 25/24 Q1012","temp":25,"dewp":24,"wdir":140,"wspd":5,"visib":"6+","altim":1012,"clouds":[{"cover":"FEW","base":1100},{"cover":"SCT","base":9000}],"obsTime":1775977200},"SBGO":{"icaoId":"SBGO","flightCategory":"VFR","rawOb":"METAR SBGO 120700Z 13004KT CAVOK 21/19 Q1018","temp":21,"dewp":19,"wdir":130,"wspd":4,"visib":"6+","altim":1018,"clouds":[],"obsTime":1775977200},"SBPV":{"icaoId":"SBPV","flightCategory":"VFR","rawOb":"METAR SBPV 120700Z 14003KT CAVOK 25/23 Q1010","temp":25,"dewp":23,"wdir":140,"wspd":3,"visib":"6+","altim":1010,"clouds":[],"obsTime":1775977200},"SBRB":{"icaoId":"SBRB","flightCategory":"IFR","rawOb":"METAR SBRB 120700Z 00000KT 2500 BR FEW030 23/23 Q1011","temp":23,"dewp":23,"wdir":0,"wspd":0,"visib":1.55,"altim":1011,"clouds":[{"cover":"FEW","base":3000}],"obsTime":1775977200},"SBRF":{"icaoId":"SBRF","flightCategory":"MVFR","rawOb":"METAR SBRF 120700Z 18008KT 5000 -RA BR SCT005 BKN010 BKN017 FEW023TCU 24/24 Q1012","temp":24,"dewp":24,"wdir":180,"wspd":8,"visib":3.11,"altim":1012,"clouds":[{"cover":"SCT","base":500},{"cover":"BKN","base":1000},{"cover":"BKN","base":1700},{"cover":"FEW","base":2300}],"obsTime":1775977200},"SBSG":{"icaoId":"SBSG","flightCategory":"MVFR","rawOb":"METAR SBSG 120700Z VRB03KT 9999 FEW007 BKN012 FEW025TCU BKN100 24/24 Q1011","temp":24,"dewp":24,"wdir":"VRB","wspd":3,"visib":"6+","altim":1011,"clouds":[{"cover":"FEW","base":700},{"cover":"BKN","base":1200},{"cover":"FEW","base":2500},{"cover":"BKN","base":10000}],"obsTime":1775977200},"SBCF":{"icaoId":"SBCF","flightCategory":"VFR","rawOb":"METAR SBCF 120700Z 11003KT 9999 SCT017 18/16 Q1022","temp":18,"dewp":16,"wdir":110,"wspd":3,"visib":"6+","altim":1022,"clouds":[{"cover":"SCT","base":1700}],"obsTime":1775977200},"SBEG":{"icaoId":"SBEG","flightCategory":"IFR","rawOb":"METAR SBEG 120700Z 08009KT 8000 -TSRA BKN008 SCT020 FEW025CB BKN070 24/24 Q1011","temp":24,"dewp":24,"wdir":80,"wspd":9,"visib":4.97,"altim":1011,"clouds":[{"cover":"BKN","base":800},{"cover":"SCT","base":2000},{"cover":"FEW","base":2500},{"cover":"BKN","base":7000}],"obsTime":1775977200},"SBSL":{"icaoId":"SBSL","flightCategory":"VFR","rawOb":"METAR SBSL 120700Z 11007KT 9999 FEW017 SCT080 25/24 Q1011","temp":25,"dewp":24,"wdir":110,"wspd":7,"visib":"6+","altim":1011,"clouds":[{"cover":"FEW","base":1700},{"cover":"SCT","base":8000}],"obsTime":1775977200},"SBJU":{"icaoId":"SBJU","flightCategory":"VFR","rawOb":"METAR SBJU 120700Z 00000KT CAVOK 23/21 Q1014","temp":23,"dewp":21,"wdir":0,"wspd":0,"visib":"6+","altim":1014,"clouds":[],"obsTime":1775977200},"SBSN":{"icaoId":"SBSN","flightCategory":"VFR","rawOb":"METAR SBSN 120700Z 08012KT 9999 FEW020 SCT100 27/24 Q1010","temp":27,"dewp":24,"wdir":80,"wspd":12,"visib":"6+","altim":1010,"clouds":[{"cover":"FEW","base":2000},{"cover":"SCT","base":10000}],"obsTime":1775977200},"SBKP":{"icaoId":"SBKP","flightCategory":"VFR","rawOb":"METAR SBKP 120700Z 12010KT CAVOK 17/14 Q1020","temp":17,"dewp":14,"wdir":120,"wspd":10,"visib":"6+","altim":1020,"clouds":[],"obsTime":1775977200},"SBSP":{"icaoId":"SBSP","flightCategory":"VFR","rawOb":"METAR SBSP 120700Z AUTO 09005KT 060V130 CAVOK 17/14 Q1023","temp":17,"dewp":14,"wdir":90,"wspd":5,"visib":"6+","altim":1023,"clouds":[],"obsTime":1775977200},"SBSV":{"icaoId":"SBSV","flightCategory":"MVFR","rawOb":"METAR SBSV 120700Z 11008KT 9999 BKN022 27/23 Q1013","temp":27,"dewp":23,"wdir":110,"wspd":8,"visib":"6+","altim":1013,"clouds":[{"cover":"BKN","base":2200}],"obsTime":1775977200},"SBBR":{"icaoId":"SBBR","flightCategory":"VFR","rawOb":"METAR SBBR 120700Z 11009KT 9999 FEW010 20/19 Q1020","temp":20,"dewp":19,"wdir":110,"wspd":9,"visib":"6+","altim":1020,"clouds":[{"cover":"FEW","base":1000}],"obsTime":1775977200},"SBMG":{"icaoId":"SBMG","flightCategory":"VFR","rawOb":"METAR SBMG 120700Z AUTO 09016KT CAVOK 20/14 Q1017","temp":20,"dewp":14,"wdir":90,"wspd":16,"visib":"6+","altim":1017,"clouds":[],"obsTime":1775977200},"SBLO":{"icaoId":"SBLO","flightCategory":"VFR","rawOb":"METAR SBLO 120700Z 11007KT CAVOK 18/14 Q1019","temp":18,"dewp":14,"wdir":110,"wspd":7,"visib":"6+","altim":1019,"clouds":[],"obsTime":1775977200},"SBTE":{"icaoId":"SBTE","flightCategory":"VFR","rawOb":"METAR SBTE 120700Z 00000KT 9999 FEW015 BKN090 25/23 Q1011","temp":25,"dewp":23,"wdir":0,"wspd":0,"visib":"6+","altim":1011,"clouds":[{"cover":"FEW","base":1500},{"cover":"BKN","base":9000}],"obsTime":1775977200},"SBUL":{"icaoId":"SBUL","flightCategory":"VFR","rawOb":"METAR SBUL 120700Z 12008KT 070V140 CAVOK 20/18 Q1020","temp":20,"dewp":18,"wdir":120,"wspd":8,"visib":"6+","altim":1020,"clouds":[],"obsTime":1775977200},"SBBE":{"icaoId":"SBBE","flightCategory":"VFR","rawOb":"METAR SBBE 120700Z 06004KT 9999 FEW015 SCT020 25/25 Q1011","temp":25,"dewp":25,"wdir":60,"wspd":4,"visib":"6+","altim":1011,"clouds":[{"cover":"FEW","base":1500},{"cover":"SCT","base":2000}],"obsTime":1775977200},"SBUR":{"icaoId":"SBUR","flightCategory":"VFR","rawOb":"METAR SBUR 120700Z 06009KT CAVOK 21/17 Q1019","temp":21,"dewp":17,"wdir":60,"wspd":9,"visib":"6+","altim":1019,"clouds":[],"obsTime":1775977200},"SBMA":{"icaoId":"SBMA","flightCategory":"VFR","rawOb":"METAR SBMA 120700Z 04002KT 9999 FEW010 25/24 Q1011","temp":25,"dewp":24,"wdir":40,"wspd":2,"visib":"6+","altim":1011,"clouds":[{"cover":"FEW","base":1000}],"obsTime":1775977200},"SBFI":{"icaoId":"SBFI","flightCategory":"VFR","rawOb":"METAR SBFI 120700Z 06004KT 9999 VCTS FEW030 FEW035CB BKN100 22/20 Q1014","temp":22,"dewp":20,"wdir":60,"wspd":4,"visib":"6+","altim":1014,"clouds":[{"cover":"FEW","base":3000},{"cover":"FEW","base":3500},{"cover":"BKN","base":10000}],"obsTime":1775977200},"SBVT":{"icaoId":"SBVT","flightCategory":"VFR","rawOb":"METAR SBVT 120700Z 28004KT 9999 FEW030 BKN080 21/21 Q1018","temp":21,"dewp":21,"wdir":280,"wspd":4,"visib":"6+","altim":1018,"clouds":[{"cover":"FEW","base":3000},{"cover":"BKN","base":8000}],"obsTime":1775977200},"SBME":{"icaoId":"SBME","flightCategory":"VFR","rawOb":"METAR SBME 120700Z 32003KT 9999 SCT027 SCT100 21/20 Q1019","temp":21,"dewp":20,"wdir":320,"wspd":3,"visib":"6+","altim":1019,"clouds":[{"cover":"SCT","base":2700},{"cover":"SCT","base":10000}],"obsTime":1775977200},"SBFL":{"icaoId":"SBFL","flightCategory":"MVFR","rawOb":"METAR SBFL 120700Z 22004KT 9999 SCT010 OVC030 21/20 Q1020","temp":21,"dewp":20,"wdir":220,"wspd":4,"visib":"6+","altim":1020,"clouds":[{"cover":"SCT","base":1000},{"cover":"OVC","base":3000}],"obsTime":1775977200},"SBSJ":{"icaoId":"SBSJ","flightCategory":"MVFR","rawOb":"SPECI SBSJ 120830Z VRB02KT 8000 NSC 14/13 Q1022","temp":14,"dewp":13,"wdir":"VRB","wspd":2,"visib":4.97,"altim":1022,"clouds":[],"obsTime":1775982600},"SBIP":{"icaoId":"SBIP","flightCategory":"VFR","rawOb":"METAR SBIP 120700Z AUTO 00000KT 9999 OVC041 20/20 Q1019","temp":20,"dewp":20,"wdir":0,"wspd":0,"visib":"6+","altim":1019,"clouds":[{"cover":"OVC","base":4100}],"obsTime":1775977200},"SBPL":{"icaoId":"SBPL","flightCategory":"VFR","rawOb":"METAR SBPL 120700Z 14008KT 9999 SCT020 BKN070 25/21 Q1015","temp":25,"dewp":21,"wdir":140,"wspd":8,"visib":"6+","altim":1015,"clouds":[{"cover":"SCT","base":2000},{"cover":"BKN","base":7000}],"obsTime":1775977200},"SBSR":{"icaoId":"SBSR","flightCategory":"VFR","rawOb":"METAR SBSR 120700Z 11004KT 9999 SCT020 22/19 Q1017","temp":22,"dewp":19,"wdir":110,"wspd":4,"visib":"6+","altim":1017,"clouds":[{"cover":"SCT","base":2000}],"obsTime":1775977200},"SBAX":{"icaoId":"SBAX","flightCategory":"VFR","rawOb":"METAR SBAX 120700Z AUTO 10009KT CAVOK ///// Q1021","temp":null,"dewp":null,"wdir":100,"wspd":9,"visib":"6+","altim":1021,"clouds":[],"obsTime":1775977200},"SBPS":{"icaoId":"SBPS","flightCategory":"IFR","rawOb":"SPECI SBPS 120642Z VRB02KT 3000 RA SCT015 BKN050 23/23 Q1016","temp":23,"dewp":23,"wdir":"VRB","wspd":2,"visib":1.86,"altim":1016,"clouds":[{"cover":"SCT","base":1500},{"cover":"BKN","base":5000}],"obsTime":1775976120},"SBSC":{"icaoId":"SBSC","flightCategory":"VFR","rawOb":"METAR SBSC 120700Z 11001KT CAVOK 20/18 Q1020","temp":20,"dewp":18,"wdir":110,"wspd":1,"visib":"6+","altim":1020,"clouds":[],"obsTime":1775977200},"SBKG":{"icaoId":"SBKG","flightCategory":"VFR","rawOb":"METAR SBKG 120700Z 13002KT 9999 SCT020 22/21 Q1014","temp":22,"dewp":21,"wdir":130,"wspd":2,"visib":"6+","altim":1014,"clouds":[{"cover":"SCT","base":2000}],"obsTime":1775977200},"SBDN":{"icaoId":"SBDN","flightCategory":"VFR","rawOb":"METAR SBDN 120700Z 10012KT CAVOK 20/14 Q1017","temp":20,"dewp":14,"wdir":100,"wspd":12,"visib":"6+","altim":1017,"clouds":[],"obsTime":1775977200},"SBOI":{"icaoId":"SBOI","flightCategory":"MVFR","rawOb":"METAR SBOI 120700Z AUTO VRB02KT 9999 // BKN023/// BKN083/// 25/24 Q1012","temp":25,"dewp":24,"wdir":"VRB","wspd":2,"visib":"6+","altim":1012,"clouds":[{"cover":"BKN","base":2300},{"cover":"BKN","base":8300}],"obsTime":1775977200},"SBAR":{"icaoId":"SBAR","flightCategory":"VFR","rawOb":"METAR SBAR 120700Z 12006KT 9999 FEW015 SCT020 27/24 Q1013","temp":27,"dewp":24,"wdir":120,"wspd":6,"visib":"6+","altim":1013,"clouds":[{"cover":"FEW","base":1500},{"cover":"SCT","base":2000}],"obsTime":1775977200},"SBAN":{"icaoId":"SBAN","flightCategory":"VFR","rawOb":"METAR SBAN 120700Z 14009KT CAVOK 19/18 Q1020","temp":19,"dewp":18,"wdir":140,"wspd":9,"visib":"6+","altim":1020,"clouds":[],"obsTime":1775977200},"SBLE":{"icaoId":"SBLE","flightCategory":"VFR","rawOb":"METAR SBLE 120700Z AUTO 00000KT 9999 SCT013 SCT016 ///// Q////","temp":null,"dewp":null,"wdir":0,"wspd":0,"visib":"6+","altim":null,"clouds":[{"cover":"SCT","base":1300},{"cover":"SCT","base":1600}],"obsTime":1775977200},"SBJP":{"icaoId":"SBJP","flightCategory":"VFR","rawOb":"METAR SBJP 120700Z 19008KT CAVOK 25/24 Q1012","temp":25,"dewp":24,"wdir":190,"wspd":8,"visib":"6+","altim":1012,"clouds":[],"obsTime":1775977200}}}