{"updated":1777113131,"count":70,"data":{"SBPV":{"icaoId":"SBPV","flightCategory":"VFR","rawOb":"METAR SBPV 250900Z 00000KT 9999 FEW004 SCT090 24/22 Q1010","temp":24,"dewp":22,"wdir":0,"wspd":0,"visib":"6+","altim":1010,"clouds":[{"cover":"FEW","base":400},{"cover":"SCT","base":9000}],"obsTime":1777107600},"SBFZ":{"icaoId":"SBFZ","flightCategory":"VFR","rawOb":"METAR SBFZ 250900Z 18004KT 9999 SCT030 BKN090 26/24 Q1011","temp":26,"dewp":24,"wdir":180,"wspd":4,"visib":"6+","altim":1011,"clouds":[{"cover":"SCT","base":3000},{"cover":"BKN","base":9000}],"obsTime":1777107600},"SBMQ":{"icaoId":"SBMQ","flightCategory":"VFR","rawOb":"METAR SBMQ 250900Z 36003KT 9999 FEW004 SCT021 25/25 Q1011","temp":25,"dewp":25,"wdir":360,"wspd":3,"visib":"6+","altim":1011,"clouds":[{"cover":"FEW","base":400},{"cover":"SCT","base":2100}],"obsTime":1777107600},"SBCG":{"icaoId":"SBCG","flightCategory":"VFR","rawOb":"METAR SBCG 250900Z 08004KT CAVOK 20/17 Q1014","temp":20,"dewp":17,"wdir":80,"wspd":4,"visib":"6+","altim":1014,"clouds":[],"obsTime":1777107600},"SBNT":{"icaoId":"SBNT","flightCategory":"MVFR","rawOb":"METAR SBNT 250900Z 16003KT 9999 VCSH SCT021 FEW027TCU BKN030 BKN080 24/23 Q1010","temp":24,"dewp":23,"wdir":160,"wspd":3,"visib":"6+","altim":1010,"clouds":[{"cover":"SCT","base":2100},{"cover":"FEW","base":2700},{"cover":"BKN","base":3000},{"cover":"BKN","base":8000}],"obsTime":1777107600},"SBGL":{"icaoId":"SBGL","flightCategory":"VFR","rawOb":"METAR SBGL 250900Z 07001KT 9999 FEW007 BKN070 22/20 Q1013","temp":22,"dewp":20,"wdir":70,"wspd":1,"visib":"6+","altim":1013,"clouds":[{"cover":"FEW","base":700},{"cover":"BKN","base":7000}],"obsTime":1777107600},"SBPA":{"icaoId":"SBPA","flightCategory":"IFR","rawOb":"METAR SBPA 250900Z 27007KT 6000 BKN005 OVC012 20/20 Q1012","temp":20,"dewp":20,"wdir":270,"wspd":7,"visib":3.73,"altim":1012,"clouds":[{"cover":"BKN","base":500},{"cover":"OVC","base":1200}],"obsTime":1777107600},"SBGO":{"icaoId":"SBGO","flightCategory":"VFR","rawOb":"METAR SBGO 250900Z 10003KT CAVOK 18/16 Q1017","temp":18,"dewp":16,"wdir":100,"wspd":3,"visib":"6+","altim":1017,"clouds":[],"obsTime":1777107600},"SBPJ":{"icaoId":"SBPJ","flightCategory":"VFR","rawOb":"METAR SBPJ 250900Z 11005KT 9999 FEW010 23/23 Q1013","temp":23,"dewp":23,"wdir":110,"wspd":5,"visib":"6+","altim":1013,"clouds":[{"cover":"FEW","base":1000}],"obsTime":1777107600},"SBCP":{"icaoId":"SBCP","flightCategory":"VFR","rawOb":"METAR SBCP 251000Z 04001KT CAVOK 22/21 Q1015","temp":22,"dewp":21,"wdir":40,"wspd":1,"visib":"6+","altim":1015,"clouds":[],"obsTime":1777111200},"SBBV":{"icaoId":"SBBV","flightCategory":"VFR","rawOb":"METAR SBBV 250900Z 03002KT 9999 FEW040 FEW045TCU 24/24 Q1011","temp":24,"dewp":24,"wdir":30,"wspd":2,"visib":"6+","altim":1011,"clouds":[{"cover":"FEW","base":4000},{"cover":"FEW","base":4500}],"obsTime":1777107600},"SBMG":{"icaoId":"SBMG","flightCategory":"VFR","rawOb":"METAR SBMG 250900Z AUTO 03005KT CAVOK 20/17 Q1014","temp":20,"dewp":17,"wdir":30,"wspd":5,"visib":"6+","altim":1014,"clouds":[],"obsTime":1777107600},"SBMK":{"icaoId":"SBMK","flightCategory":"VFR","rawOb":"METAR SBMK 250900Z 00000KT CAVOK 19/16 Q1018","temp":19,"dewp":16,"wdir":0,"wspd":0,"visib":"6+","altim":1018,"clouds":[],"obsTime":1777107600},"SBFL":{"icaoId":"SBFL","flightCategory":"VFR","rawOb":"METAR SBFL 250900Z VRB01KT 9999 FEW030 BKN100 22/21 Q1011","temp":22,"dewp":21,"wdir":"VRB","wspd":1,"visib":"6+","altim":1011,"clouds":[{"cover":"FEW","base":3000},{"cover":"BKN","base":10000}],"obsTime":1777107600},"SBMO":{"icaoId":"SBMO","flightCategory":"VFR","rawOb":"METAR SBMO 250900Z 32003KT 9999 SCT020 23/23 Q1012","temp":23,"dewp":23,"wdir":320,"wspd":3,"visib":"6+","altim":1012,"clouds":[{"cover":"SCT","base":2000}],"obsTime":1777107600},"SBBR":{"icaoId":"SBBR","flightCategory":"VFR","rawOb":"METAR SBBR 250900Z 33002KT CAVOK 16/15 Q1019","temp":16,"dewp":15,"wdir":330,"wspd":2,"visib":"6+","altim":1019,"clouds":[],"obsTime":1777107600},"SBRB":{"icaoId":"SBRB","flightCategory":"LIFR","rawOb":"METAR SBRB 250900Z 10002KT 8000 BKN003 BKN100 22/22 Q1011","temp":22,"dewp":22,"wdir":100,"wspd":2,"visib":4.97,"altim":1011,"clouds":[{"cover":"BKN","base":300},{"cover":"BKN","base":10000}],"obsTime":1777107600},"SBGR":{"icaoId":"SBGR","flightCategory":"VFR","rawOb":"METAR SBGR 250900Z 08004KT CAVOK 17/16 Q1017","temp":17,"dewp":16,"wdir":80,"wspd":4,"visib":"6+","altim":1017,"clouds":[],"obsTime":1777107600},"SBRF":{"icaoId":"SBRF","flightCategory":"MVFR","rawOb":"METAR SBRF 250900Z 22004KT 9999 BKN020 25/23 Q1011","temp":25,"dewp":23,"wdir":220,"wspd":4,"visib":"6+","altim":1011,"clouds":[{"cover":"BKN","base":2000}],"obsTime":1777107600},"SBHT":{"icaoId":"SBHT","flightCategory":"VFR","rawOb":"METAR SBHT 251000Z 24003KT 9999 SCT010 BKN080 24/23 Q1011","temp":24,"dewp":23,"wdir":240,"wspd":3,"visib":"6+","altim":1011,"clouds":[{"cover":"SCT","base":1000},{"cover":"BKN","base":8000}],"obsTime":1777111200},"SBSG":{"icaoId":"SBSG","flightCategory":"VFR","rawOb":"METAR SBSG 250900Z 18004KT 140V210 9999 VCSH SCT020 FEW025TCU BKN100 23/23 Q1011","temp":23,"dewp":23,"wdir":180,"wspd":4,"visib":"6+","altim":1011,"clouds":[{"cover":"SCT","base":2000},{"cover":"FEW","base":2500},{"cover":"BKN","base":10000}],"obsTime":1777107600},"SBIL":{"icaoId":"SBIL","flightCategory":"VFR","rawOb":"METAR SBIL 251000Z 28005KT 9999 FEW040 BKN070 24/23 Q1015","temp":24,"dewp":23,"wdir":280,"wspd":5,"visib":"6+","altim":1015,"clouds":[{"cover":"FEW","base":4000},{"cover":"BKN","base":7000}],"obsTime":1777111200},"SBSL":{"icaoId":"SBSL","flightCategory":"IFR","rawOb":"METAR SBSL 250900Z 09004KT 030V130 3500 1500SW R06/P2000 RA BR BKN014 FEW025TCU 24/23 Q1012","temp":24,"dewp":23,"wdir":90,"wspd":4,"visib":2.17,"altim":1012,"clouds":[{"cover":"BKN","base":1400},{"cover":"FEW","base":2500}],"obsTime":1777107600},"SBJU":{"icaoId":"SBJU","flightCategory":"VFR","rawOb":"METAR SBJU 250900Z 00000KT 9999 FEW020 23/20 Q1014","temp":23,"dewp":20,"wdir":0,"wspd":0,"visib":"6+","altim":1014,"clouds":[{"cover":"FEW","base":2000}],"obsTime":1777107600},"SBSN":{"icaoId":"SBSN","flightCategory":"VFR","rawOb":"METAR SBSN 250900Z 19003KT 9999 FEW015 SCT100 23/23 Q1010","temp":23,"dewp":23,"wdir":190,"wspd":3,"visib":"6+","altim":1010,"clouds":[{"cover":"FEW","base":1500},{"cover":"SCT","base":10000}],"obsTime":1777107600},"SBCT":{"icaoId":"SBCT","flightCategory":"LIFR","rawOb":"METAR SBCT 250900Z 29002KT 0200 R15/0500 R33/0500 FG VV001 16/16 Q1017","temp":16,"dewp":16,"wdir":290,"wspd":2,"visib":0.12,"altim":1017,"clouds":[{"cover":"OVX","base":100}],"obsTime":1777107600},"SBSP":{"icaoId":"SBSP","flightCategory":"VFR","rawOb":"METAR SBSP 250900Z 04004KT CAVOK 19/17 Q1017","temp":19,"dewp":17,"wdir":40,"wspd":4,"visib":"6+","altim":1017,"clouds":[],"obsTime":1777107600},"SBCB":{"icaoId":"SBCB","flightCategory":"VFR","rawOb":"METAR SBCB 250900Z 06008KT 9999 SCT030 23/21 Q1014","temp":23,"dewp":21,"wdir":60,"wspd":8,"visib":"6+","altim":1014,"clouds":[{"cover":"SCT","base":3000}],"obsTime":1777107600},"SBSV":{"icaoId":"SBSV","flightCategory":"MVFR","rawOb":"METAR SBSV 250900Z 12008KT 9999 VCSH BKN022 FEW025TCU 27/23 Q1013","temp":27,"dewp":23,"wdir":120,"wspd":8,"visib":"6+","altim":1013,"clouds":[{"cover":"BKN","base":2200},{"cover":"FEW","base":2500}],"obsTime":1777107600},"SBTE":{"icaoId":"SBTE","flightCategory":"VFR","rawOb":"METAR SBTE 250900Z 34002KT 9999 FEW010 BKN080 24/23 Q1011","temp":24,"dewp":23,"wdir":340,"wspd":2,"visib":"6+","altim":1011,"clouds":[{"cover":"FEW","base":1000},{"cover":"BKN","base":8000}],"obsTime":1777107600},"SBKP":{"icaoId":"SBKP","flightCategory":"VFR","rawOb":"METAR SBKP 250900Z 11005KT CAVOK 18/16 Q1016","temp":18,"dewp":16,"wdir":110,"wspd":5,"visib":"6+","altim":1016,"clouds":[],"obsTime":1777107600},"SBUL":{"icaoId":"SBUL","flightCategory":"VFR","rawOb":"METAR SBUL 250900Z 09004KT CAVOK 19/14 Q1019","temp":19,"dewp":14,"wdir":90,"wspd":4,"visib":"6+","altim":1019,"clouds":[],"obsTime":1777107600},"SBLO":{"icaoId":"SBLO","flightCategory":"VFR","rawOb":"METAR SBLO 250900Z 15001KT CAVOK 19/17 Q1015","temp":19,"dewp":17,"wdir":150,"wspd":1,"visib":"6+","altim":1015,"clouds":[],"obsTime":1777107600},"SBUR":{"icaoId":"SBUR","flightCategory":"VFR","rawOb":"METAR SBUR 250900Z 02006KT CAVOK 20/14 Q1017","temp":20,"dewp":14,"wdir":20,"wspd":6,"visib":"6+","altim":1017,"clouds":[],"obsTime":1777107600},"SBEG":{"icaoId":"SBEG","flightCategory":"VFR","rawOb":"METAR SBEG 250900Z 00000KT 9999 FEW006 24/24 Q1011","temp":24,"dewp":24,"wdir":0,"wspd":0,"visib":"6+","altim":1011,"clouds":[{"cover":"FEW","base":600}],"obsTime":1777107600},"SBBE":{"icaoId":"SBBE","flightCategory":"VFR","rawOb":"METAR SBBE 250900Z 08002KT 9999 SCT005 BKN100 23/23 Q1010","temp":23,"dewp":23,"wdir":80,"wspd":2,"visib":"6+","altim":1010,"clouds":[{"cover":"SCT","base":500},{"cover":"BKN","base":10000}],"obsTime":1777107600},"SBVT":{"icaoId":"SBVT","flightCategory":"VFR","rawOb":"METAR SBVT 250900Z 31002KT CAVOK 20/19 Q1015","temp":20,"dewp":19,"wdir":310,"wspd":2,"visib":"6+","altim":1015,"clouds":[],"obsTime":1777107600},"SBMA":{"icaoId":"SBMA","flightCategory":"VFR","rawOb":"METAR SBMA 250900Z 00000KT 9999 FEW010 BKN080 24/23 Q1011","temp":24,"dewp":23,"wdir":0,"wspd":0,"visib":"6+","altim":1011,"clouds":[{"cover":"FEW","base":1000},{"cover":"BKN","base":8000}],"obsTime":1777107600},"SBFI":{"icaoId":"SBFI","flightCategory":"VFR","rawOb":"METAR SBFI 250900Z 22004KT CAVOK 20/20 Q1012","temp":20,"dewp":20,"wdir":220,"wspd":4,"visib":"6+","altim":1012,"clouds":[],"obsTime":1777107600},"SBME":{"icaoId":"SBME","flightCategory":"MVFR","rawOb":"METAR SBME 250900Z 04007KT 9999 BKN025 23/19 Q1014","temp":23,"dewp":19,"wdir":40,"wspd":7,"visib":"6+","altim":1014,"clouds":[{"cover":"BKN","base":2500}],"obsTime":1777107600},"SBCF":{"icaoId":"SBCF","flightCategory":"MVFR","rawOb":"METAR SBCF 250900Z VRB02KT 8000 NSC 17/16 Q1019","temp":17,"dewp":16,"wdir":"VRB","wspd":2,"visib":4.97,"altim":1019,"clouds":[],"obsTime":1777107600},"SBPB":{"icaoId":"SBPB","flightCategory":"MVFR","rawOb":"SPECI SBPB 251015Z 24004KT 9999 BKN010 25/24 Q1012","temp":25,"dewp":24,"wdir":240,"wspd":4,"visib":"6+","altim":1012,"clouds":[{"cover":"BKN","base":1000}],"obsTime":1777112100},"SBCJ":{"icaoId":"SBCJ","flightCategory":"VFR","rawOb":"SPECI SBCJ 251015Z 00000KT CAVOK 22/21 Q1016","temp":22,"dewp":21,"wdir":0,"wspd":0,"visib":"6+","altim":1016,"clouds":[],"obsTime":1777112100},"SBOI":{"icaoId":"SBOI","flightCategory":"MVFR","rawOb":"METAR SBOI 250900Z AUTO 16003KT 5000 // VV003 23/22 Q1011","temp":23,"dewp":22,"wdir":160,"wspd":3,"visib":3.11,"altim":1011,"clouds":[{"cover":"OVX","base":300}],"obsTime":1777107600},"SBPL":{"icaoId":"SBPL","flightCategory":"VFR","rawOb":"METAR SBPL 250900Z 13006KT CAVOK 23/22 Q1014","temp":23,"dewp":22,"wdir":130,"wspd":6,"visib":"6+","altim":1014,"clouds":[],"obsTime":1777107600},"SBAX":{"icaoId":"SBAX","flightCategory":"VFR","rawOb":"METAR SBAX 250900Z AUTO 19004KT CAVOK 18/13 Q1019","temp":18,"dewp":13,"wdir":190,"wspd":4,"visib":"6+","altim":1019,"clouds":[],"obsTime":1777107600},"SBPS":{"icaoId":"SBPS","flightCategory":"VFR","rawOb":"METAR SBPS 250900Z 26004KT 9999 SCT017 SCT070 22/22 Q1015","temp":22,"dewp":22,"wdir":260,"wspd":4,"visib":"6+","altim":1015,"clouds":[{"cover":"SCT","base":1700},{"cover":"SCT","base":7000}],"obsTime":1777107600},"SBSC":{"icaoId":"SBSC","flightCategory":"VFR","rawOb":"METAR SBSC 250900Z 36004KT 9999 FEW020 23/20 Q1015","temp":23,"dewp":20,"wdir":360,"wspd":4,"visib":"6+","altim":1015,"clouds":[{"cover":"FEW","base":2000}],"obsTime":1777107600},"SBES":{"icaoId":"SBES","flightCategory":"VFR","rawOb":"METAR SBES 250900Z 05007KT 020V080 9999 SCT040 21/// Q1014","temp":null,"dewp":null,"wdir":50,"wspd":7,"visib":"6+","altim":1014,"clouds":[{"cover":"SCT","base":4000}],"obsTime":1777107600},"SBSJ":{"icaoId":"SBSJ","flightCategory":"MVFR","rawOb":"METAR SBSJ 250900Z 00000KT 5000 BR NSC 16/15 Q1017","temp":16,"dewp":15,"wdir":0,"wspd":0,"visib":3.11,"altim":1017,"clouds":[],"obsTime":1777107600},"SBAR":{"icaoId":"SBAR","flightCategory":"VFR","rawOb":"METAR SBAR 250900Z 12005KT 9999 SCT024 24/23 Q1012","temp":24,"dewp":23,"wdir":120,"wspd":5,"visib":"6+","altim":1012,"clouds":[{"cover":"SCT","base":2400}],"obsTime":1777107600},"SBSM":{"icaoId":"SBSM","flightCategory":"IFR","rawOb":"METAR SBSM 250900Z 13001KT 4000 BR OVC008 18/18 Q1013","temp":18,"dewp":18,"wdir":130,"wspd":1,"visib":2.49,"altim":1013,"clouds":[{"cover":"OVC","base":800}],"obsTime":1777107600},"SBSR":{"icaoId":"SBSR","flightCategory":"VFR","rawOb":"METAR SBSR 250900Z 00000KT CAVOK 21/16 Q1015","temp":21,"dewp":16,"wdir":0,"wspd":0,"visib":"6+","altim":1015,"clouds":[],"obsTime":1777107600},"SBIP":{"icaoId":"SBIP","flightCategory":"VFR","rawOb":"METAR SBIP 250900Z AUTO 00000KT 9999 SCT025 OVC032 20/20 Q1017","temp":20,"dewp":20,"wdir":0,"wspd":0,"visib":"6+","altim":1017,"clouds":[{"cover":"SCT","base":2500},{"cover":"OVC","base":3200}],"obsTime":1777107600},"SBBU":{"icaoId":"SBBU","flightCategory":"VFR","rawOb":"METAR SBBU 250900Z 05003KT CAVOK 23/18 Q1016","temp":23,"dewp":18,"wdir":50,"wspd":3,"visib":"6+","altim":1016,"clouds":[],"obsTime":1777107600},"SBKG":{"icaoId":"SBKG","flightCategory":"MVFR","rawOb":"METAR SBKG 250900Z 20002KT 9999 BKN010 21/21 Q1014","temp":21,"dewp":21,"wdir":200,"wspd":2,"visib":"6+","altim":1014,"clouds":[{"cover":"BKN","base":1000}],"obsTime":1777107600},"SBDN":{"icaoId":"SBDN","flightCategory":"VFR","rawOb":"METAR SBDN 250900Z 06004KT CAVOK 21/17 Q1014","temp":21,"dewp":17,"wdir":60,"wspd":4,"visib":"6+","altim":1014,"clouds":[],"obsTime":1777107600},"SBCO":{"icaoId":"SBCO","flightCategory":"LIFR","rawOb":"METAR SBCO 250900Z 28006KT 4000 -RA BKN004 OVC010 20/20 Q1012","temp":20,"dewp":20,"wdir":280,"wspd":6,"visib":2.49,"altim":1012,"clouds":[{"cover":"BKN","base":400},{"cover":"OVC","base":1000}],"obsTime":1777107600},"SBBH":{"icaoId":"SBBH","flightCategory":"VFR","rawOb":"METAR SBBH 250900Z 00000KT CAVOK 16/16 Q1019","temp":16,"dewp":16,"wdir":0,"wspd":0,"visib":"6+","altim":1019,"clouds":[],"obsTime":1777107600},"SBJP":{"icaoId":"SBJP","flightCategory":"VFR","rawOb":"METAR SBJP 250900Z 18005KT 9999 FEW020 23/23 Q1011","temp":23,"dewp":23,"wdir":180,"wspd":5,"visib":"6+","altim":1011,"clouds":[{"cover":"FEW","base":2000}],"obsTime":1777107600},"SBMT":{"icaoId":"SBMT","flightCategory":"VFR","rawOb":"METAR SBMT 250900Z 09002KT CAVOK 18/16 Q1016","temp":18,"dewp":16,"wdir":90,"wspd":2,"visib":"6+","altim":1016,"clouds":[],"obsTime":1777107600},"SBTA":{"icaoId":"SBTA","flightCategory":"VFR","rawOb":"METAR SBTA 250900Z VRB01KT CAVOK 15/14 Q1016","temp":15,"dewp":14,"wdir":"VRB","wspd":1,"visib":"6+","altim":1016,"clouds":[],"obsTime":1777107600},"SBAN":{"icaoId":"SBAN","flightCategory":"VFR","rawOb":"METAR SBAN 250900Z 13007KT CAVOK 18/15 Q1020","temp":18,"dewp":15,"wdir":130,"wspd":7,"visib":"6+","altim":1020,"clouds":[],"obsTime":1777107600},"SBJV":{"icaoId":"SBJV","flightCategory":"VFR","rawOb":"METAR SBJV 250900Z 00000KT CAVOK 19/19 Q1012","temp":19,"dewp":19,"wdir":0,"wspd":0,"visib":"6+","altim":1012,"clouds":[],"obsTime":1777107600},"SBLE":{"icaoId":"SBLE","flightCategory":"MVFR","rawOb":"METAR SBLE 250900Z AUTO VRB01KT 9999 BKN023 ///// Q////","temp":null,"dewp":null,"wdir":"VRB","wspd":1,"visib":"6+","altim":null,"clouds":[{"cover":"BKN","base":2300}],"obsTime":1777107600},"SBAF":{"icaoId":"SBAF","flightCategory":"VFR","rawOb":"METAR SBAF 251000Z 00000KT CAVOK 19/19 Q1014","temp":19,"dewp":19,"wdir":0,"wspd":0,"visib":"6+","altim":1014,"clouds":[],"obsTime":1777111200},"SBGW":{"icaoId":"SBGW","flightCategory":"VFR","rawOb":"METAR SBGW 250900Z 00000KT 9999 FEW040 15/12 Q1016","temp":15,"dewp":12,"wdir":0,"wspd":0,"visib":"6+","altim":1016,"clouds":[{"cover":"FEW","base":4000}],"obsTime":1777107600},"SBJR":{"icaoId":"SBJR","flightCategory":"VFR","rawOb":"METAR SBJR 251000Z 01005KT 9000 NSC 23/21 Q1013","temp":23,"dewp":21,"wdir":10,"wspd":5,"visib":5.59,"altim":1013,"clouds":[],"obsTime":1777111200},"SBLS":{"icaoId":"SBLS","flightCategory":"VFR","rawOb":"METAR SBLS 250900Z 18005KT CAVOK 18/16 Q1018","temp":18,"dewp":16,"wdir":180,"wspd":5,"visib":"6+","altim":1018,"clouds":[],"obsTime":1777107600},"SBPF":{"icaoId":"SBPF","flightCategory":"VFR","rawOb":"METAR SBPF 250900Z 36006KT CAVOK 16/13 Q1014","temp":16,"dewp":13,"wdir":360,"wspd":6,"visib":"6+","altim":1014,"clouds":[],"obsTime":1777107600}}}