{"updated":1774084793,"count":64,"data":{"SBVT":{"icaoId":"SBVT","flightCategory":"VFR","rawOb":"METAR SBVT 210800Z 24007KT 9999 VCTS SCT025 FEW035CB BKN100 23/21 Q1008","temp":23,"dewp":21,"wdir":240,"wspd":7,"visib":"6+","altim":1008,"clouds":[{"cover":"SCT","base":2500},{"cover":"FEW","base":3500},{"cover":"BKN","base":10000}],"obsTime":1774080000},"SBBR":{"icaoId":"SBBR","flightCategory":"VFR","rawOb":"METAR SBBR 210800Z 23004KT CAVOK 19/18 Q1016","temp":19,"dewp":18,"wdir":230,"wspd":4,"visib":"6+","altim":1016,"clouds":[],"obsTime":1774080000},"SBBV":{"icaoId":"SBBV","flightCategory":"VFR","rawOb":"METAR SBBV 210800Z 12005KT CAVOK 25/22 Q1008","temp":25,"dewp":22,"wdir":120,"wspd":5,"visib":"6+","altim":1008,"clouds":[],"obsTime":1774080000},"SBCB":{"icaoId":"SBCB","flightCategory":"VFR","rawOb":"METAR SBCB 210900Z 26004KT 9999 FEW030 23/22 Q1010","temp":23,"dewp":22,"wdir":260,"wspd":4,"visib":"6+","altim":1010,"clouds":[{"cover":"FEW","base":3000}],"obsTime":1774083600},"SBCF":{"icaoId":"SBCF","flightCategory":"IFR","rawOb":"METAR SBCF 210800Z 04002KT 4000 BR BKN006 BKN010 20/20 Q1014","temp":20,"dewp":20,"wdir":40,"wspd":2,"visib":2.49,"altim":1014,"clouds":[{"cover":"BKN","base":600},{"cover":"BKN","base":1000}],"obsTime":1774080000},"SBCG":{"icaoId":"SBCG","flightCategory":"VFR","rawOb":"METAR SBCG 210800Z 01004KT CAVOK 23/21 Q1009","temp":23,"dewp":21,"wdir":10,"wspd":4,"visib":"6+","altim":1009,"clouds":[],"obsTime":1774080000},"SBCT":{"icaoId":"SBCT","flightCategory":"IFR","rawOb":"METAR SBCT 210800Z 05003KT 4000 BR SCT006 19/18 Q1015","temp":19,"dewp":18,"wdir":50,"wspd":3,"visib":2.49,"altim":1015,"clouds":[{"cover":"SCT","base":600}],"obsTime":1774080000},"SBEG":{"icaoId":"SBEG","flightCategory":"VFR","rawOb":"METAR SBEG 210800Z 09007KT CAVOK 25/23 Q1008","temp":25,"dewp":23,"wdir":90,"wspd":7,"visib":"6+","altim":1008,"clouds":[],"obsTime":1774080000},"SBFI":{"icaoId":"SBFI","flightCategory":"VFR","rawOb":"METAR SBFI 210800Z 08001KT CAVOK 24/24 Q1006","temp":24,"dewp":24,"wdir":80,"wspd":1,"visib":"6+","altim":1006,"clouds":[],"obsTime":1774080000},"SBFL":{"icaoId":"SBFL","flightCategory":"MVFR","rawOb":"METAR SBFL 210800Z 33004KT 9999 BKN010 BKN025 BKN060 24/23 Q1010","temp":24,"dewp":23,"wdir":330,"wspd":4,"visib":"6+","altim":1010,"clouds":[{"cover":"BKN","base":1000},{"cover":"BKN","base":2500},{"cover":"BKN","base":6000}],"obsTime":1774080000},"SBFZ":{"icaoId":"SBFZ","flightCategory":"MVFR","rawOb":"METAR SBFZ 210800Z 21007KT 8000 -RA BKN020 BKN100 25/23 Q1008","temp":25,"dewp":23,"wdir":210,"wspd":7,"visib":4.97,"altim":1008,"clouds":[{"cover":"BKN","base":2000},{"cover":"BKN","base":10000}],"obsTime":1774080000},"SBGL":{"icaoId":"SBGL","flightCategory":"MVFR","rawOb":"METAR SBGL 210800Z 29003KT 5000 BR FEW009 23/22 Q1010","temp":23,"dewp":22,"wdir":290,"wspd":3,"visib":3.11,"altim":1010,"clouds":[{"cover":"FEW","base":900}],"obsTime":1774080000},"SBGO":{"icaoId":"SBGO","flightCategory":"VFR","rawOb":"METAR SBGO 210800Z 30002KT 9999 FEW020 BKN100 21/20 Q1014","temp":21,"dewp":20,"wdir":300,"wspd":2,"visib":"6+","altim":1014,"clouds":[{"cover":"FEW","base":2000},{"cover":"BKN","base":10000}],"obsTime":1774080000},"SBGR":{"icaoId":"SBGR","flightCategory":"IFR","rawOb":"METAR SBGR 210800Z 07007KT 5000 BR OVC007 19/18 Q1014","temp":19,"dewp":18,"wdir":70,"wspd":7,"visib":3.11,"altim":1014,"clouds":[{"cover":"OVC","base":700}],"obsTime":1774080000},"SBJU":{"icaoId":"SBJU","flightCategory":"VFR","rawOb":"METAR SBJU 210800Z 00000KT 9999 SCT020 23/22 Q1012","temp":23,"dewp":22,"wdir":0,"wspd":0,"visib":"6+","altim":1012,"clouds":[{"cover":"SCT","base":2000}],"obsTime":1774080000},"SBKP":{"icaoId":"SBKP","flightCategory":"VFR","rawOb":"METAR SBKP 210800Z 15005KT CAVOK 19/18 Q1013","temp":19,"dewp":18,"wdir":150,"wspd":5,"visib":"6+","altim":1013,"clouds":[],"obsTime":1774080000},"SBLO":{"icaoId":"SBLO","flightCategory":"VFR","rawOb":"METAR SBLO 210800Z 08006KT 9999 SCT030 22/20 Q1012","temp":22,"dewp":20,"wdir":80,"wspd":6,"visib":"6+","altim":1012,"clouds":[{"cover":"SCT","base":3000}],"obsTime":1774080000},"SBMA":{"icaoId":"SBMA","flightCategory":"VFR","rawOb":"METAR SBMA 210800Z 22003KT 9999 -RA FEW010 FEW020TCU BKN080 24/23 Q1010","temp":24,"dewp":23,"wdir":220,"wspd":3,"visib":"6+","altim":1010,"clouds":[{"cover":"FEW","base":1000},{"cover":"FEW","base":2000},{"cover":"BKN","base":8000}],"obsTime":1774080000},"SBME":{"icaoId":"SBME","flightCategory":"IFR","rawOb":"METAR SBME 210800Z 34003KT 4000 -RA BKN015 OVC070 24/23 Q1009","temp":24,"dewp":23,"wdir":340,"wspd":3,"visib":2.49,"altim":1009,"clouds":[{"cover":"BKN","base":1500},{"cover":"OVC","base":7000}],"obsTime":1774080000},"SBMG":{"icaoId":"SBMG","flightCategory":"VFR","rawOb":"METAR SBMG 210800Z AUTO 05010KT CAVOK 24/21 Q1010","temp":24,"dewp":21,"wdir":50,"wspd":10,"visib":"6+","altim":1010,"clouds":[],"obsTime":1774080000},"SBMK":{"icaoId":"SBMK","flightCategory":"VFR","rawOb":"METAR SBMK 210800Z 00000KT 9999 BKN040 21/20 Q1013","temp":21,"dewp":20,"wdir":0,"wspd":0,"visib":"6+","altim":1013,"clouds":[{"cover":"BKN","base":4000}],"obsTime":1774080000},"SBMO":{"icaoId":"SBMO","flightCategory":"VFR","rawOb":"METAR SBMO 210800Z 33003KT 9999 FEW020 24/23 Q1010","temp":24,"dewp":23,"wdir":330,"wspd":3,"visib":"6+","altim":1010,"clouds":[{"cover":"FEW","base":2000}],"obsTime":1774080000},"SBMQ":{"icaoId":"SBMQ","flightCategory":"LIFR","rawOb":"METAR SBMQ 210800Z 00000KT 9999 BKN004 OVC014 24/24 Q1008","temp":24,"dewp":24,"wdir":0,"wspd":0,"visib":"6+","altim":1008,"clouds":[{"cover":"BKN","base":400},{"cover":"OVC","base":1400}],"obsTime":1774080000},"SBNT":{"icaoId":"SBNT","flightCategory":"VFR","rawOb":"METAR SBNT 210800Z 20006KT 9999 SCT020 25/24 Q1009","temp":25,"dewp":24,"wdir":200,"wspd":6,"visib":"6+","altim":1009,"clouds":[{"cover":"SCT","base":2000}],"obsTime":1774080000},"SBPA":{"icaoId":"SBPA","flightCategory":"VFR","rawOb":"METAR SBPA 210800Z 10003KT CAVOK 21/20 Q1007","temp":21,"dewp":20,"wdir":100,"wspd":3,"visib":"6+","altim":1007,"clouds":[],"obsTime":1774080000},"SBPJ":{"icaoId":"SBPJ","flightCategory":"VFR","rawOb":"METAR SBPJ 210800Z 05004KT 360V090 9999 -RA FEW010 BKN090 BKN100 24/22 Q1012","temp":24,"dewp":22,"wdir":50,"wspd":4,"visib":"6+","altim":1012,"clouds":[{"cover":"FEW","base":1000},{"cover":"BKN","base":9000},{"cover":"BKN","base":10000}],"obsTime":1774080000},"SBPV":{"icaoId":"SBPV","flightCategory":"VFR","rawOb":"METAR SBPV 210800Z 04003KT CAVOK 25/23 Q1007","temp":25,"dewp":23,"wdir":40,"wspd":3,"visib":"6+","altim":1007,"clouds":[],"obsTime":1774080000},"SBRB":{"icaoId":"SBRB","flightCategory":"MVFR","rawOb":"METAR SBRB 210800Z 08002KT 8000 -TSRA SCT003 FEW030CB BKN100 24/24 Q1007","temp":24,"dewp":24,"wdir":80,"wspd":2,"visib":4.97,"altim":1007,"clouds":[{"cover":"SCT","base":300},{"cover":"FEW","base":3000},{"cover":"BKN","base":10000}],"obsTime":1774080000},"SBRF":{"icaoId":"SBRF","flightCategory":"VFR","rawOb":"METAR SBRF 210800Z 10007KT 070V130 9999 SCT022 28/24 Q1009","temp":28,"dewp":24,"wdir":100,"wspd":7,"visib":"6+","altim":1009,"clouds":[{"cover":"SCT","base":2200}],"obsTime":1774080000},"SBSG":{"icaoId":"SBSG","flightCategory":"VFR","rawOb":"METAR SBSG 210800Z 20003KT 9999 SCT023 24/24 Q1009","temp":24,"dewp":24,"wdir":200,"wspd":3,"visib":"6+","altim":1009,"clouds":[{"cover":"SCT","base":2300}],"obsTime":1774080000},"SBSL":{"icaoId":"SBSL","flightCategory":"MVFR","rawOb":"METAR SBSL 210800Z 31005KT 8000 BKN018 OVC021 24/24 Q1010 RERA","temp":24,"dewp":24,"wdir":310,"wspd":5,"visib":4.97,"altim":1010,"clouds":[{"cover":"BKN","base":1800},{"cover":"OVC","base":2100}],"obsTime":1774080000},"SBSN":{"icaoId":"SBSN","flightCategory":"VFR","rawOb":"METAR SBSN 210800Z 14005KT 9999 FEW010 24/23 Q1009","temp":24,"dewp":23,"wdir":140,"wspd":5,"visib":"6+","altim":1009,"clouds":[{"cover":"FEW","base":1000}],"obsTime":1774080000},"SBSP":{"icaoId":"SBSP","flightCategory":"MVFR","rawOb":"SPECI SBSP 210734Z AUTO VRB02KT 9999 FEW008 BKN010 19/18 Q1014","temp":19,"dewp":18,"wdir":"VRB","wspd":2,"visib":"6+","altim":1014,"clouds":[{"cover":"FEW","base":800},{"cover":"BKN","base":1000}],"obsTime":1774078440},"SBSV":{"icaoId":"SBSV","flightCategory":"VFR","rawOb":"METAR SBSV 210800Z VRB02KT 9999 FEW020 25/23 Q1010","temp":25,"dewp":23,"wdir":"VRB","wspd":2,"visib":"6+","altim":1010,"clouds":[{"cover":"FEW","base":2000}],"obsTime":1774080000},"SBTE":{"icaoId":"SBTE","flightCategory":"MVFR","rawOb":"METAR SBTE 210800Z 33003KT 9999 BKN015 SCT100 25/24 Q1009","temp":25,"dewp":24,"wdir":330,"wspd":3,"visib":"6+","altim":1009,"clouds":[{"cover":"BKN","base":1500},{"cover":"SCT","base":10000}],"obsTime":1774080000},"SBUL":{"icaoId":"SBUL","flightCategory":"LIFR","rawOb":"METAR SBUL 210800Z 35003KT 9999 3000NW BCFG BKN002 BKN008 20/20 Q1015","temp":20,"dewp":20,"wdir":350,"wspd":3,"visib":"6+","altim":1015,"clouds":[{"cover":"BKN","base":200},{"cover":"BKN","base":800}],"obsTime":1774080000},"SBUR":{"icaoId":"SBUR","flightCategory":"VFR","rawOb":"METAR SBUR 210800Z 02004KT 9999 SCT027 21/20 Q1013","temp":21,"dewp":20,"wdir":20,"wspd":4,"visib":"6+","altim":1013,"clouds":[{"cover":"SCT","base":2700}],"obsTime":1774080000},"SBBE":{"icaoId":"SBBE","flightCategory":"VFR","rawOb":"METAR SBBE 210800Z 10008KT 9999 FEW009 SCT013 OVC100 23/23 Q1010","temp":23,"dewp":23,"wdir":100,"wspd":8,"visib":"6+","altim":1010,"clouds":[{"cover":"FEW","base":900},{"cover":"SCT","base":1300},{"cover":"OVC","base":10000}],"obsTime":1774080000},"SBPL":{"icaoId":"SBPL","flightCategory":"VFR","rawOb":"METAR SBPL 210800Z 10005KT CAVOK 25/20 Q1011","temp":25,"dewp":20,"wdir":100,"wspd":5,"visib":"6+","altim":1011,"clouds":[],"obsTime":1774080000},"SBSR":{"icaoId":"SBSR","flightCategory":"VFR","rawOb":"METAR SBSR 210800Z 00000KT CAVOK 23/21 Q1011","temp":23,"dewp":21,"wdir":0,"wspd":0,"visib":"6+","altim":1011,"clouds":[],"obsTime":1774080000},"SBSM":{"icaoId":"SBSM","flightCategory":"LIFR","rawOb":"METAR SBSM 210900Z 13005KT 0800 R29///// R11/1300 FG VV002 21/21 Q1006","temp":21,"dewp":21,"wdir":130,"wspd":5,"visib":0.5,"altim":1006,"clouds":[{"cover":"OVX","base":200}],"obsTime":1774083600},"SBAX":{"icaoId":"SBAX","flightCategory":"LIFR","rawOb":"METAR SBAX 210800Z AUTO 24003KT 9999 BKN002 OVC007 ///// Q1015","temp":null,"dewp":null,"wdir":240,"wspd":3,"visib":"6+","altim":1015,"clouds":[{"cover":"BKN","base":200},{"cover":"OVC","base":700}],"obsTime":1774080000},"SBBH":{"icaoId":"SBBH","flightCategory":"IFR","rawOb":"METAR SBBH 210900Z 34002KT 4000 -RA BKN006 OVC011 21/20 Q1014","temp":21,"dewp":20,"wdir":340,"wspd":2,"visib":2.49,"altim":1014,"clouds":[{"cover":"BKN","base":600},{"cover":"OVC","base":1100}],"obsTime":1774083600},"SBBU":{"icaoId":"SBBU","flightCategory":"VFR","rawOb":"METAR SBBU 210900Z 10006KT CAVOK 21/19 Q1013","temp":21,"dewp":19,"wdir":100,"wspd":6,"visib":"6+","altim":1013,"clouds":[],"obsTime":1774083600},"SBCA":{"icaoId":"SBCA","flightCategory":"VFR","rawOb":"METAR SBCA 210900Z 03011KT 9999 FEW025 23/21 Q1012","temp":23,"dewp":21,"wdir":30,"wspd":11,"visib":"6+","altim":1012,"clouds":[{"cover":"FEW","base":2500}],"obsTime":1774083600},"SBCO":{"icaoId":"SBCO","flightCategory":"VFR","rawOb":"METAR SBCO 210900Z 10002KT 9000 MIFG NSC 19/19 Q1008","temp":19,"dewp":19,"wdir":100,"wspd":2,"visib":5.59,"altim":1008,"clouds":[],"obsTime":1774083600},"SBDN":{"icaoId":"SBDN","flightCategory":"VFR","rawOb":"METAR SBDN 210800Z 06004KT CAVOK 24/22 Q1010","temp":24,"dewp":22,"wdir":60,"wspd":4,"visib":"6+","altim":1010,"clouds":[],"obsTime":1774080000},"SBSJ":{"icaoId":"SBSJ","flightCategory":"IFR","rawOb":"SPECI SBSJ 210830Z 12002KT 4000 BR FEW015 18/// Q1014","temp":null,"dewp":null,"wdir":120,"wspd":2,"visib":2.49,"altim":1014,"clouds":[{"cover":"FEW","base":1500}],"obsTime":1774081800},"SBES":{"icaoId":"SBES","flightCategory":"VFR","rawOb":"METAR SBES 210900Z 00000KT 9999 FEW015 SCT023 19/// Q1010","temp":null,"dewp":null,"wdir":0,"wspd":0,"visib":"6+","altim":1010,"clouds":[{"cover":"FEW","base":1500},{"cover":"SCT","base":2300}],"obsTime":1774083600},"SBOI":{"icaoId":"SBOI","flightCategory":"IFR","rawOb":"METAR SBOI 210800Z AUTO VRB01KT 7000 // FEW003/// OVC005/// 23/23 Q1009","temp":23,"dewp":23,"wdir":"VRB","wspd":1,"visib":4.35,"altim":1009,"clouds":[{"cover":"FEW","base":300},{"cover":"OVC","base":500}],"obsTime":1774080000},"SBSC":{"icaoId":"SBSC","flightCategory":"MVFR","rawOb":"METAR SBSC 210800Z 02001KT 6000 SCT006 BKN012 22/22 Q1010","temp":22,"dewp":22,"wdir":20,"wspd":1,"visib":3.73,"altim":1010,"clouds":[{"cover":"SCT","base":600},{"cover":"BKN","base":1200}],"obsTime":1774080000},"SBIP":{"icaoId":"SBIP","flightCategory":"MVFR","rawOb":"METAR SBIP 210800Z AUTO VRB02KT 9999 -RA BKN014 23/23 Q1010","temp":23,"dewp":23,"wdir":"VRB","wspd":2,"visib":"6+","altim":1010,"clouds":[{"cover":"BKN","base":1400}],"obsTime":1774080000},"SBPS":{"icaoId":"SBPS","flightCategory":"VFR","rawOb":"METAR SBPS 210800Z 32003KT 9999 SCT018 24/23 Q1010","temp":24,"dewp":23,"wdir":320,"wspd":3,"visib":"6+","altim":1010,"clouds":[{"cover":"SCT","base":1800}],"obsTime":1774080000},"SBKG":{"icaoId":"SBKG","flightCategory":"VFR","rawOb":"METAR SBKG 210800Z 08006KT 9999 SCT010 23/22 Q1012","temp":23,"dewp":22,"wdir":80,"wspd":6,"visib":"6+","altim":1012,"clouds":[{"cover":"SCT","base":1000}],"obsTime":1774080000},"SBAR":{"icaoId":"SBAR","flightCategory":"VFR","rawOb":"METAR SBAR 210800Z 03007KT 9999 SCT020 27/23 Q1009","temp":27,"dewp":23,"wdir":30,"wspd":7,"visib":"6+","altim":1009,"clouds":[{"cover":"SCT","base":2000}],"obsTime":1774080000},"SBAN":{"icaoId":"SBAN","flightCategory":"LIFR","rawOb":"METAR SBAN 210800Z 11005KT 9999 BKN002 SCT100 18/18 Q1017","temp":18,"dewp":18,"wdir":110,"wspd":5,"visib":"6+","altim":1017,"clouds":[{"cover":"BKN","base":200},{"cover":"SCT","base":10000}],"obsTime":1774080000},"SBMT":{"icaoId":"SBMT","flightCategory":"MVFR","rawOb":"METAR SBMT 210900Z 10005KT 6000 BKN010 19/18 Q1014","temp":19,"dewp":18,"wdir":100,"wspd":5,"visib":3.73,"altim":1014,"clouds":[{"cover":"BKN","base":1000}],"obsTime":1774083600},"SBTA":{"icaoId":"SBTA","flightCategory":"IFR","rawOb":"METAR SBTA 210900Z 00000KT 9999 BKN009 19/19 Q1013","temp":19,"dewp":19,"wdir":0,"wspd":0,"visib":"6+","altim":1013,"clouds":[{"cover":"BKN","base":900}],"obsTime":1774083600},"SBTC":{"icaoId":"SBTC","flightCategory":"VFR","rawOb":"METAR SBTC 210900Z 32002KT 9999 SCT020 23/22 Q1011","temp":23,"dewp":22,"wdir":320,"wspd":2,"visib":"6+","altim":1011,"clouds":[{"cover":"SCT","base":2000}],"obsTime":1774083600},"SBGW":{"icaoId":"SBGW","flightCategory":"IFR","rawOb":"METAR SBGW 210900Z VRB01KT 4000 HZ BKN009 20/17 Q1013","temp":20,"dewp":17,"wdir":"VRB","wspd":1,"visib":2.49,"altim":1013,"clouds":[{"cover":"BKN","base":900}],"obsTime":1774083600},"SBJP":{"icaoId":"SBJP","flightCategory":"VFR","rawOb":"METAR SBJP 210800Z 18004KT 9999 SCT020 BKN070 25/24 Q1010","temp":25,"dewp":24,"wdir":180,"wspd":4,"visib":"6+","altim":1010,"clouds":[{"cover":"SCT","base":2000},{"cover":"BKN","base":7000}],"obsTime":1774080000},"SBJV":{"icaoId":"SBJV","flightCategory":"MVFR","rawOb":"METAR SBJV 210900Z 28002KT 9999 BKN020 23/23 Q1010","temp":23,"dewp":23,"wdir":280,"wspd":2,"visib":"6+","altim":1010,"clouds":[{"cover":"BKN","base":2000}],"obsTime":1774083600},"SBLE":{"icaoId":"SBLE","flightCategory":"VFR","rawOb":"METAR SBLE 210800Z AUTO VRB02KT 9999 BKN036 ///// Q////","temp":null,"dewp":null,"wdir":"VRB","wspd":2,"visib":"6+","altim":null,"clouds":[{"cover":"BKN","base":3600}],"obsTime":1774080000},"SBLS":{"icaoId":"SBLS","flightCategory":"LIFR","rawOb":"METAR SBLS 210900Z 02003KT 3000 BR BKN003 OVC070 20/20 Q1014","temp":20,"dewp":20,"wdir":20,"wspd":3,"visib":1.86,"altim":1014,"clouds":[{"cover":"BKN","base":300},{"cover":"OVC","base":7000}],"obsTime":1774083600}}}