{"updated":1778715910,"count":72,"data":{"SBRF":{"icaoId":"SBRF","flightCategory":"VFR","rawOb":"METAR SBRF 132200Z 18006KT 9999 VCSH FEW023 SCT100 26/22 Q1014","temp":26,"dewp":22,"wdir":180,"wspd":6,"visib":"6+","altim":1014,"clouds":[{"cover":"FEW","base":2300},{"cover":"SCT","base":10000}],"obsTime":1778709600},"SBBE":{"icaoId":"SBBE","flightCategory":"VFR","rawOb":"METAR SBBE 132200Z 30002KT 9999 SCT020 BKN100 27/24 Q1013","temp":27,"dewp":24,"wdir":300,"wspd":2,"visib":"6+","altim":1013,"clouds":[{"cover":"SCT","base":2000},{"cover":"BKN","base":10000}],"obsTime":1778709600},"SBBR":{"icaoId":"SBBR","flightCategory":"VFR","rawOb":"METAR SBBR 132200Z 09005KT 9999 FEW045 24/16 Q1020","temp":24,"dewp":16,"wdir":90,"wspd":5,"visib":"6+","altim":1020,"clouds":[{"cover":"FEW","base":4500}],"obsTime":1778709600},"SBBV":{"icaoId":"SBBV","flightCategory":"VFR","rawOb":"METAR SBBV 132200Z 17006KT 9999 FEW035 FEW040TCU SCT100 28/22 Q1012","temp":28,"dewp":22,"wdir":170,"wspd":6,"visib":"6+","altim":1012,"clouds":[{"cover":"FEW","base":3500},{"cover":"FEW","base":4000},{"cover":"SCT","base":10000}],"obsTime":1778709600},"SBCF":{"icaoId":"SBCF","flightCategory":"VFR","rawOb":"METAR SBCF 132200Z 10009KT 9999 FEW040 SCT090 21/18 Q1020","temp":21,"dewp":18,"wdir":100,"wspd":9,"visib":"6+","altim":1020,"clouds":[{"cover":"FEW","base":4000},{"cover":"SCT","base":9000}],"obsTime":1778709600},"SBCG":{"icaoId":"SBCG","flightCategory":"VFR","rawOb":"METAR SBCG 132200Z 16002KT CAVOK 20/15 Q1017","temp":20,"dewp":15,"wdir":160,"wspd":2,"visib":"6+","altim":1017,"clouds":[],"obsTime":1778709600},"SBCT":{"icaoId":"SBCT","flightCategory":"VFR","rawOb":"METAR SBCT 132200Z 06003KT CAVOK 15/08 Q1019","temp":15,"dewp":8,"wdir":60,"wspd":3,"visib":"6+","altim":1019,"clouds":[],"obsTime":1778709600},"SBCZ":{"icaoId":"SBCZ","flightCategory":"MVFR","rawOb":"METAR SBCZ 132200Z 15003KT 9999 BKN030 28/22 Q1013","temp":28,"dewp":22,"wdir":150,"wspd":3,"visib":"6+","altim":1013,"clouds":[{"cover":"BKN","base":3000}],"obsTime":1778709600},"SBEG":{"icaoId":"SBEG","flightCategory":"VFR","rawOb":"METAR SBEG 132200Z 28003KT 9999 VCSH SCT020 FEW025TCU 27/24 Q1012","temp":27,"dewp":24,"wdir":280,"wspd":3,"visib":"6+","altim":1012,"clouds":[{"cover":"SCT","base":2000},{"cover":"FEW","base":2500}],"obsTime":1778709600},"SBFI":{"icaoId":"SBFI","flightCategory":"VFR","rawOb":"METAR SBFI 132200Z 00000KT CAVOK 16/15 Q1016","temp":16,"dewp":15,"wdir":0,"wspd":0,"visib":"6+","altim":1016,"clouds":[],"obsTime":1778709600},"SBFL":{"icaoId":"SBFL","flightCategory":"VFR","rawOb":"METAR SBFL 132200Z VRB02KT CAVOK 17/14 Q1017","temp":17,"dewp":14,"wdir":"VRB","wspd":2,"visib":"6+","altim":1017,"clouds":[],"obsTime":1778709600},"SBFZ":{"icaoId":"SBFZ","flightCategory":"VFR","rawOb":"METAR SBFZ 132200Z 20004KT 9999 FEW023 27/24 Q1013","temp":27,"dewp":24,"wdir":200,"wspd":4,"visib":"6+","altim":1013,"clouds":[{"cover":"FEW","base":2300}],"obsTime":1778709600},"SBGL":{"icaoId":"SBGL","flightCategory":"VFR","rawOb":"METAR SBGL 132200Z 30003KT CAVOK 23/18 Q1016","temp":23,"dewp":18,"wdir":300,"wspd":3,"visib":"6+","altim":1016,"clouds":[],"obsTime":1778709600},"SBGO":{"icaoId":"SBGO","flightCategory":"VFR","rawOb":"METAR SBGO 132200Z 27004KT CAVOK 27/17 Q1018","temp":27,"dewp":17,"wdir":270,"wspd":4,"visib":"6+","altim":1018,"clouds":[],"obsTime":1778709600},"SBGR":{"icaoId":"SBGR","flightCategory":"VFR","rawOb":"METAR SBGR 132200Z 19003KT CAVOK 20/14 Q1019","temp":20,"dewp":14,"wdir":190,"wspd":3,"visib":"6+","altim":1019,"clouds":[],"obsTime":1778709600},"SBIL":{"icaoId":"SBIL","flightCategory":"VFR","rawOb":"METAR SBIL 132200Z 27002KT CAVOK 25/24 Q1017","temp":25,"dewp":24,"wdir":270,"wspd":2,"visib":"6+","altim":1017,"clouds":[],"obsTime":1778709600},"SBJU":{"icaoId":"SBJU","flightCategory":"VFR","rawOb":"METAR SBJU 132200Z 00000KT 9999 FEW021 27/21 Q1016","temp":27,"dewp":21,"wdir":0,"wspd":0,"visib":"6+","altim":1016,"clouds":[{"cover":"FEW","base":2100}],"obsTime":1778709600},"SBKP":{"icaoId":"SBKP","flightCategory":"VFR","rawOb":"METAR SBKP 132200Z 19004KT 120V210 CAVOK 22/10 Q1019","temp":22,"dewp":10,"wdir":190,"wspd":4,"visib":"6+","altim":1019,"clouds":[],"obsTime":1778709600},"SBLO":{"icaoId":"SBLO","flightCategory":"VFR","rawOb":"METAR SBLO 132200Z 01004KT CAVOK 18/10 Q1018","temp":18,"dewp":10,"wdir":10,"wspd":4,"visib":"6+","altim":1018,"clouds":[],"obsTime":1778709600},"SBMA":{"icaoId":"SBMA","flightCategory":"VFR","rawOb":"METAR SBMA 132200Z 28003KT 9999 FEW018 BKN070 24/23 Q1013","temp":24,"dewp":23,"wdir":280,"wspd":3,"visib":"6+","altim":1013,"clouds":[{"cover":"FEW","base":1800},{"cover":"BKN","base":7000}],"obsTime":1778709600},"SBME":{"icaoId":"SBME","flightCategory":"VFR","rawOb":"METAR SBME 132200Z 05007KT CAVOK 25/20 Q1015","temp":25,"dewp":20,"wdir":50,"wspd":7,"visib":"6+","altim":1015,"clouds":[],"obsTime":1778709600},"SBMG":{"icaoId":"SBMG","flightCategory":"VFR","rawOb":"METAR SBMG 132200Z 07002KT CAVOK 18/11 Q1017","temp":18,"dewp":11,"wdir":70,"wspd":2,"visib":"6+","altim":1017,"clouds":[],"obsTime":1778709600},"SBMK":{"icaoId":"SBMK","flightCategory":"VFR","rawOb":"METAR SBMK 132200Z 07008KT CAVOK 24/17 Q1019","temp":24,"dewp":17,"wdir":70,"wspd":8,"visib":"6+","altim":1019,"clouds":[],"obsTime":1778709600},"SBMO":{"icaoId":"SBMO","flightCategory":"VFR","rawOb":"METAR SBMO 132200Z 09004KT 9999 FEW023 24/23 Q1015","temp":24,"dewp":23,"wdir":90,"wspd":4,"visib":"6+","altim":1015,"clouds":[{"cover":"FEW","base":2300}],"obsTime":1778709600},"SBMQ":{"icaoId":"SBMQ","flightCategory":"IFR","rawOb":"METAR SBMQ 132200Z 12001KT 9999 BKN008 SCT013 25/25 Q1012","temp":25,"dewp":25,"wdir":120,"wspd":1,"visib":"6+","altim":1012,"clouds":[{"cover":"BKN","base":800},{"cover":"SCT","base":1300}],"obsTime":1778709600},"SBNT":{"icaoId":"SBNT","flightCategory":"VFR","rawOb":"METAR SBNT 132200Z 15006KT 9999 FEW025 25/23 Q1013","temp":25,"dewp":23,"wdir":150,"wspd":6,"visib":"6+","altim":1013,"clouds":[{"cover":"FEW","base":2500}],"obsTime":1778709600},"SBPA":{"icaoId":"SBPA","flightCategory":"VFR","rawOb":"METAR SBPA 132200Z 23003KT CAVOK 14/11 Q1016","temp":14,"dewp":11,"wdir":230,"wspd":3,"visib":"6+","altim":1016,"clouds":[],"obsTime":1778709600},"SBPJ":{"icaoId":"SBPJ","flightCategory":"VFR","rawOb":"METAR SBPJ 132200Z 00000KT 9999 FEW035 29/23 Q1013","temp":29,"dewp":23,"wdir":0,"wspd":0,"visib":"6+","altim":1013,"clouds":[{"cover":"FEW","base":3500}],"obsTime":1778709600},"SBPV":{"icaoId":"SBPV","flightCategory":"VFR","rawOb":"METAR SBPV 132200Z 19002KT 9999 BKN047 26/21 Q1013","temp":26,"dewp":21,"wdir":190,"wspd":2,"visib":"6+","altim":1013,"clouds":[{"cover":"BKN","base":4700}],"obsTime":1778709600},"SBRB":{"icaoId":"SBRB","flightCategory":"VFR","rawOb":"METAR SBRB 132200Z 32003KT CAVOK 25/21 Q1014","temp":25,"dewp":21,"wdir":320,"wspd":3,"visib":"6+","altim":1014,"clouds":[],"obsTime":1778709600},"SBSG":{"icaoId":"SBSG","flightCategory":"VFR","rawOb":"METAR SBSG 132200Z 15004KT 9999 FEW025 25/23 Q1014","temp":25,"dewp":23,"wdir":150,"wspd":4,"visib":"6+","altim":1014,"clouds":[{"cover":"FEW","base":2500}],"obsTime":1778709600},"SBSL":{"icaoId":"SBSL","flightCategory":"VFR","rawOb":"METAR SBSL 132200Z 15002KT 9999 SCT020 BKN080 24/24 Q1013","temp":24,"dewp":24,"wdir":150,"wspd":2,"visib":"6+","altim":1013,"clouds":[{"cover":"SCT","base":2000},{"cover":"BKN","base":8000}],"obsTime":1778709600},"SBSN":{"icaoId":"SBSN","flightCategory":"MVFR","rawOb":"METAR SBSN 132200Z 01002KT 7000 -RA FEW013 FEW025TCU OVC070 24/24 Q1013 RERA","temp":24,"dewp":24,"wdir":10,"wspd":2,"visib":4.35,"altim":1013,"clouds":[{"cover":"FEW","base":1300},{"cover":"FEW","base":2500},{"cover":"OVC","base":7000}],"obsTime":1778709600},"SBSP":{"icaoId":"SBSP","flightCategory":"VFR","rawOb":"METAR SBSP 132200Z 15005KT CAVOK 17/12 Q1020","temp":17,"dewp":12,"wdir":150,"wspd":5,"visib":"6+","altim":1020,"clouds":[],"obsTime":1778709600},"SBSV":{"icaoId":"SBSV","flightCategory":"VFR","rawOb":"METAR SBSV 132200Z 12006KT 090V170 9999 SCT024 27/22 Q1016","temp":27,"dewp":22,"wdir":120,"wspd":6,"visib":"6+","altim":1016,"clouds":[{"cover":"SCT","base":2400}],"obsTime":1778709600},"SBTE":{"icaoId":"SBTE","flightCategory":"VFR","rawOb":"METAR SBTE 132200Z 06005KT 9999 SCT020 BKN080 27/23 Q1012","temp":27,"dewp":23,"wdir":60,"wspd":5,"visib":"6+","altim":1012,"clouds":[{"cover":"SCT","base":2000},{"cover":"BKN","base":8000}],"obsTime":1778709600},"SBUL":{"icaoId":"SBUL","flightCategory":"VFR","rawOb":"METAR SBUL 132200Z 22011KT 9999 SCT048 23/17 Q1020","temp":23,"dewp":17,"wdir":220,"wspd":11,"visib":"6+","altim":1020,"clouds":[{"cover":"SCT","base":4800}],"obsTime":1778709600},"SBUR":{"icaoId":"SBUR","flightCategory":"VFR","rawOb":"METAR SBUR 132200Z 19004KT CAVOK 24/14 Q1019","temp":24,"dewp":14,"wdir":190,"wspd":4,"visib":"6+","altim":1019,"clouds":[],"obsTime":1778709600},"SBVT":{"icaoId":"SBVT","flightCategory":"VFR","rawOb":"METAR SBVT 132200Z 03008KT CAVOK 24/21 Q1017","temp":24,"dewp":21,"wdir":30,"wspd":8,"visib":"6+","altim":1017,"clouds":[],"obsTime":1778709600},"SBCP":{"icaoId":"SBCP","flightCategory":"VFR","rawOb":"METAR SBCP 132200Z 11004KT CAVOK 22/21 Q1016","temp":22,"dewp":21,"wdir":110,"wspd":4,"visib":"6+","altim":1016,"clouds":[],"obsTime":1778709600},"SBTT":{"icaoId":"SBTT","flightCategory":"MVFR","rawOb":"METAR SBTT 132200Z 20003KT 9999 FEW011 OVC015 22/20 Q1015","temp":22,"dewp":20,"wdir":200,"wspd":3,"visib":"6+","altim":1015,"clouds":[{"cover":"FEW","base":1100},{"cover":"OVC","base":1500}],"obsTime":1778709600},"SBAR":{"icaoId":"SBAR","flightCategory":"VFR","rawOb":"METAR SBAR 132200Z 13006KT CAVOK 27/22 Q1015","temp":27,"dewp":22,"wdir":130,"wspd":6,"visib":"6+","altim":1015,"clouds":[],"obsTime":1778709600},"SBAX":{"icaoId":"SBAX","flightCategory":"VFR","rawOb":"METAR SBAX 132200Z 06004KT 9999 SCT030 23/16 Q1020","temp":23,"dewp":16,"wdir":60,"wspd":4,"visib":"6+","altim":1020,"clouds":[{"cover":"SCT","base":3000}],"obsTime":1778709600},"SBBH":{"icaoId":"SBBH","flightCategory":"VFR","rawOb":"METAR SBBH 132200Z 12010KT 9999 BKN035 22/18 Q1020","temp":22,"dewp":18,"wdir":120,"wspd":10,"visib":"6+","altim":1020,"clouds":[{"cover":"BKN","base":3500}],"obsTime":1778709600},"SBBU":{"icaoId":"SBBU","flightCategory":"VFR","rawOb":"METAR SBBU 132200Z 25003KT CAVOK 23/10 Q1018","temp":23,"dewp":10,"wdir":250,"wspd":3,"visib":"6+","altim":1018,"clouds":[],"obsTime":1778709600},"SBCA":{"icaoId":"SBCA","flightCategory":"VFR","rawOb":"METAR SBCA 132200Z 35003KT CAVOK 17/08 Q1018","temp":17,"dewp":8,"wdir":350,"wspd":3,"visib":"6+","altim":1018,"clouds":[],"obsTime":1778709600},"SBCO":{"icaoId":"SBCO","flightCategory":"VFR","rawOb":"METAR SBCO 132200Z VRB01KT CAVOK 12/10 Q1017","temp":12,"dewp":10,"wdir":"VRB","wspd":1,"visib":"6+","altim":1017,"clouds":[],"obsTime":1778709600},"SBDN":{"icaoId":"SBDN","flightCategory":"VFR","rawOb":"METAR SBDN 132200Z 15004KT CAVOK 20/11 Q1017","temp":20,"dewp":11,"wdir":150,"wspd":4,"visib":"6+","altim":1017,"clouds":[],"obsTime":1778709600},"SBIP":{"icaoId":"SBIP","flightCategory":"VFR","rawOb":"METAR SBIP 132200Z AUTO 00000KT CAVOK 21/19 Q1018","temp":21,"dewp":19,"wdir":0,"wspd":0,"visib":"6+","altim":1018,"clouds":[],"obsTime":1778709600},"SBKG":{"icaoId":"SBKG","flightCategory":"VFR","rawOb":"METAR SBKG 132200Z 09004KT CAVOK 23/21 Q1017","temp":23,"dewp":21,"wdir":90,"wspd":4,"visib":"6+","altim":1017,"clouds":[],"obsTime":1778709600},"SBOI":{"icaoId":"SBOI","flightCategory":"MVFR","rawOb":"METAR SBOI 132200Z AUTO 14005KT 090V200 9999 BKN019 25/24 Q1013","temp":25,"dewp":24,"wdir":140,"wspd":5,"visib":"6+","altim":1013,"clouds":[{"cover":"BKN","base":1900}],"obsTime":1778709600},"SBPL":{"icaoId":"SBPL","flightCategory":"VFR","rawOb":"METAR SBPL 132200Z 14008KT CAVOK 29/16 Q1015","temp":29,"dewp":16,"wdir":140,"wspd":8,"visib":"6+","altim":1015,"clouds":[],"obsTime":1778709600},"SBPS":{"icaoId":"SBPS","flightCategory":"VFR","rawOb":"METAR SBPS 132200Z 17002KT 9999 SCT025 SCT050 25/22 Q1017","temp":25,"dewp":22,"wdir":170,"wspd":2,"visib":"6+","altim":1017,"clouds":[{"cover":"SCT","base":2500},{"cover":"SCT","base":5000}],"obsTime":1778709600},"SBSC":{"icaoId":"SBSC","flightCategory":"VFR","rawOb":"METAR SBSC 132200Z 20004KT CAVOK 21/18 Q1017","temp":21,"dewp":18,"wdir":200,"wspd":4,"visib":"6+","altim":1017,"clouds":[],"obsTime":1778709600},"SBSJ":{"icaoId":"SBSJ","flightCategory":"VFR","rawOb":"METAR SBSJ 132200Z 20001KT CAVOK 19/15 Q1018","temp":19,"dewp":15,"wdir":200,"wspd":1,"visib":"6+","altim":1018,"clouds":[],"obsTime":1778709600},"SBSM":{"icaoId":"SBSM","flightCategory":"VFR","rawOb":"METAR SBSM 132200Z 00000KT CAVOK 12/10 Q1017","temp":12,"dewp":10,"wdir":0,"wspd":0,"visib":"6+","altim":1017,"clouds":[],"obsTime":1778709600},"SBSR":{"icaoId":"SBSR","flightCategory":"VFR","rawOb":"METAR SBSR 132200Z 21004KT 9999 FEW035 SCT070 24/07 Q1018","temp":24,"dewp":7,"wdir":210,"wspd":4,"visib":"6+","altim":1018,"clouds":[{"cover":"FEW","base":3500},{"cover":"SCT","base":7000}],"obsTime":1778709600},"SBTU":{"icaoId":"SBTU","flightCategory":"VFR","rawOb":"METAR SBTU 132200Z AUTO 14005KT 9999 // ///////// ///// Q1016","temp":null,"dewp":null,"wdir":140,"wspd":5,"visib":"6+","altim":1016,"clouds":[],"obsTime":1778709600},"SBUY":{"icaoId":"SBUY","flightCategory":"VFR","rawOb":"METAR SBUY 132200Z 12002KT 9999 FEW030 SCT100 27/23 Q1012","temp":27,"dewp":23,"wdir":120,"wspd":2,"visib":"6+","altim":1012,"clouds":[{"cover":"FEW","base":3000},{"cover":"SCT","base":10000}],"obsTime":1778709600},"SBVH":{"icaoId":"SBVH","flightCategory":"VFR","rawOb":"METAR SBVH 132200Z 22007KT 9999 SCT020 BKN035 24/21 Q1016","temp":24,"dewp":21,"wdir":220,"wspd":7,"visib":"6+","altim":1016,"clouds":[{"cover":"SCT","base":2000},{"cover":"BKN","base":3500}],"obsTime":1778709600},"SBTF":{"icaoId":"SBTF","flightCategory":"VFR","rawOb":"METAR SBTF 132200Z 21002KT 9999 FEW012 SCT100 26/25 Q1012","temp":26,"dewp":25,"wdir":210,"wspd":2,"visib":"6+","altim":1012,"clouds":[{"cover":"FEW","base":1200},{"cover":"SCT","base":10000}],"obsTime":1778709600},"SBNM":{"icaoId":"SBNM","flightCategory":"VFR","rawOb":"METAR SBNM 132200Z 20004KT CAVOK 17/08 Q1016","temp":17,"dewp":8,"wdir":200,"wspd":4,"visib":"6+","altim":1016,"clouds":[],"obsTime":1778709600},"SBJP":{"icaoId":"SBJP","flightCategory":"VFR","rawOb":"METAR SBJP 132200Z 13011KT CAVOK 25/23 Q1015","temp":25,"dewp":23,"wdir":130,"wspd":11,"visib":"6+","altim":1015,"clouds":[],"obsTime":1778709600},"SBLS":{"icaoId":"SBLS","flightCategory":"VFR","rawOb":"METAR SBLS 132200Z 12007KT 9999 FEW040 21/18 Q1019","temp":21,"dewp":18,"wdir":120,"wspd":7,"visib":"6+","altim":1019,"clouds":[{"cover":"FEW","base":4000}],"obsTime":1778709600},"SBAN":{"icaoId":"SBAN","flightCategory":"VFR","rawOb":"METAR SBAN 132200Z 00000KT 9999 FEW040 20/16 Q1021","temp":20,"dewp":16,"wdir":0,"wspd":0,"visib":"6+","altim":1021,"clouds":[{"cover":"FEW","base":4000}],"obsTime":1778709600},"SBAF":{"icaoId":"SBAF","flightCategory":"VFR","rawOb":"METAR SBAF 132200Z 22006KT CAVOK 22/21 Q1017","temp":22,"dewp":21,"wdir":220,"wspd":6,"visib":"6+","altim":1017,"clouds":[],"obsTime":1778709600},"SBJR":{"icaoId":"SBJR","flightCategory":"VFR","rawOb":"METAR SBJR 132200Z 23002KT CAVOK 21/19 Q1017","temp":21,"dewp":19,"wdir":230,"wspd":2,"visib":"6+","altim":1017,"clouds":[],"obsTime":1778709600},"SBMT":{"icaoId":"SBMT","flightCategory":"VFR","rawOb":"METAR SBMT 132200Z 16004KT CAVOK 19/12 Q1019","temp":19,"dewp":12,"wdir":160,"wspd":4,"visib":"6+","altim":1019,"clouds":[],"obsTime":1778709600},"SBTA":{"icaoId":"SBTA","flightCategory":"VFR","rawOb":"METAR SBTA 132200Z VRB01KT CAVOK 18/16 Q1018","temp":18,"dewp":16,"wdir":"VRB","wspd":1,"visib":"6+","altim":1018,"clouds":[],"obsTime":1778709600},"SBLE":{"icaoId":"SBLE","flightCategory":"VFR","rawOb":"METAR SBLE 132200Z AUTO 06004KT CAVOK 24/21 Q1018","temp":24,"dewp":21,"wdir":60,"wspd":4,"visib":"6+","altim":1018,"clouds":[],"obsTime":1778709600},"SBJV":{"icaoId":"SBJV","flightCategory":"VFR","rawOb":"METAR SBJV 132200Z 17001KT CAVOK 15/14 Q1017","temp":15,"dewp":14,"wdir":170,"wspd":1,"visib":"6+","altim":1017,"clouds":[],"obsTime":1778709600},"SBGW":{"icaoId":"SBGW","flightCategory":"VFR","rawOb":"METAR SBGW 132200Z 18003KT 9999 FEW030 19/13 Q1018","temp":19,"dewp":13,"wdir":180,"wspd":3,"visib":"6+","altim":1018,"clouds":[{"cover":"FEW","base":3000}],"obsTime":1778709600}}}