{"updated":1779384937,"count":86,"data":{"SBJU":{"icaoId":"SBJU","flightCategory":"VFR","rawOb":"METAR SBJU 211600Z 18005KT 9999 SCT022 32/15 Q1015","temp":32,"dewp":15,"wdir":180,"wspd":5,"visib":"6+","altim":1015,"clouds":[{"cover":"SCT","base":2200}],"obsTime":1779379200},"SBAT":{"icaoId":"SBAT","flightCategory":"MVFR","rawOb":"METAR SBAT 211600Z 22006KT 9999 OVC015 27/24 Q1016","temp":27,"dewp":24,"wdir":220,"wspd":6,"visib":"6+","altim":1016,"clouds":[{"cover":"OVC","base":1500}],"obsTime":1779379200},"SBBE":{"icaoId":"SBBE","flightCategory":"VFR","rawOb":"METAR SBBE 211600Z 15003KT 9999 BKN038 31/24 Q1011","temp":31,"dewp":24,"wdir":150,"wspd":3,"visib":"6+","altim":1011,"clouds":[{"cover":"BKN","base":3800}],"obsTime":1779379200},"SBVT":{"icaoId":"SBVT","flightCategory":"VFR","rawOb":"METAR SBVT 211600Z 16012KT 9999 FEW035 BKN090 26/21 Q1018","temp":26,"dewp":21,"wdir":160,"wspd":12,"visib":"6+","altim":1018,"clouds":[{"cover":"FEW","base":3500},{"cover":"BKN","base":9000}],"obsTime":1779379200},"SBBR":{"icaoId":"SBBR","flightCategory":"VFR","rawOb":"METAR SBBR 211600Z 13007KT 080V180 9999 SCT035 26/16 Q1021","temp":26,"dewp":16,"wdir":130,"wspd":7,"visib":"6+","altim":1021,"clouds":[{"cover":"SCT","base":3500}],"obsTime":1779379200},"SBUR":{"icaoId":"SBUR","flightCategory":"MVFR","rawOb":"METAR SBUR 211600Z 17005KT 9999 BKN030 24/16 Q1021","temp":24,"dewp":16,"wdir":170,"wspd":5,"visib":"6+","altim":1021,"clouds":[{"cover":"BKN","base":3000}],"obsTime":1779379200},"SBUL":{"icaoId":"SBUL","flightCategory":"VFR","rawOb":"METAR SBUL 211600Z 14005KT 9999 SCT030 26/16 Q1022","temp":26,"dewp":16,"wdir":140,"wspd":5,"visib":"6+","altim":1022,"clouds":[{"cover":"SCT","base":3000}],"obsTime":1779379200},"SBBV":{"icaoId":"SBBV","flightCategory":"VFR","rawOb":"METAR SBBV 211600Z 14004KT 9999 SCT030 FEW035TCU 30/23 Q1014","temp":30,"dewp":23,"wdir":140,"wspd":4,"visib":"6+","altim":1014,"clouds":[{"cover":"SCT","base":3000},{"cover":"FEW","base":3500}],"obsTime":1779379200},"SBTE":{"icaoId":"SBTE","flightCategory":"VFR","rawOb":"METAR SBTE 211600Z 15007KT 9999 SCT025 32/22 Q1012","temp":32,"dewp":22,"wdir":150,"wspd":7,"visib":"6+","altim":1012,"clouds":[{"cover":"SCT","base":2500}],"obsTime":1779379200},"SBCB":{"icaoId":"SBCB","flightCategory":"IFR","rawOb":"METAR SBCB 211600Z 20007KT 4000 -DZ FEW006 BKN015 BKN050 20/19 Q1021","temp":20,"dewp":19,"wdir":200,"wspd":7,"visib":2.49,"altim":1021,"clouds":[{"cover":"FEW","base":600},{"cover":"BKN","base":1500},{"cover":"BKN","base":5000}],"obsTime":1779379200},"SBSV":{"icaoId":"SBSV","flightCategory":"MVFR","rawOb":"METAR SBSV 211600Z 14011KT 110V170 9999 BKN023 29/21 Q1015","temp":29,"dewp":21,"wdir":140,"wspd":11,"visib":"6+","altim":1015,"clouds":[{"cover":"BKN","base":2300}],"obsTime":1779379200},"SBCF":{"icaoId":"SBCF","flightCategory":"VFR","rawOb":"METAR SBCF 211600Z 12002KT 9999 BKN040 25/17 Q1022","temp":25,"dewp":17,"wdir":120,"wspd":2,"visib":"6+","altim":1022,"clouds":[{"cover":"BKN","base":4000}],"obsTime":1779379200},"SBCG":{"icaoId":"SBCG","flightCategory":"VFR","rawOb":"METAR SBCG 211600Z 17004KT 080V240 CAVOK 22/12 Q1022","temp":22,"dewp":12,"wdir":170,"wspd":4,"visib":"6+","altim":1022,"clouds":[],"obsTime":1779379200},"SBSP":{"icaoId":"SBSP","flightCategory":"MVFR","rawOb":"METAR SBSP 211600Z 15010KT 9999 OVC011 15/13 Q1025","temp":15,"dewp":13,"wdir":150,"wspd":10,"visib":"6+","altim":1025,"clouds":[{"cover":"OVC","base":1100}],"obsTime":1779379200},"SBSN":{"icaoId":"SBSN","flightCategory":"VFR","rawOb":"METAR SBSN 211600Z 03006KT 330V070 9999 SCT020 FEW040TCU SCT080 30/25 Q1012","temp":30,"dewp":25,"wdir":30,"wspd":6,"visib":"6+","altim":1012,"clouds":[{"cover":"SCT","base":2000},{"cover":"FEW","base":4000},{"cover":"SCT","base":8000}],"obsTime":1779379200},"SBCP":{"icaoId":"SBCP","flightCategory":"MVFR","rawOb":"METAR SBCP 211600Z 22011KT 9999 BKN010 OVC090 23/19 Q1020","temp":23,"dewp":19,"wdir":220,"wspd":11,"visib":"6+","altim":1020,"clouds":[{"cover":"BKN","base":1000},{"cover":"OVC","base":9000}],"obsTime":1779379200},"SBSL":{"icaoId":"SBSL","flightCategory":"VFR","rawOb":"METAR SBSL 211600Z 07006KT 9999 SCT030 31/23 Q1011","temp":31,"dewp":23,"wdir":70,"wspd":6,"visib":"6+","altim":1011,"clouds":[{"cover":"SCT","base":3000}],"obsTime":1779379200},"SBCR":{"icaoId":"SBCR","flightCategory":"VFR","rawOb":"METAR SBCR 211600Z 22008KT 190V270 CAVOK 20/13 Q1022","temp":20,"dewp":13,"wdir":220,"wspd":8,"visib":"6+","altim":1022,"clouds":[],"obsTime":1779379200},"SBSG":{"icaoId":"SBSG","flightCategory":"VFR","rawOb":"METAR SBSG 211600Z 17005KT 130V200 9999 VCSH SCT026 FEW030TCU BKN047 BKN080 27/24 Q1013","temp":27,"dewp":24,"wdir":170,"wspd":5,"visib":"6+","altim":1013,"clouds":[{"cover":"SCT","base":2600},{"cover":"FEW","base":3000},{"cover":"BKN","base":4700},{"cover":"BKN","base":8000}],"obsTime":1779379200},"SBCT":{"icaoId":"SBCT","flightCategory":"VFR","rawOb":"METAR SBCT 211600Z 08009KT 9999 SCT025 16/11 Q1025","temp":16,"dewp":11,"wdir":80,"wspd":9,"visib":"6+","altim":1025,"clouds":[{"cover":"SCT","base":2500}],"obsTime":1779379200},"SBRF":{"icaoId":"SBRF","flightCategory":"VFR","rawOb":"METAR SBRF 211600Z 15013KT 9999 FEW026 29/22 Q1014","temp":29,"dewp":22,"wdir":150,"wspd":13,"visib":"6+","altim":1014,"clouds":[{"cover":"FEW","base":2600}],"obsTime":1779379200},"SBCZ":{"icaoId":"SBCZ","flightCategory":"MVFR","rawOb":"METAR SBCZ 211600Z 10010KT 9999 BKN025 26/20 Q1017","temp":26,"dewp":20,"wdir":100,"wspd":10,"visib":"6+","altim":1017,"clouds":[{"cover":"BKN","base":2500}],"obsTime":1779379200},"SBRB":{"icaoId":"SBRB","flightCategory":"MVFR","rawOb":"METAR SBRB 211600Z 17007KT 9999 BKN025 25/19 Q1018","temp":25,"dewp":19,"wdir":170,"wspd":7,"visib":"6+","altim":1018,"clouds":[{"cover":"BKN","base":2500}],"obsTime":1779379200},"SBKP":{"icaoId":"SBKP","flightCategory":"MVFR","rawOb":"METAR SBKP 211600Z 15011KT 9999 BKN030 21/14 Q1022","temp":21,"dewp":14,"wdir":150,"wspd":11,"visib":"6+","altim":1022,"clouds":[{"cover":"BKN","base":3000}],"obsTime":1779379200},"SBEG":{"icaoId":"SBEG","flightCategory":"MVFR","rawOb":"SPECI SBEG 211537Z 19005KT 5000 -RA BKN014 FEW025TCU 26/25 Q1014","temp":26,"dewp":25,"wdir":190,"wspd":5,"visib":3.11,"altim":1014,"clouds":[{"cover":"BKN","base":1400},{"cover":"FEW","base":2500}],"obsTime":1779377820},"SBPV":{"icaoId":"SBPV","flightCategory":"MVFR","rawOb":"METAR SBPV 211600Z 17010KT 9999 BKN015 24/22 Q1017","temp":24,"dewp":22,"wdir":170,"wspd":10,"visib":"6+","altim":1017,"clouds":[{"cover":"BKN","base":1500}],"obsTime":1779379200},"SBPJ":{"icaoId":"SBPJ","flightCategory":"VFR","rawOb":"METAR SBPJ 211600Z 13008KT 080V160 9999 SCT025 36/15 Q1013","temp":36,"dewp":15,"wdir":130,"wspd":8,"visib":"6+","altim":1013,"clouds":[{"cover":"SCT","base":2500}],"obsTime":1779379200},"SBFI":{"icaoId":"SBFI","flightCategory":"VFR","rawOb":"METAR SBFI 211600Z 15007KT CAVOK 19/09 Q1023","temp":19,"dewp":9,"wdir":150,"wspd":7,"visib":"6+","altim":1023,"clouds":[],"obsTime":1779379200},"SBPA":{"icaoId":"SBPA","flightCategory":"VFR","rawOb":"METAR SBPA 211600Z 27006KT 230V330 9999 SCT040 15/05 Q1027","temp":15,"dewp":5,"wdir":270,"wspd":6,"visib":"6+","altim":1027,"clouds":[{"cover":"SCT","base":4000}],"obsTime":1779379200},"SBFL":{"icaoId":"SBFL","flightCategory":"VFR","rawOb":"METAR SBFL 211600Z 19009KT 150V220 9999 FEW030 19/08 Q1024","temp":19,"dewp":8,"wdir":190,"wspd":9,"visib":"6+","altim":1024,"clouds":[{"cover":"FEW","base":3000}],"obsTime":1779379200},"SBNT":{"icaoId":"SBNT","flightCategory":"VFR","rawOb":"METAR SBNT 211600Z 12013KT 9999 VCSH FEW027 SCT033 BKN042 30/22 Q1013","temp":30,"dewp":22,"wdir":120,"wspd":13,"visib":"6+","altim":1013,"clouds":[{"cover":"FEW","base":2700},{"cover":"SCT","base":3300},{"cover":"BKN","base":4200}],"obsTime":1779379200},"SBMQ":{"icaoId":"SBMQ","flightCategory":"VFR","rawOb":"METAR SBMQ 211600Z 05009KT 9999 SCT025 30/26 Q1012","temp":30,"dewp":26,"wdir":50,"wspd":9,"visib":"6+","altim":1012,"clouds":[{"cover":"SCT","base":2500}],"obsTime":1779379200},"SBFZ":{"icaoId":"SBFZ","flightCategory":"VFR","rawOb":"METAR SBFZ 211600Z 08012KT 9999 SCT030 SCT070 31/22 Q1012","temp":31,"dewp":22,"wdir":80,"wspd":12,"visib":"6+","altim":1012,"clouds":[{"cover":"SCT","base":3000},{"cover":"SCT","base":7000}],"obsTime":1779379200},"SBGL":{"icaoId":"SBGL","flightCategory":"IFR","rawOb":"METAR SBGL 211600Z 11005KT 3500 -RA BR SCT005 BKN010 OVC030 20/19 Q1021","temp":20,"dewp":19,"wdir":110,"wspd":5,"visib":2.17,"altim":1021,"clouds":[{"cover":"SCT","base":500},{"cover":"BKN","base":1000},{"cover":"OVC","base":3000}],"obsTime":1779379200},"SBMO":{"icaoId":"SBMO","flightCategory":"VFR","rawOb":"METAR SBMO 211600Z 13008KT 070V160 9999 FEW035 30/20 Q1014","temp":30,"dewp":20,"wdir":130,"wspd":8,"visib":"6+","altim":1014,"clouds":[{"cover":"FEW","base":3500}],"obsTime":1779379200},"SBGO":{"icaoId":"SBGO","flightCategory":"VFR","rawOb":"METAR SBGO 211600Z 12006KT 070V170 9999 BKN040 29/19 Q1019","temp":29,"dewp":19,"wdir":120,"wspd":6,"visib":"6+","altim":1019,"clouds":[{"cover":"BKN","base":4000}],"obsTime":1779379200},"SBMK":{"icaoId":"SBMK","flightCategory":"VFR","rawOb":"METAR SBMK 211600Z 07008KT 9999 BKN040 28/17 Q1019","temp":28,"dewp":17,"wdir":70,"wspd":8,"visib":"6+","altim":1019,"clouds":[{"cover":"BKN","base":4000}],"obsTime":1779379200},"SBMG":{"icaoId":"SBMG","flightCategory":"VFR","rawOb":"METAR SBMG 211600Z 14007KT 100V170 9999 FEW028 20/15 Q1021","temp":20,"dewp":15,"wdir":140,"wspd":7,"visib":"6+","altim":1021,"clouds":[{"cover":"FEW","base":2800}],"obsTime":1779379200},"SBGR":{"icaoId":"SBGR","flightCategory":"MVFR","rawOb":"METAR SBGR 211600Z 16007KT 9999 BKN013 OVC025 16/14 Q1025","temp":16,"dewp":14,"wdir":160,"wspd":7,"visib":"6+","altim":1025,"clouds":[{"cover":"BKN","base":1300},{"cover":"OVC","base":2500}],"obsTime":1779379200},"SBME":{"icaoId":"SBME","flightCategory":"MVFR","rawOb":"METAR SBME 211600Z 13006KT 9999 BKN025 OVC070 25/18 Q1020","temp":25,"dewp":18,"wdir":130,"wspd":6,"visib":"6+","altim":1020,"clouds":[{"cover":"BKN","base":2500},{"cover":"OVC","base":7000}],"obsTime":1779379200},"SBHT":{"icaoId":"SBHT","flightCategory":"MVFR","rawOb":"METAR SBHT 211600Z 12005KT 9999 BKN025 FEW030TCU BKN100 30/25 Q1012","temp":30,"dewp":25,"wdir":120,"wspd":5,"visib":"6+","altim":1012,"clouds":[{"cover":"BKN","base":2500},{"cover":"FEW","base":3000},{"cover":"BKN","base":10000}],"obsTime":1779379200},"SBMA":{"icaoId":"SBMA","flightCategory":"VFR","rawOb":"METAR SBMA 211600Z 31002KT 9999 SCT020 SCT025TCU 32/24 Q1012","temp":32,"dewp":24,"wdir":310,"wspd":2,"visib":"6+","altim":1012,"clouds":[{"cover":"SCT","base":2000},{"cover":"SCT","base":2500}],"obsTime":1779379200},"SBIL":{"icaoId":"SBIL","flightCategory":"VFR","rawOb":"METAR SBIL 211600Z 17008KT 130V200 9999 SCT020 29/23 Q1017","temp":29,"dewp":23,"wdir":170,"wspd":8,"visib":"6+","altim":1017,"clouds":[{"cover":"SCT","base":2000}],"obsTime":1779379200},"SBLO":{"icaoId":"SBLO","flightCategory":"MVFR","rawOb":"METAR SBLO 211600Z 07006KT 9999 OVC013 18/15 Q1023","temp":18,"dewp":15,"wdir":70,"wspd":6,"visib":"6+","altim":1023,"clouds":[{"cover":"OVC","base":1300}],"obsTime":1779379200},"SBVH":{"icaoId":"SBVH","flightCategory":"MVFR","rawOb":"METAR SBVH 211600Z 16009KT 9999 BKN013 21/18 Q1020","temp":21,"dewp":18,"wdir":160,"wspd":9,"visib":"6+","altim":1020,"clouds":[{"cover":"BKN","base":1300}],"obsTime":1779379200},"SBAU":{"icaoId":"SBAU","flightCategory":"VFR","rawOb":"METAR SBAU 211600Z 10008KT 9999 SCT025 25/17 Q1021","temp":25,"dewp":17,"wdir":100,"wspd":8,"visib":"6+","altim":1021,"clouds":[{"cover":"SCT","base":2500}],"obsTime":1779379200},"SBAX":{"icaoId":"SBAX","flightCategory":"VFR","rawOb":"METAR SBAX 211600Z 11005KT 9999 SCT030 25/09 Q1022","temp":25,"dewp":9,"wdir":110,"wspd":5,"visib":"6+","altim":1022,"clouds":[{"cover":"SCT","base":3000}],"obsTime":1779379200},"SBBH":{"icaoId":"SBBH","flightCategory":"VFR","rawOb":"METAR SBBH 211600Z 09005KT 9999 SCT035 25/18 Q1021","temp":25,"dewp":18,"wdir":90,"wspd":5,"visib":"6+","altim":1021,"clouds":[{"cover":"SCT","base":3500}],"obsTime":1779379200},"SBBQ":{"icaoId":"SBBQ","flightCategory":"MVFR","rawOb":"METAR SBBQ 211600Z 12005KT 070V170 9999 OVC018 19/16 Q1025","temp":19,"dewp":16,"wdir":120,"wspd":5,"visib":"6+","altim":1025,"clouds":[{"cover":"OVC","base":1800}],"obsTime":1779379200},"SBBU":{"icaoId":"SBBU","flightCategory":"VFR","rawOb":"METAR SBBU 211600Z 11010KT 9999 SCT025 23/16 Q1022","temp":23,"dewp":16,"wdir":110,"wspd":10,"visib":"6+","altim":1022,"clouds":[{"cover":"SCT","base":2500}],"obsTime":1779379200},"SBCA":{"icaoId":"SBCA","flightCategory":"VFR","rawOb":"METAR SBCA 211600Z 17004KT 090V230 CAVOK 18/09 Q1024","temp":18,"dewp":9,"wdir":170,"wspd":4,"visib":"6+","altim":1024,"clouds":[],"obsTime":1779379200},"SBCC":{"icaoId":"SBCC","flightCategory":"MVFR","rawOb":"METAR SBCC 211600Z 12008KT 9999 BKN020 FEW025TCU 30/21 Q1016","temp":30,"dewp":21,"wdir":120,"wspd":8,"visib":"6+","altim":1016,"clouds":[{"cover":"BKN","base":2000},{"cover":"FEW","base":2500}],"obsTime":1779379200},"SBCJ":{"icaoId":"SBCJ","flightCategory":"MVFR","rawOb":"METAR SBCJ 211600Z 13004KT 9999 BKN020 28/21 Q1017","temp":28,"dewp":21,"wdir":130,"wspd":4,"visib":"6+","altim":1017,"clouds":[{"cover":"BKN","base":2000}],"obsTime":1779379200},"SBCO":{"icaoId":"SBCO","flightCategory":"VFR","rawOb":"METAR SBCO 211600Z 20004KT 9999 SCT045 15/05 Q1027","temp":15,"dewp":5,"wdir":200,"wspd":4,"visib":"6+","altim":1027,"clouds":[{"cover":"SCT","base":4500}],"obsTime":1779379200},"SBDN":{"icaoId":"SBDN","flightCategory":"MVFR","rawOb":"METAR SBDN 211600Z 15006KT 9999 BKN026 23/16 Q1021","temp":23,"dewp":16,"wdir":150,"wspd":6,"visib":"6+","altim":1021,"clouds":[{"cover":"BKN","base":2600}],"obsTime":1779379200},"SBES":{"icaoId":"SBES","flightCategory":"MVFR","rawOb":"METAR SBES 211600Z VRB10KT 8000 FEW008 SCT015 BKN040 20/// Q1021","temp":null,"dewp":null,"wdir":"VRB","wspd":10,"visib":4.97,"altim":1021,"clouds":[{"cover":"FEW","base":800},{"cover":"SCT","base":1500},{"cover":"BKN","base":4000}],"obsTime":1779379200},"SBGM":{"icaoId":"SBGM","flightCategory":"MVFR","rawOb":"METAR SBGM 211600Z 11012KT 9999 OVC015 22/17 Q1019","temp":22,"dewp":17,"wdir":110,"wspd":12,"visib":"6+","altim":1019,"clouds":[{"cover":"OVC","base":1500}],"obsTime":1779379200},"SBKG":{"icaoId":"SBKG","flightCategory":"MVFR","rawOb":"METAR SBKG 211600Z 15007KT 9999 BKN023 SCT080 27/20 Q1016","temp":27,"dewp":20,"wdir":150,"wspd":7,"visib":"6+","altim":1016,"clouds":[{"cover":"BKN","base":2300},{"cover":"SCT","base":8000}],"obsTime":1779379200},"SBOI":{"icaoId":"SBOI","flightCategory":"VFR","rawOb":"METAR SBOI 211600Z AUTO 09004KT 350V150 9999 FEW041 32/24 Q1013","temp":32,"dewp":24,"wdir":90,"wspd":4,"visib":"6+","altim":1013,"clouds":[{"cover":"FEW","base":4100}],"obsTime":1779379200},"SBPB":{"icaoId":"SBPB","flightCategory":"VFR","rawOb":"METAR SBPB 211600Z 08010KT CAVOK 34/24 Q1011","temp":34,"dewp":24,"wdir":80,"wspd":10,"visib":"6+","altim":1011,"clouds":[],"obsTime":1779379200},"SBPL":{"icaoId":"SBPL","flightCategory":"VFR","rawOb":"METAR SBPL 211600Z 08014KT 9999 SCT035 32/18 Q1015","temp":32,"dewp":18,"wdir":80,"wspd":14,"visib":"6+","altim":1015,"clouds":[{"cover":"SCT","base":3500}],"obsTime":1779379200},"SBPP":{"icaoId":"SBPP","flightCategory":"VFR","rawOb":"METAR SBPP 211600Z 12006KT CAVOK 18/07 Q1023","temp":18,"dewp":7,"wdir":120,"wspd":6,"visib":"6+","altim":1023,"clouds":[],"obsTime":1779379200},"SBPS":{"icaoId":"SBPS","flightCategory":"VFR","rawOb":"METAR SBPS 211600Z 15006KT 080V230 9999 SCT025 28/22 Q1017","temp":28,"dewp":22,"wdir":150,"wspd":6,"visib":"6+","altim":1017,"clouds":[{"cover":"SCT","base":2500}],"obsTime":1779379200},"SBSC":{"icaoId":"SBSC","flightCategory":"IFR","rawOb":"METAR SBSC 211600Z 22005KT 3000 -RA BR SCT005 BKN012 OVC040 19/19 Q1022","temp":19,"dewp":19,"wdir":220,"wspd":5,"visib":1.86,"altim":1022,"clouds":[{"cover":"SCT","base":500},{"cover":"BKN","base":1200},{"cover":"OVC","base":4000}],"obsTime":1779379200},"SBSJ":{"icaoId":"SBSJ","flightCategory":"MVFR","rawOb":"METAR SBSJ 211600Z 21005KT 9999 SCT021 BKN028 19/14 Q1023","temp":19,"dewp":14,"wdir":210,"wspd":5,"visib":"6+","altim":1023,"clouds":[{"cover":"SCT","base":2100},{"cover":"BKN","base":2800}],"obsTime":1779379200},"SBSM":{"icaoId":"SBSM","flightCategory":"MVFR","rawOb":"METAR SBSM 211600Z 13004KT 050V210 9999 BKN030 13/06 Q1028","temp":13,"dewp":6,"wdir":130,"wspd":4,"visib":"6+","altim":1028,"clouds":[{"cover":"BKN","base":3000}],"obsTime":1779379200},"SBSR":{"icaoId":"SBSR","flightCategory":"MVFR","rawOb":"METAR SBSR 211600Z 18005KT 9999 BKN020 24/16 Q1021","temp":24,"dewp":16,"wdir":180,"wspd":5,"visib":"6+","altim":1021,"clouds":[{"cover":"BKN","base":2000}],"obsTime":1779379200},"SBTF":{"icaoId":"SBTF","flightCategory":"VFR","rawOb":"METAR SBTF 211600Z 19006KT 9999 SCT013 BKN090 27/23 Q1015","temp":27,"dewp":23,"wdir":190,"wspd":6,"visib":"6+","altim":1015,"clouds":[{"cover":"SCT","base":1300},{"cover":"BKN","base":9000}],"obsTime":1779379200},"SBTT":{"icaoId":"SBTT","flightCategory":"MVFR","rawOb":"METAR SBTT 211600Z 20007KT 9999 BKN013 OVC025 23/20 Q1016","temp":23,"dewp":20,"wdir":200,"wspd":7,"visib":"6+","altim":1016,"clouds":[{"cover":"BKN","base":1300},{"cover":"OVC","base":2500}],"obsTime":1779379200},"SBTU":{"icaoId":"SBTU","flightCategory":"VFR","rawOb":"METAR SBTU 211600Z AUTO 27005KT 220V310 9999 // FEW020/// SCT024/// 29/25 Q1014","temp":29,"dewp":25,"wdir":270,"wspd":5,"visib":"6+","altim":1014,"clouds":[{"cover":"FEW","base":2000},{"cover":"SCT","base":2400}],"obsTime":1779379200},"SBUY":{"icaoId":"SBUY","flightCategory":"MVFR","rawOb":"METAR SBUY 211600Z 18005KT 9999 BKN020 25/22 Q1014","temp":25,"dewp":22,"wdir":180,"wspd":5,"visib":"6+","altim":1014,"clouds":[{"cover":"BKN","base":2000}],"obsTime":1779379200},"SBAR":{"icaoId":"SBAR","flightCategory":"MVFR","rawOb":"METAR SBAR 211600Z 12012KT 7000 2500W -RA SCT006 BKN010 OVC025 25/23 Q1015","temp":25,"dewp":23,"wdir":120,"wspd":12,"visib":4.35,"altim":1015,"clouds":[{"cover":"SCT","base":600},{"cover":"BKN","base":1000},{"cover":"OVC","base":2500}],"obsTime":1779379200},"SBTD":{"icaoId":"SBTD","flightCategory":"VFR","rawOb":"METAR SBTD 211600Z /////KT CAVOK 23/08 Q1022","temp":23,"dewp":8,"wdir":null,"wspd":null,"visib":"6+","altim":1022,"clouds":[],"obsTime":1779379200},"SBAN":{"icaoId":"SBAN","flightCategory":"VFR","rawOb":"METAR SBAN 211600Z 18008KT 9999 BKN035 26/17 Q1022","temp":26,"dewp":17,"wdir":180,"wspd":8,"visib":"6+","altim":1022,"clouds":[{"cover":"BKN","base":3500}],"obsTime":1779379200},"SBGW":{"icaoId":"SBGW","flightCategory":"VFR","rawOb":"METAR SBGW 211600Z 18004KT 110V250 9999 SCT030 23/14 Q1022","temp":23,"dewp":14,"wdir":180,"wspd":4,"visib":"6+","altim":1022,"clouds":[{"cover":"SCT","base":3000}],"obsTime":1779379200},"SBJR":{"icaoId":"SBJR","flightCategory":"MVFR","rawOb":"METAR SBJR 211600Z 28002KT 7000 FEW008 BKN015 OVC030 21/20 Q1022","temp":21,"dewp":20,"wdir":280,"wspd":2,"visib":4.35,"altim":1022,"clouds":[{"cover":"FEW","base":800},{"cover":"BKN","base":1500},{"cover":"OVC","base":3000}],"obsTime":1779379200},"SBJV":{"icaoId":"SBJV","flightCategory":"VFR","rawOb":"METAR SBJV 211600Z 10005KT 9999 BKN040 18/11 Q1025","temp":18,"dewp":11,"wdir":100,"wspd":5,"visib":"6+","altim":1025,"clouds":[{"cover":"BKN","base":4000}],"obsTime":1779379200},"SBLS":{"icaoId":"SBLS","flightCategory":"VFR","rawOb":"METAR SBLS 211600Z 19004KT 9999 SCT030 25/17 Q1021","temp":25,"dewp":17,"wdir":190,"wspd":4,"visib":"6+","altim":1021,"clouds":[{"cover":"SCT","base":3000}],"obsTime":1779379200},"SBNM":{"icaoId":"SBNM","flightCategory":"VFR","rawOb":"METAR SBNM 211600Z 16004KT 9999 SCT010 17/04 Q1026","temp":17,"dewp":4,"wdir":160,"wspd":4,"visib":"6+","altim":1026,"clouds":[{"cover":"SCT","base":1000}],"obsTime":1779379200},"SBMT":{"icaoId":"SBMT","flightCategory":"MVFR","rawOb":"METAR SBMT 211600Z 13009KT 090V180 9999 BKN017 BKN019 16/13 Q1024","temp":16,"dewp":13,"wdir":130,"wspd":9,"visib":"6+","altim":1024,"clouds":[{"cover":"BKN","base":1700},{"cover":"BKN","base":1900}],"obsTime":1779379200},"SBJP":{"icaoId":"SBJP","flightCategory":"VFR","rawOb":"METAR SBJP 211600Z 12014KT 9999 FEW030 BKN070 30/22 Q1014","temp":30,"dewp":22,"wdir":120,"wspd":14,"visib":"6+","altim":1014,"clouds":[{"cover":"FEW","base":3000},{"cover":"BKN","base":7000}],"obsTime":1779379200},"SBST":{"icaoId":"SBST","flightCategory":"IFR","rawOb":"METAR SBST 211600Z 19002KT 4000 BR SCT013 OVC031 18/16 Q1023","temp":18,"dewp":16,"wdir":190,"wspd":2,"visib":2.49,"altim":1023,"clouds":[{"cover":"SCT","base":1300},{"cover":"OVC","base":3100}],"obsTime":1779379200},"SBLE":{"icaoId":"SBLE","flightCategory":"MVFR","rawOb":"METAR SBLE 211600Z AUTO VRB02KT 9999 SCT020 BKN026 26/21 Q1018","temp":26,"dewp":21,"wdir":"VRB","wspd":2,"visib":"6+","altim":1018,"clouds":[{"cover":"SCT","base":2000},{"cover":"BKN","base":2600}],"obsTime":1779379200},"SBTA":{"icaoId":"SBTA","flightCategory":"MVFR","rawOb":"METAR SBTA 211600Z 17008KT 9999 BKN030 SCT040 20/14 Q1022","temp":20,"dewp":14,"wdir":170,"wspd":8,"visib":"6+","altim":1022,"clouds":[{"cover":"BKN","base":3000},{"cover":"SCT","base":4000}],"obsTime":1779379200},"SBAF":{"icaoId":"SBAF","flightCategory":"IFR","rawOb":" SBAF 211600Z 21010KT 4000 BR SCT008 BKN020 OVC040 20/20 Q1022","temp":20,"dewp":20,"wdir":210,"wspd":10,"visib":2.49,"altim":1022,"clouds":[{"cover":"SCT","base":800},{"cover":"BKN","base":2000},{"cover":"OVC","base":4000}],"obsTime":1779379200},"SBIH":{"icaoId":"SBIH","flightCategory":"VFR","rawOb":"METAR SBIH 211600Z 31003KT 9999 SCT012 FEW025TCU OVC100 26/25 Q1013","temp":26,"dewp":25,"wdir":310,"wspd":3,"visib":"6+","altim":1013,"clouds":[{"cover":"SCT","base":1200},{"cover":"FEW","base":2500},{"cover":"OVC","base":10000}],"obsTime":1779379200}}}