{"updated":1778608244,"count":87,"data":{"SBEG":{"icaoId":"SBEG","flightCategory":"MVFR","rawOb":"METAR SBEG 121600Z 18005KT 9999 BKN011 BKN070 25/23 Q1016","temp":25,"dewp":23,"wdir":180,"wspd":5,"visib":"6+","altim":1016,"clouds":[{"cover":"BKN","base":1100},{"cover":"BKN","base":7000}],"obsTime":1778601600},"SBCF":{"icaoId":"SBCF","flightCategory":"VFR","rawOb":"METAR SBCF 121600Z 09004KT 9999 SCT030 26/18 Q1019","temp":26,"dewp":18,"wdir":90,"wspd":4,"visib":"6+","altim":1019,"clouds":[{"cover":"SCT","base":3000}],"obsTime":1778601600},"SBBE":{"icaoId":"SBBE","flightCategory":"MVFR","rawOb":"METAR SBBE 121600Z 10004KT 9999 BKN030 FEW035TCU 31/25 Q1011","temp":31,"dewp":25,"wdir":100,"wspd":4,"visib":"6+","altim":1011,"clouds":[{"cover":"BKN","base":3000},{"cover":"FEW","base":3500}],"obsTime":1778601600},"SBBR":{"icaoId":"SBBR","flightCategory":"VFR","rawOb":"METAR SBBR 121600Z 09007KT 050V140 9999 SCT040 27/14 Q1020","temp":27,"dewp":14,"wdir":90,"wspd":7,"visib":"6+","altim":1020,"clouds":[{"cover":"SCT","base":4000}],"obsTime":1778601600},"SBBV":{"icaoId":"SBBV","flightCategory":"IFR","rawOb":"METAR SBBV 121600Z 28004KT 9999 BKN009 SCT015 FEW030TCU BKN070 26/24 Q1015","temp":26,"dewp":24,"wdir":280,"wspd":4,"visib":"6+","altim":1015,"clouds":[{"cover":"BKN","base":900},{"cover":"SCT","base":1500},{"cover":"FEW","base":3000},{"cover":"BKN","base":7000}],"obsTime":1778601600},"SBCB":{"icaoId":"SBCB","flightCategory":"VFR","rawOb":"METAR SBCB 121600Z 25011KT 9999 FEW025 23/15 Q1019","temp":23,"dewp":15,"wdir":250,"wspd":11,"visib":"6+","altim":1019,"clouds":[{"cover":"FEW","base":2500}],"obsTime":1778601600},"SBAT":{"icaoId":"SBAT","flightCategory":"VFR","rawOb":"METAR SBAT 121600Z 17004KT 9999 FEW030 29/22 Q1015","temp":29,"dewp":22,"wdir":170,"wspd":4,"visib":"6+","altim":1015,"clouds":[{"cover":"FEW","base":3000}],"obsTime":1778601600},"SBCG":{"icaoId":"SBCG","flightCategory":"VFR","rawOb":"METAR SBCG 121600Z 08005KT 350V140 CAVOK 22/09 Q1019","temp":22,"dewp":9,"wdir":80,"wspd":5,"visib":"6+","altim":1019,"clouds":[],"obsTime":1778601600},"SBCP":{"icaoId":"SBCP","flightCategory":"VFR","rawOb":"METAR SBCP 121600Z 20010KT 9999 FEW020 26/13 Q1018","temp":26,"dewp":13,"wdir":200,"wspd":10,"visib":"6+","altim":1018,"clouds":[{"cover":"FEW","base":2000}],"obsTime":1778601600},"SBCR":{"icaoId":"SBCR","flightCategory":"VFR","rawOb":"METAR SBCR 121600Z 34003KT 250V060 CAVOK 22/11 Q1018","temp":22,"dewp":11,"wdir":340,"wspd":3,"visib":"6+","altim":1018,"clouds":[],"obsTime":1778601600},"SBCT":{"icaoId":"SBCT","flightCategory":"VFR","rawOb":"METAR SBCT 121600Z 01006KT 320V060 CAVOK 19/01 Q1021","temp":19,"dewp":1,"wdir":10,"wspd":6,"visib":"6+","altim":1021,"clouds":[],"obsTime":1778601600},"SBCZ":{"icaoId":"SBCZ","flightCategory":"VFR","rawOb":"METAR SBCZ 121600Z 20005KT 160V240 9999 FEW015 BKN090 22/17 Q1018","temp":22,"dewp":17,"wdir":200,"wspd":5,"visib":"6+","altim":1018,"clouds":[{"cover":"FEW","base":1500},{"cover":"BKN","base":9000}],"obsTime":1778601600},"SBFI":{"icaoId":"SBFI","flightCategory":"VFR","rawOb":"METAR SBFI 121600Z 26003KT CAVOK 19/11 Q1020","temp":19,"dewp":11,"wdir":260,"wspd":3,"visib":"6+","altim":1020,"clouds":[],"obsTime":1778601600},"SBFL":{"icaoId":"SBFL","flightCategory":"VFR","rawOb":"METAR SBFL 121600Z 35012KT CAVOK 21/12 Q1017","temp":21,"dewp":12,"wdir":350,"wspd":12,"visib":"6+","altim":1017,"clouds":[],"obsTime":1778601600},"SBFZ":{"icaoId":"SBFZ","flightCategory":"VFR","rawOb":"METAR SBFZ 121600Z 09014KT 9999 SCT025 31/24 Q1010","temp":31,"dewp":24,"wdir":90,"wspd":14,"visib":"6+","altim":1010,"clouds":[{"cover":"SCT","base":2500}],"obsTime":1778601600},"SBGL":{"icaoId":"SBGL","flightCategory":"VFR","rawOb":"METAR SBGL 121600Z 03007KT 360V070 9999 FEW045 25/12 Q1018","temp":25,"dewp":12,"wdir":30,"wspd":7,"visib":"6+","altim":1018,"clouds":[{"cover":"FEW","base":4500}],"obsTime":1778601600},"SBGO":{"icaoId":"SBGO","flightCategory":"VFR","rawOb":"METAR SBGO 121600Z 08006KT 020V130 9999 FEW048 30/17 Q1018","temp":30,"dewp":17,"wdir":80,"wspd":6,"visib":"6+","altim":1018,"clouds":[{"cover":"FEW","base":4800}],"obsTime":1778601600},"SBGR":{"icaoId":"SBGR","flightCategory":"VFR","rawOb":"METAR SBGR 121600Z 05006KT CAVOK 17/10 Q1021","temp":17,"dewp":10,"wdir":50,"wspd":6,"visib":"6+","altim":1021,"clouds":[],"obsTime":1778601600},"SBHT":{"icaoId":"SBHT","flightCategory":"IFR","rawOb":"METAR SBHT 121600Z 08004KT 3000 -RA BR FEW012 FEW020TCU OVC090 24/23 Q1013 RETS","temp":24,"dewp":23,"wdir":80,"wspd":4,"visib":1.86,"altim":1013,"clouds":[{"cover":"FEW","base":1200},{"cover":"FEW","base":2000},{"cover":"OVC","base":9000}],"obsTime":1778601600},"SBIL":{"icaoId":"SBIL","flightCategory":"VFR","rawOb":"METAR SBIL 121600Z 17009KT 9999 FEW025 29/24 Q1015","temp":29,"dewp":24,"wdir":170,"wspd":9,"visib":"6+","altim":1015,"clouds":[{"cover":"FEW","base":2500}],"obsTime":1778601600},"SBJU":{"icaoId":"SBJU","flightCategory":"MVFR","rawOb":"METAR SBJU 121600Z 08010KT 9999 BKN022 32/21 Q1013","temp":32,"dewp":21,"wdir":80,"wspd":10,"visib":"6+","altim":1013,"clouds":[{"cover":"BKN","base":2200}],"obsTime":1778601600},"SBKP":{"icaoId":"SBKP","flightCategory":"VFR","rawOb":"METAR SBKP 121600Z VRB04KT CAVOK 22/07 Q1019","temp":22,"dewp":7,"wdir":"VRB","wspd":4,"visib":"6+","altim":1019,"clouds":[],"obsTime":1778601600},"SBLO":{"icaoId":"SBLO","flightCategory":"VFR","rawOb":"METAR SBLO 121600Z 07005KT CAVOK 19/08 Q1020","temp":19,"dewp":8,"wdir":70,"wspd":5,"visib":"6+","altim":1020,"clouds":[],"obsTime":1778601600},"SBMA":{"icaoId":"SBMA","flightCategory":"VFR","rawOb":"METAR SBMA 121600Z 36004KT 9999 SCT020 FEW025TCU OVC100 30/24 Q1012","temp":30,"dewp":24,"wdir":360,"wspd":4,"visib":"6+","altim":1012,"clouds":[{"cover":"SCT","base":2000},{"cover":"FEW","base":2500},{"cover":"OVC","base":10000}],"obsTime":1778601600},"SBME":{"icaoId":"SBME","flightCategory":"VFR","rawOb":"METAR SBME 121600Z 20007KT 9999 FEW025 BKN070 26/15 Q1018","temp":26,"dewp":15,"wdir":200,"wspd":7,"visib":"6+","altim":1018,"clouds":[{"cover":"FEW","base":2500},{"cover":"BKN","base":7000}],"obsTime":1778601600},"SBMG":{"icaoId":"SBMG","flightCategory":"VFR","rawOb":"METAR SBMG 121600Z VRB04KT CAVOK 19/12 Q1019","temp":19,"dewp":12,"wdir":"VRB","wspd":4,"visib":"6+","altim":1019,"clouds":[],"obsTime":1778601600},"SBMK":{"icaoId":"SBMK","flightCategory":"VFR","rawOb":"METAR SBMK 121600Z 05006KT 9999 FEW030 28/17 Q1018","temp":28,"dewp":17,"wdir":50,"wspd":6,"visib":"6+","altim":1018,"clouds":[{"cover":"FEW","base":3000}],"obsTime":1778601600},"SBMO":{"icaoId":"SBMO","flightCategory":"MVFR","rawOb":"METAR SBMO 121600Z 13011KT 110V170 9999 BKN027 SCT070 30/22 Q1013","temp":30,"dewp":22,"wdir":130,"wspd":11,"visib":"6+","altim":1013,"clouds":[{"cover":"BKN","base":2700},{"cover":"SCT","base":7000}],"obsTime":1778601600},"SBMQ":{"icaoId":"SBMQ","flightCategory":"MVFR","rawOb":"METAR SBMQ 121600Z 06004KT 8000 -RA FEW008 BKN013 OVC070 26/25 Q1013","temp":26,"dewp":25,"wdir":60,"wspd":4,"visib":4.97,"altim":1013,"clouds":[{"cover":"FEW","base":800},{"cover":"BKN","base":1300},{"cover":"OVC","base":7000}],"obsTime":1778601600},"SBNT":{"icaoId":"SBNT","flightCategory":"VFR","rawOb":"METAR SBNT 121600Z 12013KT 9999 SCT023 FEW030TCU SCT040 31/24 Q1011","temp":31,"dewp":24,"wdir":120,"wspd":13,"visib":"6+","altim":1011,"clouds":[{"cover":"SCT","base":2300},{"cover":"FEW","base":3000},{"cover":"SCT","base":4000}],"obsTime":1778601600},"SBPA":{"icaoId":"SBPA","flightCategory":"VFR","rawOb":"METAR SBPA 121600Z 28012KT 250V310 CAVOK 19/06 Q1017","temp":19,"dewp":6,"wdir":280,"wspd":12,"visib":"6+","altim":1017,"clouds":[],"obsTime":1778601600},"SBPJ":{"icaoId":"SBPJ","flightCategory":"VFR","rawOb":"METAR SBPJ 121600Z 28006KT 9999 FEW030 33/22 Q1013","temp":33,"dewp":22,"wdir":280,"wspd":6,"visib":"6+","altim":1013,"clouds":[{"cover":"FEW","base":3000}],"obsTime":1778601600},"SBPV":{"icaoId":"SBPV","flightCategory":"VFR","rawOb":"METAR SBPV 121600Z 12006KT 9999 SCT020 SCT100 27/23 Q1016","temp":27,"dewp":23,"wdir":120,"wspd":6,"visib":"6+","altim":1016,"clouds":[{"cover":"SCT","base":2000},{"cover":"SCT","base":10000}],"obsTime":1778601600},"SBRB":{"icaoId":"SBRB","flightCategory":"VFR","rawOb":"METAR SBRB 121600Z 17004KT CAVOK 25/16 Q1017","temp":25,"dewp":16,"wdir":170,"wspd":4,"visib":"6+","altim":1017,"clouds":[],"obsTime":1778601600},"SBRF":{"icaoId":"SBRF","flightCategory":"MVFR","rawOb":"METAR SBRF 121600Z 12006KT 8000 VCSH FEW009 BKN021 BKN050 26/24 Q1012","temp":26,"dewp":24,"wdir":120,"wspd":6,"visib":4.97,"altim":1012,"clouds":[{"cover":"FEW","base":900},{"cover":"BKN","base":2100},{"cover":"BKN","base":5000}],"obsTime":1778601600},"SBSG":{"icaoId":"SBSG","flightCategory":"MVFR","rawOb":"METAR SBSG 121600Z 12010KT 9999 BKN027 30/24 Q1011","temp":30,"dewp":24,"wdir":120,"wspd":10,"visib":"6+","altim":1011,"clouds":[{"cover":"BKN","base":2700}],"obsTime":1778601600},"SBSL":{"icaoId":"SBSL","flightCategory":"MVFR","rawOb":"METAR SBSL 121600Z 10005KT 060V180 9999 BKN030 32/24 Q1010","temp":32,"dewp":24,"wdir":100,"wspd":5,"visib":"6+","altim":1010,"clouds":[{"cover":"BKN","base":3000}],"obsTime":1778601600},"SBSN":{"icaoId":"SBSN","flightCategory":"VFR","rawOb":"METAR SBSN 121600Z 09003KT 020V110 9999 -RA SCT014 SCT043 OVC100 26/24 Q1014","temp":26,"dewp":24,"wdir":90,"wspd":3,"visib":"6+","altim":1014,"clouds":[{"cover":"SCT","base":1400},{"cover":"SCT","base":4300},{"cover":"OVC","base":10000}],"obsTime":1778601600},"SBSP":{"icaoId":"SBSP","flightCategory":"VFR","rawOb":"METAR SBSP 121600Z 07006KT 030V120 CAVOK 19/08 Q1021","temp":19,"dewp":8,"wdir":70,"wspd":6,"visib":"6+","altim":1021,"clouds":[],"obsTime":1778601600},"SBSV":{"icaoId":"SBSV","flightCategory":"VFR","rawOb":"METAR SBSV 121600Z 13011KT 090V160 9999 SCT022 29/23 Q1014","temp":29,"dewp":23,"wdir":130,"wspd":11,"visib":"6+","altim":1014,"clouds":[{"cover":"SCT","base":2200}],"obsTime":1778601600},"SBTE":{"icaoId":"SBTE","flightCategory":"MVFR","rawOb":"METAR SBTE 121600Z VRB04KT 9999 BKN025 33/24 Q1010","temp":33,"dewp":24,"wdir":"VRB","wspd":4,"visib":"6+","altim":1010,"clouds":[{"cover":"BKN","base":2500}],"obsTime":1778601600},"SBUL":{"icaoId":"SBUL","flightCategory":"VFR","rawOb":"METAR SBUL 121600Z VRB05KT 9999 SCT040 26/14 Q1020","temp":26,"dewp":14,"wdir":"VRB","wspd":5,"visib":"6+","altim":1020,"clouds":[{"cover":"SCT","base":4000}],"obsTime":1778601600},"SBUR":{"icaoId":"SBUR","flightCategory":"VFR","rawOb":"METAR SBUR 121600Z 24007KT CAVOK 26/15 Q1019","temp":26,"dewp":15,"wdir":240,"wspd":7,"visib":"6+","altim":1019,"clouds":[],"obsTime":1778601600},"SBVT":{"icaoId":"SBVT","flightCategory":"VFR","rawOb":"METAR SBVT 121600Z 17015KT 9999 FEW035 BKN060 25/17 Q1018","temp":25,"dewp":17,"wdir":170,"wspd":15,"visib":"6+","altim":1018,"clouds":[{"cover":"FEW","base":3500},{"cover":"BKN","base":6000}],"obsTime":1778601600},"SBBH":{"icaoId":"SBBH","flightCategory":"VFR","rawOb":"METAR SBBH 121600Z 11007KT 9999 SCT030 25/18 Q1019","temp":25,"dewp":18,"wdir":110,"wspd":7,"visib":"6+","altim":1019,"clouds":[{"cover":"SCT","base":3000}],"obsTime":1778601600},"SBOI":{"icaoId":"SBOI","flightCategory":"MVFR","rawOb":"METAR SBOI 121600Z AUTO 34004KT 9999 -RA SCT003 BKN021 24/24 Q1014 RERA","temp":24,"dewp":24,"wdir":340,"wspd":4,"visib":"6+","altim":1014,"clouds":[{"cover":"SCT","base":300},{"cover":"BKN","base":2100}],"obsTime":1778601600},"SBPB":{"icaoId":"SBPB","flightCategory":"VFR","rawOb":"METAR SBPB 121600Z 05007KT 9999 SCT020 32/26 Q1010","temp":32,"dewp":26,"wdir":50,"wspd":7,"visib":"6+","altim":1010,"clouds":[{"cover":"SCT","base":2000}],"obsTime":1778601600},"SBAU":{"icaoId":"SBAU","flightCategory":"VFR","rawOb":"METAR SBAU 121600Z 12006KT CAVOK 24/08 Q1018","temp":24,"dewp":8,"wdir":120,"wspd":6,"visib":"6+","altim":1018,"clouds":[],"obsTime":1778601600},"SBCJ":{"icaoId":"SBCJ","flightCategory":"MVFR","rawOb":"METAR SBCJ 121600Z 12003KT 9999 BKN017 28/22 Q1017","temp":28,"dewp":22,"wdir":120,"wspd":3,"visib":"6+","altim":1017,"clouds":[{"cover":"BKN","base":1700}],"obsTime":1778601600},"SBPL":{"icaoId":"SBPL","flightCategory":"VFR","rawOb":"METAR SBPL 121600Z 11009KT 9999 SCT030 32/20 Q1013","temp":32,"dewp":20,"wdir":110,"wspd":9,"visib":"6+","altim":1013,"clouds":[{"cover":"SCT","base":3000}],"obsTime":1778601600},"SBPP":{"icaoId":"SBPP","flightCategory":"VFR","rawOb":"METAR SBPP 121600Z 08008KT CAVOK 18/06 Q1020","temp":18,"dewp":6,"wdir":80,"wspd":8,"visib":"6+","altim":1020,"clouds":[],"obsTime":1778601600},"SBCO":{"icaoId":"SBCO","flightCategory":"VFR","rawOb":"METAR SBCO 121600Z 30010KT 260V330 CAVOK 19/06 Q1018","temp":19,"dewp":6,"wdir":300,"wspd":10,"visib":"6+","altim":1018,"clouds":[],"obsTime":1778601600},"SBAR":{"icaoId":"SBAR","flightCategory":"VFR","rawOb":"METAR SBAR 121600Z 12012KT 9999 SCT023 30/23 Q1013","temp":30,"dewp":23,"wdir":120,"wspd":12,"visib":"6+","altim":1013,"clouds":[{"cover":"SCT","base":2300}],"obsTime":1778601600},"SBPS":{"icaoId":"SBPS","flightCategory":"VFR","rawOb":"METAR SBPS 121600Z 15006KT 9999 SCT025 27/22 Q1016","temp":27,"dewp":22,"wdir":150,"wspd":6,"visib":"6+","altim":1016,"clouds":[{"cover":"SCT","base":2500}],"obsTime":1778601600},"SBSC":{"icaoId":"SBSC","flightCategory":"VFR","rawOb":"METAR SBSC 121600Z 19007KT 9999 SCT030 23/15 Q1019","temp":23,"dewp":15,"wdir":190,"wspd":7,"visib":"6+","altim":1019,"clouds":[{"cover":"SCT","base":3000}],"obsTime":1778601600},"SBDN":{"icaoId":"SBDN","flightCategory":"VFR","rawOb":"METAR SBDN 121600Z 05006KT CAVOK 22/05 Q1019","temp":22,"dewp":5,"wdir":50,"wspd":6,"visib":"6+","altim":1019,"clouds":[],"obsTime":1778601600},"SBBQ":{"icaoId":"SBBQ","flightCategory":"MVFR","rawOb":"METAR SBBQ 121600Z 10007KT 9999 OVC012 17/14 Q1023","temp":17,"dewp":14,"wdir":100,"wspd":7,"visib":"6+","altim":1023,"clouds":[{"cover":"OVC","base":1200}],"obsTime":1778601600},"SBSJ":{"icaoId":"SBSJ","flightCategory":"VFR","rawOb":"METAR SBSJ 121600Z 36004KT CAVOK 19/12 Q1020","temp":19,"dewp":12,"wdir":360,"wspd":4,"visib":"6+","altim":1020,"clouds":[],"obsTime":1778601600},"SBSM":{"icaoId":"SBSM","flightCategory":"VFR","rawOb":"METAR SBSM 121600Z 24005KT 160V300 9999 FEW003 20/06 Q1019","temp":20,"dewp":6,"wdir":240,"wspd":5,"visib":"6+","altim":1019,"clouds":[{"cover":"FEW","base":300}],"obsTime":1778601600},"SBES":{"icaoId":"SBES","flightCategory":"VFR","rawOb":"METAR SBES 121600Z 23009KT 110V270 9999 FEW020 23/// Q1019","temp":null,"dewp":null,"wdir":230,"wspd":9,"visib":"6+","altim":1019,"clouds":[{"cover":"FEW","base":2000}],"obsTime":1778601600},"SBSR":{"icaoId":"SBSR","flightCategory":"VFR","rawOb":"METAR SBSR 121600Z 03004KT CAVOK 24/03 Q1019","temp":24,"dewp":3,"wdir":30,"wspd":4,"visib":"6+","altim":1019,"clouds":[],"obsTime":1778601600},"SBBU":{"icaoId":"SBBU","flightCategory":"VFR","rawOb":"METAR SBBU 121600Z 06007KT CAVOK 22/06 Q1019","temp":22,"dewp":6,"wdir":60,"wspd":7,"visib":"6+","altim":1019,"clouds":[],"obsTime":1778601600},"SBGM":{"icaoId":"SBGM","flightCategory":"VFR","rawOb":"METAR SBGM 121600Z 13009KT CAVOK 25/15 Q1016","temp":25,"dewp":15,"wdir":130,"wspd":9,"visib":"6+","altim":1016,"clouds":[],"obsTime":1778601600},"SBAX":{"icaoId":"SBAX","flightCategory":"VFR","rawOb":"METAR SBAX 121600Z 02005KT 9999 FEW020 SCT020 25/15 Q1020","temp":25,"dewp":15,"wdir":20,"wspd":5,"visib":"6+","altim":1020,"clouds":[{"cover":"FEW","base":2000},{"cover":"SCT","base":2000}],"obsTime":1778601600},"SBTF":{"icaoId":"SBTF","flightCategory":"MVFR","rawOb":"METAR SBTF 121600Z 16004KT 9999 BKN012 BKN090 24/21 Q1016","temp":24,"dewp":21,"wdir":160,"wspd":4,"visib":"6+","altim":1016,"clouds":[{"cover":"BKN","base":1200},{"cover":"BKN","base":9000}],"obsTime":1778601600},"SBTT":{"icaoId":"SBTT","flightCategory":"MVFR","rawOb":"METAR SBTT 121600Z 20005KT 9999 BKN015 OVC025 22/17 Q1018","temp":22,"dewp":17,"wdir":200,"wspd":5,"visib":"6+","altim":1018,"clouds":[{"cover":"BKN","base":1500},{"cover":"OVC","base":2500}],"obsTime":1778601600},"SBIP":{"icaoId":"SBIP","flightCategory":"IFR","rawOb":"METAR SBIP 121600Z AUTO 22005KT 180V240 9999 BKN008 BKN010 23/21 Q1018","temp":23,"dewp":21,"wdir":220,"wspd":5,"visib":"6+","altim":1018,"clouds":[{"cover":"BKN","base":800},{"cover":"BKN","base":1000}],"obsTime":1778601600},"SBCA":{"icaoId":"SBCA","flightCategory":"VFR","rawOb":"METAR SBCA 121700Z 35004KT CAVOK 21/04 Q1020","temp":21,"dewp":4,"wdir":350,"wspd":4,"visib":"6+","altim":1020,"clouds":[],"obsTime":1778605200},"SBTU":{"icaoId":"SBTU","flightCategory":"VFR","rawOb":"METAR SBTU 121600Z AUTO 01005KT 320V050 9999 // ///////// ///// Q1013","temp":null,"dewp":null,"wdir":10,"wspd":5,"visib":"6+","altim":1013,"clouds":[],"obsTime":1778601600},"SBUY":{"icaoId":"SBUY","flightCategory":"MVFR","rawOb":"METAR SBUY 121600Z 18002KT 9999 BKN012 OVC100 23/21 Q1015","temp":23,"dewp":21,"wdir":180,"wspd":2,"visib":"6+","altim":1015,"clouds":[{"cover":"BKN","base":1200},{"cover":"OVC","base":10000}],"obsTime":1778601600},"SBCC":{"icaoId":"SBCC","flightCategory":"MVFR","rawOb":"METAR SBCC 121600Z /////KT 9999 BKN025 ///// Q1014","temp":null,"dewp":null,"wdir":null,"wspd":null,"visib":"6+","altim":1014,"clouds":[{"cover":"BKN","base":2500}],"obsTime":1778601600},"SBKG":{"icaoId":"SBKG","flightCategory":"MVFR","rawOb":"METAR SBKG 121600Z 15010KT 9999 BKN010 SCT080 25/23 Q1014","temp":25,"dewp":23,"wdir":150,"wspd":10,"visib":"6+","altim":1014,"clouds":[{"cover":"BKN","base":1000},{"cover":"SCT","base":8000}],"obsTime":1778601600},"SBVH":{"icaoId":"SBVH","flightCategory":"VFR","rawOb":"METAR SBVH 121600Z 08005KT CAVOK 24/17 Q1019","temp":24,"dewp":17,"wdir":80,"wspd":5,"visib":"6+","altim":1019,"clouds":[],"obsTime":1778601600},"SBTD":{"icaoId":"SBTD","flightCategory":"VFR","rawOb":"METAR SBTD 121600Z /////KT CAVOK 21/09 Q1021","temp":21,"dewp":9,"wdir":null,"wspd":null,"visib":"6+","altim":1021,"clouds":[],"obsTime":1778601600},"SBAN":{"icaoId":"SBAN","flightCategory":"VFR","rawOb":"METAR SBAN 121600Z 19007KT 130V250 9999 FEW040 27/13 Q1021","temp":27,"dewp":13,"wdir":190,"wspd":7,"visib":"6+","altim":1021,"clouds":[{"cover":"FEW","base":4000}],"obsTime":1778601600},"SBJV":{"icaoId":"SBJV","flightCategory":"VFR","rawOb":"METAR SBJV 121600Z 14004KT CAVOK 21/12 Q1019","temp":21,"dewp":12,"wdir":140,"wspd":4,"visib":"6+","altim":1019,"clouds":[],"obsTime":1778601600},"SBNM":{"icaoId":"SBNM","flightCategory":"VFR","rawOb":"METAR SBNM 121600Z 33004KT CAVOK 20/05 Q1020","temp":20,"dewp":5,"wdir":330,"wspd":4,"visib":"6+","altim":1020,"clouds":[],"obsTime":1778601600},"SBLE":{"icaoId":"SBLE","flightCategory":"VFR","rawOb":"METAR SBLE 121600Z AUTO 15006KT 090V200 9999 SCT026 BKN048 26/20 Q1017","temp":26,"dewp":20,"wdir":150,"wspd":6,"visib":"6+","altim":1017,"clouds":[{"cover":"SCT","base":2600},{"cover":"BKN","base":4800}],"obsTime":1778601600},"SBIH":{"icaoId":"SBIH","flightCategory":"MVFR","rawOb":"METAR SBIH 121600Z 00000KT 8000 SCT009 BKN015 26/24 Q1014","temp":26,"dewp":24,"wdir":0,"wspd":0,"visib":4.97,"altim":1014,"clouds":[{"cover":"SCT","base":900},{"cover":"BKN","base":1500}],"obsTime":1778601600},"SBAF":{"icaoId":"SBAF","flightCategory":"VFR","rawOb":"METAR SBAF 121600Z 21006KT 9999 SCT030 24/14 Q1019","temp":24,"dewp":14,"wdir":210,"wspd":6,"visib":"6+","altim":1019,"clouds":[{"cover":"SCT","base":3000}],"obsTime":1778601600},"SBGW":{"icaoId":"SBGW","flightCategory":"VFR","rawOb":"METAR SBGW 121600Z 04005KT 9999 FEW023 21/10 Q1019","temp":21,"dewp":10,"wdir":40,"wspd":5,"visib":"6+","altim":1019,"clouds":[{"cover":"FEW","base":2300}],"obsTime":1778601600},"SBJR":{"icaoId":"SBJR","flightCategory":"VFR","rawOb":"METAR SBJR 121600Z 20006KT 9999 FEW030 26/15 Q1019","temp":26,"dewp":15,"wdir":200,"wspd":6,"visib":"6+","altim":1019,"clouds":[{"cover":"FEW","base":3000}],"obsTime":1778601600},"SBLS":{"icaoId":"SBLS","flightCategory":"MVFR","rawOb":"METAR SBLS 121600Z VRB05KT 9999 BKN027 25/18 Q1019","temp":25,"dewp":18,"wdir":"VRB","wspd":5,"visib":"6+","altim":1019,"clouds":[{"cover":"BKN","base":2700}],"obsTime":1778601600},"SBMT":{"icaoId":"SBMT","flightCategory":"VFR","rawOb":"METAR SBMT 121600Z 10009KT CAVOK 18/08 Q1020","temp":18,"dewp":8,"wdir":100,"wspd":9,"visib":"6+","altim":1020,"clouds":[],"obsTime":1778601600},"SBST":{"icaoId":"SBST","flightCategory":"VFR","rawOb":"METAR SBST 121600Z 13005KT 9999 SCT041 22/13 Q1019","temp":22,"dewp":13,"wdir":130,"wspd":5,"visib":"6+","altim":1019,"clouds":[{"cover":"SCT","base":4100}],"obsTime":1778601600},"SBTA":{"icaoId":"SBTA","flightCategory":"VFR","rawOb":"METAR SBTA 121600Z VRB03KT 9999 FEW010 SCT020 19/11 Q1019","temp":19,"dewp":11,"wdir":"VRB","wspd":3,"visib":"6+","altim":1019,"clouds":[{"cover":"FEW","base":1000},{"cover":"SCT","base":2000}],"obsTime":1778601600},"SBJP":{"icaoId":"SBJP","flightCategory":"IFR","rawOb":"METAR SBJP 121600Z 13013KT 060V170 2000 -RA BR SCT005 BKN012 OVC070 26/25 Q1012 RERA","temp":26,"dewp":25,"wdir":130,"wspd":13,"visib":1.24,"altim":1012,"clouds":[{"cover":"SCT","base":500},{"cover":"BKN","base":1200},{"cover":"OVC","base":7000}],"obsTime":1778601600}}}