{"updated":1775678749,"count":82,"data":{"SBCB":{"icaoId":"SBCB","flightCategory":"VFR","rawOb":"METAR SBCB 081900Z 09011KT CAVOK 29/22 Q1010","temp":29,"dewp":22,"wdir":90,"wspd":11,"visib":"6+","altim":1010,"clouds":[],"obsTime":1775674800},"SBSP":{"icaoId":"SBSP","flightCategory":"VFR","rawOb":"METAR SBSP 081900Z 34012KT 300V010 9999 FEW025 BKN100 25/17 Q1015","temp":25,"dewp":17,"wdir":340,"wspd":12,"visib":"6+","altim":1015,"clouds":[{"cover":"FEW","base":2500},{"cover":"BKN","base":10000}],"obsTime":1775674800},"SBGR":{"icaoId":"SBGR","flightCategory":"VFR","rawOb":"METAR SBGR 081900Z 32007KT CAVOK 26/19 Q1015","temp":26,"dewp":19,"wdir":320,"wspd":7,"visib":"6+","altim":1015,"clouds":[],"obsTime":1775674800},"SBSV":{"icaoId":"SBSV","flightCategory":"VFR","rawOb":"METAR SBSV 081900Z 09009KT 9999 SCT023 29/22 Q1012","temp":29,"dewp":22,"wdir":90,"wspd":9,"visib":"6+","altim":1012,"clouds":[{"cover":"SCT","base":2300}],"obsTime":1775674800},"SBCT":{"icaoId":"SBCT","flightCategory":"MVFR","rawOb":"METAR SBCT 081900Z 28017KT 9999 BKN023 24/18 Q1013","temp":24,"dewp":18,"wdir":280,"wspd":17,"visib":"6+","altim":1013,"clouds":[{"cover":"BKN","base":2300}],"obsTime":1775674800},"SBCZ":{"icaoId":"SBCZ","flightCategory":"MVFR","rawOb":"METAR SBCZ 081900Z 00000KT 8000 VCSH BKN030 FEW040TCU 31/25 Q1010","temp":31,"dewp":25,"wdir":0,"wspd":0,"visib":4.97,"altim":1010,"clouds":[{"cover":"BKN","base":3000},{"cover":"FEW","base":4000}],"obsTime":1775674800},"SBKP":{"icaoId":"SBKP","flightCategory":"VFR","rawOb":"METAR SBKP 081900Z 32009KT 9999 FEW035 27/19 Q1014","temp":27,"dewp":19,"wdir":320,"wspd":9,"visib":"6+","altim":1014,"clouds":[{"cover":"FEW","base":3500}],"obsTime":1775674800},"SBCF":{"icaoId":"SBCF","flightCategory":"VFR","rawOb":"METAR SBCF 081900Z 36004KT 9999 SCT045 FEW048TCU 29/18 Q1017","temp":29,"dewp":18,"wdir":360,"wspd":4,"visib":"6+","altim":1017,"clouds":[{"cover":"SCT","base":4500},{"cover":"FEW","base":4800}],"obsTime":1775674800},"SBLO":{"icaoId":"SBLO","flightCategory":"MVFR","rawOb":"METAR SBLO 081900Z 25006KT 9999 BKN017 24/22 Q1014","temp":24,"dewp":22,"wdir":250,"wspd":6,"visib":"6+","altim":1014,"clouds":[{"cover":"BKN","base":1700}],"obsTime":1775674800},"SBEG":{"icaoId":"SBEG","flightCategory":"VFR","rawOb":"METAR SBEG 081900Z 36004KT 9999 SCT020 FEW025TCU SCT100 28/24 Q1010","temp":28,"dewp":24,"wdir":360,"wspd":4,"visib":"6+","altim":1010,"clouds":[{"cover":"SCT","base":2000},{"cover":"FEW","base":2500},{"cover":"SCT","base":10000}],"obsTime":1775674800},"SBMA":{"icaoId":"SBMA","flightCategory":"MVFR","rawOb":"METAR SBMA 081900Z 04004KT 9999 BKN020 FEW025TCU BKN100 30/25 Q1009","temp":30,"dewp":25,"wdir":40,"wspd":4,"visib":"6+","altim":1009,"clouds":[{"cover":"BKN","base":2000},{"cover":"FEW","base":2500},{"cover":"BKN","base":10000}],"obsTime":1775674800},"SBFI":{"icaoId":"SBFI","flightCategory":"MVFR","rawOb":"METAR SBFI 081900Z 21008KT 9999 SCT020 BKN030 26/19 Q1013","temp":26,"dewp":19,"wdir":210,"wspd":8,"visib":"6+","altim":1013,"clouds":[{"cover":"SCT","base":2000},{"cover":"BKN","base":3000}],"obsTime":1775674800},"SBBE":{"icaoId":"SBBE","flightCategory":"MVFR","rawOb":"METAR SBBE 081900Z 14002KT 9999 FEW012 BKN025 FEW030TCU 28/28 Q1010","temp":28,"dewp":28,"wdir":140,"wspd":2,"visib":"6+","altim":1010,"clouds":[{"cover":"FEW","base":1200},{"cover":"BKN","base":2500},{"cover":"FEW","base":3000}],"obsTime":1775674800},"SBCG":{"icaoId":"SBCG","flightCategory":"VFR","rawOb":"METAR SBCG 081900Z 26011KT 9999 SCT025 SCT040 29/21 Q1014","temp":29,"dewp":21,"wdir":260,"wspd":11,"visib":"6+","altim":1014,"clouds":[{"cover":"SCT","base":2500},{"cover":"SCT","base":4000}],"obsTime":1775674800},"SBFL":{"icaoId":"SBFL","flightCategory":"VFR","rawOb":"METAR SBFL 081900Z 20003KT 9999 FEW040 32/19 Q1005","temp":32,"dewp":19,"wdir":200,"wspd":3,"visib":"6+","altim":1005,"clouds":[{"cover":"FEW","base":4000}],"obsTime":1775674800},"SBMO":{"icaoId":"SBMO","flightCategory":"MVFR","rawOb":"METAR SBMO 081900Z 12010KT 9999 BKN030 28/23 Q1012","temp":28,"dewp":23,"wdir":120,"wspd":10,"visib":"6+","altim":1012,"clouds":[{"cover":"BKN","base":3000}],"obsTime":1775674800},"SBFZ":{"icaoId":"SBFZ","flightCategory":"VFR","rawOb":"METAR SBFZ 081900Z 07008KT 9999 FEW027 30/24 Q1010","temp":30,"dewp":24,"wdir":70,"wspd":8,"visib":"6+","altim":1010,"clouds":[{"cover":"FEW","base":2700}],"obsTime":1775674800},"SBMQ":{"icaoId":"SBMQ","flightCategory":"VFR","rawOb":"METAR SBMQ 081900Z 06005KT 9999 FEW025 29/26 Q1010","temp":29,"dewp":26,"wdir":60,"wspd":5,"visib":"6+","altim":1010,"clouds":[{"cover":"FEW","base":2500}],"obsTime":1775674800},"SBBV":{"icaoId":"SBBV","flightCategory":"MVFR","rawOb":"METAR SBBV 081900Z 13008KT 9999 VCSH BKN025 FEW030TCU SCT100 31/24 Q1010","temp":31,"dewp":24,"wdir":130,"wspd":8,"visib":"6+","altim":1010,"clouds":[{"cover":"BKN","base":2500},{"cover":"FEW","base":3000},{"cover":"SCT","base":10000}],"obsTime":1775674800},"SBNT":{"icaoId":"SBNT","flightCategory":"VFR","rawOb":"METAR SBNT 081900Z 09011KT 9999 FEW024 30/24 Q1010","temp":30,"dewp":24,"wdir":90,"wspd":11,"visib":"6+","altim":1010,"clouds":[{"cover":"FEW","base":2400}],"obsTime":1775674800},"SBPA":{"icaoId":"SBPA","flightCategory":"VFR","rawOb":"METAR SBPA 081900Z 28018KT 9999 SCT030 24/17 Q1008","temp":24,"dewp":17,"wdir":280,"wspd":18,"visib":"6+","altim":1008,"clouds":[{"cover":"SCT","base":3000}],"obsTime":1775674800},"SBCP":{"icaoId":"SBCP","flightCategory":"VFR","rawOb":"METAR SBCP 081900Z /////KT 9999 FEW020 ///// Q1010","temp":null,"dewp":null,"wdir":null,"wspd":null,"visib":"6+","altim":1010,"clouds":[{"cover":"FEW","base":2000}],"obsTime":1775674800},"SBGL":{"icaoId":"SBGL","flightCategory":"VFR","rawOb":"METAR SBGL 081900Z 34006KT 9999 FEW030 SCT100 35/21 Q1008","temp":35,"dewp":21,"wdir":340,"wspd":6,"visib":"6+","altim":1008,"clouds":[{"cover":"FEW","base":3000},{"cover":"SCT","base":10000}],"obsTime":1775674800},"SBPJ":{"icaoId":"SBPJ","flightCategory":"VFR","rawOb":"METAR SBPJ 081900Z 27004KT 9999 SCT045 34/23 Q1010","temp":34,"dewp":23,"wdir":270,"wspd":4,"visib":"6+","altim":1010,"clouds":[{"cover":"SCT","base":4500}],"obsTime":1775674800},"SBVT":{"icaoId":"SBVT","flightCategory":"VFR","rawOb":"METAR SBVT 081900Z 05014KT 9999 FEW045 29/25 Q1011","temp":29,"dewp":25,"wdir":50,"wspd":14,"visib":"6+","altim":1011,"clouds":[{"cover":"FEW","base":4500}],"obsTime":1775674800},"SBPV":{"icaoId":"SBPV","flightCategory":"VFR","rawOb":"METAR SBPV 081900Z 22002KT 9999 FEW010 SCT035 BKN070 27/23 Q1010","temp":27,"dewp":23,"wdir":220,"wspd":2,"visib":"6+","altim":1010,"clouds":[{"cover":"FEW","base":1000},{"cover":"SCT","base":3500},{"cover":"BKN","base":7000}],"obsTime":1775674800},"SBRB":{"icaoId":"SBRB","flightCategory":"MVFR","rawOb":"METAR SBRB 081900Z 28005KT 230V310 9000 BKN030 FEW035TCU SCT080 32/24 Q1010","temp":32,"dewp":24,"wdir":280,"wspd":5,"visib":5.59,"altim":1010,"clouds":[{"cover":"BKN","base":3000},{"cover":"FEW","base":3500},{"cover":"SCT","base":8000}],"obsTime":1775674800},"SBRF":{"icaoId":"SBRF","flightCategory":"VFR","rawOb":"METAR SBRF 081900Z 16010KT 9999 SCT025 BKN060 28/23 Q1011","temp":28,"dewp":23,"wdir":160,"wspd":10,"visib":"6+","altim":1011,"clouds":[{"cover":"SCT","base":2500},{"cover":"BKN","base":6000}],"obsTime":1775674800},"SBGO":{"icaoId":"SBGO","flightCategory":"IFR","rawOb":"SPECI SBGO 081835Z 13013G24KT 2000 +TSRA FEW011 BKN030 SCT048CB 23/21 Q1017","temp":23,"dewp":21,"wdir":130,"wspd":13,"visib":1.24,"altim":1017,"clouds":[{"cover":"FEW","base":1100},{"cover":"BKN","base":3000},{"cover":"SCT","base":4800}],"obsTime":1775673300},"SBCR":{"icaoId":"SBCR","flightCategory":"VFR","rawOb":"METAR SBCR 081900Z 32005KT 280V360 9999 SCT040 29/22 Q1011","temp":29,"dewp":22,"wdir":320,"wspd":5,"visib":"6+","altim":1011,"clouds":[{"cover":"SCT","base":4000}],"obsTime":1775674800},"SBSG":{"icaoId":"SBSG","flightCategory":"VFR","rawOb":"METAR SBSG 081900Z 11009KT 9999 SCT030 30/23 Q1011","temp":30,"dewp":23,"wdir":110,"wspd":9,"visib":"6+","altim":1011,"clouds":[{"cover":"SCT","base":3000}],"obsTime":1775674800},"SBTE":{"icaoId":"SBTE","flightCategory":"VFR","rawOb":"METAR SBTE 081900Z 23003KT 9999 FEW020 BKN100 29/24 Q1009","temp":29,"dewp":24,"wdir":230,"wspd":3,"visib":"6+","altim":1009,"clouds":[{"cover":"FEW","base":2000},{"cover":"BKN","base":10000}],"obsTime":1775674800},"SBSL":{"icaoId":"SBSL","flightCategory":"VFR","rawOb":"METAR SBSL 081900Z 09009KT 9999 SCT020 FEW025TCU 28/24 Q1010","temp":28,"dewp":24,"wdir":90,"wspd":9,"visib":"6+","altim":1010,"clouds":[{"cover":"SCT","base":2000},{"cover":"FEW","base":2500}],"obsTime":1775674800},"SBSN":{"icaoId":"SBSN","flightCategory":"VFR","rawOb":"METAR SBSN 081900Z 10007KT 9999 FEW020 FEW023TCU 31/25 Q1009","temp":31,"dewp":25,"wdir":100,"wspd":7,"visib":"6+","altim":1009,"clouds":[{"cover":"FEW","base":2000},{"cover":"FEW","base":2300}],"obsTime":1775674800},"SBBR":{"icaoId":"SBBR","flightCategory":"MVFR","rawOb":"METAR SBBR 081900Z 34003KT 9999 VCTS BKN030 FEW040CB SCT080 24/19 Q1017","temp":24,"dewp":19,"wdir":340,"wspd":3,"visib":"6+","altim":1017,"clouds":[{"cover":"BKN","base":3000},{"cover":"FEW","base":4000},{"cover":"SCT","base":8000}],"obsTime":1775674800},"SBHT":{"icaoId":"SBHT","flightCategory":"VFR","rawOb":"METAR SBHT 081900Z 10005KT 9999 SCT030 33/25 Q1009","temp":33,"dewp":25,"wdir":100,"wspd":5,"visib":"6+","altim":1009,"clouds":[{"cover":"SCT","base":3000}],"obsTime":1775674800},"SBIL":{"icaoId":"SBIL","flightCategory":"VFR","rawOb":"METAR SBIL 081900Z 08009KT 9999 SCT023 FEW025TCU BKN050 28/24 Q1013","temp":28,"dewp":24,"wdir":80,"wspd":9,"visib":"6+","altim":1013,"clouds":[{"cover":"SCT","base":2300},{"cover":"FEW","base":2500},{"cover":"BKN","base":5000}],"obsTime":1775674800},"SBJU":{"icaoId":"SBJU","flightCategory":"MVFR","rawOb":"METAR SBJU 081900Z 18008KT 9999 BKN022 FEW023TCU 24/23 Q1012","temp":24,"dewp":23,"wdir":180,"wspd":8,"visib":"6+","altim":1012,"clouds":[{"cover":"BKN","base":2200},{"cover":"FEW","base":2300}],"obsTime":1775674800},"SBME":{"icaoId":"SBME","flightCategory":"VFR","rawOb":"METAR SBME 081900Z 12006KT 9999 FEW030 32/23 Q1009","temp":32,"dewp":23,"wdir":120,"wspd":6,"visib":"6+","altim":1009,"clouds":[{"cover":"FEW","base":3000}],"obsTime":1775674800},"SBMG":{"icaoId":"SBMG","flightCategory":"MVFR","rawOb":"METAR SBMG 081900Z 28006KT 250V310 9999 BKN013 BKN018 23/21 Q1013","temp":23,"dewp":21,"wdir":280,"wspd":6,"visib":"6+","altim":1013,"clouds":[{"cover":"BKN","base":1300},{"cover":"BKN","base":1800}],"obsTime":1775674800},"SBMK":{"icaoId":"SBMK","flightCategory":"VFR","rawOb":"METAR SBMK 081900Z 36004KT 9999 FEW040 31/19 Q1014","temp":31,"dewp":19,"wdir":360,"wspd":4,"visib":"6+","altim":1014,"clouds":[{"cover":"FEW","base":4000}],"obsTime":1775674800},"SBAT":{"icaoId":"SBAT","flightCategory":"VFR","rawOb":"METAR SBAT 081900Z 10011KT 9999 SCT030 FEW035TCU 29/23 Q1011","temp":29,"dewp":23,"wdir":100,"wspd":11,"visib":"6+","altim":1011,"clouds":[{"cover":"SCT","base":3000},{"cover":"FEW","base":3500}],"obsTime":1775674800},"SBUR":{"icaoId":"SBUR","flightCategory":"VFR","rawOb":"METAR SBUR 081900Z 15007KT 9999 SCT040 27/21 Q1016","temp":27,"dewp":21,"wdir":150,"wspd":7,"visib":"6+","altim":1016,"clouds":[{"cover":"SCT","base":4000}],"obsTime":1775674800},"SBUL":{"icaoId":"SBUL","flightCategory":"VFR","rawOb":"METAR SBUL 081900Z 03005KT 9999 SCT030 FEW040TCU SCT100 27/19 Q1017 RETS","temp":27,"dewp":19,"wdir":30,"wspd":5,"visib":"6+","altim":1017,"clouds":[{"cover":"SCT","base":3000},{"cover":"FEW","base":4000},{"cover":"SCT","base":10000}],"obsTime":1775674800},"SBAR":{"icaoId":"SBAR","flightCategory":"VFR","rawOb":"METAR SBAR 081900Z 14012KT 110V180 9999 VCSH SCT023 FEW026TCU SCT050 29/24 Q1012","temp":29,"dewp":24,"wdir":140,"wspd":12,"visib":"6+","altim":1012,"clouds":[{"cover":"SCT","base":2300},{"cover":"FEW","base":2600},{"cover":"SCT","base":5000}],"obsTime":1775674800},"SBCJ":{"icaoId":"SBCJ","flightCategory":"VFR","rawOb":"METAR SBCJ 081900Z 00000KT 9999 SCT015 27/23 Q1014","temp":27,"dewp":23,"wdir":0,"wspd":0,"visib":"6+","altim":1014,"clouds":[{"cover":"SCT","base":1500}],"obsTime":1775674800},"SBOI":{"icaoId":"SBOI","flightCategory":"VFR","rawOb":"METAR SBOI 082000Z AUTO 07003KT 020V100 9999 FEW026 SCT046 27/26 Q1011","temp":27,"dewp":26,"wdir":70,"wspd":3,"visib":"6+","altim":1011,"clouds":[{"cover":"FEW","base":2600},{"cover":"SCT","base":4600}],"obsTime":1775678400},"SBPB":{"icaoId":"SBPB","flightCategory":"VFR","rawOb":"METAR SBPB 081900Z 03012KT 9999 FEW020 BKN100 30/24 Q1009","temp":30,"dewp":24,"wdir":30,"wspd":12,"visib":"6+","altim":1009,"clouds":[{"cover":"FEW","base":2000},{"cover":"BKN","base":10000}],"obsTime":1775674800},"SBPL":{"icaoId":"SBPL","flightCategory":"VFR","rawOb":"METAR SBPL 081900Z 10004KT 9999 FEW035 33/20 Q1011","temp":33,"dewp":20,"wdir":100,"wspd":4,"visib":"6+","altim":1011,"clouds":[{"cover":"FEW","base":3500}],"obsTime":1775674800},"SBPP":{"icaoId":"SBPP","flightCategory":"MVFR","rawOb":"METAR SBPP 081900Z 19010KT 9999 BKN017 22/20 Q1015","temp":22,"dewp":20,"wdir":190,"wspd":10,"visib":"6+","altim":1015,"clouds":[{"cover":"BKN","base":1700}],"obsTime":1775674800},"SBPS":{"icaoId":"SBPS","flightCategory":"VFR","rawOb":"METAR SBPS 081900Z 07010KT 9999 SCT018 28/25 Q1013","temp":28,"dewp":25,"wdir":70,"wspd":10,"visib":"6+","altim":1013,"clouds":[{"cover":"SCT","base":1800}],"obsTime":1775674800},"SBSJ":{"icaoId":"SBSJ","flightCategory":"MVFR","rawOb":"METAR SBSJ 081900Z 26005KT 240V310 9999 BKN030 BKN090 27/19 Q1014","temp":27,"dewp":19,"wdir":260,"wspd":5,"visib":"6+","altim":1014,"clouds":[{"cover":"BKN","base":3000},{"cover":"BKN","base":9000}],"obsTime":1775674800},"SBTF":{"icaoId":"SBTF","flightCategory":"VFR","rawOb":"METAR SBTF 081900Z 02007KT 9999 SCT017 FEW025TCU SCT090 29/26 Q1010","temp":29,"dewp":26,"wdir":20,"wspd":7,"visib":"6+","altim":1010,"clouds":[{"cover":"SCT","base":1700},{"cover":"FEW","base":2500},{"cover":"SCT","base":9000}],"obsTime":1775674800},"SBTT":{"icaoId":"SBTT","flightCategory":"VFR","rawOb":"METAR SBTT 081900Z 11003KT 9999 SCT025 SCT060 30/23 Q1010","temp":30,"dewp":23,"wdir":110,"wspd":3,"visib":"6+","altim":1010,"clouds":[{"cover":"SCT","base":2500},{"cover":"SCT","base":6000}],"obsTime":1775674800},"SBUY":{"icaoId":"SBUY","flightCategory":"VFR","rawOb":"METAR SBUY 081900Z 20002KT 9999 SCT020 BKN100 30/25 Q1009","temp":30,"dewp":25,"wdir":200,"wspd":2,"visib":"6+","altim":1009,"clouds":[{"cover":"SCT","base":2000},{"cover":"BKN","base":10000}],"obsTime":1775674800},"SBDN":{"icaoId":"SBDN","flightCategory":"VFR","rawOb":"METAR SBDN 081900Z 28008KT 9999 BKN040 FEW060TCU 30/21 Q1012","temp":30,"dewp":21,"wdir":280,"wspd":8,"visib":"6+","altim":1012,"clouds":[{"cover":"BKN","base":4000},{"cover":"FEW","base":6000}],"obsTime":1775674800},"SBES":{"icaoId":"SBES","flightCategory":"VFR","rawOb":"METAR SBES 081900Z 07009KT 030V090 9999 FEW030 32/// Q1009","temp":null,"dewp":null,"wdir":70,"wspd":9,"visib":"6+","altim":1009,"clouds":[{"cover":"FEW","base":3000}],"obsTime":1775674800},"SBGM":{"icaoId":"SBGM","flightCategory":"VFR","rawOb":"METAR SBGM 081900Z 04005KT 9000 2000NE -TSRA FEW010CB OVC050 26/23 Q1009","temp":26,"dewp":23,"wdir":40,"wspd":5,"visib":5.59,"altim":1009,"clouds":[{"cover":"FEW","base":1000},{"cover":"OVC","base":5000}],"obsTime":1775674800},"SBIP":{"icaoId":"SBIP","flightCategory":"VFR","rawOb":"METAR SBIP 081900Z AUTO 36005KT 330V050 CAVOK 32/20 Q1013","temp":32,"dewp":20,"wdir":360,"wspd":5,"visib":"6+","altim":1013,"clouds":[],"obsTime":1775674800},"SBKG":{"icaoId":"SBKG","flightCategory":"VFR","rawOb":"METAR SBKG 081900Z 10008KT 9999 SCT015 BKN070 24/23 Q1014","temp":24,"dewp":23,"wdir":100,"wspd":8,"visib":"6+","altim":1014,"clouds":[{"cover":"SCT","base":1500},{"cover":"BKN","base":7000}],"obsTime":1775674800},"SBSM":{"icaoId":"SBSM","flightCategory":"VFR","rawOb":"METAR SBSM 081900Z 29011KT 9999 FEW011 SCT030 BKN045 21/18 Q1011","temp":21,"dewp":18,"wdir":290,"wspd":11,"visib":"6+","altim":1011,"clouds":[{"cover":"FEW","base":1100},{"cover":"SCT","base":3000},{"cover":"BKN","base":4500}],"obsTime":1775674800},"SBSR":{"icaoId":"SBSR","flightCategory":"VFR","rawOb":"METAR SBSR 081900Z VRB04KT 9999 SCT020 30/21 Q1014","temp":30,"dewp":21,"wdir":"VRB","wspd":4,"visib":"6+","altim":1014,"clouds":[{"cover":"SCT","base":2000}],"obsTime":1775674800},"SBVH":{"icaoId":"SBVH","flightCategory":"MVFR","rawOb":"METAR SBVH 081900Z 04002KT 8000 TS SCT030 FEW040CB OVC081 23/21 Q1013","temp":23,"dewp":21,"wdir":40,"wspd":2,"visib":4.97,"altim":1013,"clouds":[{"cover":"SCT","base":3000},{"cover":"FEW","base":4000},{"cover":"OVC","base":8100}],"obsTime":1775674800},"SBSC":{"icaoId":"SBSC","flightCategory":"VFR","rawOb":"METAR SBSC 081900Z 03006KT 9999 FEW021 FEW035TCU 34/24 Q1008","temp":34,"dewp":24,"wdir":30,"wspd":6,"visib":"6+","altim":1008,"clouds":[{"cover":"FEW","base":2100},{"cover":"FEW","base":3500}],"obsTime":1775674800},"SBAX":{"icaoId":"SBAX","flightCategory":"VFR","rawOb":"METAR SBAX 081900Z 04004KT 9999 SCT012 25/21 Q1017","temp":25,"dewp":21,"wdir":40,"wspd":4,"visib":"6+","altim":1017,"clouds":[{"cover":"SCT","base":1200}],"obsTime":1775674800},"SBBH":{"icaoId":"SBBH","flightCategory":"VFR","rawOb":"METAR SBBH 081900Z 31006KT 9999 SCT040 FEW045TCU SCT090 30/19 Q1016","temp":30,"dewp":19,"wdir":310,"wspd":6,"visib":"6+","altim":1016,"clouds":[{"cover":"SCT","base":4000},{"cover":"FEW","base":4500},{"cover":"SCT","base":9000}],"obsTime":1775674800},"SBBQ":{"icaoId":"SBBQ","flightCategory":"VFR","rawOb":"METAR SBBQ 081900Z COR 29008G21KT 9999 BKN040 FEW050TCU 25/18 Q1020","temp":25,"dewp":18,"wdir":290,"wspd":8,"visib":"6+","altim":1020,"clouds":[{"cover":"BKN","base":4000},{"cover":"FEW","base":5000}],"obsTime":1775674800},"SBBU":{"icaoId":"SBBU","flightCategory":"VFR","rawOb":"METAR SBBU 081900Z 31009KT 9999 SCT030 29/23 Q1014","temp":29,"dewp":23,"wdir":310,"wspd":9,"visib":"6+","altim":1014,"clouds":[{"cover":"SCT","base":3000}],"obsTime":1775674800},"SBCA":{"icaoId":"SBCA","flightCategory":"VFR","rawOb":"METAR SBCA 081900Z 25007KT 9999 FEW010 SCT015 22/16 Q1015","temp":22,"dewp":16,"wdir":250,"wspd":7,"visib":"6+","altim":1015,"clouds":[{"cover":"FEW","base":1000},{"cover":"SCT","base":1500}],"obsTime":1775674800},"SBCC":{"icaoId":"SBCC","flightCategory":"MVFR","rawOb":"METAR SBCC 081900Z 08008KT 9999 BKN020 FEW025TCU 32/20 Q1011","temp":32,"dewp":20,"wdir":80,"wspd":8,"visib":"6+","altim":1011,"clouds":[{"cover":"BKN","base":2000},{"cover":"FEW","base":2500}],"obsTime":1775674800},"SBCO":{"icaoId":"SBCO","flightCategory":"MVFR","rawOb":"METAR SBCO 081900Z 29018G30KT 9999 BKN030 24/16 Q1008","temp":24,"dewp":16,"wdir":290,"wspd":18,"visib":"6+","altim":1008,"clouds":[{"cover":"BKN","base":3000}],"obsTime":1775674800},"SBJP":{"icaoId":"SBJP","flightCategory":"IFR","rawOb":"METAR SBJP 081900Z 12010KT 090V150 3000 -RA BKN005 BKN020 25/24 Q1012","temp":25,"dewp":24,"wdir":120,"wspd":10,"visib":1.86,"altim":1012,"clouds":[{"cover":"BKN","base":500},{"cover":"BKN","base":2000}],"obsTime":1775674800},"SBAF":{"icaoId":"SBAF","flightCategory":"VFR","rawOb":"METAR SBAF 081900Z 27004KT 9999 SCT045 35/22 Q1009","temp":35,"dewp":22,"wdir":270,"wspd":4,"visib":"6+","altim":1009,"clouds":[{"cover":"SCT","base":4500}],"obsTime":1775674800},"SBGW":{"icaoId":"SBGW","flightCategory":"MVFR","rawOb":"METAR SBGW 081900Z 05004KT 350V120 9999 BKN030 BKN100 28/18 Q1013","temp":28,"dewp":18,"wdir":50,"wspd":4,"visib":"6+","altim":1013,"clouds":[{"cover":"BKN","base":3000},{"cover":"BKN","base":10000}],"obsTime":1775674800},"SBJR":{"icaoId":"SBJR","flightCategory":"VFR","rawOb":"METAR SBJR 081900Z 24003KT CAVOK 36/23 Q1008","temp":36,"dewp":23,"wdir":240,"wspd":3,"visib":"6+","altim":1008,"clouds":[],"obsTime":1775674800},"SBLS":{"icaoId":"SBLS","flightCategory":"VFR","rawOb":"METAR SBLS 081900Z 33003KT 220V020 9999 SCT043 29/19 Q1016","temp":29,"dewp":19,"wdir":330,"wspd":3,"visib":"6+","altim":1016,"clouds":[{"cover":"SCT","base":4300}],"obsTime":1775674800},"SBMT":{"icaoId":"SBMT","flightCategory":"VFR","rawOb":"METAR SBMT 081900Z 30007G17KT 9999 SCT030 BKN070 24/17 Q1014","temp":24,"dewp":17,"wdir":300,"wspd":7,"visib":"6+","altim":1014,"clouds":[{"cover":"SCT","base":3000},{"cover":"BKN","base":7000}],"obsTime":1775674800},"SBIH":{"icaoId":"SBIH","flightCategory":"VFR","rawOb":"METAR SBIH 081900Z 04005KT 9999 SCT020 32/25 Q1008","temp":32,"dewp":25,"wdir":40,"wspd":5,"visib":"6+","altim":1008,"clouds":[{"cover":"SCT","base":2000}],"obsTime":1775674800},"SBTA":{"icaoId":"SBTA","flightCategory":"VFR","rawOb":"METAR SBTA 081900Z 02005KT 9999 -RA BKN040 FEW045TCU BKN100 26/20 Q1013","temp":26,"dewp":20,"wdir":20,"wspd":5,"visib":"6+","altim":1013,"clouds":[{"cover":"BKN","base":4000},{"cover":"FEW","base":4500},{"cover":"BKN","base":10000}],"obsTime":1775674800},"SBAN":{"icaoId":"SBAN","flightCategory":"MVFR","rawOb":"METAR SBAN 081900Z VRB01KT 5000 -TSRA SCT015 BKN025 FEW035CB BKN100 24/18 Q1018 RETS","temp":24,"dewp":18,"wdir":"VRB","wspd":1,"visib":3.11,"altim":1018,"clouds":[{"cover":"SCT","base":1500},{"cover":"BKN","base":2500},{"cover":"FEW","base":3500},{"cover":"BKN","base":10000}],"obsTime":1775674800},"SBJV":{"icaoId":"SBJV","flightCategory":"VFR","rawOb":"METAR SBJV 081900Z 14008KT 9999 SCT035 30/24 Q1006","temp":30,"dewp":24,"wdir":140,"wspd":8,"visib":"6+","altim":1006,"clouds":[{"cover":"SCT","base":3500}],"obsTime":1775674800},"SBST":{"icaoId":"SBST","flightCategory":"VFR","rawOb":"METAR SBST 081900Z 01004KT 340V050 9999 BKN040 BKN100 30/19 Q1008","temp":30,"dewp":19,"wdir":10,"wspd":4,"visib":"6+","altim":1008,"clouds":[{"cover":"BKN","base":4000},{"cover":"BKN","base":10000}],"obsTime":1775674800}}}