{"updated":1782241296,"count":87,"data":{"SBSP":{"icaoId":"SBSP","flightCategory":"MVFR","rawOb":"SPECI SBSP 231715Z 12004KT 7000 -RA BKN013 OVC020 17/16 Q1017 RERA","temp":17,"dewp":16,"wdir":120,"wspd":4,"visib":4.35,"altim":1017,"clouds":[{"cover":"BKN","base":1300},{"cover":"OVC","base":2000}],"obsTime":1782234900},"SBKP":{"icaoId":"SBKP","flightCategory":"VFR","rawOb":"METAR SBKP 231800Z 02010KT 9000 FEW010 BKN040 BKN100 19/17 Q1015","temp":19,"dewp":17,"wdir":20,"wspd":10,"visib":5.59,"altim":1015,"clouds":[{"cover":"FEW","base":1000},{"cover":"BKN","base":4000},{"cover":"BKN","base":10000}],"obsTime":1782237600},"SBEG":{"icaoId":"SBEG","flightCategory":"VFR","rawOb":"METAR SBEG 231800Z 13009KT 9999 SCT035 FEW040TCU 33/22 Q1009","temp":33,"dewp":22,"wdir":130,"wspd":9,"visib":"6+","altim":1009,"clouds":[{"cover":"SCT","base":3500},{"cover":"FEW","base":4000}],"obsTime":1782237600},"SBLO":{"icaoId":"SBLO","flightCategory":"VFR","rawOb":"METAR SBLO 231800Z 27006KT 220V300 9999 FEW025 BKN080 19/10 Q1016","temp":19,"dewp":10,"wdir":270,"wspd":6,"visib":"6+","altim":1016,"clouds":[{"cover":"FEW","base":2500},{"cover":"BKN","base":8000}],"obsTime":1782237600},"SBMA":{"icaoId":"SBMA","flightCategory":"VFR","rawOb":"METAR SBMA 231800Z 01002KT 9999 FEW023 35/20 Q1009","temp":35,"dewp":20,"wdir":10,"wspd":2,"visib":"6+","altim":1009,"clouds":[{"cover":"FEW","base":2300}],"obsTime":1782237600},"SBBR":{"icaoId":"SBBR","flightCategory":"MVFR","rawOb":"METAR SBBR 231800Z 05004KT 9999 BKN030 26/13 Q1018","temp":26,"dewp":13,"wdir":50,"wspd":4,"visib":"6+","altim":1018,"clouds":[{"cover":"BKN","base":3000}],"obsTime":1782237600},"SBVT":{"icaoId":"SBVT","flightCategory":"VFR","rawOb":"METAR SBVT 231800Z 02010KT CAVOK 29/16 Q1013","temp":29,"dewp":16,"wdir":20,"wspd":10,"visib":"6+","altim":1013,"clouds":[],"obsTime":1782237600},"SBFI":{"icaoId":"SBFI","flightCategory":"MVFR","rawOb":"METAR SBFI 231800Z 20008KT 9999 BKN020 14/06 Q1019","temp":14,"dewp":6,"wdir":200,"wspd":8,"visib":"6+","altim":1019,"clouds":[{"cover":"BKN","base":2000}],"obsTime":1782237600},"SBCG":{"icaoId":"SBCG","flightCategory":"MVFR","rawOb":"SPECI SBCG 231725Z 16011KT 6000 -RA SCT020 BKN040 12/09 Q1018 RERA","temp":12,"dewp":9,"wdir":160,"wspd":11,"visib":3.73,"altim":1018,"clouds":[{"cover":"SCT","base":2000},{"cover":"BKN","base":4000}],"obsTime":1782235500},"SBFL":{"icaoId":"SBFL","flightCategory":"VFR","rawOb":"METAR SBFL 231800Z 10004KT 040V160 9999 SCT025 BKN045 15/08 Q1017","temp":15,"dewp":8,"wdir":100,"wspd":4,"visib":"6+","altim":1017,"clouds":[{"cover":"SCT","base":2500},{"cover":"BKN","base":4500}],"obsTime":1782237600},"SBMO":{"icaoId":"SBMO","flightCategory":"VFR","rawOb":"METAR SBMO 231800Z 13008KT 9999 FEW021 BKN065 26/22 Q1013","temp":26,"dewp":22,"wdir":130,"wspd":8,"visib":"6+","altim":1013,"clouds":[{"cover":"FEW","base":2100},{"cover":"BKN","base":6500}],"obsTime":1782237600},"SBCP":{"icaoId":"SBCP","flightCategory":"VFR","rawOb":"METAR SBCP 231800Z 34009KT CAVOK 30/16 Q1012","temp":30,"dewp":16,"wdir":340,"wspd":9,"visib":"6+","altim":1012,"clouds":[],"obsTime":1782237600},"SBMQ":{"icaoId":"SBMQ","flightCategory":"VFR","rawOb":"METAR SBMQ 231800Z 05007KT 9999 SCT033 FEW035TCU SCT100 33/25 Q1009","temp":33,"dewp":25,"wdir":50,"wspd":7,"visib":"6+","altim":1009,"clouds":[{"cover":"SCT","base":3300},{"cover":"FEW","base":3500},{"cover":"SCT","base":10000}],"obsTime":1782237600},"SBFZ":{"icaoId":"SBFZ","flightCategory":"VFR","rawOb":"METAR SBFZ 231800Z 10012KT 9999 FEW027 30/22 Q1010","temp":30,"dewp":22,"wdir":100,"wspd":12,"visib":"6+","altim":1010,"clouds":[{"cover":"FEW","base":2700}],"obsTime":1782237600},"SBPA":{"icaoId":"SBPA","flightCategory":"VFR","rawOb":"METAR SBPA 231800Z 28016KT 9999 BKN040 13/04 Q1017","temp":13,"dewp":4,"wdir":280,"wspd":16,"visib":"6+","altim":1017,"clouds":[{"cover":"BKN","base":4000}],"obsTime":1782237600},"SBCB":{"icaoId":"SBCB","flightCategory":"VFR","rawOb":"METAR SBCB 231800Z /////KT CAVOK 28/16 Q1012","temp":28,"dewp":16,"wdir":null,"wspd":null,"visib":"6+","altim":1012,"clouds":[],"obsTime":1782237600},"SBPJ":{"icaoId":"SBPJ","flightCategory":"VFR","rawOb":"METAR SBPJ 231800Z 33007KT CAVOK 35/14 Q1011","temp":35,"dewp":14,"wdir":330,"wspd":7,"visib":"6+","altim":1011,"clouds":[],"obsTime":1782237600},"SBGL":{"icaoId":"SBGL","flightCategory":"VFR","rawOb":"METAR SBGL 231800Z 21015KT CAVOK 27/19 Q1012","temp":27,"dewp":19,"wdir":210,"wspd":15,"visib":"6+","altim":1012,"clouds":[],"obsTime":1782237600},"SBBE":{"icaoId":"SBBE","flightCategory":"VFR","rawOb":"METAR SBBE 231800Z 34009KT 9999 BKN040 FEW041TCU 30/25 Q1010","temp":30,"dewp":25,"wdir":340,"wspd":9,"visib":"6+","altim":1010,"clouds":[{"cover":"BKN","base":4000},{"cover":"FEW","base":4100}],"obsTime":1782237600},"SBPV":{"icaoId":"SBPV","flightCategory":"VFR","rawOb":"METAR SBPV 231800Z 16004KT 9999 SCT030 FEW035TCU 32/21 Q1010","temp":32,"dewp":21,"wdir":160,"wspd":4,"visib":"6+","altim":1010,"clouds":[{"cover":"SCT","base":3000},{"cover":"FEW","base":3500}],"obsTime":1782237600},"SBGO":{"icaoId":"SBGO","flightCategory":"VFR","rawOb":"METAR SBGO 231800Z 31004KT 9999 SCT049 SCT070 30/16 Q1015","temp":30,"dewp":16,"wdir":310,"wspd":4,"visib":"6+","altim":1015,"clouds":[{"cover":"SCT","base":4900},{"cover":"SCT","base":7000}],"obsTime":1782237600},"SBRB":{"icaoId":"SBRB","flightCategory":"MVFR","rawOb":"METAR SBRB 231800Z 33005KT 8000 -SHRA BKN025 30/25 Q1012","temp":30,"dewp":25,"wdir":330,"wspd":5,"visib":4.97,"altim":1012,"clouds":[{"cover":"BKN","base":2500}],"obsTime":1782237600},"SBCR":{"icaoId":"SBCR","flightCategory":"VFR","rawOb":"METAR SBCR 231800Z 21009KT 9999 SCT040 BKN070 16/09 Q1018","temp":16,"dewp":9,"wdir":210,"wspd":9,"visib":"6+","altim":1018,"clouds":[{"cover":"SCT","base":4000},{"cover":"BKN","base":7000}],"obsTime":1782237600},"SBRF":{"icaoId":"SBRF","flightCategory":"MVFR","rawOb":"METAR SBRF 231800Z 16008KT 130V200 9999 BKN022 BKN050 26/24 Q1013","temp":26,"dewp":24,"wdir":160,"wspd":8,"visib":"6+","altim":1013,"clouds":[{"cover":"BKN","base":2200},{"cover":"BKN","base":5000}],"obsTime":1782237600},"SBGR":{"icaoId":"SBGR","flightCategory":"MVFR","rawOb":"METAR SBGR 231800Z 15003KT 7000 -RA BKN023 BKN033 OVC083 19/18 Q1016","temp":19,"dewp":18,"wdir":150,"wspd":3,"visib":4.35,"altim":1016,"clouds":[{"cover":"BKN","base":2300},{"cover":"BKN","base":3300},{"cover":"OVC","base":8300}],"obsTime":1782237600},"SBSG":{"icaoId":"SBSG","flightCategory":"MVFR","rawOb":"METAR SBSG 231800Z 12008KT 100V160 9999 VCSH BKN025 FEW030TCU 28/23 Q1012","temp":28,"dewp":23,"wdir":120,"wspd":8,"visib":"6+","altim":1012,"clouds":[{"cover":"BKN","base":2500},{"cover":"FEW","base":3000}],"obsTime":1782237600},"SBSL":{"icaoId":"SBSL","flightCategory":"VFR","rawOb":"METAR SBSL 231800Z 05008KT 9999 SCT025 31/25 Q1010","temp":31,"dewp":25,"wdir":50,"wspd":8,"visib":"6+","altim":1010,"clouds":[{"cover":"SCT","base":2500}],"obsTime":1782237600},"SBCF":{"icaoId":"SBCF","flightCategory":"VFR","rawOb":"METAR SBCF 231800Z 16002KT CAVOK 27/13 Q1017","temp":27,"dewp":13,"wdir":160,"wspd":2,"visib":"6+","altim":1017,"clouds":[],"obsTime":1782237600},"SBCT":{"icaoId":"SBCT","flightCategory":"MVFR","rawOb":"METAR SBCT 231800Z 22004KT 190V250 9999 OVC015 11/08 Q1017","temp":11,"dewp":8,"wdir":220,"wspd":4,"visib":"6+","altim":1017,"clouds":[{"cover":"OVC","base":1500}],"obsTime":1782237600},"SBBV":{"icaoId":"SBBV","flightCategory":"MVFR","rawOb":"METAR SBBV 231800Z 12002KT 8000 BKN030 FEW035TCU BKN070 32/24 Q1010","temp":32,"dewp":24,"wdir":120,"wspd":2,"visib":4.97,"altim":1010,"clouds":[{"cover":"BKN","base":3000},{"cover":"FEW","base":3500},{"cover":"BKN","base":7000}],"obsTime":1782237600},"SBSN":{"icaoId":"SBSN","flightCategory":"VFR","rawOb":"METAR SBSN 231800Z 06008KT 9999 SCT023 FEW026TCU 31/24 Q1010","temp":31,"dewp":24,"wdir":60,"wspd":8,"visib":"6+","altim":1010,"clouds":[{"cover":"SCT","base":2300},{"cover":"FEW","base":2600}],"obsTime":1782237600},"SBTE":{"icaoId":"SBTE","flightCategory":"VFR","rawOb":"METAR SBTE 231800Z 08004KT 9999 SCT040 34/20 Q1009","temp":34,"dewp":20,"wdir":80,"wspd":4,"visib":"6+","altim":1009,"clouds":[{"cover":"SCT","base":4000}],"obsTime":1782237600},"SBSV":{"icaoId":"SBSV","flightCategory":"MVFR","rawOb":"METAR SBSV 231800Z 11011KT 9999 BKN023 FEW030TCU BKN055 25/22 Q1014","temp":25,"dewp":22,"wdir":110,"wspd":11,"visib":"6+","altim":1014,"clouds":[{"cover":"BKN","base":2300},{"cover":"FEW","base":3000},{"cover":"BKN","base":5500}],"obsTime":1782237600},"SBCZ":{"icaoId":"SBCZ","flightCategory":"MVFR","rawOb":"METAR SBCZ 231800Z 36006KT 9999 BKN030 31/24 Q1012","temp":31,"dewp":24,"wdir":360,"wspd":6,"visib":"6+","altim":1012,"clouds":[{"cover":"BKN","base":3000}],"obsTime":1782237600},"SBHT":{"icaoId":"SBHT","flightCategory":"MVFR","rawOb":"METAR SBHT 231800Z 10005KT 9999 BKN030 32/23 Q1010","temp":32,"dewp":23,"wdir":100,"wspd":5,"visib":"6+","altim":1010,"clouds":[{"cover":"BKN","base":3000}],"obsTime":1782237600},"SBIL":{"icaoId":"SBIL","flightCategory":"VFR","rawOb":"METAR SBIL 231800Z 17006KT 9999 FEW027 BKN080 27/22 Q1015","temp":27,"dewp":22,"wdir":170,"wspd":6,"visib":"6+","altim":1015,"clouds":[{"cover":"FEW","base":2700},{"cover":"BKN","base":8000}],"obsTime":1782237600},"SBJU":{"icaoId":"SBJU","flightCategory":"VFR","rawOb":"METAR SBJU 231800Z 15010KT 9999 SCT022 33/17 Q1013","temp":33,"dewp":17,"wdir":150,"wspd":10,"visib":"6+","altim":1013,"clouds":[{"cover":"SCT","base":2200}],"obsTime":1782237600},"SBME":{"icaoId":"SBME","flightCategory":"VFR","rawOb":"METAR SBME 231800Z 11007KT 060V130 CAVOK 28/20 Q1011","temp":28,"dewp":20,"wdir":110,"wspd":7,"visib":"6+","altim":1011,"clouds":[],"obsTime":1782237600},"SBMG":{"icaoId":"SBMG","flightCategory":"VFR","rawOb":"METAR SBMG 231800Z 22009KT CAVOK 13/09 Q1016","temp":13,"dewp":9,"wdir":220,"wspd":9,"visib":"6+","altim":1016,"clouds":[],"obsTime":1782237600},"SBMK":{"icaoId":"SBMK","flightCategory":"VFR","rawOb":"METAR SBMK 231800Z 16004KT CAVOK 28/12 Q1016","temp":28,"dewp":12,"wdir":160,"wspd":4,"visib":"6+","altim":1016,"clouds":[],"obsTime":1782237600},"SBNT":{"icaoId":"SBNT","flightCategory":"VFR","rawOb":"METAR SBNT 231800Z 14016KT 9999 FEW025 SCT050 29/22 Q1012","temp":29,"dewp":22,"wdir":140,"wspd":16,"visib":"6+","altim":1012,"clouds":[{"cover":"FEW","base":2500},{"cover":"SCT","base":5000}],"obsTime":1782237600},"SBAT":{"icaoId":"SBAT","flightCategory":"VFR","rawOb":"METAR SBAT 231800Z 03002KT 9999 VCSH SCT035 FEW040TCU 33/21 Q1011","temp":33,"dewp":21,"wdir":30,"wspd":2,"visib":"6+","altim":1011,"clouds":[{"cover":"SCT","base":3500},{"cover":"FEW","base":4000}],"obsTime":1782237600},"SBUL":{"icaoId":"SBUL","flightCategory":"VFR","rawOb":"METAR SBUL 231800Z 01007KT 310V040 9999 SCT045 FEW048TCU SCT080 25/14 Q1017","temp":25,"dewp":14,"wdir":10,"wspd":7,"visib":"6+","altim":1017,"clouds":[{"cover":"SCT","base":4500},{"cover":"FEW","base":4800},{"cover":"SCT","base":8000}],"obsTime":1782237600},"SBUR":{"icaoId":"SBUR","flightCategory":"VFR","rawOb":"METAR SBUR 231800Z 27003KT 9999 VCSH SCT048 FEW050TCU BKN070 26/15 Q1016","temp":26,"dewp":15,"wdir":270,"wspd":3,"visib":"6+","altim":1016,"clouds":[{"cover":"SCT","base":4800},{"cover":"FEW","base":5000},{"cover":"BKN","base":7000}],"obsTime":1782237600},"SBPS":{"icaoId":"SBPS","flightCategory":"VFR","rawOb":"METAR SBPS 231800Z 09008KT 060V120 9999 SCT025 26/22 Q1015","temp":26,"dewp":22,"wdir":90,"wspd":8,"visib":"6+","altim":1015,"clouds":[{"cover":"SCT","base":2500}],"obsTime":1782237600},"SBOI":{"icaoId":"SBOI","flightCategory":"VFR","rawOb":"METAR SBOI 231800Z AUTO 10006KT 050V150 9999 FEW032 30/24 Q1011","temp":30,"dewp":24,"wdir":100,"wspd":6,"visib":"6+","altim":1011,"clouds":[{"cover":"FEW","base":3200}],"obsTime":1782237600},"SBAR":{"icaoId":"SBAR","flightCategory":"IFR","rawOb":"SPECI SBAR 231725Z 10008KT 2000 -RA SCT008 BKN018 OVC022 25/23 Q1014","temp":25,"dewp":23,"wdir":100,"wspd":8,"visib":1.24,"altim":1014,"clouds":[{"cover":"SCT","base":800},{"cover":"BKN","base":1800},{"cover":"OVC","base":2200}],"obsTime":1782235500},"SBTF":{"icaoId":"SBTF","flightCategory":"VFR","rawOb":"METAR SBTF 231800Z 12007KT 9999 SCT018 FEW025TCU 29/25 Q1010","temp":29,"dewp":25,"wdir":120,"wspd":7,"visib":"6+","altim":1010,"clouds":[{"cover":"SCT","base":1800},{"cover":"FEW","base":2500}],"obsTime":1782237600},"SBCJ":{"icaoId":"SBCJ","flightCategory":"VFR","rawOb":"METAR SBCJ 231800Z 00000KT 9999 FEW022 29/19 Q1015","temp":29,"dewp":19,"wdir":0,"wspd":0,"visib":"6+","altim":1015,"clouds":[{"cover":"FEW","base":2200}],"obsTime":1782237600},"SBSJ":{"icaoId":"SBSJ","flightCategory":"MVFR","rawOb":"SPECI SBSJ 231745Z 17002KT 6000 FEW017 OVC090 18/17 Q1016","temp":18,"dewp":17,"wdir":170,"wspd":2,"visib":3.73,"altim":1016,"clouds":[{"cover":"FEW","base":1700},{"cover":"OVC","base":9000}],"obsTime":1782236700},"SBPL":{"icaoId":"SBPL","flightCategory":"VFR","rawOb":"METAR SBPL 231800Z 11008KT CAVOK 32/12 Q1013","temp":32,"dewp":12,"wdir":110,"wspd":8,"visib":"6+","altim":1013,"clouds":[],"obsTime":1782237600},"SBTT":{"icaoId":"SBTT","flightCategory":"MVFR","rawOb":"METAR SBTT 231800Z 34011KT 9999 BKN020 SCT100 28/24 Q1012","temp":28,"dewp":24,"wdir":340,"wspd":11,"visib":"6+","altim":1012,"clouds":[{"cover":"BKN","base":2000},{"cover":"SCT","base":10000}],"obsTime":1782237600},"SBPP":{"icaoId":"SBPP","flightCategory":"VFR","rawOb":"METAR SBPP 231800Z 20009KT CAVOK 12/04 Q1018","temp":12,"dewp":4,"wdir":200,"wspd":9,"visib":"6+","altim":1018,"clouds":[],"obsTime":1782237600},"SBCO":{"icaoId":"SBCO","flightCategory":"VFR","rawOb":"METAR SBCO 231800Z 29016KT 9999 SCT040 13/03 Q1018","temp":13,"dewp":3,"wdir":290,"wspd":16,"visib":"6+","altim":1018,"clouds":[{"cover":"SCT","base":4000}],"obsTime":1782237600},"SBDN":{"icaoId":"SBDN","flightCategory":"VFR","rawOb":"METAR SBDN 231800Z 25006KT 9999 FEW014 BKN070 15/11 Q1016","temp":15,"dewp":11,"wdir":250,"wspd":6,"visib":"6+","altim":1016,"clouds":[{"cover":"FEW","base":1400},{"cover":"BKN","base":7000}],"obsTime":1782237600},"SBES":{"icaoId":"SBES","flightCategory":"VFR","rawOb":"METAR SBES 231800Z 21008KT 180V240 CAVOK 27/// Q1012","temp":null,"dewp":null,"wdir":210,"wspd":8,"visib":"6+","altim":1012,"clouds":[],"obsTime":1782237600},"SBGM":{"icaoId":"SBGM","flightCategory":"VFR","rawOb":"METAR SBGM 231800Z 34003KT 9999 SCT040 32/21 Q1011","temp":32,"dewp":21,"wdir":340,"wspd":3,"visib":"6+","altim":1011,"clouds":[{"cover":"SCT","base":4000}],"obsTime":1782237600},"SBIP":{"icaoId":"SBIP","flightCategory":"VFR","rawOb":"METAR SBIP 231800Z AUTO 06006KT 030V100 CAVOK 27/16 Q1015","temp":27,"dewp":16,"wdir":60,"wspd":6,"visib":"6+","altim":1015,"clouds":[],"obsTime":1782237600},"SBKG":{"icaoId":"SBKG","flightCategory":"VFR","rawOb":"METAR SBKG 231800Z 13004KT 9999 SCT020 SCT080 24/22 Q1015","temp":24,"dewp":22,"wdir":130,"wspd":4,"visib":"6+","altim":1015,"clouds":[{"cover":"SCT","base":2000},{"cover":"SCT","base":8000}],"obsTime":1782237600},"SBPB":{"icaoId":"SBPB","flightCategory":"VFR","rawOb":"METAR SBPB 231800Z 08012KT 9999 FEW020 31/26 Q1009","temp":31,"dewp":26,"wdir":80,"wspd":12,"visib":"6+","altim":1009,"clouds":[{"cover":"FEW","base":2000}],"obsTime":1782237600},"SBSC":{"icaoId":"SBSC","flightCategory":"VFR","rawOb":"METAR SBSC 231800Z 20014KT 9999 FEW010 24/20 Q1014","temp":24,"dewp":20,"wdir":200,"wspd":14,"visib":"6+","altim":1014,"clouds":[{"cover":"FEW","base":1000}],"obsTime":1782237600},"SBSM":{"icaoId":"SBSM","flightCategory":"VFR","rawOb":"METAR SBSM 231800Z 27008KT 9999 SCT045 13/03 Q1019","temp":13,"dewp":3,"wdir":270,"wspd":8,"visib":"6+","altim":1019,"clouds":[{"cover":"SCT","base":4500}],"obsTime":1782237600},"SBSR":{"icaoId":"SBSR","flightCategory":"IFR","rawOb":"METAR SBSR 231800Z 01004KT 3000 DZ BR BKN005 OVC030 20/20 Q1015","temp":20,"dewp":20,"wdir":10,"wspd":4,"visib":1.86,"altim":1015,"clouds":[{"cover":"BKN","base":500},{"cover":"OVC","base":3000}],"obsTime":1782237600},"SBVH":{"icaoId":"SBVH","flightCategory":"VFR","rawOb":"METAR SBVH 231800Z 21005KT 9999 SCT030 FEW035TCU 27/22 Q1015","temp":27,"dewp":22,"wdir":210,"wspd":5,"visib":"6+","altim":1015,"clouds":[{"cover":"SCT","base":3000},{"cover":"FEW","base":3500}],"obsTime":1782237600},"SBAU":{"icaoId":"SBAU","flightCategory":"IFR","rawOb":"METAR SBAU 231800Z 03003KT 3000 -RA BKN006 BKN010 BKN080 17/16 Q1015","temp":17,"dewp":16,"wdir":30,"wspd":3,"visib":1.86,"altim":1015,"clouds":[{"cover":"BKN","base":600},{"cover":"BKN","base":1000},{"cover":"BKN","base":8000}],"obsTime":1782237600},"SBAX":{"icaoId":"SBAX","flightCategory":"VFR","rawOb":"METAR SBAX 231800Z 03004KT 9999 BKN040 25/14 Q1018","temp":25,"dewp":14,"wdir":30,"wspd":4,"visib":"6+","altim":1018,"clouds":[{"cover":"BKN","base":4000}],"obsTime":1782237600},"SBBH":{"icaoId":"SBBH","flightCategory":"VFR","rawOb":"METAR SBBH 231800Z 26003KT CAVOK 27/14 Q1017","temp":27,"dewp":14,"wdir":260,"wspd":3,"visib":"6+","altim":1017,"clouds":[],"obsTime":1782237600},"SBBQ":{"icaoId":"SBBQ","flightCategory":"VFR","rawOb":"METAR SBBQ 231800Z 27006KT 250V320 9999 FEW030 24/12 Q1020","temp":24,"dewp":12,"wdir":270,"wspd":6,"visib":"6+","altim":1020,"clouds":[{"cover":"FEW","base":3000}],"obsTime":1782237600},"SBBU":{"icaoId":"SBBU","flightCategory":"IFR","rawOb":"METAR SBBU 231800Z 31006KT 3000 RA BR BKN005 FEW025TCU OVC080 20/20 Q1015 RERA","temp":20,"dewp":20,"wdir":310,"wspd":6,"visib":1.86,"altim":1015,"clouds":[{"cover":"BKN","base":500},{"cover":"FEW","base":2500},{"cover":"OVC","base":8000}],"obsTime":1782237600},"SBCA":{"icaoId":"SBCA","flightCategory":"VFR","rawOb":"METAR SBCA 231800Z 19008G18KT 9999 FEW015 11/04 Q1019","temp":11,"dewp":4,"wdir":190,"wspd":8,"visib":"6+","altim":1019,"clouds":[{"cover":"FEW","base":1500}],"obsTime":1782237600},"SBCC":{"icaoId":"SBCC","flightCategory":"VFR","rawOb":"METAR SBCC 231800Z 05008KT 9999 BKN040 32/19 Q1012","temp":32,"dewp":19,"wdir":50,"wspd":8,"visib":"6+","altim":1012,"clouds":[{"cover":"BKN","base":4000}],"obsTime":1782237600},"SBUY":{"icaoId":"SBUY","flightCategory":"VFR","rawOb":"METAR SBUY 231800Z 15008KT 9999 FEW018 SCT020 FEW025TCU 29/24 Q1010","temp":29,"dewp":24,"wdir":150,"wspd":8,"visib":"6+","altim":1010,"clouds":[{"cover":"FEW","base":1800},{"cover":"SCT","base":2000},{"cover":"FEW","base":2500}],"obsTime":1782237600},"SBTU":{"icaoId":"SBTU","flightCategory":"VFR","rawOb":"METAR SBTU 231800Z AUTO 33006KT 310V010 9999 // FEW041/// 32/22 Q1011","temp":32,"dewp":22,"wdir":330,"wspd":6,"visib":"6+","altim":1011,"clouds":[{"cover":"FEW","base":4100}],"obsTime":1782237600},"SBJP":{"icaoId":"SBJP","flightCategory":"IFR","rawOb":"SPECI SBJP 231708Z 13016G26KT 2000 -SHRA BKN010 OVC070 24/23 Q1013","temp":24,"dewp":23,"wdir":130,"wspd":16,"visib":1.24,"altim":1013,"clouds":[{"cover":"BKN","base":1000},{"cover":"OVC","base":7000}],"obsTime":1782234480},"SBJV":{"icaoId":"SBJV","flightCategory":"VFR","rawOb":"METAR SBJV 231800Z 19005KT 150V230 9999 SCT012 BKN040 15/08 Q1017","temp":15,"dewp":8,"wdir":190,"wspd":5,"visib":"6+","altim":1017,"clouds":[{"cover":"SCT","base":1200},{"cover":"BKN","base":4000}],"obsTime":1782237600},"SBNM":{"icaoId":"SBNM","flightCategory":"VFR","rawOb":"METAR SBNM 231800Z 27005KT 9999 SCT030 13/03 Q1020","temp":13,"dewp":3,"wdir":270,"wspd":5,"visib":"6+","altim":1020,"clouds":[{"cover":"SCT","base":3000}],"obsTime":1782237600},"SBPF":{"icaoId":"SBPF","flightCategory":"VFR","rawOb":"METAR SBPF 231800Z 27006KT 9999 FEW025 09/02 Q1018","temp":9,"dewp":2,"wdir":270,"wspd":6,"visib":"6+","altim":1018,"clouds":[{"cover":"FEW","base":2500}],"obsTime":1782237600},"SBAN":{"icaoId":"SBAN","flightCategory":"VFR","rawOb":"METAR SBAN 231800Z VRB06KT 9999 BKN045 27/14 Q1019","temp":27,"dewp":14,"wdir":"VRB","wspd":6,"visib":"6+","altim":1019,"clouds":[{"cover":"BKN","base":4500}],"obsTime":1782237600},"SBLE":{"icaoId":"SBLE","flightCategory":"VFR","rawOb":"METAR SBLE 231800Z AUTO 15004KT 110V210 CAVOK 28/14 Q1015","temp":28,"dewp":14,"wdir":150,"wspd":4,"visib":"6+","altim":1015,"clouds":[],"obsTime":1782237600},"SBAF":{"icaoId":"SBAF","flightCategory":"VFR","rawOb":"METAR SBAF 231800Z 18016KT CAVOK 25/22 Q1013","temp":25,"dewp":22,"wdir":180,"wspd":16,"visib":"6+","altim":1013,"clouds":[],"obsTime":1782237600},"SBGW":{"icaoId":"SBGW","flightCategory":"VFR","rawOb":"METAR SBGW 231800Z VRB02KT 9999 FEW040 BKN070 24/15 Q1015","temp":24,"dewp":15,"wdir":"VRB","wspd":2,"visib":"6+","altim":1015,"clouds":[{"cover":"FEW","base":4000},{"cover":"BKN","base":7000}],"obsTime":1782237600},"SBJR":{"icaoId":"SBJR","flightCategory":"VFR","rawOb":"METAR SBJR 231800Z 21011KT 9999 FEW020 26/20 Q1013","temp":26,"dewp":20,"wdir":210,"wspd":11,"visib":"6+","altim":1013,"clouds":[{"cover":"FEW","base":2000}],"obsTime":1782237600},"SBLS":{"icaoId":"SBLS","flightCategory":"VFR","rawOb":"METAR SBLS 231800Z 36004KT 260V020 CAVOK 26/13 Q1017","temp":26,"dewp":13,"wdir":360,"wspd":4,"visib":"6+","altim":1017,"clouds":[],"obsTime":1782237600},"SBMT":{"icaoId":"SBMT","flightCategory":"IFR","rawOb":"SPECI SBMT 231704Z VRB03KT 4000 -RA BR BKN019 BKN021 18/18 Q1016","temp":18,"dewp":18,"wdir":"VRB","wspd":3,"visib":2.49,"altim":1016,"clouds":[{"cover":"BKN","base":1900},{"cover":"BKN","base":2100}],"obsTime":1782234240},"SBST":{"icaoId":"SBST","flightCategory":"IFR","rawOb":"METAR SBST 231800Z 00000KT 3000 -RA BR OVC007 18/17 Q1015","temp":18,"dewp":17,"wdir":0,"wspd":0,"visib":1.86,"altim":1015,"clouds":[{"cover":"OVC","base":700}],"obsTime":1782237600},"SBTA":{"icaoId":"SBTA","flightCategory":"VFR","rawOb":"METAR SBTA 231800Z VRB01KT 9999 FEW015 BKN080 19/17 Q1014","temp":19,"dewp":17,"wdir":"VRB","wspd":1,"visib":"6+","altim":1014,"clouds":[{"cover":"FEW","base":1500},{"cover":"BKN","base":8000}],"obsTime":1782237600},"SBIH":{"icaoId":"SBIH","flightCategory":"VFR","rawOb":"METAR SBIH 231800Z 07007KT 9999 SCT020 FEW025TCU 33/24 Q1009","temp":33,"dewp":24,"wdir":70,"wspd":7,"visib":"6+","altim":1009,"clouds":[{"cover":"SCT","base":2000},{"cover":"FEW","base":2500}],"obsTime":1782237600}}}