{"updated":1781201610,"count":87,"data":{"SBCF":{"icaoId":"SBCF","flightCategory":"MVFR","rawOb":"METAR SBCF 111700Z 22005KT 170V240 7000 -RA SCT045 BKN070 21/17 Q1019","temp":21,"dewp":17,"wdir":220,"wspd":5,"visib":4.35,"altim":1019,"clouds":[{"cover":"SCT","base":4500},{"cover":"BKN","base":7000}],"obsTime":1781197200},"SBAT":{"icaoId":"SBAT","flightCategory":"VFR","rawOb":"METAR SBAT 111700Z 23001KT 9999 SCT025 FEW030TCU 31/22 Q1014","temp":31,"dewp":22,"wdir":230,"wspd":1,"visib":"6+","altim":1014,"clouds":[{"cover":"SCT","base":2500},{"cover":"FEW","base":3000}],"obsTime":1781197200},"SBBE":{"icaoId":"SBBE","flightCategory":"VFR","rawOb":"METAR SBBE 111700Z 09010KT 9999 BKN040 32/23 Q1011","temp":32,"dewp":23,"wdir":90,"wspd":10,"visib":"6+","altim":1011,"clouds":[{"cover":"BKN","base":4000}],"obsTime":1781197200},"SBBR":{"icaoId":"SBBR","flightCategory":"VFR","rawOb":"METAR SBBR 111700Z 08007KT 050V140 9999 4000E VCSH BKN045 FEW055TCU BKN100 24/16 Q1020","temp":24,"dewp":16,"wdir":80,"wspd":7,"visib":"6+","altim":1020,"clouds":[{"cover":"BKN","base":4500},{"cover":"FEW","base":5500},{"cover":"BKN","base":10000}],"obsTime":1781197200},"SBVT":{"icaoId":"SBVT","flightCategory":"VFR","rawOb":"METAR SBVT 111700Z 07008KT 9999 FEW030 26/20 Q1015","temp":26,"dewp":20,"wdir":70,"wspd":8,"visib":"6+","altim":1015,"clouds":[{"cover":"FEW","base":3000}],"obsTime":1781197200},"SBBV":{"icaoId":"SBBV","flightCategory":"IFR","rawOb":"METAR SBBV 111700Z 21012KT 3000 SHRA FEW015 SCT020 FEW045TCU BKN070 25/24 Q1014","temp":25,"dewp":24,"wdir":210,"wspd":12,"visib":1.86,"altim":1014,"clouds":[{"cover":"FEW","base":1500},{"cover":"SCT","base":2000},{"cover":"FEW","base":4500},{"cover":"BKN","base":7000}],"obsTime":1781197200},"SBCB":{"icaoId":"SBCB","flightCategory":"VFR","rawOb":"METAR SBCB 111700Z 24003KT 9999 -DZ FEW020 SCT040 OVC070 23/21 Q1016","temp":23,"dewp":21,"wdir":240,"wspd":3,"visib":"6+","altim":1016,"clouds":[{"cover":"FEW","base":2000},{"cover":"SCT","base":4000},{"cover":"OVC","base":7000}],"obsTime":1781197200},"SBCG":{"icaoId":"SBCG","flightCategory":"VFR","rawOb":"METAR SBCG 111700Z 29011KT 9999 SCT040 26/18 Q1015","temp":26,"dewp":18,"wdir":290,"wspd":11,"visib":"6+","altim":1015,"clouds":[{"cover":"SCT","base":4000}],"obsTime":1781197200},"SBCP":{"icaoId":"SBCP","flightCategory":"VFR","rawOb":"METAR SBCP 111700Z 05004KT 9999 SCT020 BKN080 27/19 Q1015","temp":27,"dewp":19,"wdir":50,"wspd":4,"visib":"6+","altim":1015,"clouds":[{"cover":"SCT","base":2000},{"cover":"BKN","base":8000}],"obsTime":1781197200},"SBCR":{"icaoId":"SBCR","flightCategory":"VFR","rawOb":"METAR SBCR 111700Z 30006KT 270V350 9999 SCT035 29/19 Q1012","temp":29,"dewp":19,"wdir":300,"wspd":6,"visib":"6+","altim":1012,"clouds":[{"cover":"SCT","base":3500}],"obsTime":1781197200},"SBCT":{"icaoId":"SBCT","flightCategory":"MVFR","rawOb":"METAR SBCT 111700Z 32008KT 9999 BKN030 19/12 Q1017","temp":19,"dewp":12,"wdir":320,"wspd":8,"visib":"6+","altim":1017,"clouds":[{"cover":"BKN","base":3000}],"obsTime":1781197200},"SBCZ":{"icaoId":"SBCZ","flightCategory":"MVFR","rawOb":"METAR SBCZ 111700Z VRB02KT 9999 VCSH BKN022 27/25 Q1013","temp":27,"dewp":25,"wdir":"VRB","wspd":2,"visib":"6+","altim":1013,"clouds":[{"cover":"BKN","base":2200}],"obsTime":1781197200},"SBEG":{"icaoId":"SBEG","flightCategory":"VFR","rawOb":"METAR SBEG 111700Z 04008KT 360V070 9999 SCT025 SCT100 31/24 Q1012","temp":31,"dewp":24,"wdir":40,"wspd":8,"visib":"6+","altim":1012,"clouds":[{"cover":"SCT","base":2500},{"cover":"SCT","base":10000}],"obsTime":1781197200},"SBFI":{"icaoId":"SBFI","flightCategory":"MVFR","rawOb":"METAR SBFI 111700Z 06005KT 9999 FEW010 OVC023 19/18 Q1013","temp":19,"dewp":18,"wdir":60,"wspd":5,"visib":"6+","altim":1013,"clouds":[{"cover":"FEW","base":1000},{"cover":"OVC","base":2300}],"obsTime":1781197200},"SBFL":{"icaoId":"SBFL","flightCategory":"MVFR","rawOb":"METAR SBFL 111700Z 35007KT 9999 FEW014 BKN030 20/18 Q1014","temp":20,"dewp":18,"wdir":350,"wspd":7,"visib":"6+","altim":1014,"clouds":[{"cover":"FEW","base":1400},{"cover":"BKN","base":3000}],"obsTime":1781197200},"SBFZ":{"icaoId":"SBFZ","flightCategory":"VFR","rawOb":"METAR SBFZ 111700Z 12010KT 9999 FEW030 SCT070 31/22 Q1011","temp":31,"dewp":22,"wdir":120,"wspd":10,"visib":"6+","altim":1011,"clouds":[{"cover":"FEW","base":3000},{"cover":"SCT","base":7000}],"obsTime":1781197200},"SBGL":{"icaoId":"SBGL","flightCategory":"IFR","rawOb":"METAR SBGL 111700Z 05006KT 030V090 4000 BR FEW008 SCT020 OVC050 22/20 Q1015","temp":22,"dewp":20,"wdir":50,"wspd":6,"visib":2.49,"altim":1015,"clouds":[{"cover":"FEW","base":800},{"cover":"SCT","base":2000},{"cover":"OVC","base":5000}],"obsTime":1781197200},"SBGO":{"icaoId":"SBGO","flightCategory":"VFR","rawOb":"METAR SBGO 111700Z 17005KT 130V220 9999 FEW048 BKN100 28/15 Q1018","temp":28,"dewp":15,"wdir":170,"wspd":5,"visib":"6+","altim":1018,"clouds":[{"cover":"FEW","base":4800},{"cover":"BKN","base":10000}],"obsTime":1781197200},"SBGR":{"icaoId":"SBGR","flightCategory":"MVFR","rawOb":"METAR SBGR 111700Z 27009KT 9999 BKN019 19/15 Q1019","temp":19,"dewp":15,"wdir":270,"wspd":9,"visib":"6+","altim":1019,"clouds":[{"cover":"BKN","base":1900}],"obsTime":1781197200},"SBHT":{"icaoId":"SBHT","flightCategory":"MVFR","rawOb":"METAR SBHT 111700Z 11004KT 9999 BKN025 30/25 Q1012","temp":30,"dewp":25,"wdir":110,"wspd":4,"visib":"6+","altim":1012,"clouds":[{"cover":"BKN","base":2500}],"obsTime":1781197200},"SBIL":{"icaoId":"SBIL","flightCategory":"VFR","rawOb":"METAR SBIL 111700Z 10005KT 070V130 9999 FEW025 28/21 Q1016","temp":28,"dewp":21,"wdir":100,"wspd":5,"visib":"6+","altim":1016,"clouds":[{"cover":"FEW","base":2500}],"obsTime":1781197200},"SBJU":{"icaoId":"SBJU","flightCategory":"VFR","rawOb":"METAR SBJU 111700Z 17012KT 9999 SCT022 32/18 Q1014","temp":32,"dewp":18,"wdir":170,"wspd":12,"visib":"6+","altim":1014,"clouds":[{"cover":"SCT","base":2200}],"obsTime":1781197200},"SBKP":{"icaoId":"SBKP","flightCategory":"IFR","rawOb":"METAR SBKP 111700Z 01004KT 340V050 5000 BR BKN009 OVC100 19/17 Q1018","temp":19,"dewp":17,"wdir":10,"wspd":4,"visib":3.11,"altim":1018,"clouds":[{"cover":"BKN","base":900},{"cover":"OVC","base":10000}],"obsTime":1781197200},"SBLO":{"icaoId":"SBLO","flightCategory":"MVFR","rawOb":"METAR SBLO 111700Z 02007KT 360V060 9999 BKN015 21/18 Q1016","temp":21,"dewp":18,"wdir":20,"wspd":7,"visib":"6+","altim":1016,"clouds":[{"cover":"BKN","base":1500}],"obsTime":1781197200},"SBMA":{"icaoId":"SBMA","flightCategory":"MVFR","rawOb":"METAR SBMA 111700Z 05003KT 9999 BKN023 31/23 Q1012","temp":31,"dewp":23,"wdir":50,"wspd":3,"visib":"6+","altim":1012,"clouds":[{"cover":"BKN","base":2300}],"obsTime":1781197200},"SBME":{"icaoId":"SBME","flightCategory":"MVFR","rawOb":"METAR SBME 111700Z 11006KT 9999 BKN030 OVC100 24/21 Q1015","temp":24,"dewp":21,"wdir":110,"wspd":6,"visib":"6+","altim":1015,"clouds":[{"cover":"BKN","base":3000},{"cover":"OVC","base":10000}],"obsTime":1781197200},"SBMG":{"icaoId":"SBMG","flightCategory":"VFR","rawOb":"METAR SBMG 111700Z 02013KT 340V040 9999 FEW019 SCT050 BKN073 22/18 Q1015","temp":22,"dewp":18,"wdir":20,"wspd":13,"visib":"6+","altim":1015,"clouds":[{"cover":"FEW","base":1900},{"cover":"SCT","base":5000},{"cover":"BKN","base":7300}],"obsTime":1781197200},"SBMK":{"icaoId":"SBMK","flightCategory":"VFR","rawOb":"METAR SBMK 111700Z 36002KT 9999 FEW038 SCT070 29/16 Q1017","temp":29,"dewp":16,"wdir":360,"wspd":2,"visib":"6+","altim":1017,"clouds":[{"cover":"FEW","base":3800},{"cover":"SCT","base":7000}],"obsTime":1781197200},"SBMO":{"icaoId":"SBMO","flightCategory":"VFR","rawOb":"METAR SBMO 111700Z 16009KT 9999 SCT032 28/21 Q1014","temp":28,"dewp":21,"wdir":160,"wspd":9,"visib":"6+","altim":1014,"clouds":[{"cover":"SCT","base":3200}],"obsTime":1781197200},"SBMQ":{"icaoId":"SBMQ","flightCategory":"VFR","rawOb":"METAR SBMQ 111700Z 06009KT 9999 SCT023 32/25 Q1012","temp":32,"dewp":25,"wdir":60,"wspd":9,"visib":"6+","altim":1012,"clouds":[{"cover":"SCT","base":2300}],"obsTime":1781197200},"SBNT":{"icaoId":"SBNT","flightCategory":"VFR","rawOb":"METAR SBNT 111700Z 14009KT 9999 SCT029 BKN080 29/23 Q1012","temp":29,"dewp":23,"wdir":140,"wspd":9,"visib":"6+","altim":1012,"clouds":[{"cover":"SCT","base":2900},{"cover":"BKN","base":8000}],"obsTime":1781197200},"SBPA":{"icaoId":"SBPA","flightCategory":"MVFR","rawOb":"METAR SBPA 111700Z 08003KT 020V110 9999 OVC014 18/14 Q1015","temp":18,"dewp":14,"wdir":80,"wspd":3,"visib":"6+","altim":1015,"clouds":[{"cover":"OVC","base":1400}],"obsTime":1781197200},"SBPJ":{"icaoId":"SBPJ","flightCategory":"VFR","rawOb":"METAR SBPJ 111700Z 29006KT CAVOK 33/20 Q1013","temp":33,"dewp":20,"wdir":290,"wspd":6,"visib":"6+","altim":1013,"clouds":[],"obsTime":1781197200},"SBPV":{"icaoId":"SBPV","flightCategory":"VFR","rawOb":"METAR SBPV 111700Z 09003KT 9999 FEW028 31/23 Q1012","temp":31,"dewp":23,"wdir":90,"wspd":3,"visib":"6+","altim":1012,"clouds":[{"cover":"FEW","base":2800}],"obsTime":1781197200},"SBRB":{"icaoId":"SBRB","flightCategory":"VFR","rawOb":"METAR SBRB 111700Z 31005KT 9999 FEW025 30/22 Q1013","temp":30,"dewp":22,"wdir":310,"wspd":5,"visib":"6+","altim":1013,"clouds":[{"cover":"FEW","base":2500}],"obsTime":1781197200},"SBRF":{"icaoId":"SBRF","flightCategory":"VFR","rawOb":"METAR SBRF 111700Z 17015KT 140V200 9999 FEW025 28/23 Q1013","temp":28,"dewp":23,"wdir":170,"wspd":15,"visib":"6+","altim":1013,"clouds":[{"cover":"FEW","base":2500}],"obsTime":1781197200},"SBSG":{"icaoId":"SBSG","flightCategory":"VFR","rawOb":"METAR SBSG 111700Z 11008KT 9999 BKN033 FEW035TCU BKN050 28/24 Q1012","temp":28,"dewp":24,"wdir":110,"wspd":8,"visib":"6+","altim":1012,"clouds":[{"cover":"BKN","base":3300},{"cover":"FEW","base":3500},{"cover":"BKN","base":5000}],"obsTime":1781197200},"SBSL":{"icaoId":"SBSL","flightCategory":"VFR","rawOb":"METAR SBSL 111700Z 07006KT 9999 SCT030 32/22 Q1011","temp":32,"dewp":22,"wdir":70,"wspd":6,"visib":"6+","altim":1011,"clouds":[{"cover":"SCT","base":3000}],"obsTime":1781197200},"SBSN":{"icaoId":"SBSN","flightCategory":"VFR","rawOb":"METAR SBSN 111700Z 07005KT 9999 SCT017 30/24 Q1012","temp":30,"dewp":24,"wdir":70,"wspd":5,"visib":"6+","altim":1012,"clouds":[{"cover":"SCT","base":1700}],"obsTime":1781197200},"SBSP":{"icaoId":"SBSP","flightCategory":"MVFR","rawOb":"METAR SBSP 111700Z 29007KT 240V330 9999 BKN015 BKN033 18/15 Q1019","temp":18,"dewp":15,"wdir":290,"wspd":7,"visib":"6+","altim":1019,"clouds":[{"cover":"BKN","base":1500},{"cover":"BKN","base":3300}],"obsTime":1781197200},"SBSV":{"icaoId":"SBSV","flightCategory":"VFR","rawOb":"METAR SBSV 111700Z 11008KT 070V140 9999 SCT025 28/20 Q1015","temp":28,"dewp":20,"wdir":110,"wspd":8,"visib":"6+","altim":1015,"clouds":[{"cover":"SCT","base":2500}],"obsTime":1781197200},"SBTE":{"icaoId":"SBTE","flightCategory":"VFR","rawOb":"METAR SBTE 111700Z 15004KT 9999 SCT030 33/21 Q1011","temp":33,"dewp":21,"wdir":150,"wspd":4,"visib":"6+","altim":1011,"clouds":[{"cover":"SCT","base":3000}],"obsTime":1781197200},"SBUL":{"icaoId":"SBUL","flightCategory":"VFR","rawOb":"METAR SBUL 111700Z 21008KT 150V240 9999 FEW040 BKN100 23/14 Q1020","temp":23,"dewp":14,"wdir":210,"wspd":8,"visib":"6+","altim":1020,"clouds":[{"cover":"FEW","base":4000},{"cover":"BKN","base":10000}],"obsTime":1781197200},"SBUR":{"icaoId":"SBUR","flightCategory":"VFR","rawOb":"METAR SBUR 111700Z 10008KT CAVOK 19/16 Q1019","temp":19,"dewp":16,"wdir":100,"wspd":8,"visib":"6+","altim":1019,"clouds":[],"obsTime":1781197200},"SBCA":{"icaoId":"SBCA","flightCategory":"LIFR","rawOb":"METAR SBCA 111700Z 04012KT 4000 RA BKN004 BKN020 BKN070 15/15 Q1016","temp":15,"dewp":15,"wdir":40,"wspd":12,"visib":2.49,"altim":1016,"clouds":[{"cover":"BKN","base":400},{"cover":"BKN","base":2000},{"cover":"BKN","base":7000}],"obsTime":1781197200},"SBAR":{"icaoId":"SBAR","flightCategory":"VFR","rawOb":"METAR SBAR 111700Z 14006KT 9999 FEW027 28/21 Q1015","temp":28,"dewp":21,"wdir":140,"wspd":6,"visib":"6+","altim":1015,"clouds":[{"cover":"FEW","base":2700}],"obsTime":1781197200},"SBAU":{"icaoId":"SBAU","flightCategory":"VFR","rawOb":"METAR SBAU 111700Z 06008KT 9999 FEW025 26/18 Q1016","temp":26,"dewp":18,"wdir":60,"wspd":8,"visib":"6+","altim":1016,"clouds":[{"cover":"FEW","base":2500}],"obsTime":1781197200},"SBSJ":{"icaoId":"SBSJ","flightCategory":"VFR","rawOb":"METAR SBSJ 111700Z 01003KT 9999 FEW015 SCT019 BKN066 20/16 Q1018","temp":20,"dewp":16,"wdir":10,"wspd":3,"visib":"6+","altim":1018,"clouds":[{"cover":"FEW","base":1500},{"cover":"SCT","base":1900},{"cover":"BKN","base":6600}],"obsTime":1781197200},"SBAX":{"icaoId":"SBAX","flightCategory":"VFR","rawOb":"METAR SBAX 111700Z AUTO 18006KT 150V220 CAVOK 19/16 Q1020","temp":19,"dewp":16,"wdir":180,"wspd":6,"visib":"6+","altim":1020,"clouds":[],"obsTime":1781197200},"SBBH":{"icaoId":"SBBH","flightCategory":"VFR","rawOb":"METAR SBBH 111700Z 00000KT 9999 BKN049 OVC080 22/16 Q1019","temp":22,"dewp":16,"wdir":0,"wspd":0,"visib":"6+","altim":1019,"clouds":[{"cover":"BKN","base":4900},{"cover":"OVC","base":8000}],"obsTime":1781197200},"SBBQ":{"icaoId":"SBBQ","flightCategory":"IFR","rawOb":"METAR SBBQ 111700Z COR 31004KT 2000 -RA BR BKN005 OVC015 16/15 Q1022","temp":16,"dewp":15,"wdir":310,"wspd":4,"visib":1.24,"altim":1022,"clouds":[{"cover":"BKN","base":500},{"cover":"OVC","base":1500}],"obsTime":1781197200},"SBBU":{"icaoId":"SBBU","flightCategory":"VFR","rawOb":"METAR SBBU 111700Z 01008KT 9999 FEW018 23/17 Q1017","temp":23,"dewp":17,"wdir":10,"wspd":8,"visib":"6+","altim":1017,"clouds":[{"cover":"FEW","base":1800}],"obsTime":1781197200},"SBCC":{"icaoId":"SBCC","flightCategory":"VFR","rawOb":"METAR SBCC 111700Z 12005KT 070V180 9999 VCSH FEW015 SCT020 BKN100 28/22 Q1015","temp":28,"dewp":22,"wdir":120,"wspd":5,"visib":"6+","altim":1015,"clouds":[{"cover":"FEW","base":1500},{"cover":"SCT","base":2000},{"cover":"BKN","base":10000}],"obsTime":1781197200},"SBCJ":{"icaoId":"SBCJ","flightCategory":"MVFR","rawOb":"METAR SBCJ 111700Z 05003KT 9999 BKN020 FEW022TCU 28/22 Q1017","temp":28,"dewp":22,"wdir":50,"wspd":3,"visib":"6+","altim":1017,"clouds":[{"cover":"BKN","base":2000},{"cover":"FEW","base":2200}],"obsTime":1781197200},"SBCO":{"icaoId":"SBCO","flightCategory":"MVFR","rawOb":"METAR SBCO 111700Z 12004KT 060V170 9999 BKN014 BKN100 18/14 Q1015","temp":18,"dewp":14,"wdir":120,"wspd":4,"visib":"6+","altim":1015,"clouds":[{"cover":"BKN","base":1400},{"cover":"BKN","base":10000}],"obsTime":1781197200},"SBDN":{"icaoId":"SBDN","flightCategory":"VFR","rawOb":"METAR SBDN 111700Z 04009KT 9999 SCT020 24/17 Q1015","temp":24,"dewp":17,"wdir":40,"wspd":9,"visib":"6+","altim":1015,"clouds":[{"cover":"SCT","base":2000}],"obsTime":1781197200},"SBES":{"icaoId":"SBES","flightCategory":"MVFR","rawOb":"METAR SBES 111700Z 00000KT 8000 -RA FEW010 SCT030 OVC070 23/// Q1016","temp":null,"dewp":null,"wdir":0,"wspd":0,"visib":4.97,"altim":1016,"clouds":[{"cover":"FEW","base":1000},{"cover":"SCT","base":3000},{"cover":"OVC","base":7000}],"obsTime":1781197200},"SBGM":{"icaoId":"SBGM","flightCategory":"VFR","rawOb":"METAR SBGM 111700Z 30007KT 9999 SCT030 26/21 Q1013","temp":26,"dewp":21,"wdir":300,"wspd":7,"visib":"6+","altim":1013,"clouds":[{"cover":"SCT","base":3000}],"obsTime":1781197200},"SBIP":{"icaoId":"SBIP","flightCategory":"VFR","rawOb":"METAR SBIP 111700Z AUTO 36005KT 340V040 CAVOK 26/18 Q1016","temp":26,"dewp":18,"wdir":360,"wspd":5,"visib":"6+","altim":1016,"clouds":[],"obsTime":1781197200},"SBKG":{"icaoId":"SBKG","flightCategory":"VFR","rawOb":"METAR SBKG 111700Z 14012KT 110V180 9999 FEW030 28/17 Q1015","temp":28,"dewp":17,"wdir":140,"wspd":12,"visib":"6+","altim":1015,"clouds":[{"cover":"FEW","base":3000}],"obsTime":1781197200},"SBOI":{"icaoId":"SBOI","flightCategory":"VFR","rawOb":"METAR SBOI 111700Z AUTO 04003KT 340V130 9999 FEW011 27/26 Q1012 RERA","temp":27,"dewp":26,"wdir":40,"wspd":3,"visib":"6+","altim":1012,"clouds":[{"cover":"FEW","base":1100}],"obsTime":1781197200},"SBPB":{"icaoId":"SBPB","flightCategory":"VFR","rawOb":"METAR SBPB 111700Z 05007KT 9999 FEW020 31/25 Q1011","temp":31,"dewp":25,"wdir":50,"wspd":7,"visib":"6+","altim":1011,"clouds":[{"cover":"FEW","base":2000}],"obsTime":1781197200},"SBPL":{"icaoId":"SBPL","flightCategory":"VFR","rawOb":"METAR SBPL 111700Z 08008KT 9999 FEW030 32/14 Q1015","temp":32,"dewp":14,"wdir":80,"wspd":8,"visib":"6+","altim":1015,"clouds":[{"cover":"FEW","base":3000}],"obsTime":1781197200},"SBPP":{"icaoId":"SBPP","flightCategory":"MVFR","rawOb":"METAR SBPP 111700Z 35016KT 9999 BKN020 24/18 Q1014","temp":24,"dewp":18,"wdir":350,"wspd":16,"visib":"6+","altim":1014,"clouds":[{"cover":"BKN","base":2000}],"obsTime":1781197200},"SBPS":{"icaoId":"SBPS","flightCategory":"VFR","rawOb":"METAR SBPS 111700Z 08010KT 050V110 9999 SCT025 27/21 Q1016","temp":27,"dewp":21,"wdir":80,"wspd":10,"visib":"6+","altim":1016,"clouds":[{"cover":"SCT","base":2500}],"obsTime":1781197200},"SBSC":{"icaoId":"SBSC","flightCategory":"MVFR","rawOb":"METAR SBSC 111700Z 01008KT 5000 BR FEW010 BKN030 OVC040 22/19 Q1015","temp":22,"dewp":19,"wdir":10,"wspd":8,"visib":3.11,"altim":1015,"clouds":[{"cover":"FEW","base":1000},{"cover":"BKN","base":3000},{"cover":"OVC","base":4000}],"obsTime":1781197200},"SBSM":{"icaoId":"SBSM","flightCategory":"IFR","rawOb":"METAR SBSM 111700Z 12004KT 7000 OVC007 15/14 Q1015","temp":15,"dewp":14,"wdir":120,"wspd":4,"visib":4.35,"altim":1015,"clouds":[{"cover":"OVC","base":700}],"obsTime":1781197200},"SBSR":{"icaoId":"SBSR","flightCategory":"VFR","rawOb":"METAR SBSR 111700Z 08009KT 9999 SCT030 BKN080 23/17 Q1017","temp":23,"dewp":17,"wdir":80,"wspd":9,"visib":"6+","altim":1017,"clouds":[{"cover":"SCT","base":3000},{"cover":"BKN","base":8000}],"obsTime":1781197200},"SBTF":{"icaoId":"SBTF","flightCategory":"VFR","rawOb":"METAR SBTF 111700Z 34004KT 9999 SCT019 30/25 Q1011","temp":30,"dewp":25,"wdir":340,"wspd":4,"visib":"6+","altim":1011,"clouds":[{"cover":"SCT","base":1900}],"obsTime":1781197200},"SBTT":{"icaoId":"SBTT","flightCategory":"MVFR","rawOb":"METAR SBTT 111700Z 18006KT 9999 SCT020 BKN030 28/23 Q1013","temp":28,"dewp":23,"wdir":180,"wspd":6,"visib":"6+","altim":1013,"clouds":[{"cover":"SCT","base":2000},{"cover":"BKN","base":3000}],"obsTime":1781197200},"SBTU":{"icaoId":"SBTU","flightCategory":"VFR","rawOb":"METAR SBTU 111700Z AUTO 28007KT 250V340 9999 // SCT028/// ///// Q1013","temp":null,"dewp":null,"wdir":280,"wspd":7,"visib":"6+","altim":1013,"clouds":[{"cover":"SCT","base":2800}],"obsTime":1781197200},"SBUY":{"icaoId":"SBUY","flightCategory":"VFR","rawOb":"METAR SBUY 111700Z 11003KT 9999 SCT020 SCT100 30/24 Q1011","temp":30,"dewp":24,"wdir":110,"wspd":3,"visib":"6+","altim":1011,"clouds":[{"cover":"SCT","base":2000},{"cover":"SCT","base":10000}],"obsTime":1781197200},"SBVH":{"icaoId":"SBVH","flightCategory":"VFR","rawOb":"METAR SBVH 111700Z 31006KT CAVOK 29/20 Q1016","temp":29,"dewp":20,"wdir":310,"wspd":6,"visib":"6+","altim":1016,"clouds":[],"obsTime":1781197200},"SBLE":{"icaoId":"SBLE","flightCategory":"VFR","rawOb":"METAR SBLE 111700Z AUTO 05005KT 340V120 CAVOK 28/16 Q1017","temp":28,"dewp":16,"wdir":50,"wspd":5,"visib":"6+","altim":1017,"clouds":[],"obsTime":1781197200},"SBJV":{"icaoId":"SBJV","flightCategory":"VFR","rawOb":"METAR SBJV 111700Z 11008KT 9999 SCT012 SCT080 20/17 Q1014","temp":20,"dewp":17,"wdir":110,"wspd":8,"visib":"6+","altim":1014,"clouds":[{"cover":"SCT","base":1200},{"cover":"SCT","base":8000}],"obsTime":1781197200},"SBNM":{"icaoId":"SBNM","flightCategory":"VFR","rawOb":"METAR SBNM 111700Z 09002KT 9999 SCT010 BKN100 18/15 Q1014","temp":18,"dewp":15,"wdir":90,"wspd":2,"visib":"6+","altim":1014,"clouds":[{"cover":"SCT","base":1000},{"cover":"BKN","base":10000}],"obsTime":1781197200},"SBGW":{"icaoId":"SBGW","flightCategory":"MVFR","rawOb":"METAR SBGW 111700Z 04005KT 8000 SCT010 SCT014 BKN070 20/18 Q1017","temp":20,"dewp":18,"wdir":40,"wspd":5,"visib":4.97,"altim":1017,"clouds":[{"cover":"SCT","base":1000},{"cover":"SCT","base":1400},{"cover":"BKN","base":7000}],"obsTime":1781197200},"SBJR":{"icaoId":"SBJR","flightCategory":"IFR","rawOb":"METAR SBJR 111700Z 35005KT 4000 -RA BR SCT010 OVC060 23/21 Q1014","temp":23,"dewp":21,"wdir":350,"wspd":5,"visib":2.49,"altim":1014,"clouds":[{"cover":"SCT","base":1000},{"cover":"OVC","base":6000}],"obsTime":1781197200},"SBLS":{"icaoId":"SBLS","flightCategory":"VFR","rawOb":"METAR SBLS 111700Z 20004KT 9000 FEW033 BKN070 21/17 Q1019","temp":21,"dewp":17,"wdir":200,"wspd":4,"visib":5.59,"altim":1019,"clouds":[{"cover":"FEW","base":3300},{"cover":"BKN","base":7000}],"obsTime":1781197200},"SBMT":{"icaoId":"SBMT","flightCategory":"MVFR","rawOb":"METAR SBMT 111700Z 32005KT 280V360 9999 BKN019 OVC026 19/17 Q1018","temp":19,"dewp":17,"wdir":320,"wspd":5,"visib":"6+","altim":1018,"clouds":[{"cover":"BKN","base":1900},{"cover":"OVC","base":2600}],"obsTime":1781197200},"SBST":{"icaoId":"SBST","flightCategory":"MVFR","rawOb":"METAR SBST 111700Z 20003KT 150V260 7000 SCT030 23/18 Q1015","temp":23,"dewp":18,"wdir":200,"wspd":3,"visib":4.35,"altim":1015,"clouds":[{"cover":"SCT","base":3000}],"obsTime":1781197200},"SBTA":{"icaoId":"SBTA","flightCategory":"MVFR","rawOb":"METAR SBTA 111700Z VRB01KT 9999 SCT014 BKN025 BKN100 21/16 Q1017","temp":21,"dewp":16,"wdir":"VRB","wspd":1,"visib":"6+","altim":1017,"clouds":[{"cover":"SCT","base":1400},{"cover":"BKN","base":2500},{"cover":"BKN","base":10000}],"obsTime":1781197200},"SBAN":{"icaoId":"SBAN","flightCategory":"VFR","rawOb":"METAR SBAN 111700Z 30003KT 9999 -RA FEW030 BKN070 BKN100 22/17 Q1020","temp":22,"dewp":17,"wdir":300,"wspd":3,"visib":"6+","altim":1020,"clouds":[{"cover":"FEW","base":3000},{"cover":"BKN","base":7000},{"cover":"BKN","base":10000}],"obsTime":1781197200},"SBAF":{"icaoId":"SBAF","flightCategory":"IFR","rawOb":" SBAF 111700Z 35003KT 4000 BR BKN009 BKN015 22/22 Q1015","temp":22,"dewp":22,"wdir":350,"wspd":3,"visib":2.49,"altim":1015,"clouds":[{"cover":"BKN","base":900},{"cover":"BKN","base":1500}],"obsTime":1781197200},"SBJP":{"icaoId":"SBJP","flightCategory":"VFR","rawOb":"METAR SBJP 111700Z 13015KT 9999 FEW030 30/21 Q1012","temp":30,"dewp":21,"wdir":130,"wspd":15,"visib":"6+","altim":1012,"clouds":[{"cover":"FEW","base":3000}],"obsTime":1781197200},"SBIH":{"icaoId":"SBIH","flightCategory":"VFR","rawOb":"METAR SBIH 111700Z 36005KT 9999 SCT010 SCT015 FEW025TCU 27/24 Q1012","temp":27,"dewp":24,"wdir":360,"wspd":5,"visib":"6+","altim":1012,"clouds":[{"cover":"SCT","base":1000},{"cover":"SCT","base":1500},{"cover":"FEW","base":2500}],"obsTime":1781197200},"SBPF":{"icaoId":"SBPF","flightCategory":"IFR","rawOb":"METAR SBPF 111700Z 05007KT 9999 BKN008 17/14 Q1015","temp":17,"dewp":14,"wdir":50,"wspd":7,"visib":"6+","altim":1015,"clouds":[{"cover":"BKN","base":800}],"obsTime":1781197200}}}