{"updated":1778770866,"count":87,"data":{"SBCB":{"icaoId":"SBCB","flightCategory":"VFR","rawOb":"METAR SBCB 141400Z 05004KT 9999 SCT025 26/21 Q1017","temp":26,"dewp":21,"wdir":50,"wspd":4,"visib":"6+","altim":1017,"clouds":[{"cover":"SCT","base":2500}],"obsTime":1778767200},"SBFZ":{"icaoId":"SBFZ","flightCategory":"VFR","rawOb":"METAR SBFZ 141400Z 15008KT 9999 SCT015 BKN100 29/23 Q1013","temp":29,"dewp":23,"wdir":150,"wspd":8,"visib":"6+","altim":1013,"clouds":[{"cover":"SCT","base":1500},{"cover":"BKN","base":10000}],"obsTime":1778767200},"SBCR":{"icaoId":"SBCR","flightCategory":"VFR","rawOb":"METAR SBCR 141400Z 05003KT 9999 FEW040 SCT070 26/18 Q1016","temp":26,"dewp":18,"wdir":50,"wspd":3,"visib":"6+","altim":1016,"clouds":[{"cover":"FEW","base":4000},{"cover":"SCT","base":7000}],"obsTime":1778767200},"SBMO":{"icaoId":"SBMO","flightCategory":"VFR","rawOb":"METAR SBMO 141400Z 16008KT 9999 VCSH BKN033 28/22 Q1016","temp":28,"dewp":22,"wdir":160,"wspd":8,"visib":"6+","altim":1016,"clouds":[{"cover":"BKN","base":3300}],"obsTime":1778767200},"SBGL":{"icaoId":"SBGL","flightCategory":"MVFR","rawOb":"METAR SBGL 141400Z 35004KT 7000 NSC 25/20 Q1016","temp":25,"dewp":20,"wdir":350,"wspd":4,"visib":4.35,"altim":1016,"clouds":[],"obsTime":1778767200},"SBMQ":{"icaoId":"SBMQ","flightCategory":"VFR","rawOb":"METAR SBMQ 141400Z 20003KT 9999 -RA SCT011 27/24 Q1015","temp":27,"dewp":24,"wdir":200,"wspd":3,"visib":"6+","altim":1015,"clouds":[{"cover":"SCT","base":1100}],"obsTime":1778767200},"SBBE":{"icaoId":"SBBE","flightCategory":"VFR","rawOb":"METAR SBBE 141400Z 09003KT 9999 SCT015 27/23 Q1014","temp":27,"dewp":23,"wdir":90,"wspd":3,"visib":"6+","altim":1014,"clouds":[{"cover":"SCT","base":1500}],"obsTime":1778767200},"SBVT":{"icaoId":"SBVT","flightCategory":"VFR","rawOb":"METAR SBVT 141400Z 01007KT CAVOK 28/23 Q1017","temp":28,"dewp":23,"wdir":10,"wspd":7,"visib":"6+","altim":1017,"clouds":[],"obsTime":1778767200},"SBGO":{"icaoId":"SBGO","flightCategory":"VFR","rawOb":"METAR SBGO 141400Z 35002KT CAVOK 29/18 Q1020","temp":29,"dewp":18,"wdir":350,"wspd":2,"visib":"6+","altim":1020,"clouds":[],"obsTime":1778767200},"SBPA":{"icaoId":"SBPA","flightCategory":"VFR","rawOb":"SPECI SBPA 141332Z VRB02KT 9999 FEW009 15/12 Q1019","temp":15,"dewp":12,"wdir":"VRB","wspd":2,"visib":"6+","altim":1019,"clouds":[{"cover":"FEW","base":900}],"obsTime":1778765520},"SBCT":{"icaoId":"SBCT","flightCategory":"VFR","rawOb":"METAR SBCT 141400Z 33004KT 280V020 CAVOK 19/08 Q1021","temp":19,"dewp":8,"wdir":330,"wspd":4,"visib":"6+","altim":1021,"clouds":[],"obsTime":1778767200},"SBPJ":{"icaoId":"SBPJ","flightCategory":"VFR","rawOb":"METAR SBPJ 141400Z 11008KT 9999 FEW030 32/21 Q1016","temp":32,"dewp":21,"wdir":110,"wspd":8,"visib":"6+","altim":1016,"clouds":[{"cover":"FEW","base":3000}],"obsTime":1778767200},"SBGR":{"icaoId":"SBGR","flightCategory":"VFR","rawOb":"METAR SBGR 141400Z 00000KT 9000 NSC 21/15 Q1020","temp":21,"dewp":15,"wdir":0,"wspd":0,"visib":5.59,"altim":1020,"clouds":[],"obsTime":1778767200},"SBPV":{"icaoId":"SBPV","flightCategory":"MVFR","rawOb":"METAR SBPV 141400Z 26002KT 9999 BKN030 26/23 Q1016","temp":26,"dewp":23,"wdir":260,"wspd":2,"visib":"6+","altim":1016,"clouds":[{"cover":"BKN","base":3000}],"obsTime":1778767200},"SBBV":{"icaoId":"SBBV","flightCategory":"MVFR","rawOb":"METAR SBBV 141400Z 10006KT 9999 BKN020 FEW035TCU BKN070 27/23 Q1016","temp":27,"dewp":23,"wdir":100,"wspd":6,"visib":"6+","altim":1016,"clouds":[{"cover":"BKN","base":2000},{"cover":"FEW","base":3500},{"cover":"BKN","base":7000}],"obsTime":1778767200},"SBRB":{"icaoId":"SBRB","flightCategory":"VFR","rawOb":"METAR SBRB 141400Z 33004KT 9999 SCT020 27/22 Q1017","temp":27,"dewp":22,"wdir":330,"wspd":4,"visib":"6+","altim":1017,"clouds":[{"cover":"SCT","base":2000}],"obsTime":1778767200},"SBCG":{"icaoId":"SBCG","flightCategory":"VFR","rawOb":"METAR SBCG 141400Z 34006KT CAVOK 25/16 Q1018","temp":25,"dewp":16,"wdir":340,"wspd":6,"visib":"6+","altim":1018,"clouds":[],"obsTime":1778767200},"SBRF":{"icaoId":"SBRF","flightCategory":"MVFR","rawOb":"METAR SBRF 141400Z 16014KT 9999 VCSH BKN020 FEW025TCU SCT040 29/24 Q1015","temp":29,"dewp":24,"wdir":160,"wspd":14,"visib":"6+","altim":1015,"clouds":[{"cover":"BKN","base":2000},{"cover":"FEW","base":2500},{"cover":"SCT","base":4000}],"obsTime":1778767200},"SBEG":{"icaoId":"SBEG","flightCategory":"VFR","rawOb":"METAR SBEG 141400Z 25003KT 9999 SCT015 SCT100 28/24 Q1015","temp":28,"dewp":24,"wdir":250,"wspd":3,"visib":"6+","altim":1015,"clouds":[{"cover":"SCT","base":1500},{"cover":"SCT","base":10000}],"obsTime":1778767200},"SBSG":{"icaoId":"SBSG","flightCategory":"VFR","rawOb":"METAR SBSG 141400Z 17007KT 110V200 9999 VCSH FEW015 SCT023 BKN100 25/24 Q1014","temp":25,"dewp":24,"wdir":170,"wspd":7,"visib":"6+","altim":1014,"clouds":[{"cover":"FEW","base":1500},{"cover":"SCT","base":2300},{"cover":"BKN","base":10000}],"obsTime":1778767200},"SBBR":{"icaoId":"SBBR","flightCategory":"VFR","rawOb":"METAR SBBR 141400Z 07004KT 020V140 9999 FEW040 26/16 Q1022","temp":26,"dewp":16,"wdir":70,"wspd":4,"visib":"6+","altim":1022,"clouds":[{"cover":"FEW","base":4000}],"obsTime":1778767200},"SBSL":{"icaoId":"SBSL","flightCategory":"MVFR","rawOb":"METAR SBSL 141400Z 24003KT 9999 BKN020 SCT100 29/25 Q1014","temp":29,"dewp":25,"wdir":240,"wspd":3,"visib":"6+","altim":1014,"clouds":[{"cover":"BKN","base":2000},{"cover":"SCT","base":10000}],"obsTime":1778767200},"SBSN":{"icaoId":"SBSN","flightCategory":"VFR","rawOb":"METAR SBSN 141400Z 23002KT 9999 SCT017 29/25 Q1014","temp":29,"dewp":25,"wdir":230,"wspd":2,"visib":"6+","altim":1014,"clouds":[{"cover":"SCT","base":1700}],"obsTime":1778767200},"SBKP":{"icaoId":"SBKP","flightCategory":"VFR","rawOb":"METAR SBKP 141400Z 00000KT CAVOK 23/10 Q1020","temp":23,"dewp":10,"wdir":0,"wspd":0,"visib":"6+","altim":1020,"clouds":[],"obsTime":1778767200},"SBLO":{"icaoId":"SBLO","flightCategory":"VFR","rawOb":"METAR SBLO 141400Z 09002KT CAVOK 19/11 Q1020","temp":19,"dewp":11,"wdir":90,"wspd":2,"visib":"6+","altim":1020,"clouds":[],"obsTime":1778767200},"SBSP":{"icaoId":"SBSP","flightCategory":"VFR","rawOb":"METAR SBSP 141400Z VRB03KT CAVOK 22/14 Q1021","temp":22,"dewp":14,"wdir":"VRB","wspd":3,"visib":"6+","altim":1021,"clouds":[],"obsTime":1778767200},"SBFI":{"icaoId":"SBFI","flightCategory":"VFR","rawOb":"METAR SBFI 141400Z 12003KT 9999 FEW025 BKN070 16/14 Q1018","temp":16,"dewp":14,"wdir":120,"wspd":3,"visib":"6+","altim":1018,"clouds":[{"cover":"FEW","base":2500},{"cover":"BKN","base":7000}],"obsTime":1778767200},"SBSV":{"icaoId":"SBSV","flightCategory":"VFR","rawOb":"METAR SBSV 141400Z 14006KT 070V190 9999 SCT025 28/22 Q1016","temp":28,"dewp":22,"wdir":140,"wspd":6,"visib":"6+","altim":1016,"clouds":[{"cover":"SCT","base":2500}],"obsTime":1778767200},"SBMA":{"icaoId":"SBMA","flightCategory":"VFR","rawOb":"METAR SBMA 141400Z 10004KT 9999 SCT012 SCT015 27/24 Q1015","temp":27,"dewp":24,"wdir":100,"wspd":4,"visib":"6+","altim":1015,"clouds":[{"cover":"SCT","base":1200},{"cover":"SCT","base":1500}],"obsTime":1778767200},"SBTE":{"icaoId":"SBTE","flightCategory":"MVFR","rawOb":"METAR SBTE 141400Z 13008KT 9999 BKN020 32/23 Q1013","temp":32,"dewp":23,"wdir":130,"wspd":8,"visib":"6+","altim":1013,"clouds":[{"cover":"BKN","base":2000}],"obsTime":1778767200},"SBFL":{"icaoId":"SBFL","flightCategory":"VFR","rawOb":"METAR SBFL 141400Z VRB02KT 9999 FEW030 21/14 Q1018","temp":21,"dewp":14,"wdir":"VRB","wspd":2,"visib":"6+","altim":1018,"clouds":[{"cover":"FEW","base":3000}],"obsTime":1778767200},"SBCP":{"icaoId":"SBCP","flightCategory":"VFR","rawOb":"METAR SBCP 141400Z 03005KT 9999 FEW020 30/20 Q1016","temp":30,"dewp":20,"wdir":30,"wspd":5,"visib":"6+","altim":1016,"clouds":[{"cover":"FEW","base":2000}],"obsTime":1778767200},"SBUL":{"icaoId":"SBUL","flightCategory":"VFR","rawOb":"METAR SBUL 141400Z 02009KT CAVOK 25/17 Q1022","temp":25,"dewp":17,"wdir":20,"wspd":9,"visib":"6+","altim":1022,"clouds":[],"obsTime":1778767200},"SBUR":{"icaoId":"SBUR","flightCategory":"VFR","rawOb":"METAR SBUR 141400Z 31006KT 9999 FEW047 27/14 Q1020","temp":27,"dewp":14,"wdir":310,"wspd":6,"visib":"6+","altim":1020,"clouds":[{"cover":"FEW","base":4700}],"obsTime":1778767200},"SBCF":{"icaoId":"SBCF","flightCategory":"VFR","rawOb":"METAR SBCF 141400Z 06002KT 9999 FEW011 BKN035 BKN090 23/18 Q1021","temp":23,"dewp":18,"wdir":60,"wspd":2,"visib":"6+","altim":1021,"clouds":[{"cover":"FEW","base":1100},{"cover":"BKN","base":3500},{"cover":"BKN","base":9000}],"obsTime":1778767200},"SBCZ":{"icaoId":"SBCZ","flightCategory":"MVFR","rawOb":"METAR SBCZ 141400Z 00000KT 9999 BKN015 BKN100 25/23 Q1016","temp":25,"dewp":23,"wdir":0,"wspd":0,"visib":"6+","altim":1016,"clouds":[{"cover":"BKN","base":1500},{"cover":"BKN","base":10000}],"obsTime":1778767200},"SBHT":{"icaoId":"SBHT","flightCategory":"MVFR","rawOb":"METAR SBHT 141400Z 33002KT 9999 BKN017 28/24 Q1015","temp":28,"dewp":24,"wdir":330,"wspd":2,"visib":"6+","altim":1015,"clouds":[{"cover":"BKN","base":1700}],"obsTime":1778767200},"SBIL":{"icaoId":"SBIL","flightCategory":"VFR","rawOb":"METAR SBIL 141400Z 16006KT 9999 SCT023 SCT100 29/23 Q1017","temp":29,"dewp":23,"wdir":160,"wspd":6,"visib":"6+","altim":1017,"clouds":[{"cover":"SCT","base":2300},{"cover":"SCT","base":10000}],"obsTime":1778767200},"SBJU":{"icaoId":"SBJU","flightCategory":"VFR","rawOb":"METAR SBJU 141400Z 15009KT 9999 FEW022 29/21 Q1017","temp":29,"dewp":21,"wdir":150,"wspd":9,"visib":"6+","altim":1017,"clouds":[{"cover":"FEW","base":2200}],"obsTime":1778767200},"SBME":{"icaoId":"SBME","flightCategory":"MVFR","rawOb":"METAR SBME 141400Z 12005KT 5000 HZ SCT006 26/21 Q1016","temp":26,"dewp":21,"wdir":120,"wspd":5,"visib":3.11,"altim":1016,"clouds":[{"cover":"SCT","base":600}],"obsTime":1778767200},"SBMG":{"icaoId":"SBMG","flightCategory":"VFR","rawOb":"METAR SBMG 141400Z VRB02KT CAVOK 21/14 Q1018","temp":21,"dewp":14,"wdir":"VRB","wspd":2,"visib":"6+","altim":1018,"clouds":[],"obsTime":1778767200},"SBMK":{"icaoId":"SBMK","flightCategory":"VFR","rawOb":"METAR SBMK 141400Z 05006KT CAVOK 27/18 Q1020","temp":27,"dewp":18,"wdir":50,"wspd":6,"visib":"6+","altim":1020,"clouds":[],"obsTime":1778767200},"SBNT":{"icaoId":"SBNT","flightCategory":"MVFR","rawOb":"METAR SBNT 141400Z 17009KT 9999 BKN011 SCT025 FEW030TCU BKN070 26/24 Q1014","temp":26,"dewp":24,"wdir":170,"wspd":9,"visib":"6+","altim":1014,"clouds":[{"cover":"BKN","base":1100},{"cover":"SCT","base":2500},{"cover":"FEW","base":3000},{"cover":"BKN","base":7000}],"obsTime":1778767200},"SBAT":{"icaoId":"SBAT","flightCategory":"VFR","rawOb":"METAR SBAT 141400Z 00000KT 9999 SCT020 30/25 Q1016","temp":30,"dewp":25,"wdir":0,"wspd":0,"visib":"6+","altim":1016,"clouds":[{"cover":"SCT","base":2000}],"obsTime":1778767200},"SBOI":{"icaoId":"SBOI","flightCategory":"VFR","rawOb":"METAR SBOI 141400Z AUTO 16003KT 120V220 9999 -RA SCT010 SCT013 BKN035 26/24 Q1016","temp":26,"dewp":24,"wdir":160,"wspd":3,"visib":"6+","altim":1016,"clouds":[{"cover":"SCT","base":1000},{"cover":"SCT","base":1300},{"cover":"BKN","base":3500}],"obsTime":1778767200},"SBPS":{"icaoId":"SBPS","flightCategory":"VFR","rawOb":"METAR SBPS 141400Z 12005KT 080V170 9999 SCT025 28/23 Q1017","temp":28,"dewp":23,"wdir":120,"wspd":5,"visib":"6+","altim":1017,"clouds":[{"cover":"SCT","base":2500}],"obsTime":1778767200},"SBTD":{"icaoId":"SBTD","flightCategory":"VFR","rawOb":"METAR SBTD 141400Z /////KT 9999 SCT030 BKN080 20/10 Q1019","temp":20,"dewp":10,"wdir":null,"wspd":null,"visib":"6+","altim":1019,"clouds":[{"cover":"SCT","base":3000},{"cover":"BKN","base":8000}],"obsTime":1778767200},"SBPL":{"icaoId":"SBPL","flightCategory":"VFR","rawOb":"METAR SBPL 141400Z 12009KT 9999 SCT025 30/18 Q1017","temp":30,"dewp":18,"wdir":120,"wspd":9,"visib":"6+","altim":1017,"clouds":[{"cover":"SCT","base":2500}],"obsTime":1778767200},"SBCJ":{"icaoId":"SBCJ","flightCategory":"VFR","rawOb":"METAR SBCJ 141400Z 12005KT 9999 SCT013 SCT080 26/22 Q1019","temp":26,"dewp":22,"wdir":120,"wspd":5,"visib":"6+","altim":1019,"clouds":[{"cover":"SCT","base":1300},{"cover":"SCT","base":8000}],"obsTime":1778767200},"SBTT":{"icaoId":"SBTT","flightCategory":"MVFR","rawOb":"METAR SBTT 141400Z 14002KT 5000 HZ BKN012 24/20 Q1017","temp":24,"dewp":20,"wdir":140,"wspd":2,"visib":3.11,"altim":1017,"clouds":[{"cover":"BKN","base":1200}],"obsTime":1778767200},"SBSJ":{"icaoId":"SBSJ","flightCategory":"MVFR","rawOb":"METAR SBSJ 141400Z 30004KT 5000 HZ NSC 21/16 Q1020","temp":21,"dewp":16,"wdir":300,"wspd":4,"visib":3.11,"altim":1020,"clouds":[],"obsTime":1778767200},"SBPP":{"icaoId":"SBPP","flightCategory":"VFR","rawOb":"METAR SBPP 141400Z 05006KT CAVOK 23/16 Q1019","temp":23,"dewp":16,"wdir":50,"wspd":6,"visib":"6+","altim":1019,"clouds":[],"obsTime":1778767200},"SBAR":{"icaoId":"SBAR","flightCategory":"MVFR","rawOb":"METAR SBAR 141400Z 14014KT 9999 VCSH BKN025 FEW026TCU 29/22 Q1016","temp":29,"dewp":22,"wdir":140,"wspd":14,"visib":"6+","altim":1016,"clouds":[{"cover":"BKN","base":2500},{"cover":"FEW","base":2600}],"obsTime":1778767200},"SBCO":{"icaoId":"SBCO","flightCategory":"VFR","rawOb":"METAR SBCO 141400Z 29003KT 160V330 9999 FEW009 16/12 Q1019","temp":16,"dewp":12,"wdir":290,"wspd":3,"visib":"6+","altim":1019,"clouds":[{"cover":"FEW","base":900}],"obsTime":1778767200},"SBDN":{"icaoId":"SBDN","flightCategory":"VFR","rawOb":"METAR SBDN 141400Z 04004KT CAVOK 25/11 Q1018","temp":25,"dewp":11,"wdir":40,"wspd":4,"visib":"6+","altim":1018,"clouds":[],"obsTime":1778767200},"SBES":{"icaoId":"SBES","flightCategory":"VFR","rawOb":"METAR SBES 141400Z VRB05KT 9999 FEW020 26/// Q1017","temp":null,"dewp":null,"wdir":"VRB","wspd":5,"visib":"6+","altim":1017,"clouds":[{"cover":"FEW","base":2000}],"obsTime":1778767200},"SBGM":{"icaoId":"SBGM","flightCategory":"VFR","rawOb":"METAR SBGM 141400Z 23003KT 9999 SCT016 26/21 Q1016","temp":26,"dewp":21,"wdir":230,"wspd":3,"visib":"6+","altim":1016,"clouds":[{"cover":"SCT","base":1600}],"obsTime":1778767200},"SBIP":{"icaoId":"SBIP","flightCategory":"MVFR","rawOb":"METAR SBIP 141400Z AUTO VRB04KT 9999 FEW018 BKN021 26/20 Q1019","temp":26,"dewp":20,"wdir":"VRB","wspd":4,"visib":"6+","altim":1019,"clouds":[{"cover":"FEW","base":1800},{"cover":"BKN","base":2100}],"obsTime":1778767200},"SBKG":{"icaoId":"SBKG","flightCategory":"VFR","rawOb":"METAR SBKG 141400Z 12008KT 9999 SCT025 26/21 Q1017","temp":26,"dewp":21,"wdir":120,"wspd":8,"visib":"6+","altim":1017,"clouds":[{"cover":"SCT","base":2500}],"obsTime":1778767200},"SBPB":{"icaoId":"SBPB","flightCategory":"VFR","rawOb":"METAR SBPB 141400Z 08006KT 9999 FEW020 BKN100 30/24 Q1013","temp":30,"dewp":24,"wdir":80,"wspd":6,"visib":"6+","altim":1013,"clouds":[{"cover":"FEW","base":2000},{"cover":"BKN","base":10000}],"obsTime":1778767200},"SBSC":{"icaoId":"SBSC","flightCategory":"VFR","rawOb":"METAR SBSC 141400Z 20006KT CAVOK 25/21 Q1017","temp":25,"dewp":21,"wdir":200,"wspd":6,"visib":"6+","altim":1017,"clouds":[],"obsTime":1778767200},"SBSM":{"icaoId":"SBSM","flightCategory":"VFR","rawOb":"METAR SBSM 141400Z 16004KT CAVOK 15/11 Q1019","temp":15,"dewp":11,"wdir":160,"wspd":4,"visib":"6+","altim":1019,"clouds":[],"obsTime":1778767200},"SBSR":{"icaoId":"SBSR","flightCategory":"VFR","rawOb":"METAR SBSR 141400Z 03002KT 9999 SCT035 BKN070 28/09 Q1019","temp":28,"dewp":9,"wdir":30,"wspd":2,"visib":"6+","altim":1019,"clouds":[{"cover":"SCT","base":3500},{"cover":"BKN","base":7000}],"obsTime":1778767200},"SBTF":{"icaoId":"SBTF","flightCategory":"VFR","rawOb":"METAR SBTF 141400Z 10002KT 9999 SCT015 BKN090 28/25 Q1015","temp":28,"dewp":25,"wdir":100,"wspd":2,"visib":"6+","altim":1015,"clouds":[{"cover":"SCT","base":1500},{"cover":"BKN","base":9000}],"obsTime":1778767200},"SBTU":{"icaoId":"SBTU","flightCategory":"VFR","rawOb":"METAR SBTU 141400Z AUTO 28003KT 230V320 9999 // ///////// ///// Q1016","temp":null,"dewp":null,"wdir":280,"wspd":3,"visib":"6+","altim":1016,"clouds":[],"obsTime":1778767200},"SBUY":{"icaoId":"SBUY","flightCategory":"MVFR","rawOb":"METAR SBUY 141400Z 00000KT 9999 BKN010 BKN100 26/23 Q1015","temp":26,"dewp":23,"wdir":0,"wspd":0,"visib":"6+","altim":1015,"clouds":[{"cover":"BKN","base":1000},{"cover":"BKN","base":10000}],"obsTime":1778767200},"SBVH":{"icaoId":"SBVH","flightCategory":"VFR","rawOb":"METAR SBVH 141400Z 29003KT 9999 SCT017 BKN100 26/21 Q1018","temp":26,"dewp":21,"wdir":290,"wspd":3,"visib":"6+","altim":1018,"clouds":[{"cover":"SCT","base":1700},{"cover":"BKN","base":10000}],"obsTime":1778767200},"SBAU":{"icaoId":"SBAU","flightCategory":"VFR","rawOb":"METAR SBAU 141400Z 10007KT CAVOK 25/11 Q1018","temp":25,"dewp":11,"wdir":100,"wspd":7,"visib":"6+","altim":1018,"clouds":[],"obsTime":1778767200},"SBBH":{"icaoId":"SBBH","flightCategory":"VFR","rawOb":"METAR SBBH 141400Z 10002KT 9999 SCT040 SCT060 OVC080 23/17 Q1021","temp":23,"dewp":17,"wdir":100,"wspd":2,"visib":"6+","altim":1021,"clouds":[{"cover":"SCT","base":4000},{"cover":"SCT","base":6000},{"cover":"OVC","base":8000}],"obsTime":1778767200},"SBBQ":{"icaoId":"SBBQ","flightCategory":"VFR","rawOb":"METAR SBBQ 141400Z 35005KT 9999 SCT019 BKN076 22/16 Q1024","temp":22,"dewp":16,"wdir":350,"wspd":5,"visib":"6+","altim":1024,"clouds":[{"cover":"SCT","base":1900},{"cover":"BKN","base":7600}],"obsTime":1778767200},"SBBU":{"icaoId":"SBBU","flightCategory":"VFR","rawOb":"METAR SBBU 141400Z 09003KT CAVOK 26/11 Q1019","temp":26,"dewp":11,"wdir":90,"wspd":3,"visib":"6+","altim":1019,"clouds":[],"obsTime":1778767200},"SBCA":{"icaoId":"SBCA","flightCategory":"VFR","rawOb":"METAR SBCA 141400Z 02005KT 9999 FEW030 BKN070 19/09 Q1020","temp":19,"dewp":9,"wdir":20,"wspd":5,"visib":"6+","altim":1020,"clouds":[{"cover":"FEW","base":3000},{"cover":"BKN","base":7000}],"obsTime":1778767200},"SBCC":{"icaoId":"SBCC","flightCategory":"VFR","rawOb":"METAR SBCC 141400Z /////KT 9999 SCT020 ///// Q1016","temp":null,"dewp":null,"wdir":null,"wspd":null,"visib":"6+","altim":1016,"clouds":[{"cover":"SCT","base":2000}],"obsTime":1778767200},"SBJP":{"icaoId":"SBJP","flightCategory":"IFR","rawOb":"METAR SBJP 141400Z 03005KT 3000 RA BR SCT005 BKN030 OVC070 23/23 Q1016","temp":23,"dewp":23,"wdir":30,"wspd":5,"visib":1.86,"altim":1016,"clouds":[{"cover":"SCT","base":500},{"cover":"BKN","base":3000},{"cover":"OVC","base":7000}],"obsTime":1778767200},"SBAN":{"icaoId":"SBAN","flightCategory":"VFR","rawOb":"METAR SBAN 141400Z 08002KT 9999 FEW030 25/16 Q1023","temp":25,"dewp":16,"wdir":80,"wspd":2,"visib":"6+","altim":1023,"clouds":[{"cover":"FEW","base":3000}],"obsTime":1778767200},"SBAF":{"icaoId":"SBAF","flightCategory":"MVFR","rawOb":"METAR SBAF 141400Z VRB02KT 8000 NSC 26/20 Q1017","temp":26,"dewp":20,"wdir":"VRB","wspd":2,"visib":4.97,"altim":1017,"clouds":[],"obsTime":1778767200},"SBGW":{"icaoId":"SBGW","flightCategory":"MVFR","rawOb":"METAR SBGW 141400Z VRB04KT 6000 FEW030 SCT080 25/16 Q1019","temp":25,"dewp":16,"wdir":"VRB","wspd":4,"visib":3.73,"altim":1019,"clouds":[{"cover":"FEW","base":3000},{"cover":"SCT","base":8000}],"obsTime":1778767200},"SBJR":{"icaoId":"SBJR","flightCategory":"MVFR","rawOb":"METAR SBJR 141400Z 18003KT 7000 FEW020 28/21 Q1017","temp":28,"dewp":21,"wdir":180,"wspd":3,"visib":4.35,"altim":1017,"clouds":[{"cover":"FEW","base":2000}],"obsTime":1778767200},"SBLS":{"icaoId":"SBLS","flightCategory":"VFR","rawOb":"METAR SBLS 141400Z 14003KT 9999 SCT040 BKN080 23/18 Q1021","temp":23,"dewp":18,"wdir":140,"wspd":3,"visib":"6+","altim":1021,"clouds":[{"cover":"SCT","base":4000},{"cover":"BKN","base":8000}],"obsTime":1778767200},"SBMT":{"icaoId":"SBMT","flightCategory":"MVFR","rawOb":"METAR SBMT 141400Z 00000KT 7000 NSC 21/14 Q1020","temp":21,"dewp":14,"wdir":0,"wspd":0,"visib":4.35,"altim":1020,"clouds":[],"obsTime":1778767200},"SBST":{"icaoId":"SBST","flightCategory":"MVFR","rawOb":"METAR SBST 141400Z 18003KT 7000 BKN025 22/16 Q1018","temp":22,"dewp":16,"wdir":180,"wspd":3,"visib":4.35,"altim":1018,"clouds":[{"cover":"BKN","base":2500}],"obsTime":1778767200},"SBTA":{"icaoId":"SBTA","flightCategory":"MVFR","rawOb":"METAR SBTA 141400Z 06004KT 360V100 5000 HZ FEW025 22/16 Q1019","temp":22,"dewp":16,"wdir":60,"wspd":4,"visib":3.11,"altim":1019,"clouds":[{"cover":"FEW","base":2500}],"obsTime":1778767200},"SBJV":{"icaoId":"SBJV","flightCategory":"VFR","rawOb":"METAR SBJV 141400Z 14001KT 9999 FEW025 21/17 Q1019","temp":21,"dewp":17,"wdir":140,"wspd":1,"visib":"6+","altim":1019,"clouds":[{"cover":"FEW","base":2500}],"obsTime":1778767200},"SBNM":{"icaoId":"SBNM","flightCategory":"VFR","rawOb":"METAR SBNM 141400Z 14004KT CAVOK 16/11 Q1019","temp":16,"dewp":11,"wdir":140,"wspd":4,"visib":"6+","altim":1019,"clouds":[],"obsTime":1778767200},"SBPF":{"icaoId":"SBPF","flightCategory":"VFR","rawOb":"METAR SBPF 141400Z 02008KT CAVOK 16/08 Q1020","temp":16,"dewp":8,"wdir":20,"wspd":8,"visib":"6+","altim":1020,"clouds":[],"obsTime":1778767200},"SBLE":{"icaoId":"SBLE","flightCategory":"VFR","rawOb":"METAR SBLE 141400Z AUTO 12005KT 060V200 9999 FEW027 BKN043 25/19 Q1020","temp":25,"dewp":19,"wdir":120,"wspd":5,"visib":"6+","altim":1020,"clouds":[{"cover":"FEW","base":2700},{"cover":"BKN","base":4300}],"obsTime":1778767200},"SBIH":{"icaoId":"SBIH","flightCategory":"VFR","rawOb":"METAR SBIH 141400Z 32003KT 9999 SCT013 29/26 Q1014","temp":29,"dewp":26,"wdir":320,"wspd":3,"visib":"6+","altim":1014,"clouds":[{"cover":"SCT","base":1300}],"obsTime":1778767200}}}