{"updated":1776110440,"count":83,"data":{"SBCR":{"icaoId":"SBCR","flightCategory":"VFR","rawOb":"METAR SBCR 131900Z 06009KT 9999 VCSH SCT030 FEW035TCU 32/22 Q1008","temp":32,"dewp":22,"wdir":60,"wspd":9,"visib":"6+","altim":1008,"clouds":[{"cover":"SCT","base":3000},{"cover":"FEW","base":3500}],"obsTime":1776106800},"SBFZ":{"icaoId":"SBFZ","flightCategory":"VFR","rawOb":"METAR SBFZ 131900Z 08009KT 9999 FEW020 BKN100 28/24 Q1008","temp":28,"dewp":24,"wdir":80,"wspd":9,"visib":"6+","altim":1008,"clouds":[{"cover":"FEW","base":2000},{"cover":"BKN","base":10000}],"obsTime":1776106800},"SBGL":{"icaoId":"SBGL","flightCategory":"VFR","rawOb":"METAR SBGL 131900Z 13011KT 9999 SCT027 26/19 Q1015","temp":26,"dewp":19,"wdir":130,"wspd":11,"visib":"6+","altim":1015,"clouds":[{"cover":"SCT","base":2700}],"obsTime":1776106800},"SBCB":{"icaoId":"SBCB","flightCategory":"VFR","rawOb":"METAR SBCB 131900Z 12008KT 9999 SCT030 27/18 Q1016","temp":27,"dewp":18,"wdir":120,"wspd":8,"visib":"6+","altim":1016,"clouds":[{"cover":"SCT","base":3000}],"obsTime":1776106800},"SBMO":{"icaoId":"SBMO","flightCategory":"VFR","rawOb":"METAR SBMO 131900Z 12007KT 9999 FEW030 29/23 Q1010","temp":29,"dewp":23,"wdir":120,"wspd":7,"visib":"6+","altim":1010,"clouds":[{"cover":"FEW","base":3000}],"obsTime":1776106800},"SBBE":{"icaoId":"SBBE","flightCategory":"MVFR","rawOb":"METAR SBBE 131900Z 19004KT 7000 -RA SCT008 BKN015 FEW020TCU 26/26 Q1010","temp":26,"dewp":26,"wdir":190,"wspd":4,"visib":4.35,"altim":1010,"clouds":[{"cover":"SCT","base":800},{"cover":"BKN","base":1500},{"cover":"FEW","base":2000}],"obsTime":1776106800},"SBMQ":{"icaoId":"SBMQ","flightCategory":"VFR","rawOb":"METAR SBMQ 131900Z 03010KT 9999 SCT017 29/25 Q1009","temp":29,"dewp":25,"wdir":30,"wspd":10,"visib":"6+","altim":1009,"clouds":[{"cover":"SCT","base":1700}],"obsTime":1776106800},"SBGO":{"icaoId":"SBGO","flightCategory":"VFR","rawOb":"METAR SBGO 131900Z 31002KT 9999 SCT045 FEW045TCU 30/18 Q1015","temp":30,"dewp":18,"wdir":310,"wspd":2,"visib":"6+","altim":1015,"clouds":[{"cover":"SCT","base":4500},{"cover":"FEW","base":4500}],"obsTime":1776106800},"SBCF":{"icaoId":"SBCF","flightCategory":"VFR","rawOb":"METAR SBCF 131900Z VRB02KT 9999 SCT043 26/17 Q1017","temp":26,"dewp":17,"wdir":"VRB","wspd":2,"visib":"6+","altim":1017,"clouds":[{"cover":"SCT","base":4300}],"obsTime":1776106800},"SBPA":{"icaoId":"SBPA","flightCategory":"VFR","rawOb":"METAR SBPA 131900Z 13009KT 100V160 9999 BKN035 27/19 Q1015","temp":27,"dewp":19,"wdir":130,"wspd":9,"visib":"6+","altim":1015,"clouds":[{"cover":"BKN","base":3500}],"obsTime":1776106800},"SBPJ":{"icaoId":"SBPJ","flightCategory":"VFR","rawOb":"METAR SBPJ 131900Z 24006KT 9999 SCT040 33/24 Q1009","temp":33,"dewp":24,"wdir":240,"wspd":6,"visib":"6+","altim":1009,"clouds":[{"cover":"SCT","base":4000}],"obsTime":1776106800},"SBGR":{"icaoId":"SBGR","flightCategory":"VFR","rawOb":"METAR SBGR 131900Z 04003KT CAVOK 26/16 Q1018","temp":26,"dewp":16,"wdir":40,"wspd":3,"visib":"6+","altim":1018,"clouds":[],"obsTime":1776106800},"SBBV":{"icaoId":"SBBV","flightCategory":"VFR","rawOb":"METAR SBBV 131900Z 10010KT 9999 BKN045 FEW050TCU 33/20 Q1008","temp":33,"dewp":20,"wdir":100,"wspd":10,"visib":"6+","altim":1008,"clouds":[{"cover":"BKN","base":4500},{"cover":"FEW","base":5000}],"obsTime":1776106800},"SBVT":{"icaoId":"SBVT","flightCategory":"VFR","rawOb":"METAR SBVT 131900Z 23007KT 9999 SCT025 BKN070 25/20 Q1015","temp":25,"dewp":20,"wdir":230,"wspd":7,"visib":"6+","altim":1015,"clouds":[{"cover":"SCT","base":2500},{"cover":"BKN","base":7000}],"obsTime":1776106800},"SBPV":{"icaoId":"SBPV","flightCategory":"MVFR","rawOb":"SPECI SBPV 131835Z 33005KT 7000 SHRA FEW015 SCT030 FEW035TCU 27/24 Q1008","temp":27,"dewp":24,"wdir":330,"wspd":5,"visib":4.35,"altim":1008,"clouds":[{"cover":"FEW","base":1500},{"cover":"SCT","base":3000},{"cover":"FEW","base":3500}],"obsTime":1776105300},"SBTE":{"icaoId":"SBTE","flightCategory":"VFR","rawOb":"METAR SBTE 131900Z 18011KT 9999 VCSH FEW020 SCT025TCU 28/23 Q1007","temp":28,"dewp":23,"wdir":180,"wspd":11,"visib":"6+","altim":1007,"clouds":[{"cover":"FEW","base":2000},{"cover":"SCT","base":2500}],"obsTime":1776106800},"SBRB":{"icaoId":"SBRB","flightCategory":"IFR","rawOb":"SPECI SBRB 131833Z 28012KT 4000 -RA BKN017 SCT090 27/24 Q1010","temp":27,"dewp":24,"wdir":280,"wspd":12,"visib":2.49,"altim":1010,"clouds":[{"cover":"BKN","base":1700},{"cover":"SCT","base":9000}],"obsTime":1776105180},"SBEG":{"icaoId":"SBEG","flightCategory":"VFR","rawOb":"METAR SBEG 131900Z 05009KT 9999 SCT020 FEW025TCU SCT100 26/24 Q1008","temp":26,"dewp":24,"wdir":50,"wspd":9,"visib":"6+","altim":1008,"clouds":[{"cover":"SCT","base":2000},{"cover":"FEW","base":2500},{"cover":"SCT","base":10000}],"obsTime":1776106800},"SBCG":{"icaoId":"SBCG","flightCategory":"MVFR","rawOb":"METAR SBCG 131900Z 28010KT 9999 TS VCSH BKN030 FEW050CB BKN080 29/22 Q1013","temp":29,"dewp":22,"wdir":280,"wspd":10,"visib":"6+","altim":1013,"clouds":[{"cover":"BKN","base":3000},{"cover":"FEW","base":5000},{"cover":"BKN","base":8000}],"obsTime":1776106800},"SBRF":{"icaoId":"SBRF","flightCategory":"VFR","rawOb":"METAR SBRF 131900Z 13010KT 9999 SCT025 29/25 Q1010","temp":29,"dewp":25,"wdir":130,"wspd":10,"visib":"6+","altim":1010,"clouds":[{"cover":"SCT","base":2500}],"obsTime":1776106800},"SBFI":{"icaoId":"SBFI","flightCategory":"VFR","rawOb":"METAR SBFI 131900Z 03005KT 9999 FEW030 SCT100 29/21 Q1013","temp":29,"dewp":21,"wdir":30,"wspd":5,"visib":"6+","altim":1013,"clouds":[{"cover":"FEW","base":3000},{"cover":"SCT","base":10000}],"obsTime":1776106800},"SBSG":{"icaoId":"SBSG","flightCategory":"VFR","rawOb":"METAR SBSG 131900Z 13004KT 100V170 9999 FEW011 SCT017 BKN037 26/25 Q1010","temp":26,"dewp":25,"wdir":130,"wspd":4,"visib":"6+","altim":1010,"clouds":[{"cover":"FEW","base":1100},{"cover":"SCT","base":1700},{"cover":"BKN","base":3700}],"obsTime":1776106800},"SBSL":{"icaoId":"SBSL","flightCategory":"VFR","rawOb":"METAR SBSL 131900Z 07007KT 9999 SCT020 BKN100 27/24 Q1008","temp":27,"dewp":24,"wdir":70,"wspd":7,"visib":"6+","altim":1008,"clouds":[{"cover":"SCT","base":2000},{"cover":"BKN","base":10000}],"obsTime":1776106800},"SBKP":{"icaoId":"SBKP","flightCategory":"VFR","rawOb":"METAR SBKP 131900Z VRB05KT 9999 FEW045 SCT100 28/13 Q1017","temp":28,"dewp":13,"wdir":"VRB","wspd":5,"visib":"6+","altim":1017,"clouds":[{"cover":"FEW","base":4500},{"cover":"SCT","base":10000}],"obsTime":1776106800},"SBBR":{"icaoId":"SBBR","flightCategory":"VFR","rawOb":"METAR SBBR 131900Z 08006KT 9999 SCT030 FEW035TCU 25/17 Q1017","temp":25,"dewp":17,"wdir":80,"wspd":6,"visib":"6+","altim":1017,"clouds":[{"cover":"SCT","base":3000},{"cover":"FEW","base":3500}],"obsTime":1776106800},"SBSN":{"icaoId":"SBSN","flightCategory":"VFR","rawOb":"METAR SBSN 131900Z 07007KT 9999 FEW020 31/25 Q1007","temp":31,"dewp":25,"wdir":70,"wspd":7,"visib":"6+","altim":1007,"clouds":[{"cover":"FEW","base":2000}],"obsTime":1776106800},"SBLO":{"icaoId":"SBLO","flightCategory":"VFR","rawOb":"METAR SBLO 131900Z 11007KT CAVOK 26/18 Q1015","temp":26,"dewp":18,"wdir":110,"wspd":7,"visib":"6+","altim":1015,"clouds":[],"obsTime":1776106800},"SBSP":{"icaoId":"SBSP","flightCategory":"VFR","rawOb":"METAR SBSP 131900Z 16008KT 130V200 9999 BKN040 26/17 Q1019","temp":26,"dewp":17,"wdir":160,"wspd":8,"visib":"6+","altim":1019,"clouds":[{"cover":"BKN","base":4000}],"obsTime":1776106800},"SBFL":{"icaoId":"SBFL","flightCategory":"VFR","rawOb":"METAR SBFL 131900Z 33007KT 9999 FEW030 28/21 Q1016","temp":28,"dewp":21,"wdir":330,"wspd":7,"visib":"6+","altim":1016,"clouds":[{"cover":"FEW","base":3000}],"obsTime":1776106800},"SBSV":{"icaoId":"SBSV","flightCategory":"MVFR","rawOb":"METAR SBSV 131900Z 14014KT 7000 -RA SCT019 FEW022TCU SCT030 BKN050 26/23 Q1012","temp":26,"dewp":23,"wdir":140,"wspd":14,"visib":4.35,"altim":1012,"clouds":[{"cover":"SCT","base":1900},{"cover":"FEW","base":2200},{"cover":"SCT","base":3000},{"cover":"BKN","base":5000}],"obsTime":1776106800},"SBMA":{"icaoId":"SBMA","flightCategory":"MVFR","rawOb":"METAR SBMA 131900Z 18003KT 9999 BKN025TCU SCT070 30/26 Q1008","temp":30,"dewp":26,"wdir":180,"wspd":3,"visib":"6+","altim":1008,"clouds":[{"cover":"BKN","base":2500},{"cover":"SCT","base":7000}],"obsTime":1776106800},"SBAT":{"icaoId":"SBAT","flightCategory":"VFR","rawOb":"METAR SBAT 131900Z 00000KT 9999 VCSH FEW025 FEW030TCU 30/25 Q1009","temp":30,"dewp":25,"wdir":0,"wspd":0,"visib":"6+","altim":1009,"clouds":[{"cover":"FEW","base":2500},{"cover":"FEW","base":3000}],"obsTime":1776106800},"SBCP":{"icaoId":"SBCP","flightCategory":"MVFR","rawOb":"METAR SBCP 131900Z 11008KT 9999 BKN020 27/19 Q1015","temp":27,"dewp":19,"wdir":110,"wspd":8,"visib":"6+","altim":1015,"clouds":[{"cover":"BKN","base":2000}],"obsTime":1776106800},"SBCT":{"icaoId":"SBCT","flightCategory":"VFR","rawOb":"METAR SBCT 131900Z 12009KT 9999 FEW030 SCT100 21/17 Q1020","temp":21,"dewp":17,"wdir":120,"wspd":9,"visib":"6+","altim":1020,"clouds":[{"cover":"FEW","base":3000},{"cover":"SCT","base":10000}],"obsTime":1776106800},"SBCZ":{"icaoId":"SBCZ","flightCategory":"VFR","rawOb":"METAR SBCZ 131900Z 32004KT 9999 SCT015 SCT020 BKN100 27/24 Q1011","temp":27,"dewp":24,"wdir":320,"wspd":4,"visib":"6+","altim":1011,"clouds":[{"cover":"SCT","base":1500},{"cover":"SCT","base":2000},{"cover":"BKN","base":10000}],"obsTime":1776106800},"SBHT":{"icaoId":"SBHT","flightCategory":"VFR","rawOb":"METAR SBHT 131900Z 13003KT 9999 SCT030 33/24 Q1008","temp":33,"dewp":24,"wdir":130,"wspd":3,"visib":"6+","altim":1008,"clouds":[{"cover":"SCT","base":3000}],"obsTime":1776106800},"SBIL":{"icaoId":"SBIL","flightCategory":"VFR","rawOb":"METAR SBIL 131900Z 19009KT 150V220 9999 FEW020 FEW023TCU BKN060 29/24 Q1013","temp":29,"dewp":24,"wdir":190,"wspd":9,"visib":"6+","altim":1013,"clouds":[{"cover":"FEW","base":2000},{"cover":"FEW","base":2300},{"cover":"BKN","base":6000}],"obsTime":1776106800},"SBJU":{"icaoId":"SBJU","flightCategory":"VFR","rawOb":"METAR SBJU 131900Z 15005KT 9999 FEW022 30/22 Q1010","temp":30,"dewp":22,"wdir":150,"wspd":5,"visib":"6+","altim":1010,"clouds":[{"cover":"FEW","base":2200}],"obsTime":1776106800},"SBME":{"icaoId":"SBME","flightCategory":"VFR","rawOb":"METAR SBME 131900Z 14003KT 9999 FEW030 27/21 Q1015","temp":27,"dewp":21,"wdir":140,"wspd":3,"visib":"6+","altim":1015,"clouds":[{"cover":"FEW","base":3000}],"obsTime":1776106800},"SBMG":{"icaoId":"SBMG","flightCategory":"VFR","rawOb":"METAR SBMG 131900Z 31004KT 270V010 9999 FEW040 28/19 Q1014","temp":28,"dewp":19,"wdir":310,"wspd":4,"visib":"6+","altim":1014,"clouds":[{"cover":"FEW","base":4000}],"obsTime":1776106800},"SBMK":{"icaoId":"SBMK","flightCategory":"VFR","rawOb":"METAR SBMK 131900Z 11010KT 9999 SCT044 26/19 Q1016","temp":26,"dewp":19,"wdir":110,"wspd":10,"visib":"6+","altim":1016,"clouds":[{"cover":"SCT","base":4400}],"obsTime":1776106800},"SBNT":{"icaoId":"SBNT","flightCategory":"VFR","rawOb":"METAR SBNT 131900Z 13010KT 9999 VCSH SCT018 FEW027TCU BKN100 28/24 Q1009","temp":28,"dewp":24,"wdir":130,"wspd":10,"visib":"6+","altim":1009,"clouds":[{"cover":"SCT","base":1800},{"cover":"FEW","base":2700},{"cover":"BKN","base":10000}],"obsTime":1776106800},"SBUR":{"icaoId":"SBUR","flightCategory":"VFR","rawOb":"METAR SBUR 131900Z 16008KT 9999 SCT044 28/17 Q1016","temp":28,"dewp":17,"wdir":160,"wspd":8,"visib":"6+","altim":1016,"clouds":[{"cover":"SCT","base":4400}],"obsTime":1776106800},"SBUL":{"icaoId":"SBUL","flightCategory":"VFR","rawOb":"METAR SBUL 131900Z 09005KT 9999 SCT040 27/16 Q1017","temp":27,"dewp":16,"wdir":90,"wspd":5,"visib":"6+","altim":1017,"clouds":[{"cover":"SCT","base":4000}],"obsTime":1776106800},"SBSJ":{"icaoId":"SBSJ","flightCategory":"VFR","rawOb":"METAR SBSJ 131900Z 13003KT 9999 FEW040 27/15 Q1017","temp":27,"dewp":15,"wdir":130,"wspd":3,"visib":"6+","altim":1017,"clouds":[{"cover":"FEW","base":4000}],"obsTime":1776106800},"SBOI":{"icaoId":"SBOI","flightCategory":"VFR","rawOb":"METAR SBOI 131900Z AUTO 02011KT 350V060 9999 -RA FEW030 SCT037 30/25 Q1009","temp":30,"dewp":25,"wdir":20,"wspd":11,"visib":"6+","altim":1009,"clouds":[{"cover":"FEW","base":3000},{"cover":"SCT","base":3700}],"obsTime":1776106800},"SBPP":{"icaoId":"SBPP","flightCategory":"VFR","rawOb":"METAR SBPP 131900Z 04008KT 9999 FEW018 SCT080 24/21 Q1015","temp":24,"dewp":21,"wdir":40,"wspd":8,"visib":"6+","altim":1015,"clouds":[{"cover":"FEW","base":1800},{"cover":"SCT","base":8000}],"obsTime":1776106800},"SBCJ":{"icaoId":"SBCJ","flightCategory":"VFR","rawOb":"METAR SBCJ 131900Z 14010KT 9999 FEW018 FEW020TCU 28/22 Q1012","temp":28,"dewp":22,"wdir":140,"wspd":10,"visib":"6+","altim":1012,"clouds":[{"cover":"FEW","base":1800},{"cover":"FEW","base":2000}],"obsTime":1776106800},"SBPS":{"icaoId":"SBPS","flightCategory":"VFR","rawOb":"METAR SBPS 131900Z 16007KT 070V200 9999 FEW026 27/22 Q1013","temp":27,"dewp":22,"wdir":160,"wspd":7,"visib":"6+","altim":1013,"clouds":[{"cover":"FEW","base":2600}],"obsTime":1776106800},"SBTT":{"icaoId":"SBTT","flightCategory":"MVFR","rawOb":"METAR SBTT 131900Z 31004KT 9999 VCSH BKN027 BKN100 31/23 Q1009","temp":31,"dewp":23,"wdir":310,"wspd":4,"visib":"6+","altim":1009,"clouds":[{"cover":"BKN","base":2700},{"cover":"BKN","base":10000}],"obsTime":1776106800},"SBAR":{"icaoId":"SBAR","flightCategory":"VFR","rawOb":"METAR SBAR 131900Z 18005KT 9999 SCT023 28/24 Q1010","temp":28,"dewp":24,"wdir":180,"wspd":5,"visib":"6+","altim":1010,"clouds":[{"cover":"SCT","base":2300}],"obsTime":1776106800},"SBPL":{"icaoId":"SBPL","flightCategory":"VFR","rawOb":"METAR SBPL 131900Z 10007KT 9999 SCT030 33/19 Q1010","temp":33,"dewp":19,"wdir":100,"wspd":7,"visib":"6+","altim":1010,"clouds":[{"cover":"SCT","base":3000}],"obsTime":1776106800},"SBCO":{"icaoId":"SBCO","flightCategory":"VFR","rawOb":"METAR SBCO 131900Z 13009KT 9999 SCT043 28/19 Q1015","temp":28,"dewp":19,"wdir":130,"wspd":9,"visib":"6+","altim":1015,"clouds":[{"cover":"SCT","base":4300}],"obsTime":1776106800},"SBDN":{"icaoId":"SBDN","flightCategory":"VFR","rawOb":"METAR SBDN 131900Z 10007KT CAVOK 25/18 Q1015","temp":25,"dewp":18,"wdir":100,"wspd":7,"visib":"6+","altim":1015,"clouds":[],"obsTime":1776106800},"SBES":{"icaoId":"SBES","flightCategory":"VFR","rawOb":"METAR SBES 131900Z 09007KT 040V150 9999 FEW020 26/// Q1016","temp":null,"dewp":null,"wdir":90,"wspd":7,"visib":"6+","altim":1016,"clouds":[{"cover":"FEW","base":2000}],"obsTime":1776106800},"SBGM":{"icaoId":"SBGM","flightCategory":"MVFR","rawOb":"METAR SBGM 131900Z 13005KT 100V170 9999 BKN020TCU OVC066 27/23 Q1008 RETS","temp":27,"dewp":23,"wdir":130,"wspd":5,"visib":"6+","altim":1008,"clouds":[{"cover":"BKN","base":2000},{"cover":"OVC","base":6600}],"obsTime":1776106800},"SBIP":{"icaoId":"SBIP","flightCategory":"VFR","rawOb":"METAR SBIP 131900Z AUTO 02004KT 350V050 CAVOK 27/19 Q1015","temp":27,"dewp":19,"wdir":20,"wspd":4,"visib":"6+","altim":1015,"clouds":[],"obsTime":1776106800},"SBKG":{"icaoId":"SBKG","flightCategory":"VFR","rawOb":"METAR SBKG 131900Z 10008KT 9999 SCT021 BKN070 28/23 Q1011","temp":28,"dewp":23,"wdir":100,"wspd":8,"visib":"6+","altim":1011,"clouds":[{"cover":"SCT","base":2100},{"cover":"BKN","base":7000}],"obsTime":1776106800},"SBPB":{"icaoId":"SBPB","flightCategory":"MVFR","rawOb":"METAR SBPB 131900Z 04006KT 9999 BKN016 FEW025TCU BKN080 29/25 Q1008","temp":29,"dewp":25,"wdir":40,"wspd":6,"visib":"6+","altim":1008,"clouds":[{"cover":"BKN","base":1600},{"cover":"FEW","base":2500},{"cover":"BKN","base":8000}],"obsTime":1776106800},"SBSC":{"icaoId":"SBSC","flightCategory":"VFR","rawOb":"METAR SBSC 131900Z 16006KT 9999 FEW020 27/20 Q1015","temp":27,"dewp":20,"wdir":160,"wspd":6,"visib":"6+","altim":1015,"clouds":[{"cover":"FEW","base":2000}],"obsTime":1776106800},"SBSM":{"icaoId":"SBSM","flightCategory":"VFR","rawOb":"METAR SBSM 131900Z 11007KT 9999 SCT035 28/19 Q1014","temp":28,"dewp":19,"wdir":110,"wspd":7,"visib":"6+","altim":1014,"clouds":[{"cover":"SCT","base":3500}],"obsTime":1776106800},"SBSR":{"icaoId":"SBSR","flightCategory":"VFR","rawOb":"METAR SBSR 131900Z 25005KT 9999 FEW040 SCT090 29/18 Q1015","temp":29,"dewp":18,"wdir":250,"wspd":5,"visib":"6+","altim":1015,"clouds":[{"cover":"FEW","base":4000},{"cover":"SCT","base":9000}],"obsTime":1776106800},"SBTF":{"icaoId":"SBTF","flightCategory":"VFR","rawOb":"METAR SBTF 131900Z 20004KT 9999 SCT012 SCT090 27/26 Q1008","temp":27,"dewp":26,"wdir":200,"wspd":4,"visib":"6+","altim":1008,"clouds":[{"cover":"SCT","base":1200},{"cover":"SCT","base":9000}],"obsTime":1776106800},"SBUY":{"icaoId":"SBUY","flightCategory":"VFR","rawOb":"METAR SBUY 131900Z 26002KT 9999 VCSH SCT025 FEW035TCU SCT100 29/24 Q1006","temp":29,"dewp":24,"wdir":260,"wspd":2,"visib":"6+","altim":1006,"clouds":[{"cover":"SCT","base":2500},{"cover":"FEW","base":3500},{"cover":"SCT","base":10000}],"obsTime":1776106800},"SBVH":{"icaoId":"SBVH","flightCategory":"MVFR","rawOb":"METAR SBVH 131900Z 35006KT 9999 BKN026 FEW035TCU 28/22 Q1011","temp":28,"dewp":22,"wdir":350,"wspd":6,"visib":"6+","altim":1011,"clouds":[{"cover":"BKN","base":2600},{"cover":"FEW","base":3500}],"obsTime":1776106800},"SBAX":{"icaoId":"SBAX","flightCategory":"VFR","rawOb":"METAR SBAX 131900Z 03003KT 9999 SCT030 27/15 Q1018","temp":27,"dewp":15,"wdir":30,"wspd":3,"visib":"6+","altim":1018,"clouds":[{"cover":"SCT","base":3000}],"obsTime":1776106800},"SBBH":{"icaoId":"SBBH","flightCategory":"VFR","rawOb":"METAR SBBH 131900Z 02003KT 9999 SCT048 27/17 Q1017","temp":27,"dewp":17,"wdir":20,"wspd":3,"visib":"6+","altim":1017,"clouds":[{"cover":"SCT","base":4800}],"obsTime":1776106800},"SBBQ":{"icaoId":"SBBQ","flightCategory":"VFR","rawOb":"METAR SBBQ 131900Z 07006KT 9999 SCT040 22/15 Q1021","temp":22,"dewp":15,"wdir":70,"wspd":6,"visib":"6+","altim":1021,"clouds":[{"cover":"SCT","base":4000}],"obsTime":1776106800},"SBBU":{"icaoId":"SBBU","flightCategory":"VFR","rawOb":"METAR SBBU 131900Z 17009KT 9999 FEW035 29/19 Q1016","temp":29,"dewp":19,"wdir":170,"wspd":9,"visib":"6+","altim":1016,"clouds":[{"cover":"FEW","base":3500}],"obsTime":1776106800},"SBCA":{"icaoId":"SBCA","flightCategory":"VFR","rawOb":"METAR SBCA 131900Z 06006KT 9999 FEW025 25/17 Q1017","temp":25,"dewp":17,"wdir":60,"wspd":6,"visib":"6+","altim":1017,"clouds":[{"cover":"FEW","base":2500}],"obsTime":1776106800},"SBCC":{"icaoId":"SBCC","flightCategory":"VFR","rawOb":"METAR SBCC 131900Z 26003KT 9999 SCT030 FEW035TCU SCT100 25/22 Q1011","temp":25,"dewp":22,"wdir":260,"wspd":3,"visib":"6+","altim":1011,"clouds":[{"cover":"SCT","base":3000},{"cover":"FEW","base":3500},{"cover":"SCT","base":10000}],"obsTime":1776106800},"SBJP":{"icaoId":"SBJP","flightCategory":"VFR","rawOb":"METAR SBJP 131900Z 11012KT 9999 SCT020 BKN100 29/24 Q1010","temp":29,"dewp":24,"wdir":110,"wspd":12,"visib":"6+","altim":1010,"clouds":[{"cover":"SCT","base":2000},{"cover":"BKN","base":10000}],"obsTime":1776106800},"SBLE":{"icaoId":"SBLE","flightCategory":"MVFR","rawOb":"SPECI SBLE 131804Z AUTO 15006KT 120V180 7000 RA OVC029 ///// Q////","temp":null,"dewp":null,"wdir":150,"wspd":6,"visib":4.35,"altim":null,"clouds":[{"cover":"OVC","base":2900}],"obsTime":1776103440},"SBJV":{"icaoId":"SBJV","flightCategory":"VFR","rawOb":"METAR SBJV 131900Z 12007KT 9999 FEW030 27/22 Q1015","temp":27,"dewp":22,"wdir":120,"wspd":7,"visib":"6+","altim":1015,"clouds":[{"cover":"FEW","base":3000}],"obsTime":1776106800},"SBAN":{"icaoId":"SBAN","flightCategory":"MVFR","rawOb":"METAR SBAN 131900Z 17005KT 9999 BKN020 26/15 Q1018","temp":26,"dewp":15,"wdir":170,"wspd":5,"visib":"6+","altim":1018,"clouds":[{"cover":"BKN","base":2000}],"obsTime":1776106800},"SBAF":{"icaoId":"SBAF","flightCategory":"VFR","rawOb":"METAR SBAF 131900Z 20008KT 9999 SCT040 27/21 Q1016","temp":27,"dewp":21,"wdir":200,"wspd":8,"visib":"6+","altim":1016,"clouds":[{"cover":"SCT","base":4000}],"obsTime":1776106800},"SBGW":{"icaoId":"SBGW","flightCategory":"VFR","rawOb":"METAR SBGW 131900Z 28003KT 9999 SCT030 FEW035TCU 28/13 Q1017","temp":28,"dewp":13,"wdir":280,"wspd":3,"visib":"6+","altim":1017,"clouds":[{"cover":"SCT","base":3000},{"cover":"FEW","base":3500}],"obsTime":1776106800},"SBJR":{"icaoId":"SBJR","flightCategory":"VFR","rawOb":"METAR SBJR 131900Z 15008KT 9999 FEW030 SCT070 27/19 Q1015","temp":27,"dewp":19,"wdir":150,"wspd":8,"visib":"6+","altim":1015,"clouds":[{"cover":"FEW","base":3000},{"cover":"SCT","base":7000}],"obsTime":1776106800},"SBLS":{"icaoId":"SBLS","flightCategory":"VFR","rawOb":"METAR SBLS 131900Z 13007KT 9999 SCT040 25/17 Q1017","temp":25,"dewp":17,"wdir":130,"wspd":7,"visib":"6+","altim":1017,"clouds":[{"cover":"SCT","base":4000}],"obsTime":1776106800},"SBMT":{"icaoId":"SBMT","flightCategory":"VFR","rawOb":"METAR SBMT 131900Z 15005KT 090V200 CAVOK 26/14 Q1017","temp":26,"dewp":14,"wdir":150,"wspd":5,"visib":"6+","altim":1017,"clouds":[],"obsTime":1776106800},"SBST":{"icaoId":"SBST","flightCategory":"VFR","rawOb":"METAR SBST 131900Z 15005KT 9999 FEW026 26/20 Q1015","temp":26,"dewp":20,"wdir":150,"wspd":5,"visib":"6+","altim":1015,"clouds":[{"cover":"FEW","base":2600}],"obsTime":1776106800},"SBTA":{"icaoId":"SBTA","flightCategory":"VFR","rawOb":"METAR SBTA 131900Z VRB02KT 9999 SCT045 27/15 Q1016","temp":27,"dewp":15,"wdir":"VRB","wspd":2,"visib":"6+","altim":1016,"clouds":[{"cover":"SCT","base":4500}],"obsTime":1776106800},"SBIH":{"icaoId":"SBIH","flightCategory":"VFR","rawOb":"METAR SBIH 131900Z 01005KT 9999 FEW020 FEW025TCU 32/25 Q1006","temp":32,"dewp":25,"wdir":10,"wspd":5,"visib":"6+","altim":1006,"clouds":[{"cover":"FEW","base":2000},{"cover":"FEW","base":2500}],"obsTime":1776106800}}}