{"updated":1775332202,"count":84,"data":{"SBFL":{"icaoId":"SBFL","flightCategory":"VFR","rawOb":"METAR SBFL 041800Z 12011KT 9999 FEW040 28/22 Q1012","temp":28,"dewp":22,"wdir":120,"wspd":11,"visib":"6+","altim":1012,"clouds":[{"cover":"FEW","base":4000}],"obsTime":1775325600},"SBCG":{"icaoId":"SBCG","flightCategory":"VFR","rawOb":"METAR SBCG 041800Z 08011KT 050V110 9999 TS VCSH BKN045 FEW050CB BKN100 30/19 Q1014","temp":30,"dewp":19,"wdir":80,"wspd":11,"visib":"6+","altim":1014,"clouds":[{"cover":"BKN","base":4500},{"cover":"FEW","base":5000},{"cover":"BKN","base":10000}],"obsTime":1775325600},"SBME":{"icaoId":"SBME","flightCategory":"VFR","rawOb":"METAR SBME 041800Z 16004KT 9999 -TSRA SCT030 FEW040CB BKN080 25/23 Q1013","temp":25,"dewp":23,"wdir":160,"wspd":4,"visib":"6+","altim":1013,"clouds":[{"cover":"SCT","base":3000},{"cover":"FEW","base":4000},{"cover":"BKN","base":8000}],"obsTime":1775325600},"SBMG":{"icaoId":"SBMG","flightCategory":"VFR","rawOb":"METAR SBMG 041800Z 22008KT 180V280 CAVOK 32/18 Q1015","temp":32,"dewp":18,"wdir":220,"wspd":8,"visib":"6+","altim":1015,"clouds":[],"obsTime":1775325600},"SBMK":{"icaoId":"SBMK","flightCategory":"VFR","rawOb":"METAR SBMK 041800Z 12006KT 9999 FEW030 29/20 Q1016","temp":29,"dewp":20,"wdir":120,"wspd":6,"visib":"6+","altim":1016,"clouds":[{"cover":"FEW","base":3000}],"obsTime":1775325600},"SBMO":{"icaoId":"SBMO","flightCategory":"VFR","rawOb":"METAR SBMO 041800Z 10014KT 9999 SCT030 29/23 Q1012","temp":29,"dewp":23,"wdir":100,"wspd":14,"visib":"6+","altim":1012,"clouds":[{"cover":"SCT","base":3000}],"obsTime":1775325600},"SBMQ":{"icaoId":"SBMQ","flightCategory":"MVFR","rawOb":"METAR SBMQ 041800Z 05016KT 9999 VCSH BKN021 FEW036TCU 31/25 Q1009","temp":31,"dewp":25,"wdir":50,"wspd":16,"visib":"6+","altim":1009,"clouds":[{"cover":"BKN","base":2100},{"cover":"FEW","base":3600}],"obsTime":1775325600},"SBBE":{"icaoId":"SBBE","flightCategory":"MVFR","rawOb":"METAR SBBE 041800Z 15002KT 9999 SCT009 BKN025 BKN083 24/24 Q1009 RETS","temp":24,"dewp":24,"wdir":150,"wspd":2,"visib":"6+","altim":1009,"clouds":[{"cover":"SCT","base":900},{"cover":"BKN","base":2500},{"cover":"BKN","base":8300}],"obsTime":1775325600},"SBFZ":{"icaoId":"SBFZ","flightCategory":"VFR","rawOb":"METAR SBFZ 041800Z 10016KT 9999 SCT025 30/24 Q1009","temp":30,"dewp":24,"wdir":100,"wspd":16,"visib":"6+","altim":1009,"clouds":[{"cover":"SCT","base":2500}],"obsTime":1775325600},"SBNT":{"icaoId":"SBNT","flightCategory":"VFR","rawOb":"METAR SBNT 041800Z 09012KT 060V120 9999 VCSH SCT021 FEW028TCU SCT080 29/23 Q1011","temp":29,"dewp":23,"wdir":90,"wspd":12,"visib":"6+","altim":1011,"clouds":[{"cover":"SCT","base":2100},{"cover":"FEW","base":2800},{"cover":"SCT","base":8000}],"obsTime":1775325600},"SBPA":{"icaoId":"SBPA","flightCategory":"VFR","rawOb":"METAR SBPA 041800Z 30007KT 210V320 9999 TS VCSH FEW015 FEW042CB 32/22 Q1012","temp":32,"dewp":22,"wdir":300,"wspd":7,"visib":"6+","altim":1012,"clouds":[{"cover":"FEW","base":1500},{"cover":"FEW","base":4200}],"obsTime":1775325600},"SBCP":{"icaoId":"SBCP","flightCategory":"VFR","rawOb":"METAR SBCP 041800Z 08012KT 9999 SCT020 BKN100 30/23 Q1013","temp":30,"dewp":23,"wdir":80,"wspd":12,"visib":"6+","altim":1013,"clouds":[{"cover":"SCT","base":2000},{"cover":"BKN","base":10000}],"obsTime":1775325600},"SBPJ":{"icaoId":"SBPJ","flightCategory":"VFR","rawOb":"METAR SBPJ 041800Z 09005KT 9999 FEW027 SCT045 34/23 Q1011","temp":34,"dewp":23,"wdir":90,"wspd":5,"visib":"6+","altim":1011,"clouds":[{"cover":"FEW","base":2700},{"cover":"SCT","base":4500}],"obsTime":1775325600},"SBEG":{"icaoId":"SBEG","flightCategory":"MVFR","rawOb":"METAR SBEG 041800Z 29006KT 5000 RA SCT004 BKN015 FEW025TCU 24/23 Q1013","temp":24,"dewp":23,"wdir":290,"wspd":6,"visib":3.11,"altim":1013,"clouds":[{"cover":"SCT","base":400},{"cover":"BKN","base":1500},{"cover":"FEW","base":2500}],"obsTime":1775325600},"SBMA":{"icaoId":"SBMA","flightCategory":"VFR","rawOb":"METAR SBMA 041800Z 14005KT 9999 SCT025 FEW027TCU SCT100 32/24 Q1009","temp":32,"dewp":24,"wdir":140,"wspd":5,"visib":"6+","altim":1009,"clouds":[{"cover":"SCT","base":2500},{"cover":"FEW","base":2700},{"cover":"SCT","base":10000}],"obsTime":1775325600},"SBCZ":{"icaoId":"SBCZ","flightCategory":"MVFR","rawOb":"METAR SBCZ 041800Z 15005KT 9999 BKN030 30/23 Q1011","temp":30,"dewp":23,"wdir":150,"wspd":5,"visib":"6+","altim":1011,"clouds":[{"cover":"BKN","base":3000}],"obsTime":1775325600},"SBKP":{"icaoId":"SBKP","flightCategory":"VFR","rawOb":"METAR SBKP 041800Z 27008KT 230V320 9999 SCT042 31/18 Q1016","temp":31,"dewp":18,"wdir":270,"wspd":8,"visib":"6+","altim":1016,"clouds":[{"cover":"SCT","base":4200}],"obsTime":1775325600},"SBBV":{"icaoId":"SBBV","flightCategory":"IFR","rawOb":"METAR SBBV 041800Z 24015G31KT 6000 -TSRA BKN008 BKN030 FEW045CB BKN080 22/22 Q1012 RERA","temp":22,"dewp":22,"wdir":240,"wspd":15,"visib":3.73,"altim":1012,"clouds":[{"cover":"BKN","base":800},{"cover":"BKN","base":3000},{"cover":"FEW","base":4500},{"cover":"BKN","base":8000}],"obsTime":1775325600},"SBLO":{"icaoId":"SBLO","flightCategory":"VFR","rawOb":"METAR SBLO 041800Z 19003KT 110V230 9999 SCT045 31/19 Q1015","temp":31,"dewp":19,"wdir":190,"wspd":3,"visib":"6+","altim":1015,"clouds":[{"cover":"SCT","base":4500}],"obsTime":1775325600},"SBFI":{"icaoId":"SBFI","flightCategory":"MVFR","rawOb":"METAR SBFI 041800Z 29004KT 9999 BKN030 35/22 Q1013","temp":35,"dewp":22,"wdir":290,"wspd":4,"visib":"6+","altim":1013,"clouds":[{"cover":"BKN","base":3000}],"obsTime":1775325600},"SBCR":{"icaoId":"SBCR","flightCategory":"MVFR","rawOb":"METAR SBCR 041800Z 01009KT 340V040 8000 VCSH FEW015 BKN040 FEW045TCU 32/23 Q1011","temp":32,"dewp":23,"wdir":10,"wspd":9,"visib":4.97,"altim":1011,"clouds":[{"cover":"FEW","base":1500},{"cover":"BKN","base":4000},{"cover":"FEW","base":4500}],"obsTime":1775325600},"SBPV":{"icaoId":"SBPV","flightCategory":"MVFR","rawOb":"METAR SBPV 041800Z 05012KT 9999 FEW010 BKN025 FEW030TCU 25/23 Q1011","temp":25,"dewp":23,"wdir":50,"wspd":12,"visib":"6+","altim":1011,"clouds":[{"cover":"FEW","base":1000},{"cover":"BKN","base":2500},{"cover":"FEW","base":3000}],"obsTime":1775325600},"SBGL":{"icaoId":"SBGL","flightCategory":"VFR","rawOb":"METAR SBGL 041800Z 13008KT 9999 VCSH FEW035TCU SCT035 28/22 Q1012","temp":28,"dewp":22,"wdir":130,"wspd":8,"visib":"6+","altim":1012,"clouds":[{"cover":"FEW","base":3500},{"cover":"SCT","base":3500}],"obsTime":1775325600},"SBRB":{"icaoId":"SBRB","flightCategory":"MVFR","rawOb":"METAR SBRB 041800Z 20003KT 060V230 9999 TS VCSH BKN023 FEW040CB SCT070 31/25 Q1011","temp":31,"dewp":25,"wdir":200,"wspd":3,"visib":"6+","altim":1011,"clouds":[{"cover":"BKN","base":2300},{"cover":"FEW","base":4000},{"cover":"SCT","base":7000}],"obsTime":1775325600},"SBRF":{"icaoId":"SBRF","flightCategory":"MVFR","rawOb":"METAR SBRF 041800Z 13008KT 9000 VCSH BKN022 FEW025TCU SCT050 30/24 Q1011","temp":30,"dewp":24,"wdir":130,"wspd":8,"visib":5.59,"altim":1011,"clouds":[{"cover":"BKN","base":2200},{"cover":"FEW","base":2500},{"cover":"SCT","base":5000}],"obsTime":1775325600},"SBGO":{"icaoId":"SBGO","flightCategory":"VFR","rawOb":"METAR SBGO 041800Z 04006KT 9999 VCSH SCT045 FEW048TCU 30/19 Q1016","temp":30,"dewp":19,"wdir":40,"wspd":6,"visib":"6+","altim":1016,"clouds":[{"cover":"SCT","base":4500},{"cover":"FEW","base":4800}],"obsTime":1775325600},"SBSG":{"icaoId":"SBSG","flightCategory":"VFR","rawOb":"METAR SBSG 041800Z 10017KT 9999 SCT030 FEW033TCU 30/24 Q1011","temp":30,"dewp":24,"wdir":100,"wspd":17,"visib":"6+","altim":1011,"clouds":[{"cover":"SCT","base":3000},{"cover":"FEW","base":3300}],"obsTime":1775325600},"SBCB":{"icaoId":"SBCB","flightCategory":"VFR","rawOb":"METAR SBCB 041800Z 08012KT 9999 TS SCT020CB BKN070 28/23 Q1013","temp":28,"dewp":23,"wdir":80,"wspd":12,"visib":"6+","altim":1013,"clouds":[{"cover":"SCT","base":2000},{"cover":"BKN","base":7000}],"obsTime":1775325600},"SBSL":{"icaoId":"SBSL","flightCategory":"VFR","rawOb":"METAR SBSL 041800Z 07007KT 9999 TS SCT020 FEW025CB 27/25 Q1009","temp":27,"dewp":25,"wdir":70,"wspd":7,"visib":"6+","altim":1009,"clouds":[{"cover":"SCT","base":2000},{"cover":"FEW","base":2500}],"obsTime":1775325600},"SBSN":{"icaoId":"SBSN","flightCategory":"VFR","rawOb":"METAR SBSN 041800Z 06005KT 9999 FEW023 FEW026TCU 31/24 Q1009","temp":31,"dewp":24,"wdir":60,"wspd":5,"visib":"6+","altim":1009,"clouds":[{"cover":"FEW","base":2300},{"cover":"FEW","base":2600}],"obsTime":1775325600},"SBGR":{"icaoId":"SBGR","flightCategory":"VFR","rawOb":"METAR SBGR 041800Z 30009KT 9999 FEW045TCU BKN050 31/19 Q1016","temp":31,"dewp":19,"wdir":300,"wspd":9,"visib":"6+","altim":1016,"clouds":[{"cover":"FEW","base":4500},{"cover":"BKN","base":5000}],"obsTime":1775325600},"SBSP":{"icaoId":"SBSP","flightCategory":"VFR","rawOb":"METAR SBSP 041800Z 18014KT 9999 SCT045 27/18 Q1018","temp":27,"dewp":18,"wdir":180,"wspd":14,"visib":"6+","altim":1018,"clouds":[{"cover":"SCT","base":4500}],"obsTime":1775325600},"SBBR":{"icaoId":"SBBR","flightCategory":"VFR","rawOb":"METAR SBBR 041800Z 07004KT 010V130 9999 SCT040 28/16 Q1018","temp":28,"dewp":16,"wdir":70,"wspd":4,"visib":"6+","altim":1018,"clouds":[{"cover":"SCT","base":4000}],"obsTime":1775325600},"SBSV":{"icaoId":"SBSV","flightCategory":"VFR","rawOb":"METAR SBSV 041800Z 13008KT 090V170 9999 SCT019 30/23 Q1012","temp":30,"dewp":23,"wdir":130,"wspd":8,"visib":"6+","altim":1012,"clouds":[{"cover":"SCT","base":1900}],"obsTime":1775325600},"SBTE":{"icaoId":"SBTE","flightCategory":"VFR","rawOb":"METAR SBTE 041800Z 13004KT 9999 SCT020 32/23 Q1008","temp":32,"dewp":23,"wdir":130,"wspd":4,"visib":"6+","altim":1008,"clouds":[{"cover":"SCT","base":2000}],"obsTime":1775325600},"SBCT":{"icaoId":"SBCT","flightCategory":"VFR","rawOb":"METAR SBCT 041800Z 25007G17KT 9999 BKN045 30/15 Q1017","temp":30,"dewp":15,"wdir":250,"wspd":7,"visib":"6+","altim":1017,"clouds":[{"cover":"BKN","base":4500}],"obsTime":1775325600},"SBUL":{"icaoId":"SBUL","flightCategory":"VFR","rawOb":"METAR SBUL 041800Z 03008KT 330V080 9999 VCSH VCTS BKN040 FEW045CB 28/17 Q1018","temp":28,"dewp":17,"wdir":30,"wspd":8,"visib":"6+","altim":1018,"clouds":[{"cover":"BKN","base":4000},{"cover":"FEW","base":4500}],"obsTime":1775325600},"SBHT":{"icaoId":"SBHT","flightCategory":"VFR","rawOb":"METAR SBHT 041800Z 11002KT 9999 SCT012 BKN080 26/25 Q1010","temp":26,"dewp":25,"wdir":110,"wspd":2,"visib":"6+","altim":1010,"clouds":[{"cover":"SCT","base":1200},{"cover":"BKN","base":8000}],"obsTime":1775325600},"SBUR":{"icaoId":"SBUR","flightCategory":"VFR","rawOb":"METAR SBUR 041800Z 29006KT 9999 SCT048 FEW049TCU 30/18 Q1016","temp":30,"dewp":18,"wdir":290,"wspd":6,"visib":"6+","altim":1016,"clouds":[{"cover":"SCT","base":4800},{"cover":"FEW","base":4900}],"obsTime":1775325600},"SBIL":{"icaoId":"SBIL","flightCategory":"VFR","rawOb":"METAR SBIL 041800Z 14006KT 110V170 9999 -SHRA SCT020 FEW023TCU 30/25 Q1013","temp":30,"dewp":25,"wdir":140,"wspd":6,"visib":"6+","altim":1013,"clouds":[{"cover":"SCT","base":2000},{"cover":"FEW","base":2300}],"obsTime":1775325600},"SBVT":{"icaoId":"SBVT","flightCategory":"VFR","rawOb":"METAR SBVT 041800Z 06014KT 9999 FEW035 29/24 Q1014","temp":29,"dewp":24,"wdir":60,"wspd":14,"visib":"6+","altim":1014,"clouds":[{"cover":"FEW","base":3500}],"obsTime":1775325600},"SBAT":{"icaoId":"SBAT","flightCategory":"MVFR","rawOb":"METAR SBAT 041800Z 16011KT 9999 VCSH BKN030 30/24 Q1011","temp":30,"dewp":24,"wdir":160,"wspd":11,"visib":"6+","altim":1011,"clouds":[{"cover":"BKN","base":3000}],"obsTime":1775325600},"SBCF":{"icaoId":"SBCF","flightCategory":"VFR","rawOb":"METAR SBCF 041800Z 07003KT 360V110 9999 SCT042 28/17 Q1018","temp":28,"dewp":17,"wdir":70,"wspd":3,"visib":"6+","altim":1018,"clouds":[{"cover":"SCT","base":4200}],"obsTime":1775325600},"SBJU":{"icaoId":"SBJU","flightCategory":"MVFR","rawOb":"METAR SBJU 041800Z 00000KT 9999 BKN022 28/22 Q1013","temp":28,"dewp":22,"wdir":0,"wspd":0,"visib":"6+","altim":1013,"clouds":[{"cover":"BKN","base":2200}],"obsTime":1775325600},"SBSJ":{"icaoId":"SBSJ","flightCategory":"VFR","rawOb":"METAR SBSJ 041800Z VRB01KT 9999 SCT046 29/18 Q1016","temp":29,"dewp":18,"wdir":"VRB","wspd":1,"visib":"6+","altim":1016,"clouds":[{"cover":"SCT","base":4600}],"obsTime":1775325600},"SBPB":{"icaoId":"SBPB","flightCategory":"VFR","rawOb":"METAR SBPB 041800Z 08015KT 9999 SCT020 31/25 Q1008","temp":31,"dewp":25,"wdir":80,"wspd":15,"visib":"6+","altim":1008,"clouds":[{"cover":"SCT","base":2000}],"obsTime":1775325600},"SBBU":{"icaoId":"SBBU","flightCategory":"VFR","rawOb":"METAR SBBU 041800Z 32003KT 9999 SCT040 FEW045TCU 33/20 Q1015","temp":33,"dewp":20,"wdir":320,"wspd":3,"visib":"6+","altim":1015,"clouds":[{"cover":"SCT","base":4000},{"cover":"FEW","base":4500}],"obsTime":1775325600},"SBDN":{"icaoId":"SBDN","flightCategory":"VFR","rawOb":"METAR SBDN 041800Z 31004KT 9999 VCSH BKN049 FEW055TCU 34/19 Q1014","temp":34,"dewp":19,"wdir":310,"wspd":4,"visib":"6+","altim":1014,"clouds":[{"cover":"BKN","base":4900},{"cover":"FEW","base":5500}],"obsTime":1775325600},"SBPL":{"icaoId":"SBPL","flightCategory":"VFR","rawOb":"METAR SBPL 041800Z 04007KT 9999 SCT030 32/20 Q1011","temp":32,"dewp":20,"wdir":40,"wspd":7,"visib":"6+","altim":1011,"clouds":[{"cover":"SCT","base":3000}],"obsTime":1775325600},"SBAX":{"icaoId":"SBAX","flightCategory":"VFR","rawOb":"METAR SBAX 041800Z AUTO 01006KT 310V080 9999 SCT049 28/18 Q1018","temp":28,"dewp":18,"wdir":10,"wspd":6,"visib":"6+","altim":1018,"clouds":[{"cover":"SCT","base":4900}],"obsTime":1775325600},"SBPP":{"icaoId":"SBPP","flightCategory":"VFR","rawOb":"METAR SBPP 041800Z 19010KT 9999 SCT025 30/16 Q1016","temp":30,"dewp":16,"wdir":190,"wspd":10,"visib":"6+","altim":1016,"clouds":[{"cover":"SCT","base":2500}],"obsTime":1775325600},"SBES":{"icaoId":"SBES","flightCategory":"VFR","rawOb":"METAR SBES 041800Z VRB06KT 9999 -TSRA FEW015 FEW025CB BKN050 26/// Q1014 RETS","temp":null,"dewp":null,"wdir":"VRB","wspd":6,"visib":"6+","altim":1014,"clouds":[{"cover":"FEW","base":1500},{"cover":"FEW","base":2500},{"cover":"BKN","base":5000}],"obsTime":1775325600},"SBPS":{"icaoId":"SBPS","flightCategory":"VFR","rawOb":"METAR SBPS 041800Z 13006KT 9999 SCT020 29/24 Q1014","temp":29,"dewp":24,"wdir":130,"wspd":6,"visib":"6+","altim":1014,"clouds":[{"cover":"SCT","base":2000}],"obsTime":1775325600},"SBSC":{"icaoId":"SBSC","flightCategory":"VFR","rawOb":"METAR SBSC 041800Z 15008KT 9999 FEW030 29/21 Q1013","temp":29,"dewp":21,"wdir":150,"wspd":8,"visib":"6+","altim":1013,"clouds":[{"cover":"FEW","base":3000}],"obsTime":1775325600},"SBCC":{"icaoId":"SBCC","flightCategory":"MVFR","rawOb":"METAR SBCC 041800Z 15007KT 9999 VCSH BKN020 FEW025TCU BKN100 26/23 Q1012","temp":26,"dewp":23,"wdir":150,"wspd":7,"visib":"6+","altim":1012,"clouds":[{"cover":"BKN","base":2000},{"cover":"FEW","base":2500},{"cover":"BKN","base":10000}],"obsTime":1775325600},"SBGM":{"icaoId":"SBGM","flightCategory":"MVFR","rawOb":"METAR SBGM 041800Z 08006KT 9999 TS BKN013 BKN020 BKN030CB 26/24 Q1010 RERA","temp":26,"dewp":24,"wdir":80,"wspd":6,"visib":"6+","altim":1010,"clouds":[{"cover":"BKN","base":1300},{"cover":"BKN","base":2000},{"cover":"BKN","base":3000}],"obsTime":1775325600},"SBSM":{"icaoId":"SBSM","flightCategory":"VFR","rawOb":"METAR SBSM 041800Z 20004KT 9999 FEW040 SCT100 26/23 Q1014","temp":26,"dewp":23,"wdir":200,"wspd":4,"visib":"6+","altim":1014,"clouds":[{"cover":"FEW","base":4000},{"cover":"SCT","base":10000}],"obsTime":1775325600},"SBBQ":{"icaoId":"SBBQ","flightCategory":"MVFR","rawOb":"METAR SBBQ 041800Z 09003KT 010V180 7000 -TSRA OVC023 //////CB 18/17 Q1022 RERA RETSRA","temp":18,"dewp":17,"wdir":90,"wspd":3,"visib":4.35,"altim":1022,"clouds":[{"cover":"OVC","base":2300}],"obsTime":1775325600},"SBSR":{"icaoId":"SBSR","flightCategory":"MVFR","rawOb":"METAR SBSR 041800Z 10003KT 9999 BKN025 FEW030TCU 31/18 Q1015","temp":31,"dewp":18,"wdir":100,"wspd":3,"visib":"6+","altim":1015,"clouds":[{"cover":"BKN","base":2500},{"cover":"FEW","base":3000}],"obsTime":1775325600},"SBIP":{"icaoId":"SBIP","flightCategory":"VFR","rawOb":"METAR SBIP 041800Z AUTO 07005KT 030V110 CAVOK 30/21 Q1015","temp":30,"dewp":21,"wdir":70,"wspd":5,"visib":"6+","altim":1015,"clouds":[],"obsTime":1775325600},"SBTF":{"icaoId":"SBTF","flightCategory":"VFR","rawOb":"METAR SBTF 041800Z 05004KT 9999 SCT018 SCT090 30/25 Q1011","temp":30,"dewp":25,"wdir":50,"wspd":4,"visib":"6+","altim":1011,"clouds":[{"cover":"SCT","base":1800},{"cover":"SCT","base":9000}],"obsTime":1775325600},"SBBH":{"icaoId":"SBBH","flightCategory":"VFR","rawOb":"METAR SBBH 041800Z 04004KT 9999 BKN045 FEW048TCU 29/17 Q1017","temp":29,"dewp":17,"wdir":40,"wspd":4,"visib":"6+","altim":1017,"clouds":[{"cover":"BKN","base":4500},{"cover":"FEW","base":4800}],"obsTime":1775325600},"SBKG":{"icaoId":"SBKG","flightCategory":"VFR","rawOb":"METAR SBKG 041800Z 10014KT 9999 SCT030 27/21 Q1013","temp":27,"dewp":21,"wdir":100,"wspd":14,"visib":"6+","altim":1013,"clouds":[{"cover":"SCT","base":3000}],"obsTime":1775325600},"SBTT":{"icaoId":"SBTT","flightCategory":"VFR","rawOb":"METAR SBTT 041800Z 34004KT 9999 SCT015 30/23 Q1011","temp":30,"dewp":23,"wdir":340,"wspd":4,"visib":"6+","altim":1011,"clouds":[{"cover":"SCT","base":1500}],"obsTime":1775325600},"SBUY":{"icaoId":"SBUY","flightCategory":"MVFR","rawOb":"METAR SBUY 041800Z 11004KT 9999 BKN025 BKN100 29/24 Q1010","temp":29,"dewp":24,"wdir":110,"wspd":4,"visib":"6+","altim":1010,"clouds":[{"cover":"BKN","base":2500},{"cover":"BKN","base":10000}],"obsTime":1775325600},"SBCJ":{"icaoId":"SBCJ","flightCategory":"VFR","rawOb":"METAR SBCJ 041800Z 12006KT 9999 FEW015 SCT025 29/22 Q1014","temp":29,"dewp":22,"wdir":120,"wspd":6,"visib":"6+","altim":1014,"clouds":[{"cover":"FEW","base":1500},{"cover":"SCT","base":2500}],"obsTime":1775325600},"SBVH":{"icaoId":"SBVH","flightCategory":"MVFR","rawOb":"METAR SBVH 041800Z 10006KT 9999 BKN030 SCT090 27/22 Q1013 RESHRA","temp":27,"dewp":22,"wdir":100,"wspd":6,"visib":"6+","altim":1013,"clouds":[{"cover":"BKN","base":3000},{"cover":"SCT","base":9000}],"obsTime":1775325600},"SBAR":{"icaoId":"SBAR","flightCategory":"VFR","rawOb":"METAR SBAR 041800Z 11011KT 9999 FEW024 30/23 Q1011","temp":30,"dewp":23,"wdir":110,"wspd":11,"visib":"6+","altim":1011,"clouds":[{"cover":"FEW","base":2400}],"obsTime":1775325600},"SBOI":{"icaoId":"SBOI","flightCategory":"VFR","rawOb":"METAR SBOI 041800Z AUTO 08009KT 040V150 9999 FEW038 32/24 Q1009","temp":32,"dewp":24,"wdir":80,"wspd":9,"visib":"6+","altim":1009,"clouds":[{"cover":"FEW","base":3800}],"obsTime":1775325600},"SBCO":{"icaoId":"SBCO","flightCategory":"VFR","rawOb":"METAR SBCO 041800Z 26008KT 270V080 9999 TS SCT040 FEW043CB 32/21 Q1013","temp":32,"dewp":21,"wdir":260,"wspd":8,"visib":"6+","altim":1013,"clouds":[{"cover":"SCT","base":4000},{"cover":"FEW","base":4300}],"obsTime":1775325600},"SBPF":{"icaoId":"SBPF","flightCategory":"VFR","rawOb":"METAR SBPF 041800Z AUTO 23011KT 200V260 9999 NSC 29/16 Q1017","temp":29,"dewp":16,"wdir":230,"wspd":11,"visib":"6+","altim":1017,"clouds":[],"obsTime":1775325600},"SBLS":{"icaoId":"SBLS","flightCategory":"VFR","rawOb":"METAR SBLS 041800Z VRB04KT 9999 SCT040 28/17 Q1018","temp":28,"dewp":17,"wdir":"VRB","wspd":4,"visib":"6+","altim":1018,"clouds":[{"cover":"SCT","base":4000}],"obsTime":1775325600},"SBMT":{"icaoId":"SBMT","flightCategory":"MVFR","rawOb":"METAR SBMT 041800Z 30006KT 220V020 9999 BKN025 FEW040TCU 30/18 Q1016","temp":30,"dewp":18,"wdir":300,"wspd":6,"visib":"6+","altim":1016,"clouds":[{"cover":"BKN","base":2500},{"cover":"FEW","base":4000}],"obsTime":1775325600},"SBST":{"icaoId":"SBST","flightCategory":"MVFR","rawOb":"METAR SBST 041800Z 27002KT 9999 BKN028 BKN038 27/22 Q1013","temp":27,"dewp":22,"wdir":270,"wspd":2,"visib":"6+","altim":1013,"clouds":[{"cover":"BKN","base":2800},{"cover":"BKN","base":3800}],"obsTime":1775325600},"SBTA":{"icaoId":"SBTA","flightCategory":"VFR","rawOb":"METAR SBTA 041800Z 04007KT 330V080 9999 SCT040 FEW045TCU 29/18 Q1015","temp":29,"dewp":18,"wdir":40,"wspd":7,"visib":"6+","altim":1015,"clouds":[{"cover":"SCT","base":4000},{"cover":"FEW","base":4500}],"obsTime":1775325600},"SBAF":{"icaoId":"SBAF","flightCategory":"VFR","rawOb":" SBAF 041800Z 18010KT 9999 SCT025 FEW030TCU 31/23 Q1012","temp":31,"dewp":23,"wdir":180,"wspd":10,"visib":"6+","altim":1012,"clouds":[{"cover":"SCT","base":2500},{"cover":"FEW","base":3000}],"obsTime":1775325600},"SBTC":{"icaoId":"SBTC","flightCategory":"VFR","rawOb":"METAR SBTC 041800Z 12005KT 9999 SCT025 29/25 Q1014","temp":29,"dewp":25,"wdir":120,"wspd":5,"visib":"6+","altim":1014,"clouds":[{"cover":"SCT","base":2500}],"obsTime":1775325600},"SBJP":{"icaoId":"SBJP","flightCategory":"VFR","rawOb":"METAR SBJP 041800Z 07010KT 9999 SCT020 SCT070 30/23 Q1011","temp":30,"dewp":23,"wdir":70,"wspd":10,"visib":"6+","altim":1011,"clouds":[{"cover":"SCT","base":2000},{"cover":"SCT","base":7000}],"obsTime":1775325600},"SBJV":{"icaoId":"SBJV","flightCategory":"VFR","rawOb":"METAR SBJV 041800Z 03004KT 330V080 9999 FEW030 32/25 Q1011","temp":32,"dewp":25,"wdir":30,"wspd":4,"visib":"6+","altim":1011,"clouds":[{"cover":"FEW","base":3000}],"obsTime":1775325600},"SBAN":{"icaoId":"SBAN","flightCategory":"MVFR","rawOb":"METAR SBAN 041800Z 33003KT 9999 TS VCSH BKN030 FEW035CB 24/19 Q1020","temp":24,"dewp":19,"wdir":330,"wspd":3,"visib":"6+","altim":1020,"clouds":[{"cover":"BKN","base":3000},{"cover":"FEW","base":3500}],"obsTime":1775325600},"SBIH":{"icaoId":"SBIH","flightCategory":"VFR","rawOb":"METAR SBIH 041800Z 03004KT 9999 FEW018 33/23 Q1008","temp":33,"dewp":23,"wdir":30,"wspd":4,"visib":"6+","altim":1008,"clouds":[{"cover":"FEW","base":1800}],"obsTime":1775325600},"SBLE":{"icaoId":"SBLE","flightCategory":"VFR","rawOb":"METAR SBLE 041800Z AUTO 14005KT 100V170 CAVOK 28/21 Q1015","temp":28,"dewp":21,"wdir":140,"wspd":5,"visib":"6+","altim":1015,"clouds":[],"obsTime":1775325600},"SBJR":{"icaoId":"SBJR","flightCategory":"VFR","rawOb":"METAR SBJR 041800Z 18006KT 9999 FEW025 FEW030TCU 31/23 Q1012","temp":31,"dewp":23,"wdir":180,"wspd":6,"visib":"6+","altim":1012,"clouds":[{"cover":"FEW","base":2500},{"cover":"FEW","base":3000}],"obsTime":1775325600},"SBGW":{"icaoId":"SBGW","flightCategory":"MVFR","rawOb":"METAR SBGW 041800Z 20004KT 160V250 9999 BKN030 31/17 Q1015","temp":31,"dewp":17,"wdir":200,"wspd":4,"visib":"6+","altim":1015,"clouds":[{"cover":"BKN","base":3000}],"obsTime":1775325600}}}