{"updated":1777361099,"count":49,"data":{"SBCG":{"icaoId":"SBCG","flightCategory":"LIFR","rawOb":"METAR SBCG 280600Z 13006KT 4000 BR OVC001 19/19 Q1014","temp":19,"dewp":19,"wdir":130,"wspd":6,"visib":2.49,"altim":1014,"clouds":[{"cover":"OVC","base":100}],"obsTime":1777356000},"SBFZ":{"icaoId":"SBFZ","flightCategory":"MVFR","rawOb":"METAR SBFZ 280600Z 28003KT 250V310 9999 BKN015 BKN050 26/24 Q1010","temp":26,"dewp":24,"wdir":280,"wspd":3,"visib":"6+","altim":1010,"clouds":[{"cover":"BKN","base":1500},{"cover":"BKN","base":5000}],"obsTime":1777356000},"SBMQ":{"icaoId":"SBMQ","flightCategory":"VFR","rawOb":"METAR SBMQ 280600Z 35003KT CAVOK 25/25 Q1011","temp":25,"dewp":25,"wdir":350,"wspd":3,"visib":"6+","altim":1011,"clouds":[],"obsTime":1777356000},"SBBE":{"icaoId":"SBBE","flightCategory":"VFR","rawOb":"METAR SBBE 280600Z 14003KT 9999 FEW020 BKN080 25/25 Q1011","temp":25,"dewp":25,"wdir":140,"wspd":3,"visib":"6+","altim":1011,"clouds":[{"cover":"FEW","base":2000},{"cover":"BKN","base":8000}],"obsTime":1777356000},"SBNT":{"icaoId":"SBNT","flightCategory":"VFR","rawOb":"METAR SBNT 280600Z 21004KT 9999 FEW018 SCT040 BKN100 24/24 Q1011","temp":24,"dewp":24,"wdir":210,"wspd":4,"visib":"6+","altim":1011,"clouds":[{"cover":"FEW","base":1800},{"cover":"SCT","base":4000},{"cover":"BKN","base":10000}],"obsTime":1777356000},"SBGL":{"icaoId":"SBGL","flightCategory":"MVFR","rawOb":"METAR SBGL 280600Z 14005KT 110V170 9999 BKN025 BKN070 26/23 Q1013","temp":26,"dewp":23,"wdir":140,"wspd":5,"visib":"6+","altim":1013,"clouds":[{"cover":"BKN","base":2500},{"cover":"BKN","base":7000}],"obsTime":1777356000},"SBPA":{"icaoId":"SBPA","flightCategory":"VFR","rawOb":"METAR SBPA 280600Z 02002KT CAVOK 09/07 Q1017","temp":9,"dewp":7,"wdir":20,"wspd":2,"visib":"6+","altim":1017,"clouds":[],"obsTime":1777356000},"SBCT":{"icaoId":"SBCT","flightCategory":"VFR","rawOb":"METAR SBCT 280600Z 07005KT 9999 FEW007 16/16 Q1018","temp":16,"dewp":16,"wdir":70,"wspd":5,"visib":"6+","altim":1018,"clouds":[{"cover":"FEW","base":700}],"obsTime":1777356000},"SBUR":{"icaoId":"SBUR","flightCategory":"VFR","rawOb":"METAR SBUR 280600Z 09002KT CAVOK 23/18 Q1016","temp":23,"dewp":18,"wdir":90,"wspd":2,"visib":"6+","altim":1016,"clouds":[],"obsTime":1777356000},"SBPJ":{"icaoId":"SBPJ","flightCategory":"IFR","rawOb":"SPECI SBPJ 280540Z 09007KT 3000 TSRA FEW013 SCT027 FEW033CB BKN050 23/22 Q1014","temp":23,"dewp":22,"wdir":90,"wspd":7,"visib":1.86,"altim":1014,"clouds":[{"cover":"FEW","base":1300},{"cover":"SCT","base":2700},{"cover":"FEW","base":3300},{"cover":"BKN","base":5000}],"obsTime":1777354800},"SBGO":{"icaoId":"SBGO","flightCategory":"VFR","rawOb":"METAR SBGO 280600Z 00000KT CAVOK 21/19 Q1016","temp":21,"dewp":19,"wdir":0,"wspd":0,"visib":"6+","altim":1016,"clouds":[],"obsTime":1777356000},"SBMA":{"icaoId":"SBMA","flightCategory":"VFR","rawOb":"METAR SBMA 280600Z 33003KT 9999 FEW015 BKN100 26/24 Q1011","temp":26,"dewp":24,"wdir":330,"wspd":3,"visib":"6+","altim":1011,"clouds":[{"cover":"FEW","base":1500},{"cover":"BKN","base":10000}],"obsTime":1777356000},"SBME":{"icaoId":"SBME","flightCategory":"VFR","rawOb":"METAR SBME 280600Z 27002KT CAVOK 23/22 Q1013","temp":23,"dewp":22,"wdir":270,"wspd":2,"visib":"6+","altim":1013,"clouds":[],"obsTime":1777356000},"SBFL":{"icaoId":"SBFL","flightCategory":"VFR","rawOb":"METAR SBFL 280600Z 17008KT 140V200 CAVOK 19/03 Q1016","temp":19,"dewp":3,"wdir":170,"wspd":8,"visib":"6+","altim":1016,"clouds":[],"obsTime":1777356000},"SBMG":{"icaoId":"SBMG","flightCategory":"MVFR","rawOb":"METAR SBMG 280600Z AUTO VRB02KT 9999 FEW014 OVC016 19/17 Q1014","temp":19,"dewp":17,"wdir":"VRB","wspd":2,"visib":"6+","altim":1014,"clouds":[{"cover":"FEW","base":1400},{"cover":"OVC","base":1600}],"obsTime":1777356000},"SBVT":{"icaoId":"SBVT","flightCategory":"VFR","rawOb":"METAR SBVT 280600Z 01008KT CAVOK 25/22 Q1013","temp":25,"dewp":22,"wdir":10,"wspd":8,"visib":"6+","altim":1013,"clouds":[],"obsTime":1777356000},"SBMO":{"icaoId":"SBMO","flightCategory":"MVFR","rawOb":"SPECI SBMO 280530Z 12006KT 080V140 6000 SHRA FEW011 BKN014 24/23 Q1013","temp":24,"dewp":23,"wdir":120,"wspd":6,"visib":3.73,"altim":1013,"clouds":[{"cover":"FEW","base":1100},{"cover":"BKN","base":1400}],"obsTime":1777354200},"SBPV":{"icaoId":"SBPV","flightCategory":"VFR","rawOb":"METAR SBPV 280600Z 06002KT 9999 FEW009 25/22 Q1011","temp":25,"dewp":22,"wdir":60,"wspd":2,"visib":"6+","altim":1011,"clouds":[{"cover":"FEW","base":900}],"obsTime":1777356000},"SBRB":{"icaoId":"SBRB","flightCategory":"MVFR","rawOb":"METAR SBRB 280600Z 02001KT 5000 BR VCTS FEW002 FEW030CB BKN100 23/23 Q1011","temp":23,"dewp":23,"wdir":20,"wspd":1,"visib":3.11,"altim":1011,"clouds":[{"cover":"FEW","base":200},{"cover":"FEW","base":3000},{"cover":"BKN","base":10000}],"obsTime":1777356000},"SBBV":{"icaoId":"SBBV","flightCategory":"VFR","rawOb":"METAR SBBV 280600Z 15005KT 9999 FEW040 26/23 Q1011","temp":26,"dewp":23,"wdir":150,"wspd":5,"visib":"6+","altim":1011,"clouds":[{"cover":"FEW","base":4000}],"obsTime":1777356000},"SBGR":{"icaoId":"SBGR","flightCategory":"IFR","rawOb":"METAR SBGR 280600Z 12002KT 8000 OVC009 21/19 Q1017","temp":21,"dewp":19,"wdir":120,"wspd":2,"visib":4.97,"altim":1017,"clouds":[{"cover":"OVC","base":900}],"obsTime":1777356000},"SBRF":{"icaoId":"SBRF","flightCategory":"MVFR","rawOb":"METAR SBRF 280600Z 14013KT 9999 SCT012 BKN015 BKN050 27/25 Q1011","temp":27,"dewp":25,"wdir":140,"wspd":13,"visib":"6+","altim":1011,"clouds":[{"cover":"SCT","base":1200},{"cover":"BKN","base":1500},{"cover":"BKN","base":5000}],"obsTime":1777356000},"SBBR":{"icaoId":"SBBR","flightCategory":"VFR","rawOb":"METAR SBBR 280600Z VRB01KT CAVOK 20/18 Q1018","temp":20,"dewp":18,"wdir":"VRB","wspd":1,"visib":"6+","altim":1018,"clouds":[],"obsTime":1777356000},"SBSG":{"icaoId":"SBSG","flightCategory":"IFR","rawOb":"METAR SBSG 280600Z 21002KT 9999 BKN005 FEW020TCU 24/24 Q1011","temp":24,"dewp":24,"wdir":210,"wspd":2,"visib":"6+","altim":1011,"clouds":[{"cover":"BKN","base":500},{"cover":"FEW","base":2000}],"obsTime":1777356000},"SBJU":{"icaoId":"SBJU","flightCategory":"VFR","rawOb":"METAR SBJU 280600Z 00000KT 9999 SCT020 22/20 Q1014","temp":22,"dewp":20,"wdir":0,"wspd":0,"visib":"6+","altim":1014,"clouds":[{"cover":"SCT","base":2000}],"obsTime":1777356000},"SBSL":{"icaoId":"SBSL","flightCategory":"VFR","rawOb":"METAR SBSL 280600Z 05003KT 9999 FEW020 BKN080 25/24 Q1010","temp":25,"dewp":24,"wdir":50,"wspd":3,"visib":"6+","altim":1010,"clouds":[{"cover":"FEW","base":2000},{"cover":"BKN","base":8000}],"obsTime":1777356000},"SBEG":{"icaoId":"SBEG","flightCategory":"VFR","rawOb":"METAR SBEG 280600Z 10004KT 9999 FEW010 BKN100 25/24 Q1011","temp":25,"dewp":24,"wdir":100,"wspd":4,"visib":"6+","altim":1011,"clouds":[{"cover":"FEW","base":1000},{"cover":"BKN","base":10000}],"obsTime":1777356000},"SBSN":{"icaoId":"SBSN","flightCategory":"MVFR","rawOb":"METAR SBSN 280600Z 08011KT 9999 VCTS SCT009 BKN021 FEW025CB BKN100 25/23 Q1011","temp":25,"dewp":23,"wdir":80,"wspd":11,"visib":"6+","altim":1011,"clouds":[{"cover":"SCT","base":900},{"cover":"BKN","base":2100},{"cover":"FEW","base":2500},{"cover":"BKN","base":10000}],"obsTime":1777356000},"SBSP":{"icaoId":"SBSP","flightCategory":"VFR","rawOb":"METAR SBSP 280600Z AUTO 10006KT 070V140 9999 FEW009 19/18 Q1017","temp":19,"dewp":18,"wdir":100,"wspd":6,"visib":"6+","altim":1017,"clouds":[{"cover":"FEW","base":900}],"obsTime":1777356000},"SBKP":{"icaoId":"SBKP","flightCategory":"VFR","rawOb":"METAR SBKP 280600Z 11004KT CAVOK 20/20 Q1016","temp":20,"dewp":20,"wdir":110,"wspd":4,"visib":"6+","altim":1016,"clouds":[],"obsTime":1777356000},"SBFI":{"icaoId":"SBFI","flightCategory":"VFR","rawOb":"METAR SBFI 280600Z 09001KT 9999 FEW002 09/09 Q1015","temp":9,"dewp":9,"wdir":90,"wspd":1,"visib":"6+","altim":1015,"clouds":[{"cover":"FEW","base":200}],"obsTime":1777356000},"SBSV":{"icaoId":"SBSV","flightCategory":"VFR","rawOb":"METAR SBSV 280600Z 10006KT 070V130 9999 SCT025 27/22 Q1014","temp":27,"dewp":22,"wdir":100,"wspd":6,"visib":"6+","altim":1014,"clouds":[{"cover":"SCT","base":2500}],"obsTime":1777356000},"SBTE":{"icaoId":"SBTE","flightCategory":"VFR","rawOb":"METAR SBTE 280600Z 10004KT 9999 SCT015 BKN090 26/24 Q1011","temp":26,"dewp":24,"wdir":100,"wspd":4,"visib":"6+","altim":1011,"clouds":[{"cover":"SCT","base":1500},{"cover":"BKN","base":9000}],"obsTime":1777356000},"SBLO":{"icaoId":"SBLO","flightCategory":"LIFR","rawOb":"METAR SBLO 280600Z 09005KT 9999 BKN004 OVC020 20/19 Q1015","temp":20,"dewp":19,"wdir":90,"wspd":5,"visib":"6+","altim":1015,"clouds":[{"cover":"BKN","base":400},{"cover":"OVC","base":2000}],"obsTime":1777356000},"SBCF":{"icaoId":"SBCF","flightCategory":"VFR","rawOb":"METAR SBCF 280600Z 00000KT CAVOK 20/17 Q1018","temp":20,"dewp":17,"wdir":0,"wspd":0,"visib":"6+","altim":1018,"clouds":[],"obsTime":1777356000},"SBUL":{"icaoId":"SBUL","flightCategory":"VFR","rawOb":"METAR SBUL 280600Z 16007KT CAVOK 22/17 Q1018","temp":22,"dewp":17,"wdir":160,"wspd":7,"visib":"6+","altim":1018,"clouds":[],"obsTime":1777356000},"SBOI":{"icaoId":"SBOI","flightCategory":"MVFR","rawOb":"METAR SBOI 280600Z AUTO 00000KT 9999 // FEW001/// BKN020/// 24/23 Q1011","temp":24,"dewp":23,"wdir":0,"wspd":0,"visib":"6+","altim":1011,"clouds":[{"cover":"FEW","base":100},{"cover":"BKN","base":2000}],"obsTime":1777356000},"SBAR":{"icaoId":"SBAR","flightCategory":"VFR","rawOb":"METAR SBAR 280600Z 10002KT 9999 FEW025 BKN060 27/23 Q1013","temp":27,"dewp":23,"wdir":100,"wspd":2,"visib":"6+","altim":1013,"clouds":[{"cover":"FEW","base":2500},{"cover":"BKN","base":6000}],"obsTime":1777356000},"SBAX":{"icaoId":"SBAX","flightCategory":"VFR","rawOb":"METAR SBAX 280600Z AUTO 16003KT CAVOK 20/17 Q1018","temp":20,"dewp":17,"wdir":160,"wspd":3,"visib":"6+","altim":1018,"clouds":[],"obsTime":1777356000},"SBSR":{"icaoId":"SBSR","flightCategory":"VFR","rawOb":"METAR SBSR 280600Z 16002KT CAVOK 21/20 Q1015","temp":21,"dewp":20,"wdir":160,"wspd":2,"visib":"6+","altim":1015,"clouds":[],"obsTime":1777356000},"SBDN":{"icaoId":"SBDN","flightCategory":"LIFR","rawOb":"METAR SBDN 280600Z 00000KT 8000 BKN002 21/20 Q1014","temp":21,"dewp":20,"wdir":0,"wspd":0,"visib":4.97,"altim":1014,"clouds":[{"cover":"BKN","base":200}],"obsTime":1777356000},"SBIP":{"icaoId":"SBIP","flightCategory":"VFR","rawOb":"METAR SBIP 280600Z AUTO VRB02KT CAVOK 19/19 Q1015","temp":19,"dewp":19,"wdir":"VRB","wspd":2,"visib":"6+","altim":1015,"clouds":[],"obsTime":1777356000},"SBKG":{"icaoId":"SBKG","flightCategory":"MVFR","rawOb":"METAR SBKG 280600Z 22004KT 9999 -RA BKN010 22/21 Q1013","temp":22,"dewp":21,"wdir":220,"wspd":4,"visib":"6+","altim":1013,"clouds":[{"cover":"BKN","base":1000}],"obsTime":1777356000},"SBPL":{"icaoId":"SBPL","flightCategory":"VFR","rawOb":"METAR SBPL 280600Z 12006KT CAVOK 24/20 Q1014","temp":24,"dewp":20,"wdir":120,"wspd":6,"visib":"6+","altim":1014,"clouds":[],"obsTime":1777356000},"SBPS":{"icaoId":"SBPS","flightCategory":"VFR","rawOb":"METAR SBPS 280600Z 25002KT 9999 FEW020 22/21 Q1014","temp":22,"dewp":21,"wdir":250,"wspd":2,"visib":"6+","altim":1014,"clouds":[{"cover":"FEW","base":2000}],"obsTime":1777356000},"SBSC":{"icaoId":"SBSC","flightCategory":"MVFR","rawOb":"METAR SBSC 280600Z 16003KT 8000 -DZ FEW010 BKN020 24/23 Q1014","temp":24,"dewp":23,"wdir":160,"wspd":3,"visib":4.97,"altim":1014,"clouds":[{"cover":"FEW","base":1000},{"cover":"BKN","base":2000}],"obsTime":1777356000},"SBJP":{"icaoId":"SBJP","flightCategory":"IFR","rawOb":"METAR SBJP 280600Z 31003KT 2000 +RA BKN006 BKN012 24/24 Q1011","temp":24,"dewp":24,"wdir":310,"wspd":3,"visib":1.24,"altim":1011,"clouds":[{"cover":"BKN","base":600},{"cover":"BKN","base":1200}],"obsTime":1777356000},"SBAN":{"icaoId":"SBAN","flightCategory":"VFR","rawOb":"METAR SBAN 280600Z 11003KT 9999 FEW030 BKN100 21/18 Q1019","temp":21,"dewp":18,"wdir":110,"wspd":3,"visib":"6+","altim":1019,"clouds":[{"cover":"FEW","base":3000},{"cover":"BKN","base":10000}],"obsTime":1777356000},"SBLE":{"icaoId":"SBLE","flightCategory":"VFR","rawOb":"METAR SBLE 280600Z AUTO 03002KT 9999 FEW021 BKN045 ///// Q////","temp":null,"dewp":null,"wdir":30,"wspd":2,"visib":"6+","altim":null,"clouds":[{"cover":"FEW","base":2100},{"cover":"BKN","base":4500}],"obsTime":1777356000}}}