{"updated":1783092651,"count":87,"data":{"SBCB":{"icaoId":"SBCB","flightCategory":"VFR","rawOb":"METAR SBCB 031400Z 33005KT CAVOK 24/21 Q1020","temp":24,"dewp":21,"wdir":330,"wspd":5,"visib":"6+","altim":1020,"clouds":[],"obsTime":1783087200},"SBLO":{"icaoId":"SBLO","flightCategory":"IFR","rawOb":"METAR SBLO 031400Z 12001KT 9999 BKN008 20/18 Q1023","temp":20,"dewp":18,"wdir":120,"wspd":1,"visib":"6+","altim":1023,"clouds":[{"cover":"BKN","base":800}],"obsTime":1783087200},"SBUL":{"icaoId":"SBUL","flightCategory":"VFR","rawOb":"METAR SBUL 031400Z 10007KT 9999 FEW020 23/14 Q1025","temp":23,"dewp":14,"wdir":100,"wspd":7,"visib":"6+","altim":1025,"clouds":[{"cover":"FEW","base":2000}],"obsTime":1783087200},"SBGR":{"icaoId":"SBGR","flightCategory":"VFR","rawOb":"METAR SBGR 031400Z 30006KT CAVOK 25/13 Q1024","temp":25,"dewp":13,"wdir":300,"wspd":6,"visib":"6+","altim":1024,"clouds":[],"obsTime":1783087200},"SBSG":{"icaoId":"SBSG","flightCategory":"IFR","rawOb":"METAR SBSG 031400Z 15008KT 100V190 2000 RA BKN011 25/24 Q1016","temp":25,"dewp":24,"wdir":150,"wspd":8,"visib":1.24,"altim":1016,"clouds":[{"cover":"BKN","base":1100}],"obsTime":1783087200},"SBEG":{"icaoId":"SBEG","flightCategory":"VFR","rawOb":"METAR SBEG 031400Z 12006KT 9999 FEW030 30/24 Q1014","temp":30,"dewp":24,"wdir":120,"wspd":6,"visib":"6+","altim":1014,"clouds":[{"cover":"FEW","base":3000}],"obsTime":1783087200},"SBKP":{"icaoId":"SBKP","flightCategory":"VFR","rawOb":"METAR SBKP 031400Z VRB02KT CAVOK 24/15 Q1023","temp":24,"dewp":15,"wdir":"VRB","wspd":2,"visib":"6+","altim":1023,"clouds":[],"obsTime":1783087200},"SBUR":{"icaoId":"SBUR","flightCategory":"VFR","rawOb":"METAR SBUR 031400Z 03006KT 9999 FEW040 25/13 Q1024","temp":25,"dewp":13,"wdir":30,"wspd":6,"visib":"6+","altim":1024,"clouds":[{"cover":"FEW","base":4000}],"obsTime":1783087200},"SBFZ":{"icaoId":"SBFZ","flightCategory":"VFR","rawOb":"METAR SBFZ 031400Z 14014KT 9999 FEW030 BKN060 27/21 Q1014","temp":27,"dewp":21,"wdir":140,"wspd":14,"visib":"6+","altim":1014,"clouds":[{"cover":"FEW","base":3000},{"cover":"BKN","base":6000}],"obsTime":1783087200},"SBSN":{"icaoId":"SBSN","flightCategory":"VFR","rawOb":"METAR SBSN 031400Z 08009KT 9999 FEW020 30/26 Q1013","temp":30,"dewp":26,"wdir":80,"wspd":9,"visib":"6+","altim":1013,"clouds":[{"cover":"FEW","base":2000}],"obsTime":1783087200},"SBBR":{"icaoId":"SBBR","flightCategory":"VFR","rawOb":"METAR SBBR 031400Z 09010KT 060V120 CAVOK 22/10 Q1024","temp":22,"dewp":10,"wdir":90,"wspd":10,"visib":"6+","altim":1024,"clouds":[],"obsTime":1783087200},"SBPV":{"icaoId":"SBPV","flightCategory":"VFR","rawOb":"METAR SBPV 031400Z 15014KT CAVOK 28/21 Q1015","temp":28,"dewp":21,"wdir":150,"wspd":14,"visib":"6+","altim":1015,"clouds":[],"obsTime":1783087200},"SBMQ":{"icaoId":"SBMQ","flightCategory":"VFR","rawOb":"METAR SBMQ 031400Z VRB03KT 9999 SCT023 BKN085 29/24 Q1013","temp":29,"dewp":24,"wdir":"VRB","wspd":3,"visib":"6+","altim":1013,"clouds":[{"cover":"SCT","base":2300},{"cover":"BKN","base":8500}],"obsTime":1783087200},"SBNT":{"icaoId":"SBNT","flightCategory":"MVFR","rawOb":"METAR SBNT 031400Z 17012KT 9000 4000E -RA BKN013 BKN020 FEW026TCU OVC040 26/24 Q1015","temp":26,"dewp":24,"wdir":170,"wspd":12,"visib":5.59,"altim":1015,"clouds":[{"cover":"BKN","base":1300},{"cover":"BKN","base":2000},{"cover":"FEW","base":2600},{"cover":"OVC","base":4000}],"obsTime":1783087200},"SBFI":{"icaoId":"SBFI","flightCategory":"IFR","rawOb":"METAR SBFI 031400Z 18007KT 9999 BKN008 BKN070 11/09 Q1026","temp":11,"dewp":9,"wdir":180,"wspd":7,"visib":"6+","altim":1026,"clouds":[{"cover":"BKN","base":800},{"cover":"BKN","base":7000}],"obsTime":1783087200},"SBGL":{"icaoId":"SBGL","flightCategory":"MVFR","rawOb":"METAR SBGL 031400Z 36003KT 320V050 5000 HZ NSC 27/19 Q1019","temp":27,"dewp":19,"wdir":360,"wspd":3,"visib":3.11,"altim":1019,"clouds":[],"obsTime":1783087200},"SBSP":{"icaoId":"SBSP","flightCategory":"VFR","rawOb":"METAR SBSP 031400Z 30006KT 240V340 CAVOK 24/13 Q1024","temp":24,"dewp":13,"wdir":300,"wspd":6,"visib":"6+","altim":1024,"clouds":[],"obsTime":1783087200},"SBBE":{"icaoId":"SBBE","flightCategory":"VFR","rawOb":"METAR SBBE 031400Z 11006KT 9999 FEW015 SCT089 31/24 Q1013","temp":31,"dewp":24,"wdir":110,"wspd":6,"visib":"6+","altim":1013,"clouds":[{"cover":"FEW","base":1500},{"cover":"SCT","base":8900}],"obsTime":1783087200},"SBCP":{"icaoId":"SBCP","flightCategory":"VFR","rawOb":"METAR SBCP 031400Z 36008KT CAVOK 29/17 Q1019","temp":29,"dewp":17,"wdir":360,"wspd":8,"visib":"6+","altim":1019,"clouds":[],"obsTime":1783087200},"SBRF":{"icaoId":"SBRF","flightCategory":"MVFR","rawOb":"METAR SBRF 031400Z 12013KT 9999 BKN023 BKN060 28/22 Q1016","temp":28,"dewp":22,"wdir":120,"wspd":13,"visib":"6+","altim":1016,"clouds":[{"cover":"BKN","base":2300},{"cover":"BKN","base":6000}],"obsTime":1783087200},"SBCR":{"icaoId":"SBCR","flightCategory":"MVFR","rawOb":"METAR SBCR 031400Z 22011KT 180V250 9999 SCT008 BKN016 BKN066 15/13 Q1025","temp":15,"dewp":13,"wdir":220,"wspd":11,"visib":"6+","altim":1025,"clouds":[{"cover":"SCT","base":800},{"cover":"BKN","base":1600},{"cover":"BKN","base":6600}],"obsTime":1783087200},"SBMO":{"icaoId":"SBMO","flightCategory":"VFR","rawOb":"METAR SBMO 031400Z 11013KT 9999 SCT035 28/19 Q1018","temp":28,"dewp":19,"wdir":110,"wspd":13,"visib":"6+","altim":1018,"clouds":[{"cover":"SCT","base":3500}],"obsTime":1783087200},"SBSL":{"icaoId":"SBSL","flightCategory":"VFR","rawOb":"METAR SBSL 031400Z 08006KT 9999 SCT030 31/24 Q1013","temp":31,"dewp":24,"wdir":80,"wspd":6,"visib":"6+","altim":1013,"clouds":[{"cover":"SCT","base":3000}],"obsTime":1783087200},"SBBV":{"icaoId":"SBBV","flightCategory":"VFR","rawOb":"METAR SBBV 031400Z 04006KT 9999 SCT009 SCT030 FEW035TCU BKN070 26/24 Q1016","temp":26,"dewp":24,"wdir":40,"wspd":6,"visib":"6+","altim":1016,"clouds":[{"cover":"SCT","base":900},{"cover":"SCT","base":3000},{"cover":"FEW","base":3500},{"cover":"BKN","base":7000}],"obsTime":1783087200},"SBCZ":{"icaoId":"SBCZ","flightCategory":"MVFR","rawOb":"METAR SBCZ 031400Z 12009KT 9999 BKN015 27/24 Q1016","temp":27,"dewp":24,"wdir":120,"wspd":9,"visib":"6+","altim":1016,"clouds":[{"cover":"BKN","base":1500}],"obsTime":1783087200},"SBGO":{"icaoId":"SBGO","flightCategory":"VFR","rawOb":"METAR SBGO 031400Z 09010KT CAVOK 26/12 Q1023","temp":26,"dewp":12,"wdir":90,"wspd":10,"visib":"6+","altim":1023,"clouds":[],"obsTime":1783087200},"SBSV":{"icaoId":"SBSV","flightCategory":"VFR","rawOb":"METAR SBSV 031400Z 09013KT 9999 SCT025 28/20 Q1019","temp":28,"dewp":20,"wdir":90,"wspd":13,"visib":"6+","altim":1019,"clouds":[{"cover":"SCT","base":2500}],"obsTime":1783087200},"SBCT":{"icaoId":"SBCT","flightCategory":"IFR","rawOb":"METAR SBCT 031400Z 08004KT 8000 BKN005 OVC010 16/15 Q1023","temp":16,"dewp":15,"wdir":80,"wspd":4,"visib":4.97,"altim":1023,"clouds":[{"cover":"BKN","base":500},{"cover":"OVC","base":1000}],"obsTime":1783087200},"SBCG":{"icaoId":"SBCG","flightCategory":"LIFR","rawOb":"METAR SBCG 031400Z 15008KT 9999 OVC004 15/14 Q1024","temp":15,"dewp":14,"wdir":150,"wspd":8,"visib":"6+","altim":1024,"clouds":[{"cover":"OVC","base":400}],"obsTime":1783087200},"SBTE":{"icaoId":"SBTE","flightCategory":"VFR","rawOb":"METAR SBTE 031400Z 14008KT CAVOK 30/16 Q1014","temp":30,"dewp":16,"wdir":140,"wspd":8,"visib":"6+","altim":1014,"clouds":[],"obsTime":1783087200},"SBAT":{"icaoId":"SBAT","flightCategory":"VFR","rawOb":"METAR SBAT 031400Z 13015KT CAVOK 31/14 Q1017","temp":31,"dewp":14,"wdir":130,"wspd":15,"visib":"6+","altim":1017,"clouds":[],"obsTime":1783087200},"SBHT":{"icaoId":"SBHT","flightCategory":"VFR","rawOb":"METAR SBHT 031400Z 09009KT 9999 FEW020 SCT080 31/22 Q1014","temp":31,"dewp":22,"wdir":90,"wspd":9,"visib":"6+","altim":1014,"clouds":[{"cover":"FEW","base":2000},{"cover":"SCT","base":8000}],"obsTime":1783087200},"SBMG":{"icaoId":"SBMG","flightCategory":"LIFR","rawOb":"METAR SBMG 031400Z 28006KT 1200 0300W R10/1500U BR PRFG BKN001 OVC004 16/16 Q1023","temp":16,"dewp":16,"wdir":280,"wspd":6,"visib":0.75,"altim":1023,"clouds":[{"cover":"BKN","base":100},{"cover":"OVC","base":400}],"obsTime":1783087200},"SBIL":{"icaoId":"SBIL","flightCategory":"VFR","rawOb":"METAR SBIL 031400Z 13013KT 9999 SCT020 28/22 Q1019","temp":28,"dewp":22,"wdir":130,"wspd":13,"visib":"6+","altim":1019,"clouds":[{"cover":"SCT","base":2000}],"obsTime":1783087200},"SBFL":{"icaoId":"SBFL","flightCategory":"MVFR","rawOb":"METAR SBFL 031400Z 14005KT 090V190 9999 SCT020 BKN030 14/09 Q1023","temp":14,"dewp":9,"wdir":140,"wspd":5,"visib":"6+","altim":1023,"clouds":[{"cover":"SCT","base":2000},{"cover":"BKN","base":3000}],"obsTime":1783087200},"SBJU":{"icaoId":"SBJU","flightCategory":"VFR","rawOb":"METAR SBJU 031400Z 15010KT 9999 FEW021 30/16 Q1017","temp":30,"dewp":16,"wdir":150,"wspd":10,"visib":"6+","altim":1017,"clouds":[{"cover":"FEW","base":2100}],"obsTime":1783087200},"SBME":{"icaoId":"SBME","flightCategory":"VFR","rawOb":"METAR SBME 031400Z 17003KT CAVOK 26/20 Q1019","temp":26,"dewp":20,"wdir":170,"wspd":3,"visib":"6+","altim":1019,"clouds":[],"obsTime":1783087200},"SBCF":{"icaoId":"SBCF","flightCategory":"VFR","rawOb":"METAR SBCF 031400Z 20003KT CAVOK 23/13 Q1024","temp":23,"dewp":13,"wdir":200,"wspd":3,"visib":"6+","altim":1024,"clouds":[],"obsTime":1783087200},"SBPJ":{"icaoId":"SBPJ","flightCategory":"VFR","rawOb":"METAR SBPJ 031400Z 11012KT CAVOK 31/15 Q1017","temp":31,"dewp":15,"wdir":110,"wspd":12,"visib":"6+","altim":1017,"clouds":[],"obsTime":1783087200},"SBRB":{"icaoId":"SBRB","flightCategory":"VFR","rawOb":"METAR SBRB 031400Z 14010KT 9999 FEW017 BKN100 20/17 Q1019","temp":20,"dewp":17,"wdir":140,"wspd":10,"visib":"6+","altim":1019,"clouds":[{"cover":"FEW","base":1700},{"cover":"BKN","base":10000}],"obsTime":1783087200},"SBVT":{"icaoId":"SBVT","flightCategory":"VFR","rawOb":"METAR SBVT 031400Z 06008KT 9999 SCT040 27/21 Q1020","temp":27,"dewp":21,"wdir":60,"wspd":8,"visib":"6+","altim":1020,"clouds":[{"cover":"SCT","base":4000}],"obsTime":1783087200},"SBMA":{"icaoId":"SBMA","flightCategory":"VFR","rawOb":"METAR SBMA 031400Z 11003KT 9999 FEW020 32/20 Q1014","temp":32,"dewp":20,"wdir":110,"wspd":3,"visib":"6+","altim":1014,"clouds":[{"cover":"FEW","base":2000}],"obsTime":1783087200},"SBMK":{"icaoId":"SBMK","flightCategory":"VFR","rawOb":"METAR SBMK 031400Z 08008KT 9999 FEW040 27/16 Q1022","temp":27,"dewp":16,"wdir":80,"wspd":8,"visib":"6+","altim":1022,"clouds":[{"cover":"FEW","base":4000}],"obsTime":1783087200},"SBPA":{"icaoId":"SBPA","flightCategory":"VFR","rawOb":"METAR SBPA 031400Z 29012KT CAVOK 07/02 Q1028","temp":7,"dewp":2,"wdir":290,"wspd":12,"visib":"6+","altim":1028,"clouds":[],"obsTime":1783087200},"SBAX":{"icaoId":"SBAX","flightCategory":"VFR","rawOb":"METAR SBAX 031400Z 03005KT CAVOK 23/13 Q1025","temp":23,"dewp":13,"wdir":30,"wspd":5,"visib":"6+","altim":1025,"clouds":[],"obsTime":1783087200},"SBCJ":{"icaoId":"SBCJ","flightCategory":"VFR","rawOb":"METAR SBCJ 031400Z 16003KT 080V230 CAVOK 28/12 Q1018","temp":28,"dewp":12,"wdir":160,"wspd":3,"visib":"6+","altim":1018,"clouds":[],"obsTime":1783087200},"SBCC":{"icaoId":"SBCC","flightCategory":"VFR","rawOb":"METAR SBCC 031400Z 08014KT 050V110 CAVOK 29/12 Q1018","temp":29,"dewp":12,"wdir":80,"wspd":14,"visib":"6+","altim":1018,"clouds":[],"obsTime":1783087200},"SBGM":{"icaoId":"SBGM","flightCategory":"MVFR","rawOb":"METAR SBGM 031400Z 12011KT 9999 OVC011 21/16 Q1018","temp":21,"dewp":16,"wdir":120,"wspd":11,"visib":"6+","altim":1018,"clouds":[{"cover":"OVC","base":1100}],"obsTime":1783087200},"SBVH":{"icaoId":"SBVH","flightCategory":"VFR","rawOb":"METAR SBVH 031400Z 15012KT CAVOK 23/16 Q1021","temp":23,"dewp":16,"wdir":150,"wspd":12,"visib":"6+","altim":1021,"clouds":[],"obsTime":1783087200},"SBCA":{"icaoId":"SBCA","flightCategory":"LIFR","rawOb":"METAR SBCA 031400Z 16011KT 3800 BR OVC002 10/10 Q1025","temp":10,"dewp":10,"wdir":160,"wspd":11,"visib":2.36,"altim":1025,"clouds":[{"cover":"OVC","base":200}],"obsTime":1783087200},"SBCO":{"icaoId":"SBCO","flightCategory":"VFR","rawOb":"METAR SBCO 031400Z 28013KT 9999 FEW024 08/02 Q1028","temp":8,"dewp":2,"wdir":280,"wspd":13,"visib":"6+","altim":1028,"clouds":[{"cover":"FEW","base":2400}],"obsTime":1783087200},"SBSM":{"icaoId":"SBSM","flightCategory":"VFR","rawOb":"METAR SBSM 031400Z 26004KT 9999 FEW017 06/01 Q1030","temp":6,"dewp":1,"wdir":260,"wspd":4,"visib":"6+","altim":1030,"clouds":[{"cover":"FEW","base":1700}],"obsTime":1783087200},"SBKG":{"icaoId":"SBKG","flightCategory":"MVFR","rawOb":"METAR SBKG 031400Z 12013KT 9999 SCT010 BKN020 24/19 Q1018","temp":24,"dewp":19,"wdir":120,"wspd":13,"visib":"6+","altim":1018,"clouds":[{"cover":"SCT","base":1000},{"cover":"BKN","base":2000}],"obsTime":1783087200},"SBBH":{"icaoId":"SBBH","flightCategory":"VFR","rawOb":"METAR SBBH 031400Z 03002KT CAVOK 24/13 Q1024","temp":24,"dewp":13,"wdir":30,"wspd":2,"visib":"6+","altim":1024,"clouds":[],"obsTime":1783087200},"SBBQ":{"icaoId":"SBBQ","flightCategory":"VFR","rawOb":"METAR SBBQ 031400Z 28005KT CAVOK 21/14 Q1027","temp":21,"dewp":14,"wdir":280,"wspd":5,"visib":"6+","altim":1027,"clouds":[],"obsTime":1783087200},"SBBU":{"icaoId":"SBBU","flightCategory":"VFR","rawOb":"METAR SBBU 031400Z 06006KT CAVOK 25/15 Q1023","temp":25,"dewp":15,"wdir":60,"wspd":6,"visib":"6+","altim":1023,"clouds":[],"obsTime":1783087200},"SBDN":{"icaoId":"SBDN","flightCategory":"LIFR","rawOb":"METAR SBDN 031400Z 23006KT 1600 BR OVC002 17/17 Q1023","temp":17,"dewp":17,"wdir":230,"wspd":6,"visib":0.99,"altim":1023,"clouds":[{"cover":"OVC","base":200}],"obsTime":1783087200},"SBIP":{"icaoId":"SBIP","flightCategory":"VFR","rawOb":"METAR SBIP 031400Z AUTO VRB04KT CAVOK 25/16 Q1022","temp":25,"dewp":16,"wdir":"VRB","wspd":4,"visib":"6+","altim":1022,"clouds":[],"obsTime":1783087200},"SBSC":{"icaoId":"SBSC","flightCategory":"VFR","rawOb":"METAR SBSC 031400Z 02002KT CAVOK 29/20 Q1020","temp":29,"dewp":20,"wdir":20,"wspd":2,"visib":"6+","altim":1020,"clouds":[],"obsTime":1783087200},"SBSR":{"icaoId":"SBSR","flightCategory":"VFR","rawOb":"METAR SBSR 031400Z 13002KT CAVOK 26/13 Q1023","temp":26,"dewp":13,"wdir":130,"wspd":2,"visib":"6+","altim":1023,"clouds":[],"obsTime":1783087200},"SBPP":{"icaoId":"SBPP","flightCategory":"LIFR","rawOb":"METAR SBPP 031400Z 20007KT 0000 FG VV000 10/10 Q1025","temp":10,"dewp":10,"wdir":200,"wspd":7,"visib":0,"altim":1025,"clouds":[{"cover":"OVX","base":0}],"obsTime":1783087200},"SBTD":{"icaoId":"SBTD","flightCategory":"VFR","rawOb":"METAR SBTD 031400Z /////KT 9999 FEW005 SCT018 BKN080 16/11 Q1025","temp":16,"dewp":11,"wdir":null,"wspd":null,"visib":"6+","altim":1025,"clouds":[{"cover":"FEW","base":500},{"cover":"SCT","base":1800},{"cover":"BKN","base":8000}],"obsTime":1783087200},"SBES":{"icaoId":"SBES","flightCategory":"VFR","rawOb":"METAR SBES 031400Z 22006KT 190V250 CAVOK 23/// Q1019","temp":null,"dewp":null,"wdir":220,"wspd":6,"visib":"6+","altim":1019,"clouds":[],"obsTime":1783087200},"SBTU":{"icaoId":"SBTU","flightCategory":"IFR","rawOb":"METAR SBTU 031400Z AUTO 28004KT 240V330 4800 // NCD 30/22 Q1015","temp":30,"dewp":22,"wdir":280,"wspd":4,"visib":2.98,"altim":1015,"clouds":[],"obsTime":1783087200},"SBUY":{"icaoId":"SBUY","flightCategory":"VFR","rawOb":"METAR SBUY 031400Z 14005KT CAVOK 29/24 Q1013","temp":29,"dewp":24,"wdir":140,"wspd":5,"visib":"6+","altim":1013,"clouds":[],"obsTime":1783087200},"SBTT":{"icaoId":"SBTT","flightCategory":"VFR","rawOb":"METAR SBTT 031400Z 16003KT 100V220 9999 FEW012 SCT050 27/23 Q1015","temp":27,"dewp":23,"wdir":160,"wspd":3,"visib":"6+","altim":1015,"clouds":[{"cover":"FEW","base":1200},{"cover":"SCT","base":5000}],"obsTime":1783087200},"SBPS":{"icaoId":"SBPS","flightCategory":"VFR","rawOb":"METAR SBPS 031400Z 10009KT 9999 SCT025 27/20 Q1020","temp":27,"dewp":20,"wdir":100,"wspd":9,"visib":"6+","altim":1020,"clouds":[{"cover":"SCT","base":2500}],"obsTime":1783087200},"SBTF":{"icaoId":"SBTF","flightCategory":"VFR","rawOb":"METAR SBTF 031400Z 12007KT 9999 FEW025 30/25 Q1013","temp":30,"dewp":25,"wdir":120,"wspd":7,"visib":"6+","altim":1013,"clouds":[{"cover":"FEW","base":2500}],"obsTime":1783087200},"SBPB":{"icaoId":"SBPB","flightCategory":"VFR","rawOb":"METAR SBPB 031400Z 13007KT 9999 FEW020 32/22 Q1013","temp":32,"dewp":22,"wdir":130,"wspd":7,"visib":"6+","altim":1013,"clouds":[{"cover":"FEW","base":2000}],"obsTime":1783087200},"SBSJ":{"icaoId":"SBSJ","flightCategory":"VFR","rawOb":"METAR SBSJ 031400Z 30002KT CAVOK 22/15 Q1023","temp":22,"dewp":15,"wdir":300,"wspd":2,"visib":"6+","altim":1023,"clouds":[],"obsTime":1783087200},"SBOI":{"icaoId":"SBOI","flightCategory":"MVFR","rawOb":"METAR SBOI 031400Z AUTO 14004KT 070V180 9999 -RA BKN024 BKN029 29/25 Q1014","temp":29,"dewp":25,"wdir":140,"wspd":4,"visib":"6+","altim":1014,"clouds":[{"cover":"BKN","base":2400},{"cover":"BKN","base":2900}],"obsTime":1783087200},"SBAR":{"icaoId":"SBAR","flightCategory":"VFR","rawOb":"METAR SBAR 031400Z 10007KT 9999 FEW024 28/21 Q1018","temp":28,"dewp":21,"wdir":100,"wspd":7,"visib":"6+","altim":1018,"clouds":[{"cover":"FEW","base":2400}],"obsTime":1783087200},"SBPL":{"icaoId":"SBPL","flightCategory":"MVFR","rawOb":"METAR SBPL 031400Z 10011KT 9999 SCT020 BKN030 28/19 Q1018","temp":28,"dewp":19,"wdir":100,"wspd":11,"visib":"6+","altim":1018,"clouds":[{"cover":"SCT","base":2000},{"cover":"BKN","base":3000}],"obsTime":1783087200},"SBJP":{"icaoId":"SBJP","flightCategory":"MVFR","rawOb":"METAR SBJP 031400Z 13017KT 9999 BKN020 BKN070 28/23 Q1016","temp":28,"dewp":23,"wdir":130,"wspd":17,"visib":"6+","altim":1016,"clouds":[{"cover":"BKN","base":2000},{"cover":"BKN","base":7000}],"obsTime":1783087200},"SBJV":{"icaoId":"SBJV","flightCategory":"LIFR","rawOb":"METAR SBJV 031400Z 11008KT 2000 -DZ BR BKN004 OVC010 15/14 Q1023","temp":15,"dewp":14,"wdir":110,"wspd":8,"visib":1.24,"altim":1023,"clouds":[{"cover":"BKN","base":400},{"cover":"OVC","base":1000}],"obsTime":1783087200},"SBNM":{"icaoId":"SBNM","flightCategory":"VFR","rawOb":"METAR SBNM 031400Z 16004KT 9999 FEW006 07/00 Q1029","temp":7,"dewp":0,"wdir":160,"wspd":4,"visib":"6+","altim":1029,"clouds":[{"cover":"FEW","base":600}],"obsTime":1783087200},"SBPF":{"icaoId":"SBPF","flightCategory":"MVFR","rawOb":"METAR SBPF 031400Z 21005KT 9999 BKN019 05/02 Q1026","temp":5,"dewp":2,"wdir":210,"wspd":5,"visib":"6+","altim":1026,"clouds":[{"cover":"BKN","base":1900}],"obsTime":1783087200},"SBLE":{"icaoId":"SBLE","flightCategory":"MVFR","rawOb":"METAR SBLE 031400Z AUTO 17004KT 080V230 9999 SCT015 OVC019 ///// Q1021","temp":null,"dewp":null,"wdir":170,"wspd":4,"visib":"6+","altim":1021,"clouds":[{"cover":"SCT","base":1500},{"cover":"OVC","base":1900}],"obsTime":1783087200},"SBAN":{"icaoId":"SBAN","flightCategory":"VFR","rawOb":"METAR SBAN 031400Z 06011KT CAVOK 22/11 Q1025","temp":22,"dewp":11,"wdir":60,"wspd":11,"visib":"6+","altim":1025,"clouds":[],"obsTime":1783087200},"SBAF":{"icaoId":"SBAF","flightCategory":"VFR","rawOb":"METAR SBAF 031400Z VRB04KT CAVOK 28/18 Q1020","temp":28,"dewp":18,"wdir":"VRB","wspd":4,"visib":"6+","altim":1020,"clouds":[],"obsTime":1783087200},"SBGW":{"icaoId":"SBGW","flightCategory":"VFR","rawOb":"METAR SBGW 031400Z 24004KT 200V270 9999 FEW015 21/14 Q1023","temp":21,"dewp":14,"wdir":240,"wspd":4,"visib":"6+","altim":1023,"clouds":[{"cover":"FEW","base":1500}],"obsTime":1783087200},"SBJR":{"icaoId":"SBJR","flightCategory":"VFR","rawOb":"METAR SBJR 031400Z 17006KT CAVOK 30/19 Q1019","temp":30,"dewp":19,"wdir":170,"wspd":6,"visib":"6+","altim":1019,"clouds":[],"obsTime":1783087200},"SBLS":{"icaoId":"SBLS","flightCategory":"VFR","rawOb":"METAR SBLS 031400Z VRB03KT CAVOK 23/12 Q1024","temp":23,"dewp":12,"wdir":"VRB","wspd":3,"visib":"6+","altim":1024,"clouds":[],"obsTime":1783087200},"SBMT":{"icaoId":"SBMT","flightCategory":"VFR","rawOb":"METAR SBMT 031400Z 32005KT 280V020 CAVOK 24/12 Q1023","temp":24,"dewp":12,"wdir":320,"wspd":5,"visib":"6+","altim":1023,"clouds":[],"obsTime":1783087200},"SBST":{"icaoId":"SBST","flightCategory":"MVFR","rawOb":"METAR SBST 031400Z 25004KT 7000 OVC018 20/17 Q1022","temp":20,"dewp":17,"wdir":250,"wspd":4,"visib":4.35,"altim":1022,"clouds":[{"cover":"OVC","base":1800}],"obsTime":1783087200},"SBTA":{"icaoId":"SBTA","flightCategory":"VFR","rawOb":"METAR SBTA 031400Z 14002KT 9999 FEW030 23/17 Q1023","temp":23,"dewp":17,"wdir":140,"wspd":2,"visib":"6+","altim":1023,"clouds":[{"cover":"FEW","base":3000}],"obsTime":1783087200},"SBIH":{"icaoId":"SBIH","flightCategory":"VFR","rawOb":"METAR SBIH 031400Z 09004KT CAVOK 32/23 Q1013","temp":32,"dewp":23,"wdir":90,"wspd":4,"visib":"6+","altim":1013,"clouds":[],"obsTime":1783087200}}}