{"updated":1777456468,"count":65,"data":{"SBRF":{"icaoId":"SBRF","flightCategory":"MVFR","rawOb":"METAR SBRF 290800Z VRB01KT 9000 4000S -RA SCT012 BKN020 BKN050 24/23 Q1011","temp":24,"dewp":23,"wdir":"VRB","wspd":1,"visib":5.59,"altim":1011,"clouds":[{"cover":"SCT","base":1200},{"cover":"BKN","base":2000},{"cover":"BKN","base":5000}],"obsTime":1777449600},"SBLO":{"icaoId":"SBLO","flightCategory":"LIFR","rawOb":"METAR SBLO 290800Z VRB02KT 0500 R13/0600U FG BKN002 20/20 Q1014","temp":20,"dewp":20,"wdir":"VRB","wspd":2,"visib":0.31,"altim":1014,"clouds":[{"cover":"BKN","base":200}],"obsTime":1777449600},"SBFI":{"icaoId":"SBFI","flightCategory":"VFR","rawOb":"METAR SBFI 290800Z 09005KT 9999 SCT020 BKN070 15/15 Q1012","temp":15,"dewp":15,"wdir":90,"wspd":5,"visib":"6+","altim":1012,"clouds":[{"cover":"SCT","base":2000},{"cover":"BKN","base":7000}],"obsTime":1777449600},"SBMG":{"icaoId":"SBMG","flightCategory":"LIFR","rawOb":"METAR SBMG 290800Z AUTO 16004KT 070V180 0450 R10/0450D FG VV001 18/18 Q1013","temp":18,"dewp":18,"wdir":160,"wspd":4,"visib":0.28,"altim":1013,"clouds":[{"cover":"OVX","base":100}],"obsTime":1777449600},"SBCB":{"icaoId":"SBCB","flightCategory":"MVFR","rawOb":"METAR SBCB 290900Z 03008KT 8000 SCT008 SCT025 24/23 Q1013","temp":24,"dewp":23,"wdir":30,"wspd":8,"visib":4.97,"altim":1013,"clouds":[{"cover":"SCT","base":800},{"cover":"SCT","base":2500}],"obsTime":1777453200},"SBCF":{"icaoId":"SBCF","flightCategory":"VFR","rawOb":"METAR SBCF 290800Z 17003KT CAVOK 17/16 Q1019","temp":17,"dewp":16,"wdir":170,"wspd":3,"visib":"6+","altim":1019,"clouds":[],"obsTime":1777449600},"SBCG":{"icaoId":"SBCG","flightCategory":"VFR","rawOb":"METAR SBCG 290800Z 03007KT CAVOK 21/19 Q1013","temp":21,"dewp":19,"wdir":30,"wspd":7,"visib":"6+","altim":1013,"clouds":[],"obsTime":1777449600},"SBVT":{"icaoId":"SBVT","flightCategory":"VFR","rawOb":"METAR SBVT 290800Z 31003KT CAVOK 21/20 Q1015","temp":21,"dewp":20,"wdir":310,"wspd":3,"visib":"6+","altim":1015,"clouds":[],"obsTime":1777449600},"SBBE":{"icaoId":"SBBE","flightCategory":"IFR","rawOb":"METAR SBBE 290800Z 14002KT 9999 BKN005 24/24 Q1009","temp":24,"dewp":24,"wdir":140,"wspd":2,"visib":"6+","altim":1009,"clouds":[{"cover":"BKN","base":500}],"obsTime":1777449600},"SBBR":{"icaoId":"SBBR","flightCategory":"VFR","rawOb":"METAR SBBR 290800Z 21002KT CAVOK 18/15 Q1018","temp":18,"dewp":15,"wdir":210,"wspd":2,"visib":"6+","altim":1018,"clouds":[],"obsTime":1777449600},"SBBV":{"icaoId":"SBBV","flightCategory":"VFR","rawOb":"METAR SBBV 290800Z 08007KT CAVOK 25/23 Q1010","temp":25,"dewp":23,"wdir":80,"wspd":7,"visib":"6+","altim":1010,"clouds":[],"obsTime":1777449600},"SBCT":{"icaoId":"SBCT","flightCategory":"LIFR","rawOb":"METAR SBCT 290800Z 03003KT 360V060 6000 OVC003 16/16 Q1017","temp":16,"dewp":16,"wdir":30,"wspd":3,"visib":3.73,"altim":1017,"clouds":[{"cover":"OVC","base":300}],"obsTime":1777449600},"SBEG":{"icaoId":"SBEG","flightCategory":"VFR","rawOb":"METAR SBEG 290800Z 09002KT 9999 FEW010 SCT100 26/25 Q1010","temp":26,"dewp":25,"wdir":90,"wspd":2,"visib":"6+","altim":1010,"clouds":[{"cover":"FEW","base":1000},{"cover":"SCT","base":10000}],"obsTime":1777449600},"SBFL":{"icaoId":"SBFL","flightCategory":"VFR","rawOb":"METAR SBFL 290800Z 24003KT 180V280 9999 FEW010 SCT036 BKN100 18/17 Q1014","temp":18,"dewp":17,"wdir":240,"wspd":3,"visib":"6+","altim":1014,"clouds":[{"cover":"FEW","base":1000},{"cover":"SCT","base":3600},{"cover":"BKN","base":10000}],"obsTime":1777449600},"SBFZ":{"icaoId":"SBFZ","flightCategory":"VFR","rawOb":"METAR SBFZ 290800Z 18004KT 150V210 9999 FEW020 26/24 Q1010","temp":26,"dewp":24,"wdir":180,"wspd":4,"visib":"6+","altim":1010,"clouds":[{"cover":"FEW","base":2000}],"obsTime":1777449600},"SBGL":{"icaoId":"SBGL","flightCategory":"IFR","rawOb":"METAR SBGL 290800Z 33004KT 300V360 2000 BR FEW004 24/23 Q1013","temp":24,"dewp":23,"wdir":330,"wspd":4,"visib":1.24,"altim":1013,"clouds":[{"cover":"FEW","base":400}],"obsTime":1777449600},"SBGO":{"icaoId":"SBGO","flightCategory":"VFR","rawOb":"METAR SBGO 290800Z 00000KT CAVOK 20/18 Q1016","temp":20,"dewp":18,"wdir":0,"wspd":0,"visib":"6+","altim":1016,"clouds":[],"obsTime":1777449600},"SBGR":{"icaoId":"SBGR","flightCategory":"IFR","rawOb":"METAR SBGR 290800Z 06004KT 7000 OVC007 21/20 Q1017","temp":21,"dewp":20,"wdir":60,"wspd":4,"visib":4.35,"altim":1017,"clouds":[{"cover":"OVC","base":700}],"obsTime":1777449600},"SBJU":{"icaoId":"SBJU","flightCategory":"MVFR","rawOb":"METAR SBJU 290800Z 00000KT 9999 BKN018 23/22 Q1013","temp":23,"dewp":22,"wdir":0,"wspd":0,"visib":"6+","altim":1013,"clouds":[{"cover":"BKN","base":1800}],"obsTime":1777449600},"SBKP":{"icaoId":"SBKP","flightCategory":"IFR","rawOb":"METAR SBKP 290800Z 12004KT 3000 BR NSC 20/20 Q1016","temp":20,"dewp":20,"wdir":120,"wspd":4,"visib":1.86,"altim":1016,"clouds":[],"obsTime":1777449600},"SBMA":{"icaoId":"SBMA","flightCategory":"VFR","rawOb":"METAR SBMA 290800Z 19002KT CAVOK 24/23 Q1009","temp":24,"dewp":23,"wdir":190,"wspd":2,"visib":"6+","altim":1009,"clouds":[],"obsTime":1777449600},"SBME":{"icaoId":"SBME","flightCategory":"VFR","rawOb":"METAR SBME 290800Z 02004KT CAVOK 23/22 Q1013","temp":23,"dewp":22,"wdir":20,"wspd":4,"visib":"6+","altim":1013,"clouds":[],"obsTime":1777449600},"SBMK":{"icaoId":"SBMK","flightCategory":"VFR","rawOb":"METAR SBMK 290800Z 25002KT CAVOK 17/15 Q1017","temp":17,"dewp":15,"wdir":250,"wspd":2,"visib":"6+","altim":1017,"clouds":[],"obsTime":1777449600},"SBMO":{"icaoId":"SBMO","flightCategory":"VFR","rawOb":"METAR SBMO 290800Z 33001KT 9999 FEW030 23/22 Q1012","temp":23,"dewp":22,"wdir":330,"wspd":1,"visib":"6+","altim":1012,"clouds":[{"cover":"FEW","base":3000}],"obsTime":1777449600},"SBMQ":{"icaoId":"SBMQ","flightCategory":"LIFR","rawOb":"METAR SBMQ 290800Z 32004KT 5000 BR BKN003 26/25 Q1009","temp":26,"dewp":25,"wdir":320,"wspd":4,"visib":3.11,"altim":1009,"clouds":[{"cover":"BKN","base":300}],"obsTime":1777449600},"SBNT":{"icaoId":"SBNT","flightCategory":"VFR","rawOb":"METAR SBNT 290800Z 18005KT 9000 VCSH SCT017 FEW030TCU BKN090 25/24 Q1010","temp":25,"dewp":24,"wdir":180,"wspd":5,"visib":5.59,"altim":1010,"clouds":[{"cover":"SCT","base":1700},{"cover":"FEW","base":3000},{"cover":"BKN","base":9000}],"obsTime":1777449600},"SBPA":{"icaoId":"SBPA","flightCategory":"VFR","rawOb":"METAR SBPA 290800Z 16002KT CAVOK 08/08 Q1014","temp":8,"dewp":8,"wdir":160,"wspd":2,"visib":"6+","altim":1014,"clouds":[],"obsTime":1777449600},"SBPJ":{"icaoId":"SBPJ","flightCategory":"MVFR","rawOb":"METAR SBPJ 290800Z 18007KT 5000 -TSRA FEW016 FEW027CB BKN045 BKN100 24/23 Q1012 RERA","temp":24,"dewp":23,"wdir":180,"wspd":7,"visib":3.11,"altim":1012,"clouds":[{"cover":"FEW","base":1600},{"cover":"FEW","base":2700},{"cover":"BKN","base":4500},{"cover":"BKN","base":10000}],"obsTime":1777449600},"SBPV":{"icaoId":"SBPV","flightCategory":"VFR","rawOb":"METAR SBPV 290800Z 20001KT CAVOK 24/23 Q1011","temp":24,"dewp":23,"wdir":200,"wspd":1,"visib":"6+","altim":1011,"clouds":[],"obsTime":1777449600},"SBRB":{"icaoId":"SBRB","flightCategory":"MVFR","rawOb":"METAR SBRB 290800Z 17002KT 8000 FEW004 SCT025 BKN100 23/23 Q1011","temp":23,"dewp":23,"wdir":170,"wspd":2,"visib":4.97,"altim":1011,"clouds":[{"cover":"FEW","base":400},{"cover":"SCT","base":2500},{"cover":"BKN","base":10000}],"obsTime":1777449600},"SBSG":{"icaoId":"SBSG","flightCategory":"LIFR","rawOb":"METAR SBSG 290800Z 19003KT 150V230 9999 BKN003 SCT020 24/24 Q1010","temp":24,"dewp":24,"wdir":190,"wspd":3,"visib":"6+","altim":1010,"clouds":[{"cover":"BKN","base":300},{"cover":"SCT","base":2000}],"obsTime":1777449600},"SBSL":{"icaoId":"SBSL","flightCategory":"VFR","rawOb":"METAR SBSL 290800Z 15003KT 9999 FEW025 SCT080 25/24 Q1009","temp":25,"dewp":24,"wdir":150,"wspd":3,"visib":"6+","altim":1009,"clouds":[{"cover":"FEW","base":2500},{"cover":"SCT","base":8000}],"obsTime":1777449600},"SBSN":{"icaoId":"SBSN","flightCategory":"VFR","rawOb":"METAR SBSN 290800Z 17004KT CAVOK 24/24 Q1009","temp":24,"dewp":24,"wdir":170,"wspd":4,"visib":"6+","altim":1009,"clouds":[],"obsTime":1777449600},"SBSP":{"icaoId":"SBSP","flightCategory":"MVFR","rawOb":"SPECI SBSP 290819Z AUTO VRB01KT 9999 OVC010 20/19 Q1017","temp":20,"dewp":19,"wdir":"VRB","wspd":1,"visib":"6+","altim":1017,"clouds":[{"cover":"OVC","base":1000}],"obsTime":1777450740},"SBSV":{"icaoId":"SBSV","flightCategory":"VFR","rawOb":"METAR SBSV 290800Z 09010KT 9999 FEW021 BKN060 27/22 Q1013","temp":27,"dewp":22,"wdir":90,"wspd":10,"visib":"6+","altim":1013,"clouds":[{"cover":"FEW","base":2100},{"cover":"BKN","base":6000}],"obsTime":1777449600},"SBTE":{"icaoId":"SBTE","flightCategory":"VFR","rawOb":"METAR SBTE 290800Z 01002KT 9999 SCT006 25/24 Q1010","temp":25,"dewp":24,"wdir":10,"wspd":2,"visib":"6+","altim":1010,"clouds":[{"cover":"SCT","base":600}],"obsTime":1777449600},"SBUL":{"icaoId":"SBUL","flightCategory":"VFR","rawOb":"METAR SBUL 290800Z 12005KT CAVOK 22/16 Q1018","temp":22,"dewp":16,"wdir":120,"wspd":5,"visib":"6+","altim":1018,"clouds":[],"obsTime":1777449600},"SBUR":{"icaoId":"SBUR","flightCategory":"VFR","rawOb":"METAR SBUR 290800Z 03005KT CAVOK 22/16 Q1016","temp":22,"dewp":16,"wdir":30,"wspd":5,"visib":"6+","altim":1016,"clouds":[],"obsTime":1777449600},"SBSJ":{"icaoId":"SBSJ","flightCategory":"LIFR","rawOb":"SPECI SBSJ 290830Z 20001KT 3000 BR OVC004 20/20 Q1017","temp":20,"dewp":20,"wdir":200,"wspd":1,"visib":1.86,"altim":1017,"clouds":[{"cover":"OVC","base":400}],"obsTime":1777451400},"SBAR":{"icaoId":"SBAR","flightCategory":"VFR","rawOb":"METAR SBAR 290800Z 09006KT 9999 SCT025 BKN060 26/23 Q1012","temp":26,"dewp":23,"wdir":90,"wspd":6,"visib":"6+","altim":1012,"clouds":[{"cover":"SCT","base":2500},{"cover":"BKN","base":6000}],"obsTime":1777449600},"SBAX":{"icaoId":"SBAX","flightCategory":"VFR","rawOb":"METAR SBAX 290800Z AUTO 11004KT CAVOK 19/15 Q1018","temp":19,"dewp":15,"wdir":110,"wspd":4,"visib":"6+","altim":1018,"clouds":[],"obsTime":1777449600},"SBBH":{"icaoId":"SBBH","flightCategory":"VFR","rawOb":"METAR SBBH 290900Z 00000KT CAVOK 18/16 Q1019","temp":18,"dewp":16,"wdir":0,"wspd":0,"visib":"6+","altim":1019,"clouds":[],"obsTime":1777453200},"SBBU":{"icaoId":"SBBU","flightCategory":"IFR","rawOb":"METAR SBBU 290900Z 08005KT 6000 BKN005 20/20 Q1015","temp":20,"dewp":20,"wdir":80,"wspd":5,"visib":3.73,"altim":1015,"clouds":[{"cover":"BKN","base":500}],"obsTime":1777453200},"SBSR":{"icaoId":"SBSR","flightCategory":"VFR","rawOb":"METAR SBSR 290800Z 12003KT CAVOK 23/19 Q1014","temp":23,"dewp":19,"wdir":120,"wspd":3,"visib":"6+","altim":1014,"clouds":[],"obsTime":1777449600},"SBCA":{"icaoId":"SBCA","flightCategory":"LIFR","rawOb":"METAR SBCA 290800Z 06006KT 2500 RA BR BKN002 BKN020 FEW030TCU OVC070 15/15 Q1014 RESHRA","temp":15,"dewp":15,"wdir":60,"wspd":6,"visib":1.55,"altim":1014,"clouds":[{"cover":"BKN","base":200},{"cover":"BKN","base":2000},{"cover":"FEW","base":3000},{"cover":"OVC","base":7000}],"obsTime":1777449600},"SBCO":{"icaoId":"SBCO","flightCategory":"MVFR","rawOb":"METAR SBCO 290900Z 34002KT 6000 NSC 07/06 Q1015","temp":7,"dewp":6,"wdir":340,"wspd":2,"visib":3.73,"altim":1015,"clouds":[],"obsTime":1777453200},"SBDN":{"icaoId":"SBDN","flightCategory":"VFR","rawOb":"METAR SBDN 290800Z 10002KT CAVOK 21/20 Q1013","temp":21,"dewp":20,"wdir":100,"wspd":2,"visib":"6+","altim":1013,"clouds":[],"obsTime":1777449600},"SBES":{"icaoId":"SBES","flightCategory":"MVFR","rawOb":"METAR SBES 290800Z 05005KT 320V080 6000 SCT006 BKN020 22/// Q1013","temp":null,"dewp":null,"wdir":50,"wspd":5,"visib":3.73,"altim":1013,"clouds":[{"cover":"SCT","base":600},{"cover":"BKN","base":2000}],"obsTime":1777449600},"SBIP":{"icaoId":"SBIP","flightCategory":"VFR","rawOb":"METAR SBIP 290800Z AUTO 02002KT 9999 BKN033 BKN044 20/20 Q1016","temp":20,"dewp":20,"wdir":20,"wspd":2,"visib":"6+","altim":1016,"clouds":[{"cover":"BKN","base":3300},{"cover":"BKN","base":4400}],"obsTime":1777449600},"SBKG":{"icaoId":"SBKG","flightCategory":"VFR","rawOb":"METAR SBKG 290800Z 14005KT 9999 SCT006 21/21 Q1014","temp":21,"dewp":21,"wdir":140,"wspd":5,"visib":"6+","altim":1014,"clouds":[{"cover":"SCT","base":600}],"obsTime":1777449600},"SBOI":{"icaoId":"SBOI","flightCategory":"IFR","rawOb":"METAR SBOI 290800Z AUTO 20002KT 2400 // VV002 24/24 Q1010","temp":24,"dewp":24,"wdir":200,"wspd":2,"visib":1.49,"altim":1010,"clouds":[{"cover":"OVX","base":200}],"obsTime":1777449600},"SBPL":{"icaoId":"SBPL","flightCategory":"VFR","rawOb":"METAR SBPL 290800Z 10006KT CAVOK 24/21 Q1013","temp":24,"dewp":21,"wdir":100,"wspd":6,"visib":"6+","altim":1013,"clouds":[],"obsTime":1777449600},"SBPS":{"icaoId":"SBPS","flightCategory":"MVFR","rawOb":"METAR SBPS 290800Z 26004KT 220V300 8000 VCSH BKN015 OVC025 23/22 Q1014","temp":23,"dewp":22,"wdir":260,"wspd":4,"visib":4.97,"altim":1014,"clouds":[{"cover":"BKN","base":1500},{"cover":"OVC","base":2500}],"obsTime":1777449600},"SBSC":{"icaoId":"SBSC","flightCategory":"MVFR","rawOb":"METAR SBSC 290800Z 36006KT 5000 BR SCT010 BKN015 OVC050 23/22 Q1013","temp":23,"dewp":22,"wdir":360,"wspd":6,"visib":3.11,"altim":1013,"clouds":[{"cover":"SCT","base":1000},{"cover":"BKN","base":1500},{"cover":"OVC","base":5000}],"obsTime":1777449600},"SBSM":{"icaoId":"SBSM","flightCategory":"VFR","rawOb":"METAR SBSM 290900Z 10003KT CAVOK 05/05 Q1014","temp":5,"dewp":5,"wdir":100,"wspd":3,"visib":"6+","altim":1014,"clouds":[],"obsTime":1777453200},"SBTA":{"icaoId":"SBTA","flightCategory":"MVFR","rawOb":"METAR SBTA 290900Z VRB01KT 8000 SCT010 BKN060 OVC080 21/21 Q1016","temp":21,"dewp":21,"wdir":"VRB","wspd":1,"visib":4.97,"altim":1016,"clouds":[{"cover":"SCT","base":1000},{"cover":"BKN","base":6000},{"cover":"OVC","base":8000}],"obsTime":1777453200},"SBGW":{"icaoId":"SBGW","flightCategory":"MVFR","rawOb":"METAR SBGW 290900Z COR VRB02KT 8000 FEW005 BKN100 21/17 Q1016","temp":21,"dewp":17,"wdir":"VRB","wspd":2,"visib":4.97,"altim":1016,"clouds":[{"cover":"FEW","base":500},{"cover":"BKN","base":10000}],"obsTime":1777453200},"SBLS":{"icaoId":"SBLS","flightCategory":"VFR","rawOb":"METAR SBLS 290900Z 16005KT CAVOK 18/16 Q1019","temp":18,"dewp":16,"wdir":160,"wspd":5,"visib":"6+","altim":1019,"clouds":[],"obsTime":1777453200},"SBMT":{"icaoId":"SBMT","flightCategory":"MVFR","rawOb":"METAR SBMT 290900Z 06003KT 030V090 5000 BR BKN011 21/19 Q1017","temp":21,"dewp":19,"wdir":60,"wspd":3,"visib":3.11,"altim":1017,"clouds":[{"cover":"BKN","base":1100}],"obsTime":1777453200},"SBJP":{"icaoId":"SBJP","flightCategory":"VFR","rawOb":"METAR SBJP 290800Z 20004KT 9999 SCT020 24/23 Q1011","temp":24,"dewp":23,"wdir":200,"wspd":4,"visib":"6+","altim":1011,"clouds":[{"cover":"SCT","base":2000}],"obsTime":1777449600},"SBPF":{"icaoId":"SBPF","flightCategory":"VFR","rawOb":"METAR SBPF 290900Z 04009KT CAVOK 13/09 Q1014","temp":13,"dewp":9,"wdir":40,"wspd":9,"visib":"6+","altim":1014,"clouds":[],"obsTime":1777453200},"SBLE":{"icaoId":"SBLE","flightCategory":"MVFR","rawOb":"METAR SBLE 290800Z AUTO VRB01KT 9999 OVC029 ///// Q////","temp":null,"dewp":null,"wdir":"VRB","wspd":1,"visib":"6+","altim":null,"clouds":[{"cover":"OVC","base":2900}],"obsTime":1777449600},"SBTC":{"icaoId":"SBTC","flightCategory":"MVFR","rawOb":"METAR SBTC 290900Z 24005KT 9999 VCSH BKN015 BKN040 23/22 Q1015","temp":23,"dewp":22,"wdir":240,"wspd":5,"visib":"6+","altim":1015,"clouds":[{"cover":"BKN","base":1500},{"cover":"BKN","base":4000}],"obsTime":1777453200},"SBAN":{"icaoId":"SBAN","flightCategory":"VFR","rawOb":"METAR SBAN 290800Z 12004KT CAVOK 19/14 Q1019","temp":19,"dewp":14,"wdir":120,"wspd":4,"visib":"6+","altim":1019,"clouds":[],"obsTime":1777449600},"SBJV":{"icaoId":"SBJV","flightCategory":"LIFR","rawOb":"METAR SBJV 290900Z 31004KT 4000 BR BKN003 OVC008 17/17 Q1015","temp":17,"dewp":17,"wdir":310,"wspd":4,"visib":2.49,"altim":1015,"clouds":[{"cover":"BKN","base":300},{"cover":"OVC","base":800}],"obsTime":1777453200}}}