{"updated":1781706658,"count":88,"data":{"SBMQ":{"icaoId":"SBMQ","flightCategory":"MVFR","rawOb":"METAR SBMQ 171300Z 02009KT 9999 VCSH BKN020 FEW035TCU BKN100 28/25 Q1016","temp":28,"dewp":25,"wdir":20,"wspd":9,"visib":"6+","altim":1016,"clouds":[{"cover":"BKN","base":2000},{"cover":"FEW","base":3500},{"cover":"BKN","base":10000}],"obsTime":1781701200},"SBEG":{"icaoId":"SBEG","flightCategory":"MVFR","rawOb":"METAR SBEG 171300Z 13009KT 5000 2000W -RA BKN015 FEW050TCU 24/23 Q1016","temp":24,"dewp":23,"wdir":130,"wspd":9,"visib":3.11,"altim":1016,"clouds":[{"cover":"BKN","base":1500},{"cover":"FEW","base":5000}],"obsTime":1781701200},"SBBE":{"icaoId":"SBBE","flightCategory":"MVFR","rawOb":"METAR SBBE 171300Z COR 06010KT 9999 BKN018 FEW020TCU 29/25 Q1015","temp":29,"dewp":25,"wdir":60,"wspd":10,"visib":"6+","altim":1015,"clouds":[{"cover":"BKN","base":1800},{"cover":"FEW","base":2000}],"obsTime":1781701200},"SBBR":{"icaoId":"SBBR","flightCategory":"VFR","rawOb":"METAR SBBR 171300Z VRB01KT 9999 FEW040 22/16 Q1024","temp":22,"dewp":16,"wdir":"VRB","wspd":1,"visib":"6+","altim":1024,"clouds":[{"cover":"FEW","base":4000}],"obsTime":1781701200},"SBBV":{"icaoId":"SBBV","flightCategory":"VFR","rawOb":"METAR SBBV 171300Z 14003KT 9999 SCT013 FEW045TCU BKN100 27/23 Q1016","temp":27,"dewp":23,"wdir":140,"wspd":3,"visib":"6+","altim":1016,"clouds":[{"cover":"SCT","base":1300},{"cover":"FEW","base":4500},{"cover":"BKN","base":10000}],"obsTime":1781701200},"SBCB":{"icaoId":"SBCB","flightCategory":"MVFR","rawOb":"METAR SBCB 171300Z 35007KT 9999 FEW010 BKN015 BKN030 20/18 Q1022","temp":20,"dewp":18,"wdir":350,"wspd":7,"visib":"6+","altim":1022,"clouds":[{"cover":"FEW","base":1000},{"cover":"BKN","base":1500},{"cover":"BKN","base":3000}],"obsTime":1781701200},"SBCF":{"icaoId":"SBCF","flightCategory":"VFR","rawOb":"METAR SBCF 171300Z 16007KT 9999 SCT012 18/15 Q1024","temp":18,"dewp":15,"wdir":160,"wspd":7,"visib":"6+","altim":1024,"clouds":[{"cover":"SCT","base":1200}],"obsTime":1781701200},"SBCG":{"icaoId":"SBCG","flightCategory":"VFR","rawOb":"METAR SBCG 171300Z 09009KT 060V120 9999 FEW004 BKN080 20/17 Q1023","temp":20,"dewp":17,"wdir":90,"wspd":9,"visib":"6+","altim":1023,"clouds":[{"cover":"FEW","base":400},{"cover":"BKN","base":8000}],"obsTime":1781701200},"SBCP":{"icaoId":"SBCP","flightCategory":"VFR","rawOb":"METAR SBCP 171300Z 23006KT 9999 FEW020 BKN040 23/17 Q1021","temp":23,"dewp":17,"wdir":230,"wspd":6,"visib":"6+","altim":1021,"clouds":[{"cover":"FEW","base":2000},{"cover":"BKN","base":4000}],"obsTime":1781701200},"SBCR":{"icaoId":"SBCR","flightCategory":"VFR","rawOb":"METAR SBCR 171300Z 22003KT 180V270 CAVOK 21/17 Q1021","temp":21,"dewp":17,"wdir":220,"wspd":3,"visib":"6+","altim":1021,"clouds":[],"obsTime":1781701200},"SBCT":{"icaoId":"SBCT","flightCategory":"MVFR","rawOb":"METAR SBCT 171300Z 26002KT 8000 NSC 10/10 Q1025","temp":10,"dewp":10,"wdir":260,"wspd":2,"visib":4.97,"altim":1025,"clouds":[],"obsTime":1781701200},"SBCZ":{"icaoId":"SBCZ","flightCategory":"VFR","rawOb":"METAR SBCZ 171300Z 00000KT 9999 SCT010 BKN100 23/22 Q1017","temp":23,"dewp":22,"wdir":0,"wspd":0,"visib":"6+","altim":1017,"clouds":[{"cover":"SCT","base":1000},{"cover":"BKN","base":10000}],"obsTime":1781701200},"SBAT":{"icaoId":"SBAT","flightCategory":"VFR","rawOb":"METAR SBAT 171300Z 15012KT CAVOK 29/22 Q1017","temp":29,"dewp":22,"wdir":150,"wspd":12,"visib":"6+","altim":1017,"clouds":[],"obsTime":1781701200},"SBFI":{"icaoId":"SBFI","flightCategory":"VFR","rawOb":"METAR SBFI 171300Z 12005KT CAVOK 14/11 Q1024","temp":14,"dewp":11,"wdir":120,"wspd":5,"visib":"6+","altim":1024,"clouds":[],"obsTime":1781701200},"SBFL":{"icaoId":"SBFL","flightCategory":"VFR","rawOb":"METAR SBFL 171300Z 30003KT 260V340 CAVOK 16/09 Q1022","temp":16,"dewp":9,"wdir":300,"wspd":3,"visib":"6+","altim":1022,"clouds":[],"obsTime":1781701200},"SBFZ":{"icaoId":"SBFZ","flightCategory":"MVFR","rawOb":"METAR SBFZ 171300Z 13008KT 090V150 9999 BKN023 29/24 Q1015","temp":29,"dewp":24,"wdir":130,"wspd":8,"visib":"6+","altim":1015,"clouds":[{"cover":"BKN","base":2300}],"obsTime":1781701200},"SBGL":{"icaoId":"SBGL","flightCategory":"MVFR","rawOb":"METAR SBGL 171300Z 27005KT 6000 -RA SCT007 BKN070 19/18 Q1022","temp":19,"dewp":18,"wdir":270,"wspd":5,"visib":3.73,"altim":1022,"clouds":[{"cover":"SCT","base":700},{"cover":"BKN","base":7000}],"obsTime":1781701200},"SBGO":{"icaoId":"SBGO","flightCategory":"VFR","rawOb":"METAR SBGO 171300Z 14006KT 9999 FEW020 21/18 Q1023","temp":21,"dewp":18,"wdir":140,"wspd":6,"visib":"6+","altim":1023,"clouds":[{"cover":"FEW","base":2000}],"obsTime":1781701200},"SBGR":{"icaoId":"SBGR","flightCategory":"VFR","rawOb":"METAR SBGR 171300Z 03004KT 9999 SCT015 15/11 Q1024","temp":15,"dewp":11,"wdir":30,"wspd":4,"visib":"6+","altim":1024,"clouds":[{"cover":"SCT","base":1500}],"obsTime":1781701200},"SBHT":{"icaoId":"SBHT","flightCategory":"MVFR","rawOb":"METAR SBHT 171300Z 09005KT 9999 BKN020 31/26 Q1016","temp":31,"dewp":26,"wdir":90,"wspd":5,"visib":"6+","altim":1016,"clouds":[{"cover":"BKN","base":2000}],"obsTime":1781701200},"SBIL":{"icaoId":"SBIL","flightCategory":"VFR","rawOb":"METAR SBIL 171300Z 33004KT 9999 SCT023 28/23 Q1018","temp":28,"dewp":23,"wdir":330,"wspd":4,"visib":"6+","altim":1018,"clouds":[{"cover":"SCT","base":2300}],"obsTime":1781701200},"SBJU":{"icaoId":"SBJU","flightCategory":"VFR","rawOb":"METAR SBJU 171300Z 00000KT 9999 SCT020 28/20 Q1019","temp":28,"dewp":20,"wdir":0,"wspd":0,"visib":"6+","altim":1019,"clouds":[{"cover":"SCT","base":2000}],"obsTime":1781701200},"SBKP":{"icaoId":"SBKP","flightCategory":"MVFR","rawOb":"SPECI SBKP 171240Z 10006KT 7000 FEW008 15/12 Q1024","temp":15,"dewp":12,"wdir":100,"wspd":6,"visib":4.35,"altim":1024,"clouds":[{"cover":"FEW","base":800}],"obsTime":1781700000},"SBLO":{"icaoId":"SBLO","flightCategory":"MVFR","rawOb":"METAR SBLO 171300Z 17004KT 8000 FEW001 14/12 Q1025","temp":14,"dewp":12,"wdir":170,"wspd":4,"visib":4.97,"altim":1025,"clouds":[{"cover":"FEW","base":100}],"obsTime":1781701200},"SBMA":{"icaoId":"SBMA","flightCategory":"VFR","rawOb":"METAR SBMA 171300Z 31003KT 9999 FEW018 29/24 Q1016","temp":29,"dewp":24,"wdir":310,"wspd":3,"visib":"6+","altim":1016,"clouds":[{"cover":"FEW","base":1800}],"obsTime":1781701200},"SBME":{"icaoId":"SBME","flightCategory":"VFR","rawOb":"METAR SBME 171300Z 29003KT 9999 FEW025 SCT070 21/18 Q1021","temp":21,"dewp":18,"wdir":290,"wspd":3,"visib":"6+","altim":1021,"clouds":[{"cover":"FEW","base":2500},{"cover":"SCT","base":7000}],"obsTime":1781701200},"SBMG":{"icaoId":"SBMG","flightCategory":"LIFR","rawOb":"METAR SBMG 171300Z 16006KT 0100 R10/0175N FG VV001 12/11 Q1024","temp":12,"dewp":11,"wdir":160,"wspd":6,"visib":0.06,"altim":1024,"clouds":[{"cover":"OVX","base":100}],"obsTime":1781701200},"SBMK":{"icaoId":"SBMK","flightCategory":"VFR","rawOb":"METAR SBMK 171300Z 15005KT CAVOK 26/17 Q1021","temp":26,"dewp":17,"wdir":150,"wspd":5,"visib":"6+","altim":1021,"clouds":[],"obsTime":1781701200},"SBMO":{"icaoId":"SBMO","flightCategory":"MVFR","rawOb":"METAR SBMO 171300Z 24002KT 9999 BKN023 28/22 Q1017","temp":28,"dewp":22,"wdir":240,"wspd":2,"visib":"6+","altim":1017,"clouds":[{"cover":"BKN","base":2300}],"obsTime":1781701200},"SBNT":{"icaoId":"SBNT","flightCategory":"MVFR","rawOb":"METAR SBNT 171300Z 18004KT 150V220 8000 -RA BKN010 BKN017 FEW025TCU 23/23 Q1017 RERA","temp":23,"dewp":23,"wdir":180,"wspd":4,"visib":4.97,"altim":1017,"clouds":[{"cover":"BKN","base":1000},{"cover":"BKN","base":1700},{"cover":"FEW","base":2500}],"obsTime":1781701200},"SBPA":{"icaoId":"SBPA","flightCategory":"VFR","rawOb":"METAR SBPA 171300Z 27006KT 230V290 CAVOK 11/09 Q1024","temp":11,"dewp":9,"wdir":270,"wspd":6,"visib":"6+","altim":1024,"clouds":[],"obsTime":1781701200},"SBPJ":{"icaoId":"SBPJ","flightCategory":"VFR","rawOb":"METAR SBPJ 171300Z 24006KT CAVOK 29/23 Q1016","temp":29,"dewp":23,"wdir":240,"wspd":6,"visib":"6+","altim":1016,"clouds":[],"obsTime":1781701200},"SBPV":{"icaoId":"SBPV","flightCategory":"VFR","rawOb":"METAR SBPV 171300Z 14008KT CAVOK 27/22 Q1016","temp":27,"dewp":22,"wdir":140,"wspd":8,"visib":"6+","altim":1016,"clouds":[],"obsTime":1781701200},"SBRB":{"icaoId":"SBRB","flightCategory":"IFR","rawOb":"METAR SBRB 171300Z 14005KT 7000 OVC005 22/21 Q1018","temp":22,"dewp":21,"wdir":140,"wspd":5,"visib":4.35,"altim":1018,"clouds":[{"cover":"OVC","base":500}],"obsTime":1781701200},"SBRF":{"icaoId":"SBRF","flightCategory":"VFR","rawOb":"METAR SBRF 171300Z 15007KT 9999 FEW020 28/24 Q1017","temp":28,"dewp":24,"wdir":150,"wspd":7,"visib":"6+","altim":1017,"clouds":[{"cover":"FEW","base":2000}],"obsTime":1781701200},"SBSG":{"icaoId":"SBSG","flightCategory":"IFR","rawOb":"METAR SBSG 171300Z 23003KT 200V260 3000 -RA BR BKN007 BKN025 22/22 Q1018","temp":22,"dewp":22,"wdir":230,"wspd":3,"visib":1.86,"altim":1018,"clouds":[{"cover":"BKN","base":700},{"cover":"BKN","base":2500}],"obsTime":1781701200},"SBSL":{"icaoId":"SBSL","flightCategory":"VFR","rawOb":"METAR SBSL 171300Z 07011KT 9999 SCT020 30/25 Q1015","temp":30,"dewp":25,"wdir":70,"wspd":11,"visib":"6+","altim":1015,"clouds":[{"cover":"SCT","base":2000}],"obsTime":1781701200},"SBSN":{"icaoId":"SBSN","flightCategory":"VFR","rawOb":"METAR SBSN 171300Z 07005KT 9999 FEW017 29/25 Q1015","temp":29,"dewp":25,"wdir":70,"wspd":5,"visib":"6+","altim":1015,"clouds":[{"cover":"FEW","base":1700}],"obsTime":1781701200},"SBSP":{"icaoId":"SBSP","flightCategory":"VFR","rawOb":"METAR SBSP 171300Z VRB02KT CAVOK 17/10 Q1025","temp":17,"dewp":10,"wdir":"VRB","wspd":2,"visib":"6+","altim":1025,"clouds":[],"obsTime":1781701200},"SBSV":{"icaoId":"SBSV","flightCategory":"VFR","rawOb":"METAR SBSV 171300Z 35004KT 9999 SCT022 28/23 Q1017","temp":28,"dewp":23,"wdir":350,"wspd":4,"visib":"6+","altim":1017,"clouds":[{"cover":"SCT","base":2200}],"obsTime":1781701200},"SBTE":{"icaoId":"SBTE","flightCategory":"VFR","rawOb":"METAR SBTE 171300Z 36003KT 9999 SCT020 29/24 Q1015","temp":29,"dewp":24,"wdir":360,"wspd":3,"visib":"6+","altim":1015,"clouds":[{"cover":"SCT","base":2000}],"obsTime":1781701200},"SBUL":{"icaoId":"SBUL","flightCategory":"VFR","rawOb":"METAR SBUL 171300Z 21005KT 160V240 9999 FEW002 17/14 Q1024","temp":17,"dewp":14,"wdir":210,"wspd":5,"visib":"6+","altim":1024,"clouds":[{"cover":"FEW","base":200}],"obsTime":1781701200},"SBUR":{"icaoId":"SBUR","flightCategory":"IFR","rawOb":"METAR SBUR 171300Z 17003KT 2000 BR SCT005 16/15 Q1023","temp":16,"dewp":15,"wdir":170,"wspd":3,"visib":1.24,"altim":1023,"clouds":[{"cover":"SCT","base":500}],"obsTime":1781701200},"SBVT":{"icaoId":"SBVT","flightCategory":"VFR","rawOb":"METAR SBVT 171300Z 20008KT 9999 SCT030 24/18 Q1020","temp":24,"dewp":18,"wdir":200,"wspd":8,"visib":"6+","altim":1020,"clouds":[{"cover":"SCT","base":3000}],"obsTime":1781701200},"SBAR":{"icaoId":"SBAR","flightCategory":"VFR","rawOb":"METAR SBAR 171300Z 07005KT 9999 SCT022 29/22 Q1017","temp":29,"dewp":22,"wdir":70,"wspd":5,"visib":"6+","altim":1017,"clouds":[{"cover":"SCT","base":2200}],"obsTime":1781701200},"SBOI":{"icaoId":"SBOI","flightCategory":"MVFR","rawOb":"METAR SBOI 171300Z AUTO 03005KT 360V070 9999 BKN010 27/24 Q1016","temp":27,"dewp":24,"wdir":30,"wspd":5,"visib":"6+","altim":1016,"clouds":[{"cover":"BKN","base":1000}],"obsTime":1781701200},"SBCJ":{"icaoId":"SBCJ","flightCategory":"VFR","rawOb":"METAR SBCJ 171300Z 07003KT 9999 FEW012 28/22 Q1020","temp":28,"dewp":22,"wdir":70,"wspd":3,"visib":"6+","altim":1020,"clouds":[{"cover":"FEW","base":1200}],"obsTime":1781701200},"SBPB":{"icaoId":"SBPB","flightCategory":"VFR","rawOb":"METAR SBPB 171300Z 08014KT 9999 SCT020 29/24 Q1015","temp":29,"dewp":24,"wdir":80,"wspd":14,"visib":"6+","altim":1015,"clouds":[{"cover":"SCT","base":2000}],"obsTime":1781701200},"SBCO":{"icaoId":"SBCO","flightCategory":"VFR","rawOb":"METAR SBCO 171300Z 28007KT CAVOK 12/08 Q1024","temp":12,"dewp":8,"wdir":280,"wspd":7,"visib":"6+","altim":1024,"clouds":[],"obsTime":1781701200},"SBPL":{"icaoId":"SBPL","flightCategory":"VFR","rawOb":"METAR SBPL 171300Z 09008KT 9999 FEW025 28/20 Q1018","temp":28,"dewp":20,"wdir":90,"wspd":8,"visib":"6+","altim":1018,"clouds":[{"cover":"FEW","base":2500}],"obsTime":1781701200},"SBBU":{"icaoId":"SBBU","flightCategory":"VFR","rawOb":"METAR SBBU 171300Z 10006KT 9999 FEW003 17/15 Q1024","temp":17,"dewp":15,"wdir":100,"wspd":6,"visib":"6+","altim":1024,"clouds":[{"cover":"FEW","base":300}],"obsTime":1781701200},"SBPP":{"icaoId":"SBPP","flightCategory":"MVFR","rawOb":"METAR SBPP 171300Z 08006KT 9999 BKN015 OVC070 16/12 Q1024","temp":16,"dewp":12,"wdir":80,"wspd":6,"visib":"6+","altim":1024,"clouds":[{"cover":"BKN","base":1500},{"cover":"OVC","base":7000}],"obsTime":1781701200},"SBPS":{"icaoId":"SBPS","flightCategory":"MVFR","rawOb":"METAR SBPS 171300Z 12004KT 9999 BKN015 BKN040 24/22 Q1019","temp":24,"dewp":22,"wdir":120,"wspd":4,"visib":"6+","altim":1019,"clouds":[{"cover":"BKN","base":1500},{"cover":"BKN","base":4000}],"obsTime":1781701200},"SBDN":{"icaoId":"SBDN","flightCategory":"VFR","rawOb":"METAR SBDN 171300Z 00000KT CAVOK 19/15 Q1024","temp":19,"dewp":15,"wdir":0,"wspd":0,"visib":"6+","altim":1024,"clouds":[],"obsTime":1781701200},"SBSC":{"icaoId":"SBSC","flightCategory":"MVFR","rawOb":"METAR SBSC 171300Z 23004KT 8000 SCT009 BKN025 OVC040 20/17 Q1022","temp":20,"dewp":17,"wdir":230,"wspd":4,"visib":4.97,"altim":1022,"clouds":[{"cover":"SCT","base":900},{"cover":"BKN","base":2500},{"cover":"OVC","base":4000}],"obsTime":1781701200},"SBBH":{"icaoId":"SBBH","flightCategory":"VFR","rawOb":"METAR SBBH 171300Z 10008KT CAVOK 19/15 Q1024","temp":19,"dewp":15,"wdir":100,"wspd":8,"visib":"6+","altim":1024,"clouds":[],"obsTime":1781701200},"SBSJ":{"icaoId":"SBSJ","flightCategory":"VFR","rawOb":"METAR SBSJ 171300Z 06003KT 9999 FEW019 17/13 Q1024","temp":17,"dewp":13,"wdir":60,"wspd":3,"visib":"6+","altim":1024,"clouds":[{"cover":"FEW","base":1900}],"obsTime":1781701200},"SBES":{"icaoId":"SBES","flightCategory":"VFR","rawOb":"METAR SBES 171300Z 00000KT 9999 SCT020 BKN050 19/// Q1022","temp":null,"dewp":null,"wdir":0,"wspd":0,"visib":"6+","altim":1022,"clouds":[{"cover":"SCT","base":2000},{"cover":"BKN","base":5000}],"obsTime":1781701200},"SBSM":{"icaoId":"SBSM","flightCategory":"VFR","rawOb":"METAR SBSM 171300Z 00000KT CAVOK 13/11 Q1025","temp":13,"dewp":11,"wdir":0,"wspd":0,"visib":"6+","altim":1025,"clouds":[],"obsTime":1781701200},"SBCA":{"icaoId":"SBCA","flightCategory":"VFR","rawOb":"METAR SBCA 171300Z 08005KT CAVOK 18/04 Q1025","temp":18,"dewp":4,"wdir":80,"wspd":5,"visib":"6+","altim":1025,"clouds":[],"obsTime":1781701200},"SBSR":{"icaoId":"SBSR","flightCategory":"VFR","rawOb":"METAR SBSR 171300Z 13005KT CAVOK 19/14 Q1023","temp":19,"dewp":14,"wdir":130,"wspd":5,"visib":"6+","altim":1023,"clouds":[],"obsTime":1781701200},"SBGM":{"icaoId":"SBGM","flightCategory":"IFR","rawOb":"METAR SBGM 171300Z 11009KT 9999 BKN006 OVC013 23/22 Q1018","temp":23,"dewp":22,"wdir":110,"wspd":9,"visib":"6+","altim":1018,"clouds":[{"cover":"BKN","base":600},{"cover":"OVC","base":1300}],"obsTime":1781701200},"SBAU":{"icaoId":"SBAU","flightCategory":"MVFR","rawOb":"METAR SBAU 171300Z 15006KT 8000 FEW002 19/18 Q1023","temp":19,"dewp":18,"wdir":150,"wspd":6,"visib":4.97,"altim":1023,"clouds":[{"cover":"FEW","base":200}],"obsTime":1781701200},"SBTD":{"icaoId":"SBTD","flightCategory":"VFR","rawOb":"METAR SBTD 171300Z /////KT CAVOK 17/12 Q1025","temp":17,"dewp":12,"wdir":null,"wspd":null,"visib":"6+","altim":1025,"clouds":[],"obsTime":1781701200},"SBTF":{"icaoId":"SBTF","flightCategory":"VFR","rawOb":"METAR SBTF 171300Z 24007KT 9999 FEW005 FEW030TCU SCT100 25/25 Q1016","temp":25,"dewp":25,"wdir":240,"wspd":7,"visib":"6+","altim":1016,"clouds":[{"cover":"FEW","base":500},{"cover":"FEW","base":3000},{"cover":"SCT","base":10000}],"obsTime":1781701200},"SBBQ":{"icaoId":"SBBQ","flightCategory":"MVFR","rawOb":"METAR SBBQ 171300Z 31003KT 9999 BKN020 18/12 Q1026","temp":18,"dewp":12,"wdir":310,"wspd":3,"visib":"6+","altim":1026,"clouds":[{"cover":"BKN","base":2000}],"obsTime":1781701200},"SBIP":{"icaoId":"SBIP","flightCategory":"VFR","rawOb":"METAR SBIP 171300Z AUTO 20005KT 9999 OVC032 22/18 Q1022","temp":22,"dewp":18,"wdir":200,"wspd":5,"visib":"6+","altim":1022,"clouds":[{"cover":"OVC","base":3200}],"obsTime":1781701200},"SBAX":{"icaoId":"SBAX","flightCategory":"VFR","rawOb":"METAR SBAX 171300Z 02004KT CAVOK 18/15 Q1024","temp":18,"dewp":15,"wdir":20,"wspd":4,"visib":"6+","altim":1024,"clouds":[],"obsTime":1781701200},"SBTT":{"icaoId":"SBTT","flightCategory":"IFR","rawOb":"METAR SBTT 171300Z 26003KT 9999 BKN006 BKN012 24/23 Q1017","temp":24,"dewp":23,"wdir":260,"wspd":3,"visib":"6+","altim":1017,"clouds":[{"cover":"BKN","base":600},{"cover":"BKN","base":1200}],"obsTime":1781701200},"SBCC":{"icaoId":"SBCC","flightCategory":"VFR","rawOb":"METAR SBCC 171300Z 16009KT 130V190 9999 SCT040 SCT100 26/21 Q1018","temp":26,"dewp":21,"wdir":160,"wspd":9,"visib":"6+","altim":1018,"clouds":[{"cover":"SCT","base":4000},{"cover":"SCT","base":10000}],"obsTime":1781701200},"SBTU":{"icaoId":"SBTU","flightCategory":"MVFR","rawOb":"METAR SBTU 171300Z AUTO 22010KT 180V240 9999 // BKN012/// ///// Q1017","temp":null,"dewp":null,"wdir":220,"wspd":10,"visib":"6+","altim":1017,"clouds":[{"cover":"BKN","base":1200}],"obsTime":1781701200},"SBKG":{"icaoId":"SBKG","flightCategory":"MVFR","rawOb":"METAR SBKG 171300Z 09008KT 9999 BKN017 SCT070 25/20 Q1020","temp":25,"dewp":20,"wdir":90,"wspd":8,"visib":"6+","altim":1020,"clouds":[{"cover":"BKN","base":1700},{"cover":"SCT","base":7000}],"obsTime":1781701200},"SBVH":{"icaoId":"SBVH","flightCategory":"VFR","rawOb":"METAR SBVH 171300Z 11009KT CAVOK 22/20 Q1020","temp":22,"dewp":20,"wdir":110,"wspd":9,"visib":"6+","altim":1020,"clouds":[],"obsTime":1781701200},"SBUY":{"icaoId":"SBUY","flightCategory":"IFR","rawOb":"METAR SBUY 171300Z 22002KT 9999 BKN009 BKN090 25/24 Q1015","temp":25,"dewp":24,"wdir":220,"wspd":2,"visib":"6+","altim":1015,"clouds":[{"cover":"BKN","base":900},{"cover":"BKN","base":9000}],"obsTime":1781701200},"SBGW":{"icaoId":"SBGW","flightCategory":"MVFR","rawOb":"METAR SBGW 171300Z 25007KT 6000 FEW010 BKN025 17/11 Q1024","temp":17,"dewp":11,"wdir":250,"wspd":7,"visib":3.73,"altim":1024,"clouds":[{"cover":"FEW","base":1000},{"cover":"BKN","base":2500}],"obsTime":1781701200},"SBJV":{"icaoId":"SBJV","flightCategory":"VFR","rawOb":"METAR SBJV 171300Z 33003KT CAVOK 15/14 Q1023","temp":15,"dewp":14,"wdir":330,"wspd":3,"visib":"6+","altim":1023,"clouds":[],"obsTime":1781701200},"SBNM":{"icaoId":"SBNM","flightCategory":"VFR","rawOb":"METAR SBNM 171300Z 09004KT 9999 FEW001 09/03 Q1025","temp":9,"dewp":3,"wdir":90,"wspd":4,"visib":"6+","altim":1025,"clouds":[{"cover":"FEW","base":100}],"obsTime":1781701200},"SBPF":{"icaoId":"SBPF","flightCategory":"VFR","rawOb":"METAR SBPF 171300Z 08003KT CAVOK 11/07 Q1025","temp":11,"dewp":7,"wdir":80,"wspd":3,"visib":"6+","altim":1025,"clouds":[],"obsTime":1781701200},"SBAN":{"icaoId":"SBAN","flightCategory":"VFR","rawOb":"METAR SBAN 171300Z 14005KT 9999 FEW045 SCT070 BKN090 20/16 Q1025","temp":20,"dewp":16,"wdir":140,"wspd":5,"visib":"6+","altim":1025,"clouds":[{"cover":"FEW","base":4500},{"cover":"SCT","base":7000},{"cover":"BKN","base":9000}],"obsTime":1781701200},"SBIH":{"icaoId":"SBIH","flightCategory":"VFR","rawOb":"METAR SBIH 171300Z 31006KT 9999 -TSRA FEW008 FEW025CB BKN100 23/22 Q1016","temp":23,"dewp":22,"wdir":310,"wspd":6,"visib":"6+","altim":1016,"clouds":[{"cover":"FEW","base":800},{"cover":"FEW","base":2500},{"cover":"BKN","base":10000}],"obsTime":1781701200},"SBLE":{"icaoId":"SBLE","flightCategory":"MVFR","rawOb":"METAR SBLE 171300Z AUTO VRB02KT 9999 OVC024 24/20 Q1021","temp":24,"dewp":20,"wdir":"VRB","wspd":2,"visib":"6+","altim":1021,"clouds":[{"cover":"OVC","base":2400}],"obsTime":1781701200},"SBAF":{"icaoId":"SBAF","flightCategory":"MVFR","rawOb":"METAR SBAF 171300Z VRB02KT 5000 -RA BR FEW010 BKN025 BKN040 19/19 Q1022","temp":19,"dewp":19,"wdir":"VRB","wspd":2,"visib":3.11,"altim":1022,"clouds":[{"cover":"FEW","base":1000},{"cover":"BKN","base":2500},{"cover":"BKN","base":4000}],"obsTime":1781701200},"SBJR":{"icaoId":"SBJR","flightCategory":"MVFR","rawOb":"METAR SBJR 171300Z 27003KT 9999 FEW012 SCT025 BKN030 23/19 Q1022","temp":23,"dewp":19,"wdir":270,"wspd":3,"visib":"6+","altim":1022,"clouds":[{"cover":"FEW","base":1200},{"cover":"SCT","base":2500},{"cover":"BKN","base":3000}],"obsTime":1781701200},"SBLS":{"icaoId":"SBLS","flightCategory":"VFR","rawOb":"METAR SBLS 171300Z 17007KT 110V200 9999 FEW009 19/15 Q1023","temp":19,"dewp":15,"wdir":170,"wspd":7,"visib":"6+","altim":1023,"clouds":[{"cover":"FEW","base":900}],"obsTime":1781701200},"SBMT":{"icaoId":"SBMT","flightCategory":"VFR","rawOb":"METAR SBMT 171300Z 13003KT 080V190 CAVOK 18/13 Q1024","temp":18,"dewp":13,"wdir":130,"wspd":3,"visib":"6+","altim":1024,"clouds":[],"obsTime":1781701200},"SBST":{"icaoId":"SBST","flightCategory":"VFR","rawOb":"METAR SBST 171300Z 29003KT 9999 FEW015 20/15 Q1022","temp":20,"dewp":15,"wdir":290,"wspd":3,"visib":"6+","altim":1022,"clouds":[{"cover":"FEW","base":1500}],"obsTime":1781701200},"SBTA":{"icaoId":"SBTA","flightCategory":"MVFR","rawOb":"METAR SBTA 171300Z 28003KT 9999 BKN025 19/13 Q1023","temp":19,"dewp":13,"wdir":280,"wspd":3,"visib":"6+","altim":1023,"clouds":[{"cover":"BKN","base":2500}],"obsTime":1781701200},"SBJP":{"icaoId":"SBJP","flightCategory":"IFR","rawOb":"SPECI SBJP 171237Z 04009KT 3000 -RA BKN015 BKN070 24/23 Q1018","temp":24,"dewp":23,"wdir":40,"wspd":9,"visib":1.86,"altim":1018,"clouds":[{"cover":"BKN","base":1500},{"cover":"BKN","base":7000}],"obsTime":1781699820}}}