{"updated":1775597739,"count":82,"data":{"SBMQ":{"icaoId":"SBMQ","flightCategory":"VFR","rawOb":"METAR SBMQ 072000Z 06008KT 9999 SCT018 FEW035TCU BKN083 28/25 Q1010","temp":28,"dewp":25,"wdir":60,"wspd":8,"visib":"6+","altim":1010,"clouds":[{"cover":"SCT","base":1800},{"cover":"FEW","base":3500},{"cover":"BKN","base":8300}],"obsTime":1775592000},"SBCG":{"icaoId":"SBCG","flightCategory":"LIFR","rawOb":"SPECI SBCG 071937Z 36016G31KT 320V050 0500 R24///// R06/P2000N +TSRA SCT012 BKN020 FEW035CB BKN070 25/20 Q1014","temp":25,"dewp":20,"wdir":360,"wspd":16,"visib":0.31,"altim":1014,"clouds":[{"cover":"SCT","base":1200},{"cover":"BKN","base":2000},{"cover":"FEW","base":3500},{"cover":"BKN","base":7000}],"obsTime":1775590620},"SBPJ":{"icaoId":"SBPJ","flightCategory":"VFR","rawOb":"METAR SBPJ 072000Z 25004KT 9999 TS SCT033 FEW035CB 33/25 Q1011","temp":33,"dewp":25,"wdir":250,"wspd":4,"visib":"6+","altim":1011,"clouds":[{"cover":"SCT","base":3300},{"cover":"FEW","base":3500}],"obsTime":1775592000},"SBME":{"icaoId":"SBME","flightCategory":"VFR","rawOb":"METAR SBME 072000Z 10008KT 9999 FEW030 27/22 Q1014","temp":27,"dewp":22,"wdir":100,"wspd":8,"visib":"6+","altim":1014,"clouds":[{"cover":"FEW","base":3000}],"obsTime":1775592000},"SBCF":{"icaoId":"SBCF","flightCategory":"VFR","rawOb":"METAR SBCF 072000Z 07006KT 9999 SCT040 27/17 Q1018","temp":27,"dewp":17,"wdir":70,"wspd":6,"visib":"6+","altim":1018,"clouds":[{"cover":"SCT","base":4000}],"obsTime":1775592000},"SBMG":{"icaoId":"SBMG","flightCategory":"VFR","rawOb":"METAR SBMG 072000Z 36009KT 330V030 9999 TS VCSH FEW040 FEW040CB 30/20 Q1011","temp":30,"dewp":20,"wdir":360,"wspd":9,"visib":"6+","altim":1011,"clouds":[{"cover":"FEW","base":4000},{"cover":"FEW","base":4000}],"obsTime":1775592000},"SBCZ":{"icaoId":"SBCZ","flightCategory":"VFR","rawOb":"METAR SBCZ 072000Z 15004KT 9999 SCT030 FEW035TCU 30/25 Q1009","temp":30,"dewp":25,"wdir":150,"wspd":4,"visib":"6+","altim":1009,"clouds":[{"cover":"SCT","base":3000},{"cover":"FEW","base":3500}],"obsTime":1775592000},"SBMK":{"icaoId":"SBMK","flightCategory":"VFR","rawOb":"METAR SBMK 072000Z 09006KT CAVOK 30/17 Q1016","temp":30,"dewp":17,"wdir":90,"wspd":6,"visib":"6+","altim":1016,"clouds":[],"obsTime":1775592000},"SBMO":{"icaoId":"SBMO","flightCategory":"VFR","rawOb":"METAR SBMO 072000Z 09007KT 9999 FEW025 BKN080 28/24 Q1013","temp":28,"dewp":24,"wdir":90,"wspd":7,"visib":"6+","altim":1013,"clouds":[{"cover":"FEW","base":2500},{"cover":"BKN","base":8000}],"obsTime":1775592000},"SBEG":{"icaoId":"SBEG","flightCategory":"VFR","rawOb":"METAR SBEG 072000Z 10006KT 9999 VCSH VCTS SCT020 FEW025CB SCT080 27/25 Q1009 RETS","temp":27,"dewp":25,"wdir":100,"wspd":6,"visib":"6+","altim":1009,"clouds":[{"cover":"SCT","base":2000},{"cover":"FEW","base":2500},{"cover":"SCT","base":8000}],"obsTime":1775592000},"SBBE":{"icaoId":"SBBE","flightCategory":"MVFR","rawOb":"METAR SBBE 072000Z 15001KT 9999 BKN010 FEW025TCU BKN030 27/26 Q1011","temp":27,"dewp":26,"wdir":150,"wspd":1,"visib":"6+","altim":1011,"clouds":[{"cover":"BKN","base":1000},{"cover":"FEW","base":2500},{"cover":"BKN","base":3000}],"obsTime":1775592000},"SBNT":{"icaoId":"SBNT","flightCategory":"VFR","rawOb":"METAR SBNT 072000Z 11008KT 9999 SCT017 FEW025TCU SCT100 28/24 Q1012","temp":28,"dewp":24,"wdir":110,"wspd":8,"visib":"6+","altim":1012,"clouds":[{"cover":"SCT","base":1700},{"cover":"FEW","base":2500},{"cover":"SCT","base":10000}],"obsTime":1775592000},"SBPA":{"icaoId":"SBPA","flightCategory":"IFR","rawOb":"SPECI SBPA 071936Z 27016KT 2500 RA BKN008 FEW040TCU BKN060 22/21 Q1008","temp":22,"dewp":21,"wdir":270,"wspd":16,"visib":1.55,"altim":1008,"clouds":[{"cover":"BKN","base":800},{"cover":"FEW","base":4000},{"cover":"BKN","base":6000}],"obsTime":1775590560},"SBUL":{"icaoId":"SBUL","flightCategory":"VFR","rawOb":"METAR SBUL 072000Z 05010KT 9999 3000S -TSRA SCT025 FEW035CB BKN080 27/19 Q1018","temp":27,"dewp":19,"wdir":50,"wspd":10,"visib":"6+","altim":1018,"clouds":[{"cover":"SCT","base":2500},{"cover":"FEW","base":3500},{"cover":"BKN","base":8000}],"obsTime":1775592000},"SBFI":{"icaoId":"SBFI","flightCategory":"MVFR","rawOb":"METAR SBFI 072000Z 23008KT 9999 VCSH FEW005 BKN030 FEW035TCU BKN080 23/23 Q1009","temp":23,"dewp":23,"wdir":230,"wspd":8,"visib":"6+","altim":1009,"clouds":[{"cover":"FEW","base":500},{"cover":"BKN","base":3000},{"cover":"FEW","base":3500},{"cover":"BKN","base":8000}],"obsTime":1775592000},"SBFL":{"icaoId":"SBFL","flightCategory":"VFR","rawOb":"METAR SBFL 072000Z 36011KT 9999 SCT019 27/24 Q1010","temp":27,"dewp":24,"wdir":360,"wspd":11,"visib":"6+","altim":1010,"clouds":[{"cover":"SCT","base":1900}],"obsTime":1775592000},"SBPV":{"icaoId":"SBPV","flightCategory":"VFR","rawOb":"METAR SBPV 072000Z 33005KT 9999 SCT030 FEW035TCU 30/23 Q1008","temp":30,"dewp":23,"wdir":330,"wspd":5,"visib":"6+","altim":1008,"clouds":[{"cover":"SCT","base":3000},{"cover":"FEW","base":3500}],"obsTime":1775592000},"SBVT":{"icaoId":"SBVT","flightCategory":"VFR","rawOb":"METAR SBVT 072000Z 07005KT 9999 FEW025 27/23 Q1015","temp":27,"dewp":23,"wdir":70,"wspd":5,"visib":"6+","altim":1015,"clouds":[{"cover":"FEW","base":2500}],"obsTime":1775592000},"SBLO":{"icaoId":"SBLO","flightCategory":"VFR","rawOb":"METAR SBLO 072000Z 01008KT 9999 SCT030 30/20 Q1013","temp":30,"dewp":20,"wdir":10,"wspd":8,"visib":"6+","altim":1013,"clouds":[{"cover":"SCT","base":3000}],"obsTime":1775592000},"SBCT":{"icaoId":"SBCT","flightCategory":"MVFR","rawOb":"METAR SBCT 072000Z 34010KT 9999 VCSH BKN030 FEW045TCU 24/19 Q1015","temp":24,"dewp":19,"wdir":340,"wspd":10,"visib":"6+","altim":1015,"clouds":[{"cover":"BKN","base":3000},{"cover":"FEW","base":4500}],"obsTime":1775592000},"SBBR":{"icaoId":"SBBR","flightCategory":"VFR","rawOb":"METAR SBBR 072000Z 04003KT 020V080 9999 SCT040 FEW045TCU 26/18 Q1019","temp":26,"dewp":18,"wdir":40,"wspd":3,"visib":"6+","altim":1019,"clouds":[{"cover":"SCT","base":4000},{"cover":"FEW","base":4500}],"obsTime":1775592000},"SBCB":{"icaoId":"SBCB","flightCategory":"VFR","rawOb":"METAR SBCB 072000Z 07018KT 9999 FEW005 SCT020 27/23 Q1014","temp":27,"dewp":23,"wdir":70,"wspd":18,"visib":"6+","altim":1014,"clouds":[{"cover":"FEW","base":500},{"cover":"SCT","base":2000}],"obsTime":1775592000},"SBKP":{"icaoId":"SBKP","flightCategory":"VFR","rawOb":"METAR SBKP 072000Z 34005KT 9999 FEW040 29/20 Q1016","temp":29,"dewp":20,"wdir":340,"wspd":5,"visib":"6+","altim":1016,"clouds":[{"cover":"FEW","base":4000}],"obsTime":1775592000},"SBCR":{"icaoId":"SBCR","flightCategory":"VFR","rawOb":"METAR SBCR 072000Z 34005KT 310V020 9999 FEW040 FEW045TCU 32/24 Q1009","temp":32,"dewp":24,"wdir":340,"wspd":5,"visib":"6+","altim":1009,"clouds":[{"cover":"FEW","base":4000},{"cover":"FEW","base":4500}],"obsTime":1775592000},"SBMA":{"icaoId":"SBMA","flightCategory":"VFR","rawOb":"METAR SBMA 072000Z 25004KT 9999 SCT020 FEW023TCU 32/23 Q1009","temp":32,"dewp":23,"wdir":250,"wspd":4,"visib":"6+","altim":1009,"clouds":[{"cover":"SCT","base":2000},{"cover":"FEW","base":2300}],"obsTime":1775592000},"SBRB":{"icaoId":"SBRB","flightCategory":"MVFR","rawOb":"METAR SBRB 072000Z 01008KT 8000 VCSH VCTS SCT018 SCT034 FEW036CB 30/25 Q1010","temp":30,"dewp":25,"wdir":10,"wspd":8,"visib":4.97,"altim":1010,"clouds":[{"cover":"SCT","base":1800},{"cover":"SCT","base":3400},{"cover":"FEW","base":3600}],"obsTime":1775592000},"SBBV":{"icaoId":"SBBV","flightCategory":"VFR","rawOb":"METAR SBBV 072000Z 06009KT 9999 BKN040 FEW045TCU 33/21 Q1009","temp":33,"dewp":21,"wdir":60,"wspd":9,"visib":"6+","altim":1009,"clouds":[{"cover":"BKN","base":4000},{"cover":"FEW","base":4500}],"obsTime":1775592000},"SBRF":{"icaoId":"SBRF","flightCategory":"MVFR","rawOb":"METAR SBRF 072000Z 12010KT 9999 BKN017 BKN050 27/25 Q1012","temp":27,"dewp":25,"wdir":120,"wspd":10,"visib":"6+","altim":1012,"clouds":[{"cover":"BKN","base":1700},{"cover":"BKN","base":5000}],"obsTime":1775592000},"SBFZ":{"icaoId":"SBFZ","flightCategory":"VFR","rawOb":"METAR SBFZ 072000Z 09007KT 9999 FEW018 BKN100 28/24 Q1011","temp":28,"dewp":24,"wdir":90,"wspd":7,"visib":"6+","altim":1011,"clouds":[{"cover":"FEW","base":1800},{"cover":"BKN","base":10000}],"obsTime":1775592000},"SBUR":{"icaoId":"SBUR","flightCategory":"VFR","rawOb":"METAR SBUR 072000Z COR 16005KT 9999 SCT045 FEW050TCU 23/20 Q1017 RERA","temp":23,"dewp":20,"wdir":160,"wspd":5,"visib":"6+","altim":1017,"clouds":[{"cover":"SCT","base":4500},{"cover":"FEW","base":5000}],"obsTime":1775592000},"SBSG":{"icaoId":"SBSG","flightCategory":"VFR","rawOb":"METAR SBSG 072000Z 12005KT 090V150 9999 VCSH SCT020 FEW030TCU 27/24 Q1012","temp":27,"dewp":24,"wdir":120,"wspd":5,"visib":"6+","altim":1012,"clouds":[{"cover":"SCT","base":2000},{"cover":"FEW","base":3000}],"obsTime":1775592000},"SBSL":{"icaoId":"SBSL","flightCategory":"VFR","rawOb":"METAR SBSL 072000Z 05015KT 030V090 9999 SCT030 30/23 Q1010","temp":30,"dewp":23,"wdir":50,"wspd":15,"visib":"6+","altim":1010,"clouds":[{"cover":"SCT","base":3000}],"obsTime":1775592000},"SBGL":{"icaoId":"SBGL","flightCategory":"VFR","rawOb":"METAR SBGL 072000Z 13006KT 9999 FEW030 29/22 Q1013","temp":29,"dewp":22,"wdir":130,"wspd":6,"visib":"6+","altim":1013,"clouds":[{"cover":"FEW","base":3000}],"obsTime":1775592000},"SBSN":{"icaoId":"SBSN","flightCategory":"VFR","rawOb":"METAR SBSN 072000Z 08009KT 9999 FEW023 FEW026TCU 31/25 Q1009","temp":31,"dewp":25,"wdir":80,"wspd":9,"visib":"6+","altim":1009,"clouds":[{"cover":"FEW","base":2300},{"cover":"FEW","base":2600}],"obsTime":1775592000},"SBSP":{"icaoId":"SBSP","flightCategory":"VFR","rawOb":"METAR SBSP 072000Z 06007KT 9999 VCSH BKN040 24/20 Q1018 RETSRA","temp":24,"dewp":20,"wdir":60,"wspd":7,"visib":"6+","altim":1018,"clouds":[{"cover":"BKN","base":4000}],"obsTime":1775592000},"SBGO":{"icaoId":"SBGO","flightCategory":"VFR","rawOb":"METAR SBGO 072000Z 28005KT 9999 TS VCSH FEW046 FEW050CB BKN100 25/20 Q1017","temp":25,"dewp":20,"wdir":280,"wspd":5,"visib":"6+","altim":1017,"clouds":[{"cover":"FEW","base":4600},{"cover":"FEW","base":5000},{"cover":"BKN","base":10000}],"obsTime":1775592000},"SBSV":{"icaoId":"SBSV","flightCategory":"VFR","rawOb":"METAR SBSV 072000Z 12007KT 9999 SCT020 29/23 Q1014","temp":29,"dewp":23,"wdir":120,"wspd":7,"visib":"6+","altim":1014,"clouds":[{"cover":"SCT","base":2000}],"obsTime":1775592000},"SBGR":{"icaoId":"SBGR","flightCategory":"MVFR","rawOb":"METAR SBGR 072000Z 07007KT 9999 BKN020 BKN090 21/21 Q1017 RERA","temp":21,"dewp":21,"wdir":70,"wspd":7,"visib":"6+","altim":1017,"clouds":[{"cover":"BKN","base":2000},{"cover":"BKN","base":9000}],"obsTime":1775592000},"SBTE":{"icaoId":"SBTE","flightCategory":"VFR","rawOb":"METAR SBTE 072000Z 17008KT 9999 SCT020 FEW025TCU BKN070 28/23 Q1009 RETS","temp":28,"dewp":23,"wdir":170,"wspd":8,"visib":"6+","altim":1009,"clouds":[{"cover":"SCT","base":2000},{"cover":"FEW","base":2500},{"cover":"BKN","base":7000}],"obsTime":1775592000},"SBHT":{"icaoId":"SBHT","flightCategory":"VFR","rawOb":"METAR SBHT 072000Z 13004KT 9999 SCT030 32/24 Q1009","temp":32,"dewp":24,"wdir":130,"wspd":4,"visib":"6+","altim":1009,"clouds":[{"cover":"SCT","base":3000}],"obsTime":1775592000},"SBAT":{"icaoId":"SBAT","flightCategory":"VFR","rawOb":"METAR SBAT 072000Z 00000KT 9999 SCT035 FEW036TCU 33/24 Q1010","temp":33,"dewp":24,"wdir":0,"wspd":0,"visib":"6+","altim":1010,"clouds":[{"cover":"SCT","base":3500},{"cover":"FEW","base":3600}],"obsTime":1775592000},"SBIL":{"icaoId":"SBIL","flightCategory":"VFR","rawOb":"METAR SBIL 072000Z 15006KT 9999 FEW023 SCT060 29/25 Q1015","temp":29,"dewp":25,"wdir":150,"wspd":6,"visib":"6+","altim":1015,"clouds":[{"cover":"FEW","base":2300},{"cover":"SCT","base":6000}],"obsTime":1775592000},"SBCP":{"icaoId":"SBCP","flightCategory":"VFR","rawOb":"METAR SBCP 072000Z /////KT 9999 FEW020 ///// Q1015","temp":null,"dewp":null,"wdir":null,"wspd":null,"visib":"6+","altim":1015,"clouds":[{"cover":"FEW","base":2000}],"obsTime":1775592000},"SBJU":{"icaoId":"SBJU","flightCategory":"VFR","rawOb":"METAR SBJU 072000Z 11005KT 9999 SCT020 FEW022TCU 30/22 Q1013","temp":30,"dewp":22,"wdir":110,"wspd":5,"visib":"6+","altim":1013,"clouds":[{"cover":"SCT","base":2000},{"cover":"FEW","base":2200}],"obsTime":1775592000},"SBCJ":{"icaoId":"SBCJ","flightCategory":"VFR","rawOb":"METAR SBCJ 072000Z 14006KT 9999 FEW017 SCT023 28/22 Q1014","temp":28,"dewp":22,"wdir":140,"wspd":6,"visib":"6+","altim":1014,"clouds":[{"cover":"FEW","base":1700},{"cover":"SCT","base":2300}],"obsTime":1775592000},"SBCA":{"icaoId":"SBCA","flightCategory":"VFR","rawOb":"METAR SBCA 072000Z 34008KT 9999 VCSH VCTS SCT030 FEW040CB SCT070 27/20 Q1012","temp":27,"dewp":20,"wdir":340,"wspd":8,"visib":"6+","altim":1012,"clouds":[{"cover":"SCT","base":3000},{"cover":"FEW","base":4000},{"cover":"SCT","base":7000}],"obsTime":1775592000},"SBPL":{"icaoId":"SBPL","flightCategory":"VFR","rawOb":"METAR SBPL 072000Z 04004KT 9999 FEW030 33/20 Q1012","temp":33,"dewp":20,"wdir":40,"wspd":4,"visib":"6+","altim":1012,"clouds":[{"cover":"FEW","base":3000}],"obsTime":1775592000},"SBAR":{"icaoId":"SBAR","flightCategory":"VFR","rawOb":"METAR SBAR 072000Z 12008KT 9999 VCSH FEW023 FEW025TCU BKN040 28/24 Q1013","temp":28,"dewp":24,"wdir":120,"wspd":8,"visib":"6+","altim":1013,"clouds":[{"cover":"FEW","base":2300},{"cover":"FEW","base":2500},{"cover":"BKN","base":4000}],"obsTime":1775592000},"SBPP":{"icaoId":"SBPP","flightCategory":"MVFR","rawOb":"METAR SBPP 072000Z 01008KT 9999 TS BKN020 FEW025CB OVC070 25/21 Q1013","temp":25,"dewp":21,"wdir":10,"wspd":8,"visib":"6+","altim":1013,"clouds":[{"cover":"BKN","base":2000},{"cover":"FEW","base":2500},{"cover":"OVC","base":7000}],"obsTime":1775592000},"SBCO":{"icaoId":"SBCO","flightCategory":"LIFR","rawOb":"METAR SBCO 072000Z 34004KT 1500 R13///// R31/P2000 TSRA BR BKN009 FEW030CB OVC070 21/20 Q1008 RERA","temp":21,"dewp":20,"wdir":340,"wspd":4,"visib":0.93,"altim":1008,"clouds":[{"cover":"BKN","base":900},{"cover":"FEW","base":3000},{"cover":"OVC","base":7000}],"obsTime":1775592000},"SBPS":{"icaoId":"SBPS","flightCategory":"VFR","rawOb":"METAR SBPS 072000Z 12009KT 090V160 9999 SCT015 SCT050 27/23 Q1015","temp":27,"dewp":23,"wdir":120,"wspd":9,"visib":"6+","altim":1015,"clouds":[{"cover":"SCT","base":1500},{"cover":"SCT","base":5000}],"obsTime":1775592000},"SBBH":{"icaoId":"SBBH","flightCategory":"VFR","rawOb":"METAR SBBH 072000Z 07005KT CAVOK 27/17 Q1018","temp":27,"dewp":17,"wdir":70,"wspd":5,"visib":"6+","altim":1018,"clouds":[],"obsTime":1775592000},"SBSC":{"icaoId":"SBSC","flightCategory":"VFR","rawOb":"METAR SBSC 072000Z 36003KT 9999 FEW030 32/22 Q1012","temp":32,"dewp":22,"wdir":360,"wspd":3,"visib":"6+","altim":1012,"clouds":[{"cover":"FEW","base":3000}],"obsTime":1775592000},"SBDN":{"icaoId":"SBDN","flightCategory":"VFR","rawOb":"METAR SBDN 072000Z 02007KT 9999 FEW043 FEW060TCU 31/20 Q1012","temp":31,"dewp":20,"wdir":20,"wspd":7,"visib":"6+","altim":1012,"clouds":[{"cover":"FEW","base":4300},{"cover":"FEW","base":6000}],"obsTime":1775592000},"SBSJ":{"icaoId":"SBSJ","flightCategory":"MVFR","rawOb":"SPECI SBSJ 071938Z 00000KT 7000 TS FEW040 FEW045CB SCT100 28/21 Q1016","temp":28,"dewp":21,"wdir":0,"wspd":0,"visib":4.35,"altim":1016,"clouds":[{"cover":"FEW","base":4000},{"cover":"FEW","base":4500},{"cover":"SCT","base":10000}],"obsTime":1775590680},"SBVH":{"icaoId":"SBVH","flightCategory":"VFR","rawOb":"METAR SBVH 072000Z 05004KT 9999 SCT040 SCT090 30/23 Q1013","temp":30,"dewp":23,"wdir":50,"wspd":4,"visib":"6+","altim":1013,"clouds":[{"cover":"SCT","base":4000},{"cover":"SCT","base":9000}],"obsTime":1775592000},"SBSM":{"icaoId":"SBSM","flightCategory":"VFR","rawOb":"METAR SBSM 072000Z 32010KT 280V010 9999 FEW025 23/19 Q1004","temp":23,"dewp":19,"wdir":320,"wspd":10,"visib":"6+","altim":1004,"clouds":[{"cover":"FEW","base":2500}],"obsTime":1775592000},"SBES":{"icaoId":"SBES","flightCategory":"VFR","rawOb":"METAR SBES 072000Z 06014KT 010V080 9999 FEW030 26/// Q1014","temp":null,"dewp":null,"wdir":60,"wspd":14,"visib":"6+","altim":1014,"clouds":[{"cover":"FEW","base":3000}],"obsTime":1775592000},"SBSR":{"icaoId":"SBSR","flightCategory":"VFR","rawOb":"METAR SBSR 072000Z 35004KT 9999 SCT030 FEW035TCU SCT070 30/18 Q1014","temp":30,"dewp":18,"wdir":350,"wspd":4,"visib":"6+","altim":1014,"clouds":[{"cover":"SCT","base":3000},{"cover":"FEW","base":3500},{"cover":"SCT","base":7000}],"obsTime":1775592000},"SBTF":{"icaoId":"SBTF","flightCategory":"VFR","rawOb":"METAR SBTF 072000Z 00000KT 9999 FEW010 SCT090 26/24 Q1010","temp":26,"dewp":24,"wdir":0,"wspd":0,"visib":"6+","altim":1010,"clouds":[{"cover":"FEW","base":1000},{"cover":"SCT","base":9000}],"obsTime":1775592000},"SBBU":{"icaoId":"SBBU","flightCategory":"VFR","rawOb":"METAR SBBU 072000Z /////KT 9999 FEW042 31/21 Q1014","temp":31,"dewp":21,"wdir":null,"wspd":null,"visib":"6+","altim":1014,"clouds":[{"cover":"FEW","base":4200}],"obsTime":1775592000},"SBPB":{"icaoId":"SBPB","flightCategory":"VFR","rawOb":"METAR SBPB 072000Z 05013KT 9999 TS SCT016 FEW025CB BKN080 28/23 Q1001","temp":28,"dewp":23,"wdir":50,"wspd":13,"visib":"6+","altim":1001,"clouds":[{"cover":"SCT","base":1600},{"cover":"FEW","base":2500},{"cover":"BKN","base":8000}],"obsTime":1775592000},"SBKG":{"icaoId":"SBKG","flightCategory":"MVFR","rawOb":"METAR SBKG 072000Z 06003KT 8000 VCSH SCT012 OVC080 23/22 Q1015","temp":23,"dewp":22,"wdir":60,"wspd":3,"visib":4.97,"altim":1015,"clouds":[{"cover":"SCT","base":1200},{"cover":"OVC","base":8000}],"obsTime":1775592000},"SBOI":{"icaoId":"SBOI","flightCategory":"VFR","rawOb":"METAR SBOI 072000Z AUTO 05007KT 360V110 9999 SCT034 30/24 Q1011","temp":30,"dewp":24,"wdir":50,"wspd":7,"visib":"6+","altim":1011,"clouds":[{"cover":"SCT","base":3400}],"obsTime":1775592000},"SBIP":{"icaoId":"SBIP","flightCategory":"VFR","rawOb":"METAR SBIP 072000Z AUTO 01006KT CAVOK 30/19 Q1016","temp":30,"dewp":19,"wdir":10,"wspd":6,"visib":"6+","altim":1016,"clouds":[],"obsTime":1775592000},"SBTT":{"icaoId":"SBTT","flightCategory":"VFR","rawOb":"METAR SBTT 072000Z 15007KT 9999 FEW025 FEW030TCU SCT090 30/24 Q1009","temp":30,"dewp":24,"wdir":150,"wspd":7,"visib":"6+","altim":1009,"clouds":[{"cover":"FEW","base":2500},{"cover":"FEW","base":3000},{"cover":"SCT","base":9000}],"obsTime":1775592000},"SBAX":{"icaoId":"SBAX","flightCategory":"MVFR","rawOb":"METAR SBAX 072000Z 02003KT 9999 BKN023 27/18 Q1018","temp":27,"dewp":18,"wdir":20,"wspd":3,"visib":"6+","altim":1018,"clouds":[{"cover":"BKN","base":2300}],"obsTime":1775592000},"SBUY":{"icaoId":"SBUY","flightCategory":"VFR","rawOb":"METAR SBUY 072000Z 36006KT 9999 FEW020 FEW025TCU SCT100 28/25 Q1009","temp":28,"dewp":25,"wdir":360,"wspd":6,"visib":"6+","altim":1009,"clouds":[{"cover":"FEW","base":2000},{"cover":"FEW","base":2500},{"cover":"SCT","base":10000}],"obsTime":1775592000},"SBBQ":{"icaoId":"SBBQ","flightCategory":"VFR","rawOb":"METAR SBBQ 072000Z 08004KT 030V110 9999 FEW030 23/18 Q1022","temp":23,"dewp":18,"wdir":80,"wspd":4,"visib":"6+","altim":1022,"clouds":[{"cover":"FEW","base":3000}],"obsTime":1775592000},"SBCC":{"icaoId":"SBCC","flightCategory":"VFR","rawOb":"METAR SBCC 072000Z 06008KT 9999 SCT025 FEW030TCU 30/21 Q1012","temp":30,"dewp":21,"wdir":60,"wspd":8,"visib":"6+","altim":1012,"clouds":[{"cover":"SCT","base":2500},{"cover":"FEW","base":3000}],"obsTime":1775592000},"SBAN":{"icaoId":"SBAN","flightCategory":"VFR","rawOb":"METAR SBAN 072000Z 01003KT 9999 VCSH VCTS SCT035 FEW040CB SCT100 21/18 Q1020 RETS","temp":21,"dewp":18,"wdir":10,"wspd":3,"visib":"6+","altim":1020,"clouds":[{"cover":"SCT","base":3500},{"cover":"FEW","base":4000},{"cover":"SCT","base":10000}],"obsTime":1775592000},"SBJR":{"icaoId":"SBJR","flightCategory":"VFR","rawOb":"METAR SBJR 072000Z 16002KT CAVOK 31/22 Q1013","temp":31,"dewp":22,"wdir":160,"wspd":2,"visib":"6+","altim":1013,"clouds":[],"obsTime":1775592000},"SBJV":{"icaoId":"SBJV","flightCategory":"VFR","rawOb":"METAR SBJV 072000Z 07004KT 9999 FEW015 SCT025 28/25 Q1010","temp":28,"dewp":25,"wdir":70,"wspd":4,"visib":"6+","altim":1010,"clouds":[{"cover":"FEW","base":1500},{"cover":"SCT","base":2500}],"obsTime":1775592000},"SBLS":{"icaoId":"SBLS","flightCategory":"VFR","rawOb":"METAR SBLS 072000Z 12006KT 070V130 9999 SCT046 27/17 Q1018","temp":27,"dewp":17,"wdir":120,"wspd":6,"visib":"6+","altim":1018,"clouds":[{"cover":"SCT","base":4600}],"obsTime":1775592000},"SBPF":{"icaoId":"SBPF","flightCategory":"VFR","rawOb":"METAR SBPF 072000Z 28012KT 9000 -RA NSC 18/16 Q1012","temp":18,"dewp":16,"wdir":280,"wspd":12,"visib":5.59,"altim":1012,"clouds":[],"obsTime":1775592000},"SBMT":{"icaoId":"SBMT","flightCategory":"VFR","rawOb":"METAR SBMT 072000Z 09007KT 9999 SCT020 SCT030 22/21 Q1017","temp":22,"dewp":21,"wdir":90,"wspd":7,"visib":"6+","altim":1017,"clouds":[{"cover":"SCT","base":2000},{"cover":"SCT","base":3000}],"obsTime":1775592000},"SBAF":{"icaoId":"SBAF","flightCategory":"VFR","rawOb":"METAR SBAF 072000Z 10006KT 9999 FEW040 31/22 Q1013","temp":31,"dewp":22,"wdir":100,"wspd":6,"visib":"6+","altim":1013,"clouds":[{"cover":"FEW","base":4000}],"obsTime":1775592000},"SBST":{"icaoId":"SBST","flightCategory":"MVFR","rawOb":"METAR SBST 072000Z 30002KT 8000 -TSRA SCT029 FEW030CB BKN073 25/25 Q1013","temp":25,"dewp":25,"wdir":300,"wspd":2,"visib":4.97,"altim":1013,"clouds":[{"cover":"SCT","base":2900},{"cover":"FEW","base":3000},{"cover":"BKN","base":7300}],"obsTime":1775592000},"SBTA":{"icaoId":"SBTA","flightCategory":"VFR","rawOb":"METAR SBTA 072000Z 03004KT 9999 VCSH FEW035 FEW040TCU SCT100 28/20 Q1015","temp":28,"dewp":20,"wdir":30,"wspd":4,"visib":"6+","altim":1015,"clouds":[{"cover":"FEW","base":3500},{"cover":"FEW","base":4000},{"cover":"SCT","base":10000}],"obsTime":1775592000},"SBIH":{"icaoId":"SBIH","flightCategory":"VFR","rawOb":"METAR SBIH 072000Z 05008KT 9999 FEW020 FEW025TCU SCT100 32/24 Q1008","temp":32,"dewp":24,"wdir":50,"wspd":8,"visib":"6+","altim":1008,"clouds":[{"cover":"FEW","base":2000},{"cover":"FEW","base":2500},{"cover":"SCT","base":10000}],"obsTime":1775592000},"SBJP":{"icaoId":"SBJP","flightCategory":"VFR","rawOb":"METAR SBJP 072000Z 14003KT 9999 SCT020 SCT070 27/24 Q1013","temp":27,"dewp":24,"wdir":140,"wspd":3,"visib":"6+","altim":1013,"clouds":[{"cover":"SCT","base":2000},{"cover":"SCT","base":7000}],"obsTime":1775592000},"SBGW":{"icaoId":"SBGW","flightCategory":"VFR","rawOb":"METAR SBGW 072000Z 01005KT 350V050 9999 VCSH SCT030 FEW035TCU 28/19 Q1015","temp":28,"dewp":19,"wdir":10,"wspd":5,"visib":"6+","altim":1015,"clouds":[{"cover":"SCT","base":3000},{"cover":"FEW","base":3500}],"obsTime":1775592000}}}