{"updated":1777824313,"count":84,"data":{"SBGL":{"icaoId":"SBGL","flightCategory":"MVFR","rawOb":"METAR SBGL 031500Z 34003KT 9000 FEW020 BKN030 BKN036 24/20 Q1020","temp":24,"dewp":20,"wdir":340,"wspd":3,"visib":5.59,"altim":1020,"clouds":[{"cover":"FEW","base":2000},{"cover":"BKN","base":3000},{"cover":"BKN","base":3600}],"obsTime":1777820400},"SBVT":{"icaoId":"SBVT","flightCategory":"VFR","rawOb":"METAR SBVT 031500Z 20018KT 9999 FEW040 SCT080 30/21 Q1016","temp":30,"dewp":21,"wdir":200,"wspd":18,"visib":"6+","altim":1016,"clouds":[{"cover":"FEW","base":4000},{"cover":"SCT","base":8000}],"obsTime":1777820400},"SBBE":{"icaoId":"SBBE","flightCategory":"MVFR","rawOb":"METAR SBBE 031500Z 32005KT 9999 SCT018 BKN024 29/25 Q1012","temp":29,"dewp":25,"wdir":320,"wspd":5,"visib":"6+","altim":1012,"clouds":[{"cover":"SCT","base":1800},{"cover":"BKN","base":2400}],"obsTime":1777820400},"SBBR":{"icaoId":"SBBR","flightCategory":"VFR","rawOb":"METAR SBBR 031500Z 11013KT 9999 SCT030 27/15 Q1020","temp":27,"dewp":15,"wdir":110,"wspd":13,"visib":"6+","altim":1020,"clouds":[{"cover":"SCT","base":3000}],"obsTime":1777820400},"SBTE":{"icaoId":"SBTE","flightCategory":"MVFR","rawOb":"METAR SBTE 031500Z 10007KT 9999 BKN020 BKN090 30/24 Q1013","temp":30,"dewp":24,"wdir":100,"wspd":7,"visib":"6+","altim":1013,"clouds":[{"cover":"BKN","base":2000},{"cover":"BKN","base":9000}],"obsTime":1777820400},"SBSV":{"icaoId":"SBSV","flightCategory":"VFR","rawOb":"METAR SBSV 031500Z 16008KT 130V210 9999 SCT025 29/23 Q1015","temp":29,"dewp":23,"wdir":160,"wspd":8,"visib":"6+","altim":1015,"clouds":[{"cover":"SCT","base":2500}],"obsTime":1777820400},"SBBV":{"icaoId":"SBBV","flightCategory":"MVFR","rawOb":"METAR SBBV 031500Z 07010KT 9999 BKN030 FEW040TCU BKN090 30/22 Q1014","temp":30,"dewp":22,"wdir":70,"wspd":10,"visib":"6+","altim":1014,"clouds":[{"cover":"BKN","base":3000},{"cover":"FEW","base":4000},{"cover":"BKN","base":9000}],"obsTime":1777820400},"SBCB":{"icaoId":"SBCB","flightCategory":"MVFR","rawOb":"METAR SBCB 031500Z 20010KT 8000 BKN015 OVC040 25/20 Q1019","temp":25,"dewp":20,"wdir":200,"wspd":10,"visib":4.97,"altim":1019,"clouds":[{"cover":"BKN","base":1500},{"cover":"OVC","base":4000}],"obsTime":1777820400},"SBSP":{"icaoId":"SBSP","flightCategory":"MVFR","rawOb":"METAR SBSP 031500Z 17014KT 9999 BKN010 17/15 Q1025","temp":17,"dewp":15,"wdir":170,"wspd":14,"visib":"6+","altim":1025,"clouds":[{"cover":"BKN","base":1000}],"obsTime":1777820400},"SBSN":{"icaoId":"SBSN","flightCategory":"VFR","rawOb":"METAR SBSN 031500Z 10010KT 9999 SCT016 BKN100 28/25 Q1013","temp":28,"dewp":25,"wdir":100,"wspd":10,"visib":"6+","altim":1013,"clouds":[{"cover":"SCT","base":1600},{"cover":"BKN","base":10000}],"obsTime":1777820400},"SBCF":{"icaoId":"SBCF","flightCategory":"VFR","rawOb":"METAR SBCF 031500Z VRB03KT 9999 SCT035 28/13 Q1020","temp":28,"dewp":13,"wdir":"VRB","wspd":3,"visib":"6+","altim":1020,"clouds":[{"cover":"SCT","base":3500}],"obsTime":1777820400},"SBSL":{"icaoId":"SBSL","flightCategory":"MVFR","rawOb":"METAR SBSL 031500Z 08009KT 060V120 9999 SCT017 BKN022 28/24 Q1013","temp":28,"dewp":24,"wdir":80,"wspd":9,"visib":"6+","altim":1013,"clouds":[{"cover":"SCT","base":1700},{"cover":"BKN","base":2200}],"obsTime":1777820400},"SBCG":{"icaoId":"SBCG","flightCategory":"VFR","rawOb":"METAR SBCG 031500Z 06009KT CAVOK 29/17 Q1018","temp":29,"dewp":17,"wdir":60,"wspd":9,"visib":"6+","altim":1018,"clouds":[],"obsTime":1777820400},"SBSG":{"icaoId":"SBSG","flightCategory":"MVFR","rawOb":"METAR SBSG 031500Z 13008KT 090V170 9999 BKN020 BKN035 28/24 Q1013","temp":28,"dewp":24,"wdir":130,"wspd":8,"visib":"6+","altim":1013,"clouds":[{"cover":"BKN","base":2000},{"cover":"BKN","base":3500}],"obsTime":1777820400},"SBCP":{"icaoId":"SBCP","flightCategory":"MVFR","rawOb":"METAR SBCP 031500Z 21013KT 9999 BKN030 BKN070 28/21 Q1018","temp":28,"dewp":21,"wdir":210,"wspd":13,"visib":"6+","altim":1018,"clouds":[{"cover":"BKN","base":3000},{"cover":"BKN","base":7000}],"obsTime":1777820400},"SBRF":{"icaoId":"SBRF","flightCategory":"VFR","rawOb":"METAR SBRF 031500Z 16011KT 120V180 9999 SCT025 29/23 Q1013","temp":29,"dewp":23,"wdir":160,"wspd":11,"visib":"6+","altim":1013,"clouds":[{"cover":"SCT","base":2500}],"obsTime":1777820400},"SBCR":{"icaoId":"SBCR","flightCategory":"VFR","rawOb":"METAR SBCR 031500Z 28004KT 250V330 9999 SCT014 SCT040 FEW045TCU BKN100 27/23 Q1016","temp":27,"dewp":23,"wdir":280,"wspd":4,"visib":"6+","altim":1016,"clouds":[{"cover":"SCT","base":1400},{"cover":"SCT","base":4000},{"cover":"FEW","base":4500},{"cover":"BKN","base":10000}],"obsTime":1777820400},"SBRB":{"icaoId":"SBRB","flightCategory":"VFR","rawOb":"METAR SBRB 031500Z 11005KT 9999 SCT025 31/25 Q1015","temp":31,"dewp":25,"wdir":110,"wspd":5,"visib":"6+","altim":1015,"clouds":[{"cover":"SCT","base":2500}],"obsTime":1777820400},"SBCT":{"icaoId":"SBCT","flightCategory":"IFR","rawOb":"METAR SBCT 031500Z 12009KT 080V140 9999 BKN006 OVC012 13/13 Q1025","temp":13,"dewp":13,"wdir":120,"wspd":9,"visib":"6+","altim":1025,"clouds":[{"cover":"BKN","base":600},{"cover":"OVC","base":1200}],"obsTime":1777820400},"SBPV":{"icaoId":"SBPV","flightCategory":"VFR","rawOb":"METAR SBPV 031500Z 11008KT CAVOK 32/28 Q1013","temp":32,"dewp":28,"wdir":110,"wspd":8,"visib":"6+","altim":1013,"clouds":[],"obsTime":1777820400},"SBPJ":{"icaoId":"SBPJ","flightCategory":"VFR","rawOb":"METAR SBPJ 031500Z 10007KT CAVOK 33/22 Q1014","temp":33,"dewp":22,"wdir":100,"wspd":7,"visib":"6+","altim":1014,"clouds":[],"obsTime":1777820400},"SBPA":{"icaoId":"SBPA","flightCategory":"VFR","rawOb":"METAR SBPA 031500Z VRB02KT CAVOK 17/08 Q1024","temp":17,"dewp":8,"wdir":"VRB","wspd":2,"visib":"6+","altim":1024,"clouds":[],"obsTime":1777820400},"SBEG":{"icaoId":"SBEG","flightCategory":"IFR","rawOb":"SPECI SBEG 031411Z 10013KT 4000 RA BKN020 FEW025TCU BKN080 24/23 Q1014","temp":24,"dewp":23,"wdir":100,"wspd":13,"visib":2.49,"altim":1014,"clouds":[{"cover":"BKN","base":2000},{"cover":"FEW","base":2500},{"cover":"BKN","base":8000}],"obsTime":1777817460},"SBMQ":{"icaoId":"SBMQ","flightCategory":"MVFR","rawOb":"METAR SBMQ 031500Z 33006KT 9999 BKN018 BKN055 29/25 Q1013","temp":29,"dewp":25,"wdir":330,"wspd":6,"visib":"6+","altim":1013,"clouds":[{"cover":"BKN","base":1800},{"cover":"BKN","base":5500}],"obsTime":1777820400},"SBMO":{"icaoId":"SBMO","flightCategory":"VFR","rawOb":"METAR SBMO 031500Z 09008KT 060V130 9999 SCT025 BKN060 29/23 Q1014","temp":29,"dewp":23,"wdir":90,"wspd":8,"visib":"6+","altim":1014,"clouds":[{"cover":"SCT","base":2500},{"cover":"BKN","base":6000}],"obsTime":1777820400},"SBMA":{"icaoId":"SBMA","flightCategory":"MVFR","rawOb":"METAR SBMA 031500Z 03001KT 9999 BKN020 SCT100 31/25 Q1013","temp":31,"dewp":25,"wdir":30,"wspd":1,"visib":"6+","altim":1013,"clouds":[{"cover":"BKN","base":2000},{"cover":"SCT","base":10000}],"obsTime":1777820400},"SBLO":{"icaoId":"SBLO","flightCategory":"VFR","rawOb":"METAR SBLO 031500Z 09008KT 9999 SCT020 24/18 Q1020","temp":24,"dewp":18,"wdir":90,"wspd":8,"visib":"6+","altim":1020,"clouds":[{"cover":"SCT","base":2000}],"obsTime":1777820400},"SBKP":{"icaoId":"SBKP","flightCategory":"MVFR","rawOb":"METAR SBKP 031500Z 14016KT 9999 BKN025 23/16 Q1022","temp":23,"dewp":16,"wdir":140,"wspd":16,"visib":"6+","altim":1022,"clouds":[{"cover":"BKN","base":2500}],"obsTime":1777820400},"SBFI":{"icaoId":"SBFI","flightCategory":"VFR","rawOb":"METAR SBFI 031500Z 08007KT 9999 SCT020 SCT100 23/19 Q1019","temp":23,"dewp":19,"wdir":80,"wspd":7,"visib":"6+","altim":1019,"clouds":[{"cover":"SCT","base":2000},{"cover":"SCT","base":10000}],"obsTime":1777820400},"SBGR":{"icaoId":"SBGR","flightCategory":"MVFR","rawOb":"SPECI SBGR 031430Z 15006KT 9999 BKN017 OVC020 19/15 Q1024","temp":19,"dewp":15,"wdir":150,"wspd":6,"visib":"6+","altim":1024,"clouds":[{"cover":"BKN","base":1700},{"cover":"OVC","base":2000}],"obsTime":1777818600},"SBFL":{"icaoId":"SBFL","flightCategory":"VFR","rawOb":"METAR SBFL 031500Z 20011KT CAVOK 20/10 Q1023","temp":20,"dewp":10,"wdir":200,"wspd":11,"visib":"6+","altim":1023,"clouds":[],"obsTime":1777820400},"SBGO":{"icaoId":"SBGO","flightCategory":"VFR","rawOb":"METAR SBGO 031500Z 08010KT 9999 FEW045 30/13 Q1018","temp":30,"dewp":13,"wdir":80,"wspd":10,"visib":"6+","altim":1018,"clouds":[{"cover":"FEW","base":4500}],"obsTime":1777820400},"SBFZ":{"icaoId":"SBFZ","flightCategory":"MVFR","rawOb":"METAR SBFZ 031500Z 12009KT 090V170 9999 BKN027 30/24 Q1012","temp":30,"dewp":24,"wdir":120,"wspd":9,"visib":"6+","altim":1012,"clouds":[{"cover":"BKN","base":2700}],"obsTime":1777820400},"SBHT":{"icaoId":"SBHT","flightCategory":"MVFR","rawOb":"METAR SBHT 031500Z 09005KT 9999 BKN023 31/25 Q1013","temp":31,"dewp":25,"wdir":90,"wspd":5,"visib":"6+","altim":1013,"clouds":[{"cover":"BKN","base":2300}],"obsTime":1777820400},"SBIL":{"icaoId":"SBIL","flightCategory":"VFR","rawOb":"METAR SBIL 031500Z 16006KT 120V190 9999 FEW024 29/25 Q1016","temp":29,"dewp":25,"wdir":160,"wspd":6,"visib":"6+","altim":1016,"clouds":[{"cover":"FEW","base":2400}],"obsTime":1777820400},"SBJU":{"icaoId":"SBJU","flightCategory":"VFR","rawOb":"METAR SBJU 031500Z 27006KT 9999 SCT020 28/20 Q1016","temp":28,"dewp":20,"wdir":270,"wspd":6,"visib":"6+","altim":1016,"clouds":[{"cover":"SCT","base":2000}],"obsTime":1777820400},"SBUL":{"icaoId":"SBUL","flightCategory":"VFR","rawOb":"METAR SBUL 031500Z 12005KT 9999 FEW040 27/14 Q1021","temp":27,"dewp":14,"wdir":120,"wspd":5,"visib":"6+","altim":1021,"clouds":[{"cover":"FEW","base":4000}],"obsTime":1777820400},"SBUR":{"icaoId":"SBUR","flightCategory":"VFR","rawOb":"METAR SBUR 031500Z 16007KT 9999 FEW040 28/15 Q1020","temp":28,"dewp":15,"wdir":160,"wspd":7,"visib":"6+","altim":1020,"clouds":[{"cover":"FEW","base":4000}],"obsTime":1777820400},"SBME":{"icaoId":"SBME","flightCategory":"MVFR","rawOb":"METAR SBME 031500Z 26008KT 9999 SCT010 BKN020 BKN080 24/22 Q1018 RERA","temp":24,"dewp":22,"wdir":260,"wspd":8,"visib":"6+","altim":1018,"clouds":[{"cover":"SCT","base":1000},{"cover":"BKN","base":2000},{"cover":"BKN","base":8000}],"obsTime":1777820400},"SBMG":{"icaoId":"SBMG","flightCategory":"VFR","rawOb":"METAR SBMG 031500Z 03006KT CAVOK 25/17 Q1019","temp":25,"dewp":17,"wdir":30,"wspd":6,"visib":"6+","altim":1019,"clouds":[],"obsTime":1777820400},"SBMK":{"icaoId":"SBMK","flightCategory":"VFR","rawOb":"METAR SBMK 031500Z 11006KT 9999 SCT030 30/17 Q1018","temp":30,"dewp":17,"wdir":110,"wspd":6,"visib":"6+","altim":1018,"clouds":[{"cover":"SCT","base":3000}],"obsTime":1777820400},"SBNT":{"icaoId":"SBNT","flightCategory":"VFR","rawOb":"METAR SBNT 031500Z 14011KT 9999 VCSH FEW020 SCT050 BKN090 27/23 Q1012","temp":27,"dewp":23,"wdir":140,"wspd":11,"visib":"6+","altim":1012,"clouds":[{"cover":"FEW","base":2000},{"cover":"SCT","base":5000},{"cover":"BKN","base":9000}],"obsTime":1777820400},"SBAT":{"icaoId":"SBAT","flightCategory":"VFR","rawOb":"METAR SBAT 031500Z 14010KT 9999 FEW035 33/23 Q1014","temp":33,"dewp":23,"wdir":140,"wspd":10,"visib":"6+","altim":1014,"clouds":[{"cover":"FEW","base":3500}],"obsTime":1777820400},"SBCZ":{"icaoId":"SBCZ","flightCategory":"MVFR","rawOb":"METAR SBCZ 031500Z 17007KT 9999 BKN012 SCT100 27/25 Q1016","temp":27,"dewp":25,"wdir":170,"wspd":7,"visib":"6+","altim":1016,"clouds":[{"cover":"BKN","base":1200},{"cover":"SCT","base":10000}],"obsTime":1777820400},"SBUY":{"icaoId":"SBUY","flightCategory":"VFR","rawOb":"METAR SBUY 031500Z 14004KT 9999 FEW006 BKN090 28/24 Q1012","temp":28,"dewp":24,"wdir":140,"wspd":4,"visib":"6+","altim":1012,"clouds":[{"cover":"FEW","base":600},{"cover":"BKN","base":9000}],"obsTime":1777820400},"SBPS":{"icaoId":"SBPS","flightCategory":"VFR","rawOb":"METAR SBPS 031500Z 10008KT 9999 SCT025 29/24 Q1015","temp":29,"dewp":24,"wdir":100,"wspd":8,"visib":"6+","altim":1015,"clouds":[{"cover":"SCT","base":2500}],"obsTime":1777820400},"SBPB":{"icaoId":"SBPB","flightCategory":"MVFR","rawOb":"METAR SBPB 031500Z 10006KT 9999 BKN016 OVC080 28/24 Q1013","temp":28,"dewp":24,"wdir":100,"wspd":6,"visib":"6+","altim":1013,"clouds":[{"cover":"BKN","base":1600},{"cover":"OVC","base":8000}],"obsTime":1777820400},"SBCJ":{"icaoId":"SBCJ","flightCategory":"VFR","rawOb":"METAR SBCJ 031500Z 14006KT 9999 SCT017 27/22 Q1018","temp":27,"dewp":22,"wdir":140,"wspd":6,"visib":"6+","altim":1018,"clouds":[{"cover":"SCT","base":1700}],"obsTime":1777820400},"SBSJ":{"icaoId":"SBSJ","flightCategory":"IFR","rawOb":"METAR SBSJ 031500Z COR 14008KT 4000 -DZ BR BKN015 OVC030 20/17 Q1023","temp":20,"dewp":17,"wdir":140,"wspd":8,"visib":2.49,"altim":1023,"clouds":[{"cover":"BKN","base":1500},{"cover":"OVC","base":3000}],"obsTime":1777820400},"SBPL":{"icaoId":"SBPL","flightCategory":"VFR","rawOb":"METAR SBPL 031500Z 12009KT 9999 FEW022 29/17 Q1015","temp":29,"dewp":17,"wdir":120,"wspd":9,"visib":"6+","altim":1015,"clouds":[{"cover":"FEW","base":2200}],"obsTime":1777820400},"SBAR":{"icaoId":"SBAR","flightCategory":"MVFR","rawOb":"METAR SBAR 031500Z 12012KT 9999 VCSH FEW013 BKN023 FEW025TCU 28/24 Q1014","temp":28,"dewp":24,"wdir":120,"wspd":12,"visib":"6+","altim":1014,"clouds":[{"cover":"FEW","base":1300},{"cover":"BKN","base":2300},{"cover":"FEW","base":2500}],"obsTime":1777820400},"SBTT":{"icaoId":"SBTT","flightCategory":"IFR","rawOb":"SPECI SBTT 031411Z VRB02KT 2000 RA BKN006 BKN013 OVC040 24/22 Q1016","temp":24,"dewp":22,"wdir":"VRB","wspd":2,"visib":1.24,"altim":1016,"clouds":[{"cover":"BKN","base":600},{"cover":"BKN","base":1300},{"cover":"OVC","base":4000}],"obsTime":1777817460},"SBOI":{"icaoId":"SBOI","flightCategory":"VFR","rawOb":"METAR SBOI 031500Z AUTO 04009KT 010V080 9999 FEW032 32/24 Q1014","temp":32,"dewp":24,"wdir":40,"wspd":9,"visib":"6+","altim":1014,"clouds":[{"cover":"FEW","base":3200}],"obsTime":1777820400},"SBTF":{"icaoId":"SBTF","flightCategory":"VFR","rawOb":"METAR SBTF 031500Z 17005KT 9999 FEW012 BKN080 29/26 Q1013","temp":29,"dewp":26,"wdir":170,"wspd":5,"visib":"6+","altim":1013,"clouds":[{"cover":"FEW","base":1200},{"cover":"BKN","base":8000}],"obsTime":1777820400},"SBPP":{"icaoId":"SBPP","flightCategory":"MVFR","rawOb":"METAR SBPP 031500Z 07012KT 9999 BKN015 23/19 Q1020","temp":23,"dewp":19,"wdir":70,"wspd":12,"visib":"6+","altim":1020,"clouds":[{"cover":"BKN","base":1500}],"obsTime":1777820400},"SBSC":{"icaoId":"SBSC","flightCategory":"MVFR","rawOb":"METAR SBSC 031500Z 22005KT 5000 -RA BR SCT009 BKN016 OVC030 22/20 Q1021","temp":22,"dewp":20,"wdir":220,"wspd":5,"visib":3.11,"altim":1021,"clouds":[{"cover":"SCT","base":900},{"cover":"BKN","base":1600},{"cover":"OVC","base":3000}],"obsTime":1777820400},"SBSM":{"icaoId":"SBSM","flightCategory":"VFR","rawOb":"METAR SBSM 031500Z 11009KT 080V170 CAVOK 15/05 Q1024","temp":15,"dewp":5,"wdir":110,"wspd":9,"visib":"6+","altim":1024,"clouds":[],"obsTime":1777820400},"SBSR":{"icaoId":"SBSR","flightCategory":"VFR","rawOb":"METAR SBSR 031500Z 14004KT 090V180 CAVOK 28/13 Q1019","temp":28,"dewp":13,"wdir":140,"wspd":4,"visib":"6+","altim":1019,"clouds":[],"obsTime":1777820400},"SBAX":{"icaoId":"SBAX","flightCategory":"VFR","rawOb":"METAR SBAX 031500Z AUTO VRB03KT CAVOK 26/14 Q1021","temp":26,"dewp":14,"wdir":"VRB","wspd":3,"visib":"6+","altim":1021,"clouds":[],"obsTime":1777820400},"SBBH":{"icaoId":"SBBH","flightCategory":"VFR","rawOb":"METAR SBBH 031500Z 09006KT 9999 FEW035 29/14 Q1020","temp":29,"dewp":14,"wdir":90,"wspd":6,"visib":"6+","altim":1020,"clouds":[{"cover":"FEW","base":3500}],"obsTime":1777820400},"SBBQ":{"icaoId":"SBBQ","flightCategory":"MVFR","rawOb":"METAR SBBQ 031500Z 15006KT 9999 BKN023 OVC075 21/16 Q1025","temp":21,"dewp":16,"wdir":150,"wspd":6,"visib":"6+","altim":1025,"clouds":[{"cover":"BKN","base":2300},{"cover":"OVC","base":7500}],"obsTime":1777820400},"SBBU":{"icaoId":"SBBU","flightCategory":"VFR","rawOb":"METAR SBBU 031500Z 11014KT 9999 FEW030 27/19 Q1020","temp":27,"dewp":19,"wdir":110,"wspd":14,"visib":"6+","altim":1020,"clouds":[{"cover":"FEW","base":3000}],"obsTime":1777820400},"SBCC":{"icaoId":"SBCC","flightCategory":"VFR","rawOb":"METAR SBCC 031500Z /////KT 9999 SCT030 ///// Q1015","temp":null,"dewp":null,"wdir":null,"wspd":null,"visib":"6+","altim":1015,"clouds":[{"cover":"SCT","base":3000}],"obsTime":1777820400},"SBCO":{"icaoId":"SBCO","flightCategory":"VFR","rawOb":"METAR SBCO 031500Z 20003KT CAVOK 16/08 Q1024","temp":16,"dewp":8,"wdir":200,"wspd":3,"visib":"6+","altim":1024,"clouds":[],"obsTime":1777820400},"SBDN":{"icaoId":"SBDN","flightCategory":"VFR","rawOb":"METAR SBDN 031500Z 09009KT CAVOK 28/15 Q1019","temp":28,"dewp":15,"wdir":90,"wspd":9,"visib":"6+","altim":1019,"clouds":[],"obsTime":1777820400},"SBES":{"icaoId":"SBES","flightCategory":"MVFR","rawOb":"METAR SBES 031500Z 20013KT 8000 SCT015 OVC040 24/// Q1019","temp":null,"dewp":null,"wdir":200,"wspd":13,"visib":4.97,"altim":1019,"clouds":[{"cover":"SCT","base":1500},{"cover":"OVC","base":4000}],"obsTime":1777820400},"SBGM":{"icaoId":"SBGM","flightCategory":"VFR","rawOb":"METAR SBGM 031500Z 11007KT 9999 SCT015 31/24 Q1014","temp":31,"dewp":24,"wdir":110,"wspd":7,"visib":"6+","altim":1014,"clouds":[{"cover":"SCT","base":1500}],"obsTime":1777820400},"SBIP":{"icaoId":"SBIP","flightCategory":"VFR","rawOb":"METAR SBIP 031500Z AUTO 22003KT 160V290 CAVOK 29/20 Q1017","temp":29,"dewp":20,"wdir":220,"wspd":3,"visib":"6+","altim":1017,"clouds":[],"obsTime":1777820400},"SBKG":{"icaoId":"SBKG","flightCategory":"MVFR","rawOb":"METAR SBKG 031500Z 14006KT 9999 BKN023 26/21 Q1016","temp":26,"dewp":21,"wdir":140,"wspd":6,"visib":"6+","altim":1016,"clouds":[{"cover":"BKN","base":2300}],"obsTime":1777820400},"SBVH":{"icaoId":"SBVH","flightCategory":"VFR","rawOb":"METAR SBVH 031500Z 10014KT CAVOK 28/20 Q1017","temp":28,"dewp":20,"wdir":100,"wspd":14,"visib":"6+","altim":1017,"clouds":[],"obsTime":1777820400},"SBJP":{"icaoId":"SBJP","flightCategory":"VFR","rawOb":"METAR SBJP 031500Z 11010KT 9999 SCT016 OVC070 29/23 Q1013","temp":29,"dewp":23,"wdir":110,"wspd":10,"visib":"6+","altim":1013,"clouds":[{"cover":"SCT","base":1600},{"cover":"OVC","base":7000}],"obsTime":1777820400},"SBST":{"icaoId":"SBST","flightCategory":"MVFR","rawOb":"METAR SBST 031500Z /////KT 5000 BR SCT020 OVC050 ///// Q1022","temp":null,"dewp":null,"wdir":null,"wspd":null,"visib":3.11,"altim":1022,"clouds":[{"cover":"SCT","base":2000},{"cover":"OVC","base":5000}],"obsTime":1777820400},"SBAN":{"icaoId":"SBAN","flightCategory":"VFR","rawOb":"METAR SBAN 031500Z 14011KT 080V170 9999 FEW040 27/13 Q1021","temp":27,"dewp":13,"wdir":140,"wspd":11,"visib":"6+","altim":1021,"clouds":[{"cover":"FEW","base":4000}],"obsTime":1777820400},"SBLE":{"icaoId":"SBLE","flightCategory":"MVFR","rawOb":"METAR SBLE 031500Z AUTO 15006KT 100V220 9999 BKN025 26/22 Q1018","temp":26,"dewp":22,"wdir":150,"wspd":6,"visib":"6+","altim":1018,"clouds":[{"cover":"BKN","base":2500}],"obsTime":1777820400},"SBTC":{"icaoId":"SBTC","flightCategory":"VFR","rawOb":"METAR SBTC 031500Z 13005KT 9999 SCT025 29/24 Q1015","temp":29,"dewp":24,"wdir":130,"wspd":5,"visib":"6+","altim":1015,"clouds":[{"cover":"SCT","base":2500}],"obsTime":1777820400},"SBIH":{"icaoId":"SBIH","flightCategory":"VFR","rawOb":"METAR SBIH 031500Z 21002KT 9999 SCT018 31/26 Q1012","temp":31,"dewp":26,"wdir":210,"wspd":2,"visib":"6+","altim":1012,"clouds":[{"cover":"SCT","base":1800}],"obsTime":1777820400},"SBJV":{"icaoId":"SBJV","flightCategory":"VFR","rawOb":"METAR SBJV 031500Z 13005KT 9999 OVC035 19/12 Q1024","temp":19,"dewp":12,"wdir":130,"wspd":5,"visib":"6+","altim":1024,"clouds":[{"cover":"OVC","base":3500}],"obsTime":1777820400},"SBNM":{"icaoId":"SBNM","flightCategory":"VFR","rawOb":"METAR SBNM 031500Z 11006KT CAVOK 18/08 Q1022","temp":18,"dewp":8,"wdir":110,"wspd":6,"visib":"6+","altim":1022,"clouds":[],"obsTime":1777820400},"SBAF":{"icaoId":"SBAF","flightCategory":"MVFR","rawOb":"METAR SBAF 031500Z 23005KT 5000 BR FEW019 SCT029 BKN035 24/23 Q1020","temp":24,"dewp":23,"wdir":230,"wspd":5,"visib":3.11,"altim":1020,"clouds":[{"cover":"FEW","base":1900},{"cover":"SCT","base":2900},{"cover":"BKN","base":3500}],"obsTime":1777820400},"SBGW":{"icaoId":"SBGW","flightCategory":"VFR","rawOb":"METAR SBGW 031500Z 29005KT 9999 FEW020 BKN040 24/15 Q1022","temp":24,"dewp":15,"wdir":290,"wspd":5,"visib":"6+","altim":1022,"clouds":[{"cover":"FEW","base":2000},{"cover":"BKN","base":4000}],"obsTime":1777820400},"SBJR":{"icaoId":"SBJR","flightCategory":"MVFR","rawOb":"METAR SBJR 031500Z 20006KT 8000 BKN013 BKN025 OVC050 25/19 Q1020","temp":25,"dewp":19,"wdir":200,"wspd":6,"visib":4.97,"altim":1020,"clouds":[{"cover":"BKN","base":1300},{"cover":"BKN","base":2500},{"cover":"OVC","base":5000}],"obsTime":1777820400},"SBLS":{"icaoId":"SBLS","flightCategory":"VFR","rawOb":"METAR SBLS 031500Z 19004KT 090V260 9999 SCT030 28/14 Q1020","temp":28,"dewp":14,"wdir":190,"wspd":4,"visib":"6+","altim":1020,"clouds":[{"cover":"SCT","base":3000}],"obsTime":1777820400},"SBMT":{"icaoId":"SBMT","flightCategory":"MVFR","rawOb":"METAR SBMT 031500Z 15009KT 110V190 9999 SCT013 OVC015 17/15 Q1024","temp":17,"dewp":15,"wdir":150,"wspd":9,"visib":"6+","altim":1024,"clouds":[{"cover":"SCT","base":1300},{"cover":"OVC","base":1500}],"obsTime":1777820400},"SBTA":{"icaoId":"SBTA","flightCategory":"VFR","rawOb":"METAR SBTA 031500Z 20006KT 9999 SCT020 BKN040 22/16 Q1022","temp":22,"dewp":16,"wdir":200,"wspd":6,"visib":"6+","altim":1022,"clouds":[{"cover":"SCT","base":2000},{"cover":"BKN","base":4000}],"obsTime":1777820400}}}