{"updated":1775298511,"count":70,"data":{"SBBR":{"icaoId":"SBBR","flightCategory":"VFR","rawOb":"METAR SBBR 040900Z 09003KT 050V120 9999 SCT007 20/19 Q1019","temp":20,"dewp":19,"wdir":90,"wspd":3,"visib":"6+","altim":1019,"clouds":[{"cover":"SCT","base":700}],"obsTime":1775293200},"SBBE":{"icaoId":"SBBE","flightCategory":"VFR","rawOb":"METAR SBBE 040900Z 09003KT CAVOK 25/25 Q1011","temp":25,"dewp":25,"wdir":90,"wspd":3,"visib":"6+","altim":1011,"clouds":[],"obsTime":1775293200},"SBBV":{"icaoId":"SBBV","flightCategory":"MVFR","rawOb":"METAR SBBV 040900Z 07009KT 9999 BKN030 FEW040TCU SCT080 25/23 Q1010","temp":25,"dewp":23,"wdir":70,"wspd":9,"visib":"6+","altim":1010,"clouds":[{"cover":"BKN","base":3000},{"cover":"FEW","base":4000},{"cover":"SCT","base":8000}],"obsTime":1775293200},"SBCB":{"icaoId":"SBCB","flightCategory":"VFR","rawOb":"METAR SBCB 040900Z 06007KT 9999 FEW015 SCT060 25/23 Q1013","temp":25,"dewp":23,"wdir":60,"wspd":7,"visib":"6+","altim":1013,"clouds":[{"cover":"FEW","base":1500},{"cover":"SCT","base":6000}],"obsTime":1775293200},"SBCF":{"icaoId":"SBCF","flightCategory":"VFR","rawOb":"METAR SBCF 040900Z 13003KT 9999 FEW030 SCT100 21/19 Q1019","temp":21,"dewp":19,"wdir":130,"wspd":3,"visib":"6+","altim":1019,"clouds":[{"cover":"FEW","base":3000},{"cover":"SCT","base":10000}],"obsTime":1775293200},"SBCG":{"icaoId":"SBCG","flightCategory":"VFR","rawOb":"METAR SBCG 040900Z 07004KT CAVOK 21/20 Q1015","temp":21,"dewp":20,"wdir":70,"wspd":4,"visib":"6+","altim":1015,"clouds":[],"obsTime":1775293200},"SBCP":{"icaoId":"SBCP","flightCategory":"VFR","rawOb":"METAR SBCP 041000Z 02003KT CAVOK 24/24 Q1014","temp":24,"dewp":24,"wdir":20,"wspd":3,"visib":"6+","altim":1014,"clouds":[],"obsTime":1775296800},"SBCT":{"icaoId":"SBCT","flightCategory":"VFR","rawOb":"METAR SBCT 040900Z 32003KT CAVOK 18/17 Q1018","temp":18,"dewp":17,"wdir":320,"wspd":3,"visib":"6+","altim":1018,"clouds":[],"obsTime":1775293200},"SBEG":{"icaoId":"SBEG","flightCategory":"LIFR","rawOb":"SPECI SBEG 040847Z 23008KT 1500 R29/2000 R11/2000 TSRA SCT007 SCT020 FEW025CB 23/23 Q1011","temp":23,"dewp":23,"wdir":230,"wspd":8,"visib":0.93,"altim":1011,"clouds":[{"cover":"SCT","base":700},{"cover":"SCT","base":2000},{"cover":"FEW","base":2500}],"obsTime":1775292420},"SBFI":{"icaoId":"SBFI","flightCategory":"VFR","rawOb":"METAR SBFI 040900Z 08002KT CAVOK 22/22 Q1013","temp":22,"dewp":22,"wdir":80,"wspd":2,"visib":"6+","altim":1013,"clouds":[],"obsTime":1775293200},"SBFL":{"icaoId":"SBFL","flightCategory":"VFR","rawOb":"METAR SBFL 040900Z 00000KT CAVOK 21/20 Q1013","temp":21,"dewp":20,"wdir":0,"wspd":0,"visib":"6+","altim":1013,"clouds":[],"obsTime":1775293200},"SBFZ":{"icaoId":"SBFZ","flightCategory":"VFR","rawOb":"METAR SBFZ 040900Z 18006KT 9999 FEW020TCU SCT070 24/23 Q1012","temp":24,"dewp":23,"wdir":180,"wspd":6,"visib":"6+","altim":1012,"clouds":[{"cover":"FEW","base":2000},{"cover":"SCT","base":7000}],"obsTime":1775293200},"SBGL":{"icaoId":"SBGL","flightCategory":"VFR","rawOb":"METAR SBGL 040900Z 36003KT 9999 FEW023 SCT100 22/21 Q1013","temp":22,"dewp":21,"wdir":360,"wspd":3,"visib":"6+","altim":1013,"clouds":[{"cover":"FEW","base":2300},{"cover":"SCT","base":10000}],"obsTime":1775293200},"SBGO":{"icaoId":"SBGO","flightCategory":"VFR","rawOb":"METAR SBGO 040900Z 12003KT CAVOK 21/20 Q1018","temp":21,"dewp":20,"wdir":120,"wspd":3,"visib":"6+","altim":1018,"clouds":[],"obsTime":1775293200},"SBGR":{"icaoId":"SBGR","flightCategory":"IFR","rawOb":"METAR SBGR 040900Z 11003KT 070V160 9000 4000N BCFG SCT004 BKN006 19/18 Q1018","temp":19,"dewp":18,"wdir":110,"wspd":3,"visib":5.59,"altim":1018,"clouds":[{"cover":"SCT","base":400},{"cover":"BKN","base":600}],"obsTime":1775293200},"SBHT":{"icaoId":"SBHT","flightCategory":"VFR","rawOb":"METAR SBHT 041000Z 00000KT 9999 SCT015 24/23 Q1011","temp":24,"dewp":23,"wdir":0,"wspd":0,"visib":"6+","altim":1011,"clouds":[{"cover":"SCT","base":1500}],"obsTime":1775296800},"SBIL":{"icaoId":"SBIL","flightCategory":"VFR","rawOb":"METAR SBIL 041000Z 26004KT 9999 SCT020 25/24 Q1015","temp":25,"dewp":24,"wdir":260,"wspd":4,"visib":"6+","altim":1015,"clouds":[{"cover":"SCT","base":2000}],"obsTime":1775296800},"SBJU":{"icaoId":"SBJU","flightCategory":"MVFR","rawOb":"METAR SBJU 040900Z 00000KT 9999 BKN018 23/22 Q1015","temp":23,"dewp":22,"wdir":0,"wspd":0,"visib":"6+","altim":1015,"clouds":[{"cover":"BKN","base":1800}],"obsTime":1775293200},"SBKP":{"icaoId":"SBKP","flightCategory":"VFR","rawOb":"METAR SBKP 040900Z VRB01KT CAVOK 20/19 Q1018","temp":20,"dewp":19,"wdir":"VRB","wspd":1,"visib":"6+","altim":1018,"clouds":[],"obsTime":1775293200},"SBLO":{"icaoId":"SBLO","flightCategory":"VFR","rawOb":"METAR SBLO 040900Z 00000KT CAVOK 20/20 Q1016","temp":20,"dewp":20,"wdir":0,"wspd":0,"visib":"6+","altim":1016,"clouds":[],"obsTime":1775293200},"SBMA":{"icaoId":"SBMA","flightCategory":"VFR","rawOb":"METAR SBMA 040900Z 00000KT 9999 FEW018 SCT100 24/24 Q1011","temp":24,"dewp":24,"wdir":0,"wspd":0,"visib":"6+","altim":1011,"clouds":[{"cover":"FEW","base":1800},{"cover":"SCT","base":10000}],"obsTime":1775293200},"SBME":{"icaoId":"SBME","flightCategory":"VFR","rawOb":"METAR SBME 040900Z 04006KT CAVOK 25/23 Q1013","temp":25,"dewp":23,"wdir":40,"wspd":6,"visib":"6+","altim":1013,"clouds":[],"obsTime":1775293200},"SBMG":{"icaoId":"SBMG","flightCategory":"VFR","rawOb":"METAR SBMG 040900Z AUTO VRB02KT CAVOK 22/19 Q1015","temp":22,"dewp":19,"wdir":"VRB","wspd":2,"visib":"6+","altim":1015,"clouds":[],"obsTime":1775293200},"SBMK":{"icaoId":"SBMK","flightCategory":"VFR","rawOb":"METAR SBMK 040900Z 00000KT CAVOK 19/18 Q1018","temp":19,"dewp":18,"wdir":0,"wspd":0,"visib":"6+","altim":1018,"clouds":[],"obsTime":1775293200},"SBMO":{"icaoId":"SBMO","flightCategory":"VFR","rawOb":"METAR SBMO 040900Z 23004KT 9999 SCT020 24/24 Q1014","temp":24,"dewp":24,"wdir":230,"wspd":4,"visib":"6+","altim":1014,"clouds":[{"cover":"SCT","base":2000}],"obsTime":1775293200},"SBMQ":{"icaoId":"SBMQ","flightCategory":"VFR","rawOb":"METAR SBMQ 040900Z 36004KT 9999 FEW008 SCT019 BKN051 26/25 Q1011","temp":26,"dewp":25,"wdir":360,"wspd":4,"visib":"6+","altim":1011,"clouds":[{"cover":"FEW","base":800},{"cover":"SCT","base":1900},{"cover":"BKN","base":5100}],"obsTime":1775293200},"SBNT":{"icaoId":"SBNT","flightCategory":"VFR","rawOb":"METAR SBNT 040900Z 16005KT 9000 SCT023 FEW030TCU SCT050 BKN070 25/24 Q1012","temp":25,"dewp":24,"wdir":160,"wspd":5,"visib":5.59,"altim":1012,"clouds":[{"cover":"SCT","base":2300},{"cover":"FEW","base":3000},{"cover":"SCT","base":5000},{"cover":"BKN","base":7000}],"obsTime":1775293200},"SBPA":{"icaoId":"SBPA","flightCategory":"VFR","rawOb":"METAR SBPA 040900Z 07002KT CAVOK 21/21 Q1012","temp":21,"dewp":21,"wdir":70,"wspd":2,"visib":"6+","altim":1012,"clouds":[],"obsTime":1775293200},"SBPJ":{"icaoId":"SBPJ","flightCategory":"VFR","rawOb":"METAR SBPJ 040900Z 15003KT 9999 FEW020 SCT080 24/23 Q1013","temp":24,"dewp":23,"wdir":150,"wspd":3,"visib":"6+","altim":1013,"clouds":[{"cover":"FEW","base":2000},{"cover":"SCT","base":8000}],"obsTime":1775293200},"SBPV":{"icaoId":"SBPV","flightCategory":"LIFR","rawOb":"METAR SBPV 040900Z 25003KT 0700 RA BKN006 BKN030 FEW035TCU 24/23 Q1010","temp":24,"dewp":23,"wdir":250,"wspd":3,"visib":0.43,"altim":1010,"clouds":[{"cover":"BKN","base":600},{"cover":"BKN","base":3000},{"cover":"FEW","base":3500}],"obsTime":1775293200},"SBRB":{"icaoId":"SBRB","flightCategory":"LIFR","rawOb":"METAR SBRB 040900Z COR 22002KT 2000 BR BKN002 BKN005 23/23 Q1011","temp":23,"dewp":23,"wdir":220,"wspd":2,"visib":1.24,"altim":1011,"clouds":[{"cover":"BKN","base":200},{"cover":"BKN","base":500}],"obsTime":1775293200},"SBRF":{"icaoId":"SBRF","flightCategory":"MVFR","rawOb":"METAR SBRF 040900Z VRB02KT 9999 BKN023 25/24 Q1013","temp":25,"dewp":24,"wdir":"VRB","wspd":2,"visib":"6+","altim":1013,"clouds":[{"cover":"BKN","base":2300}],"obsTime":1775293200},"SBSG":{"icaoId":"SBSG","flightCategory":"VFR","rawOb":"METAR SBSG 040900Z 20003KT 9999 SCT020 FEW030TCU 24/23 Q1012","temp":24,"dewp":23,"wdir":200,"wspd":3,"visib":"6+","altim":1012,"clouds":[{"cover":"SCT","base":2000},{"cover":"FEW","base":3000}],"obsTime":1775293200},"SBSL":{"icaoId":"SBSL","flightCategory":"VFR","rawOb":"METAR SBSL 040900Z 11005KT CAVOK 25/24 Q1010","temp":25,"dewp":24,"wdir":110,"wspd":5,"visib":"6+","altim":1010,"clouds":[],"obsTime":1775293200},"SBSN":{"icaoId":"SBSN","flightCategory":"VFR","rawOb":"METAR SBSN 040900Z 16002KT CAVOK 24/24 Q1010","temp":24,"dewp":24,"wdir":160,"wspd":2,"visib":"6+","altim":1010,"clouds":[],"obsTime":1775293200},"SBSP":{"icaoId":"SBSP","flightCategory":"VFR","rawOb":"METAR SBSP 040900Z 05003KT 020V080 CAVOK 20/19 Q1019","temp":20,"dewp":19,"wdir":50,"wspd":3,"visib":"6+","altim":1019,"clouds":[],"obsTime":1775293200},"SBSV":{"icaoId":"SBSV","flightCategory":"VFR","rawOb":"METAR SBSV 040900Z 11005KT 080V160 9999 SCT020 27/22 Q1014","temp":27,"dewp":22,"wdir":110,"wspd":5,"visib":"6+","altim":1014,"clouds":[{"cover":"SCT","base":2000}],"obsTime":1775293200},"SBTE":{"icaoId":"SBTE","flightCategory":"VFR","rawOb":"METAR SBTE 040900Z 36002KT 9999 FEW007 24/24 Q1011","temp":24,"dewp":24,"wdir":360,"wspd":2,"visib":"6+","altim":1011,"clouds":[{"cover":"FEW","base":700}],"obsTime":1775293200},"SBUL":{"icaoId":"SBUL","flightCategory":"VFR","rawOb":"METAR SBUL 040900Z 13004KT CAVOK 19/18 Q1019","temp":19,"dewp":18,"wdir":130,"wspd":4,"visib":"6+","altim":1019,"clouds":[],"obsTime":1775293200},"SBUR":{"icaoId":"SBUR","flightCategory":"VFR","rawOb":"METAR SBUR 040900Z 06004KT CAVOK 21/18 Q1018","temp":21,"dewp":18,"wdir":60,"wspd":4,"visib":"6+","altim":1018,"clouds":[],"obsTime":1775293200},"SBVT":{"icaoId":"SBVT","flightCategory":"VFR","rawOb":"METAR SBVT 040900Z 35003KT CAVOK 23/23 Q1015","temp":23,"dewp":23,"wdir":350,"wspd":3,"visib":"6+","altim":1015,"clouds":[],"obsTime":1775293200},"SBAR":{"icaoId":"SBAR","flightCategory":"MVFR","rawOb":"METAR SBAR 040900Z 08006KT 9999 VCSH BKN021 FEW024TCU 27/23 Q1013","temp":27,"dewp":23,"wdir":80,"wspd":6,"visib":"6+","altim":1013,"clouds":[{"cover":"BKN","base":2100},{"cover":"FEW","base":2400}],"obsTime":1775293200},"SBPB":{"icaoId":"SBPB","flightCategory":"VFR","rawOb":"SPECI SBPB 041015Z 10005KT 9999 FEW020 26/10 Q1011","temp":26,"dewp":10,"wdir":100,"wspd":5,"visib":"6+","altim":1011,"clouds":[{"cover":"FEW","base":2000}],"obsTime":1775297700},"SBCJ":{"icaoId":"SBCJ","flightCategory":"VFR","rawOb":"SPECI SBCJ 041015Z 16002KT 9999 FEW013 24/21 Q1016","temp":24,"dewp":21,"wdir":160,"wspd":2,"visib":"6+","altim":1016,"clouds":[{"cover":"FEW","base":1300}],"obsTime":1775297700},"SBOI":{"icaoId":"SBOI","flightCategory":"IFR","rawOb":"METAR SBOI 041000Z AUTO 00000KT 1900 // VV001 24/24 Q1011","temp":24,"dewp":24,"wdir":0,"wspd":0,"visib":1.18,"altim":1011,"clouds":[{"cover":"OVX","base":100}],"obsTime":1775296800},"SBBU":{"icaoId":"SBBU","flightCategory":"VFR","rawOb":"METAR SBBU 040900Z 03004KT CAVOK 23/22 Q1017","temp":23,"dewp":22,"wdir":30,"wspd":4,"visib":"6+","altim":1017,"clouds":[],"obsTime":1775293200},"SBSR":{"icaoId":"SBSR","flightCategory":"VFR","rawOb":"METAR SBSR 040900Z 05003KT CAVOK 23/19 Q1016","temp":23,"dewp":19,"wdir":50,"wspd":3,"visib":"6+","altim":1016,"clouds":[],"obsTime":1775293200},"SBAX":{"icaoId":"SBAX","flightCategory":"VFR","rawOb":"METAR SBAX 040900Z AUTO VRB02KT CAVOK 19/19 Q1020","temp":19,"dewp":19,"wdir":"VRB","wspd":2,"visib":"6+","altim":1020,"clouds":[],"obsTime":1775293200},"SBBH":{"icaoId":"SBBH","flightCategory":"VFR","rawOb":"METAR SBBH 040900Z 09004KT CAVOK 22/18 Q1019","temp":22,"dewp":18,"wdir":90,"wspd":4,"visib":"6+","altim":1019,"clouds":[],"obsTime":1775293200},"SBCO":{"icaoId":"SBCO","flightCategory":"IFR","rawOb":"METAR SBCO 040900Z 06001KT 4000 BR FEW002 19/19 Q1013","temp":19,"dewp":19,"wdir":60,"wspd":1,"visib":2.49,"altim":1013,"clouds":[{"cover":"FEW","base":200}],"obsTime":1775293200},"SBDN":{"icaoId":"SBDN","flightCategory":"VFR","rawOb":"METAR SBDN 040900Z 11002KT CAVOK 22/19 Q1015","temp":22,"dewp":19,"wdir":110,"wspd":2,"visib":"6+","altim":1015,"clouds":[],"obsTime":1775293200},"SBES":{"icaoId":"SBES","flightCategory":"VFR","rawOb":"METAR SBES 040900Z 05006KT 360V080 9999 FEW005 BKN080 22/// Q1013","temp":null,"dewp":null,"wdir":50,"wspd":6,"visib":"6+","altim":1013,"clouds":[{"cover":"FEW","base":500},{"cover":"BKN","base":8000}],"obsTime":1775293200},"SBIP":{"icaoId":"SBIP","flightCategory":"VFR","rawOb":"METAR SBIP 040900Z AUTO 32001KT 9999 FEW022 OVC032 22/22 Q1017","temp":22,"dewp":22,"wdir":320,"wspd":1,"visib":"6+","altim":1017,"clouds":[{"cover":"FEW","base":2200},{"cover":"OVC","base":3200}],"obsTime":1775293200},"SBKG":{"icaoId":"SBKG","flightCategory":"VFR","rawOb":"METAR SBKG 040900Z 13003KT CAVOK 22/21 Q1015","temp":22,"dewp":21,"wdir":130,"wspd":3,"visib":"6+","altim":1015,"clouds":[],"obsTime":1775293200},"SBPL":{"icaoId":"SBPL","flightCategory":"MVFR","rawOb":"METAR SBPL 040900Z 12007KT 9999 BKN020 25/22 Q1015","temp":25,"dewp":22,"wdir":120,"wspd":7,"visib":"6+","altim":1015,"clouds":[{"cover":"BKN","base":2000}],"obsTime":1775293200},"SBPS":{"icaoId":"SBPS","flightCategory":"MVFR","rawOb":"METAR SBPS 040900Z 29003KT 8000 VCSH SCT015 BKN100 23/23 Q1015","temp":23,"dewp":23,"wdir":290,"wspd":3,"visib":4.97,"altim":1015,"clouds":[{"cover":"SCT","base":1500},{"cover":"BKN","base":10000}],"obsTime":1775293200},"SBSC":{"icaoId":"SBSC","flightCategory":"MVFR","rawOb":"METAR SBSC 040900Z 36009KT 5000 BR SCT005 BKN015 OVC050 23/21 Q1013","temp":23,"dewp":21,"wdir":360,"wspd":9,"visib":3.11,"altim":1013,"clouds":[{"cover":"SCT","base":500},{"cover":"BKN","base":1500},{"cover":"OVC","base":5000}],"obsTime":1775293200},"SBSJ":{"icaoId":"SBSJ","flightCategory":"IFR","rawOb":"SPECI SBSJ 040830Z 36002KT 5000 BR OVC005 19/19 Q1018","temp":19,"dewp":19,"wdir":360,"wspd":2,"visib":3.11,"altim":1018,"clouds":[{"cover":"OVC","base":500}],"obsTime":1775291400},"SBSM":{"icaoId":"SBSM","flightCategory":"LIFR","rawOb":"METAR SBSM 040900Z 14002KT 0200 R29///// R11/0900 FG VV001 20/20 Q1013","temp":20,"dewp":20,"wdir":140,"wspd":2,"visib":0.12,"altim":1013,"clouds":[{"cover":"OVX","base":100}],"obsTime":1775293200},"SBLE":{"icaoId":"SBLE","flightCategory":"MVFR","rawOb":"METAR SBLE 040900Z AUTO 16004KT 130V190 9999 SCT003 BKN014 ///// Q////","temp":null,"dewp":null,"wdir":160,"wspd":4,"visib":"6+","altim":null,"clouds":[{"cover":"SCT","base":300},{"cover":"BKN","base":1400}],"obsTime":1775293200},"SBJP":{"icaoId":"SBJP","flightCategory":"VFR","rawOb":"METAR SBJP 040900Z 18002KT 9999 SCT022 BKN070 25/24 Q1013","temp":25,"dewp":24,"wdir":180,"wspd":2,"visib":"6+","altim":1013,"clouds":[{"cover":"SCT","base":2200},{"cover":"BKN","base":7000}],"obsTime":1775293200},"SBJV":{"icaoId":"SBJV","flightCategory":"VFR","rawOb":"METAR SBJV 040900Z 31001KT CAVOK 21/21 Q1013","temp":21,"dewp":21,"wdir":310,"wspd":1,"visib":"6+","altim":1013,"clouds":[],"obsTime":1775293200},"SBPF":{"icaoId":"SBPF","flightCategory":"VFR","rawOb":"METAR SBPF 040900Z 06010KT CAVOK 19/17 Q1016","temp":19,"dewp":17,"wdir":60,"wspd":10,"visib":"6+","altim":1016,"clouds":[],"obsTime":1775293200},"SBAF":{"icaoId":"SBAF","flightCategory":"VFR","rawOb":"METAR SBAF 041000Z 10003KT CAVOK 23/23 Q1014","temp":23,"dewp":23,"wdir":100,"wspd":3,"visib":"6+","altim":1014,"clouds":[],"obsTime":1775296800},"SBGW":{"icaoId":"SBGW","flightCategory":"MVFR","rawOb":"METAR SBGW 040900Z 17002KT 8000 FEW008 18/15 Q1017","temp":18,"dewp":15,"wdir":170,"wspd":2,"visib":4.97,"altim":1017,"clouds":[{"cover":"FEW","base":800}],"obsTime":1775293200},"SBJR":{"icaoId":"SBJR","flightCategory":"VFR","rawOb":"METAR SBJR 041000Z 33001KT 9999 FEW020 SCT100 25/22 Q1013","temp":25,"dewp":22,"wdir":330,"wspd":1,"visib":"6+","altim":1013,"clouds":[{"cover":"FEW","base":2000},{"cover":"SCT","base":10000}],"obsTime":1775296800},"SBLS":{"icaoId":"SBLS","flightCategory":"VFR","rawOb":"METAR SBLS 040900Z 15004KT 9999 FEW015 SCT100 20/19 Q1019","temp":20,"dewp":19,"wdir":150,"wspd":4,"visib":"6+","altim":1019,"clouds":[{"cover":"FEW","base":1500},{"cover":"SCT","base":10000}],"obsTime":1775293200},"SBMT":{"icaoId":"SBMT","flightCategory":"VFR","rawOb":"METAR SBMT 040900Z 15002KT CAVOK 19/18 Q1018","temp":19,"dewp":18,"wdir":150,"wspd":2,"visib":"6+","altim":1018,"clouds":[],"obsTime":1775293200},"SBTA":{"icaoId":"SBTA","flightCategory":"IFR","rawOb":"METAR SBTA 040900Z 16002KT 3000 BR BKN005 SCT015 19/19 Q1017","temp":19,"dewp":19,"wdir":160,"wspd":2,"visib":1.86,"altim":1017,"clouds":[{"cover":"BKN","base":500},{"cover":"SCT","base":1500}],"obsTime":1775293200},"SBAN":{"icaoId":"SBAN","flightCategory":"VFR","rawOb":"METAR SBAN 040900Z 11008KT 9000 FEW001 SCT004 19/18 Q1020","temp":19,"dewp":18,"wdir":110,"wspd":8,"visib":5.59,"altim":1020,"clouds":[{"cover":"FEW","base":100},{"cover":"SCT","base":400}],"obsTime":1775293200}}}