{"updated":1774550795,"count":86,"data":{"SBSP":{"icaoId":"SBSP","flightCategory":"VFR","rawOb":"METAR SBSP 261700Z VRB03KT 9999 SCT040 FEW050TCU SCT070 29/18 Q1019","temp":29,"dewp":18,"wdir":"VRB","wspd":3,"visib":"6+","altim":1019,"clouds":[{"cover":"SCT","base":4000},{"cover":"FEW","base":5000},{"cover":"SCT","base":7000}],"obsTime":1774544400},"SBMG":{"icaoId":"SBMG","flightCategory":"VFR","rawOb":"METAR SBMG 261700Z 04008KT 010V080 9999 SCT040 FEW040TCU 30/19 Q1015","temp":30,"dewp":19,"wdir":40,"wspd":8,"visib":"6+","altim":1015,"clouds":[{"cover":"SCT","base":4000},{"cover":"FEW","base":4000}],"obsTime":1774544400},"SBCG":{"icaoId":"SBCG","flightCategory":"VFR","rawOb":"METAR SBCG 261700Z 24003KT 190V280 9999 SCT025 BKN040 28/21 Q1014","temp":28,"dewp":21,"wdir":240,"wspd":3,"visib":"6+","altim":1014,"clouds":[{"cover":"SCT","base":2500},{"cover":"BKN","base":4000}],"obsTime":1774544400},"SBMK":{"icaoId":"SBMK","flightCategory":"VFR","rawOb":"METAR SBMK 261700Z 08006KT 9999 BKN035 29/18 Q1017","temp":29,"dewp":18,"wdir":80,"wspd":6,"visib":"6+","altim":1017,"clouds":[{"cover":"BKN","base":3500}],"obsTime":1774544400},"SBFL":{"icaoId":"SBFL","flightCategory":"VFR","rawOb":"METAR SBFL 261700Z 34007KT 300V030 9999 FEW030 32/23 Q1014","temp":32,"dewp":23,"wdir":340,"wspd":7,"visib":"6+","altim":1014,"clouds":[{"cover":"FEW","base":3000}],"obsTime":1774544400},"SBMO":{"icaoId":"SBMO","flightCategory":"MVFR","rawOb":"METAR SBMO 261700Z 15006KT 5000 -RA BR BKN015 26/24 Q1011","temp":26,"dewp":24,"wdir":150,"wspd":6,"visib":3.11,"altim":1011,"clouds":[{"cover":"BKN","base":1500}],"obsTime":1774544400},"SBFZ":{"icaoId":"SBFZ","flightCategory":"VFR","rawOb":"METAR SBFZ 261700Z 10014KT CAVOK 31/24 Q1008","temp":31,"dewp":24,"wdir":100,"wspd":14,"visib":"6+","altim":1008,"clouds":[],"obsTime":1774544400},"SBMQ":{"icaoId":"SBMQ","flightCategory":"VFR","rawOb":"METAR SBMQ 261700Z 05008KT 9999 SCT030 FEW035TCU 32/24 Q1009","temp":32,"dewp":24,"wdir":50,"wspd":8,"visib":"6+","altim":1009,"clouds":[{"cover":"SCT","base":3000},{"cover":"FEW","base":3500}],"obsTime":1774544400},"SBNT":{"icaoId":"SBNT","flightCategory":"VFR","rawOb":"METAR SBNT 261700Z 09010KT 9999 SCT040 32/22 Q1009","temp":32,"dewp":22,"wdir":90,"wspd":10,"visib":"6+","altim":1009,"clouds":[{"cover":"SCT","base":4000}],"obsTime":1774544400},"SBCP":{"icaoId":"SBCP","flightCategory":"VFR","rawOb":"METAR SBCP 261700Z 09012KT 9999 FEW020 31/23 Q1016","temp":31,"dewp":23,"wdir":90,"wspd":12,"visib":"6+","altim":1016,"clouds":[{"cover":"FEW","base":2000}],"obsTime":1774544400},"SBGL":{"icaoId":"SBGL","flightCategory":"VFR","rawOb":"METAR SBGL 261700Z 12010KT 9999 FEW030 31/23 Q1014","temp":31,"dewp":23,"wdir":120,"wspd":10,"visib":"6+","altim":1014,"clouds":[{"cover":"FEW","base":3000}],"obsTime":1774544400},"SBPA":{"icaoId":"SBPA","flightCategory":"MVFR","rawOb":"METAR SBPA 261700Z 28005KT 9999 FEW008 OVC012 25/23 Q1015","temp":25,"dewp":23,"wdir":280,"wspd":5,"visib":"6+","altim":1015,"clouds":[{"cover":"FEW","base":800},{"cover":"OVC","base":1200}],"obsTime":1774544400},"SBBV":{"icaoId":"SBBV","flightCategory":"VFR","rawOb":"METAR SBBV 261700Z 10009KT 9999 BKN035 FEW040TCU BKN070 34/21 Q1009","temp":34,"dewp":21,"wdir":100,"wspd":9,"visib":"6+","altim":1009,"clouds":[{"cover":"BKN","base":3500},{"cover":"FEW","base":4000},{"cover":"BKN","base":7000}],"obsTime":1774544400},"SBPJ":{"icaoId":"SBPJ","flightCategory":"VFR","rawOb":"METAR SBPJ 261700Z 26007KT 9999 VCSH SCT033 FEW035TCU 32/23 Q1011","temp":32,"dewp":23,"wdir":260,"wspd":7,"visib":"6+","altim":1011,"clouds":[{"cover":"SCT","base":3300},{"cover":"FEW","base":3500}],"obsTime":1774544400},"SBGO":{"icaoId":"SBGO","flightCategory":"VFR","rawOb":"METAR SBGO 261700Z 06006KT 9999 SCT040 FEW045TCU 27/18 Q1016","temp":27,"dewp":18,"wdir":60,"wspd":6,"visib":"6+","altim":1016,"clouds":[{"cover":"SCT","base":4000},{"cover":"FEW","base":4500}],"obsTime":1774544400},"SBPV":{"icaoId":"SBPV","flightCategory":"MVFR","rawOb":"METAR SBPV 261700Z 24002KT 9999 SCT020 BKN030 FEW040TCU 28/23 Q1010","temp":28,"dewp":23,"wdir":240,"wspd":2,"visib":"6+","altim":1010,"clouds":[{"cover":"SCT","base":2000},{"cover":"BKN","base":3000},{"cover":"FEW","base":4000}],"obsTime":1774544400},"SBRB":{"icaoId":"SBRB","flightCategory":"MVFR","rawOb":"METAR SBRB 261700Z 11002KT 9999 BKN017 BKN080 25/23 Q1013","temp":25,"dewp":23,"wdir":110,"wspd":2,"visib":"6+","altim":1013,"clouds":[{"cover":"BKN","base":1700},{"cover":"BKN","base":8000}],"obsTime":1774544400},"SBCR":{"icaoId":"SBCR","flightCategory":"VFR","rawOb":"METAR SBCR 261700Z VRB03KT 9999 SCT018 30/24 Q1011","temp":30,"dewp":24,"wdir":"VRB","wspd":3,"visib":"6+","altim":1011,"clouds":[{"cover":"SCT","base":1800}],"obsTime":1774544400},"SBRF":{"icaoId":"SBRF","flightCategory":"VFR","rawOb":"METAR SBRF 261700Z 15008KT 9999 FEW025 SCT060 28/22 Q1010","temp":28,"dewp":22,"wdir":150,"wspd":8,"visib":"6+","altim":1010,"clouds":[{"cover":"FEW","base":2500},{"cover":"SCT","base":6000}],"obsTime":1774544400},"SBBR":{"icaoId":"SBBR","flightCategory":"VFR","rawOb":"METAR SBBR 261700Z 04004KT 340V100 9999 SCT035 FEW040TCU SCT090 26/17 Q1018","temp":26,"dewp":17,"wdir":40,"wspd":4,"visib":"6+","altim":1018,"clouds":[{"cover":"SCT","base":3500},{"cover":"FEW","base":4000},{"cover":"SCT","base":9000}],"obsTime":1774544400},"SBSG":{"icaoId":"SBSG","flightCategory":"MVFR","rawOb":"METAR SBSG 261700Z 10013KT 9999 BKN030 32/22 Q1009","temp":32,"dewp":22,"wdir":100,"wspd":13,"visib":"6+","altim":1009,"clouds":[{"cover":"BKN","base":3000}],"obsTime":1774544400},"SBGR":{"icaoId":"SBGR","flightCategory":"VFR","rawOb":"METAR SBGR 261700Z 33004KT 9999 SCT047 FEW050TCU 29/19 Q1018","temp":29,"dewp":19,"wdir":330,"wspd":4,"visib":"6+","altim":1018,"clouds":[{"cover":"SCT","base":4700},{"cover":"FEW","base":5000}],"obsTime":1774544400},"SBSL":{"icaoId":"SBSL","flightCategory":"VFR","rawOb":"METAR SBSL 261700Z 02012KT 9999 SCT020 FEW025TCU 31/26 Q1008","temp":31,"dewp":26,"wdir":20,"wspd":12,"visib":"6+","altim":1008,"clouds":[{"cover":"SCT","base":2000},{"cover":"FEW","base":2500}],"obsTime":1774544400},"SBCB":{"icaoId":"SBCB","flightCategory":"VFR","rawOb":"METAR SBCB 261700Z 08017KT CAVOK 29/23 Q1016","temp":29,"dewp":23,"wdir":80,"wspd":17,"visib":"6+","altim":1016,"clouds":[],"obsTime":1774544400},"SBSN":{"icaoId":"SBSN","flightCategory":"VFR","rawOb":"METAR SBSN 261700Z 07010KT 020V080 9999 SCT023 31/25 Q1009","temp":31,"dewp":25,"wdir":70,"wspd":10,"visib":"6+","altim":1009,"clouds":[{"cover":"SCT","base":2300}],"obsTime":1774544400},"SBHT":{"icaoId":"SBHT","flightCategory":"MVFR","rawOb":"METAR SBHT 261700Z 15003KT 9999 BKN025 BKN100 32/24 Q1009","temp":32,"dewp":24,"wdir":150,"wspd":3,"visib":"6+","altim":1009,"clouds":[{"cover":"BKN","base":2500},{"cover":"BKN","base":10000}],"obsTime":1774544400},"SBEG":{"icaoId":"SBEG","flightCategory":"VFR","rawOb":"METAR SBEG 261700Z 10010KT 060V120 9999 SCT020 31/24 Q1009","temp":31,"dewp":24,"wdir":100,"wspd":10,"visib":"6+","altim":1009,"clouds":[{"cover":"SCT","base":2000}],"obsTime":1774544400},"SBME":{"icaoId":"SBME","flightCategory":"VFR","rawOb":"METAR SBME 261700Z 10010KT 9999 FEW025 30/23 Q1015","temp":30,"dewp":23,"wdir":100,"wspd":10,"visib":"6+","altim":1015,"clouds":[{"cover":"FEW","base":2500}],"obsTime":1774544400},"SBFI":{"icaoId":"SBFI","flightCategory":"VFR","rawOb":"METAR SBFI 261700Z 34006KT 9999 SCT030 FEW040TCU 33/22 Q1013","temp":33,"dewp":22,"wdir":340,"wspd":6,"visib":"6+","altim":1013,"clouds":[{"cover":"SCT","base":3000},{"cover":"FEW","base":4000}],"obsTime":1774544400},"SBAT":{"icaoId":"SBAT","flightCategory":"VFR","rawOb":"METAR SBAT 261700Z 33006KT 9999 -RA FEW030 FEW035TCU 24/21 Q1012","temp":24,"dewp":21,"wdir":330,"wspd":6,"visib":"6+","altim":1012,"clouds":[{"cover":"FEW","base":3000},{"cover":"FEW","base":3500}],"obsTime":1774544400},"SBCT":{"icaoId":"SBCT","flightCategory":"VFR","rawOb":"METAR SBCT 261700Z 33009KT 9999 SCT040 29/17 Q1019","temp":29,"dewp":17,"wdir":330,"wspd":9,"visib":"6+","altim":1019,"clouds":[{"cover":"SCT","base":4000}],"obsTime":1774544400},"SBIL":{"icaoId":"SBIL","flightCategory":"VFR","rawOb":"METAR SBIL 261700Z 19009KT 9999 FEW025 FEW027TCU 31/26 Q1013","temp":31,"dewp":26,"wdir":190,"wspd":9,"visib":"6+","altim":1013,"clouds":[{"cover":"FEW","base":2500},{"cover":"FEW","base":2700}],"obsTime":1774544400},"SBSV":{"icaoId":"SBSV","flightCategory":"VFR","rawOb":"METAR SBSV 261700Z 12011KT 9999 SCT023 31/22 Q1012","temp":31,"dewp":22,"wdir":120,"wspd":11,"visib":"6+","altim":1012,"clouds":[{"cover":"SCT","base":2300}],"obsTime":1774544400},"SBCZ":{"icaoId":"SBCZ","flightCategory":"MVFR","rawOb":"METAR SBCZ 261700Z 09009KT 9999 BKN020 OVC100 29/24 Q1010","temp":29,"dewp":24,"wdir":90,"wspd":9,"visib":"6+","altim":1010,"clouds":[{"cover":"BKN","base":2000},{"cover":"OVC","base":10000}],"obsTime":1774544400},"SBTE":{"icaoId":"SBTE","flightCategory":"VFR","rawOb":"METAR SBTE 261700Z 19002KT 9999 SCT020 30/24 Q1008","temp":30,"dewp":24,"wdir":190,"wspd":2,"visib":"6+","altim":1008,"clouds":[{"cover":"SCT","base":2000}],"obsTime":1774544400},"SBJU":{"icaoId":"SBJU","flightCategory":"VFR","rawOb":"METAR SBJU 261700Z 14009KT 9999 SCT022 31/21 Q1011","temp":31,"dewp":21,"wdir":140,"wspd":9,"visib":"6+","altim":1011,"clouds":[{"cover":"SCT","base":2200}],"obsTime":1774544400},"SBUL":{"icaoId":"SBUL","flightCategory":"MVFR","rawOb":"METAR SBUL 261700Z 07013KT 9999 3000N -RA SCT015 BKN025 FEW030TCU 23/20 Q1019","temp":23,"dewp":20,"wdir":70,"wspd":13,"visib":"6+","altim":1019,"clouds":[{"cover":"SCT","base":1500},{"cover":"BKN","base":2500},{"cover":"FEW","base":3000}],"obsTime":1774544400},"SBBE":{"icaoId":"SBBE","flightCategory":"VFR","rawOb":"METAR SBBE 261700Z 10005KT 9999 SCT038 33/23 Q1008","temp":33,"dewp":23,"wdir":100,"wspd":5,"visib":"6+","altim":1008,"clouds":[{"cover":"SCT","base":3800}],"obsTime":1774544400},"SBUR":{"icaoId":"SBUR","flightCategory":"VFR","rawOb":"METAR SBUR 261700Z 01006KT 9999 BKN035 27/19 Q1017","temp":27,"dewp":19,"wdir":10,"wspd":6,"visib":"6+","altim":1017,"clouds":[{"cover":"BKN","base":3500}],"obsTime":1774544400},"SBVT":{"icaoId":"SBVT","flightCategory":"VFR","rawOb":"METAR SBVT 261700Z 11006KT 9999 SCT025 31/24 Q1016","temp":31,"dewp":24,"wdir":110,"wspd":6,"visib":"6+","altim":1016,"clouds":[{"cover":"SCT","base":2500}],"obsTime":1774544400},"SBKP":{"icaoId":"SBKP","flightCategory":"VFR","rawOb":"METAR SBKP 261700Z 34006KT 9999 BKN040 29/20 Q1018","temp":29,"dewp":20,"wdir":340,"wspd":6,"visib":"6+","altim":1018,"clouds":[{"cover":"BKN","base":4000}],"obsTime":1774544400},"SBCF":{"icaoId":"SBCF","flightCategory":"VFR","rawOb":"METAR SBCF 261700Z 09006KT 060V130 9999 BKN040 27/17 Q1019","temp":27,"dewp":17,"wdir":90,"wspd":6,"visib":"6+","altim":1019,"clouds":[{"cover":"BKN","base":4000}],"obsTime":1774544400},"SBLO":{"icaoId":"SBLO","flightCategory":"VFR","rawOb":"METAR SBLO 261700Z 10009KT 9999 BKN042 30/20 Q1016","temp":30,"dewp":20,"wdir":100,"wspd":9,"visib":"6+","altim":1016,"clouds":[{"cover":"BKN","base":4200}],"obsTime":1774544400},"SBMA":{"icaoId":"SBMA","flightCategory":"MVFR","rawOb":"METAR SBMA 261700Z 14005KT 9999 BKN025 32/24 Q1009","temp":32,"dewp":24,"wdir":140,"wspd":5,"visib":"6+","altim":1009,"clouds":[{"cover":"BKN","base":2500}],"obsTime":1774544400},"SBVH":{"icaoId":"SBVH","flightCategory":"MVFR","rawOb":"METAR SBVH 261700Z 01009KT 9999 SCT015 BKN020 FEW030TCU 26/22 Q1013","temp":26,"dewp":22,"wdir":10,"wspd":9,"visib":"6+","altim":1013,"clouds":[{"cover":"SCT","base":1500},{"cover":"BKN","base":2000},{"cover":"FEW","base":3000}],"obsTime":1774544400},"SBAU":{"icaoId":"SBAU","flightCategory":"VFR","rawOb":"METAR SBAU 261700Z 36010KT 9999 SCT040 32/18 Q1014","temp":32,"dewp":18,"wdir":360,"wspd":10,"visib":"6+","altim":1014,"clouds":[{"cover":"SCT","base":4000}],"obsTime":1774544400},"SBAX":{"icaoId":"SBAX","flightCategory":"VFR","rawOb":"METAR SBAX 261700Z AUTO 12009KT 9999 SCT035 24/19 Q1019","temp":24,"dewp":19,"wdir":120,"wspd":9,"visib":"6+","altim":1019,"clouds":[{"cover":"SCT","base":3500}],"obsTime":1774544400},"SBBH":{"icaoId":"SBBH","flightCategory":"VFR","rawOb":"METAR SBBH 261700Z 09008KT 9999 BKN045 28/17 Q1019","temp":28,"dewp":17,"wdir":90,"wspd":8,"visib":"6+","altim":1019,"clouds":[{"cover":"BKN","base":4500}],"obsTime":1774544400},"SBBQ":{"icaoId":"SBBQ","flightCategory":"VFR","rawOb":"METAR SBBQ 261700Z 07006KT 020V120 9999 BKN036 24/15 Q1023","temp":24,"dewp":15,"wdir":70,"wspd":6,"visib":"6+","altim":1023,"clouds":[{"cover":"BKN","base":3600}],"obsTime":1774544400},"SBBU":{"icaoId":"SBBU","flightCategory":"VFR","rawOb":"METAR SBBU 261700Z 01007KT 9999 SCT035 30/19 Q1017","temp":30,"dewp":19,"wdir":10,"wspd":7,"visib":"6+","altim":1017,"clouds":[{"cover":"SCT","base":3500}],"obsTime":1774544400},"SBCA":{"icaoId":"SBCA","flightCategory":"VFR","rawOb":"METAR SBCA 261700Z 04013KT 9999 SCT040 28/20 Q1017","temp":28,"dewp":20,"wdir":40,"wspd":13,"visib":"6+","altim":1017,"clouds":[{"cover":"SCT","base":4000}],"obsTime":1774544400},"SBCC":{"icaoId":"SBCC","flightCategory":"VFR","rawOb":"METAR SBCC 261700Z 35002KT 9999 VCSH FEW015 SCT020 FEW025TCU BKN100 27/21 Q1012","temp":27,"dewp":21,"wdir":350,"wspd":2,"visib":"6+","altim":1012,"clouds":[{"cover":"FEW","base":1500},{"cover":"SCT","base":2000},{"cover":"FEW","base":2500},{"cover":"BKN","base":10000}],"obsTime":1774544400},"SBCJ":{"icaoId":"SBCJ","flightCategory":"MVFR","rawOb":"METAR SBCJ 261700Z 00000KT 9999 BKN022 27/21 Q1014","temp":27,"dewp":21,"wdir":0,"wspd":0,"visib":"6+","altim":1014,"clouds":[{"cover":"BKN","base":2200}],"obsTime":1774544400},"SBCO":{"icaoId":"SBCO","flightCategory":"MVFR","rawOb":"METAR SBCO 261700Z 28003KT 220V340 9999 OVC011 26/23 Q1015","temp":26,"dewp":23,"wdir":280,"wspd":3,"visib":"6+","altim":1015,"clouds":[{"cover":"OVC","base":1100}],"obsTime":1774544400},"SBDN":{"icaoId":"SBDN","flightCategory":"VFR","rawOb":"METAR SBDN 261700Z 05008KT 9999 BKN039 BKN082 30/20 Q1015","temp":30,"dewp":20,"wdir":50,"wspd":8,"visib":"6+","altim":1015,"clouds":[{"cover":"BKN","base":3900},{"cover":"BKN","base":8200}],"obsTime":1774544400},"SBES":{"icaoId":"SBES","flightCategory":"VFR","rawOb":"METAR SBES 261700Z 07015KT 9999 FEW020 30/// Q1015","temp":null,"dewp":null,"wdir":70,"wspd":15,"visib":"6+","altim":1015,"clouds":[{"cover":"FEW","base":2000}],"obsTime":1774544400},"SBGM":{"icaoId":"SBGM","flightCategory":"MVFR","rawOb":"METAR SBGM 261700Z 25007KT 220V280 9999 BKN010 26/21 Q1011","temp":26,"dewp":21,"wdir":250,"wspd":7,"visib":"6+","altim":1011,"clouds":[{"cover":"BKN","base":1000}],"obsTime":1774544400},"SBIP":{"icaoId":"SBIP","flightCategory":"VFR","rawOb":"METAR SBIP 261700Z AUTO VRB02KT 9999 SCT042 32/19 Q1016","temp":32,"dewp":19,"wdir":"VRB","wspd":2,"visib":"6+","altim":1016,"clouds":[{"cover":"SCT","base":4200}],"obsTime":1774544400},"SBKG":{"icaoId":"SBKG","flightCategory":"MVFR","rawOb":"METAR SBKG 261700Z 11007KT 9999 BKN030 SCT090 30/19 Q1011","temp":30,"dewp":19,"wdir":110,"wspd":7,"visib":"6+","altim":1011,"clouds":[{"cover":"BKN","base":3000},{"cover":"SCT","base":9000}],"obsTime":1774544400},"SBOI":{"icaoId":"SBOI","flightCategory":"VFR","rawOb":"METAR SBOI 261700Z AUTO 35003KT 9999 -RA FEW005 SCT022 25/25 Q1010","temp":25,"dewp":25,"wdir":350,"wspd":3,"visib":"6+","altim":1010,"clouds":[{"cover":"FEW","base":500},{"cover":"SCT","base":2200}],"obsTime":1774544400},"SBPB":{"icaoId":"SBPB","flightCategory":"VFR","rawOb":"METAR SBPB 261700Z 06008KT 9999 SCT020 SCT100 30/25 Q1008","temp":30,"dewp":25,"wdir":60,"wspd":8,"visib":"6+","altim":1008,"clouds":[{"cover":"SCT","base":2000},{"cover":"SCT","base":10000}],"obsTime":1774544400},"SBPL":{"icaoId":"SBPL","flightCategory":"VFR","rawOb":"METAR SBPL 261700Z 16005KT 9999 SCT035 33/21 Q1011","temp":33,"dewp":21,"wdir":160,"wspd":5,"visib":"6+","altim":1011,"clouds":[{"cover":"SCT","base":3500}],"obsTime":1774544400},"SBPP":{"icaoId":"SBPP","flightCategory":"VFR","rawOb":"METAR SBPP 261700Z 05007KT 9999 SCT025 29/22 Q1015","temp":29,"dewp":22,"wdir":50,"wspd":7,"visib":"6+","altim":1015,"clouds":[{"cover":"SCT","base":2500}],"obsTime":1774544400},"SBPS":{"icaoId":"SBPS","flightCategory":"VFR","rawOb":"METAR SBPS 261700Z 13008KT 090V180 9999 SCT020 29/25 Q1014","temp":29,"dewp":25,"wdir":130,"wspd":8,"visib":"6+","altim":1014,"clouds":[{"cover":"SCT","base":2000}],"obsTime":1774544400},"SBSC":{"icaoId":"SBSC","flightCategory":"VFR","rawOb":"METAR SBSC 261700Z 21007KT 9999 SCT045 32/23 Q1014","temp":32,"dewp":23,"wdir":210,"wspd":7,"visib":"6+","altim":1014,"clouds":[{"cover":"SCT","base":4500}],"obsTime":1774544400},"SBSJ":{"icaoId":"SBSJ","flightCategory":"VFR","rawOb":"METAR SBSJ 261700Z 13003KT 9999 SCT030 FEW035TCU 31/// Q1017","temp":null,"dewp":null,"wdir":130,"wspd":3,"visib":"6+","altim":1017,"clouds":[{"cover":"SCT","base":3000},{"cover":"FEW","base":3500}],"obsTime":1774544400},"SBSM":{"icaoId":"SBSM","flightCategory":"MVFR","rawOb":"METAR SBSM 261700Z 12005KT 080V180 9999 BKN012 OVC017 24/22 Q1015","temp":24,"dewp":22,"wdir":120,"wspd":5,"visib":"6+","altim":1015,"clouds":[{"cover":"BKN","base":1200},{"cover":"OVC","base":1700}],"obsTime":1774544400},"SBSR":{"icaoId":"SBSR","flightCategory":"VFR","rawOb":"METAR SBSR 261700Z VRB07KT 9999 SCT035 29/18 Q1016","temp":29,"dewp":18,"wdir":"VRB","wspd":7,"visib":"6+","altim":1016,"clouds":[{"cover":"SCT","base":3500}],"obsTime":1774544400},"SBTF":{"icaoId":"SBTF","flightCategory":"VFR","rawOb":"METAR SBTF 261700Z 07006KT 9999 FEW019 33/25 Q1009","temp":33,"dewp":25,"wdir":70,"wspd":6,"visib":"6+","altim":1009,"clouds":[{"cover":"FEW","base":1900}],"obsTime":1774544400},"SBTT":{"icaoId":"SBTT","flightCategory":"VFR","rawOb":"METAR SBTT 261700Z 12005KT 9999 SCT017 BKN080 31/23 Q1010","temp":31,"dewp":23,"wdir":120,"wspd":5,"visib":"6+","altim":1010,"clouds":[{"cover":"SCT","base":1700},{"cover":"BKN","base":8000}],"obsTime":1774544400},"SBUY":{"icaoId":"SBUY","flightCategory":"VFR","rawOb":"METAR SBUY 261700Z 15004KT 9999 FEW025 SCT100 31/22 Q1008","temp":31,"dewp":22,"wdir":150,"wspd":4,"visib":"6+","altim":1008,"clouds":[{"cover":"FEW","base":2500},{"cover":"SCT","base":10000}],"obsTime":1774544400},"SBAR":{"icaoId":"SBAR","flightCategory":"VFR","rawOb":"METAR SBAR 261700Z 13012KT 9999 SCT028 31/23 Q1011","temp":31,"dewp":23,"wdir":130,"wspd":12,"visib":"6+","altim":1011,"clouds":[{"cover":"SCT","base":2800}],"obsTime":1774544400},"SBJP":{"icaoId":"SBJP","flightCategory":"VFR","rawOb":"METAR SBJP 261700Z 11013KT 9999 BKN032 30/22 Q1009","temp":30,"dewp":22,"wdir":110,"wspd":13,"visib":"6+","altim":1009,"clouds":[{"cover":"BKN","base":3200}],"obsTime":1774544400},"SBAN":{"icaoId":"SBAN","flightCategory":"MVFR","rawOb":"METAR SBAN 261700Z VRB03KT 9999 VCSH SCT010 BKN015 BKN035 FEW040TCU 25/18 Q1019","temp":25,"dewp":18,"wdir":"VRB","wspd":3,"visib":"6+","altim":1019,"clouds":[{"cover":"SCT","base":1000},{"cover":"BKN","base":1500},{"cover":"BKN","base":3500},{"cover":"FEW","base":4000}],"obsTime":1774544400},"SBLE":{"icaoId":"SBLE","flightCategory":"MVFR","rawOb":"METAR SBLE 261700Z AUTO 23006KT 160V280 9999 -RA FEW017 BKN020 27/25 Q1015","temp":27,"dewp":25,"wdir":230,"wspd":6,"visib":"6+","altim":1015,"clouds":[{"cover":"FEW","base":1700},{"cover":"BKN","base":2000}],"obsTime":1774544400},"SBTC":{"icaoId":"SBTC","flightCategory":"VFR","rawOb":"METAR SBTC 261700Z 14008KT 9999 SCT025 30/25 Q1013","temp":30,"dewp":25,"wdir":140,"wspd":8,"visib":"6+","altim":1013,"clouds":[{"cover":"SCT","base":2500}],"obsTime":1774544400},"SBAF":{"icaoId":"SBAF","flightCategory":"VFR","rawOb":"METAR SBAF 261700Z 19011KT 9999 SCT030 FEW035TCU 32/23 Q1014","temp":32,"dewp":23,"wdir":190,"wspd":11,"visib":"6+","altim":1014,"clouds":[{"cover":"SCT","base":3000},{"cover":"FEW","base":3500}],"obsTime":1774544400},"SBGW":{"icaoId":"SBGW","flightCategory":"VFR","rawOb":"METAR SBGW 261700Z 36004KT 9999 FEW030 32/19 Q1017","temp":32,"dewp":19,"wdir":360,"wspd":4,"visib":"6+","altim":1017,"clouds":[{"cover":"FEW","base":3000}],"obsTime":1774544400},"SBJR":{"icaoId":"SBJR","flightCategory":"VFR","rawOb":"METAR SBJR 261700Z 17005KT 9999 FEW025 33/23 Q1014","temp":33,"dewp":23,"wdir":170,"wspd":5,"visib":"6+","altim":1014,"clouds":[{"cover":"FEW","base":2500}],"obsTime":1774544400},"SBLS":{"icaoId":"SBLS","flightCategory":"VFR","rawOb":"METAR SBLS 261700Z 12007KT 030V140 9999 BKN045 26/18 Q1019","temp":26,"dewp":18,"wdir":120,"wspd":7,"visib":"6+","altim":1019,"clouds":[{"cover":"BKN","base":4500}],"obsTime":1774544400},"SBMT":{"icaoId":"SBMT","flightCategory":"VFR","rawOb":"METAR SBMT 261700Z 31006KT 9999 FEW040 29/16 Q1018","temp":29,"dewp":16,"wdir":310,"wspd":6,"visib":"6+","altim":1018,"clouds":[{"cover":"FEW","base":4000}],"obsTime":1774544400},"SBST":{"icaoId":"SBST","flightCategory":"VFR","rawOb":"METAR SBST 261700Z 14007KT 9999 SCT030 30/23 Q1014","temp":30,"dewp":23,"wdir":140,"wspd":7,"visib":"6+","altim":1014,"clouds":[{"cover":"SCT","base":3000}],"obsTime":1774544400},"SBTA":{"icaoId":"SBTA","flightCategory":"VFR","rawOb":"METAR SBTA 261700Z 03003KT 9999 SCT035 FEW040TCU 30/25 Q1016","temp":30,"dewp":25,"wdir":30,"wspd":3,"visib":"6+","altim":1016,"clouds":[{"cover":"SCT","base":3500},{"cover":"FEW","base":4000}],"obsTime":1774544400},"SBIH":{"icaoId":"SBIH","flightCategory":"VFR","rawOb":"METAR SBIH 261700Z 04008KT 9999 SCT020 31/25 Q1009","temp":31,"dewp":25,"wdir":40,"wspd":8,"visib":"6+","altim":1009,"clouds":[{"cover":"SCT","base":2000}],"obsTime":1774544400},"SBJV":{"icaoId":"SBJV","flightCategory":"VFR","rawOb":"METAR SBJV 261700Z 11009KT 9999 SCT035 30/24 Q1014","temp":30,"dewp":24,"wdir":110,"wspd":9,"visib":"6+","altim":1014,"clouds":[{"cover":"SCT","base":3500}],"obsTime":1774544400},"SBPF":{"icaoId":"SBPF","flightCategory":"VFR","rawOb":"METAR SBPF 261700Z 29008KT 9999 SCT040 29/19 Q1017","temp":29,"dewp":19,"wdir":290,"wspd":8,"visib":"6+","altim":1017,"clouds":[{"cover":"SCT","base":4000}],"obsTime":1774544400}}}