{"updated":1773790354,"count":74,"data":{"SBVT":{"icaoId":"SBVT","flightCategory":"VFR","rawOb":"METAR SBVT 172200Z 06005KT 9999 BKN040 26/21 Q1012","temp":26,"dewp":21,"wdir":60,"wspd":5,"visib":"6+","altim":1012,"clouds":[{"cover":"BKN","base":4000}],"obsTime":1773784800},"SBBE":{"icaoId":"SBBE","flightCategory":"VFR","rawOb":"METAR SBBE 172200Z 08006KT CAVOK 24/23 Q1010","temp":24,"dewp":23,"wdir":80,"wspd":6,"visib":"6+","altim":1010,"clouds":[],"obsTime":1773784800},"SBBR":{"icaoId":"SBBR","flightCategory":"VFR","rawOb":"METAR SBBR 172200Z 26003KT 9999 VCTS SCT030 FEW040CB 23/19 Q1016","temp":23,"dewp":19,"wdir":260,"wspd":3,"visib":"6+","altim":1016,"clouds":[{"cover":"SCT","base":3000},{"cover":"FEW","base":4000}],"obsTime":1773784800},"SBBV":{"icaoId":"SBBV","flightCategory":"VFR","rawOb":"METAR SBBV 172200Z 09013KT 9999 SCT040 FEW045TCU BKN070 32/19 Q1007","temp":32,"dewp":19,"wdir":90,"wspd":13,"visib":"6+","altim":1007,"clouds":[{"cover":"SCT","base":4000},{"cover":"FEW","base":4500},{"cover":"BKN","base":7000}],"obsTime":1773784800},"SBCF":{"icaoId":"SBCF","flightCategory":"VFR","rawOb":"METAR SBCF 172200Z 36008KT 9999 TS BKN040 FEW045CB 22/18 Q1016","temp":22,"dewp":18,"wdir":360,"wspd":8,"visib":"6+","altim":1016,"clouds":[{"cover":"BKN","base":4000},{"cover":"FEW","base":4500}],"obsTime":1773784800},"SBCG":{"icaoId":"SBCG","flightCategory":"VFR","rawOb":"METAR SBCG 172200Z 34004KT 310V010 9999 FEW030 FEW035TCU 24/19 Q1010","temp":24,"dewp":19,"wdir":340,"wspd":4,"visib":"6+","altim":1010,"clouds":[{"cover":"FEW","base":3000},{"cover":"FEW","base":3500}],"obsTime":1773784800},"SBCT":{"icaoId":"SBCT","flightCategory":"VFR","rawOb":"METAR SBCT 172200Z 11006KT 9999 FEW015 21/19 Q1015","temp":21,"dewp":19,"wdir":110,"wspd":6,"visib":"6+","altim":1015,"clouds":[{"cover":"FEW","base":1500}],"obsTime":1773784800},"SBCZ":{"icaoId":"SBCZ","flightCategory":"VFR","rawOb":"METAR SBCZ 172200Z 27008KT 9999 -RA SCT035 OVC090 23/23 Q1006 RETS","temp":23,"dewp":23,"wdir":270,"wspd":8,"visib":"6+","altim":1006,"clouds":[{"cover":"SCT","base":3500},{"cover":"OVC","base":9000}],"obsTime":1773784800},"SBEG":{"icaoId":"SBEG","flightCategory":"VFR","rawOb":"METAR SBEG 172200Z 09004KT 9999 FEW010 FEW025TCU BKN100 26/25 Q1007","temp":26,"dewp":25,"wdir":90,"wspd":4,"visib":"6+","altim":1007,"clouds":[{"cover":"FEW","base":1000},{"cover":"FEW","base":2500},{"cover":"BKN","base":10000}],"obsTime":1773784800},"SBFI":{"icaoId":"SBFI","flightCategory":"VFR","rawOb":"METAR SBFI 172200Z 11004KT 9999 VCSH FEW030 BKN100 25/24 Q1008","temp":25,"dewp":24,"wdir":110,"wspd":4,"visib":"6+","altim":1008,"clouds":[{"cover":"FEW","base":3000},{"cover":"BKN","base":10000}],"obsTime":1773784800},"SBFL":{"icaoId":"SBFL","flightCategory":"VFR","rawOb":"METAR SBFL 172200Z 01008KT 9999 FEW037 27/22 Q1011","temp":27,"dewp":22,"wdir":10,"wspd":8,"visib":"6+","altim":1011,"clouds":[{"cover":"FEW","base":3700}],"obsTime":1773784800},"SBFZ":{"icaoId":"SBFZ","flightCategory":"VFR","rawOb":"METAR SBFZ 172200Z 09007KT 9999 SCT020 28/24 Q1009","temp":28,"dewp":24,"wdir":90,"wspd":7,"visib":"6+","altim":1009,"clouds":[{"cover":"SCT","base":2000}],"obsTime":1773784800},"SBGL":{"icaoId":"SBGL","flightCategory":"VFR","rawOb":"METAR SBGL 172200Z 14010KT 9999 FEW040 SCT060 26/22 Q1011","temp":26,"dewp":22,"wdir":140,"wspd":10,"visib":"6+","altim":1011,"clouds":[{"cover":"FEW","base":4000},{"cover":"SCT","base":6000}],"obsTime":1773784800},"SBGO":{"icaoId":"SBGO","flightCategory":"VFR","rawOb":"METAR SBGO 172200Z 13003KT 9999 -RA FEW004 SCT020 FEW035TCU OVC100 22/21 Q1014 RERA","temp":22,"dewp":21,"wdir":130,"wspd":3,"visib":"6+","altim":1014,"clouds":[{"cover":"FEW","base":400},{"cover":"SCT","base":2000},{"cover":"FEW","base":3500},{"cover":"OVC","base":10000}],"obsTime":1773784800},"SBGR":{"icaoId":"SBGR","flightCategory":"VFR","rawOb":"METAR SBGR 172200Z 17006KT CAVOK 24/20 Q1015","temp":24,"dewp":20,"wdir":170,"wspd":6,"visib":"6+","altim":1015,"clouds":[],"obsTime":1773784800},"SBHT":{"icaoId":"SBHT","flightCategory":"VFR","rawOb":"METAR SBHT 172200Z 00000KT 9999 FEW025 28/26 Q1008","temp":28,"dewp":26,"wdir":0,"wspd":0,"visib":"6+","altim":1008,"clouds":[{"cover":"FEW","base":2500}],"obsTime":1773784800},"SBIL":{"icaoId":"SBIL","flightCategory":"VFR","rawOb":"METAR SBIL 172200Z 11006KT CAVOK 29/24 Q1011","temp":29,"dewp":24,"wdir":110,"wspd":6,"visib":"6+","altim":1011,"clouds":[],"obsTime":1773784800},"SBJU":{"icaoId":"SBJU","flightCategory":"VFR","rawOb":"METAR SBJU 172200Z 00000KT 9999 SCT020 27/23 Q1012","temp":27,"dewp":23,"wdir":0,"wspd":0,"visib":"6+","altim":1012,"clouds":[{"cover":"SCT","base":2000}],"obsTime":1773784800},"SBKP":{"icaoId":"SBKP","flightCategory":"VFR","rawOb":"METAR SBKP 172200Z 18006KT 9999 FEW045 30/19 Q1013","temp":30,"dewp":19,"wdir":180,"wspd":6,"visib":"6+","altim":1013,"clouds":[{"cover":"FEW","base":4500}],"obsTime":1773784800},"SBLO":{"icaoId":"SBLO","flightCategory":"VFR","rawOb":"METAR SBLO 172200Z 02002KT 9999 4000W TS VCSH SCT030 FEW040CB SCT080 30/21 Q1011","temp":30,"dewp":21,"wdir":20,"wspd":2,"visib":"6+","altim":1011,"clouds":[{"cover":"SCT","base":3000},{"cover":"FEW","base":4000},{"cover":"SCT","base":8000}],"obsTime":1773784800},"SBMA":{"icaoId":"SBMA","flightCategory":"VFR","rawOb":"METAR SBMA 172200Z 00000KT 9999 FEW012 BKN100 26/25 Q1009","temp":26,"dewp":25,"wdir":0,"wspd":0,"visib":"6+","altim":1009,"clouds":[{"cover":"FEW","base":1200},{"cover":"BKN","base":10000}],"obsTime":1773784800},"SBME":{"icaoId":"SBME","flightCategory":"VFR","rawOb":"METAR SBME 172200Z 12004KT 9999 SCT040 26/21 Q1012","temp":26,"dewp":21,"wdir":120,"wspd":4,"visib":"6+","altim":1012,"clouds":[{"cover":"SCT","base":4000}],"obsTime":1773784800},"SBMG":{"icaoId":"SBMG","flightCategory":"VFR","rawOb":"METAR SBMG 172200Z 24011KT 9000 4000SW -TSRA SCT003 BKN035 FEW050CB 22/21 Q1012","temp":22,"dewp":21,"wdir":240,"wspd":11,"visib":5.59,"altim":1012,"clouds":[{"cover":"SCT","base":300},{"cover":"BKN","base":3500},{"cover":"FEW","base":5000}],"obsTime":1773784800},"SBMK":{"icaoId":"SBMK","flightCategory":"VFR","rawOb":"METAR SBMK 172200Z 17006KT 9999 BKN035 FEW045TCU 25/21 Q1013","temp":25,"dewp":21,"wdir":170,"wspd":6,"visib":"6+","altim":1013,"clouds":[{"cover":"BKN","base":3500},{"cover":"FEW","base":4500}],"obsTime":1773784800},"SBMO":{"icaoId":"SBMO","flightCategory":"VFR","rawOb":"METAR SBMO 172200Z 08005KT 9999 FEW025 26/23 Q1011","temp":26,"dewp":23,"wdir":80,"wspd":5,"visib":"6+","altim":1011,"clouds":[{"cover":"FEW","base":2500}],"obsTime":1773784800},"SBMQ":{"icaoId":"SBMQ","flightCategory":"MVFR","rawOb":"METAR SBMQ 172200Z 36004KT 9999 SCT013 BKN025 OVC035 26/25 Q1009","temp":26,"dewp":25,"wdir":360,"wspd":4,"visib":"6+","altim":1009,"clouds":[{"cover":"SCT","base":1300},{"cover":"BKN","base":2500},{"cover":"OVC","base":3500}],"obsTime":1773784800},"SBNT":{"icaoId":"SBNT","flightCategory":"VFR","rawOb":"METAR SBNT 172200Z 10008KT 9999 FEW022 28/24 Q1010","temp":28,"dewp":24,"wdir":100,"wspd":8,"visib":"6+","altim":1010,"clouds":[{"cover":"FEW","base":2200}],"obsTime":1773784800},"SBPA":{"icaoId":"SBPA","flightCategory":"IFR","rawOb":"METAR SBPA 172200Z 08007KT 5000 -TSRA BKN006 BKN030 FEW040CB 25/24 Q1010 RERA","temp":25,"dewp":24,"wdir":80,"wspd":7,"visib":3.11,"altim":1010,"clouds":[{"cover":"BKN","base":600},{"cover":"BKN","base":3000},{"cover":"FEW","base":4000}],"obsTime":1773784800},"SBPJ":{"icaoId":"SBPJ","flightCategory":"VFR","rawOb":"METAR SBPJ 172200Z 10002KT 9999 SCT025 SCT080 25/24 Q1010","temp":25,"dewp":24,"wdir":100,"wspd":2,"visib":"6+","altim":1010,"clouds":[{"cover":"SCT","base":2500},{"cover":"SCT","base":8000}],"obsTime":1773784800},"SBPV":{"icaoId":"SBPV","flightCategory":"VFR","rawOb":"METAR SBPV 172200Z 07005KT 9999 SCT025 28/24 Q1005","temp":28,"dewp":24,"wdir":70,"wspd":5,"visib":"6+","altim":1005,"clouds":[{"cover":"SCT","base":2500}],"obsTime":1773784800},"SBRB":{"icaoId":"SBRB","flightCategory":"MVFR","rawOb":"METAR SBRB 172200Z 01006KT 8000 VCSH FEW030 FEW035TCU SCT100 29/25 Q1005","temp":29,"dewp":25,"wdir":10,"wspd":6,"visib":4.97,"altim":1005,"clouds":[{"cover":"FEW","base":3000},{"cover":"FEW","base":3500},{"cover":"SCT","base":10000}],"obsTime":1773784800},"SBRF":{"icaoId":"SBRF","flightCategory":"VFR","rawOb":"METAR SBRF 172200Z 09010KT 9999 SCT024 29/24 Q1011","temp":29,"dewp":24,"wdir":90,"wspd":10,"visib":"6+","altim":1011,"clouds":[{"cover":"SCT","base":2400}],"obsTime":1773784800},"SBSG":{"icaoId":"SBSG","flightCategory":"VFR","rawOb":"METAR SBSG 172200Z 11007KT 9999 VCSH VCTS SCT025 FEW030CB SCT100 27/24 Q1010","temp":27,"dewp":24,"wdir":110,"wspd":7,"visib":"6+","altim":1010,"clouds":[{"cover":"SCT","base":2500},{"cover":"FEW","base":3000},{"cover":"SCT","base":10000}],"obsTime":1773784800},"SBSL":{"icaoId":"SBSL","flightCategory":"VFR","rawOb":"METAR SBSL 172200Z 07005KT 9999 FEW020 BKN070 26/24 Q1010","temp":26,"dewp":24,"wdir":70,"wspd":5,"visib":"6+","altim":1010,"clouds":[{"cover":"FEW","base":2000},{"cover":"BKN","base":7000}],"obsTime":1773784800},"SBSN":{"icaoId":"SBSN","flightCategory":"VFR","rawOb":"METAR SBSN 172200Z 12003KT 9999 FEW015 BKN100 27/25 Q1007","temp":27,"dewp":25,"wdir":120,"wspd":3,"visib":"6+","altim":1007,"clouds":[{"cover":"FEW","base":1500},{"cover":"BKN","base":10000}],"obsTime":1773784800},"SBSP":{"icaoId":"SBSP","flightCategory":"VFR","rawOb":"METAR SBSP 172200Z 17009KT 9999 SCT011 22/19 Q1016","temp":22,"dewp":19,"wdir":170,"wspd":9,"visib":"6+","altim":1016,"clouds":[{"cover":"SCT","base":1100}],"obsTime":1773784800},"SBSV":{"icaoId":"SBSV","flightCategory":"VFR","rawOb":"METAR SBSV 172200Z 09008KT 9999 FEW025 28/22 Q1011","temp":28,"dewp":22,"wdir":90,"wspd":8,"visib":"6+","altim":1011,"clouds":[{"cover":"FEW","base":2500}],"obsTime":1773784800},"SBTE":{"icaoId":"SBTE","flightCategory":"MVFR","rawOb":"METAR SBTE 172200Z 02006KT 9999 VCTS BKN025 FEW030CB 29/25 Q1009","temp":29,"dewp":25,"wdir":20,"wspd":6,"visib":"6+","altim":1009,"clouds":[{"cover":"BKN","base":2500},{"cover":"FEW","base":3000}],"obsTime":1773784800},"SBUL":{"icaoId":"SBUL","flightCategory":"VFR","rawOb":"METAR SBUL 172200Z 16002KT 9999 FEW030 FEW040TCU 23/20 Q1015 RETS","temp":23,"dewp":20,"wdir":160,"wspd":2,"visib":"6+","altim":1015,"clouds":[{"cover":"FEW","base":3000},{"cover":"FEW","base":4000}],"obsTime":1773784800},"SBUR":{"icaoId":"SBUR","flightCategory":"VFR","rawOb":"METAR SBUR 172200Z 02006KT 9999 VCSH VCTS FEW050CB 22/20 Q1014","temp":22,"dewp":20,"wdir":20,"wspd":6,"visib":"6+","altim":1014,"clouds":[{"cover":"FEW","base":5000}],"obsTime":1773784800},"SBCP":{"icaoId":"SBCP","flightCategory":"VFR","rawOb":"METAR SBCP 172200Z 08005KT CAVOK 24/22 Q1012","temp":24,"dewp":22,"wdir":80,"wspd":5,"visib":"6+","altim":1012,"clouds":[],"obsTime":1773784800},"SBCA":{"icaoId":"SBCA","flightCategory":"VFR","rawOb":"METAR SBCA 172200Z 06006KT 9999 SCT040 BKN070 23/20 Q1013","temp":23,"dewp":20,"wdir":60,"wspd":6,"visib":"6+","altim":1013,"clouds":[{"cover":"SCT","base":4000},{"cover":"BKN","base":7000}],"obsTime":1773784800},"SBAR":{"icaoId":"SBAR","flightCategory":"VFR","rawOb":"METAR SBAR 172200Z 11009KT 9999 FEW021 29/23 Q1010","temp":29,"dewp":23,"wdir":110,"wspd":9,"visib":"6+","altim":1010,"clouds":[{"cover":"FEW","base":2100}],"obsTime":1773784800},"SBVH":{"icaoId":"SBVH","flightCategory":"VFR","rawOb":"METAR SBVH 172200Z 21006KT 9999 SCT040 BKN100 25/23 Q1010 RETS","temp":25,"dewp":23,"wdir":210,"wspd":6,"visib":"6+","altim":1010,"clouds":[{"cover":"SCT","base":4000},{"cover":"BKN","base":10000}],"obsTime":1773784800},"SBAX":{"icaoId":"SBAX","flightCategory":"VFR","rawOb":"METAR SBAX 172200Z 13006KT 9999 SCT030 BKN100 22/21 Q1016","temp":22,"dewp":21,"wdir":130,"wspd":6,"visib":"6+","altim":1016,"clouds":[{"cover":"SCT","base":3000},{"cover":"BKN","base":10000}],"obsTime":1773784800},"SBTT":{"icaoId":"SBTT","flightCategory":"VFR","rawOb":"METAR SBTT 172200Z 22003KT 9999 FEW040 32/24 Q1005","temp":32,"dewp":24,"wdir":220,"wspd":3,"visib":"6+","altim":1005,"clouds":[{"cover":"FEW","base":4000}],"obsTime":1773784800},"SBBH":{"icaoId":"SBBH","flightCategory":"VFR","rawOb":"METAR SBBH 172200Z 33005KT 9999 VCTS FEW040CB SCT100 25/20 Q1015","temp":25,"dewp":20,"wdir":330,"wspd":5,"visib":"6+","altim":1015,"clouds":[{"cover":"FEW","base":4000},{"cover":"SCT","base":10000}],"obsTime":1773784800},"SBSR":{"icaoId":"SBSR","flightCategory":"VFR","rawOb":"METAR SBSR 172200Z 03003KT 9999 VCTS FEW030 FEW040CB SCT080 28/22 Q1011","temp":28,"dewp":22,"wdir":30,"wspd":3,"visib":"6+","altim":1011,"clouds":[{"cover":"FEW","base":3000},{"cover":"FEW","base":4000},{"cover":"SCT","base":8000}],"obsTime":1773784800},"SBBU":{"icaoId":"SBBU","flightCategory":"VFR","rawOb":"METAR SBBU 172200Z 04003KT CAVOK 30/22 Q1012","temp":30,"dewp":22,"wdir":40,"wspd":3,"visib":"6+","altim":1012,"clouds":[],"obsTime":1773784800},"SBSM":{"icaoId":"SBSM","flightCategory":"VFR","rawOb":"METAR SBSM 172200Z VRB02KT 9999 FEW005 BKN050 25/23 Q1009","temp":25,"dewp":23,"wdir":"VRB","wspd":2,"visib":"6+","altim":1009,"clouds":[{"cover":"FEW","base":500},{"cover":"BKN","base":5000}],"obsTime":1773784800},"SBSJ":{"icaoId":"SBSJ","flightCategory":"VFR","rawOb":"METAR SBSJ 172200Z 17010KT CAVOK 25/// Q1013","temp":null,"dewp":null,"wdir":170,"wspd":10,"visib":"6+","altim":1013,"clouds":[],"obsTime":1773784800},"SBCO":{"icaoId":"SBCO","flightCategory":"IFR","rawOb":"METAR SBCO 172200Z 09006KT 4000 -TSRA SCT015 FEW040CB BKN100 23/23 Q1011 RERA","temp":23,"dewp":23,"wdir":90,"wspd":6,"visib":2.49,"altim":1011,"clouds":[{"cover":"SCT","base":1500},{"cover":"FEW","base":4000},{"cover":"BKN","base":10000}],"obsTime":1773784800},"SBSC":{"icaoId":"SBSC","flightCategory":"VFR","rawOb":"METAR SBSC 172200Z 15005KT CAVOK 26/22 Q1011","temp":26,"dewp":22,"wdir":150,"wspd":5,"visib":"6+","altim":1011,"clouds":[],"obsTime":1773784800},"SBDN":{"icaoId":"SBDN","flightCategory":"VFR","rawOb":"METAR SBDN 172200Z 00000KT 9999 FEW045 29/22 Q1010","temp":29,"dewp":22,"wdir":0,"wspd":0,"visib":"6+","altim":1010,"clouds":[{"cover":"FEW","base":4500}],"obsTime":1773784800},"SBES":{"icaoId":"SBES","flightCategory":"VFR","rawOb":"METAR SBES 172200Z 06003KT 030V100 CAVOK 23/// Q1012","temp":null,"dewp":null,"wdir":60,"wspd":3,"visib":"6+","altim":1012,"clouds":[],"obsTime":1773784800},"SBPS":{"icaoId":"SBPS","flightCategory":"VFR","rawOb":"METAR SBPS 172200Z 09005KT 9999 SCT020 27/24 Q1011","temp":27,"dewp":24,"wdir":90,"wspd":5,"visib":"6+","altim":1011,"clouds":[{"cover":"SCT","base":2000}],"obsTime":1773784800},"SBPL":{"icaoId":"SBPL","flightCategory":"VFR","rawOb":"METAR SBPL 172200Z 15004KT CAVOK 30/16 Q1010","temp":30,"dewp":16,"wdir":150,"wspd":4,"visib":"6+","altim":1010,"clouds":[],"obsTime":1773784800},"SBIP":{"icaoId":"SBIP","flightCategory":"VFR","rawOb":"METAR SBIP 172200Z AUTO VRB01KT CAVOK 24/22 Q1012","temp":24,"dewp":22,"wdir":"VRB","wspd":1,"visib":"6+","altim":1012,"clouds":[],"obsTime":1773784800},"SBKG":{"icaoId":"SBKG","flightCategory":"VFR","rawOb":"METAR SBKG 172200Z 05009KT CAVOK 25/21 Q1013","temp":25,"dewp":21,"wdir":50,"wspd":9,"visib":"6+","altim":1013,"clouds":[],"obsTime":1773784800},"SBOI":{"icaoId":"SBOI","flightCategory":"VFR","rawOb":"METAR SBOI 172200Z AUTO 03005KT CAVOK 26/23 Q1010","temp":26,"dewp":23,"wdir":30,"wspd":5,"visib":"6+","altim":1010,"clouds":[],"obsTime":1773784800},"SBTF":{"icaoId":"SBTF","flightCategory":"VFR","rawOb":"METAR SBTF 172200Z 03004KT CAVOK 30/27 Q1006","temp":30,"dewp":27,"wdir":30,"wspd":4,"visib":"6+","altim":1006,"clouds":[],"obsTime":1773784800},"SBUY":{"icaoId":"SBUY","flightCategory":"MVFR","rawOb":"METAR SBUY 172200Z 14010KT 5000 -TSRA BKN015 FEW020CB BKN090 25/24 Q1007","temp":25,"dewp":24,"wdir":140,"wspd":10,"visib":3.11,"altim":1007,"clouds":[{"cover":"BKN","base":1500},{"cover":"FEW","base":2000},{"cover":"BKN","base":9000}],"obsTime":1773784800},"SBPB":{"icaoId":"SBPB","flightCategory":"VFR","rawOb":"SPECI SBPB 172145Z 17005KT 9999 SCT015 OVC080 26/24 Q1010","temp":26,"dewp":24,"wdir":170,"wspd":5,"visib":"6+","altim":1010,"clouds":[{"cover":"SCT","base":1500},{"cover":"OVC","base":8000}],"obsTime":1773783900},"SBTA":{"icaoId":"SBTA","flightCategory":"VFR","rawOb":"METAR SBTA 172200Z 16006KT 9999 FEW045 27/20 Q1012","temp":27,"dewp":20,"wdir":160,"wspd":6,"visib":"6+","altim":1012,"clouds":[{"cover":"FEW","base":4500}],"obsTime":1773784800},"SBAF":{"icaoId":"SBAF","flightCategory":"VFR","rawOb":"METAR SBAF 172200Z 22003KT CAVOK 26/24 Q1011","temp":26,"dewp":24,"wdir":220,"wspd":3,"visib":"6+","altim":1011,"clouds":[],"obsTime":1773784800},"SBAN":{"icaoId":"SBAN","flightCategory":"VFR","rawOb":"METAR SBAN 172200Z 24003KT 9999 -RA FEW020 FEW025TCU BKN080 20/19 Q1017","temp":20,"dewp":19,"wdir":240,"wspd":3,"visib":"6+","altim":1017,"clouds":[{"cover":"FEW","base":2000},{"cover":"FEW","base":2500},{"cover":"BKN","base":8000}],"obsTime":1773784800},"SBJP":{"icaoId":"SBJP","flightCategory":"VFR","rawOb":"METAR SBJP 172200Z 07009KT 9999 FEW015 26/24 Q1011","temp":26,"dewp":24,"wdir":70,"wspd":9,"visib":"6+","altim":1011,"clouds":[{"cover":"FEW","base":1500}],"obsTime":1773784800},"SBJR":{"icaoId":"SBJR","flightCategory":"VFR","rawOb":"METAR SBJR 172200Z 13006KT CAVOK 27/22 Q1011","temp":27,"dewp":22,"wdir":130,"wspd":6,"visib":"6+","altim":1011,"clouds":[],"obsTime":1773784800},"SBJV":{"icaoId":"SBJV","flightCategory":"MVFR","rawOb":"METAR SBJV 172200Z 01003KT 9999 SCT013 BKN030 27/23 Q1011","temp":27,"dewp":23,"wdir":10,"wspd":3,"visib":"6+","altim":1011,"clouds":[{"cover":"SCT","base":1300},{"cover":"BKN","base":3000}],"obsTime":1773784800},"SBLE":{"icaoId":"SBLE","flightCategory":"VFR","rawOb":"METAR SBLE 172200Z AUTO 06004KT CAVOK 25/18 Q1013","temp":25,"dewp":18,"wdir":60,"wspd":4,"visib":"6+","altim":1013,"clouds":[],"obsTime":1773784800},"SBLS":{"icaoId":"SBLS","flightCategory":"VFR","rawOb":"METAR SBLS 172200Z 36003KT 280V040 9999 FEW040TCU BKN100 23/20 Q1015 RETS","temp":23,"dewp":20,"wdir":360,"wspd":3,"visib":"6+","altim":1015,"clouds":[{"cover":"FEW","base":4000},{"cover":"BKN","base":10000}],"obsTime":1773784800},"SBMT":{"icaoId":"SBMT","flightCategory":"VFR","rawOb":"METAR SBMT 172200Z 15006KT CAVOK 23/19 Q1015","temp":23,"dewp":19,"wdir":150,"wspd":6,"visib":"6+","altim":1015,"clouds":[],"obsTime":1773784800},"SBPF":{"icaoId":"SBPF","flightCategory":"MVFR","rawOb":"METAR SBPF 172200Z 05006KT 9999 SCT015 BKN018 21/19 Q1014","temp":21,"dewp":19,"wdir":50,"wspd":6,"visib":"6+","altim":1014,"clouds":[{"cover":"SCT","base":1500},{"cover":"BKN","base":1800}],"obsTime":1773784800},"SBGW":{"icaoId":"SBGW","flightCategory":"VFR","rawOb":"METAR SBGW 172200Z 02003KT CAVOK 26/18 Q1012","temp":26,"dewp":18,"wdir":20,"wspd":3,"visib":"6+","altim":1012,"clouds":[],"obsTime":1773784800}}}