{"updated":1776416277,"count":50,"data":{"SBFZ":{"icaoId":"SBFZ","flightCategory":"MVFR","rawOb":"METAR SBFZ 170700Z 16006KT 110V190 8000 -RA BKN017 BKN060 26/24 Q1006","temp":26,"dewp":24,"wdir":160,"wspd":6,"visib":4.97,"altim":1006,"clouds":[{"cover":"BKN","base":1700},{"cover":"BKN","base":6000}],"obsTime":1776409200},"SBVT":{"icaoId":"SBVT","flightCategory":"VFR","rawOb":"METAR SBVT 170700Z 29003KT 9999 FEW020 20/20 Q1010","temp":20,"dewp":20,"wdir":290,"wspd":3,"visib":"6+","altim":1010,"clouds":[{"cover":"FEW","base":2000}],"obsTime":1776409200},"SBBR":{"icaoId":"SBBR","flightCategory":"VFR","rawOb":"METAR SBBR 170700Z 32002KT CAVOK 20/18 Q1015","temp":20,"dewp":18,"wdir":320,"wspd":2,"visib":"6+","altim":1015,"clouds":[],"obsTime":1776409200},"SBBV":{"icaoId":"SBBV","flightCategory":"VFR","rawOb":"METAR SBBV 170700Z 11008KT 9999 FEW020 FEW045TCU SCT070 26/24 Q1007","temp":26,"dewp":24,"wdir":110,"wspd":8,"visib":"6+","altim":1007,"clouds":[{"cover":"FEW","base":2000},{"cover":"FEW","base":4500},{"cover":"SCT","base":7000}],"obsTime":1776409200},"SBCF":{"icaoId":"SBCF","flightCategory":"VFR","rawOb":"METAR SBCF 170700Z 15005KT CAVOK 17/15 Q1014","temp":17,"dewp":15,"wdir":150,"wspd":5,"visib":"6+","altim":1014,"clouds":[],"obsTime":1776409200},"SBCG":{"icaoId":"SBCG","flightCategory":"VFR","rawOb":"METAR SBCG 170700Z 03001KT CAVOK 23/21 Q1010","temp":23,"dewp":21,"wdir":30,"wspd":1,"visib":"6+","altim":1010,"clouds":[],"obsTime":1776409200},"SBCT":{"icaoId":"SBCT","flightCategory":"LIFR","rawOb":"METAR SBCT 170700Z 01002KT 0600 R33/0600 R15/1600 FG VV001 17/17 Q1013","temp":17,"dewp":17,"wdir":10,"wspd":2,"visib":0.37,"altim":1013,"clouds":[{"cover":"OVX","base":100}],"obsTime":1776409200},"SBEG":{"icaoId":"SBEG","flightCategory":"VFR","rawOb":"METAR SBEG 170700Z 00000KT CAVOK 25/24 Q1007","temp":25,"dewp":24,"wdir":0,"wspd":0,"visib":"6+","altim":1007,"clouds":[],"obsTime":1776409200},"SBFI":{"icaoId":"SBFI","flightCategory":"MVFR","rawOb":"METAR SBFI 170700Z 21002KT 5000 BR BCFG SCT030 21/21 Q1009","temp":21,"dewp":21,"wdir":210,"wspd":2,"visib":3.11,"altim":1009,"clouds":[{"cover":"SCT","base":3000}],"obsTime":1776409200},"SBFL":{"icaoId":"SBFL","flightCategory":"VFR","rawOb":"METAR SBFL 170700Z 32008KT 9999 FEW015 BKN036 24/22 Q1008","temp":24,"dewp":22,"wdir":320,"wspd":8,"visib":"6+","altim":1008,"clouds":[{"cover":"FEW","base":1500},{"cover":"BKN","base":3600}],"obsTime":1776409200},"SBGL":{"icaoId":"SBGL","flightCategory":"MVFR","rawOb":"METAR SBGL 170700Z 14002KT 9999 BKN021 23/21 Q1010","temp":23,"dewp":21,"wdir":140,"wspd":2,"visib":"6+","altim":1010,"clouds":[{"cover":"BKN","base":2100}],"obsTime":1776409200},"SBGO":{"icaoId":"SBGO","flightCategory":"VFR","rawOb":"METAR SBGO 170700Z 36003KT 9999 FEW048 BKN100 22/20 Q1013","temp":22,"dewp":20,"wdir":360,"wspd":3,"visib":"6+","altim":1013,"clouds":[{"cover":"FEW","base":4800},{"cover":"BKN","base":10000}],"obsTime":1776409200},"SBGR":{"icaoId":"SBGR","flightCategory":"MVFR","rawOb":"METAR SBGR 170700Z 07005KT 6000 NSC 17/16 Q1013","temp":17,"dewp":16,"wdir":70,"wspd":5,"visib":3.73,"altim":1013,"clouds":[],"obsTime":1776409200},"SBJU":{"icaoId":"SBJU","flightCategory":"VFR","rawOb":"METAR SBJU 170700Z 00000KT CAVOK 22/21 Q1010","temp":22,"dewp":21,"wdir":0,"wspd":0,"visib":"6+","altim":1010,"clouds":[],"obsTime":1776409200},"SBKP":{"icaoId":"SBKP","flightCategory":"VFR","rawOb":"METAR SBKP 170700Z 11007KT CAVOK 18/16 Q1012","temp":18,"dewp":16,"wdir":110,"wspd":7,"visib":"6+","altim":1012,"clouds":[],"obsTime":1776409200},"SBLO":{"icaoId":"SBLO","flightCategory":"VFR","rawOb":"METAR SBLO 170700Z 21003KT CAVOK 20/18 Q1011","temp":20,"dewp":18,"wdir":210,"wspd":3,"visib":"6+","altim":1011,"clouds":[],"obsTime":1776409200},"SBMA":{"icaoId":"SBMA","flightCategory":"VFR","rawOb":"METAR SBMA 170700Z 35003KT 9999 SCT020 26/24 Q1007","temp":26,"dewp":24,"wdir":350,"wspd":3,"visib":"6+","altim":1007,"clouds":[{"cover":"SCT","base":2000}],"obsTime":1776409200},"SBME":{"icaoId":"SBME","flightCategory":"VFR","rawOb":"METAR SBME 170700Z 32003KT CAVOK 22/20 Q1010","temp":22,"dewp":20,"wdir":320,"wspd":3,"visib":"6+","altim":1010,"clouds":[],"obsTime":1776409200},"SBMG":{"icaoId":"SBMG","flightCategory":"VFR","rawOb":"METAR SBMG 170700Z AUTO 03007KT CAVOK 23/18 Q1010","temp":23,"dewp":18,"wdir":30,"wspd":7,"visib":"6+","altim":1010,"clouds":[],"obsTime":1776409200},"SBMK":{"icaoId":"SBMK","flightCategory":"VFR","rawOb":"METAR SBMK 170800Z 27002KT CAVOK 16/15 Q1012","temp":16,"dewp":15,"wdir":270,"wspd":2,"visib":"6+","altim":1012,"clouds":[],"obsTime":1776412800},"SBMO":{"icaoId":"SBMO","flightCategory":"MVFR","rawOb":"METAR SBMO 170700Z 24004KT 5000 -RA SCT017 24/23 Q1009","temp":24,"dewp":23,"wdir":240,"wspd":4,"visib":3.11,"altim":1009,"clouds":[{"cover":"SCT","base":1700}],"obsTime":1776409200},"SBMQ":{"icaoId":"SBMQ","flightCategory":"VFR","rawOb":"METAR SBMQ 170700Z 29002KT 9999 FEW025 SCT057 24/24 Q1007","temp":24,"dewp":24,"wdir":290,"wspd":2,"visib":"6+","altim":1007,"clouds":[{"cover":"FEW","base":2500},{"cover":"SCT","base":5700}],"obsTime":1776409200},"SBNT":{"icaoId":"SBNT","flightCategory":"VFR","rawOb":"METAR SBNT 170700Z 18005KT 9999 FEW030 24/23 Q1007","temp":24,"dewp":23,"wdir":180,"wspd":5,"visib":"6+","altim":1007,"clouds":[{"cover":"FEW","base":3000}],"obsTime":1776409200},"SBPA":{"icaoId":"SBPA","flightCategory":"VFR","rawOb":"METAR SBPA 170700Z 31008KT 9999 FEW020 SCT080 22/19 Q1006","temp":22,"dewp":19,"wdir":310,"wspd":8,"visib":"6+","altim":1006,"clouds":[{"cover":"FEW","base":2000},{"cover":"SCT","base":8000}],"obsTime":1776409200},"SBPJ":{"icaoId":"SBPJ","flightCategory":"VFR","rawOb":"METAR SBPJ 170700Z 12004KT 9999 VCTS FEW035 FEW040CB 24/24 Q1008","temp":24,"dewp":24,"wdir":120,"wspd":4,"visib":"6+","altim":1008,"clouds":[{"cover":"FEW","base":3500},{"cover":"FEW","base":4000}],"obsTime":1776409200},"SBPV":{"icaoId":"SBPV","flightCategory":"LIFR","rawOb":"METAR SBPV 170700Z 03003KT 0400 R19/1100D FG VV001 25/24 Q1007","temp":25,"dewp":24,"wdir":30,"wspd":3,"visib":0.25,"altim":1007,"clouds":[{"cover":"OVX","base":100}],"obsTime":1776409200},"SBRB":{"icaoId":"SBRB","flightCategory":"LIFR","rawOb":"METAR SBRB 170700Z 18005KT 6000 BKN004 BKN100 22/22 Q1008","temp":22,"dewp":22,"wdir":180,"wspd":5,"visib":3.73,"altim":1008,"clouds":[{"cover":"BKN","base":400},{"cover":"BKN","base":10000}],"obsTime":1776409200},"SBRF":{"icaoId":"SBRF","flightCategory":"VFR","rawOb":"METAR SBRF 170700Z 22003KT 9999 FEW020 BKN036 25/23 Q1008","temp":25,"dewp":23,"wdir":220,"wspd":3,"visib":"6+","altim":1008,"clouds":[{"cover":"FEW","base":2000},{"cover":"BKN","base":3600}],"obsTime":1776409200},"SBSG":{"icaoId":"SBSG","flightCategory":"VFR","rawOb":"METAR SBSG 170700Z 19003KT 150V240 9999 FEW018 24/23 Q1007","temp":24,"dewp":23,"wdir":190,"wspd":3,"visib":"6+","altim":1007,"clouds":[{"cover":"FEW","base":1800}],"obsTime":1776409200},"SBSL":{"icaoId":"SBSL","flightCategory":"VFR","rawOb":"METAR SBSL 170700Z 14005KT 9999 SCT025 BKN080 25/24 Q1006","temp":25,"dewp":24,"wdir":140,"wspd":5,"visib":"6+","altim":1006,"clouds":[{"cover":"SCT","base":2500},{"cover":"BKN","base":8000}],"obsTime":1776409200},"SBSN":{"icaoId":"SBSN","flightCategory":"VFR","rawOb":"METAR SBSN 170700Z 09011KT 9999 SCT013 27/24 Q1007","temp":27,"dewp":24,"wdir":90,"wspd":11,"visib":"6+","altim":1007,"clouds":[{"cover":"SCT","base":1300}],"obsTime":1776409200},"SBSV":{"icaoId":"SBSV","flightCategory":"VFR","rawOb":"METAR SBSV 170700Z 13003KT 090V180 9999 FEW023 27/22 Q1009","temp":27,"dewp":22,"wdir":130,"wspd":3,"visib":"6+","altim":1009,"clouds":[{"cover":"FEW","base":2300}],"obsTime":1776409200},"SBTE":{"icaoId":"SBTE","flightCategory":"MVFR","rawOb":"METAR SBTE 170700Z 00000KT 9999 BKN016 24/23 Q1005","temp":24,"dewp":23,"wdir":0,"wspd":0,"visib":"6+","altim":1005,"clouds":[{"cover":"BKN","base":1600}],"obsTime":1776409200},"SBUL":{"icaoId":"SBUL","flightCategory":"VFR","rawOb":"METAR SBUL 170700Z 11006KT CAVOK 19/15 Q1014","temp":19,"dewp":15,"wdir":110,"wspd":6,"visib":"6+","altim":1014,"clouds":[],"obsTime":1776409200},"SBUR":{"icaoId":"SBUR","flightCategory":"VFR","rawOb":"METAR SBUR 170700Z 09006KT CAVOK 20/14 Q1013","temp":20,"dewp":14,"wdir":90,"wspd":6,"visib":"6+","altim":1013,"clouds":[],"obsTime":1776409200},"SBBE":{"icaoId":"SBBE","flightCategory":"VFR","rawOb":"METAR SBBE 170700Z 04003KT CAVOK 25/24 Q1008","temp":25,"dewp":24,"wdir":40,"wspd":3,"visib":"6+","altim":1008,"clouds":[],"obsTime":1776409200},"SBSJ":{"icaoId":"SBSJ","flightCategory":"IFR","rawOb":"SPECI SBSJ 170830Z 04001KT 5000 BR OVC008 16/16 Q1013","temp":16,"dewp":16,"wdir":40,"wspd":1,"visib":3.11,"altim":1013,"clouds":[{"cover":"OVC","base":800}],"obsTime":1776414600},"SBIP":{"icaoId":"SBIP","flightCategory":"IFR","rawOb":"METAR SBIP 170700Z AUTO 00000KT 3800 BR NSC 17/17 Q1012","temp":17,"dewp":17,"wdir":0,"wspd":0,"visib":2.36,"altim":1012,"clouds":[],"obsTime":1776409200},"SBPL":{"icaoId":"SBPL","flightCategory":"VFR","rawOb":"METAR SBPL 170700Z 12006KT 9999 SCT020 BKN070 25/21 Q1010","temp":25,"dewp":21,"wdir":120,"wspd":6,"visib":"6+","altim":1010,"clouds":[{"cover":"SCT","base":2000},{"cover":"BKN","base":7000}],"obsTime":1776409200},"SBPS":{"icaoId":"SBPS","flightCategory":"VFR","rawOb":"METAR SBPS 170700Z COR 26006KT 9999 SCT015 22/22 Q1011","temp":22,"dewp":22,"wdir":260,"wspd":6,"visib":"6+","altim":1011,"clouds":[{"cover":"SCT","base":1500}],"obsTime":1776409200},"SBAX":{"icaoId":"SBAX","flightCategory":"VFR","rawOb":"METAR SBAX 170700Z AUTO VRB01KT CAVOK 18/13 Q1014","temp":18,"dewp":13,"wdir":"VRB","wspd":1,"visib":"6+","altim":1014,"clouds":[],"obsTime":1776409200},"SBSC":{"icaoId":"SBSC","flightCategory":"MVFR","rawOb":"METAR SBSC 170700Z 03004KT 6000 FEW010 SCT020 21/20 Q1010","temp":21,"dewp":20,"wdir":30,"wspd":4,"visib":3.73,"altim":1010,"clouds":[{"cover":"FEW","base":1000},{"cover":"SCT","base":2000}],"obsTime":1776409200},"SBDN":{"icaoId":"SBDN","flightCategory":"VFR","rawOb":"METAR SBDN 170700Z 05006KT CAVOK 23/17 Q1010","temp":23,"dewp":17,"wdir":50,"wspd":6,"visib":"6+","altim":1010,"clouds":[],"obsTime":1776409200},"SBKG":{"icaoId":"SBKG","flightCategory":"VFR","rawOb":"METAR SBKG 170700Z 16002KT 9999 SCT008 22/21 Q1011","temp":22,"dewp":21,"wdir":160,"wspd":2,"visib":"6+","altim":1011,"clouds":[{"cover":"SCT","base":800}],"obsTime":1776409200},"SBSR":{"icaoId":"SBSR","flightCategory":"VFR","rawOb":"METAR SBSR 170700Z 08003KT CAVOK 24/14 Q1011","temp":24,"dewp":14,"wdir":80,"wspd":3,"visib":"6+","altim":1011,"clouds":[],"obsTime":1776409200},"SBOI":{"icaoId":"SBOI","flightCategory":"VFR","rawOb":"METAR SBOI 170700Z AUTO VRB02KT 9999 // SCT020/// SCT041/// BKN054/// 25/25 Q1008","temp":25,"dewp":25,"wdir":"VRB","wspd":2,"visib":"6+","altim":1008,"clouds":[{"cover":"SCT","base":2000},{"cover":"SCT","base":4100},{"cover":"BKN","base":5400}],"obsTime":1776409200},"SBAR":{"icaoId":"SBAR","flightCategory":"VFR","rawOb":"METAR SBAR 170700Z 18003KT 120V240 9999 FEW020 25/22 Q1009","temp":25,"dewp":22,"wdir":180,"wspd":3,"visib":"6+","altim":1009,"clouds":[{"cover":"FEW","base":2000}],"obsTime":1776409200},"SBAN":{"icaoId":"SBAN","flightCategory":"VFR","rawOb":"METAR SBAN 170700Z 06004KT CAVOK 18/17 Q1018","temp":18,"dewp":17,"wdir":60,"wspd":4,"visib":"6+","altim":1018,"clouds":[],"obsTime":1776409200},"SBLE":{"icaoId":"SBLE","flightCategory":"VFR","rawOb":"METAR SBLE 170700Z AUTO 03003KT 350V070 9999 FEW041 ///// Q////","temp":null,"dewp":null,"wdir":30,"wspd":3,"visib":"6+","altim":null,"clouds":[{"cover":"FEW","base":4100}],"obsTime":1776409200},"SBJP":{"icaoId":"SBJP","flightCategory":"VFR","rawOb":"METAR SBJP 170700Z 19004KT 9999 FEW020 24/23 Q1008","temp":24,"dewp":23,"wdir":190,"wspd":4,"visib":"6+","altim":1008,"clouds":[{"cover":"FEW","base":2000}],"obsTime":1776409200}}}