{"updated":1775126403,"count":70,"data":{"SBBR":{"icaoId":"SBBR","flightCategory":"IFR","rawOb":"METAR SBBR 020900Z 11003KT 1800 R29L///// R11R/1000 R11L/P2000 R29R/P2000 BCFG VV003 18/18 Q1017","temp":18,"dewp":18,"wdir":110,"wspd":3,"visib":1.12,"altim":1017,"clouds":[{"cover":"OVX","base":300}],"obsTime":1775120400},"SBCB":{"icaoId":"SBCB","flightCategory":"VFR","rawOb":"METAR SBCB 020900Z 06013KT 9999 FEW010 SCT030 25/23 Q1013","temp":25,"dewp":23,"wdir":60,"wspd":13,"visib":"6+","altim":1013,"clouds":[{"cover":"FEW","base":1000},{"cover":"SCT","base":3000}],"obsTime":1775120400},"SBMK":{"icaoId":"SBMK","flightCategory":"VFR","rawOb":"METAR SBMK 020900Z 00000KT 9999 FEW024 SCT090 20/19 Q1016","temp":20,"dewp":19,"wdir":0,"wspd":0,"visib":"6+","altim":1016,"clouds":[{"cover":"FEW","base":2400},{"cover":"SCT","base":9000}],"obsTime":1775120400},"SBMO":{"icaoId":"SBMO","flightCategory":"MVFR","rawOb":"METAR SBMO 020900Z 26005KT 8000 -SHRA SCT013 FEW023TCU BKN040 23/23 Q1012","temp":23,"dewp":23,"wdir":260,"wspd":5,"visib":4.97,"altim":1012,"clouds":[{"cover":"SCT","base":1300},{"cover":"FEW","base":2300},{"cover":"BKN","base":4000}],"obsTime":1775120400},"SBCF":{"icaoId":"SBCF","flightCategory":"VFR","rawOb":"METAR SBCF 020900Z 17002KT 9999 FEW018 19/18 Q1018","temp":19,"dewp":18,"wdir":170,"wspd":2,"visib":"6+","altim":1018,"clouds":[{"cover":"FEW","base":1800}],"obsTime":1775120400},"SBFL":{"icaoId":"SBFL","flightCategory":"VFR","rawOb":"METAR SBFL 020900Z 32004KT 290V360 9999 FEW028 24/22 Q1011","temp":24,"dewp":22,"wdir":320,"wspd":4,"visib":"6+","altim":1011,"clouds":[{"cover":"FEW","base":2800}],"obsTime":1775120400},"SBMQ":{"icaoId":"SBMQ","flightCategory":"LIFR","rawOb":"METAR SBMQ 020900Z 22004KT 1600 +RA OVC011 24/24 Q1010 RERA","temp":24,"dewp":24,"wdir":220,"wspd":4,"visib":0.99,"altim":1010,"clouds":[{"cover":"OVC","base":1100}],"obsTime":1775120400},"SBNT":{"icaoId":"SBNT","flightCategory":"VFR","rawOb":"METAR SBNT 020900Z 25002KT 9999 FEW020 SCT100 24/23 Q1010","temp":24,"dewp":23,"wdir":250,"wspd":2,"visib":"6+","altim":1010,"clouds":[{"cover":"FEW","base":2000},{"cover":"SCT","base":10000}],"obsTime":1775120400},"SBFI":{"icaoId":"SBFI","flightCategory":"VFR","rawOb":"METAR SBFI 020900Z 09005KT 9999 FEW030 SCT100 21/21 Q1011","temp":21,"dewp":21,"wdir":90,"wspd":5,"visib":"6+","altim":1011,"clouds":[{"cover":"FEW","base":3000},{"cover":"SCT","base":10000}],"obsTime":1775120400},"SBMA":{"icaoId":"SBMA","flightCategory":"VFR","rawOb":"METAR SBMA 020900Z 00000KT 9999 SCT012 FEW025TCU SCT100 25/24 Q1010","temp":25,"dewp":24,"wdir":0,"wspd":0,"visib":"6+","altim":1010,"clouds":[{"cover":"SCT","base":1200},{"cover":"FEW","base":2500},{"cover":"SCT","base":10000}],"obsTime":1775120400},"SBBE":{"icaoId":"SBBE","flightCategory":"VFR","rawOb":"METAR SBBE 020900Z 03007KT 9999 SCT030 BKN032 25/24 Q1011","temp":25,"dewp":24,"wdir":30,"wspd":7,"visib":"6+","altim":1011,"clouds":[{"cover":"SCT","base":3000},{"cover":"BKN","base":3200}],"obsTime":1775120400},"SBME":{"icaoId":"SBME","flightCategory":"VFR","rawOb":"METAR SBME 020900Z 05006KT 9999 FEW030 25/23 Q1013","temp":25,"dewp":23,"wdir":50,"wspd":6,"visib":"6+","altim":1013,"clouds":[{"cover":"FEW","base":3000}],"obsTime":1775120400},"SBMG":{"icaoId":"SBMG","flightCategory":"VFR","rawOb":"METAR SBMG 020900Z AUTO 07005KT CAVOK 20/18 Q1013","temp":20,"dewp":18,"wdir":70,"wspd":5,"visib":"6+","altim":1013,"clouds":[],"obsTime":1775120400},"SBPA":{"icaoId":"SBPA","flightCategory":"VFR","rawOb":"METAR SBPA 020900Z VRB02KT CAVOK 21/20 Q1009","temp":21,"dewp":20,"wdir":"VRB","wspd":2,"visib":"6+","altim":1009,"clouds":[],"obsTime":1775120400},"SBPJ":{"icaoId":"SBPJ","flightCategory":"VFR","rawOb":"METAR SBPJ 020900Z 08003KT 9999 -RA FEW008 FEW033TCU OVC070 22/22 Q1012","temp":22,"dewp":22,"wdir":80,"wspd":3,"visib":"6+","altim":1012,"clouds":[{"cover":"FEW","base":800},{"cover":"FEW","base":3300},{"cover":"OVC","base":7000}],"obsTime":1775120400},"SBFZ":{"icaoId":"SBFZ","flightCategory":"LIFR","rawOb":"METAR SBFZ 020900Z 14006KT 1500 R31///// R13/P2000 RA BKN015 FEW025TCU 25/23 Q1010","temp":25,"dewp":23,"wdir":140,"wspd":6,"visib":0.93,"altim":1010,"clouds":[{"cover":"BKN","base":1500},{"cover":"FEW","base":2500}],"obsTime":1775120400},"SBGL":{"icaoId":"SBGL","flightCategory":"MVFR","rawOb":"METAR SBGL 020900Z 04002KT 7000 NSC 23/22 Q1012","temp":23,"dewp":22,"wdir":40,"wspd":2,"visib":4.35,"altim":1012,"clouds":[],"obsTime":1775120400},"SBPV":{"icaoId":"SBPV","flightCategory":"VFR","rawOb":"METAR SBPV 020900Z 00000KT 9999 SCT015 23/22 Q1010","temp":23,"dewp":22,"wdir":0,"wspd":0,"visib":"6+","altim":1010,"clouds":[{"cover":"SCT","base":1500}],"obsTime":1775120400},"SBCG":{"icaoId":"SBCG","flightCategory":"VFR","rawOb":"METAR SBCG 020900Z 06008KT CAVOK 22/17 Q1013","temp":22,"dewp":17,"wdir":60,"wspd":8,"visib":"6+","altim":1013,"clouds":[],"obsTime":1775120400},"SBRB":{"icaoId":"SBRB","flightCategory":"MVFR","rawOb":"METAR SBRB 020900Z 08002KT 7000 FEW001 SCT100 23/23 Q1010","temp":23,"dewp":23,"wdir":80,"wspd":2,"visib":4.35,"altim":1010,"clouds":[{"cover":"FEW","base":100},{"cover":"SCT","base":10000}],"obsTime":1775120400},"SBVT":{"icaoId":"SBVT","flightCategory":"VFR","rawOb":"METAR SBVT 020900Z 34002KT 9999 SCT020 22/22 Q1014","temp":22,"dewp":22,"wdir":340,"wspd":2,"visib":"6+","altim":1014,"clouds":[{"cover":"SCT","base":2000}],"obsTime":1775120400},"SBRF":{"icaoId":"SBRF","flightCategory":"IFR","rawOb":"SPECI SBRF 020848Z 07002KT 4000 -RA BR BKN015 BKN060 24/24 Q1011","temp":24,"dewp":24,"wdir":70,"wspd":2,"visib":2.49,"altim":1011,"clouds":[{"cover":"BKN","base":1500},{"cover":"BKN","base":6000}],"obsTime":1775119680},"SBBV":{"icaoId":"SBBV","flightCategory":"VFR","rawOb":"METAR SBBV 020900Z 09006KT 9999 BKN040 FEW045TCU BKN100 25/22 Q1010","temp":25,"dewp":22,"wdir":90,"wspd":6,"visib":"6+","altim":1010,"clouds":[{"cover":"BKN","base":4000},{"cover":"FEW","base":4500},{"cover":"BKN","base":10000}],"obsTime":1775120400},"SBSG":{"icaoId":"SBSG","flightCategory":"VFR","rawOb":"METAR SBSG 020900Z 22003KT 170V250 9999 SCT020 BKN090 23/23 Q1011","temp":23,"dewp":23,"wdir":220,"wspd":3,"visib":"6+","altim":1011,"clouds":[{"cover":"SCT","base":2000},{"cover":"BKN","base":9000}],"obsTime":1775120400},"SBGO":{"icaoId":"SBGO","flightCategory":"VFR","rawOb":"METAR SBGO 020900Z 12004KT 9999 FEW040 FEW050TCU BKN100 21/20 Q1016","temp":21,"dewp":20,"wdir":120,"wspd":4,"visib":"6+","altim":1016,"clouds":[{"cover":"FEW","base":4000},{"cover":"FEW","base":5000},{"cover":"BKN","base":10000}],"obsTime":1775120400},"SBSL":{"icaoId":"SBSL","flightCategory":"MVFR","rawOb":"METAR SBSL 020900Z 15007KT 5000 -RA FEW015 SCT017 BKN080 22/22 Q1010 RETS","temp":22,"dewp":22,"wdir":150,"wspd":7,"visib":3.11,"altim":1010,"clouds":[{"cover":"FEW","base":1500},{"cover":"SCT","base":1700},{"cover":"BKN","base":8000}],"obsTime":1775120400},"SBCP":{"icaoId":"SBCP","flightCategory":"VFR","rawOb":"METAR SBCP 021000Z 08004KT 9999 FEW030 SCT090 24/23 Q1015","temp":24,"dewp":23,"wdir":80,"wspd":4,"visib":"6+","altim":1015,"clouds":[{"cover":"FEW","base":3000},{"cover":"SCT","base":9000}],"obsTime":1775124000},"SBSN":{"icaoId":"SBSN","flightCategory":"VFR","rawOb":"METAR SBSN 020900Z 19003KT 110V220 9999 FEW018 23/22 Q1010","temp":23,"dewp":22,"wdir":190,"wspd":3,"visib":"6+","altim":1010,"clouds":[{"cover":"FEW","base":1800}],"obsTime":1775120400},"SBGR":{"icaoId":"SBGR","flightCategory":"VFR","rawOb":"METAR SBGR 020900Z 09005KT CAVOK 20/19 Q1016","temp":20,"dewp":19,"wdir":90,"wspd":5,"visib":"6+","altim":1016,"clouds":[],"obsTime":1775120400},"SBHT":{"icaoId":"SBHT","flightCategory":"VFR","rawOb":"METAR SBHT 021000Z 00000KT 9999 SCT010 BKN080 24/23 Q1011","temp":24,"dewp":23,"wdir":0,"wspd":0,"visib":"6+","altim":1011,"clouds":[{"cover":"SCT","base":1000},{"cover":"BKN","base":8000}],"obsTime":1775124000},"SBSP":{"icaoId":"SBSP","flightCategory":"VFR","rawOb":"METAR SBSP 020900Z 34002KT CAVOK 20/19 Q1017","temp":20,"dewp":19,"wdir":340,"wspd":2,"visib":"6+","altim":1017,"clouds":[],"obsTime":1775120400},"SBSV":{"icaoId":"SBSV","flightCategory":"VFR","rawOb":"METAR SBSV 020900Z 11005KT 9999 FEW021 SCT100 27/21 Q1012","temp":27,"dewp":21,"wdir":110,"wspd":5,"visib":"6+","altim":1012,"clouds":[{"cover":"FEW","base":2100},{"cover":"SCT","base":10000}],"obsTime":1775120400},"SBIL":{"icaoId":"SBIL","flightCategory":"VFR","rawOb":"METAR SBIL 021000Z 31004KT 260V330 9999 VCSH SCT018 SCT100 25/23 Q1013","temp":25,"dewp":23,"wdir":310,"wspd":4,"visib":"6+","altim":1013,"clouds":[{"cover":"SCT","base":1800},{"cover":"SCT","base":10000}],"obsTime":1775124000},"SBTE":{"icaoId":"SBTE","flightCategory":"MVFR","rawOb":"METAR SBTE 020900Z 25003KT 9999 BKN012 OVC070 25/24 Q1010 RERA","temp":25,"dewp":24,"wdir":250,"wspd":3,"visib":"6+","altim":1010,"clouds":[{"cover":"BKN","base":1200},{"cover":"OVC","base":7000}],"obsTime":1775120400},"SBJU":{"icaoId":"SBJU","flightCategory":"MVFR","rawOb":"METAR SBJU 020900Z 00000KT 9999 SCT006 BKN010 22/22 Q1013","temp":22,"dewp":22,"wdir":0,"wspd":0,"visib":"6+","altim":1013,"clouds":[{"cover":"SCT","base":600},{"cover":"BKN","base":1000}],"obsTime":1775120400},"SBUL":{"icaoId":"SBUL","flightCategory":"VFR","rawOb":"METAR SBUL 020900Z 09009KT 9999 FEW007 19/18 Q1017","temp":19,"dewp":18,"wdir":90,"wspd":9,"visib":"6+","altim":1017,"clouds":[{"cover":"FEW","base":700}],"obsTime":1775120400},"SBKP":{"icaoId":"SBKP","flightCategory":"VFR","rawOb":"METAR SBKP 020900Z 03002KT CAVOK 19/19 Q1016","temp":19,"dewp":19,"wdir":30,"wspd":2,"visib":"6+","altim":1016,"clouds":[],"obsTime":1775120400},"SBUR":{"icaoId":"SBUR","flightCategory":"VFR","rawOb":"METAR SBUR 020900Z 03005KT CAVOK 20/18 Q1016","temp":20,"dewp":18,"wdir":30,"wspd":5,"visib":"6+","altim":1016,"clouds":[],"obsTime":1775120400},"SBLO":{"icaoId":"SBLO","flightCategory":"LIFR","rawOb":"METAR SBLO 020900Z 18002KT 0900 R13/P2000 FG VV002 19/19 Q1014","temp":19,"dewp":19,"wdir":180,"wspd":2,"visib":0.56,"altim":1014,"clouds":[{"cover":"OVX","base":200}],"obsTime":1775120400},"SBCT":{"icaoId":"SBCT","flightCategory":"MVFR","rawOb":"METAR SBCT 020900Z 35004KT 9999 BKN013 18/17 Q1017","temp":18,"dewp":17,"wdir":350,"wspd":4,"visib":"6+","altim":1017,"clouds":[{"cover":"BKN","base":1300}],"obsTime":1775120400},"SBEG":{"icaoId":"SBEG","flightCategory":"VFR","rawOb":"METAR SBEG 020900Z 06002KT 9999 FEW007 27/23 Q1010","temp":27,"dewp":23,"wdir":60,"wspd":2,"visib":"6+","altim":1010,"clouds":[{"cover":"FEW","base":700}],"obsTime":1775120400},"SBCJ":{"icaoId":"SBCJ","flightCategory":"VFR","rawOb":"SPECI SBCJ 021015Z 26005KT CAVOK 21/20 Q1016","temp":21,"dewp":20,"wdir":260,"wspd":5,"visib":"6+","altim":1016,"clouds":[],"obsTime":1775124900},"SBPB":{"icaoId":"SBPB","flightCategory":"IFR","rawOb":"SPECI SBPB 021015Z 11003KT 4000 -TSRA SCT013 FEW025CB BKN080 24/22 Q1011","temp":24,"dewp":22,"wdir":110,"wspd":3,"visib":2.49,"altim":1011,"clouds":[{"cover":"SCT","base":1300},{"cover":"FEW","base":2500},{"cover":"BKN","base":8000}],"obsTime":1775124900},"SBBH":{"icaoId":"SBBH","flightCategory":"VFR","rawOb":"METAR SBBH 020900Z 00000KT 9999 FEW016 19/18 Q1018","temp":19,"dewp":18,"wdir":0,"wspd":0,"visib":"6+","altim":1018,"clouds":[{"cover":"FEW","base":1600}],"obsTime":1775120400},"SBSR":{"icaoId":"SBSR","flightCategory":"VFR","rawOb":"METAR SBSR 020900Z 08003KT 9999 -RA SCT025 BKN070 21/20 Q1014","temp":21,"dewp":20,"wdir":80,"wspd":3,"visib":"6+","altim":1014,"clouds":[{"cover":"SCT","base":2500},{"cover":"BKN","base":7000}],"obsTime":1775120400},"SBAX":{"icaoId":"SBAX","flightCategory":"VFR","rawOb":"METAR SBAX 020900Z AUTO 12004KT CAVOK ///// Q1018","temp":null,"dewp":null,"wdir":120,"wspd":4,"visib":"6+","altim":1018,"clouds":[],"obsTime":1775120400},"SBBU":{"icaoId":"SBBU","flightCategory":"VFR","rawOb":"METAR SBBU 020900Z 01003KT CAVOK 20/19 Q1015","temp":20,"dewp":19,"wdir":10,"wspd":3,"visib":"6+","altim":1015,"clouds":[],"obsTime":1775120400},"SBCO":{"icaoId":"SBCO","flightCategory":"VFR","rawOb":"METAR SBCO 020900Z 00000KT CAVOK 20/19 Q1010","temp":20,"dewp":19,"wdir":0,"wspd":0,"visib":"6+","altim":1010,"clouds":[],"obsTime":1775120400},"SBDN":{"icaoId":"SBDN","flightCategory":"VFR","rawOb":"METAR SBDN 020900Z 06004KT CAVOK 21/19 Q1013","temp":21,"dewp":19,"wdir":60,"wspd":4,"visib":"6+","altim":1013,"clouds":[],"obsTime":1775120400},"SBES":{"icaoId":"SBES","flightCategory":"VFR","rawOb":"METAR SBES 020900Z 06011KT 020V080 9999 FEW009 23/// Q1013","temp":null,"dewp":null,"wdir":60,"wspd":11,"visib":"6+","altim":1013,"clouds":[{"cover":"FEW","base":900}],"obsTime":1775120400},"SBIP":{"icaoId":"SBIP","flightCategory":"VFR","rawOb":"METAR SBIP 020900Z AUTO VRB01KT CAVOK 22/22 Q1015","temp":22,"dewp":22,"wdir":"VRB","wspd":1,"visib":"6+","altim":1015,"clouds":[],"obsTime":1775120400},"SBKG":{"icaoId":"SBKG","flightCategory":"VFR","rawOb":"METAR SBKG 020900Z 10003KT CAVOK 22/21 Q1013","temp":22,"dewp":21,"wdir":100,"wspd":3,"visib":"6+","altim":1013,"clouds":[],"obsTime":1775120400},"SBOI":{"icaoId":"SBOI","flightCategory":"VFR","rawOb":"METAR SBOI 021000Z AUTO 00000KT 9999 // FEW030/// SCT038/// 24/23 Q1011","temp":24,"dewp":23,"wdir":0,"wspd":0,"visib":"6+","altim":1011,"clouds":[{"cover":"FEW","base":3000},{"cover":"SCT","base":3800}],"obsTime":1775124000},"SBPL":{"icaoId":"SBPL","flightCategory":"VFR","rawOb":"METAR SBPL 020900Z 09005KT CAVOK 24/22 Q1013","temp":24,"dewp":22,"wdir":90,"wspd":5,"visib":"6+","altim":1013,"clouds":[],"obsTime":1775120400},"SBPS":{"icaoId":"SBPS","flightCategory":"VFR","rawOb":"METAR SBPS 020900Z 23004KT 9999 FEW015 23/23 Q1014","temp":23,"dewp":23,"wdir":230,"wspd":4,"visib":"6+","altim":1014,"clouds":[{"cover":"FEW","base":1500}],"obsTime":1775120400},"SBSC":{"icaoId":"SBSC","flightCategory":"VFR","rawOb":"METAR SBSC 020900Z 34005KT 9999 FEW040 SCT100 24/21 Q1012","temp":24,"dewp":21,"wdir":340,"wspd":5,"visib":"6+","altim":1012,"clouds":[{"cover":"FEW","base":4000},{"cover":"SCT","base":10000}],"obsTime":1775120400},"SBSJ":{"icaoId":"SBSJ","flightCategory":"MVFR","rawOb":"METAR SBSJ 020900Z 06003KT 6000 FEW007 OVC100 20/19 Q1016","temp":20,"dewp":19,"wdir":60,"wspd":3,"visib":3.73,"altim":1016,"clouds":[{"cover":"FEW","base":700},{"cover":"OVC","base":10000}],"obsTime":1775120400},"SBSM":{"icaoId":"SBSM","flightCategory":"MVFR","rawOb":"METAR SBSM 020900Z 09004KT 7000 3000E BCFG FEW001 19/19 Q1010","temp":19,"dewp":19,"wdir":90,"wspd":4,"visib":4.35,"altim":1010,"clouds":[{"cover":"FEW","base":100}],"obsTime":1775120400},"SBAR":{"icaoId":"SBAR","flightCategory":"MVFR","rawOb":"METAR SBAR 020900Z 14009KT 5000 -RA SCT010 OVC017 25/24 Q1011","temp":25,"dewp":24,"wdir":140,"wspd":9,"visib":3.11,"altim":1011,"clouds":[{"cover":"SCT","base":1000},{"cover":"OVC","base":1700}],"obsTime":1775120400},"SBJP":{"icaoId":"SBJP","flightCategory":"VFR","rawOb":"METAR SBJP 020900Z 21004KT 9999 SCT020 BKN070 24/23 Q1011","temp":24,"dewp":23,"wdir":210,"wspd":4,"visib":"6+","altim":1011,"clouds":[{"cover":"SCT","base":2000},{"cover":"BKN","base":7000}],"obsTime":1775120400},"SBLE":{"icaoId":"SBLE","flightCategory":"MVFR","rawOb":"METAR SBLE 020900Z AUTO VRB01KT 9999 FEW008 OVC024 ///// Q////","temp":null,"dewp":null,"wdir":"VRB","wspd":1,"visib":"6+","altim":null,"clouds":[{"cover":"FEW","base":800},{"cover":"OVC","base":2400}],"obsTime":1775120400},"SBJV":{"icaoId":"SBJV","flightCategory":"VFR","rawOb":"METAR SBJV 020900Z 00000KT CAVOK 21/21 Q1012","temp":21,"dewp":21,"wdir":0,"wspd":0,"visib":"6+","altim":1012,"clouds":[],"obsTime":1775120400},"SBPF":{"icaoId":"SBPF","flightCategory":"VFR","rawOb":"METAR SBPF 020900Z 04012KT 9999 SCT040 18/16 Q1014","temp":18,"dewp":16,"wdir":40,"wspd":12,"visib":"6+","altim":1014,"clouds":[{"cover":"SCT","base":4000}],"obsTime":1775120400},"SBAF":{"icaoId":"SBAF","flightCategory":"VFR","rawOb":"METAR SBAF 021000Z 24002KT 9999 FEW040 SCT100 23/23 Q1013","temp":23,"dewp":23,"wdir":240,"wspd":2,"visib":"6+","altim":1013,"clouds":[{"cover":"FEW","base":4000},{"cover":"SCT","base":10000}],"obsTime":1775124000},"SBGW":{"icaoId":"SBGW","flightCategory":"VFR","rawOb":"METAR SBGW 020900Z 25003KT 9999 FEW015 BKN100 20/17 Q1016","temp":20,"dewp":17,"wdir":250,"wspd":3,"visib":"6+","altim":1016,"clouds":[{"cover":"FEW","base":1500},{"cover":"BKN","base":10000}],"obsTime":1775120400},"SBJR":{"icaoId":"SBJR","flightCategory":"VFR","rawOb":"METAR SBJR 021000Z 00000KT 9999 SCT040 SCT100 24/24 Q1013","temp":24,"dewp":24,"wdir":0,"wspd":0,"visib":"6+","altim":1013,"clouds":[{"cover":"SCT","base":4000},{"cover":"SCT","base":10000}],"obsTime":1775124000},"SBLS":{"icaoId":"SBLS","flightCategory":"VFR","rawOb":"METAR SBLS 020900Z 14007KT 9999 FEW010 19/18 Q1018","temp":19,"dewp":18,"wdir":140,"wspd":7,"visib":"6+","altim":1018,"clouds":[{"cover":"FEW","base":1000}],"obsTime":1775120400},"SBMT":{"icaoId":"SBMT","flightCategory":"VFR","rawOb":"METAR SBMT 020900Z 00000KT CAVOK 19/18 Q1016","temp":19,"dewp":18,"wdir":0,"wspd":0,"visib":"6+","altim":1016,"clouds":[],"obsTime":1775120400},"SBTA":{"icaoId":"SBTA","flightCategory":"IFR","rawOb":"METAR SBTA 020900Z 09004KT 060V120 4000 -RA BR VCTS SCT010 FEW030CB BKN080 21/19 Q1015","temp":21,"dewp":19,"wdir":90,"wspd":4,"visib":2.49,"altim":1015,"clouds":[{"cover":"SCT","base":1000},{"cover":"FEW","base":3000},{"cover":"BKN","base":8000}],"obsTime":1775120400},"SBAN":{"icaoId":"SBAN","flightCategory":"VFR","rawOb":"METAR SBAN 020900Z 14004KT 9999 0700SW R06L/P2000N R24R/P2000N PRFG FEW003 SCT100 18/17 Q1018","temp":18,"dewp":17,"wdir":140,"wspd":4,"visib":"6+","altim":1018,"clouds":[{"cover":"FEW","base":300},{"cover":"SCT","base":10000}],"obsTime":1775120400}}}