{"updated":1776378456,"count":81,"data":{"SBGO":{"icaoId":"SBGO","flightCategory":"VFR","rawOb":"METAR SBGO 162100Z 14009KT 9999 VCSH SCT048 FEW049TCU 28/20 Q1012","temp":28,"dewp":20,"wdir":140,"wspd":9,"visib":"6+","altim":1012,"clouds":[{"cover":"SCT","base":4800},{"cover":"FEW","base":4900}],"obsTime":1776373200},"SBME":{"icaoId":"SBME","flightCategory":"VFR","rawOb":"METAR SBME 162100Z 18004KT CAVOK 24/21 Q1011","temp":24,"dewp":21,"wdir":180,"wspd":4,"visib":"6+","altim":1011,"clouds":[],"obsTime":1776373200},"SBFZ":{"icaoId":"SBFZ","flightCategory":"VFR","rawOb":"METAR SBFZ 162100Z 07005KT 9999 FEW020 SCT080 28/24 Q1008","temp":28,"dewp":24,"wdir":70,"wspd":5,"visib":"6+","altim":1008,"clouds":[{"cover":"FEW","base":2000},{"cover":"SCT","base":8000}],"obsTime":1776373200},"SBMG":{"icaoId":"SBMG","flightCategory":"VFR","rawOb":"METAR SBMG 162100Z 03005KT 9999 FEW045 SCT100 26/19 Q1010","temp":26,"dewp":19,"wdir":30,"wspd":5,"visib":"6+","altim":1010,"clouds":[{"cover":"FEW","base":4500},{"cover":"SCT","base":10000}],"obsTime":1776373200},"SBBV":{"icaoId":"SBBV","flightCategory":"VFR","rawOb":"METAR SBBV 162100Z 10008KT 9999 SCT040 FEW045TCU 33/21 Q1005","temp":33,"dewp":21,"wdir":100,"wspd":8,"visib":"6+","altim":1005,"clouds":[{"cover":"SCT","base":4000},{"cover":"FEW","base":4500}],"obsTime":1776373200},"SBMK":{"icaoId":"SBMK","flightCategory":"VFR","rawOb":"METAR SBMK 162100Z 16004KT 9999 FEW045 25/16 Q1013","temp":25,"dewp":16,"wdir":160,"wspd":4,"visib":"6+","altim":1013,"clouds":[{"cover":"FEW","base":4500}],"obsTime":1776373200},"SBCT":{"icaoId":"SBCT","flightCategory":"VFR","rawOb":"METAR SBCT 162100Z 09008KT 9999 BKN045 20/18 Q1014","temp":20,"dewp":18,"wdir":90,"wspd":8,"visib":"6+","altim":1014,"clouds":[{"cover":"BKN","base":4500}],"obsTime":1776373200},"SBMO":{"icaoId":"SBMO","flightCategory":"VFR","rawOb":"METAR SBMO 162100Z 15006KT 9999 SCT021 27/23 Q1010","temp":27,"dewp":23,"wdir":150,"wspd":6,"visib":"6+","altim":1010,"clouds":[{"cover":"SCT","base":2100}],"obsTime":1776373200},"SBGL":{"icaoId":"SBGL","flightCategory":"VFR","rawOb":"METAR SBGL 162100Z 13011KT 9999 FEW030 24/21 Q1011","temp":24,"dewp":21,"wdir":130,"wspd":11,"visib":"6+","altim":1011,"clouds":[{"cover":"FEW","base":3000}],"obsTime":1776373200},"SBMQ":{"icaoId":"SBMQ","flightCategory":"VFR","rawOb":"METAR SBMQ 162100Z 35006KT 9999 SCT019 BKN040 OVC070 26/25 Q1007","temp":26,"dewp":25,"wdir":350,"wspd":6,"visib":"6+","altim":1007,"clouds":[{"cover":"SCT","base":1900},{"cover":"BKN","base":4000},{"cover":"OVC","base":7000}],"obsTime":1776373200},"SBNT":{"icaoId":"SBNT","flightCategory":"VFR","rawOb":"METAR SBNT 162100Z 13008KT CAVOK 27/24 Q1008","temp":27,"dewp":24,"wdir":130,"wspd":8,"visib":"6+","altim":1008,"clouds":[],"obsTime":1776373200},"SBVT":{"icaoId":"SBVT","flightCategory":"VFR","rawOb":"METAR SBVT 162100Z 18008KT 9999 FEW040 SCT100 25/22 Q1011","temp":25,"dewp":22,"wdir":180,"wspd":8,"visib":"6+","altim":1011,"clouds":[{"cover":"FEW","base":4000},{"cover":"SCT","base":10000}],"obsTime":1776373200},"SBCP":{"icaoId":"SBCP","flightCategory":"VFR","rawOb":"METAR SBCP 162100Z COR 18005KT 9999 FEW020 24/22 Q1011","temp":24,"dewp":22,"wdir":180,"wspd":5,"visib":"6+","altim":1011,"clouds":[{"cover":"FEW","base":2000}],"obsTime":1776373200},"SBLO":{"icaoId":"SBLO","flightCategory":"VFR","rawOb":"METAR SBLO 162100Z 04004KT 9999 FEW020 27/18 Q1012","temp":27,"dewp":18,"wdir":40,"wspd":4,"visib":"6+","altim":1012,"clouds":[{"cover":"FEW","base":2000}],"obsTime":1776373200},"SBUR":{"icaoId":"SBUR","flightCategory":"VFR","rawOb":"METAR SBUR 162100Z 15006KT CAVOK 26/15 Q1013","temp":26,"dewp":15,"wdir":150,"wspd":6,"visib":"6+","altim":1013,"clouds":[],"obsTime":1776373200},"SBMA":{"icaoId":"SBMA","flightCategory":"VFR","rawOb":"METAR SBMA 162100Z 01003KT 9999 FEW023 FEW025TCU 30/26 Q1006","temp":30,"dewp":26,"wdir":10,"wspd":3,"visib":"6+","altim":1006,"clouds":[{"cover":"FEW","base":2300},{"cover":"FEW","base":2500}],"obsTime":1776373200},"SBFL":{"icaoId":"SBFL","flightCategory":"VFR","rawOb":"METAR SBFL 162100Z 02009KT 9999 FEW029 25/19 Q1010","temp":25,"dewp":19,"wdir":20,"wspd":9,"visib":"6+","altim":1010,"clouds":[{"cover":"FEW","base":2900}],"obsTime":1776373200},"SBPA":{"icaoId":"SBPA","flightCategory":"IFR","rawOb":"SPECI SBPA 162040Z 27012G25KT 4000 -RA VCSH VCTS FEW020CB BKN025 25/21 Q1005","temp":25,"dewp":21,"wdir":270,"wspd":12,"visib":2.49,"altim":1005,"clouds":[{"cover":"FEW","base":2000},{"cover":"BKN","base":2500}],"obsTime":1776372000},"SBCF":{"icaoId":"SBCF","flightCategory":"VFR","rawOb":"METAR SBCF 162100Z 08006KT 9999 FEW045 24/15 Q1014","temp":24,"dewp":15,"wdir":80,"wspd":6,"visib":"6+","altim":1014,"clouds":[{"cover":"FEW","base":4500}],"obsTime":1776373200},"SBPJ":{"icaoId":"SBPJ","flightCategory":"VFR","rawOb":"METAR SBPJ 162100Z VRB01KT 9999 FEW030 26/25 Q1008","temp":26,"dewp":25,"wdir":"VRB","wspd":1,"visib":"6+","altim":1008,"clouds":[{"cover":"FEW","base":3000}],"obsTime":1776373200},"SBCG":{"icaoId":"SBCG","flightCategory":"VFR","rawOb":"METAR SBCG 162100Z 28005KT 9999 VCSH VCTS SCT040 FEW045CB BKN070 29/22 Q1010","temp":29,"dewp":22,"wdir":280,"wspd":5,"visib":"6+","altim":1010,"clouds":[{"cover":"SCT","base":4000},{"cover":"FEW","base":4500},{"cover":"BKN","base":7000}],"obsTime":1776373200},"SBPV":{"icaoId":"SBPV","flightCategory":"MVFR","rawOb":"METAR SBPV 162100Z 28003KT 9999 BKN015 FEW035TCU BKN040 26/22 Q1005","temp":26,"dewp":22,"wdir":280,"wspd":3,"visib":"6+","altim":1005,"clouds":[{"cover":"BKN","base":1500},{"cover":"FEW","base":3500},{"cover":"BKN","base":4000}],"obsTime":1776373200},"SBGR":{"icaoId":"SBGR","flightCategory":"VFR","rawOb":"METAR SBGR 162100Z 11009KT CAVOK 24/18 Q1014","temp":24,"dewp":18,"wdir":110,"wspd":9,"visib":"6+","altim":1014,"clouds":[],"obsTime":1776373200},"SBRB":{"icaoId":"SBRB","flightCategory":"MVFR","rawOb":"METAR SBRB 162100Z 23008KT 160V260 8000 BKN025 FEW040TCU BKN090 29/25 Q1007","temp":29,"dewp":25,"wdir":230,"wspd":8,"visib":4.97,"altim":1007,"clouds":[{"cover":"BKN","base":2500},{"cover":"FEW","base":4000},{"cover":"BKN","base":9000}],"obsTime":1776373200},"SBRF":{"icaoId":"SBRF","flightCategory":"VFR","rawOb":"METAR SBRF 162100Z 15014KT 9999 SCT021 SCT080 28/24 Q1009","temp":28,"dewp":24,"wdir":150,"wspd":14,"visib":"6+","altim":1009,"clouds":[{"cover":"SCT","base":2100},{"cover":"SCT","base":8000}],"obsTime":1776373200},"SBCZ":{"icaoId":"SBCZ","flightCategory":"VFR","rawOb":"METAR SBCZ 162100Z 21003KT 170V240 9999 SCT030 FEW035TCU SCT100 29/25 Q1006","temp":29,"dewp":25,"wdir":210,"wspd":3,"visib":"6+","altim":1006,"clouds":[{"cover":"SCT","base":3000},{"cover":"FEW","base":3500},{"cover":"SCT","base":10000}],"obsTime":1776373200},"SBSG":{"icaoId":"SBSG","flightCategory":"VFR","rawOb":"METAR SBSG 162100Z 12006KT 9999 FEW020 27/24 Q1009","temp":27,"dewp":24,"wdir":120,"wspd":6,"visib":"6+","altim":1009,"clouds":[{"cover":"FEW","base":2000}],"obsTime":1776373200},"SBEG":{"icaoId":"SBEG","flightCategory":"VFR","rawOb":"METAR SBEG 162100Z 04004KT 340V070 9999 SCT025 FEW030TCU 32/24 Q1004","temp":32,"dewp":24,"wdir":40,"wspd":4,"visib":"6+","altim":1004,"clouds":[{"cover":"SCT","base":2500},{"cover":"FEW","base":3000}],"obsTime":1776373200},"SBSL":{"icaoId":"SBSL","flightCategory":"VFR","rawOb":"METAR SBSL 162100Z 09007KT 9999 SCT025 SCT080 27/24 Q1007","temp":27,"dewp":24,"wdir":90,"wspd":7,"visib":"6+","altim":1007,"clouds":[{"cover":"SCT","base":2500},{"cover":"SCT","base":8000}],"obsTime":1776373200},"SBIL":{"icaoId":"SBIL","flightCategory":"VFR","rawOb":"METAR SBIL 162100Z 17007KT CAVOK 28/23 Q1010","temp":28,"dewp":23,"wdir":170,"wspd":7,"visib":"6+","altim":1010,"clouds":[],"obsTime":1776373200},"SBBR":{"icaoId":"SBBR","flightCategory":"VFR","rawOb":"METAR SBBR 162100Z 14008KT 9999 SCT040 FEW045TCU SCT100 25/18 Q1014","temp":25,"dewp":18,"wdir":140,"wspd":8,"visib":"6+","altim":1014,"clouds":[{"cover":"SCT","base":4000},{"cover":"FEW","base":4500},{"cover":"SCT","base":10000}],"obsTime":1776373200},"SBSN":{"icaoId":"SBSN","flightCategory":"VFR","rawOb":"METAR SBSN 162100Z 09005KT 9999 FEW030 FEW040TCU BKN080 30/25 Q1005","temp":30,"dewp":25,"wdir":90,"wspd":5,"visib":"6+","altim":1005,"clouds":[{"cover":"FEW","base":3000},{"cover":"FEW","base":4000},{"cover":"BKN","base":8000}],"obsTime":1776373200},"SBSP":{"icaoId":"SBSP","flightCategory":"VFR","rawOb":"METAR SBSP 162100Z 20009KT 170V230 CAVOK 21/18 Q1015","temp":21,"dewp":18,"wdir":200,"wspd":9,"visib":"6+","altim":1015,"clouds":[],"obsTime":1776373200},"SBJU":{"icaoId":"SBJU","flightCategory":"VFR","rawOb":"METAR SBJU 162100Z 05002KT 9999 FEW022 27/22 Q1010","temp":27,"dewp":22,"wdir":50,"wspd":2,"visib":"6+","altim":1010,"clouds":[{"cover":"FEW","base":2200}],"obsTime":1776373200},"SBKP":{"icaoId":"SBKP","flightCategory":"VFR","rawOb":"METAR SBKP 162100Z 21004KT 160V240 CAVOK 27/13 Q1013","temp":27,"dewp":13,"wdir":210,"wspd":4,"visib":"6+","altim":1013,"clouds":[],"obsTime":1776373200},"SBSV":{"icaoId":"SBSV","flightCategory":"VFR","rawOb":"METAR SBSV 162100Z 14007KT 120V200 CAVOK 28/22 Q1009","temp":28,"dewp":22,"wdir":140,"wspd":7,"visib":"6+","altim":1009,"clouds":[],"obsTime":1776373200},"SBTE":{"icaoId":"SBTE","flightCategory":"VFR","rawOb":"METAR SBTE 162100Z 02011KT 9999 SCT025 FEW040TCU SCT070 28/24 Q1007","temp":28,"dewp":24,"wdir":20,"wspd":11,"visib":"6+","altim":1007,"clouds":[{"cover":"SCT","base":2500},{"cover":"FEW","base":4000},{"cover":"SCT","base":7000}],"obsTime":1776373200},"SBFI":{"icaoId":"SBFI","flightCategory":"MVFR","rawOb":"METAR SBFI 162100Z 28003KT 9999 SCT017 BKN030 25/22 Q1009","temp":25,"dewp":22,"wdir":280,"wspd":3,"visib":"6+","altim":1009,"clouds":[{"cover":"SCT","base":1700},{"cover":"BKN","base":3000}],"obsTime":1776373200},"SBBE":{"icaoId":"SBBE","flightCategory":"VFR","rawOb":"METAR SBBE 162100Z 04006KT 9999 SCT038 27/24 Q1007","temp":27,"dewp":24,"wdir":40,"wspd":6,"visib":"6+","altim":1007,"clouds":[{"cover":"SCT","base":3800}],"obsTime":1776373200},"SBUL":{"icaoId":"SBUL","flightCategory":"VFR","rawOb":"METAR SBUL 162100Z 04004KT 9999 FEW049 FEW052TCU 25/15 Q1014","temp":25,"dewp":15,"wdir":40,"wspd":4,"visib":"6+","altim":1014,"clouds":[{"cover":"FEW","base":4900},{"cover":"FEW","base":5200}],"obsTime":1776373200},"SBCB":{"icaoId":"SBCB","flightCategory":"VFR","rawOb":"METAR SBCB 162100Z 14005KT 9999 SCT020 25/20 Q1012","temp":25,"dewp":20,"wdir":140,"wspd":5,"visib":"6+","altim":1012,"clouds":[{"cover":"SCT","base":2000}],"obsTime":1776373200},"SBCR":{"icaoId":"SBCR","flightCategory":"VFR","rawOb":"METAR SBCR 162100Z 25008KT 9999 SCT030 29/24 Q1007","temp":29,"dewp":24,"wdir":250,"wspd":8,"visib":"6+","altim":1007,"clouds":[{"cover":"SCT","base":3000}],"obsTime":1776373200},"SBHT":{"icaoId":"SBHT","flightCategory":"VFR","rawOb":"METAR SBHT 162100Z 02003KT 9999 FEW023 SCT090 29/26 Q1006","temp":29,"dewp":26,"wdir":20,"wspd":3,"visib":"6+","altim":1006,"clouds":[{"cover":"FEW","base":2300},{"cover":"SCT","base":9000}],"obsTime":1776373200},"SBAT":{"icaoId":"SBAT","flightCategory":"VFR","rawOb":"METAR SBAT 162100Z 00000KT 9999 -RA FEW035 FEW040TCU 25/25 Q1007 RETS","temp":25,"dewp":25,"wdir":0,"wspd":0,"visib":"6+","altim":1007,"clouds":[{"cover":"FEW","base":3500},{"cover":"FEW","base":4000}],"obsTime":1776373200},"SBSM":{"icaoId":"SBSM","flightCategory":"VFR","rawOb":"METAR SBSM 162100Z 32004KT 9999 SCT040 BKN070 25/19 Q1006","temp":25,"dewp":19,"wdir":320,"wspd":4,"visib":"6+","altim":1006,"clouds":[{"cover":"SCT","base":4000},{"cover":"BKN","base":7000}],"obsTime":1776373200},"SBAR":{"icaoId":"SBAR","flightCategory":"VFR","rawOb":"METAR SBAR 162100Z 14007KT 9999 SCT024 28/23 Q1009","temp":28,"dewp":23,"wdir":140,"wspd":7,"visib":"6+","altim":1009,"clouds":[{"cover":"SCT","base":2400}],"obsTime":1776373200},"SBAX":{"icaoId":"SBAX","flightCategory":"VFR","rawOb":"METAR SBAX 162100Z 08005KT 9999 FEW035 25/12 Q1015","temp":25,"dewp":12,"wdir":80,"wspd":5,"visib":"6+","altim":1015,"clouds":[{"cover":"FEW","base":3500}],"obsTime":1776373200},"SBBH":{"icaoId":"SBBH","flightCategory":"VFR","rawOb":"METAR SBBH 162100Z 07004KT CAVOK 25/15 Q1014","temp":25,"dewp":15,"wdir":70,"wspd":4,"visib":"6+","altim":1014,"clouds":[],"obsTime":1776373200},"SBBU":{"icaoId":"SBBU","flightCategory":"VFR","rawOb":"METAR SBBU 162100Z 12004KT CAVOK 27/18 Q1012","temp":27,"dewp":18,"wdir":120,"wspd":4,"visib":"6+","altim":1012,"clouds":[],"obsTime":1776373200},"SBCO":{"icaoId":"SBCO","flightCategory":"IFR","rawOb":"METAR SBCO 162100Z 24012KT 3000 TSRA FEW009 BKN035 FEW040CB BKN070 25/21 Q1006","temp":25,"dewp":21,"wdir":240,"wspd":12,"visib":1.86,"altim":1006,"clouds":[{"cover":"FEW","base":900},{"cover":"BKN","base":3500},{"cover":"FEW","base":4000},{"cover":"BKN","base":7000}],"obsTime":1776373200},"SBDN":{"icaoId":"SBDN","flightCategory":"VFR","rawOb":"METAR SBDN 162100Z 08004KT CAVOK 29/18 Q1010","temp":29,"dewp":18,"wdir":80,"wspd":4,"visib":"6+","altim":1010,"clouds":[],"obsTime":1776373200},"SBES":{"icaoId":"SBES","flightCategory":"VFR","rawOb":"METAR SBES 162100Z 12004KT 010V160 9999 FEW040 24/// Q1012","temp":null,"dewp":null,"wdir":120,"wspd":4,"visib":"6+","altim":1012,"clouds":[{"cover":"FEW","base":4000}],"obsTime":1776373200},"SBIP":{"icaoId":"SBIP","flightCategory":"VFR","rawOb":"METAR SBIP 162100Z AUTO 00000KT CAVOK 22/19 Q1011","temp":22,"dewp":19,"wdir":0,"wspd":0,"visib":"6+","altim":1011,"clouds":[],"obsTime":1776373200},"SBKG":{"icaoId":"SBKG","flightCategory":"VFR","rawOb":"METAR SBKG 162100Z 09007KT 9999 FEW025 26/21 Q1011","temp":26,"dewp":21,"wdir":90,"wspd":7,"visib":"6+","altim":1011,"clouds":[{"cover":"FEW","base":2500}],"obsTime":1776373200},"SBOI":{"icaoId":"SBOI","flightCategory":"VFR","rawOb":"METAR SBOI 162100Z AUTO 04006KT 010V080 9999 FEW023 28/24 Q1008","temp":28,"dewp":24,"wdir":40,"wspd":6,"visib":"6+","altim":1008,"clouds":[{"cover":"FEW","base":2300}],"obsTime":1776373200},"SBPL":{"icaoId":"SBPL","flightCategory":"VFR","rawOb":"METAR SBPL 162100Z 10006KT 9999 FEW035 31/17 Q1009","temp":31,"dewp":17,"wdir":100,"wspd":6,"visib":"6+","altim":1009,"clouds":[{"cover":"FEW","base":3500}],"obsTime":1776373200},"SBPS":{"icaoId":"SBPS","flightCategory":"VFR","rawOb":"METAR SBPS 162100Z 17005KT 070V220 9999 FEW020 FEW025TCU 26/23 Q1010","temp":26,"dewp":23,"wdir":170,"wspd":5,"visib":"6+","altim":1010,"clouds":[{"cover":"FEW","base":2000},{"cover":"FEW","base":2500}],"obsTime":1776373200},"SBSC":{"icaoId":"SBSC","flightCategory":"VFR","rawOb":"METAR SBSC 162100Z 22005KT CAVOK 24/21 Q1012","temp":24,"dewp":21,"wdir":220,"wspd":5,"visib":"6+","altim":1012,"clouds":[],"obsTime":1776373200},"SBSJ":{"icaoId":"SBSJ","flightCategory":"VFR","rawOb":"METAR SBSJ 162100Z 12007KT CAVOK 23/16 Q1013","temp":23,"dewp":16,"wdir":120,"wspd":7,"visib":"6+","altim":1013,"clouds":[],"obsTime":1776373200},"SBSR":{"icaoId":"SBSR","flightCategory":"VFR","rawOb":"METAR SBSR 162100Z 17005KT 9999 FEW021 SCT070 29/15 Q1011","temp":29,"dewp":15,"wdir":170,"wspd":5,"visib":"6+","altim":1011,"clouds":[{"cover":"FEW","base":2100},{"cover":"SCT","base":7000}],"obsTime":1776373200},"SBTF":{"icaoId":"SBTF","flightCategory":"VFR","rawOb":"METAR SBTF 162100Z 33002KT 9999 FEW020 30/25 Q1005","temp":30,"dewp":25,"wdir":330,"wspd":2,"visib":"6+","altim":1005,"clouds":[{"cover":"FEW","base":2000}],"obsTime":1776373200},"SBTT":{"icaoId":"SBTT","flightCategory":"VFR","rawOb":"METAR SBTT 162100Z 34002KT 9999 SCT025 30/24 Q1005","temp":30,"dewp":24,"wdir":340,"wspd":2,"visib":"6+","altim":1005,"clouds":[{"cover":"SCT","base":2500}],"obsTime":1776373200},"SBUY":{"icaoId":"SBUY","flightCategory":"VFR","rawOb":"METAR SBUY 162100Z 10003KT 9999 -RA SCT025 BKN090 27/25 Q1004","temp":27,"dewp":25,"wdir":100,"wspd":3,"visib":"6+","altim":1004,"clouds":[{"cover":"SCT","base":2500},{"cover":"BKN","base":9000}],"obsTime":1776373200},"SBVH":{"icaoId":"SBVH","flightCategory":"VFR","rawOb":"METAR SBVH 162100Z 18003KT 9000 FEW006 BKN035 BKN080 23/22 Q1010","temp":23,"dewp":22,"wdir":180,"wspd":3,"visib":5.59,"altim":1010,"clouds":[{"cover":"FEW","base":600},{"cover":"BKN","base":3500},{"cover":"BKN","base":8000}],"obsTime":1776373200},"SBPB":{"icaoId":"SBPB","flightCategory":"VFR","rawOb":"METAR SBPB 162100Z 04006KT 9999 SCT016 OVC090 26/24 Q1008 RETSRA","temp":26,"dewp":24,"wdir":40,"wspd":6,"visib":"6+","altim":1008,"clouds":[{"cover":"SCT","base":1600},{"cover":"OVC","base":9000}],"obsTime":1776373200},"SBCJ":{"icaoId":"SBCJ","flightCategory":"VFR","rawOb":"METAR SBCJ 162100Z 00000KT 9999 FEW020 26/22 Q1011","temp":26,"dewp":22,"wdir":0,"wspd":0,"visib":"6+","altim":1011,"clouds":[{"cover":"FEW","base":2000}],"obsTime":1776373200},"SBPP":{"icaoId":"SBPP","flightCategory":"MVFR","rawOb":"METAR SBPP 162100Z 20007KT 9999 BKN015 24/21 Q1011","temp":24,"dewp":21,"wdir":200,"wspd":7,"visib":"6+","altim":1011,"clouds":[{"cover":"BKN","base":1500}],"obsTime":1776373200},"SBCA":{"icaoId":"SBCA","flightCategory":"VFR","rawOb":"METAR SBCA 162100Z 01010KT 9999 SCT025 FEW030TCU 23/20 Q1012","temp":23,"dewp":20,"wdir":10,"wspd":10,"visib":"6+","altim":1012,"clouds":[{"cover":"SCT","base":2500},{"cover":"FEW","base":3000}],"obsTime":1776373200},"SBTA":{"icaoId":"SBTA","flightCategory":"VFR","rawOb":"METAR SBTA 162100Z VRB01KT CAVOK 23/14 Q1012","temp":23,"dewp":14,"wdir":"VRB","wspd":1,"visib":"6+","altim":1012,"clouds":[],"obsTime":1776373200},"SBJP":{"icaoId":"SBJP","flightCategory":"VFR","rawOb":"METAR SBJP 162100Z 15010KT CAVOK 27/24 Q1009","temp":27,"dewp":24,"wdir":150,"wspd":10,"visib":"6+","altim":1009,"clouds":[],"obsTime":1776373200},"SBAN":{"icaoId":"SBAN","flightCategory":"VFR","rawOb":"METAR SBAN 162100Z 16008KT 9999 VCSH SCT035 FEW040TCU BKN070 22/18 Q1015","temp":22,"dewp":18,"wdir":160,"wspd":8,"visib":"6+","altim":1015,"clouds":[{"cover":"SCT","base":3500},{"cover":"FEW","base":4000},{"cover":"BKN","base":7000}],"obsTime":1776373200},"SBJV":{"icaoId":"SBJV","flightCategory":"VFR","rawOb":"METAR SBJV 162100Z 02005KT 9999 FEW020 25/21 Q1010","temp":25,"dewp":21,"wdir":20,"wspd":5,"visib":"6+","altim":1010,"clouds":[{"cover":"FEW","base":2000}],"obsTime":1776373200},"SBLE":{"icaoId":"SBLE","flightCategory":"VFR","rawOb":"METAR SBLE 162100Z AUTO 00000KT CAVOK 24/24 Q1012","temp":24,"dewp":24,"wdir":0,"wspd":0,"visib":"6+","altim":1012,"clouds":[],"obsTime":1776373200},"SBAF":{"icaoId":"SBAF","flightCategory":"VFR","rawOb":"METAR SBAF 162100Z 17009KT 9999 FEW025 SCT060 24/22 Q1011","temp":24,"dewp":22,"wdir":170,"wspd":9,"visib":"6+","altim":1011,"clouds":[{"cover":"FEW","base":2500},{"cover":"SCT","base":6000}],"obsTime":1776373200},"SBGW":{"icaoId":"SBGW","flightCategory":"VFR","rawOb":"METAR SBGW 162100Z 35003KT CAVOK 23/14 Q1013","temp":23,"dewp":14,"wdir":350,"wspd":3,"visib":"6+","altim":1013,"clouds":[],"obsTime":1776373200},"SBJR":{"icaoId":"SBJR","flightCategory":"VFR","rawOb":"METAR SBJR 162100Z 18003KT 9999 FEW017 24/21 Q1011","temp":24,"dewp":21,"wdir":180,"wspd":3,"visib":"6+","altim":1011,"clouds":[{"cover":"FEW","base":1700}],"obsTime":1776373200},"SBLS":{"icaoId":"SBLS","flightCategory":"VFR","rawOb":"METAR SBLS 162100Z 11005KT 9999 FEW048 23/16 Q1014","temp":23,"dewp":16,"wdir":110,"wspd":5,"visib":"6+","altim":1014,"clouds":[{"cover":"FEW","base":4800}],"obsTime":1776373200},"SBMT":{"icaoId":"SBMT","flightCategory":"VFR","rawOb":"METAR SBMT 162100Z 16007KT 120V180 CAVOK 23/18 Q1014","temp":23,"dewp":18,"wdir":160,"wspd":7,"visib":"6+","altim":1014,"clouds":[],"obsTime":1776373200},"SBST":{"icaoId":"SBST","flightCategory":"VFR","rawOb":"METAR SBST 162100Z 17005KT 9999 FEW025 23/19 Q1011","temp":23,"dewp":19,"wdir":170,"wspd":5,"visib":"6+","altim":1011,"clouds":[{"cover":"FEW","base":2500}],"obsTime":1776373200},"SBPF":{"icaoId":"SBPF","flightCategory":"VFR","rawOb":"METAR SBPF 162100Z 31009KT 9999 BKN040 23/18 Q1011","temp":23,"dewp":18,"wdir":310,"wspd":9,"visib":"6+","altim":1011,"clouds":[{"cover":"BKN","base":4000}],"obsTime":1776373200},"SBIH":{"icaoId":"SBIH","flightCategory":"VFR","rawOb":"METAR SBIH 162100Z 08005KT 9999 SCT020 30/24 Q1005","temp":30,"dewp":24,"wdir":80,"wspd":5,"visib":"6+","altim":1005,"clouds":[{"cover":"SCT","base":2000}],"obsTime":1776373200}}}