{"updated":1782749666,"count":87,"data":{"SBFL":{"icaoId":"SBFL","flightCategory":"MVFR","rawOb":"METAR SBFL 291500Z 18009KT 140V210 9999 VCSH OVC030 17/12 Q1020","temp":17,"dewp":12,"wdir":180,"wspd":9,"visib":"6+","altim":1020,"clouds":[{"cover":"OVC","base":3000}],"obsTime":1782745200},"SBBE":{"icaoId":"SBBE","flightCategory":"MVFR","rawOb":"METAR SBBE 291500Z 11014KT 9999 BKN026 FEW031TCU 30/24 Q1014","temp":30,"dewp":24,"wdir":110,"wspd":14,"visib":"6+","altim":1014,"clouds":[{"cover":"BKN","base":2600},{"cover":"FEW","base":3100}],"obsTime":1782745200},"SBMO":{"icaoId":"SBMO","flightCategory":"MVFR","rawOb":"METAR SBMO 291500Z 06013KT 9999 BKN025 27/23 Q1017","temp":27,"dewp":23,"wdir":60,"wspd":13,"visib":"6+","altim":1017,"clouds":[{"cover":"BKN","base":2500}],"obsTime":1782745200},"SBCF":{"icaoId":"SBCF","flightCategory":"VFR","rawOb":"METAR SBCF 291500Z 04006KT CAVOK 23/12 Q1024","temp":23,"dewp":12,"wdir":40,"wspd":6,"visib":"6+","altim":1024,"clouds":[],"obsTime":1782745200},"SBEG":{"icaoId":"SBEG","flightCategory":"VFR","rawOb":"METAR SBEG 291500Z 10010KT 9999 FEW030 BKN100 30/24 Q1014","temp":30,"dewp":24,"wdir":100,"wspd":10,"visib":"6+","altim":1014,"clouds":[{"cover":"FEW","base":3000},{"cover":"BKN","base":10000}],"obsTime":1782745200},"SBRF":{"icaoId":"SBRF","flightCategory":"VFR","rawOb":"METAR SBRF 291500Z 12011KT 9999 SCT020 29/23 Q1016","temp":29,"dewp":23,"wdir":120,"wspd":11,"visib":"6+","altim":1016,"clouds":[{"cover":"SCT","base":2000}],"obsTime":1782745200},"SBBR":{"icaoId":"SBBR","flightCategory":"VFR","rawOb":"METAR SBBR 291500Z 11008KT 060V160 CAVOK 23/13 Q1024","temp":23,"dewp":13,"wdir":110,"wspd":8,"visib":"6+","altim":1024,"clouds":[],"obsTime":1782745200},"SBSL":{"icaoId":"SBSL","flightCategory":"VFR","rawOb":"METAR SBSL 291500Z 10007KT 9999 SCT027 30/24 Q1013","temp":30,"dewp":24,"wdir":100,"wspd":7,"visib":"6+","altim":1013,"clouds":[{"cover":"SCT","base":2700}],"obsTime":1782745200},"SBBV":{"icaoId":"SBBV","flightCategory":"VFR","rawOb":"METAR SBBV 291500Z 12009KT 9999 SCT020 BKN080 29/24 Q1014","temp":29,"dewp":24,"wdir":120,"wspd":9,"visib":"6+","altim":1014,"clouds":[{"cover":"SCT","base":2000},{"cover":"BKN","base":8000}],"obsTime":1782745200},"SBSG":{"icaoId":"SBSG","flightCategory":"MVFR","rawOb":"METAR SBSG 291500Z 12008KT 090V170 9999 VCSH BKN025 FEW030TCU BKN040 27/24 Q1015","temp":27,"dewp":24,"wdir":120,"wspd":8,"visib":"6+","altim":1015,"clouds":[{"cover":"BKN","base":2500},{"cover":"FEW","base":3000},{"cover":"BKN","base":4000}],"obsTime":1782745200},"SBCZ":{"icaoId":"SBCZ","flightCategory":"VFR","rawOb":"METAR SBCZ 291500Z 16007KT CAVOK 27/22 Q1016","temp":27,"dewp":22,"wdir":160,"wspd":7,"visib":"6+","altim":1016,"clouds":[],"obsTime":1782745200},"SBNT":{"icaoId":"SBNT","flightCategory":"VFR","rawOb":"METAR SBNT 291500Z 13016KT 9000 -SHRA SCT026 BKN100 29/22 Q1015","temp":29,"dewp":22,"wdir":130,"wspd":16,"visib":5.59,"altim":1015,"clouds":[{"cover":"SCT","base":2600},{"cover":"BKN","base":10000}],"obsTime":1782745200},"SBCP":{"icaoId":"SBCP","flightCategory":"VFR","rawOb":"METAR SBCP 291500Z 35008KT 9999 SCT020 29/16 Q1020","temp":29,"dewp":16,"wdir":350,"wspd":8,"visib":"6+","altim":1020,"clouds":[{"cover":"SCT","base":2000}],"obsTime":1782745200},"SBGL":{"icaoId":"SBGL","flightCategory":"VFR","rawOb":"METAR SBGL 291500Z 06003KT 310V110 CAVOK 29/18 Q1018","temp":29,"dewp":18,"wdir":60,"wspd":3,"visib":"6+","altim":1018,"clouds":[],"obsTime":1782745200},"SBPV":{"icaoId":"SBPV","flightCategory":"VFR","rawOb":"METAR SBPV 291500Z 21003KT 9999 FEW020 32/23 Q1014","temp":32,"dewp":23,"wdir":210,"wspd":3,"visib":"6+","altim":1014,"clouds":[{"cover":"FEW","base":2000}],"obsTime":1782745200},"SBIL":{"icaoId":"SBIL","flightCategory":"VFR","rawOb":"METAR SBIL 291500Z 18006KT 140V230 9999 FEW023 28/21 Q1019","temp":28,"dewp":21,"wdir":180,"wspd":6,"visib":"6+","altim":1019,"clouds":[{"cover":"FEW","base":2300}],"obsTime":1782745200},"SBJU":{"icaoId":"SBJU","flightCategory":"VFR","rawOb":"METAR SBJU 291500Z 09004KT 9999 FEW022 30/16 Q1017","temp":30,"dewp":16,"wdir":90,"wspd":4,"visib":"6+","altim":1017,"clouds":[{"cover":"FEW","base":2200}],"obsTime":1782745200},"SBMG":{"icaoId":"SBMG","flightCategory":"VFR","rawOb":"METAR SBMG 291500Z 36011KT 9999 FEW030 26/19 Q1018","temp":26,"dewp":19,"wdir":360,"wspd":11,"visib":"6+","altim":1018,"clouds":[{"cover":"FEW","base":3000}],"obsTime":1782745200},"SBSV":{"icaoId":"SBSV","flightCategory":"VFR","rawOb":"METAR SBSV 291500Z 12010KT 9999 SCT030 SCT050 28/20 Q1018","temp":28,"dewp":20,"wdir":120,"wspd":10,"visib":"6+","altim":1018,"clouds":[{"cover":"SCT","base":3000},{"cover":"SCT","base":5000}],"obsTime":1782745200},"SBRB":{"icaoId":"SBRB","flightCategory":"VFR","rawOb":"METAR SBRB 291500Z 18004KT CAVOK 29/22 Q1016","temp":29,"dewp":22,"wdir":180,"wspd":4,"visib":"6+","altim":1016,"clouds":[],"obsTime":1782745200},"SBAT":{"icaoId":"SBAT","flightCategory":"VFR","rawOb":"METAR SBAT 291500Z 12012KT CAVOK 34/17 Q1016","temp":34,"dewp":17,"wdir":120,"wspd":12,"visib":"6+","altim":1016,"clouds":[],"obsTime":1782745200},"SBHT":{"icaoId":"SBHT","flightCategory":"VFR","rawOb":"METAR SBHT 291500Z 11006KT 9999 SCT025 BKN090 28/24 Q1014","temp":28,"dewp":24,"wdir":110,"wspd":6,"visib":"6+","altim":1014,"clouds":[{"cover":"SCT","base":2500},{"cover":"BKN","base":9000}],"obsTime":1782745200},"SBME":{"icaoId":"SBME","flightCategory":"VFR","rawOb":"METAR SBME 291500Z 01010KT CAVOK 30/16 Q1018","temp":30,"dewp":16,"wdir":10,"wspd":10,"visib":"6+","altim":1018,"clouds":[],"obsTime":1782745200},"SBMK":{"icaoId":"SBMK","flightCategory":"VFR","rawOb":"METAR SBMK 291500Z 09008KT 9999 SCT035 24/14 Q1023","temp":24,"dewp":14,"wdir":90,"wspd":8,"visib":"6+","altim":1023,"clouds":[{"cover":"SCT","base":3500}],"obsTime":1782745200},"SBUL":{"icaoId":"SBUL","flightCategory":"VFR","rawOb":"METAR SBUL 291500Z 09009KT CAVOK 23/13 Q1024","temp":23,"dewp":13,"wdir":90,"wspd":9,"visib":"6+","altim":1024,"clouds":[],"obsTime":1782745200},"SBUR":{"icaoId":"SBUR","flightCategory":"VFR","rawOb":"METAR SBUR 291500Z 02010KT CAVOK 25/14 Q1022","temp":25,"dewp":14,"wdir":20,"wspd":10,"visib":"6+","altim":1022,"clouds":[],"obsTime":1782745200},"SBTE":{"icaoId":"SBTE","flightCategory":"VFR","rawOb":"METAR SBTE 291500Z 13007KT 080V180 9999 SCT025 32/19 Q1014","temp":32,"dewp":19,"wdir":130,"wspd":7,"visib":"6+","altim":1014,"clouds":[{"cover":"SCT","base":2500}],"obsTime":1782745200},"SBCR":{"icaoId":"SBCR","flightCategory":"VFR","rawOb":"METAR SBCR 291500Z VRB03KT CAVOK 26/19 Q1017","temp":26,"dewp":19,"wdir":"VRB","wspd":3,"visib":"6+","altim":1017,"clouds":[],"obsTime":1782745200},"SBSN":{"icaoId":"SBSN","flightCategory":"MVFR","rawOb":"METAR SBSN 291500Z 10009KT 9999 VCSH SCT010 BKN015 FEW021TCU BKN100 28/26 Q1014 RESHRA","temp":28,"dewp":26,"wdir":100,"wspd":9,"visib":"6+","altim":1014,"clouds":[{"cover":"SCT","base":1000},{"cover":"BKN","base":1500},{"cover":"FEW","base":2100},{"cover":"BKN","base":10000}],"obsTime":1782745200},"SBMA":{"icaoId":"SBMA","flightCategory":"VFR","rawOb":"METAR SBMA 291500Z 05007KT 9999 SCT030 32/21 Q1014","temp":32,"dewp":21,"wdir":50,"wspd":7,"visib":"6+","altim":1014,"clouds":[{"cover":"SCT","base":3000}],"obsTime":1782745200},"SBLO":{"icaoId":"SBLO","flightCategory":"VFR","rawOb":"METAR SBLO 291500Z 36007KT 320V030 CAVOK 25/19 Q1019","temp":25,"dewp":19,"wdir":360,"wspd":7,"visib":"6+","altim":1019,"clouds":[],"obsTime":1782745200},"SBMQ":{"icaoId":"SBMQ","flightCategory":"MVFR","rawOb":"METAR SBMQ 291500Z 06012KT 020V120 9999 VCSH BKN019 SCT070 30/25 Q1014","temp":30,"dewp":25,"wdir":60,"wspd":12,"visib":"6+","altim":1014,"clouds":[{"cover":"BKN","base":1900},{"cover":"SCT","base":7000}],"obsTime":1782745200},"SBFZ":{"icaoId":"SBFZ","flightCategory":"VFR","rawOb":"METAR SBFZ 291500Z 14010KT 100V190 9999 FEW030 30/20 Q1014","temp":30,"dewp":20,"wdir":140,"wspd":10,"visib":"6+","altim":1014,"clouds":[{"cover":"FEW","base":3000}],"obsTime":1782745200},"SBCG":{"icaoId":"SBCG","flightCategory":"VFR","rawOb":"METAR SBCG 291500Z 33006KT 290V360 CAVOK 28/19 Q1018","temp":28,"dewp":19,"wdir":330,"wspd":6,"visib":"6+","altim":1018,"clouds":[],"obsTime":1782745200},"SBKP":{"icaoId":"SBKP","flightCategory":"VFR","rawOb":"METAR SBKP 291500Z 01009KT 330V030 CAVOK 26/17 Q1021","temp":26,"dewp":17,"wdir":10,"wspd":9,"visib":"6+","altim":1021,"clouds":[],"obsTime":1782745200},"SBVT":{"icaoId":"SBVT","flightCategory":"VFR","rawOb":"METAR SBVT 291500Z 01007KT 330V060 9999 SCT035 29/19 Q1021","temp":29,"dewp":19,"wdir":10,"wspd":7,"visib":"6+","altim":1021,"clouds":[{"cover":"SCT","base":3500}],"obsTime":1782745200},"SBPJ":{"icaoId":"SBPJ","flightCategory":"VFR","rawOb":"METAR SBPJ 291500Z 14006KT CAVOK 32/18 Q1016","temp":32,"dewp":18,"wdir":140,"wspd":6,"visib":"6+","altim":1016,"clouds":[],"obsTime":1782745200},"SBCT":{"icaoId":"SBCT","flightCategory":"IFR","rawOb":"SPECI SBCT 291424Z 22006KT 150V310 4000 TSRA BKN007 OVC012 //////CB 15/14 Q1023 RETS","temp":15,"dewp":14,"wdir":220,"wspd":6,"visib":2.49,"altim":1023,"clouds":[{"cover":"BKN","base":700},{"cover":"OVC","base":1200}],"obsTime":1782743040},"SBGR":{"icaoId":"SBGR","flightCategory":"VFR","rawOb":"METAR SBGR 291500Z 04004KT CAVOK 25/16 Q1022","temp":25,"dewp":16,"wdir":40,"wspd":4,"visib":"6+","altim":1022,"clouds":[],"obsTime":1782745200},"SBGO":{"icaoId":"SBGO","flightCategory":"VFR","rawOb":"METAR SBGO 291500Z 01004KT 310V100 CAVOK 28/16 Q1022","temp":28,"dewp":16,"wdir":10,"wspd":4,"visib":"6+","altim":1022,"clouds":[],"obsTime":1782745200},"SBFI":{"icaoId":"SBFI","flightCategory":"LIFR","rawOb":"METAR SBFI 291500Z 15005KT 9999 BKN004 19/17 Q1017","temp":19,"dewp":17,"wdir":150,"wspd":5,"visib":"6+","altim":1017,"clouds":[{"cover":"BKN","base":400}],"obsTime":1782745200},"SBCB":{"icaoId":"SBCB","flightCategory":"VFR","rawOb":"METAR SBCB 291500Z 09003KT CAVOK 29/19 Q1019","temp":29,"dewp":19,"wdir":90,"wspd":3,"visib":"6+","altim":1019,"clouds":[],"obsTime":1782745200},"SBPA":{"icaoId":"SBPA","flightCategory":"VFR","rawOb":"METAR SBPA 291500Z VRB02KT 9999 FEW025 16/10 Q1021","temp":16,"dewp":10,"wdir":"VRB","wspd":2,"visib":"6+","altim":1021,"clouds":[{"cover":"FEW","base":2500}],"obsTime":1782745200},"SBSP":{"icaoId":"SBSP","flightCategory":"VFR","rawOb":"METAR SBSP 291500Z 04006KT 360V080 CAVOK 25/16 Q1022","temp":25,"dewp":16,"wdir":40,"wspd":6,"visib":"6+","altim":1022,"clouds":[],"obsTime":1782745200},"SBCO":{"icaoId":"SBCO","flightCategory":"VFR","rawOb":"METAR SBCO 291500Z VRB03KT CAVOK 15/10 Q1021","temp":15,"dewp":10,"wdir":"VRB","wspd":3,"visib":"6+","altim":1021,"clouds":[],"obsTime":1782745200},"SBUY":{"icaoId":"SBUY","flightCategory":"MVFR","rawOb":"METAR SBUY 291500Z 26003KT 9999 BKN020 BKN080 27/24 Q1014","temp":27,"dewp":24,"wdir":260,"wspd":3,"visib":"6+","altim":1014,"clouds":[{"cover":"BKN","base":2000},{"cover":"BKN","base":8000}],"obsTime":1782745200},"SBSJ":{"icaoId":"SBSJ","flightCategory":"VFR","rawOb":"METAR SBSJ 291500Z 03005KT 280V090 CAVOK 24/16 Q1021","temp":24,"dewp":16,"wdir":30,"wspd":5,"visib":"6+","altim":1021,"clouds":[],"obsTime":1782745200},"SBTD":{"icaoId":"SBTD","flightCategory":"MVFR","rawOb":"METAR SBTD 291500Z /////KT 9999 FEW010 BKN015 FEW040TCU BKN080 20/19 Q1018","temp":20,"dewp":19,"wdir":null,"wspd":null,"visib":"6+","altim":1018,"clouds":[{"cover":"FEW","base":1000},{"cover":"BKN","base":1500},{"cover":"FEW","base":4000},{"cover":"BKN","base":8000}],"obsTime":1782745200},"SBCJ":{"icaoId":"SBCJ","flightCategory":"VFR","rawOb":"METAR SBCJ 291500Z 11006KT 9999 FEW020 28/20 Q1019","temp":28,"dewp":20,"wdir":110,"wspd":6,"visib":"6+","altim":1019,"clouds":[{"cover":"FEW","base":2000}],"obsTime":1782745200},"SBPB":{"icaoId":"SBPB","flightCategory":"VFR","rawOb":"METAR SBPB 291500Z 10008KT 9999 FEW020 SCT100 31/25 Q1013","temp":31,"dewp":25,"wdir":100,"wspd":8,"visib":"6+","altim":1013,"clouds":[{"cover":"FEW","base":2000},{"cover":"SCT","base":10000}],"obsTime":1782745200},"SBOI":{"icaoId":"SBOI","flightCategory":"VFR","rawOb":"METAR SBOI 291500Z AUTO 09005KT 350V160 9999 FEW038 SCT043 31/24 Q1014","temp":31,"dewp":24,"wdir":90,"wspd":5,"visib":"6+","altim":1014,"clouds":[{"cover":"FEW","base":3800},{"cover":"SCT","base":4300}],"obsTime":1782745200},"SBKG":{"icaoId":"SBKG","flightCategory":"MVFR","rawOb":"METAR SBKG 291500Z 11011KT 9999 BKN020 26/19 Q1018","temp":26,"dewp":19,"wdir":110,"wspd":11,"visib":"6+","altim":1018,"clouds":[{"cover":"BKN","base":2000}],"obsTime":1782745200},"SBSM":{"icaoId":"SBSM","flightCategory":"MVFR","rawOb":"METAR SBSM 291500Z VRB01KT 9999 SCT012 BKN015 13/09 Q1022","temp":13,"dewp":9,"wdir":"VRB","wspd":1,"visib":"6+","altim":1022,"clouds":[{"cover":"SCT","base":1200},{"cover":"BKN","base":1500}],"obsTime":1782745200},"SBGM":{"icaoId":"SBGM","flightCategory":"VFR","rawOb":"METAR SBGM 291500Z 13007KT CAVOK 30/19 Q1015","temp":30,"dewp":19,"wdir":130,"wspd":7,"visib":"6+","altim":1015,"clouds":[],"obsTime":1782745200},"SBVH":{"icaoId":"SBVH","flightCategory":"VFR","rawOb":"METAR SBVH 291500Z 13010KT CAVOK 28/19 Q1018","temp":28,"dewp":19,"wdir":130,"wspd":10,"visib":"6+","altim":1018,"clouds":[],"obsTime":1782745200},"SBAU":{"icaoId":"SBAU","flightCategory":"VFR","rawOb":"METAR SBAU 291600Z 10008KT CAVOK 31/15 Q1018","temp":31,"dewp":15,"wdir":100,"wspd":8,"visib":"6+","altim":1018,"clouds":[],"obsTime":1782748800},"SBAX":{"icaoId":"SBAX","flightCategory":"VFR","rawOb":"METAR SBAX 291500Z 06005KT CAVOK 22/13 Q1024","temp":22,"dewp":13,"wdir":60,"wspd":5,"visib":"6+","altim":1024,"clouds":[],"obsTime":1782745200},"SBBH":{"icaoId":"SBBH","flightCategory":"VFR","rawOb":"METAR SBBH 291500Z 02004KT CAVOK 25/13 Q1024","temp":25,"dewp":13,"wdir":20,"wspd":4,"visib":"6+","altim":1024,"clouds":[],"obsTime":1782745200},"SBBQ":{"icaoId":"SBBQ","flightCategory":"VFR","rawOb":"METAR SBBQ 291500Z VRB03KT CAVOK 22/12 Q1027","temp":22,"dewp":12,"wdir":"VRB","wspd":3,"visib":"6+","altim":1027,"clouds":[],"obsTime":1782745200},"SBBU":{"icaoId":"SBBU","flightCategory":"VFR","rawOb":"METAR SBBU 291500Z 01008KT CAVOK 27/18 Q1020","temp":27,"dewp":18,"wdir":10,"wspd":8,"visib":"6+","altim":1020,"clouds":[],"obsTime":1782745200},"SBDN":{"icaoId":"SBDN","flightCategory":"VFR","rawOb":"METAR SBDN 291500Z 36008KT CAVOK 29/18 Q1018","temp":29,"dewp":18,"wdir":360,"wspd":8,"visib":"6+","altim":1018,"clouds":[],"obsTime":1782745200},"SBIP":{"icaoId":"SBIP","flightCategory":"VFR","rawOb":"METAR SBIP 291500Z AUTO VRB04KT 9999 FEW031 26/17 Q1022","temp":26,"dewp":17,"wdir":"VRB","wspd":4,"visib":"6+","altim":1022,"clouds":[{"cover":"FEW","base":3100}],"obsTime":1782745200},"SBSC":{"icaoId":"SBSC","flightCategory":"VFR","rawOb":"METAR SBSC 291500Z 36009KT CAVOK 29/18 Q1018","temp":29,"dewp":18,"wdir":360,"wspd":9,"visib":"6+","altim":1018,"clouds":[],"obsTime":1782745200},"SBSR":{"icaoId":"SBSR","flightCategory":"VFR","rawOb":"METAR SBSR 291500Z 03008KT 330V090 CAVOK 26/16 Q1020","temp":26,"dewp":16,"wdir":30,"wspd":8,"visib":"6+","altim":1020,"clouds":[],"obsTime":1782745200},"SBES":{"icaoId":"SBES","flightCategory":"VFR","rawOb":"METAR SBES 291500Z 03004KT 290V080 CAVOK 28/// Q1019","temp":null,"dewp":null,"wdir":30,"wspd":4,"visib":"6+","altim":1019,"clouds":[],"obsTime":1782745200},"SBTU":{"icaoId":"SBTU","flightCategory":"VFR","rawOb":"METAR SBTU 291500Z AUTO 25008KT 9999 // FEW019/// BKN084/// ///// Q1016","temp":null,"dewp":null,"wdir":250,"wspd":8,"visib":"6+","altim":1016,"clouds":[{"cover":"FEW","base":1900},{"cover":"BKN","base":8400}],"obsTime":1782745200},"SBPL":{"icaoId":"SBPL","flightCategory":"MVFR","rawOb":"METAR SBPL 291500Z COR 11009KT 9999 BKN025 28/19 Q1018","temp":28,"dewp":19,"wdir":110,"wspd":9,"visib":"6+","altim":1018,"clouds":[{"cover":"BKN","base":2500}],"obsTime":1782745200},"SBPP":{"icaoId":"SBPP","flightCategory":"VFR","rawOb":"METAR SBPP 291500Z 34007KT 9999 SCT020 25/20 Q1018","temp":25,"dewp":20,"wdir":340,"wspd":7,"visib":"6+","altim":1018,"clouds":[{"cover":"SCT","base":2000}],"obsTime":1782745200},"SBTF":{"icaoId":"SBTF","flightCategory":"MVFR","rawOb":"METAR SBTF 291500Z 21003KT 9999 BKN017 28/26 Q1014","temp":28,"dewp":26,"wdir":210,"wspd":3,"visib":"6+","altim":1014,"clouds":[{"cover":"BKN","base":1700}],"obsTime":1782745200},"SBPS":{"icaoId":"SBPS","flightCategory":"VFR","rawOb":"METAR SBPS 291500Z 12005KT 050V170 9999 SCT020 BKN100 26/22 Q1020","temp":26,"dewp":22,"wdir":120,"wspd":5,"visib":"6+","altim":1020,"clouds":[{"cover":"SCT","base":2000},{"cover":"BKN","base":10000}],"obsTime":1782745200},"SBTT":{"icaoId":"SBTT","flightCategory":"IFR","rawOb":"METAR SBTT 291500Z 16006KT 4000 -RA SCT006 OVC030 23/22 Q1017","temp":23,"dewp":22,"wdir":160,"wspd":6,"visib":2.49,"altim":1017,"clouds":[{"cover":"SCT","base":600},{"cover":"OVC","base":3000}],"obsTime":1782745200},"SBAR":{"icaoId":"SBAR","flightCategory":"VFR","rawOb":"METAR SBAR 291500Z 05007KT 9999 VCSH FEW008 SCT027 BKN035 25/24 Q1017","temp":25,"dewp":24,"wdir":50,"wspd":7,"visib":"6+","altim":1017,"clouds":[{"cover":"FEW","base":800},{"cover":"SCT","base":2700},{"cover":"BKN","base":3500}],"obsTime":1782745200},"SBCC":{"icaoId":"SBCC","flightCategory":"VFR","rawOb":"METAR SBCC 291500Z VRB10KT CAVOK 31/17 Q1017","temp":31,"dewp":17,"wdir":"VRB","wspd":10,"visib":"6+","altim":1017,"clouds":[],"obsTime":1782745200},"SBJP":{"icaoId":"SBJP","flightCategory":"VFR","rawOb":"METAR SBJP 291500Z 12012KT 9999 BKN033 29/22 Q1016","temp":29,"dewp":22,"wdir":120,"wspd":12,"visib":"6+","altim":1016,"clouds":[{"cover":"BKN","base":3300}],"obsTime":1782745200},"SBAN":{"icaoId":"SBAN","flightCategory":"VFR","rawOb":"METAR SBAN 291500Z 07007KT CAVOK 24/14 Q1024","temp":24,"dewp":14,"wdir":70,"wspd":7,"visib":"6+","altim":1024,"clouds":[],"obsTime":1782745200},"SBLE":{"icaoId":"SBLE","flightCategory":"MVFR","rawOb":"METAR SBLE 291500Z AUTO 17006KT 130V220 9999 SCT020 OVC027 ///// Q////","temp":null,"dewp":null,"wdir":170,"wspd":6,"visib":"6+","altim":null,"clouds":[{"cover":"SCT","base":2000},{"cover":"OVC","base":2700}],"obsTime":1782745200},"SBJV":{"icaoId":"SBJV","flightCategory":"MVFR","rawOb":"METAR SBJV 291500Z 13003KT 6000 -RA SCT007 OVC030 16/15 Q1020","temp":16,"dewp":15,"wdir":130,"wspd":3,"visib":3.73,"altim":1020,"clouds":[{"cover":"SCT","base":700},{"cover":"OVC","base":3000}],"obsTime":1782745200},"SBNM":{"icaoId":"SBNM","flightCategory":"VFR","rawOb":"METAR SBNM 291500Z 11002KT CAVOK 15/12 Q1020","temp":15,"dewp":12,"wdir":110,"wspd":2,"visib":"6+","altim":1020,"clouds":[],"obsTime":1782745200},"SBPF":{"icaoId":"SBPF","flightCategory":"MVFR","rawOb":"METAR SBPF 291500Z AUTO 08006KT 060V120 9999 BKN010 BKN029 OVC046 14/10 Q1021","temp":14,"dewp":10,"wdir":80,"wspd":6,"visib":"6+","altim":1021,"clouds":[{"cover":"BKN","base":1000},{"cover":"BKN","base":2900},{"cover":"OVC","base":4600}],"obsTime":1782745200},"SBIH":{"icaoId":"SBIH","flightCategory":"VFR","rawOb":"METAR SBIH 291500Z 05007KT 9999 SCT020 FEW025TCU 30/25 Q1013","temp":30,"dewp":25,"wdir":50,"wspd":7,"visib":"6+","altim":1013,"clouds":[{"cover":"SCT","base":2000},{"cover":"FEW","base":2500}],"obsTime":1782745200},"SBAF":{"icaoId":"SBAF","flightCategory":"VFR","rawOb":"METAR SBAF 291500Z VRB04KT CAVOK 30/15 Q1018","temp":30,"dewp":15,"wdir":"VRB","wspd":4,"visib":"6+","altim":1018,"clouds":[],"obsTime":1782745200},"SBGW":{"icaoId":"SBGW","flightCategory":"VFR","rawOb":"METAR SBGW 291500Z 07006KT 020V120 CAVOK 26/14 Q1021","temp":26,"dewp":14,"wdir":70,"wspd":6,"visib":"6+","altim":1021,"clouds":[],"obsTime":1782745200},"SBJR":{"icaoId":"SBJR","flightCategory":"VFR","rawOb":"METAR SBJR 291500Z 02008KT CAVOK 32/16 Q1018","temp":32,"dewp":16,"wdir":20,"wspd":8,"visib":"6+","altim":1018,"clouds":[],"obsTime":1782745200},"SBLS":{"icaoId":"SBLS","flightCategory":"VFR","rawOb":"METAR SBLS 291500Z VRB04KT 9999 FEW035 25/12 Q1024","temp":25,"dewp":12,"wdir":"VRB","wspd":4,"visib":"6+","altim":1024,"clouds":[{"cover":"FEW","base":3500}],"obsTime":1782745200},"SBMT":{"icaoId":"SBMT","flightCategory":"VFR","rawOb":"METAR SBMT 291500Z 32004KT CAVOK 24/14 Q1021","temp":24,"dewp":14,"wdir":320,"wspd":4,"visib":"6+","altim":1021,"clouds":[],"obsTime":1782745200},"SBST":{"icaoId":"SBST","flightCategory":"VFR","rawOb":"METAR SBST 291500Z 03004KT 340V090 9999 FEW018 22/16 Q1019","temp":22,"dewp":16,"wdir":30,"wspd":4,"visib":"6+","altim":1019,"clouds":[{"cover":"FEW","base":1800}],"obsTime":1782745200},"SBTA":{"icaoId":"SBTA","flightCategory":"VFR","rawOb":"METAR SBTA 291500Z 04007KT 010V070 CAVOK 26/17 Q1021","temp":26,"dewp":17,"wdir":40,"wspd":7,"visib":"6+","altim":1021,"clouds":[],"obsTime":1782745200}}}