{"updated":1777052475,"count":86,"data":{"SBSV":{"icaoId":"SBSV","flightCategory":"VFR","rawOb":"METAR SBSV 241600Z 12010KT 090V160 9999 SCT020 SCT026 30/23 Q1013","temp":30,"dewp":23,"wdir":120,"wspd":10,"visib":"6+","altim":1013,"clouds":[{"cover":"SCT","base":2000},{"cover":"SCT","base":2600}],"obsTime":1777046400},"SBLO":{"icaoId":"SBLO","flightCategory":"VFR","rawOb":"METAR SBLO 241600Z 06004KT 350V140 CAVOK 27/18 Q1017","temp":27,"dewp":18,"wdir":60,"wspd":4,"visib":"6+","altim":1017,"clouds":[],"obsTime":1777046400},"SBVT":{"icaoId":"SBVT","flightCategory":"VFR","rawOb":"METAR SBVT 241600Z 16010KT 9999 FEW035 27/21 Q1016","temp":27,"dewp":21,"wdir":160,"wspd":10,"visib":"6+","altim":1016,"clouds":[{"cover":"FEW","base":3500}],"obsTime":1777046400},"SBMA":{"icaoId":"SBMA","flightCategory":"VFR","rawOb":"METAR SBMA 241600Z 35002KT 9999 FEW015 SCT020 BKN090 28/25 Q1012","temp":28,"dewp":25,"wdir":350,"wspd":2,"visib":"6+","altim":1012,"clouds":[{"cover":"FEW","base":1500},{"cover":"SCT","base":2000},{"cover":"BKN","base":9000}],"obsTime":1777046400},"SBEG":{"icaoId":"SBEG","flightCategory":"VFR","rawOb":"METAR SBEG 241600Z 10006KT 150V220 9999 -SHRA SCT020 FEW025TCU SCT100 27/25 Q1013","temp":27,"dewp":25,"wdir":100,"wspd":6,"visib":"6+","altim":1013,"clouds":[{"cover":"SCT","base":2000},{"cover":"FEW","base":2500},{"cover":"SCT","base":10000}],"obsTime":1777046400},"SBME":{"icaoId":"SBME","flightCategory":"VFR","rawOb":"METAR SBME 241600Z 12009KT 9999 SCT040 29/20 Q1016","temp":29,"dewp":20,"wdir":120,"wspd":9,"visib":"6+","altim":1016,"clouds":[{"cover":"SCT","base":4000}],"obsTime":1777046400},"SBFI":{"icaoId":"SBFI","flightCategory":"VFR","rawOb":"METAR SBFI 241600Z 02010KT CAVOK 28/19 Q1014","temp":28,"dewp":19,"wdir":20,"wspd":10,"visib":"6+","altim":1014,"clouds":[],"obsTime":1777046400},"SBMG":{"icaoId":"SBMG","flightCategory":"VFR","rawOb":"METAR SBMG 241600Z 36007KT 320V040 9999 FEW035 29/17 Q1016","temp":29,"dewp":17,"wdir":360,"wspd":7,"visib":"6+","altim":1016,"clouds":[{"cover":"FEW","base":3500}],"obsTime":1777046400},"SBCF":{"icaoId":"SBCF","flightCategory":"VFR","rawOb":"METAR SBCF 241600Z 14006KT 080V210 9999 SCT040 26/16 Q1020","temp":26,"dewp":16,"wdir":140,"wspd":6,"visib":"6+","altim":1020,"clouds":[{"cover":"SCT","base":4000}],"obsTime":1777046400},"SBMK":{"icaoId":"SBMK","flightCategory":"VFR","rawOb":"METAR SBMK 241600Z 05006KT CAVOK 29/16 Q1017","temp":29,"dewp":16,"wdir":50,"wspd":6,"visib":"6+","altim":1017,"clouds":[],"obsTime":1777046400},"SBFL":{"icaoId":"SBFL","flightCategory":"VFR","rawOb":"METAR SBFL 241600Z 36012KT 9999 SCT040 28/20 Q1015","temp":28,"dewp":20,"wdir":360,"wspd":12,"visib":"6+","altim":1015,"clouds":[{"cover":"SCT","base":4000}],"obsTime":1777046400},"SBMO":{"icaoId":"SBMO","flightCategory":"MVFR","rawOb":"METAR SBMO 241600Z 13009KT 9999 BKN030 29/22 Q1012","temp":29,"dewp":22,"wdir":130,"wspd":9,"visib":"6+","altim":1012,"clouds":[{"cover":"BKN","base":3000}],"obsTime":1777046400},"SBCG":{"icaoId":"SBCG","flightCategory":"VFR","rawOb":"METAR SBCG 241600Z 03006KT 320V130 CAVOK 31/18 Q1015","temp":31,"dewp":18,"wdir":30,"wspd":6,"visib":"6+","altim":1015,"clouds":[],"obsTime":1777046400},"SBMQ":{"icaoId":"SBMQ","flightCategory":"VFR","rawOb":"METAR SBMQ 241600Z VRB02KT 9999 -RA SCT013 BKN035 OVC090 26/23 Q1013","temp":26,"dewp":23,"wdir":"VRB","wspd":2,"visib":"6+","altim":1013,"clouds":[{"cover":"SCT","base":1300},{"cover":"BKN","base":3500},{"cover":"OVC","base":9000}],"obsTime":1777046400},"SBBR":{"icaoId":"SBBR","flightCategory":"VFR","rawOb":"METAR SBBR 241600Z 06006KT 320V120 9999 SCT040 27/16 Q1019","temp":27,"dewp":16,"wdir":60,"wspd":6,"visib":"6+","altim":1019,"clouds":[{"cover":"SCT","base":4000}],"obsTime":1777046400},"SBNT":{"icaoId":"SBNT","flightCategory":"IFR","rawOb":"METAR SBNT 241600Z 17006KT 3500 RA BR BKN005 BKN014 OVC023 24/23 Q1012","temp":24,"dewp":23,"wdir":170,"wspd":6,"visib":2.17,"altim":1012,"clouds":[{"cover":"BKN","base":500},{"cover":"BKN","base":1400},{"cover":"OVC","base":2300}],"obsTime":1777046400},"SBFZ":{"icaoId":"SBFZ","flightCategory":"VFR","rawOb":"METAR SBFZ 241600Z 08009KT 9999 SCT025 31/23 Q1010","temp":31,"dewp":23,"wdir":80,"wspd":9,"visib":"6+","altim":1010,"clouds":[{"cover":"SCT","base":2500}],"obsTime":1777046400},"SBPA":{"icaoId":"SBPA","flightCategory":"IFR","rawOb":"METAR SBPA 241600Z 10011KT 7000 -RA BKN009 BKN025 OVC060 21/20 Q1015","temp":21,"dewp":20,"wdir":100,"wspd":11,"visib":4.35,"altim":1015,"clouds":[{"cover":"BKN","base":900},{"cover":"BKN","base":2500},{"cover":"OVC","base":6000}],"obsTime":1777046400},"SBAT":{"icaoId":"SBAT","flightCategory":"MVFR","rawOb":"METAR SBAT 241600Z 05001KT 9999 BKN025 31/24 Q1014","temp":31,"dewp":24,"wdir":50,"wspd":1,"visib":"6+","altim":1014,"clouds":[{"cover":"BKN","base":2500}],"obsTime":1777046400},"SBPJ":{"icaoId":"SBPJ","flightCategory":"VFR","rawOb":"METAR SBPJ 241600Z 09005KT 9999 VCSH BKN040 32/23 Q1013","temp":32,"dewp":23,"wdir":90,"wspd":5,"visib":"6+","altim":1013,"clouds":[{"cover":"BKN","base":4000}],"obsTime":1777046400},"SBGL":{"icaoId":"SBGL","flightCategory":"VFR","rawOb":"METAR SBGL 241600Z 03007KT 9999 FEW008 29/18 Q1016","temp":29,"dewp":18,"wdir":30,"wspd":7,"visib":"6+","altim":1016,"clouds":[{"cover":"FEW","base":800}],"obsTime":1777046400},"SBPV":{"icaoId":"SBPV","flightCategory":"MVFR","rawOb":"METAR SBPV 241600Z 03007KT 350V060 9999 BKN023 FEW030TCU 30/27 Q1012","temp":30,"dewp":27,"wdir":30,"wspd":7,"visib":"6+","altim":1012,"clouds":[{"cover":"BKN","base":2300},{"cover":"FEW","base":3000}],"obsTime":1777046400},"SBGO":{"icaoId":"SBGO","flightCategory":"VFR","rawOb":"METAR SBGO 241600Z 06005KT 360V120 CAVOK 30/16 Q1017","temp":30,"dewp":16,"wdir":60,"wspd":5,"visib":"6+","altim":1017,"clouds":[],"obsTime":1777046400},"SBRB":{"icaoId":"SBRB","flightCategory":"MVFR","rawOb":"METAR SBRB 241600Z 09007KT 050V130 9999 SCT007 BKN015 BKN100 29/25 Q1013","temp":29,"dewp":25,"wdir":90,"wspd":7,"visib":"6+","altim":1013,"clouds":[{"cover":"SCT","base":700},{"cover":"BKN","base":1500},{"cover":"BKN","base":10000}],"obsTime":1777046400},"SBCP":{"icaoId":"SBCP","flightCategory":"MVFR","rawOb":"METAR SBCP 241600Z 14006KT 9999 BKN020 30/18 Q1016","temp":30,"dewp":18,"wdir":140,"wspd":6,"visib":"6+","altim":1016,"clouds":[{"cover":"BKN","base":2000}],"obsTime":1777046400},"SBRF":{"icaoId":"SBRF","flightCategory":"VFR","rawOb":"METAR SBRF 241600Z 14013KT 9999 FEW025 30/23 Q1011","temp":30,"dewp":23,"wdir":140,"wspd":13,"visib":"6+","altim":1011,"clouds":[{"cover":"FEW","base":2500}],"obsTime":1777046400},"SBBV":{"icaoId":"SBBV","flightCategory":"VFR","rawOb":"METAR SBBV 241600Z 14007KT 9999 FEW035 31/22 Q1012","temp":31,"dewp":22,"wdir":140,"wspd":7,"visib":"6+","altim":1012,"clouds":[{"cover":"FEW","base":3500}],"obsTime":1777046400},"SBSG":{"icaoId":"SBSG","flightCategory":"LIFR","rawOb":"METAR SBSG 241600Z 18004KT 140V220 1500 R30///// R12/2000D -RA BR BKN003 BKN008 24/23 Q1012","temp":24,"dewp":23,"wdir":180,"wspd":4,"visib":0.93,"altim":1012,"clouds":[{"cover":"BKN","base":300},{"cover":"BKN","base":800}],"obsTime":1777046400},"SBGR":{"icaoId":"SBGR","flightCategory":"VFR","rawOb":"METAR SBGR 241600Z 36006KT 9999 SCT040 SCT050 26/16 Q1019","temp":26,"dewp":16,"wdir":360,"wspd":6,"visib":"6+","altim":1019,"clouds":[{"cover":"SCT","base":4000},{"cover":"SCT","base":5000}],"obsTime":1777046400},"SBSL":{"icaoId":"SBSL","flightCategory":"MVFR","rawOb":"METAR SBSL 241600Z 30003KT 270V350 9999 BKN025 FEW030TCU 28/26 Q1011","temp":28,"dewp":26,"wdir":300,"wspd":3,"visib":"6+","altim":1011,"clouds":[{"cover":"BKN","base":2500},{"cover":"FEW","base":3000}],"obsTime":1777046400},"SBSN":{"icaoId":"SBSN","flightCategory":"VFR","rawOb":"METAR SBSN 241600Z 08011KT 9999 SCT017 29/24 Q1012","temp":29,"dewp":24,"wdir":80,"wspd":11,"visib":"6+","altim":1012,"clouds":[{"cover":"SCT","base":1700}],"obsTime":1777046400},"SBCR":{"icaoId":"SBCR","flightCategory":"VFR","rawOb":"METAR SBCR 241600Z 32005KT 260V010 CAVOK 31/20 Q1013","temp":31,"dewp":20,"wdir":320,"wspd":5,"visib":"6+","altim":1013,"clouds":[],"obsTime":1777046400},"SBHT":{"icaoId":"SBHT","flightCategory":"MVFR","rawOb":"METAR SBHT 241600Z 11005KT 9999 BKN018 BKN090 27/23 Q1013","temp":27,"dewp":23,"wdir":110,"wspd":5,"visib":"6+","altim":1013,"clouds":[{"cover":"BKN","base":1800},{"cover":"BKN","base":9000}],"obsTime":1777046400},"SBSP":{"icaoId":"SBSP","flightCategory":"VFR","rawOb":"METAR SBSP 241600Z COR VRB03KT 9999 FEW048 27/13 Q1019","temp":27,"dewp":13,"wdir":"VRB","wspd":3,"visib":"6+","altim":1019,"clouds":[{"cover":"FEW","base":4800}],"obsTime":1777046400},"SBBE":{"icaoId":"SBBE","flightCategory":"MVFR","rawOb":"SPECI SBBE 241542Z 31009KT 5000 2000SW -RA SCT008 SCT020 BKN030 24/24 Q1012","temp":24,"dewp":24,"wdir":310,"wspd":9,"visib":3.11,"altim":1012,"clouds":[{"cover":"SCT","base":800},{"cover":"SCT","base":2000},{"cover":"BKN","base":3000}],"obsTime":1777045320},"SBIL":{"icaoId":"SBIL","flightCategory":"MVFR","rawOb":"METAR SBIL 241600Z 10011KT 7000 -RA SCT008 BKN015 FEW025TCU BKN070 25/24 Q1015","temp":25,"dewp":24,"wdir":100,"wspd":11,"visib":4.35,"altim":1015,"clouds":[{"cover":"SCT","base":800},{"cover":"BKN","base":1500},{"cover":"FEW","base":2500},{"cover":"BKN","base":7000}],"obsTime":1777046400},"SBTE":{"icaoId":"SBTE","flightCategory":"MVFR","rawOb":"METAR SBTE 241600Z 14005KT 9999 BKN025 32/22 Q1010","temp":32,"dewp":22,"wdir":140,"wspd":5,"visib":"6+","altim":1010,"clouds":[{"cover":"BKN","base":2500}],"obsTime":1777046400},"SBCT":{"icaoId":"SBCT","flightCategory":"VFR","rawOb":"METAR SBCT 241600Z 05007KT 010V080 9999 SCT030 24/15 Q1019","temp":24,"dewp":15,"wdir":50,"wspd":7,"visib":"6+","altim":1019,"clouds":[{"cover":"SCT","base":3000}],"obsTime":1777046400},"SBUL":{"icaoId":"SBUL","flightCategory":"VFR","rawOb":"METAR SBUL 241600Z 08007KT 9999 SCT035 BKN070 25/15 Q1020","temp":25,"dewp":15,"wdir":80,"wspd":7,"visib":"6+","altim":1020,"clouds":[{"cover":"SCT","base":3500},{"cover":"BKN","base":7000}],"obsTime":1777046400},"SBJU":{"icaoId":"SBJU","flightCategory":"MVFR","rawOb":"METAR SBJU 241600Z 12005KT 9999 BKN022 30/22 Q1012","temp":30,"dewp":22,"wdir":120,"wspd":5,"visib":"6+","altim":1012,"clouds":[{"cover":"BKN","base":2200}],"obsTime":1777046400},"SBUR":{"icaoId":"SBUR","flightCategory":"VFR","rawOb":"METAR SBUR 241600Z 01008KT CAVOK 28/15 Q1019","temp":28,"dewp":15,"wdir":10,"wspd":8,"visib":"6+","altim":1019,"clouds":[],"obsTime":1777046400},"SBCB":{"icaoId":"SBCB","flightCategory":"VFR","rawOb":"METAR SBCB 241600Z 10011KT 9999 FEW020 27/20 Q1017","temp":27,"dewp":20,"wdir":100,"wspd":11,"visib":"6+","altim":1017,"clouds":[{"cover":"FEW","base":2000}],"obsTime":1777046400},"SBCZ":{"icaoId":"SBCZ","flightCategory":"MVFR","rawOb":"METAR SBCZ 241600Z 21008KT 9999 SCT008 BKN020 BKN100 25/23 Q1013","temp":25,"dewp":23,"wdir":210,"wspd":8,"visib":"6+","altim":1013,"clouds":[{"cover":"SCT","base":800},{"cover":"BKN","base":2000},{"cover":"BKN","base":10000}],"obsTime":1777046400},"SBKP":{"icaoId":"SBKP","flightCategory":"VFR","rawOb":"METAR SBKP 241600Z 36005KT 310V040 9999 SCT045 28/15 Q1018","temp":28,"dewp":15,"wdir":360,"wspd":5,"visib":"6+","altim":1018,"clouds":[{"cover":"SCT","base":4500}],"obsTime":1777046400},"SBCC":{"icaoId":"SBCC","flightCategory":"MVFR","rawOb":"METAR SBCC 241600Z 06009KT 9999 BKN030 30/21 Q1014","temp":30,"dewp":21,"wdir":60,"wspd":9,"visib":"6+","altim":1014,"clouds":[{"cover":"BKN","base":3000}],"obsTime":1777046400},"SBAU":{"icaoId":"SBAU","flightCategory":"VFR","rawOb":"METAR SBAU 241600Z 06006KT CAVOK 33/19 Q1015","temp":33,"dewp":19,"wdir":60,"wspd":6,"visib":"6+","altim":1015,"clouds":[],"obsTime":1777046400},"SBAX":{"icaoId":"SBAX","flightCategory":"VFR","rawOb":"METAR SBAX 241600Z 06007KT 9999 SCT035 26/15 Q1020","temp":26,"dewp":15,"wdir":60,"wspd":7,"visib":"6+","altim":1020,"clouds":[{"cover":"SCT","base":3500}],"obsTime":1777046400},"SBBH":{"icaoId":"SBBH","flightCategory":"VFR","rawOb":"METAR SBBH 241600Z 07007KT 9999 BKN040 26/15 Q1019","temp":26,"dewp":15,"wdir":70,"wspd":7,"visib":"6+","altim":1019,"clouds":[{"cover":"BKN","base":4000}],"obsTime":1777046400},"SBBQ":{"icaoId":"SBBQ","flightCategory":"VFR","rawOb":"METAR SBBQ 241600Z 03005KT 9999 BKN035 22/14 Q1023","temp":22,"dewp":14,"wdir":30,"wspd":5,"visib":"6+","altim":1023,"clouds":[{"cover":"BKN","base":3500}],"obsTime":1777046400},"SBBU":{"icaoId":"SBBU","flightCategory":"VFR","rawOb":"METAR SBBU 241600Z 04008KT 9999 FEW030 30/19 Q1017","temp":30,"dewp":19,"wdir":40,"wspd":8,"visib":"6+","altim":1017,"clouds":[{"cover":"FEW","base":3000}],"obsTime":1777046400},"SBCA":{"icaoId":"SBCA","flightCategory":"VFR","rawOb":"METAR SBCA 241700Z 35008KT 320V040 CAVOK 27/15 Q1017","temp":27,"dewp":15,"wdir":350,"wspd":8,"visib":"6+","altim":1017,"clouds":[],"obsTime":1777050000},"SBAR":{"icaoId":"SBAR","flightCategory":"VFR","rawOb":"METAR SBAR 241600Z 13010KT 9999 SCT024 29/24 Q1012","temp":29,"dewp":24,"wdir":130,"wspd":10,"visib":"6+","altim":1012,"clouds":[{"cover":"SCT","base":2400}],"obsTime":1777046400},"SBCJ":{"icaoId":"SBCJ","flightCategory":"VFR","rawOb":"METAR SBCJ 241600Z 00000KT 9999 FEW013 SCT017 26/22 Q1017","temp":26,"dewp":22,"wdir":0,"wspd":0,"visib":"6+","altim":1017,"clouds":[{"cover":"FEW","base":1300},{"cover":"SCT","base":1700}],"obsTime":1777046400},"SBCO":{"icaoId":"SBCO","flightCategory":"MVFR","rawOb":"METAR SBCO 241600Z 10008KT 6000 -RA SCT006 BKN010 OVC025 21/20 Q1016","temp":21,"dewp":20,"wdir":100,"wspd":8,"visib":3.73,"altim":1016,"clouds":[{"cover":"SCT","base":600},{"cover":"BKN","base":1000},{"cover":"OVC","base":2500}],"obsTime":1777046400},"SBDN":{"icaoId":"SBDN","flightCategory":"VFR","rawOb":"METAR SBDN 241600Z 03004KT CAVOK 31/18 Q1015","temp":31,"dewp":18,"wdir":30,"wspd":4,"visib":"6+","altim":1015,"clouds":[],"obsTime":1777046400},"SBES":{"icaoId":"SBES","flightCategory":"VFR","rawOb":"METAR SBES 241600Z 07011KT 030V100 9999 FEW020 29/// Q1017","temp":null,"dewp":null,"wdir":70,"wspd":11,"visib":"6+","altim":1017,"clouds":[{"cover":"FEW","base":2000}],"obsTime":1777046400},"SBGM":{"icaoId":"SBGM","flightCategory":"VFR","rawOb":"METAR SBGM 241600Z 36009KT 310V040 9999 FEW033 SCT036 32/18 Q1013","temp":32,"dewp":18,"wdir":360,"wspd":9,"visib":"6+","altim":1013,"clouds":[{"cover":"FEW","base":3300},{"cover":"SCT","base":3600}],"obsTime":1777046400},"SBIP":{"icaoId":"SBIP","flightCategory":"VFR","rawOb":"METAR SBIP 241600Z AUTO 03005KT 330V090 9999 SCT041 29/18 Q1017","temp":29,"dewp":18,"wdir":30,"wspd":5,"visib":"6+","altim":1017,"clouds":[{"cover":"SCT","base":4100}],"obsTime":1777046400},"SBKG":{"icaoId":"SBKG","flightCategory":"MVFR","rawOb":"METAR SBKG 241600Z 12010KT 9999 SCT018 BKN023 27/21 Q1013","temp":27,"dewp":21,"wdir":120,"wspd":10,"visib":"6+","altim":1013,"clouds":[{"cover":"SCT","base":1800},{"cover":"BKN","base":2300}],"obsTime":1777046400},"SBOI":{"icaoId":"SBOI","flightCategory":"MVFR","rawOb":"SPECI SBOI 241610Z AUTO 02005KT 320V050 9999 FEW010 BKN012 26/23 Q1013","temp":26,"dewp":23,"wdir":20,"wspd":5,"visib":"6+","altim":1013,"clouds":[{"cover":"FEW","base":1000},{"cover":"BKN","base":1200}],"obsTime":1777047000},"SBPB":{"icaoId":"SBPB","flightCategory":"VFR","rawOb":"METAR SBPB 241600Z 06010KT 9999 FEW020 31/26 Q1009","temp":31,"dewp":26,"wdir":60,"wspd":10,"visib":"6+","altim":1009,"clouds":[{"cover":"FEW","base":2000}],"obsTime":1777046400},"SBPL":{"icaoId":"SBPL","flightCategory":"VFR","rawOb":"METAR SBPL 241600Z 13006KT 9999 FEW025 31/21 Q1013","temp":31,"dewp":21,"wdir":130,"wspd":6,"visib":"6+","altim":1013,"clouds":[{"cover":"FEW","base":2500}],"obsTime":1777046400},"SBPP":{"icaoId":"SBPP","flightCategory":"VFR","rawOb":"METAR SBPP 241600Z 03008KT CAVOK 28/17 Q1017","temp":28,"dewp":17,"wdir":30,"wspd":8,"visib":"6+","altim":1017,"clouds":[],"obsTime":1777046400},"SBPS":{"icaoId":"SBPS","flightCategory":"IFR","rawOb":"METAR SBPS 241600Z VRB03KT 4000 -RA BR BKN013 FEW025TCU OVC040 24/23 Q1016","temp":24,"dewp":23,"wdir":"VRB","wspd":3,"visib":2.49,"altim":1016,"clouds":[{"cover":"BKN","base":1300},{"cover":"FEW","base":2500},{"cover":"OVC","base":4000}],"obsTime":1777046400},"SBSC":{"icaoId":"SBSC","flightCategory":"VFR","rawOb":"METAR SBSC 241600Z 04004KT 9999 FEW030 31/19 Q1016","temp":31,"dewp":19,"wdir":40,"wspd":4,"visib":"6+","altim":1016,"clouds":[{"cover":"FEW","base":3000}],"obsTime":1777046400},"SBSJ":{"icaoId":"SBSJ","flightCategory":"VFR","rawOb":"METAR SBSJ 241600Z 01004KT CAVOK 26/17 Q1018","temp":26,"dewp":17,"wdir":10,"wspd":4,"visib":"6+","altim":1018,"clouds":[],"obsTime":1777046400},"SBSM":{"icaoId":"SBSM","flightCategory":"MVFR","rawOb":"METAR SBSM 241600Z 10008KT 8000 -RA FEW008 SCT035 OVC050 20/19 Q1016","temp":20,"dewp":19,"wdir":100,"wspd":8,"visib":4.97,"altim":1016,"clouds":[{"cover":"FEW","base":800},{"cover":"SCT","base":3500},{"cover":"OVC","base":5000}],"obsTime":1777046400},"SBSR":{"icaoId":"SBSR","flightCategory":"VFR","rawOb":"METAR SBSR 241600Z 03006KT 9999 FEW030 30/16 Q1016","temp":30,"dewp":16,"wdir":30,"wspd":6,"visib":"6+","altim":1016,"clouds":[{"cover":"FEW","base":3000}],"obsTime":1777046400},"SBTF":{"icaoId":"SBTF","flightCategory":"VFR","rawOb":"METAR SBTF 241600Z 12005KT 9999 SCT018 BKN100 31/25 Q1012","temp":31,"dewp":25,"wdir":120,"wspd":5,"visib":"6+","altim":1012,"clouds":[{"cover":"SCT","base":1800},{"cover":"BKN","base":10000}],"obsTime":1777046400},"SBTT":{"icaoId":"SBTT","flightCategory":"MVFR","rawOb":"METAR SBTT 241600Z 24003KT 9999 FEW010 BKN014 BKN100 25/20 Q1014","temp":25,"dewp":20,"wdir":240,"wspd":3,"visib":"6+","altim":1014,"clouds":[{"cover":"FEW","base":1000},{"cover":"BKN","base":1400},{"cover":"BKN","base":10000}],"obsTime":1777046400},"SBUY":{"icaoId":"SBUY","flightCategory":"IFR","rawOb":"METAR SBUY 241600Z 16005KT 3000 -RA SCT004 BKN018 BKN080 24/23 Q1012","temp":24,"dewp":23,"wdir":160,"wspd":5,"visib":1.86,"altim":1012,"clouds":[{"cover":"SCT","base":400},{"cover":"BKN","base":1800},{"cover":"BKN","base":8000}],"obsTime":1777046400},"SBVH":{"icaoId":"SBVH","flightCategory":"VFR","rawOb":"METAR SBVH 241600Z 12007KT 9999 SCT021 28/22 Q1016","temp":28,"dewp":22,"wdir":120,"wspd":7,"visib":"6+","altim":1016,"clouds":[{"cover":"SCT","base":2100}],"obsTime":1777046400},"SBTD":{"icaoId":"SBTD","flightCategory":"VFR","rawOb":"METAR SBTD 241600Z /////KT CAVOK 28/18 Q1017","temp":28,"dewp":18,"wdir":null,"wspd":null,"visib":"6+","altim":1017,"clouds":[],"obsTime":1777046400},"SBTA":{"icaoId":"SBTA","flightCategory":"VFR","rawOb":"METAR SBTA 241600Z 06006KT 360V120 9999 FEW030 27/15 Q1018","temp":27,"dewp":15,"wdir":60,"wspd":6,"visib":"6+","altim":1018,"clouds":[{"cover":"FEW","base":3000}],"obsTime":1777046400},"SBJV":{"icaoId":"SBJV","flightCategory":"MVFR","rawOb":"METAR SBJV 241600Z 11006KT 050V160 9999 BKN025 27/20 Q1015","temp":27,"dewp":20,"wdir":110,"wspd":6,"visib":"6+","altim":1015,"clouds":[{"cover":"BKN","base":2500}],"obsTime":1777046400},"SBAN":{"icaoId":"SBAN","flightCategory":"VFR","rawOb":"METAR SBAN 241600Z 12005KT 050V200 9999 FEW030 27/14 Q1020","temp":27,"dewp":14,"wdir":120,"wspd":5,"visib":"6+","altim":1020,"clouds":[{"cover":"FEW","base":3000}],"obsTime":1777046400},"SBLE":{"icaoId":"SBLE","flightCategory":"VFR","rawOb":"METAR SBLE 241600Z AUTO 16006KT 120V210 9999 FEW025 26/24 Q1016","temp":26,"dewp":24,"wdir":160,"wspd":6,"visib":"6+","altim":1016,"clouds":[{"cover":"FEW","base":2500}],"obsTime":1777046400},"SBIH":{"icaoId":"SBIH","flightCategory":"VFR","rawOb":"METAR SBIH 241600Z 36003KT 9999 SCT018 29/23 Q1012","temp":29,"dewp":23,"wdir":360,"wspd":3,"visib":"6+","altim":1012,"clouds":[{"cover":"SCT","base":1800}],"obsTime":1777046400},"SBAF":{"icaoId":"SBAF","flightCategory":"VFR","rawOb":"METAR SBAF 241600Z 07006KT 020V120 9999 FEW040 30/18 Q1016","temp":30,"dewp":18,"wdir":70,"wspd":6,"visib":"6+","altim":1016,"clouds":[{"cover":"FEW","base":4000}],"obsTime":1777046400},"SBGW":{"icaoId":"SBGW","flightCategory":"VFR","rawOb":"METAR SBGW 241600Z 04004KT 340V130 9999 FEW025 28/15 Q1018","temp":28,"dewp":15,"wdir":40,"wspd":4,"visib":"6+","altim":1018,"clouds":[{"cover":"FEW","base":2500}],"obsTime":1777046400},"SBJR":{"icaoId":"SBJR","flightCategory":"VFR","rawOb":"METAR SBJR 241600Z 15011KT 9999 FEW030 31/20 Q1016","temp":31,"dewp":20,"wdir":150,"wspd":11,"visib":"6+","altim":1016,"clouds":[{"cover":"FEW","base":3000}],"obsTime":1777046400},"SBLS":{"icaoId":"SBLS","flightCategory":"VFR","rawOb":"METAR SBLS 241600Z 12005KT 020V140 9999 BKN045 24/17 Q1020","temp":24,"dewp":17,"wdir":120,"wspd":5,"visib":"6+","altim":1020,"clouds":[{"cover":"BKN","base":4500}],"obsTime":1777046400},"SBMT":{"icaoId":"SBMT","flightCategory":"VFR","rawOb":"METAR SBMT 241600Z 20003KT 100V250 9999 SCT045 26/15 Q1018","temp":26,"dewp":15,"wdir":200,"wspd":3,"visib":"6+","altim":1018,"clouds":[{"cover":"SCT","base":4500}],"obsTime":1777046400},"SBST":{"icaoId":"SBST","flightCategory":"VFR","rawOb":"METAR SBST 241600Z 19005KT CAVOK 28/21 Q1015","temp":28,"dewp":21,"wdir":190,"wspd":5,"visib":"6+","altim":1015,"clouds":[],"obsTime":1777046400},"SBJP":{"icaoId":"SBJP","flightCategory":"VFR","rawOb":"METAR SBJP 241600Z 13010KT 9999 SCT020 BKN080 28/23 Q1011","temp":28,"dewp":23,"wdir":130,"wspd":10,"visib":"6+","altim":1011,"clouds":[{"cover":"SCT","base":2000},{"cover":"BKN","base":8000}],"obsTime":1777046400},"SBNM":{"icaoId":"SBNM","flightCategory":"MVFR","rawOb":"METAR SBNM 241600Z 08002KT 9999 FEW004 BKN025 BKN100 22/22 Q1015","temp":22,"dewp":22,"wdir":80,"wspd":2,"visib":"6+","altim":1015,"clouds":[{"cover":"FEW","base":400},{"cover":"BKN","base":2500},{"cover":"BKN","base":10000}],"obsTime":1777046400}}}