{"updated":1775622317,"count":53,"data":{"SBMA":{"icaoId":"SBMA","flightCategory":"VFR","rawOb":"METAR SBMA 080300Z 00000KT 9999 FEW020 27/25 Q1012","temp":27,"dewp":25,"wdir":0,"wspd":0,"visib":"6+","altim":1012,"clouds":[{"cover":"FEW","base":2000}],"obsTime":1775617200},"SBVT":{"icaoId":"SBVT","flightCategory":"VFR","rawOb":"METAR SBVT 080300Z 32002KT 9999 FEW020 24/23 Q1016","temp":24,"dewp":23,"wdir":320,"wspd":2,"visib":"6+","altim":1016,"clouds":[{"cover":"FEW","base":2000}],"obsTime":1775617200},"SBUR":{"icaoId":"SBUR","flightCategory":"VFR","rawOb":"METAR SBUR 080300Z 07006KT CAVOK 22/18 Q1019","temp":22,"dewp":18,"wdir":70,"wspd":6,"visib":"6+","altim":1019,"clouds":[],"obsTime":1775617200},"SBBR":{"icaoId":"SBBR","flightCategory":"VFR","rawOb":"METAR SBBR 080300Z VRB02KT 9999 FEW040 FEW045TCU 21/19 Q1020","temp":21,"dewp":19,"wdir":"VRB","wspd":2,"visib":"6+","altim":1020,"clouds":[{"cover":"FEW","base":4000},{"cover":"FEW","base":4500}],"obsTime":1775617200},"SBUL":{"icaoId":"SBUL","flightCategory":"VFR","rawOb":"METAR SBUL 080300Z 11004KT CAVOK 22/17 Q1020","temp":22,"dewp":17,"wdir":110,"wspd":4,"visib":"6+","altim":1020,"clouds":[],"obsTime":1775617200},"SBBV":{"icaoId":"SBBV","flightCategory":"VFR","rawOb":"METAR SBBV 080300Z 09009KT 9999 SCT040 FEW045TCU SCT070 29/23 Q1012","temp":29,"dewp":23,"wdir":90,"wspd":9,"visib":"6+","altim":1012,"clouds":[{"cover":"SCT","base":4000},{"cover":"FEW","base":4500},{"cover":"SCT","base":7000}],"obsTime":1775617200},"SBCF":{"icaoId":"SBCF","flightCategory":"VFR","rawOb":"METAR SBCF 080300Z 27002KT CAVOK 20/18 Q1020","temp":20,"dewp":18,"wdir":270,"wspd":2,"visib":"6+","altim":1020,"clouds":[],"obsTime":1775617200},"SBTE":{"icaoId":"SBTE","flightCategory":"VFR","rawOb":"METAR SBTE 080300Z 36004KT CAVOK 26/25 Q1012","temp":26,"dewp":25,"wdir":360,"wspd":4,"visib":"6+","altim":1012,"clouds":[],"obsTime":1775617200},"SBCG":{"icaoId":"SBCG","flightCategory":"VFR","rawOb":"METAR SBCG 080300Z VRB01KT 9999 VCTS FEW035 FEW040CB BKN100 22/21 Q1016","temp":22,"dewp":21,"wdir":"VRB","wspd":1,"visib":"6+","altim":1016,"clouds":[{"cover":"FEW","base":3500},{"cover":"FEW","base":4000},{"cover":"BKN","base":10000}],"obsTime":1775617200},"SBSV":{"icaoId":"SBSV","flightCategory":"VFR","rawOb":"METAR SBSV 080300Z 36003KT 330V050 9999 SCT022 SCT055 26/23 Q1014","temp":26,"dewp":23,"wdir":360,"wspd":3,"visib":"6+","altim":1014,"clouds":[{"cover":"SCT","base":2200},{"cover":"SCT","base":5500}],"obsTime":1775617200},"SBBE":{"icaoId":"SBBE","flightCategory":"VFR","rawOb":"METAR SBBE 080300Z 09006KT CAVOK 25/24 Q1012","temp":25,"dewp":24,"wdir":90,"wspd":6,"visib":"6+","altim":1012,"clouds":[],"obsTime":1775617200},"SBCT":{"icaoId":"SBCT","flightCategory":"VFR","rawOb":"METAR SBCT 080300Z 33008KT 9999 TS FEW040 FEW050CB BKN070 22/20 Q1017","temp":22,"dewp":20,"wdir":330,"wspd":8,"visib":"6+","altim":1017,"clouds":[{"cover":"FEW","base":4000},{"cover":"FEW","base":5000},{"cover":"BKN","base":7000}],"obsTime":1775617200},"SBSP":{"icaoId":"SBSP","flightCategory":"VFR","rawOb":"METAR SBSP 080300Z AUTO 35005KT CAVOK 22/19 Q1018","temp":22,"dewp":19,"wdir":350,"wspd":5,"visib":"6+","altim":1018,"clouds":[],"obsTime":1775617200},"SBSN":{"icaoId":"SBSN","flightCategory":"VFR","rawOb":"METAR SBSN 080300Z 11004KT 9999 FEW017 SCT100 26/25 Q1011","temp":26,"dewp":25,"wdir":110,"wspd":4,"visib":"6+","altim":1011,"clouds":[{"cover":"FEW","base":1700},{"cover":"SCT","base":10000}],"obsTime":1775617200},"SBSL":{"icaoId":"SBSL","flightCategory":"VFR","rawOb":"METAR SBSL 080300Z 06008KT 9999 SCT017 FEW025TCU SCT080 27/25 Q1012","temp":27,"dewp":25,"wdir":60,"wspd":8,"visib":"6+","altim":1012,"clouds":[{"cover":"SCT","base":1700},{"cover":"FEW","base":2500},{"cover":"SCT","base":8000}],"obsTime":1775617200},"SBEG":{"icaoId":"SBEG","flightCategory":"VFR","rawOb":"METAR SBEG 080300Z VRB02KT 9999 FEW020 25/25 Q1012","temp":25,"dewp":25,"wdir":"VRB","wspd":2,"visib":"6+","altim":1012,"clouds":[{"cover":"FEW","base":2000}],"obsTime":1775617200},"SBSG":{"icaoId":"SBSG","flightCategory":"VFR","rawOb":"METAR SBSG 080300Z 18003KT 150V210 9999 SCT017 24/23 Q1013","temp":24,"dewp":23,"wdir":180,"wspd":3,"visib":"6+","altim":1013,"clouds":[{"cover":"SCT","base":1700}],"obsTime":1775617200},"SBRF":{"icaoId":"SBRF","flightCategory":"MVFR","rawOb":"METAR SBRF 080300Z 34003KT 9999 SCT010 BKN015 BKN060 25/24 Q1013","temp":25,"dewp":24,"wdir":340,"wspd":3,"visib":"6+","altim":1013,"clouds":[{"cover":"SCT","base":1000},{"cover":"BKN","base":1500},{"cover":"BKN","base":6000}],"obsTime":1775617200},"SBRB":{"icaoId":"SBRB","flightCategory":"VFR","rawOb":"METAR SBRB 080300Z 25003KT 9999 FEW015 BKN100 24/24 Q1013","temp":24,"dewp":24,"wdir":250,"wspd":3,"visib":"6+","altim":1013,"clouds":[{"cover":"FEW","base":1500},{"cover":"BKN","base":10000}],"obsTime":1775617200},"SBFI":{"icaoId":"SBFI","flightCategory":"IFR","rawOb":"SPECI SBFI 080244Z 25007KT 9999 BKN007 BKN021 21/21 Q1013","temp":21,"dewp":21,"wdir":250,"wspd":7,"visib":"6+","altim":1013,"clouds":[{"cover":"BKN","base":700},{"cover":"BKN","base":2100}],"obsTime":1775616240},"SBPV":{"icaoId":"SBPV","flightCategory":"VFR","rawOb":"METAR SBPV 080300Z 31004KT 9999 TS FEW055 FEW060CB 25/23 Q1012","temp":25,"dewp":23,"wdir":310,"wspd":4,"visib":"6+","altim":1012,"clouds":[{"cover":"FEW","base":5500},{"cover":"FEW","base":6000}],"obsTime":1775617200},"SBFL":{"icaoId":"SBFL","flightCategory":"MVFR","rawOb":"SPECI SBFL 080236Z 36010KT 4900 -TSRA SCT014 FEW040CB BKN050 BKN100 22/21 Q1008 RERA","temp":22,"dewp":21,"wdir":360,"wspd":10,"visib":3.04,"altim":1008,"clouds":[{"cover":"SCT","base":1400},{"cover":"FEW","base":4000},{"cover":"BKN","base":5000},{"cover":"BKN","base":10000}],"obsTime":1775615760},"SBPJ":{"icaoId":"SBPJ","flightCategory":"VFR","rawOb":"METAR SBPJ 080300Z 14004KT 110V170 CAVOK 26/25 Q1013","temp":26,"dewp":25,"wdir":140,"wspd":4,"visib":"6+","altim":1013,"clouds":[],"obsTime":1775617200},"SBFZ":{"icaoId":"SBFZ","flightCategory":"VFR","rawOb":"METAR SBFZ 080300Z 17003KT 9999 FEW023 26/24 Q1012","temp":26,"dewp":24,"wdir":170,"wspd":3,"visib":"6+","altim":1012,"clouds":[{"cover":"FEW","base":2300}],"obsTime":1775617200},"SBPA":{"icaoId":"SBPA","flightCategory":"VFR","rawOb":"METAR SBPA 080300Z 32005KT 290V350 9999 BKN045 23/19 Q1006","temp":23,"dewp":19,"wdir":320,"wspd":5,"visib":"6+","altim":1006,"clouds":[{"cover":"BKN","base":4500}],"obsTime":1775617200},"SBNT":{"icaoId":"SBNT","flightCategory":"VFR","rawOb":"METAR SBNT 080300Z 19004KT 9999 SCT020 24/24 Q1012","temp":24,"dewp":24,"wdir":190,"wspd":4,"visib":"6+","altim":1012,"clouds":[{"cover":"SCT","base":2000}],"obsTime":1775617200},"SBGL":{"icaoId":"SBGL","flightCategory":"VFR","rawOb":"METAR SBGL 080300Z 14002KT CAVOK 25/22 Q1013","temp":25,"dewp":22,"wdir":140,"wspd":2,"visib":"6+","altim":1013,"clouds":[],"obsTime":1775617200},"SBMQ":{"icaoId":"SBMQ","flightCategory":"VFR","rawOb":"METAR SBMQ 080300Z 07010KT 9999 FEW010 28/26 Q1012","temp":28,"dewp":26,"wdir":70,"wspd":10,"visib":"6+","altim":1012,"clouds":[{"cover":"FEW","base":1000}],"obsTime":1775617200},"SBGO":{"icaoId":"SBGO","flightCategory":"VFR","rawOb":"METAR SBGO 080300Z 07003KT 9999 FEW040 SCT100 22/19 Q1019","temp":22,"dewp":19,"wdir":70,"wspd":3,"visib":"6+","altim":1019,"clouds":[{"cover":"FEW","base":4000},{"cover":"SCT","base":10000}],"obsTime":1775617200},"SBGR":{"icaoId":"SBGR","flightCategory":"VFR","rawOb":"METAR SBGR 080300Z 08003KT CAVOK 20/20 Q1017","temp":20,"dewp":20,"wdir":80,"wspd":3,"visib":"6+","altim":1017,"clouds":[],"obsTime":1775617200},"SBMO":{"icaoId":"SBMO","flightCategory":"VFR","rawOb":"METAR SBMO 080300Z 31003KT 9999 SCT015 24/24 Q1014","temp":24,"dewp":24,"wdir":310,"wspd":3,"visib":"6+","altim":1014,"clouds":[{"cover":"SCT","base":1500}],"obsTime":1775617200},"SBMK":{"icaoId":"SBMK","flightCategory":"VFR","rawOb":"METAR SBMK 080300Z 00000KT CAVOK 22/19 Q1018","temp":22,"dewp":19,"wdir":0,"wspd":0,"visib":"6+","altim":1018,"clouds":[],"obsTime":1775617200},"SBJU":{"icaoId":"SBJU","flightCategory":"MVFR","rawOb":"METAR SBJU 080300Z 00000KT 9999 BKN020 24/23 Q1015","temp":24,"dewp":23,"wdir":0,"wspd":0,"visib":"6+","altim":1015,"clouds":[{"cover":"BKN","base":2000}],"obsTime":1775617200},"SBKP":{"icaoId":"SBKP","flightCategory":"VFR","rawOb":"METAR SBKP 080300Z 09002KT CAVOK 21/20 Q1017","temp":21,"dewp":20,"wdir":90,"wspd":2,"visib":"6+","altim":1017,"clouds":[],"obsTime":1775617200},"SBMG":{"icaoId":"SBMG","flightCategory":"VFR","rawOb":"METAR SBMG 080300Z 33005KT CAVOK 21/20 Q1014","temp":21,"dewp":20,"wdir":330,"wspd":5,"visib":"6+","altim":1014,"clouds":[],"obsTime":1775617200},"SBME":{"icaoId":"SBME","flightCategory":"VFR","rawOb":"METAR SBME 080300Z 04006KT CAVOK 25/23 Q1014","temp":25,"dewp":23,"wdir":40,"wspd":6,"visib":"6+","altim":1014,"clouds":[],"obsTime":1775617200},"SBLO":{"icaoId":"SBLO","flightCategory":"IFR","rawOb":"SPECI SBLO 080240Z 27002KT 4000 RA BKN020 FEW040TCU SCT100 21/20 Q1017 RETS","temp":21,"dewp":20,"wdir":270,"wspd":2,"visib":2.49,"altim":1017,"clouds":[{"cover":"BKN","base":2000},{"cover":"FEW","base":4000},{"cover":"SCT","base":10000}],"obsTime":1775616000},"SBKG":{"icaoId":"SBKG","flightCategory":"VFR","rawOb":"METAR SBKG 080300Z 00000KT 9999 SCT007 22/22 Q1015","temp":22,"dewp":22,"wdir":0,"wspd":0,"visib":"6+","altim":1015,"clouds":[{"cover":"SCT","base":700}],"obsTime":1775617200},"SBDN":{"icaoId":"SBDN","flightCategory":"MVFR","rawOb":"METAR SBDN 080300Z 13007KT 6000 -RA BKN050 FEW060TCU 21/20 Q1016","temp":21,"dewp":20,"wdir":130,"wspd":7,"visib":3.73,"altim":1016,"clouds":[{"cover":"BKN","base":5000},{"cover":"FEW","base":6000}],"obsTime":1775617200},"SBPL":{"icaoId":"SBPL","flightCategory":"VFR","rawOb":"METAR SBPL 080300Z 11010KT 9999 SCT020 BKN070 28/21 Q1014","temp":28,"dewp":21,"wdir":110,"wspd":10,"visib":"6+","altim":1014,"clouds":[{"cover":"SCT","base":2000},{"cover":"BKN","base":7000}],"obsTime":1775617200},"SBPS":{"icaoId":"SBPS","flightCategory":"IFR","rawOb":"SPECI SBPS 080240Z 34005KT 300V030 4000 RA BR BKN011 OVC015 25/24 Q1015","temp":25,"dewp":24,"wdir":340,"wspd":5,"visib":2.49,"altim":1015,"clouds":[{"cover":"BKN","base":1100},{"cover":"OVC","base":1500}],"obsTime":1775616000},"SBSR":{"icaoId":"SBSR","flightCategory":"VFR","rawOb":"METAR SBSR 080300Z 03004KT 9999 SCT030 BKN070 24/20 Q1017","temp":24,"dewp":20,"wdir":30,"wspd":4,"visib":"6+","altim":1017,"clouds":[{"cover":"SCT","base":3000},{"cover":"BKN","base":7000}],"obsTime":1775617200},"SBAX":{"icaoId":"SBAX","flightCategory":"VFR","rawOb":"METAR SBAX 080300Z AUTO VRB01KT CAVOK ///// Q1020","temp":null,"dewp":null,"wdir":"VRB","wspd":1,"visib":"6+","altim":1020,"clouds":[],"obsTime":1775617200},"SBOI":{"icaoId":"SBOI","flightCategory":"VFR","rawOb":"METAR SBOI 080400Z AUTO VRB01KT 9999 // SCT002/// 25/24 Q1012","temp":25,"dewp":24,"wdir":"VRB","wspd":1,"visib":"6+","altim":1012,"clouds":[{"cover":"SCT","base":200}],"obsTime":1775620800},"SBIP":{"icaoId":"SBIP","flightCategory":"VFR","rawOb":"METAR SBIP 080300Z AUTO 35001KT CAVOK 20/20 Q1016","temp":20,"dewp":20,"wdir":350,"wspd":1,"visib":"6+","altim":1016,"clouds":[],"obsTime":1775617200},"SBSC":{"icaoId":"SBSC","flightCategory":"VFR","rawOb":"METAR SBSC 080300Z 05003KT 9999 FEW020 24/23 Q1013","temp":24,"dewp":23,"wdir":50,"wspd":3,"visib":"6+","altim":1013,"clouds":[{"cover":"FEW","base":2000}],"obsTime":1775617200},"SBAR":{"icaoId":"SBAR","flightCategory":"VFR","rawOb":"METAR SBAR 080300Z 08007KT 040V100 9999 SCT023 27/24 Q1014","temp":27,"dewp":24,"wdir":80,"wspd":7,"visib":"6+","altim":1014,"clouds":[{"cover":"SCT","base":2300}],"obsTime":1775617200},"SBCO":{"icaoId":"SBCO","flightCategory":"VFR","rawOb":"METAR SBCO 080300Z 33007KT 9999 FEW020 BKN066 22/19 Q1006","temp":22,"dewp":19,"wdir":330,"wspd":7,"visib":"6+","altim":1006,"clouds":[{"cover":"FEW","base":2000},{"cover":"BKN","base":6600}],"obsTime":1775617200},"SBSM":{"icaoId":"SBSM","flightCategory":"MVFR","rawOb":"METAR SBSM 080300Z 27007KT 240V320 9999 FEW012 SCT018 BKN030 21/19 Q1008","temp":21,"dewp":19,"wdir":270,"wspd":7,"visib":"6+","altim":1008,"clouds":[{"cover":"FEW","base":1200},{"cover":"SCT","base":1800},{"cover":"BKN","base":3000}],"obsTime":1775617200},"SBSJ":{"icaoId":"SBSJ","flightCategory":"VFR","rawOb":"SPECI SBSJ 080230Z 00000KT CAVOK 20/20 Q1018","temp":20,"dewp":20,"wdir":0,"wspd":0,"visib":"6+","altim":1018,"clouds":[],"obsTime":1775615400},"SBJP":{"icaoId":"SBJP","flightCategory":"VFR","rawOb":"METAR SBJP 080300Z 24003KT 9999 FEW020 25/24 Q1013","temp":25,"dewp":24,"wdir":240,"wspd":3,"visib":"6+","altim":1013,"clouds":[{"cover":"FEW","base":2000}],"obsTime":1775617200},"SBAN":{"icaoId":"SBAN","flightCategory":"VFR","rawOb":"METAR SBAN 080300Z 09007KT 9999 FEW030 SCT100 19/18 Q1021","temp":19,"dewp":18,"wdir":90,"wspd":7,"visib":"6+","altim":1021,"clouds":[{"cover":"FEW","base":3000},{"cover":"SCT","base":10000}],"obsTime":1775617200},"SBTA":{"icaoId":"SBTA","flightCategory":"VFR","rawOb":"METAR SBTA 080300Z VRB01KT 9999 FEW045 SCT100 21/21 Q1016","temp":21,"dewp":21,"wdir":"VRB","wspd":1,"visib":"6+","altim":1016,"clouds":[{"cover":"FEW","base":4500},{"cover":"SCT","base":10000}],"obsTime":1775617200}}}