{"updated":1779242183,"count":64,"data":{"SBLO":{"icaoId":"SBLO","flightCategory":"MVFR","rawOb":"METAR SBLO 200000Z 02005KT 9999 FEW015 BKN020 19/17 Q1021","temp":19,"dewp":17,"wdir":20,"wspd":5,"visib":"6+","altim":1021,"clouds":[{"cover":"FEW","base":1500},{"cover":"BKN","base":2000}],"obsTime":1779235200},"SBBE":{"icaoId":"SBBE","flightCategory":"VFR","rawOb":"METAR SBBE 200000Z 11006KT 9999 SCT049 SCT079 BKN089 25/24 Q1013","temp":25,"dewp":24,"wdir":110,"wspd":6,"visib":"6+","altim":1013,"clouds":[{"cover":"SCT","base":4900},{"cover":"SCT","base":7900},{"cover":"BKN","base":8900}],"obsTime":1779235200},"SBBR":{"icaoId":"SBBR","flightCategory":"VFR","rawOb":"METAR SBBR 200000Z VRB02KT CAVOK 22/16 Q1021","temp":22,"dewp":16,"wdir":"VRB","wspd":2,"visib":"6+","altim":1021,"clouds":[],"obsTime":1779235200},"SBRF":{"icaoId":"SBRF","flightCategory":"VFR","rawOb":"METAR SBRF 200000Z 16008KT 9999 SCT023 SCT050 26/23 Q1015","temp":26,"dewp":23,"wdir":160,"wspd":8,"visib":"6+","altim":1015,"clouds":[{"cover":"SCT","base":2300},{"cover":"SCT","base":5000}],"obsTime":1779235200},"SBBV":{"icaoId":"SBBV","flightCategory":"VFR","rawOb":"METAR SBBV 200000Z 07006KT 9999 FEW030 SCT100 27/23 Q1012","temp":27,"dewp":23,"wdir":70,"wspd":6,"visib":"6+","altim":1012,"clouds":[{"cover":"FEW","base":3000},{"cover":"SCT","base":10000}],"obsTime":1779235200},"SBCF":{"icaoId":"SBCF","flightCategory":"VFR","rawOb":"METAR SBCF 200000Z 16004KT 9000 FEW030 21/20 Q1022","temp":21,"dewp":20,"wdir":160,"wspd":4,"visib":5.59,"altim":1022,"clouds":[{"cover":"FEW","base":3000}],"obsTime":1779235200},"SBCG":{"icaoId":"SBCG","flightCategory":"VFR","rawOb":"METAR SBCG 200000Z 13008KT 9999 BKN040 BKN060 16/13 Q1021","temp":16,"dewp":13,"wdir":130,"wspd":8,"visib":"6+","altim":1021,"clouds":[{"cover":"BKN","base":4000},{"cover":"BKN","base":6000}],"obsTime":1779235200},"SBCT":{"icaoId":"SBCT","flightCategory":"LIFR","rawOb":"METAR SBCT 200000Z 12003KT 9999 OVC004 13/13 Q1023","temp":13,"dewp":13,"wdir":120,"wspd":3,"visib":"6+","altim":1023,"clouds":[{"cover":"OVC","base":400}],"obsTime":1779235200},"SBEG":{"icaoId":"SBEG","flightCategory":"VFR","rawOb":"METAR SBEG 200000Z 00000KT 9999 VCTS FEW030 FEW035CB 26/25 Q1012","temp":26,"dewp":25,"wdir":0,"wspd":0,"visib":"6+","altim":1012,"clouds":[{"cover":"FEW","base":3000},{"cover":"FEW","base":3500}],"obsTime":1779235200},"SBFI":{"icaoId":"SBFI","flightCategory":"VFR","rawOb":"METAR SBFI 200000Z 20003KT CAVOK 12/12 Q1021","temp":12,"dewp":12,"wdir":200,"wspd":3,"visib":"6+","altim":1021,"clouds":[],"obsTime":1779235200},"SBFL":{"icaoId":"SBFL","flightCategory":"VFR","rawOb":"METAR SBFL 200000Z VRB02KT 9999 SCT026 BKN080 17/13 Q1022","temp":17,"dewp":13,"wdir":"VRB","wspd":2,"visib":"6+","altim":1022,"clouds":[{"cover":"SCT","base":2600},{"cover":"BKN","base":8000}],"obsTime":1779235200},"SBFZ":{"icaoId":"SBFZ","flightCategory":"VFR","rawOb":"METAR SBFZ 200000Z 11007KT CAVOK 27/24 Q1014","temp":27,"dewp":24,"wdir":110,"wspd":7,"visib":"6+","altim":1014,"clouds":[],"obsTime":1779235200},"SBGL":{"icaoId":"SBGL","flightCategory":"MVFR","rawOb":"METAR SBGL 200000Z 25007KT 9999 FEW015 BKN020 OVC030 23/20 Q1019","temp":23,"dewp":20,"wdir":250,"wspd":7,"visib":"6+","altim":1019,"clouds":[{"cover":"FEW","base":1500},{"cover":"BKN","base":2000},{"cover":"OVC","base":3000}],"obsTime":1779235200},"SBGO":{"icaoId":"SBGO","flightCategory":"VFR","rawOb":"METAR SBGO 200000Z 14008KT CAVOK 24/21 Q1020","temp":24,"dewp":21,"wdir":140,"wspd":8,"visib":"6+","altim":1020,"clouds":[],"obsTime":1779235200},"SBGR":{"icaoId":"SBGR","flightCategory":"MVFR","rawOb":"METAR SBGR 200000Z 00000KT 9999 BKN011 OVC015 17/15 Q1023","temp":17,"dewp":15,"wdir":0,"wspd":0,"visib":"6+","altim":1023,"clouds":[{"cover":"BKN","base":1100},{"cover":"OVC","base":1500}],"obsTime":1779235200},"SBIL":{"icaoId":"SBIL","flightCategory":"VFR","rawOb":"METAR SBIL 200000Z 13006KT 9999 FEW023 27/23 Q1018","temp":27,"dewp":23,"wdir":130,"wspd":6,"visib":"6+","altim":1018,"clouds":[{"cover":"FEW","base":2300}],"obsTime":1779235200},"SBJU":{"icaoId":"SBJU","flightCategory":"VFR","rawOb":"METAR SBJU 200000Z 00000KT 9999 SCT020 25/18 Q1016","temp":25,"dewp":18,"wdir":0,"wspd":0,"visib":"6+","altim":1016,"clouds":[{"cover":"SCT","base":2000}],"obsTime":1779235200},"SBKP":{"icaoId":"SBKP","flightCategory":"VFR","rawOb":"METAR SBKP 200000Z 13005KT 9999 FEW020 BKN050 18/16 Q1022","temp":18,"dewp":16,"wdir":130,"wspd":5,"visib":"6+","altim":1022,"clouds":[{"cover":"FEW","base":2000},{"cover":"BKN","base":5000}],"obsTime":1779235200},"SBMA":{"icaoId":"SBMA","flightCategory":"VFR","rawOb":"METAR SBMA 200000Z 21002KT CAVOK 27/24 Q1012","temp":27,"dewp":24,"wdir":210,"wspd":2,"visib":"6+","altim":1012,"clouds":[],"obsTime":1779235200},"SBME":{"icaoId":"SBME","flightCategory":"VFR","rawOb":"METAR SBME 200000Z 25006KT 9999 SCT025 BKN100 24/20 Q1018","temp":24,"dewp":20,"wdir":250,"wspd":6,"visib":"6+","altim":1018,"clouds":[{"cover":"SCT","base":2500},{"cover":"BKN","base":10000}],"obsTime":1779235200},"SBMG":{"icaoId":"SBMG","flightCategory":"VFR","rawOb":"METAR SBMG 200000Z 34004KT CAVOK 16/15 Q1020","temp":16,"dewp":15,"wdir":340,"wspd":4,"visib":"6+","altim":1020,"clouds":[],"obsTime":1779235200},"SBMK":{"icaoId":"SBMK","flightCategory":"VFR","rawOb":"METAR SBMK 200000Z 00000KT CAVOK 23/18 Q1019","temp":23,"dewp":18,"wdir":0,"wspd":0,"visib":"6+","altim":1019,"clouds":[],"obsTime":1779235200},"SBMO":{"icaoId":"SBMO","flightCategory":"VFR","rawOb":"METAR SBMO 200000Z 10003KT CAVOK 23/21 Q1016","temp":23,"dewp":21,"wdir":100,"wspd":3,"visib":"6+","altim":1016,"clouds":[],"obsTime":1779235200},"SBMQ":{"icaoId":"SBMQ","flightCategory":"VFR","rawOb":"METAR SBMQ 200000Z 02005KT 9999 FEW020 28/26 Q1013","temp":28,"dewp":26,"wdir":20,"wspd":5,"visib":"6+","altim":1013,"clouds":[{"cover":"FEW","base":2000}],"obsTime":1779235200},"SBNT":{"icaoId":"SBNT","flightCategory":"VFR","rawOb":"METAR SBNT 200000Z 16004KT 9999 FEW020 25/24 Q1015","temp":25,"dewp":24,"wdir":160,"wspd":4,"visib":"6+","altim":1015,"clouds":[{"cover":"FEW","base":2000}],"obsTime":1779235200},"SBPA":{"icaoId":"SBPA","flightCategory":"VFR","rawOb":"METAR SBPA 200000Z VRB02KT CAVOK 11/08 Q1022","temp":11,"dewp":8,"wdir":"VRB","wspd":2,"visib":"6+","altim":1022,"clouds":[],"obsTime":1779235200},"SBPJ":{"icaoId":"SBPJ","flightCategory":"VFR","rawOb":"METAR SBPJ 200000Z 12005KT CAVOK 26/20 Q1014","temp":26,"dewp":20,"wdir":120,"wspd":5,"visib":"6+","altim":1014,"clouds":[],"obsTime":1779235200},"SBPV":{"icaoId":"SBPV","flightCategory":"MVFR","rawOb":"METAR SBPV 200000Z 18004KT 9999 OVC011 22/19 Q1015","temp":22,"dewp":19,"wdir":180,"wspd":4,"visib":"6+","altim":1015,"clouds":[{"cover":"OVC","base":1100}],"obsTime":1779235200},"SBRB":{"icaoId":"SBRB","flightCategory":"MVFR","rawOb":"METAR SBRB 200000Z COR 15002KT 8000 OVC015 19/18 Q1017","temp":19,"dewp":18,"wdir":150,"wspd":2,"visib":4.97,"altim":1017,"clouds":[{"cover":"OVC","base":1500}],"obsTime":1779235200},"SBSG":{"icaoId":"SBSG","flightCategory":"VFR","rawOb":"METAR SBSG 200000Z 17002KT 9999 FEW020 24/23 Q1015","temp":24,"dewp":23,"wdir":170,"wspd":2,"visib":"6+","altim":1015,"clouds":[{"cover":"FEW","base":2000}],"obsTime":1779235200},"SBSL":{"icaoId":"SBSL","flightCategory":"VFR","rawOb":"METAR SBSL 200000Z 08004KT 9999 SCT025 27/25 Q1012","temp":27,"dewp":25,"wdir":80,"wspd":4,"visib":"6+","altim":1012,"clouds":[{"cover":"SCT","base":2500}],"obsTime":1779235200},"SBSN":{"icaoId":"SBSN","flightCategory":"VFR","rawOb":"METAR SBSN 200000Z 18003KT 9999 FEW030 FEW040TCU BKN080 27/25 Q1012","temp":27,"dewp":25,"wdir":180,"wspd":3,"visib":"6+","altim":1012,"clouds":[{"cover":"FEW","base":3000},{"cover":"FEW","base":4000},{"cover":"BKN","base":8000}],"obsTime":1779235200},"SBSP":{"icaoId":"SBSP","flightCategory":"IFR","rawOb":"METAR SBSP 200000Z 20006KT 180V240 9999 OVC009 16/15 Q1024","temp":16,"dewp":15,"wdir":200,"wspd":6,"visib":"6+","altim":1024,"clouds":[{"cover":"OVC","base":900}],"obsTime":1779235200},"SBSV":{"icaoId":"SBSV","flightCategory":"VFR","rawOb":"METAR SBSV 200000Z 13011KT 9999 SCT020 27/23 Q1017","temp":27,"dewp":23,"wdir":130,"wspd":11,"visib":"6+","altim":1017,"clouds":[{"cover":"SCT","base":2000}],"obsTime":1779235200},"SBTE":{"icaoId":"SBTE","flightCategory":"VFR","rawOb":"METAR SBTE 200000Z 34003KT 9999 FEW015 28/24 Q1012","temp":28,"dewp":24,"wdir":340,"wspd":3,"visib":"6+","altim":1012,"clouds":[{"cover":"FEW","base":1500}],"obsTime":1779235200},"SBUL":{"icaoId":"SBUL","flightCategory":"VFR","rawOb":"METAR SBUL 200000Z 22010KT 9999 FEW020 BKN083 20/19 Q1022","temp":20,"dewp":19,"wdir":220,"wspd":10,"visib":"6+","altim":1022,"clouds":[{"cover":"FEW","base":2000},{"cover":"BKN","base":8300}],"obsTime":1779235200},"SBUR":{"icaoId":"SBUR","flightCategory":"VFR","rawOb":"METAR SBUR 200000Z 18004KT 9999 SCT040 21/19 Q1022","temp":21,"dewp":19,"wdir":180,"wspd":4,"visib":"6+","altim":1022,"clouds":[{"cover":"SCT","base":4000}],"obsTime":1779235200},"SBVT":{"icaoId":"SBVT","flightCategory":"VFR","rawOb":"METAR SBVT 200000Z 20005KT 9999 FEW025 24/22 Q1018","temp":24,"dewp":22,"wdir":200,"wspd":5,"visib":"6+","altim":1018,"clouds":[{"cover":"FEW","base":2500}],"obsTime":1779235200},"SBCZ":{"icaoId":"SBCZ","flightCategory":"MVFR","rawOb":"METAR SBCZ 200000Z 14005KT 9999 BKN010 OVC090 23/21 Q1015","temp":23,"dewp":21,"wdir":140,"wspd":5,"visib":"6+","altim":1015,"clouds":[{"cover":"BKN","base":1000},{"cover":"OVC","base":9000}],"obsTime":1779235200},"SBOI":{"icaoId":"SBOI","flightCategory":"VFR","rawOb":"METAR SBOI 200000Z AUTO 26002KT 9999 // FEW012/// SCT016/// OVC031/// 25/24 Q1014","temp":25,"dewp":24,"wdir":260,"wspd":2,"visib":"6+","altim":1014,"clouds":[{"cover":"FEW","base":1200},{"cover":"SCT","base":1600},{"cover":"OVC","base":3100}],"obsTime":1779235200},"SBAX":{"icaoId":"SBAX","flightCategory":"VFR","rawOb":"METAR SBAX 200000Z 20004KT 9999 SCT040 21/21 Q1022","temp":21,"dewp":21,"wdir":200,"wspd":4,"visib":"6+","altim":1022,"clouds":[{"cover":"SCT","base":4000}],"obsTime":1779235200},"SBCO":{"icaoId":"SBCO","flightCategory":"VFR","rawOb":"METAR SBCO 200000Z VRB01KT CAVOK 08/07 Q1022","temp":8,"dewp":7,"wdir":"VRB","wspd":1,"visib":"6+","altim":1022,"clouds":[],"obsTime":1779235200},"SBPL":{"icaoId":"SBPL","flightCategory":"VFR","rawOb":"METAR SBPL 200000Z 13005KT CAVOK 28/15 Q1016","temp":28,"dewp":15,"wdir":130,"wspd":5,"visib":"6+","altim":1016,"clouds":[],"obsTime":1779235200},"SBAR":{"icaoId":"SBAR","flightCategory":"VFR","rawOb":"METAR SBAR 200000Z 11006KT 9999 FEW023 27/22 Q1016","temp":27,"dewp":22,"wdir":110,"wspd":6,"visib":"6+","altim":1016,"clouds":[{"cover":"FEW","base":2300}],"obsTime":1779235200},"SBPS":{"icaoId":"SBPS","flightCategory":"VFR","rawOb":"METAR SBPS 200000Z 08008KT CAVOK 25/23 Q1018","temp":25,"dewp":23,"wdir":80,"wspd":8,"visib":"6+","altim":1018,"clouds":[],"obsTime":1779235200},"SBDN":{"icaoId":"SBDN","flightCategory":"VFR","rawOb":"METAR SBDN 200000Z 30001KT CAVOK 17/15 Q1020 RETS","temp":17,"dewp":15,"wdir":300,"wspd":1,"visib":"6+","altim":1020,"clouds":[],"obsTime":1779235200},"SBSC":{"icaoId":"SBSC","flightCategory":"VFR","rawOb":"METAR SBSC 200000Z 24004KT 9999 FEW012 SCT030 22/20 Q1020","temp":22,"dewp":20,"wdir":240,"wspd":4,"visib":"6+","altim":1020,"clouds":[{"cover":"FEW","base":1200},{"cover":"SCT","base":3000}],"obsTime":1779235200},"SBSJ":{"icaoId":"SBSJ","flightCategory":"MVFR","rawOb":"METAR SBSJ 200000Z 21003KT 9999 OVC020 18/15 Q1022","temp":18,"dewp":15,"wdir":210,"wspd":3,"visib":"6+","altim":1022,"clouds":[{"cover":"OVC","base":2000}],"obsTime":1779235200},"SBES":{"icaoId":"SBES","flightCategory":"MVFR","rawOb":"METAR SBES 200000Z VRB04KT 9999 BKN012 22/// Q1019","temp":null,"dewp":null,"wdir":"VRB","wspd":4,"visib":"6+","altim":1019,"clouds":[{"cover":"BKN","base":1200}],"obsTime":1779235200},"SBBH":{"icaoId":"SBBH","flightCategory":"MVFR","rawOb":"METAR SBBH 200000Z 11005KT 5000 -TSRA SCT005 FEW045CB BKN049 22/19 Q1021","temp":22,"dewp":19,"wdir":110,"wspd":5,"visib":3.11,"altim":1021,"clouds":[{"cover":"SCT","base":500},{"cover":"FEW","base":4500},{"cover":"BKN","base":4900}],"obsTime":1779235200},"SBSM":{"icaoId":"SBSM","flightCategory":"VFR","rawOb":"METAR SBSM 200000Z 02002KT CAVOK 06/06 Q1023","temp":6,"dewp":6,"wdir":20,"wspd":2,"visib":"6+","altim":1023,"clouds":[],"obsTime":1779235200},"SBKG":{"icaoId":"SBKG","flightCategory":"VFR","rawOb":"METAR SBKG 200000Z 09005KT CAVOK 22/20 Q1018","temp":22,"dewp":20,"wdir":90,"wspd":5,"visib":"6+","altim":1018,"clouds":[],"obsTime":1779235200},"SBSR":{"icaoId":"SBSR","flightCategory":"VFR","rawOb":"METAR SBSR 200000Z 18003KT 9999 SCT025 BKN070 20/18 Q1021","temp":20,"dewp":18,"wdir":180,"wspd":3,"visib":"6+","altim":1021,"clouds":[{"cover":"SCT","base":2500},{"cover":"BKN","base":7000}],"obsTime":1779235200},"SBTU":{"icaoId":"SBTU","flightCategory":"VFR","rawOb":"METAR SBTU 200000Z AUTO VRB01KT 9999 // SCT045/// BKN061/// ///// Q1014","temp":null,"dewp":null,"wdir":"VRB","wspd":1,"visib":"6+","altim":1014,"clouds":[{"cover":"SCT","base":4500},{"cover":"BKN","base":6100}],"obsTime":1779235200},"SBIP":{"icaoId":"SBIP","flightCategory":"VFR","rawOb":"METAR SBIP 200000Z AUTO VRB01KT CAVOK 21/21 Q1018","temp":21,"dewp":21,"wdir":"VRB","wspd":1,"visib":"6+","altim":1018,"clouds":[],"obsTime":1779235200},"SBBU":{"icaoId":"SBBU","flightCategory":"MVFR","rawOb":"METAR SBBU 200000Z 15004KT 9999 BKN010 19/18 Q1021","temp":19,"dewp":18,"wdir":150,"wspd":4,"visib":"6+","altim":1021,"clouds":[{"cover":"BKN","base":1000}],"obsTime":1779235200},"SBJV":{"icaoId":"SBJV","flightCategory":"MVFR","rawOb":"METAR SBJV 200000Z 33002KT 9999 BKN025 17/16 Q1022","temp":17,"dewp":16,"wdir":330,"wspd":2,"visib":"6+","altim":1022,"clouds":[{"cover":"BKN","base":2500}],"obsTime":1779235200},"SBAN":{"icaoId":"SBAN","flightCategory":"VFR","rawOb":"METAR SBAN 200000Z 27006KT CAVOK 21/18 Q1022","temp":21,"dewp":18,"wdir":270,"wspd":6,"visib":"6+","altim":1022,"clouds":[],"obsTime":1779235200},"SBLE":{"icaoId":"SBLE","flightCategory":"VFR","rawOb":"METAR SBLE 200000Z AUTO VRB02KT CAVOK 20/20 Q1018","temp":20,"dewp":20,"wdir":"VRB","wspd":2,"visib":"6+","altim":1018,"clouds":[],"obsTime":1779235200},"SBLS":{"icaoId":"SBLS","flightCategory":"VFR","rawOb":"METAR SBLS 200000Z 18006KT 9999 FEW033 21/18 Q1021","temp":21,"dewp":18,"wdir":180,"wspd":6,"visib":"6+","altim":1021,"clouds":[{"cover":"FEW","base":3300}],"obsTime":1779235200},"SBMT":{"icaoId":"SBMT","flightCategory":"MVFR","rawOb":"METAR SBMT 200000Z 16004KT 8000 OVC013 17/15 Q1023","temp":17,"dewp":15,"wdir":160,"wspd":4,"visib":4.97,"altim":1023,"clouds":[{"cover":"OVC","base":1300}],"obsTime":1779235200},"SBJP":{"icaoId":"SBJP","flightCategory":"MVFR","rawOb":"METAR SBJP 200000Z 00000KT 9999 BKN013 25/24 Q1016","temp":25,"dewp":24,"wdir":0,"wspd":0,"visib":"6+","altim":1016,"clouds":[{"cover":"BKN","base":1300}],"obsTime":1779235200},"SBTA":{"icaoId":"SBTA","flightCategory":"MVFR","rawOb":"METAR SBTA 200000Z 25006KT 9999 OVC020 19/17 Q1021","temp":19,"dewp":17,"wdir":250,"wspd":6,"visib":"6+","altim":1021,"clouds":[{"cover":"OVC","base":2000}],"obsTime":1779235200},"SBJR":{"icaoId":"SBJR","flightCategory":"IFR","rawOb":"METAR SBJR 200000Z 27004KT 6000 -DZ BKN006 BKN010 OVC080 22/21 Q1019 REDZ","temp":22,"dewp":21,"wdir":270,"wspd":4,"visib":3.73,"altim":1019,"clouds":[{"cover":"BKN","base":600},{"cover":"BKN","base":1000},{"cover":"OVC","base":8000}],"obsTime":1779235200}}}