{"updated":1783783603,"count":88,"data":{"SBAT":{"icaoId":"SBAT","flightCategory":"VFR","rawOb":"METAR SBAT 111400Z 03008KT CAVOK 30/21 Q1015","temp":30,"dewp":21,"wdir":30,"wspd":8,"visib":"6+","altim":1015,"clouds":[],"obsTime":1783778400},"SBSN":{"icaoId":"SBSN","flightCategory":"VFR","rawOb":"METAR SBSN 111400Z 09015KT 9999 SCT020 29/24 Q1013","temp":29,"dewp":24,"wdir":90,"wspd":15,"visib":"6+","altim":1013,"clouds":[{"cover":"SCT","base":2000}],"obsTime":1783778400},"SBCT":{"icaoId":"SBCT","flightCategory":"VFR","rawOb":"METAR SBCT 111400Z 33008KT 300V360 CAVOK 21/15 Q1016","temp":21,"dewp":15,"wdir":330,"wspd":8,"visib":"6+","altim":1016,"clouds":[],"obsTime":1783778400},"SBGO":{"icaoId":"SBGO","flightCategory":"VFR","rawOb":"METAR SBGO 111400Z 01004KT 310V100 9999 FEW040 29/13 Q1020","temp":29,"dewp":13,"wdir":10,"wspd":4,"visib":"6+","altim":1020,"clouds":[{"cover":"FEW","base":4000}],"obsTime":1783778400},"SBSV":{"icaoId":"SBSV","flightCategory":"VFR","rawOb":"METAR SBSV 111400Z 08008KT 9999 SCT026 28/21 Q1017","temp":28,"dewp":21,"wdir":80,"wspd":8,"visib":"6+","altim":1017,"clouds":[{"cover":"SCT","base":2600}],"obsTime":1783778400},"SBCB":{"icaoId":"SBCB","flightCategory":"VFR","rawOb":"METAR SBCB 111400Z 31004KT CAVOK 24/19 Q1015","temp":24,"dewp":19,"wdir":310,"wspd":4,"visib":"6+","altim":1015,"clouds":[],"obsTime":1783778400},"SBFZ":{"icaoId":"SBFZ","flightCategory":"MVFR","rawOb":"METAR SBFZ 111400Z 12016KT 9999 BKN027 29/24 Q1014","temp":29,"dewp":24,"wdir":120,"wspd":16,"visib":"6+","altim":1014,"clouds":[{"cover":"BKN","base":2700}],"obsTime":1783778400},"SBFL":{"icaoId":"SBFL","flightCategory":"IFR","rawOb":"SPECI SBFL 111349Z 31011KT 280V350 5000 BR BKN005 BKN050 15/15 Q1012 RERA","temp":15,"dewp":15,"wdir":310,"wspd":11,"visib":3.11,"altim":1012,"clouds":[{"cover":"BKN","base":500},{"cover":"BKN","base":5000}],"obsTime":1783777740},"SBMO":{"icaoId":"SBMO","flightCategory":"MVFR","rawOb":"METAR SBMO 111400Z 10008KT 9999 BKN030 27/21 Q1017","temp":27,"dewp":21,"wdir":100,"wspd":8,"visib":"6+","altim":1017,"clouds":[{"cover":"BKN","base":3000}],"obsTime":1783778400},"SBEG":{"icaoId":"SBEG","flightCategory":"VFR","rawOb":"METAR SBEG 111400Z 08010KT 9999 SCT025 30/25 Q1014","temp":30,"dewp":25,"wdir":80,"wspd":10,"visib":"6+","altim":1014,"clouds":[{"cover":"SCT","base":2500}],"obsTime":1783778400},"SBBE":{"icaoId":"SBBE","flightCategory":"VFR","rawOb":"METAR SBBE 111400Z 08012KT 9999 SCT025 30/23 Q1014","temp":30,"dewp":23,"wdir":80,"wspd":12,"visib":"6+","altim":1014,"clouds":[{"cover":"SCT","base":2500}],"obsTime":1783778400},"SBPV":{"icaoId":"SBPV","flightCategory":"VFR","rawOb":"METAR SBPV 111400Z 36003KT CAVOK 29/22 Q1014","temp":29,"dewp":22,"wdir":360,"wspd":3,"visib":"6+","altim":1014,"clouds":[],"obsTime":1783778400},"SBCF":{"icaoId":"SBCF","flightCategory":"VFR","rawOb":"METAR SBCF 111400Z 17003KT CAVOK 24/12 Q1021","temp":24,"dewp":12,"wdir":170,"wspd":3,"visib":"6+","altim":1021,"clouds":[],"obsTime":1783778400},"SBRB":{"icaoId":"SBRB","flightCategory":"VFR","rawOb":"METAR SBRB 111400Z 28005KT 9999 SCT020 BKN080 25/22 Q1015","temp":25,"dewp":22,"wdir":280,"wspd":5,"visib":"6+","altim":1015,"clouds":[{"cover":"SCT","base":2000},{"cover":"BKN","base":8000}],"obsTime":1783778400},"SBPJ":{"icaoId":"SBPJ","flightCategory":"VFR","rawOb":"METAR SBPJ 111400Z 27007KT CAVOK 31/20 Q1016","temp":31,"dewp":20,"wdir":270,"wspd":7,"visib":"6+","altim":1016,"clouds":[],"obsTime":1783778400},"SBSG":{"icaoId":"SBSG","flightCategory":"VFR","rawOb":"METAR SBSG 111400Z 13009KT 090V180 9999 SCT025 29/23 Q1016","temp":29,"dewp":23,"wdir":130,"wspd":9,"visib":"6+","altim":1016,"clouds":[{"cover":"SCT","base":2500}],"obsTime":1783778400},"SBBV":{"icaoId":"SBBV","flightCategory":"MVFR","rawOb":"METAR SBBV 111400Z 11009KT 9999 BKN030 BKN070 29/23 Q1015","temp":29,"dewp":23,"wdir":110,"wspd":9,"visib":"6+","altim":1015,"clouds":[{"cover":"BKN","base":3000},{"cover":"BKN","base":7000}],"obsTime":1783778400},"SBCZ":{"icaoId":"SBCZ","flightCategory":"VFR","rawOb":"METAR SBCZ 111400Z 35004KT 320V020 9999 FEW006 BKN080 24/23 Q1015","temp":24,"dewp":23,"wdir":350,"wspd":4,"visib":"6+","altim":1015,"clouds":[{"cover":"FEW","base":600},{"cover":"BKN","base":8000}],"obsTime":1783778400},"SBNT":{"icaoId":"SBNT","flightCategory":"MVFR","rawOb":"METAR SBNT 111400Z 14017KT 9999 BKN025 29/22 Q1016","temp":29,"dewp":22,"wdir":140,"wspd":17,"visib":"6+","altim":1016,"clouds":[{"cover":"BKN","base":2500}],"obsTime":1783778400},"SBPA":{"icaoId":"SBPA","flightCategory":"IFR","rawOb":"METAR SBPA 111400Z VRB02KT 9999 BKN007 BKN040 FEW045TCU BKN080 15/14 Q1013","temp":15,"dewp":14,"wdir":"VRB","wspd":2,"visib":"6+","altim":1013,"clouds":[{"cover":"BKN","base":700},{"cover":"BKN","base":4000},{"cover":"FEW","base":4500},{"cover":"BKN","base":8000}],"obsTime":1783778400},"SBRF":{"icaoId":"SBRF","flightCategory":"VFR","rawOb":"METAR SBRF 111400Z 14011KT 9999 SCT023 28/22 Q1017","temp":28,"dewp":22,"wdir":140,"wspd":11,"visib":"6+","altim":1017,"clouds":[{"cover":"SCT","base":2300}],"obsTime":1783778400},"SBGL":{"icaoId":"SBGL","flightCategory":"VFR","rawOb":"METAR SBGL 111400Z 05002KT 9000 NSC 25/17 Q1014","temp":25,"dewp":17,"wdir":50,"wspd":2,"visib":5.59,"altim":1014,"clouds":[],"obsTime":1783778400},"SBSL":{"icaoId":"SBSL","flightCategory":"VFR","rawOb":"METAR SBSL 111400Z 06011KT 040V110 9999 SCT025 31/24 Q1014","temp":31,"dewp":24,"wdir":60,"wspd":11,"visib":"6+","altim":1014,"clouds":[{"cover":"SCT","base":2500}],"obsTime":1783778400},"SBMA":{"icaoId":"SBMA","flightCategory":"VFR","rawOb":"METAR SBMA 111400Z 02007KT 9999 SCT018 29/23 Q1014","temp":29,"dewp":23,"wdir":20,"wspd":7,"visib":"6+","altim":1014,"clouds":[{"cover":"SCT","base":1800}],"obsTime":1783778400},"SBTE":{"icaoId":"SBTE","flightCategory":"VFR","rawOb":"METAR SBTE 111400Z 14005KT CAVOK 30/21 Q1014","temp":30,"dewp":21,"wdir":140,"wspd":5,"visib":"6+","altim":1014,"clouds":[],"obsTime":1783778400},"SBCR":{"icaoId":"SBCR","flightCategory":"VFR","rawOb":"METAR SBCR 111400Z VRB02KT CAVOK 28/21 Q1014","temp":28,"dewp":21,"wdir":"VRB","wspd":2,"visib":"6+","altim":1014,"clouds":[],"obsTime":1783778400},"SBMQ":{"icaoId":"SBMQ","flightCategory":"VFR","rawOb":"METAR SBMQ 111400Z 07012KT 9999 SCT027 30/24 Q1014","temp":30,"dewp":24,"wdir":70,"wspd":12,"visib":"6+","altim":1014,"clouds":[{"cover":"SCT","base":2700}],"obsTime":1783778400},"SBIL":{"icaoId":"SBIL","flightCategory":"VFR","rawOb":"METAR SBIL 111400Z 04004KT 9999 FEW023 28/22 Q1017","temp":28,"dewp":22,"wdir":40,"wspd":4,"visib":"6+","altim":1017,"clouds":[{"cover":"FEW","base":2300}],"obsTime":1783778400},"SBJU":{"icaoId":"SBJU","flightCategory":"VFR","rawOb":"METAR SBJU 111400Z 10005KT 9999 FEW022 30/18 Q1017","temp":30,"dewp":18,"wdir":100,"wspd":5,"visib":"6+","altim":1017,"clouds":[{"cover":"FEW","base":2200}],"obsTime":1783778400},"SBBR":{"icaoId":"SBBR","flightCategory":"VFR","rawOb":"METAR SBBR 111400Z 09005KT 040V150 9999 FEW030 26/13 Q1022","temp":26,"dewp":13,"wdir":90,"wspd":5,"visib":"6+","altim":1022,"clouds":[{"cover":"FEW","base":3000}],"obsTime":1783778400},"SBHT":{"icaoId":"SBHT","flightCategory":"VFR","rawOb":"METAR SBHT 111400Z 10009KT 9999 SCT012 SCT020 29/25 Q1014","temp":29,"dewp":25,"wdir":100,"wspd":9,"visib":"6+","altim":1014,"clouds":[{"cover":"SCT","base":1200},{"cover":"SCT","base":2000}],"obsTime":1783778400},"SBMG":{"icaoId":"SBMG","flightCategory":"VFR","rawOb":"METAR SBMG 111400Z 01016KT CAVOK 24/15 Q1014","temp":24,"dewp":15,"wdir":10,"wspd":16,"visib":"6+","altim":1014,"clouds":[],"obsTime":1783778400},"SBME":{"icaoId":"SBME","flightCategory":"VFR","rawOb":"METAR SBME 111400Z 16007KT CAVOK 24/18 Q1015","temp":24,"dewp":18,"wdir":160,"wspd":7,"visib":"6+","altim":1015,"clouds":[],"obsTime":1783778400},"SBMK":{"icaoId":"SBMK","flightCategory":"VFR","rawOb":"METAR SBMK 111400Z 13006KT CAVOK 28/12 Q1019","temp":28,"dewp":12,"wdir":130,"wspd":6,"visib":"6+","altim":1019,"clouds":[],"obsTime":1783778400},"SBUL":{"icaoId":"SBUL","flightCategory":"VFR","rawOb":"METAR SBUL 111400Z 09009KT 030V100 CAVOK 25/13 Q1021","temp":25,"dewp":13,"wdir":90,"wspd":9,"visib":"6+","altim":1021,"clouds":[],"obsTime":1783778400},"SBUR":{"icaoId":"SBUR","flightCategory":"VFR","rawOb":"METAR SBUR 111400Z 35007KT CAVOK 26/12 Q1020","temp":26,"dewp":12,"wdir":350,"wspd":7,"visib":"6+","altim":1020,"clouds":[],"obsTime":1783778400},"SBLO":{"icaoId":"SBLO","flightCategory":"VFR","rawOb":"METAR SBLO 111400Z 02008KT 350V050 CAVOK 22/14 Q1016","temp":22,"dewp":14,"wdir":20,"wspd":8,"visib":"6+","altim":1016,"clouds":[],"obsTime":1783778400},"SBCP":{"icaoId":"SBCP","flightCategory":"VFR","rawOb":"METAR SBCP 111400Z 19003KT CAVOK 26/16 Q1016","temp":26,"dewp":16,"wdir":190,"wspd":3,"visib":"6+","altim":1016,"clouds":[],"obsTime":1783778400},"SBCG":{"icaoId":"SBCG","flightCategory":"VFR","rawOb":"METAR SBCG 111400Z 34010KT CAVOK 29/15 Q1017","temp":29,"dewp":15,"wdir":340,"wspd":10,"visib":"6+","altim":1017,"clouds":[],"obsTime":1783778400},"SBGR":{"icaoId":"SBGR","flightCategory":"VFR","rawOb":"METAR SBGR 111400Z 33002KT CAVOK 24/11 Q1018","temp":24,"dewp":11,"wdir":330,"wspd":2,"visib":"6+","altim":1018,"clouds":[],"obsTime":1783778400},"SBKP":{"icaoId":"SBKP","flightCategory":"VFR","rawOb":"METAR SBKP 111400Z 02006KT 340V060 CAVOK 24/10 Q1018","temp":24,"dewp":10,"wdir":20,"wspd":6,"visib":"6+","altim":1018,"clouds":[],"obsTime":1783778400},"SBSP":{"icaoId":"SBSP","flightCategory":"VFR","rawOb":"METAR SBSP 111400Z 36009KT 320V020 CAVOK 23/10 Q1019","temp":23,"dewp":10,"wdir":360,"wspd":9,"visib":"6+","altim":1019,"clouds":[],"obsTime":1783778400},"SBVT":{"icaoId":"SBVT","flightCategory":"VFR","rawOb":"METAR SBVT 111400Z 13008KT CAVOK 26/18 Q1016","temp":26,"dewp":18,"wdir":130,"wspd":8,"visib":"6+","altim":1016,"clouds":[],"obsTime":1783778400},"SBFI":{"icaoId":"SBFI","flightCategory":"MVFR","rawOb":"METAR SBFI 111400Z 32004KT 9000 VCSH BKN020 FEW040TCU BKN070 21/20 Q1013","temp":21,"dewp":20,"wdir":320,"wspd":4,"visib":5.59,"altim":1013,"clouds":[{"cover":"BKN","base":2000},{"cover":"FEW","base":4000},{"cover":"BKN","base":7000}],"obsTime":1783778400},"SBPL":{"icaoId":"SBPL","flightCategory":"VFR","rawOb":"METAR SBPL 111400Z 08007KT CAVOK 29/17 Q1018","temp":29,"dewp":17,"wdir":80,"wspd":7,"visib":"6+","altim":1018,"clouds":[],"obsTime":1783778400},"SBAR":{"icaoId":"SBAR","flightCategory":"VFR","rawOb":"METAR SBAR 111400Z 09011KT 9999 SCT025 27/21 Q1017","temp":27,"dewp":21,"wdir":90,"wspd":11,"visib":"6+","altim":1017,"clouds":[{"cover":"SCT","base":2500}],"obsTime":1783778400},"SBCJ":{"icaoId":"SBCJ","flightCategory":"VFR","rawOb":"METAR SBCJ 111400Z VRB04KT 9999 SCT013 25/21 Q1017","temp":25,"dewp":21,"wdir":"VRB","wspd":4,"visib":"6+","altim":1017,"clouds":[{"cover":"SCT","base":1300}],"obsTime":1783778400},"SBUY":{"icaoId":"SBUY","flightCategory":"VFR","rawOb":"METAR SBUY 111400Z 02002KT 9999 FEW007 BKN100 24/23 Q1013","temp":24,"dewp":23,"wdir":20,"wspd":2,"visib":"6+","altim":1013,"clouds":[{"cover":"FEW","base":700},{"cover":"BKN","base":10000}],"obsTime":1783778400},"SBKG":{"icaoId":"SBKG","flightCategory":"MVFR","rawOb":"METAR SBKG 111400Z 14010KT 9999 BKN023 25/19 Q1019","temp":25,"dewp":19,"wdir":140,"wspd":10,"visib":"6+","altim":1019,"clouds":[{"cover":"BKN","base":2300}],"obsTime":1783778400},"SBCC":{"icaoId":"SBCC","flightCategory":"VFR","rawOb":"METAR SBCC 111400Z 35008KT 9999 SCT020 BKN100 27/21 Q1017","temp":27,"dewp":21,"wdir":350,"wspd":8,"visib":"6+","altim":1017,"clouds":[{"cover":"SCT","base":2000},{"cover":"BKN","base":10000}],"obsTime":1783778400},"SBGM":{"icaoId":"SBGM","flightCategory":"MVFR","rawOb":"METAR SBGM 111400Z 25004KT 220V290 9999 BKN020 26/21 Q1014","temp":26,"dewp":21,"wdir":250,"wspd":4,"visib":"6+","altim":1014,"clouds":[{"cover":"BKN","base":2000}],"obsTime":1783778400},"SBTT":{"icaoId":"SBTT","flightCategory":"VFR","rawOb":"METAR SBTT 111400Z 34004KT 9999 FEW006 OVC100 23/22 Q1016","temp":23,"dewp":22,"wdir":340,"wspd":4,"visib":"6+","altim":1016,"clouds":[{"cover":"FEW","base":600},{"cover":"OVC","base":10000}],"obsTime":1783778400},"SBVH":{"icaoId":"SBVH","flightCategory":"VFR","rawOb":"METAR SBVH 111400Z 09005KT CAVOK 26/20 Q1018","temp":26,"dewp":20,"wdir":90,"wspd":5,"visib":"6+","altim":1018,"clouds":[],"obsTime":1783778400},"SBSJ":{"icaoId":"SBSJ","flightCategory":"VFR","rawOb":"METAR SBSJ 111400Z 34004KT CAVOK 20/13 Q1018","temp":20,"dewp":13,"wdir":340,"wspd":4,"visib":"6+","altim":1018,"clouds":[],"obsTime":1783778400},"SBCO":{"icaoId":"SBCO","flightCategory":"IFR","rawOb":"METAR SBCO 111400Z 31003KT 270V360 9999 BKN007 15/14 Q1013","temp":15,"dewp":14,"wdir":310,"wspd":3,"visib":"6+","altim":1013,"clouds":[{"cover":"BKN","base":700}],"obsTime":1783778400},"SBSM":{"icaoId":"SBSM","flightCategory":"VFR","rawOb":"METAR SBSM 111400Z 07006KT 9999 SCT010 SCT070 16/15 Q1012","temp":16,"dewp":15,"wdir":70,"wspd":6,"visib":"6+","altim":1012,"clouds":[{"cover":"SCT","base":1000},{"cover":"SCT","base":7000}],"obsTime":1783778400},"SBAU":{"icaoId":"SBAU","flightCategory":"VFR","rawOb":"METAR SBAU 111500Z 36006KT CAVOK 30/14 Q1016","temp":30,"dewp":14,"wdir":360,"wspd":6,"visib":"6+","altim":1016,"clouds":[],"obsTime":1783782000},"SBAX":{"icaoId":"SBAX","flightCategory":"VFR","rawOb":"METAR SBAX 111400Z AUTO 01004KT 300V060 CAVOK 24/11 Q1021","temp":24,"dewp":11,"wdir":10,"wspd":4,"visib":"6+","altim":1021,"clouds":[],"obsTime":1783778400},"SBOI":{"icaoId":"SBOI","flightCategory":"VFR","rawOb":"METAR SBOI 111400Z AUTO 08006KT 030V140 9999 SCT036 31/23 Q1014","temp":31,"dewp":23,"wdir":80,"wspd":6,"visib":"6+","altim":1014,"clouds":[{"cover":"SCT","base":3600}],"obsTime":1783778400},"SBBH":{"icaoId":"SBBH","flightCategory":"VFR","rawOb":"METAR SBBH 111400Z 35003KT CAVOK 25/11 Q1021","temp":25,"dewp":11,"wdir":350,"wspd":3,"visib":"6+","altim":1021,"clouds":[],"obsTime":1783778400},"SBBQ":{"icaoId":"SBBQ","flightCategory":"VFR","rawOb":"METAR SBBQ 111400Z 31006KT CAVOK 23/10 Q1023","temp":23,"dewp":10,"wdir":310,"wspd":6,"visib":"6+","altim":1023,"clouds":[],"obsTime":1783778400},"SBPS":{"icaoId":"SBPS","flightCategory":"VFR","rawOb":"METAR SBPS 111400Z 32006KT 9999 SCT020 28/21 Q1018","temp":28,"dewp":21,"wdir":320,"wspd":6,"visib":"6+","altim":1018,"clouds":[{"cover":"SCT","base":2000}],"obsTime":1783778400},"SBBU":{"icaoId":"SBBU","flightCategory":"VFR","rawOb":"METAR SBBU 111400Z 35005KT CAVOK 25/13 Q1018","temp":25,"dewp":13,"wdir":350,"wspd":5,"visib":"6+","altim":1018,"clouds":[],"obsTime":1783778400},"SBPP":{"icaoId":"SBPP","flightCategory":"VFR","rawOb":"METAR SBPP 111400Z 32009KT CAVOK 27/18 Q1016","temp":27,"dewp":18,"wdir":320,"wspd":9,"visib":"6+","altim":1016,"clouds":[],"obsTime":1783778400},"SBDN":{"icaoId":"SBDN","flightCategory":"VFR","rawOb":"METAR SBDN 111400Z 02007KT CAVOK 27/16 Q1016","temp":27,"dewp":16,"wdir":20,"wspd":7,"visib":"6+","altim":1016,"clouds":[],"obsTime":1783778400},"SBIP":{"icaoId":"SBIP","flightCategory":"VFR","rawOb":"METAR SBIP 111400Z AUTO VRB01KT CAVOK 25/17 Q1018","temp":25,"dewp":17,"wdir":"VRB","wspd":1,"visib":"6+","altim":1018,"clouds":[],"obsTime":1783778400},"SBSC":{"icaoId":"SBSC","flightCategory":"VFR","rawOb":"METAR SBSC 111400Z 03008KT CAVOK 26/16 Q1014","temp":26,"dewp":16,"wdir":30,"wspd":8,"visib":"6+","altim":1014,"clouds":[],"obsTime":1783778400},"SBSR":{"icaoId":"SBSR","flightCategory":"VFR","rawOb":"METAR SBSR 111400Z VRB03KT CAVOK 26/10 Q1018","temp":26,"dewp":10,"wdir":"VRB","wspd":3,"visib":"6+","altim":1018,"clouds":[],"obsTime":1783778400},"SBES":{"icaoId":"SBES","flightCategory":"VFR","rawOb":"METAR SBES 111400Z VRB03KT CAVOK 24/// Q1015","temp":null,"dewp":null,"wdir":"VRB","wspd":3,"visib":"6+","altim":1015,"clouds":[],"obsTime":1783778400},"SBTU":{"icaoId":"SBTU","flightCategory":"MVFR","rawOb":"METAR SBTU 111400Z AUTO 24009KT 200V260 9999 // SCT017/// BKN022/// 27/23 Q1016","temp":27,"dewp":23,"wdir":240,"wspd":9,"visib":"6+","altim":1016,"clouds":[{"cover":"SCT","base":1700},{"cover":"BKN","base":2200}],"obsTime":1783778400},"SBTF":{"icaoId":"SBTF","flightCategory":"VFR","rawOb":"METAR SBTF 111400Z 12002KT CAVOK 29/24 Q1013","temp":29,"dewp":24,"wdir":120,"wspd":2,"visib":"6+","altim":1013,"clouds":[],"obsTime":1783778400},"SBPB":{"icaoId":"SBPB","flightCategory":"VFR","rawOb":"METAR SBPB 111400Z 06014KT 9999 SCT020 31/25 Q1014","temp":31,"dewp":25,"wdir":60,"wspd":14,"visib":"6+","altim":1014,"clouds":[{"cover":"SCT","base":2000}],"obsTime":1783778400},"SBCA":{"icaoId":"SBCA","flightCategory":"LIFR","rawOb":"METAR SBCA 111400Z 36011G21KT 3000 -TSRA BKN003 SCT020 FEW040CB 17/17 Q1017","temp":17,"dewp":17,"wdir":360,"wspd":11,"visib":1.86,"altim":1017,"clouds":[{"cover":"BKN","base":300},{"cover":"SCT","base":2000},{"cover":"FEW","base":4000}],"obsTime":1783778400},"SBJP":{"icaoId":"SBJP","flightCategory":"MVFR","rawOb":"METAR SBJP 111400Z 12012KT 9999 BKN025 28/23 Q1017","temp":28,"dewp":23,"wdir":120,"wspd":12,"visib":"6+","altim":1017,"clouds":[{"cover":"BKN","base":2500}],"obsTime":1783778400},"SBAN":{"icaoId":"SBAN","flightCategory":"VFR","rawOb":"METAR SBAN 111400Z 01006KT 9999 FEW030 26/11 Q1023","temp":26,"dewp":11,"wdir":10,"wspd":6,"visib":"6+","altim":1023,"clouds":[{"cover":"FEW","base":3000}],"obsTime":1783778400},"SBLE":{"icaoId":"SBLE","flightCategory":"MVFR","rawOb":"METAR SBLE 111400Z AUTO VRB02KT 9999 FEW021 SCT025 OVC030 ///// Q1020","temp":null,"dewp":null,"wdir":"VRB","wspd":2,"visib":"6+","altim":1020,"clouds":[{"cover":"FEW","base":2100},{"cover":"SCT","base":2500},{"cover":"OVC","base":3000}],"obsTime":1783778400},"SBTC":{"icaoId":"SBTC","flightCategory":"VFR","rawOb":"METAR SBTC 111500Z 05005KT 9999 SCT020 27/22 Q1017","temp":27,"dewp":22,"wdir":50,"wspd":5,"visib":"6+","altim":1017,"clouds":[{"cover":"SCT","base":2000}],"obsTime":1783782000},"SBIH":{"icaoId":"SBIH","flightCategory":"VFR","rawOb":"METAR SBIH 111400Z 03006KT 9999 FEW015 28/24 Q1014","temp":28,"dewp":24,"wdir":30,"wspd":6,"visib":"6+","altim":1014,"clouds":[{"cover":"FEW","base":1500}],"obsTime":1783778400},"SBJV":{"icaoId":"SBJV","flightCategory":"LIFR","rawOb":"METAR SBJV 111400Z 18006KT 1200 R33/1200 -RADZ BR OVC001 16/16 Q1015","temp":16,"dewp":16,"wdir":180,"wspd":6,"visib":0.75,"altim":1015,"clouds":[{"cover":"OVC","base":100}],"obsTime":1783778400},"SBNM":{"icaoId":"SBNM","flightCategory":"IFR","rawOb":"METAR SBNM 111400Z 27002KT 2000 BR VCFG FEW007 BKN025 17/17 Q1013","temp":17,"dewp":17,"wdir":270,"wspd":2,"visib":1.24,"altim":1013,"clouds":[{"cover":"FEW","base":700},{"cover":"BKN","base":2500}],"obsTime":1783778400},"SBAF":{"icaoId":"SBAF","flightCategory":"MVFR","rawOb":"METAR SBAF 111400Z VRB02KT 8000 NSC 25/16 Q1015","temp":25,"dewp":16,"wdir":"VRB","wspd":2,"visib":4.97,"altim":1015,"clouds":[],"obsTime":1783778400},"SBGW":{"icaoId":"SBGW","flightCategory":"VFR","rawOb":"METAR SBGW 111400Z 03004KT 310V080 CAVOK 22/12 Q1017","temp":22,"dewp":12,"wdir":30,"wspd":4,"visib":"6+","altim":1017,"clouds":[],"obsTime":1783778400},"SBJR":{"icaoId":"SBJR","flightCategory":"VFR","rawOb":"METAR SBJR 111400Z 02004KT CAVOK 28/15 Q1014","temp":28,"dewp":15,"wdir":20,"wspd":4,"visib":"6+","altim":1014,"clouds":[],"obsTime":1783778400},"SBLS":{"icaoId":"SBLS","flightCategory":"VFR","rawOb":"METAR SBLS 111400Z 33003KT CAVOK 25/10 Q1021","temp":25,"dewp":10,"wdir":330,"wspd":3,"visib":"6+","altim":1021,"clouds":[],"obsTime":1783778400},"SBMT":{"icaoId":"SBMT","flightCategory":"VFR","rawOb":"METAR SBMT 111400Z 17003KT CAVOK 23/10 Q1018","temp":23,"dewp":10,"wdir":170,"wspd":3,"visib":"6+","altim":1018,"clouds":[],"obsTime":1783778400},"SBST":{"icaoId":"SBST","flightCategory":"VFR","rawOb":"METAR SBST 111400Z 14003KT CAVOK 24/16 Q1014","temp":24,"dewp":16,"wdir":140,"wspd":3,"visib":"6+","altim":1014,"clouds":[],"obsTime":1783778400},"SBTA":{"icaoId":"SBTA","flightCategory":"VFR","rawOb":"METAR SBTA 111400Z VRB03KT CAVOK 21/15 Q1017","temp":21,"dewp":15,"wdir":"VRB","wspd":3,"visib":"6+","altim":1017,"clouds":[],"obsTime":1783778400},"SBPF":{"icaoId":"SBPF","flightCategory":"LIFR","rawOb":"METAR SBPF 111400Z 28007KT 7000 BKN003 BKN070 17/16 Q1013","temp":17,"dewp":16,"wdir":280,"wspd":7,"visib":4.35,"altim":1013,"clouds":[{"cover":"BKN","base":300},{"cover":"BKN","base":7000}],"obsTime":1783778400}}}