{"updated":1777467630,"count":85,"data":{"SBEG":{"icaoId":"SBEG","flightCategory":"VFR","rawOb":"METAR SBEG 291200Z VRB02KT 9999 FEW010 BKN070 29/25 Q1011","temp":29,"dewp":25,"wdir":"VRB","wspd":2,"visib":"6+","altim":1011,"clouds":[{"cover":"FEW","base":1000},{"cover":"BKN","base":7000}],"obsTime":1777464000},"SBBE":{"icaoId":"SBBE","flightCategory":"VFR","rawOb":"METAR SBBE 291200Z 08006KT 9999 SCT014 28/25 Q1011","temp":28,"dewp":25,"wdir":80,"wspd":6,"visib":"6+","altim":1011,"clouds":[{"cover":"SCT","base":1400}],"obsTime":1777464000},"SBBR":{"icaoId":"SBBR","flightCategory":"VFR","rawOb":"METAR SBBR 291200Z 09008KT 050V110 CAVOK 23/15 Q1020","temp":23,"dewp":15,"wdir":90,"wspd":8,"visib":"6+","altim":1020,"clouds":[],"obsTime":1777464000},"SBBV":{"icaoId":"SBBV","flightCategory":"VFR","rawOb":"METAR SBBV 291200Z 09012KT CAVOK 28/23 Q1012","temp":28,"dewp":23,"wdir":90,"wspd":12,"visib":"6+","altim":1012,"clouds":[],"obsTime":1777464000},"SBCB":{"icaoId":"SBCB","flightCategory":"VFR","rawOb":"METAR SBCB 291200Z 01007KT 9999 SCT025 27/23 Q1015","temp":27,"dewp":23,"wdir":10,"wspd":7,"visib":"6+","altim":1015,"clouds":[{"cover":"SCT","base":2500}],"obsTime":1777464000},"SBCF":{"icaoId":"SBCF","flightCategory":"VFR","rawOb":"METAR SBCF 291200Z 09004KT 360V150 9999 FEW025 23/17 Q1021","temp":23,"dewp":17,"wdir":90,"wspd":4,"visib":"6+","altim":1021,"clouds":[{"cover":"FEW","base":2500}],"obsTime":1777464000},"SBCG":{"icaoId":"SBCG","flightCategory":"VFR","rawOb":"METAR SBCG 291200Z 01007KT CAVOK 26/21 Q1015","temp":26,"dewp":21,"wdir":10,"wspd":7,"visib":"6+","altim":1015,"clouds":[],"obsTime":1777464000},"SBCP":{"icaoId":"SBCP","flightCategory":"VFR","rawOb":"METAR SBCP 291200Z 03005KT CAVOK 29/23 Q1016","temp":29,"dewp":23,"wdir":30,"wspd":5,"visib":"6+","altim":1016,"clouds":[],"obsTime":1777464000},"SBCR":{"icaoId":"SBCR","flightCategory":"MVFR","rawOb":"METAR SBCR 291200Z 27004KT 230V310 9999 BKN010 23/22 Q1012","temp":23,"dewp":22,"wdir":270,"wspd":4,"visib":"6+","altim":1012,"clouds":[{"cover":"BKN","base":1000}],"obsTime":1777464000},"SBCT":{"icaoId":"SBCT","flightCategory":"IFR","rawOb":"METAR SBCT 291200Z 21003KT 170V260 4000 -RA BR FEW005 BKN012 OVC025 16/15 Q1021","temp":16,"dewp":15,"wdir":210,"wspd":3,"visib":2.49,"altim":1021,"clouds":[{"cover":"FEW","base":500},{"cover":"BKN","base":1200},{"cover":"OVC","base":2500}],"obsTime":1777464000},"SBFI":{"icaoId":"SBFI","flightCategory":"LIFR","rawOb":"SPECI SBFI 291118Z 13004KT 5000 -TSRA BKN004 OVC015 //////CB 16/16 Q1012","temp":16,"dewp":16,"wdir":130,"wspd":4,"visib":3.11,"altim":1012,"clouds":[{"cover":"BKN","base":400},{"cover":"OVC","base":1500}],"obsTime":1777461480},"SBFZ":{"icaoId":"SBFZ","flightCategory":"MVFR","rawOb":"METAR SBFZ 291200Z 16009KT 9999 BKN015 BKN090 27/25 Q1012","temp":27,"dewp":25,"wdir":160,"wspd":9,"visib":"6+","altim":1012,"clouds":[{"cover":"BKN","base":1500},{"cover":"BKN","base":9000}],"obsTime":1777464000},"SBGL":{"icaoId":"SBGL","flightCategory":"IFR","rawOb":"METAR SBGL 291200Z 16003KT 3000 BR FEW004 27/24 Q1014","temp":27,"dewp":24,"wdir":160,"wspd":3,"visib":1.86,"altim":1014,"clouds":[{"cover":"FEW","base":400}],"obsTime":1777464000},"SBGO":{"icaoId":"SBGO","flightCategory":"VFR","rawOb":"METAR SBGO 291200Z 09002KT CAVOK 25/19 Q1018","temp":25,"dewp":19,"wdir":90,"wspd":2,"visib":"6+","altim":1018,"clouds":[],"obsTime":1777464000},"SBGR":{"icaoId":"SBGR","flightCategory":"IFR","rawOb":"METAR SBGR 291200Z 06005KT 7000 BKN007 21/20 Q1019","temp":21,"dewp":20,"wdir":60,"wspd":5,"visib":4.35,"altim":1019,"clouds":[{"cover":"BKN","base":700}],"obsTime":1777464000},"SBKP":{"icaoId":"SBKP","flightCategory":"MVFR","rawOb":"METAR SBKP 291200Z 14003KT 7000 NSC 22/21 Q1018","temp":22,"dewp":21,"wdir":140,"wspd":3,"visib":4.35,"altim":1018,"clouds":[],"obsTime":1777464000},"SBLO":{"icaoId":"SBLO","flightCategory":"LIFR","rawOb":"METAR SBLO 291200Z COR 09003KT 0350 FG OVC002 20/20 Q1016","temp":20,"dewp":20,"wdir":90,"wspd":3,"visib":0.22,"altim":1016,"clouds":[{"cover":"OVC","base":200}],"obsTime":1777464000},"SBMA":{"icaoId":"SBMA","flightCategory":"MVFR","rawOb":"METAR SBMA 291200Z 31003KT 9999 BKN020 27/24 Q1013","temp":27,"dewp":24,"wdir":310,"wspd":3,"visib":"6+","altim":1013,"clouds":[{"cover":"BKN","base":2000}],"obsTime":1777464000},"SBMO":{"icaoId":"SBMO","flightCategory":"MVFR","rawOb":"METAR SBMO 291200Z 10011KT 9999 BKN026 BKN070 29/23 Q1014","temp":29,"dewp":23,"wdir":100,"wspd":11,"visib":"6+","altim":1014,"clouds":[{"cover":"BKN","base":2600},{"cover":"BKN","base":7000}],"obsTime":1777464000},"SBMQ":{"icaoId":"SBMQ","flightCategory":"VFR","rawOb":"METAR SBMQ 291200Z 03007KT 9999 SCT012 28/25 Q1012","temp":28,"dewp":25,"wdir":30,"wspd":7,"visib":"6+","altim":1012,"clouds":[{"cover":"SCT","base":1200}],"obsTime":1777464000},"SBPA":{"icaoId":"SBPA","flightCategory":"IFR","rawOb":"SPECI SBPA 291116Z VRB02KT 4000 BR FEW010 10/09 Q1017","temp":10,"dewp":9,"wdir":"VRB","wspd":2,"visib":2.49,"altim":1017,"clouds":[{"cover":"FEW","base":1000}],"obsTime":1777461360},"SBPJ":{"icaoId":"SBPJ","flightCategory":"VFR","rawOb":"METAR SBPJ 291200Z 21003KT 9999 FEW020 29/24 Q1013","temp":29,"dewp":24,"wdir":210,"wspd":3,"visib":"6+","altim":1013,"clouds":[{"cover":"FEW","base":2000}],"obsTime":1777464000},"SBPV":{"icaoId":"SBPV","flightCategory":"VFR","rawOb":"METAR SBPV 291200Z 18002KT 9999 FEW007 SCT100 25/23 Q1012","temp":25,"dewp":23,"wdir":180,"wspd":2,"visib":"6+","altim":1012,"clouds":[{"cover":"FEW","base":700},{"cover":"SCT","base":10000}],"obsTime":1777464000},"SBRB":{"icaoId":"SBRB","flightCategory":"LIFR","rawOb":"METAR SBRB 291108Z 24003KT 0600 R25///// R07///// FG VV002 23/23 Q1012","temp":23,"dewp":23,"wdir":240,"wspd":3,"visib":0.37,"altim":1012,"clouds":[{"cover":"OVX","base":200}],"obsTime":1777460880},"SBRF":{"icaoId":"SBRF","flightCategory":"VFR","rawOb":"METAR SBRF 291200Z 13006KT 9999 SCT025 SCT080 27/24 Q1013","temp":27,"dewp":24,"wdir":130,"wspd":6,"visib":"6+","altim":1013,"clouds":[{"cover":"SCT","base":2500},{"cover":"SCT","base":8000}],"obsTime":1777464000},"SBSG":{"icaoId":"SBSG","flightCategory":"MVFR","rawOb":"METAR SBSG 291200Z 15006KT 100V190 9999 BKN020 FEW025TCU 28/24 Q1013","temp":28,"dewp":24,"wdir":150,"wspd":6,"visib":"6+","altim":1013,"clouds":[{"cover":"BKN","base":2000},{"cover":"FEW","base":2500}],"obsTime":1777464000},"SBSL":{"icaoId":"SBSL","flightCategory":"VFR","rawOb":"METAR SBSL 291200Z 06004KT 9999 SCT020 29/25 Q1011","temp":29,"dewp":25,"wdir":60,"wspd":4,"visib":"6+","altim":1011,"clouds":[{"cover":"SCT","base":2000}],"obsTime":1777464000},"SBSN":{"icaoId":"SBSN","flightCategory":"MVFR","rawOb":"METAR SBSN 291200Z 11003KT 9999 FEW010 BKN015 27/25 Q1011","temp":27,"dewp":25,"wdir":110,"wspd":3,"visib":"6+","altim":1011,"clouds":[{"cover":"FEW","base":1000},{"cover":"BKN","base":1500}],"obsTime":1777464000},"SBSP":{"icaoId":"SBSP","flightCategory":"MVFR","rawOb":"METAR SBSP 291200Z 03004KT 320V130 6000 BKN015 23/19 Q1020","temp":23,"dewp":19,"wdir":30,"wspd":4,"visib":3.73,"altim":1020,"clouds":[{"cover":"BKN","base":1500}],"obsTime":1777464000},"SBSV":{"icaoId":"SBSV","flightCategory":"VFR","rawOb":"METAR SBSV 291200Z 09015KT 9999 SCT021 BKN070 29/23 Q1015","temp":29,"dewp":23,"wdir":90,"wspd":15,"visib":"6+","altim":1015,"clouds":[{"cover":"SCT","base":2100},{"cover":"BKN","base":7000}],"obsTime":1777464000},"SBTE":{"icaoId":"SBTE","flightCategory":"MVFR","rawOb":"METAR SBTE 291200Z 00000KT 9999 BKN015 27/24 Q1012","temp":27,"dewp":24,"wdir":0,"wspd":0,"visib":"6+","altim":1012,"clouds":[{"cover":"BKN","base":1500}],"obsTime":1777464000},"SBVT":{"icaoId":"SBVT","flightCategory":"VFR","rawOb":"METAR SBVT 291200Z 12002KT 9999 SCT035 25/21 Q1017","temp":25,"dewp":21,"wdir":120,"wspd":2,"visib":"6+","altim":1017,"clouds":[{"cover":"SCT","base":3500}],"obsTime":1777464000},"SBHT":{"icaoId":"SBHT","flightCategory":"MVFR","rawOb":"METAR SBHT 291200Z 10005KT 9999 BKN015 28/25 Q1012","temp":28,"dewp":25,"wdir":100,"wspd":5,"visib":"6+","altim":1012,"clouds":[{"cover":"BKN","base":1500}],"obsTime":1777464000},"SBIL":{"icaoId":"SBIL","flightCategory":"VFR","rawOb":"METAR SBIL 291200Z 27006KT 9999 SCT020 BKN080 26/24 Q1016 RERA","temp":26,"dewp":24,"wdir":270,"wspd":6,"visib":"6+","altim":1016,"clouds":[{"cover":"SCT","base":2000},{"cover":"BKN","base":8000}],"obsTime":1777464000},"SBJU":{"icaoId":"SBJU","flightCategory":"VFR","rawOb":"METAR SBJU 291200Z 20004KT 9999 SCT018 26/22 Q1015","temp":26,"dewp":22,"wdir":200,"wspd":4,"visib":"6+","altim":1015,"clouds":[{"cover":"SCT","base":1800}],"obsTime":1777464000},"SBUR":{"icaoId":"SBUR","flightCategory":"VFR","rawOb":"METAR SBUR 291200Z 02008KT CAVOK 26/16 Q1018","temp":26,"dewp":16,"wdir":20,"wspd":8,"visib":"6+","altim":1018,"clouds":[],"obsTime":1777464000},"SBME":{"icaoId":"SBME","flightCategory":"VFR","rawOb":"METAR SBME 291200Z 04010KT CAVOK 30/22 Q1014","temp":30,"dewp":22,"wdir":40,"wspd":10,"visib":"6+","altim":1014,"clouds":[],"obsTime":1777464000},"SBMG":{"icaoId":"SBMG","flightCategory":"VFR","rawOb":"METAR SBMG 291200Z 02003KT 290V070 9999 FEW030 BKN050 22/22 Q1015","temp":22,"dewp":22,"wdir":20,"wspd":3,"visib":"6+","altim":1015,"clouds":[{"cover":"FEW","base":3000},{"cover":"BKN","base":5000}],"obsTime":1777464000},"SBMK":{"icaoId":"SBMK","flightCategory":"VFR","rawOb":"METAR SBMK 291200Z 07003KT CAVOK 25/17 Q1019","temp":25,"dewp":17,"wdir":70,"wspd":3,"visib":"6+","altim":1019,"clouds":[],"obsTime":1777464000},"SBNT":{"icaoId":"SBNT","flightCategory":"VFR","rawOb":"METAR SBNT 291200Z 15010KT 120V180 9999 FEW016 SCT023 29/24 Q1012","temp":29,"dewp":24,"wdir":150,"wspd":10,"visib":"6+","altim":1012,"clouds":[{"cover":"FEW","base":1600},{"cover":"SCT","base":2300}],"obsTime":1777464000},"SBUL":{"icaoId":"SBUL","flightCategory":"VFR","rawOb":"METAR SBUL 291200Z 09011KT 050V110 CAVOK 23/17 Q1020","temp":23,"dewp":17,"wdir":90,"wspd":11,"visib":"6+","altim":1020,"clouds":[],"obsTime":1777464000},"SBAT":{"icaoId":"SBAT","flightCategory":"VFR","rawOb":"METAR SBAT 291200Z 14004KT CAVOK 27/24 Q1013","temp":27,"dewp":24,"wdir":140,"wspd":4,"visib":"6+","altim":1013,"clouds":[],"obsTime":1777464000},"SBCZ":{"icaoId":"SBCZ","flightCategory":"LIFR","rawOb":"METAR SBCZ 291200Z 14003KT 9999 BKN003 BKN100 24/23 Q1012","temp":24,"dewp":23,"wdir":140,"wspd":3,"visib":"6+","altim":1012,"clouds":[{"cover":"BKN","base":300},{"cover":"BKN","base":10000}],"obsTime":1777464000},"SBFL":{"icaoId":"SBFL","flightCategory":"MVFR","rawOb":"METAR SBFL 291200Z 36003KT 9999 FEW009 BKN023 OVC080 19/18 Q1015","temp":19,"dewp":18,"wdir":360,"wspd":3,"visib":"6+","altim":1015,"clouds":[{"cover":"FEW","base":900},{"cover":"BKN","base":2300},{"cover":"OVC","base":8000}],"obsTime":1777464000},"SBPP":{"icaoId":"SBPP","flightCategory":"LIFR","rawOb":"SPECI SBPP 291115Z 01009KT 0000 FG VV000 20/20 Q1014","temp":20,"dewp":20,"wdir":10,"wspd":9,"visib":0,"altim":1014,"clouds":[{"cover":"OVX","base":0}],"obsTime":1777461300},"SBPS":{"icaoId":"SBPS","flightCategory":"VFR","rawOb":"METAR SBPS 291200Z 27004KT 210V340 9999 SCT020 BKN070 26/23 Q1017","temp":26,"dewp":23,"wdir":270,"wspd":4,"visib":"6+","altim":1017,"clouds":[{"cover":"SCT","base":2000},{"cover":"BKN","base":7000}],"obsTime":1777464000},"SBCJ":{"icaoId":"SBCJ","flightCategory":"VFR","rawOb":"METAR SBCJ 291200Z 09002KT 9999 SCT013 25/21 Q1017","temp":25,"dewp":21,"wdir":90,"wspd":2,"visib":"6+","altim":1017,"clouds":[{"cover":"SCT","base":1300}],"obsTime":1777464000},"SBUY":{"icaoId":"SBUY","flightCategory":"IFR","rawOb":"METAR SBUY 291200Z 25002KT 9999 BKN007 OVC100 24/24 Q1011","temp":24,"dewp":24,"wdir":250,"wspd":2,"visib":"6+","altim":1011,"clouds":[{"cover":"BKN","base":700},{"cover":"OVC","base":10000}],"obsTime":1777464000},"SBAR":{"icaoId":"SBAR","flightCategory":"MVFR","rawOb":"METAR SBAR 291200Z 11012KT 9999 BKN025 29/23 Q1014","temp":29,"dewp":23,"wdir":110,"wspd":12,"visib":"6+","altim":1014,"clouds":[{"cover":"BKN","base":2500}],"obsTime":1777464000},"SBSJ":{"icaoId":"SBSJ","flightCategory":"IFR","rawOb":"METAR SBSJ 291200Z 03002KT 3000 BR OVC009 22/20 Q1018","temp":22,"dewp":20,"wdir":30,"wspd":2,"visib":1.86,"altim":1018,"clouds":[{"cover":"OVC","base":900}],"obsTime":1777464000},"SBPL":{"icaoId":"SBPL","flightCategory":"MVFR","rawOb":"SPECI SBPL 291120Z 13012KT 9000 -RA BKN016 23/22 Q1016","temp":23,"dewp":22,"wdir":130,"wspd":12,"visib":5.59,"altim":1016,"clouds":[{"cover":"BKN","base":1600}],"obsTime":1777461600},"SBTT":{"icaoId":"SBTT","flightCategory":"VFR","rawOb":"METAR SBTT 291200Z 16002KT 9999 FEW010 BKN100 24/22 Q1012","temp":24,"dewp":22,"wdir":160,"wspd":2,"visib":"6+","altim":1012,"clouds":[{"cover":"FEW","base":1000},{"cover":"BKN","base":10000}],"obsTime":1777464000},"SBPB":{"icaoId":"SBPB","flightCategory":"VFR","rawOb":"METAR SBPB 291200Z 13003KT 9999 SCT020 28/24 Q1011","temp":28,"dewp":24,"wdir":130,"wspd":3,"visib":"6+","altim":1011,"clouds":[{"cover":"SCT","base":2000}],"obsTime":1777464000},"SBTD":{"icaoId":"SBTD","flightCategory":"LIFR","rawOb":"METAR SBTD 291200Z /////KT 3000 BR BCFG OVC001 18/18 Q1014","temp":18,"dewp":18,"wdir":null,"wspd":null,"visib":1.86,"altim":1014,"clouds":[{"cover":"OVC","base":100}],"obsTime":1777464000},"SBGM":{"icaoId":"SBGM","flightCategory":"MVFR","rawOb":"METAR SBGM 291200Z 31002KT 6000 -RA SCT029 SCT033 OVC050 24/23 Q1012","temp":24,"dewp":23,"wdir":310,"wspd":2,"visib":3.73,"altim":1012,"clouds":[{"cover":"SCT","base":2900},{"cover":"SCT","base":3300},{"cover":"OVC","base":5000}],"obsTime":1777464000},"SBIP":{"icaoId":"SBIP","flightCategory":"VFR","rawOb":"METAR SBIP 291200Z AUTO 03003KT 320V070 9999 FEW029 25/19 Q1019","temp":25,"dewp":19,"wdir":30,"wspd":3,"visib":"6+","altim":1019,"clouds":[{"cover":"FEW","base":2900}],"obsTime":1777464000},"SBKG":{"icaoId":"SBKG","flightCategory":"MVFR","rawOb":"METAR SBKG 291200Z 14009KT 9999 BKN015 24/21 Q1016","temp":24,"dewp":21,"wdir":140,"wspd":9,"visib":"6+","altim":1016,"clouds":[{"cover":"BKN","base":1500}],"obsTime":1777464000},"SBOI":{"icaoId":"SBOI","flightCategory":"VFR","rawOb":"METAR SBOI 291200Z AUTO VRB02KT CAVOK 27/25 Q1012","temp":27,"dewp":25,"wdir":"VRB","wspd":2,"visib":"6+","altim":1012,"clouds":[],"obsTime":1777464000},"SBSC":{"icaoId":"SBSC","flightCategory":"MVFR","rawOb":"METAR SBSC 291200Z 15002KT 8000 NSC 27/24 Q1014","temp":27,"dewp":24,"wdir":150,"wspd":2,"visib":4.97,"altim":1014,"clouds":[],"obsTime":1777464000},"SBSR":{"icaoId":"SBSR","flightCategory":"MVFR","rawOb":"METAR SBSR 291200Z 07006KT 8000 NSC 26/19 Q1016","temp":26,"dewp":19,"wdir":70,"wspd":6,"visib":4.97,"altim":1016,"clouds":[],"obsTime":1777464000},"SBTF":{"icaoId":"SBTF","flightCategory":"VFR","rawOb":"SPECI SBTF 291115Z 21003KT 9999 FEW006 SCT040 25/25 Q1011","temp":25,"dewp":25,"wdir":210,"wspd":3,"visib":"6+","altim":1011,"clouds":[{"cover":"FEW","base":600},{"cover":"SCT","base":4000}],"obsTime":1777461300},"SBSM":{"icaoId":"SBSM","flightCategory":"VFR","rawOb":"METAR SBSM 291200Z 10004KT CAVOK 12/09 Q1016","temp":12,"dewp":9,"wdir":100,"wspd":4,"visib":"6+","altim":1016,"clouds":[],"obsTime":1777464000},"SBAX":{"icaoId":"SBAX","flightCategory":"VFR","rawOb":"METAR SBAX 291200Z 06007KT CAVOK 23/16 Q1020","temp":23,"dewp":16,"wdir":60,"wspd":7,"visib":"6+","altim":1020,"clouds":[],"obsTime":1777464000},"SBBH":{"icaoId":"SBBH","flightCategory":"VFR","rawOb":"METAR SBBH 291200Z 11008KT CAVOK 23/17 Q1021","temp":23,"dewp":17,"wdir":110,"wspd":8,"visib":"6+","altim":1021,"clouds":[],"obsTime":1777464000},"SBBQ":{"icaoId":"SBBQ","flightCategory":"VFR","rawOb":"METAR SBBQ 291200Z 02005KT CAVOK 22/16 Q1023","temp":22,"dewp":16,"wdir":20,"wspd":5,"visib":"6+","altim":1023,"clouds":[],"obsTime":1777464000},"SBBU":{"icaoId":"SBBU","flightCategory":"VFR","rawOb":"METAR SBBU 291200Z 09006KT 9000 NSC 24/21 Q1017","temp":24,"dewp":21,"wdir":90,"wspd":6,"visib":5.59,"altim":1017,"clouds":[],"obsTime":1777464000},"SBCA":{"icaoId":"SBCA","flightCategory":"LIFR","rawOb":"METAR SBCA 291200Z 36003KT 4000 -RA BR BCFG FEW002 BKN004 OVC070 18/18 Q1016 RETS","temp":18,"dewp":18,"wdir":360,"wspd":3,"visib":2.49,"altim":1016,"clouds":[{"cover":"FEW","base":200},{"cover":"BKN","base":400},{"cover":"OVC","base":7000}],"obsTime":1777464000},"SBCC":{"icaoId":"SBCC","flightCategory":"VFR","rawOb":"METAR SBCC 291200Z 08005KT 030V120 9999 FEW030 SCT100 26/22 Q1014","temp":26,"dewp":22,"wdir":80,"wspd":5,"visib":"6+","altim":1014,"clouds":[{"cover":"FEW","base":3000},{"cover":"SCT","base":10000}],"obsTime":1777464000},"SBCO":{"icaoId":"SBCO","flightCategory":"MVFR","rawOb":"METAR SBCO 291200Z 08002KT 8000 SCT030 11/09 Q1017","temp":11,"dewp":9,"wdir":80,"wspd":2,"visib":4.97,"altim":1017,"clouds":[{"cover":"SCT","base":3000}],"obsTime":1777464000},"SBDN":{"icaoId":"SBDN","flightCategory":"VFR","rawOb":"METAR SBDN 291200Z 05007KT CAVOK 25/21 Q1015","temp":25,"dewp":21,"wdir":50,"wspd":7,"visib":"6+","altim":1015,"clouds":[],"obsTime":1777464000},"SBES":{"icaoId":"SBES","flightCategory":"VFR","rawOb":"METAR SBES 291200Z VRB05KT 9999 FEW010 27/// Q1015","temp":null,"dewp":null,"wdir":"VRB","wspd":5,"visib":"6+","altim":1015,"clouds":[{"cover":"FEW","base":1000}],"obsTime":1777464000},"SBVH":{"icaoId":"SBVH","flightCategory":"MVFR","rawOb":"METAR SBVH 291200Z 07007KT 9999 FEW004 BKN030 23/22 Q1016","temp":23,"dewp":22,"wdir":70,"wspd":7,"visib":"6+","altim":1016,"clouds":[{"cover":"FEW","base":400},{"cover":"BKN","base":3000}],"obsTime":1777464000},"SBJP":{"icaoId":"SBJP","flightCategory":"MVFR","rawOb":"METAR SBJP 291200Z 14008KT 110V170 9999 BKN020 29/25 Q1013","temp":29,"dewp":25,"wdir":140,"wspd":8,"visib":"6+","altim":1013,"clouds":[{"cover":"BKN","base":2000}],"obsTime":1777464000},"SBIH":{"icaoId":"SBIH","flightCategory":"VFR","rawOb":"METAR SBIH 291200Z 27004KT 9999 FEW015 SCT080 27/25 Q1012","temp":27,"dewp":25,"wdir":270,"wspd":4,"visib":"6+","altim":1012,"clouds":[{"cover":"FEW","base":1500},{"cover":"SCT","base":8000}],"obsTime":1777464000},"SBLE":{"icaoId":"SBLE","flightCategory":"MVFR","rawOb":"METAR SBLE 291200Z AUTO 13005KT 090V160 9999 FEW015 BKN027 BKN044 23/21 Q1019","temp":23,"dewp":21,"wdir":130,"wspd":5,"visib":"6+","altim":1019,"clouds":[{"cover":"FEW","base":1500},{"cover":"BKN","base":2700},{"cover":"BKN","base":4400}],"obsTime":1777464000},"SBAF":{"icaoId":"SBAF","flightCategory":"MVFR","rawOb":"METAR SBAF 291200Z 33001KT 5000 BR FEW005 29/26 Q1014","temp":29,"dewp":26,"wdir":330,"wspd":1,"visib":3.11,"altim":1014,"clouds":[{"cover":"FEW","base":500}],"obsTime":1777464000},"SBGW":{"icaoId":"SBGW","flightCategory":"IFR","rawOb":"METAR SBGW 291200Z VRB01KT 3000 HZ OVC009 23/18 Q1018","temp":23,"dewp":18,"wdir":"VRB","wspd":1,"visib":1.86,"altim":1018,"clouds":[{"cover":"OVC","base":900}],"obsTime":1777464000},"SBJR":{"icaoId":"SBJR","flightCategory":"MVFR","rawOb":"METAR SBJR 291200Z 04001KT 7000 FEW015 31/24 Q1014","temp":31,"dewp":24,"wdir":40,"wspd":1,"visib":4.35,"altim":1014,"clouds":[{"cover":"FEW","base":1500}],"obsTime":1777464000},"SBLS":{"icaoId":"SBLS","flightCategory":"VFR","rawOb":"METAR SBLS 291200Z 15004KT 100V160 CAVOK 22/17 Q1021","temp":22,"dewp":17,"wdir":150,"wspd":4,"visib":"6+","altim":1021,"clouds":[],"obsTime":1777464000},"SBMT":{"icaoId":"SBMT","flightCategory":"VFR","rawOb":"METAR SBMT 291200Z 07003KT 030V110 9999 SCT013 22/19 Q1018","temp":22,"dewp":19,"wdir":70,"wspd":3,"visib":"6+","altim":1018,"clouds":[{"cover":"SCT","base":1300}],"obsTime":1777464000},"SBTA":{"icaoId":"SBTA","flightCategory":"VFR","rawOb":"METAR SBTA 291200Z 05003KT 350V100 9999 SCT006 23/22 Q1017","temp":23,"dewp":22,"wdir":50,"wspd":3,"visib":"6+","altim":1017,"clouds":[{"cover":"SCT","base":600}],"obsTime":1777464000},"SBAN":{"icaoId":"SBAN","flightCategory":"VFR","rawOb":"METAR SBAN 291200Z 12008KT CAVOK 23/16 Q1021","temp":23,"dewp":16,"wdir":120,"wspd":8,"visib":"6+","altim":1021,"clouds":[],"obsTime":1777464000},"SBJV":{"icaoId":"SBJV","flightCategory":"MVFR","rawOb":"METAR SBJV 291200Z 35004KT 8000 -RA FEW008 OVC050 19/18 Q1016","temp":19,"dewp":18,"wdir":350,"wspd":4,"visib":4.97,"altim":1016,"clouds":[{"cover":"FEW","base":800},{"cover":"OVC","base":5000}],"obsTime":1777464000},"SBPF":{"icaoId":"SBPF","flightCategory":"VFR","rawOb":"METAR SBPF 291200Z 07007KT CAVOK 15/11 Q1016","temp":15,"dewp":11,"wdir":70,"wspd":7,"visib":"6+","altim":1016,"clouds":[],"obsTime":1777464000},"SBST":{"icaoId":"SBST","flightCategory":"MVFR","rawOb":"METAR SBST 291200Z /////KT 7000 SCT017 OVC032 ///// Q1015","temp":null,"dewp":null,"wdir":null,"wspd":null,"visib":4.35,"altim":1015,"clouds":[{"cover":"SCT","base":1700},{"cover":"OVC","base":3200}],"obsTime":1777464000}}}