{"updated":1776440002,"count":87,"data":{"SBRB":{"icaoId":"SBRB","flightCategory":"VFR","rawOb":"METAR SBRB 171400Z 32003KT 9999 SCT009 SCT100 25/22 Q1012","temp":25,"dewp":22,"wdir":320,"wspd":3,"visib":"6+","altim":1012,"clouds":[{"cover":"SCT","base":900},{"cover":"SCT","base":10000}],"obsTime":1776434400},"SBAT":{"icaoId":"SBAT","flightCategory":"VFR","rawOb":"METAR SBAT 171400Z 00000KT 9999 VCSH FEW018 FEW030TCU BKN080 25/25 Q1013 RETS","temp":25,"dewp":25,"wdir":0,"wspd":0,"visib":"6+","altim":1013,"clouds":[{"cover":"FEW","base":1800},{"cover":"FEW","base":3000},{"cover":"BKN","base":8000}],"obsTime":1776434400},"SBBE":{"icaoId":"SBBE","flightCategory":"VFR","rawOb":"METAR SBBE 171400Z 36006KT 9999 FEW025 BKN100 29/24 Q1009","temp":29,"dewp":24,"wdir":360,"wspd":6,"visib":"6+","altim":1009,"clouds":[{"cover":"FEW","base":2500},{"cover":"BKN","base":10000}],"obsTime":1776434400},"SBBR":{"icaoId":"SBBR","flightCategory":"VFR","rawOb":"METAR SBBR 171400Z 36007KT 9999 SCT020 BKN080 23/18 Q1018","temp":23,"dewp":18,"wdir":360,"wspd":7,"visib":"6+","altim":1018,"clouds":[{"cover":"SCT","base":2000},{"cover":"BKN","base":8000}],"obsTime":1776434400},"SBBV":{"icaoId":"SBBV","flightCategory":"VFR","rawOb":"METAR SBBV 171400Z 09015KT 9999 SCT015 BKN080 29/21 Q1011","temp":29,"dewp":21,"wdir":90,"wspd":15,"visib":"6+","altim":1011,"clouds":[{"cover":"SCT","base":1500},{"cover":"BKN","base":8000}],"obsTime":1776434400},"SBCB":{"icaoId":"SBCB","flightCategory":"VFR","rawOb":"METAR SBCB 171400Z 07011KT 9999 FEW030 27/21 Q1011","temp":27,"dewp":21,"wdir":70,"wspd":11,"visib":"6+","altim":1011,"clouds":[{"cover":"FEW","base":3000}],"obsTime":1776434400},"SBCF":{"icaoId":"SBCF","flightCategory":"VFR","rawOb":"METAR SBCF 171400Z 35005KT 290V030 9999 FEW030 25/17 Q1016","temp":25,"dewp":17,"wdir":350,"wspd":5,"visib":"6+","altim":1016,"clouds":[{"cover":"FEW","base":3000}],"obsTime":1776434400},"SBCG":{"icaoId":"SBCG","flightCategory":"MVFR","rawOb":"METAR SBCG 171400Z 26005KT 220V300 9999 BKN025 29/23 Q1013","temp":29,"dewp":23,"wdir":260,"wspd":5,"visib":"6+","altim":1013,"clouds":[{"cover":"BKN","base":2500}],"obsTime":1776434400},"SBCP":{"icaoId":"SBCP","flightCategory":"VFR","rawOb":"METAR SBCP 171400Z 35005KT 9999 SCT020 29/22 Q1011","temp":29,"dewp":22,"wdir":350,"wspd":5,"visib":"6+","altim":1011,"clouds":[{"cover":"SCT","base":2000}],"obsTime":1776434400},"SBCR":{"icaoId":"SBCR","flightCategory":"VFR","rawOb":"METAR SBCR 171400Z VRB03KT 9999 SCT017 28/24 Q1011","temp":28,"dewp":24,"wdir":"VRB","wspd":3,"visib":"6+","altim":1011,"clouds":[{"cover":"SCT","base":1700}],"obsTime":1776434400},"SBCT":{"icaoId":"SBCT","flightCategory":"VFR","rawOb":"METAR SBCT 171400Z 29013KT 9999 FEW035 26/09 Q1015","temp":26,"dewp":9,"wdir":290,"wspd":13,"visib":"6+","altim":1015,"clouds":[{"cover":"FEW","base":3500}],"obsTime":1776434400},"SBCZ":{"icaoId":"SBCZ","flightCategory":"LIFR","rawOb":"METAR SBCZ 171400Z 05004KT 8000 -RA BKN003 OVC080 24/24 Q1013","temp":24,"dewp":24,"wdir":50,"wspd":4,"visib":4.97,"altim":1013,"clouds":[{"cover":"BKN","base":300},{"cover":"OVC","base":8000}],"obsTime":1776434400},"SBEG":{"icaoId":"SBEG","flightCategory":"VFR","rawOb":"METAR SBEG 171400Z 29004KT 260V340 9999 FEW010 SCT020 FEW025TCU 28/25 Q1011","temp":28,"dewp":25,"wdir":290,"wspd":4,"visib":"6+","altim":1011,"clouds":[{"cover":"FEW","base":1000},{"cover":"SCT","base":2000},{"cover":"FEW","base":2500}],"obsTime":1776434400},"SBFI":{"icaoId":"SBFI","flightCategory":"VFR","rawOb":"METAR SBFI 171400Z 22002KT 9999 FEW025 SCT040 26/20 Q1012","temp":26,"dewp":20,"wdir":220,"wspd":2,"visib":"6+","altim":1012,"clouds":[{"cover":"FEW","base":2500},{"cover":"SCT","base":4000}],"obsTime":1776434400},"SBFL":{"icaoId":"SBFL","flightCategory":"VFR","rawOb":"METAR SBFL 171400Z 35012KT 9999 SCT033 27/22 Q1009","temp":27,"dewp":22,"wdir":350,"wspd":12,"visib":"6+","altim":1009,"clouds":[{"cover":"SCT","base":3300}],"obsTime":1776434400},"SBFZ":{"icaoId":"SBFZ","flightCategory":"VFR","rawOb":"METAR SBFZ 171400Z 12016KT 9999 SCT023 31/24 Q1008","temp":31,"dewp":24,"wdir":120,"wspd":16,"visib":"6+","altim":1008,"clouds":[{"cover":"SCT","base":2300}],"obsTime":1776434400},"SBGL":{"icaoId":"SBGL","flightCategory":"VFR","rawOb":"METAR SBGL 171400Z VRB04KT 9999 SCT013 28/20 Q1010","temp":28,"dewp":20,"wdir":"VRB","wspd":4,"visib":"6+","altim":1010,"clouds":[{"cover":"SCT","base":1300}],"obsTime":1776434400},"SBGO":{"icaoId":"SBGO","flightCategory":"VFR","rawOb":"METAR SBGO 171400Z VRB02KT 9999 SCT027 28/21 Q1015","temp":28,"dewp":21,"wdir":"VRB","wspd":2,"visib":"6+","altim":1015,"clouds":[{"cover":"SCT","base":2700}],"obsTime":1776434400},"SBGR":{"icaoId":"SBGR","flightCategory":"VFR","rawOb":"METAR SBGR 171400Z 06004KT 330V130 CAVOK 25/16 Q1015","temp":25,"dewp":16,"wdir":60,"wspd":4,"visib":"6+","altim":1015,"clouds":[],"obsTime":1776434400},"SBHT":{"icaoId":"SBHT","flightCategory":"MVFR","rawOb":"METAR SBHT 171400Z 04006KT 9999 BKN017 BKN090 28/25 Q1011","temp":28,"dewp":25,"wdir":40,"wspd":6,"visib":"6+","altim":1011,"clouds":[{"cover":"BKN","base":1700},{"cover":"BKN","base":9000}],"obsTime":1776434400},"SBIL":{"icaoId":"SBIL","flightCategory":"VFR","rawOb":"METAR SBIL 171400Z 15006KT 100V180 9999 SCT020 29/24 Q1012","temp":29,"dewp":24,"wdir":150,"wspd":6,"visib":"6+","altim":1012,"clouds":[{"cover":"SCT","base":2000}],"obsTime":1776434400},"SBJU":{"icaoId":"SBJU","flightCategory":"VFR","rawOb":"METAR SBJU 171400Z 14004KT 9999 SCT022 29/22 Q1011","temp":29,"dewp":22,"wdir":140,"wspd":4,"visib":"6+","altim":1011,"clouds":[{"cover":"SCT","base":2200}],"obsTime":1776434400},"SBKP":{"icaoId":"SBKP","flightCategory":"VFR","rawOb":"METAR SBKP 171400Z 32005KT 280V010 CAVOK 27/14 Q1015","temp":27,"dewp":14,"wdir":320,"wspd":5,"visib":"6+","altim":1015,"clouds":[],"obsTime":1776434400},"SBLO":{"icaoId":"SBLO","flightCategory":"VFR","rawOb":"METAR SBLO 171400Z 06005KT CAVOK 26/18 Q1014","temp":26,"dewp":18,"wdir":60,"wspd":5,"visib":"6+","altim":1014,"clouds":[],"obsTime":1776434400},"SBMA":{"icaoId":"SBMA","flightCategory":"MVFR","rawOb":"METAR SBMA 171400Z 35005KT 9999 BKN015 SCT018 28/25 Q1010","temp":28,"dewp":25,"wdir":350,"wspd":5,"visib":"6+","altim":1010,"clouds":[{"cover":"BKN","base":1500},{"cover":"SCT","base":1800}],"obsTime":1776434400},"SBME":{"icaoId":"SBME","flightCategory":"VFR","rawOb":"METAR SBME 171400Z 04006KT 9999 FEW020 31/20 Q1011","temp":31,"dewp":20,"wdir":40,"wspd":6,"visib":"6+","altim":1011,"clouds":[{"cover":"FEW","base":2000}],"obsTime":1776434400},"SBMG":{"icaoId":"SBMG","flightCategory":"VFR","rawOb":"METAR SBMG 171400Z 35008KT 300V040 9999 FEW045 28/20 Q1012","temp":28,"dewp":20,"wdir":350,"wspd":8,"visib":"6+","altim":1012,"clouds":[{"cover":"FEW","base":4500}],"obsTime":1776434400},"SBMK":{"icaoId":"SBMK","flightCategory":"VFR","rawOb":"METAR SBMK 171400Z 30004KT 9999 FEW040 27/18 Q1015","temp":27,"dewp":18,"wdir":300,"wspd":4,"visib":"6+","altim":1015,"clouds":[{"cover":"FEW","base":4000}],"obsTime":1776434400},"SBMO":{"icaoId":"SBMO","flightCategory":"MVFR","rawOb":"METAR SBMO 171400Z 16010KT 9999 BKN015 27/24 Q1010","temp":27,"dewp":24,"wdir":160,"wspd":10,"visib":"6+","altim":1010,"clouds":[{"cover":"BKN","base":1500}],"obsTime":1776434400},"SBMQ":{"icaoId":"SBMQ","flightCategory":"MVFR","rawOb":"METAR SBMQ 171400Z 36003KT 9999 -RA BKN010 OVC025 27/26 Q1010","temp":27,"dewp":26,"wdir":360,"wspd":3,"visib":"6+","altim":1010,"clouds":[{"cover":"BKN","base":1000},{"cover":"OVC","base":2500}],"obsTime":1776434400},"SBNT":{"icaoId":"SBNT","flightCategory":"MVFR","rawOb":"METAR SBNT 171400Z 13013KT 090V150 9999 BKN030 31/23 Q1009","temp":31,"dewp":23,"wdir":130,"wspd":13,"visib":"6+","altim":1009,"clouds":[{"cover":"BKN","base":3000}],"obsTime":1776434400},"SBPA":{"icaoId":"SBPA","flightCategory":"MVFR","rawOb":"METAR SBPA 171400Z 30013KT 280V340 9999 BKN025 26/20 Q1008","temp":26,"dewp":20,"wdir":300,"wspd":13,"visib":"6+","altim":1008,"clouds":[{"cover":"BKN","base":2500}],"obsTime":1776434400},"SBPJ":{"icaoId":"SBPJ","flightCategory":"VFR","rawOb":"METAR SBPJ 171400Z 27005KT 9999 SCT025 29/25 Q1011","temp":29,"dewp":25,"wdir":270,"wspd":5,"visib":"6+","altim":1011,"clouds":[{"cover":"SCT","base":2500}],"obsTime":1776434400},"SBPV":{"icaoId":"SBPV","flightCategory":"IFR","rawOb":"METAR SBPV 171400Z 27002KT 9000 BKN008 26/24 Q1011","temp":26,"dewp":24,"wdir":270,"wspd":2,"visib":5.59,"altim":1011,"clouds":[{"cover":"BKN","base":800}],"obsTime":1776434400},"SBRF":{"icaoId":"SBRF","flightCategory":"VFR","rawOb":"METAR SBRF 171400Z 14011KT 110V170 9999 SCT021 30/24 Q1010","temp":30,"dewp":24,"wdir":140,"wspd":11,"visib":"6+","altim":1010,"clouds":[{"cover":"SCT","base":2100}],"obsTime":1776434400},"SBSG":{"icaoId":"SBSG","flightCategory":"MVFR","rawOb":"METAR SBSG 171400Z 11010KT 090V150 9999 BKN027 30/23 Q1009","temp":30,"dewp":23,"wdir":110,"wspd":10,"visib":"6+","altim":1009,"clouds":[{"cover":"BKN","base":2700}],"obsTime":1776434400},"SBSL":{"icaoId":"SBSL","flightCategory":"VFR","rawOb":"METAR SBSL 171400Z 04007KT 9999 SCT022 SCT090 29/25 Q1008","temp":29,"dewp":25,"wdir":40,"wspd":7,"visib":"6+","altim":1008,"clouds":[{"cover":"SCT","base":2200},{"cover":"SCT","base":9000}],"obsTime":1776434400},"SBSN":{"icaoId":"SBSN","flightCategory":"VFR","rawOb":"METAR SBSN 171400Z 08009KT 9999 FEW026 FEW040TCU BKN080 30/25 Q1010","temp":30,"dewp":25,"wdir":80,"wspd":9,"visib":"6+","altim":1010,"clouds":[{"cover":"FEW","base":2600},{"cover":"FEW","base":4000},{"cover":"BKN","base":8000}],"obsTime":1776434400},"SBSP":{"icaoId":"SBSP","flightCategory":"VFR","rawOb":"METAR SBSP 171400Z 34008KT 280V020 CAVOK 26/14 Q1015","temp":26,"dewp":14,"wdir":340,"wspd":8,"visib":"6+","altim":1015,"clouds":[],"obsTime":1776434400},"SBSV":{"icaoId":"SBSV","flightCategory":"VFR","rawOb":"METAR SBSV 171400Z 15007KT 090V200 9999 SCT021 29/23 Q1011","temp":29,"dewp":23,"wdir":150,"wspd":7,"visib":"6+","altim":1011,"clouds":[{"cover":"SCT","base":2100}],"obsTime":1776434400},"SBTE":{"icaoId":"SBTE","flightCategory":"VFR","rawOb":"METAR SBTE 171400Z 34003KT 9999 SCT025 30/24 Q1009","temp":30,"dewp":24,"wdir":340,"wspd":3,"visib":"6+","altim":1009,"clouds":[{"cover":"SCT","base":2500}],"obsTime":1776434400},"SBUL":{"icaoId":"SBUL","flightCategory":"VFR","rawOb":"METAR SBUL 171400Z 06009KT CAVOK 26/17 Q1017","temp":26,"dewp":17,"wdir":60,"wspd":9,"visib":"6+","altim":1017,"clouds":[],"obsTime":1776434400},"SBUR":{"icaoId":"SBUR","flightCategory":"VFR","rawOb":"METAR SBUR 171400Z 35007KT CAVOK 26/17 Q1016","temp":26,"dewp":17,"wdir":350,"wspd":7,"visib":"6+","altim":1016,"clouds":[],"obsTime":1776434400},"SBVT":{"icaoId":"SBVT","flightCategory":"VFR","rawOb":"METAR SBVT 171400Z 14005KT 9999 SCT040 27/22 Q1012","temp":27,"dewp":22,"wdir":140,"wspd":5,"visib":"6+","altim":1012,"clouds":[{"cover":"SCT","base":4000}],"obsTime":1776434400},"SBOI":{"icaoId":"SBOI","flightCategory":"VFR","rawOb":"METAR SBOI 171400Z AUTO 08004KT 020V120 9999 FEW019 29/25 Q1010 RERA","temp":29,"dewp":25,"wdir":80,"wspd":4,"visib":"6+","altim":1010,"clouds":[{"cover":"FEW","base":1900}],"obsTime":1776434400},"SBAR":{"icaoId":"SBAR","flightCategory":"VFR","rawOb":"METAR SBAR 171400Z 14008KT 9999 SCT025 30/23 Q1011","temp":30,"dewp":23,"wdir":140,"wspd":8,"visib":"6+","altim":1011,"clouds":[{"cover":"SCT","base":2500}],"obsTime":1776434400},"SBCJ":{"icaoId":"SBCJ","flightCategory":"VFR","rawOb":"METAR SBCJ 171400Z 00000KT 9999 SCT010 SCT015 26/22 Q1015","temp":26,"dewp":22,"wdir":0,"wspd":0,"visib":"6+","altim":1015,"clouds":[{"cover":"SCT","base":1000},{"cover":"SCT","base":1500}],"obsTime":1776434400},"SBPB":{"icaoId":"SBPB","flightCategory":"VFR","rawOb":"METAR SBPB 171400Z 05013KT 9999 SCT020 30/25 Q1008","temp":30,"dewp":25,"wdir":50,"wspd":13,"visib":"6+","altim":1008,"clouds":[{"cover":"SCT","base":2000}],"obsTime":1776434400},"SBCO":{"icaoId":"SBCO","flightCategory":"VFR","rawOb":"METAR SBCO 171400Z 30011KT 9999 SCT025 26/19 Q1008","temp":26,"dewp":19,"wdir":300,"wspd":11,"visib":"6+","altim":1008,"clouds":[{"cover":"SCT","base":2500}],"obsTime":1776434400},"SBPL":{"icaoId":"SBPL","flightCategory":"VFR","rawOb":"METAR SBPL 171400Z 10009KT 9999 FEW030 30/19 Q1012","temp":30,"dewp":19,"wdir":100,"wspd":9,"visib":"6+","altim":1012,"clouds":[{"cover":"FEW","base":3000}],"obsTime":1776434400},"SBPP":{"icaoId":"SBPP","flightCategory":"MVFR","rawOb":"METAR SBPP 171400Z 36004KT 9999 BKN025 26/22 Q1014","temp":26,"dewp":22,"wdir":360,"wspd":4,"visib":"6+","altim":1014,"clouds":[{"cover":"BKN","base":2500}],"obsTime":1776434400},"SBBU":{"icaoId":"SBBU","flightCategory":"VFR","rawOb":"METAR SBBU 171400Z 35004KT CAVOK 29/17 Q1014","temp":29,"dewp":17,"wdir":350,"wspd":4,"visib":"6+","altim":1014,"clouds":[],"obsTime":1776434400},"SBDN":{"icaoId":"SBDN","flightCategory":"VFR","rawOb":"METAR SBDN 171400Z 35005KT CAVOK 31/17 Q1013","temp":31,"dewp":17,"wdir":350,"wspd":5,"visib":"6+","altim":1013,"clouds":[],"obsTime":1776434400},"SBPS":{"icaoId":"SBPS","flightCategory":"VFR","rawOb":"METAR SBPS 171400Z 10006KT 9999 SCT025 28/22 Q1011","temp":28,"dewp":22,"wdir":100,"wspd":6,"visib":"6+","altim":1011,"clouds":[{"cover":"SCT","base":2500}],"obsTime":1776434400},"SBSC":{"icaoId":"SBSC","flightCategory":"VFR","rawOb":"METAR SBSC 171400Z 36009KT CAVOK 29/21 Q1010","temp":29,"dewp":21,"wdir":360,"wspd":9,"visib":"6+","altim":1010,"clouds":[],"obsTime":1776434400},"SBBH":{"icaoId":"SBBH","flightCategory":"VFR","rawOb":"METAR SBBH 171400Z 02004KT 9999 SCT030 25/16 Q1016","temp":25,"dewp":16,"wdir":20,"wspd":4,"visib":"6+","altim":1016,"clouds":[{"cover":"SCT","base":3000}],"obsTime":1776434400},"SBSJ":{"icaoId":"SBSJ","flightCategory":"MVFR","rawOb":"METAR SBSJ 171400Z 13002KT 6000 NSC 23/18 Q1015","temp":23,"dewp":18,"wdir":130,"wspd":2,"visib":3.73,"altim":1015,"clouds":[],"obsTime":1776434400},"SBCA":{"icaoId":"SBCA","flightCategory":"MVFR","rawOb":"METAR SBCA 171400Z 32009KT 9999 BKN015 FEW020TCU 24/21 Q1015","temp":24,"dewp":21,"wdir":320,"wspd":9,"visib":"6+","altim":1015,"clouds":[{"cover":"BKN","base":1500},{"cover":"FEW","base":2000}],"obsTime":1776434400},"SBSM":{"icaoId":"SBSM","flightCategory":"MVFR","rawOb":"METAR SBSM 171400Z 28012KT 9999 BKN027 25/19 Q1010","temp":25,"dewp":19,"wdir":280,"wspd":12,"visib":"6+","altim":1010,"clouds":[{"cover":"BKN","base":2700}],"obsTime":1776434400},"SBES":{"icaoId":"SBES","flightCategory":"VFR","rawOb":"METAR SBES 171400Z 05010KT 010V080 9999 FEW020 27/// Q1011","temp":null,"dewp":null,"wdir":50,"wspd":10,"visib":"6+","altim":1011,"clouds":[{"cover":"FEW","base":2000}],"obsTime":1776434400},"SBSR":{"icaoId":"SBSR","flightCategory":"VFR","rawOb":"METAR SBSR 171400Z VRB05KT CAVOK 28/16 Q1014","temp":28,"dewp":16,"wdir":"VRB","wspd":5,"visib":"6+","altim":1014,"clouds":[],"obsTime":1776434400},"SBGM":{"icaoId":"SBGM","flightCategory":"MVFR","rawOb":"METAR SBGM 171400Z 19005KT 7000 SCT006 OVC010 25/23 Q1011","temp":25,"dewp":23,"wdir":190,"wspd":5,"visib":4.35,"altim":1011,"clouds":[{"cover":"SCT","base":600},{"cover":"OVC","base":1000}],"obsTime":1776434400},"SBAX":{"icaoId":"SBAX","flightCategory":"VFR","rawOb":"METAR SBAX 171400Z 01005KT CAVOK 24/15 Q1017","temp":24,"dewp":15,"wdir":10,"wspd":5,"visib":"6+","altim":1017,"clouds":[],"obsTime":1776434400},"SBTD":{"icaoId":"SBTD","flightCategory":"VFR","rawOb":"METAR SBTD 171400Z /////KT 9999 FEW020 27/21 Q1013","temp":27,"dewp":21,"wdir":null,"wspd":null,"visib":"6+","altim":1013,"clouds":[{"cover":"FEW","base":2000}],"obsTime":1776434400},"SBIP":{"icaoId":"SBIP","flightCategory":"VFR","rawOb":"METAR SBIP 171400Z AUTO 02008KT 320V040 9999 FEW024 27/19 Q1014","temp":27,"dewp":19,"wdir":20,"wspd":8,"visib":"6+","altim":1014,"clouds":[{"cover":"FEW","base":2400}],"obsTime":1776434400},"SBTF":{"icaoId":"SBTF","flightCategory":"VFR","rawOb":"METAR SBTF 171400Z 21002KT 9999 -RA SCT005 SCT030 OVC070 26/26 Q1011","temp":26,"dewp":26,"wdir":210,"wspd":2,"visib":"6+","altim":1011,"clouds":[{"cover":"SCT","base":500},{"cover":"SCT","base":3000},{"cover":"OVC","base":7000}],"obsTime":1776434400},"SBCC":{"icaoId":"SBCC","flightCategory":"VFR","rawOb":"METAR SBCC 171400Z 36004KT 9999 SCT020 BKN100 27/22 Q1014","temp":27,"dewp":22,"wdir":360,"wspd":4,"visib":"6+","altim":1014,"clouds":[{"cover":"SCT","base":2000},{"cover":"BKN","base":10000}],"obsTime":1776434400},"SBTT":{"icaoId":"SBTT","flightCategory":"MVFR","rawOb":"METAR SBTT 171400Z 19007KT 9999 BKN010 BKN014 OVC070 26/23 Q1013","temp":26,"dewp":23,"wdir":190,"wspd":7,"visib":"6+","altim":1013,"clouds":[{"cover":"BKN","base":1000},{"cover":"BKN","base":1400},{"cover":"OVC","base":7000}],"obsTime":1776434400},"SBKG":{"icaoId":"SBKG","flightCategory":"MVFR","rawOb":"METAR SBKG 171400Z 15007KT 110V200 9999 BKN020 27/22 Q1012","temp":27,"dewp":22,"wdir":150,"wspd":7,"visib":"6+","altim":1012,"clouds":[{"cover":"BKN","base":2000}],"obsTime":1776434400},"SBUY":{"icaoId":"SBUY","flightCategory":"MVFR","rawOb":"METAR SBUY 171400Z 28003KT 9999 BKN020 28/25 Q1010","temp":28,"dewp":25,"wdir":280,"wspd":3,"visib":"6+","altim":1010,"clouds":[{"cover":"BKN","base":2000}],"obsTime":1776434400},"SBVH":{"icaoId":"SBVH","flightCategory":"VFR","rawOb":"METAR SBVH 171400Z 32004KT 9999 SCT035 BKN080 26/22 Q1014","temp":26,"dewp":22,"wdir":320,"wspd":4,"visib":"6+","altim":1014,"clouds":[{"cover":"SCT","base":3500},{"cover":"BKN","base":8000}],"obsTime":1776434400},"SBBQ":{"icaoId":"SBBQ","flightCategory":"VFR","rawOb":"METAR SBBQ 171400Z 34005KT 9999 BKN040 24/12 Q1018","temp":24,"dewp":12,"wdir":340,"wspd":5,"visib":"6+","altim":1018,"clouds":[{"cover":"BKN","base":4000}],"obsTime":1776434400},"SBAU":{"icaoId":"SBAU","flightCategory":"VFR","rawOb":"METAR SBAU 171400Z 03008KT CAVOK 30/17 Q1012","temp":30,"dewp":17,"wdir":30,"wspd":8,"visib":"6+","altim":1012,"clouds":[],"obsTime":1776434400},"SBAF":{"icaoId":"SBAF","flightCategory":"VFR","rawOb":"METAR SBAF 171400Z VRB03KT 9999 FEW018 29/21 Q1011","temp":29,"dewp":21,"wdir":"VRB","wspd":3,"visib":"6+","altim":1011,"clouds":[{"cover":"FEW","base":1800}],"obsTime":1776434400},"SBGW":{"icaoId":"SBGW","flightCategory":"MVFR","rawOb":"METAR SBGW 171400Z VRB02KT 8000 SCT015 24/15 Q1014","temp":24,"dewp":15,"wdir":"VRB","wspd":2,"visib":4.97,"altim":1014,"clouds":[{"cover":"SCT","base":1500}],"obsTime":1776434400},"SBJR":{"icaoId":"SBJR","flightCategory":"VFR","rawOb":"METAR SBJR 171400Z 05004KT 9000 NSC 31/21 Q1010","temp":31,"dewp":21,"wdir":50,"wspd":4,"visib":5.59,"altim":1010,"clouds":[],"obsTime":1776434400},"SBLS":{"icaoId":"SBLS","flightCategory":"VFR","rawOb":"METAR SBLS 171400Z VRB04KT 9999 FEW035 24/17 Q1016","temp":24,"dewp":17,"wdir":"VRB","wspd":4,"visib":"6+","altim":1016,"clouds":[{"cover":"FEW","base":3500}],"obsTime":1776434400},"SBMT":{"icaoId":"SBMT","flightCategory":"VFR","rawOb":"METAR SBMT 171400Z 30006KT 260V010 CAVOK 26/12 Q1015","temp":26,"dewp":12,"wdir":300,"wspd":6,"visib":"6+","altim":1015,"clouds":[],"obsTime":1776434400},"SBST":{"icaoId":"SBST","flightCategory":"VFR","rawOb":"METAR SBST 171400Z 29005KT CAVOK 27/22 Q1010","temp":27,"dewp":22,"wdir":290,"wspd":5,"visib":"6+","altim":1010,"clouds":[],"obsTime":1776434400},"SBTA":{"icaoId":"SBTA","flightCategory":"VFR","rawOb":"METAR SBTA 171400Z 05005KT 300V100 9999 FEW015 24/17 Q1013","temp":24,"dewp":17,"wdir":50,"wspd":5,"visib":"6+","altim":1013,"clouds":[{"cover":"FEW","base":1500}],"obsTime":1776434400},"SBJV":{"icaoId":"SBJV","flightCategory":"VFR","rawOb":"METAR SBJV 171400Z 04002KT 9999 SCT025 28/23 Q1009","temp":28,"dewp":23,"wdir":40,"wspd":2,"visib":"6+","altim":1009,"clouds":[{"cover":"SCT","base":2500}],"obsTime":1776434400},"SBNM":{"icaoId":"SBNM","flightCategory":"MVFR","rawOb":"METAR SBNM 171400Z 28008KT 9999 SCT012 BKN030 24/18 Q1012","temp":24,"dewp":18,"wdir":280,"wspd":8,"visib":"6+","altim":1012,"clouds":[{"cover":"SCT","base":1200},{"cover":"BKN","base":3000}],"obsTime":1776434400},"SBIH":{"icaoId":"SBIH","flightCategory":"VFR","rawOb":"METAR SBIH 171400Z 05009KT 9999 SCT016 29/25 Q1010","temp":29,"dewp":25,"wdir":50,"wspd":9,"visib":"6+","altim":1010,"clouds":[{"cover":"SCT","base":1600}],"obsTime":1776434400},"SBLE":{"icaoId":"SBLE","flightCategory":"MVFR","rawOb":"METAR SBLE 171400Z AUTO 15003KT 080V240 9999 BKN027 OVC037 25/20 Q1014","temp":25,"dewp":20,"wdir":150,"wspd":3,"visib":"6+","altim":1014,"clouds":[{"cover":"BKN","base":2700},{"cover":"OVC","base":3700}],"obsTime":1776434400},"SBAN":{"icaoId":"SBAN","flightCategory":"MVFR","rawOb":"METAR SBAN 171400Z 07003KT 9999 BKN025 25/19 Q1018","temp":25,"dewp":19,"wdir":70,"wspd":3,"visib":"6+","altim":1018,"clouds":[{"cover":"BKN","base":2500}],"obsTime":1776434400},"SBJP":{"icaoId":"SBJP","flightCategory":"VFR","rawOb":"METAR SBJP 171400Z 11011KT 9999 SCT025 32/23 Q1010","temp":32,"dewp":23,"wdir":110,"wspd":11,"visib":"6+","altim":1010,"clouds":[{"cover":"SCT","base":2500}],"obsTime":1776434400},"SBPF":{"icaoId":"SBPF","flightCategory":"MVFR","rawOb":"METAR SBPF 171400Z 28012KT 9999 BKN025 22/15 Q1013","temp":22,"dewp":15,"wdir":280,"wspd":12,"visib":"6+","altim":1013,"clouds":[{"cover":"BKN","base":2500}],"obsTime":1776434400}}}