{"updated":1773536918,"count":61,"data":{"SBMA":{"icaoId":"SBMA","flightCategory":"VFR","rawOb":"METAR SBMA 150000Z 14002KT 9999 FEW020 SCT080 27/25 Q1011","temp":27,"dewp":25,"wdir":140,"wspd":2,"visib":"6+","altim":1011,"clouds":[{"cover":"FEW","base":2000},{"cover":"SCT","base":8000}],"obsTime":1773532800},"SBBE":{"icaoId":"SBBE","flightCategory":"VFR","rawOb":"METAR SBBE 150000Z 06006KT 9999 SCT010 SCT040 26/25 Q1011","temp":26,"dewp":25,"wdir":60,"wspd":6,"visib":"6+","altim":1011,"clouds":[{"cover":"SCT","base":1000},{"cover":"SCT","base":4000}],"obsTime":1773532800},"SBFL":{"icaoId":"SBFL","flightCategory":"MVFR","rawOb":"METAR SBFL 150000Z 14003KT 100V210 9999 BKN030 BKN060 25/23 Q1009","temp":25,"dewp":23,"wdir":140,"wspd":3,"visib":"6+","altim":1009,"clouds":[{"cover":"BKN","base":3000},{"cover":"BKN","base":6000}],"obsTime":1773532800},"SBVT":{"icaoId":"SBVT","flightCategory":"MVFR","rawOb":"METAR SBVT 150000Z 23003KT 9999 -RA BKN025 OVC040 23/22 Q1011","temp":23,"dewp":22,"wdir":230,"wspd":3,"visib":"6+","altim":1011,"clouds":[{"cover":"BKN","base":2500},{"cover":"OVC","base":4000}],"obsTime":1773532800},"SBFZ":{"icaoId":"SBFZ","flightCategory":"VFR","rawOb":"METAR SBFZ 150000Z 01004KT 330V060 9999 FEW018 28/24 Q1011","temp":28,"dewp":24,"wdir":10,"wspd":4,"visib":"6+","altim":1011,"clouds":[{"cover":"FEW","base":1800}],"obsTime":1773532800},"SBBV":{"icaoId":"SBBV","flightCategory":"VFR","rawOb":"METAR SBBV 150000Z 13002KT 9999 FEW040 FEW045TCU SCT100 31/21 Q1008","temp":31,"dewp":21,"wdir":130,"wspd":2,"visib":"6+","altim":1008,"clouds":[{"cover":"FEW","base":4000},{"cover":"FEW","base":4500},{"cover":"SCT","base":10000}],"obsTime":1773532800},"SBMO":{"icaoId":"SBMO","flightCategory":"VFR","rawOb":"METAR SBMO 150000Z 05005KT 9999 VCTS FEW025 FEW030CB 26/24 Q1012","temp":26,"dewp":24,"wdir":50,"wspd":5,"visib":"6+","altim":1012,"clouds":[{"cover":"FEW","base":2500},{"cover":"FEW","base":3000}],"obsTime":1773532800},"SBGL":{"icaoId":"SBGL","flightCategory":"VFR","rawOb":"METAR SBGL 150000Z VRB02KT CAVOK 23/20 Q1011","temp":23,"dewp":20,"wdir":"VRB","wspd":2,"visib":"6+","altim":1011,"clouds":[],"obsTime":1773532800},"SBMQ":{"icaoId":"SBMQ","flightCategory":"VFR","rawOb":"METAR SBMQ 150000Z 02004KT 9999 FEW017 26/24 Q1011","temp":26,"dewp":24,"wdir":20,"wspd":4,"visib":"6+","altim":1011,"clouds":[{"cover":"FEW","base":1700}],"obsTime":1773532800},"SBCT":{"icaoId":"SBCT","flightCategory":"IFR","rawOb":"SPECI SBCT 142331Z 11003KT 9999 BKN006 BKN080 20/19 Q1013","temp":20,"dewp":19,"wdir":110,"wspd":3,"visib":"6+","altim":1013,"clouds":[{"cover":"BKN","base":600},{"cover":"BKN","base":8000}],"obsTime":1773531060},"SBPA":{"icaoId":"SBPA","flightCategory":"VFR","rawOb":"METAR SBPA 150000Z 09007KT CAVOK 23/18 Q1008","temp":23,"dewp":18,"wdir":90,"wspd":7,"visib":"6+","altim":1008,"clouds":[],"obsTime":1773532800},"SBGO":{"icaoId":"SBGO","flightCategory":"VFR","rawOb":"METAR SBGO 150000Z 34005KT 9999 FEW040 23/22 Q1014","temp":23,"dewp":22,"wdir":340,"wspd":5,"visib":"6+","altim":1014,"clouds":[{"cover":"FEW","base":4000}],"obsTime":1773532800},"SBBR":{"icaoId":"SBBR","flightCategory":"VFR","rawOb":"METAR SBBR 150000Z 35004KT CAVOK 22/19 Q1017","temp":22,"dewp":19,"wdir":350,"wspd":4,"visib":"6+","altim":1017,"clouds":[],"obsTime":1773532800},"SBPJ":{"icaoId":"SBPJ","flightCategory":"VFR","rawOb":"METAR SBPJ 150000Z 01002KT 9999 VCTS FEW033CB SCT050 28/25 Q1011 RETS","temp":28,"dewp":25,"wdir":10,"wspd":2,"visib":"6+","altim":1011,"clouds":[{"cover":"FEW","base":3300},{"cover":"SCT","base":5000}],"obsTime":1773532800},"SBGR":{"icaoId":"SBGR","flightCategory":"MVFR","rawOb":"METAR SBGR 150000Z 12002KT 8000 NSC 21/20 Q1014","temp":21,"dewp":20,"wdir":120,"wspd":2,"visib":4.97,"altim":1014,"clouds":[],"obsTime":1773532800},"SBTE":{"icaoId":"SBTE","flightCategory":"VFR","rawOb":"METAR SBTE 150000Z 32007KT 9999 VCTS SCT020 FEW030CB BKN090 28/25 Q1008","temp":28,"dewp":25,"wdir":320,"wspd":7,"visib":"6+","altim":1008,"clouds":[{"cover":"SCT","base":2000},{"cover":"FEW","base":3000},{"cover":"BKN","base":9000}],"obsTime":1773532800},"SBSV":{"icaoId":"SBSV","flightCategory":"VFR","rawOb":"METAR SBSV 150000Z 05010KT CAVOK 28/24 Q1010","temp":28,"dewp":24,"wdir":50,"wspd":10,"visib":"6+","altim":1010,"clouds":[],"obsTime":1773532800},"SBPV":{"icaoId":"SBPV","flightCategory":"MVFR","rawOb":"SPECI SBPV 142322Z 28004KT 7000 -TSRA FEW020 FEW030CB 26/23 Q1007","temp":26,"dewp":23,"wdir":280,"wspd":4,"visib":4.35,"altim":1007,"clouds":[{"cover":"FEW","base":2000},{"cover":"FEW","base":3000}],"obsTime":1773530520},"SBCF":{"icaoId":"SBCF","flightCategory":"VFR","rawOb":"METAR SBCF 150000Z 13001KT CAVOK 21/20 Q1015","temp":21,"dewp":20,"wdir":130,"wspd":1,"visib":"6+","altim":1015,"clouds":[],"obsTime":1773532800},"SBRB":{"icaoId":"SBRB","flightCategory":"VFR","rawOb":"METAR SBRB 150000Z 06002KT 9000 FEW015 FEW030TCU SCT100 25/24 Q1008","temp":25,"dewp":24,"wdir":60,"wspd":2,"visib":5.59,"altim":1008,"clouds":[{"cover":"FEW","base":1500},{"cover":"FEW","base":3000},{"cover":"SCT","base":10000}],"obsTime":1773532800},"SBEG":{"icaoId":"SBEG","flightCategory":"VFR","rawOb":"METAR SBEG 150000Z 12004KT 9999 FEW025 30/22 Q1008","temp":30,"dewp":22,"wdir":120,"wspd":4,"visib":"6+","altim":1008,"clouds":[{"cover":"FEW","base":2500}],"obsTime":1773532800},"SBRF":{"icaoId":"SBRF","flightCategory":"VFR","rawOb":"METAR SBRF 150000Z 06007KT 9999 FEW023 28/24 Q1011","temp":28,"dewp":24,"wdir":60,"wspd":7,"visib":"6+","altim":1011,"clouds":[{"cover":"FEW","base":2300}],"obsTime":1773532800},"SBFI":{"icaoId":"SBFI","flightCategory":"VFR","rawOb":"METAR SBFI 150000Z 14001KT CAVOK 26/20 Q1007","temp":26,"dewp":20,"wdir":140,"wspd":1,"visib":"6+","altim":1007,"clouds":[],"obsTime":1773532800},"SBSG":{"icaoId":"SBSG","flightCategory":"VFR","rawOb":"METAR SBSG 150000Z 08005KT 9999 FEW021 28/24 Q1012","temp":28,"dewp":24,"wdir":80,"wspd":5,"visib":"6+","altim":1012,"clouds":[{"cover":"FEW","base":2100}],"obsTime":1773532800},"SBKP":{"icaoId":"SBKP","flightCategory":"VFR","rawOb":"METAR SBKP 150000Z 11006KT CAVOK 23/18 Q1013","temp":23,"dewp":18,"wdir":110,"wspd":6,"visib":"6+","altim":1013,"clouds":[],"obsTime":1773532800},"SBSL":{"icaoId":"SBSL","flightCategory":"VFR","rawOb":"METAR SBSL 150000Z 34003KT 9000 -TSRA SCT023 FEW027CB BKN080 26/25 Q1011 RETS","temp":26,"dewp":25,"wdir":340,"wspd":3,"visib":5.59,"altim":1011,"clouds":[{"cover":"SCT","base":2300},{"cover":"FEW","base":2700},{"cover":"BKN","base":8000}],"obsTime":1773532800},"SBCG":{"icaoId":"SBCG","flightCategory":"VFR","rawOb":"METAR SBCG 150000Z 07007KT CAVOK 26/19 Q1010","temp":26,"dewp":19,"wdir":70,"wspd":7,"visib":"6+","altim":1010,"clouds":[],"obsTime":1773532800},"SBSN":{"icaoId":"SBSN","flightCategory":"VFR","rawOb":"METAR SBSN 150000Z 14001KT 9999 TS VCSH FEW016 FEW023CB SCT080 26/25 Q1009","temp":26,"dewp":25,"wdir":140,"wspd":1,"visib":"6+","altim":1009,"clouds":[{"cover":"FEW","base":1600},{"cover":"FEW","base":2300},{"cover":"SCT","base":8000}],"obsTime":1773532800},"SBLO":{"icaoId":"SBLO","flightCategory":"VFR","rawOb":"METAR SBLO 150000Z 27004KT CAVOK 26/19 Q1011","temp":26,"dewp":19,"wdir":270,"wspd":4,"visib":"6+","altim":1011,"clouds":[],"obsTime":1773532800},"SBSP":{"icaoId":"SBSP","flightCategory":"VFR","rawOb":"METAR SBSP 150000Z 09002KT CAVOK 22/18 Q1015","temp":22,"dewp":18,"wdir":90,"wspd":2,"visib":"6+","altim":1015,"clouds":[],"obsTime":1773532800},"SBCZ":{"icaoId":"SBCZ","flightCategory":"VFR","rawOb":"METAR SBCZ 150000Z 00000KT CAVOK 24/23 Q1008","temp":24,"dewp":23,"wdir":0,"wspd":0,"visib":"6+","altim":1008,"clouds":[],"obsTime":1773532800},"SBIL":{"icaoId":"SBIL","flightCategory":"VFR","rawOb":"METAR SBIL 150000Z 06007KT CAVOK 29/25 Q1010","temp":29,"dewp":25,"wdir":60,"wspd":7,"visib":"6+","altim":1010,"clouds":[],"obsTime":1773532800},"SBJU":{"icaoId":"SBJU","flightCategory":"VFR","rawOb":"METAR SBJU 150000Z 00000KT 9999 SCT020 26/23 Q1013","temp":26,"dewp":23,"wdir":0,"wspd":0,"visib":"6+","altim":1013,"clouds":[{"cover":"SCT","base":2000}],"obsTime":1773532800},"SBME":{"icaoId":"SBME","flightCategory":"VFR","rawOb":"METAR SBME 150000Z 28002KT 9999 FEW025 25/22 Q1011","temp":25,"dewp":22,"wdir":280,"wspd":2,"visib":"6+","altim":1011,"clouds":[{"cover":"FEW","base":2500}],"obsTime":1773532800},"SBMG":{"icaoId":"SBMG","flightCategory":"VFR","rawOb":"METAR SBMG 150000Z 03008KT CAVOK 24/19 Q1010","temp":24,"dewp":19,"wdir":30,"wspd":8,"visib":"6+","altim":1010,"clouds":[],"obsTime":1773532800},"SBMK":{"icaoId":"SBMK","flightCategory":"VFR","rawOb":"METAR SBMK 150000Z 09002KT CAVOK 23/22 Q1014","temp":23,"dewp":22,"wdir":90,"wspd":2,"visib":"6+","altim":1014,"clouds":[],"obsTime":1773532800},"SBNT":{"icaoId":"SBNT","flightCategory":"VFR","rawOb":"METAR SBNT 150000Z 09004KT 9999 SCT020 28/24 Q1011","temp":28,"dewp":24,"wdir":90,"wspd":4,"visib":"6+","altim":1011,"clouds":[{"cover":"SCT","base":2000}],"obsTime":1773532800},"SBUL":{"icaoId":"SBUL","flightCategory":"VFR","rawOb":"METAR SBUL 150000Z 31003KT 9999 FEW030 SCT100 23/20 Q1016","temp":23,"dewp":20,"wdir":310,"wspd":3,"visib":"6+","altim":1016,"clouds":[{"cover":"FEW","base":3000},{"cover":"SCT","base":10000}],"obsTime":1773532800},"SBUR":{"icaoId":"SBUR","flightCategory":"VFR","rawOb":"METAR SBUR 150000Z 33002KT 9999 FEW033 SCT100 22/20 Q1014","temp":22,"dewp":20,"wdir":330,"wspd":2,"visib":"6+","altim":1014,"clouds":[{"cover":"FEW","base":3300},{"cover":"SCT","base":10000}],"obsTime":1773532800},"SBAR":{"icaoId":"SBAR","flightCategory":"VFR","rawOb":"METAR SBAR 150000Z 07011KT 9999 FEW017 28/25 Q1010","temp":28,"dewp":25,"wdir":70,"wspd":11,"visib":"6+","altim":1010,"clouds":[{"cover":"FEW","base":1700}],"obsTime":1773532800},"SBPL":{"icaoId":"SBPL","flightCategory":"VFR","rawOb":"METAR SBPL 150000Z 33003KT CAVOK 27/22 Q1011","temp":27,"dewp":22,"wdir":330,"wspd":3,"visib":"6+","altim":1011,"clouds":[],"obsTime":1773532800},"SBSJ":{"icaoId":"SBSJ","flightCategory":"VFR","rawOb":"METAR SBSJ 150000Z 14005KT CAVOK 20/18 Q1013","temp":20,"dewp":18,"wdir":140,"wspd":5,"visib":"6+","altim":1013,"clouds":[],"obsTime":1773532800},"SBOI":{"icaoId":"SBOI","flightCategory":"VFR","rawOb":"METAR SBOI 150000Z AUTO 00000KT CAVOK 25/24 Q1012","temp":25,"dewp":24,"wdir":0,"wspd":0,"visib":"6+","altim":1012,"clouds":[],"obsTime":1773532800},"SBPS":{"icaoId":"SBPS","flightCategory":"VFR","rawOb":"METAR SBPS 150000Z 02006KT 350V050 9999 FEW020 SCT066 27/25 Q1010","temp":27,"dewp":25,"wdir":20,"wspd":6,"visib":"6+","altim":1010,"clouds":[{"cover":"FEW","base":2000},{"cover":"SCT","base":6600}],"obsTime":1773532800},"SBDN":{"icaoId":"SBDN","flightCategory":"VFR","rawOb":"METAR SBDN 150000Z 00000KT CAVOK 26/18 Q1010","temp":26,"dewp":18,"wdir":0,"wspd":0,"visib":"6+","altim":1010,"clouds":[],"obsTime":1773532800},"SBIP":{"icaoId":"SBIP","flightCategory":"VFR","rawOb":"METAR SBIP 150000Z AUTO 03003KT 330V080 9999 -RA NSC 23/23 Q1011","temp":23,"dewp":23,"wdir":30,"wspd":3,"visib":"6+","altim":1011,"clouds":[],"obsTime":1773532800},"SBKG":{"icaoId":"SBKG","flightCategory":"VFR","rawOb":"METAR SBKG 150000Z 07009KT 9999 FEW012 24/21 Q1014","temp":24,"dewp":21,"wdir":70,"wspd":9,"visib":"6+","altim":1014,"clouds":[{"cover":"FEW","base":1200}],"obsTime":1773532800},"SBSC":{"icaoId":"SBSC","flightCategory":"VFR","rawOb":"METAR SBSC 150000Z 00000KT 9999 FEW015 22/21 Q1011","temp":22,"dewp":21,"wdir":0,"wspd":0,"visib":"6+","altim":1011,"clouds":[{"cover":"FEW","base":1500}],"obsTime":1773532800},"SBSM":{"icaoId":"SBSM","flightCategory":"VFR","rawOb":"METAR SBSM 150000Z 00000KT CAVOK 19/17 Q1008","temp":19,"dewp":17,"wdir":0,"wspd":0,"visib":"6+","altim":1008,"clouds":[],"obsTime":1773532800},"SBSR":{"icaoId":"SBSR","flightCategory":"VFR","rawOb":"METAR SBSR 150000Z 36002KT 9999 FEW035 26/20 Q1012","temp":26,"dewp":20,"wdir":360,"wspd":2,"visib":"6+","altim":1012,"clouds":[{"cover":"FEW","base":3500}],"obsTime":1773532800},"SBAX":{"icaoId":"SBAX","flightCategory":"VFR","rawOb":"METAR SBAX 150000Z AUTO 31005KT CAVOK ///// Q1016","temp":null,"dewp":null,"wdir":310,"wspd":5,"visib":"6+","altim":1016,"clouds":[],"obsTime":1773532800},"SBBH":{"icaoId":"SBBH","flightCategory":"VFR","rawOb":"METAR SBBH 150000Z 00000KT 9999 FEW030 22/21 Q1015","temp":22,"dewp":21,"wdir":0,"wspd":0,"visib":"6+","altim":1015,"clouds":[{"cover":"FEW","base":3000}],"obsTime":1773532800},"SBBU":{"icaoId":"SBBU","flightCategory":"VFR","rawOb":"METAR SBBU 150000Z 33003KT CAVOK 27/19 Q1012","temp":27,"dewp":19,"wdir":330,"wspd":3,"visib":"6+","altim":1012,"clouds":[],"obsTime":1773532800},"SBCO":{"icaoId":"SBCO","flightCategory":"VFR","rawOb":"METAR SBCO 150000Z 10005KT CAVOK 21/18 Q1009","temp":21,"dewp":18,"wdir":100,"wspd":5,"visib":"6+","altim":1009,"clouds":[],"obsTime":1773532800},"SBJP":{"icaoId":"SBJP","flightCategory":"VFR","rawOb":"METAR SBJP 150000Z 08004KT 050V110 9999 FEW021 28/24 Q1012","temp":28,"dewp":24,"wdir":80,"wspd":4,"visib":"6+","altim":1012,"clouds":[{"cover":"FEW","base":2100}],"obsTime":1773532800},"SBJR":{"icaoId":"SBJR","flightCategory":"VFR","rawOb":"METAR SBJR 150000Z 34001KT 9999 FEW020 23/22 Q1011","temp":23,"dewp":22,"wdir":340,"wspd":1,"visib":"6+","altim":1011,"clouds":[{"cover":"FEW","base":2000}],"obsTime":1773532800},"SBJV":{"icaoId":"SBJV","flightCategory":"VFR","rawOb":"METAR SBJV 150000Z 28001KT 9999 FEW025 24/23 Q1009","temp":24,"dewp":23,"wdir":280,"wspd":1,"visib":"6+","altim":1009,"clouds":[{"cover":"FEW","base":2500}],"obsTime":1773532800},"SBLE":{"icaoId":"SBLE","flightCategory":"VFR","rawOb":"METAR SBLE 150000Z AUTO 31002KT CAVOK 24/24 Q1013","temp":24,"dewp":24,"wdir":310,"wspd":2,"visib":"6+","altim":1013,"clouds":[],"obsTime":1773532800},"SBLS":{"icaoId":"SBLS","flightCategory":"VFR","rawOb":"METAR SBLS 150000Z 14003KT 9999 FEW028 21/20 Q1015","temp":21,"dewp":20,"wdir":140,"wspd":3,"visib":"6+","altim":1015,"clouds":[{"cover":"FEW","base":2800}],"obsTime":1773532800},"SBAN":{"icaoId":"SBAN","flightCategory":"VFR","rawOb":"METAR SBAN 150000Z 35001KT 9999 FEW035 BKN100 19/19 Q1017","temp":19,"dewp":19,"wdir":350,"wspd":1,"visib":"6+","altim":1017,"clouds":[{"cover":"FEW","base":3500},{"cover":"BKN","base":10000}],"obsTime":1773532800},"SBMT":{"icaoId":"SBMT","flightCategory":"VFR","rawOb":"METAR SBMT 150000Z 08005KT CAVOK 22/19 Q1014","temp":22,"dewp":19,"wdir":80,"wspd":5,"visib":"6+","altim":1014,"clouds":[],"obsTime":1773532800}}}