{"updated":1784318106,"count":87,"data":{"SBRF":{"icaoId":"SBRF","flightCategory":"MVFR","rawOb":"METAR SBRF 171800Z 17012KT 9999 VCSH FEW012 BKN021 OVC050 26/23 Q1016","temp":26,"dewp":23,"wdir":170,"wspd":12,"visib":"6+","altim":1016,"clouds":[{"cover":"FEW","base":1200},{"cover":"BKN","base":2100},{"cover":"OVC","base":5000}],"obsTime":1784311200},"SBMO":{"icaoId":"SBMO","flightCategory":"MVFR","rawOb":"METAR SBMO 171800Z 16012KT 9999 VCSH BKN020 26/21 Q1018","temp":26,"dewp":21,"wdir":160,"wspd":12,"visib":"6+","altim":1018,"clouds":[{"cover":"BKN","base":2000}],"obsTime":1784311200},"SBFZ":{"icaoId":"SBFZ","flightCategory":"VFR","rawOb":"METAR SBFZ 171800Z 10003KT 9999 FEW030 30/22 Q1012","temp":30,"dewp":22,"wdir":100,"wspd":3,"visib":"6+","altim":1012,"clouds":[{"cover":"FEW","base":3000}],"obsTime":1784311200},"SBBE":{"icaoId":"SBBE","flightCategory":"VFR","rawOb":"METAR SBBE 171800Z 12010KT 9999 BKN040 32/22 Q1012","temp":32,"dewp":22,"wdir":120,"wspd":10,"visib":"6+","altim":1012,"clouds":[{"cover":"BKN","base":4000}],"obsTime":1784311200},"SBBR":{"icaoId":"SBBR","flightCategory":"VFR","rawOb":"METAR SBBR 171800Z 09009KT 060V120 CAVOK 24/07 Q1023","temp":24,"dewp":7,"wdir":90,"wspd":9,"visib":"6+","altim":1023,"clouds":[],"obsTime":1784311200},"SBCZ":{"icaoId":"SBCZ","flightCategory":"VFR","rawOb":"METAR SBCZ 171800Z 36003KT 9999 FEW018 BKN100 28/24 Q1014","temp":28,"dewp":24,"wdir":360,"wspd":3,"visib":"6+","altim":1014,"clouds":[{"cover":"FEW","base":1800},{"cover":"BKN","base":10000}],"obsTime":1784311200},"SBNT":{"icaoId":"SBNT","flightCategory":"IFR","rawOb":"METAR SBNT 171800Z 15016KT 8000 VCSH BKN009 BKN017 FEW030TCU 25/23 Q1014","temp":25,"dewp":23,"wdir":150,"wspd":16,"visib":4.97,"altim":1014,"clouds":[{"cover":"BKN","base":900},{"cover":"BKN","base":1700},{"cover":"FEW","base":3000}],"obsTime":1784311200},"SBMK":{"icaoId":"SBMK","flightCategory":"VFR","rawOb":"METAR SBMK 171800Z 09008KT 9999 FEW040 24/11 Q1023","temp":24,"dewp":11,"wdir":90,"wspd":8,"visib":"6+","altim":1023,"clouds":[{"cover":"FEW","base":4000}],"obsTime":1784311200},"SBFL":{"icaoId":"SBFL","flightCategory":"VFR","rawOb":"METAR SBFL 171800Z 33014KT CAVOK 20/16 Q1014","temp":20,"dewp":16,"wdir":330,"wspd":14,"visib":"6+","altim":1014,"clouds":[],"obsTime":1784311200},"SBRB":{"icaoId":"SBRB","flightCategory":"IFR","rawOb":"METAR SBRB 171800Z 36012KT 2000 R07///// R25///// RA BR SCT004 BKN012 FEW030TCU 23/23 Q1014 RESHRA","temp":23,"dewp":23,"wdir":360,"wspd":12,"visib":1.24,"altim":1014,"clouds":[{"cover":"SCT","base":400},{"cover":"BKN","base":1200},{"cover":"FEW","base":3000}],"obsTime":1784311200},"SBSG":{"icaoId":"SBSG","flightCategory":"IFR","rawOb":"METAR SBSG 171800Z 14005KT 100V180 5000 -RA BR BKN008 BKN030 25/24 Q1014","temp":25,"dewp":24,"wdir":140,"wspd":5,"visib":3.11,"altim":1014,"clouds":[{"cover":"BKN","base":800},{"cover":"BKN","base":3000}],"obsTime":1784311200},"SBSL":{"icaoId":"SBSL","flightCategory":"VFR","rawOb":"METAR SBSL 171800Z 10004KT 9999 SCT030 32/21 Q1012","temp":32,"dewp":21,"wdir":100,"wspd":4,"visib":"6+","altim":1012,"clouds":[{"cover":"SCT","base":3000}],"obsTime":1784311200},"SBEG":{"icaoId":"SBEG","flightCategory":"VFR","rawOb":"METAR SBEG 171800Z 08007KT 030V120 9999 SCT025 FEW030TCU 33/23 Q1012","temp":33,"dewp":23,"wdir":80,"wspd":7,"visib":"6+","altim":1012,"clouds":[{"cover":"SCT","base":2500},{"cover":"FEW","base":3000}],"obsTime":1784311200},"SBCF":{"icaoId":"SBCF","flightCategory":"VFR","rawOb":"METAR SBCF 171800Z 02008KT CAVOK 22/09 Q1024","temp":22,"dewp":9,"wdir":20,"wspd":8,"visib":"6+","altim":1024,"clouds":[],"obsTime":1784311200},"SBSV":{"icaoId":"SBSV","flightCategory":"VFR","rawOb":"METAR SBSV 171800Z 12011KT 070V210 9999 SCT025 SCT100 28/17 Q1020","temp":28,"dewp":17,"wdir":120,"wspd":11,"visib":"6+","altim":1020,"clouds":[{"cover":"SCT","base":2500},{"cover":"SCT","base":10000}],"obsTime":1784311200},"SBGO":{"icaoId":"SBGO","flightCategory":"VFR","rawOb":"METAR SBGO 171800Z 08008KT CAVOK 28/10 Q1020","temp":28,"dewp":10,"wdir":80,"wspd":8,"visib":"6+","altim":1020,"clouds":[],"obsTime":1784311200},"SBPJ":{"icaoId":"SBPJ","flightCategory":"VFR","rawOb":"METAR SBPJ 171800Z 11007KT CAVOK 32/13 Q1015","temp":32,"dewp":13,"wdir":110,"wspd":7,"visib":"6+","altim":1015,"clouds":[],"obsTime":1784311200},"SBBV":{"icaoId":"SBBV","flightCategory":"VFR","rawOb":"METAR SBBV 171800Z 15015KT 9999 -RA SCT011 FEW035TCU BKN070 25/24 Q1012","temp":25,"dewp":24,"wdir":150,"wspd":15,"visib":"6+","altim":1012,"clouds":[{"cover":"SCT","base":1100},{"cover":"FEW","base":3500},{"cover":"BKN","base":7000}],"obsTime":1784311200},"SBPA":{"icaoId":"SBPA","flightCategory":"VFR","rawOb":"METAR SBPA 171800Z 35013KT CAVOK 33/15 Q1005","temp":33,"dewp":15,"wdir":350,"wspd":13,"visib":"6+","altim":1005,"clouds":[],"obsTime":1784311200},"SBCT":{"icaoId":"SBCT","flightCategory":"VFR","rawOb":"METAR SBCT 171800Z 35012KT CAVOK 24/12 Q1019","temp":24,"dewp":12,"wdir":350,"wspd":12,"visib":"6+","altim":1019,"clouds":[],"obsTime":1784311200},"SBSN":{"icaoId":"SBSN","flightCategory":"VFR","rawOb":"METAR SBSN 171800Z 09013KT 9999 SCT020 FEW025TCU SCT080 31/24 Q1012","temp":31,"dewp":24,"wdir":90,"wspd":13,"visib":"6+","altim":1012,"clouds":[{"cover":"SCT","base":2000},{"cover":"FEW","base":2500},{"cover":"SCT","base":8000}],"obsTime":1784311200},"SBCB":{"icaoId":"SBCB","flightCategory":"VFR","rawOb":"METAR SBCB 171800Z 10020KT CAVOK 25/16 Q1021","temp":25,"dewp":16,"wdir":100,"wspd":20,"visib":"6+","altim":1021,"clouds":[],"obsTime":1784311200},"SBMA":{"icaoId":"SBMA","flightCategory":"VFR","rawOb":"METAR SBMA 171800Z 07007KT 9999 SCT020 34/19 Q1012","temp":34,"dewp":19,"wdir":70,"wspd":7,"visib":"6+","altim":1012,"clouds":[{"cover":"SCT","base":2000}],"obsTime":1784311200},"SBGR":{"icaoId":"SBGR","flightCategory":"VFR","rawOb":"METAR SBGR 171800Z 03010KT CAVOK 24/07 Q1021","temp":24,"dewp":7,"wdir":30,"wspd":10,"visib":"6+","altim":1021,"clouds":[],"obsTime":1784311200},"SBVT":{"icaoId":"SBVT","flightCategory":"VFR","rawOb":"METAR SBVT 171800Z 05009KT 9999 FEW030 26/14 Q1023","temp":26,"dewp":14,"wdir":50,"wspd":9,"visib":"6+","altim":1023,"clouds":[{"cover":"FEW","base":3000}],"obsTime":1784311200},"SBSP":{"icaoId":"SBSP","flightCategory":"VFR","rawOb":"METAR SBSP 171800Z 34008KT CAVOK 24/06 Q1022","temp":24,"dewp":6,"wdir":340,"wspd":8,"visib":"6+","altim":1022,"clouds":[],"obsTime":1784311200},"SBKP":{"icaoId":"SBKP","flightCategory":"VFR","rawOb":"METAR SBKP 171800Z 04008KT 360V070 CAVOK 25/10 Q1021","temp":25,"dewp":10,"wdir":40,"wspd":8,"visib":"6+","altim":1021,"clouds":[],"obsTime":1784311200},"SBAT":{"icaoId":"SBAT","flightCategory":"VFR","rawOb":"METAR SBAT 171800Z 05008KT 9999 BKN035 33/20 Q1013","temp":33,"dewp":20,"wdir":50,"wspd":8,"visib":"6+","altim":1013,"clouds":[{"cover":"BKN","base":3500}],"obsTime":1784311200},"SBHT":{"icaoId":"SBHT","flightCategory":"VFR","rawOb":"METAR SBHT 171800Z 10007KT 9999 SCT030 33/24 Q1012","temp":33,"dewp":24,"wdir":100,"wspd":7,"visib":"6+","altim":1012,"clouds":[{"cover":"SCT","base":3000}],"obsTime":1784311200},"SBMG":{"icaoId":"SBMG","flightCategory":"VFR","rawOb":"METAR SBMG 171800Z 03015KT CAVOK 27/13 Q1015","temp":27,"dewp":13,"wdir":30,"wspd":15,"visib":"6+","altim":1015,"clouds":[],"obsTime":1784311200},"SBIL":{"icaoId":"SBIL","flightCategory":"VFR","rawOb":"METAR SBIL 171800Z 11009KT 120V190 9999 SCT025 SCT080 26/20 Q1022","temp":26,"dewp":20,"wdir":110,"wspd":9,"visib":"6+","altim":1022,"clouds":[{"cover":"SCT","base":2500},{"cover":"SCT","base":8000}],"obsTime":1784311200},"SBJU":{"icaoId":"SBJU","flightCategory":"VFR","rawOb":"METAR SBJU 171800Z 18016KT 9999 SCT022 31/15 Q1016","temp":31,"dewp":15,"wdir":180,"wspd":16,"visib":"6+","altim":1016,"clouds":[{"cover":"SCT","base":2200}],"obsTime":1784311200},"SBME":{"icaoId":"SBME","flightCategory":"VFR","rawOb":"METAR SBME 171800Z 03015KT CAVOK 28/12 Q1021","temp":28,"dewp":12,"wdir":30,"wspd":15,"visib":"6+","altim":1021,"clouds":[],"obsTime":1784311200},"SBPV":{"icaoId":"SBPV","flightCategory":"VFR","rawOb":"METAR SBPV 171800Z 35004KT 290V030 9999 SCT025 FEW035TCU SCT100 29/23 Q1012","temp":29,"dewp":23,"wdir":350,"wspd":4,"visib":"6+","altim":1012,"clouds":[{"cover":"SCT","base":2500},{"cover":"FEW","base":3500},{"cover":"SCT","base":10000}],"obsTime":1784311200},"SBUL":{"icaoId":"SBUL","flightCategory":"VFR","rawOb":"METAR SBUL 171800Z 08011KT 040V110 CAVOK 24/08 Q1022","temp":24,"dewp":8,"wdir":80,"wspd":11,"visib":"6+","altim":1022,"clouds":[],"obsTime":1784311200},"SBUR":{"icaoId":"SBUR","flightCategory":"VFR","rawOb":"METAR SBUR 171800Z 04007KT CAVOK 26/08 Q1021","temp":26,"dewp":8,"wdir":40,"wspd":7,"visib":"6+","altim":1021,"clouds":[],"obsTime":1784311200},"SBLO":{"icaoId":"SBLO","flightCategory":"VFR","rawOb":"METAR SBLO 171800Z 06010KT CAVOK 25/12 Q1018","temp":25,"dewp":12,"wdir":60,"wspd":10,"visib":"6+","altim":1018,"clouds":[],"obsTime":1784311200},"SBFI":{"icaoId":"SBFI","flightCategory":"VFR","rawOb":"METAR SBFI 171800Z 02021G31KT CAVOK 30/19 Q1007","temp":30,"dewp":19,"wdir":20,"wspd":21,"visib":"6+","altim":1007,"clouds":[],"obsTime":1784311200},"SBCG":{"icaoId":"SBCG","flightCategory":"VFR","rawOb":"METAR SBCG 171800Z 34016KT 9999 BKN046 30/19 Q1014","temp":30,"dewp":19,"wdir":340,"wspd":16,"visib":"6+","altim":1014,"clouds":[{"cover":"BKN","base":4600}],"obsTime":1784311200},"SBCP":{"icaoId":"SBCP","flightCategory":"VFR","rawOb":"METAR SBCP 171800Z 08019KT 9999 FEW030 26/14 Q1022","temp":26,"dewp":14,"wdir":80,"wspd":19,"visib":"6+","altim":1022,"clouds":[{"cover":"FEW","base":3000}],"obsTime":1784311200},"SBGL":{"icaoId":"SBGL","flightCategory":"VFR","rawOb":"METAR SBGL 171800Z 08008KT CAVOK 28/10 Q1019","temp":28,"dewp":10,"wdir":80,"wspd":8,"visib":"6+","altim":1019,"clouds":[],"obsTime":1784311200},"SBTE":{"icaoId":"SBTE","flightCategory":"VFR","rawOb":"METAR SBTE 171800Z 11006KT 9999 FEW040 32/17 Q1012","temp":32,"dewp":17,"wdir":110,"wspd":6,"visib":"6+","altim":1012,"clouds":[{"cover":"FEW","base":4000}],"obsTime":1784311200},"SBCR":{"icaoId":"SBCR","flightCategory":"VFR","rawOb":"METAR SBCR 171800Z 02010KT 350V060 CAVOK 32/22 Q1009","temp":32,"dewp":22,"wdir":20,"wspd":10,"visib":"6+","altim":1009,"clouds":[],"obsTime":1784311200},"SBMQ":{"icaoId":"SBMQ","flightCategory":"VFR","rawOb":"METAR SBMQ 171800Z 06009KT 020V090 9999 VCSH SCT025 FEW028TCU SCT065 27/25 Q1012 RESHRA","temp":27,"dewp":25,"wdir":60,"wspd":9,"visib":"6+","altim":1012,"clouds":[{"cover":"SCT","base":2500},{"cover":"FEW","base":2800},{"cover":"SCT","base":6500}],"obsTime":1784311200},"SBSJ":{"icaoId":"SBSJ","flightCategory":"VFR","rawOb":"METAR SBSJ 171800Z 34005KT CAVOK 23/10 Q1021","temp":23,"dewp":10,"wdir":340,"wspd":5,"visib":"6+","altim":1021,"clouds":[],"obsTime":1784311200},"SBCJ":{"icaoId":"SBCJ","flightCategory":"VFR","rawOb":"METAR SBCJ 171800Z 11010KT 070V150 9999 SCT030 29/17 Q1016","temp":29,"dewp":17,"wdir":110,"wspd":10,"visib":"6+","altim":1016,"clouds":[{"cover":"SCT","base":3000}],"obsTime":1784311200},"SBOI":{"icaoId":"SBOI","flightCategory":"VFR","rawOb":"METAR SBOI 171800Z AUTO 11009KT 040V160 9999 FEW041 32/23 Q1012","temp":32,"dewp":23,"wdir":110,"wspd":9,"visib":"6+","altim":1012,"clouds":[{"cover":"FEW","base":4100}],"obsTime":1784311200},"SBTT":{"icaoId":"SBTT","flightCategory":"MVFR","rawOb":"METAR SBTT 171800Z VRB04KT 9999 -SHRA BKN020 FEW025TCU 30/25 Q1013","temp":30,"dewp":25,"wdir":"VRB","wspd":4,"visib":"6+","altim":1013,"clouds":[{"cover":"BKN","base":2000},{"cover":"FEW","base":2500}],"obsTime":1784311200},"SBPP":{"icaoId":"SBPP","flightCategory":"VFR","rawOb":"METAR SBPP 171800Z 01025KT 9999 SCT020 28/20 Q1011","temp":28,"dewp":20,"wdir":10,"wspd":25,"visib":"6+","altim":1011,"clouds":[{"cover":"SCT","base":2000}],"obsTime":1784311200},"SBTF":{"icaoId":"SBTF","flightCategory":"VFR","rawOb":"METAR SBTF 171800Z 12007KT 9999 SCT020 34/25 Q1011","temp":34,"dewp":25,"wdir":120,"wspd":7,"visib":"6+","altim":1011,"clouds":[{"cover":"SCT","base":2000}],"obsTime":1784311200},"SBPS":{"icaoId":"SBPS","flightCategory":"MVFR","rawOb":"METAR SBPS 171800Z 11008KT 9999 BKN018 FEW025TCU BKN060 24/19 Q1022","temp":24,"dewp":19,"wdir":110,"wspd":8,"visib":"6+","altim":1022,"clouds":[{"cover":"BKN","base":1800},{"cover":"FEW","base":2500},{"cover":"BKN","base":6000}],"obsTime":1784311200},"SBCC":{"icaoId":"SBCC","flightCategory":"VFR","rawOb":"METAR SBCC 171800Z 07009KT 9999 SCT045 30/18 Q1015","temp":30,"dewp":18,"wdir":70,"wspd":9,"visib":"6+","altim":1015,"clouds":[{"cover":"SCT","base":4500}],"obsTime":1784311200},"SBGM":{"icaoId":"SBGM","flightCategory":"VFR","rawOb":"METAR SBGM 171800Z 27005KT 9999 VCSH FEW033TCU BKN040 32/23 Q1012","temp":32,"dewp":23,"wdir":270,"wspd":5,"visib":"6+","altim":1012,"clouds":[{"cover":"FEW","base":3300},{"cover":"BKN","base":4000}],"obsTime":1784311200},"SBVH":{"icaoId":"SBVH","flightCategory":"VFR","rawOb":"METAR SBVH 171800Z 20011KT 9999 SCT025 BKN100 29/20 Q1015","temp":29,"dewp":20,"wdir":200,"wspd":11,"visib":"6+","altim":1015,"clouds":[{"cover":"SCT","base":2500},{"cover":"BKN","base":10000}],"obsTime":1784311200},"SBCA":{"icaoId":"SBCA","flightCategory":"VFR","rawOb":"METAR SBCA 171800Z 01023G33KT 9999 SCT040 27/16 Q1014","temp":27,"dewp":16,"wdir":10,"wspd":23,"visib":"6+","altim":1014,"clouds":[{"cover":"SCT","base":4000}],"obsTime":1784311200},"SBCO":{"icaoId":"SBCO","flightCategory":"VFR","rawOb":"METAR SBCO 171800Z 34010KT 300V040 CAVOK 34/16 Q1006","temp":34,"dewp":16,"wdir":340,"wspd":10,"visib":"6+","altim":1006,"clouds":[],"obsTime":1784311200},"SBKG":{"icaoId":"SBKG","flightCategory":"VFR","rawOb":"METAR SBKG 171800Z 13010KT 9999 VCSH SCT020 OVC070 25/20 Q1017","temp":25,"dewp":20,"wdir":130,"wspd":10,"visib":"6+","altim":1017,"clouds":[{"cover":"SCT","base":2000},{"cover":"OVC","base":7000}],"obsTime":1784311200},"SBAX":{"icaoId":"SBAX","flightCategory":"VFR","rawOb":"METAR SBAX 171800Z AUTO 05007KT 360V110 CAVOK 22/07 Q1023","temp":22,"dewp":7,"wdir":50,"wspd":7,"visib":"6+","altim":1023,"clouds":[],"obsTime":1784311200},"SBBH":{"icaoId":"SBBH","flightCategory":"VFR","rawOb":"METAR SBBH 171800Z 09006KT CAVOK 23/10 Q1024","temp":23,"dewp":10,"wdir":90,"wspd":6,"visib":"6+","altim":1024,"clouds":[],"obsTime":1784311200},"SBBQ":{"icaoId":"SBBQ","flightCategory":"VFR","rawOb":"METAR SBBQ 171800Z 04005KT CAVOK 20/09 Q1027","temp":20,"dewp":9,"wdir":40,"wspd":5,"visib":"6+","altim":1027,"clouds":[],"obsTime":1784311200},"SBBU":{"icaoId":"SBBU","flightCategory":"VFR","rawOb":"METAR SBBU 171800Z 05005KT CAVOK 27/11 Q1020","temp":27,"dewp":11,"wdir":50,"wspd":5,"visib":"6+","altim":1020,"clouds":[],"obsTime":1784311200},"SBDN":{"icaoId":"SBDN","flightCategory":"VFR","rawOb":"METAR SBDN 171800Z 04012KT CAVOK 28/13 Q1017","temp":28,"dewp":13,"wdir":40,"wspd":12,"visib":"6+","altim":1017,"clouds":[],"obsTime":1784311200},"SBIP":{"icaoId":"SBIP","flightCategory":"VFR","rawOb":"METAR SBIP 171800Z AUTO 03007KT 350V070 CAVOK 24/12 Q1023","temp":24,"dewp":12,"wdir":30,"wspd":7,"visib":"6+","altim":1023,"clouds":[],"obsTime":1784311200},"SBSC":{"icaoId":"SBSC","flightCategory":"VFR","rawOb":"METAR SBSC 171800Z 02012KT CAVOK 28/12 Q1019","temp":28,"dewp":12,"wdir":20,"wspd":12,"visib":"6+","altim":1019,"clouds":[],"obsTime":1784311200},"SBSR":{"icaoId":"SBSR","flightCategory":"VFR","rawOb":"METAR SBSR 171800Z 06010KT CAVOK 27/08 Q1019","temp":27,"dewp":8,"wdir":60,"wspd":10,"visib":"6+","altim":1019,"clouds":[],"obsTime":1784311200},"SBES":{"icaoId":"SBES","flightCategory":"VFR","rawOb":"METAR SBES 171800Z 06018KT CAVOK 25/// Q1021","temp":null,"dewp":null,"wdir":60,"wspd":18,"visib":"6+","altim":1021,"clouds":[],"obsTime":1784311200},"SBSM":{"icaoId":"SBSM","flightCategory":"VFR","rawOb":"METAR SBSM 171800Z 35013G24KT 9999 FEW030 32/18 Q1002 WS ALL RWY","temp":32,"dewp":18,"wdir":350,"wspd":13,"visib":"6+","altim":1002,"clouds":[{"cover":"FEW","base":3000}],"obsTime":1784311200},"SBTU":{"icaoId":"SBTU","flightCategory":"VFR","rawOb":"METAR SBTU 171800Z AUTO 25010KT 9999 // FEW049/// 31/19 Q1014","temp":31,"dewp":19,"wdir":250,"wspd":10,"visib":"6+","altim":1014,"clouds":[{"cover":"FEW","base":4900}],"obsTime":1784311200},"SBUY":{"icaoId":"SBUY","flightCategory":"VFR","rawOb":"METAR SBUY 171800Z 13007KT 9999 SCT025 32/23 Q1011","temp":32,"dewp":23,"wdir":130,"wspd":7,"visib":"6+","altim":1011,"clouds":[{"cover":"SCT","base":2500}],"obsTime":1784311200},"SBPB":{"icaoId":"SBPB","flightCategory":"VFR","rawOb":"METAR SBPB 171800Z 05009KT 9999 SCT023 31/23 Q1011","temp":31,"dewp":23,"wdir":50,"wspd":9,"visib":"6+","altim":1011,"clouds":[{"cover":"SCT","base":2300}],"obsTime":1784311200},"SBAR":{"icaoId":"SBAR","flightCategory":"VFR","rawOb":"METAR SBAR 171800Z 13012KT 9999 SCT030 BKN060 27/20 Q1018","temp":27,"dewp":20,"wdir":130,"wspd":12,"visib":"6+","altim":1018,"clouds":[{"cover":"SCT","base":3000},{"cover":"BKN","base":6000}],"obsTime":1784311200},"SBPL":{"icaoId":"SBPL","flightCategory":"MVFR","rawOb":"METAR SBPL 171800Z 10013KT 9999 BKN030 29/15 Q1018","temp":29,"dewp":15,"wdir":100,"wspd":13,"visib":"6+","altim":1018,"clouds":[{"cover":"BKN","base":3000}],"obsTime":1784311200},"SBAU":{"icaoId":"SBAU","flightCategory":"VFR","rawOb":"METAR SBAU 171800Z 03010KT CAVOK 30/10 Q1017","temp":30,"dewp":10,"wdir":30,"wspd":10,"visib":"6+","altim":1017,"clouds":[],"obsTime":1784311200},"SBJP":{"icaoId":"SBJP","flightCategory":"MVFR","rawOb":"METAR SBJP 171800Z 20014KT 9999 BKN012 BKN022 26/24 Q1016","temp":26,"dewp":24,"wdir":200,"wspd":14,"visib":"6+","altim":1016,"clouds":[{"cover":"BKN","base":1200},{"cover":"BKN","base":2200}],"obsTime":1784311200},"SBAN":{"icaoId":"SBAN","flightCategory":"VFR","rawOb":"METAR SBAN 171800Z 09010KT 060V130 CAVOK 24/08 Q1022","temp":24,"dewp":8,"wdir":90,"wspd":10,"visib":"6+","altim":1022,"clouds":[],"obsTime":1784311200},"SBIH":{"icaoId":"SBIH","flightCategory":"VFR","rawOb":"METAR SBIH 171800Z 05007KT 9999 FEW020 FEW025TCU 32/23 Q1011","temp":32,"dewp":23,"wdir":50,"wspd":7,"visib":"6+","altim":1011,"clouds":[{"cover":"FEW","base":2000},{"cover":"FEW","base":2500}],"obsTime":1784311200},"SBJV":{"icaoId":"SBJV","flightCategory":"VFR","rawOb":"METAR SBJV 171800Z 12004KT 9999 FEW020 20/17 Q1015","temp":20,"dewp":17,"wdir":120,"wspd":4,"visib":"6+","altim":1015,"clouds":[{"cover":"FEW","base":2000}],"obsTime":1784311200},"SBNM":{"icaoId":"SBNM","flightCategory":"VFR","rawOb":"METAR SBNM 171800Z AUTO 34027G42KT CAVOK 31/18 Q1005","temp":31,"dewp":18,"wdir":340,"wspd":27,"visib":"6+","altim":1005,"clouds":[],"obsTime":1784311200},"SBPF":{"icaoId":"SBPF","flightCategory":"VFR","rawOb":"METAR SBPF 171800Z 35016KT CAVOK 27/15 Q1012","temp":27,"dewp":15,"wdir":350,"wspd":16,"visib":"6+","altim":1012,"clouds":[],"obsTime":1784311200},"SBLE":{"icaoId":"SBLE","flightCategory":"VFR","rawOb":"METAR SBLE 171800Z AUTO 09008KT 060V120 CAVOK 25/14 Q1021","temp":25,"dewp":14,"wdir":90,"wspd":8,"visib":"6+","altim":1021,"clouds":[],"obsTime":1784311200},"SBAF":{"icaoId":"SBAF","flightCategory":"VFR","rawOb":"METAR SBAF 171800Z 08008KT 010V120 CAVOK 28/10 Q1019","temp":28,"dewp":10,"wdir":80,"wspd":8,"visib":"6+","altim":1019,"clouds":[],"obsTime":1784311200},"SBGW":{"icaoId":"SBGW","flightCategory":"VFR","rawOb":"METAR SBGW 171800Z 04005KT CAVOK 24/09 Q1021","temp":24,"dewp":9,"wdir":40,"wspd":5,"visib":"6+","altim":1021,"clouds":[],"obsTime":1784311200},"SBJR":{"icaoId":"SBJR","flightCategory":"VFR","rawOb":"METAR SBJR 171800Z 05006KT CAVOK 29/11 Q1019","temp":29,"dewp":11,"wdir":50,"wspd":6,"visib":"6+","altim":1019,"clouds":[],"obsTime":1784311200},"SBLS":{"icaoId":"SBLS","flightCategory":"VFR","rawOb":"METAR SBLS 171800Z 08005KT 9999 FEW045 23/10 Q1024","temp":23,"dewp":10,"wdir":80,"wspd":5,"visib":"6+","altim":1024,"clouds":[{"cover":"FEW","base":4500}],"obsTime":1784311200},"SBMT":{"icaoId":"SBMT","flightCategory":"VFR","rawOb":"METAR SBMT 171800Z 32003KT CAVOK 24/05 Q1021","temp":24,"dewp":5,"wdir":320,"wspd":3,"visib":"6+","altim":1021,"clouds":[],"obsTime":1784311200},"SBST":{"icaoId":"SBST","flightCategory":"VFR","rawOb":"METAR SBST 171800Z 12005KT CAVOK 28/12 Q1016","temp":28,"dewp":12,"wdir":120,"wspd":5,"visib":"6+","altim":1016,"clouds":[],"obsTime":1784311200},"SBTA":{"icaoId":"SBTA","flightCategory":"VFR","rawOb":"METAR SBTA 171800Z 06005KT 340V110 CAVOK 24/09 Q1021","temp":24,"dewp":9,"wdir":60,"wspd":5,"visib":"6+","altim":1021,"clouds":[],"obsTime":1784311200}}}