{"updated":1779234667,"count":73,"data":{"SBFI":{"icaoId":"SBFI","flightCategory":"VFR","rawOb":"METAR SBFI 192200Z 21004KT CAVOK 14/13 Q1020","temp":14,"dewp":13,"wdir":210,"wspd":4,"visib":"6+","altim":1020,"clouds":[],"obsTime":1779228000},"SBBE":{"icaoId":"SBBE","flightCategory":"VFR","rawOb":"METAR SBBE 192200Z 16011KT 9999 -RA SCT014 FEW030TCU BKN049 26/24 Q1011","temp":26,"dewp":24,"wdir":160,"wspd":11,"visib":"6+","altim":1011,"clouds":[{"cover":"SCT","base":1400},{"cover":"FEW","base":3000},{"cover":"BKN","base":4900}],"obsTime":1779228000},"SBBR":{"icaoId":"SBBR","flightCategory":"VFR","rawOb":"METAR SBBR 192200Z 18005KT 9999 FEW045 25/16 Q1020","temp":25,"dewp":16,"wdir":180,"wspd":5,"visib":"6+","altim":1020,"clouds":[{"cover":"FEW","base":4500}],"obsTime":1779228000},"SBBV":{"icaoId":"SBBV","flightCategory":"VFR","rawOb":"METAR SBBV 192200Z 05004KT 9999 SCT030 FEW035TCU BKN100 30/22 Q1010","temp":30,"dewp":22,"wdir":50,"wspd":4,"visib":"6+","altim":1010,"clouds":[{"cover":"SCT","base":3000},{"cover":"FEW","base":3500},{"cover":"BKN","base":10000}],"obsTime":1779228000},"SBCF":{"icaoId":"SBCF","flightCategory":"VFR","rawOb":"METAR SBCF 192200Z 16003KT 9999 VCTS FEW040 FEW045CB 24/20 Q1020","temp":24,"dewp":20,"wdir":160,"wspd":3,"visib":"6+","altim":1020,"clouds":[{"cover":"FEW","base":4000},{"cover":"FEW","base":4500}],"obsTime":1779228000},"SBCG":{"icaoId":"SBCG","flightCategory":"VFR","rawOb":"METAR SBCG 192200Z 13005KT 9999 SCT025 BKN100 17/14 Q1020","temp":17,"dewp":14,"wdir":130,"wspd":5,"visib":"6+","altim":1020,"clouds":[{"cover":"SCT","base":2500},{"cover":"BKN","base":10000}],"obsTime":1779228000},"SBCT":{"icaoId":"SBCT","flightCategory":"IFR","rawOb":"METAR SBCT 192200Z 06004KT 9999 FEW007 BKN009 13/13 Q1023","temp":13,"dewp":13,"wdir":60,"wspd":4,"visib":"6+","altim":1023,"clouds":[{"cover":"FEW","base":700},{"cover":"BKN","base":900}],"obsTime":1779228000},"SBCZ":{"icaoId":"SBCZ","flightCategory":"VFR","rawOb":"METAR SBCZ 192200Z 16006KT 9999 SCT012 OVC090 24/22 Q1014","temp":24,"dewp":22,"wdir":160,"wspd":6,"visib":"6+","altim":1014,"clouds":[{"cover":"SCT","base":1200},{"cover":"OVC","base":9000}],"obsTime":1779228000},"SBEG":{"icaoId":"SBEG","flightCategory":"VFR","rawOb":"METAR SBEG 192200Z 11005KT 9999 FEW030 FEW035TCU 30/24 Q1010","temp":30,"dewp":24,"wdir":110,"wspd":5,"visib":"6+","altim":1010,"clouds":[{"cover":"FEW","base":3000},{"cover":"FEW","base":3500}],"obsTime":1779228000},"SBFL":{"icaoId":"SBFL","flightCategory":"VFR","rawOb":"METAR SBFL 192200Z 09003KT CAVOK 16/13 Q1021","temp":16,"dewp":13,"wdir":90,"wspd":3,"visib":"6+","altim":1021,"clouds":[],"obsTime":1779228000},"SBFZ":{"icaoId":"SBFZ","flightCategory":"VFR","rawOb":"METAR SBFZ 192200Z 10008KT CAVOK 27/24 Q1012","temp":27,"dewp":24,"wdir":100,"wspd":8,"visib":"6+","altim":1012,"clouds":[],"obsTime":1779228000},"SBGL":{"icaoId":"SBGL","flightCategory":"MVFR","rawOb":"METAR SBGL 192200Z 26008KT 230V290 9999 FEW012 BKN015 OVC025 23/20 Q1018","temp":23,"dewp":20,"wdir":260,"wspd":8,"visib":"6+","altim":1018,"clouds":[{"cover":"FEW","base":1200},{"cover":"BKN","base":1500},{"cover":"OVC","base":2500}],"obsTime":1779228000},"SBGO":{"icaoId":"SBGO","flightCategory":"VFR","rawOb":"METAR SBGO 192200Z 14009KT 9999 FEW040 FEW045TCU BKN070 27/21 Q1019","temp":27,"dewp":21,"wdir":140,"wspd":9,"visib":"6+","altim":1019,"clouds":[{"cover":"FEW","base":4000},{"cover":"FEW","base":4500},{"cover":"BKN","base":7000}],"obsTime":1779228000},"SBGR":{"icaoId":"SBGR","flightCategory":"MVFR","rawOb":"METAR SBGR 192200Z 17005KT 140V200 9999 BKN011 OVC013 17/16 Q1022","temp":17,"dewp":16,"wdir":170,"wspd":5,"visib":"6+","altim":1022,"clouds":[{"cover":"BKN","base":1100},{"cover":"OVC","base":1300}],"obsTime":1779228000},"SBIL":{"icaoId":"SBIL","flightCategory":"VFR","rawOb":"METAR SBIL 192200Z 14005KT CAVOK 27/23 Q1016","temp":27,"dewp":23,"wdir":140,"wspd":5,"visib":"6+","altim":1016,"clouds":[],"obsTime":1779228000},"SBJU":{"icaoId":"SBJU","flightCategory":"VFR","rawOb":"METAR SBJU 192200Z 18003KT 9999 SCT020 27/18 Q1015","temp":27,"dewp":18,"wdir":180,"wspd":3,"visib":"6+","altim":1015,"clouds":[{"cover":"SCT","base":2000}],"obsTime":1779228000},"SBKP":{"icaoId":"SBKP","flightCategory":"VFR","rawOb":"METAR SBKP 192200Z 11003KT 9999 SCT024 OVC042 19/17 Q1021","temp":19,"dewp":17,"wdir":110,"wspd":3,"visib":"6+","altim":1021,"clouds":[{"cover":"SCT","base":2400},{"cover":"OVC","base":4200}],"obsTime":1779228000},"SBLO":{"icaoId":"SBLO","flightCategory":"VFR","rawOb":"METAR SBLO 192200Z 02004KT CAVOK 19/17 Q1020","temp":19,"dewp":17,"wdir":20,"wspd":4,"visib":"6+","altim":1020,"clouds":[],"obsTime":1779228000},"SBMA":{"icaoId":"SBMA","flightCategory":"VFR","rawOb":"METAR SBMA 192200Z 00000KT CAVOK 30/24 Q1011","temp":30,"dewp":24,"wdir":0,"wspd":0,"visib":"6+","altim":1011,"clouds":[],"obsTime":1779228000},"SBME":{"icaoId":"SBME","flightCategory":"MVFR","rawOb":"METAR SBME 192200Z 23007KT 8000 BKN019 BKN100 25/21 Q1017","temp":25,"dewp":21,"wdir":230,"wspd":7,"visib":4.97,"altim":1017,"clouds":[{"cover":"BKN","base":1900},{"cover":"BKN","base":10000}],"obsTime":1779228000},"SBMG":{"icaoId":"SBMG","flightCategory":"VFR","rawOb":"METAR SBMG 192200Z 28006KT CAVOK 16/15 Q1019","temp":16,"dewp":15,"wdir":280,"wspd":6,"visib":"6+","altim":1019,"clouds":[],"obsTime":1779228000},"SBMK":{"icaoId":"SBMK","flightCategory":"VFR","rawOb":"METAR SBMK 192200Z 10005KT CAVOK 26/17 Q1018","temp":26,"dewp":17,"wdir":100,"wspd":5,"visib":"6+","altim":1018,"clouds":[],"obsTime":1779228000},"SBMO":{"icaoId":"SBMO","flightCategory":"VFR","rawOb":"METAR SBMO 192200Z 09004KT 9999 FEW023 24/22 Q1015","temp":24,"dewp":22,"wdir":90,"wspd":4,"visib":"6+","altim":1015,"clouds":[{"cover":"FEW","base":2300}],"obsTime":1779228000},"SBMQ":{"icaoId":"SBMQ","flightCategory":"VFR","rawOb":"METAR SBMQ 192200Z 07005KT 9999 FEW040 FEW050TCU 28/26 Q1011","temp":28,"dewp":26,"wdir":70,"wspd":5,"visib":"6+","altim":1011,"clouds":[{"cover":"FEW","base":4000},{"cover":"FEW","base":5000}],"obsTime":1779228000},"SBNT":{"icaoId":"SBNT","flightCategory":"VFR","rawOb":"METAR SBNT 192200Z 15006KT 9999 FEW020 26/23 Q1014","temp":26,"dewp":23,"wdir":150,"wspd":6,"visib":"6+","altim":1014,"clouds":[{"cover":"FEW","base":2000}],"obsTime":1779228000},"SBPA":{"icaoId":"SBPA","flightCategory":"VFR","rawOb":"METAR SBPA 192200Z 29005KT CAVOK 14/09 Q1022","temp":14,"dewp":9,"wdir":290,"wspd":5,"visib":"6+","altim":1022,"clouds":[],"obsTime":1779228000},"SBPJ":{"icaoId":"SBPJ","flightCategory":"VFR","rawOb":"METAR SBPJ 192200Z 19003KT 160V220 CAVOK 30/19 Q1012","temp":30,"dewp":19,"wdir":190,"wspd":3,"visib":"6+","altim":1012,"clouds":[],"obsTime":1779228000},"SBPV":{"icaoId":"SBPV","flightCategory":"MVFR","rawOb":"METAR SBPV 192200Z 18006KT 9999 OVC011 22/19 Q1014","temp":22,"dewp":19,"wdir":180,"wspd":6,"visib":"6+","altim":1014,"clouds":[{"cover":"OVC","base":1100}],"obsTime":1779228000},"SBRB":{"icaoId":"SBRB","flightCategory":"MVFR","rawOb":"METAR SBRB 192200Z 16004KT 8000 OVC011 19/17 Q1016","temp":19,"dewp":17,"wdir":160,"wspd":4,"visib":4.97,"altim":1016,"clouds":[{"cover":"OVC","base":1100}],"obsTime":1779228000},"SBRF":{"icaoId":"SBRF","flightCategory":"VFR","rawOb":"METAR SBRF 192200Z 17007KT 9999 SCT023 27/23 Q1014","temp":27,"dewp":23,"wdir":170,"wspd":7,"visib":"6+","altim":1014,"clouds":[{"cover":"SCT","base":2300}],"obsTime":1779228000},"SBSG":{"icaoId":"SBSG","flightCategory":"VFR","rawOb":"METAR SBSG 192200Z 14005KT 110V180 9999 FEW020 25/23 Q1014","temp":25,"dewp":23,"wdir":140,"wspd":5,"visib":"6+","altim":1014,"clouds":[{"cover":"FEW","base":2000}],"obsTime":1779228000},"SBSL":{"icaoId":"SBSL","flightCategory":"VFR","rawOb":"METAR SBSL 192200Z 05010KT 9999 SCT025 28/25 Q1011","temp":28,"dewp":25,"wdir":50,"wspd":10,"visib":"6+","altim":1011,"clouds":[{"cover":"SCT","base":2500}],"obsTime":1779228000},"SBSN":{"icaoId":"SBSN","flightCategory":"VFR","rawOb":"METAR SBSN 192200Z 10002KT 9999 VCTS FEW025 FEW040CB 29/26 Q1010","temp":29,"dewp":26,"wdir":100,"wspd":2,"visib":"6+","altim":1010,"clouds":[{"cover":"FEW","base":2500},{"cover":"FEW","base":4000}],"obsTime":1779228000},"SBSP":{"icaoId":"SBSP","flightCategory":"IFR","rawOb":"METAR SBSP 192200Z 20007KT 170V270 9999 OVC008 17/15 Q1023","temp":17,"dewp":15,"wdir":200,"wspd":7,"visib":"6+","altim":1023,"clouds":[{"cover":"OVC","base":800}],"obsTime":1779228000},"SBSV":{"icaoId":"SBSV","flightCategory":"MVFR","rawOb":"METAR SBSV 192200Z 11007KT 9999 BKN020 BKN060 27/22 Q1016","temp":27,"dewp":22,"wdir":110,"wspd":7,"visib":"6+","altim":1016,"clouds":[{"cover":"BKN","base":2000},{"cover":"BKN","base":6000}],"obsTime":1779228000},"SBTE":{"icaoId":"SBTE","flightCategory":"VFR","rawOb":"METAR SBTE 192200Z 17002KT CAVOK 31/23 Q1011","temp":31,"dewp":23,"wdir":170,"wspd":2,"visib":"6+","altim":1011,"clouds":[],"obsTime":1779228000},"SBUL":{"icaoId":"SBUL","flightCategory":"VFR","rawOb":"METAR SBUL 192200Z 22016KT 190V250 9999 VCSH SCT035 FEW040TCU 22/19 Q1021","temp":22,"dewp":19,"wdir":220,"wspd":16,"visib":"6+","altim":1021,"clouds":[{"cover":"SCT","base":3500},{"cover":"FEW","base":4000}],"obsTime":1779228000},"SBUR":{"icaoId":"SBUR","flightCategory":"MVFR","rawOb":"METAR SBUR 192200Z 19005KT 8000 NSC 21/19 Q1021","temp":21,"dewp":19,"wdir":190,"wspd":5,"visib":4.97,"altim":1021,"clouds":[],"obsTime":1779228000},"SBVT":{"icaoId":"SBVT","flightCategory":"VFR","rawOb":"METAR SBVT 192200Z 19003KT 9999 FEW010 24/23 Q1017","temp":24,"dewp":23,"wdir":190,"wspd":3,"visib":"6+","altim":1017,"clouds":[{"cover":"FEW","base":1000}],"obsTime":1779228000},"SBCP":{"icaoId":"SBCP","flightCategory":"VFR","rawOb":"METAR SBCP 192200Z 19004KT 9999 FEW030 OVC080 24/20 Q1017","temp":24,"dewp":20,"wdir":190,"wspd":4,"visib":"6+","altim":1017,"clouds":[{"cover":"FEW","base":3000},{"cover":"OVC","base":8000}],"obsTime":1779228000},"SBOI":{"icaoId":"SBOI","flightCategory":"IFR","rawOb":"METAR SBOI 192200Z AUTO VRB02KT 3300 +RA BKN008 OVC014 26/25 Q1012","temp":26,"dewp":25,"wdir":"VRB","wspd":2,"visib":2.05,"altim":1012,"clouds":[{"cover":"BKN","base":800},{"cover":"OVC","base":1400}],"obsTime":1779228000},"SBAX":{"icaoId":"SBAX","flightCategory":"VFR","rawOb":"METAR SBAX 192200Z 19004KT CAVOK 22/21 Q1021","temp":22,"dewp":21,"wdir":190,"wspd":4,"visib":"6+","altim":1021,"clouds":[],"obsTime":1779228000},"SBVH":{"icaoId":"SBVH","flightCategory":"VFR","rawOb":"METAR SBVH 192200Z 22006KT 9999 SCT012 18/17 Q1017","temp":18,"dewp":17,"wdir":220,"wspd":6,"visib":"6+","altim":1017,"clouds":[{"cover":"SCT","base":1200}],"obsTime":1779228000},"SBBH":{"icaoId":"SBBH","flightCategory":"MVFR","rawOb":"METAR SBBH 192200Z 13005KT 6000 -TSRA SCT035 SCT045 FEW045CB 25/19 Q1020","temp":25,"dewp":19,"wdir":130,"wspd":5,"visib":3.73,"altim":1020,"clouds":[{"cover":"SCT","base":3500},{"cover":"SCT","base":4500},{"cover":"FEW","base":4500}],"obsTime":1779228000},"SBBU":{"icaoId":"SBBU","flightCategory":"IFR","rawOb":"METAR SBBU 192200Z 14003KT 5000 BR BKN007 OVC010 20/19 Q1021","temp":20,"dewp":19,"wdir":140,"wspd":3,"visib":3.11,"altim":1021,"clouds":[{"cover":"BKN","base":700},{"cover":"OVC","base":1000}],"obsTime":1779228000},"SBCA":{"icaoId":"SBCA","flightCategory":"VFR","rawOb":"METAR SBCA 192200Z 18004KT CAVOK 12/12 Q1022","temp":12,"dewp":12,"wdir":180,"wspd":4,"visib":"6+","altim":1022,"clouds":[],"obsTime":1779228000},"SBCO":{"icaoId":"SBCO","flightCategory":"VFR","rawOb":"METAR SBCO 192200Z 31003KT CAVOK 10/09 Q1022","temp":10,"dewp":9,"wdir":310,"wspd":3,"visib":"6+","altim":1022,"clouds":[],"obsTime":1779228000},"SBDN":{"icaoId":"SBDN","flightCategory":"VFR","rawOb":"METAR SBDN 192200Z 27004KT 9999 TS FEW050CB BKN080 18/15 Q1020","temp":18,"dewp":15,"wdir":270,"wspd":4,"visib":"6+","altim":1020,"clouds":[{"cover":"FEW","base":5000},{"cover":"BKN","base":8000}],"obsTime":1779228000},"SBES":{"icaoId":"SBES","flightCategory":"VFR","rawOb":"METAR SBES 192200Z VRB07KT 9999 SCT012 SCT040 BKN060 23/// Q1018","temp":null,"dewp":null,"wdir":"VRB","wspd":7,"visib":"6+","altim":1018,"clouds":[{"cover":"SCT","base":1200},{"cover":"SCT","base":4000},{"cover":"BKN","base":6000}],"obsTime":1779228000},"SBIP":{"icaoId":"SBIP","flightCategory":"VFR","rawOb":"METAR SBIP 192200Z AUTO VRB01KT CAVOK 22/21 Q1017","temp":22,"dewp":21,"wdir":"VRB","wspd":1,"visib":"6+","altim":1017,"clouds":[],"obsTime":1779228000},"SBKG":{"icaoId":"SBKG","flightCategory":"VFR","rawOb":"METAR SBKG 192200Z 09007KT CAVOK 23/21 Q1017","temp":23,"dewp":21,"wdir":90,"wspd":7,"visib":"6+","altim":1017,"clouds":[],"obsTime":1779228000},"SBPL":{"icaoId":"SBPL","flightCategory":"VFR","rawOb":"METAR SBPL 192200Z 14004KT CAVOK 29/15 Q1014","temp":29,"dewp":15,"wdir":140,"wspd":4,"visib":"6+","altim":1014,"clouds":[],"obsTime":1779228000},"SBPS":{"icaoId":"SBPS","flightCategory":"VFR","rawOb":"METAR SBPS 192200Z 07006KT 9999 FEW020 26/23 Q1017","temp":26,"dewp":23,"wdir":70,"wspd":6,"visib":"6+","altim":1017,"clouds":[{"cover":"FEW","base":2000}],"obsTime":1779228000},"SBSC":{"icaoId":"SBSC","flightCategory":"MVFR","rawOb":"METAR SBSC 192200Z 23004KT 9999 SCT012 BKN016 BKN100 21/20 Q1019","temp":21,"dewp":20,"wdir":230,"wspd":4,"visib":"6+","altim":1019,"clouds":[{"cover":"SCT","base":1200},{"cover":"BKN","base":1600},{"cover":"BKN","base":10000}],"obsTime":1779228000},"SBSJ":{"icaoId":"SBSJ","flightCategory":"MVFR","rawOb":"METAR SBSJ 192200Z 21006KT 9999 FEW011 OVC021 18/15 Q1021","temp":18,"dewp":15,"wdir":210,"wspd":6,"visib":"6+","altim":1021,"clouds":[{"cover":"FEW","base":1100},{"cover":"OVC","base":2100}],"obsTime":1779228000},"SBSM":{"icaoId":"SBSM","flightCategory":"VFR","rawOb":"METAR SBSM 192200Z 36002KT CAVOK 09/08 Q1023","temp":9,"dewp":8,"wdir":360,"wspd":2,"visib":"6+","altim":1023,"clouds":[],"obsTime":1779228000},"SBSR":{"icaoId":"SBSR","flightCategory":"VFR","rawOb":"METAR SBSR 192200Z 24006KT 9999 SCT025 FEW035TCU BKN070 20/19 Q1020","temp":20,"dewp":19,"wdir":240,"wspd":6,"visib":"6+","altim":1020,"clouds":[{"cover":"SCT","base":2500},{"cover":"FEW","base":3500},{"cover":"BKN","base":7000}],"obsTime":1779228000},"SBTT":{"icaoId":"SBTT","flightCategory":"IFR","rawOb":"METAR SBTT 192200Z 24004KT 4000 -RA FEW008 BKN014 BKN045 26/23 Q1012","temp":26,"dewp":23,"wdir":240,"wspd":4,"visib":2.49,"altim":1012,"clouds":[{"cover":"FEW","base":800},{"cover":"BKN","base":1400},{"cover":"BKN","base":4500}],"obsTime":1779228000},"SBTU":{"icaoId":"SBTU","flightCategory":"VFR","rawOb":"METAR SBTU 192200Z AUTO 31012KT 9999 // SCT009/// BKN031/// OVC036/// ///// Q1013","temp":null,"dewp":null,"wdir":310,"wspd":12,"visib":"6+","altim":1013,"clouds":[{"cover":"SCT","base":900},{"cover":"BKN","base":3100},{"cover":"OVC","base":3600}],"obsTime":1779228000},"SBAR":{"icaoId":"SBAR","flightCategory":"VFR","rawOb":"METAR SBAR 192200Z 12008KT 9999 FEW023 SCT070 28/22 Q1015","temp":28,"dewp":22,"wdir":120,"wspd":8,"visib":"6+","altim":1015,"clouds":[{"cover":"FEW","base":2300},{"cover":"SCT","base":7000}],"obsTime":1779228000},"SBTF":{"icaoId":"SBTF","flightCategory":"VFR","rawOb":"METAR SBTF 192200Z 19002KT 9999 FEW015 27/25 Q1010","temp":27,"dewp":25,"wdir":190,"wspd":2,"visib":"6+","altim":1010,"clouds":[{"cover":"FEW","base":1500}],"obsTime":1779228000},"SBUY":{"icaoId":"SBUY","flightCategory":"MVFR","rawOb":"METAR SBUY 192200Z 00000KT 6000 -RA FEW006 BKN018 FEW030TCU BKN090 25/24 Q1010","temp":25,"dewp":24,"wdir":0,"wspd":0,"visib":3.73,"altim":1010,"clouds":[{"cover":"FEW","base":600},{"cover":"BKN","base":1800},{"cover":"FEW","base":3000},{"cover":"BKN","base":9000}],"obsTime":1779228000},"SBTA":{"icaoId":"SBTA","flightCategory":"MVFR","rawOb":"METAR SBTA 192200Z 25004KT 9999 SCT010 OVC020 19/17 Q1020","temp":19,"dewp":17,"wdir":250,"wspd":4,"visib":"6+","altim":1020,"clouds":[{"cover":"SCT","base":1000},{"cover":"OVC","base":2000}],"obsTime":1779228000},"SBJP":{"icaoId":"SBJP","flightCategory":"VFR","rawOb":"METAR SBJP 192200Z 00000KT 9999 FEW020 26/24 Q1015","temp":26,"dewp":24,"wdir":0,"wspd":0,"visib":"6+","altim":1015,"clouds":[{"cover":"FEW","base":2000}],"obsTime":1779228000},"SBLE":{"icaoId":"SBLE","flightCategory":"VFR","rawOb":"METAR SBLE 192200Z AUTO 33002KT CAVOK 21/21 Q1017","temp":21,"dewp":21,"wdir":330,"wspd":2,"visib":"6+","altim":1017,"clouds":[],"obsTime":1779228000},"SBJV":{"icaoId":"SBJV","flightCategory":"MVFR","rawOb":"METAR SBJV 192200Z 25002KT 9999 FEW015 BKN030 17/16 Q1021","temp":17,"dewp":16,"wdir":250,"wspd":2,"visib":"6+","altim":1021,"clouds":[{"cover":"FEW","base":1500},{"cover":"BKN","base":3000}],"obsTime":1779228000},"SBPF":{"icaoId":"SBPF","flightCategory":"VFR","rawOb":"METAR SBPF 192200Z 24008KT CAVOK 15/06 Q1023","temp":15,"dewp":6,"wdir":240,"wspd":8,"visib":"6+","altim":1023,"clouds":[],"obsTime":1779228000},"SBAF":{"icaoId":"SBAF","flightCategory":"MVFR","rawOb":"METAR SBAF 192200Z 28003KT 9999 BKN015 BKN018 OVC023 22/22 Q1019","temp":22,"dewp":22,"wdir":280,"wspd":3,"visib":"6+","altim":1019,"clouds":[{"cover":"BKN","base":1500},{"cover":"BKN","base":1800},{"cover":"OVC","base":2300}],"obsTime":1779228000},"SBAN":{"icaoId":"SBAN","flightCategory":"VFR","rawOb":"METAR SBAN 192200Z 22004KT 9999 FEW045 22/16 Q1021","temp":22,"dewp":16,"wdir":220,"wspd":4,"visib":"6+","altim":1021,"clouds":[{"cover":"FEW","base":4500}],"obsTime":1779228000},"SBJR":{"icaoId":"SBJR","flightCategory":"MVFR","rawOb":"METAR SBJR 192200Z 24004KT 8000 -RA VCTS FEW005 BKN015 FEW025CB OVC050 23/20 Q1019","temp":23,"dewp":20,"wdir":240,"wspd":4,"visib":4.97,"altim":1019,"clouds":[{"cover":"FEW","base":500},{"cover":"BKN","base":1500},{"cover":"FEW","base":2500},{"cover":"OVC","base":5000}],"obsTime":1779228000},"SBLS":{"icaoId":"SBLS","flightCategory":"VFR","rawOb":"METAR SBLS 192200Z 12006KT 9999 VCTS FEW040 FEW045CB 24/19 Q1020","temp":24,"dewp":19,"wdir":120,"wspd":6,"visib":"6+","altim":1020,"clouds":[{"cover":"FEW","base":4000},{"cover":"FEW","base":4500}],"obsTime":1779228000},"SBMT":{"icaoId":"SBMT","flightCategory":"MVFR","rawOb":"METAR SBMT 192200Z 17004KT 130V250 8000 OVC013 17/15 Q1022","temp":17,"dewp":15,"wdir":170,"wspd":4,"visib":4.97,"altim":1022,"clouds":[{"cover":"OVC","base":1300}],"obsTime":1779228000},"SBGW":{"icaoId":"SBGW","flightCategory":"MVFR","rawOb":"METAR SBGW 192200Z 24004KT 9000 OVC025 20/15 Q1021","temp":20,"dewp":15,"wdir":240,"wspd":4,"visib":5.59,"altim":1021,"clouds":[{"cover":"OVC","base":2500}],"obsTime":1779228000}}}