{"updated":1775392092,"count":84,"data":{"SBRF":{"icaoId":"SBRF","flightCategory":"MVFR","rawOb":"METAR SBRF 051100Z VRB02KT 9999 BKN021 FEW025TCU 26/25 Q1013","temp":26,"dewp":25,"wdir":"VRB","wspd":2,"visib":"6+","altim":1013,"clouds":[{"cover":"BKN","base":2100},{"cover":"FEW","base":2500}],"obsTime":1775386800},"SBVT":{"icaoId":"SBVT","flightCategory":"VFR","rawOb":"METAR SBVT 051100Z 35004KT 9999 SCT025 27/24 Q1016","temp":27,"dewp":24,"wdir":350,"wspd":4,"visib":"6+","altim":1016,"clouds":[{"cover":"SCT","base":2500}],"obsTime":1775386800},"SBUR":{"icaoId":"SBUR","flightCategory":"VFR","rawOb":"METAR SBUR 051100Z 02006KT CAVOK 22/18 Q1019","temp":22,"dewp":18,"wdir":20,"wspd":6,"visib":"6+","altim":1019,"clouds":[],"obsTime":1775386800},"SBBE":{"icaoId":"SBBE","flightCategory":"VFR","rawOb":"METAR SBBE 051100Z 07004KT 9999 FEW020 BKN090 26/25 Q1013","temp":26,"dewp":25,"wdir":70,"wspd":4,"visib":"6+","altim":1013,"clouds":[{"cover":"FEW","base":2000},{"cover":"BKN","base":9000}],"obsTime":1775386800},"SBUL":{"icaoId":"SBUL","flightCategory":"VFR","rawOb":"METAR SBUL 051100Z 12005KT 070V140 9999 FEW045 SCT070 21/18 Q1020","temp":21,"dewp":18,"wdir":120,"wspd":5,"visib":"6+","altim":1020,"clouds":[{"cover":"FEW","base":4500},{"cover":"SCT","base":7000}],"obsTime":1775386800},"SBBR":{"icaoId":"SBBR","flightCategory":"VFR","rawOb":"METAR SBBR 051100Z 27003KT CAVOK 21/18 Q1021","temp":21,"dewp":18,"wdir":270,"wspd":3,"visib":"6+","altim":1021,"clouds":[],"obsTime":1775386800},"SBTE":{"icaoId":"SBTE","flightCategory":"VFR","rawOb":"METAR SBTE 051100Z 00000KT 9999 SCT007 SCT016 27/25 Q1012","temp":27,"dewp":25,"wdir":0,"wspd":0,"visib":"6+","altim":1012,"clouds":[{"cover":"SCT","base":700},{"cover":"SCT","base":1600}],"obsTime":1775386800},"SBBV":{"icaoId":"SBBV","flightCategory":"VFR","rawOb":"METAR SBBV 051100Z 12004KT 9999 SCT020 FEW030TCU BKN100 24/23 Q1014","temp":24,"dewp":23,"wdir":120,"wspd":4,"visib":"6+","altim":1014,"clouds":[{"cover":"SCT","base":2000},{"cover":"FEW","base":3000},{"cover":"BKN","base":10000}],"obsTime":1775386800},"SBCB":{"icaoId":"SBCB","flightCategory":"VFR","rawOb":"METAR SBCB 051100Z 01004KT CAVOK 25/23 Q1015","temp":25,"dewp":23,"wdir":10,"wspd":4,"visib":"6+","altim":1015,"clouds":[],"obsTime":1775386800},"SBSV":{"icaoId":"SBSV","flightCategory":"VFR","rawOb":"METAR SBSV 051100Z 30002KT 9999 SCT019 BKN070 26/24 Q1014","temp":26,"dewp":24,"wdir":300,"wspd":2,"visib":"6+","altim":1014,"clouds":[{"cover":"SCT","base":1900},{"cover":"BKN","base":7000}],"obsTime":1775386800},"SBSP":{"icaoId":"SBSP","flightCategory":"VFR","rawOb":"METAR SBSP 051100Z 12003KT 350V130 CAVOK 24/19 Q1021","temp":24,"dewp":19,"wdir":120,"wspd":3,"visib":"6+","altim":1021,"clouds":[],"obsTime":1775386800},"SBCF":{"icaoId":"SBCF","flightCategory":"VFR","rawOb":"METAR SBCF 051100Z 18004KT 140V210 CAVOK 22/20 Q1021","temp":22,"dewp":20,"wdir":180,"wspd":4,"visib":"6+","altim":1021,"clouds":[],"obsTime":1775386800},"SBSN":{"icaoId":"SBSN","flightCategory":"VFR","rawOb":"METAR SBSN 051100Z 11001KT 9999 VCSH FEW015 SCT016 FEW020TCU BKN100 26/25 Q1013","temp":26,"dewp":25,"wdir":110,"wspd":1,"visib":"6+","altim":1013,"clouds":[{"cover":"FEW","base":1500},{"cover":"SCT","base":1600},{"cover":"FEW","base":2000},{"cover":"BKN","base":10000}],"obsTime":1775386800},"SBCG":{"icaoId":"SBCG","flightCategory":"VFR","rawOb":"METAR SBCG 051100Z VRB01KT CAVOK 23/21 Q1017","temp":23,"dewp":21,"wdir":"VRB","wspd":1,"visib":"6+","altim":1017,"clouds":[],"obsTime":1775386800},"SBSL":{"icaoId":"SBSL","flightCategory":"VFR","rawOb":"METAR SBSL 051100Z 17004KT CAVOK 26/25 Q1012","temp":26,"dewp":25,"wdir":170,"wspd":4,"visib":"6+","altim":1012,"clouds":[],"obsTime":1775386800},"SBCP":{"icaoId":"SBCP","flightCategory":"VFR","rawOb":"METAR SBCP 051100Z /////KT CAVOK ///// Q1015","temp":null,"dewp":null,"wdir":null,"wspd":null,"visib":"6+","altim":1015,"clouds":[],"obsTime":1775386800},"SBCR":{"icaoId":"SBCR","flightCategory":"VFR","rawOb":"METAR SBCR 051100Z 11003KT 9999 FEW030 23/22 Q1014","temp":23,"dewp":22,"wdir":110,"wspd":3,"visib":"6+","altim":1014,"clouds":[{"cover":"FEW","base":3000}],"obsTime":1775386800},"SBSG":{"icaoId":"SBSG","flightCategory":"VFR","rawOb":"METAR SBSG 051100Z 12005KT 080V180 9999 SCT022 28/24 Q1012","temp":28,"dewp":24,"wdir":120,"wspd":5,"visib":"6+","altim":1012,"clouds":[{"cover":"SCT","base":2200}],"obsTime":1775386800},"SBCT":{"icaoId":"SBCT","flightCategory":"LIFR","rawOb":"METAR SBCT 051100Z 09003KT 4000 BR BKN002 19/19 Q1021","temp":19,"dewp":19,"wdir":90,"wspd":3,"visib":2.49,"altim":1021,"clouds":[{"cover":"BKN","base":200}],"obsTime":1775386800},"SBCZ":{"icaoId":"SBCZ","flightCategory":"MVFR","rawOb":"METAR SBCZ 051200Z 12001KT 5000 BR FEW003 BKN100 25/24 Q1011","temp":25,"dewp":24,"wdir":120,"wspd":1,"visib":3.11,"altim":1011,"clouds":[{"cover":"FEW","base":300},{"cover":"BKN","base":10000}],"obsTime":1775390400},"SBEG":{"icaoId":"SBEG","flightCategory":"VFR","rawOb":"METAR SBEG 051100Z 35001KT 9999 FEW008 SCT100 23/22 Q1013","temp":23,"dewp":22,"wdir":350,"wspd":1,"visib":"6+","altim":1013,"clouds":[{"cover":"FEW","base":800},{"cover":"SCT","base":10000}],"obsTime":1775386800},"SBRB":{"icaoId":"SBRB","flightCategory":"MVFR","rawOb":"METAR SBRB 051100Z 00000KT 8000 SCT011 BKN100 22/22 Q1013","temp":22,"dewp":22,"wdir":0,"wspd":0,"visib":4.97,"altim":1013,"clouds":[{"cover":"SCT","base":1100},{"cover":"BKN","base":10000}],"obsTime":1775386800},"SBFI":{"icaoId":"SBFI","flightCategory":"VFR","rawOb":"METAR SBFI 051100Z 12005KT CAVOK 24/22 Q1015","temp":24,"dewp":22,"wdir":120,"wspd":5,"visib":"6+","altim":1015,"clouds":[],"obsTime":1775386800},"SBPV":{"icaoId":"SBPV","flightCategory":"VFR","rawOb":"METAR SBPV 051100Z 00000KT 9999 FEW007 23/22 Q1012","temp":23,"dewp":22,"wdir":0,"wspd":0,"visib":"6+","altim":1012,"clouds":[{"cover":"FEW","base":700}],"obsTime":1775386800},"SBFL":{"icaoId":"SBFL","flightCategory":"VFR","rawOb":"METAR SBFL 051100Z 08005KT 9999 FEW015 BKN070 23/23 Q1017","temp":23,"dewp":23,"wdir":80,"wspd":5,"visib":"6+","altim":1017,"clouds":[{"cover":"FEW","base":1500},{"cover":"BKN","base":7000}],"obsTime":1775386800},"SBPJ":{"icaoId":"SBPJ","flightCategory":"VFR","rawOb":"METAR SBPJ 051100Z 20004KT 9999 FEW020 27/23 Q1014","temp":27,"dewp":23,"wdir":200,"wspd":4,"visib":"6+","altim":1014,"clouds":[{"cover":"FEW","base":2000}],"obsTime":1775386800},"SBPA":{"icaoId":"SBPA","flightCategory":"MVFR","rawOb":"METAR SBPA 051100Z 15010KT 8000 BKN011 BKN023 20/18 Q1020","temp":20,"dewp":18,"wdir":150,"wspd":10,"visib":4.97,"altim":1020,"clouds":[{"cover":"BKN","base":1100},{"cover":"BKN","base":2300}],"obsTime":1775386800},"SBFZ":{"icaoId":"SBFZ","flightCategory":"IFR","rawOb":"METAR SBFZ 051100Z 17008KT 4000 -RA BKN020 FEW025TCU 26/24 Q1012","temp":26,"dewp":24,"wdir":170,"wspd":8,"visib":2.49,"altim":1012,"clouds":[{"cover":"BKN","base":2000},{"cover":"FEW","base":2500}],"obsTime":1775386800},"SBNT":{"icaoId":"SBNT","flightCategory":"VFR","rawOb":"METAR SBNT 051100Z 13009KT 100V160 9999 FEW023 29/23 Q1012","temp":29,"dewp":23,"wdir":130,"wspd":9,"visib":"6+","altim":1012,"clouds":[{"cover":"FEW","base":2300}],"obsTime":1775386800},"SBGL":{"icaoId":"SBGL","flightCategory":"VFR","rawOb":"METAR SBGL 051100Z 36003KT 9999 FEW006 25/23 Q1015","temp":25,"dewp":23,"wdir":360,"wspd":3,"visib":"6+","altim":1015,"clouds":[{"cover":"FEW","base":600}],"obsTime":1775386800},"SBMQ":{"icaoId":"SBMQ","flightCategory":"IFR","rawOb":"METAR SBMQ 051100Z 27003KT 2000 RA BR BKN030 OVC070 24/24 Q1014","temp":24,"dewp":24,"wdir":270,"wspd":3,"visib":1.24,"altim":1014,"clouds":[{"cover":"BKN","base":3000},{"cover":"OVC","base":7000}],"obsTime":1775386800},"SBGO":{"icaoId":"SBGO","flightCategory":"VFR","rawOb":"METAR SBGO 051100Z 14005KT CAVOK 22/20 Q1019","temp":22,"dewp":20,"wdir":140,"wspd":5,"visib":"6+","altim":1019,"clouds":[],"obsTime":1775386800},"SBMO":{"icaoId":"SBMO","flightCategory":"MVFR","rawOb":"METAR SBMO 051100Z 10003KT 060V170 9999 VCSH FEW015 BKN020 28/25 Q1013","temp":28,"dewp":25,"wdir":100,"wspd":3,"visib":"6+","altim":1013,"clouds":[{"cover":"FEW","base":1500},{"cover":"BKN","base":2000}],"obsTime":1775386800},"SBAT":{"icaoId":"SBAT","flightCategory":"VFR","rawOb":"METAR SBAT 051100Z 00000KT CAVOK 25/25 Q1014","temp":25,"dewp":25,"wdir":0,"wspd":0,"visib":"6+","altim":1014,"clouds":[],"obsTime":1775386800},"SBGR":{"icaoId":"SBGR","flightCategory":"LIFR","rawOb":"SPECI SBGR 051040Z 10002KT 1000 R28R/0600U R28L/1500U R10R/P2000 R10L/P2000 BR BKN003 20/19 Q1019","temp":20,"dewp":19,"wdir":100,"wspd":2,"visib":0.62,"altim":1019,"clouds":[{"cover":"BKN","base":300}],"obsTime":1775385600},"SBMK":{"icaoId":"SBMK","flightCategory":"VFR","rawOb":"METAR SBMK 051100Z 07003KT 9999 FEW035 SCT070 25/20 Q1019","temp":25,"dewp":20,"wdir":70,"wspd":3,"visib":"6+","altim":1019,"clouds":[{"cover":"FEW","base":3500},{"cover":"SCT","base":7000}],"obsTime":1775386800},"SBMG":{"icaoId":"SBMG","flightCategory":"VFR","rawOb":"METAR SBMG 051100Z VRB02KT CAVOK 23/19 Q1016","temp":23,"dewp":19,"wdir":"VRB","wspd":2,"visib":"6+","altim":1016,"clouds":[],"obsTime":1775386800},"SBHT":{"icaoId":"SBHT","flightCategory":"MVFR","rawOb":"METAR SBHT 051100Z 00000KT 9999 BKN011 BKN080 26/26 Q1013","temp":26,"dewp":26,"wdir":0,"wspd":0,"visib":"6+","altim":1013,"clouds":[{"cover":"BKN","base":1100},{"cover":"BKN","base":8000}],"obsTime":1775386800},"SBME":{"icaoId":"SBME","flightCategory":"VFR","rawOb":"METAR SBME 051100Z 34003KT CAVOK 26/24 Q1015","temp":26,"dewp":24,"wdir":340,"wspd":3,"visib":"6+","altim":1015,"clouds":[],"obsTime":1775386800},"SBIL":{"icaoId":"SBIL","flightCategory":"VFR","rawOb":"METAR SBIL 051100Z 28006KT 9999 SCT018 BKN050 26/25 Q1015","temp":26,"dewp":25,"wdir":280,"wspd":6,"visib":"6+","altim":1015,"clouds":[{"cover":"SCT","base":1800},{"cover":"BKN","base":5000}],"obsTime":1775386800},"SBMA":{"icaoId":"SBMA","flightCategory":"VFR","rawOb":"METAR SBMA 051100Z 15003KT 9999 FEW010 FEW020TCU BKN090 26/24 Q1013","temp":26,"dewp":24,"wdir":150,"wspd":3,"visib":"6+","altim":1013,"clouds":[{"cover":"FEW","base":1000},{"cover":"FEW","base":2000},{"cover":"BKN","base":9000}],"obsTime":1775386800},"SBJU":{"icaoId":"SBJU","flightCategory":"VFR","rawOb":"METAR SBJU 051100Z 00000KT 9999 SCT020 26/22 Q1015","temp":26,"dewp":22,"wdir":0,"wspd":0,"visib":"6+","altim":1015,"clouds":[{"cover":"SCT","base":2000}],"obsTime":1775386800},"SBKP":{"icaoId":"SBKP","flightCategory":"VFR","rawOb":"METAR SBKP 051100Z 13005KT CAVOK 23/20 Q1019","temp":23,"dewp":20,"wdir":130,"wspd":5,"visib":"6+","altim":1019,"clouds":[],"obsTime":1775386800},"SBLO":{"icaoId":"SBLO","flightCategory":"VFR","rawOb":"METAR SBLO 051100Z 16003KT 120V180 CAVOK 22/19 Q1018","temp":22,"dewp":19,"wdir":160,"wspd":3,"visib":"6+","altim":1018,"clouds":[],"obsTime":1775386800},"SBCC":{"icaoId":"SBCC","flightCategory":"VFR","rawOb":"METAR SBCC 051100Z 05005KT CAVOK 23/22 Q1015","temp":23,"dewp":22,"wdir":50,"wspd":5,"visib":"6+","altim":1015,"clouds":[],"obsTime":1775386800},"SBBH":{"icaoId":"SBBH","flightCategory":"VFR","rawOb":"METAR SBBH 051100Z 11007KT CAVOK 23/19 Q1020","temp":23,"dewp":19,"wdir":110,"wspd":7,"visib":"6+","altim":1020,"clouds":[],"obsTime":1775386800},"SBBQ":{"icaoId":"SBBQ","flightCategory":"IFR","rawOb":"METAR SBBQ 051200Z 36002KT 9999 BKN009 22/19 Q1024","temp":22,"dewp":19,"wdir":360,"wspd":2,"visib":"6+","altim":1024,"clouds":[{"cover":"BKN","base":900}],"obsTime":1775390400},"SBBU":{"icaoId":"SBBU","flightCategory":"VFR","rawOb":"METAR SBBU 051100Z 06003KT CAVOK 26/21 Q1018","temp":26,"dewp":21,"wdir":60,"wspd":3,"visib":"6+","altim":1018,"clouds":[],"obsTime":1775386800},"SBCA":{"icaoId":"SBCA","flightCategory":"VFR","rawOb":"METAR SBCA 051100Z 13007KT CAVOK 23/18 Q1019","temp":23,"dewp":18,"wdir":130,"wspd":7,"visib":"6+","altim":1019,"clouds":[],"obsTime":1775386800},"SBAR":{"icaoId":"SBAR","flightCategory":"VFR","rawOb":"METAR SBAR 051100Z 08008KT 9999 VCSH SCT021 FEW023TCU 29/24 Q1014","temp":29,"dewp":24,"wdir":80,"wspd":8,"visib":"6+","altim":1014,"clouds":[{"cover":"SCT","base":2100},{"cover":"FEW","base":2300}],"obsTime":1775386800},"SBCJ":{"icaoId":"SBCJ","flightCategory":"VFR","rawOb":"METAR SBCJ 051100Z 00000KT 9999 FEW020 25/22 Q1017","temp":25,"dewp":22,"wdir":0,"wspd":0,"visib":"6+","altim":1017,"clouds":[{"cover":"FEW","base":2000}],"obsTime":1775386800},"SBCO":{"icaoId":"SBCO","flightCategory":"MVFR","rawOb":"METAR SBCO 051100Z 15007KT 8000 BKN012 BKN024 20/19 Q1020","temp":20,"dewp":19,"wdir":150,"wspd":7,"visib":4.97,"altim":1020,"clouds":[{"cover":"BKN","base":1200},{"cover":"BKN","base":2400}],"obsTime":1775386800},"SBDN":{"icaoId":"SBDN","flightCategory":"VFR","rawOb":"METAR SBDN 051100Z 09002KT CAVOK 25/20 Q1016","temp":25,"dewp":20,"wdir":90,"wspd":2,"visib":"6+","altim":1016,"clouds":[],"obsTime":1775386800},"SBES":{"icaoId":"SBES","flightCategory":"VFR","rawOb":"METAR SBES 051100Z 01003KT 270V070 CAVOK 23/// Q1015","temp":null,"dewp":null,"wdir":10,"wspd":3,"visib":"6+","altim":1015,"clouds":[],"obsTime":1775386800},"SBGM":{"icaoId":"SBGM","flightCategory":"VFR","rawOb":"METAR SBGM 051200Z 08002KT 9999 SCT040 BKN100 24/23 Q1013","temp":24,"dewp":23,"wdir":80,"wspd":2,"visib":"6+","altim":1013,"clouds":[{"cover":"SCT","base":4000},{"cover":"BKN","base":10000}],"obsTime":1775390400},"SBIP":{"icaoId":"SBIP","flightCategory":"VFR","rawOb":"METAR SBIP 051100Z AUTO 01004KT 9999 BKN037 OVC043 25/22 Q1018","temp":25,"dewp":22,"wdir":10,"wspd":4,"visib":"6+","altim":1018,"clouds":[{"cover":"BKN","base":3700},{"cover":"OVC","base":4300}],"obsTime":1775386800},"SBKG":{"icaoId":"SBKG","flightCategory":"MVFR","rawOb":"METAR SBKG 051100Z 10007KT 9999 BKN015 25/22 Q1015","temp":25,"dewp":22,"wdir":100,"wspd":7,"visib":"6+","altim":1015,"clouds":[{"cover":"BKN","base":1500}],"obsTime":1775386800},"SBOI":{"icaoId":"SBOI","flightCategory":"VFR","rawOb":"METAR SBOI 051100Z AUTO 00000KT CAVOK 26/25 Q1013","temp":26,"dewp":25,"wdir":0,"wspd":0,"visib":"6+","altim":1013,"clouds":[],"obsTime":1775386800},"SBPB":{"icaoId":"SBPB","flightCategory":"VFR","rawOb":"METAR SBPB 051100Z 14004KT 9999 FEW020 28/25 Q1011","temp":28,"dewp":25,"wdir":140,"wspd":4,"visib":"6+","altim":1011,"clouds":[{"cover":"FEW","base":2000}],"obsTime":1775386800},"SBPL":{"icaoId":"SBPL","flightCategory":"MVFR","rawOb":"METAR SBPL 051100Z 13008KT 9999 BKN020 26/22 Q1015","temp":26,"dewp":22,"wdir":130,"wspd":8,"visib":"6+","altim":1015,"clouds":[{"cover":"BKN","base":2000}],"obsTime":1775386800},"SBPP":{"icaoId":"SBPP","flightCategory":"VFR","rawOb":"SPECI SBPP 051115Z 03004KT CAVOK 25/20 Q1018","temp":25,"dewp":20,"wdir":30,"wspd":4,"visib":"6+","altim":1018,"clouds":[],"obsTime":1775387700},"SBPS":{"icaoId":"SBPS","flightCategory":"VFR","rawOb":"METAR SBPS 051100Z 25005KT 220V280 9999 SCT020 26/24 Q1016","temp":26,"dewp":24,"wdir":250,"wspd":5,"visib":"6+","altim":1016,"clouds":[{"cover":"SCT","base":2000}],"obsTime":1775386800},"SBSC":{"icaoId":"SBSC","flightCategory":"VFR","rawOb":"METAR SBSC 051100Z 02004KT CAVOK 26/22 Q1015","temp":26,"dewp":22,"wdir":20,"wspd":4,"visib":"6+","altim":1015,"clouds":[],"obsTime":1775386800},"SBSJ":{"icaoId":"SBSJ","flightCategory":"VFR","rawOb":"METAR SBSJ 051100Z 24002KT CAVOK 21/19 Q1019","temp":21,"dewp":19,"wdir":240,"wspd":2,"visib":"6+","altim":1019,"clouds":[],"obsTime":1775386800},"SBSM":{"icaoId":"SBSM","flightCategory":"MVFR","rawOb":"METAR SBSM 051100Z 14003KT 9999 FEW009 OVC017 18/15 Q1021","temp":18,"dewp":15,"wdir":140,"wspd":3,"visib":"6+","altim":1021,"clouds":[{"cover":"FEW","base":900},{"cover":"OVC","base":1700}],"obsTime":1775386800},"SBSR":{"icaoId":"SBSR","flightCategory":"VFR","rawOb":"METAR SBSR 051100Z 08005KT CAVOK 24/19 Q1017","temp":24,"dewp":19,"wdir":80,"wspd":5,"visib":"6+","altim":1017,"clouds":[],"obsTime":1775386800},"SBTF":{"icaoId":"SBTF","flightCategory":"VFR","rawOb":"SPECI SBTF 051115Z 00000KT 9999 FEW005 BKN100 26/25 Q1012","temp":26,"dewp":25,"wdir":0,"wspd":0,"visib":"6+","altim":1012,"clouds":[{"cover":"FEW","base":500},{"cover":"BKN","base":10000}],"obsTime":1775387700},"SBTT":{"icaoId":"SBTT","flightCategory":"VFR","rawOb":"METAR SBTT 051100Z 13002KT CAVOK 23/22 Q1011","temp":23,"dewp":22,"wdir":130,"wspd":2,"visib":"6+","altim":1011,"clouds":[],"obsTime":1775386800},"SBUY":{"icaoId":"SBUY","flightCategory":"LIFR","rawOb":"METAR SBUY 051100Z 19002KT 0500 FG NSC 23/22 Q1011","temp":23,"dewp":22,"wdir":190,"wspd":2,"visib":0.31,"altim":1011,"clouds":[],"obsTime":1775386800},"SBVH":{"icaoId":"SBVH","flightCategory":"MVFR","rawOb":"METAR SBVH 051100Z 07005KT 8000 SCT008 OVC100 21/21 Q1016","temp":21,"dewp":21,"wdir":70,"wspd":5,"visib":4.97,"altim":1016,"clouds":[{"cover":"SCT","base":800},{"cover":"OVC","base":10000}],"obsTime":1775386800},"SBAX":{"icaoId":"SBAX","flightCategory":"VFR","rawOb":"METAR SBAX 051100Z AUTO VRB02KT CAVOK ///// Q1021","temp":null,"dewp":null,"wdir":"VRB","wspd":2,"visib":"6+","altim":1021,"clouds":[],"obsTime":1775386800},"SBJV":{"icaoId":"SBJV","flightCategory":"MVFR","rawOb":"METAR SBJV 051100Z 31001KT 9999 OVC020 25/24 Q1017","temp":25,"dewp":24,"wdir":310,"wspd":1,"visib":"6+","altim":1017,"clouds":[{"cover":"OVC","base":2000}],"obsTime":1775386800},"SBGW":{"icaoId":"SBGW","flightCategory":"LIFR","rawOb":"METAR SBGW 051100Z 25003KT 180V280 2000 BCFG BKN003 BKN006 21/18 Q1019","temp":21,"dewp":18,"wdir":250,"wspd":3,"visib":1.24,"altim":1019,"clouds":[{"cover":"BKN","base":300},{"cover":"BKN","base":600}],"obsTime":1775386800},"SBLE":{"icaoId":"SBLE","flightCategory":"IFR","rawOb":"METAR SBLE 051100Z AUTO 17004KT 120V200 9999 BKN006 OVC030 ///// Q////","temp":null,"dewp":null,"wdir":170,"wspd":4,"visib":"6+","altim":null,"clouds":[{"cover":"BKN","base":600},{"cover":"OVC","base":3000}],"obsTime":1775386800},"SBJR":{"icaoId":"SBJR","flightCategory":"VFR","rawOb":"METAR SBJR 051100Z 33002KT CAVOK 28/23 Q1015","temp":28,"dewp":23,"wdir":330,"wspd":2,"visib":"6+","altim":1015,"clouds":[],"obsTime":1775386800},"SBLS":{"icaoId":"SBLS","flightCategory":"VFR","rawOb":"METAR SBLS 051100Z 16008KT CAVOK 22/19 Q1020","temp":22,"dewp":19,"wdir":160,"wspd":8,"visib":"6+","altim":1020,"clouds":[],"obsTime":1775386800},"SBMT":{"icaoId":"SBMT","flightCategory":"MVFR","rawOb":"METAR SBMT 051100Z VRB02KT 6000 NSC 22/20 Q1019","temp":22,"dewp":20,"wdir":"VRB","wspd":2,"visib":3.73,"altim":1019,"clouds":[],"obsTime":1775386800},"SBST":{"icaoId":"SBST","flightCategory":"MVFR","rawOb":"METAR SBST 051100Z 03004KT 8000 FEW011 BKN020 23/23 Q1016","temp":23,"dewp":23,"wdir":30,"wspd":4,"visib":4.97,"altim":1016,"clouds":[{"cover":"FEW","base":1100},{"cover":"BKN","base":2000}],"obsTime":1775386800},"SBAN":{"icaoId":"SBAN","flightCategory":"VFR","rawOb":"METAR SBAN 051100Z 09008KT CAVOK 22/18 Q1021","temp":22,"dewp":18,"wdir":90,"wspd":8,"visib":"6+","altim":1021,"clouds":[],"obsTime":1775386800},"SBTA":{"icaoId":"SBTA","flightCategory":"VFR","rawOb":"METAR SBTA 051100Z 26003KT 230V300 CAVOK 21/21 Q1018","temp":21,"dewp":21,"wdir":260,"wspd":3,"visib":"6+","altim":1018,"clouds":[],"obsTime":1775386800},"SBJP":{"icaoId":"SBJP","flightCategory":"VFR","rawOb":"METAR SBJP 051100Z 16006KT 9999 FEW020 27/25 Q1013","temp":27,"dewp":25,"wdir":160,"wspd":6,"visib":"6+","altim":1013,"clouds":[{"cover":"FEW","base":2000}],"obsTime":1775386800},"SBIH":{"icaoId":"SBIH","flightCategory":"VFR","rawOb":"METAR SBIH 051100Z 25004KT 9999 SCT010 SCT080 25/24 Q1013","temp":25,"dewp":24,"wdir":250,"wspd":4,"visib":"6+","altim":1013,"clouds":[{"cover":"SCT","base":1000},{"cover":"SCT","base":8000}],"obsTime":1775386800},"SBAF":{"icaoId":"SBAF","flightCategory":"VFR","rawOb":"METAR SBAF 051100Z 30002KT CAVOK 26/26 Q1015","temp":26,"dewp":26,"wdir":300,"wspd":2,"visib":"6+","altim":1015,"clouds":[],"obsTime":1775386800},"SBPF":{"icaoId":"SBPF","flightCategory":"MVFR","rawOb":"METAR SBPF 051100Z 12010KT 9999 BKN010 20/17 Q1021","temp":20,"dewp":17,"wdir":120,"wspd":10,"visib":"6+","altim":1021,"clouds":[{"cover":"BKN","base":1000}],"obsTime":1775386800}}}