{"updated":1776018825,"count":87,"data":{"SBRF":{"icaoId":"SBRF","flightCategory":"IFR","rawOb":"METAR SBRF 121700Z 34002KT 3000 -RA BR SCT009 BKN012 OVC050 25/24 Q1011 RERA","temp":25,"dewp":24,"wdir":340,"wspd":2,"visib":1.86,"altim":1011,"clouds":[{"cover":"SCT","base":900},{"cover":"BKN","base":1200},{"cover":"OVC","base":5000}],"obsTime":1776013200},"SBFI":{"icaoId":"SBFI","flightCategory":"IFR","rawOb":"METAR SBFI 121700Z 11006KT 4000 -TSRA FEW015 FEW035CB OVC070 19/19 Q1020","temp":19,"dewp":19,"wdir":110,"wspd":6,"visib":2.49,"altim":1020,"clouds":[{"cover":"FEW","base":1500},{"cover":"FEW","base":3500},{"cover":"OVC","base":7000}],"obsTime":1776013200},"SBMQ":{"icaoId":"SBMQ","flightCategory":"VFR","rawOb":"METAR SBMQ 121700Z 06005KT 9999 SCT026 FEW035TCU 32/24 Q1010","temp":32,"dewp":24,"wdir":60,"wspd":5,"visib":"6+","altim":1010,"clouds":[{"cover":"SCT","base":2600},{"cover":"FEW","base":3500}],"obsTime":1776013200},"SBBE":{"icaoId":"SBBE","flightCategory":"MVFR","rawOb":"METAR SBBE 121700Z 03004KT 9999 BKN030 FEW035TCU 30/25 Q1010","temp":30,"dewp":25,"wdir":30,"wspd":4,"visib":"6+","altim":1010,"clouds":[{"cover":"BKN","base":3000},{"cover":"FEW","base":3500}],"obsTime":1776013200},"SBUL":{"icaoId":"SBUL","flightCategory":"VFR","rawOb":"METAR SBUL 121700Z 06012KT 9999 SCT025 SCT030 27/19 Q1020","temp":27,"dewp":19,"wdir":60,"wspd":12,"visib":"6+","altim":1020,"clouds":[{"cover":"SCT","base":2500},{"cover":"SCT","base":3000}],"obsTime":1776013200},"SBBR":{"icaoId":"SBBR","flightCategory":"VFR","rawOb":"METAR SBBR 121700Z 11010KT 070V140 9999 SCT040 FEW045TCU 27/17 Q1020","temp":27,"dewp":17,"wdir":110,"wspd":10,"visib":"6+","altim":1020,"clouds":[{"cover":"SCT","base":4000},{"cover":"FEW","base":4500}],"obsTime":1776013200},"SBTE":{"icaoId":"SBTE","flightCategory":"VFR","rawOb":"METAR SBTE 121700Z 13006KT 050V190 9999 SCT025 FEW025TCU 32/24 Q1009","temp":32,"dewp":24,"wdir":130,"wspd":6,"visib":"6+","altim":1009,"clouds":[{"cover":"SCT","base":2500},{"cover":"FEW","base":2500}],"obsTime":1776013200},"SBBV":{"icaoId":"SBBV","flightCategory":"VFR","rawOb":"METAR SBBV 121700Z 10010KT 9999 SCT040 FEW045TCU 33/21 Q1012","temp":33,"dewp":21,"wdir":100,"wspd":10,"visib":"6+","altim":1012,"clouds":[{"cover":"SCT","base":4000},{"cover":"FEW","base":4500}],"obsTime":1776013200},"SBCB":{"icaoId":"SBCB","flightCategory":"VFR","rawOb":"METAR SBCB 121700Z 13013KT 9999 FEW015 28/20 Q1019","temp":28,"dewp":20,"wdir":130,"wspd":13,"visib":"6+","altim":1019,"clouds":[{"cover":"FEW","base":1500}],"obsTime":1776013200},"SBSV":{"icaoId":"SBSV","flightCategory":"MVFR","rawOb":"METAR SBSV 121700Z 18011KT 8000 -SHRA SCT023 FEW025TCU BKN050 27/24 Q1013","temp":27,"dewp":24,"wdir":180,"wspd":11,"visib":4.97,"altim":1013,"clouds":[{"cover":"SCT","base":2300},{"cover":"FEW","base":2500},{"cover":"BKN","base":5000}],"obsTime":1776013200},"SBCF":{"icaoId":"SBCF","flightCategory":"VFR","rawOb":"METAR SBCF 121700Z 07007KT 9999 BKN036 FEW040TCU 24/16 Q1021","temp":24,"dewp":16,"wdir":70,"wspd":7,"visib":"6+","altim":1021,"clouds":[{"cover":"BKN","base":3600},{"cover":"FEW","base":4000}],"obsTime":1776013200},"SBSP":{"icaoId":"SBSP","flightCategory":"VFR","rawOb":"METAR SBSP 121700Z VRB04KT CAVOK 26/12 Q1022","temp":26,"dewp":12,"wdir":"VRB","wspd":4,"visib":"6+","altim":1022,"clouds":[],"obsTime":1776013200},"SBSN":{"icaoId":"SBSN","flightCategory":"VFR","rawOb":"METAR SBSN 121700Z 09011KT 040V100 9999 FEW023 FEW040TCU 31/24 Q1011","temp":31,"dewp":24,"wdir":90,"wspd":11,"visib":"6+","altim":1011,"clouds":[{"cover":"FEW","base":2300},{"cover":"FEW","base":4000}],"obsTime":1776013200},"SBCG":{"icaoId":"SBCG","flightCategory":"VFR","rawOb":"METAR SBCG 121700Z 34009KT CAVOK 33/20 Q1015","temp":33,"dewp":20,"wdir":340,"wspd":9,"visib":"6+","altim":1015,"clouds":[],"obsTime":1776013200},"SBSL":{"icaoId":"SBSL","flightCategory":"VFR","rawOb":"METAR SBSL 121700Z 08012KT 9999 SCT018 BKN033 30/24 Q1010","temp":30,"dewp":24,"wdir":80,"wspd":12,"visib":"6+","altim":1010,"clouds":[{"cover":"SCT","base":1800},{"cover":"BKN","base":3300}],"obsTime":1776013200},"SBCP":{"icaoId":"SBCP","flightCategory":"MVFR","rawOb":"METAR SBCP 121700Z 20005KT 9999 BKN015 25/22 Q1018","temp":25,"dewp":22,"wdir":200,"wspd":5,"visib":"6+","altim":1018,"clouds":[{"cover":"BKN","base":1500}],"obsTime":1776013200},"SBSG":{"icaoId":"SBSG","flightCategory":"MVFR","rawOb":"METAR SBSG 121700Z 04005KT 9000 VCSH BKN023 FEW025TCU BKN080 27/26 Q1010 RERA","temp":27,"dewp":26,"wdir":40,"wspd":5,"visib":5.59,"altim":1010,"clouds":[{"cover":"BKN","base":2300},{"cover":"FEW","base":2500},{"cover":"BKN","base":8000}],"obsTime":1776013200},"SBCR":{"icaoId":"SBCR","flightCategory":"VFR","rawOb":"METAR SBCR 121700Z 03008KT 350V070 9999 BKN040 FEW045TCU 33/22 Q1011","temp":33,"dewp":22,"wdir":30,"wspd":8,"visib":"6+","altim":1011,"clouds":[{"cover":"BKN","base":4000},{"cover":"FEW","base":4500}],"obsTime":1776013200},"SBCT":{"icaoId":"SBCT","flightCategory":"VFR","rawOb":"METAR SBCT 121700Z 12010KT 9999 SCT030 23/15 Q1023","temp":23,"dewp":15,"wdir":120,"wspd":10,"visib":"6+","altim":1023,"clouds":[{"cover":"SCT","base":3000}],"obsTime":1776013200},"SBAT":{"icaoId":"SBAT","flightCategory":"VFR","rawOb":"METAR SBAT 121700Z 05004KT 9999 SCT030 FEW035TCU 32/24 Q1012","temp":32,"dewp":24,"wdir":50,"wspd":4,"visib":"6+","altim":1012,"clouds":[{"cover":"SCT","base":3000},{"cover":"FEW","base":3500}],"obsTime":1776013200},"SBCZ":{"icaoId":"SBCZ","flightCategory":"MVFR","rawOb":"METAR SBCZ 121700Z 03005KT 9999 BKN018 OVC080 28/25 Q1014","temp":28,"dewp":25,"wdir":30,"wspd":5,"visib":"6+","altim":1014,"clouds":[{"cover":"BKN","base":1800},{"cover":"OVC","base":8000}],"obsTime":1776013200},"SBEG":{"icaoId":"SBEG","flightCategory":"VFR","rawOb":"METAR SBEG 121700Z 13007KT 9999 SCT016 FEW025TCU BKN100 27/24 Q1012","temp":27,"dewp":24,"wdir":130,"wspd":7,"visib":"6+","altim":1012,"clouds":[{"cover":"SCT","base":1600},{"cover":"FEW","base":2500},{"cover":"BKN","base":10000}],"obsTime":1776013200},"SBRB":{"icaoId":"SBRB","flightCategory":"VFR","rawOb":"METAR SBRB 121700Z 20004KT 9999 FEW018 SCT030 BKN090 31/25 Q1012","temp":31,"dewp":25,"wdir":200,"wspd":4,"visib":"6+","altim":1012,"clouds":[{"cover":"FEW","base":1800},{"cover":"SCT","base":3000},{"cover":"BKN","base":9000}],"obsTime":1776013200},"SBPV":{"icaoId":"SBPV","flightCategory":"MVFR","rawOb":"METAR SBPV 121700Z 36009KT 330V040 9999 VCSH BKN030 FEW035TCU 31/26 Q1010","temp":31,"dewp":26,"wdir":360,"wspd":9,"visib":"6+","altim":1010,"clouds":[{"cover":"BKN","base":3000},{"cover":"FEW","base":3500}],"obsTime":1776013200},"SBFL":{"icaoId":"SBFL","flightCategory":"VFR","rawOb":"METAR SBFL 121700Z 35007KT 9999 FEW030 SCT060 BKN080 25/19 Q1018","temp":25,"dewp":19,"wdir":350,"wspd":7,"visib":"6+","altim":1018,"clouds":[{"cover":"FEW","base":3000},{"cover":"SCT","base":6000},{"cover":"BKN","base":8000}],"obsTime":1776013200},"SBPJ":{"icaoId":"SBPJ","flightCategory":"VFR","rawOb":"METAR SBPJ 121700Z 28006KT 9999 SCT045 31/24 Q1012","temp":31,"dewp":24,"wdir":280,"wspd":6,"visib":"6+","altim":1012,"clouds":[{"cover":"SCT","base":4500}],"obsTime":1776013200},"SBFZ":{"icaoId":"SBFZ","flightCategory":"VFR","rawOb":"METAR SBFZ 121700Z 10007KT 9999 SCT020 BKN090 27/24 Q1010","temp":27,"dewp":24,"wdir":100,"wspd":7,"visib":"6+","altim":1010,"clouds":[{"cover":"SCT","base":2000},{"cover":"BKN","base":9000}],"obsTime":1776013200},"SBPA":{"icaoId":"SBPA","flightCategory":"VFR","rawOb":"METAR SBPA 121700Z 33009KT 300V010 CAVOK 25/17 Q1016","temp":25,"dewp":17,"wdir":330,"wspd":9,"visib":"6+","altim":1016,"clouds":[],"obsTime":1776013200},"SBGL":{"icaoId":"SBGL","flightCategory":"VFR","rawOb":"METAR SBGL 121700Z 14010KT 110V180 9999 SCT030 28/20 Q1018","temp":28,"dewp":20,"wdir":140,"wspd":10,"visib":"6+","altim":1018,"clouds":[{"cover":"SCT","base":3000}],"obsTime":1776013200},"SBNT":{"icaoId":"SBNT","flightCategory":"MVFR","rawOb":"METAR SBNT 121700Z 12014KT 9999 BKN021 FEW030TCU BKN100 29/24 Q1010","temp":29,"dewp":24,"wdir":120,"wspd":14,"visib":"6+","altim":1010,"clouds":[{"cover":"BKN","base":2100},{"cover":"FEW","base":3000},{"cover":"BKN","base":10000}],"obsTime":1776013200},"SBGO":{"icaoId":"SBGO","flightCategory":"VFR","rawOb":"METAR SBGO 121700Z 06007KT 010V100 9999 SCT040 29/19 Q1018","temp":29,"dewp":19,"wdir":60,"wspd":7,"visib":"6+","altim":1018,"clouds":[{"cover":"SCT","base":4000}],"obsTime":1776013200},"SBGR":{"icaoId":"SBGR","flightCategory":"VFR","rawOb":"METAR SBGR 121700Z 27003KT 220V030 9999 SCT040 26/15 Q1020","temp":26,"dewp":15,"wdir":270,"wspd":3,"visib":"6+","altim":1020,"clouds":[{"cover":"SCT","base":4000}],"obsTime":1776013200},"SBHT":{"icaoId":"SBHT","flightCategory":"MVFR","rawOb":"METAR SBHT 121700Z 15005KT 9999 BKN030 31/23 Q1011","temp":31,"dewp":23,"wdir":150,"wspd":5,"visib":"6+","altim":1011,"clouds":[{"cover":"BKN","base":3000}],"obsTime":1776013200},"SBMO":{"icaoId":"SBMO","flightCategory":"VFR","rawOb":"METAR SBMO 121700Z 11010KT 9999 VCSH FEW036 FEW040TCU BKN080 29/22 Q1012","temp":29,"dewp":22,"wdir":110,"wspd":10,"visib":"6+","altim":1012,"clouds":[{"cover":"FEW","base":3600},{"cover":"FEW","base":4000},{"cover":"BKN","base":8000}],"obsTime":1776013200},"SBIL":{"icaoId":"SBIL","flightCategory":"VFR","rawOb":"METAR SBIL 121700Z 18008KT 140V220 9999 FEW020 SCT070 29/24 Q1014","temp":29,"dewp":24,"wdir":180,"wspd":8,"visib":"6+","altim":1014,"clouds":[{"cover":"FEW","base":2000},{"cover":"SCT","base":7000}],"obsTime":1776013200},"SBMK":{"icaoId":"SBMK","flightCategory":"VFR","rawOb":"METAR SBMK 121700Z 18008KT 9999 FEW038 BKN070 26/20 Q1018","temp":26,"dewp":20,"wdir":180,"wspd":8,"visib":"6+","altim":1018,"clouds":[{"cover":"FEW","base":3800},{"cover":"BKN","base":7000}],"obsTime":1776013200},"SBJU":{"icaoId":"SBJU","flightCategory":"VFR","rawOb":"METAR SBJU 121700Z 15008KT 9999 SCT022 31/21 Q1012","temp":31,"dewp":21,"wdir":150,"wspd":8,"visib":"6+","altim":1012,"clouds":[{"cover":"SCT","base":2200}],"obsTime":1776013200},"SBKP":{"icaoId":"SBKP","flightCategory":"VFR","rawOb":"METAR SBKP 121700Z VRB03KT 9999 FEW045 29/14 Q1019","temp":29,"dewp":14,"wdir":"VRB","wspd":3,"visib":"6+","altim":1019,"clouds":[{"cover":"FEW","base":4500}],"obsTime":1776013200},"SBMG":{"icaoId":"SBMG","flightCategory":"VFR","rawOb":"METAR SBMG 121700Z 02007KT 340V080 9999 FEW045 30/20 Q1017","temp":30,"dewp":20,"wdir":20,"wspd":7,"visib":"6+","altim":1017,"clouds":[{"cover":"FEW","base":4500}],"obsTime":1776013200},"SBLO":{"icaoId":"SBLO","flightCategory":"VFR","rawOb":"METAR SBLO 121700Z 07007KT 040V110 9999 SCT030 27/19 Q1018","temp":27,"dewp":19,"wdir":70,"wspd":7,"visib":"6+","altim":1018,"clouds":[{"cover":"SCT","base":3000}],"obsTime":1776013200},"SBMA":{"icaoId":"SBMA","flightCategory":"VFR","rawOb":"METAR SBMA 121700Z 00000KT 9999 SCT020 FEW023TCU BKN100 30/24 Q1012","temp":30,"dewp":24,"wdir":0,"wspd":0,"visib":"6+","altim":1012,"clouds":[{"cover":"SCT","base":2000},{"cover":"FEW","base":2300},{"cover":"BKN","base":10000}],"obsTime":1776013200},"SBME":{"icaoId":"SBME","flightCategory":"VFR","rawOb":"METAR SBME 121700Z 19007KT 9999 FEW025 SCT083 28/21 Q1019","temp":28,"dewp":21,"wdir":190,"wspd":7,"visib":"6+","altim":1019,"clouds":[{"cover":"FEW","base":2500},{"cover":"SCT","base":8300}],"obsTime":1776013200},"SBVT":{"icaoId":"SBVT","flightCategory":"VFR","rawOb":"METAR SBVT 121700Z 29004KT 9999 SCT030 BKN070 25/22 Q1017","temp":25,"dewp":22,"wdir":290,"wspd":4,"visib":"6+","altim":1017,"clouds":[{"cover":"SCT","base":3000},{"cover":"BKN","base":7000}],"obsTime":1776013200},"SBUR":{"icaoId":"SBUR","flightCategory":"VFR","rawOb":"METAR SBUR 121700Z 36006KT 9999 BKN040 28/17 Q1019","temp":28,"dewp":17,"wdir":360,"wspd":6,"visib":"6+","altim":1019,"clouds":[{"cover":"BKN","base":4000}],"obsTime":1776013200},"SBAR":{"icaoId":"SBAR","flightCategory":"VFR","rawOb":"METAR SBAR 121700Z 15010KT 9999 SCT021 FEW023TCU 30/24 Q1011","temp":30,"dewp":24,"wdir":150,"wspd":10,"visib":"6+","altim":1011,"clouds":[{"cover":"SCT","base":2100},{"cover":"FEW","base":2300}],"obsTime":1776013200},"SBAU":{"icaoId":"SBAU","flightCategory":"VFR","rawOb":"METAR SBAU 121700Z 36006KT 9999 SCT035 33/21 Q1016","temp":33,"dewp":21,"wdir":360,"wspd":6,"visib":"6+","altim":1016,"clouds":[{"cover":"SCT","base":3500}],"obsTime":1776013200},"SBAX":{"icaoId":"SBAX","flightCategory":"VFR","rawOb":"METAR SBAX 121700Z AUTO 09007KT 050V120 9999 BKN035 25/16 Q1021","temp":25,"dewp":16,"wdir":90,"wspd":7,"visib":"6+","altim":1021,"clouds":[{"cover":"BKN","base":3500}],"obsTime":1776013200},"SBBH":{"icaoId":"SBBH","flightCategory":"VFR","rawOb":"METAR SBBH 121700Z 09007KT 9999 SCT040 25/17 Q1020","temp":25,"dewp":17,"wdir":90,"wspd":7,"visib":"6+","altim":1020,"clouds":[{"cover":"SCT","base":4000}],"obsTime":1776013200},"SBBQ":{"icaoId":"SBBQ","flightCategory":"MVFR","rawOb":"METAR SBBQ 121700Z 10007KT 9999 BKN025 21/15 Q1024","temp":21,"dewp":15,"wdir":100,"wspd":7,"visib":"6+","altim":1024,"clouds":[{"cover":"BKN","base":2500}],"obsTime":1776013200},"SBBU":{"icaoId":"SBBU","flightCategory":"VFR","rawOb":"METAR SBBU 121700Z 06008KT 9999 SCT040 30/20 Q1018","temp":30,"dewp":20,"wdir":60,"wspd":8,"visib":"6+","altim":1018,"clouds":[{"cover":"SCT","base":4000}],"obsTime":1776013200},"SBCA":{"icaoId":"SBCA","flightCategory":"LIFR","rawOb":"METAR SBCA 121700Z 17012KT 2500 -TSRA BR BKN001 SCT030 FEW035CB BKN080 16/16 Q1022","temp":16,"dewp":16,"wdir":170,"wspd":12,"visib":1.55,"altim":1022,"clouds":[{"cover":"BKN","base":100},{"cover":"SCT","base":3000},{"cover":"FEW","base":3500},{"cover":"BKN","base":8000}],"obsTime":1776013200},"SBCC":{"icaoId":"SBCC","flightCategory":"VFR","rawOb":"METAR SBCC 121700Z 02004KT 9999 SCT030 FEW035TCU SCT100 28/21 Q1014","temp":28,"dewp":21,"wdir":20,"wspd":4,"visib":"6+","altim":1014,"clouds":[{"cover":"SCT","base":3000},{"cover":"FEW","base":3500},{"cover":"SCT","base":10000}],"obsTime":1776013200},"SBCJ":{"icaoId":"SBCJ","flightCategory":"MVFR","rawOb":"METAR SBCJ 121700Z 09004KT 9999 BKN023 27/22 Q1016","temp":27,"dewp":22,"wdir":90,"wspd":4,"visib":"6+","altim":1016,"clouds":[{"cover":"BKN","base":2300}],"obsTime":1776013200},"SBCO":{"icaoId":"SBCO","flightCategory":"VFR","rawOb":"METAR SBCO 121700Z 31007KT CAVOK 25/18 Q1016","temp":25,"dewp":18,"wdir":310,"wspd":7,"visib":"6+","altim":1016,"clouds":[],"obsTime":1776013200},"SBDN":{"icaoId":"SBDN","flightCategory":"VFR","rawOb":"METAR SBDN 121700Z 05006KT 9999 FEW035 31/20 Q1016","temp":31,"dewp":20,"wdir":50,"wspd":6,"visib":"6+","altim":1016,"clouds":[{"cover":"FEW","base":3500}],"obsTime":1776013200},"SBES":{"icaoId":"SBES","flightCategory":"VFR","rawOb":"METAR SBES 121700Z VRB09KT 9999 FEW020 SCT040 28/// Q1019","temp":null,"dewp":null,"wdir":"VRB","wspd":9,"visib":"6+","altim":1019,"clouds":[{"cover":"FEW","base":2000},{"cover":"SCT","base":4000}],"obsTime":1776013200},"SBGM":{"icaoId":"SBGM","flightCategory":"MVFR","rawOb":"METAR SBGM 121700Z 08004KT 9999 SCT020 BKN030 BKN050 30/24 Q1011","temp":30,"dewp":24,"wdir":80,"wspd":4,"visib":"6+","altim":1011,"clouds":[{"cover":"SCT","base":2000},{"cover":"BKN","base":3000},{"cover":"BKN","base":5000}],"obsTime":1776013200},"SBIP":{"icaoId":"SBIP","flightCategory":"VFR","rawOb":"METAR SBIP 121700Z AUTO 27003KT 230V310 9999 FEW041 27/19 Q1017","temp":27,"dewp":19,"wdir":270,"wspd":3,"visib":"6+","altim":1017,"clouds":[{"cover":"FEW","base":4100}],"obsTime":1776013200},"SBKG":{"icaoId":"SBKG","flightCategory":"MVFR","rawOb":"METAR SBKG 121700Z 19012KT 5000 -SHRA SCT025 FEW030TCU BKN080 25/22 Q1013","temp":25,"dewp":22,"wdir":190,"wspd":12,"visib":3.11,"altim":1013,"clouds":[{"cover":"SCT","base":2500},{"cover":"FEW","base":3000},{"cover":"BKN","base":8000}],"obsTime":1776013200},"SBOI":{"icaoId":"SBOI","flightCategory":"VFR","rawOb":"METAR SBOI 121700Z AUTO 03009KT 360V090 9999 SCT036 31/24 Q1011","temp":31,"dewp":24,"wdir":30,"wspd":9,"visib":"6+","altim":1011,"clouds":[{"cover":"SCT","base":3600}],"obsTime":1776013200},"SBPB":{"icaoId":"SBPB","flightCategory":"VFR","rawOb":"METAR SBPB 121700Z 03013KT 9999 FEW016 FEW025TCU BKN080 30/26 Q1009","temp":30,"dewp":26,"wdir":30,"wspd":13,"visib":"6+","altim":1009,"clouds":[{"cover":"FEW","base":1600},{"cover":"FEW","base":2500},{"cover":"BKN","base":8000}],"obsTime":1776013200},"SBPL":{"icaoId":"SBPL","flightCategory":"MVFR","rawOb":"METAR SBPL 121700Z 05007KT 9999 BKN025 32/20 Q1012","temp":32,"dewp":20,"wdir":50,"wspd":7,"visib":"6+","altim":1012,"clouds":[{"cover":"BKN","base":2500}],"obsTime":1776013200},"SBPP":{"icaoId":"SBPP","flightCategory":"VFR","rawOb":"METAR SBPP 121700Z 02009KT 9999 SCT020 33/18 Q1016","temp":33,"dewp":18,"wdir":20,"wspd":9,"visib":"6+","altim":1016,"clouds":[{"cover":"SCT","base":2000}],"obsTime":1776013200},"SBPS":{"icaoId":"SBPS","flightCategory":"VFR","rawOb":"METAR SBPS 121700Z 12007KT 080V190 9999 FEW015 SCT017 BKN100 26/23 Q1015","temp":26,"dewp":23,"wdir":120,"wspd":7,"visib":"6+","altim":1015,"clouds":[{"cover":"FEW","base":1500},{"cover":"SCT","base":1700},{"cover":"BKN","base":10000}],"obsTime":1776013200},"SBSC":{"icaoId":"SBSC","flightCategory":"VFR","rawOb":"METAR SBSC 121700Z 17008KT 9999 SCT030 FEW032TCU SCT070 27/21 Q1018","temp":27,"dewp":21,"wdir":170,"wspd":8,"visib":"6+","altim":1018,"clouds":[{"cover":"SCT","base":3000},{"cover":"FEW","base":3200},{"cover":"SCT","base":7000}],"obsTime":1776013200},"SBSJ":{"icaoId":"SBSJ","flightCategory":"VFR","rawOb":"METAR SBSJ 121700Z 36005KT 300V080 9999 FEW030 26/15 Q1020","temp":26,"dewp":15,"wdir":360,"wspd":5,"visib":"6+","altim":1020,"clouds":[{"cover":"FEW","base":3000}],"obsTime":1776013200},"SBSM":{"icaoId":"SBSM","flightCategory":"VFR","rawOb":"METAR SBSM 121700Z 07003KT 030V100 9999 VCSH FEW025 SCT050 BKN100 23/17 Q1016","temp":23,"dewp":17,"wdir":70,"wspd":3,"visib":"6+","altim":1016,"clouds":[{"cover":"FEW","base":2500},{"cover":"SCT","base":5000},{"cover":"BKN","base":10000}],"obsTime":1776013200},"SBSR":{"icaoId":"SBSR","flightCategory":"VFR","rawOb":"METAR SBSR 121700Z 01007KT 9999 SCT030 30/18 Q1017","temp":30,"dewp":18,"wdir":10,"wspd":7,"visib":"6+","altim":1017,"clouds":[{"cover":"SCT","base":3000}],"obsTime":1776013200},"SBTF":{"icaoId":"SBTF","flightCategory":"VFR","rawOb":"METAR SBTF 121700Z 04007KT 9999 SCT020 34/26 Q1010","temp":34,"dewp":26,"wdir":40,"wspd":7,"visib":"6+","altim":1010,"clouds":[{"cover":"SCT","base":2000}],"obsTime":1776013200},"SBTT":{"icaoId":"SBTT","flightCategory":"MVFR","rawOb":"METAR SBTT 121700Z 33005KT 9999 BKN017 29/23 Q1013","temp":29,"dewp":23,"wdir":330,"wspd":5,"visib":"6+","altim":1013,"clouds":[{"cover":"BKN","base":1700}],"obsTime":1776013200},"SBUY":{"icaoId":"SBUY","flightCategory":"VFR","rawOb":"METAR SBUY 121700Z 15004KT 9999 SCT025 31/24 Q1009","temp":31,"dewp":24,"wdir":150,"wspd":4,"visib":"6+","altim":1009,"clouds":[{"cover":"SCT","base":2500}],"obsTime":1776013200},"SBVH":{"icaoId":"SBVH","flightCategory":"MVFR","rawOb":"METAR SBVH 121700Z 03005KT 7000 -RA BKN030 FEW035TCU BKN068 25/23 Q1014","temp":25,"dewp":23,"wdir":30,"wspd":5,"visib":4.35,"altim":1014,"clouds":[{"cover":"BKN","base":3000},{"cover":"FEW","base":3500},{"cover":"BKN","base":6800}],"obsTime":1776013200},"SBAN":{"icaoId":"SBAN","flightCategory":"VFR","rawOb":"METAR SBAN 121700Z 15009KT 100V190 9999 BKN035 25/17 Q1021","temp":25,"dewp":17,"wdir":150,"wspd":9,"visib":"6+","altim":1021,"clouds":[{"cover":"BKN","base":3500}],"obsTime":1776013200},"SBIH":{"icaoId":"SBIH","flightCategory":"VFR","rawOb":"METAR SBIH 121700Z 10008KT 9999 SCT018 FEW023TCU 31/25 Q1010","temp":31,"dewp":25,"wdir":100,"wspd":8,"visib":"6+","altim":1010,"clouds":[{"cover":"SCT","base":1800},{"cover":"FEW","base":2300}],"obsTime":1776013200},"SBJV":{"icaoId":"SBJV","flightCategory":"VFR","rawOb":"METAR SBJV 121700Z 10005KT 9999 FEW020 27/21 Q1019","temp":27,"dewp":21,"wdir":100,"wspd":5,"visib":"6+","altim":1019,"clouds":[{"cover":"FEW","base":2000}],"obsTime":1776013200},"SBPF":{"icaoId":"SBPF","flightCategory":"VFR","rawOb":"METAR SBPF 121800Z 01012KT CAVOK 18/15 Q1019","temp":18,"dewp":15,"wdir":10,"wspd":12,"visib":"6+","altim":1019,"clouds":[],"obsTime":1776016800},"SBAF":{"icaoId":"SBAF","flightCategory":"VFR","rawOb":"METAR SBAF 121700Z 09006KT 030V150 9999 FEW025 SCT042 29/19 Q1018","temp":29,"dewp":19,"wdir":90,"wspd":6,"visib":"6+","altim":1018,"clouds":[{"cover":"FEW","base":2500},{"cover":"SCT","base":4200}],"obsTime":1776013200},"SBGW":{"icaoId":"SBGW","flightCategory":"VFR","rawOb":"METAR SBGW 121700Z 03007KT 340V070 9999 SCT030 27/15 Q1019","temp":27,"dewp":15,"wdir":30,"wspd":7,"visib":"6+","altim":1019,"clouds":[{"cover":"SCT","base":3000}],"obsTime":1776013200},"SBLE":{"icaoId":"SBLE","flightCategory":"VFR","rawOb":"METAR SBLE 121700Z AUTO 14006KT 060V190 9999 FEW043 29/19 Q1015","temp":29,"dewp":19,"wdir":140,"wspd":6,"visib":"6+","altim":1015,"clouds":[{"cover":"FEW","base":4300}],"obsTime":1776013200},"SBJR":{"icaoId":"SBJR","flightCategory":"VFR","rawOb":"METAR SBJR 121700Z 13011KT 9999 FEW030 BKN035 30/20 Q1018","temp":30,"dewp":20,"wdir":130,"wspd":11,"visib":"6+","altim":1018,"clouds":[{"cover":"FEW","base":3000},{"cover":"BKN","base":3500}],"obsTime":1776013200},"SBLS":{"icaoId":"SBLS","flightCategory":"VFR","rawOb":"METAR SBLS 121700Z 11007KT 030V130 9999 BKN033 25/17 Q1020","temp":25,"dewp":17,"wdir":110,"wspd":7,"visib":"6+","altim":1020,"clouds":[{"cover":"BKN","base":3300}],"obsTime":1776013200},"SBMT":{"icaoId":"SBMT","flightCategory":"VFR","rawOb":"METAR SBMT 121700Z 23003KT 9999 FEW020 27/14 Q1020","temp":27,"dewp":14,"wdir":230,"wspd":3,"visib":"6+","altim":1020,"clouds":[{"cover":"FEW","base":2000}],"obsTime":1776013200},"SBST":{"icaoId":"SBST","flightCategory":"VFR","rawOb":"METAR SBST 121700Z 14006KT 9999 FEW025 27/19 Q1018","temp":27,"dewp":19,"wdir":140,"wspd":6,"visib":"6+","altim":1018,"clouds":[{"cover":"FEW","base":2500}],"obsTime":1776013200},"SBJP":{"icaoId":"SBJP","flightCategory":"IFR","rawOb":"METAR SBJP 121700Z 16009KT 3000 -RA SCT006 BKN010 BKN018 25/24 Q1012 RERA","temp":25,"dewp":24,"wdir":160,"wspd":9,"visib":1.86,"altim":1012,"clouds":[{"cover":"SCT","base":600},{"cover":"BKN","base":1000},{"cover":"BKN","base":1800}],"obsTime":1776013200},"SBTA":{"icaoId":"SBTA","flightCategory":"VFR","rawOb":"METAR SBTA 121700Z 04007KT 340V070 9999 SCT030 26/15 Q1019","temp":26,"dewp":15,"wdir":40,"wspd":7,"visib":"6+","altim":1019,"clouds":[{"cover":"SCT","base":3000}],"obsTime":1776013200},"SBTC":{"icaoId":"SBTC","flightCategory":"VFR","rawOb":"METAR SBTC 121700Z 16008KT 9999 SCT020 28/24 Q1014","temp":28,"dewp":24,"wdir":160,"wspd":8,"visib":"6+","altim":1014,"clouds":[{"cover":"SCT","base":2000}],"obsTime":1776013200},"SBNM":{"icaoId":"SBNM","flightCategory":"VFR","rawOb":"METAR SBNM 121700Z 02014KT 9999 SCT025 BKN070 23/18 Q1017","temp":23,"dewp":18,"wdir":20,"wspd":14,"visib":"6+","altim":1017,"clouds":[{"cover":"SCT","base":2500},{"cover":"BKN","base":7000}],"obsTime":1776013200}}}