{"updated":1779575983,"count":82,"data":{"SBKP":{"icaoId":"SBKP","flightCategory":"MVFR","rawOb":"METAR SBKP 232100Z 19005KT 7000 -RA BKN023 20/18 Q1022","temp":20,"dewp":18,"wdir":190,"wspd":5,"visib":4.35,"altim":1022,"clouds":[{"cover":"BKN","base":2300}],"obsTime":1779570000},"SBBE":{"icaoId":"SBBE","flightCategory":"VFR","rawOb":"METAR SBBE 232100Z 36007KT 9999 SCT030 BKN100 26/24 Q1012","temp":26,"dewp":24,"wdir":360,"wspd":7,"visib":"6+","altim":1012,"clouds":[{"cover":"SCT","base":3000},{"cover":"BKN","base":10000}],"obsTime":1779570000},"SBVT":{"icaoId":"SBVT","flightCategory":"VFR","rawOb":"METAR SBVT 232100Z 31003KT 9999 SCT028 BKN036 22/20 Q1021","temp":22,"dewp":20,"wdir":310,"wspd":3,"visib":"6+","altim":1021,"clouds":[{"cover":"SCT","base":2800},{"cover":"BKN","base":3600}],"obsTime":1779570000},"SBBR":{"icaoId":"SBBR","flightCategory":"VFR","rawOb":"METAR SBBR 232100Z 11009KT 9999 SCT030 BKN070 21/17 Q1022","temp":21,"dewp":17,"wdir":110,"wspd":9,"visib":"6+","altim":1022,"clouds":[{"cover":"SCT","base":3000},{"cover":"BKN","base":7000}],"obsTime":1779570000},"SBBV":{"icaoId":"SBBV","flightCategory":"VFR","rawOb":"METAR SBBV 232100Z 34003KT 9999 SCT040 FEW045TCU SCT100 27/24 Q1011","temp":27,"dewp":24,"wdir":340,"wspd":3,"visib":"6+","altim":1011,"clouds":[{"cover":"SCT","base":4000},{"cover":"FEW","base":4500},{"cover":"SCT","base":10000}],"obsTime":1779570000},"SBCB":{"icaoId":"SBCB","flightCategory":"VFR","rawOb":"METAR SBCB 232100Z 05010KT 9999 FEW025 22/18 Q1021","temp":22,"dewp":18,"wdir":50,"wspd":10,"visib":"6+","altim":1021,"clouds":[{"cover":"FEW","base":2500}],"obsTime":1779570000},"SBCF":{"icaoId":"SBCF","flightCategory":"VFR","rawOb":"METAR SBCF 232100Z 13007KT 9999 BKN035 21/16 Q1024","temp":21,"dewp":16,"wdir":130,"wspd":7,"visib":"6+","altim":1024,"clouds":[{"cover":"BKN","base":3500}],"obsTime":1779570000},"SBCG":{"icaoId":"SBCG","flightCategory":"MVFR","rawOb":"METAR SBCG 232100Z 18005KT 9999 BKN030 22/19 Q1019","temp":22,"dewp":19,"wdir":180,"wspd":5,"visib":"6+","altim":1019,"clouds":[{"cover":"BKN","base":3000}],"obsTime":1779570000},"SBCP":{"icaoId":"SBCP","flightCategory":"MVFR","rawOb":"METAR SBCP 232100Z 08005KT 9999 FEW015 BKN030 21/19 Q1022","temp":21,"dewp":19,"wdir":80,"wspd":5,"visib":"6+","altim":1022,"clouds":[{"cover":"FEW","base":1500},{"cover":"BKN","base":3000}],"obsTime":1779570000},"SBCT":{"icaoId":"SBCT","flightCategory":"IFR","rawOb":"METAR SBCT 232100Z 08002KT 8000 BKN006 OVC009 15/15 Q1023","temp":15,"dewp":15,"wdir":80,"wspd":2,"visib":4.97,"altim":1023,"clouds":[{"cover":"BKN","base":600},{"cover":"OVC","base":900}],"obsTime":1779570000},"SBCZ":{"icaoId":"SBCZ","flightCategory":"VFR","rawOb":"METAR SBCZ 232100Z 15007KT 9999 FEW030 BKN100 24/20 Q1015","temp":24,"dewp":20,"wdir":150,"wspd":7,"visib":"6+","altim":1015,"clouds":[{"cover":"FEW","base":3000},{"cover":"BKN","base":10000}],"obsTime":1779570000},"SBEG":{"icaoId":"SBEG","flightCategory":"VFR","rawOb":"METAR SBEG 232100Z 17004KT 110V210 9999 SCT020 BKN100 28/24 Q1012","temp":28,"dewp":24,"wdir":170,"wspd":4,"visib":"6+","altim":1012,"clouds":[{"cover":"SCT","base":2000},{"cover":"BKN","base":10000}],"obsTime":1779570000},"SBFI":{"icaoId":"SBFI","flightCategory":"MVFR","rawOb":"METAR SBFI 232100Z 15002KT 9999 FEW012 BKN020 17/16 Q1021","temp":17,"dewp":16,"wdir":150,"wspd":2,"visib":"6+","altim":1021,"clouds":[{"cover":"FEW","base":1200},{"cover":"BKN","base":2000}],"obsTime":1779570000},"SBFL":{"icaoId":"SBFL","flightCategory":"MVFR","rawOb":"METAR SBFL 232100Z 07002KT 6000 -RA FEW007 BKN010 OVC030 16/16 Q1022","temp":16,"dewp":16,"wdir":70,"wspd":2,"visib":3.73,"altim":1022,"clouds":[{"cover":"FEW","base":700},{"cover":"BKN","base":1000},{"cover":"OVC","base":3000}],"obsTime":1779570000},"SBFZ":{"icaoId":"SBFZ","flightCategory":"VFR","rawOb":"METAR SBFZ 232100Z 12007KT 9999 FEW025 28/23 Q1012","temp":28,"dewp":23,"wdir":120,"wspd":7,"visib":"6+","altim":1012,"clouds":[{"cover":"FEW","base":2500}],"obsTime":1779570000},"SBGL":{"icaoId":"SBGL","flightCategory":"VFR","rawOb":"METAR SBGL 232100Z VRB01KT 9999 FEW025 BKN100 24/19 Q1020","temp":24,"dewp":19,"wdir":"VRB","wspd":1,"visib":"6+","altim":1020,"clouds":[{"cover":"FEW","base":2500},{"cover":"BKN","base":10000}],"obsTime":1779570000},"SBGO":{"icaoId":"SBGO","flightCategory":"VFR","rawOb":"METAR SBGO 232100Z 11007KT CAVOK 24/17 Q1020","temp":24,"dewp":17,"wdir":110,"wspd":7,"visib":"6+","altim":1020,"clouds":[],"obsTime":1779570000},"SBGR":{"icaoId":"SBGR","flightCategory":"MVFR","rawOb":"METAR SBGR 232100Z 06003KT 5000 -RA BR OVC017 17/16 Q1023 RERA","temp":17,"dewp":16,"wdir":60,"wspd":3,"visib":3.11,"altim":1023,"clouds":[{"cover":"OVC","base":1700}],"obsTime":1779570000},"SBHT":{"icaoId":"SBHT","flightCategory":"VFR","rawOb":"METAR SBHT 232100Z 34002KT 9999 FEW025 SCT100 30/26 Q1011","temp":30,"dewp":26,"wdir":340,"wspd":2,"visib":"6+","altim":1011,"clouds":[{"cover":"FEW","base":2500},{"cover":"SCT","base":10000}],"obsTime":1779570000},"SBIL":{"icaoId":"SBIL","flightCategory":"VFR","rawOb":"METAR SBIL 232100Z 17011KT 9999 SCT020 BKN070 27/23 Q1018","temp":27,"dewp":23,"wdir":170,"wspd":11,"visib":"6+","altim":1018,"clouds":[{"cover":"SCT","base":2000},{"cover":"BKN","base":7000}],"obsTime":1779570000},"SBJU":{"icaoId":"SBJU","flightCategory":"VFR","rawOb":"METAR SBJU 232100Z 18008KT 9999 SCT022 26/20 Q1015","temp":26,"dewp":20,"wdir":180,"wspd":8,"visib":"6+","altim":1015,"clouds":[{"cover":"SCT","base":2200}],"obsTime":1779570000},"SBLO":{"icaoId":"SBLO","flightCategory":"VFR","rawOb":"METAR SBLO 232100Z 04003KT CAVOK 20/17 Q1021","temp":20,"dewp":17,"wdir":40,"wspd":3,"visib":"6+","altim":1021,"clouds":[],"obsTime":1779570000},"SBMA":{"icaoId":"SBMA","flightCategory":"VFR","rawOb":"METAR SBMA 232100Z 00000KT 9999 FEW025 30/23 Q1011","temp":30,"dewp":23,"wdir":0,"wspd":0,"visib":"6+","altim":1011,"clouds":[{"cover":"FEW","base":2500}],"obsTime":1779570000},"SBME":{"icaoId":"SBME","flightCategory":"VFR","rawOb":"METAR SBME 232100Z 06008KT 9999 FEW033 SCT100 22/18 Q1021","temp":22,"dewp":18,"wdir":60,"wspd":8,"visib":"6+","altim":1021,"clouds":[{"cover":"FEW","base":3300},{"cover":"SCT","base":10000}],"obsTime":1779570000},"SBMG":{"icaoId":"SBMG","flightCategory":"VFR","rawOb":"METAR SBMG 232100Z 15003KT 120V180 9999 FEW030 BKN050 BKN090 21/18 Q1020","temp":21,"dewp":18,"wdir":150,"wspd":3,"visib":"6+","altim":1020,"clouds":[{"cover":"FEW","base":3000},{"cover":"BKN","base":5000},{"cover":"BKN","base":9000}],"obsTime":1779570000},"SBMK":{"icaoId":"SBMK","flightCategory":"VFR","rawOb":"METAR SBMK 232100Z 11005KT 9999 BKN040 OVC080 23/17 Q1021","temp":23,"dewp":17,"wdir":110,"wspd":5,"visib":"6+","altim":1021,"clouds":[{"cover":"BKN","base":4000},{"cover":"OVC","base":8000}],"obsTime":1779570000},"SBMO":{"icaoId":"SBMO","flightCategory":"VFR","rawOb":"METAR SBMO 232100Z 17003KT 100V190 9999 FEW015 SCT025 25/23 Q1015","temp":25,"dewp":23,"wdir":170,"wspd":3,"visib":"6+","altim":1015,"clouds":[{"cover":"FEW","base":1500},{"cover":"SCT","base":2500}],"obsTime":1779570000},"SBMQ":{"icaoId":"SBMQ","flightCategory":"VFR","rawOb":"METAR SBMQ 232100Z 35004KT 9999 SCT019 28/25 Q1012","temp":28,"dewp":25,"wdir":350,"wspd":4,"visib":"6+","altim":1012,"clouds":[{"cover":"SCT","base":1900}],"obsTime":1779570000},"SBNT":{"icaoId":"SBNT","flightCategory":"VFR","rawOb":"METAR SBNT 232100Z 14010KT 9999 FEW023 27/22 Q1014","temp":27,"dewp":22,"wdir":140,"wspd":10,"visib":"6+","altim":1014,"clouds":[{"cover":"FEW","base":2300}],"obsTime":1779570000},"SBPA":{"icaoId":"SBPA","flightCategory":"VFR","rawOb":"METAR SBPA 232100Z 11009KT 9999 SCT013 BKN040 BKN080 15/13 Q1023","temp":15,"dewp":13,"wdir":110,"wspd":9,"visib":"6+","altim":1023,"clouds":[{"cover":"SCT","base":1300},{"cover":"BKN","base":4000},{"cover":"BKN","base":8000}],"obsTime":1779570000},"SBPJ":{"icaoId":"SBPJ","flightCategory":"VFR","rawOb":"METAR SBPJ 232100Z 13005KT 9999 FEW045 30/18 Q1014","temp":30,"dewp":18,"wdir":130,"wspd":5,"visib":"6+","altim":1014,"clouds":[{"cover":"FEW","base":4500}],"obsTime":1779570000},"SBPV":{"icaoId":"SBPV","flightCategory":"VFR","rawOb":"METAR SBPV 232100Z VRB02KT 9999 BKN033 26/20 Q1014","temp":26,"dewp":20,"wdir":"VRB","wspd":2,"visib":"6+","altim":1014,"clouds":[{"cover":"BKN","base":3300}],"obsTime":1779570000},"SBRB":{"icaoId":"SBRB","flightCategory":"MVFR","rawOb":"METAR SBRB 232100Z 18002KT 9999 BKN027 23/18 Q1016","temp":23,"dewp":18,"wdir":180,"wspd":2,"visib":"6+","altim":1016,"clouds":[{"cover":"BKN","base":2700}],"obsTime":1779570000},"SBRF":{"icaoId":"SBRF","flightCategory":"VFR","rawOb":"METAR SBRF 232100Z 19008KT 9999 SCT025 SCT070 26/23 Q1014","temp":26,"dewp":23,"wdir":190,"wspd":8,"visib":"6+","altim":1014,"clouds":[{"cover":"SCT","base":2500},{"cover":"SCT","base":7000}],"obsTime":1779570000},"SBSG":{"icaoId":"SBSG","flightCategory":"VFR","rawOb":"METAR SBSG 232100Z 13005KT 080V170 9999 FEW026 26/22 Q1014","temp":26,"dewp":22,"wdir":130,"wspd":5,"visib":"6+","altim":1014,"clouds":[{"cover":"FEW","base":2600}],"obsTime":1779570000},"SBSL":{"icaoId":"SBSL","flightCategory":"VFR","rawOb":"METAR SBSL 232100Z 06006KT 9999 SCT030 SCT090 28/25 Q1011","temp":28,"dewp":25,"wdir":60,"wspd":6,"visib":"6+","altim":1011,"clouds":[{"cover":"SCT","base":3000},{"cover":"SCT","base":9000}],"obsTime":1779570000},"SBSN":{"icaoId":"SBSN","flightCategory":"VFR","rawOb":"METAR SBSN 232100Z 16002KT 9999 -RA FEW020 BKN070 25/24 Q1012","temp":25,"dewp":24,"wdir":160,"wspd":2,"visib":"6+","altim":1012,"clouds":[{"cover":"FEW","base":2000},{"cover":"BKN","base":7000}],"obsTime":1779570000},"SBSP":{"icaoId":"SBSP","flightCategory":"IFR","rawOb":"METAR SBSP 232100Z 15004KT 110V180 8000 BKN006 16/16 Q1024","temp":16,"dewp":16,"wdir":150,"wspd":4,"visib":4.97,"altim":1024,"clouds":[{"cover":"BKN","base":600}],"obsTime":1779570000},"SBSV":{"icaoId":"SBSV","flightCategory":"MVFR","rawOb":"METAR SBSV 232100Z 10016KT 7000 RA SCT011 SCT020 BKN050 25/23 Q1016","temp":25,"dewp":23,"wdir":100,"wspd":16,"visib":4.35,"altim":1016,"clouds":[{"cover":"SCT","base":1100},{"cover":"SCT","base":2000},{"cover":"BKN","base":5000}],"obsTime":1779570000},"SBTE":{"icaoId":"SBTE","flightCategory":"VFR","rawOb":"METAR SBTE 232100Z 19004KT 9999 FEW020 31/21 Q1011","temp":31,"dewp":21,"wdir":190,"wspd":4,"visib":"6+","altim":1011,"clouds":[{"cover":"FEW","base":2000}],"obsTime":1779570000},"SBUL":{"icaoId":"SBUL","flightCategory":"VFR","rawOb":"METAR SBUL 232100Z 06008KT 9999 FEW035 22/16 Q1023","temp":22,"dewp":16,"wdir":60,"wspd":8,"visib":"6+","altim":1023,"clouds":[{"cover":"FEW","base":3500}],"obsTime":1779570000},"SBUR":{"icaoId":"SBUR","flightCategory":"VFR","rawOb":"METAR SBUR 232100Z 01003KT 9999 FEW047 SCT100 25/16 Q1021","temp":25,"dewp":16,"wdir":10,"wspd":3,"visib":"6+","altim":1021,"clouds":[{"cover":"FEW","base":4700},{"cover":"SCT","base":10000}],"obsTime":1779570000},"SBCR":{"icaoId":"SBCR","flightCategory":"VFR","rawOb":"METAR SBCR 232100Z 22008KT CAVOK 20/14 Q1018","temp":20,"dewp":14,"wdir":220,"wspd":8,"visib":"6+","altim":1018,"clouds":[],"obsTime":1779570000},"SBAT":{"icaoId":"SBAT","flightCategory":"VFR","rawOb":"METAR SBAT 232100Z 00000KT 9999 FEW035 30/22 Q1013","temp":30,"dewp":22,"wdir":0,"wspd":0,"visib":"6+","altim":1013,"clouds":[{"cover":"FEW","base":3500}],"obsTime":1779570000},"SBOI":{"icaoId":"SBOI","flightCategory":"VFR","rawOb":"METAR SBOI 232100Z AUTO 00000KT CAVOK 26/24 Q1013","temp":26,"dewp":24,"wdir":0,"wspd":0,"visib":"6+","altim":1013,"clouds":[],"obsTime":1779570000},"SBAR":{"icaoId":"SBAR","flightCategory":"VFR","rawOb":"METAR SBAR 232100Z 12009KT 9999 FEW025 27/23 Q1015","temp":27,"dewp":23,"wdir":120,"wspd":9,"visib":"6+","altim":1015,"clouds":[{"cover":"FEW","base":2500}],"obsTime":1779570000},"SBVH":{"icaoId":"SBVH","flightCategory":"VFR","rawOb":"METAR SBVH 232100Z 18003KT 9999 SCT030 25/20 Q1017","temp":25,"dewp":20,"wdir":180,"wspd":3,"visib":"6+","altim":1017,"clouds":[{"cover":"SCT","base":3000}],"obsTime":1779570000},"SBAX":{"icaoId":"SBAX","flightCategory":"VFR","rawOb":"METAR SBAX 232100Z AUTO 10005KT CAVOK 22/15 Q1023","temp":22,"dewp":15,"wdir":100,"wspd":5,"visib":"6+","altim":1023,"clouds":[],"obsTime":1779570000},"SBUY":{"icaoId":"SBUY","flightCategory":"MVFR","rawOb":"METAR SBUY 232100Z 17003KT 9999 BKN015 23/21 Q1013","temp":23,"dewp":21,"wdir":170,"wspd":3,"visib":"6+","altim":1013,"clouds":[{"cover":"BKN","base":1500}],"obsTime":1779570000},"SBBH":{"icaoId":"SBBH","flightCategory":"VFR","rawOb":"METAR SBBH 232100Z 09007KT 9999 OVC035 21/15 Q1024","temp":21,"dewp":15,"wdir":90,"wspd":7,"visib":"6+","altim":1024,"clouds":[{"cover":"OVC","base":3500}],"obsTime":1779570000},"SBTU":{"icaoId":"SBTU","flightCategory":"VFR","rawOb":"METAR SBTU 232100Z AUTO 03002KT 9999 // NCD 27/24 Q1013","temp":27,"dewp":24,"wdir":30,"wspd":2,"visib":"6+","altim":1013,"clouds":[],"obsTime":1779570000},"SBBU":{"icaoId":"SBBU","flightCategory":"IFR","rawOb":"METAR SBBU 232100Z 14004KT 3000 BR SCT003 BKN005 BKN012 20/20 Q1021","temp":20,"dewp":20,"wdir":140,"wspd":4,"visib":1.86,"altim":1021,"clouds":[{"cover":"SCT","base":300},{"cover":"BKN","base":500},{"cover":"BKN","base":1200}],"obsTime":1779570000},"SBTT":{"icaoId":"SBTT","flightCategory":"VFR","rawOb":"METAR SBTT 232100Z 23003KT 9999 BKN040 25/21 Q1015","temp":25,"dewp":21,"wdir":230,"wspd":3,"visib":"6+","altim":1015,"clouds":[{"cover":"BKN","base":4000}],"obsTime":1779570000},"SBCA":{"icaoId":"SBCA","flightCategory":"LIFR","rawOb":"METAR SBCA 232100Z 17003KT 0100 FG VV000 15/15 Q1022","temp":15,"dewp":15,"wdir":170,"wspd":3,"visib":0.06,"altim":1022,"clouds":[{"cover":"OVX","base":0}],"obsTime":1779570000},"SBTF":{"icaoId":"SBTF","flightCategory":"MVFR","rawOb":"METAR SBTF 232100Z 20003KT 9999 FEW007 BKN015 OVC100 25/23 Q1013","temp":25,"dewp":23,"wdir":200,"wspd":3,"visib":"6+","altim":1013,"clouds":[{"cover":"FEW","base":700},{"cover":"BKN","base":1500},{"cover":"OVC","base":10000}],"obsTime":1779570000},"SBSR":{"icaoId":"SBSR","flightCategory":"VFR","rawOb":"METAR SBSR 232100Z 04003KT 9999 FEW035 27/16 Q1019","temp":27,"dewp":16,"wdir":40,"wspd":3,"visib":"6+","altim":1019,"clouds":[{"cover":"FEW","base":3500}],"obsTime":1779570000},"SBSM":{"icaoId":"SBSM","flightCategory":"VFR","rawOb":"METAR SBSM 232100Z 11003KT CAVOK 14/12 Q1023","temp":14,"dewp":12,"wdir":110,"wspd":3,"visib":"6+","altim":1023,"clouds":[],"obsTime":1779570000},"SBCO":{"icaoId":"SBCO","flightCategory":"VFR","rawOb":"METAR SBCO 232100Z 10010KT 9999 FEW014 BKN080 14/13 Q1023","temp":14,"dewp":13,"wdir":100,"wspd":10,"visib":"6+","altim":1023,"clouds":[{"cover":"FEW","base":1400},{"cover":"BKN","base":8000}],"obsTime":1779570000},"SBSJ":{"icaoId":"SBSJ","flightCategory":"MVFR","rawOb":"METAR SBSJ 232100Z 14004KT 8000 FEW025 SCT080 19/17 Q1022","temp":19,"dewp":17,"wdir":140,"wspd":4,"visib":4.97,"altim":1022,"clouds":[{"cover":"FEW","base":2500},{"cover":"SCT","base":8000}],"obsTime":1779570000},"SBDN":{"icaoId":"SBDN","flightCategory":"MVFR","rawOb":"METAR SBDN 232100Z 14004KT 7000 BKN045 20/19 Q1020","temp":20,"dewp":19,"wdir":140,"wspd":4,"visib":4.35,"altim":1020,"clouds":[{"cover":"BKN","base":4500}],"obsTime":1779570000},"SBSC":{"icaoId":"SBSC","flightCategory":"MVFR","rawOb":"METAR SBSC 232100Z 15005KT 8000 FEW023 SCT050 BKN083 23/19 Q1020","temp":23,"dewp":19,"wdir":150,"wspd":5,"visib":4.97,"altim":1020,"clouds":[{"cover":"FEW","base":2300},{"cover":"SCT","base":5000},{"cover":"BKN","base":8300}],"obsTime":1779570000},"SBPS":{"icaoId":"SBPS","flightCategory":"MVFR","rawOb":"METAR SBPS 232100Z 14005KT 9999 BKN025 OVC070 26/21 Q1019","temp":26,"dewp":21,"wdir":140,"wspd":5,"visib":"6+","altim":1019,"clouds":[{"cover":"BKN","base":2500},{"cover":"OVC","base":7000}],"obsTime":1779570000},"SBIP":{"icaoId":"SBIP","flightCategory":"VFR","rawOb":"METAR SBIP 232100Z AUTO 00000KT CAVOK 22/19 Q1021","temp":22,"dewp":19,"wdir":0,"wspd":0,"visib":"6+","altim":1021,"clouds":[],"obsTime":1779570000},"SBPL":{"icaoId":"SBPL","flightCategory":"VFR","rawOb":"METAR SBPL 232100Z 08007KT 9999 SCT030 30/16 Q1014","temp":30,"dewp":16,"wdir":80,"wspd":7,"visib":"6+","altim":1014,"clouds":[{"cover":"SCT","base":3000}],"obsTime":1779570000},"SBKG":{"icaoId":"SBKG","flightCategory":"VFR","rawOb":"METAR SBKG 232100Z 12006KT CAVOK 23/20 Q1016","temp":23,"dewp":20,"wdir":120,"wspd":6,"visib":"6+","altim":1016,"clouds":[],"obsTime":1779570000},"SBPB":{"icaoId":"SBPB","flightCategory":"VFR","rawOb":"METAR SBPB 232100Z 06006KT 9999 FEW020 BKN100 29/25 Q1011","temp":29,"dewp":25,"wdir":60,"wspd":6,"visib":"6+","altim":1011,"clouds":[{"cover":"FEW","base":2000},{"cover":"BKN","base":10000}],"obsTime":1779570000},"SBCJ":{"icaoId":"SBCJ","flightCategory":"VFR","rawOb":"METAR SBCJ 232100Z 00000KT CAVOK 27/19 Q1017","temp":27,"dewp":19,"wdir":0,"wspd":0,"visib":"6+","altim":1017,"clouds":[],"obsTime":1779570000},"SBPP":{"icaoId":"SBPP","flightCategory":"MVFR","rawOb":"METAR SBPP 232100Z 21008KT 9999 BKN015 BKN070 17/15 Q1021","temp":17,"dewp":15,"wdir":210,"wspd":8,"visib":"6+","altim":1021,"clouds":[{"cover":"BKN","base":1500},{"cover":"BKN","base":7000}],"obsTime":1779570000},"SBES":{"icaoId":"SBES","flightCategory":"VFR","rawOb":"METAR SBES 232100Z VRB08KT CAVOK 21/// Q1020","temp":null,"dewp":null,"wdir":"VRB","wspd":8,"visib":"6+","altim":1020,"clouds":[],"obsTime":1779570000},"SBJP":{"icaoId":"SBJP","flightCategory":"MVFR","rawOb":"METAR SBJP 232100Z 14008KT 9999 BKN020 BKN070 26/23 Q1015","temp":26,"dewp":23,"wdir":140,"wspd":8,"visib":"6+","altim":1015,"clouds":[{"cover":"BKN","base":2000},{"cover":"BKN","base":7000}],"obsTime":1779570000},"SBAN":{"icaoId":"SBAN","flightCategory":"VFR","rawOb":"METAR SBAN 232100Z 19007KT 9999 FEW027 BKN100 20/16 Q1023","temp":20,"dewp":16,"wdir":190,"wspd":7,"visib":"6+","altim":1023,"clouds":[{"cover":"FEW","base":2700},{"cover":"BKN","base":10000}],"obsTime":1779570000},"SBLE":{"icaoId":"SBLE","flightCategory":"VFR","rawOb":"METAR SBLE 232100Z AUTO 15005KT 120V180 9999 -RA FEW008 OVC035 ///// Q////","temp":null,"dewp":null,"wdir":150,"wspd":5,"visib":"6+","altim":null,"clouds":[{"cover":"FEW","base":800},{"cover":"OVC","base":3500}],"obsTime":1779570000},"SBJV":{"icaoId":"SBJV","flightCategory":"VFR","rawOb":"METAR SBJV 232100Z 00000KT 9999 FEW010 OVC040 17/16 Q1021","temp":17,"dewp":16,"wdir":0,"wspd":0,"visib":"6+","altim":1021,"clouds":[{"cover":"FEW","base":1000},{"cover":"OVC","base":4000}],"obsTime":1779570000},"SBNM":{"icaoId":"SBNM","flightCategory":"VFR","rawOb":"METAR SBNM 232100Z AUTO 16003KT CAVOK 17/10 Q1021","temp":17,"dewp":10,"wdir":160,"wspd":3,"visib":"6+","altim":1021,"clouds":[],"obsTime":1779570000},"SBAF":{"icaoId":"SBAF","flightCategory":"VFR","rawOb":"METAR SBAF 232100Z 24002KT 9999 SCT045 22/22 Q1020","temp":22,"dewp":22,"wdir":240,"wspd":2,"visib":"6+","altim":1020,"clouds":[{"cover":"SCT","base":4500}],"obsTime":1779570000},"SBGW":{"icaoId":"SBGW","flightCategory":"VFR","rawOb":"METAR SBGW 232100Z 04004KT 350V080 9999 SCT030 BKN100 21/14 Q1022","temp":21,"dewp":14,"wdir":40,"wspd":4,"visib":"6+","altim":1022,"clouds":[{"cover":"SCT","base":3000},{"cover":"BKN","base":10000}],"obsTime":1779570000},"SBJR":{"icaoId":"SBJR","flightCategory":"VFR","rawOb":"METAR SBJR 232100Z 27002KT 9999 FEW040 BKN090 22/20 Q1020","temp":22,"dewp":20,"wdir":270,"wspd":2,"visib":"6+","altim":1020,"clouds":[{"cover":"FEW","base":4000},{"cover":"BKN","base":9000}],"obsTime":1779570000},"SBLS":{"icaoId":"SBLS","flightCategory":"VFR","rawOb":"METAR SBLS 232100Z 14006KT 9999 BKN036 20/16 Q1024","temp":20,"dewp":16,"wdir":140,"wspd":6,"visib":"6+","altim":1024,"clouds":[{"cover":"BKN","base":3600}],"obsTime":1779570000},"SBMT":{"icaoId":"SBMT","flightCategory":"IFR","rawOb":"METAR SBMT 232100Z VRB02KT 3000 BR BKN011 BKN013 17/16 Q1023 RERA","temp":17,"dewp":16,"wdir":"VRB","wspd":2,"visib":1.86,"altim":1023,"clouds":[{"cover":"BKN","base":1100},{"cover":"BKN","base":1300}],"obsTime":1779570000},"SBST":{"icaoId":"SBST","flightCategory":"IFR","rawOb":"METAR SBST 232100Z 09003KT 7000 -DZ OVC008 18/18 Q1021","temp":18,"dewp":18,"wdir":90,"wspd":3,"visib":4.35,"altim":1021,"clouds":[{"cover":"OVC","base":800}],"obsTime":1779570000},"SBTA":{"icaoId":"SBTA","flightCategory":"VFR","rawOb":"METAR SBTA 232100Z VRB02KT 9999 FEW035 BKN050 BKN100 20/16 Q1022","temp":20,"dewp":16,"wdir":"VRB","wspd":2,"visib":"6+","altim":1022,"clouds":[{"cover":"FEW","base":3500},{"cover":"BKN","base":5000},{"cover":"BKN","base":10000}],"obsTime":1779570000},"SBIH":{"icaoId":"SBIH","flightCategory":"VFR","rawOb":"METAR SBIH 232100Z 21004KT 9999 FEW018 30/26 Q1010","temp":30,"dewp":26,"wdir":210,"wspd":4,"visib":"6+","altim":1010,"clouds":[{"cover":"FEW","base":1800}],"obsTime":1779570000}}}