{"updated":1783540747,"count":87,"data":{"SBSL":{"icaoId":"SBSL","flightCategory":"MVFR","rawOb":"METAR SBSL 081800Z 05013KT 9999 BKN020 FEW025TCU 29/24 Q1013","temp":29,"dewp":24,"wdir":50,"wspd":13,"visib":"6+","altim":1013,"clouds":[{"cover":"BKN","base":2000},{"cover":"FEW","base":2500}],"obsTime":1783533600},"SBSN":{"icaoId":"SBSN","flightCategory":"VFR","rawOb":"METAR SBSN 081800Z 08012KT 9999 FEW021 FEW025TCU 32/25 Q1012","temp":32,"dewp":25,"wdir":80,"wspd":12,"visib":"6+","altim":1012,"clouds":[{"cover":"FEW","base":2100},{"cover":"FEW","base":2500}],"obsTime":1783533600},"SBCG":{"icaoId":"SBCG","flightCategory":"VFR","rawOb":"METAR SBCG 081800Z 02005KT 280V080 CAVOK 26/15 Q1018","temp":26,"dewp":15,"wdir":20,"wspd":5,"visib":"6+","altim":1018,"clouds":[],"obsTime":1783533600},"SBBV":{"icaoId":"SBBV","flightCategory":"VFR","rawOb":"METAR SBBV 081800Z 17005KT 9999 SCT030 FEW035TCU BKN090 26/22 Q1014","temp":26,"dewp":22,"wdir":170,"wspd":5,"visib":"6+","altim":1014,"clouds":[{"cover":"SCT","base":3000},{"cover":"FEW","base":3500},{"cover":"BKN","base":9000}],"obsTime":1783533600},"SBEG":{"icaoId":"SBEG","flightCategory":"VFR","rawOb":"METAR SBEG 081800Z 09006KT 360V160 9999 SCT030 33/24 Q1012","temp":33,"dewp":24,"wdir":90,"wspd":6,"visib":"6+","altim":1012,"clouds":[{"cover":"SCT","base":3000}],"obsTime":1783533600},"SBSP":{"icaoId":"SBSP","flightCategory":"VFR","rawOb":"METAR SBSP 081800Z 19007KT 150V280 CAVOK 20/13 Q1021","temp":20,"dewp":13,"wdir":190,"wspd":7,"visib":"6+","altim":1021,"clouds":[],"obsTime":1783533600},"SBCF":{"icaoId":"SBCF","flightCategory":"VFR","rawOb":"METAR SBCF 081800Z 28009KT CAVOK 27/08 Q1020","temp":27,"dewp":8,"wdir":280,"wspd":9,"visib":"6+","altim":1020,"clouds":[],"obsTime":1783533600},"SBFZ":{"icaoId":"SBFZ","flightCategory":"VFR","rawOb":"METAR SBFZ 081800Z 09012KT 9999 FEW025 BKN100 28/21 Q1014","temp":28,"dewp":21,"wdir":90,"wspd":12,"visib":"6+","altim":1014,"clouds":[{"cover":"FEW","base":2500},{"cover":"BKN","base":10000}],"obsTime":1783533600},"SBBR":{"icaoId":"SBBR","flightCategory":"VFR","rawOb":"METAR SBBR 081800Z VRB03KT 9999 SCT045 27/09 Q1021","temp":27,"dewp":9,"wdir":"VRB","wspd":3,"visib":"6+","altim":1021,"clouds":[{"cover":"SCT","base":4500}],"obsTime":1783533600},"SBBE":{"icaoId":"SBBE","flightCategory":"MVFR","rawOb":"METAR SBBE 081800Z 34010KT 9999 VCSH BKN025 FEW030TCU 29/25 Q1013","temp":29,"dewp":25,"wdir":340,"wspd":10,"visib":"6+","altim":1013,"clouds":[{"cover":"BKN","base":2500},{"cover":"FEW","base":3000}],"obsTime":1783533600},"SBPV":{"icaoId":"SBPV","flightCategory":"VFR","rawOb":"METAR SBPV 081800Z 13004KT 9999 SCT040 32/20 Q1013","temp":32,"dewp":20,"wdir":130,"wspd":4,"visib":"6+","altim":1013,"clouds":[{"cover":"SCT","base":4000}],"obsTime":1783533600},"SBMO":{"icaoId":"SBMO","flightCategory":"MVFR","rawOb":"METAR SBMO 081800Z 12009KT 9999 BKN030 26/21 Q1017","temp":26,"dewp":21,"wdir":120,"wspd":9,"visib":"6+","altim":1017,"clouds":[{"cover":"BKN","base":3000}],"obsTime":1783533600},"SBCZ":{"icaoId":"SBCZ","flightCategory":"MVFR","rawOb":"METAR SBCZ 081800Z 10008KT 9999 BKN030 BKN100 29/24 Q1015","temp":29,"dewp":24,"wdir":100,"wspd":8,"visib":"6+","altim":1015,"clouds":[{"cover":"BKN","base":3000},{"cover":"BKN","base":10000}],"obsTime":1783533600},"SBNT":{"icaoId":"SBNT","flightCategory":"VFR","rawOb":"METAR SBNT 081800Z 14014KT 9999 SCT030 SCT090 28/22 Q1015","temp":28,"dewp":22,"wdir":140,"wspd":14,"visib":"6+","altim":1015,"clouds":[{"cover":"SCT","base":3000},{"cover":"SCT","base":9000}],"obsTime":1783533600},"SBCP":{"icaoId":"SBCP","flightCategory":"MVFR","rawOb":"METAR SBCP 081800Z 20011KT 9999 BKN030 23/16 Q1019","temp":23,"dewp":16,"wdir":200,"wspd":11,"visib":"6+","altim":1019,"clouds":[{"cover":"BKN","base":3000}],"obsTime":1783533600},"SBRF":{"icaoId":"SBRF","flightCategory":"VFR","rawOb":"METAR SBRF 081800Z 13009KT 9999 SCT020 BKN060 27/22 Q1016","temp":27,"dewp":22,"wdir":130,"wspd":9,"visib":"6+","altim":1016,"clouds":[{"cover":"SCT","base":2000},{"cover":"BKN","base":6000}],"obsTime":1783533600},"SBCT":{"icaoId":"SBCT","flightCategory":"VFR","rawOb":"METAR SBCT 081800Z 30005KT 240V360 CAVOK 20/M02 Q1021","temp":20,"dewp":-2,"wdir":300,"wspd":5,"visib":"6+","altim":1021,"clouds":[],"obsTime":1783533600},"SBCB":{"icaoId":"SBCB","flightCategory":"MVFR","rawOb":"METAR SBCB 081800Z 26011KT 9999 BKN030 21/14 Q1020","temp":21,"dewp":14,"wdir":260,"wspd":11,"visib":"6+","altim":1020,"clouds":[{"cover":"BKN","base":3000}],"obsTime":1783533600},"SBSG":{"icaoId":"SBSG","flightCategory":"VFR","rawOb":"METAR SBSG 081800Z 12010KT 090V170 9999 FEW020 SCT030 28/24 Q1016","temp":28,"dewp":24,"wdir":120,"wspd":10,"visib":"6+","altim":1016,"clouds":[{"cover":"FEW","base":2000},{"cover":"SCT","base":3000}],"obsTime":1783533600},"SBFL":{"icaoId":"SBFL","flightCategory":"VFR","rawOb":"METAR SBFL 081800Z 09009KT CAVOK 18/07 Q1020","temp":18,"dewp":7,"wdir":90,"wspd":9,"visib":"6+","altim":1020,"clouds":[],"obsTime":1783533600},"SBRB":{"icaoId":"SBRB","flightCategory":"VFR","rawOb":"METAR SBRB 081800Z 28003KT CAVOK 27/20 Q1016","temp":27,"dewp":20,"wdir":280,"wspd":3,"visib":"6+","altim":1016,"clouds":[],"obsTime":1783533600},"SBGL":{"icaoId":"SBGL","flightCategory":"VFR","rawOb":"METAR SBGL 081800Z 10005KT 060V160 9999 FEW020 SCT030 22/15 Q1019","temp":22,"dewp":15,"wdir":100,"wspd":5,"visib":"6+","altim":1019,"clouds":[{"cover":"FEW","base":2000},{"cover":"SCT","base":3000}],"obsTime":1783533600},"SBPJ":{"icaoId":"SBPJ","flightCategory":"VFR","rawOb":"METAR SBPJ 081800Z 34008KT 310V010 CAVOK 35/17 Q1014","temp":35,"dewp":17,"wdir":340,"wspd":8,"visib":"6+","altim":1014,"clouds":[],"obsTime":1783533600},"SBSV":{"icaoId":"SBSV","flightCategory":"VFR","rawOb":"METAR SBSV 081800Z 13007KT 9999 FEW023 27/22 Q1016","temp":27,"dewp":22,"wdir":130,"wspd":7,"visib":"6+","altim":1016,"clouds":[{"cover":"FEW","base":2300}],"obsTime":1783533600},"SBTE":{"icaoId":"SBTE","flightCategory":"VFR","rawOb":"METAR SBTE 081800Z 08003KT CAVOK 35/20 Q1011","temp":35,"dewp":20,"wdir":80,"wspd":3,"visib":"6+","altim":1011,"clouds":[],"obsTime":1783533600},"SBVT":{"icaoId":"SBVT","flightCategory":"VFR","rawOb":"METAR SBVT 081800Z 17013KT 9999 SCT019 24/18 Q1018","temp":24,"dewp":18,"wdir":170,"wspd":13,"visib":"6+","altim":1018,"clouds":[{"cover":"SCT","base":1900}],"obsTime":1783533600},"SBGO":{"icaoId":"SBGO","flightCategory":"VFR","rawOb":"METAR SBGO 081800Z 30004KT 260V350 CAVOK 30/12 Q1019","temp":30,"dewp":12,"wdir":300,"wspd":4,"visib":"6+","altim":1019,"clouds":[],"obsTime":1783533600},"SBMG":{"icaoId":"SBMG","flightCategory":"VFR","rawOb":"METAR SBMG 081800Z VRB03KT CAVOK 22/05 Q1019","temp":22,"dewp":5,"wdir":"VRB","wspd":3,"visib":"6+","altim":1019,"clouds":[],"obsTime":1783533600},"SBIL":{"icaoId":"SBIL","flightCategory":"VFR","rawOb":"METAR SBIL 081800Z 09005KT 9999 FEW020 28/23 Q1017","temp":28,"dewp":23,"wdir":90,"wspd":5,"visib":"6+","altim":1017,"clouds":[{"cover":"FEW","base":2000}],"obsTime":1783533600},"SBJU":{"icaoId":"SBJU","flightCategory":"VFR","rawOb":"METAR SBJU 081800Z 10005KT 9999 FEW022 34/12 Q1015","temp":34,"dewp":12,"wdir":100,"wspd":5,"visib":"6+","altim":1015,"clouds":[{"cover":"FEW","base":2200}],"obsTime":1783533600},"SBAT":{"icaoId":"SBAT","flightCategory":"VFR","rawOb":"METAR SBAT 081800Z 11004KT 9999 FEW045 35/16 Q1014","temp":35,"dewp":16,"wdir":110,"wspd":4,"visib":"6+","altim":1014,"clouds":[{"cover":"FEW","base":4500}],"obsTime":1783533600},"SBHT":{"icaoId":"SBHT","flightCategory":"MVFR","rawOb":"METAR SBHT 081800Z 10004KT 9999 BKN030 32/24 Q1013","temp":32,"dewp":24,"wdir":100,"wspd":4,"visib":"6+","altim":1013,"clouds":[{"cover":"BKN","base":3000}],"obsTime":1783533600},"SBME":{"icaoId":"SBME","flightCategory":"MVFR","rawOb":"METAR SBME 081800Z 19011KT 9999 OVC026 22/15 Q1019","temp":22,"dewp":15,"wdir":190,"wspd":11,"visib":"6+","altim":1019,"clouds":[{"cover":"OVC","base":2600}],"obsTime":1783533600},"SBMK":{"icaoId":"SBMK","flightCategory":"VFR","rawOb":"METAR SBMK 081800Z 04004KT 9999 SCT040 29/09 Q1018","temp":29,"dewp":9,"wdir":40,"wspd":4,"visib":"6+","altim":1018,"clouds":[{"cover":"SCT","base":4000}],"obsTime":1783533600},"SBUL":{"icaoId":"SBUL","flightCategory":"VFR","rawOb":"METAR SBUL 081800Z 27006KT 9999 FEW040 25/12 Q1021","temp":25,"dewp":12,"wdir":270,"wspd":6,"visib":"6+","altim":1021,"clouds":[{"cover":"FEW","base":4000}],"obsTime":1783533600},"SBUR":{"icaoId":"SBUR","flightCategory":"VFR","rawOb":"METAR SBUR 081800Z 26005KT 9999 FEW048 25/12 Q1021","temp":25,"dewp":12,"wdir":260,"wspd":5,"visib":"6+","altim":1021,"clouds":[{"cover":"FEW","base":4800}],"obsTime":1783533600},"SBFI":{"icaoId":"SBFI","flightCategory":"VFR","rawOb":"METAR SBFI 081800Z 02006KT CAVOK 22/04 Q1018","temp":22,"dewp":4,"wdir":20,"wspd":6,"visib":"6+","altim":1018,"clouds":[],"obsTime":1783533600},"SBKP":{"icaoId":"SBKP","flightCategory":"VFR","rawOb":"METAR SBKP 081800Z 29006KT CAVOK 22/11 Q1020","temp":22,"dewp":11,"wdir":290,"wspd":6,"visib":"6+","altim":1020,"clouds":[],"obsTime":1783533600},"SBMA":{"icaoId":"SBMA","flightCategory":"VFR","rawOb":"METAR SBMA 081800Z 04006KT 9999 SCT025 34/21 Q1012","temp":34,"dewp":21,"wdir":40,"wspd":6,"visib":"6+","altim":1012,"clouds":[{"cover":"SCT","base":2500}],"obsTime":1783533600},"SBLO":{"icaoId":"SBLO","flightCategory":"VFR","rawOb":"METAR SBLO 081800Z VRB03KT CAVOK 21/08 Q1020","temp":21,"dewp":8,"wdir":"VRB","wspd":3,"visib":"6+","altim":1020,"clouds":[],"obsTime":1783533600},"SBCR":{"icaoId":"SBCR","flightCategory":"VFR","rawOb":"METAR SBCR 081800Z 04010KT 360V060 9999 FEW040 27/17 Q1015","temp":27,"dewp":17,"wdir":40,"wspd":10,"visib":"6+","altim":1015,"clouds":[{"cover":"FEW","base":4000}],"obsTime":1783533600},"SBGR":{"icaoId":"SBGR","flightCategory":"VFR","rawOb":"METAR SBGR 081800Z 26005KT CAVOK 22/09 Q1021","temp":22,"dewp":9,"wdir":260,"wspd":5,"visib":"6+","altim":1021,"clouds":[],"obsTime":1783533600},"SBPA":{"icaoId":"SBPA","flightCategory":"VFR","rawOb":"METAR SBPA 081800Z 30004KT 240V030 CAVOK 18/05 Q1018","temp":18,"dewp":5,"wdir":300,"wspd":4,"visib":"6+","altim":1018,"clouds":[],"obsTime":1783533600},"SBMQ":{"icaoId":"SBMQ","flightCategory":"VFR","rawOb":"METAR SBMQ 081800Z 06010KT 030V090 9999 4000E VCSH SCT033 FEW040TCU SCT100 32/24 Q1013","temp":32,"dewp":24,"wdir":60,"wspd":10,"visib":"6+","altim":1013,"clouds":[{"cover":"SCT","base":3300},{"cover":"FEW","base":4000},{"cover":"SCT","base":10000}],"obsTime":1783533600},"SBDN":{"icaoId":"SBDN","flightCategory":"VFR","rawOb":"METAR SBDN 081800Z 33003KT CAVOK 25/10 Q1019","temp":25,"dewp":10,"wdir":330,"wspd":3,"visib":"6+","altim":1019,"clouds":[],"obsTime":1783533600},"SBPB":{"icaoId":"SBPB","flightCategory":"VFR","rawOb":"METAR SBPB 081800Z 06006KT 9999 SCT020 BKN100 27/24 Q1013","temp":27,"dewp":24,"wdir":60,"wspd":6,"visib":"6+","altim":1013,"clouds":[{"cover":"SCT","base":2000},{"cover":"BKN","base":10000}],"obsTime":1783533600},"SBAR":{"icaoId":"SBAR","flightCategory":"VFR","rawOb":"METAR SBAR 081800Z 03002KT 9999 FEW026 28/21 Q1016","temp":28,"dewp":21,"wdir":30,"wspd":2,"visib":"6+","altim":1016,"clouds":[{"cover":"FEW","base":2600}],"obsTime":1783533600},"SBTU":{"icaoId":"SBTU","flightCategory":"VFR","rawOb":"METAR SBTU 081800Z AUTO 17005KT 080V240 9999 // SCT030/// 30/23 Q1014","temp":30,"dewp":23,"wdir":170,"wspd":5,"visib":"6+","altim":1014,"clouds":[{"cover":"SCT","base":3000}],"obsTime":1783533600},"SBCJ":{"icaoId":"SBCJ","flightCategory":"VFR","rawOb":"METAR SBCJ 081800Z 00000KT 9999 BKN035 30/20 Q1016","temp":30,"dewp":20,"wdir":0,"wspd":0,"visib":"6+","altim":1016,"clouds":[{"cover":"BKN","base":3500}],"obsTime":1783533600},"SBTF":{"icaoId":"SBTF","flightCategory":"VFR","rawOb":"METAR SBTF 081800Z 17008KT 9999 SCT020 33/24 Q1012","temp":33,"dewp":24,"wdir":170,"wspd":8,"visib":"6+","altim":1012,"clouds":[{"cover":"SCT","base":2000}],"obsTime":1783533600},"SBOI":{"icaoId":"SBOI","flightCategory":"VFR","rawOb":"METAR SBOI 081800Z AUTO 13008KT 060V160 9999 -RA BKN034 29/24 Q1014","temp":29,"dewp":24,"wdir":130,"wspd":8,"visib":"6+","altim":1014,"clouds":[{"cover":"BKN","base":3400}],"obsTime":1783533600},"SBSJ":{"icaoId":"SBSJ","flightCategory":"VFR","rawOb":"METAR SBSJ 081800Z 22005KT 180V260 CAVOK 22/11 Q1020","temp":22,"dewp":11,"wdir":220,"wspd":5,"visib":"6+","altim":1020,"clouds":[],"obsTime":1783533600},"SBPS":{"icaoId":"SBPS","flightCategory":"VFR","rawOb":"METAR SBPS 081800Z 07009KT 9999 SCT022 27/22 Q1017","temp":27,"dewp":22,"wdir":70,"wspd":9,"visib":"6+","altim":1017,"clouds":[{"cover":"SCT","base":2200}],"obsTime":1783533600},"SBPL":{"icaoId":"SBPL","flightCategory":"VFR","rawOb":"METAR SBPL 081800Z 10014KT CAVOK 33/14 Q1015","temp":33,"dewp":14,"wdir":100,"wspd":14,"visib":"6+","altim":1015,"clouds":[],"obsTime":1783533600},"SBCA":{"icaoId":"SBCA","flightCategory":"VFR","rawOb":"METAR SBCA 081800Z 04007KT CAVOK 21/M02 Q1020","temp":21,"dewp":-2,"wdir":40,"wspd":7,"visib":"6+","altim":1020,"clouds":[],"obsTime":1783533600},"SBCO":{"icaoId":"SBCO","flightCategory":"VFR","rawOb":"METAR SBCO 081800Z 24003KT CAVOK 19/05 Q1019","temp":19,"dewp":5,"wdir":240,"wspd":3,"visib":"6+","altim":1019,"clouds":[],"obsTime":1783533600},"SBSM":{"icaoId":"SBSM","flightCategory":"VFR","rawOb":"METAR SBSM 081800Z VRB02KT CAVOK 18/09 Q1018","temp":18,"dewp":9,"wdir":"VRB","wspd":2,"visib":"6+","altim":1018,"clouds":[],"obsTime":1783533600},"SBKG":{"icaoId":"SBKG","flightCategory":"VFR","rawOb":"METAR SBKG 081800Z 11007KT 9999 SCT028 SCT090 27/21 Q1018","temp":27,"dewp":21,"wdir":110,"wspd":7,"visib":"6+","altim":1018,"clouds":[{"cover":"SCT","base":2800},{"cover":"SCT","base":9000}],"obsTime":1783533600},"SBCC":{"icaoId":"SBCC","flightCategory":"VFR","rawOb":"METAR SBCC 081800Z 06009KT CAVOK 33/14 Q1015","temp":33,"dewp":14,"wdir":60,"wspd":9,"visib":"6+","altim":1015,"clouds":[],"obsTime":1783533600},"SBGM":{"icaoId":"SBGM","flightCategory":"VFR","rawOb":"METAR SBGM 081800Z 16005KT CAVOK 30/13 Q1016","temp":30,"dewp":13,"wdir":160,"wspd":5,"visib":"6+","altim":1016,"clouds":[],"obsTime":1783533600},"SBVH":{"icaoId":"SBVH","flightCategory":"VFR","rawOb":"METAR SBVH 081800Z 06008KT 030V110 9999 SCT020 30/18 Q1017","temp":30,"dewp":18,"wdir":60,"wspd":8,"visib":"6+","altim":1017,"clouds":[{"cover":"SCT","base":2000}],"obsTime":1783533600},"SBAX":{"icaoId":"SBAX","flightCategory":"VFR","rawOb":"METAR SBAX 081800Z 25004KT 9999 FEW035 24/09 Q1021","temp":24,"dewp":9,"wdir":250,"wspd":4,"visib":"6+","altim":1021,"clouds":[{"cover":"FEW","base":3500}],"obsTime":1783533600},"SBBH":{"icaoId":"SBBH","flightCategory":"VFR","rawOb":"METAR SBBH 081800Z 26006KT 9999 FEW048 26/08 Q1020","temp":26,"dewp":8,"wdir":260,"wspd":6,"visib":"6+","altim":1020,"clouds":[{"cover":"FEW","base":4800}],"obsTime":1783533600},"SBBQ":{"icaoId":"SBBQ","flightCategory":"VFR","rawOb":"METAR SBBQ 081800Z 31006KT 260V340 9999 FEW030 21/09 Q1024","temp":21,"dewp":9,"wdir":310,"wspd":6,"visib":"6+","altim":1024,"clouds":[{"cover":"FEW","base":3000}],"obsTime":1783533600},"SBBU":{"icaoId":"SBBU","flightCategory":"VFR","rawOb":"METAR SBBU 081800Z 24002KT CAVOK 24/12 Q1020","temp":24,"dewp":12,"wdir":240,"wspd":2,"visib":"6+","altim":1020,"clouds":[],"obsTime":1783533600},"SBIP":{"icaoId":"SBIP","flightCategory":"VFR","rawOb":"METAR SBIP 081800Z AUTO 18003KT 130V230 CAVOK 28/15 Q1018","temp":28,"dewp":15,"wdir":180,"wspd":3,"visib":"6+","altim":1018,"clouds":[],"obsTime":1783533600},"SBSC":{"icaoId":"SBSC","flightCategory":"VFR","rawOb":"METAR SBSC 081800Z 20007KT 9999 SCT028 BKN036 20/15 Q1020","temp":20,"dewp":15,"wdir":200,"wspd":7,"visib":"6+","altim":1020,"clouds":[{"cover":"SCT","base":2800},{"cover":"BKN","base":3600}],"obsTime":1783533600},"SBSR":{"icaoId":"SBSR","flightCategory":"VFR","rawOb":"METAR SBSR 081800Z 25003KT CAVOK 26/10 Q1020","temp":26,"dewp":10,"wdir":250,"wspd":3,"visib":"6+","altim":1020,"clouds":[],"obsTime":1783533600},"SBES":{"icaoId":"SBES","flightCategory":"VFR","rawOb":"METAR SBES 081800Z 22010KT 190V250 9999 SCT020 SCT040 20/// Q1019","temp":null,"dewp":null,"wdir":220,"wspd":10,"visib":"6+","altim":1019,"clouds":[{"cover":"SCT","base":2000},{"cover":"SCT","base":4000}],"obsTime":1783533600},"SBPP":{"icaoId":"SBPP","flightCategory":"VFR","rawOb":"METAR SBPP 081800Z 04014KT CAVOK 23/13 Q1018","temp":23,"dewp":13,"wdir":40,"wspd":14,"visib":"6+","altim":1018,"clouds":[],"obsTime":1783533600},"SBTT":{"icaoId":"SBTT","flightCategory":"VFR","rawOb":"METAR SBTT 081800Z 24005KT 9000 SCT023 BKN070 25/23 Q1015","temp":25,"dewp":23,"wdir":240,"wspd":5,"visib":5.59,"altim":1015,"clouds":[{"cover":"SCT","base":2300},{"cover":"BKN","base":7000}],"obsTime":1783533600},"SBUY":{"icaoId":"SBUY","flightCategory":"VFR","rawOb":"METAR SBUY 081800Z 24002KT 9999 SCT025 30/25 Q1012","temp":30,"dewp":25,"wdir":240,"wspd":2,"visib":"6+","altim":1012,"clouds":[{"cover":"SCT","base":2500}],"obsTime":1783533600},"SBAU":{"icaoId":"SBAU","flightCategory":"VFR","rawOb":"METAR SBAU 081800Z 16006KT CAVOK 26/14 Q1019","temp":26,"dewp":14,"wdir":160,"wspd":6,"visib":"6+","altim":1019,"clouds":[],"obsTime":1783533600},"SBJP":{"icaoId":"SBJP","flightCategory":"VFR","rawOb":"METAR SBJP 081800Z 11012KT 080V140 9999 SCT025 28/23 Q1016","temp":28,"dewp":23,"wdir":110,"wspd":12,"visib":"6+","altim":1016,"clouds":[{"cover":"SCT","base":2500}],"obsTime":1783533600},"SBAN":{"icaoId":"SBAN","flightCategory":"VFR","rawOb":"METAR SBAN 081800Z 08003KT 9999 FEW045 SCT060 26/10 Q1022","temp":26,"dewp":10,"wdir":80,"wspd":3,"visib":"6+","altim":1022,"clouds":[{"cover":"FEW","base":4500},{"cover":"SCT","base":6000}],"obsTime":1783533600},"SBJV":{"icaoId":"SBJV","flightCategory":"VFR","rawOb":"METAR SBJV 081800Z 12005KT 070V150 9999 FEW025 19/13 Q1020","temp":19,"dewp":13,"wdir":120,"wspd":5,"visib":"6+","altim":1020,"clouds":[{"cover":"FEW","base":2500}],"obsTime":1783533600},"SBNM":{"icaoId":"SBNM","flightCategory":"VFR","rawOb":"METAR SBNM 081800Z AUTO 01005KT 320V060 CAVOK 21/M00 Q1018","temp":21,"dewp":0,"wdir":10,"wspd":5,"visib":"6+","altim":1018,"clouds":[],"obsTime":1783533600},"SBPF":{"icaoId":"SBPF","flightCategory":"VFR","rawOb":"METAR SBPF 081800Z 03003KT CAVOK 17/03 Q1021","temp":17,"dewp":3,"wdir":30,"wspd":3,"visib":"6+","altim":1021,"clouds":[],"obsTime":1783533600},"SBLE":{"icaoId":"SBLE","flightCategory":"VFR","rawOb":"METAR SBLE 081800Z AUTO 36004KT 300V050 CAVOK ///// Q1018","temp":null,"dewp":null,"wdir":360,"wspd":4,"visib":"6+","altim":1018,"clouds":[],"obsTime":1783533600},"SBIH":{"icaoId":"SBIH","flightCategory":"VFR","rawOb":"METAR SBIH 081800Z 36007KT 9999 SCT017 34/25 Q1012","temp":34,"dewp":25,"wdir":360,"wspd":7,"visib":"6+","altim":1012,"clouds":[{"cover":"SCT","base":1700}],"obsTime":1783533600},"SBAF":{"icaoId":"SBAF","flightCategory":"VFR","rawOb":"METAR SBAF 081800Z 18014KT 9999 FEW020 SCT035 21/16 Q1020","temp":21,"dewp":16,"wdir":180,"wspd":14,"visib":"6+","altim":1020,"clouds":[{"cover":"FEW","base":2000},{"cover":"SCT","base":3500}],"obsTime":1783533600},"SBGW":{"icaoId":"SBGW","flightCategory":"VFR","rawOb":"METAR SBGW 081800Z VRB03KT 9999 FEW025 23/10 Q1019","temp":23,"dewp":10,"wdir":"VRB","wspd":3,"visib":"6+","altim":1019,"clouds":[{"cover":"FEW","base":2500}],"obsTime":1783533600},"SBJR":{"icaoId":"SBJR","flightCategory":"VFR","rawOb":"METAR SBJR 081800Z 22005KT 9999 SCT025 BKN040 23/15 Q1020","temp":23,"dewp":15,"wdir":220,"wspd":5,"visib":"6+","altim":1020,"clouds":[{"cover":"SCT","base":2500},{"cover":"BKN","base":4000}],"obsTime":1783533600},"SBLS":{"icaoId":"SBLS","flightCategory":"VFR","rawOb":"METAR SBLS 081800Z 26006KT 9999 FEW040 26/09 Q1020","temp":26,"dewp":9,"wdir":260,"wspd":6,"visib":"6+","altim":1020,"clouds":[{"cover":"FEW","base":4000}],"obsTime":1783533600},"SBMT":{"icaoId":"SBMT","flightCategory":"VFR","rawOb":"METAR SBMT 081800Z 26006KT CAVOK 22/08 Q1020","temp":22,"dewp":8,"wdir":260,"wspd":6,"visib":"6+","altim":1020,"clouds":[],"obsTime":1783533600},"SBST":{"icaoId":"SBST","flightCategory":"MVFR","rawOb":"METAR SBST 081800Z 15004KT 8000 BKN023 18/14 Q1020","temp":18,"dewp":14,"wdir":150,"wspd":4,"visib":4.97,"altim":1020,"clouds":[{"cover":"BKN","base":2300}],"obsTime":1783533600},"SBTA":{"icaoId":"SBTA","flightCategory":"VFR","rawOb":"METAR SBTA 081800Z 23005KT 210V290 9999 FEW035 23/13 Q1019","temp":23,"dewp":13,"wdir":230,"wspd":5,"visib":"6+","altim":1019,"clouds":[{"cover":"FEW","base":3500}],"obsTime":1783533600}}}