{"updated":1773736634,"count":51,"data":{"SBFL":{"icaoId":"SBFL","flightCategory":"VFR","rawOb":"METAR SBFL 170700Z 35007KT 9999 FEW035 25/23 Q1012","temp":25,"dewp":23,"wdir":350,"wspd":7,"visib":"6+","altim":1012,"clouds":[{"cover":"FEW","base":3500}],"obsTime":1773730800},"SBMK":{"icaoId":"SBMK","flightCategory":"VFR","rawOb":"METAR SBMK 170800Z 19002KT 9999 FEW003 21/21 Q1014","temp":21,"dewp":21,"wdir":190,"wspd":2,"visib":"6+","altim":1014,"clouds":[{"cover":"FEW","base":300}],"obsTime":1773734400},"SBBV":{"icaoId":"SBBV","flightCategory":"VFR","rawOb":"METAR SBBV 170700Z 08010KT CAVOK 25/21 Q1010","temp":25,"dewp":21,"wdir":80,"wspd":10,"visib":"6+","altim":1010,"clouds":[],"obsTime":1773730800},"SBMO":{"icaoId":"SBMO","flightCategory":"MVFR","rawOb":"METAR SBMO 170700Z 04003KT 010V100 9999 -RA FEW015 BKN020 24/24 Q1011","temp":24,"dewp":24,"wdir":40,"wspd":3,"visib":"6+","altim":1011,"clouds":[{"cover":"FEW","base":1500},{"cover":"BKN","base":2000}],"obsTime":1773730800},"SBCG":{"icaoId":"SBCG","flightCategory":"VFR","rawOb":"METAR SBCG 170700Z 34004KT 9999 FEW035 BKN100 23/21 Q1011","temp":23,"dewp":21,"wdir":340,"wspd":4,"visib":"6+","altim":1011,"clouds":[{"cover":"FEW","base":3500},{"cover":"BKN","base":10000}],"obsTime":1773730800},"SBMQ":{"icaoId":"SBMQ","flightCategory":"VFR","rawOb":"METAR SBMQ 170700Z 22002KT 9999 FEW005 BKN050 25/25 Q1009","temp":25,"dewp":25,"wdir":220,"wspd":2,"visib":"6+","altim":1009,"clouds":[{"cover":"FEW","base":500},{"cover":"BKN","base":5000}],"obsTime":1773730800},"SBFZ":{"icaoId":"SBFZ","flightCategory":"VFR","rawOb":"METAR SBFZ 170700Z 13001KT 9999 SCT021 26/24 Q1008","temp":26,"dewp":24,"wdir":130,"wspd":1,"visib":"6+","altim":1008,"clouds":[{"cover":"SCT","base":2100}],"obsTime":1773730800},"SBNT":{"icaoId":"SBNT","flightCategory":"MVFR","rawOb":"METAR SBNT 170700Z VRB03KT 6000 -RA SCT010 BKN020 25/23 Q1010","temp":25,"dewp":23,"wdir":"VRB","wspd":3,"visib":3.73,"altim":1010,"clouds":[{"cover":"SCT","base":1000},{"cover":"BKN","base":2000}],"obsTime":1773730800},"SBBR":{"icaoId":"SBBR","flightCategory":"VFR","rawOb":"METAR SBBR 170700Z VRB02KT 9999 FEW040 BKN090 21/20 Q1016","temp":21,"dewp":20,"wdir":"VRB","wspd":2,"visib":"6+","altim":1016,"clouds":[{"cover":"FEW","base":4000},{"cover":"BKN","base":9000}],"obsTime":1773730800},"SBPA":{"icaoId":"SBPA","flightCategory":"VFR","rawOb":"METAR SBPA 170700Z 09006KT CAVOK 24/22 Q1008","temp":24,"dewp":22,"wdir":90,"wspd":6,"visib":"6+","altim":1008,"clouds":[],"obsTime":1773730800},"SBGL":{"icaoId":"SBGL","flightCategory":"VFR","rawOb":"METAR SBGL 170700Z 13004KT 9999 FEW009 22/21 Q1011","temp":22,"dewp":21,"wdir":130,"wspd":4,"visib":"6+","altim":1011,"clouds":[{"cover":"FEW","base":900}],"obsTime":1773730800},"SBPJ":{"icaoId":"SBPJ","flightCategory":"VFR","rawOb":"METAR SBPJ 170700Z 12002KT 9999 FEW006 SCT016 BKN070 24/23 Q1011","temp":24,"dewp":23,"wdir":120,"wspd":2,"visib":"6+","altim":1011,"clouds":[{"cover":"FEW","base":600},{"cover":"SCT","base":1600},{"cover":"BKN","base":7000}],"obsTime":1773730800},"SBGO":{"icaoId":"SBGO","flightCategory":"VFR","rawOb":"METAR SBGO 170700Z 35004KT 9999 -RA FEW004 FEW045TCU OVC100 21/21 Q1015","temp":21,"dewp":21,"wdir":350,"wspd":4,"visib":"6+","altim":1015,"clouds":[{"cover":"FEW","base":400},{"cover":"FEW","base":4500},{"cover":"OVC","base":10000}],"obsTime":1773730800},"SBPV":{"icaoId":"SBPV","flightCategory":"VFR","rawOb":"METAR SBPV 170700Z 00000KT 9999 FEW030 25/24 Q1008","temp":25,"dewp":24,"wdir":0,"wspd":0,"visib":"6+","altim":1008,"clouds":[{"cover":"FEW","base":3000}],"obsTime":1773730800},"SBRB":{"icaoId":"SBRB","flightCategory":"MVFR","rawOb":"METAR SBRB 170700Z 34003KT 8000 FEW020 SCT100 25/23 Q1008","temp":25,"dewp":23,"wdir":340,"wspd":3,"visib":4.97,"altim":1008,"clouds":[{"cover":"FEW","base":2000},{"cover":"SCT","base":10000}],"obsTime":1773730800},"SBCT":{"icaoId":"SBCT","flightCategory":"VFR","rawOb":"METAR SBCT 170700Z 09006KT 060V120 9000 FEW010 18/18 Q1016","temp":18,"dewp":18,"wdir":90,"wspd":6,"visib":5.59,"altim":1016,"clouds":[{"cover":"FEW","base":1000}],"obsTime":1773730800},"SBBE":{"icaoId":"SBBE","flightCategory":"VFR","rawOb":"METAR SBBE 170700Z 03003KT 9999 SCT009 BKN062 BKN100 25/24 Q1010","temp":25,"dewp":24,"wdir":30,"wspd":3,"visib":"6+","altim":1010,"clouds":[{"cover":"SCT","base":900},{"cover":"BKN","base":6200},{"cover":"BKN","base":10000}],"obsTime":1773730800},"SBRF":{"icaoId":"SBRF","flightCategory":"VFR","rawOb":"METAR SBRF 170700Z 03004KT 360V120 9999 FEW020 28/24 Q1010","temp":28,"dewp":24,"wdir":30,"wspd":4,"visib":"6+","altim":1010,"clouds":[{"cover":"FEW","base":2000}],"obsTime":1773730800},"SBGR":{"icaoId":"SBGR","flightCategory":"VFR","rawOb":"METAR SBGR 170700Z 11002KT CAVOK 18/17 Q1015","temp":18,"dewp":17,"wdir":110,"wspd":2,"visib":"6+","altim":1015,"clouds":[],"obsTime":1773730800},"SBSG":{"icaoId":"SBSG","flightCategory":"VFR","rawOb":"METAR SBSG 170700Z 07003KT 9999 FEW021 26/25 Q1010","temp":26,"dewp":25,"wdir":70,"wspd":3,"visib":"6+","altim":1010,"clouds":[{"cover":"FEW","base":2100}],"obsTime":1773730800},"SBSL":{"icaoId":"SBSL","flightCategory":"IFR","rawOb":"SPECI SBSL 170639Z 07008KT 4000 TSRA BR FEW006 BKN010 FEW020CB BKN070 25/24 Q1009","temp":25,"dewp":24,"wdir":70,"wspd":8,"visib":2.49,"altim":1009,"clouds":[{"cover":"FEW","base":600},{"cover":"BKN","base":1000},{"cover":"FEW","base":2000},{"cover":"BKN","base":7000}],"obsTime":1773729540},"SBJU":{"icaoId":"SBJU","flightCategory":"MVFR","rawOb":"METAR SBJU 170700Z 00000KT 9999 BKN020 24/22 Q1013","temp":24,"dewp":22,"wdir":0,"wspd":0,"visib":"6+","altim":1013,"clouds":[{"cover":"BKN","base":2000}],"obsTime":1773730800},"SBVT":{"icaoId":"SBVT","flightCategory":"VFR","rawOb":"METAR SBVT 170700Z 32001KT 9999 FEW025 21/21 Q1012","temp":21,"dewp":21,"wdir":320,"wspd":1,"visib":"6+","altim":1012,"clouds":[{"cover":"FEW","base":2500}],"obsTime":1773730800},"SBEG":{"icaoId":"SBEG","flightCategory":"VFR","rawOb":"METAR SBEG 170700Z 05004KT CAVOK 24/24 Q1009","temp":24,"dewp":24,"wdir":50,"wspd":4,"visib":"6+","altim":1009,"clouds":[],"obsTime":1773730800},"SBSN":{"icaoId":"SBSN","flightCategory":"VFR","rawOb":"METAR SBSN 170700Z 11010KT 9999 TS VCSH SCT015 FEW020CB OVC073 26/24 Q1009","temp":26,"dewp":24,"wdir":110,"wspd":10,"visib":"6+","altim":1009,"clouds":[{"cover":"SCT","base":1500},{"cover":"FEW","base":2000},{"cover":"OVC","base":7300}],"obsTime":1773730800},"SBCF":{"icaoId":"SBCF","flightCategory":"VFR","rawOb":"METAR SBCF 170700Z 19002KT CAVOK 20/19 Q1016","temp":20,"dewp":19,"wdir":190,"wspd":2,"visib":"6+","altim":1016,"clouds":[],"obsTime":1773730800},"SBSP":{"icaoId":"SBSP","flightCategory":"VFR","rawOb":"METAR SBSP 170700Z AUTO 15003KT 100V170 CAVOK 19/17 Q1016","temp":19,"dewp":17,"wdir":150,"wspd":3,"visib":"6+","altim":1016,"clouds":[],"obsTime":1773730800},"SBKP":{"icaoId":"SBKP","flightCategory":"VFR","rawOb":"METAR SBKP 170700Z 12008KT CAVOK 20/17 Q1014","temp":20,"dewp":17,"wdir":120,"wspd":8,"visib":"6+","altim":1014,"clouds":[],"obsTime":1773730800},"SBSV":{"icaoId":"SBSV","flightCategory":"VFR","rawOb":"METAR SBSV 170700Z 35002KT 9999 FEW024 25/21 Q1011","temp":25,"dewp":21,"wdir":350,"wspd":2,"visib":"6+","altim":1011,"clouds":[{"cover":"FEW","base":2400}],"obsTime":1773730800},"SBFI":{"icaoId":"SBFI","flightCategory":"VFR","rawOb":"METAR SBFI 170700Z 10002KT 9999 -RA FEW006 BKN090 21/21 Q1009","temp":21,"dewp":21,"wdir":100,"wspd":2,"visib":"6+","altim":1009,"clouds":[{"cover":"FEW","base":600},{"cover":"BKN","base":9000}],"obsTime":1773730800},"SBMG":{"icaoId":"SBMG","flightCategory":"VFR","rawOb":"METAR SBMG 170700Z AUTO 05006KT CAVOK 24/16 Q1010","temp":24,"dewp":16,"wdir":50,"wspd":6,"visib":"6+","altim":1010,"clouds":[],"obsTime":1773730800},"SBTE":{"icaoId":"SBTE","flightCategory":"VFR","rawOb":"METAR SBTE 170700Z 19007KT 9999 FEW016 BKN090 24/22 Q1009","temp":24,"dewp":22,"wdir":190,"wspd":7,"visib":"6+","altim":1009,"clouds":[{"cover":"FEW","base":1600},{"cover":"BKN","base":9000}],"obsTime":1773730800},"SBLO":{"icaoId":"SBLO","flightCategory":"VFR","rawOb":"METAR SBLO 170700Z 06003KT CAVOK 23/17 Q1012","temp":23,"dewp":17,"wdir":60,"wspd":3,"visib":"6+","altim":1012,"clouds":[],"obsTime":1773730800},"SBUL":{"icaoId":"SBUL","flightCategory":"VFR","rawOb":"METAR SBUL 170700Z 08005KT 9999 3000W -RA FEW001 SCT035 FEW040TCU 21/20 Q1015","temp":21,"dewp":20,"wdir":80,"wspd":5,"visib":"6+","altim":1015,"clouds":[{"cover":"FEW","base":100},{"cover":"SCT","base":3500},{"cover":"FEW","base":4000}],"obsTime":1773730800},"SBUR":{"icaoId":"SBUR","flightCategory":"VFR","rawOb":"METAR SBUR 170700Z 01005KT CAVOK 23/21 Q1014","temp":23,"dewp":21,"wdir":10,"wspd":5,"visib":"6+","altim":1014,"clouds":[],"obsTime":1773730800},"SBMA":{"icaoId":"SBMA","flightCategory":"MVFR","rawOb":"METAR SBMA 170700Z 10005KT 9999 TS VCSH BKN010 FEW020CB BKN080 26/24 Q1009","temp":26,"dewp":24,"wdir":100,"wspd":5,"visib":"6+","altim":1009,"clouds":[{"cover":"BKN","base":1000},{"cover":"FEW","base":2000},{"cover":"BKN","base":8000}],"obsTime":1773730800},"SBME":{"icaoId":"SBME","flightCategory":"VFR","rawOb":"METAR SBME 170700Z 01002KT CAVOK 21/19 Q1012","temp":21,"dewp":19,"wdir":10,"wspd":2,"visib":"6+","altim":1012,"clouds":[],"obsTime":1773730800},"SBSJ":{"icaoId":"SBSJ","flightCategory":"IFR","rawOb":"SPECI SBSJ 170830Z 16002KT 4000 BR NSC 17/16 Q1016","temp":17,"dewp":16,"wdir":160,"wspd":2,"visib":2.49,"altim":1016,"clouds":[],"obsTime":1773736200},"SBAR":{"icaoId":"SBAR","flightCategory":"VFR","rawOb":"METAR SBAR 170700Z 10008KT 9999 FEW027 28/22 Q1011","temp":28,"dewp":22,"wdir":100,"wspd":8,"visib":"6+","altim":1011,"clouds":[{"cover":"FEW","base":2700}],"obsTime":1773730800},"SBAX":{"icaoId":"SBAX","flightCategory":"VFR","rawOb":"METAR SBAX 170700Z AUTO 10003KT CAVOK ///// Q1016","temp":null,"dewp":null,"wdir":100,"wspd":3,"visib":"6+","altim":1016,"clouds":[],"obsTime":1773730800},"SBSR":{"icaoId":"SBSR","flightCategory":"VFR","rawOb":"METAR SBSR 170700Z 03003KT CAVOK 24/21 Q1012","temp":24,"dewp":21,"wdir":30,"wspd":3,"visib":"6+","altim":1012,"clouds":[],"obsTime":1773730800},"SBDN":{"icaoId":"SBDN","flightCategory":"VFR","rawOb":"METAR SBDN 170700Z 05003KT CAVOK 24/18 Q1010","temp":24,"dewp":18,"wdir":50,"wspd":3,"visib":"6+","altim":1010,"clouds":[],"obsTime":1773730800},"SBIP":{"icaoId":"SBIP","flightCategory":"MVFR","rawOb":"METAR SBIP 170700Z AUTO VRB02KT 9999 BKN022 BKN029 24/24 Q1013","temp":24,"dewp":24,"wdir":"VRB","wspd":2,"visib":"6+","altim":1013,"clouds":[{"cover":"BKN","base":2200},{"cover":"BKN","base":2900}],"obsTime":1773730800},"SBKG":{"icaoId":"SBKG","flightCategory":"MVFR","rawOb":"METAR SBKG 170700Z 10006KT 9999 BKN010 23/22 Q1013","temp":23,"dewp":22,"wdir":100,"wspd":6,"visib":"6+","altim":1013,"clouds":[{"cover":"BKN","base":1000}],"obsTime":1773730800},"SBOI":{"icaoId":"SBOI","flightCategory":"VFR","rawOb":"METAR SBOI 170700Z AUTO 01003KT CAVOK 24/23 Q1010","temp":24,"dewp":23,"wdir":10,"wspd":3,"visib":"6+","altim":1010,"clouds":[],"obsTime":1773730800},"SBPL":{"icaoId":"SBPL","flightCategory":"VFR","rawOb":"METAR SBPL 170700Z 14004KT CAVOK 22/19 Q1012","temp":22,"dewp":19,"wdir":140,"wspd":4,"visib":"6+","altim":1012,"clouds":[],"obsTime":1773730800},"SBPS":{"icaoId":"SBPS","flightCategory":"MVFR","rawOb":"METAR SBPS 170700Z 23003KT 6000 SCT004 BKN016 24/23 Q1012","temp":24,"dewp":23,"wdir":230,"wspd":3,"visib":3.73,"altim":1012,"clouds":[{"cover":"SCT","base":400},{"cover":"BKN","base":1600}],"obsTime":1773730800},"SBSC":{"icaoId":"SBSC","flightCategory":"VFR","rawOb":"METAR SBSC 170700Z 35003KT 9999 FEW012 22/21 Q1013","temp":22,"dewp":21,"wdir":350,"wspd":3,"visib":"6+","altim":1013,"clouds":[{"cover":"FEW","base":1200}],"obsTime":1773730800},"SBAN":{"icaoId":"SBAN","flightCategory":"VFR","rawOb":"METAR SBAN 170700Z 00000KT 9999 -RA SCT003 SCT020 FEW035TCU BKN070 20/19 Q1017","temp":20,"dewp":19,"wdir":0,"wspd":0,"visib":"6+","altim":1017,"clouds":[{"cover":"SCT","base":300},{"cover":"SCT","base":2000},{"cover":"FEW","base":3500},{"cover":"BKN","base":7000}],"obsTime":1773730800},"SBJP":{"icaoId":"SBJP","flightCategory":"MVFR","rawOb":"METAR SBJP 170700Z 24003KT 9999 BKN020 BKN070 25/23 Q1010","temp":25,"dewp":23,"wdir":240,"wspd":3,"visib":"6+","altim":1010,"clouds":[{"cover":"BKN","base":2000},{"cover":"BKN","base":7000}],"obsTime":1773730800},"SBLE":{"icaoId":"SBLE","flightCategory":"MVFR","rawOb":"METAR SBLE 170700Z AUTO 07003KT 9999 SCT016 OVC025 22/22 Q1015","temp":22,"dewp":22,"wdir":70,"wspd":3,"visib":"6+","altim":1015,"clouds":[{"cover":"SCT","base":1600},{"cover":"OVC","base":2500}],"obsTime":1773730800}}}