{"updated":1782324863,"count":86,"data":{"SBKP":{"icaoId":"SBKP","flightCategory":"LIFR","rawOb":"SPECI SBKP 241617Z 23003KT 180V260 2500 -RA BR BKN002 OVC007 15/14 Q1019","temp":15,"dewp":14,"wdir":230,"wspd":3,"visib":1.55,"altim":1019,"clouds":[{"cover":"BKN","base":200},{"cover":"OVC","base":700}],"obsTime":1782317820},"SBLO":{"icaoId":"SBLO","flightCategory":"VFR","rawOb":"METAR SBLO 241700Z 20004KT 9999 FEW020 14/08 Q1020","temp":14,"dewp":8,"wdir":200,"wspd":4,"visib":"6+","altim":1020,"clouds":[{"cover":"FEW","base":2000}],"obsTime":1782320400},"SBCF":{"icaoId":"SBCF","flightCategory":"VFR","rawOb":"METAR SBCF 241700Z 02004KT 9999 FEW030 26/13 Q1017","temp":26,"dewp":13,"wdir":20,"wspd":4,"visib":"6+","altim":1017,"clouds":[{"cover":"FEW","base":3000}],"obsTime":1782320400},"SBMA":{"icaoId":"SBMA","flightCategory":"VFR","rawOb":"METAR SBMA 241700Z 20004KT 9999 SCT020 34/21 Q1010","temp":34,"dewp":21,"wdir":200,"wspd":4,"visib":"6+","altim":1010,"clouds":[{"cover":"SCT","base":2000}],"obsTime":1782320400},"SBEG":{"icaoId":"SBEG","flightCategory":"VFR","rawOb":"METAR SBEG 241700Z 29004KT 240V350 9999 SCT025 31/25 Q1012","temp":31,"dewp":25,"wdir":290,"wspd":4,"visib":"6+","altim":1012,"clouds":[{"cover":"SCT","base":2500}],"obsTime":1782320400},"SBME":{"icaoId":"SBME","flightCategory":"VFR","rawOb":"METAR SBME 241700Z 17008KT 110V210 CAVOK 25/21 Q1013","temp":25,"dewp":21,"wdir":170,"wspd":8,"visib":"6+","altim":1013,"clouds":[],"obsTime":1782320400},"SBCG":{"icaoId":"SBCG","flightCategory":"VFR","rawOb":"METAR SBCG 241700Z 13008KT 100V170 CAVOK 13/06 Q1021","temp":13,"dewp":6,"wdir":130,"wspd":8,"visib":"6+","altim":1021,"clouds":[],"obsTime":1782320400},"SBFI":{"icaoId":"SBFI","flightCategory":"VFR","rawOb":"METAR SBFI 241700Z 16004KT CAVOK 14/02 Q1021","temp":14,"dewp":2,"wdir":160,"wspd":4,"visib":"6+","altim":1021,"clouds":[],"obsTime":1782320400},"SBMG":{"icaoId":"SBMG","flightCategory":"VFR","rawOb":"METAR SBMG 241700Z 20006KT 170V230 9999 FEW018 13/08 Q1019","temp":13,"dewp":8,"wdir":200,"wspd":6,"visib":"6+","altim":1019,"clouds":[{"cover":"FEW","base":1800}],"obsTime":1782320400},"SBMK":{"icaoId":"SBMK","flightCategory":"VFR","rawOb":"METAR SBMK 241700Z 08004KT CAVOK 28/11 Q1016","temp":28,"dewp":11,"wdir":80,"wspd":4,"visib":"6+","altim":1016,"clouds":[],"obsTime":1782320400},"SBBV":{"icaoId":"SBBV","flightCategory":"MVFR","rawOb":"METAR SBBV 241700Z 21006KT 9999 BKN025 FEW030TCU BKN070 28/25 Q1012","temp":28,"dewp":25,"wdir":210,"wspd":6,"visib":"6+","altim":1012,"clouds":[{"cover":"BKN","base":2500},{"cover":"FEW","base":3000},{"cover":"BKN","base":7000}],"obsTime":1782320400},"SBFL":{"icaoId":"SBFL","flightCategory":"VFR","rawOb":"METAR SBFL 241700Z VRB03KT 9999 FEW030 15/04 Q1019","temp":15,"dewp":4,"wdir":"VRB","wspd":3,"visib":"6+","altim":1019,"clouds":[{"cover":"FEW","base":3000}],"obsTime":1782320400},"SBMO":{"icaoId":"SBMO","flightCategory":"MVFR","rawOb":"METAR SBMO 241700Z 15010KT 9999 BKN030 28/22 Q1014","temp":28,"dewp":22,"wdir":150,"wspd":10,"visib":"6+","altim":1014,"clouds":[{"cover":"BKN","base":3000}],"obsTime":1782320400},"SBCP":{"icaoId":"SBCP","flightCategory":"VFR","rawOb":"METAR SBCP 241700Z 35011KT 9999 FEW020 30/17 Q1012","temp":30,"dewp":17,"wdir":350,"wspd":11,"visib":"6+","altim":1012,"clouds":[{"cover":"FEW","base":2000}],"obsTime":1782320400},"SBMQ":{"icaoId":"SBMQ","flightCategory":"VFR","rawOb":"METAR SBMQ 241700Z 07008KT 9999 FEW025 FEW030TCU 33/24 Q1011","temp":33,"dewp":24,"wdir":70,"wspd":8,"visib":"6+","altim":1011,"clouds":[{"cover":"FEW","base":2500},{"cover":"FEW","base":3000}],"obsTime":1782320400},"SBFZ":{"icaoId":"SBFZ","flightCategory":"VFR","rawOb":"METAR SBFZ 241700Z 10010KT 9999 BKN033 BKN100 29/23 Q1010","temp":29,"dewp":23,"wdir":100,"wspd":10,"visib":"6+","altim":1010,"clouds":[{"cover":"BKN","base":3300},{"cover":"BKN","base":10000}],"obsTime":1782320400},"SBNT":{"icaoId":"SBNT","flightCategory":"VFR","rawOb":"METAR SBNT 241700Z 14018KT 9999 FEW037 30/20 Q1012","temp":30,"dewp":20,"wdir":140,"wspd":18,"visib":"6+","altim":1012,"clouds":[{"cover":"FEW","base":3700}],"obsTime":1782320400},"SBBE":{"icaoId":"SBBE","flightCategory":"VFR","rawOb":"METAR SBBE 241700Z 25005KT 9999 SCT030 BKN055 31/26 Q1010","temp":31,"dewp":26,"wdir":250,"wspd":5,"visib":"6+","altim":1010,"clouds":[{"cover":"SCT","base":3000},{"cover":"BKN","base":5500}],"obsTime":1782320400},"SBPA":{"icaoId":"SBPA","flightCategory":"VFR","rawOb":"METAR SBPA 241700Z 29013KT 9999 SCT035 14/04 Q1019","temp":14,"dewp":4,"wdir":290,"wspd":13,"visib":"6+","altim":1019,"clouds":[{"cover":"SCT","base":3500}],"obsTime":1782320400},"SBVT":{"icaoId":"SBVT","flightCategory":"VFR","rawOb":"METAR SBVT 241700Z 11006KT 060V160 CAVOK 26/20 Q1014","temp":26,"dewp":20,"wdir":110,"wspd":6,"visib":"6+","altim":1014,"clouds":[],"obsTime":1782320400},"SBPJ":{"icaoId":"SBPJ","flightCategory":"VFR","rawOb":"METAR SBPJ 241700Z 24007KT 210V270 CAVOK 34/17 Q1012","temp":34,"dewp":17,"wdir":240,"wspd":7,"visib":"6+","altim":1012,"clouds":[],"obsTime":1782320400},"SBGL":{"icaoId":"SBGL","flightCategory":"MVFR","rawOb":"METAR SBGL 241700Z 25011KT 9000 -RA BKN015 BKN090 22/18 Q1015","temp":22,"dewp":18,"wdir":250,"wspd":11,"visib":5.59,"altim":1015,"clouds":[{"cover":"BKN","base":1500},{"cover":"BKN","base":9000}],"obsTime":1782320400},"SBPV":{"icaoId":"SBPV","flightCategory":"MVFR","rawOb":"METAR SBPV 241700Z 17009KT 9999 BKN016 BKN030 27/23 Q1013","temp":27,"dewp":23,"wdir":170,"wspd":9,"visib":"6+","altim":1013,"clouds":[{"cover":"BKN","base":1600},{"cover":"BKN","base":3000}],"obsTime":1782320400},"SBGO":{"icaoId":"SBGO","flightCategory":"VFR","rawOb":"METAR SBGO 241700Z 26006KT 9999 SCT040 29/18 Q1017","temp":29,"dewp":18,"wdir":260,"wspd":6,"visib":"6+","altim":1017,"clouds":[{"cover":"SCT","base":4000}],"obsTime":1782320400},"SBRB":{"icaoId":"SBRB","flightCategory":"IFR","rawOb":"METAR SBRB 241700Z 16008KT 5000 -DZ BR BKN009 OVC100 18/16 Q1017","temp":18,"dewp":16,"wdir":160,"wspd":8,"visib":3.11,"altim":1017,"clouds":[{"cover":"BKN","base":900},{"cover":"OVC","base":10000}],"obsTime":1782320400},"SBRF":{"icaoId":"SBRF","flightCategory":"VFR","rawOb":"METAR SBRF 241700Z 16013KT 9999 SCT026 28/23 Q1013","temp":28,"dewp":23,"wdir":160,"wspd":13,"visib":"6+","altim":1013,"clouds":[{"cover":"SCT","base":2600}],"obsTime":1782320400},"SBAT":{"icaoId":"SBAT","flightCategory":"VFR","rawOb":"METAR SBAT 241700Z 16002KT 9999 SCT030 32/22 Q1013","temp":32,"dewp":22,"wdir":160,"wspd":2,"visib":"6+","altim":1013,"clouds":[{"cover":"SCT","base":3000}],"obsTime":1782320400},"SBCR":{"icaoId":"SBCR","flightCategory":"VFR","rawOb":"METAR SBCR 241700Z 15003KT 100V190 9999 SCT025 SCT100 17/10 Q1020","temp":17,"dewp":10,"wdir":150,"wspd":3,"visib":"6+","altim":1020,"clouds":[{"cover":"SCT","base":2500},{"cover":"SCT","base":10000}],"obsTime":1782320400},"SBSG":{"icaoId":"SBSG","flightCategory":"MVFR","rawOb":"METAR SBSG 241700Z 13009KT 090V170 9999 BKN030 28/22 Q1012","temp":28,"dewp":22,"wdir":130,"wspd":9,"visib":"6+","altim":1012,"clouds":[{"cover":"BKN","base":3000}],"obsTime":1782320400},"SBGR":{"icaoId":"SBGR","flightCategory":"MVFR","rawOb":"METAR SBGR 241700Z 19005KT 7000 -RA FEW007 BKN013 BKN020 14/13 Q1019","temp":14,"dewp":13,"wdir":190,"wspd":5,"visib":4.35,"altim":1019,"clouds":[{"cover":"FEW","base":700},{"cover":"BKN","base":1300},{"cover":"BKN","base":2000}],"obsTime":1782320400},"SBSL":{"icaoId":"SBSL","flightCategory":"MVFR","rawOb":"METAR SBSL 241700Z 23006KT 9999 VCSH SCT010 BKN015 FEW025TCU 24/23 Q1011","temp":24,"dewp":23,"wdir":230,"wspd":6,"visib":"6+","altim":1011,"clouds":[{"cover":"SCT","base":1000},{"cover":"BKN","base":1500},{"cover":"FEW","base":2500}],"obsTime":1782320400},"SBCT":{"icaoId":"SBCT","flightCategory":"MVFR","rawOb":"METAR SBCT 241700Z 25006KT 9000 OVC013 08/05 Q1019","temp":8,"dewp":5,"wdir":250,"wspd":6,"visib":5.59,"altim":1019,"clouds":[{"cover":"OVC","base":1300}],"obsTime":1782320400},"SBSN":{"icaoId":"SBSN","flightCategory":"VFR","rawOb":"METAR SBSN 241700Z 08009KT 9999 FEW020 FEW025TCU 32/25 Q1011","temp":32,"dewp":25,"wdir":80,"wspd":9,"visib":"6+","altim":1011,"clouds":[{"cover":"FEW","base":2000},{"cover":"FEW","base":2500}],"obsTime":1782320400},"SBHT":{"icaoId":"SBHT","flightCategory":"VFR","rawOb":"METAR SBHT 241700Z 12005KT 9999 SCT025 BKN090 30/24 Q1012","temp":30,"dewp":24,"wdir":120,"wspd":5,"visib":"6+","altim":1012,"clouds":[{"cover":"SCT","base":2500},{"cover":"BKN","base":9000}],"obsTime":1782320400},"SBSP":{"icaoId":"SBSP","flightCategory":"IFR","rawOb":"METAR SBSP 241700Z 12008KT 090V170 8000 -RA BKN009 13/12 Q1018","temp":13,"dewp":12,"wdir":120,"wspd":8,"visib":4.97,"altim":1018,"clouds":[{"cover":"BKN","base":900}],"obsTime":1782320400},"SBIL":{"icaoId":"SBIL","flightCategory":"VFR","rawOb":"METAR SBIL 241700Z 12007KT 9999 FEW025 BKN070 26/23 Q1015","temp":26,"dewp":23,"wdir":120,"wspd":7,"visib":"6+","altim":1015,"clouds":[{"cover":"FEW","base":2500},{"cover":"BKN","base":7000}],"obsTime":1782320400},"SBSV":{"icaoId":"SBSV","flightCategory":"VFR","rawOb":"METAR SBSV 241700Z VRB06KT 9999 SCT023 28/22 Q1014","temp":28,"dewp":22,"wdir":"VRB","wspd":6,"visib":"6+","altim":1014,"clouds":[{"cover":"SCT","base":2300}],"obsTime":1782320400},"SBCB":{"icaoId":"SBCB","flightCategory":"MVFR","rawOb":"METAR SBCB 241700Z 29010KT 9999 FEW015 BKN020 OVC060 23/20 Q1014","temp":23,"dewp":20,"wdir":290,"wspd":10,"visib":"6+","altim":1014,"clouds":[{"cover":"FEW","base":1500},{"cover":"BKN","base":2000},{"cover":"OVC","base":6000}],"obsTime":1782320400},"SBTE":{"icaoId":"SBTE","flightCategory":"VFR","rawOb":"METAR SBTE 241700Z 16006KT 090V240 9999 SCT030 33/23 Q1010","temp":33,"dewp":23,"wdir":160,"wspd":6,"visib":"6+","altim":1010,"clouds":[{"cover":"SCT","base":3000}],"obsTime":1782320400},"SBUL":{"icaoId":"SBUL","flightCategory":"LIFR","rawOb":"METAR SBUL 241700Z 25012KT 1800 R04/2000D R22/2000U BR OVC001 17/17 Q1019","temp":17,"dewp":17,"wdir":250,"wspd":12,"visib":1.12,"altim":1019,"clouds":[{"cover":"OVC","base":100}],"obsTime":1782320400},"SBCZ":{"icaoId":"SBCZ","flightCategory":"MVFR","rawOb":"METAR SBCZ 241700Z 27009KT 9999 -RA BKN030 BKN100 26/22 Q1013","temp":26,"dewp":22,"wdir":270,"wspd":9,"visib":"6+","altim":1013,"clouds":[{"cover":"BKN","base":3000},{"cover":"BKN","base":10000}],"obsTime":1782320400},"SBUR":{"icaoId":"SBUR","flightCategory":"LIFR","rawOb":" SBUR 241700Z 22016KT 0900 RA BKN002 OVC070 13/13 Q1020","temp":13,"dewp":13,"wdir":220,"wspd":16,"visib":0.56,"altim":1020,"clouds":[{"cover":"BKN","base":200},{"cover":"OVC","base":7000}],"obsTime":1782320400},"SBJU":{"icaoId":"SBJU","flightCategory":"VFR","rawOb":"METAR SBJU 241700Z 18010KT 9999 FEW022 33/16 Q1013","temp":33,"dewp":16,"wdir":180,"wspd":10,"visib":"6+","altim":1013,"clouds":[{"cover":"FEW","base":2200}],"obsTime":1782320400},"SBBR":{"icaoId":"SBBR","flightCategory":"VFR","rawOb":"METAR SBBR 241700Z 32007KT 280V020 9999 FEW045 27/13 Q1018","temp":27,"dewp":13,"wdir":320,"wspd":7,"visib":"6+","altim":1018,"clouds":[{"cover":"FEW","base":4500}],"obsTime":1782320400},"SBCC":{"icaoId":"SBCC","flightCategory":"MVFR","rawOb":"METAR SBCC 241700Z 09003KT 9999 BKN025 33/16 Q1014","temp":33,"dewp":16,"wdir":90,"wspd":3,"visib":"6+","altim":1014,"clouds":[{"cover":"BKN","base":2500}],"obsTime":1782320400},"SBAR":{"icaoId":"SBAR","flightCategory":"VFR","rawOb":"METAR SBAR 241700Z 13007KT 9999 SCT023 28/22 Q1014","temp":28,"dewp":22,"wdir":130,"wspd":7,"visib":"6+","altim":1014,"clouds":[{"cover":"SCT","base":2300}],"obsTime":1782320400},"SBAX":{"icaoId":"SBAX","flightCategory":"VFR","rawOb":"METAR SBAX 241700Z AUTO 29005KT 250V320 9999 BKN033 BKN042 23/16 Q1018","temp":23,"dewp":16,"wdir":290,"wspd":5,"visib":"6+","altim":1018,"clouds":[{"cover":"BKN","base":3300},{"cover":"BKN","base":4200}],"obsTime":1782320400},"SBBH":{"icaoId":"SBBH","flightCategory":"VFR","rawOb":"METAR SBBH 241700Z 27005KT CAVOK 26/13 Q1017","temp":26,"dewp":13,"wdir":270,"wspd":5,"visib":"6+","altim":1017,"clouds":[],"obsTime":1782320400},"SBBQ":{"icaoId":"SBBQ","flightCategory":"VFR","rawOb":"METAR SBBQ 241700Z 33004KT 9999 BKN035 22/15 Q1020","temp":22,"dewp":15,"wdir":330,"wspd":4,"visib":"6+","altim":1020,"clouds":[{"cover":"BKN","base":3500}],"obsTime":1782320400},"SBBU":{"icaoId":"SBBU","flightCategory":"LIFR","rawOb":"METAR SBBU 241700Z 25006KT 5000 BR OVC003 15/14 Q1020","temp":15,"dewp":14,"wdir":250,"wspd":6,"visib":3.11,"altim":1020,"clouds":[{"cover":"OVC","base":300}],"obsTime":1782320400},"SBCA":{"icaoId":"SBCA","flightCategory":"VFR","rawOb":"METAR SBCA 241700Z 19008KT CAVOK 11/M04 Q1021","temp":11,"dewp":-4,"wdir":190,"wspd":8,"visib":"6+","altim":1021,"clouds":[],"obsTime":1782320400},"SBCJ":{"icaoId":"SBCJ","flightCategory":"VFR","rawOb":"METAR SBCJ 241700Z 13003KT 9999 FEW020 29/19 Q1016","temp":29,"dewp":19,"wdir":130,"wspd":3,"visib":"6+","altim":1016,"clouds":[{"cover":"FEW","base":2000}],"obsTime":1782320400},"SBCO":{"icaoId":"SBCO","flightCategory":"VFR","rawOb":"METAR SBCO 241700Z 28013KT 9999 SCT035 15/02 Q1019","temp":15,"dewp":2,"wdir":280,"wspd":13,"visib":"6+","altim":1019,"clouds":[{"cover":"SCT","base":3500}],"obsTime":1782320400},"SBDN":{"icaoId":"SBDN","flightCategory":"VFR","rawOb":"METAR SBDN 241700Z 25007KT 9999 FEW013 12/08 Q1020","temp":12,"dewp":8,"wdir":250,"wspd":7,"visib":"6+","altim":1020,"clouds":[{"cover":"FEW","base":1300}],"obsTime":1782320400},"SBES":{"icaoId":"SBES","flightCategory":"MVFR","rawOb":"METAR SBES 241700Z 23010KT 190V260 9999 FEW015 BKN030 OVC060 22/// Q1015","temp":null,"dewp":null,"wdir":230,"wspd":10,"visib":"6+","altim":1015,"clouds":[{"cover":"FEW","base":1500},{"cover":"BKN","base":3000},{"cover":"OVC","base":6000}],"obsTime":1782320400},"SBGM":{"icaoId":"SBGM","flightCategory":"MVFR","rawOb":"METAR SBGM 241700Z 15009KT 9999 SCT007 OVC013 19/16 Q1016","temp":19,"dewp":16,"wdir":150,"wspd":9,"visib":"6+","altim":1016,"clouds":[{"cover":"SCT","base":700},{"cover":"OVC","base":1300}],"obsTime":1782320400},"SBIP":{"icaoId":"SBIP","flightCategory":"VFR","rawOb":"METAR SBIP 241700Z AUTO 05008KT 020V090 CAVOK 28/15 Q1015","temp":28,"dewp":15,"wdir":50,"wspd":8,"visib":"6+","altim":1015,"clouds":[],"obsTime":1782320400},"SBKG":{"icaoId":"SBKG","flightCategory":"VFR","rawOb":"METAR SBKG 241700Z 15008KT 9999 SCT025 26/19 Q1015","temp":26,"dewp":19,"wdir":150,"wspd":8,"visib":"6+","altim":1015,"clouds":[{"cover":"SCT","base":2500}],"obsTime":1782320400},"SBOI":{"icaoId":"SBOI","flightCategory":"VFR","rawOb":"METAR SBOI 241700Z AUTO 01007KT 350V060 CAVOK 30/25 Q1012","temp":30,"dewp":25,"wdir":10,"wspd":7,"visib":"6+","altim":1012,"clouds":[],"obsTime":1782320400},"SBPB":{"icaoId":"SBPB","flightCategory":"VFR","rawOb":"METAR SBPB 241700Z 32006KT 9999 SCT020 FEW025TCU 30/25 Q1009","temp":30,"dewp":25,"wdir":320,"wspd":6,"visib":"6+","altim":1009,"clouds":[{"cover":"SCT","base":2000},{"cover":"FEW","base":2500}],"obsTime":1782320400},"SBPL":{"icaoId":"SBPL","flightCategory":"VFR","rawOb":"METAR SBPL 241700Z 12008KT 9999 SCT030 31/16 Q1014","temp":31,"dewp":16,"wdir":120,"wspd":8,"visib":"6+","altim":1014,"clouds":[{"cover":"SCT","base":3000}],"obsTime":1782320400},"SBPP":{"icaoId":"SBPP","flightCategory":"VFR","rawOb":"METAR SBPP 241700Z 19007KT CAVOK 15/02 Q1021","temp":15,"dewp":2,"wdir":190,"wspd":7,"visib":"6+","altim":1021,"clouds":[],"obsTime":1782320400},"SBPS":{"icaoId":"SBPS","flightCategory":"MVFR","rawOb":"METAR SBPS 241700Z 06012KT 8000 VCSH SCT010 BKN050 OVC070 24/22 Q1015","temp":24,"dewp":22,"wdir":60,"wspd":12,"visib":4.97,"altim":1015,"clouds":[{"cover":"SCT","base":1000},{"cover":"BKN","base":5000},{"cover":"OVC","base":7000}],"obsTime":1782320400},"SBSC":{"icaoId":"SBSC","flightCategory":"LIFR","rawOb":"METAR SBSC 241700Z 21009KT 1500 R23/P2000 R05/P2000 RA BR BKN005 BKN015 BKN030 19/18 Q1016","temp":19,"dewp":18,"wdir":210,"wspd":9,"visib":0.93,"altim":1016,"clouds":[{"cover":"BKN","base":500},{"cover":"BKN","base":1500},{"cover":"BKN","base":3000}],"obsTime":1782320400},"SBSJ":{"icaoId":"SBSJ","flightCategory":"IFR","rawOb":"METAR SBSJ 241700Z 21003KT 4000 -RA BR BKN005 SCT017 OVC100 15/14 Q1018","temp":15,"dewp":14,"wdir":210,"wspd":3,"visib":2.49,"altim":1018,"clouds":[{"cover":"BKN","base":500},{"cover":"SCT","base":1700},{"cover":"OVC","base":10000}],"obsTime":1782320400},"SBSM":{"icaoId":"SBSM","flightCategory":"VFR","rawOb":"METAR SBSM 241700Z 29012KT 9999 SCT040 15/02 Q1018","temp":15,"dewp":2,"wdir":290,"wspd":12,"visib":"6+","altim":1018,"clouds":[{"cover":"SCT","base":4000}],"obsTime":1782320400},"SBSR":{"icaoId":"SBSR","flightCategory":"IFR","rawOb":"METAR SBSR 241700Z 27011KT 9000 -RA BKN005 OVC070 12/11 Q1020","temp":12,"dewp":11,"wdir":270,"wspd":11,"visib":5.59,"altim":1020,"clouds":[{"cover":"BKN","base":500},{"cover":"OVC","base":7000}],"obsTime":1782320400},"SBTF":{"icaoId":"SBTF","flightCategory":"VFR","rawOb":"METAR SBTF 241700Z 31004KT 9999 SCT018 FEW025TCU 31/25 Q1012","temp":31,"dewp":25,"wdir":310,"wspd":4,"visib":"6+","altim":1012,"clouds":[{"cover":"SCT","base":1800},{"cover":"FEW","base":2500}],"obsTime":1782320400},"SBTT":{"icaoId":"SBTT","flightCategory":"VFR","rawOb":"METAR SBTT 241700Z 33004KT 9999 SCT030 29/23 Q1013","temp":29,"dewp":23,"wdir":330,"wspd":4,"visib":"6+","altim":1013,"clouds":[{"cover":"SCT","base":3000}],"obsTime":1782320400},"SBTU":{"icaoId":"SBTU","flightCategory":"VFR","rawOb":"METAR SBTU 241700Z AUTO VRB02KT 9999 // FEW029/// ///// Q1013","temp":null,"dewp":null,"wdir":"VRB","wspd":2,"visib":"6+","altim":1013,"clouds":[{"cover":"FEW","base":2900}],"obsTime":1782320400},"SBUY":{"icaoId":"SBUY","flightCategory":"VFR","rawOb":"METAR SBUY 241700Z 00000KT 9999 FEW030 BKN100 30/25 Q1011","temp":30,"dewp":25,"wdir":0,"wspd":0,"visib":"6+","altim":1011,"clouds":[{"cover":"FEW","base":3000},{"cover":"BKN","base":10000}],"obsTime":1782320400},"SBVH":{"icaoId":"SBVH","flightCategory":"MVFR","rawOb":"METAR SBVH 241700Z 14007KT 9999 OVC013 18/17 Q1018","temp":18,"dewp":17,"wdir":140,"wspd":7,"visib":"6+","altim":1018,"clouds":[{"cover":"OVC","base":1300}],"obsTime":1782320400},"SBAU":{"icaoId":"SBAU","flightCategory":"MVFR","rawOb":"METAR SBAU 241700Z 24008KT 7000 BKN010 BKN080 14/11 Q1020","temp":14,"dewp":11,"wdir":240,"wspd":8,"visib":4.35,"altim":1020,"clouds":[{"cover":"BKN","base":1000},{"cover":"BKN","base":8000}],"obsTime":1782320400},"SBJP":{"icaoId":"SBJP","flightCategory":"VFR","rawOb":"METAR SBJP 241700Z 13012KT 9999 SCT030 29/22 Q1012","temp":29,"dewp":22,"wdir":130,"wspd":12,"visib":"6+","altim":1012,"clouds":[{"cover":"SCT","base":3000}],"obsTime":1782320400},"SBJV":{"icaoId":"SBJV","flightCategory":"VFR","rawOb":"METAR SBJV 241700Z 14004KT 9999 FEW028 OVC045 14/06 Q1019","temp":14,"dewp":6,"wdir":140,"wspd":4,"visib":"6+","altim":1019,"clouds":[{"cover":"FEW","base":2800},{"cover":"OVC","base":4500}],"obsTime":1782320400},"SBPF":{"icaoId":"SBPF","flightCategory":"VFR","rawOb":"METAR SBPF 241700Z 25005KT CAVOK 09/02 Q1019","temp":9,"dewp":2,"wdir":250,"wspd":5,"visib":"6+","altim":1019,"clouds":[],"obsTime":1782320400},"SBLE":{"icaoId":"SBLE","flightCategory":"VFR","rawOb":"METAR SBLE 241700Z AUTO 07005KT 040V100 CAVOK 27/17 Q1016","temp":27,"dewp":17,"wdir":70,"wspd":5,"visib":"6+","altim":1016,"clouds":[],"obsTime":1782320400},"SBAN":{"icaoId":"SBAN","flightCategory":"VFR","rawOb":"METAR SBAN 241700Z 33005KT 9999 SCT045 27/14 Q1020","temp":27,"dewp":14,"wdir":330,"wspd":5,"visib":"6+","altim":1020,"clouds":[{"cover":"SCT","base":4500}],"obsTime":1782320400},"SBIH":{"icaoId":"SBIH","flightCategory":"VFR","rawOb":"METAR SBIH 241700Z 20005KT 9999 SCT020 34/23 Q1011","temp":34,"dewp":23,"wdir":200,"wspd":5,"visib":"6+","altim":1011,"clouds":[{"cover":"SCT","base":2000}],"obsTime":1782320400},"SBGW":{"icaoId":"SBGW","flightCategory":"IFR","rawOb":"METAR SBGW 241700Z 02002KT 3000 -RA HZ SCT006 OVC023 16/12 Q1017","temp":16,"dewp":12,"wdir":20,"wspd":2,"visib":1.86,"altim":1017,"clouds":[{"cover":"SCT","base":600},{"cover":"OVC","base":2300}],"obsTime":1782320400},"SBJR":{"icaoId":"SBJR","flightCategory":"LIFR","rawOb":"METAR SBJR 241700Z 23008KT 3000 RA BR BKN004 OVC020 20/19 Q1015","temp":20,"dewp":19,"wdir":230,"wspd":8,"visib":1.86,"altim":1015,"clouds":[{"cover":"BKN","base":400},{"cover":"OVC","base":2000}],"obsTime":1782320400},"SBLS":{"icaoId":"SBLS","flightCategory":"VFR","rawOb":"METAR SBLS 241700Z VRB04KT 9999 FEW035 27/14 Q1017","temp":27,"dewp":14,"wdir":"VRB","wspd":4,"visib":"6+","altim":1017,"clouds":[{"cover":"FEW","base":3500}],"obsTime":1782320400},"SBMT":{"icaoId":"SBMT","flightCategory":"MVFR","rawOb":"METAR SBMT 241700Z 15005KT 120V200 7000 3000S -RA SCT009 OVC011 13/13 Q1018","temp":13,"dewp":13,"wdir":150,"wspd":5,"visib":4.35,"altim":1018,"clouds":[{"cover":"SCT","base":900},{"cover":"OVC","base":1100}],"obsTime":1782320400},"SBST":{"icaoId":"SBST","flightCategory":"IFR","rawOb":"METAR SBST 241700Z 32006KT 4000 -RA BKN007 OVC020 15/14 Q1018","temp":15,"dewp":14,"wdir":320,"wspd":6,"visib":2.49,"altim":1018,"clouds":[{"cover":"BKN","base":700},{"cover":"OVC","base":2000}],"obsTime":1782320400},"SBTA":{"icaoId":"SBTA","flightCategory":"IFR","rawOb":"METAR SBTA 241700Z 23004KT 4000 BR FEW003 BKN006 OVC025 16/15 Q1017","temp":16,"dewp":15,"wdir":230,"wspd":4,"visib":2.49,"altim":1017,"clouds":[{"cover":"FEW","base":300},{"cover":"BKN","base":600},{"cover":"OVC","base":2500}],"obsTime":1782320400},"SBAF":{"icaoId":"SBAF","flightCategory":"IFR","rawOb":"METAR SBAF 241700Z COR 27008KT 4000 -RA BR BKN011 OVC017 20/20 Q1015","temp":20,"dewp":20,"wdir":270,"wspd":8,"visib":2.49,"altim":1015,"clouds":[{"cover":"BKN","base":1100},{"cover":"OVC","base":1700}],"obsTime":1782320400}}}