{"updated":1776797591,"count":85,"data":{"SBVT":{"icaoId":"SBVT","flightCategory":"VFR","rawOb":"METAR SBVT 211700Z 16013KT 9999 FEW040 27/21 Q1015","temp":27,"dewp":21,"wdir":160,"wspd":13,"visib":"6+","altim":1015,"clouds":[{"cover":"FEW","base":4000}],"obsTime":1776790800},"SBBE":{"icaoId":"SBBE","flightCategory":"MVFR","rawOb":"METAR SBBE 211700Z 35006KT 9999 VCSH BKN025 FEW030TCU BKN100 28/26 Q1010","temp":28,"dewp":26,"wdir":350,"wspd":6,"visib":"6+","altim":1010,"clouds":[{"cover":"BKN","base":2500},{"cover":"FEW","base":3000},{"cover":"BKN","base":10000}],"obsTime":1776790800},"SBBR":{"icaoId":"SBBR","flightCategory":"VFR","rawOb":"METAR SBBR 211700Z 09006KT 040V130 9999 FEW045 SCT080 28/14 Q1018","temp":28,"dewp":14,"wdir":90,"wspd":6,"visib":"6+","altim":1018,"clouds":[{"cover":"FEW","base":4500},{"cover":"SCT","base":8000}],"obsTime":1776790800},"SBBV":{"icaoId":"SBBV","flightCategory":"MVFR","rawOb":"METAR SBBV 211700Z 10012KT 9999 BKN025 33/21 Q1011","temp":33,"dewp":21,"wdir":100,"wspd":12,"visib":"6+","altim":1011,"clouds":[{"cover":"BKN","base":2500}],"obsTime":1776790800},"SBCB":{"icaoId":"SBCB","flightCategory":"VFR","rawOb":"METAR SBCB 211700Z 23010KT 9999 FEW020 26/20 Q1016","temp":26,"dewp":20,"wdir":230,"wspd":10,"visib":"6+","altim":1016,"clouds":[{"cover":"FEW","base":2000}],"obsTime":1776790800},"SBCF":{"icaoId":"SBCF","flightCategory":"VFR","rawOb":"METAR SBCF 211700Z 16005KT 9999 BKN040 27/18 Q1018","temp":27,"dewp":18,"wdir":160,"wspd":5,"visib":"6+","altim":1018,"clouds":[{"cover":"BKN","base":4000}],"obsTime":1776790800},"SBCG":{"icaoId":"SBCG","flightCategory":"VFR","rawOb":"METAR SBCG 211700Z 05006KT 350V090 9999 BKN045 FEW050TCU BKN090 30/20 Q1015","temp":30,"dewp":20,"wdir":50,"wspd":6,"visib":"6+","altim":1015,"clouds":[{"cover":"BKN","base":4500},{"cover":"FEW","base":5000},{"cover":"BKN","base":9000}],"obsTime":1776790800},"SBCP":{"icaoId":"SBCP","flightCategory":"MVFR","rawOb":"METAR SBCP 211700Z 16005KT 9999 BKN020 28/19 Q1015","temp":28,"dewp":19,"wdir":160,"wspd":5,"visib":"6+","altim":1015,"clouds":[{"cover":"BKN","base":2000}],"obsTime":1776790800},"SBCR":{"icaoId":"SBCR","flightCategory":"VFR","rawOb":"METAR SBCR 211700Z VRB05KT 9999 BKN037 FEW045TCU 32/25 Q1010","temp":32,"dewp":25,"wdir":"VRB","wspd":5,"visib":"6+","altim":1010,"clouds":[{"cover":"BKN","base":3700},{"cover":"FEW","base":4500}],"obsTime":1776790800},"SBCT":{"icaoId":"SBCT","flightCategory":"VFR","rawOb":"METAR SBCT 211700Z 08007KT 050V120 9999 FEW035 23/14 Q1020","temp":23,"dewp":14,"wdir":80,"wspd":7,"visib":"6+","altim":1020,"clouds":[{"cover":"FEW","base":3500}],"obsTime":1776790800},"SBCZ":{"icaoId":"SBCZ","flightCategory":"MVFR","rawOb":"METAR SBCZ 211700Z 35005KT 9999 BKN018 SCT022 BKN090 28/24 Q1013","temp":28,"dewp":24,"wdir":350,"wspd":5,"visib":"6+","altim":1013,"clouds":[{"cover":"BKN","base":1800},{"cover":"SCT","base":2200},{"cover":"BKN","base":9000}],"obsTime":1776790800},"SBEG":{"icaoId":"SBEG","flightCategory":"VFR","rawOb":"METAR SBEG 211700Z 02005KT 320V080 9999 SCT025 FEW030TCU SCT100 30/24 Q1012","temp":30,"dewp":24,"wdir":20,"wspd":5,"visib":"6+","altim":1012,"clouds":[{"cover":"SCT","base":2500},{"cover":"FEW","base":3000},{"cover":"SCT","base":10000}],"obsTime":1776790800},"SBFI":{"icaoId":"SBFI","flightCategory":"VFR","rawOb":"METAR SBFI 211700Z 01006KT 9999 SCT030 FEW040TCU BKN100 29/22 Q1014","temp":29,"dewp":22,"wdir":10,"wspd":6,"visib":"6+","altim":1014,"clouds":[{"cover":"SCT","base":3000},{"cover":"FEW","base":4000},{"cover":"BKN","base":10000}],"obsTime":1776790800},"SBFL":{"icaoId":"SBFL","flightCategory":"VFR","rawOb":"METAR SBFL 211700Z 36009KT 9999 FEW033 26/18 Q1016","temp":26,"dewp":18,"wdir":360,"wspd":9,"visib":"6+","altim":1016,"clouds":[{"cover":"FEW","base":3300}],"obsTime":1776790800},"SBFZ":{"icaoId":"SBFZ","flightCategory":"VFR","rawOb":"METAR SBFZ 211700Z 16004KT 120V200 9999 FEW005 OVC100 27/24 Q1010","temp":27,"dewp":24,"wdir":160,"wspd":4,"visib":"6+","altim":1010,"clouds":[{"cover":"FEW","base":500},{"cover":"OVC","base":10000}],"obsTime":1776790800},"SBGL":{"icaoId":"SBGL","flightCategory":"VFR","rawOb":"METAR SBGL 211700Z 12009KT 9999 SCT027 28/18 Q1015","temp":28,"dewp":18,"wdir":120,"wspd":9,"visib":"6+","altim":1015,"clouds":[{"cover":"SCT","base":2700}],"obsTime":1776790800},"SBGO":{"icaoId":"SBGO","flightCategory":"VFR","rawOb":"METAR SBGO 211700Z 31007KT 250V360 CAVOK 32/19 Q1015","temp":32,"dewp":19,"wdir":310,"wspd":7,"visib":"6+","altim":1015,"clouds":[],"obsTime":1776790800},"SBGR":{"icaoId":"SBGR","flightCategory":"VFR","rawOb":"METAR SBGR 211700Z 11005KT CAVOK 25/14 Q1018","temp":25,"dewp":14,"wdir":110,"wspd":5,"visib":"6+","altim":1018,"clouds":[],"obsTime":1776790800},"SBHT":{"icaoId":"SBHT","flightCategory":"MVFR","rawOb":"METAR SBHT 211700Z 09005KT 9999 BKN020 FEW025TCU BKN100 29/25 Q1011","temp":29,"dewp":25,"wdir":90,"wspd":5,"visib":"6+","altim":1011,"clouds":[{"cover":"BKN","base":2000},{"cover":"FEW","base":2500},{"cover":"BKN","base":10000}],"obsTime":1776790800},"SBIL":{"icaoId":"SBIL","flightCategory":"VFR","rawOb":"METAR SBIL 211700Z 18007KT 130V210 9999 FEW025 30/23 Q1014","temp":30,"dewp":23,"wdir":180,"wspd":7,"visib":"6+","altim":1014,"clouds":[{"cover":"FEW","base":2500}],"obsTime":1776790800},"SBJU":{"icaoId":"SBJU","flightCategory":"VFR","rawOb":"METAR SBJU 211700Z 09005KT 9999 SCT022 30/22 Q1012","temp":30,"dewp":22,"wdir":90,"wspd":5,"visib":"6+","altim":1012,"clouds":[{"cover":"SCT","base":2200}],"obsTime":1776790800},"SBKP":{"icaoId":"SBKP","flightCategory":"VFR","rawOb":"METAR SBKP 211700Z VRB04KT 9999 FEW035 28/14 Q1017","temp":28,"dewp":14,"wdir":"VRB","wspd":4,"visib":"6+","altim":1017,"clouds":[{"cover":"FEW","base":3500}],"obsTime":1776790800},"SBLO":{"icaoId":"SBLO","flightCategory":"VFR","rawOb":"METAR SBLO 211700Z 11006KT CAVOK 28/13 Q1016","temp":28,"dewp":13,"wdir":110,"wspd":6,"visib":"6+","altim":1016,"clouds":[],"obsTime":1776790800},"SBMA":{"icaoId":"SBMA","flightCategory":"MVFR","rawOb":"METAR SBMA 211700Z 33004KT 8000 -RA FEW008 OVC080 25/24 Q1012","temp":25,"dewp":24,"wdir":330,"wspd":4,"visib":4.97,"altim":1012,"clouds":[{"cover":"FEW","base":800},{"cover":"OVC","base":8000}],"obsTime":1776790800},"SBME":{"icaoId":"SBME","flightCategory":"VFR","rawOb":"METAR SBME 211700Z 15007KT 9999 SCT025 29/19 Q1015","temp":29,"dewp":19,"wdir":150,"wspd":7,"visib":"6+","altim":1015,"clouds":[{"cover":"SCT","base":2500}],"obsTime":1776790800},"SBMG":{"icaoId":"SBMG","flightCategory":"VFR","rawOb":"METAR SBMG 211700Z VRB03KT CAVOK 28/15 Q1015","temp":28,"dewp":15,"wdir":"VRB","wspd":3,"visib":"6+","altim":1015,"clouds":[],"obsTime":1776790800},"SBMK":{"icaoId":"SBMK","flightCategory":"VFR","rawOb":"METAR SBMK 211700Z 07007KT 9999 SCT046 29/17 Q1016","temp":29,"dewp":17,"wdir":70,"wspd":7,"visib":"6+","altim":1016,"clouds":[{"cover":"SCT","base":4600}],"obsTime":1776790800},"SBMO":{"icaoId":"SBMO","flightCategory":"MVFR","rawOb":"METAR SBMO 211700Z 19006KT 9999 VCSH FEW008 BKN018 FEW025TCU OVC040 25/24 Q1011","temp":25,"dewp":24,"wdir":190,"wspd":6,"visib":"6+","altim":1011,"clouds":[{"cover":"FEW","base":800},{"cover":"BKN","base":1800},{"cover":"FEW","base":2500},{"cover":"OVC","base":4000}],"obsTime":1776790800},"SBMQ":{"icaoId":"SBMQ","flightCategory":"VFR","rawOb":"METAR SBMQ 211700Z 15004KT 9999 FEW023 30/24 Q1009","temp":30,"dewp":24,"wdir":150,"wspd":4,"visib":"6+","altim":1009,"clouds":[{"cover":"FEW","base":2300}],"obsTime":1776790800},"SBNT":{"icaoId":"SBNT","flightCategory":"MVFR","rawOb":"METAR SBNT 211700Z 11012KT 9999 BKN029 31/24 Q1010","temp":31,"dewp":24,"wdir":110,"wspd":12,"visib":"6+","altim":1010,"clouds":[{"cover":"BKN","base":2900}],"obsTime":1776790800},"SBPA":{"icaoId":"SBPA","flightCategory":"VFR","rawOb":"METAR SBPA 211700Z 34003KT 260V070 9000 -RA SCT013 BKN050 23/20 Q1015","temp":23,"dewp":20,"wdir":340,"wspd":3,"visib":5.59,"altim":1015,"clouds":[{"cover":"SCT","base":1300},{"cover":"BKN","base":5000}],"obsTime":1776790800},"SBPJ":{"icaoId":"SBPJ","flightCategory":"VFR","rawOb":"METAR SBPJ 211700Z 14005KT 9999 VCSH SCT025 FEW030TCU BKN080 27/24 Q1012 RETS","temp":27,"dewp":24,"wdir":140,"wspd":5,"visib":"6+","altim":1012,"clouds":[{"cover":"SCT","base":2500},{"cover":"FEW","base":3000},{"cover":"BKN","base":8000}],"obsTime":1776790800},"SBPV":{"icaoId":"SBPV","flightCategory":"VFR","rawOb":"METAR SBPV 211700Z 04003KT 9999 SCT040 32/28 Q1010","temp":32,"dewp":28,"wdir":40,"wspd":3,"visib":"6+","altim":1010,"clouds":[{"cover":"SCT","base":4000}],"obsTime":1776790800},"SBRB":{"icaoId":"SBRB","flightCategory":"MVFR","rawOb":"METAR SBRB 211700Z 31006KT 250V360 7000 VCSH BKN020 BKN050 28/24 Q1013","temp":28,"dewp":24,"wdir":310,"wspd":6,"visib":4.35,"altim":1013,"clouds":[{"cover":"BKN","base":2000},{"cover":"BKN","base":5000}],"obsTime":1776790800},"SBRF":{"icaoId":"SBRF","flightCategory":"VFR","rawOb":"METAR SBRF 211700Z 12013KT 9999 SCT025 30/24 Q1010","temp":30,"dewp":24,"wdir":120,"wspd":13,"visib":"6+","altim":1010,"clouds":[{"cover":"SCT","base":2500}],"obsTime":1776790800},"SBSG":{"icaoId":"SBSG","flightCategory":"MVFR","rawOb":"METAR SBSG 211700Z 12010KT 100V160 9999 BKN030 30/24 Q1010","temp":30,"dewp":24,"wdir":120,"wspd":10,"visib":"6+","altim":1010,"clouds":[{"cover":"BKN","base":3000}],"obsTime":1776790800},"SBSL":{"icaoId":"SBSL","flightCategory":"VFR","rawOb":"METAR SBSL 211700Z VRB02KT 9999 VCSH SCT023 FEW024TCU BKN080 26/25 Q1010","temp":26,"dewp":25,"wdir":"VRB","wspd":2,"visib":"6+","altim":1010,"clouds":[{"cover":"SCT","base":2300},{"cover":"FEW","base":2400},{"cover":"BKN","base":8000}],"obsTime":1776790800},"SBSN":{"icaoId":"SBSN","flightCategory":"MVFR","rawOb":"METAR SBSN 211700Z VRB02KT 9999 -RA BKN011 BKN016 BKN080 27/25 Q1011","temp":27,"dewp":25,"wdir":"VRB","wspd":2,"visib":"6+","altim":1011,"clouds":[{"cover":"BKN","base":1100},{"cover":"BKN","base":1600},{"cover":"BKN","base":8000}],"obsTime":1776790800},"SBSP":{"icaoId":"SBSP","flightCategory":"VFR","rawOb":"METAR SBSP 211700Z VRB04KT CAVOK 26/15 Q1019","temp":26,"dewp":15,"wdir":"VRB","wspd":4,"visib":"6+","altim":1019,"clouds":[],"obsTime":1776790800},"SBSV":{"icaoId":"SBSV","flightCategory":"MVFR","rawOb":"METAR SBSV 211700Z 16011KT 120V190 7000 -SHRA BKN019 FEW024TCU BKN060 30/23 Q1012","temp":30,"dewp":23,"wdir":160,"wspd":11,"visib":4.35,"altim":1012,"clouds":[{"cover":"BKN","base":1900},{"cover":"FEW","base":2400},{"cover":"BKN","base":6000}],"obsTime":1776790800},"SBTE":{"icaoId":"SBTE","flightCategory":"VFR","rawOb":"METAR SBTE 211700Z 24007KT 9999 SCT018 SCT100 27/24 Q1010","temp":27,"dewp":24,"wdir":240,"wspd":7,"visib":"6+","altim":1010,"clouds":[{"cover":"SCT","base":1800},{"cover":"SCT","base":10000}],"obsTime":1776790800},"SBUL":{"icaoId":"SBUL","flightCategory":"VFR","rawOb":"METAR SBUL 211700Z 02008KT 300V060 9999 VCSH SCT040 FEW045TCU 29/18 Q1017","temp":29,"dewp":18,"wdir":20,"wspd":8,"visib":"6+","altim":1017,"clouds":[{"cover":"SCT","base":4000},{"cover":"FEW","base":4500}],"obsTime":1776790800},"SBUR":{"icaoId":"SBUR","flightCategory":"VFR","rawOb":"METAR SBUR 211700Z 32006KT CAVOK 31/16 Q1016","temp":31,"dewp":16,"wdir":320,"wspd":6,"visib":"6+","altim":1016,"clouds":[],"obsTime":1776790800},"SBAT":{"icaoId":"SBAT","flightCategory":"VFR","rawOb":"METAR SBAT 211700Z 00000KT 9999 VCSH SCT030 FEW032TCU BKN100 29/26 Q1012","temp":29,"dewp":26,"wdir":0,"wspd":0,"visib":"6+","altim":1012,"clouds":[{"cover":"SCT","base":3000},{"cover":"FEW","base":3200},{"cover":"BKN","base":10000}],"obsTime":1776790800},"SBKG":{"icaoId":"SBKG","flightCategory":"MVFR","rawOb":"METAR SBKG 211700Z 02003KT 9999 BKN020 FEW025TCU 29/21 Q1012","temp":29,"dewp":21,"wdir":20,"wspd":3,"visib":"6+","altim":1012,"clouds":[{"cover":"BKN","base":2000},{"cover":"FEW","base":2500}],"obsTime":1776790800},"SBAR":{"icaoId":"SBAR","flightCategory":"IFR","rawOb":"METAR SBAR 211700Z 15005KT 2500 RA SCT006 BKN017 BKN020 23/23 Q1012 RERA","temp":23,"dewp":23,"wdir":150,"wspd":5,"visib":1.55,"altim":1012,"clouds":[{"cover":"SCT","base":600},{"cover":"BKN","base":1700},{"cover":"BKN","base":2000}],"obsTime":1776790800},"SBVH":{"icaoId":"SBVH","flightCategory":"VFR","rawOb":"METAR SBVH 211700Z 30008KT 9999 VCSH SCT020 FEW030TCU BKN100 27/22 Q1014","temp":27,"dewp":22,"wdir":300,"wspd":8,"visib":"6+","altim":1014,"clouds":[{"cover":"SCT","base":2000},{"cover":"FEW","base":3000},{"cover":"BKN","base":10000}],"obsTime":1776790800},"SBAU":{"icaoId":"SBAU","flightCategory":"VFR","rawOb":"METAR SBAU 211700Z 09010KT CAVOK 31/12 Q1014","temp":31,"dewp":12,"wdir":90,"wspd":10,"visib":"6+","altim":1014,"clouds":[],"obsTime":1776790800},"SBUY":{"icaoId":"SBUY","flightCategory":"VFR","rawOb":"METAR SBUY 211700Z 29004KT 9999 VCSH SCT020 FEW030TCU BKN100 30/25 Q1011","temp":30,"dewp":25,"wdir":290,"wspd":4,"visib":"6+","altim":1011,"clouds":[{"cover":"SCT","base":2000},{"cover":"FEW","base":3000},{"cover":"BKN","base":10000}],"obsTime":1776790800},"SBBH":{"icaoId":"SBBH","flightCategory":"VFR","rawOb":"METAR SBBH 211700Z 06005KT 9999 SCT046 28/17 Q1017","temp":28,"dewp":17,"wdir":60,"wspd":5,"visib":"6+","altim":1017,"clouds":[{"cover":"SCT","base":4600}],"obsTime":1776790800},"SBTT":{"icaoId":"SBTT","flightCategory":"MVFR","rawOb":"METAR SBTT 211700Z 10005KT 9999 BKN011 OVC100 26/21 Q1014","temp":26,"dewp":21,"wdir":100,"wspd":5,"visib":"6+","altim":1014,"clouds":[{"cover":"BKN","base":1100},{"cover":"OVC","base":10000}],"obsTime":1776790800},"SBBQ":{"icaoId":"SBBQ","flightCategory":"MVFR","rawOb":"METAR SBBQ 211700Z 08004KT 020V140 9999 BKN025 22/16 Q1021","temp":22,"dewp":16,"wdir":80,"wspd":4,"visib":"6+","altim":1021,"clouds":[{"cover":"BKN","base":2500}],"obsTime":1776790800},"SBTF":{"icaoId":"SBTF","flightCategory":"VFR","rawOb":"METAR SBTF 211700Z 33006KT 9999 FEW017 BKN090 30/26 Q1012","temp":30,"dewp":26,"wdir":330,"wspd":6,"visib":"6+","altim":1012,"clouds":[{"cover":"FEW","base":1700},{"cover":"BKN","base":9000}],"obsTime":1776790800},"SBSR":{"icaoId":"SBSR","flightCategory":"VFR","rawOb":"METAR SBSR 211700Z VRB02KT CAVOK 31/12 Q1015","temp":31,"dewp":12,"wdir":"VRB","wspd":2,"visib":"6+","altim":1015,"clouds":[],"obsTime":1776790800},"SBBU":{"icaoId":"SBBU","flightCategory":"VFR","rawOb":"METAR SBBU 211700Z 17008KT CAVOK 29/15 Q1016","temp":29,"dewp":15,"wdir":170,"wspd":8,"visib":"6+","altim":1016,"clouds":[],"obsTime":1776790800},"SBSM":{"icaoId":"SBSM","flightCategory":"VFR","rawOb":"METAR SBSM 211700Z 10003KT 030V170 9999 FEW035 BKN050 24/20 Q1014","temp":24,"dewp":20,"wdir":100,"wspd":3,"visib":"6+","altim":1014,"clouds":[{"cover":"FEW","base":3500},{"cover":"BKN","base":5000}],"obsTime":1776790800},"SBCA":{"icaoId":"SBCA","flightCategory":"VFR","rawOb":"METAR SBCA 211700Z 33009KT 9999 SCT040 BKN070 24/18 Q1019","temp":24,"dewp":18,"wdir":330,"wspd":9,"visib":"6+","altim":1019,"clouds":[{"cover":"SCT","base":4000},{"cover":"BKN","base":7000}],"obsTime":1776790800},"SBCC":{"icaoId":"SBCC","flightCategory":"VFR","rawOb":"METAR SBCC 211700Z 09006KT 350V140 9999 SCT030 FEW035TCU SCT100 29/20 Q1013","temp":29,"dewp":20,"wdir":90,"wspd":6,"visib":"6+","altim":1013,"clouds":[{"cover":"SCT","base":3000},{"cover":"FEW","base":3500},{"cover":"SCT","base":10000}],"obsTime":1776790800},"SBSJ":{"icaoId":"SBSJ","flightCategory":"VFR","rawOb":"METAR SBSJ 211700Z 18005KT CAVOK 26/14 Q1018","temp":26,"dewp":14,"wdir":180,"wspd":5,"visib":"6+","altim":1018,"clouds":[],"obsTime":1776790800},"SBSC":{"icaoId":"SBSC","flightCategory":"VFR","rawOb":"METAR SBSC 211700Z 20008KT 9999 FEW030 26/19 Q1015","temp":26,"dewp":19,"wdir":200,"wspd":8,"visib":"6+","altim":1015,"clouds":[{"cover":"FEW","base":3000}],"obsTime":1776790800},"SBCJ":{"icaoId":"SBCJ","flightCategory":"VFR","rawOb":"METAR SBCJ 211700Z 08006KT 9999 FEW007 SCT010 BKN070 24/21 Q1016","temp":24,"dewp":21,"wdir":80,"wspd":6,"visib":"6+","altim":1016,"clouds":[{"cover":"FEW","base":700},{"cover":"SCT","base":1000},{"cover":"BKN","base":7000}],"obsTime":1776790800},"SBCO":{"icaoId":"SBCO","flightCategory":"MVFR","rawOb":"METAR SBCO 211700Z 33004KT 8000 -RA BKN020 BKN050 22/19 Q1016","temp":22,"dewp":19,"wdir":330,"wspd":4,"visib":4.97,"altim":1016,"clouds":[{"cover":"BKN","base":2000},{"cover":"BKN","base":5000}],"obsTime":1776790800},"SBPS":{"icaoId":"SBPS","flightCategory":"VFR","rawOb":"METAR SBPS 211700Z 13006KT 060V190 9999 SCT025 FEW030TCU 29/23 Q1014","temp":29,"dewp":23,"wdir":130,"wspd":6,"visib":"6+","altim":1014,"clouds":[{"cover":"SCT","base":2500},{"cover":"FEW","base":3000}],"obsTime":1776790800},"SBDN":{"icaoId":"SBDN","flightCategory":"VFR","rawOb":"METAR SBDN 211700Z 08008KT CAVOK 30/13 Q1015","temp":30,"dewp":13,"wdir":80,"wspd":8,"visib":"6+","altim":1015,"clouds":[],"obsTime":1776790800},"SBPP":{"icaoId":"SBPP","flightCategory":"VFR","rawOb":"METAR SBPP 211700Z 07010KT 9999 FEW020 27/19 Q1016","temp":27,"dewp":19,"wdir":70,"wspd":10,"visib":"6+","altim":1016,"clouds":[{"cover":"FEW","base":2000}],"obsTime":1776790800},"SBES":{"icaoId":"SBES","flightCategory":"VFR","rawOb":"METAR SBES 211700Z 22009KT 180V250 9999 FEW020 26/// Q1016","temp":null,"dewp":null,"wdir":220,"wspd":9,"visib":"6+","altim":1016,"clouds":[{"cover":"FEW","base":2000}],"obsTime":1776790800},"SBPL":{"icaoId":"SBPL","flightCategory":"VFR","rawOb":"METAR SBPL 211700Z 10008KT 9999 SCT030 31/20 Q1012","temp":31,"dewp":20,"wdir":100,"wspd":8,"visib":"6+","altim":1012,"clouds":[{"cover":"SCT","base":3000}],"obsTime":1776790800},"SBPB":{"icaoId":"SBPB","flightCategory":"MVFR","rawOb":"METAR SBPB 211700Z 08007KT 8000 -RA SCT015 OVC080 25/24 Q1011 RERA","temp":25,"dewp":24,"wdir":80,"wspd":7,"visib":4.97,"altim":1011,"clouds":[{"cover":"SCT","base":1500},{"cover":"OVC","base":8000}],"obsTime":1776790800},"SBGM":{"icaoId":"SBGM","flightCategory":"MVFR","rawOb":"METAR SBGM 211700Z 27008KT 9999 BKN016 OVC040 27/22 Q1012","temp":27,"dewp":22,"wdir":270,"wspd":8,"visib":"6+","altim":1012,"clouds":[{"cover":"BKN","base":1600},{"cover":"OVC","base":4000}],"obsTime":1776790800},"SBIP":{"icaoId":"SBIP","flightCategory":"VFR","rawOb":"METAR SBIP 211700Z AUTO 06006KT 040V110 CAVOK 29/17 Q1015","temp":29,"dewp":17,"wdir":60,"wspd":6,"visib":"6+","altim":1015,"clouds":[],"obsTime":1776790800},"SBOI":{"icaoId":"SBOI","flightCategory":"VFR","rawOb":"METAR SBOI 211700Z AUTO 06007KT 020V100 CAVOK 28/23 Q1011","temp":28,"dewp":23,"wdir":60,"wspd":7,"visib":"6+","altim":1011,"clouds":[],"obsTime":1776790800},"SBJP":{"icaoId":"SBJP","flightCategory":"MVFR","rawOb":"METAR SBJP 211700Z 11013KT 9999 BKN025 30/23 Q1010","temp":30,"dewp":23,"wdir":110,"wspd":13,"visib":"6+","altim":1010,"clouds":[{"cover":"BKN","base":2500}],"obsTime":1776790800},"SBPF":{"icaoId":"SBPF","flightCategory":"VFR","rawOb":"METAR SBPF 211700Z AUTO 05009KT 9999 NSC 22/17 Q1018","temp":22,"dewp":17,"wdir":50,"wspd":9,"visib":"6+","altim":1018,"clouds":[],"obsTime":1776790800},"SBAN":{"icaoId":"SBAN","flightCategory":"VFR","rawOb":"METAR SBAN 211700Z VRB04KT 9999 SCT035 FEW040TCU SCT100 27/18 Q1019","temp":27,"dewp":18,"wdir":"VRB","wspd":4,"visib":"6+","altim":1019,"clouds":[{"cover":"SCT","base":3500},{"cover":"FEW","base":4000},{"cover":"SCT","base":10000}],"obsTime":1776790800},"SBJV":{"icaoId":"SBJV","flightCategory":"VFR","rawOb":"METAR SBJV 211700Z 16003KT 9999 FEW030 27/20 Q1017","temp":27,"dewp":20,"wdir":160,"wspd":3,"visib":"6+","altim":1017,"clouds":[{"cover":"FEW","base":3000}],"obsTime":1776790800},"SBNM":{"icaoId":"SBNM","flightCategory":"VFR","rawOb":"METAR SBNM 211700Z 12006KT 9999 SCT030 BKN070 25/22 Q1015","temp":25,"dewp":22,"wdir":120,"wspd":6,"visib":"6+","altim":1015,"clouds":[{"cover":"SCT","base":3000},{"cover":"BKN","base":7000}],"obsTime":1776790800},"SBLE":{"icaoId":"SBLE","flightCategory":"VFR","rawOb":"METAR SBLE 211700Z AUTO 14005KT 050V190 9999 FEW045 29/18 Q1015","temp":29,"dewp":18,"wdir":140,"wspd":5,"visib":"6+","altim":1015,"clouds":[{"cover":"FEW","base":4500}],"obsTime":1776790800},"SBAF":{"icaoId":"SBAF","flightCategory":"VFR","rawOb":"METAR SBAF 211700Z 18011KT CAVOK 28/17 Q1015","temp":28,"dewp":17,"wdir":180,"wspd":11,"visib":"6+","altim":1015,"clouds":[],"obsTime":1776790800},"SBGW":{"icaoId":"SBGW","flightCategory":"VFR","rawOb":"METAR SBGW 211700Z VRB03KT 9999 SCT030 27/15 Q1017","temp":27,"dewp":15,"wdir":"VRB","wspd":3,"visib":"6+","altim":1017,"clouds":[{"cover":"SCT","base":3000}],"obsTime":1776790800},"SBJR":{"icaoId":"SBJR","flightCategory":"VFR","rawOb":"METAR SBJR 211700Z 19007KT 9999 FEW030 28/20 Q1015","temp":28,"dewp":20,"wdir":190,"wspd":7,"visib":"6+","altim":1015,"clouds":[{"cover":"FEW","base":3000}],"obsTime":1776790800},"SBLS":{"icaoId":"SBLS","flightCategory":"VFR","rawOb":"METAR SBLS 211700Z 14006KT 050V170 9999 SCT040 FEW041TCU 27/19 Q1018","temp":27,"dewp":19,"wdir":140,"wspd":6,"visib":"6+","altim":1018,"clouds":[{"cover":"SCT","base":4000},{"cover":"FEW","base":4100}],"obsTime":1776790800},"SBMT":{"icaoId":"SBMT","flightCategory":"VFR","rawOb":"METAR SBMT 211700Z 13004KT CAVOK 25/13 Q1018","temp":25,"dewp":13,"wdir":130,"wspd":4,"visib":"6+","altim":1018,"clouds":[],"obsTime":1776790800},"SBST":{"icaoId":"SBST","flightCategory":"VFR","rawOb":"METAR SBST 211700Z 18005KT 9999 SCT040 27/19 Q1016","temp":27,"dewp":19,"wdir":180,"wspd":5,"visib":"6+","altim":1016,"clouds":[{"cover":"SCT","base":4000}],"obsTime":1776790800},"SBTA":{"icaoId":"SBTA","flightCategory":"VFR","rawOb":"METAR SBTA 211700Z VRB04KT 9999 FEW035 26/13 Q1016","temp":26,"dewp":13,"wdir":"VRB","wspd":4,"visib":"6+","altim":1016,"clouds":[{"cover":"FEW","base":3500}],"obsTime":1776790800},"SBIH":{"icaoId":"SBIH","flightCategory":"VFR","rawOb":"METAR SBIH 211700Z 35015KT 9999 -TSRA SCT018 FEW025CB BKN100 25/24 Q1011","temp":25,"dewp":24,"wdir":350,"wspd":15,"visib":"6+","altim":1011,"clouds":[{"cover":"SCT","base":1800},{"cover":"FEW","base":2500},{"cover":"BKN","base":10000}],"obsTime":1776790800}}}