{"updated":1784806996,"count":84,"data":{"SBIL":{"icaoId":"SBIL","flightCategory":"VFR","rawOb":"METAR SBIL 231000Z 23003KT 210V270 9999 VCSH SCT018 SCT040 22/21 Q1018","temp":22,"dewp":21,"wdir":230,"wspd":3,"visib":"6+","altim":1018,"clouds":[{"cover":"SCT","base":1800},{"cover":"SCT","base":4000}],"obsTime":1784800800},"SBAT":{"icaoId":"SBAT","flightCategory":"VFR","rawOb":"METAR SBAT 231100Z 00000KT CAVOK 23/20 Q1014","temp":23,"dewp":20,"wdir":0,"wspd":0,"visib":"6+","altim":1014,"clouds":[],"obsTime":1784804400},"SBHT":{"icaoId":"SBHT","flightCategory":"VFR","rawOb":"METAR SBHT 231000Z 00000KT 9999 SCT012 24/23 Q1012","temp":24,"dewp":23,"wdir":0,"wspd":0,"visib":"6+","altim":1012,"clouds":[{"cover":"SCT","base":1200}],"obsTime":1784800800},"SBME":{"icaoId":"SBME","flightCategory":"MVFR","rawOb":"METAR SBME 231000Z 00000KT 8000 NSC 16/15 Q1014","temp":16,"dewp":15,"wdir":0,"wspd":0,"visib":4.97,"altim":1014,"clouds":[],"obsTime":1784800800},"SBMK":{"icaoId":"SBMK","flightCategory":"VFR","rawOb":"METAR SBMK 231000Z 00000KT CAVOK 16/14 Q1019","temp":16,"dewp":14,"wdir":0,"wspd":0,"visib":"6+","altim":1019,"clouds":[],"obsTime":1784800800},"SBUL":{"icaoId":"SBUL","flightCategory":"VFR","rawOb":"METAR SBUL 231000Z VRB06KT CAVOK 18/10 Q1020","temp":18,"dewp":10,"wdir":"VRB","wspd":6,"visib":"6+","altim":1020,"clouds":[],"obsTime":1784800800},"SBUR":{"icaoId":"SBUR","flightCategory":"VFR","rawOb":"METAR SBUR 231000Z 10002KT CAVOK 18/11 Q1019","temp":18,"dewp":11,"wdir":100,"wspd":2,"visib":"6+","altim":1019,"clouds":[],"obsTime":1784800800},"SBSV":{"icaoId":"SBSV","flightCategory":"VFR","rawOb":"METAR SBSV 231000Z VRB01KT 9999 SCT020 BKN100 24/22 Q1017","temp":24,"dewp":22,"wdir":"VRB","wspd":1,"visib":"6+","altim":1017,"clouds":[{"cover":"SCT","base":2000},{"cover":"BKN","base":10000}],"obsTime":1784800800},"SBMG":{"icaoId":"SBMG","flightCategory":"LIFR","rawOb":"METAR SBMG 231000Z 11003KT 0250 R10/0900N FG VV002 15/14 Q1017","temp":15,"dewp":14,"wdir":110,"wspd":3,"visib":0.16,"altim":1017,"clouds":[{"cover":"OVX","base":200}],"obsTime":1784800800},"SBJU":{"icaoId":"SBJU","flightCategory":"VFR","rawOb":"METAR SBJU 231000Z 15005KT 9999 SCT020 24/19 Q1017","temp":24,"dewp":19,"wdir":150,"wspd":5,"visib":"6+","altim":1017,"clouds":[{"cover":"SCT","base":2000}],"obsTime":1784800800},"SBCF":{"icaoId":"SBCF","flightCategory":"VFR","rawOb":"METAR SBCF 231000Z 15002KT CAVOK 16/14 Q1020","temp":16,"dewp":14,"wdir":150,"wspd":2,"visib":"6+","altim":1020,"clouds":[],"obsTime":1784800800},"SBCT":{"icaoId":"SBCT","flightCategory":"MVFR","rawOb":"METAR SBCT 231000Z VRB02KT 9999 BKN010 14/13 Q1018","temp":14,"dewp":13,"wdir":"VRB","wspd":2,"visib":"6+","altim":1018,"clouds":[{"cover":"BKN","base":1000}],"obsTime":1784800800},"SBCB":{"icaoId":"SBCB","flightCategory":"MVFR","rawOb":"METAR SBCB 231000Z 12002KT 7000 NSC 20/18 Q1015","temp":20,"dewp":18,"wdir":120,"wspd":2,"visib":4.35,"altim":1015,"clouds":[],"obsTime":1784800800},"SBFZ":{"icaoId":"SBFZ","flightCategory":"MVFR","rawOb":"METAR SBFZ 231000Z 15009KT 9999 VCSH FEW016 BKN019 FEW030TCU 26/24 Q1013","temp":26,"dewp":24,"wdir":150,"wspd":9,"visib":"6+","altim":1013,"clouds":[{"cover":"FEW","base":1600},{"cover":"BKN","base":1900},{"cover":"FEW","base":3000}],"obsTime":1784800800},"SBSP":{"icaoId":"SBSP","flightCategory":"VFR","rawOb":"METAR SBSP 231000Z 35003KT CAVOK 16/15 Q1017","temp":16,"dewp":15,"wdir":350,"wspd":3,"visib":"6+","altim":1017,"clouds":[],"obsTime":1784800800},"SBEG":{"icaoId":"SBEG","flightCategory":"VFR","rawOb":"METAR SBEG 231000Z 08004KT CAVOK 25/23 Q1012","temp":25,"dewp":23,"wdir":80,"wspd":4,"visib":"6+","altim":1012,"clouds":[],"obsTime":1784800800},"SBBE":{"icaoId":"SBBE","flightCategory":"VFR","rawOb":"METAR SBBE 231000Z 09006KT CAVOK 25/24 Q1012","temp":25,"dewp":24,"wdir":90,"wspd":6,"visib":"6+","altim":1012,"clouds":[],"obsTime":1784800800},"SBMQ":{"icaoId":"SBMQ","flightCategory":"VFR","rawOb":"METAR SBMQ 231000Z 35002KT 9999 FEW015 24/23 Q1012","temp":24,"dewp":23,"wdir":350,"wspd":2,"visib":"6+","altim":1012,"clouds":[{"cover":"FEW","base":1500}],"obsTime":1784800800},"SBCG":{"icaoId":"SBCG","flightCategory":"LIFR","rawOb":"METAR SBCG 231000Z 14005KT 9999 OVC004 18/18 Q1016","temp":18,"dewp":18,"wdir":140,"wspd":5,"visib":"6+","altim":1016,"clouds":[{"cover":"OVC","base":400}],"obsTime":1784800800},"SBFL":{"icaoId":"SBFL","flightCategory":"VFR","rawOb":"METAR SBFL 231000Z 17007KT 9999 SCT030 18/16 Q1015","temp":18,"dewp":16,"wdir":170,"wspd":7,"visib":"6+","altim":1015,"clouds":[{"cover":"SCT","base":3000}],"obsTime":1784800800},"SBPA":{"icaoId":"SBPA","flightCategory":"MVFR","rawOb":"METAR SBPA 231000Z 21004KT 170V240 5000 -DZ BR BKN013 OVC021 14/14 Q1019","temp":14,"dewp":14,"wdir":210,"wspd":4,"visib":3.11,"altim":1019,"clouds":[{"cover":"BKN","base":1300},{"cover":"OVC","base":2100}],"obsTime":1784800800},"SBVT":{"icaoId":"SBVT","flightCategory":"VFR","rawOb":"METAR SBVT 231000Z 03005KT CAVOK 22/19 Q1016","temp":22,"dewp":19,"wdir":30,"wspd":5,"visib":"6+","altim":1016,"clouds":[],"obsTime":1784800800},"SBSN":{"icaoId":"SBSN","flightCategory":"VFR","rawOb":"METAR SBSN 231000Z 16002KT 9999 SCT011 SCT015 24/24 Q1011","temp":24,"dewp":24,"wdir":160,"wspd":2,"visib":"6+","altim":1011,"clouds":[{"cover":"SCT","base":1100},{"cover":"SCT","base":1500}],"obsTime":1784800800},"SBTE":{"icaoId":"SBTE","flightCategory":"VFR","rawOb":"METAR SBTE 231000Z 09002KT CAVOK 26/23 Q1012","temp":26,"dewp":23,"wdir":90,"wspd":2,"visib":"6+","altim":1012,"clouds":[],"obsTime":1784800800},"SBLO":{"icaoId":"SBLO","flightCategory":"LIFR","rawOb":"METAR SBLO 231000Z 20003KT 3000 BR OVC004 14/14 Q1018","temp":14,"dewp":14,"wdir":200,"wspd":3,"visib":1.86,"altim":1018,"clouds":[{"cover":"OVC","base":400}],"obsTime":1784800800},"SBCP":{"icaoId":"SBCP","flightCategory":"VFR","rawOb":"METAR SBCP 231000Z 02006KT CAVOK 20/18 Q1015","temp":20,"dewp":18,"wdir":20,"wspd":6,"visib":"6+","altim":1015,"clouds":[],"obsTime":1784800800},"SBBV":{"icaoId":"SBBV","flightCategory":"VFR","rawOb":"METAR SBBV 231000Z 06002KT CAVOK 24/22 Q1012","temp":24,"dewp":22,"wdir":60,"wspd":2,"visib":"6+","altim":1012,"clouds":[],"obsTime":1784800800},"SBPV":{"icaoId":"SBPV","flightCategory":"VFR","rawOb":"METAR SBPV 231000Z 14002KT CAVOK 23/21 Q1011","temp":23,"dewp":21,"wdir":140,"wspd":2,"visib":"6+","altim":1011,"clouds":[],"obsTime":1784800800},"SBGO":{"icaoId":"SBGO","flightCategory":"VFR","rawOb":"METAR SBGO 231000Z 32002KT CAVOK 15/13 Q1019","temp":15,"dewp":13,"wdir":320,"wspd":2,"visib":"6+","altim":1019,"clouds":[],"obsTime":1784800800},"SBKP":{"icaoId":"SBKP","flightCategory":"VFR","rawOb":"METAR SBKP 231000Z 05006KT CAVOK 17/14 Q1016","temp":17,"dewp":14,"wdir":50,"wspd":6,"visib":"6+","altim":1016,"clouds":[],"obsTime":1784800800},"SBRB":{"icaoId":"SBRB","flightCategory":"VFR","rawOb":"METAR SBRB 231000Z 26002KT CAVOK 22/22 Q1011","temp":22,"dewp":22,"wdir":260,"wspd":2,"visib":"6+","altim":1011,"clouds":[],"obsTime":1784800800},"SBGR":{"icaoId":"SBGR","flightCategory":"VFR","rawOb":"METAR SBGR 231000Z 01008KT CAVOK 16/14 Q1017","temp":16,"dewp":14,"wdir":10,"wspd":8,"visib":"6+","altim":1017,"clouds":[],"obsTime":1784800800},"SBNT":{"icaoId":"SBNT","flightCategory":"MVFR","rawOb":"METAR SBNT 231000Z 20005KT 9999 FEW017 BKN030 BKN100 24/24 Q1015","temp":24,"dewp":24,"wdir":200,"wspd":5,"visib":"6+","altim":1015,"clouds":[{"cover":"FEW","base":1700},{"cover":"BKN","base":3000},{"cover":"BKN","base":10000}],"obsTime":1784800800},"SBRF":{"icaoId":"SBRF","flightCategory":"VFR","rawOb":"METAR SBRF 231000Z 13005KT 100V160 9999 SCT020 BKN035 25/23 Q1015","temp":25,"dewp":23,"wdir":130,"wspd":5,"visib":"6+","altim":1015,"clouds":[{"cover":"SCT","base":2000},{"cover":"BKN","base":3500}],"obsTime":1784800800},"SBSL":{"icaoId":"SBSL","flightCategory":"VFR","rawOb":"METAR SBSL 231000Z 07003KT 040V110 9999 FEW016 26/24 Q1012","temp":26,"dewp":24,"wdir":70,"wspd":3,"visib":"6+","altim":1012,"clouds":[{"cover":"FEW","base":1600}],"obsTime":1784800800},"SBCR":{"icaoId":"SBCR","flightCategory":"VFR","rawOb":"METAR SBCR 231100Z 22006KT 170V250 9999 SCT006 BKN100 16/15 Q1016","temp":16,"dewp":15,"wdir":220,"wspd":6,"visib":"6+","altim":1016,"clouds":[{"cover":"SCT","base":600},{"cover":"BKN","base":10000}],"obsTime":1784804400},"SBFI":{"icaoId":"SBFI","flightCategory":"IFR","rawOb":"METAR SBFI 231000Z 17003KT 9999 BKN009 BKN040 15/15 Q1017","temp":15,"dewp":15,"wdir":170,"wspd":3,"visib":"6+","altim":1017,"clouds":[{"cover":"BKN","base":900},{"cover":"BKN","base":4000}],"obsTime":1784800800},"SBMA":{"icaoId":"SBMA","flightCategory":"VFR","rawOb":"METAR SBMA 231000Z 00000KT CAVOK 25/23 Q1012","temp":25,"dewp":23,"wdir":0,"wspd":0,"visib":"6+","altim":1012,"clouds":[],"obsTime":1784800800},"SBGL":{"icaoId":"SBGL","flightCategory":"MVFR","rawOb":"METAR SBGL 231000Z 04004KT 8000 NSC 19/17 Q1016","temp":19,"dewp":17,"wdir":40,"wspd":4,"visib":4.97,"altim":1016,"clouds":[],"obsTime":1784800800},"SBMO":{"icaoId":"SBMO","flightCategory":"MVFR","rawOb":"METAR SBMO 231000Z 17003KT 9999 VCSH SCT013 BKN020 BKN070 23/22 Q1016","temp":23,"dewp":22,"wdir":170,"wspd":3,"visib":"6+","altim":1016,"clouds":[{"cover":"SCT","base":1300},{"cover":"BKN","base":2000},{"cover":"BKN","base":7000}],"obsTime":1784800800},"SBPJ":{"icaoId":"SBPJ","flightCategory":"VFR","rawOb":"METAR SBPJ 231000Z 13003KT CAVOK 21/17 Q1014","temp":21,"dewp":17,"wdir":130,"wspd":3,"visib":"6+","altim":1014,"clouds":[],"obsTime":1784800800},"SBSG":{"icaoId":"SBSG","flightCategory":"VFR","rawOb":"METAR SBSG 231000Z 20004KT 160V220 9999 VCSH FEW005 SCT020 FEW025TCU BKN100 23/23 Q1016","temp":23,"dewp":23,"wdir":200,"wspd":4,"visib":"6+","altim":1016,"clouds":[{"cover":"FEW","base":500},{"cover":"SCT","base":2000},{"cover":"FEW","base":2500},{"cover":"BKN","base":10000}],"obsTime":1784800800},"SBBR":{"icaoId":"SBBR","flightCategory":"VFR","rawOb":"METAR SBBR 231000Z 29003KT CAVOK 14/11 Q1021","temp":14,"dewp":11,"wdir":290,"wspd":3,"visib":"6+","altim":1021,"clouds":[],"obsTime":1784800800},"SBTF":{"icaoId":"SBTF","flightCategory":"VFR","rawOb":"SPECI SBTF 231115Z 00000KT 9999 FEW008 25/25 Q1011","temp":25,"dewp":25,"wdir":0,"wspd":0,"visib":"6+","altim":1011,"clouds":[{"cover":"FEW","base":800}],"obsTime":1784805300},"SBPP":{"icaoId":"SBPP","flightCategory":"LIFR","rawOb":"SPECI SBPP 231115Z 12006KT 0500 FG VV000 14/14 Q1017","temp":14,"dewp":14,"wdir":120,"wspd":6,"visib":0.31,"altim":1017,"clouds":[{"cover":"OVX","base":0}],"obsTime":1784805300},"SBES":{"icaoId":"SBES","flightCategory":"LIFR","rawOb":"METAR SBES 231000Z 00000KT 0300 FG VV001 15/// Q1015","temp":null,"dewp":null,"wdir":0,"wspd":0,"visib":0.19,"altim":1015,"clouds":[{"cover":"OVX","base":100}],"obsTime":1784800800},"SBAR":{"icaoId":"SBAR","flightCategory":"VFR","rawOb":"METAR SBAR 231000Z 11006KT 9999 FEW022 26/22 Q1016","temp":26,"dewp":22,"wdir":110,"wspd":6,"visib":"6+","altim":1016,"clouds":[{"cover":"FEW","base":2200}],"obsTime":1784800800},"SBPS":{"icaoId":"SBPS","flightCategory":"VFR","rawOb":"METAR SBPS 231000Z 31004KT 9999 SCT020 BKN100 21/20 Q1018","temp":21,"dewp":20,"wdir":310,"wspd":4,"visib":"6+","altim":1018,"clouds":[{"cover":"SCT","base":2000},{"cover":"BKN","base":10000}],"obsTime":1784800800},"SBTU":{"icaoId":"SBTU","flightCategory":"VFR","rawOb":"METAR SBTU 231000Z AUTO 22005KT 9999 // NCD ///// Q1014","temp":null,"dewp":null,"wdir":220,"wspd":5,"visib":"6+","altim":1014,"clouds":[],"obsTime":1784800800},"SBCA":{"icaoId":"SBCA","flightCategory":"LIFR","rawOb":"METAR SBCA 231000Z 17006KT 0100 FG OVC001 14/14 Q1018","temp":14,"dewp":14,"wdir":170,"wspd":6,"visib":0.06,"altim":1018,"clouds":[{"cover":"OVC","base":100}],"obsTime":1784800800},"SBCO":{"icaoId":"SBCO","flightCategory":"IFR","rawOb":"METAR SBCO 231000Z 22003KT 4500 -RA BR FEW009 BKN013 BKN033 14/13 Q1019","temp":14,"dewp":13,"wdir":220,"wspd":3,"visib":2.8,"altim":1019,"clouds":[{"cover":"FEW","base":900},{"cover":"BKN","base":1300},{"cover":"BKN","base":3300}],"obsTime":1784800800},"SBSM":{"icaoId":"SBSM","flightCategory":"MVFR","rawOb":"METAR SBSM 231000Z 09004KT 9999 SCT009 BKN018 13/12 Q1019","temp":13,"dewp":12,"wdir":90,"wspd":4,"visib":"6+","altim":1019,"clouds":[{"cover":"SCT","base":900},{"cover":"BKN","base":1800}],"obsTime":1784800800},"SBTT":{"icaoId":"SBTT","flightCategory":"VFR","rawOb":"METAR SBTT 231100Z 00000KT 9999 FEW005 SCT060 23/22 Q1012","temp":23,"dewp":22,"wdir":0,"wspd":0,"visib":"6+","altim":1012,"clouds":[{"cover":"FEW","base":500},{"cover":"SCT","base":6000}],"obsTime":1784804400},"SBCJ":{"icaoId":"SBCJ","flightCategory":"VFR","rawOb":"SPECI SBCJ 231015Z 00000KT CAVOK 22/19 Q1016","temp":22,"dewp":19,"wdir":0,"wspd":0,"visib":"6+","altim":1016,"clouds":[],"obsTime":1784801700},"SBPB":{"icaoId":"SBPB","flightCategory":"VFR","rawOb":"SPECI SBPB 231015Z 09008KT 9999 FEW020 26/23 Q1013","temp":26,"dewp":23,"wdir":90,"wspd":8,"visib":"6+","altim":1013,"clouds":[{"cover":"FEW","base":2000}],"obsTime":1784801700},"SBSC":{"icaoId":"SBSC","flightCategory":"VFR","rawOb":"METAR SBSC 231000Z 22008KT 9999 FEW020 BKN070 21/19 Q1016","temp":21,"dewp":19,"wdir":220,"wspd":8,"visib":"6+","altim":1016,"clouds":[{"cover":"FEW","base":2000},{"cover":"BKN","base":7000}],"obsTime":1784800800},"SBSR":{"icaoId":"SBSR","flightCategory":"MVFR","rawOb":"METAR SBSR 231000Z 09006KT 050V160 9999 -DZ FEW010 BKN030 18/13 Q1017","temp":18,"dewp":13,"wdir":90,"wspd":6,"visib":"6+","altim":1017,"clouds":[{"cover":"FEW","base":1000},{"cover":"BKN","base":3000}],"obsTime":1784800800},"SBIP":{"icaoId":"SBIP","flightCategory":"VFR","rawOb":"METAR SBIP 231000Z AUTO 01003KT 9999 FEW004 15/15 Q1019","temp":15,"dewp":15,"wdir":10,"wspd":3,"visib":"6+","altim":1019,"clouds":[{"cover":"FEW","base":400}],"obsTime":1784800800},"SBOI":{"icaoId":"SBOI","flightCategory":"VFR","rawOb":"METAR SBOI 231000Z AUTO 00000KT 9999 SCT001 21/20 Q1013","temp":21,"dewp":20,"wdir":0,"wspd":0,"visib":"6+","altim":1013,"clouds":[{"cover":"SCT","base":100}],"obsTime":1784800800},"SBKG":{"icaoId":"SBKG","flightCategory":"IFR","rawOb":"METAR SBKG 231000Z 12005KT 4000 -RA BR SCT007 BKN010 OVC070 21/21 Q1018","temp":21,"dewp":21,"wdir":120,"wspd":5,"visib":2.49,"altim":1018,"clouds":[{"cover":"SCT","base":700},{"cover":"BKN","base":1000},{"cover":"OVC","base":7000}],"obsTime":1784800800},"SBTD":{"icaoId":"SBTD","flightCategory":"IFR","rawOb":"METAR SBTD 231100Z /////KT 9999 BKN006 OVC018 16/15 Q1018","temp":16,"dewp":15,"wdir":null,"wspd":null,"visib":"6+","altim":1018,"clouds":[{"cover":"BKN","base":600},{"cover":"OVC","base":1800}],"obsTime":1784804400},"SBCC":{"icaoId":"SBCC","flightCategory":"VFR","rawOb":"METAR SBCC 231100Z 03005KT CAVOK 23/17 Q1015","temp":23,"dewp":17,"wdir":30,"wspd":5,"visib":"6+","altim":1015,"clouds":[],"obsTime":1784804400},"SBVH":{"icaoId":"SBVH","flightCategory":"VFR","rawOb":"METAR SBVH 231100Z 25003KT CAVOK 21/18 Q1016","temp":21,"dewp":18,"wdir":250,"wspd":3,"visib":"6+","altim":1016,"clouds":[],"obsTime":1784804400},"SBAX":{"icaoId":"SBAX","flightCategory":"VFR","rawOb":"METAR SBAX 231000Z AUTO VRB01KT CAVOK 16/10 Q1020","temp":16,"dewp":10,"wdir":"VRB","wspd":1,"visib":"6+","altim":1020,"clouds":[],"obsTime":1784800800},"SBSJ":{"icaoId":"SBSJ","flightCategory":"VFR","rawOb":"METAR SBSJ 231000Z 32003KT 290V050 9999 FEW026 BKN083 16/14 Q1018","temp":16,"dewp":14,"wdir":320,"wspd":3,"visib":"6+","altim":1018,"clouds":[{"cover":"FEW","base":2600},{"cover":"BKN","base":8300}],"obsTime":1784800800},"SBBH":{"icaoId":"SBBH","flightCategory":"VFR","rawOb":"METAR SBBH 231000Z 09006KT CAVOK 16/13 Q1020","temp":16,"dewp":13,"wdir":90,"wspd":6,"visib":"6+","altim":1020,"clouds":[],"obsTime":1784800800},"SBUY":{"icaoId":"SBUY","flightCategory":"MVFR","rawOb":"METAR SBUY 231100Z 00000KT 5000 BR NSC 22/21 Q1010","temp":22,"dewp":21,"wdir":0,"wspd":0,"visib":3.11,"altim":1010,"clouds":[],"obsTime":1784804400},"SBBU":{"icaoId":"SBBU","flightCategory":"VFR","rawOb":"METAR SBBU 231000Z 05006KT CAVOK 16/16 Q1017","temp":16,"dewp":16,"wdir":50,"wspd":6,"visib":"6+","altim":1017,"clouds":[],"obsTime":1784800800},"SBDN":{"icaoId":"SBDN","flightCategory":"VFR","rawOb":"METAR SBDN 231000Z 20003KT CAVOK 15/13 Q1017","temp":15,"dewp":13,"wdir":200,"wspd":3,"visib":"6+","altim":1017,"clouds":[],"obsTime":1784800800},"SBPL":{"icaoId":"SBPL","flightCategory":"MVFR","rawOb":"METAR SBPL 231000Z 11006KT 9999 BKN012 23/20 Q1018","temp":23,"dewp":20,"wdir":110,"wspd":6,"visib":"6+","altim":1018,"clouds":[{"cover":"BKN","base":1200}],"obsTime":1784800800},"SBNM":{"icaoId":"SBNM","flightCategory":"IFR","rawOb":"METAR SBNM 231000Z AUTO VRB02KT 8000 -RA SCT003 BKN008 OVC015 13/13 Q1018","temp":13,"dewp":13,"wdir":"VRB","wspd":2,"visib":4.97,"altim":1018,"clouds":[{"cover":"SCT","base":300},{"cover":"BKN","base":800},{"cover":"OVC","base":1500}],"obsTime":1784800800},"SBST":{"icaoId":"SBST","flightCategory":"VFR","rawOb":"METAR SBST 231100Z 01004KT 9999 FEW030 18/18 Q1014","temp":18,"dewp":18,"wdir":10,"wspd":4,"visib":"6+","altim":1014,"clouds":[{"cover":"FEW","base":3000}],"obsTime":1784804400},"SBTA":{"icaoId":"SBTA","flightCategory":"VFR","rawOb":"METAR SBTA 231000Z VRB02KT 9999 FEW025 BKN080 16/14 Q1018","temp":16,"dewp":14,"wdir":"VRB","wspd":2,"visib":"6+","altim":1018,"clouds":[{"cover":"FEW","base":2500},{"cover":"BKN","base":8000}],"obsTime":1784800800},"SBPF":{"icaoId":"SBPF","flightCategory":"MVFR","rawOb":"METAR SBPF 231000Z COR 15008KT 9999 BKN020 12/11 Q1019","temp":12,"dewp":11,"wdir":150,"wspd":8,"visib":"6+","altim":1019,"clouds":[{"cover":"BKN","base":2000}],"obsTime":1784800800},"SBLE":{"icaoId":"SBLE","flightCategory":"VFR","rawOb":"METAR SBLE 231000Z AUTO VRB01KT 9999 BKN032 ///// Q1021","temp":null,"dewp":null,"wdir":"VRB","wspd":1,"visib":"6+","altim":1021,"clouds":[{"cover":"BKN","base":3200}],"obsTime":1784800800},"SBIH":{"icaoId":"SBIH","flightCategory":"VFR","rawOb":"METAR SBIH 231100Z 00000KT CAVOK 25/23 Q1012","temp":25,"dewp":23,"wdir":0,"wspd":0,"visib":"6+","altim":1012,"clouds":[],"obsTime":1784804400},"SBAF":{"icaoId":"SBAF","flightCategory":"VFR","rawOb":"METAR SBAF 231000Z 25004KT 200V300 9999 FEW020 20/20 Q1016","temp":20,"dewp":20,"wdir":250,"wspd":4,"visib":"6+","altim":1016,"clouds":[{"cover":"FEW","base":2000}],"obsTime":1784800800},"SBGW":{"icaoId":"SBGW","flightCategory":"MVFR","rawOb":"METAR SBGW 231000Z 16002KT 8000 FEW015 BKN100 16/14 Q1018","temp":16,"dewp":14,"wdir":160,"wspd":2,"visib":4.97,"altim":1018,"clouds":[{"cover":"FEW","base":1500},{"cover":"BKN","base":10000}],"obsTime":1784800800},"SBAN":{"icaoId":"SBAN","flightCategory":"VFR","rawOb":"METAR SBAN 231000Z 12003KT CAVOK 13/10 Q1021","temp":13,"dewp":10,"wdir":120,"wspd":3,"visib":"6+","altim":1021,"clouds":[],"obsTime":1784800800},"SBJR":{"icaoId":"SBJR","flightCategory":"MVFR","rawOb":"METAR SBJR 231000Z 19003KT 9999 BKN012 20/18 Q1015","temp":20,"dewp":18,"wdir":190,"wspd":3,"visib":"6+","altim":1015,"clouds":[{"cover":"BKN","base":1200}],"obsTime":1784800800},"SBLS":{"icaoId":"SBLS","flightCategory":"VFR","rawOb":"METAR SBLS 231000Z 16005KT CAVOK 17/14 Q1020","temp":17,"dewp":14,"wdir":160,"wspd":5,"visib":"6+","altim":1020,"clouds":[],"obsTime":1784800800},"SBJP":{"icaoId":"SBJP","flightCategory":"MVFR","rawOb":"METAR SBJP 231000Z 20005KT 9999 BKN012 BKN070 24/23 Q1016","temp":24,"dewp":23,"wdir":200,"wspd":5,"visib":"6+","altim":1016,"clouds":[{"cover":"BKN","base":1200},{"cover":"BKN","base":7000}],"obsTime":1784800800},"SBJV":{"icaoId":"SBJV","flightCategory":"VFR","rawOb":"METAR SBJV 231000Z 01001KT CAVOK 16/16 Q1014","temp":16,"dewp":16,"wdir":10,"wspd":1,"visib":"6+","altim":1014,"clouds":[],"obsTime":1784800800},"SBMT":{"icaoId":"SBMT","flightCategory":"VFR","rawOb":"METAR SBMT 231000Z VRB01KT 9999 FEW020 15/15 Q1017","temp":15,"dewp":15,"wdir":"VRB","wspd":1,"visib":"6+","altim":1017,"clouds":[{"cover":"FEW","base":2000}],"obsTime":1784800800}}}