{"updated":1777887324,"count":65,"data":{"SBSG":{"icaoId":"SBSG","flightCategory":"VFR","rawOb":"METAR SBSG 040800Z 19004KT 160V220 9999 FEW020 24/23 Q1012","temp":24,"dewp":23,"wdir":190,"wspd":4,"visib":"6+","altim":1012,"clouds":[{"cover":"FEW","base":2000}],"obsTime":1777881600},"SBBE":{"icaoId":"SBBE","flightCategory":"VFR","rawOb":"METAR SBBE 040800Z 12004KT 9999 FEW015 24/23 Q1011","temp":24,"dewp":23,"wdir":120,"wspd":4,"visib":"6+","altim":1011,"clouds":[{"cover":"FEW","base":1500}],"obsTime":1777881600},"SBBR":{"icaoId":"SBBR","flightCategory":"VFR","rawOb":"METAR SBBR 040800Z 16003KT CAVOK 18/13 Q1019","temp":18,"dewp":13,"wdir":160,"wspd":3,"visib":"6+","altim":1019,"clouds":[],"obsTime":1777881600},"SBBV":{"icaoId":"SBBV","flightCategory":"VFR","rawOb":"METAR SBBV 040800Z 15006KT 9999 SCT025 FEW040TCU BKN100 26/24 Q1012","temp":26,"dewp":24,"wdir":150,"wspd":6,"visib":"6+","altim":1012,"clouds":[{"cover":"SCT","base":2500},{"cover":"FEW","base":4000},{"cover":"BKN","base":10000}],"obsTime":1777881600},"SBCB":{"icaoId":"SBCB","flightCategory":"VFR","rawOb":"METAR SBCB 040900Z 07002KT 9999 SCT015 BKN050 21/18 Q1020","temp":21,"dewp":18,"wdir":70,"wspd":2,"visib":"6+","altim":1020,"clouds":[{"cover":"SCT","base":1500},{"cover":"BKN","base":5000}],"obsTime":1777885200},"SBCF":{"icaoId":"SBCF","flightCategory":"IFR","rawOb":"METAR SBCF 040800Z 13006KT 090V170 3000 -RA BR SCT020 OVC030 18/17 Q1021","temp":18,"dewp":17,"wdir":130,"wspd":6,"visib":1.86,"altim":1021,"clouds":[{"cover":"SCT","base":2000},{"cover":"OVC","base":3000}],"obsTime":1777881600},"SBCG":{"icaoId":"SBCG","flightCategory":"VFR","rawOb":"METAR SBCG 040800Z 08012KT CAVOK 22/17 Q1015","temp":22,"dewp":17,"wdir":80,"wspd":12,"visib":"6+","altim":1015,"clouds":[],"obsTime":1777881600},"SBCT":{"icaoId":"SBCT","flightCategory":"LIFR","rawOb":"METAR SBCT 040800Z 04004KT 010V090 7000 BKN002 12/12 Q1021","temp":12,"dewp":12,"wdir":40,"wspd":4,"visib":4.35,"altim":1021,"clouds":[{"cover":"BKN","base":200}],"obsTime":1777881600},"SBEG":{"icaoId":"SBEG","flightCategory":"VFR","rawOb":"METAR SBEG 040800Z 00000KT CAVOK 24/23 Q1011","temp":24,"dewp":23,"wdir":0,"wspd":0,"visib":"6+","altim":1011,"clouds":[],"obsTime":1777881600},"SBFI":{"icaoId":"SBFI","flightCategory":"VFR","rawOb":"METAR SBFI 040800Z 08004KT 9999 SCT006 SCT030 BKN070 20/20 Q1014","temp":20,"dewp":20,"wdir":80,"wspd":4,"visib":"6+","altim":1014,"clouds":[{"cover":"SCT","base":600},{"cover":"SCT","base":3000},{"cover":"BKN","base":7000}],"obsTime":1777881600},"SBFL":{"icaoId":"SBFL","flightCategory":"VFR","rawOb":"METAR SBFL 040800Z 35004KT 9999 BKN033 18/14 Q1019","temp":18,"dewp":14,"wdir":350,"wspd":4,"visib":"6+","altim":1019,"clouds":[{"cover":"BKN","base":3300}],"obsTime":1777881600},"SBFZ":{"icaoId":"SBFZ","flightCategory":"VFR","rawOb":"METAR SBFZ 040800Z 19004KT 9999 FEW005 BKN080 24/23 Q1011","temp":24,"dewp":23,"wdir":190,"wspd":4,"visib":"6+","altim":1011,"clouds":[{"cover":"FEW","base":500},{"cover":"BKN","base":8000}],"obsTime":1777881600},"SBGL":{"icaoId":"SBGL","flightCategory":"MVFR","rawOb":"METAR SBGL 040800Z 10002KT 8000 FEW011 BKN030 BKN066 19/18 Q1020","temp":19,"dewp":18,"wdir":100,"wspd":2,"visib":4.97,"altim":1020,"clouds":[{"cover":"FEW","base":1100},{"cover":"BKN","base":3000},{"cover":"BKN","base":6600}],"obsTime":1777881600},"SBGO":{"icaoId":"SBGO","flightCategory":"VFR","rawOb":"METAR SBGO 040800Z 13005KT CAVOK 21/14 Q1017","temp":21,"dewp":14,"wdir":130,"wspd":5,"visib":"6+","altim":1017,"clouds":[],"obsTime":1777881600},"SBGR":{"icaoId":"SBGR","flightCategory":"VFR","rawOb":"METAR SBGR 040800Z 05009KT 9999 FEW022 BKN038 15/14 Q1021","temp":15,"dewp":14,"wdir":50,"wspd":9,"visib":"6+","altim":1021,"clouds":[{"cover":"FEW","base":2200},{"cover":"BKN","base":3800}],"obsTime":1777881600},"SBJU":{"icaoId":"SBJU","flightCategory":"MVFR","rawOb":"METAR SBJU 040800Z 00000KT 9999 BKN018 23/22 Q1014","temp":23,"dewp":22,"wdir":0,"wspd":0,"visib":"6+","altim":1014,"clouds":[{"cover":"BKN","base":1800}],"obsTime":1777881600},"SBKP":{"icaoId":"SBKP","flightCategory":"VFR","rawOb":"METAR SBKP 040800Z 11010KT CAVOK 16/14 Q1019","temp":16,"dewp":14,"wdir":110,"wspd":10,"visib":"6+","altim":1019,"clouds":[],"obsTime":1777881600},"SBLO":{"icaoId":"SBLO","flightCategory":"VFR","rawOb":"METAR SBLO 040800Z 11004KT CAVOK 15/13 Q1018","temp":15,"dewp":13,"wdir":110,"wspd":4,"visib":"6+","altim":1018,"clouds":[],"obsTime":1777881600},"SBMA":{"icaoId":"SBMA","flightCategory":"VFR","rawOb":"METAR SBMA 040800Z 01004KT 9999 FEW013 25/24 Q1011","temp":25,"dewp":24,"wdir":10,"wspd":4,"visib":"6+","altim":1011,"clouds":[{"cover":"FEW","base":1300}],"obsTime":1777881600},"SBME":{"icaoId":"SBME","flightCategory":"VFR","rawOb":"METAR SBME 040800Z 30002KT 9999 FEW040 OVC080 20/18 Q1020","temp":20,"dewp":18,"wdir":300,"wspd":2,"visib":"6+","altim":1020,"clouds":[{"cover":"FEW","base":4000},{"cover":"OVC","base":8000}],"obsTime":1777881600},"SBMG":{"icaoId":"SBMG","flightCategory":"VFR","rawOb":"METAR SBMG 040800Z AUTO 08004KT CAVOK 17/14 Q1016","temp":17,"dewp":14,"wdir":80,"wspd":4,"visib":"6+","altim":1016,"clouds":[],"obsTime":1777881600},"SBMK":{"icaoId":"SBMK","flightCategory":"VFR","rawOb":"METAR SBMK 040800Z 06005KT CAVOK 20/16 Q1019","temp":20,"dewp":16,"wdir":60,"wspd":5,"visib":"6+","altim":1019,"clouds":[],"obsTime":1777881600},"SBMO":{"icaoId":"SBMO","flightCategory":"VFR","rawOb":"METAR SBMO 040800Z VRB02KT 9999 SCT021 22/22 Q1013","temp":22,"dewp":22,"wdir":"VRB","wspd":2,"visib":"6+","altim":1013,"clouds":[{"cover":"SCT","base":2100}],"obsTime":1777881600},"SBMQ":{"icaoId":"SBMQ","flightCategory":"VFR","rawOb":"METAR SBMQ 040800Z 32003KT 9999 SCT013 25/24 Q1010","temp":25,"dewp":24,"wdir":320,"wspd":3,"visib":"6+","altim":1010,"clouds":[{"cover":"SCT","base":1300}],"obsTime":1777881600},"SBNT":{"icaoId":"SBNT","flightCategory":"VFR","rawOb":"METAR SBNT 040800Z 19005KT 9999 FEW021 SCT100 24/23 Q1011","temp":24,"dewp":23,"wdir":190,"wspd":5,"visib":"6+","altim":1011,"clouds":[{"cover":"FEW","base":2100},{"cover":"SCT","base":10000}],"obsTime":1777881600},"SBPA":{"icaoId":"SBPA","flightCategory":"VFR","rawOb":"METAR SBPA 040800Z 06003KT CAVOK 11/09 Q1016","temp":11,"dewp":9,"wdir":60,"wspd":3,"visib":"6+","altim":1016,"clouds":[],"obsTime":1777881600},"SBPJ":{"icaoId":"SBPJ","flightCategory":"VFR","rawOb":"METAR SBPJ 040800Z 14002KT 9999 FEW025 SCT060 25/23 Q1012","temp":25,"dewp":23,"wdir":140,"wspd":2,"visib":"6+","altim":1012,"clouds":[{"cover":"FEW","base":2500},{"cover":"SCT","base":6000}],"obsTime":1777881600},"SBPV":{"icaoId":"SBPV","flightCategory":"VFR","rawOb":"METAR SBPV 040800Z 02002KT CAVOK 24/22 Q1011","temp":24,"dewp":22,"wdir":20,"wspd":2,"visib":"6+","altim":1011,"clouds":[],"obsTime":1777881600},"SBRB":{"icaoId":"SBRB","flightCategory":"MVFR","rawOb":"METAR SBRB 040800Z 20003KT 6000 SCT007 SCT100 25/24 Q1012","temp":25,"dewp":24,"wdir":200,"wspd":3,"visib":3.73,"altim":1012,"clouds":[{"cover":"SCT","base":700},{"cover":"SCT","base":10000}],"obsTime":1777881600},"SBRF":{"icaoId":"SBRF","flightCategory":"MVFR","rawOb":"METAR SBRF 040800Z 20007KT 9999 VCSH BKN021 BKN060 24/23 Q1012","temp":24,"dewp":23,"wdir":200,"wspd":7,"visib":"6+","altim":1012,"clouds":[{"cover":"BKN","base":2100},{"cover":"BKN","base":6000}],"obsTime":1777881600},"SBSL":{"icaoId":"SBSL","flightCategory":"VFR","rawOb":"METAR SBSL 040800Z 08004KT CAVOK 24/23 Q1010","temp":24,"dewp":23,"wdir":80,"wspd":4,"visib":"6+","altim":1010,"clouds":[],"obsTime":1777881600},"SBSN":{"icaoId":"SBSN","flightCategory":"VFR","rawOb":"METAR SBSN 040800Z 09013KT 9999 -RA SCT010 SCT013 OVC100 25/24 Q1012","temp":25,"dewp":24,"wdir":90,"wspd":13,"visib":"6+","altim":1012,"clouds":[{"cover":"SCT","base":1000},{"cover":"SCT","base":1300},{"cover":"OVC","base":10000}],"obsTime":1777881600},"SBSP":{"icaoId":"SBSP","flightCategory":"VFR","rawOb":"METAR SBSP 040800Z AUTO 09007KT 050V130 9999 FEW014 15/14 Q1021","temp":15,"dewp":14,"wdir":90,"wspd":7,"visib":"6+","altim":1021,"clouds":[{"cover":"FEW","base":1400}],"obsTime":1777881600},"SBSV":{"icaoId":"SBSV","flightCategory":"VFR","rawOb":"METAR SBSV 040800Z 15010KT 9999 SCT024 27/22 Q1014","temp":27,"dewp":22,"wdir":150,"wspd":10,"visib":"6+","altim":1014,"clouds":[{"cover":"SCT","base":2400}],"obsTime":1777881600},"SBTE":{"icaoId":"SBTE","flightCategory":"MVFR","rawOb":"METAR SBTE 040800Z 30003KT 9999 BKN010 SCT080 25/24 Q1011","temp":25,"dewp":24,"wdir":300,"wspd":3,"visib":"6+","altim":1011,"clouds":[{"cover":"BKN","base":1000},{"cover":"SCT","base":8000}],"obsTime":1777881600},"SBUL":{"icaoId":"SBUL","flightCategory":"VFR","rawOb":"METAR SBUL 040800Z 10007KT CAVOK 20/14 Q1019","temp":20,"dewp":14,"wdir":100,"wspd":7,"visib":"6+","altim":1019,"clouds":[],"obsTime":1777881600},"SBUR":{"icaoId":"SBUR","flightCategory":"VFR","rawOb":"METAR SBUR 040800Z 08005KT CAVOK 21/15 Q1018","temp":21,"dewp":15,"wdir":80,"wspd":5,"visib":"6+","altim":1018,"clouds":[],"obsTime":1777881600},"SBVT":{"icaoId":"SBVT","flightCategory":"VFR","rawOb":"METAR SBVT 040800Z 23011KT 9999 SCT005 BKN035 21/19 Q1019","temp":21,"dewp":19,"wdir":230,"wspd":11,"visib":"6+","altim":1019,"clouds":[{"cover":"SCT","base":500},{"cover":"BKN","base":3500}],"obsTime":1777881600},"SBSJ":{"icaoId":"SBSJ","flightCategory":"MVFR","rawOb":"SPECI SBSJ 040830Z VRB02KT 9999 BKN013 BKN017 17/14 Q1021","temp":17,"dewp":14,"wdir":"VRB","wspd":2,"visib":"6+","altim":1021,"clouds":[{"cover":"BKN","base":1300},{"cover":"BKN","base":1700}],"obsTime":1777883400},"SBOI":{"icaoId":"SBOI","flightCategory":"LIFR","rawOb":"METAR SBOI 040800Z AUTO 00000KT 9999 // BKN001/// BKN019/// 24/23 Q1011","temp":24,"dewp":23,"wdir":0,"wspd":0,"visib":"6+","altim":1011,"clouds":[{"cover":"BKN","base":100},{"cover":"BKN","base":1900}],"obsTime":1777881600},"SBSC":{"icaoId":"SBSC","flightCategory":"MVFR","rawOb":"METAR SBSC 040800Z 03004KT 5000 BR FEW005 BKN015 OVC030 20/18 Q1019","temp":20,"dewp":18,"wdir":30,"wspd":4,"visib":3.11,"altim":1019,"clouds":[{"cover":"FEW","base":500},{"cover":"BKN","base":1500},{"cover":"OVC","base":3000}],"obsTime":1777881600},"SBSM":{"icaoId":"SBSM","flightCategory":"VFR","rawOb":"METAR SBSM 040900Z 10003KT 9999 FEW003 08/08 Q1015","temp":8,"dewp":8,"wdir":100,"wspd":3,"visib":"6+","altim":1015,"clouds":[{"cover":"FEW","base":300}],"obsTime":1777885200},"SBDN":{"icaoId":"SBDN","flightCategory":"VFR","rawOb":"METAR SBDN 040800Z 11008KT CAVOK 16/13 Q1017","temp":16,"dewp":13,"wdir":110,"wspd":8,"visib":"6+","altim":1017,"clouds":[],"obsTime":1777881600},"SBSR":{"icaoId":"SBSR","flightCategory":"VFR","rawOb":"METAR SBSR 040800Z 16007KT 110V210 CAVOK 17/14 Q1017","temp":17,"dewp":14,"wdir":160,"wspd":7,"visib":"6+","altim":1017,"clouds":[],"obsTime":1777881600},"SBES":{"icaoId":"SBES","flightCategory":"VFR","rawOb":"METAR SBES 040900Z VRB03KT 9999 BKN040 19/// Q1020","temp":null,"dewp":null,"wdir":"VRB","wspd":3,"visib":"6+","altim":1020,"clouds":[{"cover":"BKN","base":4000}],"obsTime":1777885200},"SBTF":{"icaoId":"SBTF","flightCategory":"VFR","rawOb":"METAR SBTF 040800Z 00000KT 9999 FEW005 BKN100 24/24 Q1011","temp":24,"dewp":24,"wdir":0,"wspd":0,"visib":"6+","altim":1011,"clouds":[{"cover":"FEW","base":500},{"cover":"BKN","base":10000}],"obsTime":1777881600},"SBAX":{"icaoId":"SBAX","flightCategory":"VFR","rawOb":"METAR SBAX 040800Z AUTO 10008KT CAVOK 18/18 Q1020","temp":18,"dewp":18,"wdir":100,"wspd":8,"visib":"6+","altim":1020,"clouds":[],"obsTime":1777881600},"SBIP":{"icaoId":"SBIP","flightCategory":"VFR","rawOb":"METAR SBIP 040800Z AUTO 21004KT 9999 OVC037 21/20 Q1019","temp":21,"dewp":20,"wdir":210,"wspd":4,"visib":"6+","altim":1019,"clouds":[{"cover":"OVC","base":3700}],"obsTime":1777881600},"SBBH":{"icaoId":"SBBH","flightCategory":"VFR","rawOb":"METAR SBBH 040900Z 09006KT 9999 BKN040 19/16 Q1021","temp":19,"dewp":16,"wdir":90,"wspd":6,"visib":"6+","altim":1021,"clouds":[{"cover":"BKN","base":4000}],"obsTime":1777885200},"SBKG":{"icaoId":"SBKG","flightCategory":"VFR","rawOb":"METAR SBKG 040800Z 15003KT CAVOK 21/21 Q1015","temp":21,"dewp":21,"wdir":150,"wspd":3,"visib":"6+","altim":1015,"clouds":[],"obsTime":1777881600},"SBPS":{"icaoId":"SBPS","flightCategory":"VFR","rawOb":"METAR SBPS 040800Z 24005KT 9999 FEW017 23/22 Q1015","temp":23,"dewp":22,"wdir":240,"wspd":5,"visib":"6+","altim":1015,"clouds":[{"cover":"FEW","base":1700}],"obsTime":1777881600},"SBAR":{"icaoId":"SBAR","flightCategory":"VFR","rawOb":"METAR SBAR 040800Z 27004KT 9999 FEW023 BKN100 23/23 Q1013","temp":23,"dewp":23,"wdir":270,"wspd":4,"visib":"6+","altim":1013,"clouds":[{"cover":"FEW","base":2300},{"cover":"BKN","base":10000}],"obsTime":1777881600},"SBPL":{"icaoId":"SBPL","flightCategory":"VFR","rawOb":"METAR SBPL 040800Z 10006KT 9999 FEW015 SCT070 24/21 Q1015","temp":24,"dewp":21,"wdir":100,"wspd":6,"visib":"6+","altim":1015,"clouds":[{"cover":"FEW","base":1500},{"cover":"SCT","base":7000}],"obsTime":1777881600},"SBCO":{"icaoId":"SBCO","flightCategory":"MVFR","rawOb":"METAR SBCO 040900Z 06003KT 8000 NSC 09/08 Q1017","temp":9,"dewp":8,"wdir":60,"wspd":3,"visib":4.97,"altim":1017,"clouds":[],"obsTime":1777885200},"SBBU":{"icaoId":"SBBU","flightCategory":"VFR","rawOb":"METAR SBBU 040900Z 10009KT CAVOK 16/14 Q1019","temp":16,"dewp":14,"wdir":100,"wspd":9,"visib":"6+","altim":1019,"clouds":[],"obsTime":1777885200},"SBCA":{"icaoId":"SBCA","flightCategory":"LIFR","rawOb":"METAR SBCA 040900Z 05008G18KT 6000 FEW002 BKN003 BKN100 18/16 Q1017","temp":18,"dewp":16,"wdir":50,"wspd":8,"visib":3.73,"altim":1017,"clouds":[{"cover":"FEW","base":200},{"cover":"BKN","base":300},{"cover":"BKN","base":10000}],"obsTime":1777885200},"SBTA":{"icaoId":"SBTA","flightCategory":"MVFR","rawOb":"METAR SBTA 040900Z 07007KT 8000 FEW014 16/16 Q1021","temp":16,"dewp":16,"wdir":70,"wspd":7,"visib":4.97,"altim":1021,"clouds":[{"cover":"FEW","base":1400}],"obsTime":1777885200},"SBLE":{"icaoId":"SBLE","flightCategory":"VFR","rawOb":"METAR SBLE 040800Z AUTO 07004KT 9999 BKN042 ///// Q////","temp":null,"dewp":null,"wdir":70,"wspd":4,"visib":"6+","altim":null,"clouds":[{"cover":"BKN","base":4200}],"obsTime":1777881600},"SBGW":{"icaoId":"SBGW","flightCategory":"MVFR","rawOb":"METAR SBGW 040900Z 04003KT 340V080 5000 HZ OVC020 17/13 Q1022","temp":17,"dewp":13,"wdir":40,"wspd":3,"visib":3.11,"altim":1022,"clouds":[{"cover":"OVC","base":2000}],"obsTime":1777885200},"SBLS":{"icaoId":"SBLS","flightCategory":"IFR","rawOb":"METAR SBLS 040900Z 14005KT 3000 -RA BR SCT015 BKN040 18/17 Q1021","temp":18,"dewp":17,"wdir":140,"wspd":5,"visib":1.86,"altim":1021,"clouds":[{"cover":"SCT","base":1500},{"cover":"BKN","base":4000}],"obsTime":1777885200},"SBMT":{"icaoId":"SBMT","flightCategory":"MVFR","rawOb":"METAR SBMT 040900Z 08008KT 8000 SCT010 BKN016 15/13 Q1021","temp":15,"dewp":13,"wdir":80,"wspd":8,"visib":4.97,"altim":1021,"clouds":[{"cover":"SCT","base":1000},{"cover":"BKN","base":1600}],"obsTime":1777885200},"SBJP":{"icaoId":"SBJP","flightCategory":"VFR","rawOb":"METAR SBJP 040800Z 19004KT 9999 FEW020 SCT100 23/23 Q1012","temp":23,"dewp":23,"wdir":190,"wspd":4,"visib":"6+","altim":1012,"clouds":[{"cover":"FEW","base":2000},{"cover":"SCT","base":10000}],"obsTime":1777881600},"SBAN":{"icaoId":"SBAN","flightCategory":"VFR","rawOb":"METAR SBAN 040800Z 17008KT CAVOK 18/13 Q1019","temp":18,"dewp":13,"wdir":170,"wspd":8,"visib":"6+","altim":1019,"clouds":[],"obsTime":1777881600},"SBJV":{"icaoId":"SBJV","flightCategory":"MVFR","rawOb":"METAR SBJV 040900Z 27002KT 9999 OVC028 17/16 Q1020","temp":17,"dewp":16,"wdir":270,"wspd":2,"visib":"6+","altim":1020,"clouds":[{"cover":"OVC","base":2800}],"obsTime":1777885200},"SBPF":{"icaoId":"SBPF","flightCategory":"VFR","rawOb":"METAR SBPF 040900Z 04010KT CAVOK 16/10 Q1017","temp":16,"dewp":10,"wdir":40,"wspd":10,"visib":"6+","altim":1017,"clouds":[],"obsTime":1777885200}}}