{"updated":1777766635,"count":66,"data":{"SBFI":{"icaoId":"SBFI","flightCategory":"MVFR","rawOb":"SPECI SBFI 022223Z 18002KT 5000 0300S R33/0900 R15/P2000 BR BCFG SCT004 BKN020 BKN070 20/20 Q1018","temp":20,"dewp":20,"wdir":180,"wspd":2,"visib":3.11,"altim":1018,"clouds":[{"cover":"SCT","base":400},{"cover":"BKN","base":2000},{"cover":"BKN","base":7000}],"obsTime":1777760580},"SBMA":{"icaoId":"SBMA","flightCategory":"VFR","rawOb":"METAR SBMA 022300Z 20003KT 9999 FEW020 FEW023TCU OVC080 25/24 Q1013","temp":25,"dewp":24,"wdir":200,"wspd":3,"visib":"6+","altim":1013,"clouds":[{"cover":"FEW","base":2000},{"cover":"FEW","base":2300},{"cover":"OVC","base":8000}],"obsTime":1777762800},"SBCG":{"icaoId":"SBCG","flightCategory":"VFR","rawOb":"METAR SBCG 022300Z 16003KT 9999 FEW040 23/21 Q1018","temp":23,"dewp":21,"wdir":160,"wspd":3,"visib":"6+","altim":1018,"clouds":[{"cover":"FEW","base":4000}],"obsTime":1777762800},"SBFL":{"icaoId":"SBFL","flightCategory":"VFR","rawOb":"METAR SBFL 022300Z 17014KT 9999 SCT036 BKN050 21/17 Q1018","temp":21,"dewp":17,"wdir":170,"wspd":14,"visib":"6+","altim":1018,"clouds":[{"cover":"SCT","base":3600},{"cover":"BKN","base":5000}],"obsTime":1777762800},"SBCT":{"icaoId":"SBCT","flightCategory":"VFR","rawOb":"METAR SBCT 022300Z 21010KT 9999 SCT008 SCT100 16/15 Q1022","temp":16,"dewp":15,"wdir":210,"wspd":10,"visib":"6+","altim":1022,"clouds":[{"cover":"SCT","base":800},{"cover":"SCT","base":10000}],"obsTime":1777762800},"SBFZ":{"icaoId":"SBFZ","flightCategory":"VFR","rawOb":"METAR SBFZ 022300Z 11009KT 9999 VCTS FEW020 FEW025CB BKN050 26/24 Q1013","temp":26,"dewp":24,"wdir":110,"wspd":9,"visib":"6+","altim":1013,"clouds":[{"cover":"FEW","base":2000},{"cover":"FEW","base":2500},{"cover":"BKN","base":5000}],"obsTime":1777762800},"SBMO":{"icaoId":"SBMO","flightCategory":"VFR","rawOb":"METAR SBMO 022300Z VRB02KT 9999 FEW021 SCT048 BKN061 24/23 Q1015","temp":24,"dewp":23,"wdir":"VRB","wspd":2,"visib":"6+","altim":1015,"clouds":[{"cover":"FEW","base":2100},{"cover":"SCT","base":4800},{"cover":"BKN","base":6100}],"obsTime":1777762800},"SBBV":{"icaoId":"SBBV","flightCategory":"VFR","rawOb":"METAR SBBV 022300Z 13005KT 9999 -RA FEW005 FEW045TCU BKN070 26/25 Q1010","temp":26,"dewp":25,"wdir":130,"wspd":5,"visib":"6+","altim":1010,"clouds":[{"cover":"FEW","base":500},{"cover":"FEW","base":4500},{"cover":"BKN","base":7000}],"obsTime":1777762800},"SBMQ":{"icaoId":"SBMQ","flightCategory":"VFR","rawOb":"METAR SBMQ 022300Z 05007KT CAVOK 27/25 Q1011","temp":27,"dewp":25,"wdir":50,"wspd":7,"visib":"6+","altim":1011,"clouds":[],"obsTime":1777762800},"SBGL":{"icaoId":"SBGL","flightCategory":"VFR","rawOb":"METAR SBGL 022300Z 29006KT 9999 FEW030 26/21 Q1016","temp":26,"dewp":21,"wdir":290,"wspd":6,"visib":"6+","altim":1016,"clouds":[{"cover":"FEW","base":3000}],"obsTime":1777762800},"SBBR":{"icaoId":"SBBR","flightCategory":"VFR","rawOb":"METAR SBBR 022300Z 24005KT CAVOK 23/14 Q1021","temp":23,"dewp":14,"wdir":240,"wspd":5,"visib":"6+","altim":1021,"clouds":[],"obsTime":1777762800},"SBPA":{"icaoId":"SBPA","flightCategory":"VFR","rawOb":"METAR SBPA 022300Z 18004KT 130V230 CAVOK 17/12 Q1021","temp":17,"dewp":12,"wdir":180,"wspd":4,"visib":"6+","altim":1021,"clouds":[],"obsTime":1777762800},"SBGO":{"icaoId":"SBGO","flightCategory":"VFR","rawOb":"METAR SBGO 022300Z 15003KT CAVOK 26/16 Q1019","temp":26,"dewp":16,"wdir":150,"wspd":3,"visib":"6+","altim":1019,"clouds":[],"obsTime":1777762800},"SBPJ":{"icaoId":"SBPJ","flightCategory":"VFR","rawOb":"METAR SBPJ 022300Z 17007KT CAVOK 30/23 Q1013","temp":30,"dewp":23,"wdir":170,"wspd":7,"visib":"6+","altim":1013,"clouds":[],"obsTime":1777762800},"SBPV":{"icaoId":"SBPV","flightCategory":"VFR","rawOb":"METAR SBPV 022300Z 07001KT CAVOK 30/22 Q1009","temp":30,"dewp":22,"wdir":70,"wspd":1,"visib":"6+","altim":1009,"clouds":[],"obsTime":1777762800},"SBCF":{"icaoId":"SBCF","flightCategory":"VFR","rawOb":"METAR SBCF 022300Z 31003KT CAVOK 23/15 Q1021","temp":23,"dewp":15,"wdir":310,"wspd":3,"visib":"6+","altim":1021,"clouds":[],"obsTime":1777762800},"SBGR":{"icaoId":"SBGR","flightCategory":"VFR","rawOb":"METAR SBGR 022300Z 26002KT CAVOK 22/15 Q1021","temp":22,"dewp":15,"wdir":260,"wspd":2,"visib":"6+","altim":1021,"clouds":[],"obsTime":1777762800},"SBRB":{"icaoId":"SBRB","flightCategory":"MVFR","rawOb":"METAR SBRB 022300Z 16003KT 8000 FEW027 SCT100 27/25 Q1011","temp":27,"dewp":25,"wdir":160,"wspd":3,"visib":4.97,"altim":1011,"clouds":[{"cover":"FEW","base":2700},{"cover":"SCT","base":10000}],"obsTime":1777762800},"SBEG":{"icaoId":"SBEG","flightCategory":"VFR","rawOb":"METAR SBEG 022300Z 03002KT 9999 FEW025 SCT080 27/25 Q1011","temp":27,"dewp":25,"wdir":30,"wspd":2,"visib":"6+","altim":1011,"clouds":[{"cover":"FEW","base":2500},{"cover":"SCT","base":8000}],"obsTime":1777762800},"SBRF":{"icaoId":"SBRF","flightCategory":"VFR","rawOb":"METAR SBRF 022300Z 16008KT 9999 SCT023 27/24 Q1014","temp":27,"dewp":24,"wdir":160,"wspd":8,"visib":"6+","altim":1014,"clouds":[{"cover":"SCT","base":2300}],"obsTime":1777762800},"SBBE":{"icaoId":"SBBE","flightCategory":"VFR","rawOb":"METAR SBBE 022300Z 06005KT 9999 FEW040 BKN083 27/25 Q1011","temp":27,"dewp":25,"wdir":60,"wspd":5,"visib":"6+","altim":1011,"clouds":[{"cover":"FEW","base":4000},{"cover":"BKN","base":8300}],"obsTime":1777762800},"SBSG":{"icaoId":"SBSG","flightCategory":"VFR","rawOb":"METAR SBSG 022300Z 18003KT 9999 FEW030 BKN100 24/23 Q1014","temp":24,"dewp":23,"wdir":180,"wspd":3,"visib":"6+","altim":1014,"clouds":[{"cover":"FEW","base":3000},{"cover":"BKN","base":10000}],"obsTime":1777762800},"SBVT":{"icaoId":"SBVT","flightCategory":"VFR","rawOb":"METAR SBVT 022300Z 03007KT 9999 FEW045 26/23 Q1016","temp":26,"dewp":23,"wdir":30,"wspd":7,"visib":"6+","altim":1016,"clouds":[{"cover":"FEW","base":4500}],"obsTime":1777762800},"SBSL":{"icaoId":"SBSL","flightCategory":"VFR","rawOb":"METAR SBSL 022300Z 02005KT 9999 FEW035 BKN100 26/25 Q1012","temp":26,"dewp":25,"wdir":20,"wspd":5,"visib":"6+","altim":1012,"clouds":[{"cover":"FEW","base":3500},{"cover":"BKN","base":10000}],"obsTime":1777762800},"SBSN":{"icaoId":"SBSN","flightCategory":"VFR","rawOb":"METAR SBSN 022300Z 13004KT 9999 FEW017 SCT100 28/26 Q1010","temp":28,"dewp":26,"wdir":130,"wspd":4,"visib":"6+","altim":1010,"clouds":[{"cover":"FEW","base":1700},{"cover":"SCT","base":10000}],"obsTime":1777762800},"SBKP":{"icaoId":"SBKP","flightCategory":"VFR","rawOb":"METAR SBKP 022300Z 19003KT 150V220 CAVOK 22/16 Q1021","temp":22,"dewp":16,"wdir":190,"wspd":3,"visib":"6+","altim":1021,"clouds":[],"obsTime":1777762800},"SBSP":{"icaoId":"SBSP","flightCategory":"VFR","rawOb":"METAR SBSP 022300Z 29004KT 240V310 9999 FEW030 BKN080 22/15 Q1022","temp":22,"dewp":15,"wdir":290,"wspd":4,"visib":"6+","altim":1022,"clouds":[{"cover":"FEW","base":3000},{"cover":"BKN","base":8000}],"obsTime":1777762800},"SBTE":{"icaoId":"SBTE","flightCategory":"VFR","rawOb":"METAR SBTE 022300Z 28003KT 9999 FEW030TCU 30/24 Q1011","temp":30,"dewp":24,"wdir":280,"wspd":3,"visib":"6+","altim":1011,"clouds":[{"cover":"FEW","base":3000}],"obsTime":1777762800},"SBLO":{"icaoId":"SBLO","flightCategory":"VFR","rawOb":"METAR SBLO 022300Z 14004KT 9999 SCT020 BKN090 19/16 Q1021","temp":19,"dewp":16,"wdir":140,"wspd":4,"visib":"6+","altim":1021,"clouds":[{"cover":"SCT","base":2000},{"cover":"BKN","base":9000}],"obsTime":1777762800},"SBSV":{"icaoId":"SBSV","flightCategory":"VFR","rawOb":"METAR SBSV 022300Z 12008KT 9999 SCT030 28/21 Q1015","temp":28,"dewp":21,"wdir":120,"wspd":8,"visib":"6+","altim":1015,"clouds":[{"cover":"SCT","base":3000}],"obsTime":1777762800},"SBCZ":{"icaoId":"SBCZ","flightCategory":"VFR","rawOb":"METAR SBCZ 022300Z 22003KT 9999 FEW040TCU OVC100 25/25 Q1011","temp":25,"dewp":25,"wdir":220,"wspd":3,"visib":"6+","altim":1011,"clouds":[{"cover":"FEW","base":4000},{"cover":"OVC","base":10000}],"obsTime":1777762800},"SBIL":{"icaoId":"SBIL","flightCategory":"VFR","rawOb":"METAR SBIL 022300Z 26003KT 9999 FEW021 BKN070 25/24 Q1016","temp":25,"dewp":24,"wdir":260,"wspd":3,"visib":"6+","altim":1016,"clouds":[{"cover":"FEW","base":2100},{"cover":"BKN","base":7000}],"obsTime":1777762800},"SBJU":{"icaoId":"SBJU","flightCategory":"MVFR","rawOb":"METAR SBJU 022300Z 00000KT 9999 BKN020 24/22 Q1015","temp":24,"dewp":22,"wdir":0,"wspd":0,"visib":"6+","altim":1015,"clouds":[{"cover":"BKN","base":2000}],"obsTime":1777762800},"SBME":{"icaoId":"SBME","flightCategory":"VFR","rawOb":"METAR SBME 022300Z 22003KT 9999 FEW030 25/22 Q1015","temp":25,"dewp":22,"wdir":220,"wspd":3,"visib":"6+","altim":1015,"clouds":[{"cover":"FEW","base":3000}],"obsTime":1777762800},"SBMG":{"icaoId":"SBMG","flightCategory":"VFR","rawOb":"METAR SBMG 022300Z 07008KT 040V100 9999 VCSH FEW010 OVC080 19/17 Q1019","temp":19,"dewp":17,"wdir":70,"wspd":8,"visib":"6+","altim":1019,"clouds":[{"cover":"FEW","base":1000},{"cover":"OVC","base":8000}],"obsTime":1777762800},"SBMK":{"icaoId":"SBMK","flightCategory":"VFR","rawOb":"METAR SBMK 022300Z 11006KT CAVOK 24/18 Q1019","temp":24,"dewp":18,"wdir":110,"wspd":6,"visib":"6+","altim":1019,"clouds":[],"obsTime":1777762800},"SBNT":{"icaoId":"SBNT","flightCategory":"VFR","rawOb":"METAR SBNT 022300Z 17005KT 9999 FEW033 BKN100 25/23 Q1013","temp":25,"dewp":23,"wdir":170,"wspd":5,"visib":"6+","altim":1013,"clouds":[{"cover":"FEW","base":3300},{"cover":"BKN","base":10000}],"obsTime":1777762800},"SBUR":{"icaoId":"SBUR","flightCategory":"VFR","rawOb":"METAR SBUR 022300Z 18003KT CAVOK 25/16 Q1020","temp":25,"dewp":16,"wdir":180,"wspd":3,"visib":"6+","altim":1020,"clouds":[],"obsTime":1777762800},"SBUL":{"icaoId":"SBUL","flightCategory":"VFR","rawOb":"METAR SBUL 022300Z 20001KT CAVOK 23/15 Q1022","temp":23,"dewp":15,"wdir":200,"wspd":1,"visib":"6+","altim":1022,"clouds":[],"obsTime":1777762800},"SBAR":{"icaoId":"SBAR","flightCategory":"VFR","rawOb":"METAR SBAR 022300Z 13007KT 9999 FEW026 28/22 Q1014","temp":28,"dewp":22,"wdir":130,"wspd":7,"visib":"6+","altim":1014,"clouds":[{"cover":"FEW","base":2600}],"obsTime":1777762800},"SBOI":{"icaoId":"SBOI","flightCategory":"VFR","rawOb":"METAR SBOI 022300Z AUTO VRB02KT CAVOK 26/25 Q1012","temp":26,"dewp":25,"wdir":"VRB","wspd":2,"visib":"6+","altim":1012,"clouds":[],"obsTime":1777762800},"SBSJ":{"icaoId":"SBSJ","flightCategory":"VFR","rawOb":"METAR SBSJ 022300Z 30003KT CAVOK 21/17 Q1021","temp":21,"dewp":17,"wdir":300,"wspd":3,"visib":"6+","altim":1021,"clouds":[],"obsTime":1777762800},"SBPL":{"icaoId":"SBPL","flightCategory":"VFR","rawOb":"METAR SBPL 022300Z 11008KT CAVOK 28/21 Q1015","temp":28,"dewp":21,"wdir":110,"wspd":8,"visib":"6+","altim":1015,"clouds":[],"obsTime":1777762800},"SBPS":{"icaoId":"SBPS","flightCategory":"VFR","rawOb":"METAR SBPS 022300Z 25004KT CAVOK 24/22 Q1017","temp":24,"dewp":22,"wdir":250,"wspd":4,"visib":"6+","altim":1017,"clouds":[],"obsTime":1777762800},"SBCA":{"icaoId":"SBCA","flightCategory":"VFR","rawOb":"METAR SBCA 022300Z 10006KT 9999 FEW005 BKN070 18/17 Q1021","temp":18,"dewp":17,"wdir":100,"wspd":6,"visib":"6+","altim":1021,"clouds":[{"cover":"FEW","base":500},{"cover":"BKN","base":7000}],"obsTime":1777762800},"SBDN":{"icaoId":"SBDN","flightCategory":"VFR","rawOb":"METAR SBDN 022300Z 14015KT 9999 FEW050TCU SCT100 21/14 Q1020","temp":21,"dewp":14,"wdir":140,"wspd":15,"visib":"6+","altim":1020,"clouds":[{"cover":"FEW","base":5000},{"cover":"SCT","base":10000}],"obsTime":1777762800},"SBIP":{"icaoId":"SBIP","flightCategory":"VFR","rawOb":"METAR SBIP 022300Z AUTO 00000KT CAVOK 22/20 Q1017","temp":22,"dewp":20,"wdir":0,"wspd":0,"visib":"6+","altim":1017,"clouds":[],"obsTime":1777762800},"SBKG":{"icaoId":"SBKG","flightCategory":"VFR","rawOb":"METAR SBKG 022300Z 10004KT 040V160 9999 FEW018 SCT070 22/21 Q1017","temp":22,"dewp":21,"wdir":100,"wspd":4,"visib":"6+","altim":1017,"clouds":[{"cover":"FEW","base":1800},{"cover":"SCT","base":7000}],"obsTime":1777762800},"SBSC":{"icaoId":"SBSC","flightCategory":"VFR","rawOb":"METAR SBSC 022300Z 32003KT 9999 FEW015 BKN070 25/22 Q1016","temp":25,"dewp":22,"wdir":320,"wspd":3,"visib":"6+","altim":1016,"clouds":[{"cover":"FEW","base":1500},{"cover":"BKN","base":7000}],"obsTime":1777762800},"SBSM":{"icaoId":"SBSM","flightCategory":"VFR","rawOb":"METAR SBSM 022300Z 25002KT CAVOK 14/10 Q1023","temp":14,"dewp":10,"wdir":250,"wspd":2,"visib":"6+","altim":1023,"clouds":[],"obsTime":1777762800},"SBSR":{"icaoId":"SBSR","flightCategory":"VFR","rawOb":"METAR SBSR 022300Z 23005KT CAVOK 27/14 Q1019","temp":27,"dewp":14,"wdir":230,"wspd":5,"visib":"6+","altim":1019,"clouds":[],"obsTime":1777762800},"SBVH":{"icaoId":"SBVH","flightCategory":"VFR","rawOb":"METAR SBVH 022300Z 09004KT CAVOK 25/22 Q1016","temp":25,"dewp":22,"wdir":90,"wspd":4,"visib":"6+","altim":1016,"clouds":[],"obsTime":1777762800},"SBAX":{"icaoId":"SBAX","flightCategory":"VFR","rawOb":"METAR SBAX 022300Z AUTO 18004KT 150V210 CAVOK 23/14 Q1022","temp":23,"dewp":14,"wdir":180,"wspd":4,"visib":"6+","altim":1022,"clouds":[],"obsTime":1777762800},"SBBH":{"icaoId":"SBBH","flightCategory":"VFR","rawOb":"METAR SBBH 022300Z 29003KT CAVOK 23/16 Q1021","temp":23,"dewp":16,"wdir":290,"wspd":3,"visib":"6+","altim":1021,"clouds":[],"obsTime":1777762800},"SBBU":{"icaoId":"SBBU","flightCategory":"VFR","rawOb":"METAR SBBU 022300Z 21010KT CAVOK 23/15 Q1021","temp":23,"dewp":15,"wdir":210,"wspd":10,"visib":"6+","altim":1021,"clouds":[],"obsTime":1777762800},"SBCO":{"icaoId":"SBCO","flightCategory":"VFR","rawOb":"METAR SBCO 022300Z 15003KT CAVOK 16/12 Q1022","temp":16,"dewp":12,"wdir":150,"wspd":3,"visib":"6+","altim":1022,"clouds":[],"obsTime":1777762800},"SBTT":{"icaoId":"SBTT","flightCategory":"IFR","rawOb":"SPECI SBTT 022218Z 14006KT 100V210 2000 SHRA BKN033 BKN090 27/24 Q1009","temp":27,"dewp":24,"wdir":140,"wspd":6,"visib":1.24,"altim":1009,"clouds":[{"cover":"BKN","base":3300},{"cover":"BKN","base":9000}],"obsTime":1777760280},"SBTF":{"icaoId":"SBTF","flightCategory":"VFR","rawOb":"SPECI SBTF 022245Z 15004KT 9999 FEW015 FEW025TCU SCT080 28/27 Q1009","temp":28,"dewp":27,"wdir":150,"wspd":4,"visib":"6+","altim":1009,"clouds":[{"cover":"FEW","base":1500},{"cover":"FEW","base":2500},{"cover":"SCT","base":8000}],"obsTime":1777761900},"SBJP":{"icaoId":"SBJP","flightCategory":"VFR","rawOb":"METAR SBJP 022300Z 19004KT 9999 SCT017 BKN070 24/23 Q1014","temp":24,"dewp":23,"wdir":190,"wspd":4,"visib":"6+","altim":1014,"clouds":[{"cover":"SCT","base":1700},{"cover":"BKN","base":7000}],"obsTime":1777762800},"SBLE":{"icaoId":"SBLE","flightCategory":"VFR","rawOb":"METAR SBLE 022300Z AUTO 00000KT CAVOK ///// Q////","temp":null,"dewp":null,"wdir":0,"wspd":0,"visib":"6+","altim":null,"clouds":[],"obsTime":1777762800},"SBAN":{"icaoId":"SBAN","flightCategory":"VFR","rawOb":"METAR SBAN 022300Z 24004KT 9999 FEW047 BKN070 23/14 Q1022","temp":23,"dewp":14,"wdir":240,"wspd":4,"visib":"6+","altim":1022,"clouds":[{"cover":"FEW","base":4700},{"cover":"BKN","base":7000}],"obsTime":1777762800},"SBJV":{"icaoId":"SBJV","flightCategory":"VFR","rawOb":"METAR SBJV 022300Z 17004KT 110V220 9999 SCT025 BKN060 21/20 Q1017","temp":21,"dewp":20,"wdir":170,"wspd":4,"visib":"6+","altim":1017,"clouds":[{"cover":"SCT","base":2500},{"cover":"BKN","base":6000}],"obsTime":1777762800},"SBAF":{"icaoId":"SBAF","flightCategory":"VFR","rawOb":"METAR SBAF 022300Z 36003KT 310V040 9999 FEW030 SCT100 25/24 Q1016","temp":25,"dewp":24,"wdir":360,"wspd":3,"visib":"6+","altim":1016,"clouds":[{"cover":"FEW","base":3000},{"cover":"SCT","base":10000}],"obsTime":1777762800},"SBJR":{"icaoId":"SBJR","flightCategory":"VFR","rawOb":"METAR SBJR 022300Z 00000KT 9999 SCT040 25/20 Q1016","temp":25,"dewp":20,"wdir":0,"wspd":0,"visib":"6+","altim":1016,"clouds":[{"cover":"SCT","base":4000}],"obsTime":1777762800},"SBLS":{"icaoId":"SBLS","flightCategory":"VFR","rawOb":"METAR SBLS 022300Z 27003KT CAVOK 23/15 Q1021","temp":23,"dewp":15,"wdir":270,"wspd":3,"visib":"6+","altim":1021,"clouds":[],"obsTime":1777762800},"SBMT":{"icaoId":"SBMT","flightCategory":"VFR","rawOb":"METAR SBMT 022300Z 25004KT 9999 SCT033 SCT083 21/14 Q1021","temp":21,"dewp":14,"wdir":250,"wspd":4,"visib":"6+","altim":1021,"clouds":[{"cover":"SCT","base":3300},{"cover":"SCT","base":8300}],"obsTime":1777762800}}}