{"updated":1774463993,"count":86,"data":{"SBCG":{"icaoId":"SBCG","flightCategory":"MVFR","rawOb":"SPECI SBCG 251640Z 31016KT 6000 -TSRA BKN030 FEW035CB SCT100 23/22 Q1013 RERA","temp":23,"dewp":22,"wdir":310,"wspd":16,"visib":3.73,"altim":1013,"clouds":[{"cover":"BKN","base":3000},{"cover":"FEW","base":3500},{"cover":"SCT","base":10000}],"obsTime":1774456800},"SBEG":{"icaoId":"SBEG","flightCategory":"VFR","rawOb":"METAR SBEG 251700Z 34002KT 9999 SCT020 SCT080 27/25 Q1009 RETS","temp":27,"dewp":25,"wdir":340,"wspd":2,"visib":"6+","altim":1009,"clouds":[{"cover":"SCT","base":2000},{"cover":"SCT","base":8000}],"obsTime":1774458000},"SBGR":{"icaoId":"SBGR","flightCategory":"VFR","rawOb":"METAR SBGR 251700Z 31008KT 9999 BKN045 SCT100 29/18 Q1017","temp":29,"dewp":18,"wdir":310,"wspd":8,"visib":"6+","altim":1017,"clouds":[{"cover":"BKN","base":4500},{"cover":"SCT","base":10000}],"obsTime":1774458000},"SBMG":{"icaoId":"SBMG","flightCategory":"VFR","rawOb":"METAR SBMG 251700Z 13004KT 080V190 9999 SCT040 29/19 Q1013","temp":29,"dewp":19,"wdir":130,"wspd":4,"visib":"6+","altim":1013,"clouds":[{"cover":"SCT","base":4000}],"obsTime":1774458000},"SBCF":{"icaoId":"SBCF","flightCategory":"VFR","rawOb":"METAR SBCF 251700Z 04005KT 300V090 9999 VCSH SCT036 FEW045TCU SCT080 28/17 Q1018","temp":28,"dewp":17,"wdir":40,"wspd":5,"visib":"6+","altim":1018,"clouds":[{"cover":"SCT","base":3600},{"cover":"FEW","base":4500},{"cover":"SCT","base":8000}],"obsTime":1774458000},"SBMK":{"icaoId":"SBMK","flightCategory":"VFR","rawOb":"METAR SBMK 251700Z 15002KT 9999 FEW020 24/20 Q1017","temp":24,"dewp":20,"wdir":150,"wspd":2,"visib":"6+","altim":1017,"clouds":[{"cover":"FEW","base":2000}],"obsTime":1774458000},"SBCZ":{"icaoId":"SBCZ","flightCategory":"MVFR","rawOb":"METAR SBCZ 251700Z 30009KT 9999 BKN030 33/25 Q1009","temp":33,"dewp":25,"wdir":300,"wspd":9,"visib":"6+","altim":1009,"clouds":[{"cover":"BKN","base":3000}],"obsTime":1774458000},"SBMO":{"icaoId":"SBMO","flightCategory":"VFR","rawOb":"METAR SBMO 251700Z 13013KT 9999 SCT035 32/22 Q1011","temp":32,"dewp":22,"wdir":130,"wspd":13,"visib":"6+","altim":1011,"clouds":[{"cover":"SCT","base":3500}],"obsTime":1774458000},"SBMQ":{"icaoId":"SBMQ","flightCategory":"VFR","rawOb":"METAR SBMQ 251700Z 09012KT 9999 TS VCSH BKN036 FEW045CB SCT070 29/25 Q1010","temp":29,"dewp":25,"wdir":90,"wspd":12,"visib":"6+","altim":1010,"clouds":[{"cover":"BKN","base":3600},{"cover":"FEW","base":4500},{"cover":"SCT","base":7000}],"obsTime":1774458000},"SBNT":{"icaoId":"SBNT","flightCategory":"VFR","rawOb":"METAR SBNT 251700Z 10013KT 9999 FEW033 32/22 Q1010","temp":32,"dewp":22,"wdir":100,"wspd":13,"visib":"6+","altim":1010,"clouds":[{"cover":"FEW","base":3300}],"obsTime":1774458000},"SBBR":{"icaoId":"SBBR","flightCategory":"VFR","rawOb":"METAR SBBR 251700Z 09006KT 9999 SCT030 FEW040TCU SCT100 24/18 Q1018","temp":24,"dewp":18,"wdir":90,"wspd":6,"visib":"6+","altim":1018,"clouds":[{"cover":"SCT","base":3000},{"cover":"FEW","base":4000},{"cover":"SCT","base":10000}],"obsTime":1774458000},"SBPA":{"icaoId":"SBPA","flightCategory":"IFR","rawOb":"METAR SBPA 251700Z 19007KT 160V230 9999 BKN009 BKN025 25/23 Q1013","temp":25,"dewp":23,"wdir":190,"wspd":7,"visib":"6+","altim":1013,"clouds":[{"cover":"BKN","base":900},{"cover":"BKN","base":2500}],"obsTime":1774458000},"SBPJ":{"icaoId":"SBPJ","flightCategory":"VFR","rawOb":"METAR SBPJ 251700Z 24004KT 9999 FEW020 SCT050 BKN100 28/24 Q1013","temp":28,"dewp":24,"wdir":240,"wspd":4,"visib":"6+","altim":1013,"clouds":[{"cover":"FEW","base":2000},{"cover":"SCT","base":5000},{"cover":"BKN","base":10000}],"obsTime":1774458000},"SBPV":{"icaoId":"SBPV","flightCategory":"VFR","rawOb":"METAR SBPV 251700Z VRB03KT 9999 SCT030 31/22 Q1008","temp":31,"dewp":22,"wdir":"VRB","wspd":3,"visib":"6+","altim":1008,"clouds":[{"cover":"SCT","base":3000}],"obsTime":1774458000},"SBRB":{"icaoId":"SBRB","flightCategory":"VFR","rawOb":"METAR SBRB 251700Z 09002KT 9999 SCT020 SCT100 29/24 Q1010","temp":29,"dewp":24,"wdir":90,"wspd":2,"visib":"6+","altim":1010,"clouds":[{"cover":"SCT","base":2000},{"cover":"SCT","base":10000}],"obsTime":1774458000},"SBFI":{"icaoId":"SBFI","flightCategory":"VFR","rawOb":"METAR SBFI 251700Z 02003KT 9999 SCT030 FEW035TCU 33/24 Q1011","temp":33,"dewp":24,"wdir":20,"wspd":3,"visib":"6+","altim":1011,"clouds":[{"cover":"SCT","base":3000},{"cover":"FEW","base":3500}],"obsTime":1774458000},"SBRF":{"icaoId":"SBRF","flightCategory":"VFR","rawOb":"METAR SBRF 251700Z 12007KT 9999 SCT025 SCT070 30/23 Q1011","temp":30,"dewp":23,"wdir":120,"wspd":7,"visib":"6+","altim":1011,"clouds":[{"cover":"SCT","base":2500},{"cover":"SCT","base":7000}],"obsTime":1774458000},"SBSG":{"icaoId":"SBSG","flightCategory":"VFR","rawOb":"METAR SBSG 251700Z 10013KT 9999 FEW033 32/21 Q1010","temp":32,"dewp":21,"wdir":100,"wspd":13,"visib":"6+","altim":1010,"clouds":[{"cover":"FEW","base":3300}],"obsTime":1774458000},"SBSL":{"icaoId":"SBSL","flightCategory":"MVFR","rawOb":"METAR SBSL 251700Z 04005KT 340V100 9999 BKN015 FEW020TCU 28/25 Q1009 RETS","temp":28,"dewp":25,"wdir":40,"wspd":5,"visib":"6+","altim":1009,"clouds":[{"cover":"BKN","base":1500},{"cover":"FEW","base":2000}],"obsTime":1774458000},"SBSN":{"icaoId":"SBSN","flightCategory":"VFR","rawOb":"METAR SBSN 251700Z 09016KT 9999 SCT020 31/25 Q1009","temp":31,"dewp":25,"wdir":90,"wspd":16,"visib":"6+","altim":1009,"clouds":[{"cover":"SCT","base":2000}],"obsTime":1774458000},"SBFL":{"icaoId":"SBFL","flightCategory":"VFR","rawOb":"METAR SBFL 251700Z 05010KT 9999 FEW030 31/23 Q1013","temp":31,"dewp":23,"wdir":50,"wspd":10,"visib":"6+","altim":1013,"clouds":[{"cover":"FEW","base":3000}],"obsTime":1774458000},"SBSP":{"icaoId":"SBSP","flightCategory":"VFR","rawOb":"METAR SBSP 251700Z 06002KT 9999 SCT043 SCT100 29/16 Q1017","temp":29,"dewp":16,"wdir":60,"wspd":2,"visib":"6+","altim":1017,"clouds":[{"cover":"SCT","base":4300},{"cover":"SCT","base":10000}],"obsTime":1774458000},"SBSV":{"icaoId":"SBSV","flightCategory":"MVFR","rawOb":"METAR SBSV 251700Z 17008KT 110V180 6000 -SHRA SCT010 SCT022 FEW025TCU BKN060 28/22 Q1013","temp":28,"dewp":22,"wdir":170,"wspd":8,"visib":3.73,"altim":1013,"clouds":[{"cover":"SCT","base":1000},{"cover":"SCT","base":2200},{"cover":"FEW","base":2500},{"cover":"BKN","base":6000}],"obsTime":1774458000},"SBFZ":{"icaoId":"SBFZ","flightCategory":"VFR","rawOb":"METAR SBFZ 251700Z 10010KT 9999 FEW020 32/23 Q1009","temp":32,"dewp":23,"wdir":100,"wspd":10,"visib":"6+","altim":1009,"clouds":[{"cover":"FEW","base":2000}],"obsTime":1774458000},"SBGL":{"icaoId":"SBGL","flightCategory":"VFR","rawOb":"METAR SBGL 251700Z 13009KT 9999 FEW035 33/21 Q1012","temp":33,"dewp":21,"wdir":130,"wspd":9,"visib":"6+","altim":1012,"clouds":[{"cover":"FEW","base":3500}],"obsTime":1774458000},"SBTE":{"icaoId":"SBTE","flightCategory":"VFR","rawOb":"METAR SBTE 251700Z 14007KT 9999 SCT020 FEW025TCU 32/22 Q1009","temp":32,"dewp":22,"wdir":140,"wspd":7,"visib":"6+","altim":1009,"clouds":[{"cover":"SCT","base":2000},{"cover":"FEW","base":2500}],"obsTime":1774458000},"SBUL":{"icaoId":"SBUL","flightCategory":"VFR","rawOb":"METAR SBUL 251700Z 06008KT 010V100 9999 VCSH SCT030 FEW040TCU 26/19 Q1017","temp":26,"dewp":19,"wdir":60,"wspd":8,"visib":"6+","altim":1017,"clouds":[{"cover":"SCT","base":3000},{"cover":"FEW","base":4000}],"obsTime":1774458000},"SBGO":{"icaoId":"SBGO","flightCategory":"IFR","rawOb":"SPECI SBGO 251650Z 09015KT 3000 TSRA BKN030 FEW035CB BKN100 24/20 Q1016","temp":24,"dewp":20,"wdir":90,"wspd":15,"visib":1.86,"altim":1016,"clouds":[{"cover":"BKN","base":3000},{"cover":"FEW","base":3500},{"cover":"BKN","base":10000}],"obsTime":1774457400},"SBCT":{"icaoId":"SBCT","flightCategory":"VFR","rawOb":"METAR SBCT 251700Z 07005KT 020V140 9999 FEW032 26/18 Q1018","temp":26,"dewp":18,"wdir":70,"wspd":5,"visib":"6+","altim":1018,"clouds":[{"cover":"FEW","base":3200}],"obsTime":1774458000},"SBAT":{"icaoId":"SBAT","flightCategory":"LIFR","rawOb":"METAR SBAT 251700Z 06019KT 1500 RA BKN020 SCT025 FEW030TCU BKN100 23/22 Q1011","temp":23,"dewp":22,"wdir":60,"wspd":19,"visib":0.93,"altim":1011,"clouds":[{"cover":"BKN","base":2000},{"cover":"SCT","base":2500},{"cover":"FEW","base":3000},{"cover":"BKN","base":10000}],"obsTime":1774458000},"SBLO":{"icaoId":"SBLO","flightCategory":"VFR","rawOb":"METAR SBLO 251700Z 10007KT 060V140 9999 FEW040 BKN050 28/19 Q1015","temp":28,"dewp":19,"wdir":100,"wspd":7,"visib":"6+","altim":1015,"clouds":[{"cover":"FEW","base":4000},{"cover":"BKN","base":5000}],"obsTime":1774458000},"SBMA":{"icaoId":"SBMA","flightCategory":"VFR","rawOb":"METAR SBMA 251700Z 29004KT 9999 FEW015 SCT020 BKN100 29/24 Q1011","temp":29,"dewp":24,"wdir":290,"wspd":4,"visib":"6+","altim":1011,"clouds":[{"cover":"FEW","base":1500},{"cover":"SCT","base":2000},{"cover":"BKN","base":10000}],"obsTime":1774458000},"SBCR":{"icaoId":"SBCR","flightCategory":"VFR","rawOb":"METAR SBCR 251700Z 31004KT 270V030 9999 SCT024 BKN100 31/24 Q1011","temp":31,"dewp":24,"wdir":310,"wspd":4,"visib":"6+","altim":1011,"clouds":[{"cover":"SCT","base":2400},{"cover":"BKN","base":10000}],"obsTime":1774458000},"SBCB":{"icaoId":"SBCB","flightCategory":"VFR","rawOb":"METAR SBCB 251700Z 06013KT 9999 FEW030 31/23 Q1014","temp":31,"dewp":23,"wdir":60,"wspd":13,"visib":"6+","altim":1014,"clouds":[{"cover":"FEW","base":3000}],"obsTime":1774458000},"SBME":{"icaoId":"SBME","flightCategory":"VFR","rawOb":"METAR SBME 251700Z 07011KT 9999 FEW040 34/20 Q1013","temp":34,"dewp":20,"wdir":70,"wspd":11,"visib":"6+","altim":1013,"clouds":[{"cover":"FEW","base":4000}],"obsTime":1774458000},"SBKP":{"icaoId":"SBKP","flightCategory":"VFR","rawOb":"METAR SBKP 251700Z 35010KT 9999 VCSH BKN040 FEW050TCU 30/19 Q1015","temp":30,"dewp":19,"wdir":350,"wspd":10,"visib":"6+","altim":1015,"clouds":[{"cover":"BKN","base":4000},{"cover":"FEW","base":5000}],"obsTime":1774458000},"SBIL":{"icaoId":"SBIL","flightCategory":"VFR","rawOb":"METAR SBIL 251700Z 13008KT 9999 -RA SCT023 FEW025TCU BKN080 29/25 Q1013","temp":29,"dewp":25,"wdir":130,"wspd":8,"visib":"6+","altim":1013,"clouds":[{"cover":"SCT","base":2300},{"cover":"FEW","base":2500},{"cover":"BKN","base":8000}],"obsTime":1774458000},"SBBV":{"icaoId":"SBBV","flightCategory":"VFR","rawOb":"METAR SBBV 251700Z 10011KT 9999 BKN040 FEW045TCU 33/20 Q1008","temp":33,"dewp":20,"wdir":100,"wspd":11,"visib":"6+","altim":1008,"clouds":[{"cover":"BKN","base":4000},{"cover":"FEW","base":4500}],"obsTime":1774458000},"SBJU":{"icaoId":"SBJU","flightCategory":"VFR","rawOb":"METAR SBJU 251700Z 06007KT 9999 SCT022 31/21 Q1012","temp":31,"dewp":21,"wdir":60,"wspd":7,"visib":"6+","altim":1012,"clouds":[{"cover":"SCT","base":2200}],"obsTime":1774458000},"SBCP":{"icaoId":"SBCP","flightCategory":"VFR","rawOb":"METAR SBCP 251700Z 08014KT 9999 FEW025 31/22 Q1014","temp":31,"dewp":22,"wdir":80,"wspd":14,"visib":"6+","altim":1014,"clouds":[{"cover":"FEW","base":2500}],"obsTime":1774458000},"SBUR":{"icaoId":"SBUR","flightCategory":"MVFR","rawOb":"METAR SBUR 251700Z 03013KT 5000 2000SE -TSRA BKN036 FEW040CB 21/16 Q1017","temp":21,"dewp":16,"wdir":30,"wspd":13,"visib":3.11,"altim":1017,"clouds":[{"cover":"BKN","base":3600},{"cover":"FEW","base":4000}],"obsTime":1774458000},"SBVT":{"icaoId":"SBVT","flightCategory":"VFR","rawOb":"METAR SBVT 251700Z 06011KT 9999 SCT030 FEW040TCU SCT080 30/23 Q1015","temp":30,"dewp":23,"wdir":60,"wspd":11,"visib":"6+","altim":1015,"clouds":[{"cover":"SCT","base":3000},{"cover":"FEW","base":4000},{"cover":"SCT","base":8000}],"obsTime":1774458000},"SBHT":{"icaoId":"SBHT","flightCategory":"MVFR","rawOb":"METAR SBHT 251700Z 10007KT 9999 BKN025 32/23 Q1010","temp":32,"dewp":23,"wdir":100,"wspd":7,"visib":"6+","altim":1010,"clouds":[{"cover":"BKN","base":2500}],"obsTime":1774458000},"SBBE":{"icaoId":"SBBE","flightCategory":"VFR","rawOb":"METAR SBBE 251700Z 05005KT 9999 SCT028 30/23 Q1010","temp":30,"dewp":23,"wdir":50,"wspd":5,"visib":"6+","altim":1010,"clouds":[{"cover":"SCT","base":2800}],"obsTime":1774458000},"SBOI":{"icaoId":"SBOI","flightCategory":"VFR","rawOb":"METAR SBOI 251700Z AUTO 08010KT 020V140 9999 -RA FEW012 26/24 Q1010 RERA","temp":26,"dewp":24,"wdir":80,"wspd":10,"visib":"6+","altim":1010,"clouds":[{"cover":"FEW","base":1200}],"obsTime":1774458000},"SBAR":{"icaoId":"SBAR","flightCategory":"VFR","rawOb":"METAR SBAR 251700Z 13012KT 090V170 9999 SCT025 SCT100 31/23 Q1012","temp":31,"dewp":23,"wdir":130,"wspd":12,"visib":"6+","altim":1012,"clouds":[{"cover":"SCT","base":2500},{"cover":"SCT","base":10000}],"obsTime":1774458000},"SBAX":{"icaoId":"SBAX","flightCategory":"VFR","rawOb":"METAR SBAX 251700Z AUTO 35007KT 9999 FEW039 22/17 Q1018","temp":22,"dewp":17,"wdir":350,"wspd":7,"visib":"6+","altim":1018,"clouds":[{"cover":"FEW","base":3900}],"obsTime":1774458000},"SBBH":{"icaoId":"SBBH","flightCategory":"VFR","rawOb":"METAR SBBH 251700Z 03005KT 9999 BKN045 FEW048TCU 28/16 Q1018","temp":28,"dewp":16,"wdir":30,"wspd":5,"visib":"6+","altim":1018,"clouds":[{"cover":"BKN","base":4500},{"cover":"FEW","base":4800}],"obsTime":1774458000},"SBBQ":{"icaoId":"SBBQ","flightCategory":"VFR","rawOb":"METAR SBBQ 251700Z 06005KT 9999 BKN035 26/17 Q1021","temp":26,"dewp":17,"wdir":60,"wspd":5,"visib":"6+","altim":1021,"clouds":[{"cover":"BKN","base":3500}],"obsTime":1774458000},"SBBU":{"icaoId":"SBBU","flightCategory":"VFR","rawOb":"METAR SBBU 251700Z 34005KT 9999 SCT035 30/21 Q1015","temp":30,"dewp":21,"wdir":340,"wspd":5,"visib":"6+","altim":1015,"clouds":[{"cover":"SCT","base":3500}],"obsTime":1774458000},"SBCA":{"icaoId":"SBCA","flightCategory":"VFR","rawOb":"METAR SBCA 251700Z VRB04KT 9999 SCT025 29/19 Q1016","temp":29,"dewp":19,"wdir":"VRB","wspd":4,"visib":"6+","altim":1016,"clouds":[{"cover":"SCT","base":2500}],"obsTime":1774458000},"SBCC":{"icaoId":"SBCC","flightCategory":"MVFR","rawOb":"METAR SBCC 251700Z 06012KT 9999 BKN020 FEW025TCU BKN100 30/22 Q1012","temp":30,"dewp":22,"wdir":60,"wspd":12,"visib":"6+","altim":1012,"clouds":[{"cover":"BKN","base":2000},{"cover":"FEW","base":2500},{"cover":"BKN","base":10000}],"obsTime":1774458000},"SBCJ":{"icaoId":"SBCJ","flightCategory":"VFR","rawOb":"METAR SBCJ 251700Z 00000KT 9999 FEW003 BKN080 23/19 Q1016","temp":23,"dewp":19,"wdir":0,"wspd":0,"visib":"6+","altim":1016,"clouds":[{"cover":"FEW","base":300},{"cover":"BKN","base":8000}],"obsTime":1774458000},"SBCO":{"icaoId":"SBCO","flightCategory":"MVFR","rawOb":"METAR SBCO 251700Z 19007KT 160V220 9999 BKN013 BKN016 26/23 Q1013","temp":26,"dewp":23,"wdir":190,"wspd":7,"visib":"6+","altim":1013,"clouds":[{"cover":"BKN","base":1300},{"cover":"BKN","base":1600}],"obsTime":1774458000},"SBDN":{"icaoId":"SBDN","flightCategory":"VFR","rawOb":"METAR SBDN 251700Z 04004KT 9999 SCT028 BKN070 30/22 Q1013","temp":30,"dewp":22,"wdir":40,"wspd":4,"visib":"6+","altim":1013,"clouds":[{"cover":"SCT","base":2800},{"cover":"BKN","base":7000}],"obsTime":1774458000},"SBES":{"icaoId":"SBES","flightCategory":"VFR","rawOb":"METAR SBES 251700Z 06020KT 9999 FEW025 30/// Q1014","temp":null,"dewp":null,"wdir":60,"wspd":20,"visib":"6+","altim":1014,"clouds":[{"cover":"FEW","base":2500}],"obsTime":1774458000},"SBGM":{"icaoId":"SBGM","flightCategory":"MVFR","rawOb":"METAR SBGM 251700Z VRB02KT 9999 BKN013 29/20 Q1009","temp":29,"dewp":20,"wdir":"VRB","wspd":2,"visib":"6+","altim":1009,"clouds":[{"cover":"BKN","base":1300}],"obsTime":1774458000},"SBIP":{"icaoId":"SBIP","flightCategory":"VFR","rawOb":"METAR SBIP 251700Z AUTO 06007KT 030V090 CAVOK 29/21 Q1015","temp":29,"dewp":21,"wdir":60,"wspd":7,"visib":"6+","altim":1015,"clouds":[],"obsTime":1774458000},"SBKG":{"icaoId":"SBKG","flightCategory":"VFR","rawOb":"METAR SBKG 251700Z 15006KT 9999 SCT025 32/17 Q1012","temp":32,"dewp":17,"wdir":150,"wspd":6,"visib":"6+","altim":1012,"clouds":[{"cover":"SCT","base":2500}],"obsTime":1774458000},"SBPB":{"icaoId":"SBPB","flightCategory":"VFR","rawOb":"METAR SBPB 251700Z 04012KT 9999 FEW020 32/25 Q1009","temp":32,"dewp":25,"wdir":40,"wspd":12,"visib":"6+","altim":1009,"clouds":[{"cover":"FEW","base":2000}],"obsTime":1774458000},"SBPL":{"icaoId":"SBPL","flightCategory":"VFR","rawOb":"METAR SBPL 251700Z 11004KT 9999 SCT030 BKN070 32/20 Q1012","temp":32,"dewp":20,"wdir":110,"wspd":4,"visib":"6+","altim":1012,"clouds":[{"cover":"SCT","base":3000},{"cover":"BKN","base":7000}],"obsTime":1774458000},"SBPP":{"icaoId":"SBPP","flightCategory":"VFR","rawOb":"METAR SBPP 251700Z 03002KT 9999 SCT020 30/21 Q1014","temp":30,"dewp":21,"wdir":30,"wspd":2,"visib":"6+","altim":1014,"clouds":[{"cover":"SCT","base":2000}],"obsTime":1774458000},"SBPS":{"icaoId":"SBPS","flightCategory":"VFR","rawOb":"METAR SBPS 251700Z 14006KT 9999 SCT020 SCT070 29/24 Q1014","temp":29,"dewp":24,"wdir":140,"wspd":6,"visib":"6+","altim":1014,"clouds":[{"cover":"SCT","base":2000},{"cover":"SCT","base":7000}],"obsTime":1774458000},"SBSC":{"icaoId":"SBSC","flightCategory":"VFR","rawOb":"METAR SBSC 251700Z 02006KT CAVOK 35/21 Q1012","temp":35,"dewp":21,"wdir":20,"wspd":6,"visib":"6+","altim":1012,"clouds":[],"obsTime":1774458000},"SBSJ":{"icaoId":"SBSJ","flightCategory":"VFR","rawOb":"METAR SBSJ 251700Z 07002KT 9999 SCT030 FEW045TCU 31/// Q1016","temp":null,"dewp":null,"wdir":70,"wspd":2,"visib":"6+","altim":1016,"clouds":[{"cover":"SCT","base":3000},{"cover":"FEW","base":4500}],"obsTime":1774458000},"SBSM":{"icaoId":"SBSM","flightCategory":"IFR","rawOb":"METAR SBSM 251700Z 10007KT 080V160 9999 OVC007 20/19 Q1015","temp":20,"dewp":19,"wdir":100,"wspd":7,"visib":"6+","altim":1015,"clouds":[{"cover":"OVC","base":700}],"obsTime":1774458000},"SBSR":{"icaoId":"SBSR","flightCategory":"VFR","rawOb":"METAR SBSR 251700Z 06010KT 9999 VCSH SCT035 FEW040TCU 28/19 Q1014","temp":28,"dewp":19,"wdir":60,"wspd":10,"visib":"6+","altim":1014,"clouds":[{"cover":"SCT","base":3500},{"cover":"FEW","base":4000}],"obsTime":1774458000},"SBTF":{"icaoId":"SBTF","flightCategory":"VFR","rawOb":"METAR SBTF 251700Z 12009KT 9999 SCT015 BKN100 29/25 Q1011","temp":29,"dewp":25,"wdir":120,"wspd":9,"visib":"6+","altim":1011,"clouds":[{"cover":"SCT","base":1500},{"cover":"BKN","base":10000}],"obsTime":1774458000},"SBTT":{"icaoId":"SBTT","flightCategory":"MVFR","rawOb":"METAR SBTT 251700Z 13005KT 070V180 9999 BKN026 31/24 Q1009","temp":31,"dewp":24,"wdir":130,"wspd":5,"visib":"6+","altim":1009,"clouds":[{"cover":"BKN","base":2600}],"obsTime":1774458000},"SBUY":{"icaoId":"SBUY","flightCategory":"VFR","rawOb":"METAR SBUY 251700Z 11006KT 9999 SCT025 BKN100 28/23 Q1009","temp":28,"dewp":23,"wdir":110,"wspd":6,"visib":"6+","altim":1009,"clouds":[{"cover":"SCT","base":2500},{"cover":"BKN","base":10000}],"obsTime":1774458000},"SBVH":{"icaoId":"SBVH","flightCategory":"VFR","rawOb":"METAR SBVH 251700Z 34011KT 9999 VCSH BKN040 BKN100 26/23 Q1012","temp":26,"dewp":23,"wdir":340,"wspd":11,"visib":"6+","altim":1012,"clouds":[{"cover":"BKN","base":4000},{"cover":"BKN","base":10000}],"obsTime":1774458000},"SBAU":{"icaoId":"SBAU","flightCategory":"VFR","rawOb":"METAR SBAU 251700Z 09006KT 9999 SCT030 31/22 Q1013","temp":31,"dewp":22,"wdir":90,"wspd":6,"visib":"6+","altim":1013,"clouds":[{"cover":"SCT","base":3000}],"obsTime":1774458000},"SBIH":{"icaoId":"SBIH","flightCategory":"VFR","rawOb":"METAR SBIH 251700Z 06005KT 9999 SCT018 32/24 Q1009","temp":32,"dewp":24,"wdir":60,"wspd":5,"visib":"6+","altim":1009,"clouds":[{"cover":"SCT","base":1800}],"obsTime":1774458000},"SBLE":{"icaoId":"SBLE","flightCategory":"VFR","rawOb":"METAR SBLE 251700Z AUTO VRB05KT CAVOK 29/20 Q1015","temp":29,"dewp":20,"wdir":"VRB","wspd":5,"visib":"6+","altim":1015,"clouds":[],"obsTime":1774458000},"SBAF":{"icaoId":"SBAF","flightCategory":"VFR","rawOb":" SBAF 251700Z 17008KT 130V210 9999 FEW025 33/21 Q1013","temp":33,"dewp":21,"wdir":170,"wspd":8,"visib":"6+","altim":1013,"clouds":[{"cover":"FEW","base":2500}],"obsTime":1774458000},"SBLS":{"icaoId":"SBLS","flightCategory":"VFR","rawOb":"METAR SBLS 251700Z 13009KT 9999 3000S VCSH BKN035 FEW040TCU SCT100 26/19 Q1018","temp":26,"dewp":19,"wdir":130,"wspd":9,"visib":"6+","altim":1018,"clouds":[{"cover":"BKN","base":3500},{"cover":"FEW","base":4000},{"cover":"SCT","base":10000}],"obsTime":1774458000},"SBJP":{"icaoId":"SBJP","flightCategory":"VFR","rawOb":"METAR SBJP 251700Z 08010KT 9999 SCT033 32/22 Q0101","temp":32,"dewp":22,"wdir":80,"wspd":10,"visib":"6+","altim":101,"clouds":[{"cover":"SCT","base":3300}],"obsTime":1774458000},"SBMT":{"icaoId":"SBMT","flightCategory":"VFR","rawOb":"METAR SBMT 251700Z 36007KT 9999 SCT030 FEW040TCU 28/16 Q1016","temp":28,"dewp":16,"wdir":360,"wspd":7,"visib":"6+","altim":1016,"clouds":[{"cover":"SCT","base":3000},{"cover":"FEW","base":4000}],"obsTime":1774458000},"SBGW":{"icaoId":"SBGW","flightCategory":"VFR","rawOb":"METAR SBGW 251700Z 02006KT 9999 FEW035 32/17 Q1015","temp":32,"dewp":17,"wdir":20,"wspd":6,"visib":"6+","altim":1015,"clouds":[{"cover":"FEW","base":3500}],"obsTime":1774458000},"SBNM":{"icaoId":"SBNM","flightCategory":"MVFR","rawOb":"METAR SBNM 251700Z 23006KT 9999 BKN025 29/23 Q1013","temp":29,"dewp":23,"wdir":230,"wspd":6,"visib":"6+","altim":1013,"clouds":[{"cover":"BKN","base":2500}],"obsTime":1774458000},"SBJR":{"icaoId":"SBJR","flightCategory":"VFR","rawOb":"METAR SBJR 251700Z 15009KT 9999 FEW025 35/21 Q1012","temp":35,"dewp":21,"wdir":150,"wspd":9,"visib":"6+","altim":1012,"clouds":[{"cover":"FEW","base":2500}],"obsTime":1774458000},"SBPF":{"icaoId":"SBPF","flightCategory":"VFR","rawOb":"METAR SBPF 251700Z 04007KT 9999 FEW030 SCT042 30/20 Q1015","temp":30,"dewp":20,"wdir":40,"wspd":7,"visib":"6+","altim":1015,"clouds":[{"cover":"FEW","base":3000},{"cover":"SCT","base":4200}],"obsTime":1774458000},"SBAN":{"icaoId":"SBAN","flightCategory":"MVFR","rawOb":"METAR SBAN 251700Z 05005KT 9999 VCSH BKN030 FEW035TCU 24/18 Q1018","temp":24,"dewp":18,"wdir":50,"wspd":5,"visib":"6+","altim":1018,"clouds":[{"cover":"BKN","base":3000},{"cover":"FEW","base":3500}],"obsTime":1774458000},"SBST":{"icaoId":"SBST","flightCategory":"MVFR","rawOb":"METAR SBST 251700Z 24004KT 8000 BKN023 25/23 Q1013","temp":25,"dewp":23,"wdir":240,"wspd":4,"visib":4.97,"altim":1013,"clouds":[{"cover":"BKN","base":2300}],"obsTime":1774458000},"SBJV":{"icaoId":"SBJV","flightCategory":"MVFR","rawOb":"METAR SBJV 251700Z 12009KT 9999 BKN030 30/25 Q1013","temp":30,"dewp":25,"wdir":120,"wspd":9,"visib":"6+","altim":1013,"clouds":[{"cover":"BKN","base":3000}],"obsTime":1774458000},"SBTA":{"icaoId":"SBTA","flightCategory":"VFR","rawOb":"METAR SBTA 251700Z 06004KT 360V120 9999 SCT040 26/22 Q1015","temp":26,"dewp":22,"wdir":60,"wspd":4,"visib":"6+","altim":1015,"clouds":[{"cover":"SCT","base":4000}],"obsTime":1774458000}}}