{"updated":1777730557,"count":85,"data":{"SBKP":{"icaoId":"SBKP","flightCategory":"VFR","rawOb":"METAR SBKP 021300Z 35009KT CAVOK 25/17 Q1022","temp":25,"dewp":17,"wdir":350,"wspd":9,"visib":"6+","altim":1022,"clouds":[],"obsTime":1777726800},"SBSP":{"icaoId":"SBSP","flightCategory":"VFR","rawOb":"METAR SBSP 021300Z 34011KT CAVOK 25/16 Q1022","temp":25,"dewp":16,"wdir":340,"wspd":11,"visib":"6+","altim":1022,"clouds":[],"obsTime":1777726800},"SBBE":{"icaoId":"SBBE","flightCategory":"VFR","rawOb":"METAR SBBE 021300Z 05003KT 9999 SCT015 28/26 Q1014","temp":28,"dewp":26,"wdir":50,"wspd":3,"visib":"6+","altim":1014,"clouds":[{"cover":"SCT","base":1500}],"obsTime":1777726800},"SBVT":{"icaoId":"SBVT","flightCategory":"VFR","rawOb":"METAR SBVT 021300Z 36004KT 9999 SCT030 29/22 Q1017","temp":29,"dewp":22,"wdir":360,"wspd":4,"visib":"6+","altim":1017,"clouds":[{"cover":"SCT","base":3000}],"obsTime":1777726800},"SBSV":{"icaoId":"SBSV","flightCategory":"MVFR","rawOb":"METAR SBSV 021300Z 12007KT 060V160 8000 VCSH SCT023 FEW025TCU SCT060 29/23 Q1016","temp":29,"dewp":23,"wdir":120,"wspd":7,"visib":4.97,"altim":1016,"clouds":[{"cover":"SCT","base":2300},{"cover":"FEW","base":2500},{"cover":"SCT","base":6000}],"obsTime":1777726800},"SBGR":{"icaoId":"SBGR","flightCategory":"VFR","rawOb":"METAR SBGR 021300Z 33009KT CAVOK 26/16 Q1021","temp":26,"dewp":16,"wdir":330,"wspd":9,"visib":"6+","altim":1021,"clouds":[],"obsTime":1777726800},"SBBR":{"icaoId":"SBBR","flightCategory":"VFR","rawOb":"METAR SBBR 021300Z 10010KT 9999 FEW015 23/18 Q1023","temp":23,"dewp":18,"wdir":100,"wspd":10,"visib":"6+","altim":1023,"clouds":[{"cover":"FEW","base":1500}],"obsTime":1777726800},"SBCT":{"icaoId":"SBCT","flightCategory":"MVFR","rawOb":"SPECI SBCT 021247Z 20004KT 170V240 6000 BKN013 BKN040 OVC100 19/19 Q1023","temp":19,"dewp":19,"wdir":200,"wspd":4,"visib":3.73,"altim":1023,"clouds":[{"cover":"BKN","base":1300},{"cover":"BKN","base":4000},{"cover":"OVC","base":10000}],"obsTime":1777726020},"SBLO":{"icaoId":"SBLO","flightCategory":"VFR","rawOb":"METAR SBLO 021300Z 17002KT 9999 FEW020 25/21 Q1021","temp":25,"dewp":21,"wdir":170,"wspd":2,"visib":"6+","altim":1021,"clouds":[{"cover":"FEW","base":2000}],"obsTime":1777726800},"SBCF":{"icaoId":"SBCF","flightCategory":"VFR","rawOb":"METAR SBCF 021300Z 18003KT CAVOK 25/16 Q1023","temp":25,"dewp":16,"wdir":180,"wspd":3,"visib":"6+","altim":1023,"clouds":[],"obsTime":1777726800},"SBMA":{"icaoId":"SBMA","flightCategory":"VFR","rawOb":"METAR SBMA 021300Z 00000KT 9999 FEW007 FEW020TCU BKN090 25/24 Q1014","temp":25,"dewp":24,"wdir":0,"wspd":0,"visib":"6+","altim":1014,"clouds":[{"cover":"FEW","base":700},{"cover":"FEW","base":2000},{"cover":"BKN","base":9000}],"obsTime":1777726800},"SBBV":{"icaoId":"SBBV","flightCategory":"VFR","rawOb":"METAR SBBV 021300Z 08013KT 9999 SCT020 SCT100 29/23 Q1014","temp":29,"dewp":23,"wdir":80,"wspd":13,"visib":"6+","altim":1014,"clouds":[{"cover":"SCT","base":2000},{"cover":"SCT","base":10000}],"obsTime":1777726800},"SBEG":{"icaoId":"SBEG","flightCategory":"VFR","rawOb":"METAR SBEG 021300Z 05005KT 010V090 9999 FEW016 SCT100 28/24 Q1014","temp":28,"dewp":24,"wdir":50,"wspd":5,"visib":"6+","altim":1014,"clouds":[{"cover":"FEW","base":1600},{"cover":"SCT","base":10000}],"obsTime":1777726800},"SBCG":{"icaoId":"SBCG","flightCategory":"VFR","rawOb":"METAR SBCG 021300Z 35007KT CAVOK 28/18 Q1019","temp":28,"dewp":18,"wdir":350,"wspd":7,"visib":"6+","altim":1019,"clouds":[],"obsTime":1777726800},"SBMO":{"icaoId":"SBMO","flightCategory":"MVFR","rawOb":"METAR SBMO 021300Z 35003KT 300V060 9999 FEW008 BKN020 OVC070 26/24 Q1016","temp":26,"dewp":24,"wdir":350,"wspd":3,"visib":"6+","altim":1016,"clouds":[{"cover":"FEW","base":800},{"cover":"BKN","base":2000},{"cover":"OVC","base":7000}],"obsTime":1777726800},"SBMQ":{"icaoId":"SBMQ","flightCategory":"VFR","rawOb":"METAR SBMQ 021300Z 05003KT 9999 SCT019 BKN100 30/25 Q1014","temp":30,"dewp":25,"wdir":50,"wspd":3,"visib":"6+","altim":1014,"clouds":[{"cover":"SCT","base":1900},{"cover":"BKN","base":10000}],"obsTime":1777726800},"SBPA":{"icaoId":"SBPA","flightCategory":"IFR","rawOb":"METAR SBPA 021300Z 29008KT 9999 BKN008 BKN014 21/20 Q1015","temp":21,"dewp":20,"wdir":290,"wspd":8,"visib":"6+","altim":1015,"clouds":[{"cover":"BKN","base":800},{"cover":"BKN","base":1400}],"obsTime":1777726800},"SBFI":{"icaoId":"SBFI","flightCategory":"VFR","rawOb":"METAR SBFI 021300Z 31003KT 9999 FEW020 FEW040TCU OVC070 23/23 Q1018","temp":23,"dewp":23,"wdir":310,"wspd":3,"visib":"6+","altim":1018,"clouds":[{"cover":"FEW","base":2000},{"cover":"FEW","base":4000},{"cover":"OVC","base":7000}],"obsTime":1777726800},"SBCB":{"icaoId":"SBCB","flightCategory":"VFR","rawOb":"METAR SBCB 021300Z 04008KT CAVOK 28/21 Q1016","temp":28,"dewp":21,"wdir":40,"wspd":8,"visib":"6+","altim":1016,"clouds":[],"obsTime":1777726800},"SBPJ":{"icaoId":"SBPJ","flightCategory":"VFR","rawOb":"METAR SBPJ 021300Z 24007KT CAVOK 30/24 Q1016","temp":30,"dewp":24,"wdir":240,"wspd":7,"visib":"6+","altim":1016,"clouds":[],"obsTime":1777726800},"SBFL":{"icaoId":"SBFL","flightCategory":"VFR","rawOb":"METAR SBFL 021300Z 02008KT 340V090 CAVOK 22/19 Q1013","temp":22,"dewp":19,"wdir":20,"wspd":8,"visib":"6+","altim":1013,"clouds":[],"obsTime":1777726800},"SBPV":{"icaoId":"SBPV","flightCategory":"VFR","rawOb":"METAR SBPV 021300Z 06004KT CAVOK 27/25 Q1014","temp":27,"dewp":25,"wdir":60,"wspd":4,"visib":"6+","altim":1014,"clouds":[],"obsTime":1777726800},"SBCP":{"icaoId":"SBCP","flightCategory":"VFR","rawOb":"METAR SBCP 021300Z 34010KT CAVOK 28/20 Q1017","temp":28,"dewp":20,"wdir":340,"wspd":10,"visib":"6+","altim":1017,"clouds":[],"obsTime":1777726800},"SBRB":{"icaoId":"SBRB","flightCategory":"VFR","rawOb":"METAR SBRB 021300Z 02006KT 9999 FEW018 BKN100 27/25 Q1015 RETS","temp":27,"dewp":25,"wdir":20,"wspd":6,"visib":"6+","altim":1015,"clouds":[{"cover":"FEW","base":1800},{"cover":"BKN","base":10000}],"obsTime":1777726800},"SBFZ":{"icaoId":"SBFZ","flightCategory":"VFR","rawOb":"METAR SBFZ 021300Z 17006KT 140V200 9999 FEW020 BKN075 28/24 Q1013","temp":28,"dewp":24,"wdir":170,"wspd":6,"visib":"6+","altim":1013,"clouds":[{"cover":"FEW","base":2000},{"cover":"BKN","base":7500}],"obsTime":1777726800},"SBRF":{"icaoId":"SBRF","flightCategory":"MVFR","rawOb":"METAR SBRF 021300Z VRB02KT 8000 VCSH SCT013 BKN020 OVC060 25/23 Q1015","temp":25,"dewp":23,"wdir":"VRB","wspd":2,"visib":4.97,"altim":1015,"clouds":[{"cover":"SCT","base":1300},{"cover":"BKN","base":2000},{"cover":"OVC","base":6000}],"obsTime":1777726800},"SBGL":{"icaoId":"SBGL","flightCategory":"MVFR","rawOb":"METAR SBGL 021300Z 35003KT 280V060 8000 SCT015 28/22 Q1016","temp":28,"dewp":22,"wdir":350,"wspd":3,"visib":4.97,"altim":1016,"clouds":[{"cover":"SCT","base":1500}],"obsTime":1777726800},"SBSG":{"icaoId":"SBSG","flightCategory":"IFR","rawOb":"METAR SBSG 021300Z 17008KT 130V210 9000 VCSH SCT004 BKN007 BKN021 FEW027TCU 26/25 Q1014","temp":26,"dewp":25,"wdir":170,"wspd":8,"visib":5.59,"altim":1014,"clouds":[{"cover":"SCT","base":400},{"cover":"BKN","base":700},{"cover":"BKN","base":2100},{"cover":"FEW","base":2700}],"obsTime":1777726800},"SBCR":{"icaoId":"SBCR","flightCategory":"VFR","rawOb":"METAR SBCR 021300Z 07005KT 010V090 CAVOK 30/20 Q1016","temp":30,"dewp":20,"wdir":70,"wspd":5,"visib":"6+","altim":1016,"clouds":[],"obsTime":1777726800},"SBSL":{"icaoId":"SBSL","flightCategory":"MVFR","rawOb":"METAR SBSL 021300Z 13005KT 090V190 9999 FEW013 BKN025 29/25 Q1013","temp":29,"dewp":25,"wdir":130,"wspd":5,"visib":"6+","altim":1013,"clouds":[{"cover":"FEW","base":1300},{"cover":"BKN","base":2500}],"obsTime":1777726800},"SBGO":{"icaoId":"SBGO","flightCategory":"VFR","rawOb":"METAR SBGO 021300Z VRB03KT CAVOK 27/19 Q1021","temp":27,"dewp":19,"wdir":"VRB","wspd":3,"visib":"6+","altim":1021,"clouds":[],"obsTime":1777726800},"SBSN":{"icaoId":"SBSN","flightCategory":"VFR","rawOb":"METAR SBSN 021300Z 09009KT 9999 SCT013 SCT017 BKN100 28/25 Q1014","temp":28,"dewp":25,"wdir":90,"wspd":9,"visib":"6+","altim":1014,"clouds":[{"cover":"SCT","base":1300},{"cover":"SCT","base":1700},{"cover":"BKN","base":10000}],"obsTime":1777726800},"SBTE":{"icaoId":"SBTE","flightCategory":"VFR","rawOb":"METAR SBTE 021300Z 13006KT 9999 FEW020 SCT100 30/23 Q1013","temp":30,"dewp":23,"wdir":130,"wspd":6,"visib":"6+","altim":1013,"clouds":[{"cover":"FEW","base":2000},{"cover":"SCT","base":10000}],"obsTime":1777726800},"SBUL":{"icaoId":"SBUL","flightCategory":"VFR","rawOb":"METAR SBUL 021300Z 08012KT CAVOK 24/17 Q1024","temp":24,"dewp":17,"wdir":80,"wspd":12,"visib":"6+","altim":1024,"clouds":[],"obsTime":1777726800},"SBUR":{"icaoId":"SBUR","flightCategory":"VFR","rawOb":"METAR SBUR 021300Z 01007KT CAVOK 26/16 Q1022","temp":26,"dewp":16,"wdir":10,"wspd":7,"visib":"6+","altim":1022,"clouds":[],"obsTime":1777726800},"SBCZ":{"icaoId":"SBCZ","flightCategory":"VFR","rawOb":"METAR SBCZ 021300Z 23003KT 9999 FEW005 SCT025 BKN100 25/25 Q1014","temp":25,"dewp":25,"wdir":230,"wspd":3,"visib":"6+","altim":1014,"clouds":[{"cover":"FEW","base":500},{"cover":"SCT","base":2500},{"cover":"BKN","base":10000}],"obsTime":1777726800},"SBHT":{"icaoId":"SBHT","flightCategory":"MVFR","rawOb":"METAR SBHT 021300Z 10005KT 9999 BKN023 BKN090 28/25 Q1014","temp":28,"dewp":25,"wdir":100,"wspd":5,"visib":"6+","altim":1014,"clouds":[{"cover":"BKN","base":2300},{"cover":"BKN","base":9000}],"obsTime":1777726800},"SBIL":{"icaoId":"SBIL","flightCategory":"MVFR","rawOb":"METAR SBIL 021300Z 27003KT 250V010 6000 -RA SCT015 BKN023 BKN070 27/25 Q1017","temp":27,"dewp":25,"wdir":270,"wspd":3,"visib":3.73,"altim":1017,"clouds":[{"cover":"SCT","base":1500},{"cover":"BKN","base":2300},{"cover":"BKN","base":7000}],"obsTime":1777726800},"SBJU":{"icaoId":"SBJU","flightCategory":"VFR","rawOb":"METAR SBJU 021300Z 15009KT 9999 FEW020 28/20 Q1016","temp":28,"dewp":20,"wdir":150,"wspd":9,"visib":"6+","altim":1016,"clouds":[{"cover":"FEW","base":2000}],"obsTime":1777726800},"SBME":{"icaoId":"SBME","flightCategory":"VFR","rawOb":"METAR SBME 021300Z 02012KT CAVOK 30/20 Q1016","temp":30,"dewp":20,"wdir":20,"wspd":12,"visib":"6+","altim":1016,"clouds":[],"obsTime":1777726800},"SBMG":{"icaoId":"SBMG","flightCategory":"VFR","rawOb":"METAR SBMG 021300Z 36008KT CAVOK 26/19 Q1019","temp":26,"dewp":19,"wdir":360,"wspd":8,"visib":"6+","altim":1019,"clouds":[],"obsTime":1777726800},"SBMK":{"icaoId":"SBMK","flightCategory":"VFR","rawOb":"METAR SBMK 021300Z 09007KT 9999 FEW034 26/18 Q1021","temp":26,"dewp":18,"wdir":90,"wspd":7,"visib":"6+","altim":1021,"clouds":[{"cover":"FEW","base":3400}],"obsTime":1777726800},"SBNT":{"icaoId":"SBNT","flightCategory":"IFR","rawOb":"METAR SBNT 021300Z 15011KT 4000 -RA BR BKN008 OVC020 25/24 Q1014","temp":25,"dewp":24,"wdir":150,"wspd":11,"visib":2.49,"altim":1014,"clouds":[{"cover":"BKN","base":800},{"cover":"OVC","base":2000}],"obsTime":1777726800},"SBAT":{"icaoId":"SBAT","flightCategory":"VFR","rawOb":"METAR SBAT 021300Z 12004KT CAVOK 29/23 Q1016","temp":29,"dewp":23,"wdir":120,"wspd":4,"visib":"6+","altim":1016,"clouds":[],"obsTime":1777726800},"SBAR":{"icaoId":"SBAR","flightCategory":"VFR","rawOb":"METAR SBAR 021300Z 11013KT 9999 FEW026 29/23 Q1015","temp":29,"dewp":23,"wdir":110,"wspd":13,"visib":"6+","altim":1015,"clouds":[{"cover":"FEW","base":2600}],"obsTime":1777726800},"SBCJ":{"icaoId":"SBCJ","flightCategory":"VFR","rawOb":"METAR SBCJ 021300Z 12006KT 9999 FEW023 25/22 Q1019","temp":25,"dewp":22,"wdir":120,"wspd":6,"visib":"6+","altim":1019,"clouds":[{"cover":"FEW","base":2300}],"obsTime":1777726800},"SBPB":{"icaoId":"SBPB","flightCategory":"VFR","rawOb":"METAR SBPB 021300Z 12006KT 9999 SCT020 30/24 Q1013","temp":30,"dewp":24,"wdir":120,"wspd":6,"visib":"6+","altim":1013,"clouds":[{"cover":"SCT","base":2000}],"obsTime":1777726800},"SBPL":{"icaoId":"SBPL","flightCategory":"VFR","rawOb":"METAR SBPL 021300Z 13009KT 9999 SCT025 30/19 Q1017","temp":30,"dewp":19,"wdir":130,"wspd":9,"visib":"6+","altim":1017,"clouds":[{"cover":"SCT","base":2500}],"obsTime":1777726800},"SBPP":{"icaoId":"SBPP","flightCategory":"VFR","rawOb":"METAR SBPP 021300Z 36009KT CAVOK 28/18 Q1020","temp":28,"dewp":18,"wdir":360,"wspd":9,"visib":"6+","altim":1020,"clouds":[],"obsTime":1777726800},"SBPS":{"icaoId":"SBPS","flightCategory":"MVFR","rawOb":"METAR SBPS 021300Z VRB01KT 8000 VCSH SCT015 OVC040 26/24 Q1018","temp":26,"dewp":24,"wdir":"VRB","wspd":1,"visib":4.97,"altim":1018,"clouds":[{"cover":"SCT","base":1500},{"cover":"OVC","base":4000}],"obsTime":1777726800},"SBSJ":{"icaoId":"SBSJ","flightCategory":"VFR","rawOb":"SPECI SBSJ 021218Z 34003KT 9999 SCT010 23/18 Q1021","temp":23,"dewp":18,"wdir":340,"wspd":3,"visib":"6+","altim":1021,"clouds":[{"cover":"SCT","base":1000}],"obsTime":1777724280},"SBTF":{"icaoId":"SBTF","flightCategory":"VFR","rawOb":"METAR SBTF 021300Z 14005KT 9999 SCT010 BKN100 27/25 Q1013","temp":27,"dewp":25,"wdir":140,"wspd":5,"visib":"6+","altim":1013,"clouds":[{"cover":"SCT","base":1000},{"cover":"BKN","base":10000}],"obsTime":1777726800},"SBTT":{"icaoId":"SBTT","flightCategory":"VFR","rawOb":"METAR SBTT 021300Z 15006KT 120V180 9999 FEW007 SCT040 26/23 Q1014","temp":26,"dewp":23,"wdir":150,"wspd":6,"visib":"6+","altim":1014,"clouds":[{"cover":"FEW","base":700},{"cover":"SCT","base":4000}],"obsTime":1777726800},"SBUY":{"icaoId":"SBUY","flightCategory":"IFR","rawOb":"METAR SBUY 021300Z 15004KT 9999 BKN006 BKN070 25/24 Q1013","temp":25,"dewp":24,"wdir":150,"wspd":4,"visib":"6+","altim":1013,"clouds":[{"cover":"BKN","base":600},{"cover":"BKN","base":7000}],"obsTime":1777726800},"SBOI":{"icaoId":"SBOI","flightCategory":"MVFR","rawOb":"METAR SBOI 021300Z AUTO 06004KT 330V130 9999 FEW013 BKN016 29/26 Q1014","temp":29,"dewp":26,"wdir":60,"wspd":4,"visib":"6+","altim":1014,"clouds":[{"cover":"FEW","base":1300},{"cover":"BKN","base":1600}],"obsTime":1777726800},"SBES":{"icaoId":"SBES","flightCategory":"VFR","rawOb":"METAR SBES 021300Z VRB06KT CAVOK 28/// Q1016","temp":null,"dewp":null,"wdir":"VRB","wspd":6,"visib":"6+","altim":1016,"clouds":[],"obsTime":1777726800},"SBGM":{"icaoId":"SBGM","flightCategory":"VFR","rawOb":"METAR SBGM 021300Z 01006KT CAVOK 28/24 Q1014","temp":28,"dewp":24,"wdir":10,"wspd":6,"visib":"6+","altim":1014,"clouds":[],"obsTime":1777726800},"SBIP":{"icaoId":"SBIP","flightCategory":"VFR","rawOb":"METAR SBIP 021300Z AUTO VRB02KT 9999 FEW023 26/20 Q1020","temp":26,"dewp":20,"wdir":"VRB","wspd":2,"visib":"6+","altim":1020,"clouds":[{"cover":"FEW","base":2300}],"obsTime":1777726800},"SBKG":{"icaoId":"SBKG","flightCategory":"MVFR","rawOb":"METAR SBKG 021300Z 15010KT 9999 -RA BKN012 SCT018 23/22 Q1017","temp":23,"dewp":22,"wdir":150,"wspd":10,"visib":"6+","altim":1017,"clouds":[{"cover":"BKN","base":1200},{"cover":"SCT","base":1800}],"obsTime":1777726800},"SBSR":{"icaoId":"SBSR","flightCategory":"VFR","rawOb":"METAR SBSR 021300Z COR 05004KT CAVOK 27/15 Q1021","temp":27,"dewp":15,"wdir":50,"wspd":4,"visib":"6+","altim":1021,"clouds":[],"obsTime":1777726800},"SBSC":{"icaoId":"SBSC","flightCategory":"VFR","rawOb":"METAR SBSC 021300Z 36010KT CAVOK 28/20 Q1016","temp":28,"dewp":20,"wdir":360,"wspd":10,"visib":"6+","altim":1016,"clouds":[],"obsTime":1777726800},"SBSM":{"icaoId":"SBSM","flightCategory":"VFR","rawOb":"METAR SBSM 021300Z 27005KT 9999 SCT010 20/19 Q1018","temp":20,"dewp":19,"wdir":270,"wspd":5,"visib":"6+","altim":1018,"clouds":[{"cover":"SCT","base":1000}],"obsTime":1777726800},"SBDN":{"icaoId":"SBDN","flightCategory":"VFR","rawOb":"METAR SBDN 021300Z 02005KT CAVOK 29/17 Q1020","temp":29,"dewp":17,"wdir":20,"wspd":5,"visib":"6+","altim":1020,"clouds":[],"obsTime":1777726800},"SBCO":{"icaoId":"SBCO","flightCategory":"IFR","rawOb":"METAR SBCO 021300Z 27010KT 9999 BKN008 SCT012 21/19 Q1016","temp":21,"dewp":19,"wdir":270,"wspd":10,"visib":"6+","altim":1016,"clouds":[{"cover":"BKN","base":800},{"cover":"SCT","base":1200}],"obsTime":1777726800},"SBVH":{"icaoId":"SBVH","flightCategory":"VFR","rawOb":"METAR SBVH 021300Z 08009KT CAVOK 26/22 Q1018","temp":26,"dewp":22,"wdir":80,"wspd":9,"visib":"6+","altim":1018,"clouds":[],"obsTime":1777726800},"SBAX":{"icaoId":"SBAX","flightCategory":"VFR","rawOb":"METAR SBAX 021300Z AUTO 07003KT 360V140 CAVOK 24/16 Q1024","temp":24,"dewp":16,"wdir":70,"wspd":3,"visib":"6+","altim":1024,"clouds":[],"obsTime":1777726800},"SBBH":{"icaoId":"SBBH","flightCategory":"VFR","rawOb":"METAR SBBH 021300Z 13005KT CAVOK 24/16 Q1023","temp":24,"dewp":16,"wdir":130,"wspd":5,"visib":"6+","altim":1023,"clouds":[],"obsTime":1777726800},"SBBQ":{"icaoId":"SBBQ","flightCategory":"VFR","rawOb":"METAR SBBQ 021300Z 30006KT CAVOK 23/13 Q1025","temp":23,"dewp":13,"wdir":300,"wspd":6,"visib":"6+","altim":1025,"clouds":[],"obsTime":1777726800},"SBBU":{"icaoId":"SBBU","flightCategory":"VFR","rawOb":"METAR SBBU 021300Z VRB05KT CAVOK 27/18 Q1021","temp":27,"dewp":18,"wdir":"VRB","wspd":5,"visib":"6+","altim":1021,"clouds":[],"obsTime":1777726800},"SBCA":{"icaoId":"SBCA","flightCategory":"VFR","rawOb":"METAR SBCA 021300Z 01014KT 9999 FEW045 BKN070 23/19 Q1020","temp":23,"dewp":19,"wdir":10,"wspd":14,"visib":"6+","altim":1020,"clouds":[{"cover":"FEW","base":4500},{"cover":"BKN","base":7000}],"obsTime":1777726800},"SBCC":{"icaoId":"SBCC","flightCategory":"VFR","rawOb":"METAR SBCC 021300Z /////KT CAVOK ///// Q1017","temp":null,"dewp":null,"wdir":null,"wspd":null,"visib":"6+","altim":1017,"clouds":[],"obsTime":1777726800},"SBJP":{"icaoId":"SBJP","flightCategory":"IFR","rawOb":"METAR SBJP 021300Z 15008KT 3000 -RA BR BKN005 BKN015 OVC025 24/24 Q1015","temp":24,"dewp":24,"wdir":150,"wspd":8,"visib":1.86,"altim":1015,"clouds":[{"cover":"BKN","base":500},{"cover":"BKN","base":1500},{"cover":"OVC","base":2500}],"obsTime":1777726800},"SBIH":{"icaoId":"SBIH","flightCategory":"VFR","rawOb":"METAR SBIH 021300Z 35004KT 9999 FEW013 29/25 Q1013","temp":29,"dewp":25,"wdir":350,"wspd":4,"visib":"6+","altim":1013,"clouds":[{"cover":"FEW","base":1300}],"obsTime":1777726800},"SBLE":{"icaoId":"SBLE","flightCategory":"MVFR","rawOb":"METAR SBLE 021300Z AUTO 14007KT 090V180 9999 BKN012 OVC046 24/24 Q1020","temp":24,"dewp":24,"wdir":140,"wspd":7,"visib":"6+","altim":1020,"clouds":[{"cover":"BKN","base":1200},{"cover":"OVC","base":4600}],"obsTime":1777726800},"SBAF":{"icaoId":"SBAF","flightCategory":"VFR","rawOb":"METAR SBAF 021300Z 33003KT CAVOK 28/23 Q1016","temp":28,"dewp":23,"wdir":330,"wspd":3,"visib":"6+","altim":1016,"clouds":[],"obsTime":1777726800},"SBGW":{"icaoId":"SBGW","flightCategory":"VFR","rawOb":"METAR SBGW 021300Z VRB03KT 9999 FEW015 24/17 Q1020","temp":24,"dewp":17,"wdir":"VRB","wspd":3,"visib":"6+","altim":1020,"clouds":[{"cover":"FEW","base":1500}],"obsTime":1777726800},"SBJR":{"icaoId":"SBJR","flightCategory":"VFR","rawOb":"METAR SBJR 021300Z 03006KT 9000 NSC 31/21 Q1015","temp":31,"dewp":21,"wdir":30,"wspd":6,"visib":5.59,"altim":1015,"clouds":[],"obsTime":1777726800},"SBLS":{"icaoId":"SBLS","flightCategory":"VFR","rawOb":"METAR SBLS 021300Z 23003KT 130V270 CAVOK 24/15 Q1022","temp":24,"dewp":15,"wdir":230,"wspd":3,"visib":"6+","altim":1022,"clouds":[],"obsTime":1777726800},"SBAN":{"icaoId":"SBAN","flightCategory":"VFR","rawOb":"METAR SBAN 021300Z 14008KT 090V160 CAVOK 24/17 Q1024","temp":24,"dewp":17,"wdir":140,"wspd":8,"visib":"6+","altim":1024,"clouds":[],"obsTime":1777726800},"SBTA":{"icaoId":"SBTA","flightCategory":"MVFR","rawOb":"METAR SBTA 021300Z VRB02KT 8000 SCT009 24/19 Q1020","temp":24,"dewp":19,"wdir":"VRB","wspd":2,"visib":4.97,"altim":1020,"clouds":[{"cover":"SCT","base":900}],"obsTime":1777726800},"SBJV":{"icaoId":"SBJV","flightCategory":"VFR","rawOb":"METAR SBJV 021300Z 34004KT 9999 -RA SCT045 OVC080 22/21 Q1018","temp":22,"dewp":21,"wdir":340,"wspd":4,"visib":"6+","altim":1018,"clouds":[{"cover":"SCT","base":4500},{"cover":"OVC","base":8000}],"obsTime":1777726800},"SBNM":{"icaoId":"SBNM","flightCategory":"MVFR","rawOb":"METAR SBNM 021300Z 23006KT 9999 SCT007 BKN018 BKN080 20/20 Q1019","temp":20,"dewp":20,"wdir":230,"wspd":6,"visib":"6+","altim":1019,"clouds":[{"cover":"SCT","base":700},{"cover":"BKN","base":1800},{"cover":"BKN","base":8000}],"obsTime":1777726800},"SBPF":{"icaoId":"SBPF","flightCategory":"LIFR","rawOb":"METAR SBPF 021300Z COR 30004KT 5000 BR BKN002 BKN070 18/17 Q1020","temp":18,"dewp":17,"wdir":300,"wspd":4,"visib":3.11,"altim":1020,"clouds":[{"cover":"BKN","base":200},{"cover":"BKN","base":7000}],"obsTime":1777726800},"SBST":{"icaoId":"SBST","flightCategory":"VFR","rawOb":"METAR SBST 021300Z /////KT 9999 FEW040 ///// Q1016","temp":null,"dewp":null,"wdir":null,"wspd":null,"visib":"6+","altim":1016,"clouds":[{"cover":"FEW","base":4000}],"obsTime":1777726800},"SBMT":{"icaoId":"SBMT","flightCategory":"VFR","rawOb":"METAR SBMT 021300Z 32009KT 260V360 CAVOK 25/15 Q1021","temp":25,"dewp":15,"wdir":320,"wspd":9,"visib":"6+","altim":1021,"clouds":[],"obsTime":1777726800}}}