{"updated":1778533027,"count":86,"data":{"SBPV":{"icaoId":"SBPV","flightCategory":"VFR","rawOb":"METAR SBPV 111900Z 20005KT 9999 SCT025 SCT100 24/19 Q1013","temp":24,"dewp":19,"wdir":200,"wspd":5,"visib":"6+","altim":1013,"clouds":[{"cover":"SCT","base":2500},{"cover":"SCT","base":10000}],"obsTime":1778526000},"SBBE":{"icaoId":"SBBE","flightCategory":"VFR","rawOb":"METAR SBBE 111900Z 01010KT 9999 VCSH BKN035 FEW040TCU 29/26 Q1008","temp":29,"dewp":26,"wdir":10,"wspd":10,"visib":"6+","altim":1008,"clouds":[{"cover":"BKN","base":3500},{"cover":"FEW","base":4000}],"obsTime":1778526000},"SBBR":{"icaoId":"SBBR","flightCategory":"VFR","rawOb":"METAR SBBR 111900Z 12005KT 080V170 9999 FEW033 26/16 Q1018","temp":26,"dewp":16,"wdir":120,"wspd":5,"visib":"6+","altim":1018,"clouds":[{"cover":"FEW","base":3300}],"obsTime":1778526000},"SBBV":{"icaoId":"SBBV","flightCategory":"VFR","rawOb":"METAR SBBV 111900Z 18010KT 9999 VCSH SCT030 FEW035TCU 32/24 Q1009","temp":32,"dewp":24,"wdir":180,"wspd":10,"visib":"6+","altim":1009,"clouds":[{"cover":"SCT","base":3000},{"cover":"FEW","base":3500}],"obsTime":1778526000},"SBCB":{"icaoId":"SBCB","flightCategory":"VFR","rawOb":"METAR SBCB 111900Z 25014KT 9999 SCT030 OVC050 22/17 Q1017","temp":22,"dewp":17,"wdir":250,"wspd":14,"visib":"6+","altim":1017,"clouds":[{"cover":"SCT","base":3000},{"cover":"OVC","base":5000}],"obsTime":1778526000},"SBCF":{"icaoId":"SBCF","flightCategory":"VFR","rawOb":"METAR SBCF 111900Z 27004KT 9999 SCT040 BKN100 26/18 Q1018","temp":26,"dewp":18,"wdir":270,"wspd":4,"visib":"6+","altim":1018,"clouds":[{"cover":"SCT","base":4000},{"cover":"BKN","base":10000}],"obsTime":1778526000},"SBCG":{"icaoId":"SBCG","flightCategory":"VFR","rawOb":"METAR SBCG 111900Z 20005KT 130V230 CAVOK 19/07 Q1020","temp":19,"dewp":7,"wdir":200,"wspd":5,"visib":"6+","altim":1020,"clouds":[],"obsTime":1778526000},"SBCP":{"icaoId":"SBCP","flightCategory":"MVFR","rawOb":"METAR SBCP 111900Z 21008KT 9999 BKN010 OVC090 22/20 Q1016","temp":22,"dewp":20,"wdir":210,"wspd":8,"visib":"6+","altim":1016,"clouds":[{"cover":"BKN","base":1000},{"cover":"OVC","base":9000}],"obsTime":1778526000},"SBCR":{"icaoId":"SBCR","flightCategory":"VFR","rawOb":"METAR SBCR 111900Z 21007KT 170V250 CAVOK 22/08 Q1019","temp":22,"dewp":8,"wdir":210,"wspd":7,"visib":"6+","altim":1019,"clouds":[],"obsTime":1778526000},"SBCT":{"icaoId":"SBCT","flightCategory":"VFR","rawOb":"METAR SBCT 111900Z 23006KT 160V270 CAVOK 17/02 Q1020","temp":17,"dewp":2,"wdir":230,"wspd":6,"visib":"6+","altim":1020,"clouds":[],"obsTime":1778526000},"SBCZ":{"icaoId":"SBCZ","flightCategory":"MVFR","rawOb":"METAR SBCZ 111900Z 22006KT 160V240 9999 BKN015 OVC090 19/16 Q1017","temp":19,"dewp":16,"wdir":220,"wspd":6,"visib":"6+","altim":1017,"clouds":[{"cover":"BKN","base":1500},{"cover":"OVC","base":9000}],"obsTime":1778526000},"SBEG":{"icaoId":"SBEG","flightCategory":"VFR","rawOb":"METAR SBEG 111900Z 33004KT 9999 2000W -RA FEW002 SCT020 FEW025TCU BKN080 25/24 Q1010","temp":25,"dewp":24,"wdir":330,"wspd":4,"visib":"6+","altim":1010,"clouds":[{"cover":"FEW","base":200},{"cover":"SCT","base":2000},{"cover":"FEW","base":2500},{"cover":"BKN","base":8000}],"obsTime":1778526000},"SBFI":{"icaoId":"SBFI","flightCategory":"VFR","rawOb":"METAR SBFI 111900Z 20005KT CAVOK 17/08 Q1021","temp":17,"dewp":8,"wdir":200,"wspd":5,"visib":"6+","altim":1021,"clouds":[],"obsTime":1778526000},"SBFL":{"icaoId":"SBFL","flightCategory":"VFR","rawOb":"METAR SBFL 111900Z 12004KT 050V160 CAVOK 20/09 Q1018","temp":20,"dewp":9,"wdir":120,"wspd":4,"visib":"6+","altim":1018,"clouds":[],"obsTime":1778526000},"SBFZ":{"icaoId":"SBFZ","flightCategory":"VFR","rawOb":"METAR SBFZ 111900Z 09011KT 9999 FEW025 30/24 Q1009","temp":30,"dewp":24,"wdir":90,"wspd":11,"visib":"6+","altim":1009,"clouds":[{"cover":"FEW","base":2500}],"obsTime":1778526000},"SBGL":{"icaoId":"SBGL","flightCategory":"MVFR","rawOb":"METAR SBGL 111900Z 22009KT 9999 BKN020 OVC045 22/14 Q1017","temp":22,"dewp":14,"wdir":220,"wspd":9,"visib":"6+","altim":1017,"clouds":[{"cover":"BKN","base":2000},{"cover":"OVC","base":4500}],"obsTime":1778526000},"SBGO":{"icaoId":"SBGO","flightCategory":"VFR","rawOb":"METAR SBGO 111900Z 14006KT 110V180 CAVOK 23/17 Q1018","temp":23,"dewp":17,"wdir":140,"wspd":6,"visib":"6+","altim":1018,"clouds":[],"obsTime":1778526000},"SBGR":{"icaoId":"SBGR","flightCategory":"VFR","rawOb":"METAR SBGR 111900Z COR 30006KT CAVOK 17/04 Q1020","temp":17,"dewp":4,"wdir":300,"wspd":6,"visib":"6+","altim":1020,"clouds":[],"obsTime":1778526000},"SBHT":{"icaoId":"SBHT","flightCategory":"VFR","rawOb":"METAR SBHT 111900Z 11004KT 9999 SCT025 BKN100 30/25 Q1008","temp":30,"dewp":25,"wdir":110,"wspd":4,"visib":"6+","altim":1008,"clouds":[{"cover":"SCT","base":2500},{"cover":"BKN","base":10000}],"obsTime":1778526000},"SBIL":{"icaoId":"SBIL","flightCategory":"VFR","rawOb":"METAR SBIL 111900Z 15006KT 110V180 9999 FEW025 29/21 Q1014","temp":29,"dewp":21,"wdir":150,"wspd":6,"visib":"6+","altim":1014,"clouds":[{"cover":"FEW","base":2500}],"obsTime":1778526000},"SBJU":{"icaoId":"SBJU","flightCategory":"VFR","rawOb":"METAR SBJU 111900Z 12005KT 9999 SCT022 30/22 Q1012","temp":30,"dewp":22,"wdir":120,"wspd":5,"visib":"6+","altim":1012,"clouds":[{"cover":"SCT","base":2200}],"obsTime":1778526000},"SBKP":{"icaoId":"SBKP","flightCategory":"VFR","rawOb":"METAR SBKP 111900Z VRB02KT CAVOK 16/09 Q1020","temp":16,"dewp":9,"wdir":"VRB","wspd":2,"visib":"6+","altim":1020,"clouds":[],"obsTime":1778526000},"SBLO":{"icaoId":"SBLO","flightCategory":"VFR","rawOb":"METAR SBLO 111900Z 16002KT CAVOK 18/07 Q1020","temp":18,"dewp":7,"wdir":160,"wspd":2,"visib":"6+","altim":1020,"clouds":[],"obsTime":1778526000},"SBMA":{"icaoId":"SBMA","flightCategory":"VFR","rawOb":"METAR SBMA 111900Z 09005KT 9999 FEW020 SCT080 30/23 Q1009","temp":30,"dewp":23,"wdir":90,"wspd":5,"visib":"6+","altim":1009,"clouds":[{"cover":"FEW","base":2000},{"cover":"SCT","base":8000}],"obsTime":1778526000},"SBME":{"icaoId":"SBME","flightCategory":"VFR","rawOb":"METAR SBME 111900Z 24008KT 9999 SCT040 BKN070 21/17 Q1016","temp":21,"dewp":17,"wdir":240,"wspd":8,"visib":"6+","altim":1016,"clouds":[{"cover":"SCT","base":4000},{"cover":"BKN","base":7000}],"obsTime":1778526000},"SBMG":{"icaoId":"SBMG","flightCategory":"VFR","rawOb":"METAR SBMG 111900Z 26004KT CAVOK 17/06 Q1019","temp":17,"dewp":6,"wdir":260,"wspd":4,"visib":"6+","altim":1019,"clouds":[],"obsTime":1778526000},"SBMK":{"icaoId":"SBMK","flightCategory":"VFR","rawOb":"METAR SBMK 111900Z 15008KT 9999 SCT045 30/17 Q1015","temp":30,"dewp":17,"wdir":150,"wspd":8,"visib":"6+","altim":1015,"clouds":[{"cover":"SCT","base":4500}],"obsTime":1778526000},"SBMO":{"icaoId":"SBMO","flightCategory":"VFR","rawOb":"METAR SBMO 111900Z 13010KT 9999 SCT030 29/22 Q1012","temp":29,"dewp":22,"wdir":130,"wspd":10,"visib":"6+","altim":1012,"clouds":[{"cover":"SCT","base":3000}],"obsTime":1778526000},"SBMQ":{"icaoId":"SBMQ","flightCategory":"VFR","rawOb":"METAR SBMQ 111900Z 05010KT 9999 SCT027 SCT080 30/25 Q1008","temp":30,"dewp":25,"wdir":50,"wspd":10,"visib":"6+","altim":1008,"clouds":[{"cover":"SCT","base":2700},{"cover":"SCT","base":8000}],"obsTime":1778526000},"SBNT":{"icaoId":"SBNT","flightCategory":"VFR","rawOb":"METAR SBNT 111900Z 12011KT 9999 SCT026 FEW030TCU SCT054 BKN080 30/23 Q1010","temp":30,"dewp":23,"wdir":120,"wspd":11,"visib":"6+","altim":1010,"clouds":[{"cover":"SCT","base":2600},{"cover":"FEW","base":3000},{"cover":"SCT","base":5400},{"cover":"BKN","base":8000}],"obsTime":1778526000},"SBPA":{"icaoId":"SBPA","flightCategory":"VFR","rawOb":"METAR SBPA 111900Z 27015KT CAVOK 17/04 Q1020","temp":17,"dewp":4,"wdir":270,"wspd":15,"visib":"6+","altim":1020,"clouds":[],"obsTime":1778526000},"SBPJ":{"icaoId":"SBPJ","flightCategory":"VFR","rawOb":"METAR SBPJ 111900Z 27005KT CAVOK 34/20 Q1010","temp":34,"dewp":20,"wdir":270,"wspd":5,"visib":"6+","altim":1010,"clouds":[],"obsTime":1778526000},"SBAT":{"icaoId":"SBAT","flightCategory":"VFR","rawOb":"METAR SBAT 111900Z 17005KT 9999 SCT030 28/22 Q1013","temp":28,"dewp":22,"wdir":170,"wspd":5,"visib":"6+","altim":1013,"clouds":[{"cover":"SCT","base":3000}],"obsTime":1778526000},"SBRB":{"icaoId":"SBRB","flightCategory":"VFR","rawOb":"METAR SBRB 111900Z 16006KT 9000 FEW010 BKN099 21/16 Q1017","temp":21,"dewp":16,"wdir":160,"wspd":6,"visib":5.59,"altim":1017,"clouds":[{"cover":"FEW","base":1000},{"cover":"BKN","base":9900}],"obsTime":1778526000},"SBRF":{"icaoId":"SBRF","flightCategory":"VFR","rawOb":"METAR SBRF 111900Z 17011KT 9999 SCT023 BKN050 28/25 Q1011","temp":28,"dewp":25,"wdir":170,"wspd":11,"visib":"6+","altim":1011,"clouds":[{"cover":"SCT","base":2300},{"cover":"BKN","base":5000}],"obsTime":1778526000},"SBSG":{"icaoId":"SBSG","flightCategory":"VFR","rawOb":"METAR SBSG 111900Z 13006KT 9999 VCSH SCT025 28/25 Q1011","temp":28,"dewp":25,"wdir":130,"wspd":6,"visib":"6+","altim":1011,"clouds":[{"cover":"SCT","base":2500}],"obsTime":1778526000},"SBSL":{"icaoId":"SBSL","flightCategory":"VFR","rawOb":"METAR SBSL 111900Z 04009KT 9999 SCT025 SCT070 29/25 Q1009","temp":29,"dewp":25,"wdir":40,"wspd":9,"visib":"6+","altim":1009,"clouds":[{"cover":"SCT","base":2500},{"cover":"SCT","base":7000}],"obsTime":1778526000},"SBSN":{"icaoId":"SBSN","flightCategory":"VFR","rawOb":"METAR SBSN 111900Z 08007KT 9999 FEW018 29/24 Q1008","temp":29,"dewp":24,"wdir":80,"wspd":7,"visib":"6+","altim":1008,"clouds":[{"cover":"FEW","base":1800}],"obsTime":1778526000},"SBSP":{"icaoId":"SBSP","flightCategory":"VFR","rawOb":"METAR SBSP 111900Z 31006KT 260V340 CAVOK 18/06 Q1020","temp":18,"dewp":6,"wdir":310,"wspd":6,"visib":"6+","altim":1020,"clouds":[],"obsTime":1778526000},"SBSV":{"icaoId":"SBSV","flightCategory":"MVFR","rawOb":"METAR SBSV 111900Z 18008KT 9999 3000NW -SHRA FEW015 BKN018 BKN030 26/24 Q1013","temp":26,"dewp":24,"wdir":180,"wspd":8,"visib":"6+","altim":1013,"clouds":[{"cover":"FEW","base":1500},{"cover":"BKN","base":1800},{"cover":"BKN","base":3000}],"obsTime":1778526000},"SBTE":{"icaoId":"SBTE","flightCategory":"VFR","rawOb":"METAR SBTE 111900Z 16003KT 9999 FEW020 FEW025TCU 29/25 Q1008","temp":29,"dewp":25,"wdir":160,"wspd":3,"visib":"6+","altim":1008,"clouds":[{"cover":"FEW","base":2000},{"cover":"FEW","base":2500}],"obsTime":1778526000},"SBUL":{"icaoId":"SBUL","flightCategory":"VFR","rawOb":"METAR SBUL 111900Z 21004KT 160V240 9999 FEW030 SCT100 23/15 Q1019","temp":23,"dewp":15,"wdir":210,"wspd":4,"visib":"6+","altim":1019,"clouds":[{"cover":"FEW","base":3000},{"cover":"SCT","base":10000}],"obsTime":1778526000},"SBUR":{"icaoId":"SBUR","flightCategory":"VFR","rawOb":"METAR SBUR 111900Z 20006KT CAVOK 22/12 Q1019","temp":22,"dewp":12,"wdir":200,"wspd":6,"visib":"6+","altim":1019,"clouds":[],"obsTime":1778526000},"SBVT":{"icaoId":"SBVT","flightCategory":"VFR","rawOb":"METAR SBVT 111900Z 20013KT 9999 SCT020 SCT070 24/19 Q1016","temp":24,"dewp":19,"wdir":200,"wspd":13,"visib":"6+","altim":1016,"clouds":[{"cover":"SCT","base":2000},{"cover":"SCT","base":7000}],"obsTime":1778526000},"SBOI":{"icaoId":"SBOI","flightCategory":"MVFR","rawOb":"METAR SBOI 111900Z AUTO 03005KT 340V080 9999 -RA FEW012 BKN015 25/24 Q1010 RERA","temp":25,"dewp":24,"wdir":30,"wspd":5,"visib":"6+","altim":1010,"clouds":[{"cover":"FEW","base":1200},{"cover":"BKN","base":1500}],"obsTime":1778526000},"SBCO":{"icaoId":"SBCO","flightCategory":"VFR","rawOb":"METAR SBCO 111900Z 27015KT CAVOK 17/04 Q1020","temp":17,"dewp":4,"wdir":270,"wspd":15,"visib":"6+","altim":1020,"clouds":[],"obsTime":1778526000},"SBPB":{"icaoId":"SBPB","flightCategory":"VFR","rawOb":"METAR SBPB 111900Z 02008KT 9999 SCT020 30/24 Q1009","temp":30,"dewp":24,"wdir":20,"wspd":8,"visib":"6+","altim":1009,"clouds":[{"cover":"SCT","base":2000}],"obsTime":1778526000},"SBBU":{"icaoId":"SBBU","flightCategory":"VFR","rawOb":"METAR SBBU 111900Z 20007KT CAVOK 19/10 Q1019","temp":19,"dewp":10,"wdir":200,"wspd":7,"visib":"6+","altim":1019,"clouds":[],"obsTime":1778526000},"SBPL":{"icaoId":"SBPL","flightCategory":"VFR","rawOb":"METAR SBPL 111900Z 12006KT 9999 FEW030 30/19 Q1013","temp":30,"dewp":19,"wdir":120,"wspd":6,"visib":"6+","altim":1013,"clouds":[{"cover":"FEW","base":3000}],"obsTime":1778526000},"SBDN":{"icaoId":"SBDN","flightCategory":"VFR","rawOb":"METAR SBDN 111900Z 14005KT CAVOK 20/07 Q1019","temp":20,"dewp":7,"wdir":140,"wspd":5,"visib":"6+","altim":1019,"clouds":[],"obsTime":1778526000},"SBPP":{"icaoId":"SBPP","flightCategory":"VFR","rawOb":"METAR SBPP 111900Z 19007KT CAVOK 15/07 Q1021","temp":15,"dewp":7,"wdir":190,"wspd":7,"visib":"6+","altim":1021,"clouds":[],"obsTime":1778526000},"SBPS":{"icaoId":"SBPS","flightCategory":"VFR","rawOb":"METAR SBPS 111900Z 11007KT 9999 FEW030 27/22 Q1014","temp":27,"dewp":22,"wdir":110,"wspd":7,"visib":"6+","altim":1014,"clouds":[{"cover":"FEW","base":3000}],"obsTime":1778526000},"SBCA":{"icaoId":"SBCA","flightCategory":"VFR","rawOb":"METAR SBCA 111900Z 16008KT CAVOK 15/04 Q1022","temp":15,"dewp":4,"wdir":160,"wspd":8,"visib":"6+","altim":1022,"clouds":[],"obsTime":1778526000},"SBAR":{"icaoId":"SBAR","flightCategory":"VFR","rawOb":"METAR SBAR 111900Z 13009KT 9999 FEW025 29/23 Q1012","temp":29,"dewp":23,"wdir":130,"wspd":9,"visib":"6+","altim":1012,"clouds":[{"cover":"FEW","base":2500}],"obsTime":1778526000},"SBSC":{"icaoId":"SBSC","flightCategory":"VFR","rawOb":"METAR SBSC 111900Z 22006KT 9999 FEW020 BKN040 OVC050 21/15 Q1018","temp":21,"dewp":15,"wdir":220,"wspd":6,"visib":"6+","altim":1018,"clouds":[{"cover":"FEW","base":2000},{"cover":"BKN","base":4000},{"cover":"OVC","base":5000}],"obsTime":1778526000},"SBES":{"icaoId":"SBES","flightCategory":"MVFR","rawOb":"METAR SBES 111900Z 25007KT 180V350 9999 BKN020 OVC040 21/// Q1017","temp":null,"dewp":null,"wdir":250,"wspd":7,"visib":"6+","altim":1017,"clouds":[{"cover":"BKN","base":2000},{"cover":"OVC","base":4000}],"obsTime":1778526000},"SBSJ":{"icaoId":"SBSJ","flightCategory":"VFR","rawOb":"METAR SBSJ 111900Z 17004KT CAVOK 17/07 Q1019","temp":17,"dewp":7,"wdir":170,"wspd":4,"visib":"6+","altim":1019,"clouds":[],"obsTime":1778526000},"SBCJ":{"icaoId":"SBCJ","flightCategory":"VFR","rawOb":"METAR SBCJ 111900Z 15004KT 9999 FEW015 BKN100 26/23 Q1014","temp":26,"dewp":23,"wdir":150,"wspd":4,"visib":"6+","altim":1014,"clouds":[{"cover":"FEW","base":1500},{"cover":"BKN","base":10000}],"obsTime":1778526000},"SBAX":{"icaoId":"SBAX","flightCategory":"VFR","rawOb":"METAR SBAX 111900Z 24007KT 9999 SCT025 25/15 Q1019","temp":25,"dewp":15,"wdir":240,"wspd":7,"visib":"6+","altim":1019,"clouds":[{"cover":"SCT","base":2500}],"obsTime":1778526000},"SBCC":{"icaoId":"SBCC","flightCategory":"MVFR","rawOb":"METAR SBCC 111900Z /////KT 9999 BKN020 ///// Q1013","temp":null,"dewp":null,"wdir":null,"wspd":null,"visib":"6+","altim":1013,"clouds":[{"cover":"BKN","base":2000}],"obsTime":1778526000},"SBSR":{"icaoId":"SBSR","flightCategory":"VFR","rawOb":"METAR SBSR 111900Z 18005KT CAVOK 22/04 Q1019","temp":22,"dewp":4,"wdir":180,"wspd":5,"visib":"6+","altim":1019,"clouds":[],"obsTime":1778526000},"SBIP":{"icaoId":"SBIP","flightCategory":"VFR","rawOb":"METAR SBIP 111900Z AUTO VRB02KT CAVOK 30/20 Q1014","temp":30,"dewp":20,"wdir":"VRB","wspd":2,"visib":"6+","altim":1014,"clouds":[],"obsTime":1778526000},"SBTF":{"icaoId":"SBTF","flightCategory":"MVFR","rawOb":"METAR SBTF 111900Z 20008KT 9999 SCT009 BKN025 BKN100 25/23 Q1011","temp":25,"dewp":23,"wdir":200,"wspd":8,"visib":"6+","altim":1011,"clouds":[{"cover":"SCT","base":900},{"cover":"BKN","base":2500},{"cover":"BKN","base":10000}],"obsTime":1778526000},"SBKG":{"icaoId":"SBKG","flightCategory":"VFR","rawOb":"METAR SBKG 111900Z 10006KT 9999 SCT025 BKN070 27/21 Q1013","temp":27,"dewp":21,"wdir":100,"wspd":6,"visib":"6+","altim":1013,"clouds":[{"cover":"SCT","base":2500},{"cover":"BKN","base":7000}],"obsTime":1778526000},"SBTT":{"icaoId":"SBTT","flightCategory":"MVFR","rawOb":"METAR SBTT 111900Z 24007KT 9999 BKN014 20/16 Q1015","temp":20,"dewp":16,"wdir":240,"wspd":7,"visib":"6+","altim":1015,"clouds":[{"cover":"BKN","base":1400}],"obsTime":1778526000},"SBBH":{"icaoId":"SBBH","flightCategory":"VFR","rawOb":"METAR SBBH 111900Z 29005KT 9999 SCT040 BKN100 26/17 Q1017","temp":26,"dewp":17,"wdir":290,"wspd":5,"visib":"6+","altim":1017,"clouds":[{"cover":"SCT","base":4000},{"cover":"BKN","base":10000}],"obsTime":1778526000},"SBTU":{"icaoId":"SBTU","flightCategory":"VFR","rawOb":"METAR SBTU 111900Z AUTO 27004KT 200V330 9999 // ///////// ///// Q1010","temp":null,"dewp":null,"wdir":270,"wspd":4,"visib":"6+","altim":1010,"clouds":[],"obsTime":1778526000},"SBUY":{"icaoId":"SBUY","flightCategory":"MVFR","rawOb":"METAR SBUY 111900Z 00000KT 9999 BKN018 OVC100 22/20 Q1012","temp":22,"dewp":20,"wdir":0,"wspd":0,"visib":"6+","altim":1012,"clouds":[{"cover":"BKN","base":1800},{"cover":"OVC","base":10000}],"obsTime":1778526000},"SBVH":{"icaoId":"SBVH","flightCategory":"VFR","rawOb":"METAR SBVH 111900Z 09005KT CAVOK 25/17 Q1017","temp":25,"dewp":17,"wdir":90,"wspd":5,"visib":"6+","altim":1017,"clouds":[],"obsTime":1778526000},"SBSM":{"icaoId":"SBSM","flightCategory":"VFR","rawOb":"METAR SBSM 111900Z 27008KT CAVOK 17/04 Q1021","temp":17,"dewp":4,"wdir":270,"wspd":8,"visib":"6+","altim":1021,"clouds":[],"obsTime":1778526000},"SBBQ":{"icaoId":"SBBQ","flightCategory":"MVFR","rawOb":"METAR SBBQ 111900Z 07004KT 9999 BKN030 21/18 Q1021","temp":21,"dewp":18,"wdir":70,"wspd":4,"visib":"6+","altim":1021,"clouds":[{"cover":"BKN","base":3000}],"obsTime":1778526000},"SBGM":{"icaoId":"SBGM","flightCategory":"VFR","rawOb":"METAR SBGM 111900Z 15010KT CAVOK 22/13 Q1016","temp":22,"dewp":13,"wdir":150,"wspd":10,"visib":"6+","altim":1016,"clouds":[],"obsTime":1778526000},"SBTA":{"icaoId":"SBTA","flightCategory":"VFR","rawOb":"METAR SBTA 111900Z 25004KT 9999 FEW030 19/09 Q1018","temp":19,"dewp":9,"wdir":250,"wspd":4,"visib":"6+","altim":1018,"clouds":[{"cover":"FEW","base":3000}],"obsTime":1778526000},"SBIH":{"icaoId":"SBIH","flightCategory":"VFR","rawOb":"METAR SBIH 111900Z 07002KT 9999 SCT018 FEW023TCU 31/24 Q1008","temp":31,"dewp":24,"wdir":70,"wspd":2,"visib":"6+","altim":1008,"clouds":[{"cover":"SCT","base":1800},{"cover":"FEW","base":2300}],"obsTime":1778526000},"SBJV":{"icaoId":"SBJV","flightCategory":"VFR","rawOb":"METAR SBJV 111900Z 06003KT CAVOK 21/08 Q1018","temp":21,"dewp":8,"wdir":60,"wspd":3,"visib":"6+","altim":1018,"clouds":[],"obsTime":1778526000},"SBNM":{"icaoId":"SBNM","flightCategory":"VFR","rawOb":"METAR SBNM 111900Z AUTO 22006KT 180V280 CAVOK 16/03 Q1022","temp":16,"dewp":3,"wdir":220,"wspd":6,"visib":"6+","altim":1022,"clouds":[],"obsTime":1778526000},"SBAN":{"icaoId":"SBAN","flightCategory":"VFR","rawOb":"METAR SBAN 111900Z 25006KT 190V290 9999 FEW030 24/17 Q1020","temp":24,"dewp":17,"wdir":250,"wspd":6,"visib":"6+","altim":1020,"clouds":[{"cover":"FEW","base":3000}],"obsTime":1778526000},"SBGW":{"icaoId":"SBGW","flightCategory":"MVFR","rawOb":"METAR SBGW 111900Z 28003KT 8000 OVC030 19/11 Q1019","temp":19,"dewp":11,"wdir":280,"wspd":3,"visib":4.97,"altim":1019,"clouds":[{"cover":"OVC","base":3000}],"obsTime":1778526000},"SBJR":{"icaoId":"SBJR","flightCategory":"VFR","rawOb":"METAR SBJR 111900Z 24005KT 9999 FEW020 BKN035 OVC050 22/15 Q1017","temp":22,"dewp":15,"wdir":240,"wspd":5,"visib":"6+","altim":1017,"clouds":[{"cover":"FEW","base":2000},{"cover":"BKN","base":3500},{"cover":"OVC","base":5000}],"obsTime":1778526000},"SBPF":{"icaoId":"SBPF","flightCategory":"VFR","rawOb":"METAR SBPF 112000Z 29006KT CAVOK 13/02 Q1023","temp":13,"dewp":2,"wdir":290,"wspd":6,"visib":"6+","altim":1023,"clouds":[],"obsTime":1778529600},"SBLS":{"icaoId":"SBLS","flightCategory":"VFR","rawOb":"METAR SBLS 111900Z 30004KT 250V310 9999 SCT040 FEW043TCU BKN100 26/18 Q1017","temp":26,"dewp":18,"wdir":300,"wspd":4,"visib":"6+","altim":1017,"clouds":[{"cover":"SCT","base":4000},{"cover":"FEW","base":4300},{"cover":"BKN","base":10000}],"obsTime":1778526000},"SBAF":{"icaoId":"SBAF","flightCategory":"VFR","rawOb":"METAR SBAF 111900Z 23007KT 9999 SCT025 BKN042 OVC050 21/16 Q1018","temp":21,"dewp":16,"wdir":230,"wspd":7,"visib":"6+","altim":1018,"clouds":[{"cover":"SCT","base":2500},{"cover":"BKN","base":4200},{"cover":"OVC","base":5000}],"obsTime":1778526000},"SBMT":{"icaoId":"SBMT","flightCategory":"VFR","rawOb":"METAR SBMT 111900Z 32005KT 260V010 CAVOK 17/07 Q1019","temp":17,"dewp":7,"wdir":320,"wspd":5,"visib":"6+","altim":1019,"clouds":[],"obsTime":1778526000},"SBST":{"icaoId":"SBST","flightCategory":"VFR","rawOb":"METAR SBST 111900Z 21004KT CAVOK 20/12 Q1018","temp":20,"dewp":12,"wdir":210,"wspd":4,"visib":"6+","altim":1018,"clouds":[],"obsTime":1778526000},"SBJP":{"icaoId":"SBJP","flightCategory":"VFR","rawOb":"METAR SBJP 111900Z 13011KT 9999 SCT030 BKN070 29/24 Q1011","temp":29,"dewp":24,"wdir":130,"wspd":11,"visib":"6+","altim":1011,"clouds":[{"cover":"SCT","base":3000},{"cover":"BKN","base":7000}],"obsTime":1778526000},"SBLE":{"icaoId":"SBLE","flightCategory":"VFR","rawOb":"METAR SBLE 111900Z AUTO 16003KT 100V220 CAVOK 29/19 Q1014","temp":29,"dewp":19,"wdir":160,"wspd":3,"visib":"6+","altim":1014,"clouds":[],"obsTime":1778526000}}}