{"updated":1781223101,"count":71,"data":{"SBVT":{"icaoId":"SBVT","flightCategory":"VFR","rawOb":"METAR SBVT 112300Z 01007KT 9999 SCT045 24/20 Q1017","temp":24,"dewp":20,"wdir":10,"wspd":7,"visib":"6+","altim":1017,"clouds":[{"cover":"SCT","base":4500}],"obsTime":1781218800},"SBBE":{"icaoId":"SBBE","flightCategory":"VFR","rawOb":"METAR SBBE 112300Z 04005KT 9999 FEW025 BKN100 27/23 Q1013","temp":27,"dewp":23,"wdir":40,"wspd":5,"visib":"6+","altim":1013,"clouds":[{"cover":"FEW","base":2500},{"cover":"BKN","base":10000}],"obsTime":1781218800},"SBBR":{"icaoId":"SBBR","flightCategory":"VFR","rawOb":"METAR SBBR 112300Z 25003KT 210V280 9999 FEW045 BKN070 22/17 Q1021","temp":22,"dewp":17,"wdir":250,"wspd":3,"visib":"6+","altim":1021,"clouds":[{"cover":"FEW","base":4500},{"cover":"BKN","base":7000}],"obsTime":1781218800},"SBBV":{"icaoId":"SBBV","flightCategory":"VFR","rawOb":"METAR SBBV 112300Z 01002KT 9999 VCSH FEW030 FEW035TCU SCT070 26/24 Q1012","temp":26,"dewp":24,"wdir":10,"wspd":2,"visib":"6+","altim":1012,"clouds":[{"cover":"FEW","base":3000},{"cover":"FEW","base":3500},{"cover":"SCT","base":7000}],"obsTime":1781218800},"SBCF":{"icaoId":"SBCF","flightCategory":"VFR","rawOb":"METAR SBCF 112300Z 21002KT 9000 FEW040 SCT100 17/16 Q1021","temp":17,"dewp":16,"wdir":210,"wspd":2,"visib":5.59,"altim":1021,"clouds":[{"cover":"FEW","base":4000},{"cover":"SCT","base":10000}],"obsTime":1781218800},"SBCG":{"icaoId":"SBCG","flightCategory":"VFR","rawOb":"METAR SBCG 112300Z 01006KT 9999 FEW040 23/18 Q1013","temp":23,"dewp":18,"wdir":10,"wspd":6,"visib":"6+","altim":1013,"clouds":[{"cover":"FEW","base":4000}],"obsTime":1781218800},"SBCT":{"icaoId":"SBCT","flightCategory":"VFR","rawOb":"METAR SBCT 112300Z 05003KT 9999 FEW020 BKN090 16/15 Q1018","temp":16,"dewp":15,"wdir":50,"wspd":3,"visib":"6+","altim":1018,"clouds":[{"cover":"FEW","base":2000},{"cover":"BKN","base":9000}],"obsTime":1781218800},"SBCZ":{"icaoId":"SBCZ","flightCategory":"VFR","rawOb":"METAR SBCZ 112300Z 24003KT 9999 FEW030 BKN100 26/26 Q1011","temp":26,"dewp":26,"wdir":240,"wspd":3,"visib":"6+","altim":1011,"clouds":[{"cover":"FEW","base":3000},{"cover":"BKN","base":10000}],"obsTime":1781218800},"SBEG":{"icaoId":"SBEG","flightCategory":"VFR","rawOb":"METAR SBEG 112300Z 00000KT 9999 FEW030 27/25 Q1011","temp":27,"dewp":25,"wdir":0,"wspd":0,"visib":"6+","altim":1011,"clouds":[{"cover":"FEW","base":3000}],"obsTime":1781218800},"SBFI":{"icaoId":"SBFI","flightCategory":"MVFR","rawOb":"METAR SBFI 112300Z 11004KT 9999 SCT010 BKN015 18/18 Q1010","temp":18,"dewp":18,"wdir":110,"wspd":4,"visib":"6+","altim":1010,"clouds":[{"cover":"SCT","base":1000},{"cover":"BKN","base":1500}],"obsTime":1781218800},"SBFL":{"icaoId":"SBFL","flightCategory":"VFR","rawOb":"METAR SBFL 112300Z 32007KT 290V350 9999 FEW007 BKN045 19/18 Q1015","temp":19,"dewp":18,"wdir":320,"wspd":7,"visib":"6+","altim":1015,"clouds":[{"cover":"FEW","base":700},{"cover":"BKN","base":4500}],"obsTime":1781218800},"SBFZ":{"icaoId":"SBFZ","flightCategory":"VFR","rawOb":"METAR SBFZ 112300Z 10006KT CAVOK 27/23 Q1013","temp":27,"dewp":23,"wdir":100,"wspd":6,"visib":"6+","altim":1013,"clouds":[],"obsTime":1781218800},"SBGL":{"icaoId":"SBGL","flightCategory":"IFR","rawOb":"METAR SBGL 112300Z 11005KT 4500 BR SCT020 BKN080 20/19 Q1016","temp":20,"dewp":19,"wdir":110,"wspd":5,"visib":2.8,"altim":1016,"clouds":[{"cover":"SCT","base":2000},{"cover":"BKN","base":8000}],"obsTime":1781218800},"SBGO":{"icaoId":"SBGO","flightCategory":"VFR","rawOb":"METAR SBGO 112300Z 24007KT 9999 -RA SCT030 FEW053TCU BKN080 23/19 Q1019","temp":23,"dewp":19,"wdir":240,"wspd":7,"visib":"6+","altim":1019,"clouds":[{"cover":"SCT","base":3000},{"cover":"FEW","base":5300},{"cover":"BKN","base":8000}],"obsTime":1781218800},"SBGR":{"icaoId":"SBGR","flightCategory":"VFR","rawOb":"METAR SBGR 112300Z 11002KT CAVOK 16/15 Q1019","temp":16,"dewp":15,"wdir":110,"wspd":2,"visib":"6+","altim":1019,"clouds":[],"obsTime":1781218800},"SBIL":{"icaoId":"SBIL","flightCategory":"VFR","rawOb":"METAR SBIL 112300Z 30004KT CAVOK 24/21 Q1018","temp":24,"dewp":21,"wdir":300,"wspd":4,"visib":"6+","altim":1018,"clouds":[],"obsTime":1781218800},"SBJU":{"icaoId":"SBJU","flightCategory":"VFR","rawOb":"METAR SBJU 112300Z 18005KT 9999 SCT020 26/17 Q1016","temp":26,"dewp":17,"wdir":180,"wspd":5,"visib":"6+","altim":1016,"clouds":[{"cover":"SCT","base":2000}],"obsTime":1781218800},"SBKP":{"icaoId":"SBKP","flightCategory":"VFR","rawOb":"METAR SBKP 112300Z 11004KT CAVOK 17/16 Q1018","temp":17,"dewp":16,"wdir":110,"wspd":4,"visib":"6+","altim":1018,"clouds":[],"obsTime":1781218800},"SBLO":{"icaoId":"SBLO","flightCategory":"VFR","rawOb":"METAR SBLO 112300Z 06002KT 9999 SCT026 20/18 Q1016","temp":20,"dewp":18,"wdir":60,"wspd":2,"visib":"6+","altim":1016,"clouds":[{"cover":"SCT","base":2600}],"obsTime":1781218800},"SBMA":{"icaoId":"SBMA","flightCategory":"VFR","rawOb":"METAR SBMA 112300Z 01004KT 9999 FEW025 BKN100 30/24 Q1012","temp":30,"dewp":24,"wdir":10,"wspd":4,"visib":"6+","altim":1012,"clouds":[{"cover":"FEW","base":2500},{"cover":"BKN","base":10000}],"obsTime":1781218800},"SBME":{"icaoId":"SBME","flightCategory":"VFR","rawOb":"METAR SBME 112300Z 21002KT 9999 SCT020 BKN080 22/20 Q1016","temp":22,"dewp":20,"wdir":210,"wspd":2,"visib":"6+","altim":1016,"clouds":[{"cover":"SCT","base":2000},{"cover":"BKN","base":8000}],"obsTime":1781218800},"SBMG":{"icaoId":"SBMG","flightCategory":"VFR","rawOb":"METAR SBMG 112300Z 04010KT 9999 FEW040 21/18 Q1013","temp":21,"dewp":18,"wdir":40,"wspd":10,"visib":"6+","altim":1013,"clouds":[{"cover":"FEW","base":4000}],"obsTime":1781218800},"SBMK":{"icaoId":"SBMK","flightCategory":"VFR","rawOb":"METAR SBMK 112300Z 24002KT CAVOK 23/17 Q1018","temp":23,"dewp":17,"wdir":240,"wspd":2,"visib":"6+","altim":1018,"clouds":[],"obsTime":1781218800},"SBMO":{"icaoId":"SBMO","flightCategory":"VFR","rawOb":"METAR SBMO 112300Z 00000KT 9999 FEW025 23/22 Q1017","temp":23,"dewp":22,"wdir":0,"wspd":0,"visib":"6+","altim":1017,"clouds":[{"cover":"FEW","base":2500}],"obsTime":1781218800},"SBMQ":{"icaoId":"SBMQ","flightCategory":"VFR","rawOb":"METAR SBMQ 112300Z 02005KT CAVOK 29/26 Q1012","temp":29,"dewp":26,"wdir":20,"wspd":5,"visib":"6+","altim":1012,"clouds":[],"obsTime":1781218800},"SBNT":{"icaoId":"SBNT","flightCategory":"MVFR","rawOb":"METAR SBNT 112300Z 17009KT 140V200 8000 SCT007 BKN023 BKN080 23/22 Q1015","temp":23,"dewp":22,"wdir":170,"wspd":9,"visib":4.97,"altim":1015,"clouds":[{"cover":"SCT","base":700},{"cover":"BKN","base":2300},{"cover":"BKN","base":8000}],"obsTime":1781218800},"SBPA":{"icaoId":"SBPA","flightCategory":"MVFR","rawOb":"METAR SBPA 112300Z 11005KT 9999 OVC014 17/15 Q1015","temp":17,"dewp":15,"wdir":110,"wspd":5,"visib":"6+","altim":1015,"clouds":[{"cover":"OVC","base":1400}],"obsTime":1781218800},"SBPJ":{"icaoId":"SBPJ","flightCategory":"VFR","rawOb":"METAR SBPJ 112300Z 13004KT CAVOK 28/22 Q1014","temp":28,"dewp":22,"wdir":130,"wspd":4,"visib":"6+","altim":1014,"clouds":[],"obsTime":1781218800},"SBPV":{"icaoId":"SBPV","flightCategory":"VFR","rawOb":"METAR SBPV 112300Z 06003KT 9999 FEW030 28/23 Q1011","temp":28,"dewp":23,"wdir":60,"wspd":3,"visib":"6+","altim":1011,"clouds":[{"cover":"FEW","base":3000}],"obsTime":1781218800},"SBRB":{"icaoId":"SBRB","flightCategory":"VFR","rawOb":"METAR SBRB 112300Z 02003KT 9999 FEW030 26/23 Q1011","temp":26,"dewp":23,"wdir":20,"wspd":3,"visib":"6+","altim":1011,"clouds":[{"cover":"FEW","base":3000}],"obsTime":1781218800},"SBRF":{"icaoId":"SBRF","flightCategory":"VFR","rawOb":"METAR SBRF 112300Z 19005KT 9999 SCT025 26/22 Q1016","temp":26,"dewp":22,"wdir":190,"wspd":5,"visib":"6+","altim":1016,"clouds":[{"cover":"SCT","base":2500}],"obsTime":1781218800},"SBSG":{"icaoId":"SBSG","flightCategory":"MVFR","rawOb":"METAR SBSG 112300Z 16007KT 130V200 9999 -RA SCT007 BKN025 22/22 Q1015","temp":22,"dewp":22,"wdir":160,"wspd":7,"visib":"6+","altim":1015,"clouds":[{"cover":"SCT","base":700},{"cover":"BKN","base":2500}],"obsTime":1781218800},"SBSL":{"icaoId":"SBSL","flightCategory":"VFR","rawOb":"METAR SBSL 112300Z 07003KT 9999 FEW017 BKN080 27/24 Q1012","temp":27,"dewp":24,"wdir":70,"wspd":3,"visib":"6+","altim":1012,"clouds":[{"cover":"FEW","base":1700},{"cover":"BKN","base":8000}],"obsTime":1781218800},"SBSN":{"icaoId":"SBSN","flightCategory":"VFR","rawOb":"METAR SBSN 112300Z 09007KT 9999 SCT015 28/25 Q1012","temp":28,"dewp":25,"wdir":90,"wspd":7,"visib":"6+","altim":1012,"clouds":[{"cover":"SCT","base":1500}],"obsTime":1781218800},"SBSP":{"icaoId":"SBSP","flightCategory":"VFR","rawOb":"METAR SBSP 112300Z 02004KT CAVOK 17/15 Q1020","temp":17,"dewp":15,"wdir":20,"wspd":4,"visib":"6+","altim":1020,"clouds":[],"obsTime":1781218800},"SBSV":{"icaoId":"SBSV","flightCategory":"VFR","rawOb":"METAR SBSV 112300Z 13007KT 9999 SCT024 26/20 Q1017","temp":26,"dewp":20,"wdir":130,"wspd":7,"visib":"6+","altim":1017,"clouds":[{"cover":"SCT","base":2400}],"obsTime":1781218800},"SBTE":{"icaoId":"SBTE","flightCategory":"VFR","rawOb":"METAR SBTE 112300Z 32003KT CAVOK 29/23 Q1011","temp":29,"dewp":23,"wdir":320,"wspd":3,"visib":"6+","altim":1011,"clouds":[],"obsTime":1781218800},"SBUL":{"icaoId":"SBUL","flightCategory":"VFR","rawOb":"METAR SBUL 112300Z 15006KT CAVOK 20/14 Q1020","temp":20,"dewp":14,"wdir":150,"wspd":6,"visib":"6+","altim":1020,"clouds":[],"obsTime":1781218800},"SBUR":{"icaoId":"SBUR","flightCategory":"VFR","rawOb":"METAR SBUR 112300Z 03005KT CAVOK 20/16 Q1018","temp":20,"dewp":16,"wdir":30,"wspd":5,"visib":"6+","altim":1018,"clouds":[],"obsTime":1781218800},"SBAT":{"icaoId":"SBAT","flightCategory":"VFR","rawOb":"METAR SBAT 112300Z 11002KT 9999 SCT025 27/23 Q1014","temp":27,"dewp":23,"wdir":110,"wspd":2,"visib":"6+","altim":1014,"clouds":[{"cover":"SCT","base":2500}],"obsTime":1781218800},"SBIP":{"icaoId":"SBIP","flightCategory":"LIFR","rawOb":"METAR SBIP 112300Z AUTO 00000KT 0600 FG FEW004 20/20 Q1018","temp":20,"dewp":20,"wdir":0,"wspd":0,"visib":0.37,"altim":1018,"clouds":[{"cover":"FEW","base":400}],"obsTime":1781218800},"SBAX":{"icaoId":"SBAX","flightCategory":"VFR","rawOb":"METAR SBAX 112300Z 13008KT 9999 SCT040 17/17 Q1020","temp":17,"dewp":17,"wdir":130,"wspd":8,"visib":"6+","altim":1020,"clouds":[{"cover":"SCT","base":4000}],"obsTime":1781218800},"SBKG":{"icaoId":"SBKG","flightCategory":"VFR","rawOb":"METAR SBKG 112300Z 11006KT CAVOK 22/20 Q1018","temp":22,"dewp":20,"wdir":110,"wspd":6,"visib":"6+","altim":1018,"clouds":[],"obsTime":1781218800},"SBCJ":{"icaoId":"SBCJ","flightCategory":"VFR","rawOb":"METAR SBCJ 112300Z 06002KT CAVOK 24/21 Q1018","temp":24,"dewp":21,"wdir":60,"wspd":2,"visib":"6+","altim":1018,"clouds":[],"obsTime":1781218800},"SBOI":{"icaoId":"SBOI","flightCategory":"VFR","rawOb":"METAR SBOI 112300Z AUTO 29001KT 9999 FEW029 26/25 Q1013","temp":26,"dewp":25,"wdir":290,"wspd":1,"visib":"6+","altim":1013,"clouds":[{"cover":"FEW","base":2900}],"obsTime":1781218800},"SBPL":{"icaoId":"SBPL","flightCategory":"VFR","rawOb":"METAR SBPL 112300Z 12004KT CAVOK 27/14 Q1016","temp":27,"dewp":14,"wdir":120,"wspd":4,"visib":"6+","altim":1016,"clouds":[],"obsTime":1781218800},"SBBU":{"icaoId":"SBBU","flightCategory":"VFR","rawOb":"METAR SBBU 112300Z 00000KT CAVOK 21/18 Q1017","temp":21,"dewp":18,"wdir":0,"wspd":0,"visib":"6+","altim":1017,"clouds":[],"obsTime":1781218800},"SBAR":{"icaoId":"SBAR","flightCategory":"VFR","rawOb":"METAR SBAR 112300Z 14005KT 9999 FEW026 26/21 Q1017","temp":26,"dewp":21,"wdir":140,"wspd":5,"visib":"6+","altim":1017,"clouds":[{"cover":"FEW","base":2600}],"obsTime":1781218800},"SBPS":{"icaoId":"SBPS","flightCategory":"VFR","rawOb":"METAR SBPS 112300Z 06005KT CAVOK 23/19 Q1018","temp":23,"dewp":19,"wdir":60,"wspd":5,"visib":"6+","altim":1018,"clouds":[],"obsTime":1781218800},"SBSC":{"icaoId":"SBSC","flightCategory":"MVFR","rawOb":"METAR SBSC 112300Z 03005KT 8000 FEW030 BKN050 20/19 Q1016","temp":20,"dewp":19,"wdir":30,"wspd":5,"visib":4.97,"altim":1016,"clouds":[{"cover":"FEW","base":3000},{"cover":"BKN","base":5000}],"obsTime":1781218800},"SBCO":{"icaoId":"SBCO","flightCategory":"MVFR","rawOb":"METAR SBCO 112300Z 06002KT 8000 OVC014 16/14 Q1015","temp":16,"dewp":14,"wdir":60,"wspd":2,"visib":4.97,"altim":1015,"clouds":[{"cover":"OVC","base":1400}],"obsTime":1781218800},"SBDN":{"icaoId":"SBDN","flightCategory":"VFR","rawOb":"METAR SBDN 112300Z 06004KT CAVOK 21/18 Q1014","temp":21,"dewp":18,"wdir":60,"wspd":4,"visib":"6+","altim":1014,"clouds":[],"obsTime":1781218800},"SBSJ":{"icaoId":"SBSJ","flightCategory":"VFR","rawOb":"METAR SBSJ 112300Z 12003KT CAVOK 17/16 Q1019","temp":17,"dewp":16,"wdir":120,"wspd":3,"visib":"6+","altim":1019,"clouds":[],"obsTime":1781218800},"SBBH":{"icaoId":"SBBH","flightCategory":"VFR","rawOb":"METAR SBBH 112300Z 00000KT CAVOK 17/16 Q1020","temp":17,"dewp":16,"wdir":0,"wspd":0,"visib":"6+","altim":1020,"clouds":[],"obsTime":1781218800},"SBSM":{"icaoId":"SBSM","flightCategory":"LIFR","rawOb":"METAR SBSM 112300Z 11005KT 1500 R29///// R11/P2000N -DZRA BR OVC002 14/14 Q1014","temp":14,"dewp":14,"wdir":110,"wspd":5,"visib":0.93,"altim":1014,"clouds":[{"cover":"OVC","base":200}],"obsTime":1781218800},"SBSR":{"icaoId":"SBSR","flightCategory":"VFR","rawOb":"METAR SBSR 112300Z 06005KT 030V100 9999 FEW030 SCT080 21/17 Q1017","temp":21,"dewp":17,"wdir":60,"wspd":5,"visib":"6+","altim":1017,"clouds":[{"cover":"FEW","base":3000},{"cover":"SCT","base":8000}],"obsTime":1781218800},"SBCC":{"icaoId":"SBCC","flightCategory":"VFR","rawOb":"METAR SBCC 112300Z 04003KT 9999 SCT020 SCT100 23/22 Q1015","temp":23,"dewp":22,"wdir":40,"wspd":3,"visib":"6+","altim":1015,"clouds":[{"cover":"SCT","base":2000},{"cover":"SCT","base":10000}],"obsTime":1781218800},"SBVH":{"icaoId":"SBVH","flightCategory":"VFR","rawOb":"METAR SBVH 112300Z 35006KT 9999 FEW040 25/21 Q1015","temp":25,"dewp":21,"wdir":350,"wspd":6,"visib":"6+","altim":1015,"clouds":[{"cover":"FEW","base":4000}],"obsTime":1781218800},"SBCA":{"icaoId":"SBCA","flightCategory":"LIFR","rawOb":"METAR SBCA 112300Z 03016KT 3500 -TSRA BR BKN002 BKN025 FEW030CB OVC070 17/17 Q1015","temp":17,"dewp":17,"wdir":30,"wspd":16,"visib":2.17,"altim":1015,"clouds":[{"cover":"BKN","base":200},{"cover":"BKN","base":2500},{"cover":"FEW","base":3000},{"cover":"OVC","base":7000}],"obsTime":1781218800},"SBTT":{"icaoId":"SBTT","flightCategory":"VFR","rawOb":"METAR SBTT 112300Z 14004KT 9999 FEW030 26/24 Q1012","temp":26,"dewp":24,"wdir":140,"wspd":4,"visib":"6+","altim":1012,"clouds":[{"cover":"FEW","base":3000}],"obsTime":1781218800},"SBTF":{"icaoId":"SBTF","flightCategory":"VFR","rawOb":"SPECI SBTF 112245Z 12003KT 9999 FEW017 28/26 Q1010","temp":28,"dewp":26,"wdir":120,"wspd":3,"visib":"6+","altim":1010,"clouds":[{"cover":"FEW","base":1700}],"obsTime":1781217900},"SBJP":{"icaoId":"SBJP","flightCategory":"VFR","rawOb":"METAR SBJP 112300Z 19004KT 9999 FEW020 SCT100 24/23 Q1016","temp":24,"dewp":23,"wdir":190,"wspd":4,"visib":"6+","altim":1016,"clouds":[{"cover":"FEW","base":2000},{"cover":"SCT","base":10000}],"obsTime":1781218800},"SBJV":{"icaoId":"SBJV","flightCategory":"VFR","rawOb":"METAR SBJV 112300Z 13002KT 9999 SCT016 BKN050 18/18 Q1015","temp":18,"dewp":18,"wdir":130,"wspd":2,"visib":"6+","altim":1015,"clouds":[{"cover":"SCT","base":1600},{"cover":"BKN","base":5000}],"obsTime":1781218800},"SBNM":{"icaoId":"SBNM","flightCategory":"MVFR","rawOb":"METAR SBNM 112300Z AUTO 09006KT 8000 -RA FEW007 16/15 Q1011","temp":16,"dewp":15,"wdir":90,"wspd":6,"visib":4.97,"altim":1011,"clouds":[{"cover":"FEW","base":700}],"obsTime":1781218800},"SBLE":{"icaoId":"SBLE","flightCategory":"VFR","rawOb":"METAR SBLE 112300Z AUTO 02005KT CAVOK 22/18 Q1019","temp":22,"dewp":18,"wdir":20,"wspd":5,"visib":"6+","altim":1019,"clouds":[],"obsTime":1781218800},"SBJR":{"icaoId":"SBJR","flightCategory":"MVFR","rawOb":"METAR SBJR 112300Z 02002KT 6000 SCT020 BKN050 21/19 Q1016","temp":21,"dewp":19,"wdir":20,"wspd":2,"visib":3.73,"altim":1016,"clouds":[{"cover":"SCT","base":2000},{"cover":"BKN","base":5000}],"obsTime":1781218800},"SBLS":{"icaoId":"SBLS","flightCategory":"VFR","rawOb":"METAR SBLS 112300Z 00000KT 9000 NSC 17/16 Q1020","temp":17,"dewp":16,"wdir":0,"wspd":0,"visib":5.59,"altim":1020,"clouds":[],"obsTime":1781218800},"SBMT":{"icaoId":"SBMT","flightCategory":"VFR","rawOb":"METAR SBMT 112300Z 00000KT CAVOK 12/12 Q1019","temp":12,"dewp":12,"wdir":0,"wspd":0,"visib":"6+","altim":1019,"clouds":[],"obsTime":1781218800},"SBTA":{"icaoId":"SBTA","flightCategory":"MVFR","rawOb":"METAR SBTA 112300Z VRB01KT 8000 FEW020 SCT100 16/15 Q1018","temp":16,"dewp":15,"wdir":"VRB","wspd":1,"visib":4.97,"altim":1018,"clouds":[{"cover":"FEW","base":2000},{"cover":"SCT","base":10000}],"obsTime":1781218800},"SBAN":{"icaoId":"SBAN","flightCategory":"VFR","rawOb":"METAR SBAN 112300Z 14003KT 9999 FEW045 SCT060 BKN080 21/15 Q1021","temp":21,"dewp":15,"wdir":140,"wspd":3,"visib":"6+","altim":1021,"clouds":[{"cover":"FEW","base":4500},{"cover":"SCT","base":6000},{"cover":"BKN","base":8000}],"obsTime":1781218800},"SBAF":{"icaoId":"SBAF","flightCategory":"IFR","rawOb":"METAR SBAF 112300Z 15001KT 4000 BR BKN020 BKN050 19/19 Q1016","temp":19,"dewp":19,"wdir":150,"wspd":1,"visib":2.49,"altim":1016,"clouds":[{"cover":"BKN","base":2000},{"cover":"BKN","base":5000}],"obsTime":1781218800}}}