{"updated":1783253205,"count":83,"data":{"SBFI":{"icaoId":"SBFI","flightCategory":"VFR","rawOb":"METAR SBFI 051100Z 10005KT CAVOK 14/13 Q1019","temp":14,"dewp":13,"wdir":100,"wspd":5,"visib":"6+","altim":1019,"clouds":[],"obsTime":1783249200},"SBPJ":{"icaoId":"SBPJ","flightCategory":"VFR","rawOb":"METAR SBPJ 051100Z 13003KT CAVOK 25/18 Q1016","temp":25,"dewp":18,"wdir":130,"wspd":3,"visib":"6+","altim":1016,"clouds":[],"obsTime":1783249200},"SBCR":{"icaoId":"SBCR","flightCategory":"LIFR","rawOb":"METAR SBCR 051100Z 08004KT 2000 BR BKN002 BKN004 15/15 Q1018","temp":15,"dewp":15,"wdir":80,"wspd":4,"visib":1.24,"altim":1018,"clouds":[{"cover":"BKN","base":200},{"cover":"BKN","base":400}],"obsTime":1783249200},"SBCP":{"icaoId":"SBCP","flightCategory":"MVFR","rawOb":"METAR SBCP 051100Z 24010KT 9999 BKN015 OVC090 20/18 Q1021","temp":20,"dewp":18,"wdir":240,"wspd":10,"visib":"6+","altim":1021,"clouds":[{"cover":"BKN","base":1500},{"cover":"OVC","base":9000}],"obsTime":1783249200},"SBLO":{"icaoId":"SBLO","flightCategory":"LIFR","rawOb":"METAR SBLO 051100Z 17003KT 120V210 0200 R13/0300N FG VV001 15/15 Q1021","temp":15,"dewp":15,"wdir":170,"wspd":3,"visib":0.12,"altim":1021,"clouds":[{"cover":"OVX","base":100}],"obsTime":1783249200},"SBBR":{"icaoId":"SBBR","flightCategory":"VFR","rawOb":"METAR SBBR 051100Z VRB02KT 9999 FEW045 14/12 Q1023","temp":14,"dewp":12,"wdir":"VRB","wspd":2,"visib":"6+","altim":1023,"clouds":[{"cover":"FEW","base":4500}],"obsTime":1783249200},"SBCT":{"icaoId":"SBCT","flightCategory":"LIFR","rawOb":"METAR SBCT 051100Z 03005KT 0800 R33/0900 R15/1500 FG VV002 11/11 Q1023","temp":11,"dewp":11,"wdir":30,"wspd":5,"visib":0.5,"altim":1023,"clouds":[{"cover":"OVX","base":200}],"obsTime":1783249200},"SBBV":{"icaoId":"SBBV","flightCategory":"IFR","rawOb":"METAR SBBV 051100Z 35003KT 9999 -RA BKN007 BKN015 FEW030TCU BKN100 24/24 Q1015","temp":24,"dewp":24,"wdir":350,"wspd":3,"visib":"6+","altim":1015,"clouds":[{"cover":"BKN","base":700},{"cover":"BKN","base":1500},{"cover":"FEW","base":3000},{"cover":"BKN","base":10000}],"obsTime":1783249200},"SBGL":{"icaoId":"SBGL","flightCategory":"VFR","rawOb":"METAR SBGL 051100Z 25007KT 9999 SCT027 OVC034 20/16 Q1022","temp":20,"dewp":16,"wdir":250,"wspd":7,"visib":"6+","altim":1022,"clouds":[{"cover":"SCT","base":2700},{"cover":"OVC","base":3400}],"obsTime":1783249200},"SBGR":{"icaoId":"SBGR","flightCategory":"IFR","rawOb":"METAR SBGR 051100Z 14003KT 3000 BR BKN005 OVC007 13/12 Q1025","temp":13,"dewp":12,"wdir":140,"wspd":3,"visib":1.86,"altim":1025,"clouds":[{"cover":"BKN","base":500},{"cover":"OVC","base":700}],"obsTime":1783249200},"SBBE":{"icaoId":"SBBE","flightCategory":"VFR","rawOb":"METAR SBBE 051100Z 10005KT 9999 FEW011 BKN080 27/24 Q1014","temp":27,"dewp":24,"wdir":100,"wspd":5,"visib":"6+","altim":1014,"clouds":[{"cover":"FEW","base":1100},{"cover":"BKN","base":8000}],"obsTime":1783249200},"SBPV":{"icaoId":"SBPV","flightCategory":"VFR","rawOb":"METAR SBPV 051100Z 18003KT CAVOK 22/20 Q1014","temp":22,"dewp":20,"wdir":180,"wspd":3,"visib":"6+","altim":1014,"clouds":[],"obsTime":1783249200},"SBFZ":{"icaoId":"SBFZ","flightCategory":"VFR","rawOb":"METAR SBFZ 051100Z 16006KT 9999 FEW020 BKN090 25/23 Q1015","temp":25,"dewp":23,"wdir":160,"wspd":6,"visib":"6+","altim":1015,"clouds":[{"cover":"FEW","base":2000},{"cover":"BKN","base":9000}],"obsTime":1783249200},"SBCF":{"icaoId":"SBCF","flightCategory":"VFR","rawOb":"METAR SBCF 051100Z 17003KT CAVOK 17/14 Q1022","temp":17,"dewp":14,"wdir":170,"wspd":3,"visib":"6+","altim":1022,"clouds":[],"obsTime":1783249200},"SBSL":{"icaoId":"SBSL","flightCategory":"VFR","rawOb":"METAR SBSL 051100Z 09012KT CAVOK 27/24 Q1013","temp":27,"dewp":24,"wdir":90,"wspd":12,"visib":"6+","altim":1013,"clouds":[],"obsTime":1783249200},"SBMO":{"icaoId":"SBMO","flightCategory":"VFR","rawOb":"METAR SBMO 051100Z 31005KT 9999 FEW017 23/21 Q1017","temp":23,"dewp":21,"wdir":310,"wspd":5,"visib":"6+","altim":1017,"clouds":[{"cover":"FEW","base":1700}],"obsTime":1783249200},"SBEG":{"icaoId":"SBEG","flightCategory":"VFR","rawOb":"METAR SBEG 051100Z 33002KT CAVOK 23/23 Q1014","temp":23,"dewp":23,"wdir":330,"wspd":2,"visib":"6+","altim":1014,"clouds":[],"obsTime":1783249200},"SBSG":{"icaoId":"SBSG","flightCategory":"VFR","rawOb":"METAR SBSG 051100Z COR 21002KT 9999 SCT003 BKN050 23/23 Q1016","temp":23,"dewp":23,"wdir":210,"wspd":2,"visib":"6+","altim":1016,"clouds":[{"cover":"SCT","base":300},{"cover":"BKN","base":5000}],"obsTime":1783249200},"SBCZ":{"icaoId":"SBCZ","flightCategory":"VFR","rawOb":"METAR SBCZ 051200Z 00000KT CAVOK 21/20 Q1015","temp":21,"dewp":20,"wdir":0,"wspd":0,"visib":"6+","altim":1015,"clouds":[],"obsTime":1783252800},"SBNT":{"icaoId":"SBNT","flightCategory":"IFR","rawOb":"METAR SBNT 051100Z 21006KT 190V250 9999 BKN008 BKN051 25/23 Q1016","temp":25,"dewp":23,"wdir":210,"wspd":6,"visib":"6+","altim":1016,"clouds":[{"cover":"BKN","base":800},{"cover":"BKN","base":5100}],"obsTime":1783249200},"SBRF":{"icaoId":"SBRF","flightCategory":"IFR","rawOb":"SPECI SBRF 051011Z 18003KT 2900 -RA BR BKN015 SCT023 23/22 Q1016","temp":23,"dewp":22,"wdir":180,"wspd":3,"visib":1.8,"altim":1016,"clouds":[{"cover":"BKN","base":1500},{"cover":"SCT","base":2300}],"obsTime":1783246260},"SBSN":{"icaoId":"SBSN","flightCategory":"VFR","rawOb":"METAR SBSN 051100Z 17002KT CAVOK 26/25 Q1013","temp":26,"dewp":25,"wdir":170,"wspd":2,"visib":"6+","altim":1013,"clouds":[],"obsTime":1783249200},"SBRB":{"icaoId":"SBRB","flightCategory":"MVFR","rawOb":"METAR SBRB 051100Z 00000KT 8000 NSC 17/17 Q1015","temp":17,"dewp":17,"wdir":0,"wspd":0,"visib":4.97,"altim":1015,"clouds":[],"obsTime":1783249200},"SBSP":{"icaoId":"SBSP","flightCategory":"IFR","rawOb":"METAR SBSP 051100Z COR AUTO 12005KT 070V150 9999 OVC007 13/12 Q1025","temp":13,"dewp":12,"wdir":120,"wspd":5,"visib":"6+","altim":1025,"clouds":[{"cover":"OVC","base":700}],"obsTime":1783249200},"SBCB":{"icaoId":"SBCB","flightCategory":"MVFR","rawOb":"METAR SBCB 051100Z 27007KT 9999 SCT010 BKN015 BKN040 21/18 Q1022","temp":21,"dewp":18,"wdir":270,"wspd":7,"visib":"6+","altim":1022,"clouds":[{"cover":"SCT","base":1000},{"cover":"BKN","base":1500},{"cover":"BKN","base":4000}],"obsTime":1783249200},"SBTE":{"icaoId":"SBTE","flightCategory":"VFR","rawOb":"METAR SBTE 051100Z 00000KT CAVOK 28/22 Q1014","temp":28,"dewp":22,"wdir":0,"wspd":0,"visib":"6+","altim":1014,"clouds":[],"obsTime":1783249200},"SBPA":{"icaoId":"SBPA","flightCategory":"LIFR","rawOb":"METAR SBPA 051100Z VRB02KT 2500 BR OVC002 10/10 Q1022","temp":10,"dewp":10,"wdir":"VRB","wspd":2,"visib":1.55,"altim":1022,"clouds":[{"cover":"OVC","base":200}],"obsTime":1783249200},"SBFL":{"icaoId":"SBFL","flightCategory":"VFR","rawOb":"METAR SBFL 051100Z 27005KT CAVOK 12/11 Q1024","temp":12,"dewp":11,"wdir":270,"wspd":5,"visib":"6+","altim":1024,"clouds":[],"obsTime":1783249200},"SBMQ":{"icaoId":"SBMQ","flightCategory":"VFR","rawOb":"METAR SBMQ 051100Z 13002KT 9999 FEW011 SCT022 FEW025TCU 27/25 Q1014","temp":27,"dewp":25,"wdir":130,"wspd":2,"visib":"6+","altim":1014,"clouds":[{"cover":"FEW","base":1100},{"cover":"SCT","base":2200},{"cover":"FEW","base":2500}],"obsTime":1783249200},"SBSV":{"icaoId":"SBSV","flightCategory":"MVFR","rawOb":"METAR SBSV 051100Z 09012KT 6000 -RA SCT017 BKN025 OVC050 24/21 Q1018","temp":24,"dewp":21,"wdir":90,"wspd":12,"visib":3.73,"altim":1018,"clouds":[{"cover":"SCT","base":1700},{"cover":"BKN","base":2500},{"cover":"OVC","base":5000}],"obsTime":1783249200},"SBKP":{"icaoId":"SBKP","flightCategory":"IFR","rawOb":"METAR SBKP 051100Z 12007KT 2500 BR OVC005 14/13 Q1023","temp":14,"dewp":13,"wdir":120,"wspd":7,"visib":1.55,"altim":1023,"clouds":[{"cover":"OVC","base":500}],"obsTime":1783249200},"SBVT":{"icaoId":"SBVT","flightCategory":"VFR","rawOb":"METAR SBVT 051100Z 02001KT 9999 SCT030 BKN045 20/19 Q1020","temp":20,"dewp":19,"wdir":20,"wspd":1,"visib":"6+","altim":1020,"clouds":[{"cover":"SCT","base":3000},{"cover":"BKN","base":4500}],"obsTime":1783249200},"SBMA":{"icaoId":"SBMA","flightCategory":"VFR","rawOb":"METAR SBMA 051100Z 00000KT CAVOK 25/20 Q1014","temp":25,"dewp":20,"wdir":0,"wspd":0,"visib":"6+","altim":1014,"clouds":[],"obsTime":1783249200},"SBCG":{"icaoId":"SBCG","flightCategory":"VFR","rawOb":"METAR SBCG 051100Z 07007KT CAVOK 17/15 Q1019","temp":17,"dewp":15,"wdir":70,"wspd":7,"visib":"6+","altim":1019,"clouds":[],"obsTime":1783249200},"SBGO":{"icaoId":"SBGO","flightCategory":"VFR","rawOb":"METAR SBGO 051100Z 00000KT CAVOK 16/12 Q1021","temp":16,"dewp":12,"wdir":0,"wspd":0,"visib":"6+","altim":1021,"clouds":[],"obsTime":1783249200},"SBAT":{"icaoId":"SBAT","flightCategory":"VFR","rawOb":"METAR SBAT 051100Z COR 00000KT CAVOK 21/17 Q1016","temp":21,"dewp":17,"wdir":0,"wspd":0,"visib":"6+","altim":1016,"clouds":[],"obsTime":1783249200},"SBHT":{"icaoId":"SBHT","flightCategory":"VFR","rawOb":"METAR SBHT 051100Z COR 00000KT CAVOK 25/23 Q1014","temp":25,"dewp":23,"wdir":0,"wspd":0,"visib":"6+","altim":1014,"clouds":[],"obsTime":1783249200},"SBIL":{"icaoId":"SBIL","flightCategory":"VFR","rawOb":"METAR SBIL 051100Z 24005KT 9999 -RA FEW023 BKN050 OVC070 22/21 Q1019","temp":22,"dewp":21,"wdir":240,"wspd":5,"visib":"6+","altim":1019,"clouds":[{"cover":"FEW","base":2300},{"cover":"BKN","base":5000},{"cover":"OVC","base":7000}],"obsTime":1783249200},"SBJU":{"icaoId":"SBJU","flightCategory":"VFR","rawOb":"METAR SBJU 051100Z 00000KT CAVOK 25/16 Q1018","temp":25,"dewp":16,"wdir":0,"wspd":0,"visib":"6+","altim":1018,"clouds":[],"obsTime":1783249200},"SBMG":{"icaoId":"SBMG","flightCategory":"IFR","rawOb":"METAR SBMG 051100Z 10005KT 2000 BR SCT003 16/15 Q1020","temp":16,"dewp":15,"wdir":100,"wspd":5,"visib":1.24,"altim":1020,"clouds":[{"cover":"SCT","base":300}],"obsTime":1783249200},"SBME":{"icaoId":"SBME","flightCategory":"IFR","rawOb":"METAR SBME 051100Z 23006KT 9999 BKN009 OVC030 20/18 Q1021","temp":20,"dewp":18,"wdir":230,"wspd":6,"visib":"6+","altim":1021,"clouds":[{"cover":"BKN","base":900},{"cover":"OVC","base":3000}],"obsTime":1783249200},"SBMK":{"icaoId":"SBMK","flightCategory":"VFR","rawOb":"METAR SBMK 051100Z 00000KT CAVOK 18/13 Q1021","temp":18,"dewp":13,"wdir":0,"wspd":0,"visib":"6+","altim":1021,"clouds":[],"obsTime":1783249200},"SBUL":{"icaoId":"SBUL","flightCategory":"VFR","rawOb":"METAR SBUL 051100Z 15007KT CAVOK 18/12 Q1022","temp":18,"dewp":12,"wdir":150,"wspd":7,"visib":"6+","altim":1022,"clouds":[],"obsTime":1783249200},"SBUR":{"icaoId":"SBUR","flightCategory":"VFR","rawOb":"METAR SBUR 051100Z 02002KT CAVOK 18/13 Q1021","temp":18,"dewp":13,"wdir":20,"wspd":2,"visib":"6+","altim":1021,"clouds":[],"obsTime":1783249200},"SBCJ":{"icaoId":"SBCJ","flightCategory":"VFR","rawOb":"SPECI SBCJ 051015Z 00000KT CAVOK 21/17 Q1017","temp":21,"dewp":17,"wdir":0,"wspd":0,"visib":"6+","altim":1017,"clouds":[],"obsTime":1783246500},"SBAR":{"icaoId":"SBAR","flightCategory":"VFR","rawOb":"METAR SBAR 051100Z 34004KT 9999 FEW019 FEW022TCU 24/22 Q1017","temp":24,"dewp":22,"wdir":340,"wspd":4,"visib":"6+","altim":1017,"clouds":[{"cover":"FEW","base":1900},{"cover":"FEW","base":2200}],"obsTime":1783249200},"SBPB":{"icaoId":"SBPB","flightCategory":"VFR","rawOb":"SPECI SBPB 051015Z 13006KT 9999 FEW017 BKN100 25/23 Q1014","temp":25,"dewp":23,"wdir":130,"wspd":6,"visib":"6+","altim":1014,"clouds":[{"cover":"FEW","base":1700},{"cover":"BKN","base":10000}],"obsTime":1783246500},"SBPP":{"icaoId":"SBPP","flightCategory":"VFR","rawOb":"SPECI SBPP 051115Z 05005KT CAVOK 15/14 Q1019","temp":15,"dewp":14,"wdir":50,"wspd":5,"visib":"6+","altim":1019,"clouds":[],"obsTime":1783250100},"SBTT":{"icaoId":"SBTT","flightCategory":"VFR","rawOb":"METAR SBTT 051100Z 15002KT 9999 FEW006 21/20 Q1014","temp":21,"dewp":20,"wdir":150,"wspd":2,"visib":"6+","altim":1014,"clouds":[{"cover":"FEW","base":600}],"obsTime":1783249200},"SBUY":{"icaoId":"SBUY","flightCategory":"VFR","rawOb":"SPECI SBUY 051030Z 00000KT CAVOK 21/21 Q1012","temp":21,"dewp":21,"wdir":0,"wspd":0,"visib":"6+","altim":1012,"clouds":[],"obsTime":1783247400},"SBPS":{"icaoId":"SBPS","flightCategory":"VFR","rawOb":"METAR SBPS 051100Z 26003KT 230V290 9999 SCT025 23/21 Q1019","temp":23,"dewp":21,"wdir":260,"wspd":3,"visib":"6+","altim":1019,"clouds":[{"cover":"SCT","base":2500}],"obsTime":1783249200},"SBSJ":{"icaoId":"SBSJ","flightCategory":"IFR","rawOb":"METAR SBSJ 051100Z 26004KT 3000 BR OVC009 14/13 Q1024","temp":14,"dewp":13,"wdir":260,"wspd":4,"visib":1.86,"altim":1024,"clouds":[{"cover":"OVC","base":900}],"obsTime":1783249200},"SBPL":{"icaoId":"SBPL","flightCategory":"MVFR","rawOb":"METAR SBPL 051100Z 10008KT 9999 BKN020 23/19 Q1019","temp":23,"dewp":19,"wdir":100,"wspd":8,"visib":"6+","altim":1019,"clouds":[{"cover":"BKN","base":2000}],"obsTime":1783249200},"SBOI":{"icaoId":"SBOI","flightCategory":"LIFR","rawOb":"METAR SBOI 051100Z AUTO 00000KT 2300 BR BKN001 OVC004 25/25 Q1014","temp":25,"dewp":25,"wdir":0,"wspd":0,"visib":1.43,"altim":1014,"clouds":[{"cover":"BKN","base":100},{"cover":"OVC","base":400}],"obsTime":1783249200},"SBTF":{"icaoId":"SBTF","flightCategory":"VFR","rawOb":"SPECI SBTF 051115Z 00000KT CAVOK 25/24 Q1013","temp":25,"dewp":24,"wdir":0,"wspd":0,"visib":"6+","altim":1013,"clouds":[],"obsTime":1783250100},"SBCA":{"icaoId":"SBCA","flightCategory":"VFR","rawOb":"METAR SBCA 051100Z 07005KT CAVOK 16/12 Q1021","temp":16,"dewp":12,"wdir":70,"wspd":5,"visib":"6+","altim":1021,"clouds":[],"obsTime":1783249200},"SBCO":{"icaoId":"SBCO","flightCategory":"LIFR","rawOb":"METAR SBCO 051100Z 00000KT 2000 -DZ BR OVC003 10/10 Q1023","temp":10,"dewp":10,"wdir":0,"wspd":0,"visib":1.24,"altim":1023,"clouds":[{"cover":"OVC","base":300}],"obsTime":1783249200},"SBSM":{"icaoId":"SBSM","flightCategory":"VFR","rawOb":"METAR SBSM 051100Z 10005KT 070V130 9999 FEW013 BKN050 OVC070 09/08 Q1021","temp":9,"dewp":8,"wdir":100,"wspd":5,"visib":"6+","altim":1021,"clouds":[{"cover":"FEW","base":1300},{"cover":"BKN","base":5000},{"cover":"OVC","base":7000}],"obsTime":1783249200},"SBVH":{"icaoId":"SBVH","flightCategory":"VFR","rawOb":"METAR SBVH 051100Z 13004KT CAVOK 15/14 Q1018","temp":15,"dewp":14,"wdir":130,"wspd":4,"visib":"6+","altim":1018,"clouds":[],"obsTime":1783249200},"SBKG":{"icaoId":"SBKG","flightCategory":"VFR","rawOb":"METAR SBKG 051100Z 15008KT 9999 SCT017 BKN070 22/20 Q1019","temp":22,"dewp":20,"wdir":150,"wspd":8,"visib":"6+","altim":1019,"clouds":[{"cover":"SCT","base":1700},{"cover":"BKN","base":7000}],"obsTime":1783249200},"SBSR":{"icaoId":"SBSR","flightCategory":"VFR","rawOb":"METAR SBSR 051100Z 12002KT 9999 FEW045 19/15 Q1020","temp":19,"dewp":15,"wdir":120,"wspd":2,"visib":"6+","altim":1020,"clouds":[{"cover":"FEW","base":4500}],"obsTime":1783249200},"SBES":{"icaoId":"SBES","flightCategory":"IFR","rawOb":"METAR SBES 051100Z VRB03KT 3000 -RA BR BKN012 OVC040 18/// Q1022","temp":null,"dewp":null,"wdir":"VRB","wspd":3,"visib":1.86,"altim":1022,"clouds":[{"cover":"BKN","base":1200},{"cover":"OVC","base":4000}],"obsTime":1783249200},"SBAX":{"icaoId":"SBAX","flightCategory":"VFR","rawOb":"METAR SBAX 051100Z AUTO 11007KT CAVOK 19/13 Q1022","temp":19,"dewp":13,"wdir":110,"wspd":7,"visib":"6+","altim":1022,"clouds":[],"obsTime":1783249200},"SBCC":{"icaoId":"SBCC","flightCategory":"VFR","rawOb":"METAR SBCC 051100Z 07004KT CAVOK 23/15 Q1016","temp":23,"dewp":15,"wdir":70,"wspd":4,"visib":"6+","altim":1016,"clouds":[],"obsTime":1783249200},"SBBH":{"icaoId":"SBBH","flightCategory":"VFR","rawOb":"METAR SBBH 051100Z 10005KT CAVOK 18/14 Q1022","temp":18,"dewp":14,"wdir":100,"wspd":5,"visib":"6+","altim":1022,"clouds":[],"obsTime":1783249200},"SBBU":{"icaoId":"SBBU","flightCategory":"LIFR","rawOb":"METAR SBBU 051100Z 12005KT 0100 FG OVC002 14/14 Q1022","temp":14,"dewp":14,"wdir":120,"wspd":5,"visib":0.06,"altim":1022,"clouds":[{"cover":"OVC","base":200}],"obsTime":1783249200},"SBDN":{"icaoId":"SBDN","flightCategory":"IFR","rawOb":"METAR SBDN 051100Z 11007KT 4000 1000E BR SCT002 15/15 Q1020","temp":15,"dewp":15,"wdir":110,"wspd":7,"visib":2.49,"altim":1020,"clouds":[{"cover":"SCT","base":200}],"obsTime":1783249200},"SBIP":{"icaoId":"SBIP","flightCategory":"LIFR","rawOb":"METAR SBIP 051100Z AUTO VRB01KT 5000 BR SCT001 OVC004 16/16 Q1022","temp":16,"dewp":16,"wdir":"VRB","wspd":1,"visib":3.11,"altim":1022,"clouds":[{"cover":"SCT","base":100},{"cover":"OVC","base":400}],"obsTime":1783249200},"SBSC":{"icaoId":"SBSC","flightCategory":"MVFR","rawOb":"METAR SBSC 051100Z 22005KT 9999 SCT015 BKN022 BKN032 19/17 Q1022","temp":19,"dewp":17,"wdir":220,"wspd":5,"visib":"6+","altim":1022,"clouds":[{"cover":"SCT","base":1500},{"cover":"BKN","base":2200},{"cover":"BKN","base":3200}],"obsTime":1783249200},"SBJP":{"icaoId":"SBJP","flightCategory":"VFR","rawOb":"METAR SBJP 051100Z 18010KT 9999 SCT020 BKN070 24/23 Q1017","temp":24,"dewp":23,"wdir":180,"wspd":10,"visib":"6+","altim":1017,"clouds":[{"cover":"SCT","base":2000},{"cover":"BKN","base":7000}],"obsTime":1783249200},"SBGW":{"icaoId":"SBGW","flightCategory":"IFR","rawOb":"METAR SBGW 051100Z 25004KT 3000 HZ BKN005 OVC013 16/12 Q1023","temp":16,"dewp":12,"wdir":250,"wspd":4,"visib":1.86,"altim":1023,"clouds":[{"cover":"BKN","base":500},{"cover":"OVC","base":1300}],"obsTime":1783249200},"SBJR":{"icaoId":"SBJR","flightCategory":"MVFR","rawOb":"METAR SBJR 051100Z 28002KT 7000 -RA BKN010 OVC035 19/18 Q1022","temp":19,"dewp":18,"wdir":280,"wspd":2,"visib":4.35,"altim":1022,"clouds":[{"cover":"BKN","base":1000},{"cover":"OVC","base":3500}],"obsTime":1783249200},"SBLS":{"icaoId":"SBLS","flightCategory":"VFR","rawOb":"METAR SBLS 051100Z 16006KT CAVOK 18/14 Q1022","temp":18,"dewp":14,"wdir":160,"wspd":6,"visib":"6+","altim":1022,"clouds":[],"obsTime":1783249200},"SBMT":{"icaoId":"SBMT","flightCategory":"MVFR","rawOb":"METAR SBMT 051100Z 09006KT 9999 BKN012 13/09 Q1024","temp":13,"dewp":9,"wdir":90,"wspd":6,"visib":"6+","altim":1024,"clouds":[{"cover":"BKN","base":1200}],"obsTime":1783249200},"SBST":{"icaoId":"SBST","flightCategory":"LIFR","rawOb":"METAR SBST 051100Z 03004KT 0800 -DZ FG BKN004 BKN008 OVC012 15/15 Q1023","temp":15,"dewp":15,"wdir":30,"wspd":4,"visib":0.5,"altim":1023,"clouds":[{"cover":"BKN","base":400},{"cover":"BKN","base":800},{"cover":"OVC","base":1200}],"obsTime":1783249200},"SBTA":{"icaoId":"SBTA","flightCategory":"LIFR","rawOb":"METAR SBTA 051100Z 24003KT 2000 BR OVC004 15/14 Q1023","temp":15,"dewp":14,"wdir":240,"wspd":3,"visib":1.24,"altim":1023,"clouds":[{"cover":"OVC","base":400}],"obsTime":1783249200},"SBIH":{"icaoId":"SBIH","flightCategory":"MVFR","rawOb":"METAR SBIH 051100Z 00000KT 8000 NSC 24/23 Q1013","temp":24,"dewp":23,"wdir":0,"wspd":0,"visib":4.97,"altim":1013,"clouds":[],"obsTime":1783249200},"SBLE":{"icaoId":"SBLE","flightCategory":"VFR","rawOb":"METAR SBLE 051100Z AUTO 29003KT 260V320 9999 SCT020 OVC032 ///// Q1021","temp":null,"dewp":null,"wdir":290,"wspd":3,"visib":"6+","altim":1021,"clouds":[{"cover":"SCT","base":2000},{"cover":"OVC","base":3200}],"obsTime":1783249200},"SBAN":{"icaoId":"SBAN","flightCategory":"VFR","rawOb":"METAR SBAN 051100Z 09004KT CAVOK 19/11 Q1023","temp":19,"dewp":11,"wdir":90,"wspd":4,"visib":"6+","altim":1023,"clouds":[],"obsTime":1783249200},"SBJV":{"icaoId":"SBJV","flightCategory":"MVFR","rawOb":"METAR SBJV 051100Z 22001KT 9999 FEW010 BKN020 14/13 Q1023","temp":14,"dewp":13,"wdir":220,"wspd":1,"visib":"6+","altim":1023,"clouds":[{"cover":"FEW","base":1000},{"cover":"BKN","base":2000}],"obsTime":1783249200},"SBNM":{"icaoId":"SBNM","flightCategory":"VFR","rawOb":"METAR SBNM 051100Z AUTO 10006KT CAVOK 08/07 Q1020","temp":8,"dewp":7,"wdir":100,"wspd":6,"visib":"6+","altim":1020,"clouds":[],"obsTime":1783249200},"SBAF":{"icaoId":"SBAF","flightCategory":"VFR","rawOb":"METAR SBAF 051100Z 00000KT 9999 SCT012 OVC033 19/19 Q1022","temp":19,"dewp":19,"wdir":0,"wspd":0,"visib":"6+","altim":1022,"clouds":[{"cover":"SCT","base":1200},{"cover":"OVC","base":3300}],"obsTime":1783249200},"SBPF":{"icaoId":"SBPF","flightCategory":"VFR","rawOb":"METAR SBPF 051100Z 07003KT CAVOK 08/06 Q1021","temp":8,"dewp":6,"wdir":70,"wspd":3,"visib":"6+","altim":1021,"clouds":[],"obsTime":1783249200}}}