{"updated":1776478320,"count":61,"data":{"SBSP":{"icaoId":"SBSP","flightCategory":"VFR","rawOb":"METAR SBSP 180100Z 06002KT CAVOK 24/17 Q1014","temp":24,"dewp":17,"wdir":60,"wspd":2,"visib":"6+","altim":1014,"clouds":[],"obsTime":1776474000},"SBBE":{"icaoId":"SBBE","flightCategory":"VFR","rawOb":"METAR SBBE 180100Z 15003KT CAVOK 24/23 Q1009","temp":24,"dewp":23,"wdir":150,"wspd":3,"visib":"6+","altim":1009,"clouds":[],"obsTime":1776474000},"SBBR":{"icaoId":"SBBR","flightCategory":"VFR","rawOb":"METAR SBBR 180100Z 07004KT 9999 SCT040 SCT100 23/19 Q1016","temp":23,"dewp":19,"wdir":70,"wspd":4,"visib":"6+","altim":1016,"clouds":[{"cover":"SCT","base":4000},{"cover":"SCT","base":10000}],"obsTime":1776474000},"SBBV":{"icaoId":"SBBV","flightCategory":"VFR","rawOb":"METAR SBBV 180100Z 14005KT 9999 FEW030 FEW035TCU SCT100 29/23 Q1008","temp":29,"dewp":23,"wdir":140,"wspd":5,"visib":"6+","altim":1008,"clouds":[{"cover":"FEW","base":3000},{"cover":"FEW","base":3500},{"cover":"SCT","base":10000}],"obsTime":1776474000},"SBCF":{"icaoId":"SBCF","flightCategory":"VFR","rawOb":"METAR SBCF 180100Z 00000KT CAVOK 19/16 Q1015","temp":19,"dewp":16,"wdir":0,"wspd":0,"visib":"6+","altim":1015,"clouds":[],"obsTime":1776474000},"SBCG":{"icaoId":"SBCG","flightCategory":"VFR","rawOb":"METAR SBCG 180100Z 01002KT CAVOK 24/22 Q1012","temp":24,"dewp":22,"wdir":10,"wspd":2,"visib":"6+","altim":1012,"clouds":[],"obsTime":1776474000},"SBCT":{"icaoId":"SBCT","flightCategory":"VFR","rawOb":"METAR SBCT 180100Z 20002KT CAVOK 21/18 Q1013","temp":21,"dewp":18,"wdir":200,"wspd":2,"visib":"6+","altim":1013,"clouds":[],"obsTime":1776474000},"SBEG":{"icaoId":"SBEG","flightCategory":"VFR","rawOb":"METAR SBEG 180100Z 00000KT 9999 FEW004 BKN100 24/24 Q1008","temp":24,"dewp":24,"wdir":0,"wspd":0,"visib":"6+","altim":1008,"clouds":[{"cover":"FEW","base":400},{"cover":"BKN","base":10000}],"obsTime":1776474000},"SBFI":{"icaoId":"SBFI","flightCategory":"VFR","rawOb":"METAR SBFI 180100Z 16005KT CAVOK 21/20 Q1010","temp":21,"dewp":20,"wdir":160,"wspd":5,"visib":"6+","altim":1010,"clouds":[],"obsTime":1776474000},"SBFL":{"icaoId":"SBFL","flightCategory":"VFR","rawOb":"METAR SBFL 180100Z 24004KT CAVOK 23/22 Q1008","temp":23,"dewp":22,"wdir":240,"wspd":4,"visib":"6+","altim":1008,"clouds":[],"obsTime":1776474000},"SBFZ":{"icaoId":"SBFZ","flightCategory":"VFR","rawOb":"METAR SBFZ 180100Z 15005KT 9999 FEW018 28/25 Q1007","temp":28,"dewp":25,"wdir":150,"wspd":5,"visib":"6+","altim":1007,"clouds":[{"cover":"FEW","base":1800}],"obsTime":1776474000},"SBGL":{"icaoId":"SBGL","flightCategory":"VFR","rawOb":"METAR SBGL 180100Z 11003KT CAVOK 24/21 Q1009","temp":24,"dewp":21,"wdir":110,"wspd":3,"visib":"6+","altim":1009,"clouds":[],"obsTime":1776474000},"SBGO":{"icaoId":"SBGO","flightCategory":"VFR","rawOb":"METAR SBGO 180100Z 23002KT CAVOK 23/20 Q1014","temp":23,"dewp":20,"wdir":230,"wspd":2,"visib":"6+","altim":1014,"clouds":[],"obsTime":1776474000},"SBGR":{"icaoId":"SBGR","flightCategory":"VFR","rawOb":"METAR SBGR 180100Z 08003KT CAVOK 21/17 Q1013","temp":21,"dewp":17,"wdir":80,"wspd":3,"visib":"6+","altim":1013,"clouds":[],"obsTime":1776474000},"SBJU":{"icaoId":"SBJU","flightCategory":"VFR","rawOb":"METAR SBJU 180100Z 00000KT 9999 SCT020 26/21 Q1011","temp":26,"dewp":21,"wdir":0,"wspd":0,"visib":"6+","altim":1011,"clouds":[{"cover":"SCT","base":2000}],"obsTime":1776474000},"SBKP":{"icaoId":"SBKP","flightCategory":"VFR","rawOb":"METAR SBKP 180100Z 11006KT CAVOK 23/16 Q1012","temp":23,"dewp":16,"wdir":110,"wspd":6,"visib":"6+","altim":1012,"clouds":[],"obsTime":1776474000},"SBLO":{"icaoId":"SBLO","flightCategory":"VFR","rawOb":"METAR SBLO 180100Z 24003KT 9999 SCT022 25/20 Q1011","temp":25,"dewp":20,"wdir":240,"wspd":3,"visib":"6+","altim":1011,"clouds":[{"cover":"SCT","base":2200}],"obsTime":1776474000},"SBMA":{"icaoId":"SBMA","flightCategory":"VFR","rawOb":"METAR SBMA 180100Z 04004KT 9999 FEW015 28/25 Q1009","temp":28,"dewp":25,"wdir":40,"wspd":4,"visib":"6+","altim":1009,"clouds":[{"cover":"FEW","base":1500}],"obsTime":1776474000},"SBME":{"icaoId":"SBME","flightCategory":"VFR","rawOb":"METAR SBME 180100Z 05004KT CAVOK 25/21 Q1010","temp":25,"dewp":21,"wdir":50,"wspd":4,"visib":"6+","altim":1010,"clouds":[],"obsTime":1776474000},"SBMG":{"icaoId":"SBMG","flightCategory":"VFR","rawOb":"METAR SBMG 180100Z 19004KT CAVOK 24/21 Q1011","temp":24,"dewp":21,"wdir":190,"wspd":4,"visib":"6+","altim":1011,"clouds":[],"obsTime":1776474000},"SBMK":{"icaoId":"SBMK","flightCategory":"VFR","rawOb":"METAR SBMK 180100Z 28002KT CAVOK 20/18 Q1013","temp":20,"dewp":18,"wdir":280,"wspd":2,"visib":"6+","altim":1013,"clouds":[],"obsTime":1776474000},"SBMO":{"icaoId":"SBMO","flightCategory":"MVFR","rawOb":"METAR SBMO 180100Z 11001KT 9999 BKN015 25/25 Q1011","temp":25,"dewp":25,"wdir":110,"wspd":1,"visib":"6+","altim":1011,"clouds":[{"cover":"BKN","base":1500}],"obsTime":1776474000},"SBMQ":{"icaoId":"SBMQ","flightCategory":"VFR","rawOb":"METAR SBMQ 180100Z 34002KT 9999 FEW045 26/25 Q1009","temp":26,"dewp":25,"wdir":340,"wspd":2,"visib":"6+","altim":1009,"clouds":[{"cover":"FEW","base":4500}],"obsTime":1776474000},"SBNT":{"icaoId":"SBNT","flightCategory":"VFR","rawOb":"METAR SBNT 180100Z 14005KT 9999 FEW018 26/24 Q1009","temp":26,"dewp":24,"wdir":140,"wspd":5,"visib":"6+","altim":1009,"clouds":[{"cover":"FEW","base":1800}],"obsTime":1776474000},"SBPA":{"icaoId":"SBPA","flightCategory":"VFR","rawOb":"METAR SBPA 180100Z 27006KT 240V300 9999 BKN045 23/18 Q1008","temp":23,"dewp":18,"wdir":270,"wspd":6,"visib":"6+","altim":1008,"clouds":[{"cover":"BKN","base":4500}],"obsTime":1776474000},"SBPJ":{"icaoId":"SBPJ","flightCategory":"VFR","rawOb":"METAR SBPJ 180100Z 14003KT 9999 VCTS FEW025 FEW035CB 26/25 Q1010","temp":26,"dewp":25,"wdir":140,"wspd":3,"visib":"6+","altim":1010,"clouds":[{"cover":"FEW","base":2500},{"cover":"FEW","base":3500}],"obsTime":1776474000},"SBPV":{"icaoId":"SBPV","flightCategory":"LIFR","rawOb":"METAR SBPV 180100Z 35008KT 1500 RA SCT005 SCT035 FEW040TCU 25/23 Q1009","temp":25,"dewp":23,"wdir":350,"wspd":8,"visib":0.93,"altim":1009,"clouds":[{"cover":"SCT","base":500},{"cover":"SCT","base":3500},{"cover":"FEW","base":4000}],"obsTime":1776474000},"SBRB":{"icaoId":"SBRB","flightCategory":"VFR","rawOb":"METAR SBRB 180100Z 36002KT 9999 SCT035 25/24 Q1008","temp":25,"dewp":24,"wdir":360,"wspd":2,"visib":"6+","altim":1008,"clouds":[{"cover":"SCT","base":3500}],"obsTime":1776474000},"SBRF":{"icaoId":"SBRF","flightCategory":"VFR","rawOb":"METAR SBRF 180100Z 14011KT 9999 VCSH SCT020 28/24 Q1010","temp":28,"dewp":24,"wdir":140,"wspd":11,"visib":"6+","altim":1010,"clouds":[{"cover":"SCT","base":2000}],"obsTime":1776474000},"SBSG":{"icaoId":"SBSG","flightCategory":"VFR","rawOb":"METAR SBSG 180100Z 13004KT 9999 FEW015 SCT030 25/25 Q1009","temp":25,"dewp":25,"wdir":130,"wspd":4,"visib":"6+","altim":1009,"clouds":[{"cover":"FEW","base":1500},{"cover":"SCT","base":3000}],"obsTime":1776474000},"SBSL":{"icaoId":"SBSL","flightCategory":"VFR","rawOb":"METAR SBSL 180100Z 05002KT 9999 FEW020 BKN100 26/25 Q1008","temp":26,"dewp":25,"wdir":50,"wspd":2,"visib":"6+","altim":1008,"clouds":[{"cover":"FEW","base":2000},{"cover":"BKN","base":10000}],"obsTime":1776474000},"SBSN":{"icaoId":"SBSN","flightCategory":"VFR","rawOb":"METAR SBSN 180100Z 13004KT CAVOK 26/25 Q1008","temp":26,"dewp":25,"wdir":130,"wspd":4,"visib":"6+","altim":1008,"clouds":[],"obsTime":1776474000},"SBSV":{"icaoId":"SBSV","flightCategory":"VFR","rawOb":"METAR SBSV 180100Z 10008KT 9999 SCT022 28/22 Q1010","temp":28,"dewp":22,"wdir":100,"wspd":8,"visib":"6+","altim":1010,"clouds":[{"cover":"SCT","base":2200}],"obsTime":1776474000},"SBTE":{"icaoId":"SBTE","flightCategory":"IFR","rawOb":"METAR SBTE 180100Z 13006KT 4000 TSRA BKN025 FEW030CB 27/24 Q1008","temp":27,"dewp":24,"wdir":130,"wspd":6,"visib":2.49,"altim":1008,"clouds":[{"cover":"BKN","base":2500},{"cover":"FEW","base":3000}],"obsTime":1776474000},"SBUL":{"icaoId":"SBUL","flightCategory":"VFR","rawOb":"METAR SBUL 180100Z 12002KT CAVOK 23/15 Q1015","temp":23,"dewp":15,"wdir":120,"wspd":2,"visib":"6+","altim":1015,"clouds":[],"obsTime":1776474000},"SBUR":{"icaoId":"SBUR","flightCategory":"VFR","rawOb":"METAR SBUR 180100Z 09003KT CAVOK 24/16 Q1014","temp":24,"dewp":16,"wdir":90,"wspd":3,"visib":"6+","altim":1014,"clouds":[],"obsTime":1776474000},"SBVT":{"icaoId":"SBVT","flightCategory":"VFR","rawOb":"METAR SBVT 180100Z 35003KT 9999 FEW025 23/22 Q1010","temp":23,"dewp":22,"wdir":350,"wspd":3,"visib":"6+","altim":1010,"clouds":[{"cover":"FEW","base":2500}],"obsTime":1776474000},"SBIL":{"icaoId":"SBIL","flightCategory":"VFR","rawOb":"METAR SBIL 180100Z VRB04KT 9999 FEW020 27/24 Q1011","temp":27,"dewp":24,"wdir":"VRB","wspd":4,"visib":"6+","altim":1011,"clouds":[{"cover":"FEW","base":2000}],"obsTime":1776474000},"SBIP":{"icaoId":"SBIP","flightCategory":"VFR","rawOb":"METAR SBIP 180100Z AUTO 00000KT 9999 FEW005 18/18 Q1012","temp":18,"dewp":18,"wdir":0,"wspd":0,"visib":"6+","altim":1012,"clouds":[{"cover":"FEW","base":500}],"obsTime":1776474000},"SBOI":{"icaoId":"SBOI","flightCategory":"VFR","rawOb":"METAR SBOI 180100Z AUTO 00000KT CAVOK 25/24 Q1009","temp":25,"dewp":24,"wdir":0,"wspd":0,"visib":"6+","altim":1009,"clouds":[],"obsTime":1776474000},"SBBH":{"icaoId":"SBBH","flightCategory":"VFR","rawOb":"METAR SBBH 180100Z 00000KT CAVOK 19/17 Q1015","temp":19,"dewp":17,"wdir":0,"wspd":0,"visib":"6+","altim":1015,"clouds":[],"obsTime":1776474000},"SBPL":{"icaoId":"SBPL","flightCategory":"VFR","rawOb":"METAR SBPL 180100Z 12006KT CAVOK 28/18 Q1010","temp":28,"dewp":18,"wdir":120,"wspd":6,"visib":"6+","altim":1010,"clouds":[],"obsTime":1776474000},"SBCO":{"icaoId":"SBCO","flightCategory":"VFR","rawOb":"METAR SBCO 180100Z 30005KT 9999 BKN049 23/17 Q1008","temp":23,"dewp":17,"wdir":300,"wspd":5,"visib":"6+","altim":1008,"clouds":[{"cover":"BKN","base":4900}],"obsTime":1776474000},"SBPS":{"icaoId":"SBPS","flightCategory":"VFR","rawOb":"METAR SBPS 180100Z 09006KT 9999 FEW018 26/23 Q1010","temp":26,"dewp":23,"wdir":90,"wspd":6,"visib":"6+","altim":1010,"clouds":[{"cover":"FEW","base":1800}],"obsTime":1776474000},"SBAX":{"icaoId":"SBAX","flightCategory":"VFR","rawOb":"METAR SBAX 180100Z AUTO 20003KT CAVOK 23/13 Q1016","temp":23,"dewp":13,"wdir":200,"wspd":3,"visib":"6+","altim":1016,"clouds":[],"obsTime":1776474000},"SBDN":{"icaoId":"SBDN","flightCategory":"VFR","rawOb":"METAR SBDN 180100Z 00000KT CAVOK 25/19 Q1011","temp":25,"dewp":19,"wdir":0,"wspd":0,"visib":"6+","altim":1011,"clouds":[],"obsTime":1776474000},"SBSC":{"icaoId":"SBSC","flightCategory":"VFR","rawOb":"METAR SBSC 180100Z COR 25004KT CAVOK 21/20 Q1009","temp":21,"dewp":20,"wdir":250,"wspd":4,"visib":"6+","altim":1009,"clouds":[],"obsTime":1776474000},"SBSJ":{"icaoId":"SBSJ","flightCategory":"VFR","rawOb":"METAR SBSJ 180100Z VRB01KT CAVOK 20/16 Q1013","temp":20,"dewp":16,"wdir":"VRB","wspd":1,"visib":"6+","altim":1013,"clouds":[],"obsTime":1776474000},"SBBU":{"icaoId":"SBBU","flightCategory":"VFR","rawOb":"METAR SBBU 180100Z 36003KT CAVOK 28/19 Q1011","temp":28,"dewp":19,"wdir":360,"wspd":3,"visib":"6+","altim":1011,"clouds":[],"obsTime":1776474000},"SBSM":{"icaoId":"SBSM","flightCategory":"VFR","rawOb":"METAR SBSM 180100Z 31002KT CAVOK 19/17 Q1010","temp":19,"dewp":17,"wdir":310,"wspd":2,"visib":"6+","altim":1010,"clouds":[],"obsTime":1776474000},"SBSR":{"icaoId":"SBSR","flightCategory":"VFR","rawOb":"METAR SBSR 180100Z 00000KT CAVOK 25/17 Q1012","temp":25,"dewp":17,"wdir":0,"wspd":0,"visib":"6+","altim":1012,"clouds":[],"obsTime":1776474000},"SBAR":{"icaoId":"SBAR","flightCategory":"VFR","rawOb":"METAR SBAR 180100Z 11007KT 080V140 9999 FEW023 28/23 Q1010","temp":28,"dewp":23,"wdir":110,"wspd":7,"visib":"6+","altim":1010,"clouds":[{"cover":"FEW","base":2300}],"obsTime":1776474000},"SBKG":{"icaoId":"SBKG","flightCategory":"VFR","rawOb":"METAR SBKG 180100Z 09008KT 9999 FEW015 23/22 Q1012","temp":23,"dewp":22,"wdir":90,"wspd":8,"visib":"6+","altim":1012,"clouds":[{"cover":"FEW","base":1500}],"obsTime":1776474000},"SBTF":{"icaoId":"SBTF","flightCategory":"VFR","rawOb":"SPECI SBTF 180045Z 00000KT 9999 FEW013 SCT030 25/25 Q1009","temp":25,"dewp":25,"wdir":0,"wspd":0,"visib":"6+","altim":1009,"clouds":[{"cover":"FEW","base":1300},{"cover":"SCT","base":3000}],"obsTime":1776473100},"SBJP":{"icaoId":"SBJP","flightCategory":"VFR","rawOb":"METAR SBJP 180100Z 12004KT CAVOK 26/24 Q1010","temp":26,"dewp":24,"wdir":120,"wspd":4,"visib":"6+","altim":1010,"clouds":[],"obsTime":1776474000},"SBJV":{"icaoId":"SBJV","flightCategory":"VFR","rawOb":"METAR SBJV 180100Z 35001KT 9999 FEW015 SCT100 23/23 Q1008","temp":23,"dewp":23,"wdir":350,"wspd":1,"visib":"6+","altim":1008,"clouds":[{"cover":"FEW","base":1500},{"cover":"SCT","base":10000}],"obsTime":1776474000},"SBLE":{"icaoId":"SBLE","flightCategory":"VFR","rawOb":"METAR SBLE 180100Z AUTO VRB01KT CAVOK ///// Q////","temp":null,"dewp":null,"wdir":"VRB","wspd":1,"visib":"6+","altim":null,"clouds":[],"obsTime":1776474000},"SBAN":{"icaoId":"SBAN","flightCategory":"VFR","rawOb":"METAR SBAN 180100Z 01002KT 9999 FEW035 SCT100 20/17 Q1016","temp":20,"dewp":17,"wdir":10,"wspd":2,"visib":"6+","altim":1016,"clouds":[{"cover":"FEW","base":3500},{"cover":"SCT","base":10000}],"obsTime":1776474000},"SBMT":{"icaoId":"SBMT","flightCategory":"VFR","rawOb":"METAR SBMT 180100Z 14002KT CAVOK 22/17 Q1013","temp":22,"dewp":17,"wdir":140,"wspd":2,"visib":"6+","altim":1013,"clouds":[],"obsTime":1776474000},"SBTA":{"icaoId":"SBTA","flightCategory":"VFR","rawOb":"METAR SBTA 180100Z 00000KT CAVOK 18/18 Q1012","temp":18,"dewp":18,"wdir":0,"wspd":0,"visib":"6+","altim":1012,"clouds":[],"obsTime":1776474000},"SBLS":{"icaoId":"SBLS","flightCategory":"VFR","rawOb":"METAR SBLS 180100Z 12001KT CAVOK 20/15 Q1014","temp":20,"dewp":15,"wdir":120,"wspd":1,"visib":"6+","altim":1014,"clouds":[],"obsTime":1776474000}}}