{"updated":1775980039,"count":49,"data":{"SBEG":{"icaoId":"SBEG","flightCategory":"VFR","rawOb":"METAR SBEG 120600Z 11003KT 9999 VCSH FEW008 SCT020 FEW025TCU BKN070 26/25 Q1011","temp":26,"dewp":25,"wdir":110,"wspd":3,"visib":"6+","altim":1011,"clouds":[{"cover":"FEW","base":800},{"cover":"SCT","base":2000},{"cover":"FEW","base":2500},{"cover":"BKN","base":7000}],"obsTime":1775973600},"SBMG":{"icaoId":"SBMG","flightCategory":"VFR","rawOb":"METAR SBMG 120600Z AUTO 10012KT CAVOK 20/14 Q1017","temp":20,"dewp":14,"wdir":100,"wspd":12,"visib":"6+","altim":1017,"clouds":[],"obsTime":1775973600},"SBFL":{"icaoId":"SBFL","flightCategory":"MVFR","rawOb":"METAR SBFL 120600Z 29004KT 260V320 8000 -RA SCT010 OVC030 21/20 Q1020","temp":21,"dewp":20,"wdir":290,"wspd":4,"visib":4.97,"altim":1020,"clouds":[{"cover":"SCT","base":1000},{"cover":"OVC","base":3000}],"obsTime":1775973600},"SBMO":{"icaoId":"SBMO","flightCategory":"VFR","rawOb":"METAR SBMO 120600Z 35003KT 9000 FEW010 OVC070 23/23 Q1013","temp":23,"dewp":23,"wdir":350,"wspd":3,"visib":5.59,"altim":1013,"clouds":[{"cover":"FEW","base":1000},{"cover":"OVC","base":7000}],"obsTime":1775973600},"SBCG":{"icaoId":"SBCG","flightCategory":"VFR","rawOb":"METAR SBCG 120600Z 09010KT CAVOK 24/20 Q1016","temp":24,"dewp":20,"wdir":90,"wspd":10,"visib":"6+","altim":1016,"clouds":[],"obsTime":1775973600},"SBMQ":{"icaoId":"SBMQ","flightCategory":"VFR","rawOb":"METAR SBMQ 120600Z 30002KT 9999 FEW004 BKN035 24/24 Q1011","temp":24,"dewp":24,"wdir":300,"wspd":2,"visib":"6+","altim":1011,"clouds":[{"cover":"FEW","base":400},{"cover":"BKN","base":3500}],"obsTime":1775973600},"SBFZ":{"icaoId":"SBFZ","flightCategory":"MVFR","rawOb":"METAR SBFZ 120600Z VRB02KT 8000 -RA SCT015 FEW025TCU 25/24 Q1011 RESHRA","temp":25,"dewp":24,"wdir":"VRB","wspd":2,"visib":4.97,"altim":1011,"clouds":[{"cover":"SCT","base":1500},{"cover":"FEW","base":2500}],"obsTime":1775973600},"SBNT":{"icaoId":"SBNT","flightCategory":"VFR","rawOb":"METAR SBNT 120600Z 21005KT CAVOK 25/24 Q1011","temp":25,"dewp":24,"wdir":210,"wspd":5,"visib":"6+","altim":1011,"clouds":[],"obsTime":1775973600},"SBCT":{"icaoId":"SBCT","flightCategory":"MVFR","rawOb":"METAR SBCT 120600Z 06005KT 9999 BKN014 16/14 Q1023","temp":16,"dewp":14,"wdir":60,"wspd":5,"visib":"6+","altim":1023,"clouds":[{"cover":"BKN","base":1400}],"obsTime":1775973600},"SBPA":{"icaoId":"SBPA","flightCategory":"VFR","rawOb":"METAR SBPA 120600Z VRB01KT 9999 SCT030 FEW035TCU BKN090 21/17 Q1018","temp":21,"dewp":17,"wdir":"VRB","wspd":1,"visib":"6+","altim":1018,"clouds":[{"cover":"SCT","base":3000},{"cover":"FEW","base":3500},{"cover":"BKN","base":9000}],"obsTime":1775973600},"SBPJ":{"icaoId":"SBPJ","flightCategory":"VFR","rawOb":"METAR SBPJ 120600Z 17006KT 9999 FEW008 SCT011 25/24 Q1013","temp":25,"dewp":24,"wdir":170,"wspd":6,"visib":"6+","altim":1013,"clouds":[{"cover":"FEW","base":800},{"cover":"SCT","base":1100}],"obsTime":1775973600},"SBGL":{"icaoId":"SBGL","flightCategory":"VFR","rawOb":"METAR SBGL 120600Z COR 28002KT 9999 FEW035 21/20 Q1019","temp":21,"dewp":20,"wdir":280,"wspd":2,"visib":"6+","altim":1019,"clouds":[{"cover":"FEW","base":3500}],"obsTime":1775973600},"SBGO":{"icaoId":"SBGO","flightCategory":"VFR","rawOb":"METAR SBGO 120600Z 14006KT CAVOK 22/20 Q1018","temp":22,"dewp":20,"wdir":140,"wspd":6,"visib":"6+","altim":1018,"clouds":[],"obsTime":1775973600},"SBPV":{"icaoId":"SBPV","flightCategory":"VFR","rawOb":"METAR SBPV 120600Z 03005KT CAVOK 26/23 Q1010","temp":26,"dewp":23,"wdir":30,"wspd":5,"visib":"6+","altim":1010,"clouds":[],"obsTime":1775973600},"SBBV":{"icaoId":"SBBV","flightCategory":"VFR","rawOb":"METAR SBBV 120600Z 09006KT CAVOK 27/21 Q1011","temp":27,"dewp":21,"wdir":90,"wspd":6,"visib":"6+","altim":1011,"clouds":[],"obsTime":1775973600},"SBRB":{"icaoId":"SBRB","flightCategory":"IFR","rawOb":"METAR SBRB 120600Z 36001KT 2500 BR FEW030 24/23 Q1012","temp":24,"dewp":23,"wdir":360,"wspd":1,"visib":1.55,"altim":1012,"clouds":[{"cover":"FEW","base":3000}],"obsTime":1775973600},"SBRF":{"icaoId":"SBRF","flightCategory":"MVFR","rawOb":"METAR SBRF 120600Z 20007KT 6000 -RA FEW006 BKN010 BKN017 FEW023TCU 25/24 Q1012 RERA","temp":25,"dewp":24,"wdir":200,"wspd":7,"visib":3.73,"altim":1012,"clouds":[{"cover":"FEW","base":600},{"cover":"BKN","base":1000},{"cover":"BKN","base":1700},{"cover":"FEW","base":2300}],"obsTime":1775973600},"SBGR":{"icaoId":"SBGR","flightCategory":"VFR","rawOb":"METAR SBGR 120600Z 07005KT CAVOK 15/14 Q1022","temp":15,"dewp":14,"wdir":70,"wspd":5,"visib":"6+","altim":1022,"clouds":[],"obsTime":1775973600},"SBSG":{"icaoId":"SBSG","flightCategory":"IFR","rawOb":"METAR SBSG 120600Z 22003KT 190V250 9999 FEW004 BKN007 FEW025TCU BKN080 24/24 Q1012","temp":24,"dewp":24,"wdir":220,"wspd":3,"visib":"6+","altim":1012,"clouds":[{"cover":"FEW","base":400},{"cover":"BKN","base":700},{"cover":"FEW","base":2500},{"cover":"BKN","base":8000}],"obsTime":1775973600},"SBSL":{"icaoId":"SBSL","flightCategory":"VFR","rawOb":"METAR SBSL 120600Z 10006KT CAVOK 25/24 Q1011","temp":25,"dewp":24,"wdir":100,"wspd":6,"visib":"6+","altim":1011,"clouds":[],"obsTime":1775973600},"SBJU":{"icaoId":"SBJU","flightCategory":"VFR","rawOb":"METAR SBJU 120600Z 00000KT CAVOK 23/20 Q1014","temp":23,"dewp":20,"wdir":0,"wspd":0,"visib":"6+","altim":1014,"clouds":[],"obsTime":1775973600},"SBSN":{"icaoId":"SBSN","flightCategory":"VFR","rawOb":"METAR SBSN 120600Z 08009KT 9999 FEW020 SCT080 27/24 Q1010","temp":27,"dewp":24,"wdir":80,"wspd":9,"visib":"6+","altim":1010,"clouds":[{"cover":"FEW","base":2000},{"cover":"SCT","base":8000}],"obsTime":1775973600},"SBSP":{"icaoId":"SBSP","flightCategory":"VFR","rawOb":"METAR SBSP 120600Z AUTO 11005KT 090V160 CAVOK 17/14 Q1023","temp":17,"dewp":14,"wdir":110,"wspd":5,"visib":"6+","altim":1023,"clouds":[],"obsTime":1775973600},"SBME":{"icaoId":"SBME","flightCategory":"VFR","rawOb":"METAR SBME 120600Z 32004KT 9999 FEW027 SCT100 21/20 Q1019","temp":21,"dewp":20,"wdir":320,"wspd":4,"visib":"6+","altim":1019,"clouds":[{"cover":"FEW","base":2700},{"cover":"SCT","base":10000}],"obsTime":1775973600},"SBBE":{"icaoId":"SBBE","flightCategory":"MVFR","rawOb":"METAR SBBE 120600Z 11004KT 9999 SCT015 BKN020 25/24 Q1011","temp":25,"dewp":24,"wdir":110,"wspd":4,"visib":"6+","altim":1011,"clouds":[{"cover":"SCT","base":1500},{"cover":"BKN","base":2000}],"obsTime":1775973600},"SBKP":{"icaoId":"SBKP","flightCategory":"VFR","rawOb":"METAR SBKP 120600Z 12010KT CAVOK 18/14 Q1020","temp":18,"dewp":14,"wdir":120,"wspd":10,"visib":"6+","altim":1020,"clouds":[],"obsTime":1775973600},"SBSV":{"icaoId":"SBSV","flightCategory":"MVFR","rawOb":"METAR SBSV 120600Z 13009KT 100V180 9999 BKN024 27/23 Q1013","temp":27,"dewp":23,"wdir":130,"wspd":9,"visib":"6+","altim":1013,"clouds":[{"cover":"BKN","base":2400}],"obsTime":1775973600},"SBBR":{"icaoId":"SBBR","flightCategory":"VFR","rawOb":"METAR SBBR 120600Z 12008KT CAVOK 20/19 Q1019","temp":20,"dewp":19,"wdir":120,"wspd":8,"visib":"6+","altim":1019,"clouds":[],"obsTime":1775973600},"SBTE":{"icaoId":"SBTE","flightCategory":"VFR","rawOb":"METAR SBTE 120600Z 00000KT 9999 FEW015 BKN090 25/24 Q1011","temp":25,"dewp":24,"wdir":0,"wspd":0,"visib":"6+","altim":1011,"clouds":[{"cover":"FEW","base":1500},{"cover":"BKN","base":9000}],"obsTime":1775973600},"SBLO":{"icaoId":"SBLO","flightCategory":"VFR","rawOb":"METAR SBLO 120600Z 12007KT CAVOK 18/14 Q1020","temp":18,"dewp":14,"wdir":120,"wspd":7,"visib":"6+","altim":1020,"clouds":[],"obsTime":1775973600},"SBUL":{"icaoId":"SBUL","flightCategory":"VFR","rawOb":"METAR SBUL 120600Z 13007KT 080V160 CAVOK 20/18 Q1020","temp":20,"dewp":18,"wdir":130,"wspd":7,"visib":"6+","altim":1020,"clouds":[],"obsTime":1775973600},"SBCF":{"icaoId":"SBCF","flightCategory":"VFR","rawOb":"METAR SBCF 120600Z 14003KT CAVOK 18/16 Q1021","temp":18,"dewp":16,"wdir":140,"wspd":3,"visib":"6+","altim":1021,"clouds":[],"obsTime":1775973600},"SBUR":{"icaoId":"SBUR","flightCategory":"VFR","rawOb":"METAR SBUR 120600Z 06009KT CAVOK 22/18 Q1019","temp":22,"dewp":18,"wdir":60,"wspd":9,"visib":"6+","altim":1019,"clouds":[],"obsTime":1775973600},"SBVT":{"icaoId":"SBVT","flightCategory":"VFR","rawOb":"METAR SBVT 120600Z 22006KT 9999 FEW008 BKN035 BKN070 21/20 Q1018","temp":21,"dewp":20,"wdir":220,"wspd":6,"visib":"6+","altim":1018,"clouds":[{"cover":"FEW","base":800},{"cover":"BKN","base":3500},{"cover":"BKN","base":7000}],"obsTime":1775973600},"SBMA":{"icaoId":"SBMA","flightCategory":"VFR","rawOb":"METAR SBMA 120600Z 14002KT 9999 FEW012 SCT100 26/25 Q1011","temp":26,"dewp":25,"wdir":140,"wspd":2,"visib":"6+","altim":1011,"clouds":[{"cover":"FEW","base":1200},{"cover":"SCT","base":10000}],"obsTime":1775973600},"SBFI":{"icaoId":"SBFI","flightCategory":"VFR","rawOb":"METAR SBFI 120600Z 09002KT 9999 VCTS FEW030 FEW035CB BKN100 22/20 Q1014","temp":22,"dewp":20,"wdir":90,"wspd":2,"visib":"6+","altim":1014,"clouds":[{"cover":"FEW","base":3000},{"cover":"FEW","base":3500},{"cover":"BKN","base":10000}],"obsTime":1775973600},"SBSR":{"icaoId":"SBSR","flightCategory":"VFR","rawOb":"METAR SBSR 120600Z 12007KT 9999 SCT020 23/19 Q1017","temp":23,"dewp":19,"wdir":120,"wspd":7,"visib":"6+","altim":1017,"clouds":[{"cover":"SCT","base":2000}],"obsTime":1775973600},"SBAR":{"icaoId":"SBAR","flightCategory":"VFR","rawOb":"METAR SBAR 120600Z 08005KT 9999 FEW015 SCT025 26/23 Q1013","temp":26,"dewp":23,"wdir":80,"wspd":5,"visib":"6+","altim":1013,"clouds":[{"cover":"FEW","base":1500},{"cover":"SCT","base":2500}],"obsTime":1775973600},"SBAX":{"icaoId":"SBAX","flightCategory":"VFR","rawOb":"METAR SBAX 120600Z AUTO 10010KT CAVOK ///// Q1021","temp":null,"dewp":null,"wdir":100,"wspd":10,"visib":"6+","altim":1021,"clouds":[],"obsTime":1775973600},"SBDN":{"icaoId":"SBDN","flightCategory":"VFR","rawOb":"METAR SBDN 120600Z 11012KT CAVOK 20/15 Q1017","temp":20,"dewp":15,"wdir":110,"wspd":12,"visib":"6+","altim":1017,"clouds":[],"obsTime":1775973600},"SBIP":{"icaoId":"SBIP","flightCategory":"VFR","rawOb":"METAR SBIP 120600Z AUTO 00000KT 9999 BKN038 21/20 Q1019","temp":21,"dewp":20,"wdir":0,"wspd":0,"visib":"6+","altim":1019,"clouds":[{"cover":"BKN","base":3800}],"obsTime":1775973600},"SBKG":{"icaoId":"SBKG","flightCategory":"MVFR","rawOb":"METAR SBKG 120600Z 15004KT 9999 BKN010 22/22 Q1014","temp":22,"dewp":22,"wdir":150,"wspd":4,"visib":"6+","altim":1014,"clouds":[{"cover":"BKN","base":1000}],"obsTime":1775973600},"SBOI":{"icaoId":"SBOI","flightCategory":"VFR","rawOb":"METAR SBOI 120600Z AUTO 00000KT 9999 // FEW024/// BKN044/// OVC079/// 25/24 Q1012","temp":25,"dewp":24,"wdir":0,"wspd":0,"visib":"6+","altim":1012,"clouds":[{"cover":"FEW","base":2400},{"cover":"BKN","base":4400},{"cover":"OVC","base":7900}],"obsTime":1775973600},"SBPL":{"icaoId":"SBPL","flightCategory":"VFR","rawOb":"METAR SBPL 120600Z 13006KT 9999 SCT020 BKN070 25/22 Q1015","temp":25,"dewp":22,"wdir":130,"wspd":6,"visib":"6+","altim":1015,"clouds":[{"cover":"SCT","base":2000},{"cover":"BKN","base":7000}],"obsTime":1775973600},"SBPS":{"icaoId":"SBPS","flightCategory":"VFR","rawOb":"METAR SBPS 120600Z 26005KT 9999 SCT020 SCT050 23/22 Q1016","temp":23,"dewp":22,"wdir":260,"wspd":5,"visib":"6+","altim":1016,"clouds":[{"cover":"SCT","base":2000},{"cover":"SCT","base":5000}],"obsTime":1775973600},"SBSC":{"icaoId":"SBSC","flightCategory":"VFR","rawOb":"METAR SBSC 120600Z 19003KT CAVOK 20/18 Q1020","temp":20,"dewp":18,"wdir":190,"wspd":3,"visib":"6+","altim":1020,"clouds":[],"obsTime":1775973600},"SBJP":{"icaoId":"SBJP","flightCategory":"VFR","rawOb":"METAR SBJP 120600Z 18006KT CAVOK 25/25 Q1012","temp":25,"dewp":25,"wdir":180,"wspd":6,"visib":"6+","altim":1012,"clouds":[],"obsTime":1775973600},"SBLE":{"icaoId":"SBLE","flightCategory":"VFR","rawOb":"METAR SBLE 120600Z AUTO 02005KT CAVOK ///// Q////","temp":null,"dewp":null,"wdir":20,"wspd":5,"visib":"6+","altim":null,"clouds":[],"obsTime":1775973600},"SBAN":{"icaoId":"SBAN","flightCategory":"VFR","rawOb":"METAR SBAN 120600Z 13008KT CAVOK 19/18 Q1020","temp":19,"dewp":18,"wdir":130,"wspd":8,"visib":"6+","altim":1020,"clouds":[],"obsTime":1775973600}}}