{"updated":1776290814,"count":81,"data":{"SBLO":{"icaoId":"SBLO","flightCategory":"VFR","rawOb":"METAR SBLO 152100Z 10005KT CAVOK 27/17 Q1014","temp":27,"dewp":17,"wdir":100,"wspd":5,"visib":"6+","altim":1014,"clouds":[],"obsTime":1776286800},"SBBV":{"icaoId":"SBBV","flightCategory":"VFR","rawOb":"METAR SBBV 152100Z 15007KT 9999 SCT040 FEW045TCU 34/21 Q1004","temp":34,"dewp":21,"wdir":150,"wspd":7,"visib":"6+","altim":1004,"clouds":[{"cover":"SCT","base":4000},{"cover":"FEW","base":4500}],"obsTime":1776286800},"SBMA":{"icaoId":"SBMA","flightCategory":"VFR","rawOb":"METAR SBMA 152100Z 05003KT 9999 FEW020 FEW023TCU BKN100 28/25 Q1007","temp":28,"dewp":25,"wdir":50,"wspd":3,"visib":"6+","altim":1007,"clouds":[{"cover":"FEW","base":2000},{"cover":"FEW","base":2300},{"cover":"BKN","base":10000}],"obsTime":1776286800},"SBBR":{"icaoId":"SBBR","flightCategory":"VFR","rawOb":"METAR SBBR 152100Z 21003KT 9999 FEW040 FEW050TCU BKN070 22/20 Q1016","temp":22,"dewp":20,"wdir":210,"wspd":3,"visib":"6+","altim":1016,"clouds":[{"cover":"FEW","base":4000},{"cover":"FEW","base":5000},{"cover":"BKN","base":7000}],"obsTime":1776286800},"SBFL":{"icaoId":"SBFL","flightCategory":"VFR","rawOb":"METAR SBFL 152100Z 07003KT 9999 FEW048 SCT060 24/18 Q1015","temp":24,"dewp":18,"wdir":70,"wspd":3,"visib":"6+","altim":1015,"clouds":[{"cover":"FEW","base":4800},{"cover":"SCT","base":6000}],"obsTime":1776286800},"SBFZ":{"icaoId":"SBFZ","flightCategory":"VFR","rawOb":"METAR SBFZ 152100Z 15005KT 9999 FEW013 26/25 Q1009","temp":26,"dewp":25,"wdir":150,"wspd":5,"visib":"6+","altim":1009,"clouds":[{"cover":"FEW","base":1300}],"obsTime":1776286800},"SBCP":{"icaoId":"SBCP","flightCategory":"VFR","rawOb":"METAR SBCP 152100Z 19010KT CAVOK 25/20 Q1014","temp":25,"dewp":20,"wdir":190,"wspd":10,"visib":"6+","altim":1014,"clouds":[],"obsTime":1776286800},"SBMO":{"icaoId":"SBMO","flightCategory":"VFR","rawOb":"METAR SBMO 152100Z 11003KT 9999 FEW025 SCT070 26/24 Q1011","temp":26,"dewp":24,"wdir":110,"wspd":3,"visib":"6+","altim":1011,"clouds":[{"cover":"FEW","base":2500},{"cover":"SCT","base":7000}],"obsTime":1776286800},"SBMQ":{"icaoId":"SBMQ","flightCategory":"MVFR","rawOb":"METAR SBMQ 152100Z 01005KT 9999 -RA BKN017 FEW023TCU OVC100 26/24 Q1008","temp":26,"dewp":24,"wdir":10,"wspd":5,"visib":"6+","altim":1008,"clouds":[{"cover":"BKN","base":1700},{"cover":"FEW","base":2300},{"cover":"OVC","base":10000}],"obsTime":1776286800},"SBGL":{"icaoId":"SBGL","flightCategory":"VFR","rawOb":"METAR SBGL 152100Z 12007KT 9999 FEW030 24/19 Q1014","temp":24,"dewp":19,"wdir":120,"wspd":7,"visib":"6+","altim":1014,"clouds":[{"cover":"FEW","base":3000}],"obsTime":1776286800},"SBNT":{"icaoId":"SBNT","flightCategory":"VFR","rawOb":"METAR SBNT 152100Z 12007KT 9999 SCT020 FEW030TCU 26/24 Q1009","temp":26,"dewp":24,"wdir":120,"wspd":7,"visib":"6+","altim":1009,"clouds":[{"cover":"SCT","base":2000},{"cover":"FEW","base":3000}],"obsTime":1776286800},"SBCB":{"icaoId":"SBCB","flightCategory":"VFR","rawOb":"METAR SBCB 152100Z 21007KT CAVOK 24/21 Q1014","temp":24,"dewp":21,"wdir":210,"wspd":7,"visib":"6+","altim":1014,"clouds":[],"obsTime":1776286800},"SBPA":{"icaoId":"SBPA","flightCategory":"VFR","rawOb":"METAR SBPA 152100Z 10017KT CAVOK 25/20 Q1011","temp":25,"dewp":20,"wdir":100,"wspd":17,"visib":"6+","altim":1011,"clouds":[],"obsTime":1776286800},"SBGO":{"icaoId":"SBGO","flightCategory":"VFR","rawOb":"METAR SBGO 152100Z 05006KT 9999 FEW040 26/19 Q1014","temp":26,"dewp":19,"wdir":50,"wspd":6,"visib":"6+","altim":1014,"clouds":[{"cover":"FEW","base":4000}],"obsTime":1776286800},"SBPJ":{"icaoId":"SBPJ","flightCategory":"VFR","rawOb":"METAR SBPJ 152100Z VRB02KT 9999 FEW043 FEW048TCU 29/25 Q1008","temp":29,"dewp":25,"wdir":"VRB","wspd":2,"visib":"6+","altim":1008,"clouds":[{"cover":"FEW","base":4300},{"cover":"FEW","base":4800}],"obsTime":1776286800},"SBCF":{"icaoId":"SBCF","flightCategory":"VFR","rawOb":"METAR SBCF 152100Z 18002KT CAVOK 24/15 Q1017","temp":24,"dewp":15,"wdir":180,"wspd":2,"visib":"6+","altim":1017,"clouds":[],"obsTime":1776286800},"SBCT":{"icaoId":"SBCT","flightCategory":"VFR","rawOb":"METAR SBCT 152100Z 09007KT CAVOK 19/16 Q1018","temp":19,"dewp":16,"wdir":90,"wspd":7,"visib":"6+","altim":1018,"clouds":[],"obsTime":1776286800},"SBPV":{"icaoId":"SBPV","flightCategory":"VFR","rawOb":"METAR SBPV 152100Z 04005KT 9999 FEW045 32/23 Q1005","temp":32,"dewp":23,"wdir":40,"wspd":5,"visib":"6+","altim":1005,"clouds":[{"cover":"FEW","base":4500}],"obsTime":1776286800},"SBFI":{"icaoId":"SBFI","flightCategory":"VFR","rawOb":"METAR SBFI 152100Z 05003KT 9999 FEW030 BKN100 24/22 Q1010","temp":24,"dewp":22,"wdir":50,"wspd":3,"visib":"6+","altim":1010,"clouds":[{"cover":"FEW","base":3000},{"cover":"BKN","base":10000}],"obsTime":1776286800},"SBSV":{"icaoId":"SBSV","flightCategory":"VFR","rawOb":"METAR SBSV 152100Z 18008KT 9999 FEW025 SCT070 28/21 Q1012","temp":28,"dewp":21,"wdir":180,"wspd":8,"visib":"6+","altim":1012,"clouds":[{"cover":"FEW","base":2500},{"cover":"SCT","base":7000}],"obsTime":1776286800},"SBGR":{"icaoId":"SBGR","flightCategory":"VFR","rawOb":"METAR SBGR 152100Z 12004KT CAVOK 24/12 Q1017","temp":24,"dewp":12,"wdir":120,"wspd":4,"visib":"6+","altim":1017,"clouds":[],"obsTime":1776286800},"SBRB":{"icaoId":"SBRB","flightCategory":"VFR","rawOb":"METAR SBRB 152100Z 02007KT 9999 TS VCSH SCT025 FEW030CB SCT100 30/25 Q1005","temp":30,"dewp":25,"wdir":20,"wspd":7,"visib":"6+","altim":1005,"clouds":[{"cover":"SCT","base":2500},{"cover":"FEW","base":3000},{"cover":"SCT","base":10000}],"obsTime":1776286800},"SBCZ":{"icaoId":"SBCZ","flightCategory":"MVFR","rawOb":"METAR SBCZ 152100Z 32006KT 9999 BKN030 FEW030TCU 32/25 Q1004","temp":32,"dewp":25,"wdir":320,"wspd":6,"visib":"6+","altim":1004,"clouds":[{"cover":"BKN","base":3000},{"cover":"FEW","base":3000}],"obsTime":1776286800},"SBRF":{"icaoId":"SBRF","flightCategory":"VFR","rawOb":"METAR SBRF 152100Z 14009KT 9999 FEW025 28/23 Q1010","temp":28,"dewp":23,"wdir":140,"wspd":9,"visib":"6+","altim":1010,"clouds":[{"cover":"FEW","base":2500}],"obsTime":1776286800},"SBBE":{"icaoId":"SBBE","flightCategory":"MVFR","rawOb":"METAR SBBE 152100Z 01006KT 9999 BKN028 FEW035TCU 28/25 Q1008","temp":28,"dewp":25,"wdir":10,"wspd":6,"visib":"6+","altim":1008,"clouds":[{"cover":"BKN","base":2800},{"cover":"FEW","base":3500}],"obsTime":1776286800},"SBSG":{"icaoId":"SBSG","flightCategory":"MVFR","rawOb":"METAR SBSG 152100Z 14003KT 100V180 9999 BKN023 FEW026TCU 25/24 Q1010","temp":25,"dewp":24,"wdir":140,"wspd":3,"visib":"6+","altim":1010,"clouds":[{"cover":"BKN","base":2300},{"cover":"FEW","base":2600}],"obsTime":1776286800},"SBVT":{"icaoId":"SBVT","flightCategory":"VFR","rawOb":"METAR SBVT 152100Z 20009KT 9999 FEW030 25/21 Q1013","temp":25,"dewp":21,"wdir":200,"wspd":9,"visib":"6+","altim":1013,"clouds":[{"cover":"FEW","base":3000}],"obsTime":1776286800},"SBCG":{"icaoId":"SBCG","flightCategory":"VFR","rawOb":"METAR SBCG 152100Z 09004KT 040V130 9999 VCSH SCT045 FEW050TCU BKN100 28/21 Q1011","temp":28,"dewp":21,"wdir":90,"wspd":4,"visib":"6+","altim":1011,"clouds":[{"cover":"SCT","base":4500},{"cover":"FEW","base":5000},{"cover":"BKN","base":10000}],"obsTime":1776286800},"SBSL":{"icaoId":"SBSL","flightCategory":"MVFR","rawOb":"SPECI SBSL 152027Z 10013KT 8000 3000S -RA BKN016 FEW025TCU 26/24 Q1008","temp":26,"dewp":24,"wdir":100,"wspd":13,"visib":4.97,"altim":1008,"clouds":[{"cover":"BKN","base":1600},{"cover":"FEW","base":2500}],"obsTime":1776284820},"SBTE":{"icaoId":"SBTE","flightCategory":"VFR","rawOb":"METAR SBTE 152100Z 10004KT 9999 SCT025TCU BKN090 27/24 Q1008","temp":27,"dewp":24,"wdir":100,"wspd":4,"visib":"6+","altim":1008,"clouds":[{"cover":"SCT","base":2500},{"cover":"BKN","base":9000}],"obsTime":1776286800},"SBKP":{"icaoId":"SBKP","flightCategory":"VFR","rawOb":"METAR SBKP 152100Z 19006KT CAVOK 27/14 Q1015","temp":27,"dewp":14,"wdir":190,"wspd":6,"visib":"6+","altim":1015,"clouds":[],"obsTime":1776286800},"SBSN":{"icaoId":"SBSN","flightCategory":"VFR","rawOb":"METAR SBSN 152100Z 13007KT 9999 VCSH FEW020 FEW023TCU SCT080 28/23 Q1006","temp":28,"dewp":23,"wdir":130,"wspd":7,"visib":"6+","altim":1006,"clouds":[{"cover":"FEW","base":2000},{"cover":"FEW","base":2300},{"cover":"SCT","base":8000}],"obsTime":1776286800},"SBEG":{"icaoId":"SBEG","flightCategory":"VFR","rawOb":"METAR SBEG 152100Z VRB02KT 9999 FEW020 FEW025TCU 26/25 Q1006","temp":26,"dewp":25,"wdir":"VRB","wspd":2,"visib":"6+","altim":1006,"clouds":[{"cover":"FEW","base":2000},{"cover":"FEW","base":2500}],"obsTime":1776286800},"SBSP":{"icaoId":"SBSP","flightCategory":"VFR","rawOb":"METAR SBSP 152100Z 15011KT CAVOK 20/17 Q1018","temp":20,"dewp":17,"wdir":150,"wspd":11,"visib":"6+","altim":1018,"clouds":[],"obsTime":1776286800},"SBCR":{"icaoId":"SBCR","flightCategory":"VFR","rawOb":"METAR SBCR 152100Z 09008KT 9999 FEW035 27/24 Q1008","temp":27,"dewp":24,"wdir":90,"wspd":8,"visib":"6+","altim":1008,"clouds":[{"cover":"FEW","base":3500}],"obsTime":1776286800},"SBHT":{"icaoId":"SBHT","flightCategory":"VFR","rawOb":"METAR SBHT 152100Z 00000KT CAVOK 26/24 Q1007","temp":26,"dewp":24,"wdir":0,"wspd":0,"visib":"6+","altim":1007,"clouds":[],"obsTime":1776286800},"SBIL":{"icaoId":"SBIL","flightCategory":"VFR","rawOb":"METAR SBIL 152100Z 18005KT 130V220 CAVOK 28/23 Q1012","temp":28,"dewp":23,"wdir":180,"wspd":5,"visib":"6+","altim":1012,"clouds":[],"obsTime":1776286800},"SBJU":{"icaoId":"SBJU","flightCategory":"VFR","rawOb":"METAR SBJU 152100Z 00000KT CAVOK 27/22 Q1011","temp":27,"dewp":22,"wdir":0,"wspd":0,"visib":"6+","altim":1011,"clouds":[],"obsTime":1776286800},"SBME":{"icaoId":"SBME","flightCategory":"VFR","rawOb":"METAR SBME 152100Z 20008KT 9999 FEW025 25/19 Q1013","temp":25,"dewp":19,"wdir":200,"wspd":8,"visib":"6+","altim":1013,"clouds":[{"cover":"FEW","base":2500}],"obsTime":1776286800},"SBMG":{"icaoId":"SBMG","flightCategory":"VFR","rawOb":"METAR SBMG 152100Z 03005KT CAVOK 26/18 Q1012","temp":26,"dewp":18,"wdir":30,"wspd":5,"visib":"6+","altim":1012,"clouds":[],"obsTime":1776286800},"SBMK":{"icaoId":"SBMK","flightCategory":"VFR","rawOb":"METAR SBMK 152100Z 15004KT 9999 FEW046 SCT080 26/18 Q1015","temp":26,"dewp":18,"wdir":150,"wspd":4,"visib":"6+","altim":1015,"clouds":[{"cover":"FEW","base":4600},{"cover":"SCT","base":8000}],"obsTime":1776286800},"SBAT":{"icaoId":"SBAT","flightCategory":"VFR","rawOb":"METAR SBAT 152100Z COR 28001KT 9999 TS VCSH FEW035 FEW040CB 27/26 Q1008","temp":27,"dewp":26,"wdir":280,"wspd":1,"visib":"6+","altim":1008,"clouds":[{"cover":"FEW","base":3500},{"cover":"FEW","base":4000}],"obsTime":1776286800},"SBUR":{"icaoId":"SBUR","flightCategory":"VFR","rawOb":"METAR SBUR 152100Z 09005KT CAVOK 28/14 Q1014","temp":28,"dewp":14,"wdir":90,"wspd":5,"visib":"6+","altim":1014,"clouds":[],"obsTime":1776286800},"SBUL":{"icaoId":"SBUL","flightCategory":"VFR","rawOb":"METAR SBUL 152100Z 10005KT 050V120 9999 FEW049 26/16 Q1015","temp":26,"dewp":16,"wdir":100,"wspd":5,"visib":"6+","altim":1015,"clouds":[{"cover":"FEW","base":4900}],"obsTime":1776286800},"SBPS":{"icaoId":"SBPS","flightCategory":"VFR","rawOb":"METAR SBPS 152100Z 14003KT 9999 SCT025 26/23 Q1013","temp":26,"dewp":23,"wdir":140,"wspd":3,"visib":"6+","altim":1013,"clouds":[{"cover":"SCT","base":2500}],"obsTime":1776286800},"SBOI":{"icaoId":"SBOI","flightCategory":"VFR","rawOb":"METAR SBOI 152100Z AUTO 06006KT 360V100 9999 FEW026 28/24 Q1008","temp":28,"dewp":24,"wdir":60,"wspd":6,"visib":"6+","altim":1008,"clouds":[{"cover":"FEW","base":2600}],"obsTime":1776286800},"SBSJ":{"icaoId":"SBSJ","flightCategory":"VFR","rawOb":"METAR SBSJ 152100Z 05004KT 360V110 CAVOK 24/11 Q1016","temp":24,"dewp":11,"wdir":50,"wspd":4,"visib":"6+","altim":1016,"clouds":[],"obsTime":1776286800},"SBPL":{"icaoId":"SBPL","flightCategory":"VFR","rawOb":"METAR SBPL 152100Z 10010KT 9999 FEW030 SCT070 30/20 Q1010","temp":30,"dewp":20,"wdir":100,"wspd":10,"visib":"6+","altim":1010,"clouds":[{"cover":"FEW","base":3000},{"cover":"SCT","base":7000}],"obsTime":1776286800},"SBAR":{"icaoId":"SBAR","flightCategory":"VFR","rawOb":"METAR SBAR 152100Z 12008KT 9999 SCT025 BKN100 28/23 Q1010","temp":28,"dewp":23,"wdir":120,"wspd":8,"visib":"6+","altim":1010,"clouds":[{"cover":"SCT","base":2500},{"cover":"BKN","base":10000}],"obsTime":1776286800},"SBTT":{"icaoId":"SBTT","flightCategory":"VFR","rawOb":"METAR SBTT 152100Z 34004KT 9999 SCT035 FEW040TCU 30/23 Q1004","temp":30,"dewp":23,"wdir":340,"wspd":4,"visib":"6+","altim":1004,"clouds":[{"cover":"SCT","base":3500},{"cover":"FEW","base":4000}],"obsTime":1776286800},"SBUY":{"icaoId":"SBUY","flightCategory":"VFR","rawOb":"METAR SBUY 152100Z 15007KT 9999 FEW025 FEW030TCU 31/23 Q1004","temp":31,"dewp":23,"wdir":150,"wspd":7,"visib":"6+","altim":1004,"clouds":[{"cover":"FEW","base":2500},{"cover":"FEW","base":3000}],"obsTime":1776286800},"SBPP":{"icaoId":"SBPP","flightCategory":"MVFR","rawOb":"METAR SBPP 152100Z 08006KT 8000 -RA SCT015 OVC070 19/18 Q1012","temp":19,"dewp":18,"wdir":80,"wspd":6,"visib":4.97,"altim":1012,"clouds":[{"cover":"SCT","base":1500},{"cover":"OVC","base":7000}],"obsTime":1776286800},"SBTF":{"icaoId":"SBTF","flightCategory":"VFR","rawOb":"METAR SBTF 152100Z 06004KT 9999 SCT020 33/25 Q1004","temp":33,"dewp":25,"wdir":60,"wspd":4,"visib":"6+","altim":1004,"clouds":[{"cover":"SCT","base":2000}],"obsTime":1776286800},"SBPB":{"icaoId":"SBPB","flightCategory":"VFR","rawOb":"METAR SBPB 152100Z 16003KT 9999 SCT016 BKN080 26/24 Q1008","temp":26,"dewp":24,"wdir":160,"wspd":3,"visib":"6+","altim":1008,"clouds":[{"cover":"SCT","base":1600},{"cover":"BKN","base":8000}],"obsTime":1776286800},"SBCJ":{"icaoId":"SBCJ","flightCategory":"VFR","rawOb":"METAR SBCJ 152100Z 09004KT 9999 SCT017 25/22 Q1012","temp":25,"dewp":22,"wdir":90,"wspd":4,"visib":"6+","altim":1012,"clouds":[{"cover":"SCT","base":1700}],"obsTime":1776286800},"SBSC":{"icaoId":"SBSC","flightCategory":"VFR","rawOb":"METAR SBSC 152100Z 19005KT CAVOK 24/20 Q1014","temp":24,"dewp":20,"wdir":190,"wspd":5,"visib":"6+","altim":1014,"clouds":[],"obsTime":1776286800},"SBSM":{"icaoId":"SBSM","flightCategory":"MVFR","rawOb":"METAR SBSM 152100Z 26004KT 7000 -RA SCT040 BKN070 OVC100 24/21 Q1010","temp":24,"dewp":21,"wdir":260,"wspd":4,"visib":4.35,"altim":1010,"clouds":[{"cover":"SCT","base":4000},{"cover":"BKN","base":7000},{"cover":"OVC","base":10000}],"obsTime":1776286800},"SBSR":{"icaoId":"SBSR","flightCategory":"VFR","rawOb":"METAR SBSR 152100Z 12005KT 9999 SCT025 29/15 Q1012","temp":29,"dewp":15,"wdir":120,"wspd":5,"visib":"6+","altim":1012,"clouds":[{"cover":"SCT","base":2500}],"obsTime":1776286800},"SBVH":{"icaoId":"SBVH","flightCategory":"VFR","rawOb":"METAR SBVH 152100Z 16006KT 9999 SCT035 FEW040TCU BKN100 25/23 Q1009","temp":25,"dewp":23,"wdir":160,"wspd":6,"visib":"6+","altim":1009,"clouds":[{"cover":"SCT","base":3500},{"cover":"FEW","base":4000},{"cover":"BKN","base":10000}],"obsTime":1776286800},"SBAX":{"icaoId":"SBAX","flightCategory":"VFR","rawOb":"METAR SBAX 152100Z 13006KT CAVOK 24/15 Q1016","temp":24,"dewp":15,"wdir":130,"wspd":6,"visib":"6+","altim":1016,"clouds":[],"obsTime":1776286800},"SBBH":{"icaoId":"SBBH","flightCategory":"VFR","rawOb":"METAR SBBH 152100Z 00000KT CAVOK 23/15 Q1016","temp":23,"dewp":15,"wdir":0,"wspd":0,"visib":"6+","altim":1016,"clouds":[],"obsTime":1776286800},"SBBU":{"icaoId":"SBBU","flightCategory":"VFR","rawOb":"METAR SBBU 152100Z 14003KT CAVOK 27/18 Q1014","temp":27,"dewp":18,"wdir":140,"wspd":3,"visib":"6+","altim":1014,"clouds":[],"obsTime":1776286800},"SBCA":{"icaoId":"SBCA","flightCategory":"VFR","rawOb":"METAR SBCA 152100Z 02011KT 9999 FEW030 BKN100 22/18 Q1014","temp":22,"dewp":18,"wdir":20,"wspd":11,"visib":"6+","altim":1014,"clouds":[{"cover":"FEW","base":3000},{"cover":"BKN","base":10000}],"obsTime":1776286800},"SBCO":{"icaoId":"SBCO","flightCategory":"VFR","rawOb":"METAR SBCO 152100Z 10013KT CAVOK 24/20 Q1011","temp":24,"dewp":20,"wdir":100,"wspd":13,"visib":"6+","altim":1011,"clouds":[],"obsTime":1776286800},"SBDN":{"icaoId":"SBDN","flightCategory":"VFR","rawOb":"METAR SBDN 152100Z 00000KT CAVOK 29/18 Q1012","temp":29,"dewp":18,"wdir":0,"wspd":0,"visib":"6+","altim":1012,"clouds":[],"obsTime":1776286800},"SBES":{"icaoId":"SBES","flightCategory":"VFR","rawOb":"METAR SBES 152100Z 22007KT 170V260 9999 FEW010 23/// Q1014","temp":null,"dewp":null,"wdir":220,"wspd":7,"visib":"6+","altim":1014,"clouds":[{"cover":"FEW","base":1000}],"obsTime":1776286800},"SBIP":{"icaoId":"SBIP","flightCategory":"VFR","rawOb":"METAR SBIP 152100Z AUTO 00000KT CAVOK 22/19 Q1013","temp":22,"dewp":19,"wdir":0,"wspd":0,"visib":"6+","altim":1013,"clouds":[],"obsTime":1776286800},"SBKG":{"icaoId":"SBKG","flightCategory":"VFR","rawOb":"METAR SBKG 152100Z 07005KT 9999 FEW020 BKN080 24/23 Q1012","temp":24,"dewp":23,"wdir":70,"wspd":5,"visib":"6+","altim":1012,"clouds":[{"cover":"FEW","base":2000},{"cover":"BKN","base":8000}],"obsTime":1776286800},"SBJP":{"icaoId":"SBJP","flightCategory":"VFR","rawOb":"METAR SBJP 152100Z 13006KT CAVOK 27/24 Q1010","temp":27,"dewp":24,"wdir":130,"wspd":6,"visib":"6+","altim":1010,"clouds":[],"obsTime":1776286800},"SBAN":{"icaoId":"SBAN","flightCategory":"VFR","rawOb":"METAR SBAN 152100Z 16004KT 9999 FEW030 FEW035TCU BKN100 21/18 Q1017","temp":21,"dewp":18,"wdir":160,"wspd":4,"visib":"6+","altim":1017,"clouds":[{"cover":"FEW","base":3000},{"cover":"FEW","base":3500},{"cover":"BKN","base":10000}],"obsTime":1776286800},"SBIH":{"icaoId":"SBIH","flightCategory":"VFR","rawOb":"METAR SBIH 152100Z 04002KT 9999 SCT020 FEW025TCU 30/26 Q1005","temp":30,"dewp":26,"wdir":40,"wspd":2,"visib":"6+","altim":1005,"clouds":[{"cover":"SCT","base":2000},{"cover":"FEW","base":2500}],"obsTime":1776286800},"SBLE":{"icaoId":"SBLE","flightCategory":"VFR","rawOb":"METAR SBLE 152100Z AUTO 14003KT CAVOK 24/22 Q1013","temp":24,"dewp":22,"wdir":140,"wspd":3,"visib":"6+","altim":1013,"clouds":[],"obsTime":1776286800},"SBJV":{"icaoId":"SBJV","flightCategory":"VFR","rawOb":"METAR SBJV 152100Z 06003KT 040V100 9999 FEW015 SCT030 23/21 Q1014","temp":23,"dewp":21,"wdir":60,"wspd":3,"visib":"6+","altim":1014,"clouds":[{"cover":"FEW","base":1500},{"cover":"SCT","base":3000}],"obsTime":1776286800},"SBPF":{"icaoId":"SBPF","flightCategory":"VFR","rawOb":"METAR SBPF 152100Z 05010KT CAVOK 23/15 Q1014","temp":23,"dewp":15,"wdir":50,"wspd":10,"visib":"6+","altim":1014,"clouds":[],"obsTime":1776286800},"SBAF":{"icaoId":"SBAF","flightCategory":"VFR","rawOb":"METAR SBAF 152100Z 18007KT 9999 FEW030 24/21 Q1014","temp":24,"dewp":21,"wdir":180,"wspd":7,"visib":"6+","altim":1014,"clouds":[{"cover":"FEW","base":3000}],"obsTime":1776286800},"SBGW":{"icaoId":"SBGW","flightCategory":"VFR","rawOb":"METAR SBGW 152100Z 36003KT 9999 FEW030 23/13 Q1015","temp":23,"dewp":13,"wdir":360,"wspd":3,"visib":"6+","altim":1015,"clouds":[{"cover":"FEW","base":3000}],"obsTime":1776286800},"SBJR":{"icaoId":"SBJR","flightCategory":"VFR","rawOb":"METAR SBJR 152100Z 21002KT 9999 FEW025 23/21 Q1014","temp":23,"dewp":21,"wdir":210,"wspd":2,"visib":"6+","altim":1014,"clouds":[{"cover":"FEW","base":2500}],"obsTime":1776286800},"SBLS":{"icaoId":"SBLS","flightCategory":"VFR","rawOb":"METAR SBLS 152100Z VRB02KT 9999 FEW045 23/15 Q1016","temp":23,"dewp":15,"wdir":"VRB","wspd":2,"visib":"6+","altim":1016,"clouds":[{"cover":"FEW","base":4500}],"obsTime":1776286800},"SBMT":{"icaoId":"SBMT","flightCategory":"VFR","rawOb":"METAR SBMT 152100Z 15009KT CAVOK 22/17 Q1017","temp":22,"dewp":17,"wdir":150,"wspd":9,"visib":"6+","altim":1017,"clouds":[],"obsTime":1776286800},"SBST":{"icaoId":"SBST","flightCategory":"VFR","rawOb":"METAR SBST 152100Z 16004KT 9999 FEW030 24/18 Q1014","temp":24,"dewp":18,"wdir":160,"wspd":4,"visib":"6+","altim":1014,"clouds":[{"cover":"FEW","base":3000}],"obsTime":1776286800},"SBTA":{"icaoId":"SBTA","flightCategory":"VFR","rawOb":"METAR SBTA 152100Z VRB01KT 9999 FEW030 23/14 Q1015","temp":23,"dewp":14,"wdir":"VRB","wspd":1,"visib":"6+","altim":1015,"clouds":[{"cover":"FEW","base":3000}],"obsTime":1776286800}}}