{"updated":1776022267,"count":86,"data":{"SBRB":{"icaoId":"SBRB","flightCategory":"VFR","rawOb":"METAR SBRB 121800Z 26004KT 9999 SCT030 FEW034TCU SCT100 31/25 Q1010","temp":31,"dewp":25,"wdir":260,"wspd":4,"visib":"6+","altim":1010,"clouds":[{"cover":"SCT","base":3000},{"cover":"FEW","base":3400},{"cover":"SCT","base":10000}],"obsTime":1776016800},"SBBE":{"icaoId":"SBBE","flightCategory":"VFR","rawOb":"METAR SBBE 121800Z 34010KT 9999 BKN035 FEW040TCU BKN045 30/25 Q1009","temp":30,"dewp":25,"wdir":340,"wspd":10,"visib":"6+","altim":1009,"clouds":[{"cover":"BKN","base":3500},{"cover":"FEW","base":4000},{"cover":"BKN","base":4500}],"obsTime":1776016800},"SBVT":{"icaoId":"SBVT","flightCategory":"VFR","rawOb":"METAR SBVT 121800Z 26004KT 9999 SCT025 BKN070 26/22 Q1017","temp":26,"dewp":22,"wdir":260,"wspd":4,"visib":"6+","altim":1017,"clouds":[{"cover":"SCT","base":2500},{"cover":"BKN","base":7000}],"obsTime":1776016800},"SBBR":{"icaoId":"SBBR","flightCategory":"VFR","rawOb":"METAR SBBR 121800Z 09011KT 9999 SCT040 FEW045TCU 27/17 Q1019","temp":27,"dewp":17,"wdir":90,"wspd":11,"visib":"6+","altim":1019,"clouds":[{"cover":"SCT","base":4000},{"cover":"FEW","base":4500}],"obsTime":1776016800},"SBUR":{"icaoId":"SBUR","flightCategory":"VFR","rawOb":"METAR SBUR 121800Z 11003KT 9999 BKN045 29/17 Q1018","temp":29,"dewp":17,"wdir":110,"wspd":3,"visib":"6+","altim":1018,"clouds":[{"cover":"BKN","base":4500}],"obsTime":1776016800},"SBUL":{"icaoId":"SBUL","flightCategory":"VFR","rawOb":"METAR SBUL 121800Z 06009KT 9999 SCT025 SCT035 26/18 Q1019","temp":26,"dewp":18,"wdir":60,"wspd":9,"visib":"6+","altim":1019,"clouds":[{"cover":"SCT","base":2500},{"cover":"SCT","base":3500}],"obsTime":1776016800},"SBBV":{"icaoId":"SBBV","flightCategory":"VFR","rawOb":"METAR SBBV 121800Z 13009KT 9999 BKN040 FEW045TCU 32/20 Q1010","temp":32,"dewp":20,"wdir":130,"wspd":9,"visib":"6+","altim":1010,"clouds":[{"cover":"BKN","base":4000},{"cover":"FEW","base":4500}],"obsTime":1776016800},"SBTE":{"icaoId":"SBTE","flightCategory":"VFR","rawOb":"METAR SBTE 121800Z 19009KT 9999 SCT025 32/25 Q1008","temp":32,"dewp":25,"wdir":190,"wspd":9,"visib":"6+","altim":1008,"clouds":[{"cover":"SCT","base":2500}],"obsTime":1776016800},"SBCB":{"icaoId":"SBCB","flightCategory":"VFR","rawOb":"METAR SBCB 121800Z 10010KT 9999 FEW025 27/20 Q1019","temp":27,"dewp":20,"wdir":100,"wspd":10,"visib":"6+","altim":1019,"clouds":[{"cover":"FEW","base":2500}],"obsTime":1776016800},"SBSV":{"icaoId":"SBSV","flightCategory":"MVFR","rawOb":"SPECI SBSV 121745Z 19008KT 160V220 8000 VCSH SCT018 SCT021 FEW023TCU BKN060 25/22 Q1012","temp":25,"dewp":22,"wdir":190,"wspd":8,"visib":4.97,"altim":1012,"clouds":[{"cover":"SCT","base":1800},{"cover":"SCT","base":2100},{"cover":"FEW","base":2300},{"cover":"BKN","base":6000}],"obsTime":1776015900},"SBCF":{"icaoId":"SBCF","flightCategory":"VFR","rawOb":"METAR SBCF 121800Z 12008KT 9999 SCT036 FEW040TCU 25/17 Q1020","temp":25,"dewp":17,"wdir":120,"wspd":8,"visib":"6+","altim":1020,"clouds":[{"cover":"SCT","base":3600},{"cover":"FEW","base":4000}],"obsTime":1776016800},"SBSP":{"icaoId":"SBSP","flightCategory":"VFR","rawOb":"METAR SBSP 121800Z 19010KT 9999 BKN046 25/17 Q1021","temp":25,"dewp":17,"wdir":190,"wspd":10,"visib":"6+","altim":1021,"clouds":[{"cover":"BKN","base":4600}],"obsTime":1776016800},"SBCG":{"icaoId":"SBCG","flightCategory":"VFR","rawOb":"METAR SBCG 121800Z 36007KT 9999 VCSH BKN045 FEW050TCU 32/21 Q1014","temp":32,"dewp":21,"wdir":360,"wspd":7,"visib":"6+","altim":1014,"clouds":[{"cover":"BKN","base":4500},{"cover":"FEW","base":5000}],"obsTime":1776016800},"SBSN":{"icaoId":"SBSN","flightCategory":"VFR","rawOb":"METAR SBSN 121800Z 09010KT 9999 FEW023 FEW040TCU 31/23 Q1009","temp":31,"dewp":23,"wdir":90,"wspd":10,"visib":"6+","altim":1009,"clouds":[{"cover":"FEW","base":2300},{"cover":"FEW","base":4000}],"obsTime":1776016800},"SBCP":{"icaoId":"SBCP","flightCategory":"MVFR","rawOb":"METAR SBCP 121800Z 19008KT 9999 BKN020 26/21 Q1018","temp":26,"dewp":21,"wdir":190,"wspd":8,"visib":"6+","altim":1018,"clouds":[{"cover":"BKN","base":2000}],"obsTime":1776016800},"SBSL":{"icaoId":"SBSL","flightCategory":"VFR","rawOb":"METAR SBSL 121800Z 04012KT 9999 SCT033 SCT080 30/25 Q1009","temp":30,"dewp":25,"wdir":40,"wspd":12,"visib":"6+","altim":1009,"clouds":[{"cover":"SCT","base":3300},{"cover":"SCT","base":8000}],"obsTime":1776016800},"SBCR":{"icaoId":"SBCR","flightCategory":"VFR","rawOb":"METAR SBCR 121800Z 31011G21KT 270V350 9999 BKN040 FEW045TCU BKN090 29/23 Q1011","temp":29,"dewp":23,"wdir":310,"wspd":11,"visib":"6+","altim":1011,"clouds":[{"cover":"BKN","base":4000},{"cover":"FEW","base":4500},{"cover":"BKN","base":9000}],"obsTime":1776016800},"SBSG":{"icaoId":"SBSG","flightCategory":"MVFR","rawOb":"METAR SBSG 121800Z 11008KT 090V150 9000 VCSH BKN017 FEW023TCU BKN070 27/25 Q1010","temp":27,"dewp":25,"wdir":110,"wspd":8,"visib":5.59,"altim":1010,"clouds":[{"cover":"BKN","base":1700},{"cover":"FEW","base":2300},{"cover":"BKN","base":7000}],"obsTime":1776016800},"SBCT":{"icaoId":"SBCT","flightCategory":"VFR","rawOb":"METAR SBCT 121800Z 09007KT 060V130 9999 SCT030 23/15 Q1022","temp":23,"dewp":15,"wdir":90,"wspd":7,"visib":"6+","altim":1022,"clouds":[{"cover":"SCT","base":3000}],"obsTime":1776016800},"SBCZ":{"icaoId":"SBCZ","flightCategory":"VFR","rawOb":"METAR SBCZ 121800Z 36006KT 9999 SCT020 BKN090 30/24 Q1012","temp":30,"dewp":24,"wdir":360,"wspd":6,"visib":"6+","altim":1012,"clouds":[{"cover":"SCT","base":2000},{"cover":"BKN","base":9000}],"obsTime":1776016800},"SBRF":{"icaoId":"SBRF","flightCategory":"IFR","rawOb":"SPECI SBRF 121747Z 26004KT 190V300 2100 RA BR BKN008 BKN014 OVC050 25/24 Q1011","temp":25,"dewp":24,"wdir":260,"wspd":4,"visib":1.3,"altim":1011,"clouds":[{"cover":"BKN","base":800},{"cover":"BKN","base":1400},{"cover":"OVC","base":5000}],"obsTime":1776016020},"SBEG":{"icaoId":"SBEG","flightCategory":"VFR","rawOb":"METAR SBEG 121800Z VRB02KT 9999 SCT016 FEW025TCU SCT100 28/24 Q1010","temp":28,"dewp":24,"wdir":"VRB","wspd":2,"visib":"6+","altim":1010,"clouds":[{"cover":"SCT","base":1600},{"cover":"FEW","base":2500},{"cover":"SCT","base":10000}],"obsTime":1776016800},"SBME":{"icaoId":"SBME","flightCategory":"VFR","rawOb":"METAR SBME 121800Z 16006KT 9999 FEW025 BKN080 26/20 Q1018","temp":26,"dewp":20,"wdir":160,"wspd":6,"visib":"6+","altim":1018,"clouds":[{"cover":"FEW","base":2500},{"cover":"BKN","base":8000}],"obsTime":1776016800},"SBAT":{"icaoId":"SBAT","flightCategory":"VFR","rawOb":"METAR SBAT 121800Z 15008KT 9999 3000S -RA VCSH FEW025 SCT030 FEW035TCU 27/26 Q1011","temp":27,"dewp":26,"wdir":150,"wspd":8,"visib":"6+","altim":1011,"clouds":[{"cover":"FEW","base":2500},{"cover":"SCT","base":3000},{"cover":"FEW","base":3500}],"obsTime":1776016800},"SBLO":{"icaoId":"SBLO","flightCategory":"VFR","rawOb":"METAR SBLO 121800Z 04005KT 360V060 9999 SCT032 28/19 Q1018","temp":28,"dewp":19,"wdir":40,"wspd":5,"visib":"6+","altim":1018,"clouds":[{"cover":"SCT","base":3200}],"obsTime":1776016800},"SBMA":{"icaoId":"SBMA","flightCategory":"VFR","rawOb":"METAR SBMA 121800Z 11003KT 9999 SCT025 31/24 Q1010","temp":31,"dewp":24,"wdir":110,"wspd":3,"visib":"6+","altim":1010,"clouds":[{"cover":"SCT","base":2500}],"obsTime":1776016800},"SBFI":{"icaoId":"SBFI","flightCategory":"IFR","rawOb":"METAR SBFI 121800Z 10008KT 4000 TSRA BKN005 FEW030CB OVC070 19/19 Q1018","temp":19,"dewp":19,"wdir":100,"wspd":8,"visib":2.49,"altim":1018,"clouds":[{"cover":"BKN","base":500},{"cover":"FEW","base":3000},{"cover":"OVC","base":7000}],"obsTime":1776016800},"SBFL":{"icaoId":"SBFL","flightCategory":"VFR","rawOb":"METAR SBFL 121800Z 02006KT 9999 FEW035 BKN100 25/19 Q1017","temp":25,"dewp":19,"wdir":20,"wspd":6,"visib":"6+","altim":1017,"clouds":[{"cover":"FEW","base":3500},{"cover":"BKN","base":10000}],"obsTime":1776016800},"SBPV":{"icaoId":"SBPV","flightCategory":"MVFR","rawOb":"METAR SBPV 121800Z 33004KT 9999 BKN030 FEW035TCU 31/25 Q1008","temp":31,"dewp":25,"wdir":330,"wspd":4,"visib":"6+","altim":1008,"clouds":[{"cover":"BKN","base":3000},{"cover":"FEW","base":3500}],"obsTime":1776016800},"SBFZ":{"icaoId":"SBFZ","flightCategory":"VFR","rawOb":"METAR SBFZ 121800Z 08006KT 9999 SCT020 BKN090 28/24 Q1009","temp":28,"dewp":24,"wdir":80,"wspd":6,"visib":"6+","altim":1009,"clouds":[{"cover":"SCT","base":2000},{"cover":"BKN","base":9000}],"obsTime":1776016800},"SBPJ":{"icaoId":"SBPJ","flightCategory":"VFR","rawOb":"METAR SBPJ 121800Z 28005KT 9999 SCT045 32/24 Q1011","temp":32,"dewp":24,"wdir":280,"wspd":5,"visib":"6+","altim":1011,"clouds":[{"cover":"SCT","base":4500}],"obsTime":1776016800},"SBGL":{"icaoId":"SBGL","flightCategory":"VFR","rawOb":"METAR SBGL 121800Z 15011KT 9999 FEW020 SCT040 28/20 Q1017","temp":28,"dewp":20,"wdir":150,"wspd":11,"visib":"6+","altim":1017,"clouds":[{"cover":"FEW","base":2000},{"cover":"SCT","base":4000}],"obsTime":1776016800},"SBGO":{"icaoId":"SBGO","flightCategory":"VFR","rawOb":"METAR SBGO 121800Z 09010KT 9999 SCT048 29/19 Q1017","temp":29,"dewp":19,"wdir":90,"wspd":10,"visib":"6+","altim":1017,"clouds":[{"cover":"SCT","base":4800}],"obsTime":1776016800},"SBPA":{"icaoId":"SBPA","flightCategory":"VFR","rawOb":"METAR SBPA 121800Z 33007KT 290V010 CAVOK 25/17 Q1015","temp":25,"dewp":17,"wdir":330,"wspd":7,"visib":"6+","altim":1015,"clouds":[],"obsTime":1776016800},"SBGR":{"icaoId":"SBGR","flightCategory":"VFR","rawOb":"METAR SBGR 121800Z 13005KT 050V210 9999 SCT045 26/15 Q1020","temp":26,"dewp":15,"wdir":130,"wspd":5,"visib":"6+","altim":1020,"clouds":[{"cover":"SCT","base":4500}],"obsTime":1776016800},"SBNT":{"icaoId":"SBNT","flightCategory":"IFR","rawOb":"METAR SBNT 121800Z 11011KT 2500 RA BR BKN016 FEW025TCU BKN100 27/25 Q1010","temp":27,"dewp":25,"wdir":110,"wspd":11,"visib":1.55,"altim":1010,"clouds":[{"cover":"BKN","base":1600},{"cover":"FEW","base":2500},{"cover":"BKN","base":10000}],"obsTime":1776016800},"SBMQ":{"icaoId":"SBMQ","flightCategory":"MVFR","rawOb":"METAR SBMQ 121800Z 07005KT 9999 BKN027 FEW036TCU 33/25 Q1009","temp":33,"dewp":25,"wdir":70,"wspd":5,"visib":"6+","altim":1009,"clouds":[{"cover":"BKN","base":2700},{"cover":"FEW","base":3600}],"obsTime":1776016800},"SBHT":{"icaoId":"SBHT","flightCategory":"MVFR","rawOb":"METAR SBHT 121800Z 12005KT 9999 BKN030 31/23 Q1009","temp":31,"dewp":23,"wdir":120,"wspd":5,"visib":"6+","altim":1009,"clouds":[{"cover":"BKN","base":3000}],"obsTime":1776016800},"SBMO":{"icaoId":"SBMO","flightCategory":"VFR","rawOb":"METAR SBMO 121800Z 11009KT 9999 SCT030 29/23 Q1011","temp":29,"dewp":23,"wdir":110,"wspd":9,"visib":"6+","altim":1011,"clouds":[{"cover":"SCT","base":3000}],"obsTime":1776016800},"SBIL":{"icaoId":"SBIL","flightCategory":"VFR","rawOb":"METAR SBIL 121800Z /////KT 9999 FEW020 SCT070 29/24 Q1013","temp":29,"dewp":24,"wdir":null,"wspd":null,"visib":"6+","altim":1013,"clouds":[{"cover":"FEW","base":2000},{"cover":"SCT","base":7000}],"obsTime":1776016800},"SBMK":{"icaoId":"SBMK","flightCategory":"VFR","rawOb":"METAR SBMK 121800Z 12007KT 9999 SCT044 27/19 Q1017","temp":27,"dewp":19,"wdir":120,"wspd":7,"visib":"6+","altim":1017,"clouds":[{"cover":"SCT","base":4400}],"obsTime":1776016800},"SBJU":{"icaoId":"SBJU","flightCategory":"VFR","rawOb":"METAR SBJU 121800Z 15005KT 9999 SCT022 31/21 Q1011","temp":31,"dewp":21,"wdir":150,"wspd":5,"visib":"6+","altim":1011,"clouds":[{"cover":"SCT","base":2200}],"obsTime":1776016800},"SBMG":{"icaoId":"SBMG","flightCategory":"VFR","rawOb":"METAR SBMG 121800Z 02007KT 330V060 9999 SCT045 29/19 Q1016","temp":29,"dewp":19,"wdir":20,"wspd":7,"visib":"6+","altim":1016,"clouds":[{"cover":"SCT","base":4500}],"obsTime":1776016800},"SBKP":{"icaoId":"SBKP","flightCategory":"VFR","rawOb":"METAR SBKP 121800Z VRB06KT 9999 SCT045 29/14 Q1019","temp":29,"dewp":14,"wdir":"VRB","wspd":6,"visib":"6+","altim":1019,"clouds":[{"cover":"SCT","base":4500}],"obsTime":1776016800},"SBSJ":{"icaoId":"SBSJ","flightCategory":"VFR","rawOb":"METAR SBSJ 121800Z 32004KT 9999 SCT030 27/15 Q1019","temp":27,"dewp":15,"wdir":320,"wspd":4,"visib":"6+","altim":1019,"clouds":[{"cover":"SCT","base":3000}],"obsTime":1776016800},"SBAR":{"icaoId":"SBAR","flightCategory":"VFR","rawOb":"METAR SBAR 121800Z 13015KT 9999 -RA FEW021 FEW023TCU SCT050 27/24 Q1011","temp":27,"dewp":24,"wdir":130,"wspd":15,"visib":"6+","altim":1011,"clouds":[{"cover":"FEW","base":2100},{"cover":"FEW","base":2300},{"cover":"SCT","base":5000}],"obsTime":1776016800},"SBAX":{"icaoId":"SBAX","flightCategory":"VFR","rawOb":"METAR SBAX 121800Z AUTO 09009KT 060V120 9999 FEW039 25/17 Q1020","temp":25,"dewp":17,"wdir":90,"wspd":9,"visib":"6+","altim":1020,"clouds":[{"cover":"FEW","base":3900}],"obsTime":1776016800},"SBBH":{"icaoId":"SBBH","flightCategory":"VFR","rawOb":"METAR SBBH 121800Z 04007KT 9999 SCT040 26/16 Q1020","temp":26,"dewp":16,"wdir":40,"wspd":7,"visib":"6+","altim":1020,"clouds":[{"cover":"SCT","base":4000}],"obsTime":1776016800},"SBBQ":{"icaoId":"SBBQ","flightCategory":"VFR","rawOb":"METAR SBBQ 121800Z 09008KT 9999 BKN035 21/15 Q1024","temp":21,"dewp":15,"wdir":90,"wspd":8,"visib":"6+","altim":1024,"clouds":[{"cover":"BKN","base":3500}],"obsTime":1776016800},"SBBU":{"icaoId":"SBBU","flightCategory":"VFR","rawOb":"METAR SBBU 121800Z 14003KT 9999 SCT040 29/19 Q1018","temp":29,"dewp":19,"wdir":140,"wspd":3,"visib":"6+","altim":1018,"clouds":[{"cover":"SCT","base":4000}],"obsTime":1776016800},"SBCA":{"icaoId":"SBCA","flightCategory":"LIFR","rawOb":"METAR SBCA 121800Z 16014KT 2500 -TSRA VA BKN002 SCT020 FEW035CB BKN080 15/15 Q1021","temp":15,"dewp":15,"wdir":160,"wspd":14,"visib":1.55,"altim":1021,"clouds":[{"cover":"BKN","base":200},{"cover":"SCT","base":2000},{"cover":"FEW","base":3500},{"cover":"BKN","base":8000}],"obsTime":1776016800},"SBCC":{"icaoId":"SBCC","flightCategory":"VFR","rawOb":"METAR SBCC 121800Z 33004KT 9999 SCT030 FEW035TCU SCT100 28/23 Q1012","temp":28,"dewp":23,"wdir":330,"wspd":4,"visib":"6+","altim":1012,"clouds":[{"cover":"SCT","base":3000},{"cover":"FEW","base":3500},{"cover":"SCT","base":10000}],"obsTime":1776016800},"SBCJ":{"icaoId":"SBCJ","flightCategory":"VFR","rawOb":"METAR SBCJ 121800Z 09003KT 9999 SCT025 26/22 Q1015","temp":26,"dewp":22,"wdir":90,"wspd":3,"visib":"6+","altim":1015,"clouds":[{"cover":"SCT","base":2500}],"obsTime":1776016800},"SBCO":{"icaoId":"SBCO","flightCategory":"VFR","rawOb":"METAR SBCO 121800Z 34006KT 300V040 CAVOK 25/17 Q1016","temp":25,"dewp":17,"wdir":340,"wspd":6,"visib":"6+","altim":1016,"clouds":[],"obsTime":1776016800},"SBDN":{"icaoId":"SBDN","flightCategory":"VFR","rawOb":"METAR SBDN 121800Z 05006KT 9999 SCT040 31/20 Q1016","temp":31,"dewp":20,"wdir":50,"wspd":6,"visib":"6+","altim":1016,"clouds":[{"cover":"SCT","base":4000}],"obsTime":1776016800},"SBES":{"icaoId":"SBES","flightCategory":"VFR","rawOb":"METAR SBES 121800Z VRB09KT 9999 SCT020 27/// Q1019","temp":null,"dewp":null,"wdir":"VRB","wspd":9,"visib":"6+","altim":1019,"clouds":[{"cover":"SCT","base":2000}],"obsTime":1776016800},"SBGM":{"icaoId":"SBGM","flightCategory":"LIFR","rawOb":"METAR SBGM 121800Z 06003KT 1000 -RA OVC028 26/24 Q1010 RERA","temp":26,"dewp":24,"wdir":60,"wspd":3,"visib":0.62,"altim":1010,"clouds":[{"cover":"OVC","base":2800}],"obsTime":1776016800},"SBIP":{"icaoId":"SBIP","flightCategory":"VFR","rawOb":"METAR SBIP 121800Z AUTO 22003KT 180V270 CAVOK 28/19 Q1017","temp":28,"dewp":19,"wdir":220,"wspd":3,"visib":"6+","altim":1017,"clouds":[],"obsTime":1776016800},"SBKG":{"icaoId":"SBKG","flightCategory":"IFR","rawOb":"METAR SBKG 121800Z 14012KT 4000 -RA BR BKN020 BKN080 22/22 Q1013 RERA","temp":22,"dewp":22,"wdir":140,"wspd":12,"visib":2.49,"altim":1013,"clouds":[{"cover":"BKN","base":2000},{"cover":"BKN","base":8000}],"obsTime":1776016800},"SBOI":{"icaoId":"SBOI","flightCategory":"VFR","rawOb":"METAR SBOI 121800Z AUTO 04010KT 010V080 9999 SCT032 31/24 Q1010","temp":31,"dewp":24,"wdir":40,"wspd":10,"visib":"6+","altim":1010,"clouds":[{"cover":"SCT","base":3200}],"obsTime":1776016800},"SBPB":{"icaoId":"SBPB","flightCategory":"VFR","rawOb":"METAR SBPB 121800Z 02009KT 9999 FEW016 FEW025TCU BKN080 29/25 Q1009","temp":29,"dewp":25,"wdir":20,"wspd":9,"visib":"6+","altim":1009,"clouds":[{"cover":"FEW","base":1600},{"cover":"FEW","base":2500},{"cover":"BKN","base":8000}],"obsTime":1776016800},"SBPL":{"icaoId":"SBPL","flightCategory":"VFR","rawOb":"METAR SBPL 121800Z 08008KT 9999 SCT025 32/20 Q1011","temp":32,"dewp":20,"wdir":80,"wspd":8,"visib":"6+","altim":1011,"clouds":[{"cover":"SCT","base":2500}],"obsTime":1776016800},"SBPP":{"icaoId":"SBPP","flightCategory":"VFR","rawOb":"METAR SBPP 121800Z 04010KT 9999 SCT020 33/18 Q1015","temp":33,"dewp":18,"wdir":40,"wspd":10,"visib":"6+","altim":1015,"clouds":[{"cover":"SCT","base":2000}],"obsTime":1776016800},"SBPS":{"icaoId":"SBPS","flightCategory":"VFR","rawOb":"METAR SBPS 121800Z VRB06KT 9999 FEW007 SCT018 26/23 Q1015","temp":26,"dewp":23,"wdir":"VRB","wspd":6,"visib":"6+","altim":1015,"clouds":[{"cover":"FEW","base":700},{"cover":"SCT","base":1800}],"obsTime":1776016800},"SBSC":{"icaoId":"SBSC","flightCategory":"VFR","rawOb":"METAR SBSC 121800Z 16007KT 9999 SCT030 FEW032TCU SCT070 28/21 Q1017","temp":28,"dewp":21,"wdir":160,"wspd":7,"visib":"6+","altim":1017,"clouds":[{"cover":"SCT","base":3000},{"cover":"FEW","base":3200},{"cover":"SCT","base":7000}],"obsTime":1776016800},"SBSM":{"icaoId":"SBSM","flightCategory":"VFR","rawOb":"METAR SBSM 121800Z 36004KT 9999 FEW030 SCT050 BKN100 25/19 Q1015","temp":25,"dewp":19,"wdir":360,"wspd":4,"visib":"6+","altim":1015,"clouds":[{"cover":"FEW","base":3000},{"cover":"SCT","base":5000},{"cover":"BKN","base":10000}],"obsTime":1776016800},"SBSR":{"icaoId":"SBSR","flightCategory":"VFR","rawOb":"METAR SBSR 121800Z 05007KT 9999 SCT030 FEW035TCU 30/17 Q1016","temp":30,"dewp":17,"wdir":50,"wspd":7,"visib":"6+","altim":1016,"clouds":[{"cover":"SCT","base":3000},{"cover":"FEW","base":3500}],"obsTime":1776016800},"SBTF":{"icaoId":"SBTF","flightCategory":"MVFR","rawOb":"METAR SBTF 121800Z 08009KT 7000 -TSRA SCT008 FEW025CB OVC080 24/24 Q1011 RERA","temp":24,"dewp":24,"wdir":80,"wspd":9,"visib":4.35,"altim":1011,"clouds":[{"cover":"SCT","base":800},{"cover":"FEW","base":2500},{"cover":"OVC","base":8000}],"obsTime":1776016800},"SBTT":{"icaoId":"SBTT","flightCategory":"MVFR","rawOb":"SPECI SBTT 121733Z 24003KT 5000 RA BKN020 OVC070 28/23 Q1012","temp":28,"dewp":23,"wdir":240,"wspd":3,"visib":3.11,"altim":1012,"clouds":[{"cover":"BKN","base":2000},{"cover":"OVC","base":7000}],"obsTime":1776015180},"SBUY":{"icaoId":"SBUY","flightCategory":"VFR","rawOb":"METAR SBUY 121800Z 20002KT 9999 SCT025 SCT100 31/24 Q1008","temp":31,"dewp":24,"wdir":200,"wspd":2,"visib":"6+","altim":1008,"clouds":[{"cover":"SCT","base":2500},{"cover":"SCT","base":10000}],"obsTime":1776016800},"SBVH":{"icaoId":"SBVH","flightCategory":"VFR","rawOb":"METAR SBVH 121800Z 05007KT 9999 SCT030 FEW035TCU SCT078 28/23 Q1012","temp":28,"dewp":23,"wdir":50,"wspd":7,"visib":"6+","altim":1012,"clouds":[{"cover":"SCT","base":3000},{"cover":"FEW","base":3500},{"cover":"SCT","base":7800}],"obsTime":1776016800},"SBAU":{"icaoId":"SBAU","flightCategory":"VFR","rawOb":"METAR SBAU 121800Z 10006KT 9999 SCT035 33/21 Q1015","temp":33,"dewp":21,"wdir":100,"wspd":6,"visib":"6+","altim":1015,"clouds":[{"cover":"SCT","base":3500}],"obsTime":1776016800},"SBTA":{"icaoId":"SBTA","flightCategory":"VFR","rawOb":"METAR SBTA 121800Z 04006KT 360V080 9999 SCT035 27/15 Q1018","temp":27,"dewp":15,"wdir":40,"wspd":6,"visib":"6+","altim":1018,"clouds":[{"cover":"SCT","base":3500}],"obsTime":1776016800},"SBLE":{"icaoId":"SBLE","flightCategory":"VFR","rawOb":"METAR SBLE 121800Z AUTO 15004KT 100V210 9999 FEW047 29/20 Q1014","temp":29,"dewp":20,"wdir":150,"wspd":4,"visib":"6+","altim":1014,"clouds":[{"cover":"FEW","base":4700}],"obsTime":1776016800},"SBTC":{"icaoId":"SBTC","flightCategory":"VFR","rawOb":"METAR SBTC 121800Z 17007KT 9999 SCT020 28/24 Q1014","temp":28,"dewp":24,"wdir":170,"wspd":7,"visib":"6+","altim":1014,"clouds":[{"cover":"SCT","base":2000}],"obsTime":1776016800},"SBJV":{"icaoId":"SBJV","flightCategory":"VFR","rawOb":"METAR SBJV 121800Z 13004KT 9999 FEW020 27/21 Q1018","temp":27,"dewp":21,"wdir":130,"wspd":4,"visib":"6+","altim":1018,"clouds":[{"cover":"FEW","base":2000}],"obsTime":1776016800},"SBPF":{"icaoId":"SBPF","flightCategory":"VFR","rawOb":"METAR SBPF 121800Z 01012KT CAVOK 18/15 Q1019","temp":18,"dewp":15,"wdir":10,"wspd":12,"visib":"6+","altim":1019,"clouds":[],"obsTime":1776016800},"SBAN":{"icaoId":"SBAN","flightCategory":"VFR","rawOb":"METAR SBAN 121800Z 16008KT 130V210 9999 BKN035 FEW040TCU 27/18 Q1020","temp":27,"dewp":18,"wdir":160,"wspd":8,"visib":"6+","altim":1020,"clouds":[{"cover":"BKN","base":3500},{"cover":"FEW","base":4000}],"obsTime":1776016800},"SBIH":{"icaoId":"SBIH","flightCategory":"VFR","rawOb":"METAR SBIH 121800Z 10008KT 9999 FEW020 FEW025TCU 32/25 Q1008","temp":32,"dewp":25,"wdir":100,"wspd":8,"visib":"6+","altim":1008,"clouds":[{"cover":"FEW","base":2000},{"cover":"FEW","base":2500}],"obsTime":1776016800},"SBAF":{"icaoId":"SBAF","flightCategory":"VFR","rawOb":"METAR SBAF 121800Z 12009KT 090V150 9999 FEW025 SCT035 27/21 Q1018","temp":27,"dewp":21,"wdir":120,"wspd":9,"visib":"6+","altim":1018,"clouds":[{"cover":"FEW","base":2500},{"cover":"SCT","base":3500}],"obsTime":1776016800},"SBGW":{"icaoId":"SBGW","flightCategory":"VFR","rawOb":"METAR SBGW 121800Z 03005KT 320V090 9999 FEW030 28/14 Q1019","temp":28,"dewp":14,"wdir":30,"wspd":5,"visib":"6+","altim":1019,"clouds":[{"cover":"FEW","base":3000}],"obsTime":1776016800},"SBJR":{"icaoId":"SBJR","flightCategory":"VFR","rawOb":"METAR SBJR 121800Z 12012KT 9999 FEW030 SCT035 27/20 Q1018","temp":27,"dewp":20,"wdir":120,"wspd":12,"visib":"6+","altim":1018,"clouds":[{"cover":"FEW","base":3000},{"cover":"SCT","base":3500}],"obsTime":1776016800},"SBLS":{"icaoId":"SBLS","flightCategory":"VFR","rawOb":"METAR SBLS 121800Z 13007KT 030V150 9999 BKN033 26/17 Q1020","temp":26,"dewp":17,"wdir":130,"wspd":7,"visib":"6+","altim":1020,"clouds":[{"cover":"BKN","base":3300}],"obsTime":1776016800},"SBMT":{"icaoId":"SBMT","flightCategory":"VFR","rawOb":"METAR SBMT 121800Z 26004KT 9999 FEW020 27/13 Q1020","temp":27,"dewp":13,"wdir":260,"wspd":4,"visib":"6+","altim":1020,"clouds":[{"cover":"FEW","base":2000}],"obsTime":1776016800},"SBST":{"icaoId":"SBST","flightCategory":"VFR","rawOb":"METAR SBST 121800Z 17006KT 9999 FEW025 26/19 Q1018","temp":26,"dewp":19,"wdir":170,"wspd":6,"visib":"6+","altim":1018,"clouds":[{"cover":"FEW","base":2500}],"obsTime":1776016800},"SBJP":{"icaoId":"SBJP","flightCategory":"IFR","rawOb":"METAR SBJP 121800Z 17009KT 3000 RA BKN006 BKN014 24/24 Q1011 RERA","temp":24,"dewp":24,"wdir":170,"wspd":9,"visib":1.86,"altim":1011,"clouds":[{"cover":"BKN","base":600},{"cover":"BKN","base":1400}],"obsTime":1776016800}}}