{"updated":1773740540,"count":63,"data":{"SBGL":{"icaoId":"SBGL","flightCategory":"VFR","rawOb":"METAR SBGL 170800Z 12003KT 9999 FEW008 23/21 Q1012","temp":23,"dewp":21,"wdir":120,"wspd":3,"visib":"6+","altim":1012,"clouds":[{"cover":"FEW","base":800}],"obsTime":1773734400},"SBGR":{"icaoId":"SBGR","flightCategory":"VFR","rawOb":"METAR SBGR 170800Z 07002KT CAVOK 18/17 Q1016","temp":18,"dewp":17,"wdir":70,"wspd":2,"visib":"6+","altim":1016,"clouds":[],"obsTime":1773734400},"SBGO":{"icaoId":"SBGO","flightCategory":"VFR","rawOb":"METAR SBGO 170800Z 35005KT 9999 FEW005 SCT015 FEW040TCU OVC100 21/21 Q1015","temp":21,"dewp":21,"wdir":350,"wspd":5,"visib":"6+","altim":1015,"clouds":[{"cover":"FEW","base":500},{"cover":"SCT","base":1500},{"cover":"FEW","base":4000},{"cover":"OVC","base":10000}],"obsTime":1773734400},"SBFZ":{"icaoId":"SBFZ","flightCategory":"MVFR","rawOb":"METAR SBFZ 170800Z 15004KT 8000 -RA SCT020 26/25 Q1009","temp":26,"dewp":25,"wdir":150,"wspd":4,"visib":4.97,"altim":1009,"clouds":[{"cover":"SCT","base":2000}],"obsTime":1773734400},"SBMO":{"icaoId":"SBMO","flightCategory":"VFR","rawOb":"METAR SBMO 170800Z 35003KT 9999 FEW020 BKN090 24/24 Q1011","temp":24,"dewp":24,"wdir":350,"wspd":3,"visib":"6+","altim":1011,"clouds":[{"cover":"FEW","base":2000},{"cover":"BKN","base":9000}],"obsTime":1773734400},"SBMQ":{"icaoId":"SBMQ","flightCategory":"MVFR","rawOb":"METAR SBMQ 170800Z 34002KT 9999 BKN011 OVC040 25/25 Q1009","temp":25,"dewp":25,"wdir":340,"wspd":2,"visib":"6+","altim":1009,"clouds":[{"cover":"BKN","base":1100},{"cover":"OVC","base":4000}],"obsTime":1773734400},"SBNT":{"icaoId":"SBNT","flightCategory":"MVFR","rawOb":"METAR SBNT 170800Z 24004KT 170V290 9999 VCSH BKN020 FEW025TCU 25/23 Q1010","temp":25,"dewp":23,"wdir":240,"wspd":4,"visib":"6+","altim":1010,"clouds":[{"cover":"BKN","base":2000},{"cover":"FEW","base":2500}],"obsTime":1773734400},"SBBE":{"icaoId":"SBBE","flightCategory":"VFR","rawOb":"METAR SBBE 170800Z 05002KT 9999 SCT009 BKN063 BKN090 25/24 Q1010","temp":25,"dewp":24,"wdir":50,"wspd":2,"visib":"6+","altim":1010,"clouds":[{"cover":"SCT","base":900},{"cover":"BKN","base":6300},{"cover":"BKN","base":9000}],"obsTime":1773734400},"SBPA":{"icaoId":"SBPA","flightCategory":"VFR","rawOb":"METAR SBPA 170800Z 10006KT CAVOK 24/22 Q1009","temp":24,"dewp":22,"wdir":100,"wspd":6,"visib":"6+","altim":1009,"clouds":[],"obsTime":1773734400},"SBPJ":{"icaoId":"SBPJ","flightCategory":"VFR","rawOb":"METAR SBPJ 170800Z 13003KT 9999 SCT016 BKN040 24/23 Q1012","temp":24,"dewp":23,"wdir":130,"wspd":3,"visib":"6+","altim":1012,"clouds":[{"cover":"SCT","base":1600},{"cover":"BKN","base":4000}],"obsTime":1773734400},"SBBV":{"icaoId":"SBBV","flightCategory":"VFR","rawOb":"METAR SBBV 170800Z 09009KT CAVOK 25/21 Q1011","temp":25,"dewp":21,"wdir":90,"wspd":9,"visib":"6+","altim":1011,"clouds":[],"obsTime":1773734400},"SBPV":{"icaoId":"SBPV","flightCategory":"VFR","rawOb":"METAR SBPV 170800Z 00000KT 9999 FEW030 25/24 Q1008","temp":25,"dewp":24,"wdir":0,"wspd":0,"visib":"6+","altim":1008,"clouds":[{"cover":"FEW","base":3000}],"obsTime":1773734400},"SBRB":{"icaoId":"SBRB","flightCategory":"MVFR","rawOb":"METAR SBRB 170800Z 35003KT 8000 FEW020 SCT100 25/23 Q1008","temp":25,"dewp":23,"wdir":350,"wspd":3,"visib":4.97,"altim":1008,"clouds":[{"cover":"FEW","base":2000},{"cover":"SCT","base":10000}],"obsTime":1773734400},"SBRF":{"icaoId":"SBRF","flightCategory":"MVFR","rawOb":"METAR SBRF 170800Z 10007KT 8000 -RA BKN020 26/24 Q1010","temp":26,"dewp":24,"wdir":100,"wspd":7,"visib":4.97,"altim":1010,"clouds":[{"cover":"BKN","base":2000}],"obsTime":1773734400},"SBCT":{"icaoId":"SBCT","flightCategory":"MVFR","rawOb":"METAR SBCT 170800Z 11004KT 8000 FEW010 17/17 Q1016","temp":17,"dewp":17,"wdir":110,"wspd":4,"visib":4.97,"altim":1016,"clouds":[{"cover":"FEW","base":1000}],"obsTime":1773734400},"SBSG":{"icaoId":"SBSG","flightCategory":"VFR","rawOb":"METAR SBSG 170800Z 18004KT 140V210 9999 FEW021 24/24 Q1011","temp":24,"dewp":24,"wdir":180,"wspd":4,"visib":"6+","altim":1011,"clouds":[{"cover":"FEW","base":2100}],"obsTime":1773734400},"SBSL":{"icaoId":"SBSL","flightCategory":"MVFR","rawOb":"METAR SBSL 170800Z 04004KT 8000 -TSRA SCT010 FEW020CB BKN070 24/23 Q1009","temp":24,"dewp":23,"wdir":40,"wspd":4,"visib":4.97,"altim":1009,"clouds":[{"cover":"SCT","base":1000},{"cover":"FEW","base":2000},{"cover":"BKN","base":7000}],"obsTime":1773734400},"SBEG":{"icaoId":"SBEG","flightCategory":"VFR","rawOb":"METAR SBEG 170800Z 05003KT CAVOK 24/24 Q1009","temp":24,"dewp":24,"wdir":50,"wspd":3,"visib":"6+","altim":1009,"clouds":[],"obsTime":1773734400},"SBSN":{"icaoId":"SBSN","flightCategory":"VFR","rawOb":"METAR SBSN 170800Z 11009KT 9999 TS VCSH SCT015 FEW020CB OVC073 26/24 Q1009","temp":26,"dewp":24,"wdir":110,"wspd":9,"visib":"6+","altim":1009,"clouds":[{"cover":"SCT","base":1500},{"cover":"FEW","base":2000},{"cover":"OVC","base":7300}],"obsTime":1773734400},"SBSP":{"icaoId":"SBSP","flightCategory":"VFR","rawOb":"METAR SBSP 170800Z AUTO 16004KT CAVOK 18/17 Q1016","temp":18,"dewp":17,"wdir":160,"wspd":4,"visib":"6+","altim":1016,"clouds":[],"obsTime":1773734400},"SBJU":{"icaoId":"SBJU","flightCategory":"MVFR","rawOb":"METAR SBJU 170800Z 00000KT 9999 BKN020 24/22 Q1012","temp":24,"dewp":22,"wdir":0,"wspd":0,"visib":"6+","altim":1012,"clouds":[{"cover":"BKN","base":2000}],"obsTime":1773734400},"SBSV":{"icaoId":"SBSV","flightCategory":"VFR","rawOb":"METAR SBSV 170800Z 00000KT 9999 SCT024 25/22 Q1012","temp":25,"dewp":22,"wdir":0,"wspd":0,"visib":"6+","altim":1012,"clouds":[{"cover":"SCT","base":2400}],"obsTime":1773734400},"SBCB":{"icaoId":"SBCB","flightCategory":"VFR","rawOb":"METAR SBCB 170900Z 06003KT CAVOK 22/21 Q1013","temp":22,"dewp":21,"wdir":60,"wspd":3,"visib":"6+","altim":1013,"clouds":[],"obsTime":1773738000},"SBKP":{"icaoId":"SBKP","flightCategory":"VFR","rawOb":"METAR SBKP 170800Z 13010KT CAVOK 20/17 Q1014","temp":20,"dewp":17,"wdir":130,"wspd":10,"visib":"6+","altim":1014,"clouds":[],"obsTime":1773734400},"SBTE":{"icaoId":"SBTE","flightCategory":"VFR","rawOb":"METAR SBTE 170800Z 00000KT 9999 SCT016 BKN090 24/23 Q1009","temp":24,"dewp":23,"wdir":0,"wspd":0,"visib":"6+","altim":1009,"clouds":[{"cover":"SCT","base":1600},{"cover":"BKN","base":9000}],"obsTime":1773734400},"SBUL":{"icaoId":"SBUL","flightCategory":"VFR","rawOb":"METAR SBUL 170800Z 08007KT 9999 FEW001 SCT021 21/20 Q1015","temp":21,"dewp":20,"wdir":80,"wspd":7,"visib":"6+","altim":1015,"clouds":[{"cover":"FEW","base":100},{"cover":"SCT","base":2100}],"obsTime":1773734400},"SBLO":{"icaoId":"SBLO","flightCategory":"VFR","rawOb":"METAR SBLO 170800Z VRB01KT CAVOK 22/17 Q1012","temp":22,"dewp":17,"wdir":"VRB","wspd":1,"visib":"6+","altim":1012,"clouds":[],"obsTime":1773734400},"SBUR":{"icaoId":"SBUR","flightCategory":"VFR","rawOb":"METAR SBUR 170800Z 02006KT CAVOK 22/20 Q1014","temp":22,"dewp":20,"wdir":20,"wspd":6,"visib":"6+","altim":1014,"clouds":[],"obsTime":1773734400},"SBBR":{"icaoId":"SBBR","flightCategory":"VFR","rawOb":"METAR SBBR 170800Z 29002KT 9999 FEW035 BKN090 21/20 Q1016","temp":21,"dewp":20,"wdir":290,"wspd":2,"visib":"6+","altim":1016,"clouds":[{"cover":"FEW","base":3500},{"cover":"BKN","base":9000}],"obsTime":1773734400},"SBVT":{"icaoId":"SBVT","flightCategory":"VFR","rawOb":"METAR SBVT 170800Z 29003KT 9999 SCT030 21/21 Q1012","temp":21,"dewp":21,"wdir":290,"wspd":3,"visib":"6+","altim":1012,"clouds":[{"cover":"SCT","base":3000}],"obsTime":1773734400},"SBMA":{"icaoId":"SBMA","flightCategory":"IFR","rawOb":"METAR SBMA 170800Z 25005KT 3000 -TSRA BKN010 FEW020CB OVC080 25/24 Q1010","temp":25,"dewp":24,"wdir":250,"wspd":5,"visib":1.86,"altim":1010,"clouds":[{"cover":"BKN","base":1000},{"cover":"FEW","base":2000},{"cover":"OVC","base":8000}],"obsTime":1773734400},"SBFI":{"icaoId":"SBFI","flightCategory":"MVFR","rawOb":"METAR SBFI 170800Z 08006KT 9000 -RA SCT006 BKN015 BKN090 21/21 Q1008 RERA","temp":21,"dewp":21,"wdir":80,"wspd":6,"visib":5.59,"altim":1008,"clouds":[{"cover":"SCT","base":600},{"cover":"BKN","base":1500},{"cover":"BKN","base":9000}],"obsTime":1773734400},"SBME":{"icaoId":"SBME","flightCategory":"VFR","rawOb":"METAR SBME 170800Z 02002KT CAVOK 21/19 Q1012","temp":21,"dewp":19,"wdir":20,"wspd":2,"visib":"6+","altim":1012,"clouds":[],"obsTime":1773734400},"SBFL":{"icaoId":"SBFL","flightCategory":"VFR","rawOb":"METAR SBFL 170800Z 36008KT 9999 FEW035 26/23 Q1011","temp":26,"dewp":23,"wdir":360,"wspd":8,"visib":"6+","altim":1011,"clouds":[{"cover":"FEW","base":3500}],"obsTime":1773734400},"SBCF":{"icaoId":"SBCF","flightCategory":"VFR","rawOb":"METAR SBCF 170800Z 18003KT CAVOK 20/19 Q1016","temp":20,"dewp":19,"wdir":180,"wspd":3,"visib":"6+","altim":1016,"clouds":[],"obsTime":1773734400},"SBMG":{"icaoId":"SBMG","flightCategory":"VFR","rawOb":"METAR SBMG 170800Z AUTO 02006KT CAVOK 24/17 Q1010","temp":24,"dewp":17,"wdir":20,"wspd":6,"visib":"6+","altim":1010,"clouds":[],"obsTime":1773734400},"SBMK":{"icaoId":"SBMK","flightCategory":"VFR","rawOb":"METAR SBMK 170800Z 19002KT 9999 FEW003 21/21 Q1014","temp":21,"dewp":21,"wdir":190,"wspd":2,"visib":"6+","altim":1014,"clouds":[{"cover":"FEW","base":300}],"obsTime":1773734400},"SBCG":{"icaoId":"SBCG","flightCategory":"VFR","rawOb":"METAR SBCG 170800Z 07001KT 9999 FEW035 22/21 Q1011","temp":22,"dewp":21,"wdir":70,"wspd":1,"visib":"6+","altim":1011,"clouds":[{"cover":"FEW","base":3500}],"obsTime":1773734400},"SBCO":{"icaoId":"SBCO","flightCategory":"VFR","rawOb":"METAR SBCO 170900Z 10004KT CAVOK 22/21 Q1009","temp":22,"dewp":21,"wdir":100,"wspd":4,"visib":"6+","altim":1009,"clouds":[],"obsTime":1773738000},"SBPS":{"icaoId":"SBPS","flightCategory":"MVFR","rawOb":"METAR SBPS 170800Z COR 27002KT 8000 FEW005 SCT015 24/24 Q1012","temp":24,"dewp":24,"wdir":270,"wspd":2,"visib":4.97,"altim":1012,"clouds":[{"cover":"FEW","base":500},{"cover":"SCT","base":1500}],"obsTime":1773734400},"SBDN":{"icaoId":"SBDN","flightCategory":"VFR","rawOb":"METAR SBDN 170800Z 00000KT CAVOK 24/19 Q1011","temp":24,"dewp":19,"wdir":0,"wspd":0,"visib":"6+","altim":1011,"clouds":[],"obsTime":1773734400},"SBAX":{"icaoId":"SBAX","flightCategory":"VFR","rawOb":"METAR SBAX 170800Z AUTO 09003KT 060V130 CAVOK ///// Q1016","temp":null,"dewp":null,"wdir":90,"wspd":3,"visib":"6+","altim":1016,"clouds":[],"obsTime":1773734400},"SBSC":{"icaoId":"SBSC","flightCategory":"VFR","rawOb":"METAR SBSC 170800Z 34003KT 9999 FEW012 23/22 Q1013","temp":23,"dewp":22,"wdir":340,"wspd":3,"visib":"6+","altim":1013,"clouds":[{"cover":"FEW","base":1200}],"obsTime":1773734400},"SBSJ":{"icaoId":"SBSJ","flightCategory":"IFR","rawOb":"SPECI SBSJ 170830Z 16002KT 4000 BR NSC 17/16 Q1016","temp":17,"dewp":16,"wdir":160,"wspd":2,"visib":2.49,"altim":1016,"clouds":[],"obsTime":1773736200},"SBPL":{"icaoId":"SBPL","flightCategory":"VFR","rawOb":"METAR SBPL 170800Z 12004KT CAVOK 24/18 Q1012","temp":24,"dewp":18,"wdir":120,"wspd":4,"visib":"6+","altim":1012,"clouds":[],"obsTime":1773734400},"SBSM":{"icaoId":"SBSM","flightCategory":"VFR","rawOb":"METAR SBSM 170900Z VRB03KT 9999 -RA FEW015 BKN080 22/21 Q1009","temp":22,"dewp":21,"wdir":"VRB","wspd":3,"visib":"6+","altim":1009,"clouds":[{"cover":"FEW","base":1500},{"cover":"BKN","base":8000}],"obsTime":1773738000},"SBSR":{"icaoId":"SBSR","flightCategory":"VFR","rawOb":"METAR SBSR 170800Z 36004KT CAVOK 23/21 Q1012","temp":23,"dewp":21,"wdir":360,"wspd":4,"visib":"6+","altim":1012,"clouds":[],"obsTime":1773734400},"SBAR":{"icaoId":"SBAR","flightCategory":"VFR","rawOb":"METAR SBAR 170800Z 10008KT 9999 FEW027 28/22 Q1011","temp":28,"dewp":22,"wdir":100,"wspd":8,"visib":"6+","altim":1011,"clouds":[{"cover":"FEW","base":2700}],"obsTime":1773734400},"SBES":{"icaoId":"SBES","flightCategory":"VFR","rawOb":"METAR SBES 170900Z VRB02KT 9999 FEW010 18/// Q1013","temp":null,"dewp":null,"wdir":"VRB","wspd":2,"visib":"6+","altim":1013,"clouds":[{"cover":"FEW","base":1000}],"obsTime":1773738000},"SBIP":{"icaoId":"SBIP","flightCategory":"VFR","rawOb":"METAR SBIP 170800Z AUTO VRB02KT 9999 SCT020 23/23 Q1013","temp":23,"dewp":23,"wdir":"VRB","wspd":2,"visib":"6+","altim":1013,"clouds":[{"cover":"SCT","base":2000}],"obsTime":1773734400},"SBBH":{"icaoId":"SBBH","flightCategory":"VFR","rawOb":"METAR SBBH 170900Z 09004KT CAVOK 21/19 Q1016","temp":21,"dewp":19,"wdir":90,"wspd":4,"visib":"6+","altim":1016,"clouds":[],"obsTime":1773738000},"SBKG":{"icaoId":"SBKG","flightCategory":"MVFR","rawOb":"METAR SBKG 170800Z 10006KT 9999 BKN010 23/22 Q1013","temp":23,"dewp":22,"wdir":100,"wspd":6,"visib":"6+","altim":1013,"clouds":[{"cover":"BKN","base":1000}],"obsTime":1773734400},"SBBU":{"icaoId":"SBBU","flightCategory":"VFR","rawOb":"METAR SBBU 170900Z 10010KT CAVOK 22/19 Q1013","temp":22,"dewp":19,"wdir":100,"wspd":10,"visib":"6+","altim":1013,"clouds":[],"obsTime":1773738000},"SBOI":{"icaoId":"SBOI","flightCategory":"VFR","rawOb":"METAR SBOI 170800Z AUTO 03002KT CAVOK 23/23 Q1010","temp":23,"dewp":23,"wdir":30,"wspd":2,"visib":"6+","altim":1010,"clouds":[],"obsTime":1773734400},"SBCA":{"icaoId":"SBCA","flightCategory":"VFR","rawOb":"METAR SBCA 170900Z 34003KT 9999 FEW040 BKN070 21/19 Q1013","temp":21,"dewp":19,"wdir":340,"wspd":3,"visib":"6+","altim":1013,"clouds":[{"cover":"FEW","base":4000},{"cover":"BKN","base":7000}],"obsTime":1773738000},"SBTA":{"icaoId":"SBTA","flightCategory":"VFR","rawOb":"METAR SBTA 170900Z 00000KT CAVOK 16/16 Q1015","temp":16,"dewp":16,"wdir":0,"wspd":0,"visib":"6+","altim":1015,"clouds":[],"obsTime":1773738000},"SBLS":{"icaoId":"SBLS","flightCategory":"VFR","rawOb":"METAR SBLS 170900Z 15008KT CAVOK 21/19 Q1016","temp":21,"dewp":19,"wdir":150,"wspd":8,"visib":"6+","altim":1016,"clouds":[],"obsTime":1773738000},"SBMT":{"icaoId":"SBMT","flightCategory":"VFR","rawOb":"METAR SBMT 170900Z 09005KT CAVOK 18/15 Q1016","temp":18,"dewp":15,"wdir":90,"wspd":5,"visib":"6+","altim":1016,"clouds":[],"obsTime":1773738000},"SBAN":{"icaoId":"SBAN","flightCategory":"MVFR","rawOb":"METAR SBAN 170800Z VRB02KT 5000 2000S RA BR SCT003 SCT020 FEW035TCU BKN070 20/19 Q1017","temp":20,"dewp":19,"wdir":"VRB","wspd":2,"visib":3.11,"altim":1017,"clouds":[{"cover":"SCT","base":300},{"cover":"SCT","base":2000},{"cover":"FEW","base":3500},{"cover":"BKN","base":7000}],"obsTime":1773734400},"SBGW":{"icaoId":"SBGW","flightCategory":"VFR","rawOb":"METAR SBGW 170900Z 00000KT CAVOK 17/14 Q1015","temp":17,"dewp":14,"wdir":0,"wspd":0,"visib":"6+","altim":1015,"clouds":[],"obsTime":1773738000},"SBJP":{"icaoId":"SBJP","flightCategory":"MVFR","rawOb":"METAR SBJP 170800Z 00000KT 8000 -RA SCT014 BKN020 BKN070 24/23 Q1011","temp":24,"dewp":23,"wdir":0,"wspd":0,"visib":4.97,"altim":1011,"clouds":[{"cover":"SCT","base":1400},{"cover":"BKN","base":2000},{"cover":"BKN","base":7000}],"obsTime":1773734400},"SBJV":{"icaoId":"SBJV","flightCategory":"MVFR","rawOb":"METAR SBJV 170900Z 28001KT 9999 BKN028 24/24 Q1012","temp":24,"dewp":24,"wdir":280,"wspd":1,"visib":"6+","altim":1012,"clouds":[{"cover":"BKN","base":2800}],"obsTime":1773738000},"SBLE":{"icaoId":"SBLE","flightCategory":"MVFR","rawOb":"METAR SBLE 170800Z AUTO VRB01KT 9999 OVC022 ///// Q////","temp":null,"dewp":null,"wdir":"VRB","wspd":1,"visib":"6+","altim":null,"clouds":[{"cover":"OVC","base":2200}],"obsTime":1773734400}}}