{"updated":1774442234,"count":85,"data":{"SBCR":{"icaoId":"SBCR","flightCategory":"LIFR","rawOb":"METAR SBCR 251100Z 34003KT 0600 FG BKN002 OVC005 23/23 Q1012","temp":23,"dewp":23,"wdir":340,"wspd":3,"visib":0.37,"altim":1012,"clouds":[{"cover":"BKN","base":200},{"cover":"OVC","base":500}],"obsTime":1774436400},"SBBR":{"icaoId":"SBBR","flightCategory":"VFR","rawOb":"METAR SBBR 251100Z 30004KT 270V350 9000 3000NE SCT003 BKN040 OVC090 18/18 Q1019","temp":18,"dewp":18,"wdir":300,"wspd":4,"visib":5.59,"altim":1019,"clouds":[{"cover":"SCT","base":300},{"cover":"BKN","base":4000},{"cover":"OVC","base":9000}],"obsTime":1774436400},"SBVT":{"icaoId":"SBVT","flightCategory":"VFR","rawOb":"METAR SBVT 251100Z 07003KT 9000 -TSRA FEW020 FEW040CB SCT050 BKN100 23/23 Q1017","temp":23,"dewp":23,"wdir":70,"wspd":3,"visib":5.59,"altim":1017,"clouds":[{"cover":"FEW","base":2000},{"cover":"FEW","base":4000},{"cover":"SCT","base":5000},{"cover":"BKN","base":10000}],"obsTime":1774436400},"SBBE":{"icaoId":"SBBE","flightCategory":"MVFR","rawOb":"METAR SBBE 251100Z 06009KT 9999 SCT010 BKN020 OVC040 25/23 Q1012","temp":25,"dewp":23,"wdir":60,"wspd":9,"visib":"6+","altim":1012,"clouds":[{"cover":"SCT","base":1000},{"cover":"BKN","base":2000},{"cover":"OVC","base":4000}],"obsTime":1774436400},"SBBV":{"icaoId":"SBBV","flightCategory":"VFR","rawOb":"METAR SBBV 251100Z 08013KT CAVOK 26/22 Q1010","temp":26,"dewp":22,"wdir":80,"wspd":13,"visib":"6+","altim":1010,"clouds":[],"obsTime":1774436400},"SBCB":{"icaoId":"SBCB","flightCategory":"VFR","rawOb":"METAR SBCB 251100Z 08013KT CAVOK 27/23 Q1014","temp":27,"dewp":23,"wdir":80,"wspd":13,"visib":"6+","altim":1014,"clouds":[],"obsTime":1774436400},"SBCF":{"icaoId":"SBCF","flightCategory":"VFR","rawOb":"METAR SBCF 251100Z 12008KT 9999 FEW025 SCT100 22/19 Q1019","temp":22,"dewp":19,"wdir":120,"wspd":8,"visib":"6+","altim":1019,"clouds":[{"cover":"FEW","base":2500},{"cover":"SCT","base":10000}],"obsTime":1774436400},"SBCG":{"icaoId":"SBCG","flightCategory":"VFR","rawOb":"METAR SBCG 251100Z 06004KT CAVOK 23/22 Q1013","temp":23,"dewp":22,"wdir":60,"wspd":4,"visib":"6+","altim":1013,"clouds":[],"obsTime":1774436400},"SBCP":{"icaoId":"SBCP","flightCategory":"VFR","rawOb":"METAR SBCP 251100Z 04008KT 9999 FEW020 27/23 Q1016","temp":27,"dewp":23,"wdir":40,"wspd":8,"visib":"6+","altim":1016,"clouds":[{"cover":"FEW","base":2000}],"obsTime":1774436400},"SBCT":{"icaoId":"SBCT","flightCategory":"VFR","rawOb":"METAR SBCT 251100Z 13004KT CAVOK 18/17 Q1019","temp":18,"dewp":17,"wdir":130,"wspd":4,"visib":"6+","altim":1019,"clouds":[],"obsTime":1774436400},"SBCZ":{"icaoId":"SBCZ","flightCategory":"MVFR","rawOb":"METAR SBCZ 251200Z 00000KT 5000 BR NSC 25/24 Q1009","temp":25,"dewp":24,"wdir":0,"wspd":0,"visib":3.11,"altim":1009,"clouds":[],"obsTime":1774440000},"SBEG":{"icaoId":"SBEG","flightCategory":"VFR","rawOb":"METAR SBEG 251100Z 15004KT 9999 FEW010 SCT100 26/25 Q1009","temp":26,"dewp":25,"wdir":150,"wspd":4,"visib":"6+","altim":1009,"clouds":[{"cover":"FEW","base":1000},{"cover":"SCT","base":10000}],"obsTime":1774436400},"SBFI":{"icaoId":"SBFI","flightCategory":"VFR","rawOb":"METAR SBFI 251100Z 12003KT CAVOK 24/24 Q1013","temp":24,"dewp":24,"wdir":120,"wspd":3,"visib":"6+","altim":1013,"clouds":[],"obsTime":1774436400},"SBFL":{"icaoId":"SBFL","flightCategory":"VFR","rawOb":"METAR SBFL 251100Z 10006KT 9999 SCT014 BKN070 23/22 Q1015","temp":23,"dewp":22,"wdir":100,"wspd":6,"visib":"6+","altim":1015,"clouds":[{"cover":"SCT","base":1400},{"cover":"BKN","base":7000}],"obsTime":1774436400},"SBFZ":{"icaoId":"SBFZ","flightCategory":"VFR","rawOb":"METAR SBFZ 251100Z 15006KT 9999 SCT020 28/24 Q1011","temp":28,"dewp":24,"wdir":150,"wspd":6,"visib":"6+","altim":1011,"clouds":[{"cover":"SCT","base":2000}],"obsTime":1774436400},"SBGL":{"icaoId":"SBGL","flightCategory":"VFR","rawOb":"METAR SBGL 251100Z 18004KT 9999 FEW010 27/23 Q1014","temp":27,"dewp":23,"wdir":180,"wspd":4,"visib":"6+","altim":1014,"clouds":[{"cover":"FEW","base":1000}],"obsTime":1774436400},"SBGO":{"icaoId":"SBGO","flightCategory":"VFR","rawOb":"METAR SBGO 251100Z 00000KT 9999 FEW040 FEW050TCU SCT100 23/20 Q1018","temp":23,"dewp":20,"wdir":0,"wspd":0,"visib":"6+","altim":1018,"clouds":[{"cover":"FEW","base":4000},{"cover":"FEW","base":5000},{"cover":"SCT","base":10000}],"obsTime":1774436400},"SBGR":{"icaoId":"SBGR","flightCategory":"VFR","rawOb":"METAR SBGR 251100Z 05007KT CAVOK 22/19 Q1018","temp":22,"dewp":19,"wdir":50,"wspd":7,"visib":"6+","altim":1018,"clouds":[],"obsTime":1774436400},"SBHT":{"icaoId":"SBHT","flightCategory":"VFR","rawOb":"METAR SBHT 251100Z 11004KT 9999 SCT012 26/24 Q1012","temp":26,"dewp":24,"wdir":110,"wspd":4,"visib":"6+","altim":1012,"clouds":[{"cover":"SCT","base":1200}],"obsTime":1774436400},"SBIL":{"icaoId":"SBIL","flightCategory":"MVFR","rawOb":"METAR SBIL 251100Z 25003KT 8000 -RA SCT020 FEW023TCU BKN070 25/24 Q1015","temp":25,"dewp":24,"wdir":250,"wspd":3,"visib":4.97,"altim":1015,"clouds":[{"cover":"SCT","base":2000},{"cover":"FEW","base":2300},{"cover":"BKN","base":7000}],"obsTime":1774436400},"SBJU":{"icaoId":"SBJU","flightCategory":"MVFR","rawOb":"METAR SBJU 251100Z 00000KT 9999 BKN018 24/23 Q1015","temp":24,"dewp":23,"wdir":0,"wspd":0,"visib":"6+","altim":1015,"clouds":[{"cover":"BKN","base":1800}],"obsTime":1774436400},"SBKP":{"icaoId":"SBKP","flightCategory":"VFR","rawOb":"METAR SBKP 251100Z 11004KT CAVOK 23/19 Q1017","temp":23,"dewp":19,"wdir":110,"wspd":4,"visib":"6+","altim":1017,"clouds":[],"obsTime":1774436400},"SBLO":{"icaoId":"SBLO","flightCategory":"VFR","rawOb":"METAR SBLO 251100Z 15003KT CAVOK 23/19 Q1015","temp":23,"dewp":19,"wdir":150,"wspd":3,"visib":"6+","altim":1015,"clouds":[],"obsTime":1774436400},"SBMA":{"icaoId":"SBMA","flightCategory":"MVFR","rawOb":"METAR SBMA 251100Z 23003KT 5000 -RA SCT012 BKN080 24/23 Q1013","temp":24,"dewp":23,"wdir":230,"wspd":3,"visib":3.11,"altim":1013,"clouds":[{"cover":"SCT","base":1200},{"cover":"BKN","base":8000}],"obsTime":1774436400},"SBME":{"icaoId":"SBME","flightCategory":"VFR","rawOb":"METAR SBME 251100Z 06010KT CAVOK 28/22 Q1014","temp":28,"dewp":22,"wdir":60,"wspd":10,"visib":"6+","altim":1014,"clouds":[],"obsTime":1774436400},"SBMG":{"icaoId":"SBMG","flightCategory":"VFR","rawOb":"METAR SBMG 251100Z VRB02KT 9999 3500W BCFG FEW002 24/22 Q1015","temp":24,"dewp":22,"wdir":"VRB","wspd":2,"visib":"6+","altim":1015,"clouds":[{"cover":"FEW","base":200}],"obsTime":1774436400},"SBMK":{"icaoId":"SBMK","flightCategory":"VFR","rawOb":"METAR SBMK 251100Z 17003KT 9999 SCT020 BKN070 21/20 Q1018","temp":21,"dewp":20,"wdir":170,"wspd":3,"visib":"6+","altim":1018,"clouds":[{"cover":"SCT","base":2000},{"cover":"BKN","base":7000}],"obsTime":1774436400},"SBMO":{"icaoId":"SBMO","flightCategory":"VFR","rawOb":"METAR SBMO 251100Z 02003KT 9999 FEW025 28/24 Q1013","temp":28,"dewp":24,"wdir":20,"wspd":3,"visib":"6+","altim":1013,"clouds":[{"cover":"FEW","base":2500}],"obsTime":1774436400},"SBMQ":{"icaoId":"SBMQ","flightCategory":"VFR","rawOb":"METAR SBMQ 251100Z 01004KT 9999 FEW016 26/24 Q1011","temp":26,"dewp":24,"wdir":10,"wspd":4,"visib":"6+","altim":1011,"clouds":[{"cover":"FEW","base":1600}],"obsTime":1774436400},"SBNT":{"icaoId":"SBNT","flightCategory":"VFR","rawOb":"METAR SBNT 251100Z 16007KT 9999 FEW025 28/24 Q1012","temp":28,"dewp":24,"wdir":160,"wspd":7,"visib":"6+","altim":1012,"clouds":[{"cover":"FEW","base":2500}],"obsTime":1774436400},"SBPA":{"icaoId":"SBPA","flightCategory":"IFR","rawOb":"METAR SBPA 251100Z 10006KT 4000 -DZ OVC005 22/22 Q1014","temp":22,"dewp":22,"wdir":100,"wspd":6,"visib":2.49,"altim":1014,"clouds":[{"cover":"OVC","base":500}],"obsTime":1774436400},"SBPJ":{"icaoId":"SBPJ","flightCategory":"VFR","rawOb":"METAR SBPJ 251100Z 15003KT 9999 FEW012 BKN080 24/22 Q1014","temp":24,"dewp":22,"wdir":150,"wspd":3,"visib":"6+","altim":1014,"clouds":[{"cover":"FEW","base":1200},{"cover":"BKN","base":8000}],"obsTime":1774436400},"SBPV":{"icaoId":"SBPV","flightCategory":"VFR","rawOb":"METAR SBPV 251100Z 33003KT 9999 FEW030 BKN100 24/22 Q1010","temp":24,"dewp":22,"wdir":330,"wspd":3,"visib":"6+","altim":1010,"clouds":[{"cover":"FEW","base":3000},{"cover":"BKN","base":10000}],"obsTime":1774436400},"SBRB":{"icaoId":"SBRB","flightCategory":"MVFR","rawOb":"METAR SBRB 251100Z 15003KT 6000 FEW004 BKN100 23/23 Q1009","temp":23,"dewp":23,"wdir":150,"wspd":3,"visib":3.73,"altim":1009,"clouds":[{"cover":"FEW","base":400},{"cover":"BKN","base":10000}],"obsTime":1774436400},"SBRF":{"icaoId":"SBRF","flightCategory":"VFR","rawOb":"METAR SBRF 251100Z 10005KT 050V180 9999 SCT025 30/23 Q1012","temp":30,"dewp":23,"wdir":100,"wspd":5,"visib":"6+","altim":1012,"clouds":[{"cover":"SCT","base":2500}],"obsTime":1774436400},"SBSG":{"icaoId":"SBSG","flightCategory":"VFR","rawOb":"METAR SBSG 251100Z 18005KT 140V230 9999 FEW020 27/24 Q1012","temp":27,"dewp":24,"wdir":180,"wspd":5,"visib":"6+","altim":1012,"clouds":[{"cover":"FEW","base":2000}],"obsTime":1774436400},"SBSL":{"icaoId":"SBSL","flightCategory":"VFR","rawOb":"METAR SBSL 251100Z 08005KT 9999 SCT025 BKN090 28/25 Q1011","temp":28,"dewp":25,"wdir":80,"wspd":5,"visib":"6+","altim":1011,"clouds":[{"cover":"SCT","base":2500},{"cover":"BKN","base":9000}],"obsTime":1774436400},"SBSN":{"icaoId":"SBSN","flightCategory":"VFR","rawOb":"METAR SBSN 251100Z 10012KT 9999 SCT010 SCT017 27/25 Q1010","temp":27,"dewp":25,"wdir":100,"wspd":12,"visib":"6+","altim":1010,"clouds":[{"cover":"SCT","base":1000},{"cover":"SCT","base":1700}],"obsTime":1774436400},"SBSP":{"icaoId":"SBSP","flightCategory":"VFR","rawOb":"METAR SBSP 251100Z 03007KT 360V070 CAVOK 23/17 Q1019","temp":23,"dewp":17,"wdir":30,"wspd":7,"visib":"6+","altim":1019,"clouds":[],"obsTime":1774436400},"SBSV":{"icaoId":"SBSV","flightCategory":"VFR","rawOb":"METAR SBSV 251100Z 19005KT 160V230 9999 FEW028 28/24 Q1014","temp":28,"dewp":24,"wdir":190,"wspd":5,"visib":"6+","altim":1014,"clouds":[{"cover":"FEW","base":2800}],"obsTime":1774436400},"SBTE":{"icaoId":"SBTE","flightCategory":"MVFR","rawOb":"METAR SBTE 251100Z 00000KT 9999 BKN015 26/23 Q1012","temp":26,"dewp":23,"wdir":0,"wspd":0,"visib":"6+","altim":1012,"clouds":[{"cover":"BKN","base":1500}],"obsTime":1774436400},"SBUL":{"icaoId":"SBUL","flightCategory":"MVFR","rawOb":"METAR SBUL 251100Z 14004KT 6000 -RA SCT030 FEW040TCU BKN070 19/18 Q1019","temp":19,"dewp":18,"wdir":140,"wspd":4,"visib":3.73,"altim":1019,"clouds":[{"cover":"SCT","base":3000},{"cover":"FEW","base":4000},{"cover":"BKN","base":7000}],"obsTime":1774436400},"SBUR":{"icaoId":"SBUR","flightCategory":"VFR","rawOb":"METAR SBUR 251100Z 02008KT 9999 FEW030 SCT100 21/18 Q1017","temp":21,"dewp":18,"wdir":20,"wspd":8,"visib":"6+","altim":1017,"clouds":[{"cover":"FEW","base":3000},{"cover":"SCT","base":10000}],"obsTime":1774436400},"SBAT":{"icaoId":"SBAT","flightCategory":"VFR","rawOb":"METAR SBAT 251200Z 07004KT CAVOK 24/21 Q1013","temp":24,"dewp":21,"wdir":70,"wspd":4,"visib":"6+","altim":1013,"clouds":[],"obsTime":1774440000},"SBCC":{"icaoId":"SBCC","flightCategory":"VFR","rawOb":"METAR SBCC 251100Z 02006KT CAVOK 23/20 Q1013","temp":23,"dewp":20,"wdir":20,"wspd":6,"visib":"6+","altim":1013,"clouds":[],"obsTime":1774436400},"SBAR":{"icaoId":"SBAR","flightCategory":"VFR","rawOb":"METAR SBAR 251100Z 11007KT 080V170 9999 SCT023 30/23 Q1013","temp":30,"dewp":23,"wdir":110,"wspd":7,"visib":"6+","altim":1013,"clouds":[{"cover":"SCT","base":2300}],"obsTime":1774436400},"SBAX":{"icaoId":"SBAX","flightCategory":"VFR","rawOb":"METAR SBAX 251100Z 09004KT 9999 SCT030 BKN100 19/17 Q1019","temp":19,"dewp":17,"wdir":90,"wspd":4,"visib":"6+","altim":1019,"clouds":[{"cover":"SCT","base":3000},{"cover":"BKN","base":10000}],"obsTime":1774436400},"SBBH":{"icaoId":"SBBH","flightCategory":"VFR","rawOb":"METAR SBBH 251100Z 10008KT CAVOK 23/19 Q1019","temp":23,"dewp":19,"wdir":100,"wspd":8,"visib":"6+","altim":1019,"clouds":[],"obsTime":1774436400},"SBBQ":{"icaoId":"SBBQ","flightCategory":"VFR","rawOb":"METAR SBBQ 251100Z 04004KT CAVOK 20/17 Q1022","temp":20,"dewp":17,"wdir":40,"wspd":4,"visib":"6+","altim":1022,"clouds":[],"obsTime":1774436400},"SBBU":{"icaoId":"SBBU","flightCategory":"LIFR","rawOb":"METAR SBBU 251100Z 04003KT 2500 BR OVC002 22/21 Q1016","temp":22,"dewp":21,"wdir":40,"wspd":3,"visib":1.55,"altim":1016,"clouds":[{"cover":"OVC","base":200}],"obsTime":1774436400},"SBCA":{"icaoId":"SBCA","flightCategory":"VFR","rawOb":"METAR SBCA 251100Z VRB02KT 9999 SCT040 BKN070 22/19 Q1016","temp":22,"dewp":19,"wdir":"VRB","wspd":2,"visib":"6+","altim":1016,"clouds":[{"cover":"SCT","base":4000},{"cover":"BKN","base":7000}],"obsTime":1774436400},"SBCJ":{"icaoId":"SBCJ","flightCategory":"LIFR","rawOb":"METAR SBCJ 251100Z 09005KT 0800 -RA FG BKN005 OVC080 21/20 Q1016","temp":21,"dewp":20,"wdir":90,"wspd":5,"visib":0.5,"altim":1016,"clouds":[{"cover":"BKN","base":500},{"cover":"OVC","base":8000}],"obsTime":1774436400},"SBCO":{"icaoId":"SBCO","flightCategory":"LIFR","rawOb":"METAR SBCO 251100Z 09005KT 060V130 3000 -DZ BR OVC004 22/21 Q1014","temp":22,"dewp":21,"wdir":90,"wspd":5,"visib":1.86,"altim":1014,"clouds":[{"cover":"OVC","base":400}],"obsTime":1774436400},"SBDN":{"icaoId":"SBDN","flightCategory":"VFR","rawOb":"METAR SBDN 251100Z 04003KT 9999 FEW020 24/21 Q1014","temp":24,"dewp":21,"wdir":40,"wspd":3,"visib":"6+","altim":1014,"clouds":[{"cover":"FEW","base":2000}],"obsTime":1774436400},"SBES":{"icaoId":"SBES","flightCategory":"VFR","rawOb":"METAR SBES 251100Z 06011KT 020V080 CAVOK 25/// Q1014","temp":null,"dewp":null,"wdir":60,"wspd":11,"visib":"6+","altim":1014,"clouds":[],"obsTime":1774436400},"SBGM":{"icaoId":"SBGM","flightCategory":"VFR","rawOb":"METAR SBGM 251200Z 36004KT 330V030 9999 FEW006 BKN033 24/22 Q1010","temp":24,"dewp":22,"wdir":360,"wspd":4,"visib":"6+","altim":1010,"clouds":[{"cover":"FEW","base":600},{"cover":"BKN","base":3300}],"obsTime":1774440000},"SBIP":{"icaoId":"SBIP","flightCategory":"VFR","rawOb":"METAR SBIP 251100Z AUTO 00000KT 9999 FEW025 OVC035 23/22 Q1017","temp":23,"dewp":22,"wdir":0,"wspd":0,"visib":"6+","altim":1017,"clouds":[{"cover":"FEW","base":2500},{"cover":"OVC","base":3500}],"obsTime":1774436400},"SBKG":{"icaoId":"SBKG","flightCategory":"VFR","rawOb":"METAR SBKG 251100Z 12010KT 9999 SCT018 25/21 Q1015","temp":25,"dewp":21,"wdir":120,"wspd":10,"visib":"6+","altim":1015,"clouds":[{"cover":"SCT","base":1800}],"obsTime":1774436400},"SBOI":{"icaoId":"SBOI","flightCategory":"MVFR","rawOb":"METAR SBOI 251200Z AUTO VRB02KT 9999 FEW011 BKN018 BKN030 26/25 Q1012","temp":26,"dewp":25,"wdir":"VRB","wspd":2,"visib":"6+","altim":1012,"clouds":[{"cover":"FEW","base":1100},{"cover":"BKN","base":1800},{"cover":"BKN","base":3000}],"obsTime":1774440000},"SBPB":{"icaoId":"SBPB","flightCategory":"VFR","rawOb":"METAR SBPB 251100Z 14005KT 9999 FEW020 28/24 Q1011","temp":28,"dewp":24,"wdir":140,"wspd":5,"visib":"6+","altim":1011,"clouds":[{"cover":"FEW","base":2000}],"obsTime":1774436400},"SBPL":{"icaoId":"SBPL","flightCategory":"VFR","rawOb":"METAR SBPL 251100Z 14005KT 9999 SCT020 BKN070 26/22 Q1015","temp":26,"dewp":22,"wdir":140,"wspd":5,"visib":"6+","altim":1015,"clouds":[{"cover":"SCT","base":2000},{"cover":"BKN","base":7000}],"obsTime":1774436400},"SBPP":{"icaoId":"SBPP","flightCategory":"VFR","rawOb":"SPECI SBPP 251115Z 04005KT CAVOK 22/20 Q1014","temp":22,"dewp":20,"wdir":40,"wspd":5,"visib":"6+","altim":1014,"clouds":[],"obsTime":1774437300},"SBPS":{"icaoId":"SBPS","flightCategory":"VFR","rawOb":"METAR SBPS 251100Z 23003KT 9999 FEW020 SCT100 25/23 Q1016","temp":25,"dewp":23,"wdir":230,"wspd":3,"visib":"6+","altim":1016,"clouds":[{"cover":"FEW","base":2000},{"cover":"SCT","base":10000}],"obsTime":1774436400},"SBSC":{"icaoId":"SBSC","flightCategory":"VFR","rawOb":"METAR SBSC 251100Z 35006KT CAVOK 28/21 Q1014","temp":28,"dewp":21,"wdir":350,"wspd":6,"visib":"6+","altim":1014,"clouds":[],"obsTime":1774436400},"SBSJ":{"icaoId":"SBSJ","flightCategory":"VFR","rawOb":"METAR SBSJ 251100Z 04003KT 350V090 CAVOK 23/19 Q1017","temp":23,"dewp":19,"wdir":40,"wspd":3,"visib":"6+","altim":1017,"clouds":[],"obsTime":1774436400},"SBSM":{"icaoId":"SBSM","flightCategory":"VFR","rawOb":"METAR SBSM 251100Z 13005KT 9999 FEW007 BKN070 OVC100 20/19 Q1014","temp":20,"dewp":19,"wdir":130,"wspd":5,"visib":"6+","altim":1014,"clouds":[{"cover":"FEW","base":700},{"cover":"BKN","base":7000},{"cover":"OVC","base":10000}],"obsTime":1774436400},"SBSR":{"icaoId":"SBSR","flightCategory":"MVFR","rawOb":"METAR SBSR 251100Z 06004KT 6000 FEW007 22/20 Q1015","temp":22,"dewp":20,"wdir":60,"wspd":4,"visib":3.73,"altim":1015,"clouds":[{"cover":"FEW","base":700}],"obsTime":1774436400},"SBTD":{"icaoId":"SBTD","flightCategory":"VFR","rawOb":"METAR SBTD 251100Z /////KT CAVOK 23/19 Q1015","temp":23,"dewp":19,"wdir":null,"wspd":null,"visib":"6+","altim":1015,"clouds":[],"obsTime":1774436400},"SBTF":{"icaoId":"SBTF","flightCategory":"VFR","rawOb":"SPECI SBTF 251115Z 17006KT 9999 FEW005 BKN090 24/24 Q1009","temp":24,"dewp":24,"wdir":170,"wspd":6,"visib":"6+","altim":1009,"clouds":[{"cover":"FEW","base":500},{"cover":"BKN","base":9000}],"obsTime":1774437300},"SBTT":{"icaoId":"SBTT","flightCategory":"VFR","rawOb":"METAR SBTT 251100Z VRB02KT 9999 FEW005 24/23 Q1009","temp":24,"dewp":23,"wdir":"VRB","wspd":2,"visib":"6+","altim":1009,"clouds":[{"cover":"FEW","base":500}],"obsTime":1774436400},"SBUY":{"icaoId":"SBUY","flightCategory":"IFR","rawOb":"METAR SBUY 251100Z 14002KT 2000 BR SCT004 BKN070 23/23 Q1009","temp":23,"dewp":23,"wdir":140,"wspd":2,"visib":1.24,"altim":1009,"clouds":[{"cover":"SCT","base":400},{"cover":"BKN","base":7000}],"obsTime":1774436400},"SBVH":{"icaoId":"SBVH","flightCategory":"IFR","rawOb":"METAR SBVH 251100Z 05007KT 6000 VCFG SCT002 OVC005 22/22 Q1013","temp":22,"dewp":22,"wdir":50,"wspd":7,"visib":3.73,"altim":1013,"clouds":[{"cover":"SCT","base":200},{"cover":"OVC","base":500}],"obsTime":1774436400},"SBJP":{"icaoId":"SBJP","flightCategory":"VFR","rawOb":"METAR SBJP 251100Z 13004KT 080V190 9999 FEW025 28/23 Q1013","temp":28,"dewp":23,"wdir":130,"wspd":4,"visib":"6+","altim":1013,"clouds":[{"cover":"FEW","base":2500}],"obsTime":1774436400},"SBAN":{"icaoId":"SBAN","flightCategory":"VFR","rawOb":"METAR SBAN 251100Z 09005KT 9999 FEW002 FEW035TCU SCT100 19/18 Q1020","temp":19,"dewp":18,"wdir":90,"wspd":5,"visib":"6+","altim":1020,"clouds":[{"cover":"FEW","base":200},{"cover":"FEW","base":3500},{"cover":"SCT","base":10000}],"obsTime":1774436400},"SBLE":{"icaoId":"SBLE","flightCategory":"MVFR","rawOb":"METAR SBLE 251100Z AUTO VRB04KT 9999 OVC026 24/24 Q1017","temp":24,"dewp":24,"wdir":"VRB","wspd":4,"visib":"6+","altim":1017,"clouds":[{"cover":"OVC","base":2600}],"obsTime":1774436400},"SBIH":{"icaoId":"SBIH","flightCategory":"VFR","rawOb":"METAR SBIH 251100Z 08004KT CAVOK 26/24 Q1009","temp":26,"dewp":24,"wdir":80,"wspd":4,"visib":"6+","altim":1009,"clouds":[],"obsTime":1774436400},"SBJV":{"icaoId":"SBJV","flightCategory":"VFR","rawOb":"METAR SBJV 251100Z 28003KT 9999 FEW010 23/21 Q1015","temp":23,"dewp":21,"wdir":280,"wspd":3,"visib":"6+","altim":1015,"clouds":[{"cover":"FEW","base":1000}],"obsTime":1774436400},"SBPF":{"icaoId":"SBPF","flightCategory":"VFR","rawOb":"METAR SBPF 251100Z 05010KT CAVOK 22/19 Q1017","temp":22,"dewp":19,"wdir":50,"wspd":10,"visib":"6+","altim":1017,"clouds":[],"obsTime":1774436400},"SBAF":{"icaoId":"SBAF","flightCategory":"VFR","rawOb":"METAR SBAF 251100Z 22002KT CAVOK 28/25 Q1014","temp":28,"dewp":25,"wdir":220,"wspd":2,"visib":"6+","altim":1014,"clouds":[],"obsTime":1774436400},"SBGW":{"icaoId":"SBGW","flightCategory":"VFR","rawOb":"METAR SBGW 251100Z 06007KT 030V100 9999 FEW030 23/17 Q1017","temp":23,"dewp":17,"wdir":60,"wspd":7,"visib":"6+","altim":1017,"clouds":[{"cover":"FEW","base":3000}],"obsTime":1774436400},"SBJR":{"icaoId":"SBJR","flightCategory":"VFR","rawOb":"METAR SBJR 251100Z 36005KT CAVOK 29/23 Q1014","temp":29,"dewp":23,"wdir":360,"wspd":5,"visib":"6+","altim":1014,"clouds":[],"obsTime":1774436400},"SBLS":{"icaoId":"SBLS","flightCategory":"VFR","rawOb":"METAR SBLS 251100Z 14010KT 9999 FEW020 21/19 Q1019","temp":21,"dewp":19,"wdir":140,"wspd":10,"visib":"6+","altim":1019,"clouds":[{"cover":"FEW","base":2000}],"obsTime":1774436400},"SBMT":{"icaoId":"SBMT","flightCategory":"VFR","rawOb":"METAR SBMT 251100Z 05005KT 310V100 CAVOK 23/18 Q1018","temp":23,"dewp":18,"wdir":50,"wspd":5,"visib":"6+","altim":1018,"clouds":[],"obsTime":1774436400},"SBST":{"icaoId":"SBST","flightCategory":"MVFR","rawOb":"METAR SBST 251100Z 06001KT 6000 NSC 24/21 Q1014","temp":24,"dewp":21,"wdir":60,"wspd":1,"visib":3.73,"altim":1014,"clouds":[],"obsTime":1774436400},"SBTA":{"icaoId":"SBTA","flightCategory":"VFR","rawOb":"METAR SBTA 251100Z VRB02KT CAVOK 23/22 Q1017","temp":23,"dewp":22,"wdir":"VRB","wspd":2,"visib":"6+","altim":1017,"clouds":[],"obsTime":1774436400}}}