{"updated":1774329477,"count":51,"data":{"SBME":{"icaoId":"SBME","flightCategory":"VFR","rawOb":"METAR SBME 240400Z 00000KT CAVOK 22/21 Q1012","temp":22,"dewp":21,"wdir":0,"wspd":0,"visib":"6+","altim":1012,"clouds":[],"obsTime":1774324800},"SBMG":{"icaoId":"SBMG","flightCategory":"VFR","rawOb":"METAR SBMG 240400Z AUTO 14006KT CAVOK 26/21 Q1012","temp":26,"dewp":21,"wdir":140,"wspd":6,"visib":"6+","altim":1012,"clouds":[],"obsTime":1774324800},"SBFZ":{"icaoId":"SBFZ","flightCategory":"VFR","rawOb":"METAR SBFZ 240400Z 19005KT 9999 FEW020 27/24 Q1009","temp":27,"dewp":24,"wdir":190,"wspd":5,"visib":"6+","altim":1009,"clouds":[{"cover":"FEW","base":2000}],"obsTime":1774324800},"SBMO":{"icaoId":"SBMO","flightCategory":"VFR","rawOb":"METAR SBMO 240400Z 01003KT 9999 FEW018 24/23 Q1011","temp":24,"dewp":23,"wdir":10,"wspd":3,"visib":"6+","altim":1011,"clouds":[{"cover":"FEW","base":1800}],"obsTime":1774324800},"SBGL":{"icaoId":"SBGL","flightCategory":"VFR","rawOb":"METAR SBGL 240400Z 18004KT CAVOK 22/21 Q1011","temp":22,"dewp":21,"wdir":180,"wspd":4,"visib":"6+","altim":1011,"clouds":[],"obsTime":1774324800},"SBBV":{"icaoId":"SBBV","flightCategory":"VFR","rawOb":"METAR SBBV 240400Z 09003KT 9999 FEW035 FEW040TCU SCT100 27/23 Q1009","temp":27,"dewp":23,"wdir":90,"wspd":3,"visib":"6+","altim":1009,"clouds":[{"cover":"FEW","base":3500},{"cover":"FEW","base":4000},{"cover":"SCT","base":10000}],"obsTime":1774324800},"SBMQ":{"icaoId":"SBMQ","flightCategory":"VFR","rawOb":"METAR SBMQ 240400Z 07003KT 9999 SCT040 26/25 Q1010","temp":26,"dewp":25,"wdir":70,"wspd":3,"visib":"6+","altim":1010,"clouds":[{"cover":"SCT","base":4000}],"obsTime":1774324800},"SBNT":{"icaoId":"SBNT","flightCategory":"VFR","rawOb":"METAR SBNT 240400Z 15004KT 9999 FEW020 25/23 Q1010","temp":25,"dewp":23,"wdir":150,"wspd":4,"visib":"6+","altim":1010,"clouds":[{"cover":"FEW","base":2000}],"obsTime":1774324800},"SBCT":{"icaoId":"SBCT","flightCategory":"IFR","rawOb":"METAR SBCT 240400Z 12003KT 9999 BKN007 19/19 Q1016","temp":19,"dewp":19,"wdir":120,"wspd":3,"visib":"6+","altim":1016,"clouds":[{"cover":"BKN","base":700}],"obsTime":1774324800},"SBGO":{"icaoId":"SBGO","flightCategory":"VFR","rawOb":"METAR SBGO 240400Z VRB01KT CAVOK 23/18 Q1014","temp":23,"dewp":18,"wdir":"VRB","wspd":1,"visib":"6+","altim":1014,"clouds":[],"obsTime":1774324800},"SBPA":{"icaoId":"SBPA","flightCategory":"VFR","rawOb":"METAR SBPA 240400Z 16003KT 9000 -RA FEW010 BKN100 24/23 Q1007","temp":24,"dewp":23,"wdir":160,"wspd":3,"visib":5.59,"altim":1007,"clouds":[{"cover":"FEW","base":1000},{"cover":"BKN","base":10000}],"obsTime":1774324800},"SBGR":{"icaoId":"SBGR","flightCategory":"MVFR","rawOb":"METAR SBGR 240400Z 07004KT 6000 FEW013 19/17 Q1015","temp":19,"dewp":17,"wdir":70,"wspd":4,"visib":3.73,"altim":1015,"clouds":[{"cover":"FEW","base":1300}],"obsTime":1774324800},"SBPJ":{"icaoId":"SBPJ","flightCategory":"VFR","rawOb":"METAR SBPJ 240400Z 32003KT 290V350 9999 FEW025 FEW030TCU SCT080 25/22 Q1012","temp":25,"dewp":22,"wdir":320,"wspd":3,"visib":"6+","altim":1012,"clouds":[{"cover":"FEW","base":2500},{"cover":"FEW","base":3000},{"cover":"SCT","base":8000}],"obsTime":1774324800},"SBBR":{"icaoId":"SBBR","flightCategory":"VFR","rawOb":"METAR SBBR 240400Z 33004KT 310V010 9999 VCTS SCT040 FEW045CB BKN080 21/19 Q1017","temp":21,"dewp":19,"wdir":330,"wspd":4,"visib":"6+","altim":1017,"clouds":[{"cover":"SCT","base":4000},{"cover":"FEW","base":4500},{"cover":"BKN","base":8000}],"obsTime":1774324800},"SBPV":{"icaoId":"SBPV","flightCategory":"VFR","rawOb":"METAR SBPV 240400Z 32002KT CAVOK 25/23 Q1009","temp":25,"dewp":23,"wdir":320,"wspd":2,"visib":"6+","altim":1009,"clouds":[],"obsTime":1774324800},"SBBE":{"icaoId":"SBBE","flightCategory":"VFR","rawOb":"METAR SBBE 240400Z 04005KT 9999 FEW020 26/25 Q1010","temp":26,"dewp":25,"wdir":40,"wspd":5,"visib":"6+","altim":1010,"clouds":[{"cover":"FEW","base":2000}],"obsTime":1774324800},"SBRB":{"icaoId":"SBRB","flightCategory":"VFR","rawOb":"METAR SBRB 240400Z 26002KT 9999 FEW030 24/24 Q1009","temp":24,"dewp":24,"wdir":260,"wspd":2,"visib":"6+","altim":1009,"clouds":[{"cover":"FEW","base":3000}],"obsTime":1774324800},"SBEG":{"icaoId":"SBEG","flightCategory":"VFR","rawOb":"METAR SBEG 240400Z 10004KT CAVOK 27/25 Q1009","temp":27,"dewp":25,"wdir":100,"wspd":4,"visib":"6+","altim":1009,"clouds":[],"obsTime":1774324800},"SBRF":{"icaoId":"SBRF","flightCategory":"VFR","rawOb":"METAR SBRF 240400Z 09005KT 9999 SCT024 28/23 Q1010","temp":28,"dewp":23,"wdir":90,"wspd":5,"visib":"6+","altim":1010,"clouds":[{"cover":"SCT","base":2400}],"obsTime":1774324800},"SBJU":{"icaoId":"SBJU","flightCategory":"VFR","rawOb":"METAR SBJU 240400Z 00000KT 9999 FEW020 23/22 Q1012","temp":23,"dewp":22,"wdir":0,"wspd":0,"visib":"6+","altim":1012,"clouds":[{"cover":"FEW","base":2000}],"obsTime":1774324800},"SBSG":{"icaoId":"SBSG","flightCategory":"VFR","rawOb":"METAR SBSG 240400Z 21003KT 9999 FEW020 24/23 Q1010","temp":24,"dewp":23,"wdir":210,"wspd":3,"visib":"6+","altim":1010,"clouds":[{"cover":"FEW","base":2000}],"obsTime":1774324800},"SBFI":{"icaoId":"SBFI","flightCategory":"VFR","rawOb":"METAR SBFI 240400Z 08004KT 9999 -RA SCT008 SCT030 OVC070 24/24 Q1011","temp":24,"dewp":24,"wdir":80,"wspd":4,"visib":"6+","altim":1011,"clouds":[{"cover":"SCT","base":800},{"cover":"SCT","base":3000},{"cover":"OVC","base":7000}],"obsTime":1774324800},"SBSL":{"icaoId":"SBSL","flightCategory":"VFR","rawOb":"METAR SBSL 240400Z 05004KT 9999 FEW020 26/25 Q1009","temp":26,"dewp":25,"wdir":50,"wspd":4,"visib":"6+","altim":1009,"clouds":[{"cover":"FEW","base":2000}],"obsTime":1774324800},"SBKP":{"icaoId":"SBKP","flightCategory":"VFR","rawOb":"METAR SBKP 240400Z 12010KT CAVOK 21/18 Q1014","temp":21,"dewp":18,"wdir":120,"wspd":10,"visib":"6+","altim":1014,"clouds":[],"obsTime":1774324800},"SBSN":{"icaoId":"SBSN","flightCategory":"VFR","rawOb":"METAR SBSN 240400Z 17004KT 9999 FEW017 26/24 Q1009","temp":26,"dewp":24,"wdir":170,"wspd":4,"visib":"6+","altim":1009,"clouds":[{"cover":"FEW","base":1700}],"obsTime":1774324800},"SBSP":{"icaoId":"SBSP","flightCategory":"VFR","rawOb":"METAR SBSP 240400Z AUTO 12003KT 070V150 CAVOK 20/17 Q1016","temp":20,"dewp":17,"wdir":120,"wspd":3,"visib":"6+","altim":1016,"clouds":[],"obsTime":1774324800},"SBLO":{"icaoId":"SBLO","flightCategory":"VFR","rawOb":"METAR SBLO 240400Z 17002KT 9999 VCTS FEW040 FEW050CB 24/21 Q1013","temp":24,"dewp":21,"wdir":170,"wspd":2,"visib":"6+","altim":1013,"clouds":[{"cover":"FEW","base":4000},{"cover":"FEW","base":5000}],"obsTime":1774324800},"SBCF":{"icaoId":"SBCF","flightCategory":"VFR","rawOb":"METAR SBCF 240400Z 14007KT 9999 VCTS BKN040 FEW045CB 19/16 Q1017","temp":19,"dewp":16,"wdir":140,"wspd":7,"visib":"6+","altim":1017,"clouds":[{"cover":"BKN","base":4000},{"cover":"FEW","base":4500}],"obsTime":1774324800},"SBSV":{"icaoId":"SBSV","flightCategory":"VFR","rawOb":"METAR SBSV 240400Z 06006KT 9999 FEW023 27/22 Q1011","temp":27,"dewp":22,"wdir":60,"wspd":6,"visib":"6+","altim":1011,"clouds":[{"cover":"FEW","base":2300}],"obsTime":1774324800},"SBFL":{"icaoId":"SBFL","flightCategory":"VFR","rawOb":"METAR SBFL 240400Z 35010KT CAVOK 27/22 Q1011","temp":27,"dewp":22,"wdir":350,"wspd":10,"visib":"6+","altim":1011,"clouds":[],"obsTime":1774324800},"SBTE":{"icaoId":"SBTE","flightCategory":"VFR","rawOb":"METAR SBTE 240400Z 00000KT 9999 FEW015 25/24 Q1009","temp":25,"dewp":24,"wdir":0,"wspd":0,"visib":"6+","altim":1009,"clouds":[{"cover":"FEW","base":1500}],"obsTime":1774324800},"SBMA":{"icaoId":"SBMA","flightCategory":"VFR","rawOb":"METAR SBMA 240400Z 20012KT 9999 SCT020 26/23 Q1011","temp":26,"dewp":23,"wdir":200,"wspd":12,"visib":"6+","altim":1011,"clouds":[{"cover":"SCT","base":2000}],"obsTime":1774324800},"SBUL":{"icaoId":"SBUL","flightCategory":"VFR","rawOb":"METAR SBUL 240400Z 16005KT CAVOK 23/17 Q1016","temp":23,"dewp":17,"wdir":160,"wspd":5,"visib":"6+","altim":1016,"clouds":[],"obsTime":1774324800},"SBCG":{"icaoId":"SBCG","flightCategory":"VFR","rawOb":"METAR SBCG 240400Z 22001KT CAVOK 24/22 Q1012","temp":24,"dewp":22,"wdir":220,"wspd":1,"visib":"6+","altim":1012,"clouds":[],"obsTime":1774324800},"SBUR":{"icaoId":"SBUR","flightCategory":"VFR","rawOb":"METAR SBUR 240400Z 30003KT CAVOK 23/19 Q1014","temp":23,"dewp":19,"wdir":300,"wspd":3,"visib":"6+","altim":1014,"clouds":[],"obsTime":1774324800},"SBVT":{"icaoId":"SBVT","flightCategory":"VFR","rawOb":"METAR SBVT 240400Z 32003KT 9999 FEW025 BKN075 22/22 Q1013","temp":22,"dewp":22,"wdir":320,"wspd":3,"visib":"6+","altim":1013,"clouds":[{"cover":"FEW","base":2500},{"cover":"BKN","base":7500}],"obsTime":1774324800},"SBMK":{"icaoId":"SBMK","flightCategory":"MVFR","rawOb":"METAR SBMK 240400Z 23003KT 9999 BKN024 OVC080 20/19 Q1014","temp":20,"dewp":19,"wdir":230,"wspd":3,"visib":"6+","altim":1014,"clouds":[{"cover":"BKN","base":2400},{"cover":"OVC","base":8000}],"obsTime":1774324800},"SBDN":{"icaoId":"SBDN","flightCategory":"VFR","rawOb":"METAR SBDN 240400Z 12003KT CAVOK 25/20 Q1012","temp":25,"dewp":20,"wdir":120,"wspd":3,"visib":"6+","altim":1012,"clouds":[],"obsTime":1774324800},"SBOI":{"icaoId":"SBOI","flightCategory":"VFR","rawOb":"METAR SBOI 240400Z AUTO VRB02KT 9999 // FEW008/// 24/24 Q1011","temp":24,"dewp":24,"wdir":"VRB","wspd":2,"visib":"6+","altim":1011,"clouds":[{"cover":"FEW","base":800}],"obsTime":1774324800},"SBAX":{"icaoId":"SBAX","flightCategory":"VFR","rawOb":"METAR SBAX 240400Z AUTO 31002KT CAVOK 22/16 Q1016","temp":22,"dewp":16,"wdir":310,"wspd":2,"visib":"6+","altim":1016,"clouds":[],"obsTime":1774324800},"SBPL":{"icaoId":"SBPL","flightCategory":"VFR","rawOb":"METAR SBPL 240400Z 00000KT 9999 FEW020 BKN070 25/24 Q1012","temp":25,"dewp":24,"wdir":0,"wspd":0,"visib":"6+","altim":1012,"clouds":[{"cover":"FEW","base":2000},{"cover":"BKN","base":7000}],"obsTime":1774324800},"SBIP":{"icaoId":"SBIP","flightCategory":"MVFR","rawOb":"METAR SBIP 240400Z AUTO VRB06KT 9000 RA OVC025 20/19 Q1015","temp":20,"dewp":19,"wdir":"VRB","wspd":6,"visib":5.59,"altim":1015,"clouds":[{"cover":"OVC","base":2500}],"obsTime":1774324800},"SBPS":{"icaoId":"SBPS","flightCategory":"VFR","rawOb":"METAR SBPS 240400Z 34001KT 9999 FEW020 BKN100 23/23 Q1012","temp":23,"dewp":23,"wdir":340,"wspd":1,"visib":"6+","altim":1012,"clouds":[{"cover":"FEW","base":2000},{"cover":"BKN","base":10000}],"obsTime":1774324800},"SBAR":{"icaoId":"SBAR","flightCategory":"VFR","rawOb":"METAR SBAR 240400Z 07007KT 9999 SCT023 28/23 Q1010","temp":28,"dewp":23,"wdir":70,"wspd":7,"visib":"6+","altim":1010,"clouds":[{"cover":"SCT","base":2300}],"obsTime":1774324800},"SBSC":{"icaoId":"SBSC","flightCategory":"VFR","rawOb":"METAR SBSC 240400Z 04004KT CAVOK 21/20 Q1012","temp":21,"dewp":20,"wdir":40,"wspd":4,"visib":"6+","altim":1012,"clouds":[],"obsTime":1774324800},"SBKG":{"icaoId":"SBKG","flightCategory":"IFR","rawOb":"METAR SBKG 240400Z 09009KT 9999 BKN008 23/22 Q1013","temp":23,"dewp":22,"wdir":90,"wspd":9,"visib":"6+","altim":1013,"clouds":[{"cover":"BKN","base":800}],"obsTime":1774324800},"SBSR":{"icaoId":"SBSR","flightCategory":"VFR","rawOb":"METAR SBSR 240400Z 08002KT CAVOK 24/20 Q1013","temp":24,"dewp":20,"wdir":80,"wspd":2,"visib":"6+","altim":1013,"clouds":[],"obsTime":1774324800},"SBJP":{"icaoId":"SBJP","flightCategory":"VFR","rawOb":"METAR SBJP 240400Z 12002KT 9999 FEW020 25/23 Q1010","temp":25,"dewp":23,"wdir":120,"wspd":2,"visib":"6+","altim":1010,"clouds":[{"cover":"FEW","base":2000}],"obsTime":1774324800},"SBAN":{"icaoId":"SBAN","flightCategory":"VFR","rawOb":"METAR SBAN 240400Z 19006KT 9999 VCTS FEW035 FEW040CB 23/15 Q1017","temp":23,"dewp":15,"wdir":190,"wspd":6,"visib":"6+","altim":1017,"clouds":[{"cover":"FEW","base":3500},{"cover":"FEW","base":4000}],"obsTime":1774324800},"SBLE":{"icaoId":"SBLE","flightCategory":"MVFR","rawOb":"METAR SBLE 240400Z AUTO 00000KT 9999 BKN024 BKN042 ///// Q////","temp":null,"dewp":null,"wdir":0,"wspd":0,"visib":"6+","altim":null,"clouds":[{"cover":"BKN","base":2400},{"cover":"BKN","base":4200}],"obsTime":1774324800},"SBPF":{"icaoId":"SBPF","flightCategory":"LIFR","rawOb":"METAR SBPF 240400Z AUTO 03009KT 9999 OVC002 21/20 Q1013","temp":21,"dewp":20,"wdir":30,"wspd":9,"visib":"6+","altim":1013,"clouds":[{"cover":"OVC","base":200}],"obsTime":1774324800}}}