{"updated":1776606673,"count":84,"data":{"SBBE":{"icaoId":"SBBE","flightCategory":"MVFR","rawOb":"METAR SBBE 191200Z 30006KT 9999 4000S -DZ SCT009 BKN018 BKN029 26/25 Q1011","temp":26,"dewp":25,"wdir":300,"wspd":6,"visib":"6+","altim":1011,"clouds":[{"cover":"SCT","base":900},{"cover":"BKN","base":1800},{"cover":"BKN","base":2900}],"obsTime":1776600000},"SBCT":{"icaoId":"SBCT","flightCategory":"LIFR","rawOb":"METAR SBCT 191200Z 08003KT 4000 BR BKN004 17/17 Q1018","temp":17,"dewp":17,"wdir":80,"wspd":3,"visib":2.49,"altim":1018,"clouds":[{"cover":"BKN","base":400}],"obsTime":1776600000},"SBAT":{"icaoId":"SBAT","flightCategory":"VFR","rawOb":"METAR SBAT 191200Z 00000KT 9000 SCT005 BKN090 25/25 Q1013 RERA","temp":25,"dewp":25,"wdir":0,"wspd":0,"visib":5.59,"altim":1013,"clouds":[{"cover":"SCT","base":500},{"cover":"BKN","base":9000}],"obsTime":1776600000},"SBBR":{"icaoId":"SBBR","flightCategory":"VFR","rawOb":"METAR SBBR 191200Z 20001KT CAVOK 23/16 Q1018","temp":23,"dewp":16,"wdir":200,"wspd":1,"visib":"6+","altim":1018,"clouds":[],"obsTime":1776600000},"SBBV":{"icaoId":"SBBV","flightCategory":"VFR","rawOb":"METAR SBBV 191200Z 05002KT 9999 SCT006 SCT020 BKN090 26/24 Q1012","temp":26,"dewp":24,"wdir":50,"wspd":2,"visib":"6+","altim":1012,"clouds":[{"cover":"SCT","base":600},{"cover":"SCT","base":2000},{"cover":"BKN","base":9000}],"obsTime":1776600000},"SBCB":{"icaoId":"SBCB","flightCategory":"VFR","rawOb":"METAR SBCB 191200Z 26012KT 9999 FEW020 26/22 Q1012","temp":26,"dewp":22,"wdir":260,"wspd":12,"visib":"6+","altim":1012,"clouds":[{"cover":"FEW","base":2000}],"obsTime":1776600000},"SBCF":{"icaoId":"SBCF","flightCategory":"MVFR","rawOb":"METAR SBCF 191200Z 00000KT 8000 NSC 23/19 Q1017","temp":23,"dewp":19,"wdir":0,"wspd":0,"visib":4.97,"altim":1017,"clouds":[],"obsTime":1776600000},"SBCG":{"icaoId":"SBCG","flightCategory":"VFR","rawOb":"METAR SBCG 191200Z 05009KT CAVOK 28/21 Q1013","temp":28,"dewp":21,"wdir":50,"wspd":9,"visib":"6+","altim":1013,"clouds":[],"obsTime":1776600000},"SBCP":{"icaoId":"SBCP","flightCategory":"VFR","rawOb":"METAR SBCP 191200Z 26008KT 9999 FEW025 28/22 Q1011","temp":28,"dewp":22,"wdir":260,"wspd":8,"visib":"6+","altim":1011,"clouds":[{"cover":"FEW","base":2500}],"obsTime":1776600000},"SBCR":{"icaoId":"SBCR","flightCategory":"VFR","rawOb":"METAR SBCR 191200Z 06005KT CAVOK 28/23 Q1010","temp":28,"dewp":23,"wdir":60,"wspd":5,"visib":"6+","altim":1010,"clouds":[],"obsTime":1776600000},"SBCZ":{"icaoId":"SBCZ","flightCategory":"VFR","rawOb":"METAR SBCZ 191200Z 09002KT 9999 FEW006 OVC100 23/23 Q1010","temp":23,"dewp":23,"wdir":90,"wspd":2,"visib":"6+","altim":1010,"clouds":[{"cover":"FEW","base":600},{"cover":"OVC","base":10000}],"obsTime":1776600000},"SBEG":{"icaoId":"SBEG","flightCategory":"VFR","rawOb":"METAR SBEG 191200Z VRB02KT 9999 FEW008 24/23 Q1012","temp":24,"dewp":23,"wdir":"VRB","wspd":2,"visib":"6+","altim":1012,"clouds":[{"cover":"FEW","base":800}],"obsTime":1776600000},"SBFI":{"icaoId":"SBFI","flightCategory":"VFR","rawOb":"METAR SBFI 191200Z 09008KT CAVOK 22/19 Q1013","temp":22,"dewp":19,"wdir":90,"wspd":8,"visib":"6+","altim":1013,"clouds":[],"obsTime":1776600000},"SBFL":{"icaoId":"SBFL","flightCategory":"VFR","rawOb":"METAR SBFL 191200Z 26002KT 9999 FEW010 23/18 Q1013","temp":23,"dewp":18,"wdir":260,"wspd":2,"visib":"6+","altim":1013,"clouds":[{"cover":"FEW","base":1000}],"obsTime":1776600000},"SBFZ":{"icaoId":"SBFZ","flightCategory":"MVFR","rawOb":"METAR SBFZ 191200Z 18006KT 9999 BKN023 OVC100 25/24 Q1011","temp":25,"dewp":24,"wdir":180,"wspd":6,"visib":"6+","altim":1011,"clouds":[{"cover":"BKN","base":2300},{"cover":"OVC","base":10000}],"obsTime":1776600000},"SBGL":{"icaoId":"SBGL","flightCategory":"VFR","rawOb":"METAR SBGL 191200Z VRB04KT 9999 FEW023 SCT050 BKN066 27/21 Q1012","temp":27,"dewp":21,"wdir":"VRB","wspd":4,"visib":"6+","altim":1012,"clouds":[{"cover":"FEW","base":2300},{"cover":"SCT","base":5000},{"cover":"BKN","base":6600}],"obsTime":1776600000},"SBGO":{"icaoId":"SBGO","flightCategory":"VFR","rawOb":"METAR SBGO 191200Z 25002KT CAVOK 24/20 Q1016","temp":24,"dewp":20,"wdir":250,"wspd":2,"visib":"6+","altim":1016,"clouds":[],"obsTime":1776600000},"SBGR":{"icaoId":"SBGR","flightCategory":"VFR","rawOb":"METAR SBGR 191200Z 15005KT 110V180 CAVOK 22/15 Q1017","temp":22,"dewp":15,"wdir":150,"wspd":5,"visib":"6+","altim":1017,"clouds":[],"obsTime":1776600000},"SBHT":{"icaoId":"SBHT","flightCategory":"VFR","rawOb":"METAR SBHT 191200Z 29004KT 9999 FEW010 OVC080 25/23 Q1012","temp":25,"dewp":23,"wdir":290,"wspd":4,"visib":"6+","altim":1012,"clouds":[{"cover":"FEW","base":1000},{"cover":"OVC","base":8000}],"obsTime":1776600000},"SBIL":{"icaoId":"SBIL","flightCategory":"VFR","rawOb":"METAR SBIL 191200Z VRB03KT 9999 FEW023 28/24 Q1012","temp":28,"dewp":24,"wdir":"VRB","wspd":3,"visib":"6+","altim":1012,"clouds":[{"cover":"FEW","base":2300}],"obsTime":1776600000},"SBJU":{"icaoId":"SBJU","flightCategory":"MVFR","rawOb":"METAR SBJU 191200Z 00000KT 9999 SCT010 BKN020 25/23 Q1014","temp":25,"dewp":23,"wdir":0,"wspd":0,"visib":"6+","altim":1014,"clouds":[{"cover":"SCT","base":1000},{"cover":"BKN","base":2000}],"obsTime":1776600000},"SBKP":{"icaoId":"SBKP","flightCategory":"VFR","rawOb":"METAR SBKP 191200Z 12010KT CAVOK 24/15 Q1016","temp":24,"dewp":15,"wdir":120,"wspd":10,"visib":"6+","altim":1016,"clouds":[],"obsTime":1776600000},"SBLO":{"icaoId":"SBLO","flightCategory":"VFR","rawOb":"METAR SBLO 191200Z 15003KT CAVOK 22/19 Q1015","temp":22,"dewp":19,"wdir":150,"wspd":3,"visib":"6+","altim":1015,"clouds":[],"obsTime":1776600000},"SBMA":{"icaoId":"SBMA","flightCategory":"VFR","rawOb":"METAR SBMA 191200Z 22004KT 9999 -RA SCT010 OVC070 25/24 Q1013","temp":25,"dewp":24,"wdir":220,"wspd":4,"visib":"6+","altim":1013,"clouds":[{"cover":"SCT","base":1000},{"cover":"OVC","base":7000}],"obsTime":1776600000},"SBME":{"icaoId":"SBME","flightCategory":"VFR","rawOb":"METAR SBME 191200Z 24006KT 200V270 CAVOK 29/21 Q1011","temp":29,"dewp":21,"wdir":240,"wspd":6,"visib":"6+","altim":1011,"clouds":[],"obsTime":1776600000},"SBMG":{"icaoId":"SBMG","flightCategory":"VFR","rawOb":"METAR SBMG 191200Z VRB01KT CAVOK 25/21 Q1014","temp":25,"dewp":21,"wdir":"VRB","wspd":1,"visib":"6+","altim":1014,"clouds":[],"obsTime":1776600000},"SBMK":{"icaoId":"SBMK","flightCategory":"VFR","rawOb":"METAR SBMK 191200Z 12002KT CAVOK 25/17 Q1016","temp":25,"dewp":17,"wdir":120,"wspd":2,"visib":"6+","altim":1016,"clouds":[],"obsTime":1776600000},"SBMO":{"icaoId":"SBMO","flightCategory":"VFR","rawOb":"METAR SBMO 191200Z 06005KT 9999 SCT023 29/23 Q1012","temp":29,"dewp":23,"wdir":60,"wspd":5,"visib":"6+","altim":1012,"clouds":[{"cover":"SCT","base":2300}],"obsTime":1776600000},"SBMQ":{"icaoId":"SBMQ","flightCategory":"MVFR","rawOb":"METAR SBMQ 191200Z 28004KT 8000 -RA FEW010 BKN055 24/24 Q1012","temp":24,"dewp":24,"wdir":280,"wspd":4,"visib":4.97,"altim":1012,"clouds":[{"cover":"FEW","base":1000},{"cover":"BKN","base":5500}],"obsTime":1776600000},"SBNT":{"icaoId":"SBNT","flightCategory":"MVFR","rawOb":"METAR SBNT 191200Z 19004KT 9000 VCSH SCT007 BKN017 FEW030TCU BKN040 26/25 Q1011","temp":26,"dewp":25,"wdir":190,"wspd":4,"visib":5.59,"altim":1011,"clouds":[{"cover":"SCT","base":700},{"cover":"BKN","base":1700},{"cover":"FEW","base":3000},{"cover":"BKN","base":4000}],"obsTime":1776600000},"SBPA":{"icaoId":"SBPA","flightCategory":"VFR","rawOb":"METAR SBPA 191200Z 29006KT 250V320 CAVOK 19/16 Q1014","temp":19,"dewp":16,"wdir":290,"wspd":6,"visib":"6+","altim":1014,"clouds":[],"obsTime":1776600000},"SBPJ":{"icaoId":"SBPJ","flightCategory":"VFR","rawOb":"METAR SBPJ 191200Z 17008KT 9999 FEW011 FEW027TCU BKN100 25/23 Q1013","temp":25,"dewp":23,"wdir":170,"wspd":8,"visib":"6+","altim":1013,"clouds":[{"cover":"FEW","base":1100},{"cover":"FEW","base":2700},{"cover":"BKN","base":10000}],"obsTime":1776600000},"SBPV":{"icaoId":"SBPV","flightCategory":"VFR","rawOb":"METAR SBPV 191200Z 02002KT 9999 FEW030 BKN070 25/23 Q1010","temp":25,"dewp":23,"wdir":20,"wspd":2,"visib":"6+","altim":1010,"clouds":[{"cover":"FEW","base":3000},{"cover":"BKN","base":7000}],"obsTime":1776600000},"SBRB":{"icaoId":"SBRB","flightCategory":"LIFR","rawOb":"METAR SBRB 191200Z 32003KT 9000 SCT002 OVC003 24/24 Q1011","temp":24,"dewp":24,"wdir":320,"wspd":3,"visib":5.59,"altim":1011,"clouds":[{"cover":"SCT","base":200},{"cover":"OVC","base":300}],"obsTime":1776600000},"SBRF":{"icaoId":"SBRF","flightCategory":"VFR","rawOb":"METAR SBRF 191200Z 16006KT 120V200 9999 SCT021 29/24 Q1011","temp":29,"dewp":24,"wdir":160,"wspd":6,"visib":"6+","altim":1011,"clouds":[{"cover":"SCT","base":2100}],"obsTime":1776600000},"SBSG":{"icaoId":"SBSG","flightCategory":"VFR","rawOb":"METAR SBSG 191200Z 17004KT 130V210 9999 VCSH SCT004 SCT023 BKN100 25/25 Q1011","temp":25,"dewp":25,"wdir":170,"wspd":4,"visib":"6+","altim":1011,"clouds":[{"cover":"SCT","base":400},{"cover":"SCT","base":2300},{"cover":"BKN","base":10000}],"obsTime":1776600000},"SBSL":{"icaoId":"SBSL","flightCategory":"MVFR","rawOb":"METAR SBSL 191200Z 05006KT 9999 BKN015 FEW020TCU BKN080 25/24 Q1011","temp":25,"dewp":24,"wdir":50,"wspd":6,"visib":"6+","altim":1011,"clouds":[{"cover":"BKN","base":1500},{"cover":"FEW","base":2000},{"cover":"BKN","base":8000}],"obsTime":1776600000},"SBSN":{"icaoId":"SBSN","flightCategory":"VFR","rawOb":"METAR SBSN 191200Z 20002KT 9999 SCT014 BKN100 26/25 Q1011","temp":26,"dewp":25,"wdir":200,"wspd":2,"visib":"6+","altim":1011,"clouds":[{"cover":"SCT","base":1400},{"cover":"BKN","base":10000}],"obsTime":1776600000},"SBSP":{"icaoId":"SBSP","flightCategory":"VFR","rawOb":"METAR SBSP 191200Z 14006KT CAVOK 21/15 Q1016","temp":21,"dewp":15,"wdir":140,"wspd":6,"visib":"6+","altim":1016,"clouds":[],"obsTime":1776600000},"SBSV":{"icaoId":"SBSV","flightCategory":"VFR","rawOb":"METAR SBSV 191200Z 00000KT 9999 SCT018 30/25 Q1012","temp":30,"dewp":25,"wdir":0,"wspd":0,"visib":"6+","altim":1012,"clouds":[{"cover":"SCT","base":1800}],"obsTime":1776600000},"SBTE":{"icaoId":"SBTE","flightCategory":"MVFR","rawOb":"METAR SBTE 191200Z 11003KT 9999 BKN016 BKN080 26/24 Q1011","temp":26,"dewp":24,"wdir":110,"wspd":3,"visib":"6+","altim":1011,"clouds":[{"cover":"BKN","base":1600},{"cover":"BKN","base":8000}],"obsTime":1776600000},"SBUL":{"icaoId":"SBUL","flightCategory":"VFR","rawOb":"METAR SBUL 191200Z 08002KT CAVOK 25/16 Q1017","temp":25,"dewp":16,"wdir":80,"wspd":2,"visib":"6+","altim":1017,"clouds":[],"obsTime":1776600000},"SBUR":{"icaoId":"SBUR","flightCategory":"VFR","rawOb":"METAR SBUR 191200Z 36004KT CAVOK 25/17 Q1016","temp":25,"dewp":17,"wdir":360,"wspd":4,"visib":"6+","altim":1016,"clouds":[],"obsTime":1776600000},"SBVT":{"icaoId":"SBVT","flightCategory":"VFR","rawOb":"METAR SBVT 191200Z 02005KT CAVOK 28/22 Q1010","temp":28,"dewp":22,"wdir":20,"wspd":5,"visib":"6+","altim":1010,"clouds":[],"obsTime":1776600000},"SBCJ":{"icaoId":"SBCJ","flightCategory":"LIFR","rawOb":"METAR SBCJ 191200Z 00000KT 0500 FG VV001 21/21 Q1016","temp":21,"dewp":21,"wdir":0,"wspd":0,"visib":0.31,"altim":1016,"clouds":[{"cover":"OVX","base":100}],"obsTime":1776600000},"SBOI":{"icaoId":"SBOI","flightCategory":"MVFR","rawOb":"METAR SBOI 191200Z AUTO VRB02KT 9999 FEW007 BKN016 26/24 Q1011","temp":26,"dewp":24,"wdir":"VRB","wspd":2,"visib":"6+","altim":1011,"clouds":[{"cover":"FEW","base":700},{"cover":"BKN","base":1600}],"obsTime":1776600000},"SBAX":{"icaoId":"SBAX","flightCategory":"VFR","rawOb":"METAR SBAX 191200Z AUTO VRB02KT CAVOK 23/17 Q1017","temp":23,"dewp":17,"wdir":"VRB","wspd":2,"visib":"6+","altim":1017,"clouds":[],"obsTime":1776600000},"SBUY":{"icaoId":"SBUY","flightCategory":"IFR","rawOb":"METAR SBUY 191200Z 03002KT 3000 RA SCT018 OVC090 23/22 Q1011","temp":23,"dewp":22,"wdir":30,"wspd":2,"visib":1.86,"altim":1011,"clouds":[{"cover":"SCT","base":1800},{"cover":"OVC","base":9000}],"obsTime":1776600000},"SBBH":{"icaoId":"SBBH","flightCategory":"VFR","rawOb":"METAR SBBH 191200Z 14004KT CAVOK 23/18 Q1016","temp":23,"dewp":18,"wdir":140,"wspd":4,"visib":"6+","altim":1016,"clouds":[],"obsTime":1776600000},"SBTT":{"icaoId":"SBTT","flightCategory":"VFR","rawOb":"METAR SBTT 191200Z 22002KT 9999 FEW010 BKN090 23/21 Q1011","temp":23,"dewp":21,"wdir":220,"wspd":2,"visib":"6+","altim":1011,"clouds":[{"cover":"FEW","base":1000},{"cover":"BKN","base":9000}],"obsTime":1776600000},"SBBQ":{"icaoId":"SBBQ","flightCategory":"VFR","rawOb":"METAR SBBQ 191200Z 00000KT CAVOK 22/17 Q1019","temp":22,"dewp":17,"wdir":0,"wspd":0,"visib":"6+","altim":1019,"clouds":[],"obsTime":1776600000},"SBTF":{"icaoId":"SBTF","flightCategory":"VFR","rawOb":"METAR SBTF 191200Z 13002KT 9999 -RA SCT006 OVC100 25/25 Q1011","temp":25,"dewp":25,"wdir":130,"wspd":2,"visib":"6+","altim":1011,"clouds":[{"cover":"SCT","base":600},{"cover":"OVC","base":10000}],"obsTime":1776600000},"SBBU":{"icaoId":"SBBU","flightCategory":"VFR","rawOb":"METAR SBBU 191200Z 11007KT CAVOK 24/20 Q1015","temp":24,"dewp":20,"wdir":110,"wspd":7,"visib":"6+","altim":1015,"clouds":[],"obsTime":1776600000},"SBSR":{"icaoId":"SBSR","flightCategory":"MVFR","rawOb":"METAR SBSR 191200Z 04002KT 8000 NSC 26/20 Q1014","temp":26,"dewp":20,"wdir":40,"wspd":2,"visib":4.97,"altim":1014,"clouds":[],"obsTime":1776600000},"SBCA":{"icaoId":"SBCA","flightCategory":"VFR","rawOb":"METAR SBCA 191200Z 03007KT CAVOK 23/15 Q1016","temp":23,"dewp":15,"wdir":30,"wspd":7,"visib":"6+","altim":1016,"clouds":[],"obsTime":1776600000},"SBSM":{"icaoId":"SBSM","flightCategory":"VFR","rawOb":"METAR SBSM 191200Z 03003KT 010V120 9999 FEW003 18/16 Q1014","temp":18,"dewp":16,"wdir":30,"wspd":3,"visib":"6+","altim":1014,"clouds":[{"cover":"FEW","base":300}],"obsTime":1776600000},"SBCC":{"icaoId":"SBCC","flightCategory":"MVFR","rawOb":"METAR SBCC 191200Z 35006KT 9999 SCT007 BKN020 BKN080 23/22 Q1014","temp":23,"dewp":22,"wdir":350,"wspd":6,"visib":"6+","altim":1014,"clouds":[{"cover":"SCT","base":700},{"cover":"BKN","base":2000},{"cover":"BKN","base":8000}],"obsTime":1776600000},"SBKG":{"icaoId":"SBKG","flightCategory":"MVFR","rawOb":"METAR SBKG 191200Z 11006KT 9999 FEW012 BKN015 26/22 Q1014","temp":26,"dewp":22,"wdir":110,"wspd":6,"visib":"6+","altim":1014,"clouds":[{"cover":"FEW","base":1200},{"cover":"BKN","base":1500}],"obsTime":1776600000},"SBSC":{"icaoId":"SBSC","flightCategory":"MVFR","rawOb":"METAR SBSC 191200Z 30002KT 8000 FEW020 SCT040 27/22 Q1013","temp":27,"dewp":22,"wdir":300,"wspd":2,"visib":4.97,"altim":1013,"clouds":[{"cover":"FEW","base":2000},{"cover":"SCT","base":4000}],"obsTime":1776600000},"SBPS":{"icaoId":"SBPS","flightCategory":"VFR","rawOb":"METAR SBPS 191200Z 25005KT 9999 FEW020 28/24 Q1013","temp":28,"dewp":24,"wdir":250,"wspd":5,"visib":"6+","altim":1013,"clouds":[{"cover":"FEW","base":2000}],"obsTime":1776600000},"SBCO":{"icaoId":"SBCO","flightCategory":"VFR","rawOb":"METAR SBCO 191200Z 29004KT CAVOK 19/15 Q1014","temp":19,"dewp":15,"wdir":290,"wspd":4,"visib":"6+","altim":1014,"clouds":[],"obsTime":1776600000},"SBPP":{"icaoId":"SBPP","flightCategory":"VFR","rawOb":"METAR SBPP 191200Z 02009KT CAVOK 24/22 Q1014","temp":24,"dewp":22,"wdir":20,"wspd":9,"visib":"6+","altim":1014,"clouds":[],"obsTime":1776600000},"SBDN":{"icaoId":"SBDN","flightCategory":"VFR","rawOb":"METAR SBDN 191200Z 00000KT CAVOK 27/20 Q1014","temp":27,"dewp":20,"wdir":0,"wspd":0,"visib":"6+","altim":1014,"clouds":[],"obsTime":1776600000},"SBPL":{"icaoId":"SBPL","flightCategory":"VFR","rawOb":"METAR SBPL 191200Z 11009KT 9999 SCT025 28/21 Q1013","temp":28,"dewp":21,"wdir":110,"wspd":9,"visib":"6+","altim":1013,"clouds":[{"cover":"SCT","base":2500}],"obsTime":1776600000},"SBES":{"icaoId":"SBES","flightCategory":"VFR","rawOb":"METAR SBES 191200Z VRB05KT 9999 FEW015 26/// Q1012","temp":null,"dewp":null,"wdir":"VRB","wspd":5,"visib":"6+","altim":1012,"clouds":[{"cover":"FEW","base":1500}],"obsTime":1776600000},"SBPB":{"icaoId":"SBPB","flightCategory":"VFR","rawOb":"METAR SBPB 191200Z 11009KT 9999 SCT018 BKN070 27/24 Q1011","temp":27,"dewp":24,"wdir":110,"wspd":9,"visib":"6+","altim":1011,"clouds":[{"cover":"SCT","base":1800},{"cover":"BKN","base":7000}],"obsTime":1776600000},"SBGM":{"icaoId":"SBGM","flightCategory":"VFR","rawOb":"METAR SBGM 191200Z VRB02KT 9999 FEW020 24/22 Q1010","temp":24,"dewp":22,"wdir":"VRB","wspd":2,"visib":"6+","altim":1010,"clouds":[{"cover":"FEW","base":2000}],"obsTime":1776600000},"SBIP":{"icaoId":"SBIP","flightCategory":"VFR","rawOb":"METAR SBIP 191200Z AUTO 04005KT 340V090 CAVOK 26/20 Q1013","temp":26,"dewp":20,"wdir":40,"wspd":5,"visib":"6+","altim":1013,"clouds":[],"obsTime":1776600000},"SBSJ":{"icaoId":"SBSJ","flightCategory":"VFR","rawOb":"METAR SBSJ 191200Z 15003KT CAVOK 21/18 Q1016","temp":21,"dewp":18,"wdir":150,"wspd":3,"visib":"6+","altim":1016,"clouds":[],"obsTime":1776600000},"SBAR":{"icaoId":"SBAR","flightCategory":"VFR","rawOb":"METAR SBAR 191200Z 08004KT 9999 VCSH SCT020 29/25 Q1011","temp":29,"dewp":25,"wdir":80,"wspd":4,"visib":"6+","altim":1011,"clouds":[{"cover":"SCT","base":2000}],"obsTime":1776600000},"SBVH":{"icaoId":"SBVH","flightCategory":"LIFR","rawOb":"METAR SBVH 191200Z 35005KT 8000 -RA BKN003 SCT015 BKN080 22/21 Q1014","temp":22,"dewp":21,"wdir":350,"wspd":5,"visib":4.97,"altim":1014,"clouds":[{"cover":"BKN","base":300},{"cover":"SCT","base":1500},{"cover":"BKN","base":8000}],"obsTime":1776600000},"SBPF":{"icaoId":"SBPF","flightCategory":"VFR","rawOb":"METAR SBPF 191200Z 03010KT CAVOK 17/10 Q1017","temp":17,"dewp":10,"wdir":30,"wspd":10,"visib":"6+","altim":1017,"clouds":[],"obsTime":1776600000},"SBAN":{"icaoId":"SBAN","flightCategory":"VFR","rawOb":"METAR SBAN 191200Z 12003KT CAVOK 24/19 Q1019","temp":24,"dewp":19,"wdir":120,"wspd":3,"visib":"6+","altim":1019,"clouds":[],"obsTime":1776600000},"SBIH":{"icaoId":"SBIH","flightCategory":"VFR","rawOb":"METAR SBIH 191200Z 00000KT 9999 FEW011 26/23 Q1011","temp":26,"dewp":23,"wdir":0,"wspd":0,"visib":"6+","altim":1011,"clouds":[{"cover":"FEW","base":1100}],"obsTime":1776600000},"SBAF":{"icaoId":"SBAF","flightCategory":"VFR","rawOb":"METAR SBAF 191200Z 05002KT 9999 FEW030 SCT060 27/23 Q1013","temp":27,"dewp":23,"wdir":50,"wspd":2,"visib":"6+","altim":1013,"clouds":[{"cover":"FEW","base":3000},{"cover":"SCT","base":6000}],"obsTime":1776600000},"SBGW":{"icaoId":"SBGW","flightCategory":"MVFR","rawOb":"METAR SBGW 191200Z 23002KT 8000 SCT015 23/17 Q1015","temp":23,"dewp":17,"wdir":230,"wspd":2,"visib":4.97,"altim":1015,"clouds":[{"cover":"SCT","base":1500}],"obsTime":1776600000},"SBLE":{"icaoId":"SBLE","flightCategory":"LIFR","rawOb":"METAR SBLE 191200Z AUTO 18003KT 130V220 9999 BKN004 OVC018 ///// Q////","temp":null,"dewp":null,"wdir":180,"wspd":3,"visib":"6+","altim":null,"clouds":[{"cover":"BKN","base":400},{"cover":"OVC","base":1800}],"obsTime":1776600000},"SBJR":{"icaoId":"SBJR","flightCategory":"VFR","rawOb":"METAR SBJR 191200Z 26004KT 9999 FEW025 SCT060 28/22 Q1012","temp":28,"dewp":22,"wdir":260,"wspd":4,"visib":"6+","altim":1012,"clouds":[{"cover":"FEW","base":2500},{"cover":"SCT","base":6000}],"obsTime":1776600000},"SBLS":{"icaoId":"SBLS","flightCategory":"VFR","rawOb":"METAR SBLS 191200Z VRB02KT CAVOK 24/17 Q1016","temp":24,"dewp":17,"wdir":"VRB","wspd":2,"visib":"6+","altim":1016,"clouds":[],"obsTime":1776600000},"SBMT":{"icaoId":"SBMT","flightCategory":"VFR","rawOb":"METAR SBMT 191200Z 12005KT 070V160 CAVOK 22/14 Q1017","temp":22,"dewp":14,"wdir":120,"wspd":5,"visib":"6+","altim":1017,"clouds":[],"obsTime":1776600000},"SBJV":{"icaoId":"SBJV","flightCategory":"VFR","rawOb":"METAR SBJV 191200Z 00000KT 9999 FEW015 26/21 Q1014","temp":26,"dewp":21,"wdir":0,"wspd":0,"visib":"6+","altim":1014,"clouds":[{"cover":"FEW","base":1500}],"obsTime":1776600000},"SBST":{"icaoId":"SBST","flightCategory":"VFR","rawOb":"METAR SBST 191200Z 36003KT 9999 SCT025 24/22 Q1014","temp":24,"dewp":22,"wdir":360,"wspd":3,"visib":"6+","altim":1014,"clouds":[{"cover":"SCT","base":2500}],"obsTime":1776600000},"SBTA":{"icaoId":"SBTA","flightCategory":"VFR","rawOb":"METAR SBTA 191200Z 19003KT 9000 FEW020 23/18 Q1015","temp":23,"dewp":18,"wdir":190,"wspd":3,"visib":5.59,"altim":1015,"clouds":[{"cover":"FEW","base":2000}],"obsTime":1776600000},"SBJP":{"icaoId":"SBJP","flightCategory":"MVFR","rawOb":"METAR SBJP 191200Z 08004KT 9999 BKN020 25/25 Q1011 RERA","temp":25,"dewp":25,"wdir":80,"wspd":4,"visib":"6+","altim":1011,"clouds":[{"cover":"BKN","base":2000}],"obsTime":1776600000}}}