{"updated":1779601848,"count":52,"data":{"SBSP":{"icaoId":"SBSP","flightCategory":"IFR","rawOb":"SPECI SBSP 240352Z AUTO 30002KT 7000 FEW003 BKN005 17/17 Q1023","temp":17,"dewp":17,"wdir":300,"wspd":2,"visib":4.35,"altim":1023,"clouds":[{"cover":"FEW","base":300},{"cover":"BKN","base":500}],"obsTime":1779594720},"SBGL":{"icaoId":"SBGL","flightCategory":"MVFR","rawOb":"METAR SBGL 240400Z 24002KT 7000 FEW020 BKN040 21/19 Q1019","temp":21,"dewp":19,"wdir":240,"wspd":2,"visib":4.35,"altim":1019,"clouds":[{"cover":"FEW","base":2000},{"cover":"BKN","base":4000}],"obsTime":1779595200},"SBNT":{"icaoId":"SBNT","flightCategory":"VFR","rawOb":"METAR SBNT 240400Z 19005KT 9999 FEW020 23/22 Q1013","temp":23,"dewp":22,"wdir":190,"wspd":5,"visib":"6+","altim":1013,"clouds":[{"cover":"FEW","base":2000}],"obsTime":1779595200},"SBGO":{"icaoId":"SBGO","flightCategory":"VFR","rawOb":"METAR SBGO 240400Z 12003KT 9999 FEW017 20/17 Q1021","temp":20,"dewp":17,"wdir":120,"wspd":3,"visib":"6+","altim":1021,"clouds":[{"cover":"FEW","base":1700}],"obsTime":1779595200},"SBPA":{"icaoId":"SBPA","flightCategory":"VFR","rawOb":"METAR SBPA 240400Z 11004KT CAVOK 14/13 Q1023","temp":14,"dewp":13,"wdir":110,"wspd":4,"visib":"6+","altim":1023,"clouds":[],"obsTime":1779595200},"SBCT":{"icaoId":"SBCT","flightCategory":"LIFR","rawOb":"METAR SBCT 240400Z 04003KT 1200 R15/P2000 R33/P2000 BR BCFG OVC005 14/14 Q1022","temp":14,"dewp":14,"wdir":40,"wspd":3,"visib":0.75,"altim":1022,"clouds":[{"cover":"OVC","base":500}],"obsTime":1779595200},"SBPJ":{"icaoId":"SBPJ","flightCategory":"VFR","rawOb":"METAR SBPJ 240400Z 16003KT 9999 FEW020 SCT070 24/20 Q1016","temp":24,"dewp":20,"wdir":160,"wspd":3,"visib":"6+","altim":1016,"clouds":[{"cover":"FEW","base":2000},{"cover":"SCT","base":7000}],"obsTime":1779595200},"SBBR":{"icaoId":"SBBR","flightCategory":"VFR","rawOb":"METAR SBBR 240400Z 16007KT 9999 FEW033 19/18 Q1023","temp":19,"dewp":18,"wdir":160,"wspd":7,"visib":"6+","altim":1023,"clouds":[{"cover":"FEW","base":3300}],"obsTime":1779595200},"SBPV":{"icaoId":"SBPV","flightCategory":"MVFR","rawOb":"METAR SBPV 240400Z 20003KT 9999 BKN030 23/19 Q1016","temp":23,"dewp":19,"wdir":200,"wspd":3,"visib":"6+","altim":1016,"clouds":[{"cover":"BKN","base":3000}],"obsTime":1779595200},"SBGR":{"icaoId":"SBGR","flightCategory":"MVFR","rawOb":"METAR SBGR 240400Z 09003KT 6000 -RA NSC 17/17 Q1022","temp":17,"dewp":17,"wdir":90,"wspd":3,"visib":3.73,"altim":1022,"clouds":[],"obsTime":1779595200},"SBRB":{"icaoId":"SBRB","flightCategory":"MVFR","rawOb":"METAR SBRB 240400Z 19003KT 9999 BKN030 20/18 Q1017","temp":20,"dewp":18,"wdir":190,"wspd":3,"visib":"6+","altim":1017,"clouds":[{"cover":"BKN","base":3000}],"obsTime":1779595200},"SBEG":{"icaoId":"SBEG","flightCategory":"MVFR","rawOb":"METAR SBEG 240400Z 20004KT 9999 BKN010 BKN100 25/24 Q1014","temp":25,"dewp":24,"wdir":200,"wspd":4,"visib":"6+","altim":1014,"clouds":[{"cover":"BKN","base":1000},{"cover":"BKN","base":10000}],"obsTime":1779595200},"SBRF":{"icaoId":"SBRF","flightCategory":"VFR","rawOb":"METAR SBRF 240400Z 12010KT 9999 SCT020 BKN050 26/23 Q1014","temp":26,"dewp":23,"wdir":120,"wspd":10,"visib":"6+","altim":1014,"clouds":[{"cover":"SCT","base":2000},{"cover":"BKN","base":5000}],"obsTime":1779595200},"SBJU":{"icaoId":"SBJU","flightCategory":"VFR","rawOb":"METAR SBJU 240400Z 14009KT 9999 SCT020 23/18 Q1016","temp":23,"dewp":18,"wdir":140,"wspd":9,"visib":"6+","altim":1016,"clouds":[{"cover":"SCT","base":2000}],"obsTime":1779595200},"SBSG":{"icaoId":"SBSG","flightCategory":"VFR","rawOb":"METAR SBSG 240400Z 13003KT 130V210 9999 FEW023 23/22 Q1013","temp":23,"dewp":22,"wdir":130,"wspd":3,"visib":"6+","altim":1013,"clouds":[{"cover":"FEW","base":2300}],"obsTime":1779595200},"SBFI":{"icaoId":"SBFI","flightCategory":"MVFR","rawOb":"METAR SBFI 240400Z 00000KT 8000 BCFG NSC 13/13 Q1020","temp":13,"dewp":13,"wdir":0,"wspd":0,"visib":4.97,"altim":1020,"clouds":[],"obsTime":1779595200},"SBSL":{"icaoId":"SBSL","flightCategory":"VFR","rawOb":"METAR SBSL 240400Z 07002KT 9999 FEW020 SCT100 26/25 Q1012","temp":26,"dewp":25,"wdir":70,"wspd":2,"visib":"6+","altim":1012,"clouds":[{"cover":"FEW","base":2000},{"cover":"SCT","base":10000}],"obsTime":1779595200},"SBKP":{"icaoId":"SBKP","flightCategory":"IFR","rawOb":"METAR SBKP 240400Z 11002KT 4000 -RA BR FEW005 SCT025 OVC100 18/17 Q1022","temp":18,"dewp":17,"wdir":110,"wspd":2,"visib":2.49,"altim":1022,"clouds":[{"cover":"FEW","base":500},{"cover":"SCT","base":2500},{"cover":"OVC","base":10000}],"obsTime":1779595200},"SBSN":{"icaoId":"SBSN","flightCategory":"VFR","rawOb":"METAR SBSN 240400Z 19004KT 9999 FEW013 BKN100 24/23 Q1012","temp":24,"dewp":23,"wdir":190,"wspd":4,"visib":"6+","altim":1012,"clouds":[{"cover":"FEW","base":1300},{"cover":"BKN","base":10000}],"obsTime":1779595200},"SBVT":{"icaoId":"SBVT","flightCategory":"VFR","rawOb":"METAR SBVT 240400Z VRB02KT 9999 OVC040 21/20 Q1020","temp":21,"dewp":20,"wdir":"VRB","wspd":2,"visib":"6+","altim":1020,"clouds":[{"cover":"OVC","base":4000}],"obsTime":1779595200},"SBLO":{"icaoId":"SBLO","flightCategory":"IFR","rawOb":"METAR SBLO 240400Z 00000KT 4500 BR FEW003 17/17 Q1020","temp":17,"dewp":17,"wdir":0,"wspd":0,"visib":2.8,"altim":1020,"clouds":[{"cover":"FEW","base":300}],"obsTime":1779595200},"SBUR":{"icaoId":"SBUR","flightCategory":"VFR","rawOb":"METAR SBUR 240400Z 01003KT CAVOK 20/17 Q1022","temp":20,"dewp":17,"wdir":10,"wspd":3,"visib":"6+","altim":1022,"clouds":[],"obsTime":1779595200},"SBMO":{"icaoId":"SBMO","flightCategory":"VFR","rawOb":"METAR SBMO 240400Z 26003KT 9999 SCT025 SCT070 22/22 Q1015","temp":22,"dewp":22,"wdir":260,"wspd":3,"visib":"6+","altim":1015,"clouds":[{"cover":"SCT","base":2500},{"cover":"SCT","base":7000}],"obsTime":1779595200},"SBMQ":{"icaoId":"SBMQ","flightCategory":"IFR","rawOb":"METAR SBMQ 240400Z 36004KT 9999 BKN009 BKN027 25/24 Q1013","temp":25,"dewp":24,"wdir":360,"wspd":4,"visib":"6+","altim":1013,"clouds":[{"cover":"BKN","base":900},{"cover":"BKN","base":2700}],"obsTime":1779595200},"SBMG":{"icaoId":"SBMG","flightCategory":"VFR","rawOb":"METAR SBMG 240400Z AUTO 03006KT CAVOK 18/17 Q1019","temp":18,"dewp":17,"wdir":30,"wspd":6,"visib":"6+","altim":1019,"clouds":[],"obsTime":1779595200},"SBCG":{"icaoId":"SBCG","flightCategory":"VFR","rawOb":"METAR SBCG 240400Z 11008KT CAVOK 18/17 Q1019","temp":18,"dewp":17,"wdir":110,"wspd":8,"visib":"6+","altim":1019,"clouds":[],"obsTime":1779595200},"SBFZ":{"icaoId":"SBFZ","flightCategory":"MVFR","rawOb":"METAR SBFZ 240400Z 18004KT 9999 BKN020 BKN050 27/24 Q1011","temp":27,"dewp":24,"wdir":180,"wspd":4,"visib":"6+","altim":1011,"clouds":[{"cover":"BKN","base":2000},{"cover":"BKN","base":5000}],"obsTime":1779595200},"SBBV":{"icaoId":"SBBV","flightCategory":"VFR","rawOb":"METAR SBBV 240400Z 19004KT 9999 SCT009 SCT030 FEW040TCU BKN080 26/25 Q1014","temp":26,"dewp":25,"wdir":190,"wspd":4,"visib":"6+","altim":1014,"clouds":[{"cover":"SCT","base":900},{"cover":"SCT","base":3000},{"cover":"FEW","base":4000},{"cover":"BKN","base":8000}],"obsTime":1779595200},"SBCF":{"icaoId":"SBCF","flightCategory":"VFR","rawOb":"METAR SBCF 240400Z 19001KT CAVOK 17/15 Q1024","temp":17,"dewp":15,"wdir":190,"wspd":1,"visib":"6+","altim":1024,"clouds":[],"obsTime":1779595200},"SBSV":{"icaoId":"SBSV","flightCategory":"VFR","rawOb":"METAR SBSV 240400Z 12011KT 9999 FEW020 SCT023 27/23 Q1016","temp":27,"dewp":23,"wdir":120,"wspd":11,"visib":"6+","altim":1016,"clouds":[{"cover":"FEW","base":2000},{"cover":"SCT","base":2300}],"obsTime":1779595200},"SBTE":{"icaoId":"SBTE","flightCategory":"VFR","rawOb":"METAR SBTE 240400Z 03001KT 9999 SCT020 27/24 Q1012","temp":27,"dewp":24,"wdir":30,"wspd":1,"visib":"6+","altim":1012,"clouds":[{"cover":"SCT","base":2000}],"obsTime":1779595200},"SBMA":{"icaoId":"SBMA","flightCategory":"VFR","rawOb":"METAR SBMA 240400Z 00000KT CAVOK 25/24 Q1013","temp":25,"dewp":24,"wdir":0,"wspd":0,"visib":"6+","altim":1013,"clouds":[],"obsTime":1779595200},"SBUL":{"icaoId":"SBUL","flightCategory":"VFR","rawOb":"METAR SBUL 240400Z 10006KT 9999 FEW040 BKN067 19/16 Q1023","temp":19,"dewp":16,"wdir":100,"wspd":6,"visib":"6+","altim":1023,"clouds":[{"cover":"FEW","base":4000},{"cover":"BKN","base":6700}],"obsTime":1779595200},"SBBE":{"icaoId":"SBBE","flightCategory":"VFR","rawOb":"METAR SBBE 240400Z 06004KT 9999 -RA FEW007 SCT075 OVC094 25/25 Q1013","temp":25,"dewp":25,"wdir":60,"wspd":4,"visib":"6+","altim":1013,"clouds":[{"cover":"FEW","base":700},{"cover":"SCT","base":7500},{"cover":"OVC","base":9400}],"obsTime":1779595200},"SBME":{"icaoId":"SBME","flightCategory":"VFR","rawOb":"METAR SBME 240400Z 04007KT 9999 BKN043 21/18 Q1021","temp":21,"dewp":18,"wdir":40,"wspd":7,"visib":"6+","altim":1021,"clouds":[{"cover":"BKN","base":4300}],"obsTime":1779595200},"SBFL":{"icaoId":"SBFL","flightCategory":"VFR","rawOb":"METAR SBFL 240400Z 24008KT 9999 BKN046 17/15 Q1020","temp":17,"dewp":15,"wdir":240,"wspd":8,"visib":"6+","altim":1020,"clouds":[{"cover":"BKN","base":4600}],"obsTime":1779595200},"SBMK":{"icaoId":"SBMK","flightCategory":"VFR","rawOb":"METAR SBMK 240400Z 09003KT CAVOK 20/18 Q1021","temp":20,"dewp":18,"wdir":90,"wspd":3,"visib":"6+","altim":1021,"clouds":[],"obsTime":1779595200},"SBTU":{"icaoId":"SBTU","flightCategory":"VFR","rawOb":"METAR SBTU 240400Z AUTO 18002KT 9999 // NCD 25/23 Q1014","temp":25,"dewp":23,"wdir":180,"wspd":2,"visib":"6+","altim":1014,"clouds":[],"obsTime":1779595200},"SBAX":{"icaoId":"SBAX","flightCategory":"VFR","rawOb":"METAR SBAX 240400Z AUTO 12008KT 9999 FEW044 18/18 Q1023","temp":18,"dewp":18,"wdir":120,"wspd":8,"visib":"6+","altim":1023,"clouds":[{"cover":"FEW","base":4400}],"obsTime":1779595200},"SBIP":{"icaoId":"SBIP","flightCategory":"VFR","rawOb":"METAR SBIP 240400Z AUTO 01005KT 350V050 9999 SCT030 21/19 Q1021","temp":21,"dewp":19,"wdir":10,"wspd":5,"visib":"6+","altim":1021,"clouds":[{"cover":"SCT","base":3000}],"obsTime":1779595200},"SBPS":{"icaoId":"SBPS","flightCategory":"VFR","rawOb":"METAR SBPS 240400Z 15006KT 9999 SCT025 25/20 Q1019","temp":25,"dewp":20,"wdir":150,"wspd":6,"visib":"6+","altim":1019,"clouds":[{"cover":"SCT","base":2500}],"obsTime":1779595200},"SBAR":{"icaoId":"SBAR","flightCategory":"VFR","rawOb":"METAR SBAR 240400Z 11008KT 9999 FEW025 SCT050 27/22 Q1015","temp":27,"dewp":22,"wdir":110,"wspd":8,"visib":"6+","altim":1015,"clouds":[{"cover":"FEW","base":2500},{"cover":"SCT","base":5000}],"obsTime":1779595200},"SBSC":{"icaoId":"SBSC","flightCategory":"MVFR","rawOb":"METAR SBSC 240400Z 25005KT 5000 BR FEW005 BKN015 BKN050 20/19 Q1020","temp":20,"dewp":19,"wdir":250,"wspd":5,"visib":3.11,"altim":1020,"clouds":[{"cover":"FEW","base":500},{"cover":"BKN","base":1500},{"cover":"BKN","base":5000}],"obsTime":1779595200},"SBKG":{"icaoId":"SBKG","flightCategory":"VFR","rawOb":"METAR SBKG 240400Z 14007KT 9999 FEW015 21/20 Q1016","temp":21,"dewp":20,"wdir":140,"wspd":7,"visib":"6+","altim":1016,"clouds":[{"cover":"FEW","base":1500}],"obsTime":1779595200},"SBSR":{"icaoId":"SBSR","flightCategory":"VFR","rawOb":"METAR SBSR 240400Z 17006KT 9999 FEW020 BKN080 20/19 Q1020","temp":20,"dewp":19,"wdir":170,"wspd":6,"visib":"6+","altim":1020,"clouds":[{"cover":"FEW","base":2000},{"cover":"BKN","base":8000}],"obsTime":1779595200},"SBOI":{"icaoId":"SBOI","flightCategory":"LIFR","rawOb":"METAR SBOI 240400Z AUTO 27002KT 0650 // VV001 24/24 Q1014","temp":24,"dewp":24,"wdir":270,"wspd":2,"visib":0.4,"altim":1014,"clouds":[{"cover":"OVX","base":100}],"obsTime":1779595200},"SBPL":{"icaoId":"SBPL","flightCategory":"VFR","rawOb":"METAR SBPL 240400Z 08008KT 9999 SCT020 24/21 Q1016","temp":24,"dewp":21,"wdir":80,"wspd":8,"visib":"6+","altim":1016,"clouds":[{"cover":"SCT","base":2000}],"obsTime":1779595200},"SBDN":{"icaoId":"SBDN","flightCategory":"VFR","rawOb":"METAR SBDN 240400Z 00000KT CAVOK 18/17 Q1020","temp":18,"dewp":17,"wdir":0,"wspd":0,"visib":"6+","altim":1020,"clouds":[],"obsTime":1779595200},"SBJP":{"icaoId":"SBJP","flightCategory":"VFR","rawOb":"METAR SBJP 240400Z 19006KT 9999 SCT015 23/23 Q1014","temp":23,"dewp":23,"wdir":190,"wspd":6,"visib":"6+","altim":1014,"clouds":[{"cover":"SCT","base":1500}],"obsTime":1779595200},"SBAN":{"icaoId":"SBAN","flightCategory":"VFR","rawOb":"METAR SBAN 240400Z 17006KT CAVOK 17/16 Q1024","temp":17,"dewp":16,"wdir":170,"wspd":6,"visib":"6+","altim":1024,"clouds":[],"obsTime":1779595200},"SBNM":{"icaoId":"SBNM","flightCategory":"VFR","rawOb":"METAR SBNM 240400Z AUTO 10008KT CAVOK 10/09 Q1022","temp":10,"dewp":9,"wdir":100,"wspd":8,"visib":"6+","altim":1022,"clouds":[],"obsTime":1779595200},"SBLE":{"icaoId":"SBLE","flightCategory":"LIFR","rawOb":"METAR SBLE 240400Z AUTO 16005KT 120V190 9999 OVC002 ///// Q////","temp":null,"dewp":null,"wdir":160,"wspd":5,"visib":"6+","altim":null,"clouds":[{"cover":"OVC","base":200}],"obsTime":1779595200}}}