{"updated":1775052540,"count":86,"data":{"SBGR":{"icaoId":"SBGR","flightCategory":"VFR","rawOb":"SPECI SBGR 011245Z 06005KT 9999 FEW013 21/18 Q1018","temp":21,"dewp":18,"wdir":60,"wspd":5,"visib":"6+","altim":1018,"clouds":[{"cover":"FEW","base":1300}],"obsTime":1775047500},"SBBE":{"icaoId":"SBBE","flightCategory":"MVFR","rawOb":"METAR SBBE 011300Z 04010KT 9999 BKN020 30/24 Q1012","temp":30,"dewp":24,"wdir":40,"wspd":10,"visib":"6+","altim":1012,"clouds":[{"cover":"BKN","base":2000}],"obsTime":1775048400},"SBVT":{"icaoId":"SBVT","flightCategory":"VFR","rawOb":"METAR SBVT 011300Z 36006KT 9999 SCT025 29/23 Q1015","temp":29,"dewp":23,"wdir":360,"wspd":6,"visib":"6+","altim":1015,"clouds":[{"cover":"SCT","base":2500}],"obsTime":1775048400},"SBKP":{"icaoId":"SBKP","flightCategory":"VFR","rawOb":"METAR SBKP 011300Z VRB03KT 9999 FEW025 24/17 Q1017","temp":24,"dewp":17,"wdir":"VRB","wspd":3,"visib":"6+","altim":1017,"clouds":[{"cover":"FEW","base":2500}],"obsTime":1775048400},"SBTE":{"icaoId":"SBTE","flightCategory":"MVFR","rawOb":"METAR SBTE 011300Z 02005KT 9999 BKN015 29/24 Q1012","temp":29,"dewp":24,"wdir":20,"wspd":5,"visib":"6+","altim":1012,"clouds":[{"cover":"BKN","base":1500}],"obsTime":1775048400},"SBBR":{"icaoId":"SBBR","flightCategory":"VFR","rawOb":"METAR SBBR 011300Z 11003KT 020V160 9999 SCT020 SCT080 24/19 Q1019","temp":24,"dewp":19,"wdir":110,"wspd":3,"visib":"6+","altim":1019,"clouds":[{"cover":"SCT","base":2000},{"cover":"SCT","base":8000}],"obsTime":1775048400},"SBSV":{"icaoId":"SBSV","flightCategory":"VFR","rawOb":"METAR SBSV 011300Z 11008KT 9999 SCT020 BKN060 29/23 Q1014","temp":29,"dewp":23,"wdir":110,"wspd":8,"visib":"6+","altim":1014,"clouds":[{"cover":"SCT","base":2000},{"cover":"BKN","base":6000}],"obsTime":1775048400},"SBBV":{"icaoId":"SBBV","flightCategory":"VFR","rawOb":"METAR SBBV 011300Z 09012KT 9999 FEW008 SCT015 BKN070 25/23 Q1013","temp":25,"dewp":23,"wdir":90,"wspd":12,"visib":"6+","altim":1013,"clouds":[{"cover":"FEW","base":800},{"cover":"SCT","base":1500},{"cover":"BKN","base":7000}],"obsTime":1775048400},"SBSP":{"icaoId":"SBSP","flightCategory":"VFR","rawOb":"METAR SBSP 011300Z 04006KT 350V090 9999 FEW023 23/17 Q1018","temp":23,"dewp":17,"wdir":40,"wspd":6,"visib":"6+","altim":1018,"clouds":[{"cover":"FEW","base":2300}],"obsTime":1775048400},"SBCB":{"icaoId":"SBCB","flightCategory":"VFR","rawOb":"METAR SBCB 011300Z 03008KT 9999 FEW015 SCT040 27/23 Q1015","temp":27,"dewp":23,"wdir":30,"wspd":8,"visib":"6+","altim":1015,"clouds":[{"cover":"FEW","base":1500},{"cover":"SCT","base":4000}],"obsTime":1775048400},"SBCF":{"icaoId":"SBCF","flightCategory":"MVFR","rawOb":"METAR SBCF 011300Z 05006KT 9999 BKN025 BKN080 23/19 Q1019","temp":23,"dewp":19,"wdir":50,"wspd":6,"visib":"6+","altim":1019,"clouds":[{"cover":"BKN","base":2500},{"cover":"BKN","base":8000}],"obsTime":1775048400},"SBSN":{"icaoId":"SBSN","flightCategory":"VFR","rawOb":"METAR SBSN 011300Z 05004KT 360V060 9999 FEW013 SCT035 BKN100 26/24 Q1013","temp":26,"dewp":24,"wdir":50,"wspd":4,"visib":"6+","altim":1013,"clouds":[{"cover":"FEW","base":1300},{"cover":"SCT","base":3500},{"cover":"BKN","base":10000}],"obsTime":1775048400},"SBSL":{"icaoId":"SBSL","flightCategory":"VFR","rawOb":"METAR SBSL 011300Z 08010KT 9999 FEW025TCU SCT025 29/24 Q1011","temp":29,"dewp":24,"wdir":80,"wspd":10,"visib":"6+","altim":1011,"clouds":[{"cover":"FEW","base":2500},{"cover":"SCT","base":2500}],"obsTime":1775048400},"SBCG":{"icaoId":"SBCG","flightCategory":"VFR","rawOb":"METAR SBCG 011300Z 06010KT 9999 FEW035 28/19 Q1014","temp":28,"dewp":19,"wdir":60,"wspd":10,"visib":"6+","altim":1014,"clouds":[{"cover":"FEW","base":3500}],"obsTime":1775048400},"SBCP":{"icaoId":"SBCP","flightCategory":"VFR","rawOb":"METAR SBCP 011300Z 05009KT 9999 FEW030 31/23 Q1015","temp":31,"dewp":23,"wdir":50,"wspd":9,"visib":"6+","altim":1015,"clouds":[{"cover":"FEW","base":3000}],"obsTime":1775048400},"SBSG":{"icaoId":"SBSG","flightCategory":"LIFR","rawOb":"METAR SBSG 011300Z 12004KT 090V160 2000 -RA BR BKN003 BKN020 FEW023TCU 25/24 Q1013","temp":25,"dewp":24,"wdir":120,"wspd":4,"visib":1.24,"altim":1013,"clouds":[{"cover":"BKN","base":300},{"cover":"BKN","base":2000},{"cover":"FEW","base":2300}],"obsTime":1775048400},"SBRF":{"icaoId":"SBRF","flightCategory":"IFR","rawOb":"SPECI SBRF 011223Z 35003KT 4000 -TSRA BR BKN009 BKN020 FEW022CB BKN080 25/24 Q1013","temp":25,"dewp":24,"wdir":350,"wspd":3,"visib":2.49,"altim":1013,"clouds":[{"cover":"BKN","base":900},{"cover":"BKN","base":2000},{"cover":"FEW","base":2200},{"cover":"BKN","base":8000}],"obsTime":1775046180},"SBRB":{"icaoId":"SBRB","flightCategory":"MVFR","rawOb":"METAR SBRB 011300Z COR 14002KT 8000 SCT004 BKN100 25/24 Q1011","temp":25,"dewp":24,"wdir":140,"wspd":2,"visib":4.97,"altim":1011,"clouds":[{"cover":"SCT","base":400},{"cover":"BKN","base":10000}],"obsTime":1775048400},"SBCT":{"icaoId":"SBCT","flightCategory":"VFR","rawOb":"METAR SBCT 011300Z 02006KT 9999 SCT020 21/16 Q1018","temp":21,"dewp":16,"wdir":20,"wspd":6,"visib":"6+","altim":1018,"clouds":[{"cover":"SCT","base":2000}],"obsTime":1775048400},"SBPV":{"icaoId":"SBPV","flightCategory":"IFR","rawOb":"SPECI SBPV 011224Z 09003KT 9999 BKN006 SCT040 25/23 Q1012","temp":25,"dewp":23,"wdir":90,"wspd":3,"visib":"6+","altim":1012,"clouds":[{"cover":"BKN","base":600},{"cover":"SCT","base":4000}],"obsTime":1775046240},"SBCZ":{"icaoId":"SBCZ","flightCategory":"IFR","rawOb":"METAR SBCZ 011300Z 00000KT 2000 BR OVC006 23/23 Q1012","temp":23,"dewp":23,"wdir":0,"wspd":0,"visib":1.24,"altim":1012,"clouds":[{"cover":"OVC","base":600}],"obsTime":1775048400},"SBPJ":{"icaoId":"SBPJ","flightCategory":"VFR","rawOb":"METAR SBPJ 011300Z 12006KT 9999 FEW027 SCT100 30/23 Q1013","temp":30,"dewp":23,"wdir":120,"wspd":6,"visib":"6+","altim":1013,"clouds":[{"cover":"FEW","base":2700},{"cover":"SCT","base":10000}],"obsTime":1775048400},"SBEG":{"icaoId":"SBEG","flightCategory":"MVFR","rawOb":"METAR SBEG 011300Z 10007KT 5000 -RA SCT005 BKN070 24/23 Q1013","temp":24,"dewp":23,"wdir":100,"wspd":7,"visib":3.11,"altim":1013,"clouds":[{"cover":"SCT","base":500},{"cover":"BKN","base":7000}],"obsTime":1775048400},"SBFI":{"icaoId":"SBFI","flightCategory":"VFR","rawOb":"METAR SBFI 011300Z 05008KT CAVOK 26/20 Q1011","temp":26,"dewp":20,"wdir":50,"wspd":8,"visib":"6+","altim":1011,"clouds":[],"obsTime":1775048400},"SBPA":{"icaoId":"SBPA","flightCategory":"VFR","rawOb":"METAR SBPA 011300Z VRB02KT CAVOK 26/18 Q1011","temp":26,"dewp":18,"wdir":"VRB","wspd":2,"visib":"6+","altim":1011,"clouds":[],"obsTime":1775048400},"SBFL":{"icaoId":"SBFL","flightCategory":"VFR","rawOb":"METAR SBFL 011300Z 29005KT CAVOK 25/20 Q1013","temp":25,"dewp":20,"wdir":290,"wspd":5,"visib":"6+","altim":1013,"clouds":[],"obsTime":1775048400},"SBNT":{"icaoId":"SBNT","flightCategory":"IFR","rawOb":"METAR SBNT 011300Z 15006KT 3000 -RA BR BKN006 BKN020 FEW025TCU OVC090 25/24 Q1013 RETS","temp":25,"dewp":24,"wdir":150,"wspd":6,"visib":1.86,"altim":1013,"clouds":[{"cover":"BKN","base":600},{"cover":"BKN","base":2000},{"cover":"FEW","base":2500},{"cover":"OVC","base":9000}],"obsTime":1775048400},"SBFZ":{"icaoId":"SBFZ","flightCategory":"VFR","rawOb":"METAR SBFZ 011300Z 12004KT 060V180 9999 SCT020 BKN070 30/23 Q1011","temp":30,"dewp":23,"wdir":120,"wspd":4,"visib":"6+","altim":1011,"clouds":[{"cover":"SCT","base":2000},{"cover":"BKN","base":7000}],"obsTime":1775048400},"SBMQ":{"icaoId":"SBMQ","flightCategory":"VFR","rawOb":"METAR SBMQ 011300Z 25004KT 9999 -RA FEW004 BKN066 24/23 Q1012","temp":24,"dewp":23,"wdir":250,"wspd":4,"visib":"6+","altim":1012,"clouds":[{"cover":"FEW","base":400},{"cover":"BKN","base":6600}],"obsTime":1775048400},"SBGL":{"icaoId":"SBGL","flightCategory":"MVFR","rawOb":"METAR SBGL 011300Z 09004KT 8000 FEW012 BKN100 26/22 Q1014","temp":26,"dewp":22,"wdir":90,"wspd":4,"visib":4.97,"altim":1014,"clouds":[{"cover":"FEW","base":1200},{"cover":"BKN","base":10000}],"obsTime":1775048400},"SBMO":{"icaoId":"SBMO","flightCategory":"MVFR","rawOb":"SPECI SBMO 011229Z 19002KT 9999 FEW013 BKN016 BKN060 26/25 Q1013","temp":26,"dewp":25,"wdir":190,"wspd":2,"visib":"6+","altim":1013,"clouds":[{"cover":"FEW","base":1300},{"cover":"BKN","base":1600},{"cover":"BKN","base":6000}],"obsTime":1775046540},"SBMA":{"icaoId":"SBMA","flightCategory":"VFR","rawOb":"METAR SBMA 011300Z 15004KT 9999 SCT020 SCT080 28/25 Q1012","temp":28,"dewp":25,"wdir":150,"wspd":4,"visib":"6+","altim":1012,"clouds":[{"cover":"SCT","base":2000},{"cover":"SCT","base":8000}],"obsTime":1775048400},"SBGO":{"icaoId":"SBGO","flightCategory":"VFR","rawOb":"METAR SBGO 011300Z VRB01KT 9999 FEW030 26/18 Q1017","temp":26,"dewp":18,"wdir":"VRB","wspd":1,"visib":"6+","altim":1017,"clouds":[{"cover":"FEW","base":3000}],"obsTime":1775048400},"SBLO":{"icaoId":"SBLO","flightCategory":"MVFR","rawOb":"METAR SBLO 011300Z 09003KT 9999 BKN018 20/19 Q1015","temp":20,"dewp":19,"wdir":90,"wspd":3,"visib":"6+","altim":1015,"clouds":[{"cover":"BKN","base":1800}],"obsTime":1775048400},"SBIL":{"icaoId":"SBIL","flightCategory":"VFR","rawOb":"METAR SBIL 011300Z 16007KT 9999 SCT025 BKN090 30/24 Q1015","temp":30,"dewp":24,"wdir":160,"wspd":7,"visib":"6+","altim":1015,"clouds":[{"cover":"SCT","base":2500},{"cover":"BKN","base":9000}],"obsTime":1775048400},"SBJU":{"icaoId":"SBJU","flightCategory":"MVFR","rawOb":"METAR SBJU 011300Z 12005KT 9999 BKN020 27/22 Q1015","temp":27,"dewp":22,"wdir":120,"wspd":5,"visib":"6+","altim":1015,"clouds":[{"cover":"BKN","base":2000}],"obsTime":1775048400},"SBAT":{"icaoId":"SBAT","flightCategory":"VFR","rawOb":"METAR SBAT 011300Z 31005KT 9999 SCT018 27/23 Q1013","temp":27,"dewp":23,"wdir":310,"wspd":5,"visib":"6+","altim":1013,"clouds":[{"cover":"SCT","base":1800}],"obsTime":1775048400},"SBME":{"icaoId":"SBME","flightCategory":"VFR","rawOb":"METAR SBME 011300Z 04009KT CAVOK 30/23 Q1014","temp":30,"dewp":23,"wdir":40,"wspd":9,"visib":"6+","altim":1014,"clouds":[],"obsTime":1775048400},"SBMG":{"icaoId":"SBMG","flightCategory":"VFR","rawOb":"METAR SBMG 011300Z 05006KT 020V080 9999 FEW020 BKN083 22/19 Q1014","temp":22,"dewp":19,"wdir":50,"wspd":6,"visib":"6+","altim":1014,"clouds":[{"cover":"FEW","base":2000},{"cover":"BKN","base":8300}],"obsTime":1775048400},"SBMK":{"icaoId":"SBMK","flightCategory":"VFR","rawOb":"METAR SBMK 011300Z 09006KT 9999 SCT040 26/19 Q1017","temp":26,"dewp":19,"wdir":90,"wspd":6,"visib":"6+","altim":1017,"clouds":[{"cover":"SCT","base":4000}],"obsTime":1775048400},"SBUL":{"icaoId":"SBUL","flightCategory":"VFR","rawOb":"METAR SBUL 011300Z 08011KT 040V110 9999 SCT012 23/18 Q1018","temp":23,"dewp":18,"wdir":80,"wspd":11,"visib":"6+","altim":1018,"clouds":[{"cover":"SCT","base":1200}],"obsTime":1775048400},"SBUR":{"icaoId":"SBUR","flightCategory":"VFR","rawOb":"METAR SBUR 011300Z 01011KT CAVOK 25/18 Q1017","temp":25,"dewp":18,"wdir":10,"wspd":11,"visib":"6+","altim":1017,"clouds":[],"obsTime":1775048400},"SBHT":{"icaoId":"SBHT","flightCategory":"MVFR","rawOb":"METAR SBHT 011300Z 07005KT 9999 BKN015 BKN090 27/24 Q1013","temp":27,"dewp":24,"wdir":70,"wspd":5,"visib":"6+","altim":1013,"clouds":[{"cover":"BKN","base":1500},{"cover":"BKN","base":9000}],"obsTime":1775048400},"SBCR":{"icaoId":"SBCR","flightCategory":"VFR","rawOb":"METAR SBCR 011300Z 27003KT 210V320 CAVOK 31/21 Q1010","temp":31,"dewp":21,"wdir":270,"wspd":3,"visib":"6+","altim":1010,"clouds":[],"obsTime":1775048400},"SBAR":{"icaoId":"SBAR","flightCategory":"VFR","rawOb":"METAR SBAR 011300Z 11013KT 9999 SCT024 31/23 Q1013","temp":31,"dewp":23,"wdir":110,"wspd":13,"visib":"6+","altim":1013,"clouds":[{"cover":"SCT","base":2400}],"obsTime":1775048400},"SBPL":{"icaoId":"SBPL","flightCategory":"MVFR","rawOb":"METAR SBPL 011300Z 08010KT 9999 BKN025 SCT070 29/22 Q1015","temp":29,"dewp":22,"wdir":80,"wspd":10,"visib":"6+","altim":1015,"clouds":[{"cover":"BKN","base":2500},{"cover":"SCT","base":7000}],"obsTime":1775048400},"SBCJ":{"icaoId":"SBCJ","flightCategory":"VFR","rawOb":"METAR SBCJ 011300Z 00000KT 9999 SCT006 SCT013 25/22 Q1017","temp":25,"dewp":22,"wdir":0,"wspd":0,"visib":"6+","altim":1017,"clouds":[{"cover":"SCT","base":600},{"cover":"SCT","base":1300}],"obsTime":1775048400},"SBPP":{"icaoId":"SBPP","flightCategory":"VFR","rawOb":"METAR SBPP 011300Z 04008KT CAVOK 25/21 Q1014","temp":25,"dewp":21,"wdir":40,"wspd":8,"visib":"6+","altim":1014,"clouds":[],"obsTime":1775048400},"SBTD":{"icaoId":"SBTD","flightCategory":"VFR","rawOb":"METAR SBTD 011300Z /////KT 9999 FEW030 SCT080 25/19 Q1014","temp":25,"dewp":19,"wdir":null,"wspd":null,"visib":"6+","altim":1014,"clouds":[{"cover":"FEW","base":3000},{"cover":"SCT","base":8000}],"obsTime":1775048400},"SBPB":{"icaoId":"SBPB","flightCategory":"VFR","rawOb":"METAR SBPB 011300Z 09007KT 9999 SCT016 BKN090 29/25 Q1012 RETS","temp":29,"dewp":25,"wdir":90,"wspd":7,"visib":"6+","altim":1012,"clouds":[{"cover":"SCT","base":1600},{"cover":"BKN","base":9000}],"obsTime":1775048400},"SBPS":{"icaoId":"SBPS","flightCategory":"VFR","rawOb":"METAR SBPS 011300Z 10006KT 9999 SCT020 29/23 Q1015","temp":29,"dewp":23,"wdir":100,"wspd":6,"visib":"6+","altim":1015,"clouds":[{"cover":"SCT","base":2000}],"obsTime":1775048400},"SBTF":{"icaoId":"SBTF","flightCategory":"VFR","rawOb":"METAR SBTF 011300Z 29005KT 9999 FEW008 BKN035 27/23 Q1012","temp":27,"dewp":23,"wdir":290,"wspd":5,"visib":"6+","altim":1012,"clouds":[{"cover":"FEW","base":800},{"cover":"BKN","base":3500}],"obsTime":1775048400},"SBOI":{"icaoId":"SBOI","flightCategory":"VFR","rawOb":"METAR SBOI 011300Z AUTO VRB02KT 9999 SCT009 27/25 Q1012","temp":27,"dewp":25,"wdir":"VRB","wspd":2,"visib":"6+","altim":1012,"clouds":[{"cover":"SCT","base":900}],"obsTime":1775048400},"SBTT":{"icaoId":"SBTT","flightCategory":"MVFR","rawOb":"METAR SBTT 011300Z 11002KT 8000 FEW008 BKN070 25/22 Q1012","temp":25,"dewp":22,"wdir":110,"wspd":2,"visib":4.97,"altim":1012,"clouds":[{"cover":"FEW","base":800},{"cover":"BKN","base":7000}],"obsTime":1775048400},"SBUY":{"icaoId":"SBUY","flightCategory":"MVFR","rawOb":"METAR SBUY 011300Z 02003KT 9999 BKN012 OVC090 24/22 Q1011","temp":24,"dewp":22,"wdir":20,"wspd":3,"visib":"6+","altim":1011,"clouds":[{"cover":"BKN","base":1200},{"cover":"OVC","base":9000}],"obsTime":1775048400},"SBSJ":{"icaoId":"SBSJ","flightCategory":"MVFR","rawOb":"METAR SBSJ 011300Z 35003KT 310V040 8000 FEW010 BKN014 21/18 Q1017","temp":21,"dewp":18,"wdir":350,"wspd":3,"visib":4.97,"altim":1017,"clouds":[{"cover":"FEW","base":1000},{"cover":"BKN","base":1400}],"obsTime":1775048400},"SBGM":{"icaoId":"SBGM","flightCategory":"VFR","rawOb":"METAR SBGM 011300Z 25004KT 9999 SCT040 BKN074 26/23 Q1012","temp":26,"dewp":23,"wdir":250,"wspd":4,"visib":"6+","altim":1012,"clouds":[{"cover":"SCT","base":4000},{"cover":"BKN","base":7400}],"obsTime":1775048400},"SBIP":{"icaoId":"SBIP","flightCategory":"MVFR","rawOb":"METAR SBIP 011300Z AUTO 03007KT 350V060 9999 BKN026 27/21 Q1016","temp":27,"dewp":21,"wdir":30,"wspd":7,"visib":"6+","altim":1016,"clouds":[{"cover":"BKN","base":2600}],"obsTime":1775048400},"SBKG":{"icaoId":"SBKG","flightCategory":"IFR","rawOb":"METAR SBKG 011300Z 10011KT 9999 BKN005 BKN010 BKN070 24/23 Q1015","temp":24,"dewp":23,"wdir":100,"wspd":11,"visib":"6+","altim":1015,"clouds":[{"cover":"BKN","base":500},{"cover":"BKN","base":1000},{"cover":"BKN","base":7000}],"obsTime":1775048400},"SBSC":{"icaoId":"SBSC","flightCategory":"VFR","rawOb":"METAR SBSC 011300Z 35008KT 9999 FEW030 BKN070 26/22 Q1014","temp":26,"dewp":22,"wdir":350,"wspd":8,"visib":"6+","altim":1014,"clouds":[{"cover":"FEW","base":3000},{"cover":"BKN","base":7000}],"obsTime":1775048400},"SBSM":{"icaoId":"SBSM","flightCategory":"VFR","rawOb":"METAR SBSM 011300Z 09004KT CAVOK 25/21 Q1010","temp":25,"dewp":21,"wdir":90,"wspd":4,"visib":"6+","altim":1010,"clouds":[],"obsTime":1775048400},"SBSR":{"icaoId":"SBSR","flightCategory":"VFR","rawOb":"METAR SBSR 011300Z 04006KT CAVOK 25/19 Q1015","temp":25,"dewp":19,"wdir":40,"wspd":6,"visib":"6+","altim":1015,"clouds":[],"obsTime":1775048400},"SBVH":{"icaoId":"SBVH","flightCategory":"VFR","rawOb":"METAR SBVH 011300Z 11007KT 9999 FEW006 SCT030 25/20 Q1015","temp":25,"dewp":20,"wdir":110,"wspd":7,"visib":"6+","altim":1015,"clouds":[{"cover":"FEW","base":600},{"cover":"SCT","base":3000}],"obsTime":1775048400},"SBAU":{"icaoId":"SBAU","flightCategory":"VFR","rawOb":"METAR SBAU 011300Z 03006KT CAVOK 27/19 Q1014","temp":27,"dewp":19,"wdir":30,"wspd":6,"visib":"6+","altim":1014,"clouds":[],"obsTime":1775048400},"SBAX":{"icaoId":"SBAX","flightCategory":"VFR","rawOb":"METAR SBAX 011300Z 06006KT 9999 SCT016 SCT030 22/19 Q1019","temp":22,"dewp":19,"wdir":60,"wspd":6,"visib":"6+","altim":1019,"clouds":[{"cover":"SCT","base":1600},{"cover":"SCT","base":3000}],"obsTime":1775048400},"SBBH":{"icaoId":"SBBH","flightCategory":"MVFR","rawOb":"METAR SBBH 011300Z 07006KT 9999 BKN023 SCT100 23/19 Q1019","temp":23,"dewp":19,"wdir":70,"wspd":6,"visib":"6+","altim":1019,"clouds":[{"cover":"BKN","base":2300},{"cover":"SCT","base":10000}],"obsTime":1775048400},"SBBQ":{"icaoId":"SBBQ","flightCategory":"MVFR","rawOb":"METAR SBBQ 011300Z 03007KT 340V060 9999 BKN017 BKN035 22/18 Q1022","temp":22,"dewp":18,"wdir":30,"wspd":7,"visib":"6+","altim":1022,"clouds":[{"cover":"BKN","base":1700},{"cover":"BKN","base":3500}],"obsTime":1775048400},"SBBU":{"icaoId":"SBBU","flightCategory":"VFR","rawOb":"METAR SBBU 011300Z 04006KT 9999 SCT020 BKN070 24/20 Q1016","temp":24,"dewp":20,"wdir":40,"wspd":6,"visib":"6+","altim":1016,"clouds":[{"cover":"SCT","base":2000},{"cover":"BKN","base":7000}],"obsTime":1775048400},"SBCA":{"icaoId":"SBCA","flightCategory":"VFR","rawOb":"METAR SBCA 011300Z 02013KT 9999 FEW040 SCT100 23/18 Q1015","temp":23,"dewp":18,"wdir":20,"wspd":13,"visib":"6+","altim":1015,"clouds":[{"cover":"FEW","base":4000},{"cover":"SCT","base":10000}],"obsTime":1775048400},"SBCC":{"icaoId":"SBCC","flightCategory":"VFR","rawOb":"METAR SBCC 011300Z 28004KT 9999 SCT025 SCT100 26/22 Q1014","temp":26,"dewp":22,"wdir":280,"wspd":4,"visib":"6+","altim":1014,"clouds":[{"cover":"SCT","base":2500},{"cover":"SCT","base":10000}],"obsTime":1775048400},"SBCO":{"icaoId":"SBCO","flightCategory":"VFR","rawOb":"METAR SBCO 011300Z 12003KT CAVOK 26/18 Q1012","temp":26,"dewp":18,"wdir":120,"wspd":3,"visib":"6+","altim":1012,"clouds":[],"obsTime":1775048400},"SBDN":{"icaoId":"SBDN","flightCategory":"VFR","rawOb":"METAR SBDN 011300Z 03006KT CAVOK 25/19 Q1014","temp":25,"dewp":19,"wdir":30,"wspd":6,"visib":"6+","altim":1014,"clouds":[],"obsTime":1775048400},"SBES":{"icaoId":"SBES","flightCategory":"VFR","rawOb":"METAR SBES 011300Z 05007KT 360V070 CAVOK 25/// Q1014","temp":null,"dewp":null,"wdir":50,"wspd":7,"visib":"6+","altim":1014,"clouds":[],"obsTime":1775048400},"SBJP":{"icaoId":"SBJP","flightCategory":"IFR","rawOb":"METAR SBJP 011300Z 12005KT 050V210 3000 -RA BKN008 BKN025 24/23 Q1013","temp":24,"dewp":23,"wdir":120,"wspd":5,"visib":1.86,"altim":1013,"clouds":[{"cover":"BKN","base":800},{"cover":"BKN","base":2500}],"obsTime":1775048400},"SBIH":{"icaoId":"SBIH","flightCategory":"MVFR","rawOb":"METAR SBIH 011300Z 30003KT 5000 BR SCT010 OVC080 25/24 Q1013","temp":25,"dewp":24,"wdir":300,"wspd":3,"visib":3.11,"altim":1013,"clouds":[{"cover":"SCT","base":1000},{"cover":"OVC","base":8000}],"obsTime":1775048400},"SBJV":{"icaoId":"SBJV","flightCategory":"VFR","rawOb":"METAR SBJV 011300Z 00000KT 9999 SCT015 BKN080 25/22 Q1014","temp":25,"dewp":22,"wdir":0,"wspd":0,"visib":"6+","altim":1014,"clouds":[{"cover":"SCT","base":1500},{"cover":"BKN","base":8000}],"obsTime":1775048400},"SBPF":{"icaoId":"SBPF","flightCategory":"VFR","rawOb":"METAR SBPF 011300Z 04008KT CAVOK 23/15 Q1014","temp":23,"dewp":15,"wdir":40,"wspd":8,"visib":"6+","altim":1014,"clouds":[],"obsTime":1775048400},"SBLE":{"icaoId":"SBLE","flightCategory":"MVFR","rawOb":"METAR SBLE 011300Z AUTO 12004KT 080V160 9999 SCT020 BKN029 BKN037 25/24 Q1017","temp":25,"dewp":24,"wdir":120,"wspd":4,"visib":"6+","altim":1017,"clouds":[{"cover":"SCT","base":2000},{"cover":"BKN","base":2900},{"cover":"BKN","base":3700}],"obsTime":1775048400},"SBAF":{"icaoId":"SBAF","flightCategory":"VFR","rawOb":"METAR SBAF 011300Z 24002KT 9999 FEW025 28/23 Q1014","temp":28,"dewp":23,"wdir":240,"wspd":2,"visib":"6+","altim":1014,"clouds":[{"cover":"FEW","base":2500}],"obsTime":1775048400},"SBGW":{"icaoId":"SBGW","flightCategory":"VFR","rawOb":"METAR SBGW 011300Z 03004KT 9999 FEW018 BKN100 25/17 Q1016","temp":25,"dewp":17,"wdir":30,"wspd":4,"visib":"6+","altim":1016,"clouds":[{"cover":"FEW","base":1800},{"cover":"BKN","base":10000}],"obsTime":1775048400},"SBJR":{"icaoId":"SBJR","flightCategory":"VFR","rawOb":"METAR SBJR 011300Z 36002KT 9999 FEW040 BKN100 33/22 Q1013","temp":33,"dewp":22,"wdir":360,"wspd":2,"visib":"6+","altim":1013,"clouds":[{"cover":"FEW","base":4000},{"cover":"BKN","base":10000}],"obsTime":1775048400},"SBLS":{"icaoId":"SBLS","flightCategory":"VFR","rawOb":"METAR SBLS 011300Z VRB04KT 9999 SCT020 23/19 Q1019","temp":23,"dewp":19,"wdir":"VRB","wspd":4,"visib":"6+","altim":1019,"clouds":[{"cover":"SCT","base":2000}],"obsTime":1775048400},"SBMT":{"icaoId":"SBMT","flightCategory":"VFR","rawOb":"METAR SBMT 011300Z 05005KT 020V110 9999 FEW015 22/18 Q1017","temp":22,"dewp":18,"wdir":50,"wspd":5,"visib":"6+","altim":1017,"clouds":[{"cover":"FEW","base":1500}],"obsTime":1775048400},"SBST":{"icaoId":"SBST","flightCategory":"VFR","rawOb":"METAR SBST 011300Z 03003KT 9999 FEW020 25/21 Q1014","temp":25,"dewp":21,"wdir":30,"wspd":3,"visib":"6+","altim":1014,"clouds":[{"cover":"FEW","base":2000}],"obsTime":1775048400},"SBTA":{"icaoId":"SBTA","flightCategory":"MVFR","rawOb":"METAR SBTA 011300Z VRB02KT 9999 BKN014 BKN090 21/21 Q1016","temp":21,"dewp":21,"wdir":"VRB","wspd":2,"visib":"6+","altim":1016,"clouds":[{"cover":"BKN","base":1400},{"cover":"BKN","base":9000}],"obsTime":1775048400},"SBAN":{"icaoId":"SBAN","flightCategory":"VFR","rawOb":"METAR SBAN 011300Z 20002KT 9999 SCT040 SCT100 24/18 Q1019","temp":24,"dewp":18,"wdir":200,"wspd":2,"visib":"6+","altim":1019,"clouds":[{"cover":"SCT","base":4000},{"cover":"SCT","base":10000}],"obsTime":1775048400}}}