{"updated":1782215379,"count":84,"data":{"SBFI":{"icaoId":"SBFI","flightCategory":"IFR","rawOb":"METAR SBFI 231000Z 36001KT 4000 BCFG SCT003 05/05 Q1020","temp":5,"dewp":5,"wdir":360,"wspd":1,"visib":2.49,"altim":1020,"clouds":[{"cover":"SCT","base":300}],"obsTime":1782208800},"SBGR":{"icaoId":"SBGR","flightCategory":"MVFR","rawOb":"METAR SBGR 231000Z 29004KT 5000 HZ BKN035 19/14 Q1018","temp":19,"dewp":14,"wdir":290,"wspd":4,"visib":3.11,"altim":1018,"clouds":[{"cover":"BKN","base":3500}],"obsTime":1782208800},"SBBR":{"icaoId":"SBBR","flightCategory":"VFR","rawOb":"METAR SBBR 231000Z 00000KT CAVOK 15/13 Q1021","temp":15,"dewp":13,"wdir":0,"wspd":0,"visib":"6+","altim":1021,"clouds":[],"obsTime":1782208800},"SBPV":{"icaoId":"SBPV","flightCategory":"MVFR","rawOb":"METAR SBPV 231000Z 00000KT 8000 FEW035 24/23 Q1013","temp":24,"dewp":23,"wdir":0,"wspd":0,"visib":4.97,"altim":1013,"clouds":[{"cover":"FEW","base":3500}],"obsTime":1782208800},"SBBE":{"icaoId":"SBBE","flightCategory":"VFR","rawOb":"METAR SBBE 231000Z 07006KT CAVOK 26/24 Q1012","temp":26,"dewp":24,"wdir":70,"wspd":6,"visib":"6+","altim":1012,"clouds":[],"obsTime":1782208800},"SBBV":{"icaoId":"SBBV","flightCategory":"VFR","rawOb":"METAR SBBV 231000Z 14002KT 9999 FEW040 FEW045TCU BKN080 26/23 Q1012","temp":26,"dewp":23,"wdir":140,"wspd":2,"visib":"6+","altim":1012,"clouds":[{"cover":"FEW","base":4000},{"cover":"FEW","base":4500},{"cover":"BKN","base":8000}],"obsTime":1782208800},"SBCB":{"icaoId":"SBCB","flightCategory":"VFR","rawOb":"METAR SBCB 231000Z /////KT CAVOK 20/19 Q1013","temp":20,"dewp":19,"wdir":null,"wspd":null,"visib":"6+","altim":1013,"clouds":[],"obsTime":1782208800},"SBCF":{"icaoId":"SBCF","flightCategory":"VFR","rawOb":"METAR SBCF 231000Z VRB02KT 9000 NSC 14/13 Q1020","temp":14,"dewp":13,"wdir":"VRB","wspd":2,"visib":5.59,"altim":1020,"clouds":[],"obsTime":1782208800},"SBCG":{"icaoId":"SBCG","flightCategory":"IFR","rawOb":"METAR SBCG 231000Z 13010KT 9999 BKN007 12/10 Q1018","temp":12,"dewp":10,"wdir":130,"wspd":10,"visib":"6+","altim":1018,"clouds":[{"cover":"BKN","base":700}],"obsTime":1782208800},"SBCP":{"icaoId":"SBCP","flightCategory":"VFR","rawOb":"METAR SBCP 231000Z 03007KT CAVOK 18/17 Q1015","temp":18,"dewp":17,"wdir":30,"wspd":7,"visib":"6+","altim":1015,"clouds":[],"obsTime":1782208800},"SBCR":{"icaoId":"SBCR","flightCategory":"VFR","rawOb":"METAR SBCR 231100Z 21008KT 180V250 9999 FEW015 OVC050 15/12 Q1019","temp":15,"dewp":12,"wdir":210,"wspd":8,"visib":"6+","altim":1019,"clouds":[{"cover":"FEW","base":1500},{"cover":"OVC","base":5000}],"obsTime":1782212400},"SBCT":{"icaoId":"SBCT","flightCategory":"MVFR","rawOb":"METAR SBCT 231000Z 23007KT 9999 FEW009 BKN014 BKN020 11/09 Q1017","temp":11,"dewp":9,"wdir":230,"wspd":7,"visib":"6+","altim":1017,"clouds":[{"cover":"FEW","base":900},{"cover":"BKN","base":1400},{"cover":"BKN","base":2000}],"obsTime":1782208800},"SBEG":{"icaoId":"SBEG","flightCategory":"VFR","rawOb":"METAR SBEG 231000Z 05002KT CAVOK 25/24 Q1012","temp":25,"dewp":24,"wdir":50,"wspd":2,"visib":"6+","altim":1012,"clouds":[],"obsTime":1782208800},"SBFL":{"icaoId":"SBFL","flightCategory":"VFR","rawOb":"METAR SBFL 231000Z 07003KT 360V120 9999 FEW010 BKN032 13/10 Q1015","temp":13,"dewp":10,"wdir":70,"wspd":3,"visib":"6+","altim":1015,"clouds":[{"cover":"FEW","base":1000},{"cover":"BKN","base":3200}],"obsTime":1782208800},"SBFZ":{"icaoId":"SBFZ","flightCategory":"VFR","rawOb":"METAR SBFZ 231000Z 17006KT 9999 SCT020 BKN060 26/24 Q1013","temp":26,"dewp":24,"wdir":170,"wspd":6,"visib":"6+","altim":1013,"clouds":[{"cover":"SCT","base":2000},{"cover":"BKN","base":6000}],"obsTime":1782208800},"SBGL":{"icaoId":"SBGL","flightCategory":"MVFR","rawOb":"METAR SBGL 231000Z 05003KT 6000 NSC 17/16 Q1013","temp":17,"dewp":16,"wdir":50,"wspd":3,"visib":3.73,"altim":1013,"clouds":[],"obsTime":1782208800},"SBGO":{"icaoId":"SBGO","flightCategory":"VFR","rawOb":"METAR SBGO 231000Z 31002KT CAVOK 16/15 Q1019","temp":16,"dewp":15,"wdir":310,"wspd":2,"visib":"6+","altim":1019,"clouds":[],"obsTime":1782208800},"SBHT":{"icaoId":"SBHT","flightCategory":"VFR","rawOb":"METAR SBHT 231000Z 23001KT CAVOK 23/23 Q1012","temp":23,"dewp":23,"wdir":230,"wspd":1,"visib":"6+","altim":1012,"clouds":[],"obsTime":1782208800},"SBIL":{"icaoId":"SBIL","flightCategory":"VFR","rawOb":"METAR SBIL 231000Z 29005KT CAVOK 20/19 Q1018","temp":20,"dewp":19,"wdir":290,"wspd":5,"visib":"6+","altim":1018,"clouds":[],"obsTime":1782208800},"SBJU":{"icaoId":"SBJU","flightCategory":"VFR","rawOb":"METAR SBJU 231000Z 00000KT 9999 FEW020 22/18 Q1017","temp":22,"dewp":18,"wdir":0,"wspd":0,"visib":"6+","altim":1017,"clouds":[{"cover":"FEW","base":2000}],"obsTime":1782208800},"SBKP":{"icaoId":"SBKP","flightCategory":"IFR","rawOb":"METAR SBKP 231000Z 00000KT 2500 RA BR SCT010 OVC020 16/15 Q1017 RERA","temp":16,"dewp":15,"wdir":0,"wspd":0,"visib":1.55,"altim":1017,"clouds":[{"cover":"SCT","base":1000},{"cover":"OVC","base":2000}],"obsTime":1782208800},"SBLO":{"icaoId":"SBLO","flightCategory":"MVFR","rawOb":"METAR SBLO 231000Z 25004KT 9999 FEW005 BKN023 14/13 Q1016","temp":14,"dewp":13,"wdir":250,"wspd":4,"visib":"6+","altim":1016,"clouds":[{"cover":"FEW","base":500},{"cover":"BKN","base":2300}],"obsTime":1782208800},"SBMA":{"icaoId":"SBMA","flightCategory":"VFR","rawOb":"METAR SBMA 231000Z 00000KT CAVOK 24/23 Q1013","temp":24,"dewp":23,"wdir":0,"wspd":0,"visib":"6+","altim":1013,"clouds":[],"obsTime":1782208800},"SBME":{"icaoId":"SBME","flightCategory":"VFR","rawOb":"METAR SBME 231000Z 03007KT CAVOK 18/16 Q1013","temp":18,"dewp":16,"wdir":30,"wspd":7,"visib":"6+","altim":1013,"clouds":[],"obsTime":1782208800},"SBMG":{"icaoId":"SBMG","flightCategory":"VFR","rawOb":"METAR SBMG 231000Z 23007KT 9999 FEW001 BKN100 11/10 Q1017","temp":11,"dewp":10,"wdir":230,"wspd":7,"visib":"6+","altim":1017,"clouds":[{"cover":"FEW","base":100},{"cover":"BKN","base":10000}],"obsTime":1782208800},"SBMK":{"icaoId":"SBMK","flightCategory":"VFR","rawOb":"METAR SBMK 231000Z 22002KT CAVOK 13/12 Q1019","temp":13,"dewp":12,"wdir":220,"wspd":2,"visib":"6+","altim":1019,"clouds":[],"obsTime":1782208800},"SBMO":{"icaoId":"SBMO","flightCategory":"MVFR","rawOb":"METAR SBMO 231000Z 36002KT 9999 BKN018 FEW020TCU 22/22 Q1016","temp":22,"dewp":22,"wdir":360,"wspd":2,"visib":"6+","altim":1016,"clouds":[{"cover":"BKN","base":1800},{"cover":"FEW","base":2000}],"obsTime":1782208800},"SBMQ":{"icaoId":"SBMQ","flightCategory":"VFR","rawOb":"METAR SBMQ 231000Z 28002KT 9999 SCT013 SCT050 25/25 Q1013","temp":25,"dewp":25,"wdir":280,"wspd":2,"visib":"6+","altim":1013,"clouds":[{"cover":"SCT","base":1300},{"cover":"SCT","base":5000}],"obsTime":1782208800},"SBNT":{"icaoId":"SBNT","flightCategory":"MVFR","rawOb":"METAR SBNT 231000Z 18006KT 9999 -RA SCT013 BKN024 BKN050 24/22 Q1014","temp":24,"dewp":22,"wdir":180,"wspd":6,"visib":"6+","altim":1014,"clouds":[{"cover":"SCT","base":1300},{"cover":"BKN","base":2400},{"cover":"BKN","base":5000}],"obsTime":1782208800},"SBPA":{"icaoId":"SBPA","flightCategory":"VFR","rawOb":"METAR SBPA 231000Z 27009KT CAVOK 07/06 Q1018","temp":7,"dewp":6,"wdir":270,"wspd":9,"visib":"6+","altim":1018,"clouds":[],"obsTime":1782208800},"SBPJ":{"icaoId":"SBPJ","flightCategory":"VFR","rawOb":"METAR SBPJ 231000Z 13005KT CAVOK 20/16 Q1014","temp":20,"dewp":16,"wdir":130,"wspd":5,"visib":"6+","altim":1014,"clouds":[],"obsTime":1782208800},"SBAT":{"icaoId":"SBAT","flightCategory":"MVFR","rawOb":"METAR SBAT 231100Z 00000KT 8000 NSC 25/23 Q1014","temp":25,"dewp":23,"wdir":0,"wspd":0,"visib":4.97,"altim":1014,"clouds":[],"obsTime":1782212400},"SBRB":{"icaoId":"SBRB","flightCategory":"VFR","rawOb":"METAR SBRB 231000Z 00000KT CAVOK 23/22 Q1013","temp":23,"dewp":22,"wdir":0,"wspd":0,"visib":"6+","altim":1013,"clouds":[],"obsTime":1782208800},"SBRF":{"icaoId":"SBRF","flightCategory":"MVFR","rawOb":"METAR SBRF 231000Z 21005KT 9999 BKN017 BKN060 24/23 Q1015","temp":24,"dewp":23,"wdir":210,"wspd":5,"visib":"6+","altim":1015,"clouds":[{"cover":"BKN","base":1700},{"cover":"BKN","base":6000}],"obsTime":1782208800},"SBSG":{"icaoId":"SBSG","flightCategory":"MVFR","rawOb":"METAR SBSG 231000Z 17004KT 140V210 9999 SCT005 BKN014 BKN040 24/23 Q1014","temp":24,"dewp":23,"wdir":170,"wspd":4,"visib":"6+","altim":1014,"clouds":[{"cover":"SCT","base":500},{"cover":"BKN","base":1400},{"cover":"BKN","base":4000}],"obsTime":1782208800},"SBSL":{"icaoId":"SBSL","flightCategory":"VFR","rawOb":"METAR SBSL 231000Z 10007KT 9999 FEW020 27/25 Q1012","temp":27,"dewp":25,"wdir":100,"wspd":7,"visib":"6+","altim":1012,"clouds":[{"cover":"FEW","base":2000}],"obsTime":1782208800},"SBSN":{"icaoId":"SBSN","flightCategory":"VFR","rawOb":"METAR SBSN 231000Z VRB02KT 9999 FEW012 23/23 Q1012","temp":23,"dewp":23,"wdir":"VRB","wspd":2,"visib":"6+","altim":1012,"clouds":[{"cover":"FEW","base":1200}],"obsTime":1782208800},"SBSP":{"icaoId":"SBSP","flightCategory":"VFR","rawOb":"METAR SBSP 231000Z 01007KT 9999 BKN036 17/16 Q1018","temp":17,"dewp":16,"wdir":10,"wspd":7,"visib":"6+","altim":1018,"clouds":[{"cover":"BKN","base":3600}],"obsTime":1782208800},"SBSV":{"icaoId":"SBSV","flightCategory":"VFR","rawOb":"METAR SBSV 231000Z 28003KT 9999 SCT030 22/21 Q1017","temp":22,"dewp":21,"wdir":280,"wspd":3,"visib":"6+","altim":1017,"clouds":[{"cover":"SCT","base":3000}],"obsTime":1782208800},"SBTE":{"icaoId":"SBTE","flightCategory":"IFR","rawOb":"METAR SBTE 231000Z 30002KT 9999 BKN006 25/23 Q1012","temp":25,"dewp":23,"wdir":300,"wspd":2,"visib":"6+","altim":1012,"clouds":[{"cover":"BKN","base":600}],"obsTime":1782208800},"SBUL":{"icaoId":"SBUL","flightCategory":"VFR","rawOb":"METAR SBUL 231000Z 09007KT 9999 SCT040 BKN080 18/12 Q1020","temp":18,"dewp":12,"wdir":90,"wspd":7,"visib":"6+","altim":1020,"clouds":[{"cover":"SCT","base":4000},{"cover":"BKN","base":8000}],"obsTime":1782208800},"SBUR":{"icaoId":"SBUR","flightCategory":"VFR","rawOb":"METAR SBUR 231000Z 02002KT CAVOK 19/13 Q1019","temp":19,"dewp":13,"wdir":20,"wspd":2,"visib":"6+","altim":1019,"clouds":[],"obsTime":1782208800},"SBVT":{"icaoId":"SBVT","flightCategory":"VFR","rawOb":"METAR SBVT 231000Z 00000KT CAVOK 18/17 Q1017","temp":18,"dewp":17,"wdir":0,"wspd":0,"visib":"6+","altim":1017,"clouds":[],"obsTime":1782208800},"SBTF":{"icaoId":"SBTF","flightCategory":"VFR","rawOb":"SPECI SBTF 231115Z 00000KT 9999 FEW007 BKN080 25/25 Q1013","temp":25,"dewp":25,"wdir":0,"wspd":0,"visib":"6+","altim":1013,"clouds":[{"cover":"FEW","base":700},{"cover":"BKN","base":8000}],"obsTime":1782213300},"SBPP":{"icaoId":"SBPP","flightCategory":"MVFR","rawOb":"SPECI SBPP 231115Z 17011KT 9999 SCT005 BKN015 08/07 Q1019","temp":8,"dewp":7,"wdir":170,"wspd":11,"visib":"6+","altim":1019,"clouds":[{"cover":"SCT","base":500},{"cover":"BKN","base":1500}],"obsTime":1782213300},"SBOI":{"icaoId":"SBOI","flightCategory":"IFR","rawOb":"METAR SBOI 231000Z AUTO 00000KT 3900 BR VV002 23/23 Q1013","temp":23,"dewp":23,"wdir":0,"wspd":0,"visib":2.42,"altim":1013,"clouds":[{"cover":"OVX","base":200}],"obsTime":1782208800},"SBIP":{"icaoId":"SBIP","flightCategory":"LIFR","rawOb":"METAR SBIP 231000Z AUTO VRB01KT 0400 FG VV001 14/14 Q1019","temp":14,"dewp":14,"wdir":"VRB","wspd":1,"visib":0.25,"altim":1019,"clouds":[{"cover":"OVX","base":100}],"obsTime":1782208800},"SBVH":{"icaoId":"SBVH","flightCategory":"VFR","rawOb":"METAR SBVH 231100Z 21007KT CAVOK 21/20 Q1017","temp":21,"dewp":20,"wdir":210,"wspd":7,"visib":"6+","altim":1017,"clouds":[],"obsTime":1782212400},"SBCA":{"icaoId":"SBCA","flightCategory":"LIFR","rawOb":"METAR SBCA 231000Z 18009KT 4000 BR BCFG FEW001 BKN003 06/06 Q1018","temp":6,"dewp":6,"wdir":180,"wspd":9,"visib":2.49,"altim":1018,"clouds":[{"cover":"FEW","base":100},{"cover":"BKN","base":300}],"obsTime":1782208800},"SBCC":{"icaoId":"SBCC","flightCategory":"VFR","rawOb":"METAR SBCC 231100Z 02004KT CAVOK 23/20 Q1015","temp":23,"dewp":20,"wdir":20,"wspd":4,"visib":"6+","altim":1015,"clouds":[],"obsTime":1782212400},"SBPL":{"icaoId":"SBPL","flightCategory":"VFR","rawOb":"METAR SBPL 231000Z 11007KT CAVOK 21/16 Q1017","temp":21,"dewp":16,"wdir":110,"wspd":7,"visib":"6+","altim":1017,"clouds":[],"obsTime":1782208800},"SBAR":{"icaoId":"SBAR","flightCategory":"IFR","rawOb":"METAR SBAR 231000Z 25004KT 190V300 4000 -RA SCT007 OVC013 23/22 Q1016","temp":23,"dewp":22,"wdir":250,"wspd":4,"visib":2.49,"altim":1016,"clouds":[{"cover":"SCT","base":700},{"cover":"OVC","base":1300}],"obsTime":1782208800},"SBAX":{"icaoId":"SBAX","flightCategory":"VFR","rawOb":"METAR SBAX 231000Z 13006KT CAVOK 15/13 Q1020","temp":15,"dewp":13,"wdir":130,"wspd":6,"visib":"6+","altim":1020,"clouds":[],"obsTime":1782208800},"SBBH":{"icaoId":"SBBH","flightCategory":"VFR","rawOb":"METAR SBBH 231000Z 00000KT CAVOK 13/12 Q1020","temp":13,"dewp":12,"wdir":0,"wspd":0,"visib":"6+","altim":1020,"clouds":[],"obsTime":1782208800},"SBBU":{"icaoId":"SBBU","flightCategory":"VFR","rawOb":"METAR SBBU 231000Z 01003KT 9999 BKN045 BKN070 19/19 Q1016","temp":19,"dewp":19,"wdir":10,"wspd":3,"visib":"6+","altim":1016,"clouds":[{"cover":"BKN","base":4500},{"cover":"BKN","base":7000}],"obsTime":1782208800},"SBCJ":{"icaoId":"SBCJ","flightCategory":"VFR","rawOb":"SPECI SBCJ 231015Z 00000KT CAVOK 22/20 Q1017","temp":22,"dewp":20,"wdir":0,"wspd":0,"visib":"6+","altim":1017,"clouds":[],"obsTime":1782209700},"SBCO":{"icaoId":"SBCO","flightCategory":"VFR","rawOb":"METAR SBCO 231000Z 29006KT CAVOK 06/04 Q1018","temp":6,"dewp":4,"wdir":290,"wspd":6,"visib":"6+","altim":1018,"clouds":[],"obsTime":1782208800},"SBDN":{"icaoId":"SBDN","flightCategory":"LIFR","rawOb":"METAR SBDN 231000Z 26008KT 0800 FG OVC002 13/13 Q1017","temp":13,"dewp":13,"wdir":260,"wspd":8,"visib":0.5,"altim":1017,"clouds":[{"cover":"OVC","base":200}],"obsTime":1782208800},"SBES":{"icaoId":"SBES","flightCategory":"VFR","rawOb":"METAR SBES 231000Z 01003KT 330V040 9000 NSC 17/// Q1013","temp":null,"dewp":null,"wdir":10,"wspd":3,"visib":5.59,"altim":1013,"clouds":[],"obsTime":1782208800},"SBKG":{"icaoId":"SBKG","flightCategory":"VFR","rawOb":"METAR SBKG 231000Z 11006KT 9999 FEW012 SCT080 21/20 Q1017","temp":21,"dewp":20,"wdir":110,"wspd":6,"visib":"6+","altim":1017,"clouds":[{"cover":"FEW","base":1200},{"cover":"SCT","base":8000}],"obsTime":1782208800},"SBPB":{"icaoId":"SBPB","flightCategory":"VFR","rawOb":"SPECI SBPB 231015Z 11008KT 9999 FEW020 27/24 Q1012","temp":27,"dewp":24,"wdir":110,"wspd":8,"visib":"6+","altim":1012,"clouds":[{"cover":"FEW","base":2000}],"obsTime":1782209700},"SBPS":{"icaoId":"SBPS","flightCategory":"VFR","rawOb":"METAR SBPS 231000Z 27005KT 9999 FEW025 19/18 Q1018","temp":19,"dewp":18,"wdir":270,"wspd":5,"visib":"6+","altim":1018,"clouds":[{"cover":"FEW","base":2500}],"obsTime":1782208800},"SBSC":{"icaoId":"SBSC","flightCategory":"VFR","rawOb":"METAR SBSC 231000Z 01008KT CAVOK 22/16 Q1013","temp":22,"dewp":16,"wdir":10,"wspd":8,"visib":"6+","altim":1013,"clouds":[],"obsTime":1782208800},"SBSJ":{"icaoId":"SBSJ","flightCategory":"VFR","rawOb":"METAR SBSJ 231000Z VRB01KT CAVOK 16/14 Q1017","temp":16,"dewp":14,"wdir":"VRB","wspd":1,"visib":"6+","altim":1017,"clouds":[],"obsTime":1782208800},"SBSM":{"icaoId":"SBSM","flightCategory":"VFR","rawOb":"METAR SBSM 231000Z 28004KT CAVOK 06/04 Q1020","temp":6,"dewp":4,"wdir":280,"wspd":4,"visib":"6+","altim":1020,"clouds":[],"obsTime":1782208800},"SBSR":{"icaoId":"SBSR","flightCategory":"LIFR","rawOb":"METAR SBSR 231000Z 00000KT 1500 -DZ BR BKN010 OVC040 20/19 Q1017","temp":20,"dewp":19,"wdir":0,"wspd":0,"visib":0.93,"altim":1017,"clouds":[{"cover":"BKN","base":1000},{"cover":"OVC","base":4000}],"obsTime":1782208800},"SBTD":{"icaoId":"SBTD","flightCategory":"VFR","rawOb":"METAR SBTD 231100Z /////KT 9999 SCT004 SCT025 BKN080 08/07 Q1019","temp":8,"dewp":7,"wdir":null,"wspd":null,"visib":"6+","altim":1019,"clouds":[{"cover":"SCT","base":400},{"cover":"SCT","base":2500},{"cover":"BKN","base":8000}],"obsTime":1782212400},"SBTT":{"icaoId":"SBTT","flightCategory":"VFR","rawOb":"METAR SBTT 231100Z 00000KT 9999 FEW004 SCT100 24/23 Q1013","temp":24,"dewp":23,"wdir":0,"wspd":0,"visib":"6+","altim":1013,"clouds":[{"cover":"FEW","base":400},{"cover":"SCT","base":10000}],"obsTime":1782212400},"SBTU":{"icaoId":"SBTU","flightCategory":"VFR","rawOb":"METAR SBTU 231000Z AUTO 19005KT 9999 // FEW008/// ///// Q1015","temp":null,"dewp":null,"wdir":190,"wspd":5,"visib":"6+","altim":1015,"clouds":[{"cover":"FEW","base":800}],"obsTime":1782208800},"SBUY":{"icaoId":"SBUY","flightCategory":"MVFR","rawOb":"METAR SBUY 231100Z 00000KT 5000 BR SCT020 BKN080 24/23 Q1012","temp":24,"dewp":23,"wdir":0,"wspd":0,"visib":3.11,"altim":1012,"clouds":[{"cover":"SCT","base":2000},{"cover":"BKN","base":8000}],"obsTime":1782212400},"SBJV":{"icaoId":"SBJV","flightCategory":"VFR","rawOb":"METAR SBJV 231000Z 19004KT 9999 FEW010 BKN050 16/11 Q1015","temp":16,"dewp":11,"wdir":190,"wspd":4,"visib":"6+","altim":1015,"clouds":[{"cover":"FEW","base":1000},{"cover":"BKN","base":5000}],"obsTime":1782208800},"SBNM":{"icaoId":"SBNM","flightCategory":"VFR","rawOb":"METAR SBNM 231000Z AUTO 24004KT 9999 SCT023 05/05 Q1020","temp":5,"dewp":5,"wdir":240,"wspd":4,"visib":"6+","altim":1020,"clouds":[{"cover":"SCT","base":2300}],"obsTime":1782208800},"SBPF":{"icaoId":"SBPF","flightCategory":"LIFR","rawOb":"METAR SBPF 231000Z 25006KT 0900 FG VV001 03/03 Q1018","temp":3,"dewp":3,"wdir":250,"wspd":6,"visib":0.56,"altim":1018,"clouds":[{"cover":"OVX","base":100}],"obsTime":1782208800},"SBIH":{"icaoId":"SBIH","flightCategory":"VFR","rawOb":"METAR SBIH 231100Z 00000KT 9999 2000NE BCFG FEW005 25/25 Q1013","temp":25,"dewp":25,"wdir":0,"wspd":0,"visib":"6+","altim":1013,"clouds":[{"cover":"FEW","base":500}],"obsTime":1782212400},"SBAF":{"icaoId":"SBAF","flightCategory":"VFR","rawOb":"METAR SBAF 231000Z VRB02KT CAVOK 16/16 Q1013","temp":16,"dewp":16,"wdir":"VRB","wspd":2,"visib":"6+","altim":1013,"clouds":[],"obsTime":1782208800},"SBGW":{"icaoId":"SBGW","flightCategory":"VFR","rawOb":"METAR SBGW 231000Z VRB02KT CAVOK 15/11 Q1016","temp":15,"dewp":11,"wdir":"VRB","wspd":2,"visib":"6+","altim":1016,"clouds":[],"obsTime":1782208800},"SBJR":{"icaoId":"SBJR","flightCategory":"VFR","rawOb":"METAR SBJR 231000Z 01007KT CAVOK 22/16 Q1012","temp":22,"dewp":16,"wdir":10,"wspd":7,"visib":"6+","altim":1012,"clouds":[],"obsTime":1782208800},"SBLS":{"icaoId":"SBLS","flightCategory":"VFR","rawOb":"METAR SBLS 231000Z 18006KT CAVOK 15/13 Q1020","temp":15,"dewp":13,"wdir":180,"wspd":6,"visib":"6+","altim":1020,"clouds":[],"obsTime":1782208800},"SBMT":{"icaoId":"SBMT","flightCategory":"IFR","rawOb":"METAR SBMT 231000Z 35001KT 3500 -DZ BR BKN030 OVC070 16/16 Q1017","temp":16,"dewp":16,"wdir":350,"wspd":1,"visib":2.17,"altim":1017,"clouds":[{"cover":"BKN","base":3000},{"cover":"OVC","base":7000}],"obsTime":1782208800},"SBST":{"icaoId":"SBST","flightCategory":"MVFR","rawOb":"METAR SBST 231100Z 26004KT 8000 BKN027 OVC035 20/17 Q1015","temp":20,"dewp":17,"wdir":260,"wspd":4,"visib":4.97,"altim":1015,"clouds":[{"cover":"BKN","base":2700},{"cover":"OVC","base":3500}],"obsTime":1782212400},"SBTA":{"icaoId":"SBTA","flightCategory":"VFR","rawOb":"METAR SBTA 231000Z 06002KT 9999 FEW020 SCT100 13/12 Q1016","temp":13,"dewp":12,"wdir":60,"wspd":2,"visib":"6+","altim":1016,"clouds":[{"cover":"FEW","base":2000},{"cover":"SCT","base":10000}],"obsTime":1782208800},"SBAN":{"icaoId":"SBAN","flightCategory":"VFR","rawOb":"METAR SBAN 231000Z 04002KT CAVOK 14/13 Q1021","temp":14,"dewp":13,"wdir":40,"wspd":2,"visib":"6+","altim":1021,"clouds":[],"obsTime":1782208800},"SBLE":{"icaoId":"SBLE","flightCategory":"VFR","rawOb":"METAR SBLE 231000Z AUTO 32002KT 9999 SCT021 ///// Q////","temp":null,"dewp":null,"wdir":320,"wspd":2,"visib":"6+","altim":null,"clouds":[{"cover":"SCT","base":2100}],"obsTime":1782208800},"SBJP":{"icaoId":"SBJP","flightCategory":"VFR","rawOb":"METAR SBJP 231000Z 18007KT 9999 FEW027 24/23 Q1015","temp":24,"dewp":23,"wdir":180,"wspd":7,"visib":"6+","altim":1015,"clouds":[{"cover":"FEW","base":2700}],"obsTime":1782208800}}}