{"updated":1783634197,"count":84,"data":{"SBPV":{"icaoId":"SBPV","flightCategory":"VFR","rawOb":"METAR SBPV 092000Z 21002KT 9999 SCT045 33/22 Q1010","temp":33,"dewp":22,"wdir":210,"wspd":2,"visib":"6+","altim":1010,"clouds":[{"cover":"SCT","base":4500}],"obsTime":1783627200},"SBFZ":{"icaoId":"SBFZ","flightCategory":"VFR","rawOb":"METAR SBFZ 092000Z 11013KT 9999 FEW020 28/24 Q1013","temp":28,"dewp":24,"wdir":110,"wspd":13,"visib":"6+","altim":1013,"clouds":[{"cover":"FEW","base":2000}],"obsTime":1783627200},"SBSP":{"icaoId":"SBSP","flightCategory":"VFR","rawOb":"METAR SBSP 092000Z 02002KT CAVOK 22/05 Q1020","temp":22,"dewp":5,"wdir":20,"wspd":2,"visib":"6+","altim":1020,"clouds":[],"obsTime":1783627200},"SBSG":{"icaoId":"SBSG","flightCategory":"VFR","rawOb":"METAR SBSG 092000Z 13004KT 090V170 9999 FEW023 27/23 Q1015","temp":27,"dewp":23,"wdir":130,"wspd":4,"visib":"6+","altim":1015,"clouds":[{"cover":"FEW","base":2300}],"obsTime":1783627200},"SBCF":{"icaoId":"SBCF","flightCategory":"VFR","rawOb":"METAR SBCF 092000Z 07004KT CAVOK 24/10 Q1020","temp":24,"dewp":10,"wdir":70,"wspd":4,"visib":"6+","altim":1020,"clouds":[],"obsTime":1783627200},"SBCZ":{"icaoId":"SBCZ","flightCategory":"MVFR","rawOb":"METAR SBCZ 092000Z VRB02KT 9999 BKN030 29/24 Q1011","temp":29,"dewp":24,"wdir":"VRB","wspd":2,"visib":"6+","altim":1011,"clouds":[{"cover":"BKN","base":3000}],"obsTime":1783627200},"SBNT":{"icaoId":"SBNT","flightCategory":"VFR","rawOb":"METAR SBNT 092000Z 14011KT 9999 FEW021 27/23 Q1015","temp":27,"dewp":23,"wdir":140,"wspd":11,"visib":"6+","altim":1015,"clouds":[{"cover":"FEW","base":2100}],"obsTime":1783627200},"SBFI":{"icaoId":"SBFI","flightCategory":"VFR","rawOb":"METAR SBFI 092000Z 36005KT 9999 FEW030 SCT100 26/15 Q1015","temp":26,"dewp":15,"wdir":360,"wspd":5,"visib":"6+","altim":1015,"clouds":[{"cover":"FEW","base":3000},{"cover":"SCT","base":10000}],"obsTime":1783627200},"SBKP":{"icaoId":"SBKP","flightCategory":"VFR","rawOb":"METAR SBKP 092000Z 21005KT 160V240 CAVOK 23/09 Q1019","temp":23,"dewp":9,"wdir":210,"wspd":5,"visib":"6+","altim":1019,"clouds":[],"obsTime":1783627200},"SBBR":{"icaoId":"SBBR","flightCategory":"VFR","rawOb":"METAR SBBR 092000Z 11007KT CAVOK 27/11 Q1019","temp":27,"dewp":11,"wdir":110,"wspd":7,"visib":"6+","altim":1019,"clouds":[],"obsTime":1783627200},"SBRF":{"icaoId":"SBRF","flightCategory":"VFR","rawOb":"METAR SBRF 092000Z 12009KT 9999 SCT020 BKN050 27/22 Q1016","temp":27,"dewp":22,"wdir":120,"wspd":9,"visib":"6+","altim":1016,"clouds":[{"cover":"SCT","base":2000},{"cover":"BKN","base":5000}],"obsTime":1783627200},"SBRB":{"icaoId":"SBRB","flightCategory":"MVFR","rawOb":"METAR SBRB 092000Z 01005KT 9999 BKN025 32/21 Q1012","temp":32,"dewp":21,"wdir":10,"wspd":5,"visib":"6+","altim":1012,"clouds":[{"cover":"BKN","base":2500}],"obsTime":1783627200},"SBEG":{"icaoId":"SBEG","flightCategory":"VFR","rawOb":"METAR SBEG 092000Z 09008KT 9999 SCT035 FEW040TCU 32/23 Q1010","temp":32,"dewp":23,"wdir":90,"wspd":8,"visib":"6+","altim":1010,"clouds":[{"cover":"SCT","base":3500},{"cover":"FEW","base":4000}],"obsTime":1783627200},"SBCB":{"icaoId":"SBCB","flightCategory":"VFR","rawOb":"METAR SBCB 092000Z 22005KT CAVOK 21/14 Q1019","temp":21,"dewp":14,"wdir":220,"wspd":5,"visib":"6+","altim":1019,"clouds":[],"obsTime":1783627200},"SBSN":{"icaoId":"SBSN","flightCategory":"VFR","rawOb":"METAR SBSN 092000Z 10010KT 9999 FEW020 FEW025TCU 31/24 Q1010","temp":31,"dewp":24,"wdir":100,"wspd":10,"visib":"6+","altim":1010,"clouds":[{"cover":"FEW","base":2000},{"cover":"FEW","base":2500}],"obsTime":1783627200},"SBBE":{"icaoId":"SBBE","flightCategory":"MVFR","rawOb":"METAR SBBE 092000Z 03003KT 9999 VCSH SCT018 BKN025 FEW028TCU 25/25 Q1011 RERA","temp":25,"dewp":25,"wdir":30,"wspd":3,"visib":"6+","altim":1011,"clouds":[{"cover":"SCT","base":1800},{"cover":"BKN","base":2500},{"cover":"FEW","base":2800}],"obsTime":1783627200},"SBSL":{"icaoId":"SBSL","flightCategory":"MVFR","rawOb":"METAR SBSL 092000Z 08017KT 9999 BKN020 29/24 Q1011","temp":29,"dewp":24,"wdir":80,"wspd":17,"visib":"6+","altim":1011,"clouds":[{"cover":"BKN","base":2000}],"obsTime":1783627200},"SBSV":{"icaoId":"SBSV","flightCategory":"VFR","rawOb":"METAR SBSV 092000Z 09008KT 9999 FEW025 26/20 Q1017","temp":26,"dewp":20,"wdir":90,"wspd":8,"visib":"6+","altim":1017,"clouds":[{"cover":"FEW","base":2500}],"obsTime":1783627200},"SBFL":{"icaoId":"SBFL","flightCategory":"VFR","rawOb":"METAR SBFL 092000Z 35012KT CAVOK 19/13 Q1015","temp":19,"dewp":13,"wdir":350,"wspd":12,"visib":"6+","altim":1015,"clouds":[],"obsTime":1783627200},"SBMQ":{"icaoId":"SBMQ","flightCategory":"VFR","rawOb":"METAR SBMQ 092000Z 07011KT 9999 FEW030 FEW035TCU 31/25 Q1010","temp":31,"dewp":25,"wdir":70,"wspd":11,"visib":"6+","altim":1010,"clouds":[{"cover":"FEW","base":3000},{"cover":"FEW","base":3500}],"obsTime":1783627200},"SBPA":{"icaoId":"SBPA","flightCategory":"VFR","rawOb":"METAR SBPA 092000Z 28003KT CAVOK 20/11 Q1014","temp":20,"dewp":11,"wdir":280,"wspd":3,"visib":"6+","altim":1014,"clouds":[],"obsTime":1783627200},"SBMA":{"icaoId":"SBMA","flightCategory":"MVFR","rawOb":"METAR SBMA 092000Z 06007KT 9999 BKN025 33/21 Q1011","temp":33,"dewp":21,"wdir":60,"wspd":7,"visib":"6+","altim":1011,"clouds":[{"cover":"BKN","base":2500}],"obsTime":1783627200},"SBTE":{"icaoId":"SBTE","flightCategory":"VFR","rawOb":"METAR SBTE 092000Z 06004KT 020V110 9999 FEW025 34/19 Q1011","temp":34,"dewp":19,"wdir":60,"wspd":4,"visib":"6+","altim":1011,"clouds":[{"cover":"FEW","base":2500}],"obsTime":1783627200},"SBCP":{"icaoId":"SBCP","flightCategory":"VFR","rawOb":"METAR SBCP 092000Z 17008KT CAVOK 22/15 Q1019","temp":22,"dewp":15,"wdir":170,"wspd":8,"visib":"6+","altim":1019,"clouds":[],"obsTime":1783627200},"SBLO":{"icaoId":"SBLO","flightCategory":"VFR","rawOb":"METAR SBLO 092000Z 11004KT CAVOK 22/12 Q1018","temp":22,"dewp":12,"wdir":110,"wspd":4,"visib":"6+","altim":1018,"clouds":[],"obsTime":1783627200},"SBVT":{"icaoId":"SBVT","flightCategory":"MVFR","rawOb":"METAR SBVT 092000Z 18010KT 9999 BKN023 BKN045 22/17 Q1019","temp":22,"dewp":17,"wdir":180,"wspd":10,"visib":"6+","altim":1019,"clouds":[{"cover":"BKN","base":2300},{"cover":"BKN","base":4500}],"obsTime":1783627200},"SBCT":{"icaoId":"SBCT","flightCategory":"VFR","rawOb":"METAR SBCT 092000Z 27007KT CAVOK 20/02 Q1020","temp":20,"dewp":2,"wdir":270,"wspd":7,"visib":"6+","altim":1020,"clouds":[],"obsTime":1783627200},"SBBV":{"icaoId":"SBBV","flightCategory":"VFR","rawOb":"METAR SBBV 092000Z 07010KT 9999 SCT040 33/22 Q1010","temp":33,"dewp":22,"wdir":70,"wspd":10,"visib":"6+","altim":1010,"clouds":[{"cover":"SCT","base":4000}],"obsTime":1783627200},"SBMG":{"icaoId":"SBMG","flightCategory":"VFR","rawOb":"METAR SBMG 092000Z 02005KT CAVOK 25/14 Q1017","temp":25,"dewp":14,"wdir":20,"wspd":5,"visib":"6+","altim":1017,"clouds":[],"obsTime":1783627200},"SBIL":{"icaoId":"SBIL","flightCategory":"VFR","rawOb":"METAR SBIL 092000Z 14006KT 9999 SCT023 27/22 Q1017","temp":27,"dewp":22,"wdir":140,"wspd":6,"visib":"6+","altim":1017,"clouds":[{"cover":"SCT","base":2300}],"obsTime":1783627200},"SBJU":{"icaoId":"SBJU","flightCategory":"MVFR","rawOb":"METAR SBJU 092000Z 00000KT 9999 BKN020 29/19 Q1016","temp":29,"dewp":19,"wdir":0,"wspd":0,"visib":"6+","altim":1016,"clouds":[{"cover":"BKN","base":2000}],"obsTime":1783627200},"SBME":{"icaoId":"SBME","flightCategory":"VFR","rawOb":"METAR SBME 092000Z 17007KT 9999 FEW035 21/15 Q1019","temp":21,"dewp":15,"wdir":170,"wspd":7,"visib":"6+","altim":1019,"clouds":[{"cover":"FEW","base":3500}],"obsTime":1783627200},"SBMK":{"icaoId":"SBMK","flightCategory":"VFR","rawOb":"METAR SBMK 092000Z 09004KT 9999 FEW045 28/12 Q1018","temp":28,"dewp":12,"wdir":90,"wspd":4,"visib":"6+","altim":1018,"clouds":[{"cover":"FEW","base":4500}],"obsTime":1783627200},"SBUR":{"icaoId":"SBUR","flightCategory":"VFR","rawOb":"METAR SBUR 092000Z 19006KT CAVOK 26/07 Q1019","temp":26,"dewp":7,"wdir":190,"wspd":6,"visib":"6+","altim":1019,"clouds":[],"obsTime":1783627200},"SBAT":{"icaoId":"SBAT","flightCategory":"VFR","rawOb":"METAR SBAT 092000Z 10005KT 9999 SCT040 34/19 Q1011","temp":34,"dewp":19,"wdir":100,"wspd":5,"visib":"6+","altim":1011,"clouds":[{"cover":"SCT","base":4000}],"obsTime":1783627200},"SBHT":{"icaoId":"SBHT","flightCategory":"VFR","rawOb":"METAR SBHT 092000Z 10006KT 9999 SCT035 31/24 Q1011","temp":31,"dewp":24,"wdir":100,"wspd":6,"visib":"6+","altim":1011,"clouds":[{"cover":"SCT","base":3500}],"obsTime":1783627200},"SBUL":{"icaoId":"SBUL","flightCategory":"VFR","rawOb":"METAR SBUL 092000Z VRB02KT CAVOK 26/10 Q1019","temp":26,"dewp":10,"wdir":"VRB","wspd":2,"visib":"6+","altim":1019,"clouds":[],"obsTime":1783627200},"SBGR":{"icaoId":"SBGR","flightCategory":"MVFR","rawOb":"METAR SBGR 092000Z 13005KT 5000 HZ NSC 21/14 Q1020","temp":21,"dewp":14,"wdir":130,"wspd":5,"visib":3.11,"altim":1020,"clouds":[],"obsTime":1783627200},"SBCR":{"icaoId":"SBCR","flightCategory":"VFR","rawOb":"METAR SBCR 092000Z 05008KT 9999 FEW045 32/19 Q1011","temp":32,"dewp":19,"wdir":50,"wspd":8,"visib":"6+","altim":1011,"clouds":[{"cover":"FEW","base":4500}],"obsTime":1783627200},"SBGL":{"icaoId":"SBGL","flightCategory":"VFR","rawOb":"METAR SBGL 092000Z 12007KT CAVOK 21/16 Q1018","temp":21,"dewp":16,"wdir":120,"wspd":7,"visib":"6+","altim":1018,"clouds":[],"obsTime":1783627200},"SBGO":{"icaoId":"SBGO","flightCategory":"VFR","rawOb":"METAR SBGO 092000Z 15006KT 9999 FEW048 30/12 Q1017","temp":30,"dewp":12,"wdir":150,"wspd":6,"visib":"6+","altim":1017,"clouds":[{"cover":"FEW","base":4800}],"obsTime":1783627200},"SBMO":{"icaoId":"SBMO","flightCategory":"MVFR","rawOb":"METAR SBMO 092000Z 13009KT 9999 BKN023 26/21 Q1017","temp":26,"dewp":21,"wdir":130,"wspd":9,"visib":"6+","altim":1017,"clouds":[{"cover":"BKN","base":2300}],"obsTime":1783627200},"SBPJ":{"icaoId":"SBPJ","flightCategory":"VFR","rawOb":"METAR SBPJ 092000Z VRB02KT CAVOK 35/18 Q1012","temp":35,"dewp":18,"wdir":"VRB","wspd":2,"visib":"6+","altim":1012,"clouds":[],"obsTime":1783627200},"SBCG":{"icaoId":"SBCG","flightCategory":"VFR","rawOb":"METAR SBCG 092000Z 01005KT 320V040 9999 SCT049 29/15 Q1015","temp":29,"dewp":15,"wdir":10,"wspd":5,"visib":"6+","altim":1015,"clouds":[{"cover":"SCT","base":4900}],"obsTime":1783627200},"SBPB":{"icaoId":"SBPB","flightCategory":"VFR","rawOb":"METAR SBPB 092000Z 07018KT 9999 FEW020 29/24 Q1012","temp":29,"dewp":24,"wdir":70,"wspd":18,"visib":"6+","altim":1012,"clouds":[{"cover":"FEW","base":2000}],"obsTime":1783627200},"SBCJ":{"icaoId":"SBCJ","flightCategory":"VFR","rawOb":"METAR SBCJ 092000Z 05003KT 020V150 9999 SCT027 29/20 Q1015","temp":29,"dewp":20,"wdir":50,"wspd":3,"visib":"6+","altim":1015,"clouds":[{"cover":"SCT","base":2700}],"obsTime":1783627200},"SBBU":{"icaoId":"SBBU","flightCategory":"VFR","rawOb":"METAR SBBU 092000Z 18003KT CAVOK 25/11 Q1019","temp":25,"dewp":11,"wdir":180,"wspd":3,"visib":"6+","altim":1019,"clouds":[],"obsTime":1783627200},"SBAR":{"icaoId":"SBAR","flightCategory":"VFR","rawOb":"METAR SBAR 092000Z 14007KT 9999 FEW028 26/21 Q1017","temp":26,"dewp":21,"wdir":140,"wspd":7,"visib":"6+","altim":1017,"clouds":[{"cover":"FEW","base":2800}],"obsTime":1783627200},"SBTT":{"icaoId":"SBTT","flightCategory":"VFR","rawOb":"METAR SBTT 092000Z VRB04KT 9999 FEW025TCU SCT050 29/22 Q1010","temp":29,"dewp":22,"wdir":"VRB","wspd":4,"visib":"6+","altim":1010,"clouds":[{"cover":"FEW","base":2500},{"cover":"SCT","base":5000}],"obsTime":1783627200},"SBPS":{"icaoId":"SBPS","flightCategory":"VFR","rawOb":"METAR SBPS 092000Z 11006KT 9999 SCT020 BKN070 23/20 Q1018","temp":23,"dewp":20,"wdir":110,"wspd":6,"visib":"6+","altim":1018,"clouds":[{"cover":"SCT","base":2000},{"cover":"BKN","base":7000}],"obsTime":1783627200},"SBSJ":{"icaoId":"SBSJ","flightCategory":"MVFR","rawOb":"METAR SBSJ 092000Z 00000KT 7000 NSC 21/12 Q1019","temp":21,"dewp":12,"wdir":0,"wspd":0,"visib":4.35,"altim":1019,"clouds":[],"obsTime":1783627200},"SBOI":{"icaoId":"SBOI","flightCategory":"VFR","rawOb":"METAR SBOI 092000Z AUTO 05007KT 010V080 9999 FEW041 29/24 Q1011","temp":29,"dewp":24,"wdir":50,"wspd":7,"visib":"6+","altim":1011,"clouds":[{"cover":"FEW","base":4100}],"obsTime":1783627200},"SBPL":{"icaoId":"SBPL","flightCategory":"VFR","rawOb":"METAR SBPL 092000Z 08009KT 9999 FEW030 32/13 Q1015","temp":32,"dewp":13,"wdir":80,"wspd":9,"visib":"6+","altim":1015,"clouds":[{"cover":"FEW","base":3000}],"obsTime":1783627200},"SBUY":{"icaoId":"SBUY","flightCategory":"VFR","rawOb":"METAR SBUY 092000Z 11002KT 9999 SCT025 33/23 Q1008","temp":33,"dewp":23,"wdir":110,"wspd":2,"visib":"6+","altim":1008,"clouds":[{"cover":"SCT","base":2500}],"obsTime":1783627200},"SBCA":{"icaoId":"SBCA","flightCategory":"VFR","rawOb":"METAR SBCA 092000Z 35008KT CAVOK 24/13 Q1018","temp":24,"dewp":13,"wdir":350,"wspd":8,"visib":"6+","altim":1018,"clouds":[],"obsTime":1783627200},"SBCO":{"icaoId":"SBCO","flightCategory":"VFR","rawOb":"METAR SBCO 092000Z VRB02KT CAVOK 21/12 Q1015","temp":21,"dewp":12,"wdir":"VRB","wspd":2,"visib":"6+","altim":1015,"clouds":[],"obsTime":1783627200},"SBSM":{"icaoId":"SBSM","flightCategory":"VFR","rawOb":"METAR SBSM 092000Z 18002KT CAVOK 20/15 Q1015","temp":20,"dewp":15,"wdir":180,"wspd":2,"visib":"6+","altim":1015,"clouds":[],"obsTime":1783627200},"SBKG":{"icaoId":"SBKG","flightCategory":"VFR","rawOb":"METAR SBKG 092000Z 10010KT 9999 FEW025 24/21 Q1018","temp":24,"dewp":21,"wdir":100,"wspd":10,"visib":"6+","altim":1018,"clouds":[{"cover":"FEW","base":2500}],"obsTime":1783627200},"SBBH":{"icaoId":"SBBH","flightCategory":"VFR","rawOb":"METAR SBBH 092100Z 00000KT CAVOK 20/12 Q1020","temp":20,"dewp":12,"wdir":0,"wspd":0,"visib":"6+","altim":1020,"clouds":[],"obsTime":1783630800},"SBDN":{"icaoId":"SBDN","flightCategory":"VFR","rawOb":"METAR SBDN 092000Z 32002KT CAVOK 27/13 Q1017","temp":27,"dewp":13,"wdir":320,"wspd":2,"visib":"6+","altim":1017,"clouds":[],"obsTime":1783627200},"SBIP":{"icaoId":"SBIP","flightCategory":"VFR","rawOb":"METAR SBIP 092000Z AUTO VRB02KT CAVOK 23/17 Q1017","temp":23,"dewp":17,"wdir":"VRB","wspd":2,"visib":"6+","altim":1017,"clouds":[],"obsTime":1783627200},"SBSC":{"icaoId":"SBSC","flightCategory":"VFR","rawOb":"METAR SBSC 092000Z 19004KT CAVOK 21/16 Q1019","temp":21,"dewp":16,"wdir":190,"wspd":4,"visib":"6+","altim":1019,"clouds":[],"obsTime":1783627200},"SBSR":{"icaoId":"SBSR","flightCategory":"VFR","rawOb":"METAR SBSR 092000Z 25003KT CAVOK 27/10 Q1017","temp":27,"dewp":10,"wdir":250,"wspd":3,"visib":"6+","altim":1017,"clouds":[],"obsTime":1783627200},"SBVH":{"icaoId":"SBVH","flightCategory":"VFR","rawOb":"METAR SBVH 092000Z 09006KT 9999 SCT045 29/18 Q1014","temp":29,"dewp":18,"wdir":90,"wspd":6,"visib":"6+","altim":1014,"clouds":[{"cover":"SCT","base":4500}],"obsTime":1783627200},"SBTU":{"icaoId":"SBTU","flightCategory":"VFR","rawOb":"METAR SBTU 092000Z AUTO 23007KT 9999 // NCD 30/23 Q1013","temp":30,"dewp":23,"wdir":230,"wspd":7,"visib":"6+","altim":1013,"clouds":[],"obsTime":1783627200},"SBES":{"icaoId":"SBES","flightCategory":"VFR","rawOb":"METAR SBES 092000Z VRB02KT CAVOK 19/// Q1019","temp":null,"dewp":null,"wdir":"VRB","wspd":2,"visib":"6+","altim":1019,"clouds":[],"obsTime":1783627200},"SBPP":{"icaoId":"SBPP","flightCategory":"VFR","rawOb":"METAR SBPP 092000Z 07010KT CAVOK 27/16 Q1016","temp":27,"dewp":16,"wdir":70,"wspd":10,"visib":"6+","altim":1016,"clouds":[],"obsTime":1783627200},"SBTF":{"icaoId":"SBTF","flightCategory":"VFR","rawOb":"METAR SBTF 092000Z 30003KT 9999 FEW018 29/26 Q1009","temp":29,"dewp":26,"wdir":300,"wspd":3,"visib":"6+","altim":1009,"clouds":[{"cover":"FEW","base":1800}],"obsTime":1783627200},"SBCC":{"icaoId":"SBCC","flightCategory":"VFR","rawOb":"METAR SBCC 092000Z 04007KT 9999 SCT025 31/17 Q1013","temp":31,"dewp":17,"wdir":40,"wspd":7,"visib":"6+","altim":1013,"clouds":[{"cover":"SCT","base":2500}],"obsTime":1783627200},"SBAX":{"icaoId":"SBAX","flightCategory":"VFR","rawOb":"METAR SBAX 092000Z 01003KT CAVOK 25/10 Q1020","temp":25,"dewp":10,"wdir":10,"wspd":3,"visib":"6+","altim":1020,"clouds":[],"obsTime":1783627200},"SBIH":{"icaoId":"SBIH","flightCategory":"VFR","rawOb":"METAR SBIH 092000Z 08008KT 9999 FEW020 FEW025TCU 33/23 Q1009","temp":33,"dewp":23,"wdir":80,"wspd":8,"visib":"6+","altim":1009,"clouds":[{"cover":"FEW","base":2000},{"cover":"FEW","base":2500}],"obsTime":1783627200},"SBJP":{"icaoId":"SBJP","flightCategory":"VFR","rawOb":"METAR SBJP 092000Z 11009KT 9999 FEW020 26/23 Q1016","temp":26,"dewp":23,"wdir":110,"wspd":9,"visib":"6+","altim":1016,"clouds":[{"cover":"FEW","base":2000}],"obsTime":1783627200},"SBJV":{"icaoId":"SBJV","flightCategory":"VFR","rawOb":"METAR SBJV 092000Z 15003KT CAVOK 19/16 Q1017","temp":19,"dewp":16,"wdir":150,"wspd":3,"visib":"6+","altim":1017,"clouds":[],"obsTime":1783627200},"SBNM":{"icaoId":"SBNM","flightCategory":"VFR","rawOb":"METAR SBNM 092000Z 35004KT CAVOK 23/14 Q1015","temp":23,"dewp":14,"wdir":350,"wspd":4,"visib":"6+","altim":1015,"clouds":[],"obsTime":1783627200},"SBPF":{"icaoId":"SBPF","flightCategory":"VFR","rawOb":"METAR SBPF 092000Z 32003KT CAVOK 19/12 Q1018","temp":19,"dewp":12,"wdir":320,"wspd":3,"visib":"6+","altim":1018,"clouds":[],"obsTime":1783627200},"SBAN":{"icaoId":"SBAN","flightCategory":"VFR","rawOb":"METAR SBAN 092000Z 09003KT 9999 SCT045 25/11 Q1020","temp":25,"dewp":11,"wdir":90,"wspd":3,"visib":"6+","altim":1020,"clouds":[{"cover":"SCT","base":4500}],"obsTime":1783627200},"SBAF":{"icaoId":"SBAF","flightCategory":"VFR","rawOb":"METAR SBAF 092000Z 15004KT CAVOK 22/17 Q1019","temp":22,"dewp":17,"wdir":150,"wspd":4,"visib":"6+","altim":1019,"clouds":[],"obsTime":1783627200},"SBGW":{"icaoId":"SBGW","flightCategory":"VFR","rawOb":"METAR SBGW 092000Z 03003KT CAVOK 22/11 Q1019","temp":22,"dewp":11,"wdir":30,"wspd":3,"visib":"6+","altim":1019,"clouds":[],"obsTime":1783627200},"SBJR":{"icaoId":"SBJR","flightCategory":"VFR","rawOb":"METAR SBJR 092000Z 30001KT CAVOK 21/16 Q1018","temp":21,"dewp":16,"wdir":300,"wspd":1,"visib":"6+","altim":1018,"clouds":[],"obsTime":1783627200},"SBLS":{"icaoId":"SBLS","flightCategory":"VFR","rawOb":"METAR SBLS 092000Z VRB02KT CAVOK 24/10 Q1019","temp":24,"dewp":10,"wdir":"VRB","wspd":2,"visib":"6+","altim":1019,"clouds":[],"obsTime":1783627200},"SBMT":{"icaoId":"SBMT","flightCategory":"VFR","rawOb":"METAR SBMT 092000Z 00000KT CAVOK 22/10 Q1019","temp":22,"dewp":10,"wdir":0,"wspd":0,"visib":"6+","altim":1019,"clouds":[],"obsTime":1783627200},"SBST":{"icaoId":"SBST","flightCategory":"VFR","rawOb":"METAR SBST 092000Z 14005KT CAVOK 19/15 Q1018","temp":19,"dewp":15,"wdir":140,"wspd":5,"visib":"6+","altim":1018,"clouds":[],"obsTime":1783627200},"SBTA":{"icaoId":"SBTA","flightCategory":"VFR","rawOb":"METAR SBTA 092000Z 02003KT CAVOK 21/14 Q1019","temp":21,"dewp":14,"wdir":20,"wspd":3,"visib":"6+","altim":1019,"clouds":[],"obsTime":1783627200},"SBLE":{"icaoId":"SBLE","flightCategory":"VFR","rawOb":"METAR SBLE 092000Z AUTO 07003KT CAVOK ///// Q1018","temp":null,"dewp":null,"wdir":70,"wspd":3,"visib":"6+","altim":1018,"clouds":[],"obsTime":1783627200}}}