{"updated":1778094456,"count":85,"data":{"SBRB":{"icaoId":"SBRB","flightCategory":"MVFR","rawOb":"METAR SBRB 061800Z 24005KT 9999 BKN025 SCT100 31/24 Q1013","temp":31,"dewp":24,"wdir":240,"wspd":5,"visib":"6+","altim":1013,"clouds":[{"cover":"BKN","base":2500},{"cover":"SCT","base":10000}],"obsTime":1778090400},"SBBE":{"icaoId":"SBBE","flightCategory":"VFR","rawOb":"METAR SBBE 061800Z 06008KT 9999 SCT030 FEW035TCU 27/24 Q1010","temp":27,"dewp":24,"wdir":60,"wspd":8,"visib":"6+","altim":1010,"clouds":[{"cover":"SCT","base":3000},{"cover":"FEW","base":3500}],"obsTime":1778090400},"SBBR":{"icaoId":"SBBR","flightCategory":"VFR","rawOb":"METAR SBBR 061800Z 10010KT 050V150 9999 SCT045 26/13 Q1020","temp":26,"dewp":13,"wdir":100,"wspd":10,"visib":"6+","altim":1020,"clouds":[{"cover":"SCT","base":4500}],"obsTime":1778090400},"SBBV":{"icaoId":"SBBV","flightCategory":"MVFR","rawOb":"METAR SBBV 061800Z 07008KT 9999 BKN030 FEW040TCU 32/22 Q1013","temp":32,"dewp":22,"wdir":70,"wspd":8,"visib":"6+","altim":1013,"clouds":[{"cover":"BKN","base":3000},{"cover":"FEW","base":4000}],"obsTime":1778090400},"SBCB":{"icaoId":"SBCB","flightCategory":"VFR","rawOb":"METAR SBCB 061800Z 08012KT CAVOK 27/22 Q1018","temp":27,"dewp":22,"wdir":80,"wspd":12,"visib":"6+","altim":1018,"clouds":[],"obsTime":1778090400},"SBCF":{"icaoId":"SBCF","flightCategory":"VFR","rawOb":"METAR SBCF 061800Z 11010KT 070V150 9999 SCT040 26/16 Q1021","temp":26,"dewp":16,"wdir":110,"wspd":10,"visib":"6+","altim":1021,"clouds":[{"cover":"SCT","base":4000}],"obsTime":1778090400},"SBCG":{"icaoId":"SBCG","flightCategory":"VFR","rawOb":"METAR SBCG 061800Z 06010KT 020V080 CAVOK 32/15 Q1016","temp":32,"dewp":15,"wdir":60,"wspd":10,"visib":"6+","altim":1016,"clouds":[],"obsTime":1778090400},"SBCP":{"icaoId":"SBCP","flightCategory":"VFR","rawOb":"METAR SBCP 061800Z 10008KT 9999 SCT020 SCT090 28/22 Q1018","temp":28,"dewp":22,"wdir":100,"wspd":8,"visib":"6+","altim":1018,"clouds":[{"cover":"SCT","base":2000},{"cover":"SCT","base":9000}],"obsTime":1778090400},"SBCR":{"icaoId":"SBCR","flightCategory":"VFR","rawOb":"METAR SBCR 061800Z 03012KT 350V060 9999 SCT040 34/19 Q1011","temp":34,"dewp":19,"wdir":30,"wspd":12,"visib":"6+","altim":1011,"clouds":[{"cover":"SCT","base":4000}],"obsTime":1778090400},"SBCT":{"icaoId":"SBCT","flightCategory":"VFR","rawOb":"METAR SBCT 061800Z 06008KT 030V110 9999 SCT045 28/17 Q1021","temp":28,"dewp":17,"wdir":60,"wspd":8,"visib":"6+","altim":1021,"clouds":[{"cover":"SCT","base":4500}],"obsTime":1778090400},"SBCZ":{"icaoId":"SBCZ","flightCategory":"MVFR","rawOb":"METAR SBCZ 061800Z 01004KT 9999 BKN030 SCT100 31/24 Q1013","temp":31,"dewp":24,"wdir":10,"wspd":4,"visib":"6+","altim":1013,"clouds":[{"cover":"BKN","base":3000},{"cover":"SCT","base":10000}],"obsTime":1778090400},"SBEG":{"icaoId":"SBEG","flightCategory":"MVFR","rawOb":"METAR SBEG 061800Z 22007KT 9999 BKN025 BKN100 29/25 Q1013","temp":29,"dewp":25,"wdir":220,"wspd":7,"visib":"6+","altim":1013,"clouds":[{"cover":"BKN","base":2500},{"cover":"BKN","base":10000}],"obsTime":1778090400},"SBFI":{"icaoId":"SBFI","flightCategory":"VFR","rawOb":"METAR SBFI 061800Z 02012KT 9999 FEW030 30/22 Q1014","temp":30,"dewp":22,"wdir":20,"wspd":12,"visib":"6+","altim":1014,"clouds":[{"cover":"FEW","base":3000}],"obsTime":1778090400},"SBFL":{"icaoId":"SBFL","flightCategory":"VFR","rawOb":"METAR SBFL 061800Z 33007KT CAVOK 27/23 Q1015","temp":27,"dewp":23,"wdir":330,"wspd":7,"visib":"6+","altim":1015,"clouds":[],"obsTime":1778090400},"SBFZ":{"icaoId":"SBFZ","flightCategory":"VFR","rawOb":"METAR SBFZ 061800Z 10014KT 9999 SCT030 30/23 Q1010","temp":30,"dewp":23,"wdir":100,"wspd":14,"visib":"6+","altim":1010,"clouds":[{"cover":"SCT","base":3000}],"obsTime":1778090400},"SBGL":{"icaoId":"SBGL","flightCategory":"VFR","rawOb":"METAR SBGL 061800Z 13008KT 9999 FEW030 28/21 Q1017","temp":28,"dewp":21,"wdir":130,"wspd":8,"visib":"6+","altim":1017,"clouds":[{"cover":"FEW","base":3000}],"obsTime":1778090400},"SBGO":{"icaoId":"SBGO","flightCategory":"VFR","rawOb":"METAR SBGO 061800Z 08008KT 040V100 CAVOK 30/16 Q1018","temp":30,"dewp":16,"wdir":80,"wspd":8,"visib":"6+","altim":1018,"clouds":[],"obsTime":1778090400},"SBGR":{"icaoId":"SBGR","flightCategory":"VFR","rawOb":"METAR SBGR 061800Z 07005KT CAVOK 29/16 Q1020","temp":29,"dewp":16,"wdir":70,"wspd":5,"visib":"6+","altim":1020,"clouds":[],"obsTime":1778090400},"SBKP":{"icaoId":"SBKP","flightCategory":"VFR","rawOb":"METAR SBKP 061800Z VRB03KT 9999 FEW045 30/14 Q1019","temp":30,"dewp":14,"wdir":"VRB","wspd":3,"visib":"6+","altim":1019,"clouds":[{"cover":"FEW","base":4500}],"obsTime":1778090400},"SBLO":{"icaoId":"SBLO","flightCategory":"VFR","rawOb":"METAR SBLO 061800Z 03006KT 9999 FEW040 29/11 Q1018","temp":29,"dewp":11,"wdir":30,"wspd":6,"visib":"6+","altim":1018,"clouds":[{"cover":"FEW","base":4000}],"obsTime":1778090400},"SBMA":{"icaoId":"SBMA","flightCategory":"VFR","rawOb":"METAR SBMA 061800Z 24004KT 9999 FEW020 32/23 Q1011","temp":32,"dewp":23,"wdir":240,"wspd":4,"visib":"6+","altim":1011,"clouds":[{"cover":"FEW","base":2000}],"obsTime":1778090400},"SBMO":{"icaoId":"SBMO","flightCategory":"VFR","rawOb":"METAR SBMO 061800Z 12007KT 090V160 9999 BKN031 SCT070 29/22 Q1013","temp":29,"dewp":22,"wdir":120,"wspd":7,"visib":"6+","altim":1013,"clouds":[{"cover":"BKN","base":3100},{"cover":"SCT","base":7000}],"obsTime":1778090400},"SBMQ":{"icaoId":"SBMQ","flightCategory":"VFR","rawOb":"METAR SBMQ 061800Z 03003KT 9999 SCT030 31/24 Q1011","temp":31,"dewp":24,"wdir":30,"wspd":3,"visib":"6+","altim":1011,"clouds":[{"cover":"SCT","base":3000}],"obsTime":1778090400},"SBNT":{"icaoId":"SBNT","flightCategory":"VFR","rawOb":"METAR SBNT 061800Z 13009KT 9999 FEW035 30/23 Q1011","temp":30,"dewp":23,"wdir":130,"wspd":9,"visib":"6+","altim":1011,"clouds":[{"cover":"FEW","base":3500}],"obsTime":1778090400},"SBPA":{"icaoId":"SBPA","flightCategory":"VFR","rawOb":"METAR SBPA 061800Z 31007KT 280V340 9999 FEW040 32/21 Q1012","temp":32,"dewp":21,"wdir":310,"wspd":7,"visib":"6+","altim":1012,"clouds":[{"cover":"FEW","base":4000}],"obsTime":1778090400},"SBPJ":{"icaoId":"SBPJ","flightCategory":"VFR","rawOb":"METAR SBPJ 061800Z 09007KT 9999 FEW045 33/19 Q1013","temp":33,"dewp":19,"wdir":90,"wspd":7,"visib":"6+","altim":1013,"clouds":[{"cover":"FEW","base":4500}],"obsTime":1778090400},"SBPV":{"icaoId":"SBPV","flightCategory":"VFR","rawOb":"METAR SBPV 061800Z 34003KT 9999 SCT025 29/26 Q1012","temp":29,"dewp":26,"wdir":340,"wspd":3,"visib":"6+","altim":1012,"clouds":[{"cover":"SCT","base":2500}],"obsTime":1778090400},"SBRF":{"icaoId":"SBRF","flightCategory":"MVFR","rawOb":"METAR SBRF 061800Z 14012KT 6000 -RA SCT016 BKN050 25/24 Q1012","temp":25,"dewp":24,"wdir":140,"wspd":12,"visib":3.73,"altim":1012,"clouds":[{"cover":"SCT","base":1600},{"cover":"BKN","base":5000}],"obsTime":1778090400},"SBSG":{"icaoId":"SBSG","flightCategory":"VFR","rawOb":"METAR SBSG 061800Z 14006KT 090V190 9999 SCT037 30/23 Q1011","temp":30,"dewp":23,"wdir":140,"wspd":6,"visib":"6+","altim":1011,"clouds":[{"cover":"SCT","base":3700}],"obsTime":1778090400},"SBSL":{"icaoId":"SBSL","flightCategory":"VFR","rawOb":"METAR SBSL 061800Z 30005KT 260V350 9999 -TSRA SCT025 FEW030CB BKN100 26/25 Q1009","temp":26,"dewp":25,"wdir":300,"wspd":5,"visib":"6+","altim":1009,"clouds":[{"cover":"SCT","base":2500},{"cover":"FEW","base":3000},{"cover":"BKN","base":10000}],"obsTime":1778090400},"SBSN":{"icaoId":"SBSN","flightCategory":"VFR","rawOb":"METAR SBSN 061800Z 09005KT 040V120 9999 FEW023 30/24 Q1011","temp":30,"dewp":24,"wdir":90,"wspd":5,"visib":"6+","altim":1011,"clouds":[{"cover":"FEW","base":2300}],"obsTime":1778090400},"SBSP":{"icaoId":"SBSP","flightCategory":"VFR","rawOb":"METAR SBSP 061800Z 10006KT 050V130 CAVOK 29/11 Q1021","temp":29,"dewp":11,"wdir":100,"wspd":6,"visib":"6+","altim":1021,"clouds":[],"obsTime":1778090400},"SBSV":{"icaoId":"SBSV","flightCategory":"VFR","rawOb":"METAR SBSV 061800Z 15011KT 120V190 9999 VCSH SCT024 FEW025TCU SCT070 28/25 Q1014","temp":28,"dewp":25,"wdir":150,"wspd":11,"visib":"6+","altim":1014,"clouds":[{"cover":"SCT","base":2400},{"cover":"FEW","base":2500},{"cover":"SCT","base":7000}],"obsTime":1778090400},"SBTE":{"icaoId":"SBTE","flightCategory":"VFR","rawOb":"METAR SBTE 061800Z 11007KT 9999 SCT035 33/22 Q1009","temp":33,"dewp":22,"wdir":110,"wspd":7,"visib":"6+","altim":1009,"clouds":[{"cover":"SCT","base":3500}],"obsTime":1778090400},"SBVT":{"icaoId":"SBVT","flightCategory":"VFR","rawOb":"METAR SBVT 061800Z 15008KT 9999 FEW030 SCT100 26/23 Q1017","temp":26,"dewp":23,"wdir":150,"wspd":8,"visib":"6+","altim":1017,"clouds":[{"cover":"FEW","base":3000},{"cover":"SCT","base":10000}],"obsTime":1778090400},"SBIL":{"icaoId":"SBIL","flightCategory":"MVFR","rawOb":"METAR SBIL 061800Z 17009G24KT 120V210 5000 -RA FEW010 BKN018 FEW020TCU BKN050 29/25 Q1016","temp":29,"dewp":25,"wdir":170,"wspd":9,"visib":3.11,"altim":1016,"clouds":[{"cover":"FEW","base":1000},{"cover":"BKN","base":1800},{"cover":"FEW","base":2000},{"cover":"BKN","base":5000}],"obsTime":1778090400},"SBJU":{"icaoId":"SBJU","flightCategory":"VFR","rawOb":"METAR SBJU 061800Z 15008KT 9999 SCT022 BKN070 31/20 Q1013","temp":31,"dewp":20,"wdir":150,"wspd":8,"visib":"6+","altim":1013,"clouds":[{"cover":"SCT","base":2200},{"cover":"BKN","base":7000}],"obsTime":1778090400},"SBUR":{"icaoId":"SBUR","flightCategory":"VFR","rawOb":"METAR SBUR 061800Z 04005KT CAVOK 30/13 Q1020","temp":30,"dewp":13,"wdir":40,"wspd":5,"visib":"6+","altim":1020,"clouds":[],"obsTime":1778090400},"SBME":{"icaoId":"SBME","flightCategory":"VFR","rawOb":"METAR SBME 061800Z 10007KT 9999 FEW025 29/23 Q1017","temp":29,"dewp":23,"wdir":100,"wspd":7,"visib":"6+","altim":1017,"clouds":[{"cover":"FEW","base":2500}],"obsTime":1778090400},"SBMG":{"icaoId":"SBMG","flightCategory":"VFR","rawOb":"METAR SBMG 061800Z 05008KT 010V080 9999 SCT030 30/18 Q1017","temp":30,"dewp":18,"wdir":50,"wspd":8,"visib":"6+","altim":1017,"clouds":[{"cover":"SCT","base":3000}],"obsTime":1778090400},"SBMK":{"icaoId":"SBMK","flightCategory":"VFR","rawOb":"METAR SBMK 061800Z 08011KT 9999 SCT040 28/16 Q1018","temp":28,"dewp":16,"wdir":80,"wspd":11,"visib":"6+","altim":1018,"clouds":[{"cover":"SCT","base":4000}],"obsTime":1778090400},"SBUL":{"icaoId":"SBUL","flightCategory":"VFR","rawOb":"METAR SBUL 061800Z 10005KT 9999 SCT040 26/14 Q1021","temp":26,"dewp":14,"wdir":100,"wspd":5,"visib":"6+","altim":1021,"clouds":[{"cover":"SCT","base":4000}],"obsTime":1778090400},"SBAT":{"icaoId":"SBAT","flightCategory":"VFR","rawOb":"METAR SBAT 061800Z 12008KT 9999 SCT045 34/17 Q1013","temp":34,"dewp":17,"wdir":120,"wspd":8,"visib":"6+","altim":1013,"clouds":[{"cover":"SCT","base":4500}],"obsTime":1778090400},"SBHT":{"icaoId":"SBHT","flightCategory":"MVFR","rawOb":"METAR SBHT 061800Z 09007KT 9999 BKN030 31/24 Q1011","temp":31,"dewp":24,"wdir":90,"wspd":7,"visib":"6+","altim":1011,"clouds":[{"cover":"BKN","base":3000}],"obsTime":1778090400},"SBAR":{"icaoId":"SBAR","flightCategory":"VFR","rawOb":"METAR SBAR 061800Z 13008KT 9999 FEW020 BKN060 29/24 Q1012","temp":29,"dewp":24,"wdir":130,"wspd":8,"visib":"6+","altim":1012,"clouds":[{"cover":"FEW","base":2000},{"cover":"BKN","base":6000}],"obsTime":1778090400},"SBCJ":{"icaoId":"SBCJ","flightCategory":"VFR","rawOb":"METAR SBCJ 061800Z 00000KT 9999 SCT025 29/22 Q1016","temp":29,"dewp":22,"wdir":0,"wspd":0,"visib":"6+","altim":1016,"clouds":[{"cover":"SCT","base":2500}],"obsTime":1778090400},"SBOI":{"icaoId":"SBOI","flightCategory":"VFR","rawOb":"METAR SBOI 061800Z AUTO 04011KT 9999 BKN034 31/23 Q1012","temp":31,"dewp":23,"wdir":40,"wspd":11,"visib":"6+","altim":1012,"clouds":[{"cover":"BKN","base":3400}],"obsTime":1778090400},"SBPB":{"icaoId":"SBPB","flightCategory":"VFR","rawOb":"METAR SBPB 061800Z 33002KT 9999 SCT016 FEW025TCU BKN080 29/26 Q1009","temp":29,"dewp":26,"wdir":330,"wspd":2,"visib":"6+","altim":1009,"clouds":[{"cover":"SCT","base":1600},{"cover":"FEW","base":2500},{"cover":"BKN","base":8000}],"obsTime":1778090400},"SBPL":{"icaoId":"SBPL","flightCategory":"VFR","rawOb":"METAR SBPL 061800Z 15008KT 9999 SCT025 33/19 Q1013","temp":33,"dewp":19,"wdir":150,"wspd":8,"visib":"6+","altim":1013,"clouds":[{"cover":"SCT","base":2500}],"obsTime":1778090400},"SBPP":{"icaoId":"SBPP","flightCategory":"VFR","rawOb":"METAR SBPP 061800Z 05010KT CAVOK 30/20 Q1017","temp":30,"dewp":20,"wdir":50,"wspd":10,"visib":"6+","altim":1017,"clouds":[],"obsTime":1778090400},"SBPS":{"icaoId":"SBPS","flightCategory":"VFR","rawOb":"METAR SBPS 061800Z 16004KT 9999 FEW025 SCT070 27/24 Q1017","temp":27,"dewp":24,"wdir":160,"wspd":4,"visib":"6+","altim":1017,"clouds":[{"cover":"FEW","base":2500},{"cover":"SCT","base":7000}],"obsTime":1778090400},"SBSJ":{"icaoId":"SBSJ","flightCategory":"VFR","rawOb":"METAR SBSJ 061800Z 08005KT 350V140 9999 FEW045 29/16 Q1020","temp":29,"dewp":16,"wdir":80,"wspd":5,"visib":"6+","altim":1020,"clouds":[{"cover":"FEW","base":4500}],"obsTime":1778090400},"SBTF":{"icaoId":"SBTF","flightCategory":"VFR","rawOb":"METAR SBTF 061800Z 07006KT 9999 -RA SCT009 OVC100 25/25 Q1013","temp":25,"dewp":25,"wdir":70,"wspd":6,"visib":"6+","altim":1013,"clouds":[{"cover":"SCT","base":900},{"cover":"OVC","base":10000}],"obsTime":1778090400},"SBTT":{"icaoId":"SBTT","flightCategory":"MVFR","rawOb":"METAR SBTT 061800Z 33006KT 9999 BKN020 29/23 Q1013","temp":29,"dewp":23,"wdir":330,"wspd":6,"visib":"6+","altim":1013,"clouds":[{"cover":"BKN","base":2000}],"obsTime":1778090400},"SBUY":{"icaoId":"SBUY","flightCategory":"VFR","rawOb":"METAR SBUY 061800Z 34001KT 9999 -RA VCSH FEW025 FEW030TCU SCT100 29/24 Q1011","temp":29,"dewp":24,"wdir":340,"wspd":1,"visib":"6+","altim":1011,"clouds":[{"cover":"FEW","base":2500},{"cover":"FEW","base":3000},{"cover":"SCT","base":10000}],"obsTime":1778090400},"SBCO":{"icaoId":"SBCO","flightCategory":"VFR","rawOb":"METAR SBCO 061800Z 31008KT CAVOK 32/21 Q1013","temp":32,"dewp":21,"wdir":310,"wspd":8,"visib":"6+","altim":1013,"clouds":[],"obsTime":1778090400},"SBDN":{"icaoId":"SBDN","flightCategory":"VFR","rawOb":"METAR SBDN 061800Z 05006KT CAVOK 32/15 Q1017","temp":32,"dewp":15,"wdir":50,"wspd":6,"visib":"6+","altim":1017,"clouds":[],"obsTime":1778090400},"SBES":{"icaoId":"SBES","flightCategory":"VFR","rawOb":"METAR SBES 061800Z 06014KT 020V080 9999 FEW020 28/// Q1018","temp":null,"dewp":null,"wdir":60,"wspd":14,"visib":"6+","altim":1018,"clouds":[{"cover":"FEW","base":2000}],"obsTime":1778090400},"SBGM":{"icaoId":"SBGM","flightCategory":"MVFR","rawOb":"METAR SBGM 061800Z 26005KT 9999 BKN026 31/24 Q1012","temp":31,"dewp":24,"wdir":260,"wspd":5,"visib":"6+","altim":1012,"clouds":[{"cover":"BKN","base":2600}],"obsTime":1778090400},"SBIP":{"icaoId":"SBIP","flightCategory":"VFR","rawOb":"METAR SBIP 061800Z AUTO 34005KT 250V050 9999 FEW040 29/19 Q1018","temp":29,"dewp":19,"wdir":340,"wspd":5,"visib":"6+","altim":1018,"clouds":[{"cover":"FEW","base":4000}],"obsTime":1778090400},"SBKG":{"icaoId":"SBKG","flightCategory":"MVFR","rawOb":"METAR SBKG 061800Z 10010KT 9999 BKN018 FEW023TCU BKN080 23/22 Q1015","temp":23,"dewp":22,"wdir":100,"wspd":10,"visib":"6+","altim":1015,"clouds":[{"cover":"BKN","base":1800},{"cover":"FEW","base":2300},{"cover":"BKN","base":8000}],"obsTime":1778090400},"SBSR":{"icaoId":"SBSR","flightCategory":"VFR","rawOb":"METAR SBSR 061800Z 02006KT 9999 SCT030 32/13 Q1018","temp":32,"dewp":13,"wdir":20,"wspd":6,"visib":"6+","altim":1018,"clouds":[{"cover":"SCT","base":3000}],"obsTime":1778090400},"SBVH":{"icaoId":"SBVH","flightCategory":"VFR","rawOb":"METAR SBVH 061800Z 07008KT 9999 SCT040 30/20 Q1016","temp":30,"dewp":20,"wdir":70,"wspd":8,"visib":"6+","altim":1016,"clouds":[{"cover":"SCT","base":4000}],"obsTime":1778090400},"SBSC":{"icaoId":"SBSC","flightCategory":"VFR","rawOb":"METAR SBSC 061800Z 18006KT CAVOK 30/21 Q1017","temp":30,"dewp":21,"wdir":180,"wspd":6,"visib":"6+","altim":1017,"clouds":[],"obsTime":1778090400},"SBTU":{"icaoId":"SBTU","flightCategory":"VFR","rawOb":"METAR SBTU 061800Z AUTO VRB03KT 9999 // ///////// ///// Q1013","temp":null,"dewp":null,"wdir":"VRB","wspd":3,"visib":"6+","altim":1013,"clouds":[],"obsTime":1778090400},"SBAU":{"icaoId":"SBAU","flightCategory":"VFR","rawOb":"METAR SBAU 061800Z 36006KT 9999 FEW035 34/15 Q1017","temp":34,"dewp":15,"wdir":360,"wspd":6,"visib":"6+","altim":1017,"clouds":[{"cover":"FEW","base":3500}],"obsTime":1778090400},"SBAX":{"icaoId":"SBAX","flightCategory":"VFR","rawOb":"METAR SBAX 061800Z AUTO 04005KT 350V090 CAVOK 28/13 Q1021","temp":28,"dewp":13,"wdir":40,"wspd":5,"visib":"6+","altim":1021,"clouds":[],"obsTime":1778090400},"SBBH":{"icaoId":"SBBH","flightCategory":"VFR","rawOb":"METAR SBBH 061800Z COR 05006KT CAVOK 32/15 Q1017","temp":32,"dewp":15,"wdir":50,"wspd":6,"visib":"6+","altim":1017,"clouds":[],"obsTime":1778090400},"SBBQ":{"icaoId":"SBBQ","flightCategory":"VFR","rawOb":"METAR SBBQ 061800Z 09007KT 060V120 CAVOK 24/12 Q1025","temp":24,"dewp":12,"wdir":90,"wspd":7,"visib":"6+","altim":1025,"clouds":[],"obsTime":1778090400},"SBBU":{"icaoId":"SBBU","flightCategory":"VFR","rawOb":"METAR SBBU 061800Z /////KT 9999 SCT048 31/16 Q1018","temp":31,"dewp":16,"wdir":null,"wspd":null,"visib":"6+","altim":1018,"clouds":[{"cover":"SCT","base":4800}],"obsTime":1778090400},"SBCA":{"icaoId":"SBCA","flightCategory":"VFR","rawOb":"METAR SBCA 061800Z 02018KT 9999 FEW020 28/17 Q1019","temp":28,"dewp":17,"wdir":20,"wspd":18,"visib":"6+","altim":1019,"clouds":[{"cover":"FEW","base":2000}],"obsTime":1778090400},"SBCC":{"icaoId":"SBCC","flightCategory":"VFR","rawOb":"METAR SBCC 061800Z 07005KT CAVOK 32/15 Q1014","temp":32,"dewp":15,"wdir":70,"wspd":5,"visib":"6+","altim":1014,"clouds":[],"obsTime":1778090400},"SBSM":{"icaoId":"SBSM","flightCategory":"VFR","rawOb":"METAR SBSM 061800Z 34008KT 280V020 9999 FEW045 32/21 Q1012","temp":32,"dewp":21,"wdir":340,"wspd":8,"visib":"6+","altim":1012,"clouds":[{"cover":"FEW","base":4500}],"obsTime":1778090400},"SBJP":{"icaoId":"SBJP","flightCategory":"VFR","rawOb":"METAR SBJP 061800Z 12012KT 9999 SCT025 28/24 Q1012","temp":28,"dewp":24,"wdir":120,"wspd":12,"visib":"6+","altim":1012,"clouds":[{"cover":"SCT","base":2500}],"obsTime":1778090400},"SBIH":{"icaoId":"SBIH","flightCategory":"VFR","rawOb":"METAR SBIH 061800Z 15002KT 9999 SCT018 FEW025TCU 32/25 Q1010","temp":32,"dewp":25,"wdir":150,"wspd":2,"visib":"6+","altim":1010,"clouds":[{"cover":"SCT","base":1800},{"cover":"FEW","base":2500}],"obsTime":1778090400},"SBAN":{"icaoId":"SBAN","flightCategory":"VFR","rawOb":"METAR SBAN 061800Z 15012KT 090V190 9999 SCT035 27/13 Q1021","temp":27,"dewp":13,"wdir":150,"wspd":12,"visib":"6+","altim":1021,"clouds":[{"cover":"SCT","base":3500}],"obsTime":1778090400},"SBLE":{"icaoId":"SBLE","flightCategory":"VFR","rawOb":"METAR SBLE 061800Z AUTO 05003KT 010V120 9999 FEW026 BKN039 25/25 Q1017","temp":25,"dewp":25,"wdir":50,"wspd":3,"visib":"6+","altim":1017,"clouds":[{"cover":"FEW","base":2600},{"cover":"BKN","base":3900}],"obsTime":1778090400},"SBGW":{"icaoId":"SBGW","flightCategory":"VFR","rawOb":"METAR SBGW 061800Z 06006KT 360V120 9999 FEW030 29/14 Q1019","temp":29,"dewp":14,"wdir":60,"wspd":6,"visib":"6+","altim":1019,"clouds":[{"cover":"FEW","base":3000}],"obsTime":1778090400},"SBJR":{"icaoId":"SBJR","flightCategory":"VFR","rawOb":"METAR SBJR 061800Z 17006KT 9999 FEW025 29/21 Q1017","temp":29,"dewp":21,"wdir":170,"wspd":6,"visib":"6+","altim":1017,"clouds":[{"cover":"FEW","base":2500}],"obsTime":1778090400},"SBJV":{"icaoId":"SBJV","flightCategory":"VFR","rawOb":"METAR SBJV 061800Z 14006KT 9999 FEW015 26/23 Q1016","temp":26,"dewp":23,"wdir":140,"wspd":6,"visib":"6+","altim":1016,"clouds":[{"cover":"FEW","base":1500}],"obsTime":1778090400},"SBMT":{"icaoId":"SBMT","flightCategory":"VFR","rawOb":"METAR SBMT 061800Z 01005KT 9999 FEW030 29/12 Q1020","temp":29,"dewp":12,"wdir":10,"wspd":5,"visib":"6+","altim":1020,"clouds":[{"cover":"FEW","base":3000}],"obsTime":1778090400},"SBTA":{"icaoId":"SBTA","flightCategory":"VFR","rawOb":"METAR SBTA 061800Z 05005KT 9999 FEW035 29/14 Q1019","temp":29,"dewp":14,"wdir":50,"wspd":5,"visib":"6+","altim":1019,"clouds":[{"cover":"FEW","base":3500}],"obsTime":1778090400},"SBST":{"icaoId":"SBST","flightCategory":"MVFR","rawOb":"METAR SBST 061800Z /////KT 6000 SCT020 ///// Q1017","temp":null,"dewp":null,"wdir":null,"wspd":null,"visib":3.73,"altim":1017,"clouds":[{"cover":"SCT","base":2000}],"obsTime":1778090400},"SBAF":{"icaoId":"SBAF","flightCategory":"VFR","rawOb":"METAR SBAF 061800Z 18008KT 9999 FEW030 ///// Q1017","temp":null,"dewp":null,"wdir":180,"wspd":8,"visib":"6+","altim":1017,"clouds":[{"cover":"FEW","base":3000}],"obsTime":1778090400},"SBLS":{"icaoId":"SBLS","flightCategory":"VFR","rawOb":"METAR SBLS 061800Z 14011KT 9999 SCT035 26/17 Q1021","temp":26,"dewp":17,"wdir":140,"wspd":11,"visib":"6+","altim":1021,"clouds":[{"cover":"SCT","base":3500}],"obsTime":1778090400}}}