{"updated":1775642155,"count":65,"data":{"SBKP":{"icaoId":"SBKP","flightCategory":"VFR","rawOb":"METAR SBKP 080800Z 02007KT 9999 FEW010 BKN035 22/20 Q1016","temp":22,"dewp":20,"wdir":20,"wspd":7,"visib":"6+","altim":1016,"clouds":[{"cover":"FEW","base":1000},{"cover":"BKN","base":3500}],"obsTime":1775635200},"SBMK":{"icaoId":"SBMK","flightCategory":"VFR","rawOb":"METAR SBMK 080800Z 00000KT CAVOK 19/18 Q1017","temp":19,"dewp":18,"wdir":0,"wspd":0,"visib":"6+","altim":1017,"clouds":[],"obsTime":1775635200},"SBBE":{"icaoId":"SBBE","flightCategory":"VFR","rawOb":"METAR SBBE 080800Z 06004KT CAVOK 25/24 Q1010","temp":25,"dewp":24,"wdir":60,"wspd":4,"visib":"6+","altim":1010,"clouds":[],"obsTime":1775635200},"SBMO":{"icaoId":"SBMO","flightCategory":"MVFR","rawOb":"METAR SBMO 080800Z 30003KT 5000 BR FEW020 23/23 Q1012","temp":23,"dewp":23,"wdir":300,"wspd":3,"visib":3.11,"altim":1012,"clouds":[{"cover":"FEW","base":2000}],"obsTime":1775635200},"SBCG":{"icaoId":"SBCG","flightCategory":"VFR","rawOb":"METAR SBCG 080800Z 32004KT 9999 FEW035 21/20 Q1015","temp":21,"dewp":20,"wdir":320,"wspd":4,"visib":"6+","altim":1015,"clouds":[{"cover":"FEW","base":3500}],"obsTime":1775635200},"SBMQ":{"icaoId":"SBMQ","flightCategory":"LIFR","rawOb":"METAR SBMQ 080800Z 30003KT 0700 FG VV002 25/25 Q1010","temp":25,"dewp":25,"wdir":300,"wspd":3,"visib":0.43,"altim":1010,"clouds":[{"cover":"OVX","base":200}],"obsTime":1775635200},"SBGL":{"icaoId":"SBGL","flightCategory":"MVFR","rawOb":"METAR SBGL 080800Z 10002KT 8000 NSC 23/22 Q1011","temp":23,"dewp":22,"wdir":100,"wspd":2,"visib":4.97,"altim":1011,"clouds":[],"obsTime":1775635200},"SBNT":{"icaoId":"SBNT","flightCategory":"VFR","rawOb":"METAR SBNT 080800Z 21005KT 9999 FEW020 24/23 Q1011","temp":24,"dewp":23,"wdir":210,"wspd":5,"visib":"6+","altim":1011,"clouds":[{"cover":"FEW","base":2000}],"obsTime":1775635200},"SBPA":{"icaoId":"SBPA","flightCategory":"MVFR","rawOb":"METAR SBPA 080800Z 29008KT 5000 -RA BKN010 21/20 Q1005","temp":21,"dewp":20,"wdir":290,"wspd":8,"visib":3.11,"altim":1005,"clouds":[{"cover":"BKN","base":1000}],"obsTime":1775635200},"SBCT":{"icaoId":"SBCT","flightCategory":"VFR","rawOb":"METAR SBCT 080800Z 33007KT 9999 FEW030 BKN080 19/17 Q1014","temp":19,"dewp":17,"wdir":330,"wspd":7,"visib":"6+","altim":1014,"clouds":[{"cover":"FEW","base":3000},{"cover":"BKN","base":8000}],"obsTime":1775635200},"SBGO":{"icaoId":"SBGO","flightCategory":"VFR","rawOb":"METAR SBGO 080800Z 35003KT 320V030 CAVOK 21/19 Q1018","temp":21,"dewp":19,"wdir":350,"wspd":3,"visib":"6+","altim":1018,"clouds":[],"obsTime":1775635200},"SBPJ":{"icaoId":"SBPJ","flightCategory":"VFR","rawOb":"METAR SBPJ 080800Z 10005KT CAVOK 24/23 Q1013","temp":24,"dewp":23,"wdir":100,"wspd":5,"visib":"6+","altim":1013,"clouds":[],"obsTime":1775635200},"SBBV":{"icaoId":"SBBV","flightCategory":"VFR","rawOb":"METAR SBBV 080800Z 08004KT 9999 SCT040 FEW045TCU BKN070 25/23 Q1010","temp":25,"dewp":23,"wdir":80,"wspd":4,"visib":"6+","altim":1010,"clouds":[{"cover":"SCT","base":4000},{"cover":"FEW","base":4500},{"cover":"BKN","base":7000}],"obsTime":1775635200},"SBPV":{"icaoId":"SBPV","flightCategory":"VFR","rawOb":"METAR SBPV 080800Z 20002KT CAVOK 24/23 Q1011","temp":24,"dewp":23,"wdir":200,"wspd":2,"visib":"6+","altim":1011,"clouds":[],"obsTime":1775635200},"SBGR":{"icaoId":"SBGR","flightCategory":"VFR","rawOb":"METAR SBGR 080800Z 30006KT CAVOK 22/19 Q1016","temp":22,"dewp":19,"wdir":300,"wspd":6,"visib":"6+","altim":1016,"clouds":[],"obsTime":1775635200},"SBRB":{"icaoId":"SBRB","flightCategory":"VFR","rawOb":"METAR SBRB 080800Z 08002KT 9999 FEW015 BKN080 23/23 Q1011","temp":23,"dewp":23,"wdir":80,"wspd":2,"visib":"6+","altim":1011,"clouds":[{"cover":"FEW","base":1500},{"cover":"BKN","base":8000}],"obsTime":1775635200},"SBCB":{"icaoId":"SBCB","flightCategory":"VFR","rawOb":"METAR SBCB 080900Z 05011KT 9999 FEW010 24/23 Q1012","temp":24,"dewp":23,"wdir":50,"wspd":11,"visib":"6+","altim":1012,"clouds":[{"cover":"FEW","base":1000}],"obsTime":1775638800},"SBRF":{"icaoId":"SBRF","flightCategory":"MVFR","rawOb":"METAR SBRF 080800Z 20003KT 5000 -RA BR BKN012 SCT017 FEW023TCU BKN050 25/24 Q1011 RERA","temp":25,"dewp":24,"wdir":200,"wspd":3,"visib":3.11,"altim":1011,"clouds":[{"cover":"BKN","base":1200},{"cover":"SCT","base":1700},{"cover":"FEW","base":2300},{"cover":"BKN","base":5000}],"obsTime":1775635200},"SBJU":{"icaoId":"SBJU","flightCategory":"IFR","rawOb":"METAR SBJU 080800Z 00000KT 2000 BR SCT019 22/22 Q1014","temp":22,"dewp":22,"wdir":0,"wspd":0,"visib":1.24,"altim":1014,"clouds":[{"cover":"SCT","base":1900}],"obsTime":1775635200},"SBSG":{"icaoId":"SBSG","flightCategory":"VFR","rawOb":"METAR SBSG 080800Z 21003KT 9999 FEW020 24/23 Q1012","temp":24,"dewp":23,"wdir":210,"wspd":3,"visib":"6+","altim":1012,"clouds":[{"cover":"FEW","base":2000}],"obsTime":1775635200},"SBSL":{"icaoId":"SBSL","flightCategory":"VFR","rawOb":"METAR SBSL 080800Z 08003KT 9999 FEW017 SCT080 26/25 Q1010","temp":26,"dewp":25,"wdir":80,"wspd":3,"visib":"6+","altim":1010,"clouds":[{"cover":"FEW","base":1700},{"cover":"SCT","base":8000}],"obsTime":1775635200},"SBEG":{"icaoId":"SBEG","flightCategory":"VFR","rawOb":"METAR SBEG 080800Z 00000KT 9999 FEW010 BKN100 24/24 Q1011","temp":24,"dewp":24,"wdir":0,"wspd":0,"visib":"6+","altim":1011,"clouds":[{"cover":"FEW","base":1000},{"cover":"BKN","base":10000}],"obsTime":1775635200},"SBMG":{"icaoId":"SBMG","flightCategory":"VFR","rawOb":"METAR SBMG 080800Z AUTO 36012KT 9999 FEW004 21/21 Q1014","temp":21,"dewp":21,"wdir":360,"wspd":12,"visib":"6+","altim":1014,"clouds":[{"cover":"FEW","base":400}],"obsTime":1775635200},"SBFL":{"icaoId":"SBFL","flightCategory":"VFR","rawOb":"METAR SBFL 080800Z 34006KT 9999 FEW010 OVC100 23/22 Q1007","temp":23,"dewp":22,"wdir":340,"wspd":6,"visib":"6+","altim":1007,"clouds":[{"cover":"FEW","base":1000},{"cover":"OVC","base":10000}],"obsTime":1775635200},"SBFZ":{"icaoId":"SBFZ","flightCategory":"VFR","rawOb":"METAR SBFZ 080800Z VRB01KT 9999 FEW023 25/23 Q1011","temp":25,"dewp":23,"wdir":"VRB","wspd":1,"visib":"6+","altim":1011,"clouds":[{"cover":"FEW","base":2300}],"obsTime":1775635200},"SBSN":{"icaoId":"SBSN","flightCategory":"VFR","rawOb":"METAR SBSN 080800Z 08008KT 9999 -RA SCT013 FEW025TCU BKN070 26/25 Q1011 RERA","temp":26,"dewp":25,"wdir":80,"wspd":8,"visib":"6+","altim":1011,"clouds":[{"cover":"SCT","base":1300},{"cover":"FEW","base":2500},{"cover":"BKN","base":7000}],"obsTime":1775635200},"SBSP":{"icaoId":"SBSP","flightCategory":"VFR","rawOb":"METAR SBSP 080800Z AUTO 33006KT 290V350 CAVOK 22/19 Q1017","temp":22,"dewp":19,"wdir":330,"wspd":6,"visib":"6+","altim":1017,"clouds":[],"obsTime":1775635200},"SBSV":{"icaoId":"SBSV","flightCategory":"MVFR","rawOb":"METAR SBSV 080800Z 34004KT 300V060 9000 VCSH BKN021 FEW025TCU BKN050 25/24 Q1013","temp":25,"dewp":24,"wdir":340,"wspd":4,"visib":5.59,"altim":1013,"clouds":[{"cover":"BKN","base":2100},{"cover":"FEW","base":2500},{"cover":"BKN","base":5000}],"obsTime":1775635200},"SBBR":{"icaoId":"SBBR","flightCategory":"VFR","rawOb":"METAR SBBR 080800Z 25002KT CAVOK 20/19 Q1019","temp":20,"dewp":19,"wdir":250,"wspd":2,"visib":"6+","altim":1019,"clouds":[],"obsTime":1775635200},"SBTE":{"icaoId":"SBTE","flightCategory":"VFR","rawOb":"METAR SBTE 080800Z 32002KT CAVOK 25/24 Q1011","temp":25,"dewp":24,"wdir":320,"wspd":2,"visib":"6+","altim":1011,"clouds":[],"obsTime":1775635200},"SBLO":{"icaoId":"SBLO","flightCategory":"LIFR","rawOb":"METAR SBLO 080800Z 36005KT 6000 BKN003 21/21 Q1015","temp":21,"dewp":21,"wdir":360,"wspd":5,"visib":3.73,"altim":1015,"clouds":[{"cover":"BKN","base":300}],"obsTime":1775635200},"SBUL":{"icaoId":"SBUL","flightCategory":"VFR","rawOb":"METAR SBUL 080800Z 10004KT CAVOK 21/18 Q1019","temp":21,"dewp":18,"wdir":100,"wspd":4,"visib":"6+","altim":1019,"clouds":[],"obsTime":1775635200},"SBFI":{"icaoId":"SBFI","flightCategory":"IFR","rawOb":"METAR SBFI 080800Z 25005KT 9999 BKN007 20/20 Q1013","temp":20,"dewp":20,"wdir":250,"wspd":5,"visib":"6+","altim":1013,"clouds":[{"cover":"BKN","base":700}],"obsTime":1775635200},"SBUR":{"icaoId":"SBUR","flightCategory":"VFR","rawOb":"METAR SBUR 080800Z 02004KT 9999 SCT016 SCT076 21/19 Q1018","temp":21,"dewp":19,"wdir":20,"wspd":4,"visib":"6+","altim":1018,"clouds":[{"cover":"SCT","base":1600},{"cover":"SCT","base":7600}],"obsTime":1775635200},"SBMA":{"icaoId":"SBMA","flightCategory":"VFR","rawOb":"METAR SBMA 080800Z 15005KT 9999 -TSRA FEW012 FEW020CB 27/25 Q1011","temp":27,"dewp":25,"wdir":150,"wspd":5,"visib":"6+","altim":1011,"clouds":[{"cover":"FEW","base":1200},{"cover":"FEW","base":2000}],"obsTime":1775635200},"SBVT":{"icaoId":"SBVT","flightCategory":"VFR","rawOb":"METAR SBVT 080800Z 30002KT 9999 FEW015 22/22 Q1014","temp":22,"dewp":22,"wdir":300,"wspd":2,"visib":"6+","altim":1014,"clouds":[{"cover":"FEW","base":1500}],"obsTime":1775635200},"SBCF":{"icaoId":"SBCF","flightCategory":"VFR","rawOb":"METAR SBCF 080800Z 20002KT CAVOK 19/17 Q1019","temp":19,"dewp":17,"wdir":200,"wspd":2,"visib":"6+","altim":1019,"clouds":[],"obsTime":1775635200},"SBME":{"icaoId":"SBME","flightCategory":"VFR","rawOb":"METAR SBME 080800Z 05011KT CAVOK 25/23 Q1012","temp":25,"dewp":23,"wdir":50,"wspd":11,"visib":"6+","altim":1012,"clouds":[],"obsTime":1775635200},"SBOI":{"icaoId":"SBOI","flightCategory":"LIFR","rawOb":"METAR SBOI 080800Z AUTO 00000KT 0800 // VV002 25/24 Q1011","temp":25,"dewp":24,"wdir":0,"wspd":0,"visib":0.5,"altim":1011,"clouds":[{"cover":"OVX","base":200}],"obsTime":1775635200},"SBPL":{"icaoId":"SBPL","flightCategory":"VFR","rawOb":"METAR SBPL 080800Z 12008KT CAVOK 25/21 Q1014","temp":25,"dewp":21,"wdir":120,"wspd":8,"visib":"6+","altim":1014,"clouds":[],"obsTime":1775635200},"SBAX":{"icaoId":"SBAX","flightCategory":"VFR","rawOb":"METAR SBAX 080800Z AUTO VRB02KT CAVOK ///// Q1019","temp":null,"dewp":null,"wdir":"VRB","wspd":2,"visib":"6+","altim":1019,"clouds":[],"obsTime":1775635200},"SBCC":{"icaoId":"SBCC","flightCategory":"VFR","rawOb":"METAR SBCC 080800Z 04004KT CAVOK 23/21 Q1014","temp":23,"dewp":21,"wdir":40,"wspd":4,"visib":"6+","altim":1014,"clouds":[],"obsTime":1775635200},"SBPS":{"icaoId":"SBPS","flightCategory":"MVFR","rawOb":"METAR SBPS 080800Z 23003KT 190V260 9999 FEW015 BKN020 23/23 Q1015","temp":23,"dewp":23,"wdir":230,"wspd":3,"visib":"6+","altim":1015,"clouds":[{"cover":"FEW","base":1500},{"cover":"BKN","base":2000}],"obsTime":1775635200},"SBSC":{"icaoId":"SBSC","flightCategory":"VFR","rawOb":"METAR SBSC 080800Z 36009KT 9999 FEW020 SCT100 26/20 Q1011","temp":26,"dewp":20,"wdir":360,"wspd":9,"visib":"6+","altim":1011,"clouds":[{"cover":"FEW","base":2000},{"cover":"SCT","base":10000}],"obsTime":1775635200},"SBCO":{"icaoId":"SBCO","flightCategory":"MVFR","rawOb":"METAR SBCO 080900Z 31011KT 9999 BKN010 SCT035 21/19 Q1006","temp":21,"dewp":19,"wdir":310,"wspd":11,"visib":"6+","altim":1006,"clouds":[{"cover":"BKN","base":1000},{"cover":"SCT","base":3500}],"obsTime":1775638800},"SBSJ":{"icaoId":"SBSJ","flightCategory":"LIFR","rawOb":"SPECI SBSJ 080830Z 00000KT 0900 R16///// R34///// FG VV002 20/19 Q1016","temp":20,"dewp":19,"wdir":0,"wspd":0,"visib":0.56,"altim":1016,"clouds":[{"cover":"OVX","base":200}],"obsTime":1775637000},"SBSM":{"icaoId":"SBSM","flightCategory":"MVFR","rawOb":"METAR SBSM 080900Z 28010KT 9999 OVC010 19/18 Q1009","temp":19,"dewp":18,"wdir":280,"wspd":10,"visib":"6+","altim":1009,"clouds":[{"cover":"OVC","base":1000}],"obsTime":1775638800},"SBBH":{"icaoId":"SBBH","flightCategory":"VFR","rawOb":"METAR SBBH 080900Z 11002KT CAVOK 18/17 Q1019","temp":18,"dewp":17,"wdir":110,"wspd":2,"visib":"6+","altim":1019,"clouds":[],"obsTime":1775638800},"SBSR":{"icaoId":"SBSR","flightCategory":"MVFR","rawOb":"METAR SBSR 080800Z 24015KT 9999 -RA SCT010 BKN025 BKN070 21/20 Q1017","temp":21,"dewp":20,"wdir":240,"wspd":15,"visib":"6+","altim":1017,"clouds":[{"cover":"SCT","base":1000},{"cover":"BKN","base":2500},{"cover":"BKN","base":7000}],"obsTime":1775635200},"SBDN":{"icaoId":"SBDN","flightCategory":"LIFR","rawOb":"METAR SBDN 080800Z 03006KT 9999 OVC003 22/20 Q1015","temp":22,"dewp":20,"wdir":30,"wspd":6,"visib":"6+","altim":1015,"clouds":[{"cover":"OVC","base":300}],"obsTime":1775635200},"SBES":{"icaoId":"SBES","flightCategory":"VFR","rawOb":"METAR SBES 080900Z 05006KT 310V080 9000 FEW005 22/// Q1012","temp":null,"dewp":null,"wdir":50,"wspd":6,"visib":5.59,"altim":1012,"clouds":[{"cover":"FEW","base":500}],"obsTime":1775638800},"SBBU":{"icaoId":"SBBU","flightCategory":"VFR","rawOb":"METAR SBBU 080900Z /////KT 9999 -RA FEW002 SCT030 OVC075 21/21 Q1017","temp":21,"dewp":21,"wdir":null,"wspd":null,"visib":"6+","altim":1017,"clouds":[{"cover":"FEW","base":200},{"cover":"SCT","base":3000},{"cover":"OVC","base":7500}],"obsTime":1775638800},"SBIP":{"icaoId":"SBIP","flightCategory":"VFR","rawOb":"METAR SBIP 080800Z AUTO 00000KT CAVOK 20/20 Q1016","temp":20,"dewp":20,"wdir":0,"wspd":0,"visib":"6+","altim":1016,"clouds":[],"obsTime":1775635200},"SBAR":{"icaoId":"SBAR","flightCategory":"VFR","rawOb":"METAR SBAR 080800Z 05003KT 9999 FEW018 BKN035 25/25 Q1012","temp":25,"dewp":25,"wdir":50,"wspd":3,"visib":"6+","altim":1012,"clouds":[{"cover":"FEW","base":1800},{"cover":"BKN","base":3500}],"obsTime":1775635200},"SBKG":{"icaoId":"SBKG","flightCategory":"MVFR","rawOb":"METAR SBKG 080800Z 00000KT 9999 BKN010 22/22 Q1014","temp":22,"dewp":22,"wdir":0,"wspd":0,"visib":"6+","altim":1014,"clouds":[{"cover":"BKN","base":1000}],"obsTime":1775635200},"SBCA":{"icaoId":"SBCA","flightCategory":"MVFR","rawOb":"METAR SBCA 080800Z 28007KT 8000 -DZ FEW002 BKN015 FEW030TCU 18/18 Q1015","temp":18,"dewp":18,"wdir":280,"wspd":7,"visib":4.97,"altim":1015,"clouds":[{"cover":"FEW","base":200},{"cover":"BKN","base":1500},{"cover":"FEW","base":3000}],"obsTime":1775635200},"SBLS":{"icaoId":"SBLS","flightCategory":"VFR","rawOb":"METAR SBLS 080900Z 16004KT CAVOK 19/17 Q1019","temp":19,"dewp":17,"wdir":160,"wspd":4,"visib":"6+","altim":1019,"clouds":[],"obsTime":1775638800},"SBMT":{"icaoId":"SBMT","flightCategory":"VFR","rawOb":"METAR SBMT 080900Z 31007KT 280V340 9999 FEW019 SCT090 22/19 Q1016","temp":22,"dewp":19,"wdir":310,"wspd":7,"visib":"6+","altim":1016,"clouds":[{"cover":"FEW","base":1900},{"cover":"SCT","base":9000}],"obsTime":1775638800},"SBTA":{"icaoId":"SBTA","flightCategory":"VFR","rawOb":"METAR SBTA 080900Z VRB01KT 9999 FEW010 BKN100 20/20 Q1015","temp":20,"dewp":20,"wdir":"VRB","wspd":1,"visib":"6+","altim":1015,"clouds":[{"cover":"FEW","base":1000},{"cover":"BKN","base":10000}],"obsTime":1775638800},"SBJV":{"icaoId":"SBJV","flightCategory":"VFR","rawOb":"METAR SBJV 080900Z 17001KT CAVOK 22/22 Q1008","temp":22,"dewp":22,"wdir":170,"wspd":1,"visib":"6+","altim":1008,"clouds":[],"obsTime":1775638800},"SBPF":{"icaoId":"SBPF","flightCategory":"IFR","rawOb":"METAR SBPF 080900Z 30012KT 8000 -RA BKN005 BKN070 18/18 Q1012","temp":18,"dewp":18,"wdir":300,"wspd":12,"visib":4.97,"altim":1012,"clouds":[{"cover":"BKN","base":500},{"cover":"BKN","base":7000}],"obsTime":1775638800},"SBGW":{"icaoId":"SBGW","flightCategory":"MVFR","rawOb":"METAR SBGW 080900Z 00000KT 8000 FEW015 BKN100 21/18 Q1016","temp":21,"dewp":18,"wdir":0,"wspd":0,"visib":4.97,"altim":1016,"clouds":[{"cover":"FEW","base":1500},{"cover":"BKN","base":10000}],"obsTime":1775638800},"SBJP":{"icaoId":"SBJP","flightCategory":"VFR","rawOb":"METAR SBJP 080800Z 23003KT 9999 FEW018 24/23 Q1012","temp":24,"dewp":23,"wdir":230,"wspd":3,"visib":"6+","altim":1012,"clouds":[{"cover":"FEW","base":1800}],"obsTime":1775635200},"SBAN":{"icaoId":"SBAN","flightCategory":"VFR","rawOb":"METAR SBAN 080800Z 12005KT 9999 FEW030 SCT100 19/18 Q1020","temp":19,"dewp":18,"wdir":120,"wspd":5,"visib":"6+","altim":1020,"clouds":[{"cover":"FEW","base":3000},{"cover":"SCT","base":10000}],"obsTime":1775635200},"SBIH":{"icaoId":"SBIH","flightCategory":"MVFR","rawOb":"METAR SBIH 080900Z 00000KT 5000 BR FEW010 25/25 Q1011","temp":25,"dewp":25,"wdir":0,"wspd":0,"visib":3.11,"altim":1011,"clouds":[{"cover":"FEW","base":1000}],"obsTime":1775638800}}}