{"updated":1777199634,"count":70,"data":{"SBBV":{"icaoId":"SBBV","flightCategory":"IFR","rawOb":"METAR SBBV 260900Z 35003KT 9999 -SHRA BKN006 SCT040 FEW045TCU BKN100 25/24 Q1011","temp":25,"dewp":24,"wdir":350,"wspd":3,"visib":"6+","altim":1011,"clouds":[{"cover":"BKN","base":600},{"cover":"SCT","base":4000},{"cover":"FEW","base":4500},{"cover":"BKN","base":10000}],"obsTime":1777194000},"SBPA":{"icaoId":"SBPA","flightCategory":"IFR","rawOb":"METAR SBPA 260900Z VRB02KT 4000 BR SCT003 19/19 Q1009","temp":19,"dewp":19,"wdir":"VRB","wspd":2,"visib":2.49,"altim":1009,"clouds":[{"cover":"SCT","base":300}],"obsTime":1777194000},"SBFI":{"icaoId":"SBFI","flightCategory":"MVFR","rawOb":"METAR SBFI 260900Z 01002KT 7000 FEW003 BKN030 BKN070 22/22 Q1010","temp":22,"dewp":22,"wdir":10,"wspd":2,"visib":4.35,"altim":1010,"clouds":[{"cover":"FEW","base":300},{"cover":"BKN","base":3000},{"cover":"BKN","base":7000}],"obsTime":1777194000},"SBBE":{"icaoId":"SBBE","flightCategory":"VFR","rawOb":"METAR SBBE 260900Z 07005KT 9999 FEW006 SCT100 24/23 Q1010","temp":24,"dewp":23,"wdir":70,"wspd":5,"visib":"6+","altim":1010,"clouds":[{"cover":"FEW","base":600},{"cover":"SCT","base":10000}],"obsTime":1777194000},"SBBR":{"icaoId":"SBBR","flightCategory":"VFR","rawOb":"METAR SBBR 260900Z VRB01KT 9999 FEW040 SCT060 17/15 Q1019","temp":17,"dewp":15,"wdir":"VRB","wspd":1,"visib":"6+","altim":1019,"clouds":[{"cover":"FEW","base":4000},{"cover":"SCT","base":6000}],"obsTime":1777194000},"SBCB":{"icaoId":"SBCB","flightCategory":"VFR","rawOb":"METAR SBCB 260900Z 06003KT CAVOK 21/19 Q1011","temp":21,"dewp":19,"wdir":60,"wspd":3,"visib":"6+","altim":1011,"clouds":[],"obsTime":1777194000},"SBCF":{"icaoId":"SBCF","flightCategory":"MVFR","rawOb":"METAR SBCF 260900Z 21002KT 6000 NSC 16/16 Q1018","temp":16,"dewp":16,"wdir":210,"wspd":2,"visib":3.73,"altim":1018,"clouds":[],"obsTime":1777194000},"SBCG":{"icaoId":"SBCG","flightCategory":"VFR","rawOb":"METAR SBCG 260900Z 02002KT CAVOK 21/19 Q1013","temp":21,"dewp":19,"wdir":20,"wspd":2,"visib":"6+","altim":1013,"clouds":[],"obsTime":1777194000},"SBCP":{"icaoId":"SBCP","flightCategory":"VFR","rawOb":"METAR SBCP 261000Z 35007KT CAVOK 23/20 Q1012","temp":23,"dewp":20,"wdir":350,"wspd":7,"visib":"6+","altim":1012,"clouds":[],"obsTime":1777197600},"SBCT":{"icaoId":"SBCT","flightCategory":"LIFR","rawOb":"METAR SBCT 260900Z 04004KT 3000 BR BKN003 17/17 Q1015","temp":17,"dewp":17,"wdir":40,"wspd":4,"visib":1.86,"altim":1015,"clouds":[{"cover":"BKN","base":300}],"obsTime":1777194000},"SBEG":{"icaoId":"SBEG","flightCategory":"VFR","rawOb":"METAR SBEG 260900Z 04002KT 9999 FEW012 SCT100 24/23 Q1012","temp":24,"dewp":23,"wdir":40,"wspd":2,"visib":"6+","altim":1012,"clouds":[{"cover":"FEW","base":1200},{"cover":"SCT","base":10000}],"obsTime":1777194000},"SBFL":{"icaoId":"SBFL","flightCategory":"MVFR","rawOb":"METAR SBFL 260900Z 10005KT 9999 -RA BKN023 BKN080 21/21 Q1009","temp":21,"dewp":21,"wdir":100,"wspd":5,"visib":"6+","altim":1009,"clouds":[{"cover":"BKN","base":2300},{"cover":"BKN","base":8000}],"obsTime":1777194000},"SBFZ":{"icaoId":"SBFZ","flightCategory":"VFR","rawOb":"METAR SBFZ 260900Z 25003KT 9999 FEW020 BKN100 25/22 Q1011","temp":25,"dewp":22,"wdir":250,"wspd":3,"visib":"6+","altim":1011,"clouds":[{"cover":"FEW","base":2000},{"cover":"BKN","base":10000}],"obsTime":1777194000},"SBGL":{"icaoId":"SBGL","flightCategory":"VFR","rawOb":"METAR SBGL 260900Z 06002KT CAVOK 22/20 Q1011","temp":22,"dewp":20,"wdir":60,"wspd":2,"visib":"6+","altim":1011,"clouds":[],"obsTime":1777194000},"SBGO":{"icaoId":"SBGO","flightCategory":"VFR","rawOb":"METAR SBGO 260900Z 32002KT CAVOK 18/17 Q1017","temp":18,"dewp":17,"wdir":320,"wspd":2,"visib":"6+","altim":1017,"clouds":[],"obsTime":1777194000},"SBGR":{"icaoId":"SBGR","flightCategory":"VFR","rawOb":"METAR SBGR 260900Z 07002KT CAVOK 17/16 Q1015","temp":17,"dewp":16,"wdir":70,"wspd":2,"visib":"6+","altim":1015,"clouds":[],"obsTime":1777194000},"SBHT":{"icaoId":"SBHT","flightCategory":"VFR","rawOb":"METAR SBHT 261000Z 00000KT 9999 FEW010 BKN080 23/23 Q1011","temp":23,"dewp":23,"wdir":0,"wspd":0,"visib":"6+","altim":1011,"clouds":[{"cover":"FEW","base":1000},{"cover":"BKN","base":8000}],"obsTime":1777197600},"SBIL":{"icaoId":"SBIL","flightCategory":"VFR","rawOb":"METAR SBIL 261000Z 29006KT 9999 FEW025 24/24 Q1015","temp":24,"dewp":24,"wdir":290,"wspd":6,"visib":"6+","altim":1015,"clouds":[{"cover":"FEW","base":2500}],"obsTime":1777197600},"SBJU":{"icaoId":"SBJU","flightCategory":"MVFR","rawOb":"METAR SBJU 260900Z 00000KT 9999 BKN020 24/21 Q1014","temp":24,"dewp":21,"wdir":0,"wspd":0,"visib":"6+","altim":1014,"clouds":[{"cover":"BKN","base":2000}],"obsTime":1777194000},"SBKP":{"icaoId":"SBKP","flightCategory":"VFR","rawOb":"METAR SBKP 260900Z 08005KT CAVOK 19/16 Q1014","temp":19,"dewp":16,"wdir":80,"wspd":5,"visib":"6+","altim":1014,"clouds":[],"obsTime":1777194000},"SBLO":{"icaoId":"SBLO","flightCategory":"MVFR","rawOb":"METAR SBLO 260900Z 09002KT 7000 NSC 19/18 Q1013","temp":19,"dewp":18,"wdir":90,"wspd":2,"visib":4.35,"altim":1013,"clouds":[],"obsTime":1777194000},"SBMA":{"icaoId":"SBMA","flightCategory":"VFR","rawOb":"METAR SBMA 260900Z 21002KT 9999 FEW010 BKN100 24/24 Q1011","temp":24,"dewp":24,"wdir":210,"wspd":2,"visib":"6+","altim":1011,"clouds":[{"cover":"FEW","base":1000},{"cover":"BKN","base":10000}],"obsTime":1777194000},"SBME":{"icaoId":"SBME","flightCategory":"VFR","rawOb":"METAR SBME 260900Z 01003KT CAVOK 21/19 Q1011","temp":21,"dewp":19,"wdir":10,"wspd":3,"visib":"6+","altim":1011,"clouds":[],"obsTime":1777194000},"SBMG":{"icaoId":"SBMG","flightCategory":"VFR","rawOb":"METAR SBMG 260900Z AUTO 04005KT CAVOK 21/18 Q1012","temp":21,"dewp":18,"wdir":40,"wspd":5,"visib":"6+","altim":1012,"clouds":[],"obsTime":1777194000},"SBMK":{"icaoId":"SBMK","flightCategory":"VFR","rawOb":"METAR SBMK 260900Z VRB02KT CAVOK 19/18 Q1017","temp":19,"dewp":18,"wdir":"VRB","wspd":2,"visib":"6+","altim":1017,"clouds":[],"obsTime":1777194000},"SBMO":{"icaoId":"SBMO","flightCategory":"VFR","rawOb":"METAR SBMO 260900Z 04006KT 9999 VCSH SCT020 23/23 Q1013","temp":23,"dewp":23,"wdir":40,"wspd":6,"visib":"6+","altim":1013,"clouds":[{"cover":"SCT","base":2000}],"obsTime":1777194000},"SBMQ":{"icaoId":"SBMQ","flightCategory":"VFR","rawOb":"METAR SBMQ 260900Z 03002KT 9999 SCT026 BKN080 25/25 Q1011","temp":25,"dewp":25,"wdir":30,"wspd":2,"visib":"6+","altim":1011,"clouds":[{"cover":"SCT","base":2600},{"cover":"BKN","base":8000}],"obsTime":1777194000},"SBNT":{"icaoId":"SBNT","flightCategory":"VFR","rawOb":"METAR SBNT 260900Z 18007KT 9999 SCT025 FEW030TCU BKN100 24/23 Q1011","temp":24,"dewp":23,"wdir":180,"wspd":7,"visib":"6+","altim":1011,"clouds":[{"cover":"SCT","base":2500},{"cover":"FEW","base":3000},{"cover":"BKN","base":10000}],"obsTime":1777194000},"SBPJ":{"icaoId":"SBPJ","flightCategory":"VFR","rawOb":"METAR SBPJ 260900Z 12004KT 9999 FEW016 24/23 Q1012","temp":24,"dewp":23,"wdir":120,"wspd":4,"visib":"6+","altim":1012,"clouds":[{"cover":"FEW","base":1600}],"obsTime":1777194000},"SBPV":{"icaoId":"SBPV","flightCategory":"VFR","rawOb":"METAR SBPV 260900Z 00000KT 9999 FEW002 SCT030 25/23 Q1010","temp":25,"dewp":23,"wdir":0,"wspd":0,"visib":"6+","altim":1010,"clouds":[{"cover":"FEW","base":200},{"cover":"SCT","base":3000}],"obsTime":1777194000},"SBRB":{"icaoId":"SBRB","flightCategory":"VFR","rawOb":"METAR SBRB 260900Z 26002KT CAVOK 22/22 Q1010","temp":22,"dewp":22,"wdir":260,"wspd":2,"visib":"6+","altim":1010,"clouds":[],"obsTime":1777194000},"SBRF":{"icaoId":"SBRF","flightCategory":"MVFR","rawOb":"METAR SBRF 260900Z 32002KT 9999 BKN025 25/23 Q1012","temp":25,"dewp":23,"wdir":320,"wspd":2,"visib":"6+","altim":1012,"clouds":[{"cover":"BKN","base":2500}],"obsTime":1777194000},"SBSG":{"icaoId":"SBSG","flightCategory":"MVFR","rawOb":"METAR SBSG 260900Z 19005KT 160V230 5000 -RA BR FEW021 FEW025TCU BKN080 24/23 Q1011","temp":24,"dewp":23,"wdir":190,"wspd":5,"visib":3.11,"altim":1011,"clouds":[{"cover":"FEW","base":2100},{"cover":"FEW","base":2500},{"cover":"BKN","base":8000}],"obsTime":1777194000},"SBSL":{"icaoId":"SBSL","flightCategory":"VFR","rawOb":"METAR SBSL 260900Z 02004KT CAVOK 23/23 Q1010","temp":23,"dewp":23,"wdir":20,"wspd":4,"visib":"6+","altim":1010,"clouds":[],"obsTime":1777194000},"SBSN":{"icaoId":"SBSN","flightCategory":"VFR","rawOb":"METAR SBSN 260900Z 14001KT CAVOK 24/24 Q1010","temp":24,"dewp":24,"wdir":140,"wspd":1,"visib":"6+","altim":1010,"clouds":[],"obsTime":1777194000},"SBSP":{"icaoId":"SBSP","flightCategory":"VFR","rawOb":"METAR SBSP 260900Z COR 02002KT CAVOK 20/17 Q1016","temp":20,"dewp":17,"wdir":20,"wspd":2,"visib":"6+","altim":1016,"clouds":[],"obsTime":1777194000},"SBSV":{"icaoId":"SBSV","flightCategory":"VFR","rawOb":"METAR SBSV 260900Z 28002KT 9999 SCT023 SCT100 23/23 Q1013","temp":23,"dewp":23,"wdir":280,"wspd":2,"visib":"6+","altim":1013,"clouds":[{"cover":"SCT","base":2300},{"cover":"SCT","base":10000}],"obsTime":1777194000},"SBTE":{"icaoId":"SBTE","flightCategory":"MVFR","rawOb":"METAR SBTE 260900Z 19003KT 9999 SCT006 BKN010 OVC090 24/23 Q1011","temp":24,"dewp":23,"wdir":190,"wspd":3,"visib":"6+","altim":1011,"clouds":[{"cover":"SCT","base":600},{"cover":"BKN","base":1000},{"cover":"OVC","base":9000}],"obsTime":1777194000},"SBUL":{"icaoId":"SBUL","flightCategory":"VFR","rawOb":"METAR SBUL 260900Z 11005KT CAVOK 20/15 Q1018","temp":20,"dewp":15,"wdir":110,"wspd":5,"visib":"6+","altim":1018,"clouds":[],"obsTime":1777194000},"SBUR":{"icaoId":"SBUR","flightCategory":"VFR","rawOb":"METAR SBUR 260900Z 03006KT CAVOK 21/14 Q1016","temp":21,"dewp":14,"wdir":30,"wspd":6,"visib":"6+","altim":1016,"clouds":[],"obsTime":1777194000},"SBVT":{"icaoId":"SBVT","flightCategory":"VFR","rawOb":"METAR SBVT 260900Z 34004KT CAVOK 21/20 Q1013","temp":21,"dewp":20,"wdir":340,"wspd":4,"visib":"6+","altim":1013,"clouds":[],"obsTime":1777194000},"SBPB":{"icaoId":"SBPB","flightCategory":"VFR","rawOb":"SPECI SBPB 261015Z 16004KT 9999 SCT010 SCT080 24/23 Q1011","temp":24,"dewp":23,"wdir":160,"wspd":4,"visib":"6+","altim":1011,"clouds":[{"cover":"SCT","base":1000},{"cover":"SCT","base":8000}],"obsTime":1777198500},"SBCJ":{"icaoId":"SBCJ","flightCategory":"VFR","rawOb":"SPECI SBCJ 261015Z 00000KT CAVOK 23/21 Q1016","temp":23,"dewp":21,"wdir":0,"wspd":0,"visib":"6+","altim":1016,"clouds":[],"obsTime":1777198500},"SBOI":{"icaoId":"SBOI","flightCategory":"MVFR","rawOb":"METAR SBOI 260900Z AUTO VRB01KT 8000 // FEW001/// SCT005/// OVC021/// 23/23 Q1012","temp":23,"dewp":23,"wdir":"VRB","wspd":1,"visib":4.97,"altim":1012,"clouds":[{"cover":"FEW","base":100},{"cover":"SCT","base":500},{"cover":"OVC","base":2100}],"obsTime":1777194000},"SBBH":{"icaoId":"SBBH","flightCategory":"VFR","rawOb":"METAR SBBH 260900Z 00000KT CAVOK 16/16 Q1018","temp":16,"dewp":16,"wdir":0,"wspd":0,"visib":"6+","altim":1018,"clouds":[],"obsTime":1777194000},"SBBU":{"icaoId":"SBBU","flightCategory":"VFR","rawOb":"METAR SBBU 260900Z 02004KT CAVOK 23/19 Q1014","temp":23,"dewp":19,"wdir":20,"wspd":4,"visib":"6+","altim":1014,"clouds":[],"obsTime":1777194000},"SBSR":{"icaoId":"SBSR","flightCategory":"VFR","rawOb":"METAR SBSR 260900Z 36002KT CAVOK 21/17 Q1014","temp":21,"dewp":17,"wdir":360,"wspd":2,"visib":"6+","altim":1014,"clouds":[],"obsTime":1777194000},"SBAR":{"icaoId":"SBAR","flightCategory":"VFR","rawOb":"METAR SBAR 260900Z 31002KT 9999 VCSH FEW025 FEW026TCU 23/23 Q1013","temp":23,"dewp":23,"wdir":310,"wspd":2,"visib":"6+","altim":1013,"clouds":[{"cover":"FEW","base":2500},{"cover":"FEW","base":2600}],"obsTime":1777194000},"SBAX":{"icaoId":"SBAX","flightCategory":"VFR","rawOb":"METAR SBAX 260900Z AUTO VRB02KT CAVOK 17/14 Q1018","temp":17,"dewp":14,"wdir":"VRB","wspd":2,"visib":"6+","altim":1018,"clouds":[],"obsTime":1777194000},"SBCO":{"icaoId":"SBCO","flightCategory":"LIFR","rawOb":"METAR SBCO 260900Z 28002KT 0800 R13///// R31/1200 FG SCT006 17/16 Q1009","temp":17,"dewp":16,"wdir":280,"wspd":2,"visib":0.5,"altim":1009,"clouds":[{"cover":"SCT","base":600}],"obsTime":1777194000},"SBDN":{"icaoId":"SBDN","flightCategory":"VFR","rawOb":"METAR SBDN 260900Z 04002KT CAVOK 21/17 Q1012","temp":21,"dewp":17,"wdir":40,"wspd":2,"visib":"6+","altim":1012,"clouds":[],"obsTime":1777194000},"SBES":{"icaoId":"SBES","flightCategory":"VFR","rawOb":"METAR SBES 260900Z 05003KT 350V070 CAVOK 17/// Q1011","temp":null,"dewp":null,"wdir":50,"wspd":3,"visib":"6+","altim":1011,"clouds":[],"obsTime":1777194000},"SBIP":{"icaoId":"SBIP","flightCategory":"LIFR","rawOb":"METAR SBIP 260900Z AUTO 00000KT 0400 FG VV002 18/18 Q1015","temp":18,"dewp":18,"wdir":0,"wspd":0,"visib":0.25,"altim":1015,"clouds":[{"cover":"OVX","base":200}],"obsTime":1777194000},"SBKG":{"icaoId":"SBKG","flightCategory":"VFR","rawOb":"METAR SBKG 260900Z 13002KT CAVOK 22/21 Q1015","temp":22,"dewp":21,"wdir":130,"wspd":2,"visib":"6+","altim":1015,"clouds":[],"obsTime":1777194000},"SBPL":{"icaoId":"SBPL","flightCategory":"VFR","rawOb":"METAR SBPL 260900Z 12004KT 9999 SCT020 23/22 Q1014","temp":23,"dewp":22,"wdir":120,"wspd":4,"visib":"6+","altim":1014,"clouds":[{"cover":"SCT","base":2000}],"obsTime":1777194000},"SBPS":{"icaoId":"SBPS","flightCategory":"VFR","rawOb":"METAR SBPS 260900Z 26004KT 9999 SCT020 22/22 Q1014","temp":22,"dewp":22,"wdir":260,"wspd":4,"visib":"6+","altim":1014,"clouds":[{"cover":"SCT","base":2000}],"obsTime":1777194000},"SBSC":{"icaoId":"SBSC","flightCategory":"VFR","rawOb":"METAR SBSC 260900Z 02005KT CAVOK 22/20 Q1010","temp":22,"dewp":20,"wdir":20,"wspd":5,"visib":"6+","altim":1010,"clouds":[],"obsTime":1777194000},"SBSJ":{"icaoId":"SBSJ","flightCategory":"VFR","rawOb":"METAR SBSJ 260900Z 00000KT CAVOK 16/15 Q1015","temp":16,"dewp":15,"wdir":0,"wspd":0,"visib":"6+","altim":1015,"clouds":[],"obsTime":1777194000},"SBSM":{"icaoId":"SBSM","flightCategory":"LIFR","rawOb":"METAR SBSM 260900Z 00000KT 0400 R29///// R11/1500D FG VV001 16/16 Q1010","temp":16,"dewp":16,"wdir":0,"wspd":0,"visib":0.25,"altim":1010,"clouds":[{"cover":"OVX","base":100}],"obsTime":1777194000},"SBAF":{"icaoId":"SBAF","flightCategory":"VFR","rawOb":"METAR SBAF 261000Z 23003KT CAVOK 20/20 Q1011","temp":20,"dewp":20,"wdir":230,"wspd":3,"visib":"6+","altim":1011,"clouds":[],"obsTime":1777197600},"SBMT":{"icaoId":"SBMT","flightCategory":"VFR","rawOb":"METAR SBMT 260900Z 00000KT CAVOK 18/16 Q1015","temp":18,"dewp":16,"wdir":0,"wspd":0,"visib":"6+","altim":1015,"clouds":[],"obsTime":1777194000},"SBTA":{"icaoId":"SBTA","flightCategory":"VFR","rawOb":"METAR SBTA 260900Z VRB01KT CAVOK 15/15 Q1014","temp":15,"dewp":15,"wdir":"VRB","wspd":1,"visib":"6+","altim":1014,"clouds":[],"obsTime":1777194000},"SBLE":{"icaoId":"SBLE","flightCategory":"VFR","rawOb":"METAR SBLE 260900Z AUTO 30002KT 9999 FEW027 ///// Q////","temp":null,"dewp":null,"wdir":300,"wspd":2,"visib":"6+","altim":null,"clouds":[{"cover":"FEW","base":2700}],"obsTime":1777194000},"SBJP":{"icaoId":"SBJP","flightCategory":"VFR","rawOb":"METAR SBJP 260900Z 19006KT 9999 FEW020 SCT070 24/23 Q1012","temp":24,"dewp":23,"wdir":190,"wspd":6,"visib":"6+","altim":1012,"clouds":[{"cover":"FEW","base":2000},{"cover":"SCT","base":7000}],"obsTime":1777194000},"SBAN":{"icaoId":"SBAN","flightCategory":"VFR","rawOb":"METAR SBAN 260900Z 13005KT CAVOK 19/15 Q1019","temp":19,"dewp":15,"wdir":130,"wspd":5,"visib":"6+","altim":1019,"clouds":[],"obsTime":1777194000},"SBJV":{"icaoId":"SBJV","flightCategory":"IFR","rawOb":"METAR SBJV 260900Z 29001KT 4000 -RA BR BKN010 OVC020 23/22 Q1010","temp":23,"dewp":22,"wdir":290,"wspd":1,"visib":2.49,"altim":1010,"clouds":[{"cover":"BKN","base":1000},{"cover":"OVC","base":2000}],"obsTime":1777194000},"SBPF":{"icaoId":"SBPF","flightCategory":"LIFR","rawOb":"METAR SBPF 260900Z 17003KT 8000 BKN003 16/14 Q1011","temp":16,"dewp":14,"wdir":170,"wspd":3,"visib":4.97,"altim":1011,"clouds":[{"cover":"BKN","base":300}],"obsTime":1777194000},"SBGW":{"icaoId":"SBGW","flightCategory":"VFR","rawOb":"METAR SBGW 260900Z VRB02KT CAVOK 16/13 Q1014","temp":16,"dewp":13,"wdir":"VRB","wspd":2,"visib":"6+","altim":1014,"clouds":[],"obsTime":1777194000},"SBJR":{"icaoId":"SBJR","flightCategory":"VFR","rawOb":"METAR SBJR 261000Z 36005KT CAVOK 26/20 Q1011","temp":26,"dewp":20,"wdir":360,"wspd":5,"visib":"6+","altim":1011,"clouds":[],"obsTime":1777197600},"SBLS":{"icaoId":"SBLS","flightCategory":"VFR","rawOb":"METAR SBLS 260900Z 19002KT CAVOK 17/16 Q1018","temp":17,"dewp":16,"wdir":190,"wspd":2,"visib":"6+","altim":1018,"clouds":[],"obsTime":1777194000}}}