{"updated":1774259443,"count":64,"data":{"SBMG":{"icaoId":"SBMG","flightCategory":"VFR","rawOb":"METAR SBMG 230800Z AUTO 05005KT 010V070 CAVOK 23/18 Q1012","temp":23,"dewp":18,"wdir":50,"wspd":5,"visib":"6+","altim":1012,"clouds":[],"obsTime":1774252800},"SBBV":{"icaoId":"SBBV","flightCategory":"VFR","rawOb":"METAR SBBV 230800Z 11007KT CAVOK 28/22 Q1008","temp":28,"dewp":22,"wdir":110,"wspd":7,"visib":"6+","altim":1008,"clouds":[],"obsTime":1774252800},"SBFZ":{"icaoId":"SBFZ","flightCategory":"VFR","rawOb":"METAR SBFZ 230800Z 10005KT 9999 SCT020 27/24 Q1010","temp":27,"dewp":24,"wdir":100,"wspd":5,"visib":"6+","altim":1010,"clouds":[{"cover":"SCT","base":2000}],"obsTime":1774252800},"SBMO":{"icaoId":"SBMO","flightCategory":"VFR","rawOb":"METAR SBMO 230800Z 02003KT 9999 FEW020 24/24 Q1011","temp":24,"dewp":24,"wdir":20,"wspd":3,"visib":"6+","altim":1011,"clouds":[{"cover":"FEW","base":2000}],"obsTime":1774252800},"SBCG":{"icaoId":"SBCG","flightCategory":"VFR","rawOb":"METAR SBCG 230800Z 36005KT CAVOK 25/22 Q1012","temp":25,"dewp":22,"wdir":360,"wspd":5,"visib":"6+","altim":1012,"clouds":[],"obsTime":1774252800},"SBMQ":{"icaoId":"SBMQ","flightCategory":"VFR","rawOb":"METAR SBMQ 230800Z 01003KT 9999 FEW015 26/25 Q1009","temp":26,"dewp":25,"wdir":10,"wspd":3,"visib":"6+","altim":1009,"clouds":[{"cover":"FEW","base":1500}],"obsTime":1774252800},"SBGL":{"icaoId":"SBGL","flightCategory":"VFR","rawOb":"METAR SBGL 230800Z 29003KT 9999 FEW010 23/21 Q1012","temp":23,"dewp":21,"wdir":290,"wspd":3,"visib":"6+","altim":1012,"clouds":[{"cover":"FEW","base":1000}],"obsTime":1774252800},"SBNT":{"icaoId":"SBNT","flightCategory":"MVFR","rawOb":"METAR SBNT 230800Z 07011KT 9999 BKN020 26/24 Q1010","temp":26,"dewp":24,"wdir":70,"wspd":11,"visib":"6+","altim":1010,"clouds":[{"cover":"BKN","base":2000}],"obsTime":1774252800},"SBBR":{"icaoId":"SBBR","flightCategory":"VFR","rawOb":"METAR SBBR 230800Z 00000KT 9999 FEW020 SCT100 18/18 Q1016","temp":18,"dewp":18,"wdir":0,"wspd":0,"visib":"6+","altim":1016,"clouds":[{"cover":"FEW","base":2000},{"cover":"SCT","base":10000}],"obsTime":1774252800},"SBPA":{"icaoId":"SBPA","flightCategory":"IFR","rawOb":"METAR SBPA 230800Z 11006KT 9999 OVC008 24/22 Q1009","temp":24,"dewp":22,"wdir":110,"wspd":6,"visib":"6+","altim":1009,"clouds":[{"cover":"OVC","base":800}],"obsTime":1774252800},"SBGO":{"icaoId":"SBGO","flightCategory":"VFR","rawOb":"METAR SBGO 230800Z VRB02KT CAVOK 22/21 Q1015","temp":22,"dewp":21,"wdir":"VRB","wspd":2,"visib":"6+","altim":1015,"clouds":[],"obsTime":1774252800},"SBPJ":{"icaoId":"SBPJ","flightCategory":"VFR","rawOb":"METAR SBPJ 230800Z 11005KT 9999 FEW020 24/23 Q1011","temp":24,"dewp":23,"wdir":110,"wspd":5,"visib":"6+","altim":1011,"clouds":[{"cover":"FEW","base":2000}],"obsTime":1774252800},"SBCT":{"icaoId":"SBCT","flightCategory":"IFR","rawOb":"METAR SBCT 230800Z 08005KT 9999 BKN007 19/18 Q1015","temp":19,"dewp":18,"wdir":80,"wspd":5,"visib":"6+","altim":1015,"clouds":[{"cover":"BKN","base":700}],"obsTime":1774252800},"SBPV":{"icaoId":"SBPV","flightCategory":"VFR","rawOb":"METAR SBPV 230800Z 15005KT 9999 FEW035 FEW040TCU 25/22 Q1009","temp":25,"dewp":22,"wdir":150,"wspd":5,"visib":"6+","altim":1009,"clouds":[{"cover":"FEW","base":3500},{"cover":"FEW","base":4000}],"obsTime":1774252800},"SBGR":{"icaoId":"SBGR","flightCategory":"VFR","rawOb":"METAR SBGR 230800Z 06004KT CAVOK 18/17 Q1016","temp":18,"dewp":17,"wdir":60,"wspd":4,"visib":"6+","altim":1016,"clouds":[],"obsTime":1774252800},"SBRB":{"icaoId":"SBRB","flightCategory":"MVFR","rawOb":"METAR SBRB 230800Z 21002KT 8000 FEW020 BKN100 22/22 Q1011","temp":22,"dewp":22,"wdir":210,"wspd":2,"visib":4.97,"altim":1011,"clouds":[{"cover":"FEW","base":2000},{"cover":"BKN","base":10000}],"obsTime":1774252800},"SBRF":{"icaoId":"SBRF","flightCategory":"VFR","rawOb":"METAR SBRF 230800Z 07006KT 9999 SCT021 28/24 Q1010","temp":28,"dewp":24,"wdir":70,"wspd":6,"visib":"6+","altim":1010,"clouds":[{"cover":"SCT","base":2100}],"obsTime":1774252800},"SBJU":{"icaoId":"SBJU","flightCategory":"MVFR","rawOb":"METAR SBJU 230800Z 24003KT 8000 BKN017 22/22 Q1013 RETS","temp":22,"dewp":22,"wdir":240,"wspd":3,"visib":4.97,"altim":1013,"clouds":[{"cover":"BKN","base":1700}],"obsTime":1774252800},"SBSG":{"icaoId":"SBSG","flightCategory":"VFR","rawOb":"METAR SBSG 230800Z 13002KT 9999 SCT020 FEW025TCU 25/24 Q1011","temp":25,"dewp":24,"wdir":130,"wspd":2,"visib":"6+","altim":1011,"clouds":[{"cover":"SCT","base":2000},{"cover":"FEW","base":2500}],"obsTime":1774252800},"SBEG":{"icaoId":"SBEG","flightCategory":"VFR","rawOb":"METAR SBEG 230800Z 10005KT CAVOK 27/24 Q1008","temp":27,"dewp":24,"wdir":100,"wspd":5,"visib":"6+","altim":1008,"clouds":[],"obsTime":1774252800},"SBCB":{"icaoId":"SBCB","flightCategory":"VFR","rawOb":"METAR SBCB 230900Z 18002KT 9999 FEW015 SCT030 22/21 Q1013","temp":22,"dewp":21,"wdir":180,"wspd":2,"visib":"6+","altim":1013,"clouds":[{"cover":"FEW","base":1500},{"cover":"SCT","base":3000}],"obsTime":1774256400},"SBSL":{"icaoId":"SBSL","flightCategory":"VFR","rawOb":"METAR SBSL 230800Z 05004KT 9999 FEW017 SCT100 26/25 Q1009","temp":26,"dewp":25,"wdir":50,"wspd":4,"visib":"6+","altim":1009,"clouds":[{"cover":"FEW","base":1700},{"cover":"SCT","base":10000}],"obsTime":1774252800},"SBSN":{"icaoId":"SBSN","flightCategory":"VFR","rawOb":"METAR SBSN 230800Z 12004KT CAVOK 26/25 Q1008","temp":26,"dewp":25,"wdir":120,"wspd":4,"visib":"6+","altim":1008,"clouds":[],"obsTime":1774252800},"SBKP":{"icaoId":"SBKP","flightCategory":"VFR","rawOb":"METAR SBKP 230800Z 11008KT CAVOK 20/15 Q1014","temp":20,"dewp":15,"wdir":110,"wspd":8,"visib":"6+","altim":1014,"clouds":[],"obsTime":1774252800},"SBBE":{"icaoId":"SBBE","flightCategory":"VFR","rawOb":"METAR SBBE 230800Z 08005KT CAVOK 26/25 Q1010","temp":26,"dewp":25,"wdir":80,"wspd":5,"visib":"6+","altim":1010,"clouds":[],"obsTime":1774252800},"SBSP":{"icaoId":"SBSP","flightCategory":"VFR","rawOb":"METAR SBSP 230800Z AUTO 13006KT CAVOK 20/17 Q1016","temp":20,"dewp":17,"wdir":130,"wspd":6,"visib":"6+","altim":1016,"clouds":[],"obsTime":1774252800},"SBLO":{"icaoId":"SBLO","flightCategory":"VFR","rawOb":"METAR SBLO 230800Z 06002KT 9999 SCT020 BKN080 23/21 Q1013","temp":23,"dewp":21,"wdir":60,"wspd":2,"visib":"6+","altim":1013,"clouds":[{"cover":"SCT","base":2000},{"cover":"BKN","base":8000}],"obsTime":1774252800},"SBSV":{"icaoId":"SBSV","flightCategory":"VFR","rawOb":"METAR SBSV 230800Z 35004KT 9999 FEW021 25/23 Q1010","temp":25,"dewp":23,"wdir":350,"wspd":4,"visib":"6+","altim":1010,"clouds":[{"cover":"FEW","base":2100}],"obsTime":1774252800},"SBTE":{"icaoId":"SBTE","flightCategory":"VFR","rawOb":"METAR SBTE 230800Z 36002KT 9999 SCT012 26/24 Q1009","temp":26,"dewp":24,"wdir":360,"wspd":2,"visib":"6+","altim":1009,"clouds":[{"cover":"SCT","base":1200}],"obsTime":1774252800},"SBFI":{"icaoId":"SBFI","flightCategory":"VFR","rawOb":"METAR SBFI 230800Z 11004KT 9999 FEW030 SCT070 23/23 Q1009","temp":23,"dewp":23,"wdir":110,"wspd":4,"visib":"6+","altim":1009,"clouds":[{"cover":"FEW","base":3000},{"cover":"SCT","base":7000}],"obsTime":1774252800},"SBMA":{"icaoId":"SBMA","flightCategory":"VFR","rawOb":"METAR SBMA 230800Z 00000KT 9999 VCTS SCT012 FEW025CB OVC080 24/22 Q1009 RETS","temp":24,"dewp":22,"wdir":0,"wspd":0,"visib":"6+","altim":1009,"clouds":[{"cover":"SCT","base":1200},{"cover":"FEW","base":2500},{"cover":"OVC","base":8000}],"obsTime":1774252800},"SBUL":{"icaoId":"SBUL","flightCategory":"VFR","rawOb":"METAR SBUL 230800Z 13005KT 080V150 CAVOK 21/11 Q1016","temp":21,"dewp":11,"wdir":130,"wspd":5,"visib":"6+","altim":1016,"clouds":[],"obsTime":1774252800},"SBUR":{"icaoId":"SBUR","flightCategory":"VFR","rawOb":"METAR SBUR 230800Z 06005KT CAVOK 23/11 Q1014","temp":23,"dewp":11,"wdir":60,"wspd":5,"visib":"6+","altim":1014,"clouds":[],"obsTime":1774252800},"SBCF":{"icaoId":"SBCF","flightCategory":"VFR","rawOb":"METAR SBCF 230800Z 11003KT 9999 FEW023 20/19 Q1016","temp":20,"dewp":19,"wdir":110,"wspd":3,"visib":"6+","altim":1016,"clouds":[{"cover":"FEW","base":2300}],"obsTime":1774252800},"SBME":{"icaoId":"SBME","flightCategory":"VFR","rawOb":"METAR SBME 230800Z 31002KT 9999 SCT025 22/21 Q1012","temp":22,"dewp":21,"wdir":310,"wspd":2,"visib":"6+","altim":1012,"clouds":[{"cover":"SCT","base":2500}],"obsTime":1774252800},"SBMK":{"icaoId":"SBMK","flightCategory":"VFR","rawOb":"METAR SBMK 230800Z 02002KT 9999 SCT006 BKN080 20/20 Q1014","temp":20,"dewp":20,"wdir":20,"wspd":2,"visib":"6+","altim":1014,"clouds":[{"cover":"SCT","base":600},{"cover":"BKN","base":8000}],"obsTime":1774252800},"SBVT":{"icaoId":"SBVT","flightCategory":"VFR","rawOb":"METAR SBVT 230800Z 00000KT 9999 SCT018 22/22 Q1011","temp":22,"dewp":22,"wdir":0,"wspd":0,"visib":"6+","altim":1011,"clouds":[{"cover":"SCT","base":1800}],"obsTime":1774252800},"SBFL":{"icaoId":"SBFL","flightCategory":"VFR","rawOb":"METAR SBFL 230800Z 25003KT 210V290 9999 SCT012 BKN038 25/24 Q1011","temp":25,"dewp":24,"wdir":250,"wspd":3,"visib":"6+","altim":1011,"clouds":[{"cover":"SCT","base":1200},{"cover":"BKN","base":3800}],"obsTime":1774252800},"SBIP":{"icaoId":"SBIP","flightCategory":"MVFR","rawOb":"METAR SBIP 230800Z AUTO 00000KT 9999 BKN022 BKN035 BKN045 23/23 Q1013","temp":23,"dewp":23,"wdir":0,"wspd":0,"visib":"6+","altim":1013,"clouds":[{"cover":"BKN","base":2200},{"cover":"BKN","base":3500},{"cover":"BKN","base":4500}],"obsTime":1774252800},"SBCO":{"icaoId":"SBCO","flightCategory":"IFR","rawOb":"METAR SBCO 230900Z 09004KT 9999 OVC006 23/22 Q1009","temp":23,"dewp":22,"wdir":90,"wspd":4,"visib":"6+","altim":1009,"clouds":[{"cover":"OVC","base":600}],"obsTime":1774256400},"SBPS":{"icaoId":"SBPS","flightCategory":"IFR","rawOb":"METAR SBPS 230800Z 04008KT 3000 RA BKN008 BKN080 22/22 Q1013","temp":22,"dewp":22,"wdir":40,"wspd":8,"visib":1.86,"altim":1013,"clouds":[{"cover":"BKN","base":800},{"cover":"BKN","base":8000}],"obsTime":1774252800},"SBAR":{"icaoId":"SBAR","flightCategory":"VFR","rawOb":"METAR SBAR 230800Z 06006KT 9999 FEW025 27/23 Q1010","temp":27,"dewp":23,"wdir":60,"wspd":6,"visib":"6+","altim":1010,"clouds":[{"cover":"FEW","base":2500}],"obsTime":1774252800},"SBSC":{"icaoId":"SBSC","flightCategory":"VFR","rawOb":"METAR SBSC 230800Z 29005KT 9999 FEW015 SCT040 21/20 Q1012","temp":21,"dewp":20,"wdir":290,"wspd":5,"visib":"6+","altim":1012,"clouds":[{"cover":"FEW","base":1500},{"cover":"SCT","base":4000}],"obsTime":1774252800},"SBSJ":{"icaoId":"SBSJ","flightCategory":"MVFR","rawOb":"SPECI SBSJ 230830Z 05002KT 6000 NSC 18/17 Q1016","temp":18,"dewp":17,"wdir":50,"wspd":2,"visib":3.73,"altim":1016,"clouds":[],"obsTime":1774254600},"SBCA":{"icaoId":"SBCA","flightCategory":"VFR","rawOb":"METAR SBCA 230800Z 06009KT CAVOK 23/17 Q1014","temp":23,"dewp":17,"wdir":60,"wspd":9,"visib":"6+","altim":1014,"clouds":[],"obsTime":1774252800},"SBAX":{"icaoId":"SBAX","flightCategory":"VFR","rawOb":"METAR SBAX 230800Z AUTO 32003KT CAVOK 17/12 Q1016","temp":17,"dewp":12,"wdir":320,"wspd":3,"visib":"6+","altim":1016,"clouds":[],"obsTime":1774252800},"SBPL":{"icaoId":"SBPL","flightCategory":"VFR","rawOb":"METAR SBPL 230800Z 07004KT CAVOK 24/22 Q1012","temp":24,"dewp":22,"wdir":70,"wspd":4,"visib":"6+","altim":1012,"clouds":[],"obsTime":1774252800},"SBSM":{"icaoId":"SBSM","flightCategory":"LIFR","rawOb":"METAR SBSM 230900Z 11004KT 040V180 2000 BR BKN002 21/21 Q1009","temp":21,"dewp":21,"wdir":110,"wspd":4,"visib":1.24,"altim":1009,"clouds":[{"cover":"BKN","base":200}],"obsTime":1774256400},"SBDN":{"icaoId":"SBDN","flightCategory":"VFR","rawOb":"METAR SBDN 230800Z 10005KT CAVOK 25/20 Q1012","temp":25,"dewp":20,"wdir":100,"wspd":5,"visib":"6+","altim":1012,"clouds":[],"obsTime":1774252800},"SBSR":{"icaoId":"SBSR","flightCategory":"VFR","rawOb":"METAR SBSR 230800Z 18002KT CAVOK 24/17 Q1013","temp":24,"dewp":17,"wdir":180,"wspd":2,"visib":"6+","altim":1013,"clouds":[],"obsTime":1774252800},"SBES":{"icaoId":"SBES","flightCategory":"VFR","rawOb":"METAR SBES 230900Z 00000KT 9999 BCFG FEW025 19/// Q1013","temp":null,"dewp":null,"wdir":0,"wspd":0,"visib":"6+","altim":1013,"clouds":[{"cover":"FEW","base":2500}],"obsTime":1774256400},"SBBH":{"icaoId":"SBBH","flightCategory":"MVFR","rawOb":"METAR SBBH 230900Z 10007KT 9999 BKN020 BKN070 21/20 Q1016","temp":21,"dewp":20,"wdir":100,"wspd":7,"visib":"6+","altim":1016,"clouds":[{"cover":"BKN","base":2000},{"cover":"BKN","base":7000}],"obsTime":1774256400},"SBBU":{"icaoId":"SBBU","flightCategory":"VFR","rawOb":"METAR SBBU 230900Z 08003KT CAVOK 23/22 Q1014","temp":23,"dewp":22,"wdir":80,"wspd":3,"visib":"6+","altim":1014,"clouds":[],"obsTime":1774256400},"SBKG":{"icaoId":"SBKG","flightCategory":"IFR","rawOb":"METAR SBKG 230800Z 07008KT 8000 BKN008 23/23 Q1013","temp":23,"dewp":23,"wdir":70,"wspd":8,"visib":4.97,"altim":1013,"clouds":[{"cover":"BKN","base":800}],"obsTime":1774252800},"SBOI":{"icaoId":"SBOI","flightCategory":"VFR","rawOb":"METAR SBOI 230800Z AUTO 02002KT 9999 // SCT030/// 24/23 Q1010","temp":24,"dewp":23,"wdir":20,"wspd":2,"visib":"6+","altim":1010,"clouds":[{"cover":"SCT","base":3000}],"obsTime":1774252800},"SBLS":{"icaoId":"SBLS","flightCategory":"VFR","rawOb":"METAR SBLS 230900Z 15010KT 9999 SCT020 SCT070 20/18 Q1016","temp":20,"dewp":18,"wdir":150,"wspd":10,"visib":"6+","altim":1016,"clouds":[{"cover":"SCT","base":2000},{"cover":"SCT","base":7000}],"obsTime":1774256400},"SBPF":{"icaoId":"SBPF","flightCategory":"VFR","rawOb":"METAR SBPF 230900Z 04008KT 9999 FEW010 21/20 Q1013","temp":21,"dewp":20,"wdir":40,"wspd":8,"visib":"6+","altim":1013,"clouds":[{"cover":"FEW","base":1000}],"obsTime":1774256400},"SBTA":{"icaoId":"SBTA","flightCategory":"VFR","rawOb":"METAR SBTA 230900Z VRB02KT 9999 FEW014 17/17 Q1015","temp":17,"dewp":17,"wdir":"VRB","wspd":2,"visib":"6+","altim":1015,"clouds":[{"cover":"FEW","base":1400}],"obsTime":1774256400},"SBAN":{"icaoId":"SBAN","flightCategory":"VFR","rawOb":"METAR SBAN 230800Z 27002KT 9999 FEW030 19/18 Q1017","temp":19,"dewp":18,"wdir":270,"wspd":2,"visib":"6+","altim":1017,"clouds":[{"cover":"FEW","base":3000}],"obsTime":1774252800},"SBJP":{"icaoId":"SBJP","flightCategory":"MVFR","rawOb":"METAR SBJP 230800Z 00000KT 9999 BKN020 25/24 Q1011","temp":25,"dewp":24,"wdir":0,"wspd":0,"visib":"6+","altim":1011,"clouds":[{"cover":"BKN","base":2000}],"obsTime":1774252800},"SBJV":{"icaoId":"SBJV","flightCategory":"VFR","rawOb":"METAR SBJV 230900Z 23002KT 9999 FEW015 23/23 Q1012","temp":23,"dewp":23,"wdir":230,"wspd":2,"visib":"6+","altim":1012,"clouds":[{"cover":"FEW","base":1500}],"obsTime":1774256400},"SBGW":{"icaoId":"SBGW","flightCategory":"VFR","rawOb":"METAR SBGW 230900Z 16002KT 9999 FEW010 17/13 Q1015","temp":17,"dewp":13,"wdir":160,"wspd":2,"visib":"6+","altim":1015,"clouds":[{"cover":"FEW","base":1000}],"obsTime":1774256400},"SBMT":{"icaoId":"SBMT","flightCategory":"VFR","rawOb":"METAR SBMT 230900Z 08006KT CAVOK 19/17 Q1015","temp":19,"dewp":17,"wdir":80,"wspd":6,"visib":"6+","altim":1015,"clouds":[],"obsTime":1774256400},"SBLE":{"icaoId":"SBLE","flightCategory":"MVFR","rawOb":"METAR SBLE 230800Z AUTO 36003KT 9999 OVC014 23/23 Q1014","temp":23,"dewp":23,"wdir":360,"wspd":3,"visib":"6+","altim":1014,"clouds":[{"cover":"OVC","base":1400}],"obsTime":1774252800}}}