{"updated":1783786446,"count":86,"data":{"SBRF":{"icaoId":"SBRF","flightCategory":"VFR","rawOb":"METAR SBRF 111500Z 14011KT 100V170 9999 SCT023 SCT060 28/23 Q1016","temp":28,"dewp":23,"wdir":140,"wspd":11,"visib":"6+","altim":1016,"clouds":[{"cover":"SCT","base":2300},{"cover":"SCT","base":6000}],"obsTime":1783782000},"SBCZ":{"icaoId":"SBCZ","flightCategory":"VFR","rawOb":"METAR SBCZ 111500Z 31003KT 260V030 9999 FEW010 BKN090 26/23 Q1015","temp":26,"dewp":23,"wdir":310,"wspd":3,"visib":"6+","altim":1015,"clouds":[{"cover":"FEW","base":1000},{"cover":"BKN","base":9000}],"obsTime":1783782000},"SBKP":{"icaoId":"SBKP","flightCategory":"VFR","rawOb":"METAR SBKP 111500Z 36005KT 310V040 CAVOK 25/10 Q1017","temp":25,"dewp":10,"wdir":360,"wspd":5,"visib":"6+","altim":1017,"clouds":[],"obsTime":1783782000},"SBNT":{"icaoId":"SBNT","flightCategory":"MVFR","rawOb":"METAR SBNT 111500Z 15016KT 9999 VCSH BKN025 BKN070 29/22 Q1015","temp":29,"dewp":22,"wdir":150,"wspd":16,"visib":"6+","altim":1015,"clouds":[{"cover":"BKN","base":2500},{"cover":"BKN","base":7000}],"obsTime":1783782000},"SBME":{"icaoId":"SBME","flightCategory":"VFR","rawOb":"METAR SBME 111500Z 13007KT CAVOK 24/19 Q1014","temp":24,"dewp":19,"wdir":130,"wspd":7,"visib":"6+","altim":1014,"clouds":[],"obsTime":1783782000},"SBMK":{"icaoId":"SBMK","flightCategory":"VFR","rawOb":"METAR SBMK 111500Z 12006KT CAVOK 28/11 Q1019","temp":28,"dewp":11,"wdir":120,"wspd":6,"visib":"6+","altim":1019,"clouds":[],"obsTime":1783782000},"SBGO":{"icaoId":"SBGO","flightCategory":"VFR","rawOb":"METAR SBGO 111500Z VRB02KT 9999 FEW040 30/13 Q1019","temp":30,"dewp":13,"wdir":"VRB","wspd":2,"visib":"6+","altim":1019,"clouds":[{"cover":"FEW","base":4000}],"obsTime":1783782000},"SBPA":{"icaoId":"SBPA","flightCategory":"IFR","rawOb":"METAR SBPA 111500Z 00000KT 9999 -RA OVC007 15/15 Q1011","temp":15,"dewp":15,"wdir":0,"wspd":0,"visib":"6+","altim":1011,"clouds":[{"cover":"OVC","base":700}],"obsTime":1783782000},"SBBV":{"icaoId":"SBBV","flightCategory":"MVFR","rawOb":"METAR SBBV 111500Z 08006KT 9999 BKN030 FEW040TCU BKN070 30/23 Q1014","temp":30,"dewp":23,"wdir":80,"wspd":6,"visib":"6+","altim":1014,"clouds":[{"cover":"BKN","base":3000},{"cover":"FEW","base":4000},{"cover":"BKN","base":7000}],"obsTime":1783782000},"SBUL":{"icaoId":"SBUL","flightCategory":"VFR","rawOb":"METAR SBUL 111500Z 06012KT 010V100 CAVOK 27/11 Q1020","temp":27,"dewp":11,"wdir":60,"wspd":12,"visib":"6+","altim":1020,"clouds":[],"obsTime":1783782000},"SBMG":{"icaoId":"SBMG","flightCategory":"VFR","rawOb":"METAR SBMG 111500Z 35015KT CAVOK 26/15 Q1014","temp":26,"dewp":15,"wdir":350,"wspd":15,"visib":"6+","altim":1014,"clouds":[],"obsTime":1783782000},"SBMO":{"icaoId":"SBMO","flightCategory":"VFR","rawOb":"METAR SBMO 111500Z 11011KT 9999 SCT030 27/22 Q1017","temp":27,"dewp":22,"wdir":110,"wspd":11,"visib":"6+","altim":1017,"clouds":[{"cover":"SCT","base":3000}],"obsTime":1783782000},"SBFL":{"icaoId":"SBFL","flightCategory":"MVFR","rawOb":"SPECI SBFL 111428Z 34008KT 290V010 5000 -RA BR SCT006 BKN012 16/15 Q1012","temp":16,"dewp":15,"wdir":340,"wspd":8,"visib":3.11,"altim":1012,"clouds":[{"cover":"SCT","base":600},{"cover":"BKN","base":1200}],"obsTime":1783780080},"SBUR":{"icaoId":"SBUR","flightCategory":"VFR","rawOb":"METAR SBUR 111500Z 36006KT CAVOK 28/11 Q1019","temp":28,"dewp":11,"wdir":360,"wspd":6,"visib":"6+","altim":1019,"clouds":[],"obsTime":1783782000},"SBRB":{"icaoId":"SBRB","flightCategory":"VFR","rawOb":"METAR SBRB 111500Z 30006KT 270V340 9999 FEW020 BKN080 27/22 Q1015","temp":27,"dewp":22,"wdir":300,"wspd":6,"visib":"6+","altim":1015,"clouds":[{"cover":"FEW","base":2000},{"cover":"BKN","base":8000}],"obsTime":1783782000},"SBAT":{"icaoId":"SBAT","flightCategory":"VFR","rawOb":"METAR SBAT 111500Z 04008KT 9999 FEW035 31/22 Q1015","temp":31,"dewp":22,"wdir":40,"wspd":8,"visib":"6+","altim":1015,"clouds":[{"cover":"FEW","base":3500}],"obsTime":1783782000},"SBBE":{"icaoId":"SBBE","flightCategory":"MVFR","rawOb":"METAR SBBE 111500Z 08011KT 9999 BKN030 30/23 Q1013","temp":30,"dewp":23,"wdir":80,"wspd":11,"visib":"6+","altim":1013,"clouds":[{"cover":"BKN","base":3000}],"obsTime":1783782000},"SBCF":{"icaoId":"SBCF","flightCategory":"VFR","rawOb":"METAR SBCF 111500Z 06003KT CAVOK 26/11 Q1020","temp":26,"dewp":11,"wdir":60,"wspd":3,"visib":"6+","altim":1020,"clouds":[],"obsTime":1783782000},"SBGL":{"icaoId":"SBGL","flightCategory":"VFR","rawOb":"METAR SBGL 111500Z 03003KT CAVOK 25/17 Q1013","temp":25,"dewp":17,"wdir":30,"wspd":3,"visib":"6+","altim":1013,"clouds":[],"obsTime":1783782000},"SBFZ":{"icaoId":"SBFZ","flightCategory":"VFR","rawOb":"METAR SBFZ 111500Z 12018KT 9999 SCT027 29/23 Q1014","temp":29,"dewp":23,"wdir":120,"wspd":18,"visib":"6+","altim":1014,"clouds":[{"cover":"SCT","base":2700}],"obsTime":1783782000},"SBHT":{"icaoId":"SBHT","flightCategory":"MVFR","rawOb":"METAR SBHT 111500Z 12005KT 9999 BKN025 29/24 Q1014","temp":29,"dewp":24,"wdir":120,"wspd":5,"visib":"6+","altim":1014,"clouds":[{"cover":"BKN","base":2500}],"obsTime":1783782000},"SBCB":{"icaoId":"SBCB","flightCategory":"VFR","rawOb":"METAR SBCB 111500Z 29005KT CAVOK 24/20 Q1015","temp":24,"dewp":20,"wdir":290,"wspd":5,"visib":"6+","altim":1015,"clouds":[],"obsTime":1783782000},"SBEG":{"icaoId":"SBEG","flightCategory":"VFR","rawOb":"METAR SBEG 111500Z 07012KT 9999 SCT025 30/24 Q1013","temp":30,"dewp":24,"wdir":70,"wspd":12,"visib":"6+","altim":1013,"clouds":[{"cover":"SCT","base":2500}],"obsTime":1783782000},"SBBR":{"icaoId":"SBBR","flightCategory":"VFR","rawOb":"METAR SBBR 111500Z VRB04KT 9999 SCT040 27/12 Q1021","temp":27,"dewp":12,"wdir":"VRB","wspd":4,"visib":"6+","altim":1021,"clouds":[{"cover":"SCT","base":4000}],"obsTime":1783782000},"SBPV":{"icaoId":"SBPV","flightCategory":"VFR","rawOb":"METAR SBPV 111500Z 33002KT CAVOK 30/23 Q1014","temp":30,"dewp":23,"wdir":330,"wspd":2,"visib":"6+","altim":1014,"clouds":[],"obsTime":1783782000},"SBVT":{"icaoId":"SBVT","flightCategory":"VFR","rawOb":"METAR SBVT 111500Z 15008KT CAVOK 27/18 Q1015","temp":27,"dewp":18,"wdir":150,"wspd":8,"visib":"6+","altim":1015,"clouds":[],"obsTime":1783782000},"SBSV":{"icaoId":"SBSV","flightCategory":"MVFR","rawOb":"METAR SBSV 111500Z 08011KT 9999 BKN029 28/22 Q1017","temp":28,"dewp":22,"wdir":80,"wspd":11,"visib":"6+","altim":1017,"clouds":[{"cover":"BKN","base":2900}],"obsTime":1783782000},"SBIL":{"icaoId":"SBIL","flightCategory":"VFR","rawOb":"METAR SBIL 111500Z 08007KT 9999 FEW020 29/22 Q1017","temp":29,"dewp":22,"wdir":80,"wspd":7,"visib":"6+","altim":1017,"clouds":[{"cover":"FEW","base":2000}],"obsTime":1783782000},"SBMA":{"icaoId":"SBMA","flightCategory":"VFR","rawOb":"METAR SBMA 111500Z 01005KT 9999 SCT020 31/22 Q1014","temp":31,"dewp":22,"wdir":10,"wspd":5,"visib":"6+","altim":1014,"clouds":[{"cover":"SCT","base":2000}],"obsTime":1783782000},"SBCT":{"icaoId":"SBCT","flightCategory":"VFR","rawOb":"METAR SBCT 111500Z COR 31011KT 290V350 9999 FEW045 BKN100 21/14 Q1015","temp":21,"dewp":14,"wdir":310,"wspd":11,"visib":"6+","altim":1015,"clouds":[{"cover":"FEW","base":4500},{"cover":"BKN","base":10000}],"obsTime":1783782000},"SBSN":{"icaoId":"SBSN","flightCategory":"VFR","rawOb":"METAR SBSN 111500Z 09017KT 9999 FEW026TCU SCT040 31/24 Q1013","temp":31,"dewp":24,"wdir":90,"wspd":17,"visib":"6+","altim":1013,"clouds":[{"cover":"FEW","base":2600},{"cover":"SCT","base":4000}],"obsTime":1783782000},"SBSG":{"icaoId":"SBSG","flightCategory":"VFR","rawOb":"METAR SBSG 111500Z 13010KT 090V170 9999 SCT025 29/23 Q1015","temp":29,"dewp":23,"wdir":130,"wspd":10,"visib":"6+","altim":1015,"clouds":[{"cover":"SCT","base":2500}],"obsTime":1783782000},"SBCR":{"icaoId":"SBCR","flightCategory":"VFR","rawOb":"METAR SBCR 111500Z VRB02KT CAVOK 30/20 Q1014","temp":30,"dewp":20,"wdir":"VRB","wspd":2,"visib":"6+","altim":1014,"clouds":[],"obsTime":1783782000},"SBSL":{"icaoId":"SBSL","flightCategory":"VFR","rawOb":"METAR SBSL 111500Z 06013KT 050V110 9999 SCT025 31/23 Q1013","temp":31,"dewp":23,"wdir":60,"wspd":13,"visib":"6+","altim":1013,"clouds":[{"cover":"SCT","base":2500}],"obsTime":1783782000},"SBJU":{"icaoId":"SBJU","flightCategory":"VFR","rawOb":"METAR SBJU 111500Z 00000KT 9999 FEW022 31/18 Q1016","temp":31,"dewp":18,"wdir":0,"wspd":0,"visib":"6+","altim":1016,"clouds":[{"cover":"FEW","base":2200}],"obsTime":1783782000},"SBCG":{"icaoId":"SBCG","flightCategory":"VFR","rawOb":"METAR SBCG 111500Z 32013KT 290V350 CAVOK 29/14 Q1016","temp":29,"dewp":14,"wdir":320,"wspd":13,"visib":"6+","altim":1016,"clouds":[],"obsTime":1783782000},"SBMQ":{"icaoId":"SBMQ","flightCategory":"VFR","rawOb":"METAR SBMQ 111500Z 06011KT 9999 SCT033 31/25 Q1014","temp":31,"dewp":25,"wdir":60,"wspd":11,"visib":"6+","altim":1014,"clouds":[{"cover":"SCT","base":3300}],"obsTime":1783782000},"SBTE":{"icaoId":"SBTE","flightCategory":"VFR","rawOb":"METAR SBTE 111500Z 11006KT 9999 SCT030 32/20 Q1013","temp":32,"dewp":20,"wdir":110,"wspd":6,"visib":"6+","altim":1013,"clouds":[{"cover":"SCT","base":3000}],"obsTime":1783782000},"SBSP":{"icaoId":"SBSP","flightCategory":"VFR","rawOb":"METAR SBSP 111500Z 35010KT 310V020 CAVOK 24/10 Q1017","temp":24,"dewp":10,"wdir":350,"wspd":10,"visib":"6+","altim":1017,"clouds":[],"obsTime":1783782000},"SBLO":{"icaoId":"SBLO","flightCategory":"VFR","rawOb":"METAR SBLO 111500Z 01005KT 300V050 CAVOK 25/15 Q1016","temp":25,"dewp":15,"wdir":10,"wspd":5,"visib":"6+","altim":1016,"clouds":[],"obsTime":1783782000},"SBCP":{"icaoId":"SBCP","flightCategory":"VFR","rawOb":"METAR SBCP 111500Z 00000KT CAVOK 28/15 Q1015","temp":28,"dewp":15,"wdir":0,"wspd":0,"visib":"6+","altim":1015,"clouds":[],"obsTime":1783782000},"SBFI":{"icaoId":"SBFI","flightCategory":"VFR","rawOb":"METAR SBFI 111500Z 34002KT 9000 SCT020 FEW040TCU BKN070 21/20 Q1013","temp":21,"dewp":20,"wdir":340,"wspd":2,"visib":5.59,"altim":1013,"clouds":[{"cover":"SCT","base":2000},{"cover":"FEW","base":4000},{"cover":"BKN","base":7000}],"obsTime":1783782000},"SBGR":{"icaoId":"SBGR","flightCategory":"VFR","rawOb":"METAR SBGR 111500Z 31012KT CAVOK 25/09 Q1017","temp":25,"dewp":9,"wdir":310,"wspd":12,"visib":"6+","altim":1017,"clouds":[],"obsTime":1783782000},"SBPJ":{"icaoId":"SBPJ","flightCategory":"VFR","rawOb":"METAR SBPJ 111500Z 28006KT 9999 FEW033 32/19 Q1015","temp":32,"dewp":19,"wdir":280,"wspd":6,"visib":"6+","altim":1015,"clouds":[{"cover":"FEW","base":3300}],"obsTime":1783782000},"SBOI":{"icaoId":"SBOI","flightCategory":"VFR","rawOb":"METAR SBOI 111500Z AUTO 04005KT 350V070 9999 -RA SCT049 29/25 Q1014","temp":29,"dewp":25,"wdir":40,"wspd":5,"visib":"6+","altim":1014,"clouds":[{"cover":"SCT","base":4900}],"obsTime":1783782000},"SBSM":{"icaoId":"SBSM","flightCategory":"VFR","rawOb":"METAR SBSM 111500Z 13005KT 9999 FEW010 BKN100 17/14 Q1011","temp":17,"dewp":14,"wdir":130,"wspd":5,"visib":"6+","altim":1011,"clouds":[{"cover":"FEW","base":1000},{"cover":"BKN","base":10000}],"obsTime":1783782000},"SBCC":{"icaoId":"SBCC","flightCategory":"VFR","rawOb":"METAR SBCC 111500Z 02009KT 9999 SCT025 BKN100 29/21 Q1016","temp":29,"dewp":21,"wdir":20,"wspd":9,"visib":"6+","altim":1016,"clouds":[{"cover":"SCT","base":2500},{"cover":"BKN","base":10000}],"obsTime":1783782000},"SBGM":{"icaoId":"SBGM","flightCategory":"MVFR","rawOb":"METAR SBGM 111500Z 28003KT 9999 BKN020 26/21 Q1015","temp":26,"dewp":21,"wdir":280,"wspd":3,"visib":"6+","altim":1015,"clouds":[{"cover":"BKN","base":2000}],"obsTime":1783782000},"SBTU":{"icaoId":"SBTU","flightCategory":"MVFR","rawOb":"METAR SBTU 111500Z AUTO 23010KT 190V260 9999 // FEW020/// BKN023/// 28/23 Q1015","temp":28,"dewp":23,"wdir":230,"wspd":10,"visib":"6+","altim":1015,"clouds":[{"cover":"FEW","base":2000},{"cover":"BKN","base":2300}],"obsTime":1783782000},"SBVH":{"icaoId":"SBVH","flightCategory":"VFR","rawOb":"METAR SBVH 111500Z 05004KT 360V100 CAVOK 28/19 Q1017","temp":28,"dewp":19,"wdir":50,"wspd":4,"visib":"6+","altim":1017,"clouds":[],"obsTime":1783782000},"SBKG":{"icaoId":"SBKG","flightCategory":"MVFR","rawOb":"METAR SBKG 111500Z 11012KT 9999 BKN025 27/19 Q1018","temp":27,"dewp":19,"wdir":110,"wspd":12,"visib":"6+","altim":1018,"clouds":[{"cover":"BKN","base":2500}],"obsTime":1783782000},"SBAU":{"icaoId":"SBAU","flightCategory":"VFR","rawOb":"METAR SBAU 111500Z 36006KT CAVOK 30/14 Q1016","temp":30,"dewp":14,"wdir":360,"wspd":6,"visib":"6+","altim":1016,"clouds":[],"obsTime":1783782000},"SBAX":{"icaoId":"SBAX","flightCategory":"VFR","rawOb":"METAR SBAX 111500Z AUTO 35005KT 290V040 CAVOK 25/11 Q1020","temp":25,"dewp":11,"wdir":350,"wspd":5,"visib":"6+","altim":1020,"clouds":[],"obsTime":1783782000},"SBBH":{"icaoId":"SBBH","flightCategory":"VFR","rawOb":"METAR SBBH 111500Z 03003KT CAVOK 27/10 Q1019","temp":27,"dewp":10,"wdir":30,"wspd":3,"visib":"6+","altim":1019,"clouds":[],"obsTime":1783782000},"SBBQ":{"icaoId":"SBBQ","flightCategory":"VFR","rawOb":"METAR SBBQ 111500Z 32006KT CAVOK 25/09 Q1022","temp":25,"dewp":9,"wdir":320,"wspd":6,"visib":"6+","altim":1022,"clouds":[],"obsTime":1783782000},"SBBU":{"icaoId":"SBBU","flightCategory":"VFR","rawOb":"METAR SBBU 111500Z 33007KT CAVOK 26/13 Q1017","temp":26,"dewp":13,"wdir":330,"wspd":7,"visib":"6+","altim":1017,"clouds":[],"obsTime":1783782000},"SBCO":{"icaoId":"SBCO","flightCategory":"MVFR","rawOb":"METAR SBCO 111500Z VRB02KT 8000 BKN011 15/14 Q1012","temp":15,"dewp":14,"wdir":"VRB","wspd":2,"visib":4.97,"altim":1012,"clouds":[{"cover":"BKN","base":1100}],"obsTime":1783782000},"SBIP":{"icaoId":"SBIP","flightCategory":"VFR","rawOb":"METAR SBIP 111500Z AUTO 33004KT 290V080 CAVOK 27/17 Q1017","temp":27,"dewp":17,"wdir":330,"wspd":4,"visib":"6+","altim":1017,"clouds":[],"obsTime":1783782000},"SBSC":{"icaoId":"SBSC","flightCategory":"VFR","rawOb":"METAR SBSC 111500Z 02006KT CAVOK 28/16 Q1013","temp":28,"dewp":16,"wdir":20,"wspd":6,"visib":"6+","altim":1013,"clouds":[],"obsTime":1783782000},"SBSR":{"icaoId":"SBSR","flightCategory":"VFR","rawOb":"METAR SBSR 111500Z 03004KT CAVOK 28/11 Q1017","temp":28,"dewp":11,"wdir":30,"wspd":4,"visib":"6+","altim":1017,"clouds":[],"obsTime":1783782000},"SBES":{"icaoId":"SBES","flightCategory":"VFR","rawOb":"METAR SBES 111500Z 21004KT 170V340 CAVOK 24/// Q1014","temp":null,"dewp":null,"wdir":210,"wspd":4,"visib":"6+","altim":1014,"clouds":[],"obsTime":1783782000},"SBDN":{"icaoId":"SBDN","flightCategory":"VFR","rawOb":"METAR SBDN 111500Z 36006KT CAVOK 29/15 Q1015","temp":29,"dewp":15,"wdir":360,"wspd":6,"visib":"6+","altim":1015,"clouds":[],"obsTime":1783782000},"SBPS":{"icaoId":"SBPS","flightCategory":"VFR","rawOb":"METAR SBPS 111500Z 01005KT 9999 SCT020 28/21 Q1017","temp":28,"dewp":21,"wdir":10,"wspd":5,"visib":"6+","altim":1017,"clouds":[{"cover":"SCT","base":2000}],"obsTime":1783782000},"SBUY":{"icaoId":"SBUY","flightCategory":"VFR","rawOb":"METAR SBUY 111500Z 22002KT 9999 FEW007 SCT020 BKN100 25/24 Q1013","temp":25,"dewp":24,"wdir":220,"wspd":2,"visib":"6+","altim":1013,"clouds":[{"cover":"FEW","base":700},{"cover":"SCT","base":2000},{"cover":"BKN","base":10000}],"obsTime":1783782000},"SBTT":{"icaoId":"SBTT","flightCategory":"VFR","rawOb":"METAR SBTT 111500Z VRB03KT 9999 FEW008 OVC100 24/22 Q1015","temp":24,"dewp":22,"wdir":"VRB","wspd":3,"visib":"6+","altim":1015,"clouds":[{"cover":"FEW","base":800},{"cover":"OVC","base":10000}],"obsTime":1783782000},"SBCJ":{"icaoId":"SBCJ","flightCategory":"VFR","rawOb":"METAR SBCJ 111500Z VRB04KT 9999 FEW013 SCT013 26/22 Q1017","temp":26,"dewp":22,"wdir":"VRB","wspd":4,"visib":"6+","altim":1017,"clouds":[{"cover":"FEW","base":1300},{"cover":"SCT","base":1300}],"obsTime":1783782000},"SBSJ":{"icaoId":"SBSJ","flightCategory":"VFR","rawOb":"METAR SBSJ 111500Z 12002KT CAVOK 22/14 Q1017","temp":22,"dewp":14,"wdir":120,"wspd":2,"visib":"6+","altim":1017,"clouds":[],"obsTime":1783782000},"SBTF":{"icaoId":"SBTF","flightCategory":"VFR","rawOb":"METAR SBTF 111500Z 05004KT 9999 FEW012 BKN100 29/25 Q1013","temp":29,"dewp":25,"wdir":50,"wspd":4,"visib":"6+","altim":1013,"clouds":[{"cover":"FEW","base":1200},{"cover":"BKN","base":10000}],"obsTime":1783782000},"SBAR":{"icaoId":"SBAR","flightCategory":"VFR","rawOb":"METAR SBAR 111500Z 08009KT 9999 SCT025 28/21 Q1016","temp":28,"dewp":21,"wdir":80,"wspd":9,"visib":"6+","altim":1016,"clouds":[{"cover":"SCT","base":2500}],"obsTime":1783782000},"SBPL":{"icaoId":"SBPL","flightCategory":"VFR","rawOb":"METAR SBPL 111500Z 07007KT CAVOK 30/17 Q1016","temp":30,"dewp":17,"wdir":70,"wspd":7,"visib":"6+","altim":1016,"clouds":[],"obsTime":1783782000},"SBPB":{"icaoId":"SBPB","flightCategory":"VFR","rawOb":"METAR SBPB 111500Z 06012KT 9999 SCT020 31/24 Q1013","temp":31,"dewp":24,"wdir":60,"wspd":12,"visib":"6+","altim":1013,"clouds":[{"cover":"SCT","base":2000}],"obsTime":1783782000},"SBPP":{"icaoId":"SBPP","flightCategory":"VFR","rawOb":"METAR SBPP 111500Z 34010KT CAVOK 27/17 Q1016","temp":27,"dewp":17,"wdir":340,"wspd":10,"visib":"6+","altim":1016,"clouds":[],"obsTime":1783782000},"SBAN":{"icaoId":"SBAN","flightCategory":"VFR","rawOb":"METAR SBAN 111500Z 01007KT 9999 FEW035 27/12 Q1022","temp":27,"dewp":12,"wdir":10,"wspd":7,"visib":"6+","altim":1022,"clouds":[{"cover":"FEW","base":3500}],"obsTime":1783782000},"SBJV":{"icaoId":"SBJV","flightCategory":"LIFR","rawOb":"METAR SBJV 111500Z 16005KT 2000 -RADZ BKN003 BKN006 15/15 Q1014","temp":15,"dewp":15,"wdir":160,"wspd":5,"visib":1.24,"altim":1014,"clouds":[{"cover":"BKN","base":300},{"cover":"BKN","base":600}],"obsTime":1783782000},"SBNM":{"icaoId":"SBNM","flightCategory":"MVFR","rawOb":"METAR SBNM 111500Z 24002KT 8000 VCFG SCT002 BKN025 19/18 Q1012","temp":19,"dewp":18,"wdir":240,"wspd":2,"visib":4.97,"altim":1012,"clouds":[{"cover":"SCT","base":200},{"cover":"BKN","base":2500}],"obsTime":1783782000},"SBIH":{"icaoId":"SBIH","flightCategory":"VFR","rawOb":"METAR SBIH 111500Z 03004KT 9999 SCT020 29/25 Q1013","temp":29,"dewp":25,"wdir":30,"wspd":4,"visib":"6+","altim":1013,"clouds":[{"cover":"SCT","base":2000}],"obsTime":1783782000},"SBLE":{"icaoId":"SBLE","flightCategory":"VFR","rawOb":"METAR SBLE 111500Z AUTO VRB03KT 9999 BKN031 ///// Q1019","temp":null,"dewp":null,"wdir":"VRB","wspd":3,"visib":"6+","altim":1019,"clouds":[{"cover":"BKN","base":3100}],"obsTime":1783782000},"SBTC":{"icaoId":"SBTC","flightCategory":"VFR","rawOb":"METAR SBTC 111500Z 05005KT 9999 SCT020 27/22 Q1017","temp":27,"dewp":22,"wdir":50,"wspd":5,"visib":"6+","altim":1017,"clouds":[{"cover":"SCT","base":2000}],"obsTime":1783782000},"SBAF":{"icaoId":"SBAF","flightCategory":"MVFR","rawOb":"METAR SBAF 111500Z 08003KT 8000 NSC 26/16 Q1014","temp":26,"dewp":16,"wdir":80,"wspd":3,"visib":4.97,"altim":1014,"clouds":[],"obsTime":1783782000},"SBGW":{"icaoId":"SBGW","flightCategory":"VFR","rawOb":"METAR SBGW 111500Z VRB03KT CAVOK 24/12 Q1016","temp":24,"dewp":12,"wdir":"VRB","wspd":3,"visib":"6+","altim":1016,"clouds":[],"obsTime":1783782000},"SBJR":{"icaoId":"SBJR","flightCategory":"VFR","rawOb":"METAR SBJR 111500Z 19005KT CAVOK 29/19 Q1013","temp":29,"dewp":19,"wdir":190,"wspd":5,"visib":"6+","altim":1013,"clouds":[],"obsTime":1783782000},"SBLS":{"icaoId":"SBLS","flightCategory":"VFR","rawOb":"METAR SBLS 111500Z VRB03KT CAVOK 26/10 Q1020","temp":26,"dewp":10,"wdir":"VRB","wspd":3,"visib":"6+","altim":1020,"clouds":[],"obsTime":1783782000},"SBMT":{"icaoId":"SBMT","flightCategory":"VFR","rawOb":"METAR SBMT 111500Z 34006KT CAVOK 25/08 Q1016","temp":25,"dewp":8,"wdir":340,"wspd":6,"visib":"6+","altim":1016,"clouds":[],"obsTime":1783782000},"SBST":{"icaoId":"SBST","flightCategory":"VFR","rawOb":"METAR SBST 111500Z 11006KT CAVOK 25/15 Q1012","temp":25,"dewp":15,"wdir":110,"wspd":6,"visib":"6+","altim":1012,"clouds":[],"obsTime":1783782000},"SBTA":{"icaoId":"SBTA","flightCategory":"VFR","rawOb":"METAR SBTA 111500Z 03004KT 340V130 CAVOK 24/14 Q1016","temp":24,"dewp":14,"wdir":30,"wspd":4,"visib":"6+","altim":1016,"clouds":[],"obsTime":1783782000},"SBJP":{"icaoId":"SBJP","flightCategory":"MVFR","rawOb":"METAR SBJP 111500Z 13013KT 9999 BKN025 29/22 Q1016","temp":29,"dewp":22,"wdir":130,"wspd":13,"visib":"6+","altim":1016,"clouds":[{"cover":"BKN","base":2500}],"obsTime":1783782000}}}