{"updated":1778117369,"count":64,"data":{"SBFL":{"icaoId":"SBFL","flightCategory":"VFR","rawOb":"METAR SBFL 070000Z 33009KT CAVOK 23/22 Q1016","temp":23,"dewp":22,"wdir":330,"wspd":9,"visib":"6+","altim":1016,"clouds":[],"obsTime":1778112000},"SBBE":{"icaoId":"SBBE","flightCategory":"VFR","rawOb":"METAR SBBE 070000Z 15007KT 9999 BKN046 BKN100 25/23 Q1013","temp":25,"dewp":23,"wdir":150,"wspd":7,"visib":"6+","altim":1013,"clouds":[{"cover":"BKN","base":4600},{"cover":"BKN","base":10000}],"obsTime":1778112000},"SBBR":{"icaoId":"SBBR","flightCategory":"VFR","rawOb":"METAR SBBR 070000Z 12007KT CAVOK 21/14 Q1021","temp":21,"dewp":14,"wdir":120,"wspd":7,"visib":"6+","altim":1021,"clouds":[],"obsTime":1778112000},"SBBV":{"icaoId":"SBBV","flightCategory":"VFR","rawOb":"METAR SBBV 070000Z 08004KT 9999 FEW040 SCT090 29/23 Q1012","temp":29,"dewp":23,"wdir":80,"wspd":4,"visib":"6+","altim":1012,"clouds":[{"cover":"FEW","base":4000},{"cover":"SCT","base":9000}],"obsTime":1778112000},"SBCF":{"icaoId":"SBCF","flightCategory":"VFR","rawOb":"METAR SBCF 070000Z 13007KT CAVOK 21/16 Q1023","temp":21,"dewp":16,"wdir":130,"wspd":7,"visib":"6+","altim":1023,"clouds":[],"obsTime":1778112000},"SBCG":{"icaoId":"SBCG","flightCategory":"VFR","rawOb":"METAR SBCG 070000Z 06006KT CAVOK 23/17 Q1016","temp":23,"dewp":17,"wdir":60,"wspd":6,"visib":"6+","altim":1016,"clouds":[],"obsTime":1778112000},"SBCT":{"icaoId":"SBCT","flightCategory":"MVFR","rawOb":"METAR SBCT 070000Z 08002KT 8000 NSC 19/19 Q1022","temp":19,"dewp":19,"wdir":80,"wspd":2,"visib":4.97,"altim":1022,"clouds":[],"obsTime":1778112000},"SBEG":{"icaoId":"SBEG","flightCategory":"VFR","rawOb":"METAR SBEG 070000Z 00000KT 9999 FEW025 26/25 Q1012","temp":26,"dewp":25,"wdir":0,"wspd":0,"visib":"6+","altim":1012,"clouds":[{"cover":"FEW","base":2500}],"obsTime":1778112000},"SBFI":{"icaoId":"SBFI","flightCategory":"VFR","rawOb":"METAR SBFI 070000Z 05010KT CAVOK 25/22 Q1012","temp":25,"dewp":22,"wdir":50,"wspd":10,"visib":"6+","altim":1012,"clouds":[],"obsTime":1778112000},"SBFZ":{"icaoId":"SBFZ","flightCategory":"VFR","rawOb":"METAR SBFZ 070000Z 19004KT 9999 FEW020 27/24 Q1011","temp":27,"dewp":24,"wdir":190,"wspd":4,"visib":"6+","altim":1011,"clouds":[{"cover":"FEW","base":2000}],"obsTime":1778112000},"SBGL":{"icaoId":"SBGL","flightCategory":"VFR","rawOb":"METAR SBGL 070000Z 07005KT CAVOK 24/22 Q1018","temp":24,"dewp":22,"wdir":70,"wspd":5,"visib":"6+","altim":1018,"clouds":[],"obsTime":1778112000},"SBGO":{"icaoId":"SBGO","flightCategory":"VFR","rawOb":"METAR SBGO 070000Z 11007KT CAVOK 22/15 Q1019","temp":22,"dewp":15,"wdir":110,"wspd":7,"visib":"6+","altim":1019,"clouds":[],"obsTime":1778112000},"SBGR":{"icaoId":"SBGR","flightCategory":"VFR","rawOb":"METAR SBGR 070000Z 00000KT CAVOK 20/16 Q1022","temp":20,"dewp":16,"wdir":0,"wspd":0,"visib":"6+","altim":1022,"clouds":[],"obsTime":1778112000},"SBIL":{"icaoId":"SBIL","flightCategory":"VFR","rawOb":"METAR SBIL 070000Z 27003KT 9999 SCT020 SCT070 23/23 Q1017","temp":23,"dewp":23,"wdir":270,"wspd":3,"visib":"6+","altim":1017,"clouds":[{"cover":"SCT","base":2000},{"cover":"SCT","base":7000}],"obsTime":1778112000},"SBJU":{"icaoId":"SBJU","flightCategory":"VFR","rawOb":"METAR SBJU 070000Z 00000KT 9999 FEW020 25/20 Q1015","temp":25,"dewp":20,"wdir":0,"wspd":0,"visib":"6+","altim":1015,"clouds":[{"cover":"FEW","base":2000}],"obsTime":1778112000},"SBKP":{"icaoId":"SBKP","flightCategory":"VFR","rawOb":"METAR SBKP 070000Z 13008KT CAVOK 24/15 Q1020","temp":24,"dewp":15,"wdir":130,"wspd":8,"visib":"6+","altim":1020,"clouds":[],"obsTime":1778112000},"SBLO":{"icaoId":"SBLO","flightCategory":"VFR","rawOb":"METAR SBLO 070000Z 07003KT CAVOK 24/18 Q1018","temp":24,"dewp":18,"wdir":70,"wspd":3,"visib":"6+","altim":1018,"clouds":[],"obsTime":1778112000},"SBMA":{"icaoId":"SBMA","flightCategory":"VFR","rawOb":"METAR SBMA 070000Z 32001KT 9999 TS FEW010 FEW023CB BKN070 28/26 Q1012","temp":28,"dewp":26,"wdir":320,"wspd":1,"visib":"6+","altim":1012,"clouds":[{"cover":"FEW","base":1000},{"cover":"FEW","base":2300},{"cover":"BKN","base":7000}],"obsTime":1778112000},"SBME":{"icaoId":"SBME","flightCategory":"VFR","rawOb":"METAR SBME 070000Z 06006KT CAVOK 26/22 Q1019","temp":26,"dewp":22,"wdir":60,"wspd":6,"visib":"6+","altim":1019,"clouds":[],"obsTime":1778112000},"SBMG":{"icaoId":"SBMG","flightCategory":"VFR","rawOb":"METAR SBMG 070000Z 08010KT CAVOK 24/18 Q1016","temp":24,"dewp":18,"wdir":80,"wspd":10,"visib":"6+","altim":1016,"clouds":[],"obsTime":1778112000},"SBMK":{"icaoId":"SBMK","flightCategory":"VFR","rawOb":"METAR SBMK 070000Z 10005KT CAVOK 23/17 Q1020","temp":23,"dewp":17,"wdir":100,"wspd":5,"visib":"6+","altim":1020,"clouds":[],"obsTime":1778112000},"SBMO":{"icaoId":"SBMO","flightCategory":"VFR","rawOb":"METAR SBMO 070000Z 09003KT 9999 SCT020 SCT055 24/23 Q1014","temp":24,"dewp":23,"wdir":90,"wspd":3,"visib":"6+","altim":1014,"clouds":[{"cover":"SCT","base":2000},{"cover":"SCT","base":5500}],"obsTime":1778112000},"SBMQ":{"icaoId":"SBMQ","flightCategory":"VFR","rawOb":"METAR SBMQ 070000Z 05007KT 9999 SCT015 SCT045 BKN070 27/25 Q1012","temp":27,"dewp":25,"wdir":50,"wspd":7,"visib":"6+","altim":1012,"clouds":[{"cover":"SCT","base":1500},{"cover":"SCT","base":4500},{"cover":"BKN","base":7000}],"obsTime":1778112000},"SBNT":{"icaoId":"SBNT","flightCategory":"VFR","rawOb":"METAR SBNT 070000Z 17005KT 9999 FEW023 25/23 Q1013","temp":25,"dewp":23,"wdir":170,"wspd":5,"visib":"6+","altim":1013,"clouds":[{"cover":"FEW","base":2300}],"obsTime":1778112000},"SBPA":{"icaoId":"SBPA","flightCategory":"VFR","rawOb":"METAR SBPA 070000Z 10005KT CAVOK 25/22 Q1012","temp":25,"dewp":22,"wdir":100,"wspd":5,"visib":"6+","altim":1012,"clouds":[],"obsTime":1778112000},"SBPJ":{"icaoId":"SBPJ","flightCategory":"VFR","rawOb":"METAR SBPJ 070000Z 14005KT 9999 FEW020 27/22 Q1014","temp":27,"dewp":22,"wdir":140,"wspd":5,"visib":"6+","altim":1014,"clouds":[{"cover":"FEW","base":2000}],"obsTime":1778112000},"SBPV":{"icaoId":"SBPV","flightCategory":"VFR","rawOb":"METAR SBPV 070000Z 07001KT 9999 FEW020 26/23 Q1011","temp":26,"dewp":23,"wdir":70,"wspd":1,"visib":"6+","altim":1011,"clouds":[{"cover":"FEW","base":2000}],"obsTime":1778112000},"SBRB":{"icaoId":"SBRB","flightCategory":"MVFR","rawOb":"METAR SBRB 070000Z 24002KT 8000 FEW030 25/24 Q1012","temp":25,"dewp":24,"wdir":240,"wspd":2,"visib":4.97,"altim":1012,"clouds":[{"cover":"FEW","base":3000}],"obsTime":1778112000},"SBRF":{"icaoId":"SBRF","flightCategory":"VFR","rawOb":"METAR SBRF 070000Z 21005KT 9999 VCSH SCT021 BKN040 25/24 Q1013","temp":25,"dewp":24,"wdir":210,"wspd":5,"visib":"6+","altim":1013,"clouds":[{"cover":"SCT","base":2100},{"cover":"BKN","base":4000}],"obsTime":1778112000},"SBSG":{"icaoId":"SBSG","flightCategory":"MVFR","rawOb":"METAR SBSG 070000Z 11004KT 040V200 9999 BKN030 25/24 Q1013","temp":25,"dewp":24,"wdir":110,"wspd":4,"visib":"6+","altim":1013,"clouds":[{"cover":"BKN","base":3000}],"obsTime":1778112000},"SBSL":{"icaoId":"SBSL","flightCategory":"VFR","rawOb":"METAR SBSL 070000Z 03003KT 9999 FEW017 BKN080 25/25 Q1012","temp":25,"dewp":25,"wdir":30,"wspd":3,"visib":"6+","altim":1012,"clouds":[{"cover":"FEW","base":1700},{"cover":"BKN","base":8000}],"obsTime":1778112000},"SBSN":{"icaoId":"SBSN","flightCategory":"VFR","rawOb":"METAR SBSN 070000Z 17003KT CAVOK 25/24 Q1011","temp":25,"dewp":24,"wdir":170,"wspd":3,"visib":"6+","altim":1011,"clouds":[],"obsTime":1778112000},"SBSP":{"icaoId":"SBSP","flightCategory":"VFR","rawOb":"METAR SBSP 070000Z 11004KT CAVOK 23/17 Q1022","temp":23,"dewp":17,"wdir":110,"wspd":4,"visib":"6+","altim":1022,"clouds":[],"obsTime":1778112000},"SBSV":{"icaoId":"SBSV","flightCategory":"MVFR","rawOb":"SPECI SBSV 062350Z 08011KT 6000 -TSRA BKN010 BKN020 FEW023CB BKN060 24/22 Q1016","temp":24,"dewp":22,"wdir":80,"wspd":11,"visib":3.73,"altim":1016,"clouds":[{"cover":"BKN","base":1000},{"cover":"BKN","base":2000},{"cover":"FEW","base":2300},{"cover":"BKN","base":6000}],"obsTime":1778111400},"SBTE":{"icaoId":"SBTE","flightCategory":"VFR","rawOb":"METAR SBTE 070000Z 33002KT 9999 SCT020 28/25 Q1012","temp":28,"dewp":25,"wdir":330,"wspd":2,"visib":"6+","altim":1012,"clouds":[{"cover":"SCT","base":2000}],"obsTime":1778112000},"SBUL":{"icaoId":"SBUL","flightCategory":"VFR","rawOb":"METAR SBUL 070000Z 13003KT 080V160 CAVOK 22/15 Q1021","temp":22,"dewp":15,"wdir":130,"wspd":3,"visib":"6+","altim":1021,"clouds":[],"obsTime":1778112000},"SBUR":{"icaoId":"SBUR","flightCategory":"VFR","rawOb":"METAR SBUR 070000Z 05003KT CAVOK 25/13 Q1020","temp":25,"dewp":13,"wdir":50,"wspd":3,"visib":"6+","altim":1020,"clouds":[],"obsTime":1778112000},"SBVT":{"icaoId":"SBVT","flightCategory":"VFR","rawOb":"METAR SBVT 070000Z 30002KT 9999 FEW010 23/22 Q1019","temp":23,"dewp":22,"wdir":300,"wspd":2,"visib":"6+","altim":1019,"clouds":[{"cover":"FEW","base":1000}],"obsTime":1778112000},"SBCZ":{"icaoId":"SBCZ","flightCategory":"VFR","rawOb":"METAR SBCZ 070000Z 02003KT 9999 VCTS FEW030 FEW030CB 25/24 Q1012","temp":25,"dewp":24,"wdir":20,"wspd":3,"visib":"6+","altim":1012,"clouds":[{"cover":"FEW","base":3000},{"cover":"FEW","base":3000}],"obsTime":1778112000},"SBBU":{"icaoId":"SBBU","flightCategory":"VFR","rawOb":"METAR SBBU 070000Z 10007KT CAVOK 26/17 Q1018","temp":26,"dewp":17,"wdir":100,"wspd":7,"visib":"6+","altim":1018,"clouds":[],"obsTime":1778112000},"SBAX":{"icaoId":"SBAX","flightCategory":"VFR","rawOb":"METAR SBAX 070000Z 12009KT CAVOK 21/14 Q1022","temp":21,"dewp":14,"wdir":120,"wspd":9,"visib":"6+","altim":1022,"clouds":[],"obsTime":1778112000},"SBOI":{"icaoId":"SBOI","flightCategory":"VFR","rawOb":"METAR SBOI 070000Z AUTO 00000KT CAVOK 26/24 Q1013","temp":26,"dewp":24,"wdir":0,"wspd":0,"visib":"6+","altim":1013,"clouds":[],"obsTime":1778112000},"SBCO":{"icaoId":"SBCO","flightCategory":"VFR","rawOb":"METAR SBCO 070000Z 10003KT CAVOK 22/21 Q1012","temp":22,"dewp":21,"wdir":100,"wspd":3,"visib":"6+","altim":1012,"clouds":[],"obsTime":1778112000},"SBPL":{"icaoId":"SBPL","flightCategory":"VFR","rawOb":"METAR SBPL 070000Z 15005KT 9999 FEW025 28/17 Q1015","temp":28,"dewp":17,"wdir":150,"wspd":5,"visib":"6+","altim":1015,"clouds":[{"cover":"FEW","base":2500}],"obsTime":1778112000},"SBAR":{"icaoId":"SBAR","flightCategory":"VFR","rawOb":"METAR SBAR 070000Z 11007KT 9999 SCT020 SCT060 27/23 Q1014","temp":27,"dewp":23,"wdir":110,"wspd":7,"visib":"6+","altim":1014,"clouds":[{"cover":"SCT","base":2000},{"cover":"SCT","base":6000}],"obsTime":1778112000},"SBPS":{"icaoId":"SBPS","flightCategory":"VFR","rawOb":"METAR SBPS 070000Z 23003KT 9999 SCT018 24/23 Q1018","temp":24,"dewp":23,"wdir":230,"wspd":3,"visib":"6+","altim":1018,"clouds":[{"cover":"SCT","base":1800}],"obsTime":1778112000},"SBDN":{"icaoId":"SBDN","flightCategory":"VFR","rawOb":"METAR SBDN 070000Z 07005KT CAVOK 25/15 Q1017","temp":25,"dewp":15,"wdir":70,"wspd":5,"visib":"6+","altim":1017,"clouds":[],"obsTime":1778112000},"SBSC":{"icaoId":"SBSC","flightCategory":"VFR","rawOb":"METAR SBSC 070000Z 24002KT CAVOK 23/22 Q1018","temp":23,"dewp":22,"wdir":240,"wspd":2,"visib":"6+","altim":1018,"clouds":[],"obsTime":1778112000},"SBES":{"icaoId":"SBES","flightCategory":"VFR","rawOb":"METAR SBES 070000Z 05007KT 280V080 9000 FEW006 23/// Q1019","temp":null,"dewp":null,"wdir":50,"wspd":7,"visib":5.59,"altim":1019,"clouds":[{"cover":"FEW","base":600}],"obsTime":1778112000},"SBSJ":{"icaoId":"SBSJ","flightCategory":"VFR","rawOb":"METAR SBSJ 070000Z 15004KT CAVOK 21/17 Q1021","temp":21,"dewp":17,"wdir":150,"wspd":4,"visib":"6+","altim":1021,"clouds":[],"obsTime":1778112000},"SBBH":{"icaoId":"SBBH","flightCategory":"VFR","rawOb":"METAR SBBH 070000Z 09004KT CAVOK 21/17 Q1022","temp":21,"dewp":17,"wdir":90,"wspd":4,"visib":"6+","altim":1022,"clouds":[],"obsTime":1778112000},"SBSM":{"icaoId":"SBSM","flightCategory":"VFR","rawOb":"METAR SBSM 070000Z 04005KT CAVOK 26/20 Q1011","temp":26,"dewp":20,"wdir":40,"wspd":5,"visib":"6+","altim":1011,"clouds":[],"obsTime":1778112000},"SBKG":{"icaoId":"SBKG","flightCategory":"VFR","rawOb":"METAR SBKG 070000Z 11004KT CAVOK 22/21 Q1016","temp":22,"dewp":21,"wdir":110,"wspd":4,"visib":"6+","altim":1016,"clouds":[],"obsTime":1778112000},"SBSR":{"icaoId":"SBSR","flightCategory":"VFR","rawOb":"METAR SBSR 070000Z 21001KT CAVOK 25/14 Q1018","temp":25,"dewp":14,"wdir":210,"wspd":1,"visib":"6+","altim":1018,"clouds":[],"obsTime":1778112000},"SBIP":{"icaoId":"SBIP","flightCategory":"VFR","rawOb":"METAR SBIP 070000Z AUTO 22002KT CAVOK 19/19 Q1020","temp":19,"dewp":19,"wdir":220,"wspd":2,"visib":"6+","altim":1020,"clouds":[],"obsTime":1778112000},"SBTU":{"icaoId":"SBTU","flightCategory":"VFR","rawOb":"METAR SBTU 070000Z AUTO 26001KT 9999 // ///////// ///// Q1014","temp":null,"dewp":null,"wdir":260,"wspd":1,"visib":"6+","altim":1014,"clouds":[],"obsTime":1778112000},"SBJV":{"icaoId":"SBJV","flightCategory":"IFR","rawOb":"METAR SBJV 070000Z 34003KT 5000 BR OVC008 24/23 Q1017","temp":24,"dewp":23,"wdir":340,"wspd":3,"visib":3.11,"altim":1017,"clouds":[{"cover":"OVC","base":800}],"obsTime":1778112000},"SBAN":{"icaoId":"SBAN","flightCategory":"VFR","rawOb":"METAR SBAN 070000Z 19007KT CAVOK 20/14 Q1022","temp":20,"dewp":14,"wdir":190,"wspd":7,"visib":"6+","altim":1022,"clouds":[],"obsTime":1778112000},"SBLS":{"icaoId":"SBLS","flightCategory":"VFR","rawOb":"METAR SBLS 070000Z 14008KT CAVOK 21/16 Q1022","temp":21,"dewp":16,"wdir":140,"wspd":8,"visib":"6+","altim":1022,"clouds":[],"obsTime":1778112000},"SBLE":{"icaoId":"SBLE","flightCategory":"VFR","rawOb":"METAR SBLE 070000Z AUTO VRB01KT 9999 FEW035 ///// Q////","temp":null,"dewp":null,"wdir":"VRB","wspd":1,"visib":"6+","altim":null,"clouds":[{"cover":"FEW","base":3500}],"obsTime":1778112000},"SBMT":{"icaoId":"SBMT","flightCategory":"VFR","rawOb":"METAR SBMT 070000Z 08004KT CAVOK 23/17 Q1021","temp":23,"dewp":17,"wdir":80,"wspd":4,"visib":"6+","altim":1021,"clouds":[],"obsTime":1778112000},"SBTA":{"icaoId":"SBTA","flightCategory":"VFR","rawOb":"METAR SBTA 070000Z 00000KT CAVOK 19/19 Q1020","temp":19,"dewp":19,"wdir":0,"wspd":0,"visib":"6+","altim":1020,"clouds":[],"obsTime":1778112000},"SBJP":{"icaoId":"SBJP","flightCategory":"VFR","rawOb":"METAR SBJP 070000Z 16004KT CAVOK 25/23 Q1013","temp":25,"dewp":23,"wdir":160,"wspd":4,"visib":"6+","altim":1013,"clouds":[],"obsTime":1778112000},"SBJR":{"icaoId":"SBJR","flightCategory":"MVFR","rawOb":"METAR SBJR 070000Z 00000KT 7000 NSC 22/21 Q1018","temp":22,"dewp":21,"wdir":0,"wspd":0,"visib":4.35,"altim":1018,"clouds":[],"obsTime":1778112000}}}