{"updated":1784423856,"count":63,"data":{"SBBE":{"icaoId":"SBBE","flightCategory":"VFR","rawOb":"METAR SBBE 190000Z 06008KT 9999 BKN044 BKN057 BKN100 27/25 Q1012","temp":27,"dewp":25,"wdir":60,"wspd":8,"visib":"6+","altim":1012,"clouds":[{"cover":"BKN","base":4400},{"cover":"BKN","base":5700},{"cover":"BKN","base":10000}],"obsTime":1784419200},"SBFZ":{"icaoId":"SBFZ","flightCategory":"VFR","rawOb":"METAR SBFZ 190000Z 14009KT 9999 SCT019 BKN060 27/23 Q1013","temp":27,"dewp":23,"wdir":140,"wspd":9,"visib":"6+","altim":1013,"clouds":[{"cover":"SCT","base":1900},{"cover":"BKN","base":6000}],"obsTime":1784419200},"SBCG":{"icaoId":"SBCG","flightCategory":"VFR","rawOb":"METAR SBCG 190000Z 02009KT CAVOK 25/14 Q1012","temp":25,"dewp":14,"wdir":20,"wspd":9,"visib":"6+","altim":1012,"clouds":[],"obsTime":1784419200},"SBBV":{"icaoId":"SBBV","flightCategory":"VFR","rawOb":"METAR SBBV 190000Z 33002KT CAVOK 28/24 Q1010","temp":28,"dewp":24,"wdir":330,"wspd":2,"visib":"6+","altim":1010,"clouds":[],"obsTime":1784419200},"SBPA":{"icaoId":"SBPA","flightCategory":"VFR","rawOb":"METAR SBPA 190000Z VRB01KT CAVOK 25/18 Q1005","temp":25,"dewp":18,"wdir":"VRB","wspd":1,"visib":"6+","altim":1005,"clouds":[],"obsTime":1784419200},"SBTE":{"icaoId":"SBTE","flightCategory":"VFR","rawOb":"METAR SBTE 190000Z 17006KT CAVOK 30/18 Q1012","temp":30,"dewp":18,"wdir":170,"wspd":6,"visib":"6+","altim":1012,"clouds":[],"obsTime":1784419200},"SBBR":{"icaoId":"SBBR","flightCategory":"VFR","rawOb":"METAR SBBR 190000Z 08002KT CAVOK 18/11 Q1021","temp":18,"dewp":11,"wdir":80,"wspd":2,"visib":"6+","altim":1021,"clouds":[],"obsTime":1784419200},"SBMQ":{"icaoId":"SBMQ","flightCategory":"VFR","rawOb":"METAR SBMQ 190000Z 01003KT CAVOK 27/25 Q1011","temp":27,"dewp":25,"wdir":10,"wspd":3,"visib":"6+","altim":1011,"clouds":[],"obsTime":1784419200},"SBMA":{"icaoId":"SBMA","flightCategory":"VFR","rawOb":"METAR SBMA 190000Z 00000KT CAVOK 27/21 Q1012","temp":27,"dewp":21,"wdir":0,"wspd":0,"visib":"6+","altim":1012,"clouds":[],"obsTime":1784419200},"SBPJ":{"icaoId":"SBPJ","flightCategory":"VFR","rawOb":"METAR SBPJ 190000Z 13005KT CAVOK 25/18 Q1014","temp":25,"dewp":18,"wdir":130,"wspd":5,"visib":"6+","altim":1014,"clouds":[],"obsTime":1784419200},"SBGO":{"icaoId":"SBGO","flightCategory":"VFR","rawOb":"METAR SBGO 190000Z 04006KT CAVOK 22/10 Q1018","temp":22,"dewp":10,"wdir":40,"wspd":6,"visib":"6+","altim":1018,"clouds":[],"obsTime":1784419200},"SBNT":{"icaoId":"SBNT","flightCategory":"MVFR","rawOb":"METAR SBNT 190000Z COR 15006KT 6000 -RA SCT018 OVC046 23/22 Q1014","temp":23,"dewp":22,"wdir":150,"wspd":6,"visib":3.73,"altim":1014,"clouds":[{"cover":"SCT","base":1800},{"cover":"OVC","base":4600}],"obsTime":1784419200},"SBEG":{"icaoId":"SBEG","flightCategory":"VFR","rawOb":"METAR SBEG 190000Z 12004KT CAVOK 28/23 Q1010","temp":28,"dewp":23,"wdir":120,"wspd":4,"visib":"6+","altim":1010,"clouds":[],"obsTime":1784419200},"SBCT":{"icaoId":"SBCT","flightCategory":"VFR","rawOb":"METAR SBCT 190000Z 06004KT CAVOK 16/11 Q1018","temp":16,"dewp":11,"wdir":60,"wspd":4,"visib":"6+","altim":1018,"clouds":[],"obsTime":1784419200},"SBMO":{"icaoId":"SBMO","flightCategory":"VFR","rawOb":"METAR SBMO 190000Z 15003KT CAVOK 23/18 Q1017","temp":23,"dewp":18,"wdir":150,"wspd":3,"visib":"6+","altim":1017,"clouds":[],"obsTime":1784419200},"SBPV":{"icaoId":"SBPV","flightCategory":"VFR","rawOb":"METAR SBPV 190000Z VRB01KT 9999 FEW035 27/23 Q1009","temp":27,"dewp":23,"wdir":"VRB","wspd":1,"visib":"6+","altim":1009,"clouds":[{"cover":"FEW","base":3500}],"obsTime":1784419200},"SBSG":{"icaoId":"SBSG","flightCategory":"VFR","rawOb":"METAR SBSG 190000Z 15004KT 110V190 9999 FEW021 SCT033 23/22 Q1015","temp":23,"dewp":22,"wdir":150,"wspd":4,"visib":"6+","altim":1015,"clouds":[{"cover":"FEW","base":2100},{"cover":"SCT","base":3300}],"obsTime":1784419200},"SBUL":{"icaoId":"SBUL","flightCategory":"VFR","rawOb":"METAR SBUL 190000Z 09005KT CAVOK 18/10 Q1021","temp":18,"dewp":10,"wdir":90,"wspd":5,"visib":"6+","altim":1021,"clouds":[],"obsTime":1784419200},"SBRB":{"icaoId":"SBRB","flightCategory":"VFR","rawOb":"METAR SBRB 190000Z 03002KT CAVOK 26/24 Q1009","temp":26,"dewp":24,"wdir":30,"wspd":2,"visib":"6+","altim":1009,"clouds":[],"obsTime":1784419200},"SBUR":{"icaoId":"SBUR","flightCategory":"VFR","rawOb":"METAR SBUR 190000Z 02005KT CAVOK 19/10 Q1020","temp":19,"dewp":10,"wdir":20,"wspd":5,"visib":"6+","altim":1020,"clouds":[],"obsTime":1784419200},"SBFI":{"icaoId":"SBFI","flightCategory":"VFR","rawOb":"METAR SBFI 190000Z 04009KT CAVOK 25/16 Q1006","temp":25,"dewp":16,"wdir":40,"wspd":9,"visib":"6+","altim":1006,"clouds":[],"obsTime":1784419200},"SBKP":{"icaoId":"SBKP","flightCategory":"VFR","rawOb":"METAR SBKP 190000Z 08004KT CAVOK 17/09 Q1019","temp":17,"dewp":9,"wdir":80,"wspd":4,"visib":"6+","altim":1019,"clouds":[],"obsTime":1784419200},"SBSP":{"icaoId":"SBSP","flightCategory":"VFR","rawOb":"METAR SBSP 190000Z 02005KT CAVOK 19/10 Q1020","temp":19,"dewp":10,"wdir":20,"wspd":5,"visib":"6+","altim":1020,"clouds":[],"obsTime":1784419200},"SBSV":{"icaoId":"SBSV","flightCategory":"MVFR","rawOb":"METAR SBSV 190000Z 12008KT 090V150 9999 BKN023 BKN060 25/20 Q1019","temp":25,"dewp":20,"wdir":120,"wspd":8,"visib":"6+","altim":1019,"clouds":[{"cover":"BKN","base":2300},{"cover":"BKN","base":6000}],"obsTime":1784419200},"SBLO":{"icaoId":"SBLO","flightCategory":"VFR","rawOb":"METAR SBLO 190000Z 07004KT CAVOK 20/12 Q1016","temp":20,"dewp":12,"wdir":70,"wspd":4,"visib":"6+","altim":1016,"clouds":[],"obsTime":1784419200},"SBMG":{"icaoId":"SBMG","flightCategory":"VFR","rawOb":"METAR SBMG 190000Z 04016KT CAVOK 23/12 Q1013","temp":23,"dewp":12,"wdir":40,"wspd":16,"visib":"6+","altim":1013,"clouds":[],"obsTime":1784419200},"SBGL":{"icaoId":"SBGL","flightCategory":"VFR","rawOb":"METAR SBGL 190000Z 10010KT CAVOK 25/13 Q1017","temp":25,"dewp":13,"wdir":100,"wspd":10,"visib":"6+","altim":1017,"clouds":[],"obsTime":1784419200},"SBIL":{"icaoId":"SBIL","flightCategory":"VFR","rawOb":"METAR SBIL 190000Z 14007KT 9999 SCT027 25/20 Q1020","temp":25,"dewp":20,"wdir":140,"wspd":7,"visib":"6+","altim":1020,"clouds":[{"cover":"SCT","base":2700}],"obsTime":1784419200},"SBRF":{"icaoId":"SBRF","flightCategory":"VFR","rawOb":"METAR SBRF 190000Z 15015KT 9999 FEW026 BKN050 26/20 Q1016","temp":26,"dewp":20,"wdir":150,"wspd":15,"visib":"6+","altim":1016,"clouds":[{"cover":"FEW","base":2600},{"cover":"BKN","base":5000}],"obsTime":1784419200},"SBJU":{"icaoId":"SBJU","flightCategory":"VFR","rawOb":"METAR SBJU 190000Z 18005KT 9999 FEW020 24/17 Q1016","temp":24,"dewp":17,"wdir":180,"wspd":5,"visib":"6+","altim":1016,"clouds":[{"cover":"FEW","base":2000}],"obsTime":1784419200},"SBFL":{"icaoId":"SBFL","flightCategory":"VFR","rawOb":"METAR SBFL 190000Z 18003KT 150V280 CAVOK 20/16 Q1012","temp":20,"dewp":16,"wdir":180,"wspd":3,"visib":"6+","altim":1012,"clouds":[],"obsTime":1784419200},"SBVT":{"icaoId":"SBVT","flightCategory":"VFR","rawOb":"METAR SBVT 190000Z 20004KT 9999 SCT030 SCT040 20/18 Q1021","temp":20,"dewp":18,"wdir":200,"wspd":4,"visib":"6+","altim":1021,"clouds":[{"cover":"SCT","base":3000},{"cover":"SCT","base":4000}],"obsTime":1784419200},"SBSL":{"icaoId":"SBSL","flightCategory":"VFR","rawOb":"METAR SBSL 190000Z 14003KT 9999 FEW017 BKN100 28/23 Q1012","temp":28,"dewp":23,"wdir":140,"wspd":3,"visib":"6+","altim":1012,"clouds":[{"cover":"FEW","base":1700},{"cover":"BKN","base":10000}],"obsTime":1784419200},"SBGR":{"icaoId":"SBGR","flightCategory":"VFR","rawOb":"METAR SBGR 190000Z 05005KT CAVOK 17/10 Q1020","temp":17,"dewp":10,"wdir":50,"wspd":5,"visib":"6+","altim":1020,"clouds":[],"obsTime":1784419200},"SBCF":{"icaoId":"SBCF","flightCategory":"VFR","rawOb":"METAR SBCF 190000Z 09006KT CAVOK 18/12 Q1023","temp":18,"dewp":12,"wdir":90,"wspd":6,"visib":"6+","altim":1023,"clouds":[],"obsTime":1784419200},"SBSN":{"icaoId":"SBSN","flightCategory":"VFR","rawOb":"METAR SBSN 190000Z 14002KT CAVOK 26/25 Q1010","temp":26,"dewp":25,"wdir":140,"wspd":2,"visib":"6+","altim":1010,"clouds":[],"obsTime":1784419200},"SBMK":{"icaoId":"SBMK","flightCategory":"VFR","rawOb":"METAR SBMK 190000Z 11007KT CAVOK 20/10 Q1020","temp":20,"dewp":10,"wdir":110,"wspd":7,"visib":"6+","altim":1020,"clouds":[],"obsTime":1784419200},"SBME":{"icaoId":"SBME","flightCategory":"VFR","rawOb":"METAR SBME 190000Z 03012KT CAVOK 21/19 Q1020","temp":21,"dewp":19,"wdir":30,"wspd":12,"visib":"6+","altim":1020,"clouds":[],"obsTime":1784419200},"SBCZ":{"icaoId":"SBCZ","flightCategory":"VFR","rawOb":"METAR SBCZ 190000Z 00000KT CAVOK 26/24 Q1009","temp":26,"dewp":24,"wdir":0,"wspd":0,"visib":"6+","altim":1009,"clouds":[],"obsTime":1784419200},"SBSC":{"icaoId":"SBSC","flightCategory":"VFR","rawOb":"METAR SBSC 190000Z 01007KT CAVOK 22/14 Q1017","temp":22,"dewp":14,"wdir":10,"wspd":7,"visib":"6+","altim":1017,"clouds":[],"obsTime":1784419200},"SBSR":{"icaoId":"SBSR","flightCategory":"VFR","rawOb":"METAR SBSR 190000Z 06003KT CAVOK 22/09 Q1017","temp":22,"dewp":9,"wdir":60,"wspd":3,"visib":"6+","altim":1017,"clouds":[],"obsTime":1784419200},"SBTU":{"icaoId":"SBTU","flightCategory":"VFR","rawOb":"METAR SBTU 190000Z AUTO VRB01KT 9999 // NCD ///// Q1013","temp":null,"dewp":null,"wdir":"VRB","wspd":1,"visib":"6+","altim":1013,"clouds":[],"obsTime":1784419200},"SBBH":{"icaoId":"SBBH","flightCategory":"VFR","rawOb":"METAR SBBH 190000Z 09003KT CAVOK 17/12 Q1022","temp":17,"dewp":12,"wdir":90,"wspd":3,"visib":"6+","altim":1022,"clouds":[],"obsTime":1784419200},"SBBU":{"icaoId":"SBBU","flightCategory":"VFR","rawOb":"METAR SBBU 190000Z 04004KT CAVOK 23/10 Q1018","temp":23,"dewp":10,"wdir":40,"wspd":4,"visib":"6+","altim":1018,"clouds":[],"obsTime":1784419200},"SBSJ":{"icaoId":"SBSJ","flightCategory":"VFR","rawOb":"METAR SBSJ 190000Z VRB02KT CAVOK 15/09 Q1019","temp":15,"dewp":9,"wdir":"VRB","wspd":2,"visib":"6+","altim":1019,"clouds":[],"obsTime":1784419200},"SBDN":{"icaoId":"SBDN","flightCategory":"VFR","rawOb":"METAR SBDN 190000Z 07005KT CAVOK 22/12 Q1015","temp":22,"dewp":12,"wdir":70,"wspd":5,"visib":"6+","altim":1015,"clouds":[],"obsTime":1784419200},"SBOI":{"icaoId":"SBOI","flightCategory":"VFR","rawOb":"METAR SBOI 190000Z AUTO VRB02KT CAVOK 26/22 Q1012","temp":26,"dewp":22,"wdir":"VRB","wspd":2,"visib":"6+","altim":1012,"clouds":[],"obsTime":1784419200},"SBPL":{"icaoId":"SBPL","flightCategory":"VFR","rawOb":"METAR SBPL 190000Z 11010KT CAVOK 26/14 Q1017","temp":26,"dewp":14,"wdir":110,"wspd":10,"visib":"6+","altim":1017,"clouds":[],"obsTime":1784419200},"SBAR":{"icaoId":"SBAR","flightCategory":"VFR","rawOb":"METAR SBAR 190000Z 11011KT 9999 FEW028 25/19 Q1017","temp":25,"dewp":19,"wdir":110,"wspd":11,"visib":"6+","altim":1017,"clouds":[{"cover":"FEW","base":2800}],"obsTime":1784419200},"SBPS":{"icaoId":"SBPS","flightCategory":"VFR","rawOb":"METAR SBPS 190000Z 09007KT 9999 SCT030 23/18 Q1021","temp":23,"dewp":18,"wdir":90,"wspd":7,"visib":"6+","altim":1021,"clouds":[{"cover":"SCT","base":3000}],"obsTime":1784419200},"SBCO":{"icaoId":"SBCO","flightCategory":"VFR","rawOb":"METAR SBCO 190000Z 34007KT 300V030 CAVOK 29/17 Q1005","temp":29,"dewp":17,"wdir":340,"wspd":7,"visib":"6+","altim":1005,"clouds":[],"obsTime":1784419200},"SBIP":{"icaoId":"SBIP","flightCategory":"VFR","rawOb":"METAR SBIP 190000Z AUTO 00000KT CAVOK 16/15 Q1021","temp":16,"dewp":15,"wdir":0,"wspd":0,"visib":"6+","altim":1021,"clouds":[],"obsTime":1784419200},"SBSM":{"icaoId":"SBSM","flightCategory":"VFR","rawOb":"METAR SBSM 190000Z 02008KT 9999 FEW040 27/18 Q1004","temp":27,"dewp":18,"wdir":20,"wspd":8,"visib":"6+","altim":1004,"clouds":[{"cover":"FEW","base":4000}],"obsTime":1784419200},"SBKG":{"icaoId":"SBKG","flightCategory":"VFR","rawOb":"METAR SBKG 190000Z 15005KT 9999 SCT020 20/19 Q1018","temp":20,"dewp":19,"wdir":150,"wspd":5,"visib":"6+","altim":1018,"clouds":[{"cover":"SCT","base":2000}],"obsTime":1784419200},"SBAX":{"icaoId":"SBAX","flightCategory":"VFR","rawOb":"METAR SBAX 190000Z AUTO 09008KT CAVOK 16/09 Q1021","temp":16,"dewp":9,"wdir":90,"wspd":8,"visib":"6+","altim":1021,"clouds":[],"obsTime":1784419200},"SBTT":{"icaoId":"SBTT","flightCategory":"VFR","rawOb":"SPECI SBTT 182335Z 00000KT CAVOK 28/24 Q1009","temp":28,"dewp":24,"wdir":0,"wspd":0,"visib":"6+","altim":1009,"clouds":[],"obsTime":1784417700},"SBLE":{"icaoId":"SBLE","flightCategory":"VFR","rawOb":"METAR SBLE 190000Z AUTO VRB02KT CAVOK ///// Q1021","temp":null,"dewp":null,"wdir":"VRB","wspd":2,"visib":"6+","altim":1021,"clouds":[],"obsTime":1784419200},"SBMT":{"icaoId":"SBMT","flightCategory":"VFR","rawOb":"METAR SBMT 190000Z 00000KT CAVOK 15/08 Q1020","temp":15,"dewp":8,"wdir":0,"wspd":0,"visib":"6+","altim":1020,"clouds":[],"obsTime":1784419200},"SBJP":{"icaoId":"SBJP","flightCategory":"VFR","rawOb":"METAR SBJP 190000Z 17006KT CAVOK 23/21 Q1015","temp":23,"dewp":21,"wdir":170,"wspd":6,"visib":"6+","altim":1015,"clouds":[],"obsTime":1784419200},"SBAN":{"icaoId":"SBAN","flightCategory":"VFR","rawOb":"METAR SBAN 190000Z 08005KT 050V110 CAVOK 18/09 Q1021","temp":18,"dewp":9,"wdir":80,"wspd":5,"visib":"6+","altim":1021,"clouds":[],"obsTime":1784419200},"SBJV":{"icaoId":"SBJV","flightCategory":"MVFR","rawOb":"METAR SBJV 190000Z 00000KT 6000 FEW002 17/17 Q1012","temp":17,"dewp":17,"wdir":0,"wspd":0,"visib":3.73,"altim":1012,"clouds":[{"cover":"FEW","base":200}],"obsTime":1784419200},"SBLS":{"icaoId":"SBLS","flightCategory":"VFR","rawOb":"METAR SBLS 190000Z /////KT CAVOK 17/12 Q1022","temp":17,"dewp":12,"wdir":null,"wspd":null,"visib":"6+","altim":1022,"clouds":[],"obsTime":1784419200},"SBJR":{"icaoId":"SBJR","flightCategory":"VFR","rawOb":"METAR SBJR 190000Z 00000KT CAVOK 17/16 Q1017","temp":17,"dewp":16,"wdir":0,"wspd":0,"visib":"6+","altim":1017,"clouds":[],"obsTime":1784419200}}}