{"updated":1777294629,"count":85,"data":{"SBCT":{"icaoId":"SBCT","flightCategory":"IFR","rawOb":"METAR SBCT 271100Z 29004KT 230V310 9999 BKN006 BKN030 BKN070 17/17 Q1017","temp":17,"dewp":17,"wdir":290,"wspd":4,"visib":"6+","altim":1017,"clouds":[{"cover":"BKN","base":600},{"cover":"BKN","base":3000},{"cover":"BKN","base":7000}],"obsTime":1777287600},"SBLO":{"icaoId":"SBLO","flightCategory":"LIFR","rawOb":"METAR SBLO 271100Z 02006KT 6000 2000E -RA BKN003 OVC012 21/20 Q1015","temp":21,"dewp":20,"wdir":20,"wspd":6,"visib":3.73,"altim":1015,"clouds":[{"cover":"BKN","base":300},{"cover":"OVC","base":1200}],"obsTime":1777287600},"SBRF":{"icaoId":"SBRF","flightCategory":"MVFR","rawOb":"METAR SBRF 271100Z 20006KT 5000 BR SCT010 BKN015 BKN050 26/24 Q1013","temp":26,"dewp":24,"wdir":200,"wspd":6,"visib":3.11,"altim":1013,"clouds":[{"cover":"SCT","base":1000},{"cover":"BKN","base":1500},{"cover":"BKN","base":5000}],"obsTime":1777287600},"SBCB":{"icaoId":"SBCB","flightCategory":"VFR","rawOb":"METAR SBCB 271100Z 05007KT CAVOK 27/23 Q1011","temp":27,"dewp":23,"wdir":50,"wspd":7,"visib":"6+","altim":1011,"clouds":[],"obsTime":1777287600},"SBVT":{"icaoId":"SBVT","flightCategory":"VFR","rawOb":"METAR SBVT 271100Z 35005KT 9999 FEW030 27/22 Q1014","temp":27,"dewp":22,"wdir":350,"wspd":5,"visib":"6+","altim":1014,"clouds":[{"cover":"FEW","base":3000}],"obsTime":1777287600},"SBBE":{"icaoId":"SBBE","flightCategory":"VFR","rawOb":"METAR SBBE 271100Z 12005KT 9999 FEW040 BKN090 27/24 Q1013","temp":27,"dewp":24,"wdir":120,"wspd":5,"visib":"6+","altim":1013,"clouds":[{"cover":"FEW","base":4000},{"cover":"BKN","base":9000}],"obsTime":1777287600},"SBBR":{"icaoId":"SBBR","flightCategory":"VFR","rawOb":"METAR SBBR 271100Z VRB01KT CAVOK 20/18 Q1021","temp":20,"dewp":18,"wdir":"VRB","wspd":1,"visib":"6+","altim":1021,"clouds":[],"obsTime":1777287600},"SBBV":{"icaoId":"SBBV","flightCategory":"VFR","rawOb":"METAR SBBV 271100Z 26002KT 9999 SCT010 BKN100 24/23 Q1014","temp":24,"dewp":23,"wdir":260,"wspd":2,"visib":"6+","altim":1014,"clouds":[{"cover":"SCT","base":1000},{"cover":"BKN","base":10000}],"obsTime":1777287600},"SBCF":{"icaoId":"SBCF","flightCategory":"VFR","rawOb":"METAR SBCF 271100Z VRB02KT 9000 NSC 19/17 Q1019","temp":19,"dewp":17,"wdir":"VRB","wspd":2,"visib":5.59,"altim":1019,"clouds":[],"obsTime":1777287600},"SBCG":{"icaoId":"SBCG","flightCategory":"IFR","rawOb":"METAR SBCG 271100Z 06003KT 2500 +TSRA FEW003 BKN035 FEW040CB BKN090 21/21 Q1016","temp":21,"dewp":21,"wdir":60,"wspd":3,"visib":1.55,"altim":1016,"clouds":[{"cover":"FEW","base":300},{"cover":"BKN","base":3500},{"cover":"FEW","base":4000},{"cover":"BKN","base":9000}],"obsTime":1777287600},"SBCP":{"icaoId":"SBCP","flightCategory":"VFR","rawOb":"METAR SBCP 271100Z 01004KT CAVOK 25/22 Q1013","temp":25,"dewp":22,"wdir":10,"wspd":4,"visib":"6+","altim":1013,"clouds":[],"obsTime":1777287600},"SBCR":{"icaoId":"SBCR","flightCategory":"IFR","rawOb":"METAR SBCR 271100Z VRB02KT 9999 VCTS BKN007 SCT035 FEW040CB BKN080 24/23 Q1014","temp":24,"dewp":23,"wdir":"VRB","wspd":2,"visib":"6+","altim":1014,"clouds":[{"cover":"BKN","base":700},{"cover":"SCT","base":3500},{"cover":"FEW","base":4000},{"cover":"BKN","base":8000}],"obsTime":1777287600},"SBCZ":{"icaoId":"SBCZ","flightCategory":"VFR","rawOb":"METAR SBCZ 271200Z 08003KT 9999 BCFG NSC 24/23 Q1013","temp":24,"dewp":23,"wdir":80,"wspd":3,"visib":"6+","altim":1013,"clouds":[],"obsTime":1777291200},"SBEG":{"icaoId":"SBEG","flightCategory":"VFR","rawOb":"METAR SBEG 271100Z 06003KT CAVOK 25/23 Q1012","temp":25,"dewp":23,"wdir":60,"wspd":3,"visib":"6+","altim":1012,"clouds":[],"obsTime":1777287600},"SBFI":{"icaoId":"SBFI","flightCategory":"VFR","rawOb":"METAR SBFI 271100Z 18006KT CAVOK 17/17 Q1016","temp":17,"dewp":17,"wdir":180,"wspd":6,"visib":"6+","altim":1016,"clouds":[],"obsTime":1777287600},"SBFL":{"icaoId":"SBFL","flightCategory":"VFR","rawOb":"METAR SBFL 271100Z 31003KT 270V330 9999 FEW008 22/21 Q1012","temp":22,"dewp":21,"wdir":310,"wspd":3,"visib":"6+","altim":1012,"clouds":[{"cover":"FEW","base":800}],"obsTime":1777287600},"SBFZ":{"icaoId":"SBFZ","flightCategory":"VFR","rawOb":"METAR SBFZ 271100Z VRB02KT 9999 -RA FEW020 BKN050 25/24 Q1013","temp":25,"dewp":24,"wdir":"VRB","wspd":2,"visib":"6+","altim":1013,"clouds":[{"cover":"FEW","base":2000},{"cover":"BKN","base":5000}],"obsTime":1777287600},"SBGL":{"icaoId":"SBGL","flightCategory":"VFR","rawOb":"METAR SBGL 271100Z 25008KT 9000 FEW008 29/21 Q1012","temp":29,"dewp":21,"wdir":250,"wspd":8,"visib":5.59,"altim":1012,"clouds":[{"cover":"FEW","base":800}],"obsTime":1777287600},"SBGO":{"icaoId":"SBGO","flightCategory":"VFR","rawOb":"METAR SBGO 271100Z VRB01KT CAVOK 21/18 Q1018","temp":21,"dewp":18,"wdir":"VRB","wspd":1,"visib":"6+","altim":1018,"clouds":[],"obsTime":1777287600},"SBGR":{"icaoId":"SBGR","flightCategory":"VFR","rawOb":"METAR SBGR 271100Z 00000KT CAVOK 22/19 Q1017","temp":22,"dewp":19,"wdir":0,"wspd":0,"visib":"6+","altim":1017,"clouds":[],"obsTime":1777287600},"SBHT":{"icaoId":"SBHT","flightCategory":"VFR","rawOb":"METAR SBHT 271100Z 02003KT 9999 FEW012 BKN090 26/24 Q1014","temp":26,"dewp":24,"wdir":20,"wspd":3,"visib":"6+","altim":1014,"clouds":[{"cover":"FEW","base":1200},{"cover":"BKN","base":9000}],"obsTime":1777287600},"SBIL":{"icaoId":"SBIL","flightCategory":"VFR","rawOb":"METAR SBIL 271100Z 30004KT 9999 FEW020 25/24 Q1016","temp":25,"dewp":24,"wdir":300,"wspd":4,"visib":"6+","altim":1016,"clouds":[{"cover":"FEW","base":2000}],"obsTime":1777287600},"SBJU":{"icaoId":"SBJU","flightCategory":"VFR","rawOb":"METAR SBJU 271100Z 15002KT 9999 FEW020 26/20 Q1016","temp":26,"dewp":20,"wdir":150,"wspd":2,"visib":"6+","altim":1016,"clouds":[{"cover":"FEW","base":2000}],"obsTime":1777287600},"SBKP":{"icaoId":"SBKP","flightCategory":"VFR","rawOb":"METAR SBKP 271100Z 01004KT 9999 VCSH SCT040 SCT090 23/18 Q1016","temp":23,"dewp":18,"wdir":10,"wspd":4,"visib":"6+","altim":1016,"clouds":[{"cover":"SCT","base":4000},{"cover":"SCT","base":9000}],"obsTime":1777287600},"SBMA":{"icaoId":"SBMA","flightCategory":"VFR","rawOb":"METAR SBMA 271100Z 00000KT 9999 FEW012 BKN070 26/24 Q1014","temp":26,"dewp":24,"wdir":0,"wspd":0,"visib":"6+","altim":1014,"clouds":[{"cover":"FEW","base":1200},{"cover":"BKN","base":7000}],"obsTime":1777287600},"SBME":{"icaoId":"SBME","flightCategory":"VFR","rawOb":"METAR SBME 271100Z 02008KT CAVOK 27/20 Q1011","temp":27,"dewp":20,"wdir":20,"wspd":8,"visib":"6+","altim":1011,"clouds":[],"obsTime":1777287600},"SBMG":{"icaoId":"SBMG","flightCategory":"MVFR","rawOb":"METAR SBMG 271100Z 35003KT 9999 FEW007 BKN012 20/20 Q1014","temp":20,"dewp":20,"wdir":350,"wspd":3,"visib":"6+","altim":1014,"clouds":[{"cover":"FEW","base":700},{"cover":"BKN","base":1200}],"obsTime":1777287600},"SBMK":{"icaoId":"SBMK","flightCategory":"VFR","rawOb":"METAR SBMK 271100Z 05004KT CAVOK 24/18 Q1018","temp":24,"dewp":18,"wdir":50,"wspd":4,"visib":"6+","altim":1018,"clouds":[],"obsTime":1777287600},"SBMO":{"icaoId":"SBMO","flightCategory":"VFR","rawOb":"METAR SBMO 271100Z 28004KT 9999 VCSH FEW020 SCT030 BKN065 25/24 Q1015","temp":25,"dewp":24,"wdir":280,"wspd":4,"visib":"6+","altim":1015,"clouds":[{"cover":"FEW","base":2000},{"cover":"SCT","base":3000},{"cover":"BKN","base":6500}],"obsTime":1777287600},"SBMQ":{"icaoId":"SBMQ","flightCategory":"VFR","rawOb":"METAR SBMQ 271100Z 35006KT 9999 SCT009 27/25 Q1014","temp":27,"dewp":25,"wdir":350,"wspd":6,"visib":"6+","altim":1014,"clouds":[{"cover":"SCT","base":900}],"obsTime":1777287600},"SBNT":{"icaoId":"SBNT","flightCategory":"VFR","rawOb":"METAR SBNT 271100Z 19006KT 140V230 9999 FEW019 SCT100 27/24 Q1013","temp":27,"dewp":24,"wdir":190,"wspd":6,"visib":"6+","altim":1013,"clouds":[{"cover":"FEW","base":1900},{"cover":"SCT","base":10000}],"obsTime":1777287600},"SBPA":{"icaoId":"SBPA","flightCategory":"VFR","rawOb":"METAR SBPA 271100Z 27011KT 240V300 CAVOK 14/07 Q1015","temp":14,"dewp":7,"wdir":270,"wspd":11,"visib":"6+","altim":1015,"clouds":[],"obsTime":1777287600},"SBPJ":{"icaoId":"SBPJ","flightCategory":"VFR","rawOb":"METAR SBPJ 271100Z 15006KT 9999 FEW015 BKN080 27/25 Q1015","temp":27,"dewp":25,"wdir":150,"wspd":6,"visib":"6+","altim":1015,"clouds":[{"cover":"FEW","base":1500},{"cover":"BKN","base":8000}],"obsTime":1777287600},"SBPV":{"icaoId":"SBPV","flightCategory":"VFR","rawOb":"METAR SBPV 271100Z 15003KT 120V180 9999 FEW015 BKN100 26/24 Q1011","temp":26,"dewp":24,"wdir":150,"wspd":3,"visib":"6+","altim":1011,"clouds":[{"cover":"FEW","base":1500},{"cover":"BKN","base":10000}],"obsTime":1777287600},"SBRB":{"icaoId":"SBRB","flightCategory":"MVFR","rawOb":"METAR SBRB 271100Z 03002KT 8000 NSC 23/23 Q1013","temp":23,"dewp":23,"wdir":30,"wspd":2,"visib":4.97,"altim":1013,"clouds":[],"obsTime":1777287600},"SBSG":{"icaoId":"SBSG","flightCategory":"VFR","rawOb":"METAR SBSG 271100Z 18006KT 150V210 9999 FEW020 BKN100 26/24 Q1013","temp":26,"dewp":24,"wdir":180,"wspd":6,"visib":"6+","altim":1013,"clouds":[{"cover":"FEW","base":2000},{"cover":"BKN","base":10000}],"obsTime":1777287600},"SBSL":{"icaoId":"SBSL","flightCategory":"VFR","rawOb":"METAR SBSL 271100Z 09004KT 9999 SCT020 FEW025TCU BKN100 26/24 Q1013","temp":26,"dewp":24,"wdir":90,"wspd":4,"visib":"6+","altim":1013,"clouds":[{"cover":"SCT","base":2000},{"cover":"FEW","base":2500},{"cover":"BKN","base":10000}],"obsTime":1777287600},"SBSN":{"icaoId":"SBSN","flightCategory":"VFR","rawOb":"METAR SBSN 271100Z 10016KT 9999 -TSRA SCT009 FEW021CB BKN090 25/23 Q1014","temp":25,"dewp":23,"wdir":100,"wspd":16,"visib":"6+","altim":1014,"clouds":[{"cover":"SCT","base":900},{"cover":"FEW","base":2100},{"cover":"BKN","base":9000}],"obsTime":1777287600},"SBSP":{"icaoId":"SBSP","flightCategory":"VFR","rawOb":"METAR SBSP 271100Z 32008KT 280V350 CAVOK 23/17 Q1018","temp":23,"dewp":17,"wdir":320,"wspd":8,"visib":"6+","altim":1018,"clouds":[],"obsTime":1777287600},"SBSV":{"icaoId":"SBSV","flightCategory":"VFR","rawOb":"METAR SBSV 271100Z 09007KT 9999 SCT025 SCT070 28/23 Q1015","temp":28,"dewp":23,"wdir":90,"wspd":7,"visib":"6+","altim":1015,"clouds":[{"cover":"SCT","base":2500},{"cover":"SCT","base":7000}],"obsTime":1777287600},"SBTE":{"icaoId":"SBTE","flightCategory":"VFR","rawOb":"METAR SBTE 271100Z 00000KT 9999 FEW015 27/23 Q1013","temp":27,"dewp":23,"wdir":0,"wspd":0,"visib":"6+","altim":1013,"clouds":[{"cover":"FEW","base":1500}],"obsTime":1777287600},"SBUL":{"icaoId":"SBUL","flightCategory":"VFR","rawOb":"METAR SBUL 271100Z 10004KT CAVOK 23/15 Q1019","temp":23,"dewp":15,"wdir":100,"wspd":4,"visib":"6+","altim":1019,"clouds":[],"obsTime":1777287600},"SBUR":{"icaoId":"SBUR","flightCategory":"VFR","rawOb":"METAR SBUR 271100Z 03007KT CAVOK 22/15 Q1018","temp":22,"dewp":15,"wdir":30,"wspd":7,"visib":"6+","altim":1018,"clouds":[],"obsTime":1777287600},"SBAT":{"icaoId":"SBAT","flightCategory":"MVFR","rawOb":"METAR SBAT 271100Z 00000KT 8000 FEW004 26/25 Q1014","temp":26,"dewp":25,"wdir":0,"wspd":0,"visib":4.97,"altim":1014,"clouds":[{"cover":"FEW","base":400}],"obsTime":1777287600},"SBCC":{"icaoId":"SBCC","flightCategory":"VFR","rawOb":"METAR SBCC 271100Z 01003KT CAVOK 24/22 Q1015","temp":24,"dewp":22,"wdir":10,"wspd":3,"visib":"6+","altim":1015,"clouds":[],"obsTime":1777287600},"SBBH":{"icaoId":"SBBH","flightCategory":"VFR","rawOb":"METAR SBBH 271100Z 00000KT CAVOK 22/17 Q1019","temp":22,"dewp":17,"wdir":0,"wspd":0,"visib":"6+","altim":1019,"clouds":[],"obsTime":1777287600},"SBBQ":{"icaoId":"SBBQ","flightCategory":"VFR","rawOb":"METAR SBBQ 271200Z 32004KT CAVOK 22/16 Q1022","temp":22,"dewp":16,"wdir":320,"wspd":4,"visib":"6+","altim":1022,"clouds":[],"obsTime":1777291200},"SBBU":{"icaoId":"SBBU","flightCategory":"VFR","rawOb":"METAR SBBU 271100Z 03003KT 330V090 9999 FEW035 BKN070 24/19 Q1015","temp":24,"dewp":19,"wdir":30,"wspd":3,"visib":"6+","altim":1015,"clouds":[{"cover":"FEW","base":3500},{"cover":"BKN","base":7000}],"obsTime":1777287600},"SBCA":{"icaoId":"SBCA","flightCategory":"VFR","rawOb":"METAR SBCA 271100Z 18013KT 9999 FEW002 SCT100 16/16 Q1018","temp":16,"dewp":16,"wdir":180,"wspd":13,"visib":"6+","altim":1018,"clouds":[{"cover":"FEW","base":200},{"cover":"SCT","base":10000}],"obsTime":1777287600},"SBAR":{"icaoId":"SBAR","flightCategory":"MVFR","rawOb":"METAR SBAR 271100Z 07006KT 9999 BKN026 28/23 Q1014","temp":28,"dewp":23,"wdir":70,"wspd":6,"visib":"6+","altim":1014,"clouds":[{"cover":"BKN","base":2600}],"obsTime":1777287600},"SBCJ":{"icaoId":"SBCJ","flightCategory":"VFR","rawOb":"METAR SBCJ 271100Z 04005KT CAVOK 22/21 Q1018","temp":22,"dewp":21,"wdir":40,"wspd":5,"visib":"6+","altim":1018,"clouds":[],"obsTime":1777287600},"SBCO":{"icaoId":"SBCO","flightCategory":"VFR","rawOb":"METAR SBCO 271100Z 27011KT CAVOK 14/07 Q1016","temp":14,"dewp":7,"wdir":270,"wspd":11,"visib":"6+","altim":1016,"clouds":[],"obsTime":1777287600},"SBDN":{"icaoId":"SBDN","flightCategory":"VFR","rawOb":"METAR SBDN 271100Z 16006KT 9999 -RA NSC 22/20 Q1015","temp":22,"dewp":20,"wdir":160,"wspd":6,"visib":"6+","altim":1015,"clouds":[],"obsTime":1777287600},"SBES":{"icaoId":"SBES","flightCategory":"VFR","rawOb":"METAR SBES 271100Z VRB05KT CAVOK 25/// Q1012","temp":null,"dewp":null,"wdir":"VRB","wspd":5,"visib":"6+","altim":1012,"clouds":[],"obsTime":1777287600},"SBGM":{"icaoId":"SBGM","flightCategory":"VFR","rawOb":"METAR SBGM 271200Z 00000KT CAVOK 25/23 Q1012","temp":25,"dewp":23,"wdir":0,"wspd":0,"visib":"6+","altim":1012,"clouds":[],"obsTime":1777291200},"SBIP":{"icaoId":"SBIP","flightCategory":"VFR","rawOb":"METAR SBIP 271100Z AUTO 00000KT CAVOK 24/21 Q1016","temp":24,"dewp":21,"wdir":0,"wspd":0,"visib":"6+","altim":1016,"clouds":[],"obsTime":1777287600},"SBKG":{"icaoId":"SBKG","flightCategory":"VFR","rawOb":"METAR SBKG 271100Z 14006KT 9999 FEW015 24/21 Q1016","temp":24,"dewp":21,"wdir":140,"wspd":6,"visib":"6+","altim":1016,"clouds":[{"cover":"FEW","base":1500}],"obsTime":1777287600},"SBOI":{"icaoId":"SBOI","flightCategory":"VFR","rawOb":"METAR SBOI 271100Z AUTO 00000KT CAVOK 25/24 Q1014","temp":25,"dewp":24,"wdir":0,"wspd":0,"visib":"6+","altim":1014,"clouds":[],"obsTime":1777287600},"SBPB":{"icaoId":"SBPB","flightCategory":"VFR","rawOb":"METAR SBPB 271100Z 06007KT 9999 SCT016 29/26 Q1012","temp":29,"dewp":26,"wdir":60,"wspd":7,"visib":"6+","altim":1012,"clouds":[{"cover":"SCT","base":1600}],"obsTime":1777287600},"SBPL":{"icaoId":"SBPL","flightCategory":"VFR","rawOb":"METAR SBPL 271100Z 11009KT 9999 FEW025 25/20 Q1016","temp":25,"dewp":20,"wdir":110,"wspd":9,"visib":"6+","altim":1016,"clouds":[{"cover":"FEW","base":2500}],"obsTime":1777287600},"SBPP":{"icaoId":"SBPP","flightCategory":"MVFR","rawOb":"SPECI SBPP 271115Z 14014KT 5000 -RA BR SCT010 OVC070 19/18 Q1016","temp":19,"dewp":18,"wdir":140,"wspd":14,"visib":3.11,"altim":1016,"clouds":[{"cover":"SCT","base":1000},{"cover":"OVC","base":7000}],"obsTime":1777288500},"SBPS":{"icaoId":"SBPS","flightCategory":"VFR","rawOb":"METAR SBPS 271100Z 25003KT 220V290 9999 SCT020 26/23 Q1016","temp":26,"dewp":23,"wdir":250,"wspd":3,"visib":"6+","altim":1016,"clouds":[{"cover":"SCT","base":2000}],"obsTime":1777287600},"SBSC":{"icaoId":"SBSC","flightCategory":"VFR","rawOb":"METAR SBSC 271100Z 28002KT CAVOK 28/23 Q1012","temp":28,"dewp":23,"wdir":280,"wspd":2,"visib":"6+","altim":1012,"clouds":[],"obsTime":1777287600},"SBSJ":{"icaoId":"SBSJ","flightCategory":"VFR","rawOb":"METAR SBSJ 271100Z 22002KT CAVOK 21/18 Q1016","temp":21,"dewp":18,"wdir":220,"wspd":2,"visib":"6+","altim":1016,"clouds":[],"obsTime":1777287600},"SBSM":{"icaoId":"SBSM","flightCategory":"VFR","rawOb":"METAR SBSM 271100Z 27007KT 220V300 CAVOK 10/03 Q1019","temp":10,"dewp":3,"wdir":270,"wspd":7,"visib":"6+","altim":1019,"clouds":[],"obsTime":1777287600},"SBSR":{"icaoId":"SBSR","flightCategory":"VFR","rawOb":"METAR SBSR 271100Z 06003KT 9999 SCT030 BKN070 23/19 Q1015","temp":23,"dewp":19,"wdir":60,"wspd":3,"visib":"6+","altim":1015,"clouds":[{"cover":"SCT","base":3000},{"cover":"BKN","base":7000}],"obsTime":1777287600},"SBTD":{"icaoId":"SBTD","flightCategory":"VFR","rawOb":"METAR SBTD 271100Z /////KT 9999 FEW040 BKN100 18/18 Q1016","temp":18,"dewp":18,"wdir":null,"wspd":null,"visib":"6+","altim":1016,"clouds":[{"cover":"FEW","base":4000},{"cover":"BKN","base":10000}],"obsTime":1777287600},"SBTF":{"icaoId":"SBTF","flightCategory":"MVFR","rawOb":"SPECI SBTF 271115Z 22002KT 9999 SCT013 BKN030 26/26 Q1012","temp":26,"dewp":26,"wdir":220,"wspd":2,"visib":"6+","altim":1012,"clouds":[{"cover":"SCT","base":1300},{"cover":"BKN","base":3000}],"obsTime":1777288500},"SBTT":{"icaoId":"SBTT","flightCategory":"LIFR","rawOb":"METAR SBTT 271100Z 26002KT 5000 BR BKN004 24/23 Q1012","temp":24,"dewp":23,"wdir":260,"wspd":2,"visib":3.11,"altim":1012,"clouds":[{"cover":"BKN","base":400}],"obsTime":1777287600},"SBUY":{"icaoId":"SBUY","flightCategory":"VFR","rawOb":"METAR SBUY 271100Z 00000KT 9999 FEW025 23/22 Q1011","temp":23,"dewp":22,"wdir":0,"wspd":0,"visib":"6+","altim":1011,"clouds":[{"cover":"FEW","base":2500}],"obsTime":1777287600},"SBVH":{"icaoId":"SBVH","flightCategory":"VFR","rawOb":"METAR SBVH 271100Z 07003KT 9999 0900E BCFG NSC 22/21 Q1016","temp":22,"dewp":21,"wdir":70,"wspd":3,"visib":"6+","altim":1016,"clouds":[],"obsTime":1777287600},"SBAX":{"icaoId":"SBAX","flightCategory":"VFR","rawOb":"METAR SBAX 271100Z 14002KT CAVOK 22/15 Q1028","temp":22,"dewp":15,"wdir":140,"wspd":2,"visib":"6+","altim":1028,"clouds":[],"obsTime":1777287600},"SBTA":{"icaoId":"SBTA","flightCategory":"VFR","rawOb":"METAR SBTA 271100Z 00000KT CAVOK 21/20 Q1016","temp":21,"dewp":20,"wdir":0,"wspd":0,"visib":"6+","altim":1016,"clouds":[],"obsTime":1777287600},"SBAN":{"icaoId":"SBAN","flightCategory":"VFR","rawOb":"METAR SBAN 271100Z 15005KT CAVOK 23/17 Q1021","temp":23,"dewp":17,"wdir":150,"wspd":5,"visib":"6+","altim":1021,"clouds":[],"obsTime":1777287600},"SBJP":{"icaoId":"SBJP","flightCategory":"VFR","rawOb":"METAR SBJP 271100Z 17008KT 9999 SCT020 27/24 Q1014","temp":27,"dewp":24,"wdir":170,"wspd":8,"visib":"6+","altim":1014,"clouds":[{"cover":"SCT","base":2000}],"obsTime":1777287600},"SBIH":{"icaoId":"SBIH","flightCategory":"MVFR","rawOb":"METAR SBIH 271100Z 32003KT 8000 SCT008 FEW023TCU BKN080 26/25 Q1013","temp":26,"dewp":25,"wdir":320,"wspd":3,"visib":4.97,"altim":1013,"clouds":[{"cover":"SCT","base":800},{"cover":"FEW","base":2300},{"cover":"BKN","base":8000}],"obsTime":1777287600},"SBJV":{"icaoId":"SBJV","flightCategory":"VFR","rawOb":"METAR SBJV 271100Z 00000KT CAVOK 21/21 Q1012","temp":21,"dewp":21,"wdir":0,"wspd":0,"visib":"6+","altim":1012,"clouds":[],"obsTime":1777287600},"SBPF":{"icaoId":"SBPF","flightCategory":"VFR","rawOb":"METAR SBPF 271100Z 27010KT CAVOK 11/07 Q1018","temp":11,"dewp":7,"wdir":270,"wspd":10,"visib":"6+","altim":1018,"clouds":[],"obsTime":1777287600},"SBLE":{"icaoId":"SBLE","flightCategory":"VFR","rawOb":"METAR SBLE 271100Z AUTO 13003KT 080V180 9999 BKN033 23/23 Q1019","temp":23,"dewp":23,"wdir":130,"wspd":3,"visib":"6+","altim":1019,"clouds":[{"cover":"BKN","base":3300}],"obsTime":1777287600},"SBAF":{"icaoId":"SBAF","flightCategory":"VFR","rawOb":"METAR SBAF 271100Z 14001KT CAVOK 29/22 Q1012","temp":29,"dewp":22,"wdir":140,"wspd":1,"visib":"6+","altim":1012,"clouds":[],"obsTime":1777287600},"SBGW":{"icaoId":"SBGW","flightCategory":"VFR","rawOb":"METAR SBGW 271100Z VRB02KT CAVOK 22/15 Q1016","temp":22,"dewp":15,"wdir":"VRB","wspd":2,"visib":"6+","altim":1016,"clouds":[],"obsTime":1777287600},"SBJR":{"icaoId":"SBJR","flightCategory":"VFR","rawOb":"METAR SBJR 271100Z 33002KT CAVOK 30/21 Q1012","temp":30,"dewp":21,"wdir":330,"wspd":2,"visib":"6+","altim":1012,"clouds":[],"obsTime":1777287600},"SBLS":{"icaoId":"SBLS","flightCategory":"VFR","rawOb":"METAR SBLS 271100Z 16004KT CAVOK 21/17 Q1019","temp":21,"dewp":17,"wdir":160,"wspd":4,"visib":"6+","altim":1019,"clouds":[],"obsTime":1777287600},"SBMT":{"icaoId":"SBMT","flightCategory":"VFR","rawOb":"METAR SBMT 271100Z 33004KT 9999 FEW030 SCT090 23/16 Q1016","temp":23,"dewp":16,"wdir":330,"wspd":4,"visib":"6+","altim":1016,"clouds":[{"cover":"FEW","base":3000},{"cover":"SCT","base":9000}],"obsTime":1777287600},"SBST":{"icaoId":"SBST","flightCategory":"MVFR","rawOb":"METAR SBST 271100Z 11002KT 7000 NSC 24/22 Q1012","temp":24,"dewp":22,"wdir":110,"wspd":2,"visib":4.35,"altim":1012,"clouds":[],"obsTime":1777287600}}}