{"updated":1777704837,"count":51,"data":{"SBRF":{"icaoId":"SBRF","flightCategory":"MVFR","rawOb":"METAR SBRF 020500Z 22005KT 8000 SCT009 SCT013 23/23 Q1012","temp":23,"dewp":23,"wdir":220,"wspd":5,"visib":4.97,"altim":1012,"clouds":[{"cover":"SCT","base":900},{"cover":"SCT","base":1300}],"obsTime":1777698000},"SBBE":{"icaoId":"SBBE","flightCategory":"VFR","rawOb":"METAR SBBE 020500Z 21001KT CAVOK 24/24 Q1011","temp":24,"dewp":24,"wdir":210,"wspd":1,"visib":"6+","altim":1011,"clouds":[],"obsTime":1777698000},"SBBR":{"icaoId":"SBBR","flightCategory":"VFR","rawOb":"METAR SBBR 020500Z 12004KT 9999 FEW045 SCT060 20/17 Q1021","temp":20,"dewp":17,"wdir":120,"wspd":4,"visib":"6+","altim":1021,"clouds":[{"cover":"FEW","base":4500},{"cover":"SCT","base":6000}],"obsTime":1777698000},"SBBV":{"icaoId":"SBBV","flightCategory":"VFR","rawOb":"METAR SBBV 020500Z 10008KT 9999 FEW030 FEW035TCU BKN100 26/24 Q1012","temp":26,"dewp":24,"wdir":100,"wspd":8,"visib":"6+","altim":1012,"clouds":[{"cover":"FEW","base":3000},{"cover":"FEW","base":3500},{"cover":"BKN","base":10000}],"obsTime":1777698000},"SBCF":{"icaoId":"SBCF","flightCategory":"VFR","rawOb":"METAR SBCF 020500Z 18002KT CAVOK 19/15 Q1021","temp":19,"dewp":15,"wdir":180,"wspd":2,"visib":"6+","altim":1021,"clouds":[],"obsTime":1777698000},"SBCG":{"icaoId":"SBCG","flightCategory":"VFR","rawOb":"METAR SBCG 020500Z 35005KT CAVOK 22/17 Q1015","temp":22,"dewp":17,"wdir":350,"wspd":5,"visib":"6+","altim":1015,"clouds":[],"obsTime":1777698000},"SBCT":{"icaoId":"SBCT","flightCategory":"IFR","rawOb":"METAR SBCT 020500Z 29001KT 4000 BR BKN005 17/17 Q1019","temp":17,"dewp":17,"wdir":290,"wspd":1,"visib":2.49,"altim":1019,"clouds":[{"cover":"BKN","base":500}],"obsTime":1777698000},"SBEG":{"icaoId":"SBEG","flightCategory":"VFR","rawOb":"METAR SBEG 020500Z 05003KT 9999 -RA FEW010 FEW020TCU BKN100 26/25 Q1012","temp":26,"dewp":25,"wdir":50,"wspd":3,"visib":"6+","altim":1012,"clouds":[{"cover":"FEW","base":1000},{"cover":"FEW","base":2000},{"cover":"BKN","base":10000}],"obsTime":1777698000},"SBFI":{"icaoId":"SBFI","flightCategory":"VFR","rawOb":"METAR SBFI 020500Z 04005KT CAVOK 22/22 Q1013","temp":22,"dewp":22,"wdir":40,"wspd":5,"visib":"6+","altim":1013,"clouds":[],"obsTime":1777698000},"SBFL":{"icaoId":"SBFL","flightCategory":"VFR","rawOb":"METAR SBFL 020500Z 25004KT 230V290 9999 SCT030 BKN060 22/20 Q1014","temp":22,"dewp":20,"wdir":250,"wspd":4,"visib":"6+","altim":1014,"clouds":[{"cover":"SCT","base":3000},{"cover":"BKN","base":6000}],"obsTime":1777698000},"SBFZ":{"icaoId":"SBFZ","flightCategory":"VFR","rawOb":"METAR SBFZ 020500Z 16007KT 9999 SCT020 BKN070 25/23 Q1010","temp":25,"dewp":23,"wdir":160,"wspd":7,"visib":"6+","altim":1010,"clouds":[{"cover":"SCT","base":2000},{"cover":"BKN","base":7000}],"obsTime":1777698000},"SBGL":{"icaoId":"SBGL","flightCategory":"VFR","rawOb":"METAR SBGL 020500Z 11002KT 9999 FEW030 24/22 Q1015","temp":24,"dewp":22,"wdir":110,"wspd":2,"visib":"6+","altim":1015,"clouds":[{"cover":"FEW","base":3000}],"obsTime":1777698000},"SBGO":{"icaoId":"SBGO","flightCategory":"VFR","rawOb":"METAR SBGO 020500Z 29003KT CAVOK 21/18 Q1019","temp":21,"dewp":18,"wdir":290,"wspd":3,"visib":"6+","altim":1019,"clouds":[],"obsTime":1777698000},"SBGR":{"icaoId":"SBGR","flightCategory":"MVFR","rawOb":"METAR SBGR 020500Z 07005KT 7000 SCT003 20/19 Q1019","temp":20,"dewp":19,"wdir":70,"wspd":5,"visib":4.35,"altim":1019,"clouds":[{"cover":"SCT","base":300}],"obsTime":1777698000},"SBJU":{"icaoId":"SBJU","flightCategory":"MVFR","rawOb":"METAR SBJU 020500Z 00000KT 9999 BKN020 24/21 Q1013","temp":24,"dewp":21,"wdir":0,"wspd":0,"visib":"6+","altim":1013,"clouds":[{"cover":"BKN","base":2000}],"obsTime":1777698000},"SBKP":{"icaoId":"SBKP","flightCategory":"VFR","rawOb":"METAR SBKP 020500Z 07003KT CAVOK 22/19 Q1018","temp":22,"dewp":19,"wdir":70,"wspd":3,"visib":"6+","altim":1018,"clouds":[],"obsTime":1777698000},"SBLO":{"icaoId":"SBLO","flightCategory":"VFR","rawOb":"METAR SBLO 020500Z 23002KT CAVOK 21/20 Q1017","temp":21,"dewp":20,"wdir":230,"wspd":2,"visib":"6+","altim":1017,"clouds":[],"obsTime":1777698000},"SBMA":{"icaoId":"SBMA","flightCategory":"VFR","rawOb":"METAR SBMA 020500Z 00000KT 9999 FEW015 SCT090 25/24 Q1011","temp":25,"dewp":24,"wdir":0,"wspd":0,"visib":"6+","altim":1011,"clouds":[{"cover":"FEW","base":1500},{"cover":"SCT","base":9000}],"obsTime":1777698000},"SBME":{"icaoId":"SBME","flightCategory":"VFR","rawOb":"METAR SBME 020500Z 01004KT CAVOK 22/21 Q1016","temp":22,"dewp":21,"wdir":10,"wspd":4,"visib":"6+","altim":1016,"clouds":[],"obsTime":1777698000},"SBMG":{"icaoId":"SBMG","flightCategory":"VFR","rawOb":"METAR SBMG 020500Z AUTO 04007KT CAVOK 21/20 Q1015","temp":21,"dewp":20,"wdir":40,"wspd":7,"visib":"6+","altim":1015,"clouds":[],"obsTime":1777698000},"SBMO":{"icaoId":"SBMO","flightCategory":"MVFR","rawOb":"METAR SBMO 020500Z 12007KT 7000 -RA SCT004 BKN015 BKN060 23/23 Q1013","temp":23,"dewp":23,"wdir":120,"wspd":7,"visib":4.35,"altim":1013,"clouds":[{"cover":"SCT","base":400},{"cover":"BKN","base":1500},{"cover":"BKN","base":6000}],"obsTime":1777698000},"SBMQ":{"icaoId":"SBMQ","flightCategory":"IFR","rawOb":"METAR SBMQ 020500Z 05008KT 2000 +RA FEW005 OVC028 24/24 Q1012","temp":24,"dewp":24,"wdir":50,"wspd":8,"visib":1.24,"altim":1012,"clouds":[{"cover":"FEW","base":500},{"cover":"OVC","base":2800}],"obsTime":1777698000},"SBNT":{"icaoId":"SBNT","flightCategory":"MVFR","rawOb":"METAR SBNT 020500Z 18005KT 9999 VCSH BKN020 BKN040 24/22 Q1011","temp":24,"dewp":22,"wdir":180,"wspd":5,"visib":"6+","altim":1011,"clouds":[{"cover":"BKN","base":2000},{"cover":"BKN","base":4000}],"obsTime":1777698000},"SBPA":{"icaoId":"SBPA","flightCategory":"IFR","rawOb":"METAR SBPA 020500Z 05008KT 3000 TSRA BR BKN006 BKN040 FEW045CB 19/19 Q1010","temp":19,"dewp":19,"wdir":50,"wspd":8,"visib":1.86,"altim":1010,"clouds":[{"cover":"BKN","base":600},{"cover":"BKN","base":4000},{"cover":"FEW","base":4500}],"obsTime":1777698000},"SBPJ":{"icaoId":"SBPJ","flightCategory":"VFR","rawOb":"METAR SBPJ 020500Z 16003KT 120V190 9999 FEW040 SCT080 27/24 Q1013","temp":27,"dewp":24,"wdir":160,"wspd":3,"visib":"6+","altim":1013,"clouds":[{"cover":"FEW","base":4000},{"cover":"SCT","base":8000}],"obsTime":1777698000},"SBPV":{"icaoId":"SBPV","flightCategory":"VFR","rawOb":"METAR SBPV 020500Z 34002KT 9999 FEW035 26/23 Q1011","temp":26,"dewp":23,"wdir":340,"wspd":2,"visib":"6+","altim":1011,"clouds":[{"cover":"FEW","base":3500}],"obsTime":1777698000},"SBRB":{"icaoId":"SBRB","flightCategory":"MVFR","rawOb":"METAR SBRB 020500Z 12001KT 8000 VCTS FEW020 FEW030CB SCT100 25/25 Q1012","temp":25,"dewp":25,"wdir":120,"wspd":1,"visib":4.97,"altim":1012,"clouds":[{"cover":"FEW","base":2000},{"cover":"FEW","base":3000},{"cover":"SCT","base":10000}],"obsTime":1777698000},"SBSG":{"icaoId":"SBSG","flightCategory":"VFR","rawOb":"METAR SBSG 020500Z 19003KT 120V240 9999 SCT030 23/23 Q1012","temp":23,"dewp":23,"wdir":190,"wspd":3,"visib":"6+","altim":1012,"clouds":[{"cover":"SCT","base":3000}],"obsTime":1777698000},"SBSL":{"icaoId":"SBSL","flightCategory":"VFR","rawOb":"METAR SBSL 020500Z 15004KT 9999 FEW017 SCT080 26/25 Q1011","temp":26,"dewp":25,"wdir":150,"wspd":4,"visib":"6+","altim":1011,"clouds":[{"cover":"FEW","base":1700},{"cover":"SCT","base":8000}],"obsTime":1777698000},"SBSN":{"icaoId":"SBSN","flightCategory":"VFR","rawOb":"METAR SBSN 020500Z 17002KT 9999 TS FEW020CB BKN100 25/25 Q1011","temp":25,"dewp":25,"wdir":170,"wspd":2,"visib":"6+","altim":1011,"clouds":[{"cover":"FEW","base":2000},{"cover":"BKN","base":10000}],"obsTime":1777698000},"SBSP":{"icaoId":"SBSP","flightCategory":"VFR","rawOb":"METAR SBSP 020500Z AUTO 04005KT CAVOK 21/19 Q1019","temp":21,"dewp":19,"wdir":40,"wspd":5,"visib":"6+","altim":1019,"clouds":[],"obsTime":1777698000},"SBSV":{"icaoId":"SBSV","flightCategory":"VFR","rawOb":"METAR SBSV 020500Z 12007KT 9999 FEW021 BKN090 27/21 Q1014","temp":27,"dewp":21,"wdir":120,"wspd":7,"visib":"6+","altim":1014,"clouds":[{"cover":"FEW","base":2100},{"cover":"BKN","base":9000}],"obsTime":1777698000},"SBTE":{"icaoId":"SBTE","flightCategory":"VFR","rawOb":"METAR SBTE 020500Z 00000KT CAVOK 27/25 Q1010","temp":27,"dewp":25,"wdir":0,"wspd":0,"visib":"6+","altim":1010,"clouds":[],"obsTime":1777698000},"SBUL":{"icaoId":"SBUL","flightCategory":"VFR","rawOb":"METAR SBUL 020500Z 11007KT 080V140 CAVOK 20/14 Q1020","temp":20,"dewp":14,"wdir":110,"wspd":7,"visib":"6+","altim":1020,"clouds":[],"obsTime":1777698000},"SBUR":{"icaoId":"SBUR","flightCategory":"VFR","rawOb":"METAR SBUR 020500Z 04006KT CAVOK 20/13 Q1019","temp":20,"dewp":13,"wdir":40,"wspd":6,"visib":"6+","altim":1019,"clouds":[],"obsTime":1777698000},"SBVT":{"icaoId":"SBVT","flightCategory":"VFR","rawOb":"METAR SBVT 020500Z 00000KT 9999 FEW015 SCT070 21/20 Q1017","temp":21,"dewp":20,"wdir":0,"wspd":0,"visib":"6+","altim":1017,"clouds":[{"cover":"FEW","base":1500},{"cover":"SCT","base":7000}],"obsTime":1777698000},"SBOI":{"icaoId":"SBOI","flightCategory":"LIFR","rawOb":"METAR SBOI 020500Z AUTO VRB01KT 1000 // VV001 24/24 Q1012","temp":24,"dewp":24,"wdir":"VRB","wspd":1,"visib":0.62,"altim":1012,"clouds":[{"cover":"OVX","base":100}],"obsTime":1777698000},"SBIP":{"icaoId":"SBIP","flightCategory":"VFR","rawOb":"METAR SBIP 020500Z AUTO 32001KT CAVOK 19/19 Q1018","temp":19,"dewp":19,"wdir":320,"wspd":1,"visib":"6+","altim":1018,"clouds":[],"obsTime":1777698000},"SBTF":{"icaoId":"SBTF","flightCategory":"VFR","rawOb":"METAR SBTF 020600Z 11004KT CAVOK 25/25 Q1011","temp":25,"dewp":25,"wdir":110,"wspd":4,"visib":"6+","altim":1011,"clouds":[],"obsTime":1777701600},"SBAR":{"icaoId":"SBAR","flightCategory":"VFR","rawOb":"METAR SBAR 020500Z 15005KT 9999 FEW015 SCT020 BKN100 27/24 Q1013","temp":27,"dewp":24,"wdir":150,"wspd":5,"visib":"6+","altim":1013,"clouds":[{"cover":"FEW","base":1500},{"cover":"SCT","base":2000},{"cover":"BKN","base":10000}],"obsTime":1777698000},"SBAX":{"icaoId":"SBAX","flightCategory":"VFR","rawOb":"METAR SBAX 020500Z AUTO 13004KT CAVOK 18/13 Q1020","temp":18,"dewp":13,"wdir":130,"wspd":4,"visib":"6+","altim":1020,"clouds":[],"obsTime":1777698000},"SBDN":{"icaoId":"SBDN","flightCategory":"VFR","rawOb":"METAR SBDN 020500Z 06005KT CAVOK 22/18 Q1015","temp":22,"dewp":18,"wdir":60,"wspd":5,"visib":"6+","altim":1015,"clouds":[],"obsTime":1777698000},"SBKG":{"icaoId":"SBKG","flightCategory":"VFR","rawOb":"METAR SBKG 020500Z 21003KT CAVOK 21/20 Q1014","temp":21,"dewp":20,"wdir":210,"wspd":3,"visib":"6+","altim":1014,"clouds":[],"obsTime":1777698000},"SBPL":{"icaoId":"SBPL","flightCategory":"VFR","rawOb":"METAR SBPL 020500Z 15007KT CAVOK 25/20 Q1014","temp":25,"dewp":20,"wdir":150,"wspd":7,"visib":"6+","altim":1014,"clouds":[],"obsTime":1777698000},"SBPS":{"icaoId":"SBPS","flightCategory":"MVFR","rawOb":"METAR SBPS 020500Z 26005KT 8000 -RA BKN015 BKN070 23/23 Q1016 RERA","temp":23,"dewp":23,"wdir":260,"wspd":5,"visib":4.97,"altim":1016,"clouds":[{"cover":"BKN","base":1500},{"cover":"BKN","base":7000}],"obsTime":1777698000},"SBSC":{"icaoId":"SBSC","flightCategory":"MVFR","rawOb":"METAR SBSC 020500Z 31003KT 5000 BR BKN015 22/21 Q1017","temp":22,"dewp":21,"wdir":310,"wspd":3,"visib":3.11,"altim":1017,"clouds":[{"cover":"BKN","base":1500}],"obsTime":1777698000},"SBSR":{"icaoId":"SBSR","flightCategory":"VFR","rawOb":"METAR SBSR 020500Z 05002KT CAVOK 27/20 Q1017","temp":27,"dewp":20,"wdir":50,"wspd":2,"visib":"6+","altim":1017,"clouds":[],"obsTime":1777698000},"SBLE":{"icaoId":"SBLE","flightCategory":"MVFR","rawOb":"METAR SBLE 020500Z AUTO VRB02KT 6000 FEW005 SCT019 OVC030 ///// Q////","temp":null,"dewp":null,"wdir":"VRB","wspd":2,"visib":3.73,"altim":null,"clouds":[{"cover":"FEW","base":500},{"cover":"SCT","base":1900},{"cover":"OVC","base":3000}],"obsTime":1777698000},"SBAN":{"icaoId":"SBAN","flightCategory":"VFR","rawOb":"METAR SBAN 020500Z 08004KT CAVOK 19/15 Q1022","temp":19,"dewp":15,"wdir":80,"wspd":4,"visib":"6+","altim":1022,"clouds":[],"obsTime":1777698000},"SBJP":{"icaoId":"SBJP","flightCategory":"IFR","rawOb":"METAR SBJP 020500Z 18006KT 9999 BKN007 BKN070 23/23 Q1012","temp":23,"dewp":23,"wdir":180,"wspd":6,"visib":"6+","altim":1012,"clouds":[{"cover":"BKN","base":700},{"cover":"BKN","base":7000}],"obsTime":1777698000},"SBJV":{"icaoId":"SBJV","flightCategory":"IFR","rawOb":"METAR SBJV 020500Z 00000KT 4000 BR FEW003 BKN012 20/19 Q1014","temp":20,"dewp":19,"wdir":0,"wspd":0,"visib":2.49,"altim":1014,"clouds":[{"cover":"FEW","base":300},{"cover":"BKN","base":1200}],"obsTime":1777698000}}}