{"updated":1774819443,"count":82,"data":{"SBPV":{"icaoId":"SBPV","flightCategory":"MVFR","rawOb":"METAR SBPV 292000Z 04002KT 5000 -RA BKN010 BKN030 23/22 Q1010 RERA","temp":23,"dewp":22,"wdir":40,"wspd":2,"visib":3.11,"altim":1010,"clouds":[{"cover":"BKN","base":1000},{"cover":"BKN","base":3000}],"obsTime":1774814400},"SBFI":{"icaoId":"SBFI","flightCategory":"VFR","rawOb":"METAR SBFI 292000Z 24004KT 9999 FEW030 35/19 Q1014","temp":35,"dewp":19,"wdir":240,"wspd":4,"visib":"6+","altim":1014,"clouds":[{"cover":"FEW","base":3000}],"obsTime":1774814400},"SBME":{"icaoId":"SBME","flightCategory":"VFR","rawOb":"METAR SBME 292000Z 15006KT 9999 FEW030 28/23 Q1015","temp":28,"dewp":23,"wdir":150,"wspd":6,"visib":"6+","altim":1015,"clouds":[{"cover":"FEW","base":3000}],"obsTime":1774814400},"SBMG":{"icaoId":"SBMG","flightCategory":"VFR","rawOb":"METAR SBMG 292000Z 20010KT 160V240 CAVOK 32/18 Q1015","temp":32,"dewp":18,"wdir":200,"wspd":10,"visib":"6+","altim":1015,"clouds":[],"obsTime":1774814400},"SBBV":{"icaoId":"SBBV","flightCategory":"VFR","rawOb":"METAR SBBV 292000Z 00000KT 9999 BKN040 FEW045TCU BKN070 33/22 Q1007","temp":33,"dewp":22,"wdir":0,"wspd":0,"visib":"6+","altim":1007,"clouds":[{"cover":"BKN","base":4000},{"cover":"FEW","base":4500},{"cover":"BKN","base":7000}],"obsTime":1774814400},"SBMK":{"icaoId":"SBMK","flightCategory":"VFR","rawOb":"METAR SBMK 292000Z 07004KT 9999 FEW030 28/16 Q1016","temp":28,"dewp":16,"wdir":70,"wspd":4,"visib":"6+","altim":1016,"clouds":[{"cover":"FEW","base":3000}],"obsTime":1774814400},"SBCG":{"icaoId":"SBCG","flightCategory":"VFR","rawOb":"METAR SBCG 292000Z 06005KT 030V100 CAVOK 32/17 Q1015","temp":32,"dewp":17,"wdir":60,"wspd":5,"visib":"6+","altim":1015,"clouds":[],"obsTime":1774814400},"SBMO":{"icaoId":"SBMO","flightCategory":"VFR","rawOb":"METAR SBMO 292000Z 13008KT 9999 VCSH SCT013 FEW020TCU BKN060 26/24 Q1011","temp":26,"dewp":24,"wdir":130,"wspd":8,"visib":"6+","altim":1011,"clouds":[{"cover":"SCT","base":1300},{"cover":"FEW","base":2000},{"cover":"BKN","base":6000}],"obsTime":1774814400},"SBFL":{"icaoId":"SBFL","flightCategory":"VFR","rawOb":"METAR SBFL 292000Z 36008KT 9999 FEW040 31/22 Q1014","temp":31,"dewp":22,"wdir":360,"wspd":8,"visib":"6+","altim":1014,"clouds":[{"cover":"FEW","base":4000}],"obsTime":1774814400},"SBBE":{"icaoId":"SBBE","flightCategory":"VFR","rawOb":"METAR SBBE 292000Z 34011KT 9999 BKN040 FEW045TCU BKN070 29/26 Q1009","temp":29,"dewp":26,"wdir":340,"wspd":11,"visib":"6+","altim":1009,"clouds":[{"cover":"BKN","base":4000},{"cover":"FEW","base":4500},{"cover":"BKN","base":7000}],"obsTime":1774814400},"SBMQ":{"icaoId":"SBMQ","flightCategory":"VFR","rawOb":"METAR SBMQ 292000Z 03004KT 330V110 9999 FEW013 28/25 Q1009","temp":28,"dewp":25,"wdir":30,"wspd":4,"visib":"6+","altim":1009,"clouds":[{"cover":"FEW","base":1300}],"obsTime":1774814400},"SBFZ":{"icaoId":"SBFZ","flightCategory":"VFR","rawOb":"METAR SBFZ 292000Z 02004KT 9999 FEW030 BKN100 28/24 Q1009","temp":28,"dewp":24,"wdir":20,"wspd":4,"visib":"6+","altim":1009,"clouds":[{"cover":"FEW","base":3000},{"cover":"BKN","base":10000}],"obsTime":1774814400},"SBNT":{"icaoId":"SBNT","flightCategory":"VFR","rawOb":"METAR SBNT 292000Z 11008KT 9999 FEW023 28/23 Q1009","temp":28,"dewp":23,"wdir":110,"wspd":8,"visib":"6+","altim":1009,"clouds":[{"cover":"FEW","base":2300}],"obsTime":1774814400},"SBGL":{"icaoId":"SBGL","flightCategory":"VFR","rawOb":"METAR SBGL 292000Z 13013KT 9999 FEW040 27/21 Q1015","temp":27,"dewp":21,"wdir":130,"wspd":13,"visib":"6+","altim":1015,"clouds":[{"cover":"FEW","base":4000}],"obsTime":1774814400},"SBPA":{"icaoId":"SBPA","flightCategory":"VFR","rawOb":"METAR SBPA 292000Z 15008KT 120V180 9999 VCSH VCTS FEW025 FEW035CB 30/22 Q1014","temp":30,"dewp":22,"wdir":150,"wspd":8,"visib":"6+","altim":1014,"clouds":[{"cover":"FEW","base":2500},{"cover":"FEW","base":3500}],"obsTime":1774814400},"SBCP":{"icaoId":"SBCP","flightCategory":"MVFR","rawOb":"METAR SBCP 292000Z 13004KT 9999 BKN020 27/22 Q1015","temp":27,"dewp":22,"wdir":130,"wspd":4,"visib":"6+","altim":1015,"clouds":[{"cover":"BKN","base":2000}],"obsTime":1774814400},"SBPJ":{"icaoId":"SBPJ","flightCategory":"VFR","rawOb":"METAR SBPJ 292000Z 24004KT 9999 SCT030 33/24 Q1009","temp":33,"dewp":24,"wdir":240,"wspd":4,"visib":"6+","altim":1009,"clouds":[{"cover":"SCT","base":3000}],"obsTime":1774814400},"SBMA":{"icaoId":"SBMA","flightCategory":"VFR","rawOb":"METAR SBMA 292000Z 13003KT 9999 SCT020 FEW025TCU BKN080 32/26 Q1008","temp":32,"dewp":26,"wdir":130,"wspd":3,"visib":"6+","altim":1008,"clouds":[{"cover":"SCT","base":2000},{"cover":"FEW","base":2500},{"cover":"BKN","base":8000}],"obsTime":1774814400},"SBCF":{"icaoId":"SBCF","flightCategory":"VFR","rawOb":"METAR SBCF 292000Z 12007KT 080V150 9999 SCT040 27/16 Q1018","temp":27,"dewp":16,"wdir":120,"wspd":7,"visib":"6+","altim":1018,"clouds":[{"cover":"SCT","base":4000}],"obsTime":1774814400},"SBLO":{"icaoId":"SBLO","flightCategory":"VFR","rawOb":"METAR SBLO 292000Z 11004KT 9999 FEW030 31/17 Q1016","temp":31,"dewp":17,"wdir":110,"wspd":4,"visib":"6+","altim":1016,"clouds":[{"cover":"FEW","base":3000}],"obsTime":1774814400},"SBEG":{"icaoId":"SBEG","flightCategory":"VFR","rawOb":"METAR SBEG 292000Z 14005KT 9999 SCT020 BKN100 27/23 Q1010","temp":27,"dewp":23,"wdir":140,"wspd":5,"visib":"6+","altim":1010,"clouds":[{"cover":"SCT","base":2000},{"cover":"BKN","base":10000}],"obsTime":1774814400},"SBGO":{"icaoId":"SBGO","flightCategory":"VFR","rawOb":"METAR SBGO 292000Z 14010KT 9999 SCT050 FEW053TCU 30/17 Q1016","temp":30,"dewp":17,"wdir":140,"wspd":10,"visib":"6+","altim":1016,"clouds":[{"cover":"SCT","base":5000},{"cover":"FEW","base":5300}],"obsTime":1774814400},"SBRB":{"icaoId":"SBRB","flightCategory":"MVFR","rawOb":"METAR SBRB 292000Z 09004KT 9999 BKN026 FEW027TCU 28/24 Q1010","temp":28,"dewp":24,"wdir":90,"wspd":4,"visib":"6+","altim":1010,"clouds":[{"cover":"BKN","base":2600},{"cover":"FEW","base":2700}],"obsTime":1774814400},"SBRF":{"icaoId":"SBRF","flightCategory":"VFR","rawOb":"METAR SBRF 292000Z 13007KT 090V170 9999 SCT018 BKN100 28/25 Q1009","temp":28,"dewp":25,"wdir":130,"wspd":7,"visib":"6+","altim":1009,"clouds":[{"cover":"SCT","base":1800},{"cover":"BKN","base":10000}],"obsTime":1774814400},"SBCR":{"icaoId":"SBCR","flightCategory":"VFR","rawOb":"METAR SBCR 292000Z 01004KT 320V070 9999 FEW035 34/20 Q1011","temp":34,"dewp":20,"wdir":10,"wspd":4,"visib":"6+","altim":1011,"clouds":[{"cover":"FEW","base":3500}],"obsTime":1774814400},"SBGR":{"icaoId":"SBGR","flightCategory":"VFR","rawOb":"METAR SBGR 292000Z 16009KT CAVOK 27/20 Q1018","temp":27,"dewp":20,"wdir":160,"wspd":9,"visib":"6+","altim":1018,"clouds":[],"obsTime":1774814400},"SBSG":{"icaoId":"SBSG","flightCategory":"VFR","rawOb":"METAR SBSG 292000Z 12005KT 090V150 9999 FEW025 SCT100 28/24 Q1009","temp":28,"dewp":24,"wdir":120,"wspd":5,"visib":"6+","altim":1009,"clouds":[{"cover":"FEW","base":2500},{"cover":"SCT","base":10000}],"obsTime":1774814400},"SBHT":{"icaoId":"SBHT","flightCategory":"VFR","rawOb":"METAR SBHT 292000Z 06007KT 9999 -TSRA FEW020 FEW025CB OVC080 25/23 Q1010","temp":25,"dewp":23,"wdir":60,"wspd":7,"visib":"6+","altim":1010,"clouds":[{"cover":"FEW","base":2000},{"cover":"FEW","base":2500},{"cover":"OVC","base":8000}],"obsTime":1774814400},"SBSL":{"icaoId":"SBSL","flightCategory":"VFR","rawOb":"METAR SBSL 292000Z 08003KT 9999 SCT021 FEW025TCU BKN080 27/24 Q1010","temp":27,"dewp":24,"wdir":80,"wspd":3,"visib":"6+","altim":1010,"clouds":[{"cover":"SCT","base":2100},{"cover":"FEW","base":2500},{"cover":"BKN","base":8000}],"obsTime":1774814400},"SBCB":{"icaoId":"SBCB","flightCategory":"VFR","rawOb":"METAR SBCB 292000Z 09005KT CAVOK 28/22 Q1015","temp":28,"dewp":22,"wdir":90,"wspd":5,"visib":"6+","altim":1015,"clouds":[],"obsTime":1774814400},"SBSN":{"icaoId":"SBSN","flightCategory":"VFR","rawOb":"METAR SBSN 292000Z 17002KT 9999 TS SCT017 FEW026CB BKN100 27/25 Q1009","temp":27,"dewp":25,"wdir":170,"wspd":2,"visib":"6+","altim":1009,"clouds":[{"cover":"SCT","base":1700},{"cover":"FEW","base":2600},{"cover":"BKN","base":10000}],"obsTime":1774814400},"SBIL":{"icaoId":"SBIL","flightCategory":"VFR","rawOb":"METAR SBIL 292000Z 20008KT 180V240 9999 SCT020 FEW025TCU SCT050 28/24 Q1013","temp":28,"dewp":24,"wdir":200,"wspd":8,"visib":"6+","altim":1013,"clouds":[{"cover":"SCT","base":2000},{"cover":"FEW","base":2500},{"cover":"SCT","base":5000}],"obsTime":1774814400},"SBSP":{"icaoId":"SBSP","flightCategory":"VFR","rawOb":"METAR SBSP 292000Z 16009KT CAVOK 25/20 Q1020","temp":25,"dewp":20,"wdir":160,"wspd":9,"visib":"6+","altim":1020,"clouds":[],"obsTime":1774814400},"SBCT":{"icaoId":"SBCT","flightCategory":"VFR","rawOb":"METAR SBCT 292000Z VRB02KT CAVOK 29/16 Q1019","temp":29,"dewp":16,"wdir":"VRB","wspd":2,"visib":"6+","altim":1019,"clouds":[],"obsTime":1774814400},"SBSV":{"icaoId":"SBSV","flightCategory":"VFR","rawOb":"METAR SBSV 292000Z 14007KT 110V170 9999 VCSH SCT019 FEW023TCU BKN080 28/24 Q1012","temp":28,"dewp":24,"wdir":140,"wspd":7,"visib":"6+","altim":1012,"clouds":[{"cover":"SCT","base":1900},{"cover":"FEW","base":2300},{"cover":"BKN","base":8000}],"obsTime":1774814400},"SBTE":{"icaoId":"SBTE","flightCategory":"VFR","rawOb":"METAR SBTE 292000Z 31003KT 9999 FEW020 FEW025TCU BKN090 28/24 Q1009","temp":28,"dewp":24,"wdir":310,"wspd":3,"visib":"6+","altim":1009,"clouds":[{"cover":"FEW","base":2000},{"cover":"FEW","base":2500},{"cover":"BKN","base":9000}],"obsTime":1774814400},"SBJU":{"icaoId":"SBJU","flightCategory":"VFR","rawOb":"METAR SBJU 292000Z 09004KT 9999 SCT022 30/21 Q1011","temp":30,"dewp":21,"wdir":90,"wspd":4,"visib":"6+","altim":1011,"clouds":[{"cover":"SCT","base":2200}],"obsTime":1774814400},"SBBR":{"icaoId":"SBBR","flightCategory":"VFR","rawOb":"METAR SBBR 292000Z 15010KT 9999 BKN040 FEW045TCU 27/16 Q1018","temp":27,"dewp":16,"wdir":150,"wspd":10,"visib":"6+","altim":1018,"clouds":[{"cover":"BKN","base":4000},{"cover":"FEW","base":4500}],"obsTime":1774814400},"SBUL":{"icaoId":"SBUL","flightCategory":"VFR","rawOb":"METAR SBUL 292000Z 10004KT 030V130 9999 FEW049 27/15 Q1018","temp":27,"dewp":15,"wdir":100,"wspd":4,"visib":"6+","altim":1018,"clouds":[{"cover":"FEW","base":4900}],"obsTime":1774814400},"SBKP":{"icaoId":"SBKP","flightCategory":"VFR","rawOb":"METAR SBKP 292000Z 21006KT 180V240 9999 FEW045 31/17 Q1017","temp":31,"dewp":17,"wdir":210,"wspd":6,"visib":"6+","altim":1017,"clouds":[{"cover":"FEW","base":4500}],"obsTime":1774814400},"SBUR":{"icaoId":"SBUR","flightCategory":"VFR","rawOb":"METAR SBUR 292000Z 16005KT 9999 SCT049 FEW051TCU 30/16 Q1017","temp":30,"dewp":16,"wdir":160,"wspd":5,"visib":"6+","altim":1017,"clouds":[{"cover":"SCT","base":4900},{"cover":"FEW","base":5100}],"obsTime":1774814400},"SBCZ":{"icaoId":"SBCZ","flightCategory":"VFR","rawOb":"METAR SBCZ 292000Z 22009KT 9999 VCSH SCT012 SCT025 FEW025TCU BKN080 25/24 Q1011","temp":25,"dewp":24,"wdir":220,"wspd":9,"visib":"6+","altim":1011,"clouds":[{"cover":"SCT","base":1200},{"cover":"SCT","base":2500},{"cover":"FEW","base":2500},{"cover":"BKN","base":8000}],"obsTime":1774814400},"SBVT":{"icaoId":"SBVT","flightCategory":"VFR","rawOb":"METAR SBVT 292000Z 17010KT 9999 FEW023 FEW030TCU SCT070 26/23 Q1015","temp":26,"dewp":23,"wdir":170,"wspd":10,"visib":"6+","altim":1015,"clouds":[{"cover":"FEW","base":2300},{"cover":"FEW","base":3000},{"cover":"SCT","base":7000}],"obsTime":1774814400},"SBAT":{"icaoId":"SBAT","flightCategory":"VFR","rawOb":"METAR SBAT 292000Z 17002KT 9999 SCT035 FEW040TCU 32/23 Q1010","temp":32,"dewp":23,"wdir":170,"wspd":2,"visib":"6+","altim":1010,"clouds":[{"cover":"SCT","base":3500},{"cover":"FEW","base":4000}],"obsTime":1774814400},"SBOI":{"icaoId":"SBOI","flightCategory":"VFR","rawOb":"METAR SBOI 292000Z AUTO 03005KT 010V070 9999 FEW025 SCT032 27/25 Q1009","temp":27,"dewp":25,"wdir":30,"wspd":5,"visib":"6+","altim":1009,"clouds":[{"cover":"FEW","base":2500},{"cover":"SCT","base":3200}],"obsTime":1774814400},"SBAR":{"icaoId":"SBAR","flightCategory":"VFR","rawOb":"SPECI SBAR 291930Z 09013KT 9999 4000N SHRA FEW009 SCT020 FEW023TCU BKN100 27/25 Q1010","temp":27,"dewp":25,"wdir":90,"wspd":13,"visib":"6+","altim":1010,"clouds":[{"cover":"FEW","base":900},{"cover":"SCT","base":2000},{"cover":"FEW","base":2300},{"cover":"BKN","base":10000}],"obsTime":1774812600},"SBAX":{"icaoId":"SBAX","flightCategory":"VFR","rawOb":"METAR SBAX 292000Z AUTO 09007KT 060V120 CAVOK 27/15 Q1019","temp":27,"dewp":15,"wdir":90,"wspd":7,"visib":"6+","altim":1019,"clouds":[],"obsTime":1774814400},"SBBH":{"icaoId":"SBBH","flightCategory":"VFR","rawOb":"METAR SBBH 292000Z 07005KT 9999 FEW045 27/16 Q1017","temp":27,"dewp":16,"wdir":70,"wspd":5,"visib":"6+","altim":1017,"clouds":[{"cover":"FEW","base":4500}],"obsTime":1774814400},"SBBU":{"icaoId":"SBBU","flightCategory":"VFR","rawOb":"METAR SBBU 292000Z /////KT 9999 FEW040 32/16 Q1016","temp":32,"dewp":16,"wdir":null,"wspd":null,"visib":"6+","altim":1016,"clouds":[{"cover":"FEW","base":4000}],"obsTime":1774814400},"SBCJ":{"icaoId":"SBCJ","flightCategory":"VFR","rawOb":"METAR SBCJ 292000Z 00000KT 9999 FEW023 28/22 Q1013","temp":28,"dewp":22,"wdir":0,"wspd":0,"visib":"6+","altim":1013,"clouds":[{"cover":"FEW","base":2300}],"obsTime":1774814400},"SBCO":{"icaoId":"SBCO","flightCategory":"VFR","rawOb":"METAR SBCO 292000Z 13009KT 9999 FEW035TCU 29/23 Q1015","temp":29,"dewp":23,"wdir":130,"wspd":9,"visib":"6+","altim":1015,"clouds":[{"cover":"FEW","base":3500}],"obsTime":1774814400},"SBDN":{"icaoId":"SBDN","flightCategory":"VFR","rawOb":"METAR SBDN 292000Z 07004KT CAVOK 33/19 Q1015","temp":33,"dewp":19,"wdir":70,"wspd":4,"visib":"6+","altim":1015,"clouds":[],"obsTime":1774814400},"SBES":{"icaoId":"SBES","flightCategory":"VFR","rawOb":"METAR SBES 292000Z VRB07KT 9999 FEW030 27/// Q1015","temp":null,"dewp":null,"wdir":"VRB","wspd":7,"visib":"6+","altim":1015,"clouds":[{"cover":"FEW","base":3000}],"obsTime":1774814400},"SBIP":{"icaoId":"SBIP","flightCategory":"VFR","rawOb":"METAR SBIP 292000Z AUTO 13004KT 110V170 CAVOK 27/22 Q1015","temp":27,"dewp":22,"wdir":130,"wspd":4,"visib":"6+","altim":1015,"clouds":[],"obsTime":1774814400},"SBKG":{"icaoId":"SBKG","flightCategory":"VFR","rawOb":"METAR SBKG 292000Z 07008KT CAVOK 28/17 Q1011","temp":28,"dewp":17,"wdir":70,"wspd":8,"visib":"6+","altim":1011,"clouds":[],"obsTime":1774814400},"SBPB":{"icaoId":"SBPB","flightCategory":"VFR","rawOb":"METAR SBPB 292000Z 08010KT 9999 FEW020 BKN100 29/24 Q1009","temp":29,"dewp":24,"wdir":80,"wspd":10,"visib":"6+","altim":1009,"clouds":[{"cover":"FEW","base":2000},{"cover":"BKN","base":10000}],"obsTime":1774814400},"SBPL":{"icaoId":"SBPL","flightCategory":"VFR","rawOb":"METAR SBPL 292000Z 15005KT 9999 FEW030 BKN070 31/20 Q1010","temp":31,"dewp":20,"wdir":150,"wspd":5,"visib":"6+","altim":1010,"clouds":[{"cover":"FEW","base":3000},{"cover":"BKN","base":7000}],"obsTime":1774814400},"SBPP":{"icaoId":"SBPP","flightCategory":"VFR","rawOb":"METAR SBPP 292000Z COR 07004KT 9999 SCT025 31/19 Q1017","temp":31,"dewp":19,"wdir":70,"wspd":4,"visib":"6+","altim":1017,"clouds":[{"cover":"SCT","base":2500}],"obsTime":1774814400},"SBPS":{"icaoId":"SBPS","flightCategory":"VFR","rawOb":"METAR SBPS 292000Z VRB04KT 9999 SCT017 SCT053 26/24 Q1013","temp":26,"dewp":24,"wdir":"VRB","wspd":4,"visib":"6+","altim":1013,"clouds":[{"cover":"SCT","base":1700},{"cover":"SCT","base":5300}],"obsTime":1774814400},"SBSC":{"icaoId":"SBSC","flightCategory":"VFR","rawOb":"METAR SBSC 292000Z 17009KT CAVOK 28/21 Q1015","temp":28,"dewp":21,"wdir":170,"wspd":9,"visib":"6+","altim":1015,"clouds":[],"obsTime":1774814400},"SBSJ":{"icaoId":"SBSJ","flightCategory":"VFR","rawOb":"METAR SBSJ 292000Z 12009KT CAVOK 28/18 Q1017","temp":28,"dewp":18,"wdir":120,"wspd":9,"visib":"6+","altim":1017,"clouds":[],"obsTime":1774814400},"SBSM":{"icaoId":"SBSM","flightCategory":"VFR","rawOb":"METAR SBSM 292000Z 24003KT 190V300 9999 SCT040 FEW045TCU 35/24 Q1014","temp":35,"dewp":24,"wdir":240,"wspd":3,"visib":"6+","altim":1014,"clouds":[{"cover":"SCT","base":4000},{"cover":"FEW","base":4500}],"obsTime":1774814400},"SBSR":{"icaoId":"SBSR","flightCategory":"VFR","rawOb":"METAR SBSR 292000Z 18007KT 9999 FEW030 31/14 Q1016","temp":31,"dewp":14,"wdir":180,"wspd":7,"visib":"6+","altim":1016,"clouds":[{"cover":"FEW","base":3000}],"obsTime":1774814400},"SBTF":{"icaoId":"SBTF","flightCategory":"VFR","rawOb":"METAR SBTF 292000Z 13004KT 9999 FEW015 SCT090 30/24 Q1008","temp":30,"dewp":24,"wdir":130,"wspd":4,"visib":"6+","altim":1008,"clouds":[{"cover":"FEW","base":1500},{"cover":"SCT","base":9000}],"obsTime":1774814400},"SBTT":{"icaoId":"SBTT","flightCategory":"VFR","rawOb":"METAR SBTT 292000Z 26005KT 9999 SCT020 31/23 Q1008","temp":31,"dewp":23,"wdir":260,"wspd":5,"visib":"6+","altim":1008,"clouds":[{"cover":"SCT","base":2000}],"obsTime":1774814400},"SBUY":{"icaoId":"SBUY","flightCategory":"VFR","rawOb":"METAR SBUY 292000Z 13002KT 9999 VCSH SCT025 FEW030TCU BKN090 26/25 Q1008 RERA","temp":26,"dewp":25,"wdir":130,"wspd":2,"visib":"6+","altim":1008,"clouds":[{"cover":"SCT","base":2500},{"cover":"FEW","base":3000},{"cover":"BKN","base":9000}],"obsTime":1774814400},"SBVH":{"icaoId":"SBVH","flightCategory":"VFR","rawOb":"METAR SBVH 292000Z 08007KT 9999 SCT035 27/21 Q1014","temp":27,"dewp":21,"wdir":80,"wspd":7,"visib":"6+","altim":1014,"clouds":[{"cover":"SCT","base":3500}],"obsTime":1774814400},"SBCC":{"icaoId":"SBCC","flightCategory":"VFR","rawOb":"METAR SBCC 292000Z 04009KT 9999 FEW020 31/19 Q1011","temp":31,"dewp":19,"wdir":40,"wspd":9,"visib":"6+","altim":1011,"clouds":[{"cover":"FEW","base":2000}],"obsTime":1774814400},"SBJP":{"icaoId":"SBJP","flightCategory":"VFR","rawOb":"METAR SBJP 292000Z 09008KT CAVOK 28/22 Q1010","temp":28,"dewp":22,"wdir":90,"wspd":8,"visib":"6+","altim":1010,"clouds":[],"obsTime":1774814400},"SBPF":{"icaoId":"SBPF","flightCategory":"VFR","rawOb":"METAR SBPF 292000Z 22007KT CAVOK 30/18 Q1018","temp":30,"dewp":18,"wdir":220,"wspd":7,"visib":"6+","altim":1018,"clouds":[],"obsTime":1774814400},"SBAN":{"icaoId":"SBAN","flightCategory":"VFR","rawOb":"METAR SBAN 292000Z 16009KT 9999 VCSH SCT040 FEW045TCU 27/15 Q1018","temp":27,"dewp":15,"wdir":160,"wspd":9,"visib":"6+","altim":1018,"clouds":[{"cover":"SCT","base":4000},{"cover":"FEW","base":4500}],"obsTime":1774814400},"SBLE":{"icaoId":"SBLE","flightCategory":"VFR","rawOb":"METAR SBLE 292000Z AUTO 16006KT 120V200 CAVOK 28/20 Q1014","temp":28,"dewp":20,"wdir":160,"wspd":6,"visib":"6+","altim":1014,"clouds":[],"obsTime":1774814400},"SBIH":{"icaoId":"SBIH","flightCategory":"VFR","rawOb":"METAR SBIH 292000Z 00000KT 9999 SCT020 FEW023TCU 31/24 Q1008","temp":31,"dewp":24,"wdir":0,"wspd":0,"visib":"6+","altim":1008,"clouds":[{"cover":"SCT","base":2000},{"cover":"FEW","base":2300}],"obsTime":1774814400},"SBAF":{"icaoId":"SBAF","flightCategory":"VFR","rawOb":"METAR SBAF 292000Z 19012KT 9999 FEW030 27/23 Q1015","temp":27,"dewp":23,"wdir":190,"wspd":12,"visib":"6+","altim":1015,"clouds":[{"cover":"FEW","base":3000}],"obsTime":1774814400},"SBGW":{"icaoId":"SBGW","flightCategory":"VFR","rawOb":"METAR SBGW 292000Z 36005KT 340V040 9999 FEW040 30/14 Q1016","temp":30,"dewp":14,"wdir":360,"wspd":5,"visib":"6+","altim":1016,"clouds":[{"cover":"FEW","base":4000}],"obsTime":1774814400},"SBJR":{"icaoId":"SBJR","flightCategory":"VFR","rawOb":"METAR SBJR 292000Z 16011KT 9999 FEW025 28/21 Q1015","temp":28,"dewp":21,"wdir":160,"wspd":11,"visib":"6+","altim":1015,"clouds":[{"cover":"FEW","base":2500}],"obsTime":1774814400},"SBLS":{"icaoId":"SBLS","flightCategory":"VFR","rawOb":"METAR SBLS 292000Z 13007KT 070V130 9999 FEW040 26/17 Q1018","temp":26,"dewp":17,"wdir":130,"wspd":7,"visib":"6+","altim":1018,"clouds":[{"cover":"FEW","base":4000}],"obsTime":1774814400},"SBMT":{"icaoId":"SBMT","flightCategory":"VFR","rawOb":"METAR SBMT 292000Z 16007KT CAVOK 26/19 Q1018","temp":26,"dewp":19,"wdir":160,"wspd":7,"visib":"6+","altim":1018,"clouds":[],"obsTime":1774814400},"SBST":{"icaoId":"SBST","flightCategory":"VFR","rawOb":"METAR SBST 292000Z 25004KT 9999 BKN031 27/20 Q1015","temp":27,"dewp":20,"wdir":250,"wspd":4,"visib":"6+","altim":1015,"clouds":[{"cover":"BKN","base":3100}],"obsTime":1774814400},"SBTA":{"icaoId":"SBTA","flightCategory":"VFR","rawOb":"METAR SBTA 292000Z 36003KT 310V070 9999 FEW030 29/23 Q1016","temp":29,"dewp":23,"wdir":360,"wspd":3,"visib":"6+","altim":1016,"clouds":[{"cover":"FEW","base":3000}],"obsTime":1774814400},"SBJV":{"icaoId":"SBJV","flightCategory":"VFR","rawOb":"METAR SBJV 292000Z 05007KT 9999 FEW030 30/23 Q1014","temp":30,"dewp":23,"wdir":50,"wspd":7,"visib":"6+","altim":1014,"clouds":[{"cover":"FEW","base":3000}],"obsTime":1774814400},"SBTC":{"icaoId":"SBTC","flightCategory":"VFR","rawOb":"METAR SBTC 292000Z 17007KT 9999 SCT020 BKN050 26/23 Q1013 RETS","temp":26,"dewp":23,"wdir":170,"wspd":7,"visib":"6+","altim":1013,"clouds":[{"cover":"SCT","base":2000},{"cover":"BKN","base":5000}],"obsTime":1774814400}}}