{"updated":1777668368,"count":84,"data":{"SBPA":{"icaoId":"SBPA","flightCategory":"IFR","rawOb":"METAR SBPA 011900Z 19017G29KT 4000 -TSRA BR BKN007 FEW040CB BKN080 19/18 Q1014 RERA","temp":19,"dewp":18,"wdir":190,"wspd":17,"visib":2.49,"altim":1014,"clouds":[{"cover":"BKN","base":700},{"cover":"FEW","base":4000},{"cover":"BKN","base":8000}],"obsTime":1777662000},"SBMA":{"icaoId":"SBMA","flightCategory":"VFR","rawOb":"METAR SBMA 011900Z 11006KT 9999 FEW022 32/22 Q1009","temp":32,"dewp":22,"wdir":110,"wspd":6,"visib":"6+","altim":1009,"clouds":[{"cover":"FEW","base":2200}],"obsTime":1777662000},"SBEG":{"icaoId":"SBEG","flightCategory":"MVFR","rawOb":"METAR SBEG 011900Z 04003KT 9999 4000W SHRA BKN030 FEW035TCU BKN100 29/24 Q1010","temp":29,"dewp":24,"wdir":40,"wspd":3,"visib":"6+","altim":1010,"clouds":[{"cover":"BKN","base":3000},{"cover":"FEW","base":3500},{"cover":"BKN","base":10000}],"obsTime":1777662000},"SBME":{"icaoId":"SBME","flightCategory":"VFR","rawOb":"METAR SBME 011900Z 13005KT 9999 FEW030 28/23 Q1016","temp":28,"dewp":23,"wdir":130,"wspd":5,"visib":"6+","altim":1016,"clouds":[{"cover":"FEW","base":3000}],"obsTime":1777662000},"SBBE":{"icaoId":"SBBE","flightCategory":"MVFR","rawOb":"METAR SBBE 011900Z 06006KT 9999 SCT010 BKN030 FEW035TCU 25/25 Q1009 RETSRA","temp":25,"dewp":25,"wdir":60,"wspd":6,"visib":"6+","altim":1009,"clouds":[{"cover":"SCT","base":1000},{"cover":"BKN","base":3000},{"cover":"FEW","base":3500}],"obsTime":1777662000},"SBFI":{"icaoId":"SBFI","flightCategory":"VFR","rawOb":"METAR SBFI 011900Z 01013KT 9999 FEW030 30/24 Q1012","temp":30,"dewp":24,"wdir":10,"wspd":13,"visib":"6+","altim":1012,"clouds":[{"cover":"FEW","base":3000}],"obsTime":1777662000},"SBMG":{"icaoId":"SBMG","flightCategory":"VFR","rawOb":"METAR SBMG 011900Z 02010KT 350V050 9999 FEW040 28/20 Q1015","temp":28,"dewp":20,"wdir":20,"wspd":10,"visib":"6+","altim":1015,"clouds":[{"cover":"FEW","base":4000}],"obsTime":1777662000},"SBBV":{"icaoId":"SBBV","flightCategory":"MVFR","rawOb":"METAR SBBV 011900Z 05007KT 9999 VCSH BKN030 FEW035TCU SCT080 29/23 Q1009","temp":29,"dewp":23,"wdir":50,"wspd":7,"visib":"6+","altim":1009,"clouds":[{"cover":"BKN","base":3000},{"cover":"FEW","base":3500},{"cover":"SCT","base":8000}],"obsTime":1777662000},"SBMK":{"icaoId":"SBMK","flightCategory":"VFR","rawOb":"METAR SBMK 011900Z 09007KT CAVOK 27/17 Q1018","temp":27,"dewp":17,"wdir":90,"wspd":7,"visib":"6+","altim":1018,"clouds":[],"obsTime":1777662000},"SBMO":{"icaoId":"SBMO","flightCategory":"VFR","rawOb":"METAR SBMO 011900Z 13007KT 9999 FEW025 SCT035 BKN100 28/23 Q1013","temp":28,"dewp":23,"wdir":130,"wspd":7,"visib":"6+","altim":1013,"clouds":[{"cover":"FEW","base":2500},{"cover":"SCT","base":3500},{"cover":"BKN","base":10000}],"obsTime":1777662000},"SBFL":{"icaoId":"SBFL","flightCategory":"VFR","rawOb":"METAR SBFL 011900Z 36011KT 9999 FEW033 27/19 Q1014","temp":27,"dewp":19,"wdir":360,"wspd":11,"visib":"6+","altim":1014,"clouds":[{"cover":"FEW","base":3300}],"obsTime":1777662000},"SBCG":{"icaoId":"SBCG","flightCategory":"VFR","rawOb":"METAR SBCG 011900Z 36010KT 330V030 CAVOK 31/17 Q1014","temp":31,"dewp":17,"wdir":360,"wspd":10,"visib":"6+","altim":1014,"clouds":[],"obsTime":1777662000},"SBMQ":{"icaoId":"SBMQ","flightCategory":"VFR","rawOb":"METAR SBMQ 011900Z 04007KT 9999 FEW021 29/25 Q1009","temp":29,"dewp":25,"wdir":40,"wspd":7,"visib":"6+","altim":1009,"clouds":[{"cover":"FEW","base":2100}],"obsTime":1777662000},"SBNT":{"icaoId":"SBNT","flightCategory":"VFR","rawOb":"METAR SBNT 011900Z 16004KT 9999 FEW010 SCT020 FEW025TCU BKN100 26/24 Q1011","temp":26,"dewp":24,"wdir":160,"wspd":4,"visib":"6+","altim":1011,"clouds":[{"cover":"FEW","base":1000},{"cover":"SCT","base":2000},{"cover":"FEW","base":2500},{"cover":"BKN","base":10000}],"obsTime":1777662000},"SBFZ":{"icaoId":"SBFZ","flightCategory":"VFR","rawOb":"METAR SBFZ 011900Z 12008KT 9999 FEW020 SCT100 28/24 Q1010","temp":28,"dewp":24,"wdir":120,"wspd":8,"visib":"6+","altim":1010,"clouds":[{"cover":"FEW","base":2000},{"cover":"SCT","base":10000}],"obsTime":1777662000},"SBCP":{"icaoId":"SBCP","flightCategory":"VFR","rawOb":"METAR SBCP 011900Z 11009KT 9999 FEW025 30/19 Q1016","temp":30,"dewp":19,"wdir":110,"wspd":9,"visib":"6+","altim":1016,"clouds":[{"cover":"FEW","base":2500}],"obsTime":1777662000},"SBGL":{"icaoId":"SBGL","flightCategory":"VFR","rawOb":"METAR SBGL 011900Z 14010KT 9999 FEW024 BKN080 26/23 Q1016","temp":26,"dewp":23,"wdir":140,"wspd":10,"visib":"6+","altim":1016,"clouds":[{"cover":"FEW","base":2400},{"cover":"BKN","base":8000}],"obsTime":1777662000},"SBPJ":{"icaoId":"SBPJ","flightCategory":"VFR","rawOb":"METAR SBPJ 011900Z 12005KT 9999 SCT025 33/21 Q1011","temp":33,"dewp":21,"wdir":120,"wspd":5,"visib":"6+","altim":1011,"clouds":[{"cover":"SCT","base":2500}],"obsTime":1777662000},"SBPV":{"icaoId":"SBPV","flightCategory":"MVFR","rawOb":"METAR SBPV 011900Z 03005KT 360V060 9999 BKN030 FEW035TCU 33/27 Q1008","temp":33,"dewp":27,"wdir":30,"wspd":5,"visib":"6+","altim":1008,"clouds":[{"cover":"BKN","base":3000},{"cover":"FEW","base":3500}],"obsTime":1777662000},"SBAT":{"icaoId":"SBAT","flightCategory":"VFR","rawOb":"METAR SBAT 011900Z 09003KT 9999 SCT035 33/23 Q1010","temp":33,"dewp":23,"wdir":90,"wspd":3,"visib":"6+","altim":1010,"clouds":[{"cover":"SCT","base":3500}],"obsTime":1777662000},"SBCR":{"icaoId":"SBCR","flightCategory":"VFR","rawOb":"METAR SBCR 011900Z 03010KT 350V070 9999 FEW035 34/20 Q1010","temp":34,"dewp":20,"wdir":30,"wspd":10,"visib":"6+","altim":1010,"clouds":[{"cover":"FEW","base":3500}],"obsTime":1777662000},"SBRB":{"icaoId":"SBRB","flightCategory":"MVFR","rawOb":"METAR SBRB 011900Z 03004KT 9999 BKN030 FEW035TCU 30/26 Q1010","temp":30,"dewp":26,"wdir":30,"wspd":4,"visib":"6+","altim":1010,"clouds":[{"cover":"BKN","base":3000},{"cover":"FEW","base":3500}],"obsTime":1777662000},"SBGO":{"icaoId":"SBGO","flightCategory":"VFR","rawOb":"METAR SBGO 011900Z 08008KT 050V110 CAVOK 30/16 Q1017","temp":30,"dewp":16,"wdir":80,"wspd":8,"visib":"6+","altim":1017,"clouds":[],"obsTime":1777662000},"SBRF":{"icaoId":"SBRF","flightCategory":"VFR","rawOb":"METAR SBRF 011900Z 21007KT 9999 VCSH SCT020 BKN070 23/23 Q1012","temp":23,"dewp":23,"wdir":210,"wspd":7,"visib":"6+","altim":1012,"clouds":[{"cover":"SCT","base":2000},{"cover":"BKN","base":7000}],"obsTime":1777662000},"SBGR":{"icaoId":"SBGR","flightCategory":"VFR","rawOb":"METAR SBGR 011900Z 05004KT 9999 FEW030 SCT050 27/20 Q1019","temp":27,"dewp":20,"wdir":50,"wspd":4,"visib":"6+","altim":1019,"clouds":[{"cover":"FEW","base":3000},{"cover":"SCT","base":5000}],"obsTime":1777662000},"SBSG":{"icaoId":"SBSG","flightCategory":"MVFR","rawOb":"METAR SBSG 011900Z 20003KT 170V240 8000 SCT010 BKN025 BKN100 25/24 Q1011","temp":25,"dewp":24,"wdir":200,"wspd":3,"visib":4.97,"altim":1011,"clouds":[{"cover":"SCT","base":1000},{"cover":"BKN","base":2500},{"cover":"BKN","base":10000}],"obsTime":1777662000},"SBBR":{"icaoId":"SBBR","flightCategory":"VFR","rawOb":"METAR SBBR 011900Z 10014KT 070V140 9999 SCT045 26/15 Q1019","temp":26,"dewp":15,"wdir":100,"wspd":14,"visib":"6+","altim":1019,"clouds":[{"cover":"SCT","base":4500}],"obsTime":1777662000},"SBSL":{"icaoId":"SBSL","flightCategory":"MVFR","rawOb":"METAR SBSL 011900Z 15007KT 090V190 9999 VCSH BKN025 FEW030TCU 27/24 Q1009","temp":27,"dewp":24,"wdir":150,"wspd":7,"visib":"6+","altim":1009,"clouds":[{"cover":"BKN","base":2500},{"cover":"FEW","base":3000}],"obsTime":1777662000},"SBCT":{"icaoId":"SBCT","flightCategory":"VFR","rawOb":"METAR SBCT 011900Z 34008KT 320V030 CAVOK 25/16 Q1019","temp":25,"dewp":16,"wdir":340,"wspd":8,"visib":"6+","altim":1019,"clouds":[],"obsTime":1777662000},"SBSN":{"icaoId":"SBSN","flightCategory":"VFR","rawOb":"METAR SBSN 011900Z 07008KT 9999 VCSH SCT022 FEW028TCU 31/26 Q1008","temp":31,"dewp":26,"wdir":70,"wspd":8,"visib":"6+","altim":1008,"clouds":[{"cover":"SCT","base":2200},{"cover":"FEW","base":2800}],"obsTime":1777662000},"SBSP":{"icaoId":"SBSP","flightCategory":"VFR","rawOb":"METAR SBSP 011900Z VRB03KT 9999 FEW033 27/18 Q1020","temp":27,"dewp":18,"wdir":"VRB","wspd":3,"visib":"6+","altim":1020,"clouds":[{"cover":"FEW","base":3300}],"obsTime":1777662000},"SBHT":{"icaoId":"SBHT","flightCategory":"VFR","rawOb":"METAR SBHT 011900Z 14003KT 9999 SCT030 32/24 Q1009","temp":32,"dewp":24,"wdir":140,"wspd":3,"visib":"6+","altim":1009,"clouds":[{"cover":"SCT","base":3000}],"obsTime":1777662000},"SBCB":{"icaoId":"SBCB","flightCategory":"VFR","rawOb":"METAR SBCB 011900Z 11007KT 9999 FEW015 SCT030 28/23 Q1017","temp":28,"dewp":23,"wdir":110,"wspd":7,"visib":"6+","altim":1017,"clouds":[{"cover":"FEW","base":1500},{"cover":"SCT","base":3000}],"obsTime":1777662000},"SBLO":{"icaoId":"SBLO","flightCategory":"VFR","rawOb":"METAR SBLO 011900Z 06007KT CAVOK 27/20 Q1017","temp":27,"dewp":20,"wdir":60,"wspd":7,"visib":"6+","altim":1017,"clouds":[],"obsTime":1777662000},"SBTE":{"icaoId":"SBTE","flightCategory":"VFR","rawOb":"METAR SBTE 011900Z 12006KT 9999 FEW025 SCT100 32/23 Q1008","temp":32,"dewp":23,"wdir":120,"wspd":6,"visib":"6+","altim":1008,"clouds":[{"cover":"FEW","base":2500},{"cover":"SCT","base":10000}],"obsTime":1777662000},"SBIL":{"icaoId":"SBIL","flightCategory":"VFR","rawOb":"METAR SBIL 011900Z 17009KT 9999 VCSH SCT023 FEW025TCU 30/25 Q1015","temp":30,"dewp":25,"wdir":170,"wspd":9,"visib":"6+","altim":1015,"clouds":[{"cover":"SCT","base":2300},{"cover":"FEW","base":2500}],"obsTime":1777662000},"SBUL":{"icaoId":"SBUL","flightCategory":"VFR","rawOb":"METAR SBUL 011900Z 06012KT 9999 FEW049 27/13 Q1020","temp":27,"dewp":13,"wdir":60,"wspd":12,"visib":"6+","altim":1020,"clouds":[{"cover":"FEW","base":4900}],"obsTime":1777662000},"SBCF":{"icaoId":"SBCF","flightCategory":"VFR","rawOb":"METAR SBCF 011900Z 09005KT 9999 FEW045 27/15 Q1020","temp":27,"dewp":15,"wdir":90,"wspd":5,"visib":"6+","altim":1020,"clouds":[{"cover":"FEW","base":4500}],"obsTime":1777662000},"SBJU":{"icaoId":"SBJU","flightCategory":"MVFR","rawOb":"METAR SBJU 011900Z 08003KT 9999 BKN020 27/23 Q1013","temp":27,"dewp":23,"wdir":80,"wspd":3,"visib":"6+","altim":1013,"clouds":[{"cover":"BKN","base":2000}],"obsTime":1777662000},"SBUR":{"icaoId":"SBUR","flightCategory":"VFR","rawOb":"METAR SBUR 011900Z 05006KT CAVOK 29/14 Q1018","temp":29,"dewp":14,"wdir":50,"wspd":6,"visib":"6+","altim":1018,"clouds":[],"obsTime":1777662000},"SBVT":{"icaoId":"SBVT","flightCategory":"VFR","rawOb":"METAR SBVT 011900Z 12007KT CAVOK 28/22 Q1016","temp":28,"dewp":22,"wdir":120,"wspd":7,"visib":"6+","altim":1016,"clouds":[],"obsTime":1777662000},"SBCZ":{"icaoId":"SBCZ","flightCategory":"MVFR","rawOb":"METAR SBCZ 011900Z 22002KT 9999 BKN030 32/24 Q1009","temp":32,"dewp":24,"wdir":220,"wspd":2,"visib":"6+","altim":1009,"clouds":[{"cover":"BKN","base":3000}],"obsTime":1777662000},"SBKP":{"icaoId":"SBKP","flightCategory":"VFR","rawOb":"METAR SBKP 011900Z 33006KT CAVOK 29/18 Q1018","temp":29,"dewp":18,"wdir":330,"wspd":6,"visib":"6+","altim":1018,"clouds":[],"obsTime":1777662000},"SBSV":{"icaoId":"SBSV","flightCategory":"VFR","rawOb":"METAR SBSV 011900Z 13009KT 090V190 9000 FEW022TCU SCT025 29/24 Q1014","temp":29,"dewp":24,"wdir":130,"wspd":9,"visib":5.59,"altim":1014,"clouds":[{"cover":"FEW","base":2200},{"cover":"SCT","base":2500}],"obsTime":1777662000},"SBCJ":{"icaoId":"SBCJ","flightCategory":"VFR","rawOb":"METAR SBCJ 011900Z 14004KT CAVOK 26/21 Q1015","temp":26,"dewp":21,"wdir":140,"wspd":4,"visib":"6+","altim":1015,"clouds":[],"obsTime":1777662000},"SBOI":{"icaoId":"SBOI","flightCategory":"VFR","rawOb":"METAR SBOI 011900Z AUTO 08003KT 030V130 9999 BKN036 30/26 Q1010","temp":30,"dewp":26,"wdir":80,"wspd":3,"visib":"6+","altim":1010,"clouds":[{"cover":"BKN","base":3600}],"obsTime":1777662000},"SBPB":{"icaoId":"SBPB","flightCategory":"VFR","rawOb":"METAR SBPB 011900Z 04008KT 9999 SCT020 BKN100 30/24 Q1009","temp":30,"dewp":24,"wdir":40,"wspd":8,"visib":"6+","altim":1009,"clouds":[{"cover":"SCT","base":2000},{"cover":"BKN","base":10000}],"obsTime":1777662000},"SBBQ":{"icaoId":"SBBQ","flightCategory":"VFR","rawOb":"METAR SBBQ 011900Z 11005KT 040V180 9999 FEW036 24/14 Q1023","temp":24,"dewp":14,"wdir":110,"wspd":5,"visib":"6+","altim":1023,"clouds":[{"cover":"FEW","base":3600}],"obsTime":1777662000},"SBPL":{"icaoId":"SBPL","flightCategory":"VFR","rawOb":"METAR SBPL 011900Z 10006KT 9999 SCT030 SCT070 33/19 Q1013","temp":33,"dewp":19,"wdir":100,"wspd":6,"visib":"6+","altim":1013,"clouds":[{"cover":"SCT","base":3000},{"cover":"SCT","base":7000}],"obsTime":1777662000},"SBAR":{"icaoId":"SBAR","flightCategory":"VFR","rawOb":"METAR SBAR 011900Z 11008KT 9999 FEW026 29/22 Q1013","temp":29,"dewp":22,"wdir":110,"wspd":8,"visib":"6+","altim":1013,"clouds":[{"cover":"FEW","base":2600}],"obsTime":1777662000},"SBCO":{"icaoId":"SBCO","flightCategory":"IFR","rawOb":"METAR SBCO 011900Z 20016G29KT 4000 TSRA BKN009 BKN035 FEW040CB BKN080 18/18 Q1014 RERA","temp":18,"dewp":18,"wdir":200,"wspd":16,"visib":2.49,"altim":1014,"clouds":[{"cover":"BKN","base":900},{"cover":"BKN","base":3500},{"cover":"FEW","base":4000},{"cover":"BKN","base":8000}],"obsTime":1777662000},"SBPP":{"icaoId":"SBPP","flightCategory":"VFR","rawOb":"METAR SBPP 011900Z 04010KT 9999 FEW015 30/21 Q1016","temp":30,"dewp":21,"wdir":40,"wspd":10,"visib":"6+","altim":1016,"clouds":[{"cover":"FEW","base":1500}],"obsTime":1777662000},"SBBU":{"icaoId":"SBBU","flightCategory":"VFR","rawOb":"METAR SBBU 011900Z 36004KT 9999 SCT045 31/19 Q1017","temp":31,"dewp":19,"wdir":360,"wspd":4,"visib":"6+","altim":1017,"clouds":[{"cover":"SCT","base":4500}],"obsTime":1777662000},"SBPS":{"icaoId":"SBPS","flightCategory":"VFR","rawOb":"METAR SBPS 011900Z 14005KT 070V190 9999 SCT020 28/23 Q1015","temp":28,"dewp":23,"wdir":140,"wspd":5,"visib":"6+","altim":1015,"clouds":[{"cover":"SCT","base":2000}],"obsTime":1777662000},"SBDN":{"icaoId":"SBDN","flightCategory":"VFR","rawOb":"METAR SBDN 011900Z 03006KT CAVOK 31/19 Q1015","temp":31,"dewp":19,"wdir":30,"wspd":6,"visib":"6+","altim":1015,"clouds":[],"obsTime":1777662000},"SBSC":{"icaoId":"SBSC","flightCategory":"MVFR","rawOb":"METAR SBSC 011900Z 22005KT 8000 FEW010 SCT050 BKN070 25/23 Q1017","temp":25,"dewp":23,"wdir":220,"wspd":5,"visib":4.97,"altim":1017,"clouds":[{"cover":"FEW","base":1000},{"cover":"SCT","base":5000},{"cover":"BKN","base":7000}],"obsTime":1777662000},"SBSJ":{"icaoId":"SBSJ","flightCategory":"VFR","rawOb":"METAR SBSJ 011900Z 09003KT 9999 FEW040 27/19 Q1019","temp":27,"dewp":19,"wdir":90,"wspd":3,"visib":"6+","altim":1019,"clouds":[{"cover":"FEW","base":4000}],"obsTime":1777662000},"SBES":{"icaoId":"SBES","flightCategory":"VFR","rawOb":"METAR SBES 011900Z 15008KT 070V180 CAVOK 27/// Q1016","temp":null,"dewp":null,"wdir":150,"wspd":8,"visib":"6+","altim":1016,"clouds":[],"obsTime":1777662000},"SBCA":{"icaoId":"SBCA","flightCategory":"VFR","rawOb":"METAR SBCA 011900Z 02008G21KT 9999 FEW017 27/20 Q1017","temp":27,"dewp":20,"wdir":20,"wspd":8,"visib":"6+","altim":1017,"clouds":[{"cover":"FEW","base":1700}],"obsTime":1777662000},"SBSM":{"icaoId":"SBSM","flightCategory":"MVFR","rawOb":"METAR SBSM 011900Z 13005KT 6000 -TSRA FEW006 BKN040 FEW045CB OVC080 17/17 Q1012 RETSRA","temp":17,"dewp":17,"wdir":130,"wspd":5,"visib":3.73,"altim":1012,"clouds":[{"cover":"FEW","base":600},{"cover":"BKN","base":4000},{"cover":"FEW","base":4500},{"cover":"OVC","base":8000}],"obsTime":1777662000},"SBBH":{"icaoId":"SBBH","flightCategory":"VFR","rawOb":"METAR SBBH 011900Z 07006KT CAVOK 27/15 Q1019","temp":27,"dewp":15,"wdir":70,"wspd":6,"visib":"6+","altim":1019,"clouds":[],"obsTime":1777662000},"SBSR":{"icaoId":"SBSR","flightCategory":"VFR","rawOb":"METAR SBSR 011900Z 09010KT 9999 FEW035 31/13 Q1016","temp":31,"dewp":13,"wdir":90,"wspd":10,"visib":"6+","altim":1016,"clouds":[{"cover":"FEW","base":3500}],"obsTime":1777662000},"SBTF":{"icaoId":"SBTF","flightCategory":"VFR","rawOb":"METAR SBTF 011900Z 12009KT 9999 SCT020 FEW025TCU 33/25 Q1008","temp":33,"dewp":25,"wdir":120,"wspd":9,"visib":"6+","altim":1008,"clouds":[{"cover":"SCT","base":2000},{"cover":"FEW","base":2500}],"obsTime":1777662000},"SBCC":{"icaoId":"SBCC","flightCategory":"VFR","rawOb":"METAR SBCC 011900Z 03008KT 340V060 9999 SCT030 FEW035TCU SCT100 31/20 Q1012","temp":31,"dewp":20,"wdir":30,"wspd":8,"visib":"6+","altim":1012,"clouds":[{"cover":"SCT","base":3000},{"cover":"FEW","base":3500},{"cover":"SCT","base":10000}],"obsTime":1777662000},"SBIP":{"icaoId":"SBIP","flightCategory":"VFR","rawOb":"METAR SBIP 011900Z AUTO 01004KT 310V040 CAVOK 31/17 Q1016","temp":31,"dewp":17,"wdir":10,"wspd":4,"visib":"6+","altim":1016,"clouds":[],"obsTime":1777662000},"SBTT":{"icaoId":"SBTT","flightCategory":"VFR","rawOb":"METAR SBTT 011900Z 27002KT 9999 FEW016 SCT100 27/23 Q1009","temp":27,"dewp":23,"wdir":270,"wspd":2,"visib":"6+","altim":1009,"clouds":[{"cover":"FEW","base":1600},{"cover":"SCT","base":10000}],"obsTime":1777662000},"SBAX":{"icaoId":"SBAX","flightCategory":"VFR","rawOb":"METAR SBAX 011900Z AUTO 07006KT 350V130 CAVOK 27/13 Q1020","temp":27,"dewp":13,"wdir":70,"wspd":6,"visib":"6+","altim":1020,"clouds":[],"obsTime":1777662000},"SBUY":{"icaoId":"SBUY","flightCategory":"VFR","rawOb":"METAR SBUY 011900Z 09005KT 9999 SCT025 FEW030TCU 33/24 Q1007","temp":33,"dewp":24,"wdir":90,"wspd":5,"visib":"6+","altim":1007,"clouds":[{"cover":"SCT","base":2500},{"cover":"FEW","base":3000}],"obsTime":1777662000},"SBKG":{"icaoId":"SBKG","flightCategory":"IFR","rawOb":"METAR SBKG 011900Z 17006KT 8000 -RA FEW004 BKN006 OVC070 22/21 Q1015","temp":22,"dewp":21,"wdir":170,"wspd":6,"visib":4.97,"altim":1015,"clouds":[{"cover":"FEW","base":400},{"cover":"BKN","base":600},{"cover":"OVC","base":7000}],"obsTime":1777662000},"SBVH":{"icaoId":"SBVH","flightCategory":"VFR","rawOb":"METAR SBVH 011900Z 10005KT 9999 SCT035 BKN088 29/24 Q1013","temp":29,"dewp":24,"wdir":100,"wspd":5,"visib":"6+","altim":1013,"clouds":[{"cover":"SCT","base":3500},{"cover":"BKN","base":8800}],"obsTime":1777662000},"SBGM":{"icaoId":"SBGM","flightCategory":"VFR","rawOb":"METAR SBGM 011900Z 25003KT 9999 FEW020TCU SCT023 BKN040 31/25 Q1009","temp":31,"dewp":25,"wdir":250,"wspd":3,"visib":"6+","altim":1009,"clouds":[{"cover":"FEW","base":2000},{"cover":"SCT","base":2300},{"cover":"BKN","base":4000}],"obsTime":1777662000},"SBJP":{"icaoId":"SBJP","flightCategory":"VFR","rawOb":"METAR SBJP 011900Z 19007KT 9999 FEW010 24/23 Q1011","temp":24,"dewp":23,"wdir":190,"wspd":7,"visib":"6+","altim":1011,"clouds":[{"cover":"FEW","base":1000}],"obsTime":1777662000},"SBIH":{"icaoId":"SBIH","flightCategory":"VFR","rawOb":"METAR SBIH 011900Z 07005KT 9999 SCT020 FEW025TCU 32/25 Q1008","temp":32,"dewp":25,"wdir":70,"wspd":5,"visib":"6+","altim":1008,"clouds":[{"cover":"SCT","base":2000},{"cover":"FEW","base":2500}],"obsTime":1777662000},"SBAN":{"icaoId":"SBAN","flightCategory":"VFR","rawOb":"METAR SBAN 011900Z 16006KT 9999 BKN045 27/14 Q1020","temp":27,"dewp":14,"wdir":160,"wspd":6,"visib":"6+","altim":1020,"clouds":[{"cover":"BKN","base":4500}],"obsTime":1777662000},"SBJV":{"icaoId":"SBJV","flightCategory":"VFR","rawOb":"METAR SBJV 011900Z 06005KT 9999 SCT030 26/21 Q1015","temp":26,"dewp":21,"wdir":60,"wspd":5,"visib":"6+","altim":1015,"clouds":[{"cover":"SCT","base":3000}],"obsTime":1777662000},"SBPF":{"icaoId":"SBPF","flightCategory":"VFR","rawOb":"METAR SBPF 011900Z 34010KT CAVOK 28/17 Q1015","temp":28,"dewp":17,"wdir":340,"wspd":10,"visib":"6+","altim":1015,"clouds":[],"obsTime":1777662000},"SBAF":{"icaoId":"SBAF","flightCategory":"MVFR","rawOb":"METAR SBAF 011900Z 20005KT 160V260 8000 FEW010 BKN025 BKN035 25/25 Q1017","temp":25,"dewp":25,"wdir":200,"wspd":5,"visib":4.97,"altim":1017,"clouds":[{"cover":"FEW","base":1000},{"cover":"BKN","base":2500},{"cover":"BKN","base":3500}],"obsTime":1777662000},"SBGW":{"icaoId":"SBGW","flightCategory":"MVFR","rawOb":"METAR SBGW 011900Z 03006KT 9999 BKN030 26/17 Q1018","temp":26,"dewp":17,"wdir":30,"wspd":6,"visib":"6+","altim":1018,"clouds":[{"cover":"BKN","base":3000}],"obsTime":1777662000},"SBJR":{"icaoId":"SBJR","flightCategory":"VFR","rawOb":"METAR SBJR 011900Z 17007KT 9999 SCT018 SCT025 26/24 Q1016","temp":26,"dewp":24,"wdir":170,"wspd":7,"visib":"6+","altim":1016,"clouds":[{"cover":"SCT","base":1800},{"cover":"SCT","base":2500}],"obsTime":1777662000},"SBLS":{"icaoId":"SBLS","flightCategory":"VFR","rawOb":"METAR SBLS 011900Z 13004KT 040V170 9999 SCT048 26/15 Q1019","temp":26,"dewp":15,"wdir":130,"wspd":4,"visib":"6+","altim":1019,"clouds":[{"cover":"SCT","base":4800}],"obsTime":1777662000},"SBMT":{"icaoId":"SBMT","flightCategory":"VFR","rawOb":"METAR SBMT 011900Z 12003KT 040V160 9999 SCT036 26/19 Q1019","temp":26,"dewp":19,"wdir":120,"wspd":3,"visib":"6+","altim":1019,"clouds":[{"cover":"SCT","base":3600}],"obsTime":1777662000},"SBTA":{"icaoId":"SBTA","flightCategory":"VFR","rawOb":"METAR SBTA 011900Z 04006KT 010V080 9999 SCT030 FEW035TCU 27/19 Q1018","temp":27,"dewp":19,"wdir":40,"wspd":6,"visib":"6+","altim":1018,"clouds":[{"cover":"SCT","base":3000},{"cover":"FEW","base":3500}],"obsTime":1777662000},"SBLE":{"icaoId":"SBLE","flightCategory":"VFR","rawOb":"METAR SBLE 011900Z AUTO VRB02KT CAVOK 28/20 Q1016","temp":28,"dewp":20,"wdir":"VRB","wspd":2,"visib":"6+","altim":1016,"clouds":[],"obsTime":1777662000},"SBST":{"icaoId":"SBST","flightCategory":"VFR","rawOb":"METAR SBST 011900Z /////KT 9000 SCT020 BKN055 ///// Q1016","temp":null,"dewp":null,"wdir":null,"wspd":null,"visib":5.59,"altim":1016,"clouds":[{"cover":"SCT","base":2000},{"cover":"BKN","base":5500}],"obsTime":1777662000}}}