{"updated":1780237454,"count":87,"data":{"SBBR":{"icaoId":"SBBR","flightCategory":"VFR","rawOb":"METAR SBBR 311300Z 09007KT 060V120 9999 SCT015 21/16 Q1023","temp":21,"dewp":16,"wdir":90,"wspd":7,"visib":"6+","altim":1023,"clouds":[{"cover":"SCT","base":1500}],"obsTime":1780232400},"SBLO":{"icaoId":"SBLO","flightCategory":"VFR","rawOb":"METAR SBLO 311300Z 15004KT CAVOK 17/14 Q1023","temp":17,"dewp":14,"wdir":150,"wspd":4,"visib":"6+","altim":1023,"clouds":[],"obsTime":1780232400},"SBCF":{"icaoId":"SBCF","flightCategory":"VFR","rawOb":"METAR SBCF 311300Z 20003KT CAVOK 21/15 Q1023","temp":21,"dewp":15,"wdir":200,"wspd":3,"visib":"6+","altim":1023,"clouds":[],"obsTime":1780232400},"SBMA":{"icaoId":"SBMA","flightCategory":"MVFR","rawOb":"METAR SBMA 311300Z 35007KT 9999 BKN015 BKN100 28/24 Q1015","temp":28,"dewp":24,"wdir":350,"wspd":7,"visib":"6+","altim":1015,"clouds":[{"cover":"BKN","base":1500},{"cover":"BKN","base":10000}],"obsTime":1780232400},"SBME":{"icaoId":"SBME","flightCategory":"VFR","rawOb":"METAR SBME 311300Z 22008KT CAVOK 26/18 Q1019","temp":26,"dewp":18,"wdir":220,"wspd":8,"visib":"6+","altim":1019,"clouds":[],"obsTime":1780232400},"SBEG":{"icaoId":"SBEG","flightCategory":"MVFR","rawOb":"METAR SBEG 311300Z 12004KT 6000 -RA FEW003 SCT011 BKN030 25/24 Q1016","temp":25,"dewp":24,"wdir":120,"wspd":4,"visib":3.73,"altim":1016,"clouds":[{"cover":"FEW","base":300},{"cover":"SCT","base":1100},{"cover":"BKN","base":3000}],"obsTime":1780232400},"SBBE":{"icaoId":"SBBE","flightCategory":"VFR","rawOb":"METAR SBBE 311300Z 09007KT 9999 SCT010 SCT030 BKN100 29/25 Q1015","temp":29,"dewp":25,"wdir":90,"wspd":7,"visib":"6+","altim":1015,"clouds":[{"cover":"SCT","base":1000},{"cover":"SCT","base":3000},{"cover":"BKN","base":10000}],"obsTime":1780232400},"SBMG":{"icaoId":"SBMG","flightCategory":"VFR","rawOb":"METAR SBMG 311300Z 15004KT 110V190 CAVOK 17/15 Q1022","temp":17,"dewp":15,"wdir":150,"wspd":4,"visib":"6+","altim":1022,"clouds":[],"obsTime":1780232400},"SBMK":{"icaoId":"SBMK","flightCategory":"VFR","rawOb":"METAR SBMK 311300Z 07004KT CAVOK 23/16 Q1022","temp":23,"dewp":16,"wdir":70,"wspd":4,"visib":"6+","altim":1022,"clouds":[],"obsTime":1780232400},"SBFI":{"icaoId":"SBFI","flightCategory":"LIFR","rawOb":"METAR SBFI 311300Z 16005KT 3000 BR BCFG OVC002 16/16 Q1022","temp":16,"dewp":16,"wdir":160,"wspd":5,"visib":1.86,"altim":1022,"clouds":[{"cover":"OVC","base":200}],"obsTime":1780232400},"SBFL":{"icaoId":"SBFL","flightCategory":"VFR","rawOb":"METAR SBFL 311300Z 29003KT 240V350 CAVOK 18/14 Q1021","temp":18,"dewp":14,"wdir":290,"wspd":3,"visib":"6+","altim":1021,"clouds":[],"obsTime":1780232400},"SBMO":{"icaoId":"SBMO","flightCategory":"VFR","rawOb":"METAR SBMO 311300Z 17002KT 9999 FEW020 28/23 Q1017","temp":28,"dewp":23,"wdir":170,"wspd":2,"visib":"6+","altim":1017,"clouds":[{"cover":"FEW","base":2000}],"obsTime":1780232400},"SBCG":{"icaoId":"SBCG","flightCategory":"VFR","rawOb":"METAR SBCG 311300Z 11009KT CAVOK 23/17 Q1021","temp":23,"dewp":17,"wdir":110,"wspd":9,"visib":"6+","altim":1021,"clouds":[],"obsTime":1780232400},"SBMQ":{"icaoId":"SBMQ","flightCategory":"MVFR","rawOb":"METAR SBMQ 311300Z 13003KT 9999 VCSH SCT011 BKN018 FEW025TCU 29/27 Q1015","temp":29,"dewp":27,"wdir":130,"wspd":3,"visib":"6+","altim":1015,"clouds":[{"cover":"SCT","base":1100},{"cover":"BKN","base":1800},{"cover":"FEW","base":2500}],"obsTime":1780232400},"SBFZ":{"icaoId":"SBFZ","flightCategory":"VFR","rawOb":"METAR SBFZ 311300Z 16011KT 9999 SCT023 30/23 Q1014","temp":30,"dewp":23,"wdir":160,"wspd":11,"visib":"6+","altim":1014,"clouds":[{"cover":"SCT","base":2300}],"obsTime":1780232400},"SBNT":{"icaoId":"SBNT","flightCategory":"VFR","rawOb":"METAR SBNT 311300Z 15010KT 130V190 9999 SCT026 29/23 Q1015","temp":29,"dewp":23,"wdir":150,"wspd":10,"visib":"6+","altim":1015,"clouds":[{"cover":"SCT","base":2600}],"obsTime":1780232400},"SBCP":{"icaoId":"SBCP","flightCategory":"VFR","rawOb":"METAR SBCP 311300Z 27004KT CAVOK 25/17 Q1019","temp":25,"dewp":17,"wdir":270,"wspd":4,"visib":"6+","altim":1019,"clouds":[],"obsTime":1780232400},"SBPA":{"icaoId":"SBPA","flightCategory":"IFR","rawOb":"SPECI SBPA 311238Z 29007KT 4000 BR BKN007 BKN070 17/17 Q1021","temp":17,"dewp":17,"wdir":290,"wspd":7,"visib":2.49,"altim":1021,"clouds":[{"cover":"BKN","base":700},{"cover":"BKN","base":7000}],"obsTime":1780231080},"SBVT":{"icaoId":"SBVT","flightCategory":"VFR","rawOb":"METAR SBVT 311300Z 01004KT CAVOK 25/18 Q1019","temp":25,"dewp":18,"wdir":10,"wspd":4,"visib":"6+","altim":1019,"clouds":[],"obsTime":1780232400},"SBGL":{"icaoId":"SBGL","flightCategory":"MVFR","rawOb":"METAR SBGL 311300Z 25004KT 9999 SCT020 BKN030 25/18 Q1020","temp":25,"dewp":18,"wdir":250,"wspd":4,"visib":"6+","altim":1020,"clouds":[{"cover":"SCT","base":2000},{"cover":"BKN","base":3000}],"obsTime":1780232400},"SBPJ":{"icaoId":"SBPJ","flightCategory":"VFR","rawOb":"METAR SBPJ 311300Z 23007KT 200V260 CAVOK 28/20 Q1017","temp":28,"dewp":20,"wdir":230,"wspd":7,"visib":"6+","altim":1017,"clouds":[],"obsTime":1780232400},"SBBV":{"icaoId":"SBBV","flightCategory":"MVFR","rawOb":"METAR SBBV 311300Z 08002KT 9999 VCSH BKN025 FEW030TCU BKN070 28/24 Q1017","temp":28,"dewp":24,"wdir":80,"wspd":2,"visib":"6+","altim":1017,"clouds":[{"cover":"BKN","base":2500},{"cover":"FEW","base":3000},{"cover":"BKN","base":7000}],"obsTime":1780232400},"SBPV":{"icaoId":"SBPV","flightCategory":"VFR","rawOb":"METAR SBPV 311300Z 15006KT CAVOK 29/21 Q1015","temp":29,"dewp":21,"wdir":150,"wspd":6,"visib":"6+","altim":1015,"clouds":[],"obsTime":1780232400},"SBGO":{"icaoId":"SBGO","flightCategory":"VFR","rawOb":"METAR SBGO 311300Z VRB02KT CAVOK 23/16 Q1022","temp":23,"dewp":16,"wdir":"VRB","wspd":2,"visib":"6+","altim":1022,"clouds":[],"obsTime":1780232400},"SBRB":{"icaoId":"SBRB","flightCategory":"VFR","rawOb":"METAR SBRB 311300Z 13007KT CAVOK 26/23 Q1017","temp":26,"dewp":23,"wdir":130,"wspd":7,"visib":"6+","altim":1017,"clouds":[],"obsTime":1780232400},"SBCR":{"icaoId":"SBCR","flightCategory":"VFR","rawOb":"METAR SBCR 311300Z 31004KT 270V340 9999 FEW008 22/19 Q1019","temp":22,"dewp":19,"wdir":310,"wspd":4,"visib":"6+","altim":1019,"clouds":[{"cover":"FEW","base":800}],"obsTime":1780232400},"SBRF":{"icaoId":"SBRF","flightCategory":"VFR","rawOb":"METAR SBRF 311300Z 20003KT 9999 VCSH SCT015 SCT020 FEW025TCU BKN050 26/25 Q1016","temp":26,"dewp":25,"wdir":200,"wspd":3,"visib":"6+","altim":1016,"clouds":[{"cover":"SCT","base":1500},{"cover":"SCT","base":2000},{"cover":"FEW","base":2500},{"cover":"BKN","base":5000}],"obsTime":1780232400},"SBGR":{"icaoId":"SBGR","flightCategory":"MVFR","rawOb":"METAR SBGR 311300Z 10002KT 9999 SCT018 OVC023 18/14 Q1023","temp":18,"dewp":14,"wdir":100,"wspd":2,"visib":"6+","altim":1023,"clouds":[{"cover":"SCT","base":1800},{"cover":"OVC","base":2300}],"obsTime":1780232400},"SBSG":{"icaoId":"SBSG","flightCategory":"MVFR","rawOb":"METAR SBSG 311300Z 17006KT 120V200 9999 BKN023 28/23 Q1016","temp":28,"dewp":23,"wdir":170,"wspd":6,"visib":"6+","altim":1016,"clouds":[{"cover":"BKN","base":2300}],"obsTime":1780232400},"SBCB":{"icaoId":"SBCB","flightCategory":"VFR","rawOb":"METAR SBCB 311300Z /////KT 9999 FEW030 24/20 Q1020","temp":24,"dewp":20,"wdir":null,"wspd":null,"visib":"6+","altim":1020,"clouds":[{"cover":"FEW","base":3000}],"obsTime":1780232400},"SBSL":{"icaoId":"SBSL","flightCategory":"VFR","rawOb":"METAR SBSL 311300Z 09009KT 070V140 9999 FEW020 SCT100 29/25 Q1014","temp":29,"dewp":25,"wdir":90,"wspd":9,"visib":"6+","altim":1014,"clouds":[{"cover":"FEW","base":2000},{"cover":"SCT","base":10000}],"obsTime":1780232400},"SBHT":{"icaoId":"SBHT","flightCategory":"MVFR","rawOb":"METAR SBHT 311300Z 07005KT 9999 BKN017 BKN090 26/24 Q1015","temp":26,"dewp":24,"wdir":70,"wspd":5,"visib":"6+","altim":1015,"clouds":[{"cover":"BKN","base":1700},{"cover":"BKN","base":9000}],"obsTime":1780232400},"SBSN":{"icaoId":"SBSN","flightCategory":"VFR","rawOb":"METAR SBSN 311300Z 10009KT 9999 SCT020 FEW040TCU BKN090 26/24 Q1015","temp":26,"dewp":24,"wdir":100,"wspd":9,"visib":"6+","altim":1015,"clouds":[{"cover":"SCT","base":2000},{"cover":"FEW","base":4000},{"cover":"BKN","base":9000}],"obsTime":1780232400},"SBAT":{"icaoId":"SBAT","flightCategory":"VFR","rawOb":"METAR SBAT 311300Z 12006KT CAVOK 30/21 Q1017","temp":30,"dewp":21,"wdir":120,"wspd":6,"visib":"6+","altim":1017,"clouds":[],"obsTime":1780232400},"SBSP":{"icaoId":"SBSP","flightCategory":"IFR","rawOb":"METAR SBSP 311300Z 17004KT 140V220 9999 BKN008 BKN011 16/15 Q1024","temp":16,"dewp":15,"wdir":170,"wspd":4,"visib":"6+","altim":1024,"clouds":[{"cover":"BKN","base":800},{"cover":"BKN","base":1100}],"obsTime":1780232400},"SBIL":{"icaoId":"SBIL","flightCategory":"VFR","rawOb":"METAR SBIL 311300Z 27006KT 9999 BKN048 26/22 Q1019","temp":26,"dewp":22,"wdir":270,"wspd":6,"visib":"6+","altim":1019,"clouds":[{"cover":"BKN","base":4800}],"obsTime":1780232400},"SBSV":{"icaoId":"SBSV","flightCategory":"MVFR","rawOb":"METAR SBSV 311300Z 21009KT 180V250 9000 VCSH FEW013 BKN022 FEW025TCU OVC060 25/22 Q1018","temp":25,"dewp":22,"wdir":210,"wspd":9,"visib":5.59,"altim":1018,"clouds":[{"cover":"FEW","base":1300},{"cover":"BKN","base":2200},{"cover":"FEW","base":2500},{"cover":"OVC","base":6000}],"obsTime":1780232400},"SBCT":{"icaoId":"SBCT","flightCategory":"LIFR","rawOb":"METAR SBCT 311300Z 22003KT 150V280 7000 OVC004 13/13 Q1025","temp":13,"dewp":13,"wdir":220,"wspd":3,"visib":4.35,"altim":1025,"clouds":[{"cover":"OVC","base":400}],"obsTime":1780232400},"SBTE":{"icaoId":"SBTE","flightCategory":"VFR","rawOb":"METAR SBTE 311300Z 12009KT 9999 FEW020 30/21 Q1015","temp":30,"dewp":21,"wdir":120,"wspd":9,"visib":"6+","altim":1015,"clouds":[{"cover":"FEW","base":2000}],"obsTime":1780232400},"SBUL":{"icaoId":"SBUL","flightCategory":"VFR","rawOb":"METAR SBUL 311300Z 07005KT 010V120 CAVOK 22/16 Q1024","temp":22,"dewp":16,"wdir":70,"wspd":5,"visib":"6+","altim":1024,"clouds":[],"obsTime":1780232400},"SBCZ":{"icaoId":"SBCZ","flightCategory":"VFR","rawOb":"METAR SBCZ 311300Z 21004KT CAVOK 26/23 Q1017","temp":26,"dewp":23,"wdir":210,"wspd":4,"visib":"6+","altim":1017,"clouds":[],"obsTime":1780232400},"SBUR":{"icaoId":"SBUR","flightCategory":"VFR","rawOb":"METAR SBUR 311300Z 35004KT CAVOK 23/16 Q1022","temp":23,"dewp":16,"wdir":350,"wspd":4,"visib":"6+","altim":1022,"clouds":[],"obsTime":1780232400},"SBJU":{"icaoId":"SBJU","flightCategory":"VFR","rawOb":"METAR SBJU 311300Z 13010KT 9999 FEW022 27/17 Q1018","temp":27,"dewp":17,"wdir":130,"wspd":10,"visib":"6+","altim":1018,"clouds":[{"cover":"FEW","base":2200}],"obsTime":1780232400},"SBKP":{"icaoId":"SBKP","flightCategory":"VFR","rawOb":"METAR SBKP 311300Z 12007KT 080V140 9999 FEW020 20/14 Q1023","temp":20,"dewp":14,"wdir":120,"wspd":7,"visib":"6+","altim":1023,"clouds":[{"cover":"FEW","base":2000}],"obsTime":1780232400},"SBAR":{"icaoId":"SBAR","flightCategory":"VFR","rawOb":"SPECI SBAR 311225Z 16006KT 120V200 9999 3000W SHRA FEW011 SCT023 FEW026TCU 27/24 Q1017","temp":27,"dewp":24,"wdir":160,"wspd":6,"visib":"6+","altim":1017,"clouds":[{"cover":"FEW","base":1100},{"cover":"SCT","base":2300},{"cover":"FEW","base":2600}],"obsTime":1780230300},"SBTU":{"icaoId":"SBTU","flightCategory":"VFR","rawOb":"METAR SBTU 311400Z AUTO 26007KT 230V290 9999 // NCD ///// Q1017","temp":null,"dewp":null,"wdir":260,"wspd":7,"visib":"6+","altim":1017,"clouds":[],"obsTime":1780236000},"SBOI":{"icaoId":"SBOI","flightCategory":"VFR","rawOb":"METAR SBOI 311300Z AUTO VRB03KT 9999 SCT008 26/25 Q1015","temp":26,"dewp":25,"wdir":"VRB","wspd":3,"visib":"6+","altim":1015,"clouds":[{"cover":"SCT","base":800}],"obsTime":1780232400},"SBBH":{"icaoId":"SBBH","flightCategory":"VFR","rawOb":"METAR SBBH 311300Z 12004KT CAVOK 22/15 Q1023","temp":22,"dewp":15,"wdir":120,"wspd":4,"visib":"6+","altim":1023,"clouds":[],"obsTime":1780232400},"SBPB":{"icaoId":"SBPB","flightCategory":"VFR","rawOb":"METAR SBPB 311300Z 12011KT CAVOK 31/24 Q1014","temp":31,"dewp":24,"wdir":120,"wspd":11,"visib":"6+","altim":1014,"clouds":[],"obsTime":1780232400},"SBCJ":{"icaoId":"SBCJ","flightCategory":"VFR","rawOb":"METAR SBCJ 311300Z 09003KT CAVOK 28/18 Q1019","temp":28,"dewp":18,"wdir":90,"wspd":3,"visib":"6+","altim":1019,"clouds":[],"obsTime":1780232400},"SBPL":{"icaoId":"SBPL","flightCategory":"VFR","rawOb":"METAR SBPL 311300Z 11011KT 9999 SCT022 28/19 Q1019","temp":28,"dewp":19,"wdir":110,"wspd":11,"visib":"6+","altim":1019,"clouds":[{"cover":"SCT","base":2200}],"obsTime":1780232400},"SBAU":{"icaoId":"SBAU","flightCategory":"VFR","rawOb":"METAR SBAU 311300Z 10008KT CAVOK 21/15 Q1022","temp":21,"dewp":15,"wdir":100,"wspd":8,"visib":"6+","altim":1022,"clouds":[],"obsTime":1780232400},"SBPP":{"icaoId":"SBPP","flightCategory":"VFR","rawOb":"METAR SBPP 311300Z 09009KT CAVOK 17/16 Q1022","temp":17,"dewp":16,"wdir":90,"wspd":9,"visib":"6+","altim":1022,"clouds":[],"obsTime":1780232400},"SBBQ":{"icaoId":"SBBQ","flightCategory":"LIFR","rawOb":"METAR SBBQ 311300Z 23001KT 1100 BR OVC003 15/15 Q1026","temp":15,"dewp":15,"wdir":230,"wspd":1,"visib":0.68,"altim":1026,"clouds":[{"cover":"OVC","base":300}],"obsTime":1780232400},"SBPS":{"icaoId":"SBPS","flightCategory":"MVFR","rawOb":"METAR SBPS 311300Z 24005KT 180V280 9999 BKN020 25/21 Q1019","temp":25,"dewp":21,"wdir":240,"wspd":5,"visib":"6+","altim":1019,"clouds":[{"cover":"BKN","base":2000}],"obsTime":1780232400},"SBSC":{"icaoId":"SBSC","flightCategory":"MVFR","rawOb":"METAR SBSC 311300Z 19005KT 9999 SCT015 OVC025 23/19 Q1020","temp":23,"dewp":19,"wdir":190,"wspd":5,"visib":"6+","altim":1020,"clouds":[{"cover":"SCT","base":1500},{"cover":"OVC","base":2500}],"obsTime":1780232400},"SBCO":{"icaoId":"SBCO","flightCategory":"IFR","rawOb":"METAR SBCO 311300Z 31004KT 4500 BR BKN007 OVC070 17/16 Q1022","temp":17,"dewp":16,"wdir":310,"wspd":4,"visib":2.8,"altim":1022,"clouds":[{"cover":"BKN","base":700},{"cover":"OVC","base":7000}],"obsTime":1780232400},"SBDN":{"icaoId":"SBDN","flightCategory":"VFR","rawOb":"METAR SBDN 311300Z 09006KT CAVOK 20/15 Q1022","temp":20,"dewp":15,"wdir":90,"wspd":6,"visib":"6+","altim":1022,"clouds":[],"obsTime":1780232400},"SBSJ":{"icaoId":"SBSJ","flightCategory":"VFR","rawOb":"METAR SBSJ 311300Z VRB02KT 9999 SCT015 19/15 Q1023","temp":19,"dewp":15,"wdir":"VRB","wspd":2,"visib":"6+","altim":1023,"clouds":[{"cover":"SCT","base":1500}],"obsTime":1780232400},"SBSM":{"icaoId":"SBSM","flightCategory":"VFR","rawOb":"METAR SBSM 311300Z 28006KT 9999 BKN032 17/14 Q1022","temp":17,"dewp":14,"wdir":280,"wspd":6,"visib":"6+","altim":1022,"clouds":[{"cover":"BKN","base":3200}],"obsTime":1780232400},"SBSR":{"icaoId":"SBSR","flightCategory":"VFR","rawOb":"METAR SBSR 311300Z 12004KT CAVOK 22/15 Q1022","temp":22,"dewp":15,"wdir":120,"wspd":4,"visib":"6+","altim":1022,"clouds":[],"obsTime":1780232400},"SBES":{"icaoId":"SBES","flightCategory":"VFR","rawOb":"METAR SBES 311300Z 24008KT 200V290 9999 FEW020 24/// Q1020","temp":null,"dewp":null,"wdir":240,"wspd":8,"visib":"6+","altim":1020,"clouds":[{"cover":"FEW","base":2000}],"obsTime":1780232400},"SBBU":{"icaoId":"SBBU","flightCategory":"VFR","rawOb":"METAR SBBU 311300Z 14008KT CAVOK 19/16 Q1023","temp":19,"dewp":16,"wdir":140,"wspd":8,"visib":"6+","altim":1023,"clouds":[],"obsTime":1780232400},"SBTF":{"icaoId":"SBTF","flightCategory":"VFR","rawOb":"SPECI SBTF 311228Z 31006KT 9999 SCT008 BKN100 26/25 Q1015","temp":26,"dewp":25,"wdir":310,"wspd":6,"visib":"6+","altim":1015,"clouds":[{"cover":"SCT","base":800},{"cover":"BKN","base":10000}],"obsTime":1780230480},"SBVH":{"icaoId":"SBVH","flightCategory":"VFR","rawOb":"METAR SBVH 311300Z 11010KT CAVOK 25/19 Q1020","temp":25,"dewp":19,"wdir":110,"wspd":10,"visib":"6+","altim":1020,"clouds":[],"obsTime":1780232400},"SBGM":{"icaoId":"SBGM","flightCategory":"VFR","rawOb":"METAR SBGM 311300Z 11007KT CAVOK 26/23 Q1016","temp":26,"dewp":23,"wdir":110,"wspd":7,"visib":"6+","altim":1016,"clouds":[],"obsTime":1780232400},"SBTT":{"icaoId":"SBTT","flightCategory":"VFR","rawOb":"METAR SBTT 311300Z 28004KT 9999 SCT015 24/23 Q1016","temp":24,"dewp":23,"wdir":280,"wspd":4,"visib":"6+","altim":1016,"clouds":[{"cover":"SCT","base":1500}],"obsTime":1780232400},"SBAX":{"icaoId":"SBAX","flightCategory":"VFR","rawOb":"METAR SBAX 311300Z AUTO 36003KT 310V070 CAVOK 22/15 Q1024","temp":22,"dewp":15,"wdir":360,"wspd":3,"visib":"6+","altim":1024,"clouds":[],"obsTime":1780232400},"SBUY":{"icaoId":"SBUY","flightCategory":"VFR","rawOb":"METAR SBUY 311300Z 33001KT 9999 FEW009 SCT090 27/25 Q1014","temp":27,"dewp":25,"wdir":330,"wspd":1,"visib":"6+","altim":1014,"clouds":[{"cover":"FEW","base":900},{"cover":"SCT","base":9000}],"obsTime":1780232400},"SBIP":{"icaoId":"SBIP","flightCategory":"VFR","rawOb":"METAR SBIP 311300Z AUTO 06003KT 020V140 CAVOK 23/17 Q1021","temp":23,"dewp":17,"wdir":60,"wspd":3,"visib":"6+","altim":1021,"clouds":[],"obsTime":1780232400},"SBCA":{"icaoId":"SBCA","flightCategory":"VFR","rawOb":"METAR SBCA 311300Z 13006KT CAVOK 19/16 Q1024","temp":19,"dewp":16,"wdir":130,"wspd":6,"visib":"6+","altim":1024,"clouds":[],"obsTime":1780232400},"SBKG":{"icaoId":"SBKG","flightCategory":"MVFR","rawOb":"METAR SBKG 311300Z 16005KT 9999 BKN017 25/21 Q1019","temp":25,"dewp":21,"wdir":160,"wspd":5,"visib":"6+","altim":1019,"clouds":[{"cover":"BKN","base":1700}],"obsTime":1780232400},"SBCC":{"icaoId":"SBCC","flightCategory":"VFR","rawOb":"METAR SBCC 311300Z 05008KT 9999 FEW025 SCT100 27/19 Q1018","temp":27,"dewp":19,"wdir":50,"wspd":8,"visib":"6+","altim":1018,"clouds":[{"cover":"FEW","base":2500},{"cover":"SCT","base":10000}],"obsTime":1780232400},"SBTA":{"icaoId":"SBTA","flightCategory":"VFR","rawOb":"METAR SBTA 311300Z 23005KT 190V260 9999 FEW020 20/15 Q1022","temp":20,"dewp":15,"wdir":230,"wspd":5,"visib":"6+","altim":1022,"clouds":[{"cover":"FEW","base":2000}],"obsTime":1780232400},"SBLE":{"icaoId":"SBLE","flightCategory":"MVFR","rawOb":"METAR SBLE 311300Z AUTO 13003KT 090V190 9999 BKN011 OVC047 ///// Q////","temp":null,"dewp":null,"wdir":130,"wspd":3,"visib":"6+","altim":null,"clouds":[{"cover":"BKN","base":1100},{"cover":"OVC","base":4700}],"obsTime":1780232400},"SBIH":{"icaoId":"SBIH","flightCategory":"VFR","rawOb":"METAR SBIH 311300Z 02004KT 9999 SCT009 SCT080 28/26 Q1015","temp":28,"dewp":26,"wdir":20,"wspd":4,"visib":"6+","altim":1015,"clouds":[{"cover":"SCT","base":900},{"cover":"SCT","base":8000}],"obsTime":1780232400},"SBJP":{"icaoId":"SBJP","flightCategory":"MVFR","rawOb":"METAR SBJP 311300Z 14009KT 9999 BKN022 29/23 Q1016","temp":29,"dewp":23,"wdir":140,"wspd":9,"visib":"6+","altim":1016,"clouds":[{"cover":"BKN","base":2200}],"obsTime":1780232400},"SBJV":{"icaoId":"SBJV","flightCategory":"VFR","rawOb":"METAR SBJV 311300Z 15002KT 9999 FEW018 19/16 Q1022","temp":19,"dewp":16,"wdir":150,"wspd":2,"visib":"6+","altim":1022,"clouds":[{"cover":"FEW","base":1800}],"obsTime":1780232400},"SBNM":{"icaoId":"SBNM","flightCategory":"IFR","rawOb":"METAR SBNM 311300Z AUTO VRB01KT 9000 -RA FEW004 OVC007 16/15 Q1023","temp":16,"dewp":15,"wdir":"VRB","wspd":1,"visib":5.59,"altim":1023,"clouds":[{"cover":"FEW","base":400},{"cover":"OVC","base":700}],"obsTime":1780232400},"SBPF":{"icaoId":"SBPF","flightCategory":"LIFR","rawOb":"METAR SBPF 311300Z 00000KT 9999 BKN003 14/14 Q1024","temp":14,"dewp":14,"wdir":0,"wspd":0,"visib":"6+","altim":1024,"clouds":[{"cover":"BKN","base":300}],"obsTime":1780232400},"SBAF":{"icaoId":"SBAF","flightCategory":"VFR","rawOb":"METAR SBAF 311300Z 30004KT 9999 FEW015 BKN040 24/22 Q1020","temp":24,"dewp":22,"wdir":300,"wspd":4,"visib":"6+","altim":1020,"clouds":[{"cover":"FEW","base":1500},{"cover":"BKN","base":4000}],"obsTime":1780232400},"SBGW":{"icaoId":"SBGW","flightCategory":"MVFR","rawOb":"METAR SBGW 311300Z 24003KT 180V300 5000 HZ FEW014 OVC030 20/13 Q1022","temp":20,"dewp":13,"wdir":240,"wspd":3,"visib":3.11,"altim":1022,"clouds":[{"cover":"FEW","base":1400},{"cover":"OVC","base":3000}],"obsTime":1780232400},"SBJR":{"icaoId":"SBJR","flightCategory":"MVFR","rawOb":"METAR SBJR 311300Z 26004KT 8000 -DZ FEW008 BKN020 BKN030 24/20 Q1020","temp":24,"dewp":20,"wdir":260,"wspd":4,"visib":4.97,"altim":1020,"clouds":[{"cover":"FEW","base":800},{"cover":"BKN","base":2000},{"cover":"BKN","base":3000}],"obsTime":1780232400},"SBAN":{"icaoId":"SBAN","flightCategory":"VFR","rawOb":"METAR SBAN 311300Z 17010KT 140V200 CAVOK 22/15 Q1024","temp":22,"dewp":15,"wdir":170,"wspd":10,"visib":"6+","altim":1024,"clouds":[],"obsTime":1780232400},"SBLS":{"icaoId":"SBLS","flightCategory":"VFR","rawOb":"METAR SBLS 311300Z 20003KT 130V240 9999 FEW040 21/15 Q1023","temp":21,"dewp":15,"wdir":200,"wspd":3,"visib":"6+","altim":1023,"clouds":[{"cover":"FEW","base":4000}],"obsTime":1780232400},"SBMT":{"icaoId":"SBMT","flightCategory":"MVFR","rawOb":"METAR SBMT 311300Z 12003KT 9999 BKN020 17/13 Q1023","temp":17,"dewp":13,"wdir":120,"wspd":3,"visib":"6+","altim":1023,"clouds":[{"cover":"BKN","base":2000}],"obsTime":1780232400},"SBST":{"icaoId":"SBST","flightCategory":"IFR","rawOb":"METAR SBST 311300Z 04005KT 4000 -RA SCT013 OVC040 19/19 Q1022","temp":19,"dewp":19,"wdir":40,"wspd":5,"visib":2.49,"altim":1022,"clouds":[{"cover":"SCT","base":1300},{"cover":"OVC","base":4000}],"obsTime":1780232400}}}