{"updated":1783032803,"count":83,"data":{"SBSV":{"icaoId":"SBSV","flightCategory":"VFR","rawOb":"METAR SBSV 022100Z 16009KT 9999 SCT020 BKN050 25/22 Q1017","temp":25,"dewp":22,"wdir":160,"wspd":9,"visib":"6+","altim":1017,"clouds":[{"cover":"SCT","base":2000},{"cover":"BKN","base":5000}],"obsTime":1783026000},"SBMQ":{"icaoId":"SBMQ","flightCategory":"VFR","rawOb":"METAR SBMQ 022100Z 03007KT 9999 SCT030 SCT096 29/25 Q1011","temp":29,"dewp":25,"wdir":30,"wspd":7,"visib":"6+","altim":1011,"clouds":[{"cover":"SCT","base":3000},{"cover":"SCT","base":9600}],"obsTime":1783026000},"SBUL":{"icaoId":"SBUL","flightCategory":"VFR","rawOb":"METAR SBUL 022100Z 01003KT 330V040 CAVOK 23/14 Q1023","temp":23,"dewp":14,"wdir":10,"wspd":3,"visib":"6+","altim":1023,"clouds":[],"obsTime":1783026000},"SBUR":{"icaoId":"SBUR","flightCategory":"VFR","rawOb":"METAR SBUR 022100Z 20005KT CAVOK 25/14 Q1022","temp":25,"dewp":14,"wdir":200,"wspd":5,"visib":"6+","altim":1022,"clouds":[],"obsTime":1783026000},"SBRF":{"icaoId":"SBRF","flightCategory":"VFR","rawOb":"METAR SBRF 022100Z 17010KT 9999 SCT025 26/22 Q1015","temp":26,"dewp":22,"wdir":170,"wspd":10,"visib":"6+","altim":1015,"clouds":[{"cover":"SCT","base":2500}],"obsTime":1783026000},"SBVT":{"icaoId":"SBVT","flightCategory":"VFR","rawOb":"METAR SBVT 022100Z 05005KT CAVOK 23/21 Q1019","temp":23,"dewp":21,"wdir":50,"wspd":5,"visib":"6+","altim":1019,"clouds":[],"obsTime":1783026000},"SBBE":{"icaoId":"SBBE","flightCategory":"VFR","rawOb":"METAR SBBE 022100Z 36003KT 9999 SCT040 30/26 Q1011","temp":30,"dewp":26,"wdir":360,"wspd":3,"visib":"6+","altim":1011,"clouds":[{"cover":"SCT","base":4000}],"obsTime":1783026000},"SBKP":{"icaoId":"SBKP","flightCategory":"VFR","rawOb":"METAR SBKP 022100Z 25003KT CAVOK 25/14 Q1021","temp":25,"dewp":14,"wdir":250,"wspd":3,"visib":"6+","altim":1021,"clouds":[],"obsTime":1783026000},"SBLO":{"icaoId":"SBLO","flightCategory":"VFR","rawOb":"METAR SBLO 022100Z 01005KT CAVOK 25/18 Q1020","temp":25,"dewp":18,"wdir":10,"wspd":5,"visib":"6+","altim":1020,"clouds":[],"obsTime":1783026000},"SBGO":{"icaoId":"SBGO","flightCategory":"VFR","rawOb":"METAR SBGO 022100Z 09008KT CAVOK 27/15 Q1020","temp":27,"dewp":15,"wdir":90,"wspd":8,"visib":"6+","altim":1020,"clouds":[],"obsTime":1783026000},"SBFL":{"icaoId":"SBFL","flightCategory":"IFR","rawOb":"METAR SBFL 022100Z 34005KT 4500 -RA BR OVC008 18/18 Q1017","temp":18,"dewp":18,"wdir":340,"wspd":5,"visib":2.8,"altim":1017,"clouds":[{"cover":"OVC","base":800}],"obsTime":1783026000},"SBPJ":{"icaoId":"SBPJ","flightCategory":"VFR","rawOb":"METAR SBPJ 022100Z 12005KT 9999 FEW045 30/14 Q1014","temp":30,"dewp":14,"wdir":120,"wspd":5,"visib":"6+","altim":1014,"clouds":[{"cover":"FEW","base":4500}],"obsTime":1783026000},"SBSG":{"icaoId":"SBSG","flightCategory":"VFR","rawOb":"METAR SBSG 022100Z 14004KT 090V180 CAVOK 25/21 Q1014","temp":25,"dewp":21,"wdir":140,"wspd":4,"visib":"6+","altim":1014,"clouds":[],"obsTime":1783026000},"SBTE":{"icaoId":"SBTE","flightCategory":"VFR","rawOb":"METAR SBTE 022100Z 14005KT CAVOK 33/16 Q1011","temp":33,"dewp":16,"wdir":140,"wspd":5,"visib":"6+","altim":1011,"clouds":[],"obsTime":1783026000},"SBMA":{"icaoId":"SBMA","flightCategory":"VFR","rawOb":"METAR SBMA 022100Z 10003KT CAVOK 32/17 Q1012","temp":32,"dewp":17,"wdir":100,"wspd":3,"visib":"6+","altim":1012,"clouds":[],"obsTime":1783026000},"SBCZ":{"icaoId":"SBCZ","flightCategory":"MVFR","rawOb":"METAR SBCZ 022100Z 12005KT 9999 BKN030 FEW030TCU 27/24 Q1011","temp":27,"dewp":24,"wdir":120,"wspd":5,"visib":"6+","altim":1011,"clouds":[{"cover":"BKN","base":3000},{"cover":"FEW","base":3000}],"obsTime":1783026000},"SBBR":{"icaoId":"SBBR","flightCategory":"VFR","rawOb":"METAR SBBR 022100Z 12007KT 9999 SCT045 23/14 Q1022","temp":23,"dewp":14,"wdir":120,"wspd":7,"visib":"6+","altim":1022,"clouds":[{"cover":"SCT","base":4500}],"obsTime":1783026000},"SBNT":{"icaoId":"SBNT","flightCategory":"VFR","rawOb":"METAR SBNT 022100Z 16007KT 9999 FEW027 SCT043 25/20 Q1014","temp":25,"dewp":20,"wdir":160,"wspd":7,"visib":"6+","altim":1014,"clouds":[{"cover":"FEW","base":2700},{"cover":"SCT","base":4300}],"obsTime":1783026000},"SBSL":{"icaoId":"SBSL","flightCategory":"VFR","rawOb":"METAR SBSL 022100Z 05006KT 9999 FEW027 28/24 Q1012","temp":28,"dewp":24,"wdir":50,"wspd":6,"visib":"6+","altim":1012,"clouds":[{"cover":"FEW","base":2700}],"obsTime":1783026000},"SBFZ":{"icaoId":"SBFZ","flightCategory":"VFR","rawOb":"METAR SBFZ 022100Z 11013KT 9999 FEW030 BKN060 28/22 Q1012","temp":28,"dewp":22,"wdir":110,"wspd":13,"visib":"6+","altim":1012,"clouds":[{"cover":"FEW","base":3000},{"cover":"BKN","base":6000}],"obsTime":1783026000},"SBCT":{"icaoId":"SBCT","flightCategory":"VFR","rawOb":"METAR SBCT 022100Z 34006KT 9999 FEW015 22/16 Q1021","temp":22,"dewp":16,"wdir":340,"wspd":6,"visib":"6+","altim":1021,"clouds":[{"cover":"FEW","base":1500}],"obsTime":1783026000},"SBEG":{"icaoId":"SBEG","flightCategory":"VFR","rawOb":"METAR SBEG 022100Z 11009KT 9999 FEW040 32/23 Q1010","temp":32,"dewp":23,"wdir":110,"wspd":9,"visib":"6+","altim":1010,"clouds":[{"cover":"FEW","base":4000}],"obsTime":1783026000},"SBPV":{"icaoId":"SBPV","flightCategory":"VFR","rawOb":"METAR SBPV 022100Z 10006KT 9999 FEW030 34/19 Q1010","temp":34,"dewp":19,"wdir":100,"wspd":6,"visib":"6+","altim":1010,"clouds":[{"cover":"FEW","base":3000}],"obsTime":1783026000},"SBRB":{"icaoId":"SBRB","flightCategory":"VFR","rawOb":"METAR SBRB 022100Z 12008KT 9999 SCT033 31/21 Q1012","temp":31,"dewp":21,"wdir":120,"wspd":8,"visib":"6+","altim":1012,"clouds":[{"cover":"SCT","base":3300}],"obsTime":1783026000},"SBSN":{"icaoId":"SBSN","flightCategory":"VFR","rawOb":"METAR SBSN 022100Z 09011KT 9999 FEW020 30/23 Q1010","temp":30,"dewp":23,"wdir":90,"wspd":11,"visib":"6+","altim":1010,"clouds":[{"cover":"FEW","base":2000}],"obsTime":1783026000},"SBBV":{"icaoId":"SBBV","flightCategory":"VFR","rawOb":"METAR SBBV 022100Z 10007KT 9999 SCT040 FEW045TCU BKN080 31/21 Q1009","temp":31,"dewp":21,"wdir":100,"wspd":7,"visib":"6+","altim":1009,"clouds":[{"cover":"SCT","base":4000},{"cover":"FEW","base":4500},{"cover":"BKN","base":8000}],"obsTime":1783026000},"SBCP":{"icaoId":"SBCP","flightCategory":"VFR","rawOb":"METAR SBCP 022100Z 08008KT CAVOK 23/20 Q1019","temp":23,"dewp":20,"wdir":80,"wspd":8,"visib":"6+","altim":1019,"clouds":[],"obsTime":1783026000},"SBPA":{"icaoId":"SBPA","flightCategory":"IFR","rawOb":"METAR SBPA 022100Z 22009KT 170V260 3500 -DZ BR OVC009 11/11 Q1023 WS R29","temp":11,"dewp":11,"wdir":220,"wspd":9,"visib":2.17,"altim":1023,"clouds":[{"cover":"OVC","base":900}],"obsTime":1783026000},"SBGL":{"icaoId":"SBGL","flightCategory":"VFR","rawOb":"METAR SBGL 022100Z 13007KT CAVOK 24/20 Q1018","temp":24,"dewp":20,"wdir":130,"wspd":7,"visib":"6+","altim":1018,"clouds":[],"obsTime":1783026000},"SBGR":{"icaoId":"SBGR","flightCategory":"VFR","rawOb":"METAR SBGR 022100Z 32005KT CAVOK 23/14 Q1022","temp":23,"dewp":14,"wdir":320,"wspd":5,"visib":"6+","altim":1022,"clouds":[],"obsTime":1783026000},"SBCG":{"icaoId":"SBCG","flightCategory":"VFR","rawOb":"METAR SBCG 022100Z 24013KT 9999 SCT049 24/20 Q1020","temp":24,"dewp":20,"wdir":240,"wspd":13,"visib":"6+","altim":1020,"clouds":[{"cover":"SCT","base":4900}],"obsTime":1783026000},"SBFI":{"icaoId":"SBFI","flightCategory":"LIFR","rawOb":"METAR SBFI 022100Z 22009KT 5000 BR BKN004 SCT015 14/14 Q1022","temp":14,"dewp":14,"wdir":220,"wspd":9,"visib":3.11,"altim":1022,"clouds":[{"cover":"BKN","base":400},{"cover":"SCT","base":1500}],"obsTime":1783026000},"SBMG":{"icaoId":"SBMG","flightCategory":"VFR","rawOb":"METAR SBMG 022100Z 03006KT CAVOK 24/17 Q1019","temp":24,"dewp":17,"wdir":30,"wspd":6,"visib":"6+","altim":1019,"clouds":[],"obsTime":1783026000},"SBME":{"icaoId":"SBME","flightCategory":"VFR","rawOb":"METAR SBME 022100Z 11004KT CAVOK 24/21 Q1018","temp":24,"dewp":21,"wdir":110,"wspd":4,"visib":"6+","altim":1018,"clouds":[],"obsTime":1783026000},"SBMK":{"icaoId":"SBMK","flightCategory":"VFR","rawOb":"METAR SBMK 022100Z 08006KT CAVOK 24/12 Q1015","temp":24,"dewp":12,"wdir":80,"wspd":6,"visib":"6+","altim":1015,"clouds":[],"obsTime":1783026000},"SBMO":{"icaoId":"SBMO","flightCategory":"VFR","rawOb":"METAR SBMO 022100Z 17005KT CAVOK 25/20 Q1016","temp":25,"dewp":20,"wdir":170,"wspd":5,"visib":"6+","altim":1016,"clouds":[],"obsTime":1783026000},"SBSP":{"icaoId":"SBSP","flightCategory":"VFR","rawOb":"METAR SBSP 022100Z 32007KT 280V340 CAVOK 24/13 Q1023","temp":24,"dewp":13,"wdir":320,"wspd":7,"visib":"6+","altim":1023,"clouds":[],"obsTime":1783026000},"SBCF":{"icaoId":"SBCF","flightCategory":"VFR","rawOb":"METAR SBCF 022100Z 10008KT CAVOK 23/14 Q1023","temp":23,"dewp":14,"wdir":100,"wspd":8,"visib":"6+","altim":1023,"clouds":[],"obsTime":1783026000},"SBIL":{"icaoId":"SBIL","flightCategory":"VFR","rawOb":"METAR SBIL 022100Z 21006KT 9999 FEW025 25/22 Q1019","temp":25,"dewp":22,"wdir":210,"wspd":6,"visib":"6+","altim":1019,"clouds":[{"cover":"FEW","base":2500}],"obsTime":1783026000},"SBJU":{"icaoId":"SBJU","flightCategory":"VFR","rawOb":"METAR SBJU 022100Z 18003KT CAVOK 28/11 Q1015","temp":28,"dewp":11,"wdir":180,"wspd":3,"visib":"6+","altim":1015,"clouds":[],"obsTime":1783026000},"SBAT":{"icaoId":"SBAT","flightCategory":"VFR","rawOb":"METAR SBAT 022100Z 16004KT 9999 SCT040 33/16 Q1013","temp":33,"dewp":16,"wdir":160,"wspd":4,"visib":"6+","altim":1013,"clouds":[{"cover":"SCT","base":4000}],"obsTime":1783026000},"SBHT":{"icaoId":"SBHT","flightCategory":"VFR","rawOb":"METAR SBHT 022100Z 00000KT CAVOK 31/23 Q1011","temp":31,"dewp":23,"wdir":0,"wspd":0,"visib":"6+","altim":1011,"clouds":[],"obsTime":1783026000},"SBCR":{"icaoId":"SBCR","flightCategory":"MVFR","rawOb":"METAR SBCR 022100Z 20010G20KT 9999 BKN010 15/13 Q1022","temp":15,"dewp":13,"wdir":200,"wspd":10,"visib":"6+","altim":1022,"clouds":[{"cover":"BKN","base":1000}],"obsTime":1783026000},"SBCB":{"icaoId":"SBCB","flightCategory":"VFR","rawOb":"METAR SBCB 022100Z 12003KT CAVOK 22/20 Q1019","temp":22,"dewp":20,"wdir":120,"wspd":3,"visib":"6+","altim":1019,"clouds":[],"obsTime":1783026000},"SBPS":{"icaoId":"SBPS","flightCategory":"IFR","rawOb":"METAR SBPS 022100Z COR 17003KT 9999 -RA BKN005 OVC015 23/22 Q1020","temp":23,"dewp":22,"wdir":170,"wspd":3,"visib":"6+","altim":1020,"clouds":[{"cover":"BKN","base":500},{"cover":"OVC","base":1500}],"obsTime":1783026000},"SBPL":{"icaoId":"SBPL","flightCategory":"VFR","rawOb":"METAR SBPL 022100Z 12006KT CAVOK 29/12 Q1016","temp":29,"dewp":12,"wdir":120,"wspd":6,"visib":"6+","altim":1016,"clouds":[],"obsTime":1783026000},"SBUY":{"icaoId":"SBUY","flightCategory":"VFR","rawOb":"METAR SBUY 022100Z 19002KT 9999 SCT025 FEW030TCU 30/24 Q1008","temp":30,"dewp":24,"wdir":190,"wspd":2,"visib":"6+","altim":1008,"clouds":[{"cover":"SCT","base":2500},{"cover":"FEW","base":3000}],"obsTime":1783026000},"SBSJ":{"icaoId":"SBSJ","flightCategory":"VFR","rawOb":"METAR SBSJ 022100Z 16002KT CAVOK 23/15 Q1021","temp":23,"dewp":15,"wdir":160,"wspd":2,"visib":"6+","altim":1021,"clouds":[],"obsTime":1783026000},"SBTT":{"icaoId":"SBTT","flightCategory":"VFR","rawOb":"METAR SBTT 022100Z 20008KT 170V240 9999 VCSH FEW017 FEW024TCU 29/24 Q1011","temp":29,"dewp":24,"wdir":200,"wspd":8,"visib":"6+","altim":1011,"clouds":[{"cover":"FEW","base":1700},{"cover":"FEW","base":2400}],"obsTime":1783026000},"SBOI":{"icaoId":"SBOI","flightCategory":"VFR","rawOb":"METAR SBOI 022100Z AUTO 11004KT 070V150 CAVOK 29/23 Q1012","temp":29,"dewp":23,"wdir":110,"wspd":4,"visib":"6+","altim":1012,"clouds":[],"obsTime":1783026000},"SBVH":{"icaoId":"SBVH","flightCategory":"VFR","rawOb":"METAR SBVH 022100Z 11007KT CAVOK 27/17 Q1017","temp":27,"dewp":17,"wdir":110,"wspd":7,"visib":"6+","altim":1017,"clouds":[],"obsTime":1783026000},"SBKG":{"icaoId":"SBKG","flightCategory":"VFR","rawOb":"METAR SBKG 022100Z 14006KT CAVOK 23/16 Q1017","temp":23,"dewp":16,"wdir":140,"wspd":6,"visib":"6+","altim":1017,"clouds":[],"obsTime":1783026000},"SBCA":{"icaoId":"SBCA","flightCategory":"LIFR","rawOb":"METAR SBCA 022100Z 26006KT 0500 FG OVC001 17/16 Q1022","temp":17,"dewp":16,"wdir":260,"wspd":6,"visib":0.31,"altim":1022,"clouds":[{"cover":"OVC","base":100}],"obsTime":1783026000},"SBCO":{"icaoId":"SBCO","flightCategory":"IFR","rawOb":"METAR SBCO 022100Z 22008KT 190V250 6000 -RA BKN007 OVC011 11/10 Q1023","temp":11,"dewp":10,"wdir":220,"wspd":8,"visib":3.73,"altim":1023,"clouds":[{"cover":"BKN","base":700},{"cover":"OVC","base":1100}],"obsTime":1783026000},"SBSM":{"icaoId":"SBSM","flightCategory":"IFR","rawOb":"METAR SBSM 022100Z 26004KT 3000 -RADZ BKN005 OVC013 09/09 Q1026","temp":9,"dewp":9,"wdir":260,"wspd":4,"visib":1.86,"altim":1026,"clouds":[{"cover":"BKN","base":500},{"cover":"OVC","base":1300}],"obsTime":1783026000},"SBAX":{"icaoId":"SBAX","flightCategory":"VFR","rawOb":"METAR SBAX 022200Z 31002KT CAVOK 23/13 Q1023","temp":23,"dewp":13,"wdir":310,"wspd":2,"visib":"6+","altim":1023,"clouds":[],"obsTime":1783029600},"SBBH":{"icaoId":"SBBH","flightCategory":"VFR","rawOb":"METAR SBBH 022100Z 08003KT CAVOK 22/13 Q1022","temp":22,"dewp":13,"wdir":80,"wspd":3,"visib":"6+","altim":1022,"clouds":[],"obsTime":1783026000},"SBBU":{"icaoId":"SBBU","flightCategory":"VFR","rawOb":"METAR SBBU 022100Z 02002KT CAVOK 27/12 Q1020","temp":27,"dewp":12,"wdir":20,"wspd":2,"visib":"6+","altim":1020,"clouds":[],"obsTime":1783026000},"SBDN":{"icaoId":"SBDN","flightCategory":"VFR","rawOb":"METAR SBDN 022100Z 18003KT CAVOK 27/16 Q1019","temp":27,"dewp":16,"wdir":180,"wspd":3,"visib":"6+","altim":1019,"clouds":[],"obsTime":1783026000},"SBIP":{"icaoId":"SBIP","flightCategory":"VFR","rawOb":"METAR SBIP 022100Z AUTO VRB01KT CAVOK 19/16 Q1020","temp":19,"dewp":16,"wdir":"VRB","wspd":1,"visib":"6+","altim":1020,"clouds":[],"obsTime":1783026000},"SBSC":{"icaoId":"SBSC","flightCategory":"VFR","rawOb":"METAR SBSC 022100Z 20004KT CAVOK 22/20 Q1018","temp":22,"dewp":20,"wdir":200,"wspd":4,"visib":"6+","altim":1018,"clouds":[],"obsTime":1783026000},"SBSR":{"icaoId":"SBSR","flightCategory":"VFR","rawOb":"METAR SBSR 022100Z 03003KT CAVOK 27/09 Q1020","temp":27,"dewp":9,"wdir":30,"wspd":3,"visib":"6+","altim":1020,"clouds":[],"obsTime":1783026000},"SBAR":{"icaoId":"SBAR","flightCategory":"MVFR","rawOb":"METAR SBAR 022100Z 27003KT 9999 VCSH FEW015 OVC029 23/22 Q1017","temp":23,"dewp":22,"wdir":270,"wspd":3,"visib":"6+","altim":1017,"clouds":[{"cover":"FEW","base":1500},{"cover":"OVC","base":2900}],"obsTime":1783026000},"SBES":{"icaoId":"SBES","flightCategory":"VFR","rawOb":"METAR SBES 022100Z VRB02KT CAVOK 20/// Q1019","temp":null,"dewp":null,"wdir":"VRB","wspd":2,"visib":"6+","altim":1019,"clouds":[],"obsTime":1783026000},"SBTU":{"icaoId":"SBTU","flightCategory":"VFR","rawOb":"METAR SBTU 022100Z AUTO 02004KT 9999 // NCD 29/20 Q1013","temp":29,"dewp":20,"wdir":20,"wspd":4,"visib":"6+","altim":1013,"clouds":[],"obsTime":1783026000},"SBTF":{"icaoId":"SBTF","flightCategory":"VFR","rawOb":"METAR SBTF 022100Z 18009KT 9999 SCT017 FEW025TCU 31/25 Q1009","temp":31,"dewp":25,"wdir":180,"wspd":9,"visib":"6+","altim":1009,"clouds":[{"cover":"SCT","base":1700},{"cover":"FEW","base":2500}],"obsTime":1783026000},"SBPB":{"icaoId":"SBPB","flightCategory":"MVFR","rawOb":"METAR SBPB 022100Z 04010KT 9999 BKN016 BKN090 28/23 Q1012","temp":28,"dewp":23,"wdir":40,"wspd":10,"visib":"6+","altim":1012,"clouds":[{"cover":"BKN","base":1600},{"cover":"BKN","base":9000}],"obsTime":1783026000},"SBCJ":{"icaoId":"SBCJ","flightCategory":"VFR","rawOb":"METAR SBCJ 022100Z VRB02KT CAVOK 24/17 Q1016","temp":24,"dewp":17,"wdir":"VRB","wspd":2,"visib":"6+","altim":1016,"clouds":[],"obsTime":1783026000},"SBPP":{"icaoId":"SBPP","flightCategory":"LIFR","rawOb":"METAR SBPP 022100Z 23008KT 0000 FG VV000 14/14 Q1022","temp":14,"dewp":14,"wdir":230,"wspd":8,"visib":0,"altim":1022,"clouds":[{"cover":"OVX","base":0}],"obsTime":1783026000},"SBNM":{"icaoId":"SBNM","flightCategory":"LIFR","rawOb":"METAR SBNM 022100Z AUTO 19010KT 9999 BKN004 OVC009 10/09 Q1025","temp":10,"dewp":9,"wdir":190,"wspd":10,"visib":"6+","altim":1025,"clouds":[{"cover":"BKN","base":400},{"cover":"OVC","base":900}],"obsTime":1783026000},"SBAF":{"icaoId":"SBAF","flightCategory":"VFR","rawOb":"METAR SBAF 022100Z 22005KT CAVOK 24/20 Q1018","temp":24,"dewp":20,"wdir":220,"wspd":5,"visib":"6+","altim":1018,"clouds":[],"obsTime":1783026000},"SBGW":{"icaoId":"SBGW","flightCategory":"VFR","rawOb":"METAR SBGW 022100Z 33002KT CAVOK 21/13 Q1021","temp":21,"dewp":13,"wdir":330,"wspd":2,"visib":"6+","altim":1021,"clouds":[],"obsTime":1783026000},"SBJR":{"icaoId":"SBJR","flightCategory":"VFR","rawOb":"METAR SBJR 022100Z 24002KT CAVOK 21/18 Q1018","temp":21,"dewp":18,"wdir":240,"wspd":2,"visib":"6+","altim":1018,"clouds":[],"obsTime":1783026000},"SBLS":{"icaoId":"SBLS","flightCategory":"VFR","rawOb":"METAR SBLS 022100Z 13005KT CAVOK 21/14 Q1022","temp":21,"dewp":14,"wdir":130,"wspd":5,"visib":"6+","altim":1022,"clouds":[],"obsTime":1783026000},"SBMT":{"icaoId":"SBMT","flightCategory":"VFR","rawOb":"METAR SBMT 022100Z 33003KT 300V360 CAVOK 19/14 Q1022","temp":19,"dewp":14,"wdir":330,"wspd":3,"visib":"6+","altim":1022,"clouds":[],"obsTime":1783026000},"SBPF":{"icaoId":"SBPF","flightCategory":"LIFR","rawOb":"METAR SBPF 022100Z 17004KT 9000 -DZ OVC003 10/09 Q1022","temp":10,"dewp":9,"wdir":170,"wspd":4,"visib":5.59,"altim":1022,"clouds":[{"cover":"OVC","base":300}],"obsTime":1783026000},"SBTA":{"icaoId":"SBTA","flightCategory":"VFR","rawOb":"METAR SBTA 022100Z 00000KT CAVOK 20/17 Q1020","temp":20,"dewp":17,"wdir":0,"wspd":0,"visib":"6+","altim":1020,"clouds":[],"obsTime":1783026000},"SBLE":{"icaoId":"SBLE","flightCategory":"VFR","rawOb":"METAR SBLE 022100Z AUTO 35001KT CAVOK ///// Q1019","temp":null,"dewp":null,"wdir":350,"wspd":1,"visib":"6+","altim":1019,"clouds":[],"obsTime":1783026000},"SBJV":{"icaoId":"SBJV","flightCategory":"MVFR","rawOb":"METAR SBJV 022100Z 36004KT 9999 BKN010 BKN030 19/18 Q1017","temp":19,"dewp":18,"wdir":360,"wspd":4,"visib":"6+","altim":1017,"clouds":[{"cover":"BKN","base":1000},{"cover":"BKN","base":3000}],"obsTime":1783026000},"SBAN":{"icaoId":"SBAN","flightCategory":"VFR","rawOb":"METAR SBAN 022100Z 13004KT CAVOK 21/14 Q1023","temp":21,"dewp":14,"wdir":130,"wspd":4,"visib":"6+","altim":1023,"clouds":[],"obsTime":1783026000},"SBJP":{"icaoId":"SBJP","flightCategory":"VFR","rawOb":"METAR SBJP 022100Z 14006KT CAVOK 25/21 Q1015","temp":25,"dewp":21,"wdir":140,"wspd":6,"visib":"6+","altim":1015,"clouds":[],"obsTime":1783026000},"SBIH":{"icaoId":"SBIH","flightCategory":"VFR","rawOb":"METAR SBIH 022100Z 04004KT 9999 FEW020 33/24 Q1009","temp":33,"dewp":24,"wdir":40,"wspd":4,"visib":"6+","altim":1009,"clouds":[{"cover":"FEW","base":2000}],"obsTime":1783026000},"SBST":{"icaoId":"SBST","flightCategory":"IFR","rawOb":"METAR SBST 022100Z 24003KT 4000 BR NSC 20/19 Q1018","temp":20,"dewp":19,"wdir":240,"wspd":3,"visib":2.49,"altim":1018,"clouds":[],"obsTime":1783026000}}}