{"updated":1784671202,"count":83,"data":{"SBFZ":{"icaoId":"SBFZ","flightCategory":"MVFR","rawOb":"METAR SBFZ 212000Z 10015KT 9999 BKN020 27/23 Q1012","temp":27,"dewp":23,"wdir":100,"wspd":15,"visib":"6+","altim":1012,"clouds":[{"cover":"BKN","base":2000}],"obsTime":1784664000},"SBME":{"icaoId":"SBME","flightCategory":"VFR","rawOb":"METAR SBME 212000Z 05018KT 9999 FEW030 26/19 Q1014","temp":26,"dewp":19,"wdir":50,"wspd":18,"visib":"6+","altim":1014,"clouds":[{"cover":"FEW","base":3000}],"obsTime":1784664000},"SBEG":{"icaoId":"SBEG","flightCategory":"VFR","rawOb":"METAR SBEG 212000Z 10011KT 9999 SCT030 32/23 Q1009","temp":32,"dewp":23,"wdir":100,"wspd":11,"visib":"6+","altim":1009,"clouds":[{"cover":"SCT","base":3000}],"obsTime":1784664000},"SBBR":{"icaoId":"SBBR","flightCategory":"VFR","rawOb":"METAR SBBR 212000Z 08006KT CAVOK 26/08 Q1018","temp":26,"dewp":8,"wdir":80,"wspd":6,"visib":"6+","altim":1018,"clouds":[],"obsTime":1784664000},"SBMK":{"icaoId":"SBMK","flightCategory":"VFR","rawOb":"METAR SBMK 212000Z 36003KT 9999 SCT040 27/10 Q1016","temp":27,"dewp":10,"wdir":360,"wspd":3,"visib":"6+","altim":1016,"clouds":[{"cover":"SCT","base":4000}],"obsTime":1784664000},"SBMO":{"icaoId":"SBMO","flightCategory":"VFR","rawOb":"METAR SBMO 212000Z 10009KT 9999 SCT021 25/22 Q1014","temp":25,"dewp":22,"wdir":100,"wspd":9,"visib":"6+","altim":1014,"clouds":[{"cover":"SCT","base":2100}],"obsTime":1784664000},"SBUL":{"icaoId":"SBUL","flightCategory":"VFR","rawOb":"METAR SBUL 212000Z 09005KT 030V110 CAVOK 25/08 Q1017","temp":25,"dewp":8,"wdir":90,"wspd":5,"visib":"6+","altim":1017,"clouds":[],"obsTime":1784664000},"SBUR":{"icaoId":"SBUR","flightCategory":"VFR","rawOb":"METAR SBUR 212000Z 02003KT CAVOK 27/08 Q1015","temp":27,"dewp":8,"wdir":20,"wspd":3,"visib":"6+","altim":1015,"clouds":[],"obsTime":1784664000},"SBSL":{"icaoId":"SBSL","flightCategory":"MVFR","rawOb":"METAR SBSL 212000Z 05011KT 9999 BKN017 BKN100 27/25 Q1010","temp":27,"dewp":25,"wdir":50,"wspd":11,"visib":"6+","altim":1010,"clouds":[{"cover":"BKN","base":1700},{"cover":"BKN","base":10000}],"obsTime":1784664000},"SBCB":{"icaoId":"SBCB","flightCategory":"VFR","rawOb":"METAR SBCB 212000Z 09011KT CAVOK 25/19 Q1013","temp":25,"dewp":19,"wdir":90,"wspd":11,"visib":"6+","altim":1013,"clouds":[],"obsTime":1784664000},"SBMG":{"icaoId":"SBMG","flightCategory":"VFR","rawOb":"METAR SBMG 212000Z 36016KT CAVOK 30/14 Q1009","temp":30,"dewp":14,"wdir":360,"wspd":16,"visib":"6+","altim":1009,"clouds":[],"obsTime":1784664000},"SBPV":{"icaoId":"SBPV","flightCategory":"VFR","rawOb":"METAR SBPV 212000Z 04006KT 310V080 9999 SCT045 34/20 Q1008","temp":34,"dewp":20,"wdir":40,"wspd":6,"visib":"6+","altim":1008,"clouds":[{"cover":"SCT","base":4500}],"obsTime":1784664000},"SBSV":{"icaoId":"SBSV","flightCategory":"VFR","rawOb":"METAR SBSV 212000Z 09013KT 9000 VCSH SCT009 SCT023 FEW025TCU BKN050 24/22 Q1015","temp":24,"dewp":22,"wdir":90,"wspd":13,"visib":5.59,"altim":1015,"clouds":[{"cover":"SCT","base":900},{"cover":"SCT","base":2300},{"cover":"FEW","base":2500},{"cover":"BKN","base":5000}],"obsTime":1784664000},"SBMQ":{"icaoId":"SBMQ","flightCategory":"VFR","rawOb":"METAR SBMQ 212000Z 06009KT 9999 SCT019 FEW033TCU BKN100 28/26 Q1010","temp":28,"dewp":26,"wdir":60,"wspd":9,"visib":"6+","altim":1010,"clouds":[{"cover":"SCT","base":1900},{"cover":"FEW","base":3300},{"cover":"BKN","base":10000}],"obsTime":1784664000},"SBGL":{"icaoId":"SBGL","flightCategory":"VFR","rawOb":"METAR SBGL 212000Z 07006KT CAVOK 29/13 Q1012","temp":29,"dewp":13,"wdir":70,"wspd":6,"visib":"6+","altim":1012,"clouds":[],"obsTime":1784664000},"SBAT":{"icaoId":"SBAT","flightCategory":"VFR","rawOb":"METAR SBAT 212000Z 06005KT CAVOK 34/18 Q1010","temp":34,"dewp":18,"wdir":60,"wspd":5,"visib":"6+","altim":1010,"clouds":[],"obsTime":1784664000},"SBBV":{"icaoId":"SBBV","flightCategory":"VFR","rawOb":"METAR SBBV 212000Z 06004KT 9999 SCT040 FEW045TCU 31/23 Q1008","temp":31,"dewp":23,"wdir":60,"wspd":4,"visib":"6+","altim":1008,"clouds":[{"cover":"SCT","base":4000},{"cover":"FEW","base":4500}],"obsTime":1784664000},"SBRB":{"icaoId":"SBRB","flightCategory":"VFR","rawOb":"METAR SBRB 212000Z 01009KT 9999 SCT040 33/22 Q1008","temp":33,"dewp":22,"wdir":10,"wspd":9,"visib":"6+","altim":1008,"clouds":[{"cover":"SCT","base":4000}],"obsTime":1784664000},"SBCR":{"icaoId":"SBCR","flightCategory":"VFR","rawOb":"METAR SBCR 212000Z 03010KT 350V050 9999 FEW040 34/19 Q1006","temp":34,"dewp":19,"wdir":30,"wspd":10,"visib":"6+","altim":1006,"clouds":[{"cover":"FEW","base":4000}],"obsTime":1784664000},"SBCZ":{"icaoId":"SBCZ","flightCategory":"MVFR","rawOb":"METAR SBCZ 212000Z 24007KT 6000 -RA BKN030 29/26 Q1008","temp":29,"dewp":26,"wdir":240,"wspd":7,"visib":3.73,"altim":1008,"clouds":[{"cover":"BKN","base":3000}],"obsTime":1784664000},"SBHT":{"icaoId":"SBHT","flightCategory":"VFR","rawOb":"METAR SBHT 212000Z 16002KT 9999 SCT030 32/23 Q1009","temp":32,"dewp":23,"wdir":160,"wspd":2,"visib":"6+","altim":1009,"clouds":[{"cover":"SCT","base":3000}],"obsTime":1784664000},"SBNT":{"icaoId":"SBNT","flightCategory":"IFR","rawOb":"METAR SBNT 212000Z 14011KT 110V170 3000 RA BR BKN007 BKN015 FEW025TCU BKN040 23/22 Q1014","temp":23,"dewp":22,"wdir":140,"wspd":11,"visib":1.86,"altim":1014,"clouds":[{"cover":"BKN","base":700},{"cover":"BKN","base":1500},{"cover":"FEW","base":2500},{"cover":"BKN","base":4000}],"obsTime":1784664000},"SBRF":{"icaoId":"SBRF","flightCategory":"VFR","rawOb":"METAR SBRF 212000Z 14004KT 100V170 9999 SCT020 BKN050 25/22 Q1014","temp":25,"dewp":22,"wdir":140,"wspd":4,"visib":"6+","altim":1014,"clouds":[{"cover":"SCT","base":2000},{"cover":"BKN","base":5000}],"obsTime":1784664000},"SBFL":{"icaoId":"SBFL","flightCategory":"VFR","rawOb":"METAR SBFL 212000Z 13004KT 090V170 CAVOK 22/19 Q1008","temp":22,"dewp":19,"wdir":130,"wspd":4,"visib":"6+","altim":1008,"clouds":[],"obsTime":1784664000},"SBPA":{"icaoId":"SBPA","flightCategory":"IFR","rawOb":"METAR SBPA 212000Z VRB02KT 4000 TSRA BR BKN008 FEW035CB BKN040 20/20 Q1008 RETSRA","temp":20,"dewp":20,"wdir":"VRB","wspd":2,"visib":2.49,"altim":1008,"clouds":[{"cover":"BKN","base":800},{"cover":"FEW","base":3500},{"cover":"BKN","base":4000}],"obsTime":1784664000},"SBBE":{"icaoId":"SBBE","flightCategory":"VFR","rawOb":"METAR SBBE 212000Z 05011KT 9999 FEW040 FEW045TCU 29/24 Q1010","temp":29,"dewp":24,"wdir":50,"wspd":11,"visib":"6+","altim":1010,"clouds":[{"cover":"FEW","base":4000},{"cover":"FEW","base":4500}],"obsTime":1784664000},"SBGO":{"icaoId":"SBGO","flightCategory":"VFR","rawOb":"METAR SBGO 212000Z 13005KT 070V160 CAVOK 30/10 Q1015","temp":30,"dewp":10,"wdir":130,"wspd":5,"visib":"6+","altim":1015,"clouds":[],"obsTime":1784664000},"SBKP":{"icaoId":"SBKP","flightCategory":"VFR","rawOb":"METAR SBKP 212000Z 35006KT CAVOK 27/10 Q1015","temp":27,"dewp":10,"wdir":350,"wspd":6,"visib":"6+","altim":1015,"clouds":[],"obsTime":1784664000},"SBTE":{"icaoId":"SBTE","flightCategory":"VFR","rawOb":"METAR SBTE 212000Z 05005KT 9999 FEW040 SCT070 33/20 Q1009","temp":33,"dewp":20,"wdir":50,"wspd":5,"visib":"6+","altim":1009,"clouds":[{"cover":"FEW","base":4000},{"cover":"SCT","base":7000}],"obsTime":1784664000},"SBCG":{"icaoId":"SBCG","flightCategory":"VFR","rawOb":"METAR SBCG 212000Z 33011KT CAVOK 30/16 Q1011","temp":30,"dewp":16,"wdir":330,"wspd":11,"visib":"6+","altim":1011,"clouds":[],"obsTime":1784664000},"SBPJ":{"icaoId":"SBPJ","flightCategory":"VFR","rawOb":"METAR SBPJ 212000Z 26004KT 220V300 CAVOK 33/18 Q1011","temp":33,"dewp":18,"wdir":260,"wspd":4,"visib":"6+","altim":1011,"clouds":[],"obsTime":1784664000},"SBMA":{"icaoId":"SBMA","flightCategory":"VFR","rawOb":"METAR SBMA 212000Z 07004KT 9999 FEW025 33/18 Q1009","temp":33,"dewp":18,"wdir":70,"wspd":4,"visib":"6+","altim":1009,"clouds":[{"cover":"FEW","base":2500}],"obsTime":1784664000},"SBCT":{"icaoId":"SBCT","flightCategory":"VFR","rawOb":"METAR SBCT 212000Z 32012KT CAVOK 24/14 Q1014","temp":24,"dewp":14,"wdir":320,"wspd":12,"visib":"6+","altim":1014,"clouds":[],"obsTime":1784664000},"SBVT":{"icaoId":"SBVT","flightCategory":"VFR","rawOb":"METAR SBVT 212000Z 36008KT 9999 FEW026 BKN037 22/19 Q1017","temp":22,"dewp":19,"wdir":360,"wspd":8,"visib":"6+","altim":1017,"clouds":[{"cover":"FEW","base":2600},{"cover":"BKN","base":3700}],"obsTime":1784664000},"SBGR":{"icaoId":"SBGR","flightCategory":"VFR","rawOb":"METAR SBGR 212000Z 32009KT CAVOK 26/10 Q1015","temp":26,"dewp":10,"wdir":320,"wspd":9,"visib":"6+","altim":1015,"clouds":[],"obsTime":1784664000},"SBCF":{"icaoId":"SBCF","flightCategory":"VFR","rawOb":"METAR SBCF 212000Z 01002KT 9999 FEW043 24/12 Q1018","temp":24,"dewp":12,"wdir":10,"wspd":2,"visib":"6+","altim":1018,"clouds":[{"cover":"FEW","base":4300}],"obsTime":1784664000},"SBSG":{"icaoId":"SBSG","flightCategory":"IFR","rawOb":"METAR SBSG 212000Z 12007KT 100V160 3000 -RA BR SCT004 BKN010 23/23 Q1014","temp":23,"dewp":23,"wdir":120,"wspd":7,"visib":1.86,"altim":1014,"clouds":[{"cover":"SCT","base":400},{"cover":"BKN","base":1000}],"obsTime":1784664000},"SBIL":{"icaoId":"SBIL","flightCategory":"VFR","rawOb":"METAR SBIL 212000Z 11011KT 9999 VCSH SCT020 FEW025TCU BKN045 25/23 Q1017","temp":25,"dewp":23,"wdir":110,"wspd":11,"visib":"6+","altim":1017,"clouds":[{"cover":"SCT","base":2000},{"cover":"FEW","base":2500},{"cover":"BKN","base":4500}],"obsTime":1784664000},"SBCP":{"icaoId":"SBCP","flightCategory":"VFR","rawOb":"METAR SBCP 212000Z 07016KT CAVOK 24/19 Q1015","temp":24,"dewp":19,"wdir":70,"wspd":16,"visib":"6+","altim":1015,"clouds":[],"obsTime":1784664000},"SBJU":{"icaoId":"SBJU","flightCategory":"MVFR","rawOb":"METAR SBJU 212000Z 13005KT 9999 BKN020 31/16 Q1013","temp":31,"dewp":16,"wdir":130,"wspd":5,"visib":"6+","altim":1013,"clouds":[{"cover":"BKN","base":2000}],"obsTime":1784664000},"SBSN":{"icaoId":"SBSN","flightCategory":"VFR","rawOb":"METAR SBSN 212000Z 06008KT 9999 FEW028 31/24 Q1009","temp":31,"dewp":24,"wdir":60,"wspd":8,"visib":"6+","altim":1009,"clouds":[{"cover":"FEW","base":2800}],"obsTime":1784664000},"SBLO":{"icaoId":"SBLO","flightCategory":"VFR","rawOb":"METAR SBLO 212000Z 01011KT CAVOK 28/14 Q1012","temp":28,"dewp":14,"wdir":10,"wspd":11,"visib":"6+","altim":1012,"clouds":[],"obsTime":1784664000},"SBSP":{"icaoId":"SBSP","flightCategory":"VFR","rawOb":"METAR SBSP 212000Z 33009KT CAVOK 25/09 Q1016","temp":25,"dewp":9,"wdir":330,"wspd":9,"visib":"6+","altim":1016,"clouds":[],"obsTime":1784664000},"SBFI":{"icaoId":"SBFI","flightCategory":"VFR","rawOb":"METAR SBFI 212000Z 36006KT 9999 FEW030 BKN100 29/21 Q1004","temp":29,"dewp":21,"wdir":360,"wspd":6,"visib":"6+","altim":1004,"clouds":[{"cover":"FEW","base":3000},{"cover":"BKN","base":10000}],"obsTime":1784664000},"SBPS":{"icaoId":"SBPS","flightCategory":"VFR","rawOb":"METAR SBPS 212100Z 08007KT 9999 SCT025 24/20 Q1017","temp":24,"dewp":20,"wdir":80,"wspd":7,"visib":"6+","altim":1017,"clouds":[{"cover":"SCT","base":2500}],"obsTime":1784667600},"SBTT":{"icaoId":"SBTT","flightCategory":"VFR","rawOb":"METAR SBTT 212100Z 36007KT 330V030 9999 SCT020 FEW025TCU 28/23 Q1008","temp":28,"dewp":23,"wdir":360,"wspd":7,"visib":"6+","altim":1008,"clouds":[{"cover":"SCT","base":2000},{"cover":"FEW","base":2500}],"obsTime":1784667600},"SBPL":{"icaoId":"SBPL","flightCategory":"VFR","rawOb":"METAR SBPL 212100Z 13006KT CAVOK 28/17 Q1014","temp":28,"dewp":17,"wdir":130,"wspd":6,"visib":"6+","altim":1014,"clouds":[],"obsTime":1784667600},"SBUY":{"icaoId":"SBUY","flightCategory":"VFR","rawOb":"METAR SBUY 212100Z 10003KT 9999 FEW025 SCT100 32/23 Q1006","temp":32,"dewp":23,"wdir":100,"wspd":3,"visib":"6+","altim":1006,"clouds":[{"cover":"FEW","base":2500},{"cover":"SCT","base":10000}],"obsTime":1784667600},"SBOI":{"icaoId":"SBOI","flightCategory":"VFR","rawOb":"METAR SBOI 212100Z AUTO 11004KT 070V150 CAVOK 30/23 Q1011","temp":30,"dewp":23,"wdir":110,"wspd":4,"visib":"6+","altim":1011,"clouds":[],"obsTime":1784667600},"SBSJ":{"icaoId":"SBSJ","flightCategory":"VFR","rawOb":"METAR SBSJ 212100Z 35003KT 290V060 CAVOK 23/09 Q1015","temp":23,"dewp":9,"wdir":350,"wspd":3,"visib":"6+","altim":1015,"clouds":[],"obsTime":1784667600},"SBAR":{"icaoId":"SBAR","flightCategory":"VFR","rawOb":"METAR SBAR 212100Z 09007KT 9999 FEW020 BKN050 26/21 Q1015","temp":26,"dewp":21,"wdir":90,"wspd":7,"visib":"6+","altim":1015,"clouds":[{"cover":"FEW","base":2000},{"cover":"BKN","base":5000}],"obsTime":1784667600},"SBPB":{"icaoId":"SBPB","flightCategory":"MVFR","rawOb":"METAR SBPB 212100Z 06015KT 9999 BKN016 BKN080 26/24 Q1011","temp":26,"dewp":24,"wdir":60,"wspd":15,"visib":"6+","altim":1011,"clouds":[{"cover":"BKN","base":1600},{"cover":"BKN","base":8000}],"obsTime":1784667600},"SBCJ":{"icaoId":"SBCJ","flightCategory":"VFR","rawOb":"METAR SBCJ 212100Z 06004KT 030V100 9999 FEW030 27/18 Q1014","temp":27,"dewp":18,"wdir":60,"wspd":4,"visib":"6+","altim":1014,"clouds":[{"cover":"FEW","base":3000}],"obsTime":1784667600},"SBBH":{"icaoId":"SBBH","flightCategory":"VFR","rawOb":"METAR SBBH 212100Z 10006KT CAVOK 22/15 Q1018","temp":22,"dewp":15,"wdir":100,"wspd":6,"visib":"6+","altim":1018,"clouds":[],"obsTime":1784667600},"SBBU":{"icaoId":"SBBU","flightCategory":"VFR","rawOb":"METAR SBBU 212100Z 01004KT CAVOK 28/12 Q1014","temp":28,"dewp":12,"wdir":10,"wspd":4,"visib":"6+","altim":1014,"clouds":[],"obsTime":1784667600},"SBDN":{"icaoId":"SBDN","flightCategory":"VFR","rawOb":"METAR SBDN 212100Z 02005KT CAVOK 28/13 Q1011","temp":28,"dewp":13,"wdir":20,"wspd":5,"visib":"6+","altim":1011,"clouds":[],"obsTime":1784667600},"SBIP":{"icaoId":"SBIP","flightCategory":"VFR","rawOb":"METAR SBIP 212100Z AUTO 00000KT CAVOK 21/19 Q1016","temp":21,"dewp":19,"wdir":0,"wspd":0,"visib":"6+","altim":1016,"clouds":[],"obsTime":1784667600},"SBSC":{"icaoId":"SBSC","flightCategory":"VFR","rawOb":"METAR SBSC 212100Z 04004KT CAVOK 26/15 Q1011","temp":26,"dewp":15,"wdir":40,"wspd":4,"visib":"6+","altim":1011,"clouds":[],"obsTime":1784667600},"SBSR":{"icaoId":"SBSR","flightCategory":"VFR","rawOb":"METAR SBSR 212100Z 03002KT CAVOK 28/09 Q1014","temp":28,"dewp":9,"wdir":30,"wspd":2,"visib":"6+","altim":1014,"clouds":[],"obsTime":1784667600},"SBVH":{"icaoId":"SBVH","flightCategory":"VFR","rawOb":"METAR SBVH 212100Z 01011KT 9999 FEW030 30/19 Q1011","temp":30,"dewp":19,"wdir":10,"wspd":11,"visib":"6+","altim":1011,"clouds":[{"cover":"FEW","base":3000}],"obsTime":1784667600},"SBES":{"icaoId":"SBES","flightCategory":"VFR","rawOb":"METAR SBES 212100Z 05013KT 020V080 CAVOK 23/// Q1014","temp":null,"dewp":null,"wdir":50,"wspd":13,"visib":"6+","altim":1014,"clouds":[],"obsTime":1784667600},"SBTU":{"icaoId":"SBTU","flightCategory":"VFR","rawOb":"METAR SBTU 212100Z AUTO 28004KT 9999 // NCD 30/20 Q1012","temp":30,"dewp":20,"wdir":280,"wspd":4,"visib":"6+","altim":1012,"clouds":[],"obsTime":1784667600},"SBTF":{"icaoId":"SBTF","flightCategory":"VFR","rawOb":"METAR SBTF 212100Z 34006KT 9999 FEW018 SCT100 30/26 Q1007","temp":30,"dewp":26,"wdir":340,"wspd":6,"visib":"6+","altim":1007,"clouds":[{"cover":"FEW","base":1800},{"cover":"SCT","base":10000}],"obsTime":1784667600},"SBPP":{"icaoId":"SBPP","flightCategory":"VFR","rawOb":"METAR SBPP 212100Z 36014KT CAVOK 27/17 Q1009","temp":27,"dewp":17,"wdir":360,"wspd":14,"visib":"6+","altim":1009,"clouds":[],"obsTime":1784667600},"SBKG":{"icaoId":"SBKG","flightCategory":"VFR","rawOb":"METAR SBKG 212100Z 11006KT CAVOK 21/20 Q1016","temp":21,"dewp":20,"wdir":110,"wspd":6,"visib":"6+","altim":1016,"clouds":[],"obsTime":1784667600},"SBCA":{"icaoId":"SBCA","flightCategory":"VFR","rawOb":"METAR SBCA 212100Z 36012KT 9999 FEW035 SCT080 26/17 Q1010","temp":26,"dewp":17,"wdir":360,"wspd":12,"visib":"6+","altim":1010,"clouds":[{"cover":"FEW","base":3500},{"cover":"SCT","base":8000}],"obsTime":1784667600},"SBCO":{"icaoId":"SBCO","flightCategory":"IFR","rawOb":"METAR SBCO 212100Z 06016KT 2000 -TSRA BR BKN008 SCT015 FEW030CB BKN100 20/19 Q1005","temp":20,"dewp":19,"wdir":60,"wspd":16,"visib":1.24,"altim":1005,"clouds":[{"cover":"BKN","base":800},{"cover":"SCT","base":1500},{"cover":"FEW","base":3000},{"cover":"BKN","base":10000}],"obsTime":1784667600},"SBSM":{"icaoId":"SBSM","flightCategory":"LIFR","rawOb":"METAR SBSM 212100Z 23002KT 4000 BR BKN003 OVC013 17/17 Q1008","temp":17,"dewp":17,"wdir":230,"wspd":2,"visib":2.49,"altim":1008,"clouds":[{"cover":"BKN","base":300},{"cover":"OVC","base":1300}],"obsTime":1784667600},"SBAX":{"icaoId":"SBAX","flightCategory":"VFR","rawOb":"METAR SBAX 212100Z AUTO 06003KT 030V090 CAVOK 22/09 Q1018","temp":22,"dewp":9,"wdir":60,"wspd":3,"visib":"6+","altim":1018,"clouds":[],"obsTime":1784667600},"SBNM":{"icaoId":"SBNM","flightCategory":"MVFR","rawOb":"METAR SBNM 212100Z AUTO 04005KT 350V080 6000 TSRA OVC045 //////CB 18/17 Q1006","temp":18,"dewp":17,"wdir":40,"wspd":5,"visib":3.73,"altim":1006,"clouds":[{"cover":"OVC","base":4500}],"obsTime":1784667600},"SBLE":{"icaoId":"SBLE","flightCategory":"VFR","rawOb":"METAR SBLE 212100Z AUTO 17004KT 130V210 9999 -RA BKN041 22/22 Q1017","temp":22,"dewp":22,"wdir":170,"wspd":4,"visib":"6+","altim":1017,"clouds":[{"cover":"BKN","base":4100}],"obsTime":1784667600},"SBAN":{"icaoId":"SBAN","flightCategory":"VFR","rawOb":"METAR SBAN 212100Z 34003KT CAVOK 24/09 Q1018","temp":24,"dewp":9,"wdir":340,"wspd":3,"visib":"6+","altim":1018,"clouds":[],"obsTime":1784667600},"SBJV":{"icaoId":"SBJV","flightCategory":"VFR","rawOb":"METAR SBJV 212100Z 18004KT CAVOK 23/19 Q1008","temp":23,"dewp":19,"wdir":180,"wspd":4,"visib":"6+","altim":1008,"clouds":[],"obsTime":1784667600},"SBPF":{"icaoId":"SBPF","flightCategory":"VFR","rawOb":"METAR SBPF 212100Z 09008KT 9999 -TSRA SCT015 FEW045CB BKN070 18/18 Q1009","temp":18,"dewp":18,"wdir":90,"wspd":8,"visib":"6+","altim":1009,"clouds":[{"cover":"SCT","base":1500},{"cover":"FEW","base":4500},{"cover":"BKN","base":7000}],"obsTime":1784667600},"SBAF":{"icaoId":"SBAF","flightCategory":"VFR","rawOb":"METAR SBAF 212100Z 09003KT CAVOK 28/12 Q1012","temp":28,"dewp":12,"wdir":90,"wspd":3,"visib":"6+","altim":1012,"clouds":[],"obsTime":1784667600},"SBGW":{"icaoId":"SBGW","flightCategory":"VFR","rawOb":"METAR SBGW 212100Z 02004KT CAVOK 24/09 Q1015","temp":24,"dewp":9,"wdir":20,"wspd":4,"visib":"6+","altim":1015,"clouds":[],"obsTime":1784667600},"SBJR":{"icaoId":"SBJR","flightCategory":"VFR","rawOb":"METAR SBJR 212100Z 25003KT CAVOK 24/15 Q1011","temp":24,"dewp":15,"wdir":250,"wspd":3,"visib":"6+","altim":1011,"clouds":[],"obsTime":1784667600},"SBLS":{"icaoId":"SBLS","flightCategory":"VFR","rawOb":"METAR SBLS 212100Z 14006KT 9999 BKN048 22/15 Q1018","temp":22,"dewp":15,"wdir":140,"wspd":6,"visib":"6+","altim":1018,"clouds":[{"cover":"BKN","base":4800}],"obsTime":1784667600},"SBMT":{"icaoId":"SBMT","flightCategory":"VFR","rawOb":"METAR SBMT 212100Z 30004KT 250V020 CAVOK 24/10 Q1015","temp":24,"dewp":10,"wdir":300,"wspd":4,"visib":"6+","altim":1015,"clouds":[],"obsTime":1784667600},"SBST":{"icaoId":"SBST","flightCategory":"VFR","rawOb":"METAR SBST 212100Z 16003KT 120V200 CAVOK 23/16 Q1009","temp":23,"dewp":16,"wdir":160,"wspd":3,"visib":"6+","altim":1009,"clouds":[],"obsTime":1784667600},"SBTA":{"icaoId":"SBTA","flightCategory":"VFR","rawOb":"METAR SBTA 212100Z 33007KT 300V360 CAVOK 25/07 Q1014","temp":25,"dewp":7,"wdir":330,"wspd":7,"visib":"6+","altim":1014,"clouds":[],"obsTime":1784667600},"SBJP":{"icaoId":"SBJP","flightCategory":"VFR","rawOb":"METAR SBJP 212100Z 14006KT 9999 SCT020 BKN070 25/22 Q1014","temp":25,"dewp":22,"wdir":140,"wspd":6,"visib":"6+","altim":1014,"clouds":[{"cover":"SCT","base":2000},{"cover":"BKN","base":7000}],"obsTime":1784667600},"SBIH":{"icaoId":"SBIH","flightCategory":"VFR","rawOb":"METAR SBIH 212100Z 07005KT 9999 FEW020 32/22 Q1009","temp":32,"dewp":22,"wdir":70,"wspd":5,"visib":"6+","altim":1009,"clouds":[{"cover":"FEW","base":2000}],"obsTime":1784667600}}}