{"updated":1774400591,"count":65,"data":{"SBBE":{"icaoId":"SBBE","flightCategory":"VFR","rawOb":"METAR SBBE 250000Z 07003KT CAVOK 25/22 Q1010","temp":25,"dewp":22,"wdir":70,"wspd":3,"visib":"6+","altim":1010,"clouds":[],"obsTime":1774396800},"SBSV":{"icaoId":"SBSV","flightCategory":"VFR","rawOb":"METAR SBSV 250000Z 36002KT 9999 FEW017 BKN050 25/21 Q1013","temp":25,"dewp":21,"wdir":360,"wspd":2,"visib":"6+","altim":1013,"clouds":[{"cover":"FEW","base":1700},{"cover":"BKN","base":5000}],"obsTime":1774396800},"SBSP":{"icaoId":"SBSP","flightCategory":"VFR","rawOb":"METAR SBSP 250000Z 16005KT CAVOK 20/19 Q1016","temp":20,"dewp":19,"wdir":160,"wspd":5,"visib":"6+","altim":1016,"clouds":[],"obsTime":1774396800},"SBLO":{"icaoId":"SBLO","flightCategory":"VFR","rawOb":"METAR SBLO 250000Z 26003KT 210V290 9999 FEW035 24/23 Q1012","temp":24,"dewp":23,"wdir":260,"wspd":3,"visib":"6+","altim":1012,"clouds":[{"cover":"FEW","base":3500}],"obsTime":1774396800},"SBMA":{"icaoId":"SBMA","flightCategory":"VFR","rawOb":"METAR SBMA 250000Z 15006KT 9999 -RA FEW010 OVC070 25/23 Q1011","temp":25,"dewp":23,"wdir":150,"wspd":6,"visib":"6+","altim":1011,"clouds":[{"cover":"FEW","base":1000},{"cover":"OVC","base":7000}],"obsTime":1774396800},"SBCG":{"icaoId":"SBCG","flightCategory":"VFR","rawOb":"METAR SBCG 250000Z 08002KT 9999 FEW040 FEW050TCU BKN100 23/22 Q1013","temp":23,"dewp":22,"wdir":80,"wspd":2,"visib":"6+","altim":1013,"clouds":[{"cover":"FEW","base":4000},{"cover":"FEW","base":5000},{"cover":"BKN","base":10000}],"obsTime":1774396800},"SBBR":{"icaoId":"SBBR","flightCategory":"VFR","rawOb":"METAR SBBR 250000Z 36004KT CAVOK 19/18 Q1017","temp":19,"dewp":18,"wdir":360,"wspd":4,"visib":"6+","altim":1017,"clouds":[],"obsTime":1774396800},"SBFI":{"icaoId":"SBFI","flightCategory":"VFR","rawOb":"METAR SBFI 250000Z 23002KT 9999 FEW030 FEW040TCU 26/25 Q1010","temp":26,"dewp":25,"wdir":230,"wspd":2,"visib":"6+","altim":1010,"clouds":[{"cover":"FEW","base":3000},{"cover":"FEW","base":4000}],"obsTime":1774396800},"SBFL":{"icaoId":"SBFL","flightCategory":"MVFR","rawOb":"METAR SBFL 250000Z 11007KT 9999 FEW015 BKN026 23/22 Q1012","temp":23,"dewp":22,"wdir":110,"wspd":7,"visib":"6+","altim":1012,"clouds":[{"cover":"FEW","base":1500},{"cover":"BKN","base":2600}],"obsTime":1774396800},"SBMO":{"icaoId":"SBMO","flightCategory":"VFR","rawOb":"METAR SBMO 250000Z 35002KT 9999 FEW020 25/23 Q1013","temp":25,"dewp":23,"wdir":350,"wspd":2,"visib":"6+","altim":1013,"clouds":[{"cover":"FEW","base":2000}],"obsTime":1774396800},"SBVT":{"icaoId":"SBVT","flightCategory":"VFR","rawOb":"METAR SBVT 250000Z 35003KT 9999 FEW010 SCT100 25/23 Q1014","temp":25,"dewp":23,"wdir":350,"wspd":3,"visib":"6+","altim":1014,"clouds":[{"cover":"FEW","base":1000},{"cover":"SCT","base":10000}],"obsTime":1774396800},"SBFZ":{"icaoId":"SBFZ","flightCategory":"VFR","rawOb":"METAR SBFZ 250000Z 09007KT 9999 FEW017 28/24 Q1010","temp":28,"dewp":24,"wdir":90,"wspd":7,"visib":"6+","altim":1010,"clouds":[{"cover":"FEW","base":1700}],"obsTime":1774396800},"SBMQ":{"icaoId":"SBMQ","flightCategory":"VFR","rawOb":"METAR SBMQ 250000Z 02008KT CAVOK 27/24 Q1010","temp":27,"dewp":24,"wdir":20,"wspd":8,"visib":"6+","altim":1010,"clouds":[],"obsTime":1774396800},"SBBV":{"icaoId":"SBBV","flightCategory":"VFR","rawOb":"METAR SBBV 250000Z 12011KT 9999 FEW035 FEW045TCU 32/21 Q1008","temp":32,"dewp":21,"wdir":120,"wspd":11,"visib":"6+","altim":1008,"clouds":[{"cover":"FEW","base":3500},{"cover":"FEW","base":4500}],"obsTime":1774396800},"SBGL":{"icaoId":"SBGL","flightCategory":"VFR","rawOb":"METAR SBGL 250000Z 12005KT CAVOK 27/23 Q1011","temp":27,"dewp":23,"wdir":120,"wspd":5,"visib":"6+","altim":1011,"clouds":[],"obsTime":1774396800},"SBPA":{"icaoId":"SBPA","flightCategory":"MVFR","rawOb":"METAR SBPA 250000Z 12009KT 9999 BKN025 22/18 Q1013","temp":22,"dewp":18,"wdir":120,"wspd":9,"visib":"6+","altim":1013,"clouds":[{"cover":"BKN","base":2500}],"obsTime":1774396800},"SBCT":{"icaoId":"SBCT","flightCategory":"IFR","rawOb":"SPECI SBCT 242330Z 10006KT 080V140 9999 BKN009 20/20 Q1016","temp":20,"dewp":20,"wdir":100,"wspd":6,"visib":"6+","altim":1016,"clouds":[{"cover":"BKN","base":900}],"obsTime":1774395000},"SBPJ":{"icaoId":"SBPJ","flightCategory":"VFR","rawOb":"METAR SBPJ 250000Z 10003KT 9999 VCTS SCT020 FEW027CB BKN050 26/24 Q1013","temp":26,"dewp":24,"wdir":100,"wspd":3,"visib":"6+","altim":1013,"clouds":[{"cover":"SCT","base":2000},{"cover":"FEW","base":2700},{"cover":"BKN","base":5000}],"obsTime":1774396800},"SBPV":{"icaoId":"SBPV","flightCategory":"VFR","rawOb":"METAR SBPV 250000Z 16009KT 9999 FEW030 FEW035TCU 27/21 Q1007","temp":27,"dewp":21,"wdir":160,"wspd":9,"visib":"6+","altim":1007,"clouds":[{"cover":"FEW","base":3000},{"cover":"FEW","base":3500}],"obsTime":1774396800},"SBCF":{"icaoId":"SBCF","flightCategory":"VFR","rawOb":"METAR SBCF 250000Z 13003KT 9999 FEW040 SCT100 21/17 Q1017","temp":21,"dewp":17,"wdir":130,"wspd":3,"visib":"6+","altim":1017,"clouds":[{"cover":"FEW","base":4000},{"cover":"SCT","base":10000}],"obsTime":1774396800},"SBRB":{"icaoId":"SBRB","flightCategory":"MVFR","rawOb":"METAR SBRB 250000Z 36003KT 8000 VCTS SCT035 FEW040CB BKN100 27/26 Q1007","temp":27,"dewp":26,"wdir":360,"wspd":3,"visib":4.97,"altim":1007,"clouds":[{"cover":"SCT","base":3500},{"cover":"FEW","base":4000},{"cover":"BKN","base":10000}],"obsTime":1774396800},"SBGO":{"icaoId":"SBGO","flightCategory":"VFR","rawOb":"METAR SBGO 250000Z VRB02KT CAVOK 22/20 Q1015","temp":22,"dewp":20,"wdir":"VRB","wspd":2,"visib":"6+","altim":1015,"clouds":[],"obsTime":1774396800},"SBEG":{"icaoId":"SBEG","flightCategory":"MVFR","rawOb":"SPECI SBEG 242327Z 05010KT 7000 -TSRA SCT018 FEW030CB 27/25 Q1008","temp":27,"dewp":25,"wdir":50,"wspd":10,"visib":4.35,"altim":1008,"clouds":[{"cover":"SCT","base":1800},{"cover":"FEW","base":3000}],"obsTime":1774394820},"SBRF":{"icaoId":"SBRF","flightCategory":"VFR","rawOb":"METAR SBRF 250000Z 09006KT 050V130 9999 SCT023 29/23 Q1012","temp":29,"dewp":23,"wdir":90,"wspd":6,"visib":"6+","altim":1012,"clouds":[{"cover":"SCT","base":2300}],"obsTime":1774396800},"SBSG":{"icaoId":"SBSG","flightCategory":"VFR","rawOb":"METAR SBSG 250000Z 10004KT 9999 FEW023 26/23 Q1012","temp":26,"dewp":23,"wdir":100,"wspd":4,"visib":"6+","altim":1012,"clouds":[{"cover":"FEW","base":2300}],"obsTime":1774396800},"SBGR":{"icaoId":"SBGR","flightCategory":"VFR","rawOb":"METAR SBGR 250000Z 21002KT CAVOK 21/19 Q1016","temp":21,"dewp":19,"wdir":210,"wspd":2,"visib":"6+","altim":1016,"clouds":[],"obsTime":1774396800},"SBSL":{"icaoId":"SBSL","flightCategory":"VFR","rawOb":"METAR SBSL 250000Z 06006KT 9999 SCT030 BKN080 27/24 Q1011","temp":27,"dewp":24,"wdir":60,"wspd":6,"visib":"6+","altim":1011,"clouds":[{"cover":"SCT","base":3000},{"cover":"BKN","base":8000}],"obsTime":1774396800},"SBKP":{"icaoId":"SBKP","flightCategory":"VFR","rawOb":"METAR SBKP 250000Z 12011KT CAVOK 24/19 Q1013","temp":24,"dewp":19,"wdir":120,"wspd":11,"visib":"6+","altim":1013,"clouds":[],"obsTime":1774396800},"SBTE":{"icaoId":"SBTE","flightCategory":"VFR","rawOb":"METAR SBTE 250000Z 17005KT 9999 VCTS SCT015 FEW030CB BKN090 25/23 Q1010","temp":25,"dewp":23,"wdir":170,"wspd":5,"visib":"6+","altim":1010,"clouds":[{"cover":"SCT","base":1500},{"cover":"FEW","base":3000},{"cover":"BKN","base":9000}],"obsTime":1774396800},"SBSN":{"icaoId":"SBSN","flightCategory":"VFR","rawOb":"METAR SBSN 250000Z 09008KT CAVOK 29/26 Q1009","temp":29,"dewp":26,"wdir":90,"wspd":8,"visib":"6+","altim":1009,"clouds":[],"obsTime":1774396800},"SBCZ":{"icaoId":"SBCZ","flightCategory":"VFR","rawOb":"METAR SBCZ 250000Z 00000KT 9999 FEW030 26/25 Q1006","temp":26,"dewp":25,"wdir":0,"wspd":0,"visib":"6+","altim":1006,"clouds":[{"cover":"FEW","base":3000}],"obsTime":1774396800},"SBIL":{"icaoId":"SBIL","flightCategory":"VFR","rawOb":"METAR SBIL 250000Z 28005KT 9999 SCT020 BKN070 24/24 Q1013","temp":24,"dewp":24,"wdir":280,"wspd":5,"visib":"6+","altim":1013,"clouds":[{"cover":"SCT","base":2000},{"cover":"BKN","base":7000}],"obsTime":1774396800},"SBJU":{"icaoId":"SBJU","flightCategory":"MVFR","rawOb":"METAR SBJU 250000Z 24003KT 9999 BKN019 23/22 Q1014","temp":23,"dewp":22,"wdir":240,"wspd":3,"visib":"6+","altim":1014,"clouds":[{"cover":"BKN","base":1900}],"obsTime":1774396800},"SBME":{"icaoId":"SBME","flightCategory":"VFR","rawOb":"METAR SBME 250000Z 07010KT CAVOK 26/22 Q1012","temp":26,"dewp":22,"wdir":70,"wspd":10,"visib":"6+","altim":1012,"clouds":[],"obsTime":1774396800},"SBMG":{"icaoId":"SBMG","flightCategory":"LIFR","rawOb":"METAR SBMG 250000Z 26004KT 0600 R10/1800U FG VV001 22/22 Q1012","temp":22,"dewp":22,"wdir":260,"wspd":4,"visib":0.37,"altim":1012,"clouds":[{"cover":"OVX","base":100}],"obsTime":1774396800},"SBMK":{"icaoId":"SBMK","flightCategory":"VFR","rawOb":"METAR SBMK 250000Z 05004KT CAVOK 24/21 Q1016","temp":24,"dewp":21,"wdir":50,"wspd":4,"visib":"6+","altim":1016,"clouds":[],"obsTime":1774396800},"SBNT":{"icaoId":"SBNT","flightCategory":"VFR","rawOb":"METAR SBNT 250000Z 11007KT 9999 FEW023 27/23 Q1012","temp":27,"dewp":23,"wdir":110,"wspd":7,"visib":"6+","altim":1012,"clouds":[{"cover":"FEW","base":2300}],"obsTime":1774396800},"SBUL":{"icaoId":"SBUL","flightCategory":"VFR","rawOb":"METAR SBUL 250000Z 02003KT CAVOK 21/18 Q1016","temp":21,"dewp":18,"wdir":20,"wspd":3,"visib":"6+","altim":1016,"clouds":[],"obsTime":1774396800},"SBUR":{"icaoId":"SBUR","flightCategory":"VFR","rawOb":"METAR SBUR 250000Z COR 35004KT CAVOK 21/20 Q1015","temp":21,"dewp":20,"wdir":350,"wspd":4,"visib":"6+","altim":1015,"clouds":[],"obsTime":1774396800},"SBPL":{"icaoId":"SBPL","flightCategory":"VFR","rawOb":"METAR SBPL 250000Z 33003KT 9999 FEW020 SCT070 25/23 Q1012","temp":25,"dewp":23,"wdir":330,"wspd":3,"visib":"6+","altim":1012,"clouds":[{"cover":"FEW","base":2000},{"cover":"SCT","base":7000}],"obsTime":1774396800},"SBSJ":{"icaoId":"SBSJ","flightCategory":"IFR","rawOb":"METAR SBSJ 250000Z 08009KT 3000 -RA BR SCT045 BKN100 22/19 Q1014","temp":22,"dewp":19,"wdir":80,"wspd":9,"visib":1.86,"altim":1014,"clouds":[{"cover":"SCT","base":4500},{"cover":"BKN","base":10000}],"obsTime":1774396800},"SBAR":{"icaoId":"SBAR","flightCategory":"VFR","rawOb":"METAR SBAR 250000Z 09010KT 9999 FEW020 28/24 Q1012","temp":28,"dewp":24,"wdir":90,"wspd":10,"visib":"6+","altim":1012,"clouds":[{"cover":"FEW","base":2000}],"obsTime":1774396800},"SBPS":{"icaoId":"SBPS","flightCategory":"VFR","rawOb":"METAR SBPS 250000Z 09001KT 9999 FEW020 BKN100 24/23 Q1014","temp":24,"dewp":23,"wdir":90,"wspd":1,"visib":"6+","altim":1014,"clouds":[{"cover":"FEW","base":2000},{"cover":"BKN","base":10000}],"obsTime":1774396800},"SBAX":{"icaoId":"SBAX","flightCategory":"VFR","rawOb":"METAR SBAX 250000Z 32003KT 9999 FEW025 SCT040 21/21 Q1017","temp":21,"dewp":21,"wdir":320,"wspd":3,"visib":"6+","altim":1017,"clouds":[{"cover":"FEW","base":2500},{"cover":"SCT","base":4000}],"obsTime":1774396800},"SBES":{"icaoId":"SBES","flightCategory":"VFR","rawOb":"METAR SBES 250000Z 05012KT 010V080 CAVOK 25/// Q1012","temp":null,"dewp":null,"wdir":50,"wspd":12,"visib":"6+","altim":1012,"clouds":[],"obsTime":1774396800},"SBIP":{"icaoId":"SBIP","flightCategory":"VFR","rawOb":"METAR SBIP 250000Z AUTO 00000KT CAVOK 21/21 Q1015","temp":21,"dewp":21,"wdir":0,"wspd":0,"visib":"6+","altim":1015,"clouds":[],"obsTime":1774396800},"SBKG":{"icaoId":"SBKG","flightCategory":"VFR","rawOb":"METAR SBKG 250000Z 10010KT CAVOK 24/20 Q1015","temp":24,"dewp":20,"wdir":100,"wspd":10,"visib":"6+","altim":1015,"clouds":[],"obsTime":1774396800},"SBOI":{"icaoId":"SBOI","flightCategory":"VFR","rawOb":"METAR SBOI 250000Z AUTO 03003KT 360V060 9999 // FEW005/// 24/23 Q1012","temp":24,"dewp":23,"wdir":30,"wspd":3,"visib":"6+","altim":1012,"clouds":[{"cover":"FEW","base":500}],"obsTime":1774396800},"SBSC":{"icaoId":"SBSC","flightCategory":"VFR","rawOb":"METAR SBSC 250000Z 22003KT CAVOK 25/22 Q1011","temp":25,"dewp":22,"wdir":220,"wspd":3,"visib":"6+","altim":1011,"clouds":[],"obsTime":1774396800},"SBSM":{"icaoId":"SBSM","flightCategory":"VFR","rawOb":"METAR SBSM 250000Z 11008KT 9999 SCT035 SCT100 22/20 Q1012","temp":22,"dewp":20,"wdir":110,"wspd":8,"visib":"6+","altim":1012,"clouds":[{"cover":"SCT","base":3500},{"cover":"SCT","base":10000}],"obsTime":1774396800},"SBSR":{"icaoId":"SBSR","flightCategory":"VFR","rawOb":"METAR SBSR 250000Z 24005KT 9999 SCT030 BKN070 22/19 Q1012 RETS","temp":22,"dewp":19,"wdir":240,"wspd":5,"visib":"6+","altim":1012,"clouds":[{"cover":"SCT","base":3000},{"cover":"BKN","base":7000}],"obsTime":1774396800},"SBBH":{"icaoId":"SBBH","flightCategory":"VFR","rawOb":"METAR SBBH 250000Z 10001KT CAVOK 21/18 Q1017","temp":21,"dewp":18,"wdir":100,"wspd":1,"visib":"6+","altim":1017,"clouds":[],"obsTime":1774396800},"SBBU":{"icaoId":"SBBU","flightCategory":"VFR","rawOb":"METAR SBBU 250000Z 00000KT CAVOK 28/16 Q1012","temp":28,"dewp":16,"wdir":0,"wspd":0,"visib":"6+","altim":1012,"clouds":[],"obsTime":1774396800},"SBCO":{"icaoId":"SBCO","flightCategory":"MVFR","rawOb":"METAR SBCO 250000Z 12007KT 9999 BKN023 BKN040 22/19 Q1013","temp":22,"dewp":19,"wdir":120,"wspd":7,"visib":"6+","altim":1013,"clouds":[{"cover":"BKN","base":2300},{"cover":"BKN","base":4000}],"obsTime":1774396800},"SBDN":{"icaoId":"SBDN","flightCategory":"VFR","rawOb":"METAR SBDN 250000Z 15002KT 9999 VCTS FEW050CB 23/21 Q1012","temp":23,"dewp":21,"wdir":150,"wspd":2,"visib":"6+","altim":1012,"clouds":[{"cover":"FEW","base":5000}],"obsTime":1774396800},"SBTT":{"icaoId":"SBTT","flightCategory":"MVFR","rawOb":"SPECI SBTT 242343Z 00000KT 8000 FEW024 BKN090 28/23 Q1006","temp":28,"dewp":23,"wdir":0,"wspd":0,"visib":4.97,"altim":1006,"clouds":[{"cover":"FEW","base":2400},{"cover":"BKN","base":9000}],"obsTime":1774395780},"SBJP":{"icaoId":"SBJP","flightCategory":"VFR","rawOb":"METAR SBJP 250000Z 09004KT CAVOK 27/22 Q1013","temp":27,"dewp":22,"wdir":90,"wspd":4,"visib":"6+","altim":1013,"clouds":[],"obsTime":1774396800},"SBJV":{"icaoId":"SBJV","flightCategory":"MVFR","rawOb":"METAR SBJV 250000Z 00000KT 9999 BKN025 24/24 Q1012","temp":24,"dewp":24,"wdir":0,"wspd":0,"visib":"6+","altim":1012,"clouds":[{"cover":"BKN","base":2500}],"obsTime":1774396800},"SBAN":{"icaoId":"SBAN","flightCategory":"VFR","rawOb":"METAR SBAN 250000Z 16004KT 9999 VCTS FEW010 FEW040CB 19/18 Q1017","temp":19,"dewp":18,"wdir":160,"wspd":4,"visib":"6+","altim":1017,"clouds":[{"cover":"FEW","base":1000},{"cover":"FEW","base":4000}],"obsTime":1774396800},"SBLE":{"icaoId":"SBLE","flightCategory":"VFR","rawOb":"METAR SBLE 250000Z AUTO 11005KT 9999 SCT038 SCT047 23/23 Q1016","temp":23,"dewp":23,"wdir":110,"wspd":5,"visib":"6+","altim":1016,"clouds":[{"cover":"SCT","base":3800},{"cover":"SCT","base":4700}],"obsTime":1774396800},"SBAF":{"icaoId":"SBAF","flightCategory":"VFR","rawOb":"METAR SBAF 250000Z 25002KT CAVOK 24/24 Q1011","temp":24,"dewp":24,"wdir":250,"wspd":2,"visib":"6+","altim":1011,"clouds":[],"obsTime":1774396800},"SBJR":{"icaoId":"SBJR","flightCategory":"VFR","rawOb":"METAR SBJR 250000Z 36001KT CAVOK 25/22 Q1011","temp":25,"dewp":22,"wdir":360,"wspd":1,"visib":"6+","altim":1011,"clouds":[],"obsTime":1774396800},"SBLS":{"icaoId":"SBLS","flightCategory":"VFR","rawOb":"METAR SBLS 250000Z 16004KT CAVOK 20/18 Q1017","temp":20,"dewp":18,"wdir":160,"wspd":4,"visib":"6+","altim":1017,"clouds":[],"obsTime":1774396800},"SBMT":{"icaoId":"SBMT","flightCategory":"VFR","rawOb":"METAR SBMT 250000Z 12006KT 080V150 CAVOK 21/18 Q1015","temp":21,"dewp":18,"wdir":120,"wspd":6,"visib":"6+","altim":1015,"clouds":[],"obsTime":1774396800},"SBTA":{"icaoId":"SBTA","flightCategory":"VFR","rawOb":"METAR SBTA 250000Z 16004KT 110V200 9999 FEW040 SCT060 24/18 Q1013","temp":24,"dewp":18,"wdir":160,"wspd":4,"visib":"6+","altim":1013,"clouds":[{"cover":"FEW","base":4000},{"cover":"SCT","base":6000}],"obsTime":1774396800}}}