{"updated":1783905669,"count":64,"data":{"SBGO":{"icaoId":"SBGO","flightCategory":"VFR","rawOb":"METAR SBGO 130000Z 34004KT CAVOK 21/17 Q1019","temp":21,"dewp":17,"wdir":340,"wspd":4,"visib":"6+","altim":1019,"clouds":[],"obsTime":1783900800},"SBIL":{"icaoId":"SBIL","flightCategory":"VFR","rawOb":"METAR SBIL 130000Z 04004KT 9999 SCT023 26/23 Q1014","temp":26,"dewp":23,"wdir":40,"wspd":4,"visib":"6+","altim":1014,"clouds":[{"cover":"SCT","base":2300}],"obsTime":1783900800},"SBJU":{"icaoId":"SBJU","flightCategory":"VFR","rawOb":"METAR SBJU 130000Z 22004KT CAVOK 27/18 Q1016","temp":27,"dewp":18,"wdir":220,"wspd":4,"visib":"6+","altim":1016,"clouds":[],"obsTime":1783900800},"SBMG":{"icaoId":"SBMG","flightCategory":"VFR","rawOb":"METAR SBMG 130000Z 20009KT CAVOK 16/10 Q1018","temp":16,"dewp":10,"wdir":200,"wspd":9,"visib":"6+","altim":1018,"clouds":[],"obsTime":1783900800},"SBME":{"icaoId":"SBME","flightCategory":"VFR","rawOb":"METAR SBME 130000Z 23017KT 9999 FEW020 SCT100 21/17 Q1015","temp":21,"dewp":17,"wdir":230,"wspd":17,"visib":"6+","altim":1015,"clouds":[{"cover":"FEW","base":2000},{"cover":"SCT","base":10000}],"obsTime":1783900800},"SBMK":{"icaoId":"SBMK","flightCategory":"VFR","rawOb":"METAR SBMK 130000Z 00000KT CAVOK 22/16 Q1017","temp":22,"dewp":16,"wdir":0,"wspd":0,"visib":"6+","altim":1017,"clouds":[],"obsTime":1783900800},"SBUL":{"icaoId":"SBUL","flightCategory":"VFR","rawOb":"METAR SBUL 130000Z 25004KT 210V270 CAVOK 22/15 Q1020","temp":22,"dewp":15,"wdir":250,"wspd":4,"visib":"6+","altim":1020,"clouds":[],"obsTime":1783900800},"SBUR":{"icaoId":"SBUR","flightCategory":"VFR","rawOb":"METAR SBUR 130000Z 28004KT CAVOK 22/15 Q1019","temp":22,"dewp":15,"wdir":280,"wspd":4,"visib":"6+","altim":1019,"clouds":[],"obsTime":1783900800},"SBMQ":{"icaoId":"SBMQ","flightCategory":"IFR","rawOb":"SPECI SBMQ 122340Z 13006G18KT 4000 +SHRA BKN015 FEW021TCU 26/25 Q1014","temp":26,"dewp":25,"wdir":130,"wspd":6,"visib":2.49,"altim":1014,"clouds":[{"cover":"BKN","base":1500},{"cover":"FEW","base":2100}],"obsTime":1783899600},"SBKP":{"icaoId":"SBKP","flightCategory":"VFR","rawOb":"METAR SBKP 130000Z 13012KT 9999 FEW012 SCT040 16/15 Q1018","temp":16,"dewp":15,"wdir":130,"wspd":12,"visib":"6+","altim":1018,"clouds":[{"cover":"FEW","base":1200},{"cover":"SCT","base":4000}],"obsTime":1783900800},"SBFI":{"icaoId":"SBFI","flightCategory":"VFR","rawOb":"METAR SBFI 130000Z 20006KT CAVOK 12/10 Q1021","temp":12,"dewp":10,"wdir":200,"wspd":6,"visib":"6+","altim":1021,"clouds":[],"obsTime":1783900800},"SBGR":{"icaoId":"SBGR","flightCategory":"MVFR","rawOb":"METAR SBGR 130000Z 17005KT 9999 OVC023 14/10 Q1020","temp":14,"dewp":10,"wdir":170,"wspd":5,"visib":"6+","altim":1020,"clouds":[{"cover":"OVC","base":2300}],"obsTime":1783900800},"SBLO":{"icaoId":"SBLO","flightCategory":"VFR","rawOb":"METAR SBLO 130000Z 23004KT CAVOK 17/10 Q1018","temp":17,"dewp":10,"wdir":230,"wspd":4,"visib":"6+","altim":1018,"clouds":[],"obsTime":1783900800},"SBPA":{"icaoId":"SBPA","flightCategory":"VFR","rawOb":"METAR SBPA 130000Z 27006KT 9999 FEW010 BKN036 12/09 Q1021","temp":12,"dewp":9,"wdir":270,"wspd":6,"visib":"6+","altim":1021,"clouds":[{"cover":"FEW","base":1000},{"cover":"BKN","base":3600}],"obsTime":1783900800},"SBSP":{"icaoId":"SBSP","flightCategory":"MVFR","rawOb":"METAR SBSP 130000Z 18008KT 9999 BKN021 14/10 Q1021","temp":14,"dewp":10,"wdir":180,"wspd":8,"visib":"6+","altim":1021,"clouds":[{"cover":"BKN","base":2100}],"obsTime":1783900800},"SBSV":{"icaoId":"SBSV","flightCategory":"VFR","rawOb":"METAR SBSV 130000Z 02006KT CAVOK 24/21 Q1015","temp":24,"dewp":21,"wdir":20,"wspd":6,"visib":"6+","altim":1015,"clouds":[],"obsTime":1783900800},"SBBV":{"icaoId":"SBBV","flightCategory":"VFR","rawOb":"METAR SBBV 130000Z 00000KT CAVOK 29/24 Q1012","temp":29,"dewp":24,"wdir":0,"wspd":0,"visib":"6+","altim":1012,"clouds":[],"obsTime":1783900800},"SBEG":{"icaoId":"SBEG","flightCategory":"VFR","rawOb":"METAR SBEG 130000Z 12004KT CAVOK 29/22 Q1013","temp":29,"dewp":22,"wdir":120,"wspd":4,"visib":"6+","altim":1013,"clouds":[],"obsTime":1783900800},"SBBR":{"icaoId":"SBBR","flightCategory":"VFR","rawOb":"METAR SBBR 130000Z VRB02KT 9999 FEW045 22/13 Q1021","temp":22,"dewp":13,"wdir":"VRB","wspd":2,"visib":"6+","altim":1021,"clouds":[{"cover":"FEW","base":4500}],"obsTime":1783900800},"SBBE":{"icaoId":"SBBE","flightCategory":"VFR","rawOb":"METAR SBBE 130000Z 10005KT 9999 VCSH SCT035 BKN100 27/24 Q1014","temp":27,"dewp":24,"wdir":100,"wspd":5,"visib":"6+","altim":1014,"clouds":[{"cover":"SCT","base":3500},{"cover":"BKN","base":10000}],"obsTime":1783900800},"SBRB":{"icaoId":"SBRB","flightCategory":"MVFR","rawOb":"METAR SBRB 130000Z 32001KT 8000 VCTS BKN015 FEW030CB 23/22 Q1015","temp":23,"dewp":22,"wdir":320,"wspd":1,"visib":4.97,"altim":1015,"clouds":[{"cover":"BKN","base":1500},{"cover":"FEW","base":3000}],"obsTime":1783900800},"SBCF":{"icaoId":"SBCF","flightCategory":"VFR","rawOb":"METAR SBCF 130000Z 28003KT CAVOK 23/12 Q1018","temp":23,"dewp":12,"wdir":280,"wspd":3,"visib":"6+","altim":1018,"clouds":[],"obsTime":1783900800},"SBPV":{"icaoId":"SBPV","flightCategory":"VFR","rawOb":"METAR SBPV 130000Z 00000KT CAVOK 23/22 Q1013","temp":23,"dewp":22,"wdir":0,"wspd":0,"visib":"6+","altim":1013,"clouds":[],"obsTime":1783900800},"SBNT":{"icaoId":"SBNT","flightCategory":"VFR","rawOb":"METAR SBNT 130000Z 17005KT 9999 FEW023 BKN035 25/23 Q1015","temp":25,"dewp":23,"wdir":170,"wspd":5,"visib":"6+","altim":1015,"clouds":[{"cover":"FEW","base":2300},{"cover":"BKN","base":3500}],"obsTime":1783900800},"SBSL":{"icaoId":"SBSL","flightCategory":"VFR","rawOb":"METAR SBSL 130000Z 04011KT CAVOK 27/24 Q1013","temp":27,"dewp":24,"wdir":40,"wspd":11,"visib":"6+","altim":1013,"clouds":[],"obsTime":1783900800},"SBGL":{"icaoId":"SBGL","flightCategory":"VFR","rawOb":"METAR SBGL 130000Z 25009KT 9999 SCT027 OVC050 22/14 Q1016","temp":22,"dewp":14,"wdir":250,"wspd":9,"visib":"6+","altim":1016,"clouds":[{"cover":"SCT","base":2700},{"cover":"OVC","base":5000}],"obsTime":1783900800},"SBCT":{"icaoId":"SBCT","flightCategory":"VFR","rawOb":"METAR SBCT 130000Z 19003KT CAVOK 10/08 Q1020","temp":10,"dewp":8,"wdir":190,"wspd":3,"visib":"6+","altim":1020,"clouds":[],"obsTime":1783900800},"SBCG":{"icaoId":"SBCG","flightCategory":"VFR","rawOb":"METAR SBCG 130000Z 14006KT CAVOK 20/18 Q1019","temp":20,"dewp":18,"wdir":140,"wspd":6,"visib":"6+","altim":1019,"clouds":[],"obsTime":1783900800},"SBSG":{"icaoId":"SBSG","flightCategory":"VFR","rawOb":"METAR SBSG 130000Z 18003KT 130V210 9999 FEW025 25/24 Q1016","temp":25,"dewp":24,"wdir":180,"wspd":3,"visib":"6+","altim":1016,"clouds":[{"cover":"FEW","base":2500}],"obsTime":1783900800},"SBMA":{"icaoId":"SBMA","flightCategory":"VFR","rawOb":"METAR SBMA 130000Z 33002KT CAVOK 29/24 Q1013","temp":29,"dewp":24,"wdir":330,"wspd":2,"visib":"6+","altim":1013,"clouds":[],"obsTime":1783900800},"SBPJ":{"icaoId":"SBPJ","flightCategory":"VFR","rawOb":"METAR SBPJ 130000Z 14003KT 110V170 CAVOK 27/20 Q1014","temp":27,"dewp":20,"wdir":140,"wspd":3,"visib":"6+","altim":1014,"clouds":[],"obsTime":1783900800},"SBTE":{"icaoId":"SBTE","flightCategory":"VFR","rawOb":"METAR SBTE 130000Z 34004KT CAVOK 28/23 Q1011","temp":28,"dewp":23,"wdir":340,"wspd":4,"visib":"6+","altim":1011,"clouds":[],"obsTime":1783900800},"SBFZ":{"icaoId":"SBFZ","flightCategory":"VFR","rawOb":"METAR SBFZ 130000Z 10010KT CAVOK 27/24 Q1014","temp":27,"dewp":24,"wdir":100,"wspd":10,"visib":"6+","altim":1014,"clouds":[],"obsTime":1783900800},"SBSN":{"icaoId":"SBSN","flightCategory":"VFR","rawOb":"METAR SBSN 130000Z 09002KT CAVOK 26/24 Q1013","temp":26,"dewp":24,"wdir":90,"wspd":2,"visib":"6+","altim":1013,"clouds":[],"obsTime":1783900800},"SBFL":{"icaoId":"SBFL","flightCategory":"VFR","rawOb":"METAR SBFL 130000Z 18008KT CAVOK 15/11 Q1018","temp":15,"dewp":11,"wdir":180,"wspd":8,"visib":"6+","altim":1018,"clouds":[],"obsTime":1783900800},"SBMO":{"icaoId":"SBMO","flightCategory":"VFR","rawOb":"METAR SBMO 130000Z 02005KT CAVOK 21/20 Q1016","temp":21,"dewp":20,"wdir":20,"wspd":5,"visib":"6+","altim":1016,"clouds":[],"obsTime":1783900800},"SBRF":{"icaoId":"SBRF","flightCategory":"VFR","rawOb":"METAR SBRF 130000Z 21004KT 9999 SCT022 25/22 Q1016","temp":25,"dewp":22,"wdir":210,"wspd":4,"visib":"6+","altim":1016,"clouds":[{"cover":"SCT","base":2200}],"obsTime":1783900800},"SBVT":{"icaoId":"SBVT","flightCategory":"VFR","rawOb":"METAR SBVT 130000Z 19014G24KT 9999 FEW025 BKN100 26/21 Q1013","temp":26,"dewp":21,"wdir":190,"wspd":14,"visib":"6+","altim":1013,"clouds":[{"cover":"FEW","base":2500},{"cover":"BKN","base":10000}],"obsTime":1783900800},"SBCZ":{"icaoId":"SBCZ","flightCategory":"VFR","rawOb":"METAR SBCZ 130000Z 00000KT 9999 FEW030 26/22 Q1013","temp":26,"dewp":22,"wdir":0,"wspd":0,"visib":"6+","altim":1013,"clouds":[{"cover":"FEW","base":3000}],"obsTime":1783900800},"SBSJ":{"icaoId":"SBSJ","flightCategory":"MVFR","rawOb":"METAR SBSJ 130000Z 18006KT 9999 OVC025 15/10 Q1019","temp":15,"dewp":10,"wdir":180,"wspd":6,"visib":"6+","altim":1019,"clouds":[{"cover":"OVC","base":2500}],"obsTime":1783900800},"SBPS":{"icaoId":"SBPS","flightCategory":"VFR","rawOb":"METAR SBPS 130000Z 02007KT CAVOK 24/22 Q1014","temp":24,"dewp":22,"wdir":20,"wspd":7,"visib":"6+","altim":1014,"clouds":[],"obsTime":1783900800},"SBOI":{"icaoId":"SBOI","flightCategory":"VFR","rawOb":"METAR SBOI 130000Z AUTO VRB01KT CAVOK 26/24 Q1014","temp":26,"dewp":24,"wdir":"VRB","wspd":1,"visib":"6+","altim":1014,"clouds":[],"obsTime":1783900800},"SBCO":{"icaoId":"SBCO","flightCategory":"VFR","rawOb":"METAR SBCO 130000Z 29006KT 9999 BKN036 12/09 Q1022","temp":12,"dewp":9,"wdir":290,"wspd":6,"visib":"6+","altim":1022,"clouds":[{"cover":"BKN","base":3600}],"obsTime":1783900800},"SBPL":{"icaoId":"SBPL","flightCategory":"VFR","rawOb":"METAR SBPL 130000Z 12006KT CAVOK 28/16 Q1015","temp":28,"dewp":16,"wdir":120,"wspd":6,"visib":"6+","altim":1015,"clouds":[],"obsTime":1783900800},"SBDN":{"icaoId":"SBDN","flightCategory":"VFR","rawOb":"METAR SBDN 130000Z 24005KT CAVOK 19/16 Q1018","temp":19,"dewp":16,"wdir":240,"wspd":5,"visib":"6+","altim":1018,"clouds":[],"obsTime":1783900800},"SBIP":{"icaoId":"SBIP","flightCategory":"VFR","rawOb":"METAR SBIP 130000Z AUTO 00000KT CAVOK 20/18 Q1013","temp":20,"dewp":18,"wdir":0,"wspd":0,"visib":"6+","altim":1013,"clouds":[],"obsTime":1783900800},"SBSM":{"icaoId":"SBSM","flightCategory":"VFR","rawOb":"METAR SBSM 130000Z 27004KT 9999 BKN035 11/08 Q1023","temp":11,"dewp":8,"wdir":270,"wspd":4,"visib":"6+","altim":1023,"clouds":[{"cover":"BKN","base":3500}],"obsTime":1783900800},"SBSC":{"icaoId":"SBSC","flightCategory":"VFR","rawOb":"METAR SBSC 130000Z 22008KT 9999 FEW015 SCT050 21/16 Q1017","temp":21,"dewp":16,"wdir":220,"wspd":8,"visib":"6+","altim":1017,"clouds":[{"cover":"FEW","base":1500},{"cover":"SCT","base":5000}],"obsTime":1783900800},"SBSR":{"icaoId":"SBSR","flightCategory":"VFR","rawOb":"METAR SBSR 130000Z 26004KT 230V310 9999 TS SCT040 FEW040CB BKN090 22/19 Q1018","temp":22,"dewp":19,"wdir":260,"wspd":4,"visib":"6+","altim":1018,"clouds":[{"cover":"SCT","base":4000},{"cover":"FEW","base":4000},{"cover":"BKN","base":9000}],"obsTime":1783900800},"SBTU":{"icaoId":"SBTU","flightCategory":"VFR","rawOb":"METAR SBTU 130000Z AUTO 00000KT 9999 // NCD 25/23 Q1015","temp":25,"dewp":23,"wdir":0,"wspd":0,"visib":"6+","altim":1015,"clouds":[],"obsTime":1783900800},"SBAX":{"icaoId":"SBAX","flightCategory":"VFR","rawOb":"METAR SBAX 130000Z AUTO 25004KT CAVOK 21/13 Q1019","temp":21,"dewp":13,"wdir":250,"wspd":4,"visib":"6+","altim":1019,"clouds":[],"obsTime":1783900800},"SBBH":{"icaoId":"SBBH","flightCategory":"VFR","rawOb":"METAR SBBH 130000Z 00000KT CAVOK 20/14 Q1017","temp":20,"dewp":14,"wdir":0,"wspd":0,"visib":"6+","altim":1017,"clouds":[],"obsTime":1783900800},"SBAR":{"icaoId":"SBAR","flightCategory":"VFR","rawOb":"METAR SBAR 130000Z 05006KT 010V080 9999 FEW023 25/22 Q1015","temp":25,"dewp":22,"wdir":50,"wspd":6,"visib":"6+","altim":1015,"clouds":[{"cover":"FEW","base":2300}],"obsTime":1783900800},"SBBU":{"icaoId":"SBBU","flightCategory":"VFR","rawOb":"METAR SBBU 130000Z 23004KT CAVOK 21/19 Q1017","temp":21,"dewp":19,"wdir":230,"wspd":4,"visib":"6+","altim":1017,"clouds":[],"obsTime":1783900800},"SBKG":{"icaoId":"SBKG","flightCategory":"VFR","rawOb":"METAR SBKG 130000Z 11005KT CAVOK 21/20 Q1018","temp":21,"dewp":20,"wdir":110,"wspd":5,"visib":"6+","altim":1018,"clouds":[],"obsTime":1783900800},"SBCA":{"icaoId":"SBCA","flightCategory":"VFR","rawOb":"METAR SBCA 130000Z 17010KT CAVOK 10/08 Q1021","temp":10,"dewp":8,"wdir":170,"wspd":10,"visib":"6+","altim":1021,"clouds":[],"obsTime":1783900800},"SBAN":{"icaoId":"SBAN","flightCategory":"VFR","rawOb":"METAR SBAN 130000Z 22004KT CAVOK 21/12 Q1022","temp":21,"dewp":12,"wdir":220,"wspd":4,"visib":"6+","altim":1022,"clouds":[],"obsTime":1783900800},"SBLE":{"icaoId":"SBLE","flightCategory":"VFR","rawOb":"METAR SBLE 130000Z AUTO VRB02KT CAVOK ///// Q1017","temp":null,"dewp":null,"wdir":"VRB","wspd":2,"visib":"6+","altim":1017,"clouds":[],"obsTime":1783900800},"SBJV":{"icaoId":"SBJV","flightCategory":"VFR","rawOb":"METAR SBJV 130000Z 13006KT 9999 FEW008 15/14 Q1019","temp":15,"dewp":14,"wdir":130,"wspd":6,"visib":"6+","altim":1019,"clouds":[{"cover":"FEW","base":800}],"obsTime":1783900800},"SBNM":{"icaoId":"SBNM","flightCategory":"MVFR","rawOb":"METAR SBNM 130000Z AUTO 16006KT 9999 BKN030 10/07 Q1023","temp":10,"dewp":7,"wdir":160,"wspd":6,"visib":"6+","altim":1023,"clouds":[{"cover":"BKN","base":3000}],"obsTime":1783900800},"SBLS":{"icaoId":"SBLS","flightCategory":"VFR","rawOb":"METAR SBLS 130000Z 27003KT CAVOK 23/11 Q1017","temp":23,"dewp":11,"wdir":270,"wspd":3,"visib":"6+","altim":1017,"clouds":[],"obsTime":1783900800},"SBMT":{"icaoId":"SBMT","flightCategory":"MVFR","rawOb":"METAR SBMT 130000Z 12008KT 9999 BKN020 14/08 Q1020","temp":14,"dewp":8,"wdir":120,"wspd":8,"visib":"6+","altim":1020,"clouds":[{"cover":"BKN","base":2000}],"obsTime":1783900800},"SBJP":{"icaoId":"SBJP","flightCategory":"VFR","rawOb":"METAR SBJP 130000Z 17004KT 9999 FEW020 24/23 Q1016","temp":24,"dewp":23,"wdir":170,"wspd":4,"visib":"6+","altim":1016,"clouds":[{"cover":"FEW","base":2000}],"obsTime":1783900800},"SBJR":{"icaoId":"SBJR","flightCategory":"VFR","rawOb":"METAR SBJR 130000Z 24009KT 9999 SCT025 OVC040 21/15 Q1016","temp":21,"dewp":15,"wdir":240,"wspd":9,"visib":"6+","altim":1016,"clouds":[{"cover":"SCT","base":2500},{"cover":"OVC","base":4000}],"obsTime":1783900800}}}