{"updated":1775087610,"count":72,"data":{"SBFZ":{"icaoId":"SBFZ","flightCategory":"VFR","rawOb":"METAR SBFZ 012200Z 08004KT 9999 FEW020 27/24 Q1009","temp":27,"dewp":24,"wdir":80,"wspd":4,"visib":"6+","altim":1009,"clouds":[{"cover":"FEW","base":2000}],"obsTime":1775080800},"SBME":{"icaoId":"SBME","flightCategory":"VFR","rawOb":"METAR SBME 012200Z 03004KT 9999 FEW025 SCT090 26/22 Q1013","temp":26,"dewp":22,"wdir":30,"wspd":4,"visib":"6+","altim":1013,"clouds":[{"cover":"FEW","base":2500},{"cover":"SCT","base":9000}],"obsTime":1775080800},"SBMG":{"icaoId":"SBMG","flightCategory":"VFR","rawOb":"METAR SBMG 012200Z 06002KT 9999 VCTS FEW015 FEW030CB 24/20 Q1011","temp":24,"dewp":20,"wdir":60,"wspd":2,"visib":"6+","altim":1011,"clouds":[{"cover":"FEW","base":1500},{"cover":"FEW","base":3000}],"obsTime":1775080800},"SBMK":{"icaoId":"SBMK","flightCategory":"MVFR","rawOb":"METAR SBMK 012200Z 36004KT 8000 -RA SCT030 OVC090 22/20 Q1015","temp":22,"dewp":20,"wdir":360,"wspd":4,"visib":4.97,"altim":1015,"clouds":[{"cover":"SCT","base":3000},{"cover":"OVC","base":9000}],"obsTime":1775080800},"SBBE":{"icaoId":"SBBE","flightCategory":"MVFR","rawOb":"METAR SBBE 012200Z 12007KT 8000 -RA FEW030 SCT049 BKN073 25/25 Q1010","temp":25,"dewp":25,"wdir":120,"wspd":7,"visib":4.97,"altim":1010,"clouds":[{"cover":"FEW","base":3000},{"cover":"SCT","base":4900},{"cover":"BKN","base":7300}],"obsTime":1775080800},"SBMO":{"icaoId":"SBMO","flightCategory":"IFR","rawOb":"METAR SBMO 012200Z 07003KT 3000 -RA BR BKN010 24/24 Q1011","temp":24,"dewp":24,"wdir":70,"wspd":3,"visib":1.86,"altim":1011,"clouds":[{"cover":"BKN","base":1000}],"obsTime":1775080800},"SBGL":{"icaoId":"SBGL","flightCategory":"VFR","rawOb":"METAR SBGL 012200Z 30003KT 9999 FEW030 BKN100 27/23 Q1012","temp":27,"dewp":23,"wdir":300,"wspd":3,"visib":"6+","altim":1012,"clouds":[{"cover":"FEW","base":3000},{"cover":"BKN","base":10000}],"obsTime":1775080800},"SBMQ":{"icaoId":"SBMQ","flightCategory":"VFR","rawOb":"METAR SBMQ 012200Z 20004KT 9999 SCT020 FEW035TCU 27/25 Q1009","temp":27,"dewp":25,"wdir":200,"wspd":4,"visib":"6+","altim":1009,"clouds":[{"cover":"SCT","base":2000},{"cover":"FEW","base":3500}],"obsTime":1775080800},"SBCT":{"icaoId":"SBCT","flightCategory":"MVFR","rawOb":"METAR SBCT 012200Z 07007KT 9999 FEW015 BKN030 19/18 Q1016","temp":19,"dewp":18,"wdir":70,"wspd":7,"visib":"6+","altim":1016,"clouds":[{"cover":"FEW","base":1500},{"cover":"BKN","base":3000}],"obsTime":1775080800},"SBNT":{"icaoId":"SBNT","flightCategory":"VFR","rawOb":"METAR SBNT 012200Z 18004KT 9999 SCT020 FEW025TCU BKN050 24/24 Q1011","temp":24,"dewp":24,"wdir":180,"wspd":4,"visib":"6+","altim":1011,"clouds":[{"cover":"SCT","base":2000},{"cover":"FEW","base":2500},{"cover":"BKN","base":5000}],"obsTime":1775080800},"SBGO":{"icaoId":"SBGO","flightCategory":"VFR","rawOb":"METAR SBGO 012200Z 21006KT 180V240 9999 -RA VCTS SCT045 FEW050CB BKN100 21/20 Q1014","temp":21,"dewp":20,"wdir":210,"wspd":6,"visib":"6+","altim":1014,"clouds":[{"cover":"SCT","base":4500},{"cover":"FEW","base":5000},{"cover":"BKN","base":10000}],"obsTime":1775080800},"SBPA":{"icaoId":"SBPA","flightCategory":"VFR","rawOb":"METAR SBPA 012200Z 10010KT 9999 FEW040 27/19 Q1008","temp":27,"dewp":19,"wdir":100,"wspd":10,"visib":"6+","altim":1008,"clouds":[{"cover":"FEW","base":4000}],"obsTime":1775080800},"SBCF":{"icaoId":"SBCF","flightCategory":"VFR","rawOb":"METAR SBCF 012200Z 14005KT 110V170 9999 FEW010 SCT035 FEW040TCU BKN100 20/18 Q1018","temp":20,"dewp":18,"wdir":140,"wspd":5,"visib":"6+","altim":1018,"clouds":[{"cover":"FEW","base":1000},{"cover":"SCT","base":3500},{"cover":"FEW","base":4000},{"cover":"BKN","base":10000}],"obsTime":1775080800},"SBPJ":{"icaoId":"SBPJ","flightCategory":"VFR","rawOb":"METAR SBPJ 012200Z 33003KT 9999 SCT030 FEW035TCU SCT080 28/25 Q1010","temp":28,"dewp":25,"wdir":330,"wspd":3,"visib":"6+","altim":1010,"clouds":[{"cover":"SCT","base":3000},{"cover":"FEW","base":3500},{"cover":"SCT","base":8000}],"obsTime":1775080800},"SBCZ":{"icaoId":"SBCZ","flightCategory":"VFR","rawOb":"METAR SBCZ 012200Z VRB02KT 9999 FEW032 FEW035TCU 30/24 Q1006","temp":30,"dewp":24,"wdir":"VRB","wspd":2,"visib":"6+","altim":1006,"clouds":[{"cover":"FEW","base":3200},{"cover":"FEW","base":3500}],"obsTime":1775080800},"SBPV":{"icaoId":"SBPV","flightCategory":"VFR","rawOb":"METAR SBPV 012200Z 10003KT CAVOK 25/22 Q1007","temp":25,"dewp":22,"wdir":100,"wspd":3,"visib":"6+","altim":1007,"clouds":[],"obsTime":1775080800},"SBRB":{"icaoId":"SBRB","flightCategory":"VFR","rawOb":"METAR SBRB 012200Z 34002KT 9999 FEW025 FEW030TCU SCT100 29/23 Q1007","temp":29,"dewp":23,"wdir":340,"wspd":2,"visib":"6+","altim":1007,"clouds":[{"cover":"FEW","base":2500},{"cover":"FEW","base":3000},{"cover":"SCT","base":10000}],"obsTime":1775080800},"SBGR":{"icaoId":"SBGR","flightCategory":"MVFR","rawOb":"METAR SBGR 012200Z 15005KT 9999 BKN025 FEW050TCU 22/18 Q1016","temp":22,"dewp":18,"wdir":150,"wspd":5,"visib":"6+","altim":1016,"clouds":[{"cover":"BKN","base":2500},{"cover":"FEW","base":5000}],"obsTime":1775080800},"SBEG":{"icaoId":"SBEG","flightCategory":"VFR","rawOb":"METAR SBEG 012200Z 33003KT 9999 FEW020 FEW025TCU BKN100 25/24 Q1009","temp":25,"dewp":24,"wdir":330,"wspd":3,"visib":"6+","altim":1009,"clouds":[{"cover":"FEW","base":2000},{"cover":"FEW","base":2500},{"cover":"BKN","base":10000}],"obsTime":1775080800},"SBRF":{"icaoId":"SBRF","flightCategory":"VFR","rawOb":"METAR SBRF 012200Z 33003KT 9999 SCT015 BKN090 25/24 Q1011","temp":25,"dewp":24,"wdir":330,"wspd":3,"visib":"6+","altim":1011,"clouds":[{"cover":"SCT","base":1500},{"cover":"BKN","base":9000}],"obsTime":1775080800},"SBIL":{"icaoId":"SBIL","flightCategory":"VFR","rawOb":"METAR SBIL 012200Z 14004KT CAVOK 28/23 Q1012","temp":28,"dewp":23,"wdir":140,"wspd":4,"visib":"6+","altim":1012,"clouds":[],"obsTime":1775080800},"SBSG":{"icaoId":"SBSG","flightCategory":"MVFR","rawOb":"METAR SBSG 012200Z 17003KT 9999 BKN017 SCT027 FEW030TCU 24/24 Q1011","temp":24,"dewp":24,"wdir":170,"wspd":3,"visib":"6+","altim":1011,"clouds":[{"cover":"BKN","base":1700},{"cover":"SCT","base":2700},{"cover":"FEW","base":3000}],"obsTime":1775080800},"SBSL":{"icaoId":"SBSL","flightCategory":"VFR","rawOb":"METAR SBSL 012200Z 04007KT 9999 SCT018 SCT080 27/24 Q1008","temp":27,"dewp":24,"wdir":40,"wspd":7,"visib":"6+","altim":1008,"clouds":[{"cover":"SCT","base":1800},{"cover":"SCT","base":8000}],"obsTime":1775080800},"SBBR":{"icaoId":"SBBR","flightCategory":"VFR","rawOb":"METAR SBBR 012200Z 15005KT 9999 VCTS FEW030 FEW040CB BKN100 21/19 Q1016","temp":21,"dewp":19,"wdir":150,"wspd":5,"visib":"6+","altim":1016,"clouds":[{"cover":"FEW","base":3000},{"cover":"FEW","base":4000},{"cover":"BKN","base":10000}],"obsTime":1775080800},"SBJU":{"icaoId":"SBJU","flightCategory":"VFR","rawOb":"METAR SBJU 012200Z 00000KT 9999 SCT017 22/21 Q1013 RETS","temp":22,"dewp":21,"wdir":0,"wspd":0,"visib":"6+","altim":1013,"clouds":[{"cover":"SCT","base":1700}],"obsTime":1775080800},"SBSN":{"icaoId":"SBSN","flightCategory":"VFR","rawOb":"METAR SBSN 012200Z 00000KT 9999 FEW020 SCT100 24/23 Q1008","temp":24,"dewp":23,"wdir":0,"wspd":0,"visib":"6+","altim":1008,"clouds":[{"cover":"FEW","base":2000},{"cover":"SCT","base":10000}],"obsTime":1775080800},"SBCG":{"icaoId":"SBCG","flightCategory":"VFR","rawOb":"METAR SBCG 012200Z COR 20007KT 9999 VCSH VCTS FEW045 FEW050CB SCT070 27/19 Q1011","temp":27,"dewp":19,"wdir":200,"wspd":7,"visib":"6+","altim":1011,"clouds":[{"cover":"FEW","base":4500},{"cover":"FEW","base":5000},{"cover":"SCT","base":7000}],"obsTime":1775080800},"SBSP":{"icaoId":"SBSP","flightCategory":"VFR","rawOb":"METAR SBSP 012200Z 20006KT 170V240 9999 FEW017 BKN080 20/17 Q1017","temp":20,"dewp":17,"wdir":200,"wspd":6,"visib":"6+","altim":1017,"clouds":[{"cover":"FEW","base":1700},{"cover":"BKN","base":8000}],"obsTime":1775080800},"SBKP":{"icaoId":"SBKP","flightCategory":"VFR","rawOb":"METAR SBKP 012200Z VRB03KT CAVOK 25/19 Q1014","temp":25,"dewp":19,"wdir":"VRB","wspd":3,"visib":"6+","altim":1014,"clouds":[],"obsTime":1775080800},"SBSV":{"icaoId":"SBSV","flightCategory":"VFR","rawOb":"METAR SBSV 012200Z 12009KT 9999 FEW021 SCT050 28/22 Q1011","temp":28,"dewp":22,"wdir":120,"wspd":9,"visib":"6+","altim":1011,"clouds":[{"cover":"FEW","base":2100},{"cover":"SCT","base":5000}],"obsTime":1775080800},"SBLO":{"icaoId":"SBLO","flightCategory":"VFR","rawOb":"METAR SBLO 012200Z 28003KT CAVOK 20/19 Q1013","temp":20,"dewp":19,"wdir":280,"wspd":3,"visib":"6+","altim":1013,"clouds":[],"obsTime":1775080800},"SBTE":{"icaoId":"SBTE","flightCategory":"VFR","rawOb":"METAR SBTE 012200Z 14006KT 9999 VCTS SCT020 FEW030CB SCT090 31/24 Q1007","temp":31,"dewp":24,"wdir":140,"wspd":6,"visib":"6+","altim":1007,"clouds":[{"cover":"SCT","base":2000},{"cover":"FEW","base":3000},{"cover":"SCT","base":9000}],"obsTime":1775080800},"SBFI":{"icaoId":"SBFI","flightCategory":"VFR","rawOb":"METAR SBFI 012200Z 03004KT 9999 FEW030 SCT100 26/22 Q1008","temp":26,"dewp":22,"wdir":30,"wspd":4,"visib":"6+","altim":1008,"clouds":[{"cover":"FEW","base":3000},{"cover":"SCT","base":10000}],"obsTime":1775080800},"SBUL":{"icaoId":"SBUL","flightCategory":"VFR","rawOb":"METAR SBUL 012200Z 08006KT 9999 SCT040 FEW045TCU 24/17 Q1016 RETS","temp":24,"dewp":17,"wdir":80,"wspd":6,"visib":"6+","altim":1016,"clouds":[{"cover":"SCT","base":4000},{"cover":"FEW","base":4500}],"obsTime":1775080800},"SBUR":{"icaoId":"SBUR","flightCategory":"VFR","rawOb":"METAR SBUR 012200Z 03008KT CAVOK 24/18 Q1014","temp":24,"dewp":18,"wdir":30,"wspd":8,"visib":"6+","altim":1014,"clouds":[],"obsTime":1775080800},"SBFL":{"icaoId":"SBFL","flightCategory":"VFR","rawOb":"METAR SBFL 012200Z 01008KT CAVOK 25/21 Q1011","temp":25,"dewp":21,"wdir":10,"wspd":8,"visib":"6+","altim":1011,"clouds":[],"obsTime":1775080800},"SBVT":{"icaoId":"SBVT","flightCategory":"VFR","rawOb":"METAR SBVT 012200Z 05006KT 9999 FEW020 26/23 Q1014","temp":26,"dewp":23,"wdir":50,"wspd":6,"visib":"6+","altim":1014,"clouds":[{"cover":"FEW","base":2000}],"obsTime":1775080800},"SBBV":{"icaoId":"SBBV","flightCategory":"VFR","rawOb":"METAR SBBV 012200Z 12007KT 9999 SCT025 FEW030TCU SCT080 30/22 Q1008","temp":30,"dewp":22,"wdir":120,"wspd":7,"visib":"6+","altim":1008,"clouds":[{"cover":"SCT","base":2500},{"cover":"FEW","base":3000},{"cover":"SCT","base":8000}],"obsTime":1775080800},"SBMA":{"icaoId":"SBMA","flightCategory":"VFR","rawOb":"METAR SBMA 012200Z 03003KT 9999 FEW020 FEW025TCU OVC100 27/25 Q1009","temp":27,"dewp":25,"wdir":30,"wspd":3,"visib":"6+","altim":1009,"clouds":[{"cover":"FEW","base":2000},{"cover":"FEW","base":2500},{"cover":"OVC","base":10000}],"obsTime":1775080800},"SBCP":{"icaoId":"SBCP","flightCategory":"VFR","rawOb":"METAR SBCP 012200Z 08004KT 9999 FEW030 SCT090 26/24 Q1014","temp":26,"dewp":24,"wdir":80,"wspd":4,"visib":"6+","altim":1014,"clouds":[{"cover":"FEW","base":3000},{"cover":"SCT","base":9000}],"obsTime":1775080800},"SBVH":{"icaoId":"SBVH","flightCategory":"VFR","rawOb":"METAR SBVH 012200Z 36005KT 9999 FEW040 BKN100 23/21 Q1011","temp":23,"dewp":21,"wdir":360,"wspd":5,"visib":"6+","altim":1011,"clouds":[{"cover":"FEW","base":4000},{"cover":"BKN","base":10000}],"obsTime":1775080800},"SBAX":{"icaoId":"SBAX","flightCategory":"VFR","rawOb":"METAR SBAX 012200Z 15009KT 9999 SCT013 BKN040 21/16 Q1016","temp":21,"dewp":16,"wdir":150,"wspd":9,"visib":"6+","altim":1016,"clouds":[{"cover":"SCT","base":1300},{"cover":"BKN","base":4000}],"obsTime":1775080800},"SBBH":{"icaoId":"SBBH","flightCategory":"VFR","rawOb":"METAR SBBH 012200Z 10005KT 9999 SCT020 BKN100 20/19 Q1018 RETS","temp":20,"dewp":19,"wdir":100,"wspd":5,"visib":"6+","altim":1018,"clouds":[{"cover":"SCT","base":2000},{"cover":"BKN","base":10000}],"obsTime":1775080800},"SBBU":{"icaoId":"SBBU","flightCategory":"VFR","rawOb":"METAR SBBU 012200Z 20006KT 9999 VCTS FEW040 FEW045CB SCT100 23/19 Q1013","temp":23,"dewp":19,"wdir":200,"wspd":6,"visib":"6+","altim":1013,"clouds":[{"cover":"FEW","base":4000},{"cover":"FEW","base":4500},{"cover":"SCT","base":10000}],"obsTime":1775080800},"SBCO":{"icaoId":"SBCO","flightCategory":"VFR","rawOb":"METAR SBCO 012200Z 11008KT 9999 FEW040 25/19 Q1009","temp":25,"dewp":19,"wdir":110,"wspd":8,"visib":"6+","altim":1009,"clouds":[{"cover":"FEW","base":4000}],"obsTime":1775080800},"SBDN":{"icaoId":"SBDN","flightCategory":"VFR","rawOb":"METAR SBDN 012200Z 09006KT CAVOK 23/20 Q1011","temp":23,"dewp":20,"wdir":90,"wspd":6,"visib":"6+","altim":1011,"clouds":[],"obsTime":1775080800},"SBES":{"icaoId":"SBES","flightCategory":"VFR","rawOb":"METAR SBES 012200Z 06011KT 9999 FEW010 25/// Q1013","temp":null,"dewp":null,"wdir":60,"wspd":11,"visib":"6+","altim":1013,"clouds":[{"cover":"FEW","base":1000}],"obsTime":1775080800},"SBIP":{"icaoId":"SBIP","flightCategory":"VFR","rawOb":"METAR SBIP 012200Z AUTO VRB01KT CAVOK 24/22 Q1014","temp":24,"dewp":22,"wdir":"VRB","wspd":1,"visib":"6+","altim":1014,"clouds":[],"obsTime":1775080800},"SBKG":{"icaoId":"SBKG","flightCategory":"IFR","rawOb":"METAR SBKG 012200Z 12010KT 3000 -RA BKN010 22/22 Q1013","temp":22,"dewp":22,"wdir":120,"wspd":10,"visib":1.86,"altim":1013,"clouds":[{"cover":"BKN","base":1000}],"obsTime":1775080800},"SBOI":{"icaoId":"SBOI","flightCategory":"VFR","rawOb":"METAR SBOI 012200Z AUTO 00000KT 9999 // FEW028/// SCT054/// BKN067/// 24/23 Q1010","temp":24,"dewp":23,"wdir":0,"wspd":0,"visib":"6+","altim":1010,"clouds":[{"cover":"FEW","base":2800},{"cover":"SCT","base":5400},{"cover":"BKN","base":6700}],"obsTime":1775080800},"SBPL":{"icaoId":"SBPL","flightCategory":"VFR","rawOb":"METAR SBPL 012200Z 13004KT 9999 FEW030 SCT070 28/21 Q1011","temp":28,"dewp":21,"wdir":130,"wspd":4,"visib":"6+","altim":1011,"clouds":[{"cover":"FEW","base":3000},{"cover":"SCT","base":7000}],"obsTime":1775080800},"SBPS":{"icaoId":"SBPS","flightCategory":"VFR","rawOb":"METAR SBPS 012200Z 11005KT 9999 FEW020 26/23 Q1013","temp":26,"dewp":23,"wdir":110,"wspd":5,"visib":"6+","altim":1013,"clouds":[{"cover":"FEW","base":2000}],"obsTime":1775080800},"SBSC":{"icaoId":"SBSC","flightCategory":"VFR","rawOb":"METAR SBSC 012200Z 23002KT 9999 FEW040 BKN100 23/21 Q1012","temp":23,"dewp":21,"wdir":230,"wspd":2,"visib":"6+","altim":1012,"clouds":[{"cover":"FEW","base":4000},{"cover":"BKN","base":10000}],"obsTime":1775080800},"SBSJ":{"icaoId":"SBSJ","flightCategory":"VFR","rawOb":"METAR SBSJ 012200Z 09007KT 060V120 9999 FEW045 24/20 Q1014","temp":24,"dewp":20,"wdir":90,"wspd":7,"visib":"6+","altim":1014,"clouds":[{"cover":"FEW","base":4500}],"obsTime":1775080800},"SBSM":{"icaoId":"SBSM","flightCategory":"VFR","rawOb":"METAR SBSM 012200Z 10003KT 9999 FEW040 25/23 Q1008","temp":25,"dewp":23,"wdir":100,"wspd":3,"visib":"6+","altim":1008,"clouds":[{"cover":"FEW","base":4000}],"obsTime":1775080800},"SBSR":{"icaoId":"SBSR","flightCategory":"VFR","rawOb":"METAR SBSR 012200Z 20006KT 9999 -TSRA SCT025 FEW030CB BKN070 23/18 Q1013","temp":23,"dewp":18,"wdir":200,"wspd":6,"visib":"6+","altim":1013,"clouds":[{"cover":"SCT","base":2500},{"cover":"FEW","base":3000},{"cover":"BKN","base":7000}],"obsTime":1775080800},"SBTT":{"icaoId":"SBTT","flightCategory":"VFR","rawOb":"METAR SBTT 012200Z 14005KT 9999 VCSH FEW030 FEW035TCU SCT100 29/23 Q1006","temp":29,"dewp":23,"wdir":140,"wspd":5,"visib":"6+","altim":1006,"clouds":[{"cover":"FEW","base":3000},{"cover":"FEW","base":3500},{"cover":"SCT","base":10000}],"obsTime":1775080800},"SBAR":{"icaoId":"SBAR","flightCategory":"VFR","rawOb":"METAR SBAR 012200Z 08008KT 9999 FEW020 BKN080 28/24 Q1011","temp":28,"dewp":24,"wdir":80,"wspd":8,"visib":"6+","altim":1011,"clouds":[{"cover":"FEW","base":2000},{"cover":"BKN","base":8000}],"obsTime":1775080800},"SBTF":{"icaoId":"SBTF","flightCategory":"VFR","rawOb":"METAR SBTF 012200Z 35003KT 9999 FEW017 29/25 Q1007","temp":29,"dewp":25,"wdir":350,"wspd":3,"visib":"6+","altim":1007,"clouds":[{"cover":"FEW","base":1700}],"obsTime":1775080800},"SBUY":{"icaoId":"SBUY","flightCategory":"VFR","rawOb":"METAR SBUY 012200Z 31001KT 9999 FEW025 FEW030TCU 26/24 Q1006","temp":26,"dewp":24,"wdir":310,"wspd":1,"visib":"6+","altim":1006,"clouds":[{"cover":"FEW","base":2500},{"cover":"FEW","base":3000}],"obsTime":1775080800},"SBCA":{"icaoId":"SBCA","flightCategory":"VFR","rawOb":"METAR SBCA 012200Z 36005KT 9999 SCT040 FEW050TCU SCT100 23/19 Q1013","temp":23,"dewp":19,"wdir":360,"wspd":5,"visib":"6+","altim":1013,"clouds":[{"cover":"SCT","base":4000},{"cover":"FEW","base":5000},{"cover":"SCT","base":10000}],"obsTime":1775080800},"SBAN":{"icaoId":"SBAN","flightCategory":"VFR","rawOb":"METAR SBAN 012200Z 11007KT 9999 VCTS FEW020 FEW030CB SCT100 21/19 Q1017","temp":21,"dewp":19,"wdir":110,"wspd":7,"visib":"6+","altim":1017,"clouds":[{"cover":"FEW","base":2000},{"cover":"FEW","base":3000},{"cover":"SCT","base":10000}],"obsTime":1775080800},"SBLS":{"icaoId":"SBLS","flightCategory":"VFR","rawOb":"METAR SBLS 012200Z 15008KT 9999 SCT035 FEW040TCU BKN100 20/18 Q1017","temp":20,"dewp":18,"wdir":150,"wspd":8,"visib":"6+","altim":1017,"clouds":[{"cover":"SCT","base":3500},{"cover":"FEW","base":4000},{"cover":"BKN","base":10000}],"obsTime":1775080800},"SBMT":{"icaoId":"SBMT","flightCategory":"MVFR","rawOb":"METAR SBMT 012200Z 14008KT 110V190 9999 BKN020 BKN040 21/18 Q1016","temp":21,"dewp":18,"wdir":140,"wspd":8,"visib":"6+","altim":1016,"clouds":[{"cover":"BKN","base":2000},{"cover":"BKN","base":4000}],"obsTime":1775080800},"SBLE":{"icaoId":"SBLE","flightCategory":"VFR","rawOb":"METAR SBLE 012200Z AUTO 09005KT 9999 -RA BKN041 OVC049 ///// Q////","temp":null,"dewp":null,"wdir":90,"wspd":5,"visib":"6+","altim":null,"clouds":[{"cover":"BKN","base":4100},{"cover":"OVC","base":4900}],"obsTime":1775080800},"SBTA":{"icaoId":"SBTA","flightCategory":"VFR","rawOb":"METAR SBTA 012200Z 06006KT 9999 VCTS FEW040 FEW045CB SCT100 24/18 Q1013","temp":24,"dewp":18,"wdir":60,"wspd":6,"visib":"6+","altim":1013,"clouds":[{"cover":"FEW","base":4000},{"cover":"FEW","base":4500},{"cover":"SCT","base":10000}],"obsTime":1775080800},"SBJR":{"icaoId":"SBJR","flightCategory":"VFR","rawOb":"METAR SBJR 012200Z 34001KT 9999 FEW040 SCT100 23/22 Q1012","temp":23,"dewp":22,"wdir":340,"wspd":1,"visib":"6+","altim":1012,"clouds":[{"cover":"FEW","base":4000},{"cover":"SCT","base":10000}],"obsTime":1775080800},"SBJV":{"icaoId":"SBJV","flightCategory":"VFR","rawOb":"METAR SBJV 012200Z 01002KT 9999 FEW015 BKN040 26/22 Q1011","temp":26,"dewp":22,"wdir":10,"wspd":2,"visib":"6+","altim":1011,"clouds":[{"cover":"FEW","base":1500},{"cover":"BKN","base":4000}],"obsTime":1775080800},"SBAF":{"icaoId":"SBAF","flightCategory":"VFR","rawOb":"METAR SBAF 012200Z 15002KT 9999 FEW030 BKN100 25/25 Q1012","temp":25,"dewp":25,"wdir":150,"wspd":2,"visib":"6+","altim":1012,"clouds":[{"cover":"FEW","base":3000},{"cover":"BKN","base":10000}],"obsTime":1775080800},"SBJP":{"icaoId":"SBJP","flightCategory":"VFR","rawOb":"METAR SBJP 012200Z 03004KT 9999 FEW020 BKN040 25/24 Q1011","temp":25,"dewp":24,"wdir":30,"wspd":4,"visib":"6+","altim":1011,"clouds":[{"cover":"FEW","base":2000},{"cover":"BKN","base":4000}],"obsTime":1775080800},"SBPF":{"icaoId":"SBPF","flightCategory":"VFR","rawOb":"METAR SBPF 012200Z 10010KT 9999 SCT040 21/15 Q1012","temp":21,"dewp":15,"wdir":100,"wspd":10,"visib":"6+","altim":1012,"clouds":[{"cover":"SCT","base":4000}],"obsTime":1775080800},"SBGW":{"icaoId":"SBGW","flightCategory":"VFR","rawOb":"METAR SBGW 012200Z 03006KT 360V060 9999 FEW040 FEW042TCU 24/17 Q1014","temp":24,"dewp":17,"wdir":30,"wspd":6,"visib":"6+","altim":1014,"clouds":[{"cover":"FEW","base":4000},{"cover":"FEW","base":4200}],"obsTime":1775080800}}}