{"updated":1781913349,"count":73,"data":{"SBCG":{"icaoId":"SBCG","flightCategory":"VFR","rawOb":"METAR SBCG 192200Z 36004KT 9999 TS VCSH FEW015 SCT045 FEW050CB OVC080 20/19 Q1017","temp":20,"dewp":19,"wdir":360,"wspd":4,"visib":"6+","altim":1017,"clouds":[{"cover":"FEW","base":1500},{"cover":"SCT","base":4500},{"cover":"FEW","base":5000},{"cover":"OVC","base":8000}],"obsTime":1781906400},"SBVT":{"icaoId":"SBVT","flightCategory":"VFR","rawOb":"METAR SBVT 192200Z 31002KT CAVOK 20/18 Q1020","temp":20,"dewp":18,"wdir":310,"wspd":2,"visib":"6+","altim":1020,"clouds":[],"obsTime":1781906400},"SBBR":{"icaoId":"SBBR","flightCategory":"VFR","rawOb":"METAR SBBR 192200Z 15005KT CAVOK 23/14 Q1021","temp":23,"dewp":14,"wdir":150,"wspd":5,"visib":"6+","altim":1021,"clouds":[],"obsTime":1781906400},"SBUR":{"icaoId":"SBUR","flightCategory":"VFR","rawOb":"METAR SBUR 192200Z 01002KT CAVOK 24/13 Q1020","temp":24,"dewp":13,"wdir":10,"wspd":2,"visib":"6+","altim":1020,"clouds":[],"obsTime":1781906400},"SBUL":{"icaoId":"SBUL","flightCategory":"VFR","rawOb":"METAR SBUL 192200Z 09005KT CAVOK 22/14 Q1021","temp":22,"dewp":14,"wdir":90,"wspd":5,"visib":"6+","altim":1021,"clouds":[],"obsTime":1781906400},"SBBV":{"icaoId":"SBBV","flightCategory":"VFR","rawOb":"METAR SBBV 192200Z 20005KT 9999 VCSH SCT025 FEW030TCU BKN080 28/24 Q1012","temp":28,"dewp":24,"wdir":200,"wspd":5,"visib":"6+","altim":1012,"clouds":[{"cover":"SCT","base":2500},{"cover":"FEW","base":3000},{"cover":"BKN","base":8000}],"obsTime":1781906400},"SBCB":{"icaoId":"SBCB","flightCategory":"VFR","rawOb":"METAR SBCB 192200Z /////KT CAVOK 22/18 Q1019","temp":22,"dewp":18,"wdir":null,"wspd":null,"visib":"6+","altim":1019,"clouds":[],"obsTime":1781906400},"SBTE":{"icaoId":"SBTE","flightCategory":"VFR","rawOb":"METAR SBTE 192200Z 25003KT CAVOK 30/20 Q1011","temp":30,"dewp":20,"wdir":250,"wspd":3,"visib":"6+","altim":1011,"clouds":[],"obsTime":1781906400},"SBCF":{"icaoId":"SBCF","flightCategory":"VFR","rawOb":"METAR SBCF 192200Z 12007KT CAVOK 19/11 Q1022","temp":19,"dewp":11,"wdir":120,"wspd":7,"visib":"6+","altim":1022,"clouds":[],"obsTime":1781906400},"SBSV":{"icaoId":"SBSV","flightCategory":"VFR","rawOb":"METAR SBSV 192200Z 19006KT 9999 SCT023 BKN040 25/20 Q1018","temp":25,"dewp":20,"wdir":190,"wspd":6,"visib":"6+","altim":1018,"clouds":[{"cover":"SCT","base":2300},{"cover":"BKN","base":4000}],"obsTime":1781906400},"SBBE":{"icaoId":"SBBE","flightCategory":"VFR","rawOb":"METAR SBBE 192200Z 08005KT 9999 -RA SCT030 BKN077 24/24 Q1013 RETS","temp":24,"dewp":24,"wdir":80,"wspd":5,"visib":"6+","altim":1013,"clouds":[{"cover":"SCT","base":3000},{"cover":"BKN","base":7700}],"obsTime":1781906400},"SBSP":{"icaoId":"SBSP","flightCategory":"VFR","rawOb":"METAR SBSP 192200Z 03005KT CAVOK 21/11 Q1020","temp":21,"dewp":11,"wdir":30,"wspd":5,"visib":"6+","altim":1020,"clouds":[],"obsTime":1781906400},"SBMA":{"icaoId":"SBMA","flightCategory":"VFR","rawOb":"METAR SBMA 192200Z 05007KT 9999 SCT020 FEW023TCU SCT100 30/23 Q1012","temp":30,"dewp":23,"wdir":50,"wspd":7,"visib":"6+","altim":1012,"clouds":[{"cover":"SCT","base":2000},{"cover":"FEW","base":2300},{"cover":"SCT","base":10000}],"obsTime":1781906400},"SBLO":{"icaoId":"SBLO","flightCategory":"VFR","rawOb":"METAR SBLO 192200Z 22003KT 9999 SCT040 OVC060 20/15 Q1017","temp":20,"dewp":15,"wdir":220,"wspd":3,"visib":"6+","altim":1017,"clouds":[{"cover":"SCT","base":4000},{"cover":"OVC","base":6000}],"obsTime":1781906400},"SBME":{"icaoId":"SBME","flightCategory":"VFR","rawOb":"METAR SBME 192200Z 03009KT CAVOK 20/17 Q1019","temp":20,"dewp":17,"wdir":30,"wspd":9,"visib":"6+","altim":1019,"clouds":[],"obsTime":1781906400},"SBSN":{"icaoId":"SBSN","flightCategory":"VFR","rawOb":"METAR SBSN 192200Z 08003KT CAVOK 28/25 Q1011","temp":28,"dewp":25,"wdir":80,"wspd":3,"visib":"6+","altim":1011,"clouds":[],"obsTime":1781906400},"SBCT":{"icaoId":"SBCT","flightCategory":"VFR","rawOb":"METAR SBCT 192200Z 21008KT 170V230 9999 FEW030 OVC065 15/12 Q1020","temp":15,"dewp":12,"wdir":210,"wspd":8,"visib":"6+","altim":1020,"clouds":[{"cover":"FEW","base":3000},{"cover":"OVC","base":6500}],"obsTime":1781906400},"SBSL":{"icaoId":"SBSL","flightCategory":"VFR","rawOb":"METAR SBSL 192200Z 06006KT 9999 FEW020 BKN070 27/24 Q1013","temp":27,"dewp":24,"wdir":60,"wspd":6,"visib":"6+","altim":1013,"clouds":[{"cover":"FEW","base":2000},{"cover":"BKN","base":7000}],"obsTime":1781906400},"SBCZ":{"icaoId":"SBCZ","flightCategory":"MVFR","rawOb":"METAR SBCZ 192200Z 12003KT 9999 BKN030 28/25 Q1012","temp":28,"dewp":25,"wdir":120,"wspd":3,"visib":"6+","altim":1012,"clouds":[{"cover":"BKN","base":3000}],"obsTime":1781906400},"SBSG":{"icaoId":"SBSG","flightCategory":"VFR","rawOb":"METAR SBSG 192200Z 16003KT 120V200 9999 FEW025 25/23 Q1014","temp":25,"dewp":23,"wdir":160,"wspd":3,"visib":"6+","altim":1014,"clouds":[{"cover":"FEW","base":2500}],"obsTime":1781906400},"SBRF":{"icaoId":"SBRF","flightCategory":"MVFR","rawOb":"METAR SBRF 192200Z 19008KT 9999 SCT012 BKN018 24/23 Q1014","temp":24,"dewp":23,"wdir":190,"wspd":8,"visib":"6+","altim":1014,"clouds":[{"cover":"SCT","base":1200},{"cover":"BKN","base":1800}],"obsTime":1781906400},"SBEG":{"icaoId":"SBEG","flightCategory":"VFR","rawOb":"METAR SBEG 192200Z VRB02KT 9999 FEW025 FEW030TCU 27/26 Q1012","temp":27,"dewp":26,"wdir":"VRB","wspd":2,"visib":"6+","altim":1012,"clouds":[{"cover":"FEW","base":2500},{"cover":"FEW","base":3000}],"obsTime":1781906400},"SBFI":{"icaoId":"SBFI","flightCategory":"VFR","rawOb":"METAR SBFI 192200Z 21008KT 9999 SCT007 OVC040 14/14 Q1018","temp":14,"dewp":14,"wdir":210,"wspd":8,"visib":"6+","altim":1018,"clouds":[{"cover":"SCT","base":700},{"cover":"OVC","base":4000}],"obsTime":1781906400},"SBRB":{"icaoId":"SBRB","flightCategory":"VFR","rawOb":"METAR SBRB 192200Z 04003KT 9999 FEW036 29/22 Q1013","temp":29,"dewp":22,"wdir":40,"wspd":3,"visib":"6+","altim":1013,"clouds":[{"cover":"FEW","base":3600}],"obsTime":1781906400},"SBFL":{"icaoId":"SBFL","flightCategory":"VFR","rawOb":"METAR SBFL 192200Z 36011KT 9999 FEW033 19/15 Q1015","temp":19,"dewp":15,"wdir":360,"wspd":11,"visib":"6+","altim":1015,"clouds":[{"cover":"FEW","base":3300}],"obsTime":1781906400},"SBPV":{"icaoId":"SBPV","flightCategory":"VFR","rawOb":"METAR SBPV 192200Z 00000KT CAVOK 28/22 Q1012","temp":28,"dewp":22,"wdir":0,"wspd":0,"visib":"6+","altim":1012,"clouds":[],"obsTime":1781906400},"SBFZ":{"icaoId":"SBFZ","flightCategory":"VFR","rawOb":"METAR SBFZ 192200Z COR 09007KT 9999 FEW023 27/23 Q1012","temp":27,"dewp":23,"wdir":90,"wspd":7,"visib":"6+","altim":1012,"clouds":[{"cover":"FEW","base":2300}],"obsTime":1781906400},"SBPJ":{"icaoId":"SBPJ","flightCategory":"VFR","rawOb":"METAR SBPJ 192200Z VRB01KT CAVOK 28/22 Q1013","temp":28,"dewp":22,"wdir":"VRB","wspd":1,"visib":"6+","altim":1013,"clouds":[],"obsTime":1781906400},"SBGL":{"icaoId":"SBGL","flightCategory":"VFR","rawOb":"METAR SBGL 192200Z 14003KT CAVOK 20/17 Q1017","temp":20,"dewp":17,"wdir":140,"wspd":3,"visib":"6+","altim":1017,"clouds":[],"obsTime":1781906400},"SBGO":{"icaoId":"SBGO","flightCategory":"VFR","rawOb":"METAR SBGO 192200Z 09006KT CAVOK 26/15 Q1018","temp":26,"dewp":15,"wdir":90,"wspd":6,"visib":"6+","altim":1018,"clouds":[],"obsTime":1781906400},"SBPA":{"icaoId":"SBPA","flightCategory":"VFR","rawOb":"METAR SBPA 192200Z 26005KT 240V300 9999 4500S VCSH FEW008 SCT020 BKN033 15/14 Q1015","temp":15,"dewp":14,"wdir":260,"wspd":5,"visib":"6+","altim":1015,"clouds":[{"cover":"FEW","base":800},{"cover":"SCT","base":2000},{"cover":"BKN","base":3300}],"obsTime":1781906400},"SBGR":{"icaoId":"SBGR","flightCategory":"VFR","rawOb":"METAR SBGR 192200Z 09003KT CAVOK 19/12 Q1020","temp":19,"dewp":12,"wdir":90,"wspd":3,"visib":"6+","altim":1020,"clouds":[],"obsTime":1781906400},"SBNT":{"icaoId":"SBNT","flightCategory":"VFR","rawOb":"METAR SBNT 192200Z 16006KT 9999 FEW024 25/23 Q1014","temp":25,"dewp":23,"wdir":160,"wspd":6,"visib":"6+","altim":1014,"clouds":[{"cover":"FEW","base":2400}],"obsTime":1781906400},"SBMQ":{"icaoId":"SBMQ","flightCategory":"VFR","rawOb":"METAR SBMQ 192200Z 08006KT 9999 FEW030 29/24 Q1012","temp":29,"dewp":24,"wdir":80,"wspd":6,"visib":"6+","altim":1012,"clouds":[{"cover":"FEW","base":3000}],"obsTime":1781906400},"SBIL":{"icaoId":"SBIL","flightCategory":"VFR","rawOb":"METAR SBIL 192200Z 22005KT CAVOK 25/18 Q1019","temp":25,"dewp":18,"wdir":220,"wspd":5,"visib":"6+","altim":1019,"clouds":[],"obsTime":1781906400},"SBMO":{"icaoId":"SBMO","flightCategory":"MVFR","rawOb":"METAR SBMO 192200Z 17007KT 9999 SCT014 BKN020 24/23 Q1016","temp":24,"dewp":23,"wdir":170,"wspd":7,"visib":"6+","altim":1016,"clouds":[{"cover":"SCT","base":1400},{"cover":"BKN","base":2000}],"obsTime":1781906400},"SBJU":{"icaoId":"SBJU","flightCategory":"MVFR","rawOb":"METAR SBJU 192200Z 18005KT 9999 BKN020 25/19 Q1016","temp":25,"dewp":19,"wdir":180,"wspd":5,"visib":"6+","altim":1016,"clouds":[{"cover":"BKN","base":2000}],"obsTime":1781906400},"SBKP":{"icaoId":"SBKP","flightCategory":"VFR","rawOb":"METAR SBKP 192200Z 05005KT CAVOK 21/13 Q1019","temp":21,"dewp":13,"wdir":50,"wspd":5,"visib":"6+","altim":1019,"clouds":[],"obsTime":1781906400},"SBMK":{"icaoId":"SBMK","flightCategory":"VFR","rawOb":"METAR SBMK 192200Z 09004KT CAVOK 20/12 Q1021","temp":20,"dewp":12,"wdir":90,"wspd":4,"visib":"6+","altim":1021,"clouds":[],"obsTime":1781906400},"SBMG":{"icaoId":"SBMG","flightCategory":"VFR","rawOb":"METAR SBMG 192200Z 15005KT 9999 BKN035 BKN060 OVC100 18/16 Q1017","temp":18,"dewp":16,"wdir":150,"wspd":5,"visib":"6+","altim":1017,"clouds":[{"cover":"BKN","base":3500},{"cover":"BKN","base":6000},{"cover":"OVC","base":10000}],"obsTime":1781906400},"SBCP":{"icaoId":"SBCP","flightCategory":"VFR","rawOb":"METAR SBCP 192200Z 10005KT 9999 FEW020 18/17 Q1020","temp":18,"dewp":17,"wdir":100,"wspd":5,"visib":"6+","altim":1020,"clouds":[{"cover":"FEW","base":2000}],"obsTime":1781906400},"SBVH":{"icaoId":"SBVH","flightCategory":"VFR","rawOb":"METAR SBVH 192200Z 22006KT 9999 FEW011 24/21 Q1017","temp":24,"dewp":21,"wdir":220,"wspd":6,"visib":"6+","altim":1017,"clouds":[{"cover":"FEW","base":1100}],"obsTime":1781906400},"SBAX":{"icaoId":"SBAX","flightCategory":"VFR","rawOb":"METAR SBAX 192200Z 06002KT CAVOK 21/12 Q1021","temp":21,"dewp":12,"wdir":60,"wspd":2,"visib":"6+","altim":1021,"clouds":[],"obsTime":1781906400},"SBBH":{"icaoId":"SBBH","flightCategory":"VFR","rawOb":"METAR SBBH 192200Z 09002KT CAVOK 18/12 Q1022","temp":18,"dewp":12,"wdir":90,"wspd":2,"visib":"6+","altim":1022,"clouds":[],"obsTime":1781906400},"SBBU":{"icaoId":"SBBU","flightCategory":"VFR","rawOb":"METAR SBBU 192200Z 06002KT CAVOK 24/16 Q1018","temp":24,"dewp":16,"wdir":60,"wspd":2,"visib":"6+","altim":1018,"clouds":[],"obsTime":1781906400},"SBCA":{"icaoId":"SBCA","flightCategory":"VFR","rawOb":"METAR SBCA 192200Z 14006KT 9999 FEW003 SCT030 OVC080 12/11 Q1019","temp":12,"dewp":11,"wdir":140,"wspd":6,"visib":"6+","altim":1019,"clouds":[{"cover":"FEW","base":300},{"cover":"SCT","base":3000},{"cover":"OVC","base":8000}],"obsTime":1781906400},"SBCO":{"icaoId":"SBCO","flightCategory":"MVFR","rawOb":"METAR SBCO 192200Z 26004KT 9999 BKN019 15/14 Q1016","temp":15,"dewp":14,"wdir":260,"wspd":4,"visib":"6+","altim":1016,"clouds":[{"cover":"BKN","base":1900}],"obsTime":1781906400},"SBDN":{"icaoId":"SBDN","flightCategory":"VFR","rawOb":"METAR SBDN 192200Z 24004KT 9999 BKN049 FEW055TCU 24/16 Q1017","temp":24,"dewp":16,"wdir":240,"wspd":4,"visib":"6+","altim":1017,"clouds":[{"cover":"BKN","base":4900},{"cover":"FEW","base":5500}],"obsTime":1781906400},"SBIP":{"icaoId":"SBIP","flightCategory":"VFR","rawOb":"METAR SBIP 192200Z AUTO 00000KT CAVOK 15/14 Q1020","temp":15,"dewp":14,"wdir":0,"wspd":0,"visib":"6+","altim":1020,"clouds":[],"obsTime":1781906400},"SBKG":{"icaoId":"SBKG","flightCategory":"MVFR","rawOb":"METAR SBKG 192200Z 15009KT 9999 BKN015 SCT020 22/21 Q1017","temp":22,"dewp":21,"wdir":150,"wspd":9,"visib":"6+","altim":1017,"clouds":[{"cover":"BKN","base":1500},{"cover":"SCT","base":2000}],"obsTime":1781906400},"SBPL":{"icaoId":"SBPL","flightCategory":"VFR","rawOb":"METAR SBPL 192200Z 13007KT CAVOK 25/18 Q1017","temp":25,"dewp":18,"wdir":130,"wspd":7,"visib":"6+","altim":1017,"clouds":[],"obsTime":1781906400},"SBPS":{"icaoId":"SBPS","flightCategory":"VFR","rawOb":"METAR SBPS 192200Z VRB02KT 9999 SCT030 21/17 Q1019","temp":21,"dewp":17,"wdir":"VRB","wspd":2,"visib":"6+","altim":1019,"clouds":[{"cover":"SCT","base":3000}],"obsTime":1781906400},"SBSC":{"icaoId":"SBSC","flightCategory":"VFR","rawOb":"METAR SBSC 192200Z 23001KT CAVOK 19/15 Q1018","temp":19,"dewp":15,"wdir":230,"wspd":1,"visib":"6+","altim":1018,"clouds":[],"obsTime":1781906400},"SBSJ":{"icaoId":"SBSJ","flightCategory":"VFR","rawOb":"METAR SBSJ 192200Z 10004KT CAVOK 19/11 Q1020","temp":19,"dewp":11,"wdir":100,"wspd":4,"visib":"6+","altim":1020,"clouds":[],"obsTime":1781906400},"SBSM":{"icaoId":"SBSM","flightCategory":"MVFR","rawOb":"METAR SBSM 192200Z VRB02KT 9999 FEW006 BKN013 OVC020 12/11 Q1018","temp":12,"dewp":11,"wdir":"VRB","wspd":2,"visib":"6+","altim":1018,"clouds":[{"cover":"FEW","base":600},{"cover":"BKN","base":1300},{"cover":"OVC","base":2000}],"obsTime":1781906400},"SBSR":{"icaoId":"SBSR","flightCategory":"VFR","rawOb":"METAR SBSR 192200Z 06002KT CAVOK 26/14 Q1017","temp":26,"dewp":14,"wdir":60,"wspd":2,"visib":"6+","altim":1017,"clouds":[],"obsTime":1781906400},"SBTT":{"icaoId":"SBTT","flightCategory":"VFR","rawOb":"METAR SBTT 192200Z 35002KT 9999 SCT025 BKN100 28/24 Q1012","temp":28,"dewp":24,"wdir":350,"wspd":2,"visib":"6+","altim":1012,"clouds":[{"cover":"SCT","base":2500},{"cover":"BKN","base":10000}],"obsTime":1781906400},"SBAR":{"icaoId":"SBAR","flightCategory":"VFR","rawOb":"METAR SBAR 192200Z 17007KT 110V200 9999 SCT030 26/20 Q1016","temp":26,"dewp":20,"wdir":170,"wspd":7,"visib":"6+","altim":1016,"clouds":[{"cover":"SCT","base":3000}],"obsTime":1781906400},"SBTF":{"icaoId":"SBTF","flightCategory":"VFR","rawOb":"METAR SBTF 192200Z 12002KT 9999 FEW022 31/25 Q1011","temp":31,"dewp":25,"wdir":120,"wspd":2,"visib":"6+","altim":1011,"clouds":[{"cover":"FEW","base":2200}],"obsTime":1781906400},"SBOI":{"icaoId":"SBOI","flightCategory":"VFR","rawOb":"METAR SBOI 192200Z AUTO 05003KT CAVOK 24/23 Q1013","temp":24,"dewp":23,"wdir":50,"wspd":3,"visib":"6+","altim":1013,"clouds":[],"obsTime":1781906400},"SBUY":{"icaoId":"SBUY","flightCategory":"VFR","rawOb":"METAR SBUY 192200Z 00000KT 9999 FEW025 27/25 Q1011","temp":27,"dewp":25,"wdir":0,"wspd":0,"visib":"6+","altim":1011,"clouds":[{"cover":"FEW","base":2500}],"obsTime":1781906400},"SBTA":{"icaoId":"SBTA","flightCategory":"VFR","rawOb":"METAR SBTA 192200Z 29001KT CAVOK 15/12 Q1019","temp":15,"dewp":12,"wdir":290,"wspd":1,"visib":"6+","altim":1019,"clouds":[],"obsTime":1781906400},"SBJP":{"icaoId":"SBJP","flightCategory":"VFR","rawOb":"METAR SBJP 192200Z 16007KT 9999 SCT020 24/22 Q1015","temp":24,"dewp":22,"wdir":160,"wspd":7,"visib":"6+","altim":1015,"clouds":[{"cover":"SCT","base":2000}],"obsTime":1781906400},"SBLE":{"icaoId":"SBLE","flightCategory":"VFR","rawOb":"METAR SBLE 192200Z AUTO 33002KT CAVOK ///// Q////","temp":null,"dewp":null,"wdir":330,"wspd":2,"visib":"6+","altim":null,"clouds":[],"obsTime":1781906400},"SBAN":{"icaoId":"SBAN","flightCategory":"VFR","rawOb":"METAR SBAN 192200Z 13002KT 9999 FEW030 22/14 Q1021","temp":22,"dewp":14,"wdir":130,"wspd":2,"visib":"6+","altim":1021,"clouds":[{"cover":"FEW","base":3000}],"obsTime":1781906400},"SBJV":{"icaoId":"SBJV","flightCategory":"VFR","rawOb":"METAR SBJV 192200Z 00000KT 9999 FEW010 BKN050 16/15 Q1017","temp":16,"dewp":15,"wdir":0,"wspd":0,"visib":"6+","altim":1017,"clouds":[{"cover":"FEW","base":1000},{"cover":"BKN","base":5000}],"obsTime":1781906400},"SBNM":{"icaoId":"SBNM","flightCategory":"LIFR","rawOb":"METAR SBNM 192200Z AUTO 23009KT 8000 -RA SCT001 BKN003 OVC005 12/11 Q1019","temp":12,"dewp":11,"wdir":230,"wspd":9,"visib":4.97,"altim":1019,"clouds":[{"cover":"SCT","base":100},{"cover":"BKN","base":300},{"cover":"OVC","base":500}],"obsTime":1781906400},"SBAF":{"icaoId":"SBAF","flightCategory":"VFR","rawOb":"METAR SBAF 192200Z 24005KT CAVOK 17/17 Q1018","temp":17,"dewp":17,"wdir":240,"wspd":5,"visib":"6+","altim":1018,"clouds":[],"obsTime":1781906400},"SBJR":{"icaoId":"SBJR","flightCategory":"VFR","rawOb":"METAR SBJR 192200Z 00000KT CAVOK 18/16 Q1018","temp":18,"dewp":16,"wdir":0,"wspd":0,"visib":"6+","altim":1018,"clouds":[],"obsTime":1781906400},"SBLS":{"icaoId":"SBLS","flightCategory":"VFR","rawOb":"METAR SBLS 192200Z 14007KT CAVOK 18/11 Q1022","temp":18,"dewp":11,"wdir":140,"wspd":7,"visib":"6+","altim":1022,"clouds":[],"obsTime":1781906400},"SBMT":{"icaoId":"SBMT","flightCategory":"VFR","rawOb":"METAR SBMT 192200Z 00000KT CAVOK 13/11 Q1019","temp":13,"dewp":11,"wdir":0,"wspd":0,"visib":"6+","altim":1019,"clouds":[],"obsTime":1781906400},"SBPF":{"icaoId":"SBPF","flightCategory":"IFR","rawOb":"METAR SBPF 192200Z 32004KT 9999 BKN006 11/10 Q1018","temp":11,"dewp":10,"wdir":320,"wspd":4,"visib":"6+","altim":1018,"clouds":[{"cover":"BKN","base":600}],"obsTime":1781906400},"SBGW":{"icaoId":"SBGW","flightCategory":"VFR","rawOb":"METAR SBGW 192200Z 04002KT CAVOK 17/10 Q1020","temp":17,"dewp":10,"wdir":40,"wspd":2,"visib":"6+","altim":1020,"clouds":[],"obsTime":1781906400}}}