{"updated":1773964147,"count":72,"data":{"SBBE":{"icaoId":"SBBE","flightCategory":"VFR","rawOb":"METAR SBBE 192200Z 08004KT 9999 BKN045 25/23 Q1008","temp":25,"dewp":23,"wdir":80,"wspd":4,"visib":"6+","altim":1008,"clouds":[{"cover":"BKN","base":4500}],"obsTime":1773957600},"SBSN":{"icaoId":"SBSN","flightCategory":"VFR","rawOb":"METAR SBSN 192200Z 22002KT 9999 VCSH FEW020 FEW023TCU BKN080 26/25 Q1008","temp":26,"dewp":25,"wdir":220,"wspd":2,"visib":"6+","altim":1008,"clouds":[{"cover":"FEW","base":2000},{"cover":"FEW","base":2300},{"cover":"BKN","base":8000}],"obsTime":1773957600},"SBGL":{"icaoId":"SBGL","flightCategory":"MVFR","rawOb":"METAR SBGL 192200Z 11005KT 8000 -RA BKN025 BKN100 25/24 Q1008","temp":25,"dewp":24,"wdir":110,"wspd":5,"visib":4.97,"altim":1008,"clouds":[{"cover":"BKN","base":2500},{"cover":"BKN","base":10000}],"obsTime":1773957600},"SBMG":{"icaoId":"SBMG","flightCategory":"VFR","rawOb":"METAR SBMG 192200Z 07004KT 9999 TS VCSH FEW030 FEW040CB 26/19 Q1007","temp":26,"dewp":19,"wdir":70,"wspd":4,"visib":"6+","altim":1007,"clouds":[{"cover":"FEW","base":3000},{"cover":"FEW","base":4000}],"obsTime":1773957600},"SBMK":{"icaoId":"SBMK","flightCategory":"VFR","rawOb":"METAR SBMK 192200Z 27002KT 9999 SCT045 FEW046TCU BKN070 24/22 Q1010","temp":24,"dewp":22,"wdir":270,"wspd":2,"visib":"6+","altim":1010,"clouds":[{"cover":"SCT","base":4500},{"cover":"FEW","base":4600},{"cover":"BKN","base":7000}],"obsTime":1773957600},"SBFZ":{"icaoId":"SBFZ","flightCategory":"VFR","rawOb":"METAR SBFZ 192200Z 11008KT 9999 FEW020 28/24 Q1008","temp":28,"dewp":24,"wdir":110,"wspd":8,"visib":"6+","altim":1008,"clouds":[{"cover":"FEW","base":2000}],"obsTime":1773957600},"SBMO":{"icaoId":"SBMO","flightCategory":"VFR","rawOb":"METAR SBMO 192200Z 07006KT 9999 FEW020 27/24 Q1009","temp":27,"dewp":24,"wdir":70,"wspd":6,"visib":"6+","altim":1009,"clouds":[{"cover":"FEW","base":2000}],"obsTime":1773957600},"SBBV":{"icaoId":"SBBV","flightCategory":"VFR","rawOb":"METAR SBBV 192200Z 14004KT 9999 -SHRA SCT030 FEW035TCU BKN070 28/22 Q1009","temp":28,"dewp":22,"wdir":140,"wspd":4,"visib":"6+","altim":1009,"clouds":[{"cover":"SCT","base":3000},{"cover":"FEW","base":3500},{"cover":"BKN","base":7000}],"obsTime":1773957600},"SBMQ":{"icaoId":"SBMQ","flightCategory":"VFR","rawOb":"METAR SBMQ 192200Z 07005KT 9999 FEW020 BKN100 28/24 Q1007","temp":28,"dewp":24,"wdir":70,"wspd":5,"visib":"6+","altim":1007,"clouds":[{"cover":"FEW","base":2000},{"cover":"BKN","base":10000}],"obsTime":1773957600},"SBNT":{"icaoId":"SBNT","flightCategory":"VFR","rawOb":"METAR SBNT 192200Z 11007KT CAVOK 28/23 Q1009","temp":28,"dewp":23,"wdir":110,"wspd":7,"visib":"6+","altim":1009,"clouds":[],"obsTime":1773957600},"SBPA":{"icaoId":"SBPA","flightCategory":"VFR","rawOb":"METAR SBPA 192200Z 13008KT 9999 FEW020 25/20 Q1008","temp":25,"dewp":20,"wdir":130,"wspd":8,"visib":"6+","altim":1008,"clouds":[{"cover":"FEW","base":2000}],"obsTime":1773957600},"SBCT":{"icaoId":"SBCT","flightCategory":"MVFR","rawOb":"METAR SBCT 192200Z 11006KT 9999 SCT008 BKN011 22/20 Q1012","temp":22,"dewp":20,"wdir":110,"wspd":6,"visib":"6+","altim":1012,"clouds":[{"cover":"SCT","base":800},{"cover":"BKN","base":1100}],"obsTime":1773957600},"SBPJ":{"icaoId":"SBPJ","flightCategory":"VFR","rawOb":"METAR SBPJ 192200Z 05002KT 9999 FEW025 27/25 Q1007","temp":27,"dewp":25,"wdir":50,"wspd":2,"visib":"6+","altim":1007,"clouds":[{"cover":"FEW","base":2500}],"obsTime":1773957600},"SBGO":{"icaoId":"SBGO","flightCategory":"VFR","rawOb":"METAR SBGO 192200Z VRB02KT 9999 FEW035 FEW050TCU BKN080 25/20 Q1011","temp":25,"dewp":20,"wdir":"VRB","wspd":2,"visib":"6+","altim":1011,"clouds":[{"cover":"FEW","base":3500},{"cover":"FEW","base":5000},{"cover":"BKN","base":8000}],"obsTime":1773957600},"SBPV":{"icaoId":"SBPV","flightCategory":"VFR","rawOb":"METAR SBPV 192200Z 01002KT 9999 SCT030 FEW035TCU BKN100 28/27 Q1006 RESHRA","temp":28,"dewp":27,"wdir":10,"wspd":2,"visib":"6+","altim":1006,"clouds":[{"cover":"SCT","base":3000},{"cover":"FEW","base":3500},{"cover":"BKN","base":10000}],"obsTime":1773957600},"SBCZ":{"icaoId":"SBCZ","flightCategory":"VFR","rawOb":"METAR SBCZ 192200Z 33003KT 9999 FEW030 FEW030TCU BKN100 28/24 Q1006","temp":28,"dewp":24,"wdir":330,"wspd":3,"visib":"6+","altim":1006,"clouds":[{"cover":"FEW","base":3000},{"cover":"FEW","base":3000},{"cover":"BKN","base":10000}],"obsTime":1773957600},"SBRB":{"icaoId":"SBRB","flightCategory":"VFR","rawOb":"METAR SBRB 192200Z 34004KT 9999 FEW030 FEW035TCU SCT100 29/24 Q1006","temp":29,"dewp":24,"wdir":340,"wspd":4,"visib":"6+","altim":1006,"clouds":[{"cover":"FEW","base":3000},{"cover":"FEW","base":3500},{"cover":"SCT","base":10000}],"obsTime":1773957600},"SBGR":{"icaoId":"SBGR","flightCategory":"IFR","rawOb":"METAR SBGR 192200Z 07005KT 9999 -RA BKN009 OVC100 21/20 Q1012 RERA","temp":21,"dewp":20,"wdir":70,"wspd":5,"visib":"6+","altim":1012,"clouds":[{"cover":"BKN","base":900},{"cover":"OVC","base":10000}],"obsTime":1773957600},"SBRF":{"icaoId":"SBRF","flightCategory":"VFR","rawOb":"METAR SBRF 192200Z 10006KT 050V130 9999 FEW023 29/23 Q1009","temp":29,"dewp":23,"wdir":100,"wspd":6,"visib":"6+","altim":1009,"clouds":[{"cover":"FEW","base":2300}],"obsTime":1773957600},"SBSG":{"icaoId":"SBSG","flightCategory":"VFR","rawOb":"METAR SBSG 192200Z 12005KT 090V150 9999 FEW023 26/23 Q1009","temp":26,"dewp":23,"wdir":120,"wspd":5,"visib":"6+","altim":1009,"clouds":[{"cover":"FEW","base":2300}],"obsTime":1773957600},"SBIL":{"icaoId":"SBIL","flightCategory":"VFR","rawOb":"METAR SBIL 192200Z 08009KT CAVOK 29/25 Q1008","temp":29,"dewp":25,"wdir":80,"wspd":9,"visib":"6+","altim":1008,"clouds":[],"obsTime":1773957600},"SBSL":{"icaoId":"SBSL","flightCategory":"VFR","rawOb":"METAR SBSL 192200Z 06007KT 9999 FEW020 BKN070 27/25 Q1008","temp":27,"dewp":25,"wdir":60,"wspd":7,"visib":"6+","altim":1008,"clouds":[{"cover":"FEW","base":2000},{"cover":"BKN","base":7000}],"obsTime":1773957600},"SBEG":{"icaoId":"SBEG","flightCategory":"MVFR","rawOb":"METAR SBEG 192200Z 34003KT 280V020 9999 BKN012 SCT020 FEW030TCU BKN100 24/24 Q1009","temp":24,"dewp":24,"wdir":340,"wspd":3,"visib":"6+","altim":1009,"clouds":[{"cover":"BKN","base":1200},{"cover":"SCT","base":2000},{"cover":"FEW","base":3000},{"cover":"BKN","base":10000}],"obsTime":1773957600},"SBSP":{"icaoId":"SBSP","flightCategory":"MVFR","rawOb":"METAR SBSP 192200Z 09004KT 9999 SCT011 BKN023 21/19 Q1012","temp":21,"dewp":19,"wdir":90,"wspd":4,"visib":"6+","altim":1012,"clouds":[{"cover":"SCT","base":1100},{"cover":"BKN","base":2300}],"obsTime":1773957600},"SBJU":{"icaoId":"SBJU","flightCategory":"MVFR","rawOb":"METAR SBJU 192200Z 00000KT 9999 TS BKN022 FEW023CB 26/23 Q1011","temp":26,"dewp":23,"wdir":0,"wspd":0,"visib":"6+","altim":1011,"clouds":[{"cover":"BKN","base":2200},{"cover":"FEW","base":2300}],"obsTime":1773957600},"SBCF":{"icaoId":"SBCF","flightCategory":"VFR","rawOb":"METAR SBCF 192200Z 32003KT 9999 VCTS FEW006 FEW040CB BKN100 23/21 Q1013","temp":23,"dewp":21,"wdir":320,"wspd":3,"visib":"6+","altim":1013,"clouds":[{"cover":"FEW","base":600},{"cover":"FEW","base":4000},{"cover":"BKN","base":10000}],"obsTime":1773957600},"SBSV":{"icaoId":"SBSV","flightCategory":"VFR","rawOb":"METAR SBSV 192200Z 08008KT CAVOK 28/21 Q1008","temp":28,"dewp":21,"wdir":80,"wspd":8,"visib":"6+","altim":1008,"clouds":[],"obsTime":1773957600},"SBKP":{"icaoId":"SBKP","flightCategory":"VFR","rawOb":"METAR SBKP 192200Z 11008KT 9999 BKN040 FEW050TCU BKN080 22/20 Q1010","temp":22,"dewp":20,"wdir":110,"wspd":8,"visib":"6+","altim":1010,"clouds":[{"cover":"BKN","base":4000},{"cover":"FEW","base":5000},{"cover":"BKN","base":8000}],"obsTime":1773957600},"SBTE":{"icaoId":"SBTE","flightCategory":"VFR","rawOb":"METAR SBTE 192200Z 14006KT 9999 -RA FEW015 OVC090 27/25 Q1007","temp":27,"dewp":25,"wdir":140,"wspd":6,"visib":"6+","altim":1007,"clouds":[{"cover":"FEW","base":1500},{"cover":"OVC","base":9000}],"obsTime":1773957600},"SBBR":{"icaoId":"SBBR","flightCategory":"VFR","rawOb":"METAR SBBR 192200Z 35003KT 300V020 9999 SCT040 BKN090 25/17 Q1013","temp":25,"dewp":17,"wdir":350,"wspd":3,"visib":"6+","altim":1013,"clouds":[{"cover":"SCT","base":4000},{"cover":"BKN","base":9000}],"obsTime":1773957600},"SBUL":{"icaoId":"SBUL","flightCategory":"VFR","rawOb":"METAR SBUL 192200Z 34006KT 9999 FEW045 FEW050TCU 24/20 Q1012","temp":24,"dewp":20,"wdir":340,"wspd":6,"visib":"6+","altim":1012,"clouds":[{"cover":"FEW","base":4500},{"cover":"FEW","base":5000}],"obsTime":1773957600},"SBLO":{"icaoId":"SBLO","flightCategory":"VFR","rawOb":"METAR SBLO 192200Z 19002KT 9999 FEW040TCU 27/22 Q1007","temp":27,"dewp":22,"wdir":190,"wspd":2,"visib":"6+","altim":1007,"clouds":[{"cover":"FEW","base":4000}],"obsTime":1773957600},"SBUR":{"icaoId":"SBUR","flightCategory":"VFR","rawOb":"METAR SBUR 192200Z 31006KT 9999 TS SCT035 FEW038CB SCT100 25/21 Q1010","temp":25,"dewp":21,"wdir":310,"wspd":6,"visib":"6+","altim":1010,"clouds":[{"cover":"SCT","base":3500},{"cover":"FEW","base":3800},{"cover":"SCT","base":10000}],"obsTime":1773957600},"SBFI":{"icaoId":"SBFI","flightCategory":"VFR","rawOb":"METAR SBFI 192200Z 22004KT 9999 FEW030 30/25 Q1005","temp":30,"dewp":25,"wdir":220,"wspd":4,"visib":"6+","altim":1005,"clouds":[{"cover":"FEW","base":3000}],"obsTime":1773957600},"SBVT":{"icaoId":"SBVT","flightCategory":"VFR","rawOb":"METAR SBVT 192200Z 29003KT 260V320 9999 SCT005 SCT040 24/24 Q1007","temp":24,"dewp":24,"wdir":290,"wspd":3,"visib":"6+","altim":1007,"clouds":[{"cover":"SCT","base":500},{"cover":"SCT","base":4000}],"obsTime":1773957600},"SBCG":{"icaoId":"SBCG","flightCategory":"VFR","rawOb":"METAR SBCG 192200Z 30005KT 9999 FEW030 27/21 Q1008","temp":27,"dewp":21,"wdir":300,"wspd":5,"visib":"6+","altim":1008,"clouds":[{"cover":"FEW","base":3000}],"obsTime":1773957600},"SBMA":{"icaoId":"SBMA","flightCategory":"VFR","rawOb":"METAR SBMA 192200Z 16003KT 9999 FEW025TCU SCT090 28/23 Q1007","temp":28,"dewp":23,"wdir":160,"wspd":3,"visib":"6+","altim":1007,"clouds":[{"cover":"FEW","base":2500},{"cover":"SCT","base":9000}],"obsTime":1773957600},"SBME":{"icaoId":"SBME","flightCategory":"MVFR","rawOb":"METAR SBME 192200Z 14002KT 8000 -RA BKN010 BKN027 OVC100 25/23 Q1008","temp":25,"dewp":23,"wdir":140,"wspd":2,"visib":4.97,"altim":1008,"clouds":[{"cover":"BKN","base":1000},{"cover":"BKN","base":2700},{"cover":"OVC","base":10000}],"obsTime":1773957600},"SBFL":{"icaoId":"SBFL","flightCategory":"VFR","rawOb":"METAR SBFL 192200Z 15006KT 9999 SCT020 BKN045 26/23 Q1008","temp":26,"dewp":23,"wdir":150,"wspd":6,"visib":"6+","altim":1008,"clouds":[{"cover":"SCT","base":2000},{"cover":"BKN","base":4500}],"obsTime":1773957600},"SBCP":{"icaoId":"SBCP","flightCategory":"VFR","rawOb":"METAR SBCP 192200Z 29002KT 9999 BKN035 OVC100 26/25 Q1008 RETS","temp":26,"dewp":25,"wdir":290,"wspd":2,"visib":"6+","altim":1008,"clouds":[{"cover":"BKN","base":3500},{"cover":"OVC","base":10000}],"obsTime":1773957600},"SBAT":{"icaoId":"SBAT","flightCategory":"VFR","rawOb":"METAR SBAT 192200Z 05005KT 9999 SCT030 BKN100 26/24 Q1008","temp":26,"dewp":24,"wdir":50,"wspd":5,"visib":"6+","altim":1008,"clouds":[{"cover":"SCT","base":3000},{"cover":"BKN","base":10000}],"obsTime":1773957600},"SBOI":{"icaoId":"SBOI","flightCategory":"IFR","rawOb":"METAR SBOI 192200Z AUTO 15002KT 9999 BKN008 24/23 Q1009","temp":24,"dewp":23,"wdir":150,"wspd":2,"visib":"6+","altim":1009,"clouds":[{"cover":"BKN","base":800}],"obsTime":1773957600},"SBSJ":{"icaoId":"SBSJ","flightCategory":"IFR","rawOb":"METAR SBSJ 192200Z VRB01KT 4000 RA BKN026 BKN036 BKN083 19/19 Q1012","temp":19,"dewp":19,"wdir":"VRB","wspd":1,"visib":2.49,"altim":1012,"clouds":[{"cover":"BKN","base":2600},{"cover":"BKN","base":3600},{"cover":"BKN","base":8300}],"obsTime":1773957600},"SBAR":{"icaoId":"SBAR","flightCategory":"VFR","rawOb":"METAR SBAR 192200Z 09010KT 9999 FEW021 28/24 Q1008","temp":28,"dewp":24,"wdir":90,"wspd":10,"visib":"6+","altim":1008,"clouds":[{"cover":"FEW","base":2100}],"obsTime":1773957600},"SBAX":{"icaoId":"SBAX","flightCategory":"MVFR","rawOb":"METAR SBAX 192200Z 31005KT 6000 -TSRA SCT012 FEW018CB BKN025 OVC035 22/21 Q1012 RERA","temp":22,"dewp":21,"wdir":310,"wspd":5,"visib":3.73,"altim":1012,"clouds":[{"cover":"SCT","base":1200},{"cover":"FEW","base":1800},{"cover":"BKN","base":2500},{"cover":"OVC","base":3500}],"obsTime":1773957600},"SBBH":{"icaoId":"SBBH","flightCategory":"IFR","rawOb":"METAR SBBH 192200Z 00000KT 3000 -TSRA SCT040 FEW045CB BKN100 23/22 Q1012","temp":23,"dewp":22,"wdir":0,"wspd":0,"visib":1.86,"altim":1012,"clouds":[{"cover":"SCT","base":4000},{"cover":"FEW","base":4500},{"cover":"BKN","base":10000}],"obsTime":1773957600},"SBBU":{"icaoId":"SBBU","flightCategory":"VFR","rawOb":"METAR SBBU 192200Z 06003KT 9999 FEW030 24/22 Q1009","temp":24,"dewp":22,"wdir":60,"wspd":3,"visib":"6+","altim":1009,"clouds":[{"cover":"FEW","base":3000}],"obsTime":1773957600},"SBCA":{"icaoId":"SBCA","flightCategory":"VFR","rawOb":"METAR SBCA 192200Z 29007KT 9999 FEW025 25/19 Q1009","temp":25,"dewp":19,"wdir":290,"wspd":7,"visib":"6+","altim":1009,"clouds":[{"cover":"FEW","base":2500}],"obsTime":1773957600},"SBCO":{"icaoId":"SBCO","flightCategory":"VFR","rawOb":"METAR SBCO 192200Z 12007KT 9999 FEW015 SCT050 24/20 Q1009","temp":24,"dewp":20,"wdir":120,"wspd":7,"visib":"6+","altim":1009,"clouds":[{"cover":"FEW","base":1500},{"cover":"SCT","base":5000}],"obsTime":1773957600},"SBDN":{"icaoId":"SBDN","flightCategory":"VFR","rawOb":"METAR SBDN 192200Z 00000KT 9999 FEW060TCU 28/23 Q1007","temp":28,"dewp":23,"wdir":0,"wspd":0,"visib":"6+","altim":1007,"clouds":[{"cover":"FEW","base":6000}],"obsTime":1773957600},"SBIP":{"icaoId":"SBIP","flightCategory":"VFR","rawOb":"METAR SBIP 192200Z AUTO 22007KT 180V250 CAVOK 26/21 Q1009","temp":26,"dewp":21,"wdir":220,"wspd":7,"visib":"6+","altim":1009,"clouds":[],"obsTime":1773957600},"SBKG":{"icaoId":"SBKG","flightCategory":"VFR","rawOb":"METAR SBKG 192200Z 09010KT 9999 SCT020 26/21 Q1012","temp":26,"dewp":21,"wdir":90,"wspd":10,"visib":"6+","altim":1012,"clouds":[{"cover":"SCT","base":2000}],"obsTime":1773957600},"SBPL":{"icaoId":"SBPL","flightCategory":"VFR","rawOb":"METAR SBPL 192200Z 30005KT 9999 FEW030 28/23 Q1009","temp":28,"dewp":23,"wdir":300,"wspd":5,"visib":"6+","altim":1009,"clouds":[{"cover":"FEW","base":3000}],"obsTime":1773957600},"SBPS":{"icaoId":"SBPS","flightCategory":"VFR","rawOb":"METAR SBPS 192200Z 04009KT CAVOK 27/24 Q1008","temp":27,"dewp":24,"wdir":40,"wspd":9,"visib":"6+","altim":1008,"clouds":[],"obsTime":1773957600},"SBSC":{"icaoId":"SBSC","flightCategory":"MVFR","rawOb":"METAR SBSC 192200Z 20004KT 8000 SCT025 BKN030 25/23 Q1009","temp":25,"dewp":23,"wdir":200,"wspd":4,"visib":4.97,"altim":1009,"clouds":[{"cover":"SCT","base":2500},{"cover":"BKN","base":3000}],"obsTime":1773957600},"SBSM":{"icaoId":"SBSM","flightCategory":"VFR","rawOb":"METAR SBSM 192200Z 12002KT 9999 FEW025 24/21 Q1008","temp":24,"dewp":21,"wdir":120,"wspd":2,"visib":"6+","altim":1008,"clouds":[{"cover":"FEW","base":2500}],"obsTime":1773957600},"SBSR":{"icaoId":"SBSR","flightCategory":"VFR","rawOb":"METAR SBSR 192200Z 27004KT 9999 FEW030 FEW040TCU 27/22 Q1008","temp":27,"dewp":22,"wdir":270,"wspd":4,"visib":"6+","altim":1008,"clouds":[{"cover":"FEW","base":3000},{"cover":"FEW","base":4000}],"obsTime":1773957600},"SBTT":{"icaoId":"SBTT","flightCategory":"VFR","rawOb":"METAR SBTT 192200Z 14005KT 9999 FEW003 29/23 Q1007","temp":29,"dewp":23,"wdir":140,"wspd":5,"visib":"6+","altim":1007,"clouds":[{"cover":"FEW","base":300}],"obsTime":1773957600},"SBVH":{"icaoId":"SBVH","flightCategory":"VFR","rawOb":"METAR SBVH 192200Z 31004KT 9999 SCT013 BKN070 23/21 Q1009","temp":23,"dewp":21,"wdir":310,"wspd":4,"visib":"6+","altim":1009,"clouds":[{"cover":"SCT","base":1300},{"cover":"BKN","base":7000}],"obsTime":1773957600},"SBTF":{"icaoId":"SBTF","flightCategory":"VFR","rawOb":"METAR SBTF 192200Z 06003KT 9999 FEW010 OVC080 26/25 Q1007","temp":26,"dewp":25,"wdir":60,"wspd":3,"visib":"6+","altim":1007,"clouds":[{"cover":"FEW","base":1000},{"cover":"OVC","base":8000}],"obsTime":1773957600},"SBUY":{"icaoId":"SBUY","flightCategory":"VFR","rawOb":"METAR SBUY 192200Z 10002KT 9999 FEW020 25/24 Q1007","temp":25,"dewp":24,"wdir":100,"wspd":2,"visib":"6+","altim":1007,"clouds":[{"cover":"FEW","base":2000}],"obsTime":1773957600},"SBTA":{"icaoId":"SBTA","flightCategory":"MVFR","rawOb":"METAR SBTA 192200Z VRB02KT 5000 -RA BR BKN020 FEW025TCU OVC090 20/20 Q1011","temp":20,"dewp":20,"wdir":"VRB","wspd":2,"visib":3.11,"altim":1011,"clouds":[{"cover":"BKN","base":2000},{"cover":"FEW","base":2500},{"cover":"OVC","base":9000}],"obsTime":1773957600},"SBAF":{"icaoId":"SBAF","flightCategory":"MVFR","rawOb":"METAR SBAF 192200Z 20004KT 8000 FEW020 BKN030 BKN050 26/25 Q1009","temp":26,"dewp":25,"wdir":200,"wspd":4,"visib":4.97,"altim":1009,"clouds":[{"cover":"FEW","base":2000},{"cover":"BKN","base":3000},{"cover":"BKN","base":5000}],"obsTime":1773957600},"SBAN":{"icaoId":"SBAN","flightCategory":"VFR","rawOb":"METAR SBAN 192200Z VRB02KT 9999 VCSH FEW035 FEW040TCU BKN080 23/19 Q1014","temp":23,"dewp":19,"wdir":"VRB","wspd":2,"visib":"6+","altim":1014,"clouds":[{"cover":"FEW","base":3500},{"cover":"FEW","base":4000},{"cover":"BKN","base":8000}],"obsTime":1773957600},"SBJP":{"icaoId":"SBJP","flightCategory":"VFR","rawOb":"METAR SBJP 192200Z 05005KT 9999 FEW020 28/23 Q1010","temp":28,"dewp":23,"wdir":50,"wspd":5,"visib":"6+","altim":1010,"clouds":[{"cover":"FEW","base":2000}],"obsTime":1773957600},"SBJR":{"icaoId":"SBJR","flightCategory":"VFR","rawOb":"METAR SBJR 192200Z 15005KT 9999 FEW018 SCT040 OVC100 26/23 Q1008","temp":26,"dewp":23,"wdir":150,"wspd":5,"visib":"6+","altim":1008,"clouds":[{"cover":"FEW","base":1800},{"cover":"SCT","base":4000},{"cover":"OVC","base":10000}],"obsTime":1773957600},"SBJV":{"icaoId":"SBJV","flightCategory":"VFR","rawOb":"METAR SBJV 192200Z 10004KT 9999 SCT025 26/23 Q1007","temp":26,"dewp":23,"wdir":100,"wspd":4,"visib":"6+","altim":1007,"clouds":[{"cover":"SCT","base":2500}],"obsTime":1773957600},"SBLE":{"icaoId":"SBLE","flightCategory":"VFR","rawOb":"METAR SBLE 192200Z AUTO 04003KT 020V090 CAVOK 24/21 Q1010","temp":24,"dewp":21,"wdir":40,"wspd":3,"visib":"6+","altim":1010,"clouds":[],"obsTime":1773957600},"SBLS":{"icaoId":"SBLS","flightCategory":"VFR","rawOb":"METAR SBLS 192200Z 33003KT 270V340 9999 TS SCT040 FEW042CB SCT050 22/22 Q1012","temp":22,"dewp":22,"wdir":330,"wspd":3,"visib":"6+","altim":1012,"clouds":[{"cover":"SCT","base":4000},{"cover":"FEW","base":4200},{"cover":"SCT","base":5000}],"obsTime":1773957600},"SBMT":{"icaoId":"SBMT","flightCategory":"MVFR","rawOb":"METAR SBMT 192200Z 12006KT 7000 SCT009 SCT017 FEW040TCU 20/19 Q1012 RERA","temp":20,"dewp":19,"wdir":120,"wspd":6,"visib":4.35,"altim":1012,"clouds":[{"cover":"SCT","base":900},{"cover":"SCT","base":1700},{"cover":"FEW","base":4000}],"obsTime":1773957600},"SBPF":{"icaoId":"SBPF","flightCategory":"VFR","rawOb":"METAR SBPF 192200Z 18010KT CAVOK 23/18 Q1010","temp":23,"dewp":18,"wdir":180,"wspd":10,"visib":"6+","altim":1010,"clouds":[],"obsTime":1773957600},"SBGW":{"icaoId":"SBGW","flightCategory":"IFR","rawOb":"METAR SBGW 192200Z VRB03KT 2000 -RA BKN013 BKN022 22/18 Q1011 RERA","temp":22,"dewp":18,"wdir":"VRB","wspd":3,"visib":1.24,"altim":1011,"clouds":[{"cover":"BKN","base":1300},{"cover":"BKN","base":2200}],"obsTime":1773957600}}}