{"updated":1784406878,"count":87,"data":{"SBMQ":{"icaoId":"SBMQ","flightCategory":"VFR","rawOb":"METAR SBMQ 181900Z 05009KT 9999 SCT030 BKN083 29/25 Q1010","temp":29,"dewp":25,"wdir":50,"wspd":9,"visib":"6+","altim":1010,"clouds":[{"cover":"SCT","base":3000},{"cover":"BKN","base":8300}],"obsTime":1784401200},"SBEG":{"icaoId":"SBEG","flightCategory":"VFR","rawOb":"METAR SBEG 181900Z 04004KT 9999 SCT025 FEW030TCU 31/24 Q1010","temp":31,"dewp":24,"wdir":40,"wspd":4,"visib":"6+","altim":1010,"clouds":[{"cover":"SCT","base":2500},{"cover":"FEW","base":3000}],"obsTime":1784401200},"SBCB":{"icaoId":"SBCB","flightCategory":"VFR","rawOb":"METAR SBCB 181900Z 08016KT CAVOK 24/19 Q1017","temp":24,"dewp":19,"wdir":80,"wspd":16,"visib":"6+","altim":1017,"clouds":[],"obsTime":1784401200},"SBTE":{"icaoId":"SBTE","flightCategory":"VFR","rawOb":"METAR SBTE 181900Z 13010KT 9999 SCT040 BKN100 32/18 Q1010","temp":32,"dewp":18,"wdir":130,"wspd":10,"visib":"6+","altim":1010,"clouds":[{"cover":"SCT","base":4000},{"cover":"BKN","base":10000}],"obsTime":1784401200},"SBSL":{"icaoId":"SBSL","flightCategory":"VFR","rawOb":"METAR SBSL 181900Z 15006KT 110V180 9999 SCT025 BKN070 31/23 Q1009","temp":31,"dewp":23,"wdir":150,"wspd":6,"visib":"6+","altim":1009,"clouds":[{"cover":"SCT","base":2500},{"cover":"BKN","base":7000}],"obsTime":1784401200},"SBCF":{"icaoId":"SBCF","flightCategory":"VFR","rawOb":"METAR SBCF 181900Z 06009KT CAVOK 23/11 Q1021","temp":23,"dewp":11,"wdir":60,"wspd":9,"visib":"6+","altim":1021,"clouds":[],"obsTime":1784401200},"SBVT":{"icaoId":"SBVT","flightCategory":"MVFR","rawOb":"METAR SBVT 181900Z 04009KT 9000 SCT010 BKN015 OVC025 21/20 Q1020","temp":21,"dewp":20,"wdir":40,"wspd":9,"visib":5.59,"altim":1020,"clouds":[{"cover":"SCT","base":1000},{"cover":"BKN","base":1500},{"cover":"OVC","base":2500}],"obsTime":1784401200},"SBSV":{"icaoId":"SBSV","flightCategory":"VFR","rawOb":"METAR SBSV 181900Z VRB03KT 9999 SCT020 BKN060 25/20 Q1017","temp":25,"dewp":20,"wdir":"VRB","wspd":3,"visib":"6+","altim":1017,"clouds":[{"cover":"SCT","base":2000},{"cover":"BKN","base":6000}],"obsTime":1784401200},"SBBR":{"icaoId":"SBBR","flightCategory":"VFR","rawOb":"METAR SBBR 181900Z 10007KT 060V140 CAVOK 24/09 Q1020","temp":24,"dewp":9,"wdir":100,"wspd":7,"visib":"6+","altim":1020,"clouds":[],"obsTime":1784401200},"SBSN":{"icaoId":"SBSN","flightCategory":"VFR","rawOb":"METAR SBSN 181900Z 07008KT 9999 FEW020 31/24 Q1010","temp":31,"dewp":24,"wdir":70,"wspd":8,"visib":"6+","altim":1010,"clouds":[{"cover":"FEW","base":2000}],"obsTime":1784401200},"SBMO":{"icaoId":"SBMO","flightCategory":"MVFR","rawOb":"METAR SBMO 181900Z 13012KT 9999 FEW025 BKN030 BKN070 25/20 Q1016","temp":25,"dewp":20,"wdir":130,"wspd":12,"visib":"6+","altim":1016,"clouds":[{"cover":"FEW","base":2500},{"cover":"BKN","base":3000},{"cover":"BKN","base":7000}],"obsTime":1784401200},"SBSG":{"icaoId":"SBSG","flightCategory":"VFR","rawOb":"METAR SBSG 181900Z COR 15007G18KT 120V190 9999 SCT015 SCT080 25/24 Q1013","temp":25,"dewp":24,"wdir":150,"wspd":7,"visib":"6+","altim":1013,"clouds":[{"cover":"SCT","base":1500},{"cover":"SCT","base":8000}],"obsTime":1784401200},"SBCZ":{"icaoId":"SBCZ","flightCategory":"MVFR","rawOb":"METAR SBCZ 181900Z 03004KT 9999 BKN030 31/22 Q1011","temp":31,"dewp":22,"wdir":30,"wspd":4,"visib":"6+","altim":1011,"clouds":[{"cover":"BKN","base":3000}],"obsTime":1784401200},"SBCP":{"icaoId":"SBCP","flightCategory":"VFR","rawOb":"METAR SBCP 181900Z 08018KT CAVOK 25/18 Q1018","temp":25,"dewp":18,"wdir":80,"wspd":18,"visib":"6+","altim":1018,"clouds":[],"obsTime":1784401200},"SBGL":{"icaoId":"SBGL","flightCategory":"VFR","rawOb":"METAR SBGL 181900Z 04007KT CAVOK 29/12 Q1015","temp":29,"dewp":12,"wdir":40,"wspd":7,"visib":"6+","altim":1015,"clouds":[],"obsTime":1784401200},"SBBE":{"icaoId":"SBBE","flightCategory":"VFR","rawOb":"METAR SBBE 181900Z 13006KT 9999 SCT041 32/24 Q1009","temp":32,"dewp":24,"wdir":130,"wspd":6,"visib":"6+","altim":1009,"clouds":[{"cover":"SCT","base":4100}],"obsTime":1784401200},"SBKP":{"icaoId":"SBKP","flightCategory":"VFR","rawOb":"METAR SBKP 181900Z 01011KT 330V040 CAVOK 25/07 Q1018","temp":25,"dewp":7,"wdir":10,"wspd":11,"visib":"6+","altim":1018,"clouds":[],"obsTime":1784401200},"SBPA":{"icaoId":"SBPA","flightCategory":"VFR","rawOb":"METAR SBPA 181900Z 33016G26KT CAVOK 32/17 Q1002","temp":32,"dewp":17,"wdir":330,"wspd":16,"visib":"6+","altim":1002,"clouds":[],"obsTime":1784401200},"SBNT":{"icaoId":"SBNT","flightCategory":"MVFR","rawOb":"METAR SBNT 181900Z 17012KT 9000 VCSH BKN015 BKN050 26/23 Q1013","temp":26,"dewp":23,"wdir":170,"wspd":12,"visib":5.59,"altim":1013,"clouds":[{"cover":"BKN","base":1500},{"cover":"BKN","base":5000}],"obsTime":1784401200},"SBMA":{"icaoId":"SBMA","flightCategory":"VFR","rawOb":"METAR SBMA 181900Z 05004KT 9999 FEW020 34/19 Q1010","temp":34,"dewp":19,"wdir":50,"wspd":4,"visib":"6+","altim":1010,"clouds":[{"cover":"FEW","base":2000}],"obsTime":1784401200},"SBCT":{"icaoId":"SBCT","flightCategory":"VFR","rawOb":"METAR SBCT 181900Z 32013KT CAVOK 23/10 Q1017","temp":23,"dewp":10,"wdir":320,"wspd":13,"visib":"6+","altim":1017,"clouds":[],"obsTime":1784401200},"SBFL":{"icaoId":"SBFL","flightCategory":"VFR","rawOb":"METAR SBFL 181900Z 35012KT CAVOK 26/16 Q1009","temp":26,"dewp":16,"wdir":350,"wspd":12,"visib":"6+","altim":1009,"clouds":[],"obsTime":1784401200},"SBPJ":{"icaoId":"SBPJ","flightCategory":"VFR","rawOb":"METAR SBPJ 181900Z 11006KT 070V160 CAVOK 33/15 Q1013","temp":33,"dewp":15,"wdir":110,"wspd":6,"visib":"6+","altim":1013,"clouds":[],"obsTime":1784401200},"SBPV":{"icaoId":"SBPV","flightCategory":"VFR","rawOb":"METAR SBPV 181900Z 05006KT 9999 SCT030 33/22 Q1009","temp":33,"dewp":22,"wdir":50,"wspd":6,"visib":"6+","altim":1009,"clouds":[{"cover":"SCT","base":3000}],"obsTime":1784401200},"SBFZ":{"icaoId":"SBFZ","flightCategory":"VFR","rawOb":"METAR SBFZ 181900Z 15011KT 9999 SCT025 BKN050 28/23 Q1011","temp":28,"dewp":23,"wdir":150,"wspd":11,"visib":"6+","altim":1011,"clouds":[{"cover":"SCT","base":2500},{"cover":"BKN","base":5000}],"obsTime":1784401200},"SBBV":{"icaoId":"SBBV","flightCategory":"VFR","rawOb":"METAR SBBV 181900Z 15009KT 9999 VCSH SCT040 FEW045TCU 33/22 Q1009","temp":33,"dewp":22,"wdir":150,"wspd":9,"visib":"6+","altim":1009,"clouds":[{"cover":"SCT","base":4000},{"cover":"FEW","base":4500}],"obsTime":1784401200},"SBCG":{"icaoId":"SBCG","flightCategory":"VFR","rawOb":"METAR SBCG 181900Z 35014KT 9999 FEW049 SCT080 30/14 Q1013","temp":30,"dewp":14,"wdir":350,"wspd":14,"visib":"6+","altim":1013,"clouds":[{"cover":"FEW","base":4900},{"cover":"SCT","base":8000}],"obsTime":1784401200},"SBFI":{"icaoId":"SBFI","flightCategory":"VFR","rawOb":"METAR SBFI 181900Z 03018G30KT CAVOK 30/17 Q1005","temp":30,"dewp":17,"wdir":30,"wspd":18,"visib":"6+","altim":1005,"clouds":[],"obsTime":1784401200},"SBRB":{"icaoId":"SBRB","flightCategory":"VFR","rawOb":"METAR SBRB 181900Z 36007KT 310V020 9999 SCT035 FEW038TCU 32/23 Q1010","temp":32,"dewp":23,"wdir":360,"wspd":7,"visib":"6+","altim":1010,"clouds":[{"cover":"SCT","base":3500},{"cover":"FEW","base":3800}],"obsTime":1784401200},"SBGR":{"icaoId":"SBGR","flightCategory":"VFR","rawOb":"METAR SBGR 181900Z 32012KT CAVOK 24/09 Q1019","temp":24,"dewp":9,"wdir":320,"wspd":12,"visib":"6+","altim":1019,"clouds":[],"obsTime":1784401200},"SBCR":{"icaoId":"SBCR","flightCategory":"VFR","rawOb":"METAR SBCR 181900Z 36011G21KT CAVOK 33/21 Q1007","temp":33,"dewp":21,"wdir":360,"wspd":11,"visib":"6+","altim":1007,"clouds":[],"obsTime":1784401200},"SBGO":{"icaoId":"SBGO","flightCategory":"VFR","rawOb":"METAR SBGO 181900Z VRB04KT CAVOK 28/07 Q1017","temp":28,"dewp":7,"wdir":"VRB","wspd":4,"visib":"6+","altim":1017,"clouds":[],"obsTime":1784401200},"SBLO":{"icaoId":"SBLO","flightCategory":"VFR","rawOb":"METAR SBLO 181900Z 03009KT 360V070 CAVOK 25/10 Q1015","temp":25,"dewp":10,"wdir":30,"wspd":9,"visib":"6+","altim":1015,"clouds":[],"obsTime":1784401200},"SBRF":{"icaoId":"SBRF","flightCategory":"VFR","rawOb":"METAR SBRF 181900Z 14014KT 9999 SCT026 BKN050 26/21 Q1014","temp":26,"dewp":21,"wdir":140,"wspd":14,"visib":"6+","altim":1014,"clouds":[{"cover":"SCT","base":2600},{"cover":"BKN","base":5000}],"obsTime":1784401200},"SBMG":{"icaoId":"SBMG","flightCategory":"VFR","rawOb":"METAR SBMG 181900Z 02015KT CAVOK 27/12 Q1013","temp":27,"dewp":12,"wdir":20,"wspd":15,"visib":"6+","altim":1013,"clouds":[],"obsTime":1784401200},"SBAT":{"icaoId":"SBAT","flightCategory":"VFR","rawOb":"METAR SBAT 181900Z 05008KT 9999 SCT035 33/19 Q1011","temp":33,"dewp":19,"wdir":50,"wspd":8,"visib":"6+","altim":1011,"clouds":[{"cover":"SCT","base":3500}],"obsTime":1784401200},"SBHT":{"icaoId":"SBHT","flightCategory":"MVFR","rawOb":"METAR SBHT 181900Z 10005KT 9999 BKN030 32/22 Q1010","temp":32,"dewp":22,"wdir":100,"wspd":5,"visib":"6+","altim":1010,"clouds":[{"cover":"BKN","base":3000}],"obsTime":1784401200},"SBME":{"icaoId":"SBME","flightCategory":"VFR","rawOb":"METAR SBME 181900Z 04017KT CAVOK 27/18 Q1017","temp":27,"dewp":18,"wdir":40,"wspd":17,"visib":"6+","altim":1017,"clouds":[],"obsTime":1784401200},"SBMK":{"icaoId":"SBMK","flightCategory":"VFR","rawOb":"METAR SBMK 181900Z 08008KT CAVOK 25/11 Q1020","temp":25,"dewp":11,"wdir":80,"wspd":8,"visib":"6+","altim":1020,"clouds":[],"obsTime":1784401200},"SBUL":{"icaoId":"SBUL","flightCategory":"VFR","rawOb":"METAR SBUL 181900Z 10011KT CAVOK 23/09 Q1020","temp":23,"dewp":9,"wdir":100,"wspd":11,"visib":"6+","altim":1020,"clouds":[],"obsTime":1784401200},"SBUR":{"icaoId":"SBUR","flightCategory":"VFR","rawOb":"METAR SBUR 181900Z 02005KT CAVOK 25/10 Q1019","temp":25,"dewp":10,"wdir":20,"wspd":5,"visib":"6+","altim":1019,"clouds":[],"obsTime":1784401200},"SBIL":{"icaoId":"SBIL","flightCategory":"VFR","rawOb":"METAR SBIL 181900Z 11002KT 9999 FEW025 SCT070 25/22 Q1018","temp":25,"dewp":22,"wdir":110,"wspd":2,"visib":"6+","altim":1018,"clouds":[{"cover":"FEW","base":2500},{"cover":"SCT","base":7000}],"obsTime":1784401200},"SBJU":{"icaoId":"SBJU","flightCategory":"MVFR","rawOb":"METAR SBJU 181900Z 20005KT 9999 BKN020 27/18 Q1015","temp":27,"dewp":18,"wdir":200,"wspd":5,"visib":"6+","altim":1015,"clouds":[{"cover":"BKN","base":2000}],"obsTime":1784401200},"SBSP":{"icaoId":"SBSP","flightCategory":"VFR","rawOb":"METAR SBSP 181900Z 36011KT CAVOK 23/08 Q1019","temp":23,"dewp":8,"wdir":360,"wspd":11,"visib":"6+","altim":1019,"clouds":[],"obsTime":1784401200},"SBTF":{"icaoId":"SBTF","flightCategory":"VFR","rawOb":"METAR SBTF 181900Z 12005KT 9999 SCT020 FEW025TCU 34/24 Q1008","temp":34,"dewp":24,"wdir":120,"wspd":5,"visib":"6+","altim":1008,"clouds":[{"cover":"SCT","base":2000},{"cover":"FEW","base":2500}],"obsTime":1784401200},"SBSJ":{"icaoId":"SBSJ","flightCategory":"VFR","rawOb":"METAR SBSJ 181900Z 36004KT CAVOK 25/10 Q1018","temp":25,"dewp":10,"wdir":360,"wspd":4,"visib":"6+","altim":1018,"clouds":[],"obsTime":1784401200},"SBCJ":{"icaoId":"SBCJ","flightCategory":"VFR","rawOb":"METAR SBCJ 181900Z 14005KT 080V160 9999 FEW030 29/16 Q1014","temp":29,"dewp":16,"wdir":140,"wspd":5,"visib":"6+","altim":1014,"clouds":[{"cover":"FEW","base":3000}],"obsTime":1784401200},"SBOI":{"icaoId":"SBOI","flightCategory":"VFR","rawOb":"METAR SBOI 181900Z AUTO 11006KT 060V180 9999 FEW049 32/22 Q1010","temp":32,"dewp":22,"wdir":110,"wspd":6,"visib":"6+","altim":1010,"clouds":[{"cover":"FEW","base":4900}],"obsTime":1784401200},"SBTU":{"icaoId":"SBTU","flightCategory":"VFR","rawOb":"METAR SBTU 181900Z AUTO 31008KT 280V340 9999 // NCD 32/20 Q1012","temp":32,"dewp":20,"wdir":310,"wspd":8,"visib":"6+","altim":1012,"clouds":[],"obsTime":1784401200},"SBPP":{"icaoId":"SBPP","flightCategory":"VFR","rawOb":"METAR SBPP 181900Z 03025KT CAVOK 28/17 Q1009","temp":28,"dewp":17,"wdir":30,"wspd":25,"visib":"6+","altim":1009,"clouds":[],"obsTime":1784401200},"SBTT":{"icaoId":"SBTT","flightCategory":"VFR","rawOb":"METAR SBTT 181900Z 23005KT 210V270 9999 SCT030 32/25 Q1010","temp":32,"dewp":25,"wdir":230,"wspd":5,"visib":"6+","altim":1010,"clouds":[{"cover":"SCT","base":3000}],"obsTime":1784401200},"SBAR":{"icaoId":"SBAR","flightCategory":"VFR","rawOb":"METAR SBAR 181900Z 13012KT 9999 SCT026 26/20 Q1016","temp":26,"dewp":20,"wdir":130,"wspd":12,"visib":"6+","altim":1016,"clouds":[{"cover":"SCT","base":2600}],"obsTime":1784401200},"SBUY":{"icaoId":"SBUY","flightCategory":"VFR","rawOb":"METAR SBUY 181900Z 08007KT 9999 SCT025 FEW030TCU 33/22 Q1008","temp":33,"dewp":22,"wdir":80,"wspd":7,"visib":"6+","altim":1008,"clouds":[{"cover":"SCT","base":2500},{"cover":"FEW","base":3000}],"obsTime":1784401200},"SBPB":{"icaoId":"SBPB","flightCategory":"VFR","rawOb":"METAR SBPB 181900Z 05008KT 9999 FEW016 BKN080 29/25 Q1010","temp":29,"dewp":25,"wdir":50,"wspd":8,"visib":"6+","altim":1010,"clouds":[{"cover":"FEW","base":1600},{"cover":"BKN","base":8000}],"obsTime":1784401200},"SBPL":{"icaoId":"SBPL","flightCategory":"VFR","rawOb":"METAR SBPL 181900Z 10012KT 9999 SCT033 29/14 Q1015","temp":29,"dewp":14,"wdir":100,"wspd":12,"visib":"6+","altim":1015,"clouds":[{"cover":"SCT","base":3300}],"obsTime":1784401200},"SBCA":{"icaoId":"SBCA","flightCategory":"VFR","rawOb":"METAR SBCA 181900Z 02020G33KT CAVOK 26/13 Q1012","temp":26,"dewp":13,"wdir":20,"wspd":20,"visib":"6+","altim":1012,"clouds":[],"obsTime":1784401200},"SBCO":{"icaoId":"SBCO","flightCategory":"VFR","rawOb":"METAR SBCO 181900Z 32012G24KT 290V350 CAVOK 32/18 Q1003","temp":32,"dewp":18,"wdir":320,"wspd":12,"visib":"6+","altim":1003,"clouds":[],"obsTime":1784401200},"SBSM":{"icaoId":"SBSM","flightCategory":"VFR","rawOb":"METAR SBSM 181900Z 35008G18KT 9999 FEW040 BKN100 31/20 Q1001 WS ALL RWY","temp":31,"dewp":20,"wdir":350,"wspd":8,"visib":"6+","altim":1001,"clouds":[{"cover":"FEW","base":4000},{"cover":"BKN","base":10000}],"obsTime":1784401200},"SBCC":{"icaoId":"SBCC","flightCategory":"VFR","rawOb":"METAR SBCC 181900Z 04008KT 350V070 CAVOK 31/16 Q1013","temp":31,"dewp":16,"wdir":40,"wspd":8,"visib":"6+","altim":1013,"clouds":[],"obsTime":1784401200},"SBVH":{"icaoId":"SBVH","flightCategory":"VFR","rawOb":"METAR SBVH 181900Z 34008KT 9999 SCT030 30/20 Q1013","temp":30,"dewp":20,"wdir":340,"wspd":8,"visib":"6+","altim":1013,"clouds":[{"cover":"SCT","base":3000}],"obsTime":1784401200},"SBAX":{"icaoId":"SBAX","flightCategory":"VFR","rawOb":"METAR SBAX 181900Z AUTO 06005KT 020V090 CAVOK 23/08 Q1020","temp":23,"dewp":8,"wdir":60,"wspd":5,"visib":"6+","altim":1020,"clouds":[],"obsTime":1784401200},"SBBH":{"icaoId":"SBBH","flightCategory":"VFR","rawOb":"METAR SBBH 181900Z 08006KT CAVOK 24/11 Q1021","temp":24,"dewp":11,"wdir":80,"wspd":6,"visib":"6+","altim":1021,"clouds":[],"obsTime":1784401200},"SBBU":{"icaoId":"SBBU","flightCategory":"VFR","rawOb":"METAR SBBU 181900Z 04008KT CAVOK 27/09 Q1017","temp":27,"dewp":9,"wdir":40,"wspd":8,"visib":"6+","altim":1017,"clouds":[],"obsTime":1784401200},"SBDN":{"icaoId":"SBDN","flightCategory":"VFR","rawOb":"METAR SBDN 181900Z 02010KT CAVOK 28/11 Q1014","temp":28,"dewp":11,"wdir":20,"wspd":10,"visib":"6+","altim":1014,"clouds":[],"obsTime":1784401200},"SBES":{"icaoId":"SBES","flightCategory":"VFR","rawOb":"METAR SBES 181900Z 06016G26KT CAVOK 24/// Q1016","temp":null,"dewp":null,"wdir":60,"wspd":16,"visib":"6+","altim":1016,"clouds":[],"obsTime":1784401200},"SBIP":{"icaoId":"SBIP","flightCategory":"VFR","rawOb":"METAR SBIP 181900Z AUTO 36008KT CAVOK 26/14 Q1020","temp":26,"dewp":14,"wdir":360,"wspd":8,"visib":"6+","altim":1020,"clouds":[],"obsTime":1784401200},"SBSC":{"icaoId":"SBSC","flightCategory":"VFR","rawOb":"METAR SBSC 181900Z 02009KT CAVOK 30/12 Q1015","temp":30,"dewp":12,"wdir":20,"wspd":9,"visib":"6+","altim":1015,"clouds":[],"obsTime":1784401200},"SBSR":{"icaoId":"SBSR","flightCategory":"VFR","rawOb":"METAR SBSR 181900Z VRB08KT CAVOK 28/07 Q1016","temp":28,"dewp":7,"wdir":"VRB","wspd":8,"visib":"6+","altim":1016,"clouds":[],"obsTime":1784401200},"SBPS":{"icaoId":"SBPS","flightCategory":"VFR","rawOb":"METAR SBPS 181900Z 13002KT 9999 SCT020 SCT080 24/21 Q1019","temp":24,"dewp":21,"wdir":130,"wspd":2,"visib":"6+","altim":1019,"clouds":[{"cover":"SCT","base":2000},{"cover":"SCT","base":8000}],"obsTime":1784401200},"SBKG":{"icaoId":"SBKG","flightCategory":"MVFR","rawOb":"METAR SBKG 181900Z 12009KT 9999 BKN017 BKN070 22/20 Q1016","temp":22,"dewp":20,"wdir":120,"wspd":9,"visib":"6+","altim":1016,"clouds":[{"cover":"BKN","base":1700},{"cover":"BKN","base":7000}],"obsTime":1784401200},"SBGM":{"icaoId":"SBGM","flightCategory":"VFR","rawOb":"METAR SBGM 181900Z 26008KT 9999 BKN033 33/22 Q1010","temp":33,"dewp":22,"wdir":260,"wspd":8,"visib":"6+","altim":1010,"clouds":[{"cover":"BKN","base":3300}],"obsTime":1784401200},"SBBQ":{"icaoId":"SBBQ","flightCategory":"VFR","rawOb":"METAR SBBQ 181900Z 03006KT CAVOK 21/11 Q1024","temp":21,"dewp":11,"wdir":30,"wspd":6,"visib":"6+","altim":1024,"clouds":[],"obsTime":1784401200},"SBJP":{"icaoId":"SBJP","flightCategory":"MVFR","rawOb":"METAR SBJP 181900Z 13016KT 9999 BKN025 26/22 Q1014","temp":26,"dewp":22,"wdir":130,"wspd":16,"visib":"6+","altim":1014,"clouds":[{"cover":"BKN","base":2500}],"obsTime":1784401200},"SBPF":{"icaoId":"SBPF","flightCategory":"VFR","rawOb":"METAR SBPF 182000Z AUTO 36009KT 9999 NSC 24/15 Q1009","temp":24,"dewp":15,"wdir":360,"wspd":9,"visib":"6+","altim":1009,"clouds":[],"obsTime":1784404800},"SBAN":{"icaoId":"SBAN","flightCategory":"VFR","rawOb":"METAR SBAN 181900Z 10005KT CAVOK 25/07 Q1020","temp":25,"dewp":7,"wdir":100,"wspd":5,"visib":"6+","altim":1020,"clouds":[],"obsTime":1784401200},"SBJV":{"icaoId":"SBJV","flightCategory":"VFR","rawOb":"METAR SBJV 181900Z 16004KT CAVOK 27/19 Q1010","temp":27,"dewp":19,"wdir":160,"wspd":4,"visib":"6+","altim":1010,"clouds":[],"obsTime":1784401200},"SBIH":{"icaoId":"SBIH","flightCategory":"VFR","rawOb":"METAR SBIH 181900Z 06006KT 9999 SCT018 34/23 Q1009","temp":34,"dewp":23,"wdir":60,"wspd":6,"visib":"6+","altim":1009,"clouds":[{"cover":"SCT","base":1800}],"obsTime":1784401200},"SBAF":{"icaoId":"SBAF","flightCategory":"VFR","rawOb":"METAR SBAF 181900Z 02009KT 350V050 CAVOK 30/12 Q1015","temp":30,"dewp":12,"wdir":20,"wspd":9,"visib":"6+","altim":1015,"clouds":[],"obsTime":1784401200},"SBGW":{"icaoId":"SBGW","flightCategory":"VFR","rawOb":"METAR SBGW 181900Z 05008KT 010V100 CAVOK 26/09 Q1018","temp":26,"dewp":9,"wdir":50,"wspd":8,"visib":"6+","altim":1018,"clouds":[],"obsTime":1784401200},"SBJR":{"icaoId":"SBJR","flightCategory":"VFR","rawOb":"METAR SBJR 181900Z 09002KT CAVOK 30/16 Q1015","temp":30,"dewp":16,"wdir":90,"wspd":2,"visib":"6+","altim":1015,"clouds":[],"obsTime":1784401200},"SBLS":{"icaoId":"SBLS","flightCategory":"VFR","rawOb":"METAR SBLS 181900Z 05006KT 350V080 9999 FEW048 24/11 Q1021","temp":24,"dewp":11,"wdir":50,"wspd":6,"visib":"6+","altim":1021,"clouds":[{"cover":"FEW","base":4800}],"obsTime":1784401200},"SBMT":{"icaoId":"SBMT","flightCategory":"VFR","rawOb":"METAR SBMT 181900Z 30008KT 250V360 CAVOK 23/08 Q1018","temp":23,"dewp":8,"wdir":300,"wspd":8,"visib":"6+","altim":1018,"clouds":[],"obsTime":1784401200},"SBST":{"icaoId":"SBST","flightCategory":"VFR","rawOb":"METAR SBST 181900Z 15006KT CAVOK 27/13 Q1013","temp":27,"dewp":13,"wdir":150,"wspd":6,"visib":"6+","altim":1013,"clouds":[],"obsTime":1784401200},"SBTA":{"icaoId":"SBTA","flightCategory":"VFR","rawOb":"METAR SBTA 181900Z 02004KT 300V050 CAVOK 26/11 Q1017","temp":26,"dewp":11,"wdir":20,"wspd":4,"visib":"6+","altim":1017,"clouds":[],"obsTime":1784401200},"SBLE":{"icaoId":"SBLE","flightCategory":"VFR","rawOb":"METAR SBLE 181900Z AUTO 15004KT 110V210 9999 BKN045 21/20 Q1020","temp":21,"dewp":20,"wdir":150,"wspd":4,"visib":"6+","altim":1020,"clouds":[{"cover":"BKN","base":4500}],"obsTime":1784401200},"SBTC":{"icaoId":"SBTC","flightCategory":"VFR","rawOb":"METAR SBTC 181900Z 16003KT 9999 FEW025 SCT080 26/21 Q1019","temp":26,"dewp":21,"wdir":160,"wspd":3,"visib":"6+","altim":1019,"clouds":[{"cover":"FEW","base":2500},{"cover":"SCT","base":8000}],"obsTime":1784401200},"SBNM":{"icaoId":"SBNM","flightCategory":"VFR","rawOb":"METAR SBNM 181900Z 33023KT 9999 SCT040 30/18 Q1004","temp":30,"dewp":18,"wdir":330,"wspd":23,"visib":"6+","altim":1004,"clouds":[{"cover":"SCT","base":4000}],"obsTime":1784401200}}}