{"updated":1774434998,"count":71,"data":{"SBVT":{"icaoId":"SBVT","flightCategory":"VFR","rawOb":"METAR SBVT 250900Z 31002KT 9999 VCSH FEW030 SCT050 22/22 Q1015","temp":22,"dewp":22,"wdir":310,"wspd":2,"visib":"6+","altim":1015,"clouds":[{"cover":"FEW","base":3000},{"cover":"SCT","base":5000}],"obsTime":1774429200},"SBMK":{"icaoId":"SBMK","flightCategory":"VFR","rawOb":"METAR SBMK 250900Z 18002KT 9999 SCT030 BKN070 20/19 Q1017","temp":20,"dewp":19,"wdir":180,"wspd":2,"visib":"6+","altim":1017,"clouds":[{"cover":"SCT","base":3000},{"cover":"BKN","base":7000}],"obsTime":1774429200},"SBFL":{"icaoId":"SBFL","flightCategory":"VFR","rawOb":"METAR SBFL 250900Z 14003KT 9999 FEW009 22/21 Q1013","temp":22,"dewp":21,"wdir":140,"wspd":3,"visib":"6+","altim":1013,"clouds":[{"cover":"FEW","base":900}],"obsTime":1774429200},"SBMO":{"icaoId":"SBMO","flightCategory":"VFR","rawOb":"METAR SBMO 250900Z 30003KT CAVOK 23/22 Q1012","temp":23,"dewp":22,"wdir":300,"wspd":3,"visib":"6+","altim":1012,"clouds":[],"obsTime":1774429200},"SBCF":{"icaoId":"SBCF","flightCategory":"VFR","rawOb":"METAR SBCF 250900Z 21002KT 9999 FEW020 SCT100 19/18 Q1019","temp":19,"dewp":18,"wdir":210,"wspd":2,"visib":"6+","altim":1019,"clouds":[{"cover":"FEW","base":2000},{"cover":"SCT","base":10000}],"obsTime":1774429200},"SBMQ":{"icaoId":"SBMQ","flightCategory":"VFR","rawOb":"METAR SBMQ 250900Z 01002KT 9999 SCT023 25/24 Q1010","temp":25,"dewp":24,"wdir":10,"wspd":2,"visib":"6+","altim":1010,"clouds":[{"cover":"SCT","base":2300}],"obsTime":1774429200},"SBFZ":{"icaoId":"SBFZ","flightCategory":"VFR","rawOb":"METAR SBFZ 250900Z 20004KT 9999 SCT020 26/24 Q1010","temp":26,"dewp":24,"wdir":200,"wspd":4,"visib":"6+","altim":1010,"clouds":[{"cover":"SCT","base":2000}],"obsTime":1774429200},"SBNT":{"icaoId":"SBNT","flightCategory":"VFR","rawOb":"METAR SBNT 250900Z 18003KT 9999 FEW023 24/22 Q1011","temp":24,"dewp":22,"wdir":180,"wspd":3,"visib":"6+","altim":1011,"clouds":[{"cover":"FEW","base":2300}],"obsTime":1774429200},"SBBE":{"icaoId":"SBBE","flightCategory":"MVFR","rawOb":"METAR SBBE 250900Z 08005KT 9999 SCT010 BKN020 OVC040 24/24 Q1011","temp":24,"dewp":24,"wdir":80,"wspd":5,"visib":"6+","altim":1011,"clouds":[{"cover":"SCT","base":1000},{"cover":"BKN","base":2000},{"cover":"OVC","base":4000}],"obsTime":1774429200},"SBPA":{"icaoId":"SBPA","flightCategory":"IFR","rawOb":"METAR SBPA 250900Z 13008KT 9999 OVC009 22/20 Q1013","temp":22,"dewp":20,"wdir":130,"wspd":8,"visib":"6+","altim":1013,"clouds":[{"cover":"OVC","base":900}],"obsTime":1774429200},"SBGL":{"icaoId":"SBGL","flightCategory":"VFR","rawOb":"METAR SBGL 250900Z 08004KT CAVOK 23/22 Q1013","temp":23,"dewp":22,"wdir":80,"wspd":4,"visib":"6+","altim":1013,"clouds":[],"obsTime":1774429200},"SBPJ":{"icaoId":"SBPJ","flightCategory":"VFR","rawOb":"METAR SBPJ 250900Z 00000KT 9999 SCT016 BKN080 23/23 Q1013","temp":23,"dewp":23,"wdir":0,"wspd":0,"visib":"6+","altim":1013,"clouds":[{"cover":"SCT","base":1600},{"cover":"BKN","base":8000}],"obsTime":1774429200},"SBCG":{"icaoId":"SBCG","flightCategory":"VFR","rawOb":"METAR SBCG 250900Z 07005KT 9999 FEW004 FEW045TCU BKN100 23/22 Q1013","temp":23,"dewp":22,"wdir":70,"wspd":5,"visib":"6+","altim":1013,"clouds":[{"cover":"FEW","base":400},{"cover":"FEW","base":4500},{"cover":"BKN","base":10000}],"obsTime":1774429200},"SBPV":{"icaoId":"SBPV","flightCategory":"VFR","rawOb":"METAR SBPV 250900Z 16005KT CAVOK 24/23 Q1010","temp":24,"dewp":23,"wdir":160,"wspd":5,"visib":"6+","altim":1010,"clouds":[],"obsTime":1774429200},"SBRB":{"icaoId":"SBRB","flightCategory":"MVFR","rawOb":"METAR SBRB 250900Z 04005KT 6000 SCT004 BKN100 23/23 Q1009","temp":23,"dewp":23,"wdir":40,"wspd":5,"visib":3.73,"altim":1009,"clouds":[{"cover":"SCT","base":400},{"cover":"BKN","base":10000}],"obsTime":1774429200},"SBGO":{"icaoId":"SBGO","flightCategory":"VFR","rawOb":"METAR SBGO 250900Z 16002KT 9999 FEW020 20/19 Q1016","temp":20,"dewp":19,"wdir":160,"wspd":2,"visib":"6+","altim":1016,"clouds":[{"cover":"FEW","base":2000}],"obsTime":1774429200},"SBCP":{"icaoId":"SBCP","flightCategory":"VFR","rawOb":"METAR SBCP 251000Z 06004KT 9999 FEW020 24/22 Q1015","temp":24,"dewp":22,"wdir":60,"wspd":4,"visib":"6+","altim":1015,"clouds":[{"cover":"FEW","base":2000}],"obsTime":1774432800},"SBRF":{"icaoId":"SBRF","flightCategory":"VFR","rawOb":"METAR SBRF 250900Z 00000KT 9999 FEW025 25/23 Q1011","temp":25,"dewp":23,"wdir":0,"wspd":0,"visib":"6+","altim":1011,"clouds":[{"cover":"FEW","base":2500}],"obsTime":1774429200},"SBGR":{"icaoId":"SBGR","flightCategory":"VFR","rawOb":"METAR SBGR 250900Z 07006KT CAVOK 19/18 Q1017","temp":19,"dewp":18,"wdir":70,"wspd":6,"visib":"6+","altim":1017,"clouds":[],"obsTime":1774429200},"SBSG":{"icaoId":"SBSG","flightCategory":"VFR","rawOb":"METAR SBSG 250900Z 20004KT 9999 SCT020 23/22 Q1011","temp":23,"dewp":22,"wdir":200,"wspd":4,"visib":"6+","altim":1011,"clouds":[{"cover":"SCT","base":2000}],"obsTime":1774429200},"SBHT":{"icaoId":"SBHT","flightCategory":"VFR","rawOb":"METAR SBHT 251000Z COR 00000KT 9999 SCT011 25/24 Q1011","temp":25,"dewp":24,"wdir":0,"wspd":0,"visib":"6+","altim":1011,"clouds":[{"cover":"SCT","base":1100}],"obsTime":1774432800},"SBSL":{"icaoId":"SBSL","flightCategory":"VFR","rawOb":"METAR SBSL 250900Z VRB02KT 9999 SCT025 SCT080 25/24 Q1010","temp":25,"dewp":24,"wdir":"VRB","wspd":2,"visib":"6+","altim":1010,"clouds":[{"cover":"SCT","base":2500},{"cover":"SCT","base":8000}],"obsTime":1774429200},"SBIL":{"icaoId":"SBIL","flightCategory":"VFR","rawOb":"METAR SBIL 251000Z COR 30006KT 9999 VCSH SCT020 BKN070 24/23 Q1014","temp":24,"dewp":23,"wdir":300,"wspd":6,"visib":"6+","altim":1014,"clouds":[{"cover":"SCT","base":2000},{"cover":"BKN","base":7000}],"obsTime":1774432800},"SBSN":{"icaoId":"SBSN","flightCategory":"VFR","rawOb":"METAR SBSN 250900Z 08010KT 9999 FEW015 27/24 Q1009","temp":27,"dewp":24,"wdir":80,"wspd":10,"visib":"6+","altim":1009,"clouds":[{"cover":"FEW","base":1500}],"obsTime":1774429200},"SBCT":{"icaoId":"SBCT","flightCategory":"VFR","rawOb":"METAR SBCT 250900Z 11005KT CAVOK 16/15 Q1018","temp":16,"dewp":15,"wdir":110,"wspd":5,"visib":"6+","altim":1018,"clouds":[],"obsTime":1774429200},"SBSP":{"icaoId":"SBSP","flightCategory":"VFR","rawOb":"METAR SBSP 250900Z 03003KT 350V050 CAVOK 21/18 Q1018","temp":21,"dewp":18,"wdir":30,"wspd":3,"visib":"6+","altim":1018,"clouds":[],"obsTime":1774429200},"SBJU":{"icaoId":"SBJU","flightCategory":"MVFR","rawOb":"METAR SBJU 250900Z 00000KT 8000 SCT010 BKN017 23/22 Q1014","temp":23,"dewp":22,"wdir":0,"wspd":0,"visib":4.97,"altim":1014,"clouds":[{"cover":"SCT","base":1000},{"cover":"BKN","base":1700}],"obsTime":1774429200},"SBSV":{"icaoId":"SBSV","flightCategory":"VFR","rawOb":"METAR SBSV 250900Z 25003KT 9999 SCT019 24/23 Q1013","temp":24,"dewp":23,"wdir":250,"wspd":3,"visib":"6+","altim":1013,"clouds":[{"cover":"SCT","base":1900}],"obsTime":1774429200},"SBTE":{"icaoId":"SBTE","flightCategory":"MVFR","rawOb":"METAR SBTE 250900Z 00000KT 9999 BKN015 24/22 Q1011","temp":24,"dewp":22,"wdir":0,"wspd":0,"visib":"6+","altim":1011,"clouds":[{"cover":"BKN","base":1500}],"obsTime":1774429200},"SBKP":{"icaoId":"SBKP","flightCategory":"VFR","rawOb":"METAR SBKP 250900Z 10004KT CAVOK 21/18 Q1015","temp":21,"dewp":18,"wdir":100,"wspd":4,"visib":"6+","altim":1015,"clouds":[],"obsTime":1774429200},"SBBV":{"icaoId":"SBBV","flightCategory":"VFR","rawOb":"METAR SBBV 250900Z 09012KT CAVOK 26/22 Q1009","temp":26,"dewp":22,"wdir":90,"wspd":12,"visib":"6+","altim":1009,"clouds":[],"obsTime":1774429200},"SBUL":{"icaoId":"SBUL","flightCategory":"VFR","rawOb":"METAR SBUL 250900Z COR 08009KT 9999 -RA SCT017 BKN040 BKN070 19/18 Q1017","temp":19,"dewp":18,"wdir":80,"wspd":9,"visib":"6+","altim":1017,"clouds":[{"cover":"SCT","base":1700},{"cover":"BKN","base":4000},{"cover":"BKN","base":7000}],"obsTime":1774429200},"SBBR":{"icaoId":"SBBR","flightCategory":"IFR","rawOb":"METAR SBBR 250900Z 12005KT 090V150 3000 TSRA SCT007 BKN040 FEW045CB BKN100 18/18 Q1018 RETSRA","temp":18,"dewp":18,"wdir":120,"wspd":5,"visib":1.86,"altim":1018,"clouds":[{"cover":"SCT","base":700},{"cover":"BKN","base":4000},{"cover":"FEW","base":4500},{"cover":"BKN","base":10000}],"obsTime":1774429200},"SBUR":{"icaoId":"SBUR","flightCategory":"VFR","rawOb":"METAR SBUR 250900Z 20006KT 9999 SCT025 BKN100 21/19 Q1016","temp":21,"dewp":19,"wdir":200,"wspd":6,"visib":"6+","altim":1016,"clouds":[{"cover":"SCT","base":2500},{"cover":"BKN","base":10000}],"obsTime":1774429200},"SBLO":{"icaoId":"SBLO","flightCategory":"VFR","rawOb":"METAR SBLO 250900Z 10005KT CAVOK 21/20 Q1014","temp":21,"dewp":20,"wdir":100,"wspd":5,"visib":"6+","altim":1014,"clouds":[],"obsTime":1774429200},"SBMG":{"icaoId":"SBMG","flightCategory":"VFR","rawOb":"METAR SBMG 250900Z AUTO 08003KT CAVOK 23/21 Q1013","temp":23,"dewp":21,"wdir":80,"wspd":3,"visib":"6+","altim":1013,"clouds":[],"obsTime":1774429200},"SBME":{"icaoId":"SBME","flightCategory":"VFR","rawOb":"METAR SBME 250900Z 03006KT CAVOK 24/22 Q1014","temp":24,"dewp":22,"wdir":30,"wspd":6,"visib":"6+","altim":1014,"clouds":[],"obsTime":1774429200},"SBCB":{"icaoId":"SBCB","flightCategory":"VFR","rawOb":"METAR SBCB 250900Z 06014KT CAVOK 24/23 Q1014","temp":24,"dewp":23,"wdir":60,"wspd":14,"visib":"6+","altim":1014,"clouds":[],"obsTime":1774429200},"SBEG":{"icaoId":"SBEG","flightCategory":"VFR","rawOb":"METAR SBEG 250900Z 00000KT 9999 FEW020 FEW030TCU SCT100 25/25 Q1008","temp":25,"dewp":25,"wdir":0,"wspd":0,"visib":"6+","altim":1008,"clouds":[{"cover":"FEW","base":2000},{"cover":"FEW","base":3000},{"cover":"SCT","base":10000}],"obsTime":1774429200},"SBMA":{"icaoId":"SBMA","flightCategory":"VFR","rawOb":"METAR SBMA 250900Z 17005KT 9999 FEW012 BKN080 25/23 Q1012","temp":25,"dewp":23,"wdir":170,"wspd":5,"visib":"6+","altim":1012,"clouds":[{"cover":"FEW","base":1200},{"cover":"BKN","base":8000}],"obsTime":1774429200},"SBFI":{"icaoId":"SBFI","flightCategory":"VFR","rawOb":"METAR SBFI 250900Z 12004KT 9999 FEW002 23/23 Q1011","temp":23,"dewp":23,"wdir":120,"wspd":4,"visib":"6+","altim":1011,"clouds":[{"cover":"FEW","base":200}],"obsTime":1774429200},"SBPB":{"icaoId":"SBPB","flightCategory":"VFR","rawOb":"SPECI SBPB 251015Z 13004KT 9999 FEW020 27/24 Q1011","temp":27,"dewp":24,"wdir":130,"wspd":4,"visib":"6+","altim":1011,"clouds":[{"cover":"FEW","base":2000}],"obsTime":1774433700},"SBCJ":{"icaoId":"SBCJ","flightCategory":"LIFR","rawOb":"SPECI SBCJ 251015Z 09005KT 0800 -RA FG BKN005 OVC080 21/20 Q1016","temp":21,"dewp":20,"wdir":90,"wspd":5,"visib":0.5,"altim":1016,"clouds":[{"cover":"BKN","base":500},{"cover":"OVC","base":8000}],"obsTime":1774433700},"SBOI":{"icaoId":"SBOI","flightCategory":"IFR","rawOb":"SPECI SBOI 250901Z AUTO VRB01KT 2100 // VV001 22/22 Q1011","temp":22,"dewp":22,"wdir":"VRB","wspd":1,"visib":1.3,"altim":1011,"clouds":[{"cover":"OVX","base":100}],"obsTime":1774429260},"SBBH":{"icaoId":"SBBH","flightCategory":"VFR","rawOb":"METAR SBBH 250900Z 09003KT 9999 SCT020 20/19 Q1018","temp":20,"dewp":19,"wdir":90,"wspd":3,"visib":"6+","altim":1018,"clouds":[{"cover":"SCT","base":2000}],"obsTime":1774429200},"SBBU":{"icaoId":"SBBU","flightCategory":"MVFR","rawOb":"METAR SBBU 250900Z 15008KT 6000 NSC 20/19 Q1014","temp":20,"dewp":19,"wdir":150,"wspd":8,"visib":3.73,"altim":1014,"clouds":[],"obsTime":1774429200},"SBSR":{"icaoId":"SBSR","flightCategory":"VFR","rawOb":"METAR SBSR 250900Z 05004KT 9999 SCT007 SCT025 21/20 Q1014","temp":21,"dewp":20,"wdir":50,"wspd":4,"visib":"6+","altim":1014,"clouds":[{"cover":"SCT","base":700},{"cover":"SCT","base":2500}],"obsTime":1774429200},"SBAR":{"icaoId":"SBAR","flightCategory":"VFR","rawOb":"METAR SBAR 250900Z 09006KT 9999 SCT024 FEW025TCU 25/24 Q1012","temp":25,"dewp":24,"wdir":90,"wspd":6,"visib":"6+","altim":1012,"clouds":[{"cover":"SCT","base":2400},{"cover":"FEW","base":2500}],"obsTime":1774429200},"SBAX":{"icaoId":"SBAX","flightCategory":"VFR","rawOb":"METAR SBAX 250900Z AUTO 13006KT 9999 -RA SCT015 BKN034 ///// Q1018","temp":null,"dewp":null,"wdir":130,"wspd":6,"visib":"6+","altim":1018,"clouds":[{"cover":"SCT","base":1500},{"cover":"BKN","base":3400}],"obsTime":1774429200},"SBCA":{"icaoId":"SBCA","flightCategory":"VFR","rawOb":"METAR SBCA 250900Z 34005KT 9999 FEW040 SCT070 22/20 Q1015","temp":22,"dewp":20,"wdir":340,"wspd":5,"visib":"6+","altim":1015,"clouds":[{"cover":"FEW","base":4000},{"cover":"SCT","base":7000}],"obsTime":1774429200},"SBCO":{"icaoId":"SBCO","flightCategory":"IFR","rawOb":"METAR SBCO 250900Z 12006KT 9999 OVC006 21/20 Q1013","temp":21,"dewp":20,"wdir":120,"wspd":6,"visib":"6+","altim":1013,"clouds":[{"cover":"OVC","base":600}],"obsTime":1774429200},"SBDN":{"icaoId":"SBDN","flightCategory":"VFR","rawOb":"METAR SBDN 250900Z 02004KT 9999 SCT013 22/21 Q1013","temp":22,"dewp":21,"wdir":20,"wspd":4,"visib":"6+","altim":1013,"clouds":[{"cover":"SCT","base":1300}],"obsTime":1774429200},"SBES":{"icaoId":"SBES","flightCategory":"VFR","rawOb":"METAR SBES 250900Z 03003KT 340V070 CAVOK 22/// Q1014","temp":null,"dewp":null,"wdir":30,"wspd":3,"visib":"6+","altim":1014,"clouds":[],"obsTime":1774429200},"SBIP":{"icaoId":"SBIP","flightCategory":"VFR","rawOb":"METAR SBIP 250900Z AUTO 22002KT 9999 FEW024 BKN032 BKN038 21/21 Q1016","temp":21,"dewp":21,"wdir":220,"wspd":2,"visib":"6+","altim":1016,"clouds":[{"cover":"FEW","base":2400},{"cover":"BKN","base":3200},{"cover":"BKN","base":3800}],"obsTime":1774429200},"SBKG":{"icaoId":"SBKG","flightCategory":"VFR","rawOb":"METAR SBKG 250900Z 11003KT 9999 SCT017 21/21 Q1014","temp":21,"dewp":21,"wdir":110,"wspd":3,"visib":"6+","altim":1014,"clouds":[{"cover":"SCT","base":1700}],"obsTime":1774429200},"SBPL":{"icaoId":"SBPL","flightCategory":"MVFR","rawOb":"METAR SBPL 250900Z 16002KT 9999 BKN025 24/22 Q1013","temp":24,"dewp":22,"wdir":160,"wspd":2,"visib":"6+","altim":1013,"clouds":[{"cover":"BKN","base":2500}],"obsTime":1774429200},"SBPS":{"icaoId":"SBPS","flightCategory":"VFR","rawOb":"METAR SBPS 250900Z 24004KT 9999 FEW020 BKN100 23/22 Q1015","temp":23,"dewp":22,"wdir":240,"wspd":4,"visib":"6+","altim":1015,"clouds":[{"cover":"FEW","base":2000},{"cover":"BKN","base":10000}],"obsTime":1774429200},"SBSC":{"icaoId":"SBSC","flightCategory":"VFR","rawOb":"METAR SBSC 250900Z 36011KT CAVOK 29/22 Q1015","temp":29,"dewp":22,"wdir":360,"wspd":11,"visib":"6+","altim":1015,"clouds":[],"obsTime":1774429200},"SBSJ":{"icaoId":"SBSJ","flightCategory":"VFR","rawOb":"METAR SBSJ 250900Z 04004KT 010V070 CAVOK 21/19 Q1016","temp":21,"dewp":19,"wdir":40,"wspd":4,"visib":"6+","altim":1016,"clouds":[],"obsTime":1774429200},"SBSM":{"icaoId":"SBSM","flightCategory":"IFR","rawOb":"METAR SBSM 250900Z 12006KT 9000 -RA BKN005 SCT020 OVC070 20/19 Q1013","temp":20,"dewp":19,"wdir":120,"wspd":6,"visib":5.59,"altim":1013,"clouds":[{"cover":"BKN","base":500},{"cover":"SCT","base":2000},{"cover":"OVC","base":7000}],"obsTime":1774429200},"SBAF":{"icaoId":"SBAF","flightCategory":"VFR","rawOb":"METAR SBAF 251000Z 22001KT CAVOK 24/24 Q1014","temp":24,"dewp":24,"wdir":220,"wspd":1,"visib":"6+","altim":1014,"clouds":[],"obsTime":1774432800},"SBGW":{"icaoId":"SBGW","flightCategory":"VFR","rawOb":"METAR SBGW 250900Z 06003KT 340V140 CAVOK 20/16 Q1016","temp":20,"dewp":16,"wdir":60,"wspd":3,"visib":"6+","altim":1016,"clouds":[],"obsTime":1774429200},"SBJP":{"icaoId":"SBJP","flightCategory":"VFR","rawOb":"METAR SBJP 250900Z 00000KT 9999 FEW020 24/22 Q1011","temp":24,"dewp":22,"wdir":0,"wspd":0,"visib":"6+","altim":1011,"clouds":[{"cover":"FEW","base":2000}],"obsTime":1774429200},"SBJR":{"icaoId":"SBJR","flightCategory":"VFR","rawOb":"METAR SBJR 251000Z 35003KT CAVOK 26/23 Q1013","temp":26,"dewp":23,"wdir":350,"wspd":3,"visib":"6+","altim":1013,"clouds":[],"obsTime":1774432800},"SBJV":{"icaoId":"SBJV","flightCategory":"VFR","rawOb":"METAR SBJV 250900Z 30002KT 9999 FEW005 22/22 Q1013","temp":22,"dewp":22,"wdir":300,"wspd":2,"visib":"6+","altim":1013,"clouds":[{"cover":"FEW","base":500}],"obsTime":1774429200},"SBLE":{"icaoId":"SBLE","flightCategory":"VFR","rawOb":"METAR SBLE 250900Z AUTO 11002KT 9999 FEW034 BKN043 ///// Q////","temp":null,"dewp":null,"wdir":110,"wspd":2,"visib":"6+","altim":null,"clouds":[{"cover":"FEW","base":3400},{"cover":"BKN","base":4300}],"obsTime":1774429200},"SBLS":{"icaoId":"SBLS","flightCategory":"VFR","rawOb":"METAR SBLS 250900Z 14006KT 9999 FEW020 19/18 Q1018","temp":19,"dewp":18,"wdir":140,"wspd":6,"visib":"6+","altim":1018,"clouds":[{"cover":"FEW","base":2000}],"obsTime":1774429200},"SBMT":{"icaoId":"SBMT","flightCategory":"VFR","rawOb":"METAR SBMT 250900Z 00000KT CAVOK 20/18 Q1016","temp":20,"dewp":18,"wdir":0,"wspd":0,"visib":"6+","altim":1016,"clouds":[],"obsTime":1774429200},"SBPF":{"icaoId":"SBPF","flightCategory":"VFR","rawOb":"METAR SBPF 250900Z 07006KT 9999 FEW010 20/19 Q1015","temp":20,"dewp":19,"wdir":70,"wspd":6,"visib":"6+","altim":1015,"clouds":[{"cover":"FEW","base":1000}],"obsTime":1774429200},"SBTA":{"icaoId":"SBTA","flightCategory":"VFR","rawOb":"METAR SBTA 250900Z 00000KT CAVOK 19/19 Q1016","temp":19,"dewp":19,"wdir":0,"wspd":0,"visib":"6+","altim":1016,"clouds":[],"obsTime":1774429200},"SBAN":{"icaoId":"SBAN","flightCategory":"MVFR","rawOb":"METAR SBAN 250900Z 34002KT 8000 FEW005 SCT030 FEW040TCU 17/17 Q1018 RERA","temp":17,"dewp":17,"wdir":340,"wspd":2,"visib":4.97,"altim":1018,"clouds":[{"cover":"FEW","base":500},{"cover":"SCT","base":3000},{"cover":"FEW","base":4000}],"obsTime":1774429200}}}