{"updated":1783493045,"count":51,"data":{"SBSP":{"icaoId":"SBSP","flightCategory":"MVFR","rawOb":"SPECI SBSP 080446Z AUTO 09003KT 9999 BKN011 BKN015 14/13 Q1022","temp":14,"dewp":13,"wdir":90,"wspd":3,"visib":"6+","altim":1022,"clouds":[{"cover":"BKN","base":1100},{"cover":"BKN","base":1500}],"obsTime":1783485960},"SBTE":{"icaoId":"SBTE","flightCategory":"VFR","rawOb":"METAR SBTE 080500Z 29003KT CAVOK 25/23 Q1014","temp":25,"dewp":23,"wdir":290,"wspd":3,"visib":"6+","altim":1014,"clouds":[],"obsTime":1783486800},"SBPV":{"icaoId":"SBPV","flightCategory":"VFR","rawOb":"METAR SBPV 080500Z 00000KT CAVOK 25/22 Q1014","temp":25,"dewp":22,"wdir":0,"wspd":0,"visib":"6+","altim":1014,"clouds":[],"obsTime":1783486800},"SBBV":{"icaoId":"SBBV","flightCategory":"VFR","rawOb":"METAR SBBV 080500Z 11003KT 9999 FEW045 SCT100 27/25 Q1015","temp":27,"dewp":25,"wdir":110,"wspd":3,"visib":"6+","altim":1015,"clouds":[{"cover":"FEW","base":4500},{"cover":"SCT","base":10000}],"obsTime":1783486800},"SBSL":{"icaoId":"SBSL","flightCategory":"MVFR","rawOb":"METAR SBSL 080500Z 03009KT 6000 SCT020 BKN080 26/26 Q1014","temp":26,"dewp":26,"wdir":30,"wspd":9,"visib":3.73,"altim":1014,"clouds":[{"cover":"SCT","base":2000},{"cover":"BKN","base":8000}],"obsTime":1783486800},"SBCT":{"icaoId":"SBCT","flightCategory":"VFR","rawOb":"METAR SBCT 080500Z 04002KT CAVOK 04/04 Q1022","temp":4,"dewp":4,"wdir":40,"wspd":2,"visib":"6+","altim":1022,"clouds":[],"obsTime":1783486800},"SBCG":{"icaoId":"SBCG","flightCategory":"VFR","rawOb":"METAR SBCG 080500Z 12007KT CAVOK 15/13 Q1019","temp":15,"dewp":13,"wdir":120,"wspd":7,"visib":"6+","altim":1019,"clouds":[],"obsTime":1783486800},"SBLO":{"icaoId":"SBLO","flightCategory":"VFR","rawOb":"METAR SBLO 080500Z 22003KT CAVOK 12/07 Q1020","temp":12,"dewp":7,"wdir":220,"wspd":3,"visib":"6+","altim":1020,"clouds":[],"obsTime":1783486800},"SBGL":{"icaoId":"SBGL","flightCategory":"MVFR","rawOb":"METAR SBGL 080500Z 25006KT 9999 BKN020 BKN050 20/16 Q1019","temp":20,"dewp":16,"wdir":250,"wspd":6,"visib":"6+","altim":1019,"clouds":[{"cover":"BKN","base":2000},{"cover":"BKN","base":5000}],"obsTime":1783486800},"SBSN":{"icaoId":"SBSN","flightCategory":"VFR","rawOb":"METAR SBSN 080500Z 14005KT CAVOK 25/23 Q1014","temp":25,"dewp":23,"wdir":140,"wspd":5,"visib":"6+","altim":1014,"clouds":[],"obsTime":1783486800},"SBSG":{"icaoId":"SBSG","flightCategory":"VFR","rawOb":"METAR SBSG 080500Z 18004KT 140V200 9999 FEW021 BKN070 23/22 Q1015","temp":23,"dewp":22,"wdir":180,"wspd":4,"visib":"6+","altim":1015,"clouds":[{"cover":"FEW","base":2100},{"cover":"BKN","base":7000}],"obsTime":1783486800},"SBBE":{"icaoId":"SBBE","flightCategory":"VFR","rawOb":"METAR SBBE 080500Z 08006KT 9999 FEW020 SCT045 26/24 Q1014","temp":26,"dewp":24,"wdir":80,"wspd":6,"visib":"6+","altim":1014,"clouds":[{"cover":"FEW","base":2000},{"cover":"SCT","base":4500}],"obsTime":1783486800},"SBVT":{"icaoId":"SBVT","flightCategory":"MVFR","rawOb":"METAR SBVT 080500Z 21012KT 9999 BKN025 22/19 Q1017","temp":22,"dewp":19,"wdir":210,"wspd":12,"visib":"6+","altim":1017,"clouds":[{"cover":"BKN","base":2500}],"obsTime":1783486800},"SBCF":{"icaoId":"SBCF","flightCategory":"VFR","rawOb":"METAR SBCF 080500Z 00000KT CAVOK 15/10 Q1021","temp":15,"dewp":10,"wdir":0,"wspd":0,"visib":"6+","altim":1021,"clouds":[],"obsTime":1783486800},"SBFL":{"icaoId":"SBFL","flightCategory":"VFR","rawOb":"METAR SBFL 080500Z 26003KT 210V280 9999 FEW027 08/08 Q1021","temp":8,"dewp":8,"wdir":260,"wspd":3,"visib":"6+","altim":1021,"clouds":[{"cover":"FEW","base":2700}],"obsTime":1783486800},"SBGR":{"icaoId":"SBGR","flightCategory":"IFR","rawOb":"METAR SBGR 080500Z 13003KT 9999 OVC009 14/13 Q1022","temp":14,"dewp":13,"wdir":130,"wspd":3,"visib":"6+","altim":1022,"clouds":[{"cover":"OVC","base":900}],"obsTime":1783486800},"SBMQ":{"icaoId":"SBMQ","flightCategory":"VFR","rawOb":"METAR SBMQ 080500Z 36004KT 9999 SCT019 SCT050 27/25 Q1015","temp":27,"dewp":25,"wdir":360,"wspd":4,"visib":"6+","altim":1015,"clouds":[{"cover":"SCT","base":1900},{"cover":"SCT","base":5000}],"obsTime":1783486800},"SBPJ":{"icaoId":"SBPJ","flightCategory":"VFR","rawOb":"METAR SBPJ 080500Z 13004KT CAVOK 22/17 Q1015","temp":22,"dewp":17,"wdir":130,"wspd":4,"visib":"6+","altim":1015,"clouds":[],"obsTime":1783486800},"SBMO":{"icaoId":"SBMO","flightCategory":"VFR","rawOb":"METAR SBMO 080500Z 30003KT 9999 FEW025 21/20 Q1017","temp":21,"dewp":20,"wdir":300,"wspd":3,"visib":"6+","altim":1017,"clouds":[{"cover":"FEW","base":2500}],"obsTime":1783486800},"SBEG":{"icaoId":"SBEG","flightCategory":"VFR","rawOb":"METAR SBEG 080500Z VRB02KT CAVOK 25/25 Q1014","temp":25,"dewp":25,"wdir":"VRB","wspd":2,"visib":"6+","altim":1014,"clouds":[],"obsTime":1783486800},"SBRF":{"icaoId":"SBRF","flightCategory":"VFR","rawOb":"METAR SBRF 080500Z VRB02KT 9999 FEW023 23/21 Q1016","temp":23,"dewp":21,"wdir":"VRB","wspd":2,"visib":"6+","altim":1016,"clouds":[{"cover":"FEW","base":2300}],"obsTime":1783486800},"SBSV":{"icaoId":"SBSV","flightCategory":"VFR","rawOb":"METAR SBSV 080500Z 28003KT 9999 FEW020 BKN080 22/21 Q1017","temp":22,"dewp":21,"wdir":280,"wspd":3,"visib":"6+","altim":1017,"clouds":[{"cover":"FEW","base":2000},{"cover":"BKN","base":8000}],"obsTime":1783486800},"SBUR":{"icaoId":"SBUR","flightCategory":"VFR","rawOb":"METAR SBUR 080500Z 15002KT CAVOK 18/13 Q1021","temp":18,"dewp":13,"wdir":150,"wspd":2,"visib":"6+","altim":1021,"clouds":[],"obsTime":1783486800},"SBUL":{"icaoId":"SBUL","flightCategory":"VFR","rawOb":"METAR SBUL 080500Z 19008KT CAVOK 17/12 Q1021","temp":17,"dewp":12,"wdir":190,"wspd":8,"visib":"6+","altim":1021,"clouds":[],"obsTime":1783486800},"SBME":{"icaoId":"SBME","flightCategory":"MVFR","rawOb":"METAR SBME 080500Z 26004KT 9999 BKN019 19/18 Q1018","temp":19,"dewp":18,"wdir":260,"wspd":4,"visib":"6+","altim":1018,"clouds":[{"cover":"BKN","base":1900}],"obsTime":1783486800},"SBMG":{"icaoId":"SBMG","flightCategory":"VFR","rawOb":"METAR SBMG 080500Z AUTO 00000KT CAVOK 13/04 Q1019","temp":13,"dewp":4,"wdir":0,"wspd":0,"visib":"6+","altim":1019,"clouds":[],"obsTime":1783486800},"SBJU":{"icaoId":"SBJU","flightCategory":"VFR","rawOb":"METAR SBJU 080500Z 09003KT 9999 SCT020 24/14 Q1018","temp":24,"dewp":14,"wdir":90,"wspd":3,"visib":"6+","altim":1018,"clouds":[{"cover":"SCT","base":2000}],"obsTime":1783486800},"SBNT":{"icaoId":"SBNT","flightCategory":"VFR","rawOb":"METAR SBNT 080500Z 16005KT 9999 FEW025 SCT070 24/22 Q1015","temp":24,"dewp":22,"wdir":160,"wspd":5,"visib":"6+","altim":1015,"clouds":[{"cover":"FEW","base":2500},{"cover":"SCT","base":7000}],"obsTime":1783486800},"SBBR":{"icaoId":"SBBR","flightCategory":"VFR","rawOb":"METAR SBBR 080500Z 00000KT CAVOK 12/09 Q1022","temp":12,"dewp":9,"wdir":0,"wspd":0,"visib":"6+","altim":1022,"clouds":[],"obsTime":1783486800},"SBGO":{"icaoId":"SBGO","flightCategory":"VFR","rawOb":"METAR SBGO 080500Z 11004KT CAVOK 18/12 Q1020","temp":18,"dewp":12,"wdir":110,"wspd":4,"visib":"6+","altim":1020,"clouds":[],"obsTime":1783486800},"SBRB":{"icaoId":"SBRB","flightCategory":"MVFR","rawOb":"METAR SBRB 080500Z 16006KT 7000 SCT010 BKN015 19/18 Q1018","temp":19,"dewp":18,"wdir":160,"wspd":6,"visib":4.35,"altim":1018,"clouds":[{"cover":"SCT","base":1000},{"cover":"BKN","base":1500}],"obsTime":1783486800},"SBFZ":{"icaoId":"SBFZ","flightCategory":"VFR","rawOb":"METAR SBFZ 080500Z 11006KT 9999 SCT017 BKN090 26/24 Q1014","temp":26,"dewp":24,"wdir":110,"wspd":6,"visib":"6+","altim":1014,"clouds":[{"cover":"SCT","base":1700},{"cover":"BKN","base":9000}],"obsTime":1783486800},"SBKP":{"icaoId":"SBKP","flightCategory":"VFR","rawOb":"METAR SBKP 080500Z 12009KT CAVOK 14/13 Q1021","temp":14,"dewp":13,"wdir":120,"wspd":9,"visib":"6+","altim":1021,"clouds":[],"obsTime":1783486800},"SBMA":{"icaoId":"SBMA","flightCategory":"VFR","rawOb":"METAR SBMA 080500Z 35006KT 9999 FEW012 BKN080 25/22 Q1014","temp":25,"dewp":22,"wdir":350,"wspd":6,"visib":"6+","altim":1014,"clouds":[{"cover":"FEW","base":1200},{"cover":"BKN","base":8000}],"obsTime":1783486800},"SBPA":{"icaoId":"SBPA","flightCategory":"VFR","rawOb":"METAR SBPA 080500Z 25003KT CAVOK 05/05 Q1021","temp":5,"dewp":5,"wdir":250,"wspd":3,"visib":"6+","altim":1021,"clouds":[],"obsTime":1783486800},"SBFI":{"icaoId":"SBFI","flightCategory":"VFR","rawOb":"METAR SBFI 080500Z 14002KT 9999 2000S BCFG NSC 03/03 Q1020","temp":3,"dewp":3,"wdir":140,"wspd":2,"visib":"6+","altim":1020,"clouds":[],"obsTime":1783486800},"SBOI":{"icaoId":"SBOI","flightCategory":"VFR","rawOb":"METAR SBOI 080500Z AUTO 00000KT 9999 // NCD 24/24 Q1015","temp":24,"dewp":24,"wdir":0,"wspd":0,"visib":"6+","altim":1015,"clouds":[],"obsTime":1783486800},"SBIP":{"icaoId":"SBIP","flightCategory":"LIFR","rawOb":"METAR SBIP 080500Z AUTO 00000KT 0500 FG VV001 15/15 Q1018","temp":15,"dewp":15,"wdir":0,"wspd":0,"visib":0.31,"altim":1018,"clouds":[{"cover":"OVX","base":100}],"obsTime":1783486800},"SBDN":{"icaoId":"SBDN","flightCategory":"VFR","rawOb":"METAR SBDN 080500Z 00000KT CAVOK 13/10 Q1019","temp":13,"dewp":10,"wdir":0,"wspd":0,"visib":"6+","altim":1019,"clouds":[],"obsTime":1783486800},"SBPL":{"icaoId":"SBPL","flightCategory":"VFR","rawOb":"METAR SBPL 080500Z 11006KT CAVOK 23/15 Q1018","temp":23,"dewp":15,"wdir":110,"wspd":6,"visib":"6+","altim":1018,"clouds":[],"obsTime":1783486800},"SBSC":{"icaoId":"SBSC","flightCategory":"MVFR","rawOb":"METAR SBSC 080500Z 21007KT 5000 BR SCT007 BKN015 OVC030 19/18 Q1019","temp":19,"dewp":18,"wdir":210,"wspd":7,"visib":3.11,"altim":1019,"clouds":[{"cover":"SCT","base":700},{"cover":"BKN","base":1500},{"cover":"OVC","base":3000}],"obsTime":1783486800},"SBSR":{"icaoId":"SBSR","flightCategory":"VFR","rawOb":"METAR SBSR 080500Z 21003KT CAVOK 17/14 Q1020","temp":17,"dewp":14,"wdir":210,"wspd":3,"visib":"6+","altim":1020,"clouds":[],"obsTime":1783486800},"SBKG":{"icaoId":"SBKG","flightCategory":"VFR","rawOb":"METAR SBKG 080500Z 15003KT 9999 SCT008 20/19 Q1018","temp":20,"dewp":19,"wdir":150,"wspd":3,"visib":"6+","altim":1018,"clouds":[{"cover":"SCT","base":800}],"obsTime":1783486800},"SBPS":{"icaoId":"SBPS","flightCategory":"VFR","rawOb":"METAR SBPS 080500Z 35005KT 9999 FEW020 21/19 Q1018","temp":21,"dewp":19,"wdir":350,"wspd":5,"visib":"6+","altim":1018,"clouds":[{"cover":"FEW","base":2000}],"obsTime":1783486800},"SBAR":{"icaoId":"SBAR","flightCategory":"VFR","rawOb":"METAR SBAR 080500Z 31003KT CAVOK 19/18 Q1017","temp":19,"dewp":18,"wdir":310,"wspd":3,"visib":"6+","altim":1017,"clouds":[],"obsTime":1783486800},"SBAX":{"icaoId":"SBAX","flightCategory":"VFR","rawOb":"METAR SBAX 080500Z AUTO 18003KT 130V230 CAVOK 16/11 Q1021","temp":16,"dewp":11,"wdir":180,"wspd":3,"visib":"6+","altim":1021,"clouds":[],"obsTime":1783486800},"SBTU":{"icaoId":"SBTU","flightCategory":"VFR","rawOb":"METAR SBTU 080500Z AUTO 10006KT 9999 // FEW031/// SCT042/// 24/22 Q1016","temp":24,"dewp":22,"wdir":100,"wspd":6,"visib":"6+","altim":1016,"clouds":[{"cover":"FEW","base":3100},{"cover":"SCT","base":4200}],"obsTime":1783486800},"SBJP":{"icaoId":"SBJP","flightCategory":"VFR","rawOb":"METAR SBJP 080500Z 18006KT 9999 FEW020 SCT070 23/22 Q1016","temp":23,"dewp":22,"wdir":180,"wspd":6,"visib":"6+","altim":1016,"clouds":[{"cover":"FEW","base":2000},{"cover":"SCT","base":7000}],"obsTime":1783486800},"SBLE":{"icaoId":"SBLE","flightCategory":"MVFR","rawOb":"METAR SBLE 080500Z AUTO VRB01KT 9999 OVC013 ///// Q1020","temp":null,"dewp":null,"wdir":"VRB","wspd":1,"visib":"6+","altim":1020,"clouds":[{"cover":"OVC","base":1300}],"obsTime":1783486800},"SBNM":{"icaoId":"SBNM","flightCategory":"VFR","rawOb":"METAR SBNM 080500Z AUTO 08006KT CAVOK 04/02 Q1021","temp":4,"dewp":2,"wdir":80,"wspd":6,"visib":"6+","altim":1021,"clouds":[],"obsTime":1783486800},"SBAN":{"icaoId":"SBAN","flightCategory":"VFR","rawOb":"METAR SBAN 080500Z 12004KT CAVOK 17/10 Q1023","temp":17,"dewp":10,"wdir":120,"wspd":4,"visib":"6+","altim":1023,"clouds":[],"obsTime":1783486800}}}