{"updated":1784251214,"count":63,"data":{"SBUL":{"icaoId":"SBUL","flightCategory":"VFR","rawOb":"METAR SBUL 170000Z 10009KT CAVOK 20/11 Q1024","temp":20,"dewp":11,"wdir":100,"wspd":9,"visib":"6+","altim":1024,"clouds":[],"obsTime":1784246400},"SBSL":{"icaoId":"SBSL","flightCategory":"VFR","rawOb":"METAR SBSL 170000Z 07004KT 9999 FEW025 SCT060 27/25 Q1015","temp":27,"dewp":25,"wdir":70,"wspd":4,"visib":"6+","altim":1015,"clouds":[{"cover":"FEW","base":2500},{"cover":"SCT","base":6000}],"obsTime":1784246400},"SBBR":{"icaoId":"SBBR","flightCategory":"VFR","rawOb":"METAR SBBR 170000Z 10008KT CAVOK 18/10 Q1025","temp":18,"dewp":10,"wdir":100,"wspd":8,"visib":"6+","altim":1025,"clouds":[],"obsTime":1784246400},"SBMQ":{"icaoId":"SBMQ","flightCategory":"VFR","rawOb":"METAR SBMQ 170000Z 03009KT CAVOK 28/24 Q1015","temp":28,"dewp":24,"wdir":30,"wspd":9,"visib":"6+","altim":1015,"clouds":[],"obsTime":1784246400},"SBRF":{"icaoId":"SBRF","flightCategory":"MVFR","rawOb":"METAR SBRF 170000Z 21006KT 170V240 9999 BKN015 BKN040 24/22 Q1019","temp":24,"dewp":22,"wdir":210,"wspd":6,"visib":"6+","altim":1019,"clouds":[{"cover":"BKN","base":1500},{"cover":"BKN","base":4000}],"obsTime":1784246400},"SBSN":{"icaoId":"SBSN","flightCategory":"VFR","rawOb":"METAR SBSN 170000Z 16004KT CAVOK 26/24 Q1013","temp":26,"dewp":24,"wdir":160,"wspd":4,"visib":"6+","altim":1013,"clouds":[],"obsTime":1784246400},"SBEG":{"icaoId":"SBEG","flightCategory":"VFR","rawOb":"METAR SBEG 170000Z 05002KT CAVOK 25/24 Q1012","temp":25,"dewp":24,"wdir":50,"wspd":2,"visib":"6+","altim":1012,"clouds":[],"obsTime":1784246400},"SBPV":{"icaoId":"SBPV","flightCategory":"VFR","rawOb":"METAR SBPV 170000Z VRB01KT CAVOK 26/24 Q1012","temp":26,"dewp":24,"wdir":"VRB","wspd":1,"visib":"6+","altim":1012,"clouds":[],"obsTime":1784246400},"SBSV":{"icaoId":"SBSV","flightCategory":"IFR","rawOb":"SPECI SBSV 162348Z 08016KT 3000 RA BR BKN010 BKN019 FEW025TCU OVC060 22/21 Q1022","temp":22,"dewp":21,"wdir":80,"wspd":16,"visib":1.86,"altim":1022,"clouds":[{"cover":"BKN","base":1000},{"cover":"BKN","base":1900},{"cover":"FEW","base":2500},{"cover":"OVC","base":6000}],"obsTime":1784245680},"SBRB":{"icaoId":"SBRB","flightCategory":"MVFR","rawOb":"METAR SBRB 170000Z 01003KT 8000 FEW040TCU SCT100 27/24 Q1012","temp":27,"dewp":24,"wdir":10,"wspd":3,"visib":4.97,"altim":1012,"clouds":[{"cover":"FEW","base":4000},{"cover":"SCT","base":10000}],"obsTime":1784246400},"SBCF":{"icaoId":"SBCF","flightCategory":"VFR","rawOb":"METAR SBCF 170000Z 12009KT CAVOK 15/08 Q1027","temp":15,"dewp":8,"wdir":120,"wspd":9,"visib":"6+","altim":1027,"clouds":[],"obsTime":1784246400},"SBMK":{"icaoId":"SBMK","flightCategory":"VFR","rawOb":"METAR SBMK 170000Z 09005KT CAVOK 17/09 Q1025","temp":17,"dewp":9,"wdir":90,"wspd":5,"visib":"6+","altim":1025,"clouds":[],"obsTime":1784246400},"SBIL":{"icaoId":"SBIL","flightCategory":"VFR","rawOb":"METAR SBIL 170000Z 23009KT 9999 VCSH SCT020 SCT040 20/19 Q1024","temp":20,"dewp":19,"wdir":230,"wspd":9,"visib":"6+","altim":1024,"clouds":[{"cover":"SCT","base":2000},{"cover":"SCT","base":4000}],"obsTime":1784246400},"SBJU":{"icaoId":"SBJU","flightCategory":"MVFR","rawOb":"METAR SBJU 170000Z 18007KT 9999 BKN020 25/16 Q1020","temp":25,"dewp":16,"wdir":180,"wspd":7,"visib":"6+","altim":1020,"clouds":[{"cover":"BKN","base":2000}],"obsTime":1784246400},"SBMG":{"icaoId":"SBMG","flightCategory":"VFR","rawOb":"METAR SBMG 170000Z 05014KT CAVOK 23/14 Q1016","temp":23,"dewp":14,"wdir":50,"wspd":14,"visib":"6+","altim":1016,"clouds":[],"obsTime":1784246400},"SBMO":{"icaoId":"SBMO","flightCategory":"VFR","rawOb":"METAR SBMO 170000Z 17003KT 9999 SCT020 BKN070 24/20 Q1020","temp":24,"dewp":20,"wdir":170,"wspd":3,"visib":"6+","altim":1020,"clouds":[{"cover":"SCT","base":2000},{"cover":"BKN","base":7000}],"obsTime":1784246400},"SBNT":{"icaoId":"SBNT","flightCategory":"VFR","rawOb":"METAR SBNT 170000Z 19007KT CAVOK 23/21 Q1018","temp":23,"dewp":21,"wdir":190,"wspd":7,"visib":"6+","altim":1018,"clouds":[],"obsTime":1784246400},"SBTE":{"icaoId":"SBTE","flightCategory":"VFR","rawOb":"METAR SBTE 170000Z 00000KT CAVOK 29/21 Q1014","temp":29,"dewp":21,"wdir":0,"wspd":0,"visib":"6+","altim":1014,"clouds":[],"obsTime":1784246400},"SBGR":{"icaoId":"SBGR","flightCategory":"VFR","rawOb":"METAR SBGR 170000Z 07006KT CAVOK 16/12 Q1023","temp":16,"dewp":12,"wdir":70,"wspd":6,"visib":"6+","altim":1023,"clouds":[],"obsTime":1784246400},"SBMA":{"icaoId":"SBMA","flightCategory":"VFR","rawOb":"METAR SBMA 170000Z 00000KT CAVOK 27/23 Q1015","temp":27,"dewp":23,"wdir":0,"wspd":0,"visib":"6+","altim":1015,"clouds":[],"obsTime":1784246400},"SBFZ":{"icaoId":"SBFZ","flightCategory":"MVFR","rawOb":"METAR SBFZ 170000Z 13014KT 9999 BKN020 BKN060 26/22 Q1016","temp":26,"dewp":22,"wdir":130,"wspd":14,"visib":"6+","altim":1016,"clouds":[{"cover":"BKN","base":2000},{"cover":"BKN","base":6000}],"obsTime":1784246400},"SBME":{"icaoId":"SBME","flightCategory":"VFR","rawOb":"METAR SBME 170000Z 02008KT CAVOK 19/14 Q1024","temp":19,"dewp":14,"wdir":20,"wspd":8,"visib":"6+","altim":1024,"clouds":[],"obsTime":1784246400},"SBUR":{"icaoId":"SBUR","flightCategory":"VFR","rawOb":"METAR SBUR 170000Z 05009KT CAVOK 21/10 Q1022","temp":21,"dewp":10,"wdir":50,"wspd":9,"visib":"6+","altim":1022,"clouds":[],"obsTime":1784246400},"SBBE":{"icaoId":"SBBE","flightCategory":"VFR","rawOb":"METAR SBBE 170000Z 10005KT 9999 FEW049 SCT080 27/24 Q1015","temp":27,"dewp":24,"wdir":100,"wspd":5,"visib":"6+","altim":1015,"clouds":[{"cover":"FEW","base":4900},{"cover":"SCT","base":8000}],"obsTime":1784246400},"SBPA":{"icaoId":"SBPA","flightCategory":"VFR","rawOb":"METAR SBPA 170000Z 10005KT CAVOK 20/15 Q1010","temp":20,"dewp":15,"wdir":100,"wspd":5,"visib":"6+","altim":1010,"clouds":[],"obsTime":1784246400},"SBBV":{"icaoId":"SBBV","flightCategory":"VFR","rawOb":"METAR SBBV 170000Z 04003KT 9999 FEW040 FEW045TCU 26/24 Q1013","temp":26,"dewp":24,"wdir":40,"wspd":3,"visib":"6+","altim":1013,"clouds":[{"cover":"FEW","base":4000},{"cover":"FEW","base":4500}],"obsTime":1784246400},"SBFI":{"icaoId":"SBFI","flightCategory":"VFR","rawOb":"METAR SBFI 170000Z 04013KT CAVOK 26/15 Q1009","temp":26,"dewp":15,"wdir":40,"wspd":13,"visib":"6+","altim":1009,"clouds":[],"obsTime":1784246400},"SBSG":{"icaoId":"SBSG","flightCategory":"VFR","rawOb":"METAR SBSG 170000Z 17004KT 140V220 9999 FEW015 23/21 Q1018","temp":23,"dewp":21,"wdir":170,"wspd":4,"visib":"6+","altim":1018,"clouds":[{"cover":"FEW","base":1500}],"obsTime":1784246400},"SBCG":{"icaoId":"SBCG","flightCategory":"VFR","rawOb":"METAR SBCG 170000Z 03006KT CAVOK 24/16 Q1015","temp":24,"dewp":16,"wdir":30,"wspd":6,"visib":"6+","altim":1015,"clouds":[],"obsTime":1784246400},"SBVT":{"icaoId":"SBVT","flightCategory":"VFR","rawOb":"METAR SBVT 170000Z 29003KT 9999 BKN045 19/15 Q1025","temp":19,"dewp":15,"wdir":290,"wspd":3,"visib":"6+","altim":1025,"clouds":[{"cover":"BKN","base":4500}],"obsTime":1784246400},"SBPJ":{"icaoId":"SBPJ","flightCategory":"VFR","rawOb":"METAR SBPJ 170000Z 11005KT CAVOK 25/19 Q1016","temp":25,"dewp":19,"wdir":110,"wspd":5,"visib":"6+","altim":1016,"clouds":[],"obsTime":1784246400},"SBGL":{"icaoId":"SBGL","flightCategory":"VFR","rawOb":"METAR SBGL 170000Z 08001KT CAVOK 18/15 Q1022","temp":18,"dewp":15,"wdir":80,"wspd":1,"visib":"6+","altim":1022,"clouds":[],"obsTime":1784246400},"SBCT":{"icaoId":"SBCT","flightCategory":"VFR","rawOb":"METAR SBCT 170000Z 03005KT CAVOK 15/12 Q1021","temp":15,"dewp":12,"wdir":30,"wspd":5,"visib":"6+","altim":1021,"clouds":[],"obsTime":1784246400},"SBSP":{"icaoId":"SBSP","flightCategory":"VFR","rawOb":"METAR SBSP 170000Z 06005KT 030V090 CAVOK 19/11 Q1024","temp":19,"dewp":11,"wdir":60,"wspd":5,"visib":"6+","altim":1024,"clouds":[],"obsTime":1784246400},"SBGO":{"icaoId":"SBGO","flightCategory":"VFR","rawOb":"METAR SBGO 170000Z 07012KT CAVOK 24/12 Q1021","temp":24,"dewp":12,"wdir":70,"wspd":12,"visib":"6+","altim":1021,"clouds":[],"obsTime":1784246400},"SBLO":{"icaoId":"SBLO","flightCategory":"VFR","rawOb":"METAR SBLO 170000Z 17003KT CAVOK 20/15 Q1019","temp":20,"dewp":15,"wdir":170,"wspd":3,"visib":"6+","altim":1019,"clouds":[],"obsTime":1784246400},"SBKP":{"icaoId":"SBKP","flightCategory":"VFR","rawOb":"METAR SBKP 170000Z 08004KT CAVOK 19/10 Q1022","temp":19,"dewp":10,"wdir":80,"wspd":4,"visib":"6+","altim":1022,"clouds":[],"obsTime":1784246400},"SBFL":{"icaoId":"SBFL","flightCategory":"VFR","rawOb":"METAR SBFL 170000Z 33013KT 9999 FEW003 16/15 Q1018","temp":16,"dewp":15,"wdir":330,"wspd":13,"visib":"6+","altim":1018,"clouds":[{"cover":"FEW","base":300}],"obsTime":1784246400},"SBCZ":{"icaoId":"SBCZ","flightCategory":"VFR","rawOb":"METAR SBCZ 170000Z 06001KT CAVOK 25/24 Q1012","temp":25,"dewp":24,"wdir":60,"wspd":1,"visib":"6+","altim":1012,"clouds":[],"obsTime":1784246400},"SBBH":{"icaoId":"SBBH","flightCategory":"VFR","rawOb":"METAR SBBH 170000Z 11008KT CAVOK 14/09 Q1027","temp":14,"dewp":9,"wdir":110,"wspd":8,"visib":"6+","altim":1027,"clouds":[],"obsTime":1784246400},"SBBU":{"icaoId":"SBBU","flightCategory":"VFR","rawOb":"METAR SBBU 170000Z 10008KT CAVOK 22/15 Q1020","temp":22,"dewp":15,"wdir":100,"wspd":8,"visib":"6+","altim":1020,"clouds":[],"obsTime":1784246400},"SBDN":{"icaoId":"SBDN","flightCategory":"VFR","rawOb":"METAR SBDN 170000Z 06009KT CAVOK 23/13 Q1017","temp":23,"dewp":13,"wdir":60,"wspd":9,"visib":"6+","altim":1017,"clouds":[],"obsTime":1784246400},"SBIP":{"icaoId":"SBIP","flightCategory":"VFR","rawOb":"METAR SBIP 170000Z AUTO 00000KT CAVOK 14/14 Q1026","temp":14,"dewp":14,"wdir":0,"wspd":0,"visib":"6+","altim":1026,"clouds":[],"obsTime":1784246400},"SBSC":{"icaoId":"SBSC","flightCategory":"VFR","rawOb":"METAR SBSC 170000Z 35004KT CAVOK 19/12 Q1022","temp":19,"dewp":12,"wdir":350,"wspd":4,"visib":"6+","altim":1022,"clouds":[],"obsTime":1784246400},"SBSR":{"icaoId":"SBSR","flightCategory":"VFR","rawOb":"METAR SBSR 170000Z 09004KT CAVOK 24/11 Q1020","temp":24,"dewp":11,"wdir":90,"wspd":4,"visib":"6+","altim":1020,"clouds":[],"obsTime":1784246400},"SBSJ":{"icaoId":"SBSJ","flightCategory":"VFR","rawOb":"METAR SBSJ 170000Z 06005KT CAVOK 18/10 Q1023","temp":18,"dewp":10,"wdir":60,"wspd":5,"visib":"6+","altim":1023,"clouds":[],"obsTime":1784246400},"SBOI":{"icaoId":"SBOI","flightCategory":"VFR","rawOb":"METAR SBOI 170000Z AUTO VRB01KT CAVOK 26/23 Q1015","temp":26,"dewp":23,"wdir":"VRB","wspd":1,"visib":"6+","altim":1015,"clouds":[],"obsTime":1784246400},"SBPL":{"icaoId":"SBPL","flightCategory":"VFR","rawOb":"METAR SBPL 170000Z 10010KT 9999 SCT020 BKN070 24/15 Q1021","temp":24,"dewp":15,"wdir":100,"wspd":10,"visib":"6+","altim":1021,"clouds":[{"cover":"SCT","base":2000},{"cover":"BKN","base":7000}],"obsTime":1784246400},"SBKG":{"icaoId":"SBKG","flightCategory":"VFR","rawOb":"METAR SBKG 170000Z 15009KT 9999 FEW008 SCT070 20/18 Q1021","temp":20,"dewp":18,"wdir":150,"wspd":9,"visib":"6+","altim":1021,"clouds":[{"cover":"FEW","base":800},{"cover":"SCT","base":7000}],"obsTime":1784246400},"SBCO":{"icaoId":"SBCO","flightCategory":"VFR","rawOb":"METAR SBCO 170000Z 10004KT 050V170 CAVOK 18/15 Q1010","temp":18,"dewp":15,"wdir":100,"wspd":4,"visib":"6+","altim":1010,"clouds":[],"obsTime":1784246400},"SBSM":{"icaoId":"SBSM","flightCategory":"VFR","rawOb":"METAR SBSM 170000Z 03015KT CAVOK 25/14 Q1007","temp":25,"dewp":14,"wdir":30,"wspd":15,"visib":"6+","altim":1007,"clouds":[],"obsTime":1784246400},"SBAR":{"icaoId":"SBAR","flightCategory":"VFR","rawOb":"METAR SBAR 170000Z 16009KT 9999 SCT040 OVC060 24/20 Q1021","temp":24,"dewp":20,"wdir":160,"wspd":9,"visib":"6+","altim":1021,"clouds":[{"cover":"SCT","base":4000},{"cover":"OVC","base":6000}],"obsTime":1784246400},"SBPS":{"icaoId":"SBPS","flightCategory":"VFR","rawOb":"METAR SBPS 170000Z 14007KT 080V230 9999 SCT030 SCT070 22/18 Q1024","temp":22,"dewp":18,"wdir":140,"wspd":7,"visib":"6+","altim":1024,"clouds":[{"cover":"SCT","base":3000},{"cover":"SCT","base":7000}],"obsTime":1784246400},"SBAX":{"icaoId":"SBAX","flightCategory":"VFR","rawOb":"METAR SBAX 170000Z 11010KT CAVOK 16/09 Q1025","temp":16,"dewp":9,"wdir":110,"wspd":10,"visib":"6+","altim":1025,"clouds":[],"obsTime":1784246400},"SBLS":{"icaoId":"SBLS","flightCategory":"VFR","rawOb":"METAR SBLS 170000Z 14006KT CAVOK 14/08 Q1026","temp":14,"dewp":8,"wdir":140,"wspd":6,"visib":"6+","altim":1026,"clouds":[],"obsTime":1784246400},"SBMT":{"icaoId":"SBMT","flightCategory":"VFR","rawOb":"METAR SBMT 170000Z 00000KT CAVOK 16/12 Q1023","temp":16,"dewp":12,"wdir":0,"wspd":0,"visib":"6+","altim":1023,"clouds":[],"obsTime":1784246400},"SBTA":{"icaoId":"SBTA","flightCategory":"VFR","rawOb":"METAR SBTA 170000Z 00000KT CAVOK 11/09 Q1023","temp":11,"dewp":9,"wdir":0,"wspd":0,"visib":"6+","altim":1023,"clouds":[],"obsTime":1784246400},"SBLE":{"icaoId":"SBLE","flightCategory":"VFR","rawOb":"METAR SBLE 170000Z AUTO 10008KT 9999 FEW029 SCT040 20/17 Q1025","temp":20,"dewp":17,"wdir":100,"wspd":8,"visib":"6+","altim":1025,"clouds":[{"cover":"FEW","base":2900},{"cover":"SCT","base":4000}],"obsTime":1784246400},"SBJV":{"icaoId":"SBJV","flightCategory":"IFR","rawOb":"METAR SBJV 170000Z 26002KT 8000 BKN006 16/16 Q1019","temp":16,"dewp":16,"wdir":260,"wspd":2,"visib":4.97,"altim":1019,"clouds":[{"cover":"BKN","base":600}],"obsTime":1784246400},"SBNM":{"icaoId":"SBNM","flightCategory":"VFR","rawOb":"METAR SBNM 170000Z AUTO 03015KT CAVOK 22/13 Q1009","temp":22,"dewp":13,"wdir":30,"wspd":15,"visib":"6+","altim":1009,"clouds":[],"obsTime":1784246400},"SBAN":{"icaoId":"SBAN","flightCategory":"VFR","rawOb":"METAR SBAN 170000Z 09007KT CAVOK 19/11 Q1024","temp":19,"dewp":11,"wdir":90,"wspd":7,"visib":"6+","altim":1024,"clouds":[],"obsTime":1784246400},"SBJP":{"icaoId":"SBJP","flightCategory":"VFR","rawOb":"METAR SBJP 170000Z 18007KT 9999 FEW020 23/22 Q1019","temp":23,"dewp":22,"wdir":180,"wspd":7,"visib":"6+","altim":1019,"clouds":[{"cover":"FEW","base":2000}],"obsTime":1784246400},"SBJR":{"icaoId":"SBJR","flightCategory":"VFR","rawOb":"METAR SBJR 170000Z 01005KT CAVOK 17/14 Q1022","temp":17,"dewp":14,"wdir":10,"wspd":5,"visib":"6+","altim":1022,"clouds":[],"obsTime":1784246400}}}