{"updated":1782839981,"count":88,"data":{"SBPA":{"icaoId":"SBPA","flightCategory":"MVFR","rawOb":"METAR SBPA 301600Z 13007KT 9999 BKN014 OVC022 15/12 Q1018","temp":15,"dewp":12,"wdir":130,"wspd":7,"visib":"6+","altim":1018,"clouds":[{"cover":"BKN","base":1400},{"cover":"OVC","base":2200}],"obsTime":1782835200},"SBFI":{"icaoId":"SBFI","flightCategory":"IFR","rawOb":"METAR SBFI 301600Z 03005KT 8000 -RA BKN006 SCT013 18/18 Q1015","temp":18,"dewp":18,"wdir":30,"wspd":5,"visib":4.97,"altim":1015,"clouds":[{"cover":"BKN","base":600},{"cover":"SCT","base":1300}],"obsTime":1782835200},"SBCT":{"icaoId":"SBCT","flightCategory":"VFR","rawOb":"METAR SBCT 301600Z 33010KT 9999 SCT023 22/17 Q1020","temp":22,"dewp":17,"wdir":330,"wspd":10,"visib":"6+","altim":1020,"clouds":[{"cover":"SCT","base":2300}],"obsTime":1782835200},"SBAT":{"icaoId":"SBAT","flightCategory":"VFR","rawOb":"METAR SBAT 301600Z 11009KT 9999 FEW030 35/15 Q1014","temp":35,"dewp":15,"wdir":110,"wspd":9,"visib":"6+","altim":1014,"clouds":[{"cover":"FEW","base":3000}],"obsTime":1782835200},"SBHT":{"icaoId":"SBHT","flightCategory":"VFR","rawOb":"METAR SBHT 301600Z 15005KT 9999 SCT025 SCT100 29/24 Q1013","temp":29,"dewp":24,"wdir":150,"wspd":5,"visib":"6+","altim":1013,"clouds":[{"cover":"SCT","base":2500},{"cover":"SCT","base":10000}],"obsTime":1782835200},"SBIL":{"icaoId":"SBIL","flightCategory":"VFR","rawOb":"METAR SBIL 301600Z 17006KT 120V200 9999 FEW023 28/23 Q1019","temp":28,"dewp":23,"wdir":170,"wspd":6,"visib":"6+","altim":1019,"clouds":[{"cover":"FEW","base":2300}],"obsTime":1782835200},"SBJU":{"icaoId":"SBJU","flightCategory":"VFR","rawOb":"METAR SBJU 301600Z 13010KT 9999 SCT020 31/17 Q1016","temp":31,"dewp":17,"wdir":130,"wspd":10,"visib":"6+","altim":1016,"clouds":[{"cover":"SCT","base":2000}],"obsTime":1782835200},"SBMG":{"icaoId":"SBMG","flightCategory":"VFR","rawOb":"METAR SBMG 301600Z 01013KT 9999 FEW040 27/18 Q1017","temp":27,"dewp":18,"wdir":10,"wspd":13,"visib":"6+","altim":1017,"clouds":[{"cover":"FEW","base":4000}],"obsTime":1782835200},"SBME":{"icaoId":"SBME","flightCategory":"VFR","rawOb":"METAR SBME 301600Z 14008KT CAVOK 25/21 Q1018","temp":25,"dewp":21,"wdir":140,"wspd":8,"visib":"6+","altim":1018,"clouds":[],"obsTime":1782835200},"SBMK":{"icaoId":"SBMK","flightCategory":"MVFR","rawOb":"METAR SBMK 301600Z 08010KT 9999 BKN030 27/16 Q1021","temp":27,"dewp":16,"wdir":80,"wspd":10,"visib":"6+","altim":1021,"clouds":[{"cover":"BKN","base":3000}],"obsTime":1782835200},"SBUL":{"icaoId":"SBUL","flightCategory":"VFR","rawOb":"METAR SBUL 301600Z 08007KT 010V110 CAVOK 24/12 Q1023","temp":24,"dewp":12,"wdir":80,"wspd":7,"visib":"6+","altim":1023,"clouds":[],"obsTime":1782835200},"SBUR":{"icaoId":"SBUR","flightCategory":"VFR","rawOb":"METAR SBUR 301600Z 03009KT CAVOK 26/11 Q1021","temp":26,"dewp":11,"wdir":30,"wspd":9,"visib":"6+","altim":1021,"clouds":[],"obsTime":1782835200},"SBBE":{"icaoId":"SBBE","flightCategory":"VFR","rawOb":"METAR SBBE 301600Z 11008KT 9999 BKN035 32/24 Q1012","temp":32,"dewp":24,"wdir":110,"wspd":8,"visib":"6+","altim":1012,"clouds":[{"cover":"BKN","base":3500}],"obsTime":1782835200},"SBMO":{"icaoId":"SBMO","flightCategory":"MVFR","rawOb":"METAR SBMO 301600Z 13013KT 090V150 8000 -RA FEW023 BKN030 26/23 Q1016","temp":26,"dewp":23,"wdir":130,"wspd":13,"visib":4.97,"altim":1016,"clouds":[{"cover":"FEW","base":2300},{"cover":"BKN","base":3000}],"obsTime":1782835200},"SBBR":{"icaoId":"SBBR","flightCategory":"VFR","rawOb":"METAR SBBR 301600Z 09008KT 020V160 9999 FEW045 25/13 Q1023","temp":25,"dewp":13,"wdir":90,"wspd":8,"visib":"6+","altim":1023,"clouds":[{"cover":"FEW","base":4500}],"obsTime":1782835200},"SBBV":{"icaoId":"SBBV","flightCategory":"MVFR","rawOb":"METAR SBBV 301600Z 08007KT 9999 BKN025 BKN040 30/23 Q1013","temp":30,"dewp":23,"wdir":80,"wspd":7,"visib":"6+","altim":1013,"clouds":[{"cover":"BKN","base":2500},{"cover":"BKN","base":4000}],"obsTime":1782835200},"SBSP":{"icaoId":"SBSP","flightCategory":"VFR","rawOb":"METAR SBSP 301600Z 36011KT CAVOK 25/14 Q1022","temp":25,"dewp":14,"wdir":360,"wspd":11,"visib":"6+","altim":1022,"clouds":[],"obsTime":1782835200},"SBSG":{"icaoId":"SBSG","flightCategory":"VFR","rawOb":"METAR SBSG 301600Z 14008G19KT 100V200 9999 BKN033 29/21 Q1014","temp":29,"dewp":21,"wdir":140,"wspd":8,"visib":"6+","altim":1014,"clouds":[{"cover":"BKN","base":3300}],"obsTime":1782835200},"SBEG":{"icaoId":"SBEG","flightCategory":"VFR","rawOb":"METAR SBEG 301600Z 06008KT 9999 SCT035 BKN100 27/23 Q1013","temp":27,"dewp":23,"wdir":60,"wspd":8,"visib":"6+","altim":1013,"clouds":[{"cover":"SCT","base":3500},{"cover":"BKN","base":10000}],"obsTime":1782835200},"SBPV":{"icaoId":"SBPV","flightCategory":"VFR","rawOb":"METAR SBPV 301600Z 30003KT 9999 SCT040 31/23 Q1012","temp":31,"dewp":23,"wdir":300,"wspd":3,"visib":"6+","altim":1012,"clouds":[{"cover":"SCT","base":4000}],"obsTime":1782835200},"SBCF":{"icaoId":"SBCF","flightCategory":"VFR","rawOb":"METAR SBCF 301600Z 04005KT 9999 SCT035 25/15 Q1023","temp":25,"dewp":15,"wdir":40,"wspd":5,"visib":"6+","altim":1023,"clouds":[{"cover":"SCT","base":3500}],"obsTime":1782835200},"SBFZ":{"icaoId":"SBFZ","flightCategory":"VFR","rawOb":"METAR SBFZ 301600Z 11017KT 9999 SCT030 31/22 Q1012","temp":31,"dewp":22,"wdir":110,"wspd":17,"visib":"6+","altim":1012,"clouds":[{"cover":"SCT","base":3000}],"obsTime":1782835200},"SBSL":{"icaoId":"SBSL","flightCategory":"VFR","rawOb":"METAR SBSL 301600Z 12007KT 9999 FEW030 31/21 Q1011","temp":31,"dewp":21,"wdir":120,"wspd":7,"visib":"6+","altim":1011,"clouds":[{"cover":"FEW","base":3000}],"obsTime":1782835200},"SBCB":{"icaoId":"SBCB","flightCategory":"VFR","rawOb":"METAR SBCB 301600Z 16010KT 9999 FEW015 SCT070 25/20 Q1019","temp":25,"dewp":20,"wdir":160,"wspd":10,"visib":"6+","altim":1019,"clouds":[{"cover":"FEW","base":1500},{"cover":"SCT","base":7000}],"obsTime":1782835200},"SBPJ":{"icaoId":"SBPJ","flightCategory":"VFR","rawOb":"METAR SBPJ 301600Z 09008KT 050V160 CAVOK 33/19 Q1015","temp":33,"dewp":19,"wdir":90,"wspd":8,"visib":"6+","altim":1015,"clouds":[],"obsTime":1782835200},"SBFL":{"icaoId":"SBFL","flightCategory":"MVFR","rawOb":"METAR SBFL 301600Z VRB02KT 9999 4000S BKN010 OVC022 17/16 Q1018","temp":17,"dewp":16,"wdir":"VRB","wspd":2,"visib":"6+","altim":1018,"clouds":[{"cover":"BKN","base":1000},{"cover":"OVC","base":2200}],"obsTime":1782835200},"SBSN":{"icaoId":"SBSN","flightCategory":"VFR","rawOb":"SPECI SBSN 301535Z 11010KT 9999 SCT014 SCT018 OVC100 27/24 Q1013","temp":27,"dewp":24,"wdir":110,"wspd":10,"visib":"6+","altim":1013,"clouds":[{"cover":"SCT","base":1400},{"cover":"SCT","base":1800},{"cover":"OVC","base":10000}],"obsTime":1782833700},"SBCP":{"icaoId":"SBCP","flightCategory":"VFR","rawOb":"METAR SBCP 301600Z 05006KT 9999 FEW020 30/17 Q1018","temp":30,"dewp":17,"wdir":50,"wspd":6,"visib":"6+","altim":1018,"clouds":[{"cover":"FEW","base":2000}],"obsTime":1782835200},"SBRF":{"icaoId":"SBRF","flightCategory":"VFR","rawOb":"METAR SBRF 301600Z 15013KT 9999 FEW025 29/22 Q1015","temp":29,"dewp":22,"wdir":150,"wspd":13,"visib":"6+","altim":1015,"clouds":[{"cover":"FEW","base":2500}],"obsTime":1782835200},"SBMA":{"icaoId":"SBMA","flightCategory":"MVFR","rawOb":"METAR SBMA 301600Z 08003KT 9999 BKN030 33/20 Q1012","temp":33,"dewp":20,"wdir":80,"wspd":3,"visib":"6+","altim":1012,"clouds":[{"cover":"BKN","base":3000}],"obsTime":1782835200},"SBRB":{"icaoId":"SBRB","flightCategory":"VFR","rawOb":"METAR SBRB 301600Z 18003KT 9999 SCT030 30/23 Q1014","temp":30,"dewp":23,"wdir":180,"wspd":3,"visib":"6+","altim":1014,"clouds":[{"cover":"SCT","base":3000}],"obsTime":1782835200},"SBMQ":{"icaoId":"SBMQ","flightCategory":"VFR","rawOb":"METAR SBMQ 301600Z 08006KT 9999 SCT025 31/25 Q1012","temp":31,"dewp":25,"wdir":80,"wspd":6,"visib":"6+","altim":1012,"clouds":[{"cover":"SCT","base":2500}],"obsTime":1782835200},"SBCZ":{"icaoId":"SBCZ","flightCategory":"MVFR","rawOb":"METAR SBCZ 301600Z 21003KT 9999 BKN026 BKN100 29/24 Q1014","temp":29,"dewp":24,"wdir":210,"wspd":3,"visib":"6+","altim":1014,"clouds":[{"cover":"BKN","base":2600},{"cover":"BKN","base":10000}],"obsTime":1782835200},"SBNT":{"icaoId":"SBNT","flightCategory":"VFR","rawOb":"METAR SBNT 301600Z 13018KT 9999 BKN032 29/21 Q1014","temp":29,"dewp":21,"wdir":130,"wspd":18,"visib":"6+","altim":1014,"clouds":[{"cover":"BKN","base":3200}],"obsTime":1782835200},"SBGR":{"icaoId":"SBGR","flightCategory":"VFR","rawOb":"METAR SBGR 301600Z 36009KT CAVOK 26/15 Q1021","temp":26,"dewp":15,"wdir":360,"wspd":9,"visib":"6+","altim":1021,"clouds":[],"obsTime":1782835200},"SBKP":{"icaoId":"SBKP","flightCategory":"VFR","rawOb":"METAR SBKP 301600Z 02008KT CAVOK 26/15 Q1021","temp":26,"dewp":15,"wdir":20,"wspd":8,"visib":"6+","altim":1021,"clouds":[],"obsTime":1782835200},"SBSV":{"icaoId":"SBSV","flightCategory":"MVFR","rawOb":"METAR SBSV 301600Z 08007KT 8000 VCSH SCT018 FEW020TCU BKN040 BKN050 26/21 Q1018","temp":26,"dewp":21,"wdir":80,"wspd":7,"visib":4.97,"altim":1018,"clouds":[{"cover":"SCT","base":1800},{"cover":"FEW","base":2000},{"cover":"BKN","base":4000},{"cover":"BKN","base":5000}],"obsTime":1782835200},"SBGO":{"icaoId":"SBGO","flightCategory":"VFR","rawOb":"METAR SBGO 301600Z 02005KT 340V070 CAVOK 29/13 Q1020","temp":29,"dewp":13,"wdir":20,"wspd":5,"visib":"6+","altim":1020,"clouds":[],"obsTime":1782835200},"SBCG":{"icaoId":"SBCG","flightCategory":"VFR","rawOb":"METAR SBCG 301600Z 01011KT 9999 FEW049 30/18 Q1016","temp":30,"dewp":18,"wdir":10,"wspd":11,"visib":"6+","altim":1016,"clouds":[{"cover":"FEW","base":4900}],"obsTime":1782835200},"SBVT":{"icaoId":"SBVT","flightCategory":"MVFR","rawOb":"METAR SBVT 301600Z 04006KT 350V070 9999 VCSH BKN020 BKN030 25/21 Q1020","temp":25,"dewp":21,"wdir":40,"wspd":6,"visib":"6+","altim":1020,"clouds":[{"cover":"BKN","base":2000},{"cover":"BKN","base":3000}],"obsTime":1782835200},"SBTE":{"icaoId":"SBTE","flightCategory":"VFR","rawOb":"METAR SBTE 301600Z 15009KT 9999 SCT030 32/19 Q1012","temp":32,"dewp":19,"wdir":150,"wspd":9,"visib":"6+","altim":1012,"clouds":[{"cover":"SCT","base":3000}],"obsTime":1782835200},"SBLO":{"icaoId":"SBLO","flightCategory":"VFR","rawOb":"METAR SBLO 301600Z 05006KT 9999 FEW020 26/19 Q1018","temp":26,"dewp":19,"wdir":50,"wspd":6,"visib":"6+","altim":1018,"clouds":[{"cover":"FEW","base":2000}],"obsTime":1782835200},"SBGL":{"icaoId":"SBGL","flightCategory":"VFR","rawOb":"METAR SBGL 301600Z 36006KT 9000 NSC 27/19 Q1017","temp":27,"dewp":19,"wdir":360,"wspd":6,"visib":5.59,"altim":1017,"clouds":[],"obsTime":1782835200},"SBCR":{"icaoId":"SBCR","flightCategory":"VFR","rawOb":"METAR SBCR 301600Z 32004KT 280V350 9999 FEW020 24/20 Q1015","temp":24,"dewp":20,"wdir":320,"wspd":4,"visib":"6+","altim":1015,"clouds":[{"cover":"FEW","base":2000}],"obsTime":1782835200},"SBCA":{"icaoId":"SBCA","flightCategory":"VFR","rawOb":"METAR SBCA 301600Z 36005KT 9999 VCSH FEW012 FEW040TCU SCT070 20/18 Q1018","temp":20,"dewp":18,"wdir":360,"wspd":5,"visib":"6+","altim":1018,"clouds":[{"cover":"FEW","base":1200},{"cover":"FEW","base":4000},{"cover":"SCT","base":7000}],"obsTime":1782835200},"SBAR":{"icaoId":"SBAR","flightCategory":"VFR","rawOb":"METAR SBAR 301600Z 06009KT 9999 FEW012 OVC045 25/21 Q1017","temp":25,"dewp":21,"wdir":60,"wspd":9,"visib":"6+","altim":1017,"clouds":[{"cover":"FEW","base":1200},{"cover":"OVC","base":4500}],"obsTime":1782835200},"SBCC":{"icaoId":"SBCC","flightCategory":"VFR","rawOb":"METAR SBCC 301600Z 08009KT 9999 SCT025 31/16 Q1016","temp":31,"dewp":16,"wdir":80,"wspd":9,"visib":"6+","altim":1016,"clouds":[{"cover":"SCT","base":2500}],"obsTime":1782835200},"SBGM":{"icaoId":"SBGM","flightCategory":"VFR","rawOb":"METAR SBGM 301600Z 12005KT CAVOK 32/18 Q1014","temp":32,"dewp":18,"wdir":120,"wspd":5,"visib":"6+","altim":1014,"clouds":[],"obsTime":1782835200},"SBVH":{"icaoId":"SBVH","flightCategory":"VFR","rawOb":"METAR SBVH 301600Z 08009KT CAVOK 30/18 Q1017","temp":30,"dewp":18,"wdir":80,"wspd":9,"visib":"6+","altim":1017,"clouds":[],"obsTime":1782835200},"SBKG":{"icaoId":"SBKG","flightCategory":"VFR","rawOb":"METAR SBKG 301600Z 13010KT 9999 SCT028 SCT090 26/19 Q1017","temp":26,"dewp":19,"wdir":130,"wspd":10,"visib":"6+","altim":1017,"clouds":[{"cover":"SCT","base":2800},{"cover":"SCT","base":9000}],"obsTime":1782835200},"SBCO":{"icaoId":"SBCO","flightCategory":"MVFR","rawOb":"METAR SBCO 301600Z 09006KT 9999 BKN014 OVC022 15/12 Q1019","temp":15,"dewp":12,"wdir":90,"wspd":6,"visib":"6+","altim":1019,"clouds":[{"cover":"BKN","base":1400},{"cover":"OVC","base":2200}],"obsTime":1782835200},"SBSM":{"icaoId":"SBSM","flightCategory":"IFR","rawOb":"METAR SBSM 301600Z 12007KT 090V170 9999 BKN009 BKN013 12/11 Q1018","temp":12,"dewp":11,"wdir":120,"wspd":7,"visib":"6+","altim":1018,"clouds":[{"cover":"BKN","base":900},{"cover":"BKN","base":1300}],"obsTime":1782835200},"SBAU":{"icaoId":"SBAU","flightCategory":"VFR","rawOb":"METAR SBAU 301600Z 03008KT CAVOK 31/14 Q1018","temp":31,"dewp":14,"wdir":30,"wspd":8,"visib":"6+","altim":1018,"clouds":[],"obsTime":1782835200},"SBAX":{"icaoId":"SBAX","flightCategory":"VFR","rawOb":"METAR SBAX 301600Z 03006KT CAVOK 24/12 Q1023","temp":24,"dewp":12,"wdir":30,"wspd":6,"visib":"6+","altim":1023,"clouds":[],"obsTime":1782835200},"SBBH":{"icaoId":"SBBH","flightCategory":"VFR","rawOb":"METAR SBBH 301600Z 03005KT 9999 SCT045 26/15 Q1023","temp":26,"dewp":15,"wdir":30,"wspd":5,"visib":"6+","altim":1023,"clouds":[{"cover":"SCT","base":4500}],"obsTime":1782835200},"SBBQ":{"icaoId":"SBBQ","flightCategory":"VFR","rawOb":"METAR SBBQ 301600Z 34006KT CAVOK 24/12 Q1025","temp":24,"dewp":12,"wdir":340,"wspd":6,"visib":"6+","altim":1025,"clouds":[],"obsTime":1782835200},"SBBU":{"icaoId":"SBBU","flightCategory":"VFR","rawOb":"METAR SBBU 301600Z 35008KT CAVOK 28/17 Q1020","temp":28,"dewp":17,"wdir":350,"wspd":8,"visib":"6+","altim":1020,"clouds":[],"obsTime":1782835200},"SBDN":{"icaoId":"SBDN","flightCategory":"VFR","rawOb":"METAR SBDN 301600Z 35010KT CAVOK 28/18 Q1018","temp":28,"dewp":18,"wdir":350,"wspd":10,"visib":"6+","altim":1018,"clouds":[],"obsTime":1782835200},"SBIP":{"icaoId":"SBIP","flightCategory":"VFR","rawOb":"METAR SBIP 301600Z AUTO 35007KT 320V030 9999 BKN038 27/17 Q1020","temp":27,"dewp":17,"wdir":350,"wspd":7,"visib":"6+","altim":1020,"clouds":[{"cover":"BKN","base":3800}],"obsTime":1782835200},"SBSC":{"icaoId":"SBSC","flightCategory":"VFR","rawOb":"METAR SBSC 301600Z 02008KT CAVOK 30/19 Q1017","temp":30,"dewp":19,"wdir":20,"wspd":8,"visib":"6+","altim":1017,"clouds":[],"obsTime":1782835200},"SBSR":{"icaoId":"SBSR","flightCategory":"VFR","rawOb":"METAR SBSR 301600Z 03006KT CAVOK 27/13 Q1019","temp":27,"dewp":13,"wdir":30,"wspd":6,"visib":"6+","altim":1019,"clouds":[],"obsTime":1782835200},"SBES":{"icaoId":"SBES","flightCategory":"VFR","rawOb":"METAR SBES 301600Z 11006KT 050V160 9999 FEW020 25/// Q1019","temp":null,"dewp":null,"wdir":110,"wspd":6,"visib":"6+","altim":1019,"clouds":[{"cover":"FEW","base":2000}],"obsTime":1782835200},"SBTU":{"icaoId":"SBTU","flightCategory":"MVFR","rawOb":"METAR SBTU 301600Z AUTO 26005KT 210V310 9999 // BKN026/// ///// Q1014","temp":null,"dewp":null,"wdir":260,"wspd":5,"visib":"6+","altim":1014,"clouds":[{"cover":"BKN","base":2600}],"obsTime":1782835200},"SBSJ":{"icaoId":"SBSJ","flightCategory":"MVFR","rawOb":"METAR SBSJ 301600Z 12002KT 7000 NSC 23/17 Q1021","temp":23,"dewp":17,"wdir":120,"wspd":2,"visib":4.35,"altim":1021,"clouds":[],"obsTime":1782835200},"SBTT":{"icaoId":"SBTT","flightCategory":"VFR","rawOb":"METAR SBTT 301600Z 16002KT CAVOK 28/23 Q1014","temp":28,"dewp":23,"wdir":160,"wspd":2,"visib":"6+","altim":1014,"clouds":[],"obsTime":1782835200},"SBCJ":{"icaoId":"SBCJ","flightCategory":"VFR","rawOb":"METAR SBCJ 301600Z 09005KT 9999 SCT030 28/19 Q1018","temp":28,"dewp":19,"wdir":90,"wspd":5,"visib":"6+","altim":1018,"clouds":[{"cover":"SCT","base":3000}],"obsTime":1782835200},"SBUY":{"icaoId":"SBUY","flightCategory":"MVFR","rawOb":"METAR SBUY 301600Z 30002KT 9999 BKN025 29/25 Q1012","temp":29,"dewp":25,"wdir":300,"wspd":2,"visib":"6+","altim":1012,"clouds":[{"cover":"BKN","base":2500}],"obsTime":1782835200},"SBOI":{"icaoId":"SBOI","flightCategory":"VFR","rawOb":"METAR SBOI 301600Z AUTO 11007KT 070V150 9999 FEW027 31/25 Q1012","temp":31,"dewp":25,"wdir":110,"wspd":7,"visib":"6+","altim":1012,"clouds":[{"cover":"FEW","base":2700}],"obsTime":1782835200},"SBPL":{"icaoId":"SBPL","flightCategory":"VFR","rawOb":"METAR SBPL 301600Z 12010KT 9999 FEW030 30/16 Q1017","temp":30,"dewp":16,"wdir":120,"wspd":10,"visib":"6+","altim":1017,"clouds":[{"cover":"FEW","base":3000}],"obsTime":1782835200},"SBPS":{"icaoId":"SBPS","flightCategory":"VFR","rawOb":"METAR SBPS 301600Z 09006KT 040V120 9999 SCT019 27/21 Q1019","temp":27,"dewp":21,"wdir":90,"wspd":6,"visib":"6+","altim":1019,"clouds":[{"cover":"SCT","base":1900}],"obsTime":1782835200},"SBTF":{"icaoId":"SBTF","flightCategory":"VFR","rawOb":"METAR SBTF 301600Z 30002KT 9999 SCT017 BKN100 29/25 Q1012","temp":29,"dewp":25,"wdir":300,"wspd":2,"visib":"6+","altim":1012,"clouds":[{"cover":"SCT","base":1700},{"cover":"BKN","base":10000}],"obsTime":1782835200},"SBPB":{"icaoId":"SBPB","flightCategory":"VFR","rawOb":"METAR SBPB 301600Z 10009KT CAVOK 32/23 Q1011","temp":32,"dewp":23,"wdir":100,"wspd":9,"visib":"6+","altim":1011,"clouds":[],"obsTime":1782835200},"SBPP":{"icaoId":"SBPP","flightCategory":"MVFR","rawOb":"SPECI SBPP 301525Z 03013KT 8000 SCT015 BKN070 20/19 Q1017","temp":20,"dewp":19,"wdir":30,"wspd":13,"visib":4.97,"altim":1017,"clouds":[{"cover":"SCT","base":1500},{"cover":"BKN","base":7000}],"obsTime":1782833100},"SBTD":{"icaoId":"SBTD","flightCategory":"VFR","rawOb":"METAR SBTD 301600Z /////KT 9999 FEW010 BKN080 22/19 Q1017","temp":22,"dewp":19,"wdir":null,"wspd":null,"visib":"6+","altim":1017,"clouds":[{"cover":"FEW","base":1000},{"cover":"BKN","base":8000}],"obsTime":1782835200},"SBJR":{"icaoId":"SBJR","flightCategory":"VFR","rawOb":"METAR SBJR 301600Z 14007KT 9000 NSC 30/20 Q1017","temp":30,"dewp":20,"wdir":140,"wspd":7,"visib":5.59,"altim":1017,"clouds":[],"obsTime":1782835200},"SBLS":{"icaoId":"SBLS","flightCategory":"VFR","rawOb":"METAR SBLS 301600Z 05006KT 320V100 9999 SCT035 25/15 Q1022","temp":25,"dewp":15,"wdir":50,"wspd":6,"visib":"6+","altim":1022,"clouds":[{"cover":"SCT","base":3500}],"obsTime":1782835200},"SBJV":{"icaoId":"SBJV","flightCategory":"MVFR","rawOb":"METAR SBJV 301600Z 10003KT 8000 OVC010 17/15 Q1018","temp":17,"dewp":15,"wdir":100,"wspd":3,"visib":4.97,"altim":1018,"clouds":[{"cover":"OVC","base":1000}],"obsTime":1782835200},"SBMT":{"icaoId":"SBMT","flightCategory":"VFR","rawOb":"METAR SBMT 301600Z 23002KT CAVOK 25/12 Q1020","temp":25,"dewp":12,"wdir":230,"wspd":2,"visib":"6+","altim":1020,"clouds":[],"obsTime":1782835200},"SBST":{"icaoId":"SBST","flightCategory":"VFR","rawOb":"METAR SBST 301600Z 17003KT CAVOK 25/18 Q1017","temp":25,"dewp":18,"wdir":170,"wspd":3,"visib":"6+","altim":1017,"clouds":[],"obsTime":1782835200},"SBTA":{"icaoId":"SBTA","flightCategory":"VFR","rawOb":"METAR SBTA 301600Z 03004KT 350V100 CAVOK 26/17 Q1020","temp":26,"dewp":17,"wdir":30,"wspd":4,"visib":"6+","altim":1020,"clouds":[],"obsTime":1782835200},"SBNM":{"icaoId":"SBNM","flightCategory":"IFR","rawOb":"METAR SBNM 301600Z 13002KT 4000 BR VCFG BKN006 OVC015 14/12 Q1017","temp":14,"dewp":12,"wdir":130,"wspd":2,"visib":2.49,"altim":1017,"clouds":[{"cover":"BKN","base":600},{"cover":"OVC","base":1500}],"obsTime":1782835200},"SBJP":{"icaoId":"SBJP","flightCategory":"VFR","rawOb":"METAR SBJP 301600Z 16012KT 9999 VCSH SCT024 BKN070 27/23 Q1015","temp":27,"dewp":23,"wdir":160,"wspd":12,"visib":"6+","altim":1015,"clouds":[{"cover":"SCT","base":2400},{"cover":"BKN","base":7000}],"obsTime":1782835200},"SBAN":{"icaoId":"SBAN","flightCategory":"VFR","rawOb":"METAR SBAN 301600Z VRB04KT 9999 FEW040 26/13 Q1023","temp":26,"dewp":13,"wdir":"VRB","wspd":4,"visib":"6+","altim":1023,"clouds":[{"cover":"FEW","base":4000}],"obsTime":1782835200},"SBLE":{"icaoId":"SBLE","flightCategory":"VFR","rawOb":"METAR SBLE 301600Z AUTO 10004KT 040V180 9999 SCT036 ///// Q////","temp":null,"dewp":null,"wdir":100,"wspd":4,"visib":"6+","altim":null,"clouds":[{"cover":"SCT","base":3600}],"obsTime":1782835200},"SBAF":{"icaoId":"SBAF","flightCategory":"VFR","rawOb":"METAR SBAF 301600Z 06004KT CAVOK 28/18 Q1018","temp":28,"dewp":18,"wdir":60,"wspd":4,"visib":"6+","altim":1018,"clouds":[],"obsTime":1782835200},"SBIH":{"icaoId":"SBIH","flightCategory":"VFR","rawOb":"METAR SBIH 301600Z 08008KT 9999 SCT020 FEW025TCU 29/24 Q1012","temp":29,"dewp":24,"wdir":80,"wspd":8,"visib":"6+","altim":1012,"clouds":[{"cover":"SCT","base":2000},{"cover":"FEW","base":2500}],"obsTime":1782835200},"SBGW":{"icaoId":"SBGW","flightCategory":"VFR","rawOb":"METAR SBGW 301600Z 08004KT CAVOK 27/14 Q1020","temp":27,"dewp":14,"wdir":80,"wspd":4,"visib":"6+","altim":1020,"clouds":[],"obsTime":1782835200},"SBPF":{"icaoId":"SBPF","flightCategory":"IFR","rawOb":"METAR SBPF 301600Z 11003KT 9999 BKN006 BKN019 15/13 Q1017","temp":15,"dewp":13,"wdir":110,"wspd":3,"visib":"6+","altim":1017,"clouds":[{"cover":"BKN","base":600},{"cover":"BKN","base":1900}],"obsTime":1782835200}}}