{"updated":1775224899,"count":85,"data":{"SBLO":{"icaoId":"SBLO","flightCategory":"VFR","rawOb":"METAR SBLO 031300Z VRB03KT CAVOK 26/21 Q1018","temp":26,"dewp":21,"wdir":"VRB","wspd":3,"visib":"6+","altim":1018,"clouds":[],"obsTime":1775221200},"SBMA":{"icaoId":"SBMA","flightCategory":"MVFR","rawOb":"METAR SBMA 031300Z 00000KT 9999 BKN020 27/23 Q1014","temp":27,"dewp":23,"wdir":0,"wspd":0,"visib":"6+","altim":1014,"clouds":[{"cover":"BKN","base":2000}],"obsTime":1775221200},"SBFI":{"icaoId":"SBFI","flightCategory":"VFR","rawOb":"METAR SBFI 031300Z 01005KT CAVOK 28/23 Q1015","temp":28,"dewp":23,"wdir":10,"wspd":5,"visib":"6+","altim":1015,"clouds":[],"obsTime":1775221200},"SBCG":{"icaoId":"SBCG","flightCategory":"VFR","rawOb":"METAR SBCG 031300Z 31008KT CAVOK 28/21 Q1017","temp":28,"dewp":21,"wdir":310,"wspd":8,"visib":"6+","altim":1017,"clouds":[],"obsTime":1775221200},"SBFL":{"icaoId":"SBFL","flightCategory":"VFR","rawOb":"METAR SBFL 031300Z 22005KT 170V260 CAVOK 28/21 Q1013","temp":28,"dewp":21,"wdir":220,"wspd":5,"visib":"6+","altim":1013,"clouds":[],"obsTime":1775221200},"SBBV":{"icaoId":"SBBV","flightCategory":"VFR","rawOb":"METAR SBBV 031300Z 10012KT 9999 SCT025 SCT090 29/23 Q1013","temp":29,"dewp":23,"wdir":100,"wspd":12,"visib":"6+","altim":1013,"clouds":[{"cover":"SCT","base":2500},{"cover":"SCT","base":9000}],"obsTime":1775221200},"SBMO":{"icaoId":"SBMO","flightCategory":"MVFR","rawOb":"METAR SBMO 031300Z 13003KT 9999 BKN020 27/25 Q1015","temp":27,"dewp":25,"wdir":130,"wspd":3,"visib":"6+","altim":1015,"clouds":[{"cover":"BKN","base":2000}],"obsTime":1775221200},"SBFZ":{"icaoId":"SBFZ","flightCategory":"VFR","rawOb":"METAR SBFZ 031300Z 14009KT 9999 SCT020 30/25 Q1013","temp":30,"dewp":25,"wdir":140,"wspd":9,"visib":"6+","altim":1013,"clouds":[{"cover":"SCT","base":2000}],"obsTime":1775221200},"SBMQ":{"icaoId":"SBMQ","flightCategory":"MVFR","rawOb":"METAR SBMQ 031300Z 12004KT 9999 BKN016 28/24 Q1013","temp":28,"dewp":24,"wdir":120,"wspd":4,"visib":"6+","altim":1013,"clouds":[{"cover":"BKN","base":1600}],"obsTime":1775221200},"SBGL":{"icaoId":"SBGL","flightCategory":"VFR","rawOb":"METAR SBGL 031300Z 01004KT 9999 SCT045 28/23 Q1014","temp":28,"dewp":23,"wdir":10,"wspd":4,"visib":"6+","altim":1014,"clouds":[{"cover":"SCT","base":4500}],"obsTime":1775221200},"SBCP":{"icaoId":"SBCP","flightCategory":"VFR","rawOb":"METAR SBCP 031300Z 02007KT CAVOK 30/23 Q1016","temp":30,"dewp":23,"wdir":20,"wspd":7,"visib":"6+","altim":1016,"clouds":[],"obsTime":1775221200},"SBVT":{"icaoId":"SBVT","flightCategory":"VFR","rawOb":"METAR SBVT 031300Z 01009KT 9999 FEW030 29/23 Q1017","temp":29,"dewp":23,"wdir":10,"wspd":9,"visib":"6+","altim":1017,"clouds":[{"cover":"FEW","base":3000}],"obsTime":1775221200},"SBPA":{"icaoId":"SBPA","flightCategory":"VFR","rawOb":"SPECI SBPA 031219Z 11003KT 070V160 9999 SCT012 25/22 Q1013","temp":25,"dewp":22,"wdir":110,"wspd":3,"visib":"6+","altim":1013,"clouds":[{"cover":"SCT","base":1200}],"obsTime":1775218740},"SBGO":{"icaoId":"SBGO","flightCategory":"VFR","rawOb":"METAR SBGO 031300Z 12006KT 090V150 9999 FEW020 25/21 Q1020","temp":25,"dewp":21,"wdir":120,"wspd":6,"visib":"6+","altim":1020,"clouds":[{"cover":"FEW","base":2000}],"obsTime":1775221200},"SBPJ":{"icaoId":"SBPJ","flightCategory":"VFR","rawOb":"METAR SBPJ 031300Z 12012KT 9999 FEW030 SCT100 30/23 Q1015","temp":30,"dewp":23,"wdir":120,"wspd":12,"visib":"6+","altim":1015,"clouds":[{"cover":"FEW","base":3000},{"cover":"SCT","base":10000}],"obsTime":1775221200},"SBCR":{"icaoId":"SBCR","flightCategory":"VFR","rawOb":"METAR SBCR 031300Z 05004KT 350V100 CAVOK 29/23 Q1014","temp":29,"dewp":23,"wdir":50,"wspd":4,"visib":"6+","altim":1014,"clouds":[],"obsTime":1775221200},"SBPV":{"icaoId":"SBPV","flightCategory":"VFR","rawOb":"METAR SBPV 031300Z 01004KT 9999 FEW020 28/24 Q1013","temp":28,"dewp":24,"wdir":10,"wspd":4,"visib":"6+","altim":1013,"clouds":[{"cover":"FEW","base":2000}],"obsTime":1775221200},"SBTE":{"icaoId":"SBTE","flightCategory":"MVFR","rawOb":"METAR SBTE 031300Z 17004KT 090V210 9999 BKN015 SCT100 27/24 Q1014","temp":27,"dewp":24,"wdir":170,"wspd":4,"visib":"6+","altim":1014,"clouds":[{"cover":"BKN","base":1500},{"cover":"SCT","base":10000}],"obsTime":1775221200},"SBGR":{"icaoId":"SBGR","flightCategory":"VFR","rawOb":"METAR SBGR 031300Z 31011KT CAVOK 26/19 Q1019","temp":26,"dewp":19,"wdir":310,"wspd":11,"visib":"6+","altim":1019,"clouds":[],"obsTime":1775221200},"SBSV":{"icaoId":"SBSV","flightCategory":"VFR","rawOb":"METAR SBSV 031300Z 11005KT 060V160 9999 SCT021 FEW024TCU 30/22 Q1016","temp":30,"dewp":22,"wdir":110,"wspd":5,"visib":"6+","altim":1016,"clouds":[{"cover":"SCT","base":2100},{"cover":"FEW","base":2400}],"obsTime":1775221200},"SBBR":{"icaoId":"SBBR","flightCategory":"VFR","rawOb":"METAR SBBR 031300Z 10006KT 9999 SCT013 BKN090 23/19 Q1022","temp":23,"dewp":19,"wdir":100,"wspd":6,"visib":"6+","altim":1022,"clouds":[{"cover":"SCT","base":1300},{"cover":"BKN","base":9000}],"obsTime":1775221200},"SBRB":{"icaoId":"SBRB","flightCategory":"LIFR","rawOb":"SPECI SBRB 031232Z 19003KT 9999 BKN004 SCT012 BKN100 24/24 Q1014","temp":24,"dewp":24,"wdir":190,"wspd":3,"visib":"6+","altim":1014,"clouds":[{"cover":"BKN","base":400},{"cover":"SCT","base":1200},{"cover":"BKN","base":10000}],"obsTime":1775219520},"SBBE":{"icaoId":"SBBE","flightCategory":"VFR","rawOb":"METAR SBBE 031300Z 08006KT 9999 FEW017 29/23 Q1013","temp":29,"dewp":23,"wdir":80,"wspd":6,"visib":"6+","altim":1013,"clouds":[{"cover":"FEW","base":1700}],"obsTime":1775221200},"SBRF":{"icaoId":"SBRF","flightCategory":"VFR","rawOb":"METAR SBRF 031300Z 15007KT 120V180 9999 SCT020 SCT060 29/25 Q1014","temp":29,"dewp":25,"wdir":150,"wspd":7,"visib":"6+","altim":1014,"clouds":[{"cover":"SCT","base":2000},{"cover":"SCT","base":6000}],"obsTime":1775221200},"SBCB":{"icaoId":"SBCB","flightCategory":"VFR","rawOb":"METAR SBCB 031300Z 05012KT 9999 SCT020 SCT050 29/23 Q1015","temp":29,"dewp":23,"wdir":50,"wspd":12,"visib":"6+","altim":1015,"clouds":[{"cover":"SCT","base":2000},{"cover":"SCT","base":5000}],"obsTime":1775221200},"SBSG":{"icaoId":"SBSG","flightCategory":"MVFR","rawOb":"METAR SBSG 031300Z 13007KT 090V170 9999 BKN025 30/24 Q1014","temp":30,"dewp":24,"wdir":130,"wspd":7,"visib":"6+","altim":1014,"clouds":[{"cover":"BKN","base":2500}],"obsTime":1775221200},"SBCT":{"icaoId":"SBCT","flightCategory":"VFR","rawOb":"METAR SBCT 031300Z 30008KT 260V330 9999 FEW015 23/19 Q1020","temp":23,"dewp":19,"wdir":300,"wspd":8,"visib":"6+","altim":1020,"clouds":[{"cover":"FEW","base":1500}],"obsTime":1775221200},"SBSL":{"icaoId":"SBSL","flightCategory":"VFR","rawOb":"METAR SBSL 031300Z 13004KT 9999 SCT020 BKN100 28/25 Q1014","temp":28,"dewp":25,"wdir":130,"wspd":4,"visib":"6+","altim":1014,"clouds":[{"cover":"SCT","base":2000},{"cover":"BKN","base":10000}],"obsTime":1775221200},"SBSN":{"icaoId":"SBSN","flightCategory":"MVFR","rawOb":"METAR SBSN 031300Z 10009KT 9999 BKN015 28/25 Q1012","temp":28,"dewp":25,"wdir":100,"wspd":9,"visib":"6+","altim":1012,"clouds":[{"cover":"BKN","base":1500}],"obsTime":1775221200},"SBCF":{"icaoId":"SBCF","flightCategory":"VFR","rawOb":"METAR SBCF 031300Z 09005KT 040V130 9999 SCT020 BKN100 24/19 Q1022","temp":24,"dewp":19,"wdir":90,"wspd":5,"visib":"6+","altim":1022,"clouds":[{"cover":"SCT","base":2000},{"cover":"BKN","base":10000}],"obsTime":1775221200},"SBSP":{"icaoId":"SBSP","flightCategory":"VFR","rawOb":"METAR SBSP 031300Z 32012KT CAVOK 25/18 Q1020","temp":25,"dewp":18,"wdir":320,"wspd":12,"visib":"6+","altim":1020,"clouds":[],"obsTime":1775221200},"SBEG":{"icaoId":"SBEG","flightCategory":"VFR","rawOb":"METAR SBEG 031300Z 09011KT 9999 FEW015 30/24 Q1012","temp":30,"dewp":24,"wdir":90,"wspd":11,"visib":"6+","altim":1012,"clouds":[{"cover":"FEW","base":1500}],"obsTime":1775221200},"SBNT":{"icaoId":"SBNT","flightCategory":"VFR","rawOb":"METAR SBNT 031300Z 12011KT 090V180 9999 SCT026 BKN033 30/24 Q1014","temp":30,"dewp":24,"wdir":120,"wspd":11,"visib":"6+","altim":1014,"clouds":[{"cover":"SCT","base":2600},{"cover":"BKN","base":3300}],"obsTime":1775221200},"SBCZ":{"icaoId":"SBCZ","flightCategory":"IFR","rawOb":"METAR SBCZ 031300Z 14006KT 9999 BKN005 BKN080 24/23 Q1013","temp":24,"dewp":23,"wdir":140,"wspd":6,"visib":"6+","altim":1013,"clouds":[{"cover":"BKN","base":500},{"cover":"BKN","base":8000}],"obsTime":1775221200},"SBHT":{"icaoId":"SBHT","flightCategory":"MVFR","rawOb":"METAR SBHT 031300Z 18002KT 9999 BKN020 27/22 Q1014","temp":27,"dewp":22,"wdir":180,"wspd":2,"visib":"6+","altim":1014,"clouds":[{"cover":"BKN","base":2000}],"obsTime":1775221200},"SBIL":{"icaoId":"SBIL","flightCategory":"VFR","rawOb":"METAR SBIL 031300Z 20006KT 160V240 9999 VCSH SCT020 FEW025TCU BKN050 28/25 Q1017","temp":28,"dewp":25,"wdir":200,"wspd":6,"visib":"6+","altim":1017,"clouds":[{"cover":"SCT","base":2000},{"cover":"FEW","base":2500},{"cover":"BKN","base":5000}],"obsTime":1775221200},"SBJU":{"icaoId":"SBJU","flightCategory":"MVFR","rawOb":"METAR SBJU 031300Z 00000KT 9999 BKN020 27/22 Q1017","temp":27,"dewp":22,"wdir":0,"wspd":0,"visib":"6+","altim":1017,"clouds":[{"cover":"BKN","base":2000}],"obsTime":1775221200},"SBKP":{"icaoId":"SBKP","flightCategory":"VFR","rawOb":"METAR SBKP 031300Z 35011KT 300V010 9999 FEW025 26/20 Q1019","temp":26,"dewp":20,"wdir":350,"wspd":11,"visib":"6+","altim":1019,"clouds":[{"cover":"FEW","base":2500}],"obsTime":1775221200},"SBME":{"icaoId":"SBME","flightCategory":"VFR","rawOb":"METAR SBME 031300Z 05010KT CAVOK 33/23 Q1015","temp":33,"dewp":23,"wdir":50,"wspd":10,"visib":"6+","altim":1015,"clouds":[],"obsTime":1775221200},"SBMG":{"icaoId":"SBMG","flightCategory":"VFR","rawOb":"METAR SBMG 031300Z 02005KT 350V060 9999 FEW045 27/21 Q1017","temp":27,"dewp":21,"wdir":20,"wspd":5,"visib":"6+","altim":1017,"clouds":[{"cover":"FEW","base":4500}],"obsTime":1775221200},"SBMK":{"icaoId":"SBMK","flightCategory":"VFR","rawOb":"METAR SBMK 031300Z 07004KT 9999 FEW025 25/20 Q1020","temp":25,"dewp":20,"wdir":70,"wspd":4,"visib":"6+","altim":1020,"clouds":[{"cover":"FEW","base":2500}],"obsTime":1775221200},"SBAT":{"icaoId":"SBAT","flightCategory":"VFR","rawOb":"METAR SBAT 031300Z 12006KT 9999 SCT020 30/24 Q1014","temp":30,"dewp":24,"wdir":120,"wspd":6,"visib":"6+","altim":1014,"clouds":[{"cover":"SCT","base":2000}],"obsTime":1775221200},"SBUR":{"icaoId":"SBUR","flightCategory":"VFR","rawOb":"METAR SBUR 031300Z 36007KT CAVOK 24/20 Q1020","temp":24,"dewp":20,"wdir":360,"wspd":7,"visib":"6+","altim":1020,"clouds":[],"obsTime":1775221200},"SBUL":{"icaoId":"SBUL","flightCategory":"MVFR","rawOb":"METAR SBUL 031300Z 08006KT 9999 FEW009 SCT013 BKN018 23/19 Q1021","temp":23,"dewp":19,"wdir":80,"wspd":6,"visib":"6+","altim":1021,"clouds":[{"cover":"FEW","base":900},{"cover":"SCT","base":1300},{"cover":"BKN","base":1800}],"obsTime":1775221200},"SBPS":{"icaoId":"SBPS","flightCategory":"VFR","rawOb":"METAR SBPS 031300Z 13005KT 9999 SCT020 BKN100 29/25 Q1017","temp":29,"dewp":25,"wdir":130,"wspd":5,"visib":"6+","altim":1017,"clouds":[{"cover":"SCT","base":2000},{"cover":"BKN","base":10000}],"obsTime":1775221200},"SBCJ":{"icaoId":"SBCJ","flightCategory":"VFR","rawOb":"METAR SBCJ 031300Z 10007KT 9999 FEW007 24/20 Q1018","temp":24,"dewp":20,"wdir":100,"wspd":7,"visib":"6+","altim":1018,"clouds":[{"cover":"FEW","base":700}],"obsTime":1775221200},"SBPB":{"icaoId":"SBPB","flightCategory":"VFR","rawOb":"METAR SBPB 031300Z 11002KT 9999 SCT020 30/24 Q1013","temp":30,"dewp":24,"wdir":110,"wspd":2,"visib":"6+","altim":1013,"clouds":[{"cover":"SCT","base":2000}],"obsTime":1775221200},"SBSJ":{"icaoId":"SBSJ","flightCategory":"VFR","rawOb":"METAR SBSJ 031300Z 34002KT CAVOK 25/20 Q1019","temp":25,"dewp":20,"wdir":340,"wspd":2,"visib":"6+","altim":1019,"clouds":[],"obsTime":1775221200},"SBTT":{"icaoId":"SBTT","flightCategory":"IFR","rawOb":"METAR SBTT 031300Z 04003KT 3000 -RA BKN011 BKN070 23/21 Q1013","temp":23,"dewp":21,"wdir":40,"wspd":3,"visib":1.86,"altim":1013,"clouds":[{"cover":"BKN","base":1100},{"cover":"BKN","base":7000}],"obsTime":1775221200},"SBPL":{"icaoId":"SBPL","flightCategory":"MVFR","rawOb":"METAR SBPL 031300Z 11009KT 9999 BKN025 28/22 Q1017","temp":28,"dewp":22,"wdir":110,"wspd":9,"visib":"6+","altim":1017,"clouds":[{"cover":"BKN","base":2500}],"obsTime":1775221200},"SBAR":{"icaoId":"SBAR","flightCategory":"VFR","rawOb":"METAR SBAR 031300Z 11005KT 9999 FEW023 30/24 Q1015","temp":30,"dewp":24,"wdir":110,"wspd":5,"visib":"6+","altim":1015,"clouds":[{"cover":"FEW","base":2300}],"obsTime":1775221200},"SBOI":{"icaoId":"SBOI","flightCategory":"MVFR","rawOb":"SPECI SBOI 031207Z AUTO VRB02KT 9999 BKN011 29/25 Q1012","temp":29,"dewp":25,"wdir":"VRB","wspd":2,"visib":"6+","altim":1012,"clouds":[{"cover":"BKN","base":1100}],"obsTime":1775218020},"SBCO":{"icaoId":"SBCO","flightCategory":"VFR","rawOb":"METAR SBCO 031300Z 11003KT 070V140 9999 FEW013 SCT022 25/21 Q1014","temp":25,"dewp":21,"wdir":110,"wspd":3,"visib":"6+","altim":1014,"clouds":[{"cover":"FEW","base":1300},{"cover":"SCT","base":2200}],"obsTime":1775221200},"SBDN":{"icaoId":"SBDN","flightCategory":"VFR","rawOb":"METAR SBDN 031300Z 33005KT 9999 FEW025 27/21 Q1017","temp":27,"dewp":21,"wdir":330,"wspd":5,"visib":"6+","altim":1017,"clouds":[{"cover":"FEW","base":2500}],"obsTime":1775221200},"SBES":{"icaoId":"SBES","flightCategory":"VFR","rawOb":"METAR SBES 031300Z 05010KT 010V080 CAVOK 27/// Q1015","temp":null,"dewp":null,"wdir":50,"wspd":10,"visib":"6+","altim":1015,"clouds":[],"obsTime":1775221200},"SBGM":{"icaoId":"SBGM","flightCategory":"VFR","rawOb":"METAR SBGM 031300Z 02003KT 320V070 9999 BKN043 BKN066 28/21 Q1013","temp":28,"dewp":21,"wdir":20,"wspd":3,"visib":"6+","altim":1013,"clouds":[{"cover":"BKN","base":4300},{"cover":"BKN","base":6600}],"obsTime":1775221200},"SBIP":{"icaoId":"SBIP","flightCategory":"VFR","rawOb":"METAR SBIP 031300Z AUTO 36006KT 320V050 9999 SCT019 28/22 Q1019","temp":28,"dewp":22,"wdir":360,"wspd":6,"visib":"6+","altim":1019,"clouds":[{"cover":"SCT","base":1900}],"obsTime":1775221200},"SBKG":{"icaoId":"SBKG","flightCategory":"MVFR","rawOb":"METAR SBKG 031300Z 12009KT 9999 BKN025 27/20 Q1017","temp":27,"dewp":20,"wdir":120,"wspd":9,"visib":"6+","altim":1017,"clouds":[{"cover":"BKN","base":2500}],"obsTime":1775221200},"SBPP":{"icaoId":"SBPP","flightCategory":"VFR","rawOb":"METAR SBPP 031300Z 03005KT CAVOK 27/21 Q1018","temp":27,"dewp":21,"wdir":30,"wspd":5,"visib":"6+","altim":1018,"clouds":[],"obsTime":1775221200},"SBSC":{"icaoId":"SBSC","flightCategory":"VFR","rawOb":"METAR SBSC 031300Z 34010G20KT CAVOK 30/23 Q1014","temp":30,"dewp":23,"wdir":340,"wspd":10,"visib":"6+","altim":1014,"clouds":[],"obsTime":1775221200},"SBSM":{"icaoId":"SBSM","flightCategory":"VFR","rawOb":"METAR SBSM 031300Z 13004KT 070V180 9999 FEW008 24/22 Q1014","temp":24,"dewp":22,"wdir":130,"wspd":4,"visib":"6+","altim":1014,"clouds":[{"cover":"FEW","base":800}],"obsTime":1775221200},"SBSR":{"icaoId":"SBSR","flightCategory":"VFR","rawOb":"METAR SBSR 031300Z 02010KT CAVOK 27/20 Q1018","temp":27,"dewp":20,"wdir":20,"wspd":10,"visib":"6+","altim":1018,"clouds":[],"obsTime":1775221200},"SBTF":{"icaoId":"SBTF","flightCategory":"VFR","rawOb":"METAR SBTF 031300Z 11005KT 9999 FEW012 29/26 Q1012","temp":29,"dewp":26,"wdir":110,"wspd":5,"visib":"6+","altim":1012,"clouds":[{"cover":"FEW","base":1200}],"obsTime":1775221200},"SBVH":{"icaoId":"SBVH","flightCategory":"VFR","rawOb":"METAR SBVH 031300Z 08008KT CAVOK 24/22 Q1017","temp":24,"dewp":22,"wdir":80,"wspd":8,"visib":"6+","altim":1017,"clouds":[],"obsTime":1775221200},"SBAU":{"icaoId":"SBAU","flightCategory":"VFR","rawOb":"METAR SBAU 031300Z 01008KT CAVOK 29/20 Q1018","temp":29,"dewp":20,"wdir":10,"wspd":8,"visib":"6+","altim":1018,"clouds":[],"obsTime":1775221200},"SBAX":{"icaoId":"SBAX","flightCategory":"VFR","rawOb":"METAR SBAX 031300Z AUTO 35003KT 240V050 CAVOK 23/21 Q1022","temp":23,"dewp":21,"wdir":350,"wspd":3,"visib":"6+","altim":1022,"clouds":[],"obsTime":1775221200},"SBBH":{"icaoId":"SBBH","flightCategory":"VFR","rawOb":"METAR SBBH 031300Z 26001KT 9999 SCT030 26/18 Q1021","temp":26,"dewp":18,"wdir":260,"wspd":1,"visib":"6+","altim":1021,"clouds":[{"cover":"SCT","base":3000}],"obsTime":1775221200},"SBBQ":{"icaoId":"SBBQ","flightCategory":"VFR","rawOb":"METAR SBBQ 031300Z 35005KT CAVOK 23/19 Q1024","temp":23,"dewp":19,"wdir":350,"wspd":5,"visib":"6+","altim":1024,"clouds":[],"obsTime":1775221200},"SBBU":{"icaoId":"SBBU","flightCategory":"VFR","rawOb":"METAR SBBU 031300Z 33004KT 9999 SCT017 26/22 Q1019","temp":26,"dewp":22,"wdir":330,"wspd":4,"visib":"6+","altim":1019,"clouds":[{"cover":"SCT","base":1700}],"obsTime":1775221200},"SBCA":{"icaoId":"SBCA","flightCategory":"VFR","rawOb":"METAR SBCA 031300Z 01008KT CAVOK 25/19 Q1019","temp":25,"dewp":19,"wdir":10,"wspd":8,"visib":"6+","altim":1019,"clouds":[],"obsTime":1775221200},"SBCC":{"icaoId":"SBCC","flightCategory":"IFR","rawOb":"METAR SBCC 031300Z 07010KT 9999 BKN007 26/21 Q1015","temp":26,"dewp":21,"wdir":70,"wspd":10,"visib":"6+","altim":1015,"clouds":[{"cover":"BKN","base":700}],"obsTime":1775221200},"SBUY":{"icaoId":"SBUY","flightCategory":"VFR","rawOb":"METAR SBUY 031300Z 16003KT 9999 SCT009 BKN080 26/24 Q1012","temp":26,"dewp":24,"wdir":160,"wspd":3,"visib":"6+","altim":1012,"clouds":[{"cover":"SCT","base":900},{"cover":"BKN","base":8000}],"obsTime":1775221200},"SBJP":{"icaoId":"SBJP","flightCategory":"VFR","rawOb":"METAR SBJP 031300Z 11010KT 9999 SCT020 30/24 Q1014","temp":30,"dewp":24,"wdir":110,"wspd":10,"visib":"6+","altim":1014,"clouds":[{"cover":"SCT","base":2000}],"obsTime":1775221200},"SBAN":{"icaoId":"SBAN","flightCategory":"MVFR","rawOb":"METAR SBAN 031300Z 11010KT 9999 FEW009 BKN015 23/18 Q1023","temp":23,"dewp":18,"wdir":110,"wspd":10,"visib":"6+","altim":1023,"clouds":[{"cover":"FEW","base":900},{"cover":"BKN","base":1500}],"obsTime":1775221200},"SBLE":{"icaoId":"SBLE","flightCategory":"VFR","rawOb":"METAR SBLE 031300Z AUTO VRB02KT 9999 FEW031 BKN036 OVC042 24/22 Q1020","temp":24,"dewp":22,"wdir":"VRB","wspd":2,"visib":"6+","altim":1020,"clouds":[{"cover":"FEW","base":3100},{"cover":"BKN","base":3600},{"cover":"OVC","base":4200}],"obsTime":1775221200},"SBJV":{"icaoId":"SBJV","flightCategory":"VFR","rawOb":"METAR SBJV 031300Z 08003KT 9999 FEW025 28/23 Q1014","temp":28,"dewp":23,"wdir":80,"wspd":3,"visib":"6+","altim":1014,"clouds":[{"cover":"FEW","base":2500}],"obsTime":1775221200},"SBPF":{"icaoId":"SBPF","flightCategory":"VFR","rawOb":"METAR SBPF 031300Z 32008KT CAVOK 24/19 Q1018","temp":24,"dewp":19,"wdir":320,"wspd":8,"visib":"6+","altim":1018,"clouds":[],"obsTime":1775221200},"SBAF":{"icaoId":"SBAF","flightCategory":"VFR","rawOb":"METAR SBAF 031300Z 33002KT 9999 FEW040 SCT080 29/25 Q1015","temp":29,"dewp":25,"wdir":330,"wspd":2,"visib":"6+","altim":1015,"clouds":[{"cover":"FEW","base":4000},{"cover":"SCT","base":8000}],"obsTime":1775221200},"SBGW":{"icaoId":"SBGW","flightCategory":"VFR","rawOb":"METAR SBGW 031300Z 36002KT 9999 FEW020 26/17 Q1018","temp":26,"dewp":17,"wdir":360,"wspd":2,"visib":"6+","altim":1018,"clouds":[{"cover":"FEW","base":2000}],"obsTime":1775221200},"SBJR":{"icaoId":"SBJR","flightCategory":"VFR","rawOb":"METAR SBJR 031300Z 36006KT CAVOK 31/22 Q1014","temp":31,"dewp":22,"wdir":360,"wspd":6,"visib":"6+","altim":1014,"clouds":[],"obsTime":1775221200},"SBLS":{"icaoId":"SBLS","flightCategory":"VFR","rawOb":"METAR SBLS 031300Z VRB03KT 9999 SCT022 25/20 Q1021","temp":25,"dewp":20,"wdir":"VRB","wspd":3,"visib":"6+","altim":1021,"clouds":[{"cover":"SCT","base":2200}],"obsTime":1775221200},"SBMT":{"icaoId":"SBMT","flightCategory":"VFR","rawOb":"METAR SBMT 031300Z 33008KT 290V020 CAVOK 26/19 Q1019","temp":26,"dewp":19,"wdir":330,"wspd":8,"visib":"6+","altim":1019,"clouds":[],"obsTime":1775221200},"SBST":{"icaoId":"SBST","flightCategory":"VFR","rawOb":"METAR SBST 031300Z 10003KT 050V140 CAVOK 26/24 Q1014","temp":26,"dewp":24,"wdir":100,"wspd":3,"visib":"6+","altim":1014,"clouds":[],"obsTime":1775221200},"SBTA":{"icaoId":"SBTA","flightCategory":"VFR","rawOb":"METAR SBTA 031300Z VRB02KT CAVOK 24/19 Q1018","temp":24,"dewp":19,"wdir":"VRB","wspd":2,"visib":"6+","altim":1018,"clouds":[],"obsTime":1775221200},"SBIH":{"icaoId":"SBIH","flightCategory":"VFR","rawOb":"METAR SBIH 031300Z 05009KT 9999 SCT013 29/24 Q1012","temp":29,"dewp":24,"wdir":50,"wspd":9,"visib":"6+","altim":1012,"clouds":[{"cover":"SCT","base":1300}],"obsTime":1775221200}}}