{"updated":1783077731,"count":84,"data":{"SBRF":{"icaoId":"SBRF","flightCategory":"VFR","rawOb":"METAR SBRF 031000Z 15015KT 9999 SCT023 BKN050 26/21 Q1015","temp":26,"dewp":21,"wdir":150,"wspd":15,"visib":"6+","altim":1015,"clouds":[{"cover":"SCT","base":2300},{"cover":"BKN","base":5000}],"obsTime":1783072800},"SBMQ":{"icaoId":"SBMQ","flightCategory":"VFR","rawOb":"SPECI SBMQ 030927Z 34002KT 9999 -RA FEW005 BKN050 BKN100 25/25 Q1012","temp":25,"dewp":25,"wdir":340,"wspd":2,"visib":"6+","altim":1012,"clouds":[{"cover":"FEW","base":500},{"cover":"BKN","base":5000},{"cover":"BKN","base":10000}],"obsTime":1783070820},"SBGR":{"icaoId":"SBGR","flightCategory":"VFR","rawOb":"METAR SBGR 031000Z 00000KT CAVOK 12/12 Q1023","temp":12,"dewp":12,"wdir":0,"wspd":0,"visib":"6+","altim":1023,"clouds":[],"obsTime":1783072800},"SBEG":{"icaoId":"SBEG","flightCategory":"VFR","rawOb":"METAR SBEG 031000Z 00000KT CAVOK 24/24 Q1012","temp":24,"dewp":24,"wdir":0,"wspd":0,"visib":"6+","altim":1012,"clouds":[],"obsTime":1783072800},"SBMO":{"icaoId":"SBMO","flightCategory":"VFR","rawOb":"METAR SBMO 031000Z 32002KT 9999 SCT025 21/21 Q1017","temp":21,"dewp":21,"wdir":320,"wspd":2,"visib":"6+","altim":1017,"clouds":[{"cover":"SCT","base":2500}],"obsTime":1783072800},"SBSL":{"icaoId":"SBSL","flightCategory":"VFR","rawOb":"METAR SBSL 031000Z 07003KT CAVOK 25/24 Q1012","temp":25,"dewp":24,"wdir":70,"wspd":3,"visib":"6+","altim":1012,"clouds":[],"obsTime":1783072800},"SBFL":{"icaoId":"SBFL","flightCategory":"MVFR","rawOb":"METAR SBFL 031000Z 14011KT 9999 SCT015 OVC020 13/10 Q1021","temp":13,"dewp":10,"wdir":140,"wspd":11,"visib":"6+","altim":1021,"clouds":[{"cover":"SCT","base":1500},{"cover":"OVC","base":2000}],"obsTime":1783072800},"SBSP":{"icaoId":"SBSP","flightCategory":"VFR","rawOb":"METAR SBSP 031000Z 34003KT 280V010 CAVOK 16/14 Q1023","temp":16,"dewp":14,"wdir":340,"wspd":3,"visib":"6+","altim":1023,"clouds":[],"obsTime":1783072800},"SBFZ":{"icaoId":"SBFZ","flightCategory":"VFR","rawOb":"METAR SBFZ 031000Z 16009KT 9999 FEW020 BKN060 26/22 Q1013","temp":26,"dewp":22,"wdir":160,"wspd":9,"visib":"6+","altim":1013,"clouds":[{"cover":"FEW","base":2000},{"cover":"BKN","base":6000}],"obsTime":1783072800},"SBBE":{"icaoId":"SBBE","flightCategory":"VFR","rawOb":"METAR SBBE 031000Z 12005KT CAVOK 26/24 Q1012","temp":26,"dewp":24,"wdir":120,"wspd":5,"visib":"6+","altim":1012,"clouds":[],"obsTime":1783072800},"SBRB":{"icaoId":"SBRB","flightCategory":"MVFR","rawOb":"METAR SBRB 031000Z 15007KT 5000 BR SCT010 22/20 Q1016","temp":22,"dewp":20,"wdir":150,"wspd":7,"visib":3.11,"altim":1016,"clouds":[{"cover":"SCT","base":1000}],"obsTime":1783072800},"SBBR":{"icaoId":"SBBR","flightCategory":"VFR","rawOb":"METAR SBBR 031000Z 21002KT CAVOK 14/12 Q1024","temp":14,"dewp":12,"wdir":210,"wspd":2,"visib":"6+","altim":1024,"clouds":[],"obsTime":1783072800},"SBPV":{"icaoId":"SBPV","flightCategory":"VFR","rawOb":"METAR SBPV 031000Z 00000KT 9999 FEW030 24/22 Q1013","temp":24,"dewp":22,"wdir":0,"wspd":0,"visib":"6+","altim":1013,"clouds":[{"cover":"FEW","base":3000}],"obsTime":1783072800},"SBSN":{"icaoId":"SBSN","flightCategory":"VFR","rawOb":"METAR SBSN 031000Z 16002KT 9999 FEW015 24/24 Q1012","temp":24,"dewp":24,"wdir":160,"wspd":2,"visib":"6+","altim":1012,"clouds":[{"cover":"FEW","base":1500}],"obsTime":1783072800},"SBCF":{"icaoId":"SBCF","flightCategory":"VFR","rawOb":"METAR SBCF 031000Z 17002KT 9000 BCFG NSC 13/13 Q1023","temp":13,"dewp":13,"wdir":170,"wspd":2,"visib":5.59,"altim":1023,"clouds":[],"obsTime":1783072800},"SBVT":{"icaoId":"SBVT","flightCategory":"VFR","rawOb":"METAR SBVT 031000Z 00000KT 9999 FEW030 18/17 Q1019","temp":18,"dewp":17,"wdir":0,"wspd":0,"visib":"6+","altim":1019,"clouds":[{"cover":"FEW","base":3000}],"obsTime":1783072800},"SBBV":{"icaoId":"SBBV","flightCategory":"MVFR","rawOb":"METAR SBBV 031000Z 08005KT 8000 -RA SCT004 SCT030 FEW035TCU BKN100 24/23 Q1014","temp":24,"dewp":23,"wdir":80,"wspd":5,"visib":4.97,"altim":1014,"clouds":[{"cover":"SCT","base":400},{"cover":"SCT","base":3000},{"cover":"FEW","base":3500},{"cover":"BKN","base":10000}],"obsTime":1783072800},"SBCT":{"icaoId":"SBCT","flightCategory":"MVFR","rawOb":"METAR SBCT 031000Z 04004KT 6000 FEW010 13/13 Q1022","temp":13,"dewp":13,"wdir":40,"wspd":4,"visib":3.73,"altim":1022,"clouds":[{"cover":"FEW","base":1000}],"obsTime":1783072800},"SBNT":{"icaoId":"SBNT","flightCategory":"IFR","rawOb":"METAR SBNT 031000Z 19010KT 7000 -RA BKN009 BKN023 BKN060 23/22 Q1014","temp":23,"dewp":22,"wdir":190,"wspd":10,"visib":4.35,"altim":1014,"clouds":[{"cover":"BKN","base":900},{"cover":"BKN","base":2300},{"cover":"BKN","base":6000}],"obsTime":1783072800},"SBSG":{"icaoId":"SBSG","flightCategory":"IFR","rawOb":"METAR SBSG 031000Z 17007KT 140V210 9999 VCSH BKN007 BKN020 23/22 Q1015","temp":23,"dewp":22,"wdir":170,"wspd":7,"visib":"6+","altim":1015,"clouds":[{"cover":"BKN","base":700},{"cover":"BKN","base":2000}],"obsTime":1783072800},"SBCB":{"icaoId":"SBCB","flightCategory":"IFR","rawOb":"METAR SBCB 031000Z 09007KT 9000 BKN009 21/20 Q1018","temp":21,"dewp":20,"wdir":90,"wspd":7,"visib":5.59,"altim":1018,"clouds":[{"cover":"BKN","base":900}],"obsTime":1783072800},"SBMA":{"icaoId":"SBMA","flightCategory":"VFR","rawOb":"METAR SBMA 031000Z 18002KT CAVOK 22/20 Q1013","temp":22,"dewp":20,"wdir":180,"wspd":2,"visib":"6+","altim":1013,"clouds":[],"obsTime":1783072800},"SBSV":{"icaoId":"SBSV","flightCategory":"VFR","rawOb":"METAR SBSV 031000Z 09012KT 9999 FEW025 SCT060 26/20 Q1017","temp":26,"dewp":20,"wdir":90,"wspd":12,"visib":"6+","altim":1017,"clouds":[{"cover":"FEW","base":2500},{"cover":"SCT","base":6000}],"obsTime":1783072800},"SBPA":{"icaoId":"SBPA","flightCategory":"VFR","rawOb":"METAR SBPA 031000Z 27010KT 9999 FEW040 05/01 Q1027","temp":5,"dewp":1,"wdir":270,"wspd":10,"visib":"6+","altim":1027,"clouds":[{"cover":"FEW","base":4000}],"obsTime":1783072800},"SBGL":{"icaoId":"SBGL","flightCategory":"LIFR","rawOb":"METAR SBGL 031000Z 04002KT 0150 R15/0200N R28/0225N R10/0350N R33/0375D FG VV001 19/19 Q1018","temp":19,"dewp":19,"wdir":40,"wspd":2,"visib":0.09,"altim":1018,"clouds":[{"cover":"OVX","base":100}],"obsTime":1783072800},"SBKP":{"icaoId":"SBKP","flightCategory":"VFR","rawOb":"METAR SBKP 031000Z 12004KT 9999 BCFG NSC 14/13 Q1022","temp":14,"dewp":13,"wdir":120,"wspd":4,"visib":"6+","altim":1022,"clouds":[],"obsTime":1783072800},"SBLO":{"icaoId":"SBLO","flightCategory":"LIFR","rawOb":"METAR SBLO 031000Z 22005KT 3000 BR OVC003 18/17 Q1021","temp":18,"dewp":17,"wdir":220,"wspd":5,"visib":1.86,"altim":1021,"clouds":[{"cover":"OVC","base":300}],"obsTime":1783072800},"SBCR":{"icaoId":"SBCR","flightCategory":"MVFR","rawOb":"METAR SBCR 031100Z 21010KT 190V250 9999 SCT008 BKN016 OVC066 14/12 Q1024","temp":14,"dewp":12,"wdir":210,"wspd":10,"visib":"6+","altim":1024,"clouds":[{"cover":"SCT","base":800},{"cover":"BKN","base":1600},{"cover":"OVC","base":6600}],"obsTime":1783076400},"SBTE":{"icaoId":"SBTE","flightCategory":"VFR","rawOb":"METAR SBTE 031000Z 18007KT CAVOK 22/19 Q1013","temp":22,"dewp":19,"wdir":180,"wspd":7,"visib":"6+","altim":1013,"clouds":[],"obsTime":1783072800},"SBPJ":{"icaoId":"SBPJ","flightCategory":"VFR","rawOb":"METAR SBPJ 031000Z 18007KT 9999 SCT035 22/16 Q1016","temp":22,"dewp":16,"wdir":180,"wspd":7,"visib":"6+","altim":1016,"clouds":[{"cover":"SCT","base":3500}],"obsTime":1783072800},"SBCP":{"icaoId":"SBCP","flightCategory":"VFR","rawOb":"METAR SBCP 031000Z 05006KT CAVOK 17/17 Q1019","temp":17,"dewp":17,"wdir":50,"wspd":6,"visib":"6+","altim":1019,"clouds":[],"obsTime":1783072800},"SBGO":{"icaoId":"SBGO","flightCategory":"VFR","rawOb":"METAR SBGO 031000Z 12002KT CAVOK 17/14 Q1022","temp":17,"dewp":14,"wdir":120,"wspd":2,"visib":"6+","altim":1022,"clouds":[],"obsTime":1783072800},"SBCG":{"icaoId":"SBCG","flightCategory":"LIFR","rawOb":"METAR SBCG 031000Z 17010KT 1500 R24///// R06/P2000 BR OVC002 14/14 Q1022","temp":14,"dewp":14,"wdir":170,"wspd":10,"visib":0.93,"altim":1022,"clouds":[{"cover":"OVC","base":200}],"obsTime":1783072800},"SBIL":{"icaoId":"SBIL","flightCategory":"MVFR","rawOb":"METAR SBIL 031000Z 27003KT 7000 -RA SCT008 SCT020 BKN050 23/23 Q1018","temp":23,"dewp":23,"wdir":270,"wspd":3,"visib":4.35,"altim":1018,"clouds":[{"cover":"SCT","base":800},{"cover":"SCT","base":2000},{"cover":"BKN","base":5000}],"obsTime":1783072800},"SBJU":{"icaoId":"SBJU","flightCategory":"VFR","rawOb":"METAR SBJU 031000Z 00000KT CAVOK 21/16 Q1017","temp":21,"dewp":16,"wdir":0,"wspd":0,"visib":"6+","altim":1017,"clouds":[],"obsTime":1783072800},"SBME":{"icaoId":"SBME","flightCategory":"IFR","rawOb":"METAR SBME 031000Z 32002KT 4000 BR SCT001 17/16 Q1018","temp":17,"dewp":16,"wdir":320,"wspd":2,"visib":2.49,"altim":1018,"clouds":[{"cover":"SCT","base":100}],"obsTime":1783072800},"SBMK":{"icaoId":"SBMK","flightCategory":"VFR","rawOb":"METAR SBMK 031000Z 24002KT CAVOK 16/13 Q1022","temp":16,"dewp":13,"wdir":240,"wspd":2,"visib":"6+","altim":1022,"clouds":[],"obsTime":1783072800},"SBUL":{"icaoId":"SBUL","flightCategory":"VFR","rawOb":"METAR SBUL 031000Z 12007KT CAVOK 17/13 Q1023","temp":17,"dewp":13,"wdir":120,"wspd":7,"visib":"6+","altim":1023,"clouds":[],"obsTime":1783072800},"SBUR":{"icaoId":"SBUR","flightCategory":"VFR","rawOb":"METAR SBUR 031000Z 03005KT CAVOK 17/13 Q1022","temp":17,"dewp":13,"wdir":30,"wspd":5,"visib":"6+","altim":1022,"clouds":[],"obsTime":1783072800},"SBMG":{"icaoId":"SBMG","flightCategory":"LIFR","rawOb":"METAR SBMG 031000Z 24005KT 0100 R10/0550N FG VV001 16/16 Q1021","temp":16,"dewp":16,"wdir":240,"wspd":5,"visib":0.06,"altim":1021,"clouds":[{"cover":"OVX","base":100}],"obsTime":1783072800},"SBAT":{"icaoId":"SBAT","flightCategory":"VFR","rawOb":"METAR SBAT 031100Z 13003KT CAVOK 23/18 Q1017","temp":23,"dewp":18,"wdir":130,"wspd":3,"visib":"6+","altim":1017,"clouds":[],"obsTime":1783076400},"SBHT":{"icaoId":"SBHT","flightCategory":"VFR","rawOb":"METAR SBHT 031000Z 00000KT CAVOK 23/23 Q1013","temp":23,"dewp":23,"wdir":0,"wspd":0,"visib":"6+","altim":1013,"clouds":[],"obsTime":1783072800},"SBFI":{"icaoId":"SBFI","flightCategory":"IFR","rawOb":"METAR SBFI 031000Z 20007KT 9999 OVC007 10/09 Q1025","temp":10,"dewp":9,"wdir":200,"wspd":7,"visib":"6+","altim":1025,"clouds":[{"cover":"OVC","base":700}],"obsTime":1783072800},"SBTF":{"icaoId":"SBTF","flightCategory":"VFR","rawOb":"SPECI SBTF 031115Z 15002KT 9999 SCT040 SCT100 25/25 Q1012","temp":25,"dewp":25,"wdir":150,"wspd":2,"visib":"6+","altim":1012,"clouds":[{"cover":"SCT","base":4000},{"cover":"SCT","base":10000}],"obsTime":1783077300},"SBPP":{"icaoId":"SBPP","flightCategory":"LIFR","rawOb":"SPECI SBPP 031115Z 21013KT 0000 FG VV000 10/10 Q1024","temp":10,"dewp":10,"wdir":210,"wspd":13,"visib":0,"altim":1024,"clouds":[{"cover":"OVX","base":0}],"obsTime":1783077300},"SBUY":{"icaoId":"SBUY","flightCategory":"VFR","rawOb":"METAR SBUY 031100Z 00000KT 9999 FEW040 BKN100 22/22 Q1012","temp":22,"dewp":22,"wdir":0,"wspd":0,"visib":"6+","altim":1012,"clouds":[{"cover":"FEW","base":4000},{"cover":"BKN","base":10000}],"obsTime":1783076400},"SBCJ":{"icaoId":"SBCJ","flightCategory":"VFR","rawOb":"SPECI SBCJ 031015Z 00000KT CAVOK 19/13 Q1017","temp":19,"dewp":13,"wdir":0,"wspd":0,"visib":"6+","altim":1017,"clouds":[],"obsTime":1783073700},"SBPS":{"icaoId":"SBPS","flightCategory":"VFR","rawOb":"METAR SBPS 031000Z 11007KT 090V150 9999 SCT020 OVC040 24/20 Q1019","temp":24,"dewp":20,"wdir":110,"wspd":7,"visib":"6+","altim":1019,"clouds":[{"cover":"SCT","base":2000},{"cover":"OVC","base":4000}],"obsTime":1783072800},"SBOI":{"icaoId":"SBOI","flightCategory":"VFR","rawOb":"METAR SBOI 031000Z AUTO 00000KT 9999 FEW001 SCT012 24/24 Q1013","temp":24,"dewp":24,"wdir":0,"wspd":0,"visib":"6+","altim":1013,"clouds":[{"cover":"FEW","base":100},{"cover":"SCT","base":1200}],"obsTime":1783072800},"SBPB":{"icaoId":"SBPB","flightCategory":"VFR","rawOb":"SPECI SBPB 031015Z 13006KT 9999 FEW020 26/22 Q1013","temp":26,"dewp":22,"wdir":130,"wspd":6,"visib":"6+","altim":1013,"clouds":[{"cover":"FEW","base":2000}],"obsTime":1783073700},"SBPL":{"icaoId":"SBPL","flightCategory":"MVFR","rawOb":"METAR SBPL 031000Z 12005KT 9999 BKN016 23/21 Q1017","temp":23,"dewp":21,"wdir":120,"wspd":5,"visib":"6+","altim":1017,"clouds":[{"cover":"BKN","base":1600}],"obsTime":1783072800},"SBTD":{"icaoId":"SBTD","flightCategory":"LIFR","rawOb":"METAR SBTD 031100Z /////KT 8000 OVC003 12/11 Q1024","temp":12,"dewp":11,"wdir":null,"wspd":null,"visib":4.97,"altim":1024,"clouds":[{"cover":"OVC","base":300}],"obsTime":1783076400},"SBAR":{"icaoId":"SBAR","flightCategory":"VFR","rawOb":"METAR SBAR 031000Z 10010KT 9999 SCT022 26/22 Q1016","temp":26,"dewp":22,"wdir":100,"wspd":10,"visib":"6+","altim":1016,"clouds":[{"cover":"SCT","base":2200}],"obsTime":1783072800},"SBKG":{"icaoId":"SBKG","flightCategory":"MVFR","rawOb":"METAR SBKG 031000Z 16007KT 9999 SCT010 BKN015 21/20 Q1018","temp":21,"dewp":20,"wdir":160,"wspd":7,"visib":"6+","altim":1018,"clouds":[{"cover":"SCT","base":1000},{"cover":"BKN","base":1500}],"obsTime":1783072800},"SBAX":{"icaoId":"SBAX","flightCategory":"VFR","rawOb":"METAR SBAX 031000Z 14004KT CAVOK 16/13 Q1024","temp":16,"dewp":13,"wdir":140,"wspd":4,"visib":"6+","altim":1024,"clouds":[],"obsTime":1783072800},"SBBH":{"icaoId":"SBBH","flightCategory":"VFR","rawOb":"METAR SBBH 031000Z 00000KT CAVOK 12/12 Q1023","temp":12,"dewp":12,"wdir":0,"wspd":0,"visib":"6+","altim":1023,"clouds":[],"obsTime":1783072800},"SBBU":{"icaoId":"SBBU","flightCategory":"VFR","rawOb":"METAR SBBU 031000Z 06004KT CAVOK 19/14 Q1021","temp":19,"dewp":14,"wdir":60,"wspd":4,"visib":"6+","altim":1021,"clouds":[],"obsTime":1783072800},"SBDN":{"icaoId":"SBDN","flightCategory":"LIFR","rawOb":"METAR SBDN 031000Z 21004KT 1000 BR OVC002 18/18 Q1021","temp":18,"dewp":18,"wdir":210,"wspd":4,"visib":0.62,"altim":1021,"clouds":[{"cover":"OVC","base":200}],"obsTime":1783072800},"SBIP":{"icaoId":"SBIP","flightCategory":"IFR","rawOb":"METAR SBIP 031000Z AUTO 35001KT 3000 BR VV002 13/13 Q1022","temp":13,"dewp":13,"wdir":350,"wspd":1,"visib":1.86,"altim":1022,"clouds":[{"cover":"OVX","base":200}],"obsTime":1783072800},"SBSC":{"icaoId":"SBSC","flightCategory":"MVFR","rawOb":"METAR SBSC 031000Z 00000KT 8000 NSC 19/17 Q1018","temp":19,"dewp":17,"wdir":0,"wspd":0,"visib":4.97,"altim":1018,"clouds":[],"obsTime":1783072800},"SBSJ":{"icaoId":"SBSJ","flightCategory":"IFR","rawOb":"SPECI SBSJ 030940Z 28003KT 2000 R16/0400D R34/P2000 BR BCFG VV001 12/11 Q1022","temp":12,"dewp":11,"wdir":280,"wspd":3,"visib":1.24,"altim":1022,"clouds":[{"cover":"OVX","base":100}],"obsTime":1783071600},"SBSR":{"icaoId":"SBSR","flightCategory":"VFR","rawOb":"METAR SBSR 031000Z 08002KT CAVOK 17/12 Q1021","temp":17,"dewp":12,"wdir":80,"wspd":2,"visib":"6+","altim":1021,"clouds":[],"obsTime":1783072800},"SBCA":{"icaoId":"SBCA","flightCategory":"LIFR","rawOb":"METAR SBCA 031000Z 20010KT 0050 FG VV000 10/10 Q1024","temp":10,"dewp":10,"wdir":200,"wspd":10,"visib":0.03,"altim":1024,"clouds":[{"cover":"OVX","base":0}],"obsTime":1783072800},"SBCO":{"icaoId":"SBCO","flightCategory":"VFR","rawOb":"METAR SBCO 031000Z 29009KT CAVOK 05/01 Q1027","temp":5,"dewp":1,"wdir":290,"wspd":9,"visib":"6+","altim":1027,"clouds":[],"obsTime":1783072800},"SBSM":{"icaoId":"SBSM","flightCategory":"VFR","rawOb":"METAR SBSM 031000Z 28002KT CAVOK 00/M00 Q1029","temp":0,"dewp":0,"wdir":280,"wspd":2,"visib":"6+","altim":1029,"clouds":[],"obsTime":1783072800},"SBCC":{"icaoId":"SBCC","flightCategory":"VFR","rawOb":"METAR SBCC 031100Z 01010KT CAVOK 21/14 Q1018","temp":21,"dewp":14,"wdir":10,"wspd":10,"visib":"6+","altim":1018,"clouds":[],"obsTime":1783076400},"SBVH":{"icaoId":"SBVH","flightCategory":"LIFR","rawOb":"METAR SBVH 031100Z 18007KT 8000 OVC003 17/17 Q1020","temp":17,"dewp":17,"wdir":180,"wspd":7,"visib":4.97,"altim":1020,"clouds":[{"cover":"OVC","base":300}],"obsTime":1783076400},"SBTT":{"icaoId":"SBTT","flightCategory":"VFR","rawOb":"METAR SBTT 031100Z 20002KT 9999 FEW007 BKN100 24/23 Q1013","temp":24,"dewp":23,"wdir":200,"wspd":2,"visib":"6+","altim":1013,"clouds":[{"cover":"FEW","base":700},{"cover":"BKN","base":10000}],"obsTime":1783076400},"SBTU":{"icaoId":"SBTU","flightCategory":"VFR","rawOb":"METAR SBTU 031000Z AUTO 21004KT 9999 // NCD ///// Q1015","temp":null,"dewp":null,"wdir":210,"wspd":4,"visib":"6+","altim":1015,"clouds":[],"obsTime":1783072800},"SBES":{"icaoId":"SBES","flightCategory":"LIFR","rawOb":"METAR SBES 031000Z 04005KT 340V090 1500 BR FEW004 BKN009 20/// Q1018","temp":null,"dewp":null,"wdir":40,"wspd":5,"visib":0.93,"altim":1018,"clouds":[{"cover":"FEW","base":400},{"cover":"BKN","base":900}],"obsTime":1783072800},"SBJP":{"icaoId":"SBJP","flightCategory":"MVFR","rawOb":"SPECI SBJP 030930Z 13004KT 9999 -RA BKN014 BKN018 OVC070 23/22 Q1015","temp":23,"dewp":22,"wdir":130,"wspd":4,"visib":"6+","altim":1015,"clouds":[{"cover":"BKN","base":1400},{"cover":"BKN","base":1800},{"cover":"OVC","base":7000}],"obsTime":1783071000},"SBLE":{"icaoId":"SBLE","flightCategory":"MVFR","rawOb":"METAR SBLE 031000Z AUTO VRB02KT 9999 OVC028 ///// Q1020","temp":null,"dewp":null,"wdir":"VRB","wspd":2,"visib":"6+","altim":1020,"clouds":[{"cover":"OVC","base":2800}],"obsTime":1783072800},"SBAF":{"icaoId":"SBAF","flightCategory":"IFR","rawOb":"METAR SBAF 031000Z 09001KT 3000 R26/M0050 BR FEW008 16/16 Q1018","temp":16,"dewp":16,"wdir":90,"wspd":1,"visib":1.86,"altim":1018,"clouds":[{"cover":"FEW","base":800}],"obsTime":1783072800},"SBGW":{"icaoId":"SBGW","flightCategory":"LIFR","rawOb":"METAR SBGW 031000Z 21003KT 0050 FG VV002 12/09 Q1022","temp":12,"dewp":9,"wdir":210,"wspd":3,"visib":0.03,"altim":1022,"clouds":[{"cover":"OVX","base":200}],"obsTime":1783072800},"SBJR":{"icaoId":"SBJR","flightCategory":"VFR","rawOb":"METAR SBJR 031000Z 00000KT CAVOK 18/18 Q1018","temp":18,"dewp":18,"wdir":0,"wspd":0,"visib":"6+","altim":1018,"clouds":[],"obsTime":1783072800},"SBLS":{"icaoId":"SBLS","flightCategory":"VFR","rawOb":"METAR SBLS 031000Z 17004KT 9999 2000E BCFG NSC 14/12 Q1023","temp":14,"dewp":12,"wdir":170,"wspd":4,"visib":"6+","altim":1023,"clouds":[],"obsTime":1783072800},"SBMT":{"icaoId":"SBMT","flightCategory":"VFR","rawOb":"METAR SBMT 031000Z VRB02KT CAVOK 13/13 Q1023","temp":13,"dewp":13,"wdir":"VRB","wspd":2,"visib":"6+","altim":1023,"clouds":[],"obsTime":1783072800},"SBST":{"icaoId":"SBST","flightCategory":"MVFR","rawOb":"METAR SBST 031100Z 35005KT 5000 BR OVC011 19/18 Q1020","temp":19,"dewp":18,"wdir":350,"wspd":5,"visib":3.11,"altim":1020,"clouds":[{"cover":"OVC","base":1100}],"obsTime":1783076400},"SBTA":{"icaoId":"SBTA","flightCategory":"MVFR","rawOb":"METAR SBTA 031000Z VRB01KT 8000 NSC 10/10 Q1022","temp":10,"dewp":10,"wdir":"VRB","wspd":1,"visib":4.97,"altim":1022,"clouds":[],"obsTime":1783072800},"SBJV":{"icaoId":"SBJV","flightCategory":"LIFR","rawOb":"METAR SBJV 031000Z 11006KT 4000 BR BKN004 OVC010 16/14 Q1021","temp":16,"dewp":14,"wdir":110,"wspd":6,"visib":2.49,"altim":1021,"clouds":[{"cover":"BKN","base":400},{"cover":"OVC","base":1000}],"obsTime":1783072800},"SBNM":{"icaoId":"SBNM","flightCategory":"VFR","rawOb":"METAR SBNM 031000Z AUTO 14005KT CAVOK 02/00 Q1028","temp":2,"dewp":0,"wdir":140,"wspd":5,"visib":"6+","altim":1028,"clouds":[],"obsTime":1783072800},"SBPF":{"icaoId":"SBPF","flightCategory":"LIFR","rawOb":"METAR SBPF 031000Z 22006KT 8000 -DZ OVC002 03/02 Q1025","temp":3,"dewp":2,"wdir":220,"wspd":6,"visib":4.97,"altim":1025,"clouds":[{"cover":"OVC","base":200}],"obsTime":1783072800},"SBAN":{"icaoId":"SBAN","flightCategory":"VFR","rawOb":"METAR SBAN 031000Z 15002KT 9999 FEW045 SCT070 14/12 Q1024","temp":14,"dewp":12,"wdir":150,"wspd":2,"visib":"6+","altim":1024,"clouds":[{"cover":"FEW","base":4500},{"cover":"SCT","base":7000}],"obsTime":1783072800},"SBIH":{"icaoId":"SBIH","flightCategory":"VFR","rawOb":"METAR SBIH 031100Z 00000KT CAVOK 25/24 Q1013","temp":25,"dewp":24,"wdir":0,"wspd":0,"visib":"6+","altim":1013,"clouds":[],"obsTime":1783076400}}}