{"updated":1776504964,"count":64,"data":{"SBMG":{"icaoId":"SBMG","flightCategory":"VFR","rawOb":"METAR SBMG 180800Z AUTO 22003KT CAVOK 22/20 Q1010","temp":22,"dewp":20,"wdir":220,"wspd":3,"visib":"6+","altim":1010,"clouds":[],"obsTime":1776499200},"SBMK":{"icaoId":"SBMK","flightCategory":"VFR","rawOb":"METAR SBMK 180800Z 00000KT CAVOK 17/16 Q1013","temp":17,"dewp":16,"wdir":0,"wspd":0,"visib":"6+","altim":1013,"clouds":[],"obsTime":1776499200},"SBMO":{"icaoId":"SBMO","flightCategory":"MVFR","rawOb":"METAR SBMO 180800Z 29002KT 5000 -RA BR BKN015 24/24 Q1008","temp":24,"dewp":24,"wdir":290,"wspd":2,"visib":3.11,"altim":1008,"clouds":[{"cover":"BKN","base":1500}],"obsTime":1776499200},"SBCB":{"icaoId":"SBCB","flightCategory":"MVFR","rawOb":"METAR SBCB 180900Z 07008KT 9999 BKN015 24/22 Q1008","temp":24,"dewp":22,"wdir":70,"wspd":8,"visib":"6+","altim":1008,"clouds":[{"cover":"BKN","base":1500}],"obsTime":1776502800},"SBGL":{"icaoId":"SBGL","flightCategory":"VFR","rawOb":"METAR SBGL 180800Z 04002KT 9999 FEW040 22/21 Q1008","temp":22,"dewp":21,"wdir":40,"wspd":2,"visib":"6+","altim":1008,"clouds":[{"cover":"FEW","base":4000}],"obsTime":1776499200},"SBMQ":{"icaoId":"SBMQ","flightCategory":"IFR","rawOb":"METAR SBMQ 180800Z 02005KT 9999 BKN006 BKN020 OVC060 25/25 Q1007","temp":25,"dewp":25,"wdir":20,"wspd":5,"visib":"6+","altim":1007,"clouds":[{"cover":"BKN","base":600},{"cover":"BKN","base":2000},{"cover":"OVC","base":6000}],"obsTime":1776499200},"SBGO":{"icaoId":"SBGO","flightCategory":"VFR","rawOb":"METAR SBGO 180800Z 34005KT CAVOK 20/19 Q1012","temp":20,"dewp":19,"wdir":340,"wspd":5,"visib":"6+","altim":1012,"clouds":[],"obsTime":1776499200},"SBNT":{"icaoId":"SBNT","flightCategory":"VFR","rawOb":"METAR SBNT 180800Z 19004KT 9999 FEW018 24/23 Q1007","temp":24,"dewp":23,"wdir":190,"wspd":4,"visib":"6+","altim":1007,"clouds":[{"cover":"FEW","base":1800}],"obsTime":1776499200},"SBBE":{"icaoId":"SBBE","flightCategory":"VFR","rawOb":"METAR SBBE 180800Z 00000KT CAVOK 24/23 Q1006","temp":24,"dewp":23,"wdir":0,"wspd":0,"visib":"6+","altim":1006,"clouds":[],"obsTime":1776499200},"SBPA":{"icaoId":"SBPA","flightCategory":"VFR","rawOb":"METAR SBPA 180800Z 28010KT 9999 FEW010 BKN045 20/18 Q1008","temp":20,"dewp":18,"wdir":280,"wspd":10,"visib":"6+","altim":1008,"clouds":[{"cover":"FEW","base":1000},{"cover":"BKN","base":4500}],"obsTime":1776499200},"SBCT":{"icaoId":"SBCT","flightCategory":"VFR","rawOb":"METAR SBCT 180800Z 24003KT CAVOK 17/16 Q1012","temp":17,"dewp":16,"wdir":240,"wspd":3,"visib":"6+","altim":1012,"clouds":[],"obsTime":1776499200},"SBPJ":{"icaoId":"SBPJ","flightCategory":"VFR","rawOb":"METAR SBPJ 180800Z 12002KT 9999 FEW012 24/24 Q1008","temp":24,"dewp":24,"wdir":120,"wspd":2,"visib":"6+","altim":1008,"clouds":[{"cover":"FEW","base":1200}],"obsTime":1776499200},"SBPV":{"icaoId":"SBPV","flightCategory":"IFR","rawOb":"METAR SBPV 180800Z 03002KT 9999 BKN007 BKN020 FEW030TCU 24/23 Q1007","temp":24,"dewp":23,"wdir":30,"wspd":2,"visib":"6+","altim":1007,"clouds":[{"cover":"BKN","base":700},{"cover":"BKN","base":2000},{"cover":"FEW","base":3000}],"obsTime":1776499200},"SBGR":{"icaoId":"SBGR","flightCategory":"VFR","rawOb":"METAR SBGR 180800Z 05008KT CAVOK 20/17 Q1012","temp":20,"dewp":17,"wdir":50,"wspd":8,"visib":"6+","altim":1012,"clouds":[],"obsTime":1776499200},"SBCG":{"icaoId":"SBCG","flightCategory":"VFR","rawOb":"METAR SBCG 180800Z 09004KT CAVOK 21/21 Q1011","temp":21,"dewp":21,"wdir":90,"wspd":4,"visib":"6+","altim":1011,"clouds":[],"obsTime":1776499200},"SBEG":{"icaoId":"SBEG","flightCategory":"VFR","rawOb":"METAR SBEG 180800Z 00000KT 9999 SCT010 SCT015 25/25 Q1008","temp":25,"dewp":25,"wdir":0,"wspd":0,"visib":"6+","altim":1008,"clouds":[{"cover":"SCT","base":1000},{"cover":"SCT","base":1500}],"obsTime":1776499200},"SBRB":{"icaoId":"SBRB","flightCategory":"VFR","rawOb":"METAR SBRB 180800Z 29002KT 9999 SCT035 23/22 Q1009","temp":23,"dewp":22,"wdir":290,"wspd":2,"visib":"6+","altim":1009,"clouds":[{"cover":"SCT","base":3500}],"obsTime":1776499200},"SBRF":{"icaoId":"SBRF","flightCategory":"VFR","rawOb":"METAR SBRF 180800Z 13007KT 9999 FEW017 SCT060 27/24 Q1007","temp":27,"dewp":24,"wdir":130,"wspd":7,"visib":"6+","altim":1007,"clouds":[{"cover":"FEW","base":1700},{"cover":"SCT","base":6000}],"obsTime":1776499200},"SBCF":{"icaoId":"SBCF","flightCategory":"MVFR","rawOb":"METAR SBCF 180800Z 00000KT 6000 NSC 15/14 Q1014","temp":15,"dewp":14,"wdir":0,"wspd":0,"visib":3.73,"altim":1014,"clouds":[],"obsTime":1776499200},"SBJU":{"icaoId":"SBJU","flightCategory":"VFR","rawOb":"METAR SBJU 180800Z 00000KT 9999 SCT020 23/22 Q1009","temp":23,"dewp":22,"wdir":0,"wspd":0,"visib":"6+","altim":1009,"clouds":[{"cover":"SCT","base":2000}],"obsTime":1776499200},"SBSG":{"icaoId":"SBSG","flightCategory":"VFR","rawOb":"METAR SBSG 180800Z VRB02KT 9999 SCT020 24/24 Q1007","temp":24,"dewp":24,"wdir":"VRB","wspd":2,"visib":"6+","altim":1007,"clouds":[{"cover":"SCT","base":2000}],"obsTime":1776499200},"SBBV":{"icaoId":"SBBV","flightCategory":"VFR","rawOb":"METAR SBBV 180800Z 06006KT 9999 FEW030 SCT070 26/22 Q1008","temp":26,"dewp":22,"wdir":60,"wspd":6,"visib":"6+","altim":1008,"clouds":[{"cover":"FEW","base":3000},{"cover":"SCT","base":7000}],"obsTime":1776499200},"SBSL":{"icaoId":"SBSL","flightCategory":"VFR","rawOb":"METAR SBSL 180800Z 09001KT 9999 FEW020 BKN100 25/25 Q1006","temp":25,"dewp":25,"wdir":90,"wspd":1,"visib":"6+","altim":1006,"clouds":[{"cover":"FEW","base":2000},{"cover":"BKN","base":10000}],"obsTime":1776499200},"SBKP":{"icaoId":"SBKP","flightCategory":"VFR","rawOb":"METAR SBKP 180800Z 06005KT CAVOK 21/15 Q1011","temp":21,"dewp":15,"wdir":60,"wspd":5,"visib":"6+","altim":1011,"clouds":[],"obsTime":1776499200},"SBSN":{"icaoId":"SBSN","flightCategory":"VFR","rawOb":"METAR SBSN 180800Z 09005KT 9999 VCSH VCTS SCT016 FEW040CB BKN080 27/25 Q1006","temp":27,"dewp":25,"wdir":90,"wspd":5,"visib":"6+","altim":1006,"clouds":[{"cover":"SCT","base":1600},{"cover":"FEW","base":4000},{"cover":"BKN","base":8000}],"obsTime":1776499200},"SBLO":{"icaoId":"SBLO","flightCategory":"VFR","rawOb":"METAR SBLO 180800Z 22002KT CAVOK 22/20 Q1010","temp":22,"dewp":20,"wdir":220,"wspd":2,"visib":"6+","altim":1010,"clouds":[],"obsTime":1776499200},"SBSP":{"icaoId":"SBSP","flightCategory":"VFR","rawOb":"METAR SBSP 180800Z AUTO 04004KT CAVOK 22/16 Q1012","temp":22,"dewp":16,"wdir":40,"wspd":4,"visib":"6+","altim":1012,"clouds":[],"obsTime":1776499200},"SBSV":{"icaoId":"SBSV","flightCategory":"VFR","rawOb":"METAR SBSV 180800Z 03003KT 9999 FEW022 24/23 Q1008","temp":24,"dewp":23,"wdir":30,"wspd":3,"visib":"6+","altim":1008,"clouds":[{"cover":"FEW","base":2200}],"obsTime":1776499200},"SBFI":{"icaoId":"SBFI","flightCategory":"MVFR","rawOb":"METAR SBFI 180800Z 03001KT 7000 BCFG FEW003 16/16 Q1010","temp":16,"dewp":16,"wdir":30,"wspd":1,"visib":4.35,"altim":1010,"clouds":[{"cover":"FEW","base":300}],"obsTime":1776499200},"SBMA":{"icaoId":"SBMA","flightCategory":"VFR","rawOb":"METAR SBMA 180800Z 23002KT 9999 FEW017 25/24 Q1006","temp":25,"dewp":24,"wdir":230,"wspd":2,"visib":"6+","altim":1006,"clouds":[{"cover":"FEW","base":1700}],"obsTime":1776499200},"SBTE":{"icaoId":"SBTE","flightCategory":"VFR","rawOb":"METAR SBTE 180800Z 00000KT 9999 FEW020 BKN100 25/24 Q1006","temp":25,"dewp":24,"wdir":0,"wspd":0,"visib":"6+","altim":1006,"clouds":[{"cover":"FEW","base":2000},{"cover":"BKN","base":10000}],"obsTime":1776499200},"SBFL":{"icaoId":"SBFL","flightCategory":"VFR","rawOb":"METAR SBFL 180800Z 18003KT CAVOK 22/21 Q1007","temp":22,"dewp":21,"wdir":180,"wspd":3,"visib":"6+","altim":1007,"clouds":[],"obsTime":1776499200},"SBUL":{"icaoId":"SBUL","flightCategory":"VFR","rawOb":"METAR SBUL 180800Z 14005KT CAVOK 20/15 Q1014","temp":20,"dewp":15,"wdir":140,"wspd":5,"visib":"6+","altim":1014,"clouds":[],"obsTime":1776499200},"SBBR":{"icaoId":"SBBR","flightCategory":"VFR","rawOb":"METAR SBBR 180800Z 00000KT 9999 FEW040 18/17 Q1014","temp":18,"dewp":17,"wdir":0,"wspd":0,"visib":"6+","altim":1014,"clouds":[{"cover":"FEW","base":4000}],"obsTime":1776499200},"SBUR":{"icaoId":"SBUR","flightCategory":"VFR","rawOb":"METAR SBUR 180800Z 03006KT CAVOK 20/15 Q1013","temp":20,"dewp":15,"wdir":30,"wspd":6,"visib":"6+","altim":1013,"clouds":[],"obsTime":1776499200},"SBME":{"icaoId":"SBME","flightCategory":"VFR","rawOb":"METAR SBME 180800Z 35002KT CAVOK 21/20 Q1008","temp":21,"dewp":20,"wdir":350,"wspd":2,"visib":"6+","altim":1008,"clouds":[],"obsTime":1776499200},"SBVT":{"icaoId":"SBVT","flightCategory":"VFR","rawOb":"METAR SBVT 180800Z 31001KT CAVOK 20/20 Q1009","temp":20,"dewp":20,"wdir":310,"wspd":1,"visib":"6+","altim":1009,"clouds":[],"obsTime":1776499200},"SBFZ":{"icaoId":"SBFZ","flightCategory":"VFR","rawOb":"METAR SBFZ 180800Z 14006KT 9999 SCT016 BKN080 26/25 Q1006","temp":26,"dewp":25,"wdir":140,"wspd":6,"visib":"6+","altim":1006,"clouds":[{"cover":"SCT","base":1600},{"cover":"BKN","base":8000}],"obsTime":1776499200},"SBPL":{"icaoId":"SBPL","flightCategory":"VFR","rawOb":"METAR SBPL 180800Z 10005KT 9999 FEW020 24/21 Q1010","temp":24,"dewp":21,"wdir":100,"wspd":5,"visib":"6+","altim":1010,"clouds":[{"cover":"FEW","base":2000}],"obsTime":1776499200},"SBAR":{"icaoId":"SBAR","flightCategory":"VFR","rawOb":"METAR SBAR 180800Z 26004KT 9999 FEW025 24/22 Q1008","temp":24,"dewp":22,"wdir":260,"wspd":4,"visib":"6+","altim":1008,"clouds":[{"cover":"FEW","base":2500}],"obsTime":1776499200},"SBDN":{"icaoId":"SBDN","flightCategory":"VFR","rawOb":"METAR SBDN 180800Z 00000KT CAVOK 22/19 Q1010","temp":22,"dewp":19,"wdir":0,"wspd":0,"visib":"6+","altim":1010,"clouds":[],"obsTime":1776499200},"SBPP":{"icaoId":"SBPP","flightCategory":"LIFR","rawOb":"METAR SBPP 180800Z 03002KT 0900 FG VV000 20/20 Q1012","temp":20,"dewp":20,"wdir":30,"wspd":2,"visib":0.56,"altim":1012,"clouds":[{"cover":"OVX","base":0}],"obsTime":1776499200},"SBPS":{"icaoId":"SBPS","flightCategory":"VFR","rawOb":"METAR SBPS 180800Z 27003KT 9999 FEW020 22/22 Q1010","temp":22,"dewp":22,"wdir":270,"wspd":3,"visib":"6+","altim":1010,"clouds":[{"cover":"FEW","base":2000}],"obsTime":1776499200},"SBAX":{"icaoId":"SBAX","flightCategory":"VFR","rawOb":"METAR SBAX 180800Z AUTO 21003KT CAVOK 17/14 Q1014","temp":17,"dewp":14,"wdir":210,"wspd":3,"visib":"6+","altim":1014,"clouds":[],"obsTime":1776499200},"SBES":{"icaoId":"SBES","flightCategory":"IFR","rawOb":"METAR SBES 180800Z 04005KT 330V070 8000 BKN006 21/// Q1008","temp":null,"dewp":null,"wdir":40,"wspd":5,"visib":4.97,"altim":1008,"clouds":[{"cover":"BKN","base":600}],"obsTime":1776499200},"SBSC":{"icaoId":"SBSC","flightCategory":"VFR","rawOb":"METAR SBSC 180800Z 21003KT CAVOK 21/20 Q1009","temp":21,"dewp":20,"wdir":210,"wspd":3,"visib":"6+","altim":1009,"clouds":[],"obsTime":1776499200},"SBSJ":{"icaoId":"SBSJ","flightCategory":"VFR","rawOb":"SPECI SBSJ 180830Z 07003KT CAVOK 18/16 Q1012","temp":18,"dewp":16,"wdir":70,"wspd":3,"visib":"6+","altim":1012,"clouds":[],"obsTime":1776501000},"SBSM":{"icaoId":"SBSM","flightCategory":"VFR","rawOb":"METAR SBSM 180900Z 00000KT CAVOK 15/15 Q1010","temp":15,"dewp":15,"wdir":0,"wspd":0,"visib":"6+","altim":1010,"clouds":[],"obsTime":1776502800},"SBBH":{"icaoId":"SBBH","flightCategory":"VFR","rawOb":"METAR SBBH 180900Z 00000KT CAVOK 16/15 Q1014","temp":16,"dewp":15,"wdir":0,"wspd":0,"visib":"6+","altim":1014,"clouds":[],"obsTime":1776502800},"SBSR":{"icaoId":"SBSR","flightCategory":"VFR","rawOb":"METAR SBSR 180800Z COR 00000KT CAVOK 22/18 Q1011","temp":22,"dewp":18,"wdir":0,"wspd":0,"visib":"6+","altim":1011,"clouds":[],"obsTime":1776499200},"SBIP":{"icaoId":"SBIP","flightCategory":"LIFR","rawOb":"METAR SBIP 180800Z AUTO 21001KT 0300 FG VV001 19/19 Q1011","temp":19,"dewp":19,"wdir":210,"wspd":1,"visib":0.19,"altim":1011,"clouds":[{"cover":"OVX","base":100}],"obsTime":1776499200},"SBBU":{"icaoId":"SBBU","flightCategory":"VFR","rawOb":"METAR SBBU 180900Z 00000KT CAVOK 23/20 Q1011","temp":23,"dewp":20,"wdir":0,"wspd":0,"visib":"6+","altim":1011,"clouds":[],"obsTime":1776502800},"SBKG":{"icaoId":"SBKG","flightCategory":"MVFR","rawOb":"METAR SBKG 180800Z 13003KT 9999 BKN015 23/22 Q1010","temp":23,"dewp":22,"wdir":130,"wspd":3,"visib":"6+","altim":1010,"clouds":[{"cover":"BKN","base":1500}],"obsTime":1776499200},"SBCO":{"icaoId":"SBCO","flightCategory":"VFR","rawOb":"METAR SBCO 180900Z 29007KT 9999 BKN045 20/17 Q1009","temp":20,"dewp":17,"wdir":290,"wspd":7,"visib":"6+","altim":1009,"clouds":[{"cover":"BKN","base":4500}],"obsTime":1776502800},"SBOI":{"icaoId":"SBOI","flightCategory":"VFR","rawOb":"METAR SBOI 180800Z AUTO 36001KT 9999 // SCT054/// BKN067/// 25/24 Q1007","temp":25,"dewp":24,"wdir":360,"wspd":1,"visib":"6+","altim":1007,"clouds":[{"cover":"SCT","base":5400},{"cover":"BKN","base":6700}],"obsTime":1776499200},"SBTA":{"icaoId":"SBTA","flightCategory":"VFR","rawOb":"METAR SBTA 180900Z 16004KT 120V190 CAVOK 18/16 Q1012","temp":18,"dewp":16,"wdir":160,"wspd":4,"visib":"6+","altim":1012,"clouds":[],"obsTime":1776502800},"SBJP":{"icaoId":"SBJP","flightCategory":"VFR","rawOb":"METAR SBJP 180800Z 16004KT 9999 SCT018 25/24 Q1008","temp":25,"dewp":24,"wdir":160,"wspd":4,"visib":"6+","altim":1008,"clouds":[{"cover":"SCT","base":1800}],"obsTime":1776499200},"SBAN":{"icaoId":"SBAN","flightCategory":"VFR","rawOb":"METAR SBAN 180800Z 34001KT CAVOK 19/17 Q1016","temp":19,"dewp":17,"wdir":340,"wspd":1,"visib":"6+","altim":1016,"clouds":[],"obsTime":1776499200},"SBLE":{"icaoId":"SBLE","flightCategory":"MVFR","rawOb":"METAR SBLE 180800Z AUTO 33002KT 9999 FEW015 OVC018 ///// Q////","temp":null,"dewp":null,"wdir":330,"wspd":2,"visib":"6+","altim":null,"clouds":[{"cover":"FEW","base":1500},{"cover":"OVC","base":1800}],"obsTime":1776499200},"SBJV":{"icaoId":"SBJV","flightCategory":"IFR","rawOb":"METAR SBJV 180900Z 28002KT 4000 BR FEW002 BKN008 21/21 Q1008","temp":21,"dewp":21,"wdir":280,"wspd":2,"visib":2.49,"altim":1008,"clouds":[{"cover":"FEW","base":200},{"cover":"BKN","base":800}],"obsTime":1776502800},"SBPF":{"icaoId":"SBPF","flightCategory":"VFR","rawOb":"METAR SBPF 180900Z 24009KT CAVOK 15/12 Q1012","temp":15,"dewp":12,"wdir":240,"wspd":9,"visib":"6+","altim":1012,"clouds":[],"obsTime":1776502800},"SBGW":{"icaoId":"SBGW","flightCategory":"VFR","rawOb":"METAR SBGW 180900Z 02002KT 9999 FEW010 17/13 Q1012","temp":17,"dewp":13,"wdir":20,"wspd":2,"visib":"6+","altim":1012,"clouds":[{"cover":"FEW","base":1000}],"obsTime":1776502800},"SBLS":{"icaoId":"SBLS","flightCategory":"VFR","rawOb":"METAR SBLS 180900Z 17003KT 110V180 9999 BCFG NSC 16/15 Q1014","temp":16,"dewp":15,"wdir":170,"wspd":3,"visib":"6+","altim":1014,"clouds":[],"obsTime":1776502800},"SBMT":{"icaoId":"SBMT","flightCategory":"VFR","rawOb":"METAR SBMT 180900Z 11006KT 070V150 9999 BKN040 20/16 Q1012","temp":20,"dewp":16,"wdir":110,"wspd":6,"visib":"6+","altim":1012,"clouds":[{"cover":"BKN","base":4000}],"obsTime":1776502800}}}