{"updated":1780176544,"count":84,"data":{"SBBE":{"icaoId":"SBBE","flightCategory":"IFR","rawOb":"SPECI SBBE 301941Z 03013G26KT 2000 RA FEW012 BKN014 FEW020TCU BKN100 27/25 Q1012","temp":27,"dewp":25,"wdir":30,"wspd":13,"visib":1.24,"altim":1012,"clouds":[{"cover":"FEW","base":1200},{"cover":"BKN","base":1400},{"cover":"FEW","base":2000},{"cover":"BKN","base":10000}],"obsTime":1780170060},"SBAT":{"icaoId":"SBAT","flightCategory":"VFR","rawOb":"METAR SBAT 302000Z 12005KT 9999 SCT035 34/20 Q1013","temp":34,"dewp":20,"wdir":120,"wspd":5,"visib":"6+","altim":1013,"clouds":[{"cover":"SCT","base":3500}],"obsTime":1780171200},"SBVT":{"icaoId":"SBVT","flightCategory":"VFR","rawOb":"METAR SBVT 302000Z 16005KT 9999 SCT045 BKN100 24/15 Q1019","temp":24,"dewp":15,"wdir":160,"wspd":5,"visib":"6+","altim":1019,"clouds":[{"cover":"SCT","base":4500},{"cover":"BKN","base":10000}],"obsTime":1780171200},"SBUR":{"icaoId":"SBUR","flightCategory":"VFR","rawOb":"METAR SBUR 302000Z 21005KT 9999 FEW048 26/15 Q1020","temp":26,"dewp":15,"wdir":210,"wspd":5,"visib":"6+","altim":1020,"clouds":[{"cover":"FEW","base":4800}],"obsTime":1780171200},"SBUL":{"icaoId":"SBUL","flightCategory":"VFR","rawOb":"METAR SBUL 302000Z 07007KT 030V110 9999 SCT049 24/14 Q1021","temp":24,"dewp":14,"wdir":70,"wspd":7,"visib":"6+","altim":1021,"clouds":[{"cover":"SCT","base":4900}],"obsTime":1780171200},"SBBR":{"icaoId":"SBBR","flightCategory":"VFR","rawOb":"METAR SBBR 302000Z 08006KT 9999 FEW030 23/15 Q1022","temp":23,"dewp":15,"wdir":80,"wspd":6,"visib":"6+","altim":1022,"clouds":[{"cover":"FEW","base":3000}],"obsTime":1780171200},"SBTE":{"icaoId":"SBTE","flightCategory":"VFR","rawOb":"METAR SBTE 302000Z 13006KT 9999 FEW030TCU BKN100 32/20 Q1011","temp":32,"dewp":20,"wdir":130,"wspd":6,"visib":"6+","altim":1011,"clouds":[{"cover":"FEW","base":3000},{"cover":"BKN","base":10000}],"obsTime":1780171200},"SBSV":{"icaoId":"SBSV","flightCategory":"MVFR","rawOb":"METAR SBSV 302000Z 17013KT 140V200 8000 -RA FEW008 SCT010 OVC018 25/23 Q1017 WS R10","temp":25,"dewp":23,"wdir":170,"wspd":13,"visib":4.97,"altim":1017,"clouds":[{"cover":"FEW","base":800},{"cover":"SCT","base":1000},{"cover":"OVC","base":1800}],"obsTime":1780171200},"SBSP":{"icaoId":"SBSP","flightCategory":"VFR","rawOb":"METAR SBSP 302000Z 21003KT 170V260 9000 NSC 21/16 Q1021","temp":21,"dewp":16,"wdir":210,"wspd":3,"visib":5.59,"altim":1021,"clouds":[],"obsTime":1780171200},"SBSN":{"icaoId":"SBSN","flightCategory":"VFR","rawOb":"METAR SBSN 302000Z 07006KT 9999 FEW030 SCT040TCU 31/25 Q1009","temp":31,"dewp":25,"wdir":70,"wspd":6,"visib":"6+","altim":1009,"clouds":[{"cover":"FEW","base":3000},{"cover":"SCT","base":4000}],"obsTime":1780171200},"SBBV":{"icaoId":"SBBV","flightCategory":"MVFR","rawOb":"METAR SBBV 302000Z 13010KT 6000 -RA BKN030 FEW035TCU BKN080 27/25 Q1011","temp":27,"dewp":25,"wdir":130,"wspd":10,"visib":3.73,"altim":1011,"clouds":[{"cover":"BKN","base":3000},{"cover":"FEW","base":3500},{"cover":"BKN","base":8000}],"obsTime":1780171200},"SBCB":{"icaoId":"SBCB","flightCategory":"VFR","rawOb":"METAR SBCB 302000Z /////KT 9999 FEW030 BKN070 23/17 Q1019","temp":23,"dewp":17,"wdir":null,"wspd":null,"visib":"6+","altim":1019,"clouds":[{"cover":"FEW","base":3000},{"cover":"BKN","base":7000}],"obsTime":1780171200},"SBSL":{"icaoId":"SBSL","flightCategory":"VFR","rawOb":"METAR SBSL 302000Z 23002KT 9999 SCT015 FEW020TCU BKN100 25/25 Q1012 RETS","temp":25,"dewp":25,"wdir":230,"wspd":2,"visib":"6+","altim":1012,"clouds":[{"cover":"SCT","base":1500},{"cover":"FEW","base":2000},{"cover":"BKN","base":10000}],"obsTime":1780171200},"SBSG":{"icaoId":"SBSG","flightCategory":"VFR","rawOb":"METAR SBSG 302000Z 13005KT 100V170 9999 SCT030 26/23 Q1014","temp":26,"dewp":23,"wdir":130,"wspd":5,"visib":"6+","altim":1014,"clouds":[{"cover":"SCT","base":3000}],"obsTime":1780171200},"SBCF":{"icaoId":"SBCF","flightCategory":"VFR","rawOb":"METAR SBCF 302000Z 07004KT 9999 FEW030 21/16 Q1022","temp":21,"dewp":16,"wdir":70,"wspd":4,"visib":"6+","altim":1022,"clouds":[{"cover":"FEW","base":3000}],"obsTime":1780171200},"SBRF":{"icaoId":"SBRF","flightCategory":"VFR","rawOb":"METAR SBRF 302000Z 12011KT 9999 SCT020 BKN060 27/24 Q1015","temp":27,"dewp":24,"wdir":120,"wspd":11,"visib":"6+","altim":1015,"clouds":[{"cover":"SCT","base":2000},{"cover":"BKN","base":6000}],"obsTime":1780171200},"SBCG":{"icaoId":"SBCG","flightCategory":"VFR","rawOb":"METAR SBCG 302000Z 20007KT 9999 FEW045 FEW050TCU 26/19 Q1019","temp":26,"dewp":19,"wdir":200,"wspd":7,"visib":"6+","altim":1019,"clouds":[{"cover":"FEW","base":4500},{"cover":"FEW","base":5000}],"obsTime":1780171200},"SBRB":{"icaoId":"SBRB","flightCategory":"VFR","rawOb":"METAR SBRB 302000Z 10002KT 9999 BKN040 30/22 Q1014","temp":30,"dewp":22,"wdir":100,"wspd":2,"visib":"6+","altim":1014,"clouds":[{"cover":"BKN","base":4000}],"obsTime":1780171200},"SBCP":{"icaoId":"SBCP","flightCategory":"VFR","rawOb":"METAR SBCP 302000Z 12005KT 9999 SCT015 OVC090 22/15 Q1020","temp":22,"dewp":15,"wdir":120,"wspd":5,"visib":"6+","altim":1020,"clouds":[{"cover":"SCT","base":1500},{"cover":"OVC","base":9000}],"obsTime":1780171200},"SBPV":{"icaoId":"SBPV","flightCategory":"VFR","rawOb":"METAR SBPV 302000Z 10006KT 9999 FEW030 34/19 Q1011","temp":34,"dewp":19,"wdir":100,"wspd":6,"visib":"6+","altim":1011,"clouds":[{"cover":"FEW","base":3000}],"obsTime":1780171200},"SBCR":{"icaoId":"SBCR","flightCategory":"VFR","rawOb":"METAR SBCR 302000Z 20007KT 170V240 9999 SCT045 30/20 Q1015","temp":30,"dewp":20,"wdir":200,"wspd":7,"visib":"6+","altim":1015,"clouds":[{"cover":"SCT","base":4500}],"obsTime":1780171200},"SBPJ":{"icaoId":"SBPJ","flightCategory":"VFR","rawOb":"METAR SBPJ 302000Z VRB02KT CAVOK 31/21 Q1014","temp":31,"dewp":21,"wdir":"VRB","wspd":2,"visib":"6+","altim":1014,"clouds":[],"obsTime":1780171200},"SBCT":{"icaoId":"SBCT","flightCategory":"VFR","rawOb":"METAR SBCT 302000Z 22006KT 9999 SCT030 17/11 Q1022","temp":17,"dewp":11,"wdir":220,"wspd":6,"visib":"6+","altim":1022,"clouds":[{"cover":"SCT","base":3000}],"obsTime":1780171200},"SBCZ":{"icaoId":"SBCZ","flightCategory":"VFR","rawOb":"METAR SBCZ 302000Z 17005KT 130V200 9999 BKN033 SCT100 32/23 Q1013","temp":32,"dewp":23,"wdir":170,"wspd":5,"visib":"6+","altim":1013,"clouds":[{"cover":"BKN","base":3300},{"cover":"SCT","base":10000}],"obsTime":1780171200},"SBPA":{"icaoId":"SBPA","flightCategory":"VFR","rawOb":"METAR SBPA 302000Z 24004KT 9999 FEW040 21/14 Q1019","temp":21,"dewp":14,"wdir":240,"wspd":4,"visib":"6+","altim":1019,"clouds":[{"cover":"FEW","base":4000}],"obsTime":1780171200},"SBEG":{"icaoId":"SBEG","flightCategory":"VFR","rawOb":"METAR SBEG 302000Z 29003KT 230V330 9999 SCT025 FEW030TCU SCT100 30/26 Q1010","temp":30,"dewp":26,"wdir":290,"wspd":3,"visib":"6+","altim":1010,"clouds":[{"cover":"SCT","base":2500},{"cover":"FEW","base":3000},{"cover":"SCT","base":10000}],"obsTime":1780171200},"SBNT":{"icaoId":"SBNT","flightCategory":"VFR","rawOb":"METAR SBNT 302000Z 13009KT 9999 FEW021 27/23 Q1014","temp":27,"dewp":23,"wdir":130,"wspd":9,"visib":"6+","altim":1014,"clouds":[{"cover":"FEW","base":2100}],"obsTime":1780171200},"SBFI":{"icaoId":"SBFI","flightCategory":"VFR","rawOb":"METAR SBFI 302000Z 15002KT 9999 FEW030 24/17 Q1019","temp":24,"dewp":17,"wdir":150,"wspd":2,"visib":"6+","altim":1019,"clouds":[{"cover":"FEW","base":3000}],"obsTime":1780171200},"SBMQ":{"icaoId":"SBMQ","flightCategory":"VFR","rawOb":"METAR SBMQ 302000Z 06009KT 9999 FEW014 FEW030TCU BKN083 29/25 Q1011","temp":29,"dewp":25,"wdir":60,"wspd":9,"visib":"6+","altim":1011,"clouds":[{"cover":"FEW","base":1400},{"cover":"FEW","base":3000},{"cover":"BKN","base":8300}],"obsTime":1780171200},"SBMO":{"icaoId":"SBMO","flightCategory":"VFR","rawOb":"METAR SBMO 302000Z 15009KT 9999 FEW026 SCT064 27/21 Q1015","temp":27,"dewp":21,"wdir":150,"wspd":9,"visib":"6+","altim":1015,"clouds":[{"cover":"FEW","base":2600},{"cover":"SCT","base":6400}],"obsTime":1780171200},"SBFL":{"icaoId":"SBFL","flightCategory":"VFR","rawOb":"METAR SBFL 302000Z 11007KT 9999 FEW014 SCT044 BKN080 19/17 Q1021","temp":19,"dewp":17,"wdir":110,"wspd":7,"visib":"6+","altim":1021,"clouds":[{"cover":"FEW","base":1400},{"cover":"SCT","base":4400},{"cover":"BKN","base":8000}],"obsTime":1780171200},"SBMK":{"icaoId":"SBMK","flightCategory":"VFR","rawOb":"METAR SBMK 302000Z 05006KT 9999 FEW045 23/16 Q1020","temp":23,"dewp":16,"wdir":50,"wspd":6,"visib":"6+","altim":1020,"clouds":[{"cover":"FEW","base":4500}],"obsTime":1780171200},"SBFZ":{"icaoId":"SBFZ","flightCategory":"VFR","rawOb":"METAR SBFZ 302000Z 10011KT 9999 VCSH SCT020 FEW030TCU 28/24 Q1012","temp":28,"dewp":24,"wdir":100,"wspd":11,"visib":"6+","altim":1012,"clouds":[{"cover":"SCT","base":2000},{"cover":"FEW","base":3000}],"obsTime":1780171200},"SBGL":{"icaoId":"SBGL","flightCategory":"VFR","rawOb":"METAR SBGL 302000Z 13005KT CAVOK 24/17 Q1017","temp":24,"dewp":17,"wdir":130,"wspd":5,"visib":"6+","altim":1017,"clouds":[],"obsTime":1780171200},"SBMG":{"icaoId":"SBMG","flightCategory":"VFR","rawOb":"METAR SBMG 302000Z 19006KT 9999 FEW045 22/15 Q1019","temp":22,"dewp":15,"wdir":190,"wspd":6,"visib":"6+","altim":1019,"clouds":[{"cover":"FEW","base":4500}],"obsTime":1780171200},"SBME":{"icaoId":"SBME","flightCategory":"VFR","rawOb":"METAR SBME 302000Z 06009KT CAVOK 23/17 Q1019","temp":23,"dewp":17,"wdir":60,"wspd":9,"visib":"6+","altim":1019,"clouds":[],"obsTime":1780171200},"SBGO":{"icaoId":"SBGO","flightCategory":"VFR","rawOb":"METAR SBGO 302000Z 15003KT 120V190 CAVOK 27/14 Q1019","temp":27,"dewp":14,"wdir":150,"wspd":3,"visib":"6+","altim":1019,"clouds":[],"obsTime":1780171200},"SBMA":{"icaoId":"SBMA","flightCategory":"VFR","rawOb":"METAR SBMA 302000Z 10004KT 9999 FEW026 32/20 Q1011","temp":32,"dewp":20,"wdir":100,"wspd":4,"visib":"6+","altim":1011,"clouds":[{"cover":"FEW","base":2600}],"obsTime":1780171200},"SBGR":{"icaoId":"SBGR","flightCategory":"VFR","rawOb":"METAR SBGR 302000Z 25004KT 220V280 9999 FEW033 BKN066 22/16 Q1020","temp":22,"dewp":16,"wdir":250,"wspd":4,"visib":"6+","altim":1020,"clouds":[{"cover":"FEW","base":3300},{"cover":"BKN","base":6600}],"obsTime":1780171200},"SBLO":{"icaoId":"SBLO","flightCategory":"VFR","rawOb":"METAR SBLO 302000Z 04003KT 9999 BKN040 22/15 Q1020","temp":22,"dewp":15,"wdir":40,"wspd":3,"visib":"6+","altim":1020,"clouds":[{"cover":"BKN","base":4000}],"obsTime":1780171200},"SBHT":{"icaoId":"SBHT","flightCategory":"VFR","rawOb":"METAR SBHT 302000Z 10005KT 9999 SCT030 30/26 Q1010","temp":30,"dewp":26,"wdir":100,"wspd":5,"visib":"6+","altim":1010,"clouds":[{"cover":"SCT","base":3000}],"obsTime":1780171200},"SBKP":{"icaoId":"SBKP","flightCategory":"VFR","rawOb":"METAR SBKP 302000Z 24006KT CAVOK 23/16 Q1020","temp":23,"dewp":16,"wdir":240,"wspd":6,"visib":"6+","altim":1020,"clouds":[],"obsTime":1780171200},"SBJU":{"icaoId":"SBJU","flightCategory":"VFR","rawOb":"METAR SBJU 302000Z 00000KT 9999 SCT022 27/22 Q1015","temp":27,"dewp":22,"wdir":0,"wspd":0,"visib":"6+","altim":1015,"clouds":[{"cover":"SCT","base":2200}],"obsTime":1780171200},"SBIL":{"icaoId":"SBIL","flightCategory":"VFR","rawOb":"METAR SBIL 302000Z 22004KT 180V250 9999 SCT045 26/21 Q1018","temp":26,"dewp":21,"wdir":220,"wspd":4,"visib":"6+","altim":1018,"clouds":[{"cover":"SCT","base":4500}],"obsTime":1780171200},"SBVH":{"icaoId":"SBVH","flightCategory":"VFR","rawOb":"METAR SBVH 302000Z 08003KT 9999 FEW040 29/17 Q1016","temp":29,"dewp":17,"wdir":80,"wspd":3,"visib":"6+","altim":1016,"clouds":[{"cover":"FEW","base":4000}],"obsTime":1780171200},"SBAX":{"icaoId":"SBAX","flightCategory":"VFR","rawOb":"METAR SBAX 302000Z AUTO 02004KT 340V050 CAVOK 23/15 Q1021","temp":23,"dewp":15,"wdir":20,"wspd":4,"visib":"6+","altim":1021,"clouds":[],"obsTime":1780171200},"SBBH":{"icaoId":"SBBH","flightCategory":"VFR","rawOb":"METAR SBBH 302000Z 06006KT 9999 FEW049 22/16 Q1022","temp":22,"dewp":16,"wdir":60,"wspd":6,"visib":"6+","altim":1022,"clouds":[{"cover":"FEW","base":4900}],"obsTime":1780171200},"SBBU":{"icaoId":"SBBU","flightCategory":"VFR","rawOb":"METAR SBBU 302000Z 20004KT CAVOK 25/15 Q1020","temp":25,"dewp":15,"wdir":200,"wspd":4,"visib":"6+","altim":1020,"clouds":[],"obsTime":1780171200},"SBCA":{"icaoId":"SBCA","flightCategory":"MVFR","rawOb":"METAR SBCA 302000Z 20003KT 9999 BKN020 FEW025TCU 19/15 Q1022","temp":19,"dewp":15,"wdir":200,"wspd":3,"visib":"6+","altim":1022,"clouds":[{"cover":"BKN","base":2000},{"cover":"FEW","base":2500}],"obsTime":1780171200},"SBCJ":{"icaoId":"SBCJ","flightCategory":"VFR","rawOb":"METAR SBCJ 302000Z 13006KT 9999 FEW020 SCT100 29/18 Q1016","temp":29,"dewp":18,"wdir":130,"wspd":6,"visib":"6+","altim":1016,"clouds":[{"cover":"FEW","base":2000},{"cover":"SCT","base":10000}],"obsTime":1780171200},"SBCO":{"icaoId":"SBCO","flightCategory":"VFR","rawOb":"METAR SBCO 302000Z 00000KT CAVOK 19/15 Q1020","temp":19,"dewp":15,"wdir":0,"wspd":0,"visib":"6+","altim":1020,"clouds":[],"obsTime":1780171200},"SBDN":{"icaoId":"SBDN","flightCategory":"VFR","rawOb":"METAR SBDN 302000Z 15005KT CAVOK 25/15 Q1019","temp":25,"dewp":15,"wdir":150,"wspd":5,"visib":"6+","altim":1019,"clouds":[],"obsTime":1780171200},"SBES":{"icaoId":"SBES","flightCategory":"VFR","rawOb":"METAR SBES 302000Z 07009KT 040V100 9999 FEW030 SCT070 22/// Q1019","temp":null,"dewp":null,"wdir":70,"wspd":9,"visib":"6+","altim":1019,"clouds":[{"cover":"FEW","base":3000},{"cover":"SCT","base":7000}],"obsTime":1780171200},"SBIP":{"icaoId":"SBIP","flightCategory":"VFR","rawOb":"METAR SBIP 302000Z AUTO 00000KT CAVOK 22/18 Q1020","temp":22,"dewp":18,"wdir":0,"wspd":0,"visib":"6+","altim":1020,"clouds":[],"obsTime":1780171200},"SBKG":{"icaoId":"SBKG","flightCategory":"VFR","rawOb":"METAR SBKG 302000Z 09008KT 9999 SCT025 25/22 Q1017","temp":25,"dewp":22,"wdir":90,"wspd":8,"visib":"6+","altim":1017,"clouds":[{"cover":"SCT","base":2500}],"obsTime":1780171200},"SBOI":{"icaoId":"SBOI","flightCategory":"IFR","rawOb":"METAR SBOI 302000Z AUTO VRB04KT 4000 +RA BKN023 26/25 Q1012","temp":26,"dewp":25,"wdir":"VRB","wspd":4,"visib":2.49,"altim":1012,"clouds":[{"cover":"BKN","base":2300}],"obsTime":1780171200},"SBPB":{"icaoId":"SBPB","flightCategory":"VFR","rawOb":"METAR SBPB 302000Z 10007KT 9999 FEW016 BKN090 29/25 Q1012","temp":29,"dewp":25,"wdir":100,"wspd":7,"visib":"6+","altim":1012,"clouds":[{"cover":"FEW","base":1600},{"cover":"BKN","base":9000}],"obsTime":1780171200},"SBPL":{"icaoId":"SBPL","flightCategory":"VFR","rawOb":"METAR SBPL 302000Z 13009KT 9999 FEW030 32/15 Q1014","temp":32,"dewp":15,"wdir":130,"wspd":9,"visib":"6+","altim":1014,"clouds":[{"cover":"FEW","base":3000}],"obsTime":1780171200},"SBPP":{"icaoId":"SBPP","flightCategory":"VFR","rawOb":"METAR SBPP 302000Z 22009KT 9999 FEW015 21/18 Q1020","temp":21,"dewp":18,"wdir":220,"wspd":9,"visib":"6+","altim":1020,"clouds":[{"cover":"FEW","base":1500}],"obsTime":1780171200},"SBPS":{"icaoId":"SBPS","flightCategory":"VFR","rawOb":"METAR SBPS 302000Z VRB04KT 9999 SCT025 24/20 Q1019","temp":24,"dewp":20,"wdir":"VRB","wspd":4,"visib":"6+","altim":1019,"clouds":[{"cover":"SCT","base":2500}],"obsTime":1780171200},"SBSC":{"icaoId":"SBSC","flightCategory":"VFR","rawOb":"METAR SBSC 302000Z 06003KT 9999 FEW030 SCT070 24/18 Q1017","temp":24,"dewp":18,"wdir":60,"wspd":3,"visib":"6+","altim":1017,"clouds":[{"cover":"FEW","base":3000},{"cover":"SCT","base":7000}],"obsTime":1780171200},"SBSJ":{"icaoId":"SBSJ","flightCategory":"VFR","rawOb":"METAR SBSJ 302000Z 30003KT CAVOK 21/16 Q1020","temp":21,"dewp":16,"wdir":300,"wspd":3,"visib":"6+","altim":1020,"clouds":[],"obsTime":1780171200},"SBSM":{"icaoId":"SBSM","flightCategory":"MVFR","rawOb":"METAR SBSM 302000Z 18002KT 9999 SCT011 BKN015 18/16 Q1020","temp":18,"dewp":16,"wdir":180,"wspd":2,"visib":"6+","altim":1020,"clouds":[{"cover":"SCT","base":1100},{"cover":"BKN","base":1500}],"obsTime":1780171200},"SBSR":{"icaoId":"SBSR","flightCategory":"VFR","rawOb":"METAR SBSR 302000Z 24006KT CAVOK 28/11 Q1018","temp":28,"dewp":11,"wdir":240,"wspd":6,"visib":"6+","altim":1018,"clouds":[],"obsTime":1780171200},"SBTF":{"icaoId":"SBTF","flightCategory":"VFR","rawOb":"METAR SBTF 302000Z 16004KT 9999 FEW023 31/26 Q1010","temp":31,"dewp":26,"wdir":160,"wspd":4,"visib":"6+","altim":1010,"clouds":[{"cover":"FEW","base":2300}],"obsTime":1780171200},"SBTT":{"icaoId":"SBTT","flightCategory":"VFR","rawOb":"METAR SBTT 302000Z 35006KT 9999 SCT010 25/23 Q1013","temp":25,"dewp":23,"wdir":350,"wspd":6,"visib":"6+","altim":1013,"clouds":[{"cover":"SCT","base":1000}],"obsTime":1780171200},"SBTU":{"icaoId":"SBTU","flightCategory":"VFR","rawOb":"METAR SBTU 302000Z AUTO 35007KT 9999 // FEW038/// 30/23 Q1012","temp":30,"dewp":23,"wdir":350,"wspd":7,"visib":"6+","altim":1012,"clouds":[{"cover":"FEW","base":3800}],"obsTime":1780171200},"SBUY":{"icaoId":"SBUY","flightCategory":"VFR","rawOb":"METAR SBUY 302000Z 20002KT 9999 SCT025 31/24 Q1010","temp":31,"dewp":24,"wdir":200,"wspd":2,"visib":"6+","altim":1010,"clouds":[{"cover":"SCT","base":2500}],"obsTime":1780171200},"SBAR":{"icaoId":"SBAR","flightCategory":"VFR","rawOb":"METAR SBAR 302000Z 15008KT 9999 SCT033 28/21 Q1016","temp":28,"dewp":21,"wdir":150,"wspd":8,"visib":"6+","altim":1016,"clouds":[{"cover":"SCT","base":3300}],"obsTime":1780171200},"SBCC":{"icaoId":"SBCC","flightCategory":"MVFR","rawOb":"METAR SBCC 302000Z 10008KT 9999 BKN020 30/17 Q1014","temp":30,"dewp":17,"wdir":100,"wspd":8,"visib":"6+","altim":1014,"clouds":[{"cover":"BKN","base":2000}],"obsTime":1780171200},"SBLE":{"icaoId":"SBLE","flightCategory":"VFR","rawOb":"METAR SBLE 302000Z AUTO 15003KT 120V180 9999 FEW024 BKN043 ///// Q////","temp":null,"dewp":null,"wdir":150,"wspd":3,"visib":"6+","altim":null,"clouds":[{"cover":"FEW","base":2400},{"cover":"BKN","base":4300}],"obsTime":1780171200},"SBJP":{"icaoId":"SBJP","flightCategory":"VFR","rawOb":"METAR SBJP 302000Z 11008KT 9999 FEW023 27/23 Q1014","temp":27,"dewp":23,"wdir":110,"wspd":8,"visib":"6+","altim":1014,"clouds":[{"cover":"FEW","base":2300}],"obsTime":1780171200},"SBAN":{"icaoId":"SBAN","flightCategory":"VFR","rawOb":"METAR SBAN 302000Z 22004KT 9999 FEW020 24/14 Q1022","temp":24,"dewp":14,"wdir":220,"wspd":4,"visib":"6+","altim":1022,"clouds":[{"cover":"FEW","base":2000}],"obsTime":1780171200},"SBIH":{"icaoId":"SBIH","flightCategory":"VFR","rawOb":"METAR SBIH 302000Z 01004KT 9999 -TSRA FEW018 FEW025CB BKN100 26/25 Q1010 RERA","temp":26,"dewp":25,"wdir":10,"wspd":4,"visib":"6+","altim":1010,"clouds":[{"cover":"FEW","base":1800},{"cover":"FEW","base":2500},{"cover":"BKN","base":10000}],"obsTime":1780171200},"SBJV":{"icaoId":"SBJV","flightCategory":"MVFR","rawOb":"METAR SBJV 302000Z 13004KT 9999 BKN025 20/17 Q1020","temp":20,"dewp":17,"wdir":130,"wspd":4,"visib":"6+","altim":1020,"clouds":[{"cover":"BKN","base":2500}],"obsTime":1780171200},"SBNM":{"icaoId":"SBNM","flightCategory":"IFR","rawOb":"METAR SBNM 302000Z AUTO 18003KT 9999 OVC009 17/16 Q1021","temp":17,"dewp":16,"wdir":180,"wspd":3,"visib":"6+","altim":1021,"clouds":[{"cover":"OVC","base":900}],"obsTime":1780171200},"SBAF":{"icaoId":"SBAF","flightCategory":"VFR","rawOb":"METAR SBAF 302000Z 07006KT 9999 FEW040 25/16 Q1018","temp":25,"dewp":16,"wdir":70,"wspd":6,"visib":"6+","altim":1018,"clouds":[{"cover":"FEW","base":4000}],"obsTime":1780171200},"SBGW":{"icaoId":"SBGW","flightCategory":"VFR","rawOb":"METAR SBGW 302000Z 05005KT 360V080 CAVOK 23/14 Q1019","temp":23,"dewp":14,"wdir":50,"wspd":5,"visib":"6+","altim":1019,"clouds":[],"obsTime":1780171200},"SBJR":{"icaoId":"SBJR","flightCategory":"VFR","rawOb":"METAR SBJR 302000Z 12004KT 9999 FEW040 SCT080 25/17 Q1017","temp":25,"dewp":17,"wdir":120,"wspd":4,"visib":"6+","altim":1017,"clouds":[{"cover":"FEW","base":4000},{"cover":"SCT","base":8000}],"obsTime":1780171200},"SBLS":{"icaoId":"SBLS","flightCategory":"VFR","rawOb":"METAR SBLS 302000Z 11004KT 050V130 CAVOK 21/16 Q1022","temp":21,"dewp":16,"wdir":110,"wspd":4,"visib":"6+","altim":1022,"clouds":[],"obsTime":1780171200},"SBMT":{"icaoId":"SBMT","flightCategory":"VFR","rawOb":"METAR SBMT 302000Z 27005KT CAVOK 22/15 Q1020","temp":22,"dewp":15,"wdir":270,"wspd":5,"visib":"6+","altim":1020,"clouds":[],"obsTime":1780171200},"SBST":{"icaoId":"SBST","flightCategory":"MVFR","rawOb":"METAR SBST 302000Z 25006KT 9999 OVC026 20/17 Q1019","temp":20,"dewp":17,"wdir":250,"wspd":6,"visib":"6+","altim":1019,"clouds":[{"cover":"OVC","base":2600}],"obsTime":1780171200},"SBTA":{"icaoId":"SBTA","flightCategory":"VFR","rawOb":"METAR SBTA 302000Z 34003KT 9999 FEW030 SCT060 22/16 Q1019","temp":22,"dewp":16,"wdir":340,"wspd":3,"visib":"6+","altim":1019,"clouds":[{"cover":"FEW","base":3000},{"cover":"SCT","base":6000}],"obsTime":1780171200},"SBTC":{"icaoId":"SBTC","flightCategory":"VFR","rawOb":"METAR SBTC 302000Z 19010KT 9999 FEW025 SCT080 26/20 Q1018","temp":26,"dewp":20,"wdir":190,"wspd":10,"visib":"6+","altim":1018,"clouds":[{"cover":"FEW","base":2500},{"cover":"SCT","base":8000}],"obsTime":1780171200}}}