{"updated":1779641231,"count":87,"data":{"SBSN":{"icaoId":"SBSN","flightCategory":"IFR","rawOb":"METAR SBSN 241500Z 04009KT 3000 TSRA BR FEW004 BKN008 FEW025CB OVC070 25/24 Q1014","temp":25,"dewp":24,"wdir":40,"wspd":9,"visib":1.86,"altim":1014,"clouds":[{"cover":"FEW","base":400},{"cover":"BKN","base":800},{"cover":"FEW","base":2500},{"cover":"OVC","base":7000}],"obsTime":1779634800},"SBEG":{"icaoId":"SBEG","flightCategory":"MVFR","rawOb":"METAR SBEG 241500Z 21004KT 150V250 9999 -RA BKN010 BKN090 25/23 Q1015","temp":25,"dewp":23,"wdir":210,"wspd":4,"visib":"6+","altim":1015,"clouds":[{"cover":"BKN","base":1000},{"cover":"BKN","base":9000}],"obsTime":1779634800},"SBME":{"icaoId":"SBME","flightCategory":"VFR","rawOb":"METAR SBME 241500Z 12005KT 9999 FEW025 29/20 Q1018","temp":29,"dewp":20,"wdir":120,"wspd":5,"visib":"6+","altim":1018,"clouds":[{"cover":"FEW","base":2500}],"obsTime":1779634800},"SBFI":{"icaoId":"SBFI","flightCategory":"VFR","rawOb":"METAR SBFI 241500Z 06002KT 9999 FEW015 BKN070 22/18 Q1019","temp":22,"dewp":18,"wdir":60,"wspd":2,"visib":"6+","altim":1019,"clouds":[{"cover":"FEW","base":1500},{"cover":"BKN","base":7000}],"obsTime":1779634800},"SBMG":{"icaoId":"SBMG","flightCategory":"VFR","rawOb":"METAR SBMG 241500Z 36005KT 310V100 9999 FEW020 23/18 Q1019","temp":23,"dewp":18,"wdir":360,"wspd":5,"visib":"6+","altim":1019,"clouds":[{"cover":"FEW","base":2000}],"obsTime":1779634800},"SBBE":{"icaoId":"SBBE","flightCategory":"VFR","rawOb":"METAR SBBE 241500Z 06004KT 9999 FEW019 SCT025 BKN100 29/24 Q1013","temp":29,"dewp":24,"wdir":60,"wspd":4,"visib":"6+","altim":1013,"clouds":[{"cover":"FEW","base":1900},{"cover":"SCT","base":2500},{"cover":"BKN","base":10000}],"obsTime":1779634800},"SBMK":{"icaoId":"SBMK","flightCategory":"VFR","rawOb":"METAR SBMK 241500Z 13007KT 9999 BKN035 26/16 Q1021","temp":26,"dewp":16,"wdir":130,"wspd":7,"visib":"6+","altim":1021,"clouds":[{"cover":"BKN","base":3500}],"obsTime":1779634800},"SBCG":{"icaoId":"SBCG","flightCategory":"VFR","rawOb":"METAR SBCG 241500Z 07010KT 9999 FEW013 SCT100 23/19 Q1019","temp":23,"dewp":19,"wdir":70,"wspd":10,"visib":"6+","altim":1019,"clouds":[{"cover":"FEW","base":1300},{"cover":"SCT","base":10000}],"obsTime":1779634800},"SBMO":{"icaoId":"SBMO","flightCategory":"VFR","rawOb":"METAR SBMO 241500Z 10007KT 9999 FEW030 SCT050 29/19 Q1014","temp":29,"dewp":19,"wdir":100,"wspd":7,"visib":"6+","altim":1014,"clouds":[{"cover":"FEW","base":3000},{"cover":"SCT","base":5000}],"obsTime":1779634800},"SBFL":{"icaoId":"SBFL","flightCategory":"MVFR","rawOb":"METAR SBFL 241500Z 20018KT 9999 4000S VCSH BKN025 BKN090 20/16 Q1020","temp":20,"dewp":16,"wdir":200,"wspd":18,"visib":"6+","altim":1020,"clouds":[{"cover":"BKN","base":2500},{"cover":"BKN","base":9000}],"obsTime":1779634800},"SBMQ":{"icaoId":"SBMQ","flightCategory":"VFR","rawOb":"METAR SBMQ 241500Z 02006KT 9999 -RA SCT014 28/25 Q1014","temp":28,"dewp":25,"wdir":20,"wspd":6,"visib":"6+","altim":1014,"clouds":[{"cover":"SCT","base":1400}],"obsTime":1779634800},"SBLO":{"icaoId":"SBLO","flightCategory":"IFR","rawOb":"METAR SBLO 241500Z 12003KT 4000 BR OVC005 19/18 Q1020","temp":19,"dewp":18,"wdir":120,"wspd":3,"visib":2.49,"altim":1020,"clouds":[{"cover":"OVC","base":500}],"obsTime":1779634800},"SBKP":{"icaoId":"SBKP","flightCategory":"VFR","rawOb":"METAR SBKP 241500Z 01006KT 330V050 9999 FEW040 24/19 Q1021","temp":24,"dewp":19,"wdir":10,"wspd":6,"visib":"6+","altim":1021,"clouds":[{"cover":"FEW","base":4000}],"obsTime":1779634800},"SBCF":{"icaoId":"SBCF","flightCategory":"VFR","rawOb":"METAR SBCF 241500Z 09003KT 9999 SCT030 25/16 Q1023","temp":25,"dewp":16,"wdir":90,"wspd":3,"visib":"6+","altim":1023,"clouds":[{"cover":"SCT","base":3000}],"obsTime":1779634800},"SBMA":{"icaoId":"SBMA","flightCategory":"VFR","rawOb":"METAR SBMA 241500Z 10004KT 9999 FEW023 33/21 Q1013","temp":33,"dewp":21,"wdir":100,"wspd":4,"visib":"6+","altim":1013,"clouds":[{"cover":"FEW","base":2300}],"obsTime":1779634800},"SBNT":{"icaoId":"SBNT","flightCategory":"MVFR","rawOb":"METAR SBNT 241500Z 13013KT 9999 VCSH BKN030 FEW034TCU BKN050 29/23 Q1013 RESHRA","temp":29,"dewp":23,"wdir":130,"wspd":13,"visib":"6+","altim":1013,"clouds":[{"cover":"BKN","base":3000},{"cover":"FEW","base":3400},{"cover":"BKN","base":5000}],"obsTime":1779634800},"SBPA":{"icaoId":"SBPA","flightCategory":"VFR","rawOb":"METAR SBPA 241500Z 12008KT 080V150 9999 SCT017 BKN037 19/15 Q1022","temp":19,"dewp":15,"wdir":120,"wspd":8,"visib":"6+","altim":1022,"clouds":[{"cover":"SCT","base":1700},{"cover":"BKN","base":3700}],"obsTime":1779634800},"SBBV":{"icaoId":"SBBV","flightCategory":"MVFR","rawOb":"METAR SBBV 241500Z 01004KT 9999 SCT014 BKN020 FEW030TCU BKN080 28/24 Q1015","temp":28,"dewp":24,"wdir":10,"wspd":4,"visib":"6+","altim":1015,"clouds":[{"cover":"SCT","base":1400},{"cover":"BKN","base":2000},{"cover":"FEW","base":3000},{"cover":"BKN","base":8000}],"obsTime":1779634800},"SBFZ":{"icaoId":"SBFZ","flightCategory":"VFR","rawOb":"METAR SBFZ 241500Z 14011KT 9999 SCT030 31/21 Q1012","temp":31,"dewp":21,"wdir":140,"wspd":11,"visib":"6+","altim":1012,"clouds":[{"cover":"SCT","base":3000}],"obsTime":1779634800},"SBPJ":{"icaoId":"SBPJ","flightCategory":"VFR","rawOb":"METAR SBPJ 241500Z 11007KT 9999 SCT033 32/18 Q1015","temp":32,"dewp":18,"wdir":110,"wspd":7,"visib":"6+","altim":1015,"clouds":[{"cover":"SCT","base":3300}],"obsTime":1779634800},"SBCP":{"icaoId":"SBCP","flightCategory":"VFR","rawOb":"METAR SBCP 241500Z 36007KT 9999 SCT020 28/19 Q1019","temp":28,"dewp":19,"wdir":360,"wspd":7,"visib":"6+","altim":1019,"clouds":[{"cover":"SCT","base":2000}],"obsTime":1779634800},"SBPV":{"icaoId":"SBPV","flightCategory":"VFR","rawOb":"METAR SBPV 241500Z 17006KT 9999 FEW010 25/22 Q1016","temp":25,"dewp":22,"wdir":170,"wspd":6,"visib":"6+","altim":1016,"clouds":[{"cover":"FEW","base":1000}],"obsTime":1779634800},"SBRB":{"icaoId":"SBRB","flightCategory":"VFR","rawOb":"METAR SBRB 241500Z 13007KT CAVOK 24/18 Q1018","temp":24,"dewp":18,"wdir":130,"wspd":7,"visib":"6+","altim":1018,"clouds":[],"obsTime":1779634800},"SBGL":{"icaoId":"SBGL","flightCategory":"MVFR","rawOb":"METAR SBGL 241500Z 02005KT 350V070 6000 FEW018 26/20 Q1018","temp":26,"dewp":20,"wdir":20,"wspd":5,"visib":3.73,"altim":1018,"clouds":[{"cover":"FEW","base":1800}],"obsTime":1779634800},"SBAT":{"icaoId":"SBAT","flightCategory":"VFR","rawOb":"METAR SBAT 241500Z 14007KT 9999 FEW025 32/22 Q1015","temp":32,"dewp":22,"wdir":140,"wspd":7,"visib":"6+","altim":1015,"clouds":[{"cover":"FEW","base":2500}],"obsTime":1779634800},"SBRF":{"icaoId":"SBRF","flightCategory":"VFR","rawOb":"METAR SBRF 241500Z 16012KT 9999 FEW023 FEW025TCU SCT100 29/22 Q1013","temp":29,"dewp":22,"wdir":160,"wspd":12,"visib":"6+","altim":1013,"clouds":[{"cover":"FEW","base":2300},{"cover":"FEW","base":2500},{"cover":"SCT","base":10000}],"obsTime":1779634800},"SBGO":{"icaoId":"SBGO","flightCategory":"VFR","rawOb":"METAR SBGO 241500Z 07007KT 040V120 9999 BKN035 SCT050 27/18 Q1021","temp":27,"dewp":18,"wdir":70,"wspd":7,"visib":"6+","altim":1021,"clouds":[{"cover":"BKN","base":3500},{"cover":"SCT","base":5000}],"obsTime":1779634800},"SBSG":{"icaoId":"SBSG","flightCategory":"MVFR","rawOb":"METAR SBSG 241500Z 14004KT 090V190 9999 VCSH BKN023 27/23 Q1013","temp":27,"dewp":23,"wdir":140,"wspd":4,"visib":"6+","altim":1013,"clouds":[{"cover":"BKN","base":2300}],"obsTime":1779634800},"SBCR":{"icaoId":"SBCR","flightCategory":"VFR","rawOb":"METAR SBCR 241500Z 31004KT 280V360 CAVOK 23/17 Q1017","temp":23,"dewp":17,"wdir":310,"wspd":4,"visib":"6+","altim":1017,"clouds":[],"obsTime":1779634800},"SBSL":{"icaoId":"SBSL","flightCategory":"VFR","rawOb":"METAR SBSL 241500Z 35005KT 9999 SCT022 FEW024TCU SCT100 29/24 Q1012","temp":29,"dewp":24,"wdir":350,"wspd":5,"visib":"6+","altim":1012,"clouds":[{"cover":"SCT","base":2200},{"cover":"FEW","base":2400},{"cover":"SCT","base":10000}],"obsTime":1779634800},"SBGR":{"icaoId":"SBGR","flightCategory":"MVFR","rawOb":"METAR SBGR 241500Z 31005KT 9999 BKN025 24/18 Q1021","temp":24,"dewp":18,"wdir":310,"wspd":5,"visib":"6+","altim":1021,"clouds":[{"cover":"BKN","base":2500}],"obsTime":1779634800},"SBHT":{"icaoId":"SBHT","flightCategory":"MVFR","rawOb":"METAR SBHT 241500Z 08005KT 9999 BKN015 BKN080 29/25 Q1013","temp":29,"dewp":25,"wdir":80,"wspd":5,"visib":"6+","altim":1013,"clouds":[{"cover":"BKN","base":1500},{"cover":"BKN","base":8000}],"obsTime":1779634800},"SBSP":{"icaoId":"SBSP","flightCategory":"MVFR","rawOb":"METAR SBSP 241500Z 33008KT 280V010 9999 BKN020 23/18 Q1022","temp":23,"dewp":18,"wdir":330,"wspd":8,"visib":"6+","altim":1022,"clouds":[{"cover":"BKN","base":2000}],"obsTime":1779634800},"SBCB":{"icaoId":"SBCB","flightCategory":"VFR","rawOb":"METAR SBCB 241500Z 23006KT CAVOK 25/19 Q1019","temp":25,"dewp":19,"wdir":230,"wspd":6,"visib":"6+","altim":1019,"clouds":[],"obsTime":1779634800},"SBSV":{"icaoId":"SBSV","flightCategory":"VFR","rawOb":"METAR SBSV 241500Z 11012KT 9999 VCSH SCT021 FEW023TCU 29/23 Q1015","temp":29,"dewp":23,"wdir":110,"wspd":12,"visib":"6+","altim":1015,"clouds":[{"cover":"SCT","base":2100},{"cover":"FEW","base":2300}],"obsTime":1779634800},"SBIL":{"icaoId":"SBIL","flightCategory":"VFR","rawOb":"METAR SBIL 241500Z 20014G24KT 9999 SCT025 FEW027TCU 28/23 Q1018","temp":28,"dewp":23,"wdir":200,"wspd":14,"visib":"6+","altim":1018,"clouds":[{"cover":"SCT","base":2500},{"cover":"FEW","base":2700}],"obsTime":1779634800},"SBTE":{"icaoId":"SBTE","flightCategory":"MVFR","rawOb":"METAR SBTE 241500Z 12006KT 9999 BKN020 31/22 Q1012","temp":31,"dewp":22,"wdir":120,"wspd":6,"visib":"6+","altim":1012,"clouds":[{"cover":"BKN","base":2000}],"obsTime":1779634800},"SBUL":{"icaoId":"SBUL","flightCategory":"VFR","rawOb":"METAR SBUL 241500Z 08009KT 9999 FEW020 23/17 Q1023","temp":23,"dewp":17,"wdir":80,"wspd":9,"visib":"6+","altim":1023,"clouds":[{"cover":"FEW","base":2000}],"obsTime":1779634800},"SBCT":{"icaoId":"SBCT","flightCategory":"IFR","rawOb":"METAR SBCT 241500Z 33003KT 7000 BKN008 17/16 Q1022","temp":17,"dewp":16,"wdir":330,"wspd":3,"visib":4.35,"altim":1022,"clouds":[{"cover":"BKN","base":800}],"obsTime":1779634800},"SBUR":{"icaoId":"SBUR","flightCategory":"VFR","rawOb":"METAR SBUR 241500Z 01008KT CAVOK 25/17 Q1021","temp":25,"dewp":17,"wdir":10,"wspd":8,"visib":"6+","altim":1021,"clouds":[],"obsTime":1779634800},"SBCZ":{"icaoId":"SBCZ","flightCategory":"VFR","rawOb":"METAR SBCZ 241500Z 12010KT 9999 SCT015 24/18 Q1018","temp":24,"dewp":18,"wdir":120,"wspd":10,"visib":"6+","altim":1018,"clouds":[{"cover":"SCT","base":1500}],"obsTime":1779634800},"SBVT":{"icaoId":"SBVT","flightCategory":"VFR","rawOb":"METAR SBVT 241500Z 07007KT 9999 SCT035 26/19 Q1019","temp":26,"dewp":19,"wdir":70,"wspd":7,"visib":"6+","altim":1019,"clouds":[{"cover":"SCT","base":3500}],"obsTime":1779634800},"SBJU":{"icaoId":"SBJU","flightCategory":"VFR","rawOb":"METAR SBJU 241500Z 18013KT 9999 SCT022 30/18 Q1016","temp":30,"dewp":18,"wdir":180,"wspd":13,"visib":"6+","altim":1016,"clouds":[{"cover":"SCT","base":2200}],"obsTime":1779634800},"SBBR":{"icaoId":"SBBR","flightCategory":"MVFR","rawOb":"METAR SBBR 241500Z 10009KT 9999 BKN011 21/17 Q1023","temp":21,"dewp":17,"wdir":100,"wspd":9,"visib":"6+","altim":1023,"clouds":[{"cover":"BKN","base":1100}],"obsTime":1779634800},"SBOI":{"icaoId":"SBOI","flightCategory":"MVFR","rawOb":"METAR SBOI 241500Z AUTO 18004KT 120V220 7000 +RA FEW005 SCT015 OVC029 25/25 Q1014","temp":25,"dewp":25,"wdir":180,"wspd":4,"visib":4.35,"altim":1014,"clouds":[{"cover":"FEW","base":500},{"cover":"SCT","base":1500},{"cover":"OVC","base":2900}],"obsTime":1779634800},"SBPB":{"icaoId":"SBPB","flightCategory":"VFR","rawOb":"METAR SBPB 241500Z 10006KT 9999 FEW020 31/24 Q1012","temp":31,"dewp":24,"wdir":100,"wspd":6,"visib":"6+","altim":1012,"clouds":[{"cover":"FEW","base":2000}],"obsTime":1779634800},"SBPL":{"icaoId":"SBPL","flightCategory":"VFR","rawOb":"METAR SBPL 241500Z 09009KT 9999 SCT030 30/18 Q1016","temp":30,"dewp":18,"wdir":90,"wspd":9,"visib":"6+","altim":1016,"clouds":[{"cover":"SCT","base":3000}],"obsTime":1779634800},"SBAR":{"icaoId":"SBAR","flightCategory":"VFR","rawOb":"METAR SBAR 241500Z 11012KT 9999 FEW025 29/21 Q1015","temp":29,"dewp":21,"wdir":110,"wspd":12,"visib":"6+","altim":1015,"clouds":[{"cover":"FEW","base":2500}],"obsTime":1779634800},"SBCO":{"icaoId":"SBCO","flightCategory":"VFR","rawOb":"METAR SBCO 241500Z 11010KT 9999 SCT019 BKN043 19/14 Q1022","temp":19,"dewp":14,"wdir":110,"wspd":10,"visib":"6+","altim":1022,"clouds":[{"cover":"SCT","base":1900},{"cover":"BKN","base":4300}],"obsTime":1779634800},"SBPP":{"icaoId":"SBPP","flightCategory":"VFR","rawOb":"METAR SBPP 241500Z 05009KT 9999 SCT015 20/18 Q1020","temp":20,"dewp":18,"wdir":50,"wspd":9,"visib":"6+","altim":1020,"clouds":[{"cover":"SCT","base":1500}],"obsTime":1779634800},"SBBU":{"icaoId":"SBBU","flightCategory":"VFR","rawOb":"METAR SBBU 241500Z 34003KT 9999 FEW020 BKN100 25/21 Q1021","temp":25,"dewp":21,"wdir":340,"wspd":3,"visib":"6+","altim":1021,"clouds":[{"cover":"FEW","base":2000},{"cover":"BKN","base":10000}],"obsTime":1779634800},"SBPS":{"icaoId":"SBPS","flightCategory":"VFR","rawOb":"METAR SBPS 241500Z 15007KT 9999 FEW030 27/20 Q1018","temp":27,"dewp":20,"wdir":150,"wspd":7,"visib":"6+","altim":1018,"clouds":[{"cover":"FEW","base":3000}],"obsTime":1779634800},"SBSC":{"icaoId":"SBSC","flightCategory":"VFR","rawOb":"METAR SBSC 241500Z 21007KT 9999 FEW016 SCT030 25/21 Q1019","temp":25,"dewp":21,"wdir":210,"wspd":7,"visib":"6+","altim":1019,"clouds":[{"cover":"FEW","base":1600},{"cover":"SCT","base":3000}],"obsTime":1779634800},"SBDN":{"icaoId":"SBDN","flightCategory":"VFR","rawOb":"METAR SBDN 241500Z 00000KT 9999 SCT049 FEW055TCU 24/19 Q1019","temp":24,"dewp":19,"wdir":0,"wspd":0,"visib":"6+","altim":1019,"clouds":[{"cover":"SCT","base":4900},{"cover":"FEW","base":5500}],"obsTime":1779634800},"SBES":{"icaoId":"SBES","flightCategory":"VFR","rawOb":"METAR SBES 241500Z 22007KT 090V230 9999 FEW020 23/// Q1019","temp":null,"dewp":null,"wdir":220,"wspd":7,"visib":"6+","altim":1019,"clouds":[{"cover":"FEW","base":2000}],"obsTime":1779634800},"SBSJ":{"icaoId":"SBSJ","flightCategory":"MVFR","rawOb":"METAR SBSJ 241500Z VRB03KT 7000 FEW013 23/18 Q1021","temp":23,"dewp":18,"wdir":"VRB","wspd":3,"visib":4.35,"altim":1021,"clouds":[{"cover":"FEW","base":1300}],"obsTime":1779634800},"SBSM":{"icaoId":"SBSM","flightCategory":"MVFR","rawOb":"METAR SBSM 241500Z 11006KT 070V160 9999 FEW015 OVC026 17/13 Q1022","temp":17,"dewp":13,"wdir":110,"wspd":6,"visib":"6+","altim":1022,"clouds":[{"cover":"FEW","base":1500},{"cover":"OVC","base":2600}],"obsTime":1779634800},"SBBH":{"icaoId":"SBBH","flightCategory":"VFR","rawOb":"METAR SBBH 241500Z 14003KT 9999 SCT035 25/16 Q1022","temp":25,"dewp":16,"wdir":140,"wspd":3,"visib":"6+","altim":1022,"clouds":[{"cover":"SCT","base":3500}],"obsTime":1779634800},"SBGM":{"icaoId":"SBGM","flightCategory":"VFR","rawOb":"METAR SBGM 241500Z 11008KT CAVOK 26/18 Q1017","temp":26,"dewp":18,"wdir":110,"wspd":8,"visib":"6+","altim":1017,"clouds":[],"obsTime":1779634800},"SBSR":{"icaoId":"SBSR","flightCategory":"VFR","rawOb":"METAR SBSR 241500Z 01005KT 9999 FEW035 SCT080 27/17 Q1020","temp":27,"dewp":17,"wdir":10,"wspd":5,"visib":"6+","altim":1020,"clouds":[{"cover":"FEW","base":3500},{"cover":"SCT","base":8000}],"obsTime":1779634800},"SBCA":{"icaoId":"SBCA","flightCategory":"MVFR","rawOb":"METAR SBCA 241600Z 35007KT 310V020 9999 BKN025 SCT070 21/17 Q1020","temp":21,"dewp":17,"wdir":350,"wspd":7,"visib":"6+","altim":1020,"clouds":[{"cover":"BKN","base":2500},{"cover":"SCT","base":7000}],"obsTime":1779638400},"SBTF":{"icaoId":"SBTF","flightCategory":"VFR","rawOb":"METAR SBTF 241500Z 18009KT 9999 SCT013 SCT090 26/22 Q1015","temp":26,"dewp":22,"wdir":180,"wspd":9,"visib":"6+","altim":1015,"clouds":[{"cover":"SCT","base":1300},{"cover":"SCT","base":9000}],"obsTime":1779634800},"SBTT":{"icaoId":"SBTT","flightCategory":"MVFR","rawOb":"METAR SBTT 241500Z 20006KT 9999 BKN014 OVC019 23/20 Q1017","temp":23,"dewp":20,"wdir":200,"wspd":6,"visib":"6+","altim":1017,"clouds":[{"cover":"BKN","base":1400},{"cover":"OVC","base":1900}],"obsTime":1779634800},"SBAX":{"icaoId":"SBAX","flightCategory":"VFR","rawOb":"METAR SBAX 241500Z AUTO 06005KT 350V110 9999 FEW030 24/16 Q1023","temp":24,"dewp":16,"wdir":60,"wspd":5,"visib":"6+","altim":1023,"clouds":[{"cover":"FEW","base":3000}],"obsTime":1779634800},"SBIP":{"icaoId":"SBIP","flightCategory":"VFR","rawOb":"METAR SBIP 241500Z AUTO 03004KT 320V110 9999 SCT023 OVC038 25/19 Q1021","temp":25,"dewp":19,"wdir":30,"wspd":4,"visib":"6+","altim":1021,"clouds":[{"cover":"SCT","base":2300},{"cover":"OVC","base":3800}],"obsTime":1779634800},"SBTU":{"icaoId":"SBTU","flightCategory":"VFR","rawOb":"METAR SBTU 241500Z AUTO 30005KT 240V340 9999 // SCT028/// 30/23 Q1015","temp":30,"dewp":23,"wdir":300,"wspd":5,"visib":"6+","altim":1015,"clouds":[{"cover":"SCT","base":2800}],"obsTime":1779634800},"SBCC":{"icaoId":"SBCC","flightCategory":"VFR","rawOb":"METAR SBCC 241500Z 06012KT 9999 SCT020 30/17 Q1016","temp":30,"dewp":17,"wdir":60,"wspd":12,"visib":"6+","altim":1016,"clouds":[{"cover":"SCT","base":2000}],"obsTime":1779634800},"SBUY":{"icaoId":"SBUY","flightCategory":"MVFR","rawOb":"METAR SBUY 241500Z 21002KT 9999 BKN013 BKN070 24/22 Q1015","temp":24,"dewp":22,"wdir":210,"wspd":2,"visib":"6+","altim":1015,"clouds":[{"cover":"BKN","base":1300},{"cover":"BKN","base":7000}],"obsTime":1779634800},"SBKG":{"icaoId":"SBKG","flightCategory":"MVFR","rawOb":"METAR SBKG 241500Z 14012KT 9999 BKN025 26/18 Q1016","temp":26,"dewp":18,"wdir":140,"wspd":12,"visib":"6+","altim":1016,"clouds":[{"cover":"BKN","base":2500}],"obsTime":1779634800},"SBVH":{"icaoId":"SBVH","flightCategory":"VFR","rawOb":"METAR SBVH 241500Z 11006KT CAVOK 25/20 Q1019","temp":25,"dewp":20,"wdir":110,"wspd":6,"visib":"6+","altim":1019,"clouds":[],"obsTime":1779634800},"SBCJ":{"icaoId":"SBCJ","flightCategory":"VFR","rawOb":"METAR SBCJ 241500Z 09008KT 9999 FEW015 28/18 Q1018","temp":28,"dewp":18,"wdir":90,"wspd":8,"visib":"6+","altim":1018,"clouds":[{"cover":"FEW","base":1500}],"obsTime":1779634800},"SBBQ":{"icaoId":"SBBQ","flightCategory":"VFR","rawOb":"METAR SBBQ 241500Z 28004KT 220V350 9999 FEW025 22/15 Q1026","temp":22,"dewp":15,"wdir":280,"wspd":4,"visib":"6+","altim":1026,"clouds":[{"cover":"FEW","base":2500}],"obsTime":1779634800},"SBLE":{"icaoId":"SBLE","flightCategory":"IFR","rawOb":"METAR SBLE 241500Z AUTO 16007KT 120V190 9999 BKN006 OVC008 ///// Q////","temp":null,"dewp":null,"wdir":160,"wspd":7,"visib":"6+","altim":null,"clouds":[{"cover":"BKN","base":600},{"cover":"OVC","base":800}],"obsTime":1779634800},"SBNM":{"icaoId":"SBNM","flightCategory":"VFR","rawOb":"METAR SBNM 241500Z 12004KT 9999 FEW010 19/14 Q1020","temp":19,"dewp":14,"wdir":120,"wspd":4,"visib":"6+","altim":1020,"clouds":[{"cover":"FEW","base":1000}],"obsTime":1779634800},"SBJV":{"icaoId":"SBJV","flightCategory":"MVFR","rawOb":"METAR SBJV 241500Z 28001KT 9999 FEW010 BKN030 BKN050 18/16 Q1020","temp":18,"dewp":16,"wdir":280,"wspd":1,"visib":"6+","altim":1020,"clouds":[{"cover":"FEW","base":1000},{"cover":"BKN","base":3000},{"cover":"BKN","base":5000}],"obsTime":1779634800},"SBIH":{"icaoId":"SBIH","flightCategory":"MVFR","rawOb":"METAR SBIH 241500Z 27002KT 9999 -RA SCT011 BKN018 BKN080 26/25 Q1014","temp":26,"dewp":25,"wdir":270,"wspd":2,"visib":"6+","altim":1014,"clouds":[{"cover":"SCT","base":1100},{"cover":"BKN","base":1800},{"cover":"BKN","base":8000}],"obsTime":1779634800},"SBAN":{"icaoId":"SBAN","flightCategory":"MVFR","rawOb":"METAR SBAN 241500Z 18010KT 9999 FEW012 BKN020 23/16 Q1024","temp":23,"dewp":16,"wdir":180,"wspd":10,"visib":"6+","altim":1024,"clouds":[{"cover":"FEW","base":1200},{"cover":"BKN","base":2000}],"obsTime":1779634800},"SBTC":{"icaoId":"SBTC","flightCategory":"VFR","rawOb":"METAR SBTC 241500Z 17008KT 9999 SCT025 28/22 Q1018","temp":28,"dewp":22,"wdir":170,"wspd":8,"visib":"6+","altim":1018,"clouds":[{"cover":"SCT","base":2500}],"obsTime":1779634800},"SBAF":{"icaoId":"SBAF","flightCategory":"VFR","rawOb":"METAR SBAF 241500Z VRB02KT 9999 FEW025 27/20 Q1019","temp":27,"dewp":20,"wdir":"VRB","wspd":2,"visib":"6+","altim":1019,"clouds":[{"cover":"FEW","base":2500}],"obsTime":1779634800},"SBGW":{"icaoId":"SBGW","flightCategory":"VFR","rawOb":"METAR SBGW 241500Z VRB03KT 9999 FEW013 23/16 Q1021","temp":23,"dewp":16,"wdir":"VRB","wspd":3,"visib":"6+","altim":1021,"clouds":[{"cover":"FEW","base":1300}],"obsTime":1779634800},"SBJR":{"icaoId":"SBJR","flightCategory":"VFR","rawOb":"METAR SBJR 241500Z 18006KT 9999 FEW018 28/21 Q1019","temp":28,"dewp":21,"wdir":180,"wspd":6,"visib":"6+","altim":1019,"clouds":[{"cover":"FEW","base":1800}],"obsTime":1779634800},"SBLS":{"icaoId":"SBLS","flightCategory":"VFR","rawOb":"METAR SBLS 241500Z VRB04KT 9999 SCT030 23/16 Q1022","temp":23,"dewp":16,"wdir":"VRB","wspd":4,"visib":"6+","altim":1022,"clouds":[{"cover":"SCT","base":3000}],"obsTime":1779634800},"SBMT":{"icaoId":"SBMT","flightCategory":"MVFR","rawOb":"METAR SBMT 241500Z 33006KT 300V010 8000 BKN025 23/18 Q1021","temp":23,"dewp":18,"wdir":330,"wspd":6,"visib":4.97,"altim":1021,"clouds":[{"cover":"BKN","base":2500}],"obsTime":1779634800},"SBST":{"icaoId":"SBST","flightCategory":"MVFR","rawOb":"METAR SBST 241500Z 28003KT 240V320 7000 OVC011 20/18 Q1019","temp":20,"dewp":18,"wdir":280,"wspd":3,"visib":4.35,"altim":1019,"clouds":[{"cover":"OVC","base":1100}],"obsTime":1779634800},"SBTA":{"icaoId":"SBTA","flightCategory":"VFR","rawOb":"METAR SBTA 241500Z VRB03KT 9999 FEW012 SCT100 24/17 Q1020","temp":24,"dewp":17,"wdir":"VRB","wspd":3,"visib":"6+","altim":1020,"clouds":[{"cover":"FEW","base":1200},{"cover":"SCT","base":10000}],"obsTime":1779634800},"SBJP":{"icaoId":"SBJP","flightCategory":"MVFR","rawOb":"METAR SBJP 241500Z 15008KT 8000 -RA BKN025 SCT070 28/23 Q1013","temp":28,"dewp":23,"wdir":150,"wspd":8,"visib":4.97,"altim":1013,"clouds":[{"cover":"BKN","base":2500},{"cover":"SCT","base":7000}],"obsTime":1779634800},"SBPF":{"icaoId":"SBPF","flightCategory":"VFR","rawOb":"METAR SBPF 241500Z AUTO 11008KT //// // BKN013/// 16/11 Q1022","temp":16,"dewp":11,"wdir":110,"wspd":8,"visib":null,"altim":1022,"clouds":[{"cover":"BKN","base":1300}],"obsTime":1779634800}}}