{"updated":1780953570,"count":85,"data":{"SBCZ":{"icaoId":"SBCZ","flightCategory":"VFR","rawOb":"METAR SBCZ 082000Z 23003KT 9999 SCT030 26/24 Q1011","temp":26,"dewp":24,"wdir":230,"wspd":3,"visib":"6+","altim":1011,"clouds":[{"cover":"SCT","base":3000}],"obsTime":1780948800},"SBKP":{"icaoId":"SBKP","flightCategory":"VFR","rawOb":"METAR SBKP 082000Z 31005KT CAVOK 23/08 Q1019","temp":23,"dewp":8,"wdir":310,"wspd":5,"visib":"6+","altim":1019,"clouds":[],"obsTime":1780948800},"SBVT":{"icaoId":"SBVT","flightCategory":"VFR","rawOb":"METAR SBVT 082000Z 13003KT CAVOK 23/17 Q1019","temp":23,"dewp":17,"wdir":130,"wspd":3,"visib":"6+","altim":1019,"clouds":[],"obsTime":1780948800},"SBLO":{"icaoId":"SBLO","flightCategory":"VFR","rawOb":"METAR SBLO 082000Z 19003KT 120V270 CAVOK 23/13 Q1018","temp":23,"dewp":13,"wdir":190,"wspd":3,"visib":"6+","altim":1018,"clouds":[],"obsTime":1780948800},"SBCF":{"icaoId":"SBCF","flightCategory":"VFR","rawOb":"METAR SBCF 082000Z 12004KT CAVOK 23/08 Q1021","temp":23,"dewp":8,"wdir":120,"wspd":4,"visib":"6+","altim":1021,"clouds":[],"obsTime":1780948800},"SBMA":{"icaoId":"SBMA","flightCategory":"VFR","rawOb":"METAR SBMA 082000Z 09001KT 9999 FEW030 33/22 Q1011","temp":33,"dewp":22,"wdir":90,"wspd":1,"visib":"6+","altim":1011,"clouds":[{"cover":"FEW","base":3000}],"obsTime":1780948800},"SBUR":{"icaoId":"SBUR","flightCategory":"VFR","rawOb":"METAR SBUR 082000Z 29005KT CAVOK 26/07 Q1019","temp":26,"dewp":7,"wdir":290,"wspd":5,"visib":"6+","altim":1019,"clouds":[],"obsTime":1780948800},"SBME":{"icaoId":"SBME","flightCategory":"VFR","rawOb":"METAR SBME 082000Z 10006KT CAVOK 23/18 Q1018","temp":23,"dewp":18,"wdir":100,"wspd":6,"visib":"6+","altim":1018,"clouds":[],"obsTime":1780948800},"SBEG":{"icaoId":"SBEG","flightCategory":"IFR","rawOb":"SPECI SBEG 081920Z 34005KT 4000 1500W R11/2000 R29/2000 RA FEW020 SCT025 FEW030TCU 27/25 Q1011","temp":27,"dewp":25,"wdir":340,"wspd":5,"visib":2.49,"altim":1011,"clouds":[{"cover":"FEW","base":2000},{"cover":"SCT","base":2500},{"cover":"FEW","base":3000}],"obsTime":1780946400},"SBMG":{"icaoId":"SBMG","flightCategory":"VFR","rawOb":"METAR SBMG 082000Z 22005KT 9999 FEW049 SCT100 23/13 Q1018","temp":23,"dewp":13,"wdir":220,"wspd":5,"visib":"6+","altim":1018,"clouds":[{"cover":"FEW","base":4900},{"cover":"SCT","base":10000}],"obsTime":1780948800},"SBBV":{"icaoId":"SBBV","flightCategory":"VFR","rawOb":"METAR SBBV 082000Z 06011KT 9999 SCT020 FEW035TCU SCT100 31/22 Q1011","temp":31,"dewp":22,"wdir":60,"wspd":11,"visib":"6+","altim":1011,"clouds":[{"cover":"SCT","base":2000},{"cover":"FEW","base":3500},{"cover":"SCT","base":10000}],"obsTime":1780948800},"SBMK":{"icaoId":"SBMK","flightCategory":"VFR","rawOb":"METAR SBMK 082000Z 00000KT CAVOK 28/12 Q1019","temp":28,"dewp":12,"wdir":0,"wspd":0,"visib":"6+","altim":1019,"clouds":[],"obsTime":1780948800},"SBFI":{"icaoId":"SBFI","flightCategory":"VFR","rawOb":"METAR SBFI 082000Z 18002KT 9999 FEW035 FEW040TCU BKN080 21/18 Q1016","temp":21,"dewp":18,"wdir":180,"wspd":2,"visib":"6+","altim":1016,"clouds":[{"cover":"FEW","base":3500},{"cover":"FEW","base":4000},{"cover":"BKN","base":8000}],"obsTime":1780948800},"SBMO":{"icaoId":"SBMO","flightCategory":"VFR","rawOb":"METAR SBMO 082000Z 17008KT 9999 FEW030 BKN050 26/21 Q1017","temp":26,"dewp":21,"wdir":170,"wspd":8,"visib":"6+","altim":1017,"clouds":[{"cover":"FEW","base":3000},{"cover":"BKN","base":5000}],"obsTime":1780948800},"SBMQ":{"icaoId":"SBMQ","flightCategory":"MVFR","rawOb":"METAR SBMQ 082000Z 04009KT 9999 4500S TS VCSH BKN021 FEW025CB BKN070 29/25 Q1012","temp":29,"dewp":25,"wdir":40,"wspd":9,"visib":"6+","altim":1012,"clouds":[{"cover":"BKN","base":2100},{"cover":"FEW","base":2500},{"cover":"BKN","base":7000}],"obsTime":1780948800},"SBCG":{"icaoId":"SBCG","flightCategory":"VFR","rawOb":"METAR SBCG 082000Z 28005KT CAVOK 26/11 Q1017","temp":26,"dewp":11,"wdir":280,"wspd":5,"visib":"6+","altim":1017,"clouds":[],"obsTime":1780948800},"SBFL":{"icaoId":"SBFL","flightCategory":"VFR","rawOb":"METAR SBFL 082000Z 35008KT CAVOK 22/17 Q1015","temp":22,"dewp":17,"wdir":350,"wspd":8,"visib":"6+","altim":1015,"clouds":[],"obsTime":1780948800},"SBNT":{"icaoId":"SBNT","flightCategory":"VFR","rawOb":"METAR SBNT 082000Z 16012KT 9999 FEW023 SCT045 BKN070 27/23 Q1014","temp":27,"dewp":23,"wdir":160,"wspd":12,"visib":"6+","altim":1014,"clouds":[{"cover":"FEW","base":2300},{"cover":"SCT","base":4500},{"cover":"BKN","base":7000}],"obsTime":1780948800},"SBCP":{"icaoId":"SBCP","flightCategory":"VFR","rawOb":"METAR SBCP 082000Z 08006KT CAVOK 23/17 Q1018","temp":23,"dewp":17,"wdir":80,"wspd":6,"visib":"6+","altim":1018,"clouds":[],"obsTime":1780948800},"SBPA":{"icaoId":"SBPA","flightCategory":"VFR","rawOb":"METAR SBPA 082000Z 24003KT 9999 SCT013 SCT030 BKN080 18/16 Q1015","temp":18,"dewp":16,"wdir":240,"wspd":3,"visib":"6+","altim":1015,"clouds":[{"cover":"SCT","base":1300},{"cover":"SCT","base":3000},{"cover":"BKN","base":8000}],"obsTime":1780948800},"SBFZ":{"icaoId":"SBFZ","flightCategory":"VFR","rawOb":"METAR SBFZ 082000Z 11008KT 9999 FEW030 29/24 Q1012","temp":29,"dewp":24,"wdir":110,"wspd":8,"visib":"6+","altim":1012,"clouds":[{"cover":"FEW","base":3000}],"obsTime":1780948800},"SBPJ":{"icaoId":"SBPJ","flightCategory":"VFR","rawOb":"METAR SBPJ 082000Z 24004KT 9999 FEW045 32/21 Q1014","temp":32,"dewp":21,"wdir":240,"wspd":4,"visib":"6+","altim":1014,"clouds":[{"cover":"FEW","base":4500}],"obsTime":1780948800},"SBBE":{"icaoId":"SBBE","flightCategory":"VFR","rawOb":"METAR SBBE 082000Z 29002KT 9999 FEW010 BKN100 26/25 Q1012","temp":26,"dewp":25,"wdir":290,"wspd":2,"visib":"6+","altim":1012,"clouds":[{"cover":"FEW","base":1000},{"cover":"BKN","base":10000}],"obsTime":1780948800},"SBPV":{"icaoId":"SBPV","flightCategory":"VFR","rawOb":"METAR SBPV 082000Z 02005KT 9999 SCT030 FEW035TCU 30/23 Q1010","temp":30,"dewp":23,"wdir":20,"wspd":5,"visib":"6+","altim":1010,"clouds":[{"cover":"SCT","base":3000},{"cover":"FEW","base":3500}],"obsTime":1780948800},"SBGL":{"icaoId":"SBGL","flightCategory":"VFR","rawOb":"METAR SBGL 082000Z 14005KT CAVOK 23/16 Q1017","temp":23,"dewp":16,"wdir":140,"wspd":5,"visib":"6+","altim":1017,"clouds":[],"obsTime":1780948800},"SBRB":{"icaoId":"SBRB","flightCategory":"MVFR","rawOb":"METAR SBRB 082000Z 21006KT 9999 VCSH BKN025 FEW030TCU BKN100 29/24 Q1011","temp":29,"dewp":24,"wdir":210,"wspd":6,"visib":"6+","altim":1011,"clouds":[{"cover":"BKN","base":2500},{"cover":"FEW","base":3000},{"cover":"BKN","base":10000}],"obsTime":1780948800},"SBCR":{"icaoId":"SBCR","flightCategory":"VFR","rawOb":"METAR SBCR 082000Z 21010KT CAVOK 28/17 Q1014","temp":28,"dewp":17,"wdir":210,"wspd":10,"visib":"6+","altim":1014,"clouds":[],"obsTime":1780948800},"SBRF":{"icaoId":"SBRF","flightCategory":"MVFR","rawOb":"METAR SBRF 082000Z 19008KT 9999 BKN012 BKN020 BKN050 26/24 Q1016","temp":26,"dewp":24,"wdir":190,"wspd":8,"visib":"6+","altim":1016,"clouds":[{"cover":"BKN","base":1200},{"cover":"BKN","base":2000},{"cover":"BKN","base":5000}],"obsTime":1780948800},"SBGO":{"icaoId":"SBGO","flightCategory":"VFR","rawOb":"METAR SBGO 082000Z 34002KT CAVOK 28/11 Q1019","temp":28,"dewp":11,"wdir":340,"wspd":2,"visib":"6+","altim":1019,"clouds":[],"obsTime":1780948800},"SBSG":{"icaoId":"SBSG","flightCategory":"VFR","rawOb":"METAR SBSG 082000Z 13007KT 100V170 9999 SCT026 FEW030TCU BKN060 27/23 Q1015","temp":27,"dewp":23,"wdir":130,"wspd":7,"visib":"6+","altim":1015,"clouds":[{"cover":"SCT","base":2600},{"cover":"FEW","base":3000},{"cover":"BKN","base":6000}],"obsTime":1780948800},"SBCB":{"icaoId":"SBCB","flightCategory":"VFR","rawOb":"METAR SBCB 082000Z 09005KT CAVOK 22/16 Q1018","temp":22,"dewp":16,"wdir":90,"wspd":5,"visib":"6+","altim":1018,"clouds":[],"obsTime":1780948800},"SBSL":{"icaoId":"SBSL","flightCategory":"VFR","rawOb":"METAR SBSL 082000Z 07007KT 9999 FEW025 SCT035 31/24 Q1011","temp":31,"dewp":24,"wdir":70,"wspd":7,"visib":"6+","altim":1011,"clouds":[{"cover":"FEW","base":2500},{"cover":"SCT","base":3500}],"obsTime":1780948800},"SBSN":{"icaoId":"SBSN","flightCategory":"VFR","rawOb":"METAR SBSN 082000Z 16005KT 9999 SCT023 FEW026TCU BKN100 27/24 Q1011","temp":27,"dewp":24,"wdir":160,"wspd":5,"visib":"6+","altim":1011,"clouds":[{"cover":"SCT","base":2300},{"cover":"FEW","base":2600},{"cover":"BKN","base":10000}],"obsTime":1780948800},"SBGR":{"icaoId":"SBGR","flightCategory":"VFR","rawOb":"METAR SBGR 082000Z 31007KT CAVOK 23/07 Q1019","temp":23,"dewp":7,"wdir":310,"wspd":7,"visib":"6+","altim":1019,"clouds":[],"obsTime":1780948800},"SBAT":{"icaoId":"SBAT","flightCategory":"VFR","rawOb":"METAR SBAT 082000Z 15005KT 9999 FEW035 33/19 Q1013","temp":33,"dewp":19,"wdir":150,"wspd":5,"visib":"6+","altim":1013,"clouds":[{"cover":"FEW","base":3500}],"obsTime":1780948800},"SBSP":{"icaoId":"SBSP","flightCategory":"VFR","rawOb":"METAR SBSP 082000Z 30007KT 250V340 CAVOK 22/06 Q1020","temp":22,"dewp":6,"wdir":300,"wspd":7,"visib":"6+","altim":1020,"clouds":[],"obsTime":1780948800},"SBHT":{"icaoId":"SBHT","flightCategory":"MVFR","rawOb":"METAR SBHT 082000Z 10005KT 9999 BKN030 32/26 Q1011","temp":32,"dewp":26,"wdir":100,"wspd":5,"visib":"6+","altim":1011,"clouds":[{"cover":"BKN","base":3000}],"obsTime":1780948800},"SBSV":{"icaoId":"SBSV","flightCategory":"VFR","rawOb":"METAR SBSV 082000Z 13007KT 100V170 9999 SCT028 BKN060 27/19 Q1017","temp":27,"dewp":19,"wdir":130,"wspd":7,"visib":"6+","altim":1017,"clouds":[{"cover":"SCT","base":2800},{"cover":"BKN","base":6000}],"obsTime":1780948800},"SBCT":{"icaoId":"SBCT","flightCategory":"VFR","rawOb":"METAR SBCT 082000Z 24006KT 9999 SCT045 19/11 Q1020","temp":19,"dewp":11,"wdir":240,"wspd":6,"visib":"6+","altim":1020,"clouds":[{"cover":"SCT","base":4500}],"obsTime":1780948800},"SBTE":{"icaoId":"SBTE","flightCategory":"VFR","rawOb":"METAR SBTE 082000Z 08008KT CAVOK 33/21 Q1011","temp":33,"dewp":21,"wdir":80,"wspd":8,"visib":"6+","altim":1011,"clouds":[],"obsTime":1780948800},"SBIL":{"icaoId":"SBIL","flightCategory":"VFR","rawOb":"METAR SBIL 082000Z 13005KT 100V170 9999 FEW020 26/21 Q1018","temp":26,"dewp":21,"wdir":130,"wspd":5,"visib":"6+","altim":1018,"clouds":[{"cover":"FEW","base":2000}],"obsTime":1780948800},"SBUL":{"icaoId":"SBUL","flightCategory":"VFR","rawOb":"METAR SBUL 082000Z 01006KT CAVOK 24/08 Q1021","temp":24,"dewp":8,"wdir":10,"wspd":6,"visib":"6+","altim":1021,"clouds":[],"obsTime":1780948800},"SBBR":{"icaoId":"SBBR","flightCategory":"VFR","rawOb":"METAR SBBR 082000Z 18005KT 9999 BKN049 25/12 Q1021","temp":25,"dewp":12,"wdir":180,"wspd":5,"visib":"6+","altim":1021,"clouds":[{"cover":"BKN","base":4900}],"obsTime":1780948800},"SBJU":{"icaoId":"SBJU","flightCategory":"MVFR","rawOb":"METAR SBJU 082000Z 18010KT 9999 BKN020 29/18 Q1016","temp":29,"dewp":18,"wdir":180,"wspd":10,"visib":"6+","altim":1016,"clouds":[{"cover":"BKN","base":2000}],"obsTime":1780948800},"SBVH":{"icaoId":"SBVH","flightCategory":"VFR","rawOb":"METAR SBVH 082000Z 08007KT CAVOK 29/18 Q1015","temp":29,"dewp":18,"wdir":80,"wspd":7,"visib":"6+","altim":1015,"clouds":[],"obsTime":1780948800},"SBAR":{"icaoId":"SBAR","flightCategory":"MVFR","rawOb":"METAR SBAR 082000Z 14010G20KT 120V190 9999 VCSH BKN026 OVC050 25/22 Q1017","temp":25,"dewp":22,"wdir":140,"wspd":10,"visib":"6+","altim":1017,"clouds":[{"cover":"BKN","base":2600},{"cover":"OVC","base":5000}],"obsTime":1780948800},"SBAX":{"icaoId":"SBAX","flightCategory":"VFR","rawOb":"METAR SBAX 082000Z 36005KT CAVOK 23/08 Q1021","temp":23,"dewp":8,"wdir":360,"wspd":5,"visib":"6+","altim":1021,"clouds":[],"obsTime":1780948800},"SBBH":{"icaoId":"SBBH","flightCategory":"VFR","rawOb":"METAR SBBH 082000Z 30002KT CAVOK 23/08 Q1020","temp":23,"dewp":8,"wdir":300,"wspd":2,"visib":"6+","altim":1020,"clouds":[],"obsTime":1780948800},"SBBU":{"icaoId":"SBBU","flightCategory":"VFR","rawOb":"METAR SBBU 082000Z 21003KT CAVOK 25/10 Q1018","temp":25,"dewp":10,"wdir":210,"wspd":3,"visib":"6+","altim":1018,"clouds":[],"obsTime":1780948800},"SBCA":{"icaoId":"SBCA","flightCategory":"VFR","rawOb":"METAR SBCA 082000Z 29006KT 9999 FEW040 SCT100 20/12 Q1019","temp":20,"dewp":12,"wdir":290,"wspd":6,"visib":"6+","altim":1019,"clouds":[{"cover":"FEW","base":4000},{"cover":"SCT","base":10000}],"obsTime":1780948800},"SBCJ":{"icaoId":"SBCJ","flightCategory":"VFR","rawOb":"METAR SBCJ 082000Z 21004KT 9999 SCT025 30/19 Q1016","temp":30,"dewp":19,"wdir":210,"wspd":4,"visib":"6+","altim":1016,"clouds":[{"cover":"SCT","base":2500}],"obsTime":1780948800},"SBCO":{"icaoId":"SBCO","flightCategory":"VFR","rawOb":"METAR SBCO 082000Z 26005KT 9999 SCT030 BKN080 18/16 Q1015","temp":18,"dewp":16,"wdir":260,"wspd":5,"visib":"6+","altim":1015,"clouds":[{"cover":"SCT","base":3000},{"cover":"BKN","base":8000}],"obsTime":1780948800},"SBDN":{"icaoId":"SBDN","flightCategory":"VFR","rawOb":"METAR SBDN 082000Z 26003KT CAVOK 26/12 Q1017","temp":26,"dewp":12,"wdir":260,"wspd":3,"visib":"6+","altim":1017,"clouds":[],"obsTime":1780948800},"SBES":{"icaoId":"SBES","flightCategory":"VFR","rawOb":"METAR SBES 082000Z 08005KT 040V120 CAVOK 21/// Q1018","temp":null,"dewp":null,"wdir":80,"wspd":5,"visib":"6+","altim":1018,"clouds":[],"obsTime":1780948800},"SBIP":{"icaoId":"SBIP","flightCategory":"VFR","rawOb":"METAR SBIP 082000Z AUTO 00000KT CAVOK 20/14 Q1018","temp":20,"dewp":14,"wdir":0,"wspd":0,"visib":"6+","altim":1018,"clouds":[],"obsTime":1780948800},"SBKG":{"icaoId":"SBKG","flightCategory":"MVFR","rawOb":"METAR SBKG 082000Z 12007KT 9999 SCT010 BKN015 22/21 Q1018","temp":22,"dewp":21,"wdir":120,"wspd":7,"visib":"6+","altim":1018,"clouds":[{"cover":"SCT","base":1000},{"cover":"BKN","base":1500}],"obsTime":1780948800},"SBOI":{"icaoId":"SBOI","flightCategory":"VFR","rawOb":"METAR SBOI 082000Z AUTO VRB02KT 9000 RA FEW011 OVC045 25/24 Q1014","temp":25,"dewp":24,"wdir":"VRB","wspd":2,"visib":5.59,"altim":1014,"clouds":[{"cover":"FEW","base":1100},{"cover":"OVC","base":4500}],"obsTime":1780948800},"SBPB":{"icaoId":"SBPB","flightCategory":"VFR","rawOb":"METAR SBPB 082000Z 06010KT 9999 SCT020 30/24 Q1012","temp":30,"dewp":24,"wdir":60,"wspd":10,"visib":"6+","altim":1012,"clouds":[{"cover":"SCT","base":2000}],"obsTime":1780948800},"SBPL":{"icaoId":"SBPL","flightCategory":"MVFR","rawOb":"METAR SBPL 082000Z 12007KT 9999 BKN025 SCT070 28/18 Q1017","temp":28,"dewp":18,"wdir":120,"wspd":7,"visib":"6+","altim":1017,"clouds":[{"cover":"BKN","base":2500},{"cover":"SCT","base":7000}],"obsTime":1780948800},"SBPP":{"icaoId":"SBPP","flightCategory":"VFR","rawOb":"METAR SBPP 082000Z 32002KT CAVOK 23/13 Q1018","temp":23,"dewp":13,"wdir":320,"wspd":2,"visib":"6+","altim":1018,"clouds":[],"obsTime":1780948800},"SBPS":{"icaoId":"SBPS","flightCategory":"VFR","rawOb":"METAR SBPS 082000Z 10007KT 9999 SCT020 24/20 Q1018","temp":24,"dewp":20,"wdir":100,"wspd":7,"visib":"6+","altim":1018,"clouds":[{"cover":"SCT","base":2000}],"obsTime":1780948800},"SBSC":{"icaoId":"SBSC","flightCategory":"VFR","rawOb":"METAR SBSC 082000Z 11003KT CAVOK 24/17 Q1017","temp":24,"dewp":17,"wdir":110,"wspd":3,"visib":"6+","altim":1017,"clouds":[],"obsTime":1780948800},"SBSJ":{"icaoId":"SBSJ","flightCategory":"VFR","rawOb":"METAR SBSJ 082000Z 08002KT CAVOK 23/11 Q1019","temp":23,"dewp":11,"wdir":80,"wspd":2,"visib":"6+","altim":1019,"clouds":[],"obsTime":1780948800},"SBSM":{"icaoId":"SBSM","flightCategory":"VFR","rawOb":"METAR SBSM 082000Z 27006KT 9999 FEW013 BKN035 18/16 Q1016","temp":18,"dewp":16,"wdir":270,"wspd":6,"visib":"6+","altim":1016,"clouds":[{"cover":"FEW","base":1300},{"cover":"BKN","base":3500}],"obsTime":1780948800},"SBSR":{"icaoId":"SBSR","flightCategory":"VFR","rawOb":"METAR SBSR 082000Z 30002KT 9999 FEW045 27/06 Q1017","temp":27,"dewp":6,"wdir":300,"wspd":2,"visib":"6+","altim":1017,"clouds":[{"cover":"FEW","base":4500}],"obsTime":1780948800},"SBTF":{"icaoId":"SBTF","flightCategory":"VFR","rawOb":"METAR SBTF 082000Z 00000KT 9999 FEW013 SCT090 26/25 Q1011","temp":26,"dewp":25,"wdir":0,"wspd":0,"visib":"6+","altim":1011,"clouds":[{"cover":"FEW","base":1300},{"cover":"SCT","base":9000}],"obsTime":1780948800},"SBTT":{"icaoId":"SBTT","flightCategory":"VFR","rawOb":"METAR SBTT 082000Z 33006KT 9999 SCT022 29/24 Q1011","temp":29,"dewp":24,"wdir":330,"wspd":6,"visib":"6+","altim":1011,"clouds":[{"cover":"SCT","base":2200}],"obsTime":1780948800},"SBTU":{"icaoId":"SBTU","flightCategory":"VFR","rawOb":"METAR SBTU 082000Z AUTO 35007KT 9999 // SCT054/// ///// Q1013","temp":null,"dewp":null,"wdir":350,"wspd":7,"visib":"6+","altim":1013,"clouds":[{"cover":"SCT","base":5400}],"obsTime":1780948800},"SBUY":{"icaoId":"SBUY","flightCategory":"VFR","rawOb":"METAR SBUY 082000Z 03004KT 9999 SCT030 FEW040TCU BKN100 28/25 Q1009","temp":28,"dewp":25,"wdir":30,"wspd":4,"visib":"6+","altim":1009,"clouds":[{"cover":"SCT","base":3000},{"cover":"FEW","base":4000},{"cover":"BKN","base":10000}],"obsTime":1780948800},"SBBQ":{"icaoId":"SBBQ","flightCategory":"VFR","rawOb":"METAR SBBQ 082000Z 04004KT CAVOK 19/08 Q1023","temp":19,"dewp":8,"wdir":40,"wspd":4,"visib":"6+","altim":1023,"clouds":[],"obsTime":1780948800},"SBCC":{"icaoId":"SBCC","flightCategory":"VFR","rawOb":"METAR SBCC 082000Z 08010KT 9999 SCT040 30/18 Q1014","temp":30,"dewp":18,"wdir":80,"wspd":10,"visib":"6+","altim":1014,"clouds":[{"cover":"SCT","base":4000}],"obsTime":1780948800},"SBNM":{"icaoId":"SBNM","flightCategory":"VFR","rawOb":"METAR SBNM 082000Z AUTO 26008KT CAVOK 18/15 Q1017","temp":18,"dewp":15,"wdir":260,"wspd":8,"visib":"6+","altim":1017,"clouds":[],"obsTime":1780948800},"SBGW":{"icaoId":"SBGW","flightCategory":"VFR","rawOb":"METAR SBGW 082000Z 02003KT CAVOK 23/09 Q1018","temp":23,"dewp":9,"wdir":20,"wspd":3,"visib":"6+","altim":1018,"clouds":[],"obsTime":1780948800},"SBAN":{"icaoId":"SBAN","flightCategory":"VFR","rawOb":"METAR SBAN 082000Z 34004KT 9999 FEW030 25/11 Q1021","temp":25,"dewp":11,"wdir":340,"wspd":4,"visib":"6+","altim":1021,"clouds":[{"cover":"FEW","base":3000}],"obsTime":1780948800},"SBJR":{"icaoId":"SBJR","flightCategory":"VFR","rawOb":"METAR SBJR 082000Z 15004KT CAVOK 23/17 Q1017","temp":23,"dewp":17,"wdir":150,"wspd":4,"visib":"6+","altim":1017,"clouds":[],"obsTime":1780948800},"SBPF":{"icaoId":"SBPF","flightCategory":"VFR","rawOb":"METAR SBPF 082000Z 35007KT 9999 SCT020 BKN045 17/15 Q1018","temp":17,"dewp":15,"wdir":350,"wspd":7,"visib":"6+","altim":1018,"clouds":[{"cover":"SCT","base":2000},{"cover":"BKN","base":4500}],"obsTime":1780948800},"SBLS":{"icaoId":"SBLS","flightCategory":"VFR","rawOb":"METAR SBLS 082000Z VRB02KT CAVOK 22/07 Q1020","temp":22,"dewp":7,"wdir":"VRB","wspd":2,"visib":"6+","altim":1020,"clouds":[],"obsTime":1780948800},"SBJV":{"icaoId":"SBJV","flightCategory":"VFR","rawOb":"METAR SBJV 082000Z 22002KT 9999 FEW020 21/20 Q1016","temp":21,"dewp":20,"wdir":220,"wspd":2,"visib":"6+","altim":1016,"clouds":[{"cover":"FEW","base":2000}],"obsTime":1780948800},"SBMT":{"icaoId":"SBMT","flightCategory":"VFR","rawOb":"METAR SBMT 082000Z 27002KT CAVOK 21/07 Q1019","temp":21,"dewp":7,"wdir":270,"wspd":2,"visib":"6+","altim":1019,"clouds":[],"obsTime":1780948800},"SBLE":{"icaoId":"SBLE","flightCategory":"VFR","rawOb":"METAR SBLE 082000Z AUTO 05005KT CAVOK 24/17 Q1019","temp":24,"dewp":17,"wdir":50,"wspd":5,"visib":"6+","altim":1019,"clouds":[],"obsTime":1780948800},"SBST":{"icaoId":"SBST","flightCategory":"VFR","rawOb":"METAR SBST 082000Z 16004KT CAVOK 22/16 Q1017","temp":22,"dewp":16,"wdir":160,"wspd":4,"visib":"6+","altim":1017,"clouds":[],"obsTime":1780948800},"SBIH":{"icaoId":"SBIH","flightCategory":"VFR","rawOb":"METAR SBIH 082000Z 14004KT 9999 TSRA SCT020 FEW025CB BKN080 25/24 Q1011","temp":25,"dewp":24,"wdir":140,"wspd":4,"visib":"6+","altim":1011,"clouds":[{"cover":"SCT","base":2000},{"cover":"FEW","base":2500},{"cover":"BKN","base":8000}],"obsTime":1780948800},"SBTA":{"icaoId":"SBTA","flightCategory":"VFR","rawOb":"METAR SBTA 082000Z VRB02KT CAVOK 22/12 Q1018","temp":22,"dewp":12,"wdir":"VRB","wspd":2,"visib":"6+","altim":1018,"clouds":[],"obsTime":1780948800},"SBAF":{"icaoId":"SBAF","flightCategory":"VFR","rawOb":"METAR SBAF 082000Z 07005KT CAVOK 24/15 Q1017","temp":24,"dewp":15,"wdir":70,"wspd":5,"visib":"6+","altim":1017,"clouds":[],"obsTime":1780948800},"SBJP":{"icaoId":"SBJP","flightCategory":"VFR","rawOb":"METAR SBJP 082000Z 15010KT 9999 FEW020 BKN070 26/23 Q1015","temp":26,"dewp":23,"wdir":150,"wspd":10,"visib":"6+","altim":1015,"clouds":[{"cover":"FEW","base":2000},{"cover":"BKN","base":7000}],"obsTime":1780948800}}}