{"updated":1774631639,"count":87,"data":{"SBBR":{"icaoId":"SBBR","flightCategory":"VFR","rawOb":"METAR SBBR 271600Z 10013KT 9999 FEW030 25/17 Q1020","temp":25,"dewp":17,"wdir":100,"wspd":13,"visib":"6+","altim":1020,"clouds":[{"cover":"FEW","base":3000}],"obsTime":1774627200},"SBLO":{"icaoId":"SBLO","flightCategory":"VFR","rawOb":"METAR SBLO 271600Z 06005KT 9999 SCT040 30/21 Q1018","temp":30,"dewp":21,"wdir":60,"wspd":5,"visib":"6+","altim":1018,"clouds":[{"cover":"SCT","base":4000}],"obsTime":1774627200},"SBEG":{"icaoId":"SBEG","flightCategory":"MVFR","rawOb":"METAR SBEG 271600Z 12010KT 9999 VCSH BKN025 FEW030TCU 31/25 Q1010","temp":31,"dewp":25,"wdir":120,"wspd":10,"visib":"6+","altim":1010,"clouds":[{"cover":"BKN","base":2500},{"cover":"FEW","base":3000}],"obsTime":1774627200},"SBMA":{"icaoId":"SBMA","flightCategory":"VFR","rawOb":"METAR SBMA 271600Z 16003KT 9999 SCT020 BKN100 30/24 Q1011","temp":30,"dewp":24,"wdir":160,"wspd":3,"visib":"6+","altim":1011,"clouds":[{"cover":"SCT","base":2000},{"cover":"BKN","base":10000}],"obsTime":1774627200},"SBFI":{"icaoId":"SBFI","flightCategory":"VFR","rawOb":"METAR SBFI 271600Z 02009KT 9999 SCT035 33/22 Q1015","temp":33,"dewp":22,"wdir":20,"wspd":9,"visib":"6+","altim":1015,"clouds":[{"cover":"SCT","base":3500}],"obsTime":1774627200},"SBME":{"icaoId":"SBME","flightCategory":"VFR","rawOb":"METAR SBME 271600Z 13007KT 9999 SCT040 SCT070 30/23 Q1017","temp":30,"dewp":23,"wdir":130,"wspd":7,"visib":"6+","altim":1017,"clouds":[{"cover":"SCT","base":4000},{"cover":"SCT","base":7000}],"obsTime":1774627200},"SBAT":{"icaoId":"SBAT","flightCategory":"VFR","rawOb":"METAR SBAT 271600Z 14004KT 9999 SCT022 BKN100 28/23 Q1013","temp":28,"dewp":23,"wdir":140,"wspd":4,"visib":"6+","altim":1013,"clouds":[{"cover":"SCT","base":2200},{"cover":"BKN","base":10000}],"obsTime":1774627200},"SBMG":{"icaoId":"SBMG","flightCategory":"VFR","rawOb":"METAR SBMG 271600Z 04011KT 9999 VCSH SCT043 FEW045TCU 31/20 Q1017","temp":31,"dewp":20,"wdir":40,"wspd":11,"visib":"6+","altim":1017,"clouds":[{"cover":"SCT","base":4300},{"cover":"FEW","base":4500}],"obsTime":1774627200},"SBCG":{"icaoId":"SBCG","flightCategory":"VFR","rawOb":"METAR SBCG 271600Z VRB04KT 9999 BKN040 29/20 Q1016","temp":29,"dewp":20,"wdir":"VRB","wspd":4,"visib":"6+","altim":1016,"clouds":[{"cover":"BKN","base":4000}],"obsTime":1774627200},"SBMK":{"icaoId":"SBMK","flightCategory":"VFR","rawOb":"METAR SBMK 271600Z 08008KT 9999 FEW045 29/16 Q1018","temp":29,"dewp":16,"wdir":80,"wspd":8,"visib":"6+","altim":1018,"clouds":[{"cover":"FEW","base":4500}],"obsTime":1774627200},"SBFL":{"icaoId":"SBFL","flightCategory":"VFR","rawOb":"METAR SBFL 271600Z 34008KT 9999 FEW040 32/24 Q1016","temp":32,"dewp":24,"wdir":340,"wspd":8,"visib":"6+","altim":1016,"clouds":[{"cover":"FEW","base":4000}],"obsTime":1774627200},"SBMO":{"icaoId":"SBMO","flightCategory":"VFR","rawOb":"METAR SBMO 271600Z 09015KT 9999 VCSH FEW015 SCT020 FEW025TCU BKN080 28/24 Q1011","temp":28,"dewp":24,"wdir":90,"wspd":15,"visib":"6+","altim":1011,"clouds":[{"cover":"FEW","base":1500},{"cover":"SCT","base":2000},{"cover":"FEW","base":2500},{"cover":"BKN","base":8000}],"obsTime":1774627200},"SBCP":{"icaoId":"SBCP","flightCategory":"VFR","rawOb":"METAR SBCP 271600Z 11010KT 9999 SCT020 SCT090 30/23 Q1017","temp":30,"dewp":23,"wdir":110,"wspd":10,"visib":"6+","altim":1017,"clouds":[{"cover":"SCT","base":2000},{"cover":"SCT","base":9000}],"obsTime":1774627200},"SBMQ":{"icaoId":"SBMQ","flightCategory":"VFR","rawOb":"METAR SBMQ 271600Z 06011KT 9999 SCT020 FEW025TCU 32/25 Q1010","temp":32,"dewp":25,"wdir":60,"wspd":11,"visib":"6+","altim":1010,"clouds":[{"cover":"SCT","base":2000},{"cover":"FEW","base":2500}],"obsTime":1774627200},"SBNT":{"icaoId":"SBNT","flightCategory":"VFR","rawOb":"METAR SBNT 271600Z 10014KT 9999 SCT035 32/22 Q1009","temp":32,"dewp":22,"wdir":100,"wspd":14,"visib":"6+","altim":1009,"clouds":[{"cover":"SCT","base":3500}],"obsTime":1774627200},"SBFZ":{"icaoId":"SBFZ","flightCategory":"VFR","rawOb":"METAR SBFZ 271600Z 11011KT 9999 SCT030 SCT060 31/23 Q1009","temp":31,"dewp":23,"wdir":110,"wspd":11,"visib":"6+","altim":1009,"clouds":[{"cover":"SCT","base":3000},{"cover":"SCT","base":6000}],"obsTime":1774627200},"SBGL":{"icaoId":"SBGL","flightCategory":"VFR","rawOb":"METAR SBGL 271600Z 11012KT 9999 FEW023 31/20 Q1016","temp":31,"dewp":20,"wdir":110,"wspd":12,"visib":"6+","altim":1016,"clouds":[{"cover":"FEW","base":2300}],"obsTime":1774627200},"SBPA":{"icaoId":"SBPA","flightCategory":"VFR","rawOb":"METAR SBPA 271600Z VRB02KT 9999 FEW030 32/23 Q1015","temp":32,"dewp":23,"wdir":"VRB","wspd":2,"visib":"6+","altim":1015,"clouds":[{"cover":"FEW","base":3000}],"obsTime":1774627200},"SBPJ":{"icaoId":"SBPJ","flightCategory":"VFR","rawOb":"METAR SBPJ 271600Z 12004KT 060V160 9999 BKN032 31/23 Q1012","temp":31,"dewp":23,"wdir":120,"wspd":4,"visib":"6+","altim":1012,"clouds":[{"cover":"BKN","base":3200}],"obsTime":1774627200},"SBBV":{"icaoId":"SBBV","flightCategory":"MVFR","rawOb":"METAR SBBV 271600Z 07003KT 9999 BKN030 FEW045TCU 31/17 Q1011","temp":31,"dewp":17,"wdir":70,"wspd":3,"visib":"6+","altim":1011,"clouds":[{"cover":"BKN","base":3000},{"cover":"FEW","base":4500}],"obsTime":1774627200},"SBGO":{"icaoId":"SBGO","flightCategory":"VFR","rawOb":"METAR SBGO 271600Z 09009KT 060V120 9999 BKN046 29/20 Q1017","temp":29,"dewp":20,"wdir":90,"wspd":9,"visib":"6+","altim":1017,"clouds":[{"cover":"BKN","base":4600}],"obsTime":1774627200},"SBPV":{"icaoId":"SBPV","flightCategory":"VFR","rawOb":"METAR SBPV 271600Z 25001KT 9999 FEW015 BKN066 29/23 Q1012","temp":29,"dewp":23,"wdir":250,"wspd":1,"visib":"6+","altim":1012,"clouds":[{"cover":"FEW","base":1500},{"cover":"BKN","base":6600}],"obsTime":1774627200},"SBRB":{"icaoId":"SBRB","flightCategory":"VFR","rawOb":"METAR SBRB 271600Z 29002KT 9999 SCT020 BKN100 29/24 Q1011","temp":29,"dewp":24,"wdir":290,"wspd":2,"visib":"6+","altim":1011,"clouds":[{"cover":"SCT","base":2000},{"cover":"BKN","base":10000}],"obsTime":1774627200},"SBBE":{"icaoId":"SBBE","flightCategory":"VFR","rawOb":"METAR SBBE 271600Z 07006KT 9999 SCT040 32/23 Q1010","temp":32,"dewp":23,"wdir":70,"wspd":6,"visib":"6+","altim":1010,"clouds":[{"cover":"SCT","base":4000}],"obsTime":1774627200},"SBCR":{"icaoId":"SBCR","flightCategory":"MVFR","rawOb":"METAR SBCR 271600Z 01004KT 310V090 9999 FEW020 BKN028 30/23 Q1013","temp":30,"dewp":23,"wdir":10,"wspd":4,"visib":"6+","altim":1013,"clouds":[{"cover":"FEW","base":2000},{"cover":"BKN","base":2800}],"obsTime":1774627200},"SBRF":{"icaoId":"SBRF","flightCategory":"VFR","rawOb":"METAR SBRF 271600Z 14011KT 110V170 9999 FEW021 30/24 Q1009","temp":30,"dewp":24,"wdir":140,"wspd":11,"visib":"6+","altim":1009,"clouds":[{"cover":"FEW","base":2100}],"obsTime":1774627200},"SBGR":{"icaoId":"SBGR","flightCategory":"VFR","rawOb":"METAR SBGR 271600Z 01004KT 9999 FEW040 29/15 Q1020","temp":29,"dewp":15,"wdir":10,"wspd":4,"visib":"6+","altim":1020,"clouds":[{"cover":"FEW","base":4000}],"obsTime":1774627200},"SBSG":{"icaoId":"SBSG","flightCategory":"MVFR","rawOb":"METAR SBSG 271600Z 10012KT 070V140 9999 BKN030 32/21 Q1009","temp":32,"dewp":21,"wdir":100,"wspd":12,"visib":"6+","altim":1009,"clouds":[{"cover":"BKN","base":3000}],"obsTime":1774627200},"SBCB":{"icaoId":"SBCB","flightCategory":"VFR","rawOb":"METAR SBCB 271600Z 08016KT 9999 FEW015 29/22 Q1018","temp":29,"dewp":22,"wdir":80,"wspd":16,"visib":"6+","altim":1018,"clouds":[{"cover":"FEW","base":1500}],"obsTime":1774627200},"SBSL":{"icaoId":"SBSL","flightCategory":"MVFR","rawOb":"METAR SBSL 271600Z 09011KT 9999 BKN017 BKN070 28/24 Q1010","temp":28,"dewp":24,"wdir":90,"wspd":11,"visib":"6+","altim":1010,"clouds":[{"cover":"BKN","base":1700},{"cover":"BKN","base":7000}],"obsTime":1774627200},"SBHT":{"icaoId":"SBHT","flightCategory":"MVFR","rawOb":"METAR SBHT 271600Z 30003KT 9999 BKN015 OVC080 27/24 Q1011","temp":27,"dewp":24,"wdir":300,"wspd":3,"visib":"6+","altim":1011,"clouds":[{"cover":"BKN","base":1500},{"cover":"OVC","base":8000}],"obsTime":1774627200},"SBSN":{"icaoId":"SBSN","flightCategory":"MVFR","rawOb":"METAR SBSN 271600Z 09011KT 9999 BKN020 SCT100 29/25 Q1010","temp":29,"dewp":25,"wdir":90,"wspd":11,"visib":"6+","altim":1010,"clouds":[{"cover":"BKN","base":2000},{"cover":"SCT","base":10000}],"obsTime":1774627200},"SBCT":{"icaoId":"SBCT","flightCategory":"VFR","rawOb":"METAR SBCT 271600Z 07007KT 9999 SCT025 26/19 Q1022","temp":26,"dewp":19,"wdir":70,"wspd":7,"visib":"6+","altim":1022,"clouds":[{"cover":"SCT","base":2500}],"obsTime":1774627200},"SBSP":{"icaoId":"SBSP","flightCategory":"VFR","rawOb":"METAR SBSP 271600Z VRB02KT CAVOK 29/13 Q1021","temp":29,"dewp":13,"wdir":"VRB","wspd":2,"visib":"6+","altim":1021,"clouds":[],"obsTime":1774627200},"SBIL":{"icaoId":"SBIL","flightCategory":"VFR","rawOb":"METAR SBIL 271600Z 19006KT 150V230 9999 FEW023TCU SCT025 29/25 Q1013","temp":29,"dewp":25,"wdir":190,"wspd":6,"visib":"6+","altim":1013,"clouds":[{"cover":"FEW","base":2300},{"cover":"SCT","base":2500}],"obsTime":1774627200},"SBSV":{"icaoId":"SBSV","flightCategory":"VFR","rawOb":"METAR SBSV 271600Z 15012KT 9999 SCT021 FEW025TCU 31/24 Q1012","temp":31,"dewp":24,"wdir":150,"wspd":12,"visib":"6+","altim":1012,"clouds":[{"cover":"SCT","base":2100},{"cover":"FEW","base":2500}],"obsTime":1774627200},"SBCZ":{"icaoId":"SBCZ","flightCategory":"VFR","rawOb":"METAR SBCZ 271600Z 36002KT 9999 FEW016 BKN100 28/23 Q1012","temp":28,"dewp":23,"wdir":360,"wspd":2,"visib":"6+","altim":1012,"clouds":[{"cover":"FEW","base":1600},{"cover":"BKN","base":10000}],"obsTime":1774627200},"SBTE":{"icaoId":"SBTE","flightCategory":"VFR","rawOb":"METAR SBTE 271600Z 10004KT 9999 SCT025 SCT100 32/23 Q1009","temp":32,"dewp":23,"wdir":100,"wspd":4,"visib":"6+","altim":1009,"clouds":[{"cover":"SCT","base":2500},{"cover":"SCT","base":10000}],"obsTime":1774627200},"SBJU":{"icaoId":"SBJU","flightCategory":"MVFR","rawOb":"METAR SBJU 271600Z 12003KT 9999 BKN021 31/20 Q1012","temp":31,"dewp":20,"wdir":120,"wspd":3,"visib":"6+","altim":1012,"clouds":[{"cover":"BKN","base":2100}],"obsTime":1774627200},"SBUL":{"icaoId":"SBUL","flightCategory":"VFR","rawOb":"METAR SBUL 271600Z 07011KT 9999 SCT030 FEW040TCU 26/19 Q1020","temp":26,"dewp":19,"wdir":70,"wspd":11,"visib":"6+","altim":1020,"clouds":[{"cover":"SCT","base":3000},{"cover":"FEW","base":4000}],"obsTime":1774627200},"SBCF":{"icaoId":"SBCF","flightCategory":"VFR","rawOb":"METAR SBCF 271600Z 12008KT 9999 SCT035 27/16 Q1021","temp":27,"dewp":16,"wdir":120,"wspd":8,"visib":"6+","altim":1021,"clouds":[{"cover":"SCT","base":3500}],"obsTime":1774627200},"SBUR":{"icaoId":"SBUR","flightCategory":"VFR","rawOb":"METAR SBUR 271600Z 02007KT 9999 BKN040 28/19 Q1019","temp":28,"dewp":19,"wdir":20,"wspd":7,"visib":"6+","altim":1019,"clouds":[{"cover":"BKN","base":4000}],"obsTime":1774627200},"SBKP":{"icaoId":"SBKP","flightCategory":"VFR","rawOb":"METAR SBKP 271600Z 10005KT 020V180 9999 FEW040 31/14 Q1019","temp":31,"dewp":14,"wdir":100,"wspd":5,"visib":"6+","altim":1019,"clouds":[{"cover":"FEW","base":4000}],"obsTime":1774627200},"SBVT":{"icaoId":"SBVT","flightCategory":"VFR","rawOb":"METAR SBVT 271600Z 17008KT 9999 FEW040 29/23 Q1017","temp":29,"dewp":23,"wdir":170,"wspd":8,"visib":"6+","altim":1017,"clouds":[{"cover":"FEW","base":4000}],"obsTime":1774627200},"SBAR":{"icaoId":"SBAR","flightCategory":"VFR","rawOb":"METAR SBAR 271600Z 13015KT 9999 SCT022 BKN100 31/23 Q1011","temp":31,"dewp":23,"wdir":130,"wspd":15,"visib":"6+","altim":1011,"clouds":[{"cover":"SCT","base":2200},{"cover":"BKN","base":10000}],"obsTime":1774627200},"SBAX":{"icaoId":"SBAX","flightCategory":"MVFR","rawOb":"METAR SBAX 271600Z 08007KT 9999 BKN025 26/17 Q1021","temp":26,"dewp":17,"wdir":80,"wspd":7,"visib":"6+","altim":1021,"clouds":[{"cover":"BKN","base":2500}],"obsTime":1774627200},"SBBH":{"icaoId":"SBBH","flightCategory":"VFR","rawOb":"METAR SBBH 271600Z 08007KT 9999 FEW040 28/15 Q1020","temp":28,"dewp":15,"wdir":80,"wspd":7,"visib":"6+","altim":1020,"clouds":[{"cover":"FEW","base":4000}],"obsTime":1774627200},"SBBQ":{"icaoId":"SBBQ","flightCategory":"VFR","rawOb":"METAR SBBQ 271600Z 09007KT 030V120 9999 SCT040 25/10 Q1024","temp":25,"dewp":10,"wdir":90,"wspd":7,"visib":"6+","altim":1024,"clouds":[{"cover":"SCT","base":4000}],"obsTime":1774627200},"SBBU":{"icaoId":"SBBU","flightCategory":"VFR","rawOb":"METAR SBBU 271600Z 02005KT 9999 BKN040 31/20 Q1018","temp":31,"dewp":20,"wdir":20,"wspd":5,"visib":"6+","altim":1018,"clouds":[{"cover":"BKN","base":4000}],"obsTime":1774627200},"SBCA":{"icaoId":"SBCA","flightCategory":"MVFR","rawOb":"SPECI SBCA 271605Z 05012KT 9999 BKN020 28/20 Q1020","temp":28,"dewp":20,"wdir":50,"wspd":12,"visib":"6+","altim":1020,"clouds":[{"cover":"BKN","base":2000}],"obsTime":1774627500},"SBCC":{"icaoId":"SBCC","flightCategory":"VFR","rawOb":"METAR SBCC 271600Z 12007KT 080V150 9999 VCSH FEW015 SCT020 FEW025TCU BKN100 28/21 Q1014","temp":28,"dewp":21,"wdir":120,"wspd":7,"visib":"6+","altim":1014,"clouds":[{"cover":"FEW","base":1500},{"cover":"SCT","base":2000},{"cover":"FEW","base":2500},{"cover":"BKN","base":10000}],"obsTime":1774627200},"SBCJ":{"icaoId":"SBCJ","flightCategory":"VFR","rawOb":"METAR SBCJ 271600Z 00000KT 9999 SCT006 SCT015 25/22 Q1016","temp":25,"dewp":22,"wdir":0,"wspd":0,"visib":"6+","altim":1016,"clouds":[{"cover":"SCT","base":600},{"cover":"SCT","base":1500}],"obsTime":1774627200},"SBCO":{"icaoId":"SBCO","flightCategory":"VFR","rawOb":"METAR SBCO 271600Z 08005KT 040V110 9999 FEW033 32/24 Q1015","temp":32,"dewp":24,"wdir":80,"wspd":5,"visib":"6+","altim":1015,"clouds":[{"cover":"FEW","base":3300}],"obsTime":1774627200},"SBDN":{"icaoId":"SBDN","flightCategory":"VFR","rawOb":"METAR SBDN 271600Z 05008KT 9999 SCT040 32/20 Q1017","temp":32,"dewp":20,"wdir":50,"wspd":8,"visib":"6+","altim":1017,"clouds":[{"cover":"SCT","base":4000}],"obsTime":1774627200},"SBES":{"icaoId":"SBES","flightCategory":"VFR","rawOb":"METAR SBES 271600Z 06012KT 020V080 9999 FEW023 29/// Q1018","temp":null,"dewp":null,"wdir":60,"wspd":12,"visib":"6+","altim":1018,"clouds":[{"cover":"FEW","base":2300}],"obsTime":1774627200},"SBGM":{"icaoId":"SBGM","flightCategory":"MVFR","rawOb":"METAR SBGM 271600Z VRB02KT 9999 BKN020 28/19 Q1011","temp":28,"dewp":19,"wdir":"VRB","wspd":2,"visib":"6+","altim":1011,"clouds":[{"cover":"BKN","base":2000}],"obsTime":1774627200},"SBIP":{"icaoId":"SBIP","flightCategory":"VFR","rawOb":"METAR SBIP 271600Z AUTO 33005KT 270V030 CAVOK 30/19 Q1018","temp":30,"dewp":19,"wdir":330,"wspd":5,"visib":"6+","altim":1018,"clouds":[],"obsTime":1774627200},"SBKG":{"icaoId":"SBKG","flightCategory":"MVFR","rawOb":"METAR SBKG 271600Z VRB08KT 9999 BKN030 31/18 Q1012","temp":31,"dewp":18,"wdir":"VRB","wspd":8,"visib":"6+","altim":1012,"clouds":[{"cover":"BKN","base":3000}],"obsTime":1774627200},"SBOI":{"icaoId":"SBOI","flightCategory":"VFR","rawOb":"METAR SBOI 271600Z AUTO 03007KT 9999 FEW012 BKN040 26/25 Q1011 RERA","temp":26,"dewp":25,"wdir":30,"wspd":7,"visib":"6+","altim":1011,"clouds":[{"cover":"FEW","base":1200},{"cover":"BKN","base":4000}],"obsTime":1774627200},"SBPB":{"icaoId":"SBPB","flightCategory":"VFR","rawOb":"METAR SBPB 271600Z 05009KT 9999 SCT016 BKN090 29/26 Q1009","temp":29,"dewp":26,"wdir":50,"wspd":9,"visib":"6+","altim":1009,"clouds":[{"cover":"SCT","base":1600},{"cover":"BKN","base":9000}],"obsTime":1774627200},"SBPL":{"icaoId":"SBPL","flightCategory":"MVFR","rawOb":"METAR SBPL 271600Z 09008KT 9999 BKN025 31/19 Q1012","temp":31,"dewp":19,"wdir":90,"wspd":8,"visib":"6+","altim":1012,"clouds":[{"cover":"BKN","base":2500}],"obsTime":1774627200},"SBPP":{"icaoId":"SBPP","flightCategory":"MVFR","rawOb":"METAR SBPP 271600Z 05010KT 9999 BKN025 27/21 Q1017","temp":27,"dewp":21,"wdir":50,"wspd":10,"visib":"6+","altim":1017,"clouds":[{"cover":"BKN","base":2500}],"obsTime":1774627200},"SBPS":{"icaoId":"SBPS","flightCategory":"VFR","rawOb":"METAR SBPS 271600Z 16008KT 9999 SCT020 28/23 Q1014","temp":28,"dewp":23,"wdir":160,"wspd":8,"visib":"6+","altim":1014,"clouds":[{"cover":"SCT","base":2000}],"obsTime":1774627200},"SBSC":{"icaoId":"SBSC","flightCategory":"VFR","rawOb":"METAR SBSC 271600Z 17008KT 9999 FEW030 31/22 Q1016","temp":31,"dewp":22,"wdir":170,"wspd":8,"visib":"6+","altim":1016,"clouds":[{"cover":"FEW","base":3000}],"obsTime":1774627200},"SBSJ":{"icaoId":"SBSJ","flightCategory":"VFR","rawOb":"METAR SBSJ 271600Z 06003KT 9999 FEW030 27/19 Q1020","temp":27,"dewp":19,"wdir":60,"wspd":3,"visib":"6+","altim":1020,"clouds":[{"cover":"FEW","base":3000}],"obsTime":1774627200},"SBSM":{"icaoId":"SBSM","flightCategory":"VFR","rawOb":"METAR SBSM 271600Z VRB02KT 9999 FEW030 31/26 Q1015","temp":31,"dewp":26,"wdir":"VRB","wspd":2,"visib":"6+","altim":1015,"clouds":[{"cover":"FEW","base":3000}],"obsTime":1774627200},"SBSR":{"icaoId":"SBSR","flightCategory":"MVFR","rawOb":"METAR SBSR 271600Z 07009KT 9999 BKN030 30/17 Q1018","temp":30,"dewp":17,"wdir":70,"wspd":9,"visib":"6+","altim":1018,"clouds":[{"cover":"BKN","base":3000}],"obsTime":1774627200},"SBTF":{"icaoId":"SBTF","flightCategory":"VFR","rawOb":"METAR SBTF 271600Z 11005KT 9999 SCT017 BKN100 31/24 Q1010","temp":31,"dewp":24,"wdir":110,"wspd":5,"visib":"6+","altim":1010,"clouds":[{"cover":"SCT","base":1700},{"cover":"BKN","base":10000}],"obsTime":1774627200},"SBTT":{"icaoId":"SBTT","flightCategory":"VFR","rawOb":"METAR SBTT 271600Z 23007KT 200V260 9999 FEW020 BKN090 27/23 Q1012","temp":27,"dewp":23,"wdir":230,"wspd":7,"visib":"6+","altim":1012,"clouds":[{"cover":"FEW","base":2000},{"cover":"BKN","base":9000}],"obsTime":1774627200},"SBUY":{"icaoId":"SBUY","flightCategory":"VFR","rawOb":"METAR SBUY 271600Z 13002KT 9999 FEW025 BKN100 30/24 Q1010","temp":30,"dewp":24,"wdir":130,"wspd":2,"visib":"6+","altim":1010,"clouds":[{"cover":"FEW","base":2500},{"cover":"BKN","base":10000}],"obsTime":1774627200},"SBVH":{"icaoId":"SBVH","flightCategory":"MVFR","rawOb":"METAR SBVH 271600Z 05008KT 9999 BKN012 BKN020 24/22 Q1015","temp":24,"dewp":22,"wdir":50,"wspd":8,"visib":"6+","altim":1015,"clouds":[{"cover":"BKN","base":1200},{"cover":"BKN","base":2000}],"obsTime":1774627200},"SBAU":{"icaoId":"SBAU","flightCategory":"VFR","rawOb":"METAR SBAU 271600Z 09006KT 9999 FEW040 33/19 Q1016","temp":33,"dewp":19,"wdir":90,"wspd":6,"visib":"6+","altim":1016,"clouds":[{"cover":"FEW","base":4000}],"obsTime":1774627200},"SBTD":{"icaoId":"SBTD","flightCategory":"VFR","rawOb":"METAR SBTD 271600Z /////KT 9999 SCT030 30/20 Q1018","temp":30,"dewp":20,"wdir":null,"wspd":null,"visib":"6+","altim":1018,"clouds":[{"cover":"SCT","base":3000}],"obsTime":1774627200},"SBTA":{"icaoId":"SBTA","flightCategory":"VFR","rawOb":"METAR SBTA 271600Z 04006KT 360V110 9999 FEW030 28/23 Q1019","temp":28,"dewp":23,"wdir":40,"wspd":6,"visib":"6+","altim":1019,"clouds":[{"cover":"FEW","base":3000}],"obsTime":1774627200},"SBJP":{"icaoId":"SBJP","flightCategory":"VFR","rawOb":"METAR SBJP 271600Z 09011KT 060V120 9999 SCT035 32/23 Q1009","temp":32,"dewp":23,"wdir":90,"wspd":11,"visib":"6+","altim":1009,"clouds":[{"cover":"SCT","base":3500}],"obsTime":1774627200},"SBAN":{"icaoId":"SBAN","flightCategory":"MVFR","rawOb":"METAR SBAN 271600Z 13011KT 9999 BKN030 26/17 Q1020","temp":26,"dewp":17,"wdir":130,"wspd":11,"visib":"6+","altim":1020,"clouds":[{"cover":"BKN","base":3000}],"obsTime":1774627200},"SBLE":{"icaoId":"SBLE","flightCategory":"VFR","rawOb":"METAR SBLE 271600Z AUTO VRB05KT CAVOK 28/19 Q1016","temp":28,"dewp":19,"wdir":"VRB","wspd":5,"visib":"6+","altim":1016,"clouds":[],"obsTime":1774627200},"SBJV":{"icaoId":"SBJV","flightCategory":"VFR","rawOb":"METAR SBJV 271600Z 13007KT 9999 SCT035 30/25 Q1017","temp":30,"dewp":25,"wdir":130,"wspd":7,"visib":"6+","altim":1017,"clouds":[{"cover":"SCT","base":3500}],"obsTime":1774627200},"SBPF":{"icaoId":"SBPF","flightCategory":"VFR","rawOb":"METAR SBPF 271700Z 30008KT 9999 FEW040 SCT050 30/18 Q1019","temp":30,"dewp":18,"wdir":300,"wspd":8,"visib":"6+","altim":1019,"clouds":[{"cover":"FEW","base":4000},{"cover":"SCT","base":5000}],"obsTime":1774630800},"SBIH":{"icaoId":"SBIH","flightCategory":"VFR","rawOb":"METAR SBIH 271600Z 14009KT 9999 TS VCSH SCT017 FEW025CB BKN100 27/23 Q1010","temp":27,"dewp":23,"wdir":140,"wspd":9,"visib":"6+","altim":1010,"clouds":[{"cover":"SCT","base":1700},{"cover":"FEW","base":2500},{"cover":"BKN","base":10000}],"obsTime":1774627200},"SBAF":{"icaoId":"SBAF","flightCategory":"VFR","rawOb":"METAR SBAF 271600Z 19011KT 9999 FEW025 30/24 Q1017","temp":30,"dewp":24,"wdir":190,"wspd":11,"visib":"6+","altim":1017,"clouds":[{"cover":"FEW","base":2500}],"obsTime":1774627200},"SBGW":{"icaoId":"SBGW","flightCategory":"VFR","rawOb":"METAR SBGW 271600Z VRB04KT 9999 SCT030 30/16 Q1019","temp":30,"dewp":16,"wdir":"VRB","wspd":4,"visib":"6+","altim":1019,"clouds":[{"cover":"SCT","base":3000}],"obsTime":1774627200},"SBJR":{"icaoId":"SBJR","flightCategory":"VFR","rawOb":"METAR SBJR 271600Z 18006KT 9999 FEW020 32/21 Q1017","temp":32,"dewp":21,"wdir":180,"wspd":6,"visib":"6+","altim":1017,"clouds":[{"cover":"FEW","base":2000}],"obsTime":1774627200},"SBLS":{"icaoId":"SBLS","flightCategory":"VFR","rawOb":"METAR SBLS 271600Z 11007KT 360V130 9999 SCT035 27/15 Q1020","temp":27,"dewp":15,"wdir":110,"wspd":7,"visib":"6+","altim":1020,"clouds":[{"cover":"SCT","base":3500}],"obsTime":1774627200},"SBMT":{"icaoId":"SBMT","flightCategory":"VFR","rawOb":"METAR SBMT 271600Z VRB03KT CAVOK 29/11 Q1020","temp":29,"dewp":11,"wdir":"VRB","wspd":3,"visib":"6+","altim":1020,"clouds":[],"obsTime":1774627200},"SBST":{"icaoId":"SBST","flightCategory":"VFR","rawOb":"METAR SBST 271600Z 23005KT 9000 SCT025 29/23 Q1016","temp":29,"dewp":23,"wdir":230,"wspd":5,"visib":5.59,"altim":1016,"clouds":[{"cover":"SCT","base":2500}],"obsTime":1774627200},"SBNM":{"icaoId":"SBNM","flightCategory":"VFR","rawOb":"METAR SBNM 271600Z 34002KT CAVOK 33/22 Q1016","temp":33,"dewp":22,"wdir":340,"wspd":2,"visib":"6+","altim":1016,"clouds":[],"obsTime":1774627200}}}