{"updated":1777220865,"count":85,"data":{"SBFI":{"icaoId":"SBFI","flightCategory":"IFR","rawOb":"SPECI SBFI 261438Z 23004KT 7000 FEW003 BKN007 OVC015 22/22 Q1012","temp":22,"dewp":22,"wdir":230,"wspd":4,"visib":4.35,"altim":1012,"clouds":[{"cover":"FEW","base":300},{"cover":"BKN","base":700},{"cover":"OVC","base":1500}],"obsTime":1777214280},"SBAT":{"icaoId":"SBAT","flightCategory":"MVFR","rawOb":"METAR SBAT 261500Z 05004KT 9999 BKN030 32/27 Q1014","temp":32,"dewp":27,"wdir":50,"wspd":4,"visib":"6+","altim":1014,"clouds":[{"cover":"BKN","base":3000}],"obsTime":1777215600},"SBBE":{"icaoId":"SBBE","flightCategory":"VFR","rawOb":"METAR SBBE 261500Z 36008KT 9999 SCT040 29/23 Q1011","temp":29,"dewp":23,"wdir":360,"wspd":8,"visib":"6+","altim":1011,"clouds":[{"cover":"SCT","base":4000}],"obsTime":1777215600},"SBBR":{"icaoId":"SBBR","flightCategory":"VFR","rawOb":"METAR SBBR 261500Z 09007KT 050V130 9999 FEW045 26/17 Q1019","temp":26,"dewp":17,"wdir":90,"wspd":7,"visib":"6+","altim":1019,"clouds":[{"cover":"FEW","base":4500}],"obsTime":1777215600},"SBBV":{"icaoId":"SBBV","flightCategory":"IFR","rawOb":"METAR SBBV 261500Z 10006KT 3000 RA BKN006 SCT015 FEW030TCU BKN090 23/23 Q1015 RETS","temp":23,"dewp":23,"wdir":100,"wspd":6,"visib":1.86,"altim":1015,"clouds":[{"cover":"BKN","base":600},{"cover":"SCT","base":1500},{"cover":"FEW","base":3000},{"cover":"BKN","base":9000}],"obsTime":1777215600},"SBCB":{"icaoId":"SBCB","flightCategory":"VFR","rawOb":"METAR SBCB 261500Z 28004KT CAVOK 33/20 Q1010","temp":33,"dewp":20,"wdir":280,"wspd":4,"visib":"6+","altim":1010,"clouds":[],"obsTime":1777215600},"SBCF":{"icaoId":"SBCF","flightCategory":"VFR","rawOb":"METAR SBCF 261500Z 33003KT 9999 SCT025 28/14 Q1018","temp":28,"dewp":14,"wdir":330,"wspd":3,"visib":"6+","altim":1018,"clouds":[{"cover":"SCT","base":2500}],"obsTime":1777215600},"SBCG":{"icaoId":"SBCG","flightCategory":"VFR","rawOb":"METAR SBCG 261500Z 31012KT 280V340 9999 SCT045 30/20 Q1015","temp":30,"dewp":20,"wdir":310,"wspd":12,"visib":"6+","altim":1015,"clouds":[{"cover":"SCT","base":4500}],"obsTime":1777215600},"SBCP":{"icaoId":"SBCP","flightCategory":"VFR","rawOb":"METAR SBCP 261500Z 34010KT CAVOK 33/21 Q1011","temp":33,"dewp":21,"wdir":340,"wspd":10,"visib":"6+","altim":1011,"clouds":[],"obsTime":1777215600},"SBCR":{"icaoId":"SBCR","flightCategory":"VFR","rawOb":"METAR SBCR 261500Z 36005KT 270V060 9999 SCT035 32/22 Q1012","temp":32,"dewp":22,"wdir":360,"wspd":5,"visib":"6+","altim":1012,"clouds":[{"cover":"SCT","base":3500}],"obsTime":1777215600},"SBCT":{"icaoId":"SBCT","flightCategory":"VFR","rawOb":"METAR SBCT 261500Z 30017KT 9999 BKN040 BKN090 24/17 Q1015","temp":24,"dewp":17,"wdir":300,"wspd":17,"visib":"6+","altim":1015,"clouds":[{"cover":"BKN","base":4000},{"cover":"BKN","base":9000}],"obsTime":1777215600},"SBCZ":{"icaoId":"SBCZ","flightCategory":"MVFR","rawOb":"METAR SBCZ 261500Z 33003KT 9999 BKN022 29/24 Q1014","temp":29,"dewp":24,"wdir":330,"wspd":3,"visib":"6+","altim":1014,"clouds":[{"cover":"BKN","base":2200}],"obsTime":1777215600},"SBEG":{"icaoId":"SBEG","flightCategory":"MVFR","rawOb":"METAR SBEG 261500Z 35005KT 310V060 9999 BKN016 29/25 Q1013","temp":29,"dewp":25,"wdir":350,"wspd":5,"visib":"6+","altim":1013,"clouds":[{"cover":"BKN","base":1600}],"obsTime":1777215600},"SBFL":{"icaoId":"SBFL","flightCategory":"MVFR","rawOb":"METAR SBFL 261500Z 32010KT 9999 FEW008 BKN014 OVC100 21/20 Q1009","temp":21,"dewp":20,"wdir":320,"wspd":10,"visib":"6+","altim":1009,"clouds":[{"cover":"FEW","base":800},{"cover":"BKN","base":1400},{"cover":"OVC","base":10000}],"obsTime":1777215600},"SBFZ":{"icaoId":"SBFZ","flightCategory":"VFR","rawOb":"METAR SBFZ 261500Z 09006KT 9999 FEW010 SCT020 BKN070 27/24 Q1011","temp":27,"dewp":24,"wdir":90,"wspd":6,"visib":"6+","altim":1011,"clouds":[{"cover":"FEW","base":1000},{"cover":"SCT","base":2000},{"cover":"BKN","base":7000}],"obsTime":1777215600},"SBGL":{"icaoId":"SBGL","flightCategory":"VFR","rawOb":"METAR SBGL 261500Z VRB03KT CAVOK 34/19 Q1010","temp":34,"dewp":19,"wdir":"VRB","wspd":3,"visib":"6+","altim":1010,"clouds":[],"obsTime":1777215600},"SBGO":{"icaoId":"SBGO","flightCategory":"VFR","rawOb":"METAR SBGO 261500Z 23003KT CAVOK 29/18 Q1017","temp":29,"dewp":18,"wdir":230,"wspd":3,"visib":"6+","altim":1017,"clouds":[],"obsTime":1777215600},"SBGR":{"icaoId":"SBGR","flightCategory":"VFR","rawOb":"METAR SBGR 261500Z 31014KT 9999 SCT045 29/17 Q1015","temp":29,"dewp":17,"wdir":310,"wspd":14,"visib":"6+","altim":1015,"clouds":[{"cover":"SCT","base":4500}],"obsTime":1777215600},"SBHT":{"icaoId":"SBHT","flightCategory":"MVFR","rawOb":"METAR SBHT 261500Z 08004KT 9999 BKN030 32/24 Q1012","temp":32,"dewp":24,"wdir":80,"wspd":4,"visib":"6+","altim":1012,"clouds":[{"cover":"BKN","base":3000}],"obsTime":1777215600},"SBIL":{"icaoId":"SBIL","flightCategory":"VFR","rawOb":"METAR SBIL 261500Z 10006KT 9999 SCT025 FEW027TCU 30/25 Q1014","temp":30,"dewp":25,"wdir":100,"wspd":6,"visib":"6+","altim":1014,"clouds":[{"cover":"SCT","base":2500},{"cover":"FEW","base":2700}],"obsTime":1777215600},"SBJU":{"icaoId":"SBJU","flightCategory":"VFR","rawOb":"METAR SBJU 261500Z 15008KT 9999 FEW020 30/21 Q1014","temp":30,"dewp":21,"wdir":150,"wspd":8,"visib":"6+","altim":1014,"clouds":[{"cover":"FEW","base":2000}],"obsTime":1777215600},"SBKP":{"icaoId":"SBKP","flightCategory":"VFR","rawOb":"METAR SBKP 261500Z 31010KT 9999 SCT040 30/17 Q1015","temp":30,"dewp":17,"wdir":310,"wspd":10,"visib":"6+","altim":1015,"clouds":[{"cover":"SCT","base":4000}],"obsTime":1777215600},"SBLO":{"icaoId":"SBLO","flightCategory":"VFR","rawOb":"METAR SBLO 261500Z 33012KT 9999 FEW040 31/18 Q1014","temp":31,"dewp":18,"wdir":330,"wspd":12,"visib":"6+","altim":1014,"clouds":[{"cover":"FEW","base":4000}],"obsTime":1777215600},"SBMA":{"icaoId":"SBMA","flightCategory":"VFR","rawOb":"METAR SBMA 261500Z 26003KT 9999 SCT020 30/23 Q1012","temp":30,"dewp":23,"wdir":260,"wspd":3,"visib":"6+","altim":1012,"clouds":[{"cover":"SCT","base":2000}],"obsTime":1777215600},"SBME":{"icaoId":"SBME","flightCategory":"VFR","rawOb":"METAR SBME 261500Z 32004KT CAVOK 36/17 Q1010","temp":36,"dewp":17,"wdir":320,"wspd":4,"visib":"6+","altim":1010,"clouds":[],"obsTime":1777215600},"SBMG":{"icaoId":"SBMG","flightCategory":"VFR","rawOb":"METAR SBMG 261500Z 32011KT 280V350 9999 FEW040 SCT100 30/19 Q1013","temp":30,"dewp":19,"wdir":320,"wspd":11,"visib":"6+","altim":1013,"clouds":[{"cover":"FEW","base":4000},{"cover":"SCT","base":10000}],"obsTime":1777215600},"SBMK":{"icaoId":"SBMK","flightCategory":"VFR","rawOb":"METAR SBMK 261500Z 11005KT 9999 SCT040 29/18 Q1016","temp":29,"dewp":18,"wdir":110,"wspd":5,"visib":"6+","altim":1016,"clouds":[{"cover":"SCT","base":4000}],"obsTime":1777215600},"SBMO":{"icaoId":"SBMO","flightCategory":"MVFR","rawOb":"METAR SBMO 261500Z 13009KT 9999 BKN030 30/22 Q1012","temp":30,"dewp":22,"wdir":130,"wspd":9,"visib":"6+","altim":1012,"clouds":[{"cover":"BKN","base":3000}],"obsTime":1777215600},"SBMQ":{"icaoId":"SBMQ","flightCategory":"VFR","rawOb":"METAR SBMQ 261500Z 07009KT 9999 SCT020 31/24 Q1011","temp":31,"dewp":24,"wdir":70,"wspd":9,"visib":"6+","altim":1011,"clouds":[{"cover":"SCT","base":2000}],"obsTime":1777215600},"SBNT":{"icaoId":"SBNT","flightCategory":"VFR","rawOb":"METAR SBNT 261500Z 14013KT 9999 SCT030 FEW035TCU BKN070 31/24 Q1011","temp":31,"dewp":24,"wdir":140,"wspd":13,"visib":"6+","altim":1011,"clouds":[{"cover":"SCT","base":3000},{"cover":"FEW","base":3500},{"cover":"BKN","base":7000}],"obsTime":1777215600},"SBPA":{"icaoId":"SBPA","flightCategory":"IFR","rawOb":"METAR SBPA 261500Z 28008KT 9999 OVC008 21/19 Q1009","temp":21,"dewp":19,"wdir":280,"wspd":8,"visib":"6+","altim":1009,"clouds":[{"cover":"OVC","base":800}],"obsTime":1777215600},"SBPJ":{"icaoId":"SBPJ","flightCategory":"VFR","rawOb":"METAR SBPJ 261500Z 31008KT 280V340 9999 SCT020 31/24 Q1013","temp":31,"dewp":24,"wdir":310,"wspd":8,"visib":"6+","altim":1013,"clouds":[{"cover":"SCT","base":2000}],"obsTime":1777215600},"SBPV":{"icaoId":"SBPV","flightCategory":"MVFR","rawOb":"METAR SBPV 261500Z 36004KT 330V040 9999 BKN025 BKN080 28/26 Q1013","temp":28,"dewp":26,"wdir":360,"wspd":4,"visib":"6+","altim":1013,"clouds":[{"cover":"BKN","base":2500},{"cover":"BKN","base":8000}],"obsTime":1777215600},"SBRB":{"icaoId":"SBRB","flightCategory":"VFR","rawOb":"METAR SBRB 261500Z 27003KT 9999 SCT020 SCT070 29/24 Q1014","temp":29,"dewp":24,"wdir":270,"wspd":3,"visib":"6+","altim":1014,"clouds":[{"cover":"SCT","base":2000},{"cover":"SCT","base":7000}],"obsTime":1777215600},"SBRF":{"icaoId":"SBRF","flightCategory":"VFR","rawOb":"METAR SBRF 261500Z 16016KT 9999 SCT025 30/24 Q1011","temp":30,"dewp":24,"wdir":160,"wspd":16,"visib":"6+","altim":1011,"clouds":[{"cover":"SCT","base":2500}],"obsTime":1777215600},"SBSG":{"icaoId":"SBSG","flightCategory":"VFR","rawOb":"METAR SBSG 261500Z 14007KT 090V200 9999 SCT030 FEW033TCU 30/23 Q1011","temp":30,"dewp":23,"wdir":140,"wspd":7,"visib":"6+","altim":1011,"clouds":[{"cover":"SCT","base":3000},{"cover":"FEW","base":3300}],"obsTime":1777215600},"SBSL":{"icaoId":"SBSL","flightCategory":"VFR","rawOb":"METAR SBSL 261500Z 09005KT 9999 SCT035 30/25 Q1011","temp":30,"dewp":25,"wdir":90,"wspd":5,"visib":"6+","altim":1011,"clouds":[{"cover":"SCT","base":3500}],"obsTime":1777215600},"SBSN":{"icaoId":"SBSN","flightCategory":"VFR","rawOb":"METAR SBSN 261500Z 06008KT 9999 SCT023 FEW026TCU 31/25 Q1012","temp":31,"dewp":25,"wdir":60,"wspd":8,"visib":"6+","altim":1012,"clouds":[{"cover":"SCT","base":2300},{"cover":"FEW","base":2600}],"obsTime":1777215600},"SBSP":{"icaoId":"SBSP","flightCategory":"VFR","rawOb":"METAR SBSP 261500Z 34011KT 300V020 9999 SCT045 28/17 Q1016","temp":28,"dewp":17,"wdir":340,"wspd":11,"visib":"6+","altim":1016,"clouds":[{"cover":"SCT","base":4500}],"obsTime":1777215600},"SBSV":{"icaoId":"SBSV","flightCategory":"VFR","rawOb":"METAR SBSV 261500Z 13007KT 080V190 9999 SCT023 30/23 Q1013","temp":30,"dewp":23,"wdir":130,"wspd":7,"visib":"6+","altim":1013,"clouds":[{"cover":"SCT","base":2300}],"obsTime":1777215600},"SBTE":{"icaoId":"SBTE","flightCategory":"MVFR","rawOb":"METAR SBTE 261500Z 13009KT 9999 SCT015 BKN016 28/24 Q1011","temp":28,"dewp":24,"wdir":130,"wspd":9,"visib":"6+","altim":1011,"clouds":[{"cover":"SCT","base":1500},{"cover":"BKN","base":1600}],"obsTime":1777215600},"SBUL":{"icaoId":"SBUL","flightCategory":"VFR","rawOb":"METAR SBUL 261500Z 06006KT 360V140 9999 FEW030 28/15 Q1019","temp":28,"dewp":15,"wdir":60,"wspd":6,"visib":"6+","altim":1019,"clouds":[{"cover":"FEW","base":3000}],"obsTime":1777215600},"SBUR":{"icaoId":"SBUR","flightCategory":"VFR","rawOb":"METAR SBUR 261500Z 31006KT 9999 SCT035 30/14 Q1017","temp":30,"dewp":14,"wdir":310,"wspd":6,"visib":"6+","altim":1017,"clouds":[{"cover":"SCT","base":3500}],"obsTime":1777215600},"SBVT":{"icaoId":"SBVT","flightCategory":"VFR","rawOb":"METAR SBVT 261500Z 33005KT 9999 FEW040 33/20 Q1011","temp":33,"dewp":20,"wdir":330,"wspd":5,"visib":"6+","altim":1011,"clouds":[{"cover":"FEW","base":4000}],"obsTime":1777215600},"SBBQ":{"icaoId":"SBBQ","flightCategory":"VFR","rawOb":"METAR SBBQ 261500Z 32007KT 9999 BKN040 26/14 Q1020","temp":26,"dewp":14,"wdir":320,"wspd":7,"visib":"6+","altim":1020,"clouds":[{"cover":"BKN","base":4000}],"obsTime":1777215600},"SBOI":{"icaoId":"SBOI","flightCategory":"VFR","rawOb":"METAR SBOI 261500Z AUTO 08005KT 360V140 9999 FEW032 31/24 Q1013","temp":31,"dewp":24,"wdir":80,"wspd":5,"visib":"6+","altim":1013,"clouds":[{"cover":"FEW","base":3200}],"obsTime":1777215600},"SBCJ":{"icaoId":"SBCJ","flightCategory":"VFR","rawOb":"METAR SBCJ 261500Z 13005KT 9999 SCT019 27/23 Q1016","temp":27,"dewp":23,"wdir":130,"wspd":5,"visib":"6+","altim":1016,"clouds":[{"cover":"SCT","base":1900}],"obsTime":1777215600},"SBPB":{"icaoId":"SBPB","flightCategory":"VFR","rawOb":"METAR SBPB 261500Z 08009KT 9999 SCT020 30/25 Q1011","temp":30,"dewp":25,"wdir":80,"wspd":9,"visib":"6+","altim":1011,"clouds":[{"cover":"SCT","base":2000}],"obsTime":1777215600},"SBCO":{"icaoId":"SBCO","flightCategory":"IFR","rawOb":"METAR SBCO 261500Z 27007KT 5000 BR BKN007 21/19 Q1010","temp":21,"dewp":19,"wdir":270,"wspd":7,"visib":3.11,"altim":1010,"clouds":[{"cover":"BKN","base":700}],"obsTime":1777215600},"SBPL":{"icaoId":"SBPL","flightCategory":"VFR","rawOb":"METAR SBPL 261500Z 13007KT 9999 SCT035 31/19 Q1014","temp":31,"dewp":19,"wdir":130,"wspd":7,"visib":"6+","altim":1014,"clouds":[{"cover":"SCT","base":3500}],"obsTime":1777215600},"SBAX":{"icaoId":"SBAX","flightCategory":"VFR","rawOb":"METAR SBAX 261500Z AUTO 02005KT 320V110 CAVOK 27/14 Q1018","temp":27,"dewp":14,"wdir":20,"wspd":5,"visib":"6+","altim":1018,"clouds":[],"obsTime":1777215600},"SBPP":{"icaoId":"SBPP","flightCategory":"VFR","rawOb":"METAR SBPP 261500Z 30008KT 9999 SCT020 28/20 Q1015","temp":28,"dewp":20,"wdir":300,"wspd":8,"visib":"6+","altim":1015,"clouds":[{"cover":"SCT","base":2000}],"obsTime":1777215600},"SBDN":{"icaoId":"SBDN","flightCategory":"VFR","rawOb":"METAR SBDN 261500Z 31007KT CAVOK 33/18 Q1013","temp":33,"dewp":18,"wdir":310,"wspd":7,"visib":"6+","altim":1013,"clouds":[],"obsTime":1777215600},"SBPS":{"icaoId":"SBPS","flightCategory":"VFR","rawOb":"METAR SBPS 261500Z 08010KT 9999 SCT025 29/23 Q1014","temp":29,"dewp":23,"wdir":80,"wspd":10,"visib":"6+","altim":1014,"clouds":[{"cover":"SCT","base":2500}],"obsTime":1777215600},"SBBU":{"icaoId":"SBBU","flightCategory":"VFR","rawOb":"METAR SBBU 261500Z 28005KT 9999 SCT025 32/20 Q1014","temp":32,"dewp":20,"wdir":280,"wspd":5,"visib":"6+","altim":1014,"clouds":[{"cover":"SCT","base":2500}],"obsTime":1777215600},"SBSC":{"icaoId":"SBSC","flightCategory":"VFR","rawOb":"METAR SBSC 261500Z 35008KT CAVOK 33/21 Q1010","temp":33,"dewp":21,"wdir":350,"wspd":8,"visib":"6+","altim":1010,"clouds":[],"obsTime":1777215600},"SBSJ":{"icaoId":"SBSJ","flightCategory":"VFR","rawOb":"METAR SBSJ 261500Z 33004KT CAVOK 29/17 Q1014","temp":29,"dewp":17,"wdir":330,"wspd":4,"visib":"6+","altim":1014,"clouds":[],"obsTime":1777215600},"SBBH":{"icaoId":"SBBH","flightCategory":"VFR","rawOb":"METAR SBBH 261500Z 26004KT 9999 SCT046 27/16 Q1017","temp":27,"dewp":16,"wdir":260,"wspd":4,"visib":"6+","altim":1017,"clouds":[{"cover":"SCT","base":4600}],"obsTime":1777215600},"SBSM":{"icaoId":"SBSM","flightCategory":"VFR","rawOb":"METAR SBSM 261500Z 27006KT 9999 SCT025 25/18 Q1010","temp":25,"dewp":18,"wdir":270,"wspd":6,"visib":"6+","altim":1010,"clouds":[{"cover":"SCT","base":2500}],"obsTime":1777215600},"SBES":{"icaoId":"SBES","flightCategory":"VFR","rawOb":"METAR SBES 261500Z VRB04KT CAVOK 34/// Q1010","temp":null,"dewp":null,"wdir":"VRB","wspd":4,"visib":"6+","altim":1010,"clouds":[],"obsTime":1777215600},"SBSR":{"icaoId":"SBSR","flightCategory":"VFR","rawOb":"METAR SBSR 261500Z 01006KT 9999 FEW030 32/14 Q1014","temp":32,"dewp":14,"wdir":10,"wspd":6,"visib":"6+","altim":1014,"clouds":[{"cover":"FEW","base":3000}],"obsTime":1777215600},"SBGM":{"icaoId":"SBGM","flightCategory":"VFR","rawOb":"METAR SBGM 261500Z 24005KT 9999 SCT016 SCT060 29/24 Q1014","temp":29,"dewp":24,"wdir":240,"wspd":5,"visib":"6+","altim":1014,"clouds":[{"cover":"SCT","base":1600},{"cover":"SCT","base":6000}],"obsTime":1777215600},"SBCA":{"icaoId":"SBCA","flightCategory":"LIFR","rawOb":"METAR SBCA 261500Z 33012KT 4000 -TSRA BR BCFG BKN002 SCT020 FEW040CB BKN100 20/20 Q1015","temp":20,"dewp":20,"wdir":330,"wspd":12,"visib":2.49,"altim":1015,"clouds":[{"cover":"BKN","base":200},{"cover":"SCT","base":2000},{"cover":"FEW","base":4000},{"cover":"BKN","base":10000}],"obsTime":1777215600},"SBTF":{"icaoId":"SBTF","flightCategory":"VFR","rawOb":"METAR SBTF 261500Z 01006KT 9999 SCT019 32/27 Q1012","temp":32,"dewp":27,"wdir":10,"wspd":6,"visib":"6+","altim":1012,"clouds":[{"cover":"SCT","base":1900}],"obsTime":1777215600},"SBIP":{"icaoId":"SBIP","flightCategory":"VFR","rawOb":"METAR SBIP 261500Z AUTO 03004KT 320V130 CAVOK 31/20 Q1014","temp":31,"dewp":20,"wdir":30,"wspd":4,"visib":"6+","altim":1014,"clouds":[],"obsTime":1777215600},"SBTT":{"icaoId":"SBTT","flightCategory":"MVFR","rawOb":"METAR SBTT 261500Z 10003KT 9999 BKN015 28/23 Q1013","temp":28,"dewp":23,"wdir":100,"wspd":3,"visib":"6+","altim":1013,"clouds":[{"cover":"BKN","base":1500}],"obsTime":1777215600},"SBCC":{"icaoId":"SBCC","flightCategory":"VFR","rawOb":"METAR SBCC 261500Z 03009KT 9999 SCT020 30/20 Q1014","temp":30,"dewp":20,"wdir":30,"wspd":9,"visib":"6+","altim":1014,"clouds":[{"cover":"SCT","base":2000}],"obsTime":1777215600},"SBUY":{"icaoId":"SBUY","flightCategory":"VFR","rawOb":"METAR SBUY 261500Z 00000KT 9999 SCT020 SCT090 30/23 Q1012","temp":30,"dewp":23,"wdir":0,"wspd":0,"visib":"6+","altim":1012,"clouds":[{"cover":"SCT","base":2000},{"cover":"SCT","base":9000}],"obsTime":1777215600},"SBAR":{"icaoId":"SBAR","flightCategory":"VFR","rawOb":"METAR SBAR 261500Z 14009KT 9999 FEW025 30/22 Q1013","temp":30,"dewp":22,"wdir":140,"wspd":9,"visib":"6+","altim":1013,"clouds":[{"cover":"FEW","base":2500}],"obsTime":1777215600},"SBVH":{"icaoId":"SBVH","flightCategory":"VFR","rawOb":"METAR SBVH 261500Z 05008KT 9999 SCT025 29/22 Q1016","temp":29,"dewp":22,"wdir":50,"wspd":8,"visib":"6+","altim":1016,"clouds":[{"cover":"SCT","base":2500}],"obsTime":1777215600},"SBKG":{"icaoId":"SBKG","flightCategory":"MVFR","rawOb":"METAR SBKG 261500Z 14010KT 9999 BKN015 SCT070 28/20 Q1014","temp":28,"dewp":20,"wdir":140,"wspd":10,"visib":"6+","altim":1014,"clouds":[{"cover":"BKN","base":1500},{"cover":"SCT","base":7000}],"obsTime":1777215600},"SBAN":{"icaoId":"SBAN","flightCategory":"VFR","rawOb":"METAR SBAN 261500Z VRB02KT 9999 BKN045 28/14 Q1020","temp":28,"dewp":14,"wdir":"VRB","wspd":2,"visib":"6+","altim":1020,"clouds":[{"cover":"BKN","base":4500}],"obsTime":1777215600},"SBLE":{"icaoId":"SBLE","flightCategory":"VFR","rawOb":"METAR SBLE 261500Z AUTO VRB03KT 9999 FEW027 BKN031 26/21 Q1016","temp":26,"dewp":21,"wdir":"VRB","wspd":3,"visib":"6+","altim":1016,"clouds":[{"cover":"FEW","base":2700},{"cover":"BKN","base":3100}],"obsTime":1777215600},"SBTC":{"icaoId":"SBTC","flightCategory":"VFR","rawOb":"METAR SBTC 261500Z 10006KT 9999 SCT025 29/24 Q1014","temp":29,"dewp":24,"wdir":100,"wspd":6,"visib":"6+","altim":1014,"clouds":[{"cover":"SCT","base":2500}],"obsTime":1777215600},"SBJV":{"icaoId":"SBJV","flightCategory":"VFR","rawOb":"METAR SBJV 261500Z 14003KT 110V180 9000 -RA FEW005 SCT030 BKN100 25/23 Q1009","temp":25,"dewp":23,"wdir":140,"wspd":3,"visib":5.59,"altim":1009,"clouds":[{"cover":"FEW","base":500},{"cover":"SCT","base":3000},{"cover":"BKN","base":10000}],"obsTime":1777215600},"SBNM":{"icaoId":"SBNM","flightCategory":"VFR","rawOb":"METAR SBNM 261500Z 25002KT 9999 SCT030 25/18 Q1012","temp":25,"dewp":18,"wdir":250,"wspd":2,"visib":"6+","altim":1012,"clouds":[{"cover":"SCT","base":3000}],"obsTime":1777215600},"SBIH":{"icaoId":"SBIH","flightCategory":"VFR","rawOb":"METAR SBIH 261500Z 08002KT 9999 SCT020 FEW023TCU 32/25 Q1012","temp":32,"dewp":25,"wdir":80,"wspd":2,"visib":"6+","altim":1012,"clouds":[{"cover":"SCT","base":2000},{"cover":"FEW","base":2300}],"obsTime":1777215600},"SBAF":{"icaoId":"SBAF","flightCategory":"VFR","rawOb":"METAR SBAF 261500Z 30004KT 220V350 CAVOK 34/19 Q1010","temp":34,"dewp":19,"wdir":300,"wspd":4,"visib":"6+","altim":1010,"clouds":[],"obsTime":1777215600},"SBGW":{"icaoId":"SBGW","flightCategory":"VFR","rawOb":"METAR SBGW 261500Z VRB03KT 9999 FEW025 30/16 Q1014","temp":30,"dewp":16,"wdir":"VRB","wspd":3,"visib":"6+","altim":1014,"clouds":[{"cover":"FEW","base":2500}],"obsTime":1777215600},"SBJR":{"icaoId":"SBJR","flightCategory":"VFR","rawOb":"METAR SBJR 261500Z 02004KT CAVOK 37/20 Q1010","temp":37,"dewp":20,"wdir":20,"wspd":4,"visib":"6+","altim":1010,"clouds":[],"obsTime":1777215600},"SBLS":{"icaoId":"SBLS","flightCategory":"VFR","rawOb":"METAR SBLS 261500Z VRB04KT 9999 SCT027 28/16 Q1017","temp":28,"dewp":16,"wdir":"VRB","wspd":4,"visib":"6+","altim":1017,"clouds":[{"cover":"SCT","base":2700}],"obsTime":1777215600},"SBMT":{"icaoId":"SBMT","flightCategory":"VFR","rawOb":"METAR SBMT 261500Z 30012KT 9999 SCT040 28/16 Q1015","temp":28,"dewp":16,"wdir":300,"wspd":12,"visib":"6+","altim":1015,"clouds":[{"cover":"SCT","base":4000}],"obsTime":1777215600},"SBST":{"icaoId":"SBST","flightCategory":"VFR","rawOb":"METAR SBST 261500Z 17004KT CAVOK 30/24 Q1009","temp":30,"dewp":24,"wdir":170,"wspd":4,"visib":"6+","altim":1009,"clouds":[],"obsTime":1777215600},"SBTA":{"icaoId":"SBTA","flightCategory":"VFR","rawOb":"METAR SBTA 261500Z VRB04KT 9999 FEW025 30/17 Q1013","temp":30,"dewp":17,"wdir":"VRB","wspd":4,"visib":"6+","altim":1013,"clouds":[{"cover":"FEW","base":2500}],"obsTime":1777215600},"SBJP":{"icaoId":"SBJP","flightCategory":"VFR","rawOb":"METAR SBJP 261500Z 12013KT 9999 BKN033 30/24 Q1011","temp":30,"dewp":24,"wdir":120,"wspd":13,"visib":"6+","altim":1011,"clouds":[{"cover":"BKN","base":3300}],"obsTime":1777215600}}}