{"updated":1782548512,"count":53,"data":{"SBSP":{"icaoId":"SBSP","flightCategory":"LIFR","rawOb":"METAR SBSP 270700Z AUTO 08005KT 040V100 5000 BR OVC003 15/15 Q1026","temp":15,"dewp":15,"wdir":80,"wspd":5,"visib":3.11,"altim":1026,"clouds":[{"cover":"OVC","base":300}],"obsTime":1782543600},"SBPA":{"icaoId":"SBPA","flightCategory":"MVFR","rawOb":"METAR SBPA 270700Z 31003KT 8000 VCFG FEW010 07/07 Q1022","temp":7,"dewp":7,"wdir":310,"wspd":3,"visib":4.97,"altim":1022,"clouds":[{"cover":"FEW","base":1000}],"obsTime":1782543600},"SBMG":{"icaoId":"SBMG","flightCategory":"MVFR","rawOb":"METAR SBMG 270700Z AUTO 12003KT 8000 SCT002 15/14 Q1021","temp":15,"dewp":14,"wdir":120,"wspd":3,"visib":4.97,"altim":1021,"clouds":[{"cover":"SCT","base":200}],"obsTime":1782543600},"SBSL":{"icaoId":"SBSL","flightCategory":"VFR","rawOb":"METAR SBSL 270700Z 10006KT CAVOK 26/24 Q1014","temp":26,"dewp":24,"wdir":100,"wspd":6,"visib":"6+","altim":1014,"clouds":[],"obsTime":1782543600},"SBIL":{"icaoId":"SBIL","flightCategory":"VFR","rawOb":"METAR SBIL 270700Z 24004KT 9999 SCT025 BKN080 23/22 Q1020","temp":23,"dewp":22,"wdir":240,"wspd":4,"visib":"6+","altim":1020,"clouds":[{"cover":"SCT","base":2500},{"cover":"BKN","base":8000}],"obsTime":1782543600},"SBPJ":{"icaoId":"SBPJ","flightCategory":"VFR","rawOb":"METAR SBPJ 270700Z 12007KT 9999 FEW045 BKN070 26/19 Q1015","temp":26,"dewp":19,"wdir":120,"wspd":7,"visib":"6+","altim":1015,"clouds":[{"cover":"FEW","base":4500},{"cover":"BKN","base":7000}],"obsTime":1782543600},"SBJU":{"icaoId":"SBJU","flightCategory":"MVFR","rawOb":"METAR SBJU 270700Z 00000KT 9999 BKN020 22/22 Q1018","temp":22,"dewp":22,"wdir":0,"wspd":0,"visib":"6+","altim":1018,"clouds":[{"cover":"BKN","base":2000}],"obsTime":1782543600},"SBME":{"icaoId":"SBME","flightCategory":"IFR","rawOb":"METAR SBME 270700Z 02003KT 5000 -RA BKN008 OVC100 21/21 Q1022","temp":21,"dewp":21,"wdir":20,"wspd":3,"visib":3.11,"altim":1022,"clouds":[{"cover":"BKN","base":800},{"cover":"OVC","base":10000}],"obsTime":1782543600},"SBMK":{"icaoId":"SBMK","flightCategory":"VFR","rawOb":"METAR SBMK 270700Z 20002KT 9999 SCT030 18/16 Q1023","temp":18,"dewp":16,"wdir":200,"wspd":2,"visib":"6+","altim":1023,"clouds":[{"cover":"SCT","base":3000}],"obsTime":1782543600},"SBUL":{"icaoId":"SBUL","flightCategory":"VFR","rawOb":"METAR SBUL 270700Z 10010KT CAVOK 17/13 Q1024","temp":17,"dewp":13,"wdir":100,"wspd":10,"visib":"6+","altim":1024,"clouds":[],"obsTime":1782543600},"SBUR":{"icaoId":"SBUR","flightCategory":"VFR","rawOb":"METAR SBUR 270700Z 07005KT CAVOK 17/13 Q1023","temp":17,"dewp":13,"wdir":70,"wspd":5,"visib":"6+","altim":1023,"clouds":[],"obsTime":1782543600},"SBKP":{"icaoId":"SBKP","flightCategory":"VFR","rawOb":"METAR SBKP 270700Z 12008KT CAVOK 16/15 Q1024","temp":16,"dewp":15,"wdir":120,"wspd":8,"visib":"6+","altim":1024,"clouds":[],"obsTime":1782543600},"SBMA":{"icaoId":"SBMA","flightCategory":"VFR","rawOb":"METAR SBMA 270700Z 00000KT CAVOK 23/21 Q1013","temp":23,"dewp":21,"wdir":0,"wspd":0,"visib":"6+","altim":1013,"clouds":[],"obsTime":1782543600},"SBSG":{"icaoId":"SBSG","flightCategory":"LIFR","rawOb":"METAR SBSG 270700Z 19004KT 160V230 7000 -DZ BKN002 BKN040 23/22 Q1015","temp":23,"dewp":22,"wdir":190,"wspd":4,"visib":4.35,"altim":1015,"clouds":[{"cover":"BKN","base":200},{"cover":"BKN","base":4000}],"obsTime":1782543600},"SBBR":{"icaoId":"SBBR","flightCategory":"VFR","rawOb":"METAR SBBR 270700Z 10002KT CAVOK 15/13 Q1024","temp":15,"dewp":13,"wdir":100,"wspd":2,"visib":"6+","altim":1024,"clouds":[],"obsTime":1782543600},"SBMO":{"icaoId":"SBMO","flightCategory":"MVFR","rawOb":"METAR SBMO 270700Z 14013KT 5000 DZ BR SCT006 BKN020 OVC030 23/23 Q1016","temp":23,"dewp":23,"wdir":140,"wspd":13,"visib":3.11,"altim":1016,"clouds":[{"cover":"SCT","base":600},{"cover":"BKN","base":2000},{"cover":"OVC","base":3000}],"obsTime":1782543600},"SBNT":{"icaoId":"SBNT","flightCategory":"VFR","rawOb":"METAR SBNT 270700Z 21005KT 9999 SCT017 23/22 Q1015","temp":23,"dewp":22,"wdir":210,"wspd":5,"visib":"6+","altim":1015,"clouds":[{"cover":"SCT","base":1700}],"obsTime":1782543600},"SBCF":{"icaoId":"SBCF","flightCategory":"VFR","rawOb":"METAR SBCF 270700Z 13009KT CAVOK 17/15 Q1025","temp":17,"dewp":15,"wdir":130,"wspd":9,"visib":"6+","altim":1025,"clouds":[],"obsTime":1782543600},"SBGL":{"icaoId":"SBGL","flightCategory":"LIFR","rawOb":"METAR SBGL 270700Z 29002KT 0500 R33/1800D R10/1800D R28/1800D R15/1900D FG VV002 19/18 Q1022","temp":19,"dewp":18,"wdir":290,"wspd":2,"visib":0.31,"altim":1022,"clouds":[{"cover":"OVX","base":200}],"obsTime":1782543600},"SBBE":{"icaoId":"SBBE","flightCategory":"VFR","rawOb":"METAR SBBE 270700Z 08006KT CAVOK 26/23 Q1014","temp":26,"dewp":23,"wdir":80,"wspd":6,"visib":"6+","altim":1014,"clouds":[],"obsTime":1782543600},"SBCT":{"icaoId":"SBCT","flightCategory":"LIFR","rawOb":"METAR SBCT 270700Z 23002KT 0200 R33/0700 R15/1800 FG OVC003 10/10 Q1025","temp":10,"dewp":10,"wdir":230,"wspd":2,"visib":0.12,"altim":1025,"clouds":[{"cover":"OVC","base":300}],"obsTime":1782543600},"SBSV":{"icaoId":"SBSV","flightCategory":"VFR","rawOb":"METAR SBSV 270700Z 11011KT 9999 FEW020 SCT070 26/20 Q1018","temp":26,"dewp":20,"wdir":110,"wspd":11,"visib":"6+","altim":1018,"clouds":[{"cover":"FEW","base":2000},{"cover":"SCT","base":7000}],"obsTime":1782543600},"SBMQ":{"icaoId":"SBMQ","flightCategory":"VFR","rawOb":"METAR SBMQ 270700Z 07008KT 9999 SCT021 28/25 Q1013","temp":28,"dewp":25,"wdir":70,"wspd":8,"visib":"6+","altim":1013,"clouds":[{"cover":"SCT","base":2100}],"obsTime":1782543600},"SBRB":{"icaoId":"SBRB","flightCategory":"MVFR","rawOb":"METAR SBRB 270700Z 19004KT 8000 BKN015 20/19 Q1016","temp":20,"dewp":19,"wdir":190,"wspd":4,"visib":4.97,"altim":1016,"clouds":[{"cover":"BKN","base":1500}],"obsTime":1782543600},"SBLO":{"icaoId":"SBLO","flightCategory":"VFR","rawOb":"METAR SBLO 270700Z 11003KT 9999 SCT025 BKN100 15/15 Q1022","temp":15,"dewp":15,"wdir":110,"wspd":3,"visib":"6+","altim":1022,"clouds":[{"cover":"SCT","base":2500},{"cover":"BKN","base":10000}],"obsTime":1782543600},"SBGR":{"icaoId":"SBGR","flightCategory":"IFR","rawOb":"METAR SBGR 270700Z 07006KT 7000 BKN006 OVC008 16/15 Q1025","temp":16,"dewp":15,"wdir":70,"wspd":6,"visib":4.35,"altim":1025,"clouds":[{"cover":"BKN","base":600},{"cover":"OVC","base":800}],"obsTime":1782543600},"SBCG":{"icaoId":"SBCG","flightCategory":"VFR","rawOb":"METAR SBCG 270700Z 06014KT 9999 FEW003 SCT100 19/17 Q1019","temp":19,"dewp":17,"wdir":60,"wspd":14,"visib":"6+","altim":1019,"clouds":[{"cover":"FEW","base":300},{"cover":"SCT","base":10000}],"obsTime":1782543600},"SBFI":{"icaoId":"SBFI","flightCategory":"VFR","rawOb":"METAR SBFI 270700Z 09004KT 9999 FEW025 SCT100 15/12 Q1019","temp":15,"dewp":12,"wdir":90,"wspd":4,"visib":"6+","altim":1019,"clouds":[{"cover":"FEW","base":2500},{"cover":"SCT","base":10000}],"obsTime":1782543600},"SBVT":{"icaoId":"SBVT","flightCategory":"IFR","rawOb":"METAR SBVT 270700Z COR 02003KT 4000 -RA SCT015 OVC030 20/20 Q1023","temp":20,"dewp":20,"wdir":20,"wspd":3,"visib":2.49,"altim":1023,"clouds":[{"cover":"SCT","base":1500},{"cover":"OVC","base":3000}],"obsTime":1782543600},"SBRF":{"icaoId":"SBRF","flightCategory":"MVFR","rawOb":"METAR SBRF 270700Z 14012KT 5000 BR SCT006 BKN015 BKN050 25/24 Q1015","temp":25,"dewp":24,"wdir":140,"wspd":12,"visib":3.11,"altim":1015,"clouds":[{"cover":"SCT","base":600},{"cover":"BKN","base":1500},{"cover":"BKN","base":5000}],"obsTime":1782543600},"SBPV":{"icaoId":"SBPV","flightCategory":"VFR","rawOb":"METAR SBPV 270700Z 00000KT 9999 FEW020 25/22 Q1015","temp":25,"dewp":22,"wdir":0,"wspd":0,"visib":"6+","altim":1015,"clouds":[{"cover":"FEW","base":2000}],"obsTime":1782543600},"SBTE":{"icaoId":"SBTE","flightCategory":"VFR","rawOb":"METAR SBTE 270700Z 00000KT 9999 FEW015 25/23 Q1014","temp":25,"dewp":23,"wdir":0,"wspd":0,"visib":"6+","altim":1014,"clouds":[{"cover":"FEW","base":1500}],"obsTime":1782543600},"SBBV":{"icaoId":"SBBV","flightCategory":"VFR","rawOb":"METAR SBBV 270700Z 27002KT 9999 FEW025 FEW035TCU SCT100 25/25 Q1013","temp":25,"dewp":25,"wdir":270,"wspd":2,"visib":"6+","altim":1013,"clouds":[{"cover":"FEW","base":2500},{"cover":"FEW","base":3500},{"cover":"SCT","base":10000}],"obsTime":1782543600},"SBSN":{"icaoId":"SBSN","flightCategory":"MVFR","rawOb":"METAR SBSN 270700Z 10003KT 8000 SHRA SCT014 FEW020TCU 26/25 Q1012","temp":26,"dewp":25,"wdir":100,"wspd":3,"visib":4.97,"altim":1012,"clouds":[{"cover":"SCT","base":1400},{"cover":"FEW","base":2000}],"obsTime":1782543600},"SBFL":{"icaoId":"SBFL","flightCategory":"VFR","rawOb":"METAR SBFL 270700Z 33003KT CAVOK 12/12 Q1022","temp":12,"dewp":12,"wdir":330,"wspd":3,"visib":"6+","altim":1022,"clouds":[],"obsTime":1782543600},"SBFZ":{"icaoId":"SBFZ","flightCategory":"VFR","rawOb":"METAR SBFZ 270700Z 17008KT 9999 FEW016 25/23 Q1014","temp":25,"dewp":23,"wdir":170,"wspd":8,"visib":"6+","altim":1014,"clouds":[{"cover":"FEW","base":1600}],"obsTime":1782543600},"SBGO":{"icaoId":"SBGO","flightCategory":"VFR","rawOb":"METAR SBGO 270700Z 13004KT CAVOK 16/14 Q1022","temp":16,"dewp":14,"wdir":130,"wspd":4,"visib":"6+","altim":1022,"clouds":[],"obsTime":1782543600},"SBEG":{"icaoId":"SBEG","flightCategory":"VFR","rawOb":"METAR SBEG 270700Z 00000KT 9999 FEW008 BKN080 24/24 Q1014","temp":24,"dewp":24,"wdir":0,"wspd":0,"visib":"6+","altim":1014,"clouds":[{"cover":"FEW","base":800},{"cover":"BKN","base":8000}],"obsTime":1782543600},"SBOI":{"icaoId":"SBOI","flightCategory":"LIFR","rawOb":"METAR SBOI 270700Z AUTO VRB02KT 0700 FG VV001 24/23 Q1014","temp":24,"dewp":23,"wdir":"VRB","wspd":2,"visib":0.43,"altim":1014,"clouds":[{"cover":"OVX","base":100}],"obsTime":1782543600},"SBIP":{"icaoId":"SBIP","flightCategory":"VFR","rawOb":"METAR SBIP 270700Z AUTO VRB02KT CAVOK 18/18 Q1024","temp":18,"dewp":18,"wdir":"VRB","wspd":2,"visib":"6+","altim":1024,"clouds":[],"obsTime":1782543600},"SBDN":{"icaoId":"SBDN","flightCategory":"VFR","rawOb":"METAR SBDN 270700Z 11008KT CAVOK 17/15 Q1021","temp":17,"dewp":15,"wdir":110,"wspd":8,"visib":"6+","altim":1021,"clouds":[],"obsTime":1782543600},"SBSC":{"icaoId":"SBSC","flightCategory":"MVFR","rawOb":"METAR SBSC 270700Z 01003KT 6000 FEW010 BKN020 BKN080 19/18 Q1023","temp":19,"dewp":18,"wdir":10,"wspd":3,"visib":3.73,"altim":1023,"clouds":[{"cover":"FEW","base":1000},{"cover":"BKN","base":2000},{"cover":"BKN","base":8000}],"obsTime":1782543600},"SBSR":{"icaoId":"SBSR","flightCategory":"VFR","rawOb":"METAR SBSR 270700Z 12004KT CAVOK 18/16 Q1022","temp":18,"dewp":16,"wdir":120,"wspd":4,"visib":"6+","altim":1022,"clouds":[],"obsTime":1782543600},"SBTU":{"icaoId":"SBTU","flightCategory":"VFR","rawOb":"METAR SBTU 270700Z AUTO 21006KT 170V250 9999 // NCD ///// Q1015","temp":null,"dewp":null,"wdir":210,"wspd":6,"visib":"6+","altim":1015,"clouds":[],"obsTime":1782543600},"SBAR":{"icaoId":"SBAR","flightCategory":"VFR","rawOb":"METAR SBAR 270700Z 13009KT 100V170 9999 VCSH SCT015 SCT020 BKN050 26/22 Q1017","temp":26,"dewp":22,"wdir":130,"wspd":9,"visib":"6+","altim":1017,"clouds":[{"cover":"SCT","base":1500},{"cover":"SCT","base":2000},{"cover":"BKN","base":5000}],"obsTime":1782543600},"SBPS":{"icaoId":"SBPS","flightCategory":"MVFR","rawOb":"METAR SBPS 270700Z VRB05KT 9999 SCT010 BKN030 23/21 Q1021","temp":23,"dewp":21,"wdir":"VRB","wspd":5,"visib":"6+","altim":1021,"clouds":[{"cover":"SCT","base":1000},{"cover":"BKN","base":3000}],"obsTime":1782543600},"SBPL":{"icaoId":"SBPL","flightCategory":"VFR","rawOb":"METAR SBPL 270700Z 12006KT 9999 SCT020 BKN070 23/21 Q1018","temp":23,"dewp":21,"wdir":120,"wspd":6,"visib":"6+","altim":1018,"clouds":[{"cover":"SCT","base":2000},{"cover":"BKN","base":7000}],"obsTime":1782543600},"SBAX":{"icaoId":"SBAX","flightCategory":"VFR","rawOb":"METAR SBAX 270700Z AUTO 12006KT CAVOK 16/16 Q1025","temp":16,"dewp":16,"wdir":120,"wspd":6,"visib":"6+","altim":1025,"clouds":[],"obsTime":1782543600},"SBKG":{"icaoId":"SBKG","flightCategory":"MVFR","rawOb":"METAR SBKG 270700Z 13005KT 9999 OVC010 21/21 Q1017","temp":21,"dewp":21,"wdir":130,"wspd":5,"visib":"6+","altim":1017,"clouds":[{"cover":"OVC","base":1000}],"obsTime":1782543600},"SBAN":{"icaoId":"SBAN","flightCategory":"VFR","rawOb":"METAR SBAN 270700Z 12005KT CAVOK 16/12 Q1024","temp":16,"dewp":12,"wdir":120,"wspd":5,"visib":"6+","altim":1024,"clouds":[],"obsTime":1782543600},"SBNM":{"icaoId":"SBNM","flightCategory":"VFR","rawOb":"METAR SBNM 270800Z AUTO 07007KT CAVOK 09/05 Q1020","temp":9,"dewp":5,"wdir":70,"wspd":7,"visib":"6+","altim":1020,"clouds":[],"obsTime":1782547200},"SBLE":{"icaoId":"SBLE","flightCategory":"MVFR","rawOb":"METAR SBLE 270700Z AUTO 13004KT 9999 -RA SCT003 SCT015 OVC026 ///// Q//// RERA","temp":null,"dewp":null,"wdir":130,"wspd":4,"visib":"6+","altim":null,"clouds":[{"cover":"SCT","base":300},{"cover":"SCT","base":1500},{"cover":"OVC","base":2600}],"obsTime":1782543600},"SBJP":{"icaoId":"SBJP","flightCategory":"IFR","rawOb":"METAR SBJP 270700Z 19003KT 3000 -RA BKN007 BKN010 24/24 Q1015","temp":24,"dewp":24,"wdir":190,"wspd":3,"visib":1.86,"altim":1015,"clouds":[{"cover":"BKN","base":700},{"cover":"BKN","base":1000}],"obsTime":1782543600}}}