{"updated":1778100646,"count":86,"data":{"SBPV":{"icaoId":"SBPV","flightCategory":"VFR","rawOb":"METAR SBPV 061900Z 30002KT 9999 SCT025 FEW026TCU 30/27 Q1011","temp":30,"dewp":27,"wdir":300,"wspd":2,"visib":"6+","altim":1011,"clouds":[{"cover":"SCT","base":2500},{"cover":"FEW","base":2600}],"obsTime":1778094000},"SBAT":{"icaoId":"SBAT","flightCategory":"VFR","rawOb":"METAR SBAT 061900Z 11007KT 9999 SCT045 33/19 Q1012","temp":33,"dewp":19,"wdir":110,"wspd":7,"visib":"6+","altim":1012,"clouds":[{"cover":"SCT","base":4500}],"obsTime":1778094000},"SBBE":{"icaoId":"SBBE","flightCategory":"VFR","rawOb":"METAR SBBE 061900Z 05008KT 9999 FEW049 SCT090 27/25 Q1010","temp":27,"dewp":25,"wdir":50,"wspd":8,"visib":"6+","altim":1010,"clouds":[{"cover":"FEW","base":4900},{"cover":"SCT","base":9000}],"obsTime":1778094000},"SBBR":{"icaoId":"SBBR","flightCategory":"VFR","rawOb":"METAR SBBR 061900Z 10009KT 070V140 9999 SCT045 26/13 Q1020","temp":26,"dewp":13,"wdir":100,"wspd":9,"visib":"6+","altim":1020,"clouds":[{"cover":"SCT","base":4500}],"obsTime":1778094000},"SBBV":{"icaoId":"SBBV","flightCategory":"VFR","rawOb":"METAR SBBV 061900Z 10009KT 9999 SCT035 FEW040TCU 32/21 Q1012","temp":32,"dewp":21,"wdir":100,"wspd":9,"visib":"6+","altim":1012,"clouds":[{"cover":"SCT","base":3500},{"cover":"FEW","base":4000}],"obsTime":1778094000},"SBCB":{"icaoId":"SBCB","flightCategory":"VFR","rawOb":"METAR SBCB 061900Z 08011KT 9999 FEW020 26/23 Q1018","temp":26,"dewp":23,"wdir":80,"wspd":11,"visib":"6+","altim":1018,"clouds":[{"cover":"FEW","base":2000}],"obsTime":1778094000},"SBCF":{"icaoId":"SBCF","flightCategory":"VFR","rawOb":"METAR SBCF 061900Z 12008KT 090V200 9999 SCT042 26/16 Q1021","temp":26,"dewp":16,"wdir":120,"wspd":8,"visib":"6+","altim":1021,"clouds":[{"cover":"SCT","base":4200}],"obsTime":1778094000},"SBCG":{"icaoId":"SBCG","flightCategory":"VFR","rawOb":"METAR SBCG 061900Z 02011KT 350V060 CAVOK 31/15 Q1015","temp":31,"dewp":15,"wdir":20,"wspd":11,"visib":"6+","altim":1015,"clouds":[],"obsTime":1778094000},"SBCP":{"icaoId":"SBCP","flightCategory":"VFR","rawOb":"METAR SBCP 061900Z 11010KT 9999 SCT020 FEW025TCU 28/23 Q1018","temp":28,"dewp":23,"wdir":110,"wspd":10,"visib":"6+","altim":1018,"clouds":[{"cover":"SCT","base":2000},{"cover":"FEW","base":2500}],"obsTime":1778094000},"SBCR":{"icaoId":"SBCR","flightCategory":"VFR","rawOb":"METAR SBCR 061900Z 03011KT 360V060 9999 FEW040 34/20 Q1011","temp":34,"dewp":20,"wdir":30,"wspd":11,"visib":"6+","altim":1011,"clouds":[{"cover":"FEW","base":4000}],"obsTime":1778094000},"SBCT":{"icaoId":"SBCT","flightCategory":"VFR","rawOb":"METAR SBCT 061900Z 35006KT 310V060 9999 SCT045 28/15 Q1021","temp":28,"dewp":15,"wdir":350,"wspd":6,"visib":"6+","altim":1021,"clouds":[{"cover":"SCT","base":4500}],"obsTime":1778094000},"SBCZ":{"icaoId":"SBCZ","flightCategory":"MVFR","rawOb":"METAR SBCZ 061900Z 13005KT 9999 VCSH BKN030 30/24 Q1012","temp":30,"dewp":24,"wdir":130,"wspd":5,"visib":"6+","altim":1012,"clouds":[{"cover":"BKN","base":3000}],"obsTime":1778094000},"SBEG":{"icaoId":"SBEG","flightCategory":"MVFR","rawOb":"METAR SBEG 061900Z 22007KT 9999 BKN025 BKN100 28/25 Q1012","temp":28,"dewp":25,"wdir":220,"wspd":7,"visib":"6+","altim":1012,"clouds":[{"cover":"BKN","base":2500},{"cover":"BKN","base":10000}],"obsTime":1778094000},"SBFI":{"icaoId":"SBFI","flightCategory":"VFR","rawOb":"METAR SBFI 061900Z 02009KT 9999 FEW030 29/23 Q1013","temp":29,"dewp":23,"wdir":20,"wspd":9,"visib":"6+","altim":1013,"clouds":[{"cover":"FEW","base":3000}],"obsTime":1778094000},"SBFL":{"icaoId":"SBFL","flightCategory":"VFR","rawOb":"METAR SBFL 061900Z 33007KT CAVOK 26/22 Q1015","temp":26,"dewp":22,"wdir":330,"wspd":7,"visib":"6+","altim":1015,"clouds":[],"obsTime":1778094000},"SBFZ":{"icaoId":"SBFZ","flightCategory":"VFR","rawOb":"METAR SBFZ 061900Z 10013KT 9999 FEW030 29/23 Q1011","temp":29,"dewp":23,"wdir":100,"wspd":13,"visib":"6+","altim":1011,"clouds":[{"cover":"FEW","base":3000}],"obsTime":1778094000},"SBGL":{"icaoId":"SBGL","flightCategory":"VFR","rawOb":"METAR SBGL 061900Z 13008KT CAVOK 28/21 Q1017","temp":28,"dewp":21,"wdir":130,"wspd":8,"visib":"6+","altim":1017,"clouds":[],"obsTime":1778094000},"SBGO":{"icaoId":"SBGO","flightCategory":"VFR","rawOb":"METAR SBGO 061900Z 08008KT CAVOK 30/16 Q1018","temp":30,"dewp":16,"wdir":80,"wspd":8,"visib":"6+","altim":1018,"clouds":[],"obsTime":1778094000},"SBGR":{"icaoId":"SBGR","flightCategory":"VFR","rawOb":"METAR SBGR 061900Z 10006KT CAVOK 29/14 Q1020","temp":29,"dewp":14,"wdir":100,"wspd":6,"visib":"6+","altim":1020,"clouds":[],"obsTime":1778094000},"SBHT":{"icaoId":"SBHT","flightCategory":"MVFR","rawOb":"METAR SBHT 061900Z 13004KT 9999 BKN030 31/24 Q1011","temp":31,"dewp":24,"wdir":130,"wspd":4,"visib":"6+","altim":1011,"clouds":[{"cover":"BKN","base":3000}],"obsTime":1778094000},"SBIL":{"icaoId":"SBIL","flightCategory":"MVFR","rawOb":"METAR SBIL 061900Z 17007KT 140V210 5000 -RA BR FEW010 BKN018 FEW020TCU BKN050 25/24 Q1016","temp":25,"dewp":24,"wdir":170,"wspd":7,"visib":3.11,"altim":1016,"clouds":[{"cover":"FEW","base":1000},{"cover":"BKN","base":1800},{"cover":"FEW","base":2000},{"cover":"BKN","base":5000}],"obsTime":1778094000},"SBJU":{"icaoId":"SBJU","flightCategory":"VFR","rawOb":"METAR SBJU 061900Z 16007KT 9999 FEW022 BKN070 31/19 Q1013","temp":31,"dewp":19,"wdir":160,"wspd":7,"visib":"6+","altim":1013,"clouds":[{"cover":"FEW","base":2200},{"cover":"BKN","base":7000}],"obsTime":1778094000},"SBKP":{"icaoId":"SBKP","flightCategory":"VFR","rawOb":"METAR SBKP 061900Z 15005KT 9999 FEW045 31/14 Q1019","temp":31,"dewp":14,"wdir":150,"wspd":5,"visib":"6+","altim":1019,"clouds":[{"cover":"FEW","base":4500}],"obsTime":1778094000},"SBLO":{"icaoId":"SBLO","flightCategory":"VFR","rawOb":"METAR SBLO 061900Z 10007KT 9999 FEW040 29/18 Q1018","temp":29,"dewp":18,"wdir":100,"wspd":7,"visib":"6+","altim":1018,"clouds":[{"cover":"FEW","base":4000}],"obsTime":1778094000},"SBMA":{"icaoId":"SBMA","flightCategory":"VFR","rawOb":"METAR SBMA 061900Z 19002KT 9999 FEW020 FEW025TCU 31/24 Q1010","temp":31,"dewp":24,"wdir":190,"wspd":2,"visib":"6+","altim":1010,"clouds":[{"cover":"FEW","base":2000},{"cover":"FEW","base":2500}],"obsTime":1778094000},"SBME":{"icaoId":"SBME","flightCategory":"VFR","rawOb":"METAR SBME 061900Z 10009KT 9999 FEW025 28/23 Q1017","temp":28,"dewp":23,"wdir":100,"wspd":9,"visib":"6+","altim":1017,"clouds":[{"cover":"FEW","base":2500}],"obsTime":1778094000},"SBMG":{"icaoId":"SBMG","flightCategory":"VFR","rawOb":"METAR SBMG 061900Z 06008KT 9999 SCT045 30/18 Q1016","temp":30,"dewp":18,"wdir":60,"wspd":8,"visib":"6+","altim":1016,"clouds":[{"cover":"SCT","base":4500}],"obsTime":1778094000},"SBMK":{"icaoId":"SBMK","flightCategory":"VFR","rawOb":"METAR SBMK 061900Z 09014KT 9999 FEW040 SCT100 27/16 Q1019","temp":27,"dewp":16,"wdir":90,"wspd":14,"visib":"6+","altim":1019,"clouds":[{"cover":"FEW","base":4000},{"cover":"SCT","base":10000}],"obsTime":1778094000},"SBMO":{"icaoId":"SBMO","flightCategory":"VFR","rawOb":"METAR SBMO 061900Z 13006KT 100V170 9999 BKN031 SCT070 29/23 Q1013","temp":29,"dewp":23,"wdir":130,"wspd":6,"visib":"6+","altim":1013,"clouds":[{"cover":"BKN","base":3100},{"cover":"SCT","base":7000}],"obsTime":1778094000},"SBMQ":{"icaoId":"SBMQ","flightCategory":"VFR","rawOb":"METAR SBMQ 061900Z 02003KT 9999 SCT025 FEW040TCU BKN080 31/24 Q1010","temp":31,"dewp":24,"wdir":20,"wspd":3,"visib":"6+","altim":1010,"clouds":[{"cover":"SCT","base":2500},{"cover":"FEW","base":4000},{"cover":"BKN","base":8000}],"obsTime":1778094000},"SBNT":{"icaoId":"SBNT","flightCategory":"VFR","rawOb":"METAR SBNT 061900Z 14009KT 9999 FEW030 29/23 Q1011","temp":29,"dewp":23,"wdir":140,"wspd":9,"visib":"6+","altim":1011,"clouds":[{"cover":"FEW","base":3000}],"obsTime":1778094000},"SBPA":{"icaoId":"SBPA","flightCategory":"VFR","rawOb":"METAR SBPA 061900Z 31006KT 280V350 9999 FEW040 32/21 Q1012","temp":32,"dewp":21,"wdir":310,"wspd":6,"visib":"6+","altim":1012,"clouds":[{"cover":"FEW","base":4000}],"obsTime":1778094000},"SBPJ":{"icaoId":"SBPJ","flightCategory":"VFR","rawOb":"METAR SBPJ 061900Z 10005KT 9999 FEW045 33/20 Q1012","temp":33,"dewp":20,"wdir":100,"wspd":5,"visib":"6+","altim":1012,"clouds":[{"cover":"FEW","base":4500}],"obsTime":1778094000},"SBRB":{"icaoId":"SBRB","flightCategory":"MVFR","rawOb":"METAR SBRB 061900Z 04002KT 9999 BKN030 32/24 Q1012","temp":32,"dewp":24,"wdir":40,"wspd":2,"visib":"6+","altim":1012,"clouds":[{"cover":"BKN","base":3000}],"obsTime":1778094000},"SBRF":{"icaoId":"SBRF","flightCategory":"VFR","rawOb":"METAR SBRF 061900Z 13007KT 100V190 9999 VCSH SCT022 BKN050 27/24 Q1012","temp":27,"dewp":24,"wdir":130,"wspd":7,"visib":"6+","altim":1012,"clouds":[{"cover":"SCT","base":2200},{"cover":"BKN","base":5000}],"obsTime":1778094000},"SBSG":{"icaoId":"SBSG","flightCategory":"VFR","rawOb":"METAR SBSG 061900Z 15006KT 110V190 9999 SCT030 29/23 Q1011","temp":29,"dewp":23,"wdir":150,"wspd":6,"visib":"6+","altim":1011,"clouds":[{"cover":"SCT","base":3000}],"obsTime":1778094000},"SBSL":{"icaoId":"SBSL","flightCategory":"MVFR","rawOb":"METAR SBSL 061900Z 08004KT 040V160 8000 -TSRA FEW012 BKN014 FEW017CB 24/24 Q1011 RETSRA","temp":24,"dewp":24,"wdir":80,"wspd":4,"visib":4.97,"altim":1011,"clouds":[{"cover":"FEW","base":1200},{"cover":"BKN","base":1400},{"cover":"FEW","base":1700}],"obsTime":1778094000},"SBSN":{"icaoId":"SBSN","flightCategory":"VFR","rawOb":"METAR SBSN 061900Z 07006KT 020V090 9999 FEW023 FEW025TCU 30/24 Q1010","temp":30,"dewp":24,"wdir":70,"wspd":6,"visib":"6+","altim":1010,"clouds":[{"cover":"FEW","base":2300},{"cover":"FEW","base":2500}],"obsTime":1778094000},"SBSP":{"icaoId":"SBSP","flightCategory":"VFR","rawOb":"METAR SBSP 061900Z 05006KT CAVOK 29/11 Q1021","temp":29,"dewp":11,"wdir":50,"wspd":6,"visib":"6+","altim":1021,"clouds":[],"obsTime":1778094000},"SBSV":{"icaoId":"SBSV","flightCategory":"VFR","rawOb":"METAR SBSV 061900Z 15010KT 9999 VCSH SCT024 FEW025TCU SCT070 27/24 Q1014","temp":27,"dewp":24,"wdir":150,"wspd":10,"visib":"6+","altim":1014,"clouds":[{"cover":"SCT","base":2400},{"cover":"FEW","base":2500},{"cover":"SCT","base":7000}],"obsTime":1778094000},"SBTE":{"icaoId":"SBTE","flightCategory":"VFR","rawOb":"METAR SBTE 061900Z 14007KT 9999 FEW040 33/23 Q1009","temp":33,"dewp":23,"wdir":140,"wspd":7,"visib":"6+","altim":1009,"clouds":[{"cover":"FEW","base":4000}],"obsTime":1778094000},"SBUL":{"icaoId":"SBUL","flightCategory":"VFR","rawOb":"METAR SBUL 061900Z 11006KT 040V160 9999 SCT045 27/14 Q1021","temp":27,"dewp":14,"wdir":110,"wspd":6,"visib":"6+","altim":1021,"clouds":[{"cover":"SCT","base":4500}],"obsTime":1778094000},"SBUR":{"icaoId":"SBUR","flightCategory":"VFR","rawOb":"METAR SBUR 061900Z 08006KT CAVOK 30/12 Q1019","temp":30,"dewp":12,"wdir":80,"wspd":6,"visib":"6+","altim":1019,"clouds":[],"obsTime":1778094000},"SBVT":{"icaoId":"SBVT","flightCategory":"VFR","rawOb":"METAR SBVT 061900Z 16009KT 9999 FEW030 SCT100 26/23 Q1018","temp":26,"dewp":23,"wdir":160,"wspd":9,"visib":"6+","altim":1018,"clouds":[{"cover":"FEW","base":3000},{"cover":"SCT","base":10000}],"obsTime":1778094000},"SBVH":{"icaoId":"SBVH","flightCategory":"VFR","rawOb":"METAR SBVH 061900Z 05009KT 9999 FEW040 30/20 Q1015","temp":30,"dewp":20,"wdir":50,"wspd":9,"visib":"6+","altim":1015,"clouds":[{"cover":"FEW","base":4000}],"obsTime":1778094000},"SBPB":{"icaoId":"SBPB","flightCategory":"VFR","rawOb":"METAR SBPB 061900Z 02004KT 9999 SCT016 FEW025TCU BKN080 30/26 Q1009","temp":30,"dewp":26,"wdir":20,"wspd":4,"visib":"6+","altim":1009,"clouds":[{"cover":"SCT","base":1600},{"cover":"FEW","base":2500},{"cover":"BKN","base":8000}],"obsTime":1778094000},"SBBQ":{"icaoId":"SBBQ","flightCategory":"VFR","rawOb":"METAR SBBQ 061900Z 09007KT CAVOK 23/14 Q1025","temp":23,"dewp":14,"wdir":90,"wspd":7,"visib":"6+","altim":1025,"clouds":[],"obsTime":1778094000},"SBAR":{"icaoId":"SBAR","flightCategory":"VFR","rawOb":"METAR SBAR 061900Z 13006KT 9999 FEW020 BKN040 29/24 Q1013","temp":29,"dewp":24,"wdir":130,"wspd":6,"visib":"6+","altim":1013,"clouds":[{"cover":"FEW","base":2000},{"cover":"BKN","base":4000}],"obsTime":1778094000},"SBPL":{"icaoId":"SBPL","flightCategory":"VFR","rawOb":"METAR SBPL 061900Z 13010KT 9999 SCT025 33/17 Q1013","temp":33,"dewp":17,"wdir":130,"wspd":10,"visib":"6+","altim":1013,"clouds":[{"cover":"SCT","base":2500}],"obsTime":1778094000},"SBCO":{"icaoId":"SBCO","flightCategory":"VFR","rawOb":"METAR SBCO 061900Z 30005KT CAVOK 33/21 Q1012","temp":33,"dewp":21,"wdir":300,"wspd":5,"visib":"6+","altim":1012,"clouds":[],"obsTime":1778094000},"SBPP":{"icaoId":"SBPP","flightCategory":"VFR","rawOb":"METAR SBPP 061900Z 05011KT 9999 FEW020 30/20 Q1016","temp":30,"dewp":20,"wdir":50,"wspd":11,"visib":"6+","altim":1016,"clouds":[{"cover":"FEW","base":2000}],"obsTime":1778094000},"SBBU":{"icaoId":"SBBU","flightCategory":"VFR","rawOb":"METAR SBBU 061900Z 13007KT 9999 SCT048 32/16 Q1018","temp":32,"dewp":16,"wdir":130,"wspd":7,"visib":"6+","altim":1018,"clouds":[{"cover":"SCT","base":4800}],"obsTime":1778094000},"SBPS":{"icaoId":"SBPS","flightCategory":"VFR","rawOb":"METAR SBPS 061900Z 15004KT 9999 FEW011 SCT025 27/25 Q1016","temp":27,"dewp":25,"wdir":150,"wspd":4,"visib":"6+","altim":1016,"clouds":[{"cover":"FEW","base":1100},{"cover":"SCT","base":2500}],"obsTime":1778094000},"SBDN":{"icaoId":"SBDN","flightCategory":"VFR","rawOb":"METAR SBDN 061900Z 04008KT 9999 FEW048 30/15 Q1016","temp":30,"dewp":15,"wdir":40,"wspd":8,"visib":"6+","altim":1016,"clouds":[{"cover":"FEW","base":4800}],"obsTime":1778094000},"SBSC":{"icaoId":"SBSC","flightCategory":"VFR","rawOb":"METAR SBSC 061900Z 21005KT CAVOK 29/22 Q1016","temp":29,"dewp":22,"wdir":210,"wspd":5,"visib":"6+","altim":1016,"clouds":[],"obsTime":1778094000},"SBSJ":{"icaoId":"SBSJ","flightCategory":"VFR","rawOb":"METAR SBSJ 061900Z 07004KT 360V120 9999 FEW048 29/15 Q1020","temp":29,"dewp":15,"wdir":70,"wspd":4,"visib":"6+","altim":1020,"clouds":[{"cover":"FEW","base":4800}],"obsTime":1778094000},"SBBH":{"icaoId":"SBBH","flightCategory":"VFR","rawOb":"METAR SBBH 061900Z 08007KT 9999 BKN040 26/16 Q1021","temp":26,"dewp":16,"wdir":80,"wspd":7,"visib":"6+","altim":1021,"clouds":[{"cover":"BKN","base":4000}],"obsTime":1778094000},"SBES":{"icaoId":"SBES","flightCategory":"VFR","rawOb":"METAR SBES 061900Z 06014KT 360V090 9999 FEW020 27/// Q1017","temp":null,"dewp":null,"wdir":60,"wspd":14,"visib":"6+","altim":1017,"clouds":[{"cover":"FEW","base":2000}],"obsTime":1778094000},"SBSM":{"icaoId":"SBSM","flightCategory":"VFR","rawOb":"METAR SBSM 061900Z 33004KT 280V010 CAVOK 32/20 Q1011","temp":32,"dewp":20,"wdir":330,"wspd":4,"visib":"6+","altim":1011,"clouds":[],"obsTime":1778094000},"SBCA":{"icaoId":"SBCA","flightCategory":"VFR","rawOb":"METAR SBCA 061900Z 05016KT 9999 SCT020 27/18 Q1018","temp":27,"dewp":18,"wdir":50,"wspd":16,"visib":"6+","altim":1018,"clouds":[{"cover":"SCT","base":2000}],"obsTime":1778094000},"SBSR":{"icaoId":"SBSR","flightCategory":"VFR","rawOb":"METAR SBSR 061900Z 15003KT 9999 FEW030 33/13 Q1017","temp":33,"dewp":13,"wdir":150,"wspd":3,"visib":"6+","altim":1017,"clouds":[{"cover":"FEW","base":3000}],"obsTime":1778094000},"SBCJ":{"icaoId":"SBCJ","flightCategory":"VFR","rawOb":"METAR SBCJ 061900Z 12006KT 9999 SCT025 28/21 Q1016","temp":28,"dewp":21,"wdir":120,"wspd":6,"visib":"6+","altim":1016,"clouds":[{"cover":"SCT","base":2500}],"obsTime":1778094000},"SBAX":{"icaoId":"SBAX","flightCategory":"VFR","rawOb":"METAR SBAX 061900Z COR 09004KT 9999 SCT030 26/13 Q1021","temp":26,"dewp":13,"wdir":90,"wspd":4,"visib":"6+","altim":1021,"clouds":[{"cover":"SCT","base":3000}],"obsTime":1778094000},"SBTF":{"icaoId":"SBTF","flightCategory":"MVFR","rawOb":"METAR SBTF 061900Z 09007KT 9999 BKN010 BKN100 25/24 Q1013","temp":25,"dewp":24,"wdir":90,"wspd":7,"visib":"6+","altim":1013,"clouds":[{"cover":"BKN","base":1000},{"cover":"BKN","base":10000}],"obsTime":1778094000},"SBIP":{"icaoId":"SBIP","flightCategory":"VFR","rawOb":"METAR SBIP 061900Z AUTO 36005KT CAVOK 29/18 Q1018","temp":29,"dewp":18,"wdir":360,"wspd":5,"visib":"6+","altim":1018,"clouds":[],"obsTime":1778094000},"SBTT":{"icaoId":"SBTT","flightCategory":"MVFR","rawOb":"METAR SBTT 061900Z 34006KT 9999 BKN020 30/23 Q1011","temp":30,"dewp":23,"wdir":340,"wspd":6,"visib":"6+","altim":1011,"clouds":[{"cover":"BKN","base":2000}],"obsTime":1778094000},"SBCC":{"icaoId":"SBCC","flightCategory":"VFR","rawOb":"METAR SBCC 061900Z 10005KT CAVOK 30/16 Q1013","temp":30,"dewp":16,"wdir":100,"wspd":5,"visib":"6+","altim":1013,"clouds":[],"obsTime":1778094000},"SBTU":{"icaoId":"SBTU","flightCategory":"VFR","rawOb":"METAR SBTU 061900Z AUTO VRB02KT 9999 // ///////// ///// Q1012","temp":null,"dewp":null,"wdir":"VRB","wspd":2,"visib":"6+","altim":1012,"clouds":[],"obsTime":1778094000},"SBUY":{"icaoId":"SBUY","flightCategory":"VFR","rawOb":"METAR SBUY 061900Z 13003KT 9999 VCSH SCT025 FEW030TCU BKN090 28/25 Q1011","temp":28,"dewp":25,"wdir":130,"wspd":3,"visib":"6+","altim":1011,"clouds":[{"cover":"SCT","base":2500},{"cover":"FEW","base":3000},{"cover":"BKN","base":9000}],"obsTime":1778094000},"SBKG":{"icaoId":"SBKG","flightCategory":"MVFR","rawOb":"METAR SBKG 061900Z 09006KT 9999 BKN020 FEW023TCU BKN080 22/21 Q1015","temp":22,"dewp":21,"wdir":90,"wspd":6,"visib":"6+","altim":1015,"clouds":[{"cover":"BKN","base":2000},{"cover":"FEW","base":2300},{"cover":"BKN","base":8000}],"obsTime":1778094000},"SBOI":{"icaoId":"SBOI","flightCategory":"VFR","rawOb":"METAR SBOI 061900Z AUTO 04009KT 020V080 9999 SCT036 30/23 Q1011","temp":30,"dewp":23,"wdir":40,"wspd":9,"visib":"6+","altim":1011,"clouds":[{"cover":"SCT","base":3600}],"obsTime":1778094000},"SBGM":{"icaoId":"SBGM","flightCategory":"MVFR","rawOb":"METAR SBGM 061900Z 29005KT 9999 BKN026 33/23 Q1011","temp":33,"dewp":23,"wdir":290,"wspd":5,"visib":"6+","altim":1011,"clouds":[{"cover":"BKN","base":2600}],"obsTime":1778094000},"SBJP":{"icaoId":"SBJP","flightCategory":"VFR","rawOb":"METAR SBJP 061900Z 14010KT 9999 FEW025 28/23 Q1012","temp":28,"dewp":23,"wdir":140,"wspd":10,"visib":"6+","altim":1012,"clouds":[{"cover":"FEW","base":2500}],"obsTime":1778094000},"SBLE":{"icaoId":"SBLE","flightCategory":"VFR","rawOb":"METAR SBLE 061900Z AUTO 18006KT 140V210 9999 FEW020 SCT031 25/25 Q1017","temp":25,"dewp":25,"wdir":180,"wspd":6,"visib":"6+","altim":1017,"clouds":[{"cover":"FEW","base":2000},{"cover":"SCT","base":3100}],"obsTime":1778094000},"SBJV":{"icaoId":"SBJV","flightCategory":"VFR","rawOb":"METAR SBJV 061900Z 14006KT 9999 FEW015 26/24 Q1016","temp":26,"dewp":24,"wdir":140,"wspd":6,"visib":"6+","altim":1016,"clouds":[{"cover":"FEW","base":1500}],"obsTime":1778094000},"SBPF":{"icaoId":"SBPF","flightCategory":"VFR","rawOb":"METAR SBPF 062000Z 35006KT CAVOK 27/17 Q1017","temp":27,"dewp":17,"wdir":350,"wspd":6,"visib":"6+","altim":1017,"clouds":[],"obsTime":1778097600},"SBAN":{"icaoId":"SBAN","flightCategory":"VFR","rawOb":"METAR SBAN 061900Z 17010KT 130V200 9999 FEW040 27/13 Q1021","temp":27,"dewp":13,"wdir":170,"wspd":10,"visib":"6+","altim":1021,"clouds":[{"cover":"FEW","base":4000}],"obsTime":1778094000},"SBIH":{"icaoId":"SBIH","flightCategory":"VFR","rawOb":"METAR SBIH 061900Z 15009KT 9999 VCSH SCT018 FEW025TCU BKN100 31/24 Q1010","temp":31,"dewp":24,"wdir":150,"wspd":9,"visib":"6+","altim":1010,"clouds":[{"cover":"SCT","base":1800},{"cover":"FEW","base":2500},{"cover":"BKN","base":10000}],"obsTime":1778094000},"SBAF":{"icaoId":"SBAF","flightCategory":"VFR","rawOb":"METAR SBAF 061900Z 17006KT 9999 FEW030 29/22 Q1017","temp":29,"dewp":22,"wdir":170,"wspd":6,"visib":"6+","altim":1017,"clouds":[{"cover":"FEW","base":3000}],"obsTime":1778094000},"SBGW":{"icaoId":"SBGW","flightCategory":"VFR","rawOb":"METAR SBGW 061900Z 01003KT 310V050 9999 FEW030 29/15 Q1019","temp":29,"dewp":15,"wdir":10,"wspd":3,"visib":"6+","altim":1019,"clouds":[{"cover":"FEW","base":3000}],"obsTime":1778094000},"SBJR":{"icaoId":"SBJR","flightCategory":"VFR","rawOb":"METAR SBJR 061900Z 26002KT CAVOK 29/22 Q1017","temp":29,"dewp":22,"wdir":260,"wspd":2,"visib":"6+","altim":1017,"clouds":[],"obsTime":1778094000},"SBLS":{"icaoId":"SBLS","flightCategory":"VFR","rawOb":"METAR SBLS 061900Z 13008KT 9999 SCT035 25/17 Q1021","temp":25,"dewp":17,"wdir":130,"wspd":8,"visib":"6+","altim":1021,"clouds":[{"cover":"SCT","base":3500}],"obsTime":1778094000},"SBMT":{"icaoId":"SBMT","flightCategory":"VFR","rawOb":"METAR SBMT 061900Z 05004KT 9999 FEW030 29/14 Q1020","temp":29,"dewp":14,"wdir":50,"wspd":4,"visib":"6+","altim":1020,"clouds":[{"cover":"FEW","base":3000}],"obsTime":1778094000},"SBTA":{"icaoId":"SBTA","flightCategory":"VFR","rawOb":"METAR SBTA 061900Z 03004KT 360V060 9999 FEW040 29/16 Q1018","temp":29,"dewp":16,"wdir":30,"wspd":4,"visib":"6+","altim":1018,"clouds":[{"cover":"FEW","base":4000}],"obsTime":1778094000},"SBST":{"icaoId":"SBST","flightCategory":"VFR","rawOb":"METAR SBST 061900Z /////KT 9999 SCT020 ///// Q1016","temp":null,"dewp":null,"wdir":null,"wspd":null,"visib":"6+","altim":1016,"clouds":[{"cover":"SCT","base":2000}],"obsTime":1778094000},"SBNM":{"icaoId":"SBNM","flightCategory":"VFR","rawOb":"METAR SBNM 061900Z 02010KT 9999 FEW030 32/21 Q1013","temp":32,"dewp":21,"wdir":20,"wspd":10,"visib":"6+","altim":1013,"clouds":[{"cover":"FEW","base":3000}],"obsTime":1778094000}}}