{"updated":1784192776,"count":54,"data":{"SBMA":{"icaoId":"SBMA","flightCategory":"VFR","rawOb":"METAR SBMA 160800Z 03002KT 9999 FEW012 SCT100 24/23 Q1014","temp":24,"dewp":23,"wdir":30,"wspd":2,"visib":"6+","altim":1014,"clouds":[{"cover":"FEW","base":1200},{"cover":"SCT","base":10000}],"obsTime":1784188800},"SBSP":{"icaoId":"SBSP","flightCategory":"VFR","rawOb":"METAR SBSP 160800Z AUTO 05006KT CAVOK 13/10 Q1024","temp":13,"dewp":10,"wdir":50,"wspd":6,"visib":"6+","altim":1024,"clouds":[],"obsTime":1784188800},"SBMQ":{"icaoId":"SBMQ","flightCategory":"MVFR","rawOb":"METAR SBMQ 160800Z 07008KT 9999 BKN019 28/24 Q1013","temp":28,"dewp":24,"wdir":70,"wspd":8,"visib":"6+","altim":1013,"clouds":[{"cover":"BKN","base":1900}],"obsTime":1784188800},"SBRB":{"icaoId":"SBRB","flightCategory":"VFR","rawOb":"METAR SBRB 160800Z 00000KT CAVOK 21/21 Q1012","temp":21,"dewp":21,"wdir":0,"wspd":0,"visib":"6+","altim":1012,"clouds":[],"obsTime":1784188800},"SBSL":{"icaoId":"SBSL","flightCategory":"VFR","rawOb":"METAR SBSL 160800Z 12003KT 9999 SCT020 SCT080 26/24 Q1014","temp":26,"dewp":24,"wdir":120,"wspd":3,"visib":"6+","altim":1014,"clouds":[{"cover":"SCT","base":2000},{"cover":"SCT","base":8000}],"obsTime":1784188800},"SBSG":{"icaoId":"SBSG","flightCategory":"MVFR","rawOb":"METAR SBSG 160800Z 19003KT 160V230 9999 SCT007 BKN020 22/22 Q1017","temp":22,"dewp":22,"wdir":190,"wspd":3,"visib":"6+","altim":1017,"clouds":[{"cover":"SCT","base":700},{"cover":"BKN","base":2000}],"obsTime":1784188800},"SBCB":{"icaoId":"SBCB","flightCategory":"VFR","rawOb":"METAR SBCB 160900Z 08007KT CAVOK 18/16 Q1024","temp":18,"dewp":16,"wdir":80,"wspd":7,"visib":"6+","altim":1024,"clouds":[],"obsTime":1784192400},"SBNT":{"icaoId":"SBNT","flightCategory":"MVFR","rawOb":"METAR SBNT 160800Z 19008KT 6000 -RA SCT013 BKN015 FEW025TCU 23/22 Q1017","temp":23,"dewp":22,"wdir":190,"wspd":8,"visib":3.73,"altim":1017,"clouds":[{"cover":"SCT","base":1300},{"cover":"BKN","base":1500},{"cover":"FEW","base":2500}],"obsTime":1784188800},"SBMO":{"icaoId":"SBMO","flightCategory":"VFR","rawOb":"METAR SBMO 160800Z 16010KT 9999 VCSH SCT023 BKN040 24/20 Q1019","temp":24,"dewp":20,"wdir":160,"wspd":10,"visib":"6+","altim":1019,"clouds":[{"cover":"SCT","base":2300},{"cover":"BKN","base":4000}],"obsTime":1784188800},"SBPV":{"icaoId":"SBPV","flightCategory":"VFR","rawOb":"METAR SBPV 160800Z 34002KT 9999 SCT030 BKN080 25/23 Q1012","temp":25,"dewp":23,"wdir":340,"wspd":2,"visib":"6+","altim":1012,"clouds":[{"cover":"SCT","base":3000},{"cover":"BKN","base":8000}],"obsTime":1784188800},"SBBE":{"icaoId":"SBBE","flightCategory":"VFR","rawOb":"METAR SBBE 160800Z 08008KT CAVOK 25/23 Q1014","temp":25,"dewp":23,"wdir":80,"wspd":8,"visib":"6+","altim":1014,"clouds":[],"obsTime":1784188800},"SBSN":{"icaoId":"SBSN","flightCategory":"VFR","rawOb":"METAR SBSN 160800Z 13005KT 070V140 9999 SCT035 26/24 Q1012","temp":26,"dewp":24,"wdir":130,"wspd":5,"visib":"6+","altim":1012,"clouds":[{"cover":"SCT","base":3500}],"obsTime":1784188800},"SBEG":{"icaoId":"SBEG","flightCategory":"VFR","rawOb":"METAR SBEG 160800Z 25002KT CAVOK 25/24 Q1013","temp":25,"dewp":24,"wdir":250,"wspd":2,"visib":"6+","altim":1013,"clouds":[],"obsTime":1784188800},"SBPA":{"icaoId":"SBPA","flightCategory":"VFR","rawOb":"METAR SBPA 160800Z 09003KT 070V140 CAVOK 09/09 Q1016","temp":9,"dewp":9,"wdir":90,"wspd":3,"visib":"6+","altim":1016,"clouds":[],"obsTime":1784188800},"SBRF":{"icaoId":"SBRF","flightCategory":"MVFR","rawOb":"METAR SBRF 160800Z 15013KT 9999 BKN023 24/22 Q1017","temp":24,"dewp":22,"wdir":150,"wspd":13,"visib":"6+","altim":1017,"clouds":[{"cover":"BKN","base":2300}],"obsTime":1784188800},"SBGL":{"icaoId":"SBGL","flightCategory":"MVFR","rawOb":"METAR SBGL 160800Z 00000KT 8000 NSC 13/12 Q1023","temp":13,"dewp":12,"wdir":0,"wspd":0,"visib":4.97,"altim":1023,"clouds":[],"obsTime":1784188800},"SBSV":{"icaoId":"SBSV","flightCategory":"VFR","rawOb":"METAR SBSV 160800Z 23007KT 9999 SCT025 BKN040 BKN060 22/18 Q1021","temp":22,"dewp":18,"wdir":230,"wspd":7,"visib":"6+","altim":1021,"clouds":[{"cover":"SCT","base":2500},{"cover":"BKN","base":4000},{"cover":"BKN","base":6000}],"obsTime":1784188800},"SBBR":{"icaoId":"SBBR","flightCategory":"VFR","rawOb":"METAR SBBR 160800Z 14005KT CAVOK 16/12 Q1024","temp":16,"dewp":12,"wdir":140,"wspd":5,"visib":"6+","altim":1024,"clouds":[],"obsTime":1784188800},"SBFI":{"icaoId":"SBFI","flightCategory":"VFR","rawOb":"METAR SBFI 160800Z 09007KT CAVOK 15/12 Q1014","temp":15,"dewp":12,"wdir":90,"wspd":7,"visib":"6+","altim":1014,"clouds":[],"obsTime":1784188800},"SBFL":{"icaoId":"SBFL","flightCategory":"VFR","rawOb":"METAR SBFL 160800Z 33013KT 9999 FEW023 SCT030 17/15 Q1019","temp":17,"dewp":15,"wdir":330,"wspd":13,"visib":"6+","altim":1019,"clouds":[{"cover":"FEW","base":2300},{"cover":"SCT","base":3000}],"obsTime":1784188800},"SBKP":{"icaoId":"SBKP","flightCategory":"VFR","rawOb":"METAR SBKP 160800Z 12006KT CAVOK 11/08 Q1023","temp":11,"dewp":8,"wdir":120,"wspd":6,"visib":"6+","altim":1023,"clouds":[],"obsTime":1784188800},"SBBV":{"icaoId":"SBBV","flightCategory":"VFR","rawOb":"METAR SBBV 160800Z 09003KT CAVOK 26/24 Q1013","temp":26,"dewp":24,"wdir":90,"wspd":3,"visib":"6+","altim":1013,"clouds":[],"obsTime":1784188800},"SBVT":{"icaoId":"SBVT","flightCategory":"VFR","rawOb":"METAR SBVT 160800Z 31003KT 9999 SCT049 15/14 Q1025","temp":15,"dewp":14,"wdir":310,"wspd":3,"visib":"6+","altim":1025,"clouds":[{"cover":"SCT","base":4900}],"obsTime":1784188800},"SBFZ":{"icaoId":"SBFZ","flightCategory":"VFR","rawOb":"METAR SBFZ 160800Z 14008KT CAVOK 26/22 Q1015","temp":26,"dewp":22,"wdir":140,"wspd":8,"visib":"6+","altim":1015,"clouds":[],"obsTime":1784188800},"SBCF":{"icaoId":"SBCF","flightCategory":"VFR","rawOb":"METAR SBCF 160800Z 14006KT CAVOK 11/09 Q1026","temp":11,"dewp":9,"wdir":140,"wspd":6,"visib":"6+","altim":1026,"clouds":[],"obsTime":1784188800},"SBLO":{"icaoId":"SBLO","flightCategory":"VFR","rawOb":"METAR SBLO 160800Z 22003KT CAVOK 12/10 Q1020","temp":12,"dewp":10,"wdir":220,"wspd":3,"visib":"6+","altim":1020,"clouds":[],"obsTime":1784188800},"SBCG":{"icaoId":"SBCG","flightCategory":"VFR","rawOb":"METAR SBCG 160800Z 06016KT CAVOK 21/11 Q1015","temp":21,"dewp":11,"wdir":60,"wspd":16,"visib":"6+","altim":1015,"clouds":[],"obsTime":1784188800},"SBGR":{"icaoId":"SBGR","flightCategory":"VFR","rawOb":"METAR SBGR 160800Z 08009KT CAVOK 09/09 Q1024","temp":9,"dewp":9,"wdir":80,"wspd":9,"visib":"6+","altim":1024,"clouds":[],"obsTime":1784188800},"SBTE":{"icaoId":"SBTE","flightCategory":"VFR","rawOb":"METAR SBTE 160800Z 19005KT 9999 FEW007 SCT070 24/23 Q1015","temp":24,"dewp":23,"wdir":190,"wspd":5,"visib":"6+","altim":1015,"clouds":[{"cover":"FEW","base":700},{"cover":"SCT","base":7000}],"obsTime":1784188800},"SBGO":{"icaoId":"SBGO","flightCategory":"VFR","rawOb":"METAR SBGO 160800Z 07008KT 040V100 CAVOK 21/13 Q1021","temp":21,"dewp":13,"wdir":70,"wspd":8,"visib":"6+","altim":1021,"clouds":[],"obsTime":1784188800},"SBPJ":{"icaoId":"SBPJ","flightCategory":"VFR","rawOb":"METAR SBPJ 160800Z 12003KT 070V150 CAVOK 24/22 Q1016","temp":24,"dewp":22,"wdir":120,"wspd":3,"visib":"6+","altim":1016,"clouds":[],"obsTime":1784188800},"SBCT":{"icaoId":"SBCT","flightCategory":"LIFR","rawOb":"METAR SBCT 160800Z 36003KT 0500 R15/0500 R33/0500 FG VV001 09/09 Q1023","temp":9,"dewp":9,"wdir":360,"wspd":3,"visib":0.31,"altim":1023,"clouds":[{"cover":"OVX","base":100}],"obsTime":1784188800},"SBJU":{"icaoId":"SBJU","flightCategory":"VFR","rawOb":"METAR SBJU 160800Z 14011KT 9999 FEW020 21/17 Q1020","temp":21,"dewp":17,"wdir":140,"wspd":11,"visib":"6+","altim":1020,"clouds":[{"cover":"FEW","base":2000}],"obsTime":1784188800},"SBMG":{"icaoId":"SBMG","flightCategory":"VFR","rawOb":"METAR SBMG 160800Z AUTO 06015KT CAVOK 18/10 Q1018","temp":18,"dewp":10,"wdir":60,"wspd":15,"visib":"6+","altim":1018,"clouds":[],"obsTime":1784188800},"SBME":{"icaoId":"SBME","flightCategory":"VFR","rawOb":"METAR SBME 160800Z 01006KT CAVOK 15/13 Q1024","temp":15,"dewp":13,"wdir":10,"wspd":6,"visib":"6+","altim":1024,"clouds":[],"obsTime":1784188800},"SBMK":{"icaoId":"SBMK","flightCategory":"VFR","rawOb":"METAR SBMK 160800Z 00000KT CAVOK 12/10 Q1024","temp":12,"dewp":10,"wdir":0,"wspd":0,"visib":"6+","altim":1024,"clouds":[],"obsTime":1784188800},"SBUL":{"icaoId":"SBUL","flightCategory":"VFR","rawOb":"METAR SBUL 160800Z 11010KT CAVOK 16/09 Q1023","temp":16,"dewp":9,"wdir":110,"wspd":10,"visib":"6+","altim":1023,"clouds":[],"obsTime":1784188800},"SBUR":{"icaoId":"SBUR","flightCategory":"VFR","rawOb":"METAR SBUR 160800Z 04009KT CAVOK 17/09 Q1022","temp":17,"dewp":9,"wdir":40,"wspd":9,"visib":"6+","altim":1022,"clouds":[],"obsTime":1784188800},"SBPS":{"icaoId":"SBPS","flightCategory":"VFR","rawOb":"METAR SBPS 160800Z 25006KT 9999 BKN040 17/16 Q1023","temp":17,"dewp":16,"wdir":250,"wspd":6,"visib":"6+","altim":1023,"clouds":[{"cover":"BKN","base":4000}],"obsTime":1784188800},"SBPL":{"icaoId":"SBPL","flightCategory":"VFR","rawOb":"METAR SBPL 160800Z 12012KT 9999 SCT022 21/16 Q1021","temp":21,"dewp":16,"wdir":120,"wspd":12,"visib":"6+","altim":1021,"clouds":[{"cover":"SCT","base":2200}],"obsTime":1784188800},"SBSJ":{"icaoId":"SBSJ","flightCategory":"MVFR","rawOb":"SPECI SBSJ 160805Z VRB02KT 7000 NSC 08/08 Q1024","temp":8,"dewp":8,"wdir":"VRB","wspd":2,"visib":4.35,"altim":1024,"clouds":[],"obsTime":1784189100},"SBOI":{"icaoId":"SBOI","flightCategory":"LIFR","rawOb":"METAR SBOI 160800Z AUTO 00000KT 1400 BR VV002 23/23 Q1014","temp":23,"dewp":23,"wdir":0,"wspd":0,"visib":0.87,"altim":1014,"clouds":[{"cover":"OVX","base":200}],"obsTime":1784188800},"SBAR":{"icaoId":"SBAR","flightCategory":"VFR","rawOb":"METAR SBAR 160800Z 14011KT 9999 FEW040 24/18 Q1019","temp":24,"dewp":18,"wdir":140,"wspd":11,"visib":"6+","altim":1019,"clouds":[{"cover":"FEW","base":4000}],"obsTime":1784188800},"SBAX":{"icaoId":"SBAX","flightCategory":"VFR","rawOb":"METAR SBAX 160800Z AUTO 12011KT CAVOK 12/09 Q1024","temp":12,"dewp":9,"wdir":120,"wspd":11,"visib":"6+","altim":1024,"clouds":[],"obsTime":1784188800},"SBDN":{"icaoId":"SBDN","flightCategory":"VFR","rawOb":"METAR SBDN 160800Z 06011KT CAVOK 16/09 Q1018","temp":16,"dewp":9,"wdir":60,"wspd":11,"visib":"6+","altim":1018,"clouds":[],"obsTime":1784188800},"SBIP":{"icaoId":"SBIP","flightCategory":"LIFR","rawOb":"METAR SBIP 160800Z AUTO 20002KT 0500 FG VV001 11/11 Q1026","temp":11,"dewp":11,"wdir":200,"wspd":2,"visib":0.31,"altim":1026,"clouds":[{"cover":"OVX","base":100}],"obsTime":1784188800},"SBSC":{"icaoId":"SBSC","flightCategory":"VFR","rawOb":"METAR SBSC 160800Z 33007KT CAVOK 15/13 Q1022","temp":15,"dewp":13,"wdir":330,"wspd":7,"visib":"6+","altim":1022,"clouds":[],"obsTime":1784188800},"SBSR":{"icaoId":"SBSR","flightCategory":"VFR","rawOb":"METAR SBSR 160800Z 07005KT CAVOK 17/09 Q1020","temp":17,"dewp":9,"wdir":70,"wspd":5,"visib":"6+","altim":1020,"clouds":[],"obsTime":1784188800},"SBTU":{"icaoId":"SBTU","flightCategory":"VFR","rawOb":"METAR SBTU 160800Z AUTO 24003KT 9999 // BKN034/// OVC042/// 24/22 Q1016","temp":24,"dewp":22,"wdir":240,"wspd":3,"visib":"6+","altim":1016,"clouds":[{"cover":"BKN","base":3400},{"cover":"OVC","base":4200}],"obsTime":1784188800},"SBKG":{"icaoId":"SBKG","flightCategory":"IFR","rawOb":"METAR SBKG 160800Z 16006KT 9999 BKN008 20/19 Q1020","temp":20,"dewp":19,"wdir":160,"wspd":6,"visib":"6+","altim":1020,"clouds":[{"cover":"BKN","base":800}],"obsTime":1784188800},"SBJP":{"icaoId":"SBJP","flightCategory":"VFR","rawOb":"METAR SBJP 160800Z 17005KT 9999 FEW015 BKN070 23/22 Q1017","temp":23,"dewp":22,"wdir":170,"wspd":5,"visib":"6+","altim":1017,"clouds":[{"cover":"FEW","base":1500},{"cover":"BKN","base":7000}],"obsTime":1784188800},"SBAN":{"icaoId":"SBAN","flightCategory":"VFR","rawOb":"METAR SBAN 160800Z 08005KT CAVOK 16/13 Q1024","temp":16,"dewp":13,"wdir":80,"wspd":5,"visib":"6+","altim":1024,"clouds":[],"obsTime":1784188800},"SBLE":{"icaoId":"SBLE","flightCategory":"MVFR","rawOb":"METAR SBLE 160800Z AUTO 13003KT 9999 BKN027 BKN031 ///// Q1024","temp":null,"dewp":null,"wdir":130,"wspd":3,"visib":"6+","altim":1024,"clouds":[{"cover":"BKN","base":2700},{"cover":"BKN","base":3100}],"obsTime":1784188800},"SBNM":{"icaoId":"SBNM","flightCategory":"VFR","rawOb":"METAR SBNM 160800Z AUTO 03009KT CAVOK 16/09 Q1014","temp":16,"dewp":9,"wdir":30,"wspd":9,"visib":"6+","altim":1014,"clouds":[],"obsTime":1784188800}}}