{"updated":1776902740,"count":70,"data":{"SBFI":{"icaoId":"SBFI","flightCategory":"VFR","rawOb":"METAR SBFI 222300Z 18002KT CAVOK 24/23 Q1015","temp":24,"dewp":23,"wdir":180,"wspd":2,"visib":"6+","altim":1015,"clouds":[],"obsTime":1776898800},"SBBE":{"icaoId":"SBBE","flightCategory":"VFR","rawOb":"METAR SBBE 222300Z 08005KT 9999 BKN035 27/24 Q1010","temp":27,"dewp":24,"wdir":80,"wspd":5,"visib":"6+","altim":1010,"clouds":[{"cover":"BKN","base":3500}],"obsTime":1776898800},"SBBR":{"icaoId":"SBBR","flightCategory":"VFR","rawOb":"METAR SBBR 222300Z 13009KT CAVOK 24/16 Q1019","temp":24,"dewp":16,"wdir":130,"wspd":9,"visib":"6+","altim":1019,"clouds":[],"obsTime":1776898800},"SBBV":{"icaoId":"SBBV","flightCategory":"VFR","rawOb":"METAR SBBV 222300Z 02003KT 9999 SCT009 SCT035 FEW040TCU BKN100 24/23 Q1012","temp":24,"dewp":23,"wdir":20,"wspd":3,"visib":"6+","altim":1012,"clouds":[{"cover":"SCT","base":900},{"cover":"SCT","base":3500},{"cover":"FEW","base":4000},{"cover":"BKN","base":10000}],"obsTime":1776898800},"SBCF":{"icaoId":"SBCF","flightCategory":"VFR","rawOb":"METAR SBCF 222300Z 09003KT 040V190 CAVOK 23/16 Q1019","temp":23,"dewp":16,"wdir":90,"wspd":3,"visib":"6+","altim":1019,"clouds":[],"obsTime":1776898800},"SBCG":{"icaoId":"SBCG","flightCategory":"VFR","rawOb":"METAR SBCG 222300Z 12006KT CAVOK 24/15 Q1016","temp":24,"dewp":15,"wdir":120,"wspd":6,"visib":"6+","altim":1016,"clouds":[],"obsTime":1776898800},"SBCT":{"icaoId":"SBCT","flightCategory":"VFR","rawOb":"METAR SBCT 222300Z 11002KT CAVOK 18/14 Q1021","temp":18,"dewp":14,"wdir":110,"wspd":2,"visib":"6+","altim":1021,"clouds":[],"obsTime":1776898800},"SBEG":{"icaoId":"SBEG","flightCategory":"MVFR","rawOb":"METAR SBEG 222300Z VRB01KT 9999 BKN010 FEW025TCU BKN080 25/23 Q1013","temp":25,"dewp":23,"wdir":"VRB","wspd":1,"visib":"6+","altim":1013,"clouds":[{"cover":"BKN","base":1000},{"cover":"FEW","base":2500},{"cover":"BKN","base":8000}],"obsTime":1776898800},"SBFL":{"icaoId":"SBFL","flightCategory":"VFR","rawOb":"METAR SBFL 222300Z 36005KT CAVOK 24/19 Q1016","temp":24,"dewp":19,"wdir":360,"wspd":5,"visib":"6+","altim":1016,"clouds":[],"obsTime":1776898800},"SBFZ":{"icaoId":"SBFZ","flightCategory":"VFR","rawOb":"METAR SBFZ 222300Z 08003KT CAVOK 28/23 Q1010","temp":28,"dewp":23,"wdir":80,"wspd":3,"visib":"6+","altim":1010,"clouds":[],"obsTime":1776898800},"SBGL":{"icaoId":"SBGL","flightCategory":"VFR","rawOb":"METAR SBGL 222300Z 14007KT 9999 BKN040 24/20 Q1017","temp":24,"dewp":20,"wdir":140,"wspd":7,"visib":"6+","altim":1017,"clouds":[{"cover":"BKN","base":4000}],"obsTime":1776898800},"SBGO":{"icaoId":"SBGO","flightCategory":"VFR","rawOb":"METAR SBGO 222300Z 34005KT CAVOK 24/20 Q1016","temp":24,"dewp":20,"wdir":340,"wspd":5,"visib":"6+","altim":1016,"clouds":[],"obsTime":1776898800},"SBGR":{"icaoId":"SBGR","flightCategory":"MVFR","rawOb":"METAR SBGR 222300Z 14007KT 9999 OVC013 20/17 Q1021","temp":20,"dewp":17,"wdir":140,"wspd":7,"visib":"6+","altim":1021,"clouds":[{"cover":"OVC","base":1300}],"obsTime":1776898800},"SBKP":{"icaoId":"SBKP","flightCategory":"VFR","rawOb":"METAR SBKP 222300Z 13010KT CAVOK 22/17 Q1018","temp":22,"dewp":17,"wdir":130,"wspd":10,"visib":"6+","altim":1018,"clouds":[],"obsTime":1776898800},"SBLO":{"icaoId":"SBLO","flightCategory":"VFR","rawOb":"METAR SBLO 222300Z 10002KT CAVOK 24/15 Q1017","temp":24,"dewp":15,"wdir":100,"wspd":2,"visib":"6+","altim":1017,"clouds":[],"obsTime":1776898800},"SBMA":{"icaoId":"SBMA","flightCategory":"MVFR","rawOb":"METAR SBMA 222300Z 32002KT 9999 BKN015 FEW025TCU BKN080 27/24 Q1010","temp":27,"dewp":24,"wdir":320,"wspd":2,"visib":"6+","altim":1010,"clouds":[{"cover":"BKN","base":1500},{"cover":"FEW","base":2500},{"cover":"BKN","base":8000}],"obsTime":1776898800},"SBMO":{"icaoId":"SBMO","flightCategory":"VFR","rawOb":"METAR SBMO 222300Z 26005KT 9999 SCT013 25/24 Q1014","temp":25,"dewp":24,"wdir":260,"wspd":5,"visib":"6+","altim":1014,"clouds":[{"cover":"SCT","base":1300}],"obsTime":1776898800},"SBMQ":{"icaoId":"SBMQ","flightCategory":"VFR","rawOb":"METAR SBMQ 222300Z 06002KT 9999 FEW017 27/26 Q1009","temp":27,"dewp":26,"wdir":60,"wspd":2,"visib":"6+","altim":1009,"clouds":[{"cover":"FEW","base":1700}],"obsTime":1776898800},"SBPA":{"icaoId":"SBPA","flightCategory":"VFR","rawOb":"METAR SBPA 222300Z 15004KT 120V180 CAVOK 25/18 Q1016","temp":25,"dewp":18,"wdir":150,"wspd":4,"visib":"6+","altim":1016,"clouds":[],"obsTime":1776898800},"SBPJ":{"icaoId":"SBPJ","flightCategory":"VFR","rawOb":"METAR SBPJ 222300Z 13002KT CAVOK 27/24 Q1012","temp":27,"dewp":24,"wdir":130,"wspd":2,"visib":"6+","altim":1012,"clouds":[],"obsTime":1776898800},"SBPV":{"icaoId":"SBPV","flightCategory":"VFR","rawOb":"METAR SBPV 222300Z 35001KT 9999 -RA FEW035 BKN060 27/24 Q1009","temp":27,"dewp":24,"wdir":350,"wspd":1,"visib":"6+","altim":1009,"clouds":[{"cover":"FEW","base":3500},{"cover":"BKN","base":6000}],"obsTime":1776898800},"SBRB":{"icaoId":"SBRB","flightCategory":"VFR","rawOb":"METAR SBRB 222300Z 32002KT 9999 SCT025 FEW030TCU 27/24 Q1010","temp":27,"dewp":24,"wdir":320,"wspd":2,"visib":"6+","altim":1010,"clouds":[{"cover":"SCT","base":2500},{"cover":"FEW","base":3000}],"obsTime":1776898800},"SBRF":{"icaoId":"SBRF","flightCategory":"VFR","rawOb":"METAR SBRF 222300Z 15013KT 9999 SCT020 28/24 Q1012","temp":28,"dewp":24,"wdir":150,"wspd":13,"visib":"6+","altim":1012,"clouds":[{"cover":"SCT","base":2000}],"obsTime":1776898800},"SBSG":{"icaoId":"SBSG","flightCategory":"VFR","rawOb":"METAR SBSG 222300Z 13004KT 100V170 9999 FEW020 26/24 Q1012","temp":26,"dewp":24,"wdir":130,"wspd":4,"visib":"6+","altim":1012,"clouds":[{"cover":"FEW","base":2000}],"obsTime":1776898800},"SBSL":{"icaoId":"SBSL","flightCategory":"VFR","rawOb":"METAR SBSL 222300Z 06005KT 9999 FEW017 BKN080 27/24 Q1010","temp":27,"dewp":24,"wdir":60,"wspd":5,"visib":"6+","altim":1010,"clouds":[{"cover":"FEW","base":1700},{"cover":"BKN","base":8000}],"obsTime":1776898800},"SBSN":{"icaoId":"SBSN","flightCategory":"VFR","rawOb":"METAR SBSN 222300Z 26001KT CAVOK 27/26 Q1009","temp":27,"dewp":26,"wdir":260,"wspd":1,"visib":"6+","altim":1009,"clouds":[],"obsTime":1776898800},"SBSP":{"icaoId":"SBSP","flightCategory":"MVFR","rawOb":"METAR SBSP 222300Z 15007KT 9999 BKN013 19/16 Q1022","temp":19,"dewp":16,"wdir":150,"wspd":7,"visib":"6+","altim":1022,"clouds":[{"cover":"BKN","base":1300}],"obsTime":1776898800},"SBSV":{"icaoId":"SBSV","flightCategory":"VFR","rawOb":"METAR SBSV 222300Z 17006KT 130V270 9999 VCSH SCT020 FEW023TCU BKN060 26/24 Q1015","temp":26,"dewp":24,"wdir":170,"wspd":6,"visib":"6+","altim":1015,"clouds":[{"cover":"SCT","base":2000},{"cover":"FEW","base":2300},{"cover":"BKN","base":6000}],"obsTime":1776898800},"SBTE":{"icaoId":"SBTE","flightCategory":"VFR","rawOb":"METAR SBTE 222300Z 31001KT 9999 FEW020 FEW025TCU 29/25 Q1010","temp":29,"dewp":25,"wdir":310,"wspd":1,"visib":"6+","altim":1010,"clouds":[{"cover":"FEW","base":2000},{"cover":"FEW","base":2500}],"obsTime":1776898800},"SBVT":{"icaoId":"SBVT","flightCategory":"VFR","rawOb":"METAR SBVT 222300Z 20002KT 9999 SCT023 SCT040 BKN070 25/22 Q1017","temp":25,"dewp":22,"wdir":200,"wspd":2,"visib":"6+","altim":1017,"clouds":[{"cover":"SCT","base":2300},{"cover":"SCT","base":4000},{"cover":"BKN","base":7000}],"obsTime":1776898800},"SBUR":{"icaoId":"SBUR","flightCategory":"VFR","rawOb":"METAR SBUR 222300Z 04005KT CAVOK 24/18 Q1018","temp":24,"dewp":18,"wdir":40,"wspd":5,"visib":"6+","altim":1018,"clouds":[],"obsTime":1776898800},"SBME":{"icaoId":"SBME","flightCategory":"MVFR","rawOb":"METAR SBME 222300Z 30006KT 9999 BKN025 22/19 Q1018","temp":22,"dewp":19,"wdir":300,"wspd":6,"visib":"6+","altim":1018,"clouds":[{"cover":"BKN","base":2500}],"obsTime":1776898800},"SBMG":{"icaoId":"SBMG","flightCategory":"VFR","rawOb":"METAR SBMG 222300Z 16006KT CAVOK 24/17 Q1016","temp":24,"dewp":17,"wdir":160,"wspd":6,"visib":"6+","altim":1016,"clouds":[],"obsTime":1776898800},"SBMK":{"icaoId":"SBMK","flightCategory":"VFR","rawOb":"METAR SBMK 222300Z 11004KT CAVOK 24/16 Q1018","temp":24,"dewp":16,"wdir":110,"wspd":4,"visib":"6+","altim":1018,"clouds":[],"obsTime":1776898800},"SBNT":{"icaoId":"SBNT","flightCategory":"VFR","rawOb":"METAR SBNT 222300Z 13008KT CAVOK 27/24 Q1012","temp":27,"dewp":24,"wdir":130,"wspd":8,"visib":"6+","altim":1012,"clouds":[],"obsTime":1776898800},"SBCZ":{"icaoId":"SBCZ","flightCategory":"VFR","rawOb":"METAR SBCZ 222300Z 01001KT 9999 SCT030 27/25 Q1008","temp":27,"dewp":25,"wdir":10,"wspd":1,"visib":"6+","altim":1008,"clouds":[{"cover":"SCT","base":3000}],"obsTime":1776898800},"SBUL":{"icaoId":"SBUL","flightCategory":"VFR","rawOb":"METAR SBUL 222300Z 13004KT CAVOK 23/19 Q1019","temp":23,"dewp":19,"wdir":130,"wspd":4,"visib":"6+","altim":1019,"clouds":[],"obsTime":1776898800},"SBIL":{"icaoId":"SBIL","flightCategory":"VFR","rawOb":"METAR SBIL 222300Z 19010KT 9999 FEW023 28/23 Q1016","temp":28,"dewp":23,"wdir":190,"wspd":10,"visib":"6+","altim":1016,"clouds":[{"cover":"FEW","base":2300}],"obsTime":1776898800},"SBJU":{"icaoId":"SBJU","flightCategory":"VFR","rawOb":"METAR SBJU 222300Z 00000KT 9999 SCT020 25/23 Q1013","temp":25,"dewp":23,"wdir":0,"wspd":0,"visib":"6+","altim":1013,"clouds":[{"cover":"SCT","base":2000}],"obsTime":1776898800},"SBAR":{"icaoId":"SBAR","flightCategory":"MVFR","rawOb":"METAR SBAR 222300Z 18005KT 9999 FEW007 BKN025 BKN080 25/24 Q1013","temp":25,"dewp":24,"wdir":180,"wspd":5,"visib":"6+","altim":1013,"clouds":[{"cover":"FEW","base":700},{"cover":"BKN","base":2500},{"cover":"BKN","base":8000}],"obsTime":1776898800},"SBOI":{"icaoId":"SBOI","flightCategory":"MVFR","rawOb":"METAR SBOI 222300Z AUTO VRB01KT 5000 // OVC012/// 25/24 Q1010","temp":25,"dewp":24,"wdir":"VRB","wspd":1,"visib":3.11,"altim":1010,"clouds":[{"cover":"OVC","base":1200}],"obsTime":1776898800},"SBPL":{"icaoId":"SBPL","flightCategory":"VFR","rawOb":"METAR SBPL 222300Z 15006KT CAVOK 28/20 Q1013","temp":28,"dewp":20,"wdir":150,"wspd":6,"visib":"6+","altim":1013,"clouds":[],"obsTime":1776898800},"SBPS":{"icaoId":"SBPS","flightCategory":"MVFR","rawOb":"METAR SBPS 222300Z 13003KT 080V200 9999 BKN025 26/22 Q1016","temp":26,"dewp":22,"wdir":130,"wspd":3,"visib":"6+","altim":1016,"clouds":[{"cover":"BKN","base":2500}],"obsTime":1776898800},"SBSJ":{"icaoId":"SBSJ","flightCategory":"VFR","rawOb":"METAR SBSJ 222300Z 15007KT 9999 FEW046 19/17 Q1020","temp":19,"dewp":17,"wdir":150,"wspd":7,"visib":"6+","altim":1020,"clouds":[{"cover":"FEW","base":4600}],"obsTime":1776898800},"SBBU":{"icaoId":"SBBU","flightCategory":"VFR","rawOb":"METAR SBBU 222300Z 15010KT CAVOK 25/16 Q1017","temp":25,"dewp":16,"wdir":150,"wspd":10,"visib":"6+","altim":1017,"clouds":[],"obsTime":1776898800},"SBCO":{"icaoId":"SBCO","flightCategory":"VFR","rawOb":"METAR SBCO 222300Z 10003KT CAVOK 23/19 Q1016","temp":23,"dewp":19,"wdir":100,"wspd":3,"visib":"6+","altim":1016,"clouds":[],"obsTime":1776898800},"SBDN":{"icaoId":"SBDN","flightCategory":"VFR","rawOb":"METAR SBDN 222300Z 12006KT CAVOK 23/14 Q1016","temp":23,"dewp":14,"wdir":120,"wspd":6,"visib":"6+","altim":1016,"clouds":[],"obsTime":1776898800},"SBES":{"icaoId":"SBES","flightCategory":"VFR","rawOb":"METAR SBES 222300Z VRB02KT CAVOK 20/20 Q1018","temp":20,"dewp":20,"wdir":"VRB","wspd":2,"visib":"6+","altim":1018,"clouds":[],"obsTime":1776898800},"SBIP":{"icaoId":"SBIP","flightCategory":"VFR","rawOb":"METAR SBIP 222300Z AUTO 00000KT CAVOK 20/19 Q1017","temp":20,"dewp":19,"wdir":0,"wspd":0,"visib":"6+","altim":1017,"clouds":[],"obsTime":1776898800},"SBKG":{"icaoId":"SBKG","flightCategory":"VFR","rawOb":"METAR SBKG 222300Z 09008KT CAVOK 24/21 Q1015","temp":24,"dewp":21,"wdir":90,"wspd":8,"visib":"6+","altim":1015,"clouds":[],"obsTime":1776898800},"SBCA":{"icaoId":"SBCA","flightCategory":"VFR","rawOb":"METAR SBCA 222300Z VRB01KT CAVOK 23/18 Q1019","temp":23,"dewp":18,"wdir":"VRB","wspd":1,"visib":"6+","altim":1019,"clouds":[],"obsTime":1776898800},"SBTT":{"icaoId":"SBTT","flightCategory":"VFR","rawOb":"METAR SBTT 222300Z 12003KT 9999 FEW030 26/23 Q1009","temp":26,"dewp":23,"wdir":120,"wspd":3,"visib":"6+","altim":1009,"clouds":[{"cover":"FEW","base":3000}],"obsTime":1776898800},"SBUY":{"icaoId":"SBUY","flightCategory":"VFR","rawOb":"METAR SBUY 222300Z 00000KT 9999 SCT025 BKN090 25/25 Q1009","temp":25,"dewp":25,"wdir":0,"wspd":0,"visib":"6+","altim":1009,"clouds":[{"cover":"SCT","base":2500},{"cover":"BKN","base":9000}],"obsTime":1776898800},"SBSC":{"icaoId":"SBSC","flightCategory":"MVFR","rawOb":"METAR SBSC 222300Z 19006KT 8000 SCT015 BKN050 24/19 Q1018","temp":24,"dewp":19,"wdir":190,"wspd":6,"visib":4.97,"altim":1018,"clouds":[{"cover":"SCT","base":1500},{"cover":"BKN","base":5000}],"obsTime":1776898800},"SBVH":{"icaoId":"SBVH","flightCategory":"LIFR","rawOb":"METAR SBVH 222300Z 02014KT 1000 +RA BR SCT011 BKN040 BKN100 22/22 Q1015","temp":22,"dewp":22,"wdir":20,"wspd":14,"visib":0.62,"altim":1015,"clouds":[{"cover":"SCT","base":1100},{"cover":"BKN","base":4000},{"cover":"BKN","base":10000}],"obsTime":1776898800},"SBSM":{"icaoId":"SBSM","flightCategory":"VFR","rawOb":"METAR SBSM 222300Z VRB01KT 9999 SCT040 21/21 Q1017","temp":21,"dewp":21,"wdir":"VRB","wspd":1,"visib":"6+","altim":1017,"clouds":[{"cover":"SCT","base":4000}],"obsTime":1776898800},"SBSR":{"icaoId":"SBSR","flightCategory":"VFR","rawOb":"METAR SBSR 222300Z 21004KT CAVOK 26/13 Q1016","temp":26,"dewp":13,"wdir":210,"wspd":4,"visib":"6+","altim":1016,"clouds":[],"obsTime":1776898800},"SBAX":{"icaoId":"SBAX","flightCategory":"VFR","rawOb":"METAR SBAX 222300Z 11006KT 9999 SCT045 23/18 Q1020","temp":23,"dewp":18,"wdir":110,"wspd":6,"visib":"6+","altim":1020,"clouds":[{"cover":"SCT","base":4500}],"obsTime":1776898800},"SBBH":{"icaoId":"SBBH","flightCategory":"VFR","rawOb":"METAR SBBH 222300Z 11008KT CAVOK 23/17 Q1019","temp":23,"dewp":17,"wdir":110,"wspd":8,"visib":"6+","altim":1019,"clouds":[],"obsTime":1776898800},"SBTF":{"icaoId":"SBTF","flightCategory":"VFR","rawOb":"SPECI SBTF 222245Z 09003KT CAVOK 27/26 Q1010","temp":27,"dewp":26,"wdir":90,"wspd":3,"visib":"6+","altim":1010,"clouds":[],"obsTime":1776897900},"SBJP":{"icaoId":"SBJP","flightCategory":"MVFR","rawOb":"METAR SBJP 222300Z 00000KT 9999 BKN018 26/24 Q1013","temp":26,"dewp":24,"wdir":0,"wspd":0,"visib":"6+","altim":1013,"clouds":[{"cover":"BKN","base":1800}],"obsTime":1776898800},"SBAN":{"icaoId":"SBAN","flightCategory":"VFR","rawOb":"METAR SBAN 222300Z VRB02KT CAVOK 20/18 Q1019","temp":20,"dewp":18,"wdir":"VRB","wspd":2,"visib":"6+","altim":1019,"clouds":[],"obsTime":1776898800},"SBJV":{"icaoId":"SBJV","flightCategory":"VFR","rawOb":"METAR SBJV 222300Z 28002KT CAVOK 20/19 Q1017","temp":20,"dewp":19,"wdir":280,"wspd":2,"visib":"6+","altim":1017,"clouds":[],"obsTime":1776898800},"SBNM":{"icaoId":"SBNM","flightCategory":"VFR","rawOb":"METAR SBNM 222300Z 25002KT 9999 FEW030 25/20 Q1017","temp":25,"dewp":20,"wdir":250,"wspd":2,"visib":"6+","altim":1017,"clouds":[{"cover":"FEW","base":3000}],"obsTime":1776898800},"SBLE":{"icaoId":"SBLE","flightCategory":"VFR","rawOb":"METAR SBLE 222300Z AUTO 09005KT 9999 FEW045 24/21 Q1017","temp":24,"dewp":21,"wdir":90,"wspd":5,"visib":"6+","altim":1017,"clouds":[{"cover":"FEW","base":4500}],"obsTime":1776898800},"SBJR":{"icaoId":"SBJR","flightCategory":"VFR","rawOb":"METAR SBJR 222300Z 13006KT 9999 SCT040 25/19 Q1017","temp":25,"dewp":19,"wdir":130,"wspd":6,"visib":"6+","altim":1017,"clouds":[{"cover":"SCT","base":4000}],"obsTime":1776898800},"SBLS":{"icaoId":"SBLS","flightCategory":"VFR","rawOb":"METAR SBLS 222300Z 13005KT CAVOK 22/16 Q1019","temp":22,"dewp":16,"wdir":130,"wspd":5,"visib":"6+","altim":1019,"clouds":[],"obsTime":1776898800},"SBMT":{"icaoId":"SBMT","flightCategory":"MVFR","rawOb":"METAR SBMT 222300Z 16006KT 120V180 9999 BKN020 20/16 Q1020","temp":20,"dewp":16,"wdir":160,"wspd":6,"visib":"6+","altim":1020,"clouds":[{"cover":"BKN","base":2000}],"obsTime":1776898800},"SBTA":{"icaoId":"SBTA","flightCategory":"VFR","rawOb":"METAR SBTA 222300Z VRB03KT 9999 FEW040 21/17 Q1018","temp":21,"dewp":17,"wdir":"VRB","wspd":3,"visib":"6+","altim":1018,"clouds":[{"cover":"FEW","base":4000}],"obsTime":1776898800},"SBAF":{"icaoId":"SBAF","flightCategory":"VFR","rawOb":"METAR SBAF 222300Z 20003KT 9999 SCT033 24/20 Q1018","temp":24,"dewp":20,"wdir":200,"wspd":3,"visib":"6+","altim":1018,"clouds":[{"cover":"SCT","base":3300}],"obsTime":1776898800}}}