{"updated":1777333214,"count":75,"data":{"SBRF":{"icaoId":"SBRF","flightCategory":"MVFR","rawOb":"METAR SBRF 272200Z 18009KT 9999 VCSH BKN010 BKN020 26/24 Q1013","temp":26,"dewp":24,"wdir":180,"wspd":9,"visib":"6+","altim":1013,"clouds":[{"cover":"BKN","base":1000},{"cover":"BKN","base":2000}],"obsTime":1777327200},"SBME":{"icaoId":"SBME","flightCategory":"VFR","rawOb":"METAR SBME 272200Z 35001KT CAVOK 26/23 Q1012","temp":26,"dewp":23,"wdir":350,"wspd":1,"visib":"6+","altim":1012,"clouds":[],"obsTime":1777327200},"SBFI":{"icaoId":"SBFI","flightCategory":"VFR","rawOb":"METAR SBFI 272200Z 21004KT CAVOK 18/15 Q1016","temp":18,"dewp":15,"wdir":210,"wspd":4,"visib":"6+","altim":1016,"clouds":[],"obsTime":1777327200},"SBMG":{"icaoId":"SBMG","flightCategory":"VFR","rawOb":"METAR SBMG 272200Z 27002KT 9999 -RA FEW005 SCT020 BKN040 21/21 Q1015","temp":21,"dewp":21,"wdir":270,"wspd":2,"visib":"6+","altim":1015,"clouds":[{"cover":"FEW","base":500},{"cover":"SCT","base":2000},{"cover":"BKN","base":4000}],"obsTime":1777327200},"SBMK":{"icaoId":"SBMK","flightCategory":"VFR","rawOb":"METAR SBMK 272200Z 18004KT CAVOK 26/17 Q1016","temp":26,"dewp":17,"wdir":180,"wspd":4,"visib":"6+","altim":1016,"clouds":[],"obsTime":1777327200},"SBCG":{"icaoId":"SBCG","flightCategory":"IFR","rawOb":"METAR SBCG 272200Z 30004KT 9999 SCT005 BKN009 FEW040TCU 21/20 Q1015","temp":21,"dewp":20,"wdir":300,"wspd":4,"visib":"6+","altim":1015,"clouds":[{"cover":"SCT","base":500},{"cover":"BKN","base":900},{"cover":"FEW","base":4000}],"obsTime":1777327200},"SBMO":{"icaoId":"SBMO","flightCategory":"MVFR","rawOb":"METAR SBMO 272200Z 10008KT 6000 -SHRA SCT018 BKN025 FEW027TCU OVC090 26/24 Q1014","temp":26,"dewp":24,"wdir":100,"wspd":8,"visib":3.73,"altim":1014,"clouds":[{"cover":"SCT","base":1800},{"cover":"BKN","base":2500},{"cover":"FEW","base":2700},{"cover":"OVC","base":9000}],"obsTime":1777327200},"SBBR":{"icaoId":"SBBR","flightCategory":"VFR","rawOb":"METAR SBBR 272200Z 30007KT 9999 BKN040 FEW045TCU 24/18 Q1018","temp":24,"dewp":18,"wdir":300,"wspd":7,"visib":"6+","altim":1018,"clouds":[{"cover":"BKN","base":4000},{"cover":"FEW","base":4500}],"obsTime":1777327200},"SBFL":{"icaoId":"SBFL","flightCategory":"VFR","rawOb":"METAR SBFL 272200Z 16005KT 130V190 9999 BKN033 21/13 Q1014","temp":21,"dewp":13,"wdir":160,"wspd":5,"visib":"6+","altim":1014,"clouds":[{"cover":"BKN","base":3300}],"obsTime":1777327200},"SBMQ":{"icaoId":"SBMQ","flightCategory":"VFR","rawOb":"METAR SBMQ 272200Z 34006KT 9999 SCT030 28/26 Q1011","temp":28,"dewp":26,"wdir":340,"wspd":6,"visib":"6+","altim":1011,"clouds":[{"cover":"SCT","base":3000}],"obsTime":1777327200},"SBBE":{"icaoId":"SBBE","flightCategory":"VFR","rawOb":"METAR SBBE 272200Z 05006KT CAVOK 27/24 Q1011","temp":27,"dewp":24,"wdir":50,"wspd":6,"visib":"6+","altim":1011,"clouds":[],"obsTime":1777327200},"SBNT":{"icaoId":"SBNT","flightCategory":"VFR","rawOb":"METAR SBNT 272200Z 15006KT 9999 FEW025 27/25 Q1012","temp":27,"dewp":25,"wdir":150,"wspd":6,"visib":"6+","altim":1012,"clouds":[{"cover":"FEW","base":2500}],"obsTime":1777327200},"SBPA":{"icaoId":"SBPA","flightCategory":"VFR","rawOb":"METAR SBPA 272200Z 28007KT CAVOK 15/07 Q1016","temp":15,"dewp":7,"wdir":280,"wspd":7,"visib":"6+","altim":1016,"clouds":[],"obsTime":1777327200},"SBFZ":{"icaoId":"SBFZ","flightCategory":"VFR","rawOb":"METAR SBFZ 272200Z 07003KT 9999 FEW025 28/24 Q1011","temp":28,"dewp":24,"wdir":70,"wspd":3,"visib":"6+","altim":1011,"clouds":[{"cover":"FEW","base":2500}],"obsTime":1777327200},"SBPJ":{"icaoId":"SBPJ","flightCategory":"VFR","rawOb":"METAR SBPJ 272200Z 13004KT 9999 VCTS FEW027 FEW033CB 27/24 Q1012","temp":27,"dewp":24,"wdir":130,"wspd":4,"visib":"6+","altim":1012,"clouds":[{"cover":"FEW","base":2700},{"cover":"FEW","base":3300}],"obsTime":1777327200},"SBCB":{"icaoId":"SBCB","flightCategory":"VFR","rawOb":"METAR SBCB 272200Z 19002KT CAVOK 26/21 Q1013","temp":26,"dewp":21,"wdir":190,"wspd":2,"visib":"6+","altim":1013,"clouds":[],"obsTime":1777327200},"SBPV":{"icaoId":"SBPV","flightCategory":"VFR","rawOb":"METAR SBPV 272200Z 31002KT 9999 TS SCT040 FEW045CB 28/23 Q1008","temp":28,"dewp":23,"wdir":310,"wspd":2,"visib":"6+","altim":1008,"clouds":[{"cover":"SCT","base":4000},{"cover":"FEW","base":4500}],"obsTime":1777327200},"SBGL":{"icaoId":"SBGL","flightCategory":"VFR","rawOb":"METAR SBGL 272200Z 10006KT 9999 SCT025 BKN100 27/23 Q1013","temp":27,"dewp":23,"wdir":100,"wspd":6,"visib":"6+","altim":1013,"clouds":[{"cover":"SCT","base":2500},{"cover":"BKN","base":10000}],"obsTime":1777327200},"SBRB":{"icaoId":"SBRB","flightCategory":"VFR","rawOb":"METAR SBRB 272200Z 16002KT 9999 FEW025 FEW035TCU BKN100 26/25 Q1008","temp":26,"dewp":25,"wdir":160,"wspd":2,"visib":"6+","altim":1008,"clouds":[{"cover":"FEW","base":2500},{"cover":"FEW","base":3500},{"cover":"BKN","base":10000}],"obsTime":1777327200},"SBCT":{"icaoId":"SBCT","flightCategory":"VFR","rawOb":"METAR SBCT 272200Z 22003KT 170V250 CAVOK 20/10 Q1018","temp":20,"dewp":10,"wdir":220,"wspd":3,"visib":"6+","altim":1018,"clouds":[],"obsTime":1777327200},"SBBV":{"icaoId":"SBBV","flightCategory":"VFR","rawOb":"METAR SBBV 272200Z 14005KT 9999 SCT040 FEW045TCU 31/22 Q1009","temp":31,"dewp":22,"wdir":140,"wspd":5,"visib":"6+","altim":1009,"clouds":[{"cover":"SCT","base":4000},{"cover":"FEW","base":4500}],"obsTime":1777327200},"SBKP":{"icaoId":"SBKP","flightCategory":"VFR","rawOb":"METAR SBKP 272200Z 16005KT CAVOK 24/21 Q1016","temp":24,"dewp":21,"wdir":160,"wspd":5,"visib":"6+","altim":1016,"clouds":[],"obsTime":1777327200},"SBVT":{"icaoId":"SBVT","flightCategory":"VFR","rawOb":"METAR SBVT 272200Z 03013KT CAVOK 26/23 Q1013","temp":26,"dewp":23,"wdir":30,"wspd":13,"visib":"6+","altim":1013,"clouds":[],"obsTime":1777327200},"SBLO":{"icaoId":"SBLO","flightCategory":"IFR","rawOb":"METAR SBLO 272200Z 31008KT 3000 RA BKN007 SCT020 BKN100 20/20 Q1017","temp":20,"dewp":20,"wdir":310,"wspd":8,"visib":1.86,"altim":1017,"clouds":[{"cover":"BKN","base":700},{"cover":"SCT","base":2000},{"cover":"BKN","base":10000}],"obsTime":1777327200},"SBMA":{"icaoId":"SBMA","flightCategory":"VFR","rawOb":"METAR SBMA 272200Z 00000KT 9999 VCTS FEW020 FEW023CB SCT100 28/24 Q1011","temp":28,"dewp":24,"wdir":0,"wspd":0,"visib":"6+","altim":1011,"clouds":[{"cover":"FEW","base":2000},{"cover":"FEW","base":2300},{"cover":"SCT","base":10000}],"obsTime":1777327200},"SBGO":{"icaoId":"SBGO","flightCategory":"VFR","rawOb":"METAR SBGO 272200Z 14003KT CAVOK 28/18 Q1015","temp":28,"dewp":18,"wdir":140,"wspd":3,"visib":"6+","altim":1015,"clouds":[],"obsTime":1777327200},"SBSG":{"icaoId":"SBSG","flightCategory":"MVFR","rawOb":"METAR SBSG 272200Z 13005KT 100V170 9999 VCSH BKN025 FEW030TCU 27/25 Q1012","temp":27,"dewp":25,"wdir":130,"wspd":5,"visib":"6+","altim":1012,"clouds":[{"cover":"BKN","base":2500},{"cover":"FEW","base":3000}],"obsTime":1777327200},"SBGR":{"icaoId":"SBGR","flightCategory":"VFR","rawOb":"METAR SBGR 272200Z 25005KT 9999 SCT033 24/19 Q1017","temp":24,"dewp":19,"wdir":250,"wspd":5,"visib":"6+","altim":1017,"clouds":[{"cover":"SCT","base":3300}],"obsTime":1777327200},"SBSL":{"icaoId":"SBSL","flightCategory":"VFR","rawOb":"METAR SBSL 272200Z 18005KT 9999 SCT030 BKN070 27/24 Q1013","temp":27,"dewp":24,"wdir":180,"wspd":5,"visib":"6+","altim":1013,"clouds":[{"cover":"SCT","base":3000},{"cover":"BKN","base":7000}],"obsTime":1777327200},"SBCF":{"icaoId":"SBCF","flightCategory":"VFR","rawOb":"METAR SBCF 272200Z VRB01KT CAVOK 26/16 Q1018","temp":26,"dewp":16,"wdir":"VRB","wspd":1,"visib":"6+","altim":1018,"clouds":[],"obsTime":1777327200},"SBSN":{"icaoId":"SBSN","flightCategory":"VFR","rawOb":"METAR SBSN 272200Z 10001KT 9999 FEW020 FEW025TCU 27/26 Q1010","temp":27,"dewp":26,"wdir":100,"wspd":1,"visib":"6+","altim":1010,"clouds":[{"cover":"FEW","base":2000},{"cover":"FEW","base":2500}],"obsTime":1777327200},"SBCZ":{"icaoId":"SBCZ","flightCategory":"VFR","rawOb":"METAR SBCZ 272200Z 21003KT 9999 FEW035TCU SCT100 31/24 Q1008","temp":31,"dewp":24,"wdir":210,"wspd":3,"visib":"6+","altim":1008,"clouds":[{"cover":"FEW","base":3500},{"cover":"SCT","base":10000}],"obsTime":1777327200},"SBSP":{"icaoId":"SBSP","flightCategory":"MVFR","rawOb":"METAR SBSP 272200Z 18008KT 9999 SCT017 BKN025 OVC036 23/20 Q1018","temp":23,"dewp":20,"wdir":180,"wspd":8,"visib":"6+","altim":1018,"clouds":[{"cover":"SCT","base":1700},{"cover":"BKN","base":2500},{"cover":"OVC","base":3600}],"obsTime":1777327200},"SBHT":{"icaoId":"SBHT","flightCategory":"VFR","rawOb":"METAR SBHT 272200Z 00000KT 9999 FEW030 27/26 Q1010","temp":27,"dewp":26,"wdir":0,"wspd":0,"visib":"6+","altim":1010,"clouds":[{"cover":"FEW","base":3000}],"obsTime":1777327200},"SBSV":{"icaoId":"SBSV","flightCategory":"VFR","rawOb":"METAR SBSV 272200Z 11008KT 9999 FEW025 28/22 Q1013","temp":28,"dewp":22,"wdir":110,"wspd":8,"visib":"6+","altim":1013,"clouds":[{"cover":"FEW","base":2500}],"obsTime":1777327200},"SBIL":{"icaoId":"SBIL","flightCategory":"VFR","rawOb":"METAR SBIL 272200Z 11005KT CAVOK 28/22 Q1014","temp":28,"dewp":22,"wdir":110,"wspd":5,"visib":"6+","altim":1014,"clouds":[],"obsTime":1777327200},"SBTE":{"icaoId":"SBTE","flightCategory":"VFR","rawOb":"METAR SBTE 272200Z 31005KT 9999 VCTS FEW020 FEW025CB 29/25 Q1011","temp":29,"dewp":25,"wdir":310,"wspd":5,"visib":"6+","altim":1011,"clouds":[{"cover":"FEW","base":2000},{"cover":"FEW","base":2500}],"obsTime":1777327200},"SBUL":{"icaoId":"SBUL","flightCategory":"VFR","rawOb":"METAR SBUL 272200Z 35003KT 9999 FEW049 27/16 Q1018","temp":27,"dewp":16,"wdir":350,"wspd":3,"visib":"6+","altim":1018,"clouds":[{"cover":"FEW","base":4900}],"obsTime":1777327200},"SBJU":{"icaoId":"SBJU","flightCategory":"VFR","rawOb":"METAR SBJU 272200Z 00000KT CAVOK 28/20 Q1013","temp":28,"dewp":20,"wdir":0,"wspd":0,"visib":"6+","altim":1013,"clouds":[],"obsTime":1777327200},"SBEG":{"icaoId":"SBEG","flightCategory":"MVFR","rawOb":"METAR SBEG 272200Z 27003KT 5000 -TSRA SCT020 FEW025CB BKN100 25/24 Q1011","temp":25,"dewp":24,"wdir":270,"wspd":3,"visib":3.11,"altim":1011,"clouds":[{"cover":"SCT","base":2000},{"cover":"FEW","base":2500},{"cover":"BKN","base":10000}],"obsTime":1777327200},"SBUR":{"icaoId":"SBUR","flightCategory":"VFR","rawOb":"METAR SBUR 272200Z 20006KT CAVOK 26/18 Q1017","temp":26,"dewp":18,"wdir":200,"wspd":6,"visib":"6+","altim":1017,"clouds":[],"obsTime":1777327200},"SBCP":{"icaoId":"SBCP","flightCategory":"VFR","rawOb":"METAR SBCP 272200Z 08005KT CAVOK 25/23 Q1012","temp":25,"dewp":23,"wdir":80,"wspd":5,"visib":"6+","altim":1012,"clouds":[],"obsTime":1777327200},"SBAR":{"icaoId":"SBAR","flightCategory":"MVFR","rawOb":"METAR SBAR 272200Z 14007KT 9999 BKN026 28/23 Q1013","temp":28,"dewp":23,"wdir":140,"wspd":7,"visib":"6+","altim":1013,"clouds":[{"cover":"BKN","base":2600}],"obsTime":1777327200},"SBBH":{"icaoId":"SBBH","flightCategory":"VFR","rawOb":"METAR SBBH 272200Z 28004KT CAVOK 25/18 Q1017","temp":25,"dewp":18,"wdir":280,"wspd":4,"visib":"6+","altim":1017,"clouds":[],"obsTime":1777327200},"SBBU":{"icaoId":"SBBU","flightCategory":"VFR","rawOb":"METAR SBBU 272200Z 23008KT 9999 VCSH FEW025 OVC060 24/21 Q1016","temp":24,"dewp":21,"wdir":230,"wspd":8,"visib":"6+","altim":1016,"clouds":[{"cover":"FEW","base":2500},{"cover":"OVC","base":6000}],"obsTime":1777327200},"SBCO":{"icaoId":"SBCO","flightCategory":"VFR","rawOb":"METAR SBCO 272200Z 28004KT CAVOK 13/07 Q1017","temp":13,"dewp":7,"wdir":280,"wspd":4,"visib":"6+","altim":1017,"clouds":[],"obsTime":1777327200},"SBDN":{"icaoId":"SBDN","flightCategory":"MVFR","rawOb":"METAR SBDN 272200Z 16002KT 9999 BKN011 22/21 Q1015","temp":22,"dewp":21,"wdir":160,"wspd":2,"visib":"6+","altim":1015,"clouds":[{"cover":"BKN","base":1100}],"obsTime":1777327200},"SBIP":{"icaoId":"SBIP","flightCategory":"VFR","rawOb":"METAR SBIP 272200Z AUTO 21002KT CAVOK 22/20 Q1014","temp":22,"dewp":20,"wdir":210,"wspd":2,"visib":"6+","altim":1014,"clouds":[],"obsTime":1777327200},"SBKG":{"icaoId":"SBKG","flightCategory":"VFR","rawOb":"METAR SBKG 272200Z 11007KT CAVOK 24/22 Q1015","temp":24,"dewp":22,"wdir":110,"wspd":7,"visib":"6+","altim":1015,"clouds":[],"obsTime":1777327200},"SBOI":{"icaoId":"SBOI","flightCategory":"VFR","rawOb":"METAR SBOI 272200Z AUTO 06003KT 030V090 9999 SCT026 27/24 Q1012","temp":27,"dewp":24,"wdir":60,"wspd":3,"visib":"6+","altim":1012,"clouds":[{"cover":"SCT","base":2600}],"obsTime":1777327200},"SBPL":{"icaoId":"SBPL","flightCategory":"VFR","rawOb":"METAR SBPL 272200Z 12004KT CAVOK 30/17 Q1013","temp":30,"dewp":17,"wdir":120,"wspd":4,"visib":"6+","altim":1013,"clouds":[],"obsTime":1777327200},"SBPS":{"icaoId":"SBPS","flightCategory":"VFR","rawOb":"METAR SBPS 272200Z 05006KT 9999 SCT025 26/22 Q1014","temp":26,"dewp":22,"wdir":50,"wspd":6,"visib":"6+","altim":1014,"clouds":[{"cover":"SCT","base":2500}],"obsTime":1777327200},"SBSC":{"icaoId":"SBSC","flightCategory":"MVFR","rawOb":"METAR SBSC 272200Z 18007KT 8000 SCT010 BKN020 26/23 Q1014","temp":26,"dewp":23,"wdir":180,"wspd":7,"visib":4.97,"altim":1014,"clouds":[{"cover":"SCT","base":1000},{"cover":"BKN","base":2000}],"obsTime":1777327200},"SBSJ":{"icaoId":"SBSJ","flightCategory":"MVFR","rawOb":"METAR SBSJ 272200Z 16007KT 8000 NSC 24/20 Q1016","temp":24,"dewp":20,"wdir":160,"wspd":7,"visib":4.97,"altim":1016,"clouds":[],"obsTime":1777327200},"SBSM":{"icaoId":"SBSM","flightCategory":"VFR","rawOb":"METAR SBSM 272200Z 32004KT CAVOK 14/06 Q1018","temp":14,"dewp":6,"wdir":320,"wspd":4,"visib":"6+","altim":1018,"clouds":[],"obsTime":1777327200},"SBSR":{"icaoId":"SBSR","flightCategory":"VFR","rawOb":"METAR SBSR 272200Z 30002KT 9999 SCT030 BKN070 25/19 Q1015","temp":25,"dewp":19,"wdir":300,"wspd":2,"visib":"6+","altim":1015,"clouds":[{"cover":"SCT","base":3000},{"cover":"BKN","base":7000}],"obsTime":1777327200},"SBTT":{"icaoId":"SBTT","flightCategory":"VFR","rawOb":"METAR SBTT 272200Z 08004KT 9999 SCT030 29/23 Q1008","temp":29,"dewp":23,"wdir":80,"wspd":4,"visib":"6+","altim":1008,"clouds":[{"cover":"SCT","base":3000}],"obsTime":1777327200},"SBVH":{"icaoId":"SBVH","flightCategory":"MVFR","rawOb":"METAR SBVH 272200Z 35004KT 5000 0800NE -TSRA PRFG BKN030 FEW040CB BKN100 22/21 Q1015 RERA","temp":22,"dewp":21,"wdir":350,"wspd":4,"visib":3.11,"altim":1015,"clouds":[{"cover":"BKN","base":3000},{"cover":"FEW","base":4000},{"cover":"BKN","base":10000}],"obsTime":1777327200},"SBTF":{"icaoId":"SBTF","flightCategory":"VFR","rawOb":"METAR SBTF 272200Z 04002KT 9999 SCT018 32/25 Q1008","temp":32,"dewp":25,"wdir":40,"wspd":2,"visib":"6+","altim":1008,"clouds":[{"cover":"SCT","base":1800}],"obsTime":1777327200},"SBPP":{"icaoId":"SBPP","flightCategory":"MVFR","rawOb":"METAR SBPP 272200Z 16009KT 9999 OVC010 17/16 Q1017","temp":17,"dewp":16,"wdir":160,"wspd":9,"visib":"6+","altim":1017,"clouds":[{"cover":"OVC","base":1000}],"obsTime":1777327200},"SBUY":{"icaoId":"SBUY","flightCategory":"VFR","rawOb":"METAR SBUY 272200Z 08004KT 9999 SCT020 BKN090 26/25 Q1008","temp":26,"dewp":25,"wdir":80,"wspd":4,"visib":"6+","altim":1008,"clouds":[{"cover":"SCT","base":2000},{"cover":"BKN","base":9000}],"obsTime":1777327200},"SBAX":{"icaoId":"SBAX","flightCategory":"VFR","rawOb":"METAR SBAX 272200Z 30004KT 9999 SCT030 26/16 Q1018","temp":26,"dewp":16,"wdir":300,"wspd":4,"visib":"6+","altim":1018,"clouds":[{"cover":"SCT","base":3000}],"obsTime":1777327200},"SBCA":{"icaoId":"SBCA","flightCategory":"VFR","rawOb":"METAR SBCA 272200Z 18006KT 9999 FEW045 BKN100 17/13 Q1018","temp":17,"dewp":13,"wdir":180,"wspd":6,"visib":"6+","altim":1018,"clouds":[{"cover":"FEW","base":4500},{"cover":"BKN","base":10000}],"obsTime":1777327200},"SBPB":{"icaoId":"SBPB","flightCategory":"MVFR","rawOb":"SPECI SBPB 272145Z 02005KT 9999 BKN016 FEW025TCU BKN080 28/25 Q1011","temp":28,"dewp":25,"wdir":20,"wspd":5,"visib":"6+","altim":1011,"clouds":[{"cover":"BKN","base":1600},{"cover":"FEW","base":2500},{"cover":"BKN","base":8000}],"obsTime":1777326300},"SBLE":{"icaoId":"SBLE","flightCategory":"VFR","rawOb":"METAR SBLE 272200Z AUTO VRB01KT CAVOK ///// Q////","temp":null,"dewp":null,"wdir":"VRB","wspd":1,"visib":"6+","altim":null,"clouds":[],"obsTime":1777327200},"SBJV":{"icaoId":"SBJV","flightCategory":"VFR","rawOb":"METAR SBJV 272200Z 27002KT 9999 FEW030 21/20 Q1013","temp":21,"dewp":20,"wdir":270,"wspd":2,"visib":"6+","altim":1013,"clouds":[{"cover":"FEW","base":3000}],"obsTime":1777327200},"SBPF":{"icaoId":"SBPF","flightCategory":"VFR","rawOb":"METAR SBPF 272300Z 24006KT CAVOK 14/10 Q1019","temp":14,"dewp":10,"wdir":240,"wspd":6,"visib":"6+","altim":1019,"clouds":[],"obsTime":1777330800},"SBAF":{"icaoId":"SBAF","flightCategory":"MVFR","rawOb":"METAR SBAF 272200Z 20008KT 160V230 9000 FEW010 BKN025 26/26 Q1013","temp":26,"dewp":26,"wdir":200,"wspd":8,"visib":5.59,"altim":1013,"clouds":[{"cover":"FEW","base":1000},{"cover":"BKN","base":2500}],"obsTime":1777327200},"SBJR":{"icaoId":"SBJR","flightCategory":"MVFR","rawOb":"METAR SBJR 272200Z 22004KT 9999 SCT010 BKN018 26/24 Q1013","temp":26,"dewp":24,"wdir":220,"wspd":4,"visib":"6+","altim":1013,"clouds":[{"cover":"SCT","base":1000},{"cover":"BKN","base":1800}],"obsTime":1777327200},"SBLS":{"icaoId":"SBLS","flightCategory":"VFR","rawOb":"METAR SBLS 272200Z 25002KT CAVOK 25/17 Q1017","temp":25,"dewp":17,"wdir":250,"wspd":2,"visib":"6+","altim":1017,"clouds":[],"obsTime":1777327200},"SBMT":{"icaoId":"SBMT","flightCategory":"MVFR","rawOb":"METAR SBMT 272200Z 26002KT 9999 BKN030 23/19 Q1017","temp":23,"dewp":19,"wdir":260,"wspd":2,"visib":"6+","altim":1017,"clouds":[{"cover":"BKN","base":3000}],"obsTime":1777327200},"SBTA":{"icaoId":"SBTA","flightCategory":"VFR","rawOb":"METAR SBTA 272200Z 23002KT 9999 SCT030 SCT080 23/21 Q1014","temp":23,"dewp":21,"wdir":230,"wspd":2,"visib":"6+","altim":1014,"clouds":[{"cover":"SCT","base":3000},{"cover":"SCT","base":8000}],"obsTime":1777327200},"SBJP":{"icaoId":"SBJP","flightCategory":"VFR","rawOb":"METAR SBJP 272200Z 13007KT CAVOK 26/25 Q1013","temp":26,"dewp":25,"wdir":130,"wspd":7,"visib":"6+","altim":1013,"clouds":[],"obsTime":1777327200},"SBAN":{"icaoId":"SBAN","flightCategory":"VFR","rawOb":"METAR SBAN 272200Z 08004KT 9999 -RA SCT030 FEW040TCU BKN100 20/19 Q1019 RERA","temp":20,"dewp":19,"wdir":80,"wspd":4,"visib":"6+","altim":1019,"clouds":[{"cover":"SCT","base":3000},{"cover":"FEW","base":4000},{"cover":"BKN","base":10000}],"obsTime":1777327200},"SBGW":{"icaoId":"SBGW","flightCategory":"VFR","rawOb":"METAR SBGW 272200Z 18002KT 9999 SCT030 BKN090 25/17 Q1015","temp":25,"dewp":17,"wdir":180,"wspd":2,"visib":"6+","altim":1015,"clouds":[{"cover":"SCT","base":3000},{"cover":"BKN","base":9000}],"obsTime":1777327200}}}