{"updated":1778489550,"count":51,"data":{"SBGO":{"icaoId":"SBGO","flightCategory":"IFR","rawOb":"METAR SBGO 110700Z COR 12007KT 9999 BKN005 OVC007 15/15 Q1020","temp":15,"dewp":15,"wdir":120,"wspd":7,"visib":"6+","altim":1020,"clouds":[{"cover":"BKN","base":500},{"cover":"OVC","base":700}],"obsTime":1778482800},"SBBR":{"icaoId":"SBBR","flightCategory":"IFR","rawOb":"METAR SBBR 110700Z 22006KT 9999 BKN006 18/17 Q1020","temp":18,"dewp":17,"wdir":220,"wspd":6,"visib":"6+","altim":1020,"clouds":[{"cover":"BKN","base":600}],"obsTime":1778482800},"SBMO":{"icaoId":"SBMO","flightCategory":"VFR","rawOb":"METAR SBMO 110700Z 29004KT 9999 FEW020 23/22 Q1013","temp":23,"dewp":22,"wdir":290,"wspd":4,"visib":"6+","altim":1013,"clouds":[{"cover":"FEW","base":2000}],"obsTime":1778482800},"SBFL":{"icaoId":"SBFL","flightCategory":"VFR","rawOb":"METAR SBFL 110700Z 28008KT CAVOK 12/08 Q1019","temp":12,"dewp":8,"wdir":280,"wspd":8,"visib":"6+","altim":1019,"clouds":[],"obsTime":1778482800},"SBMQ":{"icaoId":"SBMQ","flightCategory":"MVFR","rawOb":"METAR SBMQ 110700Z 01001KT 5000 -RA SCT006 BKN020 OVC100 25/25 Q1011 RESHRA","temp":25,"dewp":25,"wdir":10,"wspd":1,"visib":3.11,"altim":1011,"clouds":[{"cover":"SCT","base":600},{"cover":"BKN","base":2000},{"cover":"OVC","base":10000}],"obsTime":1778482800},"SBCF":{"icaoId":"SBCF","flightCategory":"VFR","rawOb":"METAR SBCF 110700Z 25003KT 9999 FEW040 SCT070 19/17 Q1018","temp":19,"dewp":17,"wdir":250,"wspd":3,"visib":"6+","altim":1018,"clouds":[{"cover":"FEW","base":4000},{"cover":"SCT","base":7000}],"obsTime":1778482800},"SBNT":{"icaoId":"SBNT","flightCategory":"VFR","rawOb":"METAR SBNT 110700Z 18005KT 9999 FEW010 24/23 Q1011","temp":24,"dewp":23,"wdir":180,"wspd":5,"visib":"6+","altim":1011,"clouds":[{"cover":"FEW","base":1000}],"obsTime":1778482800},"SBFZ":{"icaoId":"SBFZ","flightCategory":"VFR","rawOb":"METAR SBFZ 110700Z 20003KT 110V240 9999 FEW018 SCT060 25/23 Q1010","temp":25,"dewp":23,"wdir":200,"wspd":3,"visib":"6+","altim":1010,"clouds":[{"cover":"FEW","base":1800},{"cover":"SCT","base":6000}],"obsTime":1778482800},"SBPA":{"icaoId":"SBPA","flightCategory":"VFR","rawOb":"METAR SBPA 110700Z VRB02KT CAVOK 07/05 Q1020","temp":7,"dewp":5,"wdir":"VRB","wspd":2,"visib":"6+","altim":1020,"clouds":[],"obsTime":1778482800},"SBPJ":{"icaoId":"SBPJ","flightCategory":"VFR","rawOb":"METAR SBPJ 110700Z 22003KT 9999 FEW016 BKN070 26/23 Q1012","temp":26,"dewp":23,"wdir":220,"wspd":3,"visib":"6+","altim":1012,"clouds":[{"cover":"FEW","base":1600},{"cover":"BKN","base":7000}],"obsTime":1778482800},"SBPV":{"icaoId":"SBPV","flightCategory":"MVFR","rawOb":"METAR SBPV 110700Z 17006KT 9999 BKN013 20/17 Q1014","temp":20,"dewp":17,"wdir":170,"wspd":6,"visib":"6+","altim":1014,"clouds":[{"cover":"BKN","base":1300}],"obsTime":1778482800},"SBGL":{"icaoId":"SBGL","flightCategory":"MVFR","rawOb":"METAR SBGL 110700Z 25007KT 9999 FEW010 SCT015 BKN025 20/17 Q1017","temp":20,"dewp":17,"wdir":250,"wspd":7,"visib":"6+","altim":1017,"clouds":[{"cover":"FEW","base":1000},{"cover":"SCT","base":1500},{"cover":"BKN","base":2500}],"obsTime":1778482800},"SBFI":{"icaoId":"SBFI","flightCategory":"VFR","rawOb":"METAR SBFI 110700Z 16004KT 9999 BCFG NSC 06/06 Q1023","temp":6,"dewp":6,"wdir":160,"wspd":4,"visib":"6+","altim":1023,"clouds":[],"obsTime":1778482800},"SBMK":{"icaoId":"SBMK","flightCategory":"VFR","rawOb":"METAR SBMK 110800Z 26003KT CAVOK 17/14 Q1017","temp":17,"dewp":14,"wdir":260,"wspd":3,"visib":"6+","altim":1017,"clouds":[],"obsTime":1778486400},"SBBE":{"icaoId":"SBBE","flightCategory":"VFR","rawOb":"METAR SBBE 110700Z 16002KT CAVOK 24/23 Q1011","temp":24,"dewp":23,"wdir":160,"wspd":2,"visib":"6+","altim":1011,"clouds":[],"obsTime":1778482800},"SBME":{"icaoId":"SBME","flightCategory":"VFR","rawOb":"METAR SBME 110700Z 28009KT 9999 FEW014 OVC050 22/18 Q1015","temp":22,"dewp":18,"wdir":280,"wspd":9,"visib":"6+","altim":1015,"clouds":[{"cover":"FEW","base":1400},{"cover":"OVC","base":5000}],"obsTime":1778482800},"SBMG":{"icaoId":"SBMG","flightCategory":"VFR","rawOb":"METAR SBMG 110700Z AUTO 21005KT CAVOK 05/05 Q1020","temp":5,"dewp":5,"wdir":210,"wspd":5,"visib":"6+","altim":1020,"clouds":[],"obsTime":1778482800},"SBRB":{"icaoId":"SBRB","flightCategory":"MVFR","rawOb":"METAR SBRB 110700Z 19005KT 8000 FEW010 BKN100 15/14 Q1017","temp":15,"dewp":14,"wdir":190,"wspd":5,"visib":4.97,"altim":1017,"clouds":[{"cover":"FEW","base":1000},{"cover":"BKN","base":10000}],"obsTime":1778482800},"SBRF":{"icaoId":"SBRF","flightCategory":"VFR","rawOb":"METAR SBRF 110700Z 23006KT 9999 SCT020 24/23 Q1012","temp":24,"dewp":23,"wdir":230,"wspd":6,"visib":"6+","altim":1012,"clouds":[{"cover":"SCT","base":2000}],"obsTime":1778482800},"SBSG":{"icaoId":"SBSG","flightCategory":"VFR","rawOb":"METAR SBSG 110700Z 20004KT 170V230 9999 FEW015 SCT030 24/23 Q1012","temp":24,"dewp":23,"wdir":200,"wspd":4,"visib":"6+","altim":1012,"clouds":[{"cover":"FEW","base":1500},{"cover":"SCT","base":3000}],"obsTime":1778482800},"SBCG":{"icaoId":"SBCG","flightCategory":"VFR","rawOb":"METAR SBCG 110700Z 12010KT CAVOK 10/06 Q1021","temp":10,"dewp":6,"wdir":120,"wspd":10,"visib":"6+","altim":1021,"clouds":[],"obsTime":1778482800},"SBSL":{"icaoId":"SBSL","flightCategory":"LIFR","rawOb":"METAR SBSL 110700Z 18005KT 4000 BR BKN004 25/24 Q1011","temp":25,"dewp":24,"wdir":180,"wspd":5,"visib":2.49,"altim":1011,"clouds":[{"cover":"BKN","base":400}],"obsTime":1778482800},"SBGR":{"icaoId":"SBGR","flightCategory":"VFR","rawOb":"METAR SBGR 110700Z 23004KT 9999 SCT017 12/08 Q1021","temp":12,"dewp":8,"wdir":230,"wspd":4,"visib":"6+","altim":1021,"clouds":[{"cover":"SCT","base":1700}],"obsTime":1778482800},"SBSN":{"icaoId":"SBSN","flightCategory":"MVFR","rawOb":"METAR SBSN 110700Z 16003KT 7000 -RA SCT012 SCT015 OVC080 24/24 Q1011 RETS","temp":24,"dewp":24,"wdir":160,"wspd":3,"visib":4.35,"altim":1011,"clouds":[{"cover":"SCT","base":1200},{"cover":"SCT","base":1500},{"cover":"OVC","base":8000}],"obsTime":1778482800},"SBCT":{"icaoId":"SBCT","flightCategory":"VFR","rawOb":"METAR SBCT 110700Z 25005KT CAVOK 04/03 Q1021","temp":4,"dewp":3,"wdir":250,"wspd":5,"visib":"6+","altim":1021,"clouds":[],"obsTime":1778482800},"SBSV":{"icaoId":"SBSV","flightCategory":"MVFR","rawOb":"METAR SBSV 110700Z 32004KT 8000 VCSH SCT013 BKN021 BKN045 24/23 Q1013 RESHRA","temp":24,"dewp":23,"wdir":320,"wspd":4,"visib":4.97,"altim":1013,"clouds":[{"cover":"SCT","base":1300},{"cover":"BKN","base":2100},{"cover":"BKN","base":4500}],"obsTime":1778482800},"SBJU":{"icaoId":"SBJU","flightCategory":"MVFR","rawOb":"METAR SBJU 110700Z 18003KT 9999 BKN020 23/21 Q1014","temp":23,"dewp":21,"wdir":180,"wspd":3,"visib":"6+","altim":1014,"clouds":[{"cover":"BKN","base":2000}],"obsTime":1778482800},"SBTE":{"icaoId":"SBTE","flightCategory":"MVFR","rawOb":"METAR SBTE 110700Z 27002KT 9999 SCT007 BKN012 BKN090 24/24 Q1011","temp":24,"dewp":24,"wdir":270,"wspd":2,"visib":"6+","altim":1011,"clouds":[{"cover":"SCT","base":700},{"cover":"BKN","base":1200},{"cover":"BKN","base":9000}],"obsTime":1778482800},"SBUL":{"icaoId":"SBUL","flightCategory":"LIFR","rawOb":"METAR SBUL 110700Z 21010KT 3000 BR OVC002 13/13 Q1021","temp":13,"dewp":13,"wdir":210,"wspd":10,"visib":1.86,"altim":1021,"clouds":[{"cover":"OVC","base":200}],"obsTime":1778482800},"SBKP":{"icaoId":"SBKP","flightCategory":"VFR","rawOb":"METAR SBKP 110700Z 20003KT CAVOK 10/08 Q1021","temp":10,"dewp":8,"wdir":200,"wspd":3,"visib":"6+","altim":1021,"clouds":[],"obsTime":1778482800},"SBUR":{"icaoId":"SBUR","flightCategory":"LIFR","rawOb":"METAR SBUR 110700Z 20006KT 2500 BR OVC003 14/13 Q1020","temp":14,"dewp":13,"wdir":200,"wspd":6,"visib":1.55,"altim":1020,"clouds":[{"cover":"OVC","base":300}],"obsTime":1778482800},"SBVT":{"icaoId":"SBVT","flightCategory":"VFR","rawOb":"METAR SBVT 110700Z 33002KT 9999 SCT025 BKN040 20/19 Q1014","temp":20,"dewp":19,"wdir":330,"wspd":2,"visib":"6+","altim":1014,"clouds":[{"cover":"SCT","base":2500},{"cover":"BKN","base":4000}],"obsTime":1778482800},"SBBV":{"icaoId":"SBBV","flightCategory":"VFR","rawOb":"METAR SBBV 110700Z 08007KT 9999 SCT030 FEW035TCU BKN060 25/24 Q1011","temp":25,"dewp":24,"wdir":80,"wspd":7,"visib":"6+","altim":1011,"clouds":[{"cover":"SCT","base":3000},{"cover":"FEW","base":3500},{"cover":"BKN","base":6000}],"obsTime":1778482800},"SBLO":{"icaoId":"SBLO","flightCategory":"VFR","rawOb":"METAR SBLO 110700Z 26003KT 230V290 CAVOK 07/06 Q1020","temp":7,"dewp":6,"wdir":260,"wspd":3,"visib":"6+","altim":1020,"clouds":[],"obsTime":1778482800},"SBMA":{"icaoId":"SBMA","flightCategory":"MVFR","rawOb":"METAR SBMA 110700Z 22003KT 9999 BKN020 26/24 Q1012","temp":26,"dewp":24,"wdir":220,"wspd":3,"visib":"6+","altim":1012,"clouds":[{"cover":"BKN","base":2000}],"obsTime":1778482800},"SBEG":{"icaoId":"SBEG","flightCategory":"VFR","rawOb":"METAR SBEG 110700Z 10004KT CAVOK 26/24 Q1010","temp":26,"dewp":24,"wdir":100,"wspd":4,"visib":"6+","altim":1010,"clouds":[],"obsTime":1778482800},"SBSJ":{"icaoId":"SBSJ","flightCategory":"MVFR","rawOb":"SPECI SBSJ 110830Z 20005KT 9999 BKN025 12/08 Q1020","temp":12,"dewp":8,"wdir":200,"wspd":5,"visib":"6+","altim":1020,"clouds":[{"cover":"BKN","base":2500}],"obsTime":1778488200},"SBIP":{"icaoId":"SBIP","flightCategory":"LIFR","rawOb":"METAR SBIP 110700Z AUTO 00000KT 0650 FG VV002 18/18 Q1015","temp":18,"dewp":18,"wdir":0,"wspd":0,"visib":0.4,"altim":1015,"clouds":[{"cover":"OVX","base":200}],"obsTime":1778482800},"SBPS":{"icaoId":"SBPS","flightCategory":"VFR","rawOb":"METAR SBPS 110700Z 26005KT 9999 FEW025 21/20 Q1014","temp":21,"dewp":20,"wdir":260,"wspd":5,"visib":"6+","altim":1014,"clouds":[{"cover":"FEW","base":2500}],"obsTime":1778482800},"SBDN":{"icaoId":"SBDN","flightCategory":"VFR","rawOb":"METAR SBDN 110700Z 26002KT CAVOK 06/05 Q1021","temp":6,"dewp":5,"wdir":260,"wspd":2,"visib":"6+","altim":1021,"clouds":[],"obsTime":1778482800},"SBSC":{"icaoId":"SBSC","flightCategory":"MVFR","rawOb":"METAR SBSC 110700Z 23009KT 6000 -RA FEW010 BKN015 BKN035 20/17 Q1017","temp":20,"dewp":17,"wdir":230,"wspd":9,"visib":3.73,"altim":1017,"clouds":[{"cover":"FEW","base":1000},{"cover":"BKN","base":1500},{"cover":"BKN","base":3500}],"obsTime":1778482800},"SBKG":{"icaoId":"SBKG","flightCategory":"IFR","rawOb":"METAR SBKG 110700Z 11002KT 9999 BKN006 21/21 Q1015","temp":21,"dewp":21,"wdir":110,"wspd":2,"visib":"6+","altim":1015,"clouds":[{"cover":"BKN","base":600}],"obsTime":1778482800},"SBSR":{"icaoId":"SBSR","flightCategory":"VFR","rawOb":"METAR SBSR 110700Z 19006KT 9999 FEW020 SCT070 13/11 Q1020","temp":13,"dewp":11,"wdir":190,"wspd":6,"visib":"6+","altim":1020,"clouds":[{"cover":"FEW","base":2000},{"cover":"SCT","base":7000}],"obsTime":1778482800},"SBTU":{"icaoId":"SBTU","flightCategory":"VFR","rawOb":"METAR SBTU 110700Z AUTO 25003KT 9999 // ///////// ///// Q1013","temp":null,"dewp":null,"wdir":250,"wspd":3,"visib":"6+","altim":1013,"clouds":[],"obsTime":1778482800},"SBOI":{"icaoId":"SBOI","flightCategory":"MVFR","rawOb":"METAR SBOI 110700Z AUTO VRB01KT 8000 // FEW035/// SCT063/// 25/24 Q1011","temp":25,"dewp":24,"wdir":"VRB","wspd":1,"visib":4.97,"altim":1011,"clouds":[{"cover":"FEW","base":3500},{"cover":"SCT","base":6300}],"obsTime":1778482800},"SBAR":{"icaoId":"SBAR","flightCategory":"VFR","rawOb":"METAR SBAR 110700Z 25004KT 9999 FEW018 SCT035 24/23 Q1013","temp":24,"dewp":23,"wdir":250,"wspd":4,"visib":"6+","altim":1013,"clouds":[{"cover":"FEW","base":1800},{"cover":"SCT","base":3500}],"obsTime":1778482800},"SBPL":{"icaoId":"SBPL","flightCategory":"VFR","rawOb":"METAR SBPL 110700Z 12006KT CAVOK 23/21 Q1014","temp":23,"dewp":21,"wdir":120,"wspd":6,"visib":"6+","altim":1014,"clouds":[],"obsTime":1778482800},"SBJP":{"icaoId":"SBJP","flightCategory":"MVFR","rawOb":"METAR SBJP 110700Z 23004KT 9999 FEW010 BKN020 23/23 Q1012","temp":23,"dewp":23,"wdir":230,"wspd":4,"visib":"6+","altim":1012,"clouds":[{"cover":"FEW","base":1000},{"cover":"BKN","base":2000}],"obsTime":1778482800},"SBLE":{"icaoId":"SBLE","flightCategory":"VFR","rawOb":"METAR SBLE 110700Z AUTO 31002KT 9999 BKN036 ///// Q////","temp":null,"dewp":null,"wdir":310,"wspd":2,"visib":"6+","altim":null,"clouds":[{"cover":"BKN","base":3600}],"obsTime":1778482800},"SBAN":{"icaoId":"SBAN","flightCategory":"LIFR","rawOb":"METAR SBAN 110700Z 27008KT 0300 R06L/1300 R24R/1300 FG BKN002 15/14 Q1022","temp":15,"dewp":14,"wdir":270,"wspd":8,"visib":0.19,"altim":1022,"clouds":[{"cover":"BKN","base":200}],"obsTime":1778482800},"SBNM":{"icaoId":"SBNM","flightCategory":"VFR","rawOb":"METAR SBNM 110800Z AUTO 33002KT CAVOK 05/04 Q1023","temp":5,"dewp":4,"wdir":330,"wspd":2,"visib":"6+","altim":1023,"clouds":[],"obsTime":1778486400}}}