{"updated":1783239706,"count":47,"data":{"SBSV":{"icaoId":"SBSV","flightCategory":"MVFR","rawOb":"METAR SBSV 050700Z 08007KT 7000 3000NW RA FEW004 BKN019 BKN040 23/22 Q1016","temp":23,"dewp":22,"wdir":80,"wspd":7,"visib":4.35,"altim":1016,"clouds":[{"cover":"FEW","base":400},{"cover":"BKN","base":1900},{"cover":"BKN","base":4000}],"obsTime":1783234800},"SBME":{"icaoId":"SBME","flightCategory":"VFR","rawOb":"METAR SBME 050700Z 23006KT 9999 SCT008 OVC040 20/18 Q1020","temp":20,"dewp":18,"wdir":230,"wspd":6,"visib":"6+","altim":1020,"clouds":[{"cover":"SCT","base":800},{"cover":"OVC","base":4000}],"obsTime":1783234800},"SBUL":{"icaoId":"SBUL","flightCategory":"VFR","rawOb":"METAR SBUL 050700Z 22005KT CAVOK 18/11 Q1021","temp":18,"dewp":11,"wdir":220,"wspd":5,"visib":"6+","altim":1021,"clouds":[],"obsTime":1783234800},"SBUR":{"icaoId":"SBUR","flightCategory":"VFR","rawOb":"METAR SBUR 050700Z 33002KT CAVOK 18/14 Q1020","temp":18,"dewp":14,"wdir":330,"wspd":2,"visib":"6+","altim":1020,"clouds":[],"obsTime":1783234800},"SBCG":{"icaoId":"SBCG","flightCategory":"VFR","rawOb":"METAR SBCG 050700Z 09004KT CAVOK 17/15 Q1018","temp":17,"dewp":15,"wdir":90,"wspd":4,"visib":"6+","altim":1018,"clouds":[],"obsTime":1783234800},"SBTE":{"icaoId":"SBTE","flightCategory":"VFR","rawOb":"METAR SBTE 050700Z 22002KT CAVOK 26/22 Q1013","temp":26,"dewp":22,"wdir":220,"wspd":2,"visib":"6+","altim":1013,"clouds":[],"obsTime":1783234800},"SBGR":{"icaoId":"SBGR","flightCategory":"IFR","rawOb":"METAR SBGR 050700Z 11004KT 7000 OVC006 13/12 Q1023","temp":13,"dewp":12,"wdir":110,"wspd":4,"visib":4.35,"altim":1023,"clouds":[{"cover":"OVC","base":600}],"obsTime":1783234800},"SBNT":{"icaoId":"SBNT","flightCategory":"IFR","rawOb":"METAR SBNT 050700Z 13010KT 100V160 2000 RA BR BKN006 BKN015 FEW025TCU 23/23 Q1015","temp":23,"dewp":23,"wdir":130,"wspd":10,"visib":1.24,"altim":1015,"clouds":[{"cover":"BKN","base":600},{"cover":"BKN","base":1500},{"cover":"FEW","base":2500}],"obsTime":1783234800},"SBMA":{"icaoId":"SBMA","flightCategory":"VFR","rawOb":"METAR SBMA 050700Z 00000KT CAVOK 23/20 Q1012","temp":23,"dewp":20,"wdir":0,"wspd":0,"visib":"6+","altim":1012,"clouds":[],"obsTime":1783234800},"SBVT":{"icaoId":"SBVT","flightCategory":"VFR","rawOb":"METAR SBVT 050700Z 00000KT 9999 FEW018 SCT060 17/17 Q1019","temp":17,"dewp":17,"wdir":0,"wspd":0,"visib":"6+","altim":1019,"clouds":[{"cover":"FEW","base":1800},{"cover":"SCT","base":6000}],"obsTime":1783234800},"SBMQ":{"icaoId":"SBMQ","flightCategory":"VFR","rawOb":"METAR SBMQ 050700Z 10002KT 9999 SCT015 BKN045 BKN070 26/24 Q1013","temp":26,"dewp":24,"wdir":100,"wspd":2,"visib":"6+","altim":1013,"clouds":[{"cover":"SCT","base":1500},{"cover":"BKN","base":4500},{"cover":"BKN","base":7000}],"obsTime":1783234800},"SBPJ":{"icaoId":"SBPJ","flightCategory":"VFR","rawOb":"METAR SBPJ 050700Z 16004KT 130V190 CAVOK 22/18 Q1014","temp":22,"dewp":18,"wdir":160,"wspd":4,"visib":"6+","altim":1014,"clouds":[],"obsTime":1783234800},"SBSP":{"icaoId":"SBSP","flightCategory":"IFR","rawOb":"METAR SBSP 050700Z AUTO 13004KT 080V160 9000 OVC005 13/13 Q1023","temp":13,"dewp":13,"wdir":130,"wspd":4,"visib":5.59,"altim":1023,"clouds":[{"cover":"OVC","base":500}],"obsTime":1783234800},"SBCT":{"icaoId":"SBCT","flightCategory":"IFR","rawOb":"METAR SBCT 050700Z 08003KT 9999 OVC005 11/11 Q1024","temp":11,"dewp":11,"wdir":80,"wspd":3,"visib":"6+","altim":1024,"clouds":[{"cover":"OVC","base":500}],"obsTime":1783234800},"SBRF":{"icaoId":"SBRF","flightCategory":"VFR","rawOb":"METAR SBRF 050700Z 19006KT 9999 SCT020 BKN040 23/22 Q1015","temp":23,"dewp":22,"wdir":190,"wspd":6,"visib":"6+","altim":1015,"clouds":[{"cover":"SCT","base":2000},{"cover":"BKN","base":4000}],"obsTime":1783234800},"SBFI":{"icaoId":"SBFI","flightCategory":"VFR","rawOb":"METAR SBFI 050700Z 15004KT 9999 BCFG NSC 12/12 Q1018","temp":12,"dewp":12,"wdir":150,"wspd":4,"visib":"6+","altim":1018,"clouds":[],"obsTime":1783234800},"SBCF":{"icaoId":"SBCF","flightCategory":"VFR","rawOb":"METAR SBCF 050700Z 17003KT CAVOK 18/14 Q1021","temp":18,"dewp":14,"wdir":170,"wspd":3,"visib":"6+","altim":1021,"clouds":[],"obsTime":1783234800},"SBFZ":{"icaoId":"SBFZ","flightCategory":"VFR","rawOb":"METAR SBFZ 050700Z 15009KT 9999 SCT007 BKN100 24/23 Q1014","temp":24,"dewp":23,"wdir":150,"wspd":9,"visib":"6+","altim":1014,"clouds":[{"cover":"SCT","base":700},{"cover":"BKN","base":10000}],"obsTime":1783234800},"SBPV":{"icaoId":"SBPV","flightCategory":"VFR","rawOb":"METAR SBPV 050700Z 18002KT 9999 FEW005 22/20 Q1013","temp":22,"dewp":20,"wdir":180,"wspd":2,"visib":"6+","altim":1013,"clouds":[{"cover":"FEW","base":500}],"obsTime":1783234800},"SBBR":{"icaoId":"SBBR","flightCategory":"VFR","rawOb":"METAR SBBR 050700Z 26004KT 230V290 9999 FEW045 15/11 Q1022","temp":15,"dewp":11,"wdir":260,"wspd":4,"visib":"6+","altim":1022,"clouds":[{"cover":"FEW","base":4500}],"obsTime":1783234800},"SBSL":{"icaoId":"SBSL","flightCategory":"VFR","rawOb":"METAR SBSL 050700Z 09005KT CAVOK 26/24 Q1013","temp":26,"dewp":24,"wdir":90,"wspd":5,"visib":"6+","altim":1013,"clouds":[],"obsTime":1783234800},"SBBE":{"icaoId":"SBBE","flightCategory":"VFR","rawOb":"METAR SBBE 050700Z 14004KT 9999 SCT035 BKN060 26/24 Q1013","temp":26,"dewp":24,"wdir":140,"wspd":4,"visib":"6+","altim":1013,"clouds":[{"cover":"SCT","base":3500},{"cover":"BKN","base":6000}],"obsTime":1783234800},"SBFL":{"icaoId":"SBFL","flightCategory":"VFR","rawOb":"METAR SBFL 050700Z 33002KT CAVOK 12/11 Q1022","temp":12,"dewp":11,"wdir":330,"wspd":2,"visib":"6+","altim":1022,"clouds":[],"obsTime":1783234800},"SBRB":{"icaoId":"SBRB","flightCategory":"MVFR","rawOb":"METAR SBRB 050700Z 20003KT 8000 NSC 18/17 Q1015","temp":18,"dewp":17,"wdir":200,"wspd":3,"visib":4.97,"altim":1015,"clouds":[],"obsTime":1783234800},"SBEG":{"icaoId":"SBEG","flightCategory":"VFR","rawOb":"METAR SBEG 050700Z 34004KT CAVOK 23/22 Q1012","temp":23,"dewp":22,"wdir":340,"wspd":4,"visib":"6+","altim":1012,"clouds":[],"obsTime":1783234800},"SBSG":{"icaoId":"SBSG","flightCategory":"LIFR","rawOb":"METAR SBSG 050700Z VRB02KT 2000 RA BR BKN003 BKN010 23/23 Q1016","temp":23,"dewp":23,"wdir":"VRB","wspd":2,"visib":1.24,"altim":1016,"clouds":[{"cover":"BKN","base":300},{"cover":"BKN","base":1000}],"obsTime":1783234800},"SBMO":{"icaoId":"SBMO","flightCategory":"VFR","rawOb":"METAR SBMO 050700Z 30003KT 9999 FEW020 19/19 Q1016","temp":19,"dewp":19,"wdir":300,"wspd":3,"visib":"6+","altim":1016,"clouds":[{"cover":"FEW","base":2000}],"obsTime":1783234800},"SBBV":{"icaoId":"SBBV","flightCategory":"MVFR","rawOb":"METAR SBBV 050700Z 04002KT 9999 BKN010 FEW030TCU BKN100 24/24 Q1013","temp":24,"dewp":24,"wdir":40,"wspd":2,"visib":"6+","altim":1013,"clouds":[{"cover":"BKN","base":1000},{"cover":"FEW","base":3000},{"cover":"BKN","base":10000}],"obsTime":1783234800},"SBMK":{"icaoId":"SBMK","flightCategory":"VFR","rawOb":"METAR SBMK 050800Z 00000KT CAVOK 15/13 Q1020","temp":15,"dewp":13,"wdir":0,"wspd":0,"visib":"6+","altim":1020,"clouds":[],"obsTime":1783238400},"SBJU":{"icaoId":"SBJU","flightCategory":"VFR","rawOb":"METAR SBJU 050700Z 00000KT 9999 FEW020 23/15 Q1017","temp":23,"dewp":15,"wdir":0,"wspd":0,"visib":"6+","altim":1017,"clouds":[{"cover":"FEW","base":2000}],"obsTime":1783234800},"SBPA":{"icaoId":"SBPA","flightCategory":"LIFR","rawOb":"SPECI SBPA 050648Z 06002KT 2000 BR BKN002 OVC006 10/10 Q1023","temp":10,"dewp":10,"wdir":60,"wspd":2,"visib":1.24,"altim":1023,"clouds":[{"cover":"BKN","base":200},{"cover":"OVC","base":600}],"obsTime":1783234080},"SBGL":{"icaoId":"SBGL","flightCategory":"MVFR","rawOb":"METAR SBGL 050700Z 26006KT 9999 FEW013 SCT025 OVC030 19/17 Q1021","temp":19,"dewp":17,"wdir":260,"wspd":6,"visib":"6+","altim":1021,"clouds":[{"cover":"FEW","base":1300},{"cover":"SCT","base":2500},{"cover":"OVC","base":3000}],"obsTime":1783234800},"SBSN":{"icaoId":"SBSN","flightCategory":"VFR","rawOb":"METAR SBSN 050700Z COR 16002KT CAVOK 24/23 Q1011","temp":24,"dewp":23,"wdir":160,"wspd":2,"visib":"6+","altim":1011,"clouds":[],"obsTime":1783234800},"SBGO":{"icaoId":"SBGO","flightCategory":"VFR","rawOb":"METAR SBGO 050700Z 29003KT CAVOK 15/14 Q1020","temp":15,"dewp":14,"wdir":290,"wspd":3,"visib":"6+","altim":1020,"clouds":[],"obsTime":1783234800},"SBLO":{"icaoId":"SBLO","flightCategory":"LIFR","rawOb":"METAR SBLO 050700Z VRB01KT 3000 BR BKN001 16/16 Q1020","temp":16,"dewp":16,"wdir":"VRB","wspd":1,"visib":1.86,"altim":1020,"clouds":[{"cover":"BKN","base":100}],"obsTime":1783234800},"SBKP":{"icaoId":"SBKP","flightCategory":"IFR","rawOb":"METAR SBKP 050700Z 12008KT 7000 BKN005 14/13 Q1021","temp":14,"dewp":13,"wdir":120,"wspd":8,"visib":4.35,"altim":1021,"clouds":[{"cover":"BKN","base":500}],"obsTime":1783234800},"SBOI":{"icaoId":"SBOI","flightCategory":"VFR","rawOb":"METAR SBOI 050700Z AUTO 00000KT 9999 FEW002 24/23 Q1013","temp":24,"dewp":23,"wdir":0,"wspd":0,"visib":"6+","altim":1013,"clouds":[{"cover":"FEW","base":200}],"obsTime":1783234800},"SBDN":{"icaoId":"SBDN","flightCategory":"VFR","rawOb":"METAR SBDN 050700Z 12007KT CAVOK 16/16 Q1019","temp":16,"dewp":16,"wdir":120,"wspd":7,"visib":"6+","altim":1019,"clouds":[],"obsTime":1783234800},"SBSC":{"icaoId":"SBSC","flightCategory":"MVFR","rawOb":"METAR SBSC 050700Z 22004KT 9999 OVC014 19/17 Q1021","temp":19,"dewp":17,"wdir":220,"wspd":4,"visib":"6+","altim":1021,"clouds":[{"cover":"OVC","base":1400}],"obsTime":1783234800},"SBSR":{"icaoId":"SBSR","flightCategory":"VFR","rawOb":"METAR SBSR 050800Z 09003KT 9999 FEW045 19/15 Q1019","temp":19,"dewp":15,"wdir":90,"wspd":3,"visib":"6+","altim":1019,"clouds":[{"cover":"FEW","base":4500}],"obsTime":1783238400},"SBPL":{"icaoId":"SBPL","flightCategory":"VFR","rawOb":"METAR SBPL 050700Z 16002KT CAVOK 20/18 Q1017","temp":20,"dewp":18,"wdir":160,"wspd":2,"visib":"6+","altim":1017,"clouds":[],"obsTime":1783234800},"SBKG":{"icaoId":"SBKG","flightCategory":"VFR","rawOb":"METAR SBKG 050700Z 16004KT CAVOK 21/19 Q1018","temp":21,"dewp":19,"wdir":160,"wspd":4,"visib":"6+","altim":1018,"clouds":[],"obsTime":1783234800},"SBPS":{"icaoId":"SBPS","flightCategory":"VFR","rawOb":"METAR SBPS 050700Z 26004KT 9999 SCT020 BKN050 21/20 Q1018","temp":21,"dewp":20,"wdir":260,"wspd":4,"visib":"6+","altim":1018,"clouds":[{"cover":"SCT","base":2000},{"cover":"BKN","base":5000}],"obsTime":1783234800},"SBAR":{"icaoId":"SBAR","flightCategory":"MVFR","rawOb":"SPECI SBAR 050640Z 18004KT 6000 RA BKN015 OVC040 22/22 Q1016","temp":22,"dewp":22,"wdir":180,"wspd":4,"visib":3.73,"altim":1016,"clouds":[{"cover":"BKN","base":1500},{"cover":"OVC","base":4000}],"obsTime":1783233600},"SBSJ":{"icaoId":"SBSJ","flightCategory":"IFR","rawOb":"SPECI SBSJ 050730Z 14004KT 3000 BR BKN005 14/13 Q1022","temp":14,"dewp":13,"wdir":140,"wspd":4,"visib":1.86,"altim":1022,"clouds":[{"cover":"BKN","base":500}],"obsTime":1783236600},"SBJP":{"icaoId":"SBJP","flightCategory":"MVFR","rawOb":"METAR SBJP 050700Z 16004KT 9999 BKN014 BKN070 23/23 Q1015","temp":23,"dewp":23,"wdir":160,"wspd":4,"visib":"6+","altim":1015,"clouds":[{"cover":"BKN","base":1400},{"cover":"BKN","base":7000}],"obsTime":1783234800},"SBAN":{"icaoId":"SBAN","flightCategory":"VFR","rawOb":"METAR SBAN 050700Z 10004KT CAVOK 14/10 Q1023","temp":14,"dewp":10,"wdir":100,"wspd":4,"visib":"6+","altim":1023,"clouds":[],"obsTime":1783234800}}}