{"updated":1778543041,"count":74,"data":{"SBBE":{"icaoId":"SBBE","flightCategory":"VFR","rawOb":"METAR SBBE 112200Z 11004KT 9999 FEW030 BKN060 26/25 Q1010 RETS","temp":26,"dewp":25,"wdir":110,"wspd":4,"visib":"6+","altim":1010,"clouds":[{"cover":"FEW","base":3000},{"cover":"BKN","base":6000}],"obsTime":1778536800},"SBBR":{"icaoId":"SBBR","flightCategory":"VFR","rawOb":"METAR SBBR 112200Z 18006KT CAVOK 22/17 Q1020","temp":22,"dewp":17,"wdir":180,"wspd":6,"visib":"6+","altim":1020,"clouds":[],"obsTime":1778536800},"SBBV":{"icaoId":"SBBV","flightCategory":"VFR","rawOb":"METAR SBBV 112200Z 22007KT 9999 FEW030 FEW035TCU SCT100 28/24 Q1009","temp":28,"dewp":24,"wdir":220,"wspd":7,"visib":"6+","altim":1009,"clouds":[{"cover":"FEW","base":3000},{"cover":"FEW","base":3500},{"cover":"SCT","base":10000}],"obsTime":1778536800},"SBCF":{"icaoId":"SBCF","flightCategory":"VFR","rawOb":"METAR SBCF 112200Z 31002KT 9999 FEW040 23/18 Q1019","temp":23,"dewp":18,"wdir":310,"wspd":2,"visib":"6+","altim":1019,"clouds":[{"cover":"FEW","base":4000}],"obsTime":1778536800},"SBCG":{"icaoId":"SBCG","flightCategory":"VFR","rawOb":"METAR SBCG 112200Z 15005KT CAVOK 15/08 Q1020","temp":15,"dewp":8,"wdir":150,"wspd":5,"visib":"6+","altim":1020,"clouds":[],"obsTime":1778536800},"SBCT":{"icaoId":"SBCT","flightCategory":"VFR","rawOb":"METAR SBCT 112200Z 22002KT CAVOK 13/03 Q1022","temp":13,"dewp":3,"wdir":220,"wspd":2,"visib":"6+","altim":1022,"clouds":[],"obsTime":1778536800},"SBCZ":{"icaoId":"SBCZ","flightCategory":"MVFR","rawOb":"METAR SBCZ 112200Z 17006KT 6000 -RA OVC015 18/17 Q1017","temp":18,"dewp":17,"wdir":170,"wspd":6,"visib":3.73,"altim":1017,"clouds":[{"cover":"OVC","base":1500}],"obsTime":1778536800},"SBEG":{"icaoId":"SBEG","flightCategory":"VFR","rawOb":"METAR SBEG 112200Z 25003KT 9999 SCT007 BKN080 25/24 Q1011","temp":25,"dewp":24,"wdir":250,"wspd":3,"visib":"6+","altim":1011,"clouds":[{"cover":"SCT","base":700},{"cover":"BKN","base":8000}],"obsTime":1778536800},"SBFI":{"icaoId":"SBFI","flightCategory":"VFR","rawOb":"METAR SBFI 112200Z COR 21004KT CAVOK 12/10 Q1021","temp":12,"dewp":10,"wdir":210,"wspd":4,"visib":"6+","altim":1021,"clouds":[],"obsTime":1778536800},"SBFL":{"icaoId":"SBFL","flightCategory":"VFR","rawOb":"METAR SBFL 112200Z 18002KT CAVOK 13/10 Q1020","temp":13,"dewp":10,"wdir":180,"wspd":2,"visib":"6+","altim":1020,"clouds":[],"obsTime":1778536800},"SBFZ":{"icaoId":"SBFZ","flightCategory":"VFR","rawOb":"METAR SBFZ 112200Z 09007KT CAVOK 28/25 Q1011","temp":28,"dewp":25,"wdir":90,"wspd":7,"visib":"6+","altim":1011,"clouds":[],"obsTime":1778536800},"SBGL":{"icaoId":"SBGL","flightCategory":"MVFR","rawOb":"METAR SBGL 112200Z 23007KT 9999 BKN025 OVC045 21/14 Q1019","temp":21,"dewp":14,"wdir":230,"wspd":7,"visib":"6+","altim":1019,"clouds":[{"cover":"BKN","base":2500},{"cover":"OVC","base":4500}],"obsTime":1778536800},"SBGO":{"icaoId":"SBGO","flightCategory":"VFR","rawOb":"METAR SBGO 112200Z 14005KT CAVOK 21/18 Q1019","temp":21,"dewp":18,"wdir":140,"wspd":5,"visib":"6+","altim":1019,"clouds":[],"obsTime":1778536800},"SBGR":{"icaoId":"SBGR","flightCategory":"VFR","rawOb":"METAR SBGR 112200Z 00000KT CAVOK 10/08 Q1021","temp":10,"dewp":8,"wdir":0,"wspd":0,"visib":"6+","altim":1021,"clouds":[],"obsTime":1778536800},"SBIL":{"icaoId":"SBIL","flightCategory":"VFR","rawOb":"METAR SBIL 112200Z 15005KT 110V180 CAVOK 27/23 Q1015","temp":27,"dewp":23,"wdir":150,"wspd":5,"visib":"6+","altim":1015,"clouds":[],"obsTime":1778536800},"SBJU":{"icaoId":"SBJU","flightCategory":"VFR","rawOb":"METAR SBJU 112200Z 00000KT CAVOK 27/22 Q1014","temp":27,"dewp":22,"wdir":0,"wspd":0,"visib":"6+","altim":1014,"clouds":[],"obsTime":1778536800},"SBKP":{"icaoId":"SBKP","flightCategory":"VFR","rawOb":"METAR SBKP 112200Z VRB02KT CAVOK 14/09 Q1021","temp":14,"dewp":9,"wdir":"VRB","wspd":2,"visib":"6+","altim":1021,"clouds":[],"obsTime":1778536800},"SBLO":{"icaoId":"SBLO","flightCategory":"VFR","rawOb":"METAR SBLO 112200Z 36003KT CAVOK 14/08 Q1020","temp":14,"dewp":8,"wdir":360,"wspd":3,"visib":"6+","altim":1020,"clouds":[],"obsTime":1778536800},"SBMA":{"icaoId":"SBMA","flightCategory":"VFR","rawOb":"METAR SBMA 112200Z 00000KT 9999 FEW020 FEW025TCU 29/24 Q1010","temp":29,"dewp":24,"wdir":0,"wspd":0,"visib":"6+","altim":1010,"clouds":[{"cover":"FEW","base":2000},{"cover":"FEW","base":2500}],"obsTime":1778536800},"SBME":{"icaoId":"SBME","flightCategory":"VFR","rawOb":"METAR SBME 112200Z 25007KT 9999 SCT040 OVC070 21/16 Q1018","temp":21,"dewp":16,"wdir":250,"wspd":7,"visib":"6+","altim":1018,"clouds":[{"cover":"SCT","base":4000},{"cover":"OVC","base":7000}],"obsTime":1778536800},"SBMG":{"icaoId":"SBMG","flightCategory":"VFR","rawOb":"METAR SBMG 112200Z 20005KT CAVOK 14/07 Q1020","temp":14,"dewp":7,"wdir":200,"wspd":5,"visib":"6+","altim":1020,"clouds":[],"obsTime":1778536800},"SBMK":{"icaoId":"SBMK","flightCategory":"VFR","rawOb":"METAR SBMK 112200Z 20003KT CAVOK 25/15 Q1017","temp":25,"dewp":15,"wdir":200,"wspd":3,"visib":"6+","altim":1017,"clouds":[],"obsTime":1778536800},"SBMO":{"icaoId":"SBMO","flightCategory":"VFR","rawOb":"METAR SBMO 112200Z 13005KT 9999 FEW026 SCT070 27/23 Q1014","temp":27,"dewp":23,"wdir":130,"wspd":5,"visib":"6+","altim":1014,"clouds":[{"cover":"FEW","base":2600},{"cover":"SCT","base":7000}],"obsTime":1778536800},"SBMQ":{"icaoId":"SBMQ","flightCategory":"VFR","rawOb":"METAR SBMQ 112200Z 04005KT 9999 SCT023 28/25 Q1010","temp":28,"dewp":25,"wdir":40,"wspd":5,"visib":"6+","altim":1010,"clouds":[{"cover":"SCT","base":2300}],"obsTime":1778536800},"SBNT":{"icaoId":"SBNT","flightCategory":"VFR","rawOb":"METAR SBNT 112200Z 14008KT 9999 FEW024 SCT066 27/24 Q1013","temp":27,"dewp":24,"wdir":140,"wspd":8,"visib":"6+","altim":1013,"clouds":[{"cover":"FEW","base":2400},{"cover":"SCT","base":6600}],"obsTime":1778536800},"SBPA":{"icaoId":"SBPA","flightCategory":"VFR","rawOb":"METAR SBPA 112200Z 27007KT CAVOK 13/07 Q1020","temp":13,"dewp":7,"wdir":270,"wspd":7,"visib":"6+","altim":1020,"clouds":[],"obsTime":1778536800},"SBPJ":{"icaoId":"SBPJ","flightCategory":"VFR","rawOb":"METAR SBPJ 112200Z 17004KT 9999 FEW025 SCT050 31/21 Q1012","temp":31,"dewp":21,"wdir":170,"wspd":4,"visib":"6+","altim":1012,"clouds":[{"cover":"FEW","base":2500},{"cover":"SCT","base":5000}],"obsTime":1778536800},"SBPV":{"icaoId":"SBPV","flightCategory":"VFR","rawOb":"METAR SBPV 112200Z 19003KT 9999 FEW025 SCT100 24/20 Q1013","temp":24,"dewp":20,"wdir":190,"wspd":3,"visib":"6+","altim":1013,"clouds":[{"cover":"FEW","base":2500},{"cover":"SCT","base":10000}],"obsTime":1778536800},"SBRB":{"icaoId":"SBRB","flightCategory":"VFR","rawOb":"METAR SBRB 112200Z 17002KT 9000 FEW010 BKN100 20/17 Q1017","temp":20,"dewp":17,"wdir":170,"wspd":2,"visib":5.59,"altim":1017,"clouds":[{"cover":"FEW","base":1000},{"cover":"BKN","base":10000}],"obsTime":1778536800},"SBRF":{"icaoId":"SBRF","flightCategory":"MVFR","rawOb":"METAR SBRF 112200Z 19009KT 5000 -RA BR FEW012 BKN021 BKN040 24/23 Q1013","temp":24,"dewp":23,"wdir":190,"wspd":9,"visib":3.11,"altim":1013,"clouds":[{"cover":"FEW","base":1200},{"cover":"BKN","base":2100},{"cover":"BKN","base":4000}],"obsTime":1778536800},"SBSG":{"icaoId":"SBSG","flightCategory":"VFR","rawOb":"METAR SBSG 112200Z 13006KT 080V160 9999 FEW023 26/24 Q1013","temp":26,"dewp":24,"wdir":130,"wspd":6,"visib":"6+","altim":1013,"clouds":[{"cover":"FEW","base":2300}],"obsTime":1778536800},"SBSL":{"icaoId":"SBSL","flightCategory":"VFR","rawOb":"METAR SBSL 112200Z 08004KT 9999 SCT025 BKN080 26/25 Q1011","temp":26,"dewp":25,"wdir":80,"wspd":4,"visib":"6+","altim":1011,"clouds":[{"cover":"SCT","base":2500},{"cover":"BKN","base":8000}],"obsTime":1778536800},"SBSN":{"icaoId":"SBSN","flightCategory":"VFR","rawOb":"METAR SBSN 112200Z 17003KT 9999 FEW020 27/26 Q1008","temp":27,"dewp":26,"wdir":170,"wspd":3,"visib":"6+","altim":1008,"clouds":[{"cover":"FEW","base":2000}],"obsTime":1778536800},"SBSP":{"icaoId":"SBSP","flightCategory":"VFR","rawOb":"METAR SBSP 112200Z 18008KT CAVOK 13/11 Q1022","temp":13,"dewp":11,"wdir":180,"wspd":8,"visib":"6+","altim":1022,"clouds":[],"obsTime":1778536800},"SBSV":{"icaoId":"SBSV","flightCategory":"MVFR","rawOb":"METAR SBSV 112200Z 13007KT 9999 BKN020 BKN060 26/23 Q1014","temp":26,"dewp":23,"wdir":130,"wspd":7,"visib":"6+","altim":1014,"clouds":[{"cover":"BKN","base":2000},{"cover":"BKN","base":6000}],"obsTime":1778536800},"SBTE":{"icaoId":"SBTE","flightCategory":"VFR","rawOb":"METAR SBTE 112200Z VRB02KT 9999 FEW020 BKN090 28/24 Q1010","temp":28,"dewp":24,"wdir":"VRB","wspd":2,"visib":"6+","altim":1010,"clouds":[{"cover":"FEW","base":2000},{"cover":"BKN","base":9000}],"obsTime":1778536800},"SBUL":{"icaoId":"SBUL","flightCategory":"VFR","rawOb":"METAR SBUL 112200Z 22008KT CAVOK 19/14 Q1020","temp":19,"dewp":14,"wdir":220,"wspd":8,"visib":"6+","altim":1020,"clouds":[],"obsTime":1778536800},"SBUR":{"icaoId":"SBUR","flightCategory":"VFR","rawOb":"METAR SBUR 112200Z 20005KT CAVOK 18/11 Q1020","temp":18,"dewp":11,"wdir":200,"wspd":5,"visib":"6+","altim":1020,"clouds":[],"obsTime":1778536800},"SBVT":{"icaoId":"SBVT","flightCategory":"MVFR","rawOb":"METAR SBVT 112200Z 20011KT 9999 FEW017 BKN025 BKN040 22/19 Q1017","temp":22,"dewp":19,"wdir":200,"wspd":11,"visib":"6+","altim":1017,"clouds":[{"cover":"FEW","base":1700},{"cover":"BKN","base":2500},{"cover":"BKN","base":4000}],"obsTime":1778536800},"SBCP":{"icaoId":"SBCP","flightCategory":"VFR","rawOb":"METAR SBCP 112200Z 23008KT 9999 SCT040 BKN080 21/17 Q1018","temp":21,"dewp":17,"wdir":230,"wspd":8,"visib":"6+","altim":1018,"clouds":[{"cover":"SCT","base":4000},{"cover":"BKN","base":8000}],"obsTime":1778536800},"SBCA":{"icaoId":"SBCA","flightCategory":"VFR","rawOb":"METAR SBCA 112200Z 17007KT CAVOK 10/06 Q1022","temp":10,"dewp":6,"wdir":170,"wspd":7,"visib":"6+","altim":1022,"clouds":[],"obsTime":1778536800},"SBVH":{"icaoId":"SBVH","flightCategory":"VFR","rawOb":"METAR SBVH 112200Z 21010KT CAVOK 21/16 Q1017","temp":21,"dewp":16,"wdir":210,"wspd":10,"visib":"6+","altim":1017,"clouds":[],"obsTime":1778536800},"SBPL":{"icaoId":"SBPL","flightCategory":"VFR","rawOb":"METAR SBPL 112200Z 15005KT CAVOK 27/19 Q1014","temp":27,"dewp":19,"wdir":150,"wspd":5,"visib":"6+","altim":1014,"clouds":[],"obsTime":1778536800},"SBCO":{"icaoId":"SBCO","flightCategory":"VFR","rawOb":"METAR SBCO 112200Z 29006KT CAVOK 12/05 Q1021","temp":12,"dewp":5,"wdir":290,"wspd":6,"visib":"6+","altim":1021,"clouds":[],"obsTime":1778536800},"SBPS":{"icaoId":"SBPS","flightCategory":"VFR","rawOb":"METAR SBPS 112200Z 12004KT CAVOK 25/22 Q1016","temp":25,"dewp":22,"wdir":120,"wspd":4,"visib":"6+","altim":1016,"clouds":[],"obsTime":1778536800},"SBAX":{"icaoId":"SBAX","flightCategory":"VFR","rawOb":"METAR SBAX 112200Z 24006KT CAVOK 19/14 Q1020","temp":19,"dewp":14,"wdir":240,"wspd":6,"visib":"6+","altim":1020,"clouds":[],"obsTime":1778536800},"SBSC":{"icaoId":"SBSC","flightCategory":"MVFR","rawOb":"METAR SBSC 112200Z 21005KT 9999 FEW015 BKN025 OVC040 20/15 Q1020","temp":20,"dewp":15,"wdir":210,"wspd":5,"visib":"6+","altim":1020,"clouds":[{"cover":"FEW","base":1500},{"cover":"BKN","base":2500},{"cover":"OVC","base":4000}],"obsTime":1778536800},"SBDN":{"icaoId":"SBDN","flightCategory":"VFR","rawOb":"METAR SBDN 112200Z 15006KT CAVOK 14/09 Q1020","temp":14,"dewp":9,"wdir":150,"wspd":6,"visib":"6+","altim":1020,"clouds":[],"obsTime":1778536800},"SBSJ":{"icaoId":"SBSJ","flightCategory":"VFR","rawOb":"METAR SBSJ 112200Z 00000KT CAVOK 13/09 Q1021","temp":13,"dewp":9,"wdir":0,"wspd":0,"visib":"6+","altim":1021,"clouds":[],"obsTime":1778536800},"SBBU":{"icaoId":"SBBU","flightCategory":"VFR","rawOb":"METAR SBBU 112200Z 19004KT CAVOK 16/11 Q1021","temp":16,"dewp":11,"wdir":190,"wspd":4,"visib":"6+","altim":1021,"clouds":[],"obsTime":1778536800},"SBSM":{"icaoId":"SBSM","flightCategory":"VFR","rawOb":"METAR SBSM 112200Z 30002KT CAVOK 09/07 Q1022","temp":9,"dewp":7,"wdir":300,"wspd":2,"visib":"6+","altim":1022,"clouds":[],"obsTime":1778536800},"SBAR":{"icaoId":"SBAR","flightCategory":"VFR","rawOb":"METAR SBAR 112200Z 14007KT 9999 FEW023 BKN060 28/23 Q1014","temp":28,"dewp":23,"wdir":140,"wspd":7,"visib":"6+","altim":1014,"clouds":[{"cover":"FEW","base":2300},{"cover":"BKN","base":6000}],"obsTime":1778536800},"SBSR":{"icaoId":"SBSR","flightCategory":"VFR","rawOb":"METAR SBSR 112200Z 22004KT CAVOK 18/06 Q1020","temp":18,"dewp":6,"wdir":220,"wspd":4,"visib":"6+","altim":1020,"clouds":[],"obsTime":1778536800},"SBES":{"icaoId":"SBES","flightCategory":"MVFR","rawOb":"METAR SBES 112200Z VRB07KT 9999 BKN030 OVC040 21/// Q1019","temp":null,"dewp":null,"wdir":"VRB","wspd":7,"visib":"6+","altim":1019,"clouds":[{"cover":"BKN","base":3000},{"cover":"OVC","base":4000}],"obsTime":1778536800},"SBIP":{"icaoId":"SBIP","flightCategory":"VFR","rawOb":"METAR SBIP 112200Z AUTO 23001KT CAVOK 23/21 Q1015","temp":23,"dewp":21,"wdir":230,"wspd":1,"visib":"6+","altim":1015,"clouds":[],"obsTime":1778536800},"SBTT":{"icaoId":"SBTT","flightCategory":"MVFR","rawOb":"METAR SBTT 112200Z 24006KT 9999 BKN011 20/17 Q1015","temp":20,"dewp":17,"wdir":240,"wspd":6,"visib":"6+","altim":1015,"clouds":[{"cover":"BKN","base":1100}],"obsTime":1778536800},"SBTU":{"icaoId":"SBTU","flightCategory":"VFR","rawOb":"METAR SBTU 112200Z AUTO 02003KT 9999 // ///////// ///// Q1011","temp":null,"dewp":null,"wdir":20,"wspd":3,"visib":"6+","altim":1011,"clouds":[],"obsTime":1778536800},"SBKG":{"icaoId":"SBKG","flightCategory":"VFR","rawOb":"METAR SBKG 112200Z 11005KT 9999 SCT016 BKN070 25/22 Q1015","temp":25,"dewp":22,"wdir":110,"wspd":5,"visib":"6+","altim":1015,"clouds":[{"cover":"SCT","base":1600},{"cover":"BKN","base":7000}],"obsTime":1778536800},"SBBH":{"icaoId":"SBBH","flightCategory":"VFR","rawOb":"METAR SBBH 112200Z 36001KT 9999 FEW045 SCT100 23/18 Q1018","temp":23,"dewp":18,"wdir":360,"wspd":1,"visib":"6+","altim":1018,"clouds":[{"cover":"FEW","base":4500},{"cover":"SCT","base":10000}],"obsTime":1778536800},"SBOI":{"icaoId":"SBOI","flightCategory":"IFR","rawOb":"METAR SBOI 112200Z AUTO VRB02KT 9999 // BKN009/// OVC038/// 25/24 Q1011","temp":25,"dewp":24,"wdir":"VRB","wspd":2,"visib":"6+","altim":1011,"clouds":[{"cover":"BKN","base":900},{"cover":"OVC","base":3800}],"obsTime":1778536800},"SBTF":{"icaoId":"SBTF","flightCategory":"VFR","rawOb":"METAR SBTF 112200Z 20005KT 9999 SCT008 SCT023 OVC100 24/23 Q1012","temp":24,"dewp":23,"wdir":200,"wspd":5,"visib":"6+","altim":1012,"clouds":[{"cover":"SCT","base":800},{"cover":"SCT","base":2300},{"cover":"OVC","base":10000}],"obsTime":1778536800},"SBUY":{"icaoId":"SBUY","flightCategory":"MVFR","rawOb":"METAR SBUY 112200Z 00000KT 9999 BKN018 OVC100 22/20 Q1012","temp":22,"dewp":20,"wdir":0,"wspd":0,"visib":"6+","altim":1012,"clouds":[{"cover":"BKN","base":1800},{"cover":"OVC","base":10000}],"obsTime":1778536800},"SBPB":{"icaoId":"SBPB","flightCategory":"VFR","rawOb":"SPECI SBPB 112145Z 04005KT 9999 SCT020 28/25 Q1011","temp":28,"dewp":25,"wdir":40,"wspd":5,"visib":"6+","altim":1011,"clouds":[{"cover":"SCT","base":2000}],"obsTime":1778535900},"SBNM":{"icaoId":"SBNM","flightCategory":"VFR","rawOb":"METAR SBNM 112200Z AUTO 25003KT CAVOK 12/03 Q1022","temp":12,"dewp":3,"wdir":250,"wspd":3,"visib":"6+","altim":1022,"clouds":[],"obsTime":1778536800},"SBMT":{"icaoId":"SBMT","flightCategory":"VFR","rawOb":"METAR SBMT 112200Z VRB02KT CAVOK 14/08 Q1021","temp":14,"dewp":8,"wdir":"VRB","wspd":2,"visib":"6+","altim":1021,"clouds":[],"obsTime":1778536800},"SBTA":{"icaoId":"SBTA","flightCategory":"VFR","rawOb":"METAR SBTA 112200Z 23003KT CAVOK 14/11 Q1020","temp":14,"dewp":11,"wdir":230,"wspd":3,"visib":"6+","altim":1020,"clouds":[],"obsTime":1778536800},"SBAN":{"icaoId":"SBAN","flightCategory":"VFR","rawOb":"METAR SBAN 112200Z 30006KT CAVOK 19/17 Q1021","temp":19,"dewp":17,"wdir":300,"wspd":6,"visib":"6+","altim":1021,"clouds":[],"obsTime":1778536800},"SBLE":{"icaoId":"SBLE","flightCategory":"VFR","rawOb":"METAR SBLE 112200Z AUTO 02002KT CAVOK 24/21 Q1016","temp":24,"dewp":21,"wdir":20,"wspd":2,"visib":"6+","altim":1016,"clouds":[],"obsTime":1778536800},"SBJV":{"icaoId":"SBJV","flightCategory":"VFR","rawOb":"METAR SBJV 112200Z 03002KT CAVOK 12/11 Q1020","temp":12,"dewp":11,"wdir":30,"wspd":2,"visib":"6+","altim":1020,"clouds":[],"obsTime":1778536800},"SBJR":{"icaoId":"SBJR","flightCategory":"MVFR","rawOb":"METAR SBJR 112200Z 28003KT 9999 BKN025 OVC040 21/15 Q1019","temp":21,"dewp":15,"wdir":280,"wspd":3,"visib":"6+","altim":1019,"clouds":[{"cover":"BKN","base":2500},{"cover":"OVC","base":4000}],"obsTime":1778536800},"SBJP":{"icaoId":"SBJP","flightCategory":"MVFR","rawOb":"METAR SBJP 112200Z 15007KT 9999 BKN030 26/24 Q1013","temp":26,"dewp":24,"wdir":150,"wspd":7,"visib":"6+","altim":1013,"clouds":[{"cover":"BKN","base":3000}],"obsTime":1778536800},"SBLS":{"icaoId":"SBLS","flightCategory":"VFR","rawOb":"METAR SBLS 112200Z 01003KT CAVOK 23/18 Q1018","temp":23,"dewp":18,"wdir":10,"wspd":3,"visib":"6+","altim":1018,"clouds":[],"obsTime":1778536800},"SBAF":{"icaoId":"SBAF","flightCategory":"VFR","rawOb":"METAR SBAF 112200Z 24005KT 9999 FEW025 OVC046 20/16 Q1020","temp":20,"dewp":16,"wdir":240,"wspd":5,"visib":"6+","altim":1020,"clouds":[{"cover":"FEW","base":2500},{"cover":"OVC","base":4600}],"obsTime":1778536800},"SBGW":{"icaoId":"SBGW","flightCategory":"VFR","rawOb":"METAR SBGW 112200Z 26001KT 9999 SCT030 15/11 Q1020","temp":15,"dewp":11,"wdir":260,"wspd":1,"visib":"6+","altim":1020,"clouds":[{"cover":"SCT","base":3000}],"obsTime":1778536800}}}