{"updated":1781978772,"count":87,"data":{"SBPV":{"icaoId":"SBPV","flightCategory":"VFR","rawOb":"METAR SBPV 201700Z 23002KT 9999 SCT030 31/23 Q1013","temp":31,"dewp":23,"wdir":230,"wspd":2,"visib":"6+","altim":1013,"clouds":[{"cover":"SCT","base":3000}],"obsTime":1781974800},"SBVT":{"icaoId":"SBVT","flightCategory":"VFR","rawOb":"METAR SBVT 201700Z 05011KT 9999 FEW045 27/15 Q1015","temp":27,"dewp":15,"wdir":50,"wspd":11,"visib":"6+","altim":1015,"clouds":[{"cover":"FEW","base":4500}],"obsTime":1781974800},"SBBE":{"icaoId":"SBBE","flightCategory":"VFR","rawOb":"METAR SBBE 201700Z 32005KT 9999 BKN040 BKN070 30/25 Q1012","temp":30,"dewp":25,"wdir":320,"wspd":5,"visib":"6+","altim":1012,"clouds":[{"cover":"BKN","base":4000},{"cover":"BKN","base":7000}],"obsTime":1781974800},"SBTE":{"icaoId":"SBTE","flightCategory":"VFR","rawOb":"METAR SBTE 201700Z 13007KT 9999 SCT030 33/19 Q1012","temp":33,"dewp":19,"wdir":130,"wspd":7,"visib":"6+","altim":1012,"clouds":[{"cover":"SCT","base":3000}],"obsTime":1781974800},"SBBR":{"icaoId":"SBBR","flightCategory":"VFR","rawOb":"METAR SBBR 201700Z 04005KT 350V070 CAVOK 26/14 Q1020","temp":26,"dewp":14,"wdir":40,"wspd":5,"visib":"6+","altim":1020,"clouds":[],"obsTime":1781974800},"SBSV":{"icaoId":"SBSV","flightCategory":"VFR","rawOb":"METAR SBSV 201700Z 17011KT 140V210 9999 FEW023 BKN090 27/14 Q1016","temp":27,"dewp":14,"wdir":170,"wspd":11,"visib":"6+","altim":1016,"clouds":[{"cover":"FEW","base":2300},{"cover":"BKN","base":9000}],"obsTime":1781974800},"SBBV":{"icaoId":"SBBV","flightCategory":"MVFR","rawOb":"METAR SBBV 201700Z 05005KT 9999 BKN025 FEW035TCU 32/22 Q1013","temp":32,"dewp":22,"wdir":50,"wspd":5,"visib":"6+","altim":1013,"clouds":[{"cover":"BKN","base":2500},{"cover":"FEW","base":3500}],"obsTime":1781974800},"SBSP":{"icaoId":"SBSP","flightCategory":"VFR","rawOb":"METAR SBSP 201700Z 33008KT CAVOK 23/14 Q1016","temp":23,"dewp":14,"wdir":330,"wspd":8,"visib":"6+","altim":1016,"clouds":[],"obsTime":1781974800},"SBCB":{"icaoId":"SBCB","flightCategory":"VFR","rawOb":"METAR SBCB 201700Z /////KT CAVOK 27/16 Q1013","temp":27,"dewp":16,"wdir":null,"wspd":null,"visib":"6+","altim":1013,"clouds":[],"obsTime":1781974800},"SBSN":{"icaoId":"SBSN","flightCategory":"VFR","rawOb":"METAR SBSN 201700Z 02005KT 280V070 9999 FEW026TCU 31/24 Q1013","temp":31,"dewp":24,"wdir":20,"wspd":5,"visib":"6+","altim":1013,"clouds":[{"cover":"FEW","base":2600}],"obsTime":1781974800},"SBCF":{"icaoId":"SBCF","flightCategory":"VFR","rawOb":"METAR SBCF 201700Z VRB03KT CAVOK 23/11 Q1019","temp":23,"dewp":11,"wdir":"VRB","wspd":3,"visib":"6+","altim":1019,"clouds":[],"obsTime":1781974800},"SBCG":{"icaoId":"SBCG","flightCategory":"MVFR","rawOb":"METAR SBCG 201700Z 31007KT 280V340 9999 SCT015 BKN020 19/14 Q1017","temp":19,"dewp":14,"wdir":310,"wspd":7,"visib":"6+","altim":1017,"clouds":[{"cover":"SCT","base":1500},{"cover":"BKN","base":2000}],"obsTime":1781974800},"SBSL":{"icaoId":"SBSL","flightCategory":"MVFR","rawOb":"METAR SBSL 201700Z 01007KT 9999 TS VCSH BKN020 FEW025CB 26/25 Q1013","temp":26,"dewp":25,"wdir":10,"wspd":7,"visib":"6+","altim":1013,"clouds":[{"cover":"BKN","base":2000},{"cover":"FEW","base":2500}],"obsTime":1781974800},"SBCP":{"icaoId":"SBCP","flightCategory":"VFR","rawOb":"METAR SBCP 201700Z 34010KT CAVOK 28/12 Q1014","temp":28,"dewp":12,"wdir":340,"wspd":10,"visib":"6+","altim":1014,"clouds":[],"obsTime":1781974800},"SBSG":{"icaoId":"SBSG","flightCategory":"MVFR","rawOb":"METAR SBSG 201700Z 17005KT 140V210 9999 VCSH BKN030 FEW033TCU 28/23 Q1013","temp":28,"dewp":23,"wdir":170,"wspd":5,"visib":"6+","altim":1013,"clouds":[{"cover":"BKN","base":3000},{"cover":"FEW","base":3300}],"obsTime":1781974800},"SBRF":{"icaoId":"SBRF","flightCategory":"VFR","rawOb":"METAR SBRF 201700Z 16015KT 9999 SCT020 28/22 Q1013","temp":28,"dewp":22,"wdir":160,"wspd":15,"visib":"6+","altim":1013,"clouds":[{"cover":"SCT","base":2000}],"obsTime":1781974800},"SBCR":{"icaoId":"SBCR","flightCategory":"VFR","rawOb":"METAR SBCR 201700Z 34005KT 300V020 9999 FEW025 23/13 Q1016","temp":23,"dewp":13,"wdir":340,"wspd":5,"visib":"6+","altim":1016,"clouds":[{"cover":"FEW","base":2500}],"obsTime":1781974800},"SBCT":{"icaoId":"SBCT","flightCategory":"LIFR","rawOb":"SPECI SBCT 201651Z 08009KT 7000 -TSRA BKN003 BKN010 BKN030 FEW040CB 13/13 Q1013","temp":13,"dewp":13,"wdir":80,"wspd":9,"visib":4.35,"altim":1013,"clouds":[{"cover":"BKN","base":300},{"cover":"BKN","base":1000},{"cover":"BKN","base":3000},{"cover":"FEW","base":4000}],"obsTime":1781974260},"SBRB":{"icaoId":"SBRB","flightCategory":"MVFR","rawOb":"METAR SBRB 201700Z 16007KT 9999 FEW008 BKN015 27/23 Q1016","temp":27,"dewp":23,"wdir":160,"wspd":7,"visib":"6+","altim":1016,"clouds":[{"cover":"FEW","base":800},{"cover":"BKN","base":1500}],"obsTime":1781974800},"SBPJ":{"icaoId":"SBPJ","flightCategory":"VFR","rawOb":"METAR SBPJ 201700Z 26003KT 200V320 9999 FEW040 BKN080 29/20 Q1015","temp":29,"dewp":20,"wdir":260,"wspd":3,"visib":"6+","altim":1015,"clouds":[{"cover":"FEW","base":4000},{"cover":"BKN","base":8000}],"obsTime":1781974800},"SBCZ":{"icaoId":"SBCZ","flightCategory":"VFR","rawOb":"METAR SBCZ 201700Z 13005KT 9999 SCT025 31/22 Q1015","temp":31,"dewp":22,"wdir":130,"wspd":5,"visib":"6+","altim":1015,"clouds":[{"cover":"SCT","base":2500}],"obsTime":1781974800},"SBPA":{"icaoId":"SBPA","flightCategory":"MVFR","rawOb":"METAR SBPA 201700Z 14005KT 110V180 9999 BKN030 14/08 Q1016","temp":14,"dewp":8,"wdir":140,"wspd":5,"visib":"6+","altim":1016,"clouds":[{"cover":"BKN","base":3000}],"obsTime":1781974800},"SBEG":{"icaoId":"SBEG","flightCategory":"VFR","rawOb":"METAR SBEG 201700Z 06006KT 360V110 9999 SCT030 32/23 Q1013","temp":32,"dewp":23,"wdir":60,"wspd":6,"visib":"6+","altim":1013,"clouds":[{"cover":"SCT","base":3000}],"obsTime":1781974800},"SBFI":{"icaoId":"SBFI","flightCategory":"LIFR","rawOb":"METAR SBFI 201700Z 22003KT 9999 BKN004 OVC010 13/12 Q1016","temp":13,"dewp":12,"wdir":220,"wspd":3,"visib":"6+","altim":1016,"clouds":[{"cover":"BKN","base":400},{"cover":"OVC","base":1000}],"obsTime":1781974800},"SBNT":{"icaoId":"SBNT","flightCategory":"VFR","rawOb":"METAR SBNT 201700Z 14013KT 9999 SCT025 FEW030TCU 30/21 Q1012","temp":30,"dewp":21,"wdir":140,"wspd":13,"visib":"6+","altim":1012,"clouds":[{"cover":"SCT","base":2500},{"cover":"FEW","base":3000}],"obsTime":1781974800},"SBGO":{"icaoId":"SBGO","flightCategory":"VFR","rawOb":"METAR SBGO 201700Z 30004KT 220V360 9999 FEW045 28/17 Q1017","temp":28,"dewp":17,"wdir":300,"wspd":4,"visib":"6+","altim":1017,"clouds":[{"cover":"FEW","base":4500}],"obsTime":1781974800},"SBGR":{"icaoId":"SBGR","flightCategory":"VFR","rawOb":"METAR SBGR 201700Z 33006KT CAVOK 24/14 Q1015","temp":24,"dewp":14,"wdir":330,"wspd":6,"visib":"6+","altim":1015,"clouds":[],"obsTime":1781974800},"SBMQ":{"icaoId":"SBMQ","flightCategory":"VFR","rawOb":"METAR SBMQ 201700Z 06007KT 9999 SCT025 31/23 Q1013","temp":31,"dewp":23,"wdir":60,"wspd":7,"visib":"6+","altim":1013,"clouds":[{"cover":"SCT","base":2500}],"obsTime":1781974800},"SBMO":{"icaoId":"SBMO","flightCategory":"VFR","rawOb":"METAR SBMO 201700Z 17013KT 9999 SCT026 27/23 Q1014","temp":27,"dewp":23,"wdir":170,"wspd":13,"visib":"6+","altim":1014,"clouds":[{"cover":"SCT","base":2600}],"obsTime":1781974800},"SBFL":{"icaoId":"SBFL","flightCategory":"IFR","rawOb":"SPECI SBFL 201630Z 18012KT 4000 RA BR BKN008 BKN030 OVC055 14/13 Q1014","temp":14,"dewp":13,"wdir":180,"wspd":12,"visib":2.49,"altim":1014,"clouds":[{"cover":"BKN","base":800},{"cover":"BKN","base":3000},{"cover":"OVC","base":5500}],"obsTime":1781973000},"SBMA":{"icaoId":"SBMA","flightCategory":"VFR","rawOb":"METAR SBMA 201700Z 04005KT 9999 SCT025 FEW030TCU 33/22 Q1013","temp":33,"dewp":22,"wdir":40,"wspd":5,"visib":"6+","altim":1013,"clouds":[{"cover":"SCT","base":2500},{"cover":"FEW","base":3000}],"obsTime":1781974800},"SBFZ":{"icaoId":"SBFZ","flightCategory":"MVFR","rawOb":"METAR SBFZ 201700Z 17010KT 9999 BKN030 BKN060 29/21 Q1012","temp":29,"dewp":21,"wdir":170,"wspd":10,"visib":"6+","altim":1012,"clouds":[{"cover":"BKN","base":3000},{"cover":"BKN","base":6000}],"obsTime":1781974800},"SBGL":{"icaoId":"SBGL","flightCategory":"VFR","rawOb":"METAR SBGL 201700Z 14004KT CAVOK 27/16 Q1012","temp":27,"dewp":16,"wdir":140,"wspd":4,"visib":"6+","altim":1012,"clouds":[],"obsTime":1781974800},"SBLO":{"icaoId":"SBLO","flightCategory":"VFR","rawOb":"METAR SBLO 201700Z 27005KT 9999 SCT015 BKN040 19/14 Q1014","temp":19,"dewp":14,"wdir":270,"wspd":5,"visib":"6+","altim":1014,"clouds":[{"cover":"SCT","base":1500},{"cover":"BKN","base":4000}],"obsTime":1781974800},"SBKP":{"icaoId":"SBKP","flightCategory":"VFR","rawOb":"METAR SBKP 201700Z 02012KT 9999 SCT045 BKN070 23/15 Q1015","temp":23,"dewp":15,"wdir":20,"wspd":12,"visib":"6+","altim":1015,"clouds":[{"cover":"SCT","base":4500},{"cover":"BKN","base":7000}],"obsTime":1781974800},"SBHT":{"icaoId":"SBHT","flightCategory":"MVFR","rawOb":"METAR SBHT 201700Z 15005KT 9999 BKN030 33/23 Q1013","temp":33,"dewp":23,"wdir":150,"wspd":5,"visib":"6+","altim":1013,"clouds":[{"cover":"BKN","base":3000}],"obsTime":1781974800},"SBIL":{"icaoId":"SBIL","flightCategory":"VFR","rawOb":"METAR SBIL 201700Z 16007KT 130V200 9999 FEW025 28/15 Q1016","temp":28,"dewp":15,"wdir":160,"wspd":7,"visib":"6+","altim":1016,"clouds":[{"cover":"FEW","base":2500}],"obsTime":1781974800},"SBJU":{"icaoId":"SBJU","flightCategory":"VFR","rawOb":"METAR SBJU 201700Z 16005KT 9999 SCT022 31/16 Q1015","temp":31,"dewp":16,"wdir":160,"wspd":5,"visib":"6+","altim":1015,"clouds":[{"cover":"SCT","base":2200}],"obsTime":1781974800},"SBME":{"icaoId":"SBME","flightCategory":"VFR","rawOb":"METAR SBME 201700Z 01007KT CAVOK 28/14 Q1013","temp":28,"dewp":14,"wdir":10,"wspd":7,"visib":"6+","altim":1013,"clouds":[],"obsTime":1781974800},"SBMG":{"icaoId":"SBMG","flightCategory":"MVFR","rawOb":"METAR SBMG 201700Z 25007KT 9999 BKN011 16/14 Q1014","temp":16,"dewp":14,"wdir":250,"wspd":7,"visib":"6+","altim":1014,"clouds":[{"cover":"BKN","base":1100}],"obsTime":1781974800},"SBMK":{"icaoId":"SBMK","flightCategory":"VFR","rawOb":"METAR SBMK 201700Z 12002KT CAVOK 25/10 Q1018","temp":25,"dewp":10,"wdir":120,"wspd":2,"visib":"6+","altim":1018,"clouds":[],"obsTime":1781974800},"SBAT":{"icaoId":"SBAT","flightCategory":"MVFR","rawOb":"METAR SBAT 201700Z 13008KT 9999 BKN025 30/23 Q1015","temp":30,"dewp":23,"wdir":130,"wspd":8,"visib":"6+","altim":1015,"clouds":[{"cover":"BKN","base":2500}],"obsTime":1781974800},"SBUL":{"icaoId":"SBUL","flightCategory":"VFR","rawOb":"METAR SBUL 201700Z 04010KT 350V070 CAVOK 24/14 Q1019","temp":24,"dewp":14,"wdir":40,"wspd":10,"visib":"6+","altim":1019,"clouds":[],"obsTime":1781974800},"SBUR":{"icaoId":"SBUR","flightCategory":"VFR","rawOb":"METAR SBUR 201700Z 34010KT CAVOK 26/14 Q1017","temp":26,"dewp":14,"wdir":340,"wspd":10,"visib":"6+","altim":1017,"clouds":[],"obsTime":1781974800},"SBSJ":{"icaoId":"SBSJ","flightCategory":"VFR","rawOb":"METAR SBSJ 201700Z 05004KT CAVOK 25/15 Q1015","temp":25,"dewp":15,"wdir":50,"wspd":4,"visib":"6+","altim":1015,"clouds":[],"obsTime":1781974800},"SBPL":{"icaoId":"SBPL","flightCategory":"VFR","rawOb":"METAR SBPL 201700Z 11008KT 9999 SCT030 30/15 Q1015","temp":30,"dewp":15,"wdir":110,"wspd":8,"visib":"6+","altim":1015,"clouds":[{"cover":"SCT","base":3000}],"obsTime":1781974800},"SBOI":{"icaoId":"SBOI","flightCategory":"VFR","rawOb":"METAR SBOI 201700Z AUTO 36010KT 9999 FEW038 32/25 Q1013","temp":32,"dewp":25,"wdir":360,"wspd":10,"visib":"6+","altim":1013,"clouds":[{"cover":"FEW","base":3800}],"obsTime":1781974800},"SBTF":{"icaoId":"SBTF","flightCategory":"VFR","rawOb":"METAR SBTF 201700Z 04003KT 9999 SCT020 32/25 Q1013","temp":32,"dewp":25,"wdir":40,"wspd":3,"visib":"6+","altim":1013,"clouds":[{"cover":"SCT","base":2000}],"obsTime":1781974800},"SBPP":{"icaoId":"SBPP","flightCategory":"VFR","rawOb":"METAR SBPP 201700Z 27003KT 9999 FEW015 16/09 Q1017","temp":16,"dewp":9,"wdir":270,"wspd":3,"visib":"6+","altim":1017,"clouds":[{"cover":"FEW","base":1500}],"obsTime":1781974800},"SBCJ":{"icaoId":"SBCJ","flightCategory":"MVFR","rawOb":"METAR SBCJ 201700Z 17004KT 9999 BKN025 29/20 Q1017","temp":29,"dewp":20,"wdir":170,"wspd":4,"visib":"6+","altim":1017,"clouds":[{"cover":"BKN","base":2500}],"obsTime":1781974800},"SBAR":{"icaoId":"SBAR","flightCategory":"VFR","rawOb":"METAR SBAR 201700Z 16009KT 130V210 9999 FEW015 SCT020 BKN040 26/22 Q1015","temp":26,"dewp":22,"wdir":160,"wspd":9,"visib":"6+","altim":1015,"clouds":[{"cover":"FEW","base":1500},{"cover":"SCT","base":2000},{"cover":"BKN","base":4000}],"obsTime":1781974800},"SBTT":{"icaoId":"SBTT","flightCategory":"MVFR","rawOb":"METAR SBTT 201700Z 13008KT 9999 FEW025TCU BKN030 30/23 Q1014","temp":30,"dewp":23,"wdir":130,"wspd":8,"visib":"6+","altim":1014,"clouds":[{"cover":"FEW","base":2500},{"cover":"BKN","base":3000}],"obsTime":1781974800},"SBPB":{"icaoId":"SBPB","flightCategory":"VFR","rawOb":"METAR SBPB 201700Z 03008KT 9999 SCT020 32/23 Q1012","temp":32,"dewp":23,"wdir":30,"wspd":8,"visib":"6+","altim":1012,"clouds":[{"cover":"SCT","base":2000}],"obsTime":1781974800},"SBPS":{"icaoId":"SBPS","flightCategory":"VFR","rawOb":"METAR SBPS 201700Z 13005KT 050V170 9999 FEW025 26/18 Q1016","temp":26,"dewp":18,"wdir":130,"wspd":5,"visib":"6+","altim":1016,"clouds":[{"cover":"FEW","base":2500}],"obsTime":1781974800},"SBUY":{"icaoId":"SBUY","flightCategory":"VFR","rawOb":"METAR SBUY 201700Z 29004KT 9999 SCT025 FEW030TCU 30/25 Q1012","temp":30,"dewp":25,"wdir":290,"wspd":4,"visib":"6+","altim":1012,"clouds":[{"cover":"SCT","base":2500},{"cover":"FEW","base":3000}],"obsTime":1781974800},"SBKG":{"icaoId":"SBKG","flightCategory":"MVFR","rawOb":"METAR SBKG 201700Z 11007KT 9999 BKN020 28/20 Q1015","temp":28,"dewp":20,"wdir":110,"wspd":7,"visib":"6+","altim":1015,"clouds":[{"cover":"BKN","base":2000}],"obsTime":1781974800},"SBSC":{"icaoId":"SBSC","flightCategory":"VFR","rawOb":"METAR SBSC 201700Z 35011KT CAVOK 28/16 Q1012","temp":28,"dewp":16,"wdir":350,"wspd":11,"visib":"6+","altim":1012,"clouds":[],"obsTime":1781974800},"SBSM":{"icaoId":"SBSM","flightCategory":"MVFR","rawOb":"METAR SBSM 201700Z 09004KT 9999 BKN030 14/07 Q1016","temp":14,"dewp":7,"wdir":90,"wspd":4,"visib":"6+","altim":1016,"clouds":[{"cover":"BKN","base":3000}],"obsTime":1781974800},"SBSR":{"icaoId":"SBSR","flightCategory":"VFR","rawOb":"METAR SBSR 201700Z 36008KT 9999 SCT035 BKN070 25/16 Q1015","temp":25,"dewp":16,"wdir":360,"wspd":8,"visib":"6+","altim":1015,"clouds":[{"cover":"SCT","base":3500},{"cover":"BKN","base":7000}],"obsTime":1781974800},"SBTU":{"icaoId":"SBTU","flightCategory":"VFR","rawOb":"METAR SBTU 201700Z AUTO 25005KT 220V300 9999 // SCT027/// ///// Q1014","temp":null,"dewp":null,"wdir":250,"wspd":5,"visib":"6+","altim":1014,"clouds":[{"cover":"SCT","base":2700}],"obsTime":1781974800},"SBVH":{"icaoId":"SBVH","flightCategory":"VFR","rawOb":"METAR SBVH 201700Z 09008KT 9999 SCT011 25/20 Q1018","temp":25,"dewp":20,"wdir":90,"wspd":8,"visib":"6+","altim":1018,"clouds":[{"cover":"SCT","base":1100}],"obsTime":1781974800},"SBAX":{"icaoId":"SBAX","flightCategory":"VFR","rawOb":"METAR SBAX 201700Z AUTO 33008KT 300V360 CAVOK 24/13 Q1019","temp":24,"dewp":13,"wdir":330,"wspd":8,"visib":"6+","altim":1019,"clouds":[],"obsTime":1781974800},"SBBH":{"icaoId":"SBBH","flightCategory":"VFR","rawOb":"METAR SBBH 201700Z 26004KT CAVOK 24/11 Q1019","temp":24,"dewp":11,"wdir":260,"wspd":4,"visib":"6+","altim":1019,"clouds":[],"obsTime":1781974800},"SBBQ":{"icaoId":"SBBQ","flightCategory":"VFR","rawOb":"METAR SBBQ 201700Z 26005KT CAVOK 22/12 Q1021","temp":22,"dewp":12,"wdir":260,"wspd":5,"visib":"6+","altim":1021,"clouds":[],"obsTime":1781974800},"SBBU":{"icaoId":"SBBU","flightCategory":"MVFR","rawOb":"METAR SBBU 201700Z 01004KT 9999 BKN020 BKN070 21/18 Q1015","temp":21,"dewp":18,"wdir":10,"wspd":4,"visib":"6+","altim":1015,"clouds":[{"cover":"BKN","base":2000},{"cover":"BKN","base":7000}],"obsTime":1781974800},"SBCA":{"icaoId":"SBCA","flightCategory":"MVFR","rawOb":"METAR SBCA 201700Z 20004KT 170V240 9999 BKN020 14/12 Q1016","temp":14,"dewp":12,"wdir":200,"wspd":4,"visib":"6+","altim":1016,"clouds":[{"cover":"BKN","base":2000}],"obsTime":1781974800},"SBCC":{"icaoId":"SBCC","flightCategory":"VFR","rawOb":"METAR SBCC 201700Z 10010KT 030V140 9999 FEW020 SCT100 28/18 Q1016","temp":28,"dewp":18,"wdir":100,"wspd":10,"visib":"6+","altim":1016,"clouds":[{"cover":"FEW","base":2000},{"cover":"SCT","base":10000}],"obsTime":1781974800},"SBCO":{"icaoId":"SBCO","flightCategory":"MVFR","rawOb":"METAR SBCO 201700Z VRB02KT 9999 BKN029 13/08 Q1017","temp":13,"dewp":8,"wdir":"VRB","wspd":2,"visib":"6+","altim":1017,"clouds":[{"cover":"BKN","base":2900}],"obsTime":1781974800},"SBDN":{"icaoId":"SBDN","flightCategory":"MVFR","rawOb":"METAR SBDN 201700Z 25009KT 9999 BKN012 OVC045 17/13 Q1015","temp":17,"dewp":13,"wdir":250,"wspd":9,"visib":"6+","altim":1015,"clouds":[{"cover":"BKN","base":1200},{"cover":"OVC","base":4500}],"obsTime":1781974800},"SBES":{"icaoId":"SBES","flightCategory":"VFR","rawOb":"METAR SBES 201700Z 06007KT 010V090 CAVOK 27/// Q1013","temp":null,"dewp":null,"wdir":60,"wspd":7,"visib":"6+","altim":1013,"clouds":[],"obsTime":1781974800},"SBGM":{"icaoId":"SBGM","flightCategory":"IFR","rawOb":"METAR SBGM 201700Z 13007KT 9999 BKN007 OVC011 24/21 Q1016","temp":24,"dewp":21,"wdir":130,"wspd":7,"visib":"6+","altim":1016,"clouds":[{"cover":"BKN","base":700},{"cover":"OVC","base":1100}],"obsTime":1781974800},"SBIP":{"icaoId":"SBIP","flightCategory":"VFR","rawOb":"METAR SBIP 201700Z AUTO 05007KT 360V090 CAVOK 26/13 Q1017","temp":26,"dewp":13,"wdir":50,"wspd":7,"visib":"6+","altim":1017,"clouds":[],"obsTime":1781974800},"SBJP":{"icaoId":"SBJP","flightCategory":"VFR","rawOb":"METAR SBJP 201700Z 14013KT 9999 SCT020 BKN100 29/23 Q1013","temp":29,"dewp":23,"wdir":140,"wspd":13,"visib":"6+","altim":1013,"clouds":[{"cover":"SCT","base":2000},{"cover":"BKN","base":10000}],"obsTime":1781974800},"SBAN":{"icaoId":"SBAN","flightCategory":"VFR","rawOb":"METAR SBAN 201700Z 31004KT 9999 SCT045 26/16 Q1020","temp":26,"dewp":16,"wdir":310,"wspd":4,"visib":"6+","altim":1020,"clouds":[{"cover":"SCT","base":4500}],"obsTime":1781974800},"SBLE":{"icaoId":"SBLE","flightCategory":"VFR","rawOb":"METAR SBLE 201700Z AUTO VRB04KT CAVOK 26/15 Q1017","temp":26,"dewp":15,"wdir":"VRB","wspd":4,"visib":"6+","altim":1017,"clouds":[],"obsTime":1781974800},"SBTC":{"icaoId":"SBTC","flightCategory":"VFR","rawOb":"METAR SBTC 201700Z 18006KT 9999 SCT025 28/13 Q1016","temp":28,"dewp":13,"wdir":180,"wspd":6,"visib":"6+","altim":1016,"clouds":[{"cover":"SCT","base":2500}],"obsTime":1781974800},"SBJV":{"icaoId":"SBJV","flightCategory":"IFR","rawOb":"METAR SBJV 201700Z 11005KT 060V140 4000 -RA BR SCT005 BKN010 16/16 Q1013","temp":16,"dewp":16,"wdir":110,"wspd":5,"visib":2.49,"altim":1013,"clouds":[{"cover":"SCT","base":500},{"cover":"BKN","base":1000}],"obsTime":1781974800},"SBNM":{"icaoId":"SBNM","flightCategory":"MVFR","rawOb":"METAR SBNM 201700Z 14004KT 9999 SCT012 OVC025 11/08 Q1016","temp":11,"dewp":8,"wdir":140,"wspd":4,"visib":"6+","altim":1016,"clouds":[{"cover":"SCT","base":1200},{"cover":"OVC","base":2500}],"obsTime":1781974800},"SBPF":{"icaoId":"SBPF","flightCategory":"IFR","rawOb":"METAR SBPF 201700Z 00000KT 9999 BKN005 12/10 Q1016","temp":12,"dewp":10,"wdir":0,"wspd":0,"visib":"6+","altim":1016,"clouds":[{"cover":"BKN","base":500}],"obsTime":1781974800},"SBAF":{"icaoId":"SBAF","flightCategory":"VFR","rawOb":"METAR SBAF 201700Z 34003KT CAVOK 29/14 Q1012","temp":29,"dewp":14,"wdir":340,"wspd":3,"visib":"6+","altim":1012,"clouds":[],"obsTime":1781974800},"SBIH":{"icaoId":"SBIH","flightCategory":"VFR","rawOb":"METAR SBIH 201700Z 00000KT 9999 SCT018 31/24 Q1012","temp":31,"dewp":24,"wdir":0,"wspd":0,"visib":"6+","altim":1012,"clouds":[{"cover":"SCT","base":1800}],"obsTime":1781974800},"SBJR":{"icaoId":"SBJR","flightCategory":"VFR","rawOb":"METAR SBJR 201700Z 34004KT CAVOK 31/15 Q1012","temp":31,"dewp":15,"wdir":340,"wspd":4,"visib":"6+","altim":1012,"clouds":[],"obsTime":1781974800},"SBLS":{"icaoId":"SBLS","flightCategory":"VFR","rawOb":"METAR SBLS 201700Z VRB03KT CAVOK 23/12 Q1019","temp":23,"dewp":12,"wdir":"VRB","wspd":3,"visib":"6+","altim":1019,"clouds":[],"obsTime":1781974800},"SBMT":{"icaoId":"SBMT","flightCategory":"VFR","rawOb":"METAR SBMT 201700Z 36004KT CAVOK 25/15 Q1015","temp":25,"dewp":15,"wdir":360,"wspd":4,"visib":"6+","altim":1015,"clouds":[],"obsTime":1781974800},"SBST":{"icaoId":"SBST","flightCategory":"MVFR","rawOb":"METAR SBST 201700Z 23002KT 9000 FEW013 BKN016 20/18 Q1013","temp":20,"dewp":18,"wdir":230,"wspd":2,"visib":5.59,"altim":1013,"clouds":[{"cover":"FEW","base":1300},{"cover":"BKN","base":1600}],"obsTime":1781974800},"SBTA":{"icaoId":"SBTA","flightCategory":"VFR","rawOb":"METAR SBTA 201700Z 04005KT 010V080 9999 FEW040 26/14 Q1014","temp":26,"dewp":14,"wdir":40,"wspd":5,"visib":"6+","altim":1014,"clouds":[{"cover":"FEW","base":4000}],"obsTime":1781974800},"SBGW":{"icaoId":"SBGW","flightCategory":"VFR","rawOb":"METAR SBGW 201700Z 03003KT CAVOK 26/13 Q1015","temp":26,"dewp":13,"wdir":30,"wspd":3,"visib":"6+","altim":1015,"clouds":[],"obsTime":1781974800}}}