{"updated":1784843548,"count":83,"data":{"SBSL":{"icaoId":"SBSL","flightCategory":"VFR","rawOb":"METAR SBSL 232000Z 05011KT 9999 SCT030 29/25 Q1010","temp":29,"dewp":25,"wdir":50,"wspd":11,"visib":"6+","altim":1010,"clouds":[{"cover":"SCT","base":3000}],"obsTime":1784836800},"SBBE":{"icaoId":"SBBE","flightCategory":"VFR","rawOb":"METAR SBBE 232000Z 35012KT 9999 FEW038 SCT048 29/25 Q1010","temp":29,"dewp":25,"wdir":350,"wspd":12,"visib":"6+","altim":1010,"clouds":[{"cover":"FEW","base":3800},{"cover":"SCT","base":4800}],"obsTime":1784836800},"SBSG":{"icaoId":"SBSG","flightCategory":"MVFR","rawOb":"METAR SBSG 232000Z 09005KT 060V120 9999 VCSH SCT009 BKN013 FEW020TCU 25/24 Q1014","temp":25,"dewp":24,"wdir":90,"wspd":5,"visib":"6+","altim":1014,"clouds":[{"cover":"SCT","base":900},{"cover":"BKN","base":1300},{"cover":"FEW","base":2000}],"obsTime":1784836800},"SBSP":{"icaoId":"SBSP","flightCategory":"LIFR","rawOb":"METAR SBSP 232000Z 18014KT 5000 BR BKN002 BKN005 BKN020 16/16 Q1020","temp":16,"dewp":16,"wdir":180,"wspd":14,"visib":3.11,"altim":1020,"clouds":[{"cover":"BKN","base":200},{"cover":"BKN","base":500},{"cover":"BKN","base":2000}],"obsTime":1784836800},"SBKP":{"icaoId":"SBKP","flightCategory":"VFR","rawOb":"METAR SBKP 232000Z 19008KT CAVOK 22/15 Q1017","temp":22,"dewp":15,"wdir":190,"wspd":8,"visib":"6+","altim":1017,"clouds":[],"obsTime":1784836800},"SBNT":{"icaoId":"SBNT","flightCategory":"MVFR","rawOb":"METAR SBNT 232000Z 16006KT 9999 VCSH SCT013 BKN016 BKN100 26/24 Q1013","temp":26,"dewp":24,"wdir":160,"wspd":6,"visib":"6+","altim":1013,"clouds":[{"cover":"SCT","base":1300},{"cover":"BKN","base":1600},{"cover":"BKN","base":10000}],"obsTime":1784836800},"SBMA":{"icaoId":"SBMA","flightCategory":"VFR","rawOb":"METAR SBMA 232000Z 05008KT 9999 FEW025 36/19 Q1009","temp":36,"dewp":19,"wdir":50,"wspd":8,"visib":"6+","altim":1009,"clouds":[{"cover":"FEW","base":2500}],"obsTime":1784836800},"SBGO":{"icaoId":"SBGO","flightCategory":"VFR","rawOb":"METAR SBGO 232000Z 11005KT CAVOK 31/11 Q1015","temp":31,"dewp":11,"wdir":110,"wspd":5,"visib":"6+","altim":1015,"clouds":[],"obsTime":1784836800},"SBPA":{"icaoId":"SBPA","flightCategory":"VFR","rawOb":"METAR SBPA 232000Z 15010KT 9999 SCT018 BKN033 17/14 Q1020","temp":17,"dewp":14,"wdir":150,"wspd":10,"visib":"6+","altim":1020,"clouds":[{"cover":"SCT","base":1800},{"cover":"BKN","base":3300}],"obsTime":1784836800},"SBIL":{"icaoId":"SBIL","flightCategory":"VFR","rawOb":"METAR SBIL 232000Z 11005KT CAVOK 26/22 Q1016","temp":26,"dewp":22,"wdir":110,"wspd":5,"visib":"6+","altim":1016,"clouds":[],"obsTime":1784836800},"SBRB":{"icaoId":"SBRB","flightCategory":"VFR","rawOb":"METAR SBRB 232000Z 06006KT 020V110 9999 SCT030 FEW030TCU 33/22 Q1010","temp":33,"dewp":22,"wdir":60,"wspd":6,"visib":"6+","altim":1010,"clouds":[{"cover":"SCT","base":3000},{"cover":"FEW","base":3000}],"obsTime":1784836800},"SBJU":{"icaoId":"SBJU","flightCategory":"VFR","rawOb":"METAR SBJU 232000Z 06007KT 9999 VCSH SCT020 BKN070 29/19 Q1014","temp":29,"dewp":19,"wdir":60,"wspd":7,"visib":"6+","altim":1014,"clouds":[{"cover":"SCT","base":2000},{"cover":"BKN","base":7000}],"obsTime":1784836800},"SBMG":{"icaoId":"SBMG","flightCategory":"MVFR","rawOb":"METAR SBMG 232000Z 22007KT 8000 -TSRA BKN026 BKN035 FEW040CB OVC100 18/17 Q1016 RETS","temp":18,"dewp":17,"wdir":220,"wspd":7,"visib":4.97,"altim":1016,"clouds":[{"cover":"BKN","base":2600},{"cover":"BKN","base":3500},{"cover":"FEW","base":4000},{"cover":"OVC","base":10000}],"obsTime":1784836800},"SBAT":{"icaoId":"SBAT","flightCategory":"VFR","rawOb":"METAR SBAT 232000Z 15006KT 9999 BKN040 35/16 Q1010","temp":35,"dewp":16,"wdir":150,"wspd":6,"visib":"6+","altim":1010,"clouds":[{"cover":"BKN","base":4000}],"obsTime":1784836800},"SBHT":{"icaoId":"SBHT","flightCategory":"VFR","rawOb":"METAR SBHT 232000Z 17003KT 9999 FEW030 32/23 Q1010","temp":32,"dewp":23,"wdir":170,"wspd":3,"visib":"6+","altim":1010,"clouds":[{"cover":"FEW","base":3000}],"obsTime":1784836800},"SBME":{"icaoId":"SBME","flightCategory":"VFR","rawOb":"METAR SBME 232000Z 18008KT 9999 FEW025 23/20 Q1015","temp":23,"dewp":20,"wdir":180,"wspd":8,"visib":"6+","altim":1015,"clouds":[{"cover":"FEW","base":2500}],"obsTime":1784836800},"SBMK":{"icaoId":"SBMK","flightCategory":"VFR","rawOb":"METAR SBMK 232000Z 17004KT CAVOK 29/09 Q1016","temp":29,"dewp":9,"wdir":170,"wspd":4,"visib":"6+","altim":1016,"clouds":[],"obsTime":1784836800},"SBUL":{"icaoId":"SBUL","flightCategory":"VFR","rawOb":"METAR SBUL 232000Z 29005KT CAVOK 27/10 Q1017","temp":27,"dewp":10,"wdir":290,"wspd":5,"visib":"6+","altim":1017,"clouds":[],"obsTime":1784836800},"SBUR":{"icaoId":"SBUR","flightCategory":"VFR","rawOb":"METAR SBUR 232000Z 27006KT CAVOK 29/12 Q1016","temp":29,"dewp":12,"wdir":270,"wspd":6,"visib":"6+","altim":1016,"clouds":[],"obsTime":1784836800},"SBGL":{"icaoId":"SBGL","flightCategory":"VFR","rawOb":"METAR SBGL 232000Z 20006KT 9999 SCT030 BKN100 24/18 Q1015","temp":24,"dewp":18,"wdir":200,"wspd":6,"visib":"6+","altim":1015,"clouds":[{"cover":"SCT","base":3000},{"cover":"BKN","base":10000}],"obsTime":1784836800},"SBSN":{"icaoId":"SBSN","flightCategory":"VFR","rawOb":"METAR SBSN 232000Z 07008KT 9999 FEW020 31/24 Q1009","temp":31,"dewp":24,"wdir":70,"wspd":8,"visib":"6+","altim":1009,"clouds":[{"cover":"FEW","base":2000}],"obsTime":1784836800},"SBSV":{"icaoId":"SBSV","flightCategory":"VFR","rawOb":"METAR SBSV 232000Z 08009KT 9999 SCT020 26/21 Q1015","temp":26,"dewp":21,"wdir":80,"wspd":9,"visib":"6+","altim":1015,"clouds":[{"cover":"SCT","base":2000}],"obsTime":1784836800},"SBMO":{"icaoId":"SBMO","flightCategory":"MVFR","rawOb":"METAR SBMO 232000Z 14008KT 9999 BKN017 26/22 Q1015","temp":26,"dewp":22,"wdir":140,"wspd":8,"visib":"6+","altim":1015,"clouds":[{"cover":"BKN","base":1700}],"obsTime":1784836800},"SBTE":{"icaoId":"SBTE","flightCategory":"VFR","rawOb":"METAR SBTE 232000Z 00000KT 9999 FEW040 35/19 Q1009","temp":35,"dewp":19,"wdir":0,"wspd":0,"visib":"6+","altim":1009,"clouds":[{"cover":"FEW","base":4000}],"obsTime":1784836800},"SBBR":{"icaoId":"SBBR","flightCategory":"VFR","rawOb":"METAR SBBR 232000Z 18006KT 130V220 CAVOK 29/08 Q1018","temp":29,"dewp":8,"wdir":180,"wspd":6,"visib":"6+","altim":1018,"clouds":[],"obsTime":1784836800},"SBVT":{"icaoId":"SBVT","flightCategory":"VFR","rawOb":"METAR SBVT 232000Z 05013KT CAVOK 25/21 Q1013","temp":25,"dewp":21,"wdir":50,"wspd":13,"visib":"6+","altim":1013,"clouds":[],"obsTime":1784836800},"SBFI":{"icaoId":"SBFI","flightCategory":"VFR","rawOb":"METAR SBFI 232000Z 27003KT 9999 SCT035 SCT100 21/17 Q1015","temp":21,"dewp":17,"wdir":270,"wspd":3,"visib":"6+","altim":1015,"clouds":[{"cover":"SCT","base":3500},{"cover":"SCT","base":10000}],"obsTime":1784836800},"SBRF":{"icaoId":"SBRF","flightCategory":"MVFR","rawOb":"METAR SBRF 232000Z 13011KT 9000 -RA SCT013 BKN019 OVC080 26/23 Q1014","temp":26,"dewp":23,"wdir":130,"wspd":11,"visib":5.59,"altim":1014,"clouds":[{"cover":"SCT","base":1300},{"cover":"BKN","base":1900},{"cover":"OVC","base":8000}],"obsTime":1784836800},"SBPV":{"icaoId":"SBPV","flightCategory":"VFR","rawOb":"METAR SBPV 232000Z 01008KT 9999 SCT045 34/18 Q1009","temp":34,"dewp":18,"wdir":10,"wspd":8,"visib":"6+","altim":1009,"clouds":[{"cover":"SCT","base":4500}],"obsTime":1784836800},"SBFL":{"icaoId":"SBFL","flightCategory":"VFR","rawOb":"METAR SBFL 232000Z 13015KT 9999 FEW040 19/14 Q1017","temp":19,"dewp":14,"wdir":130,"wspd":15,"visib":"6+","altim":1017,"clouds":[{"cover":"FEW","base":4000}],"obsTime":1784836800},"SBBV":{"icaoId":"SBBV","flightCategory":"VFR","rawOb":"METAR SBBV 232000Z 11006KT 9999 BKN045 34/19 Q1009","temp":34,"dewp":19,"wdir":110,"wspd":6,"visib":"6+","altim":1009,"clouds":[{"cover":"BKN","base":4500}],"obsTime":1784836800},"SBMQ":{"icaoId":"SBMQ","flightCategory":"VFR","rawOb":"METAR SBMQ 232000Z 06008KT 9999 SCT030 32/25 Q1010","temp":32,"dewp":25,"wdir":60,"wspd":8,"visib":"6+","altim":1010,"clouds":[{"cover":"SCT","base":3000}],"obsTime":1784836800},"SBPJ":{"icaoId":"SBPJ","flightCategory":"VFR","rawOb":"METAR SBPJ 232000Z 24004KT 9999 SCT045 33/19 Q1011","temp":33,"dewp":19,"wdir":240,"wspd":4,"visib":"6+","altim":1011,"clouds":[{"cover":"SCT","base":4500}],"obsTime":1784836800},"SBCF":{"icaoId":"SBCF","flightCategory":"VFR","rawOb":"METAR SBCF 232000Z 03004KT CAVOK 28/10 Q1017","temp":28,"dewp":10,"wdir":30,"wspd":4,"visib":"6+","altim":1017,"clouds":[],"obsTime":1784836800},"SBCB":{"icaoId":"SBCB","flightCategory":"VFR","rawOb":"METAR SBCB 232000Z 27005KT 9999 FEW030 BKN100 23/20 Q1015","temp":23,"dewp":20,"wdir":270,"wspd":5,"visib":"6+","altim":1015,"clouds":[{"cover":"FEW","base":3000},{"cover":"BKN","base":10000}],"obsTime":1784836800},"SBLO":{"icaoId":"SBLO","flightCategory":"VFR","rawOb":"METAR SBLO 232000Z 06005KT 9999 FEW040 21/17 Q1016","temp":21,"dewp":17,"wdir":60,"wspd":5,"visib":"6+","altim":1016,"clouds":[{"cover":"FEW","base":4000}],"obsTime":1784836800},"SBCG":{"icaoId":"SBCG","flightCategory":"VFR","rawOb":"METAR SBCG 232000Z 27008KT 9999 SCT035 SCT060 BKN100 26/20 Q1014","temp":26,"dewp":20,"wdir":270,"wspd":8,"visib":"6+","altim":1014,"clouds":[{"cover":"SCT","base":3500},{"cover":"SCT","base":6000},{"cover":"BKN","base":10000}],"obsTime":1784836800},"SBGR":{"icaoId":"SBGR","flightCategory":"MVFR","rawOb":"METAR SBGR 232000Z 18009KT 9999 BKN030 20/15 Q1019","temp":20,"dewp":15,"wdir":180,"wspd":9,"visib":"6+","altim":1019,"clouds":[{"cover":"BKN","base":3000}],"obsTime":1784836800},"SBCR":{"icaoId":"SBCR","flightCategory":"VFR","rawOb":"METAR SBCR 232000Z 21010KT 190V250 9999 FEW028 22/16 Q1013","temp":22,"dewp":16,"wdir":210,"wspd":10,"visib":"6+","altim":1013,"clouds":[{"cover":"FEW","base":2800}],"obsTime":1784836800},"SBCP":{"icaoId":"SBCP","flightCategory":"VFR","rawOb":"METAR SBCP 232000Z 10007KT CAVOK 26/19 Q1013","temp":26,"dewp":19,"wdir":100,"wspd":7,"visib":"6+","altim":1013,"clouds":[],"obsTime":1784836800},"SBCT":{"icaoId":"SBCT","flightCategory":"IFR","rawOb":"METAR SBCT 232000Z 08011KT 9999 BKN006 14/13 Q1019","temp":14,"dewp":13,"wdir":80,"wspd":11,"visib":"6+","altim":1019,"clouds":[{"cover":"BKN","base":600}],"obsTime":1784836800},"SBEG":{"icaoId":"SBEG","flightCategory":"VFR","rawOb":"METAR SBEG 232000Z 12009KT 9999 SCT045 32/23 Q1009","temp":32,"dewp":23,"wdir":120,"wspd":9,"visib":"6+","altim":1009,"clouds":[{"cover":"SCT","base":4500}],"obsTime":1784836800},"SBFZ":{"icaoId":"SBFZ","flightCategory":"MVFR","rawOb":"METAR SBFZ 232000Z 09011KT 9999 BKN020 28/24 Q1012","temp":28,"dewp":24,"wdir":90,"wspd":11,"visib":"6+","altim":1012,"clouds":[{"cover":"BKN","base":2000}],"obsTime":1784836800},"SBCZ":{"icaoId":"SBCZ","flightCategory":"MVFR","rawOb":"METAR SBCZ 232000Z 03006KT 320V050 9999 VCSH SCT018 BKN030 FEW030TCU 26/25 Q1010","temp":26,"dewp":25,"wdir":30,"wspd":6,"visib":"6+","altim":1010,"clouds":[{"cover":"SCT","base":1800},{"cover":"BKN","base":3000},{"cover":"FEW","base":3000}],"obsTime":1784836800},"SBPB":{"icaoId":"SBPB","flightCategory":"VFR","rawOb":"METAR SBPB 232000Z 05017KT 9999 SCT020 29/25 Q1011","temp":29,"dewp":25,"wdir":50,"wspd":17,"visib":"6+","altim":1011,"clouds":[{"cover":"SCT","base":2000}],"obsTime":1784836800},"SBCJ":{"icaoId":"SBCJ","flightCategory":"VFR","rawOb":"METAR SBCJ 232000Z 07003KT 9999 SCT025 31/18 Q1013","temp":31,"dewp":18,"wdir":70,"wspd":3,"visib":"6+","altim":1013,"clouds":[{"cover":"SCT","base":2500}],"obsTime":1784836800},"SBAR":{"icaoId":"SBAR","flightCategory":"VFR","rawOb":"METAR SBAR 232000Z 11009KT 9999 FEW023 SCT080 26/22 Q1015","temp":26,"dewp":22,"wdir":110,"wspd":9,"visib":"6+","altim":1015,"clouds":[{"cover":"FEW","base":2300},{"cover":"SCT","base":8000}],"obsTime":1784836800},"SBSJ":{"icaoId":"SBSJ","flightCategory":"VFR","rawOb":"METAR SBSJ 232000Z 18008KT 120V230 CAVOK 21/14 Q1018","temp":21,"dewp":14,"wdir":180,"wspd":8,"visib":"6+","altim":1018,"clouds":[],"obsTime":1784836800},"SBPS":{"icaoId":"SBPS","flightCategory":"VFR","rawOb":"METAR SBPS 232000Z 04009KT 9999 SCT025 BKN050 24/21 Q1016","temp":24,"dewp":21,"wdir":40,"wspd":9,"visib":"6+","altim":1016,"clouds":[{"cover":"SCT","base":2500},{"cover":"BKN","base":5000}],"obsTime":1784836800},"SBUY":{"icaoId":"SBUY","flightCategory":"VFR","rawOb":"METAR SBUY 232000Z 13002KT 9999 SCT030 FEW035TCU 33/22 Q1008","temp":33,"dewp":22,"wdir":130,"wspd":2,"visib":"6+","altim":1008,"clouds":[{"cover":"SCT","base":3000},{"cover":"FEW","base":3500}],"obsTime":1784836800},"SBTT":{"icaoId":"SBTT","flightCategory":"VFR","rawOb":"METAR SBTT 232000Z 11006KT 070V160 9999 FEW025 32/23 Q1009","temp":32,"dewp":23,"wdir":110,"wspd":6,"visib":"6+","altim":1009,"clouds":[{"cover":"FEW","base":2500}],"obsTime":1784836800},"SBOI":{"icaoId":"SBOI","flightCategory":"VFR","rawOb":"METAR SBOI 232000Z AUTO 10005KT 060V170 CAVOK 32/22 Q1011","temp":32,"dewp":22,"wdir":100,"wspd":5,"visib":"6+","altim":1011,"clouds":[],"obsTime":1784836800},"SBTF":{"icaoId":"SBTF","flightCategory":"VFR","rawOb":"METAR SBTF 232000Z 08006KT 9999 SCT020 34/24 Q1009","temp":34,"dewp":24,"wdir":80,"wspd":6,"visib":"6+","altim":1009,"clouds":[{"cover":"SCT","base":2000}],"obsTime":1784836800},"SBTU":{"icaoId":"SBTU","flightCategory":"VFR","rawOb":"METAR SBTU 232000Z AUTO 25008KT 9999 // FEW048/// 32/21 Q1011","temp":32,"dewp":21,"wdir":250,"wspd":8,"visib":"6+","altim":1011,"clouds":[{"cover":"FEW","base":4800}],"obsTime":1784836800},"SBPL":{"icaoId":"SBPL","flightCategory":"VFR","rawOb":"METAR SBPL 232000Z 11007KT 9999 FEW030 31/15 Q1014","temp":31,"dewp":15,"wdir":110,"wspd":7,"visib":"6+","altim":1014,"clouds":[{"cover":"FEW","base":3000}],"obsTime":1784836800},"SBES":{"icaoId":"SBES","flightCategory":"VFR","rawOb":"METAR SBES 232000Z 22007KT 200V260 9999 FEW025 BKN100 22/// Q1015","temp":null,"dewp":null,"wdir":220,"wspd":7,"visib":"6+","altim":1015,"clouds":[{"cover":"FEW","base":2500},{"cover":"BKN","base":10000}],"obsTime":1784836800},"SBSR":{"icaoId":"SBSR","flightCategory":"VFR","rawOb":"METAR SBSR 232000Z 24005KT 9999 FEW035 28/15 Q1014","temp":28,"dewp":15,"wdir":240,"wspd":5,"visib":"6+","altim":1014,"clouds":[{"cover":"FEW","base":3500}],"obsTime":1784836800},"SBSC":{"icaoId":"SBSC","flightCategory":"VFR","rawOb":"METAR SBSC 232000Z 19008KT 9999 FEW030 BKN100 22/19 Q1016","temp":22,"dewp":19,"wdir":190,"wspd":8,"visib":"6+","altim":1016,"clouds":[{"cover":"FEW","base":3000},{"cover":"BKN","base":10000}],"obsTime":1784836800},"SBIP":{"icaoId":"SBIP","flightCategory":"VFR","rawOb":"METAR SBIP 232000Z AUTO 34003KT CAVOK 27/17 Q1014","temp":27,"dewp":17,"wdir":340,"wspd":3,"visib":"6+","altim":1014,"clouds":[],"obsTime":1784836800},"SBDN":{"icaoId":"SBDN","flightCategory":"VFR","rawOb":"METAR SBDN 232000Z 12007KT 9999 FEW060TCU 23/15 Q1014","temp":23,"dewp":15,"wdir":120,"wspd":7,"visib":"6+","altim":1014,"clouds":[{"cover":"FEW","base":6000}],"obsTime":1784836800},"SBBU":{"icaoId":"SBBU","flightCategory":"VFR","rawOb":"METAR SBBU 232000Z 16003KT 9999 FEW035 25/18 Q1016","temp":25,"dewp":18,"wdir":160,"wspd":3,"visib":"6+","altim":1016,"clouds":[{"cover":"FEW","base":3500}],"obsTime":1784836800},"SBBH":{"icaoId":"SBBH","flightCategory":"VFR","rawOb":"METAR SBBH 232000Z 27003KT CAVOK 28/10 Q1017","temp":28,"dewp":10,"wdir":270,"wspd":3,"visib":"6+","altim":1017,"clouds":[],"obsTime":1784836800},"SBVH":{"icaoId":"SBVH","flightCategory":"VFR","rawOb":"METAR SBVH 232000Z 08008KT 9999 FEW040 30/17 Q1013","temp":30,"dewp":17,"wdir":80,"wspd":8,"visib":"6+","altim":1013,"clouds":[{"cover":"FEW","base":4000}],"obsTime":1784836800},"SBSM":{"icaoId":"SBSM","flightCategory":"VFR","rawOb":"METAR SBSM 232000Z 09007KT 9999 SCT025 BKN035 16/13 Q1019","temp":16,"dewp":13,"wdir":90,"wspd":7,"visib":"6+","altim":1019,"clouds":[{"cover":"SCT","base":2500},{"cover":"BKN","base":3500}],"obsTime":1784836800},"SBCO":{"icaoId":"SBCO","flightCategory":"VFR","rawOb":"METAR SBCO 232000Z 14008KT 9999 FEW015 SCT020 BKN050 17/14 Q1020","temp":17,"dewp":14,"wdir":140,"wspd":8,"visib":"6+","altim":1020,"clouds":[{"cover":"FEW","base":1500},{"cover":"SCT","base":2000},{"cover":"BKN","base":5000}],"obsTime":1784836800},"SBCA":{"icaoId":"SBCA","flightCategory":"MVFR","rawOb":"METAR SBCA 232000Z 02012KT 9999 FEW005 SCT012 BKN020 18/14 Q1018","temp":18,"dewp":14,"wdir":20,"wspd":12,"visib":"6+","altim":1018,"clouds":[{"cover":"FEW","base":500},{"cover":"SCT","base":1200},{"cover":"BKN","base":2000}],"obsTime":1784836800},"SBKG":{"icaoId":"SBKG","flightCategory":"MVFR","rawOb":"METAR SBKG 232000Z 10008KT 8000 SCT009 BKN070 21/20 Q1017","temp":21,"dewp":20,"wdir":100,"wspd":8,"visib":4.97,"altim":1017,"clouds":[{"cover":"SCT","base":900},{"cover":"BKN","base":7000}],"obsTime":1784836800},"SBPP":{"icaoId":"SBPP","flightCategory":"MVFR","rawOb":"METAR SBPP 232000Z 04008KT 8000 OVC010 17/17 Q1015","temp":17,"dewp":17,"wdir":40,"wspd":8,"visib":4.97,"altim":1015,"clouds":[{"cover":"OVC","base":1000}],"obsTime":1784836800},"SBCC":{"icaoId":"SBCC","flightCategory":"VFR","rawOb":"METAR SBCC 232000Z 05008KT 9999 FEW020 32/15 Q1017","temp":32,"dewp":15,"wdir":50,"wspd":8,"visib":"6+","altim":1017,"clouds":[{"cover":"FEW","base":2000}],"obsTime":1784836800},"SBJP":{"icaoId":"SBJP","flightCategory":"MVFR","rawOb":"METAR SBJP 232000Z 13006KT 9999 BKN014 BKN070 25/24 Q1014 RERA","temp":25,"dewp":24,"wdir":130,"wspd":6,"visib":"6+","altim":1014,"clouds":[{"cover":"BKN","base":1400},{"cover":"BKN","base":7000}],"obsTime":1784836800},"SBJV":{"icaoId":"SBJV","flightCategory":"MVFR","rawOb":"METAR SBJV 232000Z 11006KT 9999 BKN030 BKN080 19/15 Q1018","temp":19,"dewp":15,"wdir":110,"wspd":6,"visib":"6+","altim":1018,"clouds":[{"cover":"BKN","base":3000},{"cover":"BKN","base":8000}],"obsTime":1784836800},"SBNM":{"icaoId":"SBNM","flightCategory":"VFR","rawOb":"METAR SBNM 232000Z AUTO 11007KT 9999 FEW022 BKN035 17/13 Q1018","temp":17,"dewp":13,"wdir":110,"wspd":7,"visib":"6+","altim":1018,"clouds":[{"cover":"FEW","base":2200},{"cover":"BKN","base":3500}],"obsTime":1784836800},"SBPF":{"icaoId":"SBPF","flightCategory":"VFR","rawOb":"METAR SBPF 232000Z 13012KT 9999 FEW020 14/10 Q1019","temp":14,"dewp":10,"wdir":130,"wspd":12,"visib":"6+","altim":1019,"clouds":[{"cover":"FEW","base":2000}],"obsTime":1784836800},"SBIH":{"icaoId":"SBIH","flightCategory":"VFR","rawOb":"METAR SBIH 232000Z 05007KT 9999 FEW020 34/23 Q1008","temp":34,"dewp":23,"wdir":50,"wspd":7,"visib":"6+","altim":1008,"clouds":[{"cover":"FEW","base":2000}],"obsTime":1784836800},"SBAN":{"icaoId":"SBAN","flightCategory":"VFR","rawOb":"METAR SBAN 232000Z 12002KT CAVOK 28/08 Q1018","temp":28,"dewp":8,"wdir":120,"wspd":2,"visib":"6+","altim":1018,"clouds":[],"obsTime":1784836800},"SBAF":{"icaoId":"SBAF","flightCategory":"VFR","rawOb":"METAR SBAF 232000Z 17011KT 9999 FEW020 SCT031 BKN100 23/19 Q1015","temp":23,"dewp":19,"wdir":170,"wspd":11,"visib":"6+","altim":1015,"clouds":[{"cover":"FEW","base":2000},{"cover":"SCT","base":3100},{"cover":"BKN","base":10000}],"obsTime":1784836800},"SBGW":{"icaoId":"SBGW","flightCategory":"VFR","rawOb":"METAR SBGW 232000Z 25008KT 9999 SCT030 25/15 Q1016","temp":25,"dewp":15,"wdir":250,"wspd":8,"visib":"6+","altim":1016,"clouds":[{"cover":"SCT","base":3000}],"obsTime":1784836800},"SBJR":{"icaoId":"SBJR","flightCategory":"VFR","rawOb":"METAR SBJR 232000Z 22004KT 9999 SCT025 BKN100 23/19 Q1015","temp":23,"dewp":19,"wdir":220,"wspd":4,"visib":"6+","altim":1015,"clouds":[{"cover":"SCT","base":2500},{"cover":"BKN","base":10000}],"obsTime":1784836800},"SBLS":{"icaoId":"SBLS","flightCategory":"VFR","rawOb":"METAR SBLS 232000Z 01004KT CAVOK 28/10 Q1017","temp":28,"dewp":10,"wdir":10,"wspd":4,"visib":"6+","altim":1017,"clouds":[],"obsTime":1784836800},"SBMT":{"icaoId":"SBMT","flightCategory":"VFR","rawOb":"METAR SBMT 232000Z 16009KT 9999 BKN033 19/13 Q1019","temp":19,"dewp":13,"wdir":160,"wspd":9,"visib":"6+","altim":1019,"clouds":[{"cover":"BKN","base":3300}],"obsTime":1784836800},"SBST":{"icaoId":"SBST","flightCategory":"VFR","rawOb":"METAR SBST 232000Z 29005KT 9999 FEW017 OVC032 20/16 Q1018","temp":20,"dewp":16,"wdir":290,"wspd":5,"visib":"6+","altim":1018,"clouds":[{"cover":"FEW","base":1700},{"cover":"OVC","base":3200}],"obsTime":1784836800},"SBTA":{"icaoId":"SBTA","flightCategory":"VFR","rawOb":"METAR SBTA 232000Z 18008KT 150V220 9999 SCT040 23/16 Q1016","temp":23,"dewp":16,"wdir":180,"wspd":8,"visib":"6+","altim":1016,"clouds":[{"cover":"SCT","base":4000}],"obsTime":1784836800},"SBLE":{"icaoId":"SBLE","flightCategory":"VFR","rawOb":"METAR SBLE 232000Z AUTO 26003KT CAVOK 25/17 Q1017","temp":25,"dewp":17,"wdir":260,"wspd":3,"visib":"6+","altim":1017,"clouds":[],"obsTime":1784836800}}}