{"updated":1781765307,"count":10,"data":{"SBPL":{"icaoId":"SBPL","flightCategory":"VFR","rawOb":"METAR SBPL 180500Z 15003KT CAVOK 25/17 Q1017","temp":25,"dewp":17,"wdir":150,"wspd":3,"visib":"6+","altim":1017,"clouds":[],"obsTime":1781758800},"SBPS":{"icaoId":"SBPS","flightCategory":"VFR","rawOb":"METAR SBPS 180500Z VRB02KT 9999 SCT025 SCT040 22/21 Q1019","temp":22,"dewp":21,"wdir":"VRB","wspd":2,"visib":"6+","altim":1019,"clouds":[{"cover":"SCT","base":2500},{"cover":"SCT","base":4000}],"obsTime":1781758800},"SBIP":{"icaoId":"SBIP","flightCategory":"MVFR","rawOb":"METAR SBIP 180500Z AUTO 18003KT 9999 BKN029 18/18 Q1021","temp":18,"dewp":18,"wdir":180,"wspd":3,"visib":"6+","altim":1021,"clouds":[{"cover":"BKN","base":2900}],"obsTime":1781758800},"SBDN":{"icaoId":"SBDN","flightCategory":"VFR","rawOb":"METAR SBDN 180500Z 10006KT CAVOK 14/09 Q1022","temp":14,"dewp":9,"wdir":100,"wspd":6,"visib":"6+","altim":1022,"clouds":[],"obsTime":1781758800},"SBSC":{"icaoId":"SBSC","flightCategory":"MVFR","rawOb":"METAR SBSC 180500Z 03002KT 9999 BKN030 17/16 Q1023","temp":17,"dewp":16,"wdir":30,"wspd":2,"visib":"6+","altim":1023,"clouds":[{"cover":"BKN","base":3000}],"obsTime":1781758800},"SBKG":{"icaoId":"SBKG","flightCategory":"IFR","rawOb":"METAR SBKG 180500Z 10004KT 4000 BR FEW005 BKN010 21/21 Q1018","temp":21,"dewp":21,"wdir":100,"wspd":4,"visib":2.49,"altim":1018,"clouds":[{"cover":"FEW","base":500},{"cover":"BKN","base":1000}],"obsTime":1781758800},"SBSR":{"icaoId":"SBSR","flightCategory":"VFR","rawOb":"METAR SBSR 180500Z 14004KT CAVOK 15/09 Q1022","temp":15,"dewp":9,"wdir":140,"wspd":4,"visib":"6+","altim":1022,"clouds":[],"obsTime":1781758800},"SBTU":{"icaoId":"SBTU","flightCategory":"VFR","rawOb":"METAR SBTU 180500Z AUTO 23003KT 9999 // BKN100/// ///// Q1016","temp":null,"dewp":null,"wdir":230,"wspd":3,"visib":"6+","altim":1016,"clouds":[{"cover":"BKN","base":10000}],"obsTime":1781758800},"SBOI":{"icaoId":"SBOI","flightCategory":"VFR","rawOb":"METAR SBOI 180600Z AUTO VRB01KT 9999 // FEW042/// 24/24 Q1015","temp":24,"dewp":24,"wdir":"VRB","wspd":1,"visib":"6+","altim":1015,"clouds":[{"cover":"FEW","base":4200}],"obsTime":1781762400},"SBAR":{"icaoId":"SBAR","flightCategory":"VFR","rawOb":"METAR SBAR 180500Z 14005KT 9999 FEW017 SCT055 26/23 Q1016","temp":26,"dewp":23,"wdir":140,"wspd":5,"visib":"6+","altim":1016,"clouds":[{"cover":"FEW","base":1700},{"cover":"SCT","base":5500}],"obsTime":1781758800}}}