{"updated":1782776979,"count":74,"data":{"SBUR":{"icaoId":"SBUR","flightCategory":"VFR","rawOb":"METAR SBUR 292200Z 03003KT CAVOK 23/14 Q1020","temp":23,"dewp":14,"wdir":30,"wspd":3,"visib":"6+","altim":1020,"clouds":[],"obsTime":1782770400},"SBRB":{"icaoId":"SBRB","flightCategory":"VFR","rawOb":"METAR SBRB 292200Z 18002KT 9999 SCT030 29/23 Q1012","temp":29,"dewp":23,"wdir":180,"wspd":2,"visib":"6+","altim":1012,"clouds":[{"cover":"SCT","base":3000}],"obsTime":1782770400},"SBFZ":{"icaoId":"SBFZ","flightCategory":"VFR","rawOb":"METAR SBFZ 292200Z 10013KT 9999 FEW020 27/23 Q1013","temp":27,"dewp":23,"wdir":100,"wspd":13,"visib":"6+","altim":1013,"clouds":[{"cover":"FEW","base":2000}],"obsTime":1782770400},"SBCF":{"icaoId":"SBCF","flightCategory":"VFR","rawOb":"METAR SBCF 292200Z 09009KT CAVOK 20/14 Q1022","temp":20,"dewp":14,"wdir":90,"wspd":9,"visib":"6+","altim":1022,"clouds":[],"obsTime":1782770400},"SBBV":{"icaoId":"SBBV","flightCategory":"MVFR","rawOb":"METAR SBBV 292200Z 22009KT 9999 VCSH BKN025 FEW030TCU BKN070 28/24 Q1010","temp":28,"dewp":24,"wdir":220,"wspd":9,"visib":"6+","altim":1010,"clouds":[{"cover":"BKN","base":2500},{"cover":"FEW","base":3000},{"cover":"BKN","base":7000}],"obsTime":1782770400},"SBBE":{"icaoId":"SBBE","flightCategory":"MVFR","rawOb":"METAR SBBE 292200Z 12006KT 8000 TS SCT015 BKN030 FEW040CB 25/23 Q1012 RERA","temp":25,"dewp":23,"wdir":120,"wspd":6,"visib":4.97,"altim":1012,"clouds":[{"cover":"SCT","base":1500},{"cover":"BKN","base":3000},{"cover":"FEW","base":4000}],"obsTime":1782770400},"SBPV":{"icaoId":"SBPV","flightCategory":"VFR","rawOb":"METAR SBPV 292200Z 17002KT CAVOK 29/23 Q1010","temp":29,"dewp":23,"wdir":170,"wspd":2,"visib":"6+","altim":1010,"clouds":[],"obsTime":1782770400},"SBSV":{"icaoId":"SBSV","flightCategory":"VFR","rawOb":"METAR SBSV 292200Z 09005KT 9999 SCT023 25/22 Q1017","temp":25,"dewp":22,"wdir":90,"wspd":5,"visib":"6+","altim":1017,"clouds":[{"cover":"SCT","base":2300}],"obsTime":1782770400},"SBPJ":{"icaoId":"SBPJ","flightCategory":"VFR","rawOb":"METAR SBPJ 292200Z 16004KT CAVOK 30/18 Q1013","temp":30,"dewp":18,"wdir":160,"wspd":4,"visib":"6+","altim":1013,"clouds":[],"obsTime":1782770400},"SBSL":{"icaoId":"SBSL","flightCategory":"VFR","rawOb":"METAR SBSL 292200Z 05005KT 9999 FEW017 BKN080 26/23 Q1012","temp":26,"dewp":23,"wdir":50,"wspd":5,"visib":"6+","altim":1012,"clouds":[{"cover":"FEW","base":1700},{"cover":"BKN","base":8000}],"obsTime":1782770400},"SBEG":{"icaoId":"SBEG","flightCategory":"VFR","rawOb":"METAR SBEG 292200Z 10007KT 9999 FEW035 FEW040TCU 30/23 Q1010","temp":30,"dewp":23,"wdir":100,"wspd":7,"visib":"6+","altim":1010,"clouds":[{"cover":"FEW","base":3500},{"cover":"FEW","base":4000}],"obsTime":1782770400},"SBVT":{"icaoId":"SBVT","flightCategory":"VFR","rawOb":"METAR SBVT 292200Z 01004KT CAVOK 22/21 Q1020","temp":22,"dewp":21,"wdir":10,"wspd":4,"visib":"6+","altim":1020,"clouds":[],"obsTime":1782770400},"SBCZ":{"icaoId":"SBCZ","flightCategory":"VFR","rawOb":"METAR SBCZ 292200Z 17002KT 9999 FEW026 BKN100 29/24 Q1012","temp":29,"dewp":24,"wdir":170,"wspd":2,"visib":"6+","altim":1012,"clouds":[{"cover":"FEW","base":2600},{"cover":"BKN","base":10000}],"obsTime":1782770400},"SBNT":{"icaoId":"SBNT","flightCategory":"VFR","rawOb":"METAR SBNT 292200Z 15005KT 9999 FEW020 BKN033 BKN100 25/23 Q1014","temp":25,"dewp":23,"wdir":150,"wspd":5,"visib":"6+","altim":1014,"clouds":[{"cover":"FEW","base":2000},{"cover":"BKN","base":3300},{"cover":"BKN","base":10000}],"obsTime":1782770400},"SBSP":{"icaoId":"SBSP","flightCategory":"LIFR","rawOb":"METAR SBSP 292200Z 16007KT 5000 BR BKN004 16/16 Q1023","temp":16,"dewp":16,"wdir":160,"wspd":7,"visib":3.11,"altim":1023,"clouds":[{"cover":"BKN","base":400}],"obsTime":1782770400},"SBGO":{"icaoId":"SBGO","flightCategory":"VFR","rawOb":"METAR SBGO 292200Z 07005KT CAVOK 26/13 Q1019","temp":26,"dewp":13,"wdir":70,"wspd":5,"visib":"6+","altim":1019,"clouds":[],"obsTime":1782770400},"SBBR":{"icaoId":"SBBR","flightCategory":"VFR","rawOb":"METAR SBBR 292200Z 13007KT CAVOK 22/11 Q1022","temp":22,"dewp":11,"wdir":130,"wspd":7,"visib":"6+","altim":1022,"clouds":[],"obsTime":1782770400},"SBTE":{"icaoId":"SBTE","flightCategory":"VFR","rawOb":"METAR SBTE 292200Z 33003KT CAVOK 29/21 Q1011","temp":29,"dewp":21,"wdir":330,"wspd":3,"visib":"6+","altim":1011,"clouds":[],"obsTime":1782770400},"SBMO":{"icaoId":"SBMO","flightCategory":"VFR","rawOb":"METAR SBMO 292200Z VRB02KT 9999 SCT020 SCT070 23/22 Q1017","temp":23,"dewp":22,"wdir":"VRB","wspd":2,"visib":"6+","altim":1017,"clouds":[{"cover":"SCT","base":2000},{"cover":"SCT","base":7000}],"obsTime":1782770400},"SBKP":{"icaoId":"SBKP","flightCategory":"VFR","rawOb":"METAR SBKP 292200Z 05003KT CAVOK 24/17 Q1020","temp":24,"dewp":17,"wdir":50,"wspd":3,"visib":"6+","altim":1020,"clouds":[],"obsTime":1782770400},"SBFL":{"icaoId":"SBFL","flightCategory":"MVFR","rawOb":"METAR SBFL 292200Z 20008KT 9999 OVC030 16/12 Q1020","temp":16,"dewp":12,"wdir":200,"wspd":8,"visib":"6+","altim":1020,"clouds":[{"cover":"OVC","base":3000}],"obsTime":1782770400},"SBMQ":{"icaoId":"SBMQ","flightCategory":"VFR","rawOb":"METAR SBMQ 292200Z 08005KT 9999 FEW020 BKN070 27/25 Q1011","temp":27,"dewp":25,"wdir":80,"wspd":5,"visib":"6+","altim":1011,"clouds":[{"cover":"FEW","base":2000},{"cover":"BKN","base":7000}],"obsTime":1782770400},"SBMA":{"icaoId":"SBMA","flightCategory":"VFR","rawOb":"METAR SBMA 292200Z 07002KT 9999 FEW020 BKN090 31/21 Q1011","temp":31,"dewp":21,"wdir":70,"wspd":2,"visib":"6+","altim":1011,"clouds":[{"cover":"FEW","base":2000},{"cover":"BKN","base":9000}],"obsTime":1782770400},"SBMG":{"icaoId":"SBMG","flightCategory":"VFR","rawOb":"METAR SBMG 292200Z 01006KT 9999 FEW025 23/18 Q1016","temp":23,"dewp":18,"wdir":10,"wspd":6,"visib":"6+","altim":1016,"clouds":[{"cover":"FEW","base":2500}],"obsTime":1782770400},"SBIL":{"icaoId":"SBIL","flightCategory":"VFR","rawOb":"METAR SBIL 292200Z 24003KT CAVOK 25/22 Q1019","temp":25,"dewp":22,"wdir":240,"wspd":3,"visib":"6+","altim":1019,"clouds":[],"obsTime":1782770400},"SBJU":{"icaoId":"SBJU","flightCategory":"VFR","rawOb":"METAR SBJU 292200Z 26002KT 9999 SCT020 27/18 Q1015","temp":27,"dewp":18,"wdir":260,"wspd":2,"visib":"6+","altim":1015,"clouds":[{"cover":"SCT","base":2000}],"obsTime":1782770400},"SBME":{"icaoId":"SBME","flightCategory":"VFR","rawOb":"METAR SBME 292200Z 04008KT CAVOK 24/19 Q1018","temp":24,"dewp":19,"wdir":40,"wspd":8,"visib":"6+","altim":1018,"clouds":[],"obsTime":1782770400},"SBMK":{"icaoId":"SBMK","flightCategory":"VFR","rawOb":"METAR SBMK 292200Z 08008KT CAVOK 22/11 Q1020","temp":22,"dewp":11,"wdir":80,"wspd":8,"visib":"6+","altim":1020,"clouds":[],"obsTime":1782770400},"SBUL":{"icaoId":"SBUL","flightCategory":"VFR","rawOb":"METAR SBUL 292200Z 10004KT CAVOK 22/12 Q1021","temp":22,"dewp":12,"wdir":100,"wspd":4,"visib":"6+","altim":1021,"clouds":[],"obsTime":1782770400},"SBCT":{"icaoId":"SBCT","flightCategory":"IFR","rawOb":"METAR SBCT 292200Z 10008KT 8000 OVC005 13/13 Q1020","temp":13,"dewp":13,"wdir":100,"wspd":8,"visib":4.97,"altim":1020,"clouds":[{"cover":"OVC","base":500}],"obsTime":1782770400},"SBSG":{"icaoId":"SBSG","flightCategory":"MVFR","rawOb":"METAR SBSG 292200Z 14003KT 100V180 9999 BKN020 FEW026TCU BKN070 24/23 Q1014","temp":24,"dewp":23,"wdir":140,"wspd":3,"visib":"6+","altim":1014,"clouds":[{"cover":"BKN","base":2000},{"cover":"FEW","base":2600},{"cover":"BKN","base":7000}],"obsTime":1782770400},"SBFI":{"icaoId":"SBFI","flightCategory":"IFR","rawOb":"METAR SBFI 292200Z 22003KT 9999 BKN006 SCT017 16/16 Q1016","temp":16,"dewp":16,"wdir":220,"wspd":3,"visib":"6+","altim":1016,"clouds":[{"cover":"BKN","base":600},{"cover":"SCT","base":1700}],"obsTime":1782770400},"SBCG":{"icaoId":"SBCG","flightCategory":"VFR","rawOb":"METAR SBCG 292200Z 30004KT CAVOK 25/18 Q1016","temp":25,"dewp":18,"wdir":300,"wspd":4,"visib":"6+","altim":1016,"clouds":[],"obsTime":1782770400},"SBPA":{"icaoId":"SBPA","flightCategory":"VFR","rawOb":"METAR SBPA 292200Z 12005KT CAVOK 12/09 Q1020","temp":12,"dewp":9,"wdir":120,"wspd":5,"visib":"6+","altim":1020,"clouds":[],"obsTime":1782770400},"SBGL":{"icaoId":"SBGL","flightCategory":"VFR","rawOb":"METAR SBGL 292200Z 23003KT CAVOK 22/19 Q1019","temp":22,"dewp":19,"wdir":230,"wspd":3,"visib":"6+","altim":1019,"clouds":[],"obsTime":1782770400},"SBRF":{"icaoId":"SBRF","flightCategory":"VFR","rawOb":"METAR SBRF 292200Z 11009KT 9999 SCT025 26/22 Q1015","temp":26,"dewp":22,"wdir":110,"wspd":9,"visib":"6+","altim":1015,"clouds":[{"cover":"SCT","base":2500}],"obsTime":1782770400},"SBSN":{"icaoId":"SBSN","flightCategory":"VFR","rawOb":"METAR SBSN 292200Z 07002KT 9999 FEW025TCU SCT090 27/26 Q1009","temp":27,"dewp":26,"wdir":70,"wspd":2,"visib":"6+","altim":1009,"clouds":[{"cover":"FEW","base":2500},{"cover":"SCT","base":9000}],"obsTime":1782770400},"SBLO":{"icaoId":"SBLO","flightCategory":"VFR","rawOb":"METAR SBLO 292200Z 04004KT CAVOK 24/19 Q1017","temp":24,"dewp":19,"wdir":40,"wspd":4,"visib":"6+","altim":1017,"clouds":[],"obsTime":1782770400},"SBGR":{"icaoId":"SBGR","flightCategory":"MVFR","rawOb":"METAR SBGR 292200Z 19003KT 8000 BKN010 SCT040 18/16 Q1022","temp":18,"dewp":16,"wdir":190,"wspd":3,"visib":4.97,"altim":1022,"clouds":[{"cover":"BKN","base":1000},{"cover":"SCT","base":4000}],"obsTime":1782770400},"SBCP":{"icaoId":"SBCP","flightCategory":"VFR","rawOb":"METAR SBCP 292200Z 08005KT CAVOK 22/20 Q1019","temp":22,"dewp":20,"wdir":80,"wspd":5,"visib":"6+","altim":1019,"clouds":[],"obsTime":1782770400},"SBTU":{"icaoId":"SBTU","flightCategory":"VFR","rawOb":"METAR SBTU 292200Z AUTO VRB01KT 9999 // BKN100/// ///// Q1013","temp":null,"dewp":null,"wdir":"VRB","wspd":1,"visib":"6+","altim":1013,"clouds":[{"cover":"BKN","base":10000}],"obsTime":1782770400},"SBCC":{"icaoId":"SBCC","flightCategory":"VFR","rawOb":"METAR SBCC 292300Z 05006KT CAVOK 26/16 Q1014","temp":26,"dewp":16,"wdir":50,"wspd":6,"visib":"6+","altim":1014,"clouds":[],"obsTime":1782774000},"SBSJ":{"icaoId":"SBSJ","flightCategory":"VFR","rawOb":"METAR SBSJ 292200Z 16002KT CAVOK 20/16 Q1020","temp":20,"dewp":16,"wdir":160,"wspd":2,"visib":"6+","altim":1020,"clouds":[],"obsTime":1782770400},"SBPS":{"icaoId":"SBPS","flightCategory":"VFR","rawOb":"METAR SBPS 292200Z VRB02KT 9999 SCT018 BKN050 23/21 Q1019","temp":23,"dewp":21,"wdir":"VRB","wspd":2,"visib":"6+","altim":1019,"clouds":[{"cover":"SCT","base":1800},{"cover":"BKN","base":5000}],"obsTime":1782770400},"SBTT":{"icaoId":"SBTT","flightCategory":"VFR","rawOb":"METAR SBTT 292200Z 20001KT 9999 FEW030 28/22 Q1011","temp":28,"dewp":22,"wdir":200,"wspd":1,"visib":"6+","altim":1011,"clouds":[{"cover":"FEW","base":3000}],"obsTime":1782770400},"SBOI":{"icaoId":"SBOI","flightCategory":"VFR","rawOb":"METAR SBOI 292200Z AUTO 11003KT 060V160 CAVOK 28/23 Q1011","temp":28,"dewp":23,"wdir":110,"wspd":3,"visib":"6+","altim":1011,"clouds":[],"obsTime":1782770400},"SBCA":{"icaoId":"SBCA","flightCategory":"MVFR","rawOb":"METAR SBCA 292200Z 19005KT 8000 BCFG TS SCT001 FEW040CB BKN100 17/16 Q1018","temp":17,"dewp":16,"wdir":190,"wspd":5,"visib":4.97,"altim":1018,"clouds":[{"cover":"SCT","base":100},{"cover":"FEW","base":4000},{"cover":"BKN","base":10000}],"obsTime":1782770400},"SBCO":{"icaoId":"SBCO","flightCategory":"VFR","rawOb":"METAR SBCO 292200Z 11005KT CAVOK 10/09 Q1020","temp":10,"dewp":9,"wdir":110,"wspd":5,"visib":"6+","altim":1020,"clouds":[],"obsTime":1782770400},"SBSM":{"icaoId":"SBSM","flightCategory":"VFR","rawOb":"METAR SBSM 292200Z 31001KT 9999 FEW010 08/08 Q1020","temp":8,"dewp":8,"wdir":310,"wspd":1,"visib":"6+","altim":1020,"clouds":[{"cover":"FEW","base":1000}],"obsTime":1782770400},"SBKG":{"icaoId":"SBKG","flightCategory":"VFR","rawOb":"METAR SBKG 292200Z 11008KT 9999 FEW005 22/21 Q1018","temp":22,"dewp":21,"wdir":110,"wspd":8,"visib":"6+","altim":1018,"clouds":[{"cover":"FEW","base":500}],"obsTime":1782770400},"SBAX":{"icaoId":"SBAX","flightCategory":"VFR","rawOb":"METAR SBAX 292200Z 09002KT CAVOK 22/13 Q1022","temp":22,"dewp":13,"wdir":90,"wspd":2,"visib":"6+","altim":1022,"clouds":[],"obsTime":1782770400},"SBBH":{"icaoId":"SBBH","flightCategory":"VFR","rawOb":"METAR SBBH 292200Z 09003KT CAVOK 20/14 Q1022","temp":20,"dewp":14,"wdir":90,"wspd":3,"visib":"6+","altim":1022,"clouds":[],"obsTime":1782770400},"SBBU":{"icaoId":"SBBU","flightCategory":"VFR","rawOb":"METAR SBBU 292200Z 03002KT CAVOK 26/18 Q1018","temp":26,"dewp":18,"wdir":30,"wspd":2,"visib":"6+","altim":1018,"clouds":[],"obsTime":1782770400},"SBDN":{"icaoId":"SBDN","flightCategory":"VFR","rawOb":"METAR SBDN 292200Z 35002KT CAVOK 26/18 Q1016","temp":26,"dewp":18,"wdir":350,"wspd":2,"visib":"6+","altim":1016,"clouds":[],"obsTime":1782770400},"SBIP":{"icaoId":"SBIP","flightCategory":"VFR","rawOb":"METAR SBIP 292200Z AUTO 20002KT CAVOK 18/16 Q1020","temp":18,"dewp":16,"wdir":200,"wspd":2,"visib":"6+","altim":1020,"clouds":[],"obsTime":1782770400},"SBSC":{"icaoId":"SBSC","flightCategory":"MVFR","rawOb":"METAR SBSC 292200Z 21006KT 9999 BKN010 22/20 Q1020","temp":22,"dewp":20,"wdir":210,"wspd":6,"visib":"6+","altim":1020,"clouds":[{"cover":"BKN","base":1000}],"obsTime":1782770400},"SBSR":{"icaoId":"SBSR","flightCategory":"VFR","rawOb":"METAR SBSR 292200Z 09004KT CAVOK 26/15 Q1018","temp":26,"dewp":15,"wdir":90,"wspd":4,"visib":"6+","altim":1018,"clouds":[],"obsTime":1782770400},"SBVH":{"icaoId":"SBVH","flightCategory":"VFR","rawOb":"METAR SBVH 292200Z 08003KT CAVOK 26/20 Q1015","temp":26,"dewp":20,"wdir":80,"wspd":3,"visib":"6+","altim":1015,"clouds":[],"obsTime":1782770400},"SBPL":{"icaoId":"SBPL","flightCategory":"VFR","rawOb":"METAR SBPL 292200Z 13011KT CAVOK 24/21 Q1017","temp":24,"dewp":21,"wdir":130,"wspd":11,"visib":"6+","altim":1017,"clouds":[],"obsTime":1782770400},"SBAR":{"icaoId":"SBAR","flightCategory":"VFR","rawOb":"METAR SBAR 292200Z 12006KT 9999 SCT023 26/22 Q1017","temp":26,"dewp":22,"wdir":120,"wspd":6,"visib":"6+","altim":1017,"clouds":[{"cover":"SCT","base":2300}],"obsTime":1782770400},"SBTF":{"icaoId":"SBTF","flightCategory":"VFR","rawOb":"METAR SBTF 292200Z 00000KT 9999 FEW008 SCT080 25/24 Q1010","temp":25,"dewp":24,"wdir":0,"wspd":0,"visib":"6+","altim":1010,"clouds":[{"cover":"FEW","base":800},{"cover":"SCT","base":8000}],"obsTime":1782770400},"SBUY":{"icaoId":"SBUY","flightCategory":"VFR","rawOb":"METAR SBUY 292200Z 26002KT 9999 VCSH SCT020 FEW030TCU SCT090 26/26 Q1009","temp":26,"dewp":26,"wdir":260,"wspd":2,"visib":"6+","altim":1009,"clouds":[{"cover":"SCT","base":2000},{"cover":"FEW","base":3000},{"cover":"SCT","base":9000}],"obsTime":1782770400},"SBNM":{"icaoId":"SBNM","flightCategory":"VFR","rawOb":"METAR SBNM 292200Z AUTO 17006KT 9999 FEW034 13/10 Q1018","temp":13,"dewp":10,"wdir":170,"wspd":6,"visib":"6+","altim":1018,"clouds":[{"cover":"FEW","base":3400}],"obsTime":1782770400},"SBLE":{"icaoId":"SBLE","flightCategory":"VFR","rawOb":"METAR SBLE 292200Z AUTO 00000KT CAVOK ///// Q////","temp":null,"dewp":null,"wdir":0,"wspd":0,"visib":"6+","altim":null,"clouds":[],"obsTime":1782770400},"SBAN":{"icaoId":"SBAN","flightCategory":"VFR","rawOb":"METAR SBAN 292200Z 10004KT CAVOK 21/12 Q1022","temp":21,"dewp":12,"wdir":100,"wspd":4,"visib":"6+","altim":1022,"clouds":[],"obsTime":1782770400},"SBAF":{"icaoId":"SBAF","flightCategory":"VFR","rawOb":"METAR SBAF 292200Z 19008KT 9999 FEW015 22/22 Q1019","temp":22,"dewp":22,"wdir":190,"wspd":8,"visib":"6+","altim":1019,"clouds":[{"cover":"FEW","base":1500}],"obsTime":1782770400},"SBJR":{"icaoId":"SBJR","flightCategory":"MVFR","rawOb":"METAR SBJR 292200Z 22003KT 8000 SCT018 21/20 Q1019","temp":21,"dewp":20,"wdir":220,"wspd":3,"visib":4.97,"altim":1019,"clouds":[{"cover":"SCT","base":1800}],"obsTime":1782770400},"SBLS":{"icaoId":"SBLS","flightCategory":"VFR","rawOb":"METAR SBLS 292200Z 12007KT CAVOK 20/14 Q1022","temp":20,"dewp":14,"wdir":120,"wspd":7,"visib":"6+","altim":1022,"clouds":[],"obsTime":1782770400},"SBMT":{"icaoId":"SBMT","flightCategory":"MVFR","rawOb":"METAR SBMT 292200Z 17006KT 9000 BKN011 BKN040 17/16 Q1021","temp":17,"dewp":16,"wdir":170,"wspd":6,"visib":5.59,"altim":1021,"clouds":[{"cover":"BKN","base":1100},{"cover":"BKN","base":4000}],"obsTime":1782770400},"SBTA":{"icaoId":"SBTA","flightCategory":"VFR","rawOb":"METAR SBTA 292200Z VRB01KT CAVOK 19/17 Q1019","temp":19,"dewp":17,"wdir":"VRB","wspd":1,"visib":"6+","altim":1019,"clouds":[],"obsTime":1782770400},"SBJP":{"icaoId":"SBJP","flightCategory":"MVFR","rawOb":"METAR SBJP 292200Z 15008KT 5000 -RA BKN019 BKN100 25/24 Q1015","temp":25,"dewp":24,"wdir":150,"wspd":8,"visib":3.11,"altim":1015,"clouds":[{"cover":"BKN","base":1900},{"cover":"BKN","base":10000}],"obsTime":1782770400},"SBJV":{"icaoId":"SBJV","flightCategory":"IFR","rawOb":"METAR SBJV 292200Z 05003KT 330V090 4000 -TSRA BR BKN013 SCT025 SCT030CB 15/15 Q1021","temp":15,"dewp":15,"wdir":50,"wspd":3,"visib":2.49,"altim":1021,"clouds":[{"cover":"BKN","base":1300},{"cover":"SCT","base":2500},{"cover":"SCT","base":3000}],"obsTime":1782770400},"SBPF":{"icaoId":"SBPF","flightCategory":"VFR","rawOb":"METAR SBPF 292200Z 11003KT 9999 SCT031 12/10 Q1018","temp":12,"dewp":10,"wdir":110,"wspd":3,"visib":"6+","altim":1018,"clouds":[{"cover":"SCT","base":3100}],"obsTime":1782770400},"SBGW":{"icaoId":"SBGW","flightCategory":"VFR","rawOb":"METAR SBGW 292200Z 05003KT CAVOK 22/13 Q1020","temp":22,"dewp":13,"wdir":50,"wspd":3,"visib":"6+","altim":1020,"clouds":[],"obsTime":1782770400}}}