{"updated":1773694894,"count":83,"data":{"SBCG":{"icaoId":"SBCG","flightCategory":"VFR","rawOb":"SPECI SBCG 161915Z 33006KT 300V040 9999 -TSRA FEW012 SCT030 FEW045CB BKN100 23/23 Q1009 RERA","temp":23,"dewp":23,"wdir":330,"wspd":6,"visib":"6+","altim":1009,"clouds":[{"cover":"FEW","base":1200},{"cover":"SCT","base":3000},{"cover":"FEW","base":4500},{"cover":"BKN","base":10000}],"obsTime":1773688500},"SBEG":{"icaoId":"SBEG","flightCategory":"VFR","rawOb":"METAR SBEG 162000Z 03007KT 340V060 9999 SCT020 FEW025TCU 28/24 Q1007","temp":28,"dewp":24,"wdir":30,"wspd":7,"visib":"6+","altim":1007,"clouds":[{"cover":"SCT","base":2000},{"cover":"FEW","base":2500}],"obsTime":1773691200},"SBBV":{"icaoId":"SBBV","flightCategory":"VFR","rawOb":"METAR SBBV 162000Z 10012KT 9999 SCT040 FEW045TCU 33/21 Q1007","temp":33,"dewp":21,"wdir":100,"wspd":12,"visib":"6+","altim":1007,"clouds":[{"cover":"SCT","base":4000},{"cover":"FEW","base":4500}],"obsTime":1773691200},"SBMA":{"icaoId":"SBMA","flightCategory":"VFR","rawOb":"METAR SBMA 162000Z 10003KT 9999 FEW023 31/25 Q1006","temp":31,"dewp":25,"wdir":100,"wspd":3,"visib":"6+","altim":1006,"clouds":[{"cover":"FEW","base":2300}],"obsTime":1773691200},"SBFI":{"icaoId":"SBFI","flightCategory":"MVFR","rawOb":"METAR SBFI 162000Z 26005KT 8000 -RA FEW013 SCT035 FEW040TCU BKN100 22/22 Q1009","temp":22,"dewp":22,"wdir":260,"wspd":5,"visib":4.97,"altim":1009,"clouds":[{"cover":"FEW","base":1300},{"cover":"SCT","base":3500},{"cover":"FEW","base":4000},{"cover":"BKN","base":10000}],"obsTime":1773691200},"SBVT":{"icaoId":"SBVT","flightCategory":"VFR","rawOb":"METAR SBVT 162000Z 12007KT 9999 FEW040 28/21 Q1011","temp":28,"dewp":21,"wdir":120,"wspd":7,"visib":"6+","altim":1011,"clouds":[{"cover":"FEW","base":4000}],"obsTime":1773691200},"SBFL":{"icaoId":"SBFL","flightCategory":"MVFR","rawOb":"METAR SBFL 162000Z 05009KT 9999 BKN022 28/24 Q1010","temp":28,"dewp":24,"wdir":50,"wspd":9,"visib":"6+","altim":1010,"clouds":[{"cover":"BKN","base":2200}],"obsTime":1773691200},"SBCB":{"icaoId":"SBCB","flightCategory":"VFR","rawOb":"METAR SBCB 162000Z 11010KT CAVOK 27/23 Q1012","temp":27,"dewp":23,"wdir":110,"wspd":10,"visib":"6+","altim":1012,"clouds":[],"obsTime":1773691200},"SBMO":{"icaoId":"SBMO","flightCategory":"VFR","rawOb":"METAR SBMO 162000Z 10013KT 9999 SCT030 29/23 Q1010","temp":29,"dewp":23,"wdir":100,"wspd":13,"visib":"6+","altim":1010,"clouds":[{"cover":"SCT","base":3000}],"obsTime":1773691200},"SBFZ":{"icaoId":"SBFZ","flightCategory":"MVFR","rawOb":"METAR SBFZ 162000Z 04006KT 360V080 9999 VCSH BKN023 FEW025TCU BKN080 29/24 Q1009","temp":29,"dewp":24,"wdir":40,"wspd":6,"visib":"6+","altim":1009,"clouds":[{"cover":"BKN","base":2300},{"cover":"FEW","base":2500},{"cover":"BKN","base":8000}],"obsTime":1773691200},"SBMQ":{"icaoId":"SBMQ","flightCategory":"VFR","rawOb":"METAR SBMQ 162000Z 31004KT 9999 VCSH FEW033 FEW035TCU 30/25 Q1007","temp":30,"dewp":25,"wdir":310,"wspd":4,"visib":"6+","altim":1007,"clouds":[{"cover":"FEW","base":3300},{"cover":"FEW","base":3500}],"obsTime":1773691200},"SBBR":{"icaoId":"SBBR","flightCategory":"VFR","rawOb":"METAR SBBR 162000Z 08009KT 9999 VCTS BKN040 FEW045CB BKN090 25/20 Q1014 RETS","temp":25,"dewp":20,"wdir":80,"wspd":9,"visib":"6+","altim":1014,"clouds":[{"cover":"BKN","base":4000},{"cover":"FEW","base":4500},{"cover":"BKN","base":9000}],"obsTime":1773691200},"SBGL":{"icaoId":"SBGL","flightCategory":"VFR","rawOb":"METAR SBGL 162000Z 14012KT CAVOK 28/23 Q1010","temp":28,"dewp":23,"wdir":140,"wspd":12,"visib":"6+","altim":1010,"clouds":[],"obsTime":1773691200},"SBPA":{"icaoId":"SBPA","flightCategory":"VFR","rawOb":"METAR SBPA 162000Z 11012KT 080V140 CAVOK 33/23 Q1008","temp":33,"dewp":23,"wdir":110,"wspd":12,"visib":"6+","altim":1008,"clouds":[],"obsTime":1773691200},"SBTE":{"icaoId":"SBTE","flightCategory":"VFR","rawOb":"METAR SBTE 162000Z 10005KT 9999 SCT025 32/22 Q1007","temp":32,"dewp":22,"wdir":100,"wspd":5,"visib":"6+","altim":1007,"clouds":[{"cover":"SCT","base":2500}],"obsTime":1773691200},"SBCR":{"icaoId":"SBCR","flightCategory":"VFR","rawOb":"METAR SBCR 162000Z 34007KT 310V010 9999 SCT040 34/23 Q1003","temp":34,"dewp":23,"wdir":340,"wspd":7,"visib":"6+","altim":1003,"clouds":[{"cover":"SCT","base":4000}],"obsTime":1773691200},"SBPJ":{"icaoId":"SBPJ","flightCategory":"VFR","rawOb":"SPECI SBPJ 161915Z 13015G26KT 9999 TS VCSH FEW020 SCT027 FEW030CB BKN100 27/22 Q1009","temp":27,"dewp":22,"wdir":130,"wspd":15,"visib":"6+","altim":1009,"clouds":[{"cover":"FEW","base":2000},{"cover":"SCT","base":2700},{"cover":"FEW","base":3000},{"cover":"BKN","base":10000}],"obsTime":1773688500},"SBLO":{"icaoId":"SBLO","flightCategory":"VFR","rawOb":"METAR SBLO 162000Z 05006KT CAVOK 33/15 Q1009","temp":33,"dewp":15,"wdir":50,"wspd":6,"visib":"6+","altim":1009,"clouds":[],"obsTime":1773691200},"SBPV":{"icaoId":"SBPV","flightCategory":"MVFR","rawOb":"SPECI SBPV 161937Z 01008G21KT 9999 TS VCSH BKN030 FEW035CB 30/25 Q1006","temp":30,"dewp":25,"wdir":10,"wspd":8,"visib":"6+","altim":1006,"clouds":[{"cover":"BKN","base":3000},{"cover":"FEW","base":3500}],"obsTime":1773689820},"SBSV":{"icaoId":"SBSV","flightCategory":"VFR","rawOb":"METAR SBSV 162000Z 09008KT 070V150 9999 FEW025 29/22 Q1010","temp":29,"dewp":22,"wdir":90,"wspd":8,"visib":"6+","altim":1010,"clouds":[{"cover":"FEW","base":2500}],"obsTime":1773691200},"SBGO":{"icaoId":"SBGO","flightCategory":"VFR","rawOb":"METAR SBGO 162000Z 31008KT 9999 VCSH FEW040 FEW045TCU 30/21 Q1011","temp":30,"dewp":21,"wdir":310,"wspd":8,"visib":"6+","altim":1011,"clouds":[{"cover":"FEW","base":4000},{"cover":"FEW","base":4500}],"obsTime":1773691200},"SBRB":{"icaoId":"SBRB","flightCategory":"VFR","rawOb":"METAR SBRB 162000Z 36006KT 9999 SCT030 33/25 Q1006","temp":33,"dewp":25,"wdir":360,"wspd":6,"visib":"6+","altim":1006,"clouds":[{"cover":"SCT","base":3000}],"obsTime":1773691200},"SBBE":{"icaoId":"SBBE","flightCategory":"VFR","rawOb":"METAR SBBE 162000Z 04009KT 9999 FEW015 FEW025TCU SCT040 BKN080 25/25 Q1008","temp":25,"dewp":25,"wdir":40,"wspd":9,"visib":"6+","altim":1008,"clouds":[{"cover":"FEW","base":1500},{"cover":"FEW","base":2500},{"cover":"SCT","base":4000},{"cover":"BKN","base":8000}],"obsTime":1773691200},"SBRF":{"icaoId":"SBRF","flightCategory":"VFR","rawOb":"METAR SBRF 162000Z 08006KT 9999 SCT025 29/24 Q1009","temp":29,"dewp":24,"wdir":80,"wspd":6,"visib":"6+","altim":1009,"clouds":[{"cover":"SCT","base":2500}],"obsTime":1773691200},"SBGR":{"icaoId":"SBGR","flightCategory":"VFR","rawOb":"METAR SBGR 162000Z 12007KT CAVOK 29/18 Q1014","temp":29,"dewp":18,"wdir":120,"wspd":7,"visib":"6+","altim":1014,"clouds":[],"obsTime":1773691200},"SBSG":{"icaoId":"SBSG","flightCategory":"VFR","rawOb":"METAR SBSG 162000Z 09012KT 9999 FEW030 30/23 Q1009","temp":30,"dewp":23,"wdir":90,"wspd":12,"visib":"6+","altim":1009,"clouds":[{"cover":"FEW","base":3000}],"obsTime":1773691200},"SBCT":{"icaoId":"SBCT","flightCategory":"MVFR","rawOb":"METAR SBCT 162000Z 19010KT 9999 TS VCSH BKN020 FEW045CB 24/18 Q1015","temp":24,"dewp":18,"wdir":190,"wspd":10,"visib":"6+","altim":1015,"clouds":[{"cover":"BKN","base":2000},{"cover":"FEW","base":4500}],"obsTime":1773691200},"SBSL":{"icaoId":"SBSL","flightCategory":"VFR","rawOb":"METAR SBSL 162000Z 06011KT 9999 FEW017 FEW020TCU 28/24 Q1008","temp":28,"dewp":24,"wdir":60,"wspd":11,"visib":"6+","altim":1008,"clouds":[{"cover":"FEW","base":1700},{"cover":"FEW","base":2000}],"obsTime":1773691200},"SBCF":{"icaoId":"SBCF","flightCategory":"VFR","rawOb":"METAR SBCF 162000Z 06007KT 030V090 9999 SCT045 29/18 Q1013","temp":29,"dewp":18,"wdir":60,"wspd":7,"visib":"6+","altim":1013,"clouds":[{"cover":"SCT","base":4500}],"obsTime":1773691200},"SBSN":{"icaoId":"SBSN","flightCategory":"VFR","rawOb":"METAR SBSN 162000Z 08008KT 9999 FEW020 FEW027TCU 31/25 Q1006","temp":31,"dewp":25,"wdir":80,"wspd":8,"visib":"6+","altim":1006,"clouds":[{"cover":"FEW","base":2000},{"cover":"FEW","base":2700}],"obsTime":1773691200},"SBKP":{"icaoId":"SBKP","flightCategory":"VFR","rawOb":"METAR SBKP 162000Z 20006KT CAVOK 32/15 Q1012","temp":32,"dewp":15,"wdir":200,"wspd":6,"visib":"6+","altim":1012,"clouds":[],"obsTime":1773691200},"SBSP":{"icaoId":"SBSP","flightCategory":"VFR","rawOb":"METAR SBSP 162000Z 16012KT CAVOK 27/18 Q1015","temp":27,"dewp":18,"wdir":160,"wspd":12,"visib":"6+","altim":1015,"clouds":[],"obsTime":1773691200},"SBCP":{"icaoId":"SBCP","flightCategory":"VFR","rawOb":"METAR SBCP 162000Z 11010KT CAVOK 28/21 Q1011","temp":28,"dewp":21,"wdir":110,"wspd":10,"visib":"6+","altim":1011,"clouds":[],"obsTime":1773691200},"SBCZ":{"icaoId":"SBCZ","flightCategory":"VFR","rawOb":"METAR SBCZ 162000Z 34005KT 9999 SCT030 FEW035TCU 32/25 Q1005","temp":32,"dewp":25,"wdir":340,"wspd":5,"visib":"6+","altim":1005,"clouds":[{"cover":"SCT","base":3000},{"cover":"FEW","base":3500}],"obsTime":1773691200},"SBIL":{"icaoId":"SBIL","flightCategory":"VFR","rawOb":"METAR SBIL 162000Z 10008KT CAVOK 30/24 Q1010","temp":30,"dewp":24,"wdir":100,"wspd":8,"visib":"6+","altim":1010,"clouds":[],"obsTime":1773691200},"SBJU":{"icaoId":"SBJU","flightCategory":"MVFR","rawOb":"METAR SBJU 162000Z 00000KT 9999 BKN022 30/21 Q1010","temp":30,"dewp":21,"wdir":0,"wspd":0,"visib":"6+","altim":1010,"clouds":[{"cover":"BKN","base":2200}],"obsTime":1773691200},"SBME":{"icaoId":"SBME","flightCategory":"VFR","rawOb":"METAR SBME 162000Z 10009KT 9999 FEW030 29/21 Q1011","temp":29,"dewp":21,"wdir":100,"wspd":9,"visib":"6+","altim":1011,"clouds":[{"cover":"FEW","base":3000}],"obsTime":1773691200},"SBMG":{"icaoId":"SBMG","flightCategory":"VFR","rawOb":"METAR SBMG 162000Z 03011KT 9999 FEW045 33/15 Q1009","temp":33,"dewp":15,"wdir":30,"wspd":11,"visib":"6+","altim":1009,"clouds":[{"cover":"FEW","base":4500}],"obsTime":1773691200},"SBMK":{"icaoId":"SBMK","flightCategory":"VFR","rawOb":"METAR SBMK 162000Z 17006KT 9999 TS SCT040 FEW045CB BKN100 23/20 Q1013","temp":23,"dewp":20,"wdir":170,"wspd":6,"visib":"6+","altim":1013,"clouds":[{"cover":"SCT","base":4000},{"cover":"FEW","base":4500},{"cover":"BKN","base":10000}],"obsTime":1773691200},"SBAT":{"icaoId":"SBAT","flightCategory":"VFR","rawOb":"METAR SBAT 162000Z 00000KT 9999 FEW017 SCT100 28/25 Q1009","temp":28,"dewp":25,"wdir":0,"wspd":0,"visib":"6+","altim":1009,"clouds":[{"cover":"FEW","base":1700},{"cover":"SCT","base":10000}],"obsTime":1773691200},"SBNT":{"icaoId":"SBNT","flightCategory":"VFR","rawOb":"METAR SBNT 162000Z 08008KT 050V110 9999 FEW033 SCT100 29/23 Q1009","temp":29,"dewp":23,"wdir":80,"wspd":8,"visib":"6+","altim":1009,"clouds":[{"cover":"FEW","base":3300},{"cover":"SCT","base":10000}],"obsTime":1773691200},"SBUL":{"icaoId":"SBUL","flightCategory":"VFR","rawOb":"METAR SBUL 162000Z 02003KT 330V060 9999 VCSH FEW035 FEW040TCU SCT080 27/22 Q1013","temp":27,"dewp":22,"wdir":20,"wspd":3,"visib":"6+","altim":1013,"clouds":[{"cover":"FEW","base":3500},{"cover":"FEW","base":4000},{"cover":"SCT","base":8000}],"obsTime":1773691200},"SBUR":{"icaoId":"SBUR","flightCategory":"VFR","rawOb":"METAR SBUR 162000Z 14006KT CAVOK 30/19 Q1011","temp":30,"dewp":19,"wdir":140,"wspd":6,"visib":"6+","altim":1011,"clouds":[],"obsTime":1773691200},"SBPS":{"icaoId":"SBPS","flightCategory":"VFR","rawOb":"METAR SBPS 162000Z 06010KT 9999 SCT025 29/24 Q1010","temp":29,"dewp":24,"wdir":60,"wspd":10,"visib":"6+","altim":1010,"clouds":[{"cover":"SCT","base":2500}],"obsTime":1773691200},"SBPB":{"icaoId":"SBPB","flightCategory":"VFR","rawOb":"METAR SBPB 162000Z 06005KT 9999 TS SCT015 FEW025CB BKN080 27/24 Q1009 RETS","temp":27,"dewp":24,"wdir":60,"wspd":5,"visib":"6+","altim":1009,"clouds":[{"cover":"SCT","base":1500},{"cover":"FEW","base":2500},{"cover":"BKN","base":8000}],"obsTime":1773691200},"SBOI":{"icaoId":"SBOI","flightCategory":"VFR","rawOb":"METAR SBOI 162000Z AUTO 02010KT 9999 SCT032 28/24 Q1009","temp":28,"dewp":24,"wdir":20,"wspd":10,"visib":"6+","altim":1009,"clouds":[{"cover":"SCT","base":3200}],"obsTime":1773691200},"SBSJ":{"icaoId":"SBSJ","flightCategory":"VFR","rawOb":"METAR SBSJ 162000Z 15014KT 9999 FEW045 31/// Q1013","temp":null,"dewp":null,"wdir":150,"wspd":14,"visib":"6+","altim":1013,"clouds":[{"cover":"FEW","base":4500}],"obsTime":1773691200},"SBPL":{"icaoId":"SBPL","flightCategory":"VFR","rawOb":"METAR SBPL 162000Z 36003KT 9999 SCT030 34/19 Q1009","temp":34,"dewp":19,"wdir":360,"wspd":3,"visib":"6+","altim":1009,"clouds":[{"cover":"SCT","base":3000}],"obsTime":1773691200},"SBCJ":{"icaoId":"SBCJ","flightCategory":"VFR","rawOb":"METAR SBCJ 162000Z 06005KT 9999 SCT020 FEW025TCU 27/23 Q1011","temp":27,"dewp":23,"wdir":60,"wspd":5,"visib":"6+","altim":1011,"clouds":[{"cover":"SCT","base":2000},{"cover":"FEW","base":2500}],"obsTime":1773691200},"SBPP":{"icaoId":"SBPP","flightCategory":"VFR","rawOb":"METAR SBPP 162000Z 03008KT 9999 SCT025 27/22 Q1008","temp":27,"dewp":22,"wdir":30,"wspd":8,"visib":"6+","altim":1008,"clouds":[{"cover":"SCT","base":2500}],"obsTime":1773691200},"SBAR":{"icaoId":"SBAR","flightCategory":"VFR","rawOb":"METAR SBAR 162000Z 11012KT 9999 FEW025 30/22 Q1010","temp":30,"dewp":22,"wdir":110,"wspd":12,"visib":"6+","altim":1010,"clouds":[{"cover":"FEW","base":2500}],"obsTime":1773691200},"SBTT":{"icaoId":"SBTT","flightCategory":"MVFR","rawOb":"SPECI SBTT 161939Z 15006KT 120V180 6000 -TSRA BKN030 FEW035CB BKN080 24/22 Q1007 RERA","temp":24,"dewp":22,"wdir":150,"wspd":6,"visib":3.73,"altim":1007,"clouds":[{"cover":"BKN","base":3000},{"cover":"FEW","base":3500},{"cover":"BKN","base":8000}],"obsTime":1773689940},"SBDN":{"icaoId":"SBDN","flightCategory":"VFR","rawOb":"METAR SBDN 162000Z 07007KT 9999 SCT049 34/19 Q1008","temp":34,"dewp":19,"wdir":70,"wspd":7,"visib":"6+","altim":1008,"clouds":[{"cover":"SCT","base":4900}],"obsTime":1773691200},"SBES":{"icaoId":"SBES","flightCategory":"VFR","rawOb":"METAR SBES 162000Z 09011KT 060V140 CAVOK 27/// Q1012","temp":null,"dewp":null,"wdir":90,"wspd":11,"visib":"6+","altim":1012,"clouds":[],"obsTime":1773691200},"SBIP":{"icaoId":"SBIP","flightCategory":"VFR","rawOb":"METAR SBIP 162000Z AUTO 34005KT CAVOK 30/22 Q1010","temp":30,"dewp":22,"wdir":340,"wspd":5,"visib":"6+","altim":1010,"clouds":[],"obsTime":1773691200},"SBKG":{"icaoId":"SBKG","flightCategory":"VFR","rawOb":"METAR SBKG 162000Z 07013KT 9999 FEW020 28/20 Q1011","temp":28,"dewp":20,"wdir":70,"wspd":13,"visib":"6+","altim":1011,"clouds":[{"cover":"FEW","base":2000}],"obsTime":1773691200},"SBSC":{"icaoId":"SBSC","flightCategory":"VFR","rawOb":"METAR SBSC 162000Z 22006KT CAVOK 29/22 Q1010","temp":29,"dewp":22,"wdir":220,"wspd":6,"visib":"6+","altim":1010,"clouds":[],"obsTime":1773691200},"SBSM":{"icaoId":"SBSM","flightCategory":"VFR","rawOb":"METAR SBSM 162000Z 31008KT 250V340 CAVOK 31/21 Q1009","temp":31,"dewp":21,"wdir":310,"wspd":8,"visib":"6+","altim":1009,"clouds":[],"obsTime":1773691200},"SBSR":{"icaoId":"SBSR","flightCategory":"VFR","rawOb":"METAR SBSR 162000Z 10005KT 9999 FEW040 FEW045TCU 32/16 Q1010","temp":32,"dewp":16,"wdir":100,"wspd":5,"visib":"6+","altim":1010,"clouds":[{"cover":"FEW","base":4000},{"cover":"FEW","base":4500}],"obsTime":1773691200},"SBTF":{"icaoId":"SBTF","flightCategory":"VFR","rawOb":"METAR SBTF 162000Z 08006KT 9999 SCT020 34/26 Q1005","temp":34,"dewp":26,"wdir":80,"wspd":6,"visib":"6+","altim":1005,"clouds":[{"cover":"SCT","base":2000}],"obsTime":1773691200},"SBVH":{"icaoId":"SBVH","flightCategory":"VFR","rawOb":"METAR SBVH 162000Z 29005KT 9999 TS FEW018 SCT030 FEW035CB BKN068 26/24 Q1009","temp":26,"dewp":24,"wdir":290,"wspd":5,"visib":"6+","altim":1009,"clouds":[{"cover":"FEW","base":1800},{"cover":"SCT","base":3000},{"cover":"FEW","base":3500},{"cover":"BKN","base":6800}],"obsTime":1773691200},"SBAX":{"icaoId":"SBAX","flightCategory":"VFR","rawOb":"METAR SBAX 162000Z 11014KT 9999 SCT045 27/18 Q1014","temp":27,"dewp":18,"wdir":110,"wspd":14,"visib":"6+","altim":1014,"clouds":[{"cover":"SCT","base":4500}],"obsTime":1773691200},"SBBH":{"icaoId":"SBBH","flightCategory":"VFR","rawOb":"METAR SBBH 162000Z 03005KT 9999 FEW045 29/19 Q1013","temp":29,"dewp":19,"wdir":30,"wspd":5,"visib":"6+","altim":1013,"clouds":[{"cover":"FEW","base":4500}],"obsTime":1773691200},"SBBQ":{"icaoId":"SBBQ","flightCategory":"VFR","rawOb":"METAR SBBQ 162000Z 09007KT 9999 BKN040 FEW045TCU 25/18 Q1017","temp":25,"dewp":18,"wdir":90,"wspd":7,"visib":"6+","altim":1017,"clouds":[{"cover":"BKN","base":4000},{"cover":"FEW","base":4500}],"obsTime":1773691200},"SBBU":{"icaoId":"SBBU","flightCategory":"VFR","rawOb":"METAR SBBU 162000Z 10004KT 9999 SCT040 32/18 Q1010","temp":32,"dewp":18,"wdir":100,"wspd":4,"visib":"6+","altim":1010,"clouds":[{"cover":"SCT","base":4000}],"obsTime":1773691200},"SBCA":{"icaoId":"SBCA","flightCategory":"VFR","rawOb":"METAR SBCA 162000Z 04010KT 9999 SCT030 FEW050TCU BKN100 29/16 Q1012","temp":29,"dewp":16,"wdir":40,"wspd":10,"visib":"6+","altim":1012,"clouds":[{"cover":"SCT","base":3000},{"cover":"FEW","base":5000},{"cover":"BKN","base":10000}],"obsTime":1773691200},"SBCC":{"icaoId":"SBCC","flightCategory":"VFR","rawOb":"METAR SBCC 162000Z 06002KT 9999 TS VCSH SCT030 FEW035CB BKN100 24/22 Q1010","temp":24,"dewp":22,"wdir":60,"wspd":2,"visib":"6+","altim":1010,"clouds":[{"cover":"SCT","base":3000},{"cover":"FEW","base":3500},{"cover":"BKN","base":10000}],"obsTime":1773691200},"SBCO":{"icaoId":"SBCO","flightCategory":"VFR","rawOb":"METAR SBCO 162000Z 10014KT 9999 FEW045 32/23 Q1008","temp":32,"dewp":23,"wdir":100,"wspd":14,"visib":"6+","altim":1008,"clouds":[{"cover":"FEW","base":4500}],"obsTime":1773691200},"SBUY":{"icaoId":"SBUY","flightCategory":"VFR","rawOb":"METAR SBUY 162000Z 18005KT 9999 VCSH FEW025 FEW035TCU SCT100 33/23 Q1004","temp":33,"dewp":23,"wdir":180,"wspd":5,"visib":"6+","altim":1004,"clouds":[{"cover":"FEW","base":2500},{"cover":"FEW","base":3500},{"cover":"SCT","base":10000}],"obsTime":1773691200},"SBJP":{"icaoId":"SBJP","flightCategory":"VFR","rawOb":"METAR SBJP 162000Z 06010KT 9999 FEW026 29/24 Q1009","temp":29,"dewp":24,"wdir":60,"wspd":10,"visib":"6+","altim":1009,"clouds":[{"cover":"FEW","base":2600}],"obsTime":1773691200},"SBAN":{"icaoId":"SBAN","flightCategory":"VFR","rawOb":"METAR SBAN 162000Z 36003KT 9999 SCT035 FEW040TCU 28/18 Q1014","temp":28,"dewp":18,"wdir":360,"wspd":3,"visib":"6+","altim":1014,"clouds":[{"cover":"SCT","base":3500},{"cover":"FEW","base":4000}],"obsTime":1773691200},"SBGW":{"icaoId":"SBGW","flightCategory":"VFR","rawOb":"METAR SBGW 162000Z 28004KT 250V340 9999 FEW030 33/14 Q1012","temp":33,"dewp":14,"wdir":280,"wspd":4,"visib":"6+","altim":1012,"clouds":[{"cover":"FEW","base":3000}],"obsTime":1773691200},"SBIH":{"icaoId":"SBIH","flightCategory":"VFR","rawOb":"METAR SBIH 162000Z 07004KT 9999 SCT020 32/24 Q1005","temp":32,"dewp":24,"wdir":70,"wspd":4,"visib":"6+","altim":1005,"clouds":[{"cover":"SCT","base":2000}],"obsTime":1773691200},"SBJR":{"icaoId":"SBJR","flightCategory":"VFR","rawOb":"METAR SBJR 162000Z 17007KT CAVOK 29/23 Q1010","temp":29,"dewp":23,"wdir":170,"wspd":7,"visib":"6+","altim":1010,"clouds":[],"obsTime":1773691200},"SBJV":{"icaoId":"SBJV","flightCategory":"MVFR","rawOb":"METAR SBJV 162000Z 07006KT 020V100 9999 SCT015 BKN030 28/24 Q1011","temp":28,"dewp":24,"wdir":70,"wspd":6,"visib":"6+","altim":1011,"clouds":[{"cover":"SCT","base":1500},{"cover":"BKN","base":3000}],"obsTime":1773691200},"SBLE":{"icaoId":"SBLE","flightCategory":"VFR","rawOb":"METAR SBLE 162000Z AUTO 10006KT 070V130 CAVOK 30/18 Q1012","temp":30,"dewp":18,"wdir":100,"wspd":6,"visib":"6+","altim":1012,"clouds":[],"obsTime":1773691200},"SBLS":{"icaoId":"SBLS","flightCategory":"VFR","rawOb":"METAR SBLS 162000Z 10005KT 020V120 9999 SCT030 FEW040TCU 29/18 Q1013","temp":29,"dewp":18,"wdir":100,"wspd":5,"visib":"6+","altim":1013,"clouds":[{"cover":"SCT","base":3000},{"cover":"FEW","base":4000}],"obsTime":1773691200},"SBMT":{"icaoId":"SBMT","flightCategory":"VFR","rawOb":"METAR SBMT 162000Z 14008KT CAVOK 29/16 Q1013","temp":29,"dewp":16,"wdir":140,"wspd":8,"visib":"6+","altim":1013,"clouds":[],"obsTime":1773691200},"SBNM":{"icaoId":"SBNM","flightCategory":"VFR","rawOb":"METAR SBNM 162000Z 17002KT 9999 FEW040 BKN100 28/22 Q1010","temp":28,"dewp":22,"wdir":170,"wspd":2,"visib":"6+","altim":1010,"clouds":[{"cover":"FEW","base":4000},{"cover":"BKN","base":10000}],"obsTime":1773691200},"SBPF":{"icaoId":"SBPF","flightCategory":"VFR","rawOb":"METAR SBPF 162000Z 18008KT 9999 SCT040 25/16 Q1013","temp":25,"dewp":16,"wdir":180,"wspd":8,"visib":"6+","altim":1013,"clouds":[{"cover":"SCT","base":4000}],"obsTime":1773691200},"SBST":{"icaoId":"SBST","flightCategory":"MVFR","rawOb":"METAR SBST 162000Z 27004KT 230V310 8000 FEW030 27/22 Q1010","temp":27,"dewp":22,"wdir":270,"wspd":4,"visib":4.97,"altim":1010,"clouds":[{"cover":"FEW","base":3000}],"obsTime":1773691200},"SBAF":{"icaoId":"SBAF","flightCategory":"VFR","rawOb":"METAR SBAF 162000Z 20013KT 9999 FEW030 29/21 Q1010","temp":29,"dewp":21,"wdir":200,"wspd":13,"visib":"6+","altim":1010,"clouds":[{"cover":"FEW","base":3000}],"obsTime":1773691200},"SBTA":{"icaoId":"SBTA","flightCategory":"VFR","rawOb":"METAR SBTA 162000Z 17007KT 140V220 9999 FEW040 31/16 Q1011","temp":31,"dewp":16,"wdir":170,"wspd":7,"visib":"6+","altim":1011,"clouds":[{"cover":"FEW","base":4000}],"obsTime":1773691200}}}