{"updated":1774203557,"count":86,"data":{"SBVT":{"icaoId":"SBVT","flightCategory":"VFR","rawOb":"METAR SBVT 221700Z 15011KT 9999 FEW040 28/23 Q1011","temp":28,"dewp":23,"wdir":150,"wspd":11,"visib":"6+","altim":1011,"clouds":[{"cover":"FEW","base":4000}],"obsTime":1774198800},"SBBE":{"icaoId":"SBBE","flightCategory":"VFR","rawOb":"METAR SBBE 221700Z 33008KT 9999 VCSH SCT030 FEW040TCU 30/25 Q1009","temp":30,"dewp":25,"wdir":330,"wspd":8,"visib":"6+","altim":1009,"clouds":[{"cover":"SCT","base":3000},{"cover":"FEW","base":4000}],"obsTime":1774198800},"SBBR":{"icaoId":"SBBR","flightCategory":"VFR","rawOb":"METAR SBBR 221700Z VRB03KT 9999 VCTS SCT035 FEW045CB SCT070 27/19 Q1016 RETS","temp":27,"dewp":19,"wdir":"VRB","wspd":3,"visib":"6+","altim":1016,"clouds":[{"cover":"SCT","base":3500},{"cover":"FEW","base":4500},{"cover":"SCT","base":7000}],"obsTime":1774198800},"SBBV":{"icaoId":"SBBV","flightCategory":"VFR","rawOb":"METAR SBBV 221700Z 07005KT 9999 BKN040 36/20 Q1009","temp":36,"dewp":20,"wdir":70,"wspd":5,"visib":"6+","altim":1009,"clouds":[{"cover":"BKN","base":4000}],"obsTime":1774198800},"SBCB":{"icaoId":"SBCB","flightCategory":"VFR","rawOb":"METAR SBCB 221700Z 09009KT 9999 SCT020 28/21 Q1012","temp":28,"dewp":21,"wdir":90,"wspd":9,"visib":"6+","altim":1012,"clouds":[{"cover":"SCT","base":2000}],"obsTime":1774198800},"SBCF":{"icaoId":"SBCF","flightCategory":"VFR","rawOb":"METAR SBCF 221700Z 21004KT 9999 BKN040 BKN070 27/18 Q1015","temp":27,"dewp":18,"wdir":210,"wspd":4,"visib":"6+","altim":1015,"clouds":[{"cover":"BKN","base":4000},{"cover":"BKN","base":7000}],"obsTime":1774198800},"SBCG":{"icaoId":"SBCG","flightCategory":"VFR","rawOb":"METAR SBCG 221700Z VRB07KT 9999 BKN035 32/22 Q1013","temp":32,"dewp":22,"wdir":"VRB","wspd":7,"visib":"6+","altim":1013,"clouds":[{"cover":"BKN","base":3500}],"obsTime":1774198800},"SBCP":{"icaoId":"SBCP","flightCategory":"VFR","rawOb":"METAR SBCP 221700Z 10010KT 9999 SCT020 30/24 Q1010","temp":30,"dewp":24,"wdir":100,"wspd":10,"visib":"6+","altim":1010,"clouds":[{"cover":"SCT","base":2000}],"obsTime":1774198800},"SBCR":{"icaoId":"SBCR","flightCategory":"VFR","rawOb":"METAR SBCR 221700Z 01008KT 340V040 9999 SCT018 FEW040TCU 34/24 Q1009","temp":34,"dewp":24,"wdir":10,"wspd":8,"visib":"6+","altim":1009,"clouds":[{"cover":"SCT","base":1800},{"cover":"FEW","base":4000}],"obsTime":1774198800},"SBCT":{"icaoId":"SBCT","flightCategory":"VFR","rawOb":"METAR SBCT 221700Z 27006KT 9999 FEW030 BKN100 27/21 Q1016","temp":27,"dewp":21,"wdir":270,"wspd":6,"visib":"6+","altim":1016,"clouds":[{"cover":"FEW","base":3000},{"cover":"BKN","base":10000}],"obsTime":1774198800},"SBCZ":{"icaoId":"SBCZ","flightCategory":"MVFR","rawOb":"METAR SBCZ 221700Z 25004KT 6000 -RA FEW004 SCT015 OVC090 23/22 Q1011 RETS","temp":23,"dewp":22,"wdir":250,"wspd":4,"visib":3.73,"altim":1011,"clouds":[{"cover":"FEW","base":400},{"cover":"SCT","base":1500},{"cover":"OVC","base":9000}],"obsTime":1774198800},"SBEG":{"icaoId":"SBEG","flightCategory":"VFR","rawOb":"METAR SBEG 221700Z VRB04KT 9999 SCT030 34/23 Q1009","temp":34,"dewp":23,"wdir":"VRB","wspd":4,"visib":"6+","altim":1009,"clouds":[{"cover":"SCT","base":3000}],"obsTime":1774198800},"SBFI":{"icaoId":"SBFI","flightCategory":"MVFR","rawOb":"METAR SBFI 221700Z 35008KT 9999 BKN030 34/25 Q1009","temp":34,"dewp":25,"wdir":350,"wspd":8,"visib":"6+","altim":1009,"clouds":[{"cover":"BKN","base":3000}],"obsTime":1774198800},"SBFL":{"icaoId":"SBFL","flightCategory":"VFR","rawOb":"METAR SBFL 221700Z 11016KT 9999 FEW033 29/23 Q1011","temp":29,"dewp":23,"wdir":110,"wspd":16,"visib":"6+","altim":1011,"clouds":[{"cover":"FEW","base":3300}],"obsTime":1774198800},"SBFZ":{"icaoId":"SBFZ","flightCategory":"MVFR","rawOb":"METAR SBFZ 221700Z 10011KT 9999 BKN023 30/25 Q1009","temp":30,"dewp":25,"wdir":100,"wspd":11,"visib":"6+","altim":1009,"clouds":[{"cover":"BKN","base":2300}],"obsTime":1774198800},"SBGL":{"icaoId":"SBGL","flightCategory":"VFR","rawOb":"METAR SBGL 221700Z 15013KT 9999 FEW033 29/21 Q1010","temp":29,"dewp":21,"wdir":150,"wspd":13,"visib":"6+","altim":1010,"clouds":[{"cover":"FEW","base":3300}],"obsTime":1774198800},"SBGO":{"icaoId":"SBGO","flightCategory":"VFR","rawOb":"METAR SBGO 221700Z 13004KT 060V200 9999 SCT048 30/19 Q1015","temp":30,"dewp":19,"wdir":130,"wspd":4,"visib":"6+","altim":1015,"clouds":[{"cover":"SCT","base":4800}],"obsTime":1774198800},"SBGR":{"icaoId":"SBGR","flightCategory":"VFR","rawOb":"METAR SBGR 221700Z 19005KT CAVOK 29/15 Q1015","temp":29,"dewp":15,"wdir":190,"wspd":5,"visib":"6+","altim":1015,"clouds":[],"obsTime":1774198800},"SBHT":{"icaoId":"SBHT","flightCategory":"MVFR","rawOb":"METAR SBHT 221700Z 15005KT 9999 BKN030 33/23 Q1010","temp":33,"dewp":23,"wdir":150,"wspd":5,"visib":"6+","altim":1010,"clouds":[{"cover":"BKN","base":3000}],"obsTime":1774198800},"SBIL":{"icaoId":"SBIL","flightCategory":"VFR","rawOb":"METAR SBIL 221700Z 07011KT 9999 FEW023 FEW025TCU 32/25 Q1010","temp":32,"dewp":25,"wdir":70,"wspd":11,"visib":"6+","altim":1010,"clouds":[{"cover":"FEW","base":2300},{"cover":"FEW","base":2500}],"obsTime":1774198800},"SBJU":{"icaoId":"SBJU","flightCategory":"MVFR","rawOb":"METAR SBJU 221700Z 09002KT 9999 BKN022 31/22 Q1011","temp":31,"dewp":22,"wdir":90,"wspd":2,"visib":"6+","altim":1011,"clouds":[{"cover":"BKN","base":2200}],"obsTime":1774198800},"SBKP":{"icaoId":"SBKP","flightCategory":"VFR","rawOb":"METAR SBKP 221700Z 26007KT 9999 FEW030 31/16 Q1014","temp":31,"dewp":16,"wdir":260,"wspd":7,"visib":"6+","altim":1014,"clouds":[{"cover":"FEW","base":3000}],"obsTime":1774198800},"SBLO":{"icaoId":"SBLO","flightCategory":"VFR","rawOb":"METAR SBLO 221700Z 01008KT 9999 SCT040 32/21 Q1013","temp":32,"dewp":21,"wdir":10,"wspd":8,"visib":"6+","altim":1013,"clouds":[{"cover":"SCT","base":4000}],"obsTime":1774198800},"SBMA":{"icaoId":"SBMA","flightCategory":"VFR","rawOb":"METAR SBMA 221700Z 20007KT 9999 SCT020 34/23 Q1010","temp":34,"dewp":23,"wdir":200,"wspd":7,"visib":"6+","altim":1010,"clouds":[{"cover":"SCT","base":2000}],"obsTime":1774198800},"SBME":{"icaoId":"SBME","flightCategory":"VFR","rawOb":"METAR SBME 221700Z 14007KT 9999 SCT025 BKN080 29/23 Q1011","temp":29,"dewp":23,"wdir":140,"wspd":7,"visib":"6+","altim":1011,"clouds":[{"cover":"SCT","base":2500},{"cover":"BKN","base":8000}],"obsTime":1774198800},"SBMG":{"icaoId":"SBMG","flightCategory":"VFR","rawOb":"METAR SBMG 221700Z 34010KT 290V030 9999 VCSH BKN045 FEW050TCU 33/21 Q1011","temp":33,"dewp":21,"wdir":340,"wspd":10,"visib":"6+","altim":1011,"clouds":[{"cover":"BKN","base":4500},{"cover":"FEW","base":5000}],"obsTime":1774198800},"SBMK":{"icaoId":"SBMK","flightCategory":"VFR","rawOb":"METAR SBMK 221700Z 12006KT 9999 SCT030 FEW035TCU 29/21 Q1013","temp":29,"dewp":21,"wdir":120,"wspd":6,"visib":"6+","altim":1013,"clouds":[{"cover":"SCT","base":3000},{"cover":"FEW","base":3500}],"obsTime":1774198800},"SBMO":{"icaoId":"SBMO","flightCategory":"VFR","rawOb":"METAR SBMO 221700Z 10013KT 9999 SCT035 FEW040TCU 32/24 Q1010","temp":32,"dewp":24,"wdir":100,"wspd":13,"visib":"6+","altim":1010,"clouds":[{"cover":"SCT","base":3500},{"cover":"FEW","base":4000}],"obsTime":1774198800},"SBMQ":{"icaoId":"SBMQ","flightCategory":"VFR","rawOb":"METAR SBMQ 221700Z 10007KT 9999 SCT045 32/23 Q1010","temp":32,"dewp":23,"wdir":100,"wspd":7,"visib":"6+","altim":1010,"clouds":[{"cover":"SCT","base":4500}],"obsTime":1774198800},"SBNT":{"icaoId":"SBNT","flightCategory":"MVFR","rawOb":"METAR SBNT 221700Z 09012KT 9999 BKN030 31/24 Q1010","temp":31,"dewp":24,"wdir":90,"wspd":12,"visib":"6+","altim":1010,"clouds":[{"cover":"BKN","base":3000}],"obsTime":1774198800},"SBPA":{"icaoId":"SBPA","flightCategory":"MVFR","rawOb":"METAR SBPA 221700Z 18008KT 140V200 9999 BKN019 OVC035 25/21 Q1012","temp":25,"dewp":21,"wdir":180,"wspd":8,"visib":"6+","altim":1012,"clouds":[{"cover":"BKN","base":1900},{"cover":"OVC","base":3500}],"obsTime":1774198800},"SBPJ":{"icaoId":"SBPJ","flightCategory":"VFR","rawOb":"METAR SBPJ 221700Z 23007KT 200V260 9999 SCT035 32/24 Q1010","temp":32,"dewp":24,"wdir":230,"wspd":7,"visib":"6+","altim":1010,"clouds":[{"cover":"SCT","base":3500}],"obsTime":1774198800},"SBPV":{"icaoId":"SBPV","flightCategory":"VFR","rawOb":"METAR SBPV 221700Z 01004KT 9999 SCT040 34/22 Q1009","temp":34,"dewp":22,"wdir":10,"wspd":4,"visib":"6+","altim":1009,"clouds":[{"cover":"SCT","base":4000}],"obsTime":1774198800},"SBRB":{"icaoId":"SBRB","flightCategory":"IFR","rawOb":"METAR SBRB 221700Z 30006KT 4000 -RA SCT008 BKN020 BKN070 22/22 Q1013","temp":22,"dewp":22,"wdir":300,"wspd":6,"visib":2.49,"altim":1013,"clouds":[{"cover":"SCT","base":800},{"cover":"BKN","base":2000},{"cover":"BKN","base":7000}],"obsTime":1774198800},"SBRF":{"icaoId":"SBRF","flightCategory":"VFR","rawOb":"METAR SBRF 221700Z 08011KT 9999 SCT020 31/24 Q1010","temp":31,"dewp":24,"wdir":80,"wspd":11,"visib":"6+","altim":1010,"clouds":[{"cover":"SCT","base":2000}],"obsTime":1774198800},"SBSG":{"icaoId":"SBSG","flightCategory":"VFR","rawOb":"METAR SBSG 221700Z 10011KT 060V130 9999 SCT030 32/24 Q1010","temp":32,"dewp":24,"wdir":100,"wspd":11,"visib":"6+","altim":1010,"clouds":[{"cover":"SCT","base":3000}],"obsTime":1774198800},"SBSL":{"icaoId":"SBSL","flightCategory":"VFR","rawOb":"METAR SBSL 221700Z 01004KT 9999 SCT030 SCT100 31/25 Q1009","temp":31,"dewp":25,"wdir":10,"wspd":4,"visib":"6+","altim":1009,"clouds":[{"cover":"SCT","base":3000},{"cover":"SCT","base":10000}],"obsTime":1774198800},"SBSN":{"icaoId":"SBSN","flightCategory":"VFR","rawOb":"METAR SBSN 221700Z 08009KT 9999 FEW025 31/23 Q1009","temp":31,"dewp":23,"wdir":80,"wspd":9,"visib":"6+","altim":1009,"clouds":[{"cover":"FEW","base":2500}],"obsTime":1774198800},"SBSP":{"icaoId":"SBSP","flightCategory":"VFR","rawOb":"METAR SBSP 221700Z 22008KT CAVOK 29/13 Q1016","temp":29,"dewp":13,"wdir":220,"wspd":8,"visib":"6+","altim":1016,"clouds":[],"obsTime":1774198800},"SBSV":{"icaoId":"SBSV","flightCategory":"VFR","rawOb":"METAR SBSV 221700Z 10011KT 060V120 9999 SCT025 30/23 Q1010","temp":30,"dewp":23,"wdir":100,"wspd":11,"visib":"6+","altim":1010,"clouds":[{"cover":"SCT","base":2500}],"obsTime":1774198800},"SBTE":{"icaoId":"SBTE","flightCategory":"VFR","rawOb":"METAR SBTE 221700Z 13005KT 9999 SCT030 33/23 Q1008","temp":33,"dewp":23,"wdir":130,"wspd":5,"visib":"6+","altim":1008,"clouds":[{"cover":"SCT","base":3000}],"obsTime":1774198800},"SBUL":{"icaoId":"SBUL","flightCategory":"VFR","rawOb":"METAR SBUL 221700Z VRB04KT 9999 SCT040 29/19 Q1016","temp":29,"dewp":19,"wdir":"VRB","wspd":4,"visib":"6+","altim":1016,"clouds":[{"cover":"SCT","base":4000}],"obsTime":1774198800},"SBUR":{"icaoId":"SBUR","flightCategory":"VFR","rawOb":"METAR SBUR 221700Z 15008KT CAVOK 31/15 Q1015","temp":31,"dewp":15,"wdir":150,"wspd":8,"visib":"6+","altim":1015,"clouds":[],"obsTime":1774198800},"SBAT":{"icaoId":"SBAT","flightCategory":"VFR","rawOb":"METAR SBAT 221700Z 03002KT 9999 VCSH SCT030 FEW033TCU 33/23 Q1011","temp":33,"dewp":23,"wdir":30,"wspd":2,"visib":"6+","altim":1011,"clouds":[{"cover":"SCT","base":3000},{"cover":"FEW","base":3300}],"obsTime":1774198800},"SBVH":{"icaoId":"SBVH","flightCategory":"IFR","rawOb":"METAR SBVH 221700Z 36007KT 2000 TSRA BKN030 FEW040CB 25/20 Q1013 RESHRA","temp":25,"dewp":20,"wdir":360,"wspd":7,"visib":1.24,"altim":1013,"clouds":[{"cover":"BKN","base":3000},{"cover":"FEW","base":4000}],"obsTime":1774198800},"SBAR":{"icaoId":"SBAR","flightCategory":"VFR","rawOb":"METAR SBAR 221700Z 10011KT 9999 FEW024 31/24 Q1010","temp":31,"dewp":24,"wdir":100,"wspd":11,"visib":"6+","altim":1010,"clouds":[{"cover":"FEW","base":2400}],"obsTime":1774198800},"SBAX":{"icaoId":"SBAX","flightCategory":"VFR","rawOb":"METAR SBAX 221700Z AUTO 19007KT 140V240 CAVOK 30/09 Q1016","temp":30,"dewp":9,"wdir":190,"wspd":7,"visib":"6+","altim":1016,"clouds":[],"obsTime":1774198800},"SBBH":{"icaoId":"SBBH","flightCategory":"VFR","rawOb":"METAR SBBH 221700Z 15003KT 9999 BKN045 29/16 Q1014","temp":29,"dewp":16,"wdir":150,"wspd":3,"visib":"6+","altim":1014,"clouds":[{"cover":"BKN","base":4500}],"obsTime":1774198800},"SBBQ":{"icaoId":"SBBQ","flightCategory":"VFR","rawOb":"METAR SBBQ 221700Z 30007KT 9999 SCT040 28/14 Q1018","temp":28,"dewp":14,"wdir":300,"wspd":7,"visib":"6+","altim":1018,"clouds":[{"cover":"SCT","base":4000}],"obsTime":1774198800},"SBBU":{"icaoId":"SBBU","flightCategory":"VFR","rawOb":"METAR SBBU 221700Z 29009KT CAVOK 33/19 Q1013","temp":33,"dewp":19,"wdir":290,"wspd":9,"visib":"6+","altim":1013,"clouds":[],"obsTime":1774198800},"SBCA":{"icaoId":"SBCA","flightCategory":"MVFR","rawOb":"METAR SBCA 221700Z 02008KT 9999 VCSH BKN020 FEW025TCU 27/22 Q1015","temp":27,"dewp":22,"wdir":20,"wspd":8,"visib":"6+","altim":1015,"clouds":[{"cover":"BKN","base":2000},{"cover":"FEW","base":2500}],"obsTime":1774198800},"SBCC":{"icaoId":"SBCC","flightCategory":"MVFR","rawOb":"METAR SBCC 221700Z 06008KT 9999 BKN020 FEW025TCU 31/21 Q1011","temp":31,"dewp":21,"wdir":60,"wspd":8,"visib":"6+","altim":1011,"clouds":[{"cover":"BKN","base":2000},{"cover":"FEW","base":2500}],"obsTime":1774198800},"SBCJ":{"icaoId":"SBCJ","flightCategory":"VFR","rawOb":"METAR SBCJ 221700Z 12005KT 9999 -RA SCT021 SCT023 26/20 Q1014","temp":26,"dewp":20,"wdir":120,"wspd":5,"visib":"6+","altim":1014,"clouds":[{"cover":"SCT","base":2100},{"cover":"SCT","base":2300}],"obsTime":1774198800},"SBCO":{"icaoId":"SBCO","flightCategory":"VFR","rawOb":"METAR SBCO 221700Z 16007KT 9999 SCT022 BKN034 25/21 Q1012","temp":25,"dewp":21,"wdir":160,"wspd":7,"visib":"6+","altim":1012,"clouds":[{"cover":"SCT","base":2200},{"cover":"BKN","base":3400}],"obsTime":1774198800},"SBDN":{"icaoId":"SBDN","flightCategory":"VFR","rawOb":"METAR SBDN 221700Z 01006KT CAVOK 35/21 Q1012","temp":35,"dewp":21,"wdir":10,"wspd":6,"visib":"6+","altim":1012,"clouds":[],"obsTime":1774198800},"SBES":{"icaoId":"SBES","flightCategory":"VFR","rawOb":"METAR SBES 221700Z 09007KT 040V130 9999 FEW030 29/// Q1011","temp":null,"dewp":null,"wdir":90,"wspd":7,"visib":"6+","altim":1011,"clouds":[{"cover":"FEW","base":3000}],"obsTime":1774198800},"SBGM":{"icaoId":"SBGM","flightCategory":"VFR","rawOb":"METAR SBGM 221700Z 19003KT 9999 SCT026 SCT030 32/24 Q1010","temp":32,"dewp":24,"wdir":190,"wspd":3,"visib":"6+","altim":1010,"clouds":[{"cover":"SCT","base":2600},{"cover":"SCT","base":3000}],"obsTime":1774198800},"SBIP":{"icaoId":"SBIP","flightCategory":"VFR","rawOb":"METAR SBIP 221700Z AUTO 08005KT 040V140 9999 FEW043 32/20 Q1011","temp":32,"dewp":20,"wdir":80,"wspd":5,"visib":"6+","altim":1011,"clouds":[{"cover":"FEW","base":4300}],"obsTime":1774198800},"SBKG":{"icaoId":"SBKG","flightCategory":"VFR","rawOb":"METAR SBKG 221700Z 10010KT 9999 SCT025 31/20 Q1012","temp":31,"dewp":20,"wdir":100,"wspd":10,"visib":"6+","altim":1012,"clouds":[{"cover":"SCT","base":2500}],"obsTime":1774198800},"SBOI":{"icaoId":"SBOI","flightCategory":"VFR","rawOb":"METAR SBOI 221700Z AUTO 13006KT 080V160 9999 FEW024 31/24 Q1010","temp":31,"dewp":24,"wdir":130,"wspd":6,"visib":"6+","altim":1010,"clouds":[{"cover":"FEW","base":2400}],"obsTime":1774198800},"SBPB":{"icaoId":"SBPB","flightCategory":"VFR","rawOb":"METAR SBPB 221700Z 05012KT 9999 SCT020 SCT100 31/25 Q1009","temp":31,"dewp":25,"wdir":50,"wspd":12,"visib":"6+","altim":1009,"clouds":[{"cover":"SCT","base":2000},{"cover":"SCT","base":10000}],"obsTime":1774198800},"SBPL":{"icaoId":"SBPL","flightCategory":"MVFR","rawOb":"METAR SBPL 221700Z 26003KT 9999 BKN030 35/21 Q1010","temp":35,"dewp":21,"wdir":260,"wspd":3,"visib":"6+","altim":1010,"clouds":[{"cover":"BKN","base":3000}],"obsTime":1774198800},"SBPP":{"icaoId":"SBPP","flightCategory":"MVFR","rawOb":"METAR SBPP 221700Z 32007KT 9999 BKN020 30/21 Q1013","temp":30,"dewp":21,"wdir":320,"wspd":7,"visib":"6+","altim":1013,"clouds":[{"cover":"BKN","base":2000}],"obsTime":1774198800},"SBPS":{"icaoId":"SBPS","flightCategory":"MVFR","rawOb":"SPECI SBPS 221625Z 07007KT 7000 -TSRA FEW012 SCT017 FEW025CB BKN060 28/24 Q1011","temp":28,"dewp":24,"wdir":70,"wspd":7,"visib":4.35,"altim":1011,"clouds":[{"cover":"FEW","base":1200},{"cover":"SCT","base":1700},{"cover":"FEW","base":2500},{"cover":"BKN","base":6000}],"obsTime":1774196700},"SBSC":{"icaoId":"SBSC","flightCategory":"VFR","rawOb":"METAR SBSC 221700Z 16007KT 9999 FEW030 29/22 Q1011","temp":29,"dewp":22,"wdir":160,"wspd":7,"visib":"6+","altim":1011,"clouds":[{"cover":"FEW","base":3000}],"obsTime":1774198800},"SBSJ":{"icaoId":"SBSJ","flightCategory":"VFR","rawOb":"METAR SBSJ 221700Z 30009KT CAVOK 29/// Q1014","temp":null,"dewp":null,"wdir":300,"wspd":9,"visib":"6+","altim":1014,"clouds":[],"obsTime":1774198800},"SBSM":{"icaoId":"SBSM","flightCategory":"MVFR","rawOb":"METAR SBSM 221700Z 11003KT 9999 SCT015 OVC019 24/21 Q1012","temp":24,"dewp":21,"wdir":110,"wspd":3,"visib":"6+","altim":1012,"clouds":[{"cover":"SCT","base":1500},{"cover":"OVC","base":1900}],"obsTime":1774198800},"SBSR":{"icaoId":"SBSR","flightCategory":"VFR","rawOb":"METAR SBSR 221700Z VRB04KT 9999 FEW040 33/15 Q1012","temp":33,"dewp":15,"wdir":"VRB","wspd":4,"visib":"6+","altim":1012,"clouds":[{"cover":"FEW","base":4000}],"obsTime":1774198800},"SBTF":{"icaoId":"SBTF","flightCategory":"VFR","rawOb":"METAR SBTF 221700Z 09006KT 9999 FEW020 35/25 Q1008","temp":35,"dewp":25,"wdir":90,"wspd":6,"visib":"6+","altim":1008,"clouds":[{"cover":"FEW","base":2000}],"obsTime":1774198800},"SBTT":{"icaoId":"SBTT","flightCategory":"VFR","rawOb":"METAR SBTT 221700Z 11009KT 9999 FEW015 33/22 Q1008","temp":33,"dewp":22,"wdir":110,"wspd":9,"visib":"6+","altim":1008,"clouds":[{"cover":"FEW","base":1500}],"obsTime":1774198800},"SBUY":{"icaoId":"SBUY","flightCategory":"VFR","rawOb":"METAR SBUY 221700Z 09005KT 9999 SCT030 35/24 Q1007","temp":35,"dewp":24,"wdir":90,"wspd":5,"visib":"6+","altim":1007,"clouds":[{"cover":"SCT","base":3000}],"obsTime":1774198800},"SBAU":{"icaoId":"SBAU","flightCategory":"VFR","rawOb":"METAR SBAU 221700Z 36006KT 9999 SCT040 36/22 Q1011","temp":36,"dewp":22,"wdir":360,"wspd":6,"visib":"6+","altim":1011,"clouds":[{"cover":"SCT","base":4000}],"obsTime":1774198800},"SBLE":{"icaoId":"SBLE","flightCategory":"VFR","rawOb":"METAR SBLE 221700Z AUTO VRB03KT 9999 SCT044 31/21 Q1012","temp":31,"dewp":21,"wdir":"VRB","wspd":3,"visib":"6+","altim":1012,"clouds":[{"cover":"SCT","base":4400}],"obsTime":1774198800},"SBAF":{"icaoId":"SBAF","flightCategory":"VFR","rawOb":"METAR SBAF 221700Z 19010KT 130V210 9999 SCT046 31/22 Q1010","temp":31,"dewp":22,"wdir":190,"wspd":10,"visib":"6+","altim":1010,"clouds":[{"cover":"SCT","base":4600}],"obsTime":1774198800},"SBLS":{"icaoId":"SBLS","flightCategory":"VFR","rawOb":"METAR SBLS 221700Z VRB04KT 9999 SCT035 29/18 Q1014","temp":29,"dewp":18,"wdir":"VRB","wspd":4,"visib":"6+","altim":1014,"clouds":[{"cover":"SCT","base":3500}],"obsTime":1774198800},"SBGW":{"icaoId":"SBGW","flightCategory":"VFR","rawOb":"METAR SBGW 221700Z VRB02KT 9999 FEW025 30/13 Q1013","temp":30,"dewp":13,"wdir":"VRB","wspd":2,"visib":"6+","altim":1013,"clouds":[{"cover":"FEW","base":2500}],"obsTime":1774198800},"SBMT":{"icaoId":"SBMT","flightCategory":"VFR","rawOb":"METAR SBMT 221700Z 23005KT CAVOK 29/15 Q1015","temp":29,"dewp":15,"wdir":230,"wspd":5,"visib":"6+","altim":1015,"clouds":[],"obsTime":1774198800},"SBJP":{"icaoId":"SBJP","flightCategory":"VFR","rawOb":"METAR SBJP 221700Z 06010KT 9999 SCT030 31/24 Q1010","temp":31,"dewp":24,"wdir":60,"wspd":10,"visib":"6+","altim":1010,"clouds":[{"cover":"SCT","base":3000}],"obsTime":1774198800},"SBPF":{"icaoId":"SBPF","flightCategory":"VFR","rawOb":"METAR SBPF 221700Z AUTO 25008KT 210V290 9999 SCT032 BKN038 28/22 Q1014","temp":28,"dewp":22,"wdir":250,"wspd":8,"visib":"6+","altim":1014,"clouds":[{"cover":"SCT","base":3200},{"cover":"BKN","base":3800}],"obsTime":1774198800},"SBJR":{"icaoId":"SBJR","flightCategory":"VFR","rawOb":"METAR SBJR 221700Z 14009KT 9999 FEW025 32/22 Q1010","temp":32,"dewp":22,"wdir":140,"wspd":9,"visib":"6+","altim":1010,"clouds":[{"cover":"FEW","base":2500}],"obsTime":1774198800},"SBAN":{"icaoId":"SBAN","flightCategory":"VFR","rawOb":"METAR SBAN 221700Z 24008KT 9999 SCT035 FEW040TCU BKN100 27/18 Q1018","temp":27,"dewp":18,"wdir":240,"wspd":8,"visib":"6+","altim":1018,"clouds":[{"cover":"SCT","base":3500},{"cover":"FEW","base":4000},{"cover":"BKN","base":10000}],"obsTime":1774198800},"SBST":{"icaoId":"SBST","flightCategory":"MVFR","rawOb":"METAR SBST 221700Z 27005KT 8000 NSC 29/22 Q1011","temp":29,"dewp":22,"wdir":270,"wspd":5,"visib":4.97,"altim":1011,"clouds":[],"obsTime":1774198800},"SBJV":{"icaoId":"SBJV","flightCategory":"VFR","rawOb":"METAR SBJV 221700Z 12008KT 9999 SCT030 31/27 Q1010","temp":31,"dewp":27,"wdir":120,"wspd":8,"visib":"6+","altim":1010,"clouds":[{"cover":"SCT","base":3000}],"obsTime":1774198800},"SBTA":{"icaoId":"SBTA","flightCategory":"VFR","rawOb":"METAR SBTA 221700Z 22004KT 160V300 9999 FEW035 27/17 Q1013","temp":27,"dewp":17,"wdir":220,"wspd":4,"visib":"6+","altim":1013,"clouds":[{"cover":"FEW","base":3500}],"obsTime":1774198800},"SBTC":{"icaoId":"SBTC","flightCategory":"VFR","rawOb":"METAR SBTC 221700Z 07004KT 9999 FEW025 SCT100 29/26 Q1010","temp":29,"dewp":26,"wdir":70,"wspd":4,"visib":"6+","altim":1010,"clouds":[{"cover":"FEW","base":2500},{"cover":"SCT","base":10000}],"obsTime":1774198800},"SBIH":{"icaoId":"SBIH","flightCategory":"VFR","rawOb":"METAR SBIH 221700Z 06008KT 9999 SCT020 FEW025TCU 33/24 Q1008","temp":33,"dewp":24,"wdir":60,"wspd":8,"visib":"6+","altim":1008,"clouds":[{"cover":"SCT","base":2000},{"cover":"FEW","base":2500}],"obsTime":1774198800}}}