{"updated":1778982459,"count":63,"data":{"SBSP":{"icaoId":"SBSP","flightCategory":"MVFR","rawOb":"METAR SBSP 170000Z VRB02KT 7000 NSC 20/18 Q1019","temp":20,"dewp":18,"wdir":"VRB","wspd":2,"visib":4.35,"altim":1019,"clouds":[],"obsTime":1778976000},"SBLO":{"icaoId":"SBLO","flightCategory":"MVFR","rawOb":"METAR SBLO 170000Z VRB02KT 5000 BR SCT006 FEW050TCU BKN090 19/19 Q1017 RETS","temp":19,"dewp":19,"wdir":"VRB","wspd":2,"visib":3.11,"altim":1017,"clouds":[{"cover":"SCT","base":600},{"cover":"FEW","base":5000},{"cover":"BKN","base":9000}],"obsTime":1778976000},"SBMK":{"icaoId":"SBMK","flightCategory":"VFR","rawOb":"METAR SBMK 170000Z 24002KT CAVOK 23/18 Q1018","temp":23,"dewp":18,"wdir":240,"wspd":2,"visib":"6+","altim":1018,"clouds":[],"obsTime":1778976000},"SBMO":{"icaoId":"SBMO","flightCategory":"VFR","rawOb":"METAR SBMO 170000Z 00000KT 9999 FEW020 23/22 Q1015","temp":23,"dewp":22,"wdir":0,"wspd":0,"visib":"6+","altim":1015,"clouds":[{"cover":"FEW","base":2000}],"obsTime":1778976000},"SBEG":{"icaoId":"SBEG","flightCategory":"VFR","rawOb":"METAR SBEG 170000Z 03002KT 9999 FEW020 25/25 Q1011","temp":25,"dewp":25,"wdir":30,"wspd":2,"visib":"6+","altim":1011,"clouds":[{"cover":"FEW","base":2000}],"obsTime":1778976000},"SBGO":{"icaoId":"SBGO","flightCategory":"VFR","rawOb":"METAR SBGO 170000Z 05004KT 9999 FEW049 26/20 Q1018","temp":26,"dewp":20,"wdir":50,"wspd":4,"visib":"6+","altim":1018,"clouds":[{"cover":"FEW","base":4900}],"obsTime":1778976000},"SBMQ":{"icaoId":"SBMQ","flightCategory":"VFR","rawOb":"METAR SBMQ 170000Z 01005KT CAVOK 26/25 Q1012","temp":26,"dewp":25,"wdir":10,"wspd":5,"visib":"6+","altim":1012,"clouds":[],"obsTime":1778976000},"SBNT":{"icaoId":"SBNT","flightCategory":"VFR","rawOb":"METAR SBNT 170000Z 16006KT 9999 FEW019 SCT100 25/24 Q1014","temp":25,"dewp":24,"wdir":160,"wspd":6,"visib":"6+","altim":1014,"clouds":[{"cover":"FEW","base":1900},{"cover":"SCT","base":10000}],"obsTime":1778976000},"SBGR":{"icaoId":"SBGR","flightCategory":"VFR","rawOb":"METAR SBGR 170000Z 07005KT CAVOK 20/18 Q1018","temp":20,"dewp":18,"wdir":70,"wspd":5,"visib":"6+","altim":1018,"clouds":[],"obsTime":1778976000},"SBBV":{"icaoId":"SBBV","flightCategory":"VFR","rawOb":"METAR SBBV 170000Z 13004KT 9999 VCTS SCT040 FEW045CB BKN100 28/25 Q1011","temp":28,"dewp":25,"wdir":130,"wspd":4,"visib":"6+","altim":1011,"clouds":[{"cover":"SCT","base":4000},{"cover":"FEW","base":4500},{"cover":"BKN","base":10000}],"obsTime":1778976000},"SBPA":{"icaoId":"SBPA","flightCategory":"VFR","rawOb":"METAR SBPA 170000Z 14004KT 9999 SCT008 18/16 Q1015","temp":18,"dewp":16,"wdir":140,"wspd":4,"visib":"6+","altim":1015,"clouds":[{"cover":"SCT","base":800}],"obsTime":1778976000},"SBPJ":{"icaoId":"SBPJ","flightCategory":"VFR","rawOb":"METAR SBPJ 170000Z 12006KT CAVOK 27/22 Q1013","temp":27,"dewp":22,"wdir":120,"wspd":6,"visib":"6+","altim":1013,"clouds":[],"obsTime":1778976000},"SBCG":{"icaoId":"SBCG","flightCategory":"VFR","rawOb":"METAR SBCG 170000Z 01006KT 9999 FEW045 FEW050TCU SCT090 24/20 Q1015","temp":24,"dewp":20,"wdir":10,"wspd":6,"visib":"6+","altim":1015,"clouds":[{"cover":"FEW","base":4500},{"cover":"FEW","base":5000},{"cover":"SCT","base":9000}],"obsTime":1778976000},"SBPV":{"icaoId":"SBPV","flightCategory":"VFR","rawOb":"METAR SBPV 170000Z 35001KT CAVOK 27/22 Q1010","temp":27,"dewp":22,"wdir":350,"wspd":1,"visib":"6+","altim":1010,"clouds":[],"obsTime":1778976000},"SBIL":{"icaoId":"SBIL","flightCategory":"VFR","rawOb":"METAR SBIL 170000Z 25004KT CAVOK 24/22 Q1016","temp":24,"dewp":22,"wdir":250,"wspd":4,"visib":"6+","altim":1016,"clouds":[],"obsTime":1778976000},"SBRB":{"icaoId":"SBRB","flightCategory":"VFR","rawOb":"METAR SBRB 170000Z 06001KT CAVOK 25/24 Q1010","temp":25,"dewp":24,"wdir":60,"wspd":1,"visib":"6+","altim":1010,"clouds":[],"obsTime":1778976000},"SBFI":{"icaoId":"SBFI","flightCategory":"VFR","rawOb":"METAR SBFI 170000Z 13003KT CAVOK 18/18 Q1014","temp":18,"dewp":18,"wdir":130,"wspd":3,"visib":"6+","altim":1014,"clouds":[],"obsTime":1778976000},"SBJU":{"icaoId":"SBJU","flightCategory":"VFR","rawOb":"METAR SBJU 170000Z 00000KT 9999 FEW020 25/21 Q1015","temp":25,"dewp":21,"wdir":0,"wspd":0,"visib":"6+","altim":1015,"clouds":[{"cover":"FEW","base":2000}],"obsTime":1778976000},"SBRF":{"icaoId":"SBRF","flightCategory":"VFR","rawOb":"METAR SBRF 170000Z VRB02KT 9999 FEW022 24/24 Q1014","temp":24,"dewp":24,"wdir":"VRB","wspd":2,"visib":"6+","altim":1014,"clouds":[{"cover":"FEW","base":2200}],"obsTime":1778976000},"SBSG":{"icaoId":"SBSG","flightCategory":"VFR","rawOb":"METAR SBSG 170000Z 18003KT 9999 SCT021 24/23 Q1014","temp":24,"dewp":23,"wdir":180,"wspd":3,"visib":"6+","altim":1014,"clouds":[{"cover":"SCT","base":2100}],"obsTime":1778976000},"SBFL":{"icaoId":"SBFL","flightCategory":"VFR","rawOb":"METAR SBFL 170000Z VRB02KT CAVOK 18/17 Q1015","temp":18,"dewp":17,"wdir":"VRB","wspd":2,"visib":"6+","altim":1015,"clouds":[],"obsTime":1778976000},"SBSL":{"icaoId":"SBSL","flightCategory":"VFR","rawOb":"METAR SBSL 170000Z 09004KT 9999 FEW020 BKN090 27/24 Q1013","temp":27,"dewp":24,"wdir":90,"wspd":4,"visib":"6+","altim":1013,"clouds":[{"cover":"FEW","base":2000},{"cover":"BKN","base":9000}],"obsTime":1778976000},"SBKP":{"icaoId":"SBKP","flightCategory":"VFR","rawOb":"METAR SBKP 170000Z 00000KT 9999 FEW040 BKN080 22/19 Q1018","temp":22,"dewp":19,"wdir":0,"wspd":0,"visib":"6+","altim":1018,"clouds":[{"cover":"FEW","base":4000},{"cover":"BKN","base":8000}],"obsTime":1778976000},"SBSN":{"icaoId":"SBSN","flightCategory":"VFR","rawOb":"METAR SBSN 170000Z 11004KT CAVOK 28/25 Q1011","temp":28,"dewp":25,"wdir":110,"wspd":4,"visib":"6+","altim":1011,"clouds":[],"obsTime":1778976000},"SBBR":{"icaoId":"SBBR","flightCategory":"VFR","rawOb":"METAR SBBR 170000Z 20002KT 9999 FEW045 BKN080 21/19 Q1020","temp":21,"dewp":19,"wdir":200,"wspd":2,"visib":"6+","altim":1020,"clouds":[{"cover":"FEW","base":4500},{"cover":"BKN","base":8000}],"obsTime":1778976000},"SBGL":{"icaoId":"SBGL","flightCategory":"MVFR","rawOb":"METAR SBGL 170000Z 15003KT 9999 BKN023 BKN033 24/21 Q1016","temp":24,"dewp":21,"wdir":150,"wspd":3,"visib":"6+","altim":1016,"clouds":[{"cover":"BKN","base":2300},{"cover":"BKN","base":3300}],"obsTime":1778976000},"SBME":{"icaoId":"SBME","flightCategory":"VFR","rawOb":"METAR SBME 170000Z 29001KT CAVOK 22/21 Q1016","temp":22,"dewp":21,"wdir":290,"wspd":1,"visib":"6+","altim":1016,"clouds":[],"obsTime":1778976000},"SBMG":{"icaoId":"SBMG","flightCategory":"LIFR","rawOb":"METAR SBMG 170000Z 14005KT 0500 R10/0650D FG SCT003 BKN060 BKN100 20/20 Q1015","temp":20,"dewp":20,"wdir":140,"wspd":5,"visib":0.31,"altim":1015,"clouds":[{"cover":"SCT","base":300},{"cover":"BKN","base":6000},{"cover":"BKN","base":10000}],"obsTime":1778976000},"SBSV":{"icaoId":"SBSV","flightCategory":"VFR","rawOb":"METAR SBSV 170000Z 14005KT CAVOK 27/21 Q1015","temp":27,"dewp":21,"wdir":140,"wspd":5,"visib":"6+","altim":1015,"clouds":[],"obsTime":1778976000},"SBCF":{"icaoId":"SBCF","flightCategory":"VFR","rawOb":"METAR SBCF 170000Z 19002KT CAVOK 21/19 Q1020","temp":21,"dewp":19,"wdir":190,"wspd":2,"visib":"6+","altim":1020,"clouds":[],"obsTime":1778976000},"SBTE":{"icaoId":"SBTE","flightCategory":"VFR","rawOb":"METAR SBTE 170000Z 35003KT 9999 VCTS FEW020 FEW030CB 26/25 Q1012","temp":26,"dewp":25,"wdir":350,"wspd":3,"visib":"6+","altim":1012,"clouds":[{"cover":"FEW","base":2000},{"cover":"FEW","base":3000}],"obsTime":1778976000},"SBFZ":{"icaoId":"SBFZ","flightCategory":"VFR","rawOb":"METAR SBFZ 170000Z 26004KT 9999 SCT020 25/24 Q1013","temp":25,"dewp":24,"wdir":260,"wspd":4,"visib":"6+","altim":1013,"clouds":[{"cover":"SCT","base":2000}],"obsTime":1778976000},"SBUL":{"icaoId":"SBUL","flightCategory":"VFR","rawOb":"METAR SBUL 170000Z 11003KT CAVOK 24/16 Q1020","temp":24,"dewp":16,"wdir":110,"wspd":3,"visib":"6+","altim":1020,"clouds":[],"obsTime":1778976000},"SBMA":{"icaoId":"SBMA","flightCategory":"VFR","rawOb":"METAR SBMA 170000Z 00000KT CAVOK 27/25 Q1012","temp":27,"dewp":25,"wdir":0,"wspd":0,"visib":"6+","altim":1012,"clouds":[],"obsTime":1778976000},"SBUR":{"icaoId":"SBUR","flightCategory":"VFR","rawOb":"METAR SBUR 170000Z 15004KT CAVOK 24/17 Q1019","temp":24,"dewp":17,"wdir":150,"wspd":4,"visib":"6+","altim":1019,"clouds":[],"obsTime":1778976000},"SBVT":{"icaoId":"SBVT","flightCategory":"VFR","rawOb":"METAR SBVT 170000Z 34001KT CAVOK 23/22 Q1016","temp":23,"dewp":22,"wdir":340,"wspd":1,"visib":"6+","altim":1016,"clouds":[],"obsTime":1778976000},"SBBE":{"icaoId":"SBBE","flightCategory":"VFR","rawOb":"METAR SBBE 170000Z 10004KT CAVOK 26/24 Q1012","temp":26,"dewp":24,"wdir":100,"wspd":4,"visib":"6+","altim":1012,"clouds":[],"obsTime":1778976000},"SBCT":{"icaoId":"SBCT","flightCategory":"MVFR","rawOb":"METAR SBCT 170000Z 01002KT 8000 SCT006 BKN012 17/17 Q1019","temp":17,"dewp":17,"wdir":10,"wspd":2,"visib":4.97,"altim":1019,"clouds":[{"cover":"SCT","base":600},{"cover":"BKN","base":1200}],"obsTime":1778976000},"SBCZ":{"icaoId":"SBCZ","flightCategory":"VFR","rawOb":"METAR SBCZ 170000Z 00000KT CAVOK 25/25 Q1010","temp":25,"dewp":25,"wdir":0,"wspd":0,"visib":"6+","altim":1010,"clouds":[],"obsTime":1778976000},"SBTU":{"icaoId":"SBTU","flightCategory":"VFR","rawOb":"METAR SBTU 170000Z AUTO 02002KT 9999 // FEW044/// ///// Q1014","temp":null,"dewp":null,"wdir":20,"wspd":2,"visib":"6+","altim":1014,"clouds":[{"cover":"FEW","base":4400}],"obsTime":1778976000},"SBIP":{"icaoId":"SBIP","flightCategory":"VFR","rawOb":"METAR SBIP 170000Z AUTO VRB02KT CAVOK 21/21 Q1017","temp":21,"dewp":21,"wdir":"VRB","wspd":2,"visib":"6+","altim":1017,"clouds":[],"obsTime":1778976000},"SBAR":{"icaoId":"SBAR","flightCategory":"VFR","rawOb":"METAR SBAR 170000Z 14005KT CAVOK 27/22 Q1015","temp":27,"dewp":22,"wdir":140,"wspd":5,"visib":"6+","altim":1015,"clouds":[],"obsTime":1778976000},"SBAX":{"icaoId":"SBAX","flightCategory":"VFR","rawOb":"METAR SBAX 170000Z AUTO 13005KT CAVOK 21/17 Q1020","temp":21,"dewp":17,"wdir":130,"wspd":5,"visib":"6+","altim":1020,"clouds":[],"obsTime":1778976000},"SBBH":{"icaoId":"SBBH","flightCategory":"VFR","rawOb":"METAR SBBH 170000Z 10006KT CAVOK 22/19 Q1020","temp":22,"dewp":19,"wdir":100,"wspd":6,"visib":"6+","altim":1020,"clouds":[],"obsTime":1778976000},"SBBU":{"icaoId":"SBBU","flightCategory":"VFR","rawOb":"METAR SBBU 170000Z 19002KT 9999 VCTS FEW040 FEW045CB SCT090 22/21 Q1018","temp":22,"dewp":21,"wdir":190,"wspd":2,"visib":"6+","altim":1018,"clouds":[{"cover":"FEW","base":4000},{"cover":"FEW","base":4500},{"cover":"SCT","base":9000}],"obsTime":1778976000},"SBCO":{"icaoId":"SBCO","flightCategory":"VFR","rawOb":"METAR SBCO 170000Z COR 12004KT 9999 SCT008 15/14 Q1016","temp":15,"dewp":14,"wdir":120,"wspd":4,"visib":"6+","altim":1016,"clouds":[{"cover":"SCT","base":800}],"obsTime":1778976000},"SBDN":{"icaoId":"SBDN","flightCategory":"VFR","rawOb":"METAR SBDN 170000Z 07003KT CAVOK 19/17 Q1015","temp":19,"dewp":17,"wdir":70,"wspd":3,"visib":"6+","altim":1015,"clouds":[],"obsTime":1778976000},"SBKG":{"icaoId":"SBKG","flightCategory":"VFR","rawOb":"METAR SBKG 170000Z 11006KT CAVOK 22/21 Q1017","temp":22,"dewp":21,"wdir":110,"wspd":6,"visib":"6+","altim":1017,"clouds":[],"obsTime":1778976000},"SBOI":{"icaoId":"SBOI","flightCategory":"VFR","rawOb":"METAR SBOI 170000Z AUTO 34003KT 9999 // FEW023/// BKN041/// 25/24 Q1013","temp":25,"dewp":24,"wdir":340,"wspd":3,"visib":"6+","altim":1013,"clouds":[{"cover":"FEW","base":2300},{"cover":"BKN","base":4100}],"obsTime":1778976000},"SBPL":{"icaoId":"SBPL","flightCategory":"VFR","rawOb":"METAR SBPL 170000Z 13006KT CAVOK 28/14 Q1015","temp":28,"dewp":14,"wdir":130,"wspd":6,"visib":"6+","altim":1015,"clouds":[],"obsTime":1778976000},"SBPS":{"icaoId":"SBPS","flightCategory":"VFR","rawOb":"METAR SBPS 170000Z 14003KT CAVOK 24/21 Q1016","temp":24,"dewp":21,"wdir":140,"wspd":3,"visib":"6+","altim":1016,"clouds":[],"obsTime":1778976000},"SBSC":{"icaoId":"SBSC","flightCategory":"VFR","rawOb":"METAR SBSC 170000Z 21003KT CAVOK 22/21 Q1016","temp":22,"dewp":21,"wdir":210,"wspd":3,"visib":"6+","altim":1016,"clouds":[],"obsTime":1778976000},"SBSJ":{"icaoId":"SBSJ","flightCategory":"MVFR","rawOb":"METAR SBSJ 170000Z VRB01KT 8000 NSC 19/17 Q1018","temp":19,"dewp":17,"wdir":"VRB","wspd":1,"visib":4.97,"altim":1018,"clouds":[],"obsTime":1778976000},"SBSM":{"icaoId":"SBSM","flightCategory":"MVFR","rawOb":"METAR SBSM 170000Z 00000KT 7000 3000W FEW001 13/13 Q1015","temp":13,"dewp":13,"wdir":0,"wspd":0,"visib":4.35,"altim":1015,"clouds":[{"cover":"FEW","base":100}],"obsTime":1778976000},"SBSR":{"icaoId":"SBSR","flightCategory":"VFR","rawOb":"METAR SBSR 170000Z 12002KT 9999 FEW045 SCT100 23/18 Q1016","temp":23,"dewp":18,"wdir":120,"wspd":2,"visib":"6+","altim":1016,"clouds":[{"cover":"FEW","base":4500},{"cover":"SCT","base":10000}],"obsTime":1778976000},"SBNM":{"icaoId":"SBNM","flightCategory":"VFR","rawOb":"METAR SBNM 170000Z AUTO 17002KT 9999 BKN045 17/15 Q1015","temp":17,"dewp":15,"wdir":170,"wspd":2,"visib":"6+","altim":1015,"clouds":[{"cover":"BKN","base":4500}],"obsTime":1778976000},"SBLE":{"icaoId":"SBLE","flightCategory":"VFR","rawOb":"METAR SBLE 170000Z AUTO 03003KT CAVOK ///// Q////","temp":null,"dewp":null,"wdir":30,"wspd":3,"visib":"6+","altim":null,"clouds":[],"obsTime":1778976000},"SBJP":{"icaoId":"SBJP","flightCategory":"MVFR","rawOb":"METAR SBJP 170000Z 06002KT 5000 -RA BKN014 24/24 Q1015","temp":24,"dewp":24,"wdir":60,"wspd":2,"visib":3.11,"altim":1015,"clouds":[{"cover":"BKN","base":1400}],"obsTime":1778976000},"SBLS":{"icaoId":"SBLS","flightCategory":"VFR","rawOb":"METAR SBLS 170000Z 15008KT CAVOK 22/18 Q1020","temp":22,"dewp":18,"wdir":150,"wspd":8,"visib":"6+","altim":1020,"clouds":[],"obsTime":1778976000},"SBAN":{"icaoId":"SBAN","flightCategory":"VFR","rawOb":"METAR SBAN 170000Z 21004KT 9999 FEW030 22/15 Q1021","temp":22,"dewp":15,"wdir":210,"wspd":4,"visib":"6+","altim":1021,"clouds":[{"cover":"FEW","base":3000}],"obsTime":1778976000},"SBMT":{"icaoId":"SBMT","flightCategory":"MVFR","rawOb":"METAR SBMT 170000Z 13002KT 6000 SCT040 21/18 Q1018","temp":21,"dewp":18,"wdir":130,"wspd":2,"visib":3.73,"altim":1018,"clouds":[{"cover":"SCT","base":4000}],"obsTime":1778976000},"SBJV":{"icaoId":"SBJV","flightCategory":"MVFR","rawOb":"METAR SBJV 170000Z 28002KT 9999 BKN011 19/19 Q1016","temp":19,"dewp":19,"wdir":280,"wspd":2,"visib":"6+","altim":1016,"clouds":[{"cover":"BKN","base":1100}],"obsTime":1778976000},"SBJR":{"icaoId":"SBJR","flightCategory":"IFR","rawOb":"METAR SBJR 170000Z 02001KT 3000 BR BKN010 23/22 Q1016","temp":23,"dewp":22,"wdir":20,"wspd":1,"visib":1.86,"altim":1016,"clouds":[{"cover":"BKN","base":1000}],"obsTime":1778976000}}}