{"updated":1774043390,"count":83,"data":{"SBBE":{"icaoId":"SBBE","flightCategory":"VFR","rawOb":"METAR SBBE 202000Z 27015KT 9999 SCT011 FEW020TCU BKN040 BKN048 25/24 Q1009","temp":25,"dewp":24,"wdir":270,"wspd":15,"visib":"6+","altim":1009,"clouds":[{"cover":"SCT","base":1100},{"cover":"FEW","base":2000},{"cover":"BKN","base":4000},{"cover":"BKN","base":4800}],"obsTime":1774036800},"SBGO":{"icaoId":"SBGO","flightCategory":"MVFR","rawOb":"METAR SBGO 202000Z 30011KT 9999 -RA BKN012 BKN050 OVC100 22/20 Q1013","temp":22,"dewp":20,"wdir":300,"wspd":11,"visib":"6+","altim":1013,"clouds":[{"cover":"BKN","base":1200},{"cover":"BKN","base":5000},{"cover":"OVC","base":10000}],"obsTime":1774036800},"SBBR":{"icaoId":"SBBR","flightCategory":"IFR","rawOb":"METAR SBBR 202000Z 30004KT 270V340 4000 -TSRA BKN030 FEW045CB BKN060 19/18 Q1015 RERA RETSRA","temp":19,"dewp":18,"wdir":300,"wspd":4,"visib":2.49,"altim":1015,"clouds":[{"cover":"BKN","base":3000},{"cover":"FEW","base":4500},{"cover":"BKN","base":6000}],"obsTime":1774036800},"SBMA":{"icaoId":"SBMA","flightCategory":"VFR","rawOb":"METAR SBMA 202000Z 09004KT 9999 FEW020 BKN100 28/24 Q1008","temp":28,"dewp":24,"wdir":90,"wspd":4,"visib":"6+","altim":1008,"clouds":[{"cover":"FEW","base":2000},{"cover":"BKN","base":10000}],"obsTime":1774036800},"SBCZ":{"icaoId":"SBCZ","flightCategory":"VFR","rawOb":"METAR SBCZ 202000Z 32004KT 9999 FEW025 FEW030TCU BKN100 31/25 Q1004","temp":31,"dewp":25,"wdir":320,"wspd":4,"visib":"6+","altim":1004,"clouds":[{"cover":"FEW","base":2500},{"cover":"FEW","base":3000},{"cover":"BKN","base":10000}],"obsTime":1774036800},"SBME":{"icaoId":"SBME","flightCategory":"IFR","rawOb":"METAR SBME 202000Z 15002KT 4000 -RA BR BKN010 OVC070 25/23 Q1008","temp":25,"dewp":23,"wdir":150,"wspd":2,"visib":2.49,"altim":1008,"clouds":[{"cover":"BKN","base":1000},{"cover":"OVC","base":7000}],"obsTime":1774036800},"SBMG":{"icaoId":"SBMG","flightCategory":"VFR","rawOb":"METAR SBMG 202000Z 16005KT 130V200 9999 FEW035 FEW040TCU 32/21 Q1007","temp":32,"dewp":21,"wdir":160,"wspd":5,"visib":"6+","altim":1007,"clouds":[{"cover":"FEW","base":3500},{"cover":"FEW","base":4000}],"obsTime":1774036800},"SBEG":{"icaoId":"SBEG","flightCategory":"VFR","rawOb":"METAR SBEG 202000Z 16004KT 9999 SCT030 FEW035TCU SCT100 32/22 Q1007","temp":32,"dewp":22,"wdir":160,"wspd":4,"visib":"6+","altim":1007,"clouds":[{"cover":"SCT","base":3000},{"cover":"FEW","base":3500},{"cover":"SCT","base":10000}],"obsTime":1774036800},"SBMK":{"icaoId":"SBMK","flightCategory":"VFR","rawOb":"METAR SBMK 202000Z 31002KT CAVOK 29/20 Q1011","temp":29,"dewp":20,"wdir":310,"wspd":2,"visib":"6+","altim":1011,"clouds":[],"obsTime":1774036800},"SBCB":{"icaoId":"SBCB","flightCategory":"MVFR","rawOb":"METAR SBCB 202000Z 11010KT 9000 VCSH SCT007 BKN012 BKN030 26/23 Q1009","temp":26,"dewp":23,"wdir":110,"wspd":10,"visib":5.59,"altim":1009,"clouds":[{"cover":"SCT","base":700},{"cover":"BKN","base":1200},{"cover":"BKN","base":3000}],"obsTime":1774036800},"SBMO":{"icaoId":"SBMO","flightCategory":"VFR","rawOb":"METAR SBMO 202000Z 08013KT 9999 SCT030 29/23 Q1008","temp":29,"dewp":23,"wdir":80,"wspd":13,"visib":"6+","altim":1008,"clouds":[{"cover":"SCT","base":3000}],"obsTime":1774036800},"SBFI":{"icaoId":"SBFI","flightCategory":"VFR","rawOb":"METAR SBFI 202000Z 01005KT 9999 SCT040 FEW045TCU 34/24 Q1005","temp":34,"dewp":24,"wdir":10,"wspd":5,"visib":"6+","altim":1005,"clouds":[{"cover":"SCT","base":4000},{"cover":"FEW","base":4500}],"obsTime":1774036800},"SBMQ":{"icaoId":"SBMQ","flightCategory":"MVFR","rawOb":"METAR SBMQ 202000Z 23003KT 5000 -RA SCT005 BKN060 OVC100 24/24 Q1009","temp":24,"dewp":24,"wdir":230,"wspd":3,"visib":3.11,"altim":1009,"clouds":[{"cover":"SCT","base":500},{"cover":"BKN","base":6000},{"cover":"OVC","base":10000}],"obsTime":1774036800},"SBNT":{"icaoId":"SBNT","flightCategory":"VFR","rawOb":"METAR SBNT 202000Z 13014KT 9999 FEW026 29/24 Q1008","temp":29,"dewp":24,"wdir":130,"wspd":14,"visib":"6+","altim":1008,"clouds":[{"cover":"FEW","base":2600}],"obsTime":1774036800},"SBFL":{"icaoId":"SBFL","flightCategory":"MVFR","rawOb":"METAR SBFL 202000Z 08008KT 9999 BKN028 27/22 Q1009","temp":27,"dewp":22,"wdir":80,"wspd":8,"visib":"6+","altim":1009,"clouds":[{"cover":"BKN","base":2800}],"obsTime":1774036800},"SBPA":{"icaoId":"SBPA","flightCategory":"VFR","rawOb":"METAR SBPA 202000Z 11016KT 9999 FEW040 28/21 Q1007","temp":28,"dewp":21,"wdir":110,"wspd":16,"visib":"6+","altim":1007,"clouds":[{"cover":"FEW","base":4000}],"obsTime":1774036800},"SBCF":{"icaoId":"SBCF","flightCategory":"VFR","rawOb":"METAR SBCF 202000Z 35005KT 9999 SCT025 BKN060 24/20 Q1012","temp":24,"dewp":20,"wdir":350,"wspd":5,"visib":"6+","altim":1012,"clouds":[{"cover":"SCT","base":2500},{"cover":"BKN","base":6000}],"obsTime":1774036800},"SBPJ":{"icaoId":"SBPJ","flightCategory":"VFR","rawOb":"METAR SBPJ 202000Z 20006KT 9999 FEW033TCU SCT040 30/25 Q1007","temp":30,"dewp":25,"wdir":200,"wspd":6,"visib":"6+","altim":1007,"clouds":[{"cover":"FEW","base":3300},{"cover":"SCT","base":4000}],"obsTime":1774036800},"SBPV":{"icaoId":"SBPV","flightCategory":"VFR","rawOb":"METAR SBPV 202000Z 02007KT 9999 SCT030 FEW035TCU 31/24 Q1005","temp":31,"dewp":24,"wdir":20,"wspd":7,"visib":"6+","altim":1005,"clouds":[{"cover":"SCT","base":3000},{"cover":"FEW","base":3500}],"obsTime":1774036800},"SBFZ":{"icaoId":"SBFZ","flightCategory":"VFR","rawOb":"METAR SBFZ 202000Z 10011KT 9999 FEW025 29/24 Q1007","temp":29,"dewp":24,"wdir":100,"wspd":11,"visib":"6+","altim":1007,"clouds":[{"cover":"FEW","base":2500}],"obsTime":1774036800},"SBGL":{"icaoId":"SBGL","flightCategory":"MVFR","rawOb":"METAR SBGL 202000Z 12004KT 080V140 9999 BKN025 BKN050 BKN066 25/23 Q1008","temp":25,"dewp":23,"wdir":120,"wspd":4,"visib":"6+","altim":1008,"clouds":[{"cover":"BKN","base":2500},{"cover":"BKN","base":5000},{"cover":"BKN","base":6600}],"obsTime":1774036800},"SBRB":{"icaoId":"SBRB","flightCategory":"MVFR","rawOb":"METAR SBRB 202000Z 33007KT 9999 BKN030 BKN100 33/24 Q1005","temp":33,"dewp":24,"wdir":330,"wspd":7,"visib":"6+","altim":1005,"clouds":[{"cover":"BKN","base":3000},{"cover":"BKN","base":10000}],"obsTime":1774036800},"SBRF":{"icaoId":"SBRF","flightCategory":"VFR","rawOb":"METAR SBRF 202000Z 11008KT 9999 SCT024 29/24 Q1009","temp":29,"dewp":24,"wdir":110,"wspd":8,"visib":"6+","altim":1009,"clouds":[{"cover":"SCT","base":2400}],"obsTime":1774036800},"SBCG":{"icaoId":"SBCG","flightCategory":"VFR","rawOb":"METAR SBCG 202000Z 33005KT 300V020 9999 VCSH SCT035 FEW045TCU SCT060 BKN090 29/22 Q1008","temp":29,"dewp":22,"wdir":330,"wspd":5,"visib":"6+","altim":1008,"clouds":[{"cover":"SCT","base":3500},{"cover":"FEW","base":4500},{"cover":"SCT","base":6000},{"cover":"BKN","base":9000}],"obsTime":1774036800},"SBSG":{"icaoId":"SBSG","flightCategory":"VFR","rawOb":"METAR SBSG 202000Z 11009KT 9999 SCT024 29/24 Q1008","temp":29,"dewp":24,"wdir":110,"wspd":9,"visib":"6+","altim":1008,"clouds":[{"cover":"SCT","base":2400}],"obsTime":1774036800},"SBSL":{"icaoId":"SBSL","flightCategory":"VFR","rawOb":"METAR SBSL 202000Z 08011KT 9999 FEW020 FEW025TCU BKN080 27/23 Q1006","temp":27,"dewp":23,"wdir":80,"wspd":11,"visib":"6+","altim":1006,"clouds":[{"cover":"FEW","base":2000},{"cover":"FEW","base":2500},{"cover":"BKN","base":8000}],"obsTime":1774036800},"SBSN":{"icaoId":"SBSN","flightCategory":"VFR","rawOb":"METAR SBSN 202000Z 15004KT 9999 SCT016 SCT090 BKN100 27/24 Q1009","temp":27,"dewp":24,"wdir":150,"wspd":4,"visib":"6+","altim":1009,"clouds":[{"cover":"SCT","base":1600},{"cover":"SCT","base":9000},{"cover":"BKN","base":10000}],"obsTime":1774036800},"SBSP":{"icaoId":"SBSP","flightCategory":"VFR","rawOb":"METAR SBSP 202000Z 17011KT 9999 FEW030 24/17 Q1013","temp":24,"dewp":17,"wdir":170,"wspd":11,"visib":"6+","altim":1013,"clouds":[{"cover":"FEW","base":3000}],"obsTime":1774036800},"SBGR":{"icaoId":"SBGR","flightCategory":"VFR","rawOb":"METAR SBGR 202000Z 17007KT 9999 FEW033 25/18 Q1012","temp":25,"dewp":18,"wdir":170,"wspd":7,"visib":"6+","altim":1012,"clouds":[{"cover":"FEW","base":3300}],"obsTime":1774036800},"SBSV":{"icaoId":"SBSV","flightCategory":"VFR","rawOb":"METAR SBSV 202000Z 08011KT 9999 FEW023 29/23 Q1008","temp":29,"dewp":23,"wdir":80,"wspd":11,"visib":"6+","altim":1008,"clouds":[{"cover":"FEW","base":2300}],"obsTime":1774036800},"SBCP":{"icaoId":"SBCP","flightCategory":"IFR","rawOb":"METAR SBCP 202000Z 14007KT 2000 RA BR FEW012 BKN020 OVC100 25/25 Q1007","temp":25,"dewp":25,"wdir":140,"wspd":7,"visib":1.24,"altim":1007,"clouds":[{"cover":"FEW","base":1200},{"cover":"BKN","base":2000},{"cover":"OVC","base":10000}],"obsTime":1774036800},"SBTE":{"icaoId":"SBTE","flightCategory":"VFR","rawOb":"METAR SBTE 202000Z 07005KT 9999 SCT025 FEW030TCU 33/22 Q1005","temp":33,"dewp":22,"wdir":70,"wspd":5,"visib":"6+","altim":1005,"clouds":[{"cover":"SCT","base":2500},{"cover":"FEW","base":3000}],"obsTime":1774036800},"SBUL":{"icaoId":"SBUL","flightCategory":"VFR","rawOb":"METAR SBUL 202000Z 33006KT 9999 SCT025 FEW040TCU 21/20 Q1013 RETS","temp":21,"dewp":20,"wdir":330,"wspd":6,"visib":"6+","altim":1013,"clouds":[{"cover":"SCT","base":2500},{"cover":"FEW","base":4000}],"obsTime":1774036800},"SBHT":{"icaoId":"SBHT","flightCategory":"VFR","rawOb":"METAR SBHT 202000Z 01003KT 9999 FEW012 BKN090 26/23 Q1008","temp":26,"dewp":23,"wdir":10,"wspd":3,"visib":"6+","altim":1008,"clouds":[{"cover":"FEW","base":1200},{"cover":"BKN","base":9000}],"obsTime":1774036800},"SBIL":{"icaoId":"SBIL","flightCategory":"VFR","rawOb":"METAR SBIL 202000Z 07008KT CAVOK 30/24 Q1008","temp":30,"dewp":24,"wdir":70,"wspd":8,"visib":"6+","altim":1008,"clouds":[],"obsTime":1774036800},"SBUR":{"icaoId":"SBUR","flightCategory":"VFR","rawOb":"METAR SBUR 202000Z 17005KT 9999 SCT025 FEW040TCU BKN070 25/21 Q1011","temp":25,"dewp":21,"wdir":170,"wspd":5,"visib":"6+","altim":1011,"clouds":[{"cover":"SCT","base":2500},{"cover":"FEW","base":4000},{"cover":"BKN","base":7000}],"obsTime":1774036800},"SBKP":{"icaoId":"SBKP","flightCategory":"VFR","rawOb":"METAR SBKP 202000Z 15012KT CAVOK 28/19 Q1010","temp":28,"dewp":19,"wdir":150,"wspd":12,"visib":"6+","altim":1010,"clouds":[],"obsTime":1774036800},"SBLO":{"icaoId":"SBLO","flightCategory":"VFR","rawOb":"METAR SBLO 202000Z 15005KT 9999 FEW030 31/21 Q1008","temp":31,"dewp":21,"wdir":150,"wspd":5,"visib":"6+","altim":1008,"clouds":[{"cover":"FEW","base":3000}],"obsTime":1774036800},"SBBV":{"icaoId":"SBBV","flightCategory":"VFR","rawOb":"METAR SBBV 202000Z 04006KT 9999 SCT040 FEW045TCU SCT070 33/19 Q1007","temp":33,"dewp":19,"wdir":40,"wspd":6,"visib":"6+","altim":1007,"clouds":[{"cover":"SCT","base":4000},{"cover":"FEW","base":4500},{"cover":"SCT","base":7000}],"obsTime":1774036800},"SBJU":{"icaoId":"SBJU","flightCategory":"VFR","rawOb":"METAR SBJU 202000Z 09007KT 9999 SCT022 29/22 Q1009","temp":29,"dewp":22,"wdir":90,"wspd":7,"visib":"6+","altim":1009,"clouds":[{"cover":"SCT","base":2200}],"obsTime":1774036800},"SBCT":{"icaoId":"SBCT","flightCategory":"VFR","rawOb":"METAR SBCT 202000Z 11009KT 9999 SCT040 24/20 Q1013","temp":24,"dewp":20,"wdir":110,"wspd":9,"visib":"6+","altim":1013,"clouds":[{"cover":"SCT","base":4000}],"obsTime":1774036800},"SBVT":{"icaoId":"SBVT","flightCategory":"MVFR","rawOb":"METAR SBVT 202000Z 05005KT 9999 FEW010 BKN025 OVC090 25/24 Q1007","temp":25,"dewp":24,"wdir":50,"wspd":5,"visib":"6+","altim":1007,"clouds":[{"cover":"FEW","base":1000},{"cover":"BKN","base":2500},{"cover":"OVC","base":9000}],"obsTime":1774036800},"SBCR":{"icaoId":"SBCR","flightCategory":"VFR","rawOb":"METAR SBCR 202000Z 13005KT 9999 SCT035 SCT080 28/25 Q1004 RESHRA","temp":28,"dewp":25,"wdir":130,"wspd":5,"visib":"6+","altim":1004,"clouds":[{"cover":"SCT","base":3500},{"cover":"SCT","base":8000}],"obsTime":1774036800},"SBAT":{"icaoId":"SBAT","flightCategory":"VFR","rawOb":"METAR SBAT 202000Z 01007KT 9999 VCSH FEW025 FEW030TCU 28/22 Q1007","temp":28,"dewp":22,"wdir":10,"wspd":7,"visib":"6+","altim":1007,"clouds":[{"cover":"FEW","base":2500},{"cover":"FEW","base":3000}],"obsTime":1774036800},"SBSJ":{"icaoId":"SBSJ","flightCategory":"VFR","rawOb":"METAR SBSJ 202000Z 17008KT 9999 SCT020 BKN040 27/// Q1011","temp":null,"dewp":null,"wdir":170,"wspd":8,"visib":"6+","altim":1011,"clouds":[{"cover":"SCT","base":2000},{"cover":"BKN","base":4000}],"obsTime":1774036800},"SBAR":{"icaoId":"SBAR","flightCategory":"VFR","rawOb":"METAR SBAR 202000Z 09012KT CAVOK 29/24 Q1008","temp":29,"dewp":24,"wdir":90,"wspd":12,"visib":"6+","altim":1008,"clouds":[],"obsTime":1774036800},"SBAX":{"icaoId":"SBAX","flightCategory":"VFR","rawOb":"METAR SBAX 202000Z 29008KT 9999 SCT020 SCT035 BKN070 26/21 Q1012","temp":26,"dewp":21,"wdir":290,"wspd":8,"visib":"6+","altim":1012,"clouds":[{"cover":"SCT","base":2000},{"cover":"SCT","base":3500},{"cover":"BKN","base":7000}],"obsTime":1774036800},"SBBH":{"icaoId":"SBBH","flightCategory":"MVFR","rawOb":"METAR SBBH 202000Z 31002KT 6000 -RA BKN010 BKN020 BKN035 23/21 Q1012","temp":23,"dewp":21,"wdir":310,"wspd":2,"visib":3.73,"altim":1012,"clouds":[{"cover":"BKN","base":1000},{"cover":"BKN","base":2000},{"cover":"BKN","base":3500}],"obsTime":1774036800},"SBBU":{"icaoId":"SBBU","flightCategory":"VFR","rawOb":"METAR SBBU 202000Z 11007KT 9999 FEW045 32/20 Q1009","temp":32,"dewp":20,"wdir":110,"wspd":7,"visib":"6+","altim":1009,"clouds":[{"cover":"FEW","base":4500}],"obsTime":1774036800},"SBCA":{"icaoId":"SBCA","flightCategory":"VFR","rawOb":"METAR SBCA 202000Z 32007KT 290V360 9999 FEW020 FEW025TCU 30/20 Q1010","temp":30,"dewp":20,"wdir":320,"wspd":7,"visib":"6+","altim":1010,"clouds":[{"cover":"FEW","base":2000},{"cover":"FEW","base":2500}],"obsTime":1774036800},"SBCJ":{"icaoId":"SBCJ","flightCategory":"VFR","rawOb":"METAR SBCJ 202000Z 00000KT 9999 SCT015 FEW020TCU 23/21 Q1012","temp":23,"dewp":21,"wdir":0,"wspd":0,"visib":"6+","altim":1012,"clouds":[{"cover":"SCT","base":1500},{"cover":"FEW","base":2000}],"obsTime":1774036800},"SBCO":{"icaoId":"SBCO","flightCategory":"VFR","rawOb":"METAR SBCO 202000Z 10017KT 9999 FEW030 28/21 Q1008","temp":28,"dewp":21,"wdir":100,"wspd":17,"visib":"6+","altim":1008,"clouds":[{"cover":"FEW","base":3000}],"obsTime":1774036800},"SBDN":{"icaoId":"SBDN","flightCategory":"VFR","rawOb":"METAR SBDN 202000Z 16001KT 9999 VCSH SCT045 FEW060TCU 33/21 Q1007","temp":33,"dewp":21,"wdir":160,"wspd":1,"visib":"6+","altim":1007,"clouds":[{"cover":"SCT","base":4500},{"cover":"FEW","base":6000}],"obsTime":1774036800},"SBES":{"icaoId":"SBES","flightCategory":"VFR","rawOb":"METAR SBES 202000Z 04004KT 360V080 9999 -RA SCT015 BKN035 22/// Q1008 RERA RETSRA","temp":null,"dewp":null,"wdir":40,"wspd":4,"visib":"6+","altim":1008,"clouds":[{"cover":"SCT","base":1500},{"cover":"BKN","base":3500}],"obsTime":1774036800},"SBIP":{"icaoId":"SBIP","flightCategory":"VFR","rawOb":"METAR SBIP 202000Z AUTO 36004KT 320V020 9999 FEW016 24/22 Q1009","temp":24,"dewp":22,"wdir":360,"wspd":4,"visib":"6+","altim":1009,"clouds":[{"cover":"FEW","base":1600}],"obsTime":1774036800},"SBKG":{"icaoId":"SBKG","flightCategory":"VFR","rawOb":"METAR SBKG 202000Z 08011KT 9999 FEW030 30/19 Q1010","temp":30,"dewp":19,"wdir":80,"wspd":11,"visib":"6+","altim":1010,"clouds":[{"cover":"FEW","base":3000}],"obsTime":1774036800},"SBOI":{"icaoId":"SBOI","flightCategory":"MVFR","rawOb":"METAR SBOI 202000Z AUTO 03006KT 6000 RA FEW006 OVC025 24/24 Q1010 RERA","temp":24,"dewp":24,"wdir":30,"wspd":6,"visib":3.73,"altim":1010,"clouds":[{"cover":"FEW","base":600},{"cover":"OVC","base":2500}],"obsTime":1774036800},"SBPB":{"icaoId":"SBPB","flightCategory":"VFR","rawOb":"METAR SBPB 202000Z 06012KT 9999 FEW020 SCT100 31/25 Q1006","temp":31,"dewp":25,"wdir":60,"wspd":12,"visib":"6+","altim":1006,"clouds":[{"cover":"FEW","base":2000},{"cover":"SCT","base":10000}],"obsTime":1774036800},"SBPL":{"icaoId":"SBPL","flightCategory":"VFR","rawOb":"METAR SBPL 202000Z 35005KT 9999 FEW030 33/21 Q1007","temp":33,"dewp":21,"wdir":350,"wspd":5,"visib":"6+","altim":1007,"clouds":[{"cover":"FEW","base":3000}],"obsTime":1774036800},"SBPP":{"icaoId":"SBPP","flightCategory":"VFR","rawOb":"METAR SBPP 202000Z 27005KT 9999 SCT025 31/21 Q1008","temp":31,"dewp":21,"wdir":270,"wspd":5,"visib":"6+","altim":1008,"clouds":[{"cover":"SCT","base":2500}],"obsTime":1774036800},"SBPS":{"icaoId":"SBPS","flightCategory":"VFR","rawOb":"METAR SBPS 202000Z 04012KT 9999 SCT025 29/23 Q1008","temp":29,"dewp":23,"wdir":40,"wspd":12,"visib":"6+","altim":1008,"clouds":[{"cover":"SCT","base":2500}],"obsTime":1774036800},"SBSC":{"icaoId":"SBSC","flightCategory":"VFR","rawOb":"METAR SBSC 202000Z 22006KT 9999 FEW010 SCT020 BKN035 25/23 Q1009","temp":25,"dewp":23,"wdir":220,"wspd":6,"visib":"6+","altim":1009,"clouds":[{"cover":"FEW","base":1000},{"cover":"SCT","base":2000},{"cover":"BKN","base":3500}],"obsTime":1774036800},"SBSM":{"icaoId":"SBSM","flightCategory":"VFR","rawOb":"METAR SBSM 202000Z 11006KT CAVOK 30/23 Q1006","temp":30,"dewp":23,"wdir":110,"wspd":6,"visib":"6+","altim":1006,"clouds":[],"obsTime":1774036800},"SBSR":{"icaoId":"SBSR","flightCategory":"VFR","rawOb":"METAR SBSR 202000Z 18005KT 9999 FEW030 30/20 Q1009","temp":30,"dewp":20,"wdir":180,"wspd":5,"visib":"6+","altim":1009,"clouds":[{"cover":"FEW","base":3000}],"obsTime":1774036800},"SBTF":{"icaoId":"SBTF","flightCategory":"VFR","rawOb":"METAR SBTF 202000Z 09002KT 9999 FEW020 31/24 Q1006","temp":31,"dewp":24,"wdir":90,"wspd":2,"visib":"6+","altim":1006,"clouds":[{"cover":"FEW","base":2000}],"obsTime":1774036800},"SBTT":{"icaoId":"SBTT","flightCategory":"VFR","rawOb":"METAR SBTT 202000Z 33006KT 9999 SCT027 32/23 Q1005","temp":32,"dewp":23,"wdir":330,"wspd":6,"visib":"6+","altim":1005,"clouds":[{"cover":"SCT","base":2700}],"obsTime":1774036800},"SBUY":{"icaoId":"SBUY","flightCategory":"VFR","rawOb":"METAR SBUY 202000Z 31001KT 9999 SCT030 33/21 Q1005","temp":33,"dewp":21,"wdir":310,"wspd":1,"visib":"6+","altim":1005,"clouds":[{"cover":"SCT","base":3000}],"obsTime":1774036800},"SBVH":{"icaoId":"SBVH","flightCategory":"VFR","rawOb":"METAR SBVH 202000Z 33009KT 9999 SCT030 SCT090 27/22 Q1008","temp":27,"dewp":22,"wdir":330,"wspd":9,"visib":"6+","altim":1008,"clouds":[{"cover":"SCT","base":3000},{"cover":"SCT","base":9000}],"obsTime":1774036800},"SBCC":{"icaoId":"SBCC","flightCategory":"MVFR","rawOb":"METAR SBCC 202000Z 31003KT 260V010 9000 -RA FEW010 BKN015 FEW025TCU BKN080 25/22 Q1008 RESHRA RERA","temp":25,"dewp":22,"wdir":310,"wspd":3,"visib":5.59,"altim":1008,"clouds":[{"cover":"FEW","base":1000},{"cover":"BKN","base":1500},{"cover":"FEW","base":2500},{"cover":"BKN","base":8000}],"obsTime":1774036800},"SBAN":{"icaoId":"SBAN","flightCategory":"LIFR","rawOb":"METAR SBAN 202000Z 33003KT 0800 R06L/2000 R24R/2000 -RA OVC004 19/18 Q1016","temp":19,"dewp":18,"wdir":330,"wspd":3,"visib":0.5,"altim":1016,"clouds":[{"cover":"OVC","base":400}],"obsTime":1774036800},"SBLE":{"icaoId":"SBLE","flightCategory":"VFR","rawOb":"METAR SBLE 202000Z AUTO 12003KT 090V150 CAVOK 29/19 Q1010","temp":29,"dewp":19,"wdir":120,"wspd":3,"visib":"6+","altim":1010,"clouds":[],"obsTime":1774036800},"SBJP":{"icaoId":"SBJP","flightCategory":"VFR","rawOb":"METAR SBJP 202000Z 09010KT 9999 FEW020 29/24 Q1009","temp":29,"dewp":24,"wdir":90,"wspd":10,"visib":"6+","altim":1009,"clouds":[{"cover":"FEW","base":2000}],"obsTime":1774036800},"SBLS":{"icaoId":"SBLS","flightCategory":"VFR","rawOb":"METAR SBLS 202000Z 01004KT 290V040 9999 FEW013 BKN050 BKN080 24/21 Q1011","temp":24,"dewp":21,"wdir":10,"wspd":4,"visib":"6+","altim":1011,"clouds":[{"cover":"FEW","base":1300},{"cover":"BKN","base":5000},{"cover":"BKN","base":8000}],"obsTime":1774036800},"SBMT":{"icaoId":"SBMT","flightCategory":"VFR","rawOb":"METAR SBMT 202000Z 17008KT 140V200 9999 SCT040 25/17 Q1012","temp":25,"dewp":17,"wdir":170,"wspd":8,"visib":"6+","altim":1012,"clouds":[{"cover":"SCT","base":4000}],"obsTime":1774036800},"SBJR":{"icaoId":"SBJR","flightCategory":"MVFR","rawOb":"METAR SBJR 202000Z 20003KT 8000 BKN012 BKN040 26/23 Q1008","temp":26,"dewp":23,"wdir":200,"wspd":3,"visib":4.97,"altim":1008,"clouds":[{"cover":"BKN","base":1200},{"cover":"BKN","base":4000}],"obsTime":1774036800},"SBNM":{"icaoId":"SBNM","flightCategory":"VFR","rawOb":"METAR SBNM 202000Z 11002KT 9999 FEW015 35/19 Q1006","temp":35,"dewp":19,"wdir":110,"wspd":2,"visib":"6+","altim":1006,"clouds":[{"cover":"FEW","base":1500}],"obsTime":1774036800},"SBGW":{"icaoId":"SBGW","flightCategory":"VFR","rawOb":"METAR SBGW 202000Z 25006KT 9999 BKN035 SCT070 29/18 Q1010","temp":29,"dewp":18,"wdir":250,"wspd":6,"visib":"6+","altim":1010,"clouds":[{"cover":"BKN","base":3500},{"cover":"SCT","base":7000}],"obsTime":1774036800},"SBPF":{"icaoId":"SBPF","flightCategory":"VFR","rawOb":"METAR SBPF 202000Z 10005KT CAVOK 31/15 Q1010","temp":31,"dewp":15,"wdir":100,"wspd":5,"visib":"6+","altim":1010,"clouds":[],"obsTime":1774036800},"SBJV":{"icaoId":"SBJV","flightCategory":"VFR","rawOb":"METAR SBJV 202000Z 10006KT 9999 SCT030 28/24 Q1008","temp":28,"dewp":24,"wdir":100,"wspd":6,"visib":"6+","altim":1008,"clouds":[{"cover":"SCT","base":3000}],"obsTime":1774036800},"SBST":{"icaoId":"SBST","flightCategory":"MVFR","rawOb":"METAR SBST 202000Z 15005KT 9999 BKN029 26/21 Q1009","temp":26,"dewp":21,"wdir":150,"wspd":5,"visib":"6+","altim":1009,"clouds":[{"cover":"BKN","base":2900}],"obsTime":1774036800},"SBIH":{"icaoId":"SBIH","flightCategory":"MVFR","rawOb":"METAR SBIH 202000Z 34004KT 9999 -RA BKN018 FEW025TCU 24/23 Q1008","temp":24,"dewp":23,"wdir":340,"wspd":4,"visib":"6+","altim":1008,"clouds":[{"cover":"BKN","base":1800},{"cover":"FEW","base":2500}],"obsTime":1774036800},"SBTA":{"icaoId":"SBTA","flightCategory":"VFR","rawOb":"METAR SBTA 202000Z 19006KT 140V230 9999 SCT035 SCT070 27/19 Q1010","temp":27,"dewp":19,"wdir":190,"wspd":6,"visib":"6+","altim":1010,"clouds":[{"cover":"SCT","base":3500},{"cover":"SCT","base":7000}],"obsTime":1774036800},"SBAF":{"icaoId":"SBAF","flightCategory":"MVFR","rawOb":" SBAF 202000Z 21007KT 7000 BKN030 OVC054 26/25 Q1009","temp":26,"dewp":25,"wdir":210,"wspd":7,"visib":4.35,"altim":1009,"clouds":[{"cover":"BKN","base":3000},{"cover":"OVC","base":5400}],"obsTime":1774036800}}}