{"updated":1777836646,"count":86,"data":{"SBPV":{"icaoId":"SBPV","flightCategory":"VFR","rawOb":"METAR SBPV 031800Z 10009KT 9999 SCT035 34/23 Q1010","temp":34,"dewp":23,"wdir":100,"wspd":9,"visib":"6+","altim":1010,"clouds":[{"cover":"SCT","base":3500}],"obsTime":1777831200},"SBAT":{"icaoId":"SBAT","flightCategory":"VFR","rawOb":"METAR SBAT 031800Z 13008KT 9999 SCT035 33/22 Q1011","temp":33,"dewp":22,"wdir":130,"wspd":8,"visib":"6+","altim":1011,"clouds":[{"cover":"SCT","base":3500}],"obsTime":1777831200},"SBBE":{"icaoId":"SBBE","flightCategory":"IFR","rawOb":"METAR SBBE 031800Z 06010KT 2000 RA BR BKN007 BKN025 FEW030TCU 25/25 Q1010","temp":25,"dewp":25,"wdir":60,"wspd":10,"visib":1.24,"altim":1010,"clouds":[{"cover":"BKN","base":700},{"cover":"BKN","base":2500},{"cover":"FEW","base":3000}],"obsTime":1777831200},"SBBR":{"icaoId":"SBBR","flightCategory":"VFR","rawOb":"METAR SBBR 031800Z 15010KT 9999 SCT030 28/14 Q1018","temp":28,"dewp":14,"wdir":150,"wspd":10,"visib":"6+","altim":1018,"clouds":[{"cover":"SCT","base":3000}],"obsTime":1777831200},"SBBV":{"icaoId":"SBBV","flightCategory":"MVFR","rawOb":"METAR SBBV 031800Z 10009KT 9999 VCSH BKN030 FEW040TCU BKN080 29/24 Q1010","temp":29,"dewp":24,"wdir":100,"wspd":9,"visib":"6+","altim":1010,"clouds":[{"cover":"BKN","base":3000},{"cover":"FEW","base":4000},{"cover":"BKN","base":8000}],"obsTime":1777831200},"SBCB":{"icaoId":"SBCB","flightCategory":"MVFR","rawOb":"METAR SBCB 031800Z 18009KT 8000 BKN015 OVC040 25/18 Q1018","temp":25,"dewp":18,"wdir":180,"wspd":9,"visib":4.97,"altim":1018,"clouds":[{"cover":"BKN","base":1500},{"cover":"OVC","base":4000}],"obsTime":1777831200},"SBCF":{"icaoId":"SBCF","flightCategory":"VFR","rawOb":"METAR SBCF 031800Z 16007KT 9999 SCT045 28/16 Q1018","temp":28,"dewp":16,"wdir":160,"wspd":7,"visib":"6+","altim":1018,"clouds":[{"cover":"SCT","base":4500}],"obsTime":1777831200},"SBCG":{"icaoId":"SBCG","flightCategory":"VFR","rawOb":"METAR SBCG 031800Z 06005KT 350V110 9999 FEW030 30/15 Q1015","temp":30,"dewp":15,"wdir":60,"wspd":5,"visib":"6+","altim":1015,"clouds":[{"cover":"FEW","base":3000}],"obsTime":1777831200},"SBCP":{"icaoId":"SBCP","flightCategory":"IFR","rawOb":"METAR SBCP 031800Z 22016KT 3000 -RA BR BKN010 OVC090 23/21 Q1017","temp":23,"dewp":21,"wdir":220,"wspd":16,"visib":1.86,"altim":1017,"clouds":[{"cover":"BKN","base":1000},{"cover":"OVC","base":9000}],"obsTime":1777831200},"SBCR":{"icaoId":"SBCR","flightCategory":"VFR","rawOb":"METAR SBCR 031800Z 03008KT 260V330 9999 FEW020 SCT040 29/23 Q1012","temp":29,"dewp":23,"wdir":30,"wspd":8,"visib":"6+","altim":1012,"clouds":[{"cover":"FEW","base":2000},{"cover":"SCT","base":4000}],"obsTime":1777831200},"SBCT":{"icaoId":"SBCT","flightCategory":"IFR","rawOb":"METAR SBCT 031800Z 10007KT 9999 BKN009 OVC013 14/12 Q1023","temp":14,"dewp":12,"wdir":100,"wspd":7,"visib":"6+","altim":1023,"clouds":[{"cover":"BKN","base":900},{"cover":"OVC","base":1300}],"obsTime":1777831200},"SBCZ":{"icaoId":"SBCZ","flightCategory":"VFR","rawOb":"METAR SBCZ 031800Z 15006KT 110V220 9999 SCT022 30/25 Q1013","temp":30,"dewp":25,"wdir":150,"wspd":6,"visib":"6+","altim":1013,"clouds":[{"cover":"SCT","base":2200}],"obsTime":1777831200},"SBEG":{"icaoId":"SBEG","flightCategory":"IFR","rawOb":"METAR SBEG 031800Z 07005KT 9999 BKN005 FEW025TCU BKN070 27/24 Q1011","temp":27,"dewp":24,"wdir":70,"wspd":5,"visib":"6+","altim":1011,"clouds":[{"cover":"BKN","base":500},{"cover":"FEW","base":2500},{"cover":"BKN","base":7000}],"obsTime":1777831200},"SBFI":{"icaoId":"SBFI","flightCategory":"VFR","rawOb":"METAR SBFI 031800Z 07006KT 9999 FEW030 SCT100 25/19 Q1016","temp":25,"dewp":19,"wdir":70,"wspd":6,"visib":"6+","altim":1016,"clouds":[{"cover":"FEW","base":3000},{"cover":"SCT","base":10000}],"obsTime":1777831200},"SBFL":{"icaoId":"SBFL","flightCategory":"VFR","rawOb":"METAR SBFL 031800Z 16004KT CAVOK 22/08 Q1021","temp":22,"dewp":8,"wdir":160,"wspd":4,"visib":"6+","altim":1021,"clouds":[],"obsTime":1777831200},"SBFZ":{"icaoId":"SBFZ","flightCategory":"VFR","rawOb":"METAR SBFZ 031800Z 14008KT 110V170 9999 SCT025 29/24 Q1009","temp":29,"dewp":24,"wdir":140,"wspd":8,"visib":"6+","altim":1009,"clouds":[{"cover":"SCT","base":2500}],"obsTime":1777831200},"SBGL":{"icaoId":"SBGL","flightCategory":"VFR","rawOb":"METAR SBGL 031800Z 24003KT 200V270 9999 FEW020 OVC040 24/18 Q1019","temp":24,"dewp":18,"wdir":240,"wspd":3,"visib":"6+","altim":1019,"clouds":[{"cover":"FEW","base":2000},{"cover":"OVC","base":4000}],"obsTime":1777831200},"SBGO":{"icaoId":"SBGO","flightCategory":"VFR","rawOb":"METAR SBGO 031800Z 07008KT CAVOK 31/14 Q1015","temp":31,"dewp":14,"wdir":70,"wspd":8,"visib":"6+","altim":1015,"clouds":[],"obsTime":1777831200},"SBGR":{"icaoId":"SBGR","flightCategory":"MVFR","rawOb":"METAR SBGR 031800Z 13006KT 9999 OVC015 18/14 Q1022","temp":18,"dewp":14,"wdir":130,"wspd":6,"visib":"6+","altim":1022,"clouds":[{"cover":"OVC","base":1500}],"obsTime":1777831200},"SBHT":{"icaoId":"SBHT","flightCategory":"MVFR","rawOb":"METAR SBHT 031800Z 15003KT 9999 BKN030 32/24 Q1008","temp":32,"dewp":24,"wdir":150,"wspd":3,"visib":"6+","altim":1008,"clouds":[{"cover":"BKN","base":3000}],"obsTime":1777831200},"SBIL":{"icaoId":"SBIL","flightCategory":"VFR","rawOb":"METAR SBIL 031800Z 14005KT 110V180 CAVOK 30/25 Q1014","temp":30,"dewp":25,"wdir":140,"wspd":5,"visib":"6+","altim":1014,"clouds":[],"obsTime":1777831200},"SBJU":{"icaoId":"SBJU","flightCategory":"VFR","rawOb":"METAR SBJU 031800Z 09007KT 9999 FEW022 30/20 Q1013","temp":30,"dewp":20,"wdir":90,"wspd":7,"visib":"6+","altim":1013,"clouds":[{"cover":"FEW","base":2200}],"obsTime":1777831200},"SBKP":{"icaoId":"SBKP","flightCategory":"VFR","rawOb":"METAR SBKP 031800Z 14016KT 9999 SCT025 22/15 Q1020","temp":22,"dewp":15,"wdir":140,"wspd":16,"visib":"6+","altim":1020,"clouds":[{"cover":"SCT","base":2500}],"obsTime":1777831200},"SBLO":{"icaoId":"SBLO","flightCategory":"VFR","rawOb":"METAR SBLO 031800Z 09008KT 9999 FEW022 25/17 Q1018","temp":25,"dewp":17,"wdir":90,"wspd":8,"visib":"6+","altim":1018,"clouds":[{"cover":"FEW","base":2200}],"obsTime":1777831200},"SBMA":{"icaoId":"SBMA","flightCategory":"VFR","rawOb":"METAR SBMA 031800Z 17003KT 9999 SCT025TCU SCT080 32/26 Q1008","temp":32,"dewp":26,"wdir":170,"wspd":3,"visib":"6+","altim":1008,"clouds":[{"cover":"SCT","base":2500},{"cover":"SCT","base":8000}],"obsTime":1777831200},"SBME":{"icaoId":"SBME","flightCategory":"MVFR","rawOb":"METAR SBME 031800Z 26006KT 6000 BKN010 OVC080 24/21 Q1018","temp":24,"dewp":21,"wdir":260,"wspd":6,"visib":3.73,"altim":1018,"clouds":[{"cover":"BKN","base":1000},{"cover":"OVC","base":8000}],"obsTime":1777831200},"SBMG":{"icaoId":"SBMG","flightCategory":"VFR","rawOb":"METAR SBMG 031800Z 06005KT 030V090 9999 FEW030 BKN080 25/18 Q1016","temp":25,"dewp":18,"wdir":60,"wspd":5,"visib":"6+","altim":1016,"clouds":[{"cover":"FEW","base":3000},{"cover":"BKN","base":8000}],"obsTime":1777831200},"SBMK":{"icaoId":"SBMK","flightCategory":"VFR","rawOb":"METAR SBMK 031800Z 16003KT 9999 SCT040 31/15 Q1015","temp":31,"dewp":15,"wdir":160,"wspd":3,"visib":"6+","altim":1015,"clouds":[{"cover":"SCT","base":4000}],"obsTime":1777831200},"SBMO":{"icaoId":"SBMO","flightCategory":"VFR","rawOb":"METAR SBMO 031800Z 12009KT 090V150 9999 FEW030 FEW035TCU SCT090 30/22 Q1012","temp":30,"dewp":22,"wdir":120,"wspd":9,"visib":"6+","altim":1012,"clouds":[{"cover":"FEW","base":3000},{"cover":"FEW","base":3500},{"cover":"SCT","base":9000}],"obsTime":1777831200},"SBMQ":{"icaoId":"SBMQ","flightCategory":"MVFR","rawOb":"METAR SBMQ 031800Z 01015KT 9999 3000NE VCSH BKN022 FEW025TCU BKN060 29/26 Q1010","temp":29,"dewp":26,"wdir":10,"wspd":15,"visib":"6+","altim":1010,"clouds":[{"cover":"BKN","base":2200},{"cover":"FEW","base":2500},{"cover":"BKN","base":6000}],"obsTime":1777831200},"SBNT":{"icaoId":"SBNT","flightCategory":"VFR","rawOb":"METAR SBNT 031800Z 17011KT 140V210 9999 SCT030 BKN100 29/24 Q1011","temp":29,"dewp":24,"wdir":170,"wspd":11,"visib":"6+","altim":1011,"clouds":[{"cover":"SCT","base":3000},{"cover":"BKN","base":10000}],"obsTime":1777831200},"SBPA":{"icaoId":"SBPA","flightCategory":"VFR","rawOb":"METAR SBPA 031800Z VRB03KT 9999 FEW040 19/09 Q1021","temp":19,"dewp":9,"wdir":"VRB","wspd":3,"visib":"6+","altim":1021,"clouds":[{"cover":"FEW","base":4000}],"obsTime":1777831200},"SBPJ":{"icaoId":"SBPJ","flightCategory":"VFR","rawOb":"METAR SBPJ 031800Z 11007KT 9999 SCT045 34/21 Q1010","temp":34,"dewp":21,"wdir":110,"wspd":7,"visib":"6+","altim":1010,"clouds":[{"cover":"SCT","base":4500}],"obsTime":1777831200},"SBRB":{"icaoId":"SBRB","flightCategory":"VFR","rawOb":"METAR SBRB 031800Z 08006KT 9999 SCT030 32/24 Q1011","temp":32,"dewp":24,"wdir":80,"wspd":6,"visib":"6+","altim":1011,"clouds":[{"cover":"SCT","base":3000}],"obsTime":1777831200},"SBRF":{"icaoId":"SBRF","flightCategory":"VFR","rawOb":"METAR SBRF 031800Z 15010KT 9999 FEW020 FEW025TCU 29/24 Q1011","temp":29,"dewp":24,"wdir":150,"wspd":10,"visib":"6+","altim":1011,"clouds":[{"cover":"FEW","base":2000},{"cover":"FEW","base":2500}],"obsTime":1777831200},"SBSG":{"icaoId":"SBSG","flightCategory":"MVFR","rawOb":"METAR SBSG 031800Z VRB06KT 9999 BKN021 29/25 Q1011","temp":29,"dewp":25,"wdir":"VRB","wspd":6,"visib":"6+","altim":1011,"clouds":[{"cover":"BKN","base":2100}],"obsTime":1777831200},"SBSL":{"icaoId":"SBSL","flightCategory":"MVFR","rawOb":"METAR SBSL 031800Z 08012KT 020V110 9999 SCT013 BKN020 FEW025TCU 26/23 Q1010","temp":26,"dewp":23,"wdir":80,"wspd":12,"visib":"6+","altim":1010,"clouds":[{"cover":"SCT","base":1300},{"cover":"BKN","base":2000},{"cover":"FEW","base":2500}],"obsTime":1777831200},"SBSN":{"icaoId":"SBSN","flightCategory":"VFR","rawOb":"METAR SBSN 031800Z 07009KT 9999 SCT020 30/25 Q1008","temp":30,"dewp":25,"wdir":70,"wspd":9,"visib":"6+","altim":1008,"clouds":[{"cover":"SCT","base":2000}],"obsTime":1777831200},"SBSP":{"icaoId":"SBSP","flightCategory":"MVFR","rawOb":"METAR SBSP 031800Z 14010KT 9999 BKN011 16/14 Q1023","temp":16,"dewp":14,"wdir":140,"wspd":10,"visib":"6+","altim":1023,"clouds":[{"cover":"BKN","base":1100}],"obsTime":1777831200},"SBSV":{"icaoId":"SBSV","flightCategory":"VFR","rawOb":"METAR SBSV 031800Z 16008KT 110V220 9999 SCT025 30/22 Q1013","temp":30,"dewp":22,"wdir":160,"wspd":8,"visib":"6+","altim":1013,"clouds":[{"cover":"SCT","base":2500}],"obsTime":1777831200},"SBTE":{"icaoId":"SBTE","flightCategory":"VFR","rawOb":"METAR SBTE 031800Z COR 10005KT 9999 SCT025 FEW030TCU SCT080 28/25 Q1009","temp":28,"dewp":25,"wdir":100,"wspd":5,"visib":"6+","altim":1009,"clouds":[{"cover":"SCT","base":2500},{"cover":"FEW","base":3000},{"cover":"SCT","base":8000}],"obsTime":1777831200},"SBUL":{"icaoId":"SBUL","flightCategory":"VFR","rawOb":"METAR SBUL 031800Z 16006KT 9999 FEW049 27/13 Q1018","temp":27,"dewp":13,"wdir":160,"wspd":6,"visib":"6+","altim":1018,"clouds":[{"cover":"FEW","base":4900}],"obsTime":1777831200},"SBUR":{"icaoId":"SBUR","flightCategory":"VFR","rawOb":"METAR SBUR 031800Z 15006KT 9999 SCT049 29/14 Q1017","temp":29,"dewp":14,"wdir":150,"wspd":6,"visib":"6+","altim":1017,"clouds":[{"cover":"SCT","base":4900}],"obsTime":1777831200},"SBVT":{"icaoId":"SBVT","flightCategory":"VFR","rawOb":"METAR SBVT 031800Z 20020KT 9999 VCSH SCT030 BKN090 27/20 Q1016","temp":27,"dewp":20,"wdir":200,"wspd":20,"visib":"6+","altim":1016,"clouds":[{"cover":"SCT","base":3000},{"cover":"BKN","base":9000}],"obsTime":1777831200},"SBCA":{"icaoId":"SBCA","flightCategory":"VFR","rawOb":"METAR SBCA 031800Z 03007KT 9999 SCT020 BKN100 23/16 Q1019","temp":23,"dewp":16,"wdir":30,"wspd":7,"visib":"6+","altim":1019,"clouds":[{"cover":"SCT","base":2000},{"cover":"BKN","base":10000}],"obsTime":1777831200},"SBAR":{"icaoId":"SBAR","flightCategory":"VFR","rawOb":"METAR SBAR 031800Z 13009KT 9999 VCSH SCT020 FEW024TCU BKN050 28/24 Q1012","temp":28,"dewp":24,"wdir":130,"wspd":9,"visib":"6+","altim":1012,"clouds":[{"cover":"SCT","base":2000},{"cover":"FEW","base":2400},{"cover":"BKN","base":5000}],"obsTime":1777831200},"SBAX":{"icaoId":"SBAX","flightCategory":"VFR","rawOb":"METAR SBAX 031800Z AUTO 08007KT 040V110 CAVOK 28/14 Q1018","temp":28,"dewp":14,"wdir":80,"wspd":7,"visib":"6+","altim":1018,"clouds":[],"obsTime":1777831200},"SBBH":{"icaoId":"SBBH","flightCategory":"VFR","rawOb":"METAR SBBH 031800Z 08007KT 9999 SCT046 SCT100 28/17 Q1018","temp":28,"dewp":17,"wdir":80,"wspd":7,"visib":"6+","altim":1018,"clouds":[{"cover":"SCT","base":4600},{"cover":"SCT","base":10000}],"obsTime":1777831200},"SBBQ":{"icaoId":"SBBQ","flightCategory":"MVFR","rawOb":"METAR SBBQ 031800Z 16007KT 110V200 9999 BKN030 21/15 Q1023","temp":21,"dewp":15,"wdir":160,"wspd":7,"visib":"6+","altim":1023,"clouds":[{"cover":"BKN","base":3000}],"obsTime":1777831200},"SBBU":{"icaoId":"SBBU","flightCategory":"VFR","rawOb":"METAR SBBU 031800Z 09012KT 9999 FEW030 27/18 Q1018","temp":27,"dewp":18,"wdir":90,"wspd":12,"visib":"6+","altim":1018,"clouds":[{"cover":"FEW","base":3000}],"obsTime":1777831200},"SBCC":{"icaoId":"SBCC","flightCategory":"VFR","rawOb":"METAR SBCC 031800Z /////KT 9999 SCT030 ///// Q1012","temp":null,"dewp":null,"wdir":null,"wspd":null,"visib":"6+","altim":1012,"clouds":[{"cover":"SCT","base":3000}],"obsTime":1777831200},"SBCJ":{"icaoId":"SBCJ","flightCategory":"VFR","rawOb":"METAR SBCJ 031800Z 12005KT 9999 SCT017 FEW020TCU 28/22 Q1013","temp":28,"dewp":22,"wdir":120,"wspd":5,"visib":"6+","altim":1013,"clouds":[{"cover":"SCT","base":1700},{"cover":"FEW","base":2000}],"obsTime":1777831200},"SBCO":{"icaoId":"SBCO","flightCategory":"VFR","rawOb":"METAR SBCO 031800Z 10002KT 9999 FEW030 19/08 Q1021","temp":19,"dewp":8,"wdir":100,"wspd":2,"visib":"6+","altim":1021,"clouds":[{"cover":"FEW","base":3000}],"obsTime":1777831200},"SBDN":{"icaoId":"SBDN","flightCategory":"VFR","rawOb":"METAR SBDN 031800Z 10008KT CAVOK 30/16 Q1016","temp":30,"dewp":16,"wdir":100,"wspd":8,"visib":"6+","altim":1016,"clouds":[],"obsTime":1777831200},"SBES":{"icaoId":"SBES","flightCategory":"MVFR","rawOb":"METAR SBES 031800Z 19010KT 140V220 8000 VCSH FEW013 OVC040 24/// Q1018","temp":null,"dewp":null,"wdir":190,"wspd":10,"visib":4.97,"altim":1018,"clouds":[{"cover":"FEW","base":1300},{"cover":"OVC","base":4000}],"obsTime":1777831200},"SBGM":{"icaoId":"SBGM","flightCategory":"VFR","rawOb":"METAR SBGM 031800Z 10004KT 9999 SCT040 34/23 Q1011","temp":34,"dewp":23,"wdir":100,"wspd":4,"visib":"6+","altim":1011,"clouds":[{"cover":"SCT","base":4000}],"obsTime":1777831200},"SBIP":{"icaoId":"SBIP","flightCategory":"VFR","rawOb":"METAR SBIP 031800Z AUTO VRB03KT CAVOK 31/19 Q1015","temp":31,"dewp":19,"wdir":"VRB","wspd":3,"visib":"6+","altim":1015,"clouds":[],"obsTime":1777831200},"SBKG":{"icaoId":"SBKG","flightCategory":"MVFR","rawOb":"METAR SBKG 031800Z 10009KT 9999 BKN020 BKN070 26/22 Q1014","temp":26,"dewp":22,"wdir":100,"wspd":9,"visib":"6+","altim":1014,"clouds":[{"cover":"BKN","base":2000},{"cover":"BKN","base":7000}],"obsTime":1777831200},"SBOI":{"icaoId":"SBOI","flightCategory":"VFR","rawOb":"METAR SBOI 031800Z AUTO 06010KT 020V110 9999 FEW037 BKN048 31/24 Q1011","temp":31,"dewp":24,"wdir":60,"wspd":10,"visib":"6+","altim":1011,"clouds":[{"cover":"FEW","base":3700},{"cover":"BKN","base":4800}],"obsTime":1777831200},"SBPB":{"icaoId":"SBPB","flightCategory":"VFR","rawOb":"METAR SBPB 031800Z 08008KT 9999 SCT020 BKN100 29/24 Q1009","temp":29,"dewp":24,"wdir":80,"wspd":8,"visib":"6+","altim":1009,"clouds":[{"cover":"SCT","base":2000},{"cover":"BKN","base":10000}],"obsTime":1777831200},"SBPL":{"icaoId":"SBPL","flightCategory":"VFR","rawOb":"METAR SBPL 031800Z 07008KT 9999 FEW025 30/19 Q1012","temp":30,"dewp":19,"wdir":70,"wspd":8,"visib":"6+","altim":1012,"clouds":[{"cover":"FEW","base":2500}],"obsTime":1777831200},"SBPP":{"icaoId":"SBPP","flightCategory":"VFR","rawOb":"METAR SBPP 031800Z 03014KT 9999 FEW020 BKN090 24/19 Q1017","temp":24,"dewp":19,"wdir":30,"wspd":14,"visib":"6+","altim":1017,"clouds":[{"cover":"FEW","base":2000},{"cover":"BKN","base":9000}],"obsTime":1777831200},"SBPS":{"icaoId":"SBPS","flightCategory":"VFR","rawOb":"METAR SBPS 031800Z 11008KT 9999 SCT030 28/23 Q1014","temp":28,"dewp":23,"wdir":110,"wspd":8,"visib":"6+","altim":1014,"clouds":[{"cover":"SCT","base":3000}],"obsTime":1777831200},"SBSC":{"icaoId":"SBSC","flightCategory":"MVFR","rawOb":"METAR SBSC 031800Z 20008KT 6000 -DZ SCT008 BKN015 OVC020 21/20 Q1020","temp":21,"dewp":20,"wdir":200,"wspd":8,"visib":3.73,"altim":1020,"clouds":[{"cover":"SCT","base":800},{"cover":"BKN","base":1500},{"cover":"OVC","base":2000}],"obsTime":1777831200},"SBSJ":{"icaoId":"SBSJ","flightCategory":"MVFR","rawOb":"METAR SBSJ 031800Z 17004KT 6000 BKN020 OVC030 19/16 Q1022","temp":19,"dewp":16,"wdir":170,"wspd":4,"visib":3.73,"altim":1022,"clouds":[{"cover":"BKN","base":2000},{"cover":"OVC","base":3000}],"obsTime":1777831200},"SBSM":{"icaoId":"SBSM","flightCategory":"VFR","rawOb":"METAR SBSM 031800Z 12007KT CAVOK 17/07 Q1020","temp":17,"dewp":7,"wdir":120,"wspd":7,"visib":"6+","altim":1020,"clouds":[],"obsTime":1777831200},"SBSR":{"icaoId":"SBSR","flightCategory":"VFR","rawOb":"METAR SBSR 031800Z 12003KT CAVOK 30/12 Q1016","temp":30,"dewp":12,"wdir":120,"wspd":3,"visib":"6+","altim":1016,"clouds":[],"obsTime":1777831200},"SBTF":{"icaoId":"SBTF","flightCategory":"VFR","rawOb":"METAR SBTF 031800Z 17003KT 9999 -RA SCT007 OVC070 25/24 Q1011","temp":25,"dewp":24,"wdir":170,"wspd":3,"visib":"6+","altim":1011,"clouds":[{"cover":"SCT","base":700},{"cover":"OVC","base":7000}],"obsTime":1777831200},"SBTT":{"icaoId":"SBTT","flightCategory":"MVFR","rawOb":"METAR SBTT 031800Z 25005KT 200V290 9999 BKN010 BKN070 26/23 Q1012","temp":26,"dewp":23,"wdir":250,"wspd":5,"visib":"6+","altim":1012,"clouds":[{"cover":"BKN","base":1000},{"cover":"BKN","base":7000}],"obsTime":1777831200},"SBUY":{"icaoId":"SBUY","flightCategory":"VFR","rawOb":"METAR SBUY 031800Z 20002KT 9999 SCT020 FEW025TCU SCT100 31/25 Q1008","temp":31,"dewp":25,"wdir":200,"wspd":2,"visib":"6+","altim":1008,"clouds":[{"cover":"SCT","base":2000},{"cover":"FEW","base":2500},{"cover":"SCT","base":10000}],"obsTime":1777831200},"SBVH":{"icaoId":"SBVH","flightCategory":"VFR","rawOb":"METAR SBVH 031800Z 08006KT CAVOK 30/19 Q1014","temp":30,"dewp":19,"wdir":80,"wspd":6,"visib":"6+","altim":1014,"clouds":[],"obsTime":1777831200},"SBAU":{"icaoId":"SBAU","flightCategory":"VFR","rawOb":"METAR SBAU 031800Z 12008KT CAVOK 31/13 Q1015","temp":31,"dewp":13,"wdir":120,"wspd":8,"visib":"6+","altim":1015,"clouds":[],"obsTime":1777831200},"SBJP":{"icaoId":"SBJP","flightCategory":"VFR","rawOb":"METAR SBJP 031800Z 13009KT 9999 FEW020 SCT070 29/23 Q1011","temp":29,"dewp":23,"wdir":130,"wspd":9,"visib":"6+","altim":1011,"clouds":[{"cover":"FEW","base":2000},{"cover":"SCT","base":7000}],"obsTime":1777831200},"SBST":{"icaoId":"SBST","flightCategory":"MVFR","rawOb":"METAR SBST 031800Z /////KT 5000 -RA BR SCT025 OVC050 ///// Q1021","temp":null,"dewp":null,"wdir":null,"wspd":null,"visib":3.11,"altim":1021,"clouds":[{"cover":"SCT","base":2500},{"cover":"OVC","base":5000}],"obsTime":1777831200},"SBJV":{"icaoId":"SBJV","flightCategory":"VFR","rawOb":"METAR SBJV 031800Z 14004KT 9999 BKN035 20/13 Q1022","temp":20,"dewp":13,"wdir":140,"wspd":4,"visib":"6+","altim":1022,"clouds":[{"cover":"BKN","base":3500}],"obsTime":1777831200},"SBIH":{"icaoId":"SBIH","flightCategory":"VFR","rawOb":"METAR SBIH 031800Z 00000KT 9999 SCT018 FEW025TCU 30/25 Q1008","temp":30,"dewp":25,"wdir":0,"wspd":0,"visib":"6+","altim":1008,"clouds":[{"cover":"SCT","base":1800},{"cover":"FEW","base":2500}],"obsTime":1777831200},"SBLE":{"icaoId":"SBLE","flightCategory":"VFR","rawOb":"METAR SBLE 031800Z AUTO 13005KT 090V170 CAVOK 29/20 Q1014","temp":29,"dewp":20,"wdir":130,"wspd":5,"visib":"6+","altim":1014,"clouds":[],"obsTime":1777831200},"SBTC":{"icaoId":"SBTC","flightCategory":"VFR","rawOb":"METAR SBTC 031800Z 13006KT 9999 FEW030 29/24 Q1013","temp":29,"dewp":24,"wdir":130,"wspd":6,"visib":"6+","altim":1013,"clouds":[{"cover":"FEW","base":3000}],"obsTime":1777831200},"SBAN":{"icaoId":"SBAN","flightCategory":"VFR","rawOb":"METAR SBAN 031800Z 16009KT 060V230 9999 SCT045 28/14 Q1019","temp":28,"dewp":14,"wdir":160,"wspd":9,"visib":"6+","altim":1019,"clouds":[{"cover":"SCT","base":4500}],"obsTime":1777831200},"SBAF":{"icaoId":"SBAF","flightCategory":"MVFR","rawOb":"METAR SBAF 031800Z 19010KT 5000 BR FEW035 BKN040 23/20 Q1019","temp":23,"dewp":20,"wdir":190,"wspd":10,"visib":3.11,"altim":1019,"clouds":[{"cover":"FEW","base":3500},{"cover":"BKN","base":4000}],"obsTime":1777831200},"SBGW":{"icaoId":"SBGW","flightCategory":"VFR","rawOb":"METAR SBGW 031800Z VRB02KT 9999 SCT025 OVC040 23/15 Q1020","temp":23,"dewp":15,"wdir":"VRB","wspd":2,"visib":"6+","altim":1020,"clouds":[{"cover":"SCT","base":2500},{"cover":"OVC","base":4000}],"obsTime":1777831200},"SBJR":{"icaoId":"SBJR","flightCategory":"IFR","rawOb":"METAR SBJR 031800Z COR 20009KT 2000 -RA BR BKN005 OVC050 22/19 Q1019","temp":22,"dewp":19,"wdir":200,"wspd":9,"visib":1.24,"altim":1019,"clouds":[{"cover":"BKN","base":500},{"cover":"OVC","base":5000}],"obsTime":1777831200},"SBLS":{"icaoId":"SBLS","flightCategory":"VFR","rawOb":"METAR SBLS 031800Z 15010KT 9999 SCT045 27/15 Q1018","temp":27,"dewp":15,"wdir":150,"wspd":10,"visib":"6+","altim":1018,"clouds":[{"cover":"SCT","base":4500}],"obsTime":1777831200},"SBMT":{"icaoId":"SBMT","flightCategory":"MVFR","rawOb":"METAR SBMT 031800Z 14009KT 080V180 8000 3000S -RA SCT013 BKN015 17/14 Q1022","temp":17,"dewp":14,"wdir":140,"wspd":9,"visib":4.97,"altim":1022,"clouds":[{"cover":"SCT","base":1300},{"cover":"BKN","base":1500}],"obsTime":1777831200},"SBTA":{"icaoId":"SBTA","flightCategory":"VFR","rawOb":"METAR SBTA 031800Z 17008KT 9999 SCT020 OVC045 21/14 Q1020","temp":21,"dewp":14,"wdir":170,"wspd":8,"visib":"6+","altim":1020,"clouds":[{"cover":"SCT","base":2000},{"cover":"OVC","base":4500}],"obsTime":1777831200},"SBPF":{"icaoId":"SBPF","flightCategory":"VFR","rawOb":"METAR SBPF 031800Z 09007KT CAVOK 18/05 Q1021","temp":18,"dewp":5,"wdir":90,"wspd":7,"visib":"6+","altim":1021,"clouds":[],"obsTime":1777831200}}}