{"updated":1779666434,"count":72,"data":{"SBFI":{"icaoId":"SBFI","flightCategory":"VFR","rawOb":"METAR SBFI 242200Z 13004KT 9999 FEW040 BKN100 19/18 Q1017","temp":19,"dewp":18,"wdir":130,"wspd":4,"visib":"6+","altim":1017,"clouds":[{"cover":"FEW","base":4000},{"cover":"BKN","base":10000}],"obsTime":1779660000},"SBBR":{"icaoId":"SBBR","flightCategory":"VFR","rawOb":"METAR SBBR 242200Z 17006KT 9999 FEW040 BKN080 21/17 Q1022","temp":21,"dewp":17,"wdir":170,"wspd":6,"visib":"6+","altim":1022,"clouds":[{"cover":"FEW","base":4000},{"cover":"BKN","base":8000}],"obsTime":1779660000},"SBBV":{"icaoId":"SBBV","flightCategory":"VFR","rawOb":"METAR SBBV 242200Z 33004KT 9999 VCSH SCT040 FEW045TCU SCT100 29/24 Q1010","temp":29,"dewp":24,"wdir":330,"wspd":4,"visib":"6+","altim":1010,"clouds":[{"cover":"SCT","base":4000},{"cover":"FEW","base":4500},{"cover":"SCT","base":10000}],"obsTime":1779660000},"SBCF":{"icaoId":"SBCF","flightCategory":"VFR","rawOb":"METAR SBCF 242200Z 13004KT 9999 FEW045 SCT080 22/16 Q1022","temp":22,"dewp":16,"wdir":130,"wspd":4,"visib":"6+","altim":1022,"clouds":[{"cover":"FEW","base":4500},{"cover":"SCT","base":8000}],"obsTime":1779660000},"SBCG":{"icaoId":"SBCG","flightCategory":"VFR","rawOb":"METAR SBCG 242200Z 13004KT 100V170 CAVOK 22/20 Q1017","temp":22,"dewp":20,"wdir":130,"wspd":4,"visib":"6+","altim":1017,"clouds":[],"obsTime":1779660000},"SBCT":{"icaoId":"SBCT","flightCategory":"LIFR","rawOb":"METAR SBCT 242200Z 12008KT 8000 OVC004 14/14 Q1022","temp":14,"dewp":14,"wdir":120,"wspd":8,"visib":4.97,"altim":1022,"clouds":[{"cover":"OVC","base":400}],"obsTime":1779660000},"SBCZ":{"icaoId":"SBCZ","flightCategory":"VFR","rawOb":"METAR SBCZ 242200Z 15003KT CAVOK 27/20 Q1013","temp":27,"dewp":20,"wdir":150,"wspd":3,"visib":"6+","altim":1013,"clouds":[],"obsTime":1779660000},"SBEG":{"icaoId":"SBEG","flightCategory":"VFR","rawOb":"METAR SBEG 242200Z 21002KT 9999 SCT016 26/24 Q1012","temp":26,"dewp":24,"wdir":210,"wspd":2,"visib":"6+","altim":1012,"clouds":[{"cover":"SCT","base":1600}],"obsTime":1779660000},"SBBE":{"icaoId":"SBBE","flightCategory":"VFR","rawOb":"METAR SBBE 242200Z 01006KT 9999 TS VCSH FEW017 SCT040 FEW045CB 29/25 Q1011","temp":29,"dewp":25,"wdir":10,"wspd":6,"visib":"6+","altim":1011,"clouds":[{"cover":"FEW","base":1700},{"cover":"SCT","base":4000},{"cover":"FEW","base":4500}],"obsTime":1779660000},"SBFL":{"icaoId":"SBFL","flightCategory":"VFR","rawOb":"METAR SBFL 242200Z 18007KT 160V230 9999 FEW025 SCT065 17/15 Q1021","temp":17,"dewp":15,"wdir":180,"wspd":7,"visib":"6+","altim":1021,"clouds":[{"cover":"FEW","base":2500},{"cover":"SCT","base":6500}],"obsTime":1779660000},"SBFZ":{"icaoId":"SBFZ","flightCategory":"VFR","rawOb":"METAR SBFZ 242200Z 10008KT 9999 FEW020 27/23 Q1012","temp":27,"dewp":23,"wdir":100,"wspd":8,"visib":"6+","altim":1012,"clouds":[{"cover":"FEW","base":2000}],"obsTime":1779660000},"SBGL":{"icaoId":"SBGL","flightCategory":"VFR","rawOb":"METAR SBGL 242200Z 13003KT 100V170 9999 FEW020 SCT040 23/20 Q1018","temp":23,"dewp":20,"wdir":130,"wspd":3,"visib":"6+","altim":1018,"clouds":[{"cover":"FEW","base":2000},{"cover":"SCT","base":4000}],"obsTime":1779660000},"SBGO":{"icaoId":"SBGO","flightCategory":"VFR","rawOb":"METAR SBGO 242200Z 13007KT 9999 FEW045 SCT070 25/18 Q1020","temp":25,"dewp":18,"wdir":130,"wspd":7,"visib":"6+","altim":1020,"clouds":[{"cover":"FEW","base":4500},{"cover":"SCT","base":7000}],"obsTime":1779660000},"SBGR":{"icaoId":"SBGR","flightCategory":"MVFR","rawOb":"METAR SBGR 242200Z 22002KT 6000 SCT009 SCT015 BKN023 18/17 Q1022","temp":18,"dewp":17,"wdir":220,"wspd":2,"visib":3.73,"altim":1022,"clouds":[{"cover":"SCT","base":900},{"cover":"SCT","base":1500},{"cover":"BKN","base":2300}],"obsTime":1779660000},"SBIL":{"icaoId":"SBIL","flightCategory":"VFR","rawOb":"METAR SBIL 242200Z 22008KT 9999 FEW020 SCT070 26/21 Q1017","temp":26,"dewp":21,"wdir":220,"wspd":8,"visib":"6+","altim":1017,"clouds":[{"cover":"FEW","base":2000},{"cover":"SCT","base":7000}],"obsTime":1779660000},"SBJU":{"icaoId":"SBJU","flightCategory":"VFR","rawOb":"METAR SBJU 242200Z 18003KT 9999 FEW020 26/16 Q1015","temp":26,"dewp":16,"wdir":180,"wspd":3,"visib":"6+","altim":1015,"clouds":[{"cover":"FEW","base":2000}],"obsTime":1779660000},"SBKP":{"icaoId":"SBKP","flightCategory":"VFR","rawOb":"METAR SBKP 242200Z 20003KT 160V220 CAVOK 23/19 Q1020","temp":23,"dewp":19,"wdir":200,"wspd":3,"visib":"6+","altim":1020,"clouds":[],"obsTime":1779660000},"SBLO":{"icaoId":"SBLO","flightCategory":"VFR","rawOb":"METAR SBLO 242200Z 12001KT CAVOK 20/19 Q1019","temp":20,"dewp":19,"wdir":120,"wspd":1,"visib":"6+","altim":1019,"clouds":[],"obsTime":1779660000},"SBMA":{"icaoId":"SBMA","flightCategory":"VFR","rawOb":"METAR SBMA 242200Z 00000KT CAVOK 30/21 Q1011","temp":30,"dewp":21,"wdir":0,"wspd":0,"visib":"6+","altim":1011,"clouds":[],"obsTime":1779660000},"SBME":{"icaoId":"SBME","flightCategory":"VFR","rawOb":"METAR SBME 242200Z 23002KT 9999 SCT040 22/20 Q1019","temp":22,"dewp":20,"wdir":230,"wspd":2,"visib":"6+","altim":1019,"clouds":[{"cover":"SCT","base":4000}],"obsTime":1779660000},"SBMG":{"icaoId":"SBMG","flightCategory":"VFR","rawOb":"METAR SBMG 242200Z 17004KT CAVOK 21/19 Q1018","temp":21,"dewp":19,"wdir":170,"wspd":4,"visib":"6+","altim":1018,"clouds":[],"obsTime":1779660000},"SBMK":{"icaoId":"SBMK","flightCategory":"VFR","rawOb":"METAR SBMK 242200Z 08007KT CAVOK 23/16 Q1020","temp":23,"dewp":16,"wdir":80,"wspd":7,"visib":"6+","altim":1020,"clouds":[],"obsTime":1779660000},"SBMO":{"icaoId":"SBMO","flightCategory":"VFR","rawOb":"METAR SBMO 242200Z 26004KT 210V300 9999 FEW005 SCT023 23/23 Q1015","temp":23,"dewp":23,"wdir":260,"wspd":4,"visib":"6+","altim":1015,"clouds":[{"cover":"FEW","base":500},{"cover":"SCT","base":2300}],"obsTime":1779660000},"SBMQ":{"icaoId":"SBMQ","flightCategory":"VFR","rawOb":"METAR SBMQ 242200Z 05002KT CAVOK 27/25 Q1011","temp":27,"dewp":25,"wdir":50,"wspd":2,"visib":"6+","altim":1011,"clouds":[],"obsTime":1779660000},"SBNT":{"icaoId":"SBNT","flightCategory":"VFR","rawOb":"METAR SBNT 242200Z 16005KT 9999 FEW020 25/23 Q1014","temp":25,"dewp":23,"wdir":160,"wspd":5,"visib":"6+","altim":1014,"clouds":[{"cover":"FEW","base":2000}],"obsTime":1779660000},"SBPA":{"icaoId":"SBPA","flightCategory":"VFR","rawOb":"METAR SBPA 242200Z 12008KT 9999 FEW025 17/14 Q1021","temp":17,"dewp":14,"wdir":120,"wspd":8,"visib":"6+","altim":1021,"clouds":[{"cover":"FEW","base":2500}],"obsTime":1779660000},"SBPJ":{"icaoId":"SBPJ","flightCategory":"VFR","rawOb":"METAR SBPJ 242200Z 12005KT CAVOK 29/20 Q1014","temp":29,"dewp":20,"wdir":120,"wspd":5,"visib":"6+","altim":1014,"clouds":[],"obsTime":1779660000},"SBPV":{"icaoId":"SBPV","flightCategory":"VFR","rawOb":"METAR SBPV 242200Z 33001KT 9999 SCT025 27/21 Q1011","temp":27,"dewp":21,"wdir":330,"wspd":1,"visib":"6+","altim":1011,"clouds":[{"cover":"SCT","base":2500}],"obsTime":1779660000},"SBRB":{"icaoId":"SBRB","flightCategory":"VFR","rawOb":"METAR SBRB 242200Z 08008KT 9999 SCT030 26/20 Q1013","temp":26,"dewp":20,"wdir":80,"wspd":8,"visib":"6+","altim":1013,"clouds":[{"cover":"SCT","base":3000}],"obsTime":1779660000},"SBRF":{"icaoId":"SBRF","flightCategory":"MVFR","rawOb":"METAR SBRF 242200Z 19007KT 9999 -RA BKN020 24/23 Q1014","temp":24,"dewp":23,"wdir":190,"wspd":7,"visib":"6+","altim":1014,"clouds":[{"cover":"BKN","base":2000}],"obsTime":1779660000},"SBSG":{"icaoId":"SBSG","flightCategory":"VFR","rawOb":"METAR SBSG 242200Z 16003KT 9999 FEW023 25/23 Q1014","temp":25,"dewp":23,"wdir":160,"wspd":3,"visib":"6+","altim":1014,"clouds":[{"cover":"FEW","base":2300}],"obsTime":1779660000},"SBSL":{"icaoId":"SBSL","flightCategory":"VFR","rawOb":"METAR SBSL 242200Z 18003KT 9999 SCT020 26/25 Q1012","temp":26,"dewp":25,"wdir":180,"wspd":3,"visib":"6+","altim":1012,"clouds":[{"cover":"SCT","base":2000}],"obsTime":1779660000},"SBSN":{"icaoId":"SBSN","flightCategory":"VFR","rawOb":"METAR SBSN 242200Z 19002KT 9999 VCTS FEW020 FEW030CB BKN100 26/25 Q1011","temp":26,"dewp":25,"wdir":190,"wspd":2,"visib":"6+","altim":1011,"clouds":[{"cover":"FEW","base":2000},{"cover":"FEW","base":3000},{"cover":"BKN","base":10000}],"obsTime":1779660000},"SBSP":{"icaoId":"SBSP","flightCategory":"IFR","rawOb":"METAR SBSP 242200Z 16005KT 6000 OVC005 17/17 Q1023","temp":17,"dewp":17,"wdir":160,"wspd":5,"visib":3.73,"altim":1023,"clouds":[{"cover":"OVC","base":500}],"obsTime":1779660000},"SBSV":{"icaoId":"SBSV","flightCategory":"VFR","rawOb":"METAR SBSV 242200Z 12005KT 9999 SCT023 BKN050 25/23 Q1016","temp":25,"dewp":23,"wdir":120,"wspd":5,"visib":"6+","altim":1016,"clouds":[{"cover":"SCT","base":2300},{"cover":"BKN","base":5000}],"obsTime":1779660000},"SBTE":{"icaoId":"SBTE","flightCategory":"VFR","rawOb":"METAR SBTE 242200Z 24002KT CAVOK 30/23 Q1011","temp":30,"dewp":23,"wdir":240,"wspd":2,"visib":"6+","altim":1011,"clouds":[],"obsTime":1779660000},"SBUL":{"icaoId":"SBUL","flightCategory":"VFR","rawOb":"METAR SBUL 242200Z 09005KT 9999 FEW048 SCT070 22/16 Q1022","temp":22,"dewp":16,"wdir":90,"wspd":5,"visib":"6+","altim":1022,"clouds":[{"cover":"FEW","base":4800},{"cover":"SCT","base":7000}],"obsTime":1779660000},"SBUR":{"icaoId":"SBUR","flightCategory":"VFR","rawOb":"METAR SBUR 242200Z 35003KT CAVOK 24/16 Q1021","temp":24,"dewp":16,"wdir":350,"wspd":3,"visib":"6+","altim":1021,"clouds":[],"obsTime":1779660000},"SBVT":{"icaoId":"SBVT","flightCategory":"VFR","rawOb":"METAR SBVT 242200Z 03003KT CAVOK 22/18 Q1019","temp":22,"dewp":18,"wdir":30,"wspd":3,"visib":"6+","altim":1019,"clouds":[],"obsTime":1779660000},"SBCP":{"icaoId":"SBCP","flightCategory":"VFR","rawOb":"METAR SBCP 242200Z 06006KT 9999 FEW020 22/19 Q1019","temp":22,"dewp":19,"wdir":60,"wspd":6,"visib":"6+","altim":1019,"clouds":[{"cover":"FEW","base":2000}],"obsTime":1779660000},"SBAR":{"icaoId":"SBAR","flightCategory":"VFR","rawOb":"METAR SBAR 242200Z 13009KT 9999 FEW030 27/19 Q1015","temp":27,"dewp":19,"wdir":130,"wspd":9,"visib":"6+","altim":1015,"clouds":[{"cover":"FEW","base":3000}],"obsTime":1779660000},"SBAX":{"icaoId":"SBAX","flightCategory":"VFR","rawOb":"METAR SBAX 242200Z AUTO 35004KT CAVOK 22/16 Q1022","temp":22,"dewp":16,"wdir":350,"wspd":4,"visib":"6+","altim":1022,"clouds":[],"obsTime":1779660000},"SBBH":{"icaoId":"SBBH","flightCategory":"VFR","rawOb":"METAR SBBH 242200Z 11005KT CAVOK 22/17 Q1022","temp":22,"dewp":17,"wdir":110,"wspd":5,"visib":"6+","altim":1022,"clouds":[],"obsTime":1779660000},"SBBU":{"icaoId":"SBBU","flightCategory":"VFR","rawOb":"METAR SBBU 242200Z 15003KT CAVOK 22/21 Q1019","temp":22,"dewp":21,"wdir":150,"wspd":3,"visib":"6+","altim":1019,"clouds":[],"obsTime":1779660000},"SBCA":{"icaoId":"SBCA","flightCategory":"MVFR","rawOb":"METAR SBCA 242200Z 16004KT 9999 BKN025 18/18 Q1020","temp":18,"dewp":18,"wdir":160,"wspd":4,"visib":"6+","altim":1020,"clouds":[{"cover":"BKN","base":2500}],"obsTime":1779660000},"SBCO":{"icaoId":"SBCO","flightCategory":"VFR","rawOb":"METAR SBCO 242200Z 11005KT 9999 FEW020 15/13 Q1021","temp":15,"dewp":13,"wdir":110,"wspd":5,"visib":"6+","altim":1021,"clouds":[{"cover":"FEW","base":2000}],"obsTime":1779660000},"SBDN":{"icaoId":"SBDN","flightCategory":"VFR","rawOb":"METAR SBDN 242200Z 00000KT CAVOK 22/19 Q1018","temp":22,"dewp":19,"wdir":0,"wspd":0,"visib":"6+","altim":1018,"clouds":[],"obsTime":1779660000},"SBIP":{"icaoId":"SBIP","flightCategory":"VFR","rawOb":"METAR SBIP 242200Z AUTO 00000KT CAVOK 19/19 Q1020","temp":19,"dewp":19,"wdir":0,"wspd":0,"visib":"6+","altim":1020,"clouds":[],"obsTime":1779660000},"SBKG":{"icaoId":"SBKG","flightCategory":"VFR","rawOb":"METAR SBKG 242200Z 14006KT 9999 FEW020 22/20 Q1017","temp":22,"dewp":20,"wdir":140,"wspd":6,"visib":"6+","altim":1017,"clouds":[{"cover":"FEW","base":2000}],"obsTime":1779660000},"SBOI":{"icaoId":"SBOI","flightCategory":"MVFR","rawOb":"METAR SBOI 242200Z AUTO 05004KT 340V100 9999 -RA SCT011 BKN016 OVC035 25/24 Q1012 RERA","temp":25,"dewp":24,"wdir":50,"wspd":4,"visib":"6+","altim":1012,"clouds":[{"cover":"SCT","base":1100},{"cover":"BKN","base":1600},{"cover":"OVC","base":3500}],"obsTime":1779660000},"SBPL":{"icaoId":"SBPL","flightCategory":"VFR","rawOb":"METAR SBPL 242200Z 00000KT 9999 SCT030 25/19 Q1015","temp":25,"dewp":19,"wdir":0,"wspd":0,"visib":"6+","altim":1015,"clouds":[{"cover":"SCT","base":3000}],"obsTime":1779660000},"SBPP":{"icaoId":"SBPP","flightCategory":"VFR","rawOb":"METAR SBPP 242300Z 07006KT CAVOK 19/18 Q1018","temp":19,"dewp":18,"wdir":70,"wspd":6,"visib":"6+","altim":1018,"clouds":[],"obsTime":1779663600},"SBPS":{"icaoId":"SBPS","flightCategory":"VFR","rawOb":"METAR SBPS 242200Z 24002KT 9999 SCT025 22/20 Q1018","temp":22,"dewp":20,"wdir":240,"wspd":2,"visib":"6+","altim":1018,"clouds":[{"cover":"SCT","base":2500}],"obsTime":1779660000},"SBSC":{"icaoId":"SBSC","flightCategory":"MVFR","rawOb":"METAR SBSC 242200Z 21003KT 9999 SCT015 BKN020 22/20 Q1019","temp":22,"dewp":20,"wdir":210,"wspd":3,"visib":"6+","altim":1019,"clouds":[{"cover":"SCT","base":1500},{"cover":"BKN","base":2000}],"obsTime":1779660000},"SBSJ":{"icaoId":"SBSJ","flightCategory":"VFR","rawOb":"METAR SBSJ 242200Z 14007KT CAVOK 19/18 Q1020","temp":19,"dewp":18,"wdir":140,"wspd":7,"visib":"6+","altim":1020,"clouds":[],"obsTime":1779660000},"SBSM":{"icaoId":"SBSM","flightCategory":"VFR","rawOb":"METAR SBSM 242200Z 09003KT 040V120 CAVOK 14/13 Q1020","temp":14,"dewp":13,"wdir":90,"wspd":3,"visib":"6+","altim":1020,"clouds":[],"obsTime":1779660000},"SBSR":{"icaoId":"SBSR","flightCategory":"VFR","rawOb":"METAR SBSR 242200Z 00000KT 9999 FEW030 BKN070 26/16 Q1018","temp":26,"dewp":16,"wdir":0,"wspd":0,"visib":"6+","altim":1018,"clouds":[{"cover":"FEW","base":3000},{"cover":"BKN","base":7000}],"obsTime":1779660000},"SBTT":{"icaoId":"SBTT","flightCategory":"MVFR","rawOb":"METAR SBTT 242200Z 21003KT 9999 BKN020 BKN032 24/21 Q1013","temp":24,"dewp":21,"wdir":210,"wspd":3,"visib":"6+","altim":1013,"clouds":[{"cover":"BKN","base":2000},{"cover":"BKN","base":3200}],"obsTime":1779660000},"SBTU":{"icaoId":"SBTU","flightCategory":"VFR","rawOb":"METAR SBTU 242200Z AUTO 30007KT 250V330 9999 // SCT026/// BKN042/// BKN055/// 26/23 Q1013","temp":26,"dewp":23,"wdir":300,"wspd":7,"visib":"6+","altim":1013,"clouds":[{"cover":"SCT","base":2600},{"cover":"BKN","base":4200},{"cover":"BKN","base":5500}],"obsTime":1779660000},"SBVH":{"icaoId":"SBVH","flightCategory":"VFR","rawOb":"METAR SBVH 242200Z 09004KT CAVOK 24/19 Q1015","temp":24,"dewp":19,"wdir":90,"wspd":4,"visib":"6+","altim":1015,"clouds":[],"obsTime":1779660000},"SBTF":{"icaoId":"SBTF","flightCategory":"VFR","rawOb":"METAR SBTF 242200Z 27002KT 9999 SCT013 SCT100 26/24 Q1011","temp":26,"dewp":24,"wdir":270,"wspd":2,"visib":"6+","altim":1011,"clouds":[{"cover":"SCT","base":1300},{"cover":"SCT","base":10000}],"obsTime":1779660000},"SBUY":{"icaoId":"SBUY","flightCategory":"VFR","rawOb":"METAR SBUY 242200Z 00000KT 9999 FEW025 BKN058 24/23 Q1011","temp":24,"dewp":23,"wdir":0,"wspd":0,"visib":"6+","altim":1011,"clouds":[{"cover":"FEW","base":2500},{"cover":"BKN","base":5800}],"obsTime":1779660000},"SBMT":{"icaoId":"SBMT","flightCategory":"IFR","rawOb":"METAR SBMT 242200Z 13005KT 4000 BR BKN008 BKN020 17/16 Q1022","temp":17,"dewp":16,"wdir":130,"wspd":5,"visib":2.49,"altim":1022,"clouds":[{"cover":"BKN","base":800},{"cover":"BKN","base":2000}],"obsTime":1779660000},"SBJP":{"icaoId":"SBJP","flightCategory":"VFR","rawOb":"METAR SBJP 242200Z 17007KT 9999 FEW030 BKN070 25/23 Q1015","temp":25,"dewp":23,"wdir":170,"wspd":7,"visib":"6+","altim":1015,"clouds":[{"cover":"FEW","base":3000},{"cover":"BKN","base":7000}],"obsTime":1779660000},"SBLE":{"icaoId":"SBLE","flightCategory":"LIFR","rawOb":"METAR SBLE 242200Z AUTO 14005KT 110V170 3600 RA BKN003 BKN015 OVC024 ///// Q////","temp":null,"dewp":null,"wdir":140,"wspd":5,"visib":2.24,"altim":null,"clouds":[{"cover":"BKN","base":300},{"cover":"BKN","base":1500},{"cover":"OVC","base":2400}],"obsTime":1779660000},"SBNM":{"icaoId":"SBNM","flightCategory":"VFR","rawOb":"METAR SBNM 242200Z AUTO 11007KT CAVOK 16/12 Q1019","temp":16,"dewp":12,"wdir":110,"wspd":7,"visib":"6+","altim":1019,"clouds":[],"obsTime":1779660000},"SBJV":{"icaoId":"SBJV","flightCategory":"MVFR","rawOb":"METAR SBJV 242200Z 34003KT 300V360 9999 FEW003 BKN025 BKN040 17/17 Q1021","temp":17,"dewp":17,"wdir":340,"wspd":3,"visib":"6+","altim":1021,"clouds":[{"cover":"FEW","base":300},{"cover":"BKN","base":2500},{"cover":"BKN","base":4000}],"obsTime":1779660000},"SBAN":{"icaoId":"SBAN","flightCategory":"VFR","rawOb":"METAR SBAN 242200Z 21006KT 9999 FEW035 SCT070 20/16 Q1022","temp":20,"dewp":16,"wdir":210,"wspd":6,"visib":"6+","altim":1022,"clouds":[{"cover":"FEW","base":3500},{"cover":"SCT","base":7000}],"obsTime":1779660000},"SBAF":{"icaoId":"SBAF","flightCategory":"MVFR","rawOb":"METAR SBAF 242200Z 17006KT 9999 BKN030 23/23 Q1019","temp":23,"dewp":23,"wdir":170,"wspd":6,"visib":"6+","altim":1019,"clouds":[{"cover":"BKN","base":3000}],"obsTime":1779660000},"SBJR":{"icaoId":"SBJR","flightCategory":"MVFR","rawOb":"METAR SBJR 242200Z 27001KT 9999 BKN013 BKN030 23/21 Q1018","temp":23,"dewp":21,"wdir":270,"wspd":1,"visib":"6+","altim":1018,"clouds":[{"cover":"BKN","base":1300},{"cover":"BKN","base":3000}],"obsTime":1779660000},"SBLS":{"icaoId":"SBLS","flightCategory":"VFR","rawOb":"METAR SBLS 242200Z 15007KT CAVOK 21/17 Q1022","temp":21,"dewp":17,"wdir":150,"wspd":7,"visib":"6+","altim":1022,"clouds":[],"obsTime":1779660000},"SBGW":{"icaoId":"SBGW","flightCategory":"VFR","rawOb":"METAR SBGW 242200Z 35002KT 9999 FEW030 BKN100 21/17 Q1019","temp":21,"dewp":17,"wdir":350,"wspd":2,"visib":"6+","altim":1019,"clouds":[{"cover":"FEW","base":3000},{"cover":"BKN","base":10000}],"obsTime":1779660000}}}