{"updated":1777326179,"count":83,"data":{"SBEG":{"icaoId":"SBEG","flightCategory":"VFR","rawOb":"METAR SBEG 272000Z 21003KT 9999 VCSH SCT030 FEW035TCU 33/23 Q1008","temp":33,"dewp":23,"wdir":210,"wspd":3,"visib":"6+","altim":1008,"clouds":[{"cover":"SCT","base":3000},{"cover":"FEW","base":3500}],"obsTime":1777320000},"SBAT":{"icaoId":"SBAT","flightCategory":"VFR","rawOb":"METAR SBAT 272000Z 07004KT 9999 VCSH SCT025 FEW035TCU SCT100 28/24 Q1010","temp":28,"dewp":24,"wdir":70,"wspd":4,"visib":"6+","altim":1010,"clouds":[{"cover":"SCT","base":2500},{"cover":"FEW","base":3500},{"cover":"SCT","base":10000}],"obsTime":1777320000},"SBBE":{"icaoId":"SBBE","flightCategory":"VFR","rawOb":"METAR SBBE 272000Z 04007KT 9999 FEW040 29/25 Q1010","temp":29,"dewp":25,"wdir":40,"wspd":7,"visib":"6+","altim":1010,"clouds":[{"cover":"FEW","base":4000}],"obsTime":1777320000},"SBVT":{"icaoId":"SBVT","flightCategory":"VFR","rawOb":"METAR SBVT 272000Z 05014KT CAVOK 28/22 Q1011","temp":28,"dewp":22,"wdir":50,"wspd":14,"visib":"6+","altim":1011,"clouds":[],"obsTime":1777320000},"SBBR":{"icaoId":"SBBR","flightCategory":"VFR","rawOb":"METAR SBBR 272000Z 12008KT 9999 SCT040 FEW045TCU 28/18 Q1017","temp":28,"dewp":18,"wdir":120,"wspd":8,"visib":"6+","altim":1017,"clouds":[{"cover":"SCT","base":4000},{"cover":"FEW","base":4500}],"obsTime":1777320000},"SBBV":{"icaoId":"SBBV","flightCategory":"VFR","rawOb":"METAR SBBV 272000Z 09009KT 9999 SCT035 FEW040TCU 31/22 Q1009","temp":31,"dewp":22,"wdir":90,"wspd":9,"visib":"6+","altim":1009,"clouds":[{"cover":"SCT","base":3500},{"cover":"FEW","base":4000}],"obsTime":1777320000},"SBCB":{"icaoId":"SBCB","flightCategory":"VFR","rawOb":"METAR SBCB 272000Z 15005KT CAVOK 28/22 Q1011","temp":28,"dewp":22,"wdir":150,"wspd":5,"visib":"6+","altim":1011,"clouds":[],"obsTime":1777320000},"SBCF":{"icaoId":"SBCF","flightCategory":"VFR","rawOb":"METAR SBCF 272000Z 05003KT 9999 SCT048 28/16 Q1017","temp":28,"dewp":16,"wdir":50,"wspd":3,"visib":"6+","altim":1017,"clouds":[{"cover":"SCT","base":4800}],"obsTime":1777320000},"SBCG":{"icaoId":"SBCG","flightCategory":"IFR","rawOb":"SPECI SBCG 271945Z 31004KT 290V360 9999 VCSH VCTS BKN005 SCT017 FEW040CB BKN100 22/21 Q1015","temp":22,"dewp":21,"wdir":310,"wspd":4,"visib":"6+","altim":1015,"clouds":[{"cover":"BKN","base":500},{"cover":"SCT","base":1700},{"cover":"FEW","base":4000},{"cover":"BKN","base":10000}],"obsTime":1777319100},"SBCP":{"icaoId":"SBCP","flightCategory":"VFR","rawOb":"METAR SBCP 272000Z 09009KT CAVOK 29/22 Q1011","temp":29,"dewp":22,"wdir":90,"wspd":9,"visib":"6+","altim":1011,"clouds":[],"obsTime":1777320000},"SBCR":{"icaoId":"SBCR","flightCategory":"VFR","rawOb":"METAR SBCR 272000Z 26006KT 230V290 9999 SCT021 BKN100 27/23 Q1011","temp":27,"dewp":23,"wdir":260,"wspd":6,"visib":"6+","altim":1011,"clouds":[{"cover":"SCT","base":2100},{"cover":"BKN","base":10000}],"obsTime":1777320000},"SBCT":{"icaoId":"SBCT","flightCategory":"VFR","rawOb":"METAR SBCT 272000Z 24007KT CAVOK 22/07 Q1017","temp":22,"dewp":7,"wdir":240,"wspd":7,"visib":"6+","altim":1017,"clouds":[],"obsTime":1777320000},"SBCZ":{"icaoId":"SBCZ","flightCategory":"VFR","rawOb":"METAR SBCZ 272000Z 33004KT 9999 SCT035 FEW035TCU SCT100 31/24 Q1008","temp":31,"dewp":24,"wdir":330,"wspd":4,"visib":"6+","altim":1008,"clouds":[{"cover":"SCT","base":3500},{"cover":"FEW","base":3500},{"cover":"SCT","base":10000}],"obsTime":1777320000},"SBFI":{"icaoId":"SBFI","flightCategory":"VFR","rawOb":"METAR SBFI 272000Z 22004KT CAVOK 22/16 Q1016","temp":22,"dewp":16,"wdir":220,"wspd":4,"visib":"6+","altim":1016,"clouds":[],"obsTime":1777320000},"SBFL":{"icaoId":"SBFL","flightCategory":"VFR","rawOb":"METAR SBFL 272000Z 13011KT 9999 FEW025 22/16 Q1013","temp":22,"dewp":16,"wdir":130,"wspd":11,"visib":"6+","altim":1013,"clouds":[{"cover":"FEW","base":2500}],"obsTime":1777320000},"SBFZ":{"icaoId":"SBFZ","flightCategory":"VFR","rawOb":"METAR SBFZ 272000Z 08009KT 9999 FEW030 29/24 Q1010","temp":29,"dewp":24,"wdir":80,"wspd":9,"visib":"6+","altim":1010,"clouds":[{"cover":"FEW","base":3000}],"obsTime":1777320000},"SBGL":{"icaoId":"SBGL","flightCategory":"VFR","rawOb":"METAR SBGL 272000Z 12007KT 9999 FEW020 28/23 Q1011","temp":28,"dewp":23,"wdir":120,"wspd":7,"visib":"6+","altim":1011,"clouds":[{"cover":"FEW","base":2000}],"obsTime":1777320000},"SBGO":{"icaoId":"SBGO","flightCategory":"VFR","rawOb":"METAR SBGO 272000Z 14006KT 9999 FEW049 31/18 Q1015","temp":31,"dewp":18,"wdir":140,"wspd":6,"visib":"6+","altim":1015,"clouds":[{"cover":"FEW","base":4900}],"obsTime":1777320000},"SBGR":{"icaoId":"SBGR","flightCategory":"VFR","rawOb":"METAR SBGR 272000Z 24008KT 9999 SCT045 26/19 Q1016","temp":26,"dewp":19,"wdir":240,"wspd":8,"visib":"6+","altim":1016,"clouds":[{"cover":"SCT","base":4500}],"obsTime":1777320000},"SBHT":{"icaoId":"SBHT","flightCategory":"VFR","rawOb":"METAR SBHT 272000Z 12002KT 9999 SCT030 33/23 Q1009","temp":33,"dewp":23,"wdir":120,"wspd":2,"visib":"6+","altim":1009,"clouds":[{"cover":"SCT","base":3000}],"obsTime":1777320000},"SBIL":{"icaoId":"SBIL","flightCategory":"VFR","rawOb":"METAR SBIL 272000Z 11006KT CAVOK 29/23 Q1014","temp":29,"dewp":23,"wdir":110,"wspd":6,"visib":"6+","altim":1014,"clouds":[],"obsTime":1777320000},"SBJU":{"icaoId":"SBJU","flightCategory":"VFR","rawOb":"METAR SBJU 272000Z 12005KT CAVOK 30/18 Q1012","temp":30,"dewp":18,"wdir":120,"wspd":5,"visib":"6+","altim":1012,"clouds":[],"obsTime":1777320000},"SBKP":{"icaoId":"SBKP","flightCategory":"VFR","rawOb":"METAR SBKP 272000Z 19005KT CAVOK 26/21 Q1015","temp":26,"dewp":21,"wdir":190,"wspd":5,"visib":"6+","altim":1015,"clouds":[],"obsTime":1777320000},"SBLO":{"icaoId":"SBLO","flightCategory":"LIFR","rawOb":"METAR SBLO 272000Z 29006KT 2000 +RA BKN003 BKN020 OVC100 21/21 Q1015","temp":21,"dewp":21,"wdir":290,"wspd":6,"visib":1.24,"altim":1015,"clouds":[{"cover":"BKN","base":300},{"cover":"BKN","base":2000},{"cover":"OVC","base":10000}],"obsTime":1777320000},"SBMA":{"icaoId":"SBMA","flightCategory":"VFR","rawOb":"METAR SBMA 272000Z 34005KT 9999 FEW020 FEW025TCU 32/23 Q1009","temp":32,"dewp":23,"wdir":340,"wspd":5,"visib":"6+","altim":1009,"clouds":[{"cover":"FEW","base":2000},{"cover":"FEW","base":2500}],"obsTime":1777320000},"SBME":{"icaoId":"SBME","flightCategory":"VFR","rawOb":"METAR SBME 272000Z 21005KT CAVOK 29/23 Q1011","temp":29,"dewp":23,"wdir":210,"wspd":5,"visib":"6+","altim":1011,"clouds":[],"obsTime":1777320000},"SBMG":{"icaoId":"SBMG","flightCategory":"VFR","rawOb":"METAR SBMG 272000Z 24006KT 9999 VCSH FEW005 SCT035 OVC070 22/21 Q1015","temp":22,"dewp":21,"wdir":240,"wspd":6,"visib":"6+","altim":1015,"clouds":[{"cover":"FEW","base":500},{"cover":"SCT","base":3500},{"cover":"OVC","base":7000}],"obsTime":1777320000},"SBMK":{"icaoId":"SBMK","flightCategory":"VFR","rawOb":"METAR SBMK 272000Z 14004KT 9999 FEW040 SCT090 30/16 Q1015","temp":30,"dewp":16,"wdir":140,"wspd":4,"visib":"6+","altim":1015,"clouds":[{"cover":"FEW","base":4000},{"cover":"SCT","base":9000}],"obsTime":1777320000},"SBMO":{"icaoId":"SBMO","flightCategory":"VFR","rawOb":"METAR SBMO 272000Z 12006KT 9999 VCSH SCT016 SCT023 FEW027TCU BKN060 27/23 Q1013","temp":27,"dewp":23,"wdir":120,"wspd":6,"visib":"6+","altim":1013,"clouds":[{"cover":"SCT","base":1600},{"cover":"SCT","base":2300},{"cover":"FEW","base":2700},{"cover":"BKN","base":6000}],"obsTime":1777320000},"SBMQ":{"icaoId":"SBMQ","flightCategory":"MVFR","rawOb":"METAR SBMQ 272000Z 36005KT 9999 BKN025 FEW035TCU 28/25 Q1010","temp":28,"dewp":25,"wdir":360,"wspd":5,"visib":"6+","altim":1010,"clouds":[{"cover":"BKN","base":2500},{"cover":"FEW","base":3500}],"obsTime":1777320000},"SBNT":{"icaoId":"SBNT","flightCategory":"VFR","rawOb":"METAR SBNT 272000Z 14012KT 9999 SCT025 FEW030TCU 28/24 Q1011","temp":28,"dewp":24,"wdir":140,"wspd":12,"visib":"6+","altim":1011,"clouds":[{"cover":"SCT","base":2500},{"cover":"FEW","base":3000}],"obsTime":1777320000},"SBPA":{"icaoId":"SBPA","flightCategory":"VFR","rawOb":"METAR SBPA 272000Z 28012KT CAVOK 18/06 Q1016","temp":18,"dewp":6,"wdir":280,"wspd":12,"visib":"6+","altim":1016,"clouds":[],"obsTime":1777320000},"SBPJ":{"icaoId":"SBPJ","flightCategory":"VFR","rawOb":"METAR SBPJ 272000Z 27002KT 9999 VCTS FEW033CB SCT050 29/23 Q1011","temp":29,"dewp":23,"wdir":270,"wspd":2,"visib":"6+","altim":1011,"clouds":[{"cover":"FEW","base":3300},{"cover":"SCT","base":5000}],"obsTime":1777320000},"SBPV":{"icaoId":"SBPV","flightCategory":"VFR","rawOb":"METAR SBPV 272000Z 36008KT 9999 SCT035 FEW040TCU 31/25 Q1007","temp":31,"dewp":25,"wdir":360,"wspd":8,"visib":"6+","altim":1007,"clouds":[{"cover":"SCT","base":3500},{"cover":"FEW","base":4000}],"obsTime":1777320000},"SBRB":{"icaoId":"SBRB","flightCategory":"VFR","rawOb":"METAR SBRB 272000Z 27005KT 9999 VCSH SCT025 FEW035TCU BKN090 26/24 Q1008","temp":26,"dewp":24,"wdir":270,"wspd":5,"visib":"6+","altim":1008,"clouds":[{"cover":"SCT","base":2500},{"cover":"FEW","base":3500},{"cover":"BKN","base":9000}],"obsTime":1777320000},"SBRF":{"icaoId":"SBRF","flightCategory":"MVFR","rawOb":"METAR SBRF 272000Z 17014KT 9999 VCSH SCT012 BKN017 BKN060 27/24 Q1012","temp":27,"dewp":24,"wdir":170,"wspd":14,"visib":"6+","altim":1012,"clouds":[{"cover":"SCT","base":1200},{"cover":"BKN","base":1700},{"cover":"BKN","base":6000}],"obsTime":1777320000},"SBSG":{"icaoId":"SBSG","flightCategory":"MVFR","rawOb":"METAR SBSG 272000Z 13006KT 9999 VCSH BKN030 FEW033TCU 28/25 Q1011","temp":28,"dewp":25,"wdir":130,"wspd":6,"visib":"6+","altim":1011,"clouds":[{"cover":"BKN","base":3000},{"cover":"FEW","base":3300}],"obsTime":1777320000},"SBSL":{"icaoId":"SBSL","flightCategory":"VFR","rawOb":"METAR SBSL 272000Z 36007KT 320V020 9999 SCT017 BKN050 28/24 Q1011","temp":28,"dewp":24,"wdir":360,"wspd":7,"visib":"6+","altim":1011,"clouds":[{"cover":"SCT","base":1700},{"cover":"BKN","base":5000}],"obsTime":1777320000},"SBSN":{"icaoId":"SBSN","flightCategory":"VFR","rawOb":"METAR SBSN 272000Z 07003KT 010V080 9999 FEW025 FEW030TCU 30/24 Q1009","temp":30,"dewp":24,"wdir":70,"wspd":3,"visib":"6+","altim":1009,"clouds":[{"cover":"FEW","base":2500},{"cover":"FEW","base":3000}],"obsTime":1777320000},"SBSP":{"icaoId":"SBSP","flightCategory":"VFR","rawOb":"METAR SBSP 272000Z 28005KT 220V350 9999 SCT046 BKN086 24/19 Q1017","temp":24,"dewp":19,"wdir":280,"wspd":5,"visib":"6+","altim":1017,"clouds":[{"cover":"SCT","base":4600},{"cover":"BKN","base":8600}],"obsTime":1777320000},"SBSV":{"icaoId":"SBSV","flightCategory":"VFR","rawOb":"METAR SBSV 272000Z 11007KT 9999 FEW025 29/21 Q1013","temp":29,"dewp":21,"wdir":110,"wspd":7,"visib":"6+","altim":1013,"clouds":[{"cover":"FEW","base":2500}],"obsTime":1777320000},"SBTE":{"icaoId":"SBTE","flightCategory":"VFR","rawOb":"METAR SBTE 272000Z VRB02KT 9999 FEW020 FEW025TCU 32/23 Q1009","temp":32,"dewp":23,"wdir":"VRB","wspd":2,"visib":"6+","altim":1009,"clouds":[{"cover":"FEW","base":2000},{"cover":"FEW","base":2500}],"obsTime":1777320000},"SBUL":{"icaoId":"SBUL","flightCategory":"VFR","rawOb":"METAR SBUL 272000Z 05007KT 010V070 9999 FEW045 28/17 Q1017","temp":28,"dewp":17,"wdir":50,"wspd":7,"visib":"6+","altim":1017,"clouds":[{"cover":"FEW","base":4500}],"obsTime":1777320000},"SBUR":{"icaoId":"SBUR","flightCategory":"VFR","rawOb":"METAR SBUR 272000Z 20008KT CAVOK 29/19 Q1016","temp":29,"dewp":19,"wdir":200,"wspd":8,"visib":"6+","altim":1016,"clouds":[],"obsTime":1777320000},"SBCJ":{"icaoId":"SBCJ","flightCategory":"VFR","rawOb":"METAR SBCJ 272000Z 00000KT 9999 FEW030 28/21 Q1014","temp":28,"dewp":21,"wdir":0,"wspd":0,"visib":"6+","altim":1014,"clouds":[{"cover":"FEW","base":3000}],"obsTime":1777320000},"SBAX":{"icaoId":"SBAX","flightCategory":"VFR","rawOb":"METAR SBAX 272000Z 29005KT 9999 FEW035 29/15 Q1017","temp":29,"dewp":15,"wdir":290,"wspd":5,"visib":"6+","altim":1017,"clouds":[{"cover":"FEW","base":3500}],"obsTime":1777320000},"SBPB":{"icaoId":"SBPB","flightCategory":"VFR","rawOb":"METAR SBPB 272000Z 02004KT 9999 SCT016 FEW025TCU BKN080 28/25 Q1010","temp":28,"dewp":25,"wdir":20,"wspd":4,"visib":"6+","altim":1010,"clouds":[{"cover":"SCT","base":1600},{"cover":"FEW","base":2500},{"cover":"BKN","base":8000}],"obsTime":1777320000},"SBPL":{"icaoId":"SBPL","flightCategory":"VFR","rawOb":"METAR SBPL 272000Z 13007KT 9999 FEW030 32/17 Q1012","temp":32,"dewp":17,"wdir":130,"wspd":7,"visib":"6+","altim":1012,"clouds":[{"cover":"FEW","base":3000}],"obsTime":1777320000},"SBCO":{"icaoId":"SBCO","flightCategory":"VFR","rawOb":"METAR SBCO 272000Z 28012KT CAVOK 18/05 Q1016","temp":18,"dewp":5,"wdir":280,"wspd":12,"visib":"6+","altim":1016,"clouds":[],"obsTime":1777320000},"SBAR":{"icaoId":"SBAR","flightCategory":"VFR","rawOb":"METAR SBAR 272000Z 14009KT 9999 FEW023 29/22 Q1012","temp":29,"dewp":22,"wdir":140,"wspd":9,"visib":"6+","altim":1012,"clouds":[{"cover":"FEW","base":2300}],"obsTime":1777320000},"SBPP":{"icaoId":"SBPP","flightCategory":"IFR","rawOb":"METAR SBPP 272000Z 14009KT 3000 -DZ OVC007 17/16 Q1017","temp":17,"dewp":16,"wdir":140,"wspd":9,"visib":1.86,"altim":1017,"clouds":[{"cover":"OVC","base":700}],"obsTime":1777320000},"SBCA":{"icaoId":"SBCA","flightCategory":"VFR","rawOb":"METAR SBCA 272000Z 20005KT 9999 FEW045 BKN100 19/13 Q1018","temp":19,"dewp":13,"wdir":200,"wspd":5,"visib":"6+","altim":1018,"clouds":[{"cover":"FEW","base":4500},{"cover":"BKN","base":10000}],"obsTime":1777320000},"SBPS":{"icaoId":"SBPS","flightCategory":"VFR","rawOb":"METAR SBPS 272000Z 05010KT 9999 SCT025 28/22 Q1014","temp":28,"dewp":22,"wdir":50,"wspd":10,"visib":"6+","altim":1014,"clouds":[{"cover":"SCT","base":2500}],"obsTime":1777320000},"SBDN":{"icaoId":"SBDN","flightCategory":"VFR","rawOb":"METAR SBDN 272000Z 25004KT 9999 FEW013 SCT073 23/21 Q1014","temp":23,"dewp":21,"wdir":250,"wspd":4,"visib":"6+","altim":1014,"clouds":[{"cover":"FEW","base":1300},{"cover":"SCT","base":7300}],"obsTime":1777320000},"SBSC":{"icaoId":"SBSC","flightCategory":"MVFR","rawOb":"METAR SBSC 272000Z 20008KT 8000 SCT010 BKN020 26/23 Q1012","temp":26,"dewp":23,"wdir":200,"wspd":8,"visib":4.97,"altim":1012,"clouds":[{"cover":"SCT","base":1000},{"cover":"BKN","base":2000}],"obsTime":1777320000},"SBBH":{"icaoId":"SBBH","flightCategory":"VFR","rawOb":"METAR SBBH 272000Z 26007KT CAVOK 29/17 Q1016","temp":29,"dewp":17,"wdir":260,"wspd":7,"visib":"6+","altim":1016,"clouds":[],"obsTime":1777320000},"SBSJ":{"icaoId":"SBSJ","flightCategory":"VFR","rawOb":"METAR SBSJ 272000Z 25008KT 220V280 9999 FEW048 BKN100 28/18 Q1014","temp":28,"dewp":18,"wdir":250,"wspd":8,"visib":"6+","altim":1014,"clouds":[{"cover":"FEW","base":4800},{"cover":"BKN","base":10000}],"obsTime":1777320000},"SBES":{"icaoId":"SBES","flightCategory":"VFR","rawOb":"METAR SBES 272000Z VRB04KT CAVOK 27/// Q1011","temp":null,"dewp":null,"wdir":"VRB","wspd":4,"visib":"6+","altim":1011,"clouds":[],"obsTime":1777320000},"SBSM":{"icaoId":"SBSM","flightCategory":"VFR","rawOb":"METAR SBSM 272000Z 28009KT CAVOK 17/05 Q1017","temp":17,"dewp":5,"wdir":280,"wspd":9,"visib":"6+","altim":1017,"clouds":[],"obsTime":1777320000},"SBBU":{"icaoId":"SBBU","flightCategory":"VFR","rawOb":"METAR SBBU 272000Z 25008KT 9999 FEW040 26/20 Q1015","temp":26,"dewp":20,"wdir":250,"wspd":8,"visib":"6+","altim":1015,"clouds":[{"cover":"FEW","base":4000}],"obsTime":1777320000},"SBSR":{"icaoId":"SBSR","flightCategory":"VFR","rawOb":"METAR SBSR 272000Z 12002KT 9999 VCSH SCT030 FEW035TCU BKN070 25/20 Q1015","temp":25,"dewp":20,"wdir":120,"wspd":2,"visib":"6+","altim":1015,"clouds":[{"cover":"SCT","base":3000},{"cover":"FEW","base":3500},{"cover":"BKN","base":7000}],"obsTime":1777320000},"SBIP":{"icaoId":"SBIP","flightCategory":"VFR","rawOb":"METAR SBIP 272000Z AUTO 34002KT CAVOK 29/21 Q1012","temp":29,"dewp":21,"wdir":340,"wspd":2,"visib":"6+","altim":1012,"clouds":[],"obsTime":1777320000},"SBTF":{"icaoId":"SBTF","flightCategory":"VFR","rawOb":"METAR SBTF 272000Z 06003KT 9999 SCT020 33/25 Q1007","temp":33,"dewp":25,"wdir":60,"wspd":3,"visib":"6+","altim":1007,"clouds":[{"cover":"SCT","base":2000}],"obsTime":1777320000},"SBTT":{"icaoId":"SBTT","flightCategory":"VFR","rawOb":"METAR SBTT 272000Z 10002KT 9999 SCT030 31/22 Q1008","temp":31,"dewp":22,"wdir":100,"wspd":2,"visib":"6+","altim":1008,"clouds":[{"cover":"SCT","base":3000}],"obsTime":1777320000},"SBUY":{"icaoId":"SBUY","flightCategory":"VFR","rawOb":"METAR SBUY 272000Z 06002KT 9999 SCT020 FEW030TCU BKN080 26/25 Q1007","temp":26,"dewp":25,"wdir":60,"wspd":2,"visib":"6+","altim":1007,"clouds":[{"cover":"SCT","base":2000},{"cover":"FEW","base":3000},{"cover":"BKN","base":8000}],"obsTime":1777320000},"SBKG":{"icaoId":"SBKG","flightCategory":"VFR","rawOb":"METAR SBKG 272000Z 13008KT 090V160 9999 SCT025 FEW026TCU SCT080 26/23 Q1014","temp":26,"dewp":23,"wdir":130,"wspd":8,"visib":"6+","altim":1014,"clouds":[{"cover":"SCT","base":2500},{"cover":"FEW","base":2600},{"cover":"SCT","base":8000}],"obsTime":1777320000},"SBOI":{"icaoId":"SBOI","flightCategory":"VFR","rawOb":"METAR SBOI 272000Z AUTO 03006KT 9999 SCT034 31/24 Q1011","temp":31,"dewp":24,"wdir":30,"wspd":6,"visib":"6+","altim":1011,"clouds":[{"cover":"SCT","base":3400}],"obsTime":1777320000},"SBVH":{"icaoId":"SBVH","flightCategory":"VFR","rawOb":"METAR SBVH 272000Z 34004KT 9999 SCT040 SCT100 28/23 Q1012","temp":28,"dewp":23,"wdir":340,"wspd":4,"visib":"6+","altim":1012,"clouds":[{"cover":"SCT","base":4000},{"cover":"SCT","base":10000}],"obsTime":1777320000},"SBBQ":{"icaoId":"SBBQ","flightCategory":"VFR","rawOb":"METAR SBBQ 272000Z 28003KT CAVOK 27/15 Q1020","temp":27,"dewp":15,"wdir":280,"wspd":3,"visib":"6+","altim":1020,"clouds":[],"obsTime":1777320000},"SBCC":{"icaoId":"SBCC","flightCategory":"MVFR","rawOb":"METAR SBCC 272000Z 19005KT 160V220 9999 BKN025 28/22 Q1011","temp":28,"dewp":22,"wdir":190,"wspd":5,"visib":"6+","altim":1011,"clouds":[{"cover":"BKN","base":2500}],"obsTime":1777320000},"SBAN":{"icaoId":"SBAN","flightCategory":"VFR","rawOb":"METAR SBAN 272000Z 25007KT 9999 VCSH SCT030 FEW040TCU 27/16 Q1018","temp":27,"dewp":16,"wdir":250,"wspd":7,"visib":"6+","altim":1018,"clouds":[{"cover":"SCT","base":3000},{"cover":"FEW","base":4000}],"obsTime":1777320000},"SBPF":{"icaoId":"SBPF","flightCategory":"VFR","rawOb":"METAR SBPF 272000Z 24006KT CAVOK 14/M02 Q1018","temp":14,"dewp":-2,"wdir":240,"wspd":6,"visib":"6+","altim":1018,"clouds":[],"obsTime":1777320000},"SBJP":{"icaoId":"SBJP","flightCategory":"VFR","rawOb":"METAR SBJP 272000Z 13013KT 9999 SCT025 26/25 Q1011","temp":26,"dewp":25,"wdir":130,"wspd":13,"visib":"6+","altim":1011,"clouds":[{"cover":"SCT","base":2500}],"obsTime":1777320000},"SBIH":{"icaoId":"SBIH","flightCategory":"VFR","rawOb":"METAR SBIH 272000Z 00000KT 9999 SCT018 FEW025TCU 26/08 Q1010","temp":26,"dewp":8,"wdir":0,"wspd":0,"visib":"6+","altim":1010,"clouds":[{"cover":"SCT","base":1800},{"cover":"FEW","base":2500}],"obsTime":1777320000},"SBJV":{"icaoId":"SBJV","flightCategory":"VFR","rawOb":"METAR SBJV 272000Z 03005KT 9999 FEW030 27/20 Q1012","temp":27,"dewp":20,"wdir":30,"wspd":5,"visib":"6+","altim":1012,"clouds":[{"cover":"FEW","base":3000}],"obsTime":1777320000},"SBLE":{"icaoId":"SBLE","flightCategory":"VFR","rawOb":"METAR SBLE 272000Z AUTO 20003KT 170V230 CAVOK 28/19 Q1015","temp":28,"dewp":19,"wdir":200,"wspd":3,"visib":"6+","altim":1015,"clouds":[],"obsTime":1777320000},"SBAF":{"icaoId":"SBAF","flightCategory":"VFR","rawOb":"METAR SBAF 272000Z 18012KT 160V220 9999 FEW020 FEW030TCU 27/26 Q1012","temp":27,"dewp":26,"wdir":180,"wspd":12,"visib":"6+","altim":1012,"clouds":[{"cover":"FEW","base":2000},{"cover":"FEW","base":3000}],"obsTime":1777320000},"SBGW":{"icaoId":"SBGW","flightCategory":"VFR","rawOb":"METAR SBGW 272000Z 31003KT 9999 SCT030 SCT080 29/17 Q1013","temp":29,"dewp":17,"wdir":310,"wspd":3,"visib":"6+","altim":1013,"clouds":[{"cover":"SCT","base":3000},{"cover":"SCT","base":8000}],"obsTime":1777320000},"SBJR":{"icaoId":"SBJR","flightCategory":"MVFR","rawOb":"METAR SBJR 272000Z 22004KT 9999 SCT010 BKN018 27/24 Q1012","temp":27,"dewp":24,"wdir":220,"wspd":4,"visib":"6+","altim":1012,"clouds":[{"cover":"SCT","base":1000},{"cover":"BKN","base":1800}],"obsTime":1777320000},"SBLS":{"icaoId":"SBLS","flightCategory":"VFR","rawOb":"METAR SBLS 272000Z 11004KT 050V120 9999 FEW048 28/16 Q1017","temp":28,"dewp":16,"wdir":110,"wspd":4,"visib":"6+","altim":1017,"clouds":[{"cover":"FEW","base":4800}],"obsTime":1777320000},"SBMT":{"icaoId":"SBMT","flightCategory":"MVFR","rawOb":"METAR SBMT 272000Z 27008KT 9999 BKN020 BKN080 24/19 Q1016","temp":24,"dewp":19,"wdir":270,"wspd":8,"visib":"6+","altim":1016,"clouds":[{"cover":"BKN","base":2000},{"cover":"BKN","base":8000}],"obsTime":1777320000},"SBST":{"icaoId":"SBST","flightCategory":"MVFR","rawOb":"METAR SBST 272000Z 20003KT 160V230 7000 FEW013 OVC018 23/23 Q1012","temp":23,"dewp":23,"wdir":200,"wspd":3,"visib":4.35,"altim":1012,"clouds":[{"cover":"FEW","base":1300},{"cover":"OVC","base":1800}],"obsTime":1777320000},"SBTA":{"icaoId":"SBTA","flightCategory":"MVFR","rawOb":"METAR SBTA 272000Z VRB06KT 8000 VCSH SCT025 BKN090 25/19 Q1013","temp":25,"dewp":19,"wdir":"VRB","wspd":6,"visib":4.97,"altim":1013,"clouds":[{"cover":"SCT","base":2500},{"cover":"BKN","base":9000}],"obsTime":1777320000}}}