{"updated":1784915753,"count":87,"data":{"SBBR":{"icaoId":"SBBR","flightCategory":"VFR","rawOb":"METAR SBBR 241600Z 07006KT 010V150 9999 FEW045 28/10 Q1021","temp":28,"dewp":10,"wdir":70,"wspd":6,"visib":"6+","altim":1021,"clouds":[{"cover":"FEW","base":4500}],"obsTime":1784908800},"SBTE":{"icaoId":"SBTE","flightCategory":"MVFR","rawOb":"METAR SBTE 241600Z 07007KT 020V140 9999 BKN025 34/20 Q1012","temp":34,"dewp":20,"wdir":70,"wspd":7,"visib":"6+","altim":1012,"clouds":[{"cover":"BKN","base":2500}],"obsTime":1784908800},"SBCG":{"icaoId":"SBCG","flightCategory":"VFR","rawOb":"METAR SBCG 241600Z 31007KT 280V350 9999 SCT040 28/18 Q1017","temp":28,"dewp":18,"wdir":310,"wspd":7,"visib":"6+","altim":1017,"clouds":[{"cover":"SCT","base":4000}],"obsTime":1784908800},"SBGO":{"icaoId":"SBGO","flightCategory":"VFR","rawOb":"METAR SBGO 241600Z 34007KT 9999 SCT048 33/11 Q1017","temp":33,"dewp":11,"wdir":340,"wspd":7,"visib":"6+","altim":1017,"clouds":[{"cover":"SCT","base":4800}],"obsTime":1784908800},"SBCR":{"icaoId":"SBCR","flightCategory":"VFR","rawOb":"METAR SBCR 241600Z 09004KT 020V190 9999 FEW035 29/21 Q1014","temp":29,"dewp":21,"wdir":90,"wspd":4,"visib":"6+","altim":1014,"clouds":[{"cover":"FEW","base":3500}],"obsTime":1784908800},"SBPJ":{"icaoId":"SBPJ","flightCategory":"VFR","rawOb":"METAR SBPJ 241600Z VRB06KT 9999 SCT035 34/17 Q1013","temp":34,"dewp":17,"wdir":"VRB","wspd":6,"visib":"6+","altim":1013,"clouds":[{"cover":"SCT","base":3500}],"obsTime":1784908800},"SBRF":{"icaoId":"SBRF","flightCategory":"VFR","rawOb":"METAR SBRF 241600Z 16015KT 9999 SCT023 SCT100 28/22 Q1015","temp":28,"dewp":22,"wdir":160,"wspd":15,"visib":"6+","altim":1015,"clouds":[{"cover":"SCT","base":2300},{"cover":"SCT","base":10000}],"obsTime":1784908800},"SBSL":{"icaoId":"SBSL","flightCategory":"MVFR","rawOb":"METAR SBSL 241600Z 06011KT 030V090 9999 BKN030 30/24 Q1012","temp":30,"dewp":24,"wdir":60,"wspd":11,"visib":"6+","altim":1012,"clouds":[{"cover":"BKN","base":3000}],"obsTime":1784908800},"SBCZ":{"icaoId":"SBCZ","flightCategory":"MVFR","rawOb":"METAR SBCZ 241600Z 30003KT 9999 BKN025 BKN100 29/24 Q1015","temp":29,"dewp":24,"wdir":300,"wspd":3,"visib":"6+","altim":1015,"clouds":[{"cover":"BKN","base":2500},{"cover":"BKN","base":10000}],"obsTime":1784908800},"SBNT":{"icaoId":"SBNT","flightCategory":"IFR","rawOb":"METAR SBNT 241600Z 14012KT 3500 -RA BR BKN007 OVC015 24/23 Q1014","temp":24,"dewp":23,"wdir":140,"wspd":12,"visib":2.17,"altim":1014,"clouds":[{"cover":"BKN","base":700},{"cover":"OVC","base":1500}],"obsTime":1784908800},"SBFL":{"icaoId":"SBFL","flightCategory":"VFR","rawOb":"METAR SBFL 241600Z 18004KT 150V220 9999 SCT030 SCT040 BKN100 20/14 Q1020","temp":20,"dewp":14,"wdir":180,"wspd":4,"visib":"6+","altim":1020,"clouds":[{"cover":"SCT","base":3000},{"cover":"SCT","base":4000},{"cover":"BKN","base":10000}],"obsTime":1784908800},"SBSN":{"icaoId":"SBSN","flightCategory":"VFR","rawOb":"METAR SBSN 241600Z 10016KT 9999 FEW023 FEW026TCU 32/25 Q1013","temp":32,"dewp":25,"wdir":100,"wspd":16,"visib":"6+","altim":1013,"clouds":[{"cover":"FEW","base":2300},{"cover":"FEW","base":2600}],"obsTime":1784908800},"SBPA":{"icaoId":"SBPA","flightCategory":"VFR","rawOb":"METAR SBPA 241600Z 10007KT 9999 FEW020 SCT070 20/14 Q1018","temp":20,"dewp":14,"wdir":100,"wspd":7,"visib":"6+","altim":1018,"clouds":[{"cover":"FEW","base":2000},{"cover":"SCT","base":7000}],"obsTime":1784908800},"SBVT":{"icaoId":"SBVT","flightCategory":"VFR","rawOb":"METAR SBVT 241600Z 17016KT 9999 FEW030 SCT080 26/17 Q1017","temp":26,"dewp":17,"wdir":170,"wspd":16,"visib":"6+","altim":1017,"clouds":[{"cover":"FEW","base":3000},{"cover":"SCT","base":8000}],"obsTime":1784908800},"SBPV":{"icaoId":"SBPV","flightCategory":"VFR","rawOb":"METAR SBPV 241600Z 08002KT 9999 SCT030 33/21 Q1013","temp":33,"dewp":21,"wdir":80,"wspd":2,"visib":"6+","altim":1013,"clouds":[{"cover":"SCT","base":3000}],"obsTime":1784908800},"SBIL":{"icaoId":"SBIL","flightCategory":"VFR","rawOb":"METAR SBIL 241600Z 12008KT 9999 FEW023 FEW025TCU SCT080 28/22 Q1016","temp":28,"dewp":22,"wdir":120,"wspd":8,"visib":"6+","altim":1016,"clouds":[{"cover":"FEW","base":2300},{"cover":"FEW","base":2500},{"cover":"SCT","base":8000}],"obsTime":1784908800},"SBJU":{"icaoId":"SBJU","flightCategory":"MVFR","rawOb":"METAR SBJU 241600Z 09006KT 9999 BKN020 31/17 Q1015","temp":31,"dewp":17,"wdir":90,"wspd":6,"visib":"6+","altim":1015,"clouds":[{"cover":"BKN","base":2000}],"obsTime":1784908800},"SBMG":{"icaoId":"SBMG","flightCategory":"IFR","rawOb":"METAR SBMG 241600Z 09007KT 9999 TS FEW005 BKN008 //////CB 18/16 Q1018","temp":18,"dewp":16,"wdir":90,"wspd":7,"visib":"6+","altim":1018,"clouds":[{"cover":"FEW","base":500},{"cover":"BKN","base":800}],"obsTime":1784908800},"SBAT":{"icaoId":"SBAT","flightCategory":"VFR","rawOb":"METAR SBAT 241600Z 01003KT 9999 SCT030 SCT070 36/17 Q1013","temp":36,"dewp":17,"wdir":10,"wspd":3,"visib":"6+","altim":1013,"clouds":[{"cover":"SCT","base":3000},{"cover":"SCT","base":7000}],"obsTime":1784908800},"SBHT":{"icaoId":"SBHT","flightCategory":"MVFR","rawOb":"METAR SBHT 241600Z 11006KT 9999 BKN030 31/25 Q1013","temp":31,"dewp":25,"wdir":110,"wspd":6,"visib":"6+","altim":1013,"clouds":[{"cover":"BKN","base":3000}],"obsTime":1784908800},"SBME":{"icaoId":"SBME","flightCategory":"VFR","rawOb":"METAR SBME 241600Z 17011KT 9999 SCT030 BKN070 24/19 Q1018","temp":24,"dewp":19,"wdir":170,"wspd":11,"visib":"6+","altim":1018,"clouds":[{"cover":"SCT","base":3000},{"cover":"BKN","base":7000}],"obsTime":1784908800},"SBMK":{"icaoId":"SBMK","flightCategory":"VFR","rawOb":"METAR SBMK 241600Z 10004KT 9999 FEW036 28/12 Q1018","temp":28,"dewp":12,"wdir":100,"wspd":4,"visib":"6+","altim":1018,"clouds":[{"cover":"FEW","base":3600}],"obsTime":1784908800},"SBUL":{"icaoId":"SBUL","flightCategory":"VFR","rawOb":" SBUL 241600Z 04008KT CAVOK 28/12 Q1020","temp":28,"dewp":12,"wdir":40,"wspd":8,"visib":"6+","altim":1020,"clouds":[],"obsTime":1784908800},"SBUR":{"icaoId":"SBUR","flightCategory":"VFR","rawOb":"METAR SBUR 241600Z 12009KT CAVOK 25/15 Q1019","temp":25,"dewp":15,"wdir":120,"wspd":9,"visib":"6+","altim":1019,"clouds":[],"obsTime":1784908800},"SBMQ":{"icaoId":"SBMQ","flightCategory":"VFR","rawOb":"METAR SBMQ 241600Z 05011KT 9999 SCT025 32/25 Q1013","temp":32,"dewp":25,"wdir":50,"wspd":11,"visib":"6+","altim":1013,"clouds":[{"cover":"SCT","base":2500}],"obsTime":1784908800},"SBFI":{"icaoId":"SBFI","flightCategory":"MVFR","rawOb":"METAR SBFI 241600Z 07004KT 9999 BKN013 BKN035 FEW040TCU 20/19 Q1016","temp":20,"dewp":19,"wdir":70,"wspd":4,"visib":"6+","altim":1016,"clouds":[{"cover":"BKN","base":1300},{"cover":"BKN","base":3500},{"cover":"FEW","base":4000}],"obsTime":1784908800},"SBLO":{"icaoId":"SBLO","flightCategory":"LIFR","rawOb":"METAR SBLO 241600Z 14005KT 5000 BR BKN003 OVC012 15/14 Q1020","temp":15,"dewp":14,"wdir":140,"wspd":5,"visib":3.11,"altim":1020,"clouds":[{"cover":"BKN","base":300},{"cover":"OVC","base":1200}],"obsTime":1784908800},"SBCB":{"icaoId":"SBCB","flightCategory":"VFR","rawOb":"METAR SBCB 241600Z 26008KT 9999 SCT020 BKN050 23/19 Q1018","temp":23,"dewp":19,"wdir":260,"wspd":8,"visib":"6+","altim":1018,"clouds":[{"cover":"SCT","base":2000},{"cover":"BKN","base":5000}],"obsTime":1784908800},"SBBE":{"icaoId":"SBBE","flightCategory":"VFR","rawOb":"METAR SBBE 241600Z 10006KT 9999 BKN035 32/24 Q1013","temp":32,"dewp":24,"wdir":100,"wspd":6,"visib":"6+","altim":1013,"clouds":[{"cover":"BKN","base":3500}],"obsTime":1784908800},"SBKP":{"icaoId":"SBKP","flightCategory":"MVFR","rawOb":"METAR SBKP 241600Z 32003KT 7000 -RA BKN012 BKN020 BKN030 17/16 Q1021","temp":17,"dewp":16,"wdir":320,"wspd":3,"visib":4.35,"altim":1021,"clouds":[{"cover":"BKN","base":1200},{"cover":"BKN","base":2000},{"cover":"BKN","base":3000}],"obsTime":1784908800},"SBMO":{"icaoId":"SBMO","flightCategory":"VFR","rawOb":"METAR SBMO 241600Z 13009KT 9999 SCT020 28/18 Q1016","temp":28,"dewp":18,"wdir":130,"wspd":9,"visib":"6+","altim":1016,"clouds":[{"cover":"SCT","base":2000}],"obsTime":1784908800},"SBGL":{"icaoId":"SBGL","flightCategory":"MVFR","rawOb":"METAR SBGL 241600Z COR 22007KT 6000 -RA SCT018 OVC040 21/18 Q1018","temp":21,"dewp":18,"wdir":220,"wspd":7,"visib":3.73,"altim":1018,"clouds":[{"cover":"SCT","base":1800},{"cover":"OVC","base":4000}],"obsTime":1784908800},"SBSG":{"icaoId":"SBSG","flightCategory":"IFR","rawOb":"METAR SBSG 241600Z 14007KT 100V180 6000 FEW004 BKN006 BKN012 25/24 Q1014 RERA","temp":25,"dewp":24,"wdir":140,"wspd":7,"visib":3.73,"altim":1014,"clouds":[{"cover":"FEW","base":400},{"cover":"BKN","base":600},{"cover":"BKN","base":1200}],"obsTime":1784908800},"SBSP":{"icaoId":"SBSP","flightCategory":"IFR","rawOb":"METAR SBSP 241600Z 15006KT 9999 BKN009 15/14 Q1022","temp":15,"dewp":14,"wdir":150,"wspd":6,"visib":"6+","altim":1022,"clouds":[{"cover":"BKN","base":900}],"obsTime":1784908800},"SBGR":{"icaoId":"SBGR","flightCategory":"MVFR","rawOb":"METAR SBGR 241600Z 12005KT 9999 OVC013 17/14 Q1021","temp":17,"dewp":14,"wdir":120,"wspd":5,"visib":"6+","altim":1021,"clouds":[{"cover":"OVC","base":1300}],"obsTime":1784908800},"SBBV":{"icaoId":"SBBV","flightCategory":"MVFR","rawOb":"METAR SBBV 241600Z 10008KT 9999 BKN030 33/21 Q1013","temp":33,"dewp":21,"wdir":100,"wspd":8,"visib":"6+","altim":1013,"clouds":[{"cover":"BKN","base":3000}],"obsTime":1784908800},"SBFZ":{"icaoId":"SBFZ","flightCategory":"VFR","rawOb":"METAR SBFZ 241600Z 12014KT 080V140 9999 SCT023 30/23 Q1013","temp":30,"dewp":23,"wdir":120,"wspd":14,"visib":"6+","altim":1013,"clouds":[{"cover":"SCT","base":2300}],"obsTime":1784908800},"SBRB":{"icaoId":"SBRB","flightCategory":"VFR","rawOb":"METAR SBRB 241600Z 24003KT 160V310 9999 SCT020 29/23 Q1015","temp":29,"dewp":23,"wdir":240,"wspd":3,"visib":"6+","altim":1015,"clouds":[{"cover":"SCT","base":2000}],"obsTime":1784908800},"SBCF":{"icaoId":"SBCF","flightCategory":"VFR","rawOb":"METAR SBCF 241600Z 28004KT 9999 SCT040 28/12 Q1019","temp":28,"dewp":12,"wdir":280,"wspd":4,"visib":"6+","altim":1019,"clouds":[{"cover":"SCT","base":4000}],"obsTime":1784908800},"SBSV":{"icaoId":"SBSV","flightCategory":"VFR","rawOb":"METAR SBSV 241600Z 11009KT 9999 SCT023 28/20 Q1016","temp":28,"dewp":20,"wdir":110,"wspd":9,"visib":"6+","altim":1016,"clouds":[{"cover":"SCT","base":2300}],"obsTime":1784908800},"SBEG":{"icaoId":"SBEG","flightCategory":"VFR","rawOb":"METAR SBEG 241600Z 04009KT 350V100 9999 SCT040 33/22 Q1012","temp":33,"dewp":22,"wdir":40,"wspd":9,"visib":"6+","altim":1012,"clouds":[{"cover":"SCT","base":4000}],"obsTime":1784908800},"SBCT":{"icaoId":"SBCT","flightCategory":"MVFR","rawOb":"METAR SBCT 241600Z 08006KT 9999 OVC013 14/11 Q1022","temp":14,"dewp":11,"wdir":80,"wspd":6,"visib":"6+","altim":1022,"clouds":[{"cover":"OVC","base":1300}],"obsTime":1784908800},"SBCP":{"icaoId":"SBCP","flightCategory":"VFR","rawOb":"METAR SBCP 241600Z 19006KT 9999 FEW025 27/18 Q1017","temp":27,"dewp":18,"wdir":190,"wspd":6,"visib":"6+","altim":1017,"clouds":[{"cover":"FEW","base":2500}],"obsTime":1784908800},"SBMA":{"icaoId":"SBMA","flightCategory":"MVFR","rawOb":"METAR SBMA 241600Z 02009KT 9999 BKN025 32/22 Q1013","temp":32,"dewp":22,"wdir":20,"wspd":9,"visib":"6+","altim":1013,"clouds":[{"cover":"BKN","base":2500}],"obsTime":1784908800},"SBSJ":{"icaoId":"SBSJ","flightCategory":"MVFR","rawOb":"METAR SBSJ 241600Z 21003KT 160V240 9999 BKN014 OVC019 18/14 Q1021","temp":18,"dewp":14,"wdir":210,"wspd":3,"visib":"6+","altim":1021,"clouds":[{"cover":"BKN","base":1400},{"cover":"OVC","base":1900}],"obsTime":1784908800},"SBTT":{"icaoId":"SBTT","flightCategory":"VFR","rawOb":"METAR SBTT 241600Z 23006KT 180V260 9999 SCT018 SCT090 28/25 Q1014","temp":28,"dewp":25,"wdir":230,"wspd":6,"visib":"6+","altim":1014,"clouds":[{"cover":"SCT","base":1800},{"cover":"SCT","base":9000}],"obsTime":1784908800},"SBIP":{"icaoId":"SBIP","flightCategory":"VFR","rawOb":"METAR SBIP 241600Z AUTO 36006KT 260V030 CAVOK 29/18 Q1017","temp":29,"dewp":18,"wdir":360,"wspd":6,"visib":"6+","altim":1017,"clouds":[],"obsTime":1784908800},"SBKG":{"icaoId":"SBKG","flightCategory":"VFR","rawOb":"METAR SBKG 241600Z 13008KT 9999 SCT025 BKN090 27/19 Q1017","temp":27,"dewp":19,"wdir":130,"wspd":8,"visib":"6+","altim":1017,"clouds":[{"cover":"SCT","base":2500},{"cover":"BKN","base":9000}],"obsTime":1784908800},"SBSC":{"icaoId":"SBSC","flightCategory":"VFR","rawOb":"METAR SBSC 241600Z 23002KT 9999 SCT020 OVC050 20/19 Q1019","temp":20,"dewp":19,"wdir":230,"wspd":2,"visib":"6+","altim":1019,"clouds":[{"cover":"SCT","base":2000},{"cover":"OVC","base":5000}],"obsTime":1784908800},"SBSR":{"icaoId":"SBSR","flightCategory":"VFR","rawOb":"METAR SBSR 241600Z 12008KT 9999 SCT035 BKN080 20/19 Q1019","temp":20,"dewp":19,"wdir":120,"wspd":8,"visib":"6+","altim":1019,"clouds":[{"cover":"SCT","base":3500},{"cover":"BKN","base":8000}],"obsTime":1784908800},"SBES":{"icaoId":"SBES","flightCategory":"VFR","rawOb":"METAR SBES 241600Z 22007KT 190V250 9999 SCT020 SCT050 BKN100 22/// Q1018","temp":null,"dewp":null,"wdir":220,"wspd":7,"visib":"6+","altim":1018,"clouds":[{"cover":"SCT","base":2000},{"cover":"SCT","base":5000},{"cover":"BKN","base":10000}],"obsTime":1784908800},"SBCA":{"icaoId":"SBCA","flightCategory":"MVFR","rawOb":"METAR SBCA 241700Z 04009KT 9999 -RA BKN010 FEW040TCU OVC080 18/15 Q1018","temp":18,"dewp":15,"wdir":40,"wspd":9,"visib":"6+","altim":1018,"clouds":[{"cover":"BKN","base":1000},{"cover":"FEW","base":4000},{"cover":"OVC","base":8000}],"obsTime":1784912400},"SBTU":{"icaoId":"SBTU","flightCategory":"MVFR","rawOb":"METAR SBTU 241600Z AUTO 21009KT 180V240 9999 // BKN012/// ///// Q1015","temp":null,"dewp":null,"wdir":210,"wspd":9,"visib":"6+","altim":1015,"clouds":[{"cover":"BKN","base":1200}],"obsTime":1784908800},"SBCO":{"icaoId":"SBCO","flightCategory":"VFR","rawOb":"METAR SBCO 241600Z 13007KT 9999 SCT030 20/14 Q1019","temp":20,"dewp":14,"wdir":130,"wspd":7,"visib":"6+","altim":1019,"clouds":[{"cover":"SCT","base":3000}],"obsTime":1784908800},"SBSM":{"icaoId":"SBSM","flightCategory":"VFR","rawOb":"METAR SBSM 241600Z 11005KT 060V140 9999 FEW016 SCT100 18/14 Q1018","temp":18,"dewp":14,"wdir":110,"wspd":5,"visib":"6+","altim":1018,"clouds":[{"cover":"FEW","base":1600},{"cover":"SCT","base":10000}],"obsTime":1784908800},"SBPP":{"icaoId":"SBPP","flightCategory":"VFR","rawOb":"METAR SBPP 241600Z 03007KT 9999 FEW013 SCT023 23/19 Q1018","temp":23,"dewp":19,"wdir":30,"wspd":7,"visib":"6+","altim":1018,"clouds":[{"cover":"FEW","base":1300},{"cover":"SCT","base":2300}],"obsTime":1784908800},"SBAR":{"icaoId":"SBAR","flightCategory":"VFR","rawOb":"METAR SBAR 241600Z 12008KT 9999 FEW025 27/20 Q1016","temp":27,"dewp":20,"wdir":120,"wspd":8,"visib":"6+","altim":1016,"clouds":[{"cover":"FEW","base":2500}],"obsTime":1784908800},"SBCC":{"icaoId":"SBCC","flightCategory":"VFR","rawOb":"METAR SBCC 241600Z 34005KT CAVOK 33/16 Q1014","temp":33,"dewp":16,"wdir":340,"wspd":5,"visib":"6+","altim":1014,"clouds":[],"obsTime":1784908800},"SBBU":{"icaoId":"SBBU","flightCategory":"LIFR","rawOb":"METAR SBBU 241600Z 12006KT 4000 TSRA BR BKN003 BKN020 FEW035CB OVC100 16/16 Q1021","temp":16,"dewp":16,"wdir":120,"wspd":6,"visib":2.49,"altim":1021,"clouds":[{"cover":"BKN","base":300},{"cover":"BKN","base":2000},{"cover":"FEW","base":3500},{"cover":"OVC","base":10000}],"obsTime":1784908800},"SBDN":{"icaoId":"SBDN","flightCategory":"VFR","rawOb":"METAR SBDN 241600Z 08007KT 9999 FEW011 SCT050 19/15 Q1018","temp":19,"dewp":15,"wdir":80,"wspd":7,"visib":"6+","altim":1018,"clouds":[{"cover":"FEW","base":1100},{"cover":"SCT","base":5000}],"obsTime":1784908800},"SBTF":{"icaoId":"SBTF","flightCategory":"VFR","rawOb":"METAR SBTF 241600Z 09005KT 9999 SCT020 33/25 Q1012","temp":33,"dewp":25,"wdir":90,"wspd":5,"visib":"6+","altim":1012,"clouds":[{"cover":"SCT","base":2000}],"obsTime":1784908800},"SBUY":{"icaoId":"SBUY","flightCategory":"VFR","rawOb":"METAR SBUY 241600Z 17003KT 9999 SCT025 FEW035TCU 31/24 Q1012","temp":31,"dewp":24,"wdir":170,"wspd":3,"visib":"6+","altim":1012,"clouds":[{"cover":"SCT","base":2500},{"cover":"FEW","base":3500}],"obsTime":1784908800},"SBGM":{"icaoId":"SBGM","flightCategory":"MVFR","rawOb":"METAR SBGM 241600Z 10003KT 9999 BKN013 28/20 Q1014","temp":28,"dewp":20,"wdir":100,"wspd":3,"visib":"6+","altim":1014,"clouds":[{"cover":"BKN","base":1300}],"obsTime":1784908800},"SBVH":{"icaoId":"SBVH","flightCategory":"VFR","rawOb":"METAR SBVH 241600Z VRB04KT 9999 SCT033 30/18 Q1017","temp":30,"dewp":18,"wdir":"VRB","wspd":4,"visib":"6+","altim":1017,"clouds":[{"cover":"SCT","base":3300}],"obsTime":1784908800},"SBPL":{"icaoId":"SBPL","flightCategory":"VFR","rawOb":"METAR SBPL 241600Z 11011KT 9999 FEW025 BKN070 30/16 Q1016","temp":30,"dewp":16,"wdir":110,"wspd":11,"visib":"6+","altim":1016,"clouds":[{"cover":"FEW","base":2500},{"cover":"BKN","base":7000}],"obsTime":1784908800},"SBCJ":{"icaoId":"SBCJ","flightCategory":"MVFR","rawOb":"METAR SBCJ 241600Z 09003KT 9999 BKN017 29/21 Q1016","temp":29,"dewp":21,"wdir":90,"wspd":3,"visib":"6+","altim":1016,"clouds":[{"cover":"BKN","base":1700}],"obsTime":1784908800},"SBPS":{"icaoId":"SBPS","flightCategory":"VFR","rawOb":"METAR SBPS 241600Z 05004KT 9999 SCT020 BKN080 26/21 Q1017","temp":26,"dewp":21,"wdir":50,"wspd":4,"visib":"6+","altim":1017,"clouds":[{"cover":"SCT","base":2000},{"cover":"BKN","base":8000}],"obsTime":1784908800},"SBAU":{"icaoId":"SBAU","flightCategory":"VFR","rawOb":"METAR SBAU 241600Z 09016KT 9999 TS SCT025 FEW045CB BKN070 23/16 Q1018","temp":23,"dewp":16,"wdir":90,"wspd":16,"visib":"6+","altim":1018,"clouds":[{"cover":"SCT","base":2500},{"cover":"FEW","base":4500},{"cover":"BKN","base":7000}],"obsTime":1784908800},"SBAX":{"icaoId":"SBAX","flightCategory":"VFR","rawOb":"METAR SBAX 241600Z 05003KT 9999 SCT030 SCT045 26/13 Q1020","temp":26,"dewp":13,"wdir":50,"wspd":3,"visib":"6+","altim":1020,"clouds":[{"cover":"SCT","base":3000},{"cover":"SCT","base":4500}],"obsTime":1784908800},"SBPB":{"icaoId":"SBPB","flightCategory":"VFR","rawOb":"METAR SBPB 241600Z 05015KT 9999 SCT020 31/25 Q1012","temp":31,"dewp":25,"wdir":50,"wspd":15,"visib":"6+","altim":1012,"clouds":[{"cover":"SCT","base":2000}],"obsTime":1784908800},"SBBH":{"icaoId":"SBBH","flightCategory":"VFR","rawOb":"METAR SBBH 241600Z 00000KT 9999 BKN040 28/12 Q1019","temp":28,"dewp":12,"wdir":0,"wspd":0,"visib":"6+","altim":1019,"clouds":[{"cover":"BKN","base":4000}],"obsTime":1784908800},"SBOI":{"icaoId":"SBOI","flightCategory":"VFR","rawOb":"METAR SBOI 241600Z AUTO 08007KT 040V140 9999 SCT043 32/23 Q1014","temp":32,"dewp":23,"wdir":80,"wspd":7,"visib":"6+","altim":1014,"clouds":[{"cover":"SCT","base":4300}],"obsTime":1784908800},"SBBQ":{"icaoId":"SBBQ","flightCategory":"MVFR","rawOb":"METAR SBBQ 241600Z 02005KT 150V270 9999 BKN030 BKN100 22/15 Q1023","temp":22,"dewp":15,"wdir":20,"wspd":5,"visib":"6+","altim":1023,"clouds":[{"cover":"BKN","base":3000},{"cover":"BKN","base":10000}],"obsTime":1784908800},"SBTD":{"icaoId":"SBTD","flightCategory":"MVFR","rawOb":"METAR SBTD 241600Z /////KT 9999 FEW004 BKN020 BKN070 19/18 Q1018","temp":19,"dewp":18,"wdir":null,"wspd":null,"visib":"6+","altim":1018,"clouds":[{"cover":"FEW","base":400},{"cover":"BKN","base":2000},{"cover":"BKN","base":7000}],"obsTime":1784908800},"SBJP":{"icaoId":"SBJP","flightCategory":"VFR","rawOb":"METAR SBJP 241600Z 13015KT 9999 SCT030 BKN070 29/21 Q1014","temp":29,"dewp":21,"wdir":130,"wspd":15,"visib":"6+","altim":1014,"clouds":[{"cover":"SCT","base":3000},{"cover":"BKN","base":7000}],"obsTime":1784908800},"SBLE":{"icaoId":"SBLE","flightCategory":"VFR","rawOb":"METAR SBLE 241600Z AUTO 08004KT 030V180 CAVOK 27/16 Q1017","temp":27,"dewp":16,"wdir":80,"wspd":4,"visib":"6+","altim":1017,"clouds":[],"obsTime":1784908800},"SBJV":{"icaoId":"SBJV","flightCategory":"VFR","rawOb":"METAR SBJV 241600Z 08002KT 9999 SCT018 OVC060 20/15 Q1021","temp":20,"dewp":15,"wdir":80,"wspd":2,"visib":"6+","altim":1021,"clouds":[{"cover":"SCT","base":1800},{"cover":"OVC","base":6000}],"obsTime":1784908800},"SBNM":{"icaoId":"SBNM","flightCategory":"MVFR","rawOb":"METAR SBNM 241600Z 10005KT 9999 BKN020 18/15 Q1017","temp":18,"dewp":15,"wdir":100,"wspd":5,"visib":"6+","altim":1017,"clouds":[{"cover":"BKN","base":2000}],"obsTime":1784908800},"SBAN":{"icaoId":"SBAN","flightCategory":"VFR","rawOb":"METAR SBAN 241600Z 34006KT 9999 SCT048 29/10 Q1021","temp":29,"dewp":10,"wdir":340,"wspd":6,"visib":"6+","altim":1021,"clouds":[{"cover":"SCT","base":4800}],"obsTime":1784908800},"SBIH":{"icaoId":"SBIH","flightCategory":"VFR","rawOb":"METAR SBIH 241600Z 04005KT 9999 SCT018 33/24 Q1012","temp":33,"dewp":24,"wdir":40,"wspd":5,"visib":"6+","altim":1012,"clouds":[{"cover":"SCT","base":1800}],"obsTime":1784908800},"SBGW":{"icaoId":"SBGW","flightCategory":"MVFR","rawOb":"METAR SBGW 241600Z 22005KT 200V260 5000 BR BKN010 OVC020 19/15 Q1020","temp":19,"dewp":15,"wdir":220,"wspd":5,"visib":3.11,"altim":1020,"clouds":[{"cover":"BKN","base":1000},{"cover":"OVC","base":2000}],"obsTime":1784908800},"SBJR":{"icaoId":"SBJR","flightCategory":"IFR","rawOb":"METAR SBJR 241600Z 27001KT 3000 -RA BR BKN005 OVC025 20/19 Q1019 RERA","temp":20,"dewp":19,"wdir":270,"wspd":1,"visib":1.86,"altim":1019,"clouds":[{"cover":"BKN","base":500},{"cover":"OVC","base":2500}],"obsTime":1784908800},"SBLS":{"icaoId":"SBLS","flightCategory":"VFR","rawOb":"METAR SBLS 241600Z 16004KT 070V220 9999 SCT040 FEW050TCU 28/12 Q1019","temp":28,"dewp":12,"wdir":160,"wspd":4,"visib":"6+","altim":1019,"clouds":[{"cover":"SCT","base":4000},{"cover":"FEW","base":5000}],"obsTime":1784908800},"SBMT":{"icaoId":"SBMT","flightCategory":"IFR","rawOb":"METAR SBMT 241600Z 13004KT 090V180 4000 BR BKN013 OVC015 16/13 Q1021","temp":16,"dewp":13,"wdir":130,"wspd":4,"visib":2.49,"altim":1021,"clouds":[{"cover":"BKN","base":1300},{"cover":"OVC","base":1500}],"obsTime":1784908800},"SBST":{"icaoId":"SBST","flightCategory":"IFR","rawOb":"METAR SBST 241600Z 36002KT 2000 BR FEW010 OVC019 18/17 Q1020","temp":18,"dewp":17,"wdir":360,"wspd":2,"visib":1.24,"altim":1020,"clouds":[{"cover":"FEW","base":1000},{"cover":"OVC","base":1900}],"obsTime":1784908800},"SBTA":{"icaoId":"SBTA","flightCategory":"VFR","rawOb":"METAR SBTA 241600Z VRB03KT 9999 SCT020 BKN100 20/15 Q1020","temp":20,"dewp":15,"wdir":"VRB","wspd":3,"visib":"6+","altim":1020,"clouds":[{"cover":"SCT","base":2000},{"cover":"BKN","base":10000}],"obsTime":1784908800},"SBAF":{"icaoId":"SBAF","flightCategory":"IFR","rawOb":" SBAF 241600Z 21007KT 3000 -DZ BR BKN012 OVC025 20/20 Q1019","temp":20,"dewp":20,"wdir":210,"wspd":7,"visib":1.86,"altim":1019,"clouds":[{"cover":"BKN","base":1200},{"cover":"OVC","base":2500}],"obsTime":1784908800}}}