{"updated":1773950251,"count":85,"data":{"SBEG":{"icaoId":"SBEG","flightCategory":"IFR","rawOb":"METAR SBEG 191800Z 27012KT 8000 BKN007 FEW030TCU BKN100 25/24 Q1011","temp":25,"dewp":24,"wdir":270,"wspd":12,"visib":4.97,"altim":1011,"clouds":[{"cover":"BKN","base":700},{"cover":"FEW","base":3000},{"cover":"BKN","base":10000}],"obsTime":1773943200},"SBGR":{"icaoId":"SBGR","flightCategory":"VFR","rawOb":"METAR SBGR 191800Z 08007KT 9999 -RA SCT020 BKN035 23/20 Q1011","temp":23,"dewp":20,"wdir":80,"wspd":7,"visib":"6+","altim":1011,"clouds":[{"cover":"SCT","base":2000},{"cover":"BKN","base":3500}],"obsTime":1773943200},"SBBE":{"icaoId":"SBBE","flightCategory":"MVFR","rawOb":"METAR SBBE 191800Z 02005KT 9999 BKN020 FEW025TCU 26/25 Q1007","temp":26,"dewp":25,"wdir":20,"wspd":5,"visib":"6+","altim":1007,"clouds":[{"cover":"BKN","base":2000},{"cover":"FEW","base":2500}],"obsTime":1773943200},"SBBR":{"icaoId":"SBBR","flightCategory":"VFR","rawOb":"METAR SBBR 191800Z 36008G20KT 310V040 9999 SCT040 FEW045TCU 29/17 Q1012","temp":29,"dewp":17,"wdir":360,"wspd":8,"visib":"6+","altim":1012,"clouds":[{"cover":"SCT","base":4000},{"cover":"FEW","base":4500}],"obsTime":1773943200},"SBPV":{"icaoId":"SBPV","flightCategory":"VFR","rawOb":"METAR SBPV 191800Z 32004KT 9999 SCT030 BKN100 32/22 Q1008","temp":32,"dewp":22,"wdir":320,"wspd":4,"visib":"6+","altim":1008,"clouds":[{"cover":"SCT","base":3000},{"cover":"BKN","base":10000}],"obsTime":1773943200},"SBAT":{"icaoId":"SBAT","flightCategory":"VFR","rawOb":"METAR SBAT 191800Z 14003KT 9999 FEW030 FEW035TCU 28/24 Q1008","temp":28,"dewp":24,"wdir":140,"wspd":3,"visib":"6+","altim":1008,"clouds":[{"cover":"FEW","base":3000},{"cover":"FEW","base":3500}],"obsTime":1773943200},"SBBV":{"icaoId":"SBBV","flightCategory":"VFR","rawOb":"METAR SBBV 191800Z 35003KT 9999 SCT040 FEW045TCU 33/19 Q1009","temp":33,"dewp":19,"wdir":350,"wspd":3,"visib":"6+","altim":1009,"clouds":[{"cover":"SCT","base":4000},{"cover":"FEW","base":4500}],"obsTime":1773943200},"SBCB":{"icaoId":"SBCB","flightCategory":"VFR","rawOb":"METAR SBCB 191800Z 10011KT 9999 FEW015 SCT080 27/23 Q1007","temp":27,"dewp":23,"wdir":100,"wspd":11,"visib":"6+","altim":1007,"clouds":[{"cover":"FEW","base":1500},{"cover":"SCT","base":8000}],"obsTime":1773943200},"SBCF":{"icaoId":"SBCF","flightCategory":"VFR","rawOb":"METAR SBCF 191800Z 18003KT 9999 TS FEW020 FEW040CB BKN100 24/21 Q1012","temp":24,"dewp":21,"wdir":180,"wspd":3,"visib":"6+","altim":1012,"clouds":[{"cover":"FEW","base":2000},{"cover":"FEW","base":4000},{"cover":"BKN","base":10000}],"obsTime":1773943200},"SBCG":{"icaoId":"SBCG","flightCategory":"VFR","rawOb":"METAR SBCG 191800Z 32007KT 280V360 9999 SCT025 FEW045TCU 29/21 Q1009","temp":29,"dewp":21,"wdir":320,"wspd":7,"visib":"6+","altim":1009,"clouds":[{"cover":"SCT","base":2500},{"cover":"FEW","base":4500}],"obsTime":1773943200},"SBCP":{"icaoId":"SBCP","flightCategory":"MVFR","rawOb":"METAR SBCP 191800Z 09010KT 9999 BKN020 BKN100 29/24 Q1006","temp":29,"dewp":24,"wdir":90,"wspd":10,"visib":"6+","altim":1006,"clouds":[{"cover":"BKN","base":2000},{"cover":"BKN","base":10000}],"obsTime":1773943200},"SBCR":{"icaoId":"SBCR","flightCategory":"VFR","rawOb":"METAR SBCR 191800Z 04006KT 9999 BKN035 FEW040TCU 32/24 Q1005","temp":32,"dewp":24,"wdir":40,"wspd":6,"visib":"6+","altim":1005,"clouds":[{"cover":"BKN","base":3500},{"cover":"FEW","base":4000}],"obsTime":1773943200},"SBCT":{"icaoId":"SBCT","flightCategory":"VFR","rawOb":"METAR SBCT 191800Z VRB03KT 9999 SCT048 SCT065 28/17 Q1011","temp":28,"dewp":17,"wdir":"VRB","wspd":3,"visib":"6+","altim":1011,"clouds":[{"cover":"SCT","base":4800},{"cover":"SCT","base":6500}],"obsTime":1773943200},"SBCZ":{"icaoId":"SBCZ","flightCategory":"VFR","rawOb":"METAR SBCZ 191800Z 31004KT 9999 SCT030 BKN100 30/24 Q1009","temp":30,"dewp":24,"wdir":310,"wspd":4,"visib":"6+","altim":1009,"clouds":[{"cover":"SCT","base":3000},{"cover":"BKN","base":10000}],"obsTime":1773943200},"SBFI":{"icaoId":"SBFI","flightCategory":"VFR","rawOb":"METAR SBFI 191800Z 22006KT 9999 SCT030 FEW040TCU 34/22 Q1006","temp":34,"dewp":22,"wdir":220,"wspd":6,"visib":"6+","altim":1006,"clouds":[{"cover":"SCT","base":3000},{"cover":"FEW","base":4000}],"obsTime":1773943200},"SBFL":{"icaoId":"SBFL","flightCategory":"VFR","rawOb":"METAR SBFL 191800Z 28002KT 9999 SCT020 BKN040 27/24 Q1007","temp":27,"dewp":24,"wdir":280,"wspd":2,"visib":"6+","altim":1007,"clouds":[{"cover":"SCT","base":2000},{"cover":"BKN","base":4000}],"obsTime":1773943200},"SBFZ":{"icaoId":"SBFZ","flightCategory":"VFR","rawOb":"METAR SBFZ 191800Z 09012KT 9999 SCT025 31/25 Q1007","temp":31,"dewp":25,"wdir":90,"wspd":12,"visib":"6+","altim":1007,"clouds":[{"cover":"SCT","base":2500}],"obsTime":1773943200},"SBGL":{"icaoId":"SBGL","flightCategory":"VFR","rawOb":"METAR SBGL 191800Z 14010KT 9999 FEW030 BKN100 28/22 Q1006","temp":28,"dewp":22,"wdir":140,"wspd":10,"visib":"6+","altim":1006,"clouds":[{"cover":"FEW","base":3000},{"cover":"BKN","base":10000}],"obsTime":1773943200},"SBGO":{"icaoId":"SBGO","flightCategory":"VFR","rawOb":"METAR SBGO 191800Z 34005KT 9999 VCSH SCT040 FEW050TCU SCT080 29/21 Q1010","temp":29,"dewp":21,"wdir":340,"wspd":5,"visib":"6+","altim":1010,"clouds":[{"cover":"SCT","base":4000},{"cover":"FEW","base":5000},{"cover":"SCT","base":8000}],"obsTime":1773943200},"SBHT":{"icaoId":"SBHT","flightCategory":"MVFR","rawOb":"METAR SBHT 191800Z 12004KT 9999 BKN025 31/24 Q1007","temp":31,"dewp":24,"wdir":120,"wspd":4,"visib":"6+","altim":1007,"clouds":[{"cover":"BKN","base":2500}],"obsTime":1773943200},"SBIL":{"icaoId":"SBIL","flightCategory":"VFR","rawOb":"METAR SBIL 191800Z 07010KT 9999 FEW030 32/24 Q1008","temp":32,"dewp":24,"wdir":70,"wspd":10,"visib":"6+","altim":1008,"clouds":[{"cover":"FEW","base":3000}],"obsTime":1773943200},"SBJU":{"icaoId":"SBJU","flightCategory":"VFR","rawOb":"METAR SBJU 191800Z 10006KT 9999 SCT022 29/24 Q1009","temp":29,"dewp":24,"wdir":100,"wspd":6,"visib":"6+","altim":1009,"clouds":[{"cover":"SCT","base":2200}],"obsTime":1773943200},"SBKP":{"icaoId":"SBKP","flightCategory":"IFR","rawOb":"METAR SBKP 191800Z 28009KT 3000 +TSRA BR SCT009 BKN020 FEW040CB 22/21 Q1009 RETSRA","temp":22,"dewp":21,"wdir":280,"wspd":9,"visib":1.86,"altim":1009,"clouds":[{"cover":"SCT","base":900},{"cover":"BKN","base":2000},{"cover":"FEW","base":4000}],"obsTime":1773943200},"SBLO":{"icaoId":"SBLO","flightCategory":"VFR","rawOb":"METAR SBLO 191800Z VRB02KT 9999 FEW035 FEW050TCU 30/21 Q1008","temp":30,"dewp":21,"wdir":"VRB","wspd":2,"visib":"6+","altim":1008,"clouds":[{"cover":"FEW","base":3500},{"cover":"FEW","base":5000}],"obsTime":1773943200},"SBMA":{"icaoId":"SBMA","flightCategory":"VFR","rawOb":"METAR SBMA 191800Z 25003KT 9999 SCT025TCU 32/21 Q1007","temp":32,"dewp":21,"wdir":250,"wspd":3,"visib":"6+","altim":1007,"clouds":[{"cover":"SCT","base":2500}],"obsTime":1773943200},"SBME":{"icaoId":"SBME","flightCategory":"VFR","rawOb":"METAR SBME 191800Z 12008KT 9999 SCT030 29/24 Q1006","temp":29,"dewp":24,"wdir":120,"wspd":8,"visib":"6+","altim":1006,"clouds":[{"cover":"SCT","base":3000}],"obsTime":1773943200},"SBMG":{"icaoId":"SBMG","flightCategory":"VFR","rawOb":"METAR SBMG 191800Z 28008KT 9999 SCT045 FEW050TCU 32/21 Q1007","temp":32,"dewp":21,"wdir":280,"wspd":8,"visib":"6+","altim":1007,"clouds":[{"cover":"SCT","base":4500},{"cover":"FEW","base":5000}],"obsTime":1773943200},"SBMK":{"icaoId":"SBMK","flightCategory":"VFR","rawOb":"METAR SBMK 191800Z 30009KT 9999 -RA SCT045 24/21 Q1011","temp":24,"dewp":21,"wdir":300,"wspd":9,"visib":"6+","altim":1011,"clouds":[{"cover":"SCT","base":4500}],"obsTime":1773943200},"SBMO":{"icaoId":"SBMO","flightCategory":"VFR","rawOb":"METAR SBMO 191800Z 12012KT 9999 FEW030 30/22 Q1008","temp":30,"dewp":22,"wdir":120,"wspd":12,"visib":"6+","altim":1008,"clouds":[{"cover":"FEW","base":3000}],"obsTime":1773943200},"SBMQ":{"icaoId":"SBMQ","flightCategory":"VFR","rawOb":"METAR SBMQ 191800Z 08007KT 9999 VCSH SCT023 FEW028TCU BKN100 29/24 Q1008","temp":29,"dewp":24,"wdir":80,"wspd":7,"visib":"6+","altim":1008,"clouds":[{"cover":"SCT","base":2300},{"cover":"FEW","base":2800},{"cover":"BKN","base":10000}],"obsTime":1773943200},"SBNT":{"icaoId":"SBNT","flightCategory":"VFR","rawOb":"METAR SBNT 191800Z 09013KT 9999 FEW033 31/22 Q1007","temp":31,"dewp":22,"wdir":90,"wspd":13,"visib":"6+","altim":1007,"clouds":[{"cover":"FEW","base":3300}],"obsTime":1773943200},"SBPA":{"icaoId":"SBPA","flightCategory":"MVFR","rawOb":"METAR SBPA 191800Z 16010KT 9999 VCSH BKN014 BKN045 26/22 Q1009","temp":26,"dewp":22,"wdir":160,"wspd":10,"visib":"6+","altim":1009,"clouds":[{"cover":"BKN","base":1400},{"cover":"BKN","base":4500}],"obsTime":1773943200},"SBPJ":{"icaoId":"SBPJ","flightCategory":"VFR","rawOb":"METAR SBPJ 191800Z 36007KT 9999 SCT025 29/24 Q1008","temp":29,"dewp":24,"wdir":360,"wspd":7,"visib":"6+","altim":1008,"clouds":[{"cover":"SCT","base":2500}],"obsTime":1773943200},"SBRB":{"icaoId":"SBRB","flightCategory":"MVFR","rawOb":"METAR SBRB 191800Z 35005KT 9999 BKN030 BKN050 31/24 Q1009","temp":31,"dewp":24,"wdir":350,"wspd":5,"visib":"6+","altim":1009,"clouds":[{"cover":"BKN","base":3000},{"cover":"BKN","base":5000}],"obsTime":1773943200},"SBRF":{"icaoId":"SBRF","flightCategory":"VFR","rawOb":"METAR SBRF 191800Z 11007KT 070V150 9999 FEW025 SCT070 30/23 Q1008","temp":30,"dewp":23,"wdir":110,"wspd":7,"visib":"6+","altim":1008,"clouds":[{"cover":"FEW","base":2500},{"cover":"SCT","base":7000}],"obsTime":1773943200},"SBSG":{"icaoId":"SBSG","flightCategory":"VFR","rawOb":"METAR SBSG 191800Z 12008KT 090V150 9999 FEW033 31/21 Q1008","temp":31,"dewp":21,"wdir":120,"wspd":8,"visib":"6+","altim":1008,"clouds":[{"cover":"FEW","base":3300}],"obsTime":1773943200},"SBSL":{"icaoId":"SBSL","flightCategory":"MVFR","rawOb":"METAR SBSL 191800Z 15004KT 9999 VCTS BKN020 FEW025CB 26/25 Q1006","temp":26,"dewp":25,"wdir":150,"wspd":4,"visib":"6+","altim":1006,"clouds":[{"cover":"BKN","base":2000},{"cover":"FEW","base":2500}],"obsTime":1773943200},"SBSN":{"icaoId":"SBSN","flightCategory":"VFR","rawOb":"METAR SBSN 191800Z 34005KT 9999 SCT020 BKN100 27/24 Q1008","temp":27,"dewp":24,"wdir":340,"wspd":5,"visib":"6+","altim":1008,"clouds":[{"cover":"SCT","base":2000},{"cover":"BKN","base":10000}],"obsTime":1773943200},"SBSP":{"icaoId":"SBSP","flightCategory":"MVFR","rawOb":"METAR SBSP 191800Z COR 16010KT 9999 -RA SCT012 BKN023 21/20 Q1012 RETS","temp":21,"dewp":20,"wdir":160,"wspd":10,"visib":"6+","altim":1012,"clouds":[{"cover":"SCT","base":1200},{"cover":"BKN","base":2300}],"obsTime":1773943200},"SBSV":{"icaoId":"SBSV","flightCategory":"VFR","rawOb":"METAR SBSV 191800Z 10010KT 9999 FEW023 30/22 Q1008","temp":30,"dewp":22,"wdir":100,"wspd":10,"visib":"6+","altim":1008,"clouds":[{"cover":"FEW","base":2300}],"obsTime":1773943200},"SBTE":{"icaoId":"SBTE","flightCategory":"MVFR","rawOb":"METAR SBTE 191800Z 16004KT 9999 BKN020 FEW025TCU BKN100 30/25 Q1006 RETS","temp":30,"dewp":25,"wdir":160,"wspd":4,"visib":"6+","altim":1006,"clouds":[{"cover":"BKN","base":2000},{"cover":"FEW","base":2500},{"cover":"BKN","base":10000}],"obsTime":1773943200},"SBUL":{"icaoId":"SBUL","flightCategory":"VFR","rawOb":" SBUL 191800Z 36015KT 9999 VCSH SCT040 FEW048TCU 28/19 Q1011","temp":28,"dewp":19,"wdir":360,"wspd":15,"visib":"6+","altim":1011,"clouds":[{"cover":"SCT","base":4000},{"cover":"FEW","base":4800}],"obsTime":1773943200},"SBUR":{"icaoId":"SBUR","flightCategory":"VFR","rawOb":"METAR SBUR 191800Z 23012KT 9999 VCSH SCT035 FEW037TCU SCT100 28/21 Q1009","temp":28,"dewp":21,"wdir":230,"wspd":12,"visib":"6+","altim":1009,"clouds":[{"cover":"SCT","base":3500},{"cover":"FEW","base":3700},{"cover":"SCT","base":10000}],"obsTime":1773943200},"SBVT":{"icaoId":"SBVT","flightCategory":"MVFR","rawOb":"METAR SBVT 191800Z 29008KT 5000 -TSRA SCT012 BKN020 FEW040CB 24/23 Q1007","temp":24,"dewp":23,"wdir":290,"wspd":8,"visib":3.11,"altim":1007,"clouds":[{"cover":"SCT","base":1200},{"cover":"BKN","base":2000},{"cover":"FEW","base":4000}],"obsTime":1773943200},"SBSJ":{"icaoId":"SBSJ","flightCategory":"VFR","rawOb":"METAR SBSJ 191800Z 27005KT 030V120 9999 FEW033 BKN100 27/19 Q1009","temp":27,"dewp":19,"wdir":270,"wspd":5,"visib":"6+","altim":1009,"clouds":[{"cover":"FEW","base":3300},{"cover":"BKN","base":10000}],"obsTime":1773943200},"SBOI":{"icaoId":"SBOI","flightCategory":"VFR","rawOb":"METAR SBOI 191800Z AUTO 03006KT 9999 -RA SCT014 BKN042 27/24 Q1009","temp":27,"dewp":24,"wdir":30,"wspd":6,"visib":"6+","altim":1009,"clouds":[{"cover":"SCT","base":1400},{"cover":"BKN","base":4200}],"obsTime":1773943200},"SBAR":{"icaoId":"SBAR","flightCategory":"VFR","rawOb":"METAR SBAR 191800Z 11012KT 9999 FEW020 31/24 Q1008","temp":31,"dewp":24,"wdir":110,"wspd":12,"visib":"6+","altim":1008,"clouds":[{"cover":"FEW","base":2000}],"obsTime":1773943200},"SBAX":{"icaoId":"SBAX","flightCategory":"VFR","rawOb":"METAR SBAX 191800Z 36008KT 9999 SCT030 BKN051 28/20 Q1011","temp":28,"dewp":20,"wdir":360,"wspd":8,"visib":"6+","altim":1011,"clouds":[{"cover":"SCT","base":3000},{"cover":"BKN","base":5100}],"obsTime":1773943200},"SBBH":{"icaoId":"SBBH","flightCategory":"MVFR","rawOb":"METAR SBBH 191800Z 10003KT 6000 -TSRA BKN025 FEW030CB BKN090 24/20 Q1011","temp":24,"dewp":20,"wdir":100,"wspd":3,"visib":3.73,"altim":1011,"clouds":[{"cover":"BKN","base":2500},{"cover":"FEW","base":3000},{"cover":"BKN","base":9000}],"obsTime":1773943200},"SBBQ":{"icaoId":"SBBQ","flightCategory":"MVFR","rawOb":"METAR SBBQ 191800Z 36004KT 5000 -RA FEW015 BKN030 FEW035TCU BKN090 19/18 Q1014 RERA","temp":19,"dewp":18,"wdir":360,"wspd":4,"visib":3.11,"altim":1014,"clouds":[{"cover":"FEW","base":1500},{"cover":"BKN","base":3000},{"cover":"FEW","base":3500},{"cover":"BKN","base":9000}],"obsTime":1773943200},"SBBU":{"icaoId":"SBBU","flightCategory":"VFR","rawOb":"METAR SBBU 191800Z 26003KT 9999 BKN035 31/23 Q1007","temp":31,"dewp":23,"wdir":260,"wspd":3,"visib":"6+","altim":1007,"clouds":[{"cover":"BKN","base":3500}],"obsTime":1773943200},"SBCA":{"icaoId":"SBCA","flightCategory":"MVFR","rawOb":"METAR SBCA 191800Z 33012G22KT 300V360 9999 TS VCSH BKN020 FEW025CB 27/19 Q1010","temp":27,"dewp":19,"wdir":330,"wspd":12,"visib":"6+","altim":1010,"clouds":[{"cover":"BKN","base":2000},{"cover":"FEW","base":2500}],"obsTime":1773943200},"SBCC":{"icaoId":"SBCC","flightCategory":"VFR","rawOb":"METAR SBCC 191800Z 20005KT 9999 SCT025 24/23 Q1009","temp":24,"dewp":23,"wdir":200,"wspd":5,"visib":"6+","altim":1009,"clouds":[{"cover":"SCT","base":2500}],"obsTime":1773943200},"SBCJ":{"icaoId":"SBCJ","flightCategory":"VFR","rawOb":"METAR SBCJ 191800Z 12002KT 9999 SCT013 25/21 Q1012","temp":25,"dewp":21,"wdir":120,"wspd":2,"visib":"6+","altim":1012,"clouds":[{"cover":"SCT","base":1300}],"obsTime":1773943200},"SBCO":{"icaoId":"SBCO","flightCategory":"MVFR","rawOb":"METAR SBCO 191800Z 14011KT 110V180 9999 VCSH BKN023 SCT035 28/23 Q1009","temp":28,"dewp":23,"wdir":140,"wspd":11,"visib":"6+","altim":1009,"clouds":[{"cover":"BKN","base":2300},{"cover":"SCT","base":3500}],"obsTime":1773943200},"SBDN":{"icaoId":"SBDN","flightCategory":"VFR","rawOb":"METAR SBDN 191800Z 29006KT 9999 SCT035 FEW060TCU 31/23 Q1007","temp":31,"dewp":23,"wdir":290,"wspd":6,"visib":"6+","altim":1007,"clouds":[{"cover":"SCT","base":3500},{"cover":"FEW","base":6000}],"obsTime":1773943200},"SBES":{"icaoId":"SBES","flightCategory":"VFR","rawOb":"METAR SBES 191800Z 09007KT 060V130 9999 FEW015 BKN100 27/// Q1007","temp":null,"dewp":null,"wdir":90,"wspd":7,"visib":"6+","altim":1007,"clouds":[{"cover":"FEW","base":1500},{"cover":"BKN","base":10000}],"obsTime":1773943200},"SBGM":{"icaoId":"SBGM","flightCategory":"MVFR","rawOb":"METAR SBGM 191800Z 24006KT 200V280 9999 BKN029 31/15 Q1008","temp":31,"dewp":15,"wdir":240,"wspd":6,"visib":"6+","altim":1008,"clouds":[{"cover":"BKN","base":2900}],"obsTime":1773943200},"SBIP":{"icaoId":"SBIP","flightCategory":"VFR","rawOb":"METAR SBIP 191800Z AUTO 20007KT 150V230 CAVOK 28/23 Q1008","temp":28,"dewp":23,"wdir":200,"wspd":7,"visib":"6+","altim":1008,"clouds":[],"obsTime":1773943200},"SBKG":{"icaoId":"SBKG","flightCategory":"VFR","rawOb":"METAR SBKG 191800Z 11008KT 9999 FEW025 30/19 Q1010","temp":30,"dewp":19,"wdir":110,"wspd":8,"visib":"6+","altim":1010,"clouds":[{"cover":"FEW","base":2500}],"obsTime":1773943200},"SBPB":{"icaoId":"SBPB","flightCategory":"MVFR","rawOb":"METAR SBPB 191800Z 08005KT 9999 BKN015 OVC070 27/25 Q1006","temp":27,"dewp":25,"wdir":80,"wspd":5,"visib":"6+","altim":1006,"clouds":[{"cover":"BKN","base":1500},{"cover":"OVC","base":7000}],"obsTime":1773943200},"SBPL":{"icaoId":"SBPL","flightCategory":"VFR","rawOb":"METAR SBPL 191800Z 13002KT 9999 FEW030 32/20 Q1008","temp":32,"dewp":20,"wdir":130,"wspd":2,"visib":"6+","altim":1008,"clouds":[{"cover":"FEW","base":3000}],"obsTime":1773943200},"SBPP":{"icaoId":"SBPP","flightCategory":"VFR","rawOb":"METAR SBPP 191800Z 21002KT 9999 SCT025 29/20 Q1010","temp":29,"dewp":20,"wdir":210,"wspd":2,"visib":"6+","altim":1010,"clouds":[{"cover":"SCT","base":2500}],"obsTime":1773943200},"SBPS":{"icaoId":"SBPS","flightCategory":"VFR","rawOb":"METAR SBPS 191800Z 05013KT 9999 SCT025 31/23 Q1007","temp":31,"dewp":23,"wdir":50,"wspd":13,"visib":"6+","altim":1007,"clouds":[{"cover":"SCT","base":2500}],"obsTime":1773943200},"SBSC":{"icaoId":"SBSC","flightCategory":"VFR","rawOb":"METAR SBSC 191800Z 19008KT 9999 FEW021 SCT030 27/23 Q1007","temp":27,"dewp":23,"wdir":190,"wspd":8,"visib":"6+","altim":1007,"clouds":[{"cover":"FEW","base":2100},{"cover":"SCT","base":3000}],"obsTime":1773943200},"SBSM":{"icaoId":"SBSM","flightCategory":"MVFR","rawOb":"METAR SBSM 191800Z VRB05KT 9999 BKN025 27/20 Q1009","temp":27,"dewp":20,"wdir":"VRB","wspd":5,"visib":"6+","altim":1009,"clouds":[{"cover":"BKN","base":2500}],"obsTime":1773943200},"SBSR":{"icaoId":"SBSR","flightCategory":"VFR","rawOb":"METAR SBSR 191800Z 25006KT 170V310 9999 SCT025 FEW040TCU 29/21 Q1007","temp":29,"dewp":21,"wdir":250,"wspd":6,"visib":"6+","altim":1007,"clouds":[{"cover":"SCT","base":2500},{"cover":"FEW","base":4000}],"obsTime":1773943200},"SBTF":{"icaoId":"SBTF","flightCategory":"VFR","rawOb":"METAR SBTF 191800Z 09004KT 9999 FEW012 BKN080 27/25 Q1010","temp":27,"dewp":25,"wdir":90,"wspd":4,"visib":"6+","altim":1010,"clouds":[{"cover":"FEW","base":1200},{"cover":"BKN","base":8000}],"obsTime":1773943200},"SBTT":{"icaoId":"SBTT","flightCategory":"VFR","rawOb":"METAR SBTT 191800Z 27004KT 9999 FEW015 29/22 Q1010","temp":29,"dewp":22,"wdir":270,"wspd":4,"visib":"6+","altim":1010,"clouds":[{"cover":"FEW","base":1500}],"obsTime":1773943200},"SBUY":{"icaoId":"SBUY","flightCategory":"VFR","rawOb":"METAR SBUY 191800Z 01002KT 9999 SCT020 26/23 Q1009","temp":26,"dewp":23,"wdir":10,"wspd":2,"visib":"6+","altim":1009,"clouds":[{"cover":"SCT","base":2000}],"obsTime":1773943200},"SBVH":{"icaoId":"SBVH","flightCategory":"MVFR","rawOb":"METAR SBVH 191800Z 29004KT 9999 SCT012 BKN025 24/23 Q1009","temp":24,"dewp":23,"wdir":290,"wspd":4,"visib":"6+","altim":1009,"clouds":[{"cover":"SCT","base":1200},{"cover":"BKN","base":2500}],"obsTime":1773943200},"SBAU":{"icaoId":"SBAU","flightCategory":"VFR","rawOb":"METAR SBAU 191800Z 12002KT 9999 SCT030 33/22 Q1007","temp":33,"dewp":22,"wdir":120,"wspd":2,"visib":"6+","altim":1007,"clouds":[{"cover":"SCT","base":3000}],"obsTime":1773943200},"SBGW":{"icaoId":"SBGW","flightCategory":"MVFR","rawOb":"METAR SBGW 191800Z 03004KT 350V080 7000 BKN017 BKN100 26/19 Q1009","temp":26,"dewp":19,"wdir":30,"wspd":4,"visib":4.35,"altim":1009,"clouds":[{"cover":"BKN","base":1700},{"cover":"BKN","base":10000}],"obsTime":1773943200},"SBAN":{"icaoId":"SBAN","flightCategory":"VFR","rawOb":"METAR SBAN 191800Z VRB05KT 9999 BKN035 FEW040TCU 27/18 Q1013","temp":27,"dewp":18,"wdir":"VRB","wspd":5,"visib":"6+","altim":1013,"clouds":[{"cover":"BKN","base":3500},{"cover":"FEW","base":4000}],"obsTime":1773943200},"SBLE":{"icaoId":"SBLE","flightCategory":"VFR","rawOb":"METAR SBLE 191800Z AUTO 06005KT 360V100 CAVOK 32/19 Q1010","temp":32,"dewp":19,"wdir":60,"wspd":5,"visib":"6+","altim":1010,"clouds":[],"obsTime":1773943200},"SBIH":{"icaoId":"SBIH","flightCategory":"VFR","rawOb":"METAR SBIH 191800Z 04002KT 9999 SCT010 BKN080 26/25 Q1007","temp":26,"dewp":25,"wdir":40,"wspd":2,"visib":"6+","altim":1007,"clouds":[{"cover":"SCT","base":1000},{"cover":"BKN","base":8000}],"obsTime":1773943200},"SBLS":{"icaoId":"SBLS","flightCategory":"VFR","rawOb":"METAR SBLS 191800Z 16004KT 9999 TS VCSH FEW015 FEW035CB BKN050 24/21 Q1011 RETS","temp":24,"dewp":21,"wdir":160,"wspd":4,"visib":"6+","altim":1011,"clouds":[{"cover":"FEW","base":1500},{"cover":"FEW","base":3500},{"cover":"BKN","base":5000}],"obsTime":1773943200},"SBAF":{"icaoId":"SBAF","flightCategory":"MVFR","rawOb":" SBAF 191800Z 19010KT 7000 FEW015 BKN030 BKN100 27/24 Q1007","temp":27,"dewp":24,"wdir":190,"wspd":10,"visib":4.35,"altim":1007,"clouds":[{"cover":"FEW","base":1500},{"cover":"BKN","base":3000},{"cover":"BKN","base":10000}],"obsTime":1773943200},"SBMT":{"icaoId":"SBMT","flightCategory":"MVFR","rawOb":"METAR SBMT 191800Z 13009KT 100V170 6000 SCT020 FEW040TCU BKN080 25/21 Q1010","temp":25,"dewp":21,"wdir":130,"wspd":9,"visib":3.73,"altim":1010,"clouds":[{"cover":"SCT","base":2000},{"cover":"FEW","base":4000},{"cover":"BKN","base":8000}],"obsTime":1773943200},"SBJV":{"icaoId":"SBJV","flightCategory":"VFR","rawOb":"METAR SBJV 191800Z 11009KT 9999 SCT030 30/25 Q1007","temp":30,"dewp":25,"wdir":110,"wspd":9,"visib":"6+","altim":1007,"clouds":[{"cover":"SCT","base":3000}],"obsTime":1773943200},"SBPF":{"icaoId":"SBPF","flightCategory":"VFR","rawOb":"METAR SBPF 191800Z 21011KT CAVOK 28/19 Q1011","temp":28,"dewp":19,"wdir":210,"wspd":11,"visib":"6+","altim":1011,"clouds":[],"obsTime":1773943200},"SBST":{"icaoId":"SBST","flightCategory":"IFR","rawOb":"METAR SBST 191800Z 10004KT 3000 -RA BR SCT015 OVC022 24/23 Q1007","temp":24,"dewp":23,"wdir":100,"wspd":4,"visib":1.86,"altim":1007,"clouds":[{"cover":"SCT","base":1500},{"cover":"OVC","base":2200}],"obsTime":1773943200},"SBJR":{"icaoId":"SBJR","flightCategory":"VFR","rawOb":"METAR SBJR 191800Z 19007KT 9999 FEW020 BKN100 29/23 Q1006","temp":29,"dewp":23,"wdir":190,"wspd":7,"visib":"6+","altim":1006,"clouds":[{"cover":"FEW","base":2000},{"cover":"BKN","base":10000}],"obsTime":1773943200},"SBTA":{"icaoId":"SBTA","flightCategory":"MVFR","rawOb":"METAR SBTA 191800Z 17004KT 100V220 9999 SCT016 BKN020 FEW030TCU BKN100 25/22 Q1009","temp":25,"dewp":22,"wdir":170,"wspd":4,"visib":"6+","altim":1009,"clouds":[{"cover":"SCT","base":1600},{"cover":"BKN","base":2000},{"cover":"FEW","base":3000},{"cover":"BKN","base":10000}],"obsTime":1773943200},"SBJP":{"icaoId":"SBJP","flightCategory":"VFR","rawOb":"METAR SBJP 191800Z 10010KT 9999 SCT030 30/22 Q1008","temp":30,"dewp":22,"wdir":100,"wspd":10,"visib":"6+","altim":1008,"clouds":[{"cover":"SCT","base":3000}],"obsTime":1773943200}}}