{"updated":1774294744,"count":85,"data":{"SBPA":{"icaoId":"SBPA","flightCategory":"VFR","rawOb":"METAR SBPA 231800Z 33004KT 270V030 9999 FEW030 SCT100 33/24 Q1005","temp":33,"dewp":24,"wdir":330,"wspd":4,"visib":"6+","altim":1005,"clouds":[{"cover":"FEW","base":3000},{"cover":"SCT","base":10000}],"obsTime":1774288800},"SBMA":{"icaoId":"SBMA","flightCategory":"VFR","rawOb":"METAR SBMA 231800Z 25002KT 9999 SCT020 FEW025TCU 33/24 Q1006","temp":33,"dewp":24,"wdir":250,"wspd":2,"visib":"6+","altim":1006,"clouds":[{"cover":"SCT","base":2000},{"cover":"FEW","base":2500}],"obsTime":1774288800},"SBEG":{"icaoId":"SBEG","flightCategory":"VFR","rawOb":"METAR SBEG 231800Z 04005KT 9999 TS VCSH SCT020 FEW025CB 25/22 Q1008","temp":25,"dewp":22,"wdir":40,"wspd":5,"visib":"6+","altim":1008,"clouds":[{"cover":"SCT","base":2000},{"cover":"FEW","base":2500}],"obsTime":1774288800},"SBME":{"icaoId":"SBME","flightCategory":"IFR","rawOb":"METAR SBME 231800Z 28003KT 2000 RA BKN015 OVC080 23/22 Q1012","temp":23,"dewp":22,"wdir":280,"wspd":3,"visib":1.24,"altim":1012,"clouds":[{"cover":"BKN","base":1500},{"cover":"OVC","base":8000}],"obsTime":1774288800},"SBCF":{"icaoId":"SBCF","flightCategory":"VFR","rawOb":"METAR SBCF 231800Z 10006KT 9999 SCT040 28/19 Q1012","temp":28,"dewp":19,"wdir":100,"wspd":6,"visib":"6+","altim":1012,"clouds":[{"cover":"SCT","base":4000}],"obsTime":1774288800},"SBMG":{"icaoId":"SBMG","flightCategory":"VFR","rawOb":"METAR SBMG 231800Z 34005KT 9999 VCSH FEW045 FEW045TCU 31/21 Q1010","temp":31,"dewp":21,"wdir":340,"wspd":5,"visib":"6+","altim":1010,"clouds":[{"cover":"FEW","base":4500},{"cover":"FEW","base":4500}],"obsTime":1774288800},"SBVT":{"icaoId":"SBVT","flightCategory":"VFR","rawOb":"METAR SBVT 231800Z 36005KT 330V030 9999 FEW015 SCT035 BKN080 25/22 Q1011","temp":25,"dewp":22,"wdir":360,"wspd":5,"visib":"6+","altim":1011,"clouds":[{"cover":"FEW","base":1500},{"cover":"SCT","base":3500},{"cover":"BKN","base":8000}],"obsTime":1774288800},"SBMK":{"icaoId":"SBMK","flightCategory":"VFR","rawOb":"METAR SBMK 231800Z 35005KT 9999 BKN045 30/19 Q1011","temp":30,"dewp":19,"wdir":350,"wspd":5,"visib":"6+","altim":1011,"clouds":[{"cover":"BKN","base":4500}],"obsTime":1774288800},"SBCG":{"icaoId":"SBCG","flightCategory":"VFR","rawOb":"METAR SBCG 231800Z 33009KT 280V010 9999 BKN045 FEW050TCU 33/19 Q1011","temp":33,"dewp":19,"wdir":330,"wspd":9,"visib":"6+","altim":1011,"clouds":[{"cover":"BKN","base":4500},{"cover":"FEW","base":5000}],"obsTime":1774288800},"SBMO":{"icaoId":"SBMO","flightCategory":"VFR","rawOb":"METAR SBMO 231800Z 10013KT 9999 SCT030 31/22 Q1010","temp":31,"dewp":22,"wdir":100,"wspd":13,"visib":"6+","altim":1010,"clouds":[{"cover":"SCT","base":3000}],"obsTime":1774288800},"SBMQ":{"icaoId":"SBMQ","flightCategory":"MVFR","rawOb":"METAR SBMQ 231800Z 06012KT 9999 BKN026 FEW032TCU 32/24 Q1008","temp":32,"dewp":24,"wdir":60,"wspd":12,"visib":"6+","altim":1008,"clouds":[{"cover":"BKN","base":2600},{"cover":"FEW","base":3200}],"obsTime":1774288800},"SBFI":{"icaoId":"SBFI","flightCategory":"VFR","rawOb":"SPECI SBFI 231745Z 30006KT 9999 TS VCSH SCT035 FEW040CB SCT080 33/25 Q1008","temp":33,"dewp":25,"wdir":300,"wspd":6,"visib":"6+","altim":1008,"clouds":[{"cover":"SCT","base":3500},{"cover":"FEW","base":4000},{"cover":"SCT","base":8000}],"obsTime":1774287900},"SBFL":{"icaoId":"SBFL","flightCategory":"VFR","rawOb":"METAR SBFL 231800Z 01011KT 9999 FEW030 31/22 Q1009","temp":31,"dewp":22,"wdir":10,"wspd":11,"visib":"6+","altim":1009,"clouds":[{"cover":"FEW","base":3000}],"obsTime":1774288800},"SBNT":{"icaoId":"SBNT","flightCategory":"VFR","rawOb":"METAR SBNT 231800Z 09012KT 9999 SCT025 30/24 Q1009","temp":30,"dewp":24,"wdir":90,"wspd":12,"visib":"6+","altim":1009,"clouds":[{"cover":"SCT","base":2500}],"obsTime":1774288800},"SBAT":{"icaoId":"SBAT","flightCategory":"VFR","rawOb":"METAR SBAT 231800Z 05002KT 9999 VCSH SCT030 FEW035TCU 26/24 Q1008","temp":26,"dewp":24,"wdir":50,"wspd":2,"visib":"6+","altim":1008,"clouds":[{"cover":"SCT","base":3000},{"cover":"FEW","base":3500}],"obsTime":1774288800},"SBCP":{"icaoId":"SBCP","flightCategory":"VFR","rawOb":"METAR SBCP 231800Z 13010KT 9999 FEW020 BKN080 28/23 Q1011","temp":28,"dewp":23,"wdir":130,"wspd":10,"visib":"6+","altim":1011,"clouds":[{"cover":"FEW","base":2000},{"cover":"BKN","base":8000}],"obsTime":1774288800},"SBPJ":{"icaoId":"SBPJ","flightCategory":"VFR","rawOb":"METAR SBPJ 231800Z 33003KT 9999 SCT025 FEW030TCU SCT090 33/23 Q1008","temp":33,"dewp":23,"wdir":330,"wspd":3,"visib":"6+","altim":1008,"clouds":[{"cover":"SCT","base":2500},{"cover":"FEW","base":3000},{"cover":"SCT","base":9000}],"obsTime":1774288800},"SBFZ":{"icaoId":"SBFZ","flightCategory":"VFR","rawOb":"METAR SBFZ 231800Z 09012KT 9999 SCT025 31/23 Q1008","temp":31,"dewp":23,"wdir":90,"wspd":12,"visib":"6+","altim":1008,"clouds":[{"cover":"SCT","base":2500}],"obsTime":1774288800},"SBPV":{"icaoId":"SBPV","flightCategory":"VFR","rawOb":"METAR SBPV 231800Z 30001KT 9999 SCT035 32/25 Q1007","temp":32,"dewp":25,"wdir":300,"wspd":1,"visib":"6+","altim":1007,"clouds":[{"cover":"SCT","base":3500}],"obsTime":1774288800},"SBBV":{"icaoId":"SBBV","flightCategory":"VFR","rawOb":"METAR SBBV 231800Z 19014G24KT 9999 BKN040 FEW045TCU SCT070 35/22 Q1007","temp":35,"dewp":22,"wdir":190,"wspd":14,"visib":"6+","altim":1007,"clouds":[{"cover":"BKN","base":4000},{"cover":"FEW","base":4500},{"cover":"SCT","base":7000}],"obsTime":1774288800},"SBRB":{"icaoId":"SBRB","flightCategory":"VFR","rawOb":"METAR SBRB 231800Z 34005KT 9999 SCT023 35/23 Q1009","temp":35,"dewp":23,"wdir":340,"wspd":5,"visib":"6+","altim":1009,"clouds":[{"cover":"SCT","base":2300}],"obsTime":1774288800},"SBGL":{"icaoId":"SBGL","flightCategory":"VFR","rawOb":"METAR SBGL 231800Z 14014KT 9999 SCT035 29/21 Q1010","temp":29,"dewp":21,"wdir":140,"wspd":14,"visib":"6+","altim":1010,"clouds":[{"cover":"SCT","base":3500}],"obsTime":1774288800},"SBRF":{"icaoId":"SBRF","flightCategory":"VFR","rawOb":"METAR SBRF 231800Z 08011KT 9999 SCT023 30/23 Q1009","temp":30,"dewp":23,"wdir":80,"wspd":11,"visib":"6+","altim":1009,"clouds":[{"cover":"SCT","base":2300}],"obsTime":1774288800},"SBCR":{"icaoId":"SBCR","flightCategory":"IFR","rawOb":"METAR SBCR 231800Z 26015KT 3500 HZ FEW020 SCT040 BKN080 30/22 Q1008","temp":30,"dewp":22,"wdir":260,"wspd":15,"visib":2.17,"altim":1008,"clouds":[{"cover":"FEW","base":2000},{"cover":"SCT","base":4000},{"cover":"BKN","base":8000}],"obsTime":1774288800},"SBSG":{"icaoId":"SBSG","flightCategory":"MVFR","rawOb":"METAR SBSG 231800Z 08012KT 9999 BKN025 FEW030TCU 30/24 Q1009","temp":30,"dewp":24,"wdir":80,"wspd":12,"visib":"6+","altim":1009,"clouds":[{"cover":"BKN","base":2500},{"cover":"FEW","base":3000}],"obsTime":1774288800},"SBGO":{"icaoId":"SBGO","flightCategory":"VFR","rawOb":"METAR SBGO 231800Z 32003KT 9999 SCT049 33/18 Q1011","temp":33,"dewp":18,"wdir":320,"wspd":3,"visib":"6+","altim":1011,"clouds":[{"cover":"SCT","base":4900}],"obsTime":1774288800},"SBSL":{"icaoId":"SBSL","flightCategory":"VFR","rawOb":"METAR SBSL 231800Z 03015KT 9999 SCT020 BKN035 30/25 Q1007","temp":30,"dewp":25,"wdir":30,"wspd":15,"visib":"6+","altim":1007,"clouds":[{"cover":"SCT","base":2000},{"cover":"BKN","base":3500}],"obsTime":1774288800},"SBSN":{"icaoId":"SBSN","flightCategory":"VFR","rawOb":"METAR SBSN 231800Z 09013KT CAVOK 32/23 Q1007","temp":32,"dewp":23,"wdir":90,"wspd":13,"visib":"6+","altim":1007,"clouds":[],"obsTime":1774288800},"SBBR":{"icaoId":"SBBR","flightCategory":"VFR","rawOb":"METAR SBBR 231800Z VRB06KT 9999 SCT040 FEW045TCU 30/18 Q1013","temp":30,"dewp":18,"wdir":"VRB","wspd":6,"visib":"6+","altim":1013,"clouds":[{"cover":"SCT","base":4000},{"cover":"FEW","base":4500}],"obsTime":1774288800},"SBCZ":{"icaoId":"SBCZ","flightCategory":"VFR","rawOb":"METAR SBCZ 231800Z 08004KT 9999 SCT020 30/23 Q1009","temp":30,"dewp":23,"wdir":80,"wspd":4,"visib":"6+","altim":1009,"clouds":[{"cover":"SCT","base":2000}],"obsTime":1774288800},"SBKP":{"icaoId":"SBKP","flightCategory":"VFR","rawOb":"METAR SBKP 231800Z 19007KT 160V230 9999 FEW040 30/15 Q1012","temp":30,"dewp":15,"wdir":190,"wspd":7,"visib":"6+","altim":1012,"clouds":[{"cover":"FEW","base":4000}],"obsTime":1774288800},"SBLO":{"icaoId":"SBLO","flightCategory":"VFR","rawOb":"METAR SBLO 231800Z VRB03KT 9999 SCT040 FEW050TCU SCT100 31/21 Q1011","temp":31,"dewp":21,"wdir":"VRB","wspd":3,"visib":"6+","altim":1011,"clouds":[{"cover":"SCT","base":4000},{"cover":"FEW","base":5000},{"cover":"SCT","base":10000}],"obsTime":1774288800},"SBSP":{"icaoId":"SBSP","flightCategory":"VFR","rawOb":"METAR SBSP 231800Z 19008KT 140V230 9999 FEW040 28/16 Q1014","temp":28,"dewp":16,"wdir":190,"wspd":8,"visib":"6+","altim":1014,"clouds":[{"cover":"FEW","base":4000}],"obsTime":1774288800},"SBGR":{"icaoId":"SBGR","flightCategory":"VFR","rawOb":"METAR SBGR 231800Z 13006KT CAVOK 29/12 Q1013","temp":29,"dewp":12,"wdir":130,"wspd":6,"visib":"6+","altim":1013,"clouds":[],"obsTime":1774288800},"SBSV":{"icaoId":"SBSV","flightCategory":"VFR","rawOb":"METAR SBSV 231800Z 10010KT 060V140 9999 SCT020 29/22 Q1010","temp":29,"dewp":22,"wdir":100,"wspd":10,"visib":"6+","altim":1010,"clouds":[{"cover":"SCT","base":2000}],"obsTime":1774288800},"SBHT":{"icaoId":"SBHT","flightCategory":"MVFR","rawOb":"METAR SBHT 231800Z 35003KT 9999 BKN030 31/25 Q1007","temp":31,"dewp":25,"wdir":350,"wspd":3,"visib":"6+","altim":1007,"clouds":[{"cover":"BKN","base":3000}],"obsTime":1774288800},"SBTE":{"icaoId":"SBTE","flightCategory":"VFR","rawOb":"METAR SBTE 231800Z 08006KT 9999 SCT035 34/22 Q1007","temp":34,"dewp":22,"wdir":80,"wspd":6,"visib":"6+","altim":1007,"clouds":[{"cover":"SCT","base":3500}],"obsTime":1774288800},"SBBE":{"icaoId":"SBBE","flightCategory":"VFR","rawOb":"METAR SBBE 231800Z 35008KT 9999 SCT043 FEW045TCU SCT070 27/26 Q1007","temp":27,"dewp":26,"wdir":350,"wspd":8,"visib":"6+","altim":1007,"clouds":[{"cover":"SCT","base":4300},{"cover":"FEW","base":4500},{"cover":"SCT","base":7000}],"obsTime":1774288800},"SBUL":{"icaoId":"SBUL","flightCategory":"VFR","rawOb":"METAR SBUL 231800Z 08004KT 9999 SCT030 30/12 Q1013","temp":30,"dewp":12,"wdir":80,"wspd":4,"visib":"6+","altim":1013,"clouds":[{"cover":"SCT","base":3000}],"obsTime":1774288800},"SBIL":{"icaoId":"SBIL","flightCategory":"VFR","rawOb":"METAR SBIL 231800Z 13005KT 100V170 9999 FEW020 SCT090 30/22 Q1010","temp":30,"dewp":22,"wdir":130,"wspd":5,"visib":"6+","altim":1010,"clouds":[{"cover":"FEW","base":2000},{"cover":"SCT","base":9000}],"obsTime":1774288800},"SBUR":{"icaoId":"SBUR","flightCategory":"VFR","rawOb":"METAR SBUR 231800Z 24006KT CAVOK 32/14 Q1012","temp":32,"dewp":14,"wdir":240,"wspd":6,"visib":"6+","altim":1012,"clouds":[],"obsTime":1774288800},"SBCT":{"icaoId":"SBCT","flightCategory":"VFR","rawOb":"METAR SBCT 231800Z VRB03KT 9999 BKN037 28/19 Q1014","temp":28,"dewp":19,"wdir":"VRB","wspd":3,"visib":"6+","altim":1014,"clouds":[{"cover":"BKN","base":3700}],"obsTime":1774288800},"SBJU":{"icaoId":"SBJU","flightCategory":"MVFR","rawOb":"METAR SBJU 231800Z 03004KT 9999 BKN021 29/23 Q1011","temp":29,"dewp":23,"wdir":30,"wspd":4,"visib":"6+","altim":1011,"clouds":[{"cover":"BKN","base":2100}],"obsTime":1774288800},"SBCB":{"icaoId":"SBCB","flightCategory":"VFR","rawOb":"METAR SBCB 231800Z 05008KT 9999 FEW015 SCT040 26/21 Q1012","temp":26,"dewp":21,"wdir":50,"wspd":8,"visib":"6+","altim":1012,"clouds":[{"cover":"FEW","base":1500},{"cover":"SCT","base":4000}],"obsTime":1774288800},"SBKG":{"icaoId":"SBKG","flightCategory":"VFR","rawOb":"METAR SBKG 231800Z 06011KT 9999 SCT025 FEW030TCU 30/21 Q1011","temp":30,"dewp":21,"wdir":60,"wspd":11,"visib":"6+","altim":1011,"clouds":[{"cover":"SCT","base":2500},{"cover":"FEW","base":3000}],"obsTime":1774288800},"SBOI":{"icaoId":"SBOI","flightCategory":"VFR","rawOb":"METAR SBOI 231800Z AUTO 05005KT 320V120 9999 SCT043 30/25 Q1009 RERA","temp":30,"dewp":25,"wdir":50,"wspd":5,"visib":"6+","altim":1009,"clouds":[{"cover":"SCT","base":4300}],"obsTime":1774288800},"SBCJ":{"icaoId":"SBCJ","flightCategory":"VFR","rawOb":"METAR SBCJ 231800Z 06004KT 9999 SCT017 28/22 Q1012","temp":28,"dewp":22,"wdir":60,"wspd":4,"visib":"6+","altim":1012,"clouds":[{"cover":"SCT","base":1700}],"obsTime":1774288800},"SBPB":{"icaoId":"SBPB","flightCategory":"VFR","rawOb":"METAR SBPB 231800Z 03012KT 9999 SCT016 FEW025TCU 31/25 Q1007","temp":31,"dewp":25,"wdir":30,"wspd":12,"visib":"6+","altim":1007,"clouds":[{"cover":"SCT","base":1600},{"cover":"FEW","base":2500}],"obsTime":1774288800},"SBAR":{"icaoId":"SBAR","flightCategory":"VFR","rawOb":"METAR SBAR 231800Z 10013KT 9999 FEW024 31/23 Q1010","temp":31,"dewp":23,"wdir":100,"wspd":13,"visib":"6+","altim":1010,"clouds":[{"cover":"FEW","base":2400}],"obsTime":1774288800},"SBPL":{"icaoId":"SBPL","flightCategory":"MVFR","rawOb":"METAR SBPL 231800Z 02007KT 9999 BKN030 33/21 Q1009","temp":33,"dewp":21,"wdir":20,"wspd":7,"visib":"6+","altim":1009,"clouds":[{"cover":"BKN","base":3000}],"obsTime":1774288800},"SBCO":{"icaoId":"SBCO","flightCategory":"VFR","rawOb":"METAR SBCO 231800Z 31006KT 290V360 9999 FEW040TCU BKN090 33/23 Q1006","temp":33,"dewp":23,"wdir":310,"wspd":6,"visib":"6+","altim":1006,"clouds":[{"cover":"FEW","base":4000},{"cover":"BKN","base":9000}],"obsTime":1774288800},"SBPP":{"icaoId":"SBPP","flightCategory":"MVFR","rawOb":"METAR SBPP 231800Z 25007KT 9999 BKN025 32/22 Q1011","temp":32,"dewp":22,"wdir":250,"wspd":7,"visib":"6+","altim":1011,"clouds":[{"cover":"BKN","base":2500}],"obsTime":1774288800},"SBBQ":{"icaoId":"SBBQ","flightCategory":"VFR","rawOb":"METAR SBBQ 231800Z 03006KT 340V110 9999 SCT040 26/16 Q1016","temp":26,"dewp":16,"wdir":30,"wspd":6,"visib":"6+","altim":1016,"clouds":[{"cover":"SCT","base":4000}],"obsTime":1774288800},"SBBU":{"icaoId":"SBBU","flightCategory":"VFR","rawOb":"METAR SBBU 231800Z 18004KT 9999 SCT040 BKN070 32/20 Q1012","temp":32,"dewp":20,"wdir":180,"wspd":4,"visib":"6+","altim":1012,"clouds":[{"cover":"SCT","base":4000},{"cover":"BKN","base":7000}],"obsTime":1774288800},"SBPS":{"icaoId":"SBPS","flightCategory":"VFR","rawOb":"METAR SBPS 231800Z 08011KT 9999 SCT020 BKN100 27/23 Q1011","temp":27,"dewp":23,"wdir":80,"wspd":11,"visib":"6+","altim":1011,"clouds":[{"cover":"SCT","base":2000},{"cover":"BKN","base":10000}],"obsTime":1774288800},"SBDN":{"icaoId":"SBDN","flightCategory":"VFR","rawOb":"METAR SBDN 231800Z 00000KT 9999 SCT045 33/21 Q1010","temp":33,"dewp":21,"wdir":0,"wspd":0,"visib":"6+","altim":1010,"clouds":[{"cover":"SCT","base":4500}],"obsTime":1774288800},"SBSC":{"icaoId":"SBSC","flightCategory":"VFR","rawOb":"METAR SBSC 231800Z 16011KT 9999 FEW030 30/22 Q1010","temp":30,"dewp":22,"wdir":160,"wspd":11,"visib":"6+","altim":1010,"clouds":[{"cover":"FEW","base":3000}],"obsTime":1774288800},"SBSJ":{"icaoId":"SBSJ","flightCategory":"VFR","rawOb":"METAR SBSJ 231800Z 12002KT 9999 FEW030 30/// Q1012","temp":null,"dewp":null,"wdir":120,"wspd":2,"visib":"6+","altim":1012,"clouds":[{"cover":"FEW","base":3000}],"obsTime":1774288800},"SBBH":{"icaoId":"SBBH","flightCategory":"VFR","rawOb":"METAR SBBH 231800Z 05003KT 9999 SCT040 29/19 Q1012","temp":29,"dewp":19,"wdir":50,"wspd":3,"visib":"6+","altim":1012,"clouds":[{"cover":"SCT","base":4000}],"obsTime":1774288800},"SBES":{"icaoId":"SBES","flightCategory":"VFR","rawOb":"METAR SBES 231800Z 06010KT 9999 VCSH FEW013 SCT030 24/// Q1012","temp":null,"dewp":null,"wdir":60,"wspd":10,"visib":"6+","altim":1012,"clouds":[{"cover":"FEW","base":1300},{"cover":"SCT","base":3000}],"obsTime":1774288800},"SBSM":{"icaoId":"SBSM","flightCategory":"VFR","rawOb":"METAR SBSM 231800Z 36003KT 9999 -RA FEW007 BKN040 FEW045TCU OVC070 23/23 Q1008 RETSRA","temp":23,"dewp":23,"wdir":360,"wspd":3,"visib":"6+","altim":1008,"clouds":[{"cover":"FEW","base":700},{"cover":"BKN","base":4000},{"cover":"FEW","base":4500},{"cover":"OVC","base":7000}],"obsTime":1774288800},"SBCA":{"icaoId":"SBCA","flightCategory":"MVFR","rawOb":"METAR SBCA 231800Z 36011G21KT 320V030 9999 BKN025 30/22 Q1012","temp":30,"dewp":22,"wdir":360,"wspd":11,"visib":"6+","altim":1012,"clouds":[{"cover":"BKN","base":2500}],"obsTime":1774288800},"SBSR":{"icaoId":"SBSR","flightCategory":"VFR","rawOb":"METAR SBSR 231800Z 04002KT 9999 FEW040 BKN090 32/16 Q1011","temp":32,"dewp":16,"wdir":40,"wspd":2,"visib":"6+","altim":1011,"clouds":[{"cover":"FEW","base":4000},{"cover":"BKN","base":9000}],"obsTime":1774288800},"SBTF":{"icaoId":"SBTF","flightCategory":"VFR","rawOb":"METAR SBTF 231800Z 12006KT 9999 SCT020 36/25 Q1006","temp":36,"dewp":25,"wdir":120,"wspd":6,"visib":"6+","altim":1006,"clouds":[{"cover":"SCT","base":2000}],"obsTime":1774288800},"SBGM":{"icaoId":"SBGM","flightCategory":"VFR","rawOb":"METAR SBGM 231800Z 28004KT 9999 FEW040 33/21 Q1007","temp":33,"dewp":21,"wdir":280,"wspd":4,"visib":"6+","altim":1007,"clouds":[{"cover":"FEW","base":4000}],"obsTime":1774288800},"SBAX":{"icaoId":"SBAX","flightCategory":"VFR","rawOb":"METAR SBAX 231800Z AUTO 16004KT 110V230 CAVOK 29/13 Q1014","temp":29,"dewp":13,"wdir":160,"wspd":4,"visib":"6+","altim":1014,"clouds":[],"obsTime":1774288800},"SBTT":{"icaoId":"SBTT","flightCategory":"VFR","rawOb":"METAR SBTT 231800Z 34005KT 300V020 9999 FEW025 BKN050 26/21 Q1010","temp":26,"dewp":21,"wdir":340,"wspd":5,"visib":"6+","altim":1010,"clouds":[{"cover":"FEW","base":2500},{"cover":"BKN","base":5000}],"obsTime":1774288800},"SBIP":{"icaoId":"SBIP","flightCategory":"VFR","rawOb":"METAR SBIP 231800Z AUTO 01007KT 340V060 9999 FEW030 30/20 Q1010","temp":30,"dewp":20,"wdir":10,"wspd":7,"visib":"6+","altim":1010,"clouds":[{"cover":"FEW","base":3000}],"obsTime":1774288800},"SBUY":{"icaoId":"SBUY","flightCategory":"VFR","rawOb":"METAR SBUY 231800Z 34002KT 9999 SCT025 34/24 Q1005","temp":34,"dewp":24,"wdir":340,"wspd":2,"visib":"6+","altim":1005,"clouds":[{"cover":"SCT","base":2500}],"obsTime":1774288800},"SBCC":{"icaoId":"SBCC","flightCategory":"MVFR","rawOb":"METAR SBCC 231800Z 16005KT 9999 VCSH FEW015 BKN020 FEW025TCU BKN100 27/22 Q1009 RETS","temp":27,"dewp":22,"wdir":160,"wspd":5,"visib":"6+","altim":1009,"clouds":[{"cover":"FEW","base":1500},{"cover":"BKN","base":2000},{"cover":"FEW","base":2500},{"cover":"BKN","base":10000}],"obsTime":1774288800},"SBVH":{"icaoId":"SBVH","flightCategory":"MVFR","rawOb":"METAR SBVH 231800Z 16008KT 8000 3000SE BKN030 FEW030TCU OVC085 24/23 Q1011","temp":24,"dewp":23,"wdir":160,"wspd":8,"visib":4.97,"altim":1011,"clouds":[{"cover":"BKN","base":3000},{"cover":"FEW","base":3000},{"cover":"OVC","base":8500}],"obsTime":1774288800},"SBTA":{"icaoId":"SBTA","flightCategory":"VFR","rawOb":"METAR SBTA 231800Z 04005KT 350V120 9999 FEW035 29/17 Q1011","temp":29,"dewp":17,"wdir":40,"wspd":5,"visib":"6+","altim":1011,"clouds":[{"cover":"FEW","base":3500}],"obsTime":1774288800},"SBJP":{"icaoId":"SBJP","flightCategory":"VFR","rawOb":"METAR SBJP 231800Z 09010KT 9999 SCT030 29/24 Q1009","temp":29,"dewp":24,"wdir":90,"wspd":10,"visib":"6+","altim":1009,"clouds":[{"cover":"SCT","base":3000}],"obsTime":1774288800},"SBAN":{"icaoId":"SBAN","flightCategory":"VFR","rawOb":"METAR SBAN 231800Z 28004KT 9999 SCT030 FEW040TCU 29/17 Q1014","temp":29,"dewp":17,"wdir":280,"wspd":4,"visib":"6+","altim":1014,"clouds":[{"cover":"SCT","base":3000},{"cover":"FEW","base":4000}],"obsTime":1774288800},"SBLE":{"icaoId":"SBLE","flightCategory":"VFR","rawOb":"METAR SBLE 231800Z AUTO VRB02KT CAVOK 25/20 Q1013","temp":25,"dewp":20,"wdir":"VRB","wspd":2,"visib":"6+","altim":1013,"clouds":[],"obsTime":1774288800},"SBNM":{"icaoId":"SBNM","flightCategory":"MVFR","rawOb":"METAR SBNM 231900Z 24004KT 9999 FEW004 BKN020 FEW030TCU 27/26 Q1008","temp":27,"dewp":26,"wdir":240,"wspd":4,"visib":"6+","altim":1008,"clouds":[{"cover":"FEW","base":400},{"cover":"BKN","base":2000},{"cover":"FEW","base":3000}],"obsTime":1774292400},"SBPF":{"icaoId":"SBPF","flightCategory":"VFR","rawOb":"METAR SBPF 231800Z 34007KT 9999 SCT010 FEW040TCU BKN050 29/21 Q1011","temp":29,"dewp":21,"wdir":340,"wspd":7,"visib":"6+","altim":1011,"clouds":[{"cover":"SCT","base":1000},{"cover":"FEW","base":4000},{"cover":"BKN","base":5000}],"obsTime":1774288800},"SBJV":{"icaoId":"SBJV","flightCategory":"VFR","rawOb":"METAR SBJV 231800Z 06010KT 9999 FEW030 31/23 Q1009","temp":31,"dewp":23,"wdir":60,"wspd":10,"visib":"6+","altim":1009,"clouds":[{"cover":"FEW","base":3000}],"obsTime":1774288800},"SBIH":{"icaoId":"SBIH","flightCategory":"VFR","rawOb":"METAR SBIH 231800Z 08007KT 9999 SCT020 32/24 Q1007","temp":32,"dewp":24,"wdir":80,"wspd":7,"visib":"6+","altim":1007,"clouds":[{"cover":"SCT","base":2000}],"obsTime":1774288800},"SBAF":{"icaoId":"SBAF","flightCategory":"VFR","rawOb":"METAR SBAF 231800Z 11009KT 9999 FEW025 SCT040 30/21 Q1010","temp":30,"dewp":21,"wdir":110,"wspd":9,"visib":"6+","altim":1010,"clouds":[{"cover":"FEW","base":2500},{"cover":"SCT","base":4000}],"obsTime":1774288800},"SBGW":{"icaoId":"SBGW","flightCategory":"VFR","rawOb":"METAR SBGW 231800Z VRB04KT 9999 FEW030 30/14 Q1011","temp":30,"dewp":14,"wdir":"VRB","wspd":4,"visib":"6+","altim":1011,"clouds":[{"cover":"FEW","base":3000}],"obsTime":1774288800},"SBJR":{"icaoId":"SBJR","flightCategory":"VFR","rawOb":"METAR SBJR 231800Z 13012G22KT 9999 FEW025 31/20 Q1010","temp":31,"dewp":20,"wdir":130,"wspd":12,"visib":"6+","altim":1010,"clouds":[{"cover":"FEW","base":2500}],"obsTime":1774288800},"SBMT":{"icaoId":"SBMT","flightCategory":"VFR","rawOb":"METAR SBMT 231800Z 18004KT 9999 SCT030 28/13 Q1010","temp":28,"dewp":13,"wdir":180,"wspd":4,"visib":"6+","altim":1010,"clouds":[{"cover":"SCT","base":3000}],"obsTime":1774288800},"SBLS":{"icaoId":"SBLS","flightCategory":"VFR","rawOb":"METAR SBLS 231800Z VRB02KT 9999 SCT040 28/18 Q1012","temp":28,"dewp":18,"wdir":"VRB","wspd":2,"visib":"6+","altim":1012,"clouds":[{"cover":"SCT","base":4000}],"obsTime":1774288800},"SBST":{"icaoId":"SBST","flightCategory":"VFR","rawOb":"METAR SBST 231800Z 16007KT 9999 SCT035 25/21 Q1010","temp":25,"dewp":21,"wdir":160,"wspd":7,"visib":"6+","altim":1010,"clouds":[{"cover":"SCT","base":3500}],"obsTime":1774288800}}}