{"updated":1776121566,"count":74,"data":{"SBBV":{"icaoId":"SBBV","flightCategory":"VFR","rawOb":"METAR SBBV 132200Z 14007KT 9999 SCT045 FEW050TCU BKN080 32/21 Q1007","temp":32,"dewp":21,"wdir":140,"wspd":7,"visib":"6+","altim":1007,"clouds":[{"cover":"SCT","base":4500},{"cover":"FEW","base":5000},{"cover":"BKN","base":8000}],"obsTime":1776117600},"SBMO":{"icaoId":"SBMO","flightCategory":"VFR","rawOb":"METAR SBMO 132200Z 13005KT 9999 FEW025 SCT070 27/24 Q1012","temp":27,"dewp":24,"wdir":130,"wspd":5,"visib":"6+","altim":1012,"clouds":[{"cover":"FEW","base":2500},{"cover":"SCT","base":7000}],"obsTime":1776117600},"SBFZ":{"icaoId":"SBFZ","flightCategory":"VFR","rawOb":"METAR SBFZ 132200Z 12007KT 9999 FEW017 BKN100 27/24 Q1009","temp":27,"dewp":24,"wdir":120,"wspd":7,"visib":"6+","altim":1009,"clouds":[{"cover":"FEW","base":1700},{"cover":"BKN","base":10000}],"obsTime":1776117600},"SBCT":{"icaoId":"SBCT","flightCategory":"VFR","rawOb":"METAR SBCT 132200Z 11006KT 9999 FEW005 18/16 Q1020","temp":18,"dewp":16,"wdir":110,"wspd":6,"visib":"6+","altim":1020,"clouds":[{"cover":"FEW","base":500}],"obsTime":1776117600},"SBMQ":{"icaoId":"SBMQ","flightCategory":"VFR","rawOb":"METAR SBMQ 132200Z 01006KT 9999 SCT013 SCT025 27/24 Q1010","temp":27,"dewp":24,"wdir":10,"wspd":6,"visib":"6+","altim":1010,"clouds":[{"cover":"SCT","base":1300},{"cover":"SCT","base":2500}],"obsTime":1776117600},"SBNT":{"icaoId":"SBNT","flightCategory":"VFR","rawOb":"METAR SBNT 132200Z 15003KT 9999 FEW018 SCT030 BKN090 26/25 Q1011","temp":26,"dewp":25,"wdir":150,"wspd":3,"visib":"6+","altim":1011,"clouds":[{"cover":"FEW","base":1800},{"cover":"SCT","base":3000},{"cover":"BKN","base":9000}],"obsTime":1776117600},"SBGL":{"icaoId":"SBGL","flightCategory":"VFR","rawOb":"METAR SBGL 132200Z 14006KT CAVOK 24/19 Q1016","temp":24,"dewp":19,"wdir":140,"wspd":6,"visib":"6+","altim":1016,"clouds":[],"obsTime":1776117600},"SBGO":{"icaoId":"SBGO","flightCategory":"VFR","rawOb":"METAR SBGO 132200Z 10004KT 9999 FEW045 26/18 Q1015","temp":26,"dewp":18,"wdir":100,"wspd":4,"visib":"6+","altim":1015,"clouds":[{"cover":"FEW","base":4500}],"obsTime":1776117600},"SBPA":{"icaoId":"SBPA","flightCategory":"VFR","rawOb":"METAR SBPA 132200Z 13011KT CAVOK 24/19 Q1016","temp":24,"dewp":19,"wdir":130,"wspd":11,"visib":"6+","altim":1016,"clouds":[],"obsTime":1776117600},"SBPJ":{"icaoId":"SBPJ","flightCategory":"VFR","rawOb":"METAR SBPJ 132200Z 20005KT 9999 FEW040 30/24 Q1009","temp":30,"dewp":24,"wdir":200,"wspd":5,"visib":"6+","altim":1009,"clouds":[{"cover":"FEW","base":4000}],"obsTime":1776117600},"SBBR":{"icaoId":"SBBR","flightCategory":"VFR","rawOb":"METAR SBBR 132200Z 14005KT 9999 FEW030 23/17 Q1018","temp":23,"dewp":17,"wdir":140,"wspd":5,"visib":"6+","altim":1018,"clouds":[{"cover":"FEW","base":3000}],"obsTime":1776117600},"SBPV":{"icaoId":"SBPV","flightCategory":"VFR","rawOb":"METAR SBPV 132200Z 18005KT 150V230 9999 SCT030 FEW035TCU SCT100 27/25 Q1008","temp":27,"dewp":25,"wdir":180,"wspd":5,"visib":"6+","altim":1008,"clouds":[{"cover":"SCT","base":3000},{"cover":"FEW","base":3500},{"cover":"SCT","base":10000}],"obsTime":1776117600},"SBCF":{"icaoId":"SBCF","flightCategory":"VFR","rawOb":"METAR SBCF 132200Z 11009KT 9999 FEW048 SCT080 22/17 Q1018","temp":22,"dewp":17,"wdir":110,"wspd":9,"visib":"6+","altim":1018,"clouds":[{"cover":"FEW","base":4800},{"cover":"SCT","base":8000}],"obsTime":1776117600},"SBRB":{"icaoId":"SBRB","flightCategory":"VFR","rawOb":"METAR SBRB 132200Z 00000KT 9999 FEW024 FEW030TCU SCT090 27/24 Q1008","temp":27,"dewp":24,"wdir":0,"wspd":0,"visib":"6+","altim":1008,"clouds":[{"cover":"FEW","base":2400},{"cover":"FEW","base":3000},{"cover":"SCT","base":9000}],"obsTime":1776117600},"SBGR":{"icaoId":"SBGR","flightCategory":"VFR","rawOb":"METAR SBGR 132200Z 12004KT CAVOK 22/18 Q1019","temp":22,"dewp":18,"wdir":120,"wspd":4,"visib":"6+","altim":1019,"clouds":[],"obsTime":1776117600},"SBRF":{"icaoId":"SBRF","flightCategory":"VFR","rawOb":"METAR SBRF 132200Z 12007KT 9999 FEW022 28/24 Q1011","temp":28,"dewp":24,"wdir":120,"wspd":7,"visib":"6+","altim":1011,"clouds":[{"cover":"FEW","base":2200}],"obsTime":1776117600},"SBCZ":{"icaoId":"SBCZ","flightCategory":"MVFR","rawOb":"METAR SBCZ 132200Z 18007KT 9999 BKN030 28/25 Q1008","temp":28,"dewp":25,"wdir":180,"wspd":7,"visib":"6+","altim":1008,"clouds":[{"cover":"BKN","base":3000}],"obsTime":1776117600},"SBEG":{"icaoId":"SBEG","flightCategory":"VFR","rawOb":"METAR SBEG 132200Z 34004KT 9999 FEW020 FEW025TCU SCT100 28/25 Q1007","temp":28,"dewp":25,"wdir":340,"wspd":4,"visib":"6+","altim":1007,"clouds":[{"cover":"FEW","base":2000},{"cover":"FEW","base":2500},{"cover":"SCT","base":10000}],"obsTime":1776117600},"SBSG":{"icaoId":"SBSG","flightCategory":"VFR","rawOb":"METAR SBSG 132200Z 13003KT 9999 SCT023 BKN033 25/25 Q1011","temp":25,"dewp":25,"wdir":130,"wspd":3,"visib":"6+","altim":1011,"clouds":[{"cover":"SCT","base":2300},{"cover":"BKN","base":3300}],"obsTime":1776117600},"SBBE":{"icaoId":"SBBE","flightCategory":"MVFR","rawOb":"METAR SBBE 132200Z 07004KT 9999 -RA BKN020 FEW025TCU BKN070 24/24 Q1011","temp":24,"dewp":24,"wdir":70,"wspd":4,"visib":"6+","altim":1011,"clouds":[{"cover":"BKN","base":2000},{"cover":"FEW","base":2500},{"cover":"BKN","base":7000}],"obsTime":1776117600},"SBSL":{"icaoId":"SBSL","flightCategory":"VFR","rawOb":"METAR SBSL 132200Z 09008KT 9999 FEW020 BKN100 27/25 Q1010","temp":27,"dewp":25,"wdir":90,"wspd":8,"visib":"6+","altim":1010,"clouds":[{"cover":"FEW","base":2000},{"cover":"BKN","base":10000}],"obsTime":1776117600},"SBKP":{"icaoId":"SBKP","flightCategory":"VFR","rawOb":"METAR SBKP 132200Z 19004KT CAVOK 26/15 Q1017","temp":26,"dewp":15,"wdir":190,"wspd":4,"visib":"6+","altim":1017,"clouds":[],"obsTime":1776117600},"SBSN":{"icaoId":"SBSN","flightCategory":"VFR","rawOb":"METAR SBSN 132200Z 10003KT 9999 FEW020 FEW025TCU 29/25 Q1008","temp":29,"dewp":25,"wdir":100,"wspd":3,"visib":"6+","altim":1008,"clouds":[{"cover":"FEW","base":2000},{"cover":"FEW","base":2500}],"obsTime":1776117600},"SBCG":{"icaoId":"SBCG","flightCategory":"MVFR","rawOb":"SPECI SBCG 132130Z 13005KT 080V150 5000 -TSRA BKN030 FEW040CB BKN066 21/20 Q1014 RERA","temp":21,"dewp":20,"wdir":130,"wspd":5,"visib":3.11,"altim":1014,"clouds":[{"cover":"BKN","base":3000},{"cover":"FEW","base":4000},{"cover":"BKN","base":6600}],"obsTime":1776115800},"SBSP":{"icaoId":"SBSP","flightCategory":"VFR","rawOb":"METAR SBSP 132200Z 15009KT CAVOK 20/18 Q1020","temp":20,"dewp":18,"wdir":150,"wspd":9,"visib":"6+","altim":1020,"clouds":[],"obsTime":1776117600},"SBSV":{"icaoId":"SBSV","flightCategory":"VFR","rawOb":"METAR SBSV 132200Z 09010KT 060V130 9999 SCT020 FEW023TCU SCT050 BKN070 26/23 Q1012","temp":26,"dewp":23,"wdir":90,"wspd":10,"visib":"6+","altim":1012,"clouds":[{"cover":"SCT","base":2000},{"cover":"FEW","base":2300},{"cover":"SCT","base":5000},{"cover":"BKN","base":7000}],"obsTime":1776117600},"SBLO":{"icaoId":"SBLO","flightCategory":"VFR","rawOb":"METAR SBLO 132200Z 08005KT CAVOK 23/18 Q1016","temp":23,"dewp":18,"wdir":80,"wspd":5,"visib":"6+","altim":1016,"clouds":[],"obsTime":1776117600},"SBMA":{"icaoId":"SBMA","flightCategory":"VFR","rawOb":"METAR SBMA 132200Z 06003KT 9999 FEW025TCU SCT080 27/26 Q1008","temp":27,"dewp":26,"wdir":60,"wspd":3,"visib":"6+","altim":1008,"clouds":[{"cover":"FEW","base":2500},{"cover":"SCT","base":8000}],"obsTime":1776117600},"SBTE":{"icaoId":"SBTE","flightCategory":"VFR","rawOb":"METAR SBTE 132200Z 30003KT 9999 VCTS SCT016 FEW030CB BKN080 27/23 Q1009","temp":27,"dewp":23,"wdir":300,"wspd":3,"visib":"6+","altim":1009,"clouds":[{"cover":"SCT","base":1600},{"cover":"FEW","base":3000},{"cover":"BKN","base":8000}],"obsTime":1776117600},"SBFI":{"icaoId":"SBFI","flightCategory":"VFR","rawOb":"METAR SBFI 132200Z 10003KT CAVOK 25/22 Q1013","temp":25,"dewp":22,"wdir":100,"wspd":3,"visib":"6+","altim":1013,"clouds":[],"obsTime":1776117600},"SBFL":{"icaoId":"SBFL","flightCategory":"VFR","rawOb":"METAR SBFL 132200Z 01004KT 9999 FEW030 25/21 Q1016","temp":25,"dewp":21,"wdir":10,"wspd":4,"visib":"6+","altim":1016,"clouds":[{"cover":"FEW","base":3000}],"obsTime":1776117600},"SBVT":{"icaoId":"SBVT","flightCategory":"VFR","rawOb":"METAR SBVT 132200Z 30003KT 9999 SCT035 BKN070 23/20 Q1016","temp":23,"dewp":20,"wdir":300,"wspd":3,"visib":"6+","altim":1016,"clouds":[{"cover":"SCT","base":3500},{"cover":"BKN","base":7000}],"obsTime":1776117600},"SBUL":{"icaoId":"SBUL","flightCategory":"VFR","rawOb":"METAR SBUL 132200Z 10003KT 9999 FEW048 25/16 Q1017","temp":25,"dewp":16,"wdir":100,"wspd":3,"visib":"6+","altim":1017,"clouds":[{"cover":"FEW","base":4800}],"obsTime":1776117600},"SBUR":{"icaoId":"SBUR","flightCategory":"VFR","rawOb":"METAR SBUR 132200Z 14007KT 9999 FEW049 24/17 Q1017","temp":24,"dewp":17,"wdir":140,"wspd":7,"visib":"6+","altim":1017,"clouds":[{"cover":"FEW","base":4900}],"obsTime":1776117600},"SBCP":{"icaoId":"SBCP","flightCategory":"VFR","rawOb":"METAR SBCP 132200Z 13003KT 9999 FEW030 23/20 Q1016","temp":23,"dewp":20,"wdir":130,"wspd":3,"visib":"6+","altim":1016,"clouds":[{"cover":"FEW","base":3000}],"obsTime":1776117600},"SBIL":{"icaoId":"SBIL","flightCategory":"MVFR","rawOb":"METAR SBIL 132200Z 23006KT 9999 BKN020 27/24 Q1013","temp":27,"dewp":24,"wdir":230,"wspd":6,"visib":"6+","altim":1013,"clouds":[{"cover":"BKN","base":2000}],"obsTime":1776117600},"SBJU":{"icaoId":"SBJU","flightCategory":"VFR","rawOb":"METAR SBJU 132200Z 00000KT 9999 SCT020 27/22 Q1011","temp":27,"dewp":22,"wdir":0,"wspd":0,"visib":"6+","altim":1011,"clouds":[{"cover":"SCT","base":2000}],"obsTime":1776117600},"SBME":{"icaoId":"SBME","flightCategory":"VFR","rawOb":"METAR SBME 132200Z 00000KT 9999 BKN040 25/21 Q1016","temp":25,"dewp":21,"wdir":0,"wspd":0,"visib":"6+","altim":1016,"clouds":[{"cover":"BKN","base":4000}],"obsTime":1776117600},"SBMG":{"icaoId":"SBMG","flightCategory":"VFR","rawOb":"METAR SBMG 132200Z 01004KT 9999 BKN035 24/20 Q1015","temp":24,"dewp":20,"wdir":10,"wspd":4,"visib":"6+","altim":1015,"clouds":[{"cover":"BKN","base":3500}],"obsTime":1776117600},"SBMK":{"icaoId":"SBMK","flightCategory":"VFR","rawOb":"METAR SBMK 132200Z 09006KT CAVOK 23/18 Q1016","temp":23,"dewp":18,"wdir":90,"wspd":6,"visib":"6+","altim":1016,"clouds":[],"obsTime":1776117600},"SBAR":{"icaoId":"SBAR","flightCategory":"VFR","rawOb":"METAR SBAR 132200Z 16007KT 9999 FEW020 28/24 Q1011","temp":28,"dewp":24,"wdir":160,"wspd":7,"visib":"6+","altim":1011,"clouds":[{"cover":"FEW","base":2000}],"obsTime":1776117600},"SBPL":{"icaoId":"SBPL","flightCategory":"VFR","rawOb":"METAR SBPL 132200Z 15007KT 9999 SCT030 31/19 Q1010","temp":31,"dewp":19,"wdir":150,"wspd":7,"visib":"6+","altim":1010,"clouds":[{"cover":"SCT","base":3000}],"obsTime":1776117600},"SBOI":{"icaoId":"SBOI","flightCategory":"MVFR","rawOb":"METAR SBOI 132200Z AUTO 05006KT 020V080 9999 SCT022 BKN027 26/25 Q1009","temp":26,"dewp":25,"wdir":50,"wspd":6,"visib":"6+","altim":1009,"clouds":[{"cover":"SCT","base":2200},{"cover":"BKN","base":2700}],"obsTime":1776117600},"SBPS":{"icaoId":"SBPS","flightCategory":"MVFR","rawOb":"METAR SBPS 132200Z 17005KT 120V200 9999 BKN022 25/21 Q1014","temp":25,"dewp":21,"wdir":170,"wspd":5,"visib":"6+","altim":1014,"clouds":[{"cover":"BKN","base":2200}],"obsTime":1776117600},"SBSJ":{"icaoId":"SBSJ","flightCategory":"VFR","rawOb":"METAR SBSJ 132200Z 12010KT CAVOK 21/17 Q1018","temp":21,"dewp":17,"wdir":120,"wspd":10,"visib":"6+","altim":1018,"clouds":[],"obsTime":1776117600},"SBUY":{"icaoId":"SBUY","flightCategory":"MVFR","rawOb":"METAR SBUY 132200Z 05002KT 8000 -RA FEW020 FEW030TCU BKN080 25/24 Q1006","temp":25,"dewp":24,"wdir":50,"wspd":2,"visib":4.97,"altim":1006,"clouds":[{"cover":"FEW","base":2000},{"cover":"FEW","base":3000},{"cover":"BKN","base":8000}],"obsTime":1776117600},"SBTT":{"icaoId":"SBTT","flightCategory":"VFR","rawOb":"METAR SBTT 132200Z 13004KT 9999 FEW030 FEW035TCU 27/23 Q1007","temp":27,"dewp":23,"wdir":130,"wspd":4,"visib":"6+","altim":1007,"clouds":[{"cover":"FEW","base":3000},{"cover":"FEW","base":3500}],"obsTime":1776117600},"SBTF":{"icaoId":"SBTF","flightCategory":"VFR","rawOb":"METAR SBTF 132200Z 09006KT 9999 FEW004 FEW025TCU SCT080 27/26 Q1007","temp":27,"dewp":26,"wdir":90,"wspd":6,"visib":"6+","altim":1007,"clouds":[{"cover":"FEW","base":400},{"cover":"FEW","base":2500},{"cover":"SCT","base":8000}],"obsTime":1776117600},"SBES":{"icaoId":"SBES","flightCategory":"VFR","rawOb":"METAR SBES 132200Z 00000KT 9999 FEW030 21/// Q1017","temp":null,"dewp":null,"wdir":0,"wspd":0,"visib":"6+","altim":1017,"clouds":[{"cover":"FEW","base":3000}],"obsTime":1776117600},"SBIP":{"icaoId":"SBIP","flightCategory":"VFR","rawOb":"METAR SBIP 132200Z AUTO 21001KT CAVOK 20/20 Q1016","temp":20,"dewp":20,"wdir":210,"wspd":1,"visib":"6+","altim":1016,"clouds":[],"obsTime":1776117600},"SBKG":{"icaoId":"SBKG","flightCategory":"MVFR","rawOb":"METAR SBKG 132200Z 08010KT 9999 SCT005 BKN010 BKN070 24/23 Q1013","temp":24,"dewp":23,"wdir":80,"wspd":10,"visib":"6+","altim":1013,"clouds":[{"cover":"SCT","base":500},{"cover":"BKN","base":1000},{"cover":"BKN","base":7000}],"obsTime":1776117600},"SBSC":{"icaoId":"SBSC","flightCategory":"VFR","rawOb":"METAR SBSC 132200Z 00000KT CAVOK 22/19 Q1016","temp":22,"dewp":19,"wdir":0,"wspd":0,"visib":"6+","altim":1016,"clouds":[],"obsTime":1776117600},"SBSM":{"icaoId":"SBSM","flightCategory":"VFR","rawOb":"METAR SBSM 132200Z 11004KT CAVOK 23/19 Q1014","temp":23,"dewp":19,"wdir":110,"wspd":4,"visib":"6+","altim":1014,"clouds":[],"obsTime":1776117600},"SBSR":{"icaoId":"SBSR","flightCategory":"VFR","rawOb":"METAR SBSR 132200Z 14003KT 9999 FEW040 SCT090 26/18 Q1015","temp":26,"dewp":18,"wdir":140,"wspd":3,"visib":"6+","altim":1015,"clouds":[{"cover":"FEW","base":4000},{"cover":"SCT","base":9000}],"obsTime":1776117600},"SBVH":{"icaoId":"SBVH","flightCategory":"VFR","rawOb":"METAR SBVH 132200Z 08004KT 9999 FEW035 SCT070 26/24 Q1011","temp":26,"dewp":24,"wdir":80,"wspd":4,"visib":"6+","altim":1011,"clouds":[{"cover":"FEW","base":3500},{"cover":"SCT","base":7000}],"obsTime":1776117600},"SBAX":{"icaoId":"SBAX","flightCategory":"VFR","rawOb":"METAR SBAX 132200Z 17005KT 9999 SCT040 SCT060 23/15 Q1018","temp":23,"dewp":15,"wdir":170,"wspd":5,"visib":"6+","altim":1018,"clouds":[{"cover":"SCT","base":4000},{"cover":"SCT","base":6000}],"obsTime":1776117600},"SBBH":{"icaoId":"SBBH","flightCategory":"VFR","rawOb":"METAR SBBH 132200Z 10007KT 9999 SCT048 BKN090 23/17 Q1018","temp":23,"dewp":17,"wdir":100,"wspd":7,"visib":"6+","altim":1018,"clouds":[{"cover":"SCT","base":4800},{"cover":"BKN","base":9000}],"obsTime":1776117600},"SBBU":{"icaoId":"SBBU","flightCategory":"VFR","rawOb":"METAR SBBU 132200Z 16005KT CAVOK 26/18 Q1016","temp":26,"dewp":18,"wdir":160,"wspd":5,"visib":"6+","altim":1016,"clouds":[],"obsTime":1776117600},"SBCA":{"icaoId":"SBCA","flightCategory":"VFR","rawOb":"METAR SBCA 132200Z 07004KT CAVOK 23/18 Q1017","temp":23,"dewp":18,"wdir":70,"wspd":4,"visib":"6+","altim":1017,"clouds":[],"obsTime":1776117600},"SBCO":{"icaoId":"SBCO","flightCategory":"VFR","rawOb":"METAR SBCO 132200Z 12008KT CAVOK 23/19 Q1016","temp":23,"dewp":19,"wdir":120,"wspd":8,"visib":"6+","altim":1016,"clouds":[],"obsTime":1776117600},"SBDN":{"icaoId":"SBDN","flightCategory":"VFR","rawOb":"METAR SBDN 132200Z 00000KT CAVOK 23/19 Q1015","temp":23,"dewp":19,"wdir":0,"wspd":0,"visib":"6+","altim":1015,"clouds":[],"obsTime":1776117600},"SBPB":{"icaoId":"SBPB","flightCategory":"MVFR","rawOb":"SPECI SBPB 132145Z 18002KT 9999 BKN016 BKN080 26/25 Q1010","temp":26,"dewp":25,"wdir":180,"wspd":2,"visib":"6+","altim":1010,"clouds":[{"cover":"BKN","base":1600},{"cover":"BKN","base":8000}],"obsTime":1776116700},"SBCJ":{"icaoId":"SBCJ","flightCategory":"VFR","rawOb":"SPECI SBCJ 132130Z 00000KT 9999 FEW020 24/22 Q1012","temp":24,"dewp":22,"wdir":0,"wspd":0,"visib":"6+","altim":1012,"clouds":[{"cover":"FEW","base":2000}],"obsTime":1776115800},"SBJP":{"icaoId":"SBJP","flightCategory":"VFR","rawOb":"METAR SBJP 132200Z 14004KT 9999 FEW020 26/25 Q1011","temp":26,"dewp":25,"wdir":140,"wspd":4,"visib":"6+","altim":1011,"clouds":[{"cover":"FEW","base":2000}],"obsTime":1776117600},"SBAN":{"icaoId":"SBAN","flightCategory":"VFR","rawOb":"METAR SBAN 132200Z 16005KT 9999 FEW040 22/17 Q1018","temp":22,"dewp":17,"wdir":160,"wspd":5,"visib":"6+","altim":1018,"clouds":[{"cover":"FEW","base":4000}],"obsTime":1776117600},"SBJV":{"icaoId":"SBJV","flightCategory":"VFR","rawOb":"METAR SBJV 132200Z 17002KT 9999 FEW030 23/22 Q1016","temp":23,"dewp":22,"wdir":170,"wspd":2,"visib":"6+","altim":1016,"clouds":[{"cover":"FEW","base":3000}],"obsTime":1776117600},"SBIH":{"icaoId":"SBIH","flightCategory":"VFR","rawOb":"METAR SBIH 132200Z 08003KT 9999 FEW020 FEW025TCU BKN100 27/25 Q1007 RETS","temp":27,"dewp":25,"wdir":80,"wspd":3,"visib":"6+","altim":1007,"clouds":[{"cover":"FEW","base":2000},{"cover":"FEW","base":2500},{"cover":"BKN","base":10000}],"obsTime":1776117600},"SBAF":{"icaoId":"SBAF","flightCategory":"VFR","rawOb":"METAR SBAF 132200Z 08005KT CAVOK 25/19 Q1016","temp":25,"dewp":19,"wdir":80,"wspd":5,"visib":"6+","altim":1016,"clouds":[],"obsTime":1776117600},"SBGW":{"icaoId":"SBGW","flightCategory":"VFR","rawOb":"METAR SBGW 132200Z 08003KT 9999 SCT040 24/14 Q1017","temp":24,"dewp":14,"wdir":80,"wspd":3,"visib":"6+","altim":1017,"clouds":[{"cover":"SCT","base":4000}],"obsTime":1776117600},"SBJR":{"icaoId":"SBJR","flightCategory":"VFR","rawOb":"METAR SBJR 132200Z 10004KT CAVOK 25/19 Q1016","temp":25,"dewp":19,"wdir":100,"wspd":4,"visib":"6+","altim":1016,"clouds":[],"obsTime":1776117600},"SBLS":{"icaoId":"SBLS","flightCategory":"VFR","rawOb":"METAR SBLS 132200Z 13009KT CAVOK 22/17 Q1018","temp":22,"dewp":17,"wdir":130,"wspd":9,"visib":"6+","altim":1018,"clouds":[],"obsTime":1776117600},"SBMT":{"icaoId":"SBMT","flightCategory":"VFR","rawOb":"METAR SBMT 132200Z 13006KT 090V160 CAVOK 21/17 Q1018","temp":21,"dewp":17,"wdir":130,"wspd":6,"visib":"6+","altim":1018,"clouds":[],"obsTime":1776117600},"SBTA":{"icaoId":"SBTA","flightCategory":"VFR","rawOb":"METAR SBTA 132200Z 17008KT CAVOK 22/16 Q1017","temp":22,"dewp":16,"wdir":170,"wspd":8,"visib":"6+","altim":1017,"clouds":[],"obsTime":1776117600},"SBLE":{"icaoId":"SBLE","flightCategory":"VFR","rawOb":"METAR SBLE 132200Z AUTO 02004KT 9999 FEW038 ///// Q////","temp":null,"dewp":null,"wdir":20,"wspd":4,"visib":"6+","altim":null,"clouds":[{"cover":"FEW","base":3800}],"obsTime":1776117600}}}