{"updated":1778755106,"count":72,"data":{"SBGR":{"icaoId":"SBGR","flightCategory":"MVFR","rawOb":"METAR SBGR 140900Z 00000KT 5000 BR NSC 12/12 Q1019","temp":12,"dewp":12,"wdir":0,"wspd":0,"visib":3.11,"altim":1019,"clouds":[],"obsTime":1778749200},"SBBR":{"icaoId":"SBBR","flightCategory":"VFR","rawOb":"METAR SBBR 140900Z 28002KT CAVOK 17/16 Q1020","temp":17,"dewp":16,"wdir":280,"wspd":2,"visib":"6+","altim":1020,"clouds":[],"obsTime":1778749200},"SBVT":{"icaoId":"SBVT","flightCategory":"VFR","rawOb":"METAR SBVT 140900Z 33003KT CAVOK 19/19 Q1016","temp":19,"dewp":19,"wdir":330,"wspd":3,"visib":"6+","altim":1016,"clouds":[],"obsTime":1778749200},"SBBV":{"icaoId":"SBBV","flightCategory":"MVFR","rawOb":"METAR SBBV 140900Z 07004KT 9999 SCT007 BKN030 FEW035TCU BKN070 24/24 Q1013","temp":24,"dewp":24,"wdir":70,"wspd":4,"visib":"6+","altim":1013,"clouds":[{"cover":"SCT","base":700},{"cover":"BKN","base":3000},{"cover":"FEW","base":3500},{"cover":"BKN","base":7000}],"obsTime":1778749200},"SBCB":{"icaoId":"SBCB","flightCategory":"MVFR","rawOb":"METAR SBCB 140900Z 34004KT 8000 SCT015 20/19 Q1016","temp":20,"dewp":19,"wdir":340,"wspd":4,"visib":4.97,"altim":1016,"clouds":[{"cover":"SCT","base":1500}],"obsTime":1778749200},"SBCF":{"icaoId":"SBCF","flightCategory":"MVFR","rawOb":"METAR SBCF 140900Z 16004KT 7000 SCT004 BKN050 18/18 Q1020","temp":18,"dewp":18,"wdir":160,"wspd":4,"visib":4.35,"altim":1020,"clouds":[{"cover":"SCT","base":400},{"cover":"BKN","base":5000}],"obsTime":1778749200},"SBCG":{"icaoId":"SBCG","flightCategory":"VFR","rawOb":"METAR SBCG 140900Z 04003KT CAVOK 18/13 Q1016","temp":18,"dewp":13,"wdir":40,"wspd":3,"visib":"6+","altim":1016,"clouds":[],"obsTime":1778749200},"SBCP":{"icaoId":"SBCP","flightCategory":"VFR","rawOb":"METAR SBCP 141000Z 32002KT 9999 FEW023 SCT090 20/20 Q1017","temp":20,"dewp":20,"wdir":320,"wspd":2,"visib":"6+","altim":1017,"clouds":[{"cover":"FEW","base":2300},{"cover":"SCT","base":9000}],"obsTime":1778752800},"SBCT":{"icaoId":"SBCT","flightCategory":"LIFR","rawOb":"METAR SBCT 140900Z 07003KT 1500 0600E R15/P2000 R33/P2000 PRFG SCT002 05/05 Q1019","temp":5,"dewp":5,"wdir":70,"wspd":3,"visib":0.93,"altim":1019,"clouds":[{"cover":"SCT","base":200}],"obsTime":1778749200},"SBEG":{"icaoId":"SBEG","flightCategory":"VFR","rawOb":"METAR SBEG 140900Z 00000KT 9999 FEW030 BKN090 24/24 Q1013","temp":24,"dewp":24,"wdir":0,"wspd":0,"visib":"6+","altim":1013,"clouds":[{"cover":"FEW","base":3000},{"cover":"BKN","base":9000}],"obsTime":1778749200},"SBFI":{"icaoId":"SBFI","flightCategory":"MVFR","rawOb":"METAR SBFI 140900Z 11005KT 5000 1000SE R15/2000 R33/2000 BCFG FEW003 10/10 Q1015","temp":10,"dewp":10,"wdir":110,"wspd":5,"visib":3.11,"altim":1015,"clouds":[{"cover":"FEW","base":300}],"obsTime":1778749200},"SBFL":{"icaoId":"SBFL","flightCategory":"VFR","rawOb":"METAR SBFL 140900Z 20003KT CAVOK 11/10 Q1017","temp":11,"dewp":10,"wdir":200,"wspd":3,"visib":"6+","altim":1017,"clouds":[],"obsTime":1778749200},"SBFZ":{"icaoId":"SBFZ","flightCategory":"VFR","rawOb":"METAR SBFZ 140900Z 17005KT 9999 FEW019 BKN080 25/24 Q1012","temp":25,"dewp":24,"wdir":170,"wspd":5,"visib":"6+","altim":1012,"clouds":[{"cover":"FEW","base":1900},{"cover":"BKN","base":8000}],"obsTime":1778749200},"SBGL":{"icaoId":"SBGL","flightCategory":"MVFR","rawOb":"METAR SBGL 140900Z 04002KT 6000 FEW040 20/18 Q1015","temp":20,"dewp":18,"wdir":40,"wspd":2,"visib":3.73,"altim":1015,"clouds":[{"cover":"FEW","base":4000}],"obsTime":1778749200},"SBGO":{"icaoId":"SBGO","flightCategory":"VFR","rawOb":"METAR SBGO 140900Z 00000KT CAVOK 19/18 Q1018","temp":19,"dewp":18,"wdir":0,"wspd":0,"visib":"6+","altim":1018,"clouds":[],"obsTime":1778749200},"SBHT":{"icaoId":"SBHT","flightCategory":"VFR","rawOb":"METAR SBHT 141000Z 00000KT 9999 SCT008 BKN080 24/24 Q1014","temp":24,"dewp":24,"wdir":0,"wspd":0,"visib":"6+","altim":1014,"clouds":[{"cover":"SCT","base":800},{"cover":"BKN","base":8000}],"obsTime":1778752800},"SBIL":{"icaoId":"SBIL","flightCategory":"VFR","rawOb":"METAR SBIL 141000Z 29004KT CAVOK 23/22 Q1017","temp":23,"dewp":22,"wdir":290,"wspd":4,"visib":"6+","altim":1017,"clouds":[],"obsTime":1778752800},"SBJU":{"icaoId":"SBJU","flightCategory":"VFR","rawOb":"METAR SBJU 140900Z 13005KT 9999 SCT020 23/20 Q1016","temp":23,"dewp":20,"wdir":130,"wspd":5,"visib":"6+","altim":1016,"clouds":[{"cover":"SCT","base":2000}],"obsTime":1778749200},"SBKP":{"icaoId":"SBKP","flightCategory":"VFR","rawOb":"METAR SBKP 140900Z 12005KT CAVOK 14/11 Q1018","temp":14,"dewp":11,"wdir":120,"wspd":5,"visib":"6+","altim":1018,"clouds":[],"obsTime":1778749200},"SBLO":{"icaoId":"SBLO","flightCategory":"VFR","rawOb":"METAR SBLO 140900Z 24003KT CAVOK 12/10 Q1017","temp":12,"dewp":10,"wdir":240,"wspd":3,"visib":"6+","altim":1017,"clouds":[],"obsTime":1778749200},"SBMA":{"icaoId":"SBMA","flightCategory":"VFR","rawOb":"METAR SBMA 140900Z 34004KT 9999 SCT004 24/23 Q1013","temp":24,"dewp":23,"wdir":340,"wspd":4,"visib":"6+","altim":1013,"clouds":[{"cover":"SCT","base":400}],"obsTime":1778749200},"SBME":{"icaoId":"SBME","flightCategory":"MVFR","rawOb":"METAR SBME 140900Z 32003KT 6000 SCT007 19/18 Q1016","temp":19,"dewp":18,"wdir":320,"wspd":3,"visib":3.73,"altim":1016,"clouds":[{"cover":"SCT","base":700}],"obsTime":1778749200},"SBMG":{"icaoId":"SBMG","flightCategory":"VFR","rawOb":"METAR SBMG 140900Z AUTO 13006KT CAVOK 14/11 Q1016","temp":14,"dewp":11,"wdir":130,"wspd":6,"visib":"6+","altim":1016,"clouds":[],"obsTime":1778749200},"SBMK":{"icaoId":"SBMK","flightCategory":"VFR","rawOb":"METAR SBMK 140900Z 30002KT CAVOK 17/16 Q1019","temp":17,"dewp":16,"wdir":300,"wspd":2,"visib":"6+","altim":1019,"clouds":[],"obsTime":1778749200},"SBMO":{"icaoId":"SBMO","flightCategory":"MVFR","rawOb":"METAR SBMO 140900Z 31004KT 6000 SCT012 SCT050 23/23 Q1015","temp":23,"dewp":23,"wdir":310,"wspd":4,"visib":3.73,"altim":1015,"clouds":[{"cover":"SCT","base":1200},{"cover":"SCT","base":5000}],"obsTime":1778749200},"SBMQ":{"icaoId":"SBMQ","flightCategory":"VFR","rawOb":"METAR SBMQ 140900Z 02003KT 9999 -RA FEW010 SCT045 BKN070 25/24 Q1014","temp":25,"dewp":24,"wdir":20,"wspd":3,"visib":"6+","altim":1014,"clouds":[{"cover":"FEW","base":1000},{"cover":"SCT","base":4500},{"cover":"BKN","base":7000}],"obsTime":1778749200},"SBNT":{"icaoId":"SBNT","flightCategory":"IFR","rawOb":"METAR SBNT 140900Z 22005KT 4000 -RA BR BKN025 FEW030TCU BKN050 24/23 Q1013","temp":24,"dewp":23,"wdir":220,"wspd":5,"visib":2.49,"altim":1013,"clouds":[{"cover":"BKN","base":2500},{"cover":"FEW","base":3000},{"cover":"BKN","base":5000}],"obsTime":1778749200},"SBPA":{"icaoId":"SBPA","flightCategory":"MVFR","rawOb":"METAR SBPA 140900Z 15003KT 6000 NSC 07/07 Q1017","temp":7,"dewp":7,"wdir":150,"wspd":3,"visib":3.73,"altim":1017,"clouds":[],"obsTime":1778749200},"SBPJ":{"icaoId":"SBPJ","flightCategory":"VFR","rawOb":"METAR SBPJ 140900Z 14004KT 9999 FEW016 SCT080 24/21 Q1014","temp":24,"dewp":21,"wdir":140,"wspd":4,"visib":"6+","altim":1014,"clouds":[{"cover":"FEW","base":1600},{"cover":"SCT","base":8000}],"obsTime":1778749200},"SBPV":{"icaoId":"SBPV","flightCategory":"VFR","rawOb":"METAR SBPV 140900Z 00000KT 9999 FEW020 23/20 Q1013","temp":23,"dewp":20,"wdir":0,"wspd":0,"visib":"6+","altim":1013,"clouds":[{"cover":"FEW","base":2000}],"obsTime":1778749200},"SBRB":{"icaoId":"SBRB","flightCategory":"MVFR","rawOb":"METAR SBRB 140900Z 01002KT 9999 BKN021 21/21 Q1014","temp":21,"dewp":21,"wdir":10,"wspd":2,"visib":"6+","altim":1014,"clouds":[{"cover":"BKN","base":2100}],"obsTime":1778749200},"SBRF":{"icaoId":"SBRF","flightCategory":"VFR","rawOb":"METAR SBRF 140900Z 23003KT 9999 SCT020 SCT060 24/23 Q1014","temp":24,"dewp":23,"wdir":230,"wspd":3,"visib":"6+","altim":1014,"clouds":[{"cover":"SCT","base":2000},{"cover":"SCT","base":6000}],"obsTime":1778749200},"SBSG":{"icaoId":"SBSG","flightCategory":"IFR","rawOb":"METAR SBSG 140900Z COR VRB02KT 4000 RA BR BKN020 BKN040 24/23 Q1014","temp":24,"dewp":23,"wdir":"VRB","wspd":2,"visib":2.49,"altim":1014,"clouds":[{"cover":"BKN","base":2000},{"cover":"BKN","base":4000}],"obsTime":1778749200},"SBSL":{"icaoId":"SBSL","flightCategory":"IFR","rawOb":"METAR SBSL 140900Z 18002KT 9999 BKN005 BKN100 25/25 Q1012","temp":25,"dewp":25,"wdir":180,"wspd":2,"visib":"6+","altim":1012,"clouds":[{"cover":"BKN","base":500},{"cover":"BKN","base":10000}],"obsTime":1778749200},"SBSN":{"icaoId":"SBSN","flightCategory":"VFR","rawOb":"METAR SBSN 140900Z 17003KT 9999 SCT010 BKN100 24/23 Q1013","temp":24,"dewp":23,"wdir":170,"wspd":3,"visib":"6+","altim":1013,"clouds":[{"cover":"SCT","base":1000},{"cover":"BKN","base":10000}],"obsTime":1778749200},"SBSP":{"icaoId":"SBSP","flightCategory":"VFR","rawOb":"METAR SBSP 140900Z COR 17004KT CAVOK 13/11 Q1020","temp":13,"dewp":11,"wdir":170,"wspd":4,"visib":"6+","altim":1020,"clouds":[],"obsTime":1778749200},"SBSV":{"icaoId":"SBSV","flightCategory":"VFR","rawOb":"METAR SBSV 140900Z 28003KT 9999 VCSH SCT023 24/22 Q1015","temp":24,"dewp":22,"wdir":280,"wspd":3,"visib":"6+","altim":1015,"clouds":[{"cover":"SCT","base":2300}],"obsTime":1778749200},"SBTE":{"icaoId":"SBTE","flightCategory":"MVFR","rawOb":"METAR SBTE 140900Z 35002KT 9999 BKN020 SCT090 25/24 Q1012","temp":25,"dewp":24,"wdir":350,"wspd":2,"visib":"6+","altim":1012,"clouds":[{"cover":"BKN","base":2000},{"cover":"SCT","base":9000}],"obsTime":1778749200},"SBUL":{"icaoId":"SBUL","flightCategory":"VFR","rawOb":"METAR SBUL 140900Z 11006KT CAVOK 19/13 Q1019","temp":19,"dewp":13,"wdir":110,"wspd":6,"visib":"6+","altim":1019,"clouds":[],"obsTime":1778749200},"SBUR":{"icaoId":"SBUR","flightCategory":"VFR","rawOb":"METAR SBUR 140900Z 03005KT CAVOK 19/12 Q1018","temp":19,"dewp":12,"wdir":30,"wspd":5,"visib":"6+","altim":1018,"clouds":[],"obsTime":1778749200},"SBBE":{"icaoId":"SBBE","flightCategory":"VFR","rawOb":"METAR SBBE 140900Z 22005KT 9999 FEW007 23/22 Q1013","temp":23,"dewp":22,"wdir":220,"wspd":5,"visib":"6+","altim":1013,"clouds":[{"cover":"FEW","base":700}],"obsTime":1778749200},"SBCJ":{"icaoId":"SBCJ","flightCategory":"LIFR","rawOb":"SPECI SBCJ 141015Z 36003KT 8000 BKN002 21/20 Q1019","temp":21,"dewp":20,"wdir":360,"wspd":3,"visib":4.97,"altim":1019,"clouds":[{"cover":"BKN","base":200}],"obsTime":1778753700},"SBPB":{"icaoId":"SBPB","flightCategory":"VFR","rawOb":"SPECI SBPB 141015Z 22002KT 9999 FEW020 BKN100 26/25 Q1013","temp":26,"dewp":25,"wdir":220,"wspd":2,"visib":"6+","altim":1013,"clouds":[{"cover":"FEW","base":2000},{"cover":"BKN","base":10000}],"obsTime":1778753700},"SBBH":{"icaoId":"SBBH","flightCategory":"VFR","rawOb":"METAR SBBH 140900Z 10002KT 9999 SCT040 BKN100 19/18 Q1020","temp":19,"dewp":18,"wdir":100,"wspd":2,"visib":"6+","altim":1020,"clouds":[{"cover":"SCT","base":4000},{"cover":"BKN","base":10000}],"obsTime":1778749200},"SBAR":{"icaoId":"SBAR","flightCategory":"VFR","rawOb":"METAR SBAR 140900Z 13006KT 9999 VCSH SCT023 SCT050 26/23 Q1014","temp":26,"dewp":23,"wdir":130,"wspd":6,"visib":"6+","altim":1014,"clouds":[{"cover":"SCT","base":2300},{"cover":"SCT","base":5000}],"obsTime":1778749200},"SBAX":{"icaoId":"SBAX","flightCategory":"VFR","rawOb":"METAR SBAX 141000Z 00000KT 9999 SCT030 17/17 Q1021","temp":17,"dewp":17,"wdir":0,"wspd":0,"visib":"6+","altim":1021,"clouds":[{"cover":"SCT","base":3000}],"obsTime":1778752800},"SBBU":{"icaoId":"SBBU","flightCategory":"VFR","rawOb":"METAR SBBU 140900Z 11006KT CAVOK 17/10 Q1017","temp":17,"dewp":10,"wdir":110,"wspd":6,"visib":"6+","altim":1017,"clouds":[],"obsTime":1778749200},"SBCA":{"icaoId":"SBCA","flightCategory":"VFR","rawOb":"METAR SBCA 140900Z 03010KT CAVOK 15/07 Q1017","temp":15,"dewp":7,"wdir":30,"wspd":10,"visib":"6+","altim":1017,"clouds":[],"obsTime":1778749200},"SBCO":{"icaoId":"SBCO","flightCategory":"VFR","rawOb":"METAR SBCO 140900Z VRB02KT 9000 NSC 08/07 Q1017","temp":8,"dewp":7,"wdir":"VRB","wspd":2,"visib":5.59,"altim":1017,"clouds":[],"obsTime":1778749200},"SBDN":{"icaoId":"SBDN","flightCategory":"VFR","rawOb":"METAR SBDN 140900Z 12002KT CAVOK 14/09 Q1016","temp":14,"dewp":9,"wdir":120,"wspd":2,"visib":"6+","altim":1016,"clouds":[],"obsTime":1778749200},"SBES":{"icaoId":"SBES","flightCategory":"MVFR","rawOb":"METAR SBES 140900Z 00000KT 6000 BCFG FEW013 18/// Q1016","temp":null,"dewp":null,"wdir":0,"wspd":0,"visib":3.73,"altim":1016,"clouds":[{"cover":"FEW","base":1300}],"obsTime":1778749200},"SBIP":{"icaoId":"SBIP","flightCategory":"VFR","rawOb":"METAR SBIP 140900Z AUTO 02003KT CAVOK 19/19 Q1018","temp":19,"dewp":19,"wdir":20,"wspd":3,"visib":"6+","altim":1018,"clouds":[],"obsTime":1778749200},"SBKG":{"icaoId":"SBKG","flightCategory":"MVFR","rawOb":"METAR SBKG 140900Z 21002KT 9999 BKN025 21/20 Q1016","temp":21,"dewp":20,"wdir":210,"wspd":2,"visib":"6+","altim":1016,"clouds":[{"cover":"BKN","base":2500}],"obsTime":1778749200},"SBPL":{"icaoId":"SBPL","flightCategory":"VFR","rawOb":"METAR SBPL 140900Z 14006KT CAVOK 23/20 Q1016","temp":23,"dewp":20,"wdir":140,"wspd":6,"visib":"6+","altim":1016,"clouds":[],"obsTime":1778749200},"SBPS":{"icaoId":"SBPS","flightCategory":"VFR","rawOb":"METAR SBPS 140900Z 26004KT 9999 FEW020 21/21 Q1016","temp":21,"dewp":21,"wdir":260,"wspd":4,"visib":"6+","altim":1016,"clouds":[{"cover":"FEW","base":2000}],"obsTime":1778749200},"SBSC":{"icaoId":"SBSC","flightCategory":"MVFR","rawOb":"METAR SBSC 140900Z 06003KT 8000 FEW012 BKN050 19/17 Q1016","temp":19,"dewp":17,"wdir":60,"wspd":3,"visib":4.97,"altim":1016,"clouds":[{"cover":"FEW","base":1200},{"cover":"BKN","base":5000}],"obsTime":1778749200},"SBSJ":{"icaoId":"SBSJ","flightCategory":"IFR","rawOb":"METAR SBSJ 140900Z 20002KT 4000 BR BKN011 15/12 Q1018","temp":15,"dewp":12,"wdir":200,"wspd":2,"visib":2.49,"altim":1018,"clouds":[{"cover":"BKN","base":1100}],"obsTime":1778749200},"SBSM":{"icaoId":"SBSM","flightCategory":"MVFR","rawOb":"METAR SBSM 140900Z VRB02KT 6000 2500E BCFG MIFG NSC 05/05 Q1017","temp":5,"dewp":5,"wdir":"VRB","wspd":2,"visib":3.73,"altim":1017,"clouds":[],"obsTime":1778749200},"SBSR":{"icaoId":"SBSR","flightCategory":"VFR","rawOb":"METAR SBSR 140900Z 00000KT 9999 FEW030 SCT070 17/11 Q1016","temp":17,"dewp":11,"wdir":0,"wspd":0,"visib":"6+","altim":1016,"clouds":[{"cover":"FEW","base":3000},{"cover":"SCT","base":7000}],"obsTime":1778749200},"SBTU":{"icaoId":"SBTU","flightCategory":"IFR","rawOb":"METAR SBTU 140900Z AUTO 22004KT 1900 // ///////// ///// Q1015","temp":null,"dewp":null,"wdir":220,"wspd":4,"visib":1.18,"altim":1015,"clouds":[],"obsTime":1778749200},"SBTA":{"icaoId":"SBTA","flightCategory":"IFR","rawOb":"METAR SBTA 140900Z VRB01KT 4000 BR FEW014 13/12 Q1018","temp":13,"dewp":12,"wdir":"VRB","wspd":1,"visib":2.49,"altim":1018,"clouds":[{"cover":"FEW","base":1400}],"obsTime":1778749200},"SBJP":{"icaoId":"SBJP","flightCategory":"VFR","rawOb":"METAR SBJP 140900Z 22006KT 9999 FEW020 23/23 Q1014","temp":23,"dewp":23,"wdir":220,"wspd":6,"visib":"6+","altim":1014,"clouds":[{"cover":"FEW","base":2000}],"obsTime":1778749200},"SBAN":{"icaoId":"SBAN","flightCategory":"VFR","rawOb":"METAR SBAN 140900Z 20002KT CAVOK 16/15 Q1020","temp":16,"dewp":15,"wdir":200,"wspd":2,"visib":"6+","altim":1020,"clouds":[],"obsTime":1778749200},"SBLE":{"icaoId":"SBLE","flightCategory":"MVFR","rawOb":"METAR SBLE 140900Z AUTO 15001KT 9999 BKN013 BKN018 BKN044 ///// Q////","temp":null,"dewp":null,"wdir":150,"wspd":1,"visib":"6+","altim":null,"clouds":[{"cover":"BKN","base":1300},{"cover":"BKN","base":1800},{"cover":"BKN","base":4400}],"obsTime":1778749200},"SBJV":{"icaoId":"SBJV","flightCategory":"VFR","rawOb":"METAR SBJV 140900Z 33002KT CAVOK 11/11 Q1017","temp":11,"dewp":11,"wdir":330,"wspd":2,"visib":"6+","altim":1017,"clouds":[],"obsTime":1778749200},"SBNM":{"icaoId":"SBNM","flightCategory":"VFR","rawOb":"METAR SBNM 140900Z AUTO 08009KT CAVOK 08/06 Q1016","temp":8,"dewp":6,"wdir":80,"wspd":9,"visib":"6+","altim":1016,"clouds":[],"obsTime":1778749200},"SBPF":{"icaoId":"SBPF","flightCategory":"VFR","rawOb":"METAR SBPF 140900Z 03010KT CAVOK 09/05 Q1017","temp":9,"dewp":5,"wdir":30,"wspd":10,"visib":"6+","altim":1017,"clouds":[],"obsTime":1778749200},"SBAF":{"icaoId":"SBAF","flightCategory":"MVFR","rawOb":"METAR SBAF 141000Z 25002KT 6000 NSC 18/18 Q1016","temp":18,"dewp":18,"wdir":250,"wspd":2,"visib":3.73,"altim":1016,"clouds":[],"obsTime":1778752800},"SBGW":{"icaoId":"SBGW","flightCategory":"MVFR","rawOb":"METAR SBGW 140900Z 00000KT 6000 NSC 15/11 Q1018","temp":15,"dewp":11,"wdir":0,"wspd":0,"visib":3.73,"altim":1018,"clouds":[],"obsTime":1778749200},"SBJR":{"icaoId":"SBJR","flightCategory":"MVFR","rawOb":"METAR SBJR 141000Z 36001KT 8000 NSC 20/19 Q1016","temp":20,"dewp":19,"wdir":360,"wspd":1,"visib":4.97,"altim":1016,"clouds":[],"obsTime":1778752800},"SBLS":{"icaoId":"SBLS","flightCategory":"VFR","rawOb":"METAR SBLS 140900Z 17005KT 9999 SCT002 BKN040 BKN100 18/18 Q1020","temp":18,"dewp":18,"wdir":170,"wspd":5,"visib":"6+","altim":1020,"clouds":[{"cover":"SCT","base":200},{"cover":"BKN","base":4000},{"cover":"BKN","base":10000}],"obsTime":1778749200},"SBMT":{"icaoId":"SBMT","flightCategory":"IFR","rawOb":"METAR SBMT 140900Z 00000KT 3000 BR NSC 12/11 Q1019","temp":12,"dewp":11,"wdir":0,"wspd":0,"visib":1.86,"altim":1019,"clouds":[],"obsTime":1778749200}}}