{"updated":1783165844,"count":84,"data":{"SBSG":{"icaoId":"SBSG","flightCategory":"VFR","rawOb":"METAR SBSG 041000Z 17005KT 130V210 9999 SCT005 SCT020 24/23 Q1015","temp":24,"dewp":23,"wdir":170,"wspd":5,"visib":"6+","altim":1015,"clouds":[{"cover":"SCT","base":500},{"cover":"SCT","base":2000}],"obsTime":1783159200},"SBEG":{"icaoId":"SBEG","flightCategory":"VFR","rawOb":"METAR SBEG 041000Z 12005KT CAVOK 27/22 Q1013","temp":27,"dewp":22,"wdir":120,"wspd":5,"visib":"6+","altim":1013,"clouds":[],"obsTime":1783159200},"SBCR":{"icaoId":"SBCR","flightCategory":"MVFR","rawOb":"METAR SBCR 041100Z 22005KT 170V280 7000 SCT004 OVC011 12/12 Q1021","temp":12,"dewp":12,"wdir":220,"wspd":5,"visib":4.35,"altim":1021,"clouds":[{"cover":"SCT","base":400},{"cover":"OVC","base":1100}],"obsTime":1783162800},"SBBE":{"icaoId":"SBBE","flightCategory":"VFR","rawOb":"METAR SBBE 041000Z 09004KT CAVOK 25/25 Q1012","temp":25,"dewp":25,"wdir":90,"wspd":4,"visib":"6+","altim":1012,"clouds":[],"obsTime":1783159200},"SBCF":{"icaoId":"SBCF","flightCategory":"MVFR","rawOb":"METAR SBCF 041000Z 19002KT 8000 NSC 15/14 Q1022","temp":15,"dewp":14,"wdir":190,"wspd":2,"visib":4.97,"altim":1022,"clouds":[],"obsTime":1783159200},"SBFZ":{"icaoId":"SBFZ","flightCategory":"IFR","rawOb":"METAR SBFZ 041000Z 14011KT 3500 -RA BR FEW007 BKN015 OVC060 23/22 Q1014","temp":23,"dewp":22,"wdir":140,"wspd":11,"visib":2.17,"altim":1014,"clouds":[{"cover":"FEW","base":700},{"cover":"BKN","base":1500},{"cover":"OVC","base":6000}],"obsTime":1783159200},"SBUL":{"icaoId":"SBUL","flightCategory":"VFR","rawOb":"METAR SBUL 041000Z 13004KT CAVOK 19/10 Q1022","temp":19,"dewp":10,"wdir":130,"wspd":4,"visib":"6+","altim":1022,"clouds":[],"obsTime":1783159200},"SBTE":{"icaoId":"SBTE","flightCategory":"VFR","rawOb":"METAR SBTE 041000Z 32001KT CAVOK 24/19 Q1013","temp":24,"dewp":19,"wdir":320,"wspd":1,"visib":"6+","altim":1013,"clouds":[],"obsTime":1783159200},"SBFL":{"icaoId":"SBFL","flightCategory":"VFR","rawOb":"METAR SBFL 041000Z 26002KT CAVOK 07/05 Q1024","temp":7,"dewp":5,"wdir":260,"wspd":2,"visib":"6+","altim":1024,"clouds":[],"obsTime":1783159200},"SBCB":{"icaoId":"SBCB","flightCategory":"VFR","rawOb":"METAR SBCB 041000Z 30008KT 9999 SCT030 22/19 Q1020","temp":22,"dewp":19,"wdir":300,"wspd":8,"visib":"6+","altim":1020,"clouds":[{"cover":"SCT","base":3000}],"obsTime":1783159200},"SBBV":{"icaoId":"SBBV","flightCategory":"VFR","rawOb":"METAR SBBV 041000Z 28003KT 9999 FEW040 FEW045TCU BKN100 25/24 Q1013","temp":25,"dewp":24,"wdir":280,"wspd":3,"visib":"6+","altim":1013,"clouds":[{"cover":"FEW","base":4000},{"cover":"FEW","base":4500},{"cover":"BKN","base":10000}],"obsTime":1783159200},"SBPA":{"icaoId":"SBPA","flightCategory":"MVFR","rawOb":"METAR SBPA 041000Z 32003KT 9999 BKN013 08/06 Q1026","temp":8,"dewp":6,"wdir":320,"wspd":3,"visib":"6+","altim":1026,"clouds":[{"cover":"BKN","base":1300}],"obsTime":1783159200},"SBMA":{"icaoId":"SBMA","flightCategory":"VFR","rawOb":"METAR SBMA 041000Z 21005KT CAVOK 21/19 Q1013","temp":21,"dewp":19,"wdir":210,"wspd":5,"visib":"6+","altim":1013,"clouds":[],"obsTime":1783159200},"SBGR":{"icaoId":"SBGR","flightCategory":"IFR","rawOb":"METAR SBGR 041000Z 10004KT 9999 OVC009 16/14 Q1023","temp":16,"dewp":14,"wdir":100,"wspd":4,"visib":"6+","altim":1023,"clouds":[{"cover":"OVC","base":900}],"obsTime":1783159200},"SBUR":{"icaoId":"SBUR","flightCategory":"VFR","rawOb":"METAR SBUR 041000Z 10002KT CAVOK 16/13 Q1021","temp":16,"dewp":13,"wdir":100,"wspd":2,"visib":"6+","altim":1021,"clouds":[],"obsTime":1783159200},"SBSL":{"icaoId":"SBSL","flightCategory":"VFR","rawOb":"METAR SBSL 041000Z 08004KT 9999 FEW020 27/24 Q1012","temp":27,"dewp":24,"wdir":80,"wspd":4,"visib":"6+","altim":1012,"clouds":[{"cover":"FEW","base":2000}],"obsTime":1783159200},"SBCT":{"icaoId":"SBCT","flightCategory":"LIFR","rawOb":"METAR SBCT 041000Z 07003KT 6000 -DZ OVC003 11/11 Q1023","temp":11,"dewp":11,"wdir":70,"wspd":3,"visib":3.73,"altim":1023,"clouds":[{"cover":"OVC","base":300}],"obsTime":1783159200},"SBMG":{"icaoId":"SBMG","flightCategory":"VFR","rawOb":"METAR SBMG 041000Z 12010KT CAVOK 14/13 Q1020","temp":14,"dewp":13,"wdir":120,"wspd":10,"visib":"6+","altim":1020,"clouds":[],"obsTime":1783159200},"SBRB":{"icaoId":"SBRB","flightCategory":"VFR","rawOb":"METAR SBRB 041000Z 16004KT 9999 FEW005 16/15 Q1017","temp":16,"dewp":15,"wdir":160,"wspd":4,"visib":"6+","altim":1017,"clouds":[{"cover":"FEW","base":500}],"obsTime":1783159200},"SBPJ":{"icaoId":"SBPJ","flightCategory":"VFR","rawOb":"METAR SBPJ 041000Z 13005KT CAVOK 19/16 Q1015","temp":19,"dewp":16,"wdir":130,"wspd":5,"visib":"6+","altim":1015,"clouds":[],"obsTime":1783159200},"SBGO":{"icaoId":"SBGO","flightCategory":"VFR","rawOb":"METAR SBGO 041000Z 32002KT CAVOK 13/12 Q1021","temp":13,"dewp":12,"wdir":320,"wspd":2,"visib":"6+","altim":1021,"clouds":[],"obsTime":1783159200},"SBIL":{"icaoId":"SBIL","flightCategory":"VFR","rawOb":"METAR SBIL 041000Z 30005KT CAVOK 20/19 Q1018","temp":20,"dewp":19,"wdir":300,"wspd":5,"visib":"6+","altim":1018,"clouds":[],"obsTime":1783159200},"SBMO":{"icaoId":"SBMO","flightCategory":"VFR","rawOb":"METAR SBMO 041000Z 31003KT 9999 FEW025 21/21 Q1016","temp":21,"dewp":21,"wdir":310,"wspd":3,"visib":"6+","altim":1016,"clouds":[{"cover":"FEW","base":2500}],"obsTime":1783159200},"SBPV":{"icaoId":"SBPV","flightCategory":"VFR","rawOb":"METAR SBPV 041000Z 18003KT CAVOK 21/18 Q1015","temp":21,"dewp":18,"wdir":180,"wspd":3,"visib":"6+","altim":1015,"clouds":[],"obsTime":1783159200},"SBSN":{"icaoId":"SBSN","flightCategory":"VFR","rawOb":"METAR SBSN 041000Z 18004KT 9999 FEW015 25/24 Q1012","temp":25,"dewp":24,"wdir":180,"wspd":4,"visib":"6+","altim":1012,"clouds":[{"cover":"FEW","base":1500}],"obsTime":1783159200},"SBJU":{"icaoId":"SBJU","flightCategory":"VFR","rawOb":"METAR SBJU 041000Z 10017KT 9999 FEW020 22/15 Q1018","temp":22,"dewp":15,"wdir":100,"wspd":17,"visib":"6+","altim":1018,"clouds":[{"cover":"FEW","base":2000}],"obsTime":1783159200},"SBSV":{"icaoId":"SBSV","flightCategory":"MVFR","rawOb":"METAR SBSV 041000Z 25002KT 9999 BKN025 BKN060 22/21 Q1017","temp":22,"dewp":21,"wdir":250,"wspd":2,"visib":"6+","altim":1017,"clouds":[{"cover":"BKN","base":2500},{"cover":"BKN","base":6000}],"obsTime":1783159200},"SBAT":{"icaoId":"SBAT","flightCategory":"VFR","rawOb":"METAR SBAT 041100Z 18003KT CAVOK 20/17 Q1017","temp":20,"dewp":17,"wdir":180,"wspd":3,"visib":"6+","altim":1017,"clouds":[],"obsTime":1783162800},"SBHT":{"icaoId":"SBHT","flightCategory":"VFR","rawOb":"METAR SBHT 041000Z 00000KT CAVOK 22/22 Q1013","temp":22,"dewp":22,"wdir":0,"wspd":0,"visib":"6+","altim":1013,"clouds":[],"obsTime":1783159200},"SBME":{"icaoId":"SBME","flightCategory":"MVFR","rawOb":"METAR SBME 041000Z 00000KT 8000 BKN040 19/18 Q1020","temp":19,"dewp":18,"wdir":0,"wspd":0,"visib":4.97,"altim":1020,"clouds":[{"cover":"BKN","base":4000}],"obsTime":1783159200},"SBGL":{"icaoId":"SBGL","flightCategory":"VFR","rawOb":"METAR SBGL 041000Z 29004KT 9999 SCT020 BKN040 21/18 Q1020","temp":21,"dewp":18,"wdir":290,"wspd":4,"visib":"6+","altim":1020,"clouds":[{"cover":"SCT","base":2000},{"cover":"BKN","base":4000}],"obsTime":1783159200},"SBVT":{"icaoId":"SBVT","flightCategory":"VFR","rawOb":"METAR SBVT 041000Z 33001KT 9999 FEW015 SCT035 17/17 Q1020","temp":17,"dewp":17,"wdir":330,"wspd":1,"visib":"6+","altim":1020,"clouds":[{"cover":"FEW","base":1500},{"cover":"SCT","base":3500}],"obsTime":1783159200},"SBFI":{"icaoId":"SBFI","flightCategory":"VFR","rawOb":"METAR SBFI 041000Z 20004KT 9999 FEW020 BKN080 06/06 Q1022","temp":6,"dewp":6,"wdir":200,"wspd":4,"visib":"6+","altim":1022,"clouds":[{"cover":"FEW","base":2000},{"cover":"BKN","base":8000}],"obsTime":1783159200},"SBCZ":{"icaoId":"SBCZ","flightCategory":"VFR","rawOb":"METAR SBCZ 041000Z 00000KT CAVOK 21/20 Q1016","temp":21,"dewp":20,"wdir":0,"wspd":0,"visib":"6+","altim":1016,"clouds":[],"obsTime":1783159200},"SBRF":{"icaoId":"SBRF","flightCategory":"MVFR","rawOb":"METAR SBRF 041000Z 15011KT 9999 BKN017 25/21 Q1017","temp":25,"dewp":21,"wdir":150,"wspd":11,"visib":"6+","altim":1017,"clouds":[{"cover":"BKN","base":1700}],"obsTime":1783159200},"SBCP":{"icaoId":"SBCP","flightCategory":"VFR","rawOb":"METAR SBCP 041000Z 23004KT 9999 FEW025 20/19 Q1020","temp":20,"dewp":19,"wdir":230,"wspd":4,"visib":"6+","altim":1020,"clouds":[{"cover":"FEW","base":2500}],"obsTime":1783159200},"SBLO":{"icaoId":"SBLO","flightCategory":"VFR","rawOb":"METAR SBLO 041000Z 21004KT CAVOK 16/15 Q1021","temp":16,"dewp":15,"wdir":210,"wspd":4,"visib":"6+","altim":1021,"clouds":[],"obsTime":1783159200},"SBSP":{"icaoId":"SBSP","flightCategory":"IFR","rawOb":"METAR SBSP 041000Z 12004KT 9999 SCT007 BKN009 15/14 Q1024","temp":15,"dewp":14,"wdir":120,"wspd":4,"visib":"6+","altim":1024,"clouds":[{"cover":"SCT","base":700},{"cover":"BKN","base":900}],"obsTime":1783159200},"SBBR":{"icaoId":"SBBR","flightCategory":"VFR","rawOb":"METAR SBBR 041000Z 21001KT CAVOK 12/09 Q1023","temp":12,"dewp":9,"wdir":210,"wspd":1,"visib":"6+","altim":1023,"clouds":[],"obsTime":1783159200},"SBMQ":{"icaoId":"SBMQ","flightCategory":"VFR","rawOb":"METAR SBMQ 041000Z VRB02KT 9999 SCT015 SCT070 24/24 Q1012","temp":24,"dewp":24,"wdir":"VRB","wspd":2,"visib":"6+","altim":1012,"clouds":[{"cover":"SCT","base":1500},{"cover":"SCT","base":7000}],"obsTime":1783159200},"SBNT":{"icaoId":"SBNT","flightCategory":"VFR","rawOb":"METAR SBNT 041000Z 18010KT 9999 VCSH SCT013 SCT021 FEW030TCU BKN070 24/23 Q1014","temp":24,"dewp":23,"wdir":180,"wspd":10,"visib":"6+","altim":1014,"clouds":[{"cover":"SCT","base":1300},{"cover":"SCT","base":2100},{"cover":"FEW","base":3000},{"cover":"BKN","base":7000}],"obsTime":1783159200},"SBKP":{"icaoId":"SBKP","flightCategory":"VFR","rawOb":"METAR SBKP 041000Z 12010KT CAVOK 16/14 Q1022","temp":16,"dewp":14,"wdir":120,"wspd":10,"visib":"6+","altim":1022,"clouds":[],"obsTime":1783159200},"SBCG":{"icaoId":"SBCG","flightCategory":"VFR","rawOb":"METAR SBCG 041000Z 12006KT CAVOK 12/11 Q1020","temp":12,"dewp":11,"wdir":120,"wspd":6,"visib":"6+","altim":1020,"clouds":[],"obsTime":1783159200},"SBMK":{"icaoId":"SBMK","flightCategory":"VFR","rawOb":"METAR SBMK 041000Z 20002KT CAVOK 16/15 Q1021","temp":16,"dewp":15,"wdir":200,"wspd":2,"visib":"6+","altim":1021,"clouds":[],"obsTime":1783159200},"SBTF":{"icaoId":"SBTF","flightCategory":"VFR","rawOb":"SPECI SBTF 041115Z 00000KT 9999 FEW006 SCT090 26/24 Q1013","temp":26,"dewp":24,"wdir":0,"wspd":0,"visib":"6+","altim":1013,"clouds":[{"cover":"FEW","base":600},{"cover":"SCT","base":9000}],"obsTime":1783163700},"SBPP":{"icaoId":"SBPP","flightCategory":"VFR","rawOb":"SPECI SBPP 041115Z 06005KT CAVOK 10/08 Q1022","temp":10,"dewp":8,"wdir":60,"wspd":5,"visib":"6+","altim":1022,"clouds":[],"obsTime":1783163700},"SBVH":{"icaoId":"SBVH","flightCategory":"LIFR","rawOb":"METAR SBVH 041100Z 16007KT 0700 FG VV002 13/13 Q1020","temp":13,"dewp":13,"wdir":160,"wspd":7,"visib":0.43,"altim":1020,"clouds":[{"cover":"OVX","base":200}],"obsTime":1783162800},"SBAX":{"icaoId":"SBAX","flightCategory":"VFR","rawOb":"METAR SBAX 041000Z AUTO VRB02KT CAVOK 15/12 Q1022","temp":15,"dewp":12,"wdir":"VRB","wspd":2,"visib":"6+","altim":1022,"clouds":[],"obsTime":1783159200},"SBBH":{"icaoId":"SBBH","flightCategory":"VFR","rawOb":"METAR SBBH 041000Z 11004KT CAVOK 15/12 Q1022","temp":15,"dewp":12,"wdir":110,"wspd":4,"visib":"6+","altim":1022,"clouds":[],"obsTime":1783159200},"SBBU":{"icaoId":"SBBU","flightCategory":"MVFR","rawOb":"METAR SBBU 041000Z 11010KT 5000 BR SCT007 BKN090 16/16 Q1020","temp":16,"dewp":16,"wdir":110,"wspd":10,"visib":3.11,"altim":1020,"clouds":[{"cover":"SCT","base":700},{"cover":"BKN","base":9000}],"obsTime":1783159200},"SBDN":{"icaoId":"SBDN","flightCategory":"LIFR","rawOb":"METAR SBDN 041000Z 19001KT 0800 FG NSC 12/12 Q1020","temp":12,"dewp":12,"wdir":190,"wspd":1,"visib":0.5,"altim":1020,"clouds":[],"obsTime":1783159200},"SBIP":{"icaoId":"SBIP","flightCategory":"LIFR","rawOb":"METAR SBIP 041000Z AUTO 20001KT 0250 FG VV001 14/14 Q1021","temp":14,"dewp":14,"wdir":200,"wspd":1,"visib":0.16,"altim":1021,"clouds":[{"cover":"OVX","base":100}],"obsTime":1783159200},"SBSC":{"icaoId":"SBSC","flightCategory":"MVFR","rawOb":"METAR SBSC 041000Z 29001KT 9999 SCT015 BKN025 OVC040 20/19 Q1021","temp":20,"dewp":19,"wdir":290,"wspd":1,"visib":"6+","altim":1021,"clouds":[{"cover":"SCT","base":1500},{"cover":"BKN","base":2500},{"cover":"OVC","base":4000}],"obsTime":1783159200},"SBSR":{"icaoId":"SBSR","flightCategory":"VFR","rawOb":"METAR SBSR 041000Z 18002KT CAVOK 18/15 Q1020","temp":18,"dewp":15,"wdir":180,"wspd":2,"visib":"6+","altim":1020,"clouds":[],"obsTime":1783159200},"SBES":{"icaoId":"SBES","flightCategory":"VFR","rawOb":"METAR SBES 041000Z 00000KT 9999 SCT040 19/// Q1020","temp":null,"dewp":null,"wdir":0,"wspd":0,"visib":"6+","altim":1020,"clouds":[{"cover":"SCT","base":4000}],"obsTime":1783159200},"SBCO":{"icaoId":"SBCO","flightCategory":"MVFR","rawOb":"METAR SBCO 041000Z 32003KT 9999 BKN025 08/06 Q1026","temp":8,"dewp":6,"wdir":320,"wspd":3,"visib":"6+","altim":1026,"clouds":[{"cover":"BKN","base":2500}],"obsTime":1783159200},"SBSM":{"icaoId":"SBSM","flightCategory":"VFR","rawOb":"METAR SBSM 041000Z VRB01KT 9999 SCT020 06/06 Q1026","temp":6,"dewp":6,"wdir":"VRB","wspd":1,"visib":"6+","altim":1026,"clouds":[{"cover":"SCT","base":2000}],"obsTime":1783159200},"SBKG":{"icaoId":"SBKG","flightCategory":"MVFR","rawOb":"METAR SBKG 041000Z 14005KT 110V170 8000 VCSH SCT012 BKN070 20/19 Q1018","temp":20,"dewp":19,"wdir":140,"wspd":5,"visib":4.97,"altim":1018,"clouds":[{"cover":"SCT","base":1200},{"cover":"BKN","base":7000}],"obsTime":1783159200},"SBPB":{"icaoId":"SBPB","flightCategory":"VFR","rawOb":"SPECI SBPB 041008Z 11009KT 9999 FEW016 SCT100 27/23 Q1012","temp":27,"dewp":23,"wdir":110,"wspd":9,"visib":"6+","altim":1012,"clouds":[{"cover":"FEW","base":1600},{"cover":"SCT","base":10000}],"obsTime":1783159680},"SBCA":{"icaoId":"SBCA","flightCategory":"VFR","rawOb":"METAR SBCA 041100Z 14005KT CAVOK 12/05 Q1023","temp":12,"dewp":5,"wdir":140,"wspd":5,"visib":"6+","altim":1023,"clouds":[],"obsTime":1783162800},"SBCC":{"icaoId":"SBCC","flightCategory":"VFR","rawOb":"METAR SBCC 041100Z 07007KT CAVOK 22/14 Q1017","temp":22,"dewp":14,"wdir":70,"wspd":7,"visib":"6+","altim":1017,"clouds":[],"obsTime":1783162800},"SBAR":{"icaoId":"SBAR","flightCategory":"VFR","rawOb":"METAR SBAR 041000Z 27002KT 9999 FEW028 BKN046 21/20 Q1016","temp":21,"dewp":20,"wdir":270,"wspd":2,"visib":"6+","altim":1016,"clouds":[{"cover":"FEW","base":2800},{"cover":"BKN","base":4600}],"obsTime":1783159200},"SBPS":{"icaoId":"SBPS","flightCategory":"VFR","rawOb":"METAR SBPS 041000Z 25005KT 9999 SCT025 20/19 Q1019","temp":20,"dewp":19,"wdir":250,"wspd":5,"visib":"6+","altim":1019,"clouds":[{"cover":"SCT","base":2500}],"obsTime":1783159200},"SBOI":{"icaoId":"SBOI","flightCategory":"VFR","rawOb":"METAR SBOI 041100Z AUTO 32003KT 9999 FEW004 25/24 Q1013","temp":25,"dewp":24,"wdir":320,"wspd":3,"visib":"6+","altim":1013,"clouds":[{"cover":"FEW","base":400}],"obsTime":1783162800},"SBPL":{"icaoId":"SBPL","flightCategory":"VFR","rawOb":"METAR SBPL 041000Z 11010KT 9999 SCT015 21/18 Q1018","temp":21,"dewp":18,"wdir":110,"wspd":10,"visib":"6+","altim":1018,"clouds":[{"cover":"SCT","base":1500}],"obsTime":1783159200},"SBSJ":{"icaoId":"SBSJ","flightCategory":"IFR","rawOb":"METAR SBSJ 041000Z 16002KT 4000 BR OVC007 16/15 Q1023","temp":16,"dewp":15,"wdir":160,"wspd":2,"visib":2.49,"altim":1023,"clouds":[{"cover":"OVC","base":700}],"obsTime":1783159200},"SBTU":{"icaoId":"SBTU","flightCategory":"VFR","rawOb":"METAR SBTU 041000Z AUTO 26002KT 9999 // NCD ///// Q1014","temp":null,"dewp":null,"wdir":260,"wspd":2,"visib":"6+","altim":1014,"clouds":[],"obsTime":1783159200},"SBTT":{"icaoId":"SBTT","flightCategory":"IFR","rawOb":"METAR SBTT 041100Z 20007KT 9999 BKN009 24/22 Q1015","temp":24,"dewp":22,"wdir":200,"wspd":7,"visib":"6+","altim":1015,"clouds":[{"cover":"BKN","base":900}],"obsTime":1783162800},"SBUY":{"icaoId":"SBUY","flightCategory":"IFR","rawOb":"METAR SBUY 041100Z 16003KT 9999 BKN007 BKN070 23/22 Q1013","temp":23,"dewp":22,"wdir":160,"wspd":3,"visib":"6+","altim":1013,"clouds":[{"cover":"BKN","base":700},{"cover":"BKN","base":7000}],"obsTime":1783162800},"SBCJ":{"icaoId":"SBCJ","flightCategory":"VFR","rawOb":"SPECI SBCJ 041015Z 00000KT CAVOK 19/16 Q1017","temp":19,"dewp":16,"wdir":0,"wspd":0,"visib":"6+","altim":1017,"clouds":[],"obsTime":1783160100},"SBIH":{"icaoId":"SBIH","flightCategory":"VFR","rawOb":"METAR SBIH 041100Z 00000KT 9000 NSC 24/23 Q1013","temp":24,"dewp":23,"wdir":0,"wspd":0,"visib":5.59,"altim":1013,"clouds":[],"obsTime":1783162800},"SBAF":{"icaoId":"SBAF","flightCategory":"MVFR","rawOb":"METAR SBAF 041000Z 24003KT 8000 BKN020 OVC045 20/20 Q1021","temp":20,"dewp":20,"wdir":240,"wspd":3,"visib":4.97,"altim":1021,"clouds":[{"cover":"BKN","base":2000},{"cover":"OVC","base":4500}],"obsTime":1783159200},"SBGW":{"icaoId":"SBGW","flightCategory":"MVFR","rawOb":"METAR SBGW 041000Z 28002KT 9999 BKN011 OVC014 17/13 Q1022","temp":17,"dewp":13,"wdir":280,"wspd":2,"visib":"6+","altim":1022,"clouds":[{"cover":"BKN","base":1100},{"cover":"OVC","base":1400}],"obsTime":1783159200},"SBJR":{"icaoId":"SBJR","flightCategory":"MVFR","rawOb":"METAR SBJR 041000Z 00000KT 9999 BKN025 OVC042 21/20 Q1020","temp":21,"dewp":20,"wdir":0,"wspd":0,"visib":"6+","altim":1020,"clouds":[{"cover":"BKN","base":2500},{"cover":"OVC","base":4200}],"obsTime":1783159200},"SBLS":{"icaoId":"SBLS","flightCategory":"VFR","rawOb":"METAR SBLS 041000Z 19006KT CAVOK 15/13 Q1022","temp":15,"dewp":13,"wdir":190,"wspd":6,"visib":"6+","altim":1022,"clouds":[],"obsTime":1783159200},"SBMT":{"icaoId":"SBMT","flightCategory":"MVFR","rawOb":"METAR SBMT 041000Z 15008KT 9999 SCT012 BKN020 15/14 Q1023","temp":15,"dewp":14,"wdir":150,"wspd":8,"visib":"6+","altim":1023,"clouds":[{"cover":"SCT","base":1200},{"cover":"BKN","base":2000}],"obsTime":1783159200},"SBST":{"icaoId":"SBST","flightCategory":"LIFR","rawOb":"METAR SBST 041100Z 21002KT 1500 -RA BKN007 16/16 Q1023","temp":16,"dewp":16,"wdir":210,"wspd":2,"visib":0.93,"altim":1023,"clouds":[{"cover":"BKN","base":700}],"obsTime":1783162800},"SBTA":{"icaoId":"SBTA","flightCategory":"MVFR","rawOb":"METAR SBTA 041000Z 21002KT 5000 BR SCT010 OVC025 17/16 Q1022","temp":17,"dewp":16,"wdir":210,"wspd":2,"visib":3.11,"altim":1022,"clouds":[{"cover":"SCT","base":1000},{"cover":"OVC","base":2500}],"obsTime":1783159200},"SBJV":{"icaoId":"SBJV","flightCategory":"MVFR","rawOb":"METAR SBJV 041000Z 23001KT 9999 FEW010 OVC025 12/09 Q1024","temp":12,"dewp":9,"wdir":230,"wspd":1,"visib":"6+","altim":1024,"clouds":[{"cover":"FEW","base":1000},{"cover":"OVC","base":2500}],"obsTime":1783159200},"SBNM":{"icaoId":"SBNM","flightCategory":"VFR","rawOb":"METAR SBNM 041000Z AUTO 09007KT CAVOK 01/01 Q1025","temp":1,"dewp":1,"wdir":90,"wspd":7,"visib":"6+","altim":1025,"clouds":[],"obsTime":1783159200},"SBPF":{"icaoId":"SBPF","flightCategory":"IFR","rawOb":"METAR SBPF 041000Z 15009KT 9999 BKN005 02/01 Q1024","temp":2,"dewp":1,"wdir":150,"wspd":9,"visib":"6+","altim":1024,"clouds":[{"cover":"BKN","base":500}],"obsTime":1783159200},"SBLE":{"icaoId":"SBLE","flightCategory":"MVFR","rawOb":"METAR SBLE 041000Z AUTO 16004KT 120V190 9999 -RA FEW011 BKN016 OVC027 ///// Q1021","temp":null,"dewp":null,"wdir":160,"wspd":4,"visib":"6+","altim":1021,"clouds":[{"cover":"FEW","base":1100},{"cover":"BKN","base":1600},{"cover":"OVC","base":2700}],"obsTime":1783159200},"SBJP":{"icaoId":"SBJP","flightCategory":"MVFR","rawOb":"METAR SBJP 041000Z 18006KT 9999 FEW006 BKN030 BKN070 24/23 Q1016","temp":24,"dewp":23,"wdir":180,"wspd":6,"visib":"6+","altim":1016,"clouds":[{"cover":"FEW","base":600},{"cover":"BKN","base":3000},{"cover":"BKN","base":7000}],"obsTime":1783159200},"SBAN":{"icaoId":"SBAN","flightCategory":"VFR","rawOb":"METAR SBAN 041000Z 10003KT CAVOK 13/09 Q1023","temp":13,"dewp":9,"wdir":100,"wspd":3,"visib":"6+","altim":1023,"clouds":[],"obsTime":1783159200}}}