{"updated":1775333797,"count":84,"data":{"SBUL":{"icaoId":"SBUL","flightCategory":"VFR","rawOb":" SBUL 041900Z 03006KT 300V090 9999 VCSH VCTS SCT040 FEW045CB 29/18 Q1017","temp":29,"dewp":18,"wdir":30,"wspd":6,"visib":"6+","altim":1017,"clouds":[{"cover":"SCT","base":4000},{"cover":"FEW","base":4500}],"obsTime":1775329200},"SBVT":{"icaoId":"SBVT","flightCategory":"VFR","rawOb":"METAR SBVT 041900Z 06014KT 9999 FEW030 FEW040TCU 28/23 Q1014","temp":28,"dewp":23,"wdir":60,"wspd":14,"visib":"6+","altim":1014,"clouds":[{"cover":"FEW","base":3000},{"cover":"FEW","base":4000}],"obsTime":1775329200},"SBBE":{"icaoId":"SBBE","flightCategory":"MVFR","rawOb":"METAR SBBE 041900Z 05005KT 9999 FEW009 BKN025 BKN083 26/24 Q1009","temp":26,"dewp":24,"wdir":50,"wspd":5,"visib":"6+","altim":1009,"clouds":[{"cover":"FEW","base":900},{"cover":"BKN","base":2500},{"cover":"BKN","base":8300}],"obsTime":1775329200},"SBBR":{"icaoId":"SBBR","flightCategory":"VFR","rawOb":"METAR SBBR 041900Z 08006KT 020V130 9999 SCT040 FEW050TCU SCT070 28/16 Q1018","temp":28,"dewp":16,"wdir":80,"wspd":6,"visib":"6+","altim":1018,"clouds":[{"cover":"SCT","base":4000},{"cover":"FEW","base":5000},{"cover":"SCT","base":7000}],"obsTime":1775329200},"SBBV":{"icaoId":"SBBV","flightCategory":"IFR","rawOb":"METAR SBBV 041900Z 23009KT 7000 -TSRA BKN008 BKN030 FEW045CB BKN080 23/22 Q1012","temp":23,"dewp":22,"wdir":230,"wspd":9,"visib":4.35,"altim":1012,"clouds":[{"cover":"BKN","base":800},{"cover":"BKN","base":3000},{"cover":"FEW","base":4500},{"cover":"BKN","base":8000}],"obsTime":1775329200},"SBCB":{"icaoId":"SBCB","flightCategory":"VFR","rawOb":"METAR SBCB 041900Z 03011KT 9999 FEW009 SCT020 BKN050 28/22 Q1013 RETS","temp":28,"dewp":22,"wdir":30,"wspd":11,"visib":"6+","altim":1013,"clouds":[{"cover":"FEW","base":900},{"cover":"SCT","base":2000},{"cover":"BKN","base":5000}],"obsTime":1775329200},"SBCF":{"icaoId":"SBCF","flightCategory":"VFR","rawOb":"METAR SBCF 041900Z 09004KT 020V130 9999 SCT042 FEW045TCU 29/17 Q1018","temp":29,"dewp":17,"wdir":90,"wspd":4,"visib":"6+","altim":1018,"clouds":[{"cover":"SCT","base":4200},{"cover":"FEW","base":4500}],"obsTime":1775329200},"SBCG":{"icaoId":"SBCG","flightCategory":"VFR","rawOb":"METAR SBCG 041900Z 20008KT 170V240 9999 TS VCSH SCT045 FEW050CB BKN100 31/20 Q1014","temp":31,"dewp":20,"wdir":200,"wspd":8,"visib":"6+","altim":1014,"clouds":[{"cover":"SCT","base":4500},{"cover":"FEW","base":5000},{"cover":"BKN","base":10000}],"obsTime":1775329200},"SBCP":{"icaoId":"SBCP","flightCategory":"VFR","rawOb":"METAR SBCP 041900Z 09012KT 9999 FEW020 BKN100 29/23 Q1013","temp":29,"dewp":23,"wdir":90,"wspd":12,"visib":"6+","altim":1013,"clouds":[{"cover":"FEW","base":2000},{"cover":"BKN","base":10000}],"obsTime":1775329200},"SBCR":{"icaoId":"SBCR","flightCategory":"VFR","rawOb":"METAR SBCR 041900Z 09010KT 9999 FEW020 SCT040 FEW045TCU 33/23 Q1010","temp":33,"dewp":23,"wdir":90,"wspd":10,"visib":"6+","altim":1010,"clouds":[{"cover":"FEW","base":2000},{"cover":"SCT","base":4000},{"cover":"FEW","base":4500}],"obsTime":1775329200},"SBCT":{"icaoId":"SBCT","flightCategory":"VFR","rawOb":"METAR SBCT 041900Z 23010KT 9999 BKN045 29/14 Q1017","temp":29,"dewp":14,"wdir":230,"wspd":10,"visib":"6+","altim":1017,"clouds":[{"cover":"BKN","base":4500}],"obsTime":1775329200},"SBCZ":{"icaoId":"SBCZ","flightCategory":"MVFR","rawOb":"METAR SBCZ 041900Z 15005KT 9999 BKN030 31/24 Q1009","temp":31,"dewp":24,"wdir":150,"wspd":5,"visib":"6+","altim":1009,"clouds":[{"cover":"BKN","base":3000}],"obsTime":1775329200},"SBEG":{"icaoId":"SBEG","flightCategory":"MVFR","rawOb":"METAR SBEG 041900Z 27008KT 8000 -RA SCT005 BKN020 FEW025TCU BKN050 24/23 Q1012 RERA","temp":24,"dewp":23,"wdir":270,"wspd":8,"visib":4.97,"altim":1012,"clouds":[{"cover":"SCT","base":500},{"cover":"BKN","base":2000},{"cover":"FEW","base":2500},{"cover":"BKN","base":5000}],"obsTime":1775329200},"SBFI":{"icaoId":"SBFI","flightCategory":"VFR","rawOb":"METAR SBFI 041900Z 11003KT 9999 SCT030 FEW040TCU 34/22 Q1012","temp":34,"dewp":22,"wdir":110,"wspd":3,"visib":"6+","altim":1012,"clouds":[{"cover":"SCT","base":3000},{"cover":"FEW","base":4000}],"obsTime":1775329200},"SBFL":{"icaoId":"SBFL","flightCategory":"VFR","rawOb":"METAR SBFL 041900Z 14009KT 9999 FEW040 BKN100 26/22 Q1012","temp":26,"dewp":22,"wdir":140,"wspd":9,"visib":"6+","altim":1012,"clouds":[{"cover":"FEW","base":4000},{"cover":"BKN","base":10000}],"obsTime":1775329200},"SBFZ":{"icaoId":"SBFZ","flightCategory":"MVFR","rawOb":"METAR SBFZ 041900Z 10014KT 9999 BKN025 30/25 Q1009","temp":30,"dewp":25,"wdir":100,"wspd":14,"visib":"6+","altim":1009,"clouds":[{"cover":"BKN","base":2500}],"obsTime":1775329200},"SBGL":{"icaoId":"SBGL","flightCategory":"VFR","rawOb":"SPECI SBGL 041819Z 12008KT 9999 TS VCSH FEW035CB SCT035 27/22 Q1012","temp":27,"dewp":22,"wdir":120,"wspd":8,"visib":"6+","altim":1012,"clouds":[{"cover":"FEW","base":3500},{"cover":"SCT","base":3500}],"obsTime":1775326740},"SBGO":{"icaoId":"SBGO","flightCategory":"VFR","rawOb":"SPECI SBGO 041835Z 33010KT 9999 TS VCSH SCT045 FEW048CB 29/21 Q1015","temp":29,"dewp":21,"wdir":330,"wspd":10,"visib":"6+","altim":1015,"clouds":[{"cover":"SCT","base":4500},{"cover":"FEW","base":4800}],"obsTime":1775327700},"SBGR":{"icaoId":"SBGR","flightCategory":"VFR","rawOb":"SPECI SBGR 041844Z 16015G26KT 9999 BKN040 FEW050TCU 26/21 Q1017","temp":26,"dewp":21,"wdir":160,"wspd":15,"visib":"6+","altim":1017,"clouds":[{"cover":"BKN","base":4000},{"cover":"FEW","base":5000}],"obsTime":1775328240},"SBHT":{"icaoId":"SBHT","flightCategory":"VFR","rawOb":"METAR SBHT 041900Z 18002KT 9999 SCT012 BKN080 28/24 Q1009","temp":28,"dewp":24,"wdir":180,"wspd":2,"visib":"6+","altim":1009,"clouds":[{"cover":"SCT","base":1200},{"cover":"BKN","base":8000}],"obsTime":1775329200},"SBIL":{"icaoId":"SBIL","flightCategory":"VFR","rawOb":"METAR SBIL 041900Z 11012KT 080V140 9999 -SHRA SCT020 FEW023TCU 28/24 Q1014","temp":28,"dewp":24,"wdir":110,"wspd":12,"visib":"6+","altim":1014,"clouds":[{"cover":"SCT","base":2000},{"cover":"FEW","base":2300}],"obsTime":1775329200},"SBJU":{"icaoId":"SBJU","flightCategory":"VFR","rawOb":"METAR SBJU 041900Z 15005KT 9999 SCT022 31/21 Q1012","temp":31,"dewp":21,"wdir":150,"wspd":5,"visib":"6+","altim":1012,"clouds":[{"cover":"SCT","base":2200}],"obsTime":1775329200},"SBKP":{"icaoId":"SBKP","flightCategory":"VFR","rawOb":"METAR SBKP 041900Z VRB05KT 9999 SCT043 31/19 Q1015","temp":31,"dewp":19,"wdir":"VRB","wspd":5,"visib":"6+","altim":1015,"clouds":[{"cover":"SCT","base":4300}],"obsTime":1775329200},"SBLO":{"icaoId":"SBLO","flightCategory":"VFR","rawOb":"METAR SBLO 041900Z VRB03KT 9999 FEW045 31/19 Q1014","temp":31,"dewp":19,"wdir":"VRB","wspd":3,"visib":"6+","altim":1014,"clouds":[{"cover":"FEW","base":4500}],"obsTime":1775329200},"SBMA":{"icaoId":"SBMA","flightCategory":"VFR","rawOb":"METAR SBMA 041900Z 11003KT 9999 SCT025 FEW027TCU SCT100 32/24 Q1008","temp":32,"dewp":24,"wdir":110,"wspd":3,"visib":"6+","altim":1008,"clouds":[{"cover":"SCT","base":2500},{"cover":"FEW","base":2700},{"cover":"SCT","base":10000}],"obsTime":1775329200},"SBME":{"icaoId":"SBME","flightCategory":"VFR","rawOb":"METAR SBME 041900Z 34003KT 9999 SCT030 BKN080 24/22 Q1013 RETS","temp":24,"dewp":22,"wdir":340,"wspd":3,"visib":"6+","altim":1013,"clouds":[{"cover":"SCT","base":3000},{"cover":"BKN","base":8000}],"obsTime":1775329200},"SBMG":{"icaoId":"SBMG","flightCategory":"VFR","rawOb":"METAR SBMG 041900Z 20008KT 170V240 CAVOK 32/17 Q1014","temp":32,"dewp":17,"wdir":200,"wspd":8,"visib":"6+","altim":1014,"clouds":[],"obsTime":1775329200},"SBMK":{"icaoId":"SBMK","flightCategory":"VFR","rawOb":"METAR SBMK 041900Z 12004KT 9999 FEW030 29/19 Q1016","temp":29,"dewp":19,"wdir":120,"wspd":4,"visib":"6+","altim":1016,"clouds":[{"cover":"FEW","base":3000}],"obsTime":1775329200},"SBMO":{"icaoId":"SBMO","flightCategory":"VFR","rawOb":"METAR SBMO 041900Z 09011KT 060V120 9999 VCSH SCT027 29/23 Q1012","temp":29,"dewp":23,"wdir":90,"wspd":11,"visib":"6+","altim":1012,"clouds":[{"cover":"SCT","base":2700}],"obsTime":1775329200},"SBMQ":{"icaoId":"SBMQ","flightCategory":"VFR","rawOb":"METAR SBMQ 041900Z 05014KT 9999 VCSH BKN040 FEW055TCU 31/25 Q1008","temp":31,"dewp":25,"wdir":50,"wspd":14,"visib":"6+","altim":1008,"clouds":[{"cover":"BKN","base":4000},{"cover":"FEW","base":5500}],"obsTime":1775329200},"SBNT":{"icaoId":"SBNT","flightCategory":"VFR","rawOb":"METAR SBNT 041900Z 11013KT 9999 SCT021 FEW028TCU 30/24 Q1011","temp":30,"dewp":24,"wdir":110,"wspd":13,"visib":"6+","altim":1011,"clouds":[{"cover":"SCT","base":2100},{"cover":"FEW","base":2800}],"obsTime":1775329200},"SBPA":{"icaoId":"SBPA","flightCategory":"VFR","rawOb":"METAR SBPA 041900Z 23006KT 190V270 9999 VCSH VCTS FEW030 FEW036CB 30/22 Q1012 RETS","temp":30,"dewp":22,"wdir":230,"wspd":6,"visib":"6+","altim":1012,"clouds":[{"cover":"FEW","base":3000},{"cover":"FEW","base":3600}],"obsTime":1775329200},"SBPJ":{"icaoId":"SBPJ","flightCategory":"VFR","rawOb":"METAR SBPJ 041900Z 00000KT 9999 SCT040 33/24 Q1010","temp":33,"dewp":24,"wdir":0,"wspd":0,"visib":"6+","altim":1010,"clouds":[{"cover":"SCT","base":4000}],"obsTime":1775329200},"SBPV":{"icaoId":"SBPV","flightCategory":"VFR","rawOb":"METAR SBPV 041900Z 34005KT 9999 FEW030 26/23 Q1009","temp":26,"dewp":23,"wdir":340,"wspd":5,"visib":"6+","altim":1009,"clouds":[{"cover":"FEW","base":3000}],"obsTime":1775329200},"SBRB":{"icaoId":"SBRB","flightCategory":"MVFR","rawOb":"METAR SBRB 041900Z VRB03KT 9999 TS VCSH BKN027 FEW040CB SCT080 31/24 Q1009","temp":31,"dewp":24,"wdir":"VRB","wspd":3,"visib":"6+","altim":1009,"clouds":[{"cover":"BKN","base":2700},{"cover":"FEW","base":4000},{"cover":"SCT","base":8000}],"obsTime":1775329200},"SBRF":{"icaoId":"SBRF","flightCategory":"MVFR","rawOb":"METAR SBRF 041900Z 09008KT 040V130 9999 BKN023 FEW026TCU BKN060 29/24 Q1011","temp":29,"dewp":24,"wdir":90,"wspd":8,"visib":"6+","altim":1011,"clouds":[{"cover":"BKN","base":2300},{"cover":"FEW","base":2600},{"cover":"BKN","base":6000}],"obsTime":1775329200},"SBSG":{"icaoId":"SBSG","flightCategory":"VFR","rawOb":"METAR SBSG 041900Z 10012KT 9999 VCSH SCT027 FEW033TCU 30/23 Q1011","temp":30,"dewp":23,"wdir":100,"wspd":12,"visib":"6+","altim":1011,"clouds":[{"cover":"SCT","base":2700},{"cover":"FEW","base":3300}],"obsTime":1775329200},"SBSL":{"icaoId":"SBSL","flightCategory":"IFR","rawOb":"SPECI SBSL 041820Z 07009KT 2500 -TSRA BR SCT013 BKN020 FEW025CB 26/24 Q1009","temp":26,"dewp":24,"wdir":70,"wspd":9,"visib":1.55,"altim":1009,"clouds":[{"cover":"SCT","base":1300},{"cover":"BKN","base":2000},{"cover":"FEW","base":2500}],"obsTime":1775326800},"SBSN":{"icaoId":"SBSN","flightCategory":"VFR","rawOb":"METAR SBSN 041900Z 07008KT 9999 SCT023 FEW026TCU 31/24 Q1007","temp":31,"dewp":24,"wdir":70,"wspd":8,"visib":"6+","altim":1007,"clouds":[{"cover":"SCT","base":2300},{"cover":"FEW","base":2600}],"obsTime":1775329200},"SBSP":{"icaoId":"SBSP","flightCategory":"VFR","rawOb":"METAR SBSP 041900Z 17008KT 9999 BKN036 27/18 Q1018","temp":27,"dewp":18,"wdir":170,"wspd":8,"visib":"6+","altim":1018,"clouds":[{"cover":"BKN","base":3600}],"obsTime":1775329200},"SBSV":{"icaoId":"SBSV","flightCategory":"VFR","rawOb":"METAR SBSV 041900Z 11010KT 9999 SCT021 29/22 Q1012","temp":29,"dewp":22,"wdir":110,"wspd":10,"visib":"6+","altim":1012,"clouds":[{"cover":"SCT","base":2100}],"obsTime":1775329200},"SBTE":{"icaoId":"SBTE","flightCategory":"VFR","rawOb":"METAR SBTE 041900Z 16005KT 9999 SCT020 32/24 Q1007","temp":32,"dewp":24,"wdir":160,"wspd":5,"visib":"6+","altim":1007,"clouds":[{"cover":"SCT","base":2000}],"obsTime":1775329200},"SBUR":{"icaoId":"SBUR","flightCategory":"VFR","rawOb":"METAR SBUR 041900Z 26005KT 9999 SCT048 FEW049TCU 31/18 Q1016","temp":31,"dewp":18,"wdir":260,"wspd":5,"visib":"6+","altim":1016,"clouds":[{"cover":"SCT","base":4800},{"cover":"FEW","base":4900}],"obsTime":1775329200},"SBAT":{"icaoId":"SBAT","flightCategory":"VFR","rawOb":"METAR SBAT 041900Z 10006KT 9999 SCT035 31/24 Q1010","temp":31,"dewp":24,"wdir":100,"wspd":6,"visib":"6+","altim":1010,"clouds":[{"cover":"SCT","base":3500}],"obsTime":1775329200},"SBAX":{"icaoId":"SBAX","flightCategory":"VFR","rawOb":"METAR SBAX 041900Z AUTO 34006KT 290V030 CAVOK 28/17 Q1017","temp":28,"dewp":17,"wdir":340,"wspd":6,"visib":"6+","altim":1017,"clouds":[],"obsTime":1775329200},"SBAR":{"icaoId":"SBAR","flightCategory":"VFR","rawOb":"METAR SBAR 041900Z 11010KT 9999 FEW024 30/24 Q1011","temp":30,"dewp":24,"wdir":110,"wspd":10,"visib":"6+","altim":1011,"clouds":[{"cover":"FEW","base":2400}],"obsTime":1775329200},"SBSJ":{"icaoId":"SBSJ","flightCategory":"VFR","rawOb":"METAR SBSJ 041900Z VRB02KT 9999 FEW045TCU SCT050 BKN070 29/18 Q1016","temp":29,"dewp":18,"wdir":"VRB","wspd":2,"visib":"6+","altim":1016,"clouds":[{"cover":"FEW","base":4500},{"cover":"SCT","base":5000},{"cover":"BKN","base":7000}],"obsTime":1775329200},"SBBH":{"icaoId":"SBBH","flightCategory":"VFR","rawOb":"METAR SBBH 041900Z 08005KT 9999 SCT045 FEW048TCU 29/18 Q1017","temp":29,"dewp":18,"wdir":80,"wspd":5,"visib":"6+","altim":1017,"clouds":[{"cover":"SCT","base":4500},{"cover":"FEW","base":4800}],"obsTime":1775329200},"SBBU":{"icaoId":"SBBU","flightCategory":"VFR","rawOb":"METAR SBBU 041900Z 24005KT 9999 FEW040 FEW045TCU 32/20 Q1015","temp":32,"dewp":20,"wdir":240,"wspd":5,"visib":"6+","altim":1015,"clouds":[{"cover":"FEW","base":4000},{"cover":"FEW","base":4500}],"obsTime":1775329200},"SBCC":{"icaoId":"SBCC","flightCategory":"VFR","rawOb":"METAR SBCC 041900Z 15007KT 9999 VCSH SCT020 FEW025TCU BKN100 26/23 Q1011","temp":26,"dewp":23,"wdir":150,"wspd":7,"visib":"6+","altim":1011,"clouds":[{"cover":"SCT","base":2000},{"cover":"FEW","base":2500},{"cover":"BKN","base":10000}],"obsTime":1775329200},"SBCJ":{"icaoId":"SBCJ","flightCategory":"VFR","rawOb":"METAR SBCJ 041900Z 08002KT 9999 TS SCT023 FEW030CB 25/22 Q1013","temp":25,"dewp":22,"wdir":80,"wspd":2,"visib":"6+","altim":1013,"clouds":[{"cover":"SCT","base":2300},{"cover":"FEW","base":3000}],"obsTime":1775329200},"SBCO":{"icaoId":"SBCO","flightCategory":"VFR","rawOb":"METAR SBCO 041900Z 27009KT 240V310 9999 VCSH VCTS SCT040 FEW045CB 31/21 Q1012 RETS","temp":31,"dewp":21,"wdir":270,"wspd":9,"visib":"6+","altim":1012,"clouds":[{"cover":"SCT","base":4000},{"cover":"FEW","base":4500}],"obsTime":1775329200},"SBDN":{"icaoId":"SBDN","flightCategory":"VFR","rawOb":"METAR SBDN 041900Z 27013G28KT 9999 -RA VCSH SCT020 BKN049 FEW055TCU 26/20 Q1014","temp":26,"dewp":20,"wdir":270,"wspd":13,"visib":"6+","altim":1014,"clouds":[{"cover":"SCT","base":2000},{"cover":"BKN","base":4900},{"cover":"FEW","base":5500}],"obsTime":1775329200},"SBES":{"icaoId":"SBES","flightCategory":"VFR","rawOb":"METAR SBES 041900Z 00000KT 9999 -RA VCTS FEW020 FEW025CB BKN050 23/// Q1013 RETS","temp":null,"dewp":null,"wdir":0,"wspd":0,"visib":"6+","altim":1013,"clouds":[{"cover":"FEW","base":2000},{"cover":"FEW","base":2500},{"cover":"BKN","base":5000}],"obsTime":1775329200},"SBIP":{"icaoId":"SBIP","flightCategory":"VFR","rawOb":"METAR SBIP 041900Z AUTO 05007KT 010V070 CAVOK 31/20 Q1014","temp":31,"dewp":20,"wdir":50,"wspd":7,"visib":"6+","altim":1014,"clouds":[],"obsTime":1775329200},"SBKG":{"icaoId":"SBKG","flightCategory":"VFR","rawOb":"METAR SBKG 041900Z 10013KT 9999 SCT030 27/21 Q1014","temp":27,"dewp":21,"wdir":100,"wspd":13,"visib":"6+","altim":1014,"clouds":[{"cover":"SCT","base":3000}],"obsTime":1775329200},"SBOI":{"icaoId":"SBOI","flightCategory":"VFR","rawOb":"METAR SBOI 041900Z AUTO 09006KT 060V170 9999 SCT037 30/23 Q1009","temp":30,"dewp":23,"wdir":90,"wspd":6,"visib":"6+","altim":1009,"clouds":[{"cover":"SCT","base":3700}],"obsTime":1775329200},"SBPB":{"icaoId":"SBPB","flightCategory":"VFR","rawOb":"METAR SBPB 041900Z 06012KT 9999 SCT020 30/25 Q1008","temp":30,"dewp":25,"wdir":60,"wspd":12,"visib":"6+","altim":1008,"clouds":[{"cover":"SCT","base":2000}],"obsTime":1775329200},"SBPL":{"icaoId":"SBPL","flightCategory":"VFR","rawOb":"METAR SBPL 041900Z 34004KT 9999 SCT030 33/21 Q1011","temp":33,"dewp":21,"wdir":340,"wspd":4,"visib":"6+","altim":1011,"clouds":[{"cover":"SCT","base":3000}],"obsTime":1775329200},"SBPP":{"icaoId":"SBPP","flightCategory":"VFR","rawOb":"METAR SBPP 041900Z 19005KT 9999 SCT025 31/18 Q1015","temp":31,"dewp":18,"wdir":190,"wspd":5,"visib":"6+","altim":1015,"clouds":[{"cover":"SCT","base":2500}],"obsTime":1775329200},"SBPS":{"icaoId":"SBPS","flightCategory":"VFR","rawOb":"METAR SBPS 041900Z 12006KT 9999 SCT020 28/24 Q1014","temp":28,"dewp":24,"wdir":120,"wspd":6,"visib":"6+","altim":1014,"clouds":[{"cover":"SCT","base":2000}],"obsTime":1775329200},"SBSC":{"icaoId":"SBSC","flightCategory":"VFR","rawOb":"METAR SBSC 041900Z 16008KT 9999 FEW030 29/21 Q1012","temp":29,"dewp":21,"wdir":160,"wspd":8,"visib":"6+","altim":1012,"clouds":[{"cover":"FEW","base":3000}],"obsTime":1775329200},"SBSM":{"icaoId":"SBSM","flightCategory":"MVFR","rawOb":"METAR SBSM 041900Z 19005KT 9999 FEW010 BKN015 BKN100 25/22 Q1015","temp":25,"dewp":22,"wdir":190,"wspd":5,"visib":"6+","altim":1015,"clouds":[{"cover":"FEW","base":1000},{"cover":"BKN","base":1500},{"cover":"BKN","base":10000}],"obsTime":1775329200},"SBSR":{"icaoId":"SBSR","flightCategory":"MVFR","rawOb":"METAR SBSR 041900Z 06004KT 9999 BKN025 FEW030TCU 29/18 Q1014","temp":29,"dewp":18,"wdir":60,"wspd":4,"visib":"6+","altim":1014,"clouds":[{"cover":"BKN","base":2500},{"cover":"FEW","base":3000}],"obsTime":1775329200},"SBTF":{"icaoId":"SBTF","flightCategory":"VFR","rawOb":"METAR SBTF 041900Z 11007KT 9999 SCT018 SCT090 31/25 Q1010","temp":31,"dewp":25,"wdir":110,"wspd":7,"visib":"6+","altim":1010,"clouds":[{"cover":"SCT","base":1800},{"cover":"SCT","base":9000}],"obsTime":1775329200},"SBTT":{"icaoId":"SBTT","flightCategory":"VFR","rawOb":"METAR SBTT 041900Z 35004KT 9999 SCT020 30/23 Q1010","temp":30,"dewp":23,"wdir":350,"wspd":4,"visib":"6+","altim":1010,"clouds":[{"cover":"SCT","base":2000}],"obsTime":1775329200},"SBUY":{"icaoId":"SBUY","flightCategory":"VFR","rawOb":"METAR SBUY 041900Z 07005KT 9999 SCT025 FEW030TCU SCT100 30/24 Q1008","temp":30,"dewp":24,"wdir":70,"wspd":5,"visib":"6+","altim":1008,"clouds":[{"cover":"SCT","base":2500},{"cover":"FEW","base":3000},{"cover":"SCT","base":10000}],"obsTime":1775329200},"SBVH":{"icaoId":"SBVH","flightCategory":"MVFR","rawOb":"METAR SBVH 041900Z 10007KT 9999 BKN030 SCT090 29/22 Q1011","temp":29,"dewp":22,"wdir":100,"wspd":7,"visib":"6+","altim":1011,"clouds":[{"cover":"BKN","base":3000},{"cover":"SCT","base":9000}],"obsTime":1775329200},"SBBQ":{"icaoId":"SBBQ","flightCategory":"MVFR","rawOb":"METAR SBBQ 041900Z 01004KT 330V040 9000 -TSRA OVC019 //////CB 18/18 Q1022 RETS","temp":18,"dewp":18,"wdir":10,"wspd":4,"visib":5.59,"altim":1022,"clouds":[{"cover":"OVC","base":1900}],"obsTime":1775329200},"SBGM":{"icaoId":"SBGM","flightCategory":"MVFR","rawOb":"METAR SBGM 041900Z 11004KT 9999 BKN013 BKN020 27/22 Q1009 RETS","temp":27,"dewp":22,"wdir":110,"wspd":4,"visib":"6+","altim":1009,"clouds":[{"cover":"BKN","base":1300},{"cover":"BKN","base":2000}],"obsTime":1775329200},"SBLE":{"icaoId":"SBLE","flightCategory":"VFR","rawOb":"METAR SBLE 041900Z AUTO 07003KT 030V100 9999 -RA NSC 27/24 Q1015","temp":27,"dewp":24,"wdir":70,"wspd":3,"visib":"6+","altim":1015,"clouds":[],"obsTime":1775329200},"SBTC":{"icaoId":"SBTC","flightCategory":"VFR","rawOb":"METAR SBTC 041900Z 10006KT 9999 SCT020 28/24 Q1014","temp":28,"dewp":24,"wdir":100,"wspd":6,"visib":"6+","altim":1014,"clouds":[{"cover":"SCT","base":2000}],"obsTime":1775329200},"SBJV":{"icaoId":"SBJV","flightCategory":"VFR","rawOb":"METAR SBJV 041900Z 05007KT 020V080 9999 FEW030 SCT060 32/25 Q1011","temp":32,"dewp":25,"wdir":50,"wspd":7,"visib":"6+","altim":1011,"clouds":[{"cover":"FEW","base":3000},{"cover":"SCT","base":6000}],"obsTime":1775329200},"SBPF":{"icaoId":"SBPF","flightCategory":"VFR","rawOb":"METAR SBPF 041900Z AUTO 23011KT 200V260 9999 NSC 29/16 Q1017","temp":29,"dewp":16,"wdir":230,"wspd":11,"visib":"6+","altim":1017,"clouds":[],"obsTime":1775329200},"SBIH":{"icaoId":"SBIH","flightCategory":"VFR","rawOb":"METAR SBIH 041900Z 02002KT 9999 SCT018 34/23 Q1007","temp":34,"dewp":23,"wdir":20,"wspd":2,"visib":"6+","altim":1007,"clouds":[{"cover":"SCT","base":1800}],"obsTime":1775329200},"SBAN":{"icaoId":"SBAN","flightCategory":"VFR","rawOb":"METAR SBAN 041900Z 35001KT 9999 VCTS SCT030 FEW040CB SCT100 24/18 Q1018 RETS","temp":24,"dewp":18,"wdir":350,"wspd":1,"visib":"6+","altim":1018,"clouds":[{"cover":"SCT","base":3000},{"cover":"FEW","base":4000},{"cover":"SCT","base":10000}],"obsTime":1775329200},"SBGW":{"icaoId":"SBGW","flightCategory":"MVFR","rawOb":"METAR SBGW 041900Z VRB04KT 9999 BKN030 FEW040TCU 30/16 Q1015","temp":30,"dewp":16,"wdir":"VRB","wspd":4,"visib":"6+","altim":1015,"clouds":[{"cover":"BKN","base":3000},{"cover":"FEW","base":4000}],"obsTime":1775329200},"SBJR":{"icaoId":"SBJR","flightCategory":"VFR","rawOb":"METAR SBJR 041900Z 19004KT 9999 FEW025 FEW030TCU 30/23 Q1012","temp":30,"dewp":23,"wdir":190,"wspd":4,"visib":"6+","altim":1012,"clouds":[{"cover":"FEW","base":2500},{"cover":"FEW","base":3000}],"obsTime":1775329200},"SBLS":{"icaoId":"SBLS","flightCategory":"VFR","rawOb":"METAR SBLS 041900Z 03002KT 9999 SCT045 FEW048TCU 29/16 Q1017","temp":29,"dewp":16,"wdir":30,"wspd":2,"visib":"6+","altim":1017,"clouds":[{"cover":"SCT","base":4500},{"cover":"FEW","base":4800}],"obsTime":1775329200},"SBST":{"icaoId":"SBST","flightCategory":"VFR","rawOb":"METAR SBST 041900Z 14003KT CAVOK 27/23 Q1013","temp":27,"dewp":23,"wdir":140,"wspd":3,"visib":"6+","altim":1013,"clouds":[],"obsTime":1775329200},"SBTA":{"icaoId":"SBTA","flightCategory":"VFR","rawOb":"METAR SBTA 041900Z 34006KT 9999 BKN040 FEW045TCU 29/17 Q1015","temp":29,"dewp":17,"wdir":340,"wspd":6,"visib":"6+","altim":1015,"clouds":[{"cover":"BKN","base":4000},{"cover":"FEW","base":4500}],"obsTime":1775329200},"SBAF":{"icaoId":"SBAF","flightCategory":"VFR","rawOb":" SBAF 041900Z 18009KT 9999 TS SCT025 FEW030CB 31/23 Q1012","temp":31,"dewp":23,"wdir":180,"wspd":9,"visib":"6+","altim":1012,"clouds":[{"cover":"SCT","base":2500},{"cover":"FEW","base":3000}],"obsTime":1775329200},"SBMT":{"icaoId":"SBMT","flightCategory":"MVFR","rawOb":"METAR SBMT 041900Z 15007KT 110V180 9999 BKN025 FEW040TCU 27/17 Q1016","temp":27,"dewp":17,"wdir":150,"wspd":7,"visib":"6+","altim":1016,"clouds":[{"cover":"BKN","base":2500},{"cover":"FEW","base":4000}],"obsTime":1775329200},"SBJP":{"icaoId":"SBJP","flightCategory":"VFR","rawOb":"METAR SBJP 041900Z 08010KT 9999 SCT020 30/24 Q1011","temp":30,"dewp":24,"wdir":80,"wspd":10,"visib":"6+","altim":1011,"clouds":[{"cover":"SCT","base":2000}],"obsTime":1775329200}}}