{"updated":1774597863,"count":49,"data":{"SBGR":{"icaoId":"SBGR","flightCategory":"VFR","rawOb":"METAR SBGR 270600Z 08003KT CAVOK 20/18 Q1019","temp":20,"dewp":18,"wdir":80,"wspd":3,"visib":"6+","altim":1019,"clouds":[],"obsTime":1774591200},"SBSP":{"icaoId":"SBSP","flightCategory":"VFR","rawOb":"METAR SBSP 270600Z AUTO 10003KT 050V150 CAVOK 21/19 Q1019","temp":21,"dewp":19,"wdir":100,"wspd":3,"visib":"6+","altim":1019,"clouds":[],"obsTime":1774591200},"SBFZ":{"icaoId":"SBFZ","flightCategory":"VFR","rawOb":"METAR SBFZ 270600Z 10009KT 9999 SCT020 27/25 Q1008","temp":27,"dewp":25,"wdir":100,"wspd":9,"visib":"6+","altim":1008,"clouds":[{"cover":"SCT","base":2000}],"obsTime":1774591200},"SBMQ":{"icaoId":"SBMQ","flightCategory":"VFR","rawOb":"METAR SBMQ 270600Z 36003KT 9999 SCT007 26/25 Q1009","temp":26,"dewp":25,"wdir":360,"wspd":3,"visib":"6+","altim":1009,"clouds":[{"cover":"SCT","base":700}],"obsTime":1774591200},"SBGL":{"icaoId":"SBGL","flightCategory":"VFR","rawOb":"METAR SBGL 270600Z 09003KT CAVOK 24/22 Q1015","temp":24,"dewp":22,"wdir":90,"wspd":3,"visib":"6+","altim":1015,"clouds":[],"obsTime":1774591200},"SBNT":{"icaoId":"SBNT","flightCategory":"VFR","rawOb":"METAR SBNT 270600Z 19007KT 9999 FEW027 SCT100 25/22 Q1009","temp":25,"dewp":22,"wdir":190,"wspd":7,"visib":"6+","altim":1009,"clouds":[{"cover":"FEW","base":2700},{"cover":"SCT","base":10000}],"obsTime":1774591200},"SBBV":{"icaoId":"SBBV","flightCategory":"VFR","rawOb":"METAR SBBV 270600Z 08008KT 9999 VCTS SCT030 FEW040CB BKN060 27/23 Q1009","temp":27,"dewp":23,"wdir":80,"wspd":8,"visib":"6+","altim":1009,"clouds":[{"cover":"SCT","base":3000},{"cover":"FEW","base":4000},{"cover":"BKN","base":6000}],"obsTime":1774591200},"SBPA":{"icaoId":"SBPA","flightCategory":"LIFR","rawOb":"METAR SBPA 270600Z 14003KT 3000 BR OVC004 24/23 Q1014","temp":24,"dewp":23,"wdir":140,"wspd":3,"visib":1.86,"altim":1014,"clouds":[{"cover":"OVC","base":400}],"obsTime":1774591200},"SBPJ":{"icaoId":"SBPJ","flightCategory":"VFR","rawOb":"METAR SBPJ 270600Z 18004KT 9999 VCTS FEW027CB SCT050 24/23 Q1012","temp":24,"dewp":23,"wdir":180,"wspd":4,"visib":"6+","altim":1012,"clouds":[{"cover":"FEW","base":2700},{"cover":"SCT","base":5000}],"obsTime":1774591200},"SBCT":{"icaoId":"SBCT","flightCategory":"IFR","rawOb":"METAR SBCT 270600Z 08003KT 9999 BKN008 19/19 Q1020","temp":19,"dewp":19,"wdir":80,"wspd":3,"visib":"6+","altim":1020,"clouds":[{"cover":"BKN","base":800}],"obsTime":1774591200},"SBGO":{"icaoId":"SBGO","flightCategory":"VFR","rawOb":"METAR SBGO 270600Z 15005KT CAVOK 21/20 Q1017","temp":21,"dewp":20,"wdir":150,"wspd":5,"visib":"6+","altim":1017,"clouds":[],"obsTime":1774591200},"SBPV":{"icaoId":"SBPV","flightCategory":"VFR","rawOb":"METAR SBPV 270600Z 00000KT CAVOK 24/23 Q1009","temp":24,"dewp":23,"wdir":0,"wspd":0,"visib":"6+","altim":1009,"clouds":[],"obsTime":1774591200},"SBRB":{"icaoId":"SBRB","flightCategory":"MVFR","rawOb":"METAR SBRB 270600Z 32002KT 8000 FEW020 SCT100 24/23 Q1011","temp":24,"dewp":23,"wdir":320,"wspd":2,"visib":4.97,"altim":1011,"clouds":[{"cover":"FEW","base":2000},{"cover":"SCT","base":10000}],"obsTime":1774591200},"SBBE":{"icaoId":"SBBE","flightCategory":"VFR","rawOb":"METAR SBBE 270600Z 02004KT CAVOK 25/24 Q1010","temp":25,"dewp":24,"wdir":20,"wspd":4,"visib":"6+","altim":1010,"clouds":[],"obsTime":1774591200},"SBRF":{"icaoId":"SBRF","flightCategory":"VFR","rawOb":"METAR SBRF 270600Z 28001KT 9999 SCT025 24/23 Q1010","temp":24,"dewp":23,"wdir":280,"wspd":1,"visib":"6+","altim":1010,"clouds":[{"cover":"SCT","base":2500}],"obsTime":1774591200},"SBSG":{"icaoId":"SBSG","flightCategory":"VFR","rawOb":"METAR SBSG 270600Z VRB02KT 9999 FEW021 24/23 Q1010","temp":24,"dewp":23,"wdir":"VRB","wspd":2,"visib":"6+","altim":1010,"clouds":[{"cover":"FEW","base":2100}],"obsTime":1774591200},"SBSL":{"icaoId":"SBSL","flightCategory":"VFR","rawOb":"METAR SBSL 270600Z 03001KT 9999 FEW017 25/24 Q1009","temp":25,"dewp":24,"wdir":30,"wspd":1,"visib":"6+","altim":1009,"clouds":[{"cover":"FEW","base":1700}],"obsTime":1774591200},"SBJU":{"icaoId":"SBJU","flightCategory":"MVFR","rawOb":"METAR SBJU 270600Z 00000KT 9999 BKN018 24/20 Q1012","temp":24,"dewp":20,"wdir":0,"wspd":0,"visib":"6+","altim":1012,"clouds":[{"cover":"BKN","base":1800}],"obsTime":1774591200},"SBEG":{"icaoId":"SBEG","flightCategory":"VFR","rawOb":"METAR SBEG 270600Z 10002KT CAVOK 26/25 Q1009","temp":26,"dewp":25,"wdir":100,"wspd":2,"visib":"6+","altim":1009,"clouds":[],"obsTime":1774591200},"SBSN":{"icaoId":"SBSN","flightCategory":"VFR","rawOb":"METAR SBSN 270600Z 18002KT CAVOK 25/24 Q1009","temp":25,"dewp":24,"wdir":180,"wspd":2,"visib":"6+","altim":1009,"clouds":[],"obsTime":1774591200},"SBKP":{"icaoId":"SBKP","flightCategory":"VFR","rawOb":"METAR SBKP 270600Z 11006KT CAVOK 22/19 Q1018","temp":22,"dewp":19,"wdir":110,"wspd":6,"visib":"6+","altim":1018,"clouds":[],"obsTime":1774591200},"SBMG":{"icaoId":"SBMG","flightCategory":"VFR","rawOb":"METAR SBMG 270600Z AUTO 04010KT CAVOK 25/19 Q1015","temp":25,"dewp":19,"wdir":40,"wspd":10,"visib":"6+","altim":1015,"clouds":[],"obsTime":1774591200},"SBMO":{"icaoId":"SBMO","flightCategory":"VFR","rawOb":"METAR SBMO 270600Z 28004KT 9999 FEW017 24/23 Q1010","temp":24,"dewp":23,"wdir":280,"wspd":4,"visib":"6+","altim":1010,"clouds":[{"cover":"FEW","base":1700}],"obsTime":1774591200},"SBFL":{"icaoId":"SBFL","flightCategory":"VFR","rawOb":"METAR SBFL 270600Z 31005KT 9999 FEW016 26/24 Q1015","temp":26,"dewp":24,"wdir":310,"wspd":5,"visib":"6+","altim":1015,"clouds":[{"cover":"FEW","base":1600}],"obsTime":1774591200},"SBBR":{"icaoId":"SBBR","flightCategory":"IFR","rawOb":"METAR SBBR 270600Z 13003KT 9999 BKN008 BKN020 20/19 Q1019","temp":20,"dewp":19,"wdir":130,"wspd":3,"visib":"6+","altim":1019,"clouds":[{"cover":"BKN","base":800},{"cover":"BKN","base":2000}],"obsTime":1774591200},"SBSV":{"icaoId":"SBSV","flightCategory":"VFR","rawOb":"METAR SBSV 270600Z 13009KT 9999 FEW022 28/22 Q1012","temp":28,"dewp":22,"wdir":130,"wspd":9,"visib":"6+","altim":1012,"clouds":[{"cover":"FEW","base":2200}],"obsTime":1774591200},"SBFI":{"icaoId":"SBFI","flightCategory":"VFR","rawOb":"METAR SBFI 270600Z 11004KT CAVOK 24/23 Q1013","temp":24,"dewp":23,"wdir":110,"wspd":4,"visib":"6+","altim":1013,"clouds":[],"obsTime":1774591200},"SBLO":{"icaoId":"SBLO","flightCategory":"VFR","rawOb":"METAR SBLO 270600Z VRB01KT CAVOK 22/20 Q1017","temp":22,"dewp":20,"wdir":"VRB","wspd":1,"visib":"6+","altim":1017,"clouds":[],"obsTime":1774591200},"SBTE":{"icaoId":"SBTE","flightCategory":"VFR","rawOb":"METAR SBTE 270600Z 33002KT 9999 SCT015 SCT090 26/24 Q1008","temp":26,"dewp":24,"wdir":330,"wspd":2,"visib":"6+","altim":1008,"clouds":[{"cover":"SCT","base":1500},{"cover":"SCT","base":9000}],"obsTime":1774591200},"SBUL":{"icaoId":"SBUL","flightCategory":"VFR","rawOb":"METAR SBUL 270600Z 14005KT 100V160 CAVOK 20/18 Q1019","temp":20,"dewp":18,"wdir":140,"wspd":5,"visib":"6+","altim":1019,"clouds":[],"obsTime":1774591200},"SBCF":{"icaoId":"SBCF","flightCategory":"VFR","rawOb":"METAR SBCF 270600Z 14006KT 9999 FEW030 20/18 Q1020","temp":20,"dewp":18,"wdir":140,"wspd":6,"visib":"6+","altim":1020,"clouds":[{"cover":"FEW","base":3000}],"obsTime":1774591200},"SBUR":{"icaoId":"SBUR","flightCategory":"VFR","rawOb":"METAR SBUR 270600Z 14002KT CAVOK 21/19 Q1018","temp":21,"dewp":19,"wdir":140,"wspd":2,"visib":"6+","altim":1018,"clouds":[],"obsTime":1774591200},"SBCG":{"icaoId":"SBCG","flightCategory":"VFR","rawOb":"METAR SBCG 270600Z 34007KT CAVOK 22/19 Q1015","temp":22,"dewp":19,"wdir":340,"wspd":7,"visib":"6+","altim":1015,"clouds":[],"obsTime":1774591200},"SBMA":{"icaoId":"SBMA","flightCategory":"VFR","rawOb":"METAR SBMA 270600Z 19006KT 9000 -RA SCT015 BKN080 25/24 Q1010","temp":25,"dewp":24,"wdir":190,"wspd":6,"visib":5.59,"altim":1010,"clouds":[{"cover":"SCT","base":1500},{"cover":"BKN","base":8000}],"obsTime":1774591200},"SBVT":{"icaoId":"SBVT","flightCategory":"VFR","rawOb":"METAR SBVT 270600Z 00000KT 9000 -RA FEW010 BKN045 22/22 Q1016","temp":22,"dewp":22,"wdir":0,"wspd":0,"visib":5.59,"altim":1016,"clouds":[{"cover":"FEW","base":1000},{"cover":"BKN","base":4500}],"obsTime":1774591200},"SBME":{"icaoId":"SBME","flightCategory":"VFR","rawOb":"METAR SBME 270600Z 06003KT 9999 SCT023 25/23 Q1016","temp":25,"dewp":23,"wdir":60,"wspd":3,"visib":"6+","altim":1016,"clouds":[{"cover":"SCT","base":2300}],"obsTime":1774591200},"SBDN":{"icaoId":"SBDN","flightCategory":"VFR","rawOb":"METAR SBDN 270600Z 06006KT CAVOK 23/20 Q1015","temp":23,"dewp":20,"wdir":60,"wspd":6,"visib":"6+","altim":1015,"clouds":[],"obsTime":1774591200},"SBAR":{"icaoId":"SBAR","flightCategory":"VFR","rawOb":"METAR SBAR 270600Z 15004KT 9999 VCSH FEW015 SCT050 BKN100 26/24 Q1010 RESHRA","temp":26,"dewp":24,"wdir":150,"wspd":4,"visib":"6+","altim":1010,"clouds":[{"cover":"FEW","base":1500},{"cover":"SCT","base":5000},{"cover":"BKN","base":10000}],"obsTime":1774591200},"SBPL":{"icaoId":"SBPL","flightCategory":"VFR","rawOb":"METAR SBPL 270600Z 14008KT 9999 SCT020 25/20 Q1013","temp":25,"dewp":20,"wdir":140,"wspd":8,"visib":"6+","altim":1013,"clouds":[{"cover":"SCT","base":2000}],"obsTime":1774591200},"SBIP":{"icaoId":"SBIP","flightCategory":"LIFR","rawOb":"METAR SBIP 270600Z AUTO 36002KT 0500 FG VV001 21/21 Q1017","temp":21,"dewp":21,"wdir":360,"wspd":2,"visib":0.31,"altim":1017,"clouds":[{"cover":"OVX","base":100}],"obsTime":1774591200},"SBPS":{"icaoId":"SBPS","flightCategory":"MVFR","rawOb":"METAR SBPS 270600Z 25004KT 9999 BKN015 24/23 Q1014","temp":24,"dewp":23,"wdir":250,"wspd":4,"visib":"6+","altim":1014,"clouds":[{"cover":"BKN","base":1500}],"obsTime":1774591200},"SBAX":{"icaoId":"SBAX","flightCategory":"VFR","rawOb":"METAR SBAX 270600Z AUTO 09006KT 050V110 CAVOK 18/18 Q1019","temp":18,"dewp":18,"wdir":90,"wspd":6,"visib":"6+","altim":1019,"clouds":[],"obsTime":1774591200},"SBSC":{"icaoId":"SBSC","flightCategory":"VFR","rawOb":"METAR SBSC 270600Z 03004KT 9999 FEW015 23/21 Q1015","temp":23,"dewp":21,"wdir":30,"wspd":4,"visib":"6+","altim":1015,"clouds":[{"cover":"FEW","base":1500}],"obsTime":1774591200},"SBKG":{"icaoId":"SBKG","flightCategory":"VFR","rawOb":"METAR SBKG 270600Z 00000KT CAVOK 21/20 Q1013","temp":21,"dewp":20,"wdir":0,"wspd":0,"visib":"6+","altim":1013,"clouds":[],"obsTime":1774591200},"SBSR":{"icaoId":"SBSR","flightCategory":"VFR","rawOb":"METAR SBSR 270600Z 09002KT CAVOK 23/20 Q1016","temp":23,"dewp":20,"wdir":90,"wspd":2,"visib":"6+","altim":1016,"clouds":[],"obsTime":1774591200},"SBOI":{"icaoId":"SBOI","flightCategory":"VFR","rawOb":"METAR SBOI 270600Z AUTO 03002KT 9999 // VV011 24/24 Q1010","temp":24,"dewp":24,"wdir":30,"wspd":2,"visib":"6+","altim":1010,"clouds":[{"cover":"OVX","base":1100}],"obsTime":1774591200},"SBAN":{"icaoId":"SBAN","flightCategory":"VFR","rawOb":"METAR SBAN 270600Z 12007KT 9999 FEW035 BKN080 19/18 Q1019","temp":19,"dewp":18,"wdir":120,"wspd":7,"visib":"6+","altim":1019,"clouds":[{"cover":"FEW","base":3500},{"cover":"BKN","base":8000}],"obsTime":1774591200},"SBJP":{"icaoId":"SBJP","flightCategory":"VFR","rawOb":"METAR SBJP 270600Z 18007KT 9999 SCT019 BKN070 24/23 Q1010","temp":24,"dewp":23,"wdir":180,"wspd":7,"visib":"6+","altim":1010,"clouds":[{"cover":"SCT","base":1900},{"cover":"BKN","base":7000}],"obsTime":1774591200},"SBLE":{"icaoId":"SBLE","flightCategory":"MVFR","rawOb":"METAR SBLE 270600Z AUTO VRB02KT 9999 BKN025 ///// Q////","temp":null,"dewp":null,"wdir":"VRB","wspd":2,"visib":"6+","altim":null,"clouds":[{"cover":"BKN","base":2500}],"obsTime":1774591200}}}