{"updated":1777914526,"count":85,"data":{"SBRB":{"icaoId":"SBRB","flightCategory":"MVFR","rawOb":"METAR SBRB 041600Z 00000KT 9999 BKN019 29/24 Q1015","temp":29,"dewp":24,"wdir":0,"wspd":0,"visib":"6+","altim":1015,"clouds":[{"cover":"BKN","base":1900}],"obsTime":1777910400},"SBBE":{"icaoId":"SBBE","flightCategory":"VFR","rawOb":"METAR SBBE 041600Z 13004KT 9999 SCT026 FEW027TCU BKN048 30/24 Q1011","temp":30,"dewp":24,"wdir":130,"wspd":4,"visib":"6+","altim":1011,"clouds":[{"cover":"SCT","base":2600},{"cover":"FEW","base":2700},{"cover":"BKN","base":4800}],"obsTime":1777910400},"SBBR":{"icaoId":"SBBR","flightCategory":"VFR","rawOb":"METAR SBBR 041600Z 09010KT 070V130 9999 FEW035 BKN100 25/16 Q1022","temp":25,"dewp":16,"wdir":90,"wspd":10,"visib":"6+","altim":1022,"clouds":[{"cover":"FEW","base":3500},{"cover":"BKN","base":10000}],"obsTime":1777910400},"SBBV":{"icaoId":"SBBV","flightCategory":"VFR","rawOb":"METAR SBBV 041600Z 12011KT 9999 BKN035 FEW040TCU SCT080 31/22 Q1013","temp":31,"dewp":22,"wdir":120,"wspd":11,"visib":"6+","altim":1013,"clouds":[{"cover":"BKN","base":3500},{"cover":"FEW","base":4000},{"cover":"SCT","base":8000}],"obsTime":1777910400},"SBCB":{"icaoId":"SBCB","flightCategory":"VFR","rawOb":"METAR SBCB 041600Z 06011KT 9999 SCT015 25/16 Q1021","temp":25,"dewp":16,"wdir":60,"wspd":11,"visib":"6+","altim":1021,"clouds":[{"cover":"SCT","base":1500}],"obsTime":1777910400},"SBCF":{"icaoId":"SBCF","flightCategory":"VFR","rawOb":"METAR SBCF 041600Z 05004KT 9999 BKN035 24/16 Q1023","temp":24,"dewp":16,"wdir":50,"wspd":4,"visib":"6+","altim":1023,"clouds":[{"cover":"BKN","base":3500}],"obsTime":1777910400},"SBCG":{"icaoId":"SBCG","flightCategory":"VFR","rawOb":"METAR SBCG 041600Z 01012KT 330V050 CAVOK 31/16 Q1016","temp":31,"dewp":16,"wdir":10,"wspd":12,"visib":"6+","altim":1016,"clouds":[],"obsTime":1777910400},"SBCP":{"icaoId":"SBCP","flightCategory":"MVFR","rawOb":"METAR SBCP 041600Z 11005KT 9999 BKN025 27/16 Q1020","temp":27,"dewp":16,"wdir":110,"wspd":5,"visib":"6+","altim":1020,"clouds":[{"cover":"BKN","base":2500}],"obsTime":1777910400},"SBCR":{"icaoId":"SBCR","flightCategory":"VFR","rawOb":"METAR SBCR 041600Z 33005KT 270V010 9999 FEW020 SCT090 28/22 Q1014","temp":28,"dewp":22,"wdir":330,"wspd":5,"visib":"6+","altim":1014,"clouds":[{"cover":"FEW","base":2000},{"cover":"SCT","base":9000}],"obsTime":1777910400},"SBCT":{"icaoId":"SBCT","flightCategory":"MVFR","rawOb":"METAR SBCT 041600Z 34006KT 9999 BKN013 BKN100 17/15 Q1022","temp":17,"dewp":15,"wdir":340,"wspd":6,"visib":"6+","altim":1022,"clouds":[{"cover":"BKN","base":1300},{"cover":"BKN","base":10000}],"obsTime":1777910400},"SBCZ":{"icaoId":"SBCZ","flightCategory":"MVFR","rawOb":"METAR SBCZ 041600Z 17002KT 9999 BKN013 28/24 Q1015","temp":28,"dewp":24,"wdir":170,"wspd":2,"visib":"6+","altim":1015,"clouds":[{"cover":"BKN","base":1300}],"obsTime":1777910400},"SBEG":{"icaoId":"SBEG","flightCategory":"MVFR","rawOb":"METAR SBEG 041600Z 03003KT 9999 BKN018 FEW025TCU BKN100 28/24 Q1014","temp":28,"dewp":24,"wdir":30,"wspd":3,"visib":"6+","altim":1014,"clouds":[{"cover":"BKN","base":1800},{"cover":"FEW","base":2500},{"cover":"BKN","base":10000}],"obsTime":1777910400},"SBFI":{"icaoId":"SBFI","flightCategory":"VFR","rawOb":"METAR SBFI 041600Z 02013KT 9999 FEW025 SCT100 26/20 Q1015","temp":26,"dewp":20,"wdir":20,"wspd":13,"visib":"6+","altim":1015,"clouds":[{"cover":"FEW","base":2500},{"cover":"SCT","base":10000}],"obsTime":1777910400},"SBFL":{"icaoId":"SBFL","flightCategory":"VFR","rawOb":"METAR SBFL 041600Z 34010KT 9999 FEW030 BKN060 23/17 Q1018","temp":23,"dewp":17,"wdir":340,"wspd":10,"visib":"6+","altim":1018,"clouds":[{"cover":"FEW","base":3000},{"cover":"BKN","base":6000}],"obsTime":1777910400},"SBFZ":{"icaoId":"SBFZ","flightCategory":"MVFR","rawOb":"METAR SBFZ 041600Z 11011KT 9999 BKN020 FEW025TCU BKN090 30/24 Q1011","temp":30,"dewp":24,"wdir":110,"wspd":11,"visib":"6+","altim":1011,"clouds":[{"cover":"BKN","base":2000},{"cover":"FEW","base":2500},{"cover":"BKN","base":9000}],"obsTime":1777910400},"SBGL":{"icaoId":"SBGL","flightCategory":"VFR","rawOb":"METAR SBGL 041600Z 04006KT 9999 FEW038 27/17 Q1019","temp":27,"dewp":17,"wdir":40,"wspd":6,"visib":"6+","altim":1019,"clouds":[{"cover":"FEW","base":3800}],"obsTime":1777910400},"SBGO":{"icaoId":"SBGO","flightCategory":"VFR","rawOb":"METAR SBGO 041600Z 06006KT 010V110 CAVOK 31/17 Q1019","temp":31,"dewp":17,"wdir":60,"wspd":6,"visib":"6+","altim":1019,"clouds":[],"obsTime":1777910400},"SBGR":{"icaoId":"SBGR","flightCategory":"VFR","rawOb":"METAR SBGR 041600Z 07004KT 9999 FEW040 24/17 Q1021","temp":24,"dewp":17,"wdir":70,"wspd":4,"visib":"6+","altim":1021,"clouds":[{"cover":"FEW","base":4000}],"obsTime":1777910400},"SBKP":{"icaoId":"SBKP","flightCategory":"VFR","rawOb":"METAR SBKP 041600Z 02008KT 330V050 9999 SCT049 27/17 Q1020","temp":27,"dewp":17,"wdir":20,"wspd":8,"visib":"6+","altim":1020,"clouds":[{"cover":"SCT","base":4900}],"obsTime":1777910400},"SBLO":{"icaoId":"SBLO","flightCategory":"VFR","rawOb":"METAR SBLO 041600Z 08007KT 040V100 CAVOK 24/17 Q1019","temp":24,"dewp":17,"wdir":80,"wspd":7,"visib":"6+","altim":1019,"clouds":[],"obsTime":1777910400},"SBMA":{"icaoId":"SBMA","flightCategory":"VFR","rawOb":"METAR SBMA 041600Z 07006KT 9999 FEW020 FEW023TCU 30/24 Q1013","temp":30,"dewp":24,"wdir":70,"wspd":6,"visib":"6+","altim":1013,"clouds":[{"cover":"FEW","base":2000},{"cover":"FEW","base":2300}],"obsTime":1777910400},"SBMO":{"icaoId":"SBMO","flightCategory":"MVFR","rawOb":"METAR SBMO 041600Z 16010KT 120V190 9999 VCSH BKN030 29/23 Q1014","temp":29,"dewp":23,"wdir":160,"wspd":10,"visib":"6+","altim":1014,"clouds":[{"cover":"BKN","base":3000}],"obsTime":1777910400},"SBMQ":{"icaoId":"SBMQ","flightCategory":"MVFR","rawOb":"METAR SBMQ 041600Z 07006KT 040V110 9999 4000N VCSH BKN027 FEW030TCU SCT080 31/25 Q1012","temp":31,"dewp":25,"wdir":70,"wspd":6,"visib":"6+","altim":1012,"clouds":[{"cover":"BKN","base":2700},{"cover":"FEW","base":3000},{"cover":"SCT","base":8000}],"obsTime":1777910400},"SBNT":{"icaoId":"SBNT","flightCategory":"VFR","rawOb":"METAR SBNT 041600Z 13014KT 9999 SCT020 SCT080 31/24 Q1012","temp":31,"dewp":24,"wdir":130,"wspd":14,"visib":"6+","altim":1012,"clouds":[{"cover":"SCT","base":2000},{"cover":"SCT","base":8000}],"obsTime":1777910400},"SBPA":{"icaoId":"SBPA","flightCategory":"VFR","rawOb":"METAR SBPA 041600Z 35006KT 320V030 CAVOK 24/15 Q1015","temp":24,"dewp":15,"wdir":350,"wspd":6,"visib":"6+","altim":1015,"clouds":[],"obsTime":1777910400},"SBPJ":{"icaoId":"SBPJ","flightCategory":"VFR","rawOb":"METAR SBPJ 041600Z 10007KT 030V150 9999 SCT035 SCT100 33/21 Q1014","temp":33,"dewp":21,"wdir":100,"wspd":7,"visib":"6+","altim":1014,"clouds":[{"cover":"SCT","base":3500},{"cover":"SCT","base":10000}],"obsTime":1777910400},"SBPV":{"icaoId":"SBPV","flightCategory":"VFR","rawOb":"METAR SBPV 041600Z 01005KT 9999 SCT020 30/26 Q1013","temp":30,"dewp":26,"wdir":10,"wspd":5,"visib":"6+","altim":1013,"clouds":[{"cover":"SCT","base":2000}],"obsTime":1777910400},"SBRF":{"icaoId":"SBRF","flightCategory":"VFR","rawOb":"METAR SBRF 041600Z 15016KT 9999 VCSH FEW021 FEW025TCU 29/24 Q1013","temp":29,"dewp":24,"wdir":150,"wspd":16,"visib":"6+","altim":1013,"clouds":[{"cover":"FEW","base":2100},{"cover":"FEW","base":2500}],"obsTime":1777910400},"SBSG":{"icaoId":"SBSG","flightCategory":"MVFR","rawOb":"METAR SBSG 041600Z 15007KT 040V200 9999 BKN026 31/24 Q1012","temp":31,"dewp":24,"wdir":150,"wspd":7,"visib":"6+","altim":1012,"clouds":[{"cover":"BKN","base":2600}],"obsTime":1777910400},"SBSL":{"icaoId":"SBSL","flightCategory":"VFR","rawOb":"METAR SBSL 041600Z 07007KT 9999 SCT030 SCT100 30/24 Q1011","temp":30,"dewp":24,"wdir":70,"wspd":7,"visib":"6+","altim":1011,"clouds":[{"cover":"SCT","base":3000},{"cover":"SCT","base":10000}],"obsTime":1777910400},"SBSN":{"icaoId":"SBSN","flightCategory":"VFR","rawOb":"METAR SBSN 041600Z 08007KT 9999 SCT023 29/24 Q1012","temp":29,"dewp":24,"wdir":80,"wspd":7,"visib":"6+","altim":1012,"clouds":[{"cover":"SCT","base":2300}],"obsTime":1777910400},"SBSP":{"icaoId":"SBSP","flightCategory":"VFR","rawOb":"METAR SBSP 041600Z VRB04KT CAVOK 24/16 Q1022","temp":24,"dewp":16,"wdir":"VRB","wspd":4,"visib":"6+","altim":1022,"clouds":[],"obsTime":1777910400},"SBSV":{"icaoId":"SBSV","flightCategory":"MVFR","rawOb":"METAR SBSV 041600Z 15013KT 9999 VCSH BKN023 FEW025TCU 30/23 Q1015","temp":30,"dewp":23,"wdir":150,"wspd":13,"visib":"6+","altim":1015,"clouds":[{"cover":"BKN","base":2300},{"cover":"FEW","base":2500}],"obsTime":1777910400},"SBTE":{"icaoId":"SBTE","flightCategory":"MVFR","rawOb":"METAR SBTE 041600Z 13005KT 9999 BKN025 32/23 Q1010","temp":32,"dewp":23,"wdir":130,"wspd":5,"visib":"6+","altim":1010,"clouds":[{"cover":"BKN","base":2500}],"obsTime":1777910400},"SBVT":{"icaoId":"SBVT","flightCategory":"VFR","rawOb":"METAR SBVT 041600Z 18010KT 150V210 9999 FEW025 BKN050 26/18 Q1020","temp":26,"dewp":18,"wdir":180,"wspd":10,"visib":"6+","altim":1020,"clouds":[{"cover":"FEW","base":2500},{"cover":"BKN","base":5000}],"obsTime":1777910400},"SBHT":{"icaoId":"SBHT","flightCategory":"MVFR","rawOb":"METAR SBHT 041600Z 09004KT 9999 BKN020 30/23 Q1013","temp":30,"dewp":23,"wdir":90,"wspd":4,"visib":"6+","altim":1013,"clouds":[{"cover":"BKN","base":2000}],"obsTime":1777910400},"SBIL":{"icaoId":"SBIL","flightCategory":"VFR","rawOb":"METAR SBIL 041600Z 17007KT 130V210 9999 FEW020 30/24 Q1017","temp":30,"dewp":24,"wdir":170,"wspd":7,"visib":"6+","altim":1017,"clouds":[{"cover":"FEW","base":2000}],"obsTime":1777910400},"SBJU":{"icaoId":"SBJU","flightCategory":"VFR","rawOb":"METAR SBJU 041600Z 18008KT 9999 SCT022 30/20 Q1014","temp":30,"dewp":20,"wdir":180,"wspd":8,"visib":"6+","altim":1014,"clouds":[{"cover":"SCT","base":2200}],"obsTime":1777910400},"SBUR":{"icaoId":"SBUR","flightCategory":"VFR","rawOb":"METAR SBUR 041600Z 36012KT CAVOK 29/14 Q1019","temp":29,"dewp":14,"wdir":360,"wspd":12,"visib":"6+","altim":1019,"clouds":[],"obsTime":1777910400},"SBME":{"icaoId":"SBME","flightCategory":"VFR","rawOb":"METAR SBME 041600Z 12006KT 9999 BKN045 28/17 Q1020","temp":28,"dewp":17,"wdir":120,"wspd":6,"visib":"6+","altim":1020,"clouds":[{"cover":"BKN","base":4500}],"obsTime":1777910400},"SBMG":{"icaoId":"SBMG","flightCategory":"VFR","rawOb":"METAR SBMG 041600Z 04006KT CAVOK 26/18 Q1017","temp":26,"dewp":18,"wdir":40,"wspd":6,"visib":"6+","altim":1017,"clouds":[],"obsTime":1777910400},"SBMK":{"icaoId":"SBMK","flightCategory":"VFR","rawOb":"METAR SBMK 041600Z 05006KT 9999 FEW035 29/15 Q1020","temp":29,"dewp":15,"wdir":50,"wspd":6,"visib":"6+","altim":1020,"clouds":[{"cover":"FEW","base":3500}],"obsTime":1777910400},"SBUL":{"icaoId":"SBUL","flightCategory":"VFR","rawOb":"METAR SBUL 041600Z 07012KT CAVOK 27/15 Q1021","temp":27,"dewp":15,"wdir":70,"wspd":12,"visib":"6+","altim":1021,"clouds":[],"obsTime":1777910400},"SBAT":{"icaoId":"SBAT","flightCategory":"VFR","rawOb":"METAR SBAT 041600Z COR 13007KT 9999 FEW035 34/24 Q1014","temp":34,"dewp":24,"wdir":130,"wspd":7,"visib":"6+","altim":1014,"clouds":[{"cover":"FEW","base":3500}],"obsTime":1777910400},"SBUY":{"icaoId":"SBUY","flightCategory":"VFR","rawOb":"METAR SBUY 041600Z 19005KT 9999 SCT020 BKN090 28/24 Q1012","temp":28,"dewp":24,"wdir":190,"wspd":5,"visib":"6+","altim":1012,"clouds":[{"cover":"SCT","base":2000},{"cover":"BKN","base":9000}],"obsTime":1777910400},"SBTF":{"icaoId":"SBTF","flightCategory":"VFR","rawOb":"METAR SBTF 041600Z 02005KT 9999 SCT012 BKN100 29/25 Q1013","temp":29,"dewp":25,"wdir":20,"wspd":5,"visib":"6+","altim":1013,"clouds":[{"cover":"SCT","base":1200},{"cover":"BKN","base":10000}],"obsTime":1777910400},"SBCJ":{"icaoId":"SBCJ","flightCategory":"VFR","rawOb":"METAR SBCJ 041600Z 07007KT 9999 SCT015 27/22 Q1017","temp":27,"dewp":22,"wdir":70,"wspd":7,"visib":"6+","altim":1017,"clouds":[{"cover":"SCT","base":1500}],"obsTime":1777910400},"SBTT":{"icaoId":"SBTT","flightCategory":"VFR","rawOb":"METAR SBTT 041600Z 08006KT 9999 FEW020 SCT100 28/22 Q1014","temp":28,"dewp":22,"wdir":80,"wspd":6,"visib":"6+","altim":1014,"clouds":[{"cover":"FEW","base":2000},{"cover":"SCT","base":10000}],"obsTime":1777910400},"SBPS":{"icaoId":"SBPS","flightCategory":"IFR","rawOb":"SPECI SBPS 041513Z 24006KT 4000 RA BKN009 OVC015 25/23 Q1018","temp":25,"dewp":23,"wdir":240,"wspd":6,"visib":2.49,"altim":1018,"clouds":[{"cover":"BKN","base":900},{"cover":"OVC","base":1500}],"obsTime":1777907580},"SBPB":{"icaoId":"SBPB","flightCategory":"VFR","rawOb":"METAR SBPB 041600Z 04009KT 9999 SCT020 FEW025TCU 31/25 Q1011","temp":31,"dewp":25,"wdir":40,"wspd":9,"visib":"6+","altim":1011,"clouds":[{"cover":"SCT","base":2000},{"cover":"FEW","base":2500}],"obsTime":1777910400},"SBPL":{"icaoId":"SBPL","flightCategory":"VFR","rawOb":"METAR SBPL 041600Z 13008KT 9999 SCT030 32/18 Q1015","temp":32,"dewp":18,"wdir":130,"wspd":8,"visib":"6+","altim":1015,"clouds":[{"cover":"SCT","base":3000}],"obsTime":1777910400},"SBSJ":{"icaoId":"SBSJ","flightCategory":"VFR","rawOb":"METAR SBSJ 041600Z 01004KT 9999 FEW045 SCT066 25/17 Q1021","temp":25,"dewp":17,"wdir":10,"wspd":4,"visib":"6+","altim":1021,"clouds":[{"cover":"FEW","base":4500},{"cover":"SCT","base":6600}],"obsTime":1777910400},"SBAR":{"icaoId":"SBAR","flightCategory":"VFR","rawOb":"METAR SBAR 041600Z 14012KT 9999 SCT025 30/23 Q1014","temp":30,"dewp":23,"wdir":140,"wspd":12,"visib":"6+","altim":1014,"clouds":[{"cover":"SCT","base":2500}],"obsTime":1777910400},"SBOI":{"icaoId":"SBOI","flightCategory":"VFR","rawOb":"METAR SBOI 041600Z AUTO 04007KT 360V080 9999 FEW025 30/24 Q1013","temp":30,"dewp":24,"wdir":40,"wspd":7,"visib":"6+","altim":1013,"clouds":[{"cover":"FEW","base":2500}],"obsTime":1777910400},"SBPP":{"icaoId":"SBPP","flightCategory":"VFR","rawOb":"METAR SBPP 041600Z 07009KT CAVOK 25/19 Q1018","temp":25,"dewp":19,"wdir":70,"wspd":9,"visib":"6+","altim":1018,"clouds":[],"obsTime":1777910400},"SBGM":{"icaoId":"SBGM","flightCategory":"MVFR","rawOb":"METAR SBGM 041600Z 15003KT 9999 BKN020 31/24 Q1013","temp":31,"dewp":24,"wdir":150,"wspd":3,"visib":"6+","altim":1013,"clouds":[{"cover":"BKN","base":2000}],"obsTime":1777910400},"SBIP":{"icaoId":"SBIP","flightCategory":"VFR","rawOb":"METAR SBIP 041600Z AUTO 18004KT 140V220 9999 FEW041 BKN048 27/17 Q1020","temp":27,"dewp":17,"wdir":180,"wspd":4,"visib":"6+","altim":1020,"clouds":[{"cover":"FEW","base":4100},{"cover":"BKN","base":4800}],"obsTime":1777910400},"SBKG":{"icaoId":"SBKG","flightCategory":"MVFR","rawOb":"METAR SBKG 041600Z 11008KT 9999 BKN030 28/20 Q1015","temp":28,"dewp":20,"wdir":110,"wspd":8,"visib":"6+","altim":1015,"clouds":[{"cover":"BKN","base":3000}],"obsTime":1777910400},"SBSC":{"icaoId":"SBSC","flightCategory":"VFR","rawOb":"METAR SBSC 041600Z 04005KT 9999 FEW040 28/19 Q1019","temp":28,"dewp":19,"wdir":40,"wspd":5,"visib":"6+","altim":1019,"clouds":[{"cover":"FEW","base":4000}],"obsTime":1777910400},"SBSM":{"icaoId":"SBSM","flightCategory":"VFR","rawOb":"METAR SBSM 041600Z 01003KT 330V060 9999 SCT035 BKN060 19/15 Q1015","temp":19,"dewp":15,"wdir":10,"wspd":3,"visib":"6+","altim":1015,"clouds":[{"cover":"SCT","base":3500},{"cover":"BKN","base":6000}],"obsTime":1777910400},"SBSR":{"icaoId":"SBSR","flightCategory":"VFR","rawOb":"METAR SBSR 041600Z 04006KT CAVOK 30/14 Q1018","temp":30,"dewp":14,"wdir":40,"wspd":6,"visib":"6+","altim":1018,"clouds":[],"obsTime":1777910400},"SBTD":{"icaoId":"SBTD","flightCategory":"VFR","rawOb":"METAR SBTD 041600Z /////KT CAVOK 24/18 Q1018","temp":24,"dewp":18,"wdir":null,"wspd":null,"visib":"6+","altim":1018,"clouds":[],"obsTime":1777910400},"SBAU":{"icaoId":"SBAU","flightCategory":"VFR","rawOb":"METAR SBAU 041600Z 05010KT CAVOK 30/15 Q1017","temp":30,"dewp":15,"wdir":50,"wspd":10,"visib":"6+","altim":1017,"clouds":[],"obsTime":1777910400},"SBAX":{"icaoId":"SBAX","flightCategory":"VFR","rawOb":"METAR SBAX 041600Z 07007KT 9999 SCT020 26/15 Q1022","temp":26,"dewp":15,"wdir":70,"wspd":7,"visib":"6+","altim":1022,"clouds":[{"cover":"SCT","base":2000}],"obsTime":1777910400},"SBBH":{"icaoId":"SBBH","flightCategory":"MVFR","rawOb":"METAR SBBH 041600Z 08006KT 9999 BKN030 25/17 Q1022","temp":25,"dewp":17,"wdir":80,"wspd":6,"visib":"6+","altim":1022,"clouds":[{"cover":"BKN","base":3000}],"obsTime":1777910400},"SBBQ":{"icaoId":"SBBQ","flightCategory":"MVFR","rawOb":"METAR SBBQ 041600Z 11005KT 050V150 9999 OVC017 19/14 Q1026","temp":19,"dewp":14,"wdir":110,"wspd":5,"visib":"6+","altim":1026,"clouds":[{"cover":"OVC","base":1700}],"obsTime":1777910400},"SBBU":{"icaoId":"SBBU","flightCategory":"VFR","rawOb":"METAR SBBU 041600Z 06004KT 9999 FEW030 29/19 Q1019","temp":29,"dewp":19,"wdir":60,"wspd":4,"visib":"6+","altim":1019,"clouds":[{"cover":"FEW","base":3000}],"obsTime":1777910400},"SBCC":{"icaoId":"SBCC","flightCategory":"MVFR","rawOb":"METAR SBCC 041600Z /////KT 9999 BKN025 ///// Q1014","temp":null,"dewp":null,"wdir":null,"wspd":null,"visib":"6+","altim":1014,"clouds":[{"cover":"BKN","base":2500}],"obsTime":1777910400},"SBCO":{"icaoId":"SBCO","flightCategory":"VFR","rawOb":"METAR SBCO 041600Z 32005KT CAVOK 25/15 Q1015","temp":25,"dewp":15,"wdir":320,"wspd":5,"visib":"6+","altim":1015,"clouds":[],"obsTime":1777910400},"SBDN":{"icaoId":"SBDN","flightCategory":"VFR","rawOb":"METAR SBDN 041600Z 06007KT CAVOK 28/18 Q1018","temp":28,"dewp":18,"wdir":60,"wspd":7,"visib":"6+","altim":1018,"clouds":[],"obsTime":1777910400},"SBES":{"icaoId":"SBES","flightCategory":"VFR","rawOb":"METAR SBES 041600Z 06010KT 360V100 9999 SCT025 26/// Q1020","temp":null,"dewp":null,"wdir":60,"wspd":10,"visib":"6+","altim":1020,"clouds":[{"cover":"SCT","base":2500}],"obsTime":1777910400},"SBVH":{"icaoId":"SBVH","flightCategory":"VFR","rawOb":"METAR SBVH 041600Z 03007KT 9999 SCT030 29/20 Q1017","temp":29,"dewp":20,"wdir":30,"wspd":7,"visib":"6+","altim":1017,"clouds":[{"cover":"SCT","base":3000}],"obsTime":1777910400},"SBJP":{"icaoId":"SBJP","flightCategory":"MVFR","rawOb":"METAR SBJP 041600Z 12012KT 9999 BKN030 30/24 Q1012","temp":30,"dewp":24,"wdir":120,"wspd":12,"visib":"6+","altim":1012,"clouds":[{"cover":"BKN","base":3000}],"obsTime":1777910400},"SBAF":{"icaoId":"SBAF","flightCategory":"VFR","rawOb":"METAR SBAF 041600Z 08005KT 9999 SCT040 BKN047 27/18 Q1019","temp":27,"dewp":18,"wdir":80,"wspd":5,"visib":"6+","altim":1019,"clouds":[{"cover":"SCT","base":4000},{"cover":"BKN","base":4700}],"obsTime":1777910400},"SBGW":{"icaoId":"SBGW","flightCategory":"VFR","rawOb":"METAR SBGW 041600Z 03005KT 340V090 9999 FEW030 25/15 Q1020","temp":25,"dewp":15,"wdir":30,"wspd":5,"visib":"6+","altim":1020,"clouds":[{"cover":"FEW","base":3000}],"obsTime":1777910400},"SBJR":{"icaoId":"SBJR","flightCategory":"VFR","rawOb":"METAR SBJR 041600Z 13008KT 9999 SCT030 28/18 Q1019","temp":28,"dewp":18,"wdir":130,"wspd":8,"visib":"6+","altim":1019,"clouds":[{"cover":"SCT","base":3000}],"obsTime":1777910400},"SBLS":{"icaoId":"SBLS","flightCategory":"MVFR","rawOb":"METAR SBLS 041600Z 12004KT 040V180 9999 BKN026 24/16 Q1022","temp":24,"dewp":16,"wdir":120,"wspd":4,"visib":"6+","altim":1022,"clouds":[{"cover":"BKN","base":2600}],"obsTime":1777910400},"SBMT":{"icaoId":"SBMT","flightCategory":"VFR","rawOb":"METAR SBMT 041600Z 07003KT 9999 FEW020 24/16 Q1021","temp":24,"dewp":16,"wdir":70,"wspd":3,"visib":"6+","altim":1021,"clouds":[{"cover":"FEW","base":2000}],"obsTime":1777910400},"SBST":{"icaoId":"SBST","flightCategory":"VFR","rawOb":"METAR SBST 041600Z /////KT 9999 SCT025 ///// Q1018","temp":null,"dewp":null,"wdir":null,"wspd":null,"visib":"6+","altim":1018,"clouds":[{"cover":"SCT","base":2500}],"obsTime":1777910400},"SBIH":{"icaoId":"SBIH","flightCategory":"VFR","rawOb":"METAR SBIH 041600Z 00000KT 9999 SCT016 29/25 Q1013","temp":29,"dewp":25,"wdir":0,"wspd":0,"visib":"6+","altim":1013,"clouds":[{"cover":"SCT","base":1600}],"obsTime":1777910400},"SBLE":{"icaoId":"SBLE","flightCategory":"VFR","rawOb":"METAR SBLE 041600Z AUTO 14007KT 090V210 CAVOK 28/18 Q1018","temp":28,"dewp":18,"wdir":140,"wspd":7,"visib":"6+","altim":1018,"clouds":[],"obsTime":1777910400},"SBJV":{"icaoId":"SBJV","flightCategory":"VFR","rawOb":"METAR SBJV 041600Z 11005KT 080V140 9000 -RA SCT030 BKN050 21/19 Q1019","temp":21,"dewp":19,"wdir":110,"wspd":5,"visib":5.59,"altim":1019,"clouds":[{"cover":"SCT","base":3000},{"cover":"BKN","base":5000}],"obsTime":1777910400},"SBNM":{"icaoId":"SBNM","flightCategory":"MVFR","rawOb":"METAR SBNM 041600Z 11002KT 8000 FEW002 BKN030 BKN100 20/19 Q1015","temp":20,"dewp":19,"wdir":110,"wspd":2,"visib":4.97,"altim":1015,"clouds":[{"cover":"FEW","base":200},{"cover":"BKN","base":3000},{"cover":"BKN","base":10000}],"obsTime":1777910400},"SBAN":{"icaoId":"SBAN","flightCategory":"VFR","rawOb":"METAR SBAN 041600Z 15011KT 9999 SCT040 26/15 Q1022","temp":26,"dewp":15,"wdir":150,"wspd":11,"visib":"6+","altim":1022,"clouds":[{"cover":"SCT","base":4000}],"obsTime":1777910400},"SBTA":{"icaoId":"SBTA","flightCategory":"VFR","rawOb":"METAR SBTA 041600Z 03008KT 360V060 9999 FEW030 25/16 Q1020","temp":25,"dewp":16,"wdir":30,"wspd":8,"visib":"6+","altim":1020,"clouds":[{"cover":"FEW","base":3000}],"obsTime":1777910400}}}