{"updated":1776071735,"count":63,"data":{"SBBE":{"icaoId":"SBBE","flightCategory":"VFR","rawOb":"METAR SBBE 130800Z 07002KT CAVOK 24/24 Q1010","temp":24,"dewp":24,"wdir":70,"wspd":2,"visib":"6+","altim":1010,"clouds":[],"obsTime":1776067200},"SBBR":{"icaoId":"SBBR","flightCategory":"VFR","rawOb":"METAR SBBR 130800Z 14004KT CAVOK 19/17 Q1019","temp":19,"dewp":17,"wdir":140,"wspd":4,"visib":"6+","altim":1019,"clouds":[],"obsTime":1776067200},"SBBV":{"icaoId":"SBBV","flightCategory":"VFR","rawOb":"METAR SBBV 130800Z 10010KT 9999 FEW040 SCT100 27/22 Q1010","temp":27,"dewp":22,"wdir":100,"wspd":10,"visib":"6+","altim":1010,"clouds":[{"cover":"FEW","base":4000},{"cover":"SCT","base":10000}],"obsTime":1776067200},"SBCB":{"icaoId":"SBCB","flightCategory":"VFR","rawOb":"METAR SBCB 130900Z 01002KT 9999 FEW025 SCT070 21/20 Q1017","temp":21,"dewp":20,"wdir":10,"wspd":2,"visib":"6+","altim":1017,"clouds":[{"cover":"FEW","base":2500},{"cover":"SCT","base":7000}],"obsTime":1776070800},"SBCF":{"icaoId":"SBCF","flightCategory":"MVFR","rawOb":"METAR SBCF 130800Z 16004KT 9999 BKN025 17/16 Q1019","temp":17,"dewp":16,"wdir":160,"wspd":4,"visib":"6+","altim":1019,"clouds":[{"cover":"BKN","base":2500}],"obsTime":1776067200},"SBCG":{"icaoId":"SBCG","flightCategory":"VFR","rawOb":"METAR SBCG 130800Z 11008KT 9999 FEW045 SCT070 21/19 Q1015","temp":21,"dewp":19,"wdir":110,"wspd":8,"visib":"6+","altim":1015,"clouds":[{"cover":"FEW","base":4500},{"cover":"SCT","base":7000}],"obsTime":1776067200},"SBCT":{"icaoId":"SBCT","flightCategory":"LIFR","rawOb":"METAR SBCT 130800Z 11004KT 9999 OVC004 16/15 Q1020","temp":16,"dewp":15,"wdir":110,"wspd":4,"visib":"6+","altim":1020,"clouds":[{"cover":"OVC","base":400}],"obsTime":1776067200},"SBEG":{"icaoId":"SBEG","flightCategory":"IFR","rawOb":"SPECI SBEG 130751Z 34003KT 9999 BKN007 SCT020 24/24 Q1010","temp":24,"dewp":24,"wdir":340,"wspd":3,"visib":"6+","altim":1010,"clouds":[{"cover":"BKN","base":700},{"cover":"SCT","base":2000}],"obsTime":1776066660},"SBFI":{"icaoId":"SBFI","flightCategory":"VFR","rawOb":"METAR SBFI 130800Z 13003KT CAVOK 18/18 Q1014","temp":18,"dewp":18,"wdir":130,"wspd":3,"visib":"6+","altim":1014,"clouds":[],"obsTime":1776067200},"SBFL":{"icaoId":"SBFL","flightCategory":"VFR","rawOb":"METAR SBFL 130800Z 32007KT 9999 FEW009 BKN090 22/21 Q1016","temp":22,"dewp":21,"wdir":320,"wspd":7,"visib":"6+","altim":1016,"clouds":[{"cover":"FEW","base":900},{"cover":"BKN","base":9000}],"obsTime":1776067200},"SBFZ":{"icaoId":"SBFZ","flightCategory":"LIFR","rawOb":"METAR SBFZ 130800Z 14005KT 6000 -RA BKN004 OVC010 25/24 Q1010","temp":25,"dewp":24,"wdir":140,"wspd":5,"visib":3.73,"altim":1010,"clouds":[{"cover":"BKN","base":400},{"cover":"OVC","base":1000}],"obsTime":1776067200},"SBGL":{"icaoId":"SBGL","flightCategory":"MVFR","rawOb":"METAR SBGL 130800Z 06004KT 8000 FEW046 21/19 Q1016","temp":21,"dewp":19,"wdir":60,"wspd":4,"visib":4.97,"altim":1016,"clouds":[{"cover":"FEW","base":4600}],"obsTime":1776067200},"SBGO":{"icaoId":"SBGO","flightCategory":"VFR","rawOb":"METAR SBGO 130800Z 14004KT CAVOK 20/18 Q1017","temp":20,"dewp":18,"wdir":140,"wspd":4,"visib":"6+","altim":1017,"clouds":[],"obsTime":1776067200},"SBGR":{"icaoId":"SBGR","flightCategory":"IFR","rawOb":"METAR SBGR 130800Z 06012KT 9999 BKN009 18/17 Q1019","temp":18,"dewp":17,"wdir":60,"wspd":12,"visib":"6+","altim":1019,"clouds":[{"cover":"BKN","base":900}],"obsTime":1776067200},"SBJU":{"icaoId":"SBJU","flightCategory":"MVFR","rawOb":"METAR SBJU 130800Z 00000KT 9999 FEW011 BKN020 23/22 Q1013","temp":23,"dewp":22,"wdir":0,"wspd":0,"visib":"6+","altim":1013,"clouds":[{"cover":"FEW","base":1100},{"cover":"BKN","base":2000}],"obsTime":1776067200},"SBKP":{"icaoId":"SBKP","flightCategory":"VFR","rawOb":"METAR SBKP 130800Z 11006KT CAVOK 18/16 Q1018","temp":18,"dewp":16,"wdir":110,"wspd":6,"visib":"6+","altim":1018,"clouds":[],"obsTime":1776067200},"SBLO":{"icaoId":"SBLO","flightCategory":"VFR","rawOb":"METAR SBLO 130800Z 36009KT CAVOK 21/19 Q1015","temp":21,"dewp":19,"wdir":360,"wspd":9,"visib":"6+","altim":1015,"clouds":[],"obsTime":1776067200},"SBMA":{"icaoId":"SBMA","flightCategory":"VFR","rawOb":"METAR SBMA 130800Z 03002KT 9999 FEW015 BKN080 25/24 Q1010","temp":25,"dewp":24,"wdir":30,"wspd":2,"visib":"6+","altim":1010,"clouds":[{"cover":"FEW","base":1500},{"cover":"BKN","base":8000}],"obsTime":1776067200},"SBME":{"icaoId":"SBME","flightCategory":"VFR","rawOb":"METAR SBME 130800Z 01003KT 9999 FEW025 SCT090 21/20 Q1016","temp":21,"dewp":20,"wdir":10,"wspd":3,"visib":"6+","altim":1016,"clouds":[{"cover":"FEW","base":2500},{"cover":"SCT","base":9000}],"obsTime":1776067200},"SBMG":{"icaoId":"SBMG","flightCategory":"VFR","rawOb":"METAR SBMG 130800Z AUTO 16010KT 120V190 CAVOK 20/19 Q1014","temp":20,"dewp":19,"wdir":160,"wspd":10,"visib":"6+","altim":1014,"clouds":[],"obsTime":1776067200},"SBMK":{"icaoId":"SBMK","flightCategory":"VFR","rawOb":"METAR SBMK 130800Z 12005KT 9999 FEW030 21/18 Q1017","temp":21,"dewp":18,"wdir":120,"wspd":5,"visib":"6+","altim":1017,"clouds":[{"cover":"FEW","base":3000}],"obsTime":1776067200},"SBMO":{"icaoId":"SBMO","flightCategory":"MVFR","rawOb":"METAR SBMO 130800Z 27004KT 8000 FEW020 24/23 Q1011","temp":24,"dewp":23,"wdir":270,"wspd":4,"visib":4.97,"altim":1011,"clouds":[{"cover":"FEW","base":2000}],"obsTime":1776067200},"SBMQ":{"icaoId":"SBMQ","flightCategory":"MVFR","rawOb":"METAR SBMQ 130800Z 01003KT 9000 -RA SCT007 BKN027 OVC035 25/25 Q1010","temp":25,"dewp":25,"wdir":10,"wspd":3,"visib":5.59,"altim":1010,"clouds":[{"cover":"SCT","base":700},{"cover":"BKN","base":2700},{"cover":"OVC","base":3500}],"obsTime":1776067200},"SBNT":{"icaoId":"SBNT","flightCategory":"IFR","rawOb":"METAR SBNT 130800Z 11006KT 3000 RA FEW005 BKN012 OVC019 24/23 Q1011","temp":24,"dewp":23,"wdir":110,"wspd":6,"visib":1.86,"altim":1011,"clouds":[{"cover":"FEW","base":500},{"cover":"BKN","base":1200},{"cover":"OVC","base":1900}],"obsTime":1776067200},"SBPA":{"icaoId":"SBPA","flightCategory":"VFR","rawOb":"METAR SBPA 130800Z 27003KT 9999 OVC040 20/19 Q1015","temp":20,"dewp":19,"wdir":270,"wspd":3,"visib":"6+","altim":1015,"clouds":[{"cover":"OVC","base":4000}],"obsTime":1776067200},"SBPJ":{"icaoId":"SBPJ","flightCategory":"VFR","rawOb":"METAR SBPJ 130800Z 11004KT 9999 FEW009 24/23 Q1011","temp":24,"dewp":23,"wdir":110,"wspd":4,"visib":"6+","altim":1011,"clouds":[{"cover":"FEW","base":900}],"obsTime":1776067200},"SBPV":{"icaoId":"SBPV","flightCategory":"VFR","rawOb":"METAR SBPV 130800Z 18002KT 9999 -RA VCTS BKN040 FEW045CB 25/24 Q1010","temp":25,"dewp":24,"wdir":180,"wspd":2,"visib":"6+","altim":1010,"clouds":[{"cover":"BKN","base":4000},{"cover":"FEW","base":4500}],"obsTime":1776067200},"SBRB":{"icaoId":"SBRB","flightCategory":"MVFR","rawOb":"METAR SBRB 130800Z 32003KT 8000 FEW002 BKN100 24/23 Q1011","temp":24,"dewp":23,"wdir":320,"wspd":3,"visib":4.97,"altim":1011,"clouds":[{"cover":"FEW","base":200},{"cover":"BKN","base":10000}],"obsTime":1776067200},"SBRF":{"icaoId":"SBRF","flightCategory":"MVFR","rawOb":"METAR SBRF 130800Z 07005KT 9000 -RA BKN020 24/23 Q1011","temp":24,"dewp":23,"wdir":70,"wspd":5,"visib":5.59,"altim":1011,"clouds":[{"cover":"BKN","base":2000}],"obsTime":1776067200},"SBSG":{"icaoId":"SBSG","flightCategory":"IFR","rawOb":"METAR SBSG 130800Z 11004KT 8000 BKN005 BKN015 24/24 Q1011","temp":24,"dewp":24,"wdir":110,"wspd":4,"visib":4.97,"altim":1011,"clouds":[{"cover":"BKN","base":500},{"cover":"BKN","base":1500}],"obsTime":1776067200},"SBSL":{"icaoId":"SBSL","flightCategory":"VFR","rawOb":"METAR SBSL 130800Z 13008KT 9999 SCT020 FEW025TCU BKN080 26/24 Q1010","temp":26,"dewp":24,"wdir":130,"wspd":8,"visib":"6+","altim":1010,"clouds":[{"cover":"SCT","base":2000},{"cover":"FEW","base":2500},{"cover":"BKN","base":8000}],"obsTime":1776067200},"SBSN":{"icaoId":"SBSN","flightCategory":"VFR","rawOb":"SPECI SBSN 130734Z 07009KT 9999 -RA SCT010 FEW030TCU BKN080 26/25 Q1009 RERA","temp":26,"dewp":25,"wdir":70,"wspd":9,"visib":"6+","altim":1009,"clouds":[{"cover":"SCT","base":1000},{"cover":"FEW","base":3000},{"cover":"BKN","base":8000}],"obsTime":1776065640},"SBSP":{"icaoId":"SBSP","flightCategory":"MVFR","rawOb":"METAR SBSP 130800Z AUTO 06008KT 040V110 9999 BKN011 18/16 Q1019","temp":18,"dewp":16,"wdir":60,"wspd":8,"visib":"6+","altim":1019,"clouds":[{"cover":"BKN","base":1100}],"obsTime":1776067200},"SBSV":{"icaoId":"SBSV","flightCategory":"MVFR","rawOb":"SPECI SBSV 130716Z 17006KT 9999 BKN017 FEW020TCU 26/23 Q1012 RESHRA","temp":26,"dewp":23,"wdir":170,"wspd":6,"visib":"6+","altim":1012,"clouds":[{"cover":"BKN","base":1700},{"cover":"FEW","base":2000}],"obsTime":1776064560},"SBTE":{"icaoId":"SBTE","flightCategory":"VFR","rawOb":"METAR SBTE 130800Z 02004KT 9999 FEW015 BKN080 25/24 Q1009","temp":25,"dewp":24,"wdir":20,"wspd":4,"visib":"6+","altim":1009,"clouds":[{"cover":"FEW","base":1500},{"cover":"BKN","base":8000}],"obsTime":1776067200},"SBUL":{"icaoId":"SBUL","flightCategory":"VFR","rawOb":"METAR SBUL 130800Z 12006KT CAVOK 18/16 Q1018","temp":18,"dewp":16,"wdir":120,"wspd":6,"visib":"6+","altim":1018,"clouds":[],"obsTime":1776067200},"SBUR":{"icaoId":"SBUR","flightCategory":"VFR","rawOb":"METAR SBUR 130800Z 05006KT CAVOK 21/16 Q1017","temp":21,"dewp":16,"wdir":50,"wspd":6,"visib":"6+","altim":1017,"clouds":[],"obsTime":1776067200},"SBVT":{"icaoId":"SBVT","flightCategory":"VFR","rawOb":"METAR SBVT 130800Z 31003KT 9999 FEW002 SCT017 BKN050 21/21 Q1016","temp":21,"dewp":21,"wdir":310,"wspd":3,"visib":"6+","altim":1016,"clouds":[{"cover":"FEW","base":200},{"cover":"SCT","base":1700},{"cover":"BKN","base":5000}],"obsTime":1776067200},"SBAR":{"icaoId":"SBAR","flightCategory":"MVFR","rawOb":"METAR SBAR 130800Z 31004KT 9999 BKN023 24/24 Q1011","temp":24,"dewp":24,"wdir":310,"wspd":4,"visib":"6+","altim":1011,"clouds":[{"cover":"BKN","base":2300}],"obsTime":1776067200},"SBSR":{"icaoId":"SBSR","flightCategory":"VFR","rawOb":"METAR SBSR 130800Z 08005KT CAVOK 22/18 Q1016","temp":22,"dewp":18,"wdir":80,"wspd":5,"visib":"6+","altim":1016,"clouds":[],"obsTime":1776067200},"SBCO":{"icaoId":"SBCO","flightCategory":"VFR","rawOb":"METAR SBCO 130900Z 28003KT 9999 FEW005 OVC040 20/19 Q1016","temp":20,"dewp":19,"wdir":280,"wspd":3,"visib":"6+","altim":1016,"clouds":[{"cover":"FEW","base":500},{"cover":"OVC","base":4000}],"obsTime":1776070800},"SBDN":{"icaoId":"SBDN","flightCategory":"VFR","rawOb":"METAR SBDN 130800Z 07002KT 9999 FEW045 19/18 Q1016","temp":19,"dewp":18,"wdir":70,"wspd":2,"visib":"6+","altim":1016,"clouds":[{"cover":"FEW","base":4500}],"obsTime":1776067200},"SBES":{"icaoId":"SBES","flightCategory":"VFR","rawOb":"METAR SBES 130900Z 00000KT 9999 FEW025 18/// Q1017","temp":null,"dewp":null,"wdir":0,"wspd":0,"visib":"6+","altim":1017,"clouds":[{"cover":"FEW","base":2500}],"obsTime":1776070800},"SBIP":{"icaoId":"SBIP","flightCategory":"VFR","rawOb":"METAR SBIP 130800Z AUTO 33002KT CAVOK 20/20 Q1017","temp":20,"dewp":20,"wdir":330,"wspd":2,"visib":"6+","altim":1017,"clouds":[],"obsTime":1776067200},"SBKG":{"icaoId":"SBKG","flightCategory":"VFR","rawOb":"METAR SBKG 130800Z 18004KT 9999 FEW010 BKN070 22/21 Q1013","temp":22,"dewp":21,"wdir":180,"wspd":4,"visib":"6+","altim":1013,"clouds":[{"cover":"FEW","base":1000},{"cover":"BKN","base":7000}],"obsTime":1776067200},"SBPL":{"icaoId":"SBPL","flightCategory":"VFR","rawOb":"METAR SBPL 130800Z 08005KT CAVOK 24/21 Q1013","temp":24,"dewp":21,"wdir":80,"wspd":5,"visib":"6+","altim":1013,"clouds":[],"obsTime":1776067200},"SBPS":{"icaoId":"SBPS","flightCategory":"VFR","rawOb":"METAR SBPS 130800Z 16002KT 9999 SCT020 BKN070 23/22 Q1014","temp":23,"dewp":22,"wdir":160,"wspd":2,"visib":"6+","altim":1014,"clouds":[{"cover":"SCT","base":2000},{"cover":"BKN","base":7000}],"obsTime":1776067200},"SBSC":{"icaoId":"SBSC","flightCategory":"MVFR","rawOb":"METAR SBSC 130800Z 03005KT 6000 FEW010 SCT020 21/20 Q1017","temp":21,"dewp":20,"wdir":30,"wspd":5,"visib":3.73,"altim":1017,"clouds":[{"cover":"FEW","base":1000},{"cover":"SCT","base":2000}],"obsTime":1776067200},"SBSJ":{"icaoId":"SBSJ","flightCategory":"MVFR","rawOb":"SPECI SBSJ 130830Z VRB02KT 5000 BR BKN013 18/16 Q1019","temp":18,"dewp":16,"wdir":"VRB","wspd":2,"visib":3.11,"altim":1019,"clouds":[{"cover":"BKN","base":1300}],"obsTime":1776069000},"SBSM":{"icaoId":"SBSM","flightCategory":"VFR","rawOb":"METAR SBSM 130900Z 04002KT 9999 SCT045 BKN080 18/18 Q1016","temp":18,"dewp":18,"wdir":40,"wspd":2,"visib":"6+","altim":1016,"clouds":[{"cover":"SCT","base":4500},{"cover":"BKN","base":8000}],"obsTime":1776070800},"SBAX":{"icaoId":"SBAX","flightCategory":"VFR","rawOb":"METAR SBAX 130800Z AUTO 11010KT CAVOK 17/17 Q1019","temp":17,"dewp":17,"wdir":110,"wspd":10,"visib":"6+","altim":1019,"clouds":[],"obsTime":1776067200},"SBBH":{"icaoId":"SBBH","flightCategory":"MVFR","rawOb":"METAR SBBH 130900Z 10004KT 9999 BKN018 BKN025 BKN090 19/16 Q1020","temp":19,"dewp":16,"wdir":100,"wspd":4,"visib":"6+","altim":1020,"clouds":[{"cover":"BKN","base":1800},{"cover":"BKN","base":2500},{"cover":"BKN","base":9000}],"obsTime":1776070800},"SBBU":{"icaoId":"SBBU","flightCategory":"VFR","rawOb":"METAR SBBU 130900Z 07007KT CAVOK 19/18 Q1017","temp":19,"dewp":18,"wdir":70,"wspd":7,"visib":"6+","altim":1017,"clouds":[],"obsTime":1776070800},"SBJP":{"icaoId":"SBJP","flightCategory":"VFR","rawOb":"METAR SBJP 130800Z 10003KT 9999 FEW010 24/23 Q1011","temp":24,"dewp":23,"wdir":100,"wspd":3,"visib":"6+","altim":1011,"clouds":[{"cover":"FEW","base":1000}],"obsTime":1776067200},"SBGW":{"icaoId":"SBGW","flightCategory":"MVFR","rawOb":"METAR SBGW 130900Z VRB02KT 6000 FEW005 SCT012 BKN100 18/14 Q1019","temp":18,"dewp":14,"wdir":"VRB","wspd":2,"visib":3.73,"altim":1019,"clouds":[{"cover":"FEW","base":500},{"cover":"SCT","base":1200},{"cover":"BKN","base":10000}],"obsTime":1776070800},"SBLS":{"icaoId":"SBLS","flightCategory":"MVFR","rawOb":"METAR SBLS 130900Z 14008KT 9999 BKN020 18/17 Q1019","temp":18,"dewp":17,"wdir":140,"wspd":8,"visib":"6+","altim":1019,"clouds":[{"cover":"BKN","base":2000}],"obsTime":1776070800},"SBMT":{"icaoId":"SBMT","flightCategory":"MVFR","rawOb":"METAR SBMT 130900Z 08006KT 050V120 8000 BKN011 18/16 Q1019","temp":18,"dewp":16,"wdir":80,"wspd":6,"visib":4.97,"altim":1019,"clouds":[{"cover":"BKN","base":1100}],"obsTime":1776070800},"SBTA":{"icaoId":"SBTA","flightCategory":"VFR","rawOb":"METAR SBTA 130900Z 00000KT 9999 FEW020 16/15 Q1018","temp":16,"dewp":15,"wdir":0,"wspd":0,"visib":"6+","altim":1018,"clouds":[{"cover":"FEW","base":2000}],"obsTime":1776070800},"SBLE":{"icaoId":"SBLE","flightCategory":"LIFR","rawOb":"METAR SBLE 130800Z AUTO 16005KT 130V200 9999 OVC003 ///// Q////","temp":null,"dewp":null,"wdir":160,"wspd":5,"visib":"6+","altim":null,"clouds":[{"cover":"OVC","base":300}],"obsTime":1776067200},"SBJV":{"icaoId":"SBJV","flightCategory":"VFR","rawOb":"METAR SBJV 130900Z 36002KT CAVOK 21/20 Q1016","temp":21,"dewp":20,"wdir":360,"wspd":2,"visib":"6+","altim":1016,"clouds":[],"obsTime":1776070800},"SBPF":{"icaoId":"SBPF","flightCategory":"VFR","rawOb":"METAR SBPF 130900Z 05008KT CAVOK 15/12 Q1017","temp":15,"dewp":12,"wdir":50,"wspd":8,"visib":"6+","altim":1017,"clouds":[],"obsTime":1776070800},"SBAN":{"icaoId":"SBAN","flightCategory":"VFR","rawOb":"METAR SBAN 130800Z 11004KT CAVOK 18/17 Q1020","temp":18,"dewp":17,"wdir":110,"wspd":4,"visib":"6+","altim":1020,"clouds":[],"obsTime":1776067200},"SBNM":{"icaoId":"SBNM","flightCategory":"VFR","rawOb":"METAR SBNM 130800Z 00000KT 9999 SCT020 BKN100 17/17 Q1016","temp":17,"dewp":17,"wdir":0,"wspd":0,"visib":"6+","altim":1016,"clouds":[{"cover":"SCT","base":2000},{"cover":"BKN","base":10000}],"obsTime":1776067200}}}