{"updated":1776318866,"count":52,"data":{"SBBE":{"icaoId":"SBBE","flightCategory":"VFR","rawOb":"METAR SBBE 160400Z 12006KT CAVOK 24/23 Q1010","temp":24,"dewp":23,"wdir":120,"wspd":6,"visib":"6+","altim":1010,"clouds":[],"obsTime":1776312000},"SBBR":{"icaoId":"SBBR","flightCategory":"VFR","rawOb":"METAR SBBR 160400Z VRB01KT 9999 BKN035 BKN080 19/17 Q1017","temp":19,"dewp":17,"wdir":"VRB","wspd":1,"visib":"6+","altim":1017,"clouds":[{"cover":"BKN","base":3500},{"cover":"BKN","base":8000}],"obsTime":1776312000},"SBBV":{"icaoId":"SBBV","flightCategory":"VFR","rawOb":"METAR SBBV 160400Z 09015KT 9999 VCTS FEW040 FEW045CB BKN070 29/23 Q1009","temp":29,"dewp":23,"wdir":90,"wspd":15,"visib":"6+","altim":1009,"clouds":[{"cover":"FEW","base":4000},{"cover":"FEW","base":4500},{"cover":"BKN","base":7000}],"obsTime":1776312000},"SBCF":{"icaoId":"SBCF","flightCategory":"VFR","rawOb":"METAR SBCF 160400Z 14008KT CAVOK 19/15 Q1017","temp":19,"dewp":15,"wdir":140,"wspd":8,"visib":"6+","altim":1017,"clouds":[],"obsTime":1776312000},"SBCG":{"icaoId":"SBCG","flightCategory":"VFR","rawOb":"METAR SBCG 160400Z 06007KT 9999 FEW045 BKN100 22/20 Q1013","temp":22,"dewp":20,"wdir":60,"wspd":7,"visib":"6+","altim":1013,"clouds":[{"cover":"FEW","base":4500},{"cover":"BKN","base":10000}],"obsTime":1776312000},"SBCT":{"icaoId":"SBCT","flightCategory":"MVFR","rawOb":"METAR SBCT 160400Z 06005KT 9999 BKN012 16/15 Q1019","temp":16,"dewp":15,"wdir":60,"wspd":5,"visib":"6+","altim":1019,"clouds":[{"cover":"BKN","base":1200}],"obsTime":1776312000},"SBEG":{"icaoId":"SBEG","flightCategory":"VFR","rawOb":"METAR SBEG 160400Z 13001KT 9999 VCTS FEW010 FEW025CB 24/24 Q1009","temp":24,"dewp":24,"wdir":130,"wspd":1,"visib":"6+","altim":1009,"clouds":[{"cover":"FEW","base":1000},{"cover":"FEW","base":2500}],"obsTime":1776312000},"SBFI":{"icaoId":"SBFI","flightCategory":"VFR","rawOb":"METAR SBFI 160400Z 30002KT CAVOK 21/21 Q1011","temp":21,"dewp":21,"wdir":300,"wspd":2,"visib":"6+","altim":1011,"clouds":[],"obsTime":1776312000},"SBFL":{"icaoId":"SBFL","flightCategory":"VFR","rawOb":"METAR SBFL 160400Z 24001KT CAVOK 22/21 Q1015","temp":22,"dewp":21,"wdir":240,"wspd":1,"visib":"6+","altim":1015,"clouds":[],"obsTime":1776312000},"SBFZ":{"icaoId":"SBFZ","flightCategory":"VFR","rawOb":"METAR SBFZ 160400Z 21001KT 9999 FEW020 25/24 Q1008","temp":25,"dewp":24,"wdir":210,"wspd":1,"visib":"6+","altim":1008,"clouds":[{"cover":"FEW","base":2000}],"obsTime":1776312000},"SBGL":{"icaoId":"SBGL","flightCategory":"VFR","rawOb":"METAR SBGL 160400Z VRB01KT 9999 FEW025 SCT040 22/20 Q1015","temp":22,"dewp":20,"wdir":"VRB","wspd":1,"visib":"6+","altim":1015,"clouds":[{"cover":"FEW","base":2500},{"cover":"SCT","base":4000}],"obsTime":1776312000},"SBGO":{"icaoId":"SBGO","flightCategory":"VFR","rawOb":"METAR SBGO 160400Z 35003KT CAVOK 21/19 Q1015","temp":21,"dewp":19,"wdir":350,"wspd":3,"visib":"6+","altim":1015,"clouds":[],"obsTime":1776312000},"SBGR":{"icaoId":"SBGR","flightCategory":"VFR","rawOb":"METAR SBGR 160400Z 11004KT CAVOK 18/16 Q1018","temp":18,"dewp":16,"wdir":110,"wspd":4,"visib":"6+","altim":1018,"clouds":[],"obsTime":1776312000},"SBJU":{"icaoId":"SBJU","flightCategory":"VFR","rawOb":"METAR SBJU 160400Z 00000KT 9999 SCT020 24/22 Q1012","temp":24,"dewp":22,"wdir":0,"wspd":0,"visib":"6+","altim":1012,"clouds":[{"cover":"SCT","base":2000}],"obsTime":1776312000},"SBKP":{"icaoId":"SBKP","flightCategory":"VFR","rawOb":"METAR SBKP 160400Z 12012KT CAVOK 19/16 Q1016","temp":19,"dewp":16,"wdir":120,"wspd":12,"visib":"6+","altim":1016,"clouds":[],"obsTime":1776312000},"SBLO":{"icaoId":"SBLO","flightCategory":"VFR","rawOb":"METAR SBLO 160400Z 15003KT 120V180 CAVOK 22/16 Q1015","temp":22,"dewp":16,"wdir":150,"wspd":3,"visib":"6+","altim":1015,"clouds":[],"obsTime":1776312000},"SBMA":{"icaoId":"SBMA","flightCategory":"VFR","rawOb":"METAR SBMA 160400Z 07003KT 9999 FEW015 SCT090 26/25 Q1010","temp":26,"dewp":25,"wdir":70,"wspd":3,"visib":"6+","altim":1010,"clouds":[{"cover":"FEW","base":1500},{"cover":"SCT","base":9000}],"obsTime":1776312000},"SBME":{"icaoId":"SBME","flightCategory":"VFR","rawOb":"METAR SBME 160400Z 34003KT 9999 FEW040 21/19 Q1013","temp":21,"dewp":19,"wdir":340,"wspd":3,"visib":"6+","altim":1013,"clouds":[{"cover":"FEW","base":4000}],"obsTime":1776312000},"SBMG":{"icaoId":"SBMG","flightCategory":"VFR","rawOb":"METAR SBMG 160400Z AUTO 06010KT CAVOK 25/17 Q1013","temp":25,"dewp":17,"wdir":60,"wspd":10,"visib":"6+","altim":1013,"clouds":[],"obsTime":1776312000},"SBMO":{"icaoId":"SBMO","flightCategory":"VFR","rawOb":"METAR SBMO 160400Z 27002KT 9999 FEW025 SCT070 24/24 Q1011","temp":24,"dewp":24,"wdir":270,"wspd":2,"visib":"6+","altim":1011,"clouds":[{"cover":"FEW","base":2500},{"cover":"SCT","base":7000}],"obsTime":1776312000},"SBMQ":{"icaoId":"SBMQ","flightCategory":"VFR","rawOb":"METAR SBMQ 160400Z 32002KT CAVOK 25/24 Q1010","temp":25,"dewp":24,"wdir":320,"wspd":2,"visib":"6+","altim":1010,"clouds":[],"obsTime":1776312000},"SBNT":{"icaoId":"SBNT","flightCategory":"VFR","rawOb":"METAR SBNT 160400Z 22005KT 9999 FEW020 BKN070 25/24 Q1009","temp":25,"dewp":24,"wdir":220,"wspd":5,"visib":"6+","altim":1009,"clouds":[{"cover":"FEW","base":2000},{"cover":"BKN","base":7000}],"obsTime":1776312000},"SBPA":{"icaoId":"SBPA","flightCategory":"VFR","rawOb":"METAR SBPA 160400Z 09011KT 9999 VCSH FEW040 23/19 Q1010","temp":23,"dewp":19,"wdir":90,"wspd":11,"visib":"6+","altim":1010,"clouds":[{"cover":"FEW","base":4000}],"obsTime":1776312000},"SBPJ":{"icaoId":"SBPJ","flightCategory":"VFR","rawOb":"METAR SBPJ 160400Z 11003KT 9999 FEW025 SCT100 25/24 Q1011","temp":25,"dewp":24,"wdir":110,"wspd":3,"visib":"6+","altim":1011,"clouds":[{"cover":"FEW","base":2500},{"cover":"SCT","base":10000}],"obsTime":1776312000},"SBPV":{"icaoId":"SBPV","flightCategory":"VFR","rawOb":"METAR SBPV 160400Z 00000KT CAVOK 26/23 Q1009","temp":26,"dewp":23,"wdir":0,"wspd":0,"visib":"6+","altim":1009,"clouds":[],"obsTime":1776312000},"SBRB":{"icaoId":"SBRB","flightCategory":"MVFR","rawOb":"METAR SBRB 160400Z 08002KT 9999 BKN021 25/24 Q1010","temp":25,"dewp":24,"wdir":80,"wspd":2,"visib":"6+","altim":1010,"clouds":[{"cover":"BKN","base":2100}],"obsTime":1776312000},"SBRF":{"icaoId":"SBRF","flightCategory":"VFR","rawOb":"METAR SBRF 160400Z VRB02KT 9999 SCT023 SCT090 26/23 Q1010","temp":26,"dewp":23,"wdir":"VRB","wspd":2,"visib":"6+","altim":1010,"clouds":[{"cover":"SCT","base":2300},{"cover":"SCT","base":9000}],"obsTime":1776312000},"SBSG":{"icaoId":"SBSG","flightCategory":"VFR","rawOb":"METAR SBSG 160400Z VRB02KT 9999 FEW020 BKN050 25/24 Q1010","temp":25,"dewp":24,"wdir":"VRB","wspd":2,"visib":"6+","altim":1010,"clouds":[{"cover":"FEW","base":2000},{"cover":"BKN","base":5000}],"obsTime":1776312000},"SBSL":{"icaoId":"SBSL","flightCategory":"MVFR","rawOb":"METAR SBSL 160400Z 13008KT 9999 -RA SCT006 BKN015 FEW020TCU BKN080 24/23 Q1010","temp":24,"dewp":23,"wdir":130,"wspd":8,"visib":"6+","altim":1010,"clouds":[{"cover":"SCT","base":600},{"cover":"BKN","base":1500},{"cover":"FEW","base":2000},{"cover":"BKN","base":8000}],"obsTime":1776312000},"SBSN":{"icaoId":"SBSN","flightCategory":"VFR","rawOb":"METAR SBSN 160400Z 14004KT 9999 FEW010 26/24 Q1009","temp":26,"dewp":24,"wdir":140,"wspd":4,"visib":"6+","altim":1009,"clouds":[{"cover":"FEW","base":1000}],"obsTime":1776312000},"SBSV":{"icaoId":"SBSV","flightCategory":"VFR","rawOb":"METAR SBSV 160400Z 14006KT 9999 SCT023 SCT100 27/22 Q1011","temp":27,"dewp":22,"wdir":140,"wspd":6,"visib":"6+","altim":1011,"clouds":[{"cover":"SCT","base":2300},{"cover":"SCT","base":10000}],"obsTime":1776312000},"SBTE":{"icaoId":"SBTE","flightCategory":"VFR","rawOb":"METAR SBTE 160400Z 36002KT 9999 SCT006 SCT015 BKN090 24/23 Q1009","temp":24,"dewp":23,"wdir":360,"wspd":2,"visib":"6+","altim":1009,"clouds":[{"cover":"SCT","base":600},{"cover":"SCT","base":1500},{"cover":"BKN","base":9000}],"obsTime":1776312000},"SBUL":{"icaoId":"SBUL","flightCategory":"VFR","rawOb":"METAR SBUL 160400Z 13006KT 090V150 CAVOK 20/15 Q1017","temp":20,"dewp":15,"wdir":130,"wspd":6,"visib":"6+","altim":1017,"clouds":[],"obsTime":1776312000},"SBUR":{"icaoId":"SBUR","flightCategory":"VFR","rawOb":"METAR SBUR 160400Z 04004KT CAVOK 22/15 Q1016","temp":22,"dewp":15,"wdir":40,"wspd":4,"visib":"6+","altim":1016,"clouds":[],"obsTime":1776312000},"SBVT":{"icaoId":"SBVT","flightCategory":"VFR","rawOb":"METAR SBVT 160400Z 23007KT CAVOK 23/19 Q1013","temp":23,"dewp":19,"wdir":230,"wspd":7,"visib":"6+","altim":1013,"clouds":[],"obsTime":1776312000},"SBMK":{"icaoId":"SBMK","flightCategory":"VFR","rawOb":"METAR SBMK 160400Z 00000KT CAVOK 18/17 Q1015","temp":18,"dewp":17,"wdir":0,"wspd":0,"visib":"6+","altim":1015,"clouds":[],"obsTime":1776312000},"SBSP":{"icaoId":"SBSP","flightCategory":"VFR","rawOb":"METAR SBSP 160400Z AUTO 13005KT CAVOK 18/16 Q1019","temp":18,"dewp":16,"wdir":130,"wspd":5,"visib":"6+","altim":1019,"clouds":[],"obsTime":1776312000},"SBOI":{"icaoId":"SBOI","flightCategory":"MVFR","rawOb":"METAR SBOI 160400Z AUTO VRB02KT 9999 // FEW013/// BKN016/// BKN018/// 25/25 Q1010","temp":25,"dewp":25,"wdir":"VRB","wspd":2,"visib":"6+","altim":1010,"clouds":[{"cover":"FEW","base":1300},{"cover":"BKN","base":1600},{"cover":"BKN","base":1800}],"obsTime":1776312000},"SBAR":{"icaoId":"SBAR","flightCategory":"VFR","rawOb":"METAR SBAR 160400Z 19003KT 9999 VCSH FEW020 SCT024 26/24 Q1011","temp":26,"dewp":24,"wdir":190,"wspd":3,"visib":"6+","altim":1011,"clouds":[{"cover":"FEW","base":2000},{"cover":"SCT","base":2400}],"obsTime":1776312000},"SBAX":{"icaoId":"SBAX","flightCategory":"VFR","rawOb":"METAR SBAX 160400Z AUTO VRB02KT CAVOK 19/15 Q1018","temp":19,"dewp":15,"wdir":"VRB","wspd":2,"visib":"6+","altim":1018,"clouds":[],"obsTime":1776312000},"SBSR":{"icaoId":"SBSR","flightCategory":"VFR","rawOb":"METAR SBSR 160400Z 12005KT CAVOK 24/16 Q1014","temp":24,"dewp":16,"wdir":120,"wspd":5,"visib":"6+","altim":1014,"clouds":[],"obsTime":1776312000},"SBDN":{"icaoId":"SBDN","flightCategory":"VFR","rawOb":"METAR SBDN 160400Z 07006KT CAVOK 24/17 Q1013","temp":24,"dewp":17,"wdir":70,"wspd":6,"visib":"6+","altim":1013,"clouds":[],"obsTime":1776312000},"SBIP":{"icaoId":"SBIP","flightCategory":"VFR","rawOb":"METAR SBIP 160400Z AUTO 21003KT CAVOK 19/19 Q1014","temp":19,"dewp":19,"wdir":210,"wspd":3,"visib":"6+","altim":1014,"clouds":[],"obsTime":1776312000},"SBKG":{"icaoId":"SBKG","flightCategory":"VFR","rawOb":"METAR SBKG 160400Z 12004KT CAVOK 22/21 Q1013","temp":22,"dewp":21,"wdir":120,"wspd":4,"visib":"6+","altim":1013,"clouds":[],"obsTime":1776312000},"SBPL":{"icaoId":"SBPL","flightCategory":"VFR","rawOb":"METAR SBPL 160400Z 11008KT 9999 SCT020 BKN070 25/21 Q1013","temp":25,"dewp":21,"wdir":110,"wspd":8,"visib":"6+","altim":1013,"clouds":[{"cover":"SCT","base":2000},{"cover":"BKN","base":7000}],"obsTime":1776312000},"SBPS":{"icaoId":"SBPS","flightCategory":"VFR","rawOb":"METAR SBPS 160400Z 25004KT 9999 SCT017 23/22 Q1012","temp":23,"dewp":22,"wdir":250,"wspd":4,"visib":"6+","altim":1012,"clouds":[{"cover":"SCT","base":1700}],"obsTime":1776312000},"SBSC":{"icaoId":"SBSC","flightCategory":"IFR","rawOb":"METAR SBSC 160400Z 30004KT 3000 BR FEW020 21/20 Q1015","temp":21,"dewp":20,"wdir":300,"wspd":4,"visib":1.86,"altim":1015,"clouds":[{"cover":"FEW","base":2000}],"obsTime":1776312000},"SBSJ":{"icaoId":"SBSJ","flightCategory":"VFR","rawOb":"METAR SBSJ 160400Z VRB02KT CAVOK 17/15 Q1018","temp":17,"dewp":15,"wdir":"VRB","wspd":2,"visib":"6+","altim":1018,"clouds":[],"obsTime":1776312000},"SBLE":{"icaoId":"SBLE","flightCategory":"VFR","rawOb":"METAR SBLE 160400Z AUTO 28003KT 270V330 9999 SCT039 ///// Q////","temp":null,"dewp":null,"wdir":280,"wspd":3,"visib":"6+","altim":null,"clouds":[{"cover":"SCT","base":3900}],"obsTime":1776312000},"SBJP":{"icaoId":"SBJP","flightCategory":"VFR","rawOb":"METAR SBJP 160400Z 21004KT CAVOK 24/23 Q1010","temp":24,"dewp":23,"wdir":210,"wspd":4,"visib":"6+","altim":1010,"clouds":[],"obsTime":1776312000},"SBAN":{"icaoId":"SBAN","flightCategory":"VFR","rawOb":"METAR SBAN 160400Z 14005KT CAVOK 19/18 Q1018","temp":19,"dewp":18,"wdir":140,"wspd":5,"visib":"6+","altim":1018,"clouds":[],"obsTime":1776312000},"SBNM":{"icaoId":"SBNM","flightCategory":"VFR","rawOb":"METAR SBNM 160400Z 04002KT 9999 FEW035 SCT100 22/19 Q1010","temp":22,"dewp":19,"wdir":40,"wspd":2,"visib":"6+","altim":1010,"clouds":[{"cover":"FEW","base":3500},{"cover":"SCT","base":10000}],"obsTime":1776312000}}}