{"updated":1776892368,"count":84,"data":{"SBEG":{"icaoId":"SBEG","flightCategory":"MVFR","rawOb":"METAR SBEG 222000Z 23006KT 9999 BKN010 FEW025TCU BKN070 25/23 Q1011","temp":25,"dewp":23,"wdir":230,"wspd":6,"visib":"6+","altim":1011,"clouds":[{"cover":"BKN","base":1000},{"cover":"FEW","base":2500},{"cover":"BKN","base":7000}],"obsTime":1776888000},"SBAT":{"icaoId":"SBAT","flightCategory":"VFR","rawOb":"METAR SBAT 222000Z 07002KT 9999 VCSH FEW035 FEW040TCU 31/25 Q1008","temp":31,"dewp":25,"wdir":70,"wspd":2,"visib":"6+","altim":1008,"clouds":[{"cover":"FEW","base":3500},{"cover":"FEW","base":4000}],"obsTime":1776888000},"SBBE":{"icaoId":"SBBE","flightCategory":"VFR","rawOb":"METAR SBBE 222000Z 06006KT 9999 SCT035 FEW040TCU 30/23 Q1007","temp":30,"dewp":23,"wdir":60,"wspd":6,"visib":"6+","altim":1007,"clouds":[{"cover":"SCT","base":3500},{"cover":"FEW","base":4000}],"obsTime":1776888000},"SBBR":{"icaoId":"SBBR","flightCategory":"VFR","rawOb":"METAR SBBR 222000Z 11008KT CAVOK 28/14 Q1017","temp":28,"dewp":14,"wdir":110,"wspd":8,"visib":"6+","altim":1017,"clouds":[],"obsTime":1776888000},"SBBV":{"icaoId":"SBBV","flightCategory":"VFR","rawOb":"METAR SBBV 222000Z 28003KT 9999 SCT009 SCT030 FEW035TCU BKN090 24/22 Q1011","temp":24,"dewp":22,"wdir":280,"wspd":3,"visib":"6+","altim":1011,"clouds":[{"cover":"SCT","base":900},{"cover":"SCT","base":3000},{"cover":"FEW","base":3500},{"cover":"BKN","base":9000}],"obsTime":1776888000},"SBCB":{"icaoId":"SBCB","flightCategory":"VFR","rawOb":"METAR SBCB 222000Z 10006KT CAVOK 25/20 Q1016","temp":25,"dewp":20,"wdir":100,"wspd":6,"visib":"6+","altim":1016,"clouds":[],"obsTime":1776888000},"SBCF":{"icaoId":"SBCF","flightCategory":"VFR","rawOb":"METAR SBCF 222000Z 06005KT 9999 SCT045 26/16 Q1018","temp":26,"dewp":16,"wdir":60,"wspd":5,"visib":"6+","altim":1018,"clouds":[{"cover":"SCT","base":4500}],"obsTime":1776888000},"SBCG":{"icaoId":"SBCG","flightCategory":"VFR","rawOb":"METAR SBCG 222000Z 14008KT 100V160 CAVOK 29/15 Q1014","temp":29,"dewp":15,"wdir":140,"wspd":8,"visib":"6+","altim":1014,"clouds":[],"obsTime":1776888000},"SBCP":{"icaoId":"SBCP","flightCategory":"VFR","rawOb":"METAR SBCP 222000Z 11008KT 9999 FEW030 25/20 Q1015","temp":25,"dewp":20,"wdir":110,"wspd":8,"visib":"6+","altim":1015,"clouds":[{"cover":"FEW","base":3000}],"obsTime":1776888000},"SBCR":{"icaoId":"SBCR","flightCategory":"VFR","rawOb":"METAR SBCR 222000Z VRB02KT 9999 SCT035 FEW040TCU 33/24 Q1010","temp":33,"dewp":24,"wdir":"VRB","wspd":2,"visib":"6+","altim":1010,"clouds":[{"cover":"SCT","base":3500},{"cover":"FEW","base":4000}],"obsTime":1776888000},"SBCT":{"icaoId":"SBCT","flightCategory":"VFR","rawOb":"METAR SBCT 222000Z 11007KT CAVOK 24/14 Q1019","temp":24,"dewp":14,"wdir":110,"wspd":7,"visib":"6+","altim":1019,"clouds":[],"obsTime":1776888000},"SBCZ":{"icaoId":"SBCZ","flightCategory":"VFR","rawOb":"METAR SBCZ 222000Z 32002KT 9999 SCT030 30/24 Q1008","temp":30,"dewp":24,"wdir":320,"wspd":2,"visib":"6+","altim":1008,"clouds":[{"cover":"SCT","base":3000}],"obsTime":1776888000},"SBFI":{"icaoId":"SBFI","flightCategory":"VFR","rawOb":"METAR SBFI 222000Z 20006KT 9999 FEW040 29/23 Q1014","temp":29,"dewp":23,"wdir":200,"wspd":6,"visib":"6+","altim":1014,"clouds":[{"cover":"FEW","base":4000}],"obsTime":1776888000},"SBFL":{"icaoId":"SBFL","flightCategory":"VFR","rawOb":"METAR SBFL 222000Z 35008KT 9999 FEW020 27/20 Q1015","temp":27,"dewp":20,"wdir":350,"wspd":8,"visib":"6+","altim":1015,"clouds":[{"cover":"FEW","base":2000}],"obsTime":1776888000},"SBFZ":{"icaoId":"SBFZ","flightCategory":"VFR","rawOb":"METAR SBFZ 222000Z 09009KT CAVOK 29/23 Q1008","temp":29,"dewp":23,"wdir":90,"wspd":9,"visib":"6+","altim":1008,"clouds":[],"obsTime":1776888000},"SBGL":{"icaoId":"SBGL","flightCategory":"VFR","rawOb":"METAR SBGL 222000Z 14012KT 9999 FEW030 25/19 Q1015","temp":25,"dewp":19,"wdir":140,"wspd":12,"visib":"6+","altim":1015,"clouds":[{"cover":"FEW","base":3000}],"obsTime":1776888000},"SBGO":{"icaoId":"SBGO","flightCategory":"VFR","rawOb":"METAR SBGO 222000Z 33008KT 9999 SCT049 FEW053TCU 29/19 Q1015","temp":29,"dewp":19,"wdir":330,"wspd":8,"visib":"6+","altim":1015,"clouds":[{"cover":"SCT","base":4900},{"cover":"FEW","base":5300}],"obsTime":1776888000},"SBGR":{"icaoId":"SBGR","flightCategory":"VFR","rawOb":"METAR SBGR 222000Z 14009KT CAVOK 23/18 Q1018","temp":23,"dewp":18,"wdir":140,"wspd":9,"visib":"6+","altim":1018,"clouds":[],"obsTime":1776888000},"SBHT":{"icaoId":"SBHT","flightCategory":"MVFR","rawOb":"METAR SBHT 222000Z 15003KT 9999 BKN030 32/22 Q1007","temp":32,"dewp":22,"wdir":150,"wspd":3,"visib":"6+","altim":1007,"clouds":[{"cover":"BKN","base":3000}],"obsTime":1776888000},"SBIL":{"icaoId":"SBIL","flightCategory":"VFR","rawOb":"METAR SBIL 222000Z 19010G20KT 150V240 CAVOK 29/23 Q1014","temp":29,"dewp":23,"wdir":190,"wspd":10,"visib":"6+","altim":1014,"clouds":[],"obsTime":1776888000},"SBJU":{"icaoId":"SBJU","flightCategory":"VFR","rawOb":"METAR SBJU 222000Z 19004KT 9999 FEW020 28/24 Q1012","temp":28,"dewp":24,"wdir":190,"wspd":4,"visib":"6+","altim":1012,"clouds":[{"cover":"FEW","base":2000}],"obsTime":1776888000},"SBKP":{"icaoId":"SBKP","flightCategory":"VFR","rawOb":"METAR SBKP 222000Z 20006KT 170V250 CAVOK 28/14 Q1016","temp":28,"dewp":14,"wdir":200,"wspd":6,"visib":"6+","altim":1016,"clouds":[],"obsTime":1776888000},"SBLO":{"icaoId":"SBLO","flightCategory":"VFR","rawOb":"METAR SBLO 222000Z 12004KT CAVOK 27/15 Q1016","temp":27,"dewp":15,"wdir":120,"wspd":4,"visib":"6+","altim":1016,"clouds":[],"obsTime":1776888000},"SBMA":{"icaoId":"SBMA","flightCategory":"VFR","rawOb":"METAR SBMA 222000Z 06005KT 9999 SCT020 FEW023TCU 32/23 Q1007","temp":32,"dewp":23,"wdir":60,"wspd":5,"visib":"6+","altim":1007,"clouds":[{"cover":"SCT","base":2000},{"cover":"FEW","base":2300}],"obsTime":1776888000},"SBME":{"icaoId":"SBME","flightCategory":"MVFR","rawOb":"METAR SBME 222000Z 13006KT 9999 BKN025 25/21 Q1015","temp":25,"dewp":21,"wdir":130,"wspd":6,"visib":"6+","altim":1015,"clouds":[{"cover":"BKN","base":2500}],"obsTime":1776888000},"SBMG":{"icaoId":"SBMG","flightCategory":"VFR","rawOb":"METAR SBMG 222000Z 18007KT CAVOK 28/16 Q1015","temp":28,"dewp":16,"wdir":180,"wspd":7,"visib":"6+","altim":1015,"clouds":[],"obsTime":1776888000},"SBMK":{"icaoId":"SBMK","flightCategory":"VFR","rawOb":"METAR SBMK 222000Z 10006KT 9999 FEW046 SCT080 28/16 Q1016","temp":28,"dewp":16,"wdir":100,"wspd":6,"visib":"6+","altim":1016,"clouds":[{"cover":"FEW","base":4600},{"cover":"SCT","base":8000}],"obsTime":1776888000},"SBMO":{"icaoId":"SBMO","flightCategory":"VFR","rawOb":"METAR SBMO 222000Z 20007KT 9999 VCSH SCT013 SCT017 FEW025TCU 26/24 Q1012","temp":26,"dewp":24,"wdir":200,"wspd":7,"visib":"6+","altim":1012,"clouds":[{"cover":"SCT","base":1300},{"cover":"SCT","base":1700},{"cover":"FEW","base":2500}],"obsTime":1776888000},"SBMQ":{"icaoId":"SBMQ","flightCategory":"VFR","rawOb":"METAR SBMQ 222000Z 09004KT 9999 SCT020 FEW020TCU BKN100 28/26 Q1008","temp":28,"dewp":26,"wdir":90,"wspd":4,"visib":"6+","altim":1008,"clouds":[{"cover":"SCT","base":2000},{"cover":"FEW","base":2000},{"cover":"BKN","base":10000}],"obsTime":1776888000},"SBNT":{"icaoId":"SBNT","flightCategory":"VFR","rawOb":"METAR SBNT 222000Z 13012KT 9999 FEW021 29/24 Q1009","temp":29,"dewp":24,"wdir":130,"wspd":12,"visib":"6+","altim":1009,"clouds":[{"cover":"FEW","base":2100}],"obsTime":1776888000},"SBPA":{"icaoId":"SBPA","flightCategory":"VFR","rawOb":"METAR SBPA 222000Z 25004KT 210V290 9999 FEW040 29/20 Q1014","temp":29,"dewp":20,"wdir":250,"wspd":4,"visib":"6+","altim":1014,"clouds":[{"cover":"FEW","base":4000}],"obsTime":1776888000},"SBPJ":{"icaoId":"SBPJ","flightCategory":"VFR","rawOb":"METAR SBPJ 222000Z 09003KT 9999 SCT045 32/22 Q1010","temp":32,"dewp":22,"wdir":90,"wspd":3,"visib":"6+","altim":1010,"clouds":[{"cover":"SCT","base":4500}],"obsTime":1776888000},"SBPV":{"icaoId":"SBPV","flightCategory":"VFR","rawOb":"METAR SBPV 222000Z 19002KT 9999 SCT045 28/25 Q1008","temp":28,"dewp":25,"wdir":190,"wspd":2,"visib":"6+","altim":1008,"clouds":[{"cover":"SCT","base":4500}],"obsTime":1776888000},"SBRB":{"icaoId":"SBRB","flightCategory":"MVFR","rawOb":"METAR SBRB 222000Z 16003KT 9999 BKN025 FEW030TCU 32/23 Q1009","temp":32,"dewp":23,"wdir":160,"wspd":3,"visib":"6+","altim":1009,"clouds":[{"cover":"BKN","base":2500},{"cover":"FEW","base":3000}],"obsTime":1776888000},"SBRF":{"icaoId":"SBRF","flightCategory":"VFR","rawOb":"METAR SBRF 222000Z 14012KT 9999 FEW025 29/23 Q1010","temp":29,"dewp":23,"wdir":140,"wspd":12,"visib":"6+","altim":1010,"clouds":[{"cover":"FEW","base":2500}],"obsTime":1776888000},"SBSG":{"icaoId":"SBSG","flightCategory":"VFR","rawOb":"METAR SBSG 222000Z 12006KT 090V160 9999 FEW030 28/24 Q1009","temp":28,"dewp":24,"wdir":120,"wspd":6,"visib":"6+","altim":1009,"clouds":[{"cover":"FEW","base":3000}],"obsTime":1776888000},"SBSL":{"icaoId":"SBSL","flightCategory":"MVFR","rawOb":"METAR SBSL 222000Z 06011KT 9999 BKN020 FEW025TCU 28/24 Q1008","temp":28,"dewp":24,"wdir":60,"wspd":11,"visib":"6+","altim":1008,"clouds":[{"cover":"BKN","base":2000},{"cover":"FEW","base":2500}],"obsTime":1776888000},"SBSN":{"icaoId":"SBSN","flightCategory":"VFR","rawOb":"METAR SBSN 222000Z 07008KT 9999 FEW025 FEW040TCU 30/25 Q1007","temp":30,"dewp":25,"wdir":70,"wspd":8,"visib":"6+","altim":1007,"clouds":[{"cover":"FEW","base":2500},{"cover":"FEW","base":4000}],"obsTime":1776888000},"SBSP":{"icaoId":"SBSP","flightCategory":"VFR","rawOb":"METAR SBSP 222000Z 16010KT CAVOK 21/17 Q1019","temp":21,"dewp":17,"wdir":160,"wspd":10,"visib":"6+","altim":1019,"clouds":[],"obsTime":1776888000},"SBSV":{"icaoId":"SBSV","flightCategory":"MVFR","rawOb":"METAR SBSV 222000Z 17011KT 9999 VCSH BKN016 FEW020TCU BKN060 26/24 Q1013","temp":26,"dewp":24,"wdir":170,"wspd":11,"visib":"6+","altim":1013,"clouds":[{"cover":"BKN","base":1600},{"cover":"FEW","base":2000},{"cover":"BKN","base":6000}],"obsTime":1776888000},"SBTE":{"icaoId":"SBTE","flightCategory":"VFR","rawOb":"METAR SBTE 222000Z 15005KT 070V170 9999 FEW020 32/23 Q1007","temp":32,"dewp":23,"wdir":150,"wspd":5,"visib":"6+","altim":1007,"clouds":[{"cover":"FEW","base":2000}],"obsTime":1776888000},"SBUL":{"icaoId":"SBUL","flightCategory":"VFR","rawOb":"METAR SBUL 222000Z 02005KT 9999 SCT030 FEW035TCU SCT090 28/17 Q1017","temp":28,"dewp":17,"wdir":20,"wspd":5,"visib":"6+","altim":1017,"clouds":[{"cover":"SCT","base":3000},{"cover":"FEW","base":3500},{"cover":"SCT","base":9000}],"obsTime":1776888000},"SBUR":{"icaoId":"SBUR","flightCategory":"VFR","rawOb":"METAR SBUR 222000Z 10004KT CAVOK 29/18 Q1016","temp":29,"dewp":18,"wdir":100,"wspd":4,"visib":"6+","altim":1016,"clouds":[],"obsTime":1776888000},"SBVT":{"icaoId":"SBVT","flightCategory":"VFR","rawOb":"METAR SBVT 222000Z 16007KT 9999 FEW040 25/22 Q1015","temp":25,"dewp":22,"wdir":160,"wspd":7,"visib":"6+","altim":1015,"clouds":[{"cover":"FEW","base":4000}],"obsTime":1776888000},"SBVH":{"icaoId":"SBVH","flightCategory":"MVFR","rawOb":"METAR SBVH 222000Z 10006KT 9999 BKN030 29/22 Q1011","temp":29,"dewp":22,"wdir":100,"wspd":6,"visib":"6+","altim":1011,"clouds":[{"cover":"BKN","base":3000}],"obsTime":1776888000},"SBTT":{"icaoId":"SBTT","flightCategory":"VFR","rawOb":"METAR SBTT 222000Z 16003KT 9999 FEW040 31/22 Q1009","temp":31,"dewp":22,"wdir":160,"wspd":3,"visib":"6+","altim":1009,"clouds":[{"cover":"FEW","base":4000}],"obsTime":1776888000},"SBES":{"icaoId":"SBES","flightCategory":"VFR","rawOb":"METAR SBES 222000Z 11006KT 060V150 CAVOK 25/// Q1016","temp":null,"dewp":null,"wdir":110,"wspd":6,"visib":"6+","altim":1016,"clouds":[],"obsTime":1776888000},"SBIP":{"icaoId":"SBIP","flightCategory":"VFR","rawOb":"METAR SBIP 222000Z AUTO 34003KT 310V010 CAVOK 27/19 Q1015","temp":27,"dewp":19,"wdir":340,"wspd":3,"visib":"6+","altim":1015,"clouds":[],"obsTime":1776888000},"SBKG":{"icaoId":"SBKG","flightCategory":"VFR","rawOb":"METAR SBKG 222000Z 11008KT 9999 FEW015 28/20 Q1012","temp":28,"dewp":20,"wdir":110,"wspd":8,"visib":"6+","altim":1012,"clouds":[{"cover":"FEW","base":1500}],"obsTime":1776888000},"SBBU":{"icaoId":"SBBU","flightCategory":"VFR","rawOb":"METAR SBBU 222000Z 14004KT CAVOK 30/14 Q1015","temp":30,"dewp":14,"wdir":140,"wspd":4,"visib":"6+","altim":1015,"clouds":[],"obsTime":1776888000},"SBOI":{"icaoId":"SBOI","flightCategory":"MVFR","rawOb":"METAR SBOI 222000Z AUTO 01005KT 340V040 9999 -RA BKN017 24/24 Q1009 RERA","temp":24,"dewp":24,"wdir":10,"wspd":5,"visib":"6+","altim":1009,"clouds":[{"cover":"BKN","base":1700}],"obsTime":1776888000},"SBUY":{"icaoId":"SBUY","flightCategory":"VFR","rawOb":"METAR SBUY 222000Z 27002KT 9999 FEW030 BKN100 28/25 Q1008","temp":28,"dewp":25,"wdir":270,"wspd":2,"visib":"6+","altim":1008,"clouds":[{"cover":"FEW","base":3000},{"cover":"BKN","base":10000}],"obsTime":1776888000},"SBPB":{"icaoId":"SBPB","flightCategory":"VFR","rawOb":"METAR SBPB 222000Z 03007KT 9999 FEW016 FEW025TCU BKN080 29/25 Q1008","temp":29,"dewp":25,"wdir":30,"wspd":7,"visib":"6+","altim":1008,"clouds":[{"cover":"FEW","base":1600},{"cover":"FEW","base":2500},{"cover":"BKN","base":8000}],"obsTime":1776888000},"SBPL":{"icaoId":"SBPL","flightCategory":"VFR","rawOb":"METAR SBPL 222000Z 13009KT 9999 FEW030 31/20 Q1011","temp":31,"dewp":20,"wdir":130,"wspd":9,"visib":"6+","altim":1011,"clouds":[{"cover":"FEW","base":3000}],"obsTime":1776888000},"SBCA":{"icaoId":"SBCA","flightCategory":"VFR","rawOb":"METAR SBCA 222000Z VRB02KT 9999 SCT040 FEW050TCU 26/17 Q1018","temp":26,"dewp":17,"wdir":"VRB","wspd":2,"visib":"6+","altim":1018,"clouds":[{"cover":"SCT","base":4000},{"cover":"FEW","base":5000}],"obsTime":1776888000},"SBPP":{"icaoId":"SBPP","flightCategory":"VFR","rawOb":"METAR SBPP 222000Z 05005KT CAVOK 27/19 Q1016","temp":27,"dewp":19,"wdir":50,"wspd":5,"visib":"6+","altim":1016,"clouds":[],"obsTime":1776888000},"SBAR":{"icaoId":"SBAR","flightCategory":"LIFR","rawOb":"SPECI SBAR 221914Z 15009KT 1000 RA BR BKN008 FEW023TCU BKN040 BKN100 25/24 Q1012","temp":25,"dewp":24,"wdir":150,"wspd":9,"visib":0.62,"altim":1012,"clouds":[{"cover":"BKN","base":800},{"cover":"FEW","base":2300},{"cover":"BKN","base":4000},{"cover":"BKN","base":10000}],"obsTime":1776885240},"SBPS":{"icaoId":"SBPS","flightCategory":"VFR","rawOb":"METAR SBPS 222000Z 15006KT 080V210 9999 SCT020 26/22 Q1015","temp":26,"dewp":22,"wdir":150,"wspd":6,"visib":"6+","altim":1015,"clouds":[{"cover":"SCT","base":2000}],"obsTime":1776888000},"SBCJ":{"icaoId":"SBCJ","flightCategory":"VFR","rawOb":"METAR SBCJ 222000Z 12006KT 9999 -RA FEW025 SCT030 28/21 Q1013","temp":28,"dewp":21,"wdir":120,"wspd":6,"visib":"6+","altim":1013,"clouds":[{"cover":"FEW","base":2500},{"cover":"SCT","base":3000}],"obsTime":1776888000},"SBSC":{"icaoId":"SBSC","flightCategory":"VFR","rawOb":"METAR SBSC 222000Z 17006KT CAVOK 26/19 Q1015","temp":26,"dewp":19,"wdir":170,"wspd":6,"visib":"6+","altim":1015,"clouds":[],"obsTime":1776888000},"SBAX":{"icaoId":"SBAX","flightCategory":"VFR","rawOb":"METAR SBAX 222000Z 01003KT 9999 FEW040 26/17 Q1018","temp":26,"dewp":17,"wdir":10,"wspd":3,"visib":"6+","altim":1018,"clouds":[{"cover":"FEW","base":4000}],"obsTime":1776888000},"SBSJ":{"icaoId":"SBSJ","flightCategory":"VFR","rawOb":"METAR SBSJ 222000Z 15007KT 9999 SCT040 26/17 Q1017","temp":26,"dewp":17,"wdir":150,"wspd":7,"visib":"6+","altim":1017,"clouds":[{"cover":"SCT","base":4000}],"obsTime":1776888000},"SBCO":{"icaoId":"SBCO","flightCategory":"VFR","rawOb":"METAR SBCO 222000Z 26004KT 9999 FEW035 29/20 Q1014","temp":29,"dewp":20,"wdir":260,"wspd":4,"visib":"6+","altim":1014,"clouds":[{"cover":"FEW","base":3500}],"obsTime":1776888000},"SBSM":{"icaoId":"SBSM","flightCategory":"VFR","rawOb":"METAR SBSM 222000Z VRB02KT 9999 SCT040 27/21 Q1015","temp":27,"dewp":21,"wdir":"VRB","wspd":2,"visib":"6+","altim":1015,"clouds":[{"cover":"SCT","base":4000}],"obsTime":1776888000},"SBDN":{"icaoId":"SBDN","flightCategory":"VFR","rawOb":"METAR SBDN 222000Z 15008KT CAVOK 30/14 Q1015","temp":30,"dewp":14,"wdir":150,"wspd":8,"visib":"6+","altim":1015,"clouds":[],"obsTime":1776888000},"SBTF":{"icaoId":"SBTF","flightCategory":"VFR","rawOb":"METAR SBTF 222000Z 17004KT 9999 FEW015 BKN090 29/25 Q1009","temp":29,"dewp":25,"wdir":170,"wspd":4,"visib":"6+","altim":1009,"clouds":[{"cover":"FEW","base":1500},{"cover":"BKN","base":9000}],"obsTime":1776888000},"SBBH":{"icaoId":"SBBH","flightCategory":"VFR","rawOb":"METAR SBBH 222000Z 08005KT 9999 SCT049 26/17 Q1017","temp":26,"dewp":17,"wdir":80,"wspd":5,"visib":"6+","altim":1017,"clouds":[{"cover":"SCT","base":4900}],"obsTime":1776888000},"SBBQ":{"icaoId":"SBBQ","flightCategory":"VFR","rawOb":"METAR SBBQ 222000Z 09004KT 050V120 9999 SCT035 21/17 Q1021","temp":21,"dewp":17,"wdir":90,"wspd":4,"visib":"6+","altim":1021,"clouds":[{"cover":"SCT","base":3500}],"obsTime":1776888000},"SBCC":{"icaoId":"SBCC","flightCategory":"VFR","rawOb":"METAR SBCC 222000Z 07009KT 9999 SCT025 29/21 Q1010","temp":29,"dewp":21,"wdir":70,"wspd":9,"visib":"6+","altim":1010,"clouds":[{"cover":"SCT","base":2500}],"obsTime":1776888000},"SBSR":{"icaoId":"SBSR","flightCategory":"VFR","rawOb":"METAR SBSR 222000Z 20006KT 9999 FEW045 31/15 Q1014","temp":31,"dewp":15,"wdir":200,"wspd":6,"visib":"6+","altim":1014,"clouds":[{"cover":"FEW","base":4500}],"obsTime":1776888000},"SBJP":{"icaoId":"SBJP","flightCategory":"VFR","rawOb":"METAR SBJP 222000Z 12008KT CAVOK 27/23 Q1010","temp":27,"dewp":23,"wdir":120,"wspd":8,"visib":"6+","altim":1010,"clouds":[],"obsTime":1776888000},"SBLE":{"icaoId":"SBLE","flightCategory":"VFR","rawOb":"METAR SBLE 222000Z AUTO 14003KT 9999 FEW049 27/20 Q1015","temp":27,"dewp":20,"wdir":140,"wspd":3,"visib":"6+","altim":1015,"clouds":[{"cover":"FEW","base":4900}],"obsTime":1776888000},"SBAN":{"icaoId":"SBAN","flightCategory":"VFR","rawOb":"METAR SBAN 222000Z 03002KT 9999 FEW040 FEW045TCU 27/18 Q1018","temp":27,"dewp":18,"wdir":30,"wspd":2,"visib":"6+","altim":1018,"clouds":[{"cover":"FEW","base":4000},{"cover":"FEW","base":4500}],"obsTime":1776888000},"SBIH":{"icaoId":"SBIH","flightCategory":"VFR","rawOb":"METAR SBIH 222000Z 05004KT 9999 FEW020 FEW025TCU 32/23 Q1006","temp":32,"dewp":23,"wdir":50,"wspd":4,"visib":"6+","altim":1006,"clouds":[{"cover":"FEW","base":2000},{"cover":"FEW","base":2500}],"obsTime":1776888000},"SBAF":{"icaoId":"SBAF","flightCategory":"VFR","rawOb":"METAR SBAF 222000Z 19011KT 9999 FEW030 25/20 Q1015","temp":25,"dewp":20,"wdir":190,"wspd":11,"visib":"6+","altim":1015,"clouds":[{"cover":"FEW","base":3000}],"obsTime":1776888000},"SBGW":{"icaoId":"SBGW","flightCategory":"VFR","rawOb":"METAR SBGW 222000Z 02003KT 9999 FEW030 26/15 Q1016","temp":26,"dewp":15,"wdir":20,"wspd":3,"visib":"6+","altim":1016,"clouds":[{"cover":"FEW","base":3000}],"obsTime":1776888000},"SBJR":{"icaoId":"SBJR","flightCategory":"VFR","rawOb":"METAR SBJR 222000Z 15007KT CAVOK 26/19 Q1015","temp":26,"dewp":19,"wdir":150,"wspd":7,"visib":"6+","altim":1015,"clouds":[],"obsTime":1776888000},"SBLS":{"icaoId":"SBLS","flightCategory":"VFR","rawOb":"METAR SBLS 222000Z 12004KT 9999 SCT045 25/17 Q1018","temp":25,"dewp":17,"wdir":120,"wspd":4,"visib":"6+","altim":1018,"clouds":[{"cover":"SCT","base":4500}],"obsTime":1776888000},"SBMT":{"icaoId":"SBMT","flightCategory":"VFR","rawOb":"METAR SBMT 222000Z 15008KT CAVOK 22/17 Q1018","temp":22,"dewp":17,"wdir":150,"wspd":8,"visib":"6+","altim":1018,"clouds":[],"obsTime":1776888000},"SBST":{"icaoId":"SBST","flightCategory":"VFR","rawOb":"METAR SBST 222000Z 17005KT 9999 FEW025 OVC040 24/18 Q1016","temp":24,"dewp":18,"wdir":170,"wspd":5,"visib":"6+","altim":1016,"clouds":[{"cover":"FEW","base":2500},{"cover":"OVC","base":4000}],"obsTime":1776888000},"SBTA":{"icaoId":"SBTA","flightCategory":"VFR","rawOb":"METAR SBTA 222000Z VRB01KT 9999 SCT040 25/19 Q1016","temp":25,"dewp":19,"wdir":"VRB","wspd":1,"visib":"6+","altim":1016,"clouds":[{"cover":"SCT","base":4000}],"obsTime":1776888000},"SBJV":{"icaoId":"SBJV","flightCategory":"VFR","rawOb":"METAR SBJV 222000Z 06005KT CAVOK 28/20 Q1015","temp":28,"dewp":20,"wdir":60,"wspd":5,"visib":"6+","altim":1015,"clouds":[],"obsTime":1776888000},"SBNM":{"icaoId":"SBNM","flightCategory":"VFR","rawOb":"METAR SBNM 222100Z 23002KT 9999 FEW030 27/21 Q1016","temp":27,"dewp":21,"wdir":230,"wspd":2,"visib":"6+","altim":1016,"clouds":[{"cover":"FEW","base":3000}],"obsTime":1776891600},"SBPF":{"icaoId":"SBPF","flightCategory":"VFR","rawOb":"METAR SBPF 222000Z 24006KT CAVOK 24/18 Q1018","temp":24,"dewp":18,"wdir":240,"wspd":6,"visib":"6+","altim":1018,"clouds":[],"obsTime":1776888000}}}