{"updated":1778746957,"count":51,"data":{"SBMG":{"icaoId":"SBMG","flightCategory":"VFR","rawOb":"METAR SBMG 140700Z AUTO 04003KT CAVOK 17/10 Q1016","temp":17,"dewp":10,"wdir":40,"wspd":3,"visib":"6+","altim":1016,"clouds":[],"obsTime":1778742000},"SBCG":{"icaoId":"SBCG","flightCategory":"VFR","rawOb":"METAR SBCG 140700Z 05006KT CAVOK 18/13 Q1016","temp":18,"dewp":13,"wdir":50,"wspd":6,"visib":"6+","altim":1016,"clouds":[],"obsTime":1778742000},"SBMO":{"icaoId":"SBMO","flightCategory":"VFR","rawOb":"METAR SBMO 140700Z 30003KT 9999 SCT023 22/22 Q1014","temp":22,"dewp":22,"wdir":300,"wspd":3,"visib":"6+","altim":1014,"clouds":[{"cover":"SCT","base":2300}],"obsTime":1778742000},"SBFL":{"icaoId":"SBFL","flightCategory":"VFR","rawOb":"METAR SBFL 140700Z 30004KT CAVOK 14/12 Q1016","temp":14,"dewp":12,"wdir":300,"wspd":4,"visib":"6+","altim":1016,"clouds":[],"obsTime":1778742000},"SBMK":{"icaoId":"SBMK","flightCategory":"VFR","rawOb":"METAR SBMK 140800Z 00000KT CAVOK 19/17 Q1019","temp":19,"dewp":17,"wdir":0,"wspd":0,"visib":"6+","altim":1019,"clouds":[],"obsTime":1778745600},"SBMQ":{"icaoId":"SBMQ","flightCategory":"VFR","rawOb":"METAR SBMQ 140700Z 32002KT 9999 FEW040 BKN100 25/24 Q1013","temp":25,"dewp":24,"wdir":320,"wspd":2,"visib":"6+","altim":1013,"clouds":[{"cover":"FEW","base":4000},{"cover":"BKN","base":10000}],"obsTime":1778742000},"SBFZ":{"icaoId":"SBFZ","flightCategory":"VFR","rawOb":"METAR SBFZ 140700Z 14004KT 9999 FEW019 BKN080 25/24 Q1011","temp":25,"dewp":24,"wdir":140,"wspd":4,"visib":"6+","altim":1011,"clouds":[{"cover":"FEW","base":1900},{"cover":"BKN","base":8000}],"obsTime":1778742000},"SBNT":{"icaoId":"SBNT","flightCategory":"VFR","rawOb":"METAR SBNT 140700Z 21004KT 9999 FEW025 SCT100 24/22 Q1012","temp":24,"dewp":22,"wdir":210,"wspd":4,"visib":"6+","altim":1012,"clouds":[{"cover":"FEW","base":2500},{"cover":"SCT","base":10000}],"obsTime":1778742000},"SBGL":{"icaoId":"SBGL","flightCategory":"MVFR","rawOb":"METAR SBGL 140700Z 33005KT 6000 FEW040 BKN050 20/18 Q1015","temp":20,"dewp":18,"wdir":330,"wspd":5,"visib":3.73,"altim":1015,"clouds":[{"cover":"FEW","base":4000},{"cover":"BKN","base":5000}],"obsTime":1778742000},"SBBV":{"icaoId":"SBBV","flightCategory":"MVFR","rawOb":"METAR SBBV 140700Z 07004KT 9999 FEW020 BKN030 FEW035TCU BKN070 25/24 Q1013","temp":25,"dewp":24,"wdir":70,"wspd":4,"visib":"6+","altim":1013,"clouds":[{"cover":"FEW","base":2000},{"cover":"BKN","base":3000},{"cover":"FEW","base":3500},{"cover":"BKN","base":7000}],"obsTime":1778742000},"SBPA":{"icaoId":"SBPA","flightCategory":"MVFR","rawOb":"METAR SBPA 140700Z 26001KT 7000 NSC 09/08 Q1016","temp":9,"dewp":8,"wdir":260,"wspd":1,"visib":4.35,"altim":1016,"clouds":[],"obsTime":1778742000},"SBCT":{"icaoId":"SBCT","flightCategory":"IFR","rawOb":"METAR SBCT 140700Z 07001KT 2000 0500E R15/0400 R33/P2000 PRFG FEW002 07/07 Q1019","temp":7,"dewp":7,"wdir":70,"wspd":1,"visib":1.24,"altim":1019,"clouds":[{"cover":"FEW","base":200}],"obsTime":1778742000},"SBPJ":{"icaoId":"SBPJ","flightCategory":"VFR","rawOb":"METAR SBPJ 140700Z 14003KT 9999 FEW033 24/21 Q1013","temp":24,"dewp":21,"wdir":140,"wspd":3,"visib":"6+","altim":1013,"clouds":[{"cover":"FEW","base":3300}],"obsTime":1778742000},"SBGO":{"icaoId":"SBGO","flightCategory":"VFR","rawOb":"METAR SBGO 140700Z 31003KT CAVOK 19/18 Q1017","temp":19,"dewp":18,"wdir":310,"wspd":3,"visib":"6+","altim":1017,"clouds":[],"obsTime":1778742000},"SBPV":{"icaoId":"SBPV","flightCategory":"VFR","rawOb":"METAR SBPV 140700Z 00000KT 9999 FEW020 23/20 Q1013","temp":23,"dewp":20,"wdir":0,"wspd":0,"visib":"6+","altim":1013,"clouds":[{"cover":"FEW","base":2000}],"obsTime":1778742000},"SBGR":{"icaoId":"SBGR","flightCategory":"MVFR","rawOb":"METAR SBGR 140700Z 06002KT 5000 BR NSC 13/12 Q1018","temp":13,"dewp":12,"wdir":60,"wspd":2,"visib":3.11,"altim":1018,"clouds":[],"obsTime":1778742000},"SBRB":{"icaoId":"SBRB","flightCategory":"VFR","rawOb":"METAR SBRB 140700Z 00000KT 9999 SCT025 21/21 Q1014","temp":21,"dewp":21,"wdir":0,"wspd":0,"visib":"6+","altim":1014,"clouds":[{"cover":"SCT","base":2500}],"obsTime":1778742000},"SBRF":{"icaoId":"SBRF","flightCategory":"VFR","rawOb":"METAR SBRF 140700Z 23002KT 9999 SCT020 SCT060 24/23 Q1012","temp":24,"dewp":23,"wdir":230,"wspd":2,"visib":"6+","altim":1012,"clouds":[{"cover":"SCT","base":2000},{"cover":"SCT","base":6000}],"obsTime":1778742000},"SBBR":{"icaoId":"SBBR","flightCategory":"VFR","rawOb":"METAR SBBR 140700Z VRB02KT CAVOK 17/16 Q1020","temp":17,"dewp":16,"wdir":"VRB","wspd":2,"visib":"6+","altim":1020,"clouds":[],"obsTime":1778742000},"SBSG":{"icaoId":"SBSG","flightCategory":"VFR","rawOb":"METAR SBSG 140700Z VRB02KT 9999 FEW023 BKN100 23/23 Q1013","temp":23,"dewp":23,"wdir":"VRB","wspd":2,"visib":"6+","altim":1013,"clouds":[{"cover":"FEW","base":2300},{"cover":"BKN","base":10000}],"obsTime":1778742000},"SBJU":{"icaoId":"SBJU","flightCategory":"VFR","rawOb":"METAR SBJU 140700Z 00000KT 9999 FEW020 23/21 Q1014","temp":23,"dewp":21,"wdir":0,"wspd":0,"visib":"6+","altim":1014,"clouds":[{"cover":"FEW","base":2000}],"obsTime":1778742000},"SBSL":{"icaoId":"SBSL","flightCategory":"VFR","rawOb":"METAR SBSL 140700Z 20003KT 9999 FEW013 SCT025 BKN100 25/25 Q1011","temp":25,"dewp":25,"wdir":200,"wspd":3,"visib":"6+","altim":1011,"clouds":[{"cover":"FEW","base":1300},{"cover":"SCT","base":2500},{"cover":"BKN","base":10000}],"obsTime":1778742000},"SBEG":{"icaoId":"SBEG","flightCategory":"VFR","rawOb":"METAR SBEG 140700Z VRB01KT 9999 SCT030 FEW035TCU BKN070 24/24 Q1013","temp":24,"dewp":24,"wdir":"VRB","wspd":1,"visib":"6+","altim":1013,"clouds":[{"cover":"SCT","base":3000},{"cover":"FEW","base":3500},{"cover":"BKN","base":7000}],"obsTime":1778742000},"SBSN":{"icaoId":"SBSN","flightCategory":"VFR","rawOb":"METAR SBSN 140700Z 16001KT 9999 FEW010 BKN100 24/23 Q1012","temp":24,"dewp":23,"wdir":160,"wspd":1,"visib":"6+","altim":1012,"clouds":[{"cover":"FEW","base":1000},{"cover":"BKN","base":10000}],"obsTime":1778742000},"SBKP":{"icaoId":"SBKP","flightCategory":"VFR","rawOb":"METAR SBKP 140700Z 11005KT CAVOK 15/12 Q1017","temp":15,"dewp":12,"wdir":110,"wspd":5,"visib":"6+","altim":1017,"clouds":[],"obsTime":1778742000},"SBSP":{"icaoId":"SBSP","flightCategory":"VFR","rawOb":"METAR SBSP 140700Z AUTO 15002KT CAVOK 15/12 Q1019","temp":15,"dewp":12,"wdir":150,"wspd":2,"visib":"6+","altim":1019,"clouds":[],"obsTime":1778742000},"SBLO":{"icaoId":"SBLO","flightCategory":"VFR","rawOb":"METAR SBLO 140700Z 22003KT CAVOK 13/11 Q1017","temp":13,"dewp":11,"wdir":220,"wspd":3,"visib":"6+","altim":1017,"clouds":[],"obsTime":1778742000},"SBSV":{"icaoId":"SBSV","flightCategory":"VFR","rawOb":"METAR SBSV 140700Z 27003KT 9999 SCT023 24/22 Q1014","temp":24,"dewp":22,"wdir":270,"wspd":3,"visib":"6+","altim":1014,"clouds":[{"cover":"SCT","base":2300}],"obsTime":1778742000},"SBCF":{"icaoId":"SBCF","flightCategory":"MVFR","rawOb":"METAR SBCF 140700Z 14003KT 7000 SCT040 BKN100 18/18 Q1020","temp":18,"dewp":18,"wdir":140,"wspd":3,"visib":4.35,"altim":1020,"clouds":[{"cover":"SCT","base":4000},{"cover":"BKN","base":10000}],"obsTime":1778742000},"SBTE":{"icaoId":"SBTE","flightCategory":"VFR","rawOb":"METAR SBTE 140700Z 32003KT 9999 SCT020 SCT090 26/25 Q1011","temp":26,"dewp":25,"wdir":320,"wspd":3,"visib":"6+","altim":1011,"clouds":[{"cover":"SCT","base":2000},{"cover":"SCT","base":9000}],"obsTime":1778742000},"SBFI":{"icaoId":"SBFI","flightCategory":"VFR","rawOb":"METAR SBFI 140700Z 10003KT CAVOK 11/11 Q1015","temp":11,"dewp":11,"wdir":100,"wspd":3,"visib":"6+","altim":1015,"clouds":[],"obsTime":1778742000},"SBUL":{"icaoId":"SBUL","flightCategory":"VFR","rawOb":"METAR SBUL 140700Z 13004KT 9999 SCT045 19/14 Q1019","temp":19,"dewp":14,"wdir":130,"wspd":4,"visib":"6+","altim":1019,"clouds":[{"cover":"SCT","base":4500}],"obsTime":1778742000},"SBMA":{"icaoId":"SBMA","flightCategory":"IFR","rawOb":"METAR SBMA 140700Z 33003KT 3000 -DZ BR BKN006 24/24 Q1013","temp":24,"dewp":24,"wdir":330,"wspd":3,"visib":1.86,"altim":1013,"clouds":[{"cover":"BKN","base":600}],"obsTime":1778742000},"SBUR":{"icaoId":"SBUR","flightCategory":"VFR","rawOb":"METAR SBUR 140700Z 03005KT CAVOK 19/13 Q1017","temp":19,"dewp":13,"wdir":30,"wspd":5,"visib":"6+","altim":1017,"clouds":[],"obsTime":1778742000},"SBVT":{"icaoId":"SBVT","flightCategory":"VFR","rawOb":"METAR SBVT 140700Z 00000KT CAVOK 20/19 Q1015","temp":20,"dewp":19,"wdir":0,"wspd":0,"visib":"6+","altim":1015,"clouds":[],"obsTime":1778742000},"SBBE":{"icaoId":"SBBE","flightCategory":"VFR","rawOb":"METAR SBBE 140700Z 19004KT 9999 FEW017 23/22 Q1013","temp":23,"dewp":22,"wdir":190,"wspd":4,"visib":"6+","altim":1013,"clouds":[{"cover":"FEW","base":1700}],"obsTime":1778742000},"SBME":{"icaoId":"SBME","flightCategory":"VFR","rawOb":"METAR SBME 140700Z 23001KT CAVOK 19/18 Q1015","temp":19,"dewp":18,"wdir":230,"wspd":1,"visib":"6+","altim":1015,"clouds":[],"obsTime":1778742000},"SBOI":{"icaoId":"SBOI","flightCategory":"LIFR","rawOb":"METAR SBOI 140800Z AUTO 25002KT 9999 // BKN003/// BKN030/// BKN099/// 24/23 Q1013","temp":24,"dewp":23,"wdir":250,"wspd":2,"visib":"6+","altim":1013,"clouds":[{"cover":"BKN","base":300},{"cover":"BKN","base":3000},{"cover":"BKN","base":9900}],"obsTime":1778745600},"SBIP":{"icaoId":"SBIP","flightCategory":"VFR","rawOb":"METAR SBIP 140700Z AUTO 36002KT CAVOK 19/19 Q1017","temp":19,"dewp":19,"wdir":360,"wspd":2,"visib":"6+","altim":1017,"clouds":[],"obsTime":1778742000},"SBPS":{"icaoId":"SBPS","flightCategory":"VFR","rawOb":"METAR SBPS 140700Z 28004KT 9999 FEW020 21/21 Q1016","temp":21,"dewp":21,"wdir":280,"wspd":4,"visib":"6+","altim":1016,"clouds":[{"cover":"FEW","base":2000}],"obsTime":1778742000},"SBDN":{"icaoId":"SBDN","flightCategory":"VFR","rawOb":"METAR SBDN 140700Z 14004KT CAVOK 15/08 Q1015","temp":15,"dewp":8,"wdir":140,"wspd":4,"visib":"6+","altim":1015,"clouds":[],"obsTime":1778742000},"SBSC":{"icaoId":"SBSC","flightCategory":"MVFR","rawOb":"METAR SBSC 140700Z 07003KT 6000 FEW012 BKN050 18/16 Q1016","temp":18,"dewp":16,"wdir":70,"wspd":3,"visib":3.73,"altim":1016,"clouds":[{"cover":"FEW","base":1200},{"cover":"BKN","base":5000}],"obsTime":1778742000},"SBKG":{"icaoId":"SBKG","flightCategory":"VFR","rawOb":"METAR SBKG 140700Z 00000KT CAVOK 21/20 Q1015","temp":21,"dewp":20,"wdir":0,"wspd":0,"visib":"6+","altim":1015,"clouds":[],"obsTime":1778742000},"SBSR":{"icaoId":"SBSR","flightCategory":"VFR","rawOb":"METAR SBSR 140700Z 00000KT 9999 FEW030 SCT070 18/11 Q1016","temp":18,"dewp":11,"wdir":0,"wspd":0,"visib":"6+","altim":1016,"clouds":[{"cover":"FEW","base":3000},{"cover":"SCT","base":7000}],"obsTime":1778742000},"SBTU":{"icaoId":"SBTU","flightCategory":"VFR","rawOb":"METAR SBTU 140700Z AUTO 19004KT 170V250 9999 // ///////// ///// Q1015","temp":null,"dewp":null,"wdir":190,"wspd":4,"visib":"6+","altim":1015,"clouds":[],"obsTime":1778742000},"SBPL":{"icaoId":"SBPL","flightCategory":"VFR","rawOb":"METAR SBPL 140700Z 14003KT CAVOK 23/20 Q1015","temp":23,"dewp":20,"wdir":140,"wspd":3,"visib":"6+","altim":1015,"clouds":[],"obsTime":1778742000},"SBAR":{"icaoId":"SBAR","flightCategory":"VFR","rawOb":"METAR SBAR 140700Z VRB02KT 9999 SCT025 23/22 Q1014","temp":23,"dewp":22,"wdir":"VRB","wspd":2,"visib":"6+","altim":1014,"clouds":[{"cover":"SCT","base":2500}],"obsTime":1778742000},"SBAN":{"icaoId":"SBAN","flightCategory":"VFR","rawOb":"METAR SBAN 140700Z 30002KT CAVOK 16/14 Q1020","temp":16,"dewp":14,"wdir":300,"wspd":2,"visib":"6+","altim":1020,"clouds":[],"obsTime":1778742000},"SBLE":{"icaoId":"SBLE","flightCategory":"VFR","rawOb":"METAR SBLE 140700Z AUTO 11003KT 9999 FEW018 SCT023 OVC038 ///// Q////","temp":null,"dewp":null,"wdir":110,"wspd":3,"visib":"6+","altim":null,"clouds":[{"cover":"FEW","base":1800},{"cover":"SCT","base":2300},{"cover":"OVC","base":3800}],"obsTime":1778742000},"SBJP":{"icaoId":"SBJP","flightCategory":"VFR","rawOb":"METAR SBJP 140700Z 21006KT 9999 FEW020 23/23 Q1013","temp":23,"dewp":23,"wdir":210,"wspd":6,"visib":"6+","altim":1013,"clouds":[{"cover":"FEW","base":2000}],"obsTime":1778742000},"SBNM":{"icaoId":"SBNM","flightCategory":"VFR","rawOb":"METAR SBNM 140700Z AUTO 11006KT CAVOK 07/06 Q1016","temp":7,"dewp":6,"wdir":110,"wspd":6,"visib":"6+","altim":1016,"clouds":[],"obsTime":1778742000}}}