{"updated":1776361695,"count":86,"data":{"SBEG":{"icaoId":"SBEG","flightCategory":"VFR","rawOb":"METAR SBEG 161600Z 05006KT 9999 SCT020 SCT100 31/24 Q1010","temp":31,"dewp":24,"wdir":50,"wspd":6,"visib":"6+","altim":1010,"clouds":[{"cover":"SCT","base":2000},{"cover":"SCT","base":10000}],"obsTime":1776355200},"SBAT":{"icaoId":"SBAT","flightCategory":"MVFR","rawOb":"METAR SBAT 161600Z 06004KT 9999 VCSH BKN030 FEW035TCU 30/25 Q1010","temp":30,"dewp":25,"wdir":60,"wspd":4,"visib":"6+","altim":1010,"clouds":[{"cover":"BKN","base":3000},{"cover":"FEW","base":3500}],"obsTime":1776355200},"SBBE":{"icaoId":"SBBE","flightCategory":"VFR","rawOb":"METAR SBBE 161600Z 10005KT 9999 SCT030 FEW040TCU 31/24 Q1008","temp":31,"dewp":24,"wdir":100,"wspd":5,"visib":"6+","altim":1008,"clouds":[{"cover":"SCT","base":3000},{"cover":"FEW","base":4000}],"obsTime":1776355200},"SBBR":{"icaoId":"SBBR","flightCategory":"VFR","rawOb":"METAR SBBR 161600Z 08009KT 9999 SCT030 BKN080 25/18 Q1016","temp":25,"dewp":18,"wdir":80,"wspd":9,"visib":"6+","altim":1016,"clouds":[{"cover":"SCT","base":3000},{"cover":"BKN","base":8000}],"obsTime":1776355200},"SBBV":{"icaoId":"SBBV","flightCategory":"MVFR","rawOb":"METAR SBBV 161600Z 09010KT 9999 BKN030 32/22 Q1011","temp":32,"dewp":22,"wdir":90,"wspd":10,"visib":"6+","altim":1011,"clouds":[{"cover":"BKN","base":3000}],"obsTime":1776355200},"SBCB":{"icaoId":"SBCB","flightCategory":"VFR","rawOb":"METAR SBCB 161600Z 20007KT 9999 SCT015 SCT070 26/21 Q1013","temp":26,"dewp":21,"wdir":200,"wspd":7,"visib":"6+","altim":1013,"clouds":[{"cover":"SCT","base":1500},{"cover":"SCT","base":7000}],"obsTime":1776355200},"SBCF":{"icaoId":"SBCF","flightCategory":"VFR","rawOb":"METAR SBCF 161600Z 33001KT 9999 BKN040 26/14 Q1016","temp":26,"dewp":14,"wdir":330,"wspd":1,"visib":"6+","altim":1016,"clouds":[{"cover":"BKN","base":4000}],"obsTime":1776355200},"SBCG":{"icaoId":"SBCG","flightCategory":"VFR","rawOb":"METAR SBCG 161600Z 29007KT 250V320 9999 FEW028 SCT045 29/21 Q1012","temp":29,"dewp":21,"wdir":290,"wspd":7,"visib":"6+","altim":1012,"clouds":[{"cover":"FEW","base":2800},{"cover":"SCT","base":4500}],"obsTime":1776355200},"SBCP":{"icaoId":"SBCP","flightCategory":"MVFR","rawOb":"METAR SBCP 161600Z 13007KT 9999 BKN020 BKN090 27/23 Q1012","temp":27,"dewp":23,"wdir":130,"wspd":7,"visib":"6+","altim":1012,"clouds":[{"cover":"BKN","base":2000},{"cover":"BKN","base":9000}],"obsTime":1776355200},"SBCR":{"icaoId":"SBCR","flightCategory":"MVFR","rawOb":"METAR SBCR 161600Z 24006KT 200V270 9999 SCT020 BKN030 28/24 Q1010","temp":28,"dewp":24,"wdir":240,"wspd":6,"visib":"6+","altim":1010,"clouds":[{"cover":"SCT","base":2000},{"cover":"BKN","base":3000}],"obsTime":1776355200},"SBCT":{"icaoId":"SBCT","flightCategory":"VFR","rawOb":"METAR SBCT 161600Z 03005KT 9999 SCT030 25/16 Q1016","temp":25,"dewp":16,"wdir":30,"wspd":5,"visib":"6+","altim":1016,"clouds":[{"cover":"SCT","base":3000}],"obsTime":1776355200},"SBCZ":{"icaoId":"SBCZ","flightCategory":"VFR","rawOb":"METAR SBCZ 161600Z 27007KT 9999 SCT015 OVC100 29/24 Q1011","temp":29,"dewp":24,"wdir":270,"wspd":7,"visib":"6+","altim":1011,"clouds":[{"cover":"SCT","base":1500},{"cover":"OVC","base":10000}],"obsTime":1776355200},"SBFI":{"icaoId":"SBFI","flightCategory":"MVFR","rawOb":"METAR SBFI 161600Z 34004KT 9999 BKN020 OVC035 26/22 Q1011","temp":26,"dewp":22,"wdir":340,"wspd":4,"visib":"6+","altim":1011,"clouds":[{"cover":"BKN","base":2000},{"cover":"OVC","base":3500}],"obsTime":1776355200},"SBFL":{"icaoId":"SBFL","flightCategory":"VFR","rawOb":"METAR SBFL 161600Z 35010KT 9999 FEW045 BKN100 27/21 Q1012","temp":27,"dewp":21,"wdir":350,"wspd":10,"visib":"6+","altim":1012,"clouds":[{"cover":"FEW","base":4500},{"cover":"BKN","base":10000}],"obsTime":1776355200},"SBFZ":{"icaoId":"SBFZ","flightCategory":"VFR","rawOb":"METAR SBFZ 161600Z 10012KT 9999 SCT025 BKN090 30/23 Q1008","temp":30,"dewp":23,"wdir":100,"wspd":12,"visib":"6+","altim":1008,"clouds":[{"cover":"SCT","base":2500},{"cover":"BKN","base":9000}],"obsTime":1776355200},"SBGL":{"icaoId":"SBGL","flightCategory":"VFR","rawOb":"METAR SBGL 161600Z 13008KT 9999 FEW030 28/21 Q1012","temp":28,"dewp":21,"wdir":130,"wspd":8,"visib":"6+","altim":1012,"clouds":[{"cover":"FEW","base":3000}],"obsTime":1776355200},"SBGO":{"icaoId":"SBGO","flightCategory":"VFR","rawOb":"METAR SBGO 161600Z 05006KT 360V100 9999 BKN043 29/19 Q1014","temp":29,"dewp":19,"wdir":50,"wspd":6,"visib":"6+","altim":1014,"clouds":[{"cover":"BKN","base":4300}],"obsTime":1776355200},"SBGR":{"icaoId":"SBGR","flightCategory":"VFR","rawOb":"METAR SBGR 161600Z 10005KT CAVOK 28/15 Q1016","temp":28,"dewp":15,"wdir":100,"wspd":5,"visib":"6+","altim":1016,"clouds":[],"obsTime":1776355200},"SBHT":{"icaoId":"SBHT","flightCategory":"MVFR","rawOb":"METAR SBHT 161600Z 02004KT 9999 BKN023 29/25 Q1009","temp":29,"dewp":25,"wdir":20,"wspd":4,"visib":"6+","altim":1009,"clouds":[{"cover":"BKN","base":2300}],"obsTime":1776355200},"SBIL":{"icaoId":"SBIL","flightCategory":"VFR","rawOb":"METAR SBIL 161600Z 15006KT 120V190 9999 SCT024 30/23 Q1011","temp":30,"dewp":23,"wdir":150,"wspd":6,"visib":"6+","altim":1011,"clouds":[{"cover":"SCT","base":2400}],"obsTime":1776355200},"SBJU":{"icaoId":"SBJU","flightCategory":"VFR","rawOb":"METAR SBJU 161600Z 13005KT 9999 SCT022 30/21 Q1011","temp":30,"dewp":21,"wdir":130,"wspd":5,"visib":"6+","altim":1011,"clouds":[{"cover":"SCT","base":2200}],"obsTime":1776355200},"SBKP":{"icaoId":"SBKP","flightCategory":"VFR","rawOb":"METAR SBKP 161600Z VRB04KT 9999 FEW040 27/13 Q1015","temp":27,"dewp":13,"wdir":"VRB","wspd":4,"visib":"6+","altim":1015,"clouds":[{"cover":"FEW","base":4000}],"obsTime":1776355200},"SBLO":{"icaoId":"SBLO","flightCategory":"VFR","rawOb":"METAR SBLO 161600Z 07008KT 9999 FEW020 27/17 Q1014","temp":27,"dewp":17,"wdir":70,"wspd":8,"visib":"6+","altim":1014,"clouds":[{"cover":"FEW","base":2000}],"obsTime":1776355200},"SBMA":{"icaoId":"SBMA","flightCategory":"VFR","rawOb":"METAR SBMA 161600Z 03004KT 9999 SCT020 31/25 Q1009","temp":31,"dewp":25,"wdir":30,"wspd":4,"visib":"6+","altim":1009,"clouds":[{"cover":"SCT","base":2000}],"obsTime":1776355200},"SBME":{"icaoId":"SBME","flightCategory":"VFR","rawOb":"METAR SBME 161600Z 17006KT 9999 FEW030 29/21 Q1012","temp":29,"dewp":21,"wdir":170,"wspd":6,"visib":"6+","altim":1012,"clouds":[{"cover":"FEW","base":3000}],"obsTime":1776355200},"SBMG":{"icaoId":"SBMG","flightCategory":"VFR","rawOb":"METAR SBMG 161600Z 04011KT 9999 FEW045 BKN070 27/18 Q1012","temp":27,"dewp":18,"wdir":40,"wspd":11,"visib":"6+","altim":1012,"clouds":[{"cover":"FEW","base":4500},{"cover":"BKN","base":7000}],"obsTime":1776355200},"SBMK":{"icaoId":"SBMK","flightCategory":"VFR","rawOb":"METAR SBMK 161600Z 12005KT 9999 BKN040 28/15 Q1014","temp":28,"dewp":15,"wdir":120,"wspd":5,"visib":"6+","altim":1014,"clouds":[{"cover":"BKN","base":4000}],"obsTime":1776355200},"SBMO":{"icaoId":"SBMO","flightCategory":"VFR","rawOb":"METAR SBMO 161600Z 16009KT 9999 SCT030 29/23 Q1010","temp":29,"dewp":23,"wdir":160,"wspd":9,"visib":"6+","altim":1010,"clouds":[{"cover":"SCT","base":3000}],"obsTime":1776355200},"SBMQ":{"icaoId":"SBMQ","flightCategory":"IFR","rawOb":"METAR SBMQ 161600Z 03007KT 4000 -RA BR SCT004 BKN035 OVC060 25/25 Q1010 RERA","temp":25,"dewp":25,"wdir":30,"wspd":7,"visib":2.49,"altim":1010,"clouds":[{"cover":"SCT","base":400},{"cover":"BKN","base":3500},{"cover":"OVC","base":6000}],"obsTime":1776355200},"SBNT":{"icaoId":"SBNT","flightCategory":"VFR","rawOb":"METAR SBNT 161600Z 12012KT 090V160 9999 SCT020 SCT080 31/23 Q1009","temp":31,"dewp":23,"wdir":120,"wspd":12,"visib":"6+","altim":1009,"clouds":[{"cover":"SCT","base":2000},{"cover":"SCT","base":8000}],"obsTime":1776355200},"SBPA":{"icaoId":"SBPA","flightCategory":"VFR","rawOb":"METAR SBPA 161600Z 09008KT 9999 FEW035 SCT090 28/20 Q1008","temp":28,"dewp":20,"wdir":90,"wspd":8,"visib":"6+","altim":1008,"clouds":[{"cover":"FEW","base":3500},{"cover":"SCT","base":9000}],"obsTime":1776355200},"SBPJ":{"icaoId":"SBPJ","flightCategory":"VFR","rawOb":"METAR SBPJ 161600Z 21006KT 9999 TS VCSH FEW010 SCT020 FEW035CB BKN070 27/24 Q1010","temp":27,"dewp":24,"wdir":210,"wspd":6,"visib":"6+","altim":1010,"clouds":[{"cover":"FEW","base":1000},{"cover":"SCT","base":2000},{"cover":"FEW","base":3500},{"cover":"BKN","base":7000}],"obsTime":1776355200},"SBPV":{"icaoId":"SBPV","flightCategory":"VFR","rawOb":"METAR SBPV 161600Z 34003KT 9999 VCSH BKN033 32/26 Q1009","temp":32,"dewp":26,"wdir":340,"wspd":3,"visib":"6+","altim":1009,"clouds":[{"cover":"BKN","base":3300}],"obsTime":1776355200},"SBRB":{"icaoId":"SBRB","flightCategory":"VFR","rawOb":"METAR SBRB 161600Z 31003KT 260V010 9999 FEW009 SCT030 BKN090 29/24 Q1011","temp":29,"dewp":24,"wdir":310,"wspd":3,"visib":"6+","altim":1011,"clouds":[{"cover":"FEW","base":900},{"cover":"SCT","base":3000},{"cover":"BKN","base":9000}],"obsTime":1776355200},"SBRF":{"icaoId":"SBRF","flightCategory":"VFR","rawOb":"METAR SBRF 161600Z 15012KT 9999 SCT023 30/24 Q1009","temp":30,"dewp":24,"wdir":150,"wspd":12,"visib":"6+","altim":1009,"clouds":[{"cover":"SCT","base":2300}],"obsTime":1776355200},"SBSG":{"icaoId":"SBSG","flightCategory":"VFR","rawOb":"METAR SBSG 161600Z 12007KT 080V170 9999 SCT027 FEW033TCU 31/23 Q1009","temp":31,"dewp":23,"wdir":120,"wspd":7,"visib":"6+","altim":1009,"clouds":[{"cover":"SCT","base":2700},{"cover":"FEW","base":3300}],"obsTime":1776355200},"SBSL":{"icaoId":"SBSL","flightCategory":"MVFR","rawOb":"METAR SBSL 161600Z 05012KT 010V090 9999 BKN025 30/25 Q1009","temp":30,"dewp":25,"wdir":50,"wspd":12,"visib":"6+","altim":1009,"clouds":[{"cover":"BKN","base":2500}],"obsTime":1776355200},"SBSN":{"icaoId":"SBSN","flightCategory":"VFR","rawOb":"METAR SBSN 161600Z 09008KT 9999 SCT018 SCT040TCU 29/25 Q1009","temp":29,"dewp":25,"wdir":90,"wspd":8,"visib":"6+","altim":1009,"clouds":[{"cover":"SCT","base":1800},{"cover":"SCT","base":4000}],"obsTime":1776355200},"SBSP":{"icaoId":"SBSP","flightCategory":"VFR","rawOb":"METAR SBSP 161600Z VRB04KT CAVOK 26/12 Q1017","temp":26,"dewp":12,"wdir":"VRB","wspd":4,"visib":"6+","altim":1017,"clouds":[],"obsTime":1776355200},"SBSV":{"icaoId":"SBSV","flightCategory":"VFR","rawOb":"METAR SBSV 161600Z 16009KT 9999 SCT023 29/22 Q1011","temp":29,"dewp":22,"wdir":160,"wspd":9,"visib":"6+","altim":1011,"clouds":[{"cover":"SCT","base":2300}],"obsTime":1776355200},"SBTE":{"icaoId":"SBTE","flightCategory":"VFR","rawOb":"METAR SBTE 161600Z 10005KT 9999 SCT025 32/23 Q1008","temp":32,"dewp":23,"wdir":100,"wspd":5,"visib":"6+","altim":1008,"clouds":[{"cover":"SCT","base":2500}],"obsTime":1776355200},"SBUL":{"icaoId":"SBUL","flightCategory":"VFR","rawOb":"METAR SBUL 161600Z 04007KT 9999 SCT030 27/16 Q1016","temp":27,"dewp":16,"wdir":40,"wspd":7,"visib":"6+","altim":1016,"clouds":[{"cover":"SCT","base":3000}],"obsTime":1776355200},"SBUR":{"icaoId":"SBUR","flightCategory":"VFR","rawOb":"METAR SBUR 161600Z 16003KT CAVOK 28/15 Q1015","temp":28,"dewp":15,"wdir":160,"wspd":3,"visib":"6+","altim":1015,"clouds":[],"obsTime":1776355200},"SBVT":{"icaoId":"SBVT","flightCategory":"VFR","rawOb":"METAR SBVT 161600Z 16014KT 9999 FEW035 SCT080 28/22 Q1012","temp":28,"dewp":22,"wdir":160,"wspd":14,"visib":"6+","altim":1012,"clouds":[{"cover":"FEW","base":3500},{"cover":"SCT","base":8000}],"obsTime":1776355200},"SBKG":{"icaoId":"SBKG","flightCategory":"MVFR","rawOb":"METAR SBKG 161600Z 10008KT 9999 BKN030 29/21 Q1011","temp":29,"dewp":21,"wdir":100,"wspd":8,"visib":"6+","altim":1011,"clouds":[{"cover":"BKN","base":3000}],"obsTime":1776355200},"SBOI":{"icaoId":"SBOI","flightCategory":"MVFR","rawOb":"METAR SBOI 161600Z AUTO 36009KT 330V030 9999 BKN028 29/26 Q1009","temp":29,"dewp":26,"wdir":360,"wspd":9,"visib":"6+","altim":1009,"clouds":[{"cover":"BKN","base":2800}],"obsTime":1776355200},"SBPB":{"icaoId":"SBPB","flightCategory":"VFR","rawOb":"METAR SBPB 161600Z 05008KT 9999 SCT020 31/25 Q1008","temp":31,"dewp":25,"wdir":50,"wspd":8,"visib":"6+","altim":1008,"clouds":[{"cover":"SCT","base":2000}],"obsTime":1776355200},"SBCC":{"icaoId":"SBCC","flightCategory":"MVFR","rawOb":"METAR SBCC 161600Z 35007KT 9999 BKN025 FEW035TCU BKN080 25/22 Q1011","temp":25,"dewp":22,"wdir":350,"wspd":7,"visib":"6+","altim":1011,"clouds":[{"cover":"BKN","base":2500},{"cover":"FEW","base":3500},{"cover":"BKN","base":8000}],"obsTime":1776355200},"SBBH":{"icaoId":"SBBH","flightCategory":"VFR","rawOb":"METAR SBBH 161600Z 14003KT 9999 SCT040 25/14 Q1016","temp":25,"dewp":14,"wdir":140,"wspd":3,"visib":"6+","altim":1016,"clouds":[{"cover":"SCT","base":4000}],"obsTime":1776355200},"SBPL":{"icaoId":"SBPL","flightCategory":"MVFR","rawOb":"METAR SBPL 161600Z 12007KT 9999 BKN030 32/20 Q1010","temp":32,"dewp":20,"wdir":120,"wspd":7,"visib":"6+","altim":1010,"clouds":[{"cover":"BKN","base":3000}],"obsTime":1776355200},"SBCJ":{"icaoId":"SBCJ","flightCategory":"MVFR","rawOb":"METAR SBCJ 161600Z 09004KT 9999 BKN021 28/22 Q1014","temp":28,"dewp":22,"wdir":90,"wspd":4,"visib":"6+","altim":1014,"clouds":[{"cover":"BKN","base":2100}],"obsTime":1776355200},"SBPP":{"icaoId":"SBPP","flightCategory":"VFR","rawOb":"METAR SBPP 161600Z 22006KT 9999 SCT017 SCT020 25/21 Q1013","temp":25,"dewp":21,"wdir":220,"wspd":6,"visib":"6+","altim":1013,"clouds":[{"cover":"SCT","base":1700},{"cover":"SCT","base":2000}],"obsTime":1776355200},"SBPS":{"icaoId":"SBPS","flightCategory":"VFR","rawOb":"METAR SBPS 161600Z 15006KT 080V230 9999 SCT025 29/22 Q1011","temp":29,"dewp":22,"wdir":150,"wspd":6,"visib":"6+","altim":1011,"clouds":[{"cover":"SCT","base":2500}],"obsTime":1776355200},"SBAR":{"icaoId":"SBAR","flightCategory":"VFR","rawOb":"METAR SBAR 161600Z 14009KT 9999 FEW025 30/23 Q1010","temp":30,"dewp":23,"wdir":140,"wspd":9,"visib":"6+","altim":1010,"clouds":[{"cover":"FEW","base":2500}],"obsTime":1776355200},"SBCO":{"icaoId":"SBCO","flightCategory":"VFR","rawOb":"METAR SBCO 161600Z 10007KT 050V150 9999 FEW040 SCT080 28/20 Q1008","temp":28,"dewp":20,"wdir":100,"wspd":7,"visib":"6+","altim":1008,"clouds":[{"cover":"FEW","base":4000},{"cover":"SCT","base":8000}],"obsTime":1776355200},"SBSC":{"icaoId":"SBSC","flightCategory":"VFR","rawOb":"METAR SBSC 161600Z 17008KT 9999 SCT030 28/21 Q1012","temp":28,"dewp":21,"wdir":170,"wspd":8,"visib":"6+","altim":1012,"clouds":[{"cover":"SCT","base":3000}],"obsTime":1776355200},"SBBQ":{"icaoId":"SBBQ","flightCategory":"VFR","rawOb":"METAR SBBQ 161600Z 06005KT 9999 SCT035 24/14 Q1019","temp":24,"dewp":14,"wdir":60,"wspd":5,"visib":"6+","altim":1019,"clouds":[{"cover":"SCT","base":3500}],"obsTime":1776355200},"SBSJ":{"icaoId":"SBSJ","flightCategory":"VFR","rawOb":"METAR SBSJ 161600Z 24002KT 9999 FEW035 26/15 Q1015","temp":26,"dewp":15,"wdir":240,"wspd":2,"visib":"6+","altim":1015,"clouds":[{"cover":"FEW","base":3500}],"obsTime":1776355200},"SBDN":{"icaoId":"SBDN","flightCategory":"VFR","rawOb":"METAR SBDN 161600Z 06006KT CAVOK 30/18 Q1012","temp":30,"dewp":18,"wdir":60,"wspd":6,"visib":"6+","altim":1012,"clouds":[],"obsTime":1776355200},"SBSM":{"icaoId":"SBSM","flightCategory":"VFR","rawOb":"METAR SBSM 161600Z 34008KT 9999 SCT035 BKN045 27/20 Q1007 WS R11","temp":27,"dewp":20,"wdir":340,"wspd":8,"visib":"6+","altim":1007,"clouds":[{"cover":"SCT","base":3500},{"cover":"BKN","base":4500}],"obsTime":1776355200},"SBCA":{"icaoId":"SBCA","flightCategory":"MVFR","rawOb":"METAR SBCA 161600Z 01012KT 9000 BKN025 24/19 Q1014","temp":24,"dewp":19,"wdir":10,"wspd":12,"visib":5.59,"altim":1014,"clouds":[{"cover":"BKN","base":2500}],"obsTime":1776355200},"SBAU":{"icaoId":"SBAU","flightCategory":"VFR","rawOb":"METAR SBAU 161600Z 03008KT CAVOK 33/17 Q1012","temp":33,"dewp":17,"wdir":30,"wspd":8,"visib":"6+","altim":1012,"clouds":[],"obsTime":1776355200},"SBSR":{"icaoId":"SBSR","flightCategory":"VFR","rawOb":"METAR SBSR 161600Z 33002KT 9999 SCT020 30/15 Q1013","temp":30,"dewp":15,"wdir":330,"wspd":2,"visib":"6+","altim":1013,"clouds":[{"cover":"SCT","base":2000}],"obsTime":1776355200},"SBTD":{"icaoId":"SBTD","flightCategory":"VFR","rawOb":"METAR SBTD 161600Z /////KT 9999 SCT020 SCT080 25/21 Q1013","temp":25,"dewp":21,"wdir":null,"wspd":null,"visib":"6+","altim":1013,"clouds":[{"cover":"SCT","base":2000},{"cover":"SCT","base":8000}],"obsTime":1776355200},"SBES":{"icaoId":"SBES","flightCategory":"VFR","rawOb":"METAR SBES 161600Z 22006KT 150V310 9999 -RA FEW020 SCT100 24/// Q1013","temp":null,"dewp":null,"wdir":220,"wspd":6,"visib":"6+","altim":1013,"clouds":[{"cover":"FEW","base":2000},{"cover":"SCT","base":10000}],"obsTime":1776355200},"SBBU":{"icaoId":"SBBU","flightCategory":"VFR","rawOb":"METAR SBBU 161600Z 06008KT CAVOK 30/16 Q1014","temp":30,"dewp":16,"wdir":60,"wspd":8,"visib":"6+","altim":1014,"clouds":[],"obsTime":1776355200},"SBTF":{"icaoId":"SBTF","flightCategory":"VFR","rawOb":"METAR SBTF 161600Z 07004KT 9999 FEW015 32/26 Q1007","temp":32,"dewp":26,"wdir":70,"wspd":4,"visib":"6+","altim":1007,"clouds":[{"cover":"FEW","base":1500}],"obsTime":1776355200},"SBGM":{"icaoId":"SBGM","flightCategory":"VFR","rawOb":"METAR SBGM 161600Z 34005KT 290V030 9999 FEW013 BKN073 30/23 Q1010","temp":30,"dewp":23,"wdir":340,"wspd":5,"visib":"6+","altim":1010,"clouds":[{"cover":"FEW","base":1300},{"cover":"BKN","base":7300}],"obsTime":1776355200},"SBTT":{"icaoId":"SBTT","flightCategory":"MVFR","rawOb":"METAR SBTT 161600Z 34003KT 9999 SCT015 BKN025 28/24 Q1011","temp":28,"dewp":24,"wdir":340,"wspd":3,"visib":"6+","altim":1011,"clouds":[{"cover":"SCT","base":1500},{"cover":"BKN","base":2500}],"obsTime":1776355200},"SBUY":{"icaoId":"SBUY","flightCategory":"VFR","rawOb":"METAR SBUY 161600Z 07005KT 9999 SCT025 31/24 Q1008","temp":31,"dewp":24,"wdir":70,"wspd":5,"visib":"6+","altim":1008,"clouds":[{"cover":"SCT","base":2500}],"obsTime":1776355200},"SBAX":{"icaoId":"SBAX","flightCategory":"VFR","rawOb":"METAR SBAX 161600Z 05003KT 9999 SCT030 25/14 Q1016","temp":25,"dewp":14,"wdir":50,"wspd":3,"visib":"6+","altim":1016,"clouds":[{"cover":"SCT","base":3000}],"obsTime":1776355200},"SBIP":{"icaoId":"SBIP","flightCategory":"VFR","rawOb":"METAR SBIP 161600Z AUTO 03003KT 310V120 9999 FEW047 30/16 Q1013","temp":30,"dewp":16,"wdir":30,"wspd":3,"visib":"6+","altim":1013,"clouds":[{"cover":"FEW","base":4700}],"obsTime":1776355200},"SBVH":{"icaoId":"SBVH","flightCategory":"MVFR","rawOb":"METAR SBVH 161600Z 27006KT 6000 -RA BKN025 FEW030TCU BKN100 27/23 Q1012","temp":27,"dewp":23,"wdir":270,"wspd":6,"visib":3.73,"altim":1012,"clouds":[{"cover":"BKN","base":2500},{"cover":"FEW","base":3000},{"cover":"BKN","base":10000}],"obsTime":1776355200},"SBIH":{"icaoId":"SBIH","flightCategory":"VFR","rawOb":"METAR SBIH 161600Z 35005KT 9999 SCT018 31/25 Q1009","temp":31,"dewp":25,"wdir":350,"wspd":5,"visib":"6+","altim":1009,"clouds":[{"cover":"SCT","base":1800}],"obsTime":1776355200},"SBNM":{"icaoId":"SBNM","flightCategory":"MVFR","rawOb":"METAR SBNM 161600Z 33005KT 9999 BKN020 23/19 Q1010","temp":23,"dewp":19,"wdir":330,"wspd":5,"visib":"6+","altim":1010,"clouds":[{"cover":"BKN","base":2000}],"obsTime":1776355200},"SBAF":{"icaoId":"SBAF","flightCategory":"VFR","rawOb":"METAR SBAF 161600Z 20008KT 9999 FEW024 SCT043 28/22 Q1012","temp":28,"dewp":22,"wdir":200,"wspd":8,"visib":"6+","altim":1012,"clouds":[{"cover":"FEW","base":2400},{"cover":"SCT","base":4300}],"obsTime":1776355200},"SBGW":{"icaoId":"SBGW","flightCategory":"VFR","rawOb":"METAR SBGW 161600Z VRB02KT 9999 FEW030 28/13 Q1014","temp":28,"dewp":13,"wdir":"VRB","wspd":2,"visib":"6+","altim":1014,"clouds":[{"cover":"FEW","base":3000}],"obsTime":1776355200},"SBJR":{"icaoId":"SBJR","flightCategory":"VFR","rawOb":"METAR SBJR 161600Z 19008KT 9999 FEW025 29/22 Q1013","temp":29,"dewp":22,"wdir":190,"wspd":8,"visib":"6+","altim":1013,"clouds":[{"cover":"FEW","base":2500}],"obsTime":1776355200},"SBLE":{"icaoId":"SBLE","flightCategory":"VFR","rawOb":"METAR SBLE 161600Z AUTO VRB05KT 9999 SCT048 27/19 Q1013","temp":27,"dewp":19,"wdir":"VRB","wspd":5,"visib":"6+","altim":1013,"clouds":[{"cover":"SCT","base":4800}],"obsTime":1776355200},"SBLS":{"icaoId":"SBLS","flightCategory":"VFR","rawOb":"METAR SBLS 161600Z VRB03KT 9999 BKN035 25/13 Q1016","temp":25,"dewp":13,"wdir":"VRB","wspd":3,"visib":"6+","altim":1016,"clouds":[{"cover":"BKN","base":3500}],"obsTime":1776355200},"SBJP":{"icaoId":"SBJP","flightCategory":"VFR","rawOb":"METAR SBJP 161600Z 12012KT 090V150 9999 SCT030 30/24 Q1009","temp":30,"dewp":24,"wdir":120,"wspd":12,"visib":"6+","altim":1009,"clouds":[{"cover":"SCT","base":3000}],"obsTime":1776355200},"SBMT":{"icaoId":"SBMT","flightCategory":"VFR","rawOb":"METAR SBMT 161600Z 28002KT 9999 SCT040 26/14 Q1016","temp":26,"dewp":14,"wdir":280,"wspd":2,"visib":"6+","altim":1016,"clouds":[{"cover":"SCT","base":4000}],"obsTime":1776355200},"SBJV":{"icaoId":"SBJV","flightCategory":"VFR","rawOb":"METAR SBJV 161600Z 04007KT 9999 FEW030 29/20 Q1012","temp":29,"dewp":20,"wdir":40,"wspd":7,"visib":"6+","altim":1012,"clouds":[{"cover":"FEW","base":3000}],"obsTime":1776355200},"SBST":{"icaoId":"SBST","flightCategory":"VFR","rawOb":"METAR SBST 161600Z VRB03KT 9999 FEW032 SCT040 26/21 Q1013","temp":26,"dewp":21,"wdir":"VRB","wspd":3,"visib":"6+","altim":1013,"clouds":[{"cover":"FEW","base":3200},{"cover":"SCT","base":4000}],"obsTime":1776355200},"SBTA":{"icaoId":"SBTA","flightCategory":"VFR","rawOb":"METAR SBTA 161600Z VRB03KT 9999 FEW030 27/14 Q1014","temp":27,"dewp":14,"wdir":"VRB","wspd":3,"visib":"6+","altim":1014,"clouds":[{"cover":"FEW","base":3000}],"obsTime":1776355200},"SBAN":{"icaoId":"SBAN","flightCategory":"MVFR","rawOb":"METAR SBAN 161600Z 12005KT 060V190 9999 BKN030 BKN070 26/18 Q1017","temp":26,"dewp":18,"wdir":120,"wspd":5,"visib":"6+","altim":1017,"clouds":[{"cover":"BKN","base":3000},{"cover":"BKN","base":7000}],"obsTime":1776355200}}}