{"updated":1784500685,"count":83,"data":{"SBMQ":{"icaoId":"SBMQ","flightCategory":"VFR","rawOb":"METAR SBMQ 192100Z 34005KT 9999 FEW011 26/26 Q1010","temp":26,"dewp":26,"wdir":340,"wspd":5,"visib":"6+","altim":1010,"clouds":[{"cover":"FEW","base":1100}],"obsTime":1784494800},"SBBE":{"icaoId":"SBBE","flightCategory":"VFR","rawOb":"METAR SBBE 192100Z 11004KT 9999 SCT040 BKN100 31/23 Q1010","temp":31,"dewp":23,"wdir":110,"wspd":4,"visib":"6+","altim":1010,"clouds":[{"cover":"SCT","base":4000},{"cover":"BKN","base":10000}],"obsTime":1784494800},"SBBV":{"icaoId":"SBBV","flightCategory":"VFR","rawOb":"METAR SBBV 192100Z 12007KT 9999 BKN040 FEW045TCU BKN090 33/20 Q1008","temp":33,"dewp":20,"wdir":120,"wspd":7,"visib":"6+","altim":1008,"clouds":[{"cover":"BKN","base":4000},{"cover":"FEW","base":4500},{"cover":"BKN","base":9000}],"obsTime":1784494800},"SBSL":{"icaoId":"SBSL","flightCategory":"VFR","rawOb":"METAR SBSL 192100Z 04008KT 9999 FEW040 BKN060 28/25 Q1010","temp":28,"dewp":25,"wdir":40,"wspd":8,"visib":"6+","altim":1010,"clouds":[{"cover":"FEW","base":4000},{"cover":"BKN","base":6000}],"obsTime":1784494800},"SBMO":{"icaoId":"SBMO","flightCategory":"VFR","rawOb":"METAR SBMO 192100Z 16003KT 9999 FEW035 24/22 Q1015","temp":24,"dewp":22,"wdir":160,"wspd":3,"visib":"6+","altim":1015,"clouds":[{"cover":"FEW","base":3500}],"obsTime":1784494800},"SBGL":{"icaoId":"SBGL","flightCategory":"VFR","rawOb":"METAR SBGL 192100Z 07004KT CAVOK 25/15 Q1015","temp":25,"dewp":15,"wdir":70,"wspd":4,"visib":"6+","altim":1015,"clouds":[],"obsTime":1784494800},"SBKP":{"icaoId":"SBKP","flightCategory":"VFR","rawOb":"METAR SBKP 192100Z 01006KT CAVOK 23/11 Q1017","temp":23,"dewp":11,"wdir":10,"wspd":6,"visib":"6+","altim":1017,"clouds":[],"obsTime":1784494800},"SBBR":{"icaoId":"SBBR","flightCategory":"VFR","rawOb":"METAR SBBR 192100Z 08007KT CAVOK 25/08 Q1018","temp":25,"dewp":8,"wdir":80,"wspd":7,"visib":"6+","altim":1018,"clouds":[],"obsTime":1784494800},"SBNT":{"icaoId":"SBNT","flightCategory":"VFR","rawOb":"METAR SBNT 192100Z 15010KT 9999 SCT040 BKN060 26/21 Q1013","temp":26,"dewp":21,"wdir":150,"wspd":10,"visib":"6+","altim":1013,"clouds":[{"cover":"SCT","base":4000},{"cover":"BKN","base":6000}],"obsTime":1784494800},"SBPJ":{"icaoId":"SBPJ","flightCategory":"VFR","rawOb":"METAR SBPJ 192100Z 00000KT CAVOK 30/19 Q1012","temp":30,"dewp":19,"wdir":0,"wspd":0,"visib":"6+","altim":1012,"clouds":[],"obsTime":1784494800},"SBPV":{"icaoId":"SBPV","flightCategory":"VFR","rawOb":"METAR SBPV 192100Z 04006KT 9999 FEW030 33/22 Q1008","temp":33,"dewp":22,"wdir":40,"wspd":6,"visib":"6+","altim":1008,"clouds":[{"cover":"FEW","base":3000}],"obsTime":1784494800},"SBCT":{"icaoId":"SBCT","flightCategory":"VFR","rawOb":"METAR SBCT 192100Z 35007KT CAVOK 20/11 Q1016","temp":20,"dewp":11,"wdir":350,"wspd":7,"visib":"6+","altim":1016,"clouds":[],"obsTime":1784494800},"SBVT":{"icaoId":"SBVT","flightCategory":"VFR","rawOb":"METAR SBVT 192100Z 05007KT 9999 SCT040 23/18 Q1020","temp":23,"dewp":18,"wdir":50,"wspd":7,"visib":"6+","altim":1020,"clouds":[{"cover":"SCT","base":4000}],"obsTime":1784494800},"SBRF":{"icaoId":"SBRF","flightCategory":"VFR","rawOb":"METAR SBRF 192100Z 17007KT 9999 FEW025 26/18 Q1014","temp":26,"dewp":18,"wdir":170,"wspd":7,"visib":"6+","altim":1014,"clouds":[{"cover":"FEW","base":2500}],"obsTime":1784494800},"SBEG":{"icaoId":"SBEG","flightCategory":"VFR","rawOb":"METAR SBEG 192100Z 12007KT 9999 FEW040 32/23 Q1009","temp":32,"dewp":23,"wdir":120,"wspd":7,"visib":"6+","altim":1009,"clouds":[{"cover":"FEW","base":4000}],"obsTime":1784494800},"SBCF":{"icaoId":"SBCF","flightCategory":"VFR","rawOb":"METAR SBCF 192100Z 10007KT CAVOK 21/13 Q1020","temp":21,"dewp":13,"wdir":100,"wspd":7,"visib":"6+","altim":1020,"clouds":[],"obsTime":1784494800},"SBFI":{"icaoId":"SBFI","flightCategory":"VFR","rawOb":"SPECI SBFI 192042Z 04012G22KT 9999 FEW035 FEW040TCU SCT080 28/14 Q1005","temp":28,"dewp":14,"wdir":40,"wspd":12,"visib":"6+","altim":1005,"clouds":[{"cover":"FEW","base":3500},{"cover":"FEW","base":4000},{"cover":"SCT","base":8000}],"obsTime":1784493720},"SBMA":{"icaoId":"SBMA","flightCategory":"VFR","rawOb":"METAR SBMA 192100Z 13004KT 9999 FEW025 33/18 Q1010","temp":33,"dewp":18,"wdir":130,"wspd":4,"visib":"6+","altim":1010,"clouds":[{"cover":"FEW","base":2500}],"obsTime":1784494800},"SBCZ":{"icaoId":"SBCZ","flightCategory":"VFR","rawOb":"METAR SBCZ 192100Z 34005KT 9999 SCT030 32/24 Q1008","temp":32,"dewp":24,"wdir":340,"wspd":5,"visib":"6+","altim":1008,"clouds":[{"cover":"SCT","base":3000}],"obsTime":1784494800},"SBSV":{"icaoId":"SBSV","flightCategory":"VFR","rawOb":"METAR SBSV 192100Z 11010KT 9999 SCT025 FEW027TCU BKN060 BKN070 25/19 Q1016","temp":25,"dewp":19,"wdir":110,"wspd":10,"visib":"6+","altim":1016,"clouds":[{"cover":"SCT","base":2500},{"cover":"FEW","base":2700},{"cover":"BKN","base":6000},{"cover":"BKN","base":7000}],"obsTime":1784494800},"SBMG":{"icaoId":"SBMG","flightCategory":"VFR","rawOb":"METAR SBMG 192100Z 03010KT CAVOK 25/13 Q1012","temp":25,"dewp":13,"wdir":30,"wspd":10,"visib":"6+","altim":1012,"clouds":[],"obsTime":1784494800},"SBIL":{"icaoId":"SBIL","flightCategory":"VFR","rawOb":"METAR SBIL 192100Z 17006KT 9999 SCT023 BKN050 25/20 Q1017","temp":25,"dewp":20,"wdir":170,"wspd":6,"visib":"6+","altim":1017,"clouds":[{"cover":"SCT","base":2300},{"cover":"BKN","base":5000}],"obsTime":1784494800},"SBRB":{"icaoId":"SBRB","flightCategory":"VFR","rawOb":"METAR SBRB 192100Z 35008KT 9999 SCT030 32/23 Q1008","temp":32,"dewp":23,"wdir":350,"wspd":8,"visib":"6+","altim":1008,"clouds":[{"cover":"SCT","base":3000}],"obsTime":1784494800},"SBJU":{"icaoId":"SBJU","flightCategory":"VFR","rawOb":"METAR SBJU 192100Z 18005KT CAVOK 28/14 Q1013","temp":28,"dewp":14,"wdir":180,"wspd":5,"visib":"6+","altim":1013,"clouds":[],"obsTime":1784494800},"SBME":{"icaoId":"SBME","flightCategory":"VFR","rawOb":"METAR SBME 192100Z 04015KT CAVOK 24/17 Q1017","temp":24,"dewp":17,"wdir":40,"wspd":15,"visib":"6+","altim":1017,"clouds":[],"obsTime":1784494800},"SBSG":{"icaoId":"SBSG","flightCategory":"VFR","rawOb":"METAR SBSG 192100Z 13006KT 080V170 9999 BKN040 25/22 Q1013","temp":25,"dewp":22,"wdir":130,"wspd":6,"visib":"6+","altim":1013,"clouds":[{"cover":"BKN","base":4000}],"obsTime":1784494800},"SBMK":{"icaoId":"SBMK","flightCategory":"VFR","rawOb":"METAR SBMK 192100Z 09008KT CAVOK 24/09 Q1018","temp":24,"dewp":9,"wdir":90,"wspd":8,"visib":"6+","altim":1018,"clouds":[],"obsTime":1784494800},"SBUL":{"icaoId":"SBUL","flightCategory":"VFR","rawOb":"METAR SBUL 192100Z 08006KT 050V110 CAVOK 23/11 Q1018","temp":23,"dewp":11,"wdir":80,"wspd":6,"visib":"6+","altim":1018,"clouds":[],"obsTime":1784494800},"SBUR":{"icaoId":"SBUR","flightCategory":"VFR","rawOb":"METAR SBUR 192100Z 04004KT CAVOK 24/10 Q1017","temp":24,"dewp":10,"wdir":40,"wspd":4,"visib":"6+","altim":1017,"clouds":[],"obsTime":1784494800},"SBGO":{"icaoId":"SBGO","flightCategory":"VFR","rawOb":"METAR SBGO 192100Z VRB02KT CAVOK 27/10 Q1016","temp":27,"dewp":10,"wdir":"VRB","wspd":2,"visib":"6+","altim":1016,"clouds":[],"obsTime":1784494800},"SBTE":{"icaoId":"SBTE","flightCategory":"VFR","rawOb":"METAR SBTE 192100Z 11004KT 060V140 9999 FEW030 33/16 Q1009","temp":33,"dewp":16,"wdir":110,"wspd":4,"visib":"6+","altim":1009,"clouds":[{"cover":"FEW","base":3000}],"obsTime":1784494800},"SBSN":{"icaoId":"SBSN","flightCategory":"VFR","rawOb":"METAR SBSN 192100Z 06006KT 9999 FEW023 31/24 Q1008","temp":31,"dewp":24,"wdir":60,"wspd":6,"visib":"6+","altim":1008,"clouds":[{"cover":"FEW","base":2300}],"obsTime":1784494800},"SBCP":{"icaoId":"SBCP","flightCategory":"VFR","rawOb":"METAR SBCP 192100Z 07013KT CAVOK 22/19 Q1018","temp":22,"dewp":19,"wdir":70,"wspd":13,"visib":"6+","altim":1018,"clouds":[],"obsTime":1784494800},"SBFZ":{"icaoId":"SBFZ","flightCategory":"VFR","rawOb":"METAR SBFZ 192100Z 10013KT CAVOK 28/21 Q1010","temp":28,"dewp":21,"wdir":100,"wspd":13,"visib":"6+","altim":1010,"clouds":[],"obsTime":1784494800},"SBSP":{"icaoId":"SBSP","flightCategory":"VFR","rawOb":"METAR SBSP 192100Z 35007KT CAVOK 22/09 Q1018","temp":22,"dewp":9,"wdir":350,"wspd":7,"visib":"6+","altim":1018,"clouds":[],"obsTime":1784494800},"SBPA":{"icaoId":"SBPA","flightCategory":"VFR","rawOb":"METAR SBPA 192100Z 19007KT 110V240 9999 -TSRA SCT016 FEW035CB BKN050 19/15 Q1008 RETS","temp":19,"dewp":15,"wdir":190,"wspd":7,"visib":"6+","altim":1008,"clouds":[{"cover":"SCT","base":1600},{"cover":"FEW","base":3500},{"cover":"BKN","base":5000}],"obsTime":1784494800},"SBCG":{"icaoId":"SBCG","flightCategory":"VFR","rawOb":"METAR SBCG 192100Z 33010KT CAVOK 28/14 Q1010","temp":28,"dewp":14,"wdir":330,"wspd":10,"visib":"6+","altim":1010,"clouds":[],"obsTime":1784494800},"SBGR":{"icaoId":"SBGR","flightCategory":"VFR","rawOb":"METAR SBGR 192100Z 32004KT 270V040 CAVOK 23/12 Q1018","temp":23,"dewp":12,"wdir":320,"wspd":4,"visib":"6+","altim":1018,"clouds":[],"obsTime":1784494800},"SBFL":{"icaoId":"SBFL","flightCategory":"VFR","rawOb":"METAR SBFL 192100Z 36012KT CAVOK 23/15 Q1009","temp":23,"dewp":15,"wdir":360,"wspd":12,"visib":"6+","altim":1009,"clouds":[],"obsTime":1784494800},"SBLO":{"icaoId":"SBLO","flightCategory":"VFR","rawOb":"METAR SBLO 192100Z 04006KT CAVOK 25/13 Q1014","temp":25,"dewp":13,"wdir":40,"wspd":6,"visib":"6+","altim":1014,"clouds":[],"obsTime":1784494800},"SBCR":{"icaoId":"SBCR","flightCategory":"VFR","rawOb":"METAR SBCR 192100Z 04011KT 9999 FEW045 31/20 Q1005","temp":31,"dewp":20,"wdir":40,"wspd":11,"visib":"6+","altim":1005,"clouds":[{"cover":"FEW","base":4500}],"obsTime":1784494800},"SBAT":{"icaoId":"SBAT","flightCategory":"VFR","rawOb":"METAR SBAT 192100Z 01004KT CAVOK 32/19 Q1010","temp":32,"dewp":19,"wdir":10,"wspd":4,"visib":"6+","altim":1010,"clouds":[],"obsTime":1784494800},"SBHT":{"icaoId":"SBHT","flightCategory":"VFR","rawOb":"METAR SBHT 192100Z 00000KT 9999 FEW030 32/23 Q1009","temp":32,"dewp":23,"wdir":0,"wspd":0,"visib":"6+","altim":1009,"clouds":[{"cover":"FEW","base":3000}],"obsTime":1784494800},"SBCB":{"icaoId":"SBCB","flightCategory":"VFR","rawOb":"METAR SBCB 192100Z 11015G28KT CAVOK 24/17 Q1017","temp":24,"dewp":17,"wdir":110,"wspd":15,"visib":"6+","altim":1017,"clouds":[],"obsTime":1784494800},"SBCA":{"icaoId":"SBCA","flightCategory":"VFR","rawOb":"METAR SBCA 192100Z 03018KT 9999 FEW030 SCT080 25/12 Q1011","temp":25,"dewp":12,"wdir":30,"wspd":18,"visib":"6+","altim":1011,"clouds":[{"cover":"FEW","base":3000},{"cover":"SCT","base":8000}],"obsTime":1784494800},"SBUY":{"icaoId":"SBUY","flightCategory":"VFR","rawOb":"METAR SBUY 192100Z 06004KT 9999 FEW025 32/23 Q1007","temp":32,"dewp":23,"wdir":60,"wspd":4,"visib":"6+","altim":1007,"clouds":[{"cover":"FEW","base":2500}],"obsTime":1784494800},"SBTT":{"icaoId":"SBTT","flightCategory":"VFR","rawOb":"METAR SBTT 192100Z 33004KT 9999 SCT020 FEW025TCU 31/25 Q1008","temp":31,"dewp":25,"wdir":330,"wspd":4,"visib":"6+","altim":1008,"clouds":[{"cover":"SCT","base":2000},{"cover":"FEW","base":2500}],"obsTime":1784494800},"SBCJ":{"icaoId":"SBCJ","flightCategory":"VFR","rawOb":"METAR SBCJ 192100Z 14004KT 090V170 9999 FEW025 28/17 Q1014","temp":28,"dewp":17,"wdir":140,"wspd":4,"visib":"6+","altim":1014,"clouds":[{"cover":"FEW","base":2500}],"obsTime":1784494800},"SBTF":{"icaoId":"SBTF","flightCategory":"VFR","rawOb":"METAR SBTF 192100Z 12003KT 9999 FEW020 33/24 Q1008","temp":33,"dewp":24,"wdir":120,"wspd":3,"visib":"6+","altim":1008,"clouds":[{"cover":"FEW","base":2000}],"obsTime":1784494800},"SBAR":{"icaoId":"SBAR","flightCategory":"IFR","rawOb":"METAR SBAR 192100Z 13011KT 4500 2000E +SHRA FEW012 SCT021 BKN025 23/21 Q1016","temp":23,"dewp":21,"wdir":130,"wspd":11,"visib":2.8,"altim":1016,"clouds":[{"cover":"FEW","base":1200},{"cover":"SCT","base":2100},{"cover":"BKN","base":2500}],"obsTime":1784494800},"SBPS":{"icaoId":"SBPS","flightCategory":"VFR","rawOb":"METAR SBPS 192100Z 26004KT 9999 SCT018 BKN060 21/20 Q1019","temp":21,"dewp":20,"wdir":260,"wspd":4,"visib":"6+","altim":1019,"clouds":[{"cover":"SCT","base":1800},{"cover":"BKN","base":6000}],"obsTime":1784494800},"SBSJ":{"icaoId":"SBSJ","flightCategory":"VFR","rawOb":"METAR SBSJ 192100Z VRB02KT CAVOK 23/11 Q1017","temp":23,"dewp":11,"wdir":"VRB","wspd":2,"visib":"6+","altim":1017,"clouds":[],"obsTime":1784494800},"SBTU":{"icaoId":"SBTU","flightCategory":"VFR","rawOb":"METAR SBTU 192100Z AUTO 32003KT 9999 // SCT066/// 30/20 Q1011","temp":30,"dewp":20,"wdir":320,"wspd":3,"visib":"6+","altim":1011,"clouds":[{"cover":"SCT","base":6600}],"obsTime":1784494800},"SBOI":{"icaoId":"SBOI","flightCategory":"VFR","rawOb":"METAR SBOI 192100Z AUTO 10006KT 060V150 CAVOK 30/23 Q1010","temp":30,"dewp":23,"wdir":100,"wspd":6,"visib":"6+","altim":1010,"clouds":[],"obsTime":1784494800},"SBPL":{"icaoId":"SBPL","flightCategory":"VFR","rawOb":"METAR SBPL 192100Z 13010KT 9999 SCT025 BKN070 26/19 Q1015","temp":26,"dewp":19,"wdir":130,"wspd":10,"visib":"6+","altim":1015,"clouds":[{"cover":"SCT","base":2500},{"cover":"BKN","base":7000}],"obsTime":1784494800},"SBSR":{"icaoId":"SBSR","flightCategory":"VFR","rawOb":"METAR SBSR 192100Z 04005KT CAVOK 27/07 Q1015","temp":27,"dewp":7,"wdir":40,"wspd":5,"visib":"6+","altim":1015,"clouds":[],"obsTime":1784494800},"SBSC":{"icaoId":"SBSC","flightCategory":"VFR","rawOb":"METAR SBSC 192100Z 36004KT CAVOK 24/16 Q1014","temp":24,"dewp":16,"wdir":360,"wspd":4,"visib":"6+","altim":1014,"clouds":[],"obsTime":1784494800},"SBIP":{"icaoId":"SBIP","flightCategory":"VFR","rawOb":"METAR SBIP 192100Z AUTO VRB02KT CAVOK 21/15 Q1018","temp":21,"dewp":15,"wdir":"VRB","wspd":2,"visib":"6+","altim":1018,"clouds":[],"obsTime":1784494800},"SBDN":{"icaoId":"SBDN","flightCategory":"VFR","rawOb":"METAR SBDN 192100Z 02004KT CAVOK 27/11 Q1013","temp":27,"dewp":11,"wdir":20,"wspd":4,"visib":"6+","altim":1013,"clouds":[],"obsTime":1784494800},"SBBU":{"icaoId":"SBBU","flightCategory":"VFR","rawOb":"METAR SBBU 192100Z 02004KT CAVOK 26/10 Q1015","temp":26,"dewp":10,"wdir":20,"wspd":4,"visib":"6+","altim":1015,"clouds":[],"obsTime":1784494800},"SBBH":{"icaoId":"SBBH","flightCategory":"VFR","rawOb":"METAR SBBH 192100Z 09006KT CAVOK 21/12 Q1020","temp":21,"dewp":12,"wdir":90,"wspd":6,"visib":"6+","altim":1020,"clouds":[],"obsTime":1784494800},"SBAX":{"icaoId":"SBAX","flightCategory":"VFR","rawOb":"METAR SBAX 192100Z AUTO 06003KT 020V090 CAVOK 21/10 Q1019","temp":21,"dewp":10,"wdir":60,"wspd":3,"visib":"6+","altim":1019,"clouds":[],"obsTime":1784494800},"SBKG":{"icaoId":"SBKG","flightCategory":"VFR","rawOb":"METAR SBKG 192100Z 13006KT CAVOK 23/17 Q1015","temp":23,"dewp":17,"wdir":130,"wspd":6,"visib":"6+","altim":1015,"clouds":[],"obsTime":1784494800},"SBVH":{"icaoId":"SBVH","flightCategory":"VFR","rawOb":"METAR SBVH 192100Z 36008KT 9999 BKN040 29/20 Q1012","temp":29,"dewp":20,"wdir":360,"wspd":8,"visib":"6+","altim":1012,"clouds":[{"cover":"BKN","base":4000}],"obsTime":1784494800},"SBSM":{"icaoId":"SBSM","flightCategory":"VFR","rawOb":"METAR SBSM 192100Z 08009KT 9999 TSRA FEW008 BKN045 FEW050CB OVC070 17/17 Q1007 RERA RETS","temp":17,"dewp":17,"wdir":80,"wspd":9,"visib":"6+","altim":1007,"clouds":[{"cover":"FEW","base":800},{"cover":"BKN","base":4500},{"cover":"FEW","base":5000},{"cover":"OVC","base":7000}],"obsTime":1784494800},"SBCO":{"icaoId":"SBCO","flightCategory":"VFR","rawOb":"METAR SBCO 192100Z 17006KT 110V210 9999 -TSRA FEW017 FEW035CB BKN045 OVC090 19/15 Q1008 RETS","temp":19,"dewp":15,"wdir":170,"wspd":6,"visib":"6+","altim":1008,"clouds":[{"cover":"FEW","base":1700},{"cover":"FEW","base":3500},{"cover":"BKN","base":4500},{"cover":"OVC","base":9000}],"obsTime":1784494800},"SBPB":{"icaoId":"SBPB","flightCategory":"VFR","rawOb":"METAR SBPB 192100Z 07005KT CAVOK 28/24 Q1010","temp":28,"dewp":24,"wdir":70,"wspd":5,"visib":"6+","altim":1010,"clouds":[],"obsTime":1784494800},"SBES":{"icaoId":"SBES","flightCategory":"VFR","rawOb":"METAR SBES 192100Z 05012G22KT 020V080 CAVOK 22/// Q1017","temp":null,"dewp":null,"wdir":50,"wspd":12,"visib":"6+","altim":1017,"clouds":[],"obsTime":1784494800},"SBPP":{"icaoId":"SBPP","flightCategory":"VFR","rawOb":"METAR SBPP 192100Z 02012KT CAVOK 27/16 Q1009","temp":27,"dewp":16,"wdir":20,"wspd":12,"visib":"6+","altim":1009,"clouds":[],"obsTime":1784494800},"SBJP":{"icaoId":"SBJP","flightCategory":"VFR","rawOb":"METAR SBJP 192100Z 14008KT 9999 FEW020 BKN070 25/20 Q1014","temp":25,"dewp":20,"wdir":140,"wspd":8,"visib":"6+","altim":1014,"clouds":[{"cover":"FEW","base":2000},{"cover":"BKN","base":7000}],"obsTime":1784494800},"SBAN":{"icaoId":"SBAN","flightCategory":"VFR","rawOb":"METAR SBAN 192100Z 34003KT CAVOK 22/09 Q1019","temp":22,"dewp":9,"wdir":340,"wspd":3,"visib":"6+","altim":1019,"clouds":[],"obsTime":1784494800},"SBJV":{"icaoId":"SBJV","flightCategory":"VFR","rawOb":"METAR SBJV 192100Z 13002KT CAVOK 21/19 Q1009","temp":21,"dewp":19,"wdir":130,"wspd":2,"visib":"6+","altim":1009,"clouds":[],"obsTime":1784494800},"SBNM":{"icaoId":"SBNM","flightCategory":"VFR","rawOb":"METAR SBNM 192100Z AUTO 36012KT CAVOK 24/16 Q1004","temp":24,"dewp":16,"wdir":360,"wspd":12,"visib":"6+","altim":1004,"clouds":[],"obsTime":1784494800},"SBLE":{"icaoId":"SBLE","flightCategory":"VFR","rawOb":"METAR SBLE 192100Z AUTO 08006KT CAVOK 23/16 Q1018","temp":23,"dewp":16,"wdir":80,"wspd":6,"visib":"6+","altim":1018,"clouds":[],"obsTime":1784494800},"SBAF":{"icaoId":"SBAF","flightCategory":"VFR","rawOb":"METAR SBAF 192100Z VRB02KT CAVOK 26/15 Q1015","temp":26,"dewp":15,"wdir":"VRB","wspd":2,"visib":"6+","altim":1015,"clouds":[],"obsTime":1784494800},"SBGW":{"icaoId":"SBGW","flightCategory":"VFR","rawOb":"METAR SBGW 192100Z 05005KT CAVOK 23/11 Q1017","temp":23,"dewp":11,"wdir":50,"wspd":5,"visib":"6+","altim":1017,"clouds":[],"obsTime":1784494800},"SBJR":{"icaoId":"SBJR","flightCategory":"VFR","rawOb":"METAR SBJR 192100Z 26001KT CAVOK 22/18 Q1014","temp":22,"dewp":18,"wdir":260,"wspd":1,"visib":"6+","altim":1014,"clouds":[],"obsTime":1784494800},"SBLS":{"icaoId":"SBLS","flightCategory":"VFR","rawOb":"METAR SBLS 192100Z 11005KT 050V120 CAVOK 20/12 Q1020","temp":20,"dewp":12,"wdir":110,"wspd":5,"visib":"6+","altim":1020,"clouds":[],"obsTime":1784494800},"SBMT":{"icaoId":"SBMT","flightCategory":"VFR","rawOb":"METAR SBMT 192100Z 32003KT CAVOK 23/08 Q1017","temp":23,"dewp":8,"wdir":320,"wspd":3,"visib":"6+","altim":1017,"clouds":[],"obsTime":1784494800},"SBPF":{"icaoId":"SBPF","flightCategory":"VFR","rawOb":"METAR SBPF 192100Z 02008KT CAVOK 21/13 Q1008","temp":21,"dewp":13,"wdir":20,"wspd":8,"visib":"6+","altim":1008,"clouds":[],"obsTime":1784494800},"SBIH":{"icaoId":"SBIH","flightCategory":"VFR","rawOb":"METAR SBIH 192100Z 01002KT 9999 FEW020 32/24 Q1008","temp":32,"dewp":24,"wdir":10,"wspd":2,"visib":"6+","altim":1008,"clouds":[{"cover":"FEW","base":2000}],"obsTime":1784494800},"SBST":{"icaoId":"SBST","flightCategory":"VFR","rawOb":"METAR SBST 192100Z 11001KT CAVOK 23/10 Q1013","temp":23,"dewp":10,"wdir":110,"wspd":1,"visib":"6+","altim":1013,"clouds":[],"obsTime":1784494800},"SBTA":{"icaoId":"SBTA","flightCategory":"VFR","rawOb":"METAR SBTA 192100Z VRB01KT CAVOK 21/12 Q1016","temp":21,"dewp":12,"wdir":"VRB","wspd":1,"visib":"6+","altim":1016,"clouds":[],"obsTime":1784494800}}}