{"updated":1776044776,"count":63,"data":{"SBSV":{"icaoId":"SBSV","flightCategory":"VFR","rawOb":"METAR SBSV 130000Z 15004KT 9000 VCSH SCT020 FEW022TCU BKN070 25/23 Q1014 RESHRA","temp":25,"dewp":23,"wdir":150,"wspd":4,"visib":5.59,"altim":1014,"clouds":[{"cover":"SCT","base":2000},{"cover":"FEW","base":2200},{"cover":"BKN","base":7000}],"obsTime":1776038400},"SBMK":{"icaoId":"SBMK","flightCategory":"VFR","rawOb":"METAR SBMK 130000Z 13005KT 9999 FEW030 BKN090 23/19 Q1019","temp":23,"dewp":19,"wdir":130,"wspd":5,"visib":"6+","altim":1019,"clouds":[{"cover":"FEW","base":3000},{"cover":"BKN","base":9000}],"obsTime":1776038400},"SBGL":{"icaoId":"SBGL","flightCategory":"VFR","rawOb":"METAR SBGL 130000Z 10011KT 9999 FEW033 BKN066 25/20 Q1019","temp":25,"dewp":20,"wdir":100,"wspd":11,"visib":"6+","altim":1019,"clouds":[{"cover":"FEW","base":3300},{"cover":"BKN","base":6600}],"obsTime":1776038400},"SBMO":{"icaoId":"SBMO","flightCategory":"VFR","rawOb":"METAR SBMO 130000Z 01002KT 9999 -RA SCT017 25/24 Q1014","temp":25,"dewp":24,"wdir":10,"wspd":2,"visib":"6+","altim":1014,"clouds":[{"cover":"SCT","base":1700}],"obsTime":1776038400},"SBMQ":{"icaoId":"SBMQ","flightCategory":"MVFR","rawOb":"METAR SBMQ 130000Z 01006KT 9999 SCT007 BKN020 OVC045 26/25 Q1012","temp":26,"dewp":25,"wdir":10,"wspd":6,"visib":"6+","altim":1012,"clouds":[{"cover":"SCT","base":700},{"cover":"BKN","base":2000},{"cover":"OVC","base":4500}],"obsTime":1776038400},"SBBV":{"icaoId":"SBBV","flightCategory":"VFR","rawOb":"METAR SBBV 130000Z 11004KT 9999 FEW040 SCT090 31/21 Q1009","temp":31,"dewp":21,"wdir":110,"wspd":4,"visib":"6+","altim":1009,"clouds":[{"cover":"FEW","base":4000},{"cover":"SCT","base":9000}],"obsTime":1776038400},"SBNT":{"icaoId":"SBNT","flightCategory":"IFR","rawOb":"METAR SBNT 130000Z 19009KT 4000 -RA BKN005 BKN013 FEW025TCU BKN100 24/24 Q1013 RERA","temp":24,"dewp":24,"wdir":190,"wspd":9,"visib":2.49,"altim":1013,"clouds":[{"cover":"BKN","base":500},{"cover":"BKN","base":1300},{"cover":"FEW","base":2500},{"cover":"BKN","base":10000}],"obsTime":1776038400},"SBGO":{"icaoId":"SBGO","flightCategory":"VFR","rawOb":"METAR SBGO 130000Z 11007KT CAVOK 23/19 Q1018","temp":23,"dewp":19,"wdir":110,"wspd":7,"visib":"6+","altim":1018,"clouds":[],"obsTime":1776038400},"SBPA":{"icaoId":"SBPA","flightCategory":"VFR","rawOb":"METAR SBPA 130000Z 11004KT CAVOK 23/19 Q1016","temp":23,"dewp":19,"wdir":110,"wspd":4,"visib":"6+","altim":1016,"clouds":[],"obsTime":1776038400},"SBPJ":{"icaoId":"SBPJ","flightCategory":"VFR","rawOb":"METAR SBPJ 130000Z 00000KT 9999 FEW025 27/25 Q1012","temp":27,"dewp":25,"wdir":0,"wspd":0,"visib":"6+","altim":1012,"clouds":[{"cover":"FEW","base":2500}],"obsTime":1776038400},"SBCF":{"icaoId":"SBCF","flightCategory":"VFR","rawOb":"METAR SBCF 130000Z 15005KT CAVOK 20/17 Q1021","temp":20,"dewp":17,"wdir":150,"wspd":5,"visib":"6+","altim":1021,"clouds":[],"obsTime":1776038400},"SBPV":{"icaoId":"SBPV","flightCategory":"VFR","rawOb":"METAR SBPV 130000Z 00000KT 9999 VCTS SCT030 FEW035CB 26/24 Q1010","temp":26,"dewp":24,"wdir":0,"wspd":0,"visib":"6+","altim":1010,"clouds":[{"cover":"SCT","base":3000},{"cover":"FEW","base":3500}],"obsTime":1776038400},"SBGR":{"icaoId":"SBGR","flightCategory":"MVFR","rawOb":"METAR SBGR 130000Z 12004KT 9999 BKN013 19/17 Q1021","temp":19,"dewp":17,"wdir":120,"wspd":4,"visib":"6+","altim":1021,"clouds":[{"cover":"BKN","base":1300}],"obsTime":1776038400},"SBRB":{"icaoId":"SBRB","flightCategory":"MVFR","rawOb":"METAR SBRB 130000Z 36004KT 8000 VCTS FEW002 FEW034CB SCT060 25/24 Q1011","temp":25,"dewp":24,"wdir":360,"wspd":4,"visib":4.97,"altim":1011,"clouds":[{"cover":"FEW","base":200},{"cover":"FEW","base":3400},{"cover":"SCT","base":6000}],"obsTime":1776038400},"SBIL":{"icaoId":"SBIL","flightCategory":"VFR","rawOb":"METAR SBIL 130000Z 22008KT 9999 SCT023 27/24 Q1016","temp":27,"dewp":24,"wdir":220,"wspd":8,"visib":"6+","altim":1016,"clouds":[{"cover":"SCT","base":2300}],"obsTime":1776038400},"SBEG":{"icaoId":"SBEG","flightCategory":"VFR","rawOb":"METAR SBEG 130000Z 34003KT 9999 FEW020 FEW025TCU 26/25 Q1009","temp":26,"dewp":25,"wdir":340,"wspd":3,"visib":"6+","altim":1009,"clouds":[{"cover":"FEW","base":2000},{"cover":"FEW","base":2500}],"obsTime":1776038400},"SBRF":{"icaoId":"SBRF","flightCategory":"VFR","rawOb":"METAR SBRF 130000Z 29002KT 9999 SCT020 BKN060 24/23 Q1013","temp":24,"dewp":23,"wdir":290,"wspd":2,"visib":"6+","altim":1013,"clouds":[{"cover":"SCT","base":2000},{"cover":"BKN","base":6000}],"obsTime":1776038400},"SBJU":{"icaoId":"SBJU","flightCategory":"VFR","rawOb":"METAR SBJU 130000Z 00000KT 9999 FEW020 26/22 Q1014","temp":26,"dewp":22,"wdir":0,"wspd":0,"visib":"6+","altim":1014,"clouds":[{"cover":"FEW","base":2000}],"obsTime":1776038400},"SBSG":{"icaoId":"SBSG","flightCategory":"IFR","rawOb":"METAR SBSG 130000Z 20003KT 150V250 9000 -RA BKN005 BKN020 FEW024TCU 24/24 Q1013","temp":24,"dewp":24,"wdir":200,"wspd":3,"visib":5.59,"altim":1013,"clouds":[{"cover":"BKN","base":500},{"cover":"BKN","base":2000},{"cover":"FEW","base":2400}],"obsTime":1776038400},"SBSL":{"icaoId":"SBSL","flightCategory":"VFR","rawOb":"METAR SBSL 130000Z 09008KT 9999 VCTS SCT030 FEW035CB 27/25 Q1012","temp":27,"dewp":25,"wdir":90,"wspd":8,"visib":"6+","altim":1012,"clouds":[{"cover":"SCT","base":3000},{"cover":"FEW","base":3500}],"obsTime":1776038400},"SBBE":{"icaoId":"SBBE","flightCategory":"VFR","rawOb":"METAR SBBE 130000Z 07005KT 9999 SCT049 BKN090 26/25 Q1012","temp":26,"dewp":25,"wdir":70,"wspd":5,"visib":"6+","altim":1012,"clouds":[{"cover":"SCT","base":4900},{"cover":"BKN","base":9000}],"obsTime":1776038400},"SBSN":{"icaoId":"SBSN","flightCategory":"VFR","rawOb":"METAR SBSN 130000Z 08008KT CAVOK 28/26 Q1010","temp":28,"dewp":26,"wdir":80,"wspd":8,"visib":"6+","altim":1010,"clouds":[],"obsTime":1776038400},"SBKP":{"icaoId":"SBKP","flightCategory":"VFR","rawOb":"METAR SBKP 130000Z 14011KT CAVOK 21/17 Q1020","temp":21,"dewp":17,"wdir":140,"wspd":11,"visib":"6+","altim":1020,"clouds":[],"obsTime":1776038400},"SBFI":{"icaoId":"SBFI","flightCategory":"VFR","rawOb":"METAR SBFI 130000Z 05007KT 9999 FEW005 OVC100 19/19 Q1014","temp":19,"dewp":19,"wdir":50,"wspd":7,"visib":"6+","altim":1014,"clouds":[{"cover":"FEW","base":500},{"cover":"OVC","base":10000}],"obsTime":1776038400},"SBSP":{"icaoId":"SBSP","flightCategory":"MVFR","rawOb":"METAR SBSP 130000Z 13005KT 9999 BKN015 20/17 Q1022","temp":20,"dewp":17,"wdir":130,"wspd":5,"visib":"6+","altim":1022,"clouds":[{"cover":"BKN","base":1500}],"obsTime":1776038400},"SBCT":{"icaoId":"SBCT","flightCategory":"VFR","rawOb":"METAR SBCT 130000Z 08004KT 9999 FEW020 17/16 Q1022","temp":17,"dewp":16,"wdir":80,"wspd":4,"visib":"6+","altim":1022,"clouds":[{"cover":"FEW","base":2000}],"obsTime":1776038400},"SBFZ":{"icaoId":"SBFZ","flightCategory":"VFR","rawOb":"METAR SBFZ 130000Z 12002KT 9999 FEW017 26/24 Q1012","temp":26,"dewp":24,"wdir":120,"wspd":2,"visib":"6+","altim":1012,"clouds":[{"cover":"FEW","base":1700}],"obsTime":1776038400},"SBMG":{"icaoId":"SBMG","flightCategory":"LIFR","rawOb":"METAR SBMG 130000Z 17011KT 9999 1000SW R10/P2000N -RA BCFG BKN001 BKN040 OVC070 21/21 Q1018 RETS","temp":21,"dewp":21,"wdir":170,"wspd":11,"visib":"6+","altim":1018,"clouds":[{"cover":"BKN","base":100},{"cover":"BKN","base":4000},{"cover":"OVC","base":7000}],"obsTime":1776038400},"SBCG":{"icaoId":"SBCG","flightCategory":"VFR","rawOb":"METAR SBCG 130000Z 10011KT 9999 VCSH VCTS SCT045 FEW050CB 25/20 Q1016","temp":25,"dewp":20,"wdir":100,"wspd":11,"visib":"6+","altim":1016,"clouds":[{"cover":"SCT","base":4500},{"cover":"FEW","base":5000}],"obsTime":1776038400},"SBLO":{"icaoId":"SBLO","flightCategory":"VFR","rawOb":"METAR SBLO 130000Z 17003KT CAVOK 24/19 Q1018","temp":24,"dewp":19,"wdir":170,"wspd":3,"visib":"6+","altim":1018,"clouds":[],"obsTime":1776038400},"SBTE":{"icaoId":"SBTE","flightCategory":"VFR","rawOb":"METAR SBTE 130000Z 34002KT 9999 SCT020 SCT100 28/25 Q1010","temp":28,"dewp":25,"wdir":340,"wspd":2,"visib":"6+","altim":1010,"clouds":[{"cover":"SCT","base":2000},{"cover":"SCT","base":10000}],"obsTime":1776038400},"SBFL":{"icaoId":"SBFL","flightCategory":"VFR","rawOb":"METAR SBFL 130000Z 32007KT CAVOK 23/20 Q1018","temp":23,"dewp":20,"wdir":320,"wspd":7,"visib":"6+","altim":1018,"clouds":[],"obsTime":1776038400},"SBUL":{"icaoId":"SBUL","flightCategory":"VFR","rawOb":"METAR SBUL 130000Z 14003KT CAVOK 23/17 Q1020","temp":23,"dewp":17,"wdir":140,"wspd":3,"visib":"6+","altim":1020,"clouds":[],"obsTime":1776038400},"SBUR":{"icaoId":"SBUR","flightCategory":"VFR","rawOb":"METAR SBUR 130000Z 10006KT CAVOK 24/17 Q1019","temp":24,"dewp":17,"wdir":100,"wspd":6,"visib":"6+","altim":1019,"clouds":[],"obsTime":1776038400},"SBMA":{"icaoId":"SBMA","flightCategory":"VFR","rawOb":"METAR SBMA 130000Z 00000KT CAVOK 27/25 Q1011","temp":27,"dewp":25,"wdir":0,"wspd":0,"visib":"6+","altim":1011,"clouds":[],"obsTime":1776038400},"SBVT":{"icaoId":"SBVT","flightCategory":"VFR","rawOb":"METAR SBVT 130000Z 30003KT 9999 FEW020 SCT080 21/21 Q1019","temp":21,"dewp":21,"wdir":300,"wspd":3,"visib":"6+","altim":1019,"clouds":[{"cover":"FEW","base":2000},{"cover":"SCT","base":8000}],"obsTime":1776038400},"SBBR":{"icaoId":"SBBR","flightCategory":"VFR","rawOb":"METAR SBBR 130000Z 14005KT 9999 SCT035 22/18 Q1020","temp":22,"dewp":18,"wdir":140,"wspd":5,"visib":"6+","altim":1020,"clouds":[{"cover":"SCT","base":3500}],"obsTime":1776038400},"SBME":{"icaoId":"SBME","flightCategory":"VFR","rawOb":"METAR SBME 130000Z 35004KT 9999 SCT020 BKN080 23/21 Q1019 RERA","temp":23,"dewp":21,"wdir":350,"wspd":4,"visib":"6+","altim":1019,"clouds":[{"cover":"SCT","base":2000},{"cover":"BKN","base":8000}],"obsTime":1776038400},"SBCZ":{"icaoId":"SBCZ","flightCategory":"MVFR","rawOb":"METAR SBCZ 130000Z 00000KT 8000 -RA FEW035 BKN090 26/25 Q1010","temp":26,"dewp":25,"wdir":0,"wspd":0,"visib":4.97,"altim":1010,"clouds":[{"cover":"FEW","base":3500},{"cover":"BKN","base":9000}],"obsTime":1776038400},"SBPP":{"icaoId":"SBPP","flightCategory":"MVFR","rawOb":"METAR SBPP 130000Z 10019KT 5000 -TSRA FEW005 BKN010 FEW025CB OVC100 18/18 Q1019","temp":18,"dewp":18,"wdir":100,"wspd":19,"visib":3.11,"altim":1019,"clouds":[{"cover":"FEW","base":500},{"cover":"BKN","base":1000},{"cover":"FEW","base":2500},{"cover":"OVC","base":10000}],"obsTime":1776038400},"SBPL":{"icaoId":"SBPL","flightCategory":"VFR","rawOb":"METAR SBPL 130000Z 11004KT CAVOK 28/20 Q1013","temp":28,"dewp":20,"wdir":110,"wspd":4,"visib":"6+","altim":1013,"clouds":[],"obsTime":1776038400},"SBBH":{"icaoId":"SBBH","flightCategory":"VFR","rawOb":"METAR SBBH 130000Z 10006KT CAVOK 21/17 Q1021","temp":21,"dewp":17,"wdir":100,"wspd":6,"visib":"6+","altim":1021,"clouds":[],"obsTime":1776038400},"SBDN":{"icaoId":"SBDN","flightCategory":"VFR","rawOb":"METAR SBDN 130000Z 12006KT CAVOK 26/20 Q1017","temp":26,"dewp":20,"wdir":120,"wspd":6,"visib":"6+","altim":1017,"clouds":[],"obsTime":1776038400},"SBPS":{"icaoId":"SBPS","flightCategory":"MVFR","rawOb":"METAR SBPS 130000Z 24004KT 9999 BKN016 24/23 Q1017","temp":24,"dewp":23,"wdir":240,"wspd":4,"visib":"6+","altim":1017,"clouds":[{"cover":"BKN","base":1600}],"obsTime":1776038400},"SBAX":{"icaoId":"SBAX","flightCategory":"VFR","rawOb":"METAR SBAX 130000Z AUTO 13009KT CAVOK 20/16 Q1021","temp":20,"dewp":16,"wdir":130,"wspd":9,"visib":"6+","altim":1021,"clouds":[],"obsTime":1776038400},"SBCO":{"icaoId":"SBCO","flightCategory":"VFR","rawOb":"METAR SBCO 130000Z 11003KT 9999 FEW035 BKN080 21/19 Q1017","temp":21,"dewp":19,"wdir":110,"wspd":3,"visib":"6+","altim":1017,"clouds":[{"cover":"FEW","base":3500},{"cover":"BKN","base":8000}],"obsTime":1776038400},"SBBU":{"icaoId":"SBBU","flightCategory":"VFR","rawOb":"METAR SBBU 130000Z 12007KT CAVOK 24/18 Q1018","temp":24,"dewp":18,"wdir":120,"wspd":7,"visib":"6+","altim":1018,"clouds":[],"obsTime":1776038400},"SBSC":{"icaoId":"SBSC","flightCategory":"MVFR","rawOb":"METAR SBSC 130000Z 26002KT 8000 SCT020 SCT040 22/20 Q1019","temp":22,"dewp":20,"wdir":260,"wspd":2,"visib":4.97,"altim":1019,"clouds":[{"cover":"SCT","base":2000},{"cover":"SCT","base":4000}],"obsTime":1776038400},"SBIP":{"icaoId":"SBIP","flightCategory":"VFR","rawOb":"METAR SBIP 130000Z AUTO 05003KT 360V090 9999 SCT045 24/21 Q1019","temp":24,"dewp":21,"wdir":50,"wspd":3,"visib":"6+","altim":1019,"clouds":[{"cover":"SCT","base":4500}],"obsTime":1776038400},"SBSJ":{"icaoId":"SBSJ","flightCategory":"VFR","rawOb":"METAR SBSJ 130000Z 08003KT 9999 SCT033 20/17 Q1021","temp":20,"dewp":17,"wdir":80,"wspd":3,"visib":"6+","altim":1021,"clouds":[{"cover":"SCT","base":3300}],"obsTime":1776038400},"SBKG":{"icaoId":"SBKG","flightCategory":"VFR","rawOb":"METAR SBKG 130000Z 17003KT 9999 SCT005 SCT015 OVC070 22/21 Q1016","temp":22,"dewp":21,"wdir":170,"wspd":3,"visib":"6+","altim":1016,"clouds":[{"cover":"SCT","base":500},{"cover":"SCT","base":1500},{"cover":"OVC","base":7000}],"obsTime":1776038400},"SBSM":{"icaoId":"SBSM","flightCategory":"MVFR","rawOb":"METAR SBSM 130000Z VRB02KT 9999 BKN030 20/19 Q1016","temp":20,"dewp":19,"wdir":"VRB","wspd":2,"visib":"6+","altim":1016,"clouds":[{"cover":"BKN","base":3000}],"obsTime":1776038400},"SBAR":{"icaoId":"SBAR","flightCategory":"MVFR","rawOb":"METAR SBAR 130000Z 13010KT 090V170 8000 -RA FEW009 BKN019 BKN050 26/25 Q1014","temp":26,"dewp":25,"wdir":130,"wspd":10,"visib":4.97,"altim":1014,"clouds":[{"cover":"FEW","base":900},{"cover":"BKN","base":1900},{"cover":"BKN","base":5000}],"obsTime":1776038400},"SBSR":{"icaoId":"SBSR","flightCategory":"VFR","rawOb":"METAR SBSR 130000Z 13002KT 9999 SCT040 26/18 Q1017","temp":26,"dewp":18,"wdir":130,"wspd":2,"visib":"6+","altim":1017,"clouds":[{"cover":"SCT","base":4000}],"obsTime":1776038400},"SBOI":{"icaoId":"SBOI","flightCategory":"MVFR","rawOb":"METAR SBOI 130000Z AUTO 03002KT 9999 // BKN022/// OVC053/// 25/25 Q1012","temp":25,"dewp":25,"wdir":30,"wspd":2,"visib":"6+","altim":1012,"clouds":[{"cover":"BKN","base":2200},{"cover":"OVC","base":5300}],"obsTime":1776038400},"SBLS":{"icaoId":"SBLS","flightCategory":"VFR","rawOb":"METAR SBLS 130000Z 16009KT CAVOK 20/17 Q1021","temp":20,"dewp":17,"wdir":160,"wspd":9,"visib":"6+","altim":1021,"clouds":[],"obsTime":1776038400},"SBMT":{"icaoId":"SBMT","flightCategory":"MVFR","rawOb":"METAR SBMT 130000Z 14005KT 9999 BKN017 19/16 Q1021","temp":19,"dewp":16,"wdir":140,"wspd":5,"visib":"6+","altim":1021,"clouds":[{"cover":"BKN","base":1700}],"obsTime":1776038400},"SBST":{"icaoId":"SBST","flightCategory":"VFR","rawOb":"METAR SBST 130000Z 04002KT 9999 FEW037 22/19 Q1018","temp":22,"dewp":19,"wdir":40,"wspd":2,"visib":"6+","altim":1018,"clouds":[{"cover":"FEW","base":3700}],"obsTime":1776038400},"SBLE":{"icaoId":"SBLE","flightCategory":"MVFR","rawOb":"METAR SBLE 130000Z AUTO 12005KT 100V160 9999 FEW018 BKN030 23/23 Q1017","temp":23,"dewp":23,"wdir":120,"wspd":5,"visib":"6+","altim":1017,"clouds":[{"cover":"FEW","base":1800},{"cover":"BKN","base":3000}],"obsTime":1776038400},"SBAN":{"icaoId":"SBAN","flightCategory":"VFR","rawOb":"METAR SBAN 130000Z 15006KT 9999 FEW040 21/17 Q1021","temp":21,"dewp":17,"wdir":150,"wspd":6,"visib":"6+","altim":1021,"clouds":[{"cover":"FEW","base":4000}],"obsTime":1776038400},"SBJP":{"icaoId":"SBJP","flightCategory":"VFR","rawOb":"METAR SBJP 130000Z 18003KT 9999 FEW020 BKN100 24/24 Q1014","temp":24,"dewp":24,"wdir":180,"wspd":3,"visib":"6+","altim":1014,"clouds":[{"cover":"FEW","base":2000},{"cover":"BKN","base":10000}],"obsTime":1776038400},"SBJV":{"icaoId":"SBJV","flightCategory":"VFR","rawOb":"METAR SBJV 130000Z 00000KT 9999 FEW020 21/20 Q1018","temp":21,"dewp":20,"wdir":0,"wspd":0,"visib":"6+","altim":1018,"clouds":[{"cover":"FEW","base":2000}],"obsTime":1776038400},"SBJR":{"icaoId":"SBJR","flightCategory":"VFR","rawOb":"METAR SBJR 130000Z 05002KT 9999 FEW040 25/20 Q1019","temp":25,"dewp":20,"wdir":50,"wspd":2,"visib":"6+","altim":1019,"clouds":[{"cover":"FEW","base":4000}],"obsTime":1776038400}}}