{"updated":1783877422,"count":88,"data":{"SBPA":{"icaoId":"SBPA","flightCategory":"IFR","rawOb":"METAR SBPA 121600Z 20003KT 110V270 4000 -DZ BR BKN013 14/12 Q1017","temp":14,"dewp":12,"wdir":200,"wspd":3,"visib":2.49,"altim":1017,"clouds":[{"cover":"BKN","base":1300}],"obsTime":1783872000},"SBCR":{"icaoId":"SBCR","flightCategory":"MVFR","rawOb":"METAR SBCR 121600Z 20008KT 150V270 9999 BKN010 24/21 Q1017","temp":24,"dewp":21,"wdir":200,"wspd":8,"visib":"6+","altim":1017,"clouds":[{"cover":"BKN","base":1000}],"obsTime":1783872000},"SBNT":{"icaoId":"SBNT","flightCategory":"MVFR","rawOb":"METAR SBNT 121600Z 14014KT 9999 BKN020 FEW030TCU BKN090 28/23 Q1014","temp":28,"dewp":23,"wdir":140,"wspd":14,"visib":"6+","altim":1014,"clouds":[{"cover":"BKN","base":2000},{"cover":"FEW","base":3000},{"cover":"BKN","base":9000}],"obsTime":1783872000},"SBMO":{"icaoId":"SBMO","flightCategory":"VFR","rawOb":"METAR SBMO 121600Z 09011KT 060V120 9999 SCT035 SCT040 28/20 Q1015","temp":28,"dewp":20,"wdir":90,"wspd":11,"visib":"6+","altim":1015,"clouds":[{"cover":"SCT","base":3500},{"cover":"SCT","base":4000}],"obsTime":1783872000},"SBPJ":{"icaoId":"SBPJ","flightCategory":"VFR","rawOb":"METAR SBPJ 121600Z 23008KT 9999 FEW035 SCT100 34/21 Q1014","temp":34,"dewp":21,"wdir":230,"wspd":8,"visib":"6+","altim":1014,"clouds":[{"cover":"FEW","base":3500},{"cover":"SCT","base":10000}],"obsTime":1783872000},"SBCB":{"icaoId":"SBCB","flightCategory":"VFR","rawOb":"METAR SBCB 121600Z 27010KT 9999 FEW020 SCT050 28/17 Q1010","temp":28,"dewp":17,"wdir":270,"wspd":10,"visib":"6+","altim":1010,"clouds":[{"cover":"FEW","base":2000},{"cover":"SCT","base":5000}],"obsTime":1783872000},"SBCP":{"icaoId":"SBCP","flightCategory":"VFR","rawOb":"METAR SBCP 121600Z 31014KT CAVOK 33/12 Q1009","temp":33,"dewp":12,"wdir":310,"wspd":14,"visib":"6+","altim":1009,"clouds":[],"obsTime":1783872000},"SBFI":{"icaoId":"SBFI","flightCategory":"MVFR","rawOb":"METAR SBFI 121600Z 19010KT 9999 BKN025 SCT030 18/12 Q1020","temp":18,"dewp":12,"wdir":190,"wspd":10,"visib":"6+","altim":1020,"clouds":[{"cover":"BKN","base":2500},{"cover":"SCT","base":3000}],"obsTime":1783872000},"SBCT":{"icaoId":"SBCT","flightCategory":"VFR","rawOb":"METAR SBCT 121600Z 23011KT 9999 SCT030 18/11 Q1017","temp":18,"dewp":11,"wdir":230,"wspd":11,"visib":"6+","altim":1017,"clouds":[{"cover":"SCT","base":3000}],"obsTime":1783872000},"SBMG":{"icaoId":"SBMG","flightCategory":"VFR","rawOb":"METAR SBMG 121600Z 27006KT 240V300 9999 SCT011 19/18 Q1017","temp":19,"dewp":18,"wdir":270,"wspd":6,"visib":"6+","altim":1017,"clouds":[{"cover":"SCT","base":1100}],"obsTime":1783872000},"SBIL":{"icaoId":"SBIL","flightCategory":"VFR","rawOb":"METAR SBIL 121600Z 07007KT 9999 FEW025 29/23 Q1015","temp":29,"dewp":23,"wdir":70,"wspd":7,"visib":"6+","altim":1015,"clouds":[{"cover":"FEW","base":2500}],"obsTime":1783872000},"SBSN":{"icaoId":"SBSN","flightCategory":"VFR","rawOb":"METAR SBSN 121600Z 07009KT 9999 SCT026 31/25 Q1013","temp":31,"dewp":25,"wdir":70,"wspd":9,"visib":"6+","altim":1013,"clouds":[{"cover":"SCT","base":2600}],"obsTime":1783872000},"SBJU":{"icaoId":"SBJU","flightCategory":"VFR","rawOb":"METAR SBJU 121600Z 00000KT CAVOK 33/17 Q1015","temp":33,"dewp":17,"wdir":0,"wspd":0,"visib":"6+","altim":1015,"clouds":[],"obsTime":1783872000},"SBBE":{"icaoId":"SBBE","flightCategory":"VFR","rawOb":"METAR SBBE 121600Z 12007KT 9999 SCT036 FEW040TCU 31/24 Q1013","temp":31,"dewp":24,"wdir":120,"wspd":7,"visib":"6+","altim":1013,"clouds":[{"cover":"SCT","base":3600},{"cover":"FEW","base":4000}],"obsTime":1783872000},"SBAT":{"icaoId":"SBAT","flightCategory":"VFR","rawOb":"METAR SBAT 121600Z 01003KT 9999 VCSH FEW030 BKN070 31/22 Q1016","temp":31,"dewp":22,"wdir":10,"wspd":3,"visib":"6+","altim":1016,"clouds":[{"cover":"FEW","base":3000},{"cover":"BKN","base":7000}],"obsTime":1783872000},"SBEG":{"icaoId":"SBEG","flightCategory":"VFR","rawOb":"METAR SBEG 121600Z 05005KT 9999 FEW020 32/22 Q1014","temp":32,"dewp":22,"wdir":50,"wspd":5,"visib":"6+","altim":1014,"clouds":[{"cover":"FEW","base":2000}],"obsTime":1783872000},"SBHT":{"icaoId":"SBHT","flightCategory":"MVFR","rawOb":"METAR SBHT 121600Z 12005KT 9999 BKN025 31/23 Q1014","temp":31,"dewp":23,"wdir":120,"wspd":5,"visib":"6+","altim":1014,"clouds":[{"cover":"BKN","base":2500}],"obsTime":1783872000},"SBSG":{"icaoId":"SBSG","flightCategory":"MVFR","rawOb":"METAR SBSG 121600Z 11010KT 090V150 9999 VCSH BKN020 FEW030TCU 27/24 Q1015","temp":27,"dewp":24,"wdir":110,"wspd":10,"visib":"6+","altim":1015,"clouds":[{"cover":"BKN","base":2000},{"cover":"FEW","base":3000}],"obsTime":1783872000},"SBME":{"icaoId":"SBME","flightCategory":"VFR","rawOb":"METAR SBME 121600Z 16006KT CAVOK 27/19 Q1009","temp":27,"dewp":19,"wdir":160,"wspd":6,"visib":"6+","altim":1009,"clouds":[],"obsTime":1783872000},"SBSV":{"icaoId":"SBSV","flightCategory":"VFR","rawOb":"METAR SBSV 121600Z 06011KT 9999 FEW027 28/22 Q1015","temp":28,"dewp":22,"wdir":60,"wspd":11,"visib":"6+","altim":1015,"clouds":[{"cover":"FEW","base":2700}],"obsTime":1783872000},"SBMK":{"icaoId":"SBMK","flightCategory":"VFR","rawOb":"METAR SBMK 121600Z 07006KT 9999 FEW030 SCT100 28/15 Q1017","temp":28,"dewp":15,"wdir":70,"wspd":6,"visib":"6+","altim":1017,"clouds":[{"cover":"FEW","base":3000},{"cover":"SCT","base":10000}],"obsTime":1783872000},"SBCF":{"icaoId":"SBCF","flightCategory":"VFR","rawOb":"METAR SBCF 121600Z 31011KT 270V340 CAVOK 28/09 Q1017","temp":28,"dewp":9,"wdir":310,"wspd":11,"visib":"6+","altim":1017,"clouds":[],"obsTime":1783872000},"SBUL":{"icaoId":"SBUL","flightCategory":"VFR","rawOb":"METAR SBUL 121600Z 26011KT 200V290 9999 FEW045 26/14 Q1020","temp":26,"dewp":14,"wdir":260,"wspd":11,"visib":"6+","altim":1020,"clouds":[{"cover":"FEW","base":4500}],"obsTime":1783872000},"SBSL":{"icaoId":"SBSL","flightCategory":"VFR","rawOb":"METAR SBSL 121600Z 05010KT 9999 BKN035 31/24 Q1012","temp":31,"dewp":24,"wdir":50,"wspd":10,"visib":"6+","altim":1012,"clouds":[{"cover":"BKN","base":3500}],"obsTime":1783872000},"SBUR":{"icaoId":"SBUR","flightCategory":"VFR","rawOb":"METAR SBUR 121600Z 26010KT CAVOK 27/14 Q1018","temp":27,"dewp":14,"wdir":260,"wspd":10,"visib":"6+","altim":1018,"clouds":[],"obsTime":1783872000},"SBGL":{"icaoId":"SBGL","flightCategory":"VFR","rawOb":"METAR SBGL 121600Z 24010KT 9999 SCT030 BKN060 29/15 Q1009","temp":29,"dewp":15,"wdir":240,"wspd":10,"visib":"6+","altim":1009,"clouds":[{"cover":"SCT","base":3000},{"cover":"BKN","base":6000}],"obsTime":1783872000},"SBFZ":{"icaoId":"SBFZ","flightCategory":"VFR","rawOb":"METAR SBFZ 121600Z 12020KT 9999 FEW033 29/22 Q1013","temp":29,"dewp":22,"wdir":120,"wspd":20,"visib":"6+","altim":1013,"clouds":[{"cover":"FEW","base":3300}],"obsTime":1783872000},"SBTE":{"icaoId":"SBTE","flightCategory":"VFR","rawOb":"METAR SBTE 121600Z 13005KT 9999 FEW030 32/21 Q1012","temp":32,"dewp":21,"wdir":130,"wspd":5,"visib":"6+","altim":1012,"clouds":[{"cover":"FEW","base":3000}],"obsTime":1783872000},"SBFL":{"icaoId":"SBFL","flightCategory":"VFR","rawOb":"METAR SBFL 121600Z 18007KT 110V210 9999 FEW046 20/14 Q1014","temp":20,"dewp":14,"wdir":180,"wspd":7,"visib":"6+","altim":1014,"clouds":[{"cover":"FEW","base":4600}],"obsTime":1783872000},"SBKP":{"icaoId":"SBKP","flightCategory":"MVFR","rawOb":"METAR SBKP 121600Z 30004KT 9999 BKN013 BKN080 20/18 Q1016","temp":20,"dewp":18,"wdir":300,"wspd":4,"visib":"6+","altim":1016,"clouds":[{"cover":"BKN","base":1300},{"cover":"BKN","base":8000}],"obsTime":1783872000},"SBGO":{"icaoId":"SBGO","flightCategory":"VFR","rawOb":"METAR SBGO 121600Z 21004KT 150V270 9999 FEW045 29/15 Q1019","temp":29,"dewp":15,"wdir":210,"wspd":4,"visib":"6+","altim":1019,"clouds":[{"cover":"FEW","base":4500}],"obsTime":1783872000},"SBLO":{"icaoId":"SBLO","flightCategory":"VFR","rawOb":"METAR SBLO 121600Z 23005KT 9999 SCT025 23/16 Q1017","temp":23,"dewp":16,"wdir":230,"wspd":5,"visib":"6+","altim":1017,"clouds":[{"cover":"SCT","base":2500}],"obsTime":1783872000},"SBCG":{"icaoId":"SBCG","flightCategory":"VFR","rawOb":"METAR SBCG 121600Z 20005KT 150V250 9999 FEW019 BKN038 FEW040TCU 24/19 Q1018","temp":24,"dewp":19,"wdir":200,"wspd":5,"visib":"6+","altim":1018,"clouds":[{"cover":"FEW","base":1900},{"cover":"BKN","base":3800},{"cover":"FEW","base":4000}],"obsTime":1783872000},"SBSP":{"icaoId":"SBSP","flightCategory":"MVFR","rawOb":"METAR SBSP 121600Z 30012KT 260V330 9999 BKN021 21/16 Q1016","temp":21,"dewp":16,"wdir":300,"wspd":12,"visib":"6+","altim":1016,"clouds":[{"cover":"BKN","base":2100}],"obsTime":1783872000},"SBRF":{"icaoId":"SBRF","flightCategory":"VFR","rawOb":"METAR SBRF 121600Z 14009KT 9999 FEW025 28/21 Q1015","temp":28,"dewp":21,"wdir":140,"wspd":9,"visib":"6+","altim":1015,"clouds":[{"cover":"FEW","base":2500}],"obsTime":1783872000},"SBMQ":{"icaoId":"SBMQ","flightCategory":"VFR","rawOb":"METAR SBMQ 121600Z 06009KT 9999 SCT020 FEW035TCU SCT100 31/25 Q1013","temp":31,"dewp":25,"wdir":60,"wspd":9,"visib":"6+","altim":1013,"clouds":[{"cover":"SCT","base":2000},{"cover":"FEW","base":3500},{"cover":"SCT","base":10000}],"obsTime":1783872000},"SBPV":{"icaoId":"SBPV","flightCategory":"VFR","rawOb":"METAR SBPV 121600Z 05003KT 9999 SCT035 FEW040TCU SCT070 25/22 Q1016","temp":25,"dewp":22,"wdir":50,"wspd":3,"visib":"6+","altim":1016,"clouds":[{"cover":"SCT","base":3500},{"cover":"FEW","base":4000},{"cover":"SCT","base":7000}],"obsTime":1783872000},"SBBV":{"icaoId":"SBBV","flightCategory":"VFR","rawOb":"METAR SBBV 121600Z 07009KT 9999 SCT025 BKN080 31/23 Q1014","temp":31,"dewp":23,"wdir":70,"wspd":9,"visib":"6+","altim":1014,"clouds":[{"cover":"SCT","base":2500},{"cover":"BKN","base":8000}],"obsTime":1783872000},"SBVT":{"icaoId":"SBVT","flightCategory":"VFR","rawOb":"METAR SBVT 121600Z 36005KT 310V070 CAVOK 33/16 Q1010","temp":33,"dewp":16,"wdir":360,"wspd":5,"visib":"6+","altim":1010,"clouds":[],"obsTime":1783872000},"SBGR":{"icaoId":"SBGR","flightCategory":"VFR","rawOb":"METAR SBGR 121600Z 30013KT 9999 SCT023 21/16 Q1015","temp":21,"dewp":16,"wdir":300,"wspd":13,"visib":"6+","altim":1015,"clouds":[{"cover":"SCT","base":2300}],"obsTime":1783872000},"SBMA":{"icaoId":"SBMA","flightCategory":"VFR","rawOb":"METAR SBMA 121600Z 29004KT 9999 SCT023 33/22 Q1013","temp":33,"dewp":22,"wdir":290,"wspd":4,"visib":"6+","altim":1013,"clouds":[{"cover":"SCT","base":2300}],"obsTime":1783872000},"SBBR":{"icaoId":"SBBR","flightCategory":"VFR","rawOb":"METAR SBBR 121600Z 31006KT 230V010 CAVOK 28/10 Q1021","temp":28,"dewp":10,"wdir":310,"wspd":6,"visib":"6+","altim":1021,"clouds":[],"obsTime":1783872000},"SBCZ":{"icaoId":"SBCZ","flightCategory":"VFR","rawOb":"METAR SBCZ 121600Z 03003KT 290V100 9999 SCT020 29/24 Q1016","temp":29,"dewp":24,"wdir":30,"wspd":3,"visib":"6+","altim":1016,"clouds":[{"cover":"SCT","base":2000}],"obsTime":1783872000},"SBRB":{"icaoId":"SBRB","flightCategory":"VFR","rawOb":"METAR SBRB 121600Z 06005KT 9999 FEW010 BKN080 28/23 Q1017","temp":28,"dewp":23,"wdir":60,"wspd":5,"visib":"6+","altim":1017,"clouds":[{"cover":"FEW","base":1000},{"cover":"BKN","base":8000}],"obsTime":1783872000},"SBUY":{"icaoId":"SBUY","flightCategory":"VFR","rawOb":"METAR SBUY 121600Z 14007KT 9999 SCT015 BKN100 27/23 Q1015","temp":27,"dewp":23,"wdir":140,"wspd":7,"visib":"6+","altim":1015,"clouds":[{"cover":"SCT","base":1500},{"cover":"BKN","base":10000}],"obsTime":1783872000},"SBCC":{"icaoId":"SBCC","flightCategory":"VFR","rawOb":"METAR SBCC 121600Z 07004KT 9999 SCT025 BKN100 30/20 Q1016","temp":30,"dewp":20,"wdir":70,"wspd":4,"visib":"6+","altim":1016,"clouds":[{"cover":"SCT","base":2500},{"cover":"BKN","base":10000}],"obsTime":1783872000},"SBGM":{"icaoId":"SBGM","flightCategory":"VFR","rawOb":"METAR SBGM 121600Z 32007KT 290V360 9999 SCT023 BKN033 29/17 Q1017","temp":29,"dewp":17,"wdir":320,"wspd":7,"visib":"6+","altim":1017,"clouds":[{"cover":"SCT","base":2300},{"cover":"BKN","base":3300}],"obsTime":1783872000},"SBTT":{"icaoId":"SBTT","flightCategory":"VFR","rawOb":"METAR SBTT 121600Z 14004KT 9000 FEW015 SCT025 28/24 Q1015","temp":28,"dewp":24,"wdir":140,"wspd":4,"visib":5.59,"altim":1015,"clouds":[{"cover":"FEW","base":1500},{"cover":"SCT","base":2500}],"obsTime":1783872000},"SBVH":{"icaoId":"SBVH","flightCategory":"VFR","rawOb":"METAR SBVH 121600Z 28008KT 9999 FEW006 SCT030 24/20 Q1018","temp":24,"dewp":20,"wdir":280,"wspd":8,"visib":"6+","altim":1018,"clouds":[{"cover":"FEW","base":600},{"cover":"SCT","base":3000}],"obsTime":1783872000},"SBAU":{"icaoId":"SBAU","flightCategory":"VFR","rawOb":"METAR SBAU 121700Z 24006KT 9999 FEW040 BKN090 29/16 Q1015","temp":29,"dewp":16,"wdir":240,"wspd":6,"visib":"6+","altim":1015,"clouds":[{"cover":"FEW","base":4000},{"cover":"BKN","base":9000}],"obsTime":1783875600},"SBPS":{"icaoId":"SBPS","flightCategory":"MVFR","rawOb":"METAR SBPS 121600Z 36007KT 320V040 9999 BKN030 29/21 Q1013","temp":29,"dewp":21,"wdir":360,"wspd":7,"visib":"6+","altim":1013,"clouds":[{"cover":"BKN","base":3000}],"obsTime":1783872000},"SBAX":{"icaoId":"SBAX","flightCategory":"VFR","rawOb":"METAR SBAX 121600Z AUTO 26008KT 220V300 CAVOK 27/11 Q1018","temp":27,"dewp":11,"wdir":260,"wspd":8,"visib":"6+","altim":1018,"clouds":[],"obsTime":1783872000},"SBTF":{"icaoId":"SBTF","flightCategory":"VFR","rawOb":"METAR SBTF 121600Z 15003KT 9999 SCT017 BKN100 30/25 Q1012","temp":30,"dewp":25,"wdir":150,"wspd":3,"visib":"6+","altim":1012,"clouds":[{"cover":"SCT","base":1700},{"cover":"BKN","base":10000}],"obsTime":1783872000},"SBBH":{"icaoId":"SBBH","flightCategory":"VFR","rawOb":"METAR SBBH 121600Z 29009KT CAVOK 29/10 Q1016","temp":29,"dewp":10,"wdir":290,"wspd":9,"visib":"6+","altim":1016,"clouds":[],"obsTime":1783872000},"SBBQ":{"icaoId":"SBBQ","flightCategory":"VFR","rawOb":"METAR SBBQ 121600Z 28012KT 250V320 9999 FEW049 24/11 Q1019","temp":24,"dewp":11,"wdir":280,"wspd":12,"visib":"6+","altim":1019,"clouds":[{"cover":"FEW","base":4900}],"obsTime":1783872000},"SBPL":{"icaoId":"SBPL","flightCategory":"VFR","rawOb":"METAR SBPL 121600Z 07006KT CAVOK 33/16 Q1015","temp":33,"dewp":16,"wdir":70,"wspd":6,"visib":"6+","altim":1015,"clouds":[],"obsTime":1783872000},"SBBU":{"icaoId":"SBBU","flightCategory":"VFR","rawOb":"METAR SBBU 121600Z 27004KT 9999 SCT020 23/20 Q1016","temp":23,"dewp":20,"wdir":270,"wspd":4,"visib":"6+","altim":1016,"clouds":[{"cover":"SCT","base":2000}],"obsTime":1783872000},"SBCJ":{"icaoId":"SBCJ","flightCategory":"VFR","rawOb":"METAR SBCJ 121600Z 15005KT 9999 SCT025 29/20 Q1017","temp":29,"dewp":20,"wdir":150,"wspd":5,"visib":"6+","altim":1017,"clouds":[{"cover":"SCT","base":2500}],"obsTime":1783872000},"SBDN":{"icaoId":"SBDN","flightCategory":"VFR","rawOb":"METAR SBDN 121600Z 23006KT 9999 FEW020 BKN100 24/18 Q1016","temp":24,"dewp":18,"wdir":230,"wspd":6,"visib":"6+","altim":1016,"clouds":[{"cover":"FEW","base":2000},{"cover":"BKN","base":10000}],"obsTime":1783872000},"SBCA":{"icaoId":"SBCA","flightCategory":"VFR","rawOb":"METAR SBCA 121600Z 20012KT CAVOK 17/11 Q1020","temp":17,"dewp":11,"wdir":200,"wspd":12,"visib":"6+","altim":1020,"clouds":[],"obsTime":1783872000},"SBIP":{"icaoId":"SBIP","flightCategory":"VFR","rawOb":"METAR SBIP 121600Z AUTO 18004KT 110V220 CAVOK 27/15 Q1013","temp":27,"dewp":15,"wdir":180,"wspd":4,"visib":"6+","altim":1013,"clouds":[],"obsTime":1783872000},"SBAR":{"icaoId":"SBAR","flightCategory":"VFR","rawOb":"METAR SBAR 121600Z 08008KT 9999 SCT024 27/21 Q1015","temp":27,"dewp":21,"wdir":80,"wspd":8,"visib":"6+","altim":1015,"clouds":[{"cover":"SCT","base":2400}],"obsTime":1783872000},"SBSC":{"icaoId":"SBSC","flightCategory":"VFR","rawOb":"METAR SBSC 121600Z 19008KT CAVOK 26/17 Q1010","temp":26,"dewp":17,"wdir":190,"wspd":8,"visib":"6+","altim":1010,"clouds":[],"obsTime":1783872000},"SBCO":{"icaoId":"SBCO","flightCategory":"MVFR","rawOb":"METAR SBCO 121600Z 24004KT 190V280 9000 -RA SCT013 OVC020 15/12 Q1018","temp":15,"dewp":12,"wdir":240,"wspd":4,"visib":5.59,"altim":1018,"clouds":[{"cover":"SCT","base":1300},{"cover":"OVC","base":2000}],"obsTime":1783872000},"SBSR":{"icaoId":"SBSR","flightCategory":"VFR","rawOb":"METAR SBSR 121600Z 26005KT 9999 FEW045 SCT100 26/16 Q1017","temp":26,"dewp":16,"wdir":260,"wspd":5,"visib":"6+","altim":1017,"clouds":[{"cover":"FEW","base":4500},{"cover":"SCT","base":10000}],"obsTime":1783872000},"SBTU":{"icaoId":"SBTU","flightCategory":"VFR","rawOb":"METAR SBTU 121600Z AUTO VRB02KT 9999 // FEW023/// SCT035/// 29/23 Q1015","temp":29,"dewp":23,"wdir":"VRB","wspd":2,"visib":"6+","altim":1015,"clouds":[{"cover":"FEW","base":2300},{"cover":"SCT","base":3500}],"obsTime":1783872000},"SBSM":{"icaoId":"SBSM","flightCategory":"MVFR","rawOb":"METAR SBSM 121600Z 27009KT 240V300 9999 OVC020 12/08 Q1021","temp":12,"dewp":8,"wdir":270,"wspd":9,"visib":"6+","altim":1021,"clouds":[{"cover":"OVC","base":2000}],"obsTime":1783872000},"SBPP":{"icaoId":"SBPP","flightCategory":"VFR","rawOb":"METAR SBPP 121600Z 22013KT CAVOK 20/13 Q1020","temp":20,"dewp":13,"wdir":220,"wspd":13,"visib":"6+","altim":1020,"clouds":[],"obsTime":1783872000},"SBOI":{"icaoId":"SBOI","flightCategory":"VFR","rawOb":"METAR SBOI 121600Z AUTO 13006KT 090V200 9999 SCT032 31/23 Q1013","temp":31,"dewp":23,"wdir":130,"wspd":6,"visib":"6+","altim":1013,"clouds":[{"cover":"SCT","base":3200}],"obsTime":1783872000},"SBPB":{"icaoId":"SBPB","flightCategory":"VFR","rawOb":"METAR SBPB 121600Z 09011KT CAVOK 32/24 Q1012","temp":32,"dewp":24,"wdir":90,"wspd":11,"visib":"6+","altim":1012,"clouds":[],"obsTime":1783872000},"SBSJ":{"icaoId":"SBSJ","flightCategory":"VFR","rawOb":"METAR SBSJ 121600Z COR 26013KT 230V290 9999 FEW033 22/16 Q1014","temp":22,"dewp":16,"wdir":260,"wspd":13,"visib":"6+","altim":1014,"clouds":[{"cover":"FEW","base":3300}],"obsTime":1783872000},"SBES":{"icaoId":"SBES","flightCategory":"VFR","rawOb":"METAR SBES 121600Z 22008KT 200V260 CAVOK 27/// Q1010","temp":null,"dewp":null,"wdir":220,"wspd":8,"visib":"6+","altim":1010,"clouds":[],"obsTime":1783872000},"SBKG":{"icaoId":"SBKG","flightCategory":"VFR","rawOb":"METAR SBKG 121600Z 09013KT 9999 SCT028 27/18 Q1017","temp":27,"dewp":18,"wdir":90,"wspd":13,"visib":"6+","altim":1017,"clouds":[{"cover":"SCT","base":2800}],"obsTime":1783872000},"SBJP":{"icaoId":"SBJP","flightCategory":"MVFR","rawOb":"METAR SBJP 121600Z 13010KT 9999 BKN030 29/22 Q1015","temp":29,"dewp":22,"wdir":130,"wspd":10,"visib":"6+","altim":1015,"clouds":[{"cover":"BKN","base":3000}],"obsTime":1783872000},"SBJV":{"icaoId":"SBJV","flightCategory":"VFR","rawOb":"METAR SBJV 121600Z 35003KT 9999 SCT012 21/18 Q1014","temp":21,"dewp":18,"wdir":350,"wspd":3,"visib":"6+","altim":1014,"clouds":[{"cover":"SCT","base":1200}],"obsTime":1783872000},"SBNM":{"icaoId":"SBNM","flightCategory":"MVFR","rawOb":"METAR SBNM 121600Z 25004KT 9999 FEW015 BKN030 15/10 Q1021","temp":15,"dewp":10,"wdir":250,"wspd":4,"visib":"6+","altim":1021,"clouds":[{"cover":"FEW","base":1500},{"cover":"BKN","base":3000}],"obsTime":1783872000},"SBPF":{"icaoId":"SBPF","flightCategory":"MVFR","rawOb":"METAR SBPF 121700Z 24013KT 9999 BKN020 12/08 Q1020","temp":12,"dewp":8,"wdir":240,"wspd":13,"visib":"6+","altim":1020,"clouds":[{"cover":"BKN","base":2000}],"obsTime":1783875600},"SBAN":{"icaoId":"SBAN","flightCategory":"VFR","rawOb":"METAR SBAN 121600Z 32005KT 9999 FEW020 27/12 Q1021","temp":27,"dewp":12,"wdir":320,"wspd":5,"visib":"6+","altim":1021,"clouds":[{"cover":"FEW","base":2000}],"obsTime":1783872000},"SBLE":{"icaoId":"SBLE","flightCategory":"VFR","rawOb":"METAR SBLE 121600Z AUTO 18003KT 090V230 CAVOK ///// Q1017","temp":null,"dewp":null,"wdir":180,"wspd":3,"visib":"6+","altim":1017,"clouds":[],"obsTime":1783872000},"SBTC":{"icaoId":"SBTC","flightCategory":"VFR","rawOb":"METAR SBTC 121600Z 03008KT 9999 SCT025 28/22 Q1014","temp":28,"dewp":22,"wdir":30,"wspd":8,"visib":"6+","altim":1014,"clouds":[{"cover":"SCT","base":2500}],"obsTime":1783872000},"SBIH":{"icaoId":"SBIH","flightCategory":"VFR","rawOb":"METAR SBIH 121600Z 02008KT 9999 SCT020 33/23 Q1013","temp":33,"dewp":23,"wdir":20,"wspd":8,"visib":"6+","altim":1013,"clouds":[{"cover":"SCT","base":2000}],"obsTime":1783872000},"SBAF":{"icaoId":"SBAF","flightCategory":"VFR","rawOb":"METAR SBAF 121600Z 28007KT 9999 FEW030 SCT090 28/16 Q1010","temp":28,"dewp":16,"wdir":280,"wspd":7,"visib":"6+","altim":1010,"clouds":[{"cover":"FEW","base":3000},{"cover":"SCT","base":9000}],"obsTime":1783872000},"SBGW":{"icaoId":"SBGW","flightCategory":"VFR","rawOb":"METAR SBGW 121600Z 13001KT 9000 SCT040 OVC100 22/14 Q1014","temp":22,"dewp":14,"wdir":130,"wspd":1,"visib":5.59,"altim":1014,"clouds":[{"cover":"SCT","base":4000},{"cover":"OVC","base":10000}],"obsTime":1783872000},"SBJR":{"icaoId":"SBJR","flightCategory":"VFR","rawOb":"METAR SBJR 121600Z 21006KT 9999 FEW030 SCT100 29/17 Q1010","temp":29,"dewp":17,"wdir":210,"wspd":6,"visib":"6+","altim":1010,"clouds":[{"cover":"FEW","base":3000},{"cover":"SCT","base":10000}],"obsTime":1783872000},"SBLS":{"icaoId":"SBLS","flightCategory":"VFR","rawOb":"METAR SBLS 121600Z VRB04KT CAVOK 28/11 Q1017","temp":28,"dewp":11,"wdir":"VRB","wspd":4,"visib":"6+","altim":1017,"clouds":[],"obsTime":1783872000},"SBMT":{"icaoId":"SBMT","flightCategory":"MVFR","rawOb":"METAR SBMT 121600Z 27010KT 240V300 9999 BKN023 22/16 Q1015","temp":22,"dewp":16,"wdir":270,"wspd":10,"visib":"6+","altim":1015,"clouds":[{"cover":"BKN","base":2300}],"obsTime":1783872000},"SBST":{"icaoId":"SBST","flightCategory":"VFR","rawOb":"METAR SBST 121600Z 26009KT 220V310 9000 FEW011 BKN049 20/17 Q1013","temp":20,"dewp":17,"wdir":260,"wspd":9,"visib":5.59,"altim":1013,"clouds":[{"cover":"FEW","base":1100},{"cover":"BKN","base":4900}],"obsTime":1783872000},"SBTA":{"icaoId":"SBTA","flightCategory":"VFR","rawOb":"METAR SBTA 121600Z 22003KT 180V270 9999 FEW020 SCT080 23/16 Q1013","temp":23,"dewp":16,"wdir":220,"wspd":3,"visib":"6+","altim":1013,"clouds":[{"cover":"FEW","base":2000},{"cover":"SCT","base":8000}],"obsTime":1783872000}}}