{"updated":1780575804,"count":87,"data":{"SBPA":{"icaoId":"SBPA","flightCategory":"LIFR","rawOb":"SPECI SBPA 041043Z 10004KT 0200 R29///// R11/0500 FG BKN002 14/14 Q1028","temp":14,"dewp":14,"wdir":100,"wspd":4,"visib":0.12,"altim":1028,"clouds":[{"cover":"BKN","base":200}],"obsTime":1780569780},"SBEG":{"icaoId":"SBEG","flightCategory":"VFR","rawOb":"METAR SBEG 041100Z 06002KT 9999 SCT006 SCT030 BKN100 24/24 Q1014","temp":24,"dewp":24,"wdir":60,"wspd":2,"visib":"6+","altim":1014,"clouds":[{"cover":"SCT","base":600},{"cover":"SCT","base":3000},{"cover":"BKN","base":10000}],"obsTime":1780570800},"SBBE":{"icaoId":"SBBE","flightCategory":"VFR","rawOb":"METAR SBBE 041100Z 11005KT CAVOK 27/24 Q1015","temp":27,"dewp":24,"wdir":110,"wspd":5,"visib":"6+","altim":1015,"clouds":[],"obsTime":1780570800},"SBBR":{"icaoId":"SBBR","flightCategory":"VFR","rawOb":"METAR SBBR 041100Z 12004KT CAVOK 16/14 Q1026","temp":16,"dewp":14,"wdir":120,"wspd":4,"visib":"6+","altim":1026,"clouds":[],"obsTime":1780570800},"SBBV":{"icaoId":"SBBV","flightCategory":"VFR","rawOb":"METAR SBBV 041100Z 32002KT 9999 SCT004 SCT030 FEW035TCU BKN080 25/25 Q1015","temp":25,"dewp":25,"wdir":320,"wspd":2,"visib":"6+","altim":1015,"clouds":[{"cover":"SCT","base":400},{"cover":"SCT","base":3000},{"cover":"FEW","base":3500},{"cover":"BKN","base":8000}],"obsTime":1780570800},"SBCB":{"icaoId":"SBCB","flightCategory":"MVFR","rawOb":"METAR SBCB 041100Z 14005KT 9999 FEW015 BKN030 22/17 Q1027","temp":22,"dewp":17,"wdir":140,"wspd":5,"visib":"6+","altim":1027,"clouds":[{"cover":"FEW","base":1500},{"cover":"BKN","base":3000}],"obsTime":1780570800},"SBCF":{"icaoId":"SBCF","flightCategory":"VFR","rawOb":"METAR SBCF 041100Z 16005KT CAVOK 15/13 Q1028","temp":15,"dewp":13,"wdir":160,"wspd":5,"visib":"6+","altim":1028,"clouds":[],"obsTime":1780570800},"SBCG":{"icaoId":"SBCG","flightCategory":"VFR","rawOb":"METAR SBCG 041100Z 06011KT CAVOK 18/13 Q1023","temp":18,"dewp":13,"wdir":60,"wspd":11,"visib":"6+","altim":1023,"clouds":[],"obsTime":1780570800},"SBCP":{"icaoId":"SBCP","flightCategory":"VFR","rawOb":"METAR SBCP 041100Z 25008KT 9999 FEW010 SCT020 BKN080 20/19 Q1027","temp":20,"dewp":19,"wdir":250,"wspd":8,"visib":"6+","altim":1027,"clouds":[{"cover":"FEW","base":1000},{"cover":"SCT","base":2000},{"cover":"BKN","base":8000}],"obsTime":1780570800},"SBCR":{"icaoId":"SBCR","flightCategory":"VFR","rawOb":"METAR SBCR 041100Z 00000KT CAVOK 17/16 Q1020","temp":17,"dewp":16,"wdir":0,"wspd":0,"visib":"6+","altim":1020,"clouds":[],"obsTime":1780570800},"SBCT":{"icaoId":"SBCT","flightCategory":"LIFR","rawOb":"METAR SBCT 041100Z 12004KT 4000 -DZ BR BKN004 OVC008 13/13 Q1030","temp":13,"dewp":13,"wdir":120,"wspd":4,"visib":2.49,"altim":1030,"clouds":[{"cover":"BKN","base":400},{"cover":"OVC","base":800}],"obsTime":1780570800},"SBCZ":{"icaoId":"SBCZ","flightCategory":"VFR","rawOb":"METAR SBCZ 041200Z 17003KT CAVOK 23/23 Q1016","temp":23,"dewp":23,"wdir":170,"wspd":3,"visib":"6+","altim":1016,"clouds":[],"obsTime":1780574400},"SBAT":{"icaoId":"SBAT","flightCategory":"VFR","rawOb":"METAR SBAT 041100Z 16003KT CAVOK 25/21 Q1017","temp":25,"dewp":21,"wdir":160,"wspd":3,"visib":"6+","altim":1017,"clouds":[],"obsTime":1780570800},"SBFI":{"icaoId":"SBFI","flightCategory":"VFR","rawOb":"METAR SBFI 041100Z 09007KT CAVOK 15/12 Q1024","temp":15,"dewp":12,"wdir":90,"wspd":7,"visib":"6+","altim":1024,"clouds":[],"obsTime":1780570800},"SBFL":{"icaoId":"SBFL","flightCategory":"MVFR","rawOb":"METAR SBFL 041100Z 25003KT 9999 FEW007 BKN010 OVC050 18/18 Q1029","temp":18,"dewp":18,"wdir":250,"wspd":3,"visib":"6+","altim":1029,"clouds":[{"cover":"FEW","base":700},{"cover":"BKN","base":1000},{"cover":"OVC","base":5000}],"obsTime":1780570800},"SBFZ":{"icaoId":"SBFZ","flightCategory":"VFR","rawOb":"METAR SBFZ 041100Z 15009KT 9999 FEW015 28/25 Q1015","temp":28,"dewp":25,"wdir":150,"wspd":9,"visib":"6+","altim":1015,"clouds":[{"cover":"FEW","base":1500}],"obsTime":1780570800},"SBGL":{"icaoId":"SBGL","flightCategory":"VFR","rawOb":"METAR SBGL 041100Z 13004KT 9999 4000SE VCSH SCT020 BKN040 20/18 Q1027","temp":20,"dewp":18,"wdir":130,"wspd":4,"visib":"6+","altim":1027,"clouds":[{"cover":"SCT","base":2000},{"cover":"BKN","base":4000}],"obsTime":1780570800},"SBGO":{"icaoId":"SBGO","flightCategory":"VFR","rawOb":"METAR SBGO 041100Z 14005KT CAVOK 18/15 Q1025","temp":18,"dewp":15,"wdir":140,"wspd":5,"visib":"6+","altim":1025,"clouds":[],"obsTime":1780570800},"SBGR":{"icaoId":"SBGR","flightCategory":"IFR","rawOb":"METAR SBGR 041100Z 09005KT 9999 OVC009 16/14 Q1029","temp":16,"dewp":14,"wdir":90,"wspd":5,"visib":"6+","altim":1029,"clouds":[{"cover":"OVC","base":900}],"obsTime":1780570800},"SBHT":{"icaoId":"SBHT","flightCategory":"VFR","rawOb":"METAR SBHT 041100Z 09005KT 9999 SCT010 BKN080 25/25 Q1015","temp":25,"dewp":25,"wdir":90,"wspd":5,"visib":"6+","altim":1015,"clouds":[{"cover":"SCT","base":1000},{"cover":"BKN","base":8000}],"obsTime":1780570800},"SBIL":{"icaoId":"SBIL","flightCategory":"VFR","rawOb":"METAR SBIL 041100Z 23007KT 200V270 9999 SCT020 BKN050 23/21 Q1022","temp":23,"dewp":21,"wdir":230,"wspd":7,"visib":"6+","altim":1022,"clouds":[{"cover":"SCT","base":2000},{"cover":"BKN","base":5000}],"obsTime":1780570800},"SBJU":{"icaoId":"SBJU","flightCategory":"VFR","rawOb":"METAR SBJU 041100Z 17009KT 9999 SCT020 25/22 Q1019","temp":25,"dewp":22,"wdir":170,"wspd":9,"visib":"6+","altim":1019,"clouds":[{"cover":"SCT","base":2000}],"obsTime":1780570800},"SBKP":{"icaoId":"SBKP","flightCategory":"VFR","rawOb":"METAR SBKP 041100Z 11010KT CAVOK 16/13 Q1028","temp":16,"dewp":13,"wdir":110,"wspd":10,"visib":"6+","altim":1028,"clouds":[],"obsTime":1780570800},"SBLO":{"icaoId":"SBLO","flightCategory":"VFR","rawOb":"METAR SBLO 041100Z 17003KT 140V200 CAVOK 15/12 Q1026","temp":15,"dewp":12,"wdir":170,"wspd":3,"visib":"6+","altim":1026,"clouds":[],"obsTime":1780570800},"SBMA":{"icaoId":"SBMA","flightCategory":"VFR","rawOb":"METAR SBMA 041100Z 22002KT 9999 FEW015 SCT080 26/23 Q1015","temp":26,"dewp":23,"wdir":220,"wspd":2,"visib":"6+","altim":1015,"clouds":[{"cover":"FEW","base":1500},{"cover":"SCT","base":8000}],"obsTime":1780570800},"SBME":{"icaoId":"SBME","flightCategory":"MVFR","rawOb":"METAR SBME 041100Z 30004KT 260V330 7000 FEW019 BKN033 OVC080 19/18 Q1027 RERA","temp":19,"dewp":18,"wdir":300,"wspd":4,"visib":4.35,"altim":1027,"clouds":[{"cover":"FEW","base":1900},{"cover":"BKN","base":3300},{"cover":"OVC","base":8000}],"obsTime":1780570800},"SBMG":{"icaoId":"SBMG","flightCategory":"VFR","rawOb":"METAR SBMG 041100Z 09013KT 9999 4000SW BCFG NSC 16/12 Q1024","temp":16,"dewp":12,"wdir":90,"wspd":13,"visib":"6+","altim":1024,"clouds":[],"obsTime":1780570800},"SBMK":{"icaoId":"SBMK","flightCategory":"VFR","rawOb":"METAR SBMK 041100Z 12004KT CAVOK 18/15 Q1026","temp":18,"dewp":15,"wdir":120,"wspd":4,"visib":"6+","altim":1026,"clouds":[],"obsTime":1780570800},"SBMO":{"icaoId":"SBMO","flightCategory":"IFR","rawOb":"METAR SBMO 041100Z 22008KT 3000 -RA BR BKN007 OVC011 23/23 Q1018 RERA","temp":23,"dewp":23,"wdir":220,"wspd":8,"visib":1.86,"altim":1018,"clouds":[{"cover":"BKN","base":700},{"cover":"OVC","base":1100}],"obsTime":1780570800},"SBMQ":{"icaoId":"SBMQ","flightCategory":"VFR","rawOb":"METAR SBMQ 041100Z 00000KT 9999 SCT023 27/26 Q1014","temp":27,"dewp":26,"wdir":0,"wspd":0,"visib":"6+","altim":1014,"clouds":[{"cover":"SCT","base":2300}],"obsTime":1780570800},"SBNT":{"icaoId":"SBNT","flightCategory":"VFR","rawOb":"METAR SBNT 041100Z 17011KT 9999 FEW016 27/23 Q1016","temp":27,"dewp":23,"wdir":170,"wspd":11,"visib":"6+","altim":1016,"clouds":[{"cover":"FEW","base":1600}],"obsTime":1780570800},"SBPJ":{"icaoId":"SBPJ","flightCategory":"VFR","rawOb":"METAR SBPJ 041100Z 12003KT CAVOK 27/19 Q1018","temp":27,"dewp":19,"wdir":120,"wspd":3,"visib":"6+","altim":1018,"clouds":[],"obsTime":1780570800},"SBPV":{"icaoId":"SBPV","flightCategory":"VFR","rawOb":"METAR SBPV 041100Z 00000KT CAVOK 22/20 Q1015","temp":22,"dewp":20,"wdir":0,"wspd":0,"visib":"6+","altim":1015,"clouds":[],"obsTime":1780570800},"SBRB":{"icaoId":"SBRB","flightCategory":"VFR","rawOb":"METAR SBRB 041100Z 16003KT 9000 NSC 22/22 Q1016","temp":22,"dewp":22,"wdir":160,"wspd":3,"visib":5.59,"altim":1016,"clouds":[],"obsTime":1780570800},"SBRF":{"icaoId":"SBRF","flightCategory":"MVFR","rawOb":"METAR SBRF 041100Z 19005KT 9999 VCSH BKN015 BKN021 FEW025TCU 26/25 Q1017","temp":26,"dewp":25,"wdir":190,"wspd":5,"visib":"6+","altim":1017,"clouds":[{"cover":"BKN","base":1500},{"cover":"BKN","base":2100},{"cover":"FEW","base":2500}],"obsTime":1780570800},"SBSG":{"icaoId":"SBSG","flightCategory":"VFR","rawOb":"METAR SBSG 041100Z 17009KT 120V200 9999 FEW013 26/23 Q1016","temp":26,"dewp":23,"wdir":170,"wspd":9,"visib":"6+","altim":1016,"clouds":[{"cover":"FEW","base":1300}],"obsTime":1780570800},"SBSL":{"icaoId":"SBSL","flightCategory":"VFR","rawOb":"METAR SBSL 041100Z 08004KT 9999 FEW018 27/25 Q1014","temp":27,"dewp":25,"wdir":80,"wspd":4,"visib":"6+","altim":1014,"clouds":[{"cover":"FEW","base":1800}],"obsTime":1780570800},"SBSN":{"icaoId":"SBSN","flightCategory":"VFR","rawOb":"METAR SBSN 041100Z 07007KT 9999 FEW012 SCT016 FEW023TCU 27/25 Q1014","temp":27,"dewp":25,"wdir":70,"wspd":7,"visib":"6+","altim":1014,"clouds":[{"cover":"FEW","base":1200},{"cover":"SCT","base":1600},{"cover":"FEW","base":2300}],"obsTime":1780570800},"SBSP":{"icaoId":"SBSP","flightCategory":"MVFR","rawOb":"SPECI SBSP 041035Z 14004KT 9999 BKN013 15/14 Q1030","temp":15,"dewp":14,"wdir":140,"wspd":4,"visib":"6+","altim":1030,"clouds":[{"cover":"BKN","base":1300}],"obsTime":1780569300},"SBSV":{"icaoId":"SBSV","flightCategory":"MVFR","rawOb":"METAR SBSV 041100Z 18011KT 9999 BKN023 BKN050 26/22 Q1020","temp":26,"dewp":22,"wdir":180,"wspd":11,"visib":"6+","altim":1020,"clouds":[{"cover":"BKN","base":2300},{"cover":"BKN","base":5000}],"obsTime":1780570800},"SBTE":{"icaoId":"SBTE","flightCategory":"VFR","rawOb":"METAR SBTE 041100Z 19005KT CAVOK 27/24 Q1015","temp":27,"dewp":24,"wdir":190,"wspd":5,"visib":"6+","altim":1015,"clouds":[],"obsTime":1780570800},"SBUL":{"icaoId":"SBUL","flightCategory":"VFR","rawOb":"METAR SBUL 041100Z 13009KT 090V160 CAVOK 17/14 Q1027","temp":17,"dewp":14,"wdir":130,"wspd":9,"visib":"6+","altim":1027,"clouds":[],"obsTime":1780570800},"SBUR":{"icaoId":"SBUR","flightCategory":"VFR","rawOb":"METAR SBUR 041100Z 07009KT CAVOK 18/13 Q1026","temp":18,"dewp":13,"wdir":70,"wspd":9,"visib":"6+","altim":1026,"clouds":[],"obsTime":1780570800},"SBVT":{"icaoId":"SBVT","flightCategory":"MVFR","rawOb":"METAR SBVT 041100Z 27005KT 9000 -RA SCT010 BKN015 BKN032 20/19 Q1025","temp":20,"dewp":19,"wdir":270,"wspd":5,"visib":5.59,"altim":1025,"clouds":[{"cover":"SCT","base":1000},{"cover":"BKN","base":1500},{"cover":"BKN","base":3200}],"obsTime":1780570800},"SBOI":{"icaoId":"SBOI","flightCategory":"VFR","rawOb":"METAR SBOI 041100Z AUTO VRB01KT 9999 FEW003 25/25 Q1015","temp":25,"dewp":25,"wdir":"VRB","wspd":1,"visib":"6+","altim":1015,"clouds":[{"cover":"FEW","base":300}],"obsTime":1780570800},"SBAX":{"icaoId":"SBAX","flightCategory":"VFR","rawOb":"METAR SBAX 041100Z AUTO 12011KT CAVOK 15/15 Q1028","temp":15,"dewp":15,"wdir":120,"wspd":11,"visib":"6+","altim":1028,"clouds":[],"obsTime":1780570800},"SBSM":{"icaoId":"SBSM","flightCategory":"LIFR","rawOb":"METAR SBSM 041100Z 11004KT 0100 R29///// R11/0400N FG VV001 11/11 Q1027","temp":11,"dewp":11,"wdir":110,"wspd":4,"visib":0.06,"altim":1027,"clouds":[{"cover":"OVX","base":100}],"obsTime":1780570800},"SBBH":{"icaoId":"SBBH","flightCategory":"VFR","rawOb":"METAR SBBH 041100Z 08004KT CAVOK 17/13 Q1028","temp":17,"dewp":13,"wdir":80,"wspd":4,"visib":"6+","altim":1028,"clouds":[],"obsTime":1780570800},"SBBQ":{"icaoId":"SBBQ","flightCategory":"MVFR","rawOb":"METAR SBBQ 041200Z 11006KT 9999 BKN011 14/13 Q1032","temp":14,"dewp":13,"wdir":110,"wspd":6,"visib":"6+","altim":1032,"clouds":[{"cover":"BKN","base":1100}],"obsTime":1780574400},"SBBU":{"icaoId":"SBBU","flightCategory":"VFR","rawOb":"METAR SBBU 041100Z 12014G24KT CAVOK 17/15 Q1027","temp":17,"dewp":15,"wdir":120,"wspd":14,"visib":"6+","altim":1027,"clouds":[],"obsTime":1780570800},"SBCA":{"icaoId":"SBCA","flightCategory":"VFR","rawOb":"METAR SBCA 041100Z 08012KT CAVOK 14/11 Q1026","temp":14,"dewp":11,"wdir":80,"wspd":12,"visib":"6+","altim":1026,"clouds":[],"obsTime":1780570800},"SBCC":{"icaoId":"SBCC","flightCategory":"VFR","rawOb":"METAR SBCC 041100Z 07008KT CAVOK 24/19 Q1017","temp":24,"dewp":19,"wdir":70,"wspd":8,"visib":"6+","altim":1017,"clouds":[],"obsTime":1780570800},"SBCJ":{"icaoId":"SBCJ","flightCategory":"VFR","rawOb":"METAR SBCJ 041100Z 12008KT CAVOK 25/20 Q1019","temp":25,"dewp":20,"wdir":120,"wspd":8,"visib":"6+","altim":1019,"clouds":[],"obsTime":1780570800},"SBCO":{"icaoId":"SBCO","flightCategory":"LIFR","rawOb":"METAR SBCO 041100Z 10004KT 070V140 0100 R13///// R31/0350 FG VV001 13/13 Q1028","temp":13,"dewp":13,"wdir":100,"wspd":4,"visib":0.06,"altim":1028,"clouds":[{"cover":"OVX","base":100}],"obsTime":1780570800},"SBDN":{"icaoId":"SBDN","flightCategory":"VFR","rawOb":"METAR SBDN 041100Z 11011KT CAVOK 16/12 Q1025","temp":16,"dewp":12,"wdir":110,"wspd":11,"visib":"6+","altim":1025,"clouds":[],"obsTime":1780570800},"SBES":{"icaoId":"SBES","flightCategory":"MVFR","rawOb":"METAR SBES 041100Z VRB02KT 9999 FEW004 BKN027 BKN050 18/// Q1027","temp":null,"dewp":null,"wdir":"VRB","wspd":2,"visib":"6+","altim":1027,"clouds":[{"cover":"FEW","base":400},{"cover":"BKN","base":2700},{"cover":"BKN","base":5000}],"obsTime":1780570800},"SBGM":{"icaoId":"SBGM","flightCategory":"VFR","rawOb":"METAR SBGM 041200Z 12003KT CAVOK 22/21 Q1016","temp":22,"dewp":21,"wdir":120,"wspd":3,"visib":"6+","altim":1016,"clouds":[],"obsTime":1780574400},"SBIP":{"icaoId":"SBIP","flightCategory":"VFR","rawOb":"METAR SBIP 041100Z AUTO 20005KT CAVOK 19/17 Q1026","temp":19,"dewp":17,"wdir":200,"wspd":5,"visib":"6+","altim":1026,"clouds":[],"obsTime":1780570800},"SBKG":{"icaoId":"SBKG","flightCategory":"MVFR","rawOb":"METAR SBKG 041100Z 17004KT 9999 SCT012 BKN015 23/21 Q1019","temp":23,"dewp":21,"wdir":170,"wspd":4,"visib":"6+","altim":1019,"clouds":[{"cover":"SCT","base":1200},{"cover":"BKN","base":1500}],"obsTime":1780570800},"SBPB":{"icaoId":"SBPB","flightCategory":"VFR","rawOb":"METAR SBPB 041100Z 09008KT 9999 FEW020 28/24 Q1014","temp":28,"dewp":24,"wdir":90,"wspd":8,"visib":"6+","altim":1014,"clouds":[{"cover":"FEW","base":2000}],"obsTime":1780570800},"SBPL":{"icaoId":"SBPL","flightCategory":"VFR","rawOb":"METAR SBPL 041100Z 12011KT 9999 SCT022 SCT070 26/19 Q1020","temp":26,"dewp":19,"wdir":120,"wspd":11,"visib":"6+","altim":1020,"clouds":[{"cover":"SCT","base":2200},{"cover":"SCT","base":7000}],"obsTime":1780570800},"SBPP":{"icaoId":"SBPP","flightCategory":"LIFR","rawOb":"SPECI SBPP 041115Z 06012KT 0000 FG VV000 14/14 Q1024","temp":14,"dewp":14,"wdir":60,"wspd":12,"visib":0,"altim":1024,"clouds":[{"cover":"OVX","base":0}],"obsTime":1780571700},"SBPS":{"icaoId":"SBPS","flightCategory":"VFR","rawOb":"METAR SBPS 041100Z VRB08KT 9999 FEW010 SCT020 BKN070 22/22 Q1022","temp":22,"dewp":22,"wdir":"VRB","wspd":8,"visib":"6+","altim":1022,"clouds":[{"cover":"FEW","base":1000},{"cover":"SCT","base":2000},{"cover":"BKN","base":7000}],"obsTime":1780570800},"SBSC":{"icaoId":"SBSC","flightCategory":"VFR","rawOb":"METAR SBSC 041100Z 36004KT 9999 -RA FEW015 BKN040 OVC060 19/18 Q1027","temp":19,"dewp":18,"wdir":360,"wspd":4,"visib":"6+","altim":1027,"clouds":[{"cover":"FEW","base":1500},{"cover":"BKN","base":4000},{"cover":"OVC","base":6000}],"obsTime":1780570800},"SBSJ":{"icaoId":"SBSJ","flightCategory":"VFR","rawOb":"METAR SBSJ 041100Z 18003KT 9999 SCT020 17/14 Q1029","temp":17,"dewp":14,"wdir":180,"wspd":3,"visib":"6+","altim":1029,"clouds":[{"cover":"SCT","base":2000}],"obsTime":1780570800},"SBAR":{"icaoId":"SBAR","flightCategory":"MVFR","rawOb":"METAR SBAR 041100Z 15008KT 120V180 9999 BKN023 SCT070 28/23 Q1019","temp":28,"dewp":23,"wdir":150,"wspd":8,"visib":"6+","altim":1019,"clouds":[{"cover":"BKN","base":2300},{"cover":"SCT","base":7000}],"obsTime":1780570800},"SBSR":{"icaoId":"SBSR","flightCategory":"VFR","rawOb":"METAR SBSR 041100Z 15005KT CAVOK 17/13 Q1025","temp":17,"dewp":13,"wdir":150,"wspd":5,"visib":"6+","altim":1025,"clouds":[],"obsTime":1780570800},"SBTD":{"icaoId":"SBTD","flightCategory":"VFR","rawOb":"METAR SBTD 041100Z /////KT CAVOK 13/10 Q1025","temp":13,"dewp":10,"wdir":null,"wspd":null,"visib":"6+","altim":1025,"clouds":[],"obsTime":1780570800},"SBTF":{"icaoId":"SBTF","flightCategory":"VFR","rawOb":"SPECI SBTF 041115Z 00000KT 9999 FEW005 BKN100 24/24 Q1014","temp":24,"dewp":24,"wdir":0,"wspd":0,"visib":"6+","altim":1014,"clouds":[{"cover":"FEW","base":500},{"cover":"BKN","base":10000}],"obsTime":1780571700},"SBTT":{"icaoId":"SBTT","flightCategory":"VFR","rawOb":"METAR SBTT 041100Z 00000KT CAVOK 22/21 Q1015","temp":22,"dewp":21,"wdir":0,"wspd":0,"visib":"6+","altim":1015,"clouds":[],"obsTime":1780570800},"SBTU":{"icaoId":"SBTU","flightCategory":"VFR","rawOb":"METAR SBTU 041100Z AUTO 23006KT 180V260 9999 // NCD ///// Q1017","temp":null,"dewp":null,"wdir":230,"wspd":6,"visib":"6+","altim":1017,"clouds":[],"obsTime":1780570800},"SBUY":{"icaoId":"SBUY","flightCategory":"MVFR","rawOb":"METAR SBUY 041100Z 11001KT 8000 NSC 23/22 Q1013","temp":23,"dewp":22,"wdir":110,"wspd":1,"visib":4.97,"altim":1013,"clouds":[],"obsTime":1780570800},"SBVH":{"icaoId":"SBVH","flightCategory":"VFR","rawOb":"METAR SBVH 041100Z 11006KT CAVOK 17/14 Q1020","temp":17,"dewp":14,"wdir":110,"wspd":6,"visib":"6+","altim":1020,"clouds":[],"obsTime":1780570800},"SBJP":{"icaoId":"SBJP","flightCategory":"VFR","rawOb":"METAR SBJP 041100Z 17010KT 9999 SCT020 BKN070 26/24 Q1017","temp":26,"dewp":24,"wdir":170,"wspd":10,"visib":"6+","altim":1017,"clouds":[{"cover":"SCT","base":2000},{"cover":"BKN","base":7000}],"obsTime":1780570800},"SBAN":{"icaoId":"SBAN","flightCategory":"VFR","rawOb":"METAR SBAN 041100Z 11007KT CAVOK 17/14 Q1026","temp":17,"dewp":14,"wdir":110,"wspd":7,"visib":"6+","altim":1026,"clouds":[],"obsTime":1780570800},"SBLE":{"icaoId":"SBLE","flightCategory":"MVFR","rawOb":"METAR SBLE 041100Z AUTO 14003KT 100V190 9999 BKN021 BKN029 OVC047 ///// Q////","temp":null,"dewp":null,"wdir":140,"wspd":3,"visib":"6+","altim":null,"clouds":[{"cover":"BKN","base":2100},{"cover":"BKN","base":2900},{"cover":"OVC","base":4700}],"obsTime":1780570800},"SBAF":{"icaoId":"SBAF","flightCategory":"MVFR","rawOb":"METAR SBAF 041100Z 26003KT 8000 FEW009 BKN020 OVC040 19/19 Q1027","temp":19,"dewp":19,"wdir":260,"wspd":3,"visib":4.97,"altim":1027,"clouds":[{"cover":"FEW","base":900},{"cover":"BKN","base":2000},{"cover":"OVC","base":4000}],"obsTime":1780570800},"SBGW":{"icaoId":"SBGW","flightCategory":"MVFR","rawOb":"METAR SBGW 041100Z 09003KT 8000 SCT030 17/12 Q1029","temp":17,"dewp":12,"wdir":90,"wspd":3,"visib":4.97,"altim":1029,"clouds":[{"cover":"SCT","base":3000}],"obsTime":1780570800},"SBJR":{"icaoId":"SBJR","flightCategory":"VFR","rawOb":"METAR SBJR 041100Z 34004KT 9000 VCSH FEW015 SCT025 BKN080 20/19 Q1027","temp":20,"dewp":19,"wdir":340,"wspd":4,"visib":5.59,"altim":1027,"clouds":[{"cover":"FEW","base":1500},{"cover":"SCT","base":2500},{"cover":"BKN","base":8000}],"obsTime":1780570800},"SBLS":{"icaoId":"SBLS","flightCategory":"VFR","rawOb":"METAR SBLS 041100Z 17007KT 9999 FEW022 16/13 Q1028","temp":16,"dewp":13,"wdir":170,"wspd":7,"visib":"6+","altim":1028,"clouds":[{"cover":"FEW","base":2200}],"obsTime":1780570800},"SBMT":{"icaoId":"SBMT","flightCategory":"MVFR","rawOb":"METAR SBMT 041100Z 11008KT 9999 FEW013 BKN017 16/13 Q1029","temp":16,"dewp":13,"wdir":110,"wspd":8,"visib":"6+","altim":1029,"clouds":[{"cover":"FEW","base":1300},{"cover":"BKN","base":1700}],"obsTime":1780570800},"SBST":{"icaoId":"SBST","flightCategory":"VFR","rawOb":"METAR SBST 041100Z 04002KT 9999 SCT040 17/17 Q1027","temp":17,"dewp":17,"wdir":40,"wspd":2,"visib":"6+","altim":1027,"clouds":[{"cover":"SCT","base":4000}],"obsTime":1780570800},"SBTA":{"icaoId":"SBTA","flightCategory":"VFR","rawOb":"METAR SBTA 041100Z VRB01KT 9999 FEW015 16/14 Q1028","temp":16,"dewp":14,"wdir":"VRB","wspd":1,"visib":"6+","altim":1028,"clouds":[{"cover":"FEW","base":1500}],"obsTime":1780570800},"SBJV":{"icaoId":"SBJV","flightCategory":"LIFR","rawOb":"METAR SBJV 041100Z 00000KT 2000 -RA BR BKN002 OVC020 18/18 Q1028","temp":18,"dewp":18,"wdir":0,"wspd":0,"visib":1.24,"altim":1028,"clouds":[{"cover":"BKN","base":200},{"cover":"OVC","base":2000}],"obsTime":1780570800},"SBNM":{"icaoId":"SBNM","flightCategory":"VFR","rawOb":"METAR SBNM 041100Z AUTO 09006KT CAVOK 10/09 Q1026","temp":10,"dewp":9,"wdir":90,"wspd":6,"visib":"6+","altim":1026,"clouds":[],"obsTime":1780570800},"SBPF":{"icaoId":"SBPF","flightCategory":"VFR","rawOb":"METAR SBPF 041100Z 07008KT CAVOK 12/10 Q1028","temp":12,"dewp":10,"wdir":70,"wspd":8,"visib":"6+","altim":1028,"clouds":[],"obsTime":1780570800},"SBIH":{"icaoId":"SBIH","flightCategory":"VFR","rawOb":"METAR SBIH 041100Z 31002KT 9999 FEW015 26/25 Q1014","temp":26,"dewp":25,"wdir":310,"wspd":2,"visib":"6+","altim":1014,"clouds":[{"cover":"FEW","base":1500}],"obsTime":1780570800}}}