{"updated":1782337853,"count":83,"data":{"SBGO":{"icaoId":"SBGO","flightCategory":"VFR","rawOb":"METAR SBGO 242000Z 18010KT 9999 FEW040 SCT100 24/18 Q1017","temp":24,"dewp":18,"wdir":180,"wspd":10,"visib":"6+","altim":1017,"clouds":[{"cover":"FEW","base":4000},{"cover":"SCT","base":10000}],"obsTime":1782331200},"SBEG":{"icaoId":"SBEG","flightCategory":"VFR","rawOb":"METAR SBEG 242000Z VRB03KT 9999 SCT030 FEW035TCU 31/24 Q1008","temp":31,"dewp":24,"wdir":"VRB","wspd":3,"visib":"6+","altim":1008,"clouds":[{"cover":"SCT","base":3000},{"cover":"FEW","base":3500}],"obsTime":1782331200},"SBMA":{"icaoId":"SBMA","flightCategory":"VFR","rawOb":"METAR SBMA 242000Z 13003KT 9999 FEW020 FEW025TCU 33/21 Q1009","temp":33,"dewp":21,"wdir":130,"wspd":3,"visib":"6+","altim":1009,"clouds":[{"cover":"FEW","base":2000},{"cover":"FEW","base":2500}],"obsTime":1782331200},"SBFI":{"icaoId":"SBFI","flightCategory":"VFR","rawOb":"METAR SBFI 242000Z 16002KT CAVOK 15/04 Q1019","temp":15,"dewp":4,"wdir":160,"wspd":2,"visib":"6+","altim":1019,"clouds":[],"obsTime":1782331200},"SBME":{"icaoId":"SBME","flightCategory":"VFR","rawOb":"METAR SBME 242000Z 21012KT 9999 VCSH SCT026 23/19 Q1016","temp":23,"dewp":19,"wdir":210,"wspd":12,"visib":"6+","altim":1016,"clouds":[{"cover":"SCT","base":2600}],"obsTime":1782331200},"SBCG":{"icaoId":"SBCG","flightCategory":"VFR","rawOb":"METAR SBCG 242000Z 10005KT CAVOK 14/06 Q1019","temp":14,"dewp":6,"wdir":100,"wspd":5,"visib":"6+","altim":1019,"clouds":[],"obsTime":1782331200},"SBMG":{"icaoId":"SBMG","flightCategory":"VFR","rawOb":"METAR SBMG 242000Z 18003KT 150V240 CAVOK 14/07 Q1018","temp":14,"dewp":7,"wdir":180,"wspd":3,"visib":"6+","altim":1018,"clouds":[],"obsTime":1782331200},"SBBE":{"icaoId":"SBBE","flightCategory":"VFR","rawOb":"METAR SBBE 242000Z 11007KT 9999 FEW042 FEW045TCU BKN049 26/25 Q1010","temp":26,"dewp":25,"wdir":110,"wspd":7,"visib":"6+","altim":1010,"clouds":[{"cover":"FEW","base":4200},{"cover":"FEW","base":4500},{"cover":"BKN","base":4900}],"obsTime":1782331200},"SBMK":{"icaoId":"SBMK","flightCategory":"VFR","rawOb":"METAR SBMK 242000Z 12005KT CAVOK 28/11 Q1016","temp":28,"dewp":11,"wdir":120,"wspd":5,"visib":"6+","altim":1016,"clouds":[],"obsTime":1782331200},"SBFL":{"icaoId":"SBFL","flightCategory":"VFR","rawOb":"METAR SBFL 242000Z 13005KT CAVOK 13/05 Q1020","temp":13,"dewp":5,"wdir":130,"wspd":5,"visib":"6+","altim":1020,"clouds":[],"obsTime":1782331200},"SBMO":{"icaoId":"SBMO","flightCategory":"VFR","rawOb":"METAR SBMO 242000Z 09007KT 9999 SCT025 26/22 Q1014","temp":26,"dewp":22,"wdir":90,"wspd":7,"visib":"6+","altim":1014,"clouds":[{"cover":"SCT","base":2500}],"obsTime":1782331200},"SBCP":{"icaoId":"SBCP","flightCategory":"VFR","rawOb":"METAR SBCP 242000Z 09006KT CAVOK 25/20 Q1014","temp":25,"dewp":20,"wdir":90,"wspd":6,"visib":"6+","altim":1014,"clouds":[],"obsTime":1782331200},"SBMQ":{"icaoId":"SBMQ","flightCategory":"VFR","rawOb":"METAR SBMQ 242000Z 14007KT 9999 FEW020 FEW025TCU 30/25 Q1010","temp":30,"dewp":25,"wdir":140,"wspd":7,"visib":"6+","altim":1010,"clouds":[{"cover":"FEW","base":2000},{"cover":"FEW","base":2500}],"obsTime":1782331200},"SBNT":{"icaoId":"SBNT","flightCategory":"VFR","rawOb":"METAR SBNT 242000Z 13014KT 9999 FEW030 27/21 Q1012","temp":27,"dewp":21,"wdir":130,"wspd":14,"visib":"6+","altim":1012,"clouds":[{"cover":"FEW","base":3000}],"obsTime":1782331200},"SBFZ":{"icaoId":"SBFZ","flightCategory":"VFR","rawOb":"METAR SBFZ 242000Z 10010KT 9999 FEW025 BKN100 28/23 Q1010","temp":28,"dewp":23,"wdir":100,"wspd":10,"visib":"6+","altim":1010,"clouds":[{"cover":"FEW","base":2500},{"cover":"BKN","base":10000}],"obsTime":1782331200},"SBPA":{"icaoId":"SBPA","flightCategory":"VFR","rawOb":"METAR SBPA 242000Z 28008KT CAVOK 14/03 Q1018","temp":14,"dewp":3,"wdir":280,"wspd":8,"visib":"6+","altim":1018,"clouds":[],"obsTime":1782331200},"SBBV":{"icaoId":"SBBV","flightCategory":"MVFR","rawOb":"METAR SBBV 242000Z 36005KT 8000 VCSH SCT010 FEW030TCU BKN070 25/24 Q1010 RETS","temp":25,"dewp":24,"wdir":360,"wspd":5,"visib":4.97,"altim":1010,"clouds":[{"cover":"SCT","base":1000},{"cover":"FEW","base":3000},{"cover":"BKN","base":7000}],"obsTime":1782331200},"SBGL":{"icaoId":"SBGL","flightCategory":"MVFR","rawOb":"METAR SBGL 242000Z 04006KT 5000 -RA SCT011 OVC070 20/18 Q1016 RERA","temp":20,"dewp":18,"wdir":40,"wspd":6,"visib":3.11,"altim":1016,"clouds":[{"cover":"SCT","base":1100},{"cover":"OVC","base":7000}],"obsTime":1782331200},"SBPJ":{"icaoId":"SBPJ","flightCategory":"VFR","rawOb":"METAR SBPJ 242000Z 23004KT CAVOK 33/16 Q1011","temp":33,"dewp":16,"wdir":230,"wspd":4,"visib":"6+","altim":1011,"clouds":[],"obsTime":1782331200},"SBPV":{"icaoId":"SBPV","flightCategory":"MVFR","rawOb":"METAR SBPV 242000Z 16006KT 9999 3000N -RA BKN015 26/23 Q1010","temp":26,"dewp":23,"wdir":160,"wspd":6,"visib":"6+","altim":1010,"clouds":[{"cover":"BKN","base":1500}],"obsTime":1782331200},"SBLO":{"icaoId":"SBLO","flightCategory":"VFR","rawOb":"METAR SBLO 242000Z 17003KT CAVOK 14/09 Q1019","temp":14,"dewp":9,"wdir":170,"wspd":3,"visib":"6+","altim":1019,"clouds":[],"obsTime":1782331200},"SBCF":{"icaoId":"SBCF","flightCategory":"VFR","rawOb":"METAR SBCF 242000Z 02003KT CAVOK 26/14 Q1018","temp":26,"dewp":14,"wdir":20,"wspd":3,"visib":"6+","altim":1018,"clouds":[],"obsTime":1782331200},"SBRB":{"icaoId":"SBRB","flightCategory":"IFR","rawOb":"METAR SBRB 242000Z 16007KT 110V210 9999 BKN009 OVC100 17/16 Q1015","temp":17,"dewp":16,"wdir":160,"wspd":7,"visib":"6+","altim":1015,"clouds":[{"cover":"BKN","base":900},{"cover":"OVC","base":10000}],"obsTime":1782331200},"SBRF":{"icaoId":"SBRF","flightCategory":"VFR","rawOb":"METAR SBRF 242000Z 17009KT 9999 SCT024 26/22 Q1013","temp":26,"dewp":22,"wdir":170,"wspd":9,"visib":"6+","altim":1013,"clouds":[{"cover":"SCT","base":2400}],"obsTime":1782331200},"SBAT":{"icaoId":"SBAT","flightCategory":"VFR","rawOb":"METAR SBAT 242000Z 16002KT 9999 FEW030 31/21 Q1011","temp":31,"dewp":21,"wdir":160,"wspd":2,"visib":"6+","altim":1011,"clouds":[{"cover":"FEW","base":3000}],"obsTime":1782331200},"SBGR":{"icaoId":"SBGR","flightCategory":"IFR","rawOb":"METAR SBGR 242000Z 20004KT 5000 -RA BR BKN007 OVC013 13/12 Q1020","temp":13,"dewp":12,"wdir":200,"wspd":4,"visib":3.11,"altim":1020,"clouds":[{"cover":"BKN","base":700},{"cover":"OVC","base":1300}],"obsTime":1782331200},"SBSG":{"icaoId":"SBSG","flightCategory":"VFR","rawOb":"METAR SBSG 242000Z 13006KT 090V180 9999 FEW025 BKN066 27/21 Q1013","temp":27,"dewp":21,"wdir":130,"wspd":6,"visib":"6+","altim":1013,"clouds":[{"cover":"FEW","base":2500},{"cover":"BKN","base":6600}],"obsTime":1782331200},"SBCR":{"icaoId":"SBCR","flightCategory":"VFR","rawOb":"METAR SBCR 242000Z 07007KT 030V100 9999 FEW030 BKN100 17/10 Q1018","temp":17,"dewp":10,"wdir":70,"wspd":7,"visib":"6+","altim":1018,"clouds":[{"cover":"FEW","base":3000},{"cover":"BKN","base":10000}],"obsTime":1782331200},"SBSL":{"icaoId":"SBSL","flightCategory":"VFR","rawOb":"METAR SBSL 242000Z 15006KT 9999 SCT023 SCT070 BKN090 26/23 Q1010","temp":26,"dewp":23,"wdir":150,"wspd":6,"visib":"6+","altim":1010,"clouds":[{"cover":"SCT","base":2300},{"cover":"SCT","base":7000},{"cover":"BKN","base":9000}],"obsTime":1782331200},"SBSN":{"icaoId":"SBSN","flightCategory":"VFR","rawOb":"METAR SBSN 242000Z 10002KT 9999 FEW020 FEW025TCU 31/24 Q1009","temp":31,"dewp":24,"wdir":100,"wspd":2,"visib":"6+","altim":1009,"clouds":[{"cover":"FEW","base":2000},{"cover":"FEW","base":2500}],"obsTime":1782331200},"SBHT":{"icaoId":"SBHT","flightCategory":"VFR","rawOb":"METAR SBHT 242000Z 13003KT 9999 FEW030 32/23 Q1009","temp":32,"dewp":23,"wdir":130,"wspd":3,"visib":"6+","altim":1009,"clouds":[{"cover":"FEW","base":3000}],"obsTime":1782331200},"SBCB":{"icaoId":"SBCB","flightCategory":"MVFR","rawOb":"METAR SBCB 242000Z 24015KT 9999 FEW015 BKN030 OVC060 21/19 Q1016","temp":21,"dewp":19,"wdir":240,"wspd":15,"visib":"6+","altim":1016,"clouds":[{"cover":"FEW","base":1500},{"cover":"BKN","base":3000},{"cover":"OVC","base":6000}],"obsTime":1782331200},"SBSP":{"icaoId":"SBSP","flightCategory":"IFR","rawOb":"METAR SBSP 242000Z 19006KT 8000 OVC006 12/11 Q1020","temp":12,"dewp":11,"wdir":190,"wspd":6,"visib":4.97,"altim":1020,"clouds":[{"cover":"OVC","base":600}],"obsTime":1782331200},"SBSV":{"icaoId":"SBSV","flightCategory":"VFR","rawOb":"METAR SBSV 242000Z 09009KT 9999 SCT023 26/22 Q1014","temp":26,"dewp":22,"wdir":90,"wspd":9,"visib":"6+","altim":1014,"clouds":[{"cover":"SCT","base":2300}],"obsTime":1782331200},"SBCT":{"icaoId":"SBCT","flightCategory":"VFR","rawOb":"METAR SBCT 242000Z 27007KT 9999 SCT020 10/05 Q1020","temp":10,"dewp":5,"wdir":270,"wspd":7,"visib":"6+","altim":1020,"clouds":[{"cover":"SCT","base":2000}],"obsTime":1782331200},"SBTE":{"icaoId":"SBTE","flightCategory":"VFR","rawOb":"METAR SBTE 242000Z 19004KT 100V270 9999 FEW030 34/21 Q1009","temp":34,"dewp":21,"wdir":190,"wspd":4,"visib":"6+","altim":1009,"clouds":[{"cover":"FEW","base":3000}],"obsTime":1782331200},"SBIL":{"icaoId":"SBIL","flightCategory":"VFR","rawOb":"METAR SBIL 242000Z 08006KT 9999 VCSH FEW025 BKN060 26/22 Q1015","temp":26,"dewp":22,"wdir":80,"wspd":6,"visib":"6+","altim":1015,"clouds":[{"cover":"FEW","base":2500},{"cover":"BKN","base":6000}],"obsTime":1782331200},"SBBR":{"icaoId":"SBBR","flightCategory":"VFR","rawOb":"METAR SBBR 242000Z 26006KT 230V310 9999 SCT045 28/13 Q1018","temp":28,"dewp":13,"wdir":260,"wspd":6,"visib":"6+","altim":1018,"clouds":[{"cover":"SCT","base":4500}],"obsTime":1782331200},"SBUL":{"icaoId":"SBUL","flightCategory":"LIFR","rawOb":"METAR SBUL 242000Z 22004KT 170V250 3000 -RA BR BKN003 BKN020 BKN040 14/13 Q1021","temp":14,"dewp":13,"wdir":220,"wspd":4,"visib":1.86,"altim":1021,"clouds":[{"cover":"BKN","base":300},{"cover":"BKN","base":2000},{"cover":"BKN","base":4000}],"obsTime":1782331200},"SBJU":{"icaoId":"SBJU","flightCategory":"VFR","rawOb":"METAR SBJU 242000Z 15009KT 9999 FEW022 31/16 Q1013","temp":31,"dewp":16,"wdir":150,"wspd":9,"visib":"6+","altim":1013,"clouds":[{"cover":"FEW","base":2200}],"obsTime":1782331200},"SBUR":{"icaoId":"SBUR","flightCategory":"IFR","rawOb":"METAR SBUR 242000Z 20001KT 4000 BR BKN009 OVC070 15/14 Q1020","temp":15,"dewp":14,"wdir":200,"wspd":1,"visib":2.49,"altim":1020,"clouds":[{"cover":"BKN","base":900},{"cover":"OVC","base":7000}],"obsTime":1782331200},"SBVT":{"icaoId":"SBVT","flightCategory":"VFR","rawOb":"METAR SBVT 242000Z 02003KT 9999 FEW020 24/21 Q1014","temp":24,"dewp":21,"wdir":20,"wspd":3,"visib":"6+","altim":1014,"clouds":[{"cover":"FEW","base":2000}],"obsTime":1782331200},"SBKP":{"icaoId":"SBKP","flightCategory":"LIFR","rawOb":"METAR SBKP 242000Z 26007KT 0800 R15/1200N FG VV001 13/13 Q1020","temp":13,"dewp":13,"wdir":260,"wspd":7,"visib":0.5,"altim":1020,"clouds":[{"cover":"OVX","base":100}],"obsTime":1782331200},"SBCZ":{"icaoId":"SBCZ","flightCategory":"MVFR","rawOb":"METAR SBCZ 242000Z 15004KT 9999 BKN030 27/25 Q1010","temp":27,"dewp":25,"wdir":150,"wspd":4,"visib":"6+","altim":1010,"clouds":[{"cover":"BKN","base":3000}],"obsTime":1782331200},"SBOI":{"icaoId":"SBOI","flightCategory":"VFR","rawOb":"METAR SBOI 242000Z AUTO 32004KT 280V350 CAVOK 30/25 Q1010","temp":30,"dewp":25,"wdir":320,"wspd":4,"visib":"6+","altim":1010,"clouds":[],"obsTime":1782331200},"SBPB":{"icaoId":"SBPB","flightCategory":"VFR","rawOb":"METAR SBPB 242000Z 06007KT 9999 SCT016 BKN100 27/24 Q1009","temp":27,"dewp":24,"wdir":60,"wspd":7,"visib":"6+","altim":1009,"clouds":[{"cover":"SCT","base":1600},{"cover":"BKN","base":10000}],"obsTime":1782331200},"SBCJ":{"icaoId":"SBCJ","flightCategory":"VFR","rawOb":"METAR SBCJ 242000Z 23002KT CAVOK 30/19 Q1014","temp":30,"dewp":19,"wdir":230,"wspd":2,"visib":"6+","altim":1014,"clouds":[],"obsTime":1782331200},"SBPL":{"icaoId":"SBPL","flightCategory":"VFR","rawOb":"METAR SBPL 242000Z 11007KT 9999 FEW030 31/14 Q1013","temp":31,"dewp":14,"wdir":110,"wspd":7,"visib":"6+","altim":1013,"clouds":[{"cover":"FEW","base":3000}],"obsTime":1782331200},"SBPP":{"icaoId":"SBPP","flightCategory":"VFR","rawOb":"METAR SBPP 242000Z 12010KT CAVOK 14/M01 Q1019","temp":14,"dewp":-1,"wdir":120,"wspd":10,"visib":"6+","altim":1019,"clouds":[],"obsTime":1782331200},"SBCO":{"icaoId":"SBCO","flightCategory":"VFR","rawOb":"METAR SBCO 242000Z 28007KT 9999 FEW040 13/03 Q1019","temp":13,"dewp":3,"wdir":280,"wspd":7,"visib":"6+","altim":1019,"clouds":[{"cover":"FEW","base":4000}],"obsTime":1782331200},"SBPS":{"icaoId":"SBPS","flightCategory":"VFR","rawOb":"METAR SBPS 242000Z 04004KT 9999 SCT015 BKN050 25/21 Q1015","temp":25,"dewp":21,"wdir":40,"wspd":4,"visib":"6+","altim":1015,"clouds":[{"cover":"SCT","base":1500},{"cover":"BKN","base":5000}],"obsTime":1782331200},"SBBU":{"icaoId":"SBBU","flightCategory":"LIFR","rawOb":"METAR SBBU 242000Z 18004KT 5000 BR OVC003 14/14 Q1019","temp":14,"dewp":14,"wdir":180,"wspd":4,"visib":3.11,"altim":1019,"clouds":[{"cover":"OVC","base":300}],"obsTime":1782331200},"SBDN":{"icaoId":"SBDN","flightCategory":"VFR","rawOb":"METAR SBDN 242000Z 21004KT 9999 FEW015 13/09 Q1019","temp":13,"dewp":9,"wdir":210,"wspd":4,"visib":"6+","altim":1019,"clouds":[{"cover":"FEW","base":1500}],"obsTime":1782331200},"SBSC":{"icaoId":"SBSC","flightCategory":"VFR","rawOb":"METAR SBSC 242000Z 33005KT 9000 -RA SCT010 OVC040 19/18 Q1017","temp":19,"dewp":18,"wdir":330,"wspd":5,"visib":5.59,"altim":1017,"clouds":[{"cover":"SCT","base":1000},{"cover":"OVC","base":4000}],"obsTime":1782331200},"SBSJ":{"icaoId":"SBSJ","flightCategory":"IFR","rawOb":"METAR SBSJ 242000Z 22004KT 6000 SCT007 BKN009 OVC022 15/14 Q1019","temp":15,"dewp":14,"wdir":220,"wspd":4,"visib":3.73,"altim":1019,"clouds":[{"cover":"SCT","base":700},{"cover":"BKN","base":900},{"cover":"OVC","base":2200}],"obsTime":1782331200},"SBAX":{"icaoId":"SBAX","flightCategory":"MVFR","rawOb":"METAR SBAX 242000Z AUTO 23010G20KT 200V270 8000 -RA FEW011 BKN039 ///// Q1021","temp":null,"dewp":null,"wdir":230,"wspd":10,"visib":4.97,"altim":1021,"clouds":[{"cover":"FEW","base":1100},{"cover":"BKN","base":3900}],"obsTime":1782331200},"SBES":{"icaoId":"SBES","flightCategory":"MVFR","rawOb":"METAR SBES 242000Z 21014KT 9000 -DZ SCT010 BKN030 OVC060 20/// Q1016","temp":null,"dewp":null,"wdir":210,"wspd":14,"visib":5.59,"altim":1016,"clouds":[{"cover":"SCT","base":1000},{"cover":"BKN","base":3000},{"cover":"OVC","base":6000}],"obsTime":1782331200},"SBSM":{"icaoId":"SBSM","flightCategory":"VFR","rawOb":"METAR SBSM 242000Z 28008KT CAVOK 14/03 Q1018","temp":14,"dewp":3,"wdir":280,"wspd":8,"visib":"6+","altim":1018,"clouds":[],"obsTime":1782331200},"SBCA":{"icaoId":"SBCA","flightCategory":"VFR","rawOb":"METAR SBCA 242000Z 16006KT CAVOK 11/00 Q1020","temp":11,"dewp":0,"wdir":160,"wspd":6,"visib":"6+","altim":1020,"clouds":[],"obsTime":1782331200},"SBSR":{"icaoId":"SBSR","flightCategory":"IFR","rawOb":"METAR SBSR 242000Z 25007KT 9999 BKN007 OVC070 13/12 Q1020","temp":13,"dewp":12,"wdir":250,"wspd":7,"visib":"6+","altim":1020,"clouds":[{"cover":"BKN","base":700},{"cover":"OVC","base":7000}],"obsTime":1782331200},"SBIP":{"icaoId":"SBIP","flightCategory":"VFR","rawOb":"METAR SBIP 242000Z AUTO VRB02KT CAVOK 23/17 Q1015","temp":23,"dewp":17,"wdir":"VRB","wspd":2,"visib":"6+","altim":1015,"clouds":[],"obsTime":1782331200},"SBTF":{"icaoId":"SBTF","flightCategory":"VFR","rawOb":"METAR SBTF 242000Z 16004KT 9999 SCT018 FEW025TCU 31/26 Q1008 RESHRA","temp":31,"dewp":26,"wdir":160,"wspd":4,"visib":"6+","altim":1008,"clouds":[{"cover":"SCT","base":1800},{"cover":"FEW","base":2500}],"obsTime":1782331200},"SBAR":{"icaoId":"SBAR","flightCategory":"VFR","rawOb":"METAR SBAR 242000Z 12007KT 9999 FEW023 27/22 Q1014","temp":27,"dewp":22,"wdir":120,"wspd":7,"visib":"6+","altim":1014,"clouds":[{"cover":"FEW","base":2300}],"obsTime":1782331200},"SBTT":{"icaoId":"SBTT","flightCategory":"VFR","rawOb":"METAR SBTT 242000Z 08008KT 9999 -RA FEW025TCU SCT040 24/23 Q1010","temp":24,"dewp":23,"wdir":80,"wspd":8,"visib":"6+","altim":1010,"clouds":[{"cover":"FEW","base":2500},{"cover":"SCT","base":4000}],"obsTime":1782331200},"SBTU":{"icaoId":"SBTU","flightCategory":"VFR","rawOb":"METAR SBTU 242000Z AUTO 31003KT 250V010 9999 // NCD ///// Q1011","temp":null,"dewp":null,"wdir":310,"wspd":3,"visib":"6+","altim":1011,"clouds":[],"obsTime":1782331200},"SBKG":{"icaoId":"SBKG","flightCategory":"VFR","rawOb":"METAR SBKG 242000Z 13007KT 9999 SCT030 28/19 Q1015","temp":28,"dewp":19,"wdir":130,"wspd":7,"visib":"6+","altim":1015,"clouds":[{"cover":"SCT","base":3000}],"obsTime":1782331200},"SBUY":{"icaoId":"SBUY","flightCategory":"VFR","rawOb":"METAR SBUY 242000Z 29003KT 9999 FEW030 SCT100 30/25 Q1007","temp":30,"dewp":25,"wdir":290,"wspd":3,"visib":"6+","altim":1007,"clouds":[{"cover":"FEW","base":3000},{"cover":"SCT","base":10000}],"obsTime":1782331200},"SBBH":{"icaoId":"SBBH","flightCategory":"VFR","rawOb":"METAR SBBH 242000Z 01002KT CAVOK 26/14 Q1017","temp":26,"dewp":14,"wdir":10,"wspd":2,"visib":"6+","altim":1017,"clouds":[],"obsTime":1782331200},"SBVH":{"icaoId":"SBVH","flightCategory":"LIFR","rawOb":"METAR SBVH 242000Z 20008KT 1000 BR VCFG OVC002 16/15 Q1016","temp":16,"dewp":15,"wdir":200,"wspd":8,"visib":0.62,"altim":1016,"clouds":[{"cover":"OVC","base":200}],"obsTime":1782331200},"SBCC":{"icaoId":"SBCC","flightCategory":"MVFR","rawOb":"METAR SBCC 242000Z 07009KT 9999 BKN025 31/16 Q1012","temp":31,"dewp":16,"wdir":70,"wspd":9,"visib":"6+","altim":1012,"clouds":[{"cover":"BKN","base":2500}],"obsTime":1782331200},"SBTA":{"icaoId":"SBTA","flightCategory":"MVFR","rawOb":"METAR SBTA 242000Z 25003KT 210V300 6000 2500E FEW008 BKN013 OVC100 15/14 Q1018","temp":15,"dewp":14,"wdir":250,"wspd":3,"visib":3.73,"altim":1018,"clouds":[{"cover":"FEW","base":800},{"cover":"BKN","base":1300},{"cover":"OVC","base":10000}],"obsTime":1782331200},"SBJP":{"icaoId":"SBJP","flightCategory":"VFR","rawOb":"METAR SBJP 242000Z 13008KT 9999 SCT030 26/21 Q1013","temp":26,"dewp":21,"wdir":130,"wspd":8,"visib":"6+","altim":1013,"clouds":[{"cover":"SCT","base":3000}],"obsTime":1782331200},"SBAN":{"icaoId":"SBAN","flightCategory":"VFR","rawOb":"METAR SBAN 242000Z 20009KT 9999 SCT045 SCT100 24/17 Q1019","temp":24,"dewp":17,"wdir":200,"wspd":9,"visib":"6+","altim":1019,"clouds":[{"cover":"SCT","base":4500},{"cover":"SCT","base":10000}],"obsTime":1782331200},"SBJV":{"icaoId":"SBJV","flightCategory":"VFR","rawOb":"METAR SBJV 242000Z 00000KT 9999 FEW045 13/10 Q1020","temp":13,"dewp":10,"wdir":0,"wspd":0,"visib":"6+","altim":1020,"clouds":[{"cover":"FEW","base":4500}],"obsTime":1782331200},"SBPF":{"icaoId":"SBPF","flightCategory":"VFR","rawOb":"METAR SBPF 242000Z 28005KT 9999 FEW040 10/01 Q1019","temp":10,"dewp":1,"wdir":280,"wspd":5,"visib":"6+","altim":1019,"clouds":[{"cover":"FEW","base":4000}],"obsTime":1782331200},"SBIH":{"icaoId":"SBIH","flightCategory":"VFR","rawOb":"METAR SBIH 242000Z 28002KT 9999 FEW020 FEW025TCU 35/25 Q1008","temp":35,"dewp":25,"wdir":280,"wspd":2,"visib":"6+","altim":1008,"clouds":[{"cover":"FEW","base":2000},{"cover":"FEW","base":2500}],"obsTime":1782331200},"SBLE":{"icaoId":"SBLE","flightCategory":"VFR","rawOb":"METAR SBLE 242000Z AUTO 25002KT CAVOK 27/17 Q1015","temp":27,"dewp":17,"wdir":250,"wspd":2,"visib":"6+","altim":1015,"clouds":[],"obsTime":1782331200},"SBAF":{"icaoId":"SBAF","flightCategory":"MVFR","rawOb":" SBAF 242000Z 03004KT 6000 -RA FEW005 SCT015 BKN050 19/19 Q1017","temp":19,"dewp":19,"wdir":30,"wspd":4,"visib":3.73,"altim":1017,"clouds":[{"cover":"FEW","base":500},{"cover":"SCT","base":1500},{"cover":"BKN","base":5000}],"obsTime":1782331200},"SBGW":{"icaoId":"SBGW","flightCategory":"IFR","rawOb":"METAR SBGW 242000Z 06003KT 3000 HZ BKN006 OVC023 16/13 Q1019","temp":16,"dewp":13,"wdir":60,"wspd":3,"visib":1.86,"altim":1019,"clouds":[{"cover":"BKN","base":600},{"cover":"OVC","base":2300}],"obsTime":1782331200},"SBJR":{"icaoId":"SBJR","flightCategory":"MVFR","rawOb":"METAR SBJR 242000Z 34003KT 9000 FEW015 OVC025 20/19 Q1016","temp":20,"dewp":19,"wdir":340,"wspd":3,"visib":5.59,"altim":1016,"clouds":[{"cover":"FEW","base":1500},{"cover":"OVC","base":2500}],"obsTime":1782331200},"SBLS":{"icaoId":"SBLS","flightCategory":"VFR","rawOb":"METAR SBLS 242000Z 05003KT 330V120 CAVOK 25/14 Q1018","temp":25,"dewp":14,"wdir":50,"wspd":3,"visib":"6+","altim":1018,"clouds":[],"obsTime":1782331200},"SBMT":{"icaoId":"SBMT","flightCategory":"IFR","rawOb":"METAR SBMT 242000Z 20004KT 160V260 2500 -RA BR SCT006 OVC009 12/12 Q1019","temp":12,"dewp":12,"wdir":200,"wspd":4,"visib":1.55,"altim":1019,"clouds":[{"cover":"SCT","base":600},{"cover":"OVC","base":900}],"obsTime":1782331200},"SBST":{"icaoId":"SBST","flightCategory":"IFR","rawOb":"METAR SBST 242000Z 30004KT 4000 BR BKN020 15/12 Q1019","temp":15,"dewp":12,"wdir":300,"wspd":4,"visib":2.49,"altim":1019,"clouds":[{"cover":"BKN","base":2000}],"obsTime":1782331200}}}