{"updated":1779533508,"count":71,"data":{"SBCG":{"icaoId":"SBCG","flightCategory":"IFR","rawOb":"METAR SBCG 230900Z 14008KT 9999 BKN007 BKN100 16/14 Q1021","temp":16,"dewp":14,"wdir":140,"wspd":8,"visib":"6+","altim":1021,"clouds":[{"cover":"BKN","base":700},{"cover":"BKN","base":10000}],"obsTime":1779526800},"SBPA":{"icaoId":"SBPA","flightCategory":"VFR","rawOb":"METAR SBPA 230900Z 09007KT 9999 FEW005 BKN074 14/13 Q1025","temp":14,"dewp":13,"wdir":90,"wspd":7,"visib":"6+","altim":1025,"clouds":[{"cover":"FEW","base":500},{"cover":"BKN","base":7400}],"obsTime":1779526800},"SBMK":{"icaoId":"SBMK","flightCategory":"MVFR","rawOb":"METAR SBMK 230900Z 14005KT 9999 BKN025 21/16 Q1022","temp":21,"dewp":16,"wdir":140,"wspd":5,"visib":"6+","altim":1022,"clouds":[{"cover":"BKN","base":2500}],"obsTime":1779526800},"SBFL":{"icaoId":"SBFL","flightCategory":"MVFR","rawOb":"METAR SBFL 230900Z 30003KT 9999 FEW009 BKN015 16/15 Q1024","temp":16,"dewp":15,"wdir":300,"wspd":3,"visib":"6+","altim":1024,"clouds":[{"cover":"FEW","base":900},{"cover":"BKN","base":1500}],"obsTime":1779526800},"SBMO":{"icaoId":"SBMO","flightCategory":"MVFR","rawOb":"METAR SBMO 230900Z 08006KT 9999 BKN015 BKN070 23/23 Q1015","temp":23,"dewp":23,"wdir":80,"wspd":6,"visib":"6+","altim":1015,"clouds":[{"cover":"BKN","base":1500},{"cover":"BKN","base":7000}],"obsTime":1779526800},"SBFZ":{"icaoId":"SBFZ","flightCategory":"VFR","rawOb":"METAR SBFZ 230900Z 16008KT 9999 FEW021 SCT070 26/24 Q1012","temp":26,"dewp":24,"wdir":160,"wspd":8,"visib":"6+","altim":1012,"clouds":[{"cover":"FEW","base":2100},{"cover":"SCT","base":7000}],"obsTime":1779526800},"SBMQ":{"icaoId":"SBMQ","flightCategory":"MVFR","rawOb":"METAR SBMQ 230900Z 25003KT 9999 BKN023 25/24 Q1013","temp":25,"dewp":24,"wdir":250,"wspd":3,"visib":"6+","altim":1013,"clouds":[{"cover":"BKN","base":2300}],"obsTime":1779526800},"SBNT":{"icaoId":"SBNT","flightCategory":"VFR","rawOb":"METAR SBNT 230900Z 19006KT 9999 FEW018 23/21 Q1014","temp":23,"dewp":21,"wdir":190,"wspd":6,"visib":"6+","altim":1014,"clouds":[{"cover":"FEW","base":1800}],"obsTime":1779526800},"SBBV":{"icaoId":"SBBV","flightCategory":"VFR","rawOb":"METAR SBBV 230900Z 04003KT 9999 SCT007 SCT025 FEW030TCU 24/24 Q1015","temp":24,"dewp":24,"wdir":40,"wspd":3,"visib":"6+","altim":1015,"clouds":[{"cover":"SCT","base":700},{"cover":"SCT","base":2500},{"cover":"FEW","base":3000}],"obsTime":1779526800},"SBGL":{"icaoId":"SBGL","flightCategory":"MVFR","rawOb":"METAR SBGL 230900Z 08002KT 6000 FEW005 SCT030 BKN050 18/17 Q1022","temp":18,"dewp":17,"wdir":80,"wspd":2,"visib":3.73,"altim":1022,"clouds":[{"cover":"FEW","base":500},{"cover":"SCT","base":3000},{"cover":"BKN","base":5000}],"obsTime":1779526800},"SBPJ":{"icaoId":"SBPJ","flightCategory":"VFR","rawOb":"METAR SBPJ 230900Z 14014KT CAVOK 27/17 Q1015","temp":27,"dewp":17,"wdir":140,"wspd":14,"visib":"6+","altim":1015,"clouds":[],"obsTime":1779526800},"SBPV":{"icaoId":"SBPV","flightCategory":"MVFR","rawOb":"METAR SBPV 230900Z 17011KT 9999 SCT010 OVC030 20/17 Q1016","temp":20,"dewp":17,"wdir":170,"wspd":11,"visib":"6+","altim":1016,"clouds":[{"cover":"SCT","base":1000},{"cover":"OVC","base":3000}],"obsTime":1779526800},"SBGO":{"icaoId":"SBGO","flightCategory":"VFR","rawOb":"METAR SBGO 230900Z 11006KT CAVOK 19/16 Q1022","temp":19,"dewp":16,"wdir":110,"wspd":6,"visib":"6+","altim":1022,"clouds":[],"obsTime":1779526800},"SBRB":{"icaoId":"SBRB","flightCategory":"MVFR","rawOb":"METAR SBRB 230900Z 13005KT 8000 BKN040 18/15 Q1019","temp":18,"dewp":15,"wdir":130,"wspd":5,"visib":4.97,"altim":1019,"clouds":[{"cover":"BKN","base":4000}],"obsTime":1779526800},"SBCP":{"icaoId":"SBCP","flightCategory":"MVFR","rawOb":"METAR SBCP 231000Z 29003KT 9999 FEW015 BKN030 OVC080 20/19 Q1024","temp":20,"dewp":19,"wdir":290,"wspd":3,"visib":"6+","altim":1024,"clouds":[{"cover":"FEW","base":1500},{"cover":"BKN","base":3000},{"cover":"OVC","base":8000}],"obsTime":1779530400},"SBRF":{"icaoId":"SBRF","flightCategory":"VFR","rawOb":"METAR SBRF 230900Z 20002KT 9999 FEW008 SCT018 24/23 Q1014","temp":24,"dewp":23,"wdir":200,"wspd":2,"visib":"6+","altim":1014,"clouds":[{"cover":"FEW","base":800},{"cover":"SCT","base":1800}],"obsTime":1779526800},"SBGR":{"icaoId":"SBGR","flightCategory":"IFR","rawOb":"METAR SBGR 230900Z 07006KT 9999 -RA OVC007 16/15 Q1024","temp":16,"dewp":15,"wdir":70,"wspd":6,"visib":"6+","altim":1024,"clouds":[{"cover":"OVC","base":700}],"obsTime":1779526800},"SBSG":{"icaoId":"SBSG","flightCategory":"VFR","rawOb":"METAR SBSG 230900Z VRB02KT 9999 FEW025 22/21 Q1014","temp":22,"dewp":21,"wdir":"VRB","wspd":2,"visib":"6+","altim":1014,"clouds":[{"cover":"FEW","base":2500}],"obsTime":1779526800},"SBHT":{"icaoId":"SBHT","flightCategory":"VFR","rawOb":"METAR SBHT 231000Z 00000KT 9999 FEW012 SCT090 25/24 Q1013","temp":25,"dewp":24,"wdir":0,"wspd":0,"visib":"6+","altim":1013,"clouds":[{"cover":"FEW","base":1200},{"cover":"SCT","base":9000}],"obsTime":1779530400},"SBSL":{"icaoId":"SBSL","flightCategory":"VFR","rawOb":"METAR SBSL 230900Z 08002KT 9999 FEW020 BKN100 26/25 Q1012","temp":26,"dewp":25,"wdir":80,"wspd":2,"visib":"6+","altim":1012,"clouds":[{"cover":"FEW","base":2000},{"cover":"BKN","base":10000}],"obsTime":1779526800},"SBIL":{"icaoId":"SBIL","flightCategory":"MVFR","rawOb":"METAR SBIL 231000Z 18010KT 9999 SCT010 BKN018 OVC070 25/24 Q1019","temp":25,"dewp":24,"wdir":180,"wspd":10,"visib":"6+","altim":1019,"clouds":[{"cover":"SCT","base":1000},{"cover":"BKN","base":1800},{"cover":"OVC","base":7000}],"obsTime":1779530400},"SBSN":{"icaoId":"SBSN","flightCategory":"VFR","rawOb":"METAR SBSN 230900Z 17002KT 9999 FEW020 SCT090 25/24 Q1013","temp":25,"dewp":24,"wdir":170,"wspd":2,"visib":"6+","altim":1013,"clouds":[{"cover":"FEW","base":2000},{"cover":"SCT","base":9000}],"obsTime":1779526800},"SBSP":{"icaoId":"SBSP","flightCategory":"IFR","rawOb":"METAR SBSP 230900Z 06005KT 360V100 9000 -RA OVC007 16/15 Q1024 RETSRA","temp":16,"dewp":15,"wdir":60,"wspd":5,"visib":5.59,"altim":1024,"clouds":[{"cover":"OVC","base":700}],"obsTime":1779526800},"SBBE":{"icaoId":"SBBE","flightCategory":"MVFR","rawOb":"METAR SBBE 230900Z 19004KT 9999 SCT008 BKN020 BKN080 24/24 Q1013","temp":24,"dewp":24,"wdir":190,"wspd":4,"visib":"6+","altim":1013,"clouds":[{"cover":"SCT","base":800},{"cover":"BKN","base":2000},{"cover":"BKN","base":8000}],"obsTime":1779526800},"SBJU":{"icaoId":"SBJU","flightCategory":"VFR","rawOb":"METAR SBJU 230900Z 15005KT 9999 SCT018 22/19 Q1017","temp":22,"dewp":19,"wdir":150,"wspd":5,"visib":"6+","altim":1017,"clouds":[{"cover":"SCT","base":1800}],"obsTime":1779526800},"SBSV":{"icaoId":"SBSV","flightCategory":"VFR","rawOb":"METAR SBSV 230900Z 12010KT 050V150 9999 SCT027 BKN080 27/21 Q1017","temp":27,"dewp":21,"wdir":120,"wspd":10,"visib":"6+","altim":1017,"clouds":[{"cover":"SCT","base":2700},{"cover":"BKN","base":8000}],"obsTime":1779526800},"SBTE":{"icaoId":"SBTE","flightCategory":"VFR","rawOb":"METAR SBTE 230900Z 15006KT CAVOK 25/21 Q1013","temp":25,"dewp":21,"wdir":150,"wspd":6,"visib":"6+","altim":1013,"clouds":[],"obsTime":1779526800},"SBCT":{"icaoId":"SBCT","flightCategory":"IFR","rawOb":"METAR SBCT 230900Z 10004KT 9999 BKN007 OVC011 10/10 Q1024","temp":10,"dewp":10,"wdir":100,"wspd":4,"visib":"6+","altim":1024,"clouds":[{"cover":"BKN","base":700},{"cover":"OVC","base":1100}],"obsTime":1779526800},"SBKP":{"icaoId":"SBKP","flightCategory":"VFR","rawOb":"METAR SBKP 230900Z 12005KT 9999 FEW048 BKN100 16/14 Q1023","temp":16,"dewp":14,"wdir":120,"wspd":5,"visib":"6+","altim":1023,"clouds":[{"cover":"FEW","base":4800},{"cover":"BKN","base":10000}],"obsTime":1779526800},"SBUL":{"icaoId":"SBUL","flightCategory":"VFR","rawOb":"METAR SBUL 230900Z 09007KT 9999 SCT020 BKN070 18/16 Q1023","temp":18,"dewp":16,"wdir":90,"wspd":7,"visib":"6+","altim":1023,"clouds":[{"cover":"SCT","base":2000},{"cover":"BKN","base":7000}],"obsTime":1779526800},"SBCB":{"icaoId":"SBCB","flightCategory":"MVFR","rawOb":"METAR SBCB 230900Z 05008KT 9000 -DZ FEW008 SCT015 BKN030 20/19 Q1023","temp":20,"dewp":19,"wdir":50,"wspd":8,"visib":5.59,"altim":1023,"clouds":[{"cover":"FEW","base":800},{"cover":"SCT","base":1500},{"cover":"BKN","base":3000}],"obsTime":1779526800},"SBUR":{"icaoId":"SBUR","flightCategory":"VFR","rawOb":"METAR SBUR 230900Z 05006KT CAVOK 19/17 Q1022","temp":19,"dewp":17,"wdir":50,"wspd":6,"visib":"6+","altim":1022,"clouds":[],"obsTime":1779526800},"SBLO":{"icaoId":"SBLO","flightCategory":"VFR","rawOb":"METAR SBLO 230900Z VRB02KT 9999 SCT040 BKN084 15/14 Q1022","temp":15,"dewp":14,"wdir":"VRB","wspd":2,"visib":"6+","altim":1022,"clouds":[{"cover":"SCT","base":4000},{"cover":"BKN","base":8400}],"obsTime":1779526800},"SBVT":{"icaoId":"SBVT","flightCategory":"MVFR","rawOb":"METAR SBVT 230900Z 31002KT 9999 SCT020 BKN028 OVC036 20/19 Q1022","temp":20,"dewp":19,"wdir":310,"wspd":2,"visib":"6+","altim":1022,"clouds":[{"cover":"SCT","base":2000},{"cover":"BKN","base":2800},{"cover":"OVC","base":3600}],"obsTime":1779526800},"SBMA":{"icaoId":"SBMA","flightCategory":"VFR","rawOb":"METAR SBMA 230900Z 00000KT CAVOK 24/23 Q1013","temp":24,"dewp":23,"wdir":0,"wspd":0,"visib":"6+","altim":1013,"clouds":[],"obsTime":1779526800},"SBEG":{"icaoId":"SBEG","flightCategory":"IFR","rawOb":"METAR SBEG 230900Z 21005KT 9999 BKN009 SCT100 25/24 Q1014","temp":25,"dewp":24,"wdir":210,"wspd":5,"visib":"6+","altim":1014,"clouds":[{"cover":"BKN","base":900},{"cover":"SCT","base":10000}],"obsTime":1779526800},"SBBR":{"icaoId":"SBBR","flightCategory":"MVFR","rawOb":"METAR SBBR 230900Z 11011KT 9999 FEW010 BKN015 17/15 Q1024","temp":17,"dewp":15,"wdir":110,"wspd":11,"visib":"6+","altim":1024,"clouds":[{"cover":"FEW","base":1000},{"cover":"BKN","base":1500}],"obsTime":1779526800},"SBME":{"icaoId":"SBME","flightCategory":"MVFR","rawOb":"METAR SBME 230900Z 00000KT 9999 BKN020 BKN070 20/19 Q1023","temp":20,"dewp":19,"wdir":0,"wspd":0,"visib":"6+","altim":1023,"clouds":[{"cover":"BKN","base":2000},{"cover":"BKN","base":7000}],"obsTime":1779526800},"SBMG":{"icaoId":"SBMG","flightCategory":"LIFR","rawOb":"METAR SBMG 230900Z AUTO 17003KT 0550 R10/0650N FG SCT002 15/14 Q1022","temp":15,"dewp":14,"wdir":170,"wspd":3,"visib":0.34,"altim":1022,"clouds":[{"cover":"SCT","base":200}],"obsTime":1779526800},"SBFI":{"icaoId":"SBFI","flightCategory":"IFR","rawOb":"METAR SBFI 230900Z 19003KT 5000 BCFG BKN005 SCT080 13/13 Q1022","temp":13,"dewp":13,"wdir":190,"wspd":3,"visib":3.11,"altim":1022,"clouds":[{"cover":"BKN","base":500},{"cover":"SCT","base":8000}],"obsTime":1779526800},"SBCF":{"icaoId":"SBCF","flightCategory":"VFR","rawOb":"METAR SBCF 230900Z 14008KT CAVOK 17/15 Q1025","temp":17,"dewp":15,"wdir":140,"wspd":8,"visib":"6+","altim":1025,"clouds":[],"obsTime":1779526800},"SBCJ":{"icaoId":"SBCJ","flightCategory":"VFR","rawOb":"SPECI SBCJ 231015Z 12005KT CAVOK 25/18 Q1019","temp":25,"dewp":18,"wdir":120,"wspd":5,"visib":"6+","altim":1019,"clouds":[],"obsTime":1779531300},"SBPB":{"icaoId":"SBPB","flightCategory":"VFR","rawOb":"SPECI SBPB 231015Z 11004KT 9999 FEW016 SCT080 27/25 Q1013","temp":27,"dewp":25,"wdir":110,"wspd":4,"visib":"6+","altim":1013,"clouds":[{"cover":"FEW","base":1600},{"cover":"SCT","base":8000}],"obsTime":1779531300},"SBCO":{"icaoId":"SBCO","flightCategory":"MVFR","rawOb":"METAR SBCO 230900Z 10004KT 8000 -DZ BKN040 BKN066 13/13 Q1025","temp":13,"dewp":13,"wdir":100,"wspd":4,"visib":4.97,"altim":1025,"clouds":[{"cover":"BKN","base":4000},{"cover":"BKN","base":6600}],"obsTime":1779526800},"SBTU":{"icaoId":"SBTU","flightCategory":"VFR","rawOb":"METAR SBTU 230900Z AUTO 18003KT 160V220 9999 // NCD 24/23 Q1015","temp":24,"dewp":23,"wdir":180,"wspd":3,"visib":"6+","altim":1015,"clouds":[],"obsTime":1779526800},"SBAX":{"icaoId":"SBAX","flightCategory":"VFR","rawOb":"METAR SBAX 230900Z AUTO 09005KT CAVOK ///// Q1024","temp":null,"dewp":null,"wdir":90,"wspd":5,"visib":"6+","altim":1024,"clouds":[],"obsTime":1779526800},"SBBH":{"icaoId":"SBBH","flightCategory":"VFR","rawOb":"METAR SBBH 230900Z 10006KT 9999 FEW025 18/15 Q1025","temp":18,"dewp":15,"wdir":100,"wspd":6,"visib":"6+","altim":1025,"clouds":[{"cover":"FEW","base":2500}],"obsTime":1779526800},"SBBU":{"icaoId":"SBBU","flightCategory":"LIFR","rawOb":"METAR SBBU 230900Z 12006KT 4000 -RA BR BKN003 BKN040 OVC075 17/17 Q1023","temp":17,"dewp":17,"wdir":120,"wspd":6,"visib":2.49,"altim":1023,"clouds":[{"cover":"BKN","base":300},{"cover":"BKN","base":4000},{"cover":"OVC","base":7500}],"obsTime":1779526800},"SBDN":{"icaoId":"SBDN","flightCategory":"VFR","rawOb":"METAR SBDN 230900Z 13007KT 9999 BKN040 16/13 Q1021","temp":16,"dewp":13,"wdir":130,"wspd":7,"visib":"6+","altim":1021,"clouds":[{"cover":"BKN","base":4000}],"obsTime":1779526800},"SBES":{"icaoId":"SBES","flightCategory":"MVFR","rawOb":"METAR SBES 230900Z VRB05KT 9999 -DZ FEW010 BKN030 18/// Q1023","temp":null,"dewp":null,"wdir":"VRB","wspd":5,"visib":"6+","altim":1023,"clouds":[{"cover":"FEW","base":1000},{"cover":"BKN","base":3000}],"obsTime":1779526800},"SBIP":{"icaoId":"SBIP","flightCategory":"VFR","rawOb":"METAR SBIP 230900Z AUTO 20003KT 9999 FEW042 18/18 Q1024","temp":18,"dewp":18,"wdir":200,"wspd":3,"visib":"6+","altim":1024,"clouds":[{"cover":"FEW","base":4200}],"obsTime":1779526800},"SBKG":{"icaoId":"SBKG","flightCategory":"MVFR","rawOb":"METAR SBKG 230900Z 14005KT 9999 BKN010 BKN070 21/20 Q1017","temp":21,"dewp":20,"wdir":140,"wspd":5,"visib":"6+","altim":1017,"clouds":[{"cover":"BKN","base":1000},{"cover":"BKN","base":7000}],"obsTime":1779526800},"SBPL":{"icaoId":"SBPL","flightCategory":"MVFR","rawOb":"METAR SBPL 230900Z 10008KT 9999 BKN020 24/20 Q1017","temp":24,"dewp":20,"wdir":100,"wspd":8,"visib":"6+","altim":1017,"clouds":[{"cover":"BKN","base":2000}],"obsTime":1779526800},"SBPS":{"icaoId":"SBPS","flightCategory":"VFR","rawOb":"METAR SBPS 230900Z 15003KT 9999 SCT020 OVC070 24/22 Q1019","temp":24,"dewp":22,"wdir":150,"wspd":3,"visib":"6+","altim":1019,"clouds":[{"cover":"SCT","base":2000},{"cover":"OVC","base":7000}],"obsTime":1779526800},"SBSC":{"icaoId":"SBSC","flightCategory":"MVFR","rawOb":"METAR SBSC 230900Z 06007KT 8000 FEW040 18/17 Q1022","temp":18,"dewp":17,"wdir":60,"wspd":7,"visib":4.97,"altim":1022,"clouds":[{"cover":"FEW","base":4000}],"obsTime":1779526800},"SBSJ":{"icaoId":"SBSJ","flightCategory":"MVFR","rawOb":"METAR SBSJ 230900Z 04005KT 350V110 7000 OVC013 17/14 Q1023","temp":17,"dewp":14,"wdir":40,"wspd":5,"visib":4.35,"altim":1023,"clouds":[{"cover":"OVC","base":1300}],"obsTime":1779526800},"SBSM":{"icaoId":"SBSM","flightCategory":"VFR","rawOb":"METAR SBSM 230900Z 10001KT 9999 SCT008 07/07 Q1025","temp":7,"dewp":7,"wdir":100,"wspd":1,"visib":"6+","altim":1025,"clouds":[{"cover":"SCT","base":800}],"obsTime":1779526800},"SBSR":{"icaoId":"SBSR","flightCategory":"VFR","rawOb":"METAR SBSR 230900Z 16005KT CAVOK 17/16 Q1021","temp":17,"dewp":16,"wdir":160,"wspd":5,"visib":"6+","altim":1021,"clouds":[],"obsTime":1779526800},"SBAR":{"icaoId":"SBAR","flightCategory":"VFR","rawOb":"METAR SBAR 230900Z 13011KT 9999 FEW015 SCT025 27/21 Q1016","temp":27,"dewp":21,"wdir":130,"wspd":11,"visib":"6+","altim":1016,"clouds":[{"cover":"FEW","base":1500},{"cover":"SCT","base":2500}],"obsTime":1779526800},"SBJP":{"icaoId":"SBJP","flightCategory":"VFR","rawOb":"METAR SBJP 230900Z 18005KT 9999 FEW020 BKN040 23/23 Q1014","temp":23,"dewp":23,"wdir":180,"wspd":5,"visib":"6+","altim":1014,"clouds":[{"cover":"FEW","base":2000},{"cover":"BKN","base":4000}],"obsTime":1779526800},"SBLE":{"icaoId":"SBLE","flightCategory":"VFR","rawOb":"METAR SBLE 230900Z AUTO VRB01KT 9999 SCT022 SCT044 ///// Q////","temp":null,"dewp":null,"wdir":"VRB","wspd":1,"visib":"6+","altim":null,"clouds":[{"cover":"SCT","base":2200},{"cover":"SCT","base":4400}],"obsTime":1779526800},"SBJV":{"icaoId":"SBJV","flightCategory":"VFR","rawOb":"METAR SBJV 230900Z 02002KT 9999 SCT010 OVC060 15/14 Q1024","temp":15,"dewp":14,"wdir":20,"wspd":2,"visib":"6+","altim":1024,"clouds":[{"cover":"SCT","base":1000},{"cover":"OVC","base":6000}],"obsTime":1779526800},"SBAN":{"icaoId":"SBAN","flightCategory":"VFR","rawOb":"METAR SBAN 230900Z 15009KT CAVOK 16/15 Q1024","temp":16,"dewp":15,"wdir":150,"wspd":9,"visib":"6+","altim":1024,"clouds":[],"obsTime":1779526800},"SBNM":{"icaoId":"SBNM","flightCategory":"IFR","rawOb":"METAR SBNM 230900Z AUTO VRB02KT 1700 BR SCT048 07/07 Q1024","temp":7,"dewp":7,"wdir":"VRB","wspd":2,"visib":1.06,"altim":1024,"clouds":[{"cover":"SCT","base":4800}],"obsTime":1779526800},"SBPF":{"icaoId":"SBPF","flightCategory":"VFR","rawOb":"METAR SBPF 230900Z 13009KT CAVOK 09/07 Q1024","temp":9,"dewp":7,"wdir":130,"wspd":9,"visib":"6+","altim":1024,"clouds":[],"obsTime":1779526800},"SBAF":{"icaoId":"SBAF","flightCategory":"MVFR","rawOb":"METAR SBAF 231000Z 26001KT 6000 FEW009 17/17 Q1023","temp":17,"dewp":17,"wdir":260,"wspd":1,"visib":3.73,"altim":1023,"clouds":[{"cover":"FEW","base":900}],"obsTime":1779530400},"SBGW":{"icaoId":"SBGW","flightCategory":"MVFR","rawOb":"METAR SBGW 230900Z VRB02KT 6000 BKN010 OVC015 17/13 Q1023","temp":17,"dewp":13,"wdir":"VRB","wspd":2,"visib":3.73,"altim":1023,"clouds":[{"cover":"BKN","base":1000},{"cover":"OVC","base":1500}],"obsTime":1779526800},"SBJR":{"icaoId":"SBJR","flightCategory":"VFR","rawOb":"METAR SBJR 231000Z 35003KT 9999 FEW030 19/18 Q1022","temp":19,"dewp":18,"wdir":350,"wspd":3,"visib":"6+","altim":1022,"clouds":[{"cover":"FEW","base":3000}],"obsTime":1779530400},"SBLS":{"icaoId":"SBLS","flightCategory":"VFR","rawOb":"METAR SBLS 230900Z 15010KT 9999 FEW025 17/15 Q1025","temp":17,"dewp":15,"wdir":150,"wspd":10,"visib":"6+","altim":1025,"clouds":[{"cover":"FEW","base":2500}],"obsTime":1779526800},"SBMT":{"icaoId":"SBMT","flightCategory":"IFR","rawOb":"METAR SBMT 230900Z 06005KT 2500 -RA BR OVC009 16/15 Q1023","temp":16,"dewp":15,"wdir":60,"wspd":5,"visib":1.55,"altim":1023,"clouds":[{"cover":"OVC","base":900}],"obsTime":1779526800},"SBTA":{"icaoId":"SBTA","flightCategory":"MVFR","rawOb":"METAR SBTA 230900Z 05008KT 5000 BR OVC015 17/17 Q1022","temp":17,"dewp":17,"wdir":50,"wspd":8,"visib":3.11,"altim":1022,"clouds":[{"cover":"OVC","base":1500}],"obsTime":1779526800}}}