{"updated":1777136674,"count":84,"data":{"SBGR":{"icaoId":"SBGR","flightCategory":"VFR","rawOb":"METAR SBGR 251600Z 29010KT CAVOK 28/17 Q1016","temp":28,"dewp":17,"wdir":290,"wspd":10,"visib":"6+","altim":1016,"clouds":[],"obsTime":1777132800},"SBVT":{"icaoId":"SBVT","flightCategory":"VFR","rawOb":"METAR SBVT 251600Z 06007KT 010V100 9999 SCT035 30/22 Q1012","temp":30,"dewp":22,"wdir":60,"wspd":7,"visib":"6+","altim":1012,"clouds":[{"cover":"SCT","base":3500}],"obsTime":1777132800},"SBBE":{"icaoId":"SBBE","flightCategory":"MVFR","rawOb":"METAR SBBE 251600Z 18005KT 9999 BKN020 FEW024TCU 28/24 Q1011","temp":28,"dewp":24,"wdir":180,"wspd":5,"visib":"6+","altim":1011,"clouds":[{"cover":"BKN","base":2000},{"cover":"FEW","base":2400}],"obsTime":1777132800},"SBTE":{"icaoId":"SBTE","flightCategory":"VFR","rawOb":"METAR SBTE 251600Z 22004KT 9999 SCT020 FEW025TCU SCT100 30/23 Q1010","temp":30,"dewp":23,"wdir":220,"wspd":4,"visib":"6+","altim":1010,"clouds":[{"cover":"SCT","base":2000},{"cover":"FEW","base":2500},{"cover":"SCT","base":10000}],"obsTime":1777132800},"SBBR":{"icaoId":"SBBR","flightCategory":"VFR","rawOb":"METAR SBBR 251600Z 12004KT 050V150 9999 SCT040 28/16 Q1018","temp":28,"dewp":16,"wdir":120,"wspd":4,"visib":"6+","altim":1018,"clouds":[{"cover":"SCT","base":4000}],"obsTime":1777132800},"SBSV":{"icaoId":"SBSV","flightCategory":"VFR","rawOb":"METAR SBSV 251600Z 16007KT 9999 VCSH SCT023 FEW025TCU SCT030 28/24 Q1012","temp":28,"dewp":24,"wdir":160,"wspd":7,"visib":"6+","altim":1012,"clouds":[{"cover":"SCT","base":2300},{"cover":"FEW","base":2500},{"cover":"SCT","base":3000}],"obsTime":1777132800},"SBBV":{"icaoId":"SBBV","flightCategory":"MVFR","rawOb":"METAR SBBV 251600Z 05007KT 9999 BKN025 FEW035TCU 30/23 Q1012","temp":30,"dewp":23,"wdir":50,"wspd":7,"visib":"6+","altim":1012,"clouds":[{"cover":"BKN","base":2500},{"cover":"FEW","base":3500}],"obsTime":1777132800},"SBSP":{"icaoId":"SBSP","flightCategory":"VFR","rawOb":"METAR SBSP 251600Z 31010KT 250V340 CAVOK 28/16 Q1016","temp":28,"dewp":16,"wdir":310,"wspd":10,"visib":"6+","altim":1016,"clouds":[],"obsTime":1777132800},"SBCB":{"icaoId":"SBCB","flightCategory":"VFR","rawOb":"METAR SBCB 251600Z 04009KT CAVOK 31/20 Q1012","temp":31,"dewp":20,"wdir":40,"wspd":9,"visib":"6+","altim":1012,"clouds":[],"obsTime":1777132800},"SBSN":{"icaoId":"SBSN","flightCategory":"VFR","rawOb":"METAR SBSN 251600Z 08009KT 9999 SCT020 FEW023TCU 30/25 Q1012","temp":30,"dewp":25,"wdir":80,"wspd":9,"visib":"6+","altim":1012,"clouds":[{"cover":"SCT","base":2000},{"cover":"FEW","base":2300}],"obsTime":1777132800},"SBCF":{"icaoId":"SBCF","flightCategory":"VFR","rawOb":"METAR SBCF 251600Z 30003KT 9999 SCT046 26/16 Q1018","temp":26,"dewp":16,"wdir":300,"wspd":3,"visib":"6+","altim":1018,"clouds":[{"cover":"SCT","base":4600}],"obsTime":1777132800},"SBSL":{"icaoId":"SBSL","flightCategory":"MVFR","rawOb":"METAR SBSL 251600Z 27006KT 240V300 9999 VCSH BKN020 FEW025TCU BKN090 26/25 Q1011","temp":26,"dewp":25,"wdir":270,"wspd":6,"visib":"6+","altim":1011,"clouds":[{"cover":"BKN","base":2000},{"cover":"FEW","base":2500},{"cover":"BKN","base":9000}],"obsTime":1777132800},"SBCG":{"icaoId":"SBCG","flightCategory":"VFR","rawOb":"METAR SBCG 251600Z VRB06KT 9999 FEW033 32/15 Q1015","temp":32,"dewp":15,"wdir":"VRB","wspd":6,"visib":"6+","altim":1015,"clouds":[{"cover":"FEW","base":3300}],"obsTime":1777132800},"SBSG":{"icaoId":"SBSG","flightCategory":"MVFR","rawOb":"METAR SBSG 251600Z 12006KT 070V150 9999 VCSH BKN027 FEW030TCU 29/24 Q1010","temp":29,"dewp":24,"wdir":120,"wspd":6,"visib":"6+","altim":1010,"clouds":[{"cover":"BKN","base":2700},{"cover":"FEW","base":3000}],"obsTime":1777132800},"SBCP":{"icaoId":"SBCP","flightCategory":"VFR","rawOb":"METAR SBCP 251600Z 35010KT 9999 FEW020 32/20 Q1012","temp":32,"dewp":20,"wdir":350,"wspd":10,"visib":"6+","altim":1012,"clouds":[{"cover":"FEW","base":2000}],"obsTime":1777132800},"SBCR":{"icaoId":"SBCR","flightCategory":"VFR","rawOb":"METAR SBCR 251600Z 34004KT 250V060 9999 SCT035 33/22 Q1012","temp":33,"dewp":22,"wdir":340,"wspd":4,"visib":"6+","altim":1012,"clouds":[{"cover":"SCT","base":3500}],"obsTime":1777132800},"SBRF":{"icaoId":"SBRF","flightCategory":"VFR","rawOb":"METAR SBRF 251600Z 13012KT 9999 SCT024 31/24 Q1010","temp":31,"dewp":24,"wdir":130,"wspd":12,"visib":"6+","altim":1010,"clouds":[{"cover":"SCT","base":2400}],"obsTime":1777132800},"SBKP":{"icaoId":"SBKP","flightCategory":"VFR","rawOb":"METAR SBKP 251600Z 30010KT 250V330 9999 SCT045 29/16 Q1015","temp":29,"dewp":16,"wdir":300,"wspd":10,"visib":"6+","altim":1015,"clouds":[{"cover":"SCT","base":4500}],"obsTime":1777132800},"SBGO":{"icaoId":"SBGO","flightCategory":"VFR","rawOb":"METAR SBGO 251600Z 11005KT 9999 FEW040 31/14 Q1016","temp":31,"dewp":14,"wdir":110,"wspd":5,"visib":"6+","altim":1016,"clouds":[{"cover":"FEW","base":4000}],"obsTime":1777132800},"SBCT":{"icaoId":"SBCT","flightCategory":"VFR","rawOb":"METAR SBCT 251600Z 30014KT CAVOK 27/15 Q1015","temp":27,"dewp":15,"wdir":300,"wspd":14,"visib":"6+","altim":1015,"clouds":[],"obsTime":1777132800},"SBRB":{"icaoId":"SBRB","flightCategory":"MVFR","rawOb":"METAR SBRB 251600Z 32003KT 9999 BKN012 ///// Q1014","temp":null,"dewp":null,"wdir":320,"wspd":3,"visib":"6+","altim":1014,"clouds":[{"cover":"BKN","base":1200}],"obsTime":1777132800},"SBPV":{"icaoId":"SBPV","flightCategory":"VFR","rawOb":"METAR SBPV 251600Z VRB05KT 9999 FEW012 SCT020 28/26 Q1012","temp":28,"dewp":26,"wdir":"VRB","wspd":5,"visib":"6+","altim":1012,"clouds":[{"cover":"FEW","base":1200},{"cover":"SCT","base":2000}],"obsTime":1777132800},"SBEG":{"icaoId":"SBEG","flightCategory":"VFR","rawOb":"METAR SBEG 251600Z 21005KT 9999 VCSH SCT025 FEW030TCU SCT100 29/25 Q1012","temp":29,"dewp":25,"wdir":210,"wspd":5,"visib":"6+","altim":1012,"clouds":[{"cover":"SCT","base":2500},{"cover":"FEW","base":3000},{"cover":"SCT","base":10000}],"obsTime":1777132800},"SBPJ":{"icaoId":"SBPJ","flightCategory":"VFR","rawOb":"METAR SBPJ 251600Z 24005KT 200V280 9999 SCT035 32/23 Q1012","temp":32,"dewp":23,"wdir":240,"wspd":5,"visib":"6+","altim":1012,"clouds":[{"cover":"SCT","base":3500}],"obsTime":1777132800},"SBPA":{"icaoId":"SBPA","flightCategory":"MVFR","rawOb":"SPECI SBPA 251538Z 27006KT 220V310 9999 BKN015 OVC030 23/19 Q1012","temp":23,"dewp":19,"wdir":270,"wspd":6,"visib":"6+","altim":1012,"clouds":[{"cover":"BKN","base":1500},{"cover":"OVC","base":3000}],"obsTime":1777131480},"SBFI":{"icaoId":"SBFI","flightCategory":"VFR","rawOb":"METAR SBFI 251600Z 05003KT 9999 FEW030 BKN080 27/22 Q1012","temp":27,"dewp":22,"wdir":50,"wspd":3,"visib":"6+","altim":1012,"clouds":[{"cover":"FEW","base":3000},{"cover":"BKN","base":8000}],"obsTime":1777132800},"SBMQ":{"icaoId":"SBMQ","flightCategory":"VFR","rawOb":"METAR SBMQ 251600Z 05004KT 9999 SCT025 FEW030TCU 31/24 Q1011","temp":31,"dewp":24,"wdir":50,"wspd":4,"visib":"6+","altim":1011,"clouds":[{"cover":"SCT","base":2500},{"cover":"FEW","base":3000}],"obsTime":1777132800},"SBFL":{"icaoId":"SBFL","flightCategory":"VFR","rawOb":"METAR SBFL 251600Z 16008KT 9999 FEW030 28/20 Q1010","temp":28,"dewp":20,"wdir":160,"wspd":8,"visib":"6+","altim":1010,"clouds":[{"cover":"FEW","base":3000}],"obsTime":1777132800},"SBMO":{"icaoId":"SBMO","flightCategory":"VFR","rawOb":"METAR SBMO 251600Z 14013KT 9999 VCSH SCT035 FEW040TCU 29/24 Q1011","temp":29,"dewp":24,"wdir":140,"wspd":13,"visib":"6+","altim":1011,"clouds":[{"cover":"SCT","base":3500},{"cover":"FEW","base":4000}],"obsTime":1777132800},"SBMA":{"icaoId":"SBMA","flightCategory":"MVFR","rawOb":"METAR SBMA 251600Z 35005KT 9999 BKN020 FEW023TCU 30/25 Q1011","temp":30,"dewp":25,"wdir":350,"wspd":5,"visib":"6+","altim":1011,"clouds":[{"cover":"BKN","base":2000},{"cover":"FEW","base":2300}],"obsTime":1777132800},"SBFZ":{"icaoId":"SBFZ","flightCategory":"VFR","rawOb":"METAR SBFZ 251600Z 15004KT 9999 FEW020 BKN100 30/23 Q1010","temp":30,"dewp":23,"wdir":150,"wspd":4,"visib":"6+","altim":1010,"clouds":[{"cover":"FEW","base":2000},{"cover":"BKN","base":10000}],"obsTime":1777132800},"SBLO":{"icaoId":"SBLO","flightCategory":"VFR","rawOb":"METAR SBLO 251600Z 26002KT 9999 SCT042 30/19 Q1014","temp":30,"dewp":19,"wdir":260,"wspd":2,"visib":"6+","altim":1014,"clouds":[{"cover":"SCT","base":4200}],"obsTime":1777132800},"SBGL":{"icaoId":"SBGL","flightCategory":"VFR","rawOb":"METAR SBGL 251600Z 33008KT CAVOK 33/17 Q1011","temp":33,"dewp":17,"wdir":330,"wspd":8,"visib":"6+","altim":1011,"clouds":[],"obsTime":1777132800},"SBHT":{"icaoId":"SBHT","flightCategory":"MVFR","rawOb":"METAR SBHT 251600Z 10004KT 9999 BKN025 31/23 Q1012","temp":31,"dewp":23,"wdir":100,"wspd":4,"visib":"6+","altim":1012,"clouds":[{"cover":"BKN","base":2500}],"obsTime":1777132800},"SBIL":{"icaoId":"SBIL","flightCategory":"VFR","rawOb":"METAR SBIL 251600Z 16007KT 120V190 9999 SCT025 FEW027TCU 29/24 Q1013","temp":29,"dewp":24,"wdir":160,"wspd":7,"visib":"6+","altim":1013,"clouds":[{"cover":"SCT","base":2500},{"cover":"FEW","base":2700}],"obsTime":1777132800},"SBJU":{"icaoId":"SBJU","flightCategory":"MVFR","rawOb":"METAR SBJU 251600Z 13009KT 9999 BKN020 29/21 Q1013","temp":29,"dewp":21,"wdir":130,"wspd":9,"visib":"6+","altim":1013,"clouds":[{"cover":"BKN","base":2000}],"obsTime":1777132800},"SBME":{"icaoId":"SBME","flightCategory":"VFR","rawOb":"METAR SBME 251600Z 34007KT CAVOK 34/16 Q1011","temp":34,"dewp":16,"wdir":340,"wspd":7,"visib":"6+","altim":1011,"clouds":[],"obsTime":1777132800},"SBMG":{"icaoId":"SBMG","flightCategory":"VFR","rawOb":"METAR SBMG 251600Z 28007KT 230V330 9999 SCT045 29/19 Q1013","temp":29,"dewp":19,"wdir":280,"wspd":7,"visib":"6+","altim":1013,"clouds":[{"cover":"SCT","base":4500}],"obsTime":1777132800},"SBMK":{"icaoId":"SBMK","flightCategory":"VFR","rawOb":"METAR SBMK 251600Z 32005KT 9999 SCT035 30/18 Q1016","temp":30,"dewp":18,"wdir":320,"wspd":5,"visib":"6+","altim":1016,"clouds":[{"cover":"SCT","base":3500}],"obsTime":1777132800},"SBNT":{"icaoId":"SBNT","flightCategory":"MVFR","rawOb":"METAR SBNT 251600Z 30012KT 9999 BKN025 FEW030TCU 30/24 Q1010","temp":30,"dewp":24,"wdir":300,"wspd":12,"visib":"6+","altim":1010,"clouds":[{"cover":"BKN","base":2500},{"cover":"FEW","base":3000}],"obsTime":1777132800},"SBAT":{"icaoId":"SBAT","flightCategory":"VFR","rawOb":"METAR SBAT 251600Z 10002KT 9999 SCT025 34/24 Q1013","temp":34,"dewp":24,"wdir":100,"wspd":2,"visib":"6+","altim":1013,"clouds":[{"cover":"SCT","base":2500}],"obsTime":1777132800},"SBCZ":{"icaoId":"SBCZ","flightCategory":"MVFR","rawOb":"METAR SBCZ 251600Z 15005KT 9999 BKN020 BKN100 28/23 Q1013","temp":28,"dewp":23,"wdir":150,"wspd":5,"visib":"6+","altim":1013,"clouds":[{"cover":"BKN","base":2000},{"cover":"BKN","base":10000}],"obsTime":1777132800},"SBUL":{"icaoId":"SBUL","flightCategory":"VFR","rawOb":"METAR SBUL 251600Z 05005KT 9999 FEW040 27/16 Q1018","temp":27,"dewp":16,"wdir":50,"wspd":5,"visib":"6+","altim":1018,"clouds":[{"cover":"FEW","base":4000}],"obsTime":1777132800},"SBUR":{"icaoId":"SBUR","flightCategory":"VFR","rawOb":"METAR SBUR 251600Z 27006KT 9999 SCT048 30/13 Q1017","temp":30,"dewp":13,"wdir":270,"wspd":6,"visib":"6+","altim":1017,"clouds":[{"cover":"SCT","base":4800}],"obsTime":1777132800},"SBPL":{"icaoId":"SBPL","flightCategory":"MVFR","rawOb":"METAR SBPL 251600Z 14007KT 9999 VCSH BKN022 SCT070 30/21 Q1013","temp":30,"dewp":21,"wdir":140,"wspd":7,"visib":"6+","altim":1013,"clouds":[{"cover":"BKN","base":2200},{"cover":"SCT","base":7000}],"obsTime":1777132800},"SBSJ":{"icaoId":"SBSJ","flightCategory":"VFR","rawOb":"METAR SBSJ 251600Z 29006KT 210V340 9999 FEW030 28/18 Q1015","temp":28,"dewp":18,"wdir":290,"wspd":6,"visib":"6+","altim":1015,"clouds":[{"cover":"FEW","base":3000}],"obsTime":1777132800},"SBAR":{"icaoId":"SBAR","flightCategory":"VFR","rawOb":"METAR SBAR 251600Z 13012KT 9999 SCT020 29/23 Q1011","temp":29,"dewp":23,"wdir":130,"wspd":12,"visib":"6+","altim":1011,"clouds":[{"cover":"SCT","base":2000}],"obsTime":1777132800},"SBPP":{"icaoId":"SBPP","flightCategory":"VFR","rawOb":"METAR SBPP 251600Z 33006KT CAVOK 29/17 Q1015","temp":29,"dewp":17,"wdir":330,"wspd":6,"visib":"6+","altim":1015,"clouds":[],"obsTime":1777132800},"SBOI":{"icaoId":"SBOI","flightCategory":"MVFR","rawOb":"METAR SBOI 251600Z AUTO VRB02KT 9999 FEW020 BKN025 29/25 Q1011","temp":29,"dewp":25,"wdir":"VRB","wspd":2,"visib":"6+","altim":1011,"clouds":[{"cover":"FEW","base":2000},{"cover":"BKN","base":2500}],"obsTime":1777132800},"SBTF":{"icaoId":"SBTF","flightCategory":"VFR","rawOb":"METAR SBTF 251600Z 25002KT 9999 FEW012 BKN090 27/23 Q1013","temp":27,"dewp":23,"wdir":250,"wspd":2,"visib":"6+","altim":1013,"clouds":[{"cover":"FEW","base":1200},{"cover":"BKN","base":9000}],"obsTime":1777132800},"SBPS":{"icaoId":"SBPS","flightCategory":"VFR","rawOb":"METAR SBPS 251600Z 12006KT 070V160 9999 VCSH SCT020 FEW025TCU 28/23 Q1014","temp":28,"dewp":23,"wdir":120,"wspd":6,"visib":"6+","altim":1014,"clouds":[{"cover":"SCT","base":2000},{"cover":"FEW","base":2500}],"obsTime":1777132800},"SBTT":{"icaoId":"SBTT","flightCategory":"MVFR","rawOb":"METAR SBTT 251600Z 04003KT 9999 BKN014 BKN090 26/22 Q1014","temp":26,"dewp":22,"wdir":40,"wspd":3,"visib":"6+","altim":1014,"clouds":[{"cover":"BKN","base":1400},{"cover":"BKN","base":9000}],"obsTime":1777132800},"SBCJ":{"icaoId":"SBCJ","flightCategory":"MVFR","rawOb":"METAR SBCJ 251600Z 12008KT 9999 BKN018 FEW020TCU 26/22 Q1016","temp":26,"dewp":22,"wdir":120,"wspd":8,"visib":"6+","altim":1016,"clouds":[{"cover":"BKN","base":1800},{"cover":"FEW","base":2000}],"obsTime":1777132800},"SBUY":{"icaoId":"SBUY","flightCategory":"VFR","rawOb":"METAR SBUY 251600Z 31003KT 9999 SCT020 BKN100 27/24 Q1012","temp":27,"dewp":24,"wdir":310,"wspd":3,"visib":"6+","altim":1012,"clouds":[{"cover":"SCT","base":2000},{"cover":"BKN","base":10000}],"obsTime":1777132800},"SBPB":{"icaoId":"SBPB","flightCategory":"VFR","rawOb":"METAR SBPB 251600Z 29004KT 9999 SCT018 OVC100 27/24 Q1011","temp":27,"dewp":24,"wdir":290,"wspd":4,"visib":"6+","altim":1011,"clouds":[{"cover":"SCT","base":1800},{"cover":"OVC","base":10000}],"obsTime":1777132800},"SBIP":{"icaoId":"SBIP","flightCategory":"VFR","rawOb":"METAR SBIP 251600Z AUTO 05004KT 360V110 9999 FEW035 28/19 Q1015","temp":28,"dewp":19,"wdir":50,"wspd":4,"visib":"6+","altim":1015,"clouds":[{"cover":"FEW","base":3500}],"obsTime":1777132800},"SBKG":{"icaoId":"SBKG","flightCategory":"MVFR","rawOb":"METAR SBKG 251600Z 11008KT 9999 BKN020 29/22 Q1012","temp":29,"dewp":22,"wdir":110,"wspd":8,"visib":"6+","altim":1012,"clouds":[{"cover":"BKN","base":2000}],"obsTime":1777132800},"SBSC":{"icaoId":"SBSC","flightCategory":"VFR","rawOb":"METAR SBSC 251600Z 36007KT CAVOK 33/19 Q1011","temp":33,"dewp":19,"wdir":360,"wspd":7,"visib":"6+","altim":1011,"clouds":[],"obsTime":1777132800},"SBSM":{"icaoId":"SBSM","flightCategory":"MVFR","rawOb":"METAR SBSM 251600Z 22003KT 9999 +RA BKN020 BKN030 21/19 Q1013","temp":21,"dewp":19,"wdir":220,"wspd":3,"visib":"6+","altim":1013,"clouds":[{"cover":"BKN","base":2000},{"cover":"BKN","base":3000}],"obsTime":1777132800},"SBSR":{"icaoId":"SBSR","flightCategory":"VFR","rawOb":"METAR SBSR 251600Z VRB04KT 9999 FEW030 SCT040 31/14 Q1015","temp":31,"dewp":14,"wdir":"VRB","wspd":4,"visib":"6+","altim":1015,"clouds":[{"cover":"FEW","base":3000},{"cover":"SCT","base":4000}],"obsTime":1777132800},"SBVH":{"icaoId":"SBVH","flightCategory":"VFR","rawOb":"METAR SBVH 251600Z 12003KT 9999 SCT030 SCT060 28/21 Q1015","temp":28,"dewp":21,"wdir":120,"wspd":3,"visib":"6+","altim":1015,"clouds":[{"cover":"SCT","base":3000},{"cover":"SCT","base":6000}],"obsTime":1777132800},"SBAX":{"icaoId":"SBAX","flightCategory":"VFR","rawOb":"METAR SBAX 251600Z AUTO 30004KT 210V360 CAVOK 27/13 Q1018","temp":27,"dewp":13,"wdir":300,"wspd":4,"visib":"6+","altim":1018,"clouds":[],"obsTime":1777132800},"SBBH":{"icaoId":"SBBH","flightCategory":"VFR","rawOb":"METAR SBBH 251600Z 29007KT 9999 BKN040 27/17 Q1017","temp":27,"dewp":17,"wdir":290,"wspd":7,"visib":"6+","altim":1017,"clouds":[{"cover":"BKN","base":4000}],"obsTime":1777132800},"SBBQ":{"icaoId":"SBBQ","flightCategory":"VFR","rawOb":"METAR SBBQ 251600Z 30009KT 260V320 9999 BKN035 25/13 Q1020","temp":25,"dewp":13,"wdir":300,"wspd":9,"visib":"6+","altim":1020,"clouds":[{"cover":"BKN","base":3500}],"obsTime":1777132800},"SBBU":{"icaoId":"SBBU","flightCategory":"VFR","rawOb":"METAR SBBU 251600Z 28008KT 9999 SCT040 30/19 Q1015","temp":30,"dewp":19,"wdir":280,"wspd":8,"visib":"6+","altim":1015,"clouds":[{"cover":"SCT","base":4000}],"obsTime":1777132800},"SBCC":{"icaoId":"SBCC","flightCategory":"VFR","rawOb":"METAR SBCC 251600Z 08008KT 040V120 9999 SCT030 FEW035TCU SCT100 31/20 Q1014","temp":31,"dewp":20,"wdir":80,"wspd":8,"visib":"6+","altim":1014,"clouds":[{"cover":"SCT","base":3000},{"cover":"FEW","base":3500},{"cover":"SCT","base":10000}],"obsTime":1777132800},"SBCO":{"icaoId":"SBCO","flightCategory":"MVFR","rawOb":"METAR SBCO 251600Z 25005KT 8000 BKN015 OVC030 23/19 Q1013","temp":23,"dewp":19,"wdir":250,"wspd":5,"visib":4.97,"altim":1013,"clouds":[{"cover":"BKN","base":1500},{"cover":"OVC","base":3000}],"obsTime":1777132800},"SBDN":{"icaoId":"SBDN","flightCategory":"VFR","rawOb":"METAR SBDN 251600Z 33007KT 9999 SCT030 33/18 Q1013","temp":33,"dewp":18,"wdir":330,"wspd":7,"visib":"6+","altim":1013,"clouds":[{"cover":"SCT","base":3000}],"obsTime":1777132800},"SBES":{"icaoId":"SBES","flightCategory":"VFR","rawOb":"METAR SBES 251600Z 05008KT 280V080 CAVOK 30/// Q1011","temp":null,"dewp":null,"wdir":50,"wspd":8,"visib":"6+","altim":1011,"clouds":[],"obsTime":1777132800},"SBGM":{"icaoId":"SBGM","flightCategory":"VFR","rawOb":"METAR SBGM 251600Z 33003KT 9999 SCT033 31/22 Q1012","temp":31,"dewp":22,"wdir":330,"wspd":3,"visib":"6+","altim":1012,"clouds":[{"cover":"SCT","base":3300}],"obsTime":1777132800},"SBJP":{"icaoId":"SBJP","flightCategory":"MVFR","rawOb":"METAR SBJP 251600Z 10014KT 070V130 9999 BKN025 30/24 Q1010","temp":30,"dewp":24,"wdir":100,"wspd":14,"visib":"6+","altim":1010,"clouds":[{"cover":"BKN","base":2500}],"obsTime":1777132800},"SBGW":{"icaoId":"SBGW","flightCategory":"VFR","rawOb":"METAR SBGW 251600Z VRB04KT CAVOK 30/14 Q1014","temp":30,"dewp":14,"wdir":"VRB","wspd":4,"visib":"6+","altim":1014,"clouds":[],"obsTime":1777132800},"SBAN":{"icaoId":"SBAN","flightCategory":"VFR","rawOb":"METAR SBAN 251600Z 23005KT 9999 SCT030 28/14 Q1019","temp":28,"dewp":14,"wdir":230,"wspd":5,"visib":"6+","altim":1019,"clouds":[{"cover":"SCT","base":3000}],"obsTime":1777132800},"SBLE":{"icaoId":"SBLE","flightCategory":"VFR","rawOb":"METAR SBLE 251600Z AUTO VRB03KT 9999 FEW043 26/22 Q1016","temp":26,"dewp":22,"wdir":"VRB","wspd":3,"visib":"6+","altim":1016,"clouds":[{"cover":"FEW","base":4300}],"obsTime":1777132800},"SBTC":{"icaoId":"SBTC","flightCategory":"VFR","rawOb":"METAR SBTC 251600Z 12005KT 9999 SCT020 29/23 Q1013","temp":29,"dewp":23,"wdir":120,"wspd":5,"visib":"6+","altim":1013,"clouds":[{"cover":"SCT","base":2000}],"obsTime":1777132800},"SBJV":{"icaoId":"SBJV","flightCategory":"VFR","rawOb":"METAR SBJV 251600Z 12006KT CAVOK 29/22 Q1010","temp":29,"dewp":22,"wdir":120,"wspd":6,"visib":"6+","altim":1010,"clouds":[],"obsTime":1777132800},"SBNM":{"icaoId":"SBNM","flightCategory":"MVFR","rawOb":"METAR SBNM 251600Z 33002KT 9999 FEW008 BKN018 BKN030 22/19 Q1014","temp":22,"dewp":19,"wdir":330,"wspd":2,"visib":"6+","altim":1014,"clouds":[{"cover":"FEW","base":800},{"cover":"BKN","base":1800},{"cover":"BKN","base":3000}],"obsTime":1777132800},"SBAF":{"icaoId":"SBAF","flightCategory":"VFR","rawOb":"METAR SBAF 251600Z 33006KT CAVOK 33/17 Q1011","temp":33,"dewp":17,"wdir":330,"wspd":6,"visib":"6+","altim":1011,"clouds":[],"obsTime":1777132800},"SBLS":{"icaoId":"SBLS","flightCategory":"VFR","rawOb":"METAR SBLS 251600Z 35003KT 260V050 9999 BKN040 26/17 Q1018","temp":26,"dewp":17,"wdir":350,"wspd":3,"visib":"6+","altim":1018,"clouds":[{"cover":"BKN","base":4000}],"obsTime":1777132800},"SBMT":{"icaoId":"SBMT","flightCategory":"VFR","rawOb":"METAR SBMT 251600Z 30008KT 9999 SCT040 29/15 Q1015","temp":29,"dewp":15,"wdir":300,"wspd":8,"visib":"6+","altim":1015,"clouds":[{"cover":"SCT","base":4000}],"obsTime":1777132800},"SBST":{"icaoId":"SBST","flightCategory":"VFR","rawOb":"METAR SBST 251600Z 24004KT CAVOK 30/24 Q1010","temp":30,"dewp":24,"wdir":240,"wspd":4,"visib":"6+","altim":1010,"clouds":[],"obsTime":1777132800},"SBTA":{"icaoId":"SBTA","flightCategory":"VFR","rawOb":"METAR SBTA 251600Z VRB03KT 9999 FEW040 30/15 Q1014","temp":30,"dewp":15,"wdir":"VRB","wspd":3,"visib":"6+","altim":1014,"clouds":[{"cover":"FEW","base":4000}],"obsTime":1777132800},"SBIH":{"icaoId":"SBIH","flightCategory":"VFR","rawOb":"METAR SBIH 251600Z 08009KT 9999 SCT016 31/23 Q1011","temp":31,"dewp":23,"wdir":80,"wspd":9,"visib":"6+","altim":1011,"clouds":[{"cover":"SCT","base":1600}],"obsTime":1777132800},"SBJR":{"icaoId":"SBJR","flightCategory":"VFR","rawOb":"METAR SBJR 251600Z 19005KT CAVOK 34/20 Q1011","temp":34,"dewp":20,"wdir":190,"wspd":5,"visib":"6+","altim":1011,"clouds":[],"obsTime":1777132800}}}