{"updated":1783318453,"count":51,"data":{"SBSN":{"icaoId":"SBSN","flightCategory":"VFR","rawOb":"METAR SBSN 060500Z 16002KT 9999 VCTS FEW025CB BKN100 25/24 Q1014","temp":25,"dewp":24,"wdir":160,"wspd":2,"visib":"6+","altim":1014,"clouds":[{"cover":"FEW","base":2500},{"cover":"BKN","base":10000}],"obsTime":1783314000},"SBRB":{"icaoId":"SBRB","flightCategory":"MVFR","rawOb":"METAR SBRB 060500Z 16002KT 8000 FEW010 19/19 Q1016","temp":19,"dewp":19,"wdir":160,"wspd":2,"visib":4.97,"altim":1016,"clouds":[{"cover":"FEW","base":1000}],"obsTime":1783314000},"SBFZ":{"icaoId":"SBFZ","flightCategory":"VFR","rawOb":"METAR SBFZ 060500Z 17005KT 9999 FEW020 25/23 Q1014","temp":25,"dewp":23,"wdir":170,"wspd":5,"visib":"6+","altim":1014,"clouds":[{"cover":"FEW","base":2000}],"obsTime":1783314000},"SBVT":{"icaoId":"SBVT","flightCategory":"VFR","rawOb":"METAR SBVT 060500Z 20005KT 9999 SCT020 BKN050 20/18 Q1020","temp":20,"dewp":18,"wdir":200,"wspd":5,"visib":"6+","altim":1020,"clouds":[{"cover":"SCT","base":2000},{"cover":"BKN","base":5000}],"obsTime":1783314000},"SBBR":{"icaoId":"SBBR","flightCategory":"VFR","rawOb":"METAR SBBR 060500Z 21003KT CAVOK 16/12 Q1022","temp":16,"dewp":12,"wdir":210,"wspd":3,"visib":"6+","altim":1022,"clouds":[],"obsTime":1783314000},"SBCF":{"icaoId":"SBCF","flightCategory":"VFR","rawOb":"METAR SBCF 060500Z 17004KT CAVOK 18/14 Q1022","temp":18,"dewp":14,"wdir":170,"wspd":4,"visib":"6+","altim":1022,"clouds":[],"obsTime":1783314000},"SBGO":{"icaoId":"SBGO","flightCategory":"VFR","rawOb":"METAR SBGO 060500Z 33002KT CAVOK 16/15 Q1020","temp":16,"dewp":15,"wdir":330,"wspd":2,"visib":"6+","altim":1020,"clouds":[],"obsTime":1783314000},"SBUL":{"icaoId":"SBUL","flightCategory":"VFR","rawOb":"METAR SBUL 060500Z 20006KT CAVOK 19/12 Q1022","temp":19,"dewp":12,"wdir":200,"wspd":6,"visib":"6+","altim":1022,"clouds":[],"obsTime":1783314000},"SBRF":{"icaoId":"SBRF","flightCategory":"VFR","rawOb":"METAR SBRF 060500Z 22003KT 9999 SCT018 SCT050 23/22 Q1016","temp":23,"dewp":22,"wdir":220,"wspd":3,"visib":"6+","altim":1016,"clouds":[{"cover":"SCT","base":1800},{"cover":"SCT","base":5000}],"obsTime":1783314000},"SBSG":{"icaoId":"SBSG","flightCategory":"VFR","rawOb":"METAR SBSG 060500Z 17004KT 130V220 9999 FEW020 BKN070 24/23 Q1015","temp":24,"dewp":23,"wdir":170,"wspd":4,"visib":"6+","altim":1015,"clouds":[{"cover":"FEW","base":2000},{"cover":"BKN","base":7000}],"obsTime":1783314000},"SBFI":{"icaoId":"SBFI","flightCategory":"VFR","rawOb":"METAR SBFI 060500Z 22006KT CAVOK 14/12 Q1020","temp":14,"dewp":12,"wdir":220,"wspd":6,"visib":"6+","altim":1020,"clouds":[],"obsTime":1783314000},"SBSV":{"icaoId":"SBSV","flightCategory":"VFR","rawOb":"METAR SBSV 060500Z 12005KT 090V160 9999 FEW027 BKN060 25/20 Q1017","temp":25,"dewp":20,"wdir":120,"wspd":5,"visib":"6+","altim":1017,"clouds":[{"cover":"FEW","base":2700},{"cover":"BKN","base":6000}],"obsTime":1783314000},"SBTE":{"icaoId":"SBTE","flightCategory":"VFR","rawOb":"METAR SBTE 060500Z 00000KT CAVOK 25/23 Q1014","temp":25,"dewp":23,"wdir":0,"wspd":0,"visib":"6+","altim":1014,"clouds":[],"obsTime":1783314000},"SBFL":{"icaoId":"SBFL","flightCategory":"VFR","rawOb":"METAR SBFL 060500Z 33007KT 9999 FEW020 BKN100 16/14 Q1020","temp":16,"dewp":14,"wdir":330,"wspd":7,"visib":"6+","altim":1020,"clouds":[{"cover":"FEW","base":2000},{"cover":"BKN","base":10000}],"obsTime":1783314000},"SBUR":{"icaoId":"SBUR","flightCategory":"VFR","rawOb":"METAR SBUR 060500Z 05002KT CAVOK 20/13 Q1021","temp":20,"dewp":13,"wdir":50,"wspd":2,"visib":"6+","altim":1021,"clouds":[],"obsTime":1783314000},"SBSL":{"icaoId":"SBSL","flightCategory":"VFR","rawOb":"METAR SBSL 060500Z 08003KT CAVOK 26/24 Q1014","temp":26,"dewp":24,"wdir":80,"wspd":3,"visib":"6+","altim":1014,"clouds":[],"obsTime":1783314000},"SBMA":{"icaoId":"SBMA","flightCategory":"VFR","rawOb":"METAR SBMA 060500Z 33003KT CAVOK 27/22 Q1014","temp":27,"dewp":22,"wdir":330,"wspd":3,"visib":"6+","altim":1014,"clouds":[],"obsTime":1783314000},"SBGR":{"icaoId":"SBGR","flightCategory":"LIFR","rawOb":"METAR SBGR 060500Z 07006KT 7000 OVC004 14/14 Q1022","temp":14,"dewp":14,"wdir":70,"wspd":6,"visib":4.35,"altim":1022,"clouds":[{"cover":"OVC","base":400}],"obsTime":1783314000},"SBEG":{"icaoId":"SBEG","flightCategory":"VFR","rawOb":"METAR SBEG 060500Z 34002KT CAVOK 25/23 Q1014","temp":25,"dewp":23,"wdir":340,"wspd":2,"visib":"6+","altim":1014,"clouds":[],"obsTime":1783314000},"SBGL":{"icaoId":"SBGL","flightCategory":"MVFR","rawOb":"METAR SBGL 060500Z 32005KT 8000 FEW026 BKN050 19/16 Q1021","temp":19,"dewp":16,"wdir":320,"wspd":5,"visib":4.97,"altim":1021,"clouds":[{"cover":"FEW","base":2600},{"cover":"BKN","base":5000}],"obsTime":1783314000},"SBPA":{"icaoId":"SBPA","flightCategory":"MVFR","rawOb":"METAR SBPA 060500Z 30004KT 7000 -DZ FEW020 BKN060 13/13 Q1017","temp":13,"dewp":13,"wdir":300,"wspd":4,"visib":4.35,"altim":1017,"clouds":[{"cover":"FEW","base":2000},{"cover":"BKN","base":6000}],"obsTime":1783314000},"SBMQ":{"icaoId":"SBMQ","flightCategory":"VFR","rawOb":"METAR SBMQ 060500Z 33002KT 9999 SCT037 26/25 Q1014","temp":26,"dewp":25,"wdir":330,"wspd":2,"visib":"6+","altim":1014,"clouds":[{"cover":"SCT","base":3700}],"obsTime":1783314000},"SBBE":{"icaoId":"SBBE","flightCategory":"VFR","rawOb":"METAR SBBE 060500Z 05003KT CAVOK 25/25 Q1014","temp":25,"dewp":25,"wdir":50,"wspd":3,"visib":"6+","altim":1014,"clouds":[],"obsTime":1783314000},"SBMO":{"icaoId":"SBMO","flightCategory":"VFR","rawOb":"METAR SBMO 060500Z 29004KT 9999 FEW020 21/20 Q1017","temp":21,"dewp":20,"wdir":290,"wspd":4,"visib":"6+","altim":1017,"clouds":[{"cover":"FEW","base":2000}],"obsTime":1783314000},"SBME":{"icaoId":"SBME","flightCategory":"VFR","rawOb":"METAR SBME 060500Z 25004KT CAVOK 18/16 Q1021","temp":18,"dewp":16,"wdir":250,"wspd":4,"visib":"6+","altim":1021,"clouds":[],"obsTime":1783314000},"SBPV":{"icaoId":"SBPV","flightCategory":"VFR","rawOb":"METAR SBPV 060500Z 00000KT CAVOK 22/21 Q1014","temp":22,"dewp":21,"wdir":0,"wspd":0,"visib":"6+","altim":1014,"clouds":[],"obsTime":1783314000},"SBCG":{"icaoId":"SBCG","flightCategory":"VFR","rawOb":"METAR SBCG 060500Z 07004KT CAVOK 17/14 Q1020","temp":17,"dewp":14,"wdir":70,"wspd":4,"visib":"6+","altim":1020,"clouds":[],"obsTime":1783314000},"SBNT":{"icaoId":"SBNT","flightCategory":"VFR","rawOb":"METAR SBNT 060500Z 19007KT CAVOK 24/22 Q1015","temp":24,"dewp":22,"wdir":190,"wspd":7,"visib":"6+","altim":1015,"clouds":[],"obsTime":1783314000},"SBBV":{"icaoId":"SBBV","flightCategory":"VFR","rawOb":"METAR SBBV 060500Z 31002KT 9999 SCT009 FEW030TCU BKN100 24/24 Q1016 RETS","temp":24,"dewp":24,"wdir":310,"wspd":2,"visib":"6+","altim":1016,"clouds":[{"cover":"SCT","base":900},{"cover":"FEW","base":3000},{"cover":"BKN","base":10000}],"obsTime":1783314000},"SBSP":{"icaoId":"SBSP","flightCategory":"IFR","rawOb":"METAR SBSP 060500Z AUTO 07004KT 040V110 9000 OVC006 14/13 Q1023","temp":14,"dewp":13,"wdir":70,"wspd":4,"visib":5.59,"altim":1023,"clouds":[{"cover":"OVC","base":600}],"obsTime":1783314000},"SBCT":{"icaoId":"SBCT","flightCategory":"LIFR","rawOb":"SPECI SBCT 060430Z 32003KT 0600 R15/0600 R33/0600 FG VV001 12/12 Q1023","temp":12,"dewp":12,"wdir":320,"wspd":3,"visib":0.37,"altim":1023,"clouds":[{"cover":"OVX","base":100}],"obsTime":1783312200},"SBPJ":{"icaoId":"SBPJ","flightCategory":"VFR","rawOb":"METAR SBPJ 060500Z 16005KT CAVOK 22/17 Q1015","temp":22,"dewp":17,"wdir":160,"wspd":5,"visib":"6+","altim":1015,"clouds":[],"obsTime":1783314000},"SBLO":{"icaoId":"SBLO","flightCategory":"LIFR","rawOb":"METAR SBLO 060500Z 19003KT 1300 R13/P2000N BR NSC 20/16 Q1021","temp":20,"dewp":16,"wdir":190,"wspd":3,"visib":0.81,"altim":1021,"clouds":[],"obsTime":1783314000},"SBJU":{"icaoId":"SBJU","flightCategory":"VFR","rawOb":"METAR SBJU 060500Z 00000KT 9999 SCT020 23/15 Q1017","temp":23,"dewp":15,"wdir":0,"wspd":0,"visib":"6+","altim":1017,"clouds":[{"cover":"SCT","base":2000}],"obsTime":1783314000},"SBKP":{"icaoId":"SBKP","flightCategory":"MVFR","rawOb":"METAR SBKP 060500Z 13006KT 8000 3500E BCFG NSC 14/13 Q1021","temp":14,"dewp":13,"wdir":130,"wspd":6,"visib":4.97,"altim":1021,"clouds":[],"obsTime":1783314000},"SBMG":{"icaoId":"SBMG","flightCategory":"VFR","rawOb":"METAR SBMG 060500Z AUTO 04008KT CAVOK 18/14 Q1020","temp":18,"dewp":14,"wdir":40,"wspd":8,"visib":"6+","altim":1020,"clouds":[],"obsTime":1783314000},"SBIP":{"icaoId":"SBIP","flightCategory":"MVFR","rawOb":"METAR SBIP 060500Z AUTO 21001KT 7000 NCD 14/14 Q1020","temp":14,"dewp":14,"wdir":210,"wspd":1,"visib":4.35,"altim":1020,"clouds":[],"obsTime":1783314000},"SBDN":{"icaoId":"SBDN","flightCategory":"VFR","rawOb":"METAR SBDN 060500Z 08004KT CAVOK 17/15 Q1019","temp":17,"dewp":15,"wdir":80,"wspd":4,"visib":"6+","altim":1019,"clouds":[],"obsTime":1783314000},"SBPS":{"icaoId":"SBPS","flightCategory":"VFR","rawOb":"METAR SBPS 060500Z 26005KT 9999 SCT025 20/20 Q1019","temp":20,"dewp":20,"wdir":260,"wspd":5,"visib":"6+","altim":1019,"clouds":[{"cover":"SCT","base":2500}],"obsTime":1783314000},"SBAX":{"icaoId":"SBAX","flightCategory":"VFR","rawOb":"METAR SBAX 060500Z AUTO 12008KT CAVOK 18/13 Q1022","temp":18,"dewp":13,"wdir":120,"wspd":8,"visib":"6+","altim":1022,"clouds":[],"obsTime":1783314000},"SBOI":{"icaoId":"SBOI","flightCategory":"MVFR","rawOb":"METAR SBOI 060500Z AUTO VRB02KT 9999 // SCT002/// BKN017/// BKN022/// 25/24 Q1015","temp":25,"dewp":24,"wdir":"VRB","wspd":2,"visib":"6+","altim":1015,"clouds":[{"cover":"SCT","base":200},{"cover":"BKN","base":1700},{"cover":"BKN","base":2200}],"obsTime":1783314000},"SBTU":{"icaoId":"SBTU","flightCategory":"VFR","rawOb":"METAR SBTU 060500Z AUTO 17008KT 9999 // FEW037/// SCT079/// OVC100/// 25/23 Q1016","temp":25,"dewp":23,"wdir":170,"wspd":8,"visib":"6+","altim":1016,"clouds":[{"cover":"FEW","base":3700},{"cover":"SCT","base":7900},{"cover":"OVC","base":10000}],"obsTime":1783314000},"SBAR":{"icaoId":"SBAR","flightCategory":"VFR","rawOb":"METAR SBAR 060500Z 31003KT 9999 SCT026 22/21 Q1017","temp":22,"dewp":21,"wdir":310,"wspd":3,"visib":"6+","altim":1017,"clouds":[{"cover":"SCT","base":2600}],"obsTime":1783314000},"SBPL":{"icaoId":"SBPL","flightCategory":"VFR","rawOb":"METAR SBPL 060500Z 10004KT CAVOK 21/18 Q1018","temp":21,"dewp":18,"wdir":100,"wspd":4,"visib":"6+","altim":1018,"clouds":[],"obsTime":1783314000},"SBKG":{"icaoId":"SBKG","flightCategory":"VFR","rawOb":"METAR SBKG 060500Z 13003KT 9999 FEW010 BKN070 20/19 Q1018","temp":20,"dewp":19,"wdir":130,"wspd":3,"visib":"6+","altim":1018,"clouds":[{"cover":"FEW","base":1000},{"cover":"BKN","base":7000}],"obsTime":1783314000},"SBSC":{"icaoId":"SBSC","flightCategory":"VFR","rawOb":"METAR SBSC 060500Z 27004KT 9999 BKN040 16/15 Q1021","temp":16,"dewp":15,"wdir":270,"wspd":4,"visib":"6+","altim":1021,"clouds":[{"cover":"BKN","base":4000}],"obsTime":1783314000},"SBSR":{"icaoId":"SBSR","flightCategory":"VFR","rawOb":"METAR SBSR 060500Z 18002KT CAVOK 20/12 Q1020","temp":20,"dewp":12,"wdir":180,"wspd":2,"visib":"6+","altim":1020,"clouds":[],"obsTime":1783314000},"SBLE":{"icaoId":"SBLE","flightCategory":"LIFR","rawOb":"METAR SBLE 060500Z AUTO 13003KT 9999 FEW002 BKN004 OVC014 ///// Q1020","temp":null,"dewp":null,"wdir":130,"wspd":3,"visib":"6+","altim":1020,"clouds":[{"cover":"FEW","base":200},{"cover":"BKN","base":400},{"cover":"OVC","base":1400}],"obsTime":1783314000},"SBNM":{"icaoId":"SBNM","flightCategory":"VFR","rawOb":"METAR SBNM 060500Z AUTO 31004KT 9999 OVC036 12/10 Q1020","temp":12,"dewp":10,"wdir":310,"wspd":4,"visib":"6+","altim":1020,"clouds":[{"cover":"OVC","base":3600}],"obsTime":1783314000},"SBJP":{"icaoId":"SBJP","flightCategory":"VFR","rawOb":"METAR SBJP 060500Z 18004KT CAVOK 23/22 Q1016","temp":23,"dewp":22,"wdir":180,"wspd":4,"visib":"6+","altim":1016,"clouds":[],"obsTime":1783314000},"SBAN":{"icaoId":"SBAN","flightCategory":"VFR","rawOb":"METAR SBAN 060500Z 15002KT CAVOK 16/11 Q1022","temp":16,"dewp":11,"wdir":150,"wspd":2,"visib":"6+","altim":1022,"clouds":[],"obsTime":1783314000}}}