{"updated":1783372064,"count":81,"data":{"SBLO":{"icaoId":"SBLO","flightCategory":"VFR","rawOb":"METAR SBLO 062000Z 34008KT 9999 FEW023 24/14 Q1018","temp":24,"dewp":14,"wdir":340,"wspd":8,"visib":"6+","altim":1018,"clouds":[{"cover":"FEW","base":2300}],"obsTime":1783368000},"SBPV":{"icaoId":"SBPV","flightCategory":"VFR","rawOb":"METAR SBPV 062000Z 24002KT 9999 SCT045 33/20 Q1013","temp":33,"dewp":20,"wdir":240,"wspd":2,"visib":"6+","altim":1013,"clouds":[{"cover":"SCT","base":4500}],"obsTime":1783368000},"SBBR":{"icaoId":"SBBR","flightCategory":"VFR","rawOb":"METAR SBBR 062000Z 18007KT CAVOK 26/11 Q1021","temp":26,"dewp":11,"wdir":180,"wspd":7,"visib":"6+","altim":1021,"clouds":[],"obsTime":1783368000},"SBRB":{"icaoId":"SBRB","flightCategory":"VFR","rawOb":"METAR SBRB 062000Z 19004KT 9999 SCT020 31/20 Q1015","temp":31,"dewp":20,"wdir":190,"wspd":4,"visib":"6+","altim":1015,"clouds":[{"cover":"SCT","base":2000}],"obsTime":1783368000},"SBSL":{"icaoId":"SBSL","flightCategory":"VFR","rawOb":"METAR SBSL 062000Z 03010KT 9999 FEW025 30/25 Q1012","temp":30,"dewp":25,"wdir":30,"wspd":10,"visib":"6+","altim":1012,"clouds":[{"cover":"FEW","base":2500}],"obsTime":1783368000},"SBSN":{"icaoId":"SBSN","flightCategory":"VFR","rawOb":"METAR SBSN 062000Z 08008KT 9999 FEW023 FEW030TCU 30/24 Q1011","temp":30,"dewp":24,"wdir":80,"wspd":8,"visib":"6+","altim":1011,"clouds":[{"cover":"FEW","base":2300},{"cover":"FEW","base":3000}],"obsTime":1783368000},"SBAT":{"icaoId":"SBAT","flightCategory":"VFR","rawOb":"METAR SBAT 062000Z 25002KT 9999 BKN035 35/17 Q1013","temp":35,"dewp":17,"wdir":250,"wspd":2,"visib":"6+","altim":1013,"clouds":[{"cover":"BKN","base":3500}],"obsTime":1783368000},"SBBE":{"icaoId":"SBBE","flightCategory":"VFR","rawOb":"METAR SBBE 062000Z 35008KT 9999 SCT044 FEW049TCU 30/25 Q1012","temp":30,"dewp":25,"wdir":350,"wspd":8,"visib":"6+","altim":1012,"clouds":[{"cover":"SCT","base":4400},{"cover":"FEW","base":4900}],"obsTime":1783368000},"SBCZ":{"icaoId":"SBCZ","flightCategory":"MVFR","rawOb":"METAR SBCZ 062000Z 15005KT 9999 BKN030 32/22 Q1014","temp":32,"dewp":22,"wdir":150,"wspd":5,"visib":"6+","altim":1014,"clouds":[{"cover":"BKN","base":3000}],"obsTime":1783368000},"SBEG":{"icaoId":"SBEG","flightCategory":"VFR","rawOb":"METAR SBEG 062000Z VRB01KT 9999 SCT020 FEW025TCU BKN100 25/24 Q1012 RETS","temp":25,"dewp":24,"wdir":"VRB","wspd":1,"visib":"6+","altim":1012,"clouds":[{"cover":"SCT","base":2000},{"cover":"FEW","base":2500},{"cover":"BKN","base":10000}],"obsTime":1783368000},"SBHT":{"icaoId":"SBHT","flightCategory":"VFR","rawOb":"METAR SBHT 062000Z 31004KT 9999 SCT025 BKN090 29/26 Q1012","temp":29,"dewp":26,"wdir":310,"wspd":4,"visib":"6+","altim":1012,"clouds":[{"cover":"SCT","base":2500},{"cover":"BKN","base":9000}],"obsTime":1783368000},"SBMQ":{"icaoId":"SBMQ","flightCategory":"VFR","rawOb":"METAR SBMQ 062000Z 05008KT 9999 SCT026 FEW033TCU 31/23 Q1012","temp":31,"dewp":23,"wdir":50,"wspd":8,"visib":"6+","altim":1012,"clouds":[{"cover":"SCT","base":2600},{"cover":"FEW","base":3300}],"obsTime":1783368000},"SBMA":{"icaoId":"SBMA","flightCategory":"VFR","rawOb":"METAR SBMA 062000Z 02004KT 9999 FEW030 34/21 Q1011","temp":34,"dewp":21,"wdir":20,"wspd":4,"visib":"6+","altim":1011,"clouds":[{"cover":"FEW","base":3000}],"obsTime":1783368000},"SBCG":{"icaoId":"SBCG","flightCategory":"VFR","rawOb":"METAR SBCG 062000Z 28003KT 9999 FEW045 FEW050TCU 26/14 Q1019","temp":26,"dewp":14,"wdir":280,"wspd":3,"visib":"6+","altim":1019,"clouds":[{"cover":"FEW","base":4500},{"cover":"FEW","base":5000}],"obsTime":1783368000},"SBCR":{"icaoId":"SBCR","flightCategory":"VFR","rawOb":"METAR SBCR 062000Z 22008KT 190V270 9999 SCT025 19/14 Q1020","temp":19,"dewp":14,"wdir":220,"wspd":8,"visib":"6+","altim":1020,"clouds":[{"cover":"SCT","base":2500}],"obsTime":1783368000},"SBGO":{"icaoId":"SBGO","flightCategory":"VFR","rawOb":"METAR SBGO 062000Z 17004KT CAVOK 29/12 Q1018","temp":29,"dewp":12,"wdir":170,"wspd":4,"visib":"6+","altim":1018,"clouds":[],"obsTime":1783368000},"SBPJ":{"icaoId":"SBPJ","flightCategory":"VFR","rawOb":"METAR SBPJ 062000Z 27003KT CAVOK 34/17 Q1013","temp":34,"dewp":17,"wdir":270,"wspd":3,"visib":"6+","altim":1013,"clouds":[],"obsTime":1783368000},"SBFZ":{"icaoId":"SBFZ","flightCategory":"VFR","rawOb":"METAR SBFZ 062000Z 09009KT CAVOK 29/22 Q1012","temp":29,"dewp":22,"wdir":90,"wspd":9,"visib":"6+","altim":1012,"clouds":[],"obsTime":1783368000},"SBIL":{"icaoId":"SBIL","flightCategory":"VFR","rawOb":"METAR SBIL 062000Z 17009KT 9999 SCT023 27/22 Q1017","temp":27,"dewp":22,"wdir":170,"wspd":9,"visib":"6+","altim":1017,"clouds":[{"cover":"SCT","base":2300}],"obsTime":1783368000},"SBJU":{"icaoId":"SBJU","flightCategory":"VFR","rawOb":"METAR SBJU 062000Z 18005KT 9999 FEW021 32/12 Q1015","temp":32,"dewp":12,"wdir":180,"wspd":5,"visib":"6+","altim":1015,"clouds":[{"cover":"FEW","base":2100}],"obsTime":1783368000},"SBNT":{"icaoId":"SBNT","flightCategory":"VFR","rawOb":"METAR SBNT 062000Z 15015KT 9999 FEW027 BKN070 27/22 Q1014","temp":27,"dewp":22,"wdir":150,"wspd":15,"visib":"6+","altim":1014,"clouds":[{"cover":"FEW","base":2700},{"cover":"BKN","base":7000}],"obsTime":1783368000},"SBRF":{"icaoId":"SBRF","flightCategory":"VFR","rawOb":"METAR SBRF 062000Z 16016KT 9999 SCT023 26/21 Q1015","temp":26,"dewp":21,"wdir":160,"wspd":16,"visib":"6+","altim":1015,"clouds":[{"cover":"SCT","base":2300}],"obsTime":1783368000},"SBSV":{"icaoId":"SBSV","flightCategory":"VFR","rawOb":"METAR SBSV 062000Z 13004KT 9999 SCT020 BKN060 25/21 Q1016","temp":25,"dewp":21,"wdir":130,"wspd":4,"visib":"6+","altim":1016,"clouds":[{"cover":"SCT","base":2000},{"cover":"BKN","base":6000}],"obsTime":1783368000},"SBTE":{"icaoId":"SBTE","flightCategory":"VFR","rawOb":"METAR SBTE 062000Z 31005KT 9999 FEW040 34/18 Q1011","temp":34,"dewp":18,"wdir":310,"wspd":5,"visib":"6+","altim":1011,"clouds":[{"cover":"FEW","base":4000}],"obsTime":1783368000},"SBMO":{"icaoId":"SBMO","flightCategory":"VFR","rawOb":"METAR SBMO 062000Z 18008KT 9999 FEW025 SCT070 25/20 Q1016","temp":25,"dewp":20,"wdir":180,"wspd":8,"visib":"6+","altim":1016,"clouds":[{"cover":"FEW","base":2500},{"cover":"SCT","base":7000}],"obsTime":1783368000},"SBFI":{"icaoId":"SBFI","flightCategory":"MVFR","rawOb":"METAR SBFI 062000Z 23004KT 6000 SCT008 BKN013 12/12 Q1021","temp":12,"dewp":12,"wdir":230,"wspd":4,"visib":3.73,"altim":1021,"clouds":[{"cover":"SCT","base":800},{"cover":"BKN","base":1300}],"obsTime":1783368000},"SBFL":{"icaoId":"SBFL","flightCategory":"MVFR","rawOb":"METAR SBFL 062000Z 14007KT 100V170 9000 -RA BKN015 BKN018 OVC100 17/15 Q1017","temp":17,"dewp":15,"wdir":140,"wspd":7,"visib":5.59,"altim":1017,"clouds":[{"cover":"BKN","base":1500},{"cover":"BKN","base":1800},{"cover":"OVC","base":10000}],"obsTime":1783368000},"SBMG":{"icaoId":"SBMG","flightCategory":"VFR","rawOb":"METAR SBMG 062000Z 24006KT 9999 FEW040 FEW040TCU SCT100 23/17 Q1018","temp":23,"dewp":17,"wdir":240,"wspd":6,"visib":"6+","altim":1018,"clouds":[{"cover":"FEW","base":4000},{"cover":"FEW","base":4000},{"cover":"SCT","base":10000}],"obsTime":1783368000},"SBPA":{"icaoId":"SBPA","flightCategory":"VFR","rawOb":"METAR SBPA 062000Z 28011KT 9999 VCSH FEW015 SCT030 13/09 Q1019","temp":13,"dewp":9,"wdir":280,"wspd":11,"visib":"6+","altim":1019,"clouds":[{"cover":"FEW","base":1500},{"cover":"SCT","base":3000}],"obsTime":1783368000},"SBCB":{"icaoId":"SBCB","flightCategory":"VFR","rawOb":"METAR SBCB 062000Z 13008KT CAVOK 21/17 Q1019","temp":21,"dewp":17,"wdir":130,"wspd":8,"visib":"6+","altim":1019,"clouds":[],"obsTime":1783368000},"SBCF":{"icaoId":"SBCF","flightCategory":"VFR","rawOb":"METAR SBCF 062000Z 20002KT 9999 FEW045 SCT080 24/11 Q1020","temp":24,"dewp":11,"wdir":200,"wspd":2,"visib":"6+","altim":1020,"clouds":[{"cover":"FEW","base":4500},{"cover":"SCT","base":8000}],"obsTime":1783368000},"SBCP":{"icaoId":"SBCP","flightCategory":"VFR","rawOb":"METAR SBCP 062000Z 09009KT 9999 SCT020 22/17 Q1019","temp":22,"dewp":17,"wdir":90,"wspd":9,"visib":"6+","altim":1019,"clouds":[{"cover":"SCT","base":2000}],"obsTime":1783368000},"SBGL":{"icaoId":"SBGL","flightCategory":"VFR","rawOb":"METAR SBGL 062000Z 14006KT 9999 FEW040 22/17 Q1018","temp":22,"dewp":17,"wdir":140,"wspd":6,"visib":"6+","altim":1018,"clouds":[{"cover":"FEW","base":4000}],"obsTime":1783368000},"SBGR":{"icaoId":"SBGR","flightCategory":"VFR","rawOb":"METAR SBGR 062000Z 29007KT CAVOK 23/12 Q1019","temp":23,"dewp":12,"wdir":290,"wspd":7,"visib":"6+","altim":1019,"clouds":[],"obsTime":1783368000},"SBKP":{"icaoId":"SBKP","flightCategory":"VFR","rawOb":"METAR SBKP 062000Z 27006KT CAVOK 24/12 Q1019","temp":24,"dewp":12,"wdir":270,"wspd":6,"visib":"6+","altim":1019,"clouds":[],"obsTime":1783368000},"SBME":{"icaoId":"SBME","flightCategory":"VFR","rawOb":"METAR SBME 062000Z 08006KT 9999 FEW025 22/17 Q1018","temp":22,"dewp":17,"wdir":80,"wspd":6,"visib":"6+","altim":1018,"clouds":[{"cover":"FEW","base":2500}],"obsTime":1783368000},"SBMK":{"icaoId":"SBMK","flightCategory":"VFR","rawOb":"METAR SBMK 062000Z 16007KT 9999 BKN040 25/11 Q1019","temp":25,"dewp":11,"wdir":160,"wspd":7,"visib":"6+","altim":1019,"clouds":[{"cover":"BKN","base":4000}],"obsTime":1783368000},"SBSP":{"icaoId":"SBSP","flightCategory":"VFR","rawOb":"METAR SBSP 062000Z 28007KT 220V320 CAVOK 23/09 Q1020","temp":23,"dewp":9,"wdir":280,"wspd":7,"visib":"6+","altim":1020,"clouds":[],"obsTime":1783368000},"SBUL":{"icaoId":"SBUL","flightCategory":"VFR","rawOb":"METAR SBUL 062000Z 23006KT 180V260 9999 FEW045 25/09 Q1021","temp":25,"dewp":9,"wdir":230,"wspd":6,"visib":"6+","altim":1021,"clouds":[{"cover":"FEW","base":4500}],"obsTime":1783368000},"SBUR":{"icaoId":"SBUR","flightCategory":"VFR","rawOb":"METAR SBUR 062000Z 24004KT CAVOK 26/10 Q1020","temp":26,"dewp":10,"wdir":240,"wspd":4,"visib":"6+","altim":1020,"clouds":[],"obsTime":1783368000},"SBVT":{"icaoId":"SBVT","flightCategory":"VFR","rawOb":"METAR SBVT 062000Z 17011KT 9999 FEW035 22/18 Q1018","temp":22,"dewp":18,"wdir":170,"wspd":11,"visib":"6+","altim":1018,"clouds":[{"cover":"FEW","base":3500}],"obsTime":1783368000},"SBBV":{"icaoId":"SBBV","flightCategory":"VFR","rawOb":"METAR SBBV 062000Z 09004KT 9999 SCT040 FEW045TCU 32/21 Q1011","temp":32,"dewp":21,"wdir":90,"wspd":4,"visib":"6+","altim":1011,"clouds":[{"cover":"SCT","base":4000},{"cover":"FEW","base":4500}],"obsTime":1783368000},"SBCT":{"icaoId":"SBCT","flightCategory":"VFR","rawOb":"METAR SBCT 062000Z 32005KT 9999 SCT025 20/14 Q1020","temp":20,"dewp":14,"wdir":320,"wspd":5,"visib":"6+","altim":1020,"clouds":[{"cover":"SCT","base":2500}],"obsTime":1783368000},"SBAR":{"icaoId":"SBAR","flightCategory":"MVFR","rawOb":"METAR SBAR 062000Z 17010KT 9999 VCSH FEW020 BKN025 24/21 Q1016 RESHRA","temp":24,"dewp":21,"wdir":170,"wspd":10,"visib":"6+","altim":1016,"clouds":[{"cover":"FEW","base":2000},{"cover":"BKN","base":2500}],"obsTime":1783368000},"SBTF":{"icaoId":"SBTF","flightCategory":"VFR","rawOb":"METAR SBTF 062000Z 21004KT 9999 FEW020 33/23 Q1011","temp":33,"dewp":23,"wdir":210,"wspd":4,"visib":"6+","altim":1011,"clouds":[{"cover":"FEW","base":2000}],"obsTime":1783368000},"SBTT":{"icaoId":"SBTT","flightCategory":"MVFR","rawOb":"METAR SBTT 062000Z 33003KT 300V020 9999 BKN025 BKN040 29/23 Q1014","temp":29,"dewp":23,"wdir":330,"wspd":3,"visib":"6+","altim":1014,"clouds":[{"cover":"BKN","base":2500},{"cover":"BKN","base":4000}],"obsTime":1783368000},"SBVH":{"icaoId":"SBVH","flightCategory":"VFR","rawOb":"METAR SBVH 062000Z 20010KT 9999 BKN045 29/18 Q1017","temp":29,"dewp":18,"wdir":200,"wspd":10,"visib":"6+","altim":1017,"clouds":[{"cover":"BKN","base":4500}],"obsTime":1783368000},"SBCC":{"icaoId":"SBCC","flightCategory":"VFR","rawOb":"METAR SBCC 062000Z 06004KT 9999 SCT025 33/15 Q1014","temp":33,"dewp":15,"wdir":60,"wspd":4,"visib":"6+","altim":1014,"clouds":[{"cover":"SCT","base":2500}],"obsTime":1783368000},"SBCJ":{"icaoId":"SBCJ","flightCategory":"VFR","rawOb":"METAR SBCJ 062000Z VRB02KT 9999 SCT030 30/19 Q1015","temp":30,"dewp":19,"wdir":"VRB","wspd":2,"visib":"6+","altim":1015,"clouds":[{"cover":"SCT","base":3000}],"obsTime":1783368000},"SBOI":{"icaoId":"SBOI","flightCategory":"VFR","rawOb":"METAR SBOI 062000Z AUTO 11004KT 060V160 9999 FEW035 30/23 Q1013","temp":30,"dewp":23,"wdir":110,"wspd":4,"visib":"6+","altim":1013,"clouds":[{"cover":"FEW","base":3500}],"obsTime":1783368000},"SBPP":{"icaoId":"SBPP","flightCategory":"MVFR","rawOb":"METAR SBPP 062000Z 19010KT 9999 OVC015 14/12 Q1021","temp":14,"dewp":12,"wdir":190,"wspd":10,"visib":"6+","altim":1021,"clouds":[{"cover":"OVC","base":1500}],"obsTime":1783368000},"SBKG":{"icaoId":"SBKG","flightCategory":"VFR","rawOb":"METAR SBKG 062000Z 11007KT CAVOK 26/19 Q1016","temp":26,"dewp":19,"wdir":110,"wspd":7,"visib":"6+","altim":1016,"clouds":[],"obsTime":1783368000},"SBPB":{"icaoId":"SBPB","flightCategory":"VFR","rawOb":"METAR SBPB 062000Z 04010KT 9999 FEW020 29/25 Q1012","temp":29,"dewp":25,"wdir":40,"wspd":10,"visib":"6+","altim":1012,"clouds":[{"cover":"FEW","base":2000}],"obsTime":1783368000},"SBPL":{"icaoId":"SBPL","flightCategory":"VFR","rawOb":"METAR SBPL 062000Z 11006KT 9999 FEW030 30/16 Q1015","temp":30,"dewp":16,"wdir":110,"wspd":6,"visib":"6+","altim":1015,"clouds":[{"cover":"FEW","base":3000}],"obsTime":1783368000},"SBPS":{"icaoId":"SBPS","flightCategory":"VFR","rawOb":"METAR SBPS 062000Z 18004KT 9999 FEW020 BKN070 24/20 Q1018","temp":24,"dewp":20,"wdir":180,"wspd":4,"visib":"6+","altim":1018,"clouds":[{"cover":"FEW","base":2000},{"cover":"BKN","base":7000}],"obsTime":1783368000},"SBCA":{"icaoId":"SBCA","flightCategory":"LIFR","rawOb":"METAR SBCA 062000Z 26005KT 4000 -RA BR SCT002 BKN004 BKN015 13/13 Q1021","temp":13,"dewp":13,"wdir":260,"wspd":5,"visib":2.49,"altim":1021,"clouds":[{"cover":"SCT","base":200},{"cover":"BKN","base":400},{"cover":"BKN","base":1500}],"obsTime":1783368000},"SBCO":{"icaoId":"SBCO","flightCategory":"MVFR","rawOb":"METAR SBCO 062000Z 29009KT 9999 BKN030 12/09 Q1020","temp":12,"dewp":9,"wdir":290,"wspd":9,"visib":"6+","altim":1020,"clouds":[{"cover":"BKN","base":3000}],"obsTime":1783368000},"SBSM":{"icaoId":"SBSM","flightCategory":"VFR","rawOb":"METAR SBSM 062000Z 28006KT 9999 SCT040 13/06 Q1021","temp":13,"dewp":6,"wdir":280,"wspd":6,"visib":"6+","altim":1021,"clouds":[{"cover":"SCT","base":4000}],"obsTime":1783368000},"SBAX":{"icaoId":"SBAX","flightCategory":"VFR","rawOb":"METAR SBAX 062000Z 22006KT 9999 SCT025 24/11 Q1021","temp":24,"dewp":11,"wdir":220,"wspd":6,"visib":"6+","altim":1021,"clouds":[{"cover":"SCT","base":2500}],"obsTime":1783368000},"SBBH":{"icaoId":"SBBH","flightCategory":"VFR","rawOb":"METAR SBBH 062000Z 10008KT 9999 SCT045 BKN090 23/14 Q1020","temp":23,"dewp":14,"wdir":100,"wspd":8,"visib":"6+","altim":1020,"clouds":[{"cover":"SCT","base":4500},{"cover":"BKN","base":9000}],"obsTime":1783368000},"SBBQ":{"icaoId":"SBBQ","flightCategory":"VFR","rawOb":"METAR SBBQ 062000Z 07004KT 9999 BKN045 18/14 Q1023","temp":18,"dewp":14,"wdir":70,"wspd":4,"visib":"6+","altim":1023,"clouds":[{"cover":"BKN","base":4500}],"obsTime":1783368000},"SBBU":{"icaoId":"SBBU","flightCategory":"VFR","rawOb":"METAR SBBU 062000Z 27005KT 9999 FEW045 26/13 Q1019","temp":26,"dewp":13,"wdir":270,"wspd":5,"visib":"6+","altim":1019,"clouds":[{"cover":"FEW","base":4500}],"obsTime":1783368000},"SBDN":{"icaoId":"SBDN","flightCategory":"VFR","rawOb":"METAR SBDN 062000Z 26003KT CAVOK 27/13 Q1018","temp":27,"dewp":13,"wdir":260,"wspd":3,"visib":"6+","altim":1018,"clouds":[],"obsTime":1783368000},"SBIP":{"icaoId":"SBIP","flightCategory":"VFR","rawOb":"METAR SBIP 062000Z AUTO 00000KT CAVOK 23/17 Q1018","temp":23,"dewp":17,"wdir":0,"wspd":0,"visib":"6+","altim":1018,"clouds":[],"obsTime":1783368000},"SBSC":{"icaoId":"SBSC","flightCategory":"VFR","rawOb":"METAR SBSC 062000Z 16005KT CAVOK 22/17 Q1018","temp":22,"dewp":17,"wdir":160,"wspd":5,"visib":"6+","altim":1018,"clouds":[],"obsTime":1783368000},"SBSJ":{"icaoId":"SBSJ","flightCategory":"VFR","rawOb":"METAR SBSJ 062000Z 27003KT CAVOK 23/14 Q1019","temp":23,"dewp":14,"wdir":270,"wspd":3,"visib":"6+","altim":1019,"clouds":[],"obsTime":1783368000},"SBES":{"icaoId":"SBES","flightCategory":"VFR","rawOb":"METAR SBES 062000Z 08007KT 010V100 9999 FEW020 21/// Q1018","temp":null,"dewp":null,"wdir":80,"wspd":7,"visib":"6+","altim":1018,"clouds":[{"cover":"FEW","base":2000}],"obsTime":1783368000},"SBSR":{"icaoId":"SBSR","flightCategory":"VFR","rawOb":"METAR SBSR 062000Z 26007KT CAVOK 27/09 Q1018","temp":27,"dewp":9,"wdir":260,"wspd":7,"visib":"6+","altim":1018,"clouds":[],"obsTime":1783368000},"SBAN":{"icaoId":"SBAN","flightCategory":"VFR","rawOb":"METAR SBAN 062000Z 18004KT 9999 FEW030 26/10 Q1021","temp":26,"dewp":10,"wdir":180,"wspd":4,"visib":"6+","altim":1021,"clouds":[{"cover":"FEW","base":3000}],"obsTime":1783368000},"SBIH":{"icaoId":"SBIH","flightCategory":"VFR","rawOb":"METAR SBIH 062000Z 04006KT 9999 FEW018 FEW025TCU BKN100 30/24 Q1011","temp":30,"dewp":24,"wdir":40,"wspd":6,"visib":"6+","altim":1011,"clouds":[{"cover":"FEW","base":1800},{"cover":"FEW","base":2500},{"cover":"BKN","base":10000}],"obsTime":1783368000},"SBJP":{"icaoId":"SBJP","flightCategory":"VFR","rawOb":"METAR SBJP 062000Z 13015KT 9999 FEW030 26/21 Q1015","temp":26,"dewp":21,"wdir":130,"wspd":15,"visib":"6+","altim":1015,"clouds":[{"cover":"FEW","base":3000}],"obsTime":1783368000},"SBLE":{"icaoId":"SBLE","flightCategory":"VFR","rawOb":"METAR SBLE 062000Z AUTO VRB02KT CAVOK ///// Q1018","temp":null,"dewp":null,"wdir":"VRB","wspd":2,"visib":"6+","altim":1018,"clouds":[],"obsTime":1783368000},"SBJV":{"icaoId":"SBJV","flightCategory":"VFR","rawOb":"METAR SBJV 062000Z 23002KT 9999 SCT015 19/17 Q1017","temp":19,"dewp":17,"wdir":230,"wspd":2,"visib":"6+","altim":1017,"clouds":[{"cover":"SCT","base":1500}],"obsTime":1783368000},"SBPF":{"icaoId":"SBPF","flightCategory":"LIFR","rawOb":"METAR SBPF 062000Z 27006KT 9999 BKN003 09/07 Q1021","temp":9,"dewp":7,"wdir":270,"wspd":6,"visib":"6+","altim":1021,"clouds":[{"cover":"BKN","base":300}],"obsTime":1783368000},"SBAF":{"icaoId":"SBAF","flightCategory":"VFR","rawOb":"METAR SBAF 062000Z 10006KT 9999 FEW020 23/18 Q1018","temp":23,"dewp":18,"wdir":100,"wspd":6,"visib":"6+","altim":1018,"clouds":[{"cover":"FEW","base":2000}],"obsTime":1783368000},"SBGW":{"icaoId":"SBGW","flightCategory":"VFR","rawOb":"METAR SBGW 062000Z VRB02KT 9999 SCT025 BKN070 23/13 Q1019","temp":23,"dewp":13,"wdir":"VRB","wspd":2,"visib":"6+","altim":1019,"clouds":[{"cover":"SCT","base":2500},{"cover":"BKN","base":7000}],"obsTime":1783368000},"SBJR":{"icaoId":"SBJR","flightCategory":"VFR","rawOb":"METAR SBJR 062000Z 12004KT 9999 FEW025 22/18 Q1018","temp":22,"dewp":18,"wdir":120,"wspd":4,"visib":"6+","altim":1018,"clouds":[{"cover":"FEW","base":2500}],"obsTime":1783368000},"SBLS":{"icaoId":"SBLS","flightCategory":"VFR","rawOb":"METAR SBLS 062000Z 12006KT 9999 FEW045 SCT070 23/14 Q1020","temp":23,"dewp":14,"wdir":120,"wspd":6,"visib":"6+","altim":1020,"clouds":[{"cover":"FEW","base":4500},{"cover":"SCT","base":7000}],"obsTime":1783368000},"SBMT":{"icaoId":"SBMT","flightCategory":"VFR","rawOb":"METAR SBMT 062000Z 32008KT 290V350 9999 FEW040 21/11 Q1019","temp":21,"dewp":11,"wdir":320,"wspd":8,"visib":"6+","altim":1019,"clouds":[{"cover":"FEW","base":4000}],"obsTime":1783368000},"SBST":{"icaoId":"SBST","flightCategory":"MVFR","rawOb":"METAR SBST 062000Z 13004KT 9999 OVC021 19/16 Q1018","temp":19,"dewp":16,"wdir":130,"wspd":4,"visib":"6+","altim":1018,"clouds":[{"cover":"OVC","base":2100}],"obsTime":1783368000},"SBTA":{"icaoId":"SBTA","flightCategory":"VFR","rawOb":"METAR SBTA 062000Z 35002KT 9999 FEW030 BKN080 22/17 Q1018","temp":22,"dewp":17,"wdir":350,"wspd":2,"visib":"6+","altim":1018,"clouds":[{"cover":"FEW","base":3000},{"cover":"BKN","base":8000}],"obsTime":1783368000}}}