{"updated":1774604491,"count":62,"data":{"SBBE":{"icaoId":"SBBE","flightCategory":"VFR","rawOb":"METAR SBBE 270800Z 03004KT CAVOK 25/24 Q1009","temp":25,"dewp":24,"wdir":30,"wspd":4,"visib":"6+","altim":1009,"clouds":[],"obsTime":1774598400},"SBMO":{"icaoId":"SBMO","flightCategory":"MVFR","rawOb":"METAR SBMO 270800Z 34004KT 5000 -RA BR FEW003 BKN015 24/23 Q1011","temp":24,"dewp":23,"wdir":340,"wspd":4,"visib":3.11,"altim":1011,"clouds":[{"cover":"FEW","base":300},{"cover":"BKN","base":1500}],"obsTime":1774598400},"SBFZ":{"icaoId":"SBFZ","flightCategory":"MVFR","rawOb":"METAR SBFZ 270800Z 11012KT 9999 BKN015 FEW017TCU 25/23 Q1009","temp":25,"dewp":23,"wdir":110,"wspd":12,"visib":"6+","altim":1009,"clouds":[{"cover":"BKN","base":1500},{"cover":"FEW","base":1700}],"obsTime":1774598400},"SBCG":{"icaoId":"SBCG","flightCategory":"VFR","rawOb":"METAR SBCG 270800Z 34004KT 280V030 CAVOK 20/19 Q1014","temp":20,"dewp":19,"wdir":340,"wspd":4,"visib":"6+","altim":1014,"clouds":[],"obsTime":1774598400},"SBMQ":{"icaoId":"SBMQ","flightCategory":"LIFR","rawOb":"METAR SBMQ 270800Z 33004KT 9999 BKN004 25/24 Q1009","temp":25,"dewp":24,"wdir":330,"wspd":4,"visib":"6+","altim":1009,"clouds":[{"cover":"BKN","base":400}],"obsTime":1774598400},"SBGL":{"icaoId":"SBGL","flightCategory":"VFR","rawOb":"METAR SBGL 270800Z 10004KT 9999 FEW015 23/22 Q1015","temp":23,"dewp":22,"wdir":100,"wspd":4,"visib":"6+","altim":1015,"clouds":[{"cover":"FEW","base":1500}],"obsTime":1774598400},"SBNT":{"icaoId":"SBNT","flightCategory":"VFR","rawOb":"METAR SBNT 270800Z 20005KT 9999 FEW040 SCT100 24/22 Q1010","temp":24,"dewp":22,"wdir":200,"wspd":5,"visib":"6+","altim":1010,"clouds":[{"cover":"FEW","base":4000},{"cover":"SCT","base":10000}],"obsTime":1774598400},"SBBV":{"icaoId":"SBBV","flightCategory":"VFR","rawOb":"METAR SBBV 270800Z 08010KT 9999 BKN035 FEW040TCU BKN080 26/23 Q1009","temp":26,"dewp":23,"wdir":80,"wspd":10,"visib":"6+","altim":1009,"clouds":[{"cover":"BKN","base":3500},{"cover":"FEW","base":4000},{"cover":"BKN","base":8000}],"obsTime":1774598400},"SBMG":{"icaoId":"SBMG","flightCategory":"VFR","rawOb":"METAR SBMG 270800Z AUTO 06009KT CAVOK 25/19 Q1016","temp":25,"dewp":19,"wdir":60,"wspd":9,"visib":"6+","altim":1016,"clouds":[],"obsTime":1774598400},"SBFL":{"icaoId":"SBFL","flightCategory":"VFR","rawOb":"METAR SBFL 270800Z 32003KT 9999 FEW016 25/24 Q1015","temp":25,"dewp":24,"wdir":320,"wspd":3,"visib":"6+","altim":1015,"clouds":[{"cover":"FEW","base":1600}],"obsTime":1774598400},"SBMK":{"icaoId":"SBMK","flightCategory":"VFR","rawOb":"METAR SBMK 270800Z 07006KT 9999 FEW035 21/18 Q1018","temp":21,"dewp":18,"wdir":70,"wspd":6,"visib":"6+","altim":1018,"clouds":[{"cover":"FEW","base":3500}],"obsTime":1774598400},"SBPA":{"icaoId":"SBPA","flightCategory":"LIFR","rawOb":"METAR SBPA 270800Z 04003KT 3000 BR OVC003 24/23 Q1014","temp":24,"dewp":23,"wdir":40,"wspd":3,"visib":1.86,"altim":1014,"clouds":[{"cover":"OVC","base":300}],"obsTime":1774598400},"SBGO":{"icaoId":"SBGO","flightCategory":"VFR","rawOb":"METAR SBGO 270800Z 15004KT CAVOK 21/20 Q1017","temp":21,"dewp":20,"wdir":150,"wspd":4,"visib":"6+","altim":1017,"clouds":[],"obsTime":1774598400},"SBPJ":{"icaoId":"SBPJ","flightCategory":"VFR","rawOb":"METAR SBPJ 270800Z 18007KT 9999 FEW020 FEW027TCU BKN100 23/23 Q1012","temp":23,"dewp":23,"wdir":180,"wspd":7,"visib":"6+","altim":1012,"clouds":[{"cover":"FEW","base":2000},{"cover":"FEW","base":2700},{"cover":"BKN","base":10000}],"obsTime":1774598400},"SBPV":{"icaoId":"SBPV","flightCategory":"VFR","rawOb":"METAR SBPV 270800Z 00000KT CAVOK 24/23 Q1010","temp":24,"dewp":23,"wdir":0,"wspd":0,"visib":"6+","altim":1010,"clouds":[],"obsTime":1774598400},"SBCT":{"icaoId":"SBCT","flightCategory":"IFR","rawOb":"METAR SBCT 270800Z 14004KT 4000 BR SCT007 19/18 Q1021","temp":19,"dewp":18,"wdir":140,"wspd":4,"visib":2.49,"altim":1021,"clouds":[{"cover":"SCT","base":700}],"obsTime":1774598400},"SBGR":{"icaoId":"SBGR","flightCategory":"IFR","rawOb":"METAR SBGR 270800Z 06005KT 5000 BR BKN005 20/19 Q1019","temp":20,"dewp":19,"wdir":60,"wspd":5,"visib":3.11,"altim":1019,"clouds":[{"cover":"BKN","base":500}],"obsTime":1774598400},"SBRB":{"icaoId":"SBRB","flightCategory":"MVFR","rawOb":"METAR SBRB 270800Z 25003KT 8000 FEW020 SCT100 24/23 Q1011","temp":24,"dewp":23,"wdir":250,"wspd":3,"visib":4.97,"altim":1011,"clouds":[{"cover":"FEW","base":2000},{"cover":"SCT","base":10000}],"obsTime":1774598400},"SBEG":{"icaoId":"SBEG","flightCategory":"VFR","rawOb":"METAR SBEG 270800Z 00000KT CAVOK 25/24 Q1009","temp":25,"dewp":24,"wdir":0,"wspd":0,"visib":"6+","altim":1009,"clouds":[],"obsTime":1774598400},"SBRF":{"icaoId":"SBRF","flightCategory":"VFR","rawOb":"METAR SBRF 270800Z 24004KT 9999 SCT020 24/23 Q1010","temp":24,"dewp":23,"wdir":240,"wspd":4,"visib":"6+","altim":1010,"clouds":[{"cover":"SCT","base":2000}],"obsTime":1774598400},"SBJU":{"icaoId":"SBJU","flightCategory":"MVFR","rawOb":"METAR SBJU 270800Z 00000KT 9999 BKN018 23/20 Q1013","temp":23,"dewp":20,"wdir":0,"wspd":0,"visib":"6+","altim":1013,"clouds":[{"cover":"BKN","base":1800}],"obsTime":1774598400},"SBSG":{"icaoId":"SBSG","flightCategory":"VFR","rawOb":"METAR SBSG 270800Z 20003KT 9999 FEW023 23/23 Q1010","temp":23,"dewp":23,"wdir":200,"wspd":3,"visib":"6+","altim":1010,"clouds":[{"cover":"FEW","base":2300}],"obsTime":1774598400},"SBCB":{"icaoId":"SBCB","flightCategory":"VFR","rawOb":"METAR SBCB 270900Z 06006KT CAVOK 24/22 Q1017","temp":24,"dewp":22,"wdir":60,"wspd":6,"visib":"6+","altim":1017,"clouds":[],"obsTime":1774602000},"SBSL":{"icaoId":"SBSL","flightCategory":"VFR","rawOb":"METAR SBSL 270800Z 30001KT 9999 FEW020 25/24 Q1009","temp":25,"dewp":24,"wdir":300,"wspd":1,"visib":"6+","altim":1009,"clouds":[{"cover":"FEW","base":2000}],"obsTime":1774598400},"SBKP":{"icaoId":"SBKP","flightCategory":"VFR","rawOb":"METAR SBKP 270800Z 12007KT CAVOK 21/19 Q1018","temp":21,"dewp":19,"wdir":120,"wspd":7,"visib":"6+","altim":1018,"clouds":[],"obsTime":1774598400},"SBSN":{"icaoId":"SBSN","flightCategory":"VFR","rawOb":"METAR SBSN 270800Z 17004KT CAVOK 25/24 Q1008","temp":25,"dewp":24,"wdir":170,"wspd":4,"visib":"6+","altim":1008,"clouds":[],"obsTime":1774598400},"SBBR":{"icaoId":"SBBR","flightCategory":"IFR","rawOb":"METAR SBBR 270800Z 11004KT 9999 BKN008 BKN020 19/19 Q1019","temp":19,"dewp":19,"wdir":110,"wspd":4,"visib":"6+","altim":1019,"clouds":[{"cover":"BKN","base":800},{"cover":"BKN","base":2000}],"obsTime":1774598400},"SBSP":{"icaoId":"SBSP","flightCategory":"VFR","rawOb":"METAR SBSP 270800Z AUTO 17004KT 9999 FEW010 20/19 Q1020","temp":20,"dewp":19,"wdir":170,"wspd":4,"visib":"6+","altim":1020,"clouds":[{"cover":"FEW","base":1000}],"obsTime":1774598400},"SBLO":{"icaoId":"SBLO","flightCategory":"VFR","rawOb":"METAR SBLO 270800Z 17003KT CAVOK 22/19 Q1017","temp":22,"dewp":19,"wdir":170,"wspd":3,"visib":"6+","altim":1017,"clouds":[],"obsTime":1774598400},"SBSV":{"icaoId":"SBSV","flightCategory":"VFR","rawOb":"METAR SBSV 270800Z 13008KT 9999 FEW022 28/22 Q1012","temp":28,"dewp":22,"wdir":130,"wspd":8,"visib":"6+","altim":1012,"clouds":[{"cover":"FEW","base":2200}],"obsTime":1774598400},"SBTE":{"icaoId":"SBTE","flightCategory":"VFR","rawOb":"METAR SBTE 270800Z 35004KT 9999 SCT015 SCT090 25/24 Q1009","temp":25,"dewp":24,"wdir":350,"wspd":4,"visib":"6+","altim":1009,"clouds":[{"cover":"SCT","base":1500},{"cover":"SCT","base":9000}],"obsTime":1774598400},"SBUL":{"icaoId":"SBUL","flightCategory":"VFR","rawOb":"METAR SBUL 270800Z 09007KT CAVOK 19/18 Q1019","temp":19,"dewp":18,"wdir":90,"wspd":7,"visib":"6+","altim":1019,"clouds":[],"obsTime":1774598400},"SBFI":{"icaoId":"SBFI","flightCategory":"VFR","rawOb":"METAR SBFI 270800Z 10001KT CAVOK 23/23 Q1013","temp":23,"dewp":23,"wdir":100,"wspd":1,"visib":"6+","altim":1013,"clouds":[],"obsTime":1774598400},"SBMA":{"icaoId":"SBMA","flightCategory":"VFR","rawOb":"METAR SBMA 270800Z 21005KT CAVOK 25/24 Q1010","temp":25,"dewp":24,"wdir":210,"wspd":5,"visib":"6+","altim":1010,"clouds":[],"obsTime":1774598400},"SBUR":{"icaoId":"SBUR","flightCategory":"VFR","rawOb":"METAR SBUR 270800Z 07003KT CAVOK 20/18 Q1018","temp":20,"dewp":18,"wdir":70,"wspd":3,"visib":"6+","altim":1018,"clouds":[],"obsTime":1774598400},"SBCF":{"icaoId":"SBCF","flightCategory":"VFR","rawOb":"METAR SBCF 270800Z 15004KT 9999 SCT035 20/18 Q1020","temp":20,"dewp":18,"wdir":150,"wspd":4,"visib":"6+","altim":1020,"clouds":[{"cover":"SCT","base":3500}],"obsTime":1774598400},"SBVT":{"icaoId":"SBVT","flightCategory":"VFR","rawOb":"METAR SBVT 270800Z 31003KT 9999 FEW010 SCT045 22/22 Q1016","temp":22,"dewp":22,"wdir":310,"wspd":3,"visib":"6+","altim":1016,"clouds":[{"cover":"FEW","base":1000},{"cover":"SCT","base":4500}],"obsTime":1774598400},"SBME":{"icaoId":"SBME","flightCategory":"VFR","rawOb":"METAR SBME 270800Z 05002KT CAVOK 23/22 Q1017","temp":23,"dewp":22,"wdir":50,"wspd":2,"visib":"6+","altim":1017,"clouds":[],"obsTime":1774598400},"SBIP":{"icaoId":"SBIP","flightCategory":"LIFR","rawOb":"METAR SBIP 270800Z AUTO 00000KT 0450 FG VV002 21/21 Q1018","temp":21,"dewp":21,"wdir":0,"wspd":0,"visib":0.28,"altim":1018,"clouds":[{"cover":"OVX","base":200}],"obsTime":1774598400},"SBAX":{"icaoId":"SBAX","flightCategory":"VFR","rawOb":"METAR SBAX 270800Z AUTO 11009KT CAVOK ///// Q1020","temp":null,"dewp":null,"wdir":110,"wspd":9,"visib":"6+","altim":1020,"clouds":[],"obsTime":1774598400},"SBAR":{"icaoId":"SBAR","flightCategory":"VFR","rawOb":"METAR SBAR 270800Z 13008KT 9999 FEW015 SCT020 27/23 Q1011","temp":27,"dewp":23,"wdir":130,"wspd":8,"visib":"6+","altim":1011,"clouds":[{"cover":"FEW","base":1500},{"cover":"SCT","base":2000}],"obsTime":1774598400},"SBCO":{"icaoId":"SBCO","flightCategory":"LIFR","rawOb":"METAR SBCO 270900Z VRB01KT 0800 R13///// R31/P2000 FG OVC004 23/23 Q1015","temp":23,"dewp":23,"wdir":"VRB","wspd":1,"visib":0.5,"altim":1015,"clouds":[{"cover":"OVC","base":400}],"obsTime":1774602000},"SBDN":{"icaoId":"SBDN","flightCategory":"VFR","rawOb":"METAR SBDN 270800Z 07005KT CAVOK 23/19 Q1016","temp":23,"dewp":19,"wdir":70,"wspd":5,"visib":"6+","altim":1016,"clouds":[],"obsTime":1774598400},"SBES":{"icaoId":"SBES","flightCategory":"VFR","rawOb":"METAR SBES 270900Z 05005KT 9999 FEW010 21/// Q1017","temp":null,"dewp":null,"wdir":50,"wspd":5,"visib":"6+","altim":1017,"clouds":[{"cover":"FEW","base":1000}],"obsTime":1774602000},"SBKG":{"icaoId":"SBKG","flightCategory":"VFR","rawOb":"METAR SBKG 270800Z 17004KT CAVOK 21/20 Q1013","temp":21,"dewp":20,"wdir":170,"wspd":4,"visib":"6+","altim":1013,"clouds":[],"obsTime":1774598400},"SBPL":{"icaoId":"SBPL","flightCategory":"MVFR","rawOb":"METAR SBPL 270800Z 14004KT 9999 BKN020 24/20 Q1013","temp":24,"dewp":20,"wdir":140,"wspd":4,"visib":"6+","altim":1013,"clouds":[{"cover":"BKN","base":2000}],"obsTime":1774598400},"SBPS":{"icaoId":"SBPS","flightCategory":"VFR","rawOb":"METAR SBPS 270800Z 24005KT 9999 SCT011 23/23 Q1015","temp":23,"dewp":23,"wdir":240,"wspd":5,"visib":"6+","altim":1015,"clouds":[{"cover":"SCT","base":1100}],"obsTime":1774598400},"SBSC":{"icaoId":"SBSC","flightCategory":"VFR","rawOb":"METAR SBSC 270800Z 05004KT 9999 FEW015 24/22 Q1016","temp":24,"dewp":22,"wdir":50,"wspd":4,"visib":"6+","altim":1016,"clouds":[{"cover":"FEW","base":1500}],"obsTime":1774598400},"SBSJ":{"icaoId":"SBSJ","flightCategory":"MVFR","rawOb":"SPECI SBSJ 270830Z 21003KT 5000 BR NSC 20/// Q1019","temp":null,"dewp":null,"wdir":210,"wspd":3,"visib":3.11,"altim":1019,"clouds":[],"obsTime":1774600200},"SBSM":{"icaoId":"SBSM","flightCategory":"LIFR","rawOb":"METAR SBSM 270900Z 08002KT 0200 R29///// R11/1700 FG VV002 22/22 Q1015","temp":22,"dewp":22,"wdir":80,"wspd":2,"visib":0.12,"altim":1015,"clouds":[{"cover":"OVX","base":200}],"obsTime":1774602000},"SBSR":{"icaoId":"SBSR","flightCategory":"VFR","rawOb":"METAR SBSR 270800Z 08003KT CAVOK 23/20 Q1017","temp":23,"dewp":20,"wdir":80,"wspd":3,"visib":"6+","altim":1017,"clouds":[],"obsTime":1774598400},"SBBH":{"icaoId":"SBBH","flightCategory":"VFR","rawOb":"METAR SBBH 270900Z 10003KT 9999 SCT040 20/18 Q1021","temp":20,"dewp":18,"wdir":100,"wspd":3,"visib":"6+","altim":1021,"clouds":[{"cover":"SCT","base":4000}],"obsTime":1774602000},"SBBU":{"icaoId":"SBBU","flightCategory":"VFR","rawOb":"METAR SBBU 270900Z 08006KT CAVOK 23/21 Q1018","temp":23,"dewp":21,"wdir":80,"wspd":6,"visib":"6+","altim":1018,"clouds":[],"obsTime":1774602000},"SBCA":{"icaoId":"SBCA","flightCategory":"VFR","rawOb":"METAR SBCA 270900Z 06008KT CAVOK 22/19 Q1018","temp":22,"dewp":19,"wdir":60,"wspd":8,"visib":"6+","altim":1018,"clouds":[],"obsTime":1774602000},"SBGW":{"icaoId":"SBGW","flightCategory":"MVFR","rawOb":"METAR SBGW 270900Z 05004KT 350V080 9000 BKN014 BKN100 20/16 Q1019","temp":20,"dewp":16,"wdir":50,"wspd":4,"visib":5.59,"altim":1019,"clouds":[{"cover":"BKN","base":1400},{"cover":"BKN","base":10000}],"obsTime":1774602000},"SBLS":{"icaoId":"SBLS","flightCategory":"VFR","rawOb":"METAR SBLS 270900Z 13008KT 9999 FEW025 19/17 Q1020","temp":19,"dewp":17,"wdir":130,"wspd":8,"visib":"6+","altim":1020,"clouds":[{"cover":"FEW","base":2500}],"obsTime":1774602000},"SBMT":{"icaoId":"SBMT","flightCategory":"IFR","rawOb":"METAR SBMT 270900Z 08006KT 5000 BR BKN009 20/20 Q1020","temp":20,"dewp":20,"wdir":80,"wspd":6,"visib":3.11,"altim":1020,"clouds":[{"cover":"BKN","base":900}],"obsTime":1774602000},"SBTA":{"icaoId":"SBTA","flightCategory":"MVFR","rawOb":"METAR SBTA 270900Z VRB02KT 7000 BCFG FEW010 19/18 Q1018","temp":19,"dewp":18,"wdir":"VRB","wspd":2,"visib":4.35,"altim":1018,"clouds":[{"cover":"FEW","base":1000}],"obsTime":1774602000},"SBJV":{"icaoId":"SBJV","flightCategory":"MVFR","rawOb":"METAR SBJV 270900Z 28003KT 8000 BKN030 23/23 Q1017","temp":23,"dewp":23,"wdir":280,"wspd":3,"visib":4.97,"altim":1017,"clouds":[{"cover":"BKN","base":3000}],"obsTime":1774602000},"SBJP":{"icaoId":"SBJP","flightCategory":"VFR","rawOb":"METAR SBJP 270800Z 20005KT CAVOK 24/23 Q1011","temp":24,"dewp":23,"wdir":200,"wspd":5,"visib":"6+","altim":1011,"clouds":[],"obsTime":1774598400},"SBAN":{"icaoId":"SBAN","flightCategory":"IFR","rawOb":"METAR SBAN 270800Z 11004KT 9999 BKN008 17/16 Q1020","temp":17,"dewp":16,"wdir":110,"wspd":4,"visib":"6+","altim":1020,"clouds":[{"cover":"BKN","base":800}],"obsTime":1774598400},"SBLE":{"icaoId":"SBLE","flightCategory":"VFR","rawOb":"METAR SBLE 270800Z AUTO VRB02KT 9999 FEW027 BKN031 ///// Q////","temp":null,"dewp":null,"wdir":"VRB","wspd":2,"visib":"6+","altim":null,"clouds":[{"cover":"FEW","base":2700},{"cover":"BKN","base":3100}],"obsTime":1774598400}}}