{"updated":1775906894,"count":81,"data":{"SBFZ":{"icaoId":"SBFZ","flightCategory":"VFR","rawOb":"METAR SBFZ 111000Z VRB02KT 9999 SCT020 BKN070 25/23 Q1012","temp":25,"dewp":23,"wdir":"VRB","wspd":2,"visib":"6+","altim":1012,"clouds":[{"cover":"SCT","base":2000},{"cover":"BKN","base":7000}],"obsTime":1775901600},"SBSN":{"icaoId":"SBSN","flightCategory":"VFR","rawOb":"METAR SBSN 111000Z 13004KT 9999 SCT013 BKN100 26/25 Q1012","temp":26,"dewp":25,"wdir":130,"wspd":4,"visib":"6+","altim":1012,"clouds":[{"cover":"SCT","base":1300},{"cover":"BKN","base":10000}],"obsTime":1775901600},"SBMG":{"icaoId":"SBMG","flightCategory":"VFR","rawOb":"METAR SBMG 111000Z 10010KT CAVOK 19/16 Q1018","temp":19,"dewp":16,"wdir":100,"wspd":10,"visib":"6+","altim":1018,"clouds":[],"obsTime":1775901600},"SBFL":{"icaoId":"SBFL","flightCategory":"VFR","rawOb":"METAR SBFL 111000Z 30006KT 9999 FEW033 SCT060 19/16 Q1021","temp":19,"dewp":16,"wdir":300,"wspd":6,"visib":"6+","altim":1021,"clouds":[{"cover":"FEW","base":3300},{"cover":"SCT","base":6000}],"obsTime":1775901600},"SBMK":{"icaoId":"SBMK","flightCategory":"VFR","rawOb":"METAR SBMK 111000Z 12002KT 9999 FEW030 BKN090 23/20 Q1019","temp":23,"dewp":20,"wdir":120,"wspd":2,"visib":"6+","altim":1019,"clouds":[{"cover":"FEW","base":3000},{"cover":"BKN","base":9000}],"obsTime":1775901600},"SBMO":{"icaoId":"SBMO","flightCategory":"VFR","rawOb":"METAR SBMO 111000Z 33003KT 9999 FEW020 25/24 Q1014","temp":25,"dewp":24,"wdir":330,"wspd":3,"visib":"6+","altim":1014,"clouds":[{"cover":"FEW","base":2000}],"obsTime":1775901600},"SBBV":{"icaoId":"SBBV","flightCategory":"VFR","rawOb":"METAR SBBV 111000Z 08010KT 9999 FEW040 BKN090 25/22 Q1012","temp":25,"dewp":22,"wdir":80,"wspd":10,"visib":"6+","altim":1012,"clouds":[{"cover":"FEW","base":4000},{"cover":"BKN","base":9000}],"obsTime":1775901600},"SBMQ":{"icaoId":"SBMQ","flightCategory":"VFR","rawOb":"METAR SBMQ 111000Z 36004KT CAVOK 25/24 Q1012","temp":25,"dewp":24,"wdir":360,"wspd":4,"visib":"6+","altim":1012,"clouds":[],"obsTime":1775901600},"SBNT":{"icaoId":"SBNT","flightCategory":"VFR","rawOb":"METAR SBNT 111000Z 19005KT 9999 VCSH FEW020 26/24 Q1013","temp":26,"dewp":24,"wdir":190,"wspd":5,"visib":"6+","altim":1013,"clouds":[{"cover":"FEW","base":2000}],"obsTime":1775901600},"SBBR":{"icaoId":"SBBR","flightCategory":"VFR","rawOb":"METAR SBBR 111000Z 15003KT 120V190 9999 FEW007 20/19 Q1019","temp":20,"dewp":19,"wdir":150,"wspd":3,"visib":"6+","altim":1019,"clouds":[{"cover":"FEW","base":700}],"obsTime":1775901600},"SBPA":{"icaoId":"SBPA","flightCategory":"VFR","rawOb":"METAR SBPA 111000Z 05003KT CAVOK 15/13 Q1019","temp":15,"dewp":13,"wdir":50,"wspd":3,"visib":"6+","altim":1019,"clouds":[],"obsTime":1775901600},"SBGL":{"icaoId":"SBGL","flightCategory":"VFR","rawOb":"METAR SBGL 111000Z 30002KT 9999 FEW030 BKN080 21/19 Q1020","temp":21,"dewp":19,"wdir":300,"wspd":2,"visib":"6+","altim":1020,"clouds":[{"cover":"FEW","base":3000},{"cover":"BKN","base":8000}],"obsTime":1775901600},"SBPJ":{"icaoId":"SBPJ","flightCategory":"VFR","rawOb":"METAR SBPJ 111000Z 12003KT 080V140 9999 FEW010 BKN080 24/24 Q1013","temp":24,"dewp":24,"wdir":120,"wspd":3,"visib":"6+","altim":1013,"clouds":[{"cover":"FEW","base":1000},{"cover":"BKN","base":8000}],"obsTime":1775901600},"SBCP":{"icaoId":"SBCP","flightCategory":"VFR","rawOb":"METAR SBCP 111000Z 22007KT 9999 SCT020 BKN090 22/20 Q1019","temp":22,"dewp":20,"wdir":220,"wspd":7,"visib":"6+","altim":1019,"clouds":[{"cover":"SCT","base":2000},{"cover":"BKN","base":9000}],"obsTime":1775901600},"SBVT":{"icaoId":"SBVT","flightCategory":"VFR","rawOb":"METAR SBVT 111000Z 28003KT 9999 SCT025 BKN040 OVC070 22/20 Q1018","temp":22,"dewp":20,"wdir":280,"wspd":3,"visib":"6+","altim":1018,"clouds":[{"cover":"SCT","base":2500},{"cover":"BKN","base":4000},{"cover":"OVC","base":7000}],"obsTime":1775901600},"SBUR":{"icaoId":"SBUR","flightCategory":"VFR","rawOb":"METAR SBUR 111000Z 04004KT CAVOK 21/18 Q1019","temp":21,"dewp":18,"wdir":40,"wspd":4,"visib":"6+","altim":1019,"clouds":[],"obsTime":1775901600},"SBPV":{"icaoId":"SBPV","flightCategory":"IFR","rawOb":"SPECI SBPV 110938Z 00000KT 9999 -RA BKN005 BKN030 25/24 Q1011 RERA","temp":25,"dewp":24,"wdir":0,"wspd":0,"visib":"6+","altim":1011,"clouds":[{"cover":"BKN","base":500},{"cover":"BKN","base":3000}],"obsTime":1775900280},"SBGO":{"icaoId":"SBGO","flightCategory":"VFR","rawOb":"METAR SBGO 111000Z 12007KT CAVOK 21/20 Q1018","temp":21,"dewp":20,"wdir":120,"wspd":7,"visib":"6+","altim":1018,"clouds":[],"obsTime":1775901600},"SBRB":{"icaoId":"SBRB","flightCategory":"MVFR","rawOb":"METAR SBRB 111000Z 16002KT 8000 BKN015 SCT065 24/23 Q1013","temp":24,"dewp":23,"wdir":160,"wspd":2,"visib":4.97,"altim":1013,"clouds":[{"cover":"BKN","base":1500},{"cover":"SCT","base":6500}],"obsTime":1775901600},"SBGR":{"icaoId":"SBGR","flightCategory":"MVFR","rawOb":"METAR SBGR 111000Z 05002KT 7000 3000E NSC 15/14 Q1022","temp":15,"dewp":14,"wdir":50,"wspd":2,"visib":4.35,"altim":1022,"clouds":[],"obsTime":1775901600},"SBRF":{"icaoId":"SBRF","flightCategory":"VFR","rawOb":"METAR SBRF 111000Z 23004KT 9999 FEW023 27/23 Q1013","temp":27,"dewp":23,"wdir":230,"wspd":4,"visib":"6+","altim":1013,"clouds":[{"cover":"FEW","base":2300}],"obsTime":1775901600},"SBCR":{"icaoId":"SBCR","flightCategory":"VFR","rawOb":"METAR SBCR 111100Z VRB02KT 9999 SCT005 25/24 Q1014","temp":25,"dewp":24,"wdir":"VRB","wspd":2,"visib":"6+","altim":1014,"clouds":[{"cover":"SCT","base":500}],"obsTime":1775905200},"SBSG":{"icaoId":"SBSG","flightCategory":"VFR","rawOb":"METAR SBSG 111000Z 18003KT 140V210 9999 SCT020 FEW023TCU 24/24 Q1013","temp":24,"dewp":24,"wdir":180,"wspd":3,"visib":"6+","altim":1013,"clouds":[{"cover":"SCT","base":2000},{"cover":"FEW","base":2300}],"obsTime":1775901600},"SBHT":{"icaoId":"SBHT","flightCategory":"VFR","rawOb":"METAR SBHT 111000Z 00000KT 9999 FEW010 BKN080 24/24 Q1012","temp":24,"dewp":24,"wdir":0,"wspd":0,"visib":"6+","altim":1012,"clouds":[{"cover":"FEW","base":1000},{"cover":"BKN","base":8000}],"obsTime":1775901600},"SBSL":{"icaoId":"SBSL","flightCategory":"VFR","rawOb":"METAR SBSL 111000Z 09009KT 9999 -RA FEW017 BKN080 24/23 Q1012","temp":24,"dewp":23,"wdir":90,"wspd":9,"visib":"6+","altim":1012,"clouds":[{"cover":"FEW","base":1700},{"cover":"BKN","base":8000}],"obsTime":1775901600},"SBMA":{"icaoId":"SBMA","flightCategory":"VFR","rawOb":"METAR SBMA 111000Z 35003KT 9999 FEW015 BKN100 25/23 Q1012","temp":25,"dewp":23,"wdir":350,"wspd":3,"visib":"6+","altim":1012,"clouds":[{"cover":"FEW","base":1500},{"cover":"BKN","base":10000}],"obsTime":1775901600},"SBME":{"icaoId":"SBME","flightCategory":"VFR","rawOb":"METAR SBME 111000Z 22001KT 9999 FEW020 BKN080 22/20 Q1019","temp":22,"dewp":20,"wdir":220,"wspd":1,"visib":"6+","altim":1019,"clouds":[{"cover":"FEW","base":2000},{"cover":"BKN","base":8000}],"obsTime":1775901600},"SBCG":{"icaoId":"SBCG","flightCategory":"VFR","rawOb":"METAR SBCG 111000Z 08013KT CAVOK 22/19 Q1016","temp":22,"dewp":19,"wdir":80,"wspd":13,"visib":"6+","altim":1016,"clouds":[],"obsTime":1775901600},"SBCB":{"icaoId":"SBCB","flightCategory":"VFR","rawOb":"METAR SBCB 111000Z 24007KT CAVOK 22/20 Q1020","temp":22,"dewp":20,"wdir":240,"wspd":7,"visib":"6+","altim":1020,"clouds":[],"obsTime":1775901600},"SBAT":{"icaoId":"SBAT","flightCategory":"VFR","rawOb":"METAR SBAT 111100Z 00000KT 9999 FEW010 25/25 Q1014","temp":25,"dewp":25,"wdir":0,"wspd":0,"visib":"6+","altim":1014,"clouds":[{"cover":"FEW","base":1000}],"obsTime":1775905200},"SBSP":{"icaoId":"SBSP","flightCategory":"VFR","rawOb":"METAR SBSP 111000Z 13007KT 090V150 CAVOK 17/14 Q1023","temp":17,"dewp":14,"wdir":130,"wspd":7,"visib":"6+","altim":1023,"clouds":[],"obsTime":1775901600},"SBIL":{"icaoId":"SBIL","flightCategory":"MVFR","rawOb":"METAR SBIL 111000Z 26004KT 7000 3000W RA FEW007 BKN016 25/24 Q1016","temp":25,"dewp":24,"wdir":260,"wspd":4,"visib":4.35,"altim":1016,"clouds":[{"cover":"FEW","base":700},{"cover":"BKN","base":1600}],"obsTime":1775901600},"SBSV":{"icaoId":"SBSV","flightCategory":"VFR","rawOb":"METAR SBSV 111000Z 13006KT 9999 SCT023 28/22 Q1014","temp":28,"dewp":22,"wdir":130,"wspd":6,"visib":"6+","altim":1014,"clouds":[{"cover":"SCT","base":2300}],"obsTime":1775901600},"SBTE":{"icaoId":"SBTE","flightCategory":"VFR","rawOb":"METAR SBTE 111000Z 35004KT 9999 SCT008 SCT020 25/24 Q1012","temp":25,"dewp":24,"wdir":350,"wspd":4,"visib":"6+","altim":1012,"clouds":[{"cover":"SCT","base":800},{"cover":"SCT","base":2000}],"obsTime":1775901600},"SBCT":{"icaoId":"SBCT","flightCategory":"VFR","rawOb":"METAR SBCT 111000Z 12004KT 9999 SCT011 14/14 Q1023","temp":14,"dewp":14,"wdir":120,"wspd":4,"visib":"6+","altim":1023,"clouds":[{"cover":"SCT","base":1100}],"obsTime":1775901600},"SBUL":{"icaoId":"SBUL","flightCategory":"VFR","rawOb":"METAR SBUL 111000Z 13010KT 080V160 CAVOK 20/18 Q1020","temp":20,"dewp":18,"wdir":130,"wspd":10,"visib":"6+","altim":1020,"clouds":[],"obsTime":1775901600},"SBJU":{"icaoId":"SBJU","flightCategory":"VFR","rawOb":"METAR SBJU 111000Z 00000KT CAVOK 23/22 Q1015","temp":23,"dewp":22,"wdir":0,"wspd":0,"visib":"6+","altim":1015,"clouds":[],"obsTime":1775901600},"SBEG":{"icaoId":"SBEG","flightCategory":"VFR","rawOb":"METAR SBEG 111000Z 34002KT 9999 2000N BCFG FEW007 FEW025TCU SCT070 24/23 Q1012","temp":24,"dewp":23,"wdir":340,"wspd":2,"visib":"6+","altim":1012,"clouds":[{"cover":"FEW","base":700},{"cover":"FEW","base":2500},{"cover":"SCT","base":7000}],"obsTime":1775901600},"SBBE":{"icaoId":"SBBE","flightCategory":"MVFR","rawOb":"METAR SBBE 111000Z 01002KT 9999 FEW007 SCT009 BKN013 26/25 Q1012","temp":26,"dewp":25,"wdir":10,"wspd":2,"visib":"6+","altim":1012,"clouds":[{"cover":"FEW","base":700},{"cover":"SCT","base":900},{"cover":"BKN","base":1300}],"obsTime":1775901600},"SBKP":{"icaoId":"SBKP","flightCategory":"VFR","rawOb":"METAR SBKP 111000Z 12011KT 9999 SCT045 17/14 Q1020","temp":17,"dewp":14,"wdir":120,"wspd":11,"visib":"6+","altim":1020,"clouds":[{"cover":"SCT","base":4500}],"obsTime":1775901600},"SBCF":{"icaoId":"SBCF","flightCategory":"VFR","rawOb":"METAR SBCF 111000Z 15006KT 9999 SCT020 19/18 Q1021","temp":19,"dewp":18,"wdir":150,"wspd":6,"visib":"6+","altim":1021,"clouds":[{"cover":"SCT","base":2000}],"obsTime":1775901600},"SBLO":{"icaoId":"SBLO","flightCategory":"VFR","rawOb":"METAR SBLO 111000Z 13007KT CAVOK 19/16 Q1019","temp":19,"dewp":16,"wdir":130,"wspd":7,"visib":"6+","altim":1019,"clouds":[],"obsTime":1775901600},"SBFI":{"icaoId":"SBFI","flightCategory":"VFR","rawOb":"METAR SBFI 111000Z 06004KT 9999 SCT035 BKN100 20/19 Q1016","temp":20,"dewp":19,"wdir":60,"wspd":4,"visib":"6+","altim":1016,"clouds":[{"cover":"SCT","base":3500},{"cover":"BKN","base":10000}],"obsTime":1775901600},"SBTF":{"icaoId":"SBTF","flightCategory":"VFR","rawOb":"SPECI SBTF 111115Z 18002KT CAVOK 26/26 Q1012","temp":26,"dewp":26,"wdir":180,"wspd":2,"visib":"6+","altim":1012,"clouds":[],"obsTime":1775906100},"SBPP":{"icaoId":"SBPP","flightCategory":"LIFR","rawOb":"SPECI SBPP 111115Z 04010KT 0900 FG VV000 19/19 Q1019","temp":19,"dewp":19,"wdir":40,"wspd":10,"visib":0.56,"altim":1019,"clouds":[{"cover":"OVX","base":0}],"obsTime":1775906100},"SBPS":{"icaoId":"SBPS","flightCategory":"VFR","rawOb":"METAR SBPS 111000Z 25003KT 210V270 9999 FEW017 BKN100 24/23 Q1016","temp":24,"dewp":23,"wdir":250,"wspd":3,"visib":"6+","altim":1016,"clouds":[{"cover":"FEW","base":1700},{"cover":"BKN","base":10000}],"obsTime":1775901600},"SBSC":{"icaoId":"SBSC","flightCategory":"VFR","rawOb":"METAR SBSC 111000Z 02001KT 9999 FEW030 BKN080 20/19 Q1020","temp":20,"dewp":19,"wdir":20,"wspd":1,"visib":"6+","altim":1020,"clouds":[{"cover":"FEW","base":3000},{"cover":"BKN","base":8000}],"obsTime":1775901600},"SBAX":{"icaoId":"SBAX","flightCategory":"MVFR","rawOb":"METAR SBAX 111000Z AUTO 09008KT 9999 OVC010 19/19 Q1021","temp":19,"dewp":19,"wdir":90,"wspd":8,"visib":"6+","altim":1021,"clouds":[{"cover":"OVC","base":1000}],"obsTime":1775901600},"SBDN":{"icaoId":"SBDN","flightCategory":"VFR","rawOb":"METAR SBDN 111000Z 11008KT CAVOK 19/15 Q1018","temp":19,"dewp":15,"wdir":110,"wspd":8,"visib":"6+","altim":1018,"clouds":[],"obsTime":1775901600},"SBSJ":{"icaoId":"SBSJ","flightCategory":"VFR","rawOb":"METAR SBSJ 111000Z 34001KT CAVOK 16/15 Q1022","temp":16,"dewp":15,"wdir":340,"wspd":1,"visib":"6+","altim":1022,"clouds":[],"obsTime":1775901600},"SBSM":{"icaoId":"SBSM","flightCategory":"VFR","rawOb":"METAR SBSM 111000Z VRB02KT CAVOK 11/11 Q1018","temp":11,"dewp":11,"wdir":"VRB","wspd":2,"visib":"6+","altim":1018,"clouds":[],"obsTime":1775901600},"SBBH":{"icaoId":"SBBH","flightCategory":"MVFR","rawOb":"METAR SBBH 111000Z 11008KT 9999 BKN023 20/18 Q1020","temp":20,"dewp":18,"wdir":110,"wspd":8,"visib":"6+","altim":1020,"clouds":[{"cover":"BKN","base":2300}],"obsTime":1775901600},"SBSR":{"icaoId":"SBSR","flightCategory":"VFR","rawOb":"METAR SBSR 111000Z 18004KT CAVOK 19/17 Q1018","temp":19,"dewp":17,"wdir":180,"wspd":4,"visib":"6+","altim":1018,"clouds":[],"obsTime":1775901600},"SBAR":{"icaoId":"SBAR","flightCategory":"MVFR","rawOb":"METAR SBAR 111000Z 30003KT 9999 FEW015 BKN020 26/24 Q1013","temp":26,"dewp":24,"wdir":300,"wspd":3,"visib":"6+","altim":1013,"clouds":[{"cover":"FEW","base":1500},{"cover":"BKN","base":2000}],"obsTime":1775901600},"SBTT":{"icaoId":"SBTT","flightCategory":"VFR","rawOb":"SPECI SBTT 111029Z 36002KT 9999 FEW010 BKN090 24/23 Q1012","temp":24,"dewp":23,"wdir":360,"wspd":2,"visib":"6+","altim":1012,"clouds":[{"cover":"FEW","base":1000},{"cover":"BKN","base":9000}],"obsTime":1775903340},"SBUY":{"icaoId":"SBUY","flightCategory":"MVFR","rawOb":"METAR SBUY 111100Z 00000KT 6000 NSC 23/23 Q1011","temp":23,"dewp":23,"wdir":0,"wspd":0,"visib":3.73,"altim":1011,"clouds":[],"obsTime":1775905200},"SBVH":{"icaoId":"SBVH","flightCategory":"VFR","rawOb":"METAR SBVH 111100Z 10003KT CAVOK 23/21 Q1016","temp":23,"dewp":21,"wdir":100,"wspd":3,"visib":"6+","altim":1016,"clouds":[],"obsTime":1775905200},"SBES":{"icaoId":"SBES","flightCategory":"VFR","rawOb":"METAR SBES 111000Z 23005KT 160V270 9999 FEW015 BKN080 21/// Q1020","temp":null,"dewp":null,"wdir":230,"wspd":5,"visib":"6+","altim":1020,"clouds":[{"cover":"FEW","base":1500},{"cover":"BKN","base":8000}],"obsTime":1775901600},"SBBU":{"icaoId":"SBBU","flightCategory":"VFR","rawOb":"METAR SBBU 111000Z 09007KT CAVOK 18/15 Q1019","temp":18,"dewp":15,"wdir":90,"wspd":7,"visib":"6+","altim":1019,"clouds":[],"obsTime":1775901600},"SBIP":{"icaoId":"SBIP","flightCategory":"VFR","rawOb":"METAR SBIP 111000Z AUTO 19004KT CAVOK 23/21 Q1019","temp":23,"dewp":21,"wdir":190,"wspd":4,"visib":"6+","altim":1019,"clouds":[],"obsTime":1775901600},"SBCA":{"icaoId":"SBCA","flightCategory":"VFR","rawOb":"METAR SBCA 111100Z 06015KT 9999 FEW020 BKN080 18/15 Q1020","temp":18,"dewp":15,"wdir":60,"wspd":15,"visib":"6+","altim":1020,"clouds":[{"cover":"FEW","base":2000},{"cover":"BKN","base":8000}],"obsTime":1775905200},"SBCC":{"icaoId":"SBCC","flightCategory":"VFR","rawOb":"METAR SBCC 111100Z 02005KT 9999 FEW025TCU BKN100 24/21 Q1015","temp":24,"dewp":21,"wdir":20,"wspd":5,"visib":"6+","altim":1015,"clouds":[{"cover":"FEW","base":2500},{"cover":"BKN","base":10000}],"obsTime":1775905200},"SBKG":{"icaoId":"SBKG","flightCategory":"VFR","rawOb":"METAR SBKG 111000Z 12005KT 9999 FEW013 24/21 Q1016","temp":24,"dewp":21,"wdir":120,"wspd":5,"visib":"6+","altim":1016,"clouds":[{"cover":"FEW","base":1300}],"obsTime":1775901600},"SBCJ":{"icaoId":"SBCJ","flightCategory":"MVFR","rawOb":"SPECI SBCJ 111015Z 00000KT 8000 SCT010 SCT017 23/22 Q1017","temp":23,"dewp":22,"wdir":0,"wspd":0,"visib":4.97,"altim":1017,"clouds":[{"cover":"SCT","base":1000},{"cover":"SCT","base":1700}],"obsTime":1775902500},"SBOI":{"icaoId":"SBOI","flightCategory":"VFR","rawOb":"METAR SBOI 111000Z AUTO 18001KT 9999 // FEW022/// SCT092/// 23/23 Q1013","temp":23,"dewp":23,"wdir":180,"wspd":1,"visib":"6+","altim":1013,"clouds":[{"cover":"FEW","base":2200},{"cover":"SCT","base":9200}],"obsTime":1775901600},"SBPB":{"icaoId":"SBPB","flightCategory":"VFR","rawOb":"SPECI SBPB 111015Z 04006KT 9999 FEW020 SCT100 27/25 Q1013","temp":27,"dewp":25,"wdir":40,"wspd":6,"visib":"6+","altim":1013,"clouds":[{"cover":"FEW","base":2000},{"cover":"SCT","base":10000}],"obsTime":1775902500},"SBPL":{"icaoId":"SBPL","flightCategory":"VFR","rawOb":"METAR SBPL 111000Z 10007KT 9999 SCT020 SCT070 25/21 Q1015","temp":25,"dewp":21,"wdir":100,"wspd":7,"visib":"6+","altim":1015,"clouds":[{"cover":"SCT","base":2000},{"cover":"SCT","base":7000}],"obsTime":1775901600},"SBCO":{"icaoId":"SBCO","flightCategory":"VFR","rawOb":"METAR SBCO 111000Z 00000KT CAVOK 12/12 Q1020","temp":12,"dewp":12,"wdir":0,"wspd":0,"visib":"6+","altim":1020,"clouds":[],"obsTime":1775901600},"SBJP":{"icaoId":"SBJP","flightCategory":"VFR","rawOb":"METAR SBJP 111000Z 16004KT 9999 FEW020 26/24 Q1013","temp":26,"dewp":24,"wdir":160,"wspd":4,"visib":"6+","altim":1013,"clouds":[{"cover":"FEW","base":2000}],"obsTime":1775901600},"SBPF":{"icaoId":"SBPF","flightCategory":"VFR","rawOb":"METAR SBPF 111000Z 08014KT CAVOK 16/12 Q1020","temp":16,"dewp":12,"wdir":80,"wspd":14,"visib":"6+","altim":1020,"clouds":[],"obsTime":1775901600},"SBIH":{"icaoId":"SBIH","flightCategory":"VFR","rawOb":"METAR SBIH 111100Z 00000KT 9999 FEW006 BKN080 23/23 Q1013","temp":23,"dewp":23,"wdir":0,"wspd":0,"visib":"6+","altim":1013,"clouds":[{"cover":"FEW","base":600},{"cover":"BKN","base":8000}],"obsTime":1775905200},"SBLE":{"icaoId":"SBLE","flightCategory":"VFR","rawOb":"METAR SBLE 111000Z AUTO 17003KT 120V210 9999 SCT019 BKN031 ///// Q////","temp":null,"dewp":null,"wdir":170,"wspd":3,"visib":"6+","altim":null,"clouds":[{"cover":"SCT","base":1900},{"cover":"BKN","base":3100}],"obsTime":1775901600},"SBAF":{"icaoId":"SBAF","flightCategory":"VFR","rawOb":"METAR SBAF 111000Z 27002KT 9999 FEW030 BKN080 20/20 Q1020","temp":20,"dewp":20,"wdir":270,"wspd":2,"visib":"6+","altim":1020,"clouds":[{"cover":"FEW","base":3000},{"cover":"BKN","base":8000}],"obsTime":1775901600},"SBGW":{"icaoId":"SBGW","flightCategory":"MVFR","rawOb":"METAR SBGW 111000Z 07003KT 8000 FEW010 OVC040 18/15 Q1022","temp":18,"dewp":15,"wdir":70,"wspd":3,"visib":4.97,"altim":1022,"clouds":[{"cover":"FEW","base":1000},{"cover":"OVC","base":4000}],"obsTime":1775901600},"SBJR":{"icaoId":"SBJR","flightCategory":"VFR","rawOb":"METAR SBJR 111000Z 35001KT 9999 FEW030 BKN080 20/20 Q1020","temp":20,"dewp":20,"wdir":350,"wspd":1,"visib":"6+","altim":1020,"clouds":[{"cover":"FEW","base":3000},{"cover":"BKN","base":8000}],"obsTime":1775901600},"SBLS":{"icaoId":"SBLS","flightCategory":"VFR","rawOb":"METAR SBLS 111000Z 16009KT 9999 SCT010 19/18 Q1020","temp":19,"dewp":18,"wdir":160,"wspd":9,"visib":"6+","altim":1020,"clouds":[{"cover":"SCT","base":1000}],"obsTime":1775901600},"SBMT":{"icaoId":"SBMT","flightCategory":"VFR","rawOb":"METAR SBMT 111000Z 09005KT CAVOK 16/14 Q1022","temp":16,"dewp":14,"wdir":90,"wspd":5,"visib":"6+","altim":1022,"clouds":[],"obsTime":1775901600},"SBST":{"icaoId":"SBST","flightCategory":"VFR","rawOb":"METAR SBST 111100Z 00000KT CAVOK 19/19 Q1020","temp":19,"dewp":19,"wdir":0,"wspd":0,"visib":"6+","altim":1020,"clouds":[],"obsTime":1775905200},"SBTA":{"icaoId":"SBTA","flightCategory":"VFR","rawOb":"METAR SBTA 111000Z VRB01KT CAVOK 17/17 Q1021","temp":17,"dewp":17,"wdir":"VRB","wspd":1,"visib":"6+","altim":1021,"clouds":[],"obsTime":1775901600},"SBAN":{"icaoId":"SBAN","flightCategory":"LIFR","rawOb":"METAR SBAN 111000Z 15007KT 0300 R06L/P2000 R24R/P2000 FG BKN002 19/18 Q1020","temp":19,"dewp":18,"wdir":150,"wspd":7,"visib":0.19,"altim":1020,"clouds":[{"cover":"BKN","base":200}],"obsTime":1775901600},"SBJV":{"icaoId":"SBJV","flightCategory":"MVFR","rawOb":"METAR SBJV 111000Z 34002KT 9999 BKN030 BKN055 19/19 Q1020","temp":19,"dewp":19,"wdir":340,"wspd":2,"visib":"6+","altim":1020,"clouds":[{"cover":"BKN","base":3000},{"cover":"BKN","base":5500}],"obsTime":1775901600}}}