{"updated":1783813181,"count":73,"data":{"SBPA":{"icaoId":"SBPA","flightCategory":"IFR","rawOb":"METAR SBPA 112200Z 25004KT 9000 OVC008 15/15 Q1013","temp":15,"dewp":15,"wdir":250,"wspd":4,"visib":5.59,"altim":1013,"clouds":[{"cover":"OVC","base":800}],"obsTime":1783807200},"SBPV":{"icaoId":"SBPV","flightCategory":"VFR","rawOb":"METAR SBPV 112200Z VRB02KT 9999 SCT035 FEW045TCU BKN100 26/23 Q1010","temp":26,"dewp":23,"wdir":"VRB","wspd":2,"visib":"6+","altim":1010,"clouds":[{"cover":"SCT","base":3500},{"cover":"FEW","base":4500},{"cover":"BKN","base":10000}],"obsTime":1783807200},"SBVT":{"icaoId":"SBVT","flightCategory":"VFR","rawOb":"METAR SBVT 112200Z 29002KT CAVOK 21/19 Q1014","temp":21,"dewp":19,"wdir":290,"wspd":2,"visib":"6+","altim":1014,"clouds":[],"obsTime":1783807200},"SBRB":{"icaoId":"SBRB","flightCategory":"VFR","rawOb":"METAR SBRB 112200Z 35005KT 9999 FEW025 BKN100 27/23 Q1011","temp":27,"dewp":23,"wdir":350,"wspd":5,"visib":"6+","altim":1011,"clouds":[{"cover":"FEW","base":2500},{"cover":"BKN","base":10000}],"obsTime":1783807200},"SBBE":{"icaoId":"SBBE","flightCategory":"VFR","rawOb":"METAR SBBE 112200Z 24002KT CAVOK 29/26 Q1011","temp":29,"dewp":26,"wdir":240,"wspd":2,"visib":"6+","altim":1011,"clouds":[],"obsTime":1783807200},"SBBR":{"icaoId":"SBBR","flightCategory":"VFR","rawOb":"METAR SBBR 112200Z 31004KT CAVOK 24/12 Q1019","temp":24,"dewp":12,"wdir":310,"wspd":4,"visib":"6+","altim":1019,"clouds":[],"obsTime":1783807200},"SBCZ":{"icaoId":"SBCZ","flightCategory":"VFR","rawOb":"METAR SBCZ 112200Z 16003KT 9999 FEW025 BKN100 25/25 Q1011","temp":25,"dewp":25,"wdir":160,"wspd":3,"visib":"6+","altim":1011,"clouds":[{"cover":"FEW","base":2500},{"cover":"BKN","base":10000}],"obsTime":1783807200},"SBFZ":{"icaoId":"SBFZ","flightCategory":"VFR","rawOb":"METAR SBFZ 112200Z 10011KT 9999 SCT018 27/24 Q1012","temp":27,"dewp":24,"wdir":100,"wspd":11,"visib":"6+","altim":1012,"clouds":[{"cover":"SCT","base":1800}],"obsTime":1783807200},"SBSP":{"icaoId":"SBSP","flightCategory":"VFR","rawOb":"METAR SBSP 112200Z 32006KT CAVOK 23/11 Q1016","temp":23,"dewp":11,"wdir":320,"wspd":6,"visib":"6+","altim":1016,"clouds":[],"obsTime":1783807200},"SBSN":{"icaoId":"SBSN","flightCategory":"VFR","rawOb":"METAR SBSN 112200Z 09010KT CAVOK 30/23 Q1010","temp":30,"dewp":23,"wdir":90,"wspd":10,"visib":"6+","altim":1010,"clouds":[],"obsTime":1783807200},"SBNT":{"icaoId":"SBNT","flightCategory":"VFR","rawOb":"METAR SBNT 112200Z 16008KT 9999 FEW025 25/22 Q1014","temp":25,"dewp":22,"wdir":160,"wspd":8,"visib":"6+","altim":1014,"clouds":[{"cover":"FEW","base":2500}],"obsTime":1783807200},"SBSL":{"icaoId":"SBSL","flightCategory":"VFR","rawOb":"METAR SBSL 112200Z 05013KT 9999 FEW025 28/24 Q1011","temp":28,"dewp":24,"wdir":50,"wspd":13,"visib":"6+","altim":1011,"clouds":[{"cover":"FEW","base":2500}],"obsTime":1783807200},"SBIL":{"icaoId":"SBIL","flightCategory":"MVFR","rawOb":"METAR SBIL 112200Z 06004KT 9999 BKN023 26/23 Q1015","temp":26,"dewp":23,"wdir":60,"wspd":4,"visib":"6+","altim":1015,"clouds":[{"cover":"BKN","base":2300}],"obsTime":1783807200},"SBJU":{"icaoId":"SBJU","flightCategory":"VFR","rawOb":"METAR SBJU 112200Z 09003KT 9999 FEW020 28/18 Q1014","temp":28,"dewp":18,"wdir":90,"wspd":3,"visib":"6+","altim":1014,"clouds":[{"cover":"FEW","base":2000}],"obsTime":1783807200},"SBMG":{"icaoId":"SBMG","flightCategory":"VFR","rawOb":"METAR SBMG 112200Z 18005KT 140V200 9999 VCTS FEW040 FEW050CB BKN090 20/18 Q1013 RETS","temp":20,"dewp":18,"wdir":180,"wspd":5,"visib":"6+","altim":1013,"clouds":[{"cover":"FEW","base":4000},{"cover":"FEW","base":5000},{"cover":"BKN","base":9000}],"obsTime":1783807200},"SBME":{"icaoId":"SBME","flightCategory":"VFR","rawOb":"METAR SBME 112200Z 35001KT CAVOK 21/19 Q1012","temp":21,"dewp":19,"wdir":350,"wspd":1,"visib":"6+","altim":1012,"clouds":[],"obsTime":1783807200},"SBMK":{"icaoId":"SBMK","flightCategory":"VFR","rawOb":"METAR SBMK 112200Z 16005KT CAVOK 25/08 Q1016","temp":25,"dewp":8,"wdir":160,"wspd":5,"visib":"6+","altim":1016,"clouds":[],"obsTime":1783807200},"SBUL":{"icaoId":"SBUL","flightCategory":"VFR","rawOb":"METAR SBUL 112200Z 34002KT CAVOK 25/10 Q1018","temp":25,"dewp":10,"wdir":340,"wspd":2,"visib":"6+","altim":1018,"clouds":[],"obsTime":1783807200},"SBUR":{"icaoId":"SBUR","flightCategory":"VFR","rawOb":"METAR SBUR 112200Z 30003KT CAVOK 26/10 Q1017","temp":26,"dewp":10,"wdir":300,"wspd":3,"visib":"6+","altim":1017,"clouds":[],"obsTime":1783807200},"SBSG":{"icaoId":"SBSG","flightCategory":"VFR","rawOb":"METAR SBSG 112200Z 14006KT 090V170 9999 SCT020 25/22 Q1015","temp":25,"dewp":22,"wdir":140,"wspd":6,"visib":"6+","altim":1015,"clouds":[{"cover":"SCT","base":2000}],"obsTime":1783807200},"SBKP":{"icaoId":"SBKP","flightCategory":"VFR","rawOb":"METAR SBKP 112200Z 35004KT CAVOK 24/14 Q1014","temp":24,"dewp":14,"wdir":350,"wspd":4,"visib":"6+","altim":1014,"clouds":[],"obsTime":1783807200},"SBGO":{"icaoId":"SBGO","flightCategory":"VFR","rawOb":"METAR SBGO 112200Z 35004KT 9999 FEW049 SCT080 27/14 Q1017","temp":27,"dewp":14,"wdir":350,"wspd":4,"visib":"6+","altim":1017,"clouds":[{"cover":"FEW","base":4900},{"cover":"SCT","base":8000}],"obsTime":1783807200},"SBFI":{"icaoId":"SBFI","flightCategory":"VFR","rawOb":"METAR SBFI 112200Z 28001KT 9999 SCT020 SCT070 21/21 Q1012","temp":21,"dewp":21,"wdir":280,"wspd":1,"visib":"6+","altim":1012,"clouds":[{"cover":"SCT","base":2000},{"cover":"SCT","base":7000}],"obsTime":1783807200},"SBRF":{"icaoId":"SBRF","flightCategory":"VFR","rawOb":"METAR SBRF 112200Z 14009KT 110V170 9999 FEW025 26/21 Q1015","temp":26,"dewp":21,"wdir":140,"wspd":9,"visib":"6+","altim":1015,"clouds":[{"cover":"FEW","base":2500}],"obsTime":1783807200},"SBSV":{"icaoId":"SBSV","flightCategory":"VFR","rawOb":"METAR SBSV 112200Z 06008KT CAVOK 25/21 Q1015","temp":25,"dewp":21,"wdir":60,"wspd":8,"visib":"6+","altim":1015,"clouds":[],"obsTime":1783807200},"SBPJ":{"icaoId":"SBPJ","flightCategory":"VFR","rawOb":"METAR SBPJ 112200Z 00000KT CAVOK 28/21 Q1012","temp":28,"dewp":21,"wdir":0,"wspd":0,"visib":"6+","altim":1012,"clouds":[],"obsTime":1783807200},"SBCT":{"icaoId":"SBCT","flightCategory":"MVFR","rawOb":"METAR SBCT 112200Z 35007KT 8000 -TSRA BKN020 FEW030CB OVC070 16/15 Q1015 RERA RETS","temp":16,"dewp":15,"wdir":350,"wspd":7,"visib":4.97,"altim":1015,"clouds":[{"cover":"BKN","base":2000},{"cover":"FEW","base":3000},{"cover":"OVC","base":7000}],"obsTime":1783807200},"SBMO":{"icaoId":"SBMO","flightCategory":"VFR","rawOb":"METAR SBMO 112200Z 07004KT 9999 FEW023 22/20 Q1016","temp":22,"dewp":20,"wdir":70,"wspd":4,"visib":"6+","altim":1016,"clouds":[{"cover":"FEW","base":2300}],"obsTime":1783807200},"SBMA":{"icaoId":"SBMA","flightCategory":"VFR","rawOb":"METAR SBMA 112200Z 06003KT 9999 FEW025TCU 31/21 Q1011","temp":31,"dewp":21,"wdir":60,"wspd":3,"visib":"6+","altim":1011,"clouds":[{"cover":"FEW","base":2500}],"obsTime":1783807200},"SBGL":{"icaoId":"SBGL","flightCategory":"VFR","rawOb":"METAR SBGL 112200Z 14006KT CAVOK 22/19 Q1011","temp":22,"dewp":19,"wdir":140,"wspd":6,"visib":"6+","altim":1011,"clouds":[],"obsTime":1783807200},"SBEG":{"icaoId":"SBEG","flightCategory":"VFR","rawOb":"METAR SBEG 112200Z 11007KT 9999 FEW025 30/24 Q1010","temp":30,"dewp":24,"wdir":110,"wspd":7,"visib":"6+","altim":1010,"clouds":[{"cover":"FEW","base":2500}],"obsTime":1783807200},"SBTE":{"icaoId":"SBTE","flightCategory":"VFR","rawOb":"METAR SBTE 112200Z 32005KT CAVOK 30/22 Q1010","temp":30,"dewp":22,"wdir":320,"wspd":5,"visib":"6+","altim":1010,"clouds":[],"obsTime":1783807200},"SBFL":{"icaoId":"SBFL","flightCategory":"MVFR","rawOb":"METAR SBFL 112200Z 34011KT 280V360 9999 FEW006 BKN012 BKN100 16/16 Q1009","temp":16,"dewp":16,"wdir":340,"wspd":11,"visib":"6+","altim":1009,"clouds":[{"cover":"FEW","base":600},{"cover":"BKN","base":1200},{"cover":"BKN","base":10000}],"obsTime":1783807200},"SBCF":{"icaoId":"SBCF","flightCategory":"VFR","rawOb":"METAR SBCF 112200Z 32004KT CAVOK 23/08 Q1018","temp":23,"dewp":8,"wdir":320,"wspd":4,"visib":"6+","altim":1018,"clouds":[],"obsTime":1783807200},"SBGR":{"icaoId":"SBGR","flightCategory":"VFR","rawOb":"METAR SBGR 112200Z 30003KT CAVOK 21/13 Q1015","temp":21,"dewp":13,"wdir":300,"wspd":3,"visib":"6+","altim":1015,"clouds":[],"obsTime":1783807200},"SBLO":{"icaoId":"SBLO","flightCategory":"VFR","rawOb":"METAR SBLO 112200Z 24004KT 9999 FEW040 24/16 Q1013","temp":24,"dewp":16,"wdir":240,"wspd":4,"visib":"6+","altim":1013,"clouds":[{"cover":"FEW","base":4000}],"obsTime":1783807200},"SBCG":{"icaoId":"SBCG","flightCategory":"VFR","rawOb":"METAR SBCG 112200Z 33004KT CAVOK 25/15 Q1014","temp":25,"dewp":15,"wdir":330,"wspd":4,"visib":"6+","altim":1014,"clouds":[],"obsTime":1783807200},"SBMQ":{"icaoId":"SBMQ","flightCategory":"VFR","rawOb":"METAR SBMQ 112200Z 04008KT 9999 FEW020 29/24 Q1011","temp":29,"dewp":24,"wdir":40,"wspd":8,"visib":"6+","altim":1011,"clouds":[{"cover":"FEW","base":2000}],"obsTime":1783807200},"SBBV":{"icaoId":"SBBV","flightCategory":"VFR","rawOb":"METAR SBBV 112200Z 11008KT 9999 SCT030 31/21 Q1010","temp":31,"dewp":21,"wdir":110,"wspd":8,"visib":"6+","altim":1010,"clouds":[{"cover":"SCT","base":3000}],"obsTime":1783807200},"SBHT":{"icaoId":"SBHT","flightCategory":"VFR","rawOb":"METAR SBHT 112200Z 00000KT CAVOK 26/24 Q1011","temp":26,"dewp":24,"wdir":0,"wspd":0,"visib":"6+","altim":1011,"clouds":[],"obsTime":1783807200},"SBCP":{"icaoId":"SBCP","flightCategory":"VFR","rawOb":"METAR SBCP 112200Z 08004KT CAVOK 21/19 Q1013","temp":21,"dewp":19,"wdir":80,"wspd":4,"visib":"6+","altim":1013,"clouds":[],"obsTime":1783807200},"SBCA":{"icaoId":"SBCA","flightCategory":"MVFR","rawOb":"METAR SBCA 112200Z 30008KT 8000 BCFG FEW001 FEW050TCU BKN100 18/17 Q1014","temp":18,"dewp":17,"wdir":300,"wspd":8,"visib":4.97,"altim":1014,"clouds":[{"cover":"FEW","base":100},{"cover":"FEW","base":5000},{"cover":"BKN","base":10000}],"obsTime":1783807200},"SBVH":{"icaoId":"SBVH","flightCategory":"VFR","rawOb":"METAR SBVH 112200Z 20001KT 9999 FEW040 BKN100 25/21 Q1014","temp":25,"dewp":21,"wdir":200,"wspd":1,"visib":"6+","altim":1014,"clouds":[{"cover":"FEW","base":4000},{"cover":"BKN","base":10000}],"obsTime":1783807200},"SBPL":{"icaoId":"SBPL","flightCategory":"VFR","rawOb":"METAR SBPL 112200Z 14005KT CAVOK 29/16 Q1014","temp":29,"dewp":16,"wdir":140,"wspd":5,"visib":"6+","altim":1014,"clouds":[],"obsTime":1783807200},"SBOI":{"icaoId":"SBOI","flightCategory":"VFR","rawOb":"METAR SBOI 112200Z AUTO 16005KT 090V190 9999 SCT030 BKN039 28/24 Q1012","temp":28,"dewp":24,"wdir":160,"wspd":5,"visib":"6+","altim":1012,"clouds":[{"cover":"SCT","base":3000},{"cover":"BKN","base":3900}],"obsTime":1783807200},"SBSJ":{"icaoId":"SBSJ","flightCategory":"VFR","rawOb":"METAR SBSJ 112200Z 36003KT 320V020 CAVOK 22/15 Q1014","temp":22,"dewp":15,"wdir":360,"wspd":3,"visib":"6+","altim":1014,"clouds":[],"obsTime":1783807200},"SBKG":{"icaoId":"SBKG","flightCategory":"VFR","rawOb":"METAR SBKG 112200Z 09007KT CAVOK 22/20 Q1017","temp":22,"dewp":20,"wdir":90,"wspd":7,"visib":"6+","altim":1017,"clouds":[],"obsTime":1783807200},"SBCO":{"icaoId":"SBCO","flightCategory":"IFR","rawOb":"METAR SBCO 112200Z 25005KT 6000 FEW004 BKN006 OVC012 15/15 Q1013","temp":15,"dewp":15,"wdir":250,"wspd":5,"visib":3.73,"altim":1013,"clouds":[{"cover":"FEW","base":400},{"cover":"BKN","base":600},{"cover":"OVC","base":1200}],"obsTime":1783807200},"SBSM":{"icaoId":"SBSM","flightCategory":"IFR","rawOb":"METAR SBSM 112200Z 19003KT 7000 -DZ OVC009 15/15 Q1014","temp":15,"dewp":15,"wdir":190,"wspd":3,"visib":4.35,"altim":1014,"clouds":[{"cover":"OVC","base":900}],"obsTime":1783807200},"SBAX":{"icaoId":"SBAX","flightCategory":"VFR","rawOb":"METAR SBAX 112200Z AUTO 34003KT CAVOK 23/07 Q1018","temp":23,"dewp":7,"wdir":340,"wspd":3,"visib":"6+","altim":1018,"clouds":[],"obsTime":1783807200},"SBBH":{"icaoId":"SBBH","flightCategory":"VFR","rawOb":"METAR SBBH 112200Z 00000KT CAVOK 20/11 Q1018","temp":20,"dewp":11,"wdir":0,"wspd":0,"visib":"6+","altim":1018,"clouds":[],"obsTime":1783807200},"SBBU":{"icaoId":"SBBU","flightCategory":"VFR","rawOb":"METAR SBBU 112200Z 33005KT CAVOK 26/15 Q1014","temp":26,"dewp":15,"wdir":330,"wspd":5,"visib":"6+","altim":1014,"clouds":[],"obsTime":1783807200},"SBDN":{"icaoId":"SBDN","flightCategory":"VFR","rawOb":"METAR SBDN 112200Z 34003KT CAVOK 26/16 Q1013","temp":26,"dewp":16,"wdir":340,"wspd":3,"visib":"6+","altim":1013,"clouds":[],"obsTime":1783807200},"SBIP":{"icaoId":"SBIP","flightCategory":"VFR","rawOb":"METAR SBIP 112200Z AUTO 21002KT CAVOK 17/15 Q1014","temp":17,"dewp":15,"wdir":210,"wspd":2,"visib":"6+","altim":1014,"clouds":[],"obsTime":1783807200},"SBSC":{"icaoId":"SBSC","flightCategory":"VFR","rawOb":"METAR SBSC 112200Z 31002KT CAVOK 20/19 Q1011","temp":20,"dewp":19,"wdir":310,"wspd":2,"visib":"6+","altim":1011,"clouds":[],"obsTime":1783807200},"SBSR":{"icaoId":"SBSR","flightCategory":"VFR","rawOb":"METAR SBSR 112200Z VRB01KT CAVOK 26/12 Q1015","temp":26,"dewp":12,"wdir":"VRB","wspd":1,"visib":"6+","altim":1015,"clouds":[],"obsTime":1783807200},"SBTT":{"icaoId":"SBTT","flightCategory":"VFR","rawOb":"METAR SBTT 112200Z 14006KT 9999 FEW013 SCT020 25/23 Q1011","temp":25,"dewp":23,"wdir":140,"wspd":6,"visib":"6+","altim":1011,"clouds":[{"cover":"FEW","base":1300},{"cover":"SCT","base":2000}],"obsTime":1783807200},"SBTU":{"icaoId":"SBTU","flightCategory":"VFR","rawOb":"METAR SBTU 112200Z AUTO 00000KT 9999 // NCD 25/23 Q1014","temp":25,"dewp":23,"wdir":0,"wspd":0,"visib":"6+","altim":1014,"clouds":[],"obsTime":1783807200},"SBPS":{"icaoId":"SBPS","flightCategory":"VFR","rawOb":"METAR SBPS 112200Z 03008KT 9999 FEW020 24/22 Q1015","temp":24,"dewp":22,"wdir":30,"wspd":8,"visib":"6+","altim":1015,"clouds":[{"cover":"FEW","base":2000}],"obsTime":1783807200},"SBAR":{"icaoId":"SBAR","flightCategory":"MVFR","rawOb":"METAR SBAR 112200Z 09007KT 9999 BKN025 26/21 Q1015","temp":26,"dewp":21,"wdir":90,"wspd":7,"visib":"6+","altim":1015,"clouds":[{"cover":"BKN","base":2500}],"obsTime":1783807200},"SBTF":{"icaoId":"SBTF","flightCategory":"VFR","rawOb":"METAR SBTF 112200Z 35004KT 9999 FEW020 FEW025TCU SCT100 30/26 Q1010","temp":30,"dewp":26,"wdir":350,"wspd":4,"visib":"6+","altim":1010,"clouds":[{"cover":"FEW","base":2000},{"cover":"FEW","base":2500},{"cover":"SCT","base":10000}],"obsTime":1783807200},"SBUY":{"icaoId":"SBUY","flightCategory":"VFR","rawOb":"METAR SBUY 112200Z 30002KT 9999 FEW025 SCT100 26/25 Q1009","temp":26,"dewp":25,"wdir":300,"wspd":2,"visib":"6+","altim":1009,"clouds":[{"cover":"FEW","base":2500},{"cover":"SCT","base":10000}],"obsTime":1783807200},"SBPB":{"icaoId":"SBPB","flightCategory":"VFR","rawOb":"SPECI SBPB 112145Z 07011KT 9999 FEW020 28/24 Q1011","temp":28,"dewp":24,"wdir":70,"wspd":11,"visib":"6+","altim":1011,"clouds":[{"cover":"FEW","base":2000}],"obsTime":1783806300},"SBJP":{"icaoId":"SBJP","flightCategory":"VFR","rawOb":"METAR SBJP 112200Z 14006KT CAVOK 24/22 Q1015","temp":24,"dewp":22,"wdir":140,"wspd":6,"visib":"6+","altim":1015,"clouds":[],"obsTime":1783807200},"SBLE":{"icaoId":"SBLE","flightCategory":"VFR","rawOb":"METAR SBLE 112200Z AUTO 04003KT CAVOK ///// Q1017","temp":null,"dewp":null,"wdir":40,"wspd":3,"visib":"6+","altim":1017,"clouds":[],"obsTime":1783807200},"SBAN":{"icaoId":"SBAN","flightCategory":"VFR","rawOb":"METAR SBAN 112200Z 33002KT CAVOK 20/13 Q1020","temp":20,"dewp":13,"wdir":330,"wspd":2,"visib":"6+","altim":1020,"clouds":[],"obsTime":1783807200},"SBJV":{"icaoId":"SBJV","flightCategory":"MVFR","rawOb":"METAR SBJV 112200Z 17002KT 5000 -RA BKN010 OVC030 16/16 Q1012 RERA","temp":16,"dewp":16,"wdir":170,"wspd":2,"visib":3.11,"altim":1012,"clouds":[{"cover":"BKN","base":1000},{"cover":"OVC","base":3000}],"obsTime":1783807200},"SBNM":{"icaoId":"SBNM","flightCategory":"MVFR","rawOb":"METAR SBNM 112200Z 23010KT 9999 SCT010 BKN015 OVC096 17/16 Q1014","temp":17,"dewp":16,"wdir":230,"wspd":10,"visib":"6+","altim":1014,"clouds":[{"cover":"SCT","base":1000},{"cover":"BKN","base":1500},{"cover":"OVC","base":9600}],"obsTime":1783807200},"SBAF":{"icaoId":"SBAF","flightCategory":"VFR","rawOb":"METAR SBAF 112200Z 26003KT 240V320 CAVOK 20/20 Q1011","temp":20,"dewp":20,"wdir":260,"wspd":3,"visib":"6+","altim":1011,"clouds":[],"obsTime":1783807200},"SBJR":{"icaoId":"SBJR","flightCategory":"VFR","rawOb":"METAR SBJR 112200Z 00000KT CAVOK 19/17 Q1011","temp":19,"dewp":17,"wdir":0,"wspd":0,"visib":"6+","altim":1011,"clouds":[],"obsTime":1783807200},"SBLS":{"icaoId":"SBLS","flightCategory":"VFR","rawOb":"METAR SBLS 112200Z 36003KT 310V010 CAVOK 23/08 Q1084","temp":23,"dewp":8,"wdir":360,"wspd":3,"visib":"6+","altim":null,"clouds":[],"obsTime":1783807200},"SBMT":{"icaoId":"SBMT","flightCategory":"VFR","rawOb":"METAR SBMT 112200Z 00000KT CAVOK 20/11 Q1015","temp":20,"dewp":11,"wdir":0,"wspd":0,"visib":"6+","altim":1015,"clouds":[],"obsTime":1783807200},"SBGW":{"icaoId":"SBGW","flightCategory":"VFR","rawOb":"METAR SBGW 112200Z 02003KT CAVOK 21/11 Q1014","temp":21,"dewp":11,"wdir":20,"wspd":3,"visib":"6+","altim":1014,"clouds":[],"obsTime":1783807200}}}