{"updated":1780850875,"count":86,"data":{"SBMA":{"icaoId":"SBMA","flightCategory":"VFR","rawOb":"METAR SBMA 071500Z 06005KT 9999 FEW020 33/21 Q1012","temp":33,"dewp":21,"wdir":60,"wspd":5,"visib":"6+","altim":1012,"clouds":[{"cover":"FEW","base":2000}],"obsTime":1780844400},"SBBE":{"icaoId":"SBBE","flightCategory":"MVFR","rawOb":"METAR SBBE 071500Z 09008KT 9999 BKN030 31/23 Q1012","temp":31,"dewp":23,"wdir":90,"wspd":8,"visib":"6+","altim":1012,"clouds":[{"cover":"BKN","base":3000}],"obsTime":1780844400},"SBME":{"icaoId":"SBME","flightCategory":"VFR","rawOb":"METAR SBME 071500Z 12006KT CAVOK 24/16 Q1017","temp":24,"dewp":16,"wdir":120,"wspd":6,"visib":"6+","altim":1017,"clouds":[],"obsTime":1780844400},"SBFI":{"icaoId":"SBFI","flightCategory":"VFR","rawOb":"METAR SBFI 071500Z 03007KT CAVOK 24/15 Q1017","temp":24,"dewp":15,"wdir":30,"wspd":7,"visib":"6+","altim":1017,"clouds":[],"obsTime":1780844400},"SBMG":{"icaoId":"SBMG","flightCategory":"VFR","rawOb":"METAR SBMG 071500Z VRB03KT 9999 SCT030 22/13 Q1018","temp":22,"dewp":13,"wdir":"VRB","wspd":3,"visib":"6+","altim":1018,"clouds":[{"cover":"SCT","base":3000}],"obsTime":1780844400},"SBKP":{"icaoId":"SBKP","flightCategory":"VFR","rawOb":"METAR SBKP 071500Z 00000KT CAVOK 21/09 Q1020","temp":21,"dewp":9,"wdir":0,"wspd":0,"visib":"6+","altim":1020,"clouds":[],"obsTime":1780844400},"SBAT":{"icaoId":"SBAT","flightCategory":"VFR","rawOb":"METAR SBAT 071500Z 11007KT 9999 FEW030 32/19 Q1015","temp":32,"dewp":19,"wdir":110,"wspd":7,"visib":"6+","altim":1015,"clouds":[{"cover":"FEW","base":3000}],"obsTime":1780844400},"SBLO":{"icaoId":"SBLO","flightCategory":"VFR","rawOb":"METAR SBLO 071500Z 08004KT 9999 FEW025 21/14 Q1019","temp":21,"dewp":14,"wdir":80,"wspd":4,"visib":"6+","altim":1019,"clouds":[{"cover":"FEW","base":2500}],"obsTime":1780844400},"SBEG":{"icaoId":"SBEG","flightCategory":"MVFR","rawOb":"METAR SBEG 071500Z 03003KT 330V100 9999 BKN020 29/24 Q1014","temp":29,"dewp":24,"wdir":30,"wspd":3,"visib":"6+","altim":1014,"clouds":[{"cover":"BKN","base":2000}],"obsTime":1780844400},"SBMK":{"icaoId":"SBMK","flightCategory":"VFR","rawOb":"METAR SBMK 071500Z 04004KT CAVOK 24/12 Q1019","temp":24,"dewp":12,"wdir":40,"wspd":4,"visib":"6+","altim":1019,"clouds":[],"obsTime":1780844400},"SBMO":{"icaoId":"SBMO","flightCategory":"MVFR","rawOb":"METAR SBMO 071500Z 11004KT 080V150 9999 VCSH SCT018 BKN030 OVC037 25/22 Q1015","temp":25,"dewp":22,"wdir":110,"wspd":4,"visib":"6+","altim":1015,"clouds":[{"cover":"SCT","base":1800},{"cover":"BKN","base":3000},{"cover":"OVC","base":3700}],"obsTime":1780844400},"SBCG":{"icaoId":"SBCG","flightCategory":"VFR","rawOb":"METAR SBCG 071500Z 05010KT CAVOK 25/11 Q1018","temp":25,"dewp":11,"wdir":50,"wspd":10,"visib":"6+","altim":1018,"clouds":[],"obsTime":1780844400},"SBFL":{"icaoId":"SBFL","flightCategory":"VFR","rawOb":"METAR SBFL 071500Z 11007KT 9999 SCT015 SCT080 20/17 Q1018","temp":20,"dewp":17,"wdir":110,"wspd":7,"visib":"6+","altim":1018,"clouds":[{"cover":"SCT","base":1500},{"cover":"SCT","base":8000}],"obsTime":1780844400},"SBMQ":{"icaoId":"SBMQ","flightCategory":"VFR","rawOb":"METAR SBMQ 071500Z 05008KT 9999 SCT023 31/25 Q1012","temp":31,"dewp":25,"wdir":50,"wspd":8,"visib":"6+","altim":1012,"clouds":[{"cover":"SCT","base":2300}],"obsTime":1780844400},"SBBV":{"icaoId":"SBBV","flightCategory":"VFR","rawOb":"METAR SBBV 071500Z 13003KT 9999 SCT020 FEW030TCU BKN080 27/22 Q1015","temp":27,"dewp":22,"wdir":130,"wspd":3,"visib":"6+","altim":1015,"clouds":[{"cover":"SCT","base":2000},{"cover":"FEW","base":3000},{"cover":"BKN","base":8000}],"obsTime":1780844400},"SBNT":{"icaoId":"SBNT","flightCategory":"MVFR","rawOb":"METAR SBNT 071500Z 16010KT 120V210 9999 BKN026 SCT054 BKN100 29/22 Q1014","temp":29,"dewp":22,"wdir":160,"wspd":10,"visib":"6+","altim":1014,"clouds":[{"cover":"BKN","base":2600},{"cover":"SCT","base":5400},{"cover":"BKN","base":10000}],"obsTime":1780844400},"SBFZ":{"icaoId":"SBFZ","flightCategory":"MVFR","rawOb":"METAR SBFZ 071500Z 15011KT 130V200 9999 BKN025 29/22 Q1012","temp":29,"dewp":22,"wdir":150,"wspd":11,"visib":"6+","altim":1012,"clouds":[{"cover":"BKN","base":2500}],"obsTime":1780844400},"SBPA":{"icaoId":"SBPA","flightCategory":"MVFR","rawOb":"METAR SBPA 071500Z 10005KT 070V130 9999 OVC013 18/14 Q1019","temp":18,"dewp":14,"wdir":100,"wspd":5,"visib":"6+","altim":1019,"clouds":[{"cover":"OVC","base":1300}],"obsTime":1780844400},"SBPJ":{"icaoId":"SBPJ","flightCategory":"VFR","rawOb":"METAR SBPJ 071500Z 10009KT 070V140 CAVOK 32/18 Q1014","temp":32,"dewp":18,"wdir":100,"wspd":9,"visib":"6+","altim":1014,"clouds":[],"obsTime":1780844400},"SBCP":{"icaoId":"SBCP","flightCategory":"VFR","rawOb":"METAR SBCP 071500Z 31008KT CAVOK 26/14 Q1016","temp":26,"dewp":14,"wdir":310,"wspd":8,"visib":"6+","altim":1016,"clouds":[],"obsTime":1780844400},"SBGL":{"icaoId":"SBGL","flightCategory":"VFR","rawOb":"METAR SBGL 071500Z 04003KT CAVOK 25/16 Q1017","temp":25,"dewp":16,"wdir":40,"wspd":3,"visib":"6+","altim":1017,"clouds":[],"obsTime":1780844400},"SBPV":{"icaoId":"SBPV","flightCategory":"IFR","rawOb":"METAR SBPV 071500Z 01003KT 9999 BKN008 26/23 Q1014","temp":26,"dewp":23,"wdir":10,"wspd":3,"visib":"6+","altim":1014,"clouds":[{"cover":"BKN","base":800}],"obsTime":1780844400},"SBGO":{"icaoId":"SBGO","flightCategory":"VFR","rawOb":"METAR SBGO 071500Z 33006KT CAVOK 26/09 Q1019","temp":26,"dewp":9,"wdir":330,"wspd":6,"visib":"6+","altim":1019,"clouds":[],"obsTime":1780844400},"SBRB":{"icaoId":"SBRB","flightCategory":"VFR","rawOb":"METAR SBRB 071500Z 32003KT 9999 FEW020 BKN080 27/21 Q1022","temp":27,"dewp":21,"wdir":320,"wspd":3,"visib":"6+","altim":1022,"clouds":[{"cover":"FEW","base":2000},{"cover":"BKN","base":8000}],"obsTime":1780844400},"SBRF":{"icaoId":"SBRF","flightCategory":"VFR","rawOb":"METAR SBRF 071500Z 17008KT 9999 SCT020 OVC050 26/22 Q1014","temp":26,"dewp":22,"wdir":170,"wspd":8,"visib":"6+","altim":1014,"clouds":[{"cover":"SCT","base":2000},{"cover":"OVC","base":5000}],"obsTime":1780844400},"SBBR":{"icaoId":"SBBR","flightCategory":"VFR","rawOb":"METAR SBBR 071500Z VRB05KT CAVOK 22/09 Q1021","temp":22,"dewp":9,"wdir":"VRB","wspd":5,"visib":"6+","altim":1021,"clouds":[],"obsTime":1780844400},"SBSG":{"icaoId":"SBSG","flightCategory":"MVFR","rawOb":"METAR SBSG 071500Z 15008KT 100V190 9999 VCSH BKN025 FEW030TCU 28/22 Q1014","temp":28,"dewp":22,"wdir":150,"wspd":8,"visib":"6+","altim":1014,"clouds":[{"cover":"BKN","base":2500},{"cover":"FEW","base":3000}],"obsTime":1780844400},"SBCR":{"icaoId":"SBCR","flightCategory":"VFR","rawOb":"METAR SBCR 071500Z 08008KT CAVOK 28/14 Q1015","temp":28,"dewp":14,"wdir":80,"wspd":8,"visib":"6+","altim":1015,"clouds":[],"obsTime":1780844400},"SBSL":{"icaoId":"SBSL","flightCategory":"VFR","rawOb":"METAR SBSL 071500Z 14005KT 9999 SCT030 31/23 Q1012","temp":31,"dewp":23,"wdir":140,"wspd":5,"visib":"6+","altim":1012,"clouds":[{"cover":"SCT","base":3000}],"obsTime":1780844400},"SBGR":{"icaoId":"SBGR","flightCategory":"VFR","rawOb":"METAR SBGR 071500Z 05005KT CAVOK 21/07 Q1020","temp":21,"dewp":7,"wdir":50,"wspd":5,"visib":"6+","altim":1020,"clouds":[],"obsTime":1780844400},"SBCT":{"icaoId":"SBCT","flightCategory":"VFR","rawOb":"METAR SBCT 071500Z VRB03KT 9999 SCT025 19/10 Q1020","temp":19,"dewp":10,"wdir":"VRB","wspd":3,"visib":"6+","altim":1020,"clouds":[{"cover":"SCT","base":2500}],"obsTime":1780844400},"SBSN":{"icaoId":"SBSN","flightCategory":"VFR","rawOb":"METAR SBSN 071500Z 08007KT 9999 SCT016 BKN100 27/25 Q1013","temp":27,"dewp":25,"wdir":80,"wspd":7,"visib":"6+","altim":1013,"clouds":[{"cover":"SCT","base":1600},{"cover":"BKN","base":10000}],"obsTime":1780844400},"SBHT":{"icaoId":"SBHT","flightCategory":"MVFR","rawOb":"METAR SBHT 071500Z 10006KT 9999 BKN023 30/25 Q1013","temp":30,"dewp":25,"wdir":100,"wspd":6,"visib":"6+","altim":1013,"clouds":[{"cover":"BKN","base":2300}],"obsTime":1780844400},"SBSP":{"icaoId":"SBSP","flightCategory":"VFR","rawOb":"METAR SBSP 071500Z VRB04KT CAVOK 21/07 Q1021","temp":21,"dewp":7,"wdir":"VRB","wspd":4,"visib":"6+","altim":1021,"clouds":[],"obsTime":1780844400},"SBCB":{"icaoId":"SBCB","flightCategory":"VFR","rawOb":"METAR SBCB 071500Z 25006KT CAVOK 24/16 Q1017","temp":24,"dewp":16,"wdir":250,"wspd":6,"visib":"6+","altim":1017,"clouds":[],"obsTime":1780844400},"SBSV":{"icaoId":"SBSV","flightCategory":"MVFR","rawOb":"METAR SBSV 071500Z 21005KT 170V250 6000 VCSH BKN020 FEW023TCU BKN040 BKN070 24/21 Q1017","temp":24,"dewp":21,"wdir":210,"wspd":5,"visib":3.73,"altim":1017,"clouds":[{"cover":"BKN","base":2000},{"cover":"FEW","base":2300},{"cover":"BKN","base":4000},{"cover":"BKN","base":7000}],"obsTime":1780844400},"SBIL":{"icaoId":"SBIL","flightCategory":"VFR","rawOb":"METAR SBIL 071500Z 16006KT 120V200 9999 SCT023 SCT080 26/20 Q1018","temp":26,"dewp":20,"wdir":160,"wspd":6,"visib":"6+","altim":1018,"clouds":[{"cover":"SCT","base":2300},{"cover":"SCT","base":8000}],"obsTime":1780844400},"SBTE":{"icaoId":"SBTE","flightCategory":"VFR","rawOb":"METAR SBTE 071500Z 13007KT CAVOK 32/21 Q1012","temp":32,"dewp":21,"wdir":130,"wspd":7,"visib":"6+","altim":1012,"clouds":[],"obsTime":1780844400},"SBCF":{"icaoId":"SBCF","flightCategory":"VFR","rawOb":"METAR SBCF 071500Z 31003KT CAVOK 22/09 Q1021","temp":22,"dewp":9,"wdir":310,"wspd":3,"visib":"6+","altim":1021,"clouds":[],"obsTime":1780844400},"SBUL":{"icaoId":"SBUL","flightCategory":"VFR","rawOb":"METAR SBUL 071500Z 07012KT 020V100 CAVOK 21/07 Q1021","temp":21,"dewp":7,"wdir":70,"wspd":12,"visib":"6+","altim":1021,"clouds":[],"obsTime":1780844400},"SBJU":{"icaoId":"SBJU","flightCategory":"VFR","rawOb":"METAR SBJU 071500Z 15010KT 9999 SCT020 30/19 Q1016","temp":30,"dewp":19,"wdir":150,"wspd":10,"visib":"6+","altim":1016,"clouds":[{"cover":"SCT","base":2000}],"obsTime":1780844400},"SBUR":{"icaoId":"SBUR","flightCategory":"VFR","rawOb":"METAR SBUR 071500Z 36004KT CAVOK 23/08 Q1020","temp":23,"dewp":8,"wdir":360,"wspd":4,"visib":"6+","altim":1020,"clouds":[],"obsTime":1780844400},"SBVT":{"icaoId":"SBVT","flightCategory":"VFR","rawOb":"METAR SBVT 071500Z 22003KT 9999 FEW049 26/15 Q1016","temp":26,"dewp":15,"wdir":220,"wspd":3,"visib":"6+","altim":1016,"clouds":[{"cover":"FEW","base":4900}],"obsTime":1780844400},"SBCZ":{"icaoId":"SBCZ","flightCategory":"VFR","rawOb":"METAR SBCZ 071500Z 03003KT 9999 FEW012 28/24 Q1014","temp":28,"dewp":24,"wdir":30,"wspd":3,"visib":"6+","altim":1014,"clouds":[{"cover":"FEW","base":1200}],"obsTime":1780844400},"SBAX":{"icaoId":"SBAX","flightCategory":"VFR","rawOb":"METAR SBAX 071500Z AUTO 05005KT 350V110 CAVOK 21/09 Q1021","temp":21,"dewp":9,"wdir":50,"wspd":5,"visib":"6+","altim":1021,"clouds":[],"obsTime":1780844400},"SBBQ":{"icaoId":"SBBQ","flightCategory":"VFR","rawOb":"METAR SBBQ 071500Z 33004KT CAVOK 20/08 Q1023","temp":20,"dewp":8,"wdir":330,"wspd":4,"visib":"6+","altim":1023,"clouds":[],"obsTime":1780844400},"SBPB":{"icaoId":"SBPB","flightCategory":"VFR","rawOb":"METAR SBPB 071500Z 13004KT 9999 FEW020 30/23 Q1012","temp":30,"dewp":23,"wdir":130,"wspd":4,"visib":"6+","altim":1012,"clouds":[{"cover":"FEW","base":2000}],"obsTime":1780844400},"SBCO":{"icaoId":"SBCO","flightCategory":"MVFR","rawOb":"METAR SBCO 071500Z VRB06KT 9999 OVC014 18/14 Q1019","temp":18,"dewp":14,"wdir":"VRB","wspd":6,"visib":"6+","altim":1019,"clouds":[{"cover":"OVC","base":1400}],"obsTime":1780844400},"SBPL":{"icaoId":"SBPL","flightCategory":"MVFR","rawOb":"METAR SBPL 071500Z 10010KT 9999 BKN025 30/17 Q1016","temp":30,"dewp":17,"wdir":100,"wspd":10,"visib":"6+","altim":1016,"clouds":[{"cover":"BKN","base":2500}],"obsTime":1780844400},"SBPP":{"icaoId":"SBPP","flightCategory":"VFR","rawOb":"METAR SBPP 071500Z 06007KT CAVOK 23/14 Q1018","temp":23,"dewp":14,"wdir":60,"wspd":7,"visib":"6+","altim":1018,"clouds":[],"obsTime":1780844400},"SBAR":{"icaoId":"SBAR","flightCategory":"VFR","rawOb":"METAR SBAR 071500Z 14008KT 9999 SCT030 28/20 Q1016","temp":28,"dewp":20,"wdir":140,"wspd":8,"visib":"6+","altim":1016,"clouds":[{"cover":"SCT","base":3000}],"obsTime":1780844400},"SBDN":{"icaoId":"SBDN","flightCategory":"VFR","rawOb":"METAR SBDN 071500Z 02005KT CAVOK 24/11 Q1019","temp":24,"dewp":11,"wdir":20,"wspd":5,"visib":"6+","altim":1019,"clouds":[],"obsTime":1780844400},"SBPS":{"icaoId":"SBPS","flightCategory":"VFR","rawOb":"METAR SBPS 071500Z 09006KT 9999 FEW025 SCT070 25/20 Q1018","temp":25,"dewp":20,"wdir":90,"wspd":6,"visib":"6+","altim":1018,"clouds":[{"cover":"FEW","base":2500},{"cover":"SCT","base":7000}],"obsTime":1780844400},"SBBU":{"icaoId":"SBBU","flightCategory":"VFR","rawOb":"METAR SBBU 071500Z 03003KT CAVOK 23/13 Q1019","temp":23,"dewp":13,"wdir":30,"wspd":3,"visib":"6+","altim":1019,"clouds":[],"obsTime":1780844400},"SBSC":{"icaoId":"SBSC","flightCategory":"VFR","rawOb":"METAR SBSC 071500Z 32003KT CAVOK 25/14 Q1017","temp":25,"dewp":14,"wdir":320,"wspd":3,"visib":"6+","altim":1017,"clouds":[],"obsTime":1780844400},"SBES":{"icaoId":"SBES","flightCategory":"VFR","rawOb":"METAR SBES 071500Z 22006KT 170V290 9999 FEW020 23/// Q1017","temp":null,"dewp":null,"wdir":220,"wspd":6,"visib":"6+","altim":1017,"clouds":[{"cover":"FEW","base":2000}],"obsTime":1780844400},"SBSJ":{"icaoId":"SBSJ","flightCategory":"VFR","rawOb":"METAR SBSJ 071500Z 24003KT CAVOK 20/10 Q1020","temp":20,"dewp":10,"wdir":240,"wspd":3,"visib":"6+","altim":1020,"clouds":[],"obsTime":1780844400},"SBSM":{"icaoId":"SBSM","flightCategory":"LIFR","rawOb":"METAR SBSM 071500Z 12009KT 080V140 1000 R29///// R11/P2000 -DZ BR OVC002 16/16 Q1018","temp":16,"dewp":16,"wdir":120,"wspd":9,"visib":0.62,"altim":1018,"clouds":[{"cover":"OVC","base":200}],"obsTime":1780844400},"SBBH":{"icaoId":"SBBH","flightCategory":"VFR","rawOb":"METAR SBBH 071500Z 10004KT 9999 FEW030 21/08 Q1020","temp":21,"dewp":8,"wdir":100,"wspd":4,"visib":"6+","altim":1020,"clouds":[{"cover":"FEW","base":3000}],"obsTime":1780844400},"SBGM":{"icaoId":"SBGM","flightCategory":"VFR","rawOb":"METAR SBGM 071500Z 28004KT CAVOK 29/19 Q1014","temp":29,"dewp":19,"wdir":280,"wspd":4,"visib":"6+","altim":1014,"clouds":[],"obsTime":1780844400},"SBSR":{"icaoId":"SBSR","flightCategory":"VFR","rawOb":"METAR SBSR 071500Z 10005KT CAVOK 24/08 Q1019","temp":24,"dewp":8,"wdir":100,"wspd":5,"visib":"6+","altim":1019,"clouds":[],"obsTime":1780844400},"SBCC":{"icaoId":"SBCC","flightCategory":"VFR","rawOb":"METAR SBCC 071500Z 06008KT 9999 SCT020 30/17 Q1016","temp":30,"dewp":17,"wdir":60,"wspd":8,"visib":"6+","altim":1016,"clouds":[{"cover":"SCT","base":2000}],"obsTime":1780844400},"SBTF":{"icaoId":"SBTF","flightCategory":"VFR","rawOb":"METAR SBTF 071500Z 33004KT 9999 SCT012 BKN090 28/24 Q1014","temp":28,"dewp":24,"wdir":330,"wspd":4,"visib":"6+","altim":1014,"clouds":[{"cover":"SCT","base":1200},{"cover":"BKN","base":9000}],"obsTime":1780844400},"SBIP":{"icaoId":"SBIP","flightCategory":"VFR","rawOb":"METAR SBIP 071500Z AUTO 03004KT 350V110 CAVOK 24/14 Q1019","temp":24,"dewp":14,"wdir":30,"wspd":4,"visib":"6+","altim":1019,"clouds":[],"obsTime":1780844400},"SBTT":{"icaoId":"SBTT","flightCategory":"MVFR","rawOb":"METAR SBTT 071500Z 10002KT 9999 FEW008 OVC015 26/24 Q1015","temp":26,"dewp":24,"wdir":100,"wspd":2,"visib":"6+","altim":1015,"clouds":[{"cover":"FEW","base":800},{"cover":"OVC","base":1500}],"obsTime":1780844400},"SBCJ":{"icaoId":"SBCJ","flightCategory":"VFR","rawOb":"METAR SBCJ 071500Z 00000KT 9999 FEW015 27/20 Q1018","temp":27,"dewp":20,"wdir":0,"wspd":0,"visib":"6+","altim":1018,"clouds":[{"cover":"FEW","base":1500}],"obsTime":1780844400},"SBTU":{"icaoId":"SBTU","flightCategory":"VFR","rawOb":"METAR SBTU 071500Z AUTO 22006KT 110V250 9999 // SCT027/// ///// Q1014","temp":null,"dewp":null,"wdir":220,"wspd":6,"visib":"6+","altim":1014,"clouds":[{"cover":"SCT","base":2700}],"obsTime":1780844400},"SBKG":{"icaoId":"SBKG","flightCategory":"MVFR","rawOb":"METAR SBKG 071500Z 14010KT 100V180 9999 BKN020 BKN070 25/20 Q1017","temp":25,"dewp":20,"wdir":140,"wspd":10,"visib":"6+","altim":1017,"clouds":[{"cover":"BKN","base":2000},{"cover":"BKN","base":7000}],"obsTime":1780844400},"SBUY":{"icaoId":"SBUY","flightCategory":"VFR","rawOb":"METAR SBUY 071500Z 33003KT 9999 FEW020 BKN100 28/23 Q1013","temp":28,"dewp":23,"wdir":330,"wspd":3,"visib":"6+","altim":1013,"clouds":[{"cover":"FEW","base":2000},{"cover":"BKN","base":10000}],"obsTime":1780844400},"SBOI":{"icaoId":"SBOI","flightCategory":"MVFR","rawOb":"METAR SBOI 071500Z AUTO VRB03KT 9999 BKN016 OVC043 28/24 Q1013","temp":28,"dewp":24,"wdir":"VRB","wspd":3,"visib":"6+","altim":1013,"clouds":[{"cover":"BKN","base":1600},{"cover":"OVC","base":4300}],"obsTime":1780844400},"SBVH":{"icaoId":"SBVH","flightCategory":"VFR","rawOb":"METAR SBVH 071500Z 08009KT CAVOK 27/14 Q1017","temp":27,"dewp":14,"wdir":80,"wspd":9,"visib":"6+","altim":1017,"clouds":[],"obsTime":1780844400},"SBJP":{"icaoId":"SBJP","flightCategory":"IFR","rawOb":"METAR SBJP 071500Z 16011KT 5000 -RA BR BKN008 OVC070 25/24 Q1015","temp":25,"dewp":24,"wdir":160,"wspd":11,"visib":3.11,"altim":1015,"clouds":[{"cover":"BKN","base":800},{"cover":"OVC","base":7000}],"obsTime":1780844400},"SBPF":{"icaoId":"SBPF","flightCategory":"MVFR","rawOb":"METAR SBPF 071500Z AUTO 27004KT 220V360 9999 BKN022 18/13 Q1019","temp":18,"dewp":13,"wdir":270,"wspd":4,"visib":"6+","altim":1019,"clouds":[{"cover":"BKN","base":2200}],"obsTime":1780844400},"SBAN":{"icaoId":"SBAN","flightCategory":"VFR","rawOb":"METAR SBAN 071500Z 36004KT CAVOK 23/09 Q1021","temp":23,"dewp":9,"wdir":360,"wspd":4,"visib":"6+","altim":1021,"clouds":[],"obsTime":1780844400},"SBLE":{"icaoId":"SBLE","flightCategory":"MVFR","rawOb":"METAR SBLE 071500Z AUTO VRB03KT 9999 SCT024 OVC029 22/17 Q1019","temp":22,"dewp":17,"wdir":"VRB","wspd":3,"visib":"6+","altim":1019,"clouds":[{"cover":"SCT","base":2400},{"cover":"OVC","base":2900}],"obsTime":1780844400},"SBTC":{"icaoId":"SBTC","flightCategory":"VFR","rawOb":"METAR SBTC 071500Z 07005KT 9999 SCT025 BKN070 24/19 Q1018","temp":24,"dewp":19,"wdir":70,"wspd":5,"visib":"6+","altim":1018,"clouds":[{"cover":"SCT","base":2500},{"cover":"BKN","base":7000}],"obsTime":1780844400},"SBIH":{"icaoId":"SBIH","flightCategory":"VFR","rawOb":"METAR SBIH 071500Z 34003KT 9999 VCTS FEW012 FEW025CB BKN100 25/24 Q1013","temp":25,"dewp":24,"wdir":340,"wspd":3,"visib":"6+","altim":1013,"clouds":[{"cover":"FEW","base":1200},{"cover":"FEW","base":2500},{"cover":"BKN","base":10000}],"obsTime":1780844400},"SBJV":{"icaoId":"SBJV","flightCategory":"VFR","rawOb":"METAR SBJV 071500Z 11005KT 9999 FEW025 21/17 Q1017","temp":21,"dewp":17,"wdir":110,"wspd":5,"visib":"6+","altim":1017,"clouds":[{"cover":"FEW","base":2500}],"obsTime":1780844400},"SBNM":{"icaoId":"SBNM","flightCategory":"VFR","rawOb":"METAR SBNM 071500Z 09004KT 9999 SCT035 22/18 Q1018","temp":22,"dewp":18,"wdir":90,"wspd":4,"visib":"6+","altim":1018,"clouds":[{"cover":"SCT","base":3500}],"obsTime":1780844400},"SBAF":{"icaoId":"SBAF","flightCategory":"VFR","rawOb":"METAR SBAF 071500Z 35004KT CAVOK 26/15 Q1017","temp":26,"dewp":15,"wdir":350,"wspd":4,"visib":"6+","altim":1017,"clouds":[],"obsTime":1780844400},"SBGW":{"icaoId":"SBGW","flightCategory":"VFR","rawOb":"METAR SBGW 071500Z 21004KT CAVOK 22/08 Q1019","temp":22,"dewp":8,"wdir":210,"wspd":4,"visib":"6+","altim":1019,"clouds":[],"obsTime":1780844400},"SBJR":{"icaoId":"SBJR","flightCategory":"VFR","rawOb":"METAR SBJR 071500Z 33001KT CAVOK 29/16 Q1017","temp":29,"dewp":16,"wdir":330,"wspd":1,"visib":"6+","altim":1017,"clouds":[],"obsTime":1780844400},"SBLS":{"icaoId":"SBLS","flightCategory":"VFR","rawOb":"METAR SBLS 071500Z VRB03KT 9999 FEW040 21/09 Q1020","temp":21,"dewp":9,"wdir":"VRB","wspd":3,"visib":"6+","altim":1020,"clouds":[{"cover":"FEW","base":4000}],"obsTime":1780844400},"SBMT":{"icaoId":"SBMT","flightCategory":"VFR","rawOb":"METAR SBMT 071500Z 36003KT CAVOK 21/05 Q1020","temp":21,"dewp":5,"wdir":360,"wspd":3,"visib":"6+","altim":1020,"clouds":[],"obsTime":1780844400},"SBST":{"icaoId":"SBST","flightCategory":"VFR","rawOb":"METAR SBST 071500Z 23003KT CAVOK 25/13 Q1017","temp":25,"dewp":13,"wdir":230,"wspd":3,"visib":"6+","altim":1017,"clouds":[],"obsTime":1780844400},"SBTA":{"icaoId":"SBTA","flightCategory":"VFR","rawOb":"METAR SBTA 071500Z VRB02KT 9999 FEW020 22/12 Q1019","temp":22,"dewp":12,"wdir":"VRB","wspd":2,"visib":"6+","altim":1019,"clouds":[{"cover":"FEW","base":2000}],"obsTime":1780844400}}}