{"updated":1773872441,"count":82,"data":{"SBFI":{"icaoId":"SBFI","flightCategory":"VFR","rawOb":"METAR SBFI 182100Z 35002KT 9999 FEW035 30/23 Q1008","temp":30,"dewp":23,"wdir":350,"wspd":2,"visib":"6+","altim":1008,"clouds":[{"cover":"FEW","base":3500}],"obsTime":1773867600},"SBBE":{"icaoId":"SBBE","flightCategory":"MVFR","rawOb":"METAR SBBE 182100Z 08005KT 8000 -RA FEW006 BKN040 BKN100 25/25 Q1008 RERA","temp":25,"dewp":25,"wdir":80,"wspd":5,"visib":4.97,"altim":1008,"clouds":[{"cover":"FEW","base":600},{"cover":"BKN","base":4000},{"cover":"BKN","base":10000}],"obsTime":1773867600},"SBBR":{"icaoId":"SBBR","flightCategory":"VFR","rawOb":"METAR SBBR 182100Z 01004KT 330V050 9999 SCT045 FEW050TCU 27/18 Q1013","temp":27,"dewp":18,"wdir":10,"wspd":4,"visib":"6+","altim":1013,"clouds":[{"cover":"SCT","base":4500},{"cover":"FEW","base":5000}],"obsTime":1773867600},"SBBV":{"icaoId":"SBBV","flightCategory":"VFR","rawOb":"METAR SBBV 182100Z 08010KT 9999 FEW040 FEW045TCU SCT090 34/18 Q1007","temp":34,"dewp":18,"wdir":80,"wspd":10,"visib":"6+","altim":1007,"clouds":[{"cover":"FEW","base":4000},{"cover":"FEW","base":4500},{"cover":"SCT","base":9000}],"obsTime":1773867600},"SBCF":{"icaoId":"SBCF","flightCategory":"VFR","rawOb":"METAR SBCF 182100Z VRB05KT 9999 FEW040 FEW045TCU BKN080 24/20 Q1013","temp":24,"dewp":20,"wdir":"VRB","wspd":5,"visib":"6+","altim":1013,"clouds":[{"cover":"FEW","base":4000},{"cover":"FEW","base":4500},{"cover":"BKN","base":8000}],"obsTime":1773867600},"SBCG":{"icaoId":"SBCG","flightCategory":"VFR","rawOb":"METAR SBCG 182100Z 01004KT 330V030 9999 VCSH VCTS FEW035 FEW040CB BKN100 23/21 Q1010","temp":23,"dewp":21,"wdir":10,"wspd":4,"visib":"6+","altim":1010,"clouds":[{"cover":"FEW","base":3500},{"cover":"FEW","base":4000},{"cover":"BKN","base":10000}],"obsTime":1773867600},"SBCP":{"icaoId":"SBCP","flightCategory":"VFR","rawOb":"METAR SBCP 182100Z 11008KT 9999 SCT020 26/23 Q1008","temp":26,"dewp":23,"wdir":110,"wspd":8,"visib":"6+","altim":1008,"clouds":[{"cover":"SCT","base":2000}],"obsTime":1773867600},"SBCT":{"icaoId":"SBCT","flightCategory":"VFR","rawOb":"METAR SBCT 182100Z 08004KT 9999 VCSH SCT025 BKN090 20/19 Q1013 RETS","temp":20,"dewp":19,"wdir":80,"wspd":4,"visib":"6+","altim":1013,"clouds":[{"cover":"SCT","base":2500},{"cover":"BKN","base":9000}],"obsTime":1773867600},"SBCZ":{"icaoId":"SBCZ","flightCategory":"VFR","rawOb":"METAR SBCZ 182100Z 35003KT 9999 SCT020 BKN100 29/24 Q1008","temp":29,"dewp":24,"wdir":350,"wspd":3,"visib":"6+","altim":1008,"clouds":[{"cover":"SCT","base":2000},{"cover":"BKN","base":10000}],"obsTime":1773867600},"SBEG":{"icaoId":"SBEG","flightCategory":"VFR","rawOb":"METAR SBEG 182100Z 06008KT 9999 VCSH VCTS SCT018 FEW030CB BKN100 26/24 Q1008","temp":26,"dewp":24,"wdir":60,"wspd":8,"visib":"6+","altim":1008,"clouds":[{"cover":"SCT","base":1800},{"cover":"FEW","base":3000},{"cover":"BKN","base":10000}],"obsTime":1773867600},"SBFL":{"icaoId":"SBFL","flightCategory":"VFR","rawOb":"METAR SBFL 182100Z 36009KT CAVOK 27/22 Q1008","temp":27,"dewp":22,"wdir":360,"wspd":9,"visib":"6+","altim":1008,"clouds":[],"obsTime":1773867600},"SBFZ":{"icaoId":"SBFZ","flightCategory":"VFR","rawOb":"METAR SBFZ 182100Z 11005KT 9999 SCT025 BKN090 27/24 Q1008","temp":27,"dewp":24,"wdir":110,"wspd":5,"visib":"6+","altim":1008,"clouds":[{"cover":"SCT","base":2500},{"cover":"BKN","base":9000}],"obsTime":1773867600},"SBGL":{"icaoId":"SBGL","flightCategory":"VFR","rawOb":"METAR SBGL 182100Z 14015KT 9999 SCT030 BKN040 26/21 Q1008","temp":26,"dewp":21,"wdir":140,"wspd":15,"visib":"6+","altim":1008,"clouds":[{"cover":"SCT","base":3000},{"cover":"BKN","base":4000}],"obsTime":1773867600},"SBGO":{"icaoId":"SBGO","flightCategory":"VFR","rawOb":"METAR SBGO 182100Z 25007KT 9999 VCSH FEW042 FEW048TCU 25/22 Q1012","temp":25,"dewp":22,"wdir":250,"wspd":7,"visib":"6+","altim":1012,"clouds":[{"cover":"FEW","base":4200},{"cover":"FEW","base":4800}],"obsTime":1773867600},"SBGR":{"icaoId":"SBGR","flightCategory":"IFR","rawOb":"METAR SBGR 182100Z 16006KT 4000 BR NSC 24/22 Q1012","temp":24,"dewp":22,"wdir":160,"wspd":6,"visib":2.49,"altim":1012,"clouds":[],"obsTime":1773867600},"SBIL":{"icaoId":"SBIL","flightCategory":"VFR","rawOb":"METAR SBIL 182100Z 08008KT CAVOK 29/24 Q1009","temp":29,"dewp":24,"wdir":80,"wspd":8,"visib":"6+","altim":1009,"clouds":[],"obsTime":1773867600},"SBJU":{"icaoId":"SBJU","flightCategory":"MVFR","rawOb":"METAR SBJU 182100Z 17008KT 9999 TS BKN020 FEW021CB 27/22 Q1010","temp":27,"dewp":22,"wdir":170,"wspd":8,"visib":"6+","altim":1010,"clouds":[{"cover":"BKN","base":2000},{"cover":"FEW","base":2100}],"obsTime":1773867600},"SBKP":{"icaoId":"SBKP","flightCategory":"VFR","rawOb":"METAR SBKP 182100Z 26004KT 240V030 9999 FEW040 FEW045TCU 29/22 Q1011","temp":29,"dewp":22,"wdir":260,"wspd":4,"visib":"6+","altim":1011,"clouds":[{"cover":"FEW","base":4000},{"cover":"FEW","base":4500}],"obsTime":1773867600},"SBLO":{"icaoId":"SBLO","flightCategory":"VFR","rawOb":"METAR SBLO 182100Z VRB01KT 9999 SCT030 FEW050TCU SCT100 29/21 Q1009","temp":29,"dewp":21,"wdir":"VRB","wspd":1,"visib":"6+","altim":1009,"clouds":[{"cover":"SCT","base":3000},{"cover":"FEW","base":5000},{"cover":"SCT","base":10000}],"obsTime":1773867600},"SBMA":{"icaoId":"SBMA","flightCategory":"VFR","rawOb":"METAR SBMA 182100Z 00000KT 9999 FEW020 FEW023TCU 28/25 Q1006","temp":28,"dewp":25,"wdir":0,"wspd":0,"visib":"6+","altim":1006,"clouds":[{"cover":"FEW","base":2000},{"cover":"FEW","base":2300}],"obsTime":1773867600},"SBME":{"icaoId":"SBME","flightCategory":"VFR","rawOb":"METAR SBME 182100Z 12006KT 9999 SCT030 BKN100 27/23 Q1009","temp":27,"dewp":23,"wdir":120,"wspd":6,"visib":"6+","altim":1009,"clouds":[{"cover":"SCT","base":3000},{"cover":"BKN","base":10000}],"obsTime":1773867600},"SBMG":{"icaoId":"SBMG","flightCategory":"VFR","rawOb":"METAR SBMG 182100Z 23008KT 9999 FEW030TCU 29/21 Q1009","temp":29,"dewp":21,"wdir":230,"wspd":8,"visib":"6+","altim":1009,"clouds":[{"cover":"FEW","base":3000}],"obsTime":1773867600},"SBMK":{"icaoId":"SBMK","flightCategory":"VFR","rawOb":"METAR SBMK 182100Z 22005KT 9999 SCT040 27/20 Q1011","temp":27,"dewp":20,"wdir":220,"wspd":5,"visib":"6+","altim":1011,"clouds":[{"cover":"SCT","base":4000}],"obsTime":1773867600},"SBMO":{"icaoId":"SBMO","flightCategory":"VFR","rawOb":"METAR SBMO 182100Z 09009KT CAVOK 27/23 Q1010","temp":27,"dewp":23,"wdir":90,"wspd":9,"visib":"6+","altim":1010,"clouds":[],"obsTime":1773867600},"SBMQ":{"icaoId":"SBMQ","flightCategory":"VFR","rawOb":"METAR SBMQ 182100Z 04006KT 9999 SCT017 FEW028TCU BKN100 28/24 Q1008","temp":28,"dewp":24,"wdir":40,"wspd":6,"visib":"6+","altim":1008,"clouds":[{"cover":"SCT","base":1700},{"cover":"FEW","base":2800},{"cover":"BKN","base":10000}],"obsTime":1773867600},"SBNT":{"icaoId":"SBNT","flightCategory":"VFR","rawOb":"METAR SBNT 182100Z 13012KT 9999 FEW025 28/23 Q1008","temp":28,"dewp":23,"wdir":130,"wspd":12,"visib":"6+","altim":1008,"clouds":[{"cover":"FEW","base":2500}],"obsTime":1773867600},"SBPA":{"icaoId":"SBPA","flightCategory":"IFR","rawOb":"METAR SBPA 182100Z 15004KT 100V190 4500 -TSRA SCT010 BKN030 FEW040CB BKN090 25/23 Q1008","temp":25,"dewp":23,"wdir":150,"wspd":4,"visib":2.8,"altim":1008,"clouds":[{"cover":"SCT","base":1000},{"cover":"BKN","base":3000},{"cover":"FEW","base":4000},{"cover":"BKN","base":9000}],"obsTime":1773867600},"SBPJ":{"icaoId":"SBPJ","flightCategory":"VFR","rawOb":"METAR SBPJ 182100Z 09003KT 9999 SCT025 FEW030TCU 28/25 Q1007","temp":28,"dewp":25,"wdir":90,"wspd":3,"visib":"6+","altim":1007,"clouds":[{"cover":"SCT","base":2500},{"cover":"FEW","base":3000}],"obsTime":1773867600},"SBPV":{"icaoId":"SBPV","flightCategory":"VFR","rawOb":"METAR SBPV 182100Z 23002KT CAVOK 29/22 Q1007","temp":29,"dewp":22,"wdir":230,"wspd":2,"visib":"6+","altim":1007,"clouds":[],"obsTime":1773867600},"SBRB":{"icaoId":"SBRB","flightCategory":"VFR","rawOb":"METAR SBRB 182100Z 01005KT 9999 FEW005 BKN100 27/23 Q1009","temp":27,"dewp":23,"wdir":10,"wspd":5,"visib":"6+","altim":1009,"clouds":[{"cover":"FEW","base":500},{"cover":"BKN","base":10000}],"obsTime":1773867600},"SBRF":{"icaoId":"SBRF","flightCategory":"VFR","rawOb":"METAR SBRF 182100Z 10009KT 9999 FEW025 29/23 Q1009","temp":29,"dewp":23,"wdir":100,"wspd":9,"visib":"6+","altim":1009,"clouds":[{"cover":"FEW","base":2500}],"obsTime":1773867600},"SBSG":{"icaoId":"SBSG","flightCategory":"VFR","rawOb":"METAR SBSG 182100Z 13006KT 090V170 9999 SCT025 FEW030TCU 27/24 Q1009","temp":27,"dewp":24,"wdir":130,"wspd":6,"visib":"6+","altim":1009,"clouds":[{"cover":"SCT","base":2500},{"cover":"FEW","base":3000}],"obsTime":1773867600},"SBSL":{"icaoId":"SBSL","flightCategory":"VFR","rawOb":"METAR SBSL 182100Z VRB01KT 9999 SCT020 FEW025TCU OVC080 25/24 Q1008 RETS","temp":25,"dewp":24,"wdir":"VRB","wspd":1,"visib":"6+","altim":1008,"clouds":[{"cover":"SCT","base":2000},{"cover":"FEW","base":2500},{"cover":"OVC","base":8000}],"obsTime":1773867600},"SBSN":{"icaoId":"SBSN","flightCategory":"VFR","rawOb":"METAR SBSN 182100Z 06003KT CAVOK 29/24 Q1006","temp":29,"dewp":24,"wdir":60,"wspd":3,"visib":"6+","altim":1006,"clouds":[],"obsTime":1773867600},"SBSP":{"icaoId":"SBSP","flightCategory":"IFR","rawOb":"METAR SBSP 182100Z 20007KT 170V240 4000 BR BKN006 BKN010 22/21 Q1013 RETS","temp":22,"dewp":21,"wdir":200,"wspd":7,"visib":2.49,"altim":1013,"clouds":[{"cover":"BKN","base":600},{"cover":"BKN","base":1000}],"obsTime":1773867600},"SBSV":{"icaoId":"SBSV","flightCategory":"VFR","rawOb":"METAR SBSV 182100Z 10008KT 9999 FEW023 28/22 Q1009","temp":28,"dewp":22,"wdir":100,"wspd":8,"visib":"6+","altim":1009,"clouds":[{"cover":"FEW","base":2300}],"obsTime":1773867600},"SBTE":{"icaoId":"SBTE","flightCategory":"MVFR","rawOb":"METAR SBTE 182100Z 03002KT 9999 -RA BKN020 OVC070 25/23 Q1007","temp":25,"dewp":23,"wdir":30,"wspd":2,"visib":"6+","altim":1007,"clouds":[{"cover":"BKN","base":2000},{"cover":"OVC","base":7000}],"obsTime":1773867600},"SBUL":{"icaoId":"SBUL","flightCategory":"MVFR","rawOb":"METAR SBUL 182100Z 31008KT 8000 VCSH BKN030 FEW035TCU BKN070 24/20 Q1013","temp":24,"dewp":20,"wdir":310,"wspd":8,"visib":4.97,"altim":1013,"clouds":[{"cover":"BKN","base":3000},{"cover":"FEW","base":3500},{"cover":"BKN","base":7000}],"obsTime":1773867600},"SBUR":{"icaoId":"SBUR","flightCategory":"MVFR","rawOb":"METAR SBUR 182100Z 28010KT 8000 1500S -RA SCT035 SCT040 21/21 Q1012 RETS","temp":21,"dewp":21,"wdir":280,"wspd":10,"visib":4.97,"altim":1012,"clouds":[{"cover":"SCT","base":3500},{"cover":"SCT","base":4000}],"obsTime":1773867600},"SBVT":{"icaoId":"SBVT","flightCategory":"VFR","rawOb":"METAR SBVT 182100Z 07008KT 9999 SCT048 BKN100 27/24 Q1008","temp":27,"dewp":24,"wdir":70,"wspd":8,"visib":"6+","altim":1008,"clouds":[{"cover":"SCT","base":4800},{"cover":"BKN","base":10000}],"obsTime":1773867600},"SBCB":{"icaoId":"SBCB","flightCategory":"VFR","rawOb":"METAR SBCB 182100Z 11007KT 9999 SCT020 BKN050 26/22 Q1009","temp":26,"dewp":22,"wdir":110,"wspd":7,"visib":"6+","altim":1009,"clouds":[{"cover":"SCT","base":2000},{"cover":"BKN","base":5000}],"obsTime":1773867600},"SBCR":{"icaoId":"SBCR","flightCategory":"VFR","rawOb":"METAR SBCR 182100Z 23005KT 200V260 9999 FEW020 SCT080 26/24 Q1007","temp":26,"dewp":24,"wdir":230,"wspd":5,"visib":"6+","altim":1007,"clouds":[{"cover":"FEW","base":2000},{"cover":"SCT","base":8000}],"obsTime":1773867600},"SBHT":{"icaoId":"SBHT","flightCategory":"VFR","rawOb":"METAR SBHT 182100Z 00000KT 9999 FEW023 29/26 Q1007","temp":29,"dewp":26,"wdir":0,"wspd":0,"visib":"6+","altim":1007,"clouds":[{"cover":"FEW","base":2300}],"obsTime":1773867600},"SBOI":{"icaoId":"SBOI","flightCategory":"VFR","rawOb":"METAR SBOI 182100Z AUTO 34003KT 320V030 9999 FEW030 SCT039 OVC046 25/24 Q1010 RERA","temp":25,"dewp":24,"wdir":340,"wspd":3,"visib":"6+","altim":1010,"clouds":[{"cover":"FEW","base":3000},{"cover":"SCT","base":3900},{"cover":"OVC","base":4600}],"obsTime":1773867600},"SBAX":{"icaoId":"SBAX","flightCategory":"VFR","rawOb":"METAR SBAX 182100Z 34006KT 9999 SCT040 SCT090 25/19 Q1013","temp":25,"dewp":19,"wdir":340,"wspd":6,"visib":"6+","altim":1013,"clouds":[{"cover":"SCT","base":4000},{"cover":"SCT","base":9000}],"obsTime":1773867600},"SBVH":{"icaoId":"SBVH","flightCategory":"VFR","rawOb":"METAR SBVH 182100Z 30003KT 9999 FEW020 BKN035 FEW040TCU 24/22 Q1010","temp":24,"dewp":22,"wdir":300,"wspd":3,"visib":"6+","altim":1010,"clouds":[{"cover":"FEW","base":2000},{"cover":"BKN","base":3500},{"cover":"FEW","base":4000}],"obsTime":1773867600},"SBBH":{"icaoId":"SBBH","flightCategory":"VFR","rawOb":"METAR SBBH 182100Z 08007KT 9999 SCT040 26/20 Q1013","temp":26,"dewp":20,"wdir":80,"wspd":7,"visib":"6+","altim":1013,"clouds":[{"cover":"SCT","base":4000}],"obsTime":1773867600},"SBBU":{"icaoId":"SBBU","flightCategory":"MVFR","rawOb":"METAR SBBU 182100Z 34006KT 9999 VCSH BKN030 OVC100 25/23 Q1011","temp":25,"dewp":23,"wdir":340,"wspd":6,"visib":"6+","altim":1011,"clouds":[{"cover":"BKN","base":3000},{"cover":"OVC","base":10000}],"obsTime":1773867600},"SBCA":{"icaoId":"SBCA","flightCategory":"VFR","rawOb":"METAR SBCA 182100Z 30009KT 260V320 9999 FEW030 FEW040TCU SCT080 26/20 Q1012","temp":26,"dewp":20,"wdir":300,"wspd":9,"visib":"6+","altim":1012,"clouds":[{"cover":"FEW","base":3000},{"cover":"FEW","base":4000},{"cover":"SCT","base":8000}],"obsTime":1773867600},"SBCO":{"icaoId":"SBCO","flightCategory":"VFR","rawOb":"METAR SBCO 182100Z VRB02KT 9999 TS VCSH FEW010 FEW030CB BKN050 BKN090 25/22 Q1009 RERA","temp":25,"dewp":22,"wdir":"VRB","wspd":2,"visib":"6+","altim":1009,"clouds":[{"cover":"FEW","base":1000},{"cover":"FEW","base":3000},{"cover":"BKN","base":5000},{"cover":"BKN","base":9000}],"obsTime":1773867600},"SBDN":{"icaoId":"SBDN","flightCategory":"VFR","rawOb":"METAR SBDN 182100Z 00000KT 9999 BKN035 FEW050TCU 28/23 Q1009","temp":28,"dewp":23,"wdir":0,"wspd":0,"visib":"6+","altim":1009,"clouds":[{"cover":"BKN","base":3500},{"cover":"FEW","base":5000}],"obsTime":1773867600},"SBES":{"icaoId":"SBES","flightCategory":"VFR","rawOb":"METAR SBES 182100Z 12007KT 9999 FEW015 BKN040 25/// Q1009","temp":null,"dewp":null,"wdir":120,"wspd":7,"visib":"6+","altim":1009,"clouds":[{"cover":"FEW","base":1500},{"cover":"BKN","base":4000}],"obsTime":1773867600},"SBIP":{"icaoId":"SBIP","flightCategory":"VFR","rawOb":"METAR SBIP 182100Z AUTO 27006KT CAVOK 27/22 Q1009","temp":27,"dewp":22,"wdir":270,"wspd":6,"visib":"6+","altim":1009,"clouds":[],"obsTime":1773867600},"SBKG":{"icaoId":"SBKG","flightCategory":"VFR","rawOb":"METAR SBKG 182100Z 08014KT 9999 FEW025 26/20 Q1011","temp":26,"dewp":20,"wdir":80,"wspd":14,"visib":"6+","altim":1011,"clouds":[{"cover":"FEW","base":2500}],"obsTime":1773867600},"SBPL":{"icaoId":"SBPL","flightCategory":"VFR","rawOb":"METAR SBPL 182100Z 12006KT 9999 FEW030 SCT070 30/20 Q1009","temp":30,"dewp":20,"wdir":120,"wspd":6,"visib":"6+","altim":1009,"clouds":[{"cover":"FEW","base":3000},{"cover":"SCT","base":7000}],"obsTime":1773867600},"SBPS":{"icaoId":"SBPS","flightCategory":"VFR","rawOb":"METAR SBPS 182100Z 07009KT 9999 FEW020 SCT090 27/24 Q1009","temp":27,"dewp":24,"wdir":70,"wspd":9,"visib":"6+","altim":1009,"clouds":[{"cover":"FEW","base":2000},{"cover":"SCT","base":9000}],"obsTime":1773867600},"SBSC":{"icaoId":"SBSC","flightCategory":"VFR","rawOb":"METAR SBSC 182100Z 16008KT 9999 FEW040 27/22 Q1009","temp":27,"dewp":22,"wdir":160,"wspd":8,"visib":"6+","altim":1009,"clouds":[{"cover":"FEW","base":4000}],"obsTime":1773867600},"SBSJ":{"icaoId":"SBSJ","flightCategory":"VFR","rawOb":"METAR SBSJ 182100Z 19008KT 9999 FEW035 FEW040TCU 26/// Q1010","temp":null,"dewp":null,"wdir":190,"wspd":8,"visib":"6+","altim":1010,"clouds":[{"cover":"FEW","base":3500},{"cover":"FEW","base":4000}],"obsTime":1773867600},"SBSM":{"icaoId":"SBSM","flightCategory":"VFR","rawOb":"METAR SBSM 182100Z 26004KT 9999 SCT030 28/22 Q1009","temp":28,"dewp":22,"wdir":260,"wspd":4,"visib":"6+","altim":1009,"clouds":[{"cover":"SCT","base":3000}],"obsTime":1773867600},"SBSR":{"icaoId":"SBSR","flightCategory":"VFR","rawOb":"METAR SBSR 182100Z 21003KT 9999 -RA SCT025 FEW035TCU SCT070 27/21 Q1010","temp":27,"dewp":21,"wdir":210,"wspd":3,"visib":"6+","altim":1010,"clouds":[{"cover":"SCT","base":2500},{"cover":"FEW","base":3500},{"cover":"SCT","base":7000}],"obsTime":1773867600},"SBTF":{"icaoId":"SBTF","flightCategory":"VFR","rawOb":"METAR SBTF 182100Z 25003KT 9999 SCT030 BKN100 26/26 Q1007","temp":26,"dewp":26,"wdir":250,"wspd":3,"visib":"6+","altim":1007,"clouds":[{"cover":"SCT","base":3000},{"cover":"BKN","base":10000}],"obsTime":1773867600},"SBTT":{"icaoId":"SBTT","flightCategory":"MVFR","rawOb":"METAR SBTT 182100Z 23003KT 7000 -RA FEW008 SCT060 BKN080 24/21 Q1009","temp":24,"dewp":21,"wdir":230,"wspd":3,"visib":4.35,"altim":1009,"clouds":[{"cover":"FEW","base":800},{"cover":"SCT","base":6000},{"cover":"BKN","base":8000}],"obsTime":1773867600},"SBUY":{"icaoId":"SBUY","flightCategory":"VFR","rawOb":"METAR SBUY 182100Z 16001KT 9999 FEW030TCU BKN080 25/25 Q1006","temp":25,"dewp":25,"wdir":160,"wspd":1,"visib":"6+","altim":1006,"clouds":[{"cover":"FEW","base":3000},{"cover":"BKN","base":8000}],"obsTime":1773867600},"SBAR":{"icaoId":"SBAR","flightCategory":"VFR","rawOb":"METAR SBAR 182100Z 09008KT CAVOK 28/23 Q1009","temp":28,"dewp":23,"wdir":90,"wspd":8,"visib":"6+","altim":1009,"clouds":[],"obsTime":1773867600},"SBPB":{"icaoId":"SBPB","flightCategory":"MVFR","rawOb":"METAR SBPB 182100Z 12008KT 5000 +RA BKN016 FEW025TCU OVC080 24/23 Q1008","temp":24,"dewp":23,"wdir":120,"wspd":8,"visib":3.11,"altim":1008,"clouds":[{"cover":"BKN","base":1600},{"cover":"FEW","base":2500},{"cover":"OVC","base":8000}],"obsTime":1773867600},"SBCJ":{"icaoId":"SBCJ","flightCategory":"VFR","rawOb":"METAR SBCJ 182100Z 10005KT 9999 SCT021 25/22 Q1011","temp":25,"dewp":22,"wdir":100,"wspd":5,"visib":"6+","altim":1011,"clouds":[{"cover":"SCT","base":2100}],"obsTime":1773867600},"SBPP":{"icaoId":"SBPP","flightCategory":"VFR","rawOb":"METAR SBPP 182100Z 21005KT CAVOK 24/21 Q1010","temp":24,"dewp":21,"wdir":210,"wspd":5,"visib":"6+","altim":1010,"clouds":[],"obsTime":1773867600},"SBLS":{"icaoId":"SBLS","flightCategory":"VFR","rawOb":"METAR SBLS 182100Z 09003KT 020V100 9999 VCSH SCT024 FEW033TCU BKN090 24/21 Q1013","temp":24,"dewp":21,"wdir":90,"wspd":3,"visib":"6+","altim":1013,"clouds":[{"cover":"SCT","base":2400},{"cover":"FEW","base":3300},{"cover":"BKN","base":9000}],"obsTime":1773867600},"SBJR":{"icaoId":"SBJR","flightCategory":"VFR","rawOb":"METAR SBJR 182100Z 14008KT 9999 FEW018 BKN040 27/22 Q1009","temp":27,"dewp":22,"wdir":140,"wspd":8,"visib":"6+","altim":1009,"clouds":[{"cover":"FEW","base":1800},{"cover":"BKN","base":4000}],"obsTime":1773867600},"SBMT":{"icaoId":"SBMT","flightCategory":"MVFR","rawOb":"METAR SBMT 182100Z 15007KT 120V190 5000 BR BKN040 23/21 Q1012","temp":23,"dewp":21,"wdir":150,"wspd":7,"visib":3.11,"altim":1012,"clouds":[{"cover":"BKN","base":4000}],"obsTime":1773867600},"SBAN":{"icaoId":"SBAN","flightCategory":"MVFR","rawOb":"METAR SBAN 182100Z 24001KT 5000 -RA SCT030 FEW035TCU 21/19 Q1015 RERA","temp":21,"dewp":19,"wdir":240,"wspd":1,"visib":3.11,"altim":1015,"clouds":[{"cover":"SCT","base":3000},{"cover":"FEW","base":3500}],"obsTime":1773867600},"SBGW":{"icaoId":"SBGW","flightCategory":"VFR","rawOb":"METAR SBGW 182100Z 32004KT 9999 FEW030 27/19 Q1009","temp":27,"dewp":19,"wdir":320,"wspd":4,"visib":"6+","altim":1009,"clouds":[{"cover":"FEW","base":3000}],"obsTime":1773867600},"SBNM":{"icaoId":"SBNM","flightCategory":"VFR","rawOb":"METAR SBNM 182100Z 23007KT 9999 FEW040 31/21 Q1009","temp":31,"dewp":21,"wdir":230,"wspd":7,"visib":"6+","altim":1009,"clouds":[{"cover":"FEW","base":4000}],"obsTime":1773867600},"SBPF":{"icaoId":"SBPF","flightCategory":"VFR","rawOb":"METAR SBPF 182100Z 24006KT 9999 FEW040 26/20 Q1011","temp":26,"dewp":20,"wdir":240,"wspd":6,"visib":"6+","altim":1011,"clouds":[{"cover":"FEW","base":4000}],"obsTime":1773867600},"SBJV":{"icaoId":"SBJV","flightCategory":"VFR","rawOb":"METAR SBJV 182100Z 01002KT 9999 FEW015 BKN035 27/24 Q1008","temp":27,"dewp":24,"wdir":10,"wspd":2,"visib":"6+","altim":1008,"clouds":[{"cover":"FEW","base":1500},{"cover":"BKN","base":3500}],"obsTime":1773867600},"SBLE":{"icaoId":"SBLE","flightCategory":"VFR","rawOb":"METAR SBLE 182100Z AUTO 12002KT CAVOK 28/17 Q1011","temp":28,"dewp":17,"wdir":120,"wspd":2,"visib":"6+","altim":1011,"clouds":[],"obsTime":1773867600},"SBTA":{"icaoId":"SBTA","flightCategory":"VFR","rawOb":"METAR SBTA 182100Z 16003KT 130V210 9999 -RA SCT040 FEW045TCU SCT070 27/20 Q1009","temp":27,"dewp":20,"wdir":160,"wspd":3,"visib":"6+","altim":1009,"clouds":[{"cover":"SCT","base":4000},{"cover":"FEW","base":4500},{"cover":"SCT","base":7000}],"obsTime":1773867600},"SBJP":{"icaoId":"SBJP","flightCategory":"VFR","rawOb":"METAR SBJP 182100Z 11011KT 9999 FEW023 28/23 Q1009","temp":28,"dewp":23,"wdir":110,"wspd":11,"visib":"6+","altim":1009,"clouds":[{"cover":"FEW","base":2300}],"obsTime":1773867600},"SBTC":{"icaoId":"SBTC","flightCategory":"VFR","rawOb":"METAR SBTC 182100Z 05003KT 9999 FEW010 27/23 Q1009","temp":27,"dewp":23,"wdir":50,"wspd":3,"visib":"6+","altim":1009,"clouds":[{"cover":"FEW","base":1000}],"obsTime":1773867600},"SBAF":{"icaoId":"SBAF","flightCategory":"VFR","rawOb":"METAR SBAF 182100Z 20010KT 9000 FEW020 SCT040 26/24 Q1009","temp":26,"dewp":24,"wdir":200,"wspd":10,"visib":5.59,"altim":1009,"clouds":[{"cover":"FEW","base":2000},{"cover":"SCT","base":4000}],"obsTime":1773867600},"SBST":{"icaoId":"SBST","flightCategory":"MVFR","rawOb":"METAR SBST 182100Z 15003KT 9999 OVC022 25/22 Q1009","temp":25,"dewp":22,"wdir":150,"wspd":3,"visib":"6+","altim":1009,"clouds":[{"cover":"OVC","base":2200}],"obsTime":1773867600},"SBIH":{"icaoId":"SBIH","flightCategory":"VFR","rawOb":"METAR SBIH 182100Z 04003KT 9999 SCT016 29/25 Q1006","temp":29,"dewp":25,"wdir":40,"wspd":3,"visib":"6+","altim":1006,"clouds":[{"cover":"SCT","base":1600}],"obsTime":1773867600}}}