{"updated":1776467158,"count":76,"data":{"SBBE":{"icaoId":"SBBE","flightCategory":"VFR","rawOb":"METAR SBBE 172200Z 09007KT 9999 SCT007 24/24 Q1007","temp":24,"dewp":24,"wdir":90,"wspd":7,"visib":"6+","altim":1007,"clouds":[{"cover":"SCT","base":700}],"obsTime":1776463200},"SBFZ":{"icaoId":"SBFZ","flightCategory":"VFR","rawOb":"METAR SBFZ 172200Z 11006KT 9999 SCT020 28/24 Q1006","temp":28,"dewp":24,"wdir":110,"wspd":6,"visib":"6+","altim":1006,"clouds":[{"cover":"SCT","base":2000}],"obsTime":1776463200},"SBCB":{"icaoId":"SBCB","flightCategory":"VFR","rawOb":"METAR SBCB 172200Z 07007KT CAVOK 24/22 Q1009","temp":24,"dewp":22,"wdir":70,"wspd":7,"visib":"6+","altim":1009,"clouds":[],"obsTime":1776463200},"SBMO":{"icaoId":"SBMO","flightCategory":"VFR","rawOb":"METAR SBMO 172200Z 06003KT 9999 SCT015 SCT060 25/24 Q1009","temp":25,"dewp":24,"wdir":60,"wspd":3,"visib":"6+","altim":1009,"clouds":[{"cover":"SCT","base":1500},{"cover":"SCT","base":6000}],"obsTime":1776463200},"SBCT":{"icaoId":"SBCT","flightCategory":"VFR","rawOb":"METAR SBCT 172200Z 25005KT 9999 VCTS SCT045 FEW050CB BKN100 25/17 Q1012","temp":25,"dewp":17,"wdir":250,"wspd":5,"visib":"6+","altim":1012,"clouds":[{"cover":"SCT","base":4500},{"cover":"FEW","base":5000},{"cover":"BKN","base":10000}],"obsTime":1776463200},"SBMQ":{"icaoId":"SBMQ","flightCategory":"VFR","rawOb":"METAR SBMQ 172200Z 02005KT 9999 FEW010 SCT015 FEW025TCU BKN100 26/25 Q1006","temp":26,"dewp":25,"wdir":20,"wspd":5,"visib":"6+","altim":1006,"clouds":[{"cover":"FEW","base":1000},{"cover":"SCT","base":1500},{"cover":"FEW","base":2500},{"cover":"BKN","base":10000}],"obsTime":1776463200},"SBGL":{"icaoId":"SBGL","flightCategory":"VFR","rawOb":"METAR SBGL 172200Z 12007KT CAVOK 26/21 Q1008","temp":26,"dewp":21,"wdir":120,"wspd":7,"visib":"6+","altim":1008,"clouds":[],"obsTime":1776463200},"SBVT":{"icaoId":"SBVT","flightCategory":"VFR","rawOb":"METAR SBVT 172200Z 02007KT 9999 FEW030 SCT100 26/22 Q1009","temp":26,"dewp":22,"wdir":20,"wspd":7,"visib":"6+","altim":1009,"clouds":[{"cover":"FEW","base":3000},{"cover":"SCT","base":10000}],"obsTime":1776463200},"SBNT":{"icaoId":"SBNT","flightCategory":"VFR","rawOb":"METAR SBNT 172200Z 14006KT 9999 FEW021 SCT040 27/25 Q1008","temp":27,"dewp":25,"wdir":140,"wspd":6,"visib":"6+","altim":1008,"clouds":[{"cover":"FEW","base":2100},{"cover":"SCT","base":4000}],"obsTime":1776463200},"SBBR":{"icaoId":"SBBR","flightCategory":"VFR","rawOb":"METAR SBBR 172200Z 11004KT 9999 FEW040 SCT100 24/18 Q1014","temp":24,"dewp":18,"wdir":110,"wspd":4,"visib":"6+","altim":1014,"clouds":[{"cover":"FEW","base":4000},{"cover":"SCT","base":10000}],"obsTime":1776463200},"SBPA":{"icaoId":"SBPA","flightCategory":"VFR","rawOb":"METAR SBPA 172200Z 30006KT 9999 FEW040 25/18 Q1006","temp":25,"dewp":18,"wdir":300,"wspd":6,"visib":"6+","altim":1006,"clouds":[{"cover":"FEW","base":4000}],"obsTime":1776463200},"SBPJ":{"icaoId":"SBPJ","flightCategory":"VFR","rawOb":"METAR SBPJ 172200Z 14005KT 9999 VCTS FEW025 FEW035CB SCT070 27/25 Q1007","temp":27,"dewp":25,"wdir":140,"wspd":5,"visib":"6+","altim":1007,"clouds":[{"cover":"FEW","base":2500},{"cover":"FEW","base":3500},{"cover":"SCT","base":7000}],"obsTime":1776463200},"SBGO":{"icaoId":"SBGO","flightCategory":"VFR","rawOb":"SPECI SBGO 172130Z 26003KT 9999 VCTS FEW040 FEW050CB BKN100 23/20 Q1012 RETS","temp":23,"dewp":20,"wdir":260,"wspd":3,"visib":"6+","altim":1012,"clouds":[{"cover":"FEW","base":4000},{"cover":"FEW","base":5000},{"cover":"BKN","base":10000}],"obsTime":1776461400},"SBGR":{"icaoId":"SBGR","flightCategory":"VFR","rawOb":"METAR SBGR 172200Z 17002KT CAVOK 24/16 Q1012","temp":24,"dewp":16,"wdir":170,"wspd":2,"visib":"6+","altim":1012,"clouds":[],"obsTime":1776463200},"SBPV":{"icaoId":"SBPV","flightCategory":"VFR","rawOb":"METAR SBPV 172200Z 10003KT 9999 -DZ FEW020 SCT035 FEW040TCU 26/24 Q1006","temp":26,"dewp":24,"wdir":100,"wspd":3,"visib":"6+","altim":1006,"clouds":[{"cover":"FEW","base":2000},{"cover":"SCT","base":3500},{"cover":"FEW","base":4000}],"obsTime":1776463200},"SBCF":{"icaoId":"SBCF","flightCategory":"VFR","rawOb":"METAR SBCF 172200Z 30002KT 9999 FEW049 22/15 Q1013","temp":22,"dewp":15,"wdir":300,"wspd":2,"visib":"6+","altim":1013,"clouds":[{"cover":"FEW","base":4900}],"obsTime":1776463200},"SBRB":{"icaoId":"SBRB","flightCategory":"VFR","rawOb":"METAR SBRB 172200Z 24002KT 9999 FEW019 SCT025 27/24 Q1007","temp":27,"dewp":24,"wdir":240,"wspd":2,"visib":"6+","altim":1007,"clouds":[{"cover":"FEW","base":1900},{"cover":"SCT","base":2500}],"obsTime":1776463200},"SBRF":{"icaoId":"SBRF","flightCategory":"VFR","rawOb":"METAR SBRF 172200Z 18008KT 9999 SCT019 SCT040 28/25 Q1008","temp":28,"dewp":25,"wdir":180,"wspd":8,"visib":"6+","altim":1008,"clouds":[{"cover":"SCT","base":1900},{"cover":"SCT","base":4000}],"obsTime":1776463200},"SBCZ":{"icaoId":"SBCZ","flightCategory":"VFR","rawOb":"METAR SBCZ 172200Z 07003KT 9999 FEW020 FEW030TCU 27/24 Q1006","temp":27,"dewp":24,"wdir":70,"wspd":3,"visib":"6+","altim":1006,"clouds":[{"cover":"FEW","base":2000},{"cover":"FEW","base":3000}],"obsTime":1776463200},"SBEG":{"icaoId":"SBEG","flightCategory":"MVFR","rawOb":"METAR SBEG 172200Z 05002KT 9999 FEW004 BKN020 FEW025TCU 25/24 Q1007","temp":25,"dewp":24,"wdir":50,"wspd":2,"visib":"6+","altim":1007,"clouds":[{"cover":"FEW","base":400},{"cover":"BKN","base":2000},{"cover":"FEW","base":2500}],"obsTime":1776463200},"SBSG":{"icaoId":"SBSG","flightCategory":"VFR","rawOb":"METAR SBSG 172200Z 13004KT 100V160 9999 FEW040 26/25 Q1008","temp":26,"dewp":25,"wdir":130,"wspd":4,"visib":"6+","altim":1008,"clouds":[{"cover":"FEW","base":4000}],"obsTime":1776463200},"SBSL":{"icaoId":"SBSL","flightCategory":"VFR","rawOb":"METAR SBSL 172200Z 08007KT 9999 FEW020 BKN090 27/25 Q1007","temp":27,"dewp":25,"wdir":80,"wspd":7,"visib":"6+","altim":1007,"clouds":[{"cover":"FEW","base":2000},{"cover":"BKN","base":9000}],"obsTime":1776463200},"SBBV":{"icaoId":"SBBV","flightCategory":"VFR","rawOb":"METAR SBBV 172200Z 11008KT 9999 SCT030 FEW035TCU 32/21 Q1005","temp":32,"dewp":21,"wdir":110,"wspd":8,"visib":"6+","altim":1005,"clouds":[{"cover":"SCT","base":3000},{"cover":"FEW","base":3500}],"obsTime":1776463200},"SBKP":{"icaoId":"SBKP","flightCategory":"VFR","rawOb":"METAR SBKP 172200Z VRB02KT CAVOK 28/15 Q1011","temp":28,"dewp":15,"wdir":"VRB","wspd":2,"visib":"6+","altim":1011,"clouds":[],"obsTime":1776463200},"SBSN":{"icaoId":"SBSN","flightCategory":"VFR","rawOb":"METAR SBSN 172200Z 11005KT CAVOK 28/24 Q1005","temp":28,"dewp":24,"wdir":110,"wspd":5,"visib":"6+","altim":1005,"clouds":[],"obsTime":1776463200},"SBCG":{"icaoId":"SBCG","flightCategory":"VFR","rawOb":"METAR SBCG 172200Z 33002KT 9999 FEW035 FEW040TCU 25/23 Q1010","temp":25,"dewp":23,"wdir":330,"wspd":2,"visib":"6+","altim":1010,"clouds":[{"cover":"FEW","base":3500},{"cover":"FEW","base":4000}],"obsTime":1776463200},"SBSP":{"icaoId":"SBSP","flightCategory":"VFR","rawOb":"METAR SBSP 172200Z 14004KT CAVOK 24/17 Q1013","temp":24,"dewp":17,"wdir":140,"wspd":4,"visib":"6+","altim":1013,"clouds":[],"obsTime":1776463200},"SBSV":{"icaoId":"SBSV","flightCategory":"VFR","rawOb":"METAR SBSV 172200Z 13007KT 100V180 9999 FEW023 28/22 Q1009","temp":28,"dewp":22,"wdir":130,"wspd":7,"visib":"6+","altim":1009,"clouds":[{"cover":"FEW","base":2300}],"obsTime":1776463200},"SBLO":{"icaoId":"SBLO","flightCategory":"VFR","rawOb":"METAR SBLO 172200Z 27003KT 9999 FEW030 FEW040TCU 28/20 Q1010","temp":28,"dewp":20,"wdir":270,"wspd":3,"visib":"6+","altim":1010,"clouds":[{"cover":"FEW","base":3000},{"cover":"FEW","base":4000}],"obsTime":1776463200},"SBTE":{"icaoId":"SBTE","flightCategory":"VFR","rawOb":"METAR SBTE 172200Z 30003KT 9999 FEW025 FEW030TCU 30/25 Q1006","temp":30,"dewp":25,"wdir":300,"wspd":3,"visib":"6+","altim":1006,"clouds":[{"cover":"FEW","base":2500},{"cover":"FEW","base":3000}],"obsTime":1776463200},"SBFI":{"icaoId":"SBFI","flightCategory":"VFR","rawOb":"METAR SBFI 172200Z 18004KT CAVOK 24/21 Q1009","temp":24,"dewp":21,"wdir":180,"wspd":4,"visib":"6+","altim":1009,"clouds":[],"obsTime":1776463200},"SBMA":{"icaoId":"SBMA","flightCategory":"VFR","rawOb":"METAR SBMA 172200Z 07002KT 9999 FEW020 FEW023TCU 28/26 Q1005","temp":28,"dewp":26,"wdir":70,"wspd":2,"visib":"6+","altim":1005,"clouds":[{"cover":"FEW","base":2000},{"cover":"FEW","base":2300}],"obsTime":1776463200},"SBFL":{"icaoId":"SBFL","flightCategory":"VFR","rawOb":"METAR SBFL 172200Z 12005KT 9999 SCT045 24/22 Q1006","temp":24,"dewp":22,"wdir":120,"wspd":5,"visib":"6+","altim":1006,"clouds":[{"cover":"SCT","base":4500}],"obsTime":1776463200},"SBUL":{"icaoId":"SBUL","flightCategory":"VFR","rawOb":"METAR SBUL 172200Z 11002KT 9999 FEW040 24/16 Q1013","temp":24,"dewp":16,"wdir":110,"wspd":2,"visib":"6+","altim":1013,"clouds":[{"cover":"FEW","base":4000}],"obsTime":1776463200},"SBUR":{"icaoId":"SBUR","flightCategory":"VFR","rawOb":"METAR SBUR 172200Z 16004KT CAVOK 25/17 Q1012","temp":25,"dewp":17,"wdir":160,"wspd":4,"visib":"6+","altim":1012,"clouds":[],"obsTime":1776463200},"SBCP":{"icaoId":"SBCP","flightCategory":"VFR","rawOb":"METAR SBCP 172200Z 07005KT CAVOK 23/22 Q1009","temp":23,"dewp":22,"wdir":70,"wspd":5,"visib":"6+","altim":1009,"clouds":[],"obsTime":1776463200},"SBHT":{"icaoId":"SBHT","flightCategory":"VFR","rawOb":"METAR SBHT 172200Z 04002KT 9999 FEW030 27/26 Q1006","temp":27,"dewp":26,"wdir":40,"wspd":2,"visib":"6+","altim":1006,"clouds":[{"cover":"FEW","base":3000}],"obsTime":1776463200},"SBIL":{"icaoId":"SBIL","flightCategory":"VFR","rawOb":"METAR SBIL 172200Z 16005KT 110V190 CAVOK 28/24 Q1010","temp":28,"dewp":24,"wdir":160,"wspd":5,"visib":"6+","altim":1010,"clouds":[],"obsTime":1776463200},"SBJU":{"icaoId":"SBJU","flightCategory":"VFR","rawOb":"METAR SBJU 172200Z 00000KT 9999 FEW020 28/22 Q1009","temp":28,"dewp":22,"wdir":0,"wspd":0,"visib":"6+","altim":1009,"clouds":[{"cover":"FEW","base":2000}],"obsTime":1776463200},"SBME":{"icaoId":"SBME","flightCategory":"VFR","rawOb":"METAR SBME 172200Z 07005KT CAVOK 26/22 Q1008","temp":26,"dewp":22,"wdir":70,"wspd":5,"visib":"6+","altim":1008,"clouds":[],"obsTime":1776463200},"SBMG":{"icaoId":"SBMG","flightCategory":"VFR","rawOb":"METAR SBMG 172200Z 23005KT 9999 SCT035 FEW050TCU SCT100 26/22 Q1009","temp":26,"dewp":22,"wdir":230,"wspd":5,"visib":"6+","altim":1009,"clouds":[{"cover":"SCT","base":3500},{"cover":"FEW","base":5000},{"cover":"SCT","base":10000}],"obsTime":1776463200},"SBMK":{"icaoId":"SBMK","flightCategory":"VFR","rawOb":"METAR SBMK 172200Z 00000KT CAVOK 24/18 Q1011","temp":24,"dewp":18,"wdir":0,"wspd":0,"visib":"6+","altim":1011,"clouds":[],"obsTime":1776463200},"SBAR":{"icaoId":"SBAR","flightCategory":"VFR","rawOb":"METAR SBAR 172200Z 13005KT 9999 FEW025 28/23 Q1009","temp":28,"dewp":23,"wdir":130,"wspd":5,"visib":"6+","altim":1009,"clouds":[{"cover":"FEW","base":2500}],"obsTime":1776463200},"SBOI":{"icaoId":"SBOI","flightCategory":"VFR","rawOb":"METAR SBOI 172200Z AUTO 04004KT CAVOK 27/24 Q1007","temp":27,"dewp":24,"wdir":40,"wspd":4,"visib":"6+","altim":1007,"clouds":[],"obsTime":1776463200},"SBPL":{"icaoId":"SBPL","flightCategory":"VFR","rawOb":"METAR SBPL 172200Z 12005KT CAVOK 30/18 Q1008","temp":30,"dewp":18,"wdir":120,"wspd":5,"visib":"6+","altim":1008,"clouds":[],"obsTime":1776463200},"SBPS":{"icaoId":"SBPS","flightCategory":"VFR","rawOb":"METAR SBPS 172200Z 12004KT CAVOK 26/23 Q1010","temp":26,"dewp":23,"wdir":120,"wspd":4,"visib":"6+","altim":1010,"clouds":[],"obsTime":1776463200},"SBSJ":{"icaoId":"SBSJ","flightCategory":"VFR","rawOb":"METAR SBSJ 172200Z 32002KT CAVOK 22/17 Q1011","temp":22,"dewp":17,"wdir":320,"wspd":2,"visib":"6+","altim":1011,"clouds":[],"obsTime":1776463200},"SBTT":{"icaoId":"SBTT","flightCategory":"VFR","rawOb":"METAR SBTT 172200Z 22002KT 9999 FEW011 SCT015 26/23 Q1006","temp":26,"dewp":23,"wdir":220,"wspd":2,"visib":"6+","altim":1006,"clouds":[{"cover":"FEW","base":1100},{"cover":"SCT","base":1500}],"obsTime":1776463200},"SBTF":{"icaoId":"SBTF","flightCategory":"VFR","rawOb":"METAR SBTF 172200Z 16004KT 9999 FEW011 BKN100 26/25 Q1007","temp":26,"dewp":25,"wdir":160,"wspd":4,"visib":"6+","altim":1007,"clouds":[{"cover":"FEW","base":1100},{"cover":"BKN","base":10000}],"obsTime":1776463200},"SBCO":{"icaoId":"SBCO","flightCategory":"VFR","rawOb":"METAR SBCO 172200Z 29005KT 9999 FEW045 24/17 Q1007","temp":24,"dewp":17,"wdir":290,"wspd":5,"visib":"6+","altim":1007,"clouds":[{"cover":"FEW","base":4500}],"obsTime":1776463200},"SBDN":{"icaoId":"SBDN","flightCategory":"VFR","rawOb":"METAR SBDN 172200Z 00000KT CAVOK 28/19 Q1009","temp":28,"dewp":19,"wdir":0,"wspd":0,"visib":"6+","altim":1009,"clouds":[],"obsTime":1776463200},"SBES":{"icaoId":"SBES","flightCategory":"VFR","rawOb":"METAR SBES 172200Z 00000KT CAVOK 22/// Q1009","temp":null,"dewp":null,"wdir":0,"wspd":0,"visib":"6+","altim":1009,"clouds":[],"obsTime":1776463200},"SBIP":{"icaoId":"SBIP","flightCategory":"VFR","rawOb":"METAR SBIP 172200Z AUTO 00000KT CAVOK 20/20 Q1010","temp":20,"dewp":20,"wdir":0,"wspd":0,"visib":"6+","altim":1010,"clouds":[],"obsTime":1776463200},"SBKG":{"icaoId":"SBKG","flightCategory":"VFR","rawOb":"METAR SBKG 172200Z 10008KT CAVOK 25/22 Q1011","temp":25,"dewp":22,"wdir":100,"wspd":8,"visib":"6+","altim":1011,"clouds":[],"obsTime":1776463200},"SBVH":{"icaoId":"SBVH","flightCategory":"VFR","rawOb":"METAR SBVH 172200Z 33006KT 9999 SCT040 BKN100 24/23 Q1010","temp":24,"dewp":23,"wdir":330,"wspd":6,"visib":"6+","altim":1010,"clouds":[{"cover":"SCT","base":4000},{"cover":"BKN","base":10000}],"obsTime":1776463200},"SBSC":{"icaoId":"SBSC","flightCategory":"VFR","rawOb":"METAR SBSC 172200Z 25004KT CAVOK 24/22 Q1008","temp":24,"dewp":22,"wdir":250,"wspd":4,"visib":"6+","altim":1008,"clouds":[],"obsTime":1776463200},"SBUY":{"icaoId":"SBUY","flightCategory":"MVFR","rawOb":"METAR SBUY 172200Z 00000KT 6000 -RA FEW006 FEW025TCU BKN080 24/24 Q1006","temp":24,"dewp":24,"wdir":0,"wspd":0,"visib":3.73,"altim":1006,"clouds":[{"cover":"FEW","base":600},{"cover":"FEW","base":2500},{"cover":"BKN","base":8000}],"obsTime":1776463200},"SBSM":{"icaoId":"SBSM","flightCategory":"VFR","rawOb":"METAR SBSM 172200Z 26002KT 9999 FEW045 21/17 Q1008","temp":21,"dewp":17,"wdir":260,"wspd":2,"visib":"6+","altim":1008,"clouds":[{"cover":"FEW","base":4500}],"obsTime":1776463200},"SBSR":{"icaoId":"SBSR","flightCategory":"VFR","rawOb":"METAR SBSR 172200Z 00000KT CAVOK 28/16 Q1010","temp":28,"dewp":16,"wdir":0,"wspd":0,"visib":"6+","altim":1010,"clouds":[],"obsTime":1776463200},"SBCA":{"icaoId":"SBCA","flightCategory":"VFR","rawOb":"METAR SBCA 172200Z 24004KT CAVOK 22/19 Q1012","temp":22,"dewp":19,"wdir":240,"wspd":4,"visib":"6+","altim":1012,"clouds":[],"obsTime":1776463200},"SBBH":{"icaoId":"SBBH","flightCategory":"VFR","rawOb":"METAR SBBH 172200Z 00000KT 9999 FEW049 21/17 Q1013","temp":21,"dewp":17,"wdir":0,"wspd":0,"visib":"6+","altim":1013,"clouds":[{"cover":"FEW","base":4900}],"obsTime":1776463200},"SBBU":{"icaoId":"SBBU","flightCategory":"VFR","rawOb":"METAR SBBU 172200Z 30003KT CAVOK 29/19 Q1010","temp":29,"dewp":19,"wdir":300,"wspd":3,"visib":"6+","altim":1010,"clouds":[],"obsTime":1776463200},"SBAX":{"icaoId":"SBAX","flightCategory":"VFR","rawOb":"METAR SBAX 172200Z 04004KT CAVOK 23/13 Q1014","temp":23,"dewp":13,"wdir":40,"wspd":4,"visib":"6+","altim":1014,"clouds":[],"obsTime":1776463200},"SBPB":{"icaoId":"SBPB","flightCategory":"MVFR","rawOb":"SPECI SBPB 172145Z 07003KT 9999 BKN015 FEW025TCU BKN080 25/23 Q1006","temp":25,"dewp":23,"wdir":70,"wspd":3,"visib":"6+","altim":1006,"clouds":[{"cover":"BKN","base":1500},{"cover":"FEW","base":2500},{"cover":"BKN","base":8000}],"obsTime":1776462300},"SBCJ":{"icaoId":"SBCJ","flightCategory":"VFR","rawOb":"SPECI SBCJ 172130Z 00000KT 9999 FEW017 FEW020TCU 24/22 Q1010","temp":24,"dewp":22,"wdir":0,"wspd":0,"visib":"6+","altim":1010,"clouds":[{"cover":"FEW","base":1700},{"cover":"FEW","base":2000}],"obsTime":1776461400},"SBJP":{"icaoId":"SBJP","flightCategory":"VFR","rawOb":"METAR SBJP 172200Z 12008KT CAVOK 26/24 Q1008","temp":26,"dewp":24,"wdir":120,"wspd":8,"visib":"6+","altim":1008,"clouds":[],"obsTime":1776463200},"SBJV":{"icaoId":"SBJV","flightCategory":"VFR","rawOb":"METAR SBJV 172200Z 30004KT 9999 TS FEW015 FEW035CB 25/23 Q1007","temp":25,"dewp":23,"wdir":300,"wspd":4,"visib":"6+","altim":1007,"clouds":[{"cover":"FEW","base":1500},{"cover":"FEW","base":3500}],"obsTime":1776463200},"SBPF":{"icaoId":"SBPF","flightCategory":"VFR","rawOb":"METAR SBPF 172200Z 26008KT CAVOK 20/14 Q1012","temp":20,"dewp":14,"wdir":260,"wspd":8,"visib":"6+","altim":1012,"clouds":[],"obsTime":1776463200},"SBAN":{"icaoId":"SBAN","flightCategory":"VFR","rawOb":"METAR SBAN 172200Z 02002KT 9999 VCTS FEW035 FEW040CB SCT100 22/19 Q1015","temp":22,"dewp":19,"wdir":20,"wspd":2,"visib":"6+","altim":1015,"clouds":[{"cover":"FEW","base":3500},{"cover":"FEW","base":4000},{"cover":"SCT","base":10000}],"obsTime":1776463200},"SBAF":{"icaoId":"SBAF","flightCategory":"VFR","rawOb":"METAR SBAF 172200Z 21004KT CAVOK 25/23 Q1008","temp":25,"dewp":23,"wdir":210,"wspd":4,"visib":"6+","altim":1008,"clouds":[],"obsTime":1776463200},"SBGW":{"icaoId":"SBGW","flightCategory":"VFR","rawOb":"METAR SBGW 172200Z 35004KT CAVOK 22/13 Q1011","temp":22,"dewp":13,"wdir":350,"wspd":4,"visib":"6+","altim":1011,"clouds":[],"obsTime":1776463200},"SBLE":{"icaoId":"SBLE","flightCategory":"VFR","rawOb":"METAR SBLE 172200Z AUTO 00000KT 9999 FEW049 24/24 Q1011","temp":24,"dewp":24,"wdir":0,"wspd":0,"visib":"6+","altim":1011,"clouds":[{"cover":"FEW","base":4900}],"obsTime":1776463200},"SBLS":{"icaoId":"SBLS","flightCategory":"VFR","rawOb":"METAR SBLS 172200Z 32001KT CAVOK 21/15 Q1013","temp":21,"dewp":15,"wdir":320,"wspd":1,"visib":"6+","altim":1013,"clouds":[],"obsTime":1776463200},"SBMT":{"icaoId":"SBMT","flightCategory":"VFR","rawOb":"METAR SBMT 172200Z 24003KT CAVOK 25/14 Q1012","temp":25,"dewp":14,"wdir":240,"wspd":3,"visib":"6+","altim":1012,"clouds":[],"obsTime":1776463200},"SBTA":{"icaoId":"SBTA","flightCategory":"VFR","rawOb":"METAR SBTA 172200Z VRB01KT CAVOK 22/16 Q1010","temp":22,"dewp":16,"wdir":"VRB","wspd":1,"visib":"6+","altim":1010,"clouds":[],"obsTime":1776463200},"SBJR":{"icaoId":"SBJR","flightCategory":"VFR","rawOb":"METAR SBJR 172200Z 26003KT CAVOK 24/21 Q1008","temp":24,"dewp":21,"wdir":260,"wspd":3,"visib":"6+","altim":1008,"clouds":[],"obsTime":1776463200}}}