{"updated":1774279923,"count":87,"data":{"SBPV":{"icaoId":"SBPV","flightCategory":"VFR","rawOb":"METAR SBPV 231400Z 22003KT CAVOK 29/22 Q1011","temp":29,"dewp":22,"wdir":220,"wspd":3,"visib":"6+","altim":1011,"clouds":[],"obsTime":1774274400},"SBBE":{"icaoId":"SBBE","flightCategory":"MVFR","rawOb":"METAR SBBE 231400Z 08006KT 9999 BKN025 30/25 Q1011","temp":30,"dewp":25,"wdir":80,"wspd":6,"visib":"6+","altim":1011,"clouds":[{"cover":"BKN","base":2500}],"obsTime":1774274400},"SBBR":{"icaoId":"SBBR","flightCategory":"VFR","rawOb":"METAR SBBR 231400Z 08005KT 030V180 9999 SCT030 27/19 Q1017","temp":27,"dewp":19,"wdir":80,"wspd":5,"visib":"6+","altim":1017,"clouds":[{"cover":"SCT","base":3000}],"obsTime":1774274400},"SBBV":{"icaoId":"SBBV","flightCategory":"VFR","rawOb":"METAR SBBV 231400Z 08010KT 9999 SCT040 32/21 Q1011","temp":32,"dewp":21,"wdir":80,"wspd":10,"visib":"6+","altim":1011,"clouds":[{"cover":"SCT","base":4000}],"obsTime":1774274400},"SBCB":{"icaoId":"SBCB","flightCategory":"VFR","rawOb":"METAR SBCB 231400Z 08010KT 9999 VCSH SCT020 FEW025TCU BKN050 27/21 Q1014","temp":27,"dewp":21,"wdir":80,"wspd":10,"visib":"6+","altim":1014,"clouds":[{"cover":"SCT","base":2000},{"cover":"FEW","base":2500},{"cover":"BKN","base":5000}],"obsTime":1774274400},"SBCF":{"icaoId":"SBCF","flightCategory":"MVFR","rawOb":"METAR SBCF 231400Z 06006KT 9999 BKN025 26/20 Q1017","temp":26,"dewp":20,"wdir":60,"wspd":6,"visib":"6+","altim":1017,"clouds":[{"cover":"BKN","base":2500}],"obsTime":1774274400},"SBCG":{"icaoId":"SBCG","flightCategory":"VFR","rawOb":"METAR SBCG 231400Z 03010KT 350V050 9999 BKN040 31/22 Q1013","temp":31,"dewp":22,"wdir":30,"wspd":10,"visib":"6+","altim":1013,"clouds":[{"cover":"BKN","base":4000}],"obsTime":1774274400},"SBCP":{"icaoId":"SBCP","flightCategory":"VFR","rawOb":"METAR SBCP 231400Z 09006KT 9999 SCT020 28/22 Q1013","temp":28,"dewp":22,"wdir":90,"wspd":6,"visib":"6+","altim":1013,"clouds":[{"cover":"SCT","base":2000}],"obsTime":1774274400},"SBCR":{"icaoId":"SBCR","flightCategory":"VFR","rawOb":"METAR SBCR 231400Z 34005KT 290V050 9999 FEW035 31/25 Q1010","temp":31,"dewp":25,"wdir":340,"wspd":5,"visib":"6+","altim":1010,"clouds":[{"cover":"FEW","base":3500}],"obsTime":1774274400},"SBCT":{"icaoId":"SBCT","flightCategory":"VFR","rawOb":"METAR SBCT 231400Z 36006KT 9999 SCT030 25/18 Q1018","temp":25,"dewp":18,"wdir":360,"wspd":6,"visib":"6+","altim":1018,"clouds":[{"cover":"SCT","base":3000}],"obsTime":1774274400},"SBCZ":{"icaoId":"SBCZ","flightCategory":"IFR","rawOb":"METAR SBCZ 231400Z 18002KT 9999 BKN008 24/22 Q1012","temp":24,"dewp":22,"wdir":180,"wspd":2,"visib":"6+","altim":1012,"clouds":[{"cover":"BKN","base":800}],"obsTime":1774274400},"SBEG":{"icaoId":"SBEG","flightCategory":"VFR","rawOb":"METAR SBEG 231400Z 08011KT 9999 FEW015 31/25 Q1010","temp":31,"dewp":25,"wdir":80,"wspd":11,"visib":"6+","altim":1010,"clouds":[{"cover":"FEW","base":1500}],"obsTime":1774274400},"SBFI":{"icaoId":"SBFI","flightCategory":"VFR","rawOb":"METAR SBFI 231400Z 01012KT 9999 SCT030 SCT080 31/23 Q1011","temp":31,"dewp":23,"wdir":10,"wspd":12,"visib":"6+","altim":1011,"clouds":[{"cover":"SCT","base":3000},{"cover":"SCT","base":8000}],"obsTime":1774274400},"SBFL":{"icaoId":"SBFL","flightCategory":"VFR","rawOb":"METAR SBFL 231400Z 36011KT 9999 FEW020 BKN060 29/23 Q1012","temp":29,"dewp":23,"wdir":360,"wspd":11,"visib":"6+","altim":1012,"clouds":[{"cover":"FEW","base":2000},{"cover":"BKN","base":6000}],"obsTime":1774274400},"SBFZ":{"icaoId":"SBFZ","flightCategory":"VFR","rawOb":"METAR SBFZ 231400Z 11012KT 060V130 9999 SCT025 31/24 Q1010","temp":31,"dewp":24,"wdir":110,"wspd":12,"visib":"6+","altim":1010,"clouds":[{"cover":"SCT","base":2500}],"obsTime":1774274400},"SBGL":{"icaoId":"SBGL","flightCategory":"VFR","rawOb":"METAR SBGL 231400Z 02006KT 9999 SCT025 29/21 Q1012","temp":29,"dewp":21,"wdir":20,"wspd":6,"visib":"6+","altim":1012,"clouds":[{"cover":"SCT","base":2500}],"obsTime":1774274400},"SBGO":{"icaoId":"SBGO","flightCategory":"VFR","rawOb":"METAR SBGO 231400Z VRB02KT 9999 FEW025 30/20 Q1015","temp":30,"dewp":20,"wdir":"VRB","wspd":2,"visib":"6+","altim":1015,"clouds":[{"cover":"FEW","base":2500}],"obsTime":1774274400},"SBGR":{"icaoId":"SBGR","flightCategory":"VFR","rawOb":"METAR SBGR 231400Z 03009KT CAVOK 25/16 Q1016","temp":25,"dewp":16,"wdir":30,"wspd":9,"visib":"6+","altim":1016,"clouds":[],"obsTime":1774274400},"SBHT":{"icaoId":"SBHT","flightCategory":"MVFR","rawOb":"METAR SBHT 231400Z 12005KT 9999 BKN025 31/25 Q1012","temp":31,"dewp":25,"wdir":120,"wspd":5,"visib":"6+","altim":1012,"clouds":[{"cover":"BKN","base":2500}],"obsTime":1774274400},"SBIL":{"icaoId":"SBIL","flightCategory":"VFR","rawOb":"METAR SBIL 231400Z 09014KT 9999 -RA SCT015 FEW023TCU BKN090 27/24 Q1014","temp":27,"dewp":24,"wdir":90,"wspd":14,"visib":"6+","altim":1014,"clouds":[{"cover":"SCT","base":1500},{"cover":"FEW","base":2300},{"cover":"BKN","base":9000}],"obsTime":1774274400},"SBJU":{"icaoId":"SBJU","flightCategory":"MVFR","rawOb":"METAR SBJU 231400Z 00000KT 9999 FEW012 BKN018 26/23 Q1014","temp":26,"dewp":23,"wdir":0,"wspd":0,"visib":"6+","altim":1014,"clouds":[{"cover":"FEW","base":1200},{"cover":"BKN","base":1800}],"obsTime":1774274400},"SBKP":{"icaoId":"SBKP","flightCategory":"VFR","rawOb":"METAR SBKP 231400Z 07003KT 010V130 CAVOK 28/14 Q1015","temp":28,"dewp":14,"wdir":70,"wspd":3,"visib":"6+","altim":1015,"clouds":[],"obsTime":1774274400},"SBLO":{"icaoId":"SBLO","flightCategory":"VFR","rawOb":"METAR SBLO 231400Z 11007KT 9999 FEW040 28/20 Q1015","temp":28,"dewp":20,"wdir":110,"wspd":7,"visib":"6+","altim":1015,"clouds":[{"cover":"FEW","base":4000}],"obsTime":1774274400},"SBMA":{"icaoId":"SBMA","flightCategory":"MVFR","rawOb":"METAR SBMA 231400Z 20006KT 9999 SCT015 BKN020 30/25 Q1012","temp":30,"dewp":25,"wdir":200,"wspd":6,"visib":"6+","altim":1012,"clouds":[{"cover":"SCT","base":1500},{"cover":"BKN","base":2000}],"obsTime":1774274400},"SBME":{"icaoId":"SBME","flightCategory":"VFR","rawOb":"METAR SBME 231400Z 10008KT 9999 SCT015 BKN080 27/20 Q1013","temp":27,"dewp":20,"wdir":100,"wspd":8,"visib":"6+","altim":1013,"clouds":[{"cover":"SCT","base":1500},{"cover":"BKN","base":8000}],"obsTime":1774274400},"SBMG":{"icaoId":"SBMG","flightCategory":"VFR","rawOb":"METAR SBMG 231400Z 12005KT 9999 VCSH FEW045 FEW045TCU BKN080 25/22 Q1014","temp":25,"dewp":22,"wdir":120,"wspd":5,"visib":"6+","altim":1014,"clouds":[{"cover":"FEW","base":4500},{"cover":"FEW","base":4500},{"cover":"BKN","base":8000}],"obsTime":1774274400},"SBMK":{"icaoId":"SBMK","flightCategory":"VFR","rawOb":"METAR SBMK 231400Z 06005KT 9999 SCT040 28/21 Q1015","temp":28,"dewp":21,"wdir":60,"wspd":5,"visib":"6+","altim":1015,"clouds":[{"cover":"SCT","base":4000}],"obsTime":1774274400},"SBMO":{"icaoId":"SBMO","flightCategory":"VFR","rawOb":"METAR SBMO 231400Z 07011KT 040V100 9999 VCSH SCT025 FEW030TCU 32/23 Q1011","temp":32,"dewp":23,"wdir":70,"wspd":11,"visib":"6+","altim":1011,"clouds":[{"cover":"SCT","base":2500},{"cover":"FEW","base":3000}],"obsTime":1774274400},"SBMQ":{"icaoId":"SBMQ","flightCategory":"VFR","rawOb":"METAR SBMQ 231400Z 05011KT 9999 SCT017 30/26 Q1012","temp":30,"dewp":26,"wdir":50,"wspd":11,"visib":"6+","altim":1012,"clouds":[{"cover":"SCT","base":1700}],"obsTime":1774274400},"SBNT":{"icaoId":"SBNT","flightCategory":"MVFR","rawOb":"METAR SBNT 231400Z 08010KT 040V120 9999 BKN020 31/24 Q1011","temp":31,"dewp":24,"wdir":80,"wspd":10,"visib":"6+","altim":1011,"clouds":[{"cover":"BKN","base":2000}],"obsTime":1774274400},"SBPA":{"icaoId":"SBPA","flightCategory":"VFR","rawOb":"METAR SBPA 231400Z VRB03KT 9999 FEW015 30/22 Q1008","temp":30,"dewp":22,"wdir":"VRB","wspd":3,"visib":"6+","altim":1008,"clouds":[{"cover":"FEW","base":1500}],"obsTime":1774274400},"SBPJ":{"icaoId":"SBPJ","flightCategory":"VFR","rawOb":"METAR SBPJ 231400Z 35006KT 310V030 9999 FEW013 FEW035TCU SCT040 29/24 Q1013","temp":29,"dewp":24,"wdir":350,"wspd":6,"visib":"6+","altim":1013,"clouds":[{"cover":"FEW","base":1300},{"cover":"FEW","base":3500},{"cover":"SCT","base":4000}],"obsTime":1774274400},"SBAT":{"icaoId":"SBAT","flightCategory":"VFR","rawOb":"METAR SBAT 231400Z 01002KT 9999 FEW020 SCT080 29/23 Q1013","temp":29,"dewp":23,"wdir":10,"wspd":2,"visib":"6+","altim":1013,"clouds":[{"cover":"FEW","base":2000},{"cover":"SCT","base":8000}],"obsTime":1774274400},"SBRB":{"icaoId":"SBRB","flightCategory":"VFR","rawOb":"METAR SBRB 231400Z 28006KT CAVOK 28/24 Q1011","temp":28,"dewp":24,"wdir":280,"wspd":6,"visib":"6+","altim":1011,"clouds":[],"obsTime":1774274400},"SBRF":{"icaoId":"SBRF","flightCategory":"VFR","rawOb":"METAR SBRF 231400Z 08010KT 050V120 9999 SCT023 31/24 Q1012","temp":31,"dewp":24,"wdir":80,"wspd":10,"visib":"6+","altim":1012,"clouds":[{"cover":"SCT","base":2300}],"obsTime":1774274400},"SBSG":{"icaoId":"SBSG","flightCategory":"MVFR","rawOb":"METAR SBSG 231400Z 08010KT 9999 BKN025 30/23 Q1012","temp":30,"dewp":23,"wdir":80,"wspd":10,"visib":"6+","altim":1012,"clouds":[{"cover":"BKN","base":2500}],"obsTime":1774274400},"SBSL":{"icaoId":"SBSL","flightCategory":"VFR","rawOb":"METAR SBSL 231400Z 07010KT 9999 SCT025 30/25 Q1011","temp":30,"dewp":25,"wdir":70,"wspd":10,"visib":"6+","altim":1011,"clouds":[{"cover":"SCT","base":2500}],"obsTime":1774274400},"SBSN":{"icaoId":"SBSN","flightCategory":"VFR","rawOb":"METAR SBSN 231400Z 09015KT 9999 SCT020 30/24 Q1011","temp":30,"dewp":24,"wdir":90,"wspd":15,"visib":"6+","altim":1011,"clouds":[{"cover":"SCT","base":2000}],"obsTime":1774274400},"SBSP":{"icaoId":"SBSP","flightCategory":"VFR","rawOb":"METAR SBSP 231400Z 11008KT CAVOK 25/14 Q1017","temp":25,"dewp":14,"wdir":110,"wspd":8,"visib":"6+","altim":1017,"clouds":[],"obsTime":1774274400},"SBSV":{"icaoId":"SBSV","flightCategory":"MVFR","rawOb":"METAR SBSV 231400Z 10009KT 080V140 9999 BKN021 31/22 Q1013","temp":31,"dewp":22,"wdir":100,"wspd":9,"visib":"6+","altim":1013,"clouds":[{"cover":"BKN","base":2100}],"obsTime":1774274400},"SBTE":{"icaoId":"SBTE","flightCategory":"VFR","rawOb":"METAR SBTE 231400Z 05007KT 9999 SCT025 32/22 Q1010","temp":32,"dewp":22,"wdir":50,"wspd":7,"visib":"6+","altim":1010,"clouds":[{"cover":"SCT","base":2500}],"obsTime":1774274400},"SBUL":{"icaoId":"SBUL","flightCategory":"VFR","rawOb":"METAR SBUL 231400Z 10007KT CAVOK 27/15 Q1017","temp":27,"dewp":15,"wdir":100,"wspd":7,"visib":"6+","altim":1017,"clouds":[],"obsTime":1774274400},"SBUR":{"icaoId":"SBUR","flightCategory":"VFR","rawOb":"METAR SBUR 231400Z 07004KT CAVOK 30/13 Q1015","temp":30,"dewp":13,"wdir":70,"wspd":4,"visib":"6+","altim":1015,"clouds":[],"obsTime":1774274400},"SBVT":{"icaoId":"SBVT","flightCategory":"VFR","rawOb":"METAR SBVT 231400Z 16008KT 9999 SCT040 FEW045TCU SCT100 28/23 Q1013","temp":28,"dewp":23,"wdir":160,"wspd":8,"visib":"6+","altim":1013,"clouds":[{"cover":"SCT","base":4000},{"cover":"FEW","base":4500},{"cover":"SCT","base":10000}],"obsTime":1774274400},"SBOI":{"icaoId":"SBOI","flightCategory":"MVFR","rawOb":"METAR SBOI 231400Z AUTO 08004KT 020V150 9999 BKN023 30/24 Q1012","temp":30,"dewp":24,"wdir":80,"wspd":4,"visib":"6+","altim":1012,"clouds":[{"cover":"BKN","base":2300}],"obsTime":1774274400},"SBBQ":{"icaoId":"SBBQ","flightCategory":"VFR","rawOb":"METAR SBBQ 231400Z 11006KT 080V180 9999 SCT023 22/17 Q1020","temp":22,"dewp":17,"wdir":110,"wspd":6,"visib":"6+","altim":1020,"clouds":[{"cover":"SCT","base":2300}],"obsTime":1774274400},"SBPB":{"icaoId":"SBPB","flightCategory":"VFR","rawOb":"METAR SBPB 231400Z 06014KT 9999 SCT020 31/24 Q1011","temp":31,"dewp":24,"wdir":60,"wspd":14,"visib":"6+","altim":1011,"clouds":[{"cover":"SCT","base":2000}],"obsTime":1774274400},"SBPL":{"icaoId":"SBPL","flightCategory":"MVFR","rawOb":"METAR SBPL 231400Z 06007KT 9999 BKN025 31/21 Q1013","temp":31,"dewp":21,"wdir":60,"wspd":7,"visib":"6+","altim":1013,"clouds":[{"cover":"BKN","base":2500}],"obsTime":1774274400},"SBCJ":{"icaoId":"SBCJ","flightCategory":"MVFR","rawOb":"METAR SBCJ 231400Z 00000KT 9999 SCT007 BKN010 24/22 Q1016","temp":24,"dewp":22,"wdir":0,"wspd":0,"visib":"6+","altim":1016,"clouds":[{"cover":"SCT","base":700},{"cover":"BKN","base":1000}],"obsTime":1774274400},"SBPP":{"icaoId":"SBPP","flightCategory":"VFR","rawOb":"METAR SBPP 231400Z 03010KT 9999 FEW020 30/24 Q1014","temp":30,"dewp":24,"wdir":30,"wspd":10,"visib":"6+","altim":1014,"clouds":[{"cover":"FEW","base":2000}],"obsTime":1774274400},"SBCO":{"icaoId":"SBCO","flightCategory":"VFR","rawOb":"METAR SBCO 231400Z 03004KT 290V080 CAVOK 30/23 Q1008","temp":30,"dewp":23,"wdir":30,"wspd":4,"visib":"6+","altim":1008,"clouds":[],"obsTime":1774274400},"SBAX":{"icaoId":"SBAX","flightCategory":"VFR","rawOb":"METAR SBAX 231400Z 08008KT CAVOK 27/16 Q1017","temp":27,"dewp":16,"wdir":80,"wspd":8,"visib":"6+","altim":1017,"clouds":[],"obsTime":1774274400},"SBPS":{"icaoId":"SBPS","flightCategory":"VFR","rawOb":"METAR SBPS 231400Z 33007KT 9999 SCT020 BKN100 26/23 Q1014","temp":26,"dewp":23,"wdir":330,"wspd":7,"visib":"6+","altim":1014,"clouds":[{"cover":"SCT","base":2000},{"cover":"BKN","base":10000}],"obsTime":1774274400},"SBSC":{"icaoId":"SBSC","flightCategory":"VFR","rawOb":"METAR SBSC 231400Z 09003KT 9999 SCT030 30/21 Q1012","temp":30,"dewp":21,"wdir":90,"wspd":3,"visib":"6+","altim":1012,"clouds":[{"cover":"SCT","base":3000}],"obsTime":1774274400},"SBDN":{"icaoId":"SBDN","flightCategory":"VFR","rawOb":"METAR SBDN 231400Z 05006KT CAVOK 31/21 Q1013","temp":31,"dewp":21,"wdir":50,"wspd":6,"visib":"6+","altim":1013,"clouds":[],"obsTime":1774274400},"SBSJ":{"icaoId":"SBSJ","flightCategory":"VFR","rawOb":"METAR SBSJ 231400Z 13005KT CAVOK 25/// Q1016","temp":null,"dewp":null,"wdir":130,"wspd":5,"visib":"6+","altim":1016,"clouds":[],"obsTime":1774274400},"SBBU":{"icaoId":"SBBU","flightCategory":"VFR","rawOb":"METAR SBBU 231400Z 12010KT CAVOK 30/21 Q1015","temp":30,"dewp":21,"wdir":120,"wspd":10,"visib":"6+","altim":1015,"clouds":[],"obsTime":1774274400},"SBSM":{"icaoId":"SBSM","flightCategory":"VFR","rawOb":"METAR SBSM 231400Z 12003KT 070V170 9999 VCSH FEW030 FEW035TCU BKN100 29/24 Q1007","temp":29,"dewp":24,"wdir":120,"wspd":3,"visib":"6+","altim":1007,"clouds":[{"cover":"FEW","base":3000},{"cover":"FEW","base":3500},{"cover":"BKN","base":10000}],"obsTime":1774274400},"SBES":{"icaoId":"SBES","flightCategory":"VFR","rawOb":"METAR SBES 231400Z 08011KT 050V110 9999 VCSH FEW025TCU SCT030 27/// Q1013","temp":null,"dewp":null,"wdir":80,"wspd":11,"visib":"6+","altim":1013,"clouds":[{"cover":"FEW","base":2500},{"cover":"SCT","base":3000}],"obsTime":1774274400},"SBSR":{"icaoId":"SBSR","flightCategory":"VFR","rawOb":"METAR SBSR 231400Z 05005KT 360V130 CAVOK 30/16 Q1014","temp":30,"dewp":16,"wdir":50,"wspd":5,"visib":"6+","altim":1014,"clouds":[],"obsTime":1774274400},"SBAU":{"icaoId":"SBAU","flightCategory":"VFR","rawOb":"METAR SBAU 231400Z 01010KT CAVOK 33/21 Q1013","temp":33,"dewp":21,"wdir":10,"wspd":10,"visib":"6+","altim":1013,"clouds":[],"obsTime":1774274400},"SBTD":{"icaoId":"SBTD","flightCategory":"VFR","rawOb":"METAR SBTD 231400Z /////KT CAVOK 30/22 Q1014","temp":30,"dewp":22,"wdir":null,"wspd":null,"visib":"6+","altim":1014,"clouds":[],"obsTime":1774274400},"SBGM":{"icaoId":"SBGM","flightCategory":"VFR","rawOb":"METAR SBGM 231400Z 23002KT 9999 FEW010 28/22 Q1011","temp":28,"dewp":22,"wdir":230,"wspd":2,"visib":"6+","altim":1011,"clouds":[{"cover":"FEW","base":1000}],"obsTime":1774274400},"SBBH":{"icaoId":"SBBH","flightCategory":"VFR","rawOb":"METAR SBBH 231400Z 07006KT 9999 SCT035 27/19 Q1016","temp":27,"dewp":19,"wdir":70,"wspd":6,"visib":"6+","altim":1016,"clouds":[{"cover":"SCT","base":3500}],"obsTime":1774274400},"SBTF":{"icaoId":"SBTF","flightCategory":"VFR","rawOb":"METAR SBTF 231400Z 17005KT CAVOK 34/26 Q1010","temp":34,"dewp":26,"wdir":170,"wspd":5,"visib":"6+","altim":1010,"clouds":[],"obsTime":1774274400},"SBTT":{"icaoId":"SBTT","flightCategory":"VFR","rawOb":"METAR SBTT 231400Z 19006KT 150V260 9999 FEW047 27/21 Q1012","temp":27,"dewp":21,"wdir":190,"wspd":6,"visib":"6+","altim":1012,"clouds":[{"cover":"FEW","base":4700}],"obsTime":1774274400},"SBIP":{"icaoId":"SBIP","flightCategory":"VFR","rawOb":"METAR SBIP 231400Z AUTO VRB01KT 9999 -RA FEW005 BKN033 23/23 Q1014","temp":23,"dewp":23,"wdir":"VRB","wspd":1,"visib":"6+","altim":1014,"clouds":[{"cover":"FEW","base":500},{"cover":"BKN","base":3300}],"obsTime":1774274400},"SBCC":{"icaoId":"SBCC","flightCategory":"MVFR","rawOb":"METAR SBCC 231400Z 35016KT 310V020 8000 SHRA FEW015 SCT020 FEW025TCU BKN100 27/22 Q1014","temp":27,"dewp":22,"wdir":350,"wspd":16,"visib":4.97,"altim":1014,"clouds":[{"cover":"FEW","base":1500},{"cover":"SCT","base":2000},{"cover":"FEW","base":2500},{"cover":"BKN","base":10000}],"obsTime":1774274400},"SBUY":{"icaoId":"SBUY","flightCategory":"VFR","rawOb":"METAR SBUY 231400Z 23003KT 9999 FEW025 FEW030TCU 30/24 Q1010","temp":30,"dewp":24,"wdir":230,"wspd":3,"visib":"6+","altim":1010,"clouds":[{"cover":"FEW","base":2500},{"cover":"FEW","base":3000}],"obsTime":1774274400},"SBVH":{"icaoId":"SBVH","flightCategory":"VFR","rawOb":"METAR SBVH 231400Z 08008KT 9999 FEW020 SCT090 26/23 Q1014","temp":26,"dewp":23,"wdir":80,"wspd":8,"visib":"6+","altim":1014,"clouds":[{"cover":"FEW","base":2000},{"cover":"SCT","base":9000}],"obsTime":1774274400},"SBKG":{"icaoId":"SBKG","flightCategory":"VFR","rawOb":"METAR SBKG 231400Z 11010KT 9999 SCT025 28/21 Q1014","temp":28,"dewp":21,"wdir":110,"wspd":10,"visib":"6+","altim":1014,"clouds":[{"cover":"SCT","base":2500}],"obsTime":1774274400},"SBAR":{"icaoId":"SBAR","flightCategory":"VFR","rawOb":"METAR SBAR 231400Z 10013KT 9999 FEW023 31/23 Q1012","temp":31,"dewp":23,"wdir":100,"wspd":13,"visib":"6+","altim":1012,"clouds":[{"cover":"FEW","base":2300}],"obsTime":1774274400},"SBCA":{"icaoId":"SBCA","flightCategory":"VFR","rawOb":"METAR SBCA 231400Z 01014KT CAVOK 28/19 Q1016","temp":28,"dewp":19,"wdir":10,"wspd":14,"visib":"6+","altim":1016,"clouds":[],"obsTime":1774274400},"SBLE":{"icaoId":"SBLE","flightCategory":"IFR","rawOb":"METAR SBLE 231400Z AUTO 20005KT 160V260 9999 SCT005 BKN008 BKN035 ///// Q////","temp":null,"dewp":null,"wdir":200,"wspd":5,"visib":"6+","altim":null,"clouds":[{"cover":"SCT","base":500},{"cover":"BKN","base":800},{"cover":"BKN","base":3500}],"obsTime":1774274400},"SBAN":{"icaoId":"SBAN","flightCategory":"VFR","rawOb":"METAR SBAN 231400Z 09005KT 9999 SCT030 27/17 Q1018","temp":27,"dewp":17,"wdir":90,"wspd":5,"visib":"6+","altim":1018,"clouds":[{"cover":"SCT","base":3000}],"obsTime":1774274400},"SBAF":{"icaoId":"SBAF","flightCategory":"VFR","rawOb":"METAR SBAF 231400Z 08005KT 030V110 9999 FEW025 SCT035 29/22 Q1013","temp":29,"dewp":22,"wdir":80,"wspd":5,"visib":"6+","altim":1013,"clouds":[{"cover":"FEW","base":2500},{"cover":"SCT","base":3500}],"obsTime":1774274400},"SBGW":{"icaoId":"SBGW","flightCategory":"VFR","rawOb":"METAR SBGW 231400Z 04007KT 9999 FEW020 26/15 Q1015","temp":26,"dewp":15,"wdir":40,"wspd":7,"visib":"6+","altim":1015,"clouds":[{"cover":"FEW","base":2000}],"obsTime":1774274400},"SBIH":{"icaoId":"SBIH","flightCategory":"VFR","rawOb":"METAR SBIH 231400Z 10002KT 9999 SCT012 BKN080 29/24 Q1011","temp":29,"dewp":24,"wdir":100,"wspd":2,"visib":"6+","altim":1011,"clouds":[{"cover":"SCT","base":1200},{"cover":"BKN","base":8000}],"obsTime":1774274400},"SBJP":{"icaoId":"SBJP","flightCategory":"VFR","rawOb":"METAR SBJP 231400Z 06009KT 030V090 9999 SCT030 31/23 Q1012","temp":31,"dewp":23,"wdir":60,"wspd":9,"visib":"6+","altim":1012,"clouds":[{"cover":"SCT","base":3000}],"obsTime":1774274400},"SBJR":{"icaoId":"SBJR","flightCategory":"VFR","rawOb":"METAR SBJR 231400Z 17007KT 9999 FEW025 SCT030 32/22 Q1012","temp":32,"dewp":22,"wdir":170,"wspd":7,"visib":"6+","altim":1012,"clouds":[{"cover":"FEW","base":2500},{"cover":"SCT","base":3000}],"obsTime":1774274400},"SBJV":{"icaoId":"SBJV","flightCategory":"VFR","rawOb":"METAR SBJV 231400Z 04007KT 9999 FEW030 30/23 Q1013","temp":30,"dewp":23,"wdir":40,"wspd":7,"visib":"6+","altim":1013,"clouds":[{"cover":"FEW","base":3000}],"obsTime":1774274400},"SBLS":{"icaoId":"SBLS","flightCategory":"MVFR","rawOb":"METAR SBLS 231400Z VRB04KT 9999 BKN030 27/19 Q1016","temp":27,"dewp":19,"wdir":"VRB","wspd":4,"visib":"6+","altim":1016,"clouds":[{"cover":"BKN","base":3000}],"obsTime":1774274400},"SBMT":{"icaoId":"SBMT","flightCategory":"VFR","rawOb":"METAR SBMT 231400Z 09005KT CAVOK 25/16 Q1016","temp":25,"dewp":16,"wdir":90,"wspd":5,"visib":"6+","altim":1016,"clouds":[],"obsTime":1774274400},"SBNM":{"icaoId":"SBNM","flightCategory":"VFR","rawOb":"METAR SBNM 231400Z 35010KT 9999 FEW020 SCT080 30/23 Q1010","temp":30,"dewp":23,"wdir":350,"wspd":10,"visib":"6+","altim":1010,"clouds":[{"cover":"FEW","base":2000},{"cover":"SCT","base":8000}],"obsTime":1774274400},"SBPF":{"icaoId":"SBPF","flightCategory":"VFR","rawOb":"METAR SBPF 231400Z 03010KT CAVOK 25/21 Q1014","temp":25,"dewp":21,"wdir":30,"wspd":10,"visib":"6+","altim":1014,"clouds":[],"obsTime":1774274400},"SBST":{"icaoId":"SBST","flightCategory":"VFR","rawOb":"METAR SBST 231400Z 15004KT 100V220 9999 FEW025 29/19 Q1012","temp":29,"dewp":19,"wdir":150,"wspd":4,"visib":"6+","altim":1012,"clouds":[{"cover":"FEW","base":2500}],"obsTime":1774274400},"SBTA":{"icaoId":"SBTA","flightCategory":"VFR","rawOb":"METAR SBTA 231400Z 07006KT 030V100 9999 FEW025 26/18 Q1015","temp":26,"dewp":18,"wdir":70,"wspd":6,"visib":"6+","altim":1015,"clouds":[{"cover":"FEW","base":2500}],"obsTime":1774274400}}}