{"updated":1775974140,"count":49,"data":{"SBBE":{"icaoId":"SBBE","flightCategory":"VFR","rawOb":"METAR SBBE 120500Z 09004KT 9999 FEW015 SCT040 25/24 Q1012","temp":25,"dewp":24,"wdir":90,"wspd":4,"visib":"6+","altim":1012,"clouds":[{"cover":"FEW","base":1500},{"cover":"SCT","base":4000}],"obsTime":1775970000},"SBBR":{"icaoId":"SBBR","flightCategory":"VFR","rawOb":"METAR SBBR 120500Z 12009KT 9999 FEW030 21/19 Q1020","temp":21,"dewp":19,"wdir":120,"wspd":9,"visib":"6+","altim":1020,"clouds":[{"cover":"FEW","base":3000}],"obsTime":1775970000},"SBBV":{"icaoId":"SBBV","flightCategory":"VFR","rawOb":"METAR SBBV 120500Z 12006KT CAVOK 28/21 Q1011","temp":28,"dewp":21,"wdir":120,"wspd":6,"visib":"6+","altim":1011,"clouds":[],"obsTime":1775970000},"SBCF":{"icaoId":"SBCF","flightCategory":"VFR","rawOb":"METAR SBCF 120500Z 13006KT CAVOK 18/16 Q1022","temp":18,"dewp":16,"wdir":130,"wspd":6,"visib":"6+","altim":1022,"clouds":[],"obsTime":1775970000},"SBCG":{"icaoId":"SBCG","flightCategory":"VFR","rawOb":"METAR SBCG 120500Z 08011KT CAVOK 25/21 Q1016","temp":25,"dewp":21,"wdir":80,"wspd":11,"visib":"6+","altim":1016,"clouds":[],"obsTime":1775970000},"SBCT":{"icaoId":"SBCT","flightCategory":"IFR","rawOb":"SPECI SBCT 120435Z 09006KT 4000 -RA BKN006 OVC013 16/15 Q1023","temp":16,"dewp":15,"wdir":90,"wspd":6,"visib":2.49,"altim":1023,"clouds":[{"cover":"BKN","base":600},{"cover":"OVC","base":1300}],"obsTime":1775968500},"SBEG":{"icaoId":"SBEG","flightCategory":"VFR","rawOb":"METAR SBEG 120500Z 14003KT 090V170 9999 FEW008 FEW025TCU BKN070 25/25 Q1011","temp":25,"dewp":25,"wdir":140,"wspd":3,"visib":"6+","altim":1011,"clouds":[{"cover":"FEW","base":800},{"cover":"FEW","base":2500},{"cover":"BKN","base":7000}],"obsTime":1775970000},"SBFI":{"icaoId":"SBFI","flightCategory":"VFR","rawOb":"METAR SBFI 120500Z 09004KT 9999 VCTS FEW030 FEW035CB BKN100 22/20 Q1015","temp":22,"dewp":20,"wdir":90,"wspd":4,"visib":"6+","altim":1015,"clouds":[{"cover":"FEW","base":3000},{"cover":"FEW","base":3500},{"cover":"BKN","base":10000}],"obsTime":1775970000},"SBFL":{"icaoId":"SBFL","flightCategory":"MVFR","rawOb":"METAR SBFL 120500Z 31005KT 9999 -RA FEW015 BKN030 21/19 Q1020","temp":21,"dewp":19,"wdir":310,"wspd":5,"visib":"6+","altim":1020,"clouds":[{"cover":"FEW","base":1500},{"cover":"BKN","base":3000}],"obsTime":1775970000},"SBFZ":{"icaoId":"SBFZ","flightCategory":"MVFR","rawOb":"SPECI SBFZ 120430Z 16004KT 080V230 5000 +SHRA BKN015 FEW025TCU 24/23 Q1011","temp":24,"dewp":23,"wdir":160,"wspd":4,"visib":3.11,"altim":1011,"clouds":[{"cover":"BKN","base":1500},{"cover":"FEW","base":2500}],"obsTime":1775968200},"SBGL":{"icaoId":"SBGL","flightCategory":"VFR","rawOb":"METAR SBGL 120500Z 04003KT 9999 FEW035 21/20 Q1020","temp":21,"dewp":20,"wdir":40,"wspd":3,"visib":"6+","altim":1020,"clouds":[{"cover":"FEW","base":3500}],"obsTime":1775970000},"SBGO":{"icaoId":"SBGO","flightCategory":"VFR","rawOb":"METAR SBGO 120500Z 11006KT 080V140 CAVOK 23/20 Q1018","temp":23,"dewp":20,"wdir":110,"wspd":6,"visib":"6+","altim":1018,"clouds":[],"obsTime":1775970000},"SBGR":{"icaoId":"SBGR","flightCategory":"VFR","rawOb":"METAR SBGR 120500Z 07003KT CAVOK 15/14 Q1023","temp":15,"dewp":14,"wdir":70,"wspd":3,"visib":"6+","altim":1023,"clouds":[],"obsTime":1775970000},"SBKP":{"icaoId":"SBKP","flightCategory":"VFR","rawOb":"METAR SBKP 120500Z 12010KT 9999 FEW045 18/14 Q1021","temp":18,"dewp":14,"wdir":120,"wspd":10,"visib":"6+","altim":1021,"clouds":[{"cover":"FEW","base":4500}],"obsTime":1775970000},"SBLO":{"icaoId":"SBLO","flightCategory":"VFR","rawOb":"METAR SBLO 120500Z 12008KT CAVOK 19/15 Q1019","temp":19,"dewp":15,"wdir":120,"wspd":8,"visib":"6+","altim":1019,"clouds":[],"obsTime":1775970000},"SBMA":{"icaoId":"SBMA","flightCategory":"VFR","rawOb":"METAR SBMA 120500Z 00000KT 9999 SCT012 BKN080 26/25 Q1012","temp":26,"dewp":25,"wdir":0,"wspd":0,"visib":"6+","altim":1012,"clouds":[{"cover":"SCT","base":1200},{"cover":"BKN","base":8000}],"obsTime":1775970000},"SBMO":{"icaoId":"SBMO","flightCategory":"MVFR","rawOb":"METAR SBMO 120500Z 06005KT 8000 -RA FEW007 OVC070 23/23 Q1013","temp":23,"dewp":23,"wdir":60,"wspd":5,"visib":4.97,"altim":1013,"clouds":[{"cover":"FEW","base":700},{"cover":"OVC","base":7000}],"obsTime":1775970000},"SBMQ":{"icaoId":"SBMQ","flightCategory":"MVFR","rawOb":"METAR SBMQ 120500Z 30004KT 9999 FEW006 BKN026 25/24 Q1012","temp":25,"dewp":24,"wdir":300,"wspd":4,"visib":"6+","altim":1012,"clouds":[{"cover":"FEW","base":600},{"cover":"BKN","base":2600}],"obsTime":1775970000},"SBNT":{"icaoId":"SBNT","flightCategory":"VFR","rawOb":"METAR SBNT 120500Z 16004KT 9999 FEW018 SCT100 25/24 Q1011","temp":25,"dewp":24,"wdir":160,"wspd":4,"visib":"6+","altim":1011,"clouds":[{"cover":"FEW","base":1800},{"cover":"SCT","base":10000}],"obsTime":1775970000},"SBPA":{"icaoId":"SBPA","flightCategory":"VFR","rawOb":"METAR SBPA 120500Z 10005KT 9999 FEW030 BKN100 22/17 Q1017","temp":22,"dewp":17,"wdir":100,"wspd":5,"visib":"6+","altim":1017,"clouds":[{"cover":"FEW","base":3000},{"cover":"BKN","base":10000}],"obsTime":1775970000},"SBPJ":{"icaoId":"SBPJ","flightCategory":"VFR","rawOb":"METAR SBPJ 120500Z 18003KT 130V260 9999 FEW009 SCT013 26/24 Q1014","temp":26,"dewp":24,"wdir":180,"wspd":3,"visib":"6+","altim":1014,"clouds":[{"cover":"FEW","base":900},{"cover":"SCT","base":1300}],"obsTime":1775970000},"SBPV":{"icaoId":"SBPV","flightCategory":"VFR","rawOb":"METAR SBPV 120500Z 06004KT CAVOK 26/24 Q1011","temp":26,"dewp":24,"wdir":60,"wspd":4,"visib":"6+","altim":1011,"clouds":[],"obsTime":1775970000},"SBRB":{"icaoId":"SBRB","flightCategory":"MVFR","rawOb":"METAR SBRB 120500Z 23001KT 5000 BR FEW030 24/23 Q1012","temp":24,"dewp":23,"wdir":230,"wspd":1,"visib":3.11,"altim":1012,"clouds":[{"cover":"FEW","base":3000}],"obsTime":1775970000},"SBRF":{"icaoId":"SBRF","flightCategory":"MVFR","rawOb":"METAR SBRF 120500Z 23009KT 9000 VCSH FEW012 BKN015 BKN070 25/24 Q1012","temp":25,"dewp":24,"wdir":230,"wspd":9,"visib":5.59,"altim":1012,"clouds":[{"cover":"FEW","base":1200},{"cover":"BKN","base":1500},{"cover":"BKN","base":7000}],"obsTime":1775970000},"SBSG":{"icaoId":"SBSG","flightCategory":"VFR","rawOb":"METAR SBSG 120500Z 20002KT 9999 SCT020 FEW025TCU BKN080 24/23 Q1012","temp":24,"dewp":23,"wdir":200,"wspd":2,"visib":"6+","altim":1012,"clouds":[{"cover":"SCT","base":2000},{"cover":"FEW","base":2500},{"cover":"BKN","base":8000}],"obsTime":1775970000},"SBSL":{"icaoId":"SBSL","flightCategory":"VFR","rawOb":"METAR SBSL 120500Z 06006KT 9999 FEW015 SCT080 25/25 Q1011","temp":25,"dewp":25,"wdir":60,"wspd":6,"visib":"6+","altim":1011,"clouds":[{"cover":"FEW","base":1500},{"cover":"SCT","base":8000}],"obsTime":1775970000},"SBSN":{"icaoId":"SBSN","flightCategory":"VFR","rawOb":"METAR SBSN 120500Z 09011KT 9999 FEW020 SCT080 27/24 Q1011","temp":27,"dewp":24,"wdir":90,"wspd":11,"visib":"6+","altim":1011,"clouds":[{"cover":"FEW","base":2000},{"cover":"SCT","base":8000}],"obsTime":1775970000},"SBSP":{"icaoId":"SBSP","flightCategory":"VFR","rawOb":"METAR SBSP 120500Z AUTO 10005KT CAVOK 17/14 Q1023","temp":17,"dewp":14,"wdir":100,"wspd":5,"visib":"6+","altim":1023,"clouds":[],"obsTime":1775970000},"SBSV":{"icaoId":"SBSV","flightCategory":"VFR","rawOb":"METAR SBSV 120500Z 12007KT 090V150 9999 SCT023 27/23 Q1014","temp":27,"dewp":23,"wdir":120,"wspd":7,"visib":"6+","altim":1014,"clouds":[{"cover":"SCT","base":2300}],"obsTime":1775970000},"SBTE":{"icaoId":"SBTE","flightCategory":"VFR","rawOb":"METAR SBTE 120500Z 36003KT 9999 FEW015 BKN090 25/24 Q1011","temp":25,"dewp":24,"wdir":360,"wspd":3,"visib":"6+","altim":1011,"clouds":[{"cover":"FEW","base":1500},{"cover":"BKN","base":9000}],"obsTime":1775970000},"SBVT":{"icaoId":"SBVT","flightCategory":"VFR","rawOb":"METAR SBVT 120500Z 27002KT 9999 FEW007 SCT023 BKN080 21/21 Q1018","temp":21,"dewp":21,"wdir":270,"wspd":2,"visib":"6+","altim":1018,"clouds":[{"cover":"FEW","base":700},{"cover":"SCT","base":2300},{"cover":"BKN","base":8000}],"obsTime":1775970000},"SBME":{"icaoId":"SBME","flightCategory":"VFR","rawOb":"METAR SBME 120500Z 28004KT 9999 SCT028 BKN084 22/20 Q1020","temp":22,"dewp":20,"wdir":280,"wspd":4,"visib":"6+","altim":1020,"clouds":[{"cover":"SCT","base":2800},{"cover":"BKN","base":8400}],"obsTime":1775970000},"SBMG":{"icaoId":"SBMG","flightCategory":"VFR","rawOb":"METAR SBMG 120500Z AUTO 09013KT CAVOK 21/14 Q1017","temp":21,"dewp":14,"wdir":90,"wspd":13,"visib":"6+","altim":1017,"clouds":[],"obsTime":1775970000},"SBUL":{"icaoId":"SBUL","flightCategory":"VFR","rawOb":"METAR SBUL 120500Z 13008KT 090V170 CAVOK 21/18 Q1020","temp":21,"dewp":18,"wdir":130,"wspd":8,"visib":"6+","altim":1020,"clouds":[],"obsTime":1775970000},"SBJU":{"icaoId":"SBJU","flightCategory":"VFR","rawOb":"METAR SBJU 120500Z 00000KT CAVOK 23/20 Q1014","temp":23,"dewp":20,"wdir":0,"wspd":0,"visib":"6+","altim":1014,"clouds":[],"obsTime":1775970000},"SBUR":{"icaoId":"SBUR","flightCategory":"VFR","rawOb":"METAR SBUR 120500Z 08006KT CAVOK 22/18 Q1019","temp":22,"dewp":18,"wdir":80,"wspd":6,"visib":"6+","altim":1019,"clouds":[],"obsTime":1775970000},"SBPS":{"icaoId":"SBPS","flightCategory":"MVFR","rawOb":"METAR SBPS 120500Z 25005KT 8000 -RA SCT020 SCT050 23/23 Q1016","temp":23,"dewp":23,"wdir":250,"wspd":5,"visib":4.97,"altim":1016,"clouds":[{"cover":"SCT","base":2000},{"cover":"SCT","base":5000}],"obsTime":1775970000},"SBAR":{"icaoId":"SBAR","flightCategory":"VFR","rawOb":"METAR SBAR 120500Z 08006KT 9999 SCT020 26/23 Q1013","temp":26,"dewp":23,"wdir":80,"wspd":6,"visib":"6+","altim":1013,"clouds":[{"cover":"SCT","base":2000}],"obsTime":1775970000},"SBOI":{"icaoId":"SBOI","flightCategory":"VFR","rawOb":"METAR SBOI 120500Z AUTO 00000KT 9999 SCT020 25/24 Q1012","temp":25,"dewp":24,"wdir":0,"wspd":0,"visib":"6+","altim":1012,"clouds":[{"cover":"SCT","base":2000}],"obsTime":1775970000},"SBPL":{"icaoId":"SBPL","flightCategory":"VFR","rawOb":"METAR SBPL 120500Z 12007KT 9999 FEW025 BKN070 25/22 Q1015","temp":25,"dewp":22,"wdir":120,"wspd":7,"visib":"6+","altim":1015,"clouds":[{"cover":"FEW","base":2500},{"cover":"BKN","base":7000}],"obsTime":1775970000},"SBKG":{"icaoId":"SBKG","flightCategory":"MVFR","rawOb":"METAR SBKG 120500Z 18005KT 9999 BKN010 22/22 Q1014","temp":22,"dewp":22,"wdir":180,"wspd":5,"visib":"6+","altim":1014,"clouds":[{"cover":"BKN","base":1000}],"obsTime":1775970000},"SBSC":{"icaoId":"SBSC","flightCategory":"VFR","rawOb":"METAR SBSC 120500Z 13002KT CAVOK 20/19 Q1021","temp":20,"dewp":19,"wdir":130,"wspd":2,"visib":"6+","altim":1021,"clouds":[],"obsTime":1775970000},"SBSR":{"icaoId":"SBSR","flightCategory":"VFR","rawOb":"METAR SBSR 120500Z 12006KT 9999 FEW030 23/19 Q1017","temp":23,"dewp":19,"wdir":120,"wspd":6,"visib":"6+","altim":1017,"clouds":[{"cover":"FEW","base":3000}],"obsTime":1775970000},"SBAX":{"icaoId":"SBAX","flightCategory":"VFR","rawOb":"METAR SBAX 120500Z AUTO 11011KT CAVOK 19/19 Q1021","temp":19,"dewp":19,"wdir":110,"wspd":11,"visib":"6+","altim":1021,"clouds":[],"obsTime":1775970000},"SBDN":{"icaoId":"SBDN","flightCategory":"VFR","rawOb":"METAR SBDN 120500Z 11012KT CAVOK 21/15 Q1017","temp":21,"dewp":15,"wdir":110,"wspd":12,"visib":"6+","altim":1017,"clouds":[],"obsTime":1775970000},"SBIP":{"icaoId":"SBIP","flightCategory":"VFR","rawOb":"METAR SBIP 120500Z AUTO 00000KT 9999 SCT039 21/20 Q1019","temp":21,"dewp":20,"wdir":0,"wspd":0,"visib":"6+","altim":1019,"clouds":[{"cover":"SCT","base":3900}],"obsTime":1775970000},"SBJP":{"icaoId":"SBJP","flightCategory":"VFR","rawOb":"METAR SBJP 120500Z 18004KT CAVOK 25/25 Q1012","temp":25,"dewp":25,"wdir":180,"wspd":4,"visib":"6+","altim":1012,"clouds":[],"obsTime":1775970000},"SBLE":{"icaoId":"SBLE","flightCategory":"VFR","rawOb":"METAR SBLE 120500Z AUTO VRB01KT CAVOK ///// Q////","temp":null,"dewp":null,"wdir":"VRB","wspd":1,"visib":"6+","altim":null,"clouds":[],"obsTime":1775970000},"SBAN":{"icaoId":"SBAN","flightCategory":"VFR","rawOb":"METAR SBAN 120500Z 15005KT CAVOK 20/18 Q1021","temp":20,"dewp":18,"wdir":150,"wspd":5,"visib":"6+","altim":1021,"clouds":[],"obsTime":1775970000}}}