{"updated":1776455340,"count":84,"data":{"SBCG":{"icaoId":"SBCG","flightCategory":"VFR","rawOb":"METAR SBCG 171800Z 21006KT 170V270 9999 VCSH BKN035 FEW040TCU SCT050 30/22 Q1010","temp":30,"dewp":22,"wdir":210,"wspd":6,"visib":"6+","altim":1010,"clouds":[{"cover":"BKN","base":3500},{"cover":"FEW","base":4000},{"cover":"SCT","base":5000}],"obsTime":1776448800},"SBSL":{"icaoId":"SBSL","flightCategory":"MVFR","rawOb":"METAR SBSL 171800Z 08012KT 9999 BKN020 SCT090 29/25 Q1005","temp":29,"dewp":25,"wdir":80,"wspd":12,"visib":"6+","altim":1005,"clouds":[{"cover":"BKN","base":2000},{"cover":"SCT","base":9000}],"obsTime":1776448800},"SBBE":{"icaoId":"SBBE","flightCategory":"VFR","rawOb":"METAR SBBE 171800Z 08010KT 9999 -RA FEW009 SCT030 BKN064 25/24 Q1006","temp":25,"dewp":24,"wdir":80,"wspd":10,"visib":"6+","altim":1006,"clouds":[{"cover":"FEW","base":900},{"cover":"SCT","base":3000},{"cover":"BKN","base":6400}],"obsTime":1776448800},"SBBR":{"icaoId":"SBBR","flightCategory":"VFR","rawOb":"METAR SBBR 171800Z VRB02KT 9999 SCT040 FEW045TCU SCT100 27/17 Q1014","temp":27,"dewp":17,"wdir":"VRB","wspd":2,"visib":"6+","altim":1014,"clouds":[{"cover":"SCT","base":4000},{"cover":"FEW","base":4500},{"cover":"SCT","base":10000}],"obsTime":1776448800},"SBRB":{"icaoId":"SBRB","flightCategory":"VFR","rawOb":"METAR SBRB 171800Z 28002KT 9999 FEW010 SCT020 BKN100 26/23 Q1010","temp":26,"dewp":23,"wdir":280,"wspd":2,"visib":"6+","altim":1010,"clouds":[{"cover":"FEW","base":1000},{"cover":"SCT","base":2000},{"cover":"BKN","base":10000}],"obsTime":1776448800},"SBAT":{"icaoId":"SBAT","flightCategory":"VFR","rawOb":"METAR SBAT 171800Z 13005KT 9999 VCSH FEW018 FEW030TCU 28/26 Q1008","temp":28,"dewp":26,"wdir":130,"wspd":5,"visib":"6+","altim":1008,"clouds":[{"cover":"FEW","base":1800},{"cover":"FEW","base":3000}],"obsTime":1776448800},"SBBV":{"icaoId":"SBBV","flightCategory":"VFR","rawOb":"METAR SBBV 171800Z 11012KT 9999 SCT025 FEW035TCU BKN100 32/21 Q1008","temp":32,"dewp":21,"wdir":110,"wspd":12,"visib":"6+","altim":1008,"clouds":[{"cover":"SCT","base":2500},{"cover":"FEW","base":3500},{"cover":"BKN","base":10000}],"obsTime":1776448800},"SBCB":{"icaoId":"SBCB","flightCategory":"VFR","rawOb":"METAR SBCB 171800Z 09012KT 9999 FEW025 27/21 Q1008","temp":27,"dewp":21,"wdir":90,"wspd":12,"visib":"6+","altim":1008,"clouds":[{"cover":"FEW","base":2500}],"obsTime":1776448800},"SBCF":{"icaoId":"SBCF","flightCategory":"VFR","rawOb":"METAR SBCF 171800Z 03004KT 330V070 9999 SCT045 25/15 Q1013","temp":25,"dewp":15,"wdir":30,"wspd":4,"visib":"6+","altim":1013,"clouds":[{"cover":"SCT","base":4500}],"obsTime":1776448800},"SBCP":{"icaoId":"SBCP","flightCategory":"VFR","rawOb":"METAR SBCP 171800Z 08009KT 9999 SCT020 30/21 Q1008","temp":30,"dewp":21,"wdir":80,"wspd":9,"visib":"6+","altim":1008,"clouds":[{"cover":"SCT","base":2000}],"obsTime":1776448800},"SBCR":{"icaoId":"SBCR","flightCategory":"VFR","rawOb":"METAR SBCR 171800Z VRB02KT 9999 BKN040 FEW045TCU 32/22 Q1007","temp":32,"dewp":22,"wdir":"VRB","wspd":2,"visib":"6+","altim":1007,"clouds":[{"cover":"BKN","base":4000},{"cover":"FEW","base":4500}],"obsTime":1776448800},"SBCT":{"icaoId":"SBCT","flightCategory":"VFR","rawOb":"METAR SBCT 171800Z 27007KT 9999 BKN045 FEW050TCU 27/17 Q1011","temp":27,"dewp":17,"wdir":270,"wspd":7,"visib":"6+","altim":1011,"clouds":[{"cover":"BKN","base":4500},{"cover":"FEW","base":5000}],"obsTime":1776448800},"SBCZ":{"icaoId":"SBCZ","flightCategory":"VFR","rawOb":"METAR SBCZ 171800Z 12004KT 100V160 9999 SCT008 SCT015 BKN090 26/24 Q1010","temp":26,"dewp":24,"wdir":120,"wspd":4,"visib":"6+","altim":1010,"clouds":[{"cover":"SCT","base":800},{"cover":"SCT","base":1500},{"cover":"BKN","base":9000}],"obsTime":1776448800},"SBEG":{"icaoId":"SBEG","flightCategory":"MVFR","rawOb":"METAR SBEG 171800Z 29004KT 250V330 8000 2500W -TSRA BCFG SCT002 BKN019 FEW025CB 24/24 Q1008","temp":24,"dewp":24,"wdir":290,"wspd":4,"visib":4.97,"altim":1008,"clouds":[{"cover":"SCT","base":200},{"cover":"BKN","base":1900},{"cover":"FEW","base":2500}],"obsTime":1776448800},"SBFI":{"icaoId":"SBFI","flightCategory":"MVFR","rawOb":"METAR SBFI 171800Z 27006KT 9999 BKN030 28/20 Q1009","temp":28,"dewp":20,"wdir":270,"wspd":6,"visib":"6+","altim":1009,"clouds":[{"cover":"BKN","base":3000}],"obsTime":1776448800},"SBFL":{"icaoId":"SBFL","flightCategory":"VFR","rawOb":"METAR SBFL 171800Z 35009KT 9999 SCT040 29/23 Q1005","temp":29,"dewp":23,"wdir":350,"wspd":9,"visib":"6+","altim":1005,"clouds":[{"cover":"SCT","base":4000}],"obsTime":1776448800},"SBFZ":{"icaoId":"SBFZ","flightCategory":"VFR","rawOb":"METAR SBFZ 171800Z 09014KT CAVOK 30/24 Q1005","temp":30,"dewp":24,"wdir":90,"wspd":14,"visib":"6+","altim":1005,"clouds":[],"obsTime":1776448800},"SBGL":{"icaoId":"SBGL","flightCategory":"VFR","rawOb":"METAR SBGL 171800Z 13009KT 9999 SCT013 29/21 Q1007","temp":29,"dewp":21,"wdir":130,"wspd":9,"visib":"6+","altim":1007,"clouds":[{"cover":"SCT","base":1300}],"obsTime":1776448800},"SBGO":{"icaoId":"SBGO","flightCategory":"VFR","rawOb":"METAR SBGO 171800Z 33008KT 9999 SCT040 FEW048TCU 29/21 Q1011","temp":29,"dewp":21,"wdir":330,"wspd":8,"visib":"6+","altim":1011,"clouds":[{"cover":"SCT","base":4000},{"cover":"FEW","base":4800}],"obsTime":1776448800},"SBGR":{"icaoId":"SBGR","flightCategory":"VFR","rawOb":"METAR SBGR 171800Z 30007KT CAVOK 30/15 Q1012","temp":30,"dewp":15,"wdir":300,"wspd":7,"visib":"6+","altim":1012,"clouds":[],"obsTime":1776448800},"SBHT":{"icaoId":"SBHT","flightCategory":"VFR","rawOb":"METAR SBHT 171800Z 24007KT 9999 SCT030 32/26 Q1006","temp":32,"dewp":26,"wdir":240,"wspd":7,"visib":"6+","altim":1006,"clouds":[{"cover":"SCT","base":3000}],"obsTime":1776448800},"SBIL":{"icaoId":"SBIL","flightCategory":"VFR","rawOb":"METAR SBIL 171800Z 16006KT 9999 FEW025 30/24 Q1009","temp":30,"dewp":24,"wdir":160,"wspd":6,"visib":"6+","altim":1009,"clouds":[{"cover":"FEW","base":2500}],"obsTime":1776448800},"SBJU":{"icaoId":"SBJU","flightCategory":"VFR","rawOb":"METAR SBJU 171800Z 07004KT 9999 SCT022 31/21 Q1008","temp":31,"dewp":21,"wdir":70,"wspd":4,"visib":"6+","altim":1008,"clouds":[{"cover":"SCT","base":2200}],"obsTime":1776448800},"SBKP":{"icaoId":"SBKP","flightCategory":"VFR","rawOb":"METAR SBKP 171800Z 27005KT 210V320 CAVOK 30/14 Q1011","temp":30,"dewp":14,"wdir":270,"wspd":5,"visib":"6+","altim":1011,"clouds":[],"obsTime":1776448800},"SBLO":{"icaoId":"SBLO","flightCategory":"VFR","rawOb":"METAR SBLO 171800Z 33011KT 9999 SCT035 31/19 Q1010","temp":31,"dewp":19,"wdir":330,"wspd":11,"visib":"6+","altim":1010,"clouds":[{"cover":"SCT","base":3500}],"obsTime":1776448800},"SBMA":{"icaoId":"SBMA","flightCategory":"VFR","rawOb":"METAR SBMA 171800Z 36005KT 9999 SCT020 FEW023TCU 32/25 Q1005","temp":32,"dewp":25,"wdir":360,"wspd":5,"visib":"6+","altim":1005,"clouds":[{"cover":"SCT","base":2000},{"cover":"FEW","base":2300}],"obsTime":1776448800},"SBME":{"icaoId":"SBME","flightCategory":"VFR","rawOb":"METAR SBME 171800Z 10010KT CAVOK 28/22 Q1007","temp":28,"dewp":22,"wdir":100,"wspd":10,"visib":"6+","altim":1007,"clouds":[],"obsTime":1776448800},"SBMG":{"icaoId":"SBMG","flightCategory":"VFR","rawOb":"METAR SBMG 171800Z 31008KT 9999 SCT045 FEW050TCU 29/21 Q1009","temp":29,"dewp":21,"wdir":310,"wspd":8,"visib":"6+","altim":1009,"clouds":[{"cover":"SCT","base":4500},{"cover":"FEW","base":5000}],"obsTime":1776448800},"SBMK":{"icaoId":"SBMK","flightCategory":"VFR","rawOb":"METAR SBMK 171800Z 17005KT 9999 BKN045 28/16 Q1012","temp":28,"dewp":16,"wdir":170,"wspd":5,"visib":"6+","altim":1012,"clouds":[{"cover":"BKN","base":4500}],"obsTime":1776448800},"SBMO":{"icaoId":"SBMO","flightCategory":"MVFR","rawOb":"METAR SBMO 171800Z 18007KT 9999 BKN020 SCT060 27/25 Q1008","temp":27,"dewp":25,"wdir":180,"wspd":7,"visib":"6+","altim":1008,"clouds":[{"cover":"BKN","base":2000},{"cover":"SCT","base":6000}],"obsTime":1776448800},"SBMQ":{"icaoId":"SBMQ","flightCategory":"MVFR","rawOb":"METAR SBMQ 171800Z 06004KT 9999 SCT015 BKN025 BKN070 28/26 Q1006 RETS","temp":28,"dewp":26,"wdir":60,"wspd":4,"visib":"6+","altim":1006,"clouds":[{"cover":"SCT","base":1500},{"cover":"BKN","base":2500},{"cover":"BKN","base":7000}],"obsTime":1776448800},"SBNT":{"icaoId":"SBNT","flightCategory":"VFR","rawOb":"METAR SBNT 171800Z 12015KT 9999 FEW023 SCT036 BKN060 30/23 Q1006","temp":30,"dewp":23,"wdir":120,"wspd":15,"visib":"6+","altim":1006,"clouds":[{"cover":"FEW","base":2300},{"cover":"SCT","base":3600},{"cover":"BKN","base":6000}],"obsTime":1776448800},"SBPA":{"icaoId":"SBPA","flightCategory":"VFR","rawOb":"METAR SBPA 171800Z 29015KT 250V310 9999 SCT035 28/18 Q1006","temp":28,"dewp":18,"wdir":290,"wspd":15,"visib":"6+","altim":1006,"clouds":[{"cover":"SCT","base":3500}],"obsTime":1776448800},"SBPJ":{"icaoId":"SBPJ","flightCategory":"VFR","rawOb":"METAR SBPJ 171800Z 13004KT 9999 VCTS FEW018 FEW027CB BKN045 30/24 Q1007 RETS","temp":30,"dewp":24,"wdir":130,"wspd":4,"visib":"6+","altim":1007,"clouds":[{"cover":"FEW","base":1800},{"cover":"FEW","base":2700},{"cover":"BKN","base":4500}],"obsTime":1776448800},"SBPV":{"icaoId":"SBPV","flightCategory":"MVFR","rawOb":"METAR SBPV 171800Z 22002KT 8000 BKN015 BKN025 27/25 Q1007","temp":27,"dewp":25,"wdir":220,"wspd":2,"visib":4.97,"altim":1007,"clouds":[{"cover":"BKN","base":1500},{"cover":"BKN","base":2500}],"obsTime":1776448800},"SBRF":{"icaoId":"SBRF","flightCategory":"VFR","rawOb":"METAR SBRF 171800Z 13008KT 090V170 9999 SCT023 29/24 Q1007","temp":29,"dewp":24,"wdir":130,"wspd":8,"visib":"6+","altim":1007,"clouds":[{"cover":"SCT","base":2300}],"obsTime":1776448800},"SBSG":{"icaoId":"SBSG","flightCategory":"VFR","rawOb":"METAR SBSG 171800Z 12009KT 090V170 9999 SCT033 30/24 Q1007","temp":30,"dewp":24,"wdir":120,"wspd":9,"visib":"6+","altim":1007,"clouds":[{"cover":"SCT","base":3300}],"obsTime":1776448800},"SBSN":{"icaoId":"SBSN","flightCategory":"VFR","rawOb":"METAR SBSN 171800Z 09009KT 040V110 9999 FEW023 FEW040TCU BKN100 30/24 Q1006","temp":30,"dewp":24,"wdir":90,"wspd":9,"visib":"6+","altim":1006,"clouds":[{"cover":"FEW","base":2300},{"cover":"FEW","base":4000},{"cover":"BKN","base":10000}],"obsTime":1776448800},"SBSP":{"icaoId":"SBSP","flightCategory":"VFR","rawOb":"METAR SBSP 171800Z VRB06KT CAVOK 29/15 Q1012","temp":29,"dewp":15,"wdir":"VRB","wspd":6,"visib":"6+","altim":1012,"clouds":[],"obsTime":1776448800},"SBSV":{"icaoId":"SBSV","flightCategory":"VFR","rawOb":"METAR SBSV 171800Z 13008KT 9999 SCT021 30/23 Q1008","temp":30,"dewp":23,"wdir":130,"wspd":8,"visib":"6+","altim":1008,"clouds":[{"cover":"SCT","base":2100}],"obsTime":1776448800},"SBTE":{"icaoId":"SBTE","flightCategory":"VFR","rawOb":"METAR SBTE 171800Z 20003KT 9999 SCT025 33/23 Q1004","temp":33,"dewp":23,"wdir":200,"wspd":3,"visib":"6+","altim":1004,"clouds":[{"cover":"SCT","base":2500}],"obsTime":1776448800},"SBUL":{"icaoId":"SBUL","flightCategory":"VFR","rawOb":"METAR SBUL 171800Z 04005KT 9999 SCT049 27/16 Q1014","temp":27,"dewp":16,"wdir":40,"wspd":5,"visib":"6+","altim":1014,"clouds":[{"cover":"SCT","base":4900}],"obsTime":1776448800},"SBUR":{"icaoId":"SBUR","flightCategory":"VFR","rawOb":"METAR SBUR 171800Z 28006KT CAVOK 29/15 Q1012","temp":29,"dewp":15,"wdir":280,"wspd":6,"visib":"6+","altim":1012,"clouds":[],"obsTime":1776448800},"SBVT":{"icaoId":"SBVT","flightCategory":"VFR","rawOb":"METAR SBVT 171800Z 07009KT 9999 FEW040 BKN100 28/21 Q1008","temp":28,"dewp":21,"wdir":70,"wspd":9,"visib":"6+","altim":1008,"clouds":[{"cover":"FEW","base":4000},{"cover":"BKN","base":10000}],"obsTime":1776448800},"SBCA":{"icaoId":"SBCA","flightCategory":"MVFR","rawOb":"METAR SBCA 171800Z 28010KT 240V300 9999 BKN020 FEW025TCU 25/20 Q1012","temp":25,"dewp":20,"wdir":280,"wspd":10,"visib":"6+","altim":1012,"clouds":[{"cover":"BKN","base":2000},{"cover":"FEW","base":2500}],"obsTime":1776448800},"SBAR":{"icaoId":"SBAR","flightCategory":"VFR","rawOb":"METAR SBAR 171800Z 12009KT 9999 SCT023 30/23 Q1008","temp":30,"dewp":23,"wdir":120,"wspd":9,"visib":"6+","altim":1008,"clouds":[{"cover":"SCT","base":2300}],"obsTime":1776448800},"SBAX":{"icaoId":"SBAX","flightCategory":"VFR","rawOb":"METAR SBAX 171800Z 31005KT 9999 SCT030 28/14 Q1014","temp":28,"dewp":14,"wdir":310,"wspd":5,"visib":"6+","altim":1014,"clouds":[{"cover":"SCT","base":3000}],"obsTime":1776448800},"SBBH":{"icaoId":"SBBH","flightCategory":"VFR","rawOb":"METAR SBBH 171800Z 00000KT 9999 BKN049 27/15 Q1013","temp":27,"dewp":15,"wdir":0,"wspd":0,"visib":"6+","altim":1013,"clouds":[{"cover":"BKN","base":4900}],"obsTime":1776448800},"SBBQ":{"icaoId":"SBBQ","flightCategory":"VFR","rawOb":"METAR SBBQ 171800Z 28003KT 9999 SCT045 26/11 Q1015","temp":26,"dewp":11,"wdir":280,"wspd":3,"visib":"6+","altim":1015,"clouds":[{"cover":"SCT","base":4500}],"obsTime":1776448800},"SBBU":{"icaoId":"SBBU","flightCategory":"VFR","rawOb":"METAR SBBU 171800Z 27007KT 9999 SCT040 32/17 Q1010","temp":32,"dewp":17,"wdir":270,"wspd":7,"visib":"6+","altim":1010,"clouds":[{"cover":"SCT","base":4000}],"obsTime":1776448800},"SBCC":{"icaoId":"SBCC","flightCategory":"VFR","rawOb":"METAR SBCC 171800Z 30006KT 9999 SCT030 FEW035TCU BKN100 24/22 Q1008 RETS","temp":24,"dewp":22,"wdir":300,"wspd":6,"visib":"6+","altim":1008,"clouds":[{"cover":"SCT","base":3000},{"cover":"FEW","base":3500},{"cover":"BKN","base":10000}],"obsTime":1776448800},"SBCJ":{"icaoId":"SBCJ","flightCategory":"VFR","rawOb":"METAR SBCJ 171800Z 09005KT 9999 SCT017 FEW020TCU 28/22 Q1010","temp":28,"dewp":22,"wdir":90,"wspd":5,"visib":"6+","altim":1010,"clouds":[{"cover":"SCT","base":1700},{"cover":"FEW","base":2000}],"obsTime":1776448800},"SBCO":{"icaoId":"SBCO","flightCategory":"VFR","rawOb":"METAR SBCO 171800Z 28011KT 9999 SCT043 27/18 Q1006","temp":27,"dewp":18,"wdir":280,"wspd":11,"visib":"6+","altim":1006,"clouds":[{"cover":"SCT","base":4300}],"obsTime":1776448800},"SBDN":{"icaoId":"SBDN","flightCategory":"VFR","rawOb":"METAR SBDN 171800Z 31004KT CAVOK 32/19 Q1009","temp":32,"dewp":19,"wdir":310,"wspd":4,"visib":"6+","altim":1009,"clouds":[],"obsTime":1776448800},"SBES":{"icaoId":"SBES","flightCategory":"VFR","rawOb":"METAR SBES 171800Z 07007KT 330V120 9999 FEW020 29/// Q1008","temp":null,"dewp":null,"wdir":70,"wspd":7,"visib":"6+","altim":1008,"clouds":[{"cover":"FEW","base":2000}],"obsTime":1776448800},"SBGM":{"icaoId":"SBGM","flightCategory":"MVFR","rawOb":"METAR SBGM 171800Z 30004KT 5000 -DZ SCT004 OVC050 23/22 Q1009","temp":23,"dewp":22,"wdir":300,"wspd":4,"visib":3.11,"altim":1009,"clouds":[{"cover":"SCT","base":400},{"cover":"OVC","base":5000}],"obsTime":1776448800},"SBIP":{"icaoId":"SBIP","flightCategory":"VFR","rawOb":"METAR SBIP 171800Z AUTO 04007KT 360V060 CAVOK 28/18 Q1010","temp":28,"dewp":18,"wdir":40,"wspd":7,"visib":"6+","altim":1010,"clouds":[],"obsTime":1776448800},"SBKG":{"icaoId":"SBKG","flightCategory":"VFR","rawOb":"METAR SBKG 171800Z 11008KT 9999 SCT025 30/22 Q1009","temp":30,"dewp":22,"wdir":110,"wspd":8,"visib":"6+","altim":1009,"clouds":[{"cover":"SCT","base":2500}],"obsTime":1776448800},"SBOI":{"icaoId":"SBOI","flightCategory":"VFR","rawOb":"METAR SBOI 171800Z AUTO 03010KT 9999 BKN032 31/25 Q1006","temp":31,"dewp":25,"wdir":30,"wspd":10,"visib":"6+","altim":1006,"clouds":[{"cover":"BKN","base":3200}],"obsTime":1776448800},"SBPB":{"icaoId":"SBPB","flightCategory":"VFR","rawOb":"METAR SBPB 171800Z 05012KT 9999 SCT016 FEW025TCU BKN080 30/26 Q1005","temp":30,"dewp":26,"wdir":50,"wspd":12,"visib":"6+","altim":1005,"clouds":[{"cover":"SCT","base":1600},{"cover":"FEW","base":2500},{"cover":"BKN","base":8000}],"obsTime":1776448800},"SBPL":{"icaoId":"SBPL","flightCategory":"VFR","rawOb":"METAR SBPL 171800Z 10006KT 9999 FEW030 33/17 Q1008","temp":33,"dewp":17,"wdir":100,"wspd":6,"visib":"6+","altim":1008,"clouds":[{"cover":"FEW","base":3000}],"obsTime":1776448800},"SBPP":{"icaoId":"SBPP","flightCategory":"VFR","rawOb":"METAR SBPP 171800Z 28010KT 9999 SCT020 28/21 Q1011","temp":28,"dewp":21,"wdir":280,"wspd":10,"visib":"6+","altim":1011,"clouds":[{"cover":"SCT","base":2000}],"obsTime":1776448800},"SBPS":{"icaoId":"SBPS","flightCategory":"VFR","rawOb":"METAR SBPS 171800Z 13007KT 080V170 9999 SCT025 27/23 Q1009","temp":27,"dewp":23,"wdir":130,"wspd":7,"visib":"6+","altim":1009,"clouds":[{"cover":"SCT","base":2500}],"obsTime":1776448800},"SBSC":{"icaoId":"SBSC","flightCategory":"VFR","rawOb":"METAR SBSC 171800Z 23006KT CAVOK 30/22 Q1007","temp":30,"dewp":22,"wdir":230,"wspd":6,"visib":"6+","altim":1007,"clouds":[],"obsTime":1776448800},"SBSJ":{"icaoId":"SBSJ","flightCategory":"VFR","rawOb":"METAR SBSJ 171800Z VRB05KT 9999 FEW040 29/15 Q1011","temp":29,"dewp":15,"wdir":"VRB","wspd":5,"visib":"6+","altim":1011,"clouds":[{"cover":"FEW","base":4000}],"obsTime":1776448800},"SBSM":{"icaoId":"SBSM","flightCategory":"VFR","rawOb":"METAR SBSM 171800Z 26009KT 210V290 9999 FEW035 BKN045 26/17 Q1007","temp":26,"dewp":17,"wdir":260,"wspd":9,"visib":"6+","altim":1007,"clouds":[{"cover":"FEW","base":3500},{"cover":"BKN","base":4500}],"obsTime":1776448800},"SBSR":{"icaoId":"SBSR","flightCategory":"VFR","rawOb":"METAR SBSR 171800Z VRB04KT 9999 SCT030 31/15 Q1010","temp":31,"dewp":15,"wdir":"VRB","wspd":4,"visib":"6+","altim":1010,"clouds":[{"cover":"SCT","base":3000}],"obsTime":1776448800},"SBTF":{"icaoId":"SBTF","flightCategory":"VFR","rawOb":"METAR SBTF 171800Z 28003KT 9999 SCT006 BKN100 27/26 Q1008","temp":27,"dewp":26,"wdir":280,"wspd":3,"visib":"6+","altim":1008,"clouds":[{"cover":"SCT","base":600},{"cover":"BKN","base":10000}],"obsTime":1776448800},"SBTT":{"icaoId":"SBTT","flightCategory":"VFR","rawOb":"METAR SBTT 171800Z 17003KT 9999 FEW011 26/22 Q1009","temp":26,"dewp":22,"wdir":170,"wspd":3,"visib":"6+","altim":1009,"clouds":[{"cover":"FEW","base":1100}],"obsTime":1776448800},"SBUY":{"icaoId":"SBUY","flightCategory":"IFR","rawOb":"METAR SBUY 171800Z 35005KT 3000 -RA BR BKN006 FEW025TCU BKN080 25/24 Q1008","temp":25,"dewp":24,"wdir":350,"wspd":5,"visib":1.86,"altim":1008,"clouds":[{"cover":"BKN","base":600},{"cover":"FEW","base":2500},{"cover":"BKN","base":8000}],"obsTime":1776448800},"SBVH":{"icaoId":"SBVH","flightCategory":"VFR","rawOb":"METAR SBVH 171800Z 34004KT 9999 SCT028 29/21 Q1010","temp":29,"dewp":21,"wdir":340,"wspd":4,"visib":"6+","altim":1010,"clouds":[{"cover":"SCT","base":2800}],"obsTime":1776448800},"SBAU":{"icaoId":"SBAU","flightCategory":"VFR","rawOb":"METAR SBAU 171800Z 27006KT 9999 FEW040 33/16 Q1009","temp":33,"dewp":16,"wdir":270,"wspd":6,"visib":"6+","altim":1009,"clouds":[{"cover":"FEW","base":4000}],"obsTime":1776448800},"SBMT":{"icaoId":"SBMT","flightCategory":"VFR","rawOb":"METAR SBMT 171800Z 25007KT 9999 SCT040 28/13 Q1011","temp":28,"dewp":13,"wdir":250,"wspd":7,"visib":"6+","altim":1011,"clouds":[{"cover":"SCT","base":4000}],"obsTime":1776448800},"SBAN":{"icaoId":"SBAN","flightCategory":"VFR","rawOb":"METAR SBAN 171800Z 03002KT 9999 SCT035 FEW035TCU SCT100 25/17 Q1014","temp":25,"dewp":17,"wdir":30,"wspd":2,"visib":"6+","altim":1014,"clouds":[{"cover":"SCT","base":3500},{"cover":"FEW","base":3500},{"cover":"SCT","base":10000}],"obsTime":1776448800},"SBLE":{"icaoId":"SBLE","flightCategory":"VFR","rawOb":"METAR SBLE 171800Z AUTO VRB03KT 9999 FEW038 29/20 Q1010","temp":29,"dewp":20,"wdir":"VRB","wspd":3,"visib":"6+","altim":1010,"clouds":[{"cover":"FEW","base":3800}],"obsTime":1776448800},"SBIH":{"icaoId":"SBIH","flightCategory":"VFR","rawOb":"METAR SBIH 171800Z 06005KT 9999 SCT016 FEW023TCU 31/25 Q1006","temp":31,"dewp":25,"wdir":60,"wspd":5,"visib":"6+","altim":1006,"clouds":[{"cover":"SCT","base":1600},{"cover":"FEW","base":2300}],"obsTime":1776448800},"SBJV":{"icaoId":"SBJV","flightCategory":"VFR","rawOb":"METAR SBJV 171800Z 11005KT 9999 SCT030 30/24 Q1006","temp":30,"dewp":24,"wdir":110,"wspd":5,"visib":"6+","altim":1006,"clouds":[{"cover":"SCT","base":3000}],"obsTime":1776448800},"SBAF":{"icaoId":"SBAF","flightCategory":"VFR","rawOb":"METAR SBAF 171800Z 19009KT 9999 FEW030 32/22 Q1007","temp":32,"dewp":22,"wdir":190,"wspd":9,"visib":"6+","altim":1007,"clouds":[{"cover":"FEW","base":3000}],"obsTime":1776448800},"SBGW":{"icaoId":"SBGW","flightCategory":"VFR","rawOb":"METAR SBGW 171800Z 24002KT CAVOK 30/11 Q1010","temp":30,"dewp":11,"wdir":240,"wspd":2,"visib":"6+","altim":1010,"clouds":[],"obsTime":1776448800},"SBJR":{"icaoId":"SBJR","flightCategory":"VFR","rawOb":"METAR SBJR 171800Z 15006KT 9999 FEW020 31/21 Q1007","temp":31,"dewp":21,"wdir":150,"wspd":6,"visib":"6+","altim":1007,"clouds":[{"cover":"FEW","base":2000}],"obsTime":1776448800},"SBLS":{"icaoId":"SBLS","flightCategory":"VFR","rawOb":"METAR SBLS 171800Z 03003KT 290V090 9999 SCT045 25/15 Q1013","temp":25,"dewp":15,"wdir":30,"wspd":3,"visib":"6+","altim":1013,"clouds":[{"cover":"SCT","base":4500}],"obsTime":1776448800},"SBST":{"icaoId":"SBST","flightCategory":"VFR","rawOb":"METAR SBST 171800Z 10005KT CAVOK 28/22 Q1007","temp":28,"dewp":22,"wdir":100,"wspd":5,"visib":"6+","altim":1007,"clouds":[],"obsTime":1776448800},"SBTA":{"icaoId":"SBTA","flightCategory":"VFR","rawOb":"METAR SBTA 171800Z 23007KT 200V260 CAVOK 29/13 Q1010","temp":29,"dewp":13,"wdir":230,"wspd":7,"visib":"6+","altim":1010,"clouds":[],"obsTime":1776448800},"SBJP":{"icaoId":"SBJP","flightCategory":"VFR","rawOb":"METAR SBJP 171800Z 10011KT 050V150 9999 FEW030 30/23 Q1007","temp":30,"dewp":23,"wdir":100,"wspd":11,"visib":"6+","altim":1007,"clouds":[{"cover":"FEW","base":3000}],"obsTime":1776448800}}}