{"updated":1774156491,"count":49,"data":{"SBFL":{"icaoId":"SBFL","flightCategory":"VFR","rawOb":"METAR SBFL 220400Z 32009KT 9999 SCT017 SCT030 27/23 Q1011","temp":27,"dewp":23,"wdir":320,"wspd":9,"visib":"6+","altim":1011,"clouds":[{"cover":"SCT","base":1700},{"cover":"SCT","base":3000}],"obsTime":1774152000},"SBBE":{"icaoId":"SBBE","flightCategory":"VFR","rawOb":"METAR SBBE 220400Z 07004KT 9999 FEW039 26/24 Q1011","temp":26,"dewp":24,"wdir":70,"wspd":4,"visib":"6+","altim":1011,"clouds":[{"cover":"FEW","base":3900}],"obsTime":1774152000},"SBBR":{"icaoId":"SBBR","flightCategory":"VFR","rawOb":"METAR SBBR 220400Z 06003KT 9999 SCT010 SCT035 BKN100 21/20 Q1019","temp":21,"dewp":20,"wdir":60,"wspd":3,"visib":"6+","altim":1019,"clouds":[{"cover":"SCT","base":1000},{"cover":"SCT","base":3500},{"cover":"BKN","base":10000}],"obsTime":1774152000},"SBBV":{"icaoId":"SBBV","flightCategory":"VFR","rawOb":"METAR SBBV 220400Z 11007KT CAVOK 28/21 Q1009","temp":28,"dewp":21,"wdir":110,"wspd":7,"visib":"6+","altim":1009,"clouds":[],"obsTime":1774152000},"SBCF":{"icaoId":"SBCF","flightCategory":"VFR","rawOb":"METAR SBCF 220400Z 00000KT 9999 FEW025 20/20 Q1017","temp":20,"dewp":20,"wdir":0,"wspd":0,"visib":"6+","altim":1017,"clouds":[{"cover":"FEW","base":2500}],"obsTime":1774152000},"SBCG":{"icaoId":"SBCG","flightCategory":"VFR","rawOb":"METAR SBCG 220400Z 36005KT CAVOK 25/22 Q1013","temp":25,"dewp":22,"wdir":360,"wspd":5,"visib":"6+","altim":1013,"clouds":[],"obsTime":1774152000},"SBCT":{"icaoId":"SBCT","flightCategory":"LIFR","rawOb":"METAR SBCT 220400Z 03002KT 4000 BR BKN002 21/20 Q1017","temp":21,"dewp":20,"wdir":30,"wspd":2,"visib":2.49,"altim":1017,"clouds":[{"cover":"BKN","base":200}],"obsTime":1774152000},"SBEG":{"icaoId":"SBEG","flightCategory":"VFR","rawOb":"METAR SBEG 220400Z 08005KT CAVOK 28/24 Q1010","temp":28,"dewp":24,"wdir":80,"wspd":5,"visib":"6+","altim":1010,"clouds":[],"obsTime":1774152000},"SBFI":{"icaoId":"SBFI","flightCategory":"VFR","rawOb":"METAR SBFI 220400Z 13002KT 9999 VCTS FEW035 FEW040CB 26/25 Q1009","temp":26,"dewp":25,"wdir":130,"wspd":2,"visib":"6+","altim":1009,"clouds":[{"cover":"FEW","base":3500},{"cover":"FEW","base":4000}],"obsTime":1774152000},"SBFZ":{"icaoId":"SBFZ","flightCategory":"MVFR","rawOb":"METAR SBFZ 220400Z 18005KT 150V220 8000 -SHRA SCT015 FEW025TCU 27/25 Q1011","temp":27,"dewp":25,"wdir":180,"wspd":5,"visib":4.97,"altim":1011,"clouds":[{"cover":"SCT","base":1500},{"cover":"FEW","base":2500}],"obsTime":1774152000},"SBGL":{"icaoId":"SBGL","flightCategory":"VFR","rawOb":"METAR SBGL 220400Z 11003KT 9999 FEW009 24/21 Q1012","temp":24,"dewp":21,"wdir":110,"wspd":3,"visib":"6+","altim":1012,"clouds":[{"cover":"FEW","base":900}],"obsTime":1774152000},"SBGO":{"icaoId":"SBGO","flightCategory":"VFR","rawOb":"METAR SBGO 220400Z 34005KT 220V010 9999 FEW015 BKN100 23/21 Q1016","temp":23,"dewp":21,"wdir":340,"wspd":5,"visib":"6+","altim":1016,"clouds":[{"cover":"FEW","base":1500},{"cover":"BKN","base":10000}],"obsTime":1774152000},"SBGR":{"icaoId":"SBGR","flightCategory":"MVFR","rawOb":"METAR SBGR 220400Z 07005KT 5000 BR NSC 19/18 Q1016","temp":19,"dewp":18,"wdir":70,"wspd":5,"visib":3.11,"altim":1016,"clouds":[],"obsTime":1774152000},"SBKP":{"icaoId":"SBKP","flightCategory":"VFR","rawOb":"METAR SBKP 220400Z 12008KT 9000 NSC 21/20 Q1015","temp":21,"dewp":20,"wdir":120,"wspd":8,"visib":5.59,"altim":1015,"clouds":[],"obsTime":1774152000},"SBLO":{"icaoId":"SBLO","flightCategory":"VFR","rawOb":"METAR SBLO 220400Z 00000KT CAVOK 26/21 Q1014","temp":26,"dewp":21,"wdir":0,"wspd":0,"visib":"6+","altim":1014,"clouds":[],"obsTime":1774152000},"SBMA":{"icaoId":"SBMA","flightCategory":"VFR","rawOb":"METAR SBMA 220400Z 00000KT CAVOK 26/24 Q1012","temp":26,"dewp":24,"wdir":0,"wspd":0,"visib":"6+","altim":1012,"clouds":[],"obsTime":1774152000},"SBMO":{"icaoId":"SBMO","flightCategory":"VFR","rawOb":"METAR SBMO 220400Z 35003KT 9999 FEW021 25/24 Q1012","temp":25,"dewp":24,"wdir":350,"wspd":3,"visib":"6+","altim":1012,"clouds":[{"cover":"FEW","base":2100}],"obsTime":1774152000},"SBMQ":{"icaoId":"SBMQ","flightCategory":"VFR","rawOb":"METAR SBMQ 220400Z 36004KT 9999 FEW005 26/25 Q1010","temp":26,"dewp":25,"wdir":360,"wspd":4,"visib":"6+","altim":1010,"clouds":[{"cover":"FEW","base":500}],"obsTime":1774152000},"SBNT":{"icaoId":"SBNT","flightCategory":"VFR","rawOb":"METAR SBNT 220400Z 20003KT 9999 FEW020 26/24 Q1011","temp":26,"dewp":24,"wdir":200,"wspd":3,"visib":"6+","altim":1011,"clouds":[{"cover":"FEW","base":2000}],"obsTime":1774152000},"SBPA":{"icaoId":"SBPA","flightCategory":"MVFR","rawOb":"METAR SBPA 220400Z 04006KT 8000 -RA SCT035 BKN050 23/23 Q1009","temp":23,"dewp":23,"wdir":40,"wspd":6,"visib":4.97,"altim":1009,"clouds":[{"cover":"SCT","base":3500},{"cover":"BKN","base":5000}],"obsTime":1774152000},"SBPJ":{"icaoId":"SBPJ","flightCategory":"VFR","rawOb":"METAR SBPJ 220400Z 34003KT 9999 FEW017 SCT070 26/24 Q1013","temp":26,"dewp":24,"wdir":340,"wspd":3,"visib":"6+","altim":1013,"clouds":[{"cover":"FEW","base":1700},{"cover":"SCT","base":7000}],"obsTime":1774152000},"SBPV":{"icaoId":"SBPV","flightCategory":"VFR","rawOb":"METAR SBPV 220400Z 07002KT CAVOK 28/23 Q1008","temp":28,"dewp":23,"wdir":70,"wspd":2,"visib":"6+","altim":1008,"clouds":[],"obsTime":1774152000},"SBRB":{"icaoId":"SBRB","flightCategory":"IFR","rawOb":"METAR SBRB 220400Z 27014G24KT 4500 -TSRA SCT011 SCT034 FEW036CB 24/24 Q1010","temp":24,"dewp":24,"wdir":270,"wspd":14,"visib":2.8,"altim":1010,"clouds":[{"cover":"SCT","base":1100},{"cover":"SCT","base":3400},{"cover":"FEW","base":3600}],"obsTime":1774152000},"SBRF":{"icaoId":"SBRF","flightCategory":"MVFR","rawOb":"METAR SBRF 220400Z 08003KT 9999 BKN021 28/24 Q1011","temp":28,"dewp":24,"wdir":80,"wspd":3,"visib":"6+","altim":1011,"clouds":[{"cover":"BKN","base":2100}],"obsTime":1774152000},"SBSG":{"icaoId":"SBSG","flightCategory":"VFR","rawOb":"METAR SBSG 220400Z 22004KT 9999 FEW021 24/23 Q1012","temp":24,"dewp":23,"wdir":220,"wspd":4,"visib":"6+","altim":1012,"clouds":[{"cover":"FEW","base":2100}],"obsTime":1774152000},"SBSL":{"icaoId":"SBSL","flightCategory":"VFR","rawOb":"METAR SBSL 220400Z 12003KT CAVOK 25/23 Q1010","temp":25,"dewp":23,"wdir":120,"wspd":3,"visib":"6+","altim":1010,"clouds":[],"obsTime":1774152000},"SBSN":{"icaoId":"SBSN","flightCategory":"VFR","rawOb":"METAR SBSN 220400Z 13002KT CAVOK 24/23 Q1010","temp":24,"dewp":23,"wdir":130,"wspd":2,"visib":"6+","altim":1010,"clouds":[],"obsTime":1774152000},"SBSP":{"icaoId":"SBSP","flightCategory":"VFR","rawOb":"METAR SBSP 220400Z AUTO 04004KT 010V070 CAVOK 21/19 Q1017","temp":21,"dewp":19,"wdir":40,"wspd":4,"visib":"6+","altim":1017,"clouds":[],"obsTime":1774152000},"SBSV":{"icaoId":"SBSV","flightCategory":"VFR","rawOb":"METAR SBSV 220400Z 06006KT 9999 SCT020 27/23 Q1011","temp":27,"dewp":23,"wdir":60,"wspd":6,"visib":"6+","altim":1011,"clouds":[{"cover":"SCT","base":2000}],"obsTime":1774152000},"SBTE":{"icaoId":"SBTE","flightCategory":"VFR","rawOb":"METAR SBTE 220400Z 00000KT 9999 SCT016 SCT090 25/24 Q1010","temp":25,"dewp":24,"wdir":0,"wspd":0,"visib":"6+","altim":1010,"clouds":[{"cover":"SCT","base":1600},{"cover":"SCT","base":9000}],"obsTime":1774152000},"SBVT":{"icaoId":"SBVT","flightCategory":"VFR","rawOb":"METAR SBVT 220400Z 30005KT 9999 FEW020 SCT080 23/23 Q1012","temp":23,"dewp":23,"wdir":300,"wspd":5,"visib":"6+","altim":1012,"clouds":[{"cover":"FEW","base":2000},{"cover":"SCT","base":8000}],"obsTime":1774152000},"SBME":{"icaoId":"SBME","flightCategory":"VFR","rawOb":"METAR SBME 220400Z 33003KT CAVOK 24/23 Q1012","temp":24,"dewp":23,"wdir":330,"wspd":3,"visib":"6+","altim":1012,"clouds":[],"obsTime":1774152000},"SBMG":{"icaoId":"SBMG","flightCategory":"VFR","rawOb":"METAR SBMG 220400Z AUTO 03009KT CAVOK 26/22 Q1012","temp":26,"dewp":22,"wdir":30,"wspd":9,"visib":"6+","altim":1012,"clouds":[],"obsTime":1774152000},"SBMK":{"icaoId":"SBMK","flightCategory":"MVFR","rawOb":"METAR SBMK 220400Z 05003KT 9999 BKN010 BKN090 21/20 Q1016","temp":21,"dewp":20,"wdir":50,"wspd":3,"visib":"6+","altim":1016,"clouds":[{"cover":"BKN","base":1000},{"cover":"BKN","base":9000}],"obsTime":1774152000},"SBUL":{"icaoId":"SBUL","flightCategory":"VFR","rawOb":"METAR SBUL 220400Z 15004KT CAVOK 21/20 Q1017","temp":21,"dewp":20,"wdir":150,"wspd":4,"visib":"6+","altim":1017,"clouds":[],"obsTime":1774152000},"SBUR":{"icaoId":"SBUR","flightCategory":"VFR","rawOb":"METAR SBUR 220400Z 13002KT CAVOK 24/20 Q1016","temp":24,"dewp":20,"wdir":130,"wspd":2,"visib":"6+","altim":1016,"clouds":[],"obsTime":1774152000},"SBOI":{"icaoId":"SBOI","flightCategory":"VFR","rawOb":"METAR SBOI 220400Z AUTO 00000KT 9999 SCT016 23/23 Q1011","temp":23,"dewp":23,"wdir":0,"wspd":0,"visib":"6+","altim":1011,"clouds":[{"cover":"SCT","base":1600}],"obsTime":1774152000},"SBAR":{"icaoId":"SBAR","flightCategory":"VFR","rawOb":"METAR SBAR 220400Z 07006KT 9999 FEW020 28/24 Q1011","temp":28,"dewp":24,"wdir":70,"wspd":6,"visib":"6+","altim":1011,"clouds":[{"cover":"FEW","base":2000}],"obsTime":1774152000},"SBPL":{"icaoId":"SBPL","flightCategory":"VFR","rawOb":"METAR SBPL 220400Z 00000KT CAVOK 25/23 Q1013","temp":25,"dewp":23,"wdir":0,"wspd":0,"visib":"6+","altim":1013,"clouds":[],"obsTime":1774152000},"SBPS":{"icaoId":"SBPS","flightCategory":"VFR","rawOb":"METAR SBPS 220400Z 34004KT 310V010 9999 SCT015 26/24 Q1012","temp":26,"dewp":24,"wdir":340,"wspd":4,"visib":"6+","altim":1012,"clouds":[{"cover":"SCT","base":1500}],"obsTime":1774152000},"SBAX":{"icaoId":"SBAX","flightCategory":"VFR","rawOb":"METAR SBAX 220400Z AUTO 11001KT CAVOK 22/22 Q1018","temp":22,"dewp":22,"wdir":110,"wspd":1,"visib":"6+","altim":1018,"clouds":[],"obsTime":1774152000},"SBSC":{"icaoId":"SBSC","flightCategory":"VFR","rawOb":"METAR SBSC 220400Z 03004KT 9999 FEW025 22/21 Q1012","temp":22,"dewp":21,"wdir":30,"wspd":4,"visib":"6+","altim":1012,"clouds":[{"cover":"FEW","base":2500}],"obsTime":1774152000},"SBSR":{"icaoId":"SBSR","flightCategory":"VFR","rawOb":"METAR SBSR 220400Z 00000KT CAVOK 26/21 Q1014","temp":26,"dewp":21,"wdir":0,"wspd":0,"visib":"6+","altim":1014,"clouds":[],"obsTime":1774152000},"SBDN":{"icaoId":"SBDN","flightCategory":"VFR","rawOb":"METAR SBDN 220400Z 00000KT CAVOK 26/21 Q1013","temp":26,"dewp":21,"wdir":0,"wspd":0,"visib":"6+","altim":1013,"clouds":[],"obsTime":1774152000},"SBIP":{"icaoId":"SBIP","flightCategory":"VFR","rawOb":"METAR SBIP 220400Z AUTO 02005KT 9999 BKN045 24/22 Q1014","temp":24,"dewp":22,"wdir":20,"wspd":5,"visib":"6+","altim":1014,"clouds":[{"cover":"BKN","base":4500}],"obsTime":1774152000},"SBKG":{"icaoId":"SBKG","flightCategory":"VFR","rawOb":"METAR SBKG 220400Z 09005KT 9999 SCT010 23/22 Q1014","temp":23,"dewp":22,"wdir":90,"wspd":5,"visib":"6+","altim":1014,"clouds":[{"cover":"SCT","base":1000}],"obsTime":1774152000},"SBJP":{"icaoId":"SBJP","flightCategory":"VFR","rawOb":"METAR SBJP 220400Z 21003KT 9999 FEW020 25/24 Q1012","temp":25,"dewp":24,"wdir":210,"wspd":3,"visib":"6+","altim":1012,"clouds":[{"cover":"FEW","base":2000}],"obsTime":1774152000},"SBAN":{"icaoId":"SBAN","flightCategory":"LIFR","rawOb":"METAR SBAN 220400Z 16004KT 9999 BKN003 SCT100 20/19 Q1020","temp":20,"dewp":19,"wdir":160,"wspd":4,"visib":"6+","altim":1020,"clouds":[{"cover":"BKN","base":300},{"cover":"SCT","base":10000}],"obsTime":1774152000},"SBLE":{"icaoId":"SBLE","flightCategory":"VFR","rawOb":"METAR SBLE 220400Z AUTO 34002KT CAVOK 22/22 Q1014","temp":22,"dewp":22,"wdir":340,"wspd":2,"visib":"6+","altim":1014,"clouds":[],"obsTime":1774152000}}}