{"updated":1777811925,"count":84,"data":{"SBGL":{"icaoId":"SBGL","flightCategory":"MVFR","rawOb":"METAR SBGL 031100Z VRB01KT 9999 4000NE -RA FEW007 SCT016 BKN023 23/22 Q1018","temp":23,"dewp":22,"wdir":"VRB","wspd":1,"visib":"6+","altim":1018,"clouds":[{"cover":"FEW","base":700},{"cover":"SCT","base":1600},{"cover":"BKN","base":2300}],"obsTime":1777806000},"SBAT":{"icaoId":"SBAT","flightCategory":"VFR","rawOb":"METAR SBAT 031100Z 20001KT CAVOK 25/24 Q1014","temp":25,"dewp":24,"wdir":200,"wspd":1,"visib":"6+","altim":1014,"clouds":[],"obsTime":1777806000},"SBMA":{"icaoId":"SBMA","flightCategory":"VFR","rawOb":"METAR SBMA 031100Z 00000KT 9999 FEW020 BKN070 27/24 Q1013","temp":27,"dewp":24,"wdir":0,"wspd":0,"visib":"6+","altim":1013,"clouds":[{"cover":"FEW","base":2000},{"cover":"BKN","base":7000}],"obsTime":1777806000},"SBEG":{"icaoId":"SBEG","flightCategory":"VFR","rawOb":"METAR SBEG 031100Z 06005KT 9999 VCSH SCT020 FEW025TCU BKN080 24/24 Q1012 RESHRA","temp":24,"dewp":24,"wdir":60,"wspd":5,"visib":"6+","altim":1012,"clouds":[{"cover":"SCT","base":2000},{"cover":"FEW","base":2500},{"cover":"BKN","base":8000}],"obsTime":1777806000},"SBME":{"icaoId":"SBME","flightCategory":"VFR","rawOb":"METAR SBME 031100Z 25004KT 9999 FEW025 BKN080 26/20 Q1017","temp":26,"dewp":20,"wdir":250,"wspd":4,"visib":"6+","altim":1017,"clouds":[{"cover":"FEW","base":2500},{"cover":"BKN","base":8000}],"obsTime":1777806000},"SBFI":{"icaoId":"SBFI","flightCategory":"VFR","rawOb":"METAR SBFI 031100Z 16003KT 9000 FEW017 16/16 Q1019","temp":16,"dewp":16,"wdir":160,"wspd":3,"visib":5.59,"altim":1019,"clouds":[{"cover":"FEW","base":1700}],"obsTime":1777806000},"SBMG":{"icaoId":"SBMG","flightCategory":"LIFR","rawOb":"METAR SBMG 031100Z 14003KT 0800 R10/0650D FG BKN002 16/16 Q1019","temp":16,"dewp":16,"wdir":140,"wspd":3,"visib":0.5,"altim":1019,"clouds":[{"cover":"BKN","base":200}],"obsTime":1777806000},"SBCF":{"icaoId":"SBCF","flightCategory":"VFR","rawOb":"METAR SBCF 031100Z VRB01KT CAVOK 19/15 Q1020","temp":19,"dewp":15,"wdir":"VRB","wspd":1,"visib":"6+","altim":1020,"clouds":[],"obsTime":1777806000},"SBMK":{"icaoId":"SBMK","flightCategory":"VFR","rawOb":"METAR SBMK 031100Z 00000KT CAVOK 23/18 Q1020","temp":23,"dewp":18,"wdir":0,"wspd":0,"visib":"6+","altim":1020,"clouds":[],"obsTime":1777806000},"SBBV":{"icaoId":"SBBV","flightCategory":"VFR","rawOb":"METAR SBBV 031100Z 09007KT 9999 FEW020 FEW035TCU BKN100 26/24 Q1013","temp":26,"dewp":24,"wdir":90,"wspd":7,"visib":"6+","altim":1013,"clouds":[{"cover":"FEW","base":2000},{"cover":"FEW","base":3500},{"cover":"BKN","base":10000}],"obsTime":1777806000},"SBMO":{"icaoId":"SBMO","flightCategory":"VFR","rawOb":"METAR SBMO 031100Z 34003KT 240V040 9999 VCSH SCT015 BKN060 24/24 Q1015","temp":24,"dewp":24,"wdir":340,"wspd":3,"visib":"6+","altim":1015,"clouds":[{"cover":"SCT","base":1500},{"cover":"BKN","base":6000}],"obsTime":1777806000},"SBFL":{"icaoId":"SBFL","flightCategory":"VFR","rawOb":"METAR SBFL 031100Z 17008KT 140V210 CAVOK 17/08 Q1023","temp":17,"dewp":8,"wdir":170,"wspd":8,"visib":"6+","altim":1023,"clouds":[],"obsTime":1777806000},"SBMQ":{"icaoId":"SBMQ","flightCategory":"VFR","rawOb":"METAR SBMQ 031100Z 01003KT 9999 FEW007 SCT040 OVC087 25/25 Q1013","temp":25,"dewp":25,"wdir":10,"wspd":3,"visib":"6+","altim":1013,"clouds":[{"cover":"FEW","base":700},{"cover":"SCT","base":4000},{"cover":"OVC","base":8700}],"obsTime":1777806000},"SBNT":{"icaoId":"SBNT","flightCategory":"VFR","rawOb":"METAR SBNT 031100Z 19007KT 150V210 9999 FEW025 SCT050 BKN100 27/24 Q1014","temp":27,"dewp":24,"wdir":190,"wspd":7,"visib":"6+","altim":1014,"clouds":[{"cover":"FEW","base":2500},{"cover":"SCT","base":5000},{"cover":"BKN","base":10000}],"obsTime":1777806000},"SBCG":{"icaoId":"SBCG","flightCategory":"VFR","rawOb":"METAR SBCG 031100Z 12008KT CAVOK 20/16 Q1019","temp":20,"dewp":16,"wdir":120,"wspd":8,"visib":"6+","altim":1019,"clouds":[],"obsTime":1777806000},"SBPA":{"icaoId":"SBPA","flightCategory":"VFR","rawOb":"METAR SBPA 031100Z 24003KT 200V260 CAVOK 12/06 Q1024","temp":12,"dewp":6,"wdir":240,"wspd":3,"visib":"6+","altim":1024,"clouds":[],"obsTime":1777806000},"SBFZ":{"icaoId":"SBFZ","flightCategory":"VFR","rawOb":"METAR SBFZ 031100Z 16006KT 9999 -RA SCT023 BKN070 24/23 Q1013","temp":24,"dewp":23,"wdir":160,"wspd":6,"visib":"6+","altim":1013,"clouds":[{"cover":"SCT","base":2300},{"cover":"BKN","base":7000}],"obsTime":1777806000},"SBPJ":{"icaoId":"SBPJ","flightCategory":"VFR","rawOb":"METAR SBPJ 031100Z 20003KT 9999 FEW045 27/22 Q1014","temp":27,"dewp":22,"wdir":200,"wspd":3,"visib":"6+","altim":1014,"clouds":[{"cover":"FEW","base":4500}],"obsTime":1777806000},"SBPV":{"icaoId":"SBPV","flightCategory":"VFR","rawOb":"METAR SBPV 031100Z 16003KT CAVOK 25/23 Q1011","temp":25,"dewp":23,"wdir":160,"wspd":3,"visib":"6+","altim":1011,"clouds":[],"obsTime":1777806000},"SBBE":{"icaoId":"SBBE","flightCategory":"VFR","rawOb":"METAR SBBE 031100Z 16003KT 9999 SCT013 BKN078 26/24 Q1013","temp":26,"dewp":24,"wdir":160,"wspd":3,"visib":"6+","altim":1013,"clouds":[{"cover":"SCT","base":1300},{"cover":"BKN","base":7800}],"obsTime":1777806000},"SBRB":{"icaoId":"SBRB","flightCategory":"VFR","rawOb":"METAR SBRB 031100Z COR 19001KT CAVOK 24/23 Q1013","temp":24,"dewp":23,"wdir":190,"wspd":1,"visib":"6+","altim":1013,"clouds":[],"obsTime":1777806000},"SBRF":{"icaoId":"SBRF","flightCategory":"VFR","rawOb":"METAR SBRF 031100Z 17006KT 9999 SCT023 28/24 Q1014","temp":28,"dewp":24,"wdir":170,"wspd":6,"visib":"6+","altim":1014,"clouds":[{"cover":"SCT","base":2300}],"obsTime":1777806000},"SBGO":{"icaoId":"SBGO","flightCategory":"VFR","rawOb":"METAR SBGO 031100Z VRB02KT CAVOK 21/17 Q1019","temp":21,"dewp":17,"wdir":"VRB","wspd":2,"visib":"6+","altim":1019,"clouds":[],"obsTime":1777806000},"SBSG":{"icaoId":"SBSG","flightCategory":"VFR","rawOb":"METAR SBSG 031100Z 18004KT 130V220 9999 FEW015 BKN060 26/24 Q1014","temp":26,"dewp":24,"wdir":180,"wspd":4,"visib":"6+","altim":1014,"clouds":[{"cover":"FEW","base":1500},{"cover":"BKN","base":6000}],"obsTime":1777806000},"SBCP":{"icaoId":"SBCP","flightCategory":"VFR","rawOb":"METAR SBCP 031100Z 23007KT 9999 SCT045 BKN100 24/21 Q1017","temp":24,"dewp":21,"wdir":230,"wspd":7,"visib":"6+","altim":1017,"clouds":[{"cover":"SCT","base":4500},{"cover":"BKN","base":10000}],"obsTime":1777806000},"SBSL":{"icaoId":"SBSL","flightCategory":"MVFR","rawOb":"METAR SBSL 031100Z VRB02KT 9999 SCT010 BKN018 FEW025TCU 24/24 Q1013","temp":24,"dewp":24,"wdir":"VRB","wspd":2,"visib":"6+","altim":1013,"clouds":[{"cover":"SCT","base":1000},{"cover":"BKN","base":1800},{"cover":"FEW","base":2500}],"obsTime":1777806000},"SBCR":{"icaoId":"SBCR","flightCategory":"VFR","rawOb":"METAR SBCR 031100Z 25005KT 9999 FEW007 BKN070 24/23 Q1016","temp":24,"dewp":23,"wdir":250,"wspd":5,"visib":"6+","altim":1016,"clouds":[{"cover":"FEW","base":700},{"cover":"BKN","base":7000}],"obsTime":1777806000},"SBGR":{"icaoId":"SBGR","flightCategory":"IFR","rawOb":"METAR SBGR 031100Z 12005KT 8000 BKN009 OVC011 19/17 Q1023","temp":19,"dewp":17,"wdir":120,"wspd":5,"visib":4.97,"altim":1023,"clouds":[{"cover":"BKN","base":900},{"cover":"OVC","base":1100}],"obsTime":1777806000},"SBSN":{"icaoId":"SBSN","flightCategory":"VFR","rawOb":"METAR SBSN 031100Z 12006KT 9999 -RA SCT010 OVC100 26/25 Q1012","temp":26,"dewp":25,"wdir":120,"wspd":6,"visib":"6+","altim":1012,"clouds":[{"cover":"SCT","base":1000},{"cover":"OVC","base":10000}],"obsTime":1777806000},"SBSP":{"icaoId":"SBSP","flightCategory":"IFR","rawOb":"METAR SBSP 031100Z 15009KT 9000 BKN008 18/17 Q1024","temp":18,"dewp":17,"wdir":150,"wspd":9,"visib":5.59,"altim":1024,"clouds":[{"cover":"BKN","base":800}],"obsTime":1777806000},"SBCB":{"icaoId":"SBCB","flightCategory":"IFR","rawOb":"METAR SBCB 031100Z 22012KT 3000 RA BR BKN005 OVC015 22/21 Q1018 RERA","temp":22,"dewp":21,"wdir":220,"wspd":12,"visib":1.86,"altim":1018,"clouds":[{"cover":"BKN","base":500},{"cover":"OVC","base":1500}],"obsTime":1777806000},"SBSV":{"icaoId":"SBSV","flightCategory":"VFR","rawOb":"METAR SBSV 031100Z 17008KT 9999 FEW025 28/23 Q1015","temp":28,"dewp":23,"wdir":170,"wspd":8,"visib":"6+","altim":1015,"clouds":[{"cover":"FEW","base":2500}],"obsTime":1777806000},"SBHT":{"icaoId":"SBHT","flightCategory":"MVFR","rawOb":"METAR SBHT 031100Z 09004KT 9999 FEW010 BKN015 BKN080 26/25 Q1013","temp":26,"dewp":25,"wdir":90,"wspd":4,"visib":"6+","altim":1013,"clouds":[{"cover":"FEW","base":1000},{"cover":"BKN","base":1500},{"cover":"BKN","base":8000}],"obsTime":1777806000},"SBTE":{"icaoId":"SBTE","flightCategory":"VFR","rawOb":"METAR SBTE 031100Z 10005KT 9999 SCT015 BKN080 26/24 Q1013","temp":26,"dewp":24,"wdir":100,"wspd":5,"visib":"6+","altim":1013,"clouds":[{"cover":"SCT","base":1500},{"cover":"BKN","base":8000}],"obsTime":1777806000},"SBCZ":{"icaoId":"SBCZ","flightCategory":"LIFR","rawOb":"METAR SBCZ 031200Z 17003KT 5000 BR OVC004 24/24 Q1015","temp":24,"dewp":24,"wdir":170,"wspd":3,"visib":3.11,"altim":1015,"clouds":[{"cover":"OVC","base":400}],"obsTime":1777809600},"SBLO":{"icaoId":"SBLO","flightCategory":"VFR","rawOb":"METAR SBLO 031100Z 19003KT CAVOK 18/16 Q1020","temp":18,"dewp":16,"wdir":190,"wspd":3,"visib":"6+","altim":1020,"clouds":[],"obsTime":1777806000},"SBIL":{"icaoId":"SBIL","flightCategory":"VFR","rawOb":"METAR SBIL 031100Z 30005KT CAVOK 25/24 Q1016","temp":25,"dewp":24,"wdir":300,"wspd":5,"visib":"6+","altim":1016,"clouds":[],"obsTime":1777806000},"SBUL":{"icaoId":"SBUL","flightCategory":"VFR","rawOb":"METAR SBUL 031100Z 11005KT 9999 FEW040 20/14 Q1020","temp":20,"dewp":14,"wdir":110,"wspd":5,"visib":"6+","altim":1020,"clouds":[{"cover":"FEW","base":4000}],"obsTime":1777806000},"SBCT":{"icaoId":"SBCT","flightCategory":"LIFR","rawOb":"METAR SBCT 031100Z 10005KT 2500 DZ BKN003 OVC012 15/15 Q1023 REDZ","temp":15,"dewp":15,"wdir":100,"wspd":5,"visib":1.55,"altim":1023,"clouds":[{"cover":"BKN","base":300},{"cover":"OVC","base":1200}],"obsTime":1777806000},"SBUR":{"icaoId":"SBUR","flightCategory":"VFR","rawOb":"METAR SBUR 031100Z 04004KT CAVOK 20/14 Q1020","temp":20,"dewp":14,"wdir":40,"wspd":4,"visib":"6+","altim":1020,"clouds":[],"obsTime":1777806000},"SBVT":{"icaoId":"SBVT","flightCategory":"VFR","rawOb":"METAR SBVT 031100Z 20014KT CAVOK 26/22 Q1016","temp":26,"dewp":22,"wdir":200,"wspd":14,"visib":"6+","altim":1016,"clouds":[],"obsTime":1777806000},"SBJU":{"icaoId":"SBJU","flightCategory":"VFR","rawOb":"METAR SBJU 031100Z 21004KT 9999 FEW018 25/21 Q1016","temp":25,"dewp":21,"wdir":210,"wspd":4,"visib":"6+","altim":1016,"clouds":[{"cover":"FEW","base":1800}],"obsTime":1777806000},"SBKP":{"icaoId":"SBKP","flightCategory":"VFR","rawOb":"METAR SBKP 031100Z 13008KT 9999 SCT018 20/17 Q1021","temp":20,"dewp":17,"wdir":130,"wspd":8,"visib":"6+","altim":1021,"clouds":[{"cover":"SCT","base":1800}],"obsTime":1777806000},"SBBR":{"icaoId":"SBBR","flightCategory":"VFR","rawOb":"METAR SBBR 031100Z VRB02KT CAVOK 22/17 Q1021","temp":22,"dewp":17,"wdir":"VRB","wspd":2,"visib":"6+","altim":1021,"clouds":[],"obsTime":1777806000},"SBPL":{"icaoId":"SBPL","flightCategory":"VFR","rawOb":"METAR SBPL 031100Z 14009KT 9999 FEW020 25/20 Q1017","temp":25,"dewp":20,"wdir":140,"wspd":9,"visib":"6+","altim":1017,"clouds":[{"cover":"FEW","base":2000}],"obsTime":1777806000},"SBAR":{"icaoId":"SBAR","flightCategory":"VFR","rawOb":"METAR SBAR 031100Z VRB02KT 9999 VCSH SCT025 BKN050 27/24 Q1015","temp":27,"dewp":24,"wdir":"VRB","wspd":2,"visib":"6+","altim":1015,"clouds":[{"cover":"SCT","base":2500},{"cover":"BKN","base":5000}],"obsTime":1777806000},"SBVH":{"icaoId":"SBVH","flightCategory":"VFR","rawOb":"METAR SBVH 031100Z 11002KT CAVOK 21/20 Q1017","temp":21,"dewp":20,"wdir":110,"wspd":2,"visib":"6+","altim":1017,"clouds":[],"obsTime":1777806000},"SBAX":{"icaoId":"SBAX","flightCategory":"VFR","rawOb":"METAR SBAX 031100Z AUTO 19004KT CAVOK 17/15 Q1021","temp":17,"dewp":15,"wdir":190,"wspd":4,"visib":"6+","altim":1021,"clouds":[],"obsTime":1777806000},"SBUY":{"icaoId":"SBUY","flightCategory":"IFR","rawOb":"METAR SBUY 031100Z 00000KT 3000 BR FEW002 FEW030TCU BKN080 24/24 Q1011","temp":24,"dewp":24,"wdir":0,"wspd":0,"visib":1.86,"altim":1011,"clouds":[{"cover":"FEW","base":200},{"cover":"FEW","base":3000},{"cover":"BKN","base":8000}],"obsTime":1777806000},"SBBH":{"icaoId":"SBBH","flightCategory":"VFR","rawOb":"METAR SBBH 031100Z 11005KT CAVOK 20/16 Q1020","temp":20,"dewp":16,"wdir":110,"wspd":5,"visib":"6+","altim":1020,"clouds":[],"obsTime":1777806000},"SBBQ":{"icaoId":"SBBQ","flightCategory":"IFR","rawOb":"METAR SBBQ 031200Z 14006KT 090V190 8000 BKN008 OVC070 17/16 Q1025","temp":17,"dewp":16,"wdir":140,"wspd":6,"visib":4.97,"altim":1025,"clouds":[{"cover":"BKN","base":800},{"cover":"OVC","base":7000}],"obsTime":1777809600},"SBTT":{"icaoId":"SBTT","flightCategory":"MVFR","rawOb":"METAR SBTT 031100Z 08004KT 7000 -RA SCT007 BKN050 23/22 Q1013","temp":23,"dewp":22,"wdir":80,"wspd":4,"visib":4.35,"altim":1013,"clouds":[{"cover":"SCT","base":700},{"cover":"BKN","base":5000}],"obsTime":1777806000},"SBBU":{"icaoId":"SBBU","flightCategory":"VFR","rawOb":"METAR SBBU 031100Z 10012KT CAVOK 20/16 Q1020","temp":20,"dewp":16,"wdir":100,"wspd":12,"visib":"6+","altim":1020,"clouds":[],"obsTime":1777806000},"SBTF":{"icaoId":"SBTF","flightCategory":"VFR","rawOb":"METAR SBTF 031100Z 17002KT 9999 FEW010 BKN080 25/25 Q1011","temp":25,"dewp":25,"wdir":170,"wspd":2,"visib":"6+","altim":1011,"clouds":[{"cover":"FEW","base":1000},{"cover":"BKN","base":8000}],"obsTime":1777806000},"SBCA":{"icaoId":"SBCA","flightCategory":"LIFR","rawOb":"METAR SBCA 031100Z 16009KT 9999 BKN004 15/15 Q1021","temp":15,"dewp":15,"wdir":160,"wspd":9,"visib":"6+","altim":1021,"clouds":[{"cover":"BKN","base":400}],"obsTime":1777806000},"SBCC":{"icaoId":"SBCC","flightCategory":"VFR","rawOb":"METAR SBCC 031100Z /////KT CAVOK ///// Q1015","temp":null,"dewp":null,"wdir":null,"wspd":null,"visib":"6+","altim":1015,"clouds":[],"obsTime":1777806000},"SBSR":{"icaoId":"SBSR","flightCategory":"VFR","rawOb":"METAR SBSR 031100Z 16004KT 130V210 9999 FEW040 SCT100 20/14 Q1019","temp":20,"dewp":14,"wdir":160,"wspd":4,"visib":"6+","altim":1019,"clouds":[{"cover":"FEW","base":4000},{"cover":"SCT","base":10000}],"obsTime":1777806000},"SBSM":{"icaoId":"SBSM","flightCategory":"VFR","rawOb":"METAR SBSM 031100Z 09002KT CAVOK 07/07 Q1025","temp":7,"dewp":7,"wdir":90,"wspd":2,"visib":"6+","altim":1025,"clouds":[],"obsTime":1777806000},"SBCJ":{"icaoId":"SBCJ","flightCategory":"MVFR","rawOb":"METAR SBCJ 031100Z 14002KT 9999 BKN017 24/21 Q1017","temp":24,"dewp":21,"wdir":140,"wspd":2,"visib":"6+","altim":1017,"clouds":[{"cover":"BKN","base":1700}],"obsTime":1777806000},"SBPB":{"icaoId":"SBPB","flightCategory":"MVFR","rawOb":"METAR SBPB 031100Z 08011KT 9999 BKN016 OVC080 25/23 Q1014","temp":25,"dewp":23,"wdir":80,"wspd":11,"visib":"6+","altim":1014,"clouds":[{"cover":"BKN","base":1600},{"cover":"OVC","base":8000}],"obsTime":1777806000},"SBCO":{"icaoId":"SBCO","flightCategory":"VFR","rawOb":"METAR SBCO 031100Z 29002KT CAVOK 07/06 Q1025","temp":7,"dewp":6,"wdir":290,"wspd":2,"visib":"6+","altim":1025,"clouds":[],"obsTime":1777806000},"SBSJ":{"icaoId":"SBSJ","flightCategory":"IFR","rawOb":"METAR SBSJ 031100Z 18002KT 4000 -DZ BR OVC015 18/17 Q1022","temp":18,"dewp":17,"wdir":180,"wspd":2,"visib":2.49,"altim":1022,"clouds":[{"cover":"OVC","base":1500}],"obsTime":1777806000},"SBDN":{"icaoId":"SBDN","flightCategory":"VFR","rawOb":"METAR SBDN 031100Z 10007KT CAVOK 19/15 Q1019","temp":19,"dewp":15,"wdir":100,"wspd":7,"visib":"6+","altim":1019,"clouds":[],"obsTime":1777806000},"SBSC":{"icaoId":"SBSC","flightCategory":"VFR","rawOb":"METAR SBSC 031100Z 19008KT 9999 FEW010 SCT030 BKN040 24/21 Q1019","temp":24,"dewp":21,"wdir":190,"wspd":8,"visib":"6+","altim":1019,"clouds":[{"cover":"FEW","base":1000},{"cover":"SCT","base":3000},{"cover":"BKN","base":4000}],"obsTime":1777806000},"SBES":{"icaoId":"SBES","flightCategory":"VFR","rawOb":"METAR SBES 031100Z 22010KT 160V270 9000 SCT012 BKN040 22/// Q1018","temp":null,"dewp":null,"wdir":220,"wspd":10,"visib":5.59,"altim":1018,"clouds":[{"cover":"SCT","base":1200},{"cover":"BKN","base":4000}],"obsTime":1777806000},"SBGM":{"icaoId":"SBGM","flightCategory":"VFR","rawOb":"METAR SBGM 031200Z 12003KT CAVOK 26/25 Q1013","temp":26,"dewp":25,"wdir":120,"wspd":3,"visib":"6+","altim":1013,"clouds":[],"obsTime":1777809600},"SBPS":{"icaoId":"SBPS","flightCategory":"VFR","rawOb":"METAR SBPS 031100Z 25005KT CAVOK 25/23 Q1016","temp":25,"dewp":23,"wdir":250,"wspd":5,"visib":"6+","altim":1016,"clouds":[],"obsTime":1777806000},"SBIP":{"icaoId":"SBIP","flightCategory":"VFR","rawOb":"METAR SBIP 031100Z AUTO VRB02KT CAVOK 22/22 Q1018","temp":22,"dewp":22,"wdir":"VRB","wspd":2,"visib":"6+","altim":1018,"clouds":[],"obsTime":1777806000},"SBPP":{"icaoId":"SBPP","flightCategory":"VFR","rawOb":"SPECI SBPP 031115Z 06007KT 9999 FEW009 BKN070 20/18 Q1020","temp":20,"dewp":18,"wdir":60,"wspd":7,"visib":"6+","altim":1020,"clouds":[{"cover":"FEW","base":900},{"cover":"BKN","base":7000}],"obsTime":1777806900},"SBKG":{"icaoId":"SBKG","flightCategory":"VFR","rawOb":"METAR SBKG 031100Z 16007KT 9999 SCT015 24/21 Q1017","temp":24,"dewp":21,"wdir":160,"wspd":7,"visib":"6+","altim":1017,"clouds":[{"cover":"SCT","base":1500}],"obsTime":1777806000},"SBOI":{"icaoId":"SBOI","flightCategory":"VFR","rawOb":"METAR SBOI 031100Z AUTO 03004KT 360V060 9999 FEW019 27/26 Q1013","temp":27,"dewp":26,"wdir":30,"wspd":4,"visib":"6+","altim":1013,"clouds":[{"cover":"FEW","base":1900}],"obsTime":1777806000},"SBLE":{"icaoId":"SBLE","flightCategory":"IFR","rawOb":"METAR SBLE 031100Z AUTO 15004KT 130V200 9999 BKN005 BKN013 ///// Q////","temp":null,"dewp":null,"wdir":150,"wspd":4,"visib":"6+","altim":null,"clouds":[{"cover":"BKN","base":500},{"cover":"BKN","base":1300}],"obsTime":1777806000},"SBST":{"icaoId":"SBST","flightCategory":"IFR","rawOb":"METAR SBST 031100Z /////KT 2000 -RA BR OVC015 ///// Q1021","temp":null,"dewp":null,"wdir":null,"wspd":null,"visib":1.24,"altim":1021,"clouds":[{"cover":"OVC","base":1500}],"obsTime":1777806000},"SBAN":{"icaoId":"SBAN","flightCategory":"VFR","rawOb":"METAR SBAN 031100Z 16005KT CAVOK 20/15 Q1021","temp":20,"dewp":15,"wdir":160,"wspd":5,"visib":"6+","altim":1021,"clouds":[],"obsTime":1777806000},"SBAF":{"icaoId":"SBAF","flightCategory":"MVFR","rawOb":"METAR SBAF 031100Z 21008KT 8000 FEW020 BKN065 23/23 Q1019","temp":23,"dewp":23,"wdir":210,"wspd":8,"visib":4.97,"altim":1019,"clouds":[{"cover":"FEW","base":2000},{"cover":"BKN","base":6500}],"obsTime":1777806000},"SBGW":{"icaoId":"SBGW","flightCategory":"VFR","rawOb":"METAR SBGW 031100Z 22005KT 9999 FEW015 BKN060 21/15 Q1021","temp":21,"dewp":15,"wdir":220,"wspd":5,"visib":"6+","altim":1021,"clouds":[{"cover":"FEW","base":1500},{"cover":"BKN","base":6000}],"obsTime":1777806000},"SBJR":{"icaoId":"SBJR","flightCategory":"IFR","rawOb":"METAR SBJR 031100Z 22003KT 9999 BKN007 BKN025 BKN050 24/21 Q1019","temp":24,"dewp":21,"wdir":220,"wspd":3,"visib":"6+","altim":1019,"clouds":[{"cover":"BKN","base":700},{"cover":"BKN","base":2500},{"cover":"BKN","base":5000}],"obsTime":1777806000},"SBLS":{"icaoId":"SBLS","flightCategory":"VFR","rawOb":"METAR SBLS 031100Z 12003KT 360V170 CAVOK 20/16 Q1020","temp":20,"dewp":16,"wdir":120,"wspd":3,"visib":"6+","altim":1020,"clouds":[],"obsTime":1777806000},"SBMT":{"icaoId":"SBMT","flightCategory":"MVFR","rawOb":"METAR SBMT 031100Z 13007KT 8000 SCT011 BKN013 18/17 Q1023","temp":18,"dewp":17,"wdir":130,"wspd":7,"visib":4.97,"altim":1023,"clouds":[{"cover":"SCT","base":1100},{"cover":"BKN","base":1300}],"obsTime":1777806000},"SBTA":{"icaoId":"SBTA","flightCategory":"MVFR","rawOb":"METAR SBTA 031100Z 21004KT 9999 BKN030 BKN045 20/16 Q1021","temp":20,"dewp":16,"wdir":210,"wspd":4,"visib":"6+","altim":1021,"clouds":[{"cover":"BKN","base":3000},{"cover":"BKN","base":4500}],"obsTime":1777806000},"SBJV":{"icaoId":"SBJV","flightCategory":"MVFR","rawOb":"METAR SBJV 031100Z 14009KT 9999 BKN020 19/14 Q1022","temp":19,"dewp":14,"wdir":140,"wspd":9,"visib":"6+","altim":1022,"clouds":[{"cover":"BKN","base":2000}],"obsTime":1777806000},"SBPF":{"icaoId":"SBPF","flightCategory":"VFR","rawOb":"METAR SBPF 031100Z 11009KT CAVOK 08/05 Q1024","temp":8,"dewp":5,"wdir":110,"wspd":9,"visib":"6+","altim":1024,"clouds":[],"obsTime":1777806000},"SBIH":{"icaoId":"SBIH","flightCategory":"VFR","rawOb":"METAR SBIH 031100Z 08003KT 9999 FEW010 BKN080 26/25 Q1012","temp":26,"dewp":25,"wdir":80,"wspd":3,"visib":"6+","altim":1012,"clouds":[{"cover":"FEW","base":1000},{"cover":"BKN","base":8000}],"obsTime":1777806000},"SBJP":{"icaoId":"SBJP","flightCategory":"MVFR","rawOb":"METAR SBJP 031100Z 19006KT 9999 BKN020 OVC070 26/24 Q1014","temp":26,"dewp":24,"wdir":190,"wspd":6,"visib":"6+","altim":1014,"clouds":[{"cover":"BKN","base":2000},{"cover":"OVC","base":7000}],"obsTime":1777806000}}}