{"updated":1784310895,"count":88,"data":{"SBRF":{"icaoId":"SBRF","flightCategory":"VFR","rawOb":"METAR SBRF 171600Z 16017KT 9999 SCT022 BKN070 27/23 Q1017","temp":27,"dewp":23,"wdir":160,"wspd":17,"visib":"6+","altim":1017,"clouds":[{"cover":"SCT","base":2200},{"cover":"BKN","base":7000}],"obsTime":1784304000},"SBBV":{"icaoId":"SBBV","flightCategory":"MVFR","rawOb":"METAR SBBV 171600Z 07009KT 9999 BKN030 FEW035TCU BKN070 31/23 Q1014","temp":31,"dewp":23,"wdir":70,"wspd":9,"visib":"6+","altim":1014,"clouds":[{"cover":"BKN","base":3000},{"cover":"FEW","base":3500},{"cover":"BKN","base":7000}],"obsTime":1784304000},"SBMQ":{"icaoId":"SBMQ","flightCategory":"MVFR","rawOb":"METAR SBMQ 171600Z 06009KT 020V090 9999 VCSH BKN020 FEW023TCU BKN080 32/25 Q1014","temp":32,"dewp":25,"wdir":60,"wspd":9,"visib":"6+","altim":1014,"clouds":[{"cover":"BKN","base":2000},{"cover":"FEW","base":2300},{"cover":"BKN","base":8000}],"obsTime":1784304000},"SBRB":{"icaoId":"SBRB","flightCategory":"MVFR","rawOb":"METAR SBRB 171600Z 35005KT 290V080 8000 VCSH BKN020 FEW030TCU 31/24 Q1015","temp":31,"dewp":24,"wdir":350,"wspd":5,"visib":4.97,"altim":1015,"clouds":[{"cover":"BKN","base":2000},{"cover":"FEW","base":3000}],"obsTime":1784304000},"SBPA":{"icaoId":"SBPA","flightCategory":"VFR","rawOb":"METAR SBPA 171600Z 35008KT 310V060 CAVOK 32/14 Q1007","temp":32,"dewp":14,"wdir":350,"wspd":8,"visib":"6+","altim":1007,"clouds":[],"obsTime":1784304000},"SBMA":{"icaoId":"SBMA","flightCategory":"VFR","rawOb":"METAR SBMA 171600Z 08008KT 9999 FEW020 33/19 Q1014","temp":33,"dewp":19,"wdir":80,"wspd":8,"visib":"6+","altim":1014,"clouds":[{"cover":"FEW","base":2000}],"obsTime":1784304000},"SBMG":{"icaoId":"SBMG","flightCategory":"VFR","rawOb":"METAR SBMG 171600Z 02018KT CAVOK 26/13 Q1017","temp":26,"dewp":13,"wdir":20,"wspd":18,"visib":"6+","altim":1017,"clouds":[],"obsTime":1784304000},"SBIL":{"icaoId":"SBIL","flightCategory":"VFR","rawOb":"METAR SBIL 171600Z 10016KT 9999 SCT023 BKN070 27/21 Q1023","temp":27,"dewp":21,"wdir":100,"wspd":16,"visib":"6+","altim":1023,"clouds":[{"cover":"SCT","base":2300},{"cover":"BKN","base":7000}],"obsTime":1784304000},"SBJU":{"icaoId":"SBJU","flightCategory":"VFR","rawOb":"METAR SBJU 171600Z 18015KT 9999 SCT022 30/16 Q1018","temp":30,"dewp":16,"wdir":180,"wspd":15,"visib":"6+","altim":1018,"clouds":[{"cover":"SCT","base":2200}],"obsTime":1784304000},"SBAT":{"icaoId":"SBAT","flightCategory":"MVFR","rawOb":"METAR SBAT 171600Z 09009KT 9999 BKN030 32/20 Q1015","temp":32,"dewp":20,"wdir":90,"wspd":9,"visib":"6+","altim":1015,"clouds":[{"cover":"BKN","base":3000}],"obsTime":1784304000},"SBHT":{"icaoId":"SBHT","flightCategory":"VFR","rawOb":"METAR SBHT 171600Z 10008KT 9999 SCT030 32/25 Q1014","temp":32,"dewp":25,"wdir":100,"wspd":8,"visib":"6+","altim":1014,"clouds":[{"cover":"SCT","base":3000}],"obsTime":1784304000},"SBME":{"icaoId":"SBME","flightCategory":"VFR","rawOb":"METAR SBME 171600Z 02019KT CAVOK 27/12 Q1022","temp":27,"dewp":12,"wdir":20,"wspd":19,"visib":"6+","altim":1022,"clouds":[],"obsTime":1784304000},"SBMK":{"icaoId":"SBMK","flightCategory":"VFR","rawOb":"METAR SBMK 171600Z 06008KT 9999 SCT040 24/09 Q1024","temp":24,"dewp":9,"wdir":60,"wspd":8,"visib":"6+","altim":1024,"clouds":[{"cover":"SCT","base":4000}],"obsTime":1784304000},"SBUL":{"icaoId":"SBUL","flightCategory":"VFR","rawOb":"METAR SBUL 171600Z 08014KT 040V100 CAVOK 22/09 Q1024","temp":22,"dewp":9,"wdir":80,"wspd":14,"visib":"6+","altim":1024,"clouds":[],"obsTime":1784304000},"SBUR":{"icaoId":"SBUR","flightCategory":"VFR","rawOb":"METAR SBUR 171600Z 04010KT CAVOK 24/08 Q1023","temp":24,"dewp":8,"wdir":40,"wspd":10,"visib":"6+","altim":1023,"clouds":[],"obsTime":1784304000},"SBEG":{"icaoId":"SBEG","flightCategory":"VFR","rawOb":"METAR SBEG 171600Z 07010KT 9999 SCT030 32/23 Q1014","temp":32,"dewp":23,"wdir":70,"wspd":10,"visib":"6+","altim":1014,"clouds":[{"cover":"SCT","base":3000}],"obsTime":1784304000},"SBMO":{"icaoId":"SBMO","flightCategory":"MVFR","rawOb":"METAR SBMO 171600Z 18012KT 9999 BKN020 26/21 Q1019","temp":26,"dewp":21,"wdir":180,"wspd":12,"visib":"6+","altim":1019,"clouds":[{"cover":"BKN","base":2000}],"obsTime":1784304000},"SBFZ":{"icaoId":"SBFZ","flightCategory":"MVFR","rawOb":"METAR SBFZ 171600Z 14016KT 9999 BKN030 31/21 Q1013","temp":31,"dewp":21,"wdir":140,"wspd":16,"visib":"6+","altim":1013,"clouds":[{"cover":"BKN","base":3000}],"obsTime":1784304000},"SBPV":{"icaoId":"SBPV","flightCategory":"MVFR","rawOb":"METAR SBPV 171600Z 04015KT 8000 -RA BKN020 FEW035TCU 27/23 Q1014","temp":27,"dewp":23,"wdir":40,"wspd":15,"visib":4.97,"altim":1014,"clouds":[{"cover":"BKN","base":2000},{"cover":"FEW","base":3500}],"obsTime":1784304000},"SBSL":{"icaoId":"SBSL","flightCategory":"VFR","rawOb":"METAR SBSL 171600Z 11009KT 9999 SCT027 31/22 Q1014","temp":31,"dewp":22,"wdir":110,"wspd":9,"visib":"6+","altim":1014,"clouds":[{"cover":"SCT","base":2700}],"obsTime":1784304000},"SBCB":{"icaoId":"SBCB","flightCategory":"VFR","rawOb":"METAR SBCB 171600Z 10023KT CAVOK 26/14 Q1022","temp":26,"dewp":14,"wdir":100,"wspd":23,"visib":"6+","altim":1022,"clouds":[],"obsTime":1784304000},"SBBR":{"icaoId":"SBBR","flightCategory":"VFR","rawOb":"METAR SBBR 171600Z 09011KT CAVOK 22/06 Q1024","temp":22,"dewp":6,"wdir":90,"wspd":11,"visib":"6+","altim":1024,"clouds":[],"obsTime":1784304000},"SBSV":{"icaoId":"SBSV","flightCategory":"VFR","rawOb":"METAR SBSV 171600Z 12015KT 9999 SCT025 SCT100 27/17 Q1021","temp":27,"dewp":17,"wdir":120,"wspd":15,"visib":"6+","altim":1021,"clouds":[{"cover":"SCT","base":2500},{"cover":"SCT","base":10000}],"obsTime":1784304000},"SBCR":{"icaoId":"SBCR","flightCategory":"VFR","rawOb":"METAR SBCR 171600Z 34012KT 310V020 CAVOK 33/22 Q1011","temp":33,"dewp":22,"wdir":340,"wspd":12,"visib":"6+","altim":1011,"clouds":[],"obsTime":1784304000},"SBGR":{"icaoId":"SBGR","flightCategory":"VFR","rawOb":"METAR SBGR 171600Z 01007KT CAVOK 24/09 Q1023","temp":24,"dewp":9,"wdir":10,"wspd":7,"visib":"6+","altim":1023,"clouds":[],"obsTime":1784304000},"SBCP":{"icaoId":"SBCP","flightCategory":"VFR","rawOb":"METAR SBCP 171600Z 06012KT 9999 FEW025 28/13 Q1023","temp":28,"dewp":13,"wdir":60,"wspd":12,"visib":"6+","altim":1023,"clouds":[{"cover":"FEW","base":2500}],"obsTime":1784304000},"SBVT":{"icaoId":"SBVT","flightCategory":"VFR","rawOb":"METAR SBVT 171600Z 05010KT 9999 SCT030 SCT060 26/15 Q1024","temp":26,"dewp":15,"wdir":50,"wspd":10,"visib":"6+","altim":1024,"clouds":[{"cover":"SCT","base":3000},{"cover":"SCT","base":6000}],"obsTime":1784304000},"SBBE":{"icaoId":"SBBE","flightCategory":"VFR","rawOb":"METAR SBBE 171600Z 11009KT 9999 SCT036 32/24 Q1014","temp":32,"dewp":24,"wdir":110,"wspd":9,"visib":"6+","altim":1014,"clouds":[{"cover":"SCT","base":3600}],"obsTime":1784304000},"SBFL":{"icaoId":"SBFL","flightCategory":"VFR","rawOb":"METAR SBFL 171600Z 34013KT CAVOK 21/17 Q1016","temp":21,"dewp":17,"wdir":340,"wspd":13,"visib":"6+","altim":1016,"clouds":[],"obsTime":1784304000},"SBTE":{"icaoId":"SBTE","flightCategory":"VFR","rawOb":"METAR SBTE 171600Z 13011KT 9999 SCT040 31/18 Q1014","temp":31,"dewp":18,"wdir":130,"wspd":11,"visib":"6+","altim":1014,"clouds":[{"cover":"SCT","base":4000}],"obsTime":1784304000},"SBCZ":{"icaoId":"SBCZ","flightCategory":"VFR","rawOb":"METAR SBCZ 171600Z 06009KT 9999 SCT013 SCT100 27/24 Q1016","temp":27,"dewp":24,"wdir":60,"wspd":9,"visib":"6+","altim":1016,"clouds":[{"cover":"SCT","base":1300},{"cover":"SCT","base":10000}],"obsTime":1784304000},"SBPJ":{"icaoId":"SBPJ","flightCategory":"VFR","rawOb":"METAR SBPJ 171600Z 15010KT CAVOK 31/13 Q1017","temp":31,"dewp":13,"wdir":150,"wspd":10,"visib":"6+","altim":1017,"clouds":[],"obsTime":1784304000},"SBFI":{"icaoId":"SBFI","flightCategory":"VFR","rawOb":"METAR SBFI 171600Z 02022G33KT CAVOK 29/18 Q1009","temp":29,"dewp":18,"wdir":20,"wspd":22,"visib":"6+","altim":1009,"clouds":[],"obsTime":1784304000},"SBGO":{"icaoId":"SBGO","flightCategory":"VFR","rawOb":"METAR SBGO 171600Z 10008KT CAVOK 27/10 Q1022","temp":27,"dewp":10,"wdir":100,"wspd":8,"visib":"6+","altim":1022,"clouds":[],"obsTime":1784304000},"SBCG":{"icaoId":"SBCG","flightCategory":"VFR","rawOb":"METAR SBCG 171600Z 34019KT 9999 SCT040 BKN060 30/19 Q1016","temp":30,"dewp":19,"wdir":340,"wspd":19,"visib":"6+","altim":1016,"clouds":[{"cover":"SCT","base":4000},{"cover":"BKN","base":6000}],"obsTime":1784304000},"SBLO":{"icaoId":"SBLO","flightCategory":"VFR","rawOb":"METAR SBLO 171600Z 04011KT CAVOK 23/12 Q1020","temp":23,"dewp":12,"wdir":40,"wspd":11,"visib":"6+","altim":1020,"clouds":[],"obsTime":1784304000},"SBSP":{"icaoId":"SBSP","flightCategory":"VFR","rawOb":"METAR SBSP 171600Z 01008KT 330V050 CAVOK 23/07 Q1024","temp":23,"dewp":7,"wdir":10,"wspd":8,"visib":"6+","altim":1024,"clouds":[],"obsTime":1784304000},"SBNT":{"icaoId":"SBNT","flightCategory":"IFR","rawOb":"METAR SBNT 171600Z 16013KT 4000 -RA BR BKN007 OVC020 25/23 Q1016","temp":25,"dewp":23,"wdir":160,"wspd":13,"visib":2.49,"altim":1016,"clouds":[{"cover":"BKN","base":700},{"cover":"OVC","base":2000}],"obsTime":1784304000},"SBSG":{"icaoId":"SBSG","flightCategory":"IFR","rawOb":"METAR SBSG 171600Z 14010KT 100V180 4000 -RA BR BKN011 BKN030 25/23 Q1016","temp":25,"dewp":23,"wdir":140,"wspd":10,"visib":2.49,"altim":1016,"clouds":[{"cover":"BKN","base":1100},{"cover":"BKN","base":3000}],"obsTime":1784304000},"SBCT":{"icaoId":"SBCT","flightCategory":"VFR","rawOb":"METAR SBCT 171600Z 34013KT CAVOK 23/11 Q1021","temp":23,"dewp":11,"wdir":340,"wspd":13,"visib":"6+","altim":1021,"clouds":[],"obsTime":1784304000},"SBCF":{"icaoId":"SBCF","flightCategory":"VFR","rawOb":"METAR SBCF 171600Z 02008KT 310V070 9999 FEW030 21/09 Q1026","temp":21,"dewp":9,"wdir":20,"wspd":8,"visib":"6+","altim":1026,"clouds":[{"cover":"FEW","base":3000}],"obsTime":1784304000},"SBGL":{"icaoId":"SBGL","flightCategory":"VFR","rawOb":"METAR SBGL 171600Z 06005KT CAVOK 27/11 Q1021","temp":27,"dewp":11,"wdir":60,"wspd":5,"visib":"6+","altim":1021,"clouds":[],"obsTime":1784304000},"SBSN":{"icaoId":"SBSN","flightCategory":"VFR","rawOb":"METAR SBSN 171600Z 09014KT 9999 SCT017 FEW025TCU SCT080 29/25 Q1014","temp":29,"dewp":25,"wdir":90,"wspd":14,"visib":"6+","altim":1014,"clouds":[{"cover":"SCT","base":1700},{"cover":"FEW","base":2500},{"cover":"SCT","base":8000}],"obsTime":1784304000},"SBKP":{"icaoId":"SBKP","flightCategory":"VFR","rawOb":"METAR SBKP 171600Z 04010KT 020V090 CAVOK 24/08 Q1023","temp":24,"dewp":8,"wdir":40,"wspd":10,"visib":"6+","altim":1023,"clouds":[],"obsTime":1784304000},"SBAX":{"icaoId":"SBAX","flightCategory":"VFR","rawOb":"METAR SBAX 171600Z 05008KT CAVOK 20/07 Q1025","temp":20,"dewp":7,"wdir":50,"wspd":8,"visib":"6+","altim":1025,"clouds":[],"obsTime":1784304000},"SBBQ":{"icaoId":"SBBQ","flightCategory":"VFR","rawOb":"METAR SBBQ 171600Z 36007KT CAVOK 20/08 Q1029","temp":20,"dewp":8,"wdir":360,"wspd":7,"visib":"6+","altim":1029,"clouds":[],"obsTime":1784304000},"SBBU":{"icaoId":"SBBU","flightCategory":"VFR","rawOb":"METAR SBBU 171600Z 01005KT CAVOK 24/11 Q1022","temp":24,"dewp":11,"wdir":10,"wspd":5,"visib":"6+","altim":1022,"clouds":[],"obsTime":1784304000},"SBDN":{"icaoId":"SBDN","flightCategory":"VFR","rawOb":"METAR SBDN 171600Z 03012KT CAVOK 27/12 Q1019","temp":27,"dewp":12,"wdir":30,"wspd":12,"visib":"6+","altim":1019,"clouds":[],"obsTime":1784304000},"SBIP":{"icaoId":"SBIP","flightCategory":"VFR","rawOb":"METAR SBIP 171600Z AUTO 35008KT 310V020 CAVOK 25/13 Q1025","temp":25,"dewp":13,"wdir":350,"wspd":8,"visib":"6+","altim":1025,"clouds":[],"obsTime":1784304000},"SBPP":{"icaoId":"SBPP","flightCategory":"VFR","rawOb":"METAR SBPP 171600Z 01010KT CAVOK 28/20 Q1013","temp":28,"dewp":20,"wdir":10,"wspd":10,"visib":"6+","altim":1013,"clouds":[],"obsTime":1784304000},"SBSC":{"icaoId":"SBSC","flightCategory":"VFR","rawOb":"METAR SBSC 171600Z 01014G25KT CAVOK 27/11 Q1020","temp":27,"dewp":11,"wdir":10,"wspd":14,"visib":"6+","altim":1020,"clouds":[],"obsTime":1784304000},"SBSR":{"icaoId":"SBSR","flightCategory":"VFR","rawOb":"METAR SBSR 171600Z 05013KT CAVOK 25/08 Q1021","temp":25,"dewp":8,"wdir":50,"wspd":13,"visib":"6+","altim":1021,"clouds":[],"obsTime":1784304000},"SBSM":{"icaoId":"SBSM","flightCategory":"VFR","rawOb":"METAR SBSM 171600Z 36021G38KT 9999 FEW020 31/17 Q1004 WS ALL RWY","temp":31,"dewp":17,"wdir":360,"wspd":21,"visib":"6+","altim":1004,"clouds":[{"cover":"FEW","base":2000}],"obsTime":1784304000},"SBTU":{"icaoId":"SBTU","flightCategory":"VFR","rawOb":"METAR SBTU 171600Z AUTO 28012KT 240V310 9999 // FEW053/// 31/19 Q1016","temp":31,"dewp":19,"wdir":280,"wspd":12,"visib":"6+","altim":1016,"clouds":[{"cover":"FEW","base":5300}],"obsTime":1784304000},"SBOI":{"icaoId":"SBOI","flightCategory":"VFR","rawOb":"METAR SBOI 171600Z AUTO 10007KT 050V160 9999 SCT039 32/23 Q1014","temp":32,"dewp":23,"wdir":100,"wspd":7,"visib":"6+","altim":1014,"clouds":[{"cover":"SCT","base":3900}],"obsTime":1784304000},"SBES":{"icaoId":"SBES","flightCategory":"VFR","rawOb":"METAR SBES 171600Z 05015KT 010V080 CAVOK 26/// Q1022","temp":null,"dewp":null,"wdir":50,"wspd":15,"visib":"6+","altim":1022,"clouds":[],"obsTime":1784304000},"SBPB":{"icaoId":"SBPB","flightCategory":"VFR","rawOb":"METAR SBPB 171600Z 04008KT 9999 FEW020 32/23 Q1013","temp":32,"dewp":23,"wdir":40,"wspd":8,"visib":"6+","altim":1013,"clouds":[{"cover":"FEW","base":2000}],"obsTime":1784304000},"SBCA":{"icaoId":"SBCA","flightCategory":"VFR","rawOb":"METAR SBCA 171700Z 02022G32KT 9999 SCT040 26/15 Q1015","temp":26,"dewp":15,"wdir":20,"wspd":22,"visib":"6+","altim":1015,"clouds":[{"cover":"SCT","base":4000}],"obsTime":1784307600},"SBCO":{"icaoId":"SBCO","flightCategory":"VFR","rawOb":"METAR SBCO 171600Z 34007G17KT 300V030 CAVOK 32/15 Q1008","temp":32,"dewp":15,"wdir":340,"wspd":7,"visib":"6+","altim":1008,"clouds":[],"obsTime":1784304000},"SBBH":{"icaoId":"SBBH","flightCategory":"VFR","rawOb":"METAR SBBH 171600Z 10013KT CAVOK 22/10 Q1026","temp":22,"dewp":10,"wdir":100,"wspd":13,"visib":"6+","altim":1026,"clouds":[],"obsTime":1784304000},"SBCC":{"icaoId":"SBCC","flightCategory":"VFR","rawOb":"METAR SBCC 171600Z 07012KT 040V100 9999 BKN040 30/18 Q1017","temp":30,"dewp":18,"wdir":70,"wspd":12,"visib":"6+","altim":1017,"clouds":[{"cover":"BKN","base":4000}],"obsTime":1784304000},"SBGM":{"icaoId":"SBGM","flightCategory":"VFR","rawOb":"METAR SBGM 171600Z 32007KT 9999 FEW040 31/22 Q1014","temp":31,"dewp":22,"wdir":320,"wspd":7,"visib":"6+","altim":1014,"clouds":[{"cover":"FEW","base":4000}],"obsTime":1784304000},"SBPS":{"icaoId":"SBPS","flightCategory":"MVFR","rawOb":"METAR SBPS 171600Z 05005KT 010V080 8000 VCSH SCT015 OVC025 23/20 Q1024","temp":23,"dewp":20,"wdir":50,"wspd":5,"visib":4.97,"altim":1024,"clouds":[{"cover":"SCT","base":1500},{"cover":"OVC","base":2500}],"obsTime":1784304000},"SBVH":{"icaoId":"SBVH","flightCategory":"MVFR","rawOb":"METAR SBVH 171600Z 34011KT 9999 BKN025 BKN100 28/22 Q1018","temp":28,"dewp":22,"wdir":340,"wspd":11,"visib":"6+","altim":1018,"clouds":[{"cover":"BKN","base":2500},{"cover":"BKN","base":10000}],"obsTime":1784304000},"SBCJ":{"icaoId":"SBCJ","flightCategory":"VFR","rawOb":"METAR SBCJ 171600Z 09010KT 060V130 9999 FEW023 28/17 Q1018","temp":28,"dewp":17,"wdir":90,"wspd":10,"visib":"6+","altim":1018,"clouds":[{"cover":"FEW","base":2300}],"obsTime":1784304000},"SBAU":{"icaoId":"SBAU","flightCategory":"VFR","rawOb":"METAR SBAU 171600Z 03010KT CAVOK 29/10 Q1020","temp":29,"dewp":10,"wdir":30,"wspd":10,"visib":"6+","altim":1020,"clouds":[],"obsTime":1784304000},"SBTF":{"icaoId":"SBTF","flightCategory":"VFR","rawOb":"METAR SBTF 171600Z 12006KT 9999 SCT020 32/26 Q1013","temp":32,"dewp":26,"wdir":120,"wspd":6,"visib":"6+","altim":1013,"clouds":[{"cover":"SCT","base":2000}],"obsTime":1784304000},"SBAR":{"icaoId":"SBAR","flightCategory":"VFR","rawOb":"METAR SBAR 171600Z 14013KT 9999 SCT030 BKN070 28/21 Q1020","temp":28,"dewp":21,"wdir":140,"wspd":13,"visib":"6+","altim":1020,"clouds":[{"cover":"SCT","base":3000},{"cover":"BKN","base":7000}],"obsTime":1784304000},"SBPL":{"icaoId":"SBPL","flightCategory":"MVFR","rawOb":"METAR SBPL 171600Z 12013KT 9999 BKN030 27/15 Q1020","temp":27,"dewp":15,"wdir":120,"wspd":13,"visib":"6+","altim":1020,"clouds":[{"cover":"BKN","base":3000}],"obsTime":1784304000},"SBTT":{"icaoId":"SBTT","flightCategory":"MVFR","rawOb":"METAR SBTT 171600Z 26004KT 220V300 9999 BKN020 28/25 Q1015","temp":28,"dewp":25,"wdir":260,"wspd":4,"visib":"6+","altim":1015,"clouds":[{"cover":"BKN","base":2000}],"obsTime":1784304000},"SBSJ":{"icaoId":"SBSJ","flightCategory":"VFR","rawOb":"METAR SBSJ 171600Z 36005KT CAVOK 22/09 Q1023","temp":22,"dewp":9,"wdir":360,"wspd":5,"visib":"6+","altim":1023,"clouds":[],"obsTime":1784304000},"SBUY":{"icaoId":"SBUY","flightCategory":"VFR","rawOb":"METAR SBUY 171600Z 13004KT 9999 SCT030 31/25 Q1013","temp":31,"dewp":25,"wdir":130,"wspd":4,"visib":"6+","altim":1013,"clouds":[{"cover":"SCT","base":3000}],"obsTime":1784304000},"SBKG":{"icaoId":"SBKG","flightCategory":"VFR","rawOb":"METAR SBKG 171600Z 15012KT 9999 SCT020 BKN070 26/19 Q1019","temp":26,"dewp":19,"wdir":150,"wspd":12,"visib":"6+","altim":1019,"clouds":[{"cover":"SCT","base":2000},{"cover":"BKN","base":7000}],"obsTime":1784304000},"SBTD":{"icaoId":"SBTD","flightCategory":"VFR","rawOb":"METAR SBTD 171600Z /////KT 9999 FEW030 28/16 Q1015","temp":28,"dewp":16,"wdir":null,"wspd":null,"visib":"6+","altim":1015,"clouds":[{"cover":"FEW","base":3000}],"obsTime":1784304000},"SBNM":{"icaoId":"SBNM","flightCategory":"VFR","rawOb":"METAR SBNM 171700Z AUTO 36021KT CAVOK 30/18 Q1005","temp":30,"dewp":18,"wdir":360,"wspd":21,"visib":"6+","altim":1005,"clouds":[],"obsTime":1784307600},"SBJP":{"icaoId":"SBJP","flightCategory":"MVFR","rawOb":"METAR SBJP 171600Z 19009KT 9999 BKN017 BKN022 27/23 Q1017","temp":27,"dewp":23,"wdir":190,"wspd":9,"visib":"6+","altim":1017,"clouds":[{"cover":"BKN","base":1700},{"cover":"BKN","base":2200}],"obsTime":1784304000},"SBPF":{"icaoId":"SBPF","flightCategory":"VFR","rawOb":"METAR SBPF 171600Z AUTO 01012G22KT 9999 NSC 26/15 Q1013","temp":26,"dewp":15,"wdir":10,"wspd":12,"visib":"6+","altim":1013,"clouds":[],"obsTime":1784304000},"SBAN":{"icaoId":"SBAN","flightCategory":"VFR","rawOb":"METAR SBAN 171600Z 11010KT 060V130 CAVOK 24/07 Q1024","temp":24,"dewp":7,"wdir":110,"wspd":10,"visib":"6+","altim":1024,"clouds":[],"obsTime":1784304000},"SBLE":{"icaoId":"SBLE","flightCategory":"VFR","rawOb":"METAR SBLE 171600Z AUTO 14007KT 100V180 9999 SCT043 24/15 Q1023","temp":24,"dewp":15,"wdir":140,"wspd":7,"visib":"6+","altim":1023,"clouds":[{"cover":"SCT","base":4300}],"obsTime":1784304000},"SBIH":{"icaoId":"SBIH","flightCategory":"VFR","rawOb":"METAR SBIH 171600Z 05010KT 9999 SCT020 FEW025TCU 31/24 Q1013","temp":31,"dewp":24,"wdir":50,"wspd":10,"visib":"6+","altim":1013,"clouds":[{"cover":"SCT","base":2000},{"cover":"FEW","base":2500}],"obsTime":1784304000},"SBAF":{"icaoId":"SBAF","flightCategory":"VFR","rawOb":"METAR SBAF 171600Z 35007KT CAVOK 28/10 Q1021","temp":28,"dewp":10,"wdir":350,"wspd":7,"visib":"6+","altim":1021,"clouds":[],"obsTime":1784304000},"SBGW":{"icaoId":"SBGW","flightCategory":"VFR","rawOb":"METAR SBGW 171600Z 07006KT CAVOK 23/08 Q1023","temp":23,"dewp":8,"wdir":70,"wspd":6,"visib":"6+","altim":1023,"clouds":[],"obsTime":1784304000},"SBJR":{"icaoId":"SBJR","flightCategory":"VFR","rawOb":"METAR SBJR 171600Z 01008KT CAVOK 30/10 Q1020","temp":30,"dewp":10,"wdir":10,"wspd":8,"visib":"6+","altim":1020,"clouds":[],"obsTime":1784304000},"SBLS":{"icaoId":"SBLS","flightCategory":"VFR","rawOb":"METAR SBLS 171600Z 04006KT 9999 FEW043 22/10 Q1026","temp":22,"dewp":10,"wdir":40,"wspd":6,"visib":"6+","altim":1026,"clouds":[{"cover":"FEW","base":4300}],"obsTime":1784304000},"SBMT":{"icaoId":"SBMT","flightCategory":"VFR","rawOb":"METAR SBMT 171600Z 32006KT 280V010 CAVOK 23/08 Q1023","temp":23,"dewp":8,"wdir":320,"wspd":6,"visib":"6+","altim":1023,"clouds":[],"obsTime":1784304000},"SBST":{"icaoId":"SBST","flightCategory":"VFR","rawOb":"METAR SBST 171600Z 14004KT CAVOK 28/11 Q1018","temp":28,"dewp":11,"wdir":140,"wspd":4,"visib":"6+","altim":1018,"clouds":[],"obsTime":1784304000},"SBTA":{"icaoId":"SBTA","flightCategory":"VFR","rawOb":"METAR SBTA 171600Z 03005KT 300V070 CAVOK 23/10 Q1023","temp":23,"dewp":10,"wdir":30,"wspd":5,"visib":"6+","altim":1023,"clouds":[],"obsTime":1784304000},"SBJV":{"icaoId":"SBJV","flightCategory":"MVFR","rawOb":"METAR SBJV 171600Z 15003KT 8000 BKN010 BKN020 19/17 Q1018","temp":19,"dewp":17,"wdir":150,"wspd":3,"visib":4.97,"altim":1018,"clouds":[{"cover":"BKN","base":1000},{"cover":"BKN","base":2000}],"obsTime":1784304000}}}