{"updated":1779318091,"count":74,"data":{"SBEG":{"icaoId":"SBEG","flightCategory":"VFR","rawOb":"METAR SBEG 202200Z 19002KT 9999 SCT020 SCT100 26/24 Q1012","temp":26,"dewp":24,"wdir":190,"wspd":2,"visib":"6+","altim":1012,"clouds":[{"cover":"SCT","base":2000},{"cover":"SCT","base":10000}],"obsTime":1779314400},"SBBE":{"icaoId":"SBBE","flightCategory":"VFR","rawOb":"SPECI SBBE 202129Z 07006KT 9999 TS SCT047 FEW050CB 26/24 Q1010","temp":26,"dewp":24,"wdir":70,"wspd":6,"visib":"6+","altim":1010,"clouds":[{"cover":"SCT","base":4700},{"cover":"FEW","base":5000}],"obsTime":1779312540},"SBBR":{"icaoId":"SBBR","flightCategory":"VFR","rawOb":"METAR SBBR 202200Z 16006KT CAVOK 25/16 Q1020","temp":25,"dewp":16,"wdir":160,"wspd":6,"visib":"6+","altim":1020,"clouds":[],"obsTime":1779314400},"SBBV":{"icaoId":"SBBV","flightCategory":"MVFR","rawOb":"METAR SBBV 202200Z 17004KT 9999 VCSH BKN030 FEW035TCU BKN070 28/25 Q1010","temp":28,"dewp":25,"wdir":170,"wspd":4,"visib":"6+","altim":1010,"clouds":[{"cover":"BKN","base":3000},{"cover":"FEW","base":3500},{"cover":"BKN","base":7000}],"obsTime":1779314400},"SBCF":{"icaoId":"SBCF","flightCategory":"VFR","rawOb":"METAR SBCF 202200Z 16005KT 9999 SCT040 BKN100 20/17 Q1022","temp":20,"dewp":17,"wdir":160,"wspd":5,"visib":"6+","altim":1022,"clouds":[{"cover":"SCT","base":4000},{"cover":"BKN","base":10000}],"obsTime":1779314400},"SBCG":{"icaoId":"SBCG","flightCategory":"VFR","rawOb":"METAR SBCG 202200Z 15006KT 9999 BKN040 SCT100 18/14 Q1021","temp":18,"dewp":14,"wdir":150,"wspd":6,"visib":"6+","altim":1021,"clouds":[{"cover":"BKN","base":4000},{"cover":"SCT","base":10000}],"obsTime":1779314400},"SBFI":{"icaoId":"SBFI","flightCategory":"VFR","rawOb":"METAR SBFI 202200Z 20004KT CAVOK 13/11 Q1022","temp":13,"dewp":11,"wdir":200,"wspd":4,"visib":"6+","altim":1022,"clouds":[],"obsTime":1779314400},"SBFL":{"icaoId":"SBFL","flightCategory":"VFR","rawOb":"METAR SBFL 202200Z 16004KT 120V220 9999 FEW040 16/11 Q1021","temp":16,"dewp":11,"wdir":160,"wspd":4,"visib":"6+","altim":1021,"clouds":[{"cover":"FEW","base":4000}],"obsTime":1779314400},"SBFZ":{"icaoId":"SBFZ","flightCategory":"VFR","rawOb":"METAR SBFZ 202200Z 11010KT 9999 FEW018 27/24 Q1012","temp":27,"dewp":24,"wdir":110,"wspd":10,"visib":"6+","altim":1012,"clouds":[{"cover":"FEW","base":1800}],"obsTime":1779314400},"SBGL":{"icaoId":"SBGL","flightCategory":"MVFR","rawOb":"METAR SBGL 202200Z 27005KT 9999 BKN020 BKN025 22/20 Q1019","temp":22,"dewp":20,"wdir":270,"wspd":5,"visib":"6+","altim":1019,"clouds":[{"cover":"BKN","base":2000},{"cover":"BKN","base":2500}],"obsTime":1779314400},"SBGO":{"icaoId":"SBGO","flightCategory":"VFR","rawOb":"METAR SBGO 202200Z 16004KT 9999 FEW040 26/20 Q1019","temp":26,"dewp":20,"wdir":160,"wspd":4,"visib":"6+","altim":1019,"clouds":[{"cover":"FEW","base":4000}],"obsTime":1779314400},"SBGR":{"icaoId":"SBGR","flightCategory":"MVFR","rawOb":"METAR SBGR 202200Z 16004KT 130V190 9999 FEW011 BKN013 17/15 Q1022","temp":17,"dewp":15,"wdir":160,"wspd":4,"visib":"6+","altim":1022,"clouds":[{"cover":"FEW","base":1100},{"cover":"BKN","base":1300}],"obsTime":1779314400},"SBKP":{"icaoId":"SBKP","flightCategory":"VFR","rawOb":"METAR SBKP 202200Z 28003KT 230V310 CAVOK 20/15 Q1021","temp":20,"dewp":15,"wdir":280,"wspd":3,"visib":"6+","altim":1021,"clouds":[],"obsTime":1779314400},"SBLO":{"icaoId":"SBLO","flightCategory":"VFR","rawOb":"METAR SBLO 202200Z 23002KT 9999 SCT033 19/15 Q1021","temp":19,"dewp":15,"wdir":230,"wspd":2,"visib":"6+","altim":1021,"clouds":[{"cover":"SCT","base":3300}],"obsTime":1779314400},"SBMA":{"icaoId":"SBMA","flightCategory":"VFR","rawOb":"METAR SBMA 202200Z 00000KT 9999 FEW020 FEW025TCU SCT070 29/25 Q1011","temp":29,"dewp":25,"wdir":0,"wspd":0,"visib":"6+","altim":1011,"clouds":[{"cover":"FEW","base":2000},{"cover":"FEW","base":2500},{"cover":"SCT","base":7000}],"obsTime":1779314400},"SBMO":{"icaoId":"SBMO","flightCategory":"VFR","rawOb":"METAR SBMO 202200Z 16005KT 9999 FEW017 BKN043 25/23 Q1015","temp":25,"dewp":23,"wdir":160,"wspd":5,"visib":"6+","altim":1015,"clouds":[{"cover":"FEW","base":1700},{"cover":"BKN","base":4300}],"obsTime":1779314400},"SBMQ":{"icaoId":"SBMQ","flightCategory":"VFR","rawOb":"METAR SBMQ 202200Z 05005KT CAVOK 28/26 Q1011","temp":28,"dewp":26,"wdir":50,"wspd":5,"visib":"6+","altim":1011,"clouds":[],"obsTime":1779314400},"SBPJ":{"icaoId":"SBPJ","flightCategory":"VFR","rawOb":"METAR SBPJ 202200Z 19005KT CAVOK 31/21 Q1012","temp":31,"dewp":21,"wdir":190,"wspd":5,"visib":"6+","altim":1012,"clouds":[],"obsTime":1779314400},"SBPV":{"icaoId":"SBPV","flightCategory":"MVFR","rawOb":"METAR SBPV 202200Z 16008KT 9999 OVC017 24/20 Q1014","temp":24,"dewp":20,"wdir":160,"wspd":8,"visib":"6+","altim":1014,"clouds":[{"cover":"OVC","base":1700}],"obsTime":1779314400},"SBRB":{"icaoId":"SBRB","flightCategory":"MVFR","rawOb":"METAR SBRB 202200Z 16003KT 9999 OVC016 21/19 Q1016","temp":21,"dewp":19,"wdir":160,"wspd":3,"visib":"6+","altim":1016,"clouds":[{"cover":"OVC","base":1600}],"obsTime":1779314400},"SBRF":{"icaoId":"SBRF","flightCategory":"VFR","rawOb":"METAR SBRF 202200Z 14008KT 9999 FEW025 27/22 Q1014","temp":27,"dewp":22,"wdir":140,"wspd":8,"visib":"6+","altim":1014,"clouds":[{"cover":"FEW","base":2500}],"obsTime":1779314400},"SBSG":{"icaoId":"SBSG","flightCategory":"VFR","rawOb":"METAR SBSG 202200Z 13005KT 100V160 9999 FEW023 25/23 Q1014","temp":25,"dewp":23,"wdir":130,"wspd":5,"visib":"6+","altim":1014,"clouds":[{"cover":"FEW","base":2300}],"obsTime":1779314400},"SBSL":{"icaoId":"SBSL","flightCategory":"VFR","rawOb":"METAR SBSL 202200Z 07011KT 9999 FEW020 SCT045 28/24 Q1011","temp":28,"dewp":24,"wdir":70,"wspd":11,"visib":"6+","altim":1011,"clouds":[{"cover":"FEW","base":2000},{"cover":"SCT","base":4500}],"obsTime":1779314400},"SBSP":{"icaoId":"SBSP","flightCategory":"IFR","rawOb":"METAR SBSP 202200Z 15007KT 9999 BKN009 OVC020 17/15 Q1023","temp":17,"dewp":15,"wdir":150,"wspd":7,"visib":"6+","altim":1023,"clouds":[{"cover":"BKN","base":900},{"cover":"OVC","base":2000}],"obsTime":1779314400},"SBSV":{"icaoId":"SBSV","flightCategory":"VFR","rawOb":"METAR SBSV 202200Z VRB04KT 9999 SCT022 SCT080 27/23 Q1015","temp":27,"dewp":23,"wdir":"VRB","wspd":4,"visib":"6+","altim":1015,"clouds":[{"cover":"SCT","base":2200},{"cover":"SCT","base":8000}],"obsTime":1779314400},"SBTE":{"icaoId":"SBTE","flightCategory":"VFR","rawOb":"METAR SBTE 202200Z 35001KT CAVOK 30/24 Q1011","temp":30,"dewp":24,"wdir":350,"wspd":1,"visib":"6+","altim":1011,"clouds":[],"obsTime":1779314400},"SBVT":{"icaoId":"SBVT","flightCategory":"MVFR","rawOb":"METAR SBVT 202200Z 24003KT 9999 SCT025 BKN030 OVC070 21/20 Q1018","temp":21,"dewp":20,"wdir":240,"wspd":3,"visib":"6+","altim":1018,"clouds":[{"cover":"SCT","base":2500},{"cover":"BKN","base":3000},{"cover":"OVC","base":7000}],"obsTime":1779314400},"SBCT":{"icaoId":"SBCT","flightCategory":"VFR","rawOb":"METAR SBCT 202200Z 11005KT 9999 FEW005 13/13 Q1022","temp":13,"dewp":13,"wdir":110,"wspd":5,"visib":"6+","altim":1022,"clouds":[{"cover":"FEW","base":500}],"obsTime":1779314400},"SBIL":{"icaoId":"SBIL","flightCategory":"VFR","rawOb":"METAR SBIL 202200Z 14004KT 9999 SCT025 27/23 Q1016","temp":27,"dewp":23,"wdir":140,"wspd":4,"visib":"6+","altim":1016,"clouds":[{"cover":"SCT","base":2500}],"obsTime":1779314400},"SBJU":{"icaoId":"SBJU","flightCategory":"VFR","rawOb":"METAR SBJU 202200Z 00000KT 9999 SCT020 26/20 Q1015","temp":26,"dewp":20,"wdir":0,"wspd":0,"visib":"6+","altim":1015,"clouds":[{"cover":"SCT","base":2000}],"obsTime":1779314400},"SBME":{"icaoId":"SBME","flightCategory":"VFR","rawOb":"METAR SBME 202200Z 33004KT 9999 SCT020 OVC090 20/19 Q1018","temp":20,"dewp":19,"wdir":330,"wspd":4,"visib":"6+","altim":1018,"clouds":[{"cover":"SCT","base":2000},{"cover":"OVC","base":9000}],"obsTime":1779314400},"SBMG":{"icaoId":"SBMG","flightCategory":"VFR","rawOb":"METAR SBMG 202200Z 30005KT CAVOK 18/12 Q1020","temp":18,"dewp":12,"wdir":300,"wspd":5,"visib":"6+","altim":1020,"clouds":[],"obsTime":1779314400},"SBMK":{"icaoId":"SBMK","flightCategory":"VFR","rawOb":"METAR SBMK 202200Z 11005KT CAVOK 26/17 Q1018","temp":26,"dewp":17,"wdir":110,"wspd":5,"visib":"6+","altim":1018,"clouds":[],"obsTime":1779314400},"SBSN":{"icaoId":"SBSN","flightCategory":"VFR","rawOb":"METAR SBSN 202200Z VRB02KT 9999 FEW020 SCT100 27/25 Q1011","temp":27,"dewp":25,"wdir":"VRB","wspd":2,"visib":"6+","altim":1011,"clouds":[{"cover":"FEW","base":2000},{"cover":"SCT","base":10000}],"obsTime":1779314400},"SBNT":{"icaoId":"SBNT","flightCategory":"VFR","rawOb":"METAR SBNT 202200Z 16003KT 9999 FEW020 SCT053 25/23 Q1014","temp":25,"dewp":23,"wdir":160,"wspd":3,"visib":"6+","altim":1014,"clouds":[{"cover":"FEW","base":2000},{"cover":"SCT","base":5300}],"obsTime":1779314400},"SBPA":{"icaoId":"SBPA","flightCategory":"VFR","rawOb":"METAR SBPA 202200Z 28007KT 260V320 CAVOK 13/08 Q1022","temp":13,"dewp":8,"wdir":280,"wspd":7,"visib":"6+","altim":1022,"clouds":[],"obsTime":1779314400},"SBUL":{"icaoId":"SBUL","flightCategory":"VFR","rawOb":"METAR SBUL 202200Z 22012KT 9999 SCT045 SCT080 21/19 Q1022","temp":21,"dewp":19,"wdir":220,"wspd":12,"visib":"6+","altim":1022,"clouds":[{"cover":"SCT","base":4500},{"cover":"SCT","base":8000}],"obsTime":1779314400},"SBCP":{"icaoId":"SBCP","flightCategory":"MVFR","rawOb":"METAR SBCP 202200Z 35004KT 9999 BKN010 OVC090 21/21 Q1018","temp":21,"dewp":21,"wdir":350,"wspd":4,"visib":"6+","altim":1018,"clouds":[{"cover":"BKN","base":1000},{"cover":"OVC","base":9000}],"obsTime":1779314400},"SBUR":{"icaoId":"SBUR","flightCategory":"VFR","rawOb":"METAR SBUR 202200Z 19004KT CAVOK 22/18 Q1021","temp":22,"dewp":18,"wdir":190,"wspd":4,"visib":"6+","altim":1021,"clouds":[],"obsTime":1779314400},"SBCZ":{"icaoId":"SBCZ","flightCategory":"MVFR","rawOb":"METAR SBCZ 202200Z 12005KT 9999 OVC018 22/20 Q1015","temp":22,"dewp":20,"wdir":120,"wspd":5,"visib":"6+","altim":1015,"clouds":[{"cover":"OVC","base":1800}],"obsTime":1779314400},"SBPL":{"icaoId":"SBPL","flightCategory":"VFR","rawOb":"METAR SBPL 202200Z 13007KT 9999 FEW035 30/18 Q1014","temp":30,"dewp":18,"wdir":130,"wspd":7,"visib":"6+","altim":1014,"clouds":[{"cover":"FEW","base":3500}],"obsTime":1779314400},"SBSJ":{"icaoId":"SBSJ","flightCategory":"VFR","rawOb":"METAR SBSJ 202200Z 19003KT 9999 SCT020 BKN050 18/16 Q1021","temp":18,"dewp":16,"wdir":190,"wspd":3,"visib":"6+","altim":1021,"clouds":[{"cover":"SCT","base":2000},{"cover":"BKN","base":5000}],"obsTime":1779314400},"SBTT":{"icaoId":"SBTT","flightCategory":"MVFR","rawOb":"METAR SBTT 202200Z 21007KT 9999 BKN012 OVC015 23/20 Q1013","temp":23,"dewp":20,"wdir":210,"wspd":7,"visib":"6+","altim":1013,"clouds":[{"cover":"BKN","base":1200},{"cover":"OVC","base":1500}],"obsTime":1779314400},"SBAR":{"icaoId":"SBAR","flightCategory":"VFR","rawOb":"METAR SBAR 202200Z 12007KT 9999 FEW024 28/23 Q1014","temp":28,"dewp":23,"wdir":120,"wspd":7,"visib":"6+","altim":1014,"clouds":[{"cover":"FEW","base":2400}],"obsTime":1779314400},"SBPS":{"icaoId":"SBPS","flightCategory":"VFR","rawOb":"METAR SBPS 202200Z 12004KT 9999 FEW020 SCT070 25/22 Q1017","temp":25,"dewp":22,"wdir":120,"wspd":4,"visib":"6+","altim":1017,"clouds":[{"cover":"FEW","base":2000},{"cover":"SCT","base":7000}],"obsTime":1779314400},"SBTF":{"icaoId":"SBTF","flightCategory":"VFR","rawOb":"METAR SBTF 202200Z 20004KT 9999 FEW012 26/25 Q1011","temp":26,"dewp":25,"wdir":200,"wspd":4,"visib":"6+","altim":1011,"clouds":[{"cover":"FEW","base":1200}],"obsTime":1779314400},"SBDN":{"icaoId":"SBDN","flightCategory":"VFR","rawOb":"METAR SBDN 202200Z 00000KT 9999 BKN039 19/16 Q1020","temp":19,"dewp":16,"wdir":0,"wspd":0,"visib":"6+","altim":1020,"clouds":[{"cover":"BKN","base":3900}],"obsTime":1779314400},"SBES":{"icaoId":"SBES","flightCategory":"VFR","rawOb":"METAR SBES 202200Z 00000KT 9999 FEW010 SCT020 20/// Q1018","temp":null,"dewp":null,"wdir":0,"wspd":0,"visib":"6+","altim":1018,"clouds":[{"cover":"FEW","base":1000},{"cover":"SCT","base":2000}],"obsTime":1779314400},"SBKG":{"icaoId":"SBKG","flightCategory":"VFR","rawOb":"METAR SBKG 202200Z 07005KT CAVOK 23/19 Q1017","temp":23,"dewp":19,"wdir":70,"wspd":5,"visib":"6+","altim":1017,"clouds":[],"obsTime":1779314400},"SBOI":{"icaoId":"SBOI","flightCategory":"VFR","rawOb":"METAR SBOI 202200Z AUTO 29002KT 9999 FEW023 26/25 Q1012","temp":26,"dewp":25,"wdir":290,"wspd":2,"visib":"6+","altim":1012,"clouds":[{"cover":"FEW","base":2300}],"obsTime":1779314400},"SBPP":{"icaoId":"SBPP","flightCategory":"VFR","rawOb":"METAR SBPP 202200Z 23006KT 9999 FEW015 BKN080 13/10 Q1023","temp":13,"dewp":10,"wdir":230,"wspd":6,"visib":"6+","altim":1023,"clouds":[{"cover":"FEW","base":1500},{"cover":"BKN","base":8000}],"obsTime":1779314400},"SBSC":{"icaoId":"SBSC","flightCategory":"MVFR","rawOb":"METAR SBSC 202200Z 21005KT 5000 BR SCT008 BKN030 OVC035 22/20 Q1019","temp":22,"dewp":20,"wdir":210,"wspd":5,"visib":3.11,"altim":1019,"clouds":[{"cover":"SCT","base":800},{"cover":"BKN","base":3000},{"cover":"OVC","base":3500}],"obsTime":1779314400},"SBSM":{"icaoId":"SBSM","flightCategory":"VFR","rawOb":"METAR SBSM 202200Z 02001KT CAVOK 10/08 Q1024","temp":10,"dewp":8,"wdir":20,"wspd":1,"visib":"6+","altim":1024,"clouds":[],"obsTime":1779314400},"SBSR":{"icaoId":"SBSR","flightCategory":"VFR","rawOb":"METAR SBSR 202200Z 19006KT 9999 FEW035 SCT070 21/18 Q1020","temp":21,"dewp":18,"wdir":190,"wspd":6,"visib":"6+","altim":1020,"clouds":[{"cover":"FEW","base":3500},{"cover":"SCT","base":7000}],"obsTime":1779314400},"SBVH":{"icaoId":"SBVH","flightCategory":"VFR","rawOb":"METAR SBVH 202200Z 15004KT 9999 FEW023 23/20 Q1017","temp":23,"dewp":20,"wdir":150,"wspd":4,"visib":"6+","altim":1017,"clouds":[{"cover":"FEW","base":2300}],"obsTime":1779314400},"SBAX":{"icaoId":"SBAX","flightCategory":"VFR","rawOb":"METAR SBAX 202200Z 11006KT 9999 BKN045 21/17 Q1022","temp":21,"dewp":17,"wdir":110,"wspd":6,"visib":"6+","altim":1022,"clouds":[{"cover":"BKN","base":4500}],"obsTime":1779314400},"SBBH":{"icaoId":"SBBH","flightCategory":"VFR","rawOb":"METAR SBBH 202200Z 11004KT 9999 FEW040 BKN100 21/17 Q1022","temp":21,"dewp":17,"wdir":110,"wspd":4,"visib":"6+","altim":1022,"clouds":[{"cover":"FEW","base":4000},{"cover":"BKN","base":10000}],"obsTime":1779314400},"SBBU":{"icaoId":"SBBU","flightCategory":"VFR","rawOb":"METAR SBBU 202200Z 22002KT 9999 SCT040 21/19 Q1021","temp":21,"dewp":19,"wdir":220,"wspd":2,"visib":"6+","altim":1021,"clouds":[{"cover":"SCT","base":4000}],"obsTime":1779314400},"SBCA":{"icaoId":"SBCA","flightCategory":"VFR","rawOb":"METAR SBCA 202200Z 19004KT CAVOK 12/10 Q1023","temp":12,"dewp":10,"wdir":190,"wspd":4,"visib":"6+","altim":1023,"clouds":[],"obsTime":1779314400},"SBCO":{"icaoId":"SBCO","flightCategory":"VFR","rawOb":"METAR SBCO 202200Z 29006KT CAVOK 13/07 Q1023","temp":13,"dewp":7,"wdir":290,"wspd":6,"visib":"6+","altim":1023,"clouds":[],"obsTime":1779314400},"SBUY":{"icaoId":"SBUY","flightCategory":"IFR","rawOb":"METAR SBUY 202200Z 00000KT 4000 -RA BKN013 23/22 Q1012","temp":23,"dewp":22,"wdir":0,"wspd":0,"visib":2.49,"altim":1012,"clouds":[{"cover":"BKN","base":1300}],"obsTime":1779314400},"SBPB":{"icaoId":"SBPB","flightCategory":"VFR","rawOb":"SPECI SBPB 202145Z 06010KT 9999 FEW020 29/25 Q1011","temp":29,"dewp":25,"wdir":60,"wspd":10,"visib":"6+","altim":1011,"clouds":[{"cover":"FEW","base":2000}],"obsTime":1779313500},"SBCJ":{"icaoId":"SBCJ","flightCategory":"VFR","rawOb":"SPECI SBCJ 202130Z 14004KT 9999 FEW030 28/21 Q1016","temp":28,"dewp":21,"wdir":140,"wspd":4,"visib":"6+","altim":1016,"clouds":[{"cover":"FEW","base":3000}],"obsTime":1779312600},"SBJP":{"icaoId":"SBJP","flightCategory":"VFR","rawOb":"METAR SBJP 202200Z 14006KT CAVOK 25/23 Q1014","temp":25,"dewp":23,"wdir":140,"wspd":6,"visib":"6+","altim":1014,"clouds":[],"obsTime":1779314400},"SBJV":{"icaoId":"SBJV","flightCategory":"MVFR","rawOb":"METAR SBJV 202200Z 12007KT 080V140 9999 BKN015 BKN025 19/17 Q1020","temp":19,"dewp":17,"wdir":120,"wspd":7,"visib":"6+","altim":1020,"clouds":[{"cover":"BKN","base":1500},{"cover":"BKN","base":2500}],"obsTime":1779314400},"SBNM":{"icaoId":"SBNM","flightCategory":"VFR","rawOb":"METAR SBNM 202200Z AUTO 26003KT CAVOK 13/06 Q1024","temp":13,"dewp":6,"wdir":260,"wspd":3,"visib":"6+","altim":1024,"clouds":[],"obsTime":1779314400},"SBLE":{"icaoId":"SBLE","flightCategory":"VFR","rawOb":"METAR SBLE 202200Z AUTO 36002KT CAVOK 22/22 Q1017","temp":22,"dewp":22,"wdir":360,"wspd":2,"visib":"6+","altim":1017,"clouds":[],"obsTime":1779314400},"SBAF":{"icaoId":"SBAF","flightCategory":"IFR","rawOb":"SPECI SBAF 202107Z 24004KT 210V280 4000 -DZ BR SCT013 BKN018 BKN038 21/21 Q1019","temp":21,"dewp":21,"wdir":240,"wspd":4,"visib":2.49,"altim":1019,"clouds":[{"cover":"SCT","base":1300},{"cover":"BKN","base":1800},{"cover":"BKN","base":3800}],"obsTime":1779311220},"SBAN":{"icaoId":"SBAN","flightCategory":"VFR","rawOb":"METAR SBAN 202200Z 28008KT 9999 FEW040 22/18 Q1021","temp":22,"dewp":18,"wdir":280,"wspd":8,"visib":"6+","altim":1021,"clouds":[{"cover":"FEW","base":4000}],"obsTime":1779314400},"SBJR":{"icaoId":"SBJR","flightCategory":"MVFR","rawOb":"METAR SBJR 202200Z 28002KT 8000 FEW007 BKN015 BKN080 22/21 Q1019","temp":22,"dewp":21,"wdir":280,"wspd":2,"visib":4.97,"altim":1019,"clouds":[{"cover":"FEW","base":700},{"cover":"BKN","base":1500},{"cover":"BKN","base":8000}],"obsTime":1779314400},"SBLS":{"icaoId":"SBLS","flightCategory":"VFR","rawOb":"METAR SBLS 202200Z 18008KT 9999 FEW045 SCT100 21/16 Q1021","temp":21,"dewp":16,"wdir":180,"wspd":8,"visib":"6+","altim":1021,"clouds":[{"cover":"FEW","base":4500},{"cover":"SCT","base":10000}],"obsTime":1779314400},"SBMT":{"icaoId":"SBMT","flightCategory":"MVFR","rawOb":"METAR SBMT 202200Z 12005KT 9999 SCT013 BKN015 17/15 Q1022","temp":17,"dewp":15,"wdir":120,"wspd":5,"visib":"6+","altim":1022,"clouds":[{"cover":"SCT","base":1300},{"cover":"BKN","base":1500}],"obsTime":1779314400},"SBTA":{"icaoId":"SBTA","flightCategory":"VFR","rawOb":"METAR SBTA 202200Z 16004KT 9999 SCT020 BKN035 20/16 Q1020","temp":20,"dewp":16,"wdir":160,"wspd":4,"visib":"6+","altim":1020,"clouds":[{"cover":"SCT","base":2000},{"cover":"BKN","base":3500}],"obsTime":1779314400},"SBGW":{"icaoId":"SBGW","flightCategory":"MVFR","rawOb":"METAR SBGW 202200Z 16002KT 9999 BKN030 19/14 Q1021","temp":19,"dewp":14,"wdir":160,"wspd":2,"visib":"6+","altim":1021,"clouds":[{"cover":"BKN","base":3000}],"obsTime":1779314400}}}