{"updated":1781961569,"count":87,"data":{"SBAT":{"icaoId":"SBAT","flightCategory":"VFR","rawOb":"METAR SBAT 201200Z 21003KT 9999 FEW020 BKN100 23/22 Q1017","temp":23,"dewp":22,"wdir":210,"wspd":3,"visib":"6+","altim":1017,"clouds":[{"cover":"FEW","base":2000},{"cover":"BKN","base":10000}],"obsTime":1781956800},"SBBE":{"icaoId":"SBBE","flightCategory":"VFR","rawOb":"METAR SBBE 201200Z 04003KT CAVOK 27/23 Q1015","temp":27,"dewp":23,"wdir":40,"wspd":3,"visib":"6+","altim":1015,"clouds":[],"obsTime":1781956800},"SBBR":{"icaoId":"SBBR","flightCategory":"VFR","rawOb":"METAR SBBR 201200Z 08003KT 030V140 CAVOK 20/15 Q1023","temp":20,"dewp":15,"wdir":80,"wspd":3,"visib":"6+","altim":1023,"clouds":[],"obsTime":1781956800},"SBBV":{"icaoId":"SBBV","flightCategory":"VFR","rawOb":"METAR SBBV 201200Z 12004KT 9999 FEW005 SCT025 FEW035TCU 27/23 Q1016","temp":27,"dewp":23,"wdir":120,"wspd":4,"visib":"6+","altim":1016,"clouds":[{"cover":"FEW","base":500},{"cover":"SCT","base":2500},{"cover":"FEW","base":3500}],"obsTime":1781956800},"SBCB":{"icaoId":"SBCB","flightCategory":"VFR","rawOb":"METAR SBCB 201200Z /////KT CAVOK 22/17 Q1017","temp":22,"dewp":17,"wdir":null,"wspd":null,"visib":"6+","altim":1017,"clouds":[],"obsTime":1781956800},"SBCF":{"icaoId":"SBCF","flightCategory":"VFR","rawOb":"METAR SBCF 201200Z 19002KT CAVOK 15/12 Q1023","temp":15,"dewp":12,"wdir":190,"wspd":2,"visib":"6+","altim":1023,"clouds":[],"obsTime":1781956800},"SBCG":{"icaoId":"SBCG","flightCategory":"LIFR","rawOb":"METAR SBCG 201200Z 19006KT 2500 BR OVC004 14/14 Q1019","temp":14,"dewp":14,"wdir":190,"wspd":6,"visib":1.55,"altim":1019,"clouds":[{"cover":"OVC","base":400}],"obsTime":1781956800},"SBCP":{"icaoId":"SBCP","flightCategory":"VFR","rawOb":"METAR SBCP 201200Z 34009KT CAVOK 21/16 Q1019","temp":21,"dewp":16,"wdir":340,"wspd":9,"visib":"6+","altim":1019,"clouds":[],"obsTime":1781956800},"SBCR":{"icaoId":"SBCR","flightCategory":"VFR","rawOb":"METAR SBCR 201200Z 23005KT 180V300 CAVOK 15/13 Q1019","temp":15,"dewp":13,"wdir":230,"wspd":5,"visib":"6+","altim":1019,"clouds":[],"obsTime":1781956800},"SBCT":{"icaoId":"SBCT","flightCategory":"MVFR","rawOb":"METAR SBCT 201200Z 11004KT 6000 -RA FEW004 BKN020 BKN035 13/12 Q1018","temp":13,"dewp":12,"wdir":110,"wspd":4,"visib":3.73,"altim":1018,"clouds":[{"cover":"FEW","base":400},{"cover":"BKN","base":2000},{"cover":"BKN","base":3500}],"obsTime":1781956800},"SBCZ":{"icaoId":"SBCZ","flightCategory":"VFR","rawOb":"METAR SBCZ 201200Z 16001KT CAVOK 23/22 Q1015","temp":23,"dewp":22,"wdir":160,"wspd":1,"visib":"6+","altim":1015,"clouds":[],"obsTime":1781956800},"SBEG":{"icaoId":"SBEG","flightCategory":"VFR","rawOb":"SPECI SBEG 201120Z 00000KT 9999 SCT007 25/25 Q1015","temp":25,"dewp":25,"wdir":0,"wspd":0,"visib":"6+","altim":1015,"clouds":[{"cover":"SCT","base":700}],"obsTime":1781954400},"SBFI":{"icaoId":"SBFI","flightCategory":"LIFR","rawOb":"SPECI SBFI 201143Z 20003KT 1400 R15///// R33///// BR OVC002 12/12 Q1017","temp":12,"dewp":12,"wdir":200,"wspd":3,"visib":0.87,"altim":1017,"clouds":[{"cover":"OVC","base":200}],"obsTime":1781955780},"SBFL":{"icaoId":"SBFL","flightCategory":"MVFR","rawOb":"METAR SBFL 201200Z 18006KT 140V220 9000 -RA BKN015 OVC070 16/14 Q1017","temp":16,"dewp":14,"wdir":180,"wspd":6,"visib":5.59,"altim":1017,"clouds":[{"cover":"BKN","base":1500},{"cover":"OVC","base":7000}],"obsTime":1781956800},"SBFZ":{"icaoId":"SBFZ","flightCategory":"VFR","rawOb":"METAR SBFZ 201200Z 18010KT 9999 SCT020 BKN090 27/22 Q1015","temp":27,"dewp":22,"wdir":180,"wspd":10,"visib":"6+","altim":1015,"clouds":[{"cover":"SCT","base":2000},{"cover":"BKN","base":9000}],"obsTime":1781956800},"SBGL":{"icaoId":"SBGL","flightCategory":"MVFR","rawOb":"METAR SBGL 201200Z VRB02KT 6000 SCT030 20/18 Q1016","temp":20,"dewp":18,"wdir":"VRB","wspd":2,"visib":3.73,"altim":1016,"clouds":[{"cover":"SCT","base":3000}],"obsTime":1781956800},"SBGO":{"icaoId":"SBGO","flightCategory":"VFR","rawOb":"METAR SBGO 201200Z 28004KT 9999 FEW048 SCT100 22/16 Q1022","temp":22,"dewp":16,"wdir":280,"wspd":4,"visib":"6+","altim":1022,"clouds":[{"cover":"FEW","base":4800},{"cover":"SCT","base":10000}],"obsTime":1781956800},"SBGR":{"icaoId":"SBGR","flightCategory":"VFR","rawOb":"METAR SBGR 201200Z 08008KT CAVOK 16/12 Q1019","temp":16,"dewp":12,"wdir":80,"wspd":8,"visib":"6+","altim":1019,"clouds":[],"obsTime":1781956800},"SBHT":{"icaoId":"SBHT","flightCategory":"VFR","rawOb":"METAR SBHT 201200Z 10003KT 9999 SCT015 BKN090 33/25 Q1015","temp":33,"dewp":25,"wdir":100,"wspd":3,"visib":"6+","altim":1015,"clouds":[{"cover":"SCT","base":1500},{"cover":"BKN","base":9000}],"obsTime":1781956800},"SBIL":{"icaoId":"SBIL","flightCategory":"VFR","rawOb":"METAR SBIL 201200Z 26006KT CAVOK 24/18 Q1019","temp":24,"dewp":18,"wdir":260,"wspd":6,"visib":"6+","altim":1019,"clouds":[],"obsTime":1781956800},"SBJU":{"icaoId":"SBJU","flightCategory":"VFR","rawOb":"METAR SBJU 201200Z 00000KT CAVOK 26/16 Q1019","temp":26,"dewp":16,"wdir":0,"wspd":0,"visib":"6+","altim":1019,"clouds":[],"obsTime":1781956800},"SBKP":{"icaoId":"SBKP","flightCategory":"VFR","rawOb":"METAR SBKP 201200Z 02003KT 330V050 9999 SCT045 BKN070 18/13 Q1019","temp":18,"dewp":13,"wdir":20,"wspd":3,"visib":"6+","altim":1019,"clouds":[{"cover":"SCT","base":4500},{"cover":"BKN","base":7000}],"obsTime":1781956800},"SBLO":{"icaoId":"SBLO","flightCategory":"LIFR","rawOb":"METAR SBLO 201200Z 03007KT 0100 R13/0200D FG VV002 17/17 Q1015","temp":17,"dewp":17,"wdir":30,"wspd":7,"visib":0.06,"altim":1015,"clouds":[{"cover":"OVX","base":200}],"obsTime":1781956800},"SBMA":{"icaoId":"SBMA","flightCategory":"VFR","rawOb":"METAR SBMA 201200Z 30006KT CAVOK 28/23 Q1016","temp":28,"dewp":23,"wdir":300,"wspd":6,"visib":"6+","altim":1016,"clouds":[],"obsTime":1781956800},"SBME":{"icaoId":"SBME","flightCategory":"VFR","rawOb":"METAR SBME 201200Z 01007KT CAVOK 23/16 Q1017","temp":23,"dewp":16,"wdir":10,"wspd":7,"visib":"6+","altim":1017,"clouds":[],"obsTime":1781956800},"SBMG":{"icaoId":"SBMG","flightCategory":"LIFR","rawOb":"METAR SBMG 201200Z 24010KT 4000 -RA BKN001 BKN005 13/13 Q1016","temp":13,"dewp":13,"wdir":240,"wspd":10,"visib":2.49,"altim":1016,"clouds":[{"cover":"BKN","base":100},{"cover":"BKN","base":500}],"obsTime":1781956800},"SBMK":{"icaoId":"SBMK","flightCategory":"VFR","rawOb":"METAR SBMK 201200Z 01002KT CAVOK 19/12 Q1022","temp":19,"dewp":12,"wdir":10,"wspd":2,"visib":"6+","altim":1022,"clouds":[],"obsTime":1781956800},"SBMO":{"icaoId":"SBMO","flightCategory":"VFR","rawOb":"METAR SBMO 201200Z 22005KT 9999 SCT030 25/23 Q1017","temp":25,"dewp":23,"wdir":220,"wspd":5,"visib":"6+","altim":1017,"clouds":[{"cover":"SCT","base":3000}],"obsTime":1781956800},"SBMQ":{"icaoId":"SBMQ","flightCategory":"VFR","rawOb":"METAR SBMQ 201200Z 01004KT 9999 FEW014 28/24 Q1015","temp":28,"dewp":24,"wdir":10,"wspd":4,"visib":"6+","altim":1015,"clouds":[{"cover":"FEW","base":1400}],"obsTime":1781956800},"SBNT":{"icaoId":"SBNT","flightCategory":"VFR","rawOb":"METAR SBNT 201200Z 17011KT 9000 FEW012 SCT030 BKN100 27/23 Q1015","temp":27,"dewp":23,"wdir":170,"wspd":11,"visib":5.59,"altim":1015,"clouds":[{"cover":"FEW","base":1200},{"cover":"SCT","base":3000},{"cover":"BKN","base":10000}],"obsTime":1781956800},"SBPA":{"icaoId":"SBPA","flightCategory":"VFR","rawOb":"METAR SBPA 201200Z 19003KT 160V230 9999 FEW011 BKN032 11/07 Q1019","temp":11,"dewp":7,"wdir":190,"wspd":3,"visib":"6+","altim":1019,"clouds":[{"cover":"FEW","base":1100},{"cover":"BKN","base":3200}],"obsTime":1781956800},"SBPJ":{"icaoId":"SBPJ","flightCategory":"VFR","rawOb":"METAR SBPJ 201200Z 12005KT 080V150 9999 VCSH FEW040 SCT060 BKN080 26/21 Q1017","temp":26,"dewp":21,"wdir":120,"wspd":5,"visib":"6+","altim":1017,"clouds":[{"cover":"FEW","base":4000},{"cover":"SCT","base":6000},{"cover":"BKN","base":8000}],"obsTime":1781956800},"SBPV":{"icaoId":"SBPV","flightCategory":"VFR","rawOb":"METAR SBPV 201200Z 15004KT CAVOK 27/22 Q1015","temp":27,"dewp":22,"wdir":150,"wspd":4,"visib":"6+","altim":1015,"clouds":[],"obsTime":1781956800},"SBRB":{"icaoId":"SBRB","flightCategory":"MVFR","rawOb":"METAR SBRB 201200Z 20002KT 5000 BR NSC 23/23 Q1016","temp":23,"dewp":23,"wdir":200,"wspd":2,"visib":3.11,"altim":1016,"clouds":[],"obsTime":1781956800},"SBRF":{"icaoId":"SBRF","flightCategory":"MVFR","rawOb":"METAR SBRF 201200Z 18006KT 7000 -RA BKN016 FEW025TCU BKN050 25/24 Q1016","temp":25,"dewp":24,"wdir":180,"wspd":6,"visib":4.35,"altim":1016,"clouds":[{"cover":"BKN","base":1600},{"cover":"FEW","base":2500},{"cover":"BKN","base":5000}],"obsTime":1781956800},"SBSG":{"icaoId":"SBSG","flightCategory":"MVFR","rawOb":"METAR SBSG 201200Z 16007KT 120V200 9999 VCSH BKN010 BKN035 25/23 Q1016","temp":25,"dewp":23,"wdir":160,"wspd":7,"visib":"6+","altim":1016,"clouds":[{"cover":"BKN","base":1000},{"cover":"BKN","base":3500}],"obsTime":1781956800},"SBSL":{"icaoId":"SBSL","flightCategory":"VFR","rawOb":"METAR SBSL 201200Z 10005KT 9999 SCT025 28/24 Q1015","temp":28,"dewp":24,"wdir":100,"wspd":5,"visib":"6+","altim":1015,"clouds":[{"cover":"SCT","base":2500}],"obsTime":1781956800},"SBSN":{"icaoId":"SBSN","flightCategory":"VFR","rawOb":"METAR SBSN 201200Z 14002KT 9999 SCT017 29/26 Q1015","temp":29,"dewp":26,"wdir":140,"wspd":2,"visib":"6+","altim":1015,"clouds":[{"cover":"SCT","base":1700}],"obsTime":1781956800},"SBSP":{"icaoId":"SBSP","flightCategory":"VFR","rawOb":"METAR SBSP 201200Z 03005KT 010V070 9999 FEW040 18/13 Q1020","temp":18,"dewp":13,"wdir":30,"wspd":5,"visib":"6+","altim":1020,"clouds":[{"cover":"FEW","base":4000}],"obsTime":1781956800},"SBSV":{"icaoId":"SBSV","flightCategory":"MVFR","rawOb":"METAR SBSV 201200Z 17011KT 9999 VCSH BKN023 FEW025TCU BKN060 26/18 Q1018","temp":26,"dewp":18,"wdir":170,"wspd":11,"visib":"6+","altim":1018,"clouds":[{"cover":"BKN","base":2300},{"cover":"FEW","base":2500},{"cover":"BKN","base":6000}],"obsTime":1781956800},"SBTE":{"icaoId":"SBTE","flightCategory":"VFR","rawOb":"METAR SBTE 201200Z 18007KT 150V210 9999 FEW020 28/20 Q1015","temp":28,"dewp":20,"wdir":180,"wspd":7,"visib":"6+","altim":1015,"clouds":[{"cover":"FEW","base":2000}],"obsTime":1781956800},"SBUL":{"icaoId":"SBUL","flightCategory":"VFR","rawOb":"METAR SBUL 201200Z 02006KT 330V060 CAVOK 19/13 Q1023","temp":19,"dewp":13,"wdir":20,"wspd":6,"visib":"6+","altim":1023,"clouds":[],"obsTime":1781956800},"SBUR":{"icaoId":"SBUR","flightCategory":"VFR","rawOb":"METAR SBUR 201200Z 01009KT CAVOK 19/14 Q1021","temp":19,"dewp":14,"wdir":10,"wspd":9,"visib":"6+","altim":1021,"clouds":[],"obsTime":1781956800},"SBVT":{"icaoId":"SBVT","flightCategory":"VFR","rawOb":"METAR SBVT 201200Z 32003KT 260V040 9999 FEW045 SCT080 22/14 Q1019","temp":22,"dewp":14,"wdir":320,"wspd":3,"visib":"6+","altim":1019,"clouds":[{"cover":"FEW","base":4500},{"cover":"SCT","base":8000}],"obsTime":1781956800},"SBAU":{"icaoId":"SBAU","flightCategory":"VFR","rawOb":"METAR SBAU 201300Z 03008KT 9999 SCT030 BKN070 22/19 Q1016","temp":22,"dewp":19,"wdir":30,"wspd":8,"visib":"6+","altim":1016,"clouds":[{"cover":"SCT","base":3000},{"cover":"BKN","base":7000}],"obsTime":1781960400},"SBOI":{"icaoId":"SBOI","flightCategory":"VFR","rawOb":"METAR SBOI 201200Z AUTO VRB01KT CAVOK 26/24 Q1015","temp":26,"dewp":24,"wdir":"VRB","wspd":1,"visib":"6+","altim":1015,"clouds":[],"obsTime":1781956800},"SBBQ":{"icaoId":"SBBQ","flightCategory":"VFR","rawOb":"METAR SBBQ 201200Z 33002KT CAVOK 15/11 Q1024","temp":15,"dewp":11,"wdir":330,"wspd":2,"visib":"6+","altim":1024,"clouds":[],"obsTime":1781956800},"SBPB":{"icaoId":"SBPB","flightCategory":"VFR","rawOb":"METAR SBPB 201200Z 11007KT 9999 FEW020 29/24 Q1015","temp":29,"dewp":24,"wdir":110,"wspd":7,"visib":"6+","altim":1015,"clouds":[{"cover":"FEW","base":2000}],"obsTime":1781956800},"SBCJ":{"icaoId":"SBCJ","flightCategory":"VFR","rawOb":"METAR SBCJ 201200Z 04005KT CAVOK 25/20 Q1020","temp":25,"dewp":20,"wdir":40,"wspd":5,"visib":"6+","altim":1020,"clouds":[],"obsTime":1781956800},"SBPL":{"icaoId":"SBPL","flightCategory":"VFR","rawOb":"METAR SBPL 201200Z 13007KT 9999 SCT025 25/17 Q1020","temp":25,"dewp":17,"wdir":130,"wspd":7,"visib":"6+","altim":1020,"clouds":[{"cover":"SCT","base":2500}],"obsTime":1781956800},"SBPP":{"icaoId":"SBPP","flightCategory":"LIFR","rawOb":"SPECI SBPP 201135Z 21006KT 1000 BR OVC002 10/10 Q1018","temp":10,"dewp":10,"wdir":210,"wspd":6,"visib":0.62,"altim":1018,"clouds":[{"cover":"OVC","base":200}],"obsTime":1781955300},"SBVH":{"icaoId":"SBVH","flightCategory":"LIFR","rawOb":"METAR SBVH 201200Z 15008KT 9999 OVC004 19/19 Q1019","temp":19,"dewp":19,"wdir":150,"wspd":8,"visib":"6+","altim":1019,"clouds":[{"cover":"OVC","base":400}],"obsTime":1781956800},"SBCO":{"icaoId":"SBCO","flightCategory":"MVFR","rawOb":"METAR SBCO 201200Z VRB02KT 9999 BKN030 11/08 Q1019","temp":11,"dewp":8,"wdir":"VRB","wspd":2,"visib":"6+","altim":1019,"clouds":[{"cover":"BKN","base":3000}],"obsTime":1781956800},"SBAX":{"icaoId":"SBAX","flightCategory":"VFR","rawOb":"METAR SBAX 201200Z AUTO 06004KT 360V100 CAVOK 18/11 Q1022","temp":18,"dewp":11,"wdir":60,"wspd":4,"visib":"6+","altim":1022,"clouds":[],"obsTime":1781956800},"SBPS":{"icaoId":"SBPS","flightCategory":"VFR","rawOb":"METAR SBPS 201200Z 25005KT 210V280 9999 FEW020 22/19 Q1020","temp":22,"dewp":19,"wdir":250,"wspd":5,"visib":"6+","altim":1020,"clouds":[{"cover":"FEW","base":2000}],"obsTime":1781956800},"SBSC":{"icaoId":"SBSC","flightCategory":"VFR","rawOb":"METAR SBSC 201200Z 01012KT CAVOK 22/14 Q1016","temp":22,"dewp":14,"wdir":10,"wspd":12,"visib":"6+","altim":1016,"clouds":[],"obsTime":1781956800},"SBDN":{"icaoId":"SBDN","flightCategory":"IFR","rawOb":"METAR SBDN 201200Z 34007KT 8000 BKN005 OVC013 19/18 Q1015","temp":19,"dewp":18,"wdir":340,"wspd":7,"visib":4.97,"altim":1015,"clouds":[{"cover":"BKN","base":500},{"cover":"OVC","base":1300}],"obsTime":1781956800},"SBBU":{"icaoId":"SBBU","flightCategory":"VFR","rawOb":"METAR SBBU 201200Z 02005KT 9999 SCT020 BKN070 19/17 Q1018","temp":19,"dewp":17,"wdir":20,"wspd":5,"visib":"6+","altim":1018,"clouds":[{"cover":"SCT","base":2000},{"cover":"BKN","base":7000}],"obsTime":1781956800},"SBSJ":{"icaoId":"SBSJ","flightCategory":"VFR","rawOb":"METAR SBSJ 201200Z VRB02KT CAVOK 15/12 Q1020","temp":15,"dewp":12,"wdir":"VRB","wspd":2,"visib":"6+","altim":1020,"clouds":[],"obsTime":1781956800},"SBSM":{"icaoId":"SBSM","flightCategory":"VFR","rawOb":"METAR SBSM 201200Z 11001KT 9999 FEW004 BKN033 08/08 Q1019","temp":8,"dewp":8,"wdir":110,"wspd":1,"visib":"6+","altim":1019,"clouds":[{"cover":"FEW","base":400},{"cover":"BKN","base":3300}],"obsTime":1781956800},"SBAR":{"icaoId":"SBAR","flightCategory":"MVFR","rawOb":"METAR SBAR 201200Z 18007KT 9999 VCSH SCT015 BKN020 25/22 Q1017","temp":25,"dewp":22,"wdir":180,"wspd":7,"visib":"6+","altim":1017,"clouds":[{"cover":"SCT","base":1500},{"cover":"BKN","base":2000}],"obsTime":1781956800},"SBSR":{"icaoId":"SBSR","flightCategory":"VFR","rawOb":"METAR SBSR 201200Z 02003KT 9999 BKN035 BKN070 19/17 Q1019","temp":19,"dewp":17,"wdir":20,"wspd":3,"visib":"6+","altim":1019,"clouds":[{"cover":"BKN","base":3500},{"cover":"BKN","base":7000}],"obsTime":1781956800},"SBES":{"icaoId":"SBES","flightCategory":"VFR","rawOb":"METAR SBES 201200Z 02003KT 310V080 CAVOK 20/// Q1017","temp":null,"dewp":null,"wdir":20,"wspd":3,"visib":"6+","altim":1017,"clouds":[],"obsTime":1781956800},"SBGM":{"icaoId":"SBGM","flightCategory":"MVFR","rawOb":"METAR SBGM 201200Z 12009KT 9999 FEW005 BKN023 22/21 Q1016","temp":22,"dewp":21,"wdir":120,"wspd":9,"visib":"6+","altim":1016,"clouds":[{"cover":"FEW","base":500},{"cover":"BKN","base":2300}],"obsTime":1781956800},"SBTF":{"icaoId":"SBTF","flightCategory":"VFR","rawOb":"METAR SBTF 201200Z 19003KT 9999 FEW012 25/24 Q1015","temp":25,"dewp":24,"wdir":190,"wspd":3,"visib":"6+","altim":1015,"clouds":[{"cover":"FEW","base":1200}],"obsTime":1781956800},"SBCA":{"icaoId":"SBCA","flightCategory":"LIFR","rawOb":"METAR SBCA 201200Z 18009KT 1600 BR PRFG OVC001 11/11 Q1017","temp":11,"dewp":11,"wdir":180,"wspd":9,"visib":0.99,"altim":1017,"clouds":[{"cover":"OVC","base":100}],"obsTime":1781956800},"SBTT":{"icaoId":"SBTT","flightCategory":"VFR","rawOb":"METAR SBTT 201200Z 13003KT 9999 FEW002 SCT030 24/23 Q1015","temp":24,"dewp":23,"wdir":130,"wspd":3,"visib":"6+","altim":1015,"clouds":[{"cover":"FEW","base":200},{"cover":"SCT","base":3000}],"obsTime":1781956800},"SBTU":{"icaoId":"SBTU","flightCategory":"VFR","rawOb":"METAR SBTU 201200Z AUTO 18005KT 140V210 9999 // NCD ///// Q1017","temp":null,"dewp":null,"wdir":180,"wspd":5,"visib":"6+","altim":1017,"clouds":[],"obsTime":1781956800},"SBIP":{"icaoId":"SBIP","flightCategory":"VFR","rawOb":"METAR SBIP 201200Z AUTO VRB02KT CAVOK 18/14 Q1022","temp":18,"dewp":14,"wdir":"VRB","wspd":2,"visib":"6+","altim":1022,"clouds":[],"obsTime":1781956800},"SBBH":{"icaoId":"SBBH","flightCategory":"VFR","rawOb":"METAR SBBH 201200Z 12006KT CAVOK 16/11 Q1022","temp":16,"dewp":11,"wdir":120,"wspd":6,"visib":"6+","altim":1022,"clouds":[],"obsTime":1781956800},"SBUY":{"icaoId":"SBUY","flightCategory":"VFR","rawOb":"METAR SBUY 201200Z 00000KT 9999 FEW025 25/23 Q1014","temp":25,"dewp":23,"wdir":0,"wspd":0,"visib":"6+","altim":1014,"clouds":[{"cover":"FEW","base":2500}],"obsTime":1781956800},"SBKG":{"icaoId":"SBKG","flightCategory":"MVFR","rawOb":"METAR SBKG 201200Z 16007KT 9999 SCT007 BKN015 23/21 Q1018","temp":23,"dewp":21,"wdir":160,"wspd":7,"visib":"6+","altim":1018,"clouds":[{"cover":"SCT","base":700},{"cover":"BKN","base":1500}],"obsTime":1781956800},"SBCC":{"icaoId":"SBCC","flightCategory":"IFR","rawOb":"METAR SBCC 201200Z 16007KT 9999 BKN009 BKN020 23/21 Q1019","temp":23,"dewp":21,"wdir":160,"wspd":7,"visib":"6+","altim":1019,"clouds":[{"cover":"BKN","base":900},{"cover":"BKN","base":2000}],"obsTime":1781956800},"SBJV":{"icaoId":"SBJV","flightCategory":"MVFR","rawOb":"METAR SBJV 201200Z 31002KT 7000 -RA BKN015 OVC030 16/16 Q1017","temp":16,"dewp":16,"wdir":310,"wspd":2,"visib":4.35,"altim":1017,"clouds":[{"cover":"BKN","base":1500},{"cover":"OVC","base":3000}],"obsTime":1781956800},"SBJR":{"icaoId":"SBJR","flightCategory":"VFR","rawOb":"METAR SBJR 201200Z 01010KT CAVOK 24/15 Q1016","temp":24,"dewp":15,"wdir":10,"wspd":10,"visib":"6+","altim":1016,"clouds":[],"obsTime":1781956800},"SBLS":{"icaoId":"SBLS","flightCategory":"VFR","rawOb":"METAR SBLS 201200Z 16003KT CAVOK 16/11 Q1022","temp":16,"dewp":11,"wdir":160,"wspd":3,"visib":"6+","altim":1022,"clouds":[],"obsTime":1781956800},"SBMT":{"icaoId":"SBMT","flightCategory":"VFR","rawOb":"METAR SBMT 201200Z 08002KT CAVOK 16/11 Q1019","temp":16,"dewp":11,"wdir":80,"wspd":2,"visib":"6+","altim":1019,"clouds":[],"obsTime":1781956800},"SBST":{"icaoId":"SBST","flightCategory":"VFR","rawOb":"METAR SBST 201200Z 15002KT 9999 FEW006 BKN070 18/17 Q1014","temp":18,"dewp":17,"wdir":150,"wspd":2,"visib":"6+","altim":1014,"clouds":[{"cover":"FEW","base":600},{"cover":"BKN","base":7000}],"obsTime":1781956800},"SBTA":{"icaoId":"SBTA","flightCategory":"VFR","rawOb":"METAR SBTA 201200Z VRB01KT CAVOK 16/13 Q1019","temp":16,"dewp":13,"wdir":"VRB","wspd":1,"visib":"6+","altim":1019,"clouds":[],"obsTime":1781956800},"SBLE":{"icaoId":"SBLE","flightCategory":"VFR","rawOb":"METAR SBLE 201200Z AUTO VRB03KT 9999 FEW020 21/15 Q1022","temp":21,"dewp":15,"wdir":"VRB","wspd":3,"visib":"6+","altim":1022,"clouds":[{"cover":"FEW","base":2000}],"obsTime":1781956800},"SBIH":{"icaoId":"SBIH","flightCategory":"VFR","rawOb":"METAR SBIH 201200Z 15005KT 9999 SCT020 FEW025TCU 25/24 Q1016","temp":25,"dewp":24,"wdir":150,"wspd":5,"visib":"6+","altim":1016,"clouds":[{"cover":"SCT","base":2000},{"cover":"FEW","base":2500}],"obsTime":1781956800},"SBNM":{"icaoId":"SBNM","flightCategory":"MVFR","rawOb":"METAR SBNM 201200Z AUTO 12005KT 9999 OVC020 10/09 Q1018","temp":10,"dewp":9,"wdir":120,"wspd":5,"visib":"6+","altim":1018,"clouds":[{"cover":"OVC","base":2000}],"obsTime":1781956800},"SBPF":{"icaoId":"SBPF","flightCategory":"LIFR","rawOb":"METAR SBPF 201200Z 20005KT 0500 FG VV002 09/08 Q1018","temp":9,"dewp":8,"wdir":200,"wspd":5,"visib":0.31,"altim":1018,"clouds":[{"cover":"OVX","base":200}],"obsTime":1781956800},"SBAN":{"icaoId":"SBAN","flightCategory":"VFR","rawOb":"METAR SBAN 201200Z 06007KT 9999 FEW045 SCT060 20/15 Q1023","temp":20,"dewp":15,"wdir":60,"wspd":7,"visib":"6+","altim":1023,"clouds":[{"cover":"FEW","base":4500},{"cover":"SCT","base":6000}],"obsTime":1781956800},"SBAF":{"icaoId":"SBAF","flightCategory":"VFR","rawOb":"METAR SBAF 201200Z 00000KT 9999 4000E NSC 20/19 Q1017","temp":20,"dewp":19,"wdir":0,"wspd":0,"visib":"6+","altim":1017,"clouds":[],"obsTime":1781956800},"SBGW":{"icaoId":"SBGW","flightCategory":"VFR","rawOb":"METAR SBGW 201200Z 02003KT 9999 FEW003 SCT071 15/10 Q1019","temp":15,"dewp":10,"wdir":20,"wspd":3,"visib":"6+","altim":1019,"clouds":[{"cover":"FEW","base":300},{"cover":"SCT","base":7100}],"obsTime":1781956800},"SBJP":{"icaoId":"SBJP","flightCategory":"MVFR","rawOb":"METAR SBJP 201200Z 16006KT 5000 -RA BKN014 BKN070 25/24 Q1016","temp":25,"dewp":24,"wdir":160,"wspd":6,"visib":3.11,"altim":1016,"clouds":[{"cover":"BKN","base":1400},{"cover":"BKN","base":7000}],"obsTime":1781956800}}}