{"updated":1780156581,"count":88,"data":{"SBSV":{"icaoId":"SBSV","flightCategory":"IFR","rawOb":"METAR SBSV 301400Z 12010G20KT 3000 RA BR SCT010 BKN014 OVC040 25/24 Q1018","temp":25,"dewp":24,"wdir":120,"wspd":10,"visib":1.86,"altim":1018,"clouds":[{"cover":"SCT","base":1000},{"cover":"BKN","base":1400},{"cover":"OVC","base":4000}],"obsTime":1780149600},"SBAT":{"icaoId":"SBAT","flightCategory":"VFR","rawOb":"METAR SBAT 301400Z 14007KT CAVOK 31/21 Q1017","temp":31,"dewp":21,"wdir":140,"wspd":7,"visib":"6+","altim":1017,"clouds":[],"obsTime":1780149600},"SBBE":{"icaoId":"SBBE","flightCategory":"VFR","rawOb":"METAR SBBE 301400Z 08009KT 9999 SCT020 SCT100 30/26 Q1015","temp":30,"dewp":26,"wdir":80,"wspd":9,"visib":"6+","altim":1015,"clouds":[{"cover":"SCT","base":2000},{"cover":"SCT","base":10000}],"obsTime":1780149600},"SBPV":{"icaoId":"SBPV","flightCategory":"VFR","rawOb":"METAR SBPV 301400Z 13011KT 9999 FEW020 30/21 Q1015","temp":30,"dewp":21,"wdir":130,"wspd":11,"visib":"6+","altim":1015,"clouds":[{"cover":"FEW","base":2000}],"obsTime":1780149600},"SBBR":{"icaoId":"SBBR","flightCategory":"VFR","rawOb":"METAR SBBR 301400Z 06007KT 030V090 9999 FEW025 BKN100 20/16 Q1024","temp":20,"dewp":16,"wdir":60,"wspd":7,"visib":"6+","altim":1024,"clouds":[{"cover":"FEW","base":2500},{"cover":"BKN","base":10000}],"obsTime":1780149600},"SBBV":{"icaoId":"SBBV","flightCategory":"MVFR","rawOb":"METAR SBBV 301400Z 09005KT 9999 BKN015 SCT030 FEW035TCU BKN080 27/23 Q1015","temp":27,"dewp":23,"wdir":90,"wspd":5,"visib":"6+","altim":1015,"clouds":[{"cover":"BKN","base":1500},{"cover":"SCT","base":3000},{"cover":"FEW","base":3500},{"cover":"BKN","base":8000}],"obsTime":1780149600},"SBCB":{"icaoId":"SBCB","flightCategory":"VFR","rawOb":"METAR SBCB 301400Z /////KT 9999 SCT025 24/16 Q1022","temp":24,"dewp":16,"wdir":null,"wspd":null,"visib":"6+","altim":1022,"clouds":[{"cover":"SCT","base":2500}],"obsTime":1780149600},"SBCF":{"icaoId":"SBCF","flightCategory":"VFR","rawOb":"METAR SBCF 301400Z 05005KT 9999 FEW030 20/16 Q1024","temp":20,"dewp":16,"wdir":50,"wspd":5,"visib":"6+","altim":1024,"clouds":[{"cover":"FEW","base":3000}],"obsTime":1780149600},"SBCG":{"icaoId":"SBCG","flightCategory":"VFR","rawOb":"METAR SBCG 301400Z 05004KT 020V090 CAVOK 27/17 Q1021","temp":27,"dewp":17,"wdir":50,"wspd":4,"visib":"6+","altim":1021,"clouds":[],"obsTime":1780149600},"SBCP":{"icaoId":"SBCP","flightCategory":"VFR","rawOb":"METAR SBCP 301400Z 10003KT 9999 FEW020 SCT090 24/16 Q1022","temp":24,"dewp":16,"wdir":100,"wspd":3,"visib":"6+","altim":1022,"clouds":[{"cover":"FEW","base":2000},{"cover":"SCT","base":9000}],"obsTime":1780149600},"SBCR":{"icaoId":"SBCR","flightCategory":"VFR","rawOb":"METAR SBCR 301400Z 35004KT 290V040 CAVOK 27/20 Q1019","temp":27,"dewp":20,"wdir":350,"wspd":4,"visib":"6+","altim":1019,"clouds":[],"obsTime":1780149600},"SBCT":{"icaoId":"SBCT","flightCategory":"MVFR","rawOb":"METAR SBCT 301400Z 34004KT 9999 BKN013 OVC060 14/12 Q1025","temp":14,"dewp":12,"wdir":340,"wspd":4,"visib":"6+","altim":1025,"clouds":[{"cover":"BKN","base":1300},{"cover":"OVC","base":6000}],"obsTime":1780149600},"SBCZ":{"icaoId":"SBCZ","flightCategory":"VFR","rawOb":"METAR SBCZ 301400Z 15007KT CAVOK 26/23 Q1016","temp":26,"dewp":23,"wdir":150,"wspd":7,"visib":"6+","altim":1016,"clouds":[],"obsTime":1780149600},"SBEG":{"icaoId":"SBEG","flightCategory":"VFR","rawOb":"METAR SBEG 301400Z 02004KT 9999 SCT040 SCT100 29/24 Q1015","temp":29,"dewp":24,"wdir":20,"wspd":4,"visib":"6+","altim":1015,"clouds":[{"cover":"SCT","base":4000},{"cover":"SCT","base":10000}],"obsTime":1780149600},"SBFI":{"icaoId":"SBFI","flightCategory":"VFR","rawOb":"METAR SBFI 301400Z 08006KT 9999 SCT014 21/17 Q1022","temp":21,"dewp":17,"wdir":80,"wspd":6,"visib":"6+","altim":1022,"clouds":[{"cover":"SCT","base":1400}],"obsTime":1780149600},"SBFL":{"icaoId":"SBFL","flightCategory":"VFR","rawOb":"METAR SBFL 301400Z VRB02KT 9999 FEW010 BKN050 BKN100 19/15 Q1022","temp":19,"dewp":15,"wdir":"VRB","wspd":2,"visib":"6+","altim":1022,"clouds":[{"cover":"FEW","base":1000},{"cover":"BKN","base":5000},{"cover":"BKN","base":10000}],"obsTime":1780149600},"SBFZ":{"icaoId":"SBFZ","flightCategory":"VFR","rawOb":"METAR SBFZ 301400Z 17011KT 9999 FEW010 SCT025 BKN100 26/23 Q1014","temp":26,"dewp":23,"wdir":170,"wspd":11,"visib":"6+","altim":1014,"clouds":[{"cover":"FEW","base":1000},{"cover":"SCT","base":2500},{"cover":"BKN","base":10000}],"obsTime":1780149600},"SBGL":{"icaoId":"SBGL","flightCategory":"VFR","rawOb":"METAR SBGL 301400Z 05006KT CAVOK 25/17 Q1021","temp":25,"dewp":17,"wdir":50,"wspd":6,"visib":"6+","altim":1021,"clouds":[],"obsTime":1780149600},"SBGO":{"icaoId":"SBGO","flightCategory":"VFR","rawOb":"METAR SBGO 301400Z 07006KT 030V100 CAVOK 26/18 Q1022","temp":26,"dewp":18,"wdir":70,"wspd":6,"visib":"6+","altim":1022,"clouds":[],"obsTime":1780149600},"SBGR":{"icaoId":"SBGR","flightCategory":"MVFR","rawOb":"METAR SBGR 301400Z 04006KT 9000 OVC011 18/15 Q1023","temp":18,"dewp":15,"wdir":40,"wspd":6,"visib":5.59,"altim":1023,"clouds":[{"cover":"OVC","base":1100}],"obsTime":1780149600},"SBHT":{"icaoId":"SBHT","flightCategory":"VFR","rawOb":"METAR SBHT 301400Z 10005KT 9999 SCT020 SCT080 30/26 Q1015","temp":30,"dewp":26,"wdir":100,"wspd":5,"visib":"6+","altim":1015,"clouds":[{"cover":"SCT","base":2000},{"cover":"SCT","base":8000}],"obsTime":1780149600},"SBIL":{"icaoId":"SBIL","flightCategory":"VFR","rawOb":"METAR SBIL 301400Z 20009KT 170V230 9999 FEW017 SCT045 BKN080 27/22 Q1020","temp":27,"dewp":22,"wdir":200,"wspd":9,"visib":"6+","altim":1020,"clouds":[{"cover":"FEW","base":1700},{"cover":"SCT","base":4500},{"cover":"BKN","base":8000}],"obsTime":1780149600},"SBJU":{"icaoId":"SBJU","flightCategory":"MVFR","rawOb":"METAR SBJU 301400Z 12010KT 9999 BKN020 SCT070 28/20 Q1018","temp":28,"dewp":20,"wdir":120,"wspd":10,"visib":"6+","altim":1018,"clouds":[{"cover":"BKN","base":2000},{"cover":"SCT","base":7000}],"obsTime":1780149600},"SBKP":{"icaoId":"SBKP","flightCategory":"VFR","rawOb":"METAR SBKP 301400Z 00000KT 9999 FEW025 22/16 Q1023","temp":22,"dewp":16,"wdir":0,"wspd":0,"visib":"6+","altim":1023,"clouds":[{"cover":"FEW","base":2500}],"obsTime":1780149600},"SBLO":{"icaoId":"SBLO","flightCategory":"VFR","rawOb":"METAR SBLO 301400Z 14004KT 100V210 CAVOK 19/14 Q1023","temp":19,"dewp":14,"wdir":140,"wspd":4,"visib":"6+","altim":1023,"clouds":[],"obsTime":1780149600},"SBMA":{"icaoId":"SBMA","flightCategory":"VFR","rawOb":"METAR SBMA 301400Z 35003KT 9999 FEW015 BKN100 31/24 Q1015","temp":31,"dewp":24,"wdir":350,"wspd":3,"visib":"6+","altim":1015,"clouds":[{"cover":"FEW","base":1500},{"cover":"BKN","base":10000}],"obsTime":1780149600},"SBME":{"icaoId":"SBME","flightCategory":"VFR","rawOb":"METAR SBME 301400Z 03008KT 350V060 CAVOK 25/16 Q1022","temp":25,"dewp":16,"wdir":30,"wspd":8,"visib":"6+","altim":1022,"clouds":[],"obsTime":1780149600},"SBMG":{"icaoId":"SBMG","flightCategory":"VFR","rawOb":"METAR SBMG 301400Z VRB02KT 9999 SCT046 19/15 Q1022","temp":19,"dewp":15,"wdir":"VRB","wspd":2,"visib":"6+","altim":1022,"clouds":[{"cover":"SCT","base":4600}],"obsTime":1780149600},"SBMK":{"icaoId":"SBMK","flightCategory":"VFR","rawOb":"METAR SBMK 301400Z 15004KT 9999 FEW030 24/15 Q1023","temp":24,"dewp":15,"wdir":150,"wspd":4,"visib":"6+","altim":1023,"clouds":[{"cover":"FEW","base":3000}],"obsTime":1780149600},"SBMO":{"icaoId":"SBMO","flightCategory":"VFR","rawOb":"METAR SBMO 301400Z 13012KT 9999 SCT023 BKN040 BKN070 28/23 Q1017","temp":28,"dewp":23,"wdir":130,"wspd":12,"visib":"6+","altim":1017,"clouds":[{"cover":"SCT","base":2300},{"cover":"BKN","base":4000},{"cover":"BKN","base":7000}],"obsTime":1780149600},"SBMQ":{"icaoId":"SBMQ","flightCategory":"MVFR","rawOb":"METAR SBMQ 301400Z 05003KT 9999 VCSH BKN017 FEW020TCU SCT070 30/26 Q1014","temp":30,"dewp":26,"wdir":50,"wspd":3,"visib":"6+","altim":1014,"clouds":[{"cover":"BKN","base":1700},{"cover":"FEW","base":2000},{"cover":"SCT","base":7000}],"obsTime":1780149600},"SBNT":{"icaoId":"SBNT","flightCategory":"VFR","rawOb":"METAR SBNT 301400Z 13018KT 9999 SCT021 SCT050 30/23 Q1015","temp":30,"dewp":23,"wdir":130,"wspd":18,"visib":"6+","altim":1015,"clouds":[{"cover":"SCT","base":2100},{"cover":"SCT","base":5000}],"obsTime":1780149600},"SBPA":{"icaoId":"SBPA","flightCategory":"VFR","rawOb":"METAR SBPA 301400Z VRB02KT CAVOK 19/15 Q1022","temp":19,"dewp":15,"wdir":"VRB","wspd":2,"visib":"6+","altim":1022,"clouds":[],"obsTime":1780149600},"SBPJ":{"icaoId":"SBPJ","flightCategory":"VFR","rawOb":"METAR SBPJ 301400Z 22007KT 9999 FEW030 30/20 Q1017","temp":30,"dewp":20,"wdir":220,"wspd":7,"visib":"6+","altim":1017,"clouds":[{"cover":"FEW","base":3000}],"obsTime":1780149600},"SBRB":{"icaoId":"SBRB","flightCategory":"VFR","rawOb":"METAR SBRB 301400Z 06005KT CAVOK 28/24 Q1017","temp":28,"dewp":24,"wdir":60,"wspd":5,"visib":"6+","altim":1017,"clouds":[],"obsTime":1780149600},"SBRF":{"icaoId":"SBRF","flightCategory":"VFR","rawOb":"METAR SBRF 301400Z 14012KT 090V160 9999 SCT018 29/24 Q1015","temp":29,"dewp":24,"wdir":140,"wspd":12,"visib":"6+","altim":1015,"clouds":[{"cover":"SCT","base":1800}],"obsTime":1780149600},"SBSG":{"icaoId":"SBSG","flightCategory":"MVFR","rawOb":"METAR SBSG 301400Z 12012KT 100V160 9999 BKN023 29/24 Q1015","temp":29,"dewp":24,"wdir":120,"wspd":12,"visib":"6+","altim":1015,"clouds":[{"cover":"BKN","base":2300}],"obsTime":1780149600},"SBSL":{"icaoId":"SBSL","flightCategory":"VFR","rawOb":"METAR SBSL 301400Z 09007KT 9999 SCT020 BKN100 30/25 Q1014","temp":30,"dewp":25,"wdir":90,"wspd":7,"visib":"6+","altim":1014,"clouds":[{"cover":"SCT","base":2000},{"cover":"BKN","base":10000}],"obsTime":1780149600},"SBSN":{"icaoId":"SBSN","flightCategory":"VFR","rawOb":"METAR SBSN 301400Z 09008KT 9999 FEW015 SCT016 FEW020TCU BKN100 29/26 Q1014","temp":29,"dewp":26,"wdir":90,"wspd":8,"visib":"6+","altim":1014,"clouds":[{"cover":"FEW","base":1500},{"cover":"SCT","base":1600},{"cover":"FEW","base":2000},{"cover":"BKN","base":10000}],"obsTime":1780149600},"SBSP":{"icaoId":"SBSP","flightCategory":"MVFR","rawOb":"METAR SBSP 301400Z VRB04KT 8000 BKN010 18/16 Q1024","temp":18,"dewp":16,"wdir":"VRB","wspd":4,"visib":4.97,"altim":1024,"clouds":[{"cover":"BKN","base":1000}],"obsTime":1780149600},"SBTE":{"icaoId":"SBTE","flightCategory":"VFR","rawOb":"METAR SBTE 301400Z VRB04KT 9999 FEW020 SCT090 32/20 Q1014","temp":32,"dewp":20,"wdir":"VRB","wspd":4,"visib":"6+","altim":1014,"clouds":[{"cover":"FEW","base":2000},{"cover":"SCT","base":9000}],"obsTime":1780149600},"SBUL":{"icaoId":"SBUL","flightCategory":"VFR","rawOb":"METAR SBUL 301500Z 08006KT 9999 FEW025 24/16 Q1024","temp":24,"dewp":16,"wdir":80,"wspd":6,"visib":"6+","altim":1024,"clouds":[{"cover":"FEW","base":2500}],"obsTime":1780153200},"SBUR":{"icaoId":"SBUR","flightCategory":"VFR","rawOb":"METAR SBUR 301400Z 36008KT CAVOK 25/16 Q1023","temp":25,"dewp":16,"wdir":360,"wspd":8,"visib":"6+","altim":1023,"clouds":[],"obsTime":1780149600},"SBVT":{"icaoId":"SBVT","flightCategory":"VFR","rawOb":"METAR SBVT 301400Z 20008KT 180V240 9999 FEW040 BKN100 25/17 Q1022","temp":25,"dewp":17,"wdir":200,"wspd":8,"visib":"6+","altim":1022,"clouds":[{"cover":"FEW","base":4000},{"cover":"BKN","base":10000}],"obsTime":1780149600},"SBSJ":{"icaoId":"SBSJ","flightCategory":"MVFR","rawOb":"METAR SBSJ 301400Z 36001KT 7000 OVC019 19/14 Q1023","temp":19,"dewp":14,"wdir":360,"wspd":1,"visib":4.35,"altim":1023,"clouds":[{"cover":"OVC","base":1900}],"obsTime":1780149600},"SBAX":{"icaoId":"SBAX","flightCategory":"VFR","rawOb":"METAR SBAX 301400Z AUTO VRB04KT 9999 FEW026 22/15 Q1024","temp":22,"dewp":15,"wdir":"VRB","wspd":4,"visib":"6+","altim":1024,"clouds":[{"cover":"FEW","base":2600}],"obsTime":1780149600},"SBBH":{"icaoId":"SBBH","flightCategory":"VFR","rawOb":"METAR SBBH 301400Z 10004KT 9999 SCT030 21/16 Q1024","temp":21,"dewp":16,"wdir":100,"wspd":4,"visib":"6+","altim":1024,"clouds":[{"cover":"SCT","base":3000}],"obsTime":1780149600},"SBBQ":{"icaoId":"SBBQ","flightCategory":"VFR","rawOb":"METAR SBBQ 301400Z 10003KT 9999 SCT013 SCT025 BKN100 18/14 Q1027","temp":18,"dewp":14,"wdir":100,"wspd":3,"visib":"6+","altim":1027,"clouds":[{"cover":"SCT","base":1300},{"cover":"SCT","base":2500},{"cover":"BKN","base":10000}],"obsTime":1780149600},"SBBU":{"icaoId":"SBBU","flightCategory":"VFR","rawOb":"METAR SBBU 301400Z 17004KT CAVOK 22/16 Q1023","temp":22,"dewp":16,"wdir":170,"wspd":4,"visib":"6+","altim":1023,"clouds":[],"obsTime":1780149600},"SBCC":{"icaoId":"SBCC","flightCategory":"VFR","rawOb":"METAR SBCC 301400Z 09012KT CAVOK 29/17 Q1018","temp":29,"dewp":17,"wdir":90,"wspd":12,"visib":"6+","altim":1018,"clouds":[],"obsTime":1780149600},"SBCJ":{"icaoId":"SBCJ","flightCategory":"VFR","rawOb":"METAR SBCJ 301400Z 09007KT CAVOK 28/17 Q1019","temp":28,"dewp":17,"wdir":90,"wspd":7,"visib":"6+","altim":1019,"clouds":[],"obsTime":1780149600},"SBCO":{"icaoId":"SBCO","flightCategory":"VFR","rawOb":"METAR SBCO 301400Z VRB02KT 9999 FEW020 BKN100 19/16 Q1023","temp":19,"dewp":16,"wdir":"VRB","wspd":2,"visib":"6+","altim":1023,"clouds":[{"cover":"FEW","base":2000},{"cover":"BKN","base":10000}],"obsTime":1780149600},"SBDN":{"icaoId":"SBDN","flightCategory":"VFR","rawOb":"METAR SBDN 301400Z 13004KT CAVOK 21/14 Q1022","temp":21,"dewp":14,"wdir":130,"wspd":4,"visib":"6+","altim":1022,"clouds":[],"obsTime":1780149600},"SBES":{"icaoId":"SBES","flightCategory":"VFR","rawOb":"METAR SBES 301400Z 06009KT 010V090 9999 FEW025 24/// Q1022","temp":null,"dewp":null,"wdir":60,"wspd":9,"visib":"6+","altim":1022,"clouds":[{"cover":"FEW","base":2500}],"obsTime":1780149600},"SBGM":{"icaoId":"SBGM","flightCategory":"VFR","rawOb":"METAR SBGM 301400Z 10009KT 9999 FEW020 29/24 Q1016","temp":29,"dewp":24,"wdir":100,"wspd":9,"visib":"6+","altim":1016,"clouds":[{"cover":"FEW","base":2000}],"obsTime":1780149600},"SBIP":{"icaoId":"SBIP","flightCategory":"VFR","rawOb":"METAR SBIP 301400Z AUTO 03008KT 360V070 9999 SCT027 24/17 Q1022","temp":24,"dewp":17,"wdir":30,"wspd":8,"visib":"6+","altim":1022,"clouds":[{"cover":"SCT","base":2700}],"obsTime":1780149600},"SBKG":{"icaoId":"SBKG","flightCategory":"MVFR","rawOb":"METAR SBKG 301400Z 15009KT 9999 BKN023 27/22 Q1018","temp":27,"dewp":22,"wdir":150,"wspd":9,"visib":"6+","altim":1018,"clouds":[{"cover":"BKN","base":2300}],"obsTime":1780149600},"SBOI":{"icaoId":"SBOI","flightCategory":"MVFR","rawOb":"METAR SBOI 301400Z AUTO VRB02KT 9999 SCT017 BKN026 29/25 Q1015","temp":29,"dewp":25,"wdir":"VRB","wspd":2,"visib":"6+","altim":1015,"clouds":[{"cover":"SCT","base":1700},{"cover":"BKN","base":2600}],"obsTime":1780149600},"SBPB":{"icaoId":"SBPB","flightCategory":"VFR","rawOb":"METAR SBPB 301400Z 11012KT 9999 FEW020 BKN100 30/25 Q1014","temp":30,"dewp":25,"wdir":110,"wspd":12,"visib":"6+","altim":1014,"clouds":[{"cover":"FEW","base":2000},{"cover":"BKN","base":10000}],"obsTime":1780149600},"SBPL":{"icaoId":"SBPL","flightCategory":"VFR","rawOb":"METAR SBPL 301400Z 11011KT 9999 FEW025 30/18 Q1018","temp":30,"dewp":18,"wdir":110,"wspd":11,"visib":"6+","altim":1018,"clouds":[{"cover":"FEW","base":2500}],"obsTime":1780149600},"SBPP":{"icaoId":"SBPP","flightCategory":"VFR","rawOb":"METAR SBPP 301400Z 23003KT CAVOK 19/16 Q1023","temp":19,"dewp":16,"wdir":230,"wspd":3,"visib":"6+","altim":1023,"clouds":[],"obsTime":1780149600},"SBPS":{"icaoId":"SBPS","flightCategory":"VFR","rawOb":"METAR SBPS 301400Z 17006G16KT 9999 VCSH SCT020 OVC080 25/20 Q1020","temp":25,"dewp":20,"wdir":170,"wspd":6,"visib":"6+","altim":1020,"clouds":[{"cover":"SCT","base":2000},{"cover":"OVC","base":8000}],"obsTime":1780149600},"SBSC":{"icaoId":"SBSC","flightCategory":"VFR","rawOb":"METAR SBSC 301400Z 03007KT 9999 FEW025 24/18 Q1021","temp":24,"dewp":18,"wdir":30,"wspd":7,"visib":"6+","altim":1021,"clouds":[{"cover":"FEW","base":2500}],"obsTime":1780149600},"SBAR":{"icaoId":"SBAR","flightCategory":"VFR","rawOb":"METAR SBAR 301400Z 12011KT 9999 FEW030 29/20 Q1017","temp":29,"dewp":20,"wdir":120,"wspd":11,"visib":"6+","altim":1017,"clouds":[{"cover":"FEW","base":3000}],"obsTime":1780149600},"SBSM":{"icaoId":"SBSM","flightCategory":"IFR","rawOb":"METAR SBSM 301400Z VRB02KT 5000 BR BKN005 OVC007 16/16 Q1023","temp":16,"dewp":16,"wdir":"VRB","wspd":2,"visib":3.11,"altim":1023,"clouds":[{"cover":"BKN","base":500},{"cover":"OVC","base":700}],"obsTime":1780149600},"SBSR":{"icaoId":"SBSR","flightCategory":"VFR","rawOb":"METAR SBSR 301400Z 10002KT 9999 FEW040 SCT090 21/15 Q1022","temp":21,"dewp":15,"wdir":100,"wspd":2,"visib":"6+","altim":1022,"clouds":[{"cover":"FEW","base":4000},{"cover":"SCT","base":9000}],"obsTime":1780149600},"SBTF":{"icaoId":"SBTF","flightCategory":"VFR","rawOb":"METAR SBTF 301400Z 33002KT 9999 SCT010 28/27 Q1014","temp":28,"dewp":27,"wdir":330,"wspd":2,"visib":"6+","altim":1014,"clouds":[{"cover":"SCT","base":1000}],"obsTime":1780149600},"SBTT":{"icaoId":"SBTT","flightCategory":"IFR","rawOb":"METAR SBTT 301400Z 29003KT 3000 RA BKN008 23/23 Q1016","temp":23,"dewp":23,"wdir":290,"wspd":3,"visib":1.86,"altim":1016,"clouds":[{"cover":"BKN","base":800}],"obsTime":1780149600},"SBTU":{"icaoId":"SBTU","flightCategory":"VFR","rawOb":"METAR SBTU 301400Z AUTO 19004KT 110V240 9999 // BKN078/// 29/23 Q1016","temp":29,"dewp":23,"wdir":190,"wspd":4,"visib":"6+","altim":1016,"clouds":[{"cover":"BKN","base":7800}],"obsTime":1780149600},"SBUY":{"icaoId":"SBUY","flightCategory":"VFR","rawOb":"METAR SBUY 301400Z 15004KT CAVOK 29/24 Q1013","temp":29,"dewp":24,"wdir":150,"wspd":4,"visib":"6+","altim":1013,"clouds":[],"obsTime":1780149600},"SBVH":{"icaoId":"SBVH","flightCategory":"VFR","rawOb":"METAR SBVH 301400Z 12009KT CAVOK 27/20 Q1020","temp":27,"dewp":20,"wdir":120,"wspd":9,"visib":"6+","altim":1020,"clouds":[],"obsTime":1780149600},"SBAU":{"icaoId":"SBAU","flightCategory":"VFR","rawOb":"METAR SBAU 301400Z 06006KT CAVOK 23/15 Q1021","temp":23,"dewp":15,"wdir":60,"wspd":6,"visib":"6+","altim":1021,"clouds":[],"obsTime":1780149600},"SBCA":{"icaoId":"SBCA","flightCategory":"MVFR","rawOb":"METAR SBCA 301400Z 10004KT 9999 BKN020 19/15 Q1024","temp":19,"dewp":15,"wdir":100,"wspd":4,"visib":"6+","altim":1024,"clouds":[{"cover":"BKN","base":2000}],"obsTime":1780149600},"SBLE":{"icaoId":"SBLE","flightCategory":"MVFR","rawOb":"METAR SBLE 301400Z AUTO 17006KT 140V210 9999 FEW010 BKN016 OVC024 ///// Q////","temp":null,"dewp":null,"wdir":170,"wspd":6,"visib":"6+","altim":null,"clouds":[{"cover":"FEW","base":1000},{"cover":"BKN","base":1600},{"cover":"OVC","base":2400}],"obsTime":1780149600},"SBAN":{"icaoId":"SBAN","flightCategory":"VFR","rawOb":"METAR SBAN 301400Z 16009KT CAVOK 21/15 Q1025","temp":21,"dewp":15,"wdir":160,"wspd":9,"visib":"6+","altim":1025,"clouds":[],"obsTime":1780149600},"SBTC":{"icaoId":"SBTC","flightCategory":"VFR","rawOb":"METAR SBTC 301500Z 20009KT 9999 SCT020 BKN080 26/22 Q1019","temp":26,"dewp":22,"wdir":200,"wspd":9,"visib":"6+","altim":1019,"clouds":[{"cover":"SCT","base":2000},{"cover":"BKN","base":8000}],"obsTime":1780153200},"SBJV":{"icaoId":"SBJV","flightCategory":"VFR","rawOb":"METAR SBJV 301400Z 21004KT 9999 SCT010 BKN100 20/17 Q1023","temp":20,"dewp":17,"wdir":210,"wspd":4,"visib":"6+","altim":1023,"clouds":[{"cover":"SCT","base":1000},{"cover":"BKN","base":10000}],"obsTime":1780149600},"SBNM":{"icaoId":"SBNM","flightCategory":"LIFR","rawOb":"METAR SBNM 301400Z AUTO 01003KT 310V060 9999 OVC003 15/15 Q1023","temp":15,"dewp":15,"wdir":10,"wspd":3,"visib":"6+","altim":1023,"clouds":[{"cover":"OVC","base":300}],"obsTime":1780149600},"SBAF":{"icaoId":"SBAF","flightCategory":"VFR","rawOb":"METAR SBAF 301400Z VRB05KT 9999 FEW044 25/17 Q1021","temp":25,"dewp":17,"wdir":"VRB","wspd":5,"visib":"6+","altim":1021,"clouds":[{"cover":"FEW","base":4400}],"obsTime":1780149600},"SBGW":{"icaoId":"SBGW","flightCategory":"MVFR","rawOb":"METAR SBGW 301400Z 04006KT 350V090 8000 SCT020 21/13 Q1022","temp":21,"dewp":13,"wdir":40,"wspd":6,"visib":4.97,"altim":1022,"clouds":[{"cover":"SCT","base":2000}],"obsTime":1780149600},"SBJR":{"icaoId":"SBJR","flightCategory":"VFR","rawOb":"METAR SBJR 301400Z 32001KT 9999 FEW040 BKN070 29/17 Q1021","temp":29,"dewp":17,"wdir":320,"wspd":1,"visib":"6+","altim":1021,"clouds":[{"cover":"FEW","base":4000},{"cover":"BKN","base":7000}],"obsTime":1780149600},"SBLS":{"icaoId":"SBLS","flightCategory":"VFR","rawOb":"METAR SBLS 301400Z VRB02KT 9999 FEW040 BKN100 20/16 Q1024","temp":20,"dewp":16,"wdir":"VRB","wspd":2,"visib":"6+","altim":1024,"clouds":[{"cover":"FEW","base":4000},{"cover":"BKN","base":10000}],"obsTime":1780149600},"SBJP":{"icaoId":"SBJP","flightCategory":"MVFR","rawOb":"METAR SBJP 301400Z 11012KT 9999 BKN023 29/24 Q1015","temp":29,"dewp":24,"wdir":110,"wspd":12,"visib":"6+","altim":1015,"clouds":[{"cover":"BKN","base":2300}],"obsTime":1780149600},"SBMT":{"icaoId":"SBMT","flightCategory":"MVFR","rawOb":"METAR SBMT 301400Z 07004KT 8000 SCT011 BKN013 18/15 Q1023","temp":18,"dewp":15,"wdir":70,"wspd":4,"visib":4.97,"altim":1023,"clouds":[{"cover":"SCT","base":1100},{"cover":"BKN","base":1300}],"obsTime":1780149600},"SBST":{"icaoId":"SBST","flightCategory":"VFR","rawOb":"METAR SBST 301400Z 30003KT 9999 BKN040 BKN048 22/15 Q1021","temp":22,"dewp":15,"wdir":300,"wspd":3,"visib":"6+","altim":1021,"clouds":[{"cover":"BKN","base":4000},{"cover":"BKN","base":4800}],"obsTime":1780149600},"SBTA":{"icaoId":"SBTA","flightCategory":"MVFR","rawOb":"METAR SBTA 301400Z 04008KT 8000 SCT020 21/15 Q1022","temp":21,"dewp":15,"wdir":40,"wspd":8,"visib":4.97,"altim":1022,"clouds":[{"cover":"SCT","base":2000}],"obsTime":1780149600},"SBIH":{"icaoId":"SBIH","flightCategory":"VFR","rawOb":"METAR SBIH 301400Z 04005KT 9999 SCT016 30/26 Q1014","temp":30,"dewp":26,"wdir":40,"wspd":5,"visib":"6+","altim":1014,"clouds":[{"cover":"SCT","base":1600}],"obsTime":1780149600},"SBPF":{"icaoId":"SBPF","flightCategory":"IFR","rawOb":"METAR SBPF 301400Z 02005KT 9999 BKN007 16/13 Q1024","temp":16,"dewp":13,"wdir":20,"wspd":5,"visib":"6+","altim":1024,"clouds":[{"cover":"BKN","base":700}],"obsTime":1780149600}}}