{"updated":1784200449,"count":82,"data":{"SBGR":{"icaoId":"SBGR","flightCategory":"LIFR","rawOb":"SPECI SBGR 160940Z 08008KT 1500 R28L/0600D R10R/0700D R28R/0800D R10L/1900D BCFG SCT002 09/09 Q1025","temp":9,"dewp":9,"wdir":80,"wspd":8,"visib":0.93,"altim":1025,"clouds":[{"cover":"SCT","base":200}],"obsTime":1784194800},"SBFZ":{"icaoId":"SBFZ","flightCategory":"VFR","rawOb":"METAR SBFZ 161000Z 16007KT 9999 FEW020 25/21 Q1016","temp":25,"dewp":21,"wdir":160,"wspd":7,"visib":"6+","altim":1016,"clouds":[{"cover":"FEW","base":2000}],"obsTime":1784196000},"SBNT":{"icaoId":"SBNT","flightCategory":"MVFR","rawOb":"METAR SBNT 161000Z 18009KT 9999 FEW010 BKN020 FEW025TCU 23/22 Q1017","temp":23,"dewp":22,"wdir":180,"wspd":9,"visib":"6+","altim":1017,"clouds":[{"cover":"FEW","base":1000},{"cover":"BKN","base":2000},{"cover":"FEW","base":2500}],"obsTime":1784196000},"SBGL":{"icaoId":"SBGL","flightCategory":"VFR","rawOb":"METAR SBGL 161000Z 04002KT CAVOK 13/12 Q1024","temp":13,"dewp":12,"wdir":40,"wspd":2,"visib":"6+","altim":1024,"clouds":[],"obsTime":1784196000},"SBCF":{"icaoId":"SBCF","flightCategory":"VFR","rawOb":"METAR SBCF 161000Z 16002KT 9999 FEW020 11/09 Q1027","temp":11,"dewp":9,"wdir":160,"wspd":2,"visib":"6+","altim":1027,"clouds":[{"cover":"FEW","base":2000}],"obsTime":1784196000},"SBSG":{"icaoId":"SBSG","flightCategory":"VFR","rawOb":"METAR SBSG 161000Z 17004KT 130V210 9999 VCSH SCT007 BKN040 23/22 Q1017","temp":23,"dewp":22,"wdir":170,"wspd":4,"visib":"6+","altim":1017,"clouds":[{"cover":"SCT","base":700},{"cover":"BKN","base":4000}],"obsTime":1784196000},"SBCG":{"icaoId":"SBCG","flightCategory":"VFR","rawOb":"METAR SBCG 161000Z 05015KT CAVOK 20/11 Q1016","temp":20,"dewp":11,"wdir":50,"wspd":15,"visib":"6+","altim":1016,"clouds":[],"obsTime":1784196000},"SBBR":{"icaoId":"SBBR","flightCategory":"VFR","rawOb":"METAR SBBR 161000Z 11006KT CAVOK 15/12 Q1025","temp":15,"dewp":12,"wdir":110,"wspd":6,"visib":"6+","altim":1025,"clouds":[],"obsTime":1784196000},"SBBE":{"icaoId":"SBBE","flightCategory":"VFR","rawOb":"METAR SBBE 161000Z 11004KT CAVOK 25/23 Q1015","temp":25,"dewp":23,"wdir":110,"wspd":4,"visib":"6+","altim":1015,"clouds":[],"obsTime":1784196000},"SBRB":{"icaoId":"SBRB","flightCategory":"VFR","rawOb":"METAR SBRB 161000Z 13002KT 9999 FEW002 21/20 Q1013","temp":21,"dewp":20,"wdir":130,"wspd":2,"visib":"6+","altim":1013,"clouds":[{"cover":"FEW","base":200}],"obsTime":1784196000},"SBTE":{"icaoId":"SBTE","flightCategory":"VFR","rawOb":"METAR SBTE 161000Z 16005KT 9999 FEW015 SCT070 25/22 Q1016","temp":25,"dewp":22,"wdir":160,"wspd":5,"visib":"6+","altim":1016,"clouds":[{"cover":"FEW","base":1500},{"cover":"SCT","base":7000}],"obsTime":1784196000},"SBMA":{"icaoId":"SBMA","flightCategory":"VFR","rawOb":"METAR SBMA 161000Z 19003KT 9999 FEW012 SCT100 24/22 Q1015","temp":24,"dewp":22,"wdir":190,"wspd":3,"visib":"6+","altim":1015,"clouds":[{"cover":"FEW","base":1200},{"cover":"SCT","base":10000}],"obsTime":1784196000},"SBLO":{"icaoId":"SBLO","flightCategory":"VFR","rawOb":"METAR SBLO 161000Z 18003KT CAVOK 12/10 Q1021","temp":12,"dewp":10,"wdir":180,"wspd":3,"visib":"6+","altim":1021,"clouds":[],"obsTime":1784196000},"SBVT":{"icaoId":"SBVT","flightCategory":"MVFR","rawOb":"METAR SBVT 161000Z 00000KT 9999 BKN030 BKN049 16/15 Q1026","temp":16,"dewp":15,"wdir":0,"wspd":0,"visib":"6+","altim":1026,"clouds":[{"cover":"BKN","base":3000},{"cover":"BKN","base":4900}],"obsTime":1784196000},"SBSP":{"icaoId":"SBSP","flightCategory":"VFR","rawOb":"METAR SBSP 161000Z 06005KT 030V090 CAVOK 12/10 Q1025","temp":12,"dewp":10,"wdir":60,"wspd":5,"visib":"6+","altim":1025,"clouds":[],"obsTime":1784196000},"SBGO":{"icaoId":"SBGO","flightCategory":"VFR","rawOb":"METAR SBGO 161000Z VRB02KT CAVOK 19/13 Q1022","temp":19,"dewp":13,"wdir":"VRB","wspd":2,"visib":"6+","altim":1022,"clouds":[],"obsTime":1784196000},"SBCB":{"icaoId":"SBCB","flightCategory":"VFR","rawOb":"METAR SBCB 161000Z 07008KT CAVOK 19/16 Q1025","temp":19,"dewp":16,"wdir":70,"wspd":8,"visib":"6+","altim":1025,"clouds":[],"obsTime":1784196000},"SBFI":{"icaoId":"SBFI","flightCategory":"VFR","rawOb":"METAR SBFI 161000Z 08007KT CAVOK 16/12 Q1015","temp":16,"dewp":12,"wdir":80,"wspd":7,"visib":"6+","altim":1015,"clouds":[],"obsTime":1784196000},"SBMG":{"icaoId":"SBMG","flightCategory":"VFR","rawOb":"METAR SBMG 161000Z 06014KT CAVOK 17/09 Q1018","temp":17,"dewp":9,"wdir":60,"wspd":14,"visib":"6+","altim":1018,"clouds":[],"obsTime":1784196000},"SBEG":{"icaoId":"SBEG","flightCategory":"VFR","rawOb":"METAR SBEG 161000Z 00000KT CAVOK 24/24 Q1013","temp":24,"dewp":24,"wdir":0,"wspd":0,"visib":"6+","altim":1013,"clouds":[],"obsTime":1784196000},"SBIL":{"icaoId":"SBIL","flightCategory":"VFR","rawOb":"METAR SBIL 161000Z 23008KT 9999 FEW020 SCT050 20/17 Q1023","temp":20,"dewp":17,"wdir":230,"wspd":8,"visib":"6+","altim":1023,"clouds":[{"cover":"FEW","base":2000},{"cover":"SCT","base":5000}],"obsTime":1784196000},"SBJU":{"icaoId":"SBJU","flightCategory":"VFR","rawOb":"METAR SBJU 161000Z 15013KT CAVOK 22/15 Q1021","temp":22,"dewp":15,"wdir":150,"wspd":13,"visib":"6+","altim":1021,"clouds":[],"obsTime":1784196000},"SBME":{"icaoId":"SBME","flightCategory":"VFR","rawOb":"METAR SBME 161000Z 01006KT 9999 FEW030 15/12 Q1025","temp":15,"dewp":12,"wdir":10,"wspd":6,"visib":"6+","altim":1025,"clouds":[{"cover":"FEW","base":3000}],"obsTime":1784196000},"SBMK":{"icaoId":"SBMK","flightCategory":"VFR","rawOb":"METAR SBMK 161000Z 00000KT CAVOK 12/09 Q1026","temp":12,"dewp":9,"wdir":0,"wspd":0,"visib":"6+","altim":1026,"clouds":[],"obsTime":1784196000},"SBBV":{"icaoId":"SBBV","flightCategory":"VFR","rawOb":"METAR SBBV 161000Z 09007KT CAVOK 25/23 Q1014","temp":25,"dewp":23,"wdir":90,"wspd":7,"visib":"6+","altim":1014,"clouds":[],"obsTime":1784196000},"SBUR":{"icaoId":"SBUR","flightCategory":"VFR","rawOb":"METAR SBUR 161000Z 03010KT CAVOK 16/09 Q1023","temp":16,"dewp":9,"wdir":30,"wspd":10,"visib":"6+","altim":1023,"clouds":[],"obsTime":1784196000},"SBAT":{"icaoId":"SBAT","flightCategory":"VFR","rawOb":"METAR SBAT 161100Z 00000KT 9999 VCSH SCT045 FEW048TCU SCT090 24/23 Q1016","temp":24,"dewp":23,"wdir":0,"wspd":0,"visib":"6+","altim":1016,"clouds":[{"cover":"SCT","base":4500},{"cover":"FEW","base":4800},{"cover":"SCT","base":9000}],"obsTime":1784199600},"SBHT":{"icaoId":"SBHT","flightCategory":"VFR","rawOb":"METAR SBHT 161000Z 00000KT CAVOK 24/24 Q1014","temp":24,"dewp":24,"wdir":0,"wspd":0,"visib":"6+","altim":1014,"clouds":[],"obsTime":1784196000},"SBPJ":{"icaoId":"SBPJ","flightCategory":"VFR","rawOb":"METAR SBPJ 161000Z 16003KT 9999 FEW020 SCT070 24/22 Q1018","temp":24,"dewp":22,"wdir":160,"wspd":3,"visib":"6+","altim":1018,"clouds":[{"cover":"FEW","base":2000},{"cover":"SCT","base":7000}],"obsTime":1784196000},"SBPA":{"icaoId":"SBPA","flightCategory":"VFR","rawOb":"METAR SBPA 161000Z 08005KT 030V100 CAVOK 09/09 Q1016","temp":9,"dewp":9,"wdir":80,"wspd":5,"visib":"6+","altim":1016,"clouds":[],"obsTime":1784196000},"SBKP":{"icaoId":"SBKP","flightCategory":"VFR","rawOb":"METAR SBKP 161000Z 12005KT CAVOK 11/08 Q1024","temp":11,"dewp":8,"wdir":120,"wspd":5,"visib":"6+","altim":1024,"clouds":[],"obsTime":1784196000},"SBCP":{"icaoId":"SBCP","flightCategory":"VFR","rawOb":"METAR SBCP 161000Z 36006KT 9999 BKN045 19/14 Q1026","temp":19,"dewp":14,"wdir":360,"wspd":6,"visib":"6+","altim":1026,"clouds":[{"cover":"BKN","base":4500}],"obsTime":1784196000},"SBCR":{"icaoId":"SBCR","flightCategory":"VFR","rawOb":"METAR SBCR 161100Z 08009KT CAVOK 25/20 Q1013","temp":25,"dewp":20,"wdir":80,"wspd":9,"visib":"6+","altim":1013,"clouds":[],"obsTime":1784199600},"SBCT":{"icaoId":"SBCT","flightCategory":"LIFR","rawOb":"METAR SBCT 161000Z 35003KT 0350 R15/0350 R33/0350 FG VV001 09/09 Q1024","temp":9,"dewp":9,"wdir":350,"wspd":3,"visib":0.22,"altim":1024,"clouds":[{"cover":"OVX","base":100}],"obsTime":1784196000},"SBMO":{"icaoId":"SBMO","flightCategory":"VFR","rawOb":"METAR SBMO 161000Z 14004KT 9999 VCSH SCT023 BKN040 23/20 Q1020","temp":23,"dewp":20,"wdir":140,"wspd":4,"visib":"6+","altim":1020,"clouds":[{"cover":"SCT","base":2300},{"cover":"BKN","base":4000}],"obsTime":1784196000},"SBPV":{"icaoId":"SBPV","flightCategory":"VFR","rawOb":"METAR SBPV 161000Z 00000KT 9999 SCT030 BKN080 24/23 Q1012","temp":24,"dewp":23,"wdir":0,"wspd":0,"visib":"6+","altim":1012,"clouds":[{"cover":"SCT","base":3000},{"cover":"BKN","base":8000}],"obsTime":1784196000},"SBSV":{"icaoId":"SBSV","flightCategory":"MVFR","rawOb":"METAR SBSV 161000Z 09011KT 9999 VCSH FEW022TCU BKN030 OVC060 23/18 Q1021","temp":23,"dewp":18,"wdir":90,"wspd":11,"visib":"6+","altim":1021,"clouds":[{"cover":"FEW","base":2200},{"cover":"BKN","base":3000},{"cover":"OVC","base":6000}],"obsTime":1784196000},"SBMQ":{"icaoId":"SBMQ","flightCategory":"VFR","rawOb":"METAR SBMQ 161000Z 07011KT 9999 SCT020 28/24 Q1014","temp":28,"dewp":24,"wdir":70,"wspd":11,"visib":"6+","altim":1014,"clouds":[{"cover":"SCT","base":2000}],"obsTime":1784196000},"SBRF":{"icaoId":"SBRF","flightCategory":"MVFR","rawOb":"METAR SBRF 161000Z 16011KT 110V190 7000 -SHRA BKN015 BKN060 25/23 Q1018","temp":25,"dewp":23,"wdir":160,"wspd":11,"visib":4.35,"altim":1018,"clouds":[{"cover":"BKN","base":1500},{"cover":"BKN","base":6000}],"obsTime":1784196000},"SBSN":{"icaoId":"SBSN","flightCategory":"VFR","rawOb":"METAR SBSN 161000Z 07010KT 9999 SCT015 BKN035 28/25 Q1013","temp":28,"dewp":25,"wdir":70,"wspd":10,"visib":"6+","altim":1013,"clouds":[{"cover":"SCT","base":1500},{"cover":"BKN","base":3500}],"obsTime":1784196000},"SBSL":{"icaoId":"SBSL","flightCategory":"VFR","rawOb":"METAR SBSL 161000Z 14005KT 9999 SCT015 SCT070 26/25 Q1014","temp":26,"dewp":25,"wdir":140,"wspd":5,"visib":"6+","altim":1014,"clouds":[{"cover":"SCT","base":1500},{"cover":"SCT","base":7000}],"obsTime":1784196000},"SBFL":{"icaoId":"SBFL","flightCategory":"VFR","rawOb":"METAR SBFL 161000Z 34009KT 9999 FEW014 16/15 Q1020","temp":16,"dewp":15,"wdir":340,"wspd":9,"visib":"6+","altim":1020,"clouds":[{"cover":"FEW","base":1400}],"obsTime":1784196000},"SBUL":{"icaoId":"SBUL","flightCategory":"VFR","rawOb":"METAR SBUL 161000Z 10013KT CAVOK 15/11 Q1024","temp":15,"dewp":11,"wdir":100,"wspd":13,"visib":"6+","altim":1024,"clouds":[],"obsTime":1784196000},"SBTD":{"icaoId":"SBTD","flightCategory":"VFR","rawOb":"METAR SBTD 161100Z /////KT CAVOK 15/08 Q1019","temp":15,"dewp":8,"wdir":null,"wspd":null,"visib":"6+","altim":1019,"clouds":[],"obsTime":1784199600},"SBCO":{"icaoId":"SBCO","flightCategory":"VFR","rawOb":"METAR SBCO 161000Z 08002KT CAVOK 06/05 Q1017","temp":6,"dewp":5,"wdir":80,"wspd":2,"visib":"6+","altim":1017,"clouds":[],"obsTime":1784196000},"SBAR":{"icaoId":"SBAR","flightCategory":"MVFR","rawOb":"METAR SBAR 161000Z 11010KT 8000 -RA SCT020 BKN030 23/20 Q1020","temp":23,"dewp":20,"wdir":110,"wspd":10,"visib":4.97,"altim":1020,"clouds":[{"cover":"SCT","base":2000},{"cover":"BKN","base":3000}],"obsTime":1784196000},"SBCA":{"icaoId":"SBCA","flightCategory":"VFR","rawOb":"METAR SBCA 161000Z 06014G24KT CAVOK 15/09 Q1019","temp":15,"dewp":9,"wdir":60,"wspd":14,"visib":"6+","altim":1019,"clouds":[],"obsTime":1784196000},"SBCJ":{"icaoId":"SBCJ","flightCategory":"VFR","rawOb":"SPECI SBCJ 161015Z 08003KT 9999 SCT017 BKN040 22/19 Q1018","temp":22,"dewp":19,"wdir":80,"wspd":3,"visib":"6+","altim":1018,"clouds":[{"cover":"SCT","base":1700},{"cover":"BKN","base":4000}],"obsTime":1784196900},"SBSJ":{"icaoId":"SBSJ","flightCategory":"MVFR","rawOb":"METAR SBSJ 161000Z VRB01KT 6000 MIFG NSC 08/08 Q1025","temp":8,"dewp":8,"wdir":"VRB","wspd":1,"visib":3.73,"altim":1025,"clouds":[],"obsTime":1784196000},"SBPB":{"icaoId":"SBPB","flightCategory":"VFR","rawOb":"SPECI SBPB 161015Z 10012KT 9999 FEW020 27/23 Q1015","temp":27,"dewp":23,"wdir":100,"wspd":12,"visib":"6+","altim":1015,"clouds":[{"cover":"FEW","base":2000}],"obsTime":1784196900},"SBPS":{"icaoId":"SBPS","flightCategory":"VFR","rawOb":"METAR SBPS 161000Z 24005KT 9999 FEW015 BKN040 17/17 Q1024","temp":17,"dewp":17,"wdir":240,"wspd":5,"visib":"6+","altim":1024,"clouds":[{"cover":"FEW","base":1500},{"cover":"BKN","base":4000}],"obsTime":1784196000},"SBOI":{"icaoId":"SBOI","flightCategory":"LIFR","rawOb":"METAR SBOI 161000Z AUTO 00000KT 0800 FG VV001 23/23 Q1015","temp":23,"dewp":23,"wdir":0,"wspd":0,"visib":0.5,"altim":1015,"clouds":[{"cover":"OVX","base":100}],"obsTime":1784196000},"SBUY":{"icaoId":"SBUY","flightCategory":"MVFR","rawOb":"METAR SBUY 161100Z 00000KT 5000 BR NSC 23/23 Q1012","temp":23,"dewp":23,"wdir":0,"wspd":0,"visib":3.11,"altim":1012,"clouds":[],"obsTime":1784199600},"SBTU":{"icaoId":"SBTU","flightCategory":"LIFR","rawOb":"METAR SBTU 161000Z AUTO 22005KT 9999 // BKN001/// OVC004/// 23/23 Q1016","temp":23,"dewp":23,"wdir":220,"wspd":5,"visib":"6+","altim":1016,"clouds":[{"cover":"BKN","base":100},{"cover":"OVC","base":400}],"obsTime":1784196000},"SBES":{"icaoId":"SBES","flightCategory":"VFR","rawOb":"METAR SBES 161000Z 05006KT CAVOK 16/// Q1025","temp":null,"dewp":null,"wdir":50,"wspd":6,"visib":"6+","altim":1025,"clouds":[],"obsTime":1784196000},"SBVH":{"icaoId":"SBVH","flightCategory":"VFR","rawOb":"METAR SBVH 161100Z 29003KT CAVOK 20/20 Q1017","temp":20,"dewp":20,"wdir":290,"wspd":3,"visib":"6+","altim":1017,"clouds":[],"obsTime":1784199600},"SBCC":{"icaoId":"SBCC","flightCategory":"VFR","rawOb":"METAR SBCC 161100Z 03006KT CAVOK 23/21 Q1018","temp":23,"dewp":21,"wdir":30,"wspd":6,"visib":"6+","altim":1018,"clouds":[],"obsTime":1784199600},"SBSR":{"icaoId":"SBSR","flightCategory":"VFR","rawOb":"METAR SBSR 161000Z 07007KT 9000 NSC 17/10 Q1021","temp":17,"dewp":10,"wdir":70,"wspd":7,"visib":5.59,"altim":1021,"clouds":[],"obsTime":1784196000},"SBSC":{"icaoId":"SBSC","flightCategory":"VFR","rawOb":"METAR SBSC 161000Z 34008KT CAVOK 15/13 Q1024","temp":15,"dewp":13,"wdir":340,"wspd":8,"visib":"6+","altim":1024,"clouds":[],"obsTime":1784196000},"SBIP":{"icaoId":"SBIP","flightCategory":"MVFR","rawOb":"METAR SBIP 161000Z AUTO 00000KT 7000 FEW003 10/10 Q1027","temp":10,"dewp":10,"wdir":0,"wspd":0,"visib":4.35,"altim":1027,"clouds":[{"cover":"FEW","base":300}],"obsTime":1784196000},"SBDN":{"icaoId":"SBDN","flightCategory":"VFR","rawOb":"METAR SBDN 161000Z 06010KT CAVOK 16/09 Q1020","temp":16,"dewp":9,"wdir":60,"wspd":10,"visib":"6+","altim":1020,"clouds":[],"obsTime":1784196000},"SBBU":{"icaoId":"SBBU","flightCategory":"VFR","rawOb":"METAR SBBU 161000Z 09009KT 9000 NSC 14/10 Q1022","temp":14,"dewp":10,"wdir":90,"wspd":9,"visib":5.59,"altim":1022,"clouds":[],"obsTime":1784196000},"SBBH":{"icaoId":"SBBH","flightCategory":"VFR","rawOb":"METAR SBBH 161000Z 09005KT CAVOK 12/09 Q1027","temp":12,"dewp":9,"wdir":90,"wspd":5,"visib":"6+","altim":1027,"clouds":[],"obsTime":1784196000},"SBPL":{"icaoId":"SBPL","flightCategory":"MVFR","rawOb":"METAR SBPL 161000Z 12007KT 9999 BKN020 21/16 Q1022","temp":21,"dewp":16,"wdir":120,"wspd":7,"visib":"6+","altim":1022,"clouds":[{"cover":"BKN","base":2000}],"obsTime":1784196000},"SBAX":{"icaoId":"SBAX","flightCategory":"VFR","rawOb":"METAR SBAX 161000Z 12011KT CAVOK 12/09 Q1025","temp":12,"dewp":9,"wdir":120,"wspd":11,"visib":"6+","altim":1025,"clouds":[],"obsTime":1784196000},"SBTT":{"icaoId":"SBTT","flightCategory":"IFR","rawOb":"METAR SBTT 161100Z VRB02KT 3500 BR SCT006 BKN045 24/23 Q1014","temp":24,"dewp":23,"wdir":"VRB","wspd":2,"visib":2.17,"altim":1014,"clouds":[{"cover":"SCT","base":600},{"cover":"BKN","base":4500}],"obsTime":1784199600},"SBKG":{"icaoId":"SBKG","flightCategory":"IFR","rawOb":"METAR SBKG 161000Z 15006KT 8000 FEW006 BKN007 21/20 Q1020","temp":21,"dewp":20,"wdir":150,"wspd":6,"visib":4.97,"altim":1020,"clouds":[{"cover":"FEW","base":600},{"cover":"BKN","base":700}],"obsTime":1784196000},"SBSM":{"icaoId":"SBSM","flightCategory":"VFR","rawOb":"METAR SBSM 161000Z 09007KT 060V120 CAVOK 19/09 Q1014","temp":19,"dewp":9,"wdir":90,"wspd":7,"visib":"6+","altim":1014,"clouds":[],"obsTime":1784196000},"SBNM":{"icaoId":"SBNM","flightCategory":"VFR","rawOb":"METAR SBNM 161000Z AUTO 05008KT 020V100 CAVOK 17/09 Q1015","temp":17,"dewp":9,"wdir":50,"wspd":8,"visib":"6+","altim":1015,"clouds":[],"obsTime":1784196000},"SBAF":{"icaoId":"SBAF","flightCategory":"VFR","rawOb":"METAR SBAF 161000Z 27002KT 9999 FEW005 10/10 Q1024","temp":10,"dewp":10,"wdir":270,"wspd":2,"visib":"6+","altim":1024,"clouds":[{"cover":"FEW","base":500}],"obsTime":1784196000},"SBGW":{"icaoId":"SBGW","flightCategory":"VFR","rawOb":"METAR SBGW 161000Z 14003KT 110V170 CAVOK 07/06 Q1025","temp":7,"dewp":6,"wdir":140,"wspd":3,"visib":"6+","altim":1025,"clouds":[],"obsTime":1784196000},"SBJR":{"icaoId":"SBJR","flightCategory":"VFR","rawOb":"METAR SBJR 161000Z 04003KT CAVOK 14/13 Q1023","temp":14,"dewp":13,"wdir":40,"wspd":3,"visib":"6+","altim":1023,"clouds":[],"obsTime":1784196000},"SBLS":{"icaoId":"SBLS","flightCategory":"VFR","rawOb":"METAR SBLS 161000Z 15006KT 9999 FEW025 11/09 Q1027","temp":11,"dewp":9,"wdir":150,"wspd":6,"visib":"6+","altim":1027,"clouds":[{"cover":"FEW","base":2500}],"obsTime":1784196000},"SBJP":{"icaoId":"SBJP","flightCategory":"MVFR","rawOb":"METAR SBJP 161000Z 14012KT 9999 BKN018 BKN070 24/22 Q1018","temp":24,"dewp":22,"wdir":140,"wspd":12,"visib":"6+","altim":1018,"clouds":[{"cover":"BKN","base":1800},{"cover":"BKN","base":7000}],"obsTime":1784196000},"SBMT":{"icaoId":"SBMT","flightCategory":"VFR","rawOb":"METAR SBMT 161000Z VRB02KT CAVOK 10/08 Q1025","temp":10,"dewp":8,"wdir":"VRB","wspd":2,"visib":"6+","altim":1025,"clouds":[],"obsTime":1784196000},"SBST":{"icaoId":"SBST","flightCategory":"VFR","rawOb":"METAR SBST 161100Z 04001KT CAVOK 13/13 Q1022","temp":13,"dewp":13,"wdir":40,"wspd":1,"visib":"6+","altim":1022,"clouds":[],"obsTime":1784199600},"SBTA":{"icaoId":"SBTA","flightCategory":"VFR","rawOb":"METAR SBTA 161000Z 00000KT 9999 0500N BCFG NSC 06/05 Q1025","temp":6,"dewp":5,"wdir":0,"wspd":0,"visib":"6+","altim":1025,"clouds":[],"obsTime":1784196000},"SBIH":{"icaoId":"SBIH","flightCategory":"VFR","rawOb":"METAR SBIH 161100Z 33002KT 9000 FEW015 25/25 Q1014","temp":25,"dewp":25,"wdir":330,"wspd":2,"visib":5.59,"altim":1014,"clouds":[{"cover":"FEW","base":1500}],"obsTime":1784199600},"SBAN":{"icaoId":"SBAN","flightCategory":"VFR","rawOb":"METAR SBAN 161000Z 12007KT CAVOK 15/12 Q1024","temp":15,"dewp":12,"wdir":120,"wspd":7,"visib":"6+","altim":1024,"clouds":[],"obsTime":1784196000},"SBJV":{"icaoId":"SBJV","flightCategory":"LIFR","rawOb":"METAR SBJV 161000Z 30002KT 0100 R33/0325 FG VV001 12/12 Q1021","temp":12,"dewp":12,"wdir":300,"wspd":2,"visib":0.06,"altim":1021,"clouds":[{"cover":"OVX","base":100}],"obsTime":1784196000},"SBPF":{"icaoId":"SBPF","flightCategory":"VFR","rawOb":"METAR SBPF 161000Z 07009KT CAVOK 12/07 Q1019","temp":12,"dewp":7,"wdir":70,"wspd":9,"visib":"6+","altim":1019,"clouds":[],"obsTime":1784196000},"SBLE":{"icaoId":"SBLE","flightCategory":"VFR","rawOb":"METAR SBLE 161000Z AUTO 13004KT 090V160 CAVOK ///// Q1025","temp":null,"dewp":null,"wdir":130,"wspd":4,"visib":"6+","altim":1025,"clouds":[],"obsTime":1784196000}}}