{"updated":1776356049,"count":86,"data":{"SBCG":{"icaoId":"SBCG","flightCategory":"VFR","rawOb":"METAR SBCG 161500Z 32006KT 260V360 9999 FEW026 BKN045 29/22 Q1013","temp":29,"dewp":22,"wdir":320,"wspd":6,"visib":"6+","altim":1013,"clouds":[{"cover":"FEW","base":2600},{"cover":"BKN","base":4500}],"obsTime":1776351600},"SBLO":{"icaoId":"SBLO","flightCategory":"VFR","rawOb":"METAR SBLO 161500Z 09008KT CAVOK 25/17 Q1015","temp":25,"dewp":17,"wdir":90,"wspd":8,"visib":"6+","altim":1015,"clouds":[],"obsTime":1776351600},"SBBE":{"icaoId":"SBBE","flightCategory":"VFR","rawOb":"METAR SBBE 161500Z 11007KT 9999 SCT026 31/24 Q1009","temp":31,"dewp":24,"wdir":110,"wspd":7,"visib":"6+","altim":1009,"clouds":[{"cover":"SCT","base":2600}],"obsTime":1776351600},"SBMA":{"icaoId":"SBMA","flightCategory":"VFR","rawOb":"METAR SBMA 161500Z 07002KT 9999 SCT020 30/25 Q1010","temp":30,"dewp":25,"wdir":70,"wspd":2,"visib":"6+","altim":1010,"clouds":[{"cover":"SCT","base":2000}],"obsTime":1776351600},"SBFI":{"icaoId":"SBFI","flightCategory":"MVFR","rawOb":"METAR SBFI 161500Z 34004KT 9999 BKN018 BKN070 25/22 Q1011","temp":25,"dewp":22,"wdir":340,"wspd":4,"visib":"6+","altim":1011,"clouds":[{"cover":"BKN","base":1800},{"cover":"BKN","base":7000}],"obsTime":1776351600},"SBME":{"icaoId":"SBME","flightCategory":"VFR","rawOb":"METAR SBME 161500Z 17008KT 9999 FEW030 29/21 Q1013","temp":29,"dewp":21,"wdir":170,"wspd":8,"visib":"6+","altim":1013,"clouds":[{"cover":"FEW","base":3000}],"obsTime":1776351600},"SBCB":{"icaoId":"SBCB","flightCategory":"VFR","rawOb":"METAR SBCB 161500Z 18008KT 9999 SCT015 SCT060 26/21 Q1014","temp":26,"dewp":21,"wdir":180,"wspd":8,"visib":"6+","altim":1014,"clouds":[{"cover":"SCT","base":1500},{"cover":"SCT","base":6000}],"obsTime":1776351600},"SBMG":{"icaoId":"SBMG","flightCategory":"VFR","rawOb":"METAR SBMG 161500Z 02009KT 340V060 9999 BKN045 BKN070 27/18 Q1014","temp":27,"dewp":18,"wdir":20,"wspd":9,"visib":"6+","altim":1014,"clouds":[{"cover":"BKN","base":4500},{"cover":"BKN","base":7000}],"obsTime":1776351600},"SBFL":{"icaoId":"SBFL","flightCategory":"VFR","rawOb":"METAR SBFL 161500Z 34010KT 9999 FEW045 BKN100 28/21 Q1013","temp":28,"dewp":21,"wdir":340,"wspd":10,"visib":"6+","altim":1013,"clouds":[{"cover":"FEW","base":4500},{"cover":"BKN","base":10000}],"obsTime":1776351600},"SBMK":{"icaoId":"SBMK","flightCategory":"VFR","rawOb":"METAR SBMK 161500Z 07005KT 9999 BKN035 27/17 Q1015","temp":27,"dewp":17,"wdir":70,"wspd":5,"visib":"6+","altim":1015,"clouds":[{"cover":"BKN","base":3500}],"obsTime":1776351600},"SBMO":{"icaoId":"SBMO","flightCategory":"VFR","rawOb":"METAR SBMO 161500Z 16009KT 9999 SCT030 29/23 Q1011","temp":29,"dewp":23,"wdir":160,"wspd":9,"visib":"6+","altim":1011,"clouds":[{"cover":"SCT","base":3000}],"obsTime":1776351600},"SBFZ":{"icaoId":"SBFZ","flightCategory":"MVFR","rawOb":"METAR SBFZ 161500Z 11015KT 9999 BKN025 BKN090 30/23 Q1010","temp":30,"dewp":23,"wdir":110,"wspd":15,"visib":"6+","altim":1010,"clouds":[{"cover":"BKN","base":2500},{"cover":"BKN","base":9000}],"obsTime":1776351600},"SBCP":{"icaoId":"SBCP","flightCategory":"MVFR","rawOb":"METAR SBCP 161500Z 22008KT 9999 BKN015 BKN100 27/22 Q1013","temp":27,"dewp":22,"wdir":220,"wspd":8,"visib":"6+","altim":1013,"clouds":[{"cover":"BKN","base":1500},{"cover":"BKN","base":10000}],"obsTime":1776351600},"SBMQ":{"icaoId":"SBMQ","flightCategory":"IFR","rawOb":"METAR SBMQ 161500Z 03008KT 3000 RA FEW005 BKN020 FEW040TCU OVC066 26/25 Q1011","temp":26,"dewp":25,"wdir":30,"wspd":8,"visib":1.86,"altim":1011,"clouds":[{"cover":"FEW","base":500},{"cover":"BKN","base":2000},{"cover":"FEW","base":4000},{"cover":"OVC","base":6600}],"obsTime":1776351600},"SBGL":{"icaoId":"SBGL","flightCategory":"VFR","rawOb":"METAR SBGL 161500Z 03008KT 9999 FEW030 29/20 Q1013","temp":29,"dewp":20,"wdir":30,"wspd":8,"visib":"6+","altim":1013,"clouds":[{"cover":"FEW","base":3000}],"obsTime":1776351600},"SBNT":{"icaoId":"SBNT","flightCategory":"VFR","rawOb":"METAR SBNT 161500Z 16009KT 120V190 9999 SCT020 SCT070 30/23 Q1010","temp":30,"dewp":23,"wdir":160,"wspd":9,"visib":"6+","altim":1010,"clouds":[{"cover":"SCT","base":2000},{"cover":"SCT","base":7000}],"obsTime":1776351600},"SBCR":{"icaoId":"SBCR","flightCategory":"MVFR","rawOb":"METAR SBCR 161500Z 27004KT 210V350 9999 BKN016 BKN023 28/24 Q1011","temp":28,"dewp":24,"wdir":270,"wspd":4,"visib":"6+","altim":1011,"clouds":[{"cover":"BKN","base":1600},{"cover":"BKN","base":2300}],"obsTime":1776351600},"SBPA":{"icaoId":"SBPA","flightCategory":"VFR","rawOb":"METAR SBPA 161500Z 10008KT 9999 FEW035 BKN090 26/20 Q1009","temp":26,"dewp":20,"wdir":100,"wspd":8,"visib":"6+","altim":1009,"clouds":[{"cover":"FEW","base":3500},{"cover":"BKN","base":9000}],"obsTime":1776351600},"SBPJ":{"icaoId":"SBPJ","flightCategory":"VFR","rawOb":"METAR SBPJ 161500Z 24006KT 200V280 9999 4500N -RA FEW015 SCT030 FEW040TCU 29/24 Q1011","temp":29,"dewp":24,"wdir":240,"wspd":6,"visib":"6+","altim":1011,"clouds":[{"cover":"FEW","base":1500},{"cover":"SCT","base":3000},{"cover":"FEW","base":4000}],"obsTime":1776351600},"SBGO":{"icaoId":"SBGO","flightCategory":"VFR","rawOb":"METAR SBGO 161500Z 04005KT 330V090 9999 BKN040 29/19 Q1015","temp":29,"dewp":19,"wdir":40,"wspd":5,"visib":"6+","altim":1015,"clouds":[{"cover":"BKN","base":4000}],"obsTime":1776351600},"SBPV":{"icaoId":"SBPV","flightCategory":"MVFR","rawOb":"METAR SBPV 161500Z 01005KT 9999 BKN025 30/25 Q1010","temp":30,"dewp":25,"wdir":10,"wspd":5,"visib":"6+","altim":1010,"clouds":[{"cover":"BKN","base":2500}],"obsTime":1776351600},"SBBR":{"icaoId":"SBBR","flightCategory":"VFR","rawOb":"METAR SBBR 161500Z 11008KT 9999 SCT030 BKN070 24/17 Q1017","temp":24,"dewp":17,"wdir":110,"wspd":8,"visib":"6+","altim":1017,"clouds":[{"cover":"SCT","base":3000},{"cover":"BKN","base":7000}],"obsTime":1776351600},"SBRB":{"icaoId":"SBRB","flightCategory":"VFR","rawOb":"METAR SBRB 161500Z 33004KT 300V030 9999 FEW006 SCT025 BKN090 29/24 Q1012","temp":29,"dewp":24,"wdir":330,"wspd":4,"visib":"6+","altim":1012,"clouds":[{"cover":"FEW","base":600},{"cover":"SCT","base":2500},{"cover":"BKN","base":9000}],"obsTime":1776351600},"SBCT":{"icaoId":"SBCT","flightCategory":"VFR","rawOb":"METAR SBCT 161500Z 02007KT 9999 SCT030 23/15 Q1018","temp":23,"dewp":15,"wdir":20,"wspd":7,"visib":"6+","altim":1018,"clouds":[{"cover":"SCT","base":3000}],"obsTime":1776351600},"SBRF":{"icaoId":"SBRF","flightCategory":"VFR","rawOb":"METAR SBRF 161500Z 15012KT 9999 SCT020 30/24 Q1010","temp":30,"dewp":24,"wdir":150,"wspd":12,"visib":"6+","altim":1010,"clouds":[{"cover":"SCT","base":2000}],"obsTime":1776351600},"SBGR":{"icaoId":"SBGR","flightCategory":"VFR","rawOb":"METAR SBGR 161500Z 08005KT CAVOK 26/15 Q1017","temp":26,"dewp":15,"wdir":80,"wspd":5,"visib":"6+","altim":1017,"clouds":[],"obsTime":1776351600},"SBSG":{"icaoId":"SBSG","flightCategory":"VFR","rawOb":"METAR SBSG 161500Z 16008KT 100V190 9999 SCT025 FEW030TCU 30/23 Q1010","temp":30,"dewp":23,"wdir":160,"wspd":8,"visib":"6+","altim":1010,"clouds":[{"cover":"SCT","base":2500},{"cover":"FEW","base":3000}],"obsTime":1776351600},"SBHT":{"icaoId":"SBHT","flightCategory":"MVFR","rawOb":"METAR SBHT 161500Z 05006KT 9999 BKN020 29/25 Q1010","temp":29,"dewp":25,"wdir":50,"wspd":6,"visib":"6+","altim":1010,"clouds":[{"cover":"BKN","base":2000}],"obsTime":1776351600},"SBSL":{"icaoId":"SBSL","flightCategory":"VFR","rawOb":"METAR SBSL 161500Z 08011KT 040V100 9999 SCT025 BKN035 29/24 Q1010","temp":29,"dewp":24,"wdir":80,"wspd":11,"visib":"6+","altim":1010,"clouds":[{"cover":"SCT","base":2500},{"cover":"BKN","base":3500}],"obsTime":1776351600},"SBCF":{"icaoId":"SBCF","flightCategory":"VFR","rawOb":"METAR SBCF 161500Z 15002KT 9999 BKN035 24/14 Q1017","temp":24,"dewp":14,"wdir":150,"wspd":2,"visib":"6+","altim":1017,"clouds":[{"cover":"BKN","base":3500}],"obsTime":1776351600},"SBCZ":{"icaoId":"SBCZ","flightCategory":"VFR","rawOb":"METAR SBCZ 161500Z 03002KT 9999 SCT013 OVC100 28/24 Q1011","temp":28,"dewp":24,"wdir":30,"wspd":2,"visib":"6+","altim":1011,"clouds":[{"cover":"SCT","base":1300},{"cover":"OVC","base":10000}],"obsTime":1776351600},"SBSN":{"icaoId":"SBSN","flightCategory":"VFR","rawOb":"METAR SBSN 161500Z 08007KT 9999 VCSH FEW013 SCT018 29/26 Q1010","temp":29,"dewp":26,"wdir":80,"wspd":7,"visib":"6+","altim":1010,"clouds":[{"cover":"FEW","base":1300},{"cover":"SCT","base":1800}],"obsTime":1776351600},"SBSP":{"icaoId":"SBSP","flightCategory":"VFR","rawOb":"METAR SBSP 161500Z 06004KT 350V110 CAVOK 26/14 Q1018","temp":26,"dewp":14,"wdir":60,"wspd":4,"visib":"6+","altim":1018,"clouds":[],"obsTime":1776351600},"SBIL":{"icaoId":"SBIL","flightCategory":"VFR","rawOb":"METAR SBIL 161500Z 14007KT 120V180 9999 SCT024 30/24 Q1012","temp":30,"dewp":24,"wdir":140,"wspd":7,"visib":"6+","altim":1012,"clouds":[{"cover":"SCT","base":2400}],"obsTime":1776351600},"SBSV":{"icaoId":"SBSV","flightCategory":"VFR","rawOb":"METAR SBSV 161500Z 17007KT 110V230 9999 SCT023 30/23 Q1012","temp":30,"dewp":23,"wdir":170,"wspd":7,"visib":"6+","altim":1012,"clouds":[{"cover":"SCT","base":2300}],"obsTime":1776351600},"SBBV":{"icaoId":"SBBV","flightCategory":"MVFR","rawOb":"METAR SBBV 161500Z 05010KT 9999 BKN030 SCT100 31/22 Q1011","temp":31,"dewp":22,"wdir":50,"wspd":10,"visib":"6+","altim":1011,"clouds":[{"cover":"BKN","base":3000},{"cover":"SCT","base":10000}],"obsTime":1776351600},"SBTE":{"icaoId":"SBTE","flightCategory":"MVFR","rawOb":"METAR SBTE 161500Z 10003KT 9999 BKN025 30/23 Q1009","temp":30,"dewp":23,"wdir":100,"wspd":3,"visib":"6+","altim":1009,"clouds":[{"cover":"BKN","base":2500}],"obsTime":1776351600},"SBJU":{"icaoId":"SBJU","flightCategory":"VFR","rawOb":"METAR SBJU 161500Z 15010KT 9999 SCT020 29/21 Q1013","temp":29,"dewp":21,"wdir":150,"wspd":10,"visib":"6+","altim":1013,"clouds":[{"cover":"SCT","base":2000}],"obsTime":1776351600},"SBEG":{"icaoId":"SBEG","flightCategory":"VFR","rawOb":"METAR SBEG 161500Z 06004KT 9999 SCT020 SCT100 28/24 Q1011","temp":28,"dewp":24,"wdir":60,"wspd":4,"visib":"6+","altim":1011,"clouds":[{"cover":"SCT","base":2000},{"cover":"SCT","base":10000}],"obsTime":1776351600},"SBUL":{"icaoId":"SBUL","flightCategory":"VFR","rawOb":"METAR SBUL 161500Z 07008KT 360V120 9999 SCT025 26/16 Q1017","temp":26,"dewp":16,"wdir":70,"wspd":8,"visib":"6+","altim":1017,"clouds":[{"cover":"SCT","base":2500}],"obsTime":1776351600},"SBKP":{"icaoId":"SBKP","flightCategory":"VFR","rawOb":"METAR SBKP 161500Z VRB06KT 9999 FEW030 27/14 Q1016","temp":27,"dewp":14,"wdir":"VRB","wspd":6,"visib":"6+","altim":1016,"clouds":[{"cover":"FEW","base":3000}],"obsTime":1776351600},"SBUR":{"icaoId":"SBUR","flightCategory":"VFR","rawOb":"METAR SBUR 161500Z 02007KT CAVOK 28/15 Q1016","temp":28,"dewp":15,"wdir":20,"wspd":7,"visib":"6+","altim":1016,"clouds":[],"obsTime":1776351600},"SBVT":{"icaoId":"SBVT","flightCategory":"VFR","rawOb":"METAR SBVT 161500Z 16013KT 9999 FEW040 SCT080 28/22 Q1012","temp":28,"dewp":22,"wdir":160,"wspd":13,"visib":"6+","altim":1012,"clouds":[{"cover":"FEW","base":4000},{"cover":"SCT","base":8000}],"obsTime":1776351600},"SBAT":{"icaoId":"SBAT","flightCategory":"MVFR","rawOb":"METAR SBAT 161500Z 10004KT 9999 BKN025 30/25 Q1011","temp":30,"dewp":25,"wdir":100,"wspd":4,"visib":"6+","altim":1011,"clouds":[{"cover":"BKN","base":2500}],"obsTime":1776351600},"SBVH":{"icaoId":"SBVH","flightCategory":"MVFR","rawOb":"METAR SBVH 161500Z 29003KT 9999 BKN020 BKN100 27/23 Q1013","temp":27,"dewp":23,"wdir":290,"wspd":3,"visib":"6+","altim":1013,"clouds":[{"cover":"BKN","base":2000},{"cover":"BKN","base":10000}],"obsTime":1776351600},"SBAX":{"icaoId":"SBAX","flightCategory":"VFR","rawOb":"METAR SBAX 161500Z 06004KT 9999 SCT025 26/15 Q1018","temp":26,"dewp":15,"wdir":60,"wspd":4,"visib":"6+","altim":1018,"clouds":[{"cover":"SCT","base":2500}],"obsTime":1776351600},"SBAU":{"icaoId":"SBAU","flightCategory":"VFR","rawOb":"METAR SBAU 161600Z 03008KT CAVOK 33/17 Q1012","temp":33,"dewp":17,"wdir":30,"wspd":8,"visib":"6+","altim":1012,"clouds":[],"obsTime":1776355200},"SBCC":{"icaoId":"SBCC","flightCategory":"MVFR","rawOb":"METAR SBCC 161500Z 04005KT 9999 BKN025 FEW035TCU BKN080 23/21 Q1013","temp":23,"dewp":21,"wdir":40,"wspd":5,"visib":"6+","altim":1013,"clouds":[{"cover":"BKN","base":2500},{"cover":"FEW","base":3500},{"cover":"BKN","base":8000}],"obsTime":1776351600},"SBAR":{"icaoId":"SBAR","flightCategory":"VFR","rawOb":"METAR SBAR 161500Z 13010KT 9999 SCT025 30/23 Q1011","temp":30,"dewp":23,"wdir":130,"wspd":10,"visib":"6+","altim":1011,"clouds":[{"cover":"SCT","base":2500}],"obsTime":1776351600},"SBBH":{"icaoId":"SBBH","flightCategory":"VFR","rawOb":"METAR SBBH 161500Z 09005KT 9999 SCT040 25/15 Q1017","temp":25,"dewp":15,"wdir":90,"wspd":5,"visib":"6+","altim":1017,"clouds":[{"cover":"SCT","base":4000}],"obsTime":1776351600},"SBBQ":{"icaoId":"SBBQ","flightCategory":"VFR","rawOb":"METAR SBBQ 161500Z 09004KT 9999 SCT030 23/14 Q1020","temp":23,"dewp":14,"wdir":90,"wspd":4,"visib":"6+","altim":1020,"clouds":[{"cover":"SCT","base":3000}],"obsTime":1776351600},"SBBU":{"icaoId":"SBBU","flightCategory":"VFR","rawOb":"METAR SBBU 161500Z 01005KT CAVOK 32/17 Q1015","temp":32,"dewp":17,"wdir":10,"wspd":5,"visib":"6+","altim":1015,"clouds":[],"obsTime":1776351600},"SBCA":{"icaoId":"SBCA","flightCategory":"MVFR","rawOb":"METAR SBCA 161500Z 02009KT 9999 BKN030 22/19 Q1015","temp":22,"dewp":19,"wdir":20,"wspd":9,"visib":"6+","altim":1015,"clouds":[{"cover":"BKN","base":3000}],"obsTime":1776351600},"SBCJ":{"icaoId":"SBCJ","flightCategory":"VFR","rawOb":"METAR SBCJ 161500Z 09006KT 9999 SCT023 27/22 Q1014","temp":27,"dewp":22,"wdir":90,"wspd":6,"visib":"6+","altim":1014,"clouds":[{"cover":"SCT","base":2300}],"obsTime":1776351600},"SBCO":{"icaoId":"SBCO","flightCategory":"VFR","rawOb":"METAR SBCO 161500Z 12006KT 070V140 9999 FEW040 SCT080 26/19 Q1009","temp":26,"dewp":19,"wdir":120,"wspd":6,"visib":"6+","altim":1009,"clouds":[{"cover":"FEW","base":4000},{"cover":"SCT","base":8000}],"obsTime":1776351600},"SBDN":{"icaoId":"SBDN","flightCategory":"VFR","rawOb":"METAR SBDN 161500Z 06008KT CAVOK 29/19 Q1013","temp":29,"dewp":19,"wdir":60,"wspd":8,"visib":"6+","altim":1013,"clouds":[],"obsTime":1776351600},"SBES":{"icaoId":"SBES","flightCategory":"VFR","rawOb":"METAR SBES 161500Z VRB08KT 9999 VCSH FEW013 SCT020 BKN100 26/// Q1014","temp":null,"dewp":null,"wdir":"VRB","wspd":8,"visib":"6+","altim":1014,"clouds":[{"cover":"FEW","base":1300},{"cover":"SCT","base":2000},{"cover":"BKN","base":10000}],"obsTime":1776351600},"SBGM":{"icaoId":"SBGM","flightCategory":"VFR","rawOb":"METAR SBGM 161500Z 33003KT 220V030 CAVOK 29/22 Q1011","temp":29,"dewp":22,"wdir":330,"wspd":3,"visib":"6+","altim":1011,"clouds":[],"obsTime":1776351600},"SBIP":{"icaoId":"SBIP","flightCategory":"VFR","rawOb":"METAR SBIP 161500Z AUTO VRB03KT 9999 SCT039 29/18 Q1014","temp":29,"dewp":18,"wdir":"VRB","wspd":3,"visib":"6+","altim":1014,"clouds":[{"cover":"SCT","base":3900}],"obsTime":1776351600},"SBKG":{"icaoId":"SBKG","flightCategory":"MVFR","rawOb":"METAR SBKG 161500Z 12010KT 9999 BKN030 29/21 Q1012","temp":29,"dewp":21,"wdir":120,"wspd":10,"visib":"6+","altim":1012,"clouds":[{"cover":"BKN","base":3000}],"obsTime":1776351600},"SBOI":{"icaoId":"SBOI","flightCategory":"VFR","rawOb":"METAR SBOI 161500Z AUTO 12003KT 060V180 9999 -RA FEW010 BKN037 26/26 Q1011 RERA","temp":26,"dewp":26,"wdir":120,"wspd":3,"visib":"6+","altim":1011,"clouds":[{"cover":"FEW","base":1000},{"cover":"BKN","base":3700}],"obsTime":1776351600},"SBPB":{"icaoId":"SBPB","flightCategory":"VFR","rawOb":"METAR SBPB 161500Z 06007KT 9999 SCT020 31/25 Q1009","temp":31,"dewp":25,"wdir":60,"wspd":7,"visib":"6+","altim":1009,"clouds":[{"cover":"SCT","base":2000}],"obsTime":1776351600},"SBPL":{"icaoId":"SBPL","flightCategory":"VFR","rawOb":"METAR SBPL 161500Z 11011KT 9999 SCT030 32/20 Q1012","temp":32,"dewp":20,"wdir":110,"wspd":11,"visib":"6+","altim":1012,"clouds":[{"cover":"SCT","base":3000}],"obsTime":1776351600},"SBPP":{"icaoId":"SBPP","flightCategory":"VFR","rawOb":"METAR SBPP 161500Z 21006KT 9999 SCT020 25/21 Q1014","temp":25,"dewp":21,"wdir":210,"wspd":6,"visib":"6+","altim":1014,"clouds":[{"cover":"SCT","base":2000}],"obsTime":1776351600},"SBPS":{"icaoId":"SBPS","flightCategory":"VFR","rawOb":"METAR SBPS 161500Z 14005KT 9999 SCT025 29/21 Q1012","temp":29,"dewp":21,"wdir":140,"wspd":5,"visib":"6+","altim":1012,"clouds":[{"cover":"SCT","base":2500}],"obsTime":1776351600},"SBSC":{"icaoId":"SBSC","flightCategory":"VFR","rawOb":"METAR SBSC 161500Z 16008KT 9999 SCT030 27/20 Q1013","temp":27,"dewp":20,"wdir":160,"wspd":8,"visib":"6+","altim":1013,"clouds":[{"cover":"SCT","base":3000}],"obsTime":1776351600},"SBSJ":{"icaoId":"SBSJ","flightCategory":"VFR","rawOb":"METAR SBSJ 161500Z 09005KT CAVOK 25/16 Q1016","temp":25,"dewp":16,"wdir":90,"wspd":5,"visib":"6+","altim":1016,"clouds":[],"obsTime":1776351600},"SBSM":{"icaoId":"SBSM","flightCategory":"VFR","rawOb":"METAR SBSM 161500Z 33010KT 280V020 9999 BKN035 26/19 Q1008 WS ALL RWY","temp":26,"dewp":19,"wdir":330,"wspd":10,"visib":"6+","altim":1008,"clouds":[{"cover":"BKN","base":3500}],"obsTime":1776351600},"SBSR":{"icaoId":"SBSR","flightCategory":"VFR","rawOb":"METAR SBSR 161500Z 07008KT CAVOK 29/16 Q1014","temp":29,"dewp":16,"wdir":70,"wspd":8,"visib":"6+","altim":1014,"clouds":[],"obsTime":1776351600},"SBTD":{"icaoId":"SBTD","flightCategory":"VFR","rawOb":"METAR SBTD 161500Z /////KT 9999 FEW020 SCT080 25/21 Q1014","temp":25,"dewp":21,"wdir":null,"wspd":null,"visib":"6+","altim":1014,"clouds":[{"cover":"FEW","base":2000},{"cover":"SCT","base":8000}],"obsTime":1776351600},"SBTT":{"icaoId":"SBTT","flightCategory":"MVFR","rawOb":"METAR SBTT 161500Z 27002KT 9999 SCT012 BKN025 28/23 Q1011","temp":28,"dewp":23,"wdir":270,"wspd":2,"visib":"6+","altim":1011,"clouds":[{"cover":"SCT","base":1200},{"cover":"BKN","base":2500}],"obsTime":1776351600},"SBUY":{"icaoId":"SBUY","flightCategory":"VFR","rawOb":"METAR SBUY 161500Z 13004KT 9999 SCT025 30/25 Q1009","temp":30,"dewp":25,"wdir":130,"wspd":4,"visib":"6+","altim":1009,"clouds":[{"cover":"SCT","base":2500}],"obsTime":1776351600},"SBTF":{"icaoId":"SBTF","flightCategory":"VFR","rawOb":"METAR SBTF 161500Z 06005KT 9999 FEW012 SCT030 32/26 Q1010","temp":32,"dewp":26,"wdir":60,"wspd":5,"visib":"6+","altim":1010,"clouds":[{"cover":"FEW","base":1200},{"cover":"SCT","base":3000}],"obsTime":1776351600},"SBJP":{"icaoId":"SBJP","flightCategory":"VFR","rawOb":"METAR SBJP 161500Z 14010KT 100V180 9999 SCT030 31/23 Q1010","temp":31,"dewp":23,"wdir":140,"wspd":10,"visib":"6+","altim":1010,"clouds":[{"cover":"SCT","base":3000}],"obsTime":1776351600},"SBJV":{"icaoId":"SBJV","flightCategory":"VFR","rawOb":"METAR SBJV 161500Z 03005KT 9999 FEW030 28/20 Q1013","temp":28,"dewp":20,"wdir":30,"wspd":5,"visib":"6+","altim":1013,"clouds":[{"cover":"FEW","base":3000}],"obsTime":1776351600},"SBNM":{"icaoId":"SBNM","flightCategory":"MVFR","rawOb":"METAR SBNM 161500Z 35006KT 9999 FEW010 BKN020 23/20 Q1010","temp":23,"dewp":20,"wdir":350,"wspd":6,"visib":"6+","altim":1010,"clouds":[{"cover":"FEW","base":1000},{"cover":"BKN","base":2000}],"obsTime":1776351600},"SBLE":{"icaoId":"SBLE","flightCategory":"VFR","rawOb":"METAR SBLE 161500Z AUTO 18005KT 130V270 9999 SCT026 BKN038 26/21 Q1015","temp":26,"dewp":21,"wdir":180,"wspd":5,"visib":"6+","altim":1015,"clouds":[{"cover":"SCT","base":2600},{"cover":"BKN","base":3800}],"obsTime":1776351600},"SBAF":{"icaoId":"SBAF","flightCategory":"VFR","rawOb":"METAR SBAF 161500Z 20006KT 130V260 9999 SCT033 28/20 Q1013","temp":28,"dewp":20,"wdir":200,"wspd":6,"visib":"6+","altim":1013,"clouds":[{"cover":"SCT","base":3300}],"obsTime":1776351600},"SBGW":{"icaoId":"SBGW","flightCategory":"VFR","rawOb":"METAR SBGW 161500Z VRB03KT 9999 FEW030 26/13 Q1015","temp":26,"dewp":13,"wdir":"VRB","wspd":3,"visib":"6+","altim":1015,"clouds":[{"cover":"FEW","base":3000}],"obsTime":1776351600},"SBJR":{"icaoId":"SBJR","flightCategory":"VFR","rawOb":"METAR SBJR 161500Z 16008KT 9999 FEW025 30/21 Q1013","temp":30,"dewp":21,"wdir":160,"wspd":8,"visib":"6+","altim":1013,"clouds":[{"cover":"FEW","base":2500}],"obsTime":1776351600},"SBLS":{"icaoId":"SBLS","flightCategory":"VFR","rawOb":"METAR SBLS 161500Z VRB02KT 9999 SCT030 25/16 Q1017","temp":25,"dewp":16,"wdir":"VRB","wspd":2,"visib":"6+","altim":1017,"clouds":[{"cover":"SCT","base":3000}],"obsTime":1776351600},"SBMT":{"icaoId":"SBMT","flightCategory":"VFR","rawOb":"METAR SBMT 161500Z 06004KT 9999 SCT040 26/15 Q1016","temp":26,"dewp":15,"wdir":60,"wspd":4,"visib":"6+","altim":1016,"clouds":[{"cover":"SCT","base":4000}],"obsTime":1776351600},"SBST":{"icaoId":"SBST","flightCategory":"VFR","rawOb":"METAR SBST 161500Z 17002KT 9999 FEW025 SCT035 26/21 Q1014","temp":26,"dewp":21,"wdir":170,"wspd":2,"visib":"6+","altim":1014,"clouds":[{"cover":"FEW","base":2500},{"cover":"SCT","base":3500}],"obsTime":1776351600},"SBTA":{"icaoId":"SBTA","flightCategory":"VFR","rawOb":"METAR SBTA 161500Z 35004KT 260V070 9999 FEW030 26/14 Q1015","temp":26,"dewp":14,"wdir":350,"wspd":4,"visib":"6+","altim":1015,"clouds":[{"cover":"FEW","base":3000}],"obsTime":1776351600},"SBAN":{"icaoId":"SBAN","flightCategory":"MVFR","rawOb":"METAR SBAN 161500Z 11006KT 020V180 9999 BKN025 BKN080 26/18 Q1018","temp":26,"dewp":18,"wdir":110,"wspd":6,"visib":"6+","altim":1018,"clouds":[{"cover":"BKN","base":2500},{"cover":"BKN","base":8000}],"obsTime":1776351600},"SBIH":{"icaoId":"SBIH","flightCategory":"VFR","rawOb":"METAR SBIH 161500Z 03008KT 9999 SCT018 31/25 Q1010","temp":31,"dewp":25,"wdir":30,"wspd":8,"visib":"6+","altim":1010,"clouds":[{"cover":"SCT","base":1800}],"obsTime":1776351600}}}