{"updated":1781956102,"count":82,"data":{"SBEG":{"icaoId":"SBEG","flightCategory":"IFR","rawOb":"METAR SBEG 201000Z 36001KT 9999 BKN006 24/24 Q1015","temp":24,"dewp":24,"wdir":360,"wspd":1,"visib":"6+","altim":1015,"clouds":[{"cover":"BKN","base":600}],"obsTime":1781949600},"SBBE":{"icaoId":"SBBE","flightCategory":"VFR","rawOb":"METAR SBBE 201000Z 10002KT CAVOK 25/24 Q1014","temp":25,"dewp":24,"wdir":100,"wspd":2,"visib":"6+","altim":1014,"clouds":[],"obsTime":1781949600},"SBBR":{"icaoId":"SBBR","flightCategory":"VFR","rawOb":"METAR SBBR 201000Z 00000KT CAVOK 16/14 Q1022","temp":16,"dewp":14,"wdir":0,"wspd":0,"visib":"6+","altim":1022,"clouds":[],"obsTime":1781949600},"SBBV":{"icaoId":"SBBV","flightCategory":"VFR","rawOb":"METAR SBBV 201000Z 10004KT 9999 FEW005 SCT025 FEW035TCU 25/24 Q1015","temp":25,"dewp":24,"wdir":100,"wspd":4,"visib":"6+","altim":1015,"clouds":[{"cover":"FEW","base":500},{"cover":"SCT","base":2500},{"cover":"FEW","base":3500}],"obsTime":1781949600},"SBCB":{"icaoId":"SBCB","flightCategory":"VFR","rawOb":"METAR SBCB 201000Z /////KT CAVOK 20/17 Q1016","temp":20,"dewp":17,"wdir":null,"wspd":null,"visib":"6+","altim":1016,"clouds":[],"obsTime":1781949600},"SBCF":{"icaoId":"SBCF","flightCategory":"VFR","rawOb":"METAR SBCF 201000Z 17003KT CAVOK 12/10 Q1022","temp":12,"dewp":10,"wdir":170,"wspd":3,"visib":"6+","altim":1022,"clouds":[],"obsTime":1781949600},"SBCG":{"icaoId":"SBCG","flightCategory":"LIFR","rawOb":"METAR SBCG 201000Z 19009KT 2000 BR OVC002 14/14 Q1018","temp":14,"dewp":14,"wdir":190,"wspd":9,"visib":1.24,"altim":1018,"clouds":[{"cover":"OVC","base":200}],"obsTime":1781949600},"SBCP":{"icaoId":"SBCP","flightCategory":"VFR","rawOb":"METAR SBCP 201000Z 34006KT CAVOK 17/16 Q1018","temp":17,"dewp":16,"wdir":340,"wspd":6,"visib":"6+","altim":1018,"clouds":[],"obsTime":1781949600},"SBCR":{"icaoId":"SBCR","flightCategory":"VFR","rawOb":"METAR SBCR 201100Z 25004KT 190V280 9999 FEW007 15/13 Q1018","temp":15,"dewp":13,"wdir":250,"wspd":4,"visib":"6+","altim":1018,"clouds":[{"cover":"FEW","base":700}],"obsTime":1781953200},"SBCT":{"icaoId":"SBCT","flightCategory":"VFR","rawOb":"METAR SBCT 201000Z 17003KT 140V220 9000 -RA SCT025 OVC080 12/11 Q1017","temp":12,"dewp":11,"wdir":170,"wspd":3,"visib":5.59,"altim":1017,"clouds":[{"cover":"SCT","base":2500},{"cover":"OVC","base":8000}],"obsTime":1781949600},"SBAT":{"icaoId":"SBAT","flightCategory":"VFR","rawOb":"METAR SBAT 201100Z 24005KT 9999 4000S -RA SCT020 BKN100 22/21 Q1017","temp":22,"dewp":21,"wdir":240,"wspd":5,"visib":"6+","altim":1017,"clouds":[{"cover":"SCT","base":2000},{"cover":"BKN","base":10000}],"obsTime":1781953200},"SBFI":{"icaoId":"SBFI","flightCategory":"LIFR","rawOb":"METAR SBFI 201000Z 15003KT 9999 OVC003 12/11 Q1016","temp":12,"dewp":11,"wdir":150,"wspd":3,"visib":"6+","altim":1016,"clouds":[{"cover":"OVC","base":300}],"obsTime":1781949600},"SBFL":{"icaoId":"SBFL","flightCategory":"VFR","rawOb":"METAR SBFL 201000Z 17007KT 110V210 9999 FEW012 SCT035 OVC070 17/14 Q1016","temp":17,"dewp":14,"wdir":170,"wspd":7,"visib":"6+","altim":1016,"clouds":[{"cover":"FEW","base":1200},{"cover":"SCT","base":3500},{"cover":"OVC","base":7000}],"obsTime":1781949600},"SBFZ":{"icaoId":"SBFZ","flightCategory":"VFR","rawOb":"METAR SBFZ 201000Z 18006KT 9999 FEW018 BKN070 25/23 Q1014","temp":25,"dewp":23,"wdir":180,"wspd":6,"visib":"6+","altim":1014,"clouds":[{"cover":"FEW","base":1800},{"cover":"BKN","base":7000}],"obsTime":1781949600},"SBGL":{"icaoId":"SBGL","flightCategory":"MVFR","rawOb":"METAR SBGL 201000Z VRB02KT 6000 SCT025 16/15 Q1016","temp":16,"dewp":15,"wdir":"VRB","wspd":2,"visib":3.73,"altim":1016,"clouds":[{"cover":"SCT","base":2500}],"obsTime":1781949600},"SBGO":{"icaoId":"SBGO","flightCategory":"VFR","rawOb":"METAR SBGO 201000Z 14002KT 9999 SCT045 BKN090 19/16 Q1020","temp":19,"dewp":16,"wdir":140,"wspd":2,"visib":"6+","altim":1020,"clouds":[{"cover":"SCT","base":4500},{"cover":"BKN","base":9000}],"obsTime":1781949600},"SBGR":{"icaoId":"SBGR","flightCategory":"VFR","rawOb":"METAR SBGR 201000Z 08006KT CAVOK 14/12 Q1019","temp":14,"dewp":12,"wdir":80,"wspd":6,"visib":"6+","altim":1019,"clouds":[],"obsTime":1781949600},"SBHT":{"icaoId":"SBHT","flightCategory":"VFR","rawOb":"METAR SBHT 201000Z 00000KT 9999 FEW015 SCT080 23/23 Q1014","temp":23,"dewp":23,"wdir":0,"wspd":0,"visib":"6+","altim":1014,"clouds":[{"cover":"FEW","base":1500},{"cover":"SCT","base":8000}],"obsTime":1781949600},"SBIL":{"icaoId":"SBIL","flightCategory":"VFR","rawOb":"METAR SBIL 201000Z 30006KT 9999 FEW030 19/17 Q1018","temp":19,"dewp":17,"wdir":300,"wspd":6,"visib":"6+","altim":1018,"clouds":[{"cover":"FEW","base":3000}],"obsTime":1781949600},"SBJU":{"icaoId":"SBJU","flightCategory":"VFR","rawOb":"METAR SBJU 201000Z 00000KT CAVOK 22/16 Q1018","temp":22,"dewp":16,"wdir":0,"wspd":0,"visib":"6+","altim":1018,"clouds":[],"obsTime":1781949600},"SBKP":{"icaoId":"SBKP","flightCategory":"VFR","rawOb":"METAR SBKP 201000Z 12004KT 9999 FEW030 BKN045 BKN070 15/12 Q1018","temp":15,"dewp":12,"wdir":120,"wspd":4,"visib":"6+","altim":1018,"clouds":[{"cover":"FEW","base":3000},{"cover":"BKN","base":4500},{"cover":"BKN","base":7000}],"obsTime":1781949600},"SBLO":{"icaoId":"SBLO","flightCategory":"IFR","rawOb":"METAR SBLO 201000Z 00000KT 4000 1500E BR FEW003 BKN036 17/16 Q1014","temp":17,"dewp":16,"wdir":0,"wspd":0,"visib":2.49,"altim":1014,"clouds":[{"cover":"FEW","base":300},{"cover":"BKN","base":3600}],"obsTime":1781949600},"SBMA":{"icaoId":"SBMA","flightCategory":"VFR","rawOb":"METAR SBMA 201000Z 00000KT CAVOK 24/23 Q1014","temp":24,"dewp":23,"wdir":0,"wspd":0,"visib":"6+","altim":1014,"clouds":[],"obsTime":1781949600},"SBME":{"icaoId":"SBME","flightCategory":"VFR","rawOb":"METAR SBME 201000Z 01005KT CAVOK 16/14 Q1017","temp":16,"dewp":14,"wdir":10,"wspd":5,"visib":"6+","altim":1017,"clouds":[],"obsTime":1781949600},"SBMG":{"icaoId":"SBMG","flightCategory":"LIFR","rawOb":"METAR SBMG 201000Z 25011KT 1800 R10/P2000 -RA BR BKN001 BKN004 13/13 Q1015","temp":13,"dewp":13,"wdir":250,"wspd":11,"visib":1.12,"altim":1015,"clouds":[{"cover":"BKN","base":100},{"cover":"BKN","base":400}],"obsTime":1781949600},"SBMK":{"icaoId":"SBMK","flightCategory":"VFR","rawOb":"METAR SBMK 201000Z 00000KT CAVOK 11/10 Q1021","temp":11,"dewp":10,"wdir":0,"wspd":0,"visib":"6+","altim":1021,"clouds":[],"obsTime":1781949600},"SBMO":{"icaoId":"SBMO","flightCategory":"VFR","rawOb":"METAR SBMO 201000Z 28004KT 9999 SCT020 23/23 Q1016","temp":23,"dewp":23,"wdir":280,"wspd":4,"visib":"6+","altim":1016,"clouds":[{"cover":"SCT","base":2000}],"obsTime":1781949600},"SBMQ":{"icaoId":"SBMQ","flightCategory":"VFR","rawOb":"METAR SBMQ 201000Z 32003KT CAVOK 25/24 Q1014","temp":25,"dewp":24,"wdir":320,"wspd":3,"visib":"6+","altim":1014,"clouds":[],"obsTime":1781949600},"SBNT":{"icaoId":"SBNT","flightCategory":"VFR","rawOb":"METAR SBNT 201000Z 17009KT 9999 VCSH FEW023 SCT028 BKN090 23/22 Q1015","temp":23,"dewp":22,"wdir":170,"wspd":9,"visib":"6+","altim":1015,"clouds":[{"cover":"FEW","base":2300},{"cover":"SCT","base":2800},{"cover":"BKN","base":9000}],"obsTime":1781949600},"SBPA":{"icaoId":"SBPA","flightCategory":"MVFR","rawOb":"METAR SBPA 201000Z 19004KT 9999 FEW010 BKN030 11/08 Q1018","temp":11,"dewp":8,"wdir":190,"wspd":4,"visib":"6+","altim":1018,"clouds":[{"cover":"FEW","base":1000},{"cover":"BKN","base":3000}],"obsTime":1781949600},"SBPJ":{"icaoId":"SBPJ","flightCategory":"VFR","rawOb":"METAR SBPJ 201000Z 08005KT 040V130 9999 VCSH FEW030 SCT060 BKN080 25/21 Q1016","temp":25,"dewp":21,"wdir":80,"wspd":5,"visib":"6+","altim":1016,"clouds":[{"cover":"FEW","base":3000},{"cover":"SCT","base":6000},{"cover":"BKN","base":8000}],"obsTime":1781949600},"SBPV":{"icaoId":"SBPV","flightCategory":"VFR","rawOb":"METAR SBPV 201000Z 18003KT CAVOK 24/22 Q1014","temp":24,"dewp":22,"wdir":180,"wspd":3,"visib":"6+","altim":1014,"clouds":[],"obsTime":1781949600},"SBRB":{"icaoId":"SBRB","flightCategory":"MVFR","rawOb":"METAR SBRB 201000Z 00000KT 6000 NSC 21/20 Q1015","temp":21,"dewp":20,"wdir":0,"wspd":0,"visib":3.73,"altim":1015,"clouds":[],"obsTime":1781949600},"SBRF":{"icaoId":"SBRF","flightCategory":"MVFR","rawOb":"METAR SBRF 201000Z 22005KT 180V240 9999 VCSH BKN015 BKN050 24/23 Q1015","temp":24,"dewp":23,"wdir":220,"wspd":5,"visib":"6+","altim":1015,"clouds":[{"cover":"BKN","base":1500},{"cover":"BKN","base":5000}],"obsTime":1781949600},"SBSG":{"icaoId":"SBSG","flightCategory":"MVFR","rawOb":"METAR SBSG 201000Z 17004KT 140V210 9999 SCT009 BKN018 23/22 Q1015","temp":23,"dewp":22,"wdir":170,"wspd":4,"visib":"6+","altim":1015,"clouds":[{"cover":"SCT","base":900},{"cover":"BKN","base":1800}],"obsTime":1781949600},"SBSL":{"icaoId":"SBSL","flightCategory":"VFR","rawOb":"METAR SBSL 201000Z VRB02KT 9999 VCSH SCT020 FEW025TCU 24/22 Q1014 RETS","temp":24,"dewp":22,"wdir":"VRB","wspd":2,"visib":"6+","altim":1014,"clouds":[{"cover":"SCT","base":2000},{"cover":"FEW","base":2500}],"obsTime":1781949600},"SBSN":{"icaoId":"SBSN","flightCategory":"VFR","rawOb":"METAR SBSN 201000Z 13001KT 9999 FEW017 23/23 Q1014","temp":23,"dewp":23,"wdir":130,"wspd":1,"visib":"6+","altim":1014,"clouds":[{"cover":"FEW","base":1700}],"obsTime":1781949600},"SBSP":{"icaoId":"SBSP","flightCategory":"VFR","rawOb":"METAR SBSP 201000Z 04003KT 9999 FEW015 SCT100 15/12 Q1019","temp":15,"dewp":12,"wdir":40,"wspd":3,"visib":"6+","altim":1019,"clouds":[{"cover":"FEW","base":1500},{"cover":"SCT","base":10000}],"obsTime":1781949600},"SBSV":{"icaoId":"SBSV","flightCategory":"VFR","rawOb":"METAR SBSV 201000Z 17009KT 9999 SCT023 FEW025TCU BKN060 25/19 Q1017","temp":25,"dewp":19,"wdir":170,"wspd":9,"visib":"6+","altim":1017,"clouds":[{"cover":"SCT","base":2300},{"cover":"FEW","base":2500},{"cover":"BKN","base":6000}],"obsTime":1781949600},"SBTE":{"icaoId":"SBTE","flightCategory":"VFR","rawOb":"METAR SBTE 201000Z VRB02KT 9999 FEW020 26/22 Q1015","temp":26,"dewp":22,"wdir":"VRB","wspd":2,"visib":"6+","altim":1015,"clouds":[{"cover":"FEW","base":2000}],"obsTime":1781949600},"SBUL":{"icaoId":"SBUL","flightCategory":"VFR","rawOb":"METAR SBUL 201000Z 29004KT 250V330 CAVOK 16/13 Q1022","temp":16,"dewp":13,"wdir":290,"wspd":4,"visib":"6+","altim":1022,"clouds":[],"obsTime":1781949600},"SBUR":{"icaoId":"SBUR","flightCategory":"VFR","rawOb":"METAR SBUR 201000Z 31007KT CAVOK 16/13 Q1020","temp":16,"dewp":13,"wdir":310,"wspd":7,"visib":"6+","altim":1020,"clouds":[],"obsTime":1781949600},"SBVT":{"icaoId":"SBVT","flightCategory":"VFR","rawOb":"METAR SBVT 201000Z 29004KT 260V330 CAVOK 16/15 Q1018","temp":16,"dewp":15,"wdir":290,"wspd":4,"visib":"6+","altim":1018,"clouds":[],"obsTime":1781949600},"SBPP":{"icaoId":"SBPP","flightCategory":"LIFR","rawOb":"SPECI SBPP 201115Z 19004KT 0500 FG VV000 10/10 Q1018","temp":10,"dewp":10,"wdir":190,"wspd":4,"visib":0.31,"altim":1018,"clouds":[{"cover":"OVX","base":0}],"obsTime":1781954100},"SBTF":{"icaoId":"SBTF","flightCategory":"VFR","rawOb":"SPECI SBTF 201115Z 00000KT 9999 FEW012 24/24 Q1014","temp":24,"dewp":24,"wdir":0,"wspd":0,"visib":"6+","altim":1014,"clouds":[{"cover":"FEW","base":1200}],"obsTime":1781954100},"SBPS":{"icaoId":"SBPS","flightCategory":"VFR","rawOb":"METAR SBPS 201000Z 27006KT 9999 FEW020 18/17 Q1019","temp":18,"dewp":17,"wdir":270,"wspd":6,"visib":"6+","altim":1019,"clouds":[{"cover":"FEW","base":2000}],"obsTime":1781949600},"SBCJ":{"icaoId":"SBCJ","flightCategory":"VFR","rawOb":"SPECI SBCJ 201015Z 00000KT CAVOK 22/20 Q1019","temp":22,"dewp":20,"wdir":0,"wspd":0,"visib":"6+","altim":1019,"clouds":[],"obsTime":1781950500},"SBSJ":{"icaoId":"SBSJ","flightCategory":"MVFR","rawOb":"METAR SBSJ 201000Z 17003KT 8000 NSC 11/10 Q1019","temp":11,"dewp":10,"wdir":170,"wspd":3,"visib":4.97,"altim":1019,"clouds":[],"obsTime":1781949600},"SBCO":{"icaoId":"SBCO","flightCategory":"MVFR","rawOb":"METAR SBCO 201000Z 28003KT 9999 FEW015 BKN030 10/10 Q1019","temp":10,"dewp":10,"wdir":280,"wspd":3,"visib":"6+","altim":1019,"clouds":[{"cover":"FEW","base":1500},{"cover":"BKN","base":3000}],"obsTime":1781949600},"SBSM":{"icaoId":"SBSM","flightCategory":"VFR","rawOb":"METAR SBSM 201000Z 17001KT 9999 BKN035 07/07 Q1019","temp":7,"dewp":7,"wdir":170,"wspd":1,"visib":"6+","altim":1019,"clouds":[{"cover":"BKN","base":3500}],"obsTime":1781949600},"SBBH":{"icaoId":"SBBH","flightCategory":"VFR","rawOb":"METAR SBBH 201000Z 00000KT CAVOK 10/10 Q1022","temp":10,"dewp":10,"wdir":0,"wspd":0,"visib":"6+","altim":1022,"clouds":[],"obsTime":1781949600},"SBSR":{"icaoId":"SBSR","flightCategory":"VFR","rawOb":"METAR SBSR 201000Z 04003KT 9999 FEW035 BKN070 19/16 Q1017","temp":19,"dewp":16,"wdir":40,"wspd":3,"visib":"6+","altim":1017,"clouds":[{"cover":"FEW","base":3500},{"cover":"BKN","base":7000}],"obsTime":1781949600},"SBDN":{"icaoId":"SBDN","flightCategory":"MVFR","rawOb":"METAR SBDN 201000Z 35003KT 9999 FEW007 BKN017 OVC027 18/17 Q1015","temp":18,"dewp":17,"wdir":350,"wspd":3,"visib":"6+","altim":1015,"clouds":[{"cover":"FEW","base":700},{"cover":"BKN","base":1700},{"cover":"OVC","base":2700}],"obsTime":1781949600},"SBPL":{"icaoId":"SBPL","flightCategory":"VFR","rawOb":"METAR SBPL 201000Z 14004KT CAVOK 22/18 Q1019","temp":22,"dewp":18,"wdir":140,"wspd":4,"visib":"6+","altim":1019,"clouds":[],"obsTime":1781949600},"SBSC":{"icaoId":"SBSC","flightCategory":"VFR","rawOb":"METAR SBSC 201000Z 03005KT 9999 FEW015 17/14 Q1016","temp":17,"dewp":14,"wdir":30,"wspd":5,"visib":"6+","altim":1016,"clouds":[{"cover":"FEW","base":1500}],"obsTime":1781949600},"SBTT":{"icaoId":"SBTT","flightCategory":"IFR","rawOb":"METAR SBTT 201100Z 09002KT 3000 BR FEW001 SCT004 OVC080 23/23 Q1015","temp":23,"dewp":23,"wdir":90,"wspd":2,"visib":1.86,"altim":1015,"clouds":[{"cover":"FEW","base":100},{"cover":"SCT","base":400},{"cover":"OVC","base":8000}],"obsTime":1781953200},"SBUY":{"icaoId":"SBUY","flightCategory":"VFR","rawOb":"METAR SBUY 201100Z 00000KT 9999 SCT030 FEW035TCU 23/22 Q1014","temp":23,"dewp":22,"wdir":0,"wspd":0,"visib":"6+","altim":1014,"clouds":[{"cover":"SCT","base":3000},{"cover":"FEW","base":3500}],"obsTime":1781953200},"SBVH":{"icaoId":"SBVH","flightCategory":"LIFR","rawOb":"METAR SBVH 201100Z 16008KT 9999 OVC004 19/19 Q1018","temp":19,"dewp":19,"wdir":160,"wspd":8,"visib":"6+","altim":1018,"clouds":[{"cover":"OVC","base":400}],"obsTime":1781953200},"SBAX":{"icaoId":"SBAX","flightCategory":"VFR","rawOb":"METAR SBAX 201000Z AUTO 13006KT CAVOK 14/11 Q1021","temp":14,"dewp":11,"wdir":130,"wspd":6,"visib":"6+","altim":1021,"clouds":[],"obsTime":1781949600},"SBBU":{"icaoId":"SBBU","flightCategory":"VFR","rawOb":"METAR SBBU 201000Z 03007KT 9999 SCT020 BKN070 19/17 Q1017","temp":19,"dewp":17,"wdir":30,"wspd":7,"visib":"6+","altim":1017,"clouds":[{"cover":"SCT","base":2000},{"cover":"BKN","base":7000}],"obsTime":1781949600},"SBES":{"icaoId":"SBES","flightCategory":"VFR","rawOb":"METAR SBES 201000Z VRB02KT CAVOK 14/// Q1016","temp":null,"dewp":null,"wdir":"VRB","wspd":2,"visib":"6+","altim":1016,"clouds":[],"obsTime":1781949600},"SBAR":{"icaoId":"SBAR","flightCategory":"VFR","rawOb":"METAR SBAR 201000Z 26005KT 200V310 9999 VCSH SCT017 SCT023 23/21 Q1016","temp":23,"dewp":21,"wdir":260,"wspd":5,"visib":"6+","altim":1016,"clouds":[{"cover":"SCT","base":1700},{"cover":"SCT","base":2300}],"obsTime":1781949600},"SBIP":{"icaoId":"SBIP","flightCategory":"LIFR","rawOb":"METAR SBIP 201000Z AUTO 00000KT 0250 FG VV001 12/12 Q1021","temp":12,"dewp":12,"wdir":0,"wspd":0,"visib":0.16,"altim":1021,"clouds":[{"cover":"OVX","base":100}],"obsTime":1781949600},"SBKG":{"icaoId":"SBKG","flightCategory":"VFR","rawOb":"METAR SBKG 201000Z 19004KT 9999 FEW010 SCT070 21/20 Q1017","temp":21,"dewp":20,"wdir":190,"wspd":4,"visib":"6+","altim":1017,"clouds":[{"cover":"FEW","base":1000},{"cover":"SCT","base":7000}],"obsTime":1781949600},"SBCA":{"icaoId":"SBCA","flightCategory":"LIFR","rawOb":"METAR SBCA 201100Z 19007KT 0900 FG OVC001 11/11 Q1017","temp":11,"dewp":11,"wdir":190,"wspd":7,"visib":0.56,"altim":1017,"clouds":[{"cover":"OVC","base":100}],"obsTime":1781953200},"SBOI":{"icaoId":"SBOI","flightCategory":"VFR","rawOb":"METAR SBOI 201100Z AUTO VRB02KT 9999 FEW003 24/23 Q1015","temp":24,"dewp":23,"wdir":"VRB","wspd":2,"visib":"6+","altim":1015,"clouds":[{"cover":"FEW","base":300}],"obsTime":1781953200},"SBPB":{"icaoId":"SBPB","flightCategory":"VFR","rawOb":"SPECI SBPB 201015Z 12005KT 9999 SCT020 FEW025TCU 26/24 Q1014","temp":26,"dewp":24,"wdir":120,"wspd":5,"visib":"6+","altim":1014,"clouds":[{"cover":"SCT","base":2000},{"cover":"FEW","base":2500}],"obsTime":1781950500},"SBCC":{"icaoId":"SBCC","flightCategory":"IFR","rawOb":"METAR SBCC 201100Z 19006KT 9999 OVC006 21/21 Q1018","temp":21,"dewp":21,"wdir":190,"wspd":6,"visib":"6+","altim":1018,"clouds":[{"cover":"OVC","base":600}],"obsTime":1781953200},"SBMT":{"icaoId":"SBMT","flightCategory":"MVFR","rawOb":"METAR SBMT 201000Z 13002KT 6000 NSC 14/11 Q1018","temp":14,"dewp":11,"wdir":130,"wspd":2,"visib":3.73,"altim":1018,"clouds":[],"obsTime":1781949600},"SBTA":{"icaoId":"SBTA","flightCategory":"VFR","rawOb":"METAR SBTA 201000Z VRB01KT CAVOK 10/09 Q1018","temp":10,"dewp":9,"wdir":"VRB","wspd":1,"visib":"6+","altim":1018,"clouds":[],"obsTime":1781949600},"SBJP":{"icaoId":"SBJP","flightCategory":"MVFR","rawOb":"METAR SBJP 201000Z 19006KT 9999 BKN014 BKN070 23/23 Q1015","temp":23,"dewp":23,"wdir":190,"wspd":6,"visib":"6+","altim":1015,"clouds":[{"cover":"BKN","base":1400},{"cover":"BKN","base":7000}],"obsTime":1781949600},"SBJV":{"icaoId":"SBJV","flightCategory":"VFR","rawOb":"METAR SBJV 201000Z 00000KT 9999 -RA OVC040 15/15 Q1015","temp":15,"dewp":15,"wdir":0,"wspd":0,"visib":"6+","altim":1015,"clouds":[{"cover":"OVC","base":4000}],"obsTime":1781949600},"SBNM":{"icaoId":"SBNM","flightCategory":"MVFR","rawOb":"METAR SBNM 201000Z AUTO VRB01KT 9999 FEW009 OVC019 09/09 Q1018","temp":9,"dewp":9,"wdir":"VRB","wspd":1,"visib":"6+","altim":1018,"clouds":[{"cover":"FEW","base":900},{"cover":"OVC","base":1900}],"obsTime":1781949600},"SBPF":{"icaoId":"SBPF","flightCategory":"LIFR","rawOb":"METAR SBPF 201000Z 21004KT 0500 FG VV002 09/08 Q1017","temp":9,"dewp":8,"wdir":210,"wspd":4,"visib":0.31,"altim":1017,"clouds":[{"cover":"OVX","base":200}],"obsTime":1781949600},"SBAN":{"icaoId":"SBAN","flightCategory":"VFR","rawOb":"METAR SBAN 201000Z 12004KT 9999 FEW020 SCT060 16/14 Q1022","temp":16,"dewp":14,"wdir":120,"wspd":4,"visib":"6+","altim":1022,"clouds":[{"cover":"FEW","base":2000},{"cover":"SCT","base":6000}],"obsTime":1781949600},"SBIH":{"icaoId":"SBIH","flightCategory":"VFR","rawOb":"METAR SBIH 201100Z 00000KT 9999 FEW020 FEW025TCU 26/25 Q1014","temp":26,"dewp":25,"wdir":0,"wspd":0,"visib":"6+","altim":1014,"clouds":[{"cover":"FEW","base":2000},{"cover":"FEW","base":2500}],"obsTime":1781953200},"SBLE":{"icaoId":"SBLE","flightCategory":"MVFR","rawOb":"METAR SBLE 201000Z AUTO 00000KT 9999 BKN024 ///// Q////","temp":null,"dewp":null,"wdir":0,"wspd":0,"visib":"6+","altim":null,"clouds":[{"cover":"BKN","base":2400}],"obsTime":1781949600},"SBST":{"icaoId":"SBST","flightCategory":"VFR","rawOb":"METAR SBST 201100Z 13002KT 9999 FEW006 BKN070 17/17 Q1014","temp":17,"dewp":17,"wdir":130,"wspd":2,"visib":"6+","altim":1014,"clouds":[{"cover":"FEW","base":600},{"cover":"BKN","base":7000}],"obsTime":1781953200},"SBGW":{"icaoId":"SBGW","flightCategory":"VFR","rawOb":"METAR SBGW 201000Z 14002KT 9999 FEW001 10/07 Q1019","temp":10,"dewp":7,"wdir":140,"wspd":2,"visib":"6+","altim":1019,"clouds":[{"cover":"FEW","base":100}],"obsTime":1781949600},"SBAF":{"icaoId":"SBAF","flightCategory":"MVFR","rawOb":"METAR SBAF 201000Z 00000KT 6000 FEW002 12/12 Q1016","temp":12,"dewp":12,"wdir":0,"wspd":0,"visib":3.73,"altim":1016,"clouds":[{"cover":"FEW","base":200}],"obsTime":1781949600},"SBJR":{"icaoId":"SBJR","flightCategory":"VFR","rawOb":"METAR SBJR 201000Z 02009KT CAVOK 19/15 Q1015","temp":19,"dewp":15,"wdir":20,"wspd":9,"visib":"6+","altim":1015,"clouds":[],"obsTime":1781949600},"SBLS":{"icaoId":"SBLS","flightCategory":"VFR","rawOb":"METAR SBLS 201000Z 19004KT CAVOK 12/10 Q1021","temp":12,"dewp":10,"wdir":190,"wspd":4,"visib":"6+","altim":1021,"clouds":[],"obsTime":1781949600}}}