{"updated":1773943676,"count":85,"data":{"SBBV":{"icaoId":"SBBV","flightCategory":"VFR","rawOb":"METAR SBBV 191700Z 10007KT 9999 BKN040 34/20 Q1010","temp":34,"dewp":20,"wdir":100,"wspd":7,"visib":"6+","altim":1010,"clouds":[{"cover":"BKN","base":4000}],"obsTime":1773939600},"SBCG":{"icaoId":"SBCG","flightCategory":"VFR","rawOb":"METAR SBCG 191700Z 32005KT 270V020 9999 SCT023 28/22 Q1010","temp":28,"dewp":22,"wdir":320,"wspd":5,"visib":"6+","altim":1010,"clouds":[{"cover":"SCT","base":2300}],"obsTime":1773939600},"SBCB":{"icaoId":"SBCB","flightCategory":"VFR","rawOb":"METAR SBCB 191700Z 09012KT 9999 FEW015 SCT060 28/24 Q1007","temp":28,"dewp":24,"wdir":90,"wspd":12,"visib":"6+","altim":1007,"clouds":[{"cover":"FEW","base":1500},{"cover":"SCT","base":6000}],"obsTime":1773939600},"SBMO":{"icaoId":"SBMO","flightCategory":"MVFR","rawOb":"METAR SBMO 191700Z 11014KT 9999 BKN030 31/23 Q1008","temp":31,"dewp":23,"wdir":110,"wspd":14,"visib":"6+","altim":1008,"clouds":[{"cover":"BKN","base":3000}],"obsTime":1773939600},"SBFZ":{"icaoId":"SBFZ","flightCategory":"VFR","rawOb":"METAR SBFZ 191700Z 09011KT 9999 SCT025 31/25 Q1007","temp":31,"dewp":25,"wdir":90,"wspd":11,"visib":"6+","altim":1007,"clouds":[{"cover":"SCT","base":2500}],"obsTime":1773939600},"SBCP":{"icaoId":"SBCP","flightCategory":"MVFR","rawOb":"METAR SBCP 191700Z 09005KT 9999 BKN020 BKN100 32/25 Q1006","temp":32,"dewp":25,"wdir":90,"wspd":5,"visib":"6+","altim":1006,"clouds":[{"cover":"BKN","base":2000},{"cover":"BKN","base":10000}],"obsTime":1773939600},"SBMQ":{"icaoId":"SBMQ","flightCategory":"VFR","rawOb":"METAR SBMQ 191700Z 07010KT 9999 VCSH SCT023 FEW027TCU OVC083 29/24 Q1009","temp":29,"dewp":24,"wdir":70,"wspd":10,"visib":"6+","altim":1009,"clouds":[{"cover":"SCT","base":2300},{"cover":"FEW","base":2700},{"cover":"OVC","base":8300}],"obsTime":1773939600},"SBGL":{"icaoId":"SBGL","flightCategory":"VFR","rawOb":"METAR SBGL 191700Z 14007KT 9999 FEW030 BKN100 28/23 Q1007","temp":28,"dewp":23,"wdir":140,"wspd":7,"visib":"6+","altim":1007,"clouds":[{"cover":"FEW","base":3000},{"cover":"BKN","base":10000}],"obsTime":1773939600},"SBBR":{"icaoId":"SBBR","flightCategory":"VFR","rawOb":"METAR SBBR 191700Z 34008KT 9999 SCT040 FEW045TCU 29/17 Q1013","temp":29,"dewp":17,"wdir":340,"wspd":8,"visib":"6+","altim":1013,"clouds":[{"cover":"SCT","base":4000},{"cover":"FEW","base":4500}],"obsTime":1773939600},"SBPA":{"icaoId":"SBPA","flightCategory":"MVFR","rawOb":"METAR SBPA 191700Z 17012KT 140V210 9999 BKN025 27/22 Q1009","temp":27,"dewp":22,"wdir":170,"wspd":12,"visib":"6+","altim":1009,"clouds":[{"cover":"BKN","base":2500}],"obsTime":1773939600},"SBVT":{"icaoId":"SBVT","flightCategory":"VFR","rawOb":"METAR SBVT 191700Z 04006KT 9000 -TSRA FEW010 SCT025 SCT040CB BKN090 27/25 Q1007","temp":27,"dewp":25,"wdir":40,"wspd":6,"visib":5.59,"altim":1007,"clouds":[{"cover":"FEW","base":1000},{"cover":"SCT","base":2500},{"cover":"SCT","base":4000},{"cover":"BKN","base":9000}],"obsTime":1773939600},"SBPJ":{"icaoId":"SBPJ","flightCategory":"VFR","rawOb":"SPECI SBPJ 191610Z VRB04KT 9999 -TSRA FEW015 SCT025 FEW030CB BKN080 24/23 Q1010 RERA","temp":24,"dewp":23,"wdir":"VRB","wspd":4,"visib":"6+","altim":1010,"clouds":[{"cover":"FEW","base":1500},{"cover":"SCT","base":2500},{"cover":"FEW","base":3000},{"cover":"BKN","base":8000}],"obsTime":1773936600},"SBGO":{"icaoId":"SBGO","flightCategory":"VFR","rawOb":"METAR SBGO 191700Z 01007KT 9999 VCSH BKN035 FEW050TCU SCT080 26/21 Q1012","temp":26,"dewp":21,"wdir":10,"wspd":7,"visib":"6+","altim":1012,"clouds":[{"cover":"BKN","base":3500},{"cover":"FEW","base":5000},{"cover":"SCT","base":8000}],"obsTime":1773939600},"SBCR":{"icaoId":"SBCR","flightCategory":"MVFR","rawOb":"METAR SBCR 191700Z 03005KT 9999 SCT020 BKN030 31/24 Q1007","temp":31,"dewp":24,"wdir":30,"wspd":5,"visib":"6+","altim":1007,"clouds":[{"cover":"SCT","base":2000},{"cover":"BKN","base":3000}],"obsTime":1773939600},"SBPV":{"icaoId":"SBPV","flightCategory":"VFR","rawOb":"METAR SBPV 191700Z 34004KT 9999 SCT030 30/23 Q1009","temp":30,"dewp":23,"wdir":340,"wspd":4,"visib":"6+","altim":1009,"clouds":[{"cover":"SCT","base":3000}],"obsTime":1773939600},"SBBE":{"icaoId":"SBBE","flightCategory":"MVFR","rawOb":"METAR SBBE 191700Z 33006KT 9999 4000SE VCSH BKN016 BKN026 FEW027TCU OVC032 27/25 Q1008","temp":27,"dewp":25,"wdir":330,"wspd":6,"visib":"6+","altim":1008,"clouds":[{"cover":"BKN","base":1600},{"cover":"BKN","base":2600},{"cover":"FEW","base":2700},{"cover":"OVC","base":3200}],"obsTime":1773939600},"SBRB":{"icaoId":"SBRB","flightCategory":"MVFR","rawOb":"METAR SBRB 191700Z 31004KT 9999 BKN023 BKN050 31/24 Q1010","temp":31,"dewp":24,"wdir":310,"wspd":4,"visib":"6+","altim":1010,"clouds":[{"cover":"BKN","base":2300},{"cover":"BKN","base":5000}],"obsTime":1773939600},"SBCT":{"icaoId":"SBCT","flightCategory":"VFR","rawOb":"METAR SBCT 191700Z 12005KT 070V150 9999 BKN035 FEW040TCU 27/19 Q1012","temp":27,"dewp":19,"wdir":120,"wspd":5,"visib":"6+","altim":1012,"clouds":[{"cover":"BKN","base":3500},{"cover":"FEW","base":4000}],"obsTime":1773939600},"SBRF":{"icaoId":"SBRF","flightCategory":"VFR","rawOb":"METAR SBRF 191700Z 12009KT 080V140 9999 FEW025 SCT070 30/23 Q1008","temp":30,"dewp":23,"wdir":120,"wspd":9,"visib":"6+","altim":1008,"clouds":[{"cover":"FEW","base":2500},{"cover":"SCT","base":7000}],"obsTime":1773939600},"SBTE":{"icaoId":"SBTE","flightCategory":"MVFR","rawOb":"METAR SBTE 191700Z 06007KT 9999 BKN020 BKN100 28/26 Q1007","temp":28,"dewp":26,"wdir":60,"wspd":7,"visib":"6+","altim":1007,"clouds":[{"cover":"BKN","base":2000},{"cover":"BKN","base":10000}],"obsTime":1773939600},"SBLO":{"icaoId":"SBLO","flightCategory":"VFR","rawOb":"METAR SBLO 191700Z VRB03KT 9999 SCT040TCU 31/22 Q1009","temp":31,"dewp":22,"wdir":"VRB","wspd":3,"visib":"6+","altim":1009,"clouds":[{"cover":"SCT","base":4000}],"obsTime":1773939600},"SBEG":{"icaoId":"SBEG","flightCategory":"IFR","rawOb":"METAR SBEG 191700Z 26011KT 9999 BKN007 FEW030TCU BKN100 24/23 Q1012 RETS","temp":24,"dewp":23,"wdir":260,"wspd":11,"visib":"6+","altim":1012,"clouds":[{"cover":"BKN","base":700},{"cover":"FEW","base":3000},{"cover":"BKN","base":10000}],"obsTime":1773939600},"SBMA":{"icaoId":"SBMA","flightCategory":"MVFR","rawOb":"METAR SBMA 191700Z 19002KT 9999 BKN023 31/23 Q1008","temp":31,"dewp":23,"wdir":190,"wspd":2,"visib":"6+","altim":1008,"clouds":[{"cover":"BKN","base":2300}],"obsTime":1773939600},"SBFL":{"icaoId":"SBFL","flightCategory":"MVFR","rawOb":"METAR SBFL 191700Z 09006KT 9999 SCT015 BKN025 28/24 Q1008","temp":28,"dewp":24,"wdir":90,"wspd":6,"visib":"6+","altim":1008,"clouds":[{"cover":"SCT","base":1500},{"cover":"BKN","base":2500}],"obsTime":1773939600},"SBSG":{"icaoId":"SBSG","flightCategory":"VFR","rawOb":"METAR SBSG 191700Z 12008KT 080V180 9999 SCT033 32/23 Q1008","temp":32,"dewp":23,"wdir":120,"wspd":8,"visib":"6+","altim":1008,"clouds":[{"cover":"SCT","base":3300}],"obsTime":1773939600},"SBSL":{"icaoId":"SBSL","flightCategory":"IFR","rawOb":"METAR SBSL 191700Z 13011KT 4000 -RA FEW012 BKN020 FEW025TCU 25/24 Q1007","temp":25,"dewp":24,"wdir":130,"wspd":11,"visib":2.49,"altim":1007,"clouds":[{"cover":"FEW","base":1200},{"cover":"BKN","base":2000},{"cover":"FEW","base":2500}],"obsTime":1773939600},"SBSN":{"icaoId":"SBSN","flightCategory":"MVFR","rawOb":"METAR SBSN 191700Z 35004KT 7000 -RA SCT010 SCT020 OVC100 27/25 Q1009","temp":27,"dewp":25,"wdir":350,"wspd":4,"visib":4.35,"altim":1009,"clouds":[{"cover":"SCT","base":1000},{"cover":"SCT","base":2000},{"cover":"OVC","base":10000}],"obsTime":1773939600},"SBCF":{"icaoId":"SBCF","flightCategory":"VFR","rawOb":"METAR SBCF 191700Z 18006KT 9999 SCT012 BKN100 24/21 Q1013","temp":24,"dewp":21,"wdir":180,"wspd":6,"visib":"6+","altim":1013,"clouds":[{"cover":"SCT","base":1200},{"cover":"BKN","base":10000}],"obsTime":1773939600},"SBKP":{"icaoId":"SBKP","flightCategory":"VFR","rawOb":"METAR SBKP 191700Z 20006KT 160V220 9999 -RA VCSH SCT030 FEW040TCU 27/22 Q1010","temp":27,"dewp":22,"wdir":200,"wspd":6,"visib":"6+","altim":1010,"clouds":[{"cover":"SCT","base":3000},{"cover":"FEW","base":4000}],"obsTime":1773939600},"SBSV":{"icaoId":"SBSV","flightCategory":"VFR","rawOb":"METAR SBSV 191700Z 11011KT 9999 FEW023 30/22 Q1009","temp":30,"dewp":22,"wdir":110,"wspd":11,"visib":"6+","altim":1009,"clouds":[{"cover":"FEW","base":2300}],"obsTime":1773939600},"SBSP":{"icaoId":"SBSP","flightCategory":"VFR","rawOb":"METAR SBSP 191700Z 11006KT 9999 BKN040 BKN083 24/21 Q1012","temp":24,"dewp":21,"wdir":110,"wspd":6,"visib":"6+","altim":1012,"clouds":[{"cover":"BKN","base":4000},{"cover":"BKN","base":8300}],"obsTime":1773939600},"SBAT":{"icaoId":"SBAT","flightCategory":"VFR","rawOb":"METAR SBAT 191700Z 22002KT 9999 SCT020 FEW030TCU 26/24 Q1009","temp":26,"dewp":24,"wdir":220,"wspd":2,"visib":"6+","altim":1009,"clouds":[{"cover":"SCT","base":2000},{"cover":"FEW","base":3000}],"obsTime":1773939600},"SBUL":{"icaoId":"SBUL","flightCategory":"VFR","rawOb":"METAR SBUL 191700Z 35013KT 9999 VCSH SCT035 FEW040TCU 29/18 Q1012","temp":29,"dewp":18,"wdir":350,"wspd":13,"visib":"6+","altim":1012,"clouds":[{"cover":"SCT","base":3500},{"cover":"FEW","base":4000}],"obsTime":1773939600},"SBUR":{"icaoId":"SBUR","flightCategory":"VFR","rawOb":"METAR SBUR 191700Z 30013KT 9999 VCSH BKN032 FEW034TCU 30/20 Q1010","temp":30,"dewp":20,"wdir":300,"wspd":13,"visib":"6+","altim":1010,"clouds":[{"cover":"BKN","base":3200},{"cover":"FEW","base":3400}],"obsTime":1773939600},"SBCZ":{"icaoId":"SBCZ","flightCategory":"MVFR","rawOb":"METAR SBCZ 191700Z 30005KT 9999 BKN030 BKN100 29/24 Q1011","temp":29,"dewp":24,"wdir":300,"wspd":5,"visib":"6+","altim":1011,"clouds":[{"cover":"BKN","base":3000},{"cover":"BKN","base":10000}],"obsTime":1773939600},"SBFI":{"icaoId":"SBFI","flightCategory":"VFR","rawOb":"METAR SBFI 191700Z 05003KT 9999 SCT030 34/23 Q1007","temp":34,"dewp":23,"wdir":50,"wspd":3,"visib":"6+","altim":1007,"clouds":[{"cover":"SCT","base":3000}],"obsTime":1773939600},"SBGR":{"icaoId":"SBGR","flightCategory":"MVFR","rawOb":"METAR SBGR 191700Z 19004KT 140V250 7000 3000W -RA BKN020 BKN040 24/21 Q1011","temp":24,"dewp":21,"wdir":190,"wspd":4,"visib":4.35,"altim":1011,"clouds":[{"cover":"BKN","base":2000},{"cover":"BKN","base":4000}],"obsTime":1773939600},"SBHT":{"icaoId":"SBHT","flightCategory":"MVFR","rawOb":"METAR SBHT 191700Z 13005KT 9999 BKN025 30/24 Q1009","temp":30,"dewp":24,"wdir":130,"wspd":5,"visib":"6+","altim":1009,"clouds":[{"cover":"BKN","base":2500}],"obsTime":1773939600},"SBIL":{"icaoId":"SBIL","flightCategory":"VFR","rawOb":"METAR SBIL 191700Z 07011KT 9999 FEW030 31/25 Q1008","temp":31,"dewp":25,"wdir":70,"wspd":11,"visib":"6+","altim":1008,"clouds":[{"cover":"FEW","base":3000}],"obsTime":1773939600},"SBJU":{"icaoId":"SBJU","flightCategory":"MVFR","rawOb":"METAR SBJU 191700Z 00000KT 9999 BKN020 28/23 Q1011","temp":28,"dewp":23,"wdir":0,"wspd":0,"visib":"6+","altim":1011,"clouds":[{"cover":"BKN","base":2000}],"obsTime":1773939600},"SBME":{"icaoId":"SBME","flightCategory":"VFR","rawOb":"METAR SBME 191700Z 13012KT 9999 FEW030 30/24 Q1006","temp":30,"dewp":24,"wdir":130,"wspd":12,"visib":"6+","altim":1006,"clouds":[{"cover":"FEW","base":3000}],"obsTime":1773939600},"SBMG":{"icaoId":"SBMG","flightCategory":"VFR","rawOb":"METAR SBMG 191700Z 30006KT 230V340 9999 BKN040 31/20 Q1008","temp":31,"dewp":20,"wdir":300,"wspd":6,"visib":"6+","altim":1008,"clouds":[{"cover":"BKN","base":4000}],"obsTime":1773939600},"SBMK":{"icaoId":"SBMK","flightCategory":"VFR","rawOb":"METAR SBMK 191700Z 35004KT 9999 VCSH SCT045 FEW045TCU 32/20 Q1010","temp":32,"dewp":20,"wdir":350,"wspd":4,"visib":"6+","altim":1010,"clouds":[{"cover":"SCT","base":4500},{"cover":"FEW","base":4500}],"obsTime":1773939600},"SBNT":{"icaoId":"SBNT","flightCategory":"VFR","rawOb":"METAR SBNT 191700Z 12012KT 090V150 9999 FEW036 32/21 Q1008","temp":32,"dewp":21,"wdir":120,"wspd":12,"visib":"6+","altim":1008,"clouds":[{"cover":"FEW","base":3600}],"obsTime":1773939600},"SBPS":{"icaoId":"SBPS","flightCategory":"VFR","rawOb":"METAR SBPS 191700Z 07014KT 9999 SCT025 31/23 Q1008","temp":31,"dewp":23,"wdir":70,"wspd":14,"visib":"6+","altim":1008,"clouds":[{"cover":"SCT","base":2500}],"obsTime":1773939600},"SBPB":{"icaoId":"SBPB","flightCategory":"VFR","rawOb":"METAR SBPB 191700Z 06006KT 9999 SCT015 OVC070 27/25 Q1008","temp":27,"dewp":25,"wdir":60,"wspd":6,"visib":"6+","altim":1008,"clouds":[{"cover":"SCT","base":1500},{"cover":"OVC","base":7000}],"obsTime":1773939600},"SBSJ":{"icaoId":"SBSJ","flightCategory":"MVFR","rawOb":"METAR SBSJ 191700Z 06004KT 360V110 5000 HZ FEW033 BKN100 25/21 Q1011","temp":25,"dewp":21,"wdir":60,"wspd":4,"visib":3.11,"altim":1011,"clouds":[{"cover":"FEW","base":3300},{"cover":"BKN","base":10000}],"obsTime":1773939600},"SBPL":{"icaoId":"SBPL","flightCategory":"VFR","rawOb":"METAR SBPL 191700Z 15004KT 9999 FEW030 31/21 Q1009","temp":31,"dewp":21,"wdir":150,"wspd":4,"visib":"6+","altim":1009,"clouds":[{"cover":"FEW","base":3000}],"obsTime":1773939600},"SBCJ":{"icaoId":"SBCJ","flightCategory":"MVFR","rawOb":"METAR SBCJ 191700Z 14006KT 9999 BKN013 25/21 Q1014","temp":25,"dewp":21,"wdir":140,"wspd":6,"visib":"6+","altim":1014,"clouds":[{"cover":"BKN","base":1300}],"obsTime":1773939600},"SBOI":{"icaoId":"SBOI","flightCategory":"MVFR","rawOb":"METAR SBOI 191700Z AUTO 36006KT 9999 -RA OVC022 26/24 Q1010","temp":26,"dewp":24,"wdir":360,"wspd":6,"visib":"6+","altim":1010,"clouds":[{"cover":"OVC","base":2200}],"obsTime":1773939600},"SBPP":{"icaoId":"SBPP","flightCategory":"VFR","rawOb":"METAR SBPP 191700Z 07006KT 9999 SCT025 28/21 Q1011","temp":28,"dewp":21,"wdir":70,"wspd":6,"visib":"6+","altim":1011,"clouds":[{"cover":"SCT","base":2500}],"obsTime":1773939600},"SBTT":{"icaoId":"SBTT","flightCategory":"VFR","rawOb":"METAR SBTT 191700Z 22003KT 9999 FEW015 28/22 Q1011","temp":28,"dewp":22,"wdir":220,"wspd":3,"visib":"6+","altim":1011,"clouds":[{"cover":"FEW","base":1500}],"obsTime":1773939600},"SBAR":{"icaoId":"SBAR","flightCategory":"VFR","rawOb":"METAR SBAR 191700Z 11012KT 9999 FEW020 31/23 Q1008","temp":31,"dewp":23,"wdir":110,"wspd":12,"visib":"6+","altim":1008,"clouds":[{"cover":"FEW","base":2000}],"obsTime":1773939600},"SBUY":{"icaoId":"SBUY","flightCategory":"VFR","rawOb":"METAR SBUY 191700Z 12004KT 9999 SCT020 26/23 Q1009","temp":26,"dewp":23,"wdir":120,"wspd":4,"visib":"6+","altim":1009,"clouds":[{"cover":"SCT","base":2000}],"obsTime":1773939600},"SBBQ":{"icaoId":"SBBQ","flightCategory":"IFR","rawOb":"METAR SBBQ 191700Z 31009G22KT 4000 -RA BKN030 FEW035TCU BKN090 21/19 Q1015","temp":21,"dewp":19,"wdir":310,"wspd":9,"visib":2.49,"altim":1015,"clouds":[{"cover":"BKN","base":3000},{"cover":"FEW","base":3500},{"cover":"BKN","base":9000}],"obsTime":1773939600},"SBES":{"icaoId":"SBES","flightCategory":"VFR","rawOb":"METAR SBES 191700Z 09008KT 360V110 9999 SCT015 BKN100 27/// Q1007","temp":null,"dewp":null,"wdir":90,"wspd":8,"visib":"6+","altim":1007,"clouds":[{"cover":"SCT","base":1500},{"cover":"BKN","base":10000}],"obsTime":1773939600},"SBGM":{"icaoId":"SBGM","flightCategory":"MVFR","rawOb":"METAR SBGM 191700Z 27005KT 230V320 9999 BKN029 32/18 Q1009","temp":32,"dewp":18,"wdir":270,"wspd":5,"visib":"6+","altim":1009,"clouds":[{"cover":"BKN","base":2900}],"obsTime":1773939600},"SBIP":{"icaoId":"SBIP","flightCategory":"VFR","rawOb":"METAR SBIP 191700Z AUTO 20008KT 9999 FEW019 SCT034 28/23 Q1008","temp":28,"dewp":23,"wdir":200,"wspd":8,"visib":"6+","altim":1008,"clouds":[{"cover":"FEW","base":1900},{"cover":"SCT","base":3400}],"obsTime":1773939600},"SBKG":{"icaoId":"SBKG","flightCategory":"VFR","rawOb":"METAR SBKG 191700Z 12006KT 080V180 9999 FEW025 30/19 Q1010","temp":30,"dewp":19,"wdir":120,"wspd":6,"visib":"6+","altim":1010,"clouds":[{"cover":"FEW","base":2500}],"obsTime":1773939600},"SBSC":{"icaoId":"SBSC","flightCategory":"VFR","rawOb":"METAR SBSC 191700Z 22009KT 9999 FEW018 SCT030 28/23 Q1007","temp":28,"dewp":23,"wdir":220,"wspd":9,"visib":"6+","altim":1007,"clouds":[{"cover":"FEW","base":1800},{"cover":"SCT","base":3000}],"obsTime":1773939600},"SBSM":{"icaoId":"SBSM","flightCategory":"MVFR","rawOb":"METAR SBSM 191700Z 10005KT 050V170 9999 BKN023 26/20 Q1010","temp":26,"dewp":20,"wdir":100,"wspd":5,"visib":"6+","altim":1010,"clouds":[{"cover":"BKN","base":2300}],"obsTime":1773939600},"SBSR":{"icaoId":"SBSR","flightCategory":"VFR","rawOb":"METAR SBSR 191700Z VRB02KT 9999 SCT025 FEW035TCU SCT090 28/21 Q1008","temp":28,"dewp":21,"wdir":"VRB","wspd":2,"visib":"6+","altim":1008,"clouds":[{"cover":"SCT","base":2500},{"cover":"FEW","base":3500},{"cover":"SCT","base":9000}],"obsTime":1773939600},"SBTF":{"icaoId":"SBTF","flightCategory":"VFR","rawOb":"METAR SBTF 191700Z 16009KT 9999 FEW013 SCT100 28/24 Q1010","temp":28,"dewp":24,"wdir":160,"wspd":9,"visib":"6+","altim":1010,"clouds":[{"cover":"FEW","base":1300},{"cover":"SCT","base":10000}],"obsTime":1773939600},"SBVH":{"icaoId":"SBVH","flightCategory":"IFR","rawOb":"METAR SBVH 191700Z 33005KT 3000 -RA SCT012 BKN025 FEW035TCU OVC070 23/22 Q1011 RERA","temp":23,"dewp":22,"wdir":330,"wspd":5,"visib":1.86,"altim":1011,"clouds":[{"cover":"SCT","base":1200},{"cover":"BKN","base":2500},{"cover":"FEW","base":3500},{"cover":"OVC","base":7000}],"obsTime":1773939600},"SBAU":{"icaoId":"SBAU","flightCategory":"VFR","rawOb":"METAR SBAU 191700Z 18004KT 9999 SCT030 33/22 Q1008","temp":33,"dewp":22,"wdir":180,"wspd":4,"visib":"6+","altim":1008,"clouds":[{"cover":"SCT","base":3000}],"obsTime":1773939600},"SBAX":{"icaoId":"SBAX","flightCategory":"VFR","rawOb":"METAR SBAX 191700Z AUTO 33008KT 300V360 CAVOK 27/18 Q1012","temp":27,"dewp":18,"wdir":330,"wspd":8,"visib":"6+","altim":1012,"clouds":[],"obsTime":1773939600},"SBBH":{"icaoId":"SBBH","flightCategory":"VFR","rawOb":"METAR SBBH 191700Z 07003KT 9999 SCT030 25/20 Q1012","temp":25,"dewp":20,"wdir":70,"wspd":3,"visib":"6+","altim":1012,"clouds":[{"cover":"SCT","base":3000}],"obsTime":1773939600},"SBBU":{"icaoId":"SBBU","flightCategory":"VFR","rawOb":"METAR SBBU 191700Z 02005KT 9999 BKN035 30/23 Q1009","temp":30,"dewp":23,"wdir":20,"wspd":5,"visib":"6+","altim":1009,"clouds":[{"cover":"BKN","base":3500}],"obsTime":1773939600},"SBCA":{"icaoId":"SBCA","flightCategory":"MVFR","rawOb":"METAR SBCA 191700Z 35006KT 9999 BKN020 FEW025TCU 31/20 Q1011","temp":31,"dewp":20,"wdir":350,"wspd":6,"visib":"6+","altim":1011,"clouds":[{"cover":"BKN","base":2000},{"cover":"FEW","base":2500}],"obsTime":1773939600},"SBCC":{"icaoId":"SBCC","flightCategory":"MVFR","rawOb":"METAR SBCC 191700Z 18005KT 9999 BKN025 BKN080 24/22 Q1011 RERA","temp":24,"dewp":22,"wdir":180,"wspd":5,"visib":"6+","altim":1011,"clouds":[{"cover":"BKN","base":2500},{"cover":"BKN","base":8000}],"obsTime":1773939600},"SBCO":{"icaoId":"SBCO","flightCategory":"MVFR","rawOb":"METAR SBCO 191700Z 14011KT 9999 BKN023 SCT030 27/22 Q1009","temp":27,"dewp":22,"wdir":140,"wspd":11,"visib":"6+","altim":1009,"clouds":[{"cover":"BKN","base":2300},{"cover":"SCT","base":3000}],"obsTime":1773939600},"SBDN":{"icaoId":"SBDN","flightCategory":"VFR","rawOb":"METAR SBDN 191700Z 19007KT 9999 VCSH BKN035 FEW050TCU 29/22 Q1008","temp":29,"dewp":22,"wdir":190,"wspd":7,"visib":"6+","altim":1008,"clouds":[{"cover":"BKN","base":3500},{"cover":"FEW","base":5000}],"obsTime":1773939600},"SBJP":{"icaoId":"SBJP","flightCategory":"VFR","rawOb":"METAR SBJP 191700Z 11010KT 9999 SCT030 31/22 Q1008","temp":31,"dewp":22,"wdir":110,"wspd":10,"visib":"6+","altim":1008,"clouds":[{"cover":"SCT","base":3000}],"obsTime":1773939600},"SBAN":{"icaoId":"SBAN","flightCategory":"VFR","rawOb":"METAR SBAN 191700Z VRB05KT 9999 BKN035 FEW040TCU 28/18 Q1015","temp":28,"dewp":18,"wdir":"VRB","wspd":5,"visib":"6+","altim":1015,"clouds":[{"cover":"BKN","base":3500},{"cover":"FEW","base":4000}],"obsTime":1773939600},"SBGW":{"icaoId":"SBGW","flightCategory":"MVFR","rawOb":"METAR SBGW 191700Z VRB02KT 5000 HZ BKN015 BKN022 26/18 Q1010","temp":26,"dewp":18,"wdir":"VRB","wspd":2,"visib":3.11,"altim":1010,"clouds":[{"cover":"BKN","base":1500},{"cover":"BKN","base":2200}],"obsTime":1773939600},"SBIH":{"icaoId":"SBIH","flightCategory":"VFR","rawOb":"METAR SBIH 191700Z 06003KT 9999 FEW008 SCT080 25/24 Q1009","temp":25,"dewp":24,"wdir":60,"wspd":3,"visib":"6+","altim":1009,"clouds":[{"cover":"FEW","base":800},{"cover":"SCT","base":8000}],"obsTime":1773939600},"SBJR":{"icaoId":"SBJR","flightCategory":"VFR","rawOb":"METAR SBJR 191700Z 17007KT 9000 FEW020 BKN100 29/23 Q1007","temp":29,"dewp":23,"wdir":170,"wspd":7,"visib":5.59,"altim":1007,"clouds":[{"cover":"FEW","base":2000},{"cover":"BKN","base":10000}],"obsTime":1773939600},"SBJV":{"icaoId":"SBJV","flightCategory":"VFR","rawOb":"METAR SBJV 191700Z 12010KT 9999 SCT030 30/24 Q1007","temp":30,"dewp":24,"wdir":120,"wspd":10,"visib":"6+","altim":1007,"clouds":[{"cover":"SCT","base":3000}],"obsTime":1773939600},"SBLE":{"icaoId":"SBLE","flightCategory":"VFR","rawOb":"METAR SBLE 191700Z AUTO 07006KT 030V150 CAVOK 31/19 Q1011","temp":31,"dewp":19,"wdir":70,"wspd":6,"visib":"6+","altim":1011,"clouds":[],"obsTime":1773939600},"SBLS":{"icaoId":"SBLS","flightCategory":"VFR","rawOb":"METAR SBLS 191700Z 18006KT 9999 TS FEW015 SCT030 FEW035CB 24/21 Q1012","temp":24,"dewp":21,"wdir":180,"wspd":6,"visib":"6+","altim":1012,"clouds":[{"cover":"FEW","base":1500},{"cover":"SCT","base":3000},{"cover":"FEW","base":3500}],"obsTime":1773939600},"SBMT":{"icaoId":"SBMT","flightCategory":"MVFR","rawOb":"METAR SBMT 191700Z 11004KT 7000 SCT020 FEW040TCU BKN080 24/21 Q1011 RERA","temp":24,"dewp":21,"wdir":110,"wspd":4,"visib":4.35,"altim":1011,"clouds":[{"cover":"SCT","base":2000},{"cover":"FEW","base":4000},{"cover":"BKN","base":8000}],"obsTime":1773939600},"SBPF":{"icaoId":"SBPF","flightCategory":"VFR","rawOb":"METAR SBPF 191700Z 21008KT CAVOK 27/20 Q1011","temp":27,"dewp":20,"wdir":210,"wspd":8,"visib":"6+","altim":1011,"clouds":[],"obsTime":1773939600},"SBST":{"icaoId":"SBST","flightCategory":"IFR","rawOb":"METAR SBST 191700Z 24003KT 3000 -RA BR OVC030 25/24 Q1008","temp":25,"dewp":24,"wdir":240,"wspd":3,"visib":1.86,"altim":1008,"clouds":[{"cover":"OVC","base":3000}],"obsTime":1773939600},"SBAF":{"icaoId":"SBAF","flightCategory":"MVFR","rawOb":" SBAF 191700Z 19009KT 7000 FEW010 SCT032 BKN100 28/24 Q1007","temp":28,"dewp":24,"wdir":190,"wspd":9,"visib":4.35,"altim":1007,"clouds":[{"cover":"FEW","base":1000},{"cover":"SCT","base":3200},{"cover":"BKN","base":10000}],"obsTime":1773939600},"SBTA":{"icaoId":"SBTA","flightCategory":"MVFR","rawOb":" SBTA 191700Z VRB03KT 5000 BR FEW009 SCT012 BKN090 25/24 Q1010","temp":25,"dewp":24,"wdir":"VRB","wspd":3,"visib":3.11,"altim":1010,"clouds":[{"cover":"FEW","base":900},{"cover":"SCT","base":1200},{"cover":"BKN","base":9000}],"obsTime":1773939600}}}