{"updated":1777804886,"count":71,"data":{"SBGL":{"icaoId":"SBGL","flightCategory":"MVFR","rawOb":"METAR SBGL 030900Z 20001KT 9999 BKN020 BKN070 23/21 Q1017","temp":23,"dewp":21,"wdir":200,"wspd":1,"visib":"6+","altim":1017,"clouds":[{"cover":"BKN","base":2000},{"cover":"BKN","base":7000}],"obsTime":1777798800},"SBCT":{"icaoId":"SBCT","flightCategory":"LIFR","rawOb":"METAR SBCT 030900Z 12005KT 2500 BR BKN003 BKN009 15/15 Q1022","temp":15,"dewp":15,"wdir":120,"wspd":5,"visib":1.55,"altim":1022,"clouds":[{"cover":"BKN","base":300},{"cover":"BKN","base":900}],"obsTime":1777798800},"SBGR":{"icaoId":"SBGR","flightCategory":"MVFR","rawOb":"METAR SBGR 030900Z 14003KT 9999 SCT008 OVC011 18/17 Q1021","temp":18,"dewp":17,"wdir":140,"wspd":3,"visib":"6+","altim":1021,"clouds":[{"cover":"SCT","base":800},{"cover":"OVC","base":1100}],"obsTime":1777798800},"SBBE":{"icaoId":"SBBE","flightCategory":"VFR","rawOb":"METAR SBBE 030900Z 03001KT 9999 SCT010 BKN100 24/24 Q1011","temp":24,"dewp":24,"wdir":30,"wspd":1,"visib":"6+","altim":1011,"clouds":[{"cover":"SCT","base":1000},{"cover":"BKN","base":10000}],"obsTime":1777798800},"SBBR":{"icaoId":"SBBR","flightCategory":"VFR","rawOb":"METAR SBBR 030900Z 30001KT CAVOK 20/17 Q1021","temp":20,"dewp":17,"wdir":300,"wspd":1,"visib":"6+","altim":1021,"clouds":[],"obsTime":1777798800},"SBBV":{"icaoId":"SBBV","flightCategory":"VFR","rawOb":"METAR SBBV 030900Z 10009KT 9999 FEW020 FEW035TCU BKN080 25/24 Q1012","temp":25,"dewp":24,"wdir":100,"wspd":9,"visib":"6+","altim":1012,"clouds":[{"cover":"FEW","base":2000},{"cover":"FEW","base":3500},{"cover":"BKN","base":8000}],"obsTime":1777798800},"SBCB":{"icaoId":"SBCB","flightCategory":"MVFR","rawOb":"METAR SBCB 030900Z 26011KT 8000 FEW008 SCT015 BKN040 24/21 Q1016","temp":24,"dewp":21,"wdir":260,"wspd":11,"visib":4.97,"altim":1016,"clouds":[{"cover":"FEW","base":800},{"cover":"SCT","base":1500},{"cover":"BKN","base":4000}],"obsTime":1777798800},"SBCF":{"icaoId":"SBCF","flightCategory":"VFR","rawOb":"METAR SBCF 030900Z VRB02KT 9999 BCFG NSC 16/16 Q1020","temp":16,"dewp":16,"wdir":"VRB","wspd":2,"visib":"6+","altim":1020,"clouds":[],"obsTime":1777798800},"SBCG":{"icaoId":"SBCG","flightCategory":"VFR","rawOb":"METAR SBCG 030900Z 07011KT CAVOK 21/15 Q1017","temp":21,"dewp":15,"wdir":70,"wspd":11,"visib":"6+","altim":1017,"clouds":[],"obsTime":1777798800},"SBCP":{"icaoId":"SBCP","flightCategory":"VFR","rawOb":"METAR SBCP 031000Z 22007KT 9999 SCT040 SCT100 24/21 Q1016","temp":24,"dewp":21,"wdir":220,"wspd":7,"visib":"6+","altim":1016,"clouds":[{"cover":"SCT","base":4000},{"cover":"SCT","base":10000}],"obsTime":1777802400},"SBEG":{"icaoId":"SBEG","flightCategory":"VFR","rawOb":"METAR SBEG 030900Z 19004KT 9999 FEW025 SCT035 BKN070 25/24 Q1011","temp":25,"dewp":24,"wdir":190,"wspd":4,"visib":"6+","altim":1011,"clouds":[{"cover":"FEW","base":2500},{"cover":"SCT","base":3500},{"cover":"BKN","base":7000}],"obsTime":1777798800},"SBFI":{"icaoId":"SBFI","flightCategory":"VFR","rawOb":"METAR SBFI 030900Z 18003KT 9999 FEW020 16/16 Q1018","temp":16,"dewp":16,"wdir":180,"wspd":3,"visib":"6+","altim":1018,"clouds":[{"cover":"FEW","base":2000}],"obsTime":1777798800},"SBFL":{"icaoId":"SBFL","flightCategory":"VFR","rawOb":"METAR SBFL 030900Z 15007KT 120V280 CAVOK 16/09 Q1022","temp":16,"dewp":9,"wdir":150,"wspd":7,"visib":"6+","altim":1022,"clouds":[],"obsTime":1777798800},"SBFZ":{"icaoId":"SBFZ","flightCategory":"VFR","rawOb":"METAR SBFZ 030900Z 17007KT 9999 FEW005 SCT017 BKN070 24/23 Q1012","temp":24,"dewp":23,"wdir":170,"wspd":7,"visib":"6+","altim":1012,"clouds":[{"cover":"FEW","base":500},{"cover":"SCT","base":1700},{"cover":"BKN","base":7000}],"obsTime":1777798800},"SBGO":{"icaoId":"SBGO","flightCategory":"VFR","rawOb":"METAR SBGO 030900Z 30002KT CAVOK 19/17 Q1019","temp":19,"dewp":17,"wdir":300,"wspd":2,"visib":"6+","altim":1019,"clouds":[],"obsTime":1777798800},"SBHT":{"icaoId":"SBHT","flightCategory":"MVFR","rawOb":"METAR SBHT 031000Z 00000KT 9999 FEW010 BKN015 BKN080 26/25 Q1012","temp":26,"dewp":25,"wdir":0,"wspd":0,"visib":"6+","altim":1012,"clouds":[{"cover":"FEW","base":1000},{"cover":"BKN","base":1500},{"cover":"BKN","base":8000}],"obsTime":1777802400},"SBIL":{"icaoId":"SBIL","flightCategory":"VFR","rawOb":"METAR SBIL 030900Z 29005KT 9999 FEW020 BKN070 24/24 Q1016","temp":24,"dewp":24,"wdir":290,"wspd":5,"visib":"6+","altim":1016,"clouds":[{"cover":"FEW","base":2000},{"cover":"BKN","base":7000}],"obsTime":1777798800},"SBJU":{"icaoId":"SBJU","flightCategory":"VFR","rawOb":"METAR SBJU 030900Z 00000KT 9999 FEW011 SCT018 BKN070 23/21 Q1015","temp":23,"dewp":21,"wdir":0,"wspd":0,"visib":"6+","altim":1015,"clouds":[{"cover":"FEW","base":1100},{"cover":"SCT","base":1800},{"cover":"BKN","base":7000}],"obsTime":1777798800},"SBKP":{"icaoId":"SBKP","flightCategory":"VFR","rawOb":"METAR SBKP 030900Z 12006KT CAVOK 18/16 Q1020","temp":18,"dewp":16,"wdir":120,"wspd":6,"visib":"6+","altim":1020,"clouds":[],"obsTime":1777798800},"SBLO":{"icaoId":"SBLO","flightCategory":"VFR","rawOb":"METAR SBLO 030900Z 19004KT CAVOK 17/16 Q1018","temp":17,"dewp":16,"wdir":190,"wspd":4,"visib":"6+","altim":1018,"clouds":[],"obsTime":1777798800},"SBMA":{"icaoId":"SBMA","flightCategory":"VFR","rawOb":"METAR SBMA 030900Z 00000KT 9999 FEW012 BKN100 24/24 Q1011","temp":24,"dewp":24,"wdir":0,"wspd":0,"visib":"6+","altim":1011,"clouds":[{"cover":"FEW","base":1200},{"cover":"BKN","base":10000}],"obsTime":1777798800},"SBME":{"icaoId":"SBME","flightCategory":"VFR","rawOb":"METAR SBME 030900Z 24009KT CAVOK 25/20 Q1015","temp":25,"dewp":20,"wdir":240,"wspd":9,"visib":"6+","altim":1015,"clouds":[],"obsTime":1777798800},"SBMG":{"icaoId":"SBMG","flightCategory":"LIFR","rawOb":"METAR SBMG 030900Z AUTO VRB02KT 0550 R10/0650U FG VV001 16/16 Q1017","temp":16,"dewp":16,"wdir":"VRB","wspd":2,"visib":0.34,"altim":1017,"clouds":[{"cover":"OVX","base":100}],"obsTime":1777798800},"SBMK":{"icaoId":"SBMK","flightCategory":"VFR","rawOb":"METAR SBMK 030900Z 00000KT CAVOK 18/17 Q1019","temp":18,"dewp":17,"wdir":0,"wspd":0,"visib":"6+","altim":1019,"clouds":[],"obsTime":1777798800},"SBMO":{"icaoId":"SBMO","flightCategory":"VFR","rawOb":"METAR SBMO 030900Z 28004KT 9999 FEW020 23/22 Q1014","temp":23,"dewp":22,"wdir":280,"wspd":4,"visib":"6+","altim":1014,"clouds":[{"cover":"FEW","base":2000}],"obsTime":1777798800},"SBMQ":{"icaoId":"SBMQ","flightCategory":"MVFR","rawOb":"METAR SBMQ 030900Z 36006KT 9999 -RA SCT006 BKN030 OVC100 25/25 Q1011","temp":25,"dewp":25,"wdir":360,"wspd":6,"visib":"6+","altim":1011,"clouds":[{"cover":"SCT","base":600},{"cover":"BKN","base":3000},{"cover":"OVC","base":10000}],"obsTime":1777798800},"SBNT":{"icaoId":"SBNT","flightCategory":"VFR","rawOb":"METAR SBNT 030900Z 16004KT 9999 SCT018 BKN100 24/23 Q1012","temp":24,"dewp":23,"wdir":160,"wspd":4,"visib":"6+","altim":1012,"clouds":[{"cover":"SCT","base":1800},{"cover":"BKN","base":10000}],"obsTime":1777798800},"SBPA":{"icaoId":"SBPA","flightCategory":"VFR","rawOb":"METAR SBPA 030900Z 22006KT CAVOK 11/05 Q1024","temp":11,"dewp":5,"wdir":220,"wspd":6,"visib":"6+","altim":1024,"clouds":[],"obsTime":1777798800},"SBPJ":{"icaoId":"SBPJ","flightCategory":"VFR","rawOb":"METAR SBPJ 030900Z 15004KT CAVOK 24/21 Q1013","temp":24,"dewp":21,"wdir":150,"wspd":4,"visib":"6+","altim":1013,"clouds":[],"obsTime":1777798800},"SBPV":{"icaoId":"SBPV","flightCategory":"VFR","rawOb":"METAR SBPV 030900Z 14002KT CAVOK 25/23 Q1011","temp":25,"dewp":23,"wdir":140,"wspd":2,"visib":"6+","altim":1011,"clouds":[],"obsTime":1777798800},"SBRB":{"icaoId":"SBRB","flightCategory":"VFR","rawOb":"METAR SBRB 030900Z 19001KT 9999 SCT002 24/23 Q1012","temp":24,"dewp":23,"wdir":190,"wspd":1,"visib":"6+","altim":1012,"clouds":[{"cover":"SCT","base":200}],"obsTime":1777798800},"SBRF":{"icaoId":"SBRF","flightCategory":"VFR","rawOb":"METAR SBRF 030900Z 23004KT 9999 SCT023 24/23 Q1013","temp":24,"dewp":23,"wdir":230,"wspd":4,"visib":"6+","altim":1013,"clouds":[{"cover":"SCT","base":2300}],"obsTime":1777798800},"SBSG":{"icaoId":"SBSG","flightCategory":"VFR","rawOb":"METAR SBSG 030900Z 18003KT 140V210 9999 FEW020 BKN050 24/23 Q1013","temp":24,"dewp":23,"wdir":180,"wspd":3,"visib":"6+","altim":1013,"clouds":[{"cover":"FEW","base":2000},{"cover":"BKN","base":5000}],"obsTime":1777798800},"SBSL":{"icaoId":"SBSL","flightCategory":"MVFR","rawOb":"METAR SBSL 030900Z 15004KT 110V190 5000 -RA BR SCT010 BKN014 FEW025TCU 24/23 Q1012 RERA","temp":24,"dewp":23,"wdir":150,"wspd":4,"visib":3.11,"altim":1012,"clouds":[{"cover":"SCT","base":1000},{"cover":"BKN","base":1400},{"cover":"FEW","base":2500}],"obsTime":1777798800},"SBSN":{"icaoId":"SBSN","flightCategory":"MVFR","rawOb":"METAR SBSN 030900Z 12002KT 5000 RA SCT008 SCT019 OVC100 25/24 Q1011 RETS","temp":25,"dewp":24,"wdir":120,"wspd":2,"visib":3.11,"altim":1011,"clouds":[{"cover":"SCT","base":800},{"cover":"SCT","base":1900},{"cover":"OVC","base":10000}],"obsTime":1777798800},"SBSP":{"icaoId":"SBSP","flightCategory":"IFR","rawOb":"METAR SBSP 030900Z 15006KT 4000 -DZ BKN006 18/17 Q1022","temp":18,"dewp":17,"wdir":150,"wspd":6,"visib":2.49,"altim":1022,"clouds":[{"cover":"BKN","base":600}],"obsTime":1777798800},"SBSV":{"icaoId":"SBSV","flightCategory":"VFR","rawOb":"METAR SBSV 030900Z 15004KT 120V200 9999 FEW025 26/22 Q1014","temp":26,"dewp":22,"wdir":150,"wspd":4,"visib":"6+","altim":1014,"clouds":[{"cover":"FEW","base":2500}],"obsTime":1777798800},"SBTE":{"icaoId":"SBTE","flightCategory":"VFR","rawOb":"METAR SBTE 030900Z 12003KT 9999 SCT014 BKN100 26/24 Q1011","temp":26,"dewp":24,"wdir":120,"wspd":3,"visib":"6+","altim":1011,"clouds":[{"cover":"SCT","base":1400},{"cover":"BKN","base":10000}],"obsTime":1777798800},"SBUL":{"icaoId":"SBUL","flightCategory":"VFR","rawOb":"METAR SBUL 030900Z 15008KT CAVOK 19/14 Q1020","temp":19,"dewp":14,"wdir":150,"wspd":8,"visib":"6+","altim":1020,"clouds":[],"obsTime":1777798800},"SBUR":{"icaoId":"SBUR","flightCategory":"VFR","rawOb":"METAR SBUR 030900Z 03005KT CAVOK 19/14 Q1018","temp":19,"dewp":14,"wdir":30,"wspd":5,"visib":"6+","altim":1018,"clouds":[],"obsTime":1777798800},"SBVT":{"icaoId":"SBVT","flightCategory":"VFR","rawOb":"METAR SBVT 030900Z 21004KT CAVOK 21/20 Q1015","temp":21,"dewp":20,"wdir":210,"wspd":4,"visib":"6+","altim":1015,"clouds":[],"obsTime":1777798800},"SBCJ":{"icaoId":"SBCJ","flightCategory":"MVFR","rawOb":"SPECI SBCJ 031015Z 00000KT 9999 BKN017 23/22 Q1017","temp":23,"dewp":22,"wdir":0,"wspd":0,"visib":"6+","altim":1017,"clouds":[{"cover":"BKN","base":1700}],"obsTime":1777803300},"SBTF":{"icaoId":"SBTF","flightCategory":"VFR","rawOb":"METAR SBTF 031000Z 16002KT 9999 FEW010 BKN090 25/25 Q1010","temp":25,"dewp":25,"wdir":160,"wspd":2,"visib":"6+","altim":1010,"clouds":[{"cover":"FEW","base":1000},{"cover":"BKN","base":9000}],"obsTime":1777802400},"SBAX":{"icaoId":"SBAX","flightCategory":"VFR","rawOb":"METAR SBAX 030900Z AUTO 05004KT CAVOK 16/15 Q1020","temp":16,"dewp":15,"wdir":50,"wspd":4,"visib":"6+","altim":1020,"clouds":[],"obsTime":1777798800},"SBBH":{"icaoId":"SBBH","flightCategory":"VFR","rawOb":"METAR SBBH 030900Z 11003KT CAVOK 17/15 Q1019","temp":17,"dewp":15,"wdir":110,"wspd":3,"visib":"6+","altim":1019,"clouds":[],"obsTime":1777798800},"SBBU":{"icaoId":"SBBU","flightCategory":"VFR","rawOb":"METAR SBBU 030900Z 12007KT CAVOK 19/15 Q1019","temp":19,"dewp":15,"wdir":120,"wspd":7,"visib":"6+","altim":1019,"clouds":[],"obsTime":1777798800},"SBCO":{"icaoId":"SBCO","flightCategory":"VFR","rawOb":"METAR SBCO 030900Z 22005KT CAVOK 10/05 Q1024","temp":10,"dewp":5,"wdir":220,"wspd":5,"visib":"6+","altim":1024,"clouds":[],"obsTime":1777798800},"SBDN":{"icaoId":"SBDN","flightCategory":"VFR","rawOb":"METAR SBDN 030900Z 13001KT CAVOK 18/15 Q1017","temp":18,"dewp":15,"wdir":130,"wspd":1,"visib":"6+","altim":1017,"clouds":[],"obsTime":1777798800},"SBES":{"icaoId":"SBES","flightCategory":"MVFR","rawOb":"METAR SBES 030900Z VRB06KT 5000 -RA BR FEW010 BKN040 21/// Q1017","temp":null,"dewp":null,"wdir":"VRB","wspd":6,"visib":3.11,"altim":1017,"clouds":[{"cover":"FEW","base":1000},{"cover":"BKN","base":4000}],"obsTime":1777798800},"SBIP":{"icaoId":"SBIP","flightCategory":"LIFR","rawOb":"METAR SBIP 030900Z AUTO 18003KT 0900 FG VV001 19/19 Q1017","temp":19,"dewp":19,"wdir":180,"wspd":3,"visib":0.56,"altim":1017,"clouds":[{"cover":"OVX","base":100}],"obsTime":1777798800},"SBKG":{"icaoId":"SBKG","flightCategory":"VFR","rawOb":"METAR SBKG 030900Z 15003KT 9999 FEW006 21/20 Q1016","temp":21,"dewp":20,"wdir":150,"wspd":3,"visib":"6+","altim":1016,"clouds":[{"cover":"FEW","base":600}],"obsTime":1777798800},"SBPL":{"icaoId":"SBPL","flightCategory":"VFR","rawOb":"METAR SBPL 030900Z 11010KT 9999 FEW025 23/20 Q1015","temp":23,"dewp":20,"wdir":110,"wspd":10,"visib":"6+","altim":1015,"clouds":[{"cover":"FEW","base":2500}],"obsTime":1777798800},"SBPS":{"icaoId":"SBPS","flightCategory":"VFR","rawOb":"METAR SBPS 030900Z 28004KT 9999 SCT020 22/22 Q1015","temp":22,"dewp":22,"wdir":280,"wspd":4,"visib":"6+","altim":1015,"clouds":[{"cover":"SCT","base":2000}],"obsTime":1777798800},"SBSC":{"icaoId":"SBSC","flightCategory":"MVFR","rawOb":"METAR SBSC 030900Z 24005KT 8000 FEW020 SCT045 23/21 Q1017","temp":23,"dewp":21,"wdir":240,"wspd":5,"visib":4.97,"altim":1017,"clouds":[{"cover":"FEW","base":2000},{"cover":"SCT","base":4500}],"obsTime":1777798800},"SBSJ":{"icaoId":"SBSJ","flightCategory":"MVFR","rawOb":"METAR SBSJ 030900Z 19002KT 7000 OVC020 18/16 Q1021","temp":18,"dewp":16,"wdir":190,"wspd":2,"visib":4.35,"altim":1021,"clouds":[{"cover":"OVC","base":2000}],"obsTime":1777798800},"SBSM":{"icaoId":"SBSM","flightCategory":"VFR","rawOb":"METAR SBSM 030900Z 00000KT 9999 MIFG NSC 05/05 Q1024","temp":5,"dewp":5,"wdir":0,"wspd":0,"visib":"6+","altim":1024,"clouds":[],"obsTime":1777798800},"SBSR":{"icaoId":"SBSR","flightCategory":"VFR","rawOb":"METAR SBSR 030900Z 08004KT CAVOK 20/14 Q1018","temp":20,"dewp":14,"wdir":80,"wspd":4,"visib":"6+","altim":1018,"clouds":[],"obsTime":1777798800},"SBAR":{"icaoId":"SBAR","flightCategory":"VFR","rawOb":"METAR SBAR 030900Z 21002KT 9999 SCT025 BKN050 24/23 Q1013","temp":24,"dewp":23,"wdir":210,"wspd":2,"visib":"6+","altim":1013,"clouds":[{"cover":"SCT","base":2500},{"cover":"BKN","base":5000}],"obsTime":1777798800},"SBPB":{"icaoId":"SBPB","flightCategory":"MVFR","rawOb":"SPECI SBPB 030915Z 07008KT 9999 BKN016 BKN080 26/24 Q1013","temp":26,"dewp":24,"wdir":70,"wspd":8,"visib":"6+","altim":1013,"clouds":[{"cover":"BKN","base":1600},{"cover":"BKN","base":8000}],"obsTime":1777799700},"SBOI":{"icaoId":"SBOI","flightCategory":"MVFR","rawOb":"METAR SBOI 030900Z AUTO 00000KT 9999 // BKN019/// 25/24 Q1012","temp":25,"dewp":24,"wdir":0,"wspd":0,"visib":"6+","altim":1012,"clouds":[{"cover":"BKN","base":1900}],"obsTime":1777798800},"SBJP":{"icaoId":"SBJP","flightCategory":"MVFR","rawOb":"METAR SBJP 030900Z 19003KT 9999 BKN020 BKN070 24/24 Q1013","temp":24,"dewp":24,"wdir":190,"wspd":3,"visib":"6+","altim":1013,"clouds":[{"cover":"BKN","base":2000},{"cover":"BKN","base":7000}],"obsTime":1777798800},"SBLE":{"icaoId":"SBLE","flightCategory":"LIFR","rawOb":"METAR SBLE 030900Z AUTO 18003KT 130V290 9999 OVC002 ///// Q////","temp":null,"dewp":null,"wdir":180,"wspd":3,"visib":"6+","altim":null,"clouds":[{"cover":"OVC","base":200}],"obsTime":1777798800},"SBAN":{"icaoId":"SBAN","flightCategory":"VFR","rawOb":"METAR SBAN 030900Z 19005KT CAVOK 18/15 Q1021","temp":18,"dewp":15,"wdir":190,"wspd":5,"visib":"6+","altim":1021,"clouds":[],"obsTime":1777798800},"SBJV":{"icaoId":"SBJV","flightCategory":"MVFR","rawOb":"METAR SBJV 030900Z 15006KT 9999 OVC020 20/17 Q1020","temp":20,"dewp":17,"wdir":150,"wspd":6,"visib":"6+","altim":1020,"clouds":[{"cover":"OVC","base":2000}],"obsTime":1777798800},"SBPF":{"icaoId":"SBPF","flightCategory":"VFR","rawOb":"METAR SBPF 030900Z 16008KT CAVOK 08/05 Q1023","temp":8,"dewp":5,"wdir":160,"wspd":8,"visib":"6+","altim":1023,"clouds":[],"obsTime":1777798800},"SBAF":{"icaoId":"SBAF","flightCategory":"IFR","rawOb":"METAR SBAF 031000Z 19010KT 3000 -RA BR BKN011 BKN015 23/23 Q1018","temp":23,"dewp":23,"wdir":190,"wspd":10,"visib":1.86,"altim":1018,"clouds":[{"cover":"BKN","base":1100},{"cover":"BKN","base":1500}],"obsTime":1777802400},"SBGW":{"icaoId":"SBGW","flightCategory":"MVFR","rawOb":"METAR SBGW 030900Z 21003KT 8000 FEW015 SCT070 18/14 Q1020","temp":18,"dewp":14,"wdir":210,"wspd":3,"visib":4.97,"altim":1020,"clouds":[{"cover":"FEW","base":1500},{"cover":"SCT","base":7000}],"obsTime":1777798800},"SBJR":{"icaoId":"SBJR","flightCategory":"MVFR","rawOb":"METAR SBJR 031000Z 20009KT 8000 BKN010 BKN030 OVC060 23/21 Q1018","temp":23,"dewp":21,"wdir":200,"wspd":9,"visib":4.97,"altim":1018,"clouds":[{"cover":"BKN","base":1000},{"cover":"BKN","base":3000},{"cover":"OVC","base":6000}],"obsTime":1777802400},"SBLS":{"icaoId":"SBLS","flightCategory":"VFR","rawOb":"METAR SBLS 030900Z 19004KT CAVOK 17/15 Q1019","temp":17,"dewp":15,"wdir":190,"wspd":4,"visib":"6+","altim":1019,"clouds":[],"obsTime":1777798800},"SBMT":{"icaoId":"SBMT","flightCategory":"MVFR","rawOb":"METAR SBMT 030900Z 11006KT 9999 FEW011 OVC013 18/16 Q1021","temp":18,"dewp":16,"wdir":110,"wspd":6,"visib":"6+","altim":1021,"clouds":[{"cover":"FEW","base":1100},{"cover":"OVC","base":1300}],"obsTime":1777798800},"SBTA":{"icaoId":"SBTA","flightCategory":"MVFR","rawOb":"METAR SBTA 030900Z 27003KT 8000 SCT015 BKN020 18/17 Q1020","temp":18,"dewp":17,"wdir":270,"wspd":3,"visib":4.97,"altim":1020,"clouds":[{"cover":"SCT","base":1500},{"cover":"BKN","base":2000}],"obsTime":1777798800}}}