{"updated":1782813870,"count":68,"data":{"SBBE":{"icaoId":"SBBE","flightCategory":"VFR","rawOb":"METAR SBBE 300900Z 14002KT CAVOK 24/24 Q1012","temp":24,"dewp":24,"wdir":140,"wspd":2,"visib":"6+","altim":1012,"clouds":[],"obsTime":1782810000},"SBSN":{"icaoId":"SBSN","flightCategory":"VFR","rawOb":"METAR SBSN 300900Z 18004KT 9999 SCT013 SCT080 BKN100 24/24 Q1011","temp":24,"dewp":24,"wdir":180,"wspd":4,"visib":"6+","altim":1011,"clouds":[{"cover":"SCT","base":1300},{"cover":"SCT","base":8000},{"cover":"BKN","base":10000}],"obsTime":1782810000},"SBCB":{"icaoId":"SBCB","flightCategory":"MVFR","rawOb":"METAR SBCB 300900Z 03002KT 7000 FEW015 20/18 Q1019","temp":20,"dewp":18,"wdir":30,"wspd":2,"visib":4.35,"altim":1019,"clouds":[{"cover":"FEW","base":1500}],"obsTime":1782810000},"SBGO":{"icaoId":"SBGO","flightCategory":"VFR","rawOb":"METAR SBGO 300900Z VRB01KT CAVOK 17/13 Q1020","temp":17,"dewp":13,"wdir":"VRB","wspd":1,"visib":"6+","altim":1020,"clouds":[],"obsTime":1782810000},"SBRF":{"icaoId":"SBRF","flightCategory":"VFR","rawOb":"METAR SBRF 300900Z 13010KT 9999 SCT023 26/21 Q1015","temp":26,"dewp":21,"wdir":130,"wspd":10,"visib":"6+","altim":1015,"clouds":[{"cover":"SCT","base":2300}],"obsTime":1782810000},"SBFI":{"icaoId":"SBFI","flightCategory":"LIFR","rawOb":"SPECI SBFI 300814Z 27001KT 0800 R15///// R33///// FG VV002 15/15 Q1016","temp":15,"dewp":15,"wdir":270,"wspd":1,"visib":0.5,"altim":1016,"clouds":[{"cover":"OVX","base":200}],"obsTime":1782807240},"SBSL":{"icaoId":"SBSL","flightCategory":"VFR","rawOb":"METAR SBSL 300900Z 07003KT 9999 FEW011 25/23 Q1011","temp":25,"dewp":23,"wdir":70,"wspd":3,"visib":"6+","altim":1011,"clouds":[{"cover":"FEW","base":1100}],"obsTime":1782810000},"SBGL":{"icaoId":"SBGL","flightCategory":"MVFR","rawOb":"METAR SBGL 300900Z 10003KT 080V140 5000 BR FEW007 19/18 Q1018","temp":19,"dewp":18,"wdir":100,"wspd":3,"visib":3.11,"altim":1018,"clouds":[{"cover":"FEW","base":700}],"obsTime":1782810000},"SBFZ":{"icaoId":"SBFZ","flightCategory":"VFR","rawOb":"METAR SBFZ 300900Z 17007KT 9999 FEW020 26/23 Q1012","temp":26,"dewp":23,"wdir":170,"wspd":7,"visib":"6+","altim":1012,"clouds":[{"cover":"FEW","base":2000}],"obsTime":1782810000},"SBMA":{"icaoId":"SBMA","flightCategory":"VFR","rawOb":"METAR SBMA 300900Z 32003KT CAVOK 26/23 Q1012","temp":26,"dewp":23,"wdir":320,"wspd":3,"visib":"6+","altim":1012,"clouds":[],"obsTime":1782810000},"SBCT":{"icaoId":"SBCT","flightCategory":"LIFR","rawOb":"METAR SBCT 300900Z 05005KT 0700 R15/1100 R33/1100 FG VV002 14/14 Q1019","temp":14,"dewp":14,"wdir":50,"wspd":5,"visib":0.43,"altim":1019,"clouds":[{"cover":"OVX","base":200}],"obsTime":1782810000},"SBCP":{"icaoId":"SBCP","flightCategory":"MVFR","rawOb":"METAR SBCP 301000Z 29004KT 9999 BKN015 BKN090 18/18 Q1020","temp":18,"dewp":18,"wdir":290,"wspd":4,"visib":"6+","altim":1020,"clouds":[{"cover":"BKN","base":1500},{"cover":"BKN","base":9000}],"obsTime":1782813600},"SBFL":{"icaoId":"SBFL","flightCategory":"MVFR","rawOb":"METAR SBFL 300900Z VRB02KT 9999 -RA OVC014 15/14 Q1017 RERA","temp":15,"dewp":14,"wdir":"VRB","wspd":2,"visib":"6+","altim":1017,"clouds":[{"cover":"OVC","base":1400}],"obsTime":1782810000},"SBSG":{"icaoId":"SBSG","flightCategory":"MVFR","rawOb":"METAR SBSG 300900Z 17003KT 140V200 8000 SCT025 23/22 Q1014","temp":23,"dewp":22,"wdir":170,"wspd":3,"visib":4.97,"altim":1014,"clouds":[{"cover":"SCT","base":2500}],"obsTime":1782810000},"SBGR":{"icaoId":"SBGR","flightCategory":"LIFR","rawOb":"METAR SBGR 300900Z 06010KT 5000 BR OVC004 16/16 Q1021","temp":16,"dewp":16,"wdir":60,"wspd":10,"visib":3.11,"altim":1021,"clouds":[{"cover":"OVC","base":400}],"obsTime":1782810000},"SBSV":{"icaoId":"SBSV","flightCategory":"VFR","rawOb":"METAR SBSV 300900Z 11007KT 090V150 9999 FEW023 SCT050 25/20 Q1017","temp":25,"dewp":20,"wdir":110,"wspd":7,"visib":"6+","altim":1017,"clouds":[{"cover":"FEW","base":2300},{"cover":"SCT","base":5000}],"obsTime":1782810000},"SBCF":{"icaoId":"SBCF","flightCategory":"VFR","rawOb":"METAR SBCF 300900Z 18003KT CAVOK 15/13 Q1023","temp":15,"dewp":13,"wdir":180,"wspd":3,"visib":"6+","altim":1023,"clouds":[],"obsTime":1782810000},"SBTE":{"icaoId":"SBTE","flightCategory":"VFR","rawOb":"METAR SBTE 300900Z 17009KT CAVOK 23/21 Q1013","temp":23,"dewp":21,"wdir":170,"wspd":9,"visib":"6+","altim":1013,"clouds":[],"obsTime":1782810000},"SBPA":{"icaoId":"SBPA","flightCategory":"MVFR","rawOb":"METAR SBPA 300900Z 17005KT 9999 SCT008 BKN020 12/11 Q1019","temp":12,"dewp":11,"wdir":170,"wspd":5,"visib":"6+","altim":1019,"clouds":[{"cover":"SCT","base":800},{"cover":"BKN","base":2000}],"obsTime":1782810000},"SBBV":{"icaoId":"SBBV","flightCategory":"MVFR","rawOb":"METAR SBBV 300900Z 29004KT 9999 SCT003 BKN015 FEW030TCU BKN100 24/24 Q1012","temp":24,"dewp":24,"wdir":290,"wspd":4,"visib":"6+","altim":1012,"clouds":[{"cover":"SCT","base":300},{"cover":"BKN","base":1500},{"cover":"FEW","base":3000},{"cover":"BKN","base":10000}],"obsTime":1782810000},"SBMO":{"icaoId":"SBMO","flightCategory":"VFR","rawOb":"METAR SBMO 300900Z 29003KT 9999 FEW030 20/20 Q1016","temp":20,"dewp":20,"wdir":290,"wspd":3,"visib":"6+","altim":1016,"clouds":[{"cover":"FEW","base":3000}],"obsTime":1782810000},"SBMQ":{"icaoId":"SBMQ","flightCategory":"VFR","rawOb":"METAR SBMQ 300900Z 10004KT 070V140 9999 SCT030 BKN083 26/24 Q1012","temp":26,"dewp":24,"wdir":100,"wspd":4,"visib":"6+","altim":1012,"clouds":[{"cover":"SCT","base":3000},{"cover":"BKN","base":8300}],"obsTime":1782810000},"SBLO":{"icaoId":"SBLO","flightCategory":"VFR","rawOb":"METAR SBLO 300900Z 00000KT 9999 SCT048 19/18 Q1017","temp":19,"dewp":18,"wdir":0,"wspd":0,"visib":"6+","altim":1017,"clouds":[{"cover":"SCT","base":4800}],"obsTime":1782810000},"SBKP":{"icaoId":"SBKP","flightCategory":"VFR","rawOb":"METAR SBKP 300900Z 10004KT CAVOK 16/15 Q1020","temp":16,"dewp":15,"wdir":100,"wspd":4,"visib":"6+","altim":1020,"clouds":[],"obsTime":1782810000},"SBPJ":{"icaoId":"SBPJ","flightCategory":"VFR","rawOb":"METAR SBPJ 300900Z 13003KT CAVOK 24/17 Q1014","temp":24,"dewp":17,"wdir":130,"wspd":3,"visib":"6+","altim":1014,"clouds":[],"obsTime":1782810000},"SBRB":{"icaoId":"SBRB","flightCategory":"VFR","rawOb":"METAR SBRB 300900Z 00000KT 9999 FEW020 SCT070 22/22 Q1013","temp":22,"dewp":22,"wdir":0,"wspd":0,"visib":"6+","altim":1013,"clouds":[{"cover":"FEW","base":2000},{"cover":"SCT","base":7000}],"obsTime":1782810000},"SBEG":{"icaoId":"SBEG","flightCategory":"VFR","rawOb":"METAR SBEG 300900Z 30003KT 9999 FEW020 BKN100 24/24 Q1011","temp":24,"dewp":24,"wdir":300,"wspd":3,"visib":"6+","altim":1011,"clouds":[{"cover":"FEW","base":2000},{"cover":"BKN","base":10000}],"obsTime":1782810000},"SBCG":{"icaoId":"SBCG","flightCategory":"VFR","rawOb":"METAR SBCG 300900Z 14005KT CAVOK 18/17 Q1017","temp":18,"dewp":17,"wdir":140,"wspd":5,"visib":"6+","altim":1017,"clouds":[],"obsTime":1782810000},"SBPV":{"icaoId":"SBPV","flightCategory":"VFR","rawOb":"METAR SBPV 300900Z 00000KT 9999 FEW005 23/22 Q1012","temp":23,"dewp":22,"wdir":0,"wspd":0,"visib":"6+","altim":1012,"clouds":[{"cover":"FEW","base":500}],"obsTime":1782810000},"SBSP":{"icaoId":"SBSP","flightCategory":"IFR","rawOb":"METAR SBSP 300900Z 05005KT 9999 BKN006 16/16 Q1021","temp":16,"dewp":16,"wdir":50,"wspd":5,"visib":"6+","altim":1021,"clouds":[{"cover":"BKN","base":600}],"obsTime":1782810000},"SBVT":{"icaoId":"SBVT","flightCategory":"VFR","rawOb":"METAR SBVT 300900Z 32002KT 9999 FEW020 SCT100 17/16 Q1019","temp":17,"dewp":16,"wdir":320,"wspd":2,"visib":"6+","altim":1019,"clouds":[{"cover":"FEW","base":2000},{"cover":"SCT","base":10000}],"obsTime":1782810000},"SBBR":{"icaoId":"SBBR","flightCategory":"VFR","rawOb":"METAR SBBR 300900Z 00000KT CAVOK 12/11 Q1022","temp":12,"dewp":11,"wdir":0,"wspd":0,"visib":"6+","altim":1022,"clouds":[],"obsTime":1782810000},"SBMG":{"icaoId":"SBMG","flightCategory":"VFR","rawOb":"METAR SBMG 300900Z AUTO 01004KT CAVOK 20/18 Q1017","temp":20,"dewp":18,"wdir":10,"wspd":4,"visib":"6+","altim":1017,"clouds":[],"obsTime":1782810000},"SBIL":{"icaoId":"SBIL","flightCategory":"VFR","rawOb":"METAR SBIL 300900Z 27003KT 9999 FEW010 SCT017 BKN045 22/21 Q1018","temp":22,"dewp":21,"wdir":270,"wspd":3,"visib":"6+","altim":1018,"clouds":[{"cover":"FEW","base":1000},{"cover":"SCT","base":1700},{"cover":"BKN","base":4500}],"obsTime":1782810000},"SBJU":{"icaoId":"SBJU","flightCategory":"MVFR","rawOb":"METAR SBJU 300900Z 17008KT 9999 BKN020 23/18 Q1016","temp":23,"dewp":18,"wdir":170,"wspd":8,"visib":"6+","altim":1016,"clouds":[{"cover":"BKN","base":2000}],"obsTime":1782810000},"SBME":{"icaoId":"SBME","flightCategory":"MVFR","rawOb":"METAR SBME 300900Z 28004KT 9999 BKN021 18/17 Q1019","temp":18,"dewp":17,"wdir":280,"wspd":4,"visib":"6+","altim":1019,"clouds":[{"cover":"BKN","base":2100}],"obsTime":1782810000},"SBMK":{"icaoId":"SBMK","flightCategory":"VFR","rawOb":"METAR SBMK 300900Z 21003KT CAVOK 14/12 Q1021","temp":14,"dewp":12,"wdir":210,"wspd":3,"visib":"6+","altim":1021,"clouds":[],"obsTime":1782810000},"SBUL":{"icaoId":"SBUL","flightCategory":"VFR","rawOb":"METAR SBUL 300900Z 11007KT CAVOK 16/12 Q1022","temp":16,"dewp":12,"wdir":110,"wspd":7,"visib":"6+","altim":1022,"clouds":[],"obsTime":1782810000},"SBUR":{"icaoId":"SBUR","flightCategory":"VFR","rawOb":"METAR SBUR 300900Z 03005KT CAVOK 17/12 Q1020","temp":17,"dewp":12,"wdir":30,"wspd":5,"visib":"6+","altim":1020,"clouds":[],"obsTime":1782810000},"SBNT":{"icaoId":"SBNT","flightCategory":"VFR","rawOb":"METAR SBNT 300900Z 18006KT 9999 FEW021 23/22 Q1014","temp":23,"dewp":22,"wdir":180,"wspd":6,"visib":"6+","altim":1014,"clouds":[{"cover":"FEW","base":2100}],"obsTime":1782810000},"SBSJ":{"icaoId":"SBSJ","flightCategory":"IFR","rawOb":"SPECI SBSJ 300830Z 04003KT 360V070 4000 BR BKN006 17/16 Q1021","temp":17,"dewp":16,"wdir":40,"wspd":3,"visib":2.49,"altim":1021,"clouds":[{"cover":"BKN","base":600}],"obsTime":1782808200},"SBOI":{"icaoId":"SBOI","flightCategory":"VFR","rawOb":"METAR SBOI 300900Z AUTO 21002KT 9000 FEW020 SCT048 24/24 Q1012","temp":24,"dewp":24,"wdir":210,"wspd":2,"visib":5.59,"altim":1012,"clouds":[{"cover":"FEW","base":2000},{"cover":"SCT","base":4800}],"obsTime":1782810000},"SBPS":{"icaoId":"SBPS","flightCategory":"VFR","rawOb":"METAR SBPS 300900Z 32003KT 9999 SCT020 BKN080 21/21 Q1019","temp":21,"dewp":21,"wdir":320,"wspd":3,"visib":"6+","altim":1019,"clouds":[{"cover":"SCT","base":2000},{"cover":"BKN","base":8000}],"obsTime":1782810000},"SBAR":{"icaoId":"SBAR","flightCategory":"VFR","rawOb":"METAR SBAR 300900Z 14005KT 9999 FEW021 SCT050 24/22 Q1016","temp":24,"dewp":22,"wdir":140,"wspd":5,"visib":"6+","altim":1016,"clouds":[{"cover":"FEW","base":2100},{"cover":"SCT","base":5000}],"obsTime":1782810000},"SBTT":{"icaoId":"SBTT","flightCategory":"VFR","rawOb":"SPECI SBTT 300930Z 36002KT 9999 FEW030 BKN100 22/22 Q1013","temp":22,"dewp":22,"wdir":360,"wspd":2,"visib":"6+","altim":1013,"clouds":[{"cover":"FEW","base":3000},{"cover":"BKN","base":10000}],"obsTime":1782811800},"SBPL":{"icaoId":"SBPL","flightCategory":"MVFR","rawOb":"METAR SBPL 300900Z 12004KT 9999 BKN020 22/20 Q1017","temp":22,"dewp":20,"wdir":120,"wspd":4,"visib":"6+","altim":1017,"clouds":[{"cover":"BKN","base":2000}],"obsTime":1782810000},"SBIP":{"icaoId":"SBIP","flightCategory":"VFR","rawOb":"METAR SBIP 300900Z AUTO 22001KT CAVOK 15/15 Q1021","temp":15,"dewp":15,"wdir":220,"wspd":1,"visib":"6+","altim":1021,"clouds":[],"obsTime":1782810000},"SBSR":{"icaoId":"SBSR","flightCategory":"VFR","rawOb":"METAR SBSR 300900Z 07003KT CAVOK 18/14 Q1019","temp":18,"dewp":14,"wdir":70,"wspd":3,"visib":"6+","altim":1019,"clouds":[],"obsTime":1782810000},"SBES":{"icaoId":"SBES","flightCategory":"MVFR","rawOb":"METAR SBES 300900Z 00000KT 5000 BR BCFG FEW010 16/// Q1019","temp":null,"dewp":null,"wdir":0,"wspd":0,"visib":3.11,"altim":1019,"clouds":[{"cover":"FEW","base":1000}],"obsTime":1782810000},"SBSC":{"icaoId":"SBSC","flightCategory":"MVFR","rawOb":"METAR SBSC 300900Z 06006KT 7000 3000S SCT012 19/18 Q1019","temp":19,"dewp":18,"wdir":60,"wspd":6,"visib":4.35,"altim":1019,"clouds":[{"cover":"SCT","base":1200}],"obsTime":1782810000},"SBSM":{"icaoId":"SBSM","flightCategory":"LIFR","rawOb":"METAR SBSM 300900Z 07004KT 040V120 0100 R29///// R11/1400U FG VV002 08/08 Q1019","temp":8,"dewp":8,"wdir":70,"wspd":4,"visib":0.06,"altim":1019,"clouds":[{"cover":"OVX","base":200}],"obsTime":1782810000},"SBTU":{"icaoId":"SBTU","flightCategory":"VFR","rawOb":"METAR SBTU 300900Z AUTO 20003KT 9999 // OVC092/// ///// Q1014","temp":null,"dewp":null,"wdir":200,"wspd":3,"visib":"6+","altim":1014,"clouds":[{"cover":"OVC","base":9200}],"obsTime":1782810000},"SBCA":{"icaoId":"SBCA","flightCategory":"VFR","rawOb":"METAR SBCA 300900Z 04005KT 9999 FEW030 16/16 Q1018","temp":16,"dewp":16,"wdir":40,"wspd":5,"visib":"6+","altim":1018,"clouds":[{"cover":"FEW","base":3000}],"obsTime":1782810000},"SBCO":{"icaoId":"SBCO","flightCategory":"MVFR","rawOb":"METAR SBCO 300900Z 27002KT 9999 SCT010 BKN023 11/10 Q1019","temp":11,"dewp":10,"wdir":270,"wspd":2,"visib":"6+","altim":1019,"clouds":[{"cover":"SCT","base":1000},{"cover":"BKN","base":2300}],"obsTime":1782810000},"SBKG":{"icaoId":"SBKG","flightCategory":"VFR","rawOb":"METAR SBKG 300900Z 11004KT 9999 SCT010 20/20 Q1017","temp":20,"dewp":20,"wdir":110,"wspd":4,"visib":"6+","altim":1017,"clouds":[{"cover":"SCT","base":1000}],"obsTime":1782810000},"SBAX":{"icaoId":"SBAX","flightCategory":"VFR","rawOb":"METAR SBAX 300900Z AUTO 10004KT CAVOK 14/12 Q1022","temp":14,"dewp":12,"wdir":100,"wspd":4,"visib":"6+","altim":1022,"clouds":[],"obsTime":1782810000},"SBBH":{"icaoId":"SBBH","flightCategory":"VFR","rawOb":"METAR SBBH 300900Z 10004KT CAVOK 15/13 Q1022","temp":15,"dewp":13,"wdir":100,"wspd":4,"visib":"6+","altim":1022,"clouds":[],"obsTime":1782810000},"SBBU":{"icaoId":"SBBU","flightCategory":"VFR","rawOb":"METAR SBBU 300900Z 06003KT CAVOK 20/17 Q1019","temp":20,"dewp":17,"wdir":60,"wspd":3,"visib":"6+","altim":1019,"clouds":[],"obsTime":1782810000},"SBDN":{"icaoId":"SBDN","flightCategory":"VFR","rawOb":"METAR SBDN 300900Z 03004KT CAVOK 20/17 Q1016","temp":20,"dewp":17,"wdir":30,"wspd":4,"visib":"6+","altim":1016,"clouds":[],"obsTime":1782810000},"SBJP":{"icaoId":"SBJP","flightCategory":"VFR","rawOb":"METAR SBJP 300900Z 19004KT 9999 FEW025 22/22 Q1015","temp":22,"dewp":22,"wdir":190,"wspd":4,"visib":"6+","altim":1015,"clouds":[{"cover":"FEW","base":2500}],"obsTime":1782810000},"SBNM":{"icaoId":"SBNM","flightCategory":"LIFR","rawOb":"METAR SBNM 300900Z AUTO 11009KT 0700 FG VV002 10/10 Q1017","temp":10,"dewp":10,"wdir":110,"wspd":9,"visib":0.43,"altim":1017,"clouds":[{"cover":"OVX","base":200}],"obsTime":1782810000},"SBAN":{"icaoId":"SBAN","flightCategory":"VFR","rawOb":"METAR SBAN 300900Z 13004KT CAVOK 13/10 Q1022","temp":13,"dewp":10,"wdir":130,"wspd":4,"visib":"6+","altim":1022,"clouds":[],"obsTime":1782810000},"SBLE":{"icaoId":"SBLE","flightCategory":"MVFR","rawOb":"METAR SBLE 300900Z AUTO VRB01KT 9999 -RA OVC029 ///// Q////","temp":null,"dewp":null,"wdir":"VRB","wspd":1,"visib":"6+","altim":null,"clouds":[{"cover":"OVC","base":2900}],"obsTime":1782810000},"SBGW":{"icaoId":"SBGW","flightCategory":"IFR","rawOb":"METAR SBGW 300900Z VRB02KT 3000 HZ OVC011 18/13 Q1021","temp":18,"dewp":13,"wdir":"VRB","wspd":2,"visib":1.86,"altim":1021,"clouds":[{"cover":"OVC","base":1100}],"obsTime":1782810000},"SBJV":{"icaoId":"SBJV","flightCategory":"IFR","rawOb":"METAR SBJV 300900Z 26002KT 3000 BR TS SCT002 BKN008 FEW035CB 14/14 Q1018","temp":14,"dewp":14,"wdir":260,"wspd":2,"visib":1.86,"altim":1018,"clouds":[{"cover":"SCT","base":200},{"cover":"BKN","base":800},{"cover":"FEW","base":3500}],"obsTime":1782810000},"SBMT":{"icaoId":"SBMT","flightCategory":"IFR","rawOb":"METAR SBMT 300900Z 10003KT 020V150 4000 BR BKN007 16/16 Q1021","temp":16,"dewp":16,"wdir":100,"wspd":3,"visib":2.49,"altim":1021,"clouds":[{"cover":"BKN","base":700}],"obsTime":1782810000},"SBTA":{"icaoId":"SBTA","flightCategory":"VFR","rawOb":"METAR SBTA 300900Z 00000KT 9000 2000N FEW008 13/13 Q1020","temp":13,"dewp":13,"wdir":0,"wspd":0,"visib":5.59,"altim":1020,"clouds":[{"cover":"FEW","base":800}],"obsTime":1782810000},"SBLS":{"icaoId":"SBLS","flightCategory":"VFR","rawOb":"METAR SBLS 300900Z 15005KT CAVOK 15/13 Q1022","temp":15,"dewp":13,"wdir":150,"wspd":5,"visib":"6+","altim":1022,"clouds":[],"obsTime":1782810000}}}