{"updated":1775251960,"count":83,"data":{"SBPV":{"icaoId":"SBPV","flightCategory":"VFR","rawOb":"METAR SBPV 032000Z 34004KT 290V030 9999 VCSH SCT030 FEW035TCU 32/24 Q1007","temp":32,"dewp":24,"wdir":340,"wspd":4,"visib":"6+","altim":1007,"clouds":[{"cover":"SCT","base":3000},{"cover":"FEW","base":3500}],"obsTime":1775246400},"SBAT":{"icaoId":"SBAT","flightCategory":"MVFR","rawOb":"METAR SBAT 032000Z 15003KT 9999 BKN030 FEW035TCU 33/22 Q1009","temp":33,"dewp":22,"wdir":150,"wspd":3,"visib":"6+","altim":1009,"clouds":[{"cover":"BKN","base":3000},{"cover":"FEW","base":3500}],"obsTime":1775246400},"SBBE":{"icaoId":"SBBE","flightCategory":"VFR","rawOb":"METAR SBBE 032000Z 35009KT 9999 SCT040 30/25 Q1009","temp":30,"dewp":25,"wdir":350,"wspd":9,"visib":"6+","altim":1009,"clouds":[{"cover":"SCT","base":4000}],"obsTime":1775246400},"SBBR":{"icaoId":"SBBR","flightCategory":"VFR","rawOb":"METAR SBBR 032000Z 12006KT 9999 SCT030 BKN100 25/19 Q1019","temp":25,"dewp":19,"wdir":120,"wspd":6,"visib":"6+","altim":1019,"clouds":[{"cover":"SCT","base":3000},{"cover":"BKN","base":10000}],"obsTime":1775246400},"SBBV":{"icaoId":"SBBV","flightCategory":"VFR","rawOb":"METAR SBBV 032000Z 16003KT 9999 SCT040 FEW045TCU 34/21 Q1007","temp":34,"dewp":21,"wdir":160,"wspd":3,"visib":"6+","altim":1007,"clouds":[{"cover":"SCT","base":4000},{"cover":"FEW","base":4500}],"obsTime":1775246400},"SBCB":{"icaoId":"SBCB","flightCategory":"VFR","rawOb":"METAR SBCB 032000Z 07009KT CAVOK 29/22 Q1012","temp":29,"dewp":22,"wdir":70,"wspd":9,"visib":"6+","altim":1012,"clouds":[],"obsTime":1775246400},"SBCF":{"icaoId":"SBCF","flightCategory":"VFR","rawOb":"METAR SBCF 032000Z 36004KT 9999 SCT036 SCT100 26/18 Q1018","temp":26,"dewp":18,"wdir":360,"wspd":4,"visib":"6+","altim":1018,"clouds":[{"cover":"SCT","base":3600},{"cover":"SCT","base":10000}],"obsTime":1775246400},"SBCG":{"icaoId":"SBCG","flightCategory":"VFR","rawOb":"METAR SBCG 032000Z 27005KT 220V290 CAVOK 31/19 Q1013","temp":31,"dewp":19,"wdir":270,"wspd":5,"visib":"6+","altim":1013,"clouds":[],"obsTime":1775246400},"SBCP":{"icaoId":"SBCP","flightCategory":"VFR","rawOb":"METAR SBCP 032000Z 07010KT 9999 FEW020 BKN100 28/22 Q1013","temp":28,"dewp":22,"wdir":70,"wspd":10,"visib":"6+","altim":1013,"clouds":[{"cover":"FEW","base":2000},{"cover":"BKN","base":10000}],"obsTime":1775246400},"SBCR":{"icaoId":"SBCR","flightCategory":"VFR","rawOb":"METAR SBCR 032000Z 06008KT 020V100 9999 FEW045 FEW050TCU 34/22 Q1010","temp":34,"dewp":22,"wdir":60,"wspd":8,"visib":"6+","altim":1010,"clouds":[{"cover":"FEW","base":4500},{"cover":"FEW","base":5000}],"obsTime":1775246400},"SBCT":{"icaoId":"SBCT","flightCategory":"VFR","rawOb":"METAR SBCT 032000Z 33012KT 9999 -RA FEW035 BKN045 BKN070 23/18 Q1017","temp":23,"dewp":18,"wdir":330,"wspd":12,"visib":"6+","altim":1017,"clouds":[{"cover":"FEW","base":3500},{"cover":"BKN","base":4500},{"cover":"BKN","base":7000}],"obsTime":1775246400},"SBCZ":{"icaoId":"SBCZ","flightCategory":"MVFR","rawOb":"METAR SBCZ 032000Z 12008KT 9999 VCSH BKN025 FEW025TCU 29/25 Q1009","temp":29,"dewp":25,"wdir":120,"wspd":8,"visib":"6+","altim":1009,"clouds":[{"cover":"BKN","base":2500},{"cover":"FEW","base":2500}],"obsTime":1775246400},"SBEG":{"icaoId":"SBEG","flightCategory":"VFR","rawOb":"METAR SBEG 032000Z 10009KT 9999 SCT025 FEW030TCU 33/24 Q1007","temp":33,"dewp":24,"wdir":100,"wspd":9,"visib":"6+","altim":1007,"clouds":[{"cover":"SCT","base":2500},{"cover":"FEW","base":3000}],"obsTime":1775246400},"SBFI":{"icaoId":"SBFI","flightCategory":"VFR","rawOb":"METAR SBFI 032000Z 01007KT 9999 SCT040 FEW040TCU 29/23 Q1012","temp":29,"dewp":23,"wdir":10,"wspd":7,"visib":"6+","altim":1012,"clouds":[{"cover":"SCT","base":4000},{"cover":"FEW","base":4000}],"obsTime":1775246400},"SBFL":{"icaoId":"SBFL","flightCategory":"VFR","rawOb":"METAR SBFL 032000Z 12008KT 9999 SCT030 27/20 Q1012","temp":27,"dewp":20,"wdir":120,"wspd":8,"visib":"6+","altim":1012,"clouds":[{"cover":"SCT","base":3000}],"obsTime":1775246400},"SBFZ":{"icaoId":"SBFZ","flightCategory":"VFR","rawOb":"METAR SBFZ 032000Z 08009KT 9999 FEW020 FEW030TCU 29/24 Q1010","temp":29,"dewp":24,"wdir":80,"wspd":9,"visib":"6+","altim":1010,"clouds":[{"cover":"FEW","base":2000},{"cover":"FEW","base":3000}],"obsTime":1775246400},"SBGL":{"icaoId":"SBGL","flightCategory":"VFR","rawOb":"METAR SBGL 032000Z 12007KT 9999 FEW030 FEW035TCU 29/21 Q1012","temp":29,"dewp":21,"wdir":120,"wspd":7,"visib":"6+","altim":1012,"clouds":[{"cover":"FEW","base":3000},{"cover":"FEW","base":3500}],"obsTime":1775246400},"SBGO":{"icaoId":"SBGO","flightCategory":"VFR","rawOb":"METAR SBGO 032000Z 36011KT 9999 2000N TSRA BKN045 FEW048CB BKN100 26/20 Q1016","temp":26,"dewp":20,"wdir":360,"wspd":11,"visib":"6+","altim":1016,"clouds":[{"cover":"BKN","base":4500},{"cover":"FEW","base":4800},{"cover":"BKN","base":10000}],"obsTime":1775246400},"SBGR":{"icaoId":"SBGR","flightCategory":"VFR","rawOb":"METAR SBGR 032000Z 25006KT 9999 SCT046 28/19 Q1017","temp":28,"dewp":19,"wdir":250,"wspd":6,"visib":"6+","altim":1017,"clouds":[{"cover":"SCT","base":4600}],"obsTime":1775246400},"SBHT":{"icaoId":"SBHT","flightCategory":"VFR","rawOb":"METAR SBHT 032000Z 15004KT 9999 FEW030 32/21 Q1009","temp":32,"dewp":21,"wdir":150,"wspd":4,"visib":"6+","altim":1009,"clouds":[{"cover":"FEW","base":3000}],"obsTime":1775246400},"SBIL":{"icaoId":"SBIL","flightCategory":"MVFR","rawOb":"METAR SBIL 032000Z 10011KT 5000 -RA SCT012 BKN020 FEW023TCU 26/24 Q1015","temp":26,"dewp":24,"wdir":100,"wspd":11,"visib":3.11,"altim":1015,"clouds":[{"cover":"SCT","base":1200},{"cover":"BKN","base":2000},{"cover":"FEW","base":2300}],"obsTime":1775246400},"SBJU":{"icaoId":"SBJU","flightCategory":"VFR","rawOb":"METAR SBJU 032000Z 16008KT 9999 SCT022 30/22 Q1012","temp":30,"dewp":22,"wdir":160,"wspd":8,"visib":"6+","altim":1012,"clouds":[{"cover":"SCT","base":2200}],"obsTime":1775246400},"SBKP":{"icaoId":"SBKP","flightCategory":"VFR","rawOb":"METAR SBKP 032000Z 20007KT 9999 FEW040 FEW045TCU 27/21 Q1016","temp":27,"dewp":21,"wdir":200,"wspd":7,"visib":"6+","altim":1016,"clouds":[{"cover":"FEW","base":4000},{"cover":"FEW","base":4500}],"obsTime":1775246400},"SBLO":{"icaoId":"SBLO","flightCategory":"VFR","rawOb":"METAR SBLO 032000Z 09004KT 9999 VCSH SCT030 FEW050TCU 24/21 Q1015","temp":24,"dewp":21,"wdir":90,"wspd":4,"visib":"6+","altim":1015,"clouds":[{"cover":"SCT","base":3000},{"cover":"FEW","base":5000}],"obsTime":1775246400},"SBMA":{"icaoId":"SBMA","flightCategory":"VFR","rawOb":"METAR SBMA 032000Z 28002KT 9999 FEW025TCU SCT100 32/23 Q1009","temp":32,"dewp":23,"wdir":280,"wspd":2,"visib":"6+","altim":1009,"clouds":[{"cover":"FEW","base":2500},{"cover":"SCT","base":10000}],"obsTime":1775246400},"SBME":{"icaoId":"SBME","flightCategory":"VFR","rawOb":"METAR SBME 032000Z 13005KT 9999 FEW030 30/22 Q1012","temp":30,"dewp":22,"wdir":130,"wspd":5,"visib":"6+","altim":1012,"clouds":[{"cover":"FEW","base":3000}],"obsTime":1775246400},"SBMG":{"icaoId":"SBMG","flightCategory":"VFR","rawOb":"METAR SBMG 032000Z 28008KT 250V310 9999 FEW045 FEW050TCU 30/19 Q1013","temp":30,"dewp":19,"wdir":280,"wspd":8,"visib":"6+","altim":1013,"clouds":[{"cover":"FEW","base":4500},{"cover":"FEW","base":5000}],"obsTime":1775246400},"SBMK":{"icaoId":"SBMK","flightCategory":"VFR","rawOb":"METAR SBMK 032000Z 05003KT 9999 FEW035 28/19 Q1016","temp":28,"dewp":19,"wdir":50,"wspd":3,"visib":"6+","altim":1016,"clouds":[{"cover":"FEW","base":3500}],"obsTime":1775246400},"SBMO":{"icaoId":"SBMO","flightCategory":"VFR","rawOb":"METAR SBMO 032000Z 11011KT 9999 SCT023 28/24 Q1013","temp":28,"dewp":24,"wdir":110,"wspd":11,"visib":"6+","altim":1013,"clouds":[{"cover":"SCT","base":2300}],"obsTime":1775246400},"SBMQ":{"icaoId":"SBMQ","flightCategory":"VFR","rawOb":"METAR SBMQ 032000Z 10005KT 9999 VCTS SCT030 FEW060CB SCT070 32/24 Q1009","temp":32,"dewp":24,"wdir":100,"wspd":5,"visib":"6+","altim":1009,"clouds":[{"cover":"SCT","base":3000},{"cover":"FEW","base":6000},{"cover":"SCT","base":7000}],"obsTime":1775246400},"SBNT":{"icaoId":"SBNT","flightCategory":"VFR","rawOb":"METAR SBNT 032000Z 10013KT 080V140 9999 SCT030 29/24 Q1012","temp":29,"dewp":24,"wdir":100,"wspd":13,"visib":"6+","altim":1012,"clouds":[{"cover":"SCT","base":3000}],"obsTime":1775246400},"SBPA":{"icaoId":"SBPA","flightCategory":"VFR","rawOb":"METAR SBPA 032000Z 17005KT 130V200 9999 SCT035 29/20 Q1011","temp":29,"dewp":20,"wdir":170,"wspd":5,"visib":"6+","altim":1011,"clouds":[{"cover":"SCT","base":3500}],"obsTime":1775246400},"SBPJ":{"icaoId":"SBPJ","flightCategory":"VFR","rawOb":"METAR SBPJ 032000Z 09005KT 9999 SCT030 SCT100 32/23 Q1011","temp":32,"dewp":23,"wdir":90,"wspd":5,"visib":"6+","altim":1011,"clouds":[{"cover":"SCT","base":3000},{"cover":"SCT","base":10000}],"obsTime":1775246400},"SBRB":{"icaoId":"SBRB","flightCategory":"MVFR","rawOb":"METAR SBRB 032000Z 20002KT 9999 VCSH SCT010 BKN025 FEW040TCU 27/25 Q1010 RETS","temp":27,"dewp":25,"wdir":200,"wspd":2,"visib":"6+","altim":1010,"clouds":[{"cover":"SCT","base":1000},{"cover":"BKN","base":2500},{"cover":"FEW","base":4000}],"obsTime":1775246400},"SBRF":{"icaoId":"SBRF","flightCategory":"VFR","rawOb":"METAR SBRF 032000Z 12011KT 9999 SCT023 29/24 Q1012","temp":29,"dewp":24,"wdir":120,"wspd":11,"visib":"6+","altim":1012,"clouds":[{"cover":"SCT","base":2300}],"obsTime":1775246400},"SBSG":{"icaoId":"SBSG","flightCategory":"VFR","rawOb":"METAR SBSG 032000Z 12009KT 090V150 9999 VCSH SCT025 FEW035TCU 29/24 Q1012","temp":29,"dewp":24,"wdir":120,"wspd":9,"visib":"6+","altim":1012,"clouds":[{"cover":"SCT","base":2500},{"cover":"FEW","base":3500}],"obsTime":1775246400},"SBSL":{"icaoId":"SBSL","flightCategory":"VFR","rawOb":"METAR SBSL 032000Z 07009KT 9999 SCT015 FEW020TCU 27/24 Q1010","temp":27,"dewp":24,"wdir":70,"wspd":9,"visib":"6+","altim":1010,"clouds":[{"cover":"SCT","base":1500},{"cover":"FEW","base":2000}],"obsTime":1775246400},"SBSN":{"icaoId":"SBSN","flightCategory":"VFR","rawOb":"METAR SBSN 032000Z 08010KT 9999 FEW020 31/25 Q1008","temp":31,"dewp":25,"wdir":80,"wspd":10,"visib":"6+","altim":1008,"clouds":[{"cover":"FEW","base":2000}],"obsTime":1775246400},"SBSP":{"icaoId":"SBSP","flightCategory":"VFR","rawOb":"METAR SBSP 032000Z 22007KT 200V280 9999 FEW045 26/18 Q1018","temp":26,"dewp":18,"wdir":220,"wspd":7,"visib":"6+","altim":1018,"clouds":[{"cover":"FEW","base":4500}],"obsTime":1775246400},"SBSV":{"icaoId":"SBSV","flightCategory":"VFR","rawOb":"METAR SBSV 032000Z 11006KT 9999 SCT021 SCT080 27/23 Q1014","temp":27,"dewp":23,"wdir":110,"wspd":6,"visib":"6+","altim":1014,"clouds":[{"cover":"SCT","base":2100},{"cover":"SCT","base":8000}],"obsTime":1775246400},"SBTE":{"icaoId":"SBTE","flightCategory":"VFR","rawOb":"METAR SBTE 032000Z 01001KT 9999 SCT020 32/23 Q1009","temp":32,"dewp":23,"wdir":10,"wspd":1,"visib":"6+","altim":1009,"clouds":[{"cover":"SCT","base":2000}],"obsTime":1775246400},"SBUL":{"icaoId":"SBUL","flightCategory":"VFR","rawOb":"METAR SBUL 032000Z 08008KT 040V100 9999 VCTS SCT035 FEW040CB 26/17 Q1018","temp":26,"dewp":17,"wdir":80,"wspd":8,"visib":"6+","altim":1018,"clouds":[{"cover":"SCT","base":3500},{"cover":"FEW","base":4000}],"obsTime":1775246400},"SBUR":{"icaoId":"SBUR","flightCategory":"VFR","rawOb":"METAR SBUR 032000Z 32006KT 9999 3000NW -TSRA BKN042 FEW044CB 23/20 Q1018","temp":23,"dewp":20,"wdir":320,"wspd":6,"visib":"6+","altim":1018,"clouds":[{"cover":"BKN","base":4200},{"cover":"FEW","base":4400}],"obsTime":1775246400},"SBVT":{"icaoId":"SBVT","flightCategory":"VFR","rawOb":"METAR SBVT 032000Z 05013KT 9999 FEW040 28/24 Q1014","temp":28,"dewp":24,"wdir":50,"wspd":13,"visib":"6+","altim":1014,"clouds":[{"cover":"FEW","base":4000}],"obsTime":1775246400},"SBPB":{"icaoId":"SBPB","flightCategory":"VFR","rawOb":"METAR SBPB 032000Z 03007KT 9999 SCT016 FEW025TCU BKN080 29/25 Q1011","temp":29,"dewp":25,"wdir":30,"wspd":7,"visib":"6+","altim":1011,"clouds":[{"cover":"SCT","base":1600},{"cover":"FEW","base":2500},{"cover":"BKN","base":8000}],"obsTime":1775246400},"SBBU":{"icaoId":"SBBU","flightCategory":"VFR","rawOb":"METAR SBBU 032000Z 29008KT 9999 FEW040 32/21 Q1014","temp":32,"dewp":21,"wdir":290,"wspd":8,"visib":"6+","altim":1014,"clouds":[{"cover":"FEW","base":4000}],"obsTime":1775246400},"SBCO":{"icaoId":"SBCO","flightCategory":"VFR","rawOb":"METAR SBCO 032000Z 14004KT 050V210 9999 SCT036 29/21 Q1011","temp":29,"dewp":21,"wdir":140,"wspd":4,"visib":"6+","altim":1011,"clouds":[{"cover":"SCT","base":3600}],"obsTime":1775246400},"SBPL":{"icaoId":"SBPL","flightCategory":"VFR","rawOb":"METAR SBPL 032000Z 14005KT 9999 FEW025 31/21 Q1012","temp":31,"dewp":21,"wdir":140,"wspd":5,"visib":"6+","altim":1012,"clouds":[{"cover":"FEW","base":2500}],"obsTime":1775246400},"SBPP":{"icaoId":"SBPP","flightCategory":"VFR","rawOb":"METAR SBPP 032000Z 11005KT 9999 FEW020 29/20 Q1015","temp":29,"dewp":20,"wdir":110,"wspd":5,"visib":"6+","altim":1015,"clouds":[{"cover":"FEW","base":2000}],"obsTime":1775246400},"SBBH":{"icaoId":"SBBH","flightCategory":"VFR","rawOb":"METAR SBBH 032000Z 08008KT 9999 FEW045 27/19 Q1017","temp":27,"dewp":19,"wdir":80,"wspd":8,"visib":"6+","altim":1017,"clouds":[{"cover":"FEW","base":4500}],"obsTime":1775246400},"SBPS":{"icaoId":"SBPS","flightCategory":"VFR","rawOb":"METAR SBPS 032000Z 12003KT 100V160 9999 SCT025 BKN100 27/24 Q1015","temp":27,"dewp":24,"wdir":120,"wspd":3,"visib":"6+","altim":1015,"clouds":[{"cover":"SCT","base":2500},{"cover":"BKN","base":10000}],"obsTime":1775246400},"SBDN":{"icaoId":"SBDN","flightCategory":"VFR","rawOb":"METAR SBDN 032000Z 00000KT 9999 SCT050 FEW060TCU 32/20 Q1013","temp":32,"dewp":20,"wdir":0,"wspd":0,"visib":"6+","altim":1013,"clouds":[{"cover":"SCT","base":5000},{"cover":"FEW","base":6000}],"obsTime":1775246400},"SBCA":{"icaoId":"SBCA","flightCategory":"VFR","rawOb":"METAR SBCA 032000Z 10003KT 9999 SCT040 FEW050TCU 23/18 Q1016","temp":23,"dewp":18,"wdir":100,"wspd":3,"visib":"6+","altim":1016,"clouds":[{"cover":"SCT","base":4000},{"cover":"FEW","base":5000}],"obsTime":1775246400},"SBSC":{"icaoId":"SBSC","flightCategory":"VFR","rawOb":"METAR SBSC 032000Z 22005KT 9999 FEW025 FEW030TCU 26/23 Q1012","temp":26,"dewp":23,"wdir":220,"wspd":5,"visib":"6+","altim":1012,"clouds":[{"cover":"FEW","base":2500},{"cover":"FEW","base":3000}],"obsTime":1775246400},"SBSJ":{"icaoId":"SBSJ","flightCategory":"VFR","rawOb":"METAR SBSJ 032000Z 04004KT 9999 VCSH FEW040TCU BKN050 BKN100 21/18 Q1016 RETS","temp":21,"dewp":18,"wdir":40,"wspd":4,"visib":"6+","altim":1016,"clouds":[{"cover":"FEW","base":4000},{"cover":"BKN","base":5000},{"cover":"BKN","base":10000}],"obsTime":1775246400},"SBES":{"icaoId":"SBES","flightCategory":"VFR","rawOb":"METAR SBES 032000Z 08008KT CAVOK 28/// Q1012","temp":null,"dewp":null,"wdir":80,"wspd":8,"visib":"6+","altim":1012,"clouds":[],"obsTime":1775246400},"SBAX":{"icaoId":"SBAX","flightCategory":"VFR","rawOb":"METAR SBAX 032000Z AUTO VRB02KT 9999 FEW036 25/18 Q1019","temp":25,"dewp":18,"wdir":"VRB","wspd":2,"visib":"6+","altim":1019,"clouds":[{"cover":"FEW","base":3600}],"obsTime":1775246400},"SBSM":{"icaoId":"SBSM","flightCategory":"VFR","rawOb":"METAR SBSM 032000Z 19003KT 100V240 9999 SCT045 31/21 Q1011","temp":31,"dewp":21,"wdir":190,"wspd":3,"visib":"6+","altim":1011,"clouds":[{"cover":"SCT","base":4500}],"obsTime":1775246400},"SBIP":{"icaoId":"SBIP","flightCategory":"VFR","rawOb":"METAR SBIP 032000Z AUTO 36004KT CAVOK 29/21 Q1015","temp":29,"dewp":21,"wdir":360,"wspd":4,"visib":"6+","altim":1015,"clouds":[],"obsTime":1775246400},"SBSR":{"icaoId":"SBSR","flightCategory":"VFR","rawOb":"METAR SBSR 032000Z 27002KT 9999 FEW030 30/18 Q1014","temp":30,"dewp":18,"wdir":270,"wspd":2,"visib":"6+","altim":1014,"clouds":[{"cover":"FEW","base":3000}],"obsTime":1775246400},"SBTF":{"icaoId":"SBTF","flightCategory":"VFR","rawOb":"METAR SBTF 032000Z 27011KT 9999 SCT008 FEW025TCU BKN070 24/23 Q1009","temp":24,"dewp":23,"wdir":270,"wspd":11,"visib":"6+","altim":1009,"clouds":[{"cover":"SCT","base":800},{"cover":"FEW","base":2500},{"cover":"BKN","base":7000}],"obsTime":1775246400},"SBCJ":{"icaoId":"SBCJ","flightCategory":"VFR","rawOb":"METAR SBCJ 032000Z 12005KT 9999 FEW007 27/21 Q1014","temp":27,"dewp":21,"wdir":120,"wspd":5,"visib":"6+","altim":1014,"clouds":[{"cover":"FEW","base":700}],"obsTime":1775246400},"SBTT":{"icaoId":"SBTT","flightCategory":"MVFR","rawOb":"METAR SBTT 032000Z 33004KT 9999 BKN015 BKN070 26/21 Q0101","temp":26,"dewp":21,"wdir":330,"wspd":4,"visib":"6+","altim":101,"clouds":[{"cover":"BKN","base":1500},{"cover":"BKN","base":7000}],"obsTime":1775246400},"SBKG":{"icaoId":"SBKG","flightCategory":"VFR","rawOb":"METAR SBKG 032000Z 10012KT 9999 SCT025 27/22 Q1014","temp":27,"dewp":22,"wdir":100,"wspd":12,"visib":"6+","altim":1014,"clouds":[{"cover":"SCT","base":2500}],"obsTime":1775246400},"SBUY":{"icaoId":"SBUY","flightCategory":"MVFR","rawOb":"METAR SBUY 032000Z 32006KT 5000 BR SCT006 FEW030TCU SCT100 22/22 Q1008","temp":22,"dewp":22,"wdir":320,"wspd":6,"visib":3.11,"altim":1008,"clouds":[{"cover":"SCT","base":600},{"cover":"FEW","base":3000},{"cover":"SCT","base":10000}],"obsTime":1775246400},"SBAR":{"icaoId":"SBAR","flightCategory":"MVFR","rawOb":"METAR SBAR 032000Z 12009KT 090V150 9999 BKN021 29/24 Q1013","temp":29,"dewp":24,"wdir":120,"wspd":9,"visib":"6+","altim":1013,"clouds":[{"cover":"BKN","base":2100}],"obsTime":1775246400},"SBOI":{"icaoId":"SBOI","flightCategory":"VFR","rawOb":"METAR SBOI 032000Z AUTO 09006KT 020V160 CAVOK 32/24 Q1009","temp":32,"dewp":24,"wdir":90,"wspd":6,"visib":"6+","altim":1009,"clouds":[],"obsTime":1775246400},"SBVH":{"icaoId":"SBVH","flightCategory":"VFR","rawOb":"METAR SBVH 032000Z 28007KT 9999 FEW020 SCT026 FEW035TCU BKN100 25/21 Q1012","temp":25,"dewp":21,"wdir":280,"wspd":7,"visib":"6+","altim":1012,"clouds":[{"cover":"FEW","base":2000},{"cover":"SCT","base":2600},{"cover":"FEW","base":3500},{"cover":"BKN","base":10000}],"obsTime":1775246400},"SBBQ":{"icaoId":"SBBQ","flightCategory":"MVFR","rawOb":"METAR SBBQ 032000Z 07002KT 9999 -TSRA BKN030 FEW040CB 21/20 Q1021 RERA","temp":21,"dewp":20,"wdir":70,"wspd":2,"visib":"6+","altim":1021,"clouds":[{"cover":"BKN","base":3000},{"cover":"FEW","base":4000}],"obsTime":1775246400},"SBCC":{"icaoId":"SBCC","flightCategory":"VFR","rawOb":"METAR SBCC 032000Z 06009KT 9999 SCT020 FEW025TCU 30/21 Q1011","temp":30,"dewp":21,"wdir":60,"wspd":9,"visib":"6+","altim":1011,"clouds":[{"cover":"SCT","base":2000},{"cover":"FEW","base":2500}],"obsTime":1775246400},"SBLE":{"icaoId":"SBLE","flightCategory":"VFR","rawOb":"METAR SBLE 032000Z AUTO 16003KT CAVOK 28/21 Q1016","temp":28,"dewp":21,"wdir":160,"wspd":3,"visib":"6+","altim":1016,"clouds":[],"obsTime":1775246400},"SBJP":{"icaoId":"SBJP","flightCategory":"VFR","rawOb":"METAR SBJP 032000Z 11012KT 9999 FEW023 SCT100 29/24 Q1012","temp":29,"dewp":24,"wdir":110,"wspd":12,"visib":"6+","altim":1012,"clouds":[{"cover":"FEW","base":2300},{"cover":"SCT","base":10000}],"obsTime":1775246400},"SBAN":{"icaoId":"SBAN","flightCategory":"VFR","rawOb":"METAR SBAN 032000Z 08006KT 9999 SCT030 SCT100 23/19 Q1019","temp":23,"dewp":19,"wdir":80,"wspd":6,"visib":"6+","altim":1019,"clouds":[{"cover":"SCT","base":3000},{"cover":"SCT","base":10000}],"obsTime":1775246400},"SBIH":{"icaoId":"SBIH","flightCategory":"VFR","rawOb":"METAR SBIH 032000Z 04006KT 9999 FEW020 32/23 Q1008","temp":32,"dewp":23,"wdir":40,"wspd":6,"visib":"6+","altim":1008,"clouds":[{"cover":"FEW","base":2000}],"obsTime":1775246400},"SBAF":{"icaoId":"SBAF","flightCategory":"VFR","rawOb":" SBAF 032000Z 19011KT 9999 FEW030 FEW035TCU 29/23 Q1012","temp":29,"dewp":23,"wdir":190,"wspd":11,"visib":"6+","altim":1012,"clouds":[{"cover":"FEW","base":3000},{"cover":"FEW","base":3500}],"obsTime":1775246400},"SBGW":{"icaoId":"SBGW","flightCategory":"IFR","rawOb":"METAR SBGW 032000Z COR 23007KT 200V270 2000 TSRA BKN030 FEW035CB BKN100 22/17 Q1017 RETSRA","temp":22,"dewp":17,"wdir":230,"wspd":7,"visib":1.24,"altim":1017,"clouds":[{"cover":"BKN","base":3000},{"cover":"FEW","base":3500},{"cover":"BKN","base":10000}],"obsTime":1775246400},"SBJR":{"icaoId":"SBJR","flightCategory":"VFR","rawOb":"METAR SBJR 032000Z 19006KT 9999 FEW040TCU SCT070 26/22 Q1012","temp":26,"dewp":22,"wdir":190,"wspd":6,"visib":"6+","altim":1012,"clouds":[{"cover":"FEW","base":4000},{"cover":"SCT","base":7000}],"obsTime":1775246400},"SBLS":{"icaoId":"SBLS","flightCategory":"VFR","rawOb":"METAR SBLS 032000Z 11004KT 060V120 9999 FEW035 26/20 Q1018","temp":26,"dewp":20,"wdir":110,"wspd":4,"visib":"6+","altim":1018,"clouds":[{"cover":"FEW","base":3500}],"obsTime":1775246400},"SBMT":{"icaoId":"SBMT","flightCategory":"VFR","rawOb":"METAR SBMT 032000Z 26008KT 9999 SCT040 FEW043TCU SCT100 27/19 Q1016","temp":27,"dewp":19,"wdir":260,"wspd":8,"visib":"6+","altim":1016,"clouds":[{"cover":"SCT","base":4000},{"cover":"FEW","base":4300},{"cover":"SCT","base":10000}],"obsTime":1775246400},"SBST":{"icaoId":"SBST","flightCategory":"VFR","rawOb":"METAR SBST 032000Z COR 15003KT 9000 FEW028 SCT046 27/23 Q1012","temp":27,"dewp":23,"wdir":150,"wspd":3,"visib":5.59,"altim":1012,"clouds":[{"cover":"FEW","base":2800},{"cover":"SCT","base":4600}],"obsTime":1775246400},"SBTA":{"icaoId":"SBTA","flightCategory":"MVFR","rawOb":"METAR SBTA 032000Z 24004KT 200V280 9999 VCTS VCSH BKN030 FEW035CB BKN100 22/22 Q1016","temp":22,"dewp":22,"wdir":240,"wspd":4,"visib":"6+","altim":1016,"clouds":[{"cover":"BKN","base":3000},{"cover":"FEW","base":3500},{"cover":"BKN","base":10000}],"obsTime":1775246400},"SBJV":{"icaoId":"SBJV","flightCategory":"VFR","rawOb":"METAR SBJV 032000Z 01004KT 9999 FEW030 31/24 Q1011","temp":31,"dewp":24,"wdir":10,"wspd":4,"visib":"6+","altim":1011,"clouds":[{"cover":"FEW","base":3000}],"obsTime":1775246400},"SBPF":{"icaoId":"SBPF","flightCategory":"VFR","rawOb":"METAR SBPF 032000Z 23007KT 9999 VCSH BKN045 FEW050TCU 28/17 Q1015","temp":28,"dewp":17,"wdir":230,"wspd":7,"visib":"6+","altim":1015,"clouds":[{"cover":"BKN","base":4500},{"cover":"FEW","base":5000}],"obsTime":1775246400}}}