{"updated":1773862820,"count":85,"data":{"SBTE":{"icaoId":"SBTE","flightCategory":"MVFR","rawOb":"METAR SBTE 181800Z 36003KT 9999 BKN020 FEW025TCU 33/24 Q1006","temp":33,"dewp":24,"wdir":360,"wspd":3,"visib":"6+","altim":1006,"clouds":[{"cover":"BKN","base":2000},{"cover":"FEW","base":2500}],"obsTime":1773856800},"SBPA":{"icaoId":"SBPA","flightCategory":"VFR","rawOb":"METAR SBPA 181800Z 26005KT 210V310 9999 SCT035 FEW040TCU BKN100 30/23 Q1008","temp":30,"dewp":23,"wdir":260,"wspd":5,"visib":"6+","altim":1008,"clouds":[{"cover":"SCT","base":3500},{"cover":"FEW","base":4000},{"cover":"BKN","base":10000}],"obsTime":1773856800},"SBBE":{"icaoId":"SBBE","flightCategory":"MVFR","rawOb":"METAR SBBE 181800Z 19004KT 9999 VCSH BKN024 FEW025TCU SCT100 28/24 Q1008","temp":28,"dewp":24,"wdir":190,"wspd":4,"visib":"6+","altim":1008,"clouds":[{"cover":"BKN","base":2400},{"cover":"FEW","base":2500},{"cover":"SCT","base":10000}],"obsTime":1773856800},"SBCG":{"icaoId":"SBCG","flightCategory":"MVFR","rawOb":"SPECI SBCG 181742Z 21018KT 9999 VCSH VCTS BKN010 FEW030CB BKN040 BKN060 24/22 Q1012","temp":24,"dewp":22,"wdir":210,"wspd":18,"visib":"6+","altim":1012,"clouds":[{"cover":"BKN","base":1000},{"cover":"FEW","base":3000},{"cover":"BKN","base":4000},{"cover":"BKN","base":6000}],"obsTime":1773855720},"SBSL":{"icaoId":"SBSL","flightCategory":"MVFR","rawOb":"METAR SBSL 181800Z 02014KT 9999 VCSH SCT012 BKN020 FEW023TCU 29/25 Q1007","temp":29,"dewp":25,"wdir":20,"wspd":14,"visib":"6+","altim":1007,"clouds":[{"cover":"SCT","base":1200},{"cover":"BKN","base":2000},{"cover":"FEW","base":2300}],"obsTime":1773856800},"SBMQ":{"icaoId":"SBMQ","flightCategory":"MVFR","rawOb":"METAR SBMQ 181800Z 07008KT 9999 BKN015 SCT037 BKN100 28/24 Q1009","temp":28,"dewp":24,"wdir":70,"wspd":8,"visib":"6+","altim":1009,"clouds":[{"cover":"BKN","base":1500},{"cover":"SCT","base":3700},{"cover":"BKN","base":10000}],"obsTime":1773856800},"SBCZ":{"icaoId":"SBCZ","flightCategory":"MVFR","rawOb":"METAR SBCZ 181800Z 05004KT 9999 BKN018 BKN100 28/24 Q1011","temp":28,"dewp":24,"wdir":50,"wspd":4,"visib":"6+","altim":1011,"clouds":[{"cover":"BKN","base":1800},{"cover":"BKN","base":10000}],"obsTime":1773856800},"SBNT":{"icaoId":"SBNT","flightCategory":"VFR","rawOb":"METAR SBNT 181800Z 11013KT 080V140 9999 SCT030 31/23 Q1009","temp":31,"dewp":23,"wdir":110,"wspd":13,"visib":"6+","altim":1009,"clouds":[{"cover":"SCT","base":3000}],"obsTime":1773856800},"SBCB":{"icaoId":"SBCB","flightCategory":"VFR","rawOb":"METAR SBCB 181800Z 09013KT 9999 FEW020 28/22 Q1009","temp":28,"dewp":22,"wdir":90,"wspd":13,"visib":"6+","altim":1009,"clouds":[{"cover":"FEW","base":2000}],"obsTime":1773856800},"SBPJ":{"icaoId":"SBPJ","flightCategory":"VFR","rawOb":"METAR SBPJ 181800Z 21004KT 9999 SCT025 FEW030TCU 33/24 Q1008","temp":33,"dewp":24,"wdir":210,"wspd":4,"visib":"6+","altim":1008,"clouds":[{"cover":"SCT","base":2500},{"cover":"FEW","base":3000}],"obsTime":1773856800},"SBEG":{"icaoId":"SBEG","flightCategory":"VFR","rawOb":"METAR SBEG 181800Z 05009KT 9999 SCT025 BKN100 30/24 Q1009","temp":30,"dewp":24,"wdir":50,"wspd":9,"visib":"6+","altim":1009,"clouds":[{"cover":"SCT","base":2500},{"cover":"BKN","base":10000}],"obsTime":1773856800},"SBCF":{"icaoId":"SBCF","flightCategory":"VFR","rawOb":"METAR SBCF 181800Z VRB02KT 9999 4000NW TS VCSH SCT030 FEW035CB BKN100 27/20 Q1014","temp":27,"dewp":20,"wdir":"VRB","wspd":2,"visib":"6+","altim":1014,"clouds":[{"cover":"SCT","base":3000},{"cover":"FEW","base":3500},{"cover":"BKN","base":10000}],"obsTime":1773856800},"SBPV":{"icaoId":"SBPV","flightCategory":"MVFR","rawOb":"METAR SBPV 181800Z 23004KT 9999 BKN015 BKN023 27/22 Q1011","temp":27,"dewp":22,"wdir":230,"wspd":4,"visib":"6+","altim":1011,"clouds":[{"cover":"BKN","base":1500},{"cover":"BKN","base":2300}],"obsTime":1773856800},"SBRB":{"icaoId":"SBRB","flightCategory":"VFR","rawOb":"METAR SBRB 181800Z 06004KT 9999 FEW020 BKN100 28/22 Q1010","temp":28,"dewp":22,"wdir":60,"wspd":4,"visib":"6+","altim":1010,"clouds":[{"cover":"FEW","base":2000},{"cover":"BKN","base":10000}],"obsTime":1773856800},"SBFI":{"icaoId":"SBFI","flightCategory":"VFR","rawOb":"METAR SBFI 181800Z 36004KT 9999 SCT035 31/23 Q1009","temp":31,"dewp":23,"wdir":360,"wspd":4,"visib":"6+","altim":1009,"clouds":[{"cover":"SCT","base":3500}],"obsTime":1773856800},"SBRF":{"icaoId":"SBRF","flightCategory":"VFR","rawOb":"METAR SBRF 181800Z 12010KT 070V150 9999 SCT025 30/23 Q1009","temp":30,"dewp":23,"wdir":120,"wspd":10,"visib":"6+","altim":1009,"clouds":[{"cover":"SCT","base":2500}],"obsTime":1773856800},"SBSG":{"icaoId":"SBSG","flightCategory":"VFR","rawOb":"METAR SBSG 181800Z 11012KT 9999 SCT033 FEW040TCU 30/24 Q1009","temp":30,"dewp":24,"wdir":110,"wspd":12,"visib":"6+","altim":1009,"clouds":[{"cover":"SCT","base":3300},{"cover":"FEW","base":4000}],"obsTime":1773856800},"SBFL":{"icaoId":"SBFL","flightCategory":"VFR","rawOb":"METAR SBFL 181800Z 35013KT 9999 FEW020 SCT050 29/23 Q1009","temp":29,"dewp":23,"wdir":350,"wspd":13,"visib":"6+","altim":1009,"clouds":[{"cover":"FEW","base":2000},{"cover":"SCT","base":5000}],"obsTime":1773856800},"SBMA":{"icaoId":"SBMA","flightCategory":"VFR","rawOb":"METAR SBMA 181800Z 04002KT 9999 VCSH SCT020 SCT023TCU 28/25 Q1008","temp":28,"dewp":25,"wdir":40,"wspd":2,"visib":"6+","altim":1008,"clouds":[{"cover":"SCT","base":2000},{"cover":"SCT","base":2300}],"obsTime":1773856800},"SBME":{"icaoId":"SBME","flightCategory":"VFR","rawOb":"METAR SBME 181800Z 13010KT 9999 FEW030 30/23 Q1008","temp":30,"dewp":23,"wdir":130,"wspd":10,"visib":"6+","altim":1008,"clouds":[{"cover":"FEW","base":3000}],"obsTime":1773856800},"SBCT":{"icaoId":"SBCT","flightCategory":"VFR","rawOb":"METAR SBCT 181800Z 11004KT 050V150 9999 SCT035 FEW040TCU SCT100 28/20 Q1013","temp":28,"dewp":20,"wdir":110,"wspd":4,"visib":"6+","altim":1013,"clouds":[{"cover":"SCT","base":3500},{"cover":"FEW","base":4000},{"cover":"SCT","base":10000}],"obsTime":1773856800},"SBMG":{"icaoId":"SBMG","flightCategory":"VFR","rawOb":"METAR SBMG 181800Z VRB03KT 9999 FEW030TCU BKN035 30/21 Q1010","temp":30,"dewp":21,"wdir":"VRB","wspd":3,"visib":"6+","altim":1010,"clouds":[{"cover":"FEW","base":3000},{"cover":"BKN","base":3500}],"obsTime":1773856800},"SBMK":{"icaoId":"SBMK","flightCategory":"VFR","rawOb":"METAR SBMK 181800Z 01005KT 9999 SCT045 32/22 Q1011","temp":32,"dewp":22,"wdir":10,"wspd":5,"visib":"6+","altim":1011,"clouds":[{"cover":"SCT","base":4500}],"obsTime":1773856800},"SBMO":{"icaoId":"SBMO","flightCategory":"VFR","rawOb":"METAR SBMO 181800Z 10013KT 9999 FEW030 31/23 Q1010","temp":31,"dewp":23,"wdir":100,"wspd":13,"visib":"6+","altim":1010,"clouds":[{"cover":"FEW","base":3000}],"obsTime":1773856800},"SBHT":{"icaoId":"SBHT","flightCategory":"VFR","rawOb":"METAR SBHT 181800Z 10004KT 9999 SCT025 SCT100 30/23 Q1008","temp":30,"dewp":23,"wdir":100,"wspd":4,"visib":"6+","altim":1008,"clouds":[{"cover":"SCT","base":2500},{"cover":"SCT","base":10000}],"obsTime":1773856800},"SBBR":{"icaoId":"SBBR","flightCategory":"VFR","rawOb":"METAR SBBR 181800Z 33005KT 9999 BKN040 FEW050TCU BKN070 25/19 Q1015","temp":25,"dewp":19,"wdir":330,"wspd":5,"visib":"6+","altim":1015,"clouds":[{"cover":"BKN","base":4000},{"cover":"FEW","base":5000},{"cover":"BKN","base":7000}],"obsTime":1773856800},"SBIL":{"icaoId":"SBIL","flightCategory":"VFR","rawOb":"METAR SBIL 181800Z 09010KT 9999 FEW023 31/24 Q1009","temp":31,"dewp":24,"wdir":90,"wspd":10,"visib":"6+","altim":1009,"clouds":[{"cover":"FEW","base":2300}],"obsTime":1773856800},"SBAT":{"icaoId":"SBAT","flightCategory":"VFR","rawOb":"METAR SBAT 181800Z 12002KT 9999 SCT035 FEW040TCU 32/24 Q1009","temp":32,"dewp":24,"wdir":120,"wspd":2,"visib":"6+","altim":1009,"clouds":[{"cover":"SCT","base":3500},{"cover":"FEW","base":4000}],"obsTime":1773856800},"SBJU":{"icaoId":"SBJU","flightCategory":"VFR","rawOb":"METAR SBJU 181800Z 00000KT 9999 SCT022 30/23 Q1010","temp":30,"dewp":23,"wdir":0,"wspd":0,"visib":"6+","altim":1010,"clouds":[{"cover":"SCT","base":2200}],"obsTime":1773856800},"SBCP":{"icaoId":"SBCP","flightCategory":"MVFR","rawOb":"METAR SBCP 181800Z 09010KT 9999 BKN020 30/24 Q1008","temp":30,"dewp":24,"wdir":90,"wspd":10,"visib":"6+","altim":1008,"clouds":[{"cover":"BKN","base":2000}],"obsTime":1773856800},"SBKP":{"icaoId":"SBKP","flightCategory":"VFR","rawOb":"METAR SBKP 181800Z VRB07KT 9999 FEW040 FEW045TCU 29/21 Q1011","temp":29,"dewp":21,"wdir":"VRB","wspd":7,"visib":"6+","altim":1011,"clouds":[{"cover":"FEW","base":4000},{"cover":"FEW","base":4500}],"obsTime":1773856800},"SBBV":{"icaoId":"SBBV","flightCategory":"VFR","rawOb":"METAR SBBV 181800Z 09011KT 9999 BKN040 FEW045TCU 33/19 Q1009","temp":33,"dewp":19,"wdir":90,"wspd":11,"visib":"6+","altim":1009,"clouds":[{"cover":"BKN","base":4000},{"cover":"FEW","base":4500}],"obsTime":1773856800},"SBLO":{"icaoId":"SBLO","flightCategory":"MVFR","rawOb":"METAR SBLO 181800Z 03004KT 350V110 9999 3000W -TSRA BKN025 FEW040CB 25/21 Q1011 RERA","temp":25,"dewp":21,"wdir":30,"wspd":4,"visib":"6+","altim":1011,"clouds":[{"cover":"BKN","base":2500},{"cover":"FEW","base":4000}],"obsTime":1773856800},"SBCR":{"icaoId":"SBCR","flightCategory":"VFR","rawOb":"METAR SBCR 181800Z 15009KT 9999 SCT020 SCT070 24/23 Q1007 RETS","temp":24,"dewp":23,"wdir":150,"wspd":9,"visib":"6+","altim":1007,"clouds":[{"cover":"SCT","base":2000},{"cover":"SCT","base":7000}],"obsTime":1773856800},"SBSN":{"icaoId":"SBSN","flightCategory":"VFR","rawOb":"METAR SBSN 181800Z 07008KT 9999 SCT017 SCT100 30/25 Q1009","temp":30,"dewp":25,"wdir":70,"wspd":8,"visib":"6+","altim":1009,"clouds":[{"cover":"SCT","base":1700},{"cover":"SCT","base":10000}],"obsTime":1773856800},"SBFZ":{"icaoId":"SBFZ","flightCategory":"VFR","rawOb":"METAR SBFZ 181800Z 14008KT 9999 SCT025 BKN090 28/24 Q1007","temp":28,"dewp":24,"wdir":140,"wspd":8,"visib":"6+","altim":1007,"clouds":[{"cover":"SCT","base":2500},{"cover":"BKN","base":9000}],"obsTime":1773856800},"SBSP":{"icaoId":"SBSP","flightCategory":"MVFR","rawOb":"METAR SBSP 181800Z 16009KT 130V210 8000 TS VCSH FEW030 BKN035 FEW045CB 28/21 Q1013","temp":28,"dewp":21,"wdir":160,"wspd":9,"visib":4.97,"altim":1013,"clouds":[{"cover":"FEW","base":3000},{"cover":"BKN","base":3500},{"cover":"FEW","base":4500}],"obsTime":1773856800},"SBSV":{"icaoId":"SBSV","flightCategory":"VFR","rawOb":"METAR SBSV 181800Z 10010KT 9999 FEW028 30/21 Q1009","temp":30,"dewp":21,"wdir":100,"wspd":10,"visib":"6+","altim":1009,"clouds":[{"cover":"FEW","base":2800}],"obsTime":1773856800},"SBGL":{"icaoId":"SBGL","flightCategory":"VFR","rawOb":"METAR SBGL 181800Z 13011KT 9999 FEW030 29/22 Q1008","temp":29,"dewp":22,"wdir":130,"wspd":11,"visib":"6+","altim":1008,"clouds":[{"cover":"FEW","base":3000}],"obsTime":1773856800},"SBVT":{"icaoId":"SBVT","flightCategory":"VFR","rawOb":"METAR SBVT 181800Z 07011KT 9999 SCT030 BKN080 29/24 Q1008","temp":29,"dewp":24,"wdir":70,"wspd":11,"visib":"6+","altim":1008,"clouds":[{"cover":"SCT","base":3000},{"cover":"BKN","base":8000}],"obsTime":1773856800},"SBUL":{"icaoId":"SBUL","flightCategory":"VFR","rawOb":"METAR SBUL 181800Z 04008KT 9999 SCT030 27/20 Q1013","temp":27,"dewp":20,"wdir":40,"wspd":8,"visib":"6+","altim":1013,"clouds":[{"cover":"SCT","base":3000}],"obsTime":1773856800},"SBUR":{"icaoId":"SBUR","flightCategory":"VFR","rawOb":"METAR SBUR 181800Z 03004KT 9999 FEW032 FEW035TCU 28/25 Q1012","temp":28,"dewp":25,"wdir":30,"wspd":4,"visib":"6+","altim":1012,"clouds":[{"cover":"FEW","base":3200},{"cover":"FEW","base":3500}],"obsTime":1773856800},"SBGO":{"icaoId":"SBGO","flightCategory":"VFR","rawOb":"METAR SBGO 181800Z 30007KT 250V020 9999 SCT040 FEW045TCU 30/21 Q1012","temp":30,"dewp":21,"wdir":300,"wspd":7,"visib":"6+","altim":1012,"clouds":[{"cover":"SCT","base":4000},{"cover":"FEW","base":4500}],"obsTime":1773856800},"SBGR":{"icaoId":"SBGR","flightCategory":"VFR","rawOb":"METAR SBGR 181800Z 18006KT 9999 VCSH BKN040 28/20 Q1012","temp":28,"dewp":20,"wdir":180,"wspd":6,"visib":"6+","altim":1012,"clouds":[{"cover":"BKN","base":4000}],"obsTime":1773856800},"SBCC":{"icaoId":"SBCC","flightCategory":"MVFR","rawOb":"METAR SBCC 181800Z 24005KT 9999 BKN030 27/22 Q1010","temp":27,"dewp":22,"wdir":240,"wspd":5,"visib":"6+","altim":1010,"clouds":[{"cover":"BKN","base":3000}],"obsTime":1773856800},"SBAR":{"icaoId":"SBAR","flightCategory":"VFR","rawOb":"METAR SBAR 181800Z 12008KT 9999 FEW025 SCT080 30/23 Q1009","temp":30,"dewp":23,"wdir":120,"wspd":8,"visib":"6+","altim":1009,"clouds":[{"cover":"FEW","base":2500},{"cover":"SCT","base":8000}],"obsTime":1773856800},"SBAX":{"icaoId":"SBAX","flightCategory":"VFR","rawOb":"METAR SBAX 181800Z 36007KT 9999 VCSH SCT030 BKN080 27/18 Q1014","temp":27,"dewp":18,"wdir":360,"wspd":7,"visib":"6+","altim":1014,"clouds":[{"cover":"SCT","base":3000},{"cover":"BKN","base":8000}],"obsTime":1773856800},"SBBH":{"icaoId":"SBBH","flightCategory":"VFR","rawOb":"METAR SBBH 181800Z 35003KT 9999 SCT035 FEW040TCU 28/20 Q1013","temp":28,"dewp":20,"wdir":350,"wspd":3,"visib":"6+","altim":1013,"clouds":[{"cover":"SCT","base":3500},{"cover":"FEW","base":4000}],"obsTime":1773856800},"SBBQ":{"icaoId":"SBBQ","flightCategory":"VFR","rawOb":"METAR SBBQ 181800Z 35007KT 9999 BKN035 FEW040TCU 27/20 Q1016","temp":27,"dewp":20,"wdir":350,"wspd":7,"visib":"6+","altim":1016,"clouds":[{"cover":"BKN","base":3500},{"cover":"FEW","base":4000}],"obsTime":1773856800},"SBBU":{"icaoId":"SBBU","flightCategory":"MVFR","rawOb":"METAR SBBU 181800Z 17004KT 9999 BKN030 29/24 Q1010","temp":29,"dewp":24,"wdir":170,"wspd":4,"visib":"6+","altim":1010,"clouds":[{"cover":"BKN","base":3000}],"obsTime":1773856800},"SBCA":{"icaoId":"SBCA","flightCategory":"VFR","rawOb":"METAR SBCA 181800Z 34007KT 290V040 9999 SCT030 BKN070 28/20 Q1013","temp":28,"dewp":20,"wdir":340,"wspd":7,"visib":"6+","altim":1013,"clouds":[{"cover":"SCT","base":3000},{"cover":"BKN","base":7000}],"obsTime":1773856800},"SBCJ":{"icaoId":"SBCJ","flightCategory":"MVFR","rawOb":"METAR SBCJ 181800Z 00000KT 9999 BKN023 27/22 Q1013","temp":27,"dewp":22,"wdir":0,"wspd":0,"visib":"6+","altim":1013,"clouds":[{"cover":"BKN","base":2300}],"obsTime":1773856800},"SBCO":{"icaoId":"SBCO","flightCategory":"VFR","rawOb":"METAR SBCO 181800Z 26005KT 200V320 9999 VCSH SCT025 FEW030TCU BKN098 30/23 Q1008","temp":30,"dewp":23,"wdir":260,"wspd":5,"visib":"6+","altim":1008,"clouds":[{"cover":"SCT","base":2500},{"cover":"FEW","base":3000},{"cover":"BKN","base":9800}],"obsTime":1773856800},"SBDN":{"icaoId":"SBDN","flightCategory":"VFR","rawOb":"METAR SBDN 181800Z 33003KT 9999 BKN035 FEW060TCU 31/21 Q1009","temp":31,"dewp":21,"wdir":330,"wspd":3,"visib":"6+","altim":1009,"clouds":[{"cover":"BKN","base":3500},{"cover":"FEW","base":6000}],"obsTime":1773856800},"SBES":{"icaoId":"SBES","flightCategory":"VFR","rawOb":"METAR SBES 181800Z 10008KT 9999 SCT025 28/// Q1009","temp":null,"dewp":null,"wdir":100,"wspd":8,"visib":"6+","altim":1009,"clouds":[{"cover":"SCT","base":2500}],"obsTime":1773856800},"SBGM":{"icaoId":"SBGM","flightCategory":"VFR","rawOb":"METAR SBGM 181800Z 23009KT 180V270 9999 SCT020 30/18 Q1010","temp":30,"dewp":18,"wdir":230,"wspd":9,"visib":"6+","altim":1010,"clouds":[{"cover":"SCT","base":2000}],"obsTime":1773856800},"SBIP":{"icaoId":"SBIP","flightCategory":"VFR","rawOb":"METAR SBIP 181800Z AUTO 01005KT 330V050 9999 ///////// 32/21 Q1009","temp":32,"dewp":21,"wdir":10,"wspd":5,"visib":"6+","altim":1009,"clouds":[],"obsTime":1773856800},"SBKG":{"icaoId":"SBKG","flightCategory":"VFR","rawOb":"METAR SBKG 181800Z 09010KT 9999 FEW030 30/20 Q1011","temp":30,"dewp":20,"wdir":90,"wspd":10,"visib":"6+","altim":1011,"clouds":[{"cover":"FEW","base":3000}],"obsTime":1773856800},"SBOI":{"icaoId":"SBOI","flightCategory":"MVFR","rawOb":"METAR SBOI 181800Z AUTO 36009KT 330V040 9999 BKN019 BKN023 OVC039 28/24 Q1010","temp":28,"dewp":24,"wdir":360,"wspd":9,"visib":"6+","altim":1010,"clouds":[{"cover":"BKN","base":1900},{"cover":"BKN","base":2300},{"cover":"OVC","base":3900}],"obsTime":1773856800},"SBPB":{"icaoId":"SBPB","flightCategory":"VFR","rawOb":"METAR SBPB 181800Z 01012KT 9999 SCT016 FEW025TCU 30/25 Q1006","temp":30,"dewp":25,"wdir":10,"wspd":12,"visib":"6+","altim":1006,"clouds":[{"cover":"SCT","base":1600},{"cover":"FEW","base":2500}],"obsTime":1773856800},"SBPL":{"icaoId":"SBPL","flightCategory":"MVFR","rawOb":"METAR SBPL 181800Z 13005KT 9999 BKN030 31/21 Q1010","temp":31,"dewp":21,"wdir":130,"wspd":5,"visib":"6+","altim":1010,"clouds":[{"cover":"BKN","base":3000}],"obsTime":1773856800},"SBPP":{"icaoId":"SBPP","flightCategory":"VFR","rawOb":"METAR SBPP 181800Z 29005KT 9999 SCT009 OVC070 24/20 Q1013","temp":24,"dewp":20,"wdir":290,"wspd":5,"visib":"6+","altim":1013,"clouds":[{"cover":"SCT","base":900},{"cover":"OVC","base":7000}],"obsTime":1773856800},"SBPS":{"icaoId":"SBPS","flightCategory":"VFR","rawOb":"METAR SBPS 181800Z 07011KT 9999 SCT025 FEW030TCU SCT080 29/24 Q1009","temp":29,"dewp":24,"wdir":70,"wspd":11,"visib":"6+","altim":1009,"clouds":[{"cover":"SCT","base":2500},{"cover":"FEW","base":3000},{"cover":"SCT","base":8000}],"obsTime":1773856800},"SBSC":{"icaoId":"SBSC","flightCategory":"VFR","rawOb":"METAR SBSC 181800Z 19007KT 9999 FEW030 29/22 Q1009","temp":29,"dewp":22,"wdir":190,"wspd":7,"visib":"6+","altim":1009,"clouds":[{"cover":"FEW","base":3000}],"obsTime":1773856800},"SBSJ":{"icaoId":"SBSJ","flightCategory":"VFR","rawOb":"METAR SBSJ 181800Z 18002KT 9999 FEW035 31/// Q1011","temp":null,"dewp":null,"wdir":180,"wspd":2,"visib":"6+","altim":1011,"clouds":[{"cover":"FEW","base":3500}],"obsTime":1773856800},"SBSM":{"icaoId":"SBSM","flightCategory":"MVFR","rawOb":"METAR SBSM 181800Z 23004KT 9999 BKN020 BKN035 28/23 Q1010","temp":28,"dewp":23,"wdir":230,"wspd":4,"visib":"6+","altim":1010,"clouds":[{"cover":"BKN","base":2000},{"cover":"BKN","base":3500}],"obsTime":1773856800},"SBSR":{"icaoId":"SBSR","flightCategory":"MVFR","rawOb":"METAR SBSR 181800Z 03008KT 9999 BKN025 SCT070 30/19 Q1010","temp":30,"dewp":19,"wdir":30,"wspd":8,"visib":"6+","altim":1010,"clouds":[{"cover":"BKN","base":2500},{"cover":"SCT","base":7000}],"obsTime":1773856800},"SBTF":{"icaoId":"SBTF","flightCategory":"MVFR","rawOb":"SPECI SBTF 181745Z 00000KT 8000 -TSRA FEW013 SCT030CB OVC100 26/25 Q1009","temp":26,"dewp":25,"wdir":0,"wspd":0,"visib":4.97,"altim":1009,"clouds":[{"cover":"FEW","base":1300},{"cover":"SCT","base":3000},{"cover":"OVC","base":10000}],"obsTime":1773855900},"SBTT":{"icaoId":"SBTT","flightCategory":"MVFR","rawOb":"METAR SBTT 181800Z 06007KT 030V100 5000 BR FEW020 OVC070 23/20 Q1010","temp":23,"dewp":20,"wdir":60,"wspd":7,"visib":3.11,"altim":1010,"clouds":[{"cover":"FEW","base":2000},{"cover":"OVC","base":7000}],"obsTime":1773856800},"SBUY":{"icaoId":"SBUY","flightCategory":"LIFR","rawOb":"METAR SBUY 181800Z 09008KT 1000 RA BKN025 FEW035TCU SCT100 25/24 Q1008","temp":25,"dewp":24,"wdir":90,"wspd":8,"visib":0.62,"altim":1008,"clouds":[{"cover":"BKN","base":2500},{"cover":"FEW","base":3500},{"cover":"SCT","base":10000}],"obsTime":1773856800},"SBVH":{"icaoId":"SBVH","flightCategory":"MVFR","rawOb":"METAR SBVH 181800Z 32007KT 9999 FEW015 BKN030 FEW040TCU 25/22 Q1012 RESHRA","temp":25,"dewp":22,"wdir":320,"wspd":7,"visib":"6+","altim":1012,"clouds":[{"cover":"FEW","base":1500},{"cover":"BKN","base":3000},{"cover":"FEW","base":4000}],"obsTime":1773856800},"SBTA":{"icaoId":"SBTA","flightCategory":"VFR","rawOb":"METAR SBTA 181800Z VRB01KT 9999 VCSH SCT035 FEW040TCU SCT080 28/19 Q1010","temp":28,"dewp":19,"wdir":"VRB","wspd":1,"visib":"6+","altim":1010,"clouds":[{"cover":"SCT","base":3500},{"cover":"FEW","base":4000},{"cover":"SCT","base":8000}],"obsTime":1773856800},"SBAF":{"icaoId":"SBAF","flightCategory":"VFR","rawOb":" SBAF 181800Z 20013KT 9999 FEW030 30/23 Q1008","temp":30,"dewp":23,"wdir":200,"wspd":13,"visib":"6+","altim":1008,"clouds":[{"cover":"FEW","base":3000}],"obsTime":1773856800},"SBAN":{"icaoId":"SBAN","flightCategory":"MVFR","rawOb":"METAR SBAN 181800Z 33003KT 9999 BKN030 FEW035TCU 27/19 Q1015","temp":27,"dewp":19,"wdir":330,"wspd":3,"visib":"6+","altim":1015,"clouds":[{"cover":"BKN","base":3000},{"cover":"FEW","base":3500}],"obsTime":1773856800},"SBGW":{"icaoId":"SBGW","flightCategory":"VFR","rawOb":"METAR SBGW 181800Z 26003KT 9999 SCT030 33/18 Q1010","temp":33,"dewp":18,"wdir":260,"wspd":3,"visib":"6+","altim":1010,"clouds":[{"cover":"SCT","base":3000}],"obsTime":1773856800},"SBIH":{"icaoId":"SBIH","flightCategory":"VFR","rawOb":"METAR SBIH 181800Z 07007KT 9999 SCT016 BKN080 29/24 Q1009","temp":29,"dewp":24,"wdir":70,"wspd":7,"visib":"6+","altim":1009,"clouds":[{"cover":"SCT","base":1600},{"cover":"BKN","base":8000}],"obsTime":1773856800},"SBJP":{"icaoId":"SBJP","flightCategory":"VFR","rawOb":"METAR SBJP 181800Z 10014KT 9999 FEW033 30/22 Q1009","temp":30,"dewp":22,"wdir":100,"wspd":14,"visib":"6+","altim":1009,"clouds":[{"cover":"FEW","base":3300}],"obsTime":1773856800},"SBJR":{"icaoId":"SBJR","flightCategory":"VFR","rawOb":"METAR SBJR 181800Z 17010KT 9999 FEW020 30/22 Q1009","temp":30,"dewp":22,"wdir":170,"wspd":10,"visib":"6+","altim":1009,"clouds":[{"cover":"FEW","base":2000}],"obsTime":1773856800},"SBJV":{"icaoId":"SBJV","flightCategory":"VFR","rawOb":"METAR SBJV 181800Z 04007KT 9999 SCT025 BKN100 29/24 Q1009","temp":29,"dewp":24,"wdir":40,"wspd":7,"visib":"6+","altim":1009,"clouds":[{"cover":"SCT","base":2500},{"cover":"BKN","base":10000}],"obsTime":1773856800},"SBLE":{"icaoId":"SBLE","flightCategory":"VFR","rawOb":"METAR SBLE 181800Z AUTO 13004KT 060V220 CAVOK 31/18 Q1011","temp":31,"dewp":18,"wdir":130,"wspd":4,"visib":"6+","altim":1011,"clouds":[],"obsTime":1773856800},"SBLS":{"icaoId":"SBLS","flightCategory":"VFR","rawOb":"METAR SBLS 181800Z 16003KT 090V240 9999 VCSH SCT025 FEW030TCU BKN090 27/20 Q1013","temp":27,"dewp":20,"wdir":160,"wspd":3,"visib":"6+","altim":1013,"clouds":[{"cover":"SCT","base":2500},{"cover":"FEW","base":3000},{"cover":"BKN","base":9000}],"obsTime":1773856800},"SBMT":{"icaoId":"SBMT","flightCategory":"VFR","rawOb":"METAR SBMT 181800Z 14010KT 100V170 9999 -TSRA BKN040 FEW045CB 27/21 Q1012","temp":27,"dewp":21,"wdir":140,"wspd":10,"visib":"6+","altim":1012,"clouds":[{"cover":"BKN","base":4000},{"cover":"FEW","base":4500}],"obsTime":1773856800},"SBNM":{"icaoId":"SBNM","flightCategory":"VFR","rawOb":"METAR SBNM 181900Z 27004KT 9999 SCT035 32/22 Q1009","temp":32,"dewp":22,"wdir":270,"wspd":4,"visib":"6+","altim":1009,"clouds":[{"cover":"SCT","base":3500}],"obsTime":1773860400},"SBPF":{"icaoId":"SBPF","flightCategory":"VFR","rawOb":"METAR SBPF 181800Z 34005KT 9999 FEW030 28/19 Q1012","temp":28,"dewp":19,"wdir":340,"wspd":5,"visib":"6+","altim":1012,"clouds":[{"cover":"FEW","base":3000}],"obsTime":1773856800},"SBST":{"icaoId":"SBST","flightCategory":"VFR","rawOb":"METAR SBST 181800Z 14008KT 9000 OVC031 27/23 Q1009","temp":27,"dewp":23,"wdir":140,"wspd":8,"visib":5.59,"altim":1009,"clouds":[{"cover":"OVC","base":3100}],"obsTime":1773856800}}}