{"updated":1784176173,"count":57,"data":{"SBMO":{"icaoId":"SBMO","flightCategory":"MVFR","rawOb":"METAR SBMO 160300Z 15007KT 5000 -RA BR SCT005 BKN010 BKN030 22/22 Q1020","temp":22,"dewp":22,"wdir":150,"wspd":7,"visib":3.11,"altim":1020,"clouds":[{"cover":"SCT","base":500},{"cover":"BKN","base":1000},{"cover":"BKN","base":3000}],"obsTime":1784170800},"SBCT":{"icaoId":"SBCT","flightCategory":"LIFR","rawOb":"METAR SBCT 160300Z 04005KT 8000 OVC004 12/12 Q1024","temp":12,"dewp":12,"wdir":40,"wspd":5,"visib":4.97,"altim":1024,"clouds":[{"cover":"OVC","base":400}],"obsTime":1784170800},"SBGL":{"icaoId":"SBGL","flightCategory":"VFR","rawOb":"METAR SBGL 160300Z 11005KT CAVOK 17/13 Q1023","temp":17,"dewp":13,"wdir":110,"wspd":5,"visib":"6+","altim":1023,"clouds":[],"obsTime":1784170800},"SBNT":{"icaoId":"SBNT","flightCategory":"VFR","rawOb":"METAR SBNT 160300Z 17007KT 9999 SCT020 24/22 Q1018","temp":24,"dewp":22,"wdir":170,"wspd":7,"visib":"6+","altim":1018,"clouds":[{"cover":"SCT","base":2000}],"obsTime":1784170800},"SBBR":{"icaoId":"SBBR","flightCategory":"VFR","rawOb":"METAR SBBR 160300Z 07002KT CAVOK 18/14 Q1024","temp":18,"dewp":14,"wdir":70,"wspd":2,"visib":"6+","altim":1024,"clouds":[],"obsTime":1784170800},"SBSL":{"icaoId":"SBSL","flightCategory":"VFR","rawOb":"METAR SBSL 160300Z 07006KT 030V090 9999 FEW020 SCT070 26/24 Q1015","temp":26,"dewp":24,"wdir":70,"wspd":6,"visib":"6+","altim":1015,"clouds":[{"cover":"FEW","base":2000},{"cover":"SCT","base":7000}],"obsTime":1784170800},"SBCF":{"icaoId":"SBCF","flightCategory":"VFR","rawOb":"METAR SBCF 160300Z 16004KT CAVOK 13/09 Q1026","temp":13,"dewp":9,"wdir":160,"wspd":4,"visib":"6+","altim":1026,"clouds":[],"obsTime":1784170800},"SBPV":{"icaoId":"SBPV","flightCategory":"VFR","rawOb":"METAR SBPV 160300Z 15001KT CAVOK 24/23 Q1013","temp":24,"dewp":23,"wdir":150,"wspd":1,"visib":"6+","altim":1013,"clouds":[],"obsTime":1784170800},"SBBV":{"icaoId":"SBBV","flightCategory":"VFR","rawOb":"METAR SBBV 160300Z 09003KT CAVOK 28/24 Q1013","temp":28,"dewp":24,"wdir":90,"wspd":3,"visib":"6+","altim":1013,"clouds":[],"obsTime":1784170800},"SBBE":{"icaoId":"SBBE","flightCategory":"VFR","rawOb":"METAR SBBE 160300Z 07007KT CAVOK 26/23 Q1016","temp":26,"dewp":23,"wdir":70,"wspd":7,"visib":"6+","altim":1016,"clouds":[],"obsTime":1784170800},"SBRB":{"icaoId":"SBRB","flightCategory":"VFR","rawOb":"METAR SBRB 160300Z 35001KT CAVOK 23/23 Q1013","temp":23,"dewp":23,"wdir":350,"wspd":1,"visib":"6+","altim":1013,"clouds":[],"obsTime":1784170800},"SBEG":{"icaoId":"SBEG","flightCategory":"VFR","rawOb":"METAR SBEG 160300Z 01004KT CAVOK 26/24 Q1014","temp":26,"dewp":24,"wdir":10,"wspd":4,"visib":"6+","altim":1014,"clouds":[],"obsTime":1784170800},"SBSV":{"icaoId":"SBSV","flightCategory":"VFR","rawOb":"METAR SBSV 160300Z 15014KT 130V200 9999 SCT027 BKN050 BKN060 25/13 Q1022 WS R10","temp":25,"dewp":13,"wdir":150,"wspd":14,"visib":"6+","altim":1022,"clouds":[{"cover":"SCT","base":2700},{"cover":"BKN","base":5000},{"cover":"BKN","base":6000}],"obsTime":1784170800},"SBFZ":{"icaoId":"SBFZ","flightCategory":"VFR","rawOb":"METAR SBFZ 160300Z 10016KT 9999 SCT025 BKN070 27/22 Q1016","temp":27,"dewp":22,"wdir":100,"wspd":16,"visib":"6+","altim":1016,"clouds":[{"cover":"SCT","base":2500},{"cover":"BKN","base":7000}],"obsTime":1784170800},"SBMQ":{"icaoId":"SBMQ","flightCategory":"VFR","rawOb":"METAR SBMQ 160300Z 06010KT 9999 SCT018 28/25 Q1015","temp":28,"dewp":25,"wdir":60,"wspd":10,"visib":"6+","altim":1015,"clouds":[{"cover":"SCT","base":1800}],"obsTime":1784170800},"SBMA":{"icaoId":"SBMA","flightCategory":"VFR","rawOb":"METAR SBMA 160300Z 07004KT 9999 FEW010 SCT020 FEW023TCU BKN080 24/22 Q1016","temp":24,"dewp":22,"wdir":70,"wspd":4,"visib":"6+","altim":1016,"clouds":[{"cover":"FEW","base":1000},{"cover":"SCT","base":2000},{"cover":"FEW","base":2300},{"cover":"BKN","base":8000}],"obsTime":1784170800},"SBRF":{"icaoId":"SBRF","flightCategory":"MVFR","rawOb":"METAR SBRF 160300Z 14019KT 7000 -SHRA BKN019 25/23 Q1018","temp":25,"dewp":23,"wdir":140,"wspd":19,"visib":4.35,"altim":1018,"clouds":[{"cover":"BKN","base":1900}],"obsTime":1784170800},"SBKP":{"icaoId":"SBKP","flightCategory":"VFR","rawOb":"METAR SBKP 160300Z 12005KT CAVOK 14/13 Q1023","temp":14,"dewp":13,"wdir":120,"wspd":5,"visib":"6+","altim":1023,"clouds":[],"obsTime":1784170800},"SBCG":{"icaoId":"SBCG","flightCategory":"VFR","rawOb":"METAR SBCG 160300Z 06014KT CAVOK 22/12 Q1016","temp":22,"dewp":12,"wdir":60,"wspd":14,"visib":"6+","altim":1016,"clouds":[],"obsTime":1784170800},"SBPA":{"icaoId":"SBPA","flightCategory":"VFR","rawOb":"METAR SBPA 160300Z 08003KT CAVOK 12/11 Q1016","temp":12,"dewp":11,"wdir":80,"wspd":3,"visib":"6+","altim":1016,"clouds":[],"obsTime":1784170800},"SBTE":{"icaoId":"SBTE","flightCategory":"VFR","rawOb":"METAR SBTE 160300Z 16004KT CAVOK 26/23 Q1015","temp":26,"dewp":23,"wdir":160,"wspd":4,"visib":"6+","altim":1015,"clouds":[],"obsTime":1784170800},"SBFL":{"icaoId":"SBFL","flightCategory":"MVFR","rawOb":"METAR SBFL 160300Z 32010KT 9999 BKN025 17/16 Q1022","temp":17,"dewp":16,"wdir":320,"wspd":10,"visib":"6+","altim":1022,"clouds":[{"cover":"BKN","base":2500}],"obsTime":1784170800},"SBME":{"icaoId":"SBME","flightCategory":"VFR","rawOb":"METAR SBME 160300Z 01005KT CAVOK 15/12 Q1025","temp":15,"dewp":12,"wdir":10,"wspd":5,"visib":"6+","altim":1025,"clouds":[],"obsTime":1784170800},"SBMK":{"icaoId":"SBMK","flightCategory":"VFR","rawOb":"METAR SBMK 160300Z 06003KT CAVOK 15/10 Q1025","temp":15,"dewp":10,"wdir":60,"wspd":3,"visib":"6+","altim":1025,"clouds":[],"obsTime":1784170800},"SBUL":{"icaoId":"SBUL","flightCategory":"VFR","rawOb":"METAR SBUL 160300Z 09008KT CAVOK 18/11 Q1024","temp":18,"dewp":11,"wdir":90,"wspd":8,"visib":"6+","altim":1024,"clouds":[],"obsTime":1784170800},"SBUR":{"icaoId":"SBUR","flightCategory":"VFR","rawOb":"METAR SBUR 160300Z 05007KT CAVOK 19/10 Q1022","temp":19,"dewp":10,"wdir":50,"wspd":7,"visib":"6+","altim":1022,"clouds":[],"obsTime":1784170800},"SBJU":{"icaoId":"SBJU","flightCategory":"VFR","rawOb":"METAR SBJU 160300Z 15012KT 9999 SCT022 24/18 Q1020","temp":24,"dewp":18,"wdir":150,"wspd":12,"visib":"6+","altim":1020,"clouds":[{"cover":"SCT","base":2200}],"obsTime":1784170800},"SBSP":{"icaoId":"SBSP","flightCategory":"VFR","rawOb":"METAR SBSP 160300Z AUTO VRB03KT CAVOK 15/11 Q1025","temp":15,"dewp":11,"wdir":"VRB","wspd":3,"visib":"6+","altim":1025,"clouds":[],"obsTime":1784170800},"SBMG":{"icaoId":"SBMG","flightCategory":"VFR","rawOb":"METAR SBMG 160300Z 07012KT CAVOK 18/11 Q1019","temp":18,"dewp":11,"wdir":70,"wspd":12,"visib":"6+","altim":1019,"clouds":[],"obsTime":1784170800},"SBLO":{"icaoId":"SBLO","flightCategory":"VFR","rawOb":"METAR SBLO 160300Z 21003KT CAVOK 14/11 Q1021","temp":14,"dewp":11,"wdir":210,"wspd":3,"visib":"6+","altim":1021,"clouds":[],"obsTime":1784170800},"SBFI":{"icaoId":"SBFI","flightCategory":"VFR","rawOb":"METAR SBFI 160300Z 07005KT CAVOK 16/12 Q1015","temp":16,"dewp":12,"wdir":70,"wspd":5,"visib":"6+","altim":1015,"clouds":[],"obsTime":1784170800},"SBPJ":{"icaoId":"SBPJ","flightCategory":"VFR","rawOb":"METAR SBPJ 160300Z 04003KT 9999 FEW045 25/22 Q1017","temp":25,"dewp":22,"wdir":40,"wspd":3,"visib":"6+","altim":1017,"clouds":[{"cover":"FEW","base":4500}],"obsTime":1784170800},"SBGR":{"icaoId":"SBGR","flightCategory":"VFR","rawOb":"METAR SBGR 160300Z 08007KT CAVOK 12/10 Q1025","temp":12,"dewp":10,"wdir":80,"wspd":7,"visib":"6+","altim":1025,"clouds":[],"obsTime":1784170800},"SBGO":{"icaoId":"SBGO","flightCategory":"VFR","rawOb":"METAR SBGO 160300Z 10005KT CAVOK 23/14 Q1021","temp":23,"dewp":14,"wdir":100,"wspd":5,"visib":"6+","altim":1021,"clouds":[],"obsTime":1784170800},"SBSN":{"icaoId":"SBSN","flightCategory":"VFR","rawOb":"METAR SBSN 160300Z 14003KT CAVOK 25/24 Q1014","temp":25,"dewp":24,"wdir":140,"wspd":3,"visib":"6+","altim":1014,"clouds":[],"obsTime":1784170800},"SBVT":{"icaoId":"SBVT","flightCategory":"VFR","rawOb":"METAR SBVT 160300Z 27003KT 9999 FEW010 BKN055 17/13 Q1026","temp":17,"dewp":13,"wdir":270,"wspd":3,"visib":"6+","altim":1026,"clouds":[{"cover":"FEW","base":1000},{"cover":"BKN","base":5500}],"obsTime":1784170800},"SBSG":{"icaoId":"SBSG","flightCategory":"VFR","rawOb":"METAR SBSG 160300Z VRB02KT 9999 SCT020 23/22 Q1018","temp":23,"dewp":22,"wdir":"VRB","wspd":2,"visib":"6+","altim":1018,"clouds":[{"cover":"SCT","base":2000}],"obsTime":1784170800},"SBTU":{"icaoId":"SBTU","flightCategory":"VFR","rawOb":"METAR SBTU 160300Z AUTO VRB02KT 9999 // OVC079/// 26/22 Q1017","temp":26,"dewp":22,"wdir":"VRB","wspd":2,"visib":"6+","altim":1017,"clouds":[{"cover":"OVC","base":7900}],"obsTime":1784170800},"SBAR":{"icaoId":"SBAR","flightCategory":"VFR","rawOb":"METAR SBAR 160300Z 16013KT 9999 FEW035 SCT050 25/17 Q1021","temp":25,"dewp":17,"wdir":160,"wspd":13,"visib":"6+","altim":1021,"clouds":[{"cover":"FEW","base":3500},{"cover":"SCT","base":5000}],"obsTime":1784170800},"SBPS":{"icaoId":"SBPS","flightCategory":"VFR","rawOb":"METAR SBPS 160300Z 28004KT 9999 BKN040 18/17 Q1025","temp":18,"dewp":17,"wdir":280,"wspd":4,"visib":"6+","altim":1025,"clouds":[{"cover":"BKN","base":4000}],"obsTime":1784170800},"SBOI":{"icaoId":"SBOI","flightCategory":"VFR","rawOb":"METAR SBOI 160300Z AUTO VRB01KT 9999 FEW023 25/24 Q1015","temp":25,"dewp":24,"wdir":"VRB","wspd":1,"visib":"6+","altim":1015,"clouds":[{"cover":"FEW","base":2300}],"obsTime":1784170800},"SBPL":{"icaoId":"SBPL","flightCategory":"VFR","rawOb":"METAR SBPL 160300Z 12013KT 9999 SCT020 22/17 Q1021","temp":22,"dewp":17,"wdir":120,"wspd":13,"visib":"6+","altim":1021,"clouds":[{"cover":"SCT","base":2000}],"obsTime":1784170800},"SBAX":{"icaoId":"SBAX","flightCategory":"VFR","rawOb":"METAR SBAX 160300Z AUTO 12009KT CAVOK 15/09 Q1024","temp":15,"dewp":9,"wdir":120,"wspd":9,"visib":"6+","altim":1024,"clouds":[],"obsTime":1784170800},"SBDN":{"icaoId":"SBDN","flightCategory":"VFR","rawOb":"METAR SBDN 160300Z 09007KT CAVOK 18/10 Q1019","temp":18,"dewp":10,"wdir":90,"wspd":7,"visib":"6+","altim":1019,"clouds":[],"obsTime":1784170800},"SBIP":{"icaoId":"SBIP","flightCategory":"VFR","rawOb":"METAR SBIP 160300Z AUTO 00000KT CAVOK 12/12 Q1026","temp":12,"dewp":12,"wdir":0,"wspd":0,"visib":"6+","altim":1026,"clouds":[],"obsTime":1784170800},"SBSC":{"icaoId":"SBSC","flightCategory":"VFR","rawOb":"METAR SBSC 160300Z 34004KT CAVOK 16/14 Q1023","temp":16,"dewp":14,"wdir":340,"wspd":4,"visib":"6+","altim":1023,"clouds":[],"obsTime":1784170800},"SBSR":{"icaoId":"SBSR","flightCategory":"VFR","rawOb":"METAR SBSR 160300Z 12004KT CAVOK 19/07 Q1021","temp":19,"dewp":7,"wdir":120,"wspd":4,"visib":"6+","altim":1021,"clouds":[],"obsTime":1784170800},"SBKG":{"icaoId":"SBKG","flightCategory":"VFR","rawOb":"METAR SBKG 160300Z 15004KT 9999 SCT015 20/19 Q1021","temp":20,"dewp":19,"wdir":150,"wspd":4,"visib":"6+","altim":1021,"clouds":[{"cover":"SCT","base":1500}],"obsTime":1784170800},"SBSM":{"icaoId":"SBSM","flightCategory":"VFR","rawOb":"METAR SBSM 160300Z 11004KT CAVOK 16/11 Q1014","temp":16,"dewp":11,"wdir":110,"wspd":4,"visib":"6+","altim":1014,"clouds":[],"obsTime":1784170800},"SBCO":{"icaoId":"SBCO","flightCategory":"VFR","rawOb":"METAR SBCO 160300Z 10002KT CAVOK 08/07 Q1016","temp":8,"dewp":7,"wdir":100,"wspd":2,"visib":"6+","altim":1016,"clouds":[],"obsTime":1784170800},"SBSJ":{"icaoId":"SBSJ","flightCategory":"VFR","rawOb":"SPECI SBSJ 160230Z 05004KT 350V120 CAVOK 14/10 Q1024","temp":14,"dewp":10,"wdir":50,"wspd":4,"visib":"6+","altim":1024,"clouds":[],"obsTime":1784169000},"SBJP":{"icaoId":"SBJP","flightCategory":"VFR","rawOb":"METAR SBJP 160300Z 16007KT 9999 SCT013 BKN040 23/23 Q1018","temp":23,"dewp":23,"wdir":160,"wspd":7,"visib":"6+","altim":1018,"clouds":[{"cover":"SCT","base":1300},{"cover":"BKN","base":4000}],"obsTime":1784170800},"SBAN":{"icaoId":"SBAN","flightCategory":"VFR","rawOb":"METAR SBAN 160300Z 10007KT CAVOK 18/14 Q1024","temp":18,"dewp":14,"wdir":100,"wspd":7,"visib":"6+","altim":1024,"clouds":[],"obsTime":1784170800},"SBLE":{"icaoId":"SBLE","flightCategory":"VFR","rawOb":"METAR SBLE 160300Z AUTO 08006KT 9999 FEW029 BKN036 ///// Q1024","temp":null,"dewp":null,"wdir":80,"wspd":6,"visib":"6+","altim":1024,"clouds":[{"cover":"FEW","base":2900},{"cover":"BKN","base":3600}],"obsTime":1784170800},"SBNM":{"icaoId":"SBNM","flightCategory":"VFR","rawOb":"METAR SBNM 160300Z AUTO 03011KT CAVOK 17/09 Q1014","temp":17,"dewp":9,"wdir":30,"wspd":11,"visib":"6+","altim":1014,"clouds":[],"obsTime":1784170800},"SBPF":{"icaoId":"SBPF","flightCategory":"VFR","rawOb":"METAR SBPF 160300Z 05012KT CAVOK 14/09 Q1019","temp":14,"dewp":9,"wdir":50,"wspd":12,"visib":"6+","altim":1019,"clouds":[],"obsTime":1784170800},"SBTA":{"icaoId":"SBTA","flightCategory":"VFR","rawOb":"METAR SBTA 160300Z VRB01KT CAVOK 10/09 Q1024","temp":10,"dewp":9,"wdir":"VRB","wspd":1,"visib":"6+","altim":1024,"clouds":[],"obsTime":1784170800}}}