{"updated":1775507180,"count":82,"data":{"SBPV":{"icaoId":"SBPV","flightCategory":"VFR","rawOb":"METAR SBPV 061900Z 02006KT 9999 SCT030 FEW035TCU 31/23 Q1008","temp":31,"dewp":23,"wdir":20,"wspd":6,"visib":"6+","altim":1008,"clouds":[{"cover":"SCT","base":3000},{"cover":"FEW","base":3500}],"obsTime":1775502000},"SBBE":{"icaoId":"SBBE","flightCategory":"LIFR","rawOb":"SPECI SBBE 061842Z 05015KT 0400 R07/0050N +RA SCT004 BKN012 FEW015TCU 25/25 Q1009","temp":25,"dewp":25,"wdir":50,"wspd":15,"visib":0.25,"altim":1009,"clouds":[{"cover":"SCT","base":400},{"cover":"BKN","base":1200},{"cover":"FEW","base":1500}],"obsTime":1775500920},"SBBR":{"icaoId":"SBBR","flightCategory":"VFR","rawOb":"METAR SBBR 061900Z 09007KT 9999 SCT040 FEW045TCU 28/17 Q1018","temp":28,"dewp":17,"wdir":90,"wspd":7,"visib":"6+","altim":1018,"clouds":[{"cover":"SCT","base":4000},{"cover":"FEW","base":4500}],"obsTime":1775502000},"SBBV":{"icaoId":"SBBV","flightCategory":"VFR","rawOb":"METAR SBBV 061900Z 11008KT 9999 SCT040 FEW045TCU 34/20 Q1008","temp":34,"dewp":20,"wdir":110,"wspd":8,"visib":"6+","altim":1008,"clouds":[{"cover":"SCT","base":4000},{"cover":"FEW","base":4500}],"obsTime":1775502000},"SBCB":{"icaoId":"SBCB","flightCategory":"VFR","rawOb":"METAR SBCB 061900Z 09009KT 9999 FEW020 29/22 Q1016","temp":29,"dewp":22,"wdir":90,"wspd":9,"visib":"6+","altim":1016,"clouds":[{"cover":"FEW","base":2000}],"obsTime":1775502000},"SBCF":{"icaoId":"SBCF","flightCategory":"VFR","rawOb":"METAR SBCF 061900Z 07005KT 050V120 9999 SCT035 FEW040TCU 28/18 Q1018","temp":28,"dewp":18,"wdir":70,"wspd":5,"visib":"6+","altim":1018,"clouds":[{"cover":"SCT","base":3500},{"cover":"FEW","base":4000}],"obsTime":1775502000},"SBCG":{"icaoId":"SBCG","flightCategory":"VFR","rawOb":"METAR SBCG 061900Z 34012KT 9999 VCSH VCTS BKN045 FEW050CB SCT090 32/20 Q1013","temp":32,"dewp":20,"wdir":340,"wspd":12,"visib":"6+","altim":1013,"clouds":[{"cover":"BKN","base":4500},{"cover":"FEW","base":5000},{"cover":"SCT","base":9000}],"obsTime":1775502000},"SBCP":{"icaoId":"SBCP","flightCategory":"VFR","rawOb":"METAR SBCP 061900Z 08010KT 9999 FEW020 29/22 Q1015","temp":29,"dewp":22,"wdir":80,"wspd":10,"visib":"6+","altim":1015,"clouds":[{"cover":"FEW","base":2000}],"obsTime":1775502000},"SBCR":{"icaoId":"SBCR","flightCategory":"VFR","rawOb":"METAR SBCR 061900Z 04010KT 010V070 9999 SCT040 34/22 Q1009","temp":34,"dewp":22,"wdir":40,"wspd":10,"visib":"6+","altim":1009,"clouds":[{"cover":"SCT","base":4000}],"obsTime":1775502000},"SBCT":{"icaoId":"SBCT","flightCategory":"VFR","rawOb":"METAR SBCT 061900Z 06009KT 9999 SCT025 25/18 Q1020","temp":25,"dewp":18,"wdir":60,"wspd":9,"visib":"6+","altim":1020,"clouds":[{"cover":"SCT","base":2500}],"obsTime":1775502000},"SBCZ":{"icaoId":"SBCZ","flightCategory":"MVFR","rawOb":"METAR SBCZ 061900Z 14004KT 9999 BKN030 FEW035TCU SCT100 31/24 Q1009","temp":31,"dewp":24,"wdir":140,"wspd":4,"visib":"6+","altim":1009,"clouds":[{"cover":"BKN","base":3000},{"cover":"FEW","base":3500},{"cover":"SCT","base":10000}],"obsTime":1775502000},"SBEG":{"icaoId":"SBEG","flightCategory":"VFR","rawOb":"METAR SBEG 061900Z 13006KT 9999 VCSH SCT025 FEW030TCU SCT090 32/25 Q1009","temp":32,"dewp":25,"wdir":130,"wspd":6,"visib":"6+","altim":1009,"clouds":[{"cover":"SCT","base":2500},{"cover":"FEW","base":3000},{"cover":"SCT","base":9000}],"obsTime":1775502000},"SBFI":{"icaoId":"SBFI","flightCategory":"VFR","rawOb":"METAR SBFI 061900Z 36011KT 9999 SCT030 FEW030TCU 33/23 Q1011","temp":33,"dewp":23,"wdir":360,"wspd":11,"visib":"6+","altim":1011,"clouds":[{"cover":"SCT","base":3000},{"cover":"FEW","base":3000}],"obsTime":1775502000},"SBFL":{"icaoId":"SBFL","flightCategory":"MVFR","rawOb":"METAR SBFL 061900Z 07004KT 7000 -DZ BKN012 OVC021 24/23 Q1017","temp":24,"dewp":23,"wdir":70,"wspd":4,"visib":4.35,"altim":1017,"clouds":[{"cover":"BKN","base":1200},{"cover":"OVC","base":2100}],"obsTime":1775502000},"SBFZ":{"icaoId":"SBFZ","flightCategory":"VFR","rawOb":"METAR SBFZ 061900Z 09008KT 060V120 9999 FEW030 30/24 Q1010","temp":30,"dewp":24,"wdir":90,"wspd":8,"visib":"6+","altim":1010,"clouds":[{"cover":"FEW","base":3000}],"obsTime":1775502000},"SBGL":{"icaoId":"SBGL","flightCategory":"VFR","rawOb":"METAR SBGL 061900Z 13011KT 9999 FEW025 FEW030TCU 28/23 Q1015","temp":28,"dewp":23,"wdir":130,"wspd":11,"visib":"6+","altim":1015,"clouds":[{"cover":"FEW","base":2500},{"cover":"FEW","base":3000}],"obsTime":1775502000},"SBGO":{"icaoId":"SBGO","flightCategory":"VFR","rawOb":"METAR SBGO 061900Z COR 08007KT 9999 VCSH FEW040 FEW045TCU 30/20 Q1015","temp":30,"dewp":20,"wdir":80,"wspd":7,"visib":"6+","altim":1015,"clouds":[{"cover":"FEW","base":4000},{"cover":"FEW","base":4500}],"obsTime":1775502000},"SBGR":{"icaoId":"SBGR","flightCategory":"VFR","rawOb":"METAR SBGR 061900Z 11009KT 9999 SCT030 FEW040TCU 28/20 Q1018","temp":28,"dewp":20,"wdir":110,"wspd":9,"visib":"6+","altim":1018,"clouds":[{"cover":"SCT","base":3000},{"cover":"FEW","base":4000}],"obsTime":1775502000},"SBHT":{"icaoId":"SBHT","flightCategory":"VFR","rawOb":"METAR SBHT 061900Z 12004KT 9999 SCT030 32/24 Q1009","temp":32,"dewp":24,"wdir":120,"wspd":4,"visib":"6+","altim":1009,"clouds":[{"cover":"SCT","base":3000}],"obsTime":1775502000},"SBIL":{"icaoId":"SBIL","flightCategory":"VFR","rawOb":"METAR SBIL 061900Z 14006KT 9999 SCT027 30/25 Q1014","temp":30,"dewp":25,"wdir":140,"wspd":6,"visib":"6+","altim":1014,"clouds":[{"cover":"SCT","base":2700}],"obsTime":1775502000},"SBJU":{"icaoId":"SBJU","flightCategory":"VFR","rawOb":"METAR SBJU 061900Z 06004KT 9999 FEW021 FEW023TCU 29/22 Q1013","temp":29,"dewp":22,"wdir":60,"wspd":4,"visib":"6+","altim":1013,"clouds":[{"cover":"FEW","base":2100},{"cover":"FEW","base":2300}],"obsTime":1775502000},"SBKP":{"icaoId":"SBKP","flightCategory":"VFR","rawOb":"METAR SBKP 061900Z 10010KT 9999 VCSH FEW040TCU BKN045 31/20 Q1016","temp":31,"dewp":20,"wdir":100,"wspd":10,"visib":"6+","altim":1016,"clouds":[{"cover":"FEW","base":4000},{"cover":"BKN","base":4500}],"obsTime":1775502000},"SBLO":{"icaoId":"SBLO","flightCategory":"VFR","rawOb":"METAR SBLO 061900Z 07006KT 9999 SCT040 31/19 Q1015","temp":31,"dewp":19,"wdir":70,"wspd":6,"visib":"6+","altim":1015,"clouds":[{"cover":"SCT","base":4000}],"obsTime":1775502000},"SBMA":{"icaoId":"SBMA","flightCategory":"VFR","rawOb":"METAR SBMA 061900Z 28005KT 9999 SCT020 FEW025TCU 31/25 Q1009","temp":31,"dewp":25,"wdir":280,"wspd":5,"visib":"6+","altim":1009,"clouds":[{"cover":"SCT","base":2000},{"cover":"FEW","base":2500}],"obsTime":1775502000},"SBME":{"icaoId":"SBME","flightCategory":"VFR","rawOb":"METAR SBME 061900Z 14006KT 9999 TS FEW025TCU FEW030CB 28/24 Q1016","temp":28,"dewp":24,"wdir":140,"wspd":6,"visib":"6+","altim":1016,"clouds":[{"cover":"FEW","base":2500},{"cover":"FEW","base":3000}],"obsTime":1775502000},"SBMG":{"icaoId":"SBMG","flightCategory":"VFR","rawOb":"METAR SBMG 061900Z 04010KT 9999 FEW045 FEW050TCU 32/19 Q1013","temp":32,"dewp":19,"wdir":40,"wspd":10,"visib":"6+","altim":1013,"clouds":[{"cover":"FEW","base":4500},{"cover":"FEW","base":5000}],"obsTime":1775502000},"SBMK":{"icaoId":"SBMK","flightCategory":"VFR","rawOb":"METAR SBMK 061900Z 07004KT 9999 SCT040 31/18 Q1016","temp":31,"dewp":18,"wdir":70,"wspd":4,"visib":"6+","altim":1016,"clouds":[{"cover":"SCT","base":4000}],"obsTime":1775502000},"SBMO":{"icaoId":"SBMO","flightCategory":"VFR","rawOb":"METAR SBMO 061900Z 13008KT 090V160 9999 FEW026 30/23 Q1012","temp":30,"dewp":23,"wdir":130,"wspd":8,"visib":"6+","altim":1012,"clouds":[{"cover":"FEW","base":2600}],"obsTime":1775502000},"SBMQ":{"icaoId":"SBMQ","flightCategory":"VFR","rawOb":"METAR SBMQ 061900Z 06012KT 9999 FEW020 29/25 Q1010","temp":29,"dewp":25,"wdir":60,"wspd":12,"visib":"6+","altim":1010,"clouds":[{"cover":"FEW","base":2000}],"obsTime":1775502000},"SBNT":{"icaoId":"SBNT","flightCategory":"VFR","rawOb":"METAR SBNT 061900Z 13015KT 9999 SCT035 30/24 Q1011","temp":30,"dewp":24,"wdir":130,"wspd":15,"visib":"6+","altim":1011,"clouds":[{"cover":"SCT","base":3500}],"obsTime":1775502000},"SBPA":{"icaoId":"SBPA","flightCategory":"VFR","rawOb":"METAR SBPA 061900Z 10018KT 9999 FEW040 28/20 Q1013","temp":28,"dewp":20,"wdir":100,"wspd":18,"visib":"6+","altim":1013,"clouds":[{"cover":"FEW","base":4000}],"obsTime":1775502000},"SBPJ":{"icaoId":"SBPJ","flightCategory":"VFR","rawOb":"METAR SBPJ 061900Z 36002KT 9999 FEW027 FEW030TCU 29/25 Q1013","temp":29,"dewp":25,"wdir":360,"wspd":2,"visib":"6+","altim":1013,"clouds":[{"cover":"FEW","base":2700},{"cover":"FEW","base":3000}],"obsTime":1775502000},"SBAT":{"icaoId":"SBAT","flightCategory":"VFR","rawOb":"METAR SBAT 061900Z 12005KT 9999 SCT035 34/24 Q1010","temp":34,"dewp":24,"wdir":120,"wspd":5,"visib":"6+","altim":1010,"clouds":[{"cover":"SCT","base":3500}],"obsTime":1775502000},"SBRB":{"icaoId":"SBRB","flightCategory":"VFR","rawOb":"METAR SBRB 061900Z 04005KT 010V080 9999 BKN033 SCT070 31/24 Q1009","temp":31,"dewp":24,"wdir":40,"wspd":5,"visib":"6+","altim":1009,"clouds":[{"cover":"BKN","base":3300},{"cover":"SCT","base":7000}],"obsTime":1775502000},"SBRF":{"icaoId":"SBRF","flightCategory":"VFR","rawOb":"METAR SBRF 061900Z 14009KT 9999 VCSH SCT019 FEW025TCU BKN050 29/25 Q1011","temp":29,"dewp":25,"wdir":140,"wspd":9,"visib":"6+","altim":1011,"clouds":[{"cover":"SCT","base":1900},{"cover":"FEW","base":2500},{"cover":"BKN","base":5000}],"obsTime":1775502000},"SBSG":{"icaoId":"SBSG","flightCategory":"VFR","rawOb":"METAR SBSG 061900Z 12009KT 090V150 9999 VCSH SCT030 FEW035TCU 30/23 Q1011","temp":30,"dewp":23,"wdir":120,"wspd":9,"visib":"6+","altim":1011,"clouds":[{"cover":"SCT","base":3000},{"cover":"FEW","base":3500}],"obsTime":1775502000},"SBSL":{"icaoId":"SBSL","flightCategory":"VFR","rawOb":"METAR SBSL 061900Z 01006KT 290V100 9999 SCT024 BKN070 30/24 Q1010","temp":30,"dewp":24,"wdir":10,"wspd":6,"visib":"6+","altim":1010,"clouds":[{"cover":"SCT","base":2400},{"cover":"BKN","base":7000}],"obsTime":1775502000},"SBSN":{"icaoId":"SBSN","flightCategory":"VFR","rawOb":"METAR SBSN 061900Z 07010KT 9999 FEW020 FEW025TCU 31/24 Q1008","temp":31,"dewp":24,"wdir":70,"wspd":10,"visib":"6+","altim":1008,"clouds":[{"cover":"FEW","base":2000},{"cover":"FEW","base":2500}],"obsTime":1775502000},"SBSP":{"icaoId":"SBSP","flightCategory":"VFR","rawOb":"METAR SBSP 061900Z 17014KT 9999 SCT020 25/20 Q1019","temp":25,"dewp":20,"wdir":170,"wspd":14,"visib":"6+","altim":1019,"clouds":[{"cover":"SCT","base":2000}],"obsTime":1775502000},"SBSV":{"icaoId":"SBSV","flightCategory":"VFR","rawOb":"METAR SBSV 061900Z 13008KT 100V170 9999 SCT020 FEW025TCU BKN090 29/23 Q1013","temp":29,"dewp":23,"wdir":130,"wspd":8,"visib":"6+","altim":1013,"clouds":[{"cover":"SCT","base":2000},{"cover":"FEW","base":2500},{"cover":"BKN","base":9000}],"obsTime":1775502000},"SBTE":{"icaoId":"SBTE","flightCategory":"VFR","rawOb":"METAR SBTE 061900Z 00000KT 9999 SCT020 BKN100 27/24 Q1010","temp":27,"dewp":24,"wdir":0,"wspd":0,"visib":"6+","altim":1010,"clouds":[{"cover":"SCT","base":2000},{"cover":"BKN","base":10000}],"obsTime":1775502000},"SBUL":{"icaoId":"SBUL","flightCategory":"VFR","rawOb":"METAR SBUL 061900Z 06008KT 020V100 9999 SCT040 FEW045TCU BKN100 27/20 Q1018","temp":27,"dewp":20,"wdir":60,"wspd":8,"visib":"6+","altim":1018,"clouds":[{"cover":"SCT","base":4000},{"cover":"FEW","base":4500},{"cover":"BKN","base":10000}],"obsTime":1775502000},"SBUR":{"icaoId":"SBUR","flightCategory":"VFR","rawOb":"METAR SBUR 061900Z COR 35006KT 9999 FEW040TCU SCT040 30/17 Q1016","temp":30,"dewp":17,"wdir":350,"wspd":6,"visib":"6+","altim":1016,"clouds":[{"cover":"FEW","base":4000},{"cover":"SCT","base":4000}],"obsTime":1775502000},"SBVT":{"icaoId":"SBVT","flightCategory":"VFR","rawOb":"METAR SBVT 061900Z 11009KT 9999 FEW040 29/23 Q1015","temp":29,"dewp":23,"wdir":110,"wspd":9,"visib":"6+","altim":1015,"clouds":[{"cover":"FEW","base":4000}],"obsTime":1775502000},"SBOI":{"icaoId":"SBOI","flightCategory":"IFR","rawOb":"METAR SBOI 061900Z AUTO 03006KT 010V070 8000 -RA BKN005 OVC009 25/24 Q1011 RERA","temp":25,"dewp":24,"wdir":30,"wspd":6,"visib":4.97,"altim":1011,"clouds":[{"cover":"BKN","base":500},{"cover":"OVC","base":900}],"obsTime":1775502000},"SBCJ":{"icaoId":"SBCJ","flightCategory":"IFR","rawOb":"METAR SBCJ 061900Z 15009KT 2000 RA BR BKN007 SCT017 FEW024TCU 24/22 Q1015","temp":24,"dewp":22,"wdir":150,"wspd":9,"visib":1.24,"altim":1015,"clouds":[{"cover":"BKN","base":700},{"cover":"SCT","base":1700},{"cover":"FEW","base":2400}],"obsTime":1775502000},"SBPB":{"icaoId":"SBPB","flightCategory":"VFR","rawOb":"METAR SBPB 061900Z 06011KT 9999 SCT020 FEW025TCU 29/25 Q1010","temp":29,"dewp":25,"wdir":60,"wspd":11,"visib":"6+","altim":1010,"clouds":[{"cover":"SCT","base":2000},{"cover":"FEW","base":2500}],"obsTime":1775502000},"SBBU":{"icaoId":"SBBU","flightCategory":"VFR","rawOb":"METAR SBBU 061900Z 10010KT 080V150 9999 -TSRA FEW035 BKN045 FEW050CB 24/21 Q1016 RERA","temp":24,"dewp":21,"wdir":100,"wspd":10,"visib":"6+","altim":1016,"clouds":[{"cover":"FEW","base":3500},{"cover":"BKN","base":4500},{"cover":"FEW","base":5000}],"obsTime":1775502000},"SBPL":{"icaoId":"SBPL","flightCategory":"VFR","rawOb":"METAR SBPL 061900Z 08003KT 9999 FEW030 BKN070 32/21 Q1012","temp":32,"dewp":21,"wdir":80,"wspd":3,"visib":"6+","altim":1012,"clouds":[{"cover":"FEW","base":3000},{"cover":"BKN","base":7000}],"obsTime":1775502000},"SBPP":{"icaoId":"SBPP","flightCategory":"VFR","rawOb":"METAR SBPP 061900Z 02009KT 9999 SCT020 31/22 Q1013","temp":31,"dewp":22,"wdir":20,"wspd":9,"visib":"6+","altim":1013,"clouds":[{"cover":"SCT","base":2000}],"obsTime":1775502000},"SBCO":{"icaoId":"SBCO","flightCategory":"VFR","rawOb":"METAR SBCO 061900Z 10017KT 9999 FEW035 28/20 Q1014","temp":28,"dewp":20,"wdir":100,"wspd":17,"visib":"6+","altim":1014,"clouds":[{"cover":"FEW","base":3500}],"obsTime":1775502000},"SBPS":{"icaoId":"SBPS","flightCategory":"VFR","rawOb":"METAR SBPS 061900Z 12006KT 9999 SCT017 28/23 Q1015","temp":28,"dewp":23,"wdir":120,"wspd":6,"visib":"6+","altim":1015,"clouds":[{"cover":"SCT","base":1700}],"obsTime":1775502000},"SBBH":{"icaoId":"SBBH","flightCategory":"VFR","rawOb":"METAR SBBH 061900Z 06006KT 9999 SCT040 29/18 Q1018","temp":29,"dewp":18,"wdir":60,"wspd":6,"visib":"6+","altim":1018,"clouds":[{"cover":"SCT","base":4000}],"obsTime":1775502000},"SBSC":{"icaoId":"SBSC","flightCategory":"VFR","rawOb":"METAR SBSC 061900Z 17010KT 9999 FEW030 28/23 Q1015","temp":28,"dewp":23,"wdir":170,"wspd":10,"visib":"6+","altim":1015,"clouds":[{"cover":"FEW","base":3000}],"obsTime":1775502000},"SBDN":{"icaoId":"SBDN","flightCategory":"VFR","rawOb":"METAR SBDN 061900Z 01006KT 9999 VCTS FEW040 FEW045CB 32/21 Q1013","temp":32,"dewp":21,"wdir":10,"wspd":6,"visib":"6+","altim":1013,"clouds":[{"cover":"FEW","base":4000},{"cover":"FEW","base":4500}],"obsTime":1775502000},"SBCA":{"icaoId":"SBCA","flightCategory":"VFR","rawOb":"METAR SBCA 061900Z 05012KT 9999 SCT035 28/20 Q1016","temp":28,"dewp":20,"wdir":50,"wspd":12,"visib":"6+","altim":1016,"clouds":[{"cover":"SCT","base":3500}],"obsTime":1775502000},"SBSJ":{"icaoId":"SBSJ","flightCategory":"VFR","rawOb":"METAR SBSJ 061900Z 10006KT 020V170 9999 SCT040 FEW045TCU 28/20 Q1017","temp":28,"dewp":20,"wdir":100,"wspd":6,"visib":"6+","altim":1017,"clouds":[{"cover":"SCT","base":4000},{"cover":"FEW","base":4500}],"obsTime":1775502000},"SBSM":{"icaoId":"SBSM","flightCategory":"VFR","rawOb":"METAR SBSM 061900Z 12007KT 080V150 9999 VCTS FEW040 FEW045CB SCT080 27/21 Q1011","temp":27,"dewp":21,"wdir":120,"wspd":7,"visib":"6+","altim":1011,"clouds":[{"cover":"FEW","base":4000},{"cover":"FEW","base":4500},{"cover":"SCT","base":8000}],"obsTime":1775502000},"SBAX":{"icaoId":"SBAX","flightCategory":"VFR","rawOb":"METAR SBAX 061900Z 11009KT 9999 -RA SCT023 SCT040 22/20 Q1018","temp":22,"dewp":20,"wdir":110,"wspd":9,"visib":"6+","altim":1018,"clouds":[{"cover":"SCT","base":2300},{"cover":"SCT","base":4000}],"obsTime":1775502000},"SBSR":{"icaoId":"SBSR","flightCategory":"VFR","rawOb":"METAR SBSR 061900Z 03006KT 9999 FEW030 30/18 Q1014","temp":30,"dewp":18,"wdir":30,"wspd":6,"visib":"6+","altim":1014,"clouds":[{"cover":"FEW","base":3000}],"obsTime":1775502000},"SBES":{"icaoId":"SBES","flightCategory":"VFR","rawOb":"METAR SBES 061900Z 11006KT 060V160 9999 FEW020 FEW025TCU 28/// Q1016","temp":null,"dewp":null,"wdir":110,"wspd":6,"visib":"6+","altim":1016,"clouds":[{"cover":"FEW","base":2000},{"cover":"FEW","base":2500}],"obsTime":1775502000},"SBCC":{"icaoId":"SBCC","flightCategory":"MVFR","rawOb":"METAR SBCC 061900Z 05007KT 9999 BKN020 FEW025TCU BKN100 30/20 Q1012","temp":30,"dewp":20,"wdir":50,"wspd":7,"visib":"6+","altim":1012,"clouds":[{"cover":"BKN","base":2000},{"cover":"FEW","base":2500},{"cover":"BKN","base":10000}],"obsTime":1775502000},"SBTF":{"icaoId":"SBTF","flightCategory":"VFR","rawOb":"METAR SBTF 061900Z 36004KT 9999 SCT021 34/24 Q1008","temp":34,"dewp":24,"wdir":360,"wspd":4,"visib":"6+","altim":1008,"clouds":[{"cover":"SCT","base":2100}],"obsTime":1775502000},"SBKG":{"icaoId":"SBKG","flightCategory":"VFR","rawOb":"METAR SBKG 061900Z 12009KT 9999 FEW020 29/22 Q1013","temp":29,"dewp":22,"wdir":120,"wspd":9,"visib":"6+","altim":1013,"clouds":[{"cover":"FEW","base":2000}],"obsTime":1775502000},"SBTT":{"icaoId":"SBTT","flightCategory":"MVFR","rawOb":"METAR SBTT 061900Z 36010KT 330V030 8000 -RA BKN015 BKN020 26/22 Q1010","temp":26,"dewp":22,"wdir":360,"wspd":10,"visib":4.97,"altim":1010,"clouds":[{"cover":"BKN","base":1500},{"cover":"BKN","base":2000}],"obsTime":1775502000},"SBAR":{"icaoId":"SBAR","flightCategory":"VFR","rawOb":"METAR SBAR 061900Z 14009KT 9999 FEW020 30/24 Q1012","temp":30,"dewp":24,"wdir":140,"wspd":9,"visib":"6+","altim":1012,"clouds":[{"cover":"FEW","base":2000}],"obsTime":1775502000},"SBUY":{"icaoId":"SBUY","flightCategory":"VFR","rawOb":"METAR SBUY 061900Z 06004KT 9999 SCT030 SCT100 33/24 Q1007","temp":33,"dewp":24,"wdir":60,"wspd":4,"visib":"6+","altim":1007,"clouds":[{"cover":"SCT","base":3000},{"cover":"SCT","base":10000}],"obsTime":1775502000},"SBVH":{"icaoId":"SBVH","flightCategory":"VFR","rawOb":"METAR SBVH 061900Z 02010KT 350V050 9999 BKN040 FEW045TCU 31/21 Q1012","temp":31,"dewp":21,"wdir":20,"wspd":10,"visib":"6+","altim":1012,"clouds":[{"cover":"BKN","base":4000},{"cover":"FEW","base":4500}],"obsTime":1775502000},"SBBQ":{"icaoId":"SBBQ","flightCategory":"MVFR","rawOb":"METAR SBBQ 061900Z 08005KT 040V110 9999 BKN030 FEW035TCU 24/17 Q1022","temp":24,"dewp":17,"wdir":80,"wspd":5,"visib":"6+","altim":1022,"clouds":[{"cover":"BKN","base":3000},{"cover":"FEW","base":3500}],"obsTime":1775502000},"SBGM":{"icaoId":"SBGM","flightCategory":"MVFR","rawOb":"METAR SBGM 061900Z 25005KT 230V300 9999 BKN026 BKN040 30/20 Q1009 RETSRA","temp":30,"dewp":20,"wdir":250,"wspd":5,"visib":"6+","altim":1009,"clouds":[{"cover":"BKN","base":2600},{"cover":"BKN","base":4000}],"obsTime":1775502000},"SBJV":{"icaoId":"SBJV","flightCategory":"MVFR","rawOb":"METAR SBJV 061900Z 13005KT 100V160 5000 -RA BR SCT008 BKN013 26/24 Q1016","temp":26,"dewp":24,"wdir":130,"wspd":5,"visib":3.11,"altim":1016,"clouds":[{"cover":"SCT","base":800},{"cover":"BKN","base":1300}],"obsTime":1775502000},"SBGW":{"icaoId":"SBGW","flightCategory":"VFR","rawOb":"METAR SBGW 061900Z 36005KT 330V030 9999 BKN040 FEW042TCU 27/18 Q1017","temp":27,"dewp":18,"wdir":360,"wspd":5,"visib":"6+","altim":1017,"clouds":[{"cover":"BKN","base":4000},{"cover":"FEW","base":4200}],"obsTime":1775502000},"SBLS":{"icaoId":"SBLS","flightCategory":"VFR","rawOb":"METAR SBLS 061900Z 03004KT 300V080 9999 SCT046 FEW050TCU 29/19 Q1018","temp":29,"dewp":19,"wdir":30,"wspd":4,"visib":"6+","altim":1018,"clouds":[{"cover":"SCT","base":4600},{"cover":"FEW","base":5000}],"obsTime":1775502000},"SBAN":{"icaoId":"SBAN","flightCategory":"VFR","rawOb":"METAR SBAN 061900Z 04003KT 9999 TS SCT030 FEW040CB SCT100 24/14 Q1019 RETS","temp":24,"dewp":14,"wdir":40,"wspd":3,"visib":"6+","altim":1019,"clouds":[{"cover":"SCT","base":3000},{"cover":"FEW","base":4000},{"cover":"SCT","base":10000}],"obsTime":1775502000},"SBMT":{"icaoId":"SBMT","flightCategory":"VFR","rawOb":"METAR SBMT 061900Z 14011KT 110V180 9999 SCT029 FEW036TCU 26/20 Q1018","temp":26,"dewp":20,"wdir":140,"wspd":11,"visib":"6+","altim":1018,"clouds":[{"cover":"SCT","base":2900},{"cover":"FEW","base":3600}],"obsTime":1775502000},"SBJP":{"icaoId":"SBJP","flightCategory":"VFR","rawOb":"METAR SBJP 061900Z 11011KT 9999 SCT024 BKN070 30/24 Q1011","temp":30,"dewp":24,"wdir":110,"wspd":11,"visib":"6+","altim":1011,"clouds":[{"cover":"SCT","base":2400},{"cover":"BKN","base":7000}],"obsTime":1775502000},"SBPF":{"icaoId":"SBPF","flightCategory":"VFR","rawOb":"METAR SBPF 062000Z 03011KT 9999 FEW040 FEW050TCU 28/18 Q1015","temp":28,"dewp":18,"wdir":30,"wspd":11,"visib":"6+","altim":1015,"clouds":[{"cover":"FEW","base":4000},{"cover":"FEW","base":5000}],"obsTime":1775505600},"SBST":{"icaoId":"SBST","flightCategory":"MVFR","rawOb":"METAR SBST 061900Z 15009KT 9999 BKN020 27/23 Q1015","temp":27,"dewp":23,"wdir":150,"wspd":9,"visib":"6+","altim":1015,"clouds":[{"cover":"BKN","base":2000}],"obsTime":1775502000},"SBJR":{"icaoId":"SBJR","flightCategory":"VFR","rawOb":"METAR SBJR 061900Z 18007KT 9999 FEW025 FEW030TCU 29/24 Q1015","temp":29,"dewp":24,"wdir":180,"wspd":7,"visib":"6+","altim":1015,"clouds":[{"cover":"FEW","base":2500},{"cover":"FEW","base":3000}],"obsTime":1775502000},"SBTA":{"icaoId":"SBTA","flightCategory":"VFR","rawOb":"METAR SBTA 061900Z 32003KT 290V030 9999 VCSH SCT040 FEW045TCU SCT050 28/20 Q1016","temp":28,"dewp":20,"wdir":320,"wspd":3,"visib":"6+","altim":1016,"clouds":[{"cover":"SCT","base":4000},{"cover":"FEW","base":4500},{"cover":"SCT","base":5000}],"obsTime":1775502000},"SBAF":{"icaoId":"SBAF","flightCategory":"VFR","rawOb":" SBAF 061900Z 18010KT 150V210 9999 FEW020 FEW030TCU 28/24 Q1015","temp":28,"dewp":24,"wdir":180,"wspd":10,"visib":"6+","altim":1015,"clouds":[{"cover":"FEW","base":2000},{"cover":"FEW","base":3000}],"obsTime":1775502000},"SBIH":{"icaoId":"SBIH","flightCategory":"VFR","rawOb":"METAR SBIH 061900Z 03007KT 9999 FEW020 FEW025TCU 33/25 Q1008","temp":33,"dewp":25,"wdir":30,"wspd":7,"visib":"6+","altim":1008,"clouds":[{"cover":"FEW","base":2000},{"cover":"FEW","base":2500}],"obsTime":1775502000}}}