{"updated":1780045191,"count":53,"data":{"SBSP":{"icaoId":"SBSP","flightCategory":"MVFR","rawOb":"METAR SBSP 290700Z AUTO 12006KT 9999 SCT009 OVC011 14/13 Q1023","temp":14,"dewp":13,"wdir":120,"wspd":6,"visib":"6+","altim":1023,"clouds":[{"cover":"SCT","base":900},{"cover":"OVC","base":1100}],"obsTime":1780038000},"SBBV":{"icaoId":"SBBV","flightCategory":"VFR","rawOb":"METAR SBBV 290700Z 29002KT 9999 SCT006 SCT020 FEW030TCU BKN100 24/24 Q1011","temp":24,"dewp":24,"wdir":290,"wspd":2,"visib":"6+","altim":1011,"clouds":[{"cover":"SCT","base":600},{"cover":"SCT","base":2000},{"cover":"FEW","base":3000},{"cover":"BKN","base":10000}],"obsTime":1780038000},"SBMG":{"icaoId":"SBMG","flightCategory":"LIFR","rawOb":"METAR SBMG 290700Z AUTO 14003KT 0450 R10/0650U FG VV001 14/14 Q1019","temp":14,"dewp":14,"wdir":140,"wspd":3,"visib":0.28,"altim":1019,"clouds":[{"cover":"OVX","base":100}],"obsTime":1780038000},"SBBR":{"icaoId":"SBBR","flightCategory":"VFR","rawOb":"METAR SBBR 290700Z VRB02KT CAVOK 16/14 Q1020","temp":16,"dewp":14,"wdir":"VRB","wspd":2,"visib":"6+","altim":1020,"clouds":[],"obsTime":1780038000},"SBUR":{"icaoId":"SBUR","flightCategory":"VFR","rawOb":"METAR SBUR 290700Z 14003KT CAVOK 20/16 Q1019","temp":20,"dewp":16,"wdir":140,"wspd":3,"visib":"6+","altim":1019,"clouds":[],"obsTime":1780038000},"SBUL":{"icaoId":"SBUL","flightCategory":"VFR","rawOb":"METAR SBUL 290700Z 15006KT CAVOK 20/14 Q1020","temp":20,"dewp":14,"wdir":150,"wspd":6,"visib":"6+","altim":1020,"clouds":[],"obsTime":1780038000},"SBCF":{"icaoId":"SBCF","flightCategory":"VFR","rawOb":"METAR SBCF 290700Z 15005KT CAVOK 17/16 Q1020","temp":17,"dewp":16,"wdir":150,"wspd":5,"visib":"6+","altim":1020,"clouds":[],"obsTime":1780038000},"SBCG":{"icaoId":"SBCG","flightCategory":"VFR","rawOb":"METAR SBCG 290700Z 08014KT CAVOK 21/17 Q1017","temp":21,"dewp":17,"wdir":80,"wspd":14,"visib":"6+","altim":1017,"clouds":[],"obsTime":1780038000},"SBTE":{"icaoId":"SBTE","flightCategory":"VFR","rawOb":"METAR SBTE 290700Z 33001KT 9999 SCT016 BKN080 26/25 Q1010","temp":26,"dewp":25,"wdir":330,"wspd":1,"visib":"6+","altim":1010,"clouds":[{"cover":"SCT","base":1600},{"cover":"BKN","base":8000}],"obsTime":1780038000},"SBSV":{"icaoId":"SBSV","flightCategory":"VFR","rawOb":"METAR SBSV 290700Z 14010G20KT 9999 VCSH SCT021 SCT060 25/23 Q1015","temp":25,"dewp":23,"wdir":140,"wspd":10,"visib":"6+","altim":1015,"clouds":[{"cover":"SCT","base":2100},{"cover":"SCT","base":6000}],"obsTime":1780038000},"SBCT":{"icaoId":"SBCT","flightCategory":"IFR","rawOb":"METAR SBCT 290700Z 00000KT 8000 BKN006 11/11 Q1023","temp":11,"dewp":11,"wdir":0,"wspd":0,"visib":4.97,"altim":1023,"clouds":[{"cover":"BKN","base":600}],"obsTime":1780038000},"SBEG":{"icaoId":"SBEG","flightCategory":"VFR","rawOb":"METAR SBEG 290700Z 36001KT CAVOK 25/24 Q1010","temp":25,"dewp":24,"wdir":360,"wspd":1,"visib":"6+","altim":1010,"clouds":[],"obsTime":1780038000},"SBFI":{"icaoId":"SBFI","flightCategory":"VFR","rawOb":"METAR SBFI 290700Z 12003KT 9999 FEW020 BKN100 18/17 Q1017","temp":18,"dewp":17,"wdir":120,"wspd":3,"visib":"6+","altim":1017,"clouds":[{"cover":"FEW","base":2000},{"cover":"BKN","base":10000}],"obsTime":1780038000},"SBSN":{"icaoId":"SBSN","flightCategory":"VFR","rawOb":"METAR SBSN 290700Z 16001KT 9999 FEW015 BKN100 26/25 Q1010","temp":26,"dewp":25,"wdir":160,"wspd":1,"visib":"6+","altim":1010,"clouds":[{"cover":"FEW","base":1500},{"cover":"BKN","base":10000}],"obsTime":1780038000},"SBFL":{"icaoId":"SBFL","flightCategory":"VFR","rawOb":"METAR SBFL 290700Z 00000KT 9999 FEW015 OVC050 17/16 Q1021","temp":17,"dewp":16,"wdir":0,"wspd":0,"visib":"6+","altim":1021,"clouds":[{"cover":"FEW","base":1500},{"cover":"OVC","base":5000}],"obsTime":1780038000},"SBSL":{"icaoId":"SBSL","flightCategory":"VFR","rawOb":"METAR SBSL 290700Z 09006KT 9999 FEW027 27/26 Q1010","temp":27,"dewp":26,"wdir":90,"wspd":6,"visib":"6+","altim":1010,"clouds":[{"cover":"FEW","base":2700}],"obsTime":1780038000},"SBFZ":{"icaoId":"SBFZ","flightCategory":"VFR","rawOb":"METAR SBFZ 290700Z 15006KT 9999 SCT020 25/24 Q1011","temp":25,"dewp":24,"wdir":150,"wspd":6,"visib":"6+","altim":1011,"clouds":[{"cover":"SCT","base":2000}],"obsTime":1780038000},"SBGL":{"icaoId":"SBGL","flightCategory":"MVFR","rawOb":"METAR SBGL 290700Z 34001KT 6000 FEW020 BKN035 20/17 Q1020","temp":20,"dewp":17,"wdir":340,"wspd":1,"visib":3.73,"altim":1020,"clouds":[{"cover":"FEW","base":2000},{"cover":"BKN","base":3500}],"obsTime":1780038000},"SBSG":{"icaoId":"SBSG","flightCategory":"VFR","rawOb":"METAR SBSG 290700Z 18003KT 140V210 9999 FEW020 SCT030 23/22 Q1013","temp":23,"dewp":22,"wdir":180,"wspd":3,"visib":"6+","altim":1013,"clouds":[{"cover":"FEW","base":2000},{"cover":"SCT","base":3000}],"obsTime":1780038000},"SBGO":{"icaoId":"SBGO","flightCategory":"VFR","rawOb":"METAR SBGO 290700Z 10002KT CAVOK 19/16 Q1018","temp":19,"dewp":16,"wdir":100,"wspd":2,"visib":"6+","altim":1018,"clouds":[],"obsTime":1780038000},"SBRF":{"icaoId":"SBRF","flightCategory":"VFR","rawOb":"METAR SBRF 290700Z 22006KT CAVOK 23/22 Q1013","temp":23,"dewp":22,"wdir":220,"wspd":6,"visib":"6+","altim":1013,"clouds":[],"obsTime":1780038000},"SBGR":{"icaoId":"SBGR","flightCategory":"MVFR","rawOb":"METAR SBGR 290700Z 13003KT 9999 OVC023 14/12 Q1022","temp":14,"dewp":12,"wdir":130,"wspd":3,"visib":"6+","altim":1022,"clouds":[{"cover":"OVC","base":2300}],"obsTime":1780038000},"SBRB":{"icaoId":"SBRB","flightCategory":"MVFR","rawOb":"METAR SBRB 290700Z 19002KT 8000 FEW035 22/22 Q1012","temp":22,"dewp":22,"wdir":190,"wspd":2,"visib":4.97,"altim":1012,"clouds":[{"cover":"FEW","base":3500}],"obsTime":1780038000},"SBPV":{"icaoId":"SBPV","flightCategory":"VFR","rawOb":"METAR SBPV 290700Z 00000KT CAVOK 23/22 Q1013","temp":23,"dewp":22,"wdir":0,"wspd":0,"visib":"6+","altim":1013,"clouds":[],"obsTime":1780038000},"SBJU":{"icaoId":"SBJU","flightCategory":"VFR","rawOb":"METAR SBJU 290700Z 18004KT 9999 SCT020 22/19 Q1015","temp":22,"dewp":19,"wdir":180,"wspd":4,"visib":"6+","altim":1015,"clouds":[{"cover":"SCT","base":2000}],"obsTime":1780038000},"SBPJ":{"icaoId":"SBPJ","flightCategory":"VFR","rawOb":"METAR SBPJ 290700Z 19006KT CAVOK 25/17 Q1013","temp":25,"dewp":17,"wdir":190,"wspd":6,"visib":"6+","altim":1013,"clouds":[],"obsTime":1780038000},"SBKP":{"icaoId":"SBKP","flightCategory":"VFR","rawOb":"METAR SBKP 290700Z 13009KT CAVOK 13/12 Q1021","temp":13,"dewp":12,"wdir":130,"wspd":9,"visib":"6+","altim":1021,"clouds":[],"obsTime":1780038000},"SBLO":{"icaoId":"SBLO","flightCategory":"VFR","rawOb":"METAR SBLO 290700Z 13003KT CAVOK 14/12 Q1021","temp":14,"dewp":12,"wdir":130,"wspd":3,"visib":"6+","altim":1021,"clouds":[],"obsTime":1780038000},"SBPA":{"icaoId":"SBPA","flightCategory":"IFR","rawOb":"METAR SBPA 290700Z 10004KT 9999 FEW003 OVC006 16/15 Q1021","temp":16,"dewp":15,"wdir":100,"wspd":4,"visib":"6+","altim":1021,"clouds":[{"cover":"FEW","base":300},{"cover":"OVC","base":600}],"obsTime":1780038000},"SBNT":{"icaoId":"SBNT","flightCategory":"VFR","rawOb":"METAR SBNT 290700Z 18007KT 9999 FEW037 SCT055 23/21 Q1012","temp":23,"dewp":21,"wdir":180,"wspd":7,"visib":"6+","altim":1012,"clouds":[{"cover":"FEW","base":3700},{"cover":"SCT","base":5500}],"obsTime":1780038000},"SBMA":{"icaoId":"SBMA","flightCategory":"VFR","rawOb":"METAR SBMA 290700Z 00000KT CAVOK 27/23 Q1011","temp":27,"dewp":23,"wdir":0,"wspd":0,"visib":"6+","altim":1011,"clouds":[],"obsTime":1780038000},"SBMQ":{"icaoId":"SBMQ","flightCategory":"MVFR","rawOb":"METAR SBMQ 290700Z 35004KT 7000 -RA SCT002 BKN015 BKN070 25/25 Q1011 RERA","temp":25,"dewp":25,"wdir":350,"wspd":4,"visib":4.35,"altim":1011,"clouds":[{"cover":"SCT","base":200},{"cover":"BKN","base":1500},{"cover":"BKN","base":7000}],"obsTime":1780038000},"SBME":{"icaoId":"SBME","flightCategory":"VFR","rawOb":"METAR SBME 290700Z 23003KT CAVOK 18/16 Q1019","temp":18,"dewp":16,"wdir":230,"wspd":3,"visib":"6+","altim":1019,"clouds":[],"obsTime":1780038000},"SBMO":{"icaoId":"SBMO","flightCategory":"VFR","rawOb":"METAR SBMO 290700Z 28004KT 9999 FEW025 21/21 Q1014","temp":21,"dewp":21,"wdir":280,"wspd":4,"visib":"6+","altim":1014,"clouds":[{"cover":"FEW","base":2500}],"obsTime":1780038000},"SBMK":{"icaoId":"SBMK","flightCategory":"VFR","rawOb":"METAR SBMK 290800Z 06003KT CAVOK 17/16 Q1020","temp":17,"dewp":16,"wdir":60,"wspd":3,"visib":"6+","altim":1020,"clouds":[],"obsTime":1780041600},"SBBE":{"icaoId":"SBBE","flightCategory":"VFR","rawOb":"METAR SBBE 290700Z 20002KT 9999 SCT025 BKN070 26/25 Q1011","temp":26,"dewp":25,"wdir":200,"wspd":2,"visib":"6+","altim":1011,"clouds":[{"cover":"SCT","base":2500},{"cover":"BKN","base":7000}],"obsTime":1780038000},"SBVT":{"icaoId":"SBVT","flightCategory":"VFR","rawOb":"METAR SBVT 290700Z 21009KT 9999 FEW049 BKN074 21/17 Q1018","temp":21,"dewp":17,"wdir":210,"wspd":9,"visib":"6+","altim":1018,"clouds":[{"cover":"FEW","base":4900},{"cover":"BKN","base":7400}],"obsTime":1780038000},"SBSJ":{"icaoId":"SBSJ","flightCategory":"MVFR","rawOb":"SPECI SBSJ 290830Z 30002KT 6000 OVC020 15/13 Q1022","temp":15,"dewp":13,"wdir":300,"wspd":2,"visib":3.73,"altim":1022,"clouds":[{"cover":"OVC","base":2000}],"obsTime":1780043400},"SBAR":{"icaoId":"SBAR","flightCategory":"VFR","rawOb":"METAR SBAR 290700Z 26003KT 9999 FEW026 22/21 Q1014","temp":22,"dewp":21,"wdir":260,"wspd":3,"visib":"6+","altim":1014,"clouds":[{"cover":"FEW","base":2600}],"obsTime":1780038000},"SBAX":{"icaoId":"SBAX","flightCategory":"VFR","rawOb":"METAR SBAX 290700Z AUTO 13006KT 9999 SCT047 19/15 Q1020","temp":19,"dewp":15,"wdir":130,"wspd":6,"visib":"6+","altim":1020,"clouds":[{"cover":"SCT","base":4700}],"obsTime":1780038000},"SBTU":{"icaoId":"SBTU","flightCategory":"VFR","rawOb":"METAR SBTU 290800Z AUTO 21005KT 180V240 9999 // NCD 24/24 Q1013","temp":24,"dewp":24,"wdir":210,"wspd":5,"visib":"6+","altim":1013,"clouds":[],"obsTime":1780041600},"SBDN":{"icaoId":"SBDN","flightCategory":"VFR","rawOb":"METAR SBDN 290700Z 12010KT CAVOK 16/12 Q1019","temp":16,"dewp":12,"wdir":120,"wspd":10,"visib":"6+","altim":1019,"clouds":[],"obsTime":1780038000},"SBIP":{"icaoId":"SBIP","flightCategory":"VFR","rawOb":"METAR SBIP 290700Z AUTO 36002KT 9999 OVC031 19/19 Q1018","temp":19,"dewp":19,"wdir":360,"wspd":2,"visib":"6+","altim":1018,"clouds":[{"cover":"OVC","base":3100}],"obsTime":1780038000},"SBKG":{"icaoId":"SBKG","flightCategory":"VFR","rawOb":"METAR SBKG 290700Z 23004KT CAVOK 20/19 Q1015","temp":20,"dewp":19,"wdir":230,"wspd":4,"visib":"6+","altim":1015,"clouds":[],"obsTime":1780038000},"SBOI":{"icaoId":"SBOI","flightCategory":"LIFR","rawOb":"METAR SBOI 290800Z AUTO 33002KT 9999 // OVC004/// 25/24 Q1012","temp":25,"dewp":24,"wdir":330,"wspd":2,"visib":"6+","altim":1012,"clouds":[{"cover":"OVC","base":400}],"obsTime":1780041600},"SBPL":{"icaoId":"SBPL","flightCategory":"VFR","rawOb":"METAR SBPL 290700Z 11005KT CAVOK 22/18 Q1016","temp":22,"dewp":18,"wdir":110,"wspd":5,"visib":"6+","altim":1016,"clouds":[],"obsTime":1780038000},"SBPS":{"icaoId":"SBPS","flightCategory":"VFR","rawOb":"METAR SBPS 290700Z 24004KT 9999 SCT025 BKN050 22/22 Q1017","temp":22,"dewp":22,"wdir":240,"wspd":4,"visib":"6+","altim":1017,"clouds":[{"cover":"SCT","base":2500},{"cover":"BKN","base":5000}],"obsTime":1780038000},"SBSC":{"icaoId":"SBSC","flightCategory":"MVFR","rawOb":"METAR SBSC 290700Z 27005KT 5000 BR SCT005 BKN015 BKN050 19/18 Q1020","temp":19,"dewp":18,"wdir":270,"wspd":5,"visib":3.11,"altim":1020,"clouds":[{"cover":"SCT","base":500},{"cover":"BKN","base":1500},{"cover":"BKN","base":5000}],"obsTime":1780038000},"SBSR":{"icaoId":"SBSR","flightCategory":"VFR","rawOb":"METAR SBSR 290700Z 18005KT CAVOK 16/13 Q1019","temp":16,"dewp":13,"wdir":180,"wspd":5,"visib":"6+","altim":1019,"clouds":[],"obsTime":1780038000},"SBJP":{"icaoId":"SBJP","flightCategory":"VFR","rawOb":"METAR SBJP 290700Z 18008KT 9999 SCT040 23/21 Q1013","temp":23,"dewp":21,"wdir":180,"wspd":8,"visib":"6+","altim":1013,"clouds":[{"cover":"SCT","base":4000}],"obsTime":1780038000},"SBNM":{"icaoId":"SBNM","flightCategory":"VFR","rawOb":"METAR SBNM 290800Z AUTO 12007KT CAVOK 13/13 Q1019","temp":13,"dewp":13,"wdir":120,"wspd":7,"visib":"6+","altim":1019,"clouds":[],"obsTime":1780041600},"SBAN":{"icaoId":"SBAN","flightCategory":"VFR","rawOb":"METAR SBAN 290700Z 17010KT CAVOK 17/14 Q1021","temp":17,"dewp":14,"wdir":170,"wspd":10,"visib":"6+","altim":1021,"clouds":[],"obsTime":1780038000},"SBLE":{"icaoId":"SBLE","flightCategory":"MVFR","rawOb":"METAR SBLE 290700Z AUTO 00000KT 9999 FEW020 BKN023 ///// Q////","temp":null,"dewp":null,"wdir":0,"wspd":0,"visib":"6+","altim":null,"clouds":[{"cover":"FEW","base":2000},{"cover":"BKN","base":2300}],"obsTime":1780038000}}}