{"updated":1775898394,"count":52,"data":{"SBFI":{"icaoId":"SBFI","flightCategory":"VFR","rawOb":"METAR SBFI 110800Z 09004KT CAVOK 20/19 Q1014","temp":20,"dewp":19,"wdir":90,"wspd":4,"visib":"6+","altim":1014,"clouds":[],"obsTime":1775894400},"SBBE":{"icaoId":"SBBE","flightCategory":"VFR","rawOb":"METAR SBBE 110800Z 12003KT 9999 SCT011 BKN034 26/26 Q1011","temp":26,"dewp":26,"wdir":120,"wspd":3,"visib":"6+","altim":1011,"clouds":[{"cover":"SCT","base":1100},{"cover":"BKN","base":3400}],"obsTime":1775894400},"SBBR":{"icaoId":"SBBR","flightCategory":"VFR","rawOb":"METAR SBBR 110800Z 20001KT CAVOK 19/18 Q1018","temp":19,"dewp":18,"wdir":200,"wspd":1,"visib":"6+","altim":1018,"clouds":[],"obsTime":1775894400},"SBBV":{"icaoId":"SBBV","flightCategory":"VFR","rawOb":"METAR SBBV 110800Z 12006KT 9999 FEW035 FEW045TCU SCT100 26/23 Q1011","temp":26,"dewp":23,"wdir":120,"wspd":6,"visib":"6+","altim":1011,"clouds":[{"cover":"FEW","base":3500},{"cover":"FEW","base":4500},{"cover":"SCT","base":10000}],"obsTime":1775894400},"SBCB":{"icaoId":"SBCB","flightCategory":"VFR","rawOb":"METAR SBCB 110900Z 21004KT 9999 SCT020 BKN050 22/19 Q1019","temp":22,"dewp":19,"wdir":210,"wspd":4,"visib":"6+","altim":1019,"clouds":[{"cover":"SCT","base":2000},{"cover":"BKN","base":5000}],"obsTime":1775898000},"SBCF":{"icaoId":"SBCF","flightCategory":"VFR","rawOb":"METAR SBCF 110800Z 16006KT 9999 FEW009 BKN100 19/19 Q1019","temp":19,"dewp":19,"wdir":160,"wspd":6,"visib":"6+","altim":1019,"clouds":[{"cover":"FEW","base":900},{"cover":"BKN","base":10000}],"obsTime":1775894400},"SBCG":{"icaoId":"SBCG","flightCategory":"VFR","rawOb":"METAR SBCG 110800Z 08011KT CAVOK 22/19 Q1015","temp":22,"dewp":19,"wdir":80,"wspd":11,"visib":"6+","altim":1015,"clouds":[],"obsTime":1775894400},"SBCT":{"icaoId":"SBCT","flightCategory":"MVFR","rawOb":"METAR SBCT 110800Z 11003KT 9999 BKN017 14/14 Q1022","temp":14,"dewp":14,"wdir":110,"wspd":3,"visib":"6+","altim":1022,"clouds":[{"cover":"BKN","base":1700}],"obsTime":1775894400},"SBEG":{"icaoId":"SBEG","flightCategory":"VFR","rawOb":"METAR SBEG 110800Z VRB01KT 9999 FEW007 SCT060 24/24 Q1011","temp":24,"dewp":24,"wdir":"VRB","wspd":1,"visib":"6+","altim":1011,"clouds":[{"cover":"FEW","base":700},{"cover":"SCT","base":6000}],"obsTime":1775894400},"SBFL":{"icaoId":"SBFL","flightCategory":"VFR","rawOb":"METAR SBFL 110800Z 28005KT CAVOK 18/16 Q1020","temp":18,"dewp":16,"wdir":280,"wspd":5,"visib":"6+","altim":1020,"clouds":[],"obsTime":1775894400},"SBFZ":{"icaoId":"SBFZ","flightCategory":"VFR","rawOb":"METAR SBFZ 110800Z 12010KT 9999 SCT020 25/24 Q1011","temp":25,"dewp":24,"wdir":120,"wspd":10,"visib":"6+","altim":1011,"clouds":[{"cover":"SCT","base":2000}],"obsTime":1775894400},"SBGL":{"icaoId":"SBGL","flightCategory":"VFR","rawOb":"METAR SBGL 110800Z 28002KT 9999 FEW030 BKN070 20/18 Q1018","temp":20,"dewp":18,"wdir":280,"wspd":2,"visib":"6+","altim":1018,"clouds":[{"cover":"FEW","base":3000},{"cover":"BKN","base":7000}],"obsTime":1775894400},"SBGO":{"icaoId":"SBGO","flightCategory":"VFR","rawOb":"METAR SBGO 110800Z VRB01KT CAVOK 21/20 Q1016","temp":21,"dewp":20,"wdir":"VRB","wspd":1,"visib":"6+","altim":1016,"clouds":[],"obsTime":1775894400},"SBGR":{"icaoId":"SBGR","flightCategory":"VFR","rawOb":"METAR SBGR 110800Z 07004KT CAVOK 15/14 Q1021","temp":15,"dewp":14,"wdir":70,"wspd":4,"visib":"6+","altim":1021,"clouds":[],"obsTime":1775894400},"SBKP":{"icaoId":"SBKP","flightCategory":"VFR","rawOb":"METAR SBKP 110800Z 12011KT CAVOK 17/14 Q1019","temp":17,"dewp":14,"wdir":120,"wspd":11,"visib":"6+","altim":1019,"clouds":[],"obsTime":1775894400},"SBLO":{"icaoId":"SBLO","flightCategory":"VFR","rawOb":"METAR SBLO 110800Z 13010KT 9999 SCT020 19/16 Q1018","temp":19,"dewp":16,"wdir":130,"wspd":10,"visib":"6+","altim":1018,"clouds":[{"cover":"SCT","base":2000}],"obsTime":1775894400},"SBMA":{"icaoId":"SBMA","flightCategory":"VFR","rawOb":"METAR SBMA 110800Z 17001KT 9000 -TSRA SCT010 FEW020CB BKN080 25/24 Q1012 RERA","temp":25,"dewp":24,"wdir":170,"wspd":1,"visib":5.59,"altim":1012,"clouds":[{"cover":"SCT","base":1000},{"cover":"FEW","base":2000},{"cover":"BKN","base":8000}],"obsTime":1775894400},"SBMO":{"icaoId":"SBMO","flightCategory":"VFR","rawOb":"METAR SBMO 110800Z 30004KT 9999 FEW020 23/22 Q1013","temp":23,"dewp":22,"wdir":300,"wspd":4,"visib":"6+","altim":1013,"clouds":[{"cover":"FEW","base":2000}],"obsTime":1775894400},"SBMQ":{"icaoId":"SBMQ","flightCategory":"MVFR","rawOb":"METAR SBMQ 110800Z VRB02KT 9999 BKN021 BKN080 25/24 Q1012","temp":25,"dewp":24,"wdir":"VRB","wspd":2,"visib":"6+","altim":1012,"clouds":[{"cover":"BKN","base":2100},{"cover":"BKN","base":8000}],"obsTime":1775894400},"SBNT":{"icaoId":"SBNT","flightCategory":"VFR","rawOb":"METAR SBNT 110800Z 19007KT 9999 VCSH SCT017 FEW030TCU 24/23 Q1012","temp":24,"dewp":23,"wdir":190,"wspd":7,"visib":"6+","altim":1012,"clouds":[{"cover":"SCT","base":1700},{"cover":"FEW","base":3000}],"obsTime":1775894400},"SBPA":{"icaoId":"SBPA","flightCategory":"VFR","rawOb":"METAR SBPA 110800Z 06004KT CAVOK 15/13 Q1018","temp":15,"dewp":13,"wdir":60,"wspd":4,"visib":"6+","altim":1018,"clouds":[],"obsTime":1775894400},"SBPJ":{"icaoId":"SBPJ","flightCategory":"VFR","rawOb":"METAR SBPJ 110800Z 12003KT 9999 FEW011 SCT080 24/23 Q1012","temp":24,"dewp":23,"wdir":120,"wspd":3,"visib":"6+","altim":1012,"clouds":[{"cover":"FEW","base":1100},{"cover":"SCT","base":8000}],"obsTime":1775894400},"SBPV":{"icaoId":"SBPV","flightCategory":"VFR","rawOb":"METAR SBPV 110800Z 00000KT 9999 FEW040 SCT070 25/24 Q1010","temp":25,"dewp":24,"wdir":0,"wspd":0,"visib":"6+","altim":1010,"clouds":[{"cover":"FEW","base":4000},{"cover":"SCT","base":7000}],"obsTime":1775894400},"SBRB":{"icaoId":"SBRB","flightCategory":"MVFR","rawOb":"METAR SBRB 110800Z 24002KT 8000 FEW020 SCT065 23/23 Q1011","temp":23,"dewp":23,"wdir":240,"wspd":2,"visib":4.97,"altim":1011,"clouds":[{"cover":"FEW","base":2000},{"cover":"SCT","base":6500}],"obsTime":1775894400},"SBRF":{"icaoId":"SBRF","flightCategory":"MVFR","rawOb":"METAR SBRF 110800Z 00000KT 9999 BKN023 25/23 Q1012","temp":25,"dewp":23,"wdir":0,"wspd":0,"visib":"6+","altim":1012,"clouds":[{"cover":"BKN","base":2300}],"obsTime":1775894400},"SBSG":{"icaoId":"SBSG","flightCategory":"MVFR","rawOb":"METAR SBSG 110800Z COR 21004KT 9999 -RA BKN020 FEW023TCU 24/24 Q1012","temp":24,"dewp":24,"wdir":210,"wspd":4,"visib":"6+","altim":1012,"clouds":[{"cover":"BKN","base":2000},{"cover":"FEW","base":2300}],"obsTime":1775894400},"SBSL":{"icaoId":"SBSL","flightCategory":"VFR","rawOb":"METAR SBSL 110800Z 10010KT CAVOK 24/23 Q1011","temp":24,"dewp":23,"wdir":100,"wspd":10,"visib":"6+","altim":1011,"clouds":[],"obsTime":1775894400},"SBSN":{"icaoId":"SBSN","flightCategory":"MVFR","rawOb":"METAR SBSN 110800Z 09004KT 9999 FEW013 BKN016 26/24 Q1010","temp":26,"dewp":24,"wdir":90,"wspd":4,"visib":"6+","altim":1010,"clouds":[{"cover":"FEW","base":1300},{"cover":"BKN","base":1600}],"obsTime":1775894400},"SBSP":{"icaoId":"SBSP","flightCategory":"VFR","rawOb":"METAR SBSP 110900Z 13005KT CAVOK 16/14 Q1022","temp":16,"dewp":14,"wdir":130,"wspd":5,"visib":"6+","altim":1022,"clouds":[],"obsTime":1775898000},"SBSV":{"icaoId":"SBSV","flightCategory":"VFR","rawOb":"METAR SBSV 110800Z 12005KT 9999 SCT023 27/22 Q1013","temp":27,"dewp":22,"wdir":120,"wspd":5,"visib":"6+","altim":1013,"clouds":[{"cover":"SCT","base":2300}],"obsTime":1775894400},"SBTE":{"icaoId":"SBTE","flightCategory":"IFR","rawOb":"METAR SBTE 110800Z 34003KT 9999 BKN008 SCT020 25/24 Q1011","temp":25,"dewp":24,"wdir":340,"wspd":3,"visib":"6+","altim":1011,"clouds":[{"cover":"BKN","base":800},{"cover":"SCT","base":2000}],"obsTime":1775894400},"SBVT":{"icaoId":"SBVT","flightCategory":"MVFR","rawOb":"METAR SBVT 110800Z 21006KT 9999 OVC025 22/20 Q1017","temp":22,"dewp":20,"wdir":210,"wspd":6,"visib":"6+","altim":1017,"clouds":[{"cover":"OVC","base":2500}],"obsTime":1775894400},"SBME":{"icaoId":"SBME","flightCategory":"VFR","rawOb":"METAR SBME 110800Z 23001KT 9999 FEW020 BKN080 21/19 Q1018","temp":21,"dewp":19,"wdir":230,"wspd":1,"visib":"6+","altim":1018,"clouds":[{"cover":"FEW","base":2000},{"cover":"BKN","base":8000}],"obsTime":1775894400},"SBMG":{"icaoId":"SBMG","flightCategory":"VFR","rawOb":"METAR SBMG 110800Z AUTO 10010KT CAVOK 19/16 Q1017","temp":19,"dewp":16,"wdir":100,"wspd":10,"visib":"6+","altim":1017,"clouds":[],"obsTime":1775894400},"SBMK":{"icaoId":"SBMK","flightCategory":"VFR","rawOb":"METAR SBMK 110800Z 16002KT 9999 FEW030 SCT080 23/20 Q1017","temp":23,"dewp":20,"wdir":160,"wspd":2,"visib":"6+","altim":1017,"clouds":[{"cover":"FEW","base":3000},{"cover":"SCT","base":8000}],"obsTime":1775894400},"SBUR":{"icaoId":"SBUR","flightCategory":"VFR","rawOb":"METAR SBUR 110800Z 07008KT CAVOK 21/17 Q1018","temp":21,"dewp":17,"wdir":70,"wspd":8,"visib":"6+","altim":1018,"clouds":[],"obsTime":1775894400},"SBJU":{"icaoId":"SBJU","flightCategory":"MVFR","rawOb":"METAR SBJU 110800Z 00000KT 9999 BKN020 22/22 Q1014","temp":22,"dewp":22,"wdir":0,"wspd":0,"visib":"6+","altim":1014,"clouds":[{"cover":"BKN","base":2000}],"obsTime":1775894400},"SBUL":{"icaoId":"SBUL","flightCategory":"VFR","rawOb":"METAR SBUL 110800Z 13008KT CAVOK 20/18 Q1018","temp":20,"dewp":18,"wdir":130,"wspd":8,"visib":"6+","altim":1018,"clouds":[],"obsTime":1775894400},"SBPS":{"icaoId":"SBPS","flightCategory":"VFR","rawOb":"METAR SBPS 110800Z 26004KT 9999 SCT017 23/23 Q1015","temp":23,"dewp":23,"wdir":260,"wspd":4,"visib":"6+","altim":1015,"clouds":[{"cover":"SCT","base":1700}],"obsTime":1775894400},"SBOI":{"icaoId":"SBOI","flightCategory":"VFR","rawOb":"METAR SBOI 110800Z AUTO 00000KT 9999 // FEW026/// 23/23 Q1012","temp":23,"dewp":23,"wdir":0,"wspd":0,"visib":"6+","altim":1012,"clouds":[{"cover":"FEW","base":2600}],"obsTime":1775894400},"SBAR":{"icaoId":"SBAR","flightCategory":"VFR","rawOb":"METAR SBAR 110800Z 10004KT 9999 FEW020 BKN090 25/23 Q1012","temp":25,"dewp":23,"wdir":100,"wspd":4,"visib":"6+","altim":1012,"clouds":[{"cover":"FEW","base":2000},{"cover":"BKN","base":9000}],"obsTime":1775894400},"SBSJ":{"icaoId":"SBSJ","flightCategory":"VFR","rawOb":"SPECI SBSJ 110830Z 00000KT CAVOK 15/15 Q1021","temp":15,"dewp":15,"wdir":0,"wspd":0,"visib":"6+","altim":1021,"clouds":[],"obsTime":1775896200},"SBPL":{"icaoId":"SBPL","flightCategory":"VFR","rawOb":"METAR SBPL 110800Z 13008KT CAVOK 25/21 Q1014","temp":25,"dewp":21,"wdir":130,"wspd":8,"visib":"6+","altim":1014,"clouds":[],"obsTime":1775894400},"SBSC":{"icaoId":"SBSC","flightCategory":"MVFR","rawOb":"METAR SBSC 110800Z 36002KT 8000 SCT020 21/19 Q1018","temp":21,"dewp":19,"wdir":360,"wspd":2,"visib":4.97,"altim":1018,"clouds":[{"cover":"SCT","base":2000}],"obsTime":1775894400},"SBSR":{"icaoId":"SBSR","flightCategory":"VFR","rawOb":"METAR SBSR 110800Z 14004KT CAVOK 20/18 Q1016","temp":20,"dewp":18,"wdir":140,"wspd":4,"visib":"6+","altim":1016,"clouds":[],"obsTime":1775894400},"SBAX":{"icaoId":"SBAX","flightCategory":"VFR","rawOb":"METAR SBAX 110800Z AUTO 11008KT CAVOK ///// Q1020","temp":null,"dewp":null,"wdir":110,"wspd":8,"visib":"6+","altim":1020,"clouds":[],"obsTime":1775894400},"SBDN":{"icaoId":"SBDN","flightCategory":"VFR","rawOb":"METAR SBDN 110800Z 10012KT CAVOK 19/15 Q1016","temp":19,"dewp":15,"wdir":100,"wspd":12,"visib":"6+","altim":1016,"clouds":[],"obsTime":1775894400},"SBIP":{"icaoId":"SBIP","flightCategory":"VFR","rawOb":"METAR SBIP 110800Z AUTO VRB02KT 9999 BKN042 23/21 Q1018","temp":23,"dewp":21,"wdir":"VRB","wspd":2,"visib":"6+","altim":1018,"clouds":[{"cover":"BKN","base":4200}],"obsTime":1775894400},"SBKG":{"icaoId":"SBKG","flightCategory":"VFR","rawOb":"METAR SBKG 110800Z 15002KT CAVOK 21/20 Q1015","temp":21,"dewp":20,"wdir":150,"wspd":2,"visib":"6+","altim":1015,"clouds":[],"obsTime":1775894400},"SBJP":{"icaoId":"SBJP","flightCategory":"VFR","rawOb":"METAR SBJP 110800Z 14002KT 9999 FEW020 24/23 Q1012","temp":24,"dewp":23,"wdir":140,"wspd":2,"visib":"6+","altim":1012,"clouds":[{"cover":"FEW","base":2000}],"obsTime":1775894400},"SBLE":{"icaoId":"SBLE","flightCategory":"MVFR","rawOb":"METAR SBLE 110800Z AUTO VRB01KT 9999 BKN016 BKN021 BKN043 ///// Q////","temp":null,"dewp":null,"wdir":"VRB","wspd":1,"visib":"6+","altim":null,"clouds":[{"cover":"BKN","base":1600},{"cover":"BKN","base":2100},{"cover":"BKN","base":4300}],"obsTime":1775894400},"SBAN":{"icaoId":"SBAN","flightCategory":"VFR","rawOb":"METAR SBAN 110800Z 15006KT 9999 FEW030 SCT100 19/18 Q1020","temp":19,"dewp":18,"wdir":150,"wspd":6,"visib":"6+","altim":1020,"clouds":[{"cover":"FEW","base":3000},{"cover":"SCT","base":10000}],"obsTime":1775894400}}}