{"updated":1783809243,"count":82,"data":{"SBCT":{"icaoId":"SBCT","flightCategory":"MVFR","rawOb":"METAR SBCT 112100Z 30007KT 5000 -RA BR FEW015 SCT030 FEW040TCU OVC080 16/15 Q1015","temp":16,"dewp":15,"wdir":300,"wspd":7,"visib":3.11,"altim":1015,"clouds":[{"cover":"FEW","base":1500},{"cover":"SCT","base":3000},{"cover":"FEW","base":4000},{"cover":"OVC","base":8000}],"obsTime":1783803600},"SBSP":{"icaoId":"SBSP","flightCategory":"VFR","rawOb":"METAR SBSP 112100Z 31005KT 240V350 CAVOK 24/11 Q1016","temp":24,"dewp":11,"wdir":310,"wspd":5,"visib":"6+","altim":1016,"clouds":[],"obsTime":1783803600},"SBFZ":{"icaoId":"SBFZ","flightCategory":"VFR","rawOb":"METAR SBFZ 112100Z 09009KT 9999 FEW018 27/24 Q1012","temp":27,"dewp":24,"wdir":90,"wspd":9,"visib":"6+","altim":1012,"clouds":[{"cover":"FEW","base":1800}],"obsTime":1783803600},"SBFL":{"icaoId":"SBFL","flightCategory":"IFR","rawOb":"METAR SBFL 112100Z 33011KT 9999 BKN006 SCT050 17/16 Q1010","temp":17,"dewp":16,"wdir":330,"wspd":11,"visib":"6+","altim":1010,"clouds":[{"cover":"BKN","base":600},{"cover":"SCT","base":5000}],"obsTime":1783803600},"SBPA":{"icaoId":"SBPA","flightCategory":"IFR","rawOb":"METAR SBPA 112100Z VRB01KT 9000 OVC008 16/15 Q1012","temp":16,"dewp":15,"wdir":"VRB","wspd":1,"visib":5.59,"altim":1012,"clouds":[{"cover":"OVC","base":800}],"obsTime":1783803600},"SBPJ":{"icaoId":"SBPJ","flightCategory":"VFR","rawOb":"METAR SBPJ 112100Z 24003KT CAVOK 32/22 Q1012","temp":32,"dewp":22,"wdir":240,"wspd":3,"visib":"6+","altim":1012,"clouds":[],"obsTime":1783803600},"SBFI":{"icaoId":"SBFI","flightCategory":"VFR","rawOb":"METAR SBFI 112100Z 18002KT 9999 FEW020 BKN070 22/21 Q1012","temp":22,"dewp":21,"wdir":180,"wspd":2,"visib":"6+","altim":1012,"clouds":[{"cover":"FEW","base":2000},{"cover":"BKN","base":7000}],"obsTime":1783803600},"SBHT":{"icaoId":"SBHT","flightCategory":"VFR","rawOb":"METAR SBHT 112100Z 13003KT 9999 FEW030 30/23 Q1011","temp":30,"dewp":23,"wdir":130,"wspd":3,"visib":"6+","altim":1011,"clouds":[{"cover":"FEW","base":3000}],"obsTime":1783803600},"SBMG":{"icaoId":"SBMG","flightCategory":"VFR","rawOb":"METAR SBMG 112100Z 15008KT 9999 4500S -TSRA VCSH SCT040 FEW050CB BKN090 21/18 Q1013","temp":21,"dewp":18,"wdir":150,"wspd":8,"visib":"6+","altim":1013,"clouds":[{"cover":"SCT","base":4000},{"cover":"FEW","base":5000},{"cover":"BKN","base":9000}],"obsTime":1783803600},"SBEG":{"icaoId":"SBEG","flightCategory":"VFR","rawOb":"METAR SBEG 112100Z 04003KT 9999 FEW025 FEW030TCU 30/26 Q1009","temp":30,"dewp":26,"wdir":40,"wspd":3,"visib":"6+","altim":1009,"clouds":[{"cover":"FEW","base":2500},{"cover":"FEW","base":3000}],"obsTime":1783803600},"SBRB":{"icaoId":"SBRB","flightCategory":"VFR","rawOb":"METAR SBRB 112100Z 32005KT 280V350 9999 FEW025 BKN100 28/23 Q1011","temp":28,"dewp":23,"wdir":320,"wspd":5,"visib":"6+","altim":1011,"clouds":[{"cover":"FEW","base":2500},{"cover":"BKN","base":10000}],"obsTime":1783803600},"SBIL":{"icaoId":"SBIL","flightCategory":"VFR","rawOb":"METAR SBIL 112100Z 06003KT 9999 FEW023 26/23 Q1015","temp":26,"dewp":23,"wdir":60,"wspd":3,"visib":"6+","altim":1015,"clouds":[{"cover":"FEW","base":2300}],"obsTime":1783803600},"SBBR":{"icaoId":"SBBR","flightCategory":"VFR","rawOb":"METAR SBBR 112100Z 33005KT CAVOK 26/11 Q1019","temp":26,"dewp":11,"wdir":330,"wspd":5,"visib":"6+","altim":1019,"clouds":[],"obsTime":1783803600},"SBJU":{"icaoId":"SBJU","flightCategory":"MVFR","rawOb":"METAR SBJU 112100Z 00000KT 9999 BKN022 30/18 Q1014","temp":30,"dewp":18,"wdir":0,"wspd":0,"visib":"6+","altim":1014,"clouds":[{"cover":"BKN","base":2200}],"obsTime":1783803600},"SBCF":{"icaoId":"SBCF","flightCategory":"VFR","rawOb":"METAR SBCF 112100Z 35005KT CAVOK 25/08 Q1018","temp":25,"dewp":8,"wdir":350,"wspd":5,"visib":"6+","altim":1018,"clouds":[],"obsTime":1783803600},"SBME":{"icaoId":"SBME","flightCategory":"VFR","rawOb":"METAR SBME 112100Z 07005KT CAVOK 23/19 Q1012","temp":23,"dewp":19,"wdir":70,"wspd":5,"visib":"6+","altim":1012,"clouds":[],"obsTime":1783803600},"SBSL":{"icaoId":"SBSL","flightCategory":"VFR","rawOb":"METAR SBSL 112100Z 05011KT 9999 FEW025 28/24 Q1011","temp":28,"dewp":24,"wdir":50,"wspd":11,"visib":"6+","altim":1011,"clouds":[{"cover":"FEW","base":2500}],"obsTime":1783803600},"SBBV":{"icaoId":"SBBV","flightCategory":"VFR","rawOb":"METAR SBBV 112100Z 11009KT 9999 SCT030 32/20 Q1010","temp":32,"dewp":20,"wdir":110,"wspd":9,"visib":"6+","altim":1010,"clouds":[{"cover":"SCT","base":3000}],"obsTime":1783803600},"SBGL":{"icaoId":"SBGL","flightCategory":"VFR","rawOb":"METAR SBGL 112100Z 14007KT 9000 NSC 23/19 Q1010","temp":23,"dewp":19,"wdir":140,"wspd":7,"visib":5.59,"altim":1010,"clouds":[],"obsTime":1783803600},"SBSG":{"icaoId":"SBSG","flightCategory":"VFR","rawOb":"METAR SBSG 112100Z 13006KT 090V190 9999 SCT020 25/22 Q1014","temp":25,"dewp":22,"wdir":130,"wspd":6,"visib":"6+","altim":1014,"clouds":[{"cover":"SCT","base":2000}],"obsTime":1783803600},"SBMK":{"icaoId":"SBMK","flightCategory":"VFR","rawOb":"METAR SBMK 112100Z 21003KT CAVOK 27/08 Q1016","temp":27,"dewp":8,"wdir":210,"wspd":3,"visib":"6+","altim":1016,"clouds":[],"obsTime":1783803600},"SBSV":{"icaoId":"SBSV","flightCategory":"VFR","rawOb":"METAR SBSV 112100Z 06009KT CAVOK 25/21 Q1015","temp":25,"dewp":21,"wdir":60,"wspd":9,"visib":"6+","altim":1015,"clouds":[],"obsTime":1783803600},"SBUL":{"icaoId":"SBUL","flightCategory":"VFR","rawOb":"METAR SBUL 112100Z 36003KT 9999 FEW030 25/09 Q1018","temp":25,"dewp":9,"wdir":360,"wspd":3,"visib":"6+","altim":1018,"clouds":[{"cover":"FEW","base":3000}],"obsTime":1783803600},"SBMO":{"icaoId":"SBMO","flightCategory":"VFR","rawOb":"METAR SBMO 112100Z 07006KT 9999 FEW025 23/21 Q1016","temp":23,"dewp":21,"wdir":70,"wspd":6,"visib":"6+","altim":1016,"clouds":[{"cover":"FEW","base":2500}],"obsTime":1783803600},"SBPV":{"icaoId":"SBPV","flightCategory":"VFR","rawOb":"METAR SBPV 112100Z VRB01KT 9999 SCT035 BKN100 26/23 Q1010 RETS","temp":26,"dewp":23,"wdir":"VRB","wspd":1,"visib":"6+","altim":1010,"clouds":[{"cover":"SCT","base":3500},{"cover":"BKN","base":10000}],"obsTime":1783803600},"SBBE":{"icaoId":"SBBE","flightCategory":"VFR","rawOb":"METAR SBBE 112100Z 28004KT 9999 SCT045 29/26 Q1011","temp":29,"dewp":26,"wdir":280,"wspd":4,"visib":"6+","altim":1011,"clouds":[{"cover":"SCT","base":4500}],"obsTime":1783803600},"SBUR":{"icaoId":"SBUR","flightCategory":"VFR","rawOb":"METAR SBUR 112100Z 27004KT CAVOK 26/10 Q1016","temp":26,"dewp":10,"wdir":270,"wspd":4,"visib":"6+","altim":1016,"clouds":[],"obsTime":1783803600},"SBKP":{"icaoId":"SBKP","flightCategory":"VFR","rawOb":"METAR SBKP 112100Z 33003KT CAVOK 25/14 Q1014","temp":25,"dewp":14,"wdir":330,"wspd":3,"visib":"6+","altim":1014,"clouds":[],"obsTime":1783803600},"SBMA":{"icaoId":"SBMA","flightCategory":"VFR","rawOb":"METAR SBMA 112100Z 05004KT 9999 FEW020 FEW023TCU 32/21 Q1010","temp":32,"dewp":21,"wdir":50,"wspd":4,"visib":"6+","altim":1010,"clouds":[{"cover":"FEW","base":2000},{"cover":"FEW","base":2300}],"obsTime":1783803600},"SBCZ":{"icaoId":"SBCZ","flightCategory":"VFR","rawOb":"METAR SBCZ 112100Z 15002KT 9999 FEW025 BKN100 26/24 Q1011","temp":26,"dewp":24,"wdir":150,"wspd":2,"visib":"6+","altim":1011,"clouds":[{"cover":"FEW","base":2500},{"cover":"BKN","base":10000}],"obsTime":1783803600},"SBSN":{"icaoId":"SBSN","flightCategory":"VFR","rawOb":"METAR SBSN 112100Z 09010KT CAVOK 30/23 Q1010","temp":30,"dewp":23,"wdir":90,"wspd":10,"visib":"6+","altim":1010,"clouds":[],"obsTime":1783803600},"SBLO":{"icaoId":"SBLO","flightCategory":"VFR","rawOb":"METAR SBLO 112100Z 30009KT 9999 VCSH FEW040 SCT100 27/15 Q1013","temp":27,"dewp":15,"wdir":300,"wspd":9,"visib":"6+","altim":1013,"clouds":[{"cover":"FEW","base":4000},{"cover":"SCT","base":10000}],"obsTime":1783803600},"SBNT":{"icaoId":"SBNT","flightCategory":"VFR","rawOb":"METAR SBNT 112100Z 16010KT 9999 FEW023 SCT033 26/22 Q1013","temp":26,"dewp":22,"wdir":160,"wspd":10,"visib":"6+","altim":1013,"clouds":[{"cover":"FEW","base":2300},{"cover":"SCT","base":3300}],"obsTime":1783803600},"SBTE":{"icaoId":"SBTE","flightCategory":"VFR","rawOb":"METAR SBTE 112100Z 32005KT 9999 FEW030 32/22 Q1010","temp":32,"dewp":22,"wdir":320,"wspd":5,"visib":"6+","altim":1010,"clouds":[{"cover":"FEW","base":3000}],"obsTime":1783803600},"SBCG":{"icaoId":"SBCG","flightCategory":"VFR","rawOb":"METAR SBCG 112100Z 31005KT CAVOK 26/15 Q1014","temp":26,"dewp":15,"wdir":310,"wspd":5,"visib":"6+","altim":1014,"clouds":[],"obsTime":1783803600},"SBVT":{"icaoId":"SBVT","flightCategory":"VFR","rawOb":"METAR SBVT 112100Z 04004KT CAVOK 22/19 Q1013","temp":22,"dewp":19,"wdir":40,"wspd":4,"visib":"6+","altim":1013,"clouds":[],"obsTime":1783803600},"SBCP":{"icaoId":"SBCP","flightCategory":"VFR","rawOb":"METAR SBCP 112100Z 07006KT CAVOK 22/19 Q1012","temp":22,"dewp":19,"wdir":70,"wspd":6,"visib":"6+","altim":1012,"clouds":[],"obsTime":1783803600},"SBRF":{"icaoId":"SBRF","flightCategory":"VFR","rawOb":"METAR SBRF 112100Z 14010KT 9999 FEW025 26/21 Q1015","temp":26,"dewp":21,"wdir":140,"wspd":10,"visib":"6+","altim":1015,"clouds":[{"cover":"FEW","base":2500}],"obsTime":1783803600},"SBGR":{"icaoId":"SBGR","flightCategory":"VFR","rawOb":"METAR SBGR 112100Z 34005KT CAVOK 24/11 Q1015","temp":24,"dewp":11,"wdir":340,"wspd":5,"visib":"6+","altim":1015,"clouds":[],"obsTime":1783803600},"SBMQ":{"icaoId":"SBMQ","flightCategory":"VFR","rawOb":"METAR SBMQ 112100Z 05011KT 9999 FEW026 FEW032TCU 31/24 Q1011","temp":31,"dewp":24,"wdir":50,"wspd":11,"visib":"6+","altim":1011,"clouds":[{"cover":"FEW","base":2600},{"cover":"FEW","base":3200}],"obsTime":1783803600},"SBGO":{"icaoId":"SBGO","flightCategory":"VFR","rawOb":"METAR SBGO 112100Z 33004KT 9999 FEW049 FEW060TCU 29/13 Q1016","temp":29,"dewp":13,"wdir":330,"wspd":4,"visib":"6+","altim":1016,"clouds":[{"cover":"FEW","base":4900},{"cover":"FEW","base":6000}],"obsTime":1783803600},"SBCB":{"icaoId":"SBCB","flightCategory":"VFR","rawOb":"METAR SBCB 112100Z 11010KT CAVOK 22/19 Q1012","temp":22,"dewp":19,"wdir":110,"wspd":10,"visib":"6+","altim":1012,"clouds":[],"obsTime":1783803600},"SBCR":{"icaoId":"SBCR","flightCategory":"VFR","rawOb":"METAR SBCR 112100Z 13004KT 9999 SCT030 FEW040TCU BKN066 29/21 Q1011","temp":29,"dewp":21,"wdir":130,"wspd":4,"visib":"6+","altim":1011,"clouds":[{"cover":"SCT","base":3000},{"cover":"FEW","base":4000},{"cover":"BKN","base":6600}],"obsTime":1783803600},"SBAT":{"icaoId":"SBAT","flightCategory":"VFR","rawOb":"METAR SBAT 112100Z 04004KT 9999 FEW040 FEW045TCU 30/21 Q1012","temp":30,"dewp":21,"wdir":40,"wspd":4,"visib":"6+","altim":1012,"clouds":[{"cover":"FEW","base":4000},{"cover":"FEW","base":4500}],"obsTime":1783803600},"SBTU":{"icaoId":"SBTU","flightCategory":"VFR","rawOb":"METAR SBTU 112100Z AUTO 00000KT 9999 // NCD 28/24 Q1013","temp":28,"dewp":24,"wdir":0,"wspd":0,"visib":"6+","altim":1013,"clouds":[],"obsTime":1783803600},"SBKG":{"icaoId":"SBKG","flightCategory":"VFR","rawOb":"METAR SBKG 112100Z 11007KT CAVOK 23/20 Q1017","temp":23,"dewp":20,"wdir":110,"wspd":7,"visib":"6+","altim":1017,"clouds":[],"obsTime":1783803600},"SBAX":{"icaoId":"SBAX","flightCategory":"VFR","rawOb":"METAR SBAX 112100Z AUTO VRB02KT CAVOK 24/07 Q1018","temp":24,"dewp":7,"wdir":"VRB","wspd":2,"visib":"6+","altim":1018,"clouds":[],"obsTime":1783803600},"SBBH":{"icaoId":"SBBH","flightCategory":"VFR","rawOb":"METAR SBBH 112100Z 30002KT CAVOK 21/10 Q1017","temp":21,"dewp":10,"wdir":300,"wspd":2,"visib":"6+","altim":1017,"clouds":[],"obsTime":1783803600},"SBBU":{"icaoId":"SBBU","flightCategory":"VFR","rawOb":"METAR SBBU 112100Z 35004KT CAVOK 27/15 Q1014","temp":27,"dewp":15,"wdir":350,"wspd":4,"visib":"6+","altim":1014,"clouds":[],"obsTime":1783803600},"SBVH":{"icaoId":"SBVH","flightCategory":"VFR","rawOb":"METAR SBVH 112100Z 15007KT 9999 SCT040 BKN100 26/21 Q1014","temp":26,"dewp":21,"wdir":150,"wspd":7,"visib":"6+","altim":1014,"clouds":[{"cover":"SCT","base":4000},{"cover":"BKN","base":10000}],"obsTime":1783803600},"SBDN":{"icaoId":"SBDN","flightCategory":"VFR","rawOb":"METAR SBDN 112100Z 29004KT CAVOK 27/15 Q1013","temp":27,"dewp":15,"wdir":290,"wspd":4,"visib":"6+","altim":1013,"clouds":[],"obsTime":1783803600},"SBIP":{"icaoId":"SBIP","flightCategory":"VFR","rawOb":"METAR SBIP 112100Z AUTO 00000KT CAVOK 19/16 Q1014","temp":19,"dewp":16,"wdir":0,"wspd":0,"visib":"6+","altim":1014,"clouds":[],"obsTime":1783803600},"SBSC":{"icaoId":"SBSC","flightCategory":"VFR","rawOb":"METAR SBSC 112100Z 27002KT CAVOK 22/19 Q1010","temp":22,"dewp":19,"wdir":270,"wspd":2,"visib":"6+","altim":1010,"clouds":[],"obsTime":1783803600},"SBSR":{"icaoId":"SBSR","flightCategory":"VFR","rawOb":"METAR SBSR 112100Z 33002KT CAVOK 27/11 Q1014","temp":27,"dewp":11,"wdir":330,"wspd":2,"visib":"6+","altim":1014,"clouds":[],"obsTime":1783803600},"SBSJ":{"icaoId":"SBSJ","flightCategory":"VFR","rawOb":"METAR SBSJ 112100Z 32003KT CAVOK 23/15 Q1014","temp":23,"dewp":15,"wdir":320,"wspd":3,"visib":"6+","altim":1014,"clouds":[],"obsTime":1783803600},"SBAR":{"icaoId":"SBAR","flightCategory":"VFR","rawOb":"METAR SBAR 112100Z 10012KT 9999 FEW015 SCT025 26/21 Q1015","temp":26,"dewp":21,"wdir":100,"wspd":12,"visib":"6+","altim":1015,"clouds":[{"cover":"FEW","base":1500},{"cover":"SCT","base":2500}],"obsTime":1783803600},"SBUY":{"icaoId":"SBUY","flightCategory":"VFR","rawOb":"METAR SBUY 112100Z 28001KT 9999 FEW025 30/24 Q1008","temp":30,"dewp":24,"wdir":280,"wspd":1,"visib":"6+","altim":1008,"clouds":[{"cover":"FEW","base":2500}],"obsTime":1783803600},"SBSM":{"icaoId":"SBSM","flightCategory":"MVFR","rawOb":"METAR SBSM 112100Z VRB01KT 9999 -DZ BKN010 OVC015 16/15 Q1014","temp":16,"dewp":15,"wdir":"VRB","wspd":1,"visib":"6+","altim":1014,"clouds":[{"cover":"BKN","base":1000},{"cover":"OVC","base":1500}],"obsTime":1783803600},"SBPS":{"icaoId":"SBPS","flightCategory":"VFR","rawOb":"METAR SBPS 112100Z 04009KT 9999 FEW020 24/22 Q1015","temp":24,"dewp":22,"wdir":40,"wspd":9,"visib":"6+","altim":1015,"clouds":[{"cover":"FEW","base":2000}],"obsTime":1783803600},"SBTT":{"icaoId":"SBTT","flightCategory":"MVFR","rawOb":"METAR SBTT 112100Z 16003KT 110V190 9999 FEW013 BKN019 25/23 Q1011","temp":25,"dewp":23,"wdir":160,"wspd":3,"visib":"6+","altim":1011,"clouds":[{"cover":"FEW","base":1300},{"cover":"BKN","base":1900}],"obsTime":1783803600},"SBTF":{"icaoId":"SBTF","flightCategory":"VFR","rawOb":"METAR SBTF 112100Z 07005KT 9999 SCT020 SCT100 31/25 Q1009","temp":31,"dewp":25,"wdir":70,"wspd":5,"visib":"6+","altim":1009,"clouds":[{"cover":"SCT","base":2000},{"cover":"SCT","base":10000}],"obsTime":1783803600},"SBCA":{"icaoId":"SBCA","flightCategory":"IFR","rawOb":"METAR SBCA 112100Z 33008KT 3000 BR BCFG SCT001 SCT003 FEW050TCU BKN100 18/18 Q1015 RETS","temp":18,"dewp":18,"wdir":330,"wspd":8,"visib":1.86,"altim":1015,"clouds":[{"cover":"SCT","base":100},{"cover":"SCT","base":300},{"cover":"FEW","base":5000},{"cover":"BKN","base":10000}],"obsTime":1783803600},"SBOI":{"icaoId":"SBOI","flightCategory":"VFR","rawOb":"METAR SBOI 112100Z AUTO 10005KT 020V150 CAVOK 30/23 Q1011","temp":30,"dewp":23,"wdir":100,"wspd":5,"visib":"6+","altim":1011,"clouds":[],"obsTime":1783803600},"SBPL":{"icaoId":"SBPL","flightCategory":"VFR","rawOb":"METAR SBPL 112100Z 14006KT CAVOK 31/16 Q1014","temp":31,"dewp":16,"wdir":140,"wspd":6,"visib":"6+","altim":1014,"clouds":[],"obsTime":1783803600},"SBCO":{"icaoId":"SBCO","flightCategory":"MVFR","rawOb":"METAR SBCO 112100Z 29003KT 9000 OVC011 16/15 Q1012","temp":16,"dewp":15,"wdir":290,"wspd":3,"visib":5.59,"altim":1012,"clouds":[{"cover":"OVC","base":1100}],"obsTime":1783803600},"SBPB":{"icaoId":"SBPB","flightCategory":"VFR","rawOb":"METAR SBPB 112100Z 08012KT 9999 FEW020 28/24 Q1011","temp":28,"dewp":24,"wdir":80,"wspd":12,"visib":"6+","altim":1011,"clouds":[{"cover":"FEW","base":2000}],"obsTime":1783803600},"SBCJ":{"icaoId":"SBCJ","flightCategory":"VFR","rawOb":"METAR SBCJ 112100Z 00000KT 9999 FEW025 25/22 Q1015","temp":25,"dewp":22,"wdir":0,"wspd":0,"visib":"6+","altim":1015,"clouds":[{"cover":"FEW","base":2500}],"obsTime":1783803600},"SBPP":{"icaoId":"SBPP","flightCategory":"MVFR","rawOb":"METAR SBPP 112100Z 02009KT 9999 TS BKN020 FEW025CB 23/20 Q1014","temp":23,"dewp":20,"wdir":20,"wspd":9,"visib":"6+","altim":1014,"clouds":[{"cover":"BKN","base":2000},{"cover":"FEW","base":2500}],"obsTime":1783803600},"SBES":{"icaoId":"SBES","flightCategory":"VFR","rawOb":"METAR SBES 112100Z 05004KT CAVOK 20/// Q1012","temp":null,"dewp":null,"wdir":50,"wspd":4,"visib":"6+","altim":1012,"clouds":[],"obsTime":1783803600},"SBAF":{"icaoId":"SBAF","flightCategory":"VFR","rawOb":"METAR SBAF 112100Z 24003KT CAVOK 22/19 Q1011","temp":22,"dewp":19,"wdir":240,"wspd":3,"visib":"6+","altim":1011,"clouds":[],"obsTime":1783803600},"SBGW":{"icaoId":"SBGW","flightCategory":"VFR","rawOb":"METAR SBGW 112100Z 35004KT CAVOK 24/10 Q1014","temp":24,"dewp":10,"wdir":350,"wspd":4,"visib":"6+","altim":1014,"clouds":[],"obsTime":1783803600},"SBJR":{"icaoId":"SBJR","flightCategory":"VFR","rawOb":"METAR SBJR 112100Z 32001KT CAVOK 20/16 Q1010","temp":20,"dewp":16,"wdir":320,"wspd":1,"visib":"6+","altim":1010,"clouds":[],"obsTime":1783803600},"SBLS":{"icaoId":"SBLS","flightCategory":"VFR","rawOb":"METAR SBLS 112100Z 01003KT CAVOK 23/09 Q1017","temp":23,"dewp":9,"wdir":10,"wspd":3,"visib":"6+","altim":1017,"clouds":[],"obsTime":1783803600},"SBAN":{"icaoId":"SBAN","flightCategory":"VFR","rawOb":"METAR SBAN 112100Z 32002KT CAVOK 23/12 Q1019","temp":23,"dewp":12,"wdir":320,"wspd":2,"visib":"6+","altim":1019,"clouds":[],"obsTime":1783803600},"SBMT":{"icaoId":"SBMT","flightCategory":"VFR","rawOb":"METAR SBMT 112100Z 00000KT CAVOK 23/10 Q1014","temp":23,"dewp":10,"wdir":0,"wspd":0,"visib":"6+","altim":1014,"clouds":[],"obsTime":1783803600},"SBJV":{"icaoId":"SBJV","flightCategory":"IFR","rawOb":"METAR SBJV 112100Z 32002KT 2000 RA BKN005 OVC020 16/16 Q1013","temp":16,"dewp":16,"wdir":320,"wspd":2,"visib":1.24,"altim":1013,"clouds":[{"cover":"BKN","base":500},{"cover":"OVC","base":2000}],"obsTime":1783803600},"SBNM":{"icaoId":"SBNM","flightCategory":"MVFR","rawOb":"METAR SBNM 112100Z 22006KT 9999 SCT010 BKN015 OVC096 17/16 Q1013","temp":17,"dewp":16,"wdir":220,"wspd":6,"visib":"6+","altim":1013,"clouds":[{"cover":"SCT","base":1000},{"cover":"BKN","base":1500},{"cover":"OVC","base":9600}],"obsTime":1783803600},"SBLE":{"icaoId":"SBLE","flightCategory":"VFR","rawOb":"METAR SBLE 112100Z AUTO 07003KT 040V110 CAVOK ///// Q1017","temp":null,"dewp":null,"wdir":70,"wspd":3,"visib":"6+","altim":1017,"clouds":[],"obsTime":1783803600},"SBJP":{"icaoId":"SBJP","flightCategory":"VFR","rawOb":"METAR SBJP 112100Z 13007KT CAVOK 25/22 Q1015","temp":25,"dewp":22,"wdir":130,"wspd":7,"visib":"6+","altim":1015,"clouds":[],"obsTime":1783803600},"SBST":{"icaoId":"SBST","flightCategory":"VFR","rawOb":"METAR SBST 112100Z 32004KT CAVOK 21/18 Q1011","temp":21,"dewp":18,"wdir":320,"wspd":4,"visib":"6+","altim":1011,"clouds":[],"obsTime":1783803600},"SBTA":{"icaoId":"SBTA","flightCategory":"VFR","rawOb":"METAR SBTA 112100Z 00000KT 9999 FEW030 SCT100 21/16 Q1013","temp":21,"dewp":16,"wdir":0,"wspd":0,"visib":"6+","altim":1013,"clouds":[{"cover":"FEW","base":3000},{"cover":"SCT","base":10000}],"obsTime":1783803600},"SBIH":{"icaoId":"SBIH","flightCategory":"VFR","rawOb":"METAR SBIH 112100Z 03005KT CAVOK 31/24 Q1010","temp":31,"dewp":24,"wdir":30,"wspd":5,"visib":"6+","altim":1010,"clouds":[],"obsTime":1783803600}}}