{"updated":1773603959,"count":85,"data":{"SBBE":{"icaoId":"SBBE","flightCategory":"MVFR","rawOb":"METAR SBBE 151800Z 35010KT 9999 BKN025 FEW030TCU BKN040 27/25 Q1009 RETS","temp":27,"dewp":25,"wdir":350,"wspd":10,"visib":"6+","altim":1009,"clouds":[{"cover":"BKN","base":2500},{"cover":"FEW","base":3000},{"cover":"BKN","base":4000}],"obsTime":1773597600},"SBRB":{"icaoId":"SBRB","flightCategory":"MVFR","rawOb":"METAR SBRB 151800Z 33009KT 9999 BKN030 FEW030TCU 32/25 Q1008","temp":32,"dewp":25,"wdir":330,"wspd":9,"visib":"6+","altim":1008,"clouds":[{"cover":"BKN","base":3000},{"cover":"FEW","base":3000}],"obsTime":1773597600},"SBPV":{"icaoId":"SBPV","flightCategory":"MVFR","rawOb":"METAR SBPV 151800Z 02005KT 9999 -SHRA BKN030 31/24 Q1007","temp":31,"dewp":24,"wdir":20,"wspd":5,"visib":"6+","altim":1007,"clouds":[{"cover":"BKN","base":3000}],"obsTime":1773597600},"SBFI":{"icaoId":"SBFI","flightCategory":"VFR","rawOb":"METAR SBFI 151800Z 27004KT 9999 VCSH SCT040 FEW045TCU 35/20 Q1007","temp":35,"dewp":20,"wdir":270,"wspd":4,"visib":"6+","altim":1007,"clouds":[{"cover":"SCT","base":4000},{"cover":"FEW","base":4500}],"obsTime":1773597600},"SBMK":{"icaoId":"SBMK","flightCategory":"VFR","rawOb":"METAR SBMK 151800Z 14003KT 9999 SCT038 24/21 Q1012","temp":24,"dewp":21,"wdir":140,"wspd":3,"visib":"6+","altim":1012,"clouds":[{"cover":"SCT","base":3800}],"obsTime":1773597600},"SBMO":{"icaoId":"SBMO","flightCategory":"VFR","rawOb":"METAR SBMO 151800Z 10013KT 070V130 9999 FEW040 32/22 Q1009","temp":32,"dewp":22,"wdir":100,"wspd":13,"visib":"6+","altim":1009,"clouds":[{"cover":"FEW","base":4000}],"obsTime":1773597600},"SBMQ":{"icaoId":"SBMQ","flightCategory":"VFR","rawOb":"METAR SBMQ 151800Z 06010KT 9999 SCT021 30/25 Q1009","temp":30,"dewp":25,"wdir":60,"wspd":10,"visib":"6+","altim":1009,"clouds":[{"cover":"SCT","base":2100}],"obsTime":1773597600},"SBCF":{"icaoId":"SBCF","flightCategory":"VFR","rawOb":"METAR SBCF 151800Z VRB02KT 9999 VCSH SCT040 FEW045TCU 29/18 Q1012","temp":29,"dewp":18,"wdir":"VRB","wspd":2,"visib":"6+","altim":1012,"clouds":[{"cover":"SCT","base":4000},{"cover":"FEW","base":4500}],"obsTime":1773597600},"SBNT":{"icaoId":"SBNT","flightCategory":"VFR","rawOb":"METAR SBNT 151800Z 08010KT 040V120 9999 SCT030 31/23 Q1009","temp":31,"dewp":23,"wdir":80,"wspd":10,"visib":"6+","altim":1009,"clouds":[{"cover":"SCT","base":3000}],"obsTime":1773597600},"SBFL":{"icaoId":"SBFL","flightCategory":"VFR","rawOb":"METAR SBFL 151800Z 36010KT 9999 SCT040 31/24 Q1007","temp":31,"dewp":24,"wdir":360,"wspd":10,"visib":"6+","altim":1007,"clouds":[{"cover":"SCT","base":4000}],"obsTime":1773597600},"SBPA":{"icaoId":"SBPA","flightCategory":"VFR","rawOb":"METAR SBPA 151800Z 26009KT 9999 FEW040 31/17 Q1007","temp":31,"dewp":17,"wdir":260,"wspd":9,"visib":"6+","altim":1007,"clouds":[{"cover":"FEW","base":4000}],"obsTime":1773597600},"SBCG":{"icaoId":"SBCG","flightCategory":"VFR","rawOb":"METAR SBCG 151800Z 35010KT 9999 BKN040 31/20 Q1010","temp":31,"dewp":20,"wdir":350,"wspd":10,"visib":"6+","altim":1010,"clouds":[{"cover":"BKN","base":4000}],"obsTime":1773597600},"SBPJ":{"icaoId":"SBPJ","flightCategory":"VFR","rawOb":"METAR SBPJ 151800Z 33002KT 9999 FEW027 SCT050 31/23 Q1010","temp":31,"dewp":23,"wdir":330,"wspd":2,"visib":"6+","altim":1010,"clouds":[{"cover":"FEW","base":2700},{"cover":"SCT","base":5000}],"obsTime":1773597600},"SBFZ":{"icaoId":"SBFZ","flightCategory":"VFR","rawOb":"METAR SBFZ 151800Z VRB03KT 9999 TS FEW018 FEW030CB BKN080 27/23 Q1009","temp":27,"dewp":23,"wdir":"VRB","wspd":3,"visib":"6+","altim":1009,"clouds":[{"cover":"FEW","base":1800},{"cover":"FEW","base":3000},{"cover":"BKN","base":8000}],"obsTime":1773597600},"SBRF":{"icaoId":"SBRF","flightCategory":"VFR","rawOb":"METAR SBRF 151800Z 09009KT 9999 FEW020 31/24 Q1009","temp":31,"dewp":24,"wdir":90,"wspd":9,"visib":"6+","altim":1009,"clouds":[{"cover":"FEW","base":2000}],"obsTime":1773597600},"SBGL":{"icaoId":"SBGL","flightCategory":"VFR","rawOb":"METAR SBGL 151800Z 13011KT 9999 FEW030 30/22 Q1009","temp":30,"dewp":22,"wdir":130,"wspd":11,"visib":"6+","altim":1009,"clouds":[{"cover":"FEW","base":3000}],"obsTime":1773597600},"SBSG":{"icaoId":"SBSG","flightCategory":"VFR","rawOb":"METAR SBSG 151800Z 08012KT 9999 SCT030 31/23 Q1009","temp":31,"dewp":23,"wdir":80,"wspd":12,"visib":"6+","altim":1009,"clouds":[{"cover":"SCT","base":3000}],"obsTime":1773597600},"SBBR":{"icaoId":"SBBR","flightCategory":"VFR","rawOb":"METAR SBBR 151800Z 07006KT 020V120 9999 -RA BKN040 FEW045TCU SCT090 25/20 Q1014","temp":25,"dewp":20,"wdir":70,"wspd":6,"visib":"6+","altim":1014,"clouds":[{"cover":"BKN","base":4000},{"cover":"FEW","base":4500},{"cover":"SCT","base":9000}],"obsTime":1773597600},"SBSL":{"icaoId":"SBSL","flightCategory":"MVFR","rawOb":"METAR SBSL 151800Z 34003KT 9999 VCSH BKN015 FEW025TCU BKN080 26/24 Q1009 RETS","temp":26,"dewp":24,"wdir":340,"wspd":3,"visib":"6+","altim":1009,"clouds":[{"cover":"BKN","base":1500},{"cover":"FEW","base":2500},{"cover":"BKN","base":8000}],"obsTime":1773597600},"SBGO":{"icaoId":"SBGO","flightCategory":"VFR","rawOb":"METAR SBGO 151800Z 36005KT 310V060 9999 FEW036 FEW045TCU 26/20 Q1013","temp":26,"dewp":20,"wdir":360,"wspd":5,"visib":"6+","altim":1013,"clouds":[{"cover":"FEW","base":3600},{"cover":"FEW","base":4500}],"obsTime":1773597600},"SBCP":{"icaoId":"SBCP","flightCategory":"VFR","rawOb":"METAR SBCP 151800Z 07005KT 9999 FEW020 32/22 Q1008","temp":32,"dewp":22,"wdir":70,"wspd":5,"visib":"6+","altim":1008,"clouds":[{"cover":"FEW","base":2000}],"obsTime":1773597600},"SBSN":{"icaoId":"SBSN","flightCategory":"VFR","rawOb":"METAR SBSN 151800Z 36005KT 9999 SCT020 FEW023TCU 30/24 Q1008","temp":30,"dewp":24,"wdir":360,"wspd":5,"visib":"6+","altim":1008,"clouds":[{"cover":"SCT","base":2000},{"cover":"FEW","base":2300}],"obsTime":1773597600},"SBGR":{"icaoId":"SBGR","flightCategory":"VFR","rawOb":"METAR SBGR 151800Z 30008KT CAVOK 30/17 Q1013","temp":30,"dewp":17,"wdir":300,"wspd":8,"visib":"6+","altim":1013,"clouds":[],"obsTime":1773597600},"SBSP":{"icaoId":"SBSP","flightCategory":"VFR","rawOb":"METAR SBSP 151800Z 17012KT 9999 -RA VCSH BKN035 FEW040TCU 23/19 Q1014","temp":23,"dewp":19,"wdir":170,"wspd":12,"visib":"6+","altim":1014,"clouds":[{"cover":"BKN","base":3500},{"cover":"FEW","base":4000}],"obsTime":1773597600},"SBSV":{"icaoId":"SBSV","flightCategory":"VFR","rawOb":"METAR SBSV 151800Z 09011KT CAVOK 30/24 Q1008","temp":30,"dewp":24,"wdir":90,"wspd":11,"visib":"6+","altim":1008,"clouds":[],"obsTime":1773597600},"SBBV":{"icaoId":"SBBV","flightCategory":"MVFR","rawOb":"METAR SBBV 151800Z 09008KT 9999 BKN030 FEW040TCU 34/20 Q1009","temp":34,"dewp":20,"wdir":90,"wspd":8,"visib":"6+","altim":1009,"clouds":[{"cover":"BKN","base":3000},{"cover":"FEW","base":4000}],"obsTime":1773597600},"SBTE":{"icaoId":"SBTE","flightCategory":"MVFR","rawOb":"METAR SBTE 151800Z VRB02KT 9999 VCSH BKN020 FEW025TCU 32/24 Q1007","temp":32,"dewp":24,"wdir":"VRB","wspd":2,"visib":"6+","altim":1007,"clouds":[{"cover":"BKN","base":2000},{"cover":"FEW","base":2500}],"obsTime":1773597600},"SBHT":{"icaoId":"SBHT","flightCategory":"MVFR","rawOb":"METAR SBHT 151800Z 09007KT 9999 BKN025 31/24 Q1008","temp":31,"dewp":24,"wdir":90,"wspd":7,"visib":"6+","altim":1008,"clouds":[{"cover":"BKN","base":2500}],"obsTime":1773597600},"SBCR":{"icaoId":"SBCR","flightCategory":"MVFR","rawOb":"METAR SBCR 151800Z 25010KT 200V280 6000 -TSRA BKN040 FEW045CB 25/23 Q1006","temp":25,"dewp":23,"wdir":250,"wspd":10,"visib":3.73,"altim":1006,"clouds":[{"cover":"BKN","base":4000},{"cover":"FEW","base":4500}],"obsTime":1773597600},"SBUL":{"icaoId":"SBUL","flightCategory":"VFR","rawOb":"METAR SBUL 151800Z 22006KT 190V260 9999 TS VCSH SCT035 FEW040CB BKN100 24/19 Q1014","temp":24,"dewp":19,"wdir":220,"wspd":6,"visib":"6+","altim":1014,"clouds":[{"cover":"SCT","base":3500},{"cover":"FEW","base":4000},{"cover":"BKN","base":10000}],"obsTime":1773597600},"SBUR":{"icaoId":"SBUR","flightCategory":"VFR","rawOb":"METAR SBUR 151800Z 18006KT 9999 SCT045 FEW050TCU 31/17 Q1012","temp":31,"dewp":17,"wdir":180,"wspd":6,"visib":"6+","altim":1012,"clouds":[{"cover":"SCT","base":4500},{"cover":"FEW","base":5000}],"obsTime":1773597600},"SBIL":{"icaoId":"SBIL","flightCategory":"VFR","rawOb":"METAR SBIL 151800Z 05009KT CAVOK 31/26 Q1008","temp":31,"dewp":26,"wdir":50,"wspd":9,"visib":"6+","altim":1008,"clouds":[],"obsTime":1773597600},"SBVT":{"icaoId":"SBVT","flightCategory":"VFR","rawOb":"METAR SBVT 151800Z 16009KT 9999 SCT040 26/23 Q1009","temp":26,"dewp":23,"wdir":160,"wspd":9,"visib":"6+","altim":1009,"clouds":[{"cover":"SCT","base":4000}],"obsTime":1773597600},"SBCZ":{"icaoId":"SBCZ","flightCategory":"IFR","rawOb":"METAR SBCZ 151800Z 35005KT 9999 OVC008 25/24 Q1010","temp":25,"dewp":24,"wdir":350,"wspd":5,"visib":"6+","altim":1010,"clouds":[{"cover":"OVC","base":800}],"obsTime":1773597600},"SBME":{"icaoId":"SBME","flightCategory":"VFR","rawOb":"METAR SBME 151800Z 14008KT 9999 FEW030 30/22 Q1009","temp":30,"dewp":22,"wdir":140,"wspd":8,"visib":"6+","altim":1009,"clouds":[{"cover":"FEW","base":3000}],"obsTime":1773597600},"SBCB":{"icaoId":"SBCB","flightCategory":"VFR","rawOb":"METAR SBCB 151800Z 10009KT CAVOK 28/22 Q1010","temp":28,"dewp":22,"wdir":100,"wspd":9,"visib":"6+","altim":1010,"clouds":[],"obsTime":1773597600},"SBMG":{"icaoId":"SBMG","flightCategory":"VFR","rawOb":"METAR SBMG 151800Z 35009KT 300V050 9999 SCT050 FEW050TCU 33/17 Q1009","temp":33,"dewp":17,"wdir":350,"wspd":9,"visib":"6+","altim":1009,"clouds":[{"cover":"SCT","base":5000},{"cover":"FEW","base":5000}],"obsTime":1773597600},"SBEG":{"icaoId":"SBEG","flightCategory":"VFR","rawOb":"METAR SBEG 151800Z 06005KT 9999 VCSH SCT025 FEW030TCU 33/24 Q1008","temp":33,"dewp":24,"wdir":60,"wspd":5,"visib":"6+","altim":1008,"clouds":[{"cover":"SCT","base":2500},{"cover":"FEW","base":3000}],"obsTime":1773597600},"SBMA":{"icaoId":"SBMA","flightCategory":"VFR","rawOb":"METAR SBMA 151800Z 12005KT 9999 SCT020 SCT100 31/24 Q1008","temp":31,"dewp":24,"wdir":120,"wspd":5,"visib":"6+","altim":1008,"clouds":[{"cover":"SCT","base":2000},{"cover":"SCT","base":10000}],"obsTime":1773597600},"SBJU":{"icaoId":"SBJU","flightCategory":"VFR","rawOb":"METAR SBJU 151800Z 12006KT 9999 SCT022 31/22 Q1010","temp":31,"dewp":22,"wdir":120,"wspd":6,"visib":"6+","altim":1010,"clouds":[{"cover":"SCT","base":2200}],"obsTime":1773597600},"SBCT":{"icaoId":"SBCT","flightCategory":"VFR","rawOb":"METAR SBCT 151800Z 27010KT 9999 SCT045 31/13 Q1013","temp":31,"dewp":13,"wdir":270,"wspd":10,"visib":"6+","altim":1013,"clouds":[{"cover":"SCT","base":4500}],"obsTime":1773597600},"SBKP":{"icaoId":"SBKP","flightCategory":"VFR","rawOb":"METAR SBKP 151800Z 27005KT 230V310 9999 SCT045 31/17 Q1012","temp":31,"dewp":17,"wdir":270,"wspd":5,"visib":"6+","altim":1012,"clouds":[{"cover":"SCT","base":4500}],"obsTime":1773597600},"SBAT":{"icaoId":"SBAT","flightCategory":"VFR","rawOb":"METAR SBAT 151800Z 01004KT 9999 SCT030 33/24 Q1009","temp":33,"dewp":24,"wdir":10,"wspd":4,"visib":"6+","altim":1009,"clouds":[{"cover":"SCT","base":3000}],"obsTime":1773597600},"SBLO":{"icaoId":"SBLO","flightCategory":"VFR","rawOb":"METAR SBLO 151800Z 02006KT 9999 SCT040 32/16 Q1010","temp":32,"dewp":16,"wdir":20,"wspd":6,"visib":"6+","altim":1010,"clouds":[{"cover":"SCT","base":4000}],"obsTime":1773597600},"SBCC":{"icaoId":"SBCC","flightCategory":"MVFR","rawOb":"METAR SBCC 151800Z 30003KT 9999 TS BKN025 FEW040CB 26/22 Q1011","temp":26,"dewp":22,"wdir":300,"wspd":3,"visib":"6+","altim":1011,"clouds":[{"cover":"BKN","base":2500},{"cover":"FEW","base":4000}],"obsTime":1773597600},"SBAX":{"icaoId":"SBAX","flightCategory":"VFR","rawOb":"METAR SBAX 151800Z AUTO VRB03KT CAVOK 30/16 Q1013","temp":30,"dewp":16,"wdir":"VRB","wspd":3,"visib":"6+","altim":1013,"clouds":[],"obsTime":1773597600},"SBBH":{"icaoId":"SBBH","flightCategory":"VFR","rawOb":"METAR SBBH 151800Z 27005KT 9999 BKN048 31/17 Q1012","temp":31,"dewp":17,"wdir":270,"wspd":5,"visib":"6+","altim":1012,"clouds":[{"cover":"BKN","base":4800}],"obsTime":1773597600},"SBBQ":{"icaoId":"SBBQ","flightCategory":"VFR","rawOb":"METAR SBBQ 151800Z VRB03KT 9999 SCT045 28/13 Q1016","temp":28,"dewp":13,"wdir":"VRB","wspd":3,"visib":"6+","altim":1016,"clouds":[{"cover":"SCT","base":4500}],"obsTime":1773597600},"SBBU":{"icaoId":"SBBU","flightCategory":"VFR","rawOb":"METAR SBBU 151800Z 24003KT 9999 FEW045 32/18 Q1011","temp":32,"dewp":18,"wdir":240,"wspd":3,"visib":"6+","altim":1011,"clouds":[{"cover":"FEW","base":4500}],"obsTime":1773597600},"SBCA":{"icaoId":"SBCA","flightCategory":"VFR","rawOb":"METAR SBCA 151800Z 34012KT 9999 SCT040 FEW050TCU 30/16 Q1012","temp":30,"dewp":16,"wdir":340,"wspd":12,"visib":"6+","altim":1012,"clouds":[{"cover":"SCT","base":4000},{"cover":"FEW","base":5000}],"obsTime":1773597600},"SBAR":{"icaoId":"SBAR","flightCategory":"VFR","rawOb":"METAR SBAR 151800Z 10015KT 9999 FEW025 31/24 Q1008","temp":31,"dewp":24,"wdir":100,"wspd":15,"visib":"6+","altim":1008,"clouds":[{"cover":"FEW","base":2500}],"obsTime":1773597600},"SBCJ":{"icaoId":"SBCJ","flightCategory":"VFR","rawOb":"METAR SBCJ 151800Z 05002KT 9999 SCT017 28/21 Q1013","temp":28,"dewp":21,"wdir":50,"wspd":2,"visib":"6+","altim":1013,"clouds":[{"cover":"SCT","base":1700}],"obsTime":1773597600},"SBCO":{"icaoId":"SBCO","flightCategory":"VFR","rawOb":"METAR SBCO 151800Z VRB05KT 9999 FEW035 32/17 Q1008","temp":32,"dewp":17,"wdir":"VRB","wspd":5,"visib":"6+","altim":1008,"clouds":[{"cover":"FEW","base":3500}],"obsTime":1773597600},"SBDN":{"icaoId":"SBDN","flightCategory":"VFR","rawOb":"METAR SBDN 151800Z 25002KT CAVOK 33/17 Q1010","temp":33,"dewp":17,"wdir":250,"wspd":2,"visib":"6+","altim":1010,"clouds":[],"obsTime":1773597600},"SBES":{"icaoId":"SBES","flightCategory":"VFR","rawOb":"METAR SBES 151800Z 09007KT 060V130 9999 FEW025 28/// Q1010","temp":null,"dewp":null,"wdir":90,"wspd":7,"visib":"6+","altim":1010,"clouds":[{"cover":"FEW","base":2500}],"obsTime":1773597600},"SBGM":{"icaoId":"SBGM","flightCategory":"VFR","rawOb":"METAR SBGM 151800Z 27007KT 230V320 9999 SCT016 34/16 Q1007","temp":34,"dewp":16,"wdir":270,"wspd":7,"visib":"6+","altim":1007,"clouds":[{"cover":"SCT","base":1600}],"obsTime":1773597600},"SBIP":{"icaoId":"SBIP","flightCategory":"VFR","rawOb":"METAR SBIP 151800Z AUTO 19003KT 100V270 CAVOK 32/21 Q1009","temp":32,"dewp":21,"wdir":190,"wspd":3,"visib":"6+","altim":1009,"clouds":[],"obsTime":1773597600},"SBKG":{"icaoId":"SBKG","flightCategory":"VFR","rawOb":"METAR SBKG 151800Z 08012KT 050V130 9999 SCT030 31/20 Q1011","temp":31,"dewp":20,"wdir":80,"wspd":12,"visib":"6+","altim":1011,"clouds":[{"cover":"SCT","base":3000}],"obsTime":1773597600},"SBOI":{"icaoId":"SBOI","flightCategory":"VFR","rawOb":"METAR SBOI 151800Z AUTO 04007KT 010V080 9999 FEW024 29/25 Q1010","temp":29,"dewp":25,"wdir":40,"wspd":7,"visib":"6+","altim":1010,"clouds":[{"cover":"FEW","base":2400}],"obsTime":1773597600},"SBPB":{"icaoId":"SBPB","flightCategory":"MVFR","rawOb":"METAR SBPB 151800Z 05009KT 9999 BKN020 30/24 Q1008","temp":30,"dewp":24,"wdir":50,"wspd":9,"visib":"6+","altim":1008,"clouds":[{"cover":"BKN","base":2000}],"obsTime":1773597600},"SBPL":{"icaoId":"SBPL","flightCategory":"VFR","rawOb":"METAR SBPL 151800Z 27003KT 9999 SCT030 35/19 Q1008","temp":35,"dewp":19,"wdir":270,"wspd":3,"visib":"6+","altim":1008,"clouds":[{"cover":"SCT","base":3000}],"obsTime":1773597600},"SBPP":{"icaoId":"SBPP","flightCategory":"MVFR","rawOb":"METAR SBPP 151800Z 35008KT 9999 BKN025 32/18 Q1010","temp":32,"dewp":18,"wdir":350,"wspd":8,"visib":"6+","altim":1010,"clouds":[{"cover":"BKN","base":2500}],"obsTime":1773597600},"SBPS":{"icaoId":"SBPS","flightCategory":"MVFR","rawOb":"METAR SBPS 151800Z 13004KT 080V180 9999 BKN018 BKN050 27/24 Q1009","temp":27,"dewp":24,"wdir":130,"wspd":4,"visib":"6+","altim":1009,"clouds":[{"cover":"BKN","base":1800},{"cover":"BKN","base":5000}],"obsTime":1773597600},"SBSC":{"icaoId":"SBSC","flightCategory":"VFR","rawOb":"METAR SBSC 151800Z 21006KT 9999 FEW030 31/23 Q1009","temp":31,"dewp":23,"wdir":210,"wspd":6,"visib":"6+","altim":1009,"clouds":[{"cover":"FEW","base":3000}],"obsTime":1773597600},"SBSJ":{"icaoId":"SBSJ","flightCategory":"VFR","rawOb":"METAR SBSJ 151800Z 16002KT 9999 SCT035 30/15 Q1012","temp":30,"dewp":15,"wdir":160,"wspd":2,"visib":"6+","altim":1012,"clouds":[{"cover":"SCT","base":3500}],"obsTime":1773597600},"SBSM":{"icaoId":"SBSM","flightCategory":"VFR","rawOb":"METAR SBSM 151800Z 08005KT 030V120 9999 FEW035 33/20 Q1007","temp":33,"dewp":20,"wdir":80,"wspd":5,"visib":"6+","altim":1007,"clouds":[{"cover":"FEW","base":3500}],"obsTime":1773597600},"SBSR":{"icaoId":"SBSR","flightCategory":"VFR","rawOb":"METAR SBSR 151800Z 03002KT 9999 SCT030 32/17 Q1011","temp":32,"dewp":17,"wdir":30,"wspd":2,"visib":"6+","altim":1011,"clouds":[{"cover":"SCT","base":3000}],"obsTime":1773597600},"SBTF":{"icaoId":"SBTF","flightCategory":"VFR","rawOb":"METAR SBTF 151800Z 12004KT 9999 FEW016 SCT100 32/26 Q1008","temp":32,"dewp":26,"wdir":120,"wspd":4,"visib":"6+","altim":1008,"clouds":[{"cover":"FEW","base":1600},{"cover":"SCT","base":10000}],"obsTime":1773597600},"SBTT":{"icaoId":"SBTT","flightCategory":"MVFR","rawOb":"METAR SBTT 151800Z 29005KT 250V330 9999 BKN019 28/23 Q1009","temp":28,"dewp":23,"wdir":290,"wspd":5,"visib":"6+","altim":1009,"clouds":[{"cover":"BKN","base":1900}],"obsTime":1773597600},"SBUY":{"icaoId":"SBUY","flightCategory":"VFR","rawOb":"METAR SBUY 151800Z 10005KT 9999 SCT025 FEW030TCU BKN100 32/24 Q1006","temp":32,"dewp":24,"wdir":100,"wspd":5,"visib":"6+","altim":1006,"clouds":[{"cover":"SCT","base":2500},{"cover":"FEW","base":3000},{"cover":"BKN","base":10000}],"obsTime":1773597600},"SBVH":{"icaoId":"SBVH","flightCategory":"MVFR","rawOb":"METAR SBVH 151800Z 33009KT 9999 BKN028 SCT080 29/22 Q1011","temp":29,"dewp":22,"wdir":330,"wspd":9,"visib":"6+","altim":1011,"clouds":[{"cover":"BKN","base":2800},{"cover":"SCT","base":8000}],"obsTime":1773597600},"SBAN":{"icaoId":"SBAN","flightCategory":"VFR","rawOb":"METAR SBAN 151800Z 27006KT 9999 VCSH SCT030 FEW035TCU BKN100 21/19 Q1016","temp":21,"dewp":19,"wdir":270,"wspd":6,"visib":"6+","altim":1016,"clouds":[{"cover":"SCT","base":3000},{"cover":"FEW","base":3500},{"cover":"BKN","base":10000}],"obsTime":1773597600},"SBLE":{"icaoId":"SBLE","flightCategory":"VFR","rawOb":"METAR SBLE 151800Z AUTO 11006KT 070V160 CAVOK 33/22 Q1010","temp":33,"dewp":22,"wdir":110,"wspd":6,"visib":"6+","altim":1010,"clouds":[],"obsTime":1773597600},"SBJP":{"icaoId":"SBJP","flightCategory":"VFR","rawOb":"METAR SBJP 151800Z 06010KT 030V090 9999 FEW035 31/22 Q1009","temp":31,"dewp":22,"wdir":60,"wspd":10,"visib":"6+","altim":1009,"clouds":[{"cover":"FEW","base":3500}],"obsTime":1773597600},"SBLS":{"icaoId":"SBLS","flightCategory":"VFR","rawOb":"METAR SBLS 151800Z 25003KT 180V290 9999 BKN040 29/18 Q1012","temp":29,"dewp":18,"wdir":250,"wspd":3,"visib":"6+","altim":1012,"clouds":[{"cover":"BKN","base":4000}],"obsTime":1773597600},"SBMT":{"icaoId":"SBMT","flightCategory":"MVFR","rawOb":"METAR SBMT 151800Z 19011KT 9999 BKN030 FEW040TCU 27/18 Q1013","temp":27,"dewp":18,"wdir":190,"wspd":11,"visib":"6+","altim":1013,"clouds":[{"cover":"BKN","base":3000},{"cover":"FEW","base":4000}],"obsTime":1773597600},"SBIH":{"icaoId":"SBIH","flightCategory":"VFR","rawOb":"METAR SBIH 151800Z 36003KT 9999 FEW017 BKN100 29/24 Q1009","temp":29,"dewp":24,"wdir":360,"wspd":3,"visib":"6+","altim":1009,"clouds":[{"cover":"FEW","base":1700},{"cover":"BKN","base":10000}],"obsTime":1773597600},"SBJR":{"icaoId":"SBJR","flightCategory":"VFR","rawOb":"METAR SBJR 151800Z 17006KT 9999 FEW025 32/23 Q1009","temp":32,"dewp":23,"wdir":170,"wspd":6,"visib":"6+","altim":1009,"clouds":[{"cover":"FEW","base":2500}],"obsTime":1773597600},"SBST":{"icaoId":"SBST","flightCategory":"VFR","rawOb":"METAR SBST 151800Z 10003KT 9999 SCT030 29/22 Q1009","temp":29,"dewp":22,"wdir":100,"wspd":3,"visib":"6+","altim":1009,"clouds":[{"cover":"SCT","base":3000}],"obsTime":1773597600},"SBJV":{"icaoId":"SBJV","flightCategory":"VFR","rawOb":"METAR SBJV 151800Z 08005KT 9999 SCT035 31/24 Q1007","temp":31,"dewp":24,"wdir":80,"wspd":5,"visib":"6+","altim":1007,"clouds":[{"cover":"SCT","base":3500}],"obsTime":1773597600},"SBTA":{"icaoId":"SBTA","flightCategory":"VFR","rawOb":"METAR SBTA 151800Z VRB03KT 9999 FEW035 32/14 Q1011","temp":32,"dewp":14,"wdir":"VRB","wspd":3,"visib":"6+","altim":1011,"clouds":[{"cover":"FEW","base":3500}],"obsTime":1773597600},"SBGW":{"icaoId":"SBGW","flightCategory":"VFR","rawOb":"METAR SBGW 151800Z 24004KT 190V290 9999 SCT030 32/13 Q1011","temp":32,"dewp":13,"wdir":240,"wspd":4,"visib":"6+","altim":1011,"clouds":[{"cover":"SCT","base":3000}],"obsTime":1773597600},"SBTC":{"icaoId":"SBTC","flightCategory":"VFR","rawOb":"METAR SBTC 151800Z 04007KT 9999 SCT025 30/24 Q1009","temp":30,"dewp":24,"wdir":40,"wspd":7,"visib":"6+","altim":1009,"clouds":[{"cover":"SCT","base":2500}],"obsTime":1773597600},"SBAF":{"icaoId":"SBAF","flightCategory":"VFR","rawOb":"METAR SBAF 151800Z 17008KT 9999 FEW025 32/22 Q1009","temp":32,"dewp":22,"wdir":170,"wspd":8,"visib":"6+","altim":1009,"clouds":[{"cover":"FEW","base":2500}],"obsTime":1773597600},"SBPF":{"icaoId":"SBPF","flightCategory":"VFR","rawOb":"METAR SBPF 151800Z 27012KT 9999 FEW040 30/13 Q1012","temp":30,"dewp":13,"wdir":270,"wspd":12,"visib":"6+","altim":1012,"clouds":[{"cover":"FEW","base":4000}],"obsTime":1773597600}}}