{"updated":1783012009,"count":86,"data":{"SBSV":{"icaoId":"SBSV","flightCategory":"VFR","rawOb":"METAR SBSV 021600Z 12006KT 080V180 9999 SCT030 27/22 Q1018","temp":27,"dewp":22,"wdir":120,"wspd":6,"visib":"6+","altim":1018,"clouds":[{"cover":"SCT","base":3000}],"obsTime":1783008000},"SBMQ":{"icaoId":"SBMQ","flightCategory":"VFR","rawOb":"METAR SBMQ 021600Z 05008KT 9999 SCT025 30/26 Q1013","temp":30,"dewp":26,"wdir":50,"wspd":8,"visib":"6+","altim":1013,"clouds":[{"cover":"SCT","base":2500}],"obsTime":1783008000},"SBCG":{"icaoId":"SBCG","flightCategory":"VFR","rawOb":"METAR SBCG 021600Z 29005KT 250V350 CAVOK 29/14 Q1021","temp":29,"dewp":14,"wdir":290,"wspd":5,"visib":"6+","altim":1021,"clouds":[],"obsTime":1783008000},"SBBE":{"icaoId":"SBBE","flightCategory":"VFR","rawOb":"METAR SBBE 021600Z 11009KT 9999 SCT040 33/22 Q1012","temp":33,"dewp":22,"wdir":110,"wspd":9,"visib":"6+","altim":1012,"clouds":[{"cover":"SCT","base":4000}],"obsTime":1783008000},"SBMO":{"icaoId":"SBMO","flightCategory":"VFR","rawOb":"METAR SBMO 021600Z 07009KT 9999 FEW030 29/18 Q1016","temp":29,"dewp":18,"wdir":70,"wspd":9,"visib":"6+","altim":1016,"clouds":[{"cover":"FEW","base":3000}],"obsTime":1783008000},"SBMA":{"icaoId":"SBMA","flightCategory":"VFR","rawOb":"METAR SBMA 021600Z 08006KT CAVOK 34/16 Q1013","temp":34,"dewp":16,"wdir":80,"wspd":6,"visib":"6+","altim":1013,"clouds":[],"obsTime":1783008000},"SBLO":{"icaoId":"SBLO","flightCategory":"VFR","rawOb":"METAR SBLO 021600Z 04005KT CAVOK 26/16 Q1021","temp":26,"dewp":16,"wdir":40,"wspd":5,"visib":"6+","altim":1021,"clouds":[],"obsTime":1783008000},"SBCT":{"icaoId":"SBCT","flightCategory":"VFR","rawOb":"METAR SBCT 021600Z 32011KT CAVOK 25/14 Q1022","temp":25,"dewp":14,"wdir":320,"wspd":11,"visib":"6+","altim":1022,"clouds":[],"obsTime":1783008000},"SBCP":{"icaoId":"SBCP","flightCategory":"VFR","rawOb":"METAR SBCP 021600Z 21005KT CAVOK 31/18 Q1019","temp":31,"dewp":18,"wdir":210,"wspd":5,"visib":"6+","altim":1019,"clouds":[],"obsTime":1783008000},"SBBR":{"icaoId":"SBBR","flightCategory":"VFR","rawOb":"METAR SBBR 021600Z 10010KT 070V140 9999 SCT035 24/14 Q1024","temp":24,"dewp":14,"wdir":100,"wspd":10,"visib":"6+","altim":1024,"clouds":[{"cover":"SCT","base":3500}],"obsTime":1783008000},"SBRB":{"icaoId":"SBRB","flightCategory":"VFR","rawOb":"METAR SBRB 021600Z 14005KT 9999 SCT025 31/23 Q1016","temp":31,"dewp":23,"wdir":140,"wspd":5,"visib":"6+","altim":1016,"clouds":[{"cover":"SCT","base":2500}],"obsTime":1783008000},"SBSL":{"icaoId":"SBSL","flightCategory":"MVFR","rawOb":"METAR SBSL 021600Z 08006KT 9999 VCSH BKN025 FEW030TCU 30/24 Q1013","temp":30,"dewp":24,"wdir":80,"wspd":6,"visib":"6+","altim":1013,"clouds":[{"cover":"BKN","base":2500},{"cover":"FEW","base":3000}],"obsTime":1783008000},"SBKP":{"icaoId":"SBKP","flightCategory":"VFR","rawOb":"METAR SBKP 021600Z 01007KT 330V050 9999 FEW030 26/15 Q1023","temp":26,"dewp":15,"wdir":10,"wspd":7,"visib":"6+","altim":1023,"clouds":[{"cover":"FEW","base":3000}],"obsTime":1783008000},"SBEG":{"icaoId":"SBEG","flightCategory":"VFR","rawOb":"METAR SBEG 021600Z 12012KT 9999 SCT030 32/23 Q1013","temp":32,"dewp":23,"wdir":120,"wspd":12,"visib":"6+","altim":1013,"clouds":[{"cover":"SCT","base":3000}],"obsTime":1783008000},"SBCR":{"icaoId":"SBCR","flightCategory":"MVFR","rawOb":"METAR SBCR 021600Z 22011KT 9999 OVC013 17/14 Q1023","temp":17,"dewp":14,"wdir":220,"wspd":11,"visib":"6+","altim":1023,"clouds":[{"cover":"OVC","base":1300}],"obsTime":1783008000},"SBBV":{"icaoId":"SBBV","flightCategory":"VFR","rawOb":"METAR SBBV 021600Z 18007KT 9999 SCT040 FEW045TCU SCT080 27/23 Q1013","temp":27,"dewp":23,"wdir":180,"wspd":7,"visib":"6+","altim":1013,"clouds":[{"cover":"SCT","base":4000},{"cover":"FEW","base":4500},{"cover":"SCT","base":8000}],"obsTime":1783008000},"SBCZ":{"icaoId":"SBCZ","flightCategory":"MVFR","rawOb":"METAR SBCZ 021600Z 16005KT 9999 BKN025 BKN100 29/24 Q1016","temp":29,"dewp":24,"wdir":160,"wspd":5,"visib":"6+","altim":1016,"clouds":[{"cover":"BKN","base":2500},{"cover":"BKN","base":10000}],"obsTime":1783008000},"SBNT":{"icaoId":"SBNT","flightCategory":"VFR","rawOb":"METAR SBNT 021600Z 15018KT 9999 SCT033 30/21 Q1014","temp":30,"dewp":21,"wdir":150,"wspd":18,"visib":"6+","altim":1014,"clouds":[{"cover":"SCT","base":3300}],"obsTime":1783008000},"SBSP":{"icaoId":"SBSP","flightCategory":"VFR","rawOb":"METAR SBSP 021600Z 32010KT CAVOK 25/14 Q1024","temp":25,"dewp":14,"wdir":320,"wspd":10,"visib":"6+","altim":1024,"clouds":[],"obsTime":1783008000},"SBSG":{"icaoId":"SBSG","flightCategory":"VFR","rawOb":"METAR SBSG 021600Z 14008KT 090V190 9999 SCT033 29/22 Q1014","temp":29,"dewp":22,"wdir":140,"wspd":8,"visib":"6+","altim":1014,"clouds":[{"cover":"SCT","base":3300}],"obsTime":1783008000},"SBSN":{"icaoId":"SBSN","flightCategory":"VFR","rawOb":"METAR SBSN 021600Z 07011KT 9999 FEW017 31/25 Q1013","temp":31,"dewp":25,"wdir":70,"wspd":11,"visib":"6+","altim":1013,"clouds":[{"cover":"FEW","base":1700}],"obsTime":1783008000},"SBGO":{"icaoId":"SBGO","flightCategory":"VFR","rawOb":"METAR SBGO 021600Z 10008KT 9999 FEW049 27/13 Q1022","temp":27,"dewp":13,"wdir":100,"wspd":8,"visib":"6+","altim":1022,"clouds":[{"cover":"FEW","base":4900}],"obsTime":1783008000},"SBPJ":{"icaoId":"SBPJ","flightCategory":"VFR","rawOb":"METAR SBPJ 021600Z 11012KT 9999 SCT045 33/16 Q1016","temp":33,"dewp":16,"wdir":110,"wspd":12,"visib":"6+","altim":1016,"clouds":[{"cover":"SCT","base":4500}],"obsTime":1783008000},"SBGL":{"icaoId":"SBGL","flightCategory":"VFR","rawOb":"METAR SBGL 021600Z 05004KT 9000 NSC 30/16 Q1018","temp":30,"dewp":16,"wdir":50,"wspd":4,"visib":5.59,"altim":1018,"clouds":[],"obsTime":1783008000},"SBFI":{"icaoId":"SBFI","flightCategory":"IFR","rawOb":"SPECI SBFI 021548Z 22009KT 3000 BR OVC005 15/15 Q1021","temp":15,"dewp":15,"wdir":220,"wspd":9,"visib":1.86,"altim":1021,"clouds":[{"cover":"OVC","base":500}],"obsTime":1783007280},"SBVT":{"icaoId":"SBVT","flightCategory":"VFR","rawOb":"METAR SBVT 021600Z 09009KT 050V120 CAVOK 29/20 Q1019","temp":29,"dewp":20,"wdir":90,"wspd":9,"visib":"6+","altim":1019,"clouds":[],"obsTime":1783008000},"SBPA":{"icaoId":"SBPA","flightCategory":"IFR","rawOb":"METAR SBPA 021600Z 21012KT 3500 -RA BR BKN008 OVC014 14/14 Q1020","temp":14,"dewp":14,"wdir":210,"wspd":12,"visib":2.17,"altim":1020,"clouds":[{"cover":"BKN","base":800},{"cover":"OVC","base":1400}],"obsTime":1783008000},"SBFL":{"icaoId":"SBFL","flightCategory":"IFR","rawOb":"METAR SBFL 021600Z 33006KT 4500 BR FEW010 SCT022 BKN050 19/19 Q1019","temp":19,"dewp":19,"wdir":330,"wspd":6,"visib":2.8,"altim":1019,"clouds":[{"cover":"FEW","base":1000},{"cover":"SCT","base":2200},{"cover":"BKN","base":5000}],"obsTime":1783008000},"SBPV":{"icaoId":"SBPV","flightCategory":"VFR","rawOb":"METAR SBPV 021600Z 09007KT CAVOK 33/21 Q1014","temp":33,"dewp":21,"wdir":90,"wspd":7,"visib":"6+","altim":1014,"clouds":[],"obsTime":1783008000},"SBTE":{"icaoId":"SBTE","flightCategory":"VFR","rawOb":"METAR SBTE 021600Z 14007KT 9999 FEW025 32/19 Q1013","temp":32,"dewp":19,"wdir":140,"wspd":7,"visib":"6+","altim":1013,"clouds":[{"cover":"FEW","base":2500}],"obsTime":1783008000},"SBFZ":{"icaoId":"SBFZ","flightCategory":"VFR","rawOb":"METAR SBFZ 021600Z 11016KT 9999 SCT030 30/21 Q1013","temp":30,"dewp":21,"wdir":110,"wspd":16,"visib":"6+","altim":1013,"clouds":[{"cover":"SCT","base":3000}],"obsTime":1783008000},"SBGR":{"icaoId":"SBGR","flightCategory":"VFR","rawOb":"METAR SBGR 021600Z 33008KT CAVOK 26/14 Q1023","temp":26,"dewp":14,"wdir":330,"wspd":8,"visib":"6+","altim":1023,"clouds":[],"obsTime":1783008000},"SBCB":{"icaoId":"SBCB","flightCategory":"VFR","rawOb":"METAR SBCB 021600Z 33004KT CAVOK 27/19 Q1019","temp":27,"dewp":19,"wdir":330,"wspd":4,"visib":"6+","altim":1019,"clouds":[],"obsTime":1783008000},"SBRF":{"icaoId":"SBRF","flightCategory":"VFR","rawOb":"METAR SBRF 021600Z 16010KT 130V190 9999 FEW026 29/20 Q1015","temp":29,"dewp":20,"wdir":160,"wspd":10,"visib":"6+","altim":1015,"clouds":[{"cover":"FEW","base":2600}],"obsTime":1783008000},"SBCF":{"icaoId":"SBCF","flightCategory":"VFR","rawOb":"METAR SBCF 021600Z VRB03KT 9999 FEW040 25/14 Q1024","temp":25,"dewp":14,"wdir":"VRB","wspd":3,"visib":"6+","altim":1024,"clouds":[{"cover":"FEW","base":4000}],"obsTime":1783008000},"SBMG":{"icaoId":"SBMG","flightCategory":"VFR","rawOb":"METAR SBMG 021600Z 01009KT 330V050 9999 FEW045 28/16 Q1020","temp":28,"dewp":16,"wdir":10,"wspd":9,"visib":"6+","altim":1020,"clouds":[{"cover":"FEW","base":4500}],"obsTime":1783008000},"SBIL":{"icaoId":"SBIL","flightCategory":"VFR","rawOb":"METAR SBIL 021600Z 17010KT 9999 FEW025 28/21 Q1019","temp":28,"dewp":21,"wdir":170,"wspd":10,"visib":"6+","altim":1019,"clouds":[{"cover":"FEW","base":2500}],"obsTime":1783008000},"SBJU":{"icaoId":"SBJU","flightCategory":"VFR","rawOb":"METAR SBJU 021600Z 14008KT CAVOK 30/13 Q1017","temp":30,"dewp":13,"wdir":140,"wspd":8,"visib":"6+","altim":1017,"clouds":[],"obsTime":1783008000},"SBME":{"icaoId":"SBME","flightCategory":"VFR","rawOb":"METAR SBME 021600Z 13006KT CAVOK 26/20 Q1019","temp":26,"dewp":20,"wdir":130,"wspd":6,"visib":"6+","altim":1019,"clouds":[],"obsTime":1783008000},"SBMK":{"icaoId":"SBMK","flightCategory":"VFR","rawOb":"METAR SBMK 021600Z 10006KT CAVOK 27/11 Q1022","temp":27,"dewp":11,"wdir":100,"wspd":6,"visib":"6+","altim":1022,"clouds":[],"obsTime":1783008000},"SBUL":{"icaoId":"SBUL","flightCategory":"VFR","rawOb":"METAR SBUL 021600Z 10006KT 030V140 9999 SCT040 23/14 Q1024","temp":23,"dewp":14,"wdir":100,"wspd":6,"visib":"6+","altim":1024,"clouds":[{"cover":"SCT","base":4000}],"obsTime":1783008000},"SBUR":{"icaoId":"SBUR","flightCategory":"VFR","rawOb":"METAR SBUR 021600Z 02005KT 9999 FEW040 26/14 Q1023","temp":26,"dewp":14,"wdir":20,"wspd":5,"visib":"6+","altim":1023,"clouds":[{"cover":"FEW","base":4000}],"obsTime":1783008000},"SBAT":{"icaoId":"SBAT","flightCategory":"VFR","rawOb":"METAR SBAT 021600Z 12010KT 9999 FEW028 35/17 Q1016","temp":35,"dewp":17,"wdir":120,"wspd":10,"visib":"6+","altim":1016,"clouds":[{"cover":"FEW","base":2800}],"obsTime":1783008000},"SBHT":{"icaoId":"SBHT","flightCategory":"VFR","rawOb":"METAR SBHT 021600Z 13005KT 9999 SCT030 33/22 Q1013","temp":33,"dewp":22,"wdir":130,"wspd":5,"visib":"6+","altim":1013,"clouds":[{"cover":"SCT","base":3000}],"obsTime":1783008000},"SBTF":{"icaoId":"SBTF","flightCategory":"VFR","rawOb":"METAR SBTF 021600Z 12009KT 9999 SCT016 32/26 Q1013","temp":32,"dewp":26,"wdir":120,"wspd":9,"visib":"6+","altim":1013,"clouds":[{"cover":"SCT","base":1600}],"obsTime":1783008000},"SBPB":{"icaoId":"SBPB","flightCategory":"VFR","rawOb":"METAR SBPB 021600Z 11005KT 9999 SCT020 BKN090 32/22 Q1012","temp":32,"dewp":22,"wdir":110,"wspd":5,"visib":"6+","altim":1012,"clouds":[{"cover":"SCT","base":2000},{"cover":"BKN","base":9000}],"obsTime":1783008000},"SBSJ":{"icaoId":"SBSJ","flightCategory":"VFR","rawOb":"METAR SBSJ 021600Z 27001KT CAVOK 26/14 Q1023","temp":26,"dewp":14,"wdir":270,"wspd":1,"visib":"6+","altim":1023,"clouds":[],"obsTime":1783008000},"SBUY":{"icaoId":"SBUY","flightCategory":"VFR","rawOb":"METAR SBUY 021600Z 16004KT 9999 SCT025 FEW030TCU 31/24 Q1013","temp":31,"dewp":24,"wdir":160,"wspd":4,"visib":"6+","altim":1013,"clouds":[{"cover":"SCT","base":2500},{"cover":"FEW","base":3000}],"obsTime":1783008000},"SBPS":{"icaoId":"SBPS","flightCategory":"MVFR","rawOb":"METAR SBPS 021600Z 16006KT 080V230 8000 VCSH FEW012 BKN016 BKN070 24/22 Q1020","temp":24,"dewp":22,"wdir":160,"wspd":6,"visib":4.97,"altim":1020,"clouds":[{"cover":"FEW","base":1200},{"cover":"BKN","base":1600},{"cover":"BKN","base":7000}],"obsTime":1783008000},"SBTT":{"icaoId":"SBTT","flightCategory":"MVFR","rawOb":"METAR SBTT 021600Z 19006KT 170V230 9999 BKN017 29/24 Q1015","temp":29,"dewp":24,"wdir":190,"wspd":6,"visib":"6+","altim":1015,"clouds":[{"cover":"BKN","base":1700}],"obsTime":1783008000},"SBAR":{"icaoId":"SBAR","flightCategory":"VFR","rawOb":"METAR SBAR 021600Z 09007KT 9999 SCT025 29/21 Q1017","temp":29,"dewp":21,"wdir":90,"wspd":7,"visib":"6+","altim":1017,"clouds":[{"cover":"SCT","base":2500}],"obsTime":1783008000},"SBPL":{"icaoId":"SBPL","flightCategory":"VFR","rawOb":"METAR SBPL 021600Z 11014KT CAVOK 31/10 Q1017","temp":31,"dewp":10,"wdir":110,"wspd":14,"visib":"6+","altim":1017,"clouds":[],"obsTime":1783008000},"SBCJ":{"icaoId":"SBCJ","flightCategory":"VFR","rawOb":"METAR SBCJ 021600Z 11013KT 080V190 CAVOK 29/15 Q1018","temp":29,"dewp":15,"wdir":110,"wspd":13,"visib":"6+","altim":1018,"clouds":[],"obsTime":1783008000},"SBOI":{"icaoId":"SBOI","flightCategory":"VFR","rawOb":"METAR SBOI 021600Z AUTO 08004KT 040V170 9999 BKN035 30/24 Q1014","temp":30,"dewp":24,"wdir":80,"wspd":4,"visib":"6+","altim":1014,"clouds":[{"cover":"BKN","base":3500}],"obsTime":1783008000},"SBPP":{"icaoId":"SBPP","flightCategory":"LIFR","rawOb":"METAR SBPP 021600Z 23009KT 0000 FG VV000 16/16 Q1023","temp":16,"dewp":16,"wdir":230,"wspd":9,"visib":0,"altim":1023,"clouds":[{"cover":"OVX","base":0}],"obsTime":1783008000},"SBSM":{"icaoId":"SBSM","flightCategory":"LIFR","rawOb":"METAR SBSM 021600Z 21004KT 2000 -RADZ BKN004 OVC010 11/11 Q1024","temp":11,"dewp":11,"wdir":210,"wspd":4,"visib":1.24,"altim":1024,"clouds":[{"cover":"BKN","base":400},{"cover":"OVC","base":1000}],"obsTime":1783008000},"SBKG":{"icaoId":"SBKG","flightCategory":"VFR","rawOb":"METAR SBKG 021600Z 13013KT 9999 SCT025 SCT070 27/18 Q1017","temp":27,"dewp":18,"wdir":130,"wspd":13,"visib":"6+","altim":1017,"clouds":[{"cover":"SCT","base":2500},{"cover":"SCT","base":7000}],"obsTime":1783008000},"SBAU":{"icaoId":"SBAU","flightCategory":"VFR","rawOb":"METAR SBAU 021600Z 27008KT CAVOK 31/12 Q1021","temp":31,"dewp":12,"wdir":270,"wspd":8,"visib":"6+","altim":1021,"clouds":[],"obsTime":1783008000},"SBAX":{"icaoId":"SBAX","flightCategory":"VFR","rawOb":"METAR SBAX 021600Z 04006KT 9999 FEW030 24/13 Q1024","temp":24,"dewp":13,"wdir":40,"wspd":6,"visib":"6+","altim":1024,"clouds":[{"cover":"FEW","base":3000}],"obsTime":1783008000},"SBBH":{"icaoId":"SBBH","flightCategory":"VFR","rawOb":"METAR SBBH 021600Z 07003KT 9999 FEW040 26/13 Q1024","temp":26,"dewp":13,"wdir":70,"wspd":3,"visib":"6+","altim":1024,"clouds":[{"cover":"FEW","base":4000}],"obsTime":1783008000},"SBBQ":{"icaoId":"SBBQ","flightCategory":"VFR","rawOb":"METAR SBBQ 021600Z 31004KT 220V020 CAVOK 25/12 Q1027","temp":25,"dewp":12,"wdir":310,"wspd":4,"visib":"6+","altim":1027,"clouds":[],"obsTime":1783008000},"SBBU":{"icaoId":"SBBU","flightCategory":"VFR","rawOb":"METAR SBBU 021600Z 01006KT 9999 FEW045 28/14 Q1022","temp":28,"dewp":14,"wdir":10,"wspd":6,"visib":"6+","altim":1022,"clouds":[{"cover":"FEW","base":4500}],"obsTime":1783008000},"SBDN":{"icaoId":"SBDN","flightCategory":"VFR","rawOb":"METAR SBDN 021600Z 01006KT CAVOK 28/17 Q1021","temp":28,"dewp":17,"wdir":10,"wspd":6,"visib":"6+","altim":1021,"clouds":[],"obsTime":1783008000},"SBIP":{"icaoId":"SBIP","flightCategory":"VFR","rawOb":"METAR SBIP 021600Z AUTO 32003KT 260V020 9999 SCT046 28/16 Q1022","temp":28,"dewp":16,"wdir":320,"wspd":3,"visib":"6+","altim":1022,"clouds":[{"cover":"SCT","base":4600}],"obsTime":1783008000},"SBSC":{"icaoId":"SBSC","flightCategory":"VFR","rawOb":"METAR SBSC 021600Z 21005KT CAVOK 28/21 Q1019","temp":28,"dewp":21,"wdir":210,"wspd":5,"visib":"6+","altim":1019,"clouds":[],"obsTime":1783008000},"SBSR":{"icaoId":"SBSR","flightCategory":"VFR","rawOb":"METAR SBSR 021600Z 01005KT CAVOK 28/10 Q1022","temp":28,"dewp":10,"wdir":10,"wspd":5,"visib":"6+","altim":1022,"clouds":[],"obsTime":1783008000},"SBCC":{"icaoId":"SBCC","flightCategory":"VFR","rawOb":"METAR SBCC 021600Z 09011KT CAVOK 32/15 Q1017","temp":32,"dewp":15,"wdir":90,"wspd":11,"visib":"6+","altim":1017,"clouds":[],"obsTime":1783008000},"SBGM":{"icaoId":"SBGM","flightCategory":"VFR","rawOb":"METAR SBGM 021600Z 06006KT 360V100 CAVOK 33/07 Q1015","temp":33,"dewp":7,"wdir":60,"wspd":6,"visib":"6+","altim":1015,"clouds":[],"obsTime":1783008000},"SBVH":{"icaoId":"SBVH","flightCategory":"VFR","rawOb":"METAR SBVH 021600Z 11009KT 070V140 9999 SCT040 29/19 Q1020","temp":29,"dewp":19,"wdir":110,"wspd":9,"visib":"6+","altim":1020,"clouds":[{"cover":"SCT","base":4000}],"obsTime":1783008000},"SBES":{"icaoId":"SBES","flightCategory":"VFR","rawOb":"METAR SBES 021600Z 22007KT 180V260 CAVOK 27/// Q1019","temp":null,"dewp":null,"wdir":220,"wspd":7,"visib":"6+","altim":1019,"clouds":[],"obsTime":1783008000},"SBTU":{"icaoId":"SBTU","flightCategory":"VFR","rawOb":"METAR SBTU 021600Z AUTO 33009KT 300V360 9999 // FEW040/// 32/21 Q1015","temp":32,"dewp":21,"wdir":330,"wspd":9,"visib":"6+","altim":1015,"clouds":[{"cover":"FEW","base":4000}],"obsTime":1783008000},"SBTD":{"icaoId":"SBTD","flightCategory":"VFR","rawOb":"METAR SBTD 021600Z /////KT 9999 FEW025 SCT080 26/14 Q1021","temp":26,"dewp":14,"wdir":null,"wspd":null,"visib":"6+","altim":1021,"clouds":[{"cover":"FEW","base":2500},{"cover":"SCT","base":8000}],"obsTime":1783008000},"SBCO":{"icaoId":"SBCO","flightCategory":"IFR","rawOb":"METAR SBCO 021600Z 20006G20KT 4000 -RA BR OVC008 14/13 Q1021","temp":14,"dewp":13,"wdir":200,"wspd":6,"visib":2.49,"altim":1021,"clouds":[{"cover":"OVC","base":800}],"obsTime":1783008000},"SBJP":{"icaoId":"SBJP","flightCategory":"VFR","rawOb":"METAR SBJP 021600Z 12015KT 9999 SCT030 29/20 Q1015","temp":29,"dewp":20,"wdir":120,"wspd":15,"visib":"6+","altim":1015,"clouds":[{"cover":"SCT","base":3000}],"obsTime":1783008000},"SBJV":{"icaoId":"SBJV","flightCategory":"MVFR","rawOb":"METAR SBJV 021600Z 00000KT 9999 FEW005 OVC010 20/18 Q1019","temp":20,"dewp":18,"wdir":0,"wspd":0,"visib":"6+","altim":1019,"clouds":[{"cover":"FEW","base":500},{"cover":"OVC","base":1000}],"obsTime":1783008000},"SBNM":{"icaoId":"SBNM","flightCategory":"IFR","rawOb":"METAR SBNM 021600Z 21010KT 9999 BKN005 BKN015 12/11 Q1023","temp":12,"dewp":11,"wdir":210,"wspd":10,"visib":"6+","altim":1023,"clouds":[{"cover":"BKN","base":500},{"cover":"BKN","base":1500}],"obsTime":1783008000},"SBAF":{"icaoId":"SBAF","flightCategory":"VFR","rawOb":"METAR SBAF 021600Z 28002KT CAVOK 31/17 Q1019","temp":31,"dewp":17,"wdir":280,"wspd":2,"visib":"6+","altim":1019,"clouds":[],"obsTime":1783008000},"SBGW":{"icaoId":"SBGW","flightCategory":"VFR","rawOb":"METAR SBGW 021600Z VRB02KT CAVOK 27/14 Q1022","temp":27,"dewp":14,"wdir":"VRB","wspd":2,"visib":"6+","altim":1022,"clouds":[],"obsTime":1783008000},"SBJR":{"icaoId":"SBJR","flightCategory":"VFR","rawOb":"METAR SBJR 021600Z 28002KT CAVOK 35/20 Q1018","temp":35,"dewp":20,"wdir":280,"wspd":2,"visib":"6+","altim":1018,"clouds":[],"obsTime":1783008000},"SBLS":{"icaoId":"SBLS","flightCategory":"VFR","rawOb":"METAR SBLS 021600Z VRB02KT CAVOK 25/14 Q1024","temp":25,"dewp":14,"wdir":"VRB","wspd":2,"visib":"6+","altim":1024,"clouds":[],"obsTime":1783008000},"SBMT":{"icaoId":"SBMT","flightCategory":"VFR","rawOb":"METAR SBMT 021600Z 33012KT CAVOK 25/11 Q1023","temp":25,"dewp":11,"wdir":330,"wspd":12,"visib":"6+","altim":1023,"clouds":[],"obsTime":1783008000},"SBST":{"icaoId":"SBST","flightCategory":"MVFR","rawOb":"METAR SBST 021600Z 25006KT 8000 FEW016 23/19 Q1019","temp":23,"dewp":19,"wdir":250,"wspd":6,"visib":4.97,"altim":1019,"clouds":[{"cover":"FEW","base":1600}],"obsTime":1783008000},"SBTA":{"icaoId":"SBTA","flightCategory":"VFR","rawOb":"METAR SBTA 021600Z VRB02KT CAVOK 27/16 Q1022","temp":27,"dewp":16,"wdir":"VRB","wspd":2,"visib":"6+","altim":1022,"clouds":[],"obsTime":1783008000},"SBIH":{"icaoId":"SBIH","flightCategory":"VFR","rawOb":"METAR SBIH 021600Z 34003KT 9999 SCT018 33/24 Q1012","temp":33,"dewp":24,"wdir":340,"wspd":3,"visib":"6+","altim":1012,"clouds":[{"cover":"SCT","base":1800}],"obsTime":1783008000},"SBAN":{"icaoId":"SBAN","flightCategory":"VFR","rawOb":"METAR SBAN 021600Z 09007KT 9999 FEW030 24/12 Q1025","temp":24,"dewp":12,"wdir":90,"wspd":7,"visib":"6+","altim":1025,"clouds":[{"cover":"FEW","base":3000}],"obsTime":1783008000},"SBLE":{"icaoId":"SBLE","flightCategory":"VFR","rawOb":"METAR SBLE 021600Z AUTO 14007KT 100V200 9999 FEW020 ///// Q1021","temp":null,"dewp":null,"wdir":140,"wspd":7,"visib":"6+","altim":1021,"clouds":[{"cover":"FEW","base":2000}],"obsTime":1783008000}}}