{"updated":1777130972,"count":87,"data":{"SBSV":{"icaoId":"SBSV","flightCategory":"MVFR","rawOb":"METAR SBSV 251400Z 14008KT 8000 VCSH SCT023 FEW025TCU SCT070 30/23 Q1014","temp":30,"dewp":23,"wdir":140,"wspd":8,"visib":4.97,"altim":1014,"clouds":[{"cover":"SCT","base":2300},{"cover":"FEW","base":2500},{"cover":"SCT","base":7000}],"obsTime":1777125600},"SBAT":{"icaoId":"SBAT","flightCategory":"VFR","rawOb":"METAR SBAT 251400Z 01001KT 9999 FEW020 31/24 Q1015","temp":31,"dewp":24,"wdir":10,"wspd":1,"visib":"6+","altim":1015,"clouds":[{"cover":"FEW","base":2000}],"obsTime":1777125600},"SBVT":{"icaoId":"SBVT","flightCategory":"VFR","rawOb":"METAR SBVT 251400Z 02005KT 310V060 9999 FEW025 29/21 Q1015","temp":29,"dewp":21,"wdir":20,"wspd":5,"visib":"6+","altim":1015,"clouds":[{"cover":"FEW","base":2500}],"obsTime":1777125600},"SBBE":{"icaoId":"SBBE","flightCategory":"VFR","rawOb":"METAR SBBE 251400Z 29002KT 9999 SCT016 28/24 Q1012","temp":28,"dewp":24,"wdir":290,"wspd":2,"visib":"6+","altim":1012,"clouds":[{"cover":"SCT","base":1600}],"obsTime":1777125600},"SBUR":{"icaoId":"SBUR","flightCategory":"VFR","rawOb":"METAR SBUR 251400Z 32007KT CAVOK 28/16 Q1019","temp":28,"dewp":16,"wdir":320,"wspd":7,"visib":"6+","altim":1019,"clouds":[],"obsTime":1777125600},"SBBR":{"icaoId":"SBBR","flightCategory":"VFR","rawOb":"METAR SBBR 251400Z 09004KT 040V160 9999 FEW030 25/17 Q1020","temp":25,"dewp":17,"wdir":90,"wspd":4,"visib":"6+","altim":1020,"clouds":[{"cover":"FEW","base":3000}],"obsTime":1777125600},"SBUL":{"icaoId":"SBUL","flightCategory":"VFR","rawOb":"METAR SBUL 251400Z 05008KT CAVOK 26/16 Q1020","temp":26,"dewp":16,"wdir":50,"wspd":8,"visib":"6+","altim":1020,"clouds":[],"obsTime":1777125600},"SBBV":{"icaoId":"SBBV","flightCategory":"VFR","rawOb":"METAR SBBV 251400Z 08008KT 9999 FEW012 SCT025 FEW035TCU BKN070 28/23 Q1014","temp":28,"dewp":23,"wdir":80,"wspd":8,"visib":"6+","altim":1014,"clouds":[{"cover":"FEW","base":1200},{"cover":"SCT","base":2500},{"cover":"FEW","base":3500},{"cover":"BKN","base":7000}],"obsTime":1777125600},"SBTE":{"icaoId":"SBTE","flightCategory":"MVFR","rawOb":"METAR SBTE 251400Z 19005KT 9999 BKN015 28/23 Q1013","temp":28,"dewp":23,"wdir":190,"wspd":5,"visib":"6+","altim":1013,"clouds":[{"cover":"BKN","base":1500}],"obsTime":1777125600},"SBCB":{"icaoId":"SBCB","flightCategory":"VFR","rawOb":"METAR SBCB 251400Z 04012KT CAVOK 29/20 Q1013","temp":29,"dewp":20,"wdir":40,"wspd":12,"visib":"6+","altim":1013,"clouds":[],"obsTime":1777125600},"SBCF":{"icaoId":"SBCF","flightCategory":"VFR","rawOb":"METAR SBCF 251400Z 01003KT 9999 FEW025 26/16 Q1020","temp":26,"dewp":16,"wdir":10,"wspd":3,"visib":"6+","altim":1020,"clouds":[{"cover":"FEW","base":2500}],"obsTime":1777125600},"SBCG":{"icaoId":"SBCG","flightCategory":"VFR","rawOb":"METAR SBCG 251400Z 20004KT 130V300 CAVOK 29/17 Q1016","temp":29,"dewp":17,"wdir":200,"wspd":4,"visib":"6+","altim":1016,"clouds":[],"obsTime":1777125600},"SBCP":{"icaoId":"SBCP","flightCategory":"VFR","rawOb":"METAR SBCP 251400Z 35008KT 9999 FEW020 29/20 Q1014","temp":29,"dewp":20,"wdir":350,"wspd":8,"visib":"6+","altim":1014,"clouds":[{"cover":"FEW","base":2000}],"obsTime":1777125600},"SBLO":{"icaoId":"SBLO","flightCategory":"MVFR","rawOb":"METAR SBLO 251400Z VRB03KT 8000 FEW025 28/19 Q1016","temp":28,"dewp":19,"wdir":"VRB","wspd":3,"visib":4.97,"altim":1016,"clouds":[{"cover":"FEW","base":2500}],"obsTime":1777125600},"SBMA":{"icaoId":"SBMA","flightCategory":"VFR","rawOb":"METAR SBMA 251400Z 33002KT 9999 SCT020 SCT100 29/24 Q1013","temp":29,"dewp":24,"wdir":330,"wspd":2,"visib":"6+","altim":1013,"clouds":[{"cover":"SCT","base":2000},{"cover":"SCT","base":10000}],"obsTime":1777125600},"SBCR":{"icaoId":"SBCR","flightCategory":"VFR","rawOb":"METAR SBCR 251400Z VRB04KT CAVOK 30/22 Q1014","temp":30,"dewp":22,"wdir":"VRB","wspd":4,"visib":"6+","altim":1014,"clouds":[],"obsTime":1777125600},"SBSP":{"icaoId":"SBSP","flightCategory":"VFR","rawOb":"METAR SBSP 251400Z 33009KT 290V010 CAVOK 27/16 Q1018","temp":27,"dewp":16,"wdir":330,"wspd":9,"visib":"6+","altim":1018,"clouds":[],"obsTime":1777125600},"SBCT":{"icaoId":"SBCT","flightCategory":"VFR","rawOb":"METAR SBCT 251400Z 28010KT CAVOK 25/17 Q1017","temp":25,"dewp":17,"wdir":280,"wspd":10,"visib":"6+","altim":1017,"clouds":[],"obsTime":1777125600},"SBSN":{"icaoId":"SBSN","flightCategory":"VFR","rawOb":"METAR SBSN 251400Z 09007KT 030V100 9999 SCT015 28/24 Q1013","temp":28,"dewp":24,"wdir":90,"wspd":7,"visib":"6+","altim":1013,"clouds":[{"cover":"SCT","base":1500}],"obsTime":1777125600},"SBSL":{"icaoId":"SBSL","flightCategory":"MVFR","rawOb":"METAR SBSL 251400Z 20004KT 150V230 9999 SCT013 BKN020 BKN090 26/24 Q1013","temp":26,"dewp":24,"wdir":200,"wspd":4,"visib":"6+","altim":1013,"clouds":[{"cover":"SCT","base":1300},{"cover":"BKN","base":2000},{"cover":"BKN","base":9000}],"obsTime":1777125600},"SBCZ":{"icaoId":"SBCZ","flightCategory":"MVFR","rawOb":"METAR SBCZ 251400Z 00000KT 9999 BKN010 BKN100 25/23 Q1014","temp":25,"dewp":23,"wdir":0,"wspd":0,"visib":"6+","altim":1014,"clouds":[{"cover":"BKN","base":1000},{"cover":"BKN","base":10000}],"obsTime":1777125600},"SBSG":{"icaoId":"SBSG","flightCategory":"MVFR","rawOb":"METAR SBSG 251400Z 15005KT 090V210 9999 BKN020 28/25 Q1011","temp":28,"dewp":25,"wdir":150,"wspd":5,"visib":"6+","altim":1011,"clouds":[{"cover":"BKN","base":2000}],"obsTime":1777125600},"SBEG":{"icaoId":"SBEG","flightCategory":"VFR","rawOb":"METAR SBEG 251400Z 21003KT 9999 SCT015 BKN100 28/25 Q1013","temp":28,"dewp":25,"wdir":210,"wspd":3,"visib":"6+","altim":1013,"clouds":[{"cover":"SCT","base":1500},{"cover":"BKN","base":10000}],"obsTime":1777125600},"SBRF":{"icaoId":"SBRF","flightCategory":"VFR","rawOb":"METAR SBRF 251400Z 13012KT 9999 SCT024 30/24 Q1011","temp":30,"dewp":24,"wdir":130,"wspd":12,"visib":"6+","altim":1011,"clouds":[{"cover":"SCT","base":2400}],"obsTime":1777125600},"SBFI":{"icaoId":"SBFI","flightCategory":"VFR","rawOb":"METAR SBFI 251400Z 05002KT CAVOK 26/22 Q1014","temp":26,"dewp":22,"wdir":50,"wspd":2,"visib":"6+","altim":1014,"clouds":[],"obsTime":1777125600},"SBRB":{"icaoId":"SBRB","flightCategory":"IFR","rawOb":"METAR SBRB 251400Z 35003KT 9000 -DZ BKN007 SCT011 24/23 Q1015","temp":24,"dewp":23,"wdir":350,"wspd":3,"visib":5.59,"altim":1015,"clouds":[{"cover":"BKN","base":700},{"cover":"SCT","base":1100}],"obsTime":1777125600},"SBFL":{"icaoId":"SBFL","flightCategory":"VFR","rawOb":"METAR SBFL 251400Z 27003KT 9999 FEW030 BKN100 27/20 Q1011","temp":27,"dewp":20,"wdir":270,"wspd":3,"visib":"6+","altim":1011,"clouds":[{"cover":"FEW","base":3000},{"cover":"BKN","base":10000}],"obsTime":1777125600},"SBPV":{"icaoId":"SBPV","flightCategory":"IFR","rawOb":"METAR SBPV 251400Z 04006KT 350V080 9999 BKN008 26/24 Q1012","temp":26,"dewp":24,"wdir":40,"wspd":6,"visib":"6+","altim":1012,"clouds":[{"cover":"BKN","base":800}],"obsTime":1777125600},"SBFZ":{"icaoId":"SBFZ","flightCategory":"VFR","rawOb":"METAR SBFZ 251400Z 14005KT 9999 FEW020 BKN100 30/22 Q1012","temp":30,"dewp":22,"wdir":140,"wspd":5,"visib":"6+","altim":1012,"clouds":[{"cover":"FEW","base":2000},{"cover":"BKN","base":10000}],"obsTime":1777125600},"SBGL":{"icaoId":"SBGL","flightCategory":"VFR","rawOb":"METAR SBGL 251400Z 36003KT CAVOK 30/20 Q1013","temp":30,"dewp":20,"wdir":360,"wspd":3,"visib":"6+","altim":1013,"clouds":[],"obsTime":1777125600},"SBPJ":{"icaoId":"SBPJ","flightCategory":"VFR","rawOb":"METAR SBPJ 251400Z 23007KT 9999 FEW025 29/25 Q1014","temp":29,"dewp":25,"wdir":230,"wspd":7,"visib":"6+","altim":1014,"clouds":[{"cover":"FEW","base":2500}],"obsTime":1777125600},"SBGO":{"icaoId":"SBGO","flightCategory":"VFR","rawOb":"METAR SBGO 251400Z VRB02KT 9999 FEW030 28/19 Q1018","temp":28,"dewp":19,"wdir":"VRB","wspd":2,"visib":"6+","altim":1018,"clouds":[{"cover":"FEW","base":3000}],"obsTime":1777125600},"SBPA":{"icaoId":"SBPA","flightCategory":"IFR","rawOb":"METAR SBPA 251400Z 26004KT 5000 -DZ BKN008 OVC015 21/20 Q1013","temp":21,"dewp":20,"wdir":260,"wspd":4,"visib":3.11,"altim":1013,"clouds":[{"cover":"BKN","base":800},{"cover":"OVC","base":1500}],"obsTime":1777125600},"SBNT":{"icaoId":"SBNT","flightCategory":"MVFR","rawOb":"METAR SBNT 251400Z 12012KT 9999 BKN021 30/24 Q1011","temp":30,"dewp":24,"wdir":120,"wspd":12,"visib":"6+","altim":1011,"clouds":[{"cover":"BKN","base":2100}],"obsTime":1777125600},"SBGR":{"icaoId":"SBGR","flightCategory":"VFR","rawOb":"METAR SBGR 251400Z 32011KT CAVOK 27/16 Q1018","temp":27,"dewp":16,"wdir":320,"wspd":11,"visib":"6+","altim":1018,"clouds":[],"obsTime":1777125600},"SBMQ":{"icaoId":"SBMQ","flightCategory":"MVFR","rawOb":"METAR SBMQ 251400Z VRB04KT 9999 BKN023 29/24 Q1013","temp":29,"dewp":24,"wdir":"VRB","wspd":4,"visib":"6+","altim":1013,"clouds":[{"cover":"BKN","base":2300}],"obsTime":1777125600},"SBHT":{"icaoId":"SBHT","flightCategory":"MVFR","rawOb":"METAR SBHT 251400Z 20004KT 9999 BKN020 30/23 Q1013","temp":30,"dewp":23,"wdir":200,"wspd":4,"visib":"6+","altim":1013,"clouds":[{"cover":"BKN","base":2000}],"obsTime":1777125600},"SBIL":{"icaoId":"SBIL","flightCategory":"VFR","rawOb":"METAR SBIL 251400Z 17005KT 9999 SCT023 30/24 Q1015","temp":30,"dewp":24,"wdir":170,"wspd":5,"visib":"6+","altim":1015,"clouds":[{"cover":"SCT","base":2300}],"obsTime":1777125600},"SBMO":{"icaoId":"SBMO","flightCategory":"MVFR","rawOb":"METAR SBMO 251400Z 13012KT 9999 BKN026 29/23 Q1012","temp":29,"dewp":23,"wdir":130,"wspd":12,"visib":"6+","altim":1012,"clouds":[{"cover":"BKN","base":2600}],"obsTime":1777125600},"SBMK":{"icaoId":"SBMK","flightCategory":"VFR","rawOb":"METAR SBMK 251400Z 12004KT 9999 FEW035 27/18 Q1018","temp":27,"dewp":18,"wdir":120,"wspd":4,"visib":"6+","altim":1018,"clouds":[{"cover":"FEW","base":3500}],"obsTime":1777125600},"SBJU":{"icaoId":"SBJU","flightCategory":"MVFR","rawOb":"METAR SBJU 251400Z 09007KT 9999 BKN020 28/21 Q1014","temp":28,"dewp":21,"wdir":90,"wspd":7,"visib":"6+","altim":1014,"clouds":[{"cover":"BKN","base":2000}],"obsTime":1777125600},"SBKP":{"icaoId":"SBKP","flightCategory":"VFR","rawOb":"METAR SBKP 251400Z 36008KT 330V040 CAVOK 27/17 Q1017","temp":27,"dewp":17,"wdir":360,"wspd":8,"visib":"6+","altim":1017,"clouds":[],"obsTime":1777125600},"SBMG":{"icaoId":"SBMG","flightCategory":"VFR","rawOb":"METAR SBMG 251400Z 36002KT CAVOK 29/19 Q1015","temp":29,"dewp":19,"wdir":360,"wspd":2,"visib":"6+","altim":1015,"clouds":[],"obsTime":1777125600},"SBME":{"icaoId":"SBME","flightCategory":"VFR","rawOb":"METAR SBME 251400Z 03009KT CAVOK 31/18 Q1013","temp":31,"dewp":18,"wdir":30,"wspd":9,"visib":"6+","altim":1013,"clouds":[],"obsTime":1777125600},"SBKG":{"icaoId":"SBKG","flightCategory":"MVFR","rawOb":"METAR SBKG 251400Z 10009KT 9999 BKN020 BKN070 27/22 Q1014","temp":27,"dewp":22,"wdir":100,"wspd":9,"visib":"6+","altim":1014,"clouds":[{"cover":"BKN","base":2000},{"cover":"BKN","base":7000}],"obsTime":1777125600},"SBCC":{"icaoId":"SBCC","flightCategory":"VFR","rawOb":"METAR SBCC 251400Z 05009KT 360V090 9999 SCT020 SCT100 30/22 Q1016","temp":30,"dewp":22,"wdir":50,"wspd":9,"visib":"6+","altim":1016,"clouds":[{"cover":"SCT","base":2000},{"cover":"SCT","base":10000}],"obsTime":1777125600},"SBAX":{"icaoId":"SBAX","flightCategory":"VFR","rawOb":"METAR SBAX 251400Z AUTO 34005KT 290V040 CAVOK 25/15 Q1020","temp":25,"dewp":15,"wdir":340,"wspd":5,"visib":"6+","altim":1020,"clouds":[],"obsTime":1777125600},"SBOI":{"icaoId":"SBOI","flightCategory":"VFR","rawOb":"METAR SBOI 251400Z AUTO 15003KT 100V200 9999 SCT021 27/25 Q1013 RERA REDZ","temp":27,"dewp":25,"wdir":150,"wspd":3,"visib":"6+","altim":1013,"clouds":[{"cover":"SCT","base":2100}],"obsTime":1777125600},"SBPB":{"icaoId":"SBPB","flightCategory":"MVFR","rawOb":"METAR SBPB 251400Z 18004KT 9999 -RA BKN012 OVC100 25/23 Q1013","temp":25,"dewp":23,"wdir":180,"wspd":4,"visib":"6+","altim":1013,"clouds":[{"cover":"BKN","base":1200},{"cover":"OVC","base":10000}],"obsTime":1777125600},"SBCJ":{"icaoId":"SBCJ","flightCategory":"VFR","rawOb":"METAR SBCJ 251400Z 15005KT 9999 FEW016 26/22 Q1018","temp":26,"dewp":22,"wdir":150,"wspd":5,"visib":"6+","altim":1018,"clouds":[{"cover":"FEW","base":1600}],"obsTime":1777125600},"SBPL":{"icaoId":"SBPL","flightCategory":"MVFR","rawOb":"METAR SBPL 251400Z 11009KT 9999 BKN022 29/22 Q1014","temp":29,"dewp":22,"wdir":110,"wspd":9,"visib":"6+","altim":1014,"clouds":[{"cover":"BKN","base":2200}],"obsTime":1777125600},"SBCO":{"icaoId":"SBCO","flightCategory":"IFR","rawOb":"METAR SBCO 251400Z 24005KT 4000 -RA BKN008 OVC020 20/19 Q1014","temp":20,"dewp":19,"wdir":240,"wspd":5,"visib":2.49,"altim":1014,"clouds":[{"cover":"BKN","base":800},{"cover":"OVC","base":2000}],"obsTime":1777125600},"SBBU":{"icaoId":"SBBU","flightCategory":"VFR","rawOb":"METAR SBBU 251400Z 31007KT CAVOK 29/18 Q1017","temp":29,"dewp":18,"wdir":310,"wspd":7,"visib":"6+","altim":1017,"clouds":[],"obsTime":1777125600},"SBPP":{"icaoId":"SBPP","flightCategory":"VFR","rawOb":"METAR SBPP 251400Z 25005KT CAVOK 28/17 Q1017","temp":28,"dewp":17,"wdir":250,"wspd":5,"visib":"6+","altim":1017,"clouds":[],"obsTime":1777125600},"SBPS":{"icaoId":"SBPS","flightCategory":"VFR","rawOb":"METAR SBPS 251400Z 09004KT 9999 SCT020 FEW025TCU SCT066 29/24 Q1015","temp":29,"dewp":24,"wdir":90,"wspd":4,"visib":"6+","altim":1015,"clouds":[{"cover":"SCT","base":2000},{"cover":"FEW","base":2500},{"cover":"SCT","base":6600}],"obsTime":1777125600},"SBDN":{"icaoId":"SBDN","flightCategory":"VFR","rawOb":"METAR SBDN 251400Z 35004KT CAVOK 31/18 Q1015","temp":31,"dewp":18,"wdir":350,"wspd":4,"visib":"6+","altim":1015,"clouds":[],"obsTime":1777125600},"SBSC":{"icaoId":"SBSC","flightCategory":"VFR","rawOb":"METAR SBSC 251400Z 01011KT CAVOK 30/20 Q1013","temp":30,"dewp":20,"wdir":10,"wspd":11,"visib":"6+","altim":1013,"clouds":[],"obsTime":1777125600},"SBBH":{"icaoId":"SBBH","flightCategory":"VFR","rawOb":"METAR SBBH 251400Z 26006KT 9999 SCT030 25/16 Q1019","temp":25,"dewp":16,"wdir":260,"wspd":6,"visib":"6+","altim":1019,"clouds":[{"cover":"SCT","base":3000}],"obsTime":1777125600},"SBES":{"icaoId":"SBES","flightCategory":"VFR","rawOb":"METAR SBES 251400Z VRB09KT CAVOK 29/// Q1013","temp":null,"dewp":null,"wdir":"VRB","wspd":9,"visib":"6+","altim":1013,"clouds":[],"obsTime":1777125600},"SBSJ":{"icaoId":"SBSJ","flightCategory":"VFR","rawOb":"METAR SBSJ 251400Z VRB04KT CAVOK 25/17 Q1017","temp":25,"dewp":17,"wdir":"VRB","wspd":4,"visib":"6+","altim":1017,"clouds":[],"obsTime":1777125600},"SBAR":{"icaoId":"SBAR","flightCategory":"VFR","rawOb":"SPECI SBAR 251340Z 14008KT 9999 VCSH SCT023 FEW025TCU 27/25 Q1013 RESHRA","temp":27,"dewp":25,"wdir":140,"wspd":8,"visib":"6+","altim":1013,"clouds":[{"cover":"SCT","base":2300},{"cover":"FEW","base":2500}],"obsTime":1777124400},"SBSM":{"icaoId":"SBSM","flightCategory":"IFR","rawOb":"METAR SBSM 251400Z 08003KT 9999 BKN006 OVC020 20/19 Q1014","temp":20,"dewp":19,"wdir":80,"wspd":3,"visib":"6+","altim":1014,"clouds":[{"cover":"BKN","base":600},{"cover":"OVC","base":2000}],"obsTime":1777125600},"SBSR":{"icaoId":"SBSR","flightCategory":"VFR","rawOb":"METAR SBSR 251400Z 01006KT 290V090 CAVOK 30/15 Q1017","temp":30,"dewp":15,"wdir":10,"wspd":6,"visib":"6+","altim":1017,"clouds":[],"obsTime":1777125600},"SBGM":{"icaoId":"SBGM","flightCategory":"VFR","rawOb":"METAR SBGM 251400Z 13003KT CAVOK 29/23 Q1013","temp":29,"dewp":23,"wdir":130,"wspd":3,"visib":"6+","altim":1013,"clouds":[],"obsTime":1777125600},"SBCA":{"icaoId":"SBCA","flightCategory":"VFR","rawOb":"METAR SBCA 251400Z 35009KT CAVOK 26/18 Q1017","temp":26,"dewp":18,"wdir":350,"wspd":9,"visib":"6+","altim":1017,"clouds":[],"obsTime":1777125600},"SBTF":{"icaoId":"SBTF","flightCategory":"VFR","rawOb":"METAR SBTF 251400Z 20002KT 9999 -RA FEW008 BKN100 25/22 Q1013","temp":25,"dewp":22,"wdir":200,"wspd":2,"visib":"6+","altim":1013,"clouds":[{"cover":"FEW","base":800},{"cover":"BKN","base":10000}],"obsTime":1777125600},"SBBQ":{"icaoId":"SBBQ","flightCategory":"MVFR","rawOb":"METAR SBBQ 251400Z 30007KT 250V350 9999 BKN030 24/15 Q1022","temp":24,"dewp":15,"wdir":300,"wspd":7,"visib":"6+","altim":1022,"clouds":[{"cover":"BKN","base":3000}],"obsTime":1777125600},"SBTT":{"icaoId":"SBTT","flightCategory":"IFR","rawOb":"METAR SBTT 251400Z 14004KT 9999 BKN008 BKN090 25/22 Q1014","temp":25,"dewp":22,"wdir":140,"wspd":4,"visib":"6+","altim":1014,"clouds":[{"cover":"BKN","base":800},{"cover":"BKN","base":9000}],"obsTime":1777125600},"SBIP":{"icaoId":"SBIP","flightCategory":"VFR","rawOb":"METAR SBIP 251400Z AUTO 01007KT 320V060 9999 FEW022 OVC045 26/20 Q1017","temp":26,"dewp":20,"wdir":10,"wspd":7,"visib":"6+","altim":1017,"clouds":[{"cover":"FEW","base":2200},{"cover":"OVC","base":4500}],"obsTime":1777125600},"SBUY":{"icaoId":"SBUY","flightCategory":"VFR","rawOb":"METAR SBUY 251400Z 30003KT 9999 FEW010 BKN090 25/23 Q1013","temp":25,"dewp":23,"wdir":300,"wspd":3,"visib":"6+","altim":1013,"clouds":[{"cover":"FEW","base":1000},{"cover":"BKN","base":9000}],"obsTime":1777125600},"SBVH":{"icaoId":"SBVH","flightCategory":"VFR","rawOb":"METAR SBVH 251400Z 10004KT 9999 FEW025 28/22 Q1017","temp":28,"dewp":22,"wdir":100,"wspd":4,"visib":"6+","altim":1017,"clouds":[{"cover":"FEW","base":2500}],"obsTime":1777125600},"SBAU":{"icaoId":"SBAU","flightCategory":"VFR","rawOb":"METAR SBAU 251400Z 01008KT CAVOK 31/19 Q1016","temp":31,"dewp":19,"wdir":10,"wspd":8,"visib":"6+","altim":1016,"clouds":[],"obsTime":1777125600},"SBMT":{"icaoId":"SBMT","flightCategory":"VFR","rawOb":"METAR SBMT 251400Z 33008KT CAVOK 26/15 Q1017","temp":26,"dewp":15,"wdir":330,"wspd":8,"visib":"6+","altim":1017,"clouds":[],"obsTime":1777125600},"SBST":{"icaoId":"SBST","flightCategory":"VFR","rawOb":"METAR SBST 251400Z 26004KT CAVOK 28/24 Q1012","temp":28,"dewp":24,"wdir":260,"wspd":4,"visib":"6+","altim":1012,"clouds":[],"obsTime":1777125600},"SBTA":{"icaoId":"SBTA","flightCategory":"VFR","rawOb":"METAR SBTA 251400Z 03005KT 310V110 CAVOK 27/15 Q1016","temp":27,"dewp":15,"wdir":30,"wspd":5,"visib":"6+","altim":1016,"clouds":[],"obsTime":1777125600},"SBPF":{"icaoId":"SBPF","flightCategory":"MVFR","rawOb":"METAR SBPF 251400Z COR 29008KT 9999 BKN015 18/15 Q1017","temp":18,"dewp":15,"wdir":290,"wspd":8,"visib":"6+","altim":1017,"clouds":[{"cover":"BKN","base":1500}],"obsTime":1777125600},"SBJP":{"icaoId":"SBJP","flightCategory":"MVFR","rawOb":"SPECI SBJP 251343Z 14013G28KT 110V180 9999 3000NW -RA SCT004 BKN020 FEW025TCU 26/24 Q1012","temp":26,"dewp":24,"wdir":140,"wspd":13,"visib":"6+","altim":1012,"clouds":[{"cover":"SCT","base":400},{"cover":"BKN","base":2000},{"cover":"FEW","base":2500}],"obsTime":1777124580},"SBIH":{"icaoId":"SBIH","flightCategory":"VFR","rawOb":"METAR SBIH 251400Z 11003KT 9999 SCT016 29/23 Q1013","temp":29,"dewp":23,"wdir":110,"wspd":3,"visib":"6+","altim":1013,"clouds":[{"cover":"SCT","base":1600}],"obsTime":1777125600},"SBLE":{"icaoId":"SBLE","flightCategory":"VFR","rawOb":"METAR SBLE 251400Z AUTO 17007KT 150V220 9999 SCT015 BKN045 23/23 Q1018","temp":23,"dewp":23,"wdir":170,"wspd":7,"visib":"6+","altim":1018,"clouds":[{"cover":"SCT","base":1500},{"cover":"BKN","base":4500}],"obsTime":1777125600},"SBTC":{"icaoId":"SBTC","flightCategory":"VFR","rawOb":"METAR SBTC 251500Z 20002KT 9999 SCT020 29/24 Q1014","temp":29,"dewp":24,"wdir":200,"wspd":2,"visib":"6+","altim":1014,"clouds":[{"cover":"SCT","base":2000}],"obsTime":1777129200},"SBAF":{"icaoId":"SBAF","flightCategory":"VFR","rawOb":"METAR SBAF 251400Z 34004KT CAVOK 31/20 Q1013","temp":31,"dewp":20,"wdir":340,"wspd":4,"visib":"6+","altim":1013,"clouds":[],"obsTime":1777125600},"SBAN":{"icaoId":"SBAN","flightCategory":"VFR","rawOb":"METAR SBAN 251400Z 11005KT 9999 FEW030 25/16 Q1021","temp":25,"dewp":16,"wdir":110,"wspd":5,"visib":"6+","altim":1021,"clouds":[{"cover":"FEW","base":3000}],"obsTime":1777125600},"SBGW":{"icaoId":"SBGW","flightCategory":"VFR","rawOb":"METAR SBGW 251400Z VRB04KT 9999 FEW030 27/16 Q1017","temp":27,"dewp":16,"wdir":"VRB","wspd":4,"visib":"6+","altim":1017,"clouds":[{"cover":"FEW","base":3000}],"obsTime":1777125600},"SBJV":{"icaoId":"SBJV","flightCategory":"VFR","rawOb":"METAR SBJV 251400Z 10004KT CAVOK 26/22 Q1011","temp":26,"dewp":22,"wdir":100,"wspd":4,"visib":"6+","altim":1011,"clouds":[],"obsTime":1777125600},"SBJR":{"icaoId":"SBJR","flightCategory":"VFR","rawOb":"METAR SBJR 251400Z 02009KT CAVOK 33/18 Q1012","temp":33,"dewp":18,"wdir":20,"wspd":9,"visib":"6+","altim":1012,"clouds":[],"obsTime":1777125600},"SBNM":{"icaoId":"SBNM","flightCategory":"MVFR","rawOb":"METAR SBNM 251500Z 35002KT 9999 FEW008 BKN018 BKN040 22/19 Q1015","temp":22,"dewp":19,"wdir":350,"wspd":2,"visib":"6+","altim":1015,"clouds":[{"cover":"FEW","base":800},{"cover":"BKN","base":1800},{"cover":"BKN","base":4000}],"obsTime":1777129200},"SBLS":{"icaoId":"SBLS","flightCategory":"VFR","rawOb":"METAR SBLS 251400Z VRB02KT 9999 SCT030 26/17 Q1019","temp":26,"dewp":17,"wdir":"VRB","wspd":2,"visib":"6+","altim":1019,"clouds":[{"cover":"SCT","base":3000}],"obsTime":1777125600}}}