{"updated":1782362310,"count":53,"data":{"SBUL":{"icaoId":"SBUL","flightCategory":"LIFR","rawOb":"METAR SBUL 250300Z 19005KT 0600 R22/0900D R04/1000D FG VV002 14/13 Q1021","temp":14,"dewp":13,"wdir":190,"wspd":5,"visib":0.37,"altim":1021,"clouds":[{"cover":"OVX","base":200}],"obsTime":1782356400},"SBBR":{"icaoId":"SBBR","flightCategory":"IFR","rawOb":"METAR SBBR 250300Z 20007KT 9999 BKN005 BKN090 17/16 Q1022 RERA","temp":17,"dewp":16,"wdir":200,"wspd":7,"visib":"6+","altim":1022,"clouds":[{"cover":"BKN","base":500},{"cover":"BKN","base":9000}],"obsTime":1782356400},"SBBE":{"icaoId":"SBBE","flightCategory":"VFR","rawOb":"METAR SBBE 250300Z 06004KT 9999 SCT010 FEW030TCU BKN090 24/24 Q1013 RETS","temp":24,"dewp":24,"wdir":60,"wspd":4,"visib":"6+","altim":1013,"clouds":[{"cover":"SCT","base":1000},{"cover":"FEW","base":3000},{"cover":"BKN","base":9000}],"obsTime":1782356400},"SBBV":{"icaoId":"SBBV","flightCategory":"VFR","rawOb":"METAR SBBV 250300Z 27001KT 9999 FEW030 FEW035TCU BKN100 24/24 Q1013","temp":24,"dewp":24,"wdir":270,"wspd":1,"visib":"6+","altim":1013,"clouds":[{"cover":"FEW","base":3000},{"cover":"FEW","base":3500},{"cover":"BKN","base":10000}],"obsTime":1782356400},"SBCF":{"icaoId":"SBCF","flightCategory":"VFR","rawOb":"METAR SBCF 250300Z 16004KT CAVOK 18/13 Q1022","temp":18,"dewp":13,"wdir":160,"wspd":4,"visib":"6+","altim":1022,"clouds":[],"obsTime":1782356400},"SBCG":{"icaoId":"SBCG","flightCategory":"VFR","rawOb":"METAR SBCG 250300Z 09007KT CAVOK 10/08 Q1019","temp":10,"dewp":8,"wdir":90,"wspd":7,"visib":"6+","altim":1019,"clouds":[],"obsTime":1782356400},"SBCT":{"icaoId":"SBCT","flightCategory":"IFR","rawOb":"METAR SBCT 250300Z 11003KT 4000 BR SCT005 03/03 Q1022","temp":3,"dewp":3,"wdir":110,"wspd":3,"visib":2.49,"altim":1022,"clouds":[{"cover":"SCT","base":500}],"obsTime":1782356400},"SBEG":{"icaoId":"SBEG","flightCategory":"VFR","rawOb":"METAR SBEG 250300Z VRB02KT 9999 FEW030 26/25 Q1013","temp":26,"dewp":25,"wdir":"VRB","wspd":2,"visib":"6+","altim":1013,"clouds":[{"cover":"FEW","base":3000}],"obsTime":1782356400},"SBFI":{"icaoId":"SBFI","flightCategory":"VFR","rawOb":"METAR SBFI 250300Z 12006KT CAVOK 06/05 Q1020","temp":6,"dewp":5,"wdir":120,"wspd":6,"visib":"6+","altim":1020,"clouds":[],"obsTime":1782356400},"SBFL":{"icaoId":"SBFL","flightCategory":"VFR","rawOb":"METAR SBFL 250300Z 28009KT CAVOK 09/07 Q1022","temp":9,"dewp":7,"wdir":280,"wspd":9,"visib":"6+","altim":1022,"clouds":[],"obsTime":1782356400},"SBFZ":{"icaoId":"SBFZ","flightCategory":"VFR","rawOb":"METAR SBFZ 250300Z 11013KT 9999 SCT022 27/23 Q1012","temp":27,"dewp":23,"wdir":110,"wspd":13,"visib":"6+","altim":1012,"clouds":[{"cover":"SCT","base":2200}],"obsTime":1782356400},"SBGL":{"icaoId":"SBGL","flightCategory":"IFR","rawOb":"METAR SBGL 250300Z 27009KT 8000 -DZRA BKN009 BKN017 BKN040 19/18 Q1020","temp":19,"dewp":18,"wdir":270,"wspd":9,"visib":4.97,"altim":1020,"clouds":[{"cover":"BKN","base":900},{"cover":"BKN","base":1700},{"cover":"BKN","base":4000}],"obsTime":1782356400},"SBGO":{"icaoId":"SBGO","flightCategory":"VFR","rawOb":"METAR SBGO 250300Z 11005KT 9999 FEW025 16/14 Q1021","temp":16,"dewp":14,"wdir":110,"wspd":5,"visib":"6+","altim":1021,"clouds":[{"cover":"FEW","base":2500}],"obsTime":1782356400},"SBGR":{"icaoId":"SBGR","flightCategory":"IFR","rawOb":"METAR SBGR 250300Z 15003KT 5000 -DZ BR OVC005 11/11 Q1023","temp":11,"dewp":11,"wdir":150,"wspd":3,"visib":3.11,"altim":1023,"clouds":[{"cover":"OVC","base":500}],"obsTime":1782356400},"SBJU":{"icaoId":"SBJU","flightCategory":"VFR","rawOb":"METAR SBJU 250300Z 18005KT 9999 FEW020 23/17 Q1016","temp":23,"dewp":17,"wdir":180,"wspd":5,"visib":"6+","altim":1016,"clouds":[{"cover":"FEW","base":2000}],"obsTime":1782356400},"SBKP":{"icaoId":"SBKP","flightCategory":"LIFR","rawOb":"METAR SBKP 250300Z VRB02KT 0300 R15/2000U FG VV001 13/12 Q1022","temp":13,"dewp":12,"wdir":"VRB","wspd":2,"visib":0.19,"altim":1022,"clouds":[{"cover":"OVX","base":100}],"obsTime":1782356400},"SBLO":{"icaoId":"SBLO","flightCategory":"VFR","rawOb":"METAR SBLO 250300Z 21003KT CAVOK 09/08 Q1021","temp":9,"dewp":8,"wdir":210,"wspd":3,"visib":"6+","altim":1021,"clouds":[],"obsTime":1782356400},"SBMA":{"icaoId":"SBMA","flightCategory":"VFR","rawOb":"METAR SBMA 250300Z 32002KT CAVOK 27/24 Q1012","temp":27,"dewp":24,"wdir":320,"wspd":2,"visib":"6+","altim":1012,"clouds":[],"obsTime":1782356400},"SBME":{"icaoId":"SBME","flightCategory":"VFR","rawOb":"METAR SBME 250300Z 36007KT 9999 SCT020 OVC080 20/19 Q1017","temp":20,"dewp":19,"wdir":360,"wspd":7,"visib":"6+","altim":1017,"clouds":[{"cover":"SCT","base":2000},{"cover":"OVC","base":8000}],"obsTime":1782356400},"SBMG":{"icaoId":"SBMG","flightCategory":"VFR","rawOb":"METAR SBMG 250300Z 11005KT CAVOK 09/06 Q1020","temp":9,"dewp":6,"wdir":110,"wspd":5,"visib":"6+","altim":1020,"clouds":[],"obsTime":1782356400},"SBMK":{"icaoId":"SBMK","flightCategory":"VFR","rawOb":"METAR SBMK 250300Z 25002KT CAVOK 18/14 Q1019","temp":18,"dewp":14,"wdir":250,"wspd":2,"visib":"6+","altim":1019,"clouds":[],"obsTime":1782356400},"SBMO":{"icaoId":"SBMO","flightCategory":"VFR","rawOb":"METAR SBMO 250300Z 00000KT CAVOK 22/22 Q1016","temp":22,"dewp":22,"wdir":0,"wspd":0,"visib":"6+","altim":1016,"clouds":[],"obsTime":1782356400},"SBMQ":{"icaoId":"SBMQ","flightCategory":"VFR","rawOb":"METAR SBMQ 250300Z 33003KT CAVOK 27/25 Q1012","temp":27,"dewp":25,"wdir":330,"wspd":3,"visib":"6+","altim":1012,"clouds":[],"obsTime":1782356400},"SBNT":{"icaoId":"SBNT","flightCategory":"VFR","rawOb":"METAR SBNT 250300Z 19006KT 9999 FEW040 23/22 Q1014","temp":23,"dewp":22,"wdir":190,"wspd":6,"visib":"6+","altim":1014,"clouds":[{"cover":"FEW","base":4000}],"obsTime":1782356400},"SBPA":{"icaoId":"SBPA","flightCategory":"MVFR","rawOb":"METAR SBPA 250300Z 23002KT 8000 NSC 07/05 Q1021","temp":7,"dewp":5,"wdir":230,"wspd":2,"visib":4.97,"altim":1021,"clouds":[],"obsTime":1782356400},"SBPJ":{"icaoId":"SBPJ","flightCategory":"VFR","rawOb":"METAR SBPJ 250300Z 12005KT CAVOK 21/15 Q1014","temp":21,"dewp":15,"wdir":120,"wspd":5,"visib":"6+","altim":1014,"clouds":[],"obsTime":1782356400},"SBPV":{"icaoId":"SBPV","flightCategory":"IFR","rawOb":"METAR SBPV 250300Z 20005KT 8000 OVC005 22/21 Q1014","temp":22,"dewp":21,"wdir":200,"wspd":5,"visib":4.97,"altim":1014,"clouds":[{"cover":"OVC","base":500}],"obsTime":1782356400},"SBRB":{"icaoId":"SBRB","flightCategory":"IFR","rawOb":"METAR SBRB 250300Z 18006KT 8000 -DZ BKN006 15/14 Q1017","temp":15,"dewp":14,"wdir":180,"wspd":6,"visib":4.97,"altim":1017,"clouds":[{"cover":"BKN","base":600}],"obsTime":1782356400},"SBRF":{"icaoId":"SBRF","flightCategory":"MVFR","rawOb":"METAR SBRF 250300Z 16007KT 9999 SCT014 BKN017 BKN050 26/23 Q1014","temp":26,"dewp":23,"wdir":160,"wspd":7,"visib":"6+","altim":1014,"clouds":[{"cover":"SCT","base":1400},{"cover":"BKN","base":1700},{"cover":"BKN","base":5000}],"obsTime":1782356400},"SBSG":{"icaoId":"SBSG","flightCategory":"VFR","rawOb":"METAR SBSG 250300Z VRB02KT 9999 FEW030 SCT050 22/22 Q1015","temp":22,"dewp":22,"wdir":"VRB","wspd":2,"visib":"6+","altim":1015,"clouds":[{"cover":"FEW","base":3000},{"cover":"SCT","base":5000}],"obsTime":1782356400},"SBSL":{"icaoId":"SBSL","flightCategory":"VFR","rawOb":"METAR SBSL 250300Z 11003KT 9999 FEW020 SCT080 25/24 Q1011","temp":25,"dewp":24,"wdir":110,"wspd":3,"visib":"6+","altim":1011,"clouds":[{"cover":"FEW","base":2000},{"cover":"SCT","base":8000}],"obsTime":1782356400},"SBSN":{"icaoId":"SBSN","flightCategory":"VFR","rawOb":"METAR SBSN 250300Z 10004KT 9999 FEW015 27/25 Q1012","temp":27,"dewp":25,"wdir":100,"wspd":4,"visib":"6+","altim":1012,"clouds":[{"cover":"FEW","base":1500}],"obsTime":1782356400},"SBSP":{"icaoId":"SBSP","flightCategory":"LIFR","rawOb":"METAR SBSP 250300Z AUTO 16005KT 9999 OVC003 10/10 Q1023","temp":10,"dewp":10,"wdir":160,"wspd":5,"visib":"6+","altim":1023,"clouds":[{"cover":"OVC","base":300}],"obsTime":1782356400},"SBSV":{"icaoId":"SBSV","flightCategory":"VFR","rawOb":"METAR SBSV 250300Z 08009KT 9999 FEW023 SCT050 25/21 Q1016","temp":25,"dewp":21,"wdir":80,"wspd":9,"visib":"6+","altim":1016,"clouds":[{"cover":"FEW","base":2300},{"cover":"SCT","base":5000}],"obsTime":1782356400},"SBTE":{"icaoId":"SBTE","flightCategory":"VFR","rawOb":"METAR SBTE 250300Z 03005KT CAVOK 27/24 Q1011","temp":27,"dewp":24,"wdir":30,"wspd":5,"visib":"6+","altim":1011,"clouds":[],"obsTime":1782356400},"SBUR":{"icaoId":"SBUR","flightCategory":"LIFR","rawOb":"METAR SBUR 250300Z 09005KT 9999 OVC003 14/13 Q1021","temp":14,"dewp":13,"wdir":90,"wspd":5,"visib":"6+","altim":1021,"clouds":[{"cover":"OVC","base":300}],"obsTime":1782356400},"SBVT":{"icaoId":"SBVT","flightCategory":"VFR","rawOb":"METAR SBVT 250300Z 28005KT CAVOK 21/19 Q1019","temp":21,"dewp":19,"wdir":280,"wspd":5,"visib":"6+","altim":1019,"clouds":[],"obsTime":1782356400},"SBSR":{"icaoId":"SBSR","flightCategory":"IFR","rawOb":"METAR SBSR 250300Z 21003KT 9999 -DZ BKN007 BKN070 13/12 Q1021","temp":13,"dewp":12,"wdir":210,"wspd":3,"visib":"6+","altim":1021,"clouds":[{"cover":"BKN","base":700},{"cover":"BKN","base":7000}],"obsTime":1782356400},"SBAR":{"icaoId":"SBAR","flightCategory":"VFR","rawOb":"METAR SBAR 250300Z 13003KT 090V180 9999 VCSH SCT015 BKN050 25/22 Q1016","temp":25,"dewp":22,"wdir":130,"wspd":3,"visib":"6+","altim":1016,"clouds":[{"cover":"SCT","base":1500},{"cover":"BKN","base":5000}],"obsTime":1782356400},"SBAX":{"icaoId":"SBAX","flightCategory":"LIFR","rawOb":"METAR SBAX 250300Z AUTO 07004KT 040V100 0600 FG VV001 ///// Q1021","temp":null,"dewp":null,"wdir":70,"wspd":4,"visib":0.37,"altim":1021,"clouds":[{"cover":"OVX","base":100}],"obsTime":1782356400},"SBDN":{"icaoId":"SBDN","flightCategory":"VFR","rawOb":"METAR SBDN 250300Z 00000KT CAVOK 09/08 Q1020","temp":9,"dewp":8,"wdir":0,"wspd":0,"visib":"6+","altim":1020,"clouds":[],"obsTime":1782356400},"SBIP":{"icaoId":"SBIP","flightCategory":"VFR","rawOb":"METAR SBIP 250300Z AUTO 22003KT CAVOK 20/17 Q1019","temp":20,"dewp":17,"wdir":220,"wspd":3,"visib":"6+","altim":1019,"clouds":[],"obsTime":1782356400},"SBKG":{"icaoId":"SBKG","flightCategory":"IFR","rawOb":"METAR SBKG 250300Z 09004KT 9999 BKN009 BKN070 21/20 Q1017","temp":21,"dewp":20,"wdir":90,"wspd":4,"visib":"6+","altim":1017,"clouds":[{"cover":"BKN","base":900},{"cover":"BKN","base":7000}],"obsTime":1782356400},"SBOI":{"icaoId":"SBOI","flightCategory":"VFR","rawOb":"METAR SBOI 250300Z AUTO VRB01KT CAVOK 25/25 Q1013","temp":25,"dewp":25,"wdir":"VRB","wspd":1,"visib":"6+","altim":1013,"clouds":[],"obsTime":1782356400},"SBPL":{"icaoId":"SBPL","flightCategory":"VFR","rawOb":"METAR SBPL 250300Z 10007KT CAVOK 25/17 Q1016","temp":25,"dewp":17,"wdir":100,"wspd":7,"visib":"6+","altim":1016,"clouds":[],"obsTime":1782356400},"SBPS":{"icaoId":"SBPS","flightCategory":"VFR","rawOb":"METAR SBPS 250300Z 23002KT 9999 SCT015 OVC040 22/21 Q1018","temp":22,"dewp":21,"wdir":230,"wspd":2,"visib":"6+","altim":1018,"clouds":[{"cover":"SCT","base":1500},{"cover":"OVC","base":4000}],"obsTime":1782356400},"SBSC":{"icaoId":"SBSC","flightCategory":"IFR","rawOb":"METAR SBSC 250300Z 22009KT 3000 -RA BR BKN005 BKN010 BKN025 18/18 Q1020","temp":18,"dewp":18,"wdir":220,"wspd":9,"visib":1.86,"altim":1020,"clouds":[{"cover":"BKN","base":500},{"cover":"BKN","base":1000},{"cover":"BKN","base":2500}],"obsTime":1782356400},"SBSM":{"icaoId":"SBSM","flightCategory":"VFR","rawOb":"METAR SBSM 250300Z VRB01KT CAVOK 04/04 Q1021","temp":4,"dewp":4,"wdir":"VRB","wspd":1,"visib":"6+","altim":1021,"clouds":[],"obsTime":1782356400},"SBCO":{"icaoId":"SBCO","flightCategory":"MVFR","rawOb":"METAR SBCO 250300Z 11003KT 8000 NSC 04/03 Q1022","temp":4,"dewp":3,"wdir":110,"wspd":3,"visib":4.97,"altim":1022,"clouds":[],"obsTime":1782356400},"SBJP":{"icaoId":"SBJP","flightCategory":"VFR","rawOb":"METAR SBJP 250300Z 18004KT 140V200 9999 FEW021 23/23 Q1015","temp":23,"dewp":23,"wdir":180,"wspd":4,"visib":"6+","altim":1015,"clouds":[{"cover":"FEW","base":2100}],"obsTime":1782356400},"SBAN":{"icaoId":"SBAN","flightCategory":"VFR","rawOb":"METAR SBAN 250300Z 13005KT 9999 FEW007 SCT080 14/13 Q1023","temp":14,"dewp":13,"wdir":130,"wspd":5,"visib":"6+","altim":1023,"clouds":[{"cover":"FEW","base":700},{"cover":"SCT","base":8000}],"obsTime":1782356400},"SBLE":{"icaoId":"SBLE","flightCategory":"MVFR","rawOb":"METAR SBLE 250300Z AUTO 02004KT 9999 BKN022 20/20 Q1019","temp":20,"dewp":20,"wdir":20,"wspd":4,"visib":"6+","altim":1019,"clouds":[{"cover":"BKN","base":2200}],"obsTime":1782356400},"SBTA":{"icaoId":"SBTA","flightCategory":"MVFR","rawOb":"METAR SBTA 250300Z 25003KT 6000 -DZ SCT007 OVC025 14/14 Q1021","temp":14,"dewp":14,"wdir":250,"wspd":3,"visib":3.73,"altim":1021,"clouds":[{"cover":"SCT","base":700},{"cover":"OVC","base":2500}],"obsTime":1782356400}}}