{"updated":1784064425,"count":85,"data":{"SBCG":{"icaoId":"SBCG","flightCategory":"VFR","rawOb":"METAR SBCG 142000Z 06008KT CAVOK 23/10 Q1017","temp":23,"dewp":10,"wdir":60,"wspd":8,"visib":"6+","altim":1017,"clouds":[],"obsTime":1784059200},"SBGO":{"icaoId":"SBGO","flightCategory":"VFR","rawOb":"METAR SBGO 142000Z 15004KT CAVOK 28/09 Q1017","temp":28,"dewp":9,"wdir":150,"wspd":4,"visib":"6+","altim":1017,"clouds":[],"obsTime":1784059200},"SBMO":{"icaoId":"SBMO","flightCategory":"VFR","rawOb":"METAR SBMO 142000Z 10010KT 9999 FEW030 26/23 Q1015","temp":26,"dewp":23,"wdir":100,"wspd":10,"visib":"6+","altim":1015,"clouds":[{"cover":"FEW","base":3000}],"obsTime":1784059200},"SBBR":{"icaoId":"SBBR","flightCategory":"VFR","rawOb":"METAR SBBR 142000Z 15005KT 120V200 CAVOK 26/10 Q1019","temp":26,"dewp":10,"wdir":150,"wspd":5,"visib":"6+","altim":1019,"clouds":[],"obsTime":1784059200},"SBBV":{"icaoId":"SBBV","flightCategory":"VFR","rawOb":"METAR SBBV 142000Z 08012KT 9999 SCT040 33/22 Q1010","temp":33,"dewp":22,"wdir":80,"wspd":12,"visib":"6+","altim":1010,"clouds":[{"cover":"SCT","base":4000}],"obsTime":1784059200},"SBEG":{"icaoId":"SBEG","flightCategory":"VFR","rawOb":"METAR SBEG 142000Z 08005KT 9999 VCSH SCT030 FEW035TCU 31/23 Q1010","temp":31,"dewp":23,"wdir":80,"wspd":5,"visib":"6+","altim":1010,"clouds":[{"cover":"SCT","base":3000},{"cover":"FEW","base":3500}],"obsTime":1784059200},"SBSG":{"icaoId":"SBSG","flightCategory":"VFR","rawOb":"METAR SBSG 142000Z 08010KT 9999 SCT030 28/23 Q1014","temp":28,"dewp":23,"wdir":80,"wspd":10,"visib":"6+","altim":1014,"clouds":[{"cover":"SCT","base":3000}],"obsTime":1784059200},"SBSL":{"icaoId":"SBSL","flightCategory":"MVFR","rawOb":"METAR SBSL 142000Z 04012KT 010V070 9999 BKN030 28/24 Q1012","temp":28,"dewp":24,"wdir":40,"wspd":12,"visib":"6+","altim":1012,"clouds":[{"cover":"BKN","base":3000}],"obsTime":1784059200},"SBFI":{"icaoId":"SBFI","flightCategory":"VFR","rawOb":"METAR SBFI 142000Z 10004KT CAVOK 21/12 Q1018","temp":21,"dewp":12,"wdir":100,"wspd":4,"visib":"6+","altim":1018,"clouds":[],"obsTime":1784059200},"SBCF":{"icaoId":"SBCF","flightCategory":"VFR","rawOb":"METAR SBCF 142000Z 11010KT 9999 FEW035 21/10 Q1021","temp":21,"dewp":10,"wdir":110,"wspd":10,"visib":"6+","altim":1021,"clouds":[{"cover":"FEW","base":3500}],"obsTime":1784059200},"SBBE":{"icaoId":"SBBE","flightCategory":"MVFR","rawOb":"METAR SBBE 142000Z 04009KT 9999 VCSH BKN025 FEW030TCU 27/23 Q1012","temp":27,"dewp":23,"wdir":40,"wspd":9,"visib":"6+","altim":1012,"clouds":[{"cover":"BKN","base":2500},{"cover":"FEW","base":3000}],"obsTime":1784059200},"SBCZ":{"icaoId":"SBCZ","flightCategory":"MVFR","rawOb":"METAR SBCZ 142000Z 16006KT 010V160 9999 BKN025 27/23 Q1013","temp":27,"dewp":23,"wdir":160,"wspd":6,"visib":"6+","altim":1013,"clouds":[{"cover":"BKN","base":2500}],"obsTime":1784059200},"SBNT":{"icaoId":"SBNT","flightCategory":"VFR","rawOb":"METAR SBNT 142000Z 09008KT 9999 FEW023 27/23 Q1008","temp":27,"dewp":23,"wdir":90,"wspd":8,"visib":"6+","altim":1008,"clouds":[{"cover":"FEW","base":2300}],"obsTime":1784059200},"SBRB":{"icaoId":"SBRB","flightCategory":"MVFR","rawOb":"METAR SBRB 142000Z 16002KT 9999 BKN030 29/21 Q1013","temp":29,"dewp":21,"wdir":160,"wspd":2,"visib":"6+","altim":1013,"clouds":[{"cover":"BKN","base":3000}],"obsTime":1784059200},"SBSP":{"icaoId":"SBSP","flightCategory":"VFR","rawOb":"METAR SBSP 142000Z 16012KT 9999 SCT015 14/12 Q1024","temp":14,"dewp":12,"wdir":160,"wspd":12,"visib":"6+","altim":1024,"clouds":[{"cover":"SCT","base":1500}],"obsTime":1784059200},"SBPV":{"icaoId":"SBPV","flightCategory":"VFR","rawOb":"METAR SBPV 142000Z 14006KT 9999 SCT030 32/21 Q1010","temp":32,"dewp":21,"wdir":140,"wspd":6,"visib":"6+","altim":1010,"clouds":[{"cover":"SCT","base":3000}],"obsTime":1784059200},"SBPA":{"icaoId":"SBPA","flightCategory":"VFR","rawOb":"METAR SBPA 142000Z 13004KT CAVOK 20/11 Q1019","temp":20,"dewp":11,"wdir":130,"wspd":4,"visib":"6+","altim":1019,"clouds":[],"obsTime":1784059200},"SBMA":{"icaoId":"SBMA","flightCategory":"VFR","rawOb":"METAR SBMA 142000Z 29004KT 9999 FEW020 FEW025TCU OVC100 30/24 Q1011","temp":30,"dewp":24,"wdir":290,"wspd":4,"visib":"6+","altim":1011,"clouds":[{"cover":"FEW","base":2000},{"cover":"FEW","base":2500},{"cover":"OVC","base":10000}],"obsTime":1784059200},"SBCT":{"icaoId":"SBCT","flightCategory":"VFR","rawOb":"METAR SBCT 142000Z 08008KT 9999 SCT023 12/08 Q1024","temp":12,"dewp":8,"wdir":80,"wspd":8,"visib":"6+","altim":1024,"clouds":[{"cover":"SCT","base":2300}],"obsTime":1784059200},"SBKP":{"icaoId":"SBKP","flightCategory":"VFR","rawOb":"METAR SBKP 142000Z 14013KT CAVOK 19/10 Q1021","temp":19,"dewp":10,"wdir":140,"wspd":13,"visib":"6+","altim":1021,"clouds":[],"obsTime":1784059200},"SBTE":{"icaoId":"SBTE","flightCategory":"VFR","rawOb":"METAR SBTE 142000Z 32008KT 9999 FEW035 32/23 Q1010","temp":32,"dewp":23,"wdir":320,"wspd":8,"visib":"6+","altim":1010,"clouds":[{"cover":"FEW","base":3500}],"obsTime":1784059200},"SBMQ":{"icaoId":"SBMQ","flightCategory":"VFR","rawOb":"METAR SBMQ 142000Z 06011KT 9999 FEW030 SCT100 32/24 Q1011","temp":32,"dewp":24,"wdir":60,"wspd":11,"visib":"6+","altim":1011,"clouds":[{"cover":"FEW","base":3000},{"cover":"SCT","base":10000}],"obsTime":1784059200},"SBCB":{"icaoId":"SBCB","flightCategory":"VFR","rawOb":"METAR SBCB 142000Z 24004KT 9999 SCT025 BKN050 20/15 Q1023","temp":20,"dewp":15,"wdir":240,"wspd":4,"visib":"6+","altim":1023,"clouds":[{"cover":"SCT","base":2500},{"cover":"BKN","base":5000}],"obsTime":1784059200},"SBFZ":{"icaoId":"SBFZ","flightCategory":"MVFR","rawOb":"METAR SBFZ 142000Z 07009KT 9999 BKN023 28/23 Q1013","temp":28,"dewp":23,"wdir":70,"wspd":9,"visib":"6+","altim":1013,"clouds":[{"cover":"BKN","base":2300}],"obsTime":1784059200},"SBRF":{"icaoId":"SBRF","flightCategory":"VFR","rawOb":"METAR SBRF 142000Z 05007KT 020V090 CAVOK 28/23 Q1014","temp":28,"dewp":23,"wdir":50,"wspd":7,"visib":"6+","altim":1014,"clouds":[],"obsTime":1784059200},"SBLO":{"icaoId":"SBLO","flightCategory":"VFR","rawOb":"METAR SBLO 142000Z 09010KT CAVOK 19/10 Q1021","temp":19,"dewp":10,"wdir":90,"wspd":10,"visib":"6+","altim":1021,"clouds":[],"obsTime":1784059200},"SBIL":{"icaoId":"SBIL","flightCategory":"VFR","rawOb":"METAR SBIL 142000Z 23011G26KT 9999 SCT020 BKN070 25/21 Q1018","temp":25,"dewp":21,"wdir":230,"wspd":11,"visib":"6+","altim":1018,"clouds":[{"cover":"SCT","base":2000},{"cover":"BKN","base":7000}],"obsTime":1784059200},"SBJU":{"icaoId":"SBJU","flightCategory":"VFR","rawOb":"METAR SBJU 142000Z 03004KT 9999 SCT022 31/18 Q1014","temp":31,"dewp":18,"wdir":30,"wspd":4,"visib":"6+","altim":1014,"clouds":[{"cover":"SCT","base":2200}],"obsTime":1784059200},"SBMG":{"icaoId":"SBMG","flightCategory":"VFR","rawOb":"METAR SBMG 142000Z 09009KT CAVOK 20/08 Q1019","temp":20,"dewp":8,"wdir":90,"wspd":9,"visib":"6+","altim":1019,"clouds":[],"obsTime":1784059200},"SBAT":{"icaoId":"SBAT","flightCategory":"VFR","rawOb":"METAR SBAT 142000Z 11004KT 9999 FEW040 34/20 Q1011","temp":34,"dewp":20,"wdir":110,"wspd":4,"visib":"6+","altim":1011,"clouds":[{"cover":"FEW","base":4000}],"obsTime":1784059200},"SBHT":{"icaoId":"SBHT","flightCategory":"VFR","rawOb":"METAR SBHT 142000Z 09006KT 9999 SCT030 32/24 Q1011","temp":32,"dewp":24,"wdir":90,"wspd":6,"visib":"6+","altim":1011,"clouds":[{"cover":"SCT","base":3000}],"obsTime":1784059200},"SBME":{"icaoId":"SBME","flightCategory":"VFR","rawOb":"METAR SBME 142000Z 24005KT 9999 BKN040 20/14 Q1023","temp":20,"dewp":14,"wdir":240,"wspd":5,"visib":"6+","altim":1023,"clouds":[{"cover":"BKN","base":4000}],"obsTime":1784059200},"SBMK":{"icaoId":"SBMK","flightCategory":"VFR","rawOb":"METAR SBMK 142000Z 07006KT 9999 BKN040 25/16 Q1018","temp":25,"dewp":16,"wdir":70,"wspd":6,"visib":"6+","altim":1018,"clouds":[{"cover":"BKN","base":4000}],"obsTime":1784059200},"SBUL":{"icaoId":"SBUL","flightCategory":"VFR","rawOb":"METAR SBUL 142000Z 14003KT 080V200 CAVOK 24/05 Q1020","temp":24,"dewp":5,"wdir":140,"wspd":3,"visib":"6+","altim":1020,"clouds":[],"obsTime":1784059200},"SBUR":{"icaoId":"SBUR","flightCategory":"VFR","rawOb":"METAR SBUR 142000Z 15008KT CAVOK 23/06 Q1019","temp":23,"dewp":6,"wdir":150,"wspd":8,"visib":"6+","altim":1019,"clouds":[],"obsTime":1784059200},"SBGL":{"icaoId":"SBGL","flightCategory":"VFR","rawOb":"METAR SBGL 142000Z 14007KT 9999 FEW030 SCT080 20/12 Q1022","temp":20,"dewp":12,"wdir":140,"wspd":7,"visib":"6+","altim":1022,"clouds":[{"cover":"FEW","base":3000},{"cover":"SCT","base":8000}],"obsTime":1784059200},"SBCR":{"icaoId":"SBCR","flightCategory":"VFR","rawOb":"METAR SBCR 142000Z 04008KT 360V070 CAVOK 29/14 Q1013","temp":29,"dewp":14,"wdir":40,"wspd":8,"visib":"6+","altim":1013,"clouds":[],"obsTime":1784059200},"SBFL":{"icaoId":"SBFL","flightCategory":"VFR","rawOb":"METAR SBFL 142000Z 33007KT 9999 SCT033 SCT070 18/14 Q1023","temp":18,"dewp":14,"wdir":330,"wspd":7,"visib":"6+","altim":1023,"clouds":[{"cover":"SCT","base":3300},{"cover":"SCT","base":7000}],"obsTime":1784059200},"SBGR":{"icaoId":"SBGR","flightCategory":"VFR","rawOb":"METAR SBGR 142000Z 13008KT 9999 SCT035 16/11 Q1023","temp":16,"dewp":11,"wdir":130,"wspd":8,"visib":"6+","altim":1023,"clouds":[{"cover":"SCT","base":3500}],"obsTime":1784059200},"SBVT":{"icaoId":"SBVT","flightCategory":"VFR","rawOb":"METAR SBVT 142000Z 19013KT 9999 FEW040 21/14 Q1021","temp":21,"dewp":14,"wdir":190,"wspd":13,"visib":"6+","altim":1021,"clouds":[{"cover":"FEW","base":4000}],"obsTime":1784059200},"SBCP":{"icaoId":"SBCP","flightCategory":"VFR","rawOb":"METAR SBCP 142000Z 20007KT 9999 FEW025 21/13 Q1022","temp":21,"dewp":13,"wdir":200,"wspd":7,"visib":"6+","altim":1022,"clouds":[{"cover":"FEW","base":2500}],"obsTime":1784059200},"SBPJ":{"icaoId":"SBPJ","flightCategory":"VFR","rawOb":"METAR SBPJ 142000Z 36004KT 9999 FEW040 35/18 Q1011","temp":35,"dewp":18,"wdir":360,"wspd":4,"visib":"6+","altim":1011,"clouds":[{"cover":"FEW","base":4000}],"obsTime":1784059200},"SBSV":{"icaoId":"SBSV","flightCategory":"VFR","rawOb":"METAR SBSV 142000Z 21004KT 9000 VCSH SCT017 FEW022TCU BKN040 BKN080 24/22 Q1017","temp":24,"dewp":22,"wdir":210,"wspd":4,"visib":5.59,"altim":1017,"clouds":[{"cover":"SCT","base":1700},{"cover":"FEW","base":2200},{"cover":"BKN","base":4000},{"cover":"BKN","base":8000}],"obsTime":1784059200},"SBSN":{"icaoId":"SBSN","flightCategory":"VFR","rawOb":"METAR SBSN 142000Z 10012KT CAVOK 32/23 Q1010","temp":32,"dewp":23,"wdir":100,"wspd":12,"visib":"6+","altim":1010,"clouds":[],"obsTime":1784059200},"SBBQ":{"icaoId":"SBBQ","flightCategory":"VFR","rawOb":"METAR SBBQ 142000Z 11006KT 070V140 CAVOK 15/08 Q1025","temp":15,"dewp":8,"wdir":110,"wspd":6,"visib":"6+","altim":1025,"clouds":[],"obsTime":1784059200},"SBUY":{"icaoId":"SBUY","flightCategory":"VFR","rawOb":"METAR SBUY 142000Z 18004KT 9999 SCT030 31/23 Q1009","temp":31,"dewp":23,"wdir":180,"wspd":4,"visib":"6+","altim":1009,"clouds":[{"cover":"SCT","base":3000}],"obsTime":1784059200},"SBTF":{"icaoId":"SBTF","flightCategory":"VFR","rawOb":"METAR SBTF 142000Z 25003KT 9999 FEW025 31/26 Q1010","temp":31,"dewp":26,"wdir":250,"wspd":3,"visib":"6+","altim":1010,"clouds":[{"cover":"FEW","base":2500}],"obsTime":1784059200},"SBPS":{"icaoId":"SBPS","flightCategory":"MVFR","rawOb":"METAR SBPS 142000Z 24004KT 9000 -RA SCT009 BKN015 20/20 Q1020","temp":20,"dewp":20,"wdir":240,"wspd":4,"visib":5.59,"altim":1020,"clouds":[{"cover":"SCT","base":900},{"cover":"BKN","base":1500}],"obsTime":1784059200},"SBTT":{"icaoId":"SBTT","flightCategory":"VFR","rawOb":"METAR SBTT 142000Z 17003KT 9999 FEW030 30/24 Q1011","temp":30,"dewp":24,"wdir":170,"wspd":3,"visib":"6+","altim":1011,"clouds":[{"cover":"FEW","base":3000}],"obsTime":1784059200},"SBCJ":{"icaoId":"SBCJ","flightCategory":"VFR","rawOb":"METAR SBCJ 142000Z 00000KT CAVOK 26/21 Q1015","temp":26,"dewp":21,"wdir":0,"wspd":0,"visib":"6+","altim":1015,"clouds":[],"obsTime":1784059200},"SBOI":{"icaoId":"SBOI","flightCategory":"VFR","rawOb":"METAR SBOI 142000Z AUTO 06006KT 020V100 9999 SCT039 30/24 Q1012","temp":30,"dewp":24,"wdir":60,"wspd":6,"visib":"6+","altim":1012,"clouds":[{"cover":"SCT","base":3900}],"obsTime":1784059200},"SBAR":{"icaoId":"SBAR","flightCategory":"VFR","rawOb":"METAR SBAR 142000Z 15008KT 9999 FEW027 27/23 Q1015","temp":27,"dewp":23,"wdir":150,"wspd":8,"visib":"6+","altim":1015,"clouds":[{"cover":"FEW","base":2700}],"obsTime":1784059200},"SBPB":{"icaoId":"SBPB","flightCategory":"MVFR","rawOb":"METAR SBPB 142000Z 06011KT 9999 BKN020 28/24 Q1012","temp":28,"dewp":24,"wdir":60,"wspd":11,"visib":"6+","altim":1012,"clouds":[{"cover":"BKN","base":2000}],"obsTime":1784059200},"SBPL":{"icaoId":"SBPL","flightCategory":"VFR","rawOb":"METAR SBPL 142000Z 08006KT 9999 FEW025 33/15 Q1013","temp":33,"dewp":15,"wdir":80,"wspd":6,"visib":"6+","altim":1013,"clouds":[{"cover":"FEW","base":2500}],"obsTime":1784059200},"SBKG":{"icaoId":"SBKG","flightCategory":"VFR","rawOb":"METAR SBKG 142000Z 08008KT CAVOK 27/20 Q1016","temp":27,"dewp":20,"wdir":80,"wspd":8,"visib":"6+","altim":1016,"clouds":[],"obsTime":1784059200},"SBCA":{"icaoId":"SBCA","flightCategory":"VFR","rawOb":"METAR SBCA 142000Z 06006G16KT CAVOK 18/04 Q1020","temp":18,"dewp":4,"wdir":60,"wspd":6,"visib":"6+","altim":1020,"clouds":[],"obsTime":1784059200},"SBCO":{"icaoId":"SBCO","flightCategory":"VFR","rawOb":"METAR SBCO 142000Z 13004KT 100V160 CAVOK 19/12 Q1020","temp":19,"dewp":12,"wdir":130,"wspd":4,"visib":"6+","altim":1020,"clouds":[],"obsTime":1784059200},"SBSM":{"icaoId":"SBSM","flightCategory":"VFR","rawOb":"METAR SBSM 142000Z 07007KT CAVOK 19/10 Q1018","temp":19,"dewp":10,"wdir":70,"wspd":7,"visib":"6+","altim":1018,"clouds":[],"obsTime":1784059200},"SBTU":{"icaoId":"SBTU","flightCategory":"VFR","rawOb":"METAR SBTU 142000Z AUTO 18006KT 150V220 9999 // FEW039/// 30/24 Q1013","temp":30,"dewp":24,"wdir":180,"wspd":6,"visib":"6+","altim":1013,"clouds":[{"cover":"FEW","base":3900}],"obsTime":1784059200},"SBVH":{"icaoId":"SBVH","flightCategory":"VFR","rawOb":"METAR SBVH 142000Z 08005KT 9999 SCT040 28/20 Q1015","temp":28,"dewp":20,"wdir":80,"wspd":5,"visib":"6+","altim":1015,"clouds":[{"cover":"SCT","base":4000}],"obsTime":1784059200},"SBAX":{"icaoId":"SBAX","flightCategory":"VFR","rawOb":"METAR SBAX 142100Z 12007KT CAVOK 19/06 Q1021","temp":19,"dewp":6,"wdir":120,"wspd":7,"visib":"6+","altim":1021,"clouds":[],"obsTime":1784062800},"SBBH":{"icaoId":"SBBH","flightCategory":"VFR","rawOb":"METAR SBBH 142000Z 11009KT CAVOK 21/09 Q1021","temp":21,"dewp":9,"wdir":110,"wspd":9,"visib":"6+","altim":1021,"clouds":[],"obsTime":1784059200},"SBBU":{"icaoId":"SBBU","flightCategory":"VFR","rawOb":"METAR SBBU 142000Z 12009KT CAVOK 20/10 Q1021","temp":20,"dewp":10,"wdir":120,"wspd":9,"visib":"6+","altim":1021,"clouds":[],"obsTime":1784059200},"SBDN":{"icaoId":"SBDN","flightCategory":"VFR","rawOb":"METAR SBDN 142000Z 10007KT CAVOK 22/07 Q1019","temp":22,"dewp":7,"wdir":100,"wspd":7,"visib":"6+","altim":1019,"clouds":[],"obsTime":1784059200},"SBIP":{"icaoId":"SBIP","flightCategory":"VFR","rawOb":"METAR SBIP 142000Z AUTO 36005KT CAVOK 23/13 Q1020","temp":23,"dewp":13,"wdir":360,"wspd":5,"visib":"6+","altim":1020,"clouds":[],"obsTime":1784059200},"SBSC":{"icaoId":"SBSC","flightCategory":"VFR","rawOb":"METAR SBSC 142000Z 18006KT 9999 FEW025 SCT040 19/15 Q1023","temp":19,"dewp":15,"wdir":180,"wspd":6,"visib":"6+","altim":1023,"clouds":[{"cover":"FEW","base":2500},{"cover":"SCT","base":4000}],"obsTime":1784059200},"SBSR":{"icaoId":"SBSR","flightCategory":"VFR","rawOb":"METAR SBSR 142000Z 17005KT CAVOK 23/04 Q1019","temp":23,"dewp":4,"wdir":170,"wspd":5,"visib":"6+","altim":1019,"clouds":[],"obsTime":1784059200},"SBES":{"icaoId":"SBES","flightCategory":"VFR","rawOb":"METAR SBES 142000Z 01002KT 9999 FEW015 SCT050 19/// Q1023","temp":null,"dewp":null,"wdir":10,"wspd":2,"visib":"6+","altim":1023,"clouds":[{"cover":"FEW","base":1500},{"cover":"SCT","base":5000}],"obsTime":1784059200},"SBPP":{"icaoId":"SBPP","flightCategory":"VFR","rawOb":"METAR SBPP 142000Z 05016KT CAVOK 21/10 Q1017","temp":21,"dewp":10,"wdir":50,"wspd":16,"visib":"6+","altim":1017,"clouds":[],"obsTime":1784059200},"SBSJ":{"icaoId":"SBSJ","flightCategory":"VFR","rawOb":"METAR SBSJ 142000Z 13012KT 9999 FEW040 SCT100 18/11 Q1023","temp":18,"dewp":11,"wdir":130,"wspd":12,"visib":"6+","altim":1023,"clouds":[{"cover":"FEW","base":4000},{"cover":"SCT","base":10000}],"obsTime":1784059200},"SBCC":{"icaoId":"SBCC","flightCategory":"VFR","rawOb":"METAR SBCC 142000Z 19003KT 9999 SCT040 FEW045TCU BKN100 28/20 Q1013","temp":28,"dewp":20,"wdir":190,"wspd":3,"visib":"6+","altim":1013,"clouds":[{"cover":"SCT","base":4000},{"cover":"FEW","base":4500},{"cover":"BKN","base":10000}],"obsTime":1784059200},"SBJV":{"icaoId":"SBJV","flightCategory":"VFR","rawOb":"METAR SBJV 142000Z 13004KT 9999 FEW025 BKN050 18/14 Q1023","temp":18,"dewp":14,"wdir":130,"wspd":4,"visib":"6+","altim":1023,"clouds":[{"cover":"FEW","base":2500},{"cover":"BKN","base":5000}],"obsTime":1784059200},"SBPF":{"icaoId":"SBPF","flightCategory":"VFR","rawOb":"METAR SBPF 142000Z 03008KT CAVOK 15/07 Q1021","temp":15,"dewp":7,"wdir":30,"wspd":8,"visib":"6+","altim":1021,"clouds":[],"obsTime":1784059200},"SBIH":{"icaoId":"SBIH","flightCategory":"VFR","rawOb":"METAR SBIH 142000Z 09003KT 9999 FEW015 BKN080 24/23 Q1011","temp":24,"dewp":23,"wdir":90,"wspd":3,"visib":"6+","altim":1011,"clouds":[{"cover":"FEW","base":1500},{"cover":"BKN","base":8000}],"obsTime":1784059200},"SBAF":{"icaoId":"SBAF","flightCategory":"VFR","rawOb":"METAR SBAF 142000Z 19008KT 9999 FEW030 SCT080 19/18 Q1023","temp":19,"dewp":18,"wdir":190,"wspd":8,"visib":"6+","altim":1023,"clouds":[{"cover":"FEW","base":3000},{"cover":"SCT","base":8000}],"obsTime":1784059200},"SBGW":{"icaoId":"SBGW","flightCategory":"VFR","rawOb":"METAR SBGW 142000Z 03006KT 350V070 9999 FEW030 20/08 Q1022","temp":20,"dewp":8,"wdir":30,"wspd":6,"visib":"6+","altim":1022,"clouds":[{"cover":"FEW","base":3000}],"obsTime":1784059200},"SBJR":{"icaoId":"SBJR","flightCategory":"VFR","rawOb":"METAR SBJR 142000Z 18004KT 9999 FEW018 SCT080 19/15 Q1023","temp":19,"dewp":15,"wdir":180,"wspd":4,"visib":"6+","altim":1023,"clouds":[{"cover":"FEW","base":1800},{"cover":"SCT","base":8000}],"obsTime":1784059200},"SBLE":{"icaoId":"SBLE","flightCategory":"VFR","rawOb":"METAR SBLE 142000Z AUTO 05002KT CAVOK 25/21 Q1017","temp":25,"dewp":21,"wdir":50,"wspd":2,"visib":"6+","altim":1017,"clouds":[],"obsTime":1784059200},"SBLS":{"icaoId":"SBLS","flightCategory":"VFR","rawOb":"METAR SBLS 142000Z 13010KT 9999 FEW045 20/10 Q1021","temp":20,"dewp":10,"wdir":130,"wspd":10,"visib":"6+","altim":1021,"clouds":[{"cover":"FEW","base":4500}],"obsTime":1784059200},"SBMT":{"icaoId":"SBMT","flightCategory":"VFR","rawOb":"METAR SBMT 142000Z 13010KT 9999 SCT040 16/11 Q1023","temp":16,"dewp":11,"wdir":130,"wspd":10,"visib":"6+","altim":1023,"clouds":[{"cover":"SCT","base":4000}],"obsTime":1784059200},"SBAN":{"icaoId":"SBAN","flightCategory":"VFR","rawOb":"METAR SBAN 142000Z 15003KT 9999 FEW048 26/10 Q1020","temp":26,"dewp":10,"wdir":150,"wspd":3,"visib":"6+","altim":1020,"clouds":[{"cover":"FEW","base":4800}],"obsTime":1784059200},"SBST":{"icaoId":"SBST","flightCategory":"MVFR","rawOb":"METAR SBST 142000Z 17006KT 8000 BKN020 18/14 Q1023","temp":18,"dewp":14,"wdir":170,"wspd":6,"visib":4.97,"altim":1023,"clouds":[{"cover":"BKN","base":2000}],"obsTime":1784059200},"SBTA":{"icaoId":"SBTA","flightCategory":"VFR","rawOb":"METAR SBTA 142000Z 06006KT 9999 FEW045 20/10 Q1022","temp":20,"dewp":10,"wdir":60,"wspd":6,"visib":"6+","altim":1022,"clouds":[{"cover":"FEW","base":4500}],"obsTime":1784059200},"SBJP":{"icaoId":"SBJP","flightCategory":"VFR","rawOb":"METAR SBJP 142000Z 03006KT 9999 FEW022 27/23 Q1014","temp":27,"dewp":23,"wdir":30,"wspd":6,"visib":"6+","altim":1014,"clouds":[{"cover":"FEW","base":2200}],"obsTime":1784059200},"SBNM":{"icaoId":"SBNM","flightCategory":"VFR","rawOb":"METAR SBNM 142000Z AUTO 02006KT 340V040 CAVOK 19/09 Q1018","temp":19,"dewp":9,"wdir":20,"wspd":6,"visib":"6+","altim":1018,"clouds":[],"obsTime":1784059200}}}