{"updated":1779658965,"count":85,"data":{"SBGR":{"icaoId":"SBGR","flightCategory":"VFR","rawOb":"METAR SBGR 242000Z 28004KT 9999 SCT030 SCT066 24/18 Q1020","temp":24,"dewp":18,"wdir":280,"wspd":4,"visib":"6+","altim":1020,"clouds":[{"cover":"SCT","base":3000},{"cover":"SCT","base":6600}],"obsTime":1779652800},"SBCF":{"icaoId":"SBCF","flightCategory":"VFR","rawOb":"METAR SBCF 242000Z 00000KT 9999 FEW040 SCT100 25/15 Q1021","temp":25,"dewp":15,"wdir":0,"wspd":0,"visib":"6+","altim":1021,"clouds":[{"cover":"FEW","base":4000},{"cover":"SCT","base":10000}],"obsTime":1779652800},"SBMA":{"icaoId":"SBMA","flightCategory":"VFR","rawOb":"METAR SBMA 242000Z 06003KT 9999 FEW023 33/21 Q1010","temp":33,"dewp":21,"wdir":60,"wspd":3,"visib":"6+","altim":1010,"clouds":[{"cover":"FEW","base":2300}],"obsTime":1779652800},"SBCG":{"icaoId":"SBCG","flightCategory":"VFR","rawOb":"METAR SBCG 242000Z 18004KT 9999 SCT035 BKN100 23/20 Q1017","temp":23,"dewp":20,"wdir":180,"wspd":4,"visib":"6+","altim":1017,"clouds":[{"cover":"SCT","base":3500},{"cover":"BKN","base":10000}],"obsTime":1779652800},"SBME":{"icaoId":"SBME","flightCategory":"VFR","rawOb":"METAR SBME 242000Z 00000KT CAVOK 25/20 Q1017","temp":25,"dewp":20,"wdir":0,"wspd":0,"visib":"6+","altim":1017,"clouds":[],"obsTime":1779652800},"SBFI":{"icaoId":"SBFI","flightCategory":"VFR","rawOb":"METAR SBFI 242000Z 17004KT 9999 FEW030 BKN100 22/19 Q1017","temp":22,"dewp":19,"wdir":170,"wspd":4,"visib":"6+","altim":1017,"clouds":[{"cover":"FEW","base":3000},{"cover":"BKN","base":10000}],"obsTime":1779652800},"SBMG":{"icaoId":"SBMG","flightCategory":"VFR","rawOb":"METAR SBMG 242000Z 03003KT 9999 FEW023 SCT100 23/19 Q1017","temp":23,"dewp":19,"wdir":30,"wspd":3,"visib":"6+","altim":1017,"clouds":[{"cover":"FEW","base":2300},{"cover":"SCT","base":10000}],"obsTime":1779652800},"SBFL":{"icaoId":"SBFL","flightCategory":"IFR","rawOb":"METAR SBFL 242000Z 19012KT 160V220 4500 -RA SCT008 OVC027 17/16 Q1020","temp":17,"dewp":16,"wdir":190,"wspd":12,"visib":2.8,"altim":1020,"clouds":[{"cover":"SCT","base":800},{"cover":"OVC","base":2700}],"obsTime":1779652800},"SBMK":{"icaoId":"SBMK","flightCategory":"VFR","rawOb":"METAR SBMK 242000Z 05006KT CAVOK 26/16 Q1019","temp":26,"dewp":16,"wdir":50,"wspd":6,"visib":"6+","altim":1019,"clouds":[],"obsTime":1779652800},"SBBE":{"icaoId":"SBBE","flightCategory":"VFR","rawOb":"METAR SBBE 242000Z 34008KT 9999 FEW035TCU SCT100 29/25 Q1010","temp":29,"dewp":25,"wdir":340,"wspd":8,"visib":"6+","altim":1010,"clouds":[{"cover":"FEW","base":3500},{"cover":"SCT","base":10000}],"obsTime":1779652800},"SBMO":{"icaoId":"SBMO","flightCategory":"MVFR","rawOb":"METAR SBMO 242000Z 10003KT 340V070 9999 VCSH FEW006 BKN021 BKN050 23/23 Q1015 RERA","temp":23,"dewp":23,"wdir":100,"wspd":3,"visib":"6+","altim":1015,"clouds":[{"cover":"FEW","base":600},{"cover":"BKN","base":2100},{"cover":"BKN","base":5000}],"obsTime":1779652800},"SBMQ":{"icaoId":"SBMQ","flightCategory":"VFR","rawOb":"METAR SBMQ 242000Z 07004KT 9999 SCT030 29/24 Q1010","temp":29,"dewp":24,"wdir":70,"wspd":4,"visib":"6+","altim":1010,"clouds":[{"cover":"SCT","base":3000}],"obsTime":1779652800},"SBFZ":{"icaoId":"SBFZ","flightCategory":"VFR","rawOb":"METAR SBFZ 242000Z 10010KT 9999 FEW025 29/22 Q1011","temp":29,"dewp":22,"wdir":100,"wspd":10,"visib":"6+","altim":1011,"clouds":[{"cover":"FEW","base":2500}],"obsTime":1779652800},"SBNT":{"icaoId":"SBNT","flightCategory":"VFR","rawOb":"METAR SBNT 242000Z 14010KT 9999 SCT024 28/23 Q1012","temp":28,"dewp":23,"wdir":140,"wspd":10,"visib":"6+","altim":1012,"clouds":[{"cover":"SCT","base":2400}],"obsTime":1779652800},"SBBV":{"icaoId":"SBBV","flightCategory":"VFR","rawOb":"METAR SBBV 242000Z 36004KT 9999 BKN040 FEW045TCU BKN100 31/23 Q1010","temp":31,"dewp":23,"wdir":360,"wspd":4,"visib":"6+","altim":1010,"clouds":[{"cover":"BKN","base":4000},{"cover":"FEW","base":4500},{"cover":"BKN","base":10000}],"obsTime":1779652800},"SBCP":{"icaoId":"SBCP","flightCategory":"VFR","rawOb":"METAR SBCP 242000Z 08008KT 9999 FEW020 24/19 Q1017","temp":24,"dewp":19,"wdir":80,"wspd":8,"visib":"6+","altim":1017,"clouds":[{"cover":"FEW","base":2000}],"obsTime":1779652800},"SBPA":{"icaoId":"SBPA","flightCategory":"VFR","rawOb":"METAR SBPA 242000Z 11009KT 9999 SCT025 19/15 Q1020","temp":19,"dewp":15,"wdir":110,"wspd":9,"visib":"6+","altim":1020,"clouds":[{"cover":"SCT","base":2500}],"obsTime":1779652800},"SBGL":{"icaoId":"SBGL","flightCategory":"VFR","rawOb":"METAR SBGL 242000Z 13008KT 9000 FEW030 24/20 Q1017","temp":24,"dewp":20,"wdir":130,"wspd":8,"visib":5.59,"altim":1017,"clouds":[{"cover":"FEW","base":3000}],"obsTime":1779652800},"SBPJ":{"icaoId":"SBPJ","flightCategory":"VFR","rawOb":"METAR SBPJ 242000Z 14006KT CAVOK 33/18 Q1013","temp":33,"dewp":18,"wdir":140,"wspd":6,"visib":"6+","altim":1013,"clouds":[],"obsTime":1779652800},"SBGO":{"icaoId":"SBGO","flightCategory":"VFR","rawOb":"METAR SBGO 242000Z 11007KT 070V140 9999 SCT045 28/17 Q1019","temp":28,"dewp":17,"wdir":110,"wspd":7,"visib":"6+","altim":1019,"clouds":[{"cover":"SCT","base":4500}],"obsTime":1779652800},"SBPV":{"icaoId":"SBPV","flightCategory":"VFR","rawOb":"METAR SBPV 242000Z 11002KT 9999 SCT025 29/24 Q1011","temp":29,"dewp":24,"wdir":110,"wspd":2,"visib":"6+","altim":1011,"clouds":[{"cover":"SCT","base":2500}],"obsTime":1779652800},"SBCR":{"icaoId":"SBCR","flightCategory":"VFR","rawOb":"METAR SBCR 242000Z 06005KT 030V120 9999 FEW030 27/19 Q1013","temp":27,"dewp":19,"wdir":60,"wspd":5,"visib":"6+","altim":1013,"clouds":[{"cover":"FEW","base":3000}],"obsTime":1779652800},"SBRB":{"icaoId":"SBRB","flightCategory":"VFR","rawOb":"METAR SBRB 242000Z 07003KT 9999 SCT030 27/19 Q1013","temp":27,"dewp":19,"wdir":70,"wspd":3,"visib":"6+","altim":1013,"clouds":[{"cover":"SCT","base":3000}],"obsTime":1779652800},"SBAT":{"icaoId":"SBAT","flightCategory":"VFR","rawOb":"METAR SBAT 242000Z 11004KT 9999 SCT035 31/20 Q1012","temp":31,"dewp":20,"wdir":110,"wspd":4,"visib":"6+","altim":1012,"clouds":[{"cover":"SCT","base":3500}],"obsTime":1779652800},"SBRF":{"icaoId":"SBRF","flightCategory":"VFR","rawOb":"METAR SBRF 242000Z 20006KT 9999 SCT025 SCT060 24/23 Q1013","temp":24,"dewp":23,"wdir":200,"wspd":6,"visib":"6+","altim":1013,"clouds":[{"cover":"SCT","base":2500},{"cover":"SCT","base":6000}],"obsTime":1779652800},"SBSG":{"icaoId":"SBSG","flightCategory":"VFR","rawOb":"METAR SBSG 242000Z 13006KT 090V160 9999 FEW025 27/22 Q1013","temp":27,"dewp":22,"wdir":130,"wspd":6,"visib":"6+","altim":1013,"clouds":[{"cover":"FEW","base":2500}],"obsTime":1779652800},"SBSL":{"icaoId":"SBSL","flightCategory":"MVFR","rawOb":"METAR SBSL 242000Z 00000KT 9999 BKN025 BKN070 26/24 Q1011","temp":26,"dewp":24,"wdir":0,"wspd":0,"visib":"6+","altim":1011,"clouds":[{"cover":"BKN","base":2500},{"cover":"BKN","base":7000}],"obsTime":1779652800},"SBCB":{"icaoId":"SBCB","flightCategory":"VFR","rawOb":"METAR SBCB 242000Z 20003KT CAVOK 24/20 Q1018","temp":24,"dewp":20,"wdir":200,"wspd":3,"visib":"6+","altim":1018,"clouds":[],"obsTime":1779652800},"SBSN":{"icaoId":"SBSN","flightCategory":"VFR","rawOb":"METAR SBSN 242000Z 22002KT 9999 FEW016 SCT100 26/25 Q1010","temp":26,"dewp":25,"wdir":220,"wspd":2,"visib":"6+","altim":1010,"clouds":[{"cover":"FEW","base":1600},{"cover":"SCT","base":10000}],"obsTime":1779652800},"SBHT":{"icaoId":"SBHT","flightCategory":"MVFR","rawOb":"METAR SBHT 242000Z 12004KT 9999 BKN020 BKN090 26/24 Q1011","temp":26,"dewp":24,"wdir":120,"wspd":4,"visib":"6+","altim":1011,"clouds":[{"cover":"BKN","base":2000},{"cover":"BKN","base":9000}],"obsTime":1779652800},"SBEG":{"icaoId":"SBEG","flightCategory":"MVFR","rawOb":"METAR SBEG 242000Z 26005KT 9999 BKN016 SCT090 27/24 Q1012","temp":27,"dewp":24,"wdir":260,"wspd":5,"visib":"6+","altim":1012,"clouds":[{"cover":"BKN","base":1600},{"cover":"SCT","base":9000}],"obsTime":1779652800},"SBLO":{"icaoId":"SBLO","flightCategory":"VFR","rawOb":"METAR SBLO 242000Z 13003KT 9999 FEW020 21/19 Q1018","temp":21,"dewp":19,"wdir":130,"wspd":3,"visib":"6+","altim":1018,"clouds":[{"cover":"FEW","base":2000}],"obsTime":1779652800},"SBSP":{"icaoId":"SBSP","flightCategory":"IFR","rawOb":"METAR SBSP 242000Z 19006KT 6000 FEW004 BKN005 BKN030 18/17 Q1021","temp":18,"dewp":17,"wdir":190,"wspd":6,"visib":3.73,"altim":1021,"clouds":[{"cover":"FEW","base":400},{"cover":"BKN","base":500},{"cover":"BKN","base":3000}],"obsTime":1779652800},"SBSV":{"icaoId":"SBSV","flightCategory":"VFR","rawOb":"METAR SBSV 242000Z 12009KT 9999 -RA SCT026 BKN055 28/21 Q1015","temp":28,"dewp":21,"wdir":120,"wspd":9,"visib":"6+","altim":1015,"clouds":[{"cover":"SCT","base":2600},{"cover":"BKN","base":5500}],"obsTime":1779652800},"SBCT":{"icaoId":"SBCT","flightCategory":"LIFR","rawOb":"METAR SBCT 242000Z 16003KT 5000 BR BKN003 BKN009 OVC050 16/16 Q1021 RERA","temp":16,"dewp":16,"wdir":160,"wspd":3,"visib":3.11,"altim":1021,"clouds":[{"cover":"BKN","base":300},{"cover":"BKN","base":900},{"cover":"OVC","base":5000}],"obsTime":1779652800},"SBIL":{"icaoId":"SBIL","flightCategory":"VFR","rawOb":"METAR SBIL 242000Z 20011G21KT 9999 SCT023 BKN070 27/22 Q1016","temp":27,"dewp":22,"wdir":200,"wspd":11,"visib":"6+","altim":1016,"clouds":[{"cover":"SCT","base":2300},{"cover":"BKN","base":7000}],"obsTime":1779652800},"SBTE":{"icaoId":"SBTE","flightCategory":"VFR","rawOb":"METAR SBTE 242000Z 13005KT 9999 FEW020 32/21 Q1010","temp":32,"dewp":21,"wdir":130,"wspd":5,"visib":"6+","altim":1010,"clouds":[{"cover":"FEW","base":2000}],"obsTime":1779652800},"SBBR":{"icaoId":"SBBR","flightCategory":"VFR","rawOb":"METAR SBBR 242000Z 12008KT 9999 SCT040 BKN100 23/16 Q1021","temp":23,"dewp":16,"wdir":120,"wspd":8,"visib":"6+","altim":1021,"clouds":[{"cover":"SCT","base":4000},{"cover":"BKN","base":10000}],"obsTime":1779652800},"SBUL":{"icaoId":"SBUL","flightCategory":"VFR","rawOb":"METAR SBUL 242000Z 09007KT 9999 FEW045 BKN070 24/16 Q1021","temp":24,"dewp":16,"wdir":90,"wspd":7,"visib":"6+","altim":1021,"clouds":[{"cover":"FEW","base":4500},{"cover":"BKN","base":7000}],"obsTime":1779652800},"SBJU":{"icaoId":"SBJU","flightCategory":"VFR","rawOb":"METAR SBJU 242000Z 13005KT 9999 FEW020 30/17 Q1014","temp":30,"dewp":17,"wdir":130,"wspd":5,"visib":"6+","altim":1014,"clouds":[{"cover":"FEW","base":2000}],"obsTime":1779652800},"SBUR":{"icaoId":"SBUR","flightCategory":"VFR","rawOb":"METAR SBUR 242000Z 01006KT CAVOK 26/16 Q1020","temp":26,"dewp":16,"wdir":10,"wspd":6,"visib":"6+","altim":1020,"clouds":[],"obsTime":1779652800},"SBVT":{"icaoId":"SBVT","flightCategory":"VFR","rawOb":"METAR SBVT 242000Z 04005KT 9999 SCT040 24/19 Q1018","temp":24,"dewp":19,"wdir":40,"wspd":5,"visib":"6+","altim":1018,"clouds":[{"cover":"SCT","base":4000}],"obsTime":1779652800},"SBCZ":{"icaoId":"SBCZ","flightCategory":"MVFR","rawOb":"METAR SBCZ 242000Z 15003KT 9999 BKN030 27/20 Q1013","temp":27,"dewp":20,"wdir":150,"wspd":3,"visib":"6+","altim":1013,"clouds":[{"cover":"BKN","base":3000}],"obsTime":1779652800},"SBKP":{"icaoId":"SBKP","flightCategory":"VFR","rawOb":"METAR SBKP 242000Z 22004KT CAVOK 24/20 Q1019","temp":24,"dewp":20,"wdir":220,"wspd":4,"visib":"6+","altim":1019,"clouds":[],"obsTime":1779652800},"SBCJ":{"icaoId":"SBCJ","flightCategory":"VFR","rawOb":"METAR SBCJ 242000Z 15005KT 9999 FEW020 28/19 Q1016","temp":28,"dewp":19,"wdir":150,"wspd":5,"visib":"6+","altim":1016,"clouds":[{"cover":"FEW","base":2000}],"obsTime":1779652800},"SBPB":{"icaoId":"SBPB","flightCategory":"VFR","rawOb":"METAR SBPB 242000Z 06008KT 9999 FEW020 30/25 Q1010","temp":30,"dewp":25,"wdir":60,"wspd":8,"visib":"6+","altim":1010,"clouds":[{"cover":"FEW","base":2000}],"obsTime":1779652800},"SBPL":{"icaoId":"SBPL","flightCategory":"VFR","rawOb":"METAR SBPL 242000Z 08006KT 9999 FEW030 30/19 Q1014","temp":30,"dewp":19,"wdir":80,"wspd":6,"visib":"6+","altim":1014,"clouds":[{"cover":"FEW","base":3000}],"obsTime":1779652800},"SBBU":{"icaoId":"SBBU","flightCategory":"VFR","rawOb":"METAR SBBU 242000Z 35004KT 9999 FEW030 BKN100 25/21 Q1019","temp":25,"dewp":21,"wdir":350,"wspd":4,"visib":"6+","altim":1019,"clouds":[{"cover":"FEW","base":3000},{"cover":"BKN","base":10000}],"obsTime":1779652800},"SBCO":{"icaoId":"SBCO","flightCategory":"VFR","rawOb":"METAR SBCO 242000Z 11009KT 9999 SCT023 19/14 Q1021","temp":19,"dewp":14,"wdir":110,"wspd":9,"visib":"6+","altim":1021,"clouds":[{"cover":"SCT","base":2300}],"obsTime":1779652800},"SBPP":{"icaoId":"SBPP","flightCategory":"VFR","rawOb":"METAR SBPP 242000Z 07007KT 9999 SCT017 21/18 Q1017","temp":21,"dewp":18,"wdir":70,"wspd":7,"visib":"6+","altim":1017,"clouds":[{"cover":"SCT","base":1700}],"obsTime":1779652800},"SBAR":{"icaoId":"SBAR","flightCategory":"VFR","rawOb":"METAR SBAR 242000Z 12009KT 9999 FEW030 28/20 Q1014","temp":28,"dewp":20,"wdir":120,"wspd":9,"visib":"6+","altim":1014,"clouds":[{"cover":"FEW","base":3000}],"obsTime":1779652800},"SBPS":{"icaoId":"SBPS","flightCategory":"VFR","rawOb":"METAR SBPS 242000Z 17004KT 9999 SCT025 25/19 Q1017","temp":25,"dewp":19,"wdir":170,"wspd":4,"visib":"6+","altim":1017,"clouds":[{"cover":"SCT","base":2500}],"obsTime":1779652800},"SBDN":{"icaoId":"SBDN","flightCategory":"VFR","rawOb":"METAR SBDN 242000Z 06002KT CAVOK 24/19 Q1017","temp":24,"dewp":19,"wdir":60,"wspd":2,"visib":"6+","altim":1017,"clouds":[],"obsTime":1779652800},"SBSC":{"icaoId":"SBSC","flightCategory":"MVFR","rawOb":"METAR SBSC 242000Z 19007KT 9999 SCT015 BKN020 23/20 Q1018","temp":23,"dewp":20,"wdir":190,"wspd":7,"visib":"6+","altim":1018,"clouds":[{"cover":"SCT","base":1500},{"cover":"BKN","base":2000}],"obsTime":1779652800},"SBSJ":{"icaoId":"SBSJ","flightCategory":"MVFR","rawOb":"METAR SBSJ 242000Z 29002KT 8000 NSC 23/20 Q1019","temp":23,"dewp":20,"wdir":290,"wspd":2,"visib":4.97,"altim":1019,"clouds":[],"obsTime":1779652800},"SBCA":{"icaoId":"SBCA","flightCategory":"MVFR","rawOb":"METAR SBCA 242000Z 03006KT 9999 BKN020 FEW025TCU SCT080 20/17 Q1019","temp":20,"dewp":17,"wdir":30,"wspd":6,"visib":"6+","altim":1019,"clouds":[{"cover":"BKN","base":2000},{"cover":"FEW","base":2500},{"cover":"SCT","base":8000}],"obsTime":1779652800},"SBES":{"icaoId":"SBES","flightCategory":"VFR","rawOb":"METAR SBES 242000Z VRB04KT CAVOK 22/// Q1018","temp":null,"dewp":null,"wdir":"VRB","wspd":4,"visib":"6+","altim":1018,"clouds":[],"obsTime":1779652800},"SBSM":{"icaoId":"SBSM","flightCategory":"VFR","rawOb":"METAR SBSM 242000Z 10008KT 9999 BKN035 17/13 Q1020","temp":17,"dewp":13,"wdir":100,"wspd":8,"visib":"6+","altim":1020,"clouds":[{"cover":"BKN","base":3500}],"obsTime":1779652800},"SBBH":{"icaoId":"SBBH","flightCategory":"VFR","rawOb":"METAR SBBH 242000Z 07003KT 9999 FEW049 25/16 Q1020","temp":25,"dewp":16,"wdir":70,"wspd":3,"visib":"6+","altim":1020,"clouds":[{"cover":"FEW","base":4900}],"obsTime":1779652800},"SBSR":{"icaoId":"SBSR","flightCategory":"VFR","rawOb":"METAR SBSR 242000Z 00000KT 9999 FEW040 BKN080 27/16 Q1018","temp":27,"dewp":16,"wdir":0,"wspd":0,"visib":"6+","altim":1018,"clouds":[{"cover":"FEW","base":4000},{"cover":"BKN","base":8000}],"obsTime":1779652800},"SBTF":{"icaoId":"SBTF","flightCategory":"VFR","rawOb":"METAR SBTF 242000Z 30003KT 9999 SCT016 BKN100 27/24 Q1011","temp":27,"dewp":24,"wdir":300,"wspd":3,"visib":"6+","altim":1011,"clouds":[{"cover":"SCT","base":1600},{"cover":"BKN","base":10000}],"obsTime":1779652800},"SBIP":{"icaoId":"SBIP","flightCategory":"VFR","rawOb":"METAR SBIP 242000Z AUTO 01005KT 9999 OVC048 24/18 Q1019","temp":24,"dewp":18,"wdir":10,"wspd":5,"visib":"6+","altim":1019,"clouds":[{"cover":"OVC","base":4800}],"obsTime":1779652800},"SBAX":{"icaoId":"SBAX","flightCategory":"VFR","rawOb":"METAR SBAX 242000Z AUTO 33005KT 9999 SCT037 BKN043 23/16 Q1021","temp":23,"dewp":16,"wdir":330,"wspd":5,"visib":"6+","altim":1021,"clouds":[{"cover":"SCT","base":3700},{"cover":"BKN","base":4300}],"obsTime":1779652800},"SBTT":{"icaoId":"SBTT","flightCategory":"MVFR","rawOb":"METAR SBTT 242000Z 16005KT 9999 BKN020 OVC030 25/21 Q1014","temp":25,"dewp":21,"wdir":160,"wspd":5,"visib":"6+","altim":1014,"clouds":[{"cover":"BKN","base":2000},{"cover":"OVC","base":3000}],"obsTime":1779652800},"SBTU":{"icaoId":"SBTU","flightCategory":"VFR","rawOb":"METAR SBTU 242100Z AUTO 31003KT 220V340 9999 // SCT048/// SCT056/// BKN074/// 29/24 Q1012","temp":29,"dewp":24,"wdir":310,"wspd":3,"visib":"6+","altim":1012,"clouds":[{"cover":"SCT","base":4800},{"cover":"SCT","base":5600},{"cover":"BKN","base":7400}],"obsTime":1779656400},"SBKG":{"icaoId":"SBKG","flightCategory":"MVFR","rawOb":"METAR SBKG 242000Z 10005KT 9999 BKN020 25/19 Q1015","temp":25,"dewp":19,"wdir":100,"wspd":5,"visib":"6+","altim":1015,"clouds":[{"cover":"BKN","base":2000}],"obsTime":1779652800},"SBUY":{"icaoId":"SBUY","flightCategory":"MVFR","rawOb":"METAR SBUY 242000Z 27002KT 9999 BKN025 25/23 Q1011","temp":25,"dewp":23,"wdir":270,"wspd":2,"visib":"6+","altim":1011,"clouds":[{"cover":"BKN","base":2500}],"obsTime":1779652800},"SBVH":{"icaoId":"SBVH","flightCategory":"VFR","rawOb":"METAR SBVH 242000Z 07004KT 9999 SCT030 27/19 Q1015","temp":27,"dewp":19,"wdir":70,"wspd":4,"visib":"6+","altim":1015,"clouds":[{"cover":"SCT","base":3000}],"obsTime":1779652800},"SBOI":{"icaoId":"SBOI","flightCategory":"VFR","rawOb":"METAR SBOI 242000Z AUTO 34004KT 9999 SCT043 26/25 Q1011","temp":26,"dewp":25,"wdir":340,"wspd":4,"visib":"6+","altim":1011,"clouds":[{"cover":"SCT","base":4300}],"obsTime":1779652800},"SBCC":{"icaoId":"SBCC","flightCategory":"VFR","rawOb":"METAR SBCC 242000Z 08008KT 350V120 9999 SCT020 31/17 Q1014","temp":31,"dewp":17,"wdir":80,"wspd":8,"visib":"6+","altim":1014,"clouds":[{"cover":"SCT","base":2000}],"obsTime":1779652800},"SBTA":{"icaoId":"SBTA","flightCategory":"VFR","rawOb":"METAR SBTA 242000Z VRB02KT 9999 -RA FEW030 SCT040 FEW045TCU BKN100 23/20 Q1018","temp":23,"dewp":20,"wdir":"VRB","wspd":2,"visib":"6+","altim":1018,"clouds":[{"cover":"FEW","base":3000},{"cover":"SCT","base":4000},{"cover":"FEW","base":4500},{"cover":"BKN","base":10000}],"obsTime":1779652800},"SBJP":{"icaoId":"SBJP","flightCategory":"VFR","rawOb":"METAR SBJP 242000Z 14005KT 9999 FEW023 BKN070 25/22 Q1014","temp":25,"dewp":22,"wdir":140,"wspd":5,"visib":"6+","altim":1014,"clouds":[{"cover":"FEW","base":2300},{"cover":"BKN","base":7000}],"obsTime":1779652800},"SBLE":{"icaoId":"SBLE","flightCategory":"MVFR","rawOb":"METAR SBLE 242000Z AUTO VRB02KT 6000 -RA FEW004 SCT007 OVC019 ///// Q////","temp":null,"dewp":null,"wdir":"VRB","wspd":2,"visib":3.73,"altim":null,"clouds":[{"cover":"FEW","base":400},{"cover":"SCT","base":700},{"cover":"OVC","base":1900}],"obsTime":1779652800},"SBJV":{"icaoId":"SBJV","flightCategory":"MVFR","rawOb":"METAR SBJV 242000Z 06002KT 9000 -RA FEW005 BKN030 BKN050 17/17 Q1020","temp":17,"dewp":17,"wdir":60,"wspd":2,"visib":5.59,"altim":1020,"clouds":[{"cover":"FEW","base":500},{"cover":"BKN","base":3000},{"cover":"BKN","base":5000}],"obsTime":1779652800},"SBNM":{"icaoId":"SBNM","flightCategory":"VFR","rawOb":"METAR SBNM 242000Z AUTO 13005KT CAVOK 20/12 Q1018","temp":20,"dewp":12,"wdir":130,"wspd":5,"visib":"6+","altim":1018,"clouds":[],"obsTime":1779652800},"SBPF":{"icaoId":"SBPF","flightCategory":"VFR","rawOb":"METAR SBPF 242000Z 09005KT CAVOK 18/11 Q1020","temp":18,"dewp":11,"wdir":90,"wspd":5,"visib":"6+","altim":1020,"clouds":[],"obsTime":1779652800},"SBIH":{"icaoId":"SBIH","flightCategory":"VFR","rawOb":"METAR SBIH 242000Z 22003KT 9999 -RA FEW010 FEW025TCU BKN100 26/25 Q1011","temp":26,"dewp":25,"wdir":220,"wspd":3,"visib":"6+","altim":1011,"clouds":[{"cover":"FEW","base":1000},{"cover":"FEW","base":2500},{"cover":"BKN","base":10000}],"obsTime":1779652800},"SBAN":{"icaoId":"SBAN","flightCategory":"VFR","rawOb":"METAR SBAN 242000Z 16006KT 9999 SCT030 24/16 Q1022","temp":24,"dewp":16,"wdir":160,"wspd":6,"visib":"6+","altim":1022,"clouds":[{"cover":"SCT","base":3000}],"obsTime":1779652800},"SBAF":{"icaoId":"SBAF","flightCategory":"MVFR","rawOb":"METAR SBAF 242000Z 18010KT 9999 BKN030 24/23 Q1018","temp":24,"dewp":23,"wdir":180,"wspd":10,"visib":"6+","altim":1018,"clouds":[{"cover":"BKN","base":3000}],"obsTime":1779652800},"SBGW":{"icaoId":"SBGW","flightCategory":"VFR","rawOb":"METAR SBGW 242000Z 01002KT 9999 FEW025 BKN100 22/17 Q1019","temp":22,"dewp":17,"wdir":10,"wspd":2,"visib":"6+","altim":1019,"clouds":[{"cover":"FEW","base":2500},{"cover":"BKN","base":10000}],"obsTime":1779652800},"SBJR":{"icaoId":"SBJR","flightCategory":"MVFR","rawOb":"METAR SBJR 242000Z 20005KT 9999 SCT015 BKN030 24/21 Q1018","temp":24,"dewp":21,"wdir":200,"wspd":5,"visib":"6+","altim":1018,"clouds":[{"cover":"SCT","base":1500},{"cover":"BKN","base":3000}],"obsTime":1779652800},"SBLS":{"icaoId":"SBLS","flightCategory":"VFR","rawOb":"METAR SBLS 242000Z 13007KT 9999 SCT040 24/17 Q1020","temp":24,"dewp":17,"wdir":130,"wspd":7,"visib":"6+","altim":1020,"clouds":[{"cover":"SCT","base":4000}],"obsTime":1779652800},"SBMT":{"icaoId":"SBMT","flightCategory":"IFR","rawOb":"METAR SBMT 242000Z 12007KT 4000 BR FEW014 BKN020 FEW030TCU 19/17 Q1020","temp":19,"dewp":17,"wdir":120,"wspd":7,"visib":2.49,"altim":1020,"clouds":[{"cover":"FEW","base":1400},{"cover":"BKN","base":2000},{"cover":"FEW","base":3000}],"obsTime":1779652800},"SBST":{"icaoId":"SBST","flightCategory":"IFR","rawOb":"METAR SBST 242000Z 03003KT 4000 -DZ BR OVC008 19/18 Q1019","temp":19,"dewp":18,"wdir":30,"wspd":3,"visib":2.49,"altim":1019,"clouds":[{"cover":"OVC","base":800}],"obsTime":1779652800},"SBTC":{"icaoId":"SBTC","flightCategory":"VFR","rawOb":"METAR SBTC 242000Z 19008KT 9999 FEW025 SCT080 26/21 Q1016","temp":26,"dewp":21,"wdir":190,"wspd":8,"visib":"6+","altim":1016,"clouds":[{"cover":"FEW","base":2500},{"cover":"SCT","base":8000}],"obsTime":1779652800}}}