{"updated":1776550853,"count":81,"data":{"SBLO":{"icaoId":"SBLO","flightCategory":"VFR","rawOb":"METAR SBLO 182100Z COR 21005KT 9999 FEW040 28/20 Q1009","temp":28,"dewp":20,"wdir":210,"wspd":5,"visib":"6+","altim":1009,"clouds":[{"cover":"FEW","base":4000}],"obsTime":1776546000},"SBBV":{"icaoId":"SBBV","flightCategory":"VFR","rawOb":"METAR SBBV 182100Z 15007KT 9999 SCT040 FEW045TCU BKN070 29/23 Q1007","temp":29,"dewp":23,"wdir":150,"wspd":7,"visib":"6+","altim":1007,"clouds":[{"cover":"SCT","base":4000},{"cover":"FEW","base":4500},{"cover":"BKN","base":7000}],"obsTime":1776546000},"SBMA":{"icaoId":"SBMA","flightCategory":"VFR","rawOb":"METAR SBMA 182100Z 26003KT 9999 SCT020 FEW025TCU SCT080 29/25 Q1005","temp":29,"dewp":25,"wdir":260,"wspd":3,"visib":"6+","altim":1005,"clouds":[{"cover":"SCT","base":2000},{"cover":"FEW","base":2500},{"cover":"SCT","base":8000}],"obsTime":1776546000},"SBME":{"icaoId":"SBME","flightCategory":"VFR","rawOb":"METAR SBME 182100Z 08002KT CAVOK 26/23 Q1006","temp":26,"dewp":23,"wdir":80,"wspd":2,"visib":"6+","altim":1006,"clouds":[],"obsTime":1776546000},"SBCP":{"icaoId":"SBCP","flightCategory":"VFR","rawOb":"METAR SBCP 182100Z 08004KT CAVOK 26/22 Q1007","temp":26,"dewp":22,"wdir":80,"wspd":4,"visib":"6+","altim":1007,"clouds":[],"obsTime":1776546000},"SBMG":{"icaoId":"SBMG","flightCategory":"VFR","rawOb":"METAR SBMG 182100Z 20007G17KT 9999 FEW035 FEW035TCU 27/20 Q1009","temp":27,"dewp":20,"wdir":200,"wspd":7,"visib":"6+","altim":1009,"clouds":[{"cover":"FEW","base":3500},{"cover":"FEW","base":3500}],"obsTime":1776546000},"SBFL":{"icaoId":"SBFL","flightCategory":"VFR","rawOb":"METAR SBFL 182100Z 14007KT 110V170 CAVOK 24/19 Q1007","temp":24,"dewp":19,"wdir":140,"wspd":7,"visib":"6+","altim":1007,"clouds":[],"obsTime":1776546000},"SBMK":{"icaoId":"SBMK","flightCategory":"VFR","rawOb":"METAR SBMK 182100Z 15005KT CAVOK 27/15 Q1010","temp":27,"dewp":15,"wdir":150,"wspd":5,"visib":"6+","altim":1010,"clouds":[],"obsTime":1776546000},"SBVT":{"icaoId":"SBVT","flightCategory":"VFR","rawOb":"METAR SBVT 182100Z 05008KT 9999 FEW045 SCT100 27/23 Q1007","temp":27,"dewp":23,"wdir":50,"wspd":8,"visib":"6+","altim":1007,"clouds":[{"cover":"FEW","base":4500},{"cover":"SCT","base":10000}],"obsTime":1776546000},"SBMO":{"icaoId":"SBMO","flightCategory":"VFR","rawOb":"METAR SBMO 182100Z 09007KT 9999 FEW017 26/25 Q1008","temp":26,"dewp":25,"wdir":90,"wspd":7,"visib":"6+","altim":1008,"clouds":[{"cover":"FEW","base":1700}],"obsTime":1776546000},"SBFZ":{"icaoId":"SBFZ","flightCategory":"VFR","rawOb":"METAR SBFZ 182100Z 08010KT 9999 FEW020 28/25 Q1006","temp":28,"dewp":25,"wdir":80,"wspd":10,"visib":"6+","altim":1006,"clouds":[{"cover":"FEW","base":2000}],"obsTime":1776546000},"SBGL":{"icaoId":"SBGL","flightCategory":"MVFR","rawOb":"METAR SBGL 182100Z 14008KT 8000 FEW030 26/20 Q1006","temp":26,"dewp":20,"wdir":140,"wspd":8,"visib":4.97,"altim":1006,"clouds":[{"cover":"FEW","base":3000}],"obsTime":1776546000},"SBUR":{"icaoId":"SBUR","flightCategory":"VFR","rawOb":"METAR SBUR 182100Z 17004KT CAVOK 27/17 Q1011","temp":27,"dewp":17,"wdir":170,"wspd":4,"visib":"6+","altim":1011,"clouds":[],"obsTime":1776546000},"SBMQ":{"icaoId":"SBMQ","flightCategory":"LIFR","rawOb":"SPECI SBMQ 182035Z 01010KT 1000 +TSRA OVC010 //////CB 25/25 Q1007","temp":25,"dewp":25,"wdir":10,"wspd":10,"visib":0.62,"altim":1007,"clouds":[{"cover":"OVC","base":1000}],"obsTime":1776544500},"SBNT":{"icaoId":"SBNT","flightCategory":"VFR","rawOb":"METAR SBNT 182100Z 15005KT 9999 SCT017 SCT080 27/24 Q1007","temp":27,"dewp":24,"wdir":150,"wspd":5,"visib":"6+","altim":1007,"clouds":[{"cover":"SCT","base":1700},{"cover":"SCT","base":8000}],"obsTime":1776546000},"SBBE":{"icaoId":"SBBE","flightCategory":"IFR","rawOb":"SPECI SBBE 182036Z 10009KT 4000 -RA BR SCT009 BKN020 OVC100 24/24 Q1006 RERA","temp":24,"dewp":24,"wdir":100,"wspd":9,"visib":2.49,"altim":1006,"clouds":[{"cover":"SCT","base":900},{"cover":"BKN","base":2000},{"cover":"OVC","base":10000}],"obsTime":1776544560},"SBPA":{"icaoId":"SBPA","flightCategory":"VFR","rawOb":"METAR SBPA 182100Z 29007KT CAVOK 25/15 Q1009","temp":25,"dewp":15,"wdir":290,"wspd":7,"visib":"6+","altim":1009,"clouds":[],"obsTime":1776546000},"SBCT":{"icaoId":"SBCT","flightCategory":"VFR","rawOb":"METAR SBCT 182100Z 19008KT CAVOK 24/12 Q1012","temp":24,"dewp":12,"wdir":190,"wspd":8,"visib":"6+","altim":1012,"clouds":[],"obsTime":1776546000},"SBGO":{"icaoId":"SBGO","flightCategory":"VFR","rawOb":"METAR SBGO 182100Z 14005KT 9999 FEW043 29/18 Q1011","temp":29,"dewp":18,"wdir":140,"wspd":5,"visib":"6+","altim":1011,"clouds":[{"cover":"FEW","base":4300}],"obsTime":1776546000},"SBPJ":{"icaoId":"SBPJ","flightCategory":"VFR","rawOb":"METAR SBPJ 182100Z 20005KT 9999 FEW027 SCT100 27/24 Q1007","temp":27,"dewp":24,"wdir":200,"wspd":5,"visib":"6+","altim":1007,"clouds":[{"cover":"FEW","base":2700},{"cover":"SCT","base":10000}],"obsTime":1776546000},"SBPV":{"icaoId":"SBPV","flightCategory":"VFR","rawOb":"METAR SBPV 182100Z 34004KT 9999 SCT025 FEW030TCU 29/26 Q1005","temp":29,"dewp":26,"wdir":340,"wspd":4,"visib":"6+","altim":1005,"clouds":[{"cover":"SCT","base":2500},{"cover":"FEW","base":3000}],"obsTime":1776546000},"SBCF":{"icaoId":"SBCF","flightCategory":"VFR","rawOb":"METAR SBCF 182100Z 27003KT 9999 FEW048 25/16 Q1012","temp":25,"dewp":16,"wdir":270,"wspd":3,"visib":"6+","altim":1012,"clouds":[{"cover":"FEW","base":4800}],"obsTime":1776546000},"SBRB":{"icaoId":"SBRB","flightCategory":"VFR","rawOb":"METAR SBRB 182100Z 29007KT 9999 VCSH SCT020 FEW035TCU SCT100 27/24 Q1006","temp":27,"dewp":24,"wdir":290,"wspd":7,"visib":"6+","altim":1006,"clouds":[{"cover":"SCT","base":2000},{"cover":"FEW","base":3500},{"cover":"SCT","base":10000}],"obsTime":1776546000},"SBGR":{"icaoId":"SBGR","flightCategory":"VFR","rawOb":"METAR SBGR 182100Z 28004KT 9999 FEW050TCU 26/18 Q1011","temp":26,"dewp":18,"wdir":280,"wspd":4,"visib":"6+","altim":1011,"clouds":[{"cover":"FEW","base":5000}],"obsTime":1776546000},"SBRF":{"icaoId":"SBRF","flightCategory":"VFR","rawOb":"METAR SBRF 182100Z 13009KT 9999 SCT021 28/25 Q1007","temp":28,"dewp":25,"wdir":130,"wspd":9,"visib":"6+","altim":1007,"clouds":[{"cover":"SCT","base":2100}],"obsTime":1776546000},"SBCZ":{"icaoId":"SBCZ","flightCategory":"MVFR","rawOb":"METAR SBCZ 182100Z 36004KT 8000 VCSH SCT030 FEW030TCU BKN090 24/23 Q1007","temp":24,"dewp":23,"wdir":360,"wspd":4,"visib":4.97,"altim":1007,"clouds":[{"cover":"SCT","base":3000},{"cover":"FEW","base":3000},{"cover":"BKN","base":9000}],"obsTime":1776546000},"SBIL":{"icaoId":"SBIL","flightCategory":"VFR","rawOb":"METAR SBIL 182100Z 12005KT 9999 SCT020 SCT080 28/24 Q1008","temp":28,"dewp":24,"wdir":120,"wspd":5,"visib":"6+","altim":1008,"clouds":[{"cover":"SCT","base":2000},{"cover":"SCT","base":8000}],"obsTime":1776546000},"SBSG":{"icaoId":"SBSG","flightCategory":"MVFR","rawOb":"METAR SBSG 182100Z 13005KT 100V180 9999 VCSH BKN020 FEW023TCU 26/25 Q1007","temp":26,"dewp":25,"wdir":130,"wspd":5,"visib":"6+","altim":1007,"clouds":[{"cover":"BKN","base":2000},{"cover":"FEW","base":2300}],"obsTime":1776546000},"SBBR":{"icaoId":"SBBR","flightCategory":"VFR","rawOb":"METAR SBBR 182100Z 14006KT 100V230 9999 FEW030 FEW040TCU 27/15 Q1013","temp":27,"dewp":15,"wdir":140,"wspd":6,"visib":"6+","altim":1013,"clouds":[{"cover":"FEW","base":3000},{"cover":"FEW","base":4000}],"obsTime":1776546000},"SBSL":{"icaoId":"SBSL","flightCategory":"MVFR","rawOb":"METAR SBSL 182100Z 32005KT 9999 TSRA BKN012 FEW025CB BKN080 24/23 Q1007","temp":24,"dewp":23,"wdir":320,"wspd":5,"visib":"6+","altim":1007,"clouds":[{"cover":"BKN","base":1200},{"cover":"FEW","base":2500},{"cover":"BKN","base":8000}],"obsTime":1776546000},"SBFI":{"icaoId":"SBFI","flightCategory":"VFR","rawOb":"METAR SBFI 182100Z 20003KT CAVOK 27/19 Q1008","temp":27,"dewp":19,"wdir":200,"wspd":3,"visib":"6+","altim":1008,"clouds":[],"obsTime":1776546000},"SBJU":{"icaoId":"SBJU","flightCategory":"VFR","rawOb":"METAR SBJU 182100Z 00000KT 9999 SCT020 29/22 Q1007","temp":29,"dewp":22,"wdir":0,"wspd":0,"visib":"6+","altim":1007,"clouds":[{"cover":"SCT","base":2000}],"obsTime":1776546000},"SBSN":{"icaoId":"SBSN","flightCategory":"IFR","rawOb":"METAR SBSN 182100Z 31011KT 4000 -RA SCT007 BKN012 OVC100 25/24 Q1008","temp":25,"dewp":24,"wdir":310,"wspd":11,"visib":2.49,"altim":1008,"clouds":[{"cover":"SCT","base":700},{"cover":"BKN","base":1200},{"cover":"OVC","base":10000}],"obsTime":1776546000},"SBSP":{"icaoId":"SBSP","flightCategory":"VFR","rawOb":"METAR SBSP 182100Z 28006KT 240V320 9999 VCSH FEW045TCU BKN050 26/17 Q1012","temp":26,"dewp":17,"wdir":280,"wspd":6,"visib":"6+","altim":1012,"clouds":[{"cover":"FEW","base":4500},{"cover":"BKN","base":5000}],"obsTime":1776546000},"SBEG":{"icaoId":"SBEG","flightCategory":"VFR","rawOb":"METAR SBEG 182100Z 05003KT 9999 SCT012 SCT020 FEW025TCU 26/24 Q1007","temp":26,"dewp":24,"wdir":50,"wspd":3,"visib":"6+","altim":1007,"clouds":[{"cover":"SCT","base":1200},{"cover":"SCT","base":2000},{"cover":"FEW","base":2500}],"obsTime":1776546000},"SBKP":{"icaoId":"SBKP","flightCategory":"VFR","rawOb":"METAR SBKP 182100Z 33007KT 9999 VCSH VCTS FEW040 FEW045CB 26/20 Q1010","temp":26,"dewp":20,"wdir":330,"wspd":7,"visib":"6+","altim":1010,"clouds":[{"cover":"FEW","base":4000},{"cover":"FEW","base":4500}],"obsTime":1776546000},"SBSV":{"icaoId":"SBSV","flightCategory":"VFR","rawOb":"METAR SBSV 182100Z 11007KT 9999 FEW023 28/23 Q1008","temp":28,"dewp":23,"wdir":110,"wspd":7,"visib":"6+","altim":1008,"clouds":[{"cover":"FEW","base":2300}],"obsTime":1776546000},"SBCG":{"icaoId":"SBCG","flightCategory":"VFR","rawOb":"METAR SBCG 182100Z 22004KT 9999 SCT040 28/22 Q1009","temp":28,"dewp":22,"wdir":220,"wspd":4,"visib":"6+","altim":1009,"clouds":[{"cover":"SCT","base":4000}],"obsTime":1776546000},"SBTE":{"icaoId":"SBTE","flightCategory":"VFR","rawOb":"METAR SBTE 182100Z 08002KT 9999 FEW025TCU 31/24 Q1004","temp":31,"dewp":24,"wdir":80,"wspd":2,"visib":"6+","altim":1004,"clouds":[{"cover":"FEW","base":2500}],"obsTime":1776546000},"SBUL":{"icaoId":"SBUL","flightCategory":"VFR","rawOb":"METAR SBUL 182100Z 03005KT 9999 FEW048 27/15 Q1012","temp":27,"dewp":15,"wdir":30,"wspd":5,"visib":"6+","altim":1012,"clouds":[{"cover":"FEW","base":4800}],"obsTime":1776546000},"SBCB":{"icaoId":"SBCB","flightCategory":"VFR","rawOb":"METAR SBCB 182100Z 06005KT 9999 SCT015 BKN100 25/23 Q1007","temp":25,"dewp":23,"wdir":60,"wspd":5,"visib":"6+","altim":1007,"clouds":[{"cover":"SCT","base":1500},{"cover":"BKN","base":10000}],"obsTime":1776546000},"SBCR":{"icaoId":"SBCR","flightCategory":"VFR","rawOb":"METAR SBCR 182100Z 02004KT 9999 FEW045 32/22 Q1005","temp":32,"dewp":22,"wdir":20,"wspd":4,"visib":"6+","altim":1005,"clouds":[{"cover":"FEW","base":4500}],"obsTime":1776546000},"SBHT":{"icaoId":"SBHT","flightCategory":"MVFR","rawOb":"METAR SBHT 182100Z 28004KT 9999 BKN020 FEW023TCU SCT100 24/24 Q1007 RERA","temp":24,"dewp":24,"wdir":280,"wspd":4,"visib":"6+","altim":1007,"clouds":[{"cover":"BKN","base":2000},{"cover":"FEW","base":2300},{"cover":"SCT","base":10000}],"obsTime":1776546000},"SBAT":{"icaoId":"SBAT","flightCategory":"VFR","rawOb":"METAR SBAT 182100Z 00000KT 9999 FEW030 FEW035TCU 27/26 Q1007","temp":27,"dewp":26,"wdir":0,"wspd":0,"visib":"6+","altim":1007,"clouds":[{"cover":"FEW","base":3000},{"cover":"FEW","base":3500}],"obsTime":1776546000},"SBBH":{"icaoId":"SBBH","flightCategory":"VFR","rawOb":"METAR SBBH 182100Z 27004KT 9999 FEW049 25/16 Q1011","temp":25,"dewp":16,"wdir":270,"wspd":4,"visib":"6+","altim":1011,"clouds":[{"cover":"FEW","base":4900}],"obsTime":1776546000},"SBUY":{"icaoId":"SBUY","flightCategory":"VFR","rawOb":"METAR SBUY 182100Z 03003KT 9999 SCT020 FEW030TCU BKN100 27/24 Q1005","temp":27,"dewp":24,"wdir":30,"wspd":3,"visib":"6+","altim":1005,"clouds":[{"cover":"SCT","base":2000},{"cover":"FEW","base":3000},{"cover":"BKN","base":10000}],"obsTime":1776546000},"SBVH":{"icaoId":"SBVH","flightCategory":"VFR","rawOb":"METAR SBVH 182100Z 16004KT 9999 SCT035 BKN100 25/23 Q1009","temp":25,"dewp":23,"wdir":160,"wspd":4,"visib":"6+","altim":1009,"clouds":[{"cover":"SCT","base":3500},{"cover":"BKN","base":10000}],"obsTime":1776546000},"SBPL":{"icaoId":"SBPL","flightCategory":"VFR","rawOb":"METAR SBPL 182100Z 08003KT 9999 FEW035 31/18 Q1006","temp":31,"dewp":18,"wdir":80,"wspd":3,"visib":"6+","altim":1006,"clouds":[{"cover":"FEW","base":3500}],"obsTime":1776546000},"SBAU":{"icaoId":"SBAU","flightCategory":"VFR","rawOb":"METAR SBAU 182200Z 21006KT 9999 FEW040 FEW050TCU 25/21 Q1009","temp":25,"dewp":21,"wdir":210,"wspd":6,"visib":"6+","altim":1009,"clouds":[{"cover":"FEW","base":4000},{"cover":"FEW","base":5000}],"obsTime":1776549600},"SBCO":{"icaoId":"SBCO","flightCategory":"VFR","rawOb":"METAR SBCO 182100Z 29005KT CAVOK 24/15 Q1009","temp":24,"dewp":15,"wdir":290,"wspd":5,"visib":"6+","altim":1009,"clouds":[],"obsTime":1776546000},"SBDN":{"icaoId":"SBDN","flightCategory":"VFR","rawOb":"METAR SBDN 182100Z 21004KT 9999 SCT050 FEW060TCU 30/20 Q1008","temp":30,"dewp":20,"wdir":210,"wspd":4,"visib":"6+","altim":1008,"clouds":[{"cover":"SCT","base":5000},{"cover":"FEW","base":6000}],"obsTime":1776546000},"SBPS":{"icaoId":"SBPS","flightCategory":"VFR","rawOb":"METAR SBPS 182100Z 06008KT 9999 FEW020 27/22 Q1008","temp":27,"dewp":22,"wdir":60,"wspd":8,"visib":"6+","altim":1008,"clouds":[{"cover":"FEW","base":2000}],"obsTime":1776546000},"SBSC":{"icaoId":"SBSC","flightCategory":"VFR","rawOb":"METAR SBSC 182100Z 23003KT 9999 FEW030 SCT100 24/21 Q1006","temp":24,"dewp":21,"wdir":230,"wspd":3,"visib":"6+","altim":1006,"clouds":[{"cover":"FEW","base":3000},{"cover":"SCT","base":10000}],"obsTime":1776546000},"SBAX":{"icaoId":"SBAX","flightCategory":"VFR","rawOb":"METAR SBAX 182100Z AUTO 33003KT CAVOK 25/15 Q1013","temp":25,"dewp":15,"wdir":330,"wspd":3,"visib":"6+","altim":1013,"clouds":[],"obsTime":1776546000},"SBBU":{"icaoId":"SBBU","flightCategory":"VFR","rawOb":"METAR SBBU 182100Z 02003KT 9999 FEW035 27/22 Q1009","temp":27,"dewp":22,"wdir":20,"wspd":3,"visib":"6+","altim":1009,"clouds":[{"cover":"FEW","base":3500}],"obsTime":1776546000},"SBSJ":{"icaoId":"SBSJ","flightCategory":"VFR","rawOb":"METAR SBSJ 182100Z 29005KT 9999 FEW048 26/18 Q1010","temp":26,"dewp":18,"wdir":290,"wspd":5,"visib":"6+","altim":1010,"clouds":[{"cover":"FEW","base":4800}],"obsTime":1776546000},"SBSM":{"icaoId":"SBSM","flightCategory":"VFR","rawOb":"METAR SBSM 182100Z 00000KT CAVOK 21/16 Q1009","temp":21,"dewp":16,"wdir":0,"wspd":0,"visib":"6+","altim":1009,"clouds":[],"obsTime":1776546000},"SBIP":{"icaoId":"SBIP","flightCategory":"VFR","rawOb":"METAR SBIP 182100Z AUTO 20002KT CAVOK 23/20 Q1008","temp":23,"dewp":20,"wdir":200,"wspd":2,"visib":"6+","altim":1008,"clouds":[],"obsTime":1776546000},"SBSR":{"icaoId":"SBSR","flightCategory":"VFR","rawOb":"METAR SBSR 182100Z 22005KT 9999 SCT025 FEW035TCU SCT070 29/17 Q1009","temp":29,"dewp":17,"wdir":220,"wspd":5,"visib":"6+","altim":1009,"clouds":[{"cover":"SCT","base":2500},{"cover":"FEW","base":3500},{"cover":"SCT","base":7000}],"obsTime":1776546000},"SBCA":{"icaoId":"SBCA","flightCategory":"VFR","rawOb":"METAR SBCA 182100Z 16006KT CAVOK 23/18 Q1012","temp":23,"dewp":18,"wdir":160,"wspd":6,"visib":"6+","altim":1012,"clouds":[],"obsTime":1776546000},"SBTF":{"icaoId":"SBTF","flightCategory":"VFR","rawOb":"METAR SBTF 182100Z 04004KT 9999 SCT018 SCT090 31/25 Q1005","temp":31,"dewp":25,"wdir":40,"wspd":4,"visib":"6+","altim":1005,"clouds":[{"cover":"SCT","base":1800},{"cover":"SCT","base":9000}],"obsTime":1776546000},"SBAR":{"icaoId":"SBAR","flightCategory":"MVFR","rawOb":"METAR SBAR 182100Z 14007KT 9999 BKN023 28/23 Q1007","temp":28,"dewp":23,"wdir":140,"wspd":7,"visib":"6+","altim":1007,"clouds":[{"cover":"BKN","base":2300}],"obsTime":1776546000},"SBTT":{"icaoId":"SBTT","flightCategory":"VFR","rawOb":"METAR SBTT 182100Z 08005KT 020V110 9999 SCT013 BKN100 25/21 Q1007","temp":25,"dewp":21,"wdir":80,"wspd":5,"visib":"6+","altim":1007,"clouds":[{"cover":"SCT","base":1300},{"cover":"BKN","base":10000}],"obsTime":1776546000},"SBKG":{"icaoId":"SBKG","flightCategory":"MVFR","rawOb":"METAR SBKG 182100Z 10006KT 9999 BKN018 24/23 Q1009","temp":24,"dewp":23,"wdir":100,"wspd":6,"visib":"6+","altim":1009,"clouds":[{"cover":"BKN","base":1800}],"obsTime":1776546000},"SBOI":{"icaoId":"SBOI","flightCategory":"VFR","rawOb":"METAR SBOI 182100Z AUTO 36006KT 9999 FEW009 26/25 Q1007","temp":26,"dewp":25,"wdir":360,"wspd":6,"visib":"6+","altim":1007,"clouds":[{"cover":"FEW","base":900}],"obsTime":1776546000},"SBPB":{"icaoId":"SBPB","flightCategory":"VFR","rawOb":"METAR SBPB 182100Z 00000KT 9999 -TSRA SCT010 SCT012 FEW025CB 25/25 Q1006","temp":25,"dewp":25,"wdir":0,"wspd":0,"visib":"6+","altim":1006,"clouds":[{"cover":"SCT","base":1000},{"cover":"SCT","base":1200},{"cover":"FEW","base":2500}],"obsTime":1776546000},"SBCJ":{"icaoId":"SBCJ","flightCategory":"VFR","rawOb":"METAR SBCJ 182100Z 00000KT CAVOK 22/21 Q1009","temp":22,"dewp":21,"wdir":0,"wspd":0,"visib":"6+","altim":1009,"clouds":[],"obsTime":1776546000},"SBES":{"icaoId":"SBES","flightCategory":"VFR","rawOb":"METAR SBES 182100Z 04003KT 360V080 CAVOK 24/// Q1007","temp":null,"dewp":null,"wdir":40,"wspd":3,"visib":"6+","altim":1007,"clouds":[],"obsTime":1776546000},"SBPP":{"icaoId":"SBPP","flightCategory":"VFR","rawOb":"METAR SBPP 182100Z 19006KT 9999 FEW020 27/20 Q1010","temp":27,"dewp":20,"wdir":190,"wspd":6,"visib":"6+","altim":1010,"clouds":[{"cover":"FEW","base":2000}],"obsTime":1776546000},"SBJP":{"icaoId":"SBJP","flightCategory":"VFR","rawOb":"METAR SBJP 182100Z 12008KT 9999 FEW020 SCT070 26/24 Q1007","temp":26,"dewp":24,"wdir":120,"wspd":8,"visib":"6+","altim":1007,"clouds":[{"cover":"FEW","base":2000},{"cover":"SCT","base":7000}],"obsTime":1776546000},"SBAN":{"icaoId":"SBAN","flightCategory":"VFR","rawOb":"METAR SBAN 182100Z 19005KT 9999 SCT045 25/17 Q1014","temp":25,"dewp":17,"wdir":190,"wspd":5,"visib":"6+","altim":1014,"clouds":[{"cover":"SCT","base":4500}],"obsTime":1776546000},"SBJV":{"icaoId":"SBJV","flightCategory":"VFR","rawOb":"METAR SBJV 182100Z 14004KT CAVOK 26/20 Q1006","temp":26,"dewp":20,"wdir":140,"wspd":4,"visib":"6+","altim":1006,"clouds":[],"obsTime":1776546000},"SBLE":{"icaoId":"SBLE","flightCategory":"VFR","rawOb":"METAR SBLE 182100Z AUTO 00000KT CAVOK 26/24 Q1009","temp":26,"dewp":24,"wdir":0,"wspd":0,"visib":"6+","altim":1009,"clouds":[],"obsTime":1776546000},"SBAF":{"icaoId":"SBAF","flightCategory":"VFR","rawOb":"METAR SBAF 182100Z 23003KT 9999 FEW030TCU 26/22 Q1006","temp":26,"dewp":22,"wdir":230,"wspd":3,"visib":"6+","altim":1006,"clouds":[{"cover":"FEW","base":3000}],"obsTime":1776546000},"SBGW":{"icaoId":"SBGW","flightCategory":"VFR","rawOb":"METAR SBGW 182100Z VRB02KT 9999 SCT020 FEW030TCU BKN070 22/18 Q1010 RETS","temp":22,"dewp":18,"wdir":"VRB","wspd":2,"visib":"6+","altim":1010,"clouds":[{"cover":"SCT","base":2000},{"cover":"FEW","base":3000},{"cover":"BKN","base":7000}],"obsTime":1776546000},"SBJR":{"icaoId":"SBJR","flightCategory":"VFR","rawOb":"METAR SBJR 182100Z 00000KT 9999 FEW035 25/22 Q1006","temp":25,"dewp":22,"wdir":0,"wspd":0,"visib":"6+","altim":1006,"clouds":[{"cover":"FEW","base":3500}],"obsTime":1776546000},"SBLS":{"icaoId":"SBLS","flightCategory":"VFR","rawOb":"METAR SBLS 182100Z 28004KT CAVOK 25/16 Q1011","temp":25,"dewp":16,"wdir":280,"wspd":4,"visib":"6+","altim":1011,"clouds":[],"obsTime":1776546000},"SBMT":{"icaoId":"SBMT","flightCategory":"VFR","rawOb":"METAR SBMT 182100Z 27006KT 9999 SCT030 FEW040TCU BKN070 25/17 Q1010","temp":25,"dewp":17,"wdir":270,"wspd":6,"visib":"6+","altim":1010,"clouds":[{"cover":"SCT","base":3000},{"cover":"FEW","base":4000},{"cover":"BKN","base":7000}],"obsTime":1776546000},"SBIH":{"icaoId":"SBIH","flightCategory":"VFR","rawOb":"METAR SBIH 182100Z 31004KT 9999 SCT013 BKN100 26/24 Q1008","temp":26,"dewp":24,"wdir":310,"wspd":4,"visib":"6+","altim":1008,"clouds":[{"cover":"SCT","base":1300},{"cover":"BKN","base":10000}],"obsTime":1776546000},"SBST":{"icaoId":"SBST","flightCategory":"MVFR","rawOb":"METAR SBST 182100Z 20003KT 7000 FEW020 OVC030 25/22 Q1007","temp":25,"dewp":22,"wdir":200,"wspd":3,"visib":4.35,"altim":1007,"clouds":[{"cover":"FEW","base":2000},{"cover":"OVC","base":3000}],"obsTime":1776546000},"SBTA":{"icaoId":"SBTA","flightCategory":"VFR","rawOb":"METAR SBTA 182100Z VRB01KT 9999 FEW035 SCT100 25/19 Q1009","temp":25,"dewp":19,"wdir":"VRB","wspd":1,"visib":"6+","altim":1009,"clouds":[{"cover":"FEW","base":3500},{"cover":"SCT","base":10000}],"obsTime":1776546000}}}