{"updated":1774713039,"count":87,"data":{"SBRB":{"icaoId":"SBRB","flightCategory":"VFR","rawOb":"METAR SBRB 281400Z 04006KT 9999 FEW005 BKN100 25/24 Q1014","temp":25,"dewp":24,"wdir":40,"wspd":6,"visib":"6+","altim":1014,"clouds":[{"cover":"FEW","base":500},{"cover":"BKN","base":10000}],"obsTime":1774706400},"SBPV":{"icaoId":"SBPV","flightCategory":"MVFR","rawOb":"METAR SBPV 281400Z 09007KT 9999 BKN012 27/23 Q1013","temp":27,"dewp":23,"wdir":90,"wspd":7,"visib":"6+","altim":1013,"clouds":[{"cover":"BKN","base":1200}],"obsTime":1774706400},"SBAT":{"icaoId":"SBAT","flightCategory":"VFR","rawOb":"METAR SBAT 281400Z 11005KT 9999 SCT018 BKN095 26/22 Q1015","temp":26,"dewp":22,"wdir":110,"wspd":5,"visib":"6+","altim":1015,"clouds":[{"cover":"SCT","base":1800},{"cover":"BKN","base":9500}],"obsTime":1774706400},"SBBE":{"icaoId":"SBBE","flightCategory":"MVFR","rawOb":"METAR SBBE 281400Z 06006KT 9999 BKN030 30/24 Q1011","temp":30,"dewp":24,"wdir":60,"wspd":6,"visib":"6+","altim":1011,"clouds":[{"cover":"BKN","base":3000}],"obsTime":1774706400},"SBBR":{"icaoId":"SBBR","flightCategory":"VFR","rawOb":"METAR SBBR 281400Z 11014KT 9999 SCT025 SCT045 24/18 Q1022","temp":24,"dewp":18,"wdir":110,"wspd":14,"visib":"6+","altim":1022,"clouds":[{"cover":"SCT","base":2500},{"cover":"SCT","base":4500}],"obsTime":1774706400},"SBBV":{"icaoId":"SBBV","flightCategory":"MVFR","rawOb":"METAR SBBV 281400Z 08005KT 9999 BKN030 FEW035TCU SCT100 26/24 Q1015","temp":26,"dewp":24,"wdir":80,"wspd":5,"visib":"6+","altim":1015,"clouds":[{"cover":"BKN","base":3000},{"cover":"FEW","base":3500},{"cover":"SCT","base":10000}],"obsTime":1774706400},"SBCB":{"icaoId":"SBCB","flightCategory":"VFR","rawOb":"METAR SBCB 281400Z 11008KT 9999 FEW020 SCT040 27/23 Q1020","temp":27,"dewp":23,"wdir":110,"wspd":8,"visib":"6+","altim":1020,"clouds":[{"cover":"FEW","base":2000},{"cover":"SCT","base":4000}],"obsTime":1774706400},"SBCF":{"icaoId":"SBCF","flightCategory":"MVFR","rawOb":"METAR SBCF 281400Z 12011KT 9999 BKN030 24/17 Q1023","temp":24,"dewp":17,"wdir":120,"wspd":11,"visib":"6+","altim":1023,"clouds":[{"cover":"BKN","base":3000}],"obsTime":1774706400},"SBCG":{"icaoId":"SBCG","flightCategory":"VFR","rawOb":"METAR SBCG 281400Z 06012KT 9999 FEW030 30/20 Q1018","temp":30,"dewp":20,"wdir":60,"wspd":12,"visib":"6+","altim":1018,"clouds":[{"cover":"FEW","base":3000}],"obsTime":1774706400},"SBCP":{"icaoId":"SBCP","flightCategory":"VFR","rawOb":"METAR SBCP 281400Z 08005KT 9999 SCT015 30/23 Q1019","temp":30,"dewp":23,"wdir":80,"wspd":5,"visib":"6+","altim":1019,"clouds":[{"cover":"SCT","base":1500}],"obsTime":1774706400},"SBCR":{"icaoId":"SBCR","flightCategory":"VFR","rawOb":"METAR SBCR 281400Z 05007KT 010V100 9999 FEW020 SCT066 28/23 Q1015","temp":28,"dewp":23,"wdir":50,"wspd":7,"visib":"6+","altim":1015,"clouds":[{"cover":"FEW","base":2000},{"cover":"SCT","base":6600}],"obsTime":1774706400},"SBCT":{"icaoId":"SBCT","flightCategory":"VFR","rawOb":"METAR SBCT 281400Z 08008KT 040V120 9999 FEW030 24/17 Q1024","temp":24,"dewp":17,"wdir":80,"wspd":8,"visib":"6+","altim":1024,"clouds":[{"cover":"FEW","base":3000}],"obsTime":1774706400},"SBCZ":{"icaoId":"SBCZ","flightCategory":"VFR","rawOb":"METAR SBCZ 281400Z VRB01KT 9999 SCT008 28/25 Q1013","temp":28,"dewp":25,"wdir":"VRB","wspd":1,"visib":"6+","altim":1013,"clouds":[{"cover":"SCT","base":800}],"obsTime":1774706400},"SBEG":{"icaoId":"SBEG","flightCategory":"VFR","rawOb":"METAR SBEG 281400Z VRB02KT 9999 SCT008 SCT020 27/24 Q1013","temp":27,"dewp":24,"wdir":"VRB","wspd":2,"visib":"6+","altim":1013,"clouds":[{"cover":"SCT","base":800},{"cover":"SCT","base":2000}],"obsTime":1774706400},"SBFI":{"icaoId":"SBFI","flightCategory":"VFR","rawOb":"METAR SBFI 281400Z 05006KT CAVOK 31/23 Q1018","temp":31,"dewp":23,"wdir":50,"wspd":6,"visib":"6+","altim":1018,"clouds":[],"obsTime":1774706400},"SBFL":{"icaoId":"SBFL","flightCategory":"VFR","rawOb":"METAR SBFL 281400Z 35013KT 9999 FEW033 30/23 Q1019","temp":30,"dewp":23,"wdir":350,"wspd":13,"visib":"6+","altim":1019,"clouds":[{"cover":"FEW","base":3300}],"obsTime":1774706400},"SBFZ":{"icaoId":"SBFZ","flightCategory":"VFR","rawOb":"METAR SBFZ 281400Z 14009KT 9999 VCSH SCT015 FEW020TCU 28/25 Q1011","temp":28,"dewp":25,"wdir":140,"wspd":9,"visib":"6+","altim":1011,"clouds":[{"cover":"SCT","base":1500},{"cover":"FEW","base":2000}],"obsTime":1774706400},"SBGL":{"icaoId":"SBGL","flightCategory":"VFR","rawOb":"METAR SBGL 281400Z 07008KT 9999 FEW025 30/20 Q1019","temp":30,"dewp":20,"wdir":70,"wspd":8,"visib":"6+","altim":1019,"clouds":[{"cover":"FEW","base":2500}],"obsTime":1774706400},"SBGO":{"icaoId":"SBGO","flightCategory":"VFR","rawOb":"METAR SBGO 281400Z 08011KT 060V120 9999 SCT030 28/19 Q1020","temp":28,"dewp":19,"wdir":80,"wspd":11,"visib":"6+","altim":1020,"clouds":[{"cover":"SCT","base":3000}],"obsTime":1774706400},"SBGR":{"icaoId":"SBGR","flightCategory":"VFR","rawOb":"METAR SBGR 281400Z 04011KT 9999 SCT023 26/18 Q1023","temp":26,"dewp":18,"wdir":40,"wspd":11,"visib":"6+","altim":1023,"clouds":[{"cover":"SCT","base":2300}],"obsTime":1774706400},"SBHT":{"icaoId":"SBHT","flightCategory":"VFR","rawOb":"METAR SBHT 281400Z 07005KT 9999 SCT015 BKN080 26/24 Q1013","temp":26,"dewp":24,"wdir":70,"wspd":5,"visib":"6+","altim":1013,"clouds":[{"cover":"SCT","base":1500},{"cover":"BKN","base":8000}],"obsTime":1774706400},"SBIL":{"icaoId":"SBIL","flightCategory":"VFR","rawOb":"METAR SBIL 281400Z 29004KT 9000 -RA SCT018 FEW025TCU BKN060 24/24 Q1015","temp":24,"dewp":24,"wdir":290,"wspd":4,"visib":5.59,"altim":1015,"clouds":[{"cover":"SCT","base":1800},{"cover":"FEW","base":2500},{"cover":"BKN","base":6000}],"obsTime":1774706400},"SBJU":{"icaoId":"SBJU","flightCategory":"MVFR","rawOb":"METAR SBJU 281400Z 00000KT 9999 BKN018 27/22 Q1014","temp":27,"dewp":22,"wdir":0,"wspd":0,"visib":"6+","altim":1014,"clouds":[{"cover":"BKN","base":1800}],"obsTime":1774706400},"SBKP":{"icaoId":"SBKP","flightCategory":"VFR","rawOb":"METAR SBKP 281400Z VRB02KT 9999 FEW030 28/17 Q1022","temp":28,"dewp":17,"wdir":"VRB","wspd":2,"visib":"6+","altim":1022,"clouds":[{"cover":"FEW","base":3000}],"obsTime":1774706400},"SBLO":{"icaoId":"SBLO","flightCategory":"VFR","rawOb":"METAR SBLO 281400Z 10010KT CAVOK 28/17 Q1021","temp":28,"dewp":17,"wdir":100,"wspd":10,"visib":"6+","altim":1021,"clouds":[],"obsTime":1774706400},"SBMA":{"icaoId":"SBMA","flightCategory":"VFR","rawOb":"METAR SBMA 281400Z 09006KT 9999 FEW015 SCT018 BKN100 30/24 Q1012","temp":30,"dewp":24,"wdir":90,"wspd":6,"visib":"6+","altim":1012,"clouds":[{"cover":"FEW","base":1500},{"cover":"SCT","base":1800},{"cover":"BKN","base":10000}],"obsTime":1774706400},"SBME":{"icaoId":"SBME","flightCategory":"VFR","rawOb":"METAR SBME 281400Z 19006KT 9999 SCT023 30/23 Q1019","temp":30,"dewp":23,"wdir":190,"wspd":6,"visib":"6+","altim":1019,"clouds":[{"cover":"SCT","base":2300}],"obsTime":1774706400},"SBMG":{"icaoId":"SBMG","flightCategory":"VFR","rawOb":"METAR SBMG 281400Z VRB04KT CAVOK 29/16 Q1020","temp":29,"dewp":16,"wdir":"VRB","wspd":4,"visib":"6+","altim":1020,"clouds":[],"obsTime":1774706400},"SBMK":{"icaoId":"SBMK","flightCategory":"MVFR","rawOb":"METAR SBMK 281400Z 10011KT 9999 BKN030 28/18 Q1020","temp":28,"dewp":18,"wdir":100,"wspd":11,"visib":"6+","altim":1020,"clouds":[{"cover":"BKN","base":3000}],"obsTime":1774706400},"SBMO":{"icaoId":"SBMO","flightCategory":"MVFR","rawOb":"METAR SBMO 281400Z 10011KT 9999 BKN025 SCT070 29/24 Q1012","temp":29,"dewp":24,"wdir":100,"wspd":11,"visib":"6+","altim":1012,"clouds":[{"cover":"BKN","base":2500},{"cover":"SCT","base":7000}],"obsTime":1774706400},"SBMQ":{"icaoId":"SBMQ","flightCategory":"MVFR","rawOb":"METAR SBMQ 281400Z 06009KT 9999 BKN023 31/25 Q1012","temp":31,"dewp":25,"wdir":60,"wspd":9,"visib":"6+","altim":1012,"clouds":[{"cover":"BKN","base":2300}],"obsTime":1774706400},"SBNT":{"icaoId":"SBNT","flightCategory":"VFR","rawOb":"METAR SBNT 281400Z 10011KT 080V140 9999 FEW030 31/22 Q1012","temp":31,"dewp":22,"wdir":100,"wspd":11,"visib":"6+","altim":1012,"clouds":[{"cover":"FEW","base":3000}],"obsTime":1774706400},"SBPA":{"icaoId":"SBPA","flightCategory":"VFR","rawOb":"METAR SBPA 281400Z VRB03KT CAVOK 31/22 Q1017","temp":31,"dewp":22,"wdir":"VRB","wspd":3,"visib":"6+","altim":1017,"clouds":[],"obsTime":1774706400},"SBPJ":{"icaoId":"SBPJ","flightCategory":"VFR","rawOb":"METAR SBPJ 281400Z 13005KT 080V180 9999 FEW018 31/21 Q1014","temp":31,"dewp":21,"wdir":130,"wspd":5,"visib":"6+","altim":1014,"clouds":[{"cover":"FEW","base":1800}],"obsTime":1774706400},"SBRF":{"icaoId":"SBRF","flightCategory":"MVFR","rawOb":"METAR SBRF 281400Z 11008KT 9999 BKN021 30/24 Q1012","temp":30,"dewp":24,"wdir":110,"wspd":8,"visib":"6+","altim":1012,"clouds":[{"cover":"BKN","base":2100}],"obsTime":1774706400},"SBSG":{"icaoId":"SBSG","flightCategory":"VFR","rawOb":"METAR SBSG 281400Z 10011KT 070V170 9999 SCT023 31/22 Q1012","temp":31,"dewp":22,"wdir":100,"wspd":11,"visib":"6+","altim":1012,"clouds":[{"cover":"SCT","base":2300}],"obsTime":1774706400},"SBSL":{"icaoId":"SBSL","flightCategory":"MVFR","rawOb":"METAR SBSL 281400Z 09012KT 9999 BKN025 30/25 Q1011","temp":30,"dewp":25,"wdir":90,"wspd":12,"visib":"6+","altim":1011,"clouds":[{"cover":"BKN","base":2500}],"obsTime":1774706400},"SBSN":{"icaoId":"SBSN","flightCategory":"MVFR","rawOb":"METAR SBSN 281400Z 05007KT 9999 VCSH FEW011 BKN015 FEW030TCU 27/24 Q1013","temp":27,"dewp":24,"wdir":50,"wspd":7,"visib":"6+","altim":1013,"clouds":[{"cover":"FEW","base":1100},{"cover":"BKN","base":1500},{"cover":"FEW","base":3000}],"obsTime":1774706400},"SBSP":{"icaoId":"SBSP","flightCategory":"VFR","rawOb":"METAR SBSP 281400Z 06007KT 010V120 CAVOK 26/17 Q1024","temp":26,"dewp":17,"wdir":60,"wspd":7,"visib":"6+","altim":1024,"clouds":[],"obsTime":1774706400},"SBSV":{"icaoId":"SBSV","flightCategory":"VFR","rawOb":"METAR SBSV 281400Z 10010KT 080V150 9999 FEW022 30/23 Q1014","temp":30,"dewp":23,"wdir":100,"wspd":10,"visib":"6+","altim":1014,"clouds":[{"cover":"FEW","base":2200}],"obsTime":1774706400},"SBTE":{"icaoId":"SBTE","flightCategory":"MVFR","rawOb":"METAR SBTE 281400Z 03003KT 9999 BKN025 31/25 Q1011","temp":31,"dewp":25,"wdir":30,"wspd":3,"visib":"6+","altim":1011,"clouds":[{"cover":"BKN","base":2500}],"obsTime":1774706400},"SBUL":{"icaoId":"SBUL","flightCategory":"VFR","rawOb":"METAR SBUL 281400Z COR 08009KT 9999 SCT030 25/16 Q1023","temp":25,"dewp":16,"wdir":80,"wspd":9,"visib":"6+","altim":1023,"clouds":[{"cover":"SCT","base":3000}],"obsTime":1774706400},"SBUR":{"icaoId":"SBUR","flightCategory":"VFR","rawOb":"METAR SBUR 281400Z 04008KT 9999 FEW042 27/17 Q1022","temp":27,"dewp":17,"wdir":40,"wspd":8,"visib":"6+","altim":1022,"clouds":[{"cover":"FEW","base":4200}],"obsTime":1774706400},"SBVT":{"icaoId":"SBVT","flightCategory":"VFR","rawOb":"METAR SBVT 281400Z 14004KT 050V190 9999 SCT026 FEW035TCU 28/24 Q1019","temp":28,"dewp":24,"wdir":140,"wspd":4,"visib":"6+","altim":1019,"clouds":[{"cover":"SCT","base":2600},{"cover":"FEW","base":3500}],"obsTime":1774706400},"SBKG":{"icaoId":"SBKG","flightCategory":"MVFR","rawOb":"METAR SBKG 281400Z 11009KT 9999 SCT007 BKN010 BKN070 24/23 Q1015","temp":24,"dewp":23,"wdir":110,"wspd":9,"visib":"6+","altim":1015,"clouds":[{"cover":"SCT","base":700},{"cover":"BKN","base":1000},{"cover":"BKN","base":7000}],"obsTime":1774706400},"SBAX":{"icaoId":"SBAX","flightCategory":"VFR","rawOb":"METAR SBAX 281400Z AUTO 09009KT 050V130 9999 SCT031 24/17 Q1023","temp":24,"dewp":17,"wdir":90,"wspd":9,"visib":"6+","altim":1023,"clouds":[{"cover":"SCT","base":3100}],"obsTime":1774706400},"SBOI":{"icaoId":"SBOI","flightCategory":"MVFR","rawOb":"METAR SBOI 281400Z AUTO 06007KT 010V090 9999 BKN026 30/25 Q1012","temp":30,"dewp":25,"wdir":60,"wspd":7,"visib":"6+","altim":1012,"clouds":[{"cover":"BKN","base":2600}],"obsTime":1774706400},"SBCJ":{"icaoId":"SBCJ","flightCategory":"VFR","rawOb":"METAR SBCJ 281400Z 13007KT 9999 FEW013 SCT015 26/23 Q1018","temp":26,"dewp":23,"wdir":130,"wspd":7,"visib":"6+","altim":1018,"clouds":[{"cover":"FEW","base":1300},{"cover":"SCT","base":1500}],"obsTime":1774706400},"SBPB":{"icaoId":"SBPB","flightCategory":"VFR","rawOb":"METAR SBPB 281400Z 07013KT 9999 SCT020 31/25 Q1011","temp":31,"dewp":25,"wdir":70,"wspd":13,"visib":"6+","altim":1011,"clouds":[{"cover":"SCT","base":2000}],"obsTime":1774706400},"SBCO":{"icaoId":"SBCO","flightCategory":"VFR","rawOb":"METAR SBCO 281400Z 33006KT CAVOK 32/22 Q1018","temp":32,"dewp":22,"wdir":330,"wspd":6,"visib":"6+","altim":1018,"clouds":[],"obsTime":1774706400},"SBPL":{"icaoId":"SBPL","flightCategory":"MVFR","rawOb":"METAR SBPL 281400Z 09011KT 9999 BKN025 30/21 Q1014","temp":30,"dewp":21,"wdir":90,"wspd":11,"visib":"6+","altim":1014,"clouds":[{"cover":"BKN","base":2500}],"obsTime":1774706400},"SBBH":{"icaoId":"SBBH","flightCategory":"MVFR","rawOb":"METAR SBBH 281400Z 08008KT 9999 BKN030 25/17 Q1023","temp":25,"dewp":17,"wdir":80,"wspd":8,"visib":"6+","altim":1023,"clouds":[{"cover":"BKN","base":3000}],"obsTime":1774706400},"SBPP":{"icaoId":"SBPP","flightCategory":"VFR","rawOb":"METAR SBPP 281400Z 05008KT 9999 FEW015 28/20 Q1020","temp":28,"dewp":20,"wdir":50,"wspd":8,"visib":"6+","altim":1020,"clouds":[{"cover":"FEW","base":1500}],"obsTime":1774706400},"SBBQ":{"icaoId":"SBBQ","flightCategory":"MVFR","rawOb":"METAR SBBQ 281400Z 08008KT 9999 BKN013 21/17 Q1027","temp":21,"dewp":17,"wdir":80,"wspd":8,"visib":"6+","altim":1027,"clouds":[{"cover":"BKN","base":1300}],"obsTime":1774706400},"SBPS":{"icaoId":"SBPS","flightCategory":"MVFR","rawOb":"METAR SBPS 281400Z COR 15007KT 070V200 9999 BKN020 FEW023TCU 27/24 Q1016","temp":27,"dewp":24,"wdir":150,"wspd":7,"visib":"6+","altim":1016,"clouds":[{"cover":"BKN","base":2000},{"cover":"FEW","base":2300}],"obsTime":1774706400},"SBDN":{"icaoId":"SBDN","flightCategory":"VFR","rawOb":"METAR SBDN 281400Z 05008KT CAVOK 30/19 Q1019","temp":30,"dewp":19,"wdir":50,"wspd":8,"visib":"6+","altim":1019,"clouds":[],"obsTime":1774706400},"SBSC":{"icaoId":"SBSC","flightCategory":"VFR","rawOb":"METAR SBSC 281400Z 01006KT 9999 FEW030 30/21 Q1020","temp":30,"dewp":21,"wdir":10,"wspd":6,"visib":"6+","altim":1020,"clouds":[{"cover":"FEW","base":3000}],"obsTime":1774706400},"SBBU":{"icaoId":"SBBU","flightCategory":"VFR","rawOb":"METAR SBBU 281400Z 03003KT CAVOK 29/18 Q1021","temp":29,"dewp":18,"wdir":30,"wspd":3,"visib":"6+","altim":1021,"clouds":[],"obsTime":1774706400},"SBAR":{"icaoId":"SBAR","flightCategory":"VFR","rawOb":"METAR SBAR 281400Z 10012KT 9999 SCT023 31/24 Q1012","temp":31,"dewp":24,"wdir":100,"wspd":12,"visib":"6+","altim":1012,"clouds":[{"cover":"SCT","base":2300}],"obsTime":1774706400},"SBSJ":{"icaoId":"SBSJ","flightCategory":"VFR","rawOb":"METAR SBSJ 281400Z 06007KT 9999 FEW025 26/18 Q1022","temp":26,"dewp":18,"wdir":60,"wspd":7,"visib":"6+","altim":1022,"clouds":[{"cover":"FEW","base":2500}],"obsTime":1774706400},"SBSM":{"icaoId":"SBSM","flightCategory":"VFR","rawOb":"METAR SBSM 281400Z 03004KT CAVOK 33/24 Q1017","temp":33,"dewp":24,"wdir":30,"wspd":4,"visib":"6+","altim":1017,"clouds":[],"obsTime":1774706400},"SBES":{"icaoId":"SBES","flightCategory":"VFR","rawOb":"METAR SBES 281400Z 11008KT 060V150 9999 VCSH FEW015 SCT020 26/// Q1020","temp":null,"dewp":null,"wdir":110,"wspd":8,"visib":"6+","altim":1020,"clouds":[{"cover":"FEW","base":1500},{"cover":"SCT","base":2000}],"obsTime":1774706400},"SBSR":{"icaoId":"SBSR","flightCategory":"VFR","rawOb":"METAR SBSR 281400Z 10010KT CAVOK 29/16 Q1020","temp":29,"dewp":16,"wdir":100,"wspd":10,"visib":"6+","altim":1020,"clouds":[],"obsTime":1774706400},"SBGM":{"icaoId":"SBGM","flightCategory":"VFR","rawOb":"METAR SBGM 281400Z 07003KT 9999 SCT010 OVC040 26/24 Q1014","temp":26,"dewp":24,"wdir":70,"wspd":3,"visib":"6+","altim":1014,"clouds":[{"cover":"SCT","base":1000},{"cover":"OVC","base":4000}],"obsTime":1774706400},"SBCA":{"icaoId":"SBCA","flightCategory":"VFR","rawOb":"METAR SBCA 281400Z 04011KT 360V080 CAVOK 28/19 Q1022","temp":28,"dewp":19,"wdir":40,"wspd":11,"visib":"6+","altim":1022,"clouds":[],"obsTime":1774706400},"SBTF":{"icaoId":"SBTF","flightCategory":"VFR","rawOb":"METAR SBTF 281400Z 10005KT 9999 SCT008 SCT012 BKN040 27/26 Q1014","temp":27,"dewp":26,"wdir":100,"wspd":5,"visib":"6+","altim":1014,"clouds":[{"cover":"SCT","base":800},{"cover":"SCT","base":1200},{"cover":"BKN","base":4000}],"obsTime":1774706400},"SBTT":{"icaoId":"SBTT","flightCategory":"VFR","rawOb":"METAR SBTT 281400Z 13006KT 9000 SCT015 BKN100 23/21 Q1013","temp":23,"dewp":21,"wdir":130,"wspd":6,"visib":5.59,"altim":1013,"clouds":[{"cover":"SCT","base":1500},{"cover":"BKN","base":10000}],"obsTime":1774706400},"SBIP":{"icaoId":"SBIP","flightCategory":"VFR","rawOb":"METAR SBIP 281400Z AUTO VRB03KT 9999 FEW031 29/19 Q1019","temp":29,"dewp":19,"wdir":"VRB","wspd":3,"visib":"6+","altim":1019,"clouds":[{"cover":"FEW","base":3100}],"obsTime":1774706400},"SBCC":{"icaoId":"SBCC","flightCategory":"VFR","rawOb":"METAR SBCC 281400Z 10008KT 9999 FEW015 BKN100 26/21 Q1015","temp":26,"dewp":21,"wdir":100,"wspd":8,"visib":"6+","altim":1015,"clouds":[{"cover":"FEW","base":1500},{"cover":"BKN","base":10000}],"obsTime":1774706400},"SBUY":{"icaoId":"SBUY","flightCategory":"VFR","rawOb":"METAR SBUY 281400Z 09004KT 9999 SCT010 27/24 Q1013","temp":27,"dewp":24,"wdir":90,"wspd":4,"visib":"6+","altim":1013,"clouds":[{"cover":"SCT","base":1000}],"obsTime":1774706400},"SBVH":{"icaoId":"SBVH","flightCategory":"VFR","rawOb":"METAR SBVH 281400Z 09011KT 9999 FEW020 BKN080 25/21 Q1017","temp":25,"dewp":21,"wdir":90,"wspd":11,"visib":"6+","altim":1017,"clouds":[{"cover":"FEW","base":2000},{"cover":"BKN","base":8000}],"obsTime":1774706400},"SBAU":{"icaoId":"SBAU","flightCategory":"VFR","rawOb":"METAR SBAU 281400Z 01008KT CAVOK 32/18 Q1019","temp":32,"dewp":18,"wdir":10,"wspd":8,"visib":"6+","altim":1019,"clouds":[],"obsTime":1774706400},"SBLS":{"icaoId":"SBLS","flightCategory":"MVFR","rawOb":"METAR SBLS 281400Z 12008KT 060V130 9999 BKN025 23/17 Q1023","temp":23,"dewp":17,"wdir":120,"wspd":8,"visib":"6+","altim":1023,"clouds":[{"cover":"BKN","base":2500}],"obsTime":1774706400},"SBMT":{"icaoId":"SBMT","flightCategory":"VFR","rawOb":"METAR SBMT 281400Z 10008KT CAVOK 25/18 Q1023","temp":25,"dewp":18,"wdir":100,"wspd":8,"visib":"6+","altim":1023,"clouds":[],"obsTime":1774706400},"SBNM":{"icaoId":"SBNM","flightCategory":"VFR","rawOb":"METAR SBNM 281400Z 06008KT CAVOK 32/22 Q1019","temp":32,"dewp":22,"wdir":60,"wspd":8,"visib":"6+","altim":1019,"clouds":[],"obsTime":1774706400},"SBST":{"icaoId":"SBST","flightCategory":"VFR","rawOb":"METAR SBST 281400Z 25005KT 9999 SCT030 28/22 Q1019","temp":28,"dewp":22,"wdir":250,"wspd":5,"visib":"6+","altim":1019,"clouds":[{"cover":"SCT","base":3000}],"obsTime":1774706400},"SBPF":{"icaoId":"SBPF","flightCategory":"VFR","rawOb":"METAR SBPF 281400Z 00000KT CAVOK 27/19 Q1022","temp":27,"dewp":19,"wdir":0,"wspd":0,"visib":"6+","altim":1022,"clouds":[],"obsTime":1774706400},"SBTA":{"icaoId":"SBTA","flightCategory":"VFR","rawOb":"METAR SBTA 281400Z 06007KT 020V110 9999 SCT025 26/22 Q1021","temp":26,"dewp":22,"wdir":60,"wspd":7,"visib":"6+","altim":1021,"clouds":[{"cover":"SCT","base":2500}],"obsTime":1774706400},"SBIH":{"icaoId":"SBIH","flightCategory":"VFR","rawOb":"METAR SBIH 281400Z 08003KT 9999 FEW012 29/24 Q1012","temp":29,"dewp":24,"wdir":80,"wspd":3,"visib":"6+","altim":1012,"clouds":[{"cover":"FEW","base":1200}],"obsTime":1774706400},"SBAN":{"icaoId":"SBAN","flightCategory":"VFR","rawOb":"METAR SBAN 281400Z 13022KT 090V150 9999 SCT015 25/16 Q1023","temp":25,"dewp":16,"wdir":130,"wspd":22,"visib":"6+","altim":1023,"clouds":[{"cover":"SCT","base":1500}],"obsTime":1774706400},"SBLE":{"icaoId":"SBLE","flightCategory":"MVFR","rawOb":"METAR SBLE 281400Z AUTO 13009KT 100V170 9999 -RA FEW015 BKN021 25/25 Q1017","temp":25,"dewp":25,"wdir":130,"wspd":9,"visib":"6+","altim":1017,"clouds":[{"cover":"FEW","base":1500},{"cover":"BKN","base":2100}],"obsTime":1774706400},"SBTC":{"icaoId":"SBTC","flightCategory":"MVFR","rawOb":"METAR SBTC 281500Z 20005KT 9999 VCSH BKN020 FEW025TCU 28/23 Q1015","temp":28,"dewp":23,"wdir":200,"wspd":5,"visib":"6+","altim":1015,"clouds":[{"cover":"BKN","base":2000},{"cover":"FEW","base":2500}],"obsTime":1774710000},"SBAF":{"icaoId":"SBAF","flightCategory":"VFR","rawOb":"METAR SBAF 281400Z 07008KT 9999 SCT040 30/21 Q1020","temp":30,"dewp":21,"wdir":70,"wspd":8,"visib":"6+","altim":1020,"clouds":[{"cover":"SCT","base":4000}],"obsTime":1774706400},"SBJV":{"icaoId":"SBJV","flightCategory":"VFR","rawOb":"METAR SBJV 281400Z 01005KT 9999 SCT035 30/22 Q1019","temp":30,"dewp":22,"wdir":10,"wspd":5,"visib":"6+","altim":1019,"clouds":[{"cover":"SCT","base":3500}],"obsTime":1774706400},"SBGW":{"icaoId":"SBGW","flightCategory":"VFR","rawOb":"METAR SBGW 281400Z 03006KT 9999 SCT030 27/16 Q1022","temp":27,"dewp":16,"wdir":30,"wspd":6,"visib":"6+","altim":1022,"clouds":[{"cover":"SCT","base":3000}],"obsTime":1774706400},"SBJR":{"icaoId":"SBJR","flightCategory":"VFR","rawOb":"METAR SBJR 281400Z 16007KT 9999 FEW025 31/22 Q1019","temp":31,"dewp":22,"wdir":160,"wspd":7,"visib":"6+","altim":1019,"clouds":[{"cover":"FEW","base":2500}],"obsTime":1774706400},"SBJP":{"icaoId":"SBJP","flightCategory":"MVFR","rawOb":"METAR SBJP 281400Z 07010KT 9999 BKN020 31/23 Q1012","temp":31,"dewp":23,"wdir":70,"wspd":10,"visib":"6+","altim":1012,"clouds":[{"cover":"BKN","base":2000}],"obsTime":1774706400}}}