{"updated":1774833096,"count":63,"data":{"SBMG":{"icaoId":"SBMG","flightCategory":"VFR","rawOb":"METAR SBMG 300000Z 16003KT CAVOK 28/17 Q1017","temp":28,"dewp":17,"wdir":160,"wspd":3,"visib":"6+","altim":1017,"clouds":[],"obsTime":1774828800},"SBFZ":{"icaoId":"SBFZ","flightCategory":"VFR","rawOb":"METAR SBFZ 300000Z 10005KT 9999 SCT017 BKN090 28/24 Q1012","temp":28,"dewp":24,"wdir":100,"wspd":5,"visib":"6+","altim":1012,"clouds":[{"cover":"SCT","base":1700},{"cover":"BKN","base":9000}],"obsTime":1774828800},"SBCT":{"icaoId":"SBCT","flightCategory":"VFR","rawOb":"METAR SBCT 300000Z 10004KT CAVOK 20/19 Q1021","temp":20,"dewp":19,"wdir":100,"wspd":4,"visib":"6+","altim":1021,"clouds":[],"obsTime":1774828800},"SBMK":{"icaoId":"SBMK","flightCategory":"VFR","rawOb":"METAR SBMK 300000Z 00000KT 9999 BKN040 22/19 Q1018","temp":22,"dewp":19,"wdir":0,"wspd":0,"visib":"6+","altim":1018,"clouds":[{"cover":"BKN","base":4000}],"obsTime":1774828800},"SBGL":{"icaoId":"SBGL","flightCategory":"VFR","rawOb":"METAR SBGL 300000Z 12005KT 9999 SCT040 25/22 Q1017","temp":25,"dewp":22,"wdir":120,"wspd":5,"visib":"6+","altim":1017,"clouds":[{"cover":"SCT","base":4000}],"obsTime":1774828800},"SBMO":{"icaoId":"SBMO","flightCategory":"VFR","rawOb":"METAR SBMO 300000Z 11003KT 9999 SCT011 OVC040 24/24 Q1013","temp":24,"dewp":24,"wdir":110,"wspd":3,"visib":"6+","altim":1013,"clouds":[{"cover":"SCT","base":1100},{"cover":"OVC","base":4000}],"obsTime":1774828800},"SBBE":{"icaoId":"SBBE","flightCategory":"VFR","rawOb":"METAR SBBE 300000Z 16002KT 9999 -RA SCT045 BKN100 25/25 Q1012","temp":25,"dewp":25,"wdir":160,"wspd":2,"visib":"6+","altim":1012,"clouds":[{"cover":"SCT","base":4500},{"cover":"BKN","base":10000}],"obsTime":1774828800},"SBMQ":{"icaoId":"SBMQ","flightCategory":"MVFR","rawOb":"METAR SBMQ 300000Z 36002KT 8000 -RA SCT020 BKN045 26/25 Q1012","temp":26,"dewp":25,"wdir":360,"wspd":2,"visib":4.97,"altim":1012,"clouds":[{"cover":"SCT","base":2000},{"cover":"BKN","base":4500}],"obsTime":1774828800},"SBGO":{"icaoId":"SBGO","flightCategory":"VFR","rawOb":"METAR SBGO 300000Z 11006KT CAVOK 24/18 Q1017","temp":24,"dewp":18,"wdir":110,"wspd":6,"visib":"6+","altim":1017,"clouds":[],"obsTime":1774828800},"SBNT":{"icaoId":"SBNT","flightCategory":"VFR","rawOb":"METAR SBNT 300000Z 14004KT 9999 FEW018 27/23 Q1012","temp":27,"dewp":23,"wdir":140,"wspd":4,"visib":"6+","altim":1012,"clouds":[{"cover":"FEW","base":1800}],"obsTime":1774828800},"SBPA":{"icaoId":"SBPA","flightCategory":"MVFR","rawOb":"SPECI SBPA 292343Z 12009KT 080V160 9999 FEW012 BKN013 27/23 Q1016","temp":27,"dewp":23,"wdir":120,"wspd":9,"visib":"6+","altim":1016,"clouds":[{"cover":"FEW","base":1200},{"cover":"BKN","base":1300}],"obsTime":1774827780},"SBCF":{"icaoId":"SBCF","flightCategory":"VFR","rawOb":"METAR SBCF 300000Z 10007KT CAVOK 23/17 Q1020","temp":23,"dewp":17,"wdir":100,"wspd":7,"visib":"6+","altim":1020,"clouds":[],"obsTime":1774828800},"SBVT":{"icaoId":"SBVT","flightCategory":"VFR","rawOb":"METAR SBVT 300000Z 24003KT 9999 FEW020 24/23 Q1016","temp":24,"dewp":23,"wdir":240,"wspd":3,"visib":"6+","altim":1016,"clouds":[{"cover":"FEW","base":2000}],"obsTime":1774828800},"SBPJ":{"icaoId":"SBPJ","flightCategory":"VFR","rawOb":"METAR SBPJ 300000Z 15006KT 9999 -TSRA FEW027CB BKN050 26/23 Q1012","temp":26,"dewp":23,"wdir":150,"wspd":6,"visib":"6+","altim":1012,"clouds":[{"cover":"FEW","base":2700},{"cover":"BKN","base":5000}],"obsTime":1774828800},"SBGR":{"icaoId":"SBGR","flightCategory":"MVFR","rawOb":"METAR SBGR 300000Z 11005KT 9999 BKN013 22/19 Q1021","temp":22,"dewp":19,"wdir":110,"wspd":5,"visib":"6+","altim":1021,"clouds":[{"cover":"BKN","base":1300}],"obsTime":1774828800},"SBEG":{"icaoId":"SBEG","flightCategory":"VFR","rawOb":"METAR SBEG 300000Z 10002KT CAVOK 25/24 Q1010","temp":25,"dewp":24,"wdir":100,"wspd":2,"visib":"6+","altim":1010,"clouds":[],"obsTime":1774828800},"SBPV":{"icaoId":"SBPV","flightCategory":"VFR","rawOb":"METAR SBPV 300000Z 10004KT 9999 SCT030 BKN100 23/21 Q1011","temp":23,"dewp":21,"wdir":100,"wspd":4,"visib":"6+","altim":1011,"clouds":[{"cover":"SCT","base":3000},{"cover":"BKN","base":10000}],"obsTime":1774828800},"SBIL":{"icaoId":"SBIL","flightCategory":"VFR","rawOb":"METAR SBIL 300000Z 16001KT 9999 TS VCSH FEW018 FEW023CB BKN035 BKN070 25/24 Q1015","temp":25,"dewp":24,"wdir":160,"wspd":1,"visib":"6+","altim":1015,"clouds":[{"cover":"FEW","base":1800},{"cover":"FEW","base":2300},{"cover":"BKN","base":3500},{"cover":"BKN","base":7000}],"obsTime":1774828800},"SBRB":{"icaoId":"SBRB","flightCategory":"VFR","rawOb":"METAR SBRB 300000Z 17002KT 9999 SCT034 SCT100 25/24 Q1011","temp":25,"dewp":24,"wdir":170,"wspd":2,"visib":"6+","altim":1011,"clouds":[{"cover":"SCT","base":3400},{"cover":"SCT","base":10000}],"obsTime":1774828800},"SBBV":{"icaoId":"SBBV","flightCategory":"VFR","rawOb":"METAR SBBV 300000Z 16007KT 9999 FEW040 FEW045TCU BKN070 31/22 Q1009","temp":31,"dewp":22,"wdir":160,"wspd":7,"visib":"6+","altim":1009,"clouds":[{"cover":"FEW","base":4000},{"cover":"FEW","base":4500},{"cover":"BKN","base":7000}],"obsTime":1774828800},"SBRF":{"icaoId":"SBRF","flightCategory":"VFR","rawOb":"METAR SBRF 300000Z 17008KT 9999 SCT015 BKN090 27/24 Q1012","temp":27,"dewp":24,"wdir":170,"wspd":8,"visib":"6+","altim":1012,"clouds":[{"cover":"SCT","base":1500},{"cover":"BKN","base":9000}],"obsTime":1774828800},"SBJU":{"icaoId":"SBJU","flightCategory":"VFR","rawOb":"METAR SBJU 300000Z 18005KT 9999 VCTS FEW021CB SCT021 26/19 Q1014","temp":26,"dewp":19,"wdir":180,"wspd":5,"visib":"6+","altim":1014,"clouds":[{"cover":"FEW","base":2100},{"cover":"SCT","base":2100}],"obsTime":1774828800},"SBSG":{"icaoId":"SBSG","flightCategory":"VFR","rawOb":"METAR SBSG 300000Z 16002KT 9999 SCT020 26/24 Q1012","temp":26,"dewp":24,"wdir":160,"wspd":2,"visib":"6+","altim":1012,"clouds":[{"cover":"SCT","base":2000}],"obsTime":1774828800},"SBFI":{"icaoId":"SBFI","flightCategory":"VFR","rawOb":"METAR SBFI 300000Z 03002KT CAVOK 25/22 Q1015","temp":25,"dewp":22,"wdir":30,"wspd":2,"visib":"6+","altim":1015,"clouds":[],"obsTime":1774828800},"SBSL":{"icaoId":"SBSL","flightCategory":"VFR","rawOb":"METAR SBSL 300000Z 13005KT 9999 FEW025 SCT080 25/24 Q1012","temp":25,"dewp":24,"wdir":130,"wspd":5,"visib":"6+","altim":1012,"clouds":[{"cover":"FEW","base":2500},{"cover":"SCT","base":8000}],"obsTime":1774828800},"SBKP":{"icaoId":"SBKP","flightCategory":"VFR","rawOb":"METAR SBKP 300000Z 12009KT CAVOK 25/20 Q1019","temp":25,"dewp":20,"wdir":120,"wspd":9,"visib":"6+","altim":1019,"clouds":[],"obsTime":1774828800},"SBSN":{"icaoId":"SBSN","flightCategory":"VFR","rawOb":"METAR SBSN 300000Z 18004KT 9999 TS VCSH FEW017 FEW023CB SCT073 BKN080 26/24 Q1012","temp":26,"dewp":24,"wdir":180,"wspd":4,"visib":"6+","altim":1012,"clouds":[{"cover":"FEW","base":1700},{"cover":"FEW","base":2300},{"cover":"SCT","base":7300},{"cover":"BKN","base":8000}],"obsTime":1774828800},"SBSP":{"icaoId":"SBSP","flightCategory":"VFR","rawOb":"METAR SBSP 300000Z 16005KT 9999 SCT011 21/19 Q1022","temp":21,"dewp":19,"wdir":160,"wspd":5,"visib":"6+","altim":1022,"clouds":[{"cover":"SCT","base":1100}],"obsTime":1774828800},"SBFL":{"icaoId":"SBFL","flightCategory":"VFR","rawOb":"METAR SBFL 300000Z 36007KT CAVOK 27/23 Q1016","temp":27,"dewp":23,"wdir":360,"wspd":7,"visib":"6+","altim":1016,"clouds":[],"obsTime":1774828800},"SBLO":{"icaoId":"SBLO","flightCategory":"VFR","rawOb":"METAR SBLO 300000Z 19003KT 160V220 CAVOK 27/18 Q1018","temp":27,"dewp":18,"wdir":190,"wspd":3,"visib":"6+","altim":1018,"clouds":[],"obsTime":1774828800},"SBSV":{"icaoId":"SBSV","flightCategory":"VFR","rawOb":"METAR SBSV 300000Z 27004KT 9999 SCT021 FEW023TCU 25/23 Q1014","temp":25,"dewp":23,"wdir":270,"wspd":4,"visib":"6+","altim":1014,"clouds":[{"cover":"SCT","base":2100},{"cover":"FEW","base":2300}],"obsTime":1774828800},"SBTE":{"icaoId":"SBTE","flightCategory":"VFR","rawOb":"METAR SBTE 300000Z 30003KT 9999 SCT016 BKN090 26/24 Q1011","temp":26,"dewp":24,"wdir":300,"wspd":3,"visib":"6+","altim":1011,"clouds":[{"cover":"SCT","base":1600},{"cover":"BKN","base":9000}],"obsTime":1774828800},"SBCG":{"icaoId":"SBCG","flightCategory":"VFR","rawOb":"METAR SBCG 300000Z 10005KT CAVOK 27/17 Q1016","temp":27,"dewp":17,"wdir":100,"wspd":5,"visib":"6+","altim":1016,"clouds":[],"obsTime":1774828800},"SBMA":{"icaoId":"SBMA","flightCategory":"VFR","rawOb":"METAR SBMA 300000Z 17006KT 9999 VCTS FEW015 FEW020CB BKN090 26/24 Q1012","temp":26,"dewp":24,"wdir":170,"wspd":6,"visib":"6+","altim":1012,"clouds":[{"cover":"FEW","base":1500},{"cover":"FEW","base":2000},{"cover":"BKN","base":9000}],"obsTime":1774828800},"SBUL":{"icaoId":"SBUL","flightCategory":"VFR","rawOb":"METAR SBUL 300000Z 25002KT 9999 SCT048 24/17 Q1019","temp":24,"dewp":17,"wdir":250,"wspd":2,"visib":"6+","altim":1019,"clouds":[{"cover":"SCT","base":4800}],"obsTime":1774828800},"SBBR":{"icaoId":"SBBR","flightCategory":"VFR","rawOb":"METAR SBBR 300000Z 11005KT CAVOK 22/17 Q1020","temp":22,"dewp":17,"wdir":110,"wspd":5,"visib":"6+","altim":1020,"clouds":[],"obsTime":1774828800},"SBUR":{"icaoId":"SBUR","flightCategory":"VFR","rawOb":"METAR SBUR 300000Z 13005KT CAVOK 24/18 Q1018","temp":24,"dewp":18,"wdir":130,"wspd":5,"visib":"6+","altim":1018,"clouds":[],"obsTime":1774828800},"SBME":{"icaoId":"SBME","flightCategory":"VFR","rawOb":"METAR SBME 300000Z 00000KT CAVOK 25/23 Q1017","temp":25,"dewp":23,"wdir":0,"wspd":0,"visib":"6+","altim":1017,"clouds":[],"obsTime":1774828800},"SBCB":{"icaoId":"SBCB","flightCategory":"VFR","rawOb":"METAR SBCB 300000Z 05004KT CAVOK 24/22 Q1017","temp":24,"dewp":22,"wdir":50,"wspd":4,"visib":"6+","altim":1017,"clouds":[],"obsTime":1774828800},"SBCZ":{"icaoId":"SBCZ","flightCategory":"VFR","rawOb":"METAR SBCZ 300000Z 15003KT 9999 FEW025 FEW025TCU BKN050 BKN080 23/23 Q1010","temp":23,"dewp":23,"wdir":150,"wspd":3,"visib":"6+","altim":1010,"clouds":[{"cover":"FEW","base":2500},{"cover":"FEW","base":2500},{"cover":"BKN","base":5000},{"cover":"BKN","base":8000}],"obsTime":1774828800},"SBSR":{"icaoId":"SBSR","flightCategory":"VFR","rawOb":"METAR SBSR 300000Z 20003KT CAVOK 28/17 Q1017","temp":28,"dewp":17,"wdir":200,"wspd":3,"visib":"6+","altim":1017,"clouds":[],"obsTime":1774828800},"SBAR":{"icaoId":"SBAR","flightCategory":"VFR","rawOb":"METAR SBAR 300000Z 07006KT 9999 FEW010 SCT015 BKN050 27/24 Q1013","temp":27,"dewp":24,"wdir":70,"wspd":6,"visib":"6+","altim":1013,"clouds":[{"cover":"FEW","base":1000},{"cover":"SCT","base":1500},{"cover":"BKN","base":5000}],"obsTime":1774828800},"SBAX":{"icaoId":"SBAX","flightCategory":"VFR","rawOb":"METAR SBAX 300000Z AUTO 12007KT CAVOK 22/16 Q1020","temp":22,"dewp":16,"wdir":120,"wspd":7,"visib":"6+","altim":1020,"clouds":[],"obsTime":1774828800},"SBBH":{"icaoId":"SBBH","flightCategory":"VFR","rawOb":"METAR SBBH 300000Z 11007KT 9999 FEW048 23/18 Q1020","temp":23,"dewp":18,"wdir":110,"wspd":7,"visib":"6+","altim":1020,"clouds":[{"cover":"FEW","base":4800}],"obsTime":1774828800},"SBBU":{"icaoId":"SBBU","flightCategory":"VFR","rawOb":"METAR SBBU 300000Z /////KT CAVOK 28/19 Q1018","temp":28,"dewp":19,"wdir":null,"wspd":null,"visib":"6+","altim":1018,"clouds":[],"obsTime":1774828800},"SBCO":{"icaoId":"SBCO","flightCategory":"VFR","rawOb":"METAR SBCO 300000Z 12008KT 9999 FEW020 26/24 Q1017","temp":26,"dewp":24,"wdir":120,"wspd":8,"visib":"6+","altim":1017,"clouds":[{"cover":"FEW","base":2000}],"obsTime":1774828800},"SBDN":{"icaoId":"SBDN","flightCategory":"VFR","rawOb":"METAR SBDN 300000Z 00000KT CAVOK 25/19 Q1016","temp":25,"dewp":19,"wdir":0,"wspd":0,"visib":"6+","altim":1016,"clouds":[],"obsTime":1774828800},"SBIP":{"icaoId":"SBIP","flightCategory":"VFR","rawOb":"METAR SBIP 300000Z AUTO 23004KT CAVOK 23/22 Q1017","temp":23,"dewp":22,"wdir":230,"wspd":4,"visib":"6+","altim":1017,"clouds":[],"obsTime":1774828800},"SBKG":{"icaoId":"SBKG","flightCategory":"VFR","rawOb":"METAR SBKG 300000Z 07007KT CAVOK 23/19 Q1015","temp":23,"dewp":19,"wdir":70,"wspd":7,"visib":"6+","altim":1015,"clouds":[],"obsTime":1774828800},"SBOI":{"icaoId":"SBOI","flightCategory":"VFR","rawOb":"METAR SBOI 300000Z AUTO 00000KT 9999 // FEW026/// BKN039/// OVC100/// 25/24 Q1012","temp":25,"dewp":24,"wdir":0,"wspd":0,"visib":"6+","altim":1012,"clouds":[{"cover":"FEW","base":2600},{"cover":"BKN","base":3900},{"cover":"OVC","base":10000}],"obsTime":1774828800},"SBPL":{"icaoId":"SBPL","flightCategory":"MVFR","rawOb":"METAR SBPL 300000Z 10014KT 9999 -TSRA BKN015 FEW030CB OVC070 25/22 Q1015","temp":25,"dewp":22,"wdir":100,"wspd":14,"visib":"6+","altim":1015,"clouds":[{"cover":"BKN","base":1500},{"cover":"FEW","base":3000},{"cover":"OVC","base":7000}],"obsTime":1774828800},"SBPS":{"icaoId":"SBPS","flightCategory":"VFR","rawOb":"METAR SBPS 300000Z 24003KT 210V270 9999 FEW016 SCT060 24/23 Q1015","temp":24,"dewp":23,"wdir":240,"wspd":3,"visib":"6+","altim":1015,"clouds":[{"cover":"FEW","base":1600},{"cover":"SCT","base":6000}],"obsTime":1774828800},"SBSC":{"icaoId":"SBSC","flightCategory":"VFR","rawOb":"METAR SBSC 300000Z 26003KT CAVOK 23/22 Q1017","temp":23,"dewp":22,"wdir":260,"wspd":3,"visib":"6+","altim":1017,"clouds":[],"obsTime":1774828800},"SBSJ":{"icaoId":"SBSJ","flightCategory":"VFR","rawOb":"METAR SBSJ 300000Z 22004KT CAVOK 21/18 Q1020","temp":21,"dewp":18,"wdir":220,"wspd":4,"visib":"6+","altim":1020,"clouds":[],"obsTime":1774828800},"SBSM":{"icaoId":"SBSM","flightCategory":"VFR","rawOb":"METAR SBSM 300000Z 11006KT CAVOK 27/23 Q1016","temp":27,"dewp":23,"wdir":110,"wspd":6,"visib":"6+","altim":1016,"clouds":[],"obsTime":1774828800},"SBLS":{"icaoId":"SBLS","flightCategory":"VFR","rawOb":"METAR SBLS 300000Z 13010KT CAVOK 22/18 Q1019","temp":22,"dewp":18,"wdir":130,"wspd":10,"visib":"6+","altim":1019,"clouds":[],"obsTime":1774828800},"SBMT":{"icaoId":"SBMT","flightCategory":"VFR","rawOb":"METAR SBMT 300000Z 10005KT CAVOK 21/18 Q1020","temp":21,"dewp":18,"wdir":100,"wspd":5,"visib":"6+","altim":1020,"clouds":[],"obsTime":1774828800},"SBLE":{"icaoId":"SBLE","flightCategory":"VFR","rawOb":"METAR SBLE 300000Z AUTO 11005KT 9999 BKN033 24/24 Q1017","temp":24,"dewp":24,"wdir":110,"wspd":5,"visib":"6+","altim":1017,"clouds":[{"cover":"BKN","base":3300}],"obsTime":1774828800},"SBJP":{"icaoId":"SBJP","flightCategory":"VFR","rawOb":"METAR SBJP 300000Z 10004KT CAVOK 25/22 Q1012","temp":25,"dewp":22,"wdir":100,"wspd":4,"visib":"6+","altim":1012,"clouds":[],"obsTime":1774828800},"SBPF":{"icaoId":"SBPF","flightCategory":"VFR","rawOb":"METAR SBPF 300000Z 12008KT CAVOK 24/18 Q1020","temp":24,"dewp":18,"wdir":120,"wspd":8,"visib":"6+","altim":1020,"clouds":[],"obsTime":1774828800},"SBJV":{"icaoId":"SBJV","flightCategory":"VFR","rawOb":"METAR SBJV 300000Z 33002KT CAVOK 25/24 Q1017","temp":25,"dewp":24,"wdir":330,"wspd":2,"visib":"6+","altim":1017,"clouds":[],"obsTime":1774828800},"SBAN":{"icaoId":"SBAN","flightCategory":"VFR","rawOb":"METAR SBAN 300000Z 09003KT 9999 FEW040 SCT070 20/17 Q1020","temp":20,"dewp":17,"wdir":90,"wspd":3,"visib":"6+","altim":1020,"clouds":[{"cover":"FEW","base":4000},{"cover":"SCT","base":7000}],"obsTime":1774828800},"SBJR":{"icaoId":"SBJR","flightCategory":"VFR","rawOb":"METAR SBJR 300000Z 06001KT 9999 SCT040 25/22 Q1017","temp":25,"dewp":22,"wdir":60,"wspd":1,"visib":"6+","altim":1017,"clouds":[{"cover":"SCT","base":4000}],"obsTime":1774828800}}}