{"updated":1783502223,"count":66,"data":{"SBTE":{"icaoId":"SBTE","flightCategory":"VFR","rawOb":"METAR SBTE 080800Z 22003KT 9999 FEW012 BKN100 25/23 Q1014","temp":25,"dewp":23,"wdir":220,"wspd":3,"visib":"6+","altim":1014,"clouds":[{"cover":"FEW","base":1200},{"cover":"BKN","base":10000}],"obsTime":1783497600},"SBSL":{"icaoId":"SBSL","flightCategory":"VFR","rawOb":"METAR SBSL 080800Z 06005KT 9999 FEW020 SCT080 26/25 Q1013","temp":26,"dewp":25,"wdir":60,"wspd":5,"visib":"6+","altim":1013,"clouds":[{"cover":"FEW","base":2000},{"cover":"SCT","base":8000}],"obsTime":1783497600},"SBCT":{"icaoId":"SBCT","flightCategory":"VFR","rawOb":"METAR SBCT 080800Z 11002KT 9000 NSC 03/03 Q1022","temp":3,"dewp":3,"wdir":110,"wspd":2,"visib":5.59,"altim":1022,"clouds":[],"obsTime":1783497600},"SBCG":{"icaoId":"SBCG","flightCategory":"VFR","rawOb":"METAR SBCG 080800Z 10004KT CAVOK 15/12 Q1018","temp":15,"dewp":12,"wdir":100,"wspd":4,"visib":"6+","altim":1018,"clouds":[],"obsTime":1783497600},"SBVT":{"icaoId":"SBVT","flightCategory":"VFR","rawOb":"METAR SBVT 080800Z 21005KT 9999 SCT025 SCT070 20/17 Q1018","temp":20,"dewp":17,"wdir":210,"wspd":5,"visib":"6+","altim":1018,"clouds":[{"cover":"SCT","base":2500},{"cover":"SCT","base":7000}],"obsTime":1783497600},"SBSP":{"icaoId":"SBSP","flightCategory":"MVFR","rawOb":"METAR SBSP 080800Z AUTO 12005KT 9999 BKN016 13/13 Q1022","temp":13,"dewp":13,"wdir":120,"wspd":5,"visib":"6+","altim":1022,"clouds":[{"cover":"BKN","base":1600}],"obsTime":1783497600},"SBEG":{"icaoId":"SBEG","flightCategory":"VFR","rawOb":"METAR SBEG 080800Z 00000KT 9999 FEW008 24/24 Q1014","temp":24,"dewp":24,"wdir":0,"wspd":0,"visib":"6+","altim":1014,"clouds":[{"cover":"FEW","base":800}],"obsTime":1783497600},"SBBR":{"icaoId":"SBBR","flightCategory":"VFR","rawOb":"METAR SBBR 080800Z VRB01KT CAVOK 14/10 Q1022","temp":14,"dewp":10,"wdir":"VRB","wspd":1,"visib":"6+","altim":1022,"clouds":[],"obsTime":1783497600},"SBFI":{"icaoId":"SBFI","flightCategory":"LIFR","rawOb":"METAR SBFI 080800Z 05002KT 1200 0600SE R15///// R33///// PRFG NSC 06/06 Q1019","temp":6,"dewp":6,"wdir":50,"wspd":2,"visib":0.75,"altim":1019,"clouds":[],"obsTime":1783497600},"SBSV":{"icaoId":"SBSV","flightCategory":"VFR","rawOb":"METAR SBSV 080800Z 28002KT 9999 SCT025 SCT080 21/20 Q1017","temp":21,"dewp":20,"wdir":280,"wspd":2,"visib":"6+","altim":1017,"clouds":[{"cover":"SCT","base":2500},{"cover":"SCT","base":8000}],"obsTime":1783497600},"SBRF":{"icaoId":"SBRF","flightCategory":"MVFR","rawOb":"METAR SBRF 080800Z 22005KT 9999 VCSH BKN020 23/21 Q1017","temp":23,"dewp":21,"wdir":220,"wspd":5,"visib":"6+","altim":1017,"clouds":[{"cover":"BKN","base":2000}],"obsTime":1783497600},"SBGO":{"icaoId":"SBGO","flightCategory":"VFR","rawOb":"METAR SBGO 080800Z 11003KT CAVOK 15/12 Q1020","temp":15,"dewp":12,"wdir":110,"wspd":3,"visib":"6+","altim":1020,"clouds":[],"obsTime":1783497600},"SBNT":{"icaoId":"SBNT","flightCategory":"VFR","rawOb":"METAR SBNT 080800Z 18007KT 9999 FEW020 SCT080 23/21 Q1016","temp":23,"dewp":21,"wdir":180,"wspd":7,"visib":"6+","altim":1016,"clouds":[{"cover":"FEW","base":2000},{"cover":"SCT","base":8000}],"obsTime":1783497600},"SBMQ":{"icaoId":"SBMQ","flightCategory":"VFR","rawOb":"METAR SBMQ 080800Z 01003KT 9999 FEW019 26/25 Q1014","temp":26,"dewp":25,"wdir":10,"wspd":3,"visib":"6+","altim":1014,"clouds":[{"cover":"FEW","base":1900}],"obsTime":1783497600},"SBFL":{"icaoId":"SBFL","flightCategory":"VFR","rawOb":"METAR SBFL 080800Z 27005KT 9999 FEW010 10/08 Q1020","temp":10,"dewp":8,"wdir":270,"wspd":5,"visib":"6+","altim":1020,"clouds":[{"cover":"FEW","base":1000}],"obsTime":1783497600},"SBMG":{"icaoId":"SBMG","flightCategory":"VFR","rawOb":"METAR SBMG 080800Z AUTO 13006KT CAVOK 10/06 Q1019","temp":10,"dewp":6,"wdir":130,"wspd":6,"visib":"6+","altim":1019,"clouds":[],"obsTime":1783497600},"SBPV":{"icaoId":"SBPV","flightCategory":"VFR","rawOb":"METAR SBPV 080800Z 00000KT CAVOK 24/22 Q1015","temp":24,"dewp":22,"wdir":0,"wspd":0,"visib":"6+","altim":1015,"clouds":[],"obsTime":1783497600},"SBJU":{"icaoId":"SBJU","flightCategory":"VFR","rawOb":"METAR SBJU 080800Z 00000KT 9999 SCT020 21/15 Q1018","temp":21,"dewp":15,"wdir":0,"wspd":0,"visib":"6+","altim":1018,"clouds":[{"cover":"SCT","base":2000}],"obsTime":1783497600},"SBME":{"icaoId":"SBME","flightCategory":"MVFR","rawOb":"METAR SBME 080800Z 26004KT 9999 BKN026 19/17 Q1019","temp":19,"dewp":17,"wdir":260,"wspd":4,"visib":"6+","altim":1019,"clouds":[{"cover":"BKN","base":2600}],"obsTime":1783497600},"SBMK":{"icaoId":"SBMK","flightCategory":"VFR","rawOb":"METAR SBMK 080800Z 04002KT CAVOK 14/11 Q1019","temp":14,"dewp":11,"wdir":40,"wspd":2,"visib":"6+","altim":1019,"clouds":[],"obsTime":1783497600},"SBFZ":{"icaoId":"SBFZ","flightCategory":"VFR","rawOb":"METAR SBFZ 080800Z 11007KT 9999 SCT016 BKN090 26/25 Q1014","temp":26,"dewp":25,"wdir":110,"wspd":7,"visib":"6+","altim":1014,"clouds":[{"cover":"SCT","base":1600},{"cover":"BKN","base":9000}],"obsTime":1783497600},"SBUL":{"icaoId":"SBUL","flightCategory":"VFR","rawOb":"METAR SBUL 080800Z 17008KT CAVOK 16/12 Q1021","temp":16,"dewp":12,"wdir":170,"wspd":8,"visib":"6+","altim":1021,"clouds":[],"obsTime":1783497600},"SBUR":{"icaoId":"SBUR","flightCategory":"VFR","rawOb":"METAR SBUR 080800Z 10002KT CAVOK 16/12 Q1020","temp":16,"dewp":12,"wdir":100,"wspd":2,"visib":"6+","altim":1020,"clouds":[],"obsTime":1783497600},"SBGL":{"icaoId":"SBGL","flightCategory":"MVFR","rawOb":"METAR SBGL 080800Z 24009KT 9999 FEW015 BKN020 BKN050 20/16 Q1019","temp":20,"dewp":16,"wdir":240,"wspd":9,"visib":"6+","altim":1019,"clouds":[{"cover":"FEW","base":1500},{"cover":"BKN","base":2000},{"cover":"BKN","base":5000}],"obsTime":1783497600},"SBRB":{"icaoId":"SBRB","flightCategory":"LIFR","rawOb":"METAR SBRB 080800Z 15006KT 7000 -DZ BKN004 BKN015 18/17 Q1017","temp":18,"dewp":17,"wdir":150,"wspd":6,"visib":4.35,"altim":1017,"clouds":[{"cover":"BKN","base":400},{"cover":"BKN","base":1500}],"obsTime":1783497600},"SBLO":{"icaoId":"SBLO","flightCategory":"VFR","rawOb":"METAR SBLO 080800Z 24003KT CAVOK 10/05 Q1020","temp":10,"dewp":5,"wdir":240,"wspd":3,"visib":"6+","altim":1020,"clouds":[],"obsTime":1783497600},"SBBV":{"icaoId":"SBBV","flightCategory":"VFR","rawOb":"METAR SBBV 080800Z 14003KT 9999 FEW045 SCT100 26/24 Q1014","temp":26,"dewp":24,"wdir":140,"wspd":3,"visib":"6+","altim":1014,"clouds":[{"cover":"FEW","base":4500},{"cover":"SCT","base":10000}],"obsTime":1783497600},"SBCB":{"icaoId":"SBCB","flightCategory":"MVFR","rawOb":"METAR SBCB 080900Z 26006KT 6000 SCT008 BKN025 21/16 Q1019","temp":21,"dewp":16,"wdir":260,"wspd":6,"visib":3.73,"altim":1019,"clouds":[{"cover":"SCT","base":800},{"cover":"BKN","base":2500}],"obsTime":1783501200},"SBSN":{"icaoId":"SBSN","flightCategory":"VFR","rawOb":"METAR SBSN 080800Z 07006KT 9999 FEW012 27/25 Q1013","temp":27,"dewp":25,"wdir":70,"wspd":6,"visib":"6+","altim":1013,"clouds":[{"cover":"FEW","base":1200}],"obsTime":1783497600},"SBBE":{"icaoId":"SBBE","flightCategory":"VFR","rawOb":"METAR SBBE 080800Z 06006KT 9999 FEW020 SCT045 25/25 Q1014","temp":25,"dewp":25,"wdir":60,"wspd":6,"visib":"6+","altim":1014,"clouds":[{"cover":"FEW","base":2000},{"cover":"SCT","base":4500}],"obsTime":1783497600},"SBKP":{"icaoId":"SBKP","flightCategory":"VFR","rawOb":"METAR SBKP 080800Z 12010KT CAVOK 14/13 Q1020","temp":14,"dewp":13,"wdir":120,"wspd":10,"visib":"6+","altim":1020,"clouds":[],"obsTime":1783497600},"SBMA":{"icaoId":"SBMA","flightCategory":"VFR","rawOb":"METAR SBMA 080800Z 35003KT CAVOK 25/21 Q1014","temp":25,"dewp":21,"wdir":350,"wspd":3,"visib":"6+","altim":1014,"clouds":[],"obsTime":1783497600},"SBGR":{"icaoId":"SBGR","flightCategory":"IFR","rawOb":"METAR SBGR 080800Z 08003KT 9999 OVC009 14/13 Q1021","temp":14,"dewp":13,"wdir":80,"wspd":3,"visib":"6+","altim":1021,"clouds":[{"cover":"OVC","base":900}],"obsTime":1783497600},"SBPA":{"icaoId":"SBPA","flightCategory":"VFR","rawOb":"METAR SBPA 080800Z 28003KT CAVOK 06/06 Q1020","temp":6,"dewp":6,"wdir":280,"wspd":3,"visib":"6+","altim":1020,"clouds":[],"obsTime":1783497600},"SBCF":{"icaoId":"SBCF","flightCategory":"VFR","rawOb":"METAR SBCF 080800Z 00000KT CAVOK 14/11 Q1021","temp":14,"dewp":11,"wdir":0,"wspd":0,"visib":"6+","altim":1021,"clouds":[],"obsTime":1783497600},"SBPJ":{"icaoId":"SBPJ","flightCategory":"VFR","rawOb":"METAR SBPJ 080800Z 14005KT CAVOK 21/17 Q1015","temp":21,"dewp":17,"wdir":140,"wspd":5,"visib":"6+","altim":1015,"clouds":[],"obsTime":1783497600},"SBMO":{"icaoId":"SBMO","flightCategory":"VFR","rawOb":"METAR SBMO 080800Z 29006KT 9999 FEW020 20/20 Q1017","temp":20,"dewp":20,"wdir":290,"wspd":6,"visib":"6+","altim":1017,"clouds":[{"cover":"FEW","base":2000}],"obsTime":1783497600},"SBSG":{"icaoId":"SBSG","flightCategory":"VFR","rawOb":"METAR SBSG 080800Z 19004KT 150V230 9999 SCT021 BKN100 23/22 Q1016","temp":23,"dewp":22,"wdir":190,"wspd":4,"visib":"6+","altim":1016,"clouds":[{"cover":"SCT","base":2100},{"cover":"BKN","base":10000}],"obsTime":1783497600},"SBPL":{"icaoId":"SBPL","flightCategory":"VFR","rawOb":"METAR SBPL 080800Z 10006KT CAVOK 21/17 Q1018","temp":21,"dewp":17,"wdir":100,"wspd":6,"visib":"6+","altim":1018,"clouds":[],"obsTime":1783497600},"SBSJ":{"icaoId":"SBSJ","flightCategory":"MVFR","rawOb":"SPECI SBSJ 080830Z 15007KT 070V210 9999 BKN021 14/13 Q1021","temp":14,"dewp":13,"wdir":150,"wspd":7,"visib":"6+","altim":1021,"clouds":[{"cover":"BKN","base":2100}],"obsTime":1783499400},"SBSM":{"icaoId":"SBSM","flightCategory":"VFR","rawOb":"METAR SBSM 080900Z 15003KT 110V180 CAVOK 03/03 Q1020","temp":3,"dewp":3,"wdir":150,"wspd":3,"visib":"6+","altim":1020,"clouds":[],"obsTime":1783501200},"SBKG":{"icaoId":"SBKG","flightCategory":"VFR","rawOb":"METAR SBKG 080800Z 00000KT CAVOK 19/18 Q1019","temp":19,"dewp":18,"wdir":0,"wspd":0,"visib":"6+","altim":1019,"clouds":[],"obsTime":1783497600},"SBAX":{"icaoId":"SBAX","flightCategory":"VFR","rawOb":"METAR SBAX 080800Z AUTO VRB02KT CAVOK 14/13 Q1021","temp":14,"dewp":13,"wdir":"VRB","wspd":2,"visib":"6+","altim":1021,"clouds":[],"obsTime":1783497600},"SBBH":{"icaoId":"SBBH","flightCategory":"VFR","rawOb":"METAR SBBH 080900Z 00000KT CAVOK 12/11 Q1021","temp":12,"dewp":11,"wdir":0,"wspd":0,"visib":"6+","altim":1021,"clouds":[],"obsTime":1783501200},"SBBU":{"icaoId":"SBBU","flightCategory":"VFR","rawOb":"METAR SBBU 080900Z 10008KT CAVOK 14/14 Q1020","temp":14,"dewp":14,"wdir":100,"wspd":8,"visib":"6+","altim":1020,"clouds":[],"obsTime":1783501200},"SBDN":{"icaoId":"SBDN","flightCategory":"VFR","rawOb":"METAR SBDN 080800Z 00000KT CAVOK 11/09 Q1019","temp":11,"dewp":9,"wdir":0,"wspd":0,"visib":"6+","altim":1019,"clouds":[],"obsTime":1783497600},"SBIP":{"icaoId":"SBIP","flightCategory":"LIFR","rawOb":"METAR SBIP 080800Z AUTO VRB01KT 0650 FG NSC 15/15 Q1018","temp":15,"dewp":15,"wdir":"VRB","wspd":1,"visib":0.4,"altim":1018,"clouds":[],"obsTime":1783497600},"SBSC":{"icaoId":"SBSC","flightCategory":"MVFR","rawOb":"METAR SBSC 080800Z 18009KT 5000 BR SCT007 BKN015 OVC030 18/17 Q1019","temp":18,"dewp":17,"wdir":180,"wspd":9,"visib":3.11,"altim":1019,"clouds":[{"cover":"SCT","base":700},{"cover":"BKN","base":1500},{"cover":"OVC","base":3000}],"obsTime":1783497600},"SBSR":{"icaoId":"SBSR","flightCategory":"VFR","rawOb":"METAR SBSR 080800Z 16003KT CAVOK 17/13 Q1019","temp":17,"dewp":13,"wdir":160,"wspd":3,"visib":"6+","altim":1019,"clouds":[],"obsTime":1783497600},"SBES":{"icaoId":"SBES","flightCategory":"MVFR","rawOb":"METAR SBES 080900Z 20009KT 180V250 8000 -RA BKN020 BKN040 19/// Q1019","temp":null,"dewp":null,"wdir":200,"wspd":9,"visib":4.97,"altim":1019,"clouds":[{"cover":"BKN","base":2000},{"cover":"BKN","base":4000}],"obsTime":1783501200},"SBTU":{"icaoId":"SBTU","flightCategory":"IFR","rawOb":"METAR SBTU 080900Z AUTO 18004KT 9999 // BKN009/// OVC021/// 24/23 Q1017","temp":24,"dewp":23,"wdir":180,"wspd":4,"visib":"6+","altim":1017,"clouds":[{"cover":"BKN","base":900},{"cover":"OVC","base":2100}],"obsTime":1783501200},"SBAR":{"icaoId":"SBAR","flightCategory":"VFR","rawOb":"METAR SBAR 080800Z 32002KT 9999 FEW020 19/19 Q1017","temp":19,"dewp":19,"wdir":320,"wspd":2,"visib":"6+","altim":1017,"clouds":[{"cover":"FEW","base":2000}],"obsTime":1783497600},"SBPS":{"icaoId":"SBPS","flightCategory":"VFR","rawOb":"METAR SBPS 080800Z 30006KT 9999 FEW020 21/20 Q1017","temp":21,"dewp":20,"wdir":300,"wspd":6,"visib":"6+","altim":1017,"clouds":[{"cover":"FEW","base":2000}],"obsTime":1783497600},"SBOI":{"icaoId":"SBOI","flightCategory":"LIFR","rawOb":"METAR SBOI 080800Z AUTO VRB01KT 0750 FG VV001 24/23 Q1015","temp":24,"dewp":23,"wdir":"VRB","wspd":1,"visib":0.47,"altim":1015,"clouds":[{"cover":"OVX","base":100}],"obsTime":1783497600},"SBCA":{"icaoId":"SBCA","flightCategory":"VFR","rawOb":"METAR SBCA 080900Z 04005KT CAVOK 11/01 Q1020","temp":11,"dewp":1,"wdir":40,"wspd":5,"visib":"6+","altim":1020,"clouds":[],"obsTime":1783501200},"SBCO":{"icaoId":"SBCO","flightCategory":"MVFR","rawOb":"METAR SBCO 080900Z 30004KT 7000 NSC 03/03 Q1021","temp":3,"dewp":3,"wdir":300,"wspd":4,"visib":4.35,"altim":1021,"clouds":[],"obsTime":1783501200},"SBMT":{"icaoId":"SBMT","flightCategory":"MVFR","rawOb":"METAR SBMT 080900Z 11003KT 9999 FEW013 BKN015 13/10 Q1021","temp":13,"dewp":10,"wdir":110,"wspd":3,"visib":"6+","altim":1021,"clouds":[{"cover":"FEW","base":1300},{"cover":"BKN","base":1500}],"obsTime":1783501200},"SBTA":{"icaoId":"SBTA","flightCategory":"VFR","rawOb":"METAR SBTA 080900Z 23004KT 9999 SCT020 BKN035 14/13 Q1021","temp":14,"dewp":13,"wdir":230,"wspd":4,"visib":"6+","altim":1021,"clouds":[{"cover":"SCT","base":2000},{"cover":"BKN","base":3500}],"obsTime":1783501200},"SBJP":{"icaoId":"SBJP","flightCategory":"MVFR","rawOb":"METAR SBJP 080800Z 17006KT 9999 BKN020 SCT070 23/21 Q1017","temp":23,"dewp":21,"wdir":170,"wspd":6,"visib":"6+","altim":1017,"clouds":[{"cover":"BKN","base":2000},{"cover":"SCT","base":7000}],"obsTime":1783497600},"SBJV":{"icaoId":"SBJV","flightCategory":"VFR","rawOb":"METAR SBJV 080900Z 02002KT CAVOK 09/08 Q1021","temp":9,"dewp":8,"wdir":20,"wspd":2,"visib":"6+","altim":1021,"clouds":[],"obsTime":1783501200},"SBNM":{"icaoId":"SBNM","flightCategory":"VFR","rawOb":"METAR SBNM 080800Z AUTO 06004KT CAVOK 04/02 Q1019","temp":4,"dewp":2,"wdir":60,"wspd":4,"visib":"6+","altim":1019,"clouds":[],"obsTime":1783497600},"SBPF":{"icaoId":"SBPF","flightCategory":"VFR","rawOb":"METAR SBPF 080900Z 05008KT CAVOK 03/01 Q1021","temp":3,"dewp":1,"wdir":50,"wspd":8,"visib":"6+","altim":1021,"clouds":[],"obsTime":1783501200},"SBLE":{"icaoId":"SBLE","flightCategory":"MVFR","rawOb":"METAR SBLE 080800Z AUTO 02004KT 9999 BKN021 BKN045 ///// Q1020","temp":null,"dewp":null,"wdir":20,"wspd":4,"visib":"6+","altim":1020,"clouds":[{"cover":"BKN","base":2100},{"cover":"BKN","base":4500}],"obsTime":1783497600},"SBAN":{"icaoId":"SBAN","flightCategory":"VFR","rawOb":"METAR SBAN 080800Z 19002KT CAVOK 15/10 Q1022","temp":15,"dewp":10,"wdir":190,"wspd":2,"visib":"6+","altim":1022,"clouds":[],"obsTime":1783497600},"SBGW":{"icaoId":"SBGW","flightCategory":"MVFR","rawOb":"METAR SBGW 080900Z VRB02KT 6000 SCT015 BKN027 16/11 Q1021","temp":16,"dewp":11,"wdir":"VRB","wspd":2,"visib":3.73,"altim":1021,"clouds":[{"cover":"SCT","base":1500},{"cover":"BKN","base":2700}],"obsTime":1783501200},"SBLS":{"icaoId":"SBLS","flightCategory":"VFR","rawOb":"METAR SBLS 080900Z 18006KT CAVOK 14/11 Q1021","temp":14,"dewp":11,"wdir":180,"wspd":6,"visib":"6+","altim":1021,"clouds":[],"obsTime":1783501200}}}