{"updated":1774534670,"count":86,"data":{"SBCT":{"icaoId":"SBCT","flightCategory":"LIFR","rawOb":"METAR SBCT 261000Z 08004KT 4000 BR MIFG BKN004 18/18 Q1020","temp":18,"dewp":18,"wdir":80,"wspd":4,"visib":2.49,"altim":1020,"clouds":[{"cover":"BKN","base":400}],"obsTime":1774519200},"SBSV":{"icaoId":"SBSV","flightCategory":"VFR","rawOb":"METAR SBSV 261000Z 29004KT 9999 SCT020 FEW025TCU BKN060 24/23 Q1013","temp":24,"dewp":23,"wdir":290,"wspd":4,"visib":"6+","altim":1013,"clouds":[{"cover":"SCT","base":2000},{"cover":"FEW","base":2500},{"cover":"BKN","base":6000}],"obsTime":1774519200},"SBBR":{"icaoId":"SBBR","flightCategory":"IFR","rawOb":"METAR SBBR 261000Z 10003KT 9999 BKN009 SCT011 19/18 Q1020","temp":19,"dewp":18,"wdir":100,"wspd":3,"visib":"6+","altim":1020,"clouds":[{"cover":"BKN","base":900},{"cover":"SCT","base":1100}],"obsTime":1774519200},"SBMK":{"icaoId":"SBMK","flightCategory":"VFR","rawOb":"METAR SBMK 261000Z 08002KT CAVOK 22/18 Q1018","temp":22,"dewp":18,"wdir":80,"wspd":2,"visib":"6+","altim":1018,"clouds":[],"obsTime":1774519200},"SBMO":{"icaoId":"SBMO","flightCategory":"VFR","rawOb":"METAR SBMO 261000Z 29005KT 9999 FEW025 SCT070 24/23 Q1013","temp":24,"dewp":23,"wdir":290,"wspd":5,"visib":"6+","altim":1013,"clouds":[{"cover":"FEW","base":2500},{"cover":"SCT","base":7000}],"obsTime":1774519200},"SBFI":{"icaoId":"SBFI","flightCategory":"LIFR","rawOb":"METAR SBFI 261000Z 11005KT 0500 R33/0400 R15/0900 FG VV002 23/23 Q1013","temp":23,"dewp":23,"wdir":110,"wspd":5,"visib":0.31,"altim":1013,"clouds":[{"cover":"OVX","base":200}],"obsTime":1774519200},"SBMQ":{"icaoId":"SBMQ","flightCategory":"MVFR","rawOb":"METAR SBMQ 261000Z 00000KT 9999 VCSH SCT004 BKN016 FEW020TCU 25/24 Q1011","temp":25,"dewp":24,"wdir":0,"wspd":0,"visib":"6+","altim":1011,"clouds":[{"cover":"SCT","base":400},{"cover":"BKN","base":1600},{"cover":"FEW","base":2000}],"obsTime":1774519200},"SBNT":{"icaoId":"SBNT","flightCategory":"VFR","rawOb":"METAR SBNT 261000Z 20006KT 170V230 9999 FEW023 SCT070 26/23 Q1011","temp":26,"dewp":23,"wdir":200,"wspd":6,"visib":"6+","altim":1011,"clouds":[{"cover":"FEW","base":2300},{"cover":"SCT","base":7000}],"obsTime":1774519200},"SBBV":{"icaoId":"SBBV","flightCategory":"VFR","rawOb":"METAR SBBV 261000Z 02003KT 9999 SCT030 FEW035TCU BKN070 25/24 Q1010","temp":25,"dewp":24,"wdir":20,"wspd":3,"visib":"6+","altim":1010,"clouds":[{"cover":"SCT","base":3000},{"cover":"FEW","base":3500},{"cover":"BKN","base":7000}],"obsTime":1774519200},"SBFL":{"icaoId":"SBFL","flightCategory":"VFR","rawOb":"METAR SBFL 261000Z 31005KT CAVOK 25/22 Q1015","temp":25,"dewp":22,"wdir":310,"wspd":5,"visib":"6+","altim":1015,"clouds":[],"obsTime":1774519200},"SBPA":{"icaoId":"SBPA","flightCategory":"IFR","rawOb":"METAR SBPA 261000Z 20005KT 160V250 9999 VCSH FEW005 BKN006 BKN016 22/21 Q1015","temp":22,"dewp":21,"wdir":200,"wspd":5,"visib":"6+","altim":1015,"clouds":[{"cover":"FEW","base":500},{"cover":"BKN","base":600},{"cover":"BKN","base":1600}],"obsTime":1774519200},"SBPJ":{"icaoId":"SBPJ","flightCategory":"VFR","rawOb":"METAR SBPJ 261000Z 15002KT 9999 FEW016 SCT050 23/21 Q1013","temp":23,"dewp":21,"wdir":150,"wspd":2,"visib":"6+","altim":1013,"clouds":[{"cover":"FEW","base":1600},{"cover":"SCT","base":5000}],"obsTime":1774519200},"SBFZ":{"icaoId":"SBFZ","flightCategory":"VFR","rawOb":"METAR SBFZ 261000Z 16004KT 9999 SCT025 28/24 Q1011","temp":28,"dewp":24,"wdir":160,"wspd":4,"visib":"6+","altim":1011,"clouds":[{"cover":"SCT","base":2500}],"obsTime":1774519200},"SBPV":{"icaoId":"SBPV","flightCategory":"VFR","rawOb":"METAR SBPV 261000Z 20004KT 9999 FEW030 24/22 Q1009","temp":24,"dewp":22,"wdir":200,"wspd":4,"visib":"6+","altim":1009,"clouds":[{"cover":"FEW","base":3000}],"obsTime":1774519200},"SBCG":{"icaoId":"SBCG","flightCategory":"VFR","rawOb":"METAR SBCG 261000Z 05003KT CAVOK 20/19 Q1015","temp":20,"dewp":19,"wdir":50,"wspd":3,"visib":"6+","altim":1015,"clouds":[],"obsTime":1774519200},"SBGL":{"icaoId":"SBGL","flightCategory":"VFR","rawOb":"METAR SBGL 261000Z 09002KT CAVOK 26/22 Q1015","temp":26,"dewp":22,"wdir":90,"wspd":2,"visib":"6+","altim":1015,"clouds":[],"obsTime":1774519200},"SBRB":{"icaoId":"SBRB","flightCategory":"LIFR","rawOb":"METAR SBRB 261000Z 28004KT 4000 BR VCSH BKN003 BKN030 23/23 Q1010","temp":23,"dewp":23,"wdir":280,"wspd":4,"visib":2.49,"altim":1010,"clouds":[{"cover":"BKN","base":300},{"cover":"BKN","base":3000}],"obsTime":1774519200},"SBCP":{"icaoId":"SBCP","flightCategory":"VFR","rawOb":"METAR SBCP 261000Z 06002KT CAVOK 24/22 Q0101","temp":24,"dewp":22,"wdir":60,"wspd":2,"visib":"6+","altim":101,"clouds":[],"obsTime":1774519200},"SBRF":{"icaoId":"SBRF","flightCategory":"VFR","rawOb":"METAR SBRF 261000Z 23005KT 200V290 9999 -RA SCT016 BKN070 25/23 Q1012","temp":25,"dewp":23,"wdir":230,"wspd":5,"visib":"6+","altim":1012,"clouds":[{"cover":"SCT","base":1600},{"cover":"BKN","base":7000}],"obsTime":1774519200},"SBBE":{"icaoId":"SBBE","flightCategory":"VFR","rawOb":"METAR SBBE 261000Z 14004KT CAVOK 25/25 Q1011","temp":25,"dewp":25,"wdir":140,"wspd":4,"visib":"6+","altim":1011,"clouds":[],"obsTime":1774519200},"SBSG":{"icaoId":"SBSG","flightCategory":"VFR","rawOb":"METAR SBSG 261000Z 20004KT 170V240 9999 FEW021 25/23 Q1012","temp":25,"dewp":23,"wdir":200,"wspd":4,"visib":"6+","altim":1012,"clouds":[{"cover":"FEW","base":2100}],"obsTime":1774519200},"SBGO":{"icaoId":"SBGO","flightCategory":"VFR","rawOb":"METAR SBGO 261000Z VRB02KT CAVOK 20/19 Q1018","temp":20,"dewp":19,"wdir":"VRB","wspd":2,"visib":"6+","altim":1018,"clouds":[],"obsTime":1774519200},"SBSL":{"icaoId":"SBSL","flightCategory":"VFR","rawOb":"METAR SBSL 261000Z 16004KT 9999 FEW017 BKN080 24/24 Q1010","temp":24,"dewp":24,"wdir":160,"wspd":4,"visib":"6+","altim":1010,"clouds":[{"cover":"FEW","base":1700},{"cover":"BKN","base":8000}],"obsTime":1774519200},"SBCR":{"icaoId":"SBCR","flightCategory":"VFR","rawOb":"METAR SBCR 261100Z 16005KT CAVOK 23/23 Q1012","temp":23,"dewp":23,"wdir":160,"wspd":5,"visib":"6+","altim":1012,"clouds":[],"obsTime":1774522800},"SBSN":{"icaoId":"SBSN","flightCategory":"VFR","rawOb":"METAR SBSN 261000Z 16002KT 9999 FEW013 SCT016 24/24 Q1011","temp":24,"dewp":24,"wdir":160,"wspd":2,"visib":"6+","altim":1011,"clouds":[{"cover":"FEW","base":1300},{"cover":"SCT","base":1600}],"obsTime":1774519200},"SBSP":{"icaoId":"SBSP","flightCategory":"VFR","rawOb":"METAR SBSP 261000Z 14003KT CAVOK 21/19 Q1020","temp":21,"dewp":19,"wdir":140,"wspd":3,"visib":"6+","altim":1020,"clouds":[],"obsTime":1774519200},"SBGR":{"icaoId":"SBGR","flightCategory":"MVFR","rawOb":"METAR SBGR 261000Z 00000KT 8000 NSC 20/19 Q1019","temp":20,"dewp":19,"wdir":0,"wspd":0,"visib":4.97,"altim":1019,"clouds":[],"obsTime":1774519200},"SBME":{"icaoId":"SBME","flightCategory":"VFR","rawOb":"METAR SBME 261000Z 06004KT CAVOK 23/22 Q1015","temp":23,"dewp":22,"wdir":60,"wspd":4,"visib":"6+","altim":1015,"clouds":[],"obsTime":1774519200},"SBMG":{"icaoId":"SBMG","flightCategory":"VFR","rawOb":"METAR SBMG 261000Z 07008KT CAVOK 22/20 Q1015","temp":22,"dewp":20,"wdir":70,"wspd":8,"visib":"6+","altim":1015,"clouds":[],"obsTime":1774519200},"SBVT":{"icaoId":"SBVT","flightCategory":"VFR","rawOb":"METAR SBVT 261000Z 33001KT 9999 FEW015 SCT035 21/21 Q1017","temp":21,"dewp":21,"wdir":330,"wspd":1,"visib":"6+","altim":1017,"clouds":[{"cover":"FEW","base":1500},{"cover":"SCT","base":3500}],"obsTime":1774519200},"SBLO":{"icaoId":"SBLO","flightCategory":"VFR","rawOb":"METAR SBLO 261000Z 10006KT 9999 SCT036 21/20 Q1017","temp":21,"dewp":20,"wdir":100,"wspd":6,"visib":"6+","altim":1017,"clouds":[{"cover":"SCT","base":3600}],"obsTime":1774519200},"SBMA":{"icaoId":"SBMA","flightCategory":"VFR","rawOb":"METAR SBMA 261000Z 00000KT 9999 FEW005 24/23 Q1012","temp":24,"dewp":23,"wdir":0,"wspd":0,"visib":"6+","altim":1012,"clouds":[{"cover":"FEW","base":500}],"obsTime":1774519200},"SBCF":{"icaoId":"SBCF","flightCategory":"VFR","rawOb":"METAR SBCF 261000Z 07004KT 9999 SCT025 SCT100 21/18 Q1021","temp":21,"dewp":18,"wdir":70,"wspd":4,"visib":"6+","altim":1021,"clouds":[{"cover":"SCT","base":2500},{"cover":"SCT","base":10000}],"obsTime":1774519200},"SBEG":{"icaoId":"SBEG","flightCategory":"LIFR","rawOb":"SPECI SBEG 260942Z 07004KT 1500 R29/2000 R11/2000 BR BKN002 BKN100 23/23 Q1010","temp":23,"dewp":23,"wdir":70,"wspd":4,"visib":0.93,"altim":1010,"clouds":[{"cover":"BKN","base":200},{"cover":"BKN","base":10000}],"obsTime":1774518120},"SBHT":{"icaoId":"SBHT","flightCategory":"MVFR","rawOb":"METAR SBHT 261000Z 00000KT 9999 -TSRA BKN010 FEW020CB BKN080 24/23 Q1012","temp":24,"dewp":23,"wdir":0,"wspd":0,"visib":"6+","altim":1012,"clouds":[{"cover":"BKN","base":1000},{"cover":"FEW","base":2000},{"cover":"BKN","base":8000}],"obsTime":1774519200},"SBTE":{"icaoId":"SBTE","flightCategory":"VFR","rawOb":"METAR SBTE 261000Z 17002KT 9999 SCT015 BKN070 24/22 Q1011","temp":24,"dewp":22,"wdir":170,"wspd":2,"visib":"6+","altim":1011,"clouds":[{"cover":"SCT","base":1500},{"cover":"BKN","base":7000}],"obsTime":1774519200},"SBUL":{"icaoId":"SBUL","flightCategory":"VFR","rawOb":"METAR SBUL 261000Z 11010KT 9999 -RA FEW006 BKN070 19/18 Q1019","temp":19,"dewp":18,"wdir":110,"wspd":10,"visib":"6+","altim":1019,"clouds":[{"cover":"FEW","base":600},{"cover":"BKN","base":7000}],"obsTime":1774519200},"SBIL":{"icaoId":"SBIL","flightCategory":"MVFR","rawOb":"METAR SBIL 261000Z 24006KT 180V280 9999 BKN023 FEW025TCU 24/23 Q1014","temp":24,"dewp":23,"wdir":240,"wspd":6,"visib":"6+","altim":1014,"clouds":[{"cover":"BKN","base":2300},{"cover":"FEW","base":2500}],"obsTime":1774519200},"SBUR":{"icaoId":"SBUR","flightCategory":"VFR","rawOb":"METAR SBUR 261000Z 02005KT 9999 FEW040 BKN100 20/18 Q1018","temp":20,"dewp":18,"wdir":20,"wspd":5,"visib":"6+","altim":1018,"clouds":[{"cover":"FEW","base":4000},{"cover":"BKN","base":10000}],"obsTime":1774519200},"SBCB":{"icaoId":"SBCB","flightCategory":"VFR","rawOb":"METAR SBCB 261000Z 06010KT 9999 FEW020 25/23 Q1016","temp":25,"dewp":23,"wdir":60,"wspd":10,"visib":"6+","altim":1016,"clouds":[{"cover":"FEW","base":2000}],"obsTime":1774519200},"SBJU":{"icaoId":"SBJU","flightCategory":"MVFR","rawOb":"METAR SBJU 261000Z 00000KT 9999 BKN020 24/22 Q1014","temp":24,"dewp":22,"wdir":0,"wspd":0,"visib":"6+","altim":1014,"clouds":[{"cover":"BKN","base":2000}],"obsTime":1774519200},"SBKP":{"icaoId":"SBKP","flightCategory":"VFR","rawOb":"METAR SBKP 261000Z VRB02KT CAVOK 22/20 Q1019","temp":22,"dewp":20,"wdir":"VRB","wspd":2,"visib":"6+","altim":1019,"clouds":[],"obsTime":1774519200},"SBKG":{"icaoId":"SBKG","flightCategory":"VFR","rawOb":"METAR SBKG 261300Z 16005KT 9999 FEW018 BKN080 25/19 Q1015","temp":25,"dewp":19,"wdir":160,"wspd":5,"visib":"6+","altim":1015,"clouds":[{"cover":"FEW","base":1800},{"cover":"BKN","base":8000}],"obsTime":1774530000},"SBCC":{"icaoId":"SBCC","flightCategory":"VFR","rawOb":"METAR SBCC 261300Z 05007KT CAVOK 25/22 Q1015","temp":25,"dewp":22,"wdir":50,"wspd":7,"visib":"6+","altim":1015,"clouds":[],"obsTime":1774530000},"SBOI":{"icaoId":"SBOI","flightCategory":"VFR","rawOb":"METAR SBOI 261300Z AUTO VRB02KT 9999 -RA FEW010 SCT023 27/25 Q1012 RERA","temp":27,"dewp":25,"wdir":"VRB","wspd":2,"visib":"6+","altim":1012,"clouds":[{"cover":"FEW","base":1000},{"cover":"SCT","base":2300}],"obsTime":1774530000},"SBBQ":{"icaoId":"SBBQ","flightCategory":"VFR","rawOb":"METAR SBBQ 261300Z 02005KT 320V070 9999 FEW021 23/15 Q1025","temp":23,"dewp":15,"wdir":20,"wspd":5,"visib":"6+","altim":1025,"clouds":[{"cover":"FEW","base":2100}],"obsTime":1774530000},"SBPB":{"icaoId":"SBPB","flightCategory":"VFR","rawOb":"METAR SBPB 261300Z 09008KT 9999 FEW020 31/25 Q1010","temp":31,"dewp":25,"wdir":90,"wspd":8,"visib":"6+","altim":1010,"clouds":[{"cover":"FEW","base":2000}],"obsTime":1774530000},"SBCJ":{"icaoId":"SBCJ","flightCategory":"VFR","rawOb":"METAR SBCJ 261300Z 13008KT 9999 FEW008 SCT090 25/21 Q1017","temp":25,"dewp":21,"wdir":130,"wspd":8,"visib":"6+","altim":1017,"clouds":[{"cover":"FEW","base":800},{"cover":"SCT","base":9000}],"obsTime":1774530000},"SBPL":{"icaoId":"SBPL","flightCategory":"MVFR","rawOb":"METAR SBPL 261300Z 08008KT 9999 BKN030 27/21 Q1015","temp":27,"dewp":21,"wdir":80,"wspd":8,"visib":"6+","altim":1015,"clouds":[{"cover":"BKN","base":3000}],"obsTime":1774530000},"SBAU":{"icaoId":"SBAU","flightCategory":"VFR","rawOb":"METAR SBAU 261300Z 01008KT CAVOK 28/20 Q1017","temp":28,"dewp":20,"wdir":10,"wspd":8,"visib":"6+","altim":1017,"clouds":[],"obsTime":1774530000},"SBPP":{"icaoId":"SBPP","flightCategory":"MVFR","rawOb":"METAR SBPP 261300Z 03003KT 9999 BKN025 23/21 Q1017","temp":23,"dewp":21,"wdir":30,"wspd":3,"visib":"6+","altim":1017,"clouds":[{"cover":"BKN","base":2500}],"obsTime":1774530000},"SBCO":{"icaoId":"SBCO","flightCategory":"LIFR","rawOb":"METAR SBCO 261300Z 29004KT 260V330 4500 -DZ OVC004 22/22 Q1017","temp":22,"dewp":22,"wdir":290,"wspd":4,"visib":2.8,"altim":1017,"clouds":[{"cover":"OVC","base":400}],"obsTime":1774530000},"SBPS":{"icaoId":"SBPS","flightCategory":"VFR","rawOb":"METAR SBPS 261300Z 11006KT 070V150 9999 SCT020 29/25 Q1016","temp":29,"dewp":25,"wdir":110,"wspd":6,"visib":"6+","altim":1016,"clouds":[{"cover":"SCT","base":2000}],"obsTime":1774530000},"SBDN":{"icaoId":"SBDN","flightCategory":"VFR","rawOb":"METAR SBDN 261300Z 05007KT 9999 FEW020 27/20 Q1016","temp":27,"dewp":20,"wdir":50,"wspd":7,"visib":"6+","altim":1016,"clouds":[{"cover":"FEW","base":2000}],"obsTime":1774530000},"SBSC":{"icaoId":"SBSC","flightCategory":"VFR","rawOb":"METAR SBSC 261300Z 34007KT 9999 FEW040 31/23 Q1016","temp":31,"dewp":23,"wdir":340,"wspd":7,"visib":"6+","altim":1016,"clouds":[{"cover":"FEW","base":4000}],"obsTime":1774530000},"SBSJ":{"icaoId":"SBSJ","flightCategory":"VFR","rawOb":"METAR SBSJ 261300Z 03003KT 9999 FEW015 SCT100 25/// Q1020","temp":null,"dewp":null,"wdir":30,"wspd":3,"visib":"6+","altim":1020,"clouds":[{"cover":"FEW","base":1500},{"cover":"SCT","base":10000}],"obsTime":1774530000},"SBAX":{"icaoId":"SBAX","flightCategory":"MVFR","rawOb":"METAR SBAX 261300Z 07006KT 9999 BKN014 BKN020 22/20 Q1022","temp":22,"dewp":20,"wdir":70,"wspd":6,"visib":"6+","altim":1022,"clouds":[{"cover":"BKN","base":1400},{"cover":"BKN","base":2000}],"obsTime":1774530000},"SBSM":{"icaoId":"SBSM","flightCategory":"IFR","rawOb":"METAR SBSM 261300Z 11006KT 2000 BR VV003 21/21 Q1017","temp":21,"dewp":21,"wdir":110,"wspd":6,"visib":1.24,"altim":1017,"clouds":[{"cover":"OVX","base":300}],"obsTime":1774530000},"SBBU":{"icaoId":"SBBU","flightCategory":"VFR","rawOb":"METAR SBBU 261300Z 02010KT 9999 FEW025 27/20 Q1020","temp":27,"dewp":20,"wdir":20,"wspd":10,"visib":"6+","altim":1020,"clouds":[{"cover":"FEW","base":2500}],"obsTime":1774530000},"SBES":{"icaoId":"SBES","flightCategory":"VFR","rawOb":"METAR SBES 261300Z 06014KT 010V080 CAVOK 28/// Q1017","temp":null,"dewp":null,"wdir":60,"wspd":14,"visib":"6+","altim":1017,"clouds":[],"obsTime":1774530000},"SBSR":{"icaoId":"SBSR","flightCategory":"VFR","rawOb":"METAR SBSR 261300Z 07009KT CAVOK 26/19 Q1018","temp":26,"dewp":19,"wdir":70,"wspd":9,"visib":"6+","altim":1018,"clouds":[],"obsTime":1774530000},"SBBH":{"icaoId":"SBBH","flightCategory":"MVFR","rawOb":"METAR SBBH 261300Z 11012KT 9999 BKN030 SCT100 23/17 Q1022","temp":23,"dewp":17,"wdir":110,"wspd":12,"visib":"6+","altim":1022,"clouds":[{"cover":"BKN","base":3000},{"cover":"SCT","base":10000}],"obsTime":1774530000},"SBTD":{"icaoId":"SBTD","flightCategory":"VFR","rawOb":"METAR SBTD 261300Z /////KT CAVOK 26/21 Q1017","temp":26,"dewp":21,"wdir":null,"wspd":null,"visib":"6+","altim":1017,"clouds":[],"obsTime":1774530000},"SBTF":{"icaoId":"SBTF","flightCategory":"VFR","rawOb":"METAR SBTF 261300Z 16006KT 9999 SCT010 27/25 Q1010","temp":27,"dewp":25,"wdir":160,"wspd":6,"visib":"6+","altim":1010,"clouds":[{"cover":"SCT","base":1000}],"obsTime":1774530000},"SBGM":{"icaoId":"SBGM","flightCategory":"MVFR","rawOb":"METAR SBGM 261300Z 01004KT 6000 OVC030 23/21 Q1012 RERA","temp":23,"dewp":21,"wdir":10,"wspd":4,"visib":3.73,"altim":1012,"clouds":[{"cover":"OVC","base":3000}],"obsTime":1774530000},"SBIP":{"icaoId":"SBIP","flightCategory":"VFR","rawOb":"METAR SBIP 261300Z AUTO VRB02KT 9999 FEW023 26/21 Q1020","temp":26,"dewp":21,"wdir":"VRB","wspd":2,"visib":"6+","altim":1020,"clouds":[{"cover":"FEW","base":2300}],"obsTime":1774530000},"SBTT":{"icaoId":"SBTT","flightCategory":"VFR","rawOb":"METAR SBTT 261300Z 13004KT 9999 FEW010 SCT080 26/22 Q1010","temp":26,"dewp":22,"wdir":130,"wspd":4,"visib":"6+","altim":1010,"clouds":[{"cover":"FEW","base":1000},{"cover":"SCT","base":8000}],"obsTime":1774530000},"SBCA":{"icaoId":"SBCA","flightCategory":"VFR","rawOb":"METAR SBCA 261300Z 04010KT CAVOK 25/20 Q1019","temp":25,"dewp":20,"wdir":40,"wspd":10,"visib":"6+","altim":1019,"clouds":[],"obsTime":1774530000},"SBUY":{"icaoId":"SBUY","flightCategory":"VFR","rawOb":"METAR SBUY 261300Z 09002KT 9999 SCT010 25/23 Q1010","temp":25,"dewp":23,"wdir":90,"wspd":2,"visib":"6+","altim":1010,"clouds":[{"cover":"SCT","base":1000}],"obsTime":1774530000},"SBAR":{"icaoId":"SBAR","flightCategory":"VFR","rawOb":"METAR SBAR 261300Z 13007KT 070V150 9999 FEW015 SCT025 29/25 Q1013","temp":29,"dewp":25,"wdir":130,"wspd":7,"visib":"6+","altim":1013,"clouds":[{"cover":"FEW","base":1500},{"cover":"SCT","base":2500}],"obsTime":1774530000},"SBVH":{"icaoId":"SBVH","flightCategory":"LIFR","rawOb":"METAR SBVH 261300Z 08008KT 5000 BR OVC004 23/22 Q1015","temp":23,"dewp":22,"wdir":80,"wspd":8,"visib":3.11,"altim":1015,"clouds":[{"cover":"OVC","base":400}],"obsTime":1774530000},"SBAF":{"icaoId":"SBAF","flightCategory":"VFR","rawOb":"METAR SBAF 261300Z 25003KT 9999 FEW030 30/24 Q1017","temp":30,"dewp":24,"wdir":250,"wspd":3,"visib":"6+","altim":1017,"clouds":[{"cover":"FEW","base":3000}],"obsTime":1774530000},"SBAN":{"icaoId":"SBAN","flightCategory":"VFR","rawOb":"METAR SBAN 261300Z 09008KT 050V110 9999 FEW010 SCT015 22/18 Q1021","temp":22,"dewp":18,"wdir":90,"wspd":8,"visib":"6+","altim":1021,"clouds":[{"cover":"FEW","base":1000},{"cover":"SCT","base":1500}],"obsTime":1774530000},"SBGW":{"icaoId":"SBGW","flightCategory":"VFR","rawOb":"METAR SBGW 261300Z 04004KT 340V090 9999 SCT015 SCT017 26/18 Q1020","temp":26,"dewp":18,"wdir":40,"wspd":4,"visib":"6+","altim":1020,"clouds":[{"cover":"SCT","base":1500},{"cover":"SCT","base":1700}],"obsTime":1774530000},"SBIH":{"icaoId":"SBIH","flightCategory":"VFR","rawOb":"METAR SBIH 261300Z 06003KT 9999 FEW013 27/24 Q1011","temp":27,"dewp":24,"wdir":60,"wspd":3,"visib":"6+","altim":1011,"clouds":[{"cover":"FEW","base":1300}],"obsTime":1774530000},"SBJP":{"icaoId":"SBJP","flightCategory":"MVFR","rawOb":"METAR SBJP 261300Z 13007KT 9999 BKN022 29/23 Q1012","temp":29,"dewp":23,"wdir":130,"wspd":7,"visib":"6+","altim":1012,"clouds":[{"cover":"BKN","base":2200}],"obsTime":1774530000},"SBJR":{"icaoId":"SBJR","flightCategory":"VFR","rawOb":"METAR SBJR 261300Z 18004KT 9999 FEW025 31/23 Q1016","temp":31,"dewp":23,"wdir":180,"wspd":4,"visib":"6+","altim":1016,"clouds":[{"cover":"FEW","base":2500}],"obsTime":1774530000},"SBJV":{"icaoId":"SBJV","flightCategory":"VFR","rawOb":"METAR SBJV 261300Z 19003KT 9999 SCT019 28/24 Q1016","temp":28,"dewp":24,"wdir":190,"wspd":3,"visib":"6+","altim":1016,"clouds":[{"cover":"SCT","base":1900}],"obsTime":1774530000},"SBLE":{"icaoId":"SBLE","flightCategory":"IFR","rawOb":"METAR SBLE 261300Z AUTO 20004KT 160V240 9999 BKN008 BKN031 OVC038 ///// Q////","temp":null,"dewp":null,"wdir":200,"wspd":4,"visib":"6+","altim":null,"clouds":[{"cover":"BKN","base":800},{"cover":"BKN","base":3100},{"cover":"OVC","base":3800}],"obsTime":1774530000},"SBLS":{"icaoId":"SBLS","flightCategory":"MVFR","rawOb":"METAR SBLS 261300Z VRB03KT 9999 BKN026 24/17 Q1021","temp":24,"dewp":17,"wdir":"VRB","wspd":3,"visib":"6+","altim":1021,"clouds":[{"cover":"BKN","base":2600}],"obsTime":1774530000},"SBMT":{"icaoId":"SBMT","flightCategory":"VFR","rawOb":"METAR SBMT 261300Z 31006KT 9999 FEW040 28/20 Q1020","temp":28,"dewp":20,"wdir":310,"wspd":6,"visib":"6+","altim":1020,"clouds":[{"cover":"FEW","base":4000}],"obsTime":1774530000},"SBNM":{"icaoId":"SBNM","flightCategory":"VFR","rawOb":"METAR SBNM 261300Z 15002KT 9999 SCT007 25/21 Q1016","temp":25,"dewp":21,"wdir":150,"wspd":2,"visib":"6+","altim":1016,"clouds":[{"cover":"SCT","base":700}],"obsTime":1774530000},"SBPF":{"icaoId":"SBPF","flightCategory":"VFR","rawOb":"METAR SBPF 261300Z 04011KT CAVOK 24/20 Q1019","temp":24,"dewp":20,"wdir":40,"wspd":11,"visib":"6+","altim":1019,"clouds":[],"obsTime":1774530000},"SBST":{"icaoId":"SBST","flightCategory":"MVFR","rawOb":"METAR SBST 261300Z 07002KT 8000 SCT025 27/22 Q1017","temp":27,"dewp":22,"wdir":70,"wspd":2,"visib":4.97,"altim":1017,"clouds":[{"cover":"SCT","base":2500}],"obsTime":1774530000},"SBTA":{"icaoId":"SBTA","flightCategory":"VFR","rawOb":"METAR SBTA 261300Z 07006KT 020V100 9999 FEW020 SCT100 26/24 Q1019","temp":26,"dewp":24,"wdir":70,"wspd":6,"visib":"6+","altim":1019,"clouds":[{"cover":"FEW","base":2000},{"cover":"SCT","base":10000}],"obsTime":1774530000},"SBTC":{"icaoId":"SBTC","flightCategory":"MVFR","rawOb":"METAR SBTC 261300Z 20008KT 9999 BKN025 30/24 Q1015","temp":30,"dewp":24,"wdir":200,"wspd":8,"visib":"6+","altim":1015,"clouds":[{"cover":"BKN","base":2500}],"obsTime":1774530000}}}