{"updated":1778623169,"count":84,"data":{"SBBV":{"icaoId":"SBBV","flightCategory":"MVFR","rawOb":"METAR SBBV 122000Z 24007KT 9999 VCSH SCT008 BKN018 FEW030TCU BKN070 26/24 Q1011","temp":26,"dewp":24,"wdir":240,"wspd":7,"visib":"6+","altim":1011,"clouds":[{"cover":"SCT","base":800},{"cover":"BKN","base":1800},{"cover":"FEW","base":3000},{"cover":"BKN","base":7000}],"obsTime":1778616000},"SBEG":{"icaoId":"SBEG","flightCategory":"IFR","rawOb":"METAR SBEG 122000Z 17004KT 9999 BKN006 BKN100 24/23 Q1013","temp":24,"dewp":23,"wdir":170,"wspd":4,"visib":"6+","altim":1013,"clouds":[{"cover":"BKN","base":600},{"cover":"BKN","base":10000}],"obsTime":1778616000},"SBMA":{"icaoId":"SBMA","flightCategory":"VFR","rawOb":"METAR SBMA 122000Z 00000KT 9999 FEW020 FEW025TCU BKN100 31/25 Q1010","temp":31,"dewp":25,"wdir":0,"wspd":0,"visib":"6+","altim":1010,"clouds":[{"cover":"FEW","base":2000},{"cover":"FEW","base":2500},{"cover":"BKN","base":10000}],"obsTime":1778616000},"SBME":{"icaoId":"SBME","flightCategory":"VFR","rawOb":"METAR SBME 122000Z 18005KT 9999 FEW025 BKN070 23/16 Q1018","temp":23,"dewp":16,"wdir":180,"wspd":5,"visib":"6+","altim":1018,"clouds":[{"cover":"FEW","base":2500},{"cover":"BKN","base":7000}],"obsTime":1778616000},"SBMG":{"icaoId":"SBMG","flightCategory":"VFR","rawOb":"METAR SBMG 122000Z 17005KT 040V190 CAVOK 20/11 Q1017","temp":20,"dewp":11,"wdir":170,"wspd":5,"visib":"6+","altim":1017,"clouds":[],"obsTime":1778616000},"SBMK":{"icaoId":"SBMK","flightCategory":"VFR","rawOb":"METAR SBMK 122000Z 08006KT CAVOK 28/15 Q1017","temp":28,"dewp":15,"wdir":80,"wspd":6,"visib":"6+","altim":1017,"clouds":[],"obsTime":1778616000},"SBFI":{"icaoId":"SBFI","flightCategory":"VFR","rawOb":"METAR SBFI 122000Z 34005KT CAVOK 21/09 Q1017","temp":21,"dewp":9,"wdir":340,"wspd":5,"visib":"6+","altim":1017,"clouds":[],"obsTime":1778616000},"SBCG":{"icaoId":"SBCG","flightCategory":"VFR","rawOb":"METAR SBCG 122000Z 23007KT CAVOK 23/12 Q1017","temp":23,"dewp":12,"wdir":230,"wspd":7,"visib":"6+","altim":1017,"clouds":[],"obsTime":1778616000},"SBMO":{"icaoId":"SBMO","flightCategory":"VFR","rawOb":"METAR SBMO 122000Z 14009KT 9999 SCT030 SCT070 27/23 Q1013","temp":27,"dewp":23,"wdir":140,"wspd":9,"visib":"6+","altim":1013,"clouds":[{"cover":"SCT","base":3000},{"cover":"SCT","base":7000}],"obsTime":1778616000},"SBMQ":{"icaoId":"SBMQ","flightCategory":"VFR","rawOb":"METAR SBMQ 122000Z 01003KT 9999 SCT010 25/24 Q1010","temp":25,"dewp":24,"wdir":10,"wspd":3,"visib":"6+","altim":1010,"clouds":[{"cover":"SCT","base":1000}],"obsTime":1778616000},"SBFL":{"icaoId":"SBFL","flightCategory":"VFR","rawOb":"METAR SBFL 122000Z 35011KT CAVOK 21/12 Q1015","temp":21,"dewp":12,"wdir":350,"wspd":11,"visib":"6+","altim":1015,"clouds":[],"obsTime":1778616000},"SBNT":{"icaoId":"SBNT","flightCategory":"MVFR","rawOb":"METAR SBNT 122000Z 16005KT 9999 VCSH BKN020 FEW025TCU BKN050 26/25 Q1011","temp":26,"dewp":25,"wdir":160,"wspd":5,"visib":"6+","altim":1011,"clouds":[{"cover":"BKN","base":2000},{"cover":"FEW","base":2500},{"cover":"BKN","base":5000}],"obsTime":1778616000},"SBFZ":{"icaoId":"SBFZ","flightCategory":"VFR","rawOb":"METAR SBFZ 122000Z 09011KT 9999 FEW020 29/24 Q1010","temp":29,"dewp":24,"wdir":90,"wspd":11,"visib":"6+","altim":1010,"clouds":[{"cover":"FEW","base":2000}],"obsTime":1778616000},"SBPA":{"icaoId":"SBPA","flightCategory":"VFR","rawOb":"METAR SBPA 122000Z 29010KT CAVOK 19/06 Q1015","temp":19,"dewp":6,"wdir":290,"wspd":10,"visib":"6+","altim":1015,"clouds":[],"obsTime":1778616000},"SBGL":{"icaoId":"SBGL","flightCategory":"VFR","rawOb":"METAR SBGL 122000Z 13011KT 9999 FEW045 22/13 Q1017","temp":22,"dewp":13,"wdir":130,"wspd":11,"visib":"6+","altim":1017,"clouds":[{"cover":"FEW","base":4500}],"obsTime":1778616000},"SBPJ":{"icaoId":"SBPJ","flightCategory":"VFR","rawOb":"METAR SBPJ 122000Z 23005KT 9999 FEW033 33/22 Q1011","temp":33,"dewp":22,"wdir":230,"wspd":5,"visib":"6+","altim":1011,"clouds":[{"cover":"FEW","base":3300}],"obsTime":1778616000},"SBCP":{"icaoId":"SBCP","flightCategory":"VFR","rawOb":"METAR SBCP 122000Z 19008KT 9999 SCT040 23/16 Q1018","temp":23,"dewp":16,"wdir":190,"wspd":8,"visib":"6+","altim":1018,"clouds":[{"cover":"SCT","base":4000}],"obsTime":1778616000},"SBPV":{"icaoId":"SBPV","flightCategory":"VFR","rawOb":"METAR SBPV 122000Z 17006KT CAVOK 28/22 Q1013","temp":28,"dewp":22,"wdir":170,"wspd":6,"visib":"6+","altim":1013,"clouds":[],"obsTime":1778616000},"SBBR":{"icaoId":"SBBR","flightCategory":"VFR","rawOb":"METAR SBBR 122000Z 12007KT 080V160 9999 FEW045 27/14 Q1019","temp":27,"dewp":14,"wdir":120,"wspd":7,"visib":"6+","altim":1019,"clouds":[{"cover":"FEW","base":4500}],"obsTime":1778616000},"SBRB":{"icaoId":"SBRB","flightCategory":"VFR","rawOb":"METAR SBRB 122000Z 10004KT CAVOK 25/18 Q1014","temp":25,"dewp":18,"wdir":100,"wspd":4,"visib":"6+","altim":1014,"clouds":[],"obsTime":1778616000},"SBGO":{"icaoId":"SBGO","flightCategory":"VFR","rawOb":"METAR SBGO 122000Z 35002KT 9999 FEW049 30/16 Q1017","temp":30,"dewp":16,"wdir":350,"wspd":2,"visib":"6+","altim":1017,"clouds":[{"cover":"FEW","base":4900}],"obsTime":1778616000},"SBRF":{"icaoId":"SBRF","flightCategory":"MVFR","rawOb":"METAR SBRF 122000Z 14010KT 9999 BKN015 BKN070 27/23 Q1011","temp":27,"dewp":23,"wdir":140,"wspd":10,"visib":"6+","altim":1011,"clouds":[{"cover":"BKN","base":1500},{"cover":"BKN","base":7000}],"obsTime":1778616000},"SBGR":{"icaoId":"SBGR","flightCategory":"VFR","rawOb":"METAR SBGR 122000Z 05006KT CAVOK 20/10 Q1019","temp":20,"dewp":10,"wdir":50,"wspd":6,"visib":"6+","altim":1019,"clouds":[],"obsTime":1778616000},"SBSG":{"icaoId":"SBSG","flightCategory":"VFR","rawOb":"METAR SBSG 122000Z 14006KT 100V170 9999 SCT021 BKN100 27/24 Q1011","temp":27,"dewp":24,"wdir":140,"wspd":6,"visib":"6+","altim":1011,"clouds":[{"cover":"SCT","base":2100},{"cover":"BKN","base":10000}],"obsTime":1778616000},"SBCR":{"icaoId":"SBCR","flightCategory":"VFR","rawOb":"METAR SBCR 122000Z 25003KT 220V290 CAVOK 23/12 Q1015","temp":23,"dewp":12,"wdir":250,"wspd":3,"visib":"6+","altim":1015,"clouds":[],"obsTime":1778616000},"SBCF":{"icaoId":"SBCF","flightCategory":"VFR","rawOb":"METAR SBCF 122000Z 11007KT 9999 SCT040 FEW045TCU SCT100 24/18 Q1019","temp":24,"dewp":18,"wdir":110,"wspd":7,"visib":"6+","altim":1019,"clouds":[{"cover":"SCT","base":4000},{"cover":"FEW","base":4500},{"cover":"SCT","base":10000}],"obsTime":1778616000},"SBLO":{"icaoId":"SBLO","flightCategory":"VFR","rawOb":"METAR SBLO 122000Z 13003KT CAVOK 20/08 Q1018","temp":20,"dewp":8,"wdir":130,"wspd":3,"visib":"6+","altim":1018,"clouds":[],"obsTime":1778616000},"SBSL":{"icaoId":"SBSL","flightCategory":"MVFR","rawOb":"METAR SBSL 122000Z 02011KT 9999 TS VCSH BKN017 FEW025CB BKN090 28/25 Q1009","temp":28,"dewp":25,"wdir":20,"wspd":11,"visib":"6+","altim":1009,"clouds":[{"cover":"BKN","base":1700},{"cover":"FEW","base":2500},{"cover":"BKN","base":9000}],"obsTime":1778616000},"SBHT":{"icaoId":"SBHT","flightCategory":"VFR","rawOb":"METAR SBHT 122000Z 22002KT 9999 FEW015 BKN090 27/24 Q1011","temp":27,"dewp":24,"wdir":220,"wspd":2,"visib":"6+","altim":1011,"clouds":[{"cover":"FEW","base":1500},{"cover":"BKN","base":9000}],"obsTime":1778616000},"SBSN":{"icaoId":"SBSN","flightCategory":"VFR","rawOb":"METAR SBSN 122000Z 18001KT 9999 FEW009 OVC100 27/25 Q1011","temp":27,"dewp":25,"wdir":180,"wspd":1,"visib":"6+","altim":1011,"clouds":[{"cover":"FEW","base":900},{"cover":"OVC","base":10000}],"obsTime":1778616000},"SBCT":{"icaoId":"SBCT","flightCategory":"VFR","rawOb":"METAR SBCT 122000Z 27008KT 250V340 CAVOK 19/M02 Q1019","temp":19,"dewp":-2,"wdir":270,"wspd":8,"visib":"6+","altim":1019,"clouds":[],"obsTime":1778616000},"SBSP":{"icaoId":"SBSP","flightCategory":"VFR","rawOb":"METAR SBSP 122000Z 16006KT CAVOK 19/12 Q1019","temp":19,"dewp":12,"wdir":160,"wspd":6,"visib":"6+","altim":1019,"clouds":[],"obsTime":1778616000},"SBSV":{"icaoId":"SBSV","flightCategory":"VFR","rawOb":"METAR SBSV 122000Z 15008KT 9999 SCT021 28/23 Q1014","temp":28,"dewp":23,"wdir":150,"wspd":8,"visib":"6+","altim":1014,"clouds":[{"cover":"SCT","base":2100}],"obsTime":1778616000},"SBIL":{"icaoId":"SBIL","flightCategory":"VFR","rawOb":"METAR SBIL 122000Z 19010KT 170V250 9999 SCT025 28/23 Q1015","temp":28,"dewp":23,"wdir":190,"wspd":10,"visib":"6+","altim":1015,"clouds":[{"cover":"SCT","base":2500}],"obsTime":1778616000},"SBCB":{"icaoId":"SBCB","flightCategory":"VFR","rawOb":"METAR SBCB 122000Z 21006KT 9999 SCT025 BKN100 22/16 Q1018","temp":22,"dewp":16,"wdir":210,"wspd":6,"visib":"6+","altim":1018,"clouds":[{"cover":"SCT","base":2500},{"cover":"BKN","base":10000}],"obsTime":1778616000},"SBTE":{"icaoId":"SBTE","flightCategory":"VFR","rawOb":"METAR SBTE 122000Z 01004KT 9999 SCT025 FEW030TCU 31/25 Q1009","temp":31,"dewp":25,"wdir":10,"wspd":4,"visib":"6+","altim":1009,"clouds":[{"cover":"SCT","base":2500},{"cover":"FEW","base":3000}],"obsTime":1778616000},"SBUL":{"icaoId":"SBUL","flightCategory":"VFR","rawOb":"METAR SBUL 122000Z 36003KT 290V030 9999 FEW040 BKN100 25/15 Q1019","temp":25,"dewp":15,"wdir":360,"wspd":3,"visib":"6+","altim":1019,"clouds":[{"cover":"FEW","base":4000},{"cover":"BKN","base":10000}],"obsTime":1778616000},"SBJU":{"icaoId":"SBJU","flightCategory":"VFR","rawOb":"METAR SBJU 122000Z 04006KT 9999 FEW022 30/22 Q1012","temp":30,"dewp":22,"wdir":40,"wspd":6,"visib":"6+","altim":1012,"clouds":[{"cover":"FEW","base":2200}],"obsTime":1778616000},"SBUR":{"icaoId":"SBUR","flightCategory":"VFR","rawOb":"METAR SBUR 122000Z 21005KT CAVOK 26/15 Q1018","temp":26,"dewp":15,"wdir":210,"wspd":5,"visib":"6+","altim":1018,"clouds":[],"obsTime":1778616000},"SBCZ":{"icaoId":"SBCZ","flightCategory":"VFR","rawOb":"METAR SBCZ 122000Z 19004KT 9999 SCT020 BKN100 24/19 Q1014","temp":24,"dewp":19,"wdir":190,"wspd":4,"visib":"6+","altim":1014,"clouds":[{"cover":"SCT","base":2000},{"cover":"BKN","base":10000}],"obsTime":1778616000},"SBVT":{"icaoId":"SBVT","flightCategory":"VFR","rawOb":"METAR SBVT 122000Z 17009KT 9999 FEW045 OVC050 22/17 Q1018","temp":22,"dewp":17,"wdir":170,"wspd":9,"visib":"6+","altim":1018,"clouds":[{"cover":"FEW","base":4500},{"cover":"OVC","base":5000}],"obsTime":1778616000},"SBAT":{"icaoId":"SBAT","flightCategory":"VFR","rawOb":"METAR SBAT 122000Z 20002KT 9999 FEW030 31/22 Q1013","temp":31,"dewp":22,"wdir":200,"wspd":2,"visib":"6+","altim":1013,"clouds":[{"cover":"FEW","base":3000}],"obsTime":1778616000},"SBKP":{"icaoId":"SBKP","flightCategory":"VFR","rawOb":"METAR SBKP 122000Z 27004KT 220V020 CAVOK 23/07 Q1018","temp":23,"dewp":7,"wdir":270,"wspd":4,"visib":"6+","altim":1018,"clouds":[],"obsTime":1778616000},"SBBE":{"icaoId":"SBBE","flightCategory":"VFR","rawOb":"METAR SBBE 122000Z 02007KT 9999 SCT030 FEW035TCU BKN080 29/25 Q1008","temp":29,"dewp":25,"wdir":20,"wspd":7,"visib":"6+","altim":1008,"clouds":[{"cover":"SCT","base":3000},{"cover":"FEW","base":3500},{"cover":"BKN","base":8000}],"obsTime":1778616000},"SBPB":{"icaoId":"SBPB","flightCategory":"VFR","rawOb":"METAR SBPB 122000Z 04011KT 9999 FEW016 FEW025TCU BKN080 30/26 Q1009","temp":30,"dewp":26,"wdir":40,"wspd":11,"visib":"6+","altim":1009,"clouds":[{"cover":"FEW","base":1600},{"cover":"FEW","base":2500},{"cover":"BKN","base":8000}],"obsTime":1778616000},"SBCJ":{"icaoId":"SBCJ","flightCategory":"VFR","rawOb":"METAR SBCJ 122000Z 00000KT 9999 SCT027 FEW030TCU 27/23 Q1015","temp":27,"dewp":23,"wdir":0,"wspd":0,"visib":"6+","altim":1015,"clouds":[{"cover":"SCT","base":2700},{"cover":"FEW","base":3000}],"obsTime":1778616000},"SBAX":{"icaoId":"SBAX","flightCategory":"VFR","rawOb":"METAR SBAX 122000Z 30006KT 9999 SCT035 26/14 Q1019","temp":26,"dewp":14,"wdir":300,"wspd":6,"visib":"6+","altim":1019,"clouds":[{"cover":"SCT","base":3500}],"obsTime":1778616000},"SBBH":{"icaoId":"SBBH","flightCategory":"VFR","rawOb":"METAR SBBH 122000Z 07007KT 9999 SCT040 BKN090 24/18 Q1018","temp":24,"dewp":18,"wdir":70,"wspd":7,"visib":"6+","altim":1018,"clouds":[{"cover":"SCT","base":4000},{"cover":"BKN","base":9000}],"obsTime":1778616000},"SBBU":{"icaoId":"SBBU","flightCategory":"VFR","rawOb":"METAR SBBU 122000Z 09003KT CAVOK 24/05 Q1017","temp":24,"dewp":5,"wdir":90,"wspd":3,"visib":"6+","altim":1017,"clouds":[],"obsTime":1778616000},"SBAR":{"icaoId":"SBAR","flightCategory":"VFR","rawOb":"METAR SBAR 122000Z 11010KT 9999 SCT025 28/23 Q1013","temp":28,"dewp":23,"wdir":110,"wspd":10,"visib":"6+","altim":1013,"clouds":[{"cover":"SCT","base":2500}],"obsTime":1778616000},"SBCA":{"icaoId":"SBCA","flightCategory":"VFR","rawOb":"METAR SBCA 122000Z 29005KT CAVOK 20/07 Q1019","temp":20,"dewp":7,"wdir":290,"wspd":5,"visib":"6+","altim":1019,"clouds":[],"obsTime":1778616000},"SBCO":{"icaoId":"SBCO","flightCategory":"VFR","rawOb":"METAR SBCO 122000Z 27008KT CAVOK 19/07 Q1016","temp":19,"dewp":7,"wdir":270,"wspd":8,"visib":"6+","altim":1016,"clouds":[],"obsTime":1778616000},"SBDN":{"icaoId":"SBDN","flightCategory":"VFR","rawOb":"METAR SBDN 122000Z 15003KT CAVOK 24/06 Q1017","temp":24,"dewp":6,"wdir":150,"wspd":3,"visib":"6+","altim":1017,"clouds":[],"obsTime":1778616000},"SBES":{"icaoId":"SBES","flightCategory":"VFR","rawOb":"METAR SBES 122000Z 20006KT 120V260 9999 SCT030 BKN050 21/// Q1018","temp":null,"dewp":null,"wdir":200,"wspd":6,"visib":"6+","altim":1018,"clouds":[{"cover":"SCT","base":3000},{"cover":"BKN","base":5000}],"obsTime":1778616000},"SBIP":{"icaoId":"SBIP","flightCategory":"VFR","rawOb":"METAR SBIP 122000Z AUTO 19004KT CAVOK 23/20 Q1017","temp":23,"dewp":20,"wdir":190,"wspd":4,"visib":"6+","altim":1017,"clouds":[],"obsTime":1778616000},"SBKG":{"icaoId":"SBKG","flightCategory":"IFR","rawOb":"METAR SBKG 122000Z 16008KT 8000 OVC009 22/21 Q1014 RERA","temp":22,"dewp":21,"wdir":160,"wspd":8,"visib":4.97,"altim":1014,"clouds":[{"cover":"OVC","base":900}],"obsTime":1778616000},"SBOI":{"icaoId":"SBOI","flightCategory":"VFR","rawOb":"METAR SBOI 122000Z AUTO 36004KT 340V050 9999 BKN031 BKN037 27/25 Q1011","temp":27,"dewp":25,"wdir":360,"wspd":4,"visib":"6+","altim":1011,"clouds":[{"cover":"BKN","base":3100},{"cover":"BKN","base":3700}],"obsTime":1778616000},"SBPL":{"icaoId":"SBPL","flightCategory":"VFR","rawOb":"METAR SBPL 122000Z 14009KT 9999 SCT035 32/20 Q1012","temp":32,"dewp":20,"wdir":140,"wspd":9,"visib":"6+","altim":1012,"clouds":[{"cover":"SCT","base":3500}],"obsTime":1778616000},"SBPP":{"icaoId":"SBPP","flightCategory":"VFR","rawOb":"METAR SBPP 122000Z 07006KT CAVOK 19/06 Q1018","temp":19,"dewp":6,"wdir":70,"wspd":6,"visib":"6+","altim":1018,"clouds":[],"obsTime":1778616000},"SBPS":{"icaoId":"SBPS","flightCategory":"MVFR","rawOb":"METAR SBPS 122000Z 20003KT 9999 BKN016 BKN070 25/22 Q1016","temp":25,"dewp":22,"wdir":200,"wspd":3,"visib":"6+","altim":1016,"clouds":[{"cover":"BKN","base":1600},{"cover":"BKN","base":7000}],"obsTime":1778616000},"SBSC":{"icaoId":"SBSC","flightCategory":"VFR","rawOb":"METAR SBSC 122000Z 17006KT CAVOK 21/15 Q1018","temp":21,"dewp":15,"wdir":170,"wspd":6,"visib":"6+","altim":1018,"clouds":[],"obsTime":1778616000},"SBSJ":{"icaoId":"SBSJ","flightCategory":"VFR","rawOb":"METAR SBSJ 122000Z 31003KT 290V350 CAVOK 20/11 Q1018","temp":20,"dewp":11,"wdir":310,"wspd":3,"visib":"6+","altim":1018,"clouds":[],"obsTime":1778616000},"SBSM":{"icaoId":"SBSM","flightCategory":"VFR","rawOb":"METAR SBSM 122000Z 25003KT 190V290 CAVOK 20/09 Q1016","temp":20,"dewp":9,"wdir":250,"wspd":3,"visib":"6+","altim":1016,"clouds":[],"obsTime":1778616000},"SBSR":{"icaoId":"SBSR","flightCategory":"VFR","rawOb":"METAR SBSR 122000Z 25006KT CAVOK 25/06 Q1017","temp":25,"dewp":6,"wdir":250,"wspd":6,"visib":"6+","altim":1017,"clouds":[],"obsTime":1778616000},"SBTF":{"icaoId":"SBTF","flightCategory":"MVFR","rawOb":"METAR SBTF 122000Z 25004KT 9999 FEW008 OVC015 24/22 Q1013","temp":24,"dewp":22,"wdir":250,"wspd":4,"visib":"6+","altim":1013,"clouds":[{"cover":"FEW","base":800},{"cover":"OVC","base":1500}],"obsTime":1778616000},"SBTT":{"icaoId":"SBTT","flightCategory":"MVFR","rawOb":"METAR SBTT 122000Z 13004KT 9999 OVC025 22/19 Q1015","temp":22,"dewp":19,"wdir":130,"wspd":4,"visib":"6+","altim":1015,"clouds":[{"cover":"OVC","base":2500}],"obsTime":1778616000},"SBTU":{"icaoId":"SBTU","flightCategory":"VFR","rawOb":"METAR SBTU 122000Z AUTO 26003KT 210V300 9999 // ///////// ///// Q1012","temp":null,"dewp":null,"wdir":260,"wspd":3,"visib":"6+","altim":1012,"clouds":[],"obsTime":1778616000},"SBUY":{"icaoId":"SBUY","flightCategory":"LIFR","rawOb":"METAR SBUY 122000Z 32002KT 1200 -RA BR BKN010 BKN070 22/22 Q1013","temp":22,"dewp":22,"wdir":320,"wspd":2,"visib":0.75,"altim":1013,"clouds":[{"cover":"BKN","base":1000},{"cover":"BKN","base":7000}],"obsTime":1778616000},"SBVH":{"icaoId":"SBVH","flightCategory":"VFR","rawOb":"METAR SBVH 122000Z 10003KT 9999 FEW025 24/18 Q1016","temp":24,"dewp":18,"wdir":100,"wspd":3,"visib":"6+","altim":1016,"clouds":[{"cover":"FEW","base":2500}],"obsTime":1778616000},"SBCC":{"icaoId":"SBCC","flightCategory":"MVFR","rawOb":"METAR SBCC 122000Z /////KT 9999 BKN025 ///// Q1013","temp":null,"dewp":null,"wdir":null,"wspd":null,"visib":"6+","altim":1013,"clouds":[{"cover":"BKN","base":2500}],"obsTime":1778616000},"SBJP":{"icaoId":"SBJP","flightCategory":"IFR","rawOb":"METAR SBJP 122000Z 12008KT 080V160 2000 -RA BKN006 BKN016 25/25 Q1012","temp":25,"dewp":25,"wdir":120,"wspd":8,"visib":1.24,"altim":1012,"clouds":[{"cover":"BKN","base":600},{"cover":"BKN","base":1600}],"obsTime":1778616000},"SBJV":{"icaoId":"SBJV","flightCategory":"VFR","rawOb":"METAR SBJV 122000Z 04004KT CAVOK 21/13 Q1016","temp":21,"dewp":13,"wdir":40,"wspd":4,"visib":"6+","altim":1016,"clouds":[],"obsTime":1778616000},"SBNM":{"icaoId":"SBNM","flightCategory":"VFR","rawOb":"METAR SBNM 122000Z AUTO 27005KT 250V310 CAVOK 20/06 Q1017","temp":20,"dewp":6,"wdir":270,"wspd":5,"visib":"6+","altim":1017,"clouds":[],"obsTime":1778616000},"SBPF":{"icaoId":"SBPF","flightCategory":"VFR","rawOb":"METAR SBPF 122000Z 30006KT CAVOK 18/02 Q1019","temp":18,"dewp":2,"wdir":300,"wspd":6,"visib":"6+","altim":1019,"clouds":[],"obsTime":1778616000},"SBAN":{"icaoId":"SBAN","flightCategory":"VFR","rawOb":"METAR SBAN 122000Z 15003KT 090V210 9999 FEW045 26/13 Q1019","temp":26,"dewp":13,"wdir":150,"wspd":3,"visib":"6+","altim":1019,"clouds":[{"cover":"FEW","base":4500}],"obsTime":1778616000},"SBIH":{"icaoId":"SBIH","flightCategory":"VFR","rawOb":"METAR SBIH 122000Z 17004KT 9999 FEW015 FEW025TCU 28/24 Q1011","temp":28,"dewp":24,"wdir":170,"wspd":4,"visib":"6+","altim":1011,"clouds":[{"cover":"FEW","base":1500},{"cover":"FEW","base":2500}],"obsTime":1778616000},"SBAF":{"icaoId":"SBAF","flightCategory":"VFR","rawOb":"METAR SBAF 122000Z 19011KT 9999 FEW020 21/15 Q1018","temp":21,"dewp":15,"wdir":190,"wspd":11,"visib":"6+","altim":1018,"clouds":[{"cover":"FEW","base":2000}],"obsTime":1778616000},"SBGW":{"icaoId":"SBGW","flightCategory":"VFR","rawOb":"METAR SBGW 122000Z 02005KT 330V050 CAVOK 21/10 Q1018","temp":21,"dewp":10,"wdir":20,"wspd":5,"visib":"6+","altim":1018,"clouds":[],"obsTime":1778616000},"SBJR":{"icaoId":"SBJR","flightCategory":"VFR","rawOb":"METAR SBJR 122000Z 18004KT CAVOK 22/14 Q1017","temp":22,"dewp":14,"wdir":180,"wspd":4,"visib":"6+","altim":1017,"clouds":[],"obsTime":1778616000},"SBLS":{"icaoId":"SBLS","flightCategory":"VFR","rawOb":"METAR SBLS 122000Z 12006KT 9999 SCT030 FEW045TCU SCT090 23/18 Q1018","temp":23,"dewp":18,"wdir":120,"wspd":6,"visib":"6+","altim":1018,"clouds":[{"cover":"SCT","base":3000},{"cover":"FEW","base":4500},{"cover":"SCT","base":9000}],"obsTime":1778616000},"SBMT":{"icaoId":"SBMT","flightCategory":"VFR","rawOb":"METAR SBMT 122000Z 08003KT CAVOK 20/07 Q1018","temp":20,"dewp":7,"wdir":80,"wspd":3,"visib":"6+","altim":1018,"clouds":[],"obsTime":1778616000},"SBST":{"icaoId":"SBST","flightCategory":"VFR","rawOb":"METAR SBST 122000Z 14006KT 9999 FEW045 20/12 Q1017","temp":20,"dewp":12,"wdir":140,"wspd":6,"visib":"6+","altim":1017,"clouds":[{"cover":"FEW","base":4500}],"obsTime":1778616000},"SBTA":{"icaoId":"SBTA","flightCategory":"VFR","rawOb":"METAR SBTA 122000Z 00000KT CAVOK 22/11 Q1017","temp":22,"dewp":11,"wdir":0,"wspd":0,"visib":"6+","altim":1017,"clouds":[],"obsTime":1778616000},"SBLE":{"icaoId":"SBLE","flightCategory":"VFR","rawOb":"METAR SBLE 122000Z AUTO 24003KT 180V270 CAVOK 27/19 Q1016","temp":27,"dewp":19,"wdir":240,"wspd":3,"visib":"6+","altim":1016,"clouds":[],"obsTime":1778616000}}}