{"updated":1773932979,"count":87,"data":{"SBVT":{"icaoId":"SBVT","flightCategory":"VFR","rawOb":"METAR SBVT 191400Z 02009KT 340V050 9999 FEW030 SCT090 31/24 Q1008","temp":31,"dewp":24,"wdir":20,"wspd":9,"visib":"6+","altim":1008,"clouds":[{"cover":"FEW","base":3000},{"cover":"SCT","base":9000}],"obsTime":1773928800},"SBBE":{"icaoId":"SBBE","flightCategory":"VFR","rawOb":"METAR SBBE 191400Z 09003KT 9999 SCT017 BKN034 BKN042 29/24 Q1011","temp":29,"dewp":24,"wdir":90,"wspd":3,"visib":"6+","altim":1011,"clouds":[{"cover":"SCT","base":1700},{"cover":"BKN","base":3400},{"cover":"BKN","base":4200}],"obsTime":1773928800},"SBBR":{"icaoId":"SBBR","flightCategory":"VFR","rawOb":"METAR SBBR 191400Z 07004KT 030V170 9999 FEW030 26/19 Q1016","temp":26,"dewp":19,"wdir":70,"wspd":4,"visib":"6+","altim":1016,"clouds":[{"cover":"FEW","base":3000}],"obsTime":1773928800},"SBBV":{"icaoId":"SBBV","flightCategory":"VFR","rawOb":"METAR SBBV 191400Z 09013KT 9999 FEW035 SCT100 30/20 Q1012","temp":30,"dewp":20,"wdir":90,"wspd":13,"visib":"6+","altim":1012,"clouds":[{"cover":"FEW","base":3500},{"cover":"SCT","base":10000}],"obsTime":1773928800},"SBCB":{"icaoId":"SBCB","flightCategory":"VFR","rawOb":"METAR SBCB 191400Z 07010KT 9999 SCT015 SCT050 BKN100 29/24 Q1009","temp":29,"dewp":24,"wdir":70,"wspd":10,"visib":"6+","altim":1009,"clouds":[{"cover":"SCT","base":1500},{"cover":"SCT","base":5000},{"cover":"BKN","base":10000}],"obsTime":1773928800},"SBCF":{"icaoId":"SBCF","flightCategory":"IFR","rawOb":"SPECI SBCF 191335Z COR 21003KT 2000 BR SCT003 SCT020 21/21 Q1015 RETS","temp":21,"dewp":21,"wdir":210,"wspd":3,"visib":1.24,"altim":1015,"clouds":[{"cover":"SCT","base":300},{"cover":"SCT","base":2000}],"obsTime":1773927300},"SBCG":{"icaoId":"SBCG","flightCategory":"VFR","rawOb":"METAR SBCG 191400Z 34007KT 300V020 9999 SCT018 26/21 Q1012","temp":26,"dewp":21,"wdir":340,"wspd":7,"visib":"6+","altim":1012,"clouds":[{"cover":"SCT","base":1800}],"obsTime":1773928800},"SBCP":{"icaoId":"SBCP","flightCategory":"MVFR","rawOb":"METAR SBCP 191400Z 07007KT 9999 BKN015 30/24 Q1009","temp":30,"dewp":24,"wdir":70,"wspd":7,"visib":"6+","altim":1009,"clouds":[{"cover":"BKN","base":1500}],"obsTime":1773928800},"SBCR":{"icaoId":"SBCR","flightCategory":"MVFR","rawOb":"METAR SBCR 191400Z 35004KT 320V020 9999 BKN013 BKN025 27/24 Q1009","temp":27,"dewp":24,"wdir":350,"wspd":4,"visib":"6+","altim":1009,"clouds":[{"cover":"BKN","base":1300},{"cover":"BKN","base":2500}],"obsTime":1773928800},"SBCT":{"icaoId":"SBCT","flightCategory":"MVFR","rawOb":"SPECI SBCT 191323Z 15004KT 090V220 9999 BKN017 BKN025 25/20 Q1014","temp":25,"dewp":20,"wdir":150,"wspd":4,"visib":"6+","altim":1014,"clouds":[{"cover":"BKN","base":1700},{"cover":"BKN","base":2500}],"obsTime":1773926580},"SBEG":{"icaoId":"SBEG","flightCategory":"IFR","rawOb":"SPECI SBEG 191335Z 25009KT 5000 -TSRA BKN007 FEW030CB BKN100 23/23 Q1013 RERA","temp":23,"dewp":23,"wdir":250,"wspd":9,"visib":3.11,"altim":1013,"clouds":[{"cover":"BKN","base":700},{"cover":"FEW","base":3000},{"cover":"BKN","base":10000}],"obsTime":1773927300},"SBFI":{"icaoId":"SBFI","flightCategory":"VFR","rawOb":"SPECI SBFI 191312Z 09003KT 9999 SCT006 27/26 Q1009","temp":27,"dewp":26,"wdir":90,"wspd":3,"visib":"6+","altim":1009,"clouds":[{"cover":"SCT","base":600}],"obsTime":1773925920},"SBFL":{"icaoId":"SBFL","flightCategory":"VFR","rawOb":"METAR SBFL 191400Z 34004KT 290V060 9999 FEW025 SCT050 29/23 Q1009","temp":29,"dewp":23,"wdir":340,"wspd":4,"visib":"6+","altim":1009,"clouds":[{"cover":"FEW","base":2500},{"cover":"SCT","base":5000}],"obsTime":1773928800},"SBFZ":{"icaoId":"SBFZ","flightCategory":"VFR","rawOb":"METAR SBFZ 191400Z 09011KT 9999 SCT020 31/25 Q1010","temp":31,"dewp":25,"wdir":90,"wspd":11,"visib":"6+","altim":1010,"clouds":[{"cover":"SCT","base":2000}],"obsTime":1773928800},"SBGL":{"icaoId":"SBGL","flightCategory":"VFR","rawOb":"METAR SBGL 191400Z 11005KT 9000 FEW015 BKN100 28/23 Q1009","temp":28,"dewp":23,"wdir":110,"wspd":5,"visib":5.59,"altim":1009,"clouds":[{"cover":"FEW","base":1500},{"cover":"BKN","base":10000}],"obsTime":1773928800},"SBGO":{"icaoId":"SBGO","flightCategory":"VFR","rawOb":"METAR SBGO 191400Z VRB04KT 9999 SCT033 28/21 Q1014","temp":28,"dewp":21,"wdir":"VRB","wspd":4,"visib":"6+","altim":1014,"clouds":[{"cover":"SCT","base":3300}],"obsTime":1773928800},"SBKP":{"icaoId":"SBKP","flightCategory":"VFR","rawOb":"METAR SBKP 191400Z 06003KT 040V100 9999 FEW015 SCT040 FEW045TCU BKN100 25/21 Q1012","temp":25,"dewp":21,"wdir":60,"wspd":3,"visib":"6+","altim":1012,"clouds":[{"cover":"FEW","base":1500},{"cover":"SCT","base":4000},{"cover":"FEW","base":4500},{"cover":"BKN","base":10000}],"obsTime":1773928800},"SBLO":{"icaoId":"SBLO","flightCategory":"MVFR","rawOb":"METAR SBLO 191400Z 08003KT 030V130 9999 BKN019 26/22 Q1011","temp":26,"dewp":22,"wdir":80,"wspd":3,"visib":"6+","altim":1011,"clouds":[{"cover":"BKN","base":1900}],"obsTime":1773928800},"SBMA":{"icaoId":"SBMA","flightCategory":"VFR","rawOb":"METAR SBMA 191400Z 12003KT 9999 SCT015 BKN100 29/24 Q1011","temp":29,"dewp":24,"wdir":120,"wspd":3,"visib":"6+","altim":1011,"clouds":[{"cover":"SCT","base":1500},{"cover":"BKN","base":10000}],"obsTime":1773928800},"SBMO":{"icaoId":"SBMO","flightCategory":"VFR","rawOb":"METAR SBMO 191400Z 10008KT 9999 SCT030 32/22 Q1011","temp":32,"dewp":22,"wdir":100,"wspd":8,"visib":"6+","altim":1011,"clouds":[{"cover":"SCT","base":3000}],"obsTime":1773928800},"SBMQ":{"icaoId":"SBMQ","flightCategory":"VFR","rawOb":"METAR SBMQ 191400Z 36003KT 9999 SCT021 BKN063 29/24 Q1011","temp":29,"dewp":24,"wdir":360,"wspd":3,"visib":"6+","altim":1011,"clouds":[{"cover":"SCT","base":2100},{"cover":"BKN","base":6300}],"obsTime":1773928800},"SBPA":{"icaoId":"SBPA","flightCategory":"IFR","rawOb":"METAR SBPA 191400Z 20004KT 150V250 7000 VCSH BKN009 BKN013 25/23 Q1010","temp":25,"dewp":23,"wdir":200,"wspd":4,"visib":4.35,"altim":1010,"clouds":[{"cover":"BKN","base":900},{"cover":"BKN","base":1300}],"obsTime":1773928800},"SBPV":{"icaoId":"SBPV","flightCategory":"IFR","rawOb":"METAR SBPV 191400Z 33004KT 9999 BKN009 27/23 Q1012","temp":27,"dewp":23,"wdir":330,"wspd":4,"visib":"6+","altim":1012,"clouds":[{"cover":"BKN","base":900}],"obsTime":1773928800},"SBRB":{"icaoId":"SBRB","flightCategory":"VFR","rawOb":"METAR SBRB 191400Z 36003KT 9999 FEW015 BKN100 28/24 Q1012","temp":28,"dewp":24,"wdir":360,"wspd":3,"visib":"6+","altim":1012,"clouds":[{"cover":"FEW","base":1500},{"cover":"BKN","base":10000}],"obsTime":1773928800},"SBRF":{"icaoId":"SBRF","flightCategory":"VFR","rawOb":"METAR SBRF 191400Z 11009KT 060V150 9999 SCT025 31/23 Q1011","temp":31,"dewp":23,"wdir":110,"wspd":9,"visib":"6+","altim":1011,"clouds":[{"cover":"SCT","base":2500}],"obsTime":1773928800},"SBSG":{"icaoId":"SBSG","flightCategory":"MVFR","rawOb":"METAR SBSG 191400Z 11008KT 080V170 9999 BKN030 31/23 Q1010","temp":31,"dewp":23,"wdir":110,"wspd":8,"visib":"6+","altim":1010,"clouds":[{"cover":"BKN","base":3000}],"obsTime":1773928800},"SBSL":{"icaoId":"SBSL","flightCategory":"MVFR","rawOb":"METAR SBSL 191400Z 09011KT 060V120 9999 SCT012 BKN020 29/24 Q1010","temp":29,"dewp":24,"wdir":90,"wspd":11,"visib":"6+","altim":1010,"clouds":[{"cover":"SCT","base":1200},{"cover":"BKN","base":2000}],"obsTime":1773928800},"SBSN":{"icaoId":"SBSN","flightCategory":"IFR","rawOb":"SPECI SBSN 191325Z 05005KT 2500 -RA BKN010 BKN100 25/24 Q1011","temp":25,"dewp":24,"wdir":50,"wspd":5,"visib":1.55,"altim":1011,"clouds":[{"cover":"BKN","base":1000},{"cover":"BKN","base":10000}],"obsTime":1773926700},"SBSV":{"icaoId":"SBSV","flightCategory":"VFR","rawOb":"METAR SBSV 191400Z 09010KT 9999 SCT023 30/21 Q1011","temp":30,"dewp":21,"wdir":90,"wspd":10,"visib":"6+","altim":1011,"clouds":[{"cover":"SCT","base":2300}],"obsTime":1773928800},"SBTE":{"icaoId":"SBTE","flightCategory":"MVFR","rawOb":"METAR SBTE 191400Z 24003KT 9999 BKN014 BKN020 27/24 Q1012","temp":27,"dewp":24,"wdir":240,"wspd":3,"visib":"6+","altim":1012,"clouds":[{"cover":"BKN","base":1400},{"cover":"BKN","base":2000}],"obsTime":1773928800},"SBUL":{"icaoId":"SBUL","flightCategory":"MVFR","rawOb":"METAR SBUL 191400Z 03007KT 9999 SCT022 BKN025 BKN070 26/20 Q1015","temp":26,"dewp":20,"wdir":30,"wspd":7,"visib":"6+","altim":1015,"clouds":[{"cover":"SCT","base":2200},{"cover":"BKN","base":2500},{"cover":"BKN","base":7000}],"obsTime":1773928800},"SBGR":{"icaoId":"SBGR","flightCategory":"MVFR","rawOb":"METAR SBGR 191400Z 06008KT 7000 FEW011 BKN080 24/21 Q1013","temp":24,"dewp":21,"wdir":60,"wspd":8,"visib":4.35,"altim":1013,"clouds":[{"cover":"FEW","base":1100},{"cover":"BKN","base":8000}],"obsTime":1773928800},"SBHT":{"icaoId":"SBHT","flightCategory":"MVFR","rawOb":"METAR SBHT 191400Z 11004KT 9999 BKN015 BKN090 28/24 Q1012","temp":28,"dewp":24,"wdir":110,"wspd":4,"visib":"6+","altim":1012,"clouds":[{"cover":"BKN","base":1500},{"cover":"BKN","base":9000}],"obsTime":1773928800},"SBIL":{"icaoId":"SBIL","flightCategory":"VFR","rawOb":"METAR SBIL 191400Z 04009KT 9999 FEW023 31/24 Q1011","temp":31,"dewp":24,"wdir":40,"wspd":9,"visib":"6+","altim":1011,"clouds":[{"cover":"FEW","base":2300}],"obsTime":1773928800},"SBJU":{"icaoId":"SBJU","flightCategory":"MVFR","rawOb":"METAR SBJU 191400Z 00000KT 9999 BKN020 BKN070 25/22 Q1014","temp":25,"dewp":22,"wdir":0,"wspd":0,"visib":"6+","altim":1014,"clouds":[{"cover":"BKN","base":2000},{"cover":"BKN","base":7000}],"obsTime":1773928800},"SBME":{"icaoId":"SBME","flightCategory":"VFR","rawOb":"METAR SBME 191400Z 13010KT 9999 SCT026 BKN100 30/24 Q1009","temp":30,"dewp":24,"wdir":130,"wspd":10,"visib":"6+","altim":1009,"clouds":[{"cover":"SCT","base":2600},{"cover":"BKN","base":10000}],"obsTime":1773928800},"SBMG":{"icaoId":"SBMG","flightCategory":"VFR","rawOb":"METAR SBMG 191400Z VRB04KT 9999 SCT030 30/21 Q1010","temp":30,"dewp":21,"wdir":"VRB","wspd":4,"visib":"6+","altim":1010,"clouds":[{"cover":"SCT","base":3000}],"obsTime":1773928800},"SBMK":{"icaoId":"SBMK","flightCategory":"VFR","rawOb":"METAR SBMK 191400Z 04005KT 9999 FEW040TCU SCT040 30/22 Q1013","temp":30,"dewp":22,"wdir":40,"wspd":5,"visib":"6+","altim":1013,"clouds":[{"cover":"FEW","base":4000},{"cover":"SCT","base":4000}],"obsTime":1773928800},"SBUR":{"icaoId":"SBUR","flightCategory":"VFR","rawOb":" SBUR 191400Z 31009KT 9999 SCT020 BKN090 27/22 Q1013","temp":27,"dewp":22,"wdir":310,"wspd":9,"visib":"6+","altim":1013,"clouds":[{"cover":"SCT","base":2000},{"cover":"BKN","base":9000}],"obsTime":1773928800},"SBSP":{"icaoId":"SBSP","flightCategory":"MVFR","rawOb":"METAR SBSP 191400Z 06002KT 6000 SCT017 BKN083 25/21 Q1014","temp":25,"dewp":21,"wdir":60,"wspd":2,"visib":3.73,"altim":1014,"clouds":[{"cover":"SCT","base":1700},{"cover":"BKN","base":8300}],"obsTime":1773928800},"SBNT":{"icaoId":"SBNT","flightCategory":"VFR","rawOb":"METAR SBNT 191400Z 12011KT 9999 SCT034 31/23 Q1010","temp":31,"dewp":23,"wdir":120,"wspd":11,"visib":"6+","altim":1010,"clouds":[{"cover":"SCT","base":3400}],"obsTime":1773928800},"SBPJ":{"icaoId":"SBPJ","flightCategory":"VFR","rawOb":"METAR SBPJ 191400Z 35008KT 9999 SCT025 SCT100 29/23 Q1012","temp":29,"dewp":23,"wdir":350,"wspd":8,"visib":"6+","altim":1012,"clouds":[{"cover":"SCT","base":2500},{"cover":"SCT","base":10000}],"obsTime":1773928800},"SBAT":{"icaoId":"SBAT","flightCategory":"MVFR","rawOb":"METAR SBAT 191400Z 10002KT 9999 BKN015 BKN100 24/23 Q1012","temp":24,"dewp":23,"wdir":100,"wspd":2,"visib":"6+","altim":1012,"clouds":[{"cover":"BKN","base":1500},{"cover":"BKN","base":10000}],"obsTime":1773928800},"SBCZ":{"icaoId":"SBCZ","flightCategory":"MVFR","rawOb":"METAR SBCZ 191400Z 27005KT 250V310 9999 BKN010 BKN100 26/24 Q1012","temp":26,"dewp":24,"wdir":270,"wspd":5,"visib":"6+","altim":1012,"clouds":[{"cover":"BKN","base":1000},{"cover":"BKN","base":10000}],"obsTime":1773928800},"SBAR":{"icaoId":"SBAR","flightCategory":"VFR","rawOb":"METAR SBAR 191400Z 11008KT 9999 FEW027 31/23 Q1011","temp":31,"dewp":23,"wdir":110,"wspd":8,"visib":"6+","altim":1011,"clouds":[{"cover":"FEW","base":2700}],"obsTime":1773928800},"SBPL":{"icaoId":"SBPL","flightCategory":"VFR","rawOb":"METAR SBPL 191400Z 10005KT 9999 SCT023 31/22 Q1013","temp":31,"dewp":22,"wdir":100,"wspd":5,"visib":"6+","altim":1013,"clouds":[{"cover":"SCT","base":2300}],"obsTime":1773928800},"SBOI":{"icaoId":"SBOI","flightCategory":"VFR","rawOb":"METAR SBOI 191400Z AUTO 02007KT 350V050 9999 FEW020 BKN040 OVC047 28/24 Q1012","temp":28,"dewp":24,"wdir":20,"wspd":7,"visib":"6+","altim":1012,"clouds":[{"cover":"FEW","base":2000},{"cover":"BKN","base":4000},{"cover":"OVC","base":4700}],"obsTime":1773928800},"SBTD":{"icaoId":"SBTD","flightCategory":"VFR","rawOb":"METAR SBTD 191400Z /////KT 9999 FEW020 29/23 Q1011","temp":29,"dewp":23,"wdir":null,"wspd":null,"visib":"6+","altim":1011,"clouds":[{"cover":"FEW","base":2000}],"obsTime":1773928800},"SBCJ":{"icaoId":"SBCJ","flightCategory":"VFR","rawOb":"METAR SBCJ 191400Z 11006KT 9999 FEW001 SCT010 25/20 Q1016","temp":25,"dewp":20,"wdir":110,"wspd":6,"visib":"6+","altim":1016,"clouds":[{"cover":"FEW","base":100},{"cover":"SCT","base":1000}],"obsTime":1773928800},"SBPS":{"icaoId":"SBPS","flightCategory":"VFR","rawOb":"METAR SBPS 191400Z 03010KT 350V050 9999 SCT025 31/23 Q1011","temp":31,"dewp":23,"wdir":30,"wspd":10,"visib":"6+","altim":1011,"clouds":[{"cover":"SCT","base":2500}],"obsTime":1773928800},"SBTF":{"icaoId":"SBTF","flightCategory":"VFR","rawOb":"METAR SBTF 191400Z 09006KT 9999 FEW025 OVC100 25/24 Q1011","temp":25,"dewp":24,"wdir":90,"wspd":6,"visib":"6+","altim":1011,"clouds":[{"cover":"FEW","base":2500},{"cover":"OVC","base":10000}],"obsTime":1773928800},"SBPB":{"icaoId":"SBPB","flightCategory":"VFR","rawOb":"METAR SBPB 191400Z 02001KT 9999 FEW015 BKN070 27/25 Q1011","temp":27,"dewp":25,"wdir":20,"wspd":1,"visib":"6+","altim":1011,"clouds":[{"cover":"FEW","base":1500},{"cover":"BKN","base":7000}],"obsTime":1773928800},"SBTT":{"icaoId":"SBTT","flightCategory":"VFR","rawOb":"METAR SBTT 191400Z 16004KT 9999 SCT010 25/21 Q1012","temp":25,"dewp":21,"wdir":160,"wspd":4,"visib":"6+","altim":1012,"clouds":[{"cover":"SCT","base":1000}],"obsTime":1773928800},"SBSJ":{"icaoId":"SBSJ","flightCategory":"IFR","rawOb":"METAR SBSJ 191400Z 04002KT 4000 BR SCT015 BKN100 23/// Q1013","temp":null,"dewp":null,"wdir":40,"wspd":2,"visib":2.49,"altim":1013,"clouds":[{"cover":"SCT","base":1500},{"cover":"BKN","base":10000}],"obsTime":1773928800},"SBDN":{"icaoId":"SBDN","flightCategory":"MVFR","rawOb":"METAR SBDN 191400Z 00000KT 9999 BKN020 30/22 Q1010","temp":30,"dewp":22,"wdir":0,"wspd":0,"visib":"6+","altim":1010,"clouds":[{"cover":"BKN","base":2000}],"obsTime":1773928800},"SBES":{"icaoId":"SBES","flightCategory":"VFR","rawOb":"METAR SBES 191400Z 07010KT 010V090 9999 SCT015 BKN100 28/// Q1009","temp":null,"dewp":null,"wdir":70,"wspd":10,"visib":"6+","altim":1009,"clouds":[{"cover":"SCT","base":1500},{"cover":"BKN","base":10000}],"obsTime":1773928800},"SBGM":{"icaoId":"SBGM","flightCategory":"VFR","rawOb":"METAR SBGM 191400Z 27005KT 220V310 9999 SCT010 BKN033 BKN053 28/21 Q1012","temp":28,"dewp":21,"wdir":270,"wspd":5,"visib":"6+","altim":1012,"clouds":[{"cover":"SCT","base":1000},{"cover":"BKN","base":3300},{"cover":"BKN","base":5300}],"obsTime":1773928800},"SBIP":{"icaoId":"SBIP","flightCategory":"MVFR","rawOb":"METAR SBIP 191400Z AUTO 06004KT 320V100 9999 BKN019 28/23 Q1011","temp":28,"dewp":23,"wdir":60,"wspd":4,"visib":"6+","altim":1011,"clouds":[{"cover":"BKN","base":1900}],"obsTime":1773928800},"SBKG":{"icaoId":"SBKG","flightCategory":"VFR","rawOb":"METAR SBKG 191400Z 10010KT 070V140 9999 SCT020 28/20 Q1013","temp":28,"dewp":20,"wdir":100,"wspd":10,"visib":"6+","altim":1013,"clouds":[{"cover":"SCT","base":2000}],"obsTime":1773928800},"SBPP":{"icaoId":"SBPP","flightCategory":"VFR","rawOb":"METAR SBPP 191400Z 06008KT CAVOK 28/23 Q1012","temp":28,"dewp":23,"wdir":60,"wspd":8,"visib":"6+","altim":1012,"clouds":[],"obsTime":1773928800},"SBSC":{"icaoId":"SBSC","flightCategory":"VFR","rawOb":"METAR SBSC 191400Z 36005KT 9999 FEW025 29/23 Q1009","temp":29,"dewp":23,"wdir":360,"wspd":5,"visib":"6+","altim":1009,"clouds":[{"cover":"FEW","base":2500}],"obsTime":1773928800},"SBSM":{"icaoId":"SBSM","flightCategory":"MVFR","rawOb":"METAR SBSM 191400Z 12004KT 9999 SCT015 OVC020 24/21 Q1012","temp":24,"dewp":21,"wdir":120,"wspd":4,"visib":"6+","altim":1012,"clouds":[{"cover":"SCT","base":1500},{"cover":"OVC","base":2000}],"obsTime":1773928800},"SBSR":{"icaoId":"SBSR","flightCategory":"MVFR","rawOb":"METAR SBSR 191400Z VRB04KT 9999 BKN020 FEW025TCU BKN070 25/22 Q1011","temp":25,"dewp":22,"wdir":"VRB","wspd":4,"visib":"6+","altim":1011,"clouds":[{"cover":"BKN","base":2000},{"cover":"FEW","base":2500},{"cover":"BKN","base":7000}],"obsTime":1773928800},"SBUY":{"icaoId":"SBUY","flightCategory":"VFR","rawOb":"METAR SBUY 191400Z 15003KT 9999 FEW016 BKN080 25/23 Q1010","temp":25,"dewp":23,"wdir":150,"wspd":3,"visib":"6+","altim":1010,"clouds":[{"cover":"FEW","base":1600},{"cover":"BKN","base":8000}],"obsTime":1773928800},"SBVH":{"icaoId":"SBVH","flightCategory":"MVFR","rawOb":"METAR SBVH 191400Z 29003KT 240V340 9999 SCT009 BKN012 26/23 Q1013","temp":26,"dewp":23,"wdir":290,"wspd":3,"visib":"6+","altim":1013,"clouds":[{"cover":"SCT","base":900},{"cover":"BKN","base":1200}],"obsTime":1773928800},"SBAU":{"icaoId":"SBAU","flightCategory":"VFR","rawOb":"METAR SBAU 191400Z 06004KT 9999 SCT007 FEW030TCU BKN080 29/23 Q1010","temp":29,"dewp":23,"wdir":60,"wspd":4,"visib":"6+","altim":1010,"clouds":[{"cover":"SCT","base":700},{"cover":"FEW","base":3000},{"cover":"BKN","base":8000}],"obsTime":1773928800},"SBAX":{"icaoId":"SBAX","flightCategory":"VFR","rawOb":"METAR SBAX 191400Z 32003KT 9999 SCT015 24/22 Q1015","temp":24,"dewp":22,"wdir":320,"wspd":3,"visib":"6+","altim":1015,"clouds":[{"cover":"SCT","base":1500}],"obsTime":1773928800},"SBBH":{"icaoId":"SBBH","flightCategory":"MVFR","rawOb":"METAR SBBH 191400Z 00000KT 9999 TS SCT007 BKN013 FEW030CB BKN049 22/21 Q1015","temp":22,"dewp":21,"wdir":0,"wspd":0,"visib":"6+","altim":1015,"clouds":[{"cover":"SCT","base":700},{"cover":"BKN","base":1300},{"cover":"FEW","base":3000},{"cover":"BKN","base":4900}],"obsTime":1773928800},"SBBQ":{"icaoId":"SBBQ","flightCategory":"MVFR","rawOb":"METAR SBBQ 191400Z 32003KT 5000 BR BKN010 BKN025 FEW030TCU OVC090 22/19 Q1017","temp":22,"dewp":19,"wdir":320,"wspd":3,"visib":3.11,"altim":1017,"clouds":[{"cover":"BKN","base":1000},{"cover":"BKN","base":2500},{"cover":"FEW","base":3000},{"cover":"OVC","base":9000}],"obsTime":1773928800},"SBBU":{"icaoId":"SBBU","flightCategory":"MVFR","rawOb":"METAR SBBU 191400Z 02005KT 9999 BKN025 BKN070 26/23 Q1012","temp":26,"dewp":23,"wdir":20,"wspd":5,"visib":"6+","altim":1012,"clouds":[{"cover":"BKN","base":2500},{"cover":"BKN","base":7000}],"obsTime":1773928800},"SBCA":{"icaoId":"SBCA","flightCategory":"VFR","rawOb":"METAR SBCA 191400Z VRB04KT CAVOK 29/22 Q1013","temp":29,"dewp":22,"wdir":"VRB","wspd":4,"visib":"6+","altim":1013,"clouds":[],"obsTime":1773928800},"SBCC":{"icaoId":"SBCC","flightCategory":"MVFR","rawOb":"METAR SBCC 191400Z 31001KT 9999 -RA BKN018 27/22 Q1013 RERA","temp":27,"dewp":22,"wdir":310,"wspd":1,"visib":"6+","altim":1013,"clouds":[{"cover":"BKN","base":1800}],"obsTime":1773928800},"SBCO":{"icaoId":"SBCO","flightCategory":"MVFR","rawOb":"METAR SBCO 191400Z 25006KT 9000 VCSH FEW007 BKN011 BKN025 24/23 Q1011","temp":24,"dewp":23,"wdir":250,"wspd":6,"visib":5.59,"altim":1011,"clouds":[{"cover":"FEW","base":700},{"cover":"BKN","base":1100},{"cover":"BKN","base":2500}],"obsTime":1773928800},"SBJP":{"icaoId":"SBJP","flightCategory":"VFR","rawOb":"METAR SBJP 191400Z 15011KT 9999 SCT030 31/22 Q1010","temp":31,"dewp":22,"wdir":150,"wspd":11,"visib":"6+","altim":1010,"clouds":[{"cover":"SCT","base":3000}],"obsTime":1773928800},"SBAN":{"icaoId":"SBAN","flightCategory":"VFR","rawOb":"METAR SBAN 191400Z VRB04KT 9999 FEW020 30/16 Q1017","temp":30,"dewp":16,"wdir":"VRB","wspd":4,"visib":"6+","altim":1017,"clouds":[{"cover":"FEW","base":2000}],"obsTime":1773928800},"SBGW":{"icaoId":"SBGW","flightCategory":"IFR","rawOb":"METAR SBGW 191400Z 08004KT 4000 HZ SCT010 BKN035 22/18 Q1013 RERA","temp":22,"dewp":18,"wdir":80,"wspd":4,"visib":2.49,"altim":1013,"clouds":[{"cover":"SCT","base":1000},{"cover":"BKN","base":3500}],"obsTime":1773928800},"SBIH":{"icaoId":"SBIH","flightCategory":"MVFR","rawOb":"METAR SBIH 191400Z 22004KT 8000 VCSH SCT016 27/25 Q1011","temp":27,"dewp":25,"wdir":220,"wspd":4,"visib":4.97,"altim":1011,"clouds":[{"cover":"SCT","base":1600}],"obsTime":1773928800},"SBJR":{"icaoId":"SBJR","flightCategory":"MVFR","rawOb":"METAR SBJR 191400Z 17005KT 8000 SCT018 BKN100 30/23 Q1009","temp":30,"dewp":23,"wdir":170,"wspd":5,"visib":4.97,"altim":1009,"clouds":[{"cover":"SCT","base":1800},{"cover":"BKN","base":10000}],"obsTime":1773928800},"SBJV":{"icaoId":"SBJV","flightCategory":"MVFR","rawOb":"METAR SBJV 191400Z 02003KT 9999 BKN025 29/24 Q1009","temp":29,"dewp":24,"wdir":20,"wspd":3,"visib":"6+","altim":1009,"clouds":[{"cover":"BKN","base":2500}],"obsTime":1773928800},"SBLE":{"icaoId":"SBLE","flightCategory":"VFR","rawOb":"METAR SBLE 191400Z AUTO VRB06KT 9999 FEW027 SCT031 28/20 Q1015","temp":28,"dewp":20,"wdir":"VRB","wspd":6,"visib":"6+","altim":1015,"clouds":[{"cover":"FEW","base":2700},{"cover":"SCT","base":3100}],"obsTime":1773928800},"SBLS":{"icaoId":"SBLS","flightCategory":"IFR","rawOb":"METAR SBLS 191400Z 18004KT 4000 BR SCT002 SCT025 21/21 Q1015","temp":21,"dewp":21,"wdir":180,"wspd":4,"visib":2.49,"altim":1015,"clouds":[{"cover":"SCT","base":200},{"cover":"SCT","base":2500}],"obsTime":1773928800},"SBMT":{"icaoId":"SBMT","flightCategory":"MVFR","rawOb":"METAR SBMT 191400Z 10002KT 7000 SCT020 BKN080 25/19 Q1013","temp":25,"dewp":19,"wdir":100,"wspd":2,"visib":4.35,"altim":1013,"clouds":[{"cover":"SCT","base":2000},{"cover":"BKN","base":8000}],"obsTime":1773928800},"SBNM":{"icaoId":"SBNM","flightCategory":"VFR","rawOb":"METAR SBNM 191400Z 11002KT 9999 FEW010 28/22 Q1011","temp":28,"dewp":22,"wdir":110,"wspd":2,"visib":"6+","altim":1011,"clouds":[{"cover":"FEW","base":1000}],"obsTime":1773928800},"SBPF":{"icaoId":"SBPF","flightCategory":"VFR","rawOb":"METAR SBPF 191400Z 12005KT CAVOK 26/20 Q1013","temp":26,"dewp":20,"wdir":120,"wspd":5,"visib":"6+","altim":1013,"clouds":[],"obsTime":1773928800},"SBST":{"icaoId":"SBST","flightCategory":"MVFR","rawOb":"METAR SBST 191400Z 31002KT 7000 SCT020 BKN040 27/22 Q1009","temp":27,"dewp":22,"wdir":310,"wspd":2,"visib":4.35,"altim":1009,"clouds":[{"cover":"SCT","base":2000},{"cover":"BKN","base":4000}],"obsTime":1773928800},"SBAF":{"icaoId":"SBAF","flightCategory":"MVFR","rawOb":" SBAF 191400Z VRB02KT 6000 FEW010 SCT028 BKN100 29/24 Q1009","temp":29,"dewp":24,"wdir":"VRB","wspd":2,"visib":3.73,"altim":1009,"clouds":[{"cover":"FEW","base":1000},{"cover":"SCT","base":2800},{"cover":"BKN","base":10000}],"obsTime":1773928800},"SBTA":{"icaoId":"SBTA","flightCategory":"IFR","rawOb":"METAR SBTA 191400Z VRB02KT 3000 -RA BR FEW006 BKN013 OVC025 22/21 Q1012 RERA","temp":22,"dewp":21,"wdir":"VRB","wspd":2,"visib":1.86,"altim":1012,"clouds":[{"cover":"FEW","base":600},{"cover":"BKN","base":1300},{"cover":"OVC","base":2500}],"obsTime":1773928800}}}