{"updated":1779227447,"count":83,"data":{"SBCZ":{"icaoId":"SBCZ","flightCategory":"VFR","rawOb":"METAR SBCZ 192000Z 17004KT 9999 SCT012 OVC090 24/22 Q1015","temp":24,"dewp":22,"wdir":170,"wspd":4,"visib":"6+","altim":1015,"clouds":[{"cover":"SCT","base":1200},{"cover":"OVC","base":9000}],"obsTime":1779220800},"SBAT":{"icaoId":"SBAT","flightCategory":"MVFR","rawOb":"METAR SBAT 192000Z 23006KT 9999 BKN025 26/23 Q1014","temp":26,"dewp":23,"wdir":230,"wspd":6,"visib":"6+","altim":1014,"clouds":[{"cover":"BKN","base":2500}],"obsTime":1779220800},"SBBE":{"icaoId":"SBBE","flightCategory":"IFR","rawOb":"METAR SBBE 192000Z 06009KT 4000 RA BKN028 FEW030TCU 27/26 Q1010","temp":27,"dewp":26,"wdir":60,"wspd":9,"visib":2.49,"altim":1010,"clouds":[{"cover":"BKN","base":2800},{"cover":"FEW","base":3000}],"obsTime":1779220800},"SBBR":{"icaoId":"SBBR","flightCategory":"VFR","rawOb":"METAR SBBR 192000Z 11007KT 080V150 9999 SCT045 27/15 Q1020","temp":27,"dewp":15,"wdir":110,"wspd":7,"visib":"6+","altim":1020,"clouds":[{"cover":"SCT","base":4500}],"obsTime":1779220800},"SBBV":{"icaoId":"SBBV","flightCategory":"MVFR","rawOb":"METAR SBBV 192000Z 10008KT 9999 VCSH BKN030 FEW035TCU BKN100 32/23 Q1010","temp":32,"dewp":23,"wdir":100,"wspd":8,"visib":"6+","altim":1010,"clouds":[{"cover":"BKN","base":3000},{"cover":"FEW","base":3500},{"cover":"BKN","base":10000}],"obsTime":1779220800},"SBCB":{"icaoId":"SBCB","flightCategory":"MVFR","rawOb":"METAR SBCB 192000Z 25011KT 9999 BKN015 OVC050 24/22 Q1017","temp":24,"dewp":22,"wdir":250,"wspd":11,"visib":"6+","altim":1017,"clouds":[{"cover":"BKN","base":1500},{"cover":"OVC","base":5000}],"obsTime":1779220800},"SBCF":{"icaoId":"SBCF","flightCategory":"VFR","rawOb":"METAR SBCF 192000Z 06004KT 9999 FEW040 26/18 Q1019","temp":26,"dewp":18,"wdir":60,"wspd":4,"visib":"6+","altim":1019,"clouds":[{"cover":"FEW","base":4000}],"obsTime":1779220800},"SBCG":{"icaoId":"SBCG","flightCategory":"VFR","rawOb":"METAR SBCG 192000Z 16007KT 9999 BKN045 BKN100 17/14 Q1020","temp":17,"dewp":14,"wdir":160,"wspd":7,"visib":"6+","altim":1020,"clouds":[{"cover":"BKN","base":4500},{"cover":"BKN","base":10000}],"obsTime":1779220800},"SBCP":{"icaoId":"SBCP","flightCategory":"VFR","rawOb":"METAR SBCP 192000Z 19006KT 9999 FEW030 OVC080 25/21 Q1017","temp":25,"dewp":21,"wdir":190,"wspd":6,"visib":"6+","altim":1017,"clouds":[{"cover":"FEW","base":3000},{"cover":"OVC","base":8000}],"obsTime":1779220800},"SBCR":{"icaoId":"SBCR","flightCategory":"VFR","rawOb":"METAR SBCR 192000Z 22006KT 190V250 9999 FEW025 BKN045 18/12 Q1019","temp":18,"dewp":12,"wdir":220,"wspd":6,"visib":"6+","altim":1019,"clouds":[{"cover":"FEW","base":2500},{"cover":"BKN","base":4500}],"obsTime":1779220800},"SBCT":{"icaoId":"SBCT","flightCategory":"IFR","rawOb":"METAR SBCT 192000Z 10003KT 9999 OVC006 15/14 Q1022","temp":15,"dewp":14,"wdir":100,"wspd":3,"visib":"6+","altim":1022,"clouds":[{"cover":"OVC","base":600}],"obsTime":1779220800},"SBEG":{"icaoId":"SBEG","flightCategory":"VFR","rawOb":"METAR SBEG 192000Z 15003KT 100V190 9999 SCT030 FEW035TCU 31/24 Q1010","temp":31,"dewp":24,"wdir":150,"wspd":3,"visib":"6+","altim":1010,"clouds":[{"cover":"SCT","base":3000},{"cover":"FEW","base":3500}],"obsTime":1779220800},"SBFI":{"icaoId":"SBFI","flightCategory":"VFR","rawOb":"METAR SBFI 192000Z 20004KT CAVOK 18/13 Q1020","temp":18,"dewp":13,"wdir":200,"wspd":4,"visib":"6+","altim":1020,"clouds":[],"obsTime":1779220800},"SBFL":{"icaoId":"SBFL","flightCategory":"VFR","rawOb":"METAR SBFL 192000Z 14008KT 9999 FEW040 BKN080 18/13 Q1020","temp":18,"dewp":13,"wdir":140,"wspd":8,"visib":"6+","altim":1020,"clouds":[{"cover":"FEW","base":4000},{"cover":"BKN","base":8000}],"obsTime":1779220800},"SBFZ":{"icaoId":"SBFZ","flightCategory":"VFR","rawOb":"METAR SBFZ 192000Z 09010KT 9999 FEW023 28/23 Q1011","temp":28,"dewp":23,"wdir":90,"wspd":10,"visib":"6+","altim":1011,"clouds":[{"cover":"FEW","base":2300}],"obsTime":1779220800},"SBGL":{"icaoId":"SBGL","flightCategory":"MVFR","rawOb":"METAR SBGL 192000Z 23007KT 9999 VCSH FEW012 BKN018 BKN030 24/20 Q1017","temp":24,"dewp":20,"wdir":230,"wspd":7,"visib":"6+","altim":1017,"clouds":[{"cover":"FEW","base":1200},{"cover":"BKN","base":1800},{"cover":"BKN","base":3000}],"obsTime":1779220800},"SBGO":{"icaoId":"SBGO","flightCategory":"VFR","rawOb":"METAR SBGO 192000Z 16004KT 120V210 9999 FEW040 29/20 Q1018","temp":29,"dewp":20,"wdir":160,"wspd":4,"visib":"6+","altim":1018,"clouds":[{"cover":"FEW","base":4000}],"obsTime":1779220800},"SBGR":{"icaoId":"SBGR","flightCategory":"IFR","rawOb":"METAR SBGR 192000Z 22004KT 180V260 9000 4000E -DZ BKN009 OVC013 17/16 Q1022","temp":17,"dewp":16,"wdir":220,"wspd":4,"visib":5.59,"altim":1022,"clouds":[{"cover":"BKN","base":900},{"cover":"OVC","base":1300}],"obsTime":1779220800},"SBHT":{"icaoId":"SBHT","flightCategory":"VFR","rawOb":"METAR SBHT 192000Z 14005KT 9999 SCT030 33/24 Q1009","temp":33,"dewp":24,"wdir":140,"wspd":5,"visib":"6+","altim":1009,"clouds":[{"cover":"SCT","base":3000}],"obsTime":1779220800},"SBIL":{"icaoId":"SBIL","flightCategory":"VFR","rawOb":"METAR SBIL 192000Z 13004KT CAVOK 28/24 Q1015","temp":28,"dewp":24,"wdir":130,"wspd":4,"visib":"6+","altim":1015,"clouds":[],"obsTime":1779220800},"SBJU":{"icaoId":"SBJU","flightCategory":"VFR","rawOb":"METAR SBJU 192000Z 14006KT 9999 FEW022 30/18 Q1014","temp":30,"dewp":18,"wdir":140,"wspd":6,"visib":"6+","altim":1014,"clouds":[{"cover":"FEW","base":2200}],"obsTime":1779220800},"SBKP":{"icaoId":"SBKP","flightCategory":"MVFR","rawOb":"METAR SBKP 192000Z 20005KT 160V220 9999 SCT018 OVC025 20/17 Q1021","temp":20,"dewp":17,"wdir":200,"wspd":5,"visib":"6+","altim":1021,"clouds":[{"cover":"SCT","base":1800},{"cover":"OVC","base":2500}],"obsTime":1779220800},"SBLO":{"icaoId":"SBLO","flightCategory":"VFR","rawOb":"METAR SBLO 192000Z 07004KT CAVOK 21/17 Q1019","temp":21,"dewp":17,"wdir":70,"wspd":4,"visib":"6+","altim":1019,"clouds":[],"obsTime":1779220800},"SBMA":{"icaoId":"SBMA","flightCategory":"VFR","rawOb":"METAR SBMA 192000Z 09002KT 9999 FEW020 FEW025TCU 32/24 Q1010","temp":32,"dewp":24,"wdir":90,"wspd":2,"visib":"6+","altim":1010,"clouds":[{"cover":"FEW","base":2000},{"cover":"FEW","base":2500}],"obsTime":1779220800},"SBME":{"icaoId":"SBME","flightCategory":"MVFR","rawOb":"METAR SBME 192000Z 24002KT 8000 NSC 25/21 Q1016","temp":25,"dewp":21,"wdir":240,"wspd":2,"visib":4.97,"altim":1016,"clouds":[],"obsTime":1779220800},"SBMG":{"icaoId":"SBMG","flightCategory":"VFR","rawOb":"METAR SBMG 192000Z 25006KT 9999 FEW025 SCT100 20/16 Q1019","temp":20,"dewp":16,"wdir":250,"wspd":6,"visib":"6+","altim":1019,"clouds":[{"cover":"FEW","base":2500},{"cover":"SCT","base":10000}],"obsTime":1779220800},"SBMK":{"icaoId":"SBMK","flightCategory":"VFR","rawOb":"METAR SBMK 192000Z 12003KT 9999 FEW030 30/16 Q1017","temp":30,"dewp":16,"wdir":120,"wspd":3,"visib":"6+","altim":1017,"clouds":[{"cover":"FEW","base":3000}],"obsTime":1779220800},"SBMO":{"icaoId":"SBMO","flightCategory":"VFR","rawOb":"METAR SBMO 192000Z 11007KT 9999 FEW028 26/22 Q1014","temp":26,"dewp":22,"wdir":110,"wspd":7,"visib":"6+","altim":1014,"clouds":[{"cover":"FEW","base":2800}],"obsTime":1779220800},"SBMQ":{"icaoId":"SBMQ","flightCategory":"MVFR","rawOb":"METAR SBMQ 192000Z 05011KT 9999 VCTS BKN030 FEW050CB SCT070 30/25 Q1010","temp":30,"dewp":25,"wdir":50,"wspd":11,"visib":"6+","altim":1010,"clouds":[{"cover":"BKN","base":3000},{"cover":"FEW","base":5000},{"cover":"SCT","base":7000}],"obsTime":1779220800},"SBNT":{"icaoId":"SBNT","flightCategory":"VFR","rawOb":"METAR SBNT 192000Z 14013KT 9999 SCT023 27/23 Q1013","temp":27,"dewp":23,"wdir":140,"wspd":13,"visib":"6+","altim":1013,"clouds":[{"cover":"SCT","base":2300}],"obsTime":1779220800},"SBPA":{"icaoId":"SBPA","flightCategory":"VFR","rawOb":"METAR SBPA 192000Z 29009KT 9999 FEW035 16/08 Q1021","temp":16,"dewp":8,"wdir":290,"wspd":9,"visib":"6+","altim":1021,"clouds":[{"cover":"FEW","base":3500}],"obsTime":1779220800},"SBPJ":{"icaoId":"SBPJ","flightCategory":"VFR","rawOb":"METAR SBPJ 192000Z 23005KT 9999 SCT040 34/20 Q1012","temp":34,"dewp":20,"wdir":230,"wspd":5,"visib":"6+","altim":1012,"clouds":[{"cover":"SCT","base":4000}],"obsTime":1779220800},"SBPV":{"icaoId":"SBPV","flightCategory":"MVFR","rawOb":"METAR SBPV 192000Z 19006KT 160V240 9999 OVC011 23/20 Q1013","temp":23,"dewp":20,"wdir":190,"wspd":6,"visib":"6+","altim":1013,"clouds":[{"cover":"OVC","base":1100}],"obsTime":1779220800},"SBRB":{"icaoId":"SBRB","flightCategory":"MVFR","rawOb":"METAR SBRB 192000Z 17005KT 8000 OVC011 19/17 Q1016","temp":19,"dewp":17,"wdir":170,"wspd":5,"visib":4.97,"altim":1016,"clouds":[{"cover":"OVC","base":1100}],"obsTime":1779220800},"SBRF":{"icaoId":"SBRF","flightCategory":"VFR","rawOb":"METAR SBRF 192000Z 15008KT 9999 SCT023 27/23 Q1013","temp":27,"dewp":23,"wdir":150,"wspd":8,"visib":"6+","altim":1013,"clouds":[{"cover":"SCT","base":2300}],"obsTime":1779220800},"SBSG":{"icaoId":"SBSG","flightCategory":"VFR","rawOb":"METAR SBSG 192000Z 13009KT 100V160 9999 FEW030 27/23 Q1013","temp":27,"dewp":23,"wdir":130,"wspd":9,"visib":"6+","altim":1013,"clouds":[{"cover":"FEW","base":3000}],"obsTime":1779220800},"SBSL":{"icaoId":"SBSL","flightCategory":"VFR","rawOb":"METAR SBSL 192000Z 05010KT 9999 SCT020 30/25 Q1010","temp":30,"dewp":25,"wdir":50,"wspd":10,"visib":"6+","altim":1010,"clouds":[{"cover":"SCT","base":2000}],"obsTime":1779220800},"SBSN":{"icaoId":"SBSN","flightCategory":"VFR","rawOb":"METAR SBSN 192000Z 07005KT 9999 SCT025 FEW030TCU 32/26 Q1009","temp":32,"dewp":26,"wdir":70,"wspd":5,"visib":"6+","altim":1009,"clouds":[{"cover":"SCT","base":2500},{"cover":"FEW","base":3000}],"obsTime":1779220800},"SBSP":{"icaoId":"SBSP","flightCategory":"MVFR","rawOb":"METAR SBSP 192000Z 22007KT 190V250 9999 OVC014 17/15 Q1022","temp":17,"dewp":15,"wdir":220,"wspd":7,"visib":"6+","altim":1022,"clouds":[{"cover":"OVC","base":1400}],"obsTime":1779220800},"SBSV":{"icaoId":"SBSV","flightCategory":"VFR","rawOb":"METAR SBSV 192000Z 13006KT 100V190 9999 FEW024 SCT080 28/21 Q1015","temp":28,"dewp":21,"wdir":130,"wspd":6,"visib":"6+","altim":1015,"clouds":[{"cover":"FEW","base":2400},{"cover":"SCT","base":8000}],"obsTime":1779220800},"SBTE":{"icaoId":"SBTE","flightCategory":"VFR","rawOb":"METAR SBTE 192000Z 13005KT 9999 FEW025 32/23 Q1010","temp":32,"dewp":23,"wdir":130,"wspd":5,"visib":"6+","altim":1010,"clouds":[{"cover":"FEW","base":2500}],"obsTime":1779220800},"SBUL":{"icaoId":"SBUL","flightCategory":"MVFR","rawOb":"METAR SBUL 192000Z 25005KT 9999 BKN030 OVC090 24/19 Q1020","temp":24,"dewp":19,"wdir":250,"wspd":5,"visib":"6+","altim":1020,"clouds":[{"cover":"BKN","base":3000},{"cover":"OVC","base":9000}],"obsTime":1779220800},"SBUR":{"icaoId":"SBUR","flightCategory":"MVFR","rawOb":"METAR SBUR 192000Z 18005KT 8000 FEW017 SCT100 23/19 Q1020","temp":23,"dewp":19,"wdir":180,"wspd":5,"visib":4.97,"altim":1020,"clouds":[{"cover":"FEW","base":1700},{"cover":"SCT","base":10000}],"obsTime":1779220800},"SBVT":{"icaoId":"SBVT","flightCategory":"VFR","rawOb":"METAR SBVT 192000Z 17006KT CAVOK 25/23 Q1016","temp":25,"dewp":23,"wdir":170,"wspd":6,"visib":"6+","altim":1016,"clouds":[],"obsTime":1779220800},"SBCJ":{"icaoId":"SBCJ","flightCategory":"VFR","rawOb":"METAR SBCJ 192000Z 16005KT 9999 FEW020 29/21 Q1015","temp":29,"dewp":21,"wdir":160,"wspd":5,"visib":"6+","altim":1015,"clouds":[{"cover":"FEW","base":2000}],"obsTime":1779220800},"SBOI":{"icaoId":"SBOI","flightCategory":"VFR","rawOb":"METAR SBOI 192000Z AUTO 30004KT 9999 FEW018 BKN047 28/25 Q1011","temp":28,"dewp":25,"wdir":300,"wspd":4,"visib":"6+","altim":1011,"clouds":[{"cover":"FEW","base":1800},{"cover":"BKN","base":4700}],"obsTime":1779220800},"SBBU":{"icaoId":"SBBU","flightCategory":"IFR","rawOb":"METAR SBBU 192000Z 17004KT 5000 -RA BR BKN007 OVC010 20/20 Q1020","temp":20,"dewp":20,"wdir":170,"wspd":4,"visib":3.11,"altim":1020,"clouds":[{"cover":"BKN","base":700},{"cover":"OVC","base":1000}],"obsTime":1779220800},"SBPL":{"icaoId":"SBPL","flightCategory":"VFR","rawOb":"METAR SBPL 192000Z 12007KT 9999 FEW030 32/16 Q1013","temp":32,"dewp":16,"wdir":120,"wspd":7,"visib":"6+","altim":1013,"clouds":[{"cover":"FEW","base":3000}],"obsTime":1779220800},"SBPP":{"icaoId":"SBPP","flightCategory":"VFR","rawOb":"METAR SBPP 192000Z 23008KT 9999 FEW015 BKN070 15/11 Q1021","temp":15,"dewp":11,"wdir":230,"wspd":8,"visib":"6+","altim":1021,"clouds":[{"cover":"FEW","base":1500},{"cover":"BKN","base":7000}],"obsTime":1779220800},"SBCO":{"icaoId":"SBCO","flightCategory":"VFR","rawOb":"METAR SBCO 192000Z 28008KT CAVOK 16/08 Q1021","temp":16,"dewp":8,"wdir":280,"wspd":8,"visib":"6+","altim":1021,"clouds":[],"obsTime":1779220800},"SBAR":{"icaoId":"SBAR","flightCategory":"VFR","rawOb":"METAR SBAR 192000Z 14007KT 9999 FEW026 28/22 Q1014","temp":28,"dewp":22,"wdir":140,"wspd":7,"visib":"6+","altim":1014,"clouds":[{"cover":"FEW","base":2600}],"obsTime":1779220800},"SBPS":{"icaoId":"SBPS","flightCategory":"VFR","rawOb":"METAR SBPS 192000Z 06006KT 9999 SCT025 27/23 Q1016","temp":27,"dewp":23,"wdir":60,"wspd":6,"visib":"6+","altim":1016,"clouds":[{"cover":"SCT","base":2500}],"obsTime":1779220800},"SBDN":{"icaoId":"SBDN","flightCategory":"MVFR","rawOb":"METAR SBDN 192000Z 27003KT 9999 SCT013 BKN015 19/16 Q1019","temp":19,"dewp":16,"wdir":270,"wspd":3,"visib":"6+","altim":1019,"clouds":[{"cover":"SCT","base":1300},{"cover":"BKN","base":1500}],"obsTime":1779220800},"SBSC":{"icaoId":"SBSC","flightCategory":"MVFR","rawOb":"METAR SBSC 192000Z 22007KT 9999 SCT012 BKN025 BKN100 23/20 Q1018","temp":23,"dewp":20,"wdir":220,"wspd":7,"visib":"6+","altim":1018,"clouds":[{"cover":"SCT","base":1200},{"cover":"BKN","base":2500},{"cover":"BKN","base":10000}],"obsTime":1779220800},"SBSJ":{"icaoId":"SBSJ","flightCategory":"MVFR","rawOb":"METAR SBSJ 192000Z COR 20005KT 9999 SCT014 OVC022 19/16 Q1021","temp":19,"dewp":16,"wdir":200,"wspd":5,"visib":"6+","altim":1021,"clouds":[{"cover":"SCT","base":1400},{"cover":"OVC","base":2200}],"obsTime":1779220800},"SBCA":{"icaoId":"SBCA","flightCategory":"VFR","rawOb":"METAR SBCA 192000Z 19009KT 9999 FEW015 BKN070 15/12 Q1021","temp":15,"dewp":12,"wdir":190,"wspd":9,"visib":"6+","altim":1021,"clouds":[{"cover":"FEW","base":1500},{"cover":"BKN","base":7000}],"obsTime":1779220800},"SBES":{"icaoId":"SBES","flightCategory":"VFR","rawOb":"METAR SBES 192000Z VRB06KT 9999 SCT015 BKN040 OVC060 23/// Q1017","temp":null,"dewp":null,"wdir":"VRB","wspd":6,"visib":"6+","altim":1017,"clouds":[{"cover":"SCT","base":1500},{"cover":"BKN","base":4000},{"cover":"OVC","base":6000}],"obsTime":1779220800},"SBSM":{"icaoId":"SBSM","flightCategory":"VFR","rawOb":"METAR SBSM 192000Z 23003KT 180V270 CAVOK 16/06 Q1022","temp":16,"dewp":6,"wdir":230,"wspd":3,"visib":"6+","altim":1022,"clouds":[],"obsTime":1779220800},"SBBH":{"icaoId":"SBBH","flightCategory":"VFR","rawOb":"METAR SBBH 192000Z 07004KT 9999 SCT043 SCT100 26/19 Q1019","temp":26,"dewp":19,"wdir":70,"wspd":4,"visib":"6+","altim":1019,"clouds":[{"cover":"SCT","base":4300},{"cover":"SCT","base":10000}],"obsTime":1779220800},"SBSR":{"icaoId":"SBSR","flightCategory":"VFR","rawOb":"METAR SBSR 192000Z 24007KT 9999 SCT025 FEW035TCU BKN070 21/19 Q1019","temp":21,"dewp":19,"wdir":240,"wspd":7,"visib":"6+","altim":1019,"clouds":[{"cover":"SCT","base":2500},{"cover":"FEW","base":3500},{"cover":"BKN","base":7000}],"obsTime":1779220800},"SBIP":{"icaoId":"SBIP","flightCategory":"VFR","rawOb":"METAR SBIP 192000Z AUTO 00000KT CAVOK 26/21 Q1016","temp":26,"dewp":21,"wdir":0,"wspd":0,"visib":"6+","altim":1016,"clouds":[],"obsTime":1779220800},"SBTF":{"icaoId":"SBTF","flightCategory":"VFR","rawOb":"METAR SBTF 192000Z 22008KT 9999 FEW017 FEW025TCU 28/26 Q1010","temp":28,"dewp":26,"wdir":220,"wspd":8,"visib":"6+","altim":1010,"clouds":[{"cover":"FEW","base":1700},{"cover":"FEW","base":2500}],"obsTime":1779220800},"SBAX":{"icaoId":"SBAX","flightCategory":"VFR","rawOb":"METAR SBAX 192000Z 33001KT CAVOK 24/18 Q1020","temp":24,"dewp":18,"wdir":330,"wspd":1,"visib":"6+","altim":1020,"clouds":[],"obsTime":1779220800},"SBTT":{"icaoId":"SBTT","flightCategory":"VFR","rawOb":"METAR SBTT 192000Z 11003KT 9999 SCT030 BKN070 26/24 Q1012","temp":26,"dewp":24,"wdir":110,"wspd":3,"visib":"6+","altim":1012,"clouds":[{"cover":"SCT","base":3000},{"cover":"BKN","base":7000}],"obsTime":1779220800},"SBTU":{"icaoId":"SBTU","flightCategory":"VFR","rawOb":"METAR SBTU 192000Z AUTO VRB02KT 9999 // BKN034/// ///// Q1011","temp":null,"dewp":null,"wdir":"VRB","wspd":2,"visib":"6+","altim":1011,"clouds":[{"cover":"BKN","base":3400}],"obsTime":1779220800},"SBKG":{"icaoId":"SBKG","flightCategory":"VFR","rawOb":"METAR SBKG 192000Z 11007KT 9999 FEW030 25/19 Q1016","temp":25,"dewp":19,"wdir":110,"wspd":7,"visib":"6+","altim":1016,"clouds":[{"cover":"FEW","base":3000}],"obsTime":1779220800},"SBUY":{"icaoId":"SBUY","flightCategory":"VFR","rawOb":"METAR SBUY 192000Z 22002KT 9999 SCT020 FEW025TCU BKN100 28/24 Q1010","temp":28,"dewp":24,"wdir":220,"wspd":2,"visib":"6+","altim":1010,"clouds":[{"cover":"SCT","base":2000},{"cover":"FEW","base":2500},{"cover":"BKN","base":10000}],"obsTime":1779220800},"SBVH":{"icaoId":"SBVH","flightCategory":"VFR","rawOb":"METAR SBVH 192000Z 11005KT CAVOK 23/19 Q1017","temp":23,"dewp":19,"wdir":110,"wspd":5,"visib":"6+","altim":1017,"clouds":[],"obsTime":1779220800},"SBPB":{"icaoId":"SBPB","flightCategory":"VFR","rawOb":"METAR SBPB 192000Z 07007KT 9999 FEW020 30/26 Q1010","temp":30,"dewp":26,"wdir":70,"wspd":7,"visib":"6+","altim":1010,"clouds":[{"cover":"FEW","base":2000}],"obsTime":1779220800},"SBCC":{"icaoId":"SBCC","flightCategory":"VFR","rawOb":"METAR SBCC 192000Z /////KT 9999 SCT020 FEW025TCU ///// Q1014","temp":null,"dewp":null,"wdir":null,"wspd":null,"visib":"6+","altim":1014,"clouds":[{"cover":"SCT","base":2000},{"cover":"FEW","base":2500}],"obsTime":1779220800},"SBIH":{"icaoId":"SBIH","flightCategory":"VFR","rawOb":"METAR SBIH 192000Z 07002KT 9999 FEW020 FEW025TCU BKN100 30/23 Q1009","temp":30,"dewp":23,"wdir":70,"wspd":2,"visib":"6+","altim":1009,"clouds":[{"cover":"FEW","base":2000},{"cover":"FEW","base":2500},{"cover":"BKN","base":10000}],"obsTime":1779220800},"SBJP":{"icaoId":"SBJP","flightCategory":"VFR","rawOb":"METAR SBJP 192000Z 00000KT 9999 SCT030 27/23 Q1014","temp":27,"dewp":23,"wdir":0,"wspd":0,"visib":"6+","altim":1014,"clouds":[{"cover":"SCT","base":3000}],"obsTime":1779220800},"SBAN":{"icaoId":"SBAN","flightCategory":"VFR","rawOb":"METAR SBAN 192000Z 21004KT 9999 FEW045 26/17 Q1021","temp":26,"dewp":17,"wdir":210,"wspd":4,"visib":"6+","altim":1021,"clouds":[{"cover":"FEW","base":4500}],"obsTime":1779220800},"SBJV":{"icaoId":"SBJV","flightCategory":"MVFR","rawOb":"METAR SBJV 192000Z 10005KT 9999 BKN025 BKN040 18/16 Q1020","temp":18,"dewp":16,"wdir":100,"wspd":5,"visib":"6+","altim":1020,"clouds":[{"cover":"BKN","base":2500},{"cover":"BKN","base":4000}],"obsTime":1779220800},"SBPF":{"icaoId":"SBPF","flightCategory":"VFR","rawOb":"METAR SBPF 192000Z 20005KT CAVOK 14/03 Q1022","temp":14,"dewp":3,"wdir":200,"wspd":5,"visib":"6+","altim":1022,"clouds":[],"obsTime":1779220800},"SBAF":{"icaoId":"SBAF","flightCategory":"MVFR","rawOb":" SBAF 192000Z 26004KT 9999 BKN014 BKN026 22/22 Q1018","temp":22,"dewp":22,"wdir":260,"wspd":4,"visib":"6+","altim":1018,"clouds":[{"cover":"BKN","base":1400},{"cover":"BKN","base":2600}],"obsTime":1779220800},"SBGW":{"icaoId":"SBGW","flightCategory":"MVFR","rawOb":"METAR SBGW 192000Z 27003KT 220V320 8000 OVC025 20/16 Q1020","temp":20,"dewp":16,"wdir":270,"wspd":3,"visib":4.97,"altim":1020,"clouds":[{"cover":"OVC","base":2500}],"obsTime":1779220800},"SBJR":{"icaoId":"SBJR","flightCategory":"MVFR","rawOb":"METAR SBJR 192000Z 22005KT 6000 VCSH SCT008 BKN015 OVC050 23/21 Q1018","temp":23,"dewp":21,"wdir":220,"wspd":5,"visib":3.73,"altim":1018,"clouds":[{"cover":"SCT","base":800},{"cover":"BKN","base":1500},{"cover":"OVC","base":5000}],"obsTime":1779220800},"SBLS":{"icaoId":"SBLS","flightCategory":"VFR","rawOb":"METAR SBLS 192000Z 10004KT 050V110 9999 FEW040 25/20 Q1019","temp":25,"dewp":20,"wdir":100,"wspd":4,"visib":"6+","altim":1019,"clouds":[{"cover":"FEW","base":4000}],"obsTime":1779220800},"SBMT":{"icaoId":"SBMT","flightCategory":"MVFR","rawOb":"METAR SBMT 192000Z 18002KT 8000 BKN013 OVC015 17/15 Q1021","temp":17,"dewp":15,"wdir":180,"wspd":2,"visib":4.97,"altim":1021,"clouds":[{"cover":"BKN","base":1300},{"cover":"OVC","base":1500}],"obsTime":1779220800},"SBST":{"icaoId":"SBST","flightCategory":"MVFR","rawOb":"METAR SBST 192000Z 31003KT 240V360 8000 BKN020 OVC028 21/17 Q1019","temp":21,"dewp":17,"wdir":310,"wspd":3,"visib":4.97,"altim":1019,"clouds":[{"cover":"BKN","base":2000},{"cover":"OVC","base":2800}],"obsTime":1779220800},"SBTA":{"icaoId":"SBTA","flightCategory":"MVFR","rawOb":"METAR SBTA 192000Z 27004KT 9999 BKN015 OVC025 20/17 Q1019","temp":20,"dewp":17,"wdir":270,"wspd":4,"visib":"6+","altim":1019,"clouds":[{"cover":"BKN","base":1500},{"cover":"OVC","base":2500}],"obsTime":1779220800},"SBLE":{"icaoId":"SBLE","flightCategory":"VFR","rawOb":"METAR SBLE 192000Z AUTO 22003KT 190V250 CAVOK 27/18 Q1017","temp":27,"dewp":18,"wdir":220,"wspd":3,"visib":"6+","altim":1017,"clouds":[],"obsTime":1779220800}}}