{"updated":1777032671,"count":85,"data":{"SBKP":{"icaoId":"SBKP","flightCategory":"MVFR","rawOb":"METAR SBKP 241100Z 12006KT 8000 NSC 20/17 Q1021","temp":20,"dewp":17,"wdir":120,"wspd":6,"visib":4.97,"altim":1021,"clouds":[],"obsTime":1777028400},"SBCP":{"icaoId":"SBCP","flightCategory":"VFR","rawOb":"METAR SBCP 241100Z 30003KT 9999 FEW020 24/22 Q1019","temp":24,"dewp":22,"wdir":300,"wspd":3,"visib":"6+","altim":1019,"clouds":[{"cover":"FEW","base":2000}],"obsTime":1777028400},"SBIL":{"icaoId":"SBIL","flightCategory":"MVFR","rawOb":"METAR SBIL 241100Z 22011KT 8000 -RA SCT015 BKN032 OVC070 25/24 Q1016","temp":25,"dewp":24,"wdir":220,"wspd":11,"visib":4.97,"altim":1016,"clouds":[{"cover":"SCT","base":1500},{"cover":"BKN","base":3200},{"cover":"OVC","base":7000}],"obsTime":1777028400},"SBVT":{"icaoId":"SBVT","flightCategory":"VFR","rawOb":"METAR SBVT 241100Z 28002KT CAVOK 24/21 Q1019","temp":24,"dewp":21,"wdir":280,"wspd":2,"visib":"6+","altim":1019,"clouds":[],"obsTime":1777028400},"SBJU":{"icaoId":"SBJU","flightCategory":"VFR","rawOb":"METAR SBJU 241100Z 00000KT 9999 FEW020 25/22 Q1015","temp":25,"dewp":22,"wdir":0,"wspd":0,"visib":"6+","altim":1015,"clouds":[{"cover":"FEW","base":2000}],"obsTime":1777028400},"SBCR":{"icaoId":"SBCR","flightCategory":"VFR","rawOb":"METAR SBCR 241100Z VRB01KT CAVOK 22/19 Q1014","temp":22,"dewp":19,"wdir":"VRB","wspd":1,"visib":"6+","altim":1014,"clouds":[],"obsTime":1777028400},"SBLO":{"icaoId":"SBLO","flightCategory":"VFR","rawOb":"METAR SBLO 241100Z 16003KT CAVOK 19/15 Q1020","temp":19,"dewp":15,"wdir":160,"wspd":3,"visib":"6+","altim":1020,"clouds":[],"obsTime":1777028400},"SBUL":{"icaoId":"SBUL","flightCategory":"VFR","rawOb":"METAR SBUL 241100Z 10010KT CAVOK 20/15 Q1021","temp":20,"dewp":15,"wdir":100,"wspd":10,"visib":"6+","altim":1021,"clouds":[],"obsTime":1777028400},"SBMA":{"icaoId":"SBMA","flightCategory":"MVFR","rawOb":"METAR SBMA 241100Z 23003KT 9999 SCT008 BKN015 BKN080 25/24 Q1014","temp":25,"dewp":24,"wdir":230,"wspd":3,"visib":"6+","altim":1014,"clouds":[{"cover":"SCT","base":800},{"cover":"BKN","base":1500},{"cover":"BKN","base":8000}],"obsTime":1777028400},"SBCT":{"icaoId":"SBCT","flightCategory":"LIFR","rawOb":"SPECI SBCT 241045Z 01003KT 4500 2000N BR BCFG BKN003 15/15 Q1022","temp":15,"dewp":15,"wdir":10,"wspd":3,"visib":2.8,"altim":1022,"clouds":[{"cover":"BKN","base":300}],"obsTime":1777027500},"SBME":{"icaoId":"SBME","flightCategory":"VFR","rawOb":"METAR SBME 241100Z 32003KT 280V340 9999 SCT036 22/19 Q1019","temp":22,"dewp":19,"wdir":320,"wspd":3,"visib":"6+","altim":1019,"clouds":[{"cover":"SCT","base":3600}],"obsTime":1777028400},"SBBV":{"icaoId":"SBBV","flightCategory":"VFR","rawOb":"METAR SBBV 241100Z 16006KT 9999 FEW035 SCT100 25/23 Q1013","temp":25,"dewp":23,"wdir":160,"wspd":6,"visib":"6+","altim":1013,"clouds":[{"cover":"FEW","base":3500},{"cover":"SCT","base":10000}],"obsTime":1777028400},"SBMG":{"icaoId":"SBMG","flightCategory":"VFR","rawOb":"METAR SBMG 241100Z 18005KT 080V220 CAVOK 19/15 Q1018","temp":19,"dewp":15,"wdir":180,"wspd":5,"visib":"6+","altim":1018,"clouds":[],"obsTime":1777028400},"SBMK":{"icaoId":"SBMK","flightCategory":"VFR","rawOb":"METAR SBMK 241100Z 20003KT 9999 FEW035 21/17 Q1020","temp":21,"dewp":17,"wdir":200,"wspd":3,"visib":"6+","altim":1020,"clouds":[{"cover":"FEW","base":3500}],"obsTime":1777028400},"SBMO":{"icaoId":"SBMO","flightCategory":"VFR","rawOb":"METAR SBMO 241100Z 12010KT 9999 SCT025 28/23 Q1013","temp":28,"dewp":23,"wdir":120,"wspd":10,"visib":"6+","altim":1013,"clouds":[{"cover":"SCT","base":2500}],"obsTime":1777028400},"SBMQ":{"icaoId":"SBMQ","flightCategory":"MVFR","rawOb":"METAR SBMQ 241100Z 32006KT 8000 -RA FEW005 OVC070 23/23 Q1013","temp":23,"dewp":23,"wdir":320,"wspd":6,"visib":4.97,"altim":1013,"clouds":[{"cover":"FEW","base":500},{"cover":"OVC","base":7000}],"obsTime":1777028400},"SBCZ":{"icaoId":"SBCZ","flightCategory":"IFR","rawOb":"METAR SBCZ 241200Z 03002KT 9999 OVC006 22/22 Q1014","temp":22,"dewp":22,"wdir":30,"wspd":2,"visib":"6+","altim":1014,"clouds":[{"cover":"OVC","base":600}],"obsTime":1777032000},"SBNT":{"icaoId":"SBNT","flightCategory":"LIFR","rawOb":"METAR SBNT 241100Z 25003KT 190V310 1500 R16L/P2000N R34R/P2000N RA BR BKN006 BKN017 OVC030 23/23 Q1013 RERA","temp":23,"dewp":23,"wdir":250,"wspd":3,"visib":0.93,"altim":1013,"clouds":[{"cover":"BKN","base":600},{"cover":"BKN","base":1700},{"cover":"OVC","base":3000}],"obsTime":1777028400},"SBEG":{"icaoId":"SBEG","flightCategory":"VFR","rawOb":"METAR SBEG 241100Z VRB02KT 9999 FEW015 24/24 Q1012","temp":24,"dewp":24,"wdir":"VRB","wspd":2,"visib":"6+","altim":1012,"clouds":[{"cover":"FEW","base":1500}],"obsTime":1777028400},"SBAT":{"icaoId":"SBAT","flightCategory":"MVFR","rawOb":"METAR SBAT 241100Z 11002KT 5000 BR FEW030 BKN100 24/24 Q1015","temp":24,"dewp":24,"wdir":110,"wspd":2,"visib":3.11,"altim":1015,"clouds":[{"cover":"FEW","base":3000},{"cover":"BKN","base":10000}],"obsTime":1777028400},"SBPA":{"icaoId":"SBPA","flightCategory":"IFR","rawOb":"METAR SBPA 241100Z 10006KT 4000 -RA BR BKN009 OVC020 20/19 Q1017 RERA","temp":20,"dewp":19,"wdir":100,"wspd":6,"visib":2.49,"altim":1017,"clouds":[{"cover":"BKN","base":900},{"cover":"OVC","base":2000}],"obsTime":1777028400},"SBPJ":{"icaoId":"SBPJ","flightCategory":"VFR","rawOb":"METAR SBPJ 241100Z 12003KT 9999 FEW035 BKN080 26/23 Q1014","temp":26,"dewp":23,"wdir":120,"wspd":3,"visib":"6+","altim":1014,"clouds":[{"cover":"FEW","base":3500},{"cover":"BKN","base":8000}],"obsTime":1777028400},"SBUR":{"icaoId":"SBUR","flightCategory":"VFR","rawOb":"METAR SBUR 241100Z 05007KT CAVOK 23/15 Q1019","temp":23,"dewp":15,"wdir":50,"wspd":7,"visib":"6+","altim":1019,"clouds":[],"obsTime":1777028400},"SBTE":{"icaoId":"SBTE","flightCategory":"MVFR","rawOb":"METAR SBTE 241100Z 00000KT 9999 BKN015 27/24 Q1013","temp":27,"dewp":24,"wdir":0,"wspd":0,"visib":"6+","altim":1013,"clouds":[{"cover":"BKN","base":1500}],"obsTime":1777028400},"SBFI":{"icaoId":"SBFI","flightCategory":"VFR","rawOb":"METAR SBFI 241100Z 09004KT CAVOK 22/21 Q1016","temp":22,"dewp":21,"wdir":90,"wspd":4,"visib":"6+","altim":1016,"clouds":[],"obsTime":1777028400},"SBPV":{"icaoId":"SBPV","flightCategory":"IFR","rawOb":"SPECI SBPV 241022Z 08003KT 9999 BKN005 25/23 Q1012","temp":25,"dewp":23,"wdir":80,"wspd":3,"visib":"6+","altim":1012,"clouds":[{"cover":"BKN","base":500}],"obsTime":1777026120},"SBRB":{"icaoId":"SBRB","flightCategory":"MVFR","rawOb":"METAR SBRB 241100Z 14004KT 6000 SCT003 BKN065 24/23 Q1012","temp":24,"dewp":23,"wdir":140,"wspd":4,"visib":3.73,"altim":1012,"clouds":[{"cover":"SCT","base":300},{"cover":"BKN","base":6500}],"obsTime":1777028400},"SBCB":{"icaoId":"SBCB","flightCategory":"VFR","rawOb":"METAR SBCB 241100Z 02003KT 9999 FEW020 24/22 Q1019","temp":24,"dewp":22,"wdir":20,"wspd":3,"visib":"6+","altim":1019,"clouds":[{"cover":"FEW","base":2000}],"obsTime":1777028400},"SBFL":{"icaoId":"SBFL","flightCategory":"VFR","rawOb":"METAR SBFL 241100Z 33004KT 9999 FEW015 23/21 Q1018","temp":23,"dewp":21,"wdir":330,"wspd":4,"visib":"6+","altim":1018,"clouds":[{"cover":"FEW","base":1500}],"obsTime":1777028400},"SBRF":{"icaoId":"SBRF","flightCategory":"VFR","rawOb":"METAR SBRF 241100Z 14016KT 9999 SCT020 29/24 Q1012","temp":29,"dewp":24,"wdir":140,"wspd":16,"visib":"6+","altim":1012,"clouds":[{"cover":"SCT","base":2000}],"obsTime":1777028400},"SBFZ":{"icaoId":"SBFZ","flightCategory":"VFR","rawOb":"METAR SBFZ 241100Z 19006KT 9999 FEW020 BKN100 27/25 Q1012","temp":27,"dewp":25,"wdir":190,"wspd":6,"visib":"6+","altim":1012,"clouds":[{"cover":"FEW","base":2000},{"cover":"BKN","base":10000}],"obsTime":1777028400},"SBSG":{"icaoId":"SBSG","flightCategory":"LIFR","rawOb":"METAR SBSG 241100Z 15003KT 120V200 3000 -RA BR BKN004 24/24 Q1013","temp":24,"dewp":24,"wdir":150,"wspd":3,"visib":1.86,"altim":1013,"clouds":[{"cover":"BKN","base":400}],"obsTime":1777028400},"SBCF":{"icaoId":"SBCF","flightCategory":"VFR","rawOb":"METAR SBCF 241100Z 14006KT 110V190 9999 FEW020 20/17 Q1022","temp":20,"dewp":17,"wdir":140,"wspd":6,"visib":"6+","altim":1022,"clouds":[{"cover":"FEW","base":2000}],"obsTime":1777028400},"SBSL":{"icaoId":"SBSL","flightCategory":"VFR","rawOb":"METAR SBSL 241100Z 19002KT 9999 SCT020 BKN070 26/25 Q1012","temp":26,"dewp":25,"wdir":190,"wspd":2,"visib":"6+","altim":1012,"clouds":[{"cover":"SCT","base":2000},{"cover":"BKN","base":7000}],"obsTime":1777028400},"SBSN":{"icaoId":"SBSN","flightCategory":"VFR","rawOb":"METAR SBSN 241100Z 07006KT 9999 SCT011 26/24 Q1012","temp":26,"dewp":24,"wdir":70,"wspd":6,"visib":"6+","altim":1012,"clouds":[{"cover":"SCT","base":1100}],"obsTime":1777028400},"SBGL":{"icaoId":"SBGL","flightCategory":"MVFR","rawOb":"METAR SBGL 241100Z 02003KT 8000 NSC 23/20 Q1019","temp":23,"dewp":20,"wdir":20,"wspd":3,"visib":4.97,"altim":1019,"clouds":[],"obsTime":1777028400},"SBSP":{"icaoId":"SBSP","flightCategory":"VFR","rawOb":"METAR SBSP 241100Z 06007KT 020V100 9999 FEW014 19/16 Q1022","temp":19,"dewp":16,"wdir":60,"wspd":7,"visib":"6+","altim":1022,"clouds":[{"cover":"FEW","base":1400}],"obsTime":1777028400},"SBSV":{"icaoId":"SBSV","flightCategory":"MVFR","rawOb":"METAR SBSV 241100Z 12007KT 080V150 9000 VCSH FEW013 BKN021 FEW024TCU OVC050 27/24 Q1014","temp":27,"dewp":24,"wdir":120,"wspd":7,"visib":5.59,"altim":1014,"clouds":[{"cover":"FEW","base":1300},{"cover":"BKN","base":2100},{"cover":"FEW","base":2400},{"cover":"OVC","base":5000}],"obsTime":1777028400},"SBGO":{"icaoId":"SBGO","flightCategory":"VFR","rawOb":"METAR SBGO 241100Z 15005KT CAVOK 21/16 Q1020","temp":21,"dewp":16,"wdir":150,"wspd":5,"visib":"6+","altim":1020,"clouds":[],"obsTime":1777028400},"SBCG":{"icaoId":"SBCG","flightCategory":"VFR","rawOb":"METAR SBCG 241100Z 06007KT CAVOK 23/16 Q1017","temp":23,"dewp":16,"wdir":60,"wspd":7,"visib":"6+","altim":1017,"clouds":[],"obsTime":1777028400},"SBBE":{"icaoId":"SBBE","flightCategory":"VFR","rawOb":"SPECI SBBE 241028Z 27005KT 9999 SCT008 SCT015 BKN060 25/24 Q1012","temp":25,"dewp":24,"wdir":270,"wspd":5,"visib":"6+","altim":1012,"clouds":[{"cover":"SCT","base":800},{"cover":"SCT","base":1500},{"cover":"BKN","base":6000}],"obsTime":1777026480},"SBGR":{"icaoId":"SBGR","flightCategory":"MVFR","rawOb":"METAR SBGR 241100Z 06012KT 9000 4000E FEW009 BKN011 19/16 Q1022","temp":19,"dewp":16,"wdir":60,"wspd":12,"visib":5.59,"altim":1022,"clouds":[{"cover":"FEW","base":900},{"cover":"BKN","base":1100}],"obsTime":1777028400},"SBBR":{"icaoId":"SBBR","flightCategory":"VFR","rawOb":"METAR SBBR 241100Z VRB02KT CAVOK 19/14 Q1022","temp":19,"dewp":14,"wdir":"VRB","wspd":2,"visib":"6+","altim":1022,"clouds":[],"obsTime":1777028400},"SBHT":{"icaoId":"SBHT","flightCategory":"VFR","rawOb":"METAR SBHT 241100Z 16002KT 9999 SCT012 OVC080 25/24 Q1013","temp":25,"dewp":24,"wdir":160,"wspd":2,"visib":"6+","altim":1013,"clouds":[{"cover":"SCT","base":1200},{"cover":"OVC","base":8000}],"obsTime":1777028400},"SBOI":{"icaoId":"SBOI","flightCategory":"LIFR","rawOb":"METAR SBOI 241100Z AUTO 00000KT 9999 // OVC002/// 23/23 Q1014","temp":23,"dewp":23,"wdir":0,"wspd":0,"visib":"6+","altim":1014,"clouds":[{"cover":"OVC","base":200}],"obsTime":1777028400},"SBCC":{"icaoId":"SBCC","flightCategory":"VFR","rawOb":"METAR SBCC 241100Z 22002KT CAVOK 21/21 Q1015","temp":21,"dewp":21,"wdir":220,"wspd":2,"visib":"6+","altim":1015,"clouds":[],"obsTime":1777028400},"SBAR":{"icaoId":"SBAR","flightCategory":"LIFR","rawOb":"SPECI SBAR 241021Z 09011KT 1500 RA BKN007 OVC040 25/24 Q1014","temp":25,"dewp":24,"wdir":90,"wspd":11,"visib":0.93,"altim":1014,"clouds":[{"cover":"BKN","base":700},{"cover":"OVC","base":4000}],"obsTime":1777026060},"SBAX":{"icaoId":"SBAX","flightCategory":"VFR","rawOb":"METAR SBAX 241100Z 12007KT CAVOK 19/16 Q1022","temp":19,"dewp":16,"wdir":120,"wspd":7,"visib":"6+","altim":1022,"clouds":[],"obsTime":1777028400},"SBBH":{"icaoId":"SBBH","flightCategory":"VFR","rawOb":"METAR SBBH 241100Z 11008KT CAVOK 21/17 Q1022","temp":21,"dewp":17,"wdir":110,"wspd":8,"visib":"6+","altim":1022,"clouds":[],"obsTime":1777028400},"SBBQ":{"icaoId":"SBBQ","flightCategory":"VFR","rawOb":"METAR SBBQ 241200Z 07005KT CAVOK 20/14 Q1026","temp":20,"dewp":14,"wdir":70,"wspd":5,"visib":"6+","altim":1026,"clouds":[],"obsTime":1777032000},"SBBU":{"icaoId":"SBBU","flightCategory":"VFR","rawOb":"METAR SBBU 241100Z 08010KT 9000 NSC 21/18 Q1020","temp":21,"dewp":18,"wdir":80,"wspd":10,"visib":5.59,"altim":1020,"clouds":[],"obsTime":1777028400},"SBCA":{"icaoId":"SBCA","flightCategory":"VFR","rawOb":"METAR SBCA 241100Z 06011KT CAVOK 20/14 Q1019","temp":20,"dewp":14,"wdir":60,"wspd":11,"visib":"6+","altim":1019,"clouds":[],"obsTime":1777028400},"SBCJ":{"icaoId":"SBCJ","flightCategory":"VFR","rawOb":"SPECI SBCJ 241015Z 00000KT 9000 SCT010 BKN080 22/21 Q1017","temp":22,"dewp":21,"wdir":0,"wspd":0,"visib":5.59,"altim":1017,"clouds":[{"cover":"SCT","base":1000},{"cover":"BKN","base":8000}],"obsTime":1777025700},"SBCO":{"icaoId":"SBCO","flightCategory":"IFR","rawOb":"METAR SBCO 241100Z 11007KT 4000 -RA FEW004 BKN008 OVC018 20/19 Q1018 RERA","temp":20,"dewp":19,"wdir":110,"wspd":7,"visib":2.49,"altim":1018,"clouds":[{"cover":"FEW","base":400},{"cover":"BKN","base":800},{"cover":"OVC","base":1800}],"obsTime":1777028400},"SBDN":{"icaoId":"SBDN","flightCategory":"VFR","rawOb":"METAR SBDN 241100Z 12007KT CAVOK 20/16 Q1018","temp":20,"dewp":16,"wdir":120,"wspd":7,"visib":"6+","altim":1018,"clouds":[],"obsTime":1777028400},"SBES":{"icaoId":"SBES","flightCategory":"VFR","rawOb":"METAR SBES 241100Z 00000KT 9999 FEW020 21/// Q1019","temp":null,"dewp":null,"wdir":0,"wspd":0,"visib":"6+","altim":1019,"clouds":[{"cover":"FEW","base":2000}],"obsTime":1777028400},"SBGM":{"icaoId":"SBGM","flightCategory":"VFR","rawOb":"METAR SBGM 241200Z 07004KT 040V110 CAVOK 26/22 Q1013","temp":26,"dewp":22,"wdir":70,"wspd":4,"visib":"6+","altim":1013,"clouds":[],"obsTime":1777032000},"SBIP":{"icaoId":"SBIP","flightCategory":"VFR","rawOb":"METAR SBIP 241100Z AUTO VRB01KT CAVOK 23/21 Q1020","temp":23,"dewp":21,"wdir":"VRB","wspd":1,"visib":"6+","altim":1020,"clouds":[],"obsTime":1777028400},"SBKG":{"icaoId":"SBKG","flightCategory":"IFR","rawOb":"METAR SBKG 241100Z 16004KT 5000 -RA BR BKN006 OVC070 22/22 Q1015","temp":22,"dewp":22,"wdir":160,"wspd":4,"visib":3.11,"altim":1015,"clouds":[{"cover":"BKN","base":600},{"cover":"OVC","base":7000}],"obsTime":1777028400},"SBPB":{"icaoId":"SBPB","flightCategory":"VFR","rawOb":"SPECI SBPB 241015Z 12007KT 9999 FEW020 28/25 Q1011","temp":28,"dewp":25,"wdir":120,"wspd":7,"visib":"6+","altim":1011,"clouds":[{"cover":"FEW","base":2000}],"obsTime":1777025700},"SBPL":{"icaoId":"SBPL","flightCategory":"MVFR","rawOb":"METAR SBPL 241100Z 12005KT 9999 BKN015 24/23 Q1016","temp":24,"dewp":23,"wdir":120,"wspd":5,"visib":"6+","altim":1016,"clouds":[{"cover":"BKN","base":1500}],"obsTime":1777028400},"SBPP":{"icaoId":"SBPP","flightCategory":"VFR","rawOb":"SPECI SBPP 241115Z 01005KT CAVOK 20/16 Q1018","temp":20,"dewp":16,"wdir":10,"wspd":5,"visib":"6+","altim":1018,"clouds":[],"obsTime":1777029300},"SBPS":{"icaoId":"SBPS","flightCategory":"MVFR","rawOb":"METAR SBPS 241100Z 10006KT 8000 VCSH BKN015 FEW020TCU OVC040 24/23 Q1017","temp":24,"dewp":23,"wdir":100,"wspd":6,"visib":4.97,"altim":1017,"clouds":[{"cover":"BKN","base":1500},{"cover":"FEW","base":2000},{"cover":"OVC","base":4000}],"obsTime":1777028400},"SBSC":{"icaoId":"SBSC","flightCategory":"MVFR","rawOb":"METAR SBSC 241100Z 01005KT 8000 FEW020 SCT050 23/18 Q1018","temp":23,"dewp":18,"wdir":10,"wspd":5,"visib":4.97,"altim":1018,"clouds":[{"cover":"FEW","base":2000},{"cover":"SCT","base":5000}],"obsTime":1777028400},"SBSJ":{"icaoId":"SBSJ","flightCategory":"VFR","rawOb":"METAR SBSJ 241100Z VRB02KT 9000 SCT013 18/17 Q1021","temp":18,"dewp":17,"wdir":"VRB","wspd":2,"visib":5.59,"altim":1021,"clouds":[{"cover":"SCT","base":1300}],"obsTime":1777028400},"SBSM":{"icaoId":"SBSM","flightCategory":"LIFR","rawOb":"METAR SBSM 241100Z VRB05KT 2000 RA BR BKN004 BKN008 OVC020 18/18 Q1018","temp":18,"dewp":18,"wdir":"VRB","wspd":5,"visib":1.24,"altim":1018,"clouds":[{"cover":"BKN","base":400},{"cover":"BKN","base":800},{"cover":"OVC","base":2000}],"obsTime":1777028400},"SBSR":{"icaoId":"SBSR","flightCategory":"VFR","rawOb":"METAR SBSR 241100Z 09006KT 9999 FEW030 23/17 Q1018","temp":23,"dewp":17,"wdir":90,"wspd":6,"visib":"6+","altim":1018,"clouds":[{"cover":"FEW","base":3000}],"obsTime":1777028400},"SBTD":{"icaoId":"SBTD","flightCategory":"VFR","rawOb":"METAR SBTD 241100Z /////KT CAVOK 19/16 Q1018","temp":19,"dewp":16,"wdir":null,"wspd":null,"visib":"6+","altim":1018,"clouds":[],"obsTime":1777028400},"SBTF":{"icaoId":"SBTF","flightCategory":"VFR","rawOb":"SPECI SBTF 241115Z 17004KT 9999 FEW005 BKN090 25/25 Q1011","temp":25,"dewp":25,"wdir":170,"wspd":4,"visib":"6+","altim":1011,"clouds":[{"cover":"FEW","base":500},{"cover":"BKN","base":9000}],"obsTime":1777029300},"SBTT":{"icaoId":"SBTT","flightCategory":"LIFR","rawOb":"METAR SBTT 241100Z 22003KT 9999 BKN004 OVC100 22/21 Q1013","temp":22,"dewp":21,"wdir":220,"wspd":3,"visib":"6+","altim":1013,"clouds":[{"cover":"BKN","base":400},{"cover":"OVC","base":10000}],"obsTime":1777028400},"SBUY":{"icaoId":"SBUY","flightCategory":"MVFR","rawOb":"METAR SBUY 241100Z 00000KT 6000 SCT010 BKN015 24/23 Q1011","temp":24,"dewp":23,"wdir":0,"wspd":0,"visib":3.73,"altim":1011,"clouds":[{"cover":"SCT","base":1000},{"cover":"BKN","base":1500}],"obsTime":1777028400},"SBVH":{"icaoId":"SBVH","flightCategory":"VFR","rawOb":"METAR SBVH 241100Z 08005KT 9999 FEW025 21/21 Q1016","temp":21,"dewp":21,"wdir":80,"wspd":5,"visib":"6+","altim":1016,"clouds":[{"cover":"FEW","base":2500}],"obsTime":1777028400},"SBLE":{"icaoId":"SBLE","flightCategory":"MVFR","rawOb":"METAR SBLE 241100Z AUTO 13004KT 090V170 9999 SCT003 BKN020 OVC027 ///// Q////","temp":null,"dewp":null,"wdir":130,"wspd":4,"visib":"6+","altim":null,"clouds":[{"cover":"SCT","base":300},{"cover":"BKN","base":2000},{"cover":"OVC","base":2700}],"obsTime":1777028400},"SBJP":{"icaoId":"SBJP","flightCategory":"IFR","rawOb":"METAR SBJP 241100Z 14005KT 2000 -RA BKN008 OVC014 24/24 Q1013","temp":24,"dewp":24,"wdir":140,"wspd":5,"visib":1.24,"altim":1013,"clouds":[{"cover":"BKN","base":800},{"cover":"OVC","base":1400}],"obsTime":1777028400},"SBAN":{"icaoId":"SBAN","flightCategory":"VFR","rawOb":"METAR SBAN 241100Z 13008KT 100V160 CAVOK 20/14 Q1022","temp":20,"dewp":14,"wdir":130,"wspd":8,"visib":"6+","altim":1022,"clouds":[],"obsTime":1777028400},"SBJV":{"icaoId":"SBJV","flightCategory":"MVFR","rawOb":"METAR SBJV 241100Z 36003KT 9999 FEW010 BKN020 20/20 Q1019","temp":20,"dewp":20,"wdir":360,"wspd":3,"visib":"6+","altim":1019,"clouds":[{"cover":"FEW","base":1000},{"cover":"BKN","base":2000}],"obsTime":1777028400},"SBPF":{"icaoId":"SBPF","flightCategory":"VFR","rawOb":"METAR SBPF 241100Z 07010KT CAVOK 17/14 Q1019","temp":17,"dewp":14,"wdir":70,"wspd":10,"visib":"6+","altim":1019,"clouds":[],"obsTime":1777028400},"SBIH":{"icaoId":"SBIH","flightCategory":"MVFR","rawOb":"METAR SBIH 241100Z 04003KT 8000 SCT010 24/23 Q1012","temp":24,"dewp":23,"wdir":40,"wspd":3,"visib":4.97,"altim":1012,"clouds":[{"cover":"SCT","base":1000}],"obsTime":1777028400},"SBAF":{"icaoId":"SBAF","flightCategory":"VFR","rawOb":"METAR SBAF 241100Z VRB01KT CAVOK 23/22 Q1019","temp":23,"dewp":22,"wdir":"VRB","wspd":1,"visib":"6+","altim":1019,"clouds":[],"obsTime":1777028400},"SBGW":{"icaoId":"SBGW","flightCategory":"MVFR","rawOb":"METAR SBGW 241100Z 06004KT 5000 HZ SCT010 SCT070 20/14 Q1021","temp":20,"dewp":14,"wdir":60,"wspd":4,"visib":3.11,"altim":1021,"clouds":[{"cover":"SCT","base":1000},{"cover":"SCT","base":7000}],"obsTime":1777028400},"SBJR":{"icaoId":"SBJR","flightCategory":"VFR","rawOb":"METAR SBJR 241100Z 02001KT CAVOK 25/23 Q1018","temp":25,"dewp":23,"wdir":20,"wspd":1,"visib":"6+","altim":1018,"clouds":[],"obsTime":1777028400},"SBLS":{"icaoId":"SBLS","flightCategory":"VFR","rawOb":"METAR SBLS 241100Z 14009KT 9999 FEW025 20/17 Q1022","temp":20,"dewp":17,"wdir":140,"wspd":9,"visib":"6+","altim":1022,"clouds":[{"cover":"FEW","base":2500}],"obsTime":1777028400},"SBMT":{"icaoId":"SBMT","flightCategory":"VFR","rawOb":"METAR SBMT 241100Z 07008KT 040V110 9999 SCT015 19/16 Q1021","temp":19,"dewp":16,"wdir":70,"wspd":8,"visib":"6+","altim":1021,"clouds":[{"cover":"SCT","base":1500}],"obsTime":1777028400},"SBST":{"icaoId":"SBST","flightCategory":"VFR","rawOb":"METAR SBST 241100Z 17002KT CAVOK 21/21 Q1018","temp":21,"dewp":21,"wdir":170,"wspd":2,"visib":"6+","altim":1018,"clouds":[],"obsTime":1777028400},"SBTA":{"icaoId":"SBTA","flightCategory":"VFR","rawOb":"METAR SBTA 241100Z 00000KT 9999 FEW014 19/17 Q1021","temp":19,"dewp":17,"wdir":0,"wspd":0,"visib":"6+","altim":1021,"clouds":[{"cover":"FEW","base":1400}],"obsTime":1777028400}}}