{"updated":1776339262,"count":78,"data":{"SBEG":{"icaoId":"SBEG","flightCategory":"VFR","rawOb":"METAR SBEG 152200Z VRB02KT 9999 FEW020 FEW025TCU 26/25 Q1006","temp":26,"dewp":25,"wdir":"VRB","wspd":2,"visib":"6+","altim":1006,"clouds":[{"cover":"FEW","base":2000},{"cover":"FEW","base":2500}],"obsTime":1776290400},"SBBE":{"icaoId":"SBBE","flightCategory":"MVFR","rawOb":"METAR SBBE 152200Z 07006KT 9999 BKN022 FEW025TCU 27/25 Q1009","temp":27,"dewp":25,"wdir":70,"wspd":6,"visib":"6+","altim":1009,"clouds":[{"cover":"BKN","base":2200},{"cover":"FEW","base":2500}],"obsTime":1776290400},"SBBR":{"icaoId":"SBBR","flightCategory":"VFR","rawOb":"METAR SBBR 152200Z 21003KT 9999 FEW040 BKN070 22/19 Q1016","temp":22,"dewp":19,"wdir":210,"wspd":3,"visib":"6+","altim":1016,"clouds":[{"cover":"FEW","base":4000},{"cover":"BKN","base":7000}],"obsTime":1776290400},"SBBV":{"icaoId":"SBBV","flightCategory":"VFR","rawOb":"METAR SBBV 152200Z 15006KT 9999 SCT040 FEW045TCU 34/21 Q1005","temp":34,"dewp":21,"wdir":150,"wspd":6,"visib":"6+","altim":1005,"clouds":[{"cover":"SCT","base":4000},{"cover":"FEW","base":4500}],"obsTime":1776290400},"SBCB":{"icaoId":"SBCB","flightCategory":"VFR","rawOb":"METAR SBCB 152200Z 21005KT CAVOK 23/21 Q1015","temp":23,"dewp":21,"wdir":210,"wspd":5,"visib":"6+","altim":1015,"clouds":[],"obsTime":1776290400},"SBCF":{"icaoId":"SBCF","flightCategory":"VFR","rawOb":"METAR SBCF 152200Z 17002KT CAVOK 24/14 Q1017","temp":24,"dewp":14,"wdir":170,"wspd":2,"visib":"6+","altim":1017,"clouds":[],"obsTime":1776290400},"SBCG":{"icaoId":"SBCG","flightCategory":"VFR","rawOb":"METAR SBCG 152200Z 08008KT 9999 VCSH FEW045 FEW050TCU BKN100 26/20 Q1012","temp":26,"dewp":20,"wdir":80,"wspd":8,"visib":"6+","altim":1012,"clouds":[{"cover":"FEW","base":4500},{"cover":"FEW","base":5000},{"cover":"BKN","base":10000}],"obsTime":1776290400},"SBCT":{"icaoId":"SBCT","flightCategory":"VFR","rawOb":"METAR SBCT 152200Z 11003KT CAVOK 17/16 Q1018","temp":17,"dewp":16,"wdir":110,"wspd":3,"visib":"6+","altim":1018,"clouds":[],"obsTime":1776290400},"SBCZ":{"icaoId":"SBCZ","flightCategory":"MVFR","rawOb":"METAR SBCZ 152200Z 02006KT 9999 BKN030 FEW030TCU 30/24 Q1004","temp":30,"dewp":24,"wdir":20,"wspd":6,"visib":"6+","altim":1004,"clouds":[{"cover":"BKN","base":3000},{"cover":"FEW","base":3000}],"obsTime":1776290400},"SBFI":{"icaoId":"SBFI","flightCategory":"VFR","rawOb":"METAR SBFI 152200Z 08002KT 9999 FEW030 BKN100 23/22 Q1010","temp":23,"dewp":22,"wdir":80,"wspd":2,"visib":"6+","altim":1010,"clouds":[{"cover":"FEW","base":3000},{"cover":"BKN","base":10000}],"obsTime":1776290400},"SBFL":{"icaoId":"SBFL","flightCategory":"VFR","rawOb":"METAR SBFL 152200Z 03004KT 9999 FEW048 SCT060 25/19 Q1015","temp":25,"dewp":19,"wdir":30,"wspd":4,"visib":"6+","altim":1015,"clouds":[{"cover":"FEW","base":4800},{"cover":"SCT","base":6000}],"obsTime":1776290400},"SBFZ":{"icaoId":"SBFZ","flightCategory":"VFR","rawOb":"METAR SBFZ 152200Z 15004KT 9999 FEW015 26/24 Q1010","temp":26,"dewp":24,"wdir":150,"wspd":4,"visib":"6+","altim":1010,"clouds":[{"cover":"FEW","base":1500}],"obsTime":1776290400},"SBGL":{"icaoId":"SBGL","flightCategory":"VFR","rawOb":"METAR SBGL 152200Z 14005KT 9999 FEW030 24/19 Q1014","temp":24,"dewp":19,"wdir":140,"wspd":5,"visib":"6+","altim":1014,"clouds":[{"cover":"FEW","base":3000}],"obsTime":1776290400},"SBGO":{"icaoId":"SBGO","flightCategory":"VFR","rawOb":"METAR SBGO 152200Z 32004KT 9999 FEW040 24/20 Q1014","temp":24,"dewp":20,"wdir":320,"wspd":4,"visib":"6+","altim":1014,"clouds":[{"cover":"FEW","base":4000}],"obsTime":1776290400},"SBGR":{"icaoId":"SBGR","flightCategory":"VFR","rawOb":"METAR SBGR 152200Z 16006KT CAVOK 21/18 Q1017","temp":21,"dewp":18,"wdir":160,"wspd":6,"visib":"6+","altim":1017,"clouds":[],"obsTime":1776290400},"SBKP":{"icaoId":"SBKP","flightCategory":"VFR","rawOb":"METAR SBKP 152200Z 13005KT CAVOK 24/14 Q1016","temp":24,"dewp":14,"wdir":130,"wspd":5,"visib":"6+","altim":1016,"clouds":[],"obsTime":1776290400},"SBLO":{"icaoId":"SBLO","flightCategory":"VFR","rawOb":"METAR SBLO 152200Z 09003KT CAVOK 25/17 Q1014","temp":25,"dewp":17,"wdir":90,"wspd":3,"visib":"6+","altim":1014,"clouds":[],"obsTime":1776290400},"SBMA":{"icaoId":"SBMA","flightCategory":"VFR","rawOb":"METAR SBMA 152200Z 05002KT CAVOK 28/25 Q1008","temp":28,"dewp":25,"wdir":50,"wspd":2,"visib":"6+","altim":1008,"clouds":[],"obsTime":1776290400},"SBMO":{"icaoId":"SBMO","flightCategory":"VFR","rawOb":"METAR SBMO 152200Z 08002KT 9999 FEW025 SCT070 26/24 Q1011","temp":26,"dewp":24,"wdir":80,"wspd":2,"visib":"6+","altim":1011,"clouds":[{"cover":"FEW","base":2500},{"cover":"SCT","base":7000}],"obsTime":1776290400},"SBMQ":{"icaoId":"SBMQ","flightCategory":"VFR","rawOb":"METAR SBMQ 152200Z 36004KT 9999 SCT017 OVC100 25/24 Q1009","temp":25,"dewp":24,"wdir":360,"wspd":4,"visib":"6+","altim":1009,"clouds":[{"cover":"SCT","base":1700},{"cover":"OVC","base":10000}],"obsTime":1776290400},"SBNT":{"icaoId":"SBNT","flightCategory":"VFR","rawOb":"METAR SBNT 152200Z 12003KT 9999 SCT020 26/23 Q1010","temp":26,"dewp":23,"wdir":120,"wspd":3,"visib":"6+","altim":1010,"clouds":[{"cover":"SCT","base":2000}],"obsTime":1776290400},"SBPA":{"icaoId":"SBPA","flightCategory":"VFR","rawOb":"METAR SBPA 152200Z 10013KT CAVOK 24/19 Q1011","temp":24,"dewp":19,"wdir":100,"wspd":13,"visib":"6+","altim":1011,"clouds":[],"obsTime":1776290400},"SBPJ":{"icaoId":"SBPJ","flightCategory":"VFR","rawOb":"METAR SBPJ 152200Z 07003KT 9999 FEW043 FEW048TCU 29/25 Q1009","temp":29,"dewp":25,"wdir":70,"wspd":3,"visib":"6+","altim":1009,"clouds":[{"cover":"FEW","base":4300},{"cover":"FEW","base":4800}],"obsTime":1776290400},"SBPV":{"icaoId":"SBPV","flightCategory":"VFR","rawOb":"METAR SBPV 152200Z 04003KT CAVOK 31/23 Q1005","temp":31,"dewp":23,"wdir":40,"wspd":3,"visib":"6+","altim":1005,"clouds":[],"obsTime":1776290400},"SBRB":{"icaoId":"SBRB","flightCategory":"VFR","rawOb":"SPECI SBRB 152137Z 09003KT 9999 VCSH SCT025 FEW030TCU BKN100 29/25 Q1005 RETS","temp":29,"dewp":25,"wdir":90,"wspd":3,"visib":"6+","altim":1005,"clouds":[{"cover":"SCT","base":2500},{"cover":"FEW","base":3000},{"cover":"BKN","base":10000}],"obsTime":1776289020},"SBRF":{"icaoId":"SBRF","flightCategory":"VFR","rawOb":"METAR SBRF 152200Z 14008KT 9999 FEW025 28/23 Q1010","temp":28,"dewp":23,"wdir":140,"wspd":8,"visib":"6+","altim":1010,"clouds":[{"cover":"FEW","base":2500}],"obsTime":1776290400},"SBSG":{"icaoId":"SBSG","flightCategory":"MVFR","rawOb":"METAR SBSG 152200Z 13004KT 090V160 9999 BKN023 FEW026TCU 25/24 Q1010","temp":25,"dewp":24,"wdir":130,"wspd":4,"visib":"6+","altim":1010,"clouds":[{"cover":"BKN","base":2300},{"cover":"FEW","base":2600}],"obsTime":1776290400},"SBSL":{"icaoId":"SBSL","flightCategory":"MVFR","rawOb":"SPECI SBSL 152117Z 08008KT 040V100 7000 -TSRA SCT014 BKN020 FEW025CB 25/24 Q1009 RERA","temp":25,"dewp":24,"wdir":80,"wspd":8,"visib":4.35,"altim":1009,"clouds":[{"cover":"SCT","base":1400},{"cover":"BKN","base":2000},{"cover":"FEW","base":2500}],"obsTime":1776287820},"SBSN":{"icaoId":"SBSN","flightCategory":"VFR","rawOb":"METAR SBSN 152200Z 12008KT 9999 FEW016 SCT100 26/23 Q1006","temp":26,"dewp":23,"wdir":120,"wspd":8,"visib":"6+","altim":1006,"clouds":[{"cover":"FEW","base":1600},{"cover":"SCT","base":10000}],"obsTime":1776290400},"SBSP":{"icaoId":"SBSP","flightCategory":"VFR","rawOb":"METAR SBSP 152200Z 17008KT 9999 SCT011 19/17 Q1018","temp":19,"dewp":17,"wdir":170,"wspd":8,"visib":"6+","altim":1018,"clouds":[{"cover":"SCT","base":1100}],"obsTime":1776290400},"SBSV":{"icaoId":"SBSV","flightCategory":"VFR","rawOb":"METAR SBSV 152200Z 17008KT 9999 FEW025 28/22 Q1012","temp":28,"dewp":22,"wdir":170,"wspd":8,"visib":"6+","altim":1012,"clouds":[{"cover":"FEW","base":2500}],"obsTime":1776290400},"SBTE":{"icaoId":"SBTE","flightCategory":"VFR","rawOb":"METAR SBTE 152200Z 08002KT 9999 SCT020 BKN100 27/24 Q1008","temp":27,"dewp":24,"wdir":80,"wspd":2,"visib":"6+","altim":1008,"clouds":[{"cover":"SCT","base":2000},{"cover":"BKN","base":10000}],"obsTime":1776290400},"SBVT":{"icaoId":"SBVT","flightCategory":"VFR","rawOb":"METAR SBVT 152200Z 20009KT CAVOK 24/20 Q1013","temp":24,"dewp":20,"wdir":200,"wspd":9,"visib":"6+","altim":1013,"clouds":[],"obsTime":1776290400},"SBME":{"icaoId":"SBME","flightCategory":"VFR","rawOb":"METAR SBME 152200Z 23006KT CAVOK 24/20 Q1014","temp":24,"dewp":20,"wdir":230,"wspd":6,"visib":"6+","altim":1014,"clouds":[],"obsTime":1776290400},"SBMG":{"icaoId":"SBMG","flightCategory":"VFR","rawOb":"METAR SBMG 152200Z 06008KT CAVOK 25/17 Q1012","temp":25,"dewp":17,"wdir":60,"wspd":8,"visib":"6+","altim":1012,"clouds":[],"obsTime":1776290400},"SBMK":{"icaoId":"SBMK","flightCategory":"VFR","rawOb":"METAR SBMK 152200Z 17003KT CAVOK 24/18 Q1014","temp":24,"dewp":18,"wdir":170,"wspd":3,"visib":"6+","altim":1014,"clouds":[],"obsTime":1776290400},"SBCP":{"icaoId":"SBCP","flightCategory":"VFR","rawOb":"METAR SBCP 152200Z 19008KT CAVOK 24/21 Q1014","temp":24,"dewp":21,"wdir":190,"wspd":8,"visib":"6+","altim":1014,"clouds":[],"obsTime":1776290400},"SBUL":{"icaoId":"SBUL","flightCategory":"VFR","rawOb":"METAR SBUL 152200Z 06004KT CAVOK 24/17 Q1016","temp":24,"dewp":17,"wdir":60,"wspd":4,"visib":"6+","altim":1016,"clouds":[],"obsTime":1776290400},"SBIL":{"icaoId":"SBIL","flightCategory":"VFR","rawOb":"METAR SBIL 152200Z 17006KT 130V200 CAVOK 28/23 Q1013","temp":28,"dewp":23,"wdir":170,"wspd":6,"visib":"6+","altim":1013,"clouds":[],"obsTime":1776290400},"SBUR":{"icaoId":"SBUR","flightCategory":"VFR","rawOb":"METAR SBUR 152200Z 13004KT CAVOK 26/15 Q1014","temp":26,"dewp":15,"wdir":130,"wspd":4,"visib":"6+","altim":1014,"clouds":[],"obsTime":1776290400},"SBJU":{"icaoId":"SBJU","flightCategory":"VFR","rawOb":"METAR SBJU 152200Z 00000KT CAVOK 27/22 Q1011","temp":27,"dewp":22,"wdir":0,"wspd":0,"visib":"6+","altim":1011,"clouds":[],"obsTime":1776290400},"SBPP":{"icaoId":"SBPP","flightCategory":"VFR","rawOb":"SPECI SBPP 161115Z 19003KT 9999 FEW004 BKN080 19/19 Q1015","temp":19,"dewp":19,"wdir":190,"wspd":3,"visib":"6+","altim":1015,"clouds":[{"cover":"FEW","base":400},{"cover":"BKN","base":8000}],"obsTime":1776338100},"SBTF":{"icaoId":"SBTF","flightCategory":"VFR","rawOb":"SPECI SBTF 161115Z 21002KT CAVOK 27/26 Q1009","temp":27,"dewp":26,"wdir":210,"wspd":2,"visib":"6+","altim":1009,"clouds":[],"obsTime":1776338100},"SBAX":{"icaoId":"SBAX","flightCategory":"VFR","rawOb":"METAR SBAX 161000Z AUTO 11006KT CAVOK 17/15 Q1018","temp":17,"dewp":15,"wdir":110,"wspd":6,"visib":"6+","altim":1018,"clouds":[],"obsTime":1776333600},"SBBH":{"icaoId":"SBBH","flightCategory":"VFR","rawOb":"METAR SBBH 161000Z 11003KT CAVOK 17/14 Q1017","temp":17,"dewp":14,"wdir":110,"wspd":3,"visib":"6+","altim":1017,"clouds":[],"obsTime":1776333600},"SBVH":{"icaoId":"SBVH","flightCategory":"VFR","rawOb":"METAR SBVH 161100Z 35002KT CAVOK 22/21 Q1012","temp":22,"dewp":21,"wdir":350,"wspd":2,"visib":"6+","altim":1012,"clouds":[],"obsTime":1776337200},"SBAR":{"icaoId":"SBAR","flightCategory":"VFR","rawOb":"METAR SBAR 161000Z 30002KT 9999 SCT020 25/25 Q1011","temp":25,"dewp":25,"wdir":300,"wspd":2,"visib":"6+","altim":1011,"clouds":[{"cover":"SCT","base":2000}],"obsTime":1776333600},"SBCC":{"icaoId":"SBCC","flightCategory":"VFR","rawOb":"METAR SBCC 161100Z 02005KT 9999 FEW025 22/21 Q1013","temp":22,"dewp":21,"wdir":20,"wspd":5,"visib":"6+","altim":1013,"clouds":[{"cover":"FEW","base":2500}],"obsTime":1776337200},"SBCJ":{"icaoId":"SBCJ","flightCategory":"VFR","rawOb":"SPECI SBCJ 161015Z 00000KT CAVOK 23/22 Q1014","temp":23,"dewp":22,"wdir":0,"wspd":0,"visib":"6+","altim":1014,"clouds":[],"obsTime":1776334500},"SBCO":{"icaoId":"SBCO","flightCategory":"VFR","rawOb":"METAR SBCO 161000Z 09006KT 9999 -RA FEW030 BKN100 21/19 Q1010","temp":21,"dewp":19,"wdir":90,"wspd":6,"visib":"6+","altim":1010,"clouds":[{"cover":"FEW","base":3000},{"cover":"BKN","base":10000}],"obsTime":1776333600},"SBDN":{"icaoId":"SBDN","flightCategory":"VFR","rawOb":"METAR SBDN 161000Z 10007KT CAVOK 20/16 Q1013","temp":20,"dewp":16,"wdir":100,"wspd":7,"visib":"6+","altim":1013,"clouds":[],"obsTime":1776333600},"SBES":{"icaoId":"SBES","flightCategory":"VFR","rawOb":"METAR SBES 161000Z VRB01KT 9999 FEW010 21/// Q1014","temp":null,"dewp":null,"wdir":"VRB","wspd":1,"visib":"6+","altim":1014,"clouds":[{"cover":"FEW","base":1000}],"obsTime":1776333600},"SBIP":{"icaoId":"SBIP","flightCategory":"VFR","rawOb":"METAR SBIP 161000Z AUTO 00000KT CAVOK 19/19 Q1015","temp":19,"dewp":19,"wdir":0,"wspd":0,"visib":"6+","altim":1015,"clouds":[],"obsTime":1776333600},"SBKG":{"icaoId":"SBKG","flightCategory":"MVFR","rawOb":"METAR SBKG 161000Z 17003KT 9999 BKN015 22/21 Q1014","temp":22,"dewp":21,"wdir":170,"wspd":3,"visib":"6+","altim":1014,"clouds":[{"cover":"BKN","base":1500}],"obsTime":1776333600},"SBOI":{"icaoId":"SBOI","flightCategory":"MVFR","rawOb":"METAR SBOI 161000Z AUTO VRB01KT 9999 // BKN019/// BKN028/// BKN043/// 25/24 Q1010","temp":25,"dewp":24,"wdir":"VRB","wspd":1,"visib":"6+","altim":1010,"clouds":[{"cover":"BKN","base":1900},{"cover":"BKN","base":2800},{"cover":"BKN","base":4300}],"obsTime":1776333600},"SBPB":{"icaoId":"SBPB","flightCategory":"VFR","rawOb":"SPECI SBPB 161015Z 22005KT 9999 SCT010 SCT016 25/24 Q1010","temp":25,"dewp":24,"wdir":220,"wspd":5,"visib":"6+","altim":1010,"clouds":[{"cover":"SCT","base":1000},{"cover":"SCT","base":1600}],"obsTime":1776334500},"SBPL":{"icaoId":"SBPL","flightCategory":"MVFR","rawOb":"METAR SBPL 161000Z 13006KT 9999 BKN020 25/20 Q1014","temp":25,"dewp":20,"wdir":130,"wspd":6,"visib":"6+","altim":1014,"clouds":[{"cover":"BKN","base":2000}],"obsTime":1776333600},"SBPS":{"icaoId":"SBPS","flightCategory":"VFR","rawOb":"METAR SBPS 161000Z 26006KT CAVOK 23/21 Q1013","temp":23,"dewp":21,"wdir":260,"wspd":6,"visib":"6+","altim":1013,"clouds":[],"obsTime":1776333600},"SBSC":{"icaoId":"SBSC","flightCategory":"VFR","rawOb":"METAR SBSC 161000Z 05003KT CAVOK 20/19 Q1014","temp":20,"dewp":19,"wdir":50,"wspd":3,"visib":"6+","altim":1014,"clouds":[],"obsTime":1776333600},"SBSJ":{"icaoId":"SBSJ","flightCategory":"MVFR","rawOb":"METAR SBSJ 161000Z 07002KT 5000 BR SCT014 15/14 Q1017","temp":15,"dewp":14,"wdir":70,"wspd":2,"visib":3.11,"altim":1017,"clouds":[{"cover":"SCT","base":1400}],"obsTime":1776333600},"SBSM":{"icaoId":"SBSM","flightCategory":"MVFR","rawOb":"METAR SBSM 161000Z 02004KT 340V060 9999 FEW010 BKN020 OVC050 22/20 Q1009","temp":22,"dewp":20,"wdir":20,"wspd":4,"visib":"6+","altim":1009,"clouds":[{"cover":"FEW","base":1000},{"cover":"BKN","base":2000},{"cover":"OVC","base":5000}],"obsTime":1776333600},"SBSR":{"icaoId":"SBSR","flightCategory":"VFR","rawOb":"METAR SBSR 161000Z 09005KT CAVOK 21/16 Q0101","temp":21,"dewp":16,"wdir":90,"wspd":5,"visib":"6+","altim":101,"clouds":[],"obsTime":1776333600},"SBTD":{"icaoId":"SBTD","flightCategory":"VFR","rawOb":"METAR SBTD 161100Z /////KT 9999 FEW030 SCT080 22/19 Q1014","temp":22,"dewp":19,"wdir":null,"wspd":null,"visib":"6+","altim":1014,"clouds":[{"cover":"FEW","base":3000},{"cover":"SCT","base":8000}],"obsTime":1776337200},"SBTT":{"icaoId":"SBTT","flightCategory":"VFR","rawOb":"METAR SBTT 161100Z 27002KT 9999 SCT010 SCT080 25/23 Q1010","temp":25,"dewp":23,"wdir":270,"wspd":2,"visib":"6+","altim":1010,"clouds":[{"cover":"SCT","base":1000},{"cover":"SCT","base":8000}],"obsTime":1776337200},"SBUY":{"icaoId":"SBUY","flightCategory":"VFR","rawOb":"METAR SBUY 161100Z 00000KT CAVOK 23/23 Q1008","temp":23,"dewp":23,"wdir":0,"wspd":0,"visib":"6+","altim":1008,"clouds":[],"obsTime":1776337200},"SBBU":{"icaoId":"SBBU","flightCategory":"VFR","rawOb":"METAR SBBU 161000Z 10005KT CAVOK 18/17 Q1015","temp":18,"dewp":17,"wdir":100,"wspd":5,"visib":"6+","altim":1015,"clouds":[],"obsTime":1776333600},"SBCA":{"icaoId":"SBCA","flightCategory":"VFR","rawOb":"METAR SBCA 161100Z 02008KT 9999 BKN040 20/17 Q1015","temp":20,"dewp":17,"wdir":20,"wspd":8,"visib":"6+","altim":1015,"clouds":[{"cover":"BKN","base":4000}],"obsTime":1776337200},"SBJP":{"icaoId":"SBJP","flightCategory":"VFR","rawOb":"METAR SBJP 152200Z 15004KT 9999 FEW020 26/25 Q1010","temp":26,"dewp":25,"wdir":150,"wspd":4,"visib":"6+","altim":1010,"clouds":[{"cover":"FEW","base":2000}],"obsTime":1776290400},"SBLE":{"icaoId":"SBLE","flightCategory":"VFR","rawOb":"METAR SBLE 152200Z AUTO 00000KT CAVOK ///// Q////","temp":null,"dewp":null,"wdir":0,"wspd":0,"visib":"6+","altim":null,"clouds":[],"obsTime":1776290400},"SBAN":{"icaoId":"SBAN","flightCategory":"VFR","rawOb":"METAR SBAN 152200Z 15004KT 9999 FEW030 FEW035TCU BKN100 20/18 Q1017","temp":20,"dewp":18,"wdir":150,"wspd":4,"visib":"6+","altim":1017,"clouds":[{"cover":"FEW","base":3000},{"cover":"FEW","base":3500},{"cover":"BKN","base":10000}],"obsTime":1776290400},"SBJV":{"icaoId":"SBJV","flightCategory":"VFR","rawOb":"METAR SBJV 152200Z 12003KT 9999 SCT030 BKN050 22/21 Q1015","temp":22,"dewp":21,"wdir":120,"wspd":3,"visib":"6+","altim":1015,"clouds":[{"cover":"SCT","base":3000},{"cover":"BKN","base":5000}],"obsTime":1776290400},"SBNM":{"icaoId":"SBNM","flightCategory":"VFR","rawOb":"METAR SBNM 152200Z 04002KT 9999 FEW040 SCT100 23/19 Q1010","temp":23,"dewp":19,"wdir":40,"wspd":2,"visib":"6+","altim":1010,"clouds":[{"cover":"FEW","base":4000},{"cover":"SCT","base":10000}],"obsTime":1776290400},"SBAF":{"icaoId":"SBAF","flightCategory":"VFR","rawOb":"METAR SBAF 152200Z 18007KT 150V210 CAVOK 24/22 Q1015","temp":24,"dewp":22,"wdir":180,"wspd":7,"visib":"6+","altim":1015,"clouds":[],"obsTime":1776290400},"SBGW":{"icaoId":"SBGW","flightCategory":"VFR","rawOb":"METAR SBGW 152200Z 36002KT 9999 FEW030 19/13 Q1016","temp":19,"dewp":13,"wdir":360,"wspd":2,"visib":"6+","altim":1016,"clouds":[{"cover":"FEW","base":3000}],"obsTime":1776290400},"SBJR":{"icaoId":"SBJR","flightCategory":"VFR","rawOb":"METAR SBJR 152200Z 22002KT 9999 FEW030 22/21 Q1015","temp":22,"dewp":21,"wdir":220,"wspd":2,"visib":"6+","altim":1015,"clouds":[{"cover":"FEW","base":3000}],"obsTime":1776290400},"SBLS":{"icaoId":"SBLS","flightCategory":"VFR","rawOb":"METAR SBLS 152200Z 12005KT 9999 FEW045 23/14 Q1016","temp":23,"dewp":14,"wdir":120,"wspd":5,"visib":"6+","altim":1016,"clouds":[{"cover":"FEW","base":4500}],"obsTime":1776290400},"SBMT":{"icaoId":"SBMT","flightCategory":"VFR","rawOb":"METAR SBMT 152200Z 16007KT CAVOK 20/17 Q1017","temp":20,"dewp":17,"wdir":160,"wspd":7,"visib":"6+","altim":1017,"clouds":[],"obsTime":1776290400},"SBTA":{"icaoId":"SBTA","flightCategory":"VFR","rawOb":"METAR SBTA 152200Z 17005KT CAVOK 21/14 Q1015","temp":21,"dewp":14,"wdir":170,"wspd":5,"visib":"6+","altim":1015,"clouds":[],"obsTime":1776290400}}}