{"updated":1777488722,"count":85,"data":{"SBEG":{"icaoId":"SBEG","flightCategory":"VFR","rawOb":"METAR SBEG 291700Z 35003KT 9999 VCSH BKN040 FEW043TCU 32/25 Q1008","temp":32,"dewp":25,"wdir":350,"wspd":3,"visib":"6+","altim":1008,"clouds":[{"cover":"BKN","base":4000},{"cover":"FEW","base":4300}],"obsTime":1777482000},"SBGR":{"icaoId":"SBGR","flightCategory":"VFR","rawOb":"METAR SBGR 291700Z 29005KT 9999 SCT040 29/20 Q1016","temp":29,"dewp":20,"wdir":290,"wspd":5,"visib":"6+","altim":1016,"clouds":[{"cover":"SCT","base":4000}],"obsTime":1777482000},"SBBE":{"icaoId":"SBBE","flightCategory":"VFR","rawOb":"METAR SBBE 291700Z 01008KT 9999 VCSH BKN040 FEW041TCU 30/25 Q1008","temp":30,"dewp":25,"wdir":10,"wspd":8,"visib":"6+","altim":1008,"clouds":[{"cover":"BKN","base":4000},{"cover":"FEW","base":4100}],"obsTime":1777482000},"SBBR":{"icaoId":"SBBR","flightCategory":"VFR","rawOb":"METAR SBBR 291700Z 09006KT 040V140 CAVOK 27/12 Q1017","temp":27,"dewp":12,"wdir":90,"wspd":6,"visib":"6+","altim":1017,"clouds":[],"obsTime":1777482000},"SBBV":{"icaoId":"SBBV","flightCategory":"VFR","rawOb":"METAR SBBV 291700Z 07006KT 9999 VCSH BKN035 FEW040TCU SCT080 32/23 Q1010","temp":32,"dewp":23,"wdir":70,"wspd":6,"visib":"6+","altim":1010,"clouds":[{"cover":"BKN","base":3500},{"cover":"FEW","base":4000},{"cover":"SCT","base":8000}],"obsTime":1777482000},"SBCF":{"icaoId":"SBCF","flightCategory":"VFR","rawOb":"METAR SBCF 291700Z 06007KT 9999 SCT040 28/14 Q1018","temp":28,"dewp":14,"wdir":60,"wspd":7,"visib":"6+","altim":1018,"clouds":[{"cover":"SCT","base":4000}],"obsTime":1777482000},"SBAT":{"icaoId":"SBAT","flightCategory":"VFR","rawOb":"METAR SBAT 291700Z 18002KT 9999 SCT025 33/23 Q1011","temp":33,"dewp":23,"wdir":180,"wspd":2,"visib":"6+","altim":1011,"clouds":[{"cover":"SCT","base":2500}],"obsTime":1777482000},"SBCB":{"icaoId":"SBCB","flightCategory":"VFR","rawOb":"METAR SBCB 291700Z 06012KT CAVOK 31/22 Q1012","temp":31,"dewp":22,"wdir":60,"wspd":12,"visib":"6+","altim":1012,"clouds":[],"obsTime":1777482000},"SBCG":{"icaoId":"SBCG","flightCategory":"VFR","rawOb":"METAR SBCG 291700Z 34011KT 9999 SCT040 FEW045TCU 30/20 Q1013","temp":30,"dewp":20,"wdir":340,"wspd":11,"visib":"6+","altim":1013,"clouds":[{"cover":"SCT","base":4000},{"cover":"FEW","base":4500}],"obsTime":1777482000},"SBCP":{"icaoId":"SBCP","flightCategory":"VFR","rawOb":"METAR SBCP 291700Z 10018KT 9999 FEW020 32/21 Q1012","temp":32,"dewp":21,"wdir":100,"wspd":18,"visib":"6+","altim":1012,"clouds":[{"cover":"FEW","base":2000}],"obsTime":1777482000},"SBCR":{"icaoId":"SBCR","flightCategory":"VFR","rawOb":"METAR SBCR 291700Z 29004KT 200V330 9999 SCT015 28/23 Q1011","temp":28,"dewp":23,"wdir":290,"wspd":4,"visib":"6+","altim":1011,"clouds":[{"cover":"SCT","base":1500}],"obsTime":1777482000},"SBCT":{"icaoId":"SBCT","flightCategory":"IFR","rawOb":"METAR SBCT 291700Z VRB02KT 3000 -RA BR SCT010 SCT030 OVC060 16/15 Q1018","temp":16,"dewp":15,"wdir":"VRB","wspd":2,"visib":1.86,"altim":1018,"clouds":[{"cover":"SCT","base":1000},{"cover":"SCT","base":3000},{"cover":"OVC","base":6000}],"obsTime":1777482000},"SBCZ":{"icaoId":"SBCZ","flightCategory":"VFR","rawOb":"METAR SBCZ 291700Z 12004KT 9999 SCT017 BKN100 29/24 Q1011","temp":29,"dewp":24,"wdir":120,"wspd":4,"visib":"6+","altim":1011,"clouds":[{"cover":"SCT","base":1700},{"cover":"BKN","base":10000}],"obsTime":1777482000},"SBFI":{"icaoId":"SBFI","flightCategory":"LIFR","rawOb":"METAR SBFI 291700Z 21003KT 9000 BKN004 OVC015 19/19 Q1012","temp":19,"dewp":19,"wdir":210,"wspd":3,"visib":5.59,"altim":1012,"clouds":[{"cover":"BKN","base":400},{"cover":"OVC","base":1500}],"obsTime":1777482000},"SBFL":{"icaoId":"SBFL","flightCategory":"MVFR","rawOb":"METAR SBFL 291700Z 09004KT 9999 SCT017 BKN030 BKN070 20/19 Q1013","temp":20,"dewp":19,"wdir":90,"wspd":4,"visib":"6+","altim":1013,"clouds":[{"cover":"SCT","base":1700},{"cover":"BKN","base":3000},{"cover":"BKN","base":7000}],"obsTime":1777482000},"SBFZ":{"icaoId":"SBFZ","flightCategory":"MVFR","rawOb":"METAR SBFZ 291700Z 12015KT 9999 VCSH BKN023 FEW030TCU 29/25 Q1008","temp":29,"dewp":25,"wdir":120,"wspd":15,"visib":"6+","altim":1008,"clouds":[{"cover":"BKN","base":2300},{"cover":"FEW","base":3000}],"obsTime":1777482000},"SBGL":{"icaoId":"SBGL","flightCategory":"MVFR","rawOb":"METAR SBGL 291700Z 11009KT 8000 NSC 32/25 Q1011","temp":32,"dewp":25,"wdir":110,"wspd":9,"visib":4.97,"altim":1011,"clouds":[],"obsTime":1777482000},"SBGO":{"icaoId":"SBGO","flightCategory":"VFR","rawOb":"METAR SBGO 291700Z 08005KT 020V130 CAVOK 31/13 Q1015","temp":31,"dewp":13,"wdir":80,"wspd":5,"visib":"6+","altim":1015,"clouds":[],"obsTime":1777482000},"SBHT":{"icaoId":"SBHT","flightCategory":"MVFR","rawOb":"METAR SBHT 291700Z 09005KT 9999 BKN030 32/24 Q1009","temp":32,"dewp":24,"wdir":90,"wspd":5,"visib":"6+","altim":1009,"clouds":[{"cover":"BKN","base":3000}],"obsTime":1777482000},"SBIL":{"icaoId":"SBIL","flightCategory":"VFR","rawOb":"METAR SBIL 291700Z 16007KT 9999 FEW020 30/23 Q1014","temp":30,"dewp":23,"wdir":160,"wspd":7,"visib":"6+","altim":1014,"clouds":[{"cover":"FEW","base":2000}],"obsTime":1777482000},"SBJU":{"icaoId":"SBJU","flightCategory":"MVFR","rawOb":"METAR SBJU 291700Z 14004KT 9999 BKN022 31/21 Q1012","temp":31,"dewp":21,"wdir":140,"wspd":4,"visib":"6+","altim":1012,"clouds":[{"cover":"BKN","base":2200}],"obsTime":1777482000},"SBKP":{"icaoId":"SBKP","flightCategory":"VFR","rawOb":"METAR SBKP 291700Z 30006KT 250V330 9999 FEW040 BKN100 29/20 Q1015","temp":29,"dewp":20,"wdir":300,"wspd":6,"visib":"6+","altim":1015,"clouds":[{"cover":"FEW","base":4000},{"cover":"BKN","base":10000}],"obsTime":1777482000},"SBLO":{"icaoId":"SBLO","flightCategory":"VFR","rawOb":"METAR SBLO 291700Z 02006KT 340V080 9999 FEW011 SCT033 25/21 Q1014","temp":25,"dewp":21,"wdir":20,"wspd":6,"visib":"6+","altim":1014,"clouds":[{"cover":"FEW","base":1100},{"cover":"SCT","base":3300}],"obsTime":1777482000},"SBMA":{"icaoId":"SBMA","flightCategory":"MVFR","rawOb":"METAR SBMA 291700Z 31002KT 9999 -RA BKN020 31/24 Q1009","temp":31,"dewp":24,"wdir":310,"wspd":2,"visib":"6+","altim":1009,"clouds":[{"cover":"BKN","base":2000}],"obsTime":1777482000},"SBME":{"icaoId":"SBME","flightCategory":"VFR","rawOb":"METAR SBME 291700Z 02009KT CAVOK 35/19 Q1011","temp":35,"dewp":19,"wdir":20,"wspd":9,"visib":"6+","altim":1011,"clouds":[],"obsTime":1777482000},"SBMG":{"icaoId":"SBMG","flightCategory":"MVFR","rawOb":"METAR SBMG 291700Z 01013KT 9999 BKN020 27/23 Q1012","temp":27,"dewp":23,"wdir":10,"wspd":13,"visib":"6+","altim":1012,"clouds":[{"cover":"BKN","base":2000}],"obsTime":1777482000},"SBMK":{"icaoId":"SBMK","flightCategory":"VFR","rawOb":"METAR SBMK 291700Z 10008KT 9999 FEW034 29/14 Q1015","temp":29,"dewp":14,"wdir":100,"wspd":8,"visib":"6+","altim":1015,"clouds":[{"cover":"FEW","base":3400}],"obsTime":1777482000},"SBMO":{"icaoId":"SBMO","flightCategory":"VFR","rawOb":"METAR SBMO 291700Z 13011KT 9999 FEW035 BKN070 29/21 Q1012","temp":29,"dewp":21,"wdir":130,"wspd":11,"visib":"6+","altim":1012,"clouds":[{"cover":"FEW","base":3500},{"cover":"BKN","base":7000}],"obsTime":1777482000},"SBMQ":{"icaoId":"SBMQ","flightCategory":"MVFR","rawOb":"METAR SBMQ 291700Z 06009KT 030V100 9999 VCTS BKN030 FEW040CB SCT070 32/25 Q1009","temp":32,"dewp":25,"wdir":60,"wspd":9,"visib":"6+","altim":1009,"clouds":[{"cover":"BKN","base":3000},{"cover":"FEW","base":4000},{"cover":"SCT","base":7000}],"obsTime":1777482000},"SBNT":{"icaoId":"SBNT","flightCategory":"VFR","rawOb":"METAR SBNT 291700Z 13017KT 9999 SCT036 31/23 Q1009","temp":31,"dewp":23,"wdir":130,"wspd":17,"visib":"6+","altim":1009,"clouds":[{"cover":"SCT","base":3600}],"obsTime":1777482000},"SBPA":{"icaoId":"SBPA","flightCategory":"VFR","rawOb":"METAR SBPA 291700Z 08005KT 020V150 CAVOK 22/08 Q1013","temp":22,"dewp":8,"wdir":80,"wspd":5,"visib":"6+","altim":1013,"clouds":[],"obsTime":1777482000},"SBPJ":{"icaoId":"SBPJ","flightCategory":"VFR","rawOb":"METAR SBPJ 291700Z 28004KT 9999 BKN040 FEW045TCU 31/24 Q1010","temp":31,"dewp":24,"wdir":280,"wspd":4,"visib":"6+","altim":1010,"clouds":[{"cover":"BKN","base":4000},{"cover":"FEW","base":4500}],"obsTime":1777482000},"SBPV":{"icaoId":"SBPV","flightCategory":"VFR","rawOb":"METAR SBPV 291700Z 28002KT 9999 SCT030 31/27 Q1010","temp":31,"dewp":27,"wdir":280,"wspd":2,"visib":"6+","altim":1010,"clouds":[{"cover":"SCT","base":3000}],"obsTime":1777482000},"SBRB":{"icaoId":"SBRB","flightCategory":"MVFR","rawOb":"METAR SBRB 291700Z 13003KT 9999 BKN020 FEW030TCU 29/25 Q1012","temp":29,"dewp":25,"wdir":130,"wspd":3,"visib":"6+","altim":1012,"clouds":[{"cover":"BKN","base":2000},{"cover":"FEW","base":3000}],"obsTime":1777482000},"SBRF":{"icaoId":"SBRF","flightCategory":"VFR","rawOb":"METAR SBRF 291700Z 17012KT 9999 FEW025 29/24 Q1010","temp":29,"dewp":24,"wdir":170,"wspd":12,"visib":"6+","altim":1010,"clouds":[{"cover":"FEW","base":2500}],"obsTime":1777482000},"SBSG":{"icaoId":"SBSG","flightCategory":"VFR","rawOb":"METAR SBSG 291700Z 14009KT 100V180 9999 SCT035 30/23 Q1009","temp":30,"dewp":23,"wdir":140,"wspd":9,"visib":"6+","altim":1009,"clouds":[{"cover":"SCT","base":3500}],"obsTime":1777482000},"SBSL":{"icaoId":"SBSL","flightCategory":"MVFR","rawOb":"METAR SBSL 291700Z 01011KT 9999 BKN025 FEW025TCU 30/25 Q1008","temp":30,"dewp":25,"wdir":10,"wspd":11,"visib":"6+","altim":1008,"clouds":[{"cover":"BKN","base":2500},{"cover":"FEW","base":2500}],"obsTime":1777482000},"SBSN":{"icaoId":"SBSN","flightCategory":"VFR","rawOb":"METAR SBSN 291700Z 09010KT 9999 SCT020 FEW025TCU 30/25 Q1008","temp":30,"dewp":25,"wdir":90,"wspd":10,"visib":"6+","altim":1008,"clouds":[{"cover":"SCT","base":2000},{"cover":"FEW","base":2500}],"obsTime":1777482000},"SBSP":{"icaoId":"SBSP","flightCategory":"VFR","rawOb":"METAR SBSP 291700Z 30008KT 260V340 9999 SCT040 SCT100 28/19 Q1017","temp":28,"dewp":19,"wdir":300,"wspd":8,"visib":"6+","altim":1017,"clouds":[{"cover":"SCT","base":4000},{"cover":"SCT","base":10000}],"obsTime":1777482000},"SBSV":{"icaoId":"SBSV","flightCategory":"VFR","rawOb":"METAR SBSV 291700Z 08012KT 060V120 9999 FEW021 30/22 Q1012","temp":30,"dewp":22,"wdir":80,"wspd":12,"visib":"6+","altim":1012,"clouds":[{"cover":"FEW","base":2100}],"obsTime":1777482000},"SBTE":{"icaoId":"SBTE","flightCategory":"MVFR","rawOb":"METAR SBTE 291700Z 19005KT 9999 BKN020 32/24 Q1008","temp":32,"dewp":24,"wdir":190,"wspd":5,"visib":"6+","altim":1008,"clouds":[{"cover":"BKN","base":2000}],"obsTime":1777482000},"SBUL":{"icaoId":"SBUL","flightCategory":"VFR","rawOb":"METAR SBUL 291700Z 06007KT 9999 FEW045 28/16 Q1017","temp":28,"dewp":16,"wdir":60,"wspd":7,"visib":"6+","altim":1017,"clouds":[{"cover":"FEW","base":4500}],"obsTime":1777482000},"SBUR":{"icaoId":"SBUR","flightCategory":"VFR","rawOb":"METAR SBUR 291700Z 34008KT 9999 SCT048 31/16 Q1016","temp":31,"dewp":16,"wdir":340,"wspd":8,"visib":"6+","altim":1016,"clouds":[{"cover":"SCT","base":4800}],"obsTime":1777482000},"SBVT":{"icaoId":"SBVT","flightCategory":"VFR","rawOb":"METAR SBVT 291700Z 04013KT 9999 FEW040 SCT100 29/21 Q1014","temp":29,"dewp":21,"wdir":40,"wspd":13,"visib":"6+","altim":1014,"clouds":[{"cover":"FEW","base":4000},{"cover":"SCT","base":10000}],"obsTime":1777482000},"SBVH":{"icaoId":"SBVH","flightCategory":"VFR","rawOb":"METAR SBVH 291700Z 08003KT 9999 SCT025 FEW030TCU SCT078 29/22 Q1013","temp":29,"dewp":22,"wdir":80,"wspd":3,"visib":"6+","altim":1013,"clouds":[{"cover":"SCT","base":2500},{"cover":"FEW","base":3000},{"cover":"SCT","base":7800}],"obsTime":1777482000},"SBAX":{"icaoId":"SBAX","flightCategory":"VFR","rawOb":"METAR SBAX 291800Z 11006KT 9999 SCT035 29/14 Q1017","temp":29,"dewp":14,"wdir":110,"wspd":6,"visib":"6+","altim":1017,"clouds":[{"cover":"SCT","base":3500}],"obsTime":1777485600},"SBBH":{"icaoId":"SBBH","flightCategory":"VFR","rawOb":"METAR SBBH 291700Z 11006KT 9999 SCT045 27/16 Q1017","temp":27,"dewp":16,"wdir":110,"wspd":6,"visib":"6+","altim":1017,"clouds":[{"cover":"SCT","base":4500}],"obsTime":1777482000},"SBBQ":{"icaoId":"SBBQ","flightCategory":"VFR","rawOb":"METAR SBBQ 291700Z 05004KT 9999 SCT033 26/15 Q1020","temp":26,"dewp":15,"wdir":50,"wspd":4,"visib":"6+","altim":1020,"clouds":[{"cover":"SCT","base":3300}],"obsTime":1777482000},"SBBU":{"icaoId":"SBBU","flightCategory":"VFR","rawOb":"METAR SBBU 291700Z 02005KT 9999 SCT035 31/21 Q1014","temp":31,"dewp":21,"wdir":20,"wspd":5,"visib":"6+","altim":1014,"clouds":[{"cover":"SCT","base":3500}],"obsTime":1777482000},"SBCA":{"icaoId":"SBCA","flightCategory":"LIFR","rawOb":"METAR SBCA 291700Z VRB05KT 2000 TSRA BR BKN002 FEW040CB OVC070 18/18 Q1015","temp":18,"dewp":18,"wdir":"VRB","wspd":5,"visib":1.24,"altim":1015,"clouds":[{"cover":"BKN","base":200},{"cover":"FEW","base":4000},{"cover":"OVC","base":7000}],"obsTime":1777482000},"SBCC":{"icaoId":"SBCC","flightCategory":"VFR","rawOb":"METAR SBCC 291700Z 05007KT 9999 SCT030 FEW035TCU 31/21 Q1012","temp":31,"dewp":21,"wdir":50,"wspd":7,"visib":"6+","altim":1012,"clouds":[{"cover":"SCT","base":3000},{"cover":"FEW","base":3500}],"obsTime":1777482000},"SBCJ":{"icaoId":"SBCJ","flightCategory":"VFR","rawOb":"METAR SBCJ 291700Z 15004KT 9999 SCT017 27/22 Q1014","temp":27,"dewp":22,"wdir":150,"wspd":4,"visib":"6+","altim":1014,"clouds":[{"cover":"SCT","base":1700}],"obsTime":1777482000},"SBCO":{"icaoId":"SBCO","flightCategory":"VFR","rawOb":"METAR SBCO 291700Z 07006KT CAVOK 22/07 Q1014","temp":22,"dewp":7,"wdir":70,"wspd":6,"visib":"6+","altim":1014,"clouds":[],"obsTime":1777482000},"SBDN":{"icaoId":"SBDN","flightCategory":"VFR","rawOb":"METAR SBDN 291700Z 36004KT 9999 FEW049 SCT100 30/22 Q1013","temp":30,"dewp":22,"wdir":360,"wspd":4,"visib":"6+","altim":1013,"clouds":[{"cover":"FEW","base":4900},{"cover":"SCT","base":10000}],"obsTime":1777482000},"SBES":{"icaoId":"SBES","flightCategory":"VFR","rawOb":"METAR SBES 291700Z 05011KT 340V080 9999 FEW020 32/// Q1014","temp":null,"dewp":null,"wdir":50,"wspd":11,"visib":"6+","altim":1014,"clouds":[{"cover":"FEW","base":2000}],"obsTime":1777482000},"SBGM":{"icaoId":"SBGM","flightCategory":"MVFR","rawOb":"METAR SBGM 291700Z VRB03KT 9999 BKN010 29/21 Q1011","temp":29,"dewp":21,"wdir":"VRB","wspd":3,"visib":"6+","altim":1011,"clouds":[{"cover":"BKN","base":1000}],"obsTime":1777482000},"SBIP":{"icaoId":"SBIP","flightCategory":"VFR","rawOb":"METAR SBIP 291700Z AUTO 36005KT 300V040 9999 FEW046 30/18 Q1015","temp":30,"dewp":18,"wdir":360,"wspd":5,"visib":"6+","altim":1015,"clouds":[{"cover":"FEW","base":4600}],"obsTime":1777482000},"SBKG":{"icaoId":"SBKG","flightCategory":"VFR","rawOb":"METAR SBKG 291700Z 13012KT 9999 SCT020 BKN070 25/21 Q1013","temp":25,"dewp":21,"wdir":130,"wspd":12,"visib":"6+","altim":1013,"clouds":[{"cover":"SCT","base":2000},{"cover":"BKN","base":7000}],"obsTime":1777482000},"SBOI":{"icaoId":"SBOI","flightCategory":"MVFR","rawOb":"METAR SBOI 291700Z AUTO 02009KT 340V040 9999 BKN017 BKN025 OVC039 27/24 Q1010","temp":27,"dewp":24,"wdir":20,"wspd":9,"visib":"6+","altim":1010,"clouds":[{"cover":"BKN","base":1700},{"cover":"BKN","base":2500},{"cover":"OVC","base":3900}],"obsTime":1777482000},"SBPB":{"icaoId":"SBPB","flightCategory":"VFR","rawOb":"METAR SBPB 291700Z 01003KT 9999 SCT016 FEW025TCU 31/25 Q1008","temp":31,"dewp":25,"wdir":10,"wspd":3,"visib":"6+","altim":1008,"clouds":[{"cover":"SCT","base":1600},{"cover":"FEW","base":2500}],"obsTime":1777482000},"SBPL":{"icaoId":"SBPL","flightCategory":"VFR","rawOb":"METAR SBPL 291700Z 12006KT 9999 SCT020 BKN070 30/21 Q1012","temp":30,"dewp":21,"wdir":120,"wspd":6,"visib":"6+","altim":1012,"clouds":[{"cover":"SCT","base":2000},{"cover":"BKN","base":7000}],"obsTime":1777482000},"SBPP":{"icaoId":"SBPP","flightCategory":"MVFR","rawOb":"METAR SBPP 291700Z 34011KT 9999 BKN015 27/21 Q1014","temp":27,"dewp":21,"wdir":340,"wspd":11,"visib":"6+","altim":1014,"clouds":[{"cover":"BKN","base":1500}],"obsTime":1777482000},"SBPS":{"icaoId":"SBPS","flightCategory":"VFR","rawOb":"METAR SBPS 291700Z 08008KT 9999 SCT020 28/23 Q1015","temp":28,"dewp":23,"wdir":80,"wspd":8,"visib":"6+","altim":1015,"clouds":[{"cover":"SCT","base":2000}],"obsTime":1777482000},"SBSC":{"icaoId":"SBSC","flightCategory":"MVFR","rawOb":"METAR SBSC 291700Z 20009KT 9999 SCT009 BKN012 27/24 Q1012","temp":27,"dewp":24,"wdir":200,"wspd":9,"visib":"6+","altim":1012,"clouds":[{"cover":"SCT","base":900},{"cover":"BKN","base":1200}],"obsTime":1777482000},"SBSJ":{"icaoId":"SBSJ","flightCategory":"VFR","rawOb":"METAR SBSJ 291700Z 34003KT 300V010 9999 FEW030 SCT080 28/20 Q1015","temp":28,"dewp":20,"wdir":340,"wspd":3,"visib":"6+","altim":1015,"clouds":[{"cover":"FEW","base":3000},{"cover":"SCT","base":8000}],"obsTime":1777482000},"SBSM":{"icaoId":"SBSM","flightCategory":"VFR","rawOb":"METAR SBSM 291700Z 13005KT 070V170 CAVOK 22/07 Q1014","temp":22,"dewp":7,"wdir":130,"wspd":5,"visib":"6+","altim":1014,"clouds":[],"obsTime":1777482000},"SBSR":{"icaoId":"SBSR","flightCategory":"VFR","rawOb":"METAR SBSR 291700Z VRB06KT 9999 SCT035 33/13 Q1014","temp":33,"dewp":13,"wdir":"VRB","wspd":6,"visib":"6+","altim":1014,"clouds":[{"cover":"SCT","base":3500}],"obsTime":1777482000},"SBTF":{"icaoId":"SBTF","flightCategory":"VFR","rawOb":"METAR SBTF 291700Z 04009KT 9999 SCT013 SCT025TCU BKN080 29/25 Q1010","temp":29,"dewp":25,"wdir":40,"wspd":9,"visib":"6+","altim":1010,"clouds":[{"cover":"SCT","base":1300},{"cover":"SCT","base":2500},{"cover":"BKN","base":8000}],"obsTime":1777482000},"SBTT":{"icaoId":"SBTT","flightCategory":"VFR","rawOb":"METAR SBTT 291700Z 34003KT 9999 SCT015 SCT100 29/23 Q1012","temp":29,"dewp":23,"wdir":340,"wspd":3,"visib":"6+","altim":1012,"clouds":[{"cover":"SCT","base":1500},{"cover":"SCT","base":10000}],"obsTime":1777482000},"SBUY":{"icaoId":"SBUY","flightCategory":"VFR","rawOb":"METAR SBUY 291700Z 00000KT 9999 SCT025 BKN100 30/24 Q1009","temp":30,"dewp":24,"wdir":0,"wspd":0,"visib":"6+","altim":1009,"clouds":[{"cover":"SCT","base":2500},{"cover":"BKN","base":10000}],"obsTime":1777482000},"SBAR":{"icaoId":"SBAR","flightCategory":"VFR","rawOb":"METAR SBAR 291700Z 12011KT 9999 FEW028 30/23 Q1012","temp":30,"dewp":23,"wdir":120,"wspd":11,"visib":"6+","altim":1012,"clouds":[{"cover":"FEW","base":2800}],"obsTime":1777482000},"SBAU":{"icaoId":"SBAU","flightCategory":"VFR","rawOb":"METAR SBAU 291700Z 03008KT 9999 SCT040 35/20 Q1013","temp":35,"dewp":20,"wdir":30,"wspd":8,"visib":"6+","altim":1013,"clouds":[{"cover":"SCT","base":4000}],"obsTime":1777482000},"SBMT":{"icaoId":"SBMT","flightCategory":"VFR","rawOb":"METAR SBMT 291700Z 28009KT 9999 SCT040 BKN100 28/18 Q1016","temp":28,"dewp":18,"wdir":280,"wspd":9,"visib":"6+","altim":1016,"clouds":[{"cover":"SCT","base":4000},{"cover":"BKN","base":10000}],"obsTime":1777482000},"SBIH":{"icaoId":"SBIH","flightCategory":"VFR","rawOb":"METAR SBIH 291700Z 15004KT 9999 SCT018 FEW025TCU SCT080 28/25 Q1008 RETS","temp":28,"dewp":25,"wdir":150,"wspd":4,"visib":"6+","altim":1008,"clouds":[{"cover":"SCT","base":1800},{"cover":"FEW","base":2500},{"cover":"SCT","base":8000}],"obsTime":1777482000},"SBST":{"icaoId":"SBST","flightCategory":"MVFR","rawOb":"METAR SBST 291700Z /////KT 9999 BKN015 OVC022 ///// Q1014","temp":null,"dewp":null,"wdir":null,"wspd":null,"visib":"6+","altim":1014,"clouds":[{"cover":"BKN","base":1500},{"cover":"OVC","base":2200}],"obsTime":1777482000},"SBLE":{"icaoId":"SBLE","flightCategory":"VFR","rawOb":"METAR SBLE 291700Z AUTO 13005KT 070V190 CAVOK 27/20 Q1015","temp":27,"dewp":20,"wdir":130,"wspd":5,"visib":"6+","altim":1015,"clouds":[],"obsTime":1777482000},"SBTC":{"icaoId":"SBTC","flightCategory":"VFR","rawOb":"METAR SBTC 291800Z 15006KT 9999 FEW020 29/24 Q1013","temp":29,"dewp":24,"wdir":150,"wspd":6,"visib":"6+","altim":1013,"clouds":[{"cover":"FEW","base":2000}],"obsTime":1777485600},"SBJV":{"icaoId":"SBJV","flightCategory":"MVFR","rawOb":"METAR SBJV 291700Z 34005KT 320V020 8000 -RA SCT005 BKN060 BKN100 21/20 Q1014","temp":21,"dewp":20,"wdir":340,"wspd":5,"visib":4.97,"altim":1014,"clouds":[{"cover":"SCT","base":500},{"cover":"BKN","base":6000},{"cover":"BKN","base":10000}],"obsTime":1777482000},"SBAF":{"icaoId":"SBAF","flightCategory":"MVFR","rawOb":"METAR SBAF 291700Z 14010KT 8000 FEW030 31/25 Q1011","temp":31,"dewp":25,"wdir":140,"wspd":10,"visib":4.97,"altim":1011,"clouds":[{"cover":"FEW","base":3000}],"obsTime":1777482000},"SBGW":{"icaoId":"SBGW","flightCategory":"VFR","rawOb":"METAR SBGW 291700Z 35002KT 9999 FEW025 31/18 Q1014","temp":31,"dewp":18,"wdir":350,"wspd":2,"visib":"6+","altim":1014,"clouds":[{"cover":"FEW","base":2500}],"obsTime":1777482000},"SBJR":{"icaoId":"SBJR","flightCategory":"MVFR","rawOb":"METAR SBJR 291700Z 20005KT 6000 FEW015 30/24 Q1012","temp":30,"dewp":24,"wdir":200,"wspd":5,"visib":3.73,"altim":1012,"clouds":[{"cover":"FEW","base":1500}],"obsTime":1777482000},"SBLS":{"icaoId":"SBLS","flightCategory":"VFR","rawOb":"METAR SBLS 291700Z VRB05KT 9999 SCT045 27/14 Q1017","temp":27,"dewp":14,"wdir":"VRB","wspd":5,"visib":"6+","altim":1017,"clouds":[{"cover":"SCT","base":4500}],"obsTime":1777482000},"SBTA":{"icaoId":"SBTA","flightCategory":"VFR","rawOb":"METAR SBTA 291700Z 08005KT 040V110 9999 FEW030 29/20 Q1014","temp":29,"dewp":20,"wdir":80,"wspd":5,"visib":"6+","altim":1014,"clouds":[{"cover":"FEW","base":3000}],"obsTime":1777482000},"SBAN":{"icaoId":"SBAN","flightCategory":"VFR","rawOb":"METAR SBAN 291700Z VRB05KT 9999 FEW045 28/13 Q1018","temp":28,"dewp":13,"wdir":"VRB","wspd":5,"visib":"6+","altim":1018,"clouds":[{"cover":"FEW","base":4500}],"obsTime":1777482000},"SBJP":{"icaoId":"SBJP","flightCategory":"VFR","rawOb":"METAR SBJP 291700Z 12012KT 090V150 9999 FEW030 BKN070 30/22 Q1010","temp":30,"dewp":22,"wdir":120,"wspd":12,"visib":"6+","altim":1010,"clouds":[{"cover":"FEW","base":3000},{"cover":"BKN","base":7000}],"obsTime":1777482000}}}