{"updated":1779540770,"count":86,"data":{"SBMQ":{"icaoId":"SBMQ","flightCategory":"MVFR","rawOb":"METAR SBMQ 231100Z 26005KT 9999 BKN023 BKN080 26/25 Q1014","temp":26,"dewp":25,"wdir":260,"wspd":5,"visib":"6+","altim":1014,"clouds":[{"cover":"BKN","base":2300},{"cover":"BKN","base":8000}],"obsTime":1779534000},"SBME":{"icaoId":"SBME","flightCategory":"VFR","rawOb":"METAR SBME 231100Z 01006KT 9999 SCT020 BKN070 21/19 Q1023","temp":21,"dewp":19,"wdir":10,"wspd":6,"visib":"6+","altim":1023,"clouds":[{"cover":"SCT","base":2000},{"cover":"BKN","base":7000}],"obsTime":1779534000},"SBEG":{"icaoId":"SBEG","flightCategory":"IFR","rawOb":"METAR SBEG 231100Z 18003KT 140V210 9999 BKN009 BKN016 25/24 Q1015","temp":25,"dewp":24,"wdir":180,"wspd":3,"visib":"6+","altim":1015,"clouds":[{"cover":"BKN","base":900},{"cover":"BKN","base":1600}],"obsTime":1779534000},"SBMG":{"icaoId":"SBMG","flightCategory":"VFR","rawOb":"METAR SBMG 231100Z 09005KT 9999 FEW004 SCT030 BKN100 15/15 Q1022","temp":15,"dewp":15,"wdir":90,"wspd":5,"visib":"6+","altim":1022,"clouds":[{"cover":"FEW","base":400},{"cover":"SCT","base":3000},{"cover":"BKN","base":10000}],"obsTime":1779534000},"SBBR":{"icaoId":"SBBR","flightCategory":"IFR","rawOb":"METAR SBBR 231100Z 12010KT 9999 OVC008 18/16 Q1025","temp":18,"dewp":16,"wdir":120,"wspd":10,"visib":"6+","altim":1025,"clouds":[{"cover":"OVC","base":800}],"obsTime":1779534000},"SBMK":{"icaoId":"SBMK","flightCategory":"VFR","rawOb":"METAR SBMK 231100Z 16006KT 9999 FEW025 22/16 Q1023","temp":22,"dewp":16,"wdir":160,"wspd":6,"visib":"6+","altim":1023,"clouds":[{"cover":"FEW","base":2500}],"obsTime":1779534000},"SBFI":{"icaoId":"SBFI","flightCategory":"IFR","rawOb":"METAR SBFI 231100Z 19002KT 4000 BR SCT005 BKN020 BKN080 13/13 Q1023","temp":13,"dewp":13,"wdir":190,"wspd":2,"visib":2.49,"altim":1023,"clouds":[{"cover":"SCT","base":500},{"cover":"BKN","base":2000},{"cover":"BKN","base":8000}],"obsTime":1779534000},"SBMO":{"icaoId":"SBMO","flightCategory":"VFR","rawOb":"METAR SBMO 231100Z 11008KT 9999 SCT023 BKN045 27/24 Q1016","temp":27,"dewp":24,"wdir":110,"wspd":8,"visib":"6+","altim":1016,"clouds":[{"cover":"SCT","base":2300},{"cover":"BKN","base":4500}],"obsTime":1779534000},"SBCZ":{"icaoId":"SBCZ","flightCategory":"MVFR","rawOb":"METAR SBCZ 231200Z VRB02KT 9999 BKN030 21/20 Q1019","temp":21,"dewp":20,"wdir":"VRB","wspd":2,"visib":"6+","altim":1019,"clouds":[{"cover":"BKN","base":3000}],"obsTime":1779537600},"SBCT":{"icaoId":"SBCT","flightCategory":"MVFR","rawOb":"METAR SBCT 231100Z VRB01KT 9999 BKN010 11/11 Q1025","temp":11,"dewp":11,"wdir":"VRB","wspd":1,"visib":"6+","altim":1025,"clouds":[{"cover":"BKN","base":1000}],"obsTime":1779534000},"SBBE":{"icaoId":"SBBE","flightCategory":"VFR","rawOb":"METAR SBBE 231100Z 30002KT CAVOK 26/24 Q1013","temp":26,"dewp":24,"wdir":300,"wspd":2,"visib":"6+","altim":1013,"clouds":[],"obsTime":1779534000},"SBLO":{"icaoId":"SBLO","flightCategory":"VFR","rawOb":"METAR SBLO 231100Z 15004KT 9999 SCT018 BKN080 15/14 Q1023","temp":15,"dewp":14,"wdir":150,"wspd":4,"visib":"6+","altim":1023,"clouds":[{"cover":"SCT","base":1800},{"cover":"BKN","base":8000}],"obsTime":1779534000},"SBMA":{"icaoId":"SBMA","flightCategory":"VFR","rawOb":"METAR SBMA 231100Z 18003KT CAVOK 26/24 Q1014","temp":26,"dewp":24,"wdir":180,"wspd":3,"visib":"6+","altim":1014,"clouds":[],"obsTime":1779534000},"SBCB":{"icaoId":"SBCB","flightCategory":"VFR","rawOb":"METAR SBCB 231100Z 07011KT 9999 FEW005 SCT020 BKN035 22/19 Q1023","temp":22,"dewp":19,"wdir":70,"wspd":11,"visib":"6+","altim":1023,"clouds":[{"cover":"FEW","base":500},{"cover":"SCT","base":2000},{"cover":"BKN","base":3500}],"obsTime":1779534000},"SBNT":{"icaoId":"SBNT","flightCategory":"VFR","rawOb":"METAR SBNT 231100Z 16009KT 9999 FEW020 27/22 Q1015","temp":27,"dewp":22,"wdir":160,"wspd":9,"visib":"6+","altim":1015,"clouds":[{"cover":"FEW","base":2000}],"obsTime":1779534000},"SBFL":{"icaoId":"SBFL","flightCategory":"VFR","rawOb":"METAR SBFL 231100Z VRB02KT 9999 FEW009 SCT023 BKN040 16/15 Q1024","temp":16,"dewp":15,"wdir":"VRB","wspd":2,"visib":"6+","altim":1024,"clouds":[{"cover":"FEW","base":900},{"cover":"SCT","base":2300},{"cover":"BKN","base":4000}],"obsTime":1779534000},"SBPA":{"icaoId":"SBPA","flightCategory":"VFR","rawOb":"METAR SBPA 231100Z 09007KT 9999 SCT005 OVC045 14/13 Q1025","temp":14,"dewp":13,"wdir":90,"wspd":7,"visib":"6+","altim":1025,"clouds":[{"cover":"SCT","base":500},{"cover":"OVC","base":4500}],"obsTime":1779534000},"SBCF":{"icaoId":"SBCF","flightCategory":"VFR","rawOb":"METAR SBCF 231100Z 15005KT 9999 FEW025 SCT100 18/16 Q1026","temp":18,"dewp":16,"wdir":150,"wspd":5,"visib":"6+","altim":1026,"clouds":[{"cover":"FEW","base":2500},{"cover":"SCT","base":10000}],"obsTime":1779534000},"SBFZ":{"icaoId":"SBFZ","flightCategory":"VFR","rawOb":"METAR SBFZ 231100Z 15013KT 9999 FEW020 SCT060 27/22 Q1014","temp":27,"dewp":22,"wdir":150,"wspd":13,"visib":"6+","altim":1014,"clouds":[{"cover":"FEW","base":2000},{"cover":"SCT","base":6000}],"obsTime":1779534000},"SBPJ":{"icaoId":"SBPJ","flightCategory":"VFR","rawOb":"METAR SBPJ 231100Z 10007KT CAVOK 27/18 Q1017","temp":27,"dewp":18,"wdir":100,"wspd":7,"visib":"6+","altim":1017,"clouds":[],"obsTime":1779534000},"SBPV":{"icaoId":"SBPV","flightCategory":"MVFR","rawOb":"METAR SBPV 231100Z 17011KT 9999 SCT009 OVC030 20/17 Q1017","temp":20,"dewp":17,"wdir":170,"wspd":11,"visib":"6+","altim":1017,"clouds":[{"cover":"SCT","base":900},{"cover":"OVC","base":3000}],"obsTime":1779534000},"SBCG":{"icaoId":"SBCG","flightCategory":"IFR","rawOb":"METAR SBCG 231100Z 12007KT 7000 BKN005 BKN045 16/15 Q1022","temp":16,"dewp":15,"wdir":120,"wspd":7,"visib":4.35,"altim":1022,"clouds":[{"cover":"BKN","base":500},{"cover":"BKN","base":4500}],"obsTime":1779534000},"SBRB":{"icaoId":"SBRB","flightCategory":"VFR","rawOb":"METAR SBRB 231100Z 15005KT 9999 SCT040 BKN100 18/14 Q1019","temp":18,"dewp":14,"wdir":150,"wspd":5,"visib":"6+","altim":1019,"clouds":[{"cover":"SCT","base":4000},{"cover":"BKN","base":10000}],"obsTime":1779534000},"SBRF":{"icaoId":"SBRF","flightCategory":"MVFR","rawOb":"METAR SBRF 231100Z 12012KT 9999 -RA BKN020 SCT050 27/23 Q1015","temp":27,"dewp":23,"wdir":120,"wspd":12,"visib":"6+","altim":1015,"clouds":[{"cover":"BKN","base":2000},{"cover":"SCT","base":5000}],"obsTime":1779534000},"SBGL":{"icaoId":"SBGL","flightCategory":"VFR","rawOb":"METAR SBGL 231100Z 05003KT 360V090 9999 SCT007 21/19 Q1023","temp":21,"dewp":19,"wdir":50,"wspd":3,"visib":"6+","altim":1023,"clouds":[{"cover":"SCT","base":700}],"obsTime":1779534000},"SBSG":{"icaoId":"SBSG","flightCategory":"VFR","rawOb":"METAR SBSG 231100Z 16007KT 080V200 9999 SCT030 26/23 Q1015","temp":26,"dewp":23,"wdir":160,"wspd":7,"visib":"6+","altim":1015,"clouds":[{"cover":"SCT","base":3000}],"obsTime":1779534000},"SBSL":{"icaoId":"SBSL","flightCategory":"VFR","rawOb":"METAR SBSL 231100Z 18005KT 9999 FEW020 SCT100 27/27 Q1013","temp":27,"dewp":27,"wdir":180,"wspd":5,"visib":"6+","altim":1013,"clouds":[{"cover":"FEW","base":2000},{"cover":"SCT","base":10000}],"obsTime":1779534000},"SBGO":{"icaoId":"SBGO","flightCategory":"VFR","rawOb":"METAR SBGO 231100Z 03005KT 9999 FEW015 20/17 Q1023","temp":20,"dewp":17,"wdir":30,"wspd":5,"visib":"6+","altim":1023,"clouds":[{"cover":"FEW","base":1500}],"obsTime":1779534000},"SBBV":{"icaoId":"SBBV","flightCategory":"VFR","rawOb":"METAR SBBV 231100Z 02003KT 9999 FEW004 SCT030 BKN100 25/24 Q1016","temp":25,"dewp":24,"wdir":20,"wspd":3,"visib":"6+","altim":1016,"clouds":[{"cover":"FEW","base":400},{"cover":"SCT","base":3000},{"cover":"BKN","base":10000}],"obsTime":1779534000},"SBSN":{"icaoId":"SBSN","flightCategory":"VFR","rawOb":"METAR SBSN 231100Z 18003KT 9999 FEW015 26/25 Q1014","temp":26,"dewp":25,"wdir":180,"wspd":3,"visib":"6+","altim":1014,"clouds":[{"cover":"FEW","base":1500}],"obsTime":1779534000},"SBSP":{"icaoId":"SBSP","flightCategory":"IFR","rawOb":"METAR SBSP 231100Z VRB02KT 7000 -DZ OVC005 16/15 Q1025","temp":16,"dewp":15,"wdir":"VRB","wspd":2,"visib":4.35,"altim":1025,"clouds":[{"cover":"OVC","base":500}],"obsTime":1779534000},"SBGR":{"icaoId":"SBGR","flightCategory":"IFR","rawOb":"METAR SBGR 231100Z 07007KT 6000 OVC006 16/15 Q1024","temp":16,"dewp":15,"wdir":70,"wspd":7,"visib":3.73,"altim":1024,"clouds":[{"cover":"OVC","base":600}],"obsTime":1779534000},"SBCP":{"icaoId":"SBCP","flightCategory":"IFR","rawOb":"METAR SBCP 231100Z 05005KT 1800 -RA BKN008 OVC070 20/20 Q1024","temp":20,"dewp":20,"wdir":50,"wspd":5,"visib":1.12,"altim":1024,"clouds":[{"cover":"BKN","base":800},{"cover":"OVC","base":7000}],"obsTime":1779534000},"SBSV":{"icaoId":"SBSV","flightCategory":"VFR","rawOb":"METAR SBSV 231100Z 11012KT 9999 SCT027 BKN080 28/22 Q1018","temp":28,"dewp":22,"wdir":110,"wspd":12,"visib":"6+","altim":1018,"clouds":[{"cover":"SCT","base":2700},{"cover":"BKN","base":8000}],"obsTime":1779534000},"SBHT":{"icaoId":"SBHT","flightCategory":"VFR","rawOb":"METAR SBHT 231100Z 00000KT 9999 FEW015 SCT090 26/25 Q1014","temp":26,"dewp":25,"wdir":0,"wspd":0,"visib":"6+","altim":1014,"clouds":[{"cover":"FEW","base":1500},{"cover":"SCT","base":9000}],"obsTime":1779534000},"SBTE":{"icaoId":"SBTE","flightCategory":"VFR","rawOb":"METAR SBTE 231100Z 15009KT CAVOK 27/21 Q1014","temp":27,"dewp":21,"wdir":150,"wspd":9,"visib":"6+","altim":1014,"clouds":[],"obsTime":1779534000},"SBIL":{"icaoId":"SBIL","flightCategory":"MVFR","rawOb":"METAR SBIL 231100Z 18010KT 140V210 9999 2000W SCT010 BKN015 OVC070 25/23 Q1020","temp":25,"dewp":23,"wdir":180,"wspd":10,"visib":"6+","altim":1020,"clouds":[{"cover":"SCT","base":1000},{"cover":"BKN","base":1500},{"cover":"OVC","base":7000}],"obsTime":1779534000},"SBUL":{"icaoId":"SBUL","flightCategory":"VFR","rawOb":"METAR SBUL 231100Z 11006KT 9999 SCT030 SCT100 19/16 Q1025","temp":19,"dewp":16,"wdir":110,"wspd":6,"visib":"6+","altim":1025,"clouds":[{"cover":"SCT","base":3000},{"cover":"SCT","base":10000}],"obsTime":1779534000},"SBUR":{"icaoId":"SBUR","flightCategory":"VFR","rawOb":"METAR SBUR 231100Z 05006KT 9999 SCT013 SCT070 20/17 Q1024","temp":20,"dewp":17,"wdir":50,"wspd":6,"visib":"6+","altim":1024,"clouds":[{"cover":"SCT","base":1300},{"cover":"SCT","base":7000}],"obsTime":1779534000},"SBAT":{"icaoId":"SBAT","flightCategory":"MVFR","rawOb":"METAR SBAT 231100Z 00000KT 7000 NSC 22/22 Q1017","temp":22,"dewp":22,"wdir":0,"wspd":0,"visib":4.35,"altim":1017,"clouds":[],"obsTime":1779534000},"SBVT":{"icaoId":"SBVT","flightCategory":"VFR","rawOb":"METAR SBVT 231100Z 25004KT 210V300 9999 VCSH SCT017 OVC050 21/20 Q1023","temp":21,"dewp":20,"wdir":250,"wspd":4,"visib":"6+","altim":1023,"clouds":[{"cover":"SCT","base":1700},{"cover":"OVC","base":5000}],"obsTime":1779534000},"SBCR":{"icaoId":"SBCR","flightCategory":"VFR","rawOb":"METAR SBCR 231100Z VRB03KT CAVOK 16/13 Q1021","temp":16,"dewp":13,"wdir":"VRB","wspd":3,"visib":"6+","altim":1021,"clouds":[],"obsTime":1779534000},"SBJU":{"icaoId":"SBJU","flightCategory":"VFR","rawOb":"METAR SBJU 231100Z 12012KT 9999 SCT019 25/20 Q1018","temp":25,"dewp":20,"wdir":120,"wspd":12,"visib":"6+","altim":1018,"clouds":[{"cover":"SCT","base":1900}],"obsTime":1779534000},"SBKP":{"icaoId":"SBKP","flightCategory":"VFR","rawOb":"METAR SBKP 231100Z 28004KT 230V350 9999 SCT030 OVC080 16/15 Q1025","temp":16,"dewp":15,"wdir":280,"wspd":4,"visib":"6+","altim":1025,"clouds":[{"cover":"SCT","base":3000},{"cover":"OVC","base":8000}],"obsTime":1779534000},"SBOI":{"icaoId":"SBOI","flightCategory":"LIFR","rawOb":"METAR SBOI 231100Z AUTO 34003KT 9999 // BKN003/// 24/24 Q1015","temp":24,"dewp":24,"wdir":340,"wspd":3,"visib":"6+","altim":1015,"clouds":[{"cover":"BKN","base":300}],"obsTime":1779534000},"SBPL":{"icaoId":"SBPL","flightCategory":"MVFR","rawOb":"METAR SBPL 231100Z 10011KT 9999 FEW015 BKN020 24/21 Q1019","temp":24,"dewp":21,"wdir":100,"wspd":11,"visib":"6+","altim":1019,"clouds":[{"cover":"FEW","base":1500},{"cover":"BKN","base":2000}],"obsTime":1779534000},"SBCJ":{"icaoId":"SBCJ","flightCategory":"VFR","rawOb":"METAR SBCJ 231100Z 12007KT CAVOK 26/19 Q1019","temp":26,"dewp":19,"wdir":120,"wspd":7,"visib":"6+","altim":1019,"clouds":[],"obsTime":1779534000},"SBPP":{"icaoId":"SBPP","flightCategory":"VFR","rawOb":"SPECI SBPP 231115Z 14005KT CAVOK 12/12 Q1023","temp":12,"dewp":12,"wdir":140,"wspd":5,"visib":"6+","altim":1023,"clouds":[],"obsTime":1779534900},"SBCO":{"icaoId":"SBCO","flightCategory":"VFR","rawOb":"METAR SBCO 231100Z 12004KT 9000 BKN040 OVC066 13/13 Q1026","temp":13,"dewp":13,"wdir":120,"wspd":4,"visib":5.59,"altim":1026,"clouds":[{"cover":"BKN","base":4000},{"cover":"OVC","base":6600}],"obsTime":1779534000},"SBPS":{"icaoId":"SBPS","flightCategory":"MVFR","rawOb":"METAR SBPS 231100Z 14007KT 8000 SCT020 BKN070 24/22 Q1021","temp":24,"dewp":22,"wdir":140,"wspd":7,"visib":4.97,"altim":1021,"clouds":[{"cover":"SCT","base":2000},{"cover":"BKN","base":7000}],"obsTime":1779534000},"SBAR":{"icaoId":"SBAR","flightCategory":"VFR","rawOb":"METAR SBAR 231100Z 13012KT 9999 SCT025 28/22 Q1017","temp":28,"dewp":22,"wdir":130,"wspd":12,"visib":"6+","altim":1017,"clouds":[{"cover":"SCT","base":2500}],"obsTime":1779534000},"SBSC":{"icaoId":"SBSC","flightCategory":"MVFR","rawOb":"METAR SBSC 231100Z 04008KT 8000 NSC 20/19 Q1023","temp":20,"dewp":19,"wdir":40,"wspd":8,"visib":4.97,"altim":1023,"clouds":[],"obsTime":1779534000},"SBDN":{"icaoId":"SBDN","flightCategory":"VFR","rawOb":"METAR SBDN 231100Z 13006KT 9999 FEW060TCU BKN083 16/13 Q1022","temp":16,"dewp":13,"wdir":130,"wspd":6,"visib":"6+","altim":1022,"clouds":[{"cover":"FEW","base":6000},{"cover":"BKN","base":8300}],"obsTime":1779534000},"SBSJ":{"icaoId":"SBSJ","flightCategory":"MVFR","rawOb":"METAR SBSJ 231100Z 35006KT 310V050 6000 OVC011 16/15 Q1024","temp":16,"dewp":15,"wdir":350,"wspd":6,"visib":3.73,"altim":1024,"clouds":[{"cover":"OVC","base":1100}],"obsTime":1779534000},"SBBU":{"icaoId":"SBBU","flightCategory":"LIFR","rawOb":"METAR SBBU 231100Z 12005KT 3500 BR OVC004 17/17 Q1023","temp":17,"dewp":17,"wdir":120,"wspd":5,"visib":2.17,"altim":1023,"clouds":[{"cover":"OVC","base":400}],"obsTime":1779534000},"SBSM":{"icaoId":"SBSM","flightCategory":"LIFR","rawOb":"METAR SBSM 231100Z 33001KT 0800 R29///// R11/P2000N FG OVC002 08/08 Q1026","temp":8,"dewp":8,"wdir":330,"wspd":1,"visib":0.5,"altim":1026,"clouds":[{"cover":"OVC","base":200}],"obsTime":1779534000},"SBSR":{"icaoId":"SBSR","flightCategory":"VFR","rawOb":"METAR SBSR 231100Z 17003KT 9000 NSC 17/17 Q1023","temp":17,"dewp":17,"wdir":170,"wspd":3,"visib":5.59,"altim":1023,"clouds":[],"obsTime":1779534000},"SBAX":{"icaoId":"SBAX","flightCategory":"VFR","rawOb":"METAR SBAX 231100Z AUTO 11009KT CAVOK 18/18 Q1025","temp":18,"dewp":18,"wdir":110,"wspd":9,"visib":"6+","altim":1025,"clouds":[],"obsTime":1779534000},"SBTF":{"icaoId":"SBTF","flightCategory":"IFR","rawOb":"SPECI SBTF 231115Z 22005KT 9999 BKN006 BKN090 23/22 Q1016","temp":23,"dewp":22,"wdir":220,"wspd":5,"visib":"6+","altim":1016,"clouds":[{"cover":"BKN","base":600},{"cover":"BKN","base":9000}],"obsTime":1779534900},"SBBQ":{"icaoId":"SBBQ","flightCategory":"IFR","rawOb":"METAR SBBQ 231200Z 04005KT 5000 BR BKN005 16/15 Q1029","temp":16,"dewp":15,"wdir":40,"wspd":5,"visib":3.11,"altim":1029,"clouds":[{"cover":"BKN","base":500}],"obsTime":1779537600},"SBBH":{"icaoId":"SBBH","flightCategory":"MVFR","rawOb":"METAR SBBH 231100Z 12010KT 9999 OVC020 19/15 Q1026","temp":19,"dewp":15,"wdir":120,"wspd":10,"visib":"6+","altim":1026,"clouds":[{"cover":"OVC","base":2000}],"obsTime":1779534000},"SBPB":{"icaoId":"SBPB","flightCategory":"VFR","rawOb":"METAR SBPB 231100Z 12005KT 9999 FEW016 SCT080 28/26 Q1013","temp":28,"dewp":26,"wdir":120,"wspd":5,"visib":"6+","altim":1013,"clouds":[{"cover":"FEW","base":1600},{"cover":"SCT","base":8000}],"obsTime":1779534000},"SBTT":{"icaoId":"SBTT","flightCategory":"VFR","rawOb":"METAR SBTT 231100Z 20004KT 9999 OVC040 21/19 Q1018","temp":21,"dewp":19,"wdir":200,"wspd":4,"visib":"6+","altim":1018,"clouds":[{"cover":"OVC","base":4000}],"obsTime":1779534000},"SBES":{"icaoId":"SBES","flightCategory":"MVFR","rawOb":"METAR SBES 231100Z VRB05KT 7000 -DZ SCT004 BKN015 OVC050 19/// Q1023","temp":null,"dewp":null,"wdir":"VRB","wspd":5,"visib":4.35,"altim":1023,"clouds":[{"cover":"SCT","base":400},{"cover":"BKN","base":1500},{"cover":"OVC","base":5000}],"obsTime":1779534000},"SBGM":{"icaoId":"SBGM","flightCategory":"MVFR","rawOb":"METAR SBGM 231200Z 11006KT 9999 BKN020 OVC030 19/16 Q1019","temp":19,"dewp":16,"wdir":110,"wspd":6,"visib":"6+","altim":1019,"clouds":[{"cover":"BKN","base":2000},{"cover":"OVC","base":3000}],"obsTime":1779537600},"SBCA":{"icaoId":"SBCA","flightCategory":"LIFR","rawOb":"METAR SBCA 231100Z 20002KT 0500 FG VV000 13/13 Q1024","temp":13,"dewp":13,"wdir":200,"wspd":2,"visib":0.31,"altim":1024,"clouds":[{"cover":"OVX","base":0}],"obsTime":1779534000},"SBUY":{"icaoId":"SBUY","flightCategory":"IFR","rawOb":"METAR SBUY 231100Z 26001KT 6000 BKN007 21/21 Q1015","temp":21,"dewp":21,"wdir":260,"wspd":1,"visib":3.73,"altim":1015,"clouds":[{"cover":"BKN","base":700}],"obsTime":1779534000},"SBVH":{"icaoId":"SBVH","flightCategory":"MVFR","rawOb":"METAR SBVH 231100Z 17007KT 8000 NSC 15/14 Q1020","temp":15,"dewp":14,"wdir":170,"wspd":7,"visib":4.97,"altim":1020,"clouds":[],"obsTime":1779534000},"SBIP":{"icaoId":"SBIP","flightCategory":"VFR","rawOb":"METAR SBIP 231100Z AUTO 19004KT 160V230 9999 BKN044 20/18 Q1024","temp":20,"dewp":18,"wdir":190,"wspd":4,"visib":"6+","altim":1024,"clouds":[{"cover":"BKN","base":4400}],"obsTime":1779534000},"SBKG":{"icaoId":"SBKG","flightCategory":"IFR","rawOb":"METAR SBKG 231100Z 12009KT 9999 SCT005 BKN008 BKN070 22/21 Q1018","temp":22,"dewp":21,"wdir":120,"wspd":9,"visib":"6+","altim":1018,"clouds":[{"cover":"SCT","base":500},{"cover":"BKN","base":800},{"cover":"BKN","base":7000}],"obsTime":1779534000},"SBCC":{"icaoId":"SBCC","flightCategory":"LIFR","rawOb":"METAR SBCC 231100Z 15005KT 1500 R12/P2000 BR OVC002 21/21 Q1018","temp":21,"dewp":21,"wdir":150,"wspd":5,"visib":0.93,"altim":1018,"clouds":[{"cover":"OVC","base":200}],"obsTime":1779534000},"SBTU":{"icaoId":"SBTU","flightCategory":"VFR","rawOb":"METAR SBTU 231100Z AUTO VRB02KT 9999 // FEW003/// SCT005/// 25/24 Q1016","temp":25,"dewp":24,"wdir":"VRB","wspd":2,"visib":"6+","altim":1016,"clouds":[{"cover":"FEW","base":300},{"cover":"SCT","base":500}],"obsTime":1779534000},"SBJR":{"icaoId":"SBJR","flightCategory":"VFR","rawOb":"METAR SBJR 231100Z 01002KT CAVOK 23/18 Q1022","temp":23,"dewp":18,"wdir":10,"wspd":2,"visib":"6+","altim":1022,"clouds":[],"obsTime":1779534000},"SBLS":{"icaoId":"SBLS","flightCategory":"VFR","rawOb":"METAR SBLS 231100Z 14011KT 9999 SCT025 18/15 Q1025","temp":18,"dewp":15,"wdir":140,"wspd":11,"visib":"6+","altim":1025,"clouds":[{"cover":"SCT","base":2500}],"obsTime":1779534000},"SBAN":{"icaoId":"SBAN","flightCategory":"IFR","rawOb":"METAR SBAN 231100Z 16014KT 8000 OVC007 17/15 Q1024","temp":17,"dewp":15,"wdir":160,"wspd":14,"visib":4.97,"altim":1024,"clouds":[{"cover":"OVC","base":700}],"obsTime":1779534000},"SBMT":{"icaoId":"SBMT","flightCategory":"IFR","rawOb":"METAR SBMT 231100Z 10004KT 070V130 3500 -DZ BR OVC008 16/15 Q1025","temp":16,"dewp":15,"wdir":100,"wspd":4,"visib":2.17,"altim":1025,"clouds":[{"cover":"OVC","base":800}],"obsTime":1779534000},"SBST":{"icaoId":"SBST","flightCategory":"IFR","rawOb":"METAR SBST 231100Z 04006KT 2000 -DZ BR BKN009 OVC019 18/17 Q1023","temp":18,"dewp":17,"wdir":40,"wspd":6,"visib":1.24,"altim":1023,"clouds":[{"cover":"BKN","base":900},{"cover":"OVC","base":1900}],"obsTime":1779534000},"SBTA":{"icaoId":"SBTA","flightCategory":"MVFR","rawOb":"METAR SBTA 231100Z 06008KT 8000 BKN015 18/17 Q1023","temp":18,"dewp":17,"wdir":60,"wspd":8,"visib":4.97,"altim":1023,"clouds":[{"cover":"BKN","base":1500}],"obsTime":1779534000},"SBLE":{"icaoId":"SBLE","flightCategory":"MVFR","rawOb":"METAR SBLE 231100Z AUTO 13005KT 100V160 9999 FEW019 OVC030 ///// Q////","temp":null,"dewp":null,"wdir":130,"wspd":5,"visib":"6+","altim":null,"clouds":[{"cover":"FEW","base":1900},{"cover":"OVC","base":3000}],"obsTime":1779534000},"SBJP":{"icaoId":"SBJP","flightCategory":"MVFR","rawOb":"METAR SBJP 231100Z 17004KT 9999 BKN020 BKN070 25/24 Q1016","temp":25,"dewp":24,"wdir":170,"wspd":4,"visib":"6+","altim":1016,"clouds":[{"cover":"BKN","base":2000},{"cover":"BKN","base":7000}],"obsTime":1779534000},"SBIH":{"icaoId":"SBIH","flightCategory":"VFR","rawOb":"METAR SBIH 231100Z 00000KT 9999 SCT010 25/24 Q1014","temp":25,"dewp":24,"wdir":0,"wspd":0,"visib":"6+","altim":1014,"clouds":[{"cover":"SCT","base":1000}],"obsTime":1779534000},"SBJV":{"icaoId":"SBJV","flightCategory":"VFR","rawOb":"METAR SBJV 231100Z 17002KT 9999 FEW010 OVC060 15/14 Q1025","temp":15,"dewp":14,"wdir":170,"wspd":2,"visib":"6+","altim":1025,"clouds":[{"cover":"FEW","base":1000},{"cover":"OVC","base":6000}],"obsTime":1779534000},"SBAF":{"icaoId":"SBAF","flightCategory":"VFR","rawOb":"METAR SBAF 231100Z VRB02KT 9999 FEW010 20/20 Q1023","temp":20,"dewp":20,"wdir":"VRB","wspd":2,"visib":"6+","altim":1023,"clouds":[{"cover":"FEW","base":1000}],"obsTime":1779534000},"SBPF":{"icaoId":"SBPF","flightCategory":"VFR","rawOb":"METAR SBPF 231100Z 10010KT CAVOK 09/06 Q1025","temp":9,"dewp":6,"wdir":100,"wspd":10,"visib":"6+","altim":1025,"clouds":[],"obsTime":1779534000},"SBGW":{"icaoId":"SBGW","flightCategory":"IFR","rawOb":"METAR SBGW 231100Z 04004KT 350V100 4000 HZ OVC012 18/13 Q1024","temp":18,"dewp":13,"wdir":40,"wspd":4,"visib":2.49,"altim":1024,"clouds":[{"cover":"OVC","base":1200}],"obsTime":1779534000},"SBNM":{"icaoId":"SBNM","flightCategory":"LIFR","rawOb":"METAR SBNM 231100Z AUTO VRB01KT 1200 BR SCT003 BKN005 07/06 Q1024","temp":7,"dewp":6,"wdir":"VRB","wspd":1,"visib":0.75,"altim":1024,"clouds":[{"cover":"SCT","base":300},{"cover":"BKN","base":500}],"obsTime":1779534000}}}