{"updated":1776233680,"count":50,"data":{"SBMG":{"icaoId":"SBMG","flightCategory":"VFR","rawOb":"METAR SBMG 150500Z AUTO 08008KT CAVOK 21/16 Q1013","temp":21,"dewp":16,"wdir":80,"wspd":8,"visib":"6+","altim":1013,"clouds":[],"obsTime":1776229200},"SBFL":{"icaoId":"SBFL","flightCategory":"IFR","rawOb":"METAR SBFL 150500Z 26001KT 4000 RA BR BKN020 BKN040 22/21 Q1016","temp":22,"dewp":21,"wdir":260,"wspd":1,"visib":2.49,"altim":1016,"clouds":[{"cover":"BKN","base":2000},{"cover":"BKN","base":4000}],"obsTime":1776229200},"SBFI":{"icaoId":"SBFI","flightCategory":"VFR","rawOb":"METAR SBFI 150500Z 03002KT CAVOK 22/21 Q1010","temp":22,"dewp":21,"wdir":30,"wspd":2,"visib":"6+","altim":1010,"clouds":[],"obsTime":1776229200},"SBME":{"icaoId":"SBME","flightCategory":"VFR","rawOb":"METAR SBME 150500Z 31004KT CAVOK 19/18 Q1014","temp":19,"dewp":18,"wdir":310,"wspd":4,"visib":"6+","altim":1014,"clouds":[],"obsTime":1776229200},"SBBV":{"icaoId":"SBBV","flightCategory":"VFR","rawOb":"METAR SBBV 150500Z 15004KT 9999 FEW040 BKN070 28/23 Q1009","temp":28,"dewp":23,"wdir":150,"wspd":4,"visib":"6+","altim":1009,"clouds":[{"cover":"FEW","base":4000},{"cover":"BKN","base":7000}],"obsTime":1776229200},"SBMO":{"icaoId":"SBMO","flightCategory":"MVFR","rawOb":"METAR SBMO 150500Z 21002KT 7000 RA BKN015 BKN020 24/24 Q1010","temp":24,"dewp":24,"wdir":210,"wspd":2,"visib":4.35,"altim":1010,"clouds":[{"cover":"BKN","base":1500},{"cover":"BKN","base":2000}],"obsTime":1776229200},"SBCG":{"icaoId":"SBCG","flightCategory":"VFR","rawOb":"METAR SBCG 150500Z 07010KT CAVOK 24/20 Q1011","temp":24,"dewp":20,"wdir":70,"wspd":10,"visib":"6+","altim":1011,"clouds":[],"obsTime":1776229200},"SBMQ":{"icaoId":"SBMQ","flightCategory":"IFR","rawOb":"METAR SBMQ 150500Z 01006KT 9999 BKN007 26/25 Q1009","temp":26,"dewp":25,"wdir":10,"wspd":6,"visib":"6+","altim":1009,"clouds":[{"cover":"BKN","base":700}],"obsTime":1776229200},"SBFZ":{"icaoId":"SBFZ","flightCategory":"VFR","rawOb":"METAR SBFZ 150500Z 18003KT 9999 SCT017 BKN090 25/24 Q1008","temp":25,"dewp":24,"wdir":180,"wspd":3,"visib":"6+","altim":1008,"clouds":[{"cover":"SCT","base":1700},{"cover":"BKN","base":9000}],"obsTime":1776229200},"SBNT":{"icaoId":"SBNT","flightCategory":"MVFR","rawOb":"METAR SBNT 150500Z 18005KT 9999 VCSH FEW005 BKN017 FEW025TCU 25/24 Q1009","temp":25,"dewp":24,"wdir":180,"wspd":5,"visib":"6+","altim":1009,"clouds":[{"cover":"FEW","base":500},{"cover":"BKN","base":1700},{"cover":"FEW","base":2500}],"obsTime":1776229200},"SBBE":{"icaoId":"SBBE","flightCategory":"VFR","rawOb":"METAR SBBE 150500Z 17002KT 9999 SCT020 BKN080 25/25 Q1009","temp":25,"dewp":25,"wdir":170,"wspd":2,"visib":"6+","altim":1009,"clouds":[{"cover":"SCT","base":2000},{"cover":"BKN","base":8000}],"obsTime":1776229200},"SBPA":{"icaoId":"SBPA","flightCategory":"VFR","rawOb":"METAR SBPA 150500Z 10009KT CAVOK 22/20 Q1014","temp":22,"dewp":20,"wdir":100,"wspd":9,"visib":"6+","altim":1014,"clouds":[],"obsTime":1776229200},"SBGL":{"icaoId":"SBGL","flightCategory":"VFR","rawOb":"METAR SBGL 150500Z 32005KT CAVOK 21/19 Q1016","temp":21,"dewp":19,"wdir":320,"wspd":5,"visib":"6+","altim":1016,"clouds":[],"obsTime":1776229200},"SBPJ":{"icaoId":"SBPJ","flightCategory":"VFR","rawOb":"METAR SBPJ 150500Z 10005KT 9999 FEW011 SCT080 26/24 Q1010","temp":26,"dewp":24,"wdir":100,"wspd":5,"visib":"6+","altim":1010,"clouds":[{"cover":"FEW","base":1100},{"cover":"SCT","base":8000}],"obsTime":1776229200},"SBCT":{"icaoId":"SBCT","flightCategory":"MVFR","rawOb":"METAR SBCT 150500Z 08006KT 9999 BKN020 16/15 Q1019","temp":16,"dewp":15,"wdir":80,"wspd":6,"visib":"6+","altim":1019,"clouds":[{"cover":"BKN","base":2000}],"obsTime":1776229200},"SBPV":{"icaoId":"SBPV","flightCategory":"VFR","rawOb":"METAR SBPV 150500Z 29001KT CAVOK 25/23 Q1009","temp":25,"dewp":23,"wdir":290,"wspd":1,"visib":"6+","altim":1009,"clouds":[],"obsTime":1776229200},"SBGO":{"icaoId":"SBGO","flightCategory":"VFR","rawOb":"METAR SBGO 150500Z 15005KT CAVOK 22/18 Q1014","temp":22,"dewp":18,"wdir":150,"wspd":5,"visib":"6+","altim":1014,"clouds":[],"obsTime":1776229200},"SBRB":{"icaoId":"SBRB","flightCategory":"LIFR","rawOb":"METAR SBRB 150500Z 02004KT 0400 R07///// R25///// FG VV001 24/23 Q1009","temp":24,"dewp":23,"wdir":20,"wspd":4,"visib":0.25,"altim":1009,"clouds":[{"cover":"OVX","base":100}],"obsTime":1776229200},"SBRF":{"icaoId":"SBRF","flightCategory":"VFR","rawOb":"METAR SBRF 150500Z 20003KT 9999 SCT022 26/23 Q1009","temp":26,"dewp":23,"wdir":200,"wspd":3,"visib":"6+","altim":1009,"clouds":[{"cover":"SCT","base":2200}],"obsTime":1776229200},"SBGR":{"icaoId":"SBGR","flightCategory":"VFR","rawOb":"METAR SBGR 150500Z 10002KT CAVOK 16/14 Q1018","temp":16,"dewp":14,"wdir":100,"wspd":2,"visib":"6+","altim":1018,"clouds":[],"obsTime":1776229200},"SBSG":{"icaoId":"SBSG","flightCategory":"VFR","rawOb":"METAR SBSG 150500Z 19004KT 150V220 9999 SCT007 24/24 Q1009","temp":24,"dewp":24,"wdir":190,"wspd":4,"visib":"6+","altim":1009,"clouds":[{"cover":"SCT","base":700}],"obsTime":1776229200},"SBBR":{"icaoId":"SBBR","flightCategory":"VFR","rawOb":"METAR SBBR 150500Z 11004KT CAVOK 21/17 Q1017","temp":21,"dewp":17,"wdir":110,"wspd":4,"visib":"6+","altim":1017,"clouds":[],"obsTime":1776229200},"SBSL":{"icaoId":"SBSL","flightCategory":"VFR","rawOb":"METAR SBSL 150500Z 22003KT 9999 FEW020 BKN080 25/24 Q1009","temp":25,"dewp":24,"wdir":220,"wspd":3,"visib":"6+","altim":1009,"clouds":[{"cover":"FEW","base":2000},{"cover":"BKN","base":8000}],"obsTime":1776229200},"SBJU":{"icaoId":"SBJU","flightCategory":"VFR","rawOb":"METAR SBJU 150500Z 00000KT 9999 SCT020 23/22 Q1011","temp":23,"dewp":22,"wdir":0,"wspd":0,"visib":"6+","altim":1011,"clouds":[{"cover":"SCT","base":2000}],"obsTime":1776229200},"SBSN":{"icaoId":"SBSN","flightCategory":"VFR","rawOb":"METAR SBSN 150500Z 00000KT 9999 FEW020 BKN080 26/25 Q1008","temp":26,"dewp":25,"wdir":0,"wspd":0,"visib":"6+","altim":1008,"clouds":[{"cover":"FEW","base":2000},{"cover":"BKN","base":8000}],"obsTime":1776229200},"SBEG":{"icaoId":"SBEG","flightCategory":"VFR","rawOb":"METAR SBEG 150500Z 04002KT 9999 FEW006 23/23 Q1009","temp":23,"dewp":23,"wdir":40,"wspd":2,"visib":"6+","altim":1009,"clouds":[{"cover":"FEW","base":600}],"obsTime":1776229200},"SBSP":{"icaoId":"SBSP","flightCategory":"VFR","rawOb":"METAR SBSP 150500Z AUTO 15005KT CAVOK 16/15 Q1018","temp":16,"dewp":15,"wdir":150,"wspd":5,"visib":"6+","altim":1018,"clouds":[],"obsTime":1776229200},"SBKP":{"icaoId":"SBKP","flightCategory":"VFR","rawOb":"METAR SBKP 150500Z 12013KT CAVOK 18/15 Q1015","temp":18,"dewp":15,"wdir":120,"wspd":13,"visib":"6+","altim":1015,"clouds":[],"obsTime":1776229200},"SBSV":{"icaoId":"SBSV","flightCategory":"VFR","rawOb":"METAR SBSV 150500Z 16005KT 9999 SCT020 BKN100 26/23 Q1011","temp":26,"dewp":23,"wdir":160,"wspd":5,"visib":"6+","altim":1011,"clouds":[{"cover":"SCT","base":2000},{"cover":"BKN","base":10000}],"obsTime":1776229200},"SBTE":{"icaoId":"SBTE","flightCategory":"VFR","rawOb":"METAR SBTE 150500Z 00000KT 9999 SCT009 24/24 Q1008","temp":24,"dewp":24,"wdir":0,"wspd":0,"visib":"6+","altim":1008,"clouds":[{"cover":"SCT","base":900}],"obsTime":1776229200},"SBLO":{"icaoId":"SBLO","flightCategory":"VFR","rawOb":"METAR SBLO 150500Z 14007KT CAVOK 20/15 Q1015","temp":20,"dewp":15,"wdir":140,"wspd":7,"visib":"6+","altim":1015,"clouds":[],"obsTime":1776229200},"SBUL":{"icaoId":"SBUL","flightCategory":"VFR","rawOb":"METAR SBUL 150500Z 13005KT CAVOK 20/16 Q1016","temp":20,"dewp":16,"wdir":130,"wspd":5,"visib":"6+","altim":1016,"clouds":[],"obsTime":1776229200},"SBCF":{"icaoId":"SBCF","flightCategory":"VFR","rawOb":"METAR SBCF 150500Z 18002KT CAVOK 18/16 Q1017","temp":18,"dewp":16,"wdir":180,"wspd":2,"visib":"6+","altim":1017,"clouds":[],"obsTime":1776229200},"SBUR":{"icaoId":"SBUR","flightCategory":"VFR","rawOb":"METAR SBUR 150500Z 05004KT CAVOK 21/14 Q1015","temp":21,"dewp":14,"wdir":50,"wspd":4,"visib":"6+","altim":1015,"clouds":[],"obsTime":1776229200},"SBMA":{"icaoId":"SBMA","flightCategory":"VFR","rawOb":"METAR SBMA 150500Z 04003KT CAVOK 26/24 Q1008","temp":26,"dewp":24,"wdir":40,"wspd":3,"visib":"6+","altim":1008,"clouds":[],"obsTime":1776229200},"SBVT":{"icaoId":"SBVT","flightCategory":"VFR","rawOb":"METAR SBVT 150500Z 31004KT CAVOK 21/20 Q1014","temp":21,"dewp":20,"wdir":310,"wspd":4,"visib":"6+","altim":1014,"clouds":[],"obsTime":1776229200},"SBSR":{"icaoId":"SBSR","flightCategory":"VFR","rawOb":"METAR SBSR 150500Z 12005KT CAVOK 22/14 Q1013","temp":22,"dewp":14,"wdir":120,"wspd":5,"visib":"6+","altim":1013,"clouds":[],"obsTime":1776229200},"SBAR":{"icaoId":"SBAR","flightCategory":"IFR","rawOb":"SPECI SBAR 150430Z 02003KT 330V100 3000 -RA BR SCT010 SCT017 OVC050 24/24 Q1010 RERA","temp":24,"dewp":24,"wdir":20,"wspd":3,"visib":1.86,"altim":1010,"clouds":[{"cover":"SCT","base":1000},{"cover":"SCT","base":1700},{"cover":"OVC","base":5000}],"obsTime":1776227400},"SBAX":{"icaoId":"SBAX","flightCategory":"VFR","rawOb":"METAR SBAX 150500Z AUTO 12007KT CAVOK 18/14 Q1016","temp":18,"dewp":14,"wdir":120,"wspd":7,"visib":"6+","altim":1016,"clouds":[],"obsTime":1776229200},"SBDN":{"icaoId":"SBDN","flightCategory":"VFR","rawOb":"METAR SBDN 150500Z 11012KT CAVOK 22/16 Q1013","temp":22,"dewp":16,"wdir":110,"wspd":12,"visib":"6+","altim":1013,"clouds":[],"obsTime":1776229200},"SBIP":{"icaoId":"SBIP","flightCategory":"VFR","rawOb":"METAR SBIP 150500Z AUTO 00000KT 9999 OVC045 21/21 Q1015","temp":21,"dewp":21,"wdir":0,"wspd":0,"visib":"6+","altim":1015,"clouds":[{"cover":"OVC","base":4500}],"obsTime":1776229200},"SBKG":{"icaoId":"SBKG","flightCategory":"MVFR","rawOb":"METAR SBKG 150500Z 14005KT 9999 BKN012 22/22 Q1012","temp":22,"dewp":22,"wdir":140,"wspd":5,"visib":"6+","altim":1012,"clouds":[{"cover":"BKN","base":1200}],"obsTime":1776229200},"SBPL":{"icaoId":"SBPL","flightCategory":"MVFR","rawOb":"METAR SBPL 150500Z 14005KT 7000 -RA BKN020 23/22 Q1013","temp":23,"dewp":22,"wdir":140,"wspd":5,"visib":4.35,"altim":1013,"clouds":[{"cover":"BKN","base":2000}],"obsTime":1776229200},"SBPS":{"icaoId":"SBPS","flightCategory":"VFR","rawOb":"METAR SBPS 150500Z 26004KT 9999 FEW020 22/21 Q1013","temp":22,"dewp":21,"wdir":260,"wspd":4,"visib":"6+","altim":1013,"clouds":[{"cover":"FEW","base":2000}],"obsTime":1776229200},"SBSC":{"icaoId":"SBSC","flightCategory":"MVFR","rawOb":"METAR SBSC 150500Z 03004KT 8000 FEW017 SCT020 19/18 Q1015","temp":19,"dewp":18,"wdir":30,"wspd":4,"visib":4.97,"altim":1015,"clouds":[{"cover":"FEW","base":1700},{"cover":"SCT","base":2000}],"obsTime":1776229200},"SBSJ":{"icaoId":"SBSJ","flightCategory":"MVFR","rawOb":"METAR SBSJ 150500Z 17003KT 120V220 9999 BKN023 BKN100 16/15 Q1017","temp":16,"dewp":15,"wdir":170,"wspd":3,"visib":"6+","altim":1017,"clouds":[{"cover":"BKN","base":2300},{"cover":"BKN","base":10000}],"obsTime":1776229200},"SBJP":{"icaoId":"SBJP","flightCategory":"VFR","rawOb":"METAR SBJP 150500Z 19006KT 9999 SCT020 24/24 Q1010","temp":24,"dewp":24,"wdir":190,"wspd":6,"visib":"6+","altim":1010,"clouds":[{"cover":"SCT","base":2000}],"obsTime":1776229200},"SBAN":{"icaoId":"SBAN","flightCategory":"VFR","rawOb":"METAR SBAN 150500Z 13008KT CAVOK 21/17 Q1017","temp":21,"dewp":17,"wdir":130,"wspd":8,"visib":"6+","altim":1017,"clouds":[],"obsTime":1776229200},"SBLE":{"icaoId":"SBLE","flightCategory":"VFR","rawOb":"METAR SBLE 150500Z AUTO VRB02KT 9999 OVC049 ///// Q////","temp":null,"dewp":null,"wdir":"VRB","wspd":2,"visib":"6+","altim":null,"clouds":[{"cover":"OVC","base":4900}],"obsTime":1776229200},"SBTA":{"icaoId":"SBTA","flightCategory":"VFR","rawOb":"METAR SBTA 150500Z 00000KT CAVOK 16/16 Q1017","temp":16,"dewp":16,"wdir":0,"wspd":0,"visib":"6+","altim":1017,"clouds":[],"obsTime":1776229200}}}