{"updated":1784733519,"count":88,"data":{"SBLO":{"icaoId":"SBLO","flightCategory":"VFR","rawOb":"METAR SBLO 221400Z 08005KT 9999 FEW035 BKN100 20/14 Q1016","temp":20,"dewp":14,"wdir":80,"wspd":5,"visib":"6+","altim":1016,"clouds":[{"cover":"FEW","base":3500},{"cover":"BKN","base":10000}],"obsTime":1784728800},"SBRF":{"icaoId":"SBRF","flightCategory":"VFR","rawOb":"METAR SBRF 221400Z 14012KT 9999 SCT012 SCT020 28/24 Q1015","temp":28,"dewp":24,"wdir":140,"wspd":12,"visib":"6+","altim":1015,"clouds":[{"cover":"SCT","base":1200},{"cover":"SCT","base":2000}],"obsTime":1784728800},"SBMO":{"icaoId":"SBMO","flightCategory":"MVFR","rawOb":"METAR SBMO 221400Z 09012KT 9999 SCT016 BKN030 28/24 Q1016","temp":28,"dewp":24,"wdir":90,"wspd":12,"visib":"6+","altim":1016,"clouds":[{"cover":"SCT","base":1600},{"cover":"BKN","base":3000}],"obsTime":1784728800},"SBBE":{"icaoId":"SBBE","flightCategory":"MVFR","rawOb":"METAR SBBE 221400Z 08010KT 9999 BKN028 30/24 Q1013","temp":30,"dewp":24,"wdir":80,"wspd":10,"visib":"6+","altim":1013,"clouds":[{"cover":"BKN","base":2800}],"obsTime":1784728800},"SBCF":{"icaoId":"SBCF","flightCategory":"VFR","rawOb":"METAR SBCF 221400Z 04005KT CAVOK 23/13 Q1022","temp":23,"dewp":13,"wdir":40,"wspd":5,"visib":"6+","altim":1022,"clouds":[],"obsTime":1784728800},"SBFZ":{"icaoId":"SBFZ","flightCategory":"VFR","rawOb":"METAR SBFZ 221400Z 11018KT 9999 SCT030 30/22 Q1013","temp":30,"dewp":22,"wdir":110,"wspd":18,"visib":"6+","altim":1013,"clouds":[{"cover":"SCT","base":3000}],"obsTime":1784728800},"SBGL":{"icaoId":"SBGL","flightCategory":"VFR","rawOb":"METAR SBGL 221400Z 36005KT 310V040 CAVOK 29/18 Q1014","temp":29,"dewp":18,"wdir":360,"wspd":5,"visib":"6+","altim":1014,"clouds":[],"obsTime":1784728800},"SBSL":{"icaoId":"SBSL","flightCategory":"MVFR","rawOb":"METAR SBSL 221400Z 08010KT 030V120 9999 BKN020 FEW025TCU 29/23 Q1013","temp":29,"dewp":23,"wdir":80,"wspd":10,"visib":"6+","altim":1013,"clouds":[{"cover":"BKN","base":2000},{"cover":"FEW","base":2500}],"obsTime":1784728800},"SBSG":{"icaoId":"SBSG","flightCategory":"VFR","rawOb":"METAR SBSG 221400Z 13007KT 090V170 9999 VCSH FEW013 FEW030TCU BKN040 25/24 Q1015","temp":25,"dewp":24,"wdir":130,"wspd":7,"visib":"6+","altim":1015,"clouds":[{"cover":"FEW","base":1300},{"cover":"FEW","base":3000},{"cover":"BKN","base":4000}],"obsTime":1784728800},"SBSV":{"icaoId":"SBSV","flightCategory":"VFR","rawOb":"METAR SBSV 221400Z 11009KT 070V150 9999 SCT023 BKN090 27/20 Q1017","temp":27,"dewp":20,"wdir":110,"wspd":9,"visib":"6+","altim":1017,"clouds":[{"cover":"SCT","base":2300},{"cover":"BKN","base":9000}],"obsTime":1784728800},"SBCZ":{"icaoId":"SBCZ","flightCategory":"VFR","rawOb":"METAR SBCZ 221400Z 31007KT 9999 SCT010 SCT100 27/25 Q1014","temp":27,"dewp":25,"wdir":310,"wspd":7,"visib":"6+","altim":1014,"clouds":[{"cover":"SCT","base":1000},{"cover":"SCT","base":10000}],"obsTime":1784728800},"SBNT":{"icaoId":"SBNT","flightCategory":"VFR","rawOb":"METAR SBNT 221400Z 14007KT 9999 VCSH SCT013 SCT017 FEW025TCU BKN070 26/24 Q1014","temp":26,"dewp":24,"wdir":140,"wspd":7,"visib":"6+","altim":1014,"clouds":[{"cover":"SCT","base":1300},{"cover":"SCT","base":1700},{"cover":"FEW","base":2500},{"cover":"BKN","base":7000}],"obsTime":1784728800},"SBBV":{"icaoId":"SBBV","flightCategory":"VFR","rawOb":"METAR SBBV 221400Z 09007KT 9999 SCT020 28/23 Q1013","temp":28,"dewp":23,"wdir":90,"wspd":7,"visib":"6+","altim":1013,"clouds":[{"cover":"SCT","base":2000}],"obsTime":1784728800},"SBBR":{"icaoId":"SBBR","flightCategory":"VFR","rawOb":"METAR SBBR 221400Z VRB04KT CAVOK 25/11 Q1022","temp":25,"dewp":11,"wdir":"VRB","wspd":4,"visib":"6+","altim":1022,"clouds":[],"obsTime":1784728800},"SBPA":{"icaoId":"SBPA","flightCategory":"IFR","rawOb":"METAR SBPA 221400Z VRB02KT 4000 -DZ BR BKN005 OVC017 17/17 Q1012","temp":17,"dewp":17,"wdir":"VRB","wspd":2,"visib":2.49,"altim":1012,"clouds":[{"cover":"BKN","base":500},{"cover":"OVC","base":1700}],"obsTime":1784728800},"SBPJ":{"icaoId":"SBPJ","flightCategory":"VFR","rawOb":"METAR SBPJ 221400Z 23006KT CAVOK 29/20 Q1015","temp":29,"dewp":20,"wdir":230,"wspd":6,"visib":"6+","altim":1015,"clouds":[],"obsTime":1784728800},"SBKP":{"icaoId":"SBKP","flightCategory":"VFR","rawOb":"METAR SBKP 221400Z 36008KT 320V030 CAVOK 25/10 Q1018","temp":25,"dewp":10,"wdir":360,"wspd":8,"visib":"6+","altim":1018,"clouds":[],"obsTime":1784728800},"SBMA":{"icaoId":"SBMA","flightCategory":"MVFR","rawOb":"METAR SBMA 221400Z 02003KT 9999 BKN015 30/23 Q1013","temp":30,"dewp":23,"wdir":20,"wspd":3,"visib":"6+","altim":1013,"clouds":[{"cover":"BKN","base":1500}],"obsTime":1784728800},"SBGR":{"icaoId":"SBGR","flightCategory":"VFR","rawOb":"METAR SBGR 221400Z 18009KT 9999 FEW025 21/14 Q1020","temp":21,"dewp":14,"wdir":180,"wspd":9,"visib":"6+","altim":1020,"clouds":[{"cover":"FEW","base":2500}],"obsTime":1784728800},"SBGO":{"icaoId":"SBGO","flightCategory":"VFR","rawOb":"METAR SBGO 221400Z 35002KT 9999 FEW049 28/12 Q1020","temp":28,"dewp":12,"wdir":350,"wspd":2,"visib":"6+","altim":1020,"clouds":[{"cover":"FEW","base":4900}],"obsTime":1784728800},"SBMQ":{"icaoId":"SBMQ","flightCategory":"MVFR","rawOb":"METAR SBMQ 221400Z 05010KT 9999 BKN020 SCT030 30/24 Q1014","temp":30,"dewp":24,"wdir":50,"wspd":10,"visib":"6+","altim":1014,"clouds":[{"cover":"BKN","base":2000},{"cover":"SCT","base":3000}],"obsTime":1784728800},"SBEG":{"icaoId":"SBEG","flightCategory":"VFR","rawOb":"METAR SBEG 221400Z 05005KT CAVOK 31/23 Q1013","temp":31,"dewp":23,"wdir":50,"wspd":5,"visib":"6+","altim":1013,"clouds":[],"obsTime":1784728800},"SBFL":{"icaoId":"SBFL","flightCategory":"MVFR","rawOb":"METAR SBFL 221400Z 28011KT 240V310 9999 BKN025 OVC100 19/17 Q1012","temp":19,"dewp":17,"wdir":280,"wspd":11,"visib":"6+","altim":1012,"clouds":[{"cover":"BKN","base":2500},{"cover":"OVC","base":10000}],"obsTime":1784728800},"SBCR":{"icaoId":"SBCR","flightCategory":"VFR","rawOb":"METAR SBCR 221400Z 31005KT 270V360 9999 FEW040 BKN100 30/21 Q1013","temp":30,"dewp":21,"wdir":310,"wspd":5,"visib":"6+","altim":1013,"clouds":[{"cover":"FEW","base":4000},{"cover":"BKN","base":10000}],"obsTime":1784728800},"SBMG":{"icaoId":"SBMG","flightCategory":"VFR","rawOb":"METAR SBMG 221400Z 04012KT 9999 FEW025 BKN090 22/14 Q1014","temp":22,"dewp":14,"wdir":40,"wspd":12,"visib":"6+","altim":1014,"clouds":[{"cover":"FEW","base":2500},{"cover":"BKN","base":9000}],"obsTime":1784728800},"SBIL":{"icaoId":"SBIL","flightCategory":"VFR","rawOb":"METAR SBIL 221400Z 12002KT 9999 FEW020 BKN050 25/21 Q1018","temp":25,"dewp":21,"wdir":120,"wspd":2,"visib":"6+","altim":1018,"clouds":[{"cover":"FEW","base":2000},{"cover":"BKN","base":5000}],"obsTime":1784728800},"SBJU":{"icaoId":"SBJU","flightCategory":"VFR","rawOb":"METAR SBJU 221400Z 18012KT 9999 FEW022 31/18 Q1016","temp":31,"dewp":18,"wdir":180,"wspd":12,"visib":"6+","altim":1016,"clouds":[{"cover":"FEW","base":2200}],"obsTime":1784728800},"SBAT":{"icaoId":"SBAT","flightCategory":"VFR","rawOb":"METAR SBAT 221400Z 16002KT CAVOK 32/19 Q1015","temp":32,"dewp":19,"wdir":160,"wspd":2,"visib":"6+","altim":1015,"clouds":[],"obsTime":1784728800},"SBHT":{"icaoId":"SBHT","flightCategory":"MVFR","rawOb":"METAR SBHT 221400Z 11009KT 9999 BKN020 28/25 Q1014","temp":28,"dewp":25,"wdir":110,"wspd":9,"visib":"6+","altim":1014,"clouds":[{"cover":"BKN","base":2000}],"obsTime":1784728800},"SBME":{"icaoId":"SBME","flightCategory":"VFR","rawOb":"METAR SBME 221400Z 31007KT CAVOK 30/16 Q1015","temp":30,"dewp":16,"wdir":310,"wspd":7,"visib":"6+","altim":1015,"clouds":[],"obsTime":1784728800},"SBMK":{"icaoId":"SBMK","flightCategory":"VFR","rawOb":"METAR SBMK 221400Z 10005KT CAVOK 25/14 Q1021","temp":25,"dewp":14,"wdir":100,"wspd":5,"visib":"6+","altim":1021,"clouds":[],"obsTime":1784728800},"SBUL":{"icaoId":"SBUL","flightCategory":"VFR","rawOb":"METAR SBUL 221400Z 06011KT CAVOK 24/11 Q1021","temp":24,"dewp":11,"wdir":60,"wspd":11,"visib":"6+","altim":1021,"clouds":[],"obsTime":1784728800},"SBUR":{"icaoId":"SBUR","flightCategory":"VFR","rawOb":"METAR SBUR 221400Z 36010KT CAVOK 28/11 Q1019","temp":28,"dewp":11,"wdir":360,"wspd":10,"visib":"6+","altim":1019,"clouds":[],"obsTime":1784728800},"SBPV":{"icaoId":"SBPV","flightCategory":"VFR","rawOb":"METAR SBPV 221400Z 03005KT CAVOK 30/23 Q1013","temp":30,"dewp":23,"wdir":30,"wspd":5,"visib":"6+","altim":1013,"clouds":[],"obsTime":1784728800},"SBSN":{"icaoId":"SBSN","flightCategory":"MVFR","rawOb":"METAR SBSN 221400Z 08017KT 9999 BKN024 30/23 Q1013","temp":30,"dewp":23,"wdir":80,"wspd":17,"visib":"6+","altim":1013,"clouds":[{"cover":"BKN","base":2400}],"obsTime":1784728800},"SBCT":{"icaoId":"SBCT","flightCategory":"MVFR","rawOb":"METAR SBCT 221400Z 24003KT 5000 -DZ BR SCT010 BKN013 OVC040 14/13 Q1020","temp":14,"dewp":13,"wdir":240,"wspd":3,"visib":3.11,"altim":1020,"clouds":[{"cover":"SCT","base":1000},{"cover":"BKN","base":1300},{"cover":"OVC","base":4000}],"obsTime":1784728800},"SBCG":{"icaoId":"SBCG","flightCategory":"VFR","rawOb":"METAR SBCG 221400Z 33013KT 9999 FEW030 BKN100 28/15 Q1015","temp":28,"dewp":15,"wdir":330,"wspd":13,"visib":"6+","altim":1015,"clouds":[{"cover":"FEW","base":3000},{"cover":"BKN","base":10000}],"obsTime":1784728800},"SBRB":{"icaoId":"SBRB","flightCategory":"VFR","rawOb":"METAR SBRB 221400Z 02007KT 350V050 CAVOK 30/23 Q1014","temp":30,"dewp":23,"wdir":20,"wspd":7,"visib":"6+","altim":1014,"clouds":[],"obsTime":1784728800},"SBCB":{"icaoId":"SBCB","flightCategory":"VFR","rawOb":"METAR SBCB 221400Z 06010KT CAVOK 28/18 Q1015","temp":28,"dewp":18,"wdir":60,"wspd":10,"visib":"6+","altim":1015,"clouds":[],"obsTime":1784728800},"SBFI":{"icaoId":"SBFI","flightCategory":"IFR","rawOb":"SPECI SBFI 221332Z 27007G19KT 7000 -TSRA BKN005 BKN015 FEW035CB 18/18 Q1012 RERA","temp":18,"dewp":18,"wdir":270,"wspd":7,"visib":4.35,"altim":1012,"clouds":[{"cover":"BKN","base":500},{"cover":"BKN","base":1500},{"cover":"FEW","base":3500}],"obsTime":1784727120},"SBSP":{"icaoId":"SBSP","flightCategory":"MVFR","rawOb":"METAR SBSP 221400Z 17011KT 9999 BKN016 20/15 Q1020","temp":20,"dewp":15,"wdir":170,"wspd":11,"visib":"6+","altim":1020,"clouds":[{"cover":"BKN","base":1600}],"obsTime":1784728800},"SBTE":{"icaoId":"SBTE","flightCategory":"VFR","rawOb":"METAR SBTE 221400Z 12007KT 9999 BKN040 31/21 Q1013","temp":31,"dewp":21,"wdir":120,"wspd":7,"visib":"6+","altim":1013,"clouds":[{"cover":"BKN","base":4000}],"obsTime":1784728800},"SBCP":{"icaoId":"SBCP","flightCategory":"VFR","rawOb":"METAR SBCP 221400Z 01009KT CAVOK 29/17 Q1016","temp":29,"dewp":17,"wdir":10,"wspd":9,"visib":"6+","altim":1016,"clouds":[],"obsTime":1784728800},"SBVT":{"icaoId":"SBVT","flightCategory":"VFR","rawOb":"METAR SBVT 221400Z 36007KT 9999 FEW040 28/17 Q1018","temp":28,"dewp":17,"wdir":360,"wspd":7,"visib":"6+","altim":1018,"clouds":[{"cover":"FEW","base":4000}],"obsTime":1784728800},"SBDN":{"icaoId":"SBDN","flightCategory":"VFR","rawOb":"METAR SBDN 221400Z 02008KT CAVOK 26/13 Q1015","temp":26,"dewp":13,"wdir":20,"wspd":8,"visib":"6+","altim":1015,"clouds":[],"obsTime":1784728800},"SBUY":{"icaoId":"SBUY","flightCategory":"VFR","rawOb":"METAR SBUY 221400Z 09002KT CAVOK 29/25 Q1012","temp":29,"dewp":25,"wdir":90,"wspd":2,"visib":"6+","altim":1012,"clouds":[],"obsTime":1784728800},"SBCJ":{"icaoId":"SBCJ","flightCategory":"VFR","rawOb":"METAR SBCJ 221400Z VRB04KT 9999 SCT009 SCT015 24/20 Q1017","temp":24,"dewp":20,"wdir":"VRB","wspd":4,"visib":"6+","altim":1017,"clouds":[{"cover":"SCT","base":900},{"cover":"SCT","base":1500}],"obsTime":1784728800},"SBPS":{"icaoId":"SBPS","flightCategory":"VFR","rawOb":"METAR SBPS 221400Z 06007KT 030V100 9999 SCT025 BKN070 26/20 Q1019","temp":26,"dewp":20,"wdir":60,"wspd":7,"visib":"6+","altim":1019,"clouds":[{"cover":"SCT","base":2500},{"cover":"BKN","base":7000}],"obsTime":1784728800},"SBOI":{"icaoId":"SBOI","flightCategory":"VFR","rawOb":"METAR SBOI 221400Z AUTO VRB03KT 9999 SCT033 30/22 Q1013","temp":30,"dewp":22,"wdir":"VRB","wspd":3,"visib":"6+","altim":1013,"clouds":[{"cover":"SCT","base":3300}],"obsTime":1784728800},"SBAR":{"icaoId":"SBAR","flightCategory":"VFR","rawOb":"METAR SBAR 221400Z 05007KT 010V090 9999 -RA SCT015 SCT020 BKN035 26/23 Q1016","temp":26,"dewp":23,"wdir":50,"wspd":7,"visib":"6+","altim":1016,"clouds":[{"cover":"SCT","base":1500},{"cover":"SCT","base":2000},{"cover":"BKN","base":3500}],"obsTime":1784728800},"SBTF":{"icaoId":"SBTF","flightCategory":"VFR","rawOb":"METAR SBTF 221400Z 02008KT 9999 FEW010 SCT040 31/27 Q1012","temp":31,"dewp":27,"wdir":20,"wspd":8,"visib":"6+","altim":1012,"clouds":[{"cover":"FEW","base":1000},{"cover":"SCT","base":4000}],"obsTime":1784728800},"SBPL":{"icaoId":"SBPL","flightCategory":"VFR","rawOb":"METAR SBPL 221400Z 10008KT 9999 FEW025 30/18 Q1016","temp":30,"dewp":18,"wdir":100,"wspd":8,"visib":"6+","altim":1016,"clouds":[{"cover":"FEW","base":2500}],"obsTime":1784728800},"SBTT":{"icaoId":"SBTT","flightCategory":"VFR","rawOb":"METAR SBTT 221400Z VRB01KT 9999 FEW009 BKN090 26/24 Q1014","temp":26,"dewp":24,"wdir":"VRB","wspd":1,"visib":"6+","altim":1014,"clouds":[{"cover":"FEW","base":900},{"cover":"BKN","base":9000}],"obsTime":1784728800},"SBSJ":{"icaoId":"SBSJ","flightCategory":"VFR","rawOb":"METAR SBSJ 221400Z COR 18009KT 090V210 9999 FEW026 24/12 Q1018","temp":24,"dewp":12,"wdir":180,"wspd":9,"visib":"6+","altim":1018,"clouds":[{"cover":"FEW","base":2600}],"obsTime":1784728800},"SBTD":{"icaoId":"SBTD","flightCategory":"MVFR","rawOb":"METAR SBTD 221400Z /////KT 5000 -TSRA BR FEW001 BKN015 FEW030CB OVC070 17/17 Q1015","temp":17,"dewp":17,"wdir":null,"wspd":null,"visib":3.11,"altim":1015,"clouds":[{"cover":"FEW","base":100},{"cover":"BKN","base":1500},{"cover":"FEW","base":3000},{"cover":"OVC","base":7000}],"obsTime":1784728800},"SBCO":{"icaoId":"SBCO","flightCategory":"LIFR","rawOb":"METAR SBCO 221400Z 16002KT 3000 -DZ BR BKN004 BKN009 OVC021 17/16 Q1013","temp":17,"dewp":16,"wdir":160,"wspd":2,"visib":1.86,"altim":1013,"clouds":[{"cover":"BKN","base":400},{"cover":"BKN","base":900},{"cover":"OVC","base":2100}],"obsTime":1784728800},"SBSM":{"icaoId":"SBSM","flightCategory":"IFR","rawOb":"METAR SBSM 221400Z 18002KT 9999 -RA BKN005 OVC017 16/16 Q1013","temp":16,"dewp":16,"wdir":180,"wspd":2,"visib":"6+","altim":1013,"clouds":[{"cover":"BKN","base":500},{"cover":"OVC","base":1700}],"obsTime":1784728800},"SBPP":{"icaoId":"SBPP","flightCategory":"VFR","rawOb":"METAR SBPP 221400Z 25010KT 9999 FEW015 BKN070 23/20 Q1015","temp":23,"dewp":20,"wdir":250,"wspd":10,"visib":"6+","altim":1015,"clouds":[{"cover":"FEW","base":1500},{"cover":"BKN","base":7000}],"obsTime":1784728800},"SBKG":{"icaoId":"SBKG","flightCategory":"VFR","rawOb":"METAR SBKG 221400Z 12009KT 9999 SCT018 26/21 Q1017","temp":26,"dewp":21,"wdir":120,"wspd":9,"visib":"6+","altim":1017,"clouds":[{"cover":"SCT","base":1800}],"obsTime":1784728800},"SBTU":{"icaoId":"SBTU","flightCategory":"MVFR","rawOb":"METAR SBTU 221400Z AUTO 21007KT 160V250 9999 // BKN014/// BKN018/// ///// Q1015","temp":null,"dewp":null,"wdir":210,"wspd":7,"visib":"6+","altim":1015,"clouds":[{"cover":"BKN","base":1400},{"cover":"BKN","base":1800}],"obsTime":1784728800},"SBCC":{"icaoId":"SBCC","flightCategory":"VFR","rawOb":"METAR SBCC 221400Z 06010KT 020V120 9999 FEW040 31/15 Q1017","temp":31,"dewp":15,"wdir":60,"wspd":10,"visib":"6+","altim":1017,"clouds":[{"cover":"FEW","base":4000}],"obsTime":1784728800},"SBPB":{"icaoId":"SBPB","flightCategory":"VFR","rawOb":"METAR SBPB 221400Z 07015KT 9999 FEW020 30/23 Q1012","temp":30,"dewp":23,"wdir":70,"wspd":15,"visib":"6+","altim":1012,"clouds":[{"cover":"FEW","base":2000}],"obsTime":1784728800},"SBGM":{"icaoId":"SBGM","flightCategory":"VFR","rawOb":"METAR SBGM 221400Z 33008KT CAVOK 32/17 Q1013","temp":32,"dewp":17,"wdir":330,"wspd":8,"visib":"6+","altim":1013,"clouds":[],"obsTime":1784728800},"SBVH":{"icaoId":"SBVH","flightCategory":"VFR","rawOb":"METAR SBVH 221400Z 33008KT CAVOK 29/19 Q1017","temp":29,"dewp":19,"wdir":330,"wspd":8,"visib":"6+","altim":1017,"clouds":[],"obsTime":1784728800},"SBES":{"icaoId":"SBES","flightCategory":"VFR","rawOb":"METAR SBES 221400Z 04005KT 330V110 CAVOK 28/// Q1015","temp":null,"dewp":null,"wdir":40,"wspd":5,"visib":"6+","altim":1015,"clouds":[],"obsTime":1784728800},"SBAX":{"icaoId":"SBAX","flightCategory":"VFR","rawOb":"METAR SBAX 221400Z 01005KT CAVOK 24/11 Q1021","temp":24,"dewp":11,"wdir":10,"wspd":5,"visib":"6+","altim":1021,"clouds":[],"obsTime":1784728800},"SBSR":{"icaoId":"SBSR","flightCategory":"VFR","rawOb":"METAR SBSR 221400Z 04006KT 330V090 CAVOK 26/12 Q1017","temp":26,"dewp":12,"wdir":40,"wspd":6,"visib":"6+","altim":1017,"clouds":[],"obsTime":1784728800},"SBBH":{"icaoId":"SBBH","flightCategory":"VFR","rawOb":"METAR SBBH 221400Z 03004KT 9999 SCT049 23/14 Q1021","temp":23,"dewp":14,"wdir":30,"wspd":4,"visib":"6+","altim":1021,"clouds":[{"cover":"SCT","base":4900}],"obsTime":1784728800},"SBSC":{"icaoId":"SBSC","flightCategory":"VFR","rawOb":"METAR SBSC 221400Z 36015KT CAVOK 29/17 Q1014","temp":29,"dewp":17,"wdir":360,"wspd":15,"visib":"6+","altim":1014,"clouds":[],"obsTime":1784728800},"SBBQ":{"icaoId":"SBBQ","flightCategory":"VFR","rawOb":"METAR SBBQ 221400Z 30007KT 250V340 9999 FEW030 BKN100 22/09 Q1023","temp":22,"dewp":9,"wdir":300,"wspd":7,"visib":"6+","altim":1023,"clouds":[{"cover":"FEW","base":3000},{"cover":"BKN","base":10000}],"obsTime":1784728800},"SBIP":{"icaoId":"SBIP","flightCategory":"VFR","rawOb":"METAR SBIP 221400Z AUTO 05008KT 010V080 9999 FEW031 26/17 Q1020","temp":26,"dewp":17,"wdir":50,"wspd":8,"visib":"6+","altim":1020,"clouds":[{"cover":"FEW","base":3100}],"obsTime":1784728800},"SBBU":{"icaoId":"SBBU","flightCategory":"VFR","rawOb":"METAR SBBU 221400Z 33011KT CAVOK 27/12 Q1018","temp":27,"dewp":12,"wdir":330,"wspd":11,"visib":"6+","altim":1018,"clouds":[],"obsTime":1784728800},"SBCA":{"icaoId":"SBCA","flightCategory":"IFR","rawOb":"METAR SBCA 221400Z 15010KT 4000 -TSRA BR SCT004 BKN014 FEW030CB OVC070 16/16 Q1017","temp":16,"dewp":16,"wdir":150,"wspd":10,"visib":2.49,"altim":1017,"clouds":[{"cover":"SCT","base":400},{"cover":"BKN","base":1400},{"cover":"FEW","base":3000},{"cover":"OVC","base":7000}],"obsTime":1784728800},"SBAU":{"icaoId":"SBAU","flightCategory":"VFR","rawOb":"METAR SBAU 221400Z 03010KT CAVOK 29/13 Q1016","temp":29,"dewp":13,"wdir":30,"wspd":10,"visib":"6+","altim":1016,"clouds":[],"obsTime":1784728800},"SBLE":{"icaoId":"SBLE","flightCategory":"IFR","rawOb":"METAR SBLE 221400Z AUTO 15004KT 110V200 9999 OVC007 ///// Q1020","temp":null,"dewp":null,"wdir":150,"wspd":4,"visib":"6+","altim":1020,"clouds":[{"cover":"OVC","base":700}],"obsTime":1784728800},"SBST":{"icaoId":"SBST","flightCategory":"VFR","rawOb":"METAR SBST 221400Z 30005KT 270V330 9999 BKN033 OVC049 22/16 Q1018","temp":22,"dewp":16,"wdir":300,"wspd":5,"visib":"6+","altim":1018,"clouds":[{"cover":"BKN","base":3300},{"cover":"OVC","base":4900}],"obsTime":1784728800},"SBTA":{"icaoId":"SBTA","flightCategory":"VFR","rawOb":"METAR SBTA 221400Z VRB01KT CAVOK 26/13 Q1017","temp":26,"dewp":13,"wdir":"VRB","wspd":1,"visib":"6+","altim":1017,"clouds":[],"obsTime":1784728800},"SBJV":{"icaoId":"SBJV","flightCategory":"VFR","rawOb":"METAR SBJV 221400Z 34005KT 9999 -RA FEW004 SCT040 OVC100 19/18 Q1015","temp":19,"dewp":18,"wdir":340,"wspd":5,"visib":"6+","altim":1015,"clouds":[{"cover":"FEW","base":400},{"cover":"SCT","base":4000},{"cover":"OVC","base":10000}],"obsTime":1784728800},"SBIH":{"icaoId":"SBIH","flightCategory":"VFR","rawOb":"METAR SBIH 221400Z 08006KT 9999 SCT015 30/25 Q1013","temp":30,"dewp":25,"wdir":80,"wspd":6,"visib":"6+","altim":1013,"clouds":[{"cover":"SCT","base":1500}],"obsTime":1784728800},"SBNM":{"icaoId":"SBNM","flightCategory":"LIFR","rawOb":"METAR SBNM 221400Z 23006KT 1600 -DZ BR SCT002 OVC005 18/17 Q1012","temp":18,"dewp":17,"wdir":230,"wspd":6,"visib":0.99,"altim":1012,"clouds":[{"cover":"SCT","base":200},{"cover":"OVC","base":500}],"obsTime":1784728800},"SBAF":{"icaoId":"SBAF","flightCategory":"VFR","rawOb":"METAR SBAF 221400Z 36009KT CAVOK 31/15 Q1014","temp":31,"dewp":15,"wdir":360,"wspd":9,"visib":"6+","altim":1014,"clouds":[],"obsTime":1784728800},"SBGW":{"icaoId":"SBGW","flightCategory":"VFR","rawOb":"METAR SBGW 221400Z 06006KT CAVOK 27/11 Q1017","temp":27,"dewp":11,"wdir":60,"wspd":6,"visib":"6+","altim":1017,"clouds":[],"obsTime":1784728800},"SBAN":{"icaoId":"SBAN","flightCategory":"VFR","rawOb":"METAR SBAN 221400Z VRB04KT 9999 FEW030 26/10 Q1022","temp":26,"dewp":10,"wdir":"VRB","wspd":4,"visib":"6+","altim":1022,"clouds":[{"cover":"FEW","base":3000}],"obsTime":1784728800},"SBJR":{"icaoId":"SBJR","flightCategory":"VFR","rawOb":"METAR SBJR 221400Z 02009KT CAVOK 33/15 Q1013","temp":33,"dewp":15,"wdir":20,"wspd":9,"visib":"6+","altim":1013,"clouds":[],"obsTime":1784728800},"SBLS":{"icaoId":"SBLS","flightCategory":"VFR","rawOb":"METAR SBLS 221400Z VRB03KT CAVOK 23/14 Q1021","temp":23,"dewp":14,"wdir":"VRB","wspd":3,"visib":"6+","altim":1021,"clouds":[],"obsTime":1784728800},"SBJP":{"icaoId":"SBJP","flightCategory":"MVFR","rawOb":"METAR SBJP 221400Z 11014KT 9999 BKN020 27/24 Q1015","temp":27,"dewp":24,"wdir":110,"wspd":14,"visib":"6+","altim":1015,"clouds":[{"cover":"BKN","base":2000}],"obsTime":1784728800},"SBMT":{"icaoId":"SBMT","flightCategory":"VFR","rawOb":"METAR SBMT 221400Z 15007KT 110V190 9999 FEW023 20/12 Q1020","temp":20,"dewp":12,"wdir":150,"wspd":7,"visib":"6+","altim":1020,"clouds":[{"cover":"FEW","base":2300}],"obsTime":1784728800},"SBPF":{"icaoId":"SBPF","flightCategory":"VFR","rawOb":"METAR SBPF 221400Z 01010KT CAVOK 17/15 Q1013","temp":17,"dewp":15,"wdir":10,"wspd":10,"visib":"6+","altim":1013,"clouds":[],"obsTime":1784728800}}}