{"updated":1775423996,"count":81,"data":{"SBVT":{"icaoId":"SBVT","flightCategory":"VFR","rawOb":"METAR SBVT 052000Z 06010KT CAVOK 27/23 Q1013","temp":27,"dewp":23,"wdir":60,"wspd":10,"visib":"6+","altim":1013,"clouds":[],"obsTime":1775419200},"SBAT":{"icaoId":"SBAT","flightCategory":"VFR","rawOb":"METAR SBAT 052000Z 28001KT 9999 VCSH FEW033TCU SCT100 28/23 Q1010","temp":28,"dewp":23,"wdir":280,"wspd":1,"visib":"6+","altim":1010,"clouds":[{"cover":"FEW","base":3300},{"cover":"SCT","base":10000}],"obsTime":1775419200},"SBBE":{"icaoId":"SBBE","flightCategory":"MVFR","rawOb":"METAR SBBE 052000Z 14004KT 9999 BKN020 FEW025TCU BKN100 27/27 Q1010","temp":27,"dewp":27,"wdir":140,"wspd":4,"visib":"6+","altim":1010,"clouds":[{"cover":"BKN","base":2000},{"cover":"FEW","base":2500},{"cover":"BKN","base":10000}],"obsTime":1775419200},"SBBR":{"icaoId":"SBBR","flightCategory":"VFR","rawOb":"METAR SBBR 052000Z 06007KT 030V110 9999 FEW045 FEW050TCU SCT090 28/16 Q1016","temp":28,"dewp":16,"wdir":60,"wspd":7,"visib":"6+","altim":1016,"clouds":[{"cover":"FEW","base":4500},{"cover":"FEW","base":5000},{"cover":"SCT","base":9000}],"obsTime":1775419200},"SBBV":{"icaoId":"SBBV","flightCategory":"MVFR","rawOb":"METAR SBBV 052000Z 14006KT 9999 BKN030 FEW035TCU SCT100 31/21 Q1009","temp":31,"dewp":21,"wdir":140,"wspd":6,"visib":"6+","altim":1009,"clouds":[{"cover":"BKN","base":3000},{"cover":"FEW","base":3500},{"cover":"SCT","base":10000}],"obsTime":1775419200},"SBCB":{"icaoId":"SBCB","flightCategory":"VFR","rawOb":"METAR SBCB 052000Z 21005KT 9999 FEW025TCU 27/23 Q1014","temp":27,"dewp":23,"wdir":210,"wspd":5,"visib":"6+","altim":1014,"clouds":[{"cover":"FEW","base":2500}],"obsTime":1775419200},"SBCF":{"icaoId":"SBCF","flightCategory":"VFR","rawOb":"METAR SBCF 052000Z 07004KT 9999 BKN040 FEW040TCU 28/19 Q1018","temp":28,"dewp":19,"wdir":70,"wspd":4,"visib":"6+","altim":1018,"clouds":[{"cover":"BKN","base":4000},{"cover":"FEW","base":4000}],"obsTime":1775419200},"SBCG":{"icaoId":"SBCG","flightCategory":"VFR","rawOb":"METAR SBCG 052000Z 01004KT 340V050 9999 VCSH VCTS FEW035 FEW045CB BKN100 26/20 Q1014","temp":26,"dewp":20,"wdir":10,"wspd":4,"visib":"6+","altim":1014,"clouds":[{"cover":"FEW","base":3500},{"cover":"FEW","base":4500},{"cover":"BKN","base":10000}],"obsTime":1775419200},"SBCP":{"icaoId":"SBCP","flightCategory":"VFR","rawOb":"METAR SBCP 052000Z 08009KT 9999 FEW020 27/23 Q1013","temp":27,"dewp":23,"wdir":80,"wspd":9,"visib":"6+","altim":1013,"clouds":[{"cover":"FEW","base":2000}],"obsTime":1775419200},"SBCR":{"icaoId":"SBCR","flightCategory":"VFR","rawOb":"METAR SBCR 052000Z VRB02KT 9999 FEW030 31/22 Q1009","temp":31,"dewp":22,"wdir":"VRB","wspd":2,"visib":"6+","altim":1009,"clouds":[{"cover":"FEW","base":3000}],"obsTime":1775419200},"SBCT":{"icaoId":"SBCT","flightCategory":"MVFR","rawOb":"METAR SBCT 052000Z 10009KT 9999 BKN013 22/19 Q1020","temp":22,"dewp":19,"wdir":100,"wspd":9,"visib":"6+","altim":1020,"clouds":[{"cover":"BKN","base":1300}],"obsTime":1775419200},"SBCZ":{"icaoId":"SBCZ","flightCategory":"VFR","rawOb":"METAR SBCZ 052000Z 24005KT 9999 FEW030 BKN100 24/24 Q1009 RETS","temp":24,"dewp":24,"wdir":240,"wspd":5,"visib":"6+","altim":1009,"clouds":[{"cover":"FEW","base":3000},{"cover":"BKN","base":10000}],"obsTime":1775419200},"SBEG":{"icaoId":"SBEG","flightCategory":"VFR","rawOb":"METAR SBEG 052000Z 35005KT 9999 SCT025 31/22 Q1008","temp":31,"dewp":22,"wdir":350,"wspd":5,"visib":"6+","altim":1008,"clouds":[{"cover":"SCT","base":2500}],"obsTime":1775419200},"SBFI":{"icaoId":"SBFI","flightCategory":"VFR","rawOb":"METAR SBFI 052000Z 30003KT 9999 SCT030 FEW035TCU SCT100 34/19 Q1011","temp":34,"dewp":19,"wdir":300,"wspd":3,"visib":"6+","altim":1011,"clouds":[{"cover":"SCT","base":3000},{"cover":"FEW","base":3500},{"cover":"SCT","base":10000}],"obsTime":1775419200},"SBFL":{"icaoId":"SBFL","flightCategory":"IFR","rawOb":"METAR SBFL 052000Z 19013KT 4000 -RA FEW006 BKN012 OVC023 22/22 Q1017","temp":22,"dewp":22,"wdir":190,"wspd":13,"visib":2.49,"altim":1017,"clouds":[{"cover":"FEW","base":600},{"cover":"BKN","base":1200},{"cover":"OVC","base":2300}],"obsTime":1775419200},"SBFZ":{"icaoId":"SBFZ","flightCategory":"MVFR","rawOb":"METAR SBFZ 052000Z 08009KT 7000 -RA FEW008 BKN020 FEW025TCU OVC060 26/24 Q1010","temp":26,"dewp":24,"wdir":80,"wspd":9,"visib":4.35,"altim":1010,"clouds":[{"cover":"FEW","base":800},{"cover":"BKN","base":2000},{"cover":"FEW","base":2500},{"cover":"OVC","base":6000}],"obsTime":1775419200},"SBGL":{"icaoId":"SBGL","flightCategory":"VFR","rawOb":"METAR SBGL 052000Z 36004KT 9999 SCT045 27/22 Q1014","temp":27,"dewp":22,"wdir":360,"wspd":4,"visib":"6+","altim":1014,"clouds":[{"cover":"SCT","base":4500}],"obsTime":1775419200},"SBGO":{"icaoId":"SBGO","flightCategory":"VFR","rawOb":"METAR SBGO 052000Z 08004KT 030V130 9999 FEW045 FEW050TCU 31/19 Q1014","temp":31,"dewp":19,"wdir":80,"wspd":4,"visib":"6+","altim":1014,"clouds":[{"cover":"FEW","base":4500},{"cover":"FEW","base":5000}],"obsTime":1775419200},"SBGR":{"icaoId":"SBGR","flightCategory":"VFR","rawOb":"METAR SBGR 052000Z 13007KT 9999 SCT026 26/19 Q1018","temp":26,"dewp":19,"wdir":130,"wspd":7,"visib":"6+","altim":1018,"clouds":[{"cover":"SCT","base":2600}],"obsTime":1775419200},"SBHT":{"icaoId":"SBHT","flightCategory":"VFR","rawOb":"METAR SBHT 052000Z 00000KT 9999 SCT015 BKN090 26/24 Q1010","temp":26,"dewp":24,"wdir":0,"wspd":0,"visib":"6+","altim":1010,"clouds":[{"cover":"SCT","base":1500},{"cover":"BKN","base":9000}],"obsTime":1775419200},"SBIL":{"icaoId":"SBIL","flightCategory":"VFR","rawOb":"METAR SBIL 052000Z 14007KT 9999 SCT020 29/24 Q1013","temp":29,"dewp":24,"wdir":140,"wspd":7,"visib":"6+","altim":1013,"clouds":[{"cover":"SCT","base":2000}],"obsTime":1775419200},"SBJU":{"icaoId":"SBJU","flightCategory":"VFR","rawOb":"METAR SBJU 052000Z 00000KT 9999 FEW020 29/22 Q1012","temp":29,"dewp":22,"wdir":0,"wspd":0,"visib":"6+","altim":1012,"clouds":[{"cover":"FEW","base":2000}],"obsTime":1775419200},"SBKP":{"icaoId":"SBKP","flightCategory":"VFR","rawOb":"METAR SBKP 052000Z 13012KT 9999 SCT045 FEW050TCU 30/19 Q1016","temp":30,"dewp":19,"wdir":130,"wspd":12,"visib":"6+","altim":1016,"clouds":[{"cover":"SCT","base":4500},{"cover":"FEW","base":5000}],"obsTime":1775419200},"SBLO":{"icaoId":"SBLO","flightCategory":"VFR","rawOb":"METAR SBLO 052000Z 14004KT 090V180 9999 SCT030 31/18 Q1014","temp":31,"dewp":18,"wdir":140,"wspd":4,"visib":"6+","altim":1014,"clouds":[{"cover":"SCT","base":3000}],"obsTime":1775419200},"SBMA":{"icaoId":"SBMA","flightCategory":"VFR","rawOb":"METAR SBMA 052000Z 24003KT 9999 FEW020 31/25 Q1008","temp":31,"dewp":25,"wdir":240,"wspd":3,"visib":"6+","altim":1008,"clouds":[{"cover":"FEW","base":2000}],"obsTime":1775419200},"SBME":{"icaoId":"SBME","flightCategory":"VFR","rawOb":"METAR SBME 052000Z 34003KT 280V360 9999 FEW040TCU BKN050 26/22 Q1014 RETS","temp":26,"dewp":22,"wdir":340,"wspd":3,"visib":"6+","altim":1014,"clouds":[{"cover":"FEW","base":4000},{"cover":"BKN","base":5000}],"obsTime":1775419200},"SBMG":{"icaoId":"SBMG","flightCategory":"VFR","rawOb":"METAR SBMG 052000Z 13007KT 9999 FEW050TCU SCT060 32/19 Q1012","temp":32,"dewp":19,"wdir":130,"wspd":7,"visib":"6+","altim":1012,"clouds":[{"cover":"FEW","base":5000},{"cover":"SCT","base":6000}],"obsTime":1775419200},"SBMK":{"icaoId":"SBMK","flightCategory":"VFR","rawOb":"METAR SBMK 052000Z 08005KT 9999 FEW034 FEW038TCU 30/18 Q1015","temp":30,"dewp":18,"wdir":80,"wspd":5,"visib":"6+","altim":1015,"clouds":[{"cover":"FEW","base":3400},{"cover":"FEW","base":3800}],"obsTime":1775419200},"SBMO":{"icaoId":"SBMO","flightCategory":"MVFR","rawOb":"SPECI SBMO 051935Z 06007KT 5000 -RA BR FEW006 BKN020 OVC040 24/24 Q1012 RERA","temp":24,"dewp":24,"wdir":60,"wspd":7,"visib":3.11,"altim":1012,"clouds":[{"cover":"FEW","base":600},{"cover":"BKN","base":2000},{"cover":"OVC","base":4000}],"obsTime":1775417700},"SBMQ":{"icaoId":"SBMQ","flightCategory":"VFR","rawOb":"METAR SBMQ 052000Z 04002KT 9999 FEW027 30/24 Q1009","temp":30,"dewp":24,"wdir":40,"wspd":2,"visib":"6+","altim":1009,"clouds":[{"cover":"FEW","base":2700}],"obsTime":1775419200},"SBNT":{"icaoId":"SBNT","flightCategory":"VFR","rawOb":"METAR SBNT 052000Z 11010KT 9999 VCSH SCT024 FEW033TCU SCT040 BKN070 29/23 Q1011","temp":29,"dewp":23,"wdir":110,"wspd":10,"visib":"6+","altim":1011,"clouds":[{"cover":"SCT","base":2400},{"cover":"FEW","base":3300},{"cover":"SCT","base":4000},{"cover":"BKN","base":7000}],"obsTime":1775419200},"SBPA":{"icaoId":"SBPA","flightCategory":"VFR","rawOb":"METAR SBPA 052000Z 12009KT 100V160 9999 OVC035 22/15 Q1019","temp":22,"dewp":15,"wdir":120,"wspd":9,"visib":"6+","altim":1019,"clouds":[{"cover":"OVC","base":3500}],"obsTime":1775419200},"SBPJ":{"icaoId":"SBPJ","flightCategory":"VFR","rawOb":"METAR SBPJ 052000Z 25003KT 220V280 9999 SCT040 FEW045TCU 33/23 Q1009","temp":33,"dewp":23,"wdir":250,"wspd":3,"visib":"6+","altim":1009,"clouds":[{"cover":"SCT","base":4000},{"cover":"FEW","base":4500}],"obsTime":1775419200},"SBPV":{"icaoId":"SBPV","flightCategory":"MVFR","rawOb":"METAR SBPV 052000Z 11012G23KT 6000 -TSRA BKN010 BKN030 FEW035CB 28/23 Q1008","temp":28,"dewp":23,"wdir":110,"wspd":12,"visib":3.73,"altim":1008,"clouds":[{"cover":"BKN","base":1000},{"cover":"BKN","base":3000},{"cover":"FEW","base":3500}],"obsTime":1775419200},"SBRB":{"icaoId":"SBRB","flightCategory":"MVFR","rawOb":"METAR SBRB 052000Z 13004KT 9999 BKN030 31/23 Q1008","temp":31,"dewp":23,"wdir":130,"wspd":4,"visib":"6+","altim":1008,"clouds":[{"cover":"BKN","base":3000}],"obsTime":1775419200},"SBRF":{"icaoId":"SBRF","flightCategory":"IFR","rawOb":"METAR SBRF 052000Z 06002KT 4000 -RA BR SCT010 BKN015 BKN023 25/24 Q1012 RERA","temp":25,"dewp":24,"wdir":60,"wspd":2,"visib":2.49,"altim":1012,"clouds":[{"cover":"SCT","base":1000},{"cover":"BKN","base":1500},{"cover":"BKN","base":2300}],"obsTime":1775419200},"SBSG":{"icaoId":"SBSG","flightCategory":"VFR","rawOb":"METAR SBSG 052000Z 08010KT 9999 SCT030 29/24 Q1011","temp":29,"dewp":24,"wdir":80,"wspd":10,"visib":"6+","altim":1011,"clouds":[{"cover":"SCT","base":3000}],"obsTime":1775419200},"SBSL":{"icaoId":"SBSL","flightCategory":"VFR","rawOb":"METAR SBSL 052000Z 04011KT 9999 SCT017 FEW020TCU SCT100 28/25 Q1009","temp":28,"dewp":25,"wdir":40,"wspd":11,"visib":"6+","altim":1009,"clouds":[{"cover":"SCT","base":1700},{"cover":"FEW","base":2000},{"cover":"SCT","base":10000}],"obsTime":1775419200},"SBSN":{"icaoId":"SBSN","flightCategory":"VFR","rawOb":"METAR SBSN 052000Z VRB02KT 9999 FEW020 29/24 Q1009","temp":29,"dewp":24,"wdir":"VRB","wspd":2,"visib":"6+","altim":1009,"clouds":[{"cover":"FEW","base":2000}],"obsTime":1775419200},"SBSP":{"icaoId":"SBSP","flightCategory":"VFR","rawOb":"METAR SBSP 052000Z 15012KT 9999 SCT033 25/19 Q1019","temp":25,"dewp":19,"wdir":150,"wspd":12,"visib":"6+","altim":1019,"clouds":[{"cover":"SCT","base":3300}],"obsTime":1775419200},"SBSV":{"icaoId":"SBSV","flightCategory":"VFR","rawOb":"METAR SBSV 052000Z 12006KT 100V160 9999 SCT021 FEW023TCU BKN070 28/23 Q1012","temp":28,"dewp":23,"wdir":120,"wspd":6,"visib":"6+","altim":1012,"clouds":[{"cover":"SCT","base":2100},{"cover":"FEW","base":2300},{"cover":"BKN","base":7000}],"obsTime":1775419200},"SBTE":{"icaoId":"SBTE","flightCategory":"MVFR","rawOb":"METAR SBTE 052000Z 18004KT 9999 BKN020 29/24 Q1008 RETS","temp":29,"dewp":24,"wdir":180,"wspd":4,"visib":"6+","altim":1008,"clouds":[{"cover":"BKN","base":2000}],"obsTime":1775419200},"SBUL":{"icaoId":"SBUL","flightCategory":"VFR","rawOb":"METAR SBUL 052000Z 14003KT 9999 SCT040 FEW040TCU 26/19 Q1017 RETS","temp":26,"dewp":19,"wdir":140,"wspd":3,"visib":"6+","altim":1017,"clouds":[{"cover":"SCT","base":4000},{"cover":"FEW","base":4000}],"obsTime":1775419200},"SBUR":{"icaoId":"SBUR","flightCategory":"VFR","rawOb":"METAR SBUR 052000Z 04007KT 9999 SCT049 FEW055TCU 23/19 Q1016","temp":23,"dewp":19,"wdir":40,"wspd":7,"visib":"6+","altim":1016,"clouds":[{"cover":"SCT","base":4900},{"cover":"FEW","base":5500}],"obsTime":1775419200},"SBVH":{"icaoId":"SBVH","flightCategory":"VFR","rawOb":"METAR SBVH 052000Z 01005KT 9999 SCT030 SCT100 27/22 Q1011","temp":27,"dewp":22,"wdir":10,"wspd":5,"visib":"6+","altim":1011,"clouds":[{"cover":"SCT","base":3000},{"cover":"SCT","base":10000}],"obsTime":1775419200},"SBAX":{"icaoId":"SBAX","flightCategory":"MVFR","rawOb":"METAR SBAX 052000Z AUTO VRB06KT 6000 RA SCT016 SCT033 OVC049 ///// Q1019","temp":null,"dewp":null,"wdir":"VRB","wspd":6,"visib":3.73,"altim":1019,"clouds":[{"cover":"SCT","base":1600},{"cover":"SCT","base":3300},{"cover":"OVC","base":4900}],"obsTime":1775419200},"SBBH":{"icaoId":"SBBH","flightCategory":"VFR","rawOb":"METAR SBBH 052000Z 17005KT 9999 TS BKN040 FEW045CB 26/19 Q1017","temp":26,"dewp":19,"wdir":170,"wspd":5,"visib":"6+","altim":1017,"clouds":[{"cover":"BKN","base":4000},{"cover":"FEW","base":4500}],"obsTime":1775419200},"SBBU":{"icaoId":"SBBU","flightCategory":"VFR","rawOb":"METAR SBBU 052000Z 08006KT 9999 SCT030 32/20 Q1014","temp":32,"dewp":20,"wdir":80,"wspd":6,"visib":"6+","altim":1014,"clouds":[{"cover":"SCT","base":3000}],"obsTime":1775419200},"SBCJ":{"icaoId":"SBCJ","flightCategory":"VFR","rawOb":"METAR SBCJ 052000Z 00000KT 9999 FEW009 SCT013 26/23 Q1013","temp":26,"dewp":23,"wdir":0,"wspd":0,"visib":"6+","altim":1013,"clouds":[{"cover":"FEW","base":900},{"cover":"SCT","base":1300}],"obsTime":1775419200},"SBCO":{"icaoId":"SBCO","flightCategory":"VFR","rawOb":"METAR SBCO 052000Z 11010KT 9999 OVC033 22/15 Q1020","temp":22,"dewp":15,"wdir":110,"wspd":10,"visib":"6+","altim":1020,"clouds":[{"cover":"OVC","base":3300}],"obsTime":1775419200},"SBDN":{"icaoId":"SBDN","flightCategory":"VFR","rawOb":"METAR SBDN 052000Z 00000KT CAVOK 34/18 Q1012","temp":34,"dewp":18,"wdir":0,"wspd":0,"visib":"6+","altim":1012,"clouds":[],"obsTime":1775419200},"SBES":{"icaoId":"SBES","flightCategory":"VFR","rawOb":"METAR SBES 052000Z 24004KT 200V280 9999 FEW015 FEW025TCU 26/// Q1014","temp":null,"dewp":null,"wdir":240,"wspd":4,"visib":"6+","altim":1014,"clouds":[{"cover":"FEW","base":1500},{"cover":"FEW","base":2500}],"obsTime":1775419200},"SBIP":{"icaoId":"SBIP","flightCategory":"VFR","rawOb":"METAR SBIP 052000Z AUTO 02003KT 330V070 CAVOK 31/18 Q1014","temp":31,"dewp":18,"wdir":20,"wspd":3,"visib":"6+","altim":1014,"clouds":[],"obsTime":1775419200},"SBKG":{"icaoId":"SBKG","flightCategory":"VFR","rawOb":"METAR SBKG 052000Z 08006KT 9999 FEW010 SCT020 BKN070 24/23 Q1013","temp":24,"dewp":23,"wdir":80,"wspd":6,"visib":"6+","altim":1013,"clouds":[{"cover":"FEW","base":1000},{"cover":"SCT","base":2000},{"cover":"BKN","base":7000}],"obsTime":1775419200},"SBOI":{"icaoId":"SBOI","flightCategory":"VFR","rawOb":"METAR SBOI 052000Z AUTO 04009KT CAVOK 30/23 Q1010","temp":30,"dewp":23,"wdir":40,"wspd":9,"visib":"6+","altim":1010,"clouds":[],"obsTime":1775419200},"SBPB":{"icaoId":"SBPB","flightCategory":"MVFR","rawOb":"METAR SBPB 052000Z 08007KT 8000 -RA BKN015 BKN080 27/25 Q1010","temp":27,"dewp":25,"wdir":80,"wspd":7,"visib":4.97,"altim":1010,"clouds":[{"cover":"BKN","base":1500},{"cover":"BKN","base":8000}],"obsTime":1775419200},"SBPL":{"icaoId":"SBPL","flightCategory":"VFR","rawOb":"METAR SBPL 052000Z 06003KT 9999 FEW030 31/21 Q1011","temp":31,"dewp":21,"wdir":60,"wspd":3,"visib":"6+","altim":1011,"clouds":[{"cover":"FEW","base":3000}],"obsTime":1775419200},"SBPP":{"icaoId":"SBPP","flightCategory":"VFR","rawOb":"METAR SBPP 052000Z 01002KT 9999 FEW020 30/19 Q1014","temp":30,"dewp":19,"wdir":10,"wspd":2,"visib":"6+","altim":1014,"clouds":[{"cover":"FEW","base":2000}],"obsTime":1775419200},"SBPS":{"icaoId":"SBPS","flightCategory":"VFR","rawOb":"METAR SBPS 052000Z 10007KT 9999 SCT020 28/23 Q1014","temp":28,"dewp":23,"wdir":100,"wspd":7,"visib":"6+","altim":1014,"clouds":[{"cover":"SCT","base":2000}],"obsTime":1775419200},"SBSC":{"icaoId":"SBSC","flightCategory":"VFR","rawOb":"METAR SBSC 052000Z 19009KT 9999 FEW030TCU 27/22 Q1014","temp":27,"dewp":22,"wdir":190,"wspd":9,"visib":"6+","altim":1014,"clouds":[{"cover":"FEW","base":3000}],"obsTime":1775419200},"SBSJ":{"icaoId":"SBSJ","flightCategory":"VFR","rawOb":"METAR SBSJ 052000Z 12009KT 9999 SCT040 FEW045TCU SCT066 26/20 Q1017","temp":26,"dewp":20,"wdir":120,"wspd":9,"visib":"6+","altim":1017,"clouds":[{"cover":"SCT","base":4000},{"cover":"FEW","base":4500},{"cover":"SCT","base":6600}],"obsTime":1775419200},"SBSM":{"icaoId":"SBSM","flightCategory":"VFR","rawOb":"METAR SBSM 052000Z 10010G20KT 9999 OVC035 22/17 Q1018","temp":22,"dewp":17,"wdir":100,"wspd":10,"visib":"6+","altim":1018,"clouds":[{"cover":"OVC","base":3500}],"obsTime":1775419200},"SBSR":{"icaoId":"SBSR","flightCategory":"VFR","rawOb":"METAR SBSR 052000Z 18005KT 9999 SCT030 31/18 Q1013","temp":31,"dewp":18,"wdir":180,"wspd":5,"visib":"6+","altim":1013,"clouds":[{"cover":"SCT","base":3000}],"obsTime":1775419200},"SBTF":{"icaoId":"SBTF","flightCategory":"VFR","rawOb":"METAR SBTF 052000Z 12007KT 9999 FEW019 33/25 Q1007","temp":33,"dewp":25,"wdir":120,"wspd":7,"visib":"6+","altim":1007,"clouds":[{"cover":"FEW","base":1900}],"obsTime":1775419200},"SBTT":{"icaoId":"SBTT","flightCategory":"VFR","rawOb":"METAR SBTT 052000Z 23004KT 9999 SCT024 FEW030TCU 32/21 Q1007","temp":32,"dewp":21,"wdir":230,"wspd":4,"visib":"6+","altim":1007,"clouds":[{"cover":"SCT","base":2400},{"cover":"FEW","base":3000}],"obsTime":1775419200},"SBUY":{"icaoId":"SBUY","flightCategory":"VFR","rawOb":"METAR SBUY 052000Z 28002KT 9999 FEW025 32/22 Q1006","temp":32,"dewp":22,"wdir":280,"wspd":2,"visib":"6+","altim":1006,"clouds":[{"cover":"FEW","base":2500}],"obsTime":1775419200},"SBAR":{"icaoId":"SBAR","flightCategory":"VFR","rawOb":"METAR SBAR 052000Z 11011KT 9999 SCT020 29/24 Q1012","temp":29,"dewp":24,"wdir":110,"wspd":11,"visib":"6+","altim":1012,"clouds":[{"cover":"SCT","base":2000}],"obsTime":1775419200},"SBCC":{"icaoId":"SBCC","flightCategory":"MVFR","rawOb":"METAR SBCC 052000Z 36003KT 6000 -TSRA SCT020 FEW025CB BKN100 23/22 Q1011 RERA","temp":23,"dewp":22,"wdir":360,"wspd":3,"visib":3.73,"altim":1011,"clouds":[{"cover":"SCT","base":2000},{"cover":"FEW","base":2500},{"cover":"BKN","base":10000}],"obsTime":1775419200},"SBIH":{"icaoId":"SBIH","flightCategory":"VFR","rawOb":"METAR SBIH 052000Z 03008KT 9999 SCT016 FEW023TCU 28/24 Q1009","temp":28,"dewp":24,"wdir":30,"wspd":8,"visib":"6+","altim":1009,"clouds":[{"cover":"SCT","base":1600},{"cover":"FEW","base":2300}],"obsTime":1775419200},"SBAF":{"icaoId":"SBAF","flightCategory":"VFR","rawOb":" SBAF 052000Z 17009KT 9999 SCT040 28/21 Q1015","temp":28,"dewp":21,"wdir":170,"wspd":9,"visib":"6+","altim":1015,"clouds":[{"cover":"SCT","base":4000}],"obsTime":1775419200},"SBAN":{"icaoId":"SBAN","flightCategory":"VFR","rawOb":"METAR SBAN 052000Z VRB03KT 9999 SCT040 BKN050 27/17 Q1017","temp":27,"dewp":17,"wdir":"VRB","wspd":3,"visib":"6+","altim":1017,"clouds":[{"cover":"SCT","base":4000},{"cover":"BKN","base":5000}],"obsTime":1775419200},"SBLS":{"icaoId":"SBLS","flightCategory":"VFR","rawOb":"METAR SBLS 052000Z 10004KT 040V100 9999 SCT040 FEW043TCU 26/19 Q1017","temp":26,"dewp":19,"wdir":100,"wspd":4,"visib":"6+","altim":1017,"clouds":[{"cover":"SCT","base":4000},{"cover":"FEW","base":4300}],"obsTime":1775419200},"SBGW":{"icaoId":"SBGW","flightCategory":"MVFR","rawOb":"METAR SBGW 052000Z 15005KT 5000 -TSRA HZ BKN030 FEW035CB 23/17 Q1016 RETS","temp":23,"dewp":17,"wdir":150,"wspd":5,"visib":3.11,"altim":1016,"clouds":[{"cover":"BKN","base":3000},{"cover":"FEW","base":3500}],"obsTime":1775419200},"SBJR":{"icaoId":"SBJR","flightCategory":"VFR","rawOb":"METAR SBJR 052000Z 20004KT 9999 FEW030 SCT100 27/21 Q1014","temp":27,"dewp":21,"wdir":200,"wspd":4,"visib":"6+","altim":1014,"clouds":[{"cover":"FEW","base":3000},{"cover":"SCT","base":10000}],"obsTime":1775419200},"SBST":{"icaoId":"SBST","flightCategory":"VFR","rawOb":"METAR SBST 052000Z 17005KT 9999 SCT030 27/22 Q1014","temp":27,"dewp":22,"wdir":170,"wspd":5,"visib":"6+","altim":1014,"clouds":[{"cover":"SCT","base":3000}],"obsTime":1775419200},"SBLE":{"icaoId":"SBLE","flightCategory":"VFR","rawOb":"METAR SBLE 052000Z AUTO 16010KT 130V190 9999 BKN031 26/25 Q1015","temp":26,"dewp":25,"wdir":160,"wspd":10,"visib":"6+","altim":1015,"clouds":[{"cover":"BKN","base":3100}],"obsTime":1775419200},"SBTA":{"icaoId":"SBTA","flightCategory":"VFR","rawOb":"METAR SBTA 052000Z 20004KT 130V250 9999 SCT040 SCT090 25/21 Q1016","temp":25,"dewp":21,"wdir":200,"wspd":4,"visib":"6+","altim":1016,"clouds":[{"cover":"SCT","base":4000},{"cover":"SCT","base":9000}],"obsTime":1775419200},"SBMT":{"icaoId":"SBMT","flightCategory":"MVFR","rawOb":"METAR SBMT 052000Z 16009KT 9999 BKN029 25/18 Q1018","temp":25,"dewp":18,"wdir":160,"wspd":9,"visib":"6+","altim":1018,"clouds":[{"cover":"BKN","base":2900}],"obsTime":1775419200},"SBJP":{"icaoId":"SBJP","flightCategory":"MVFR","rawOb":"METAR SBJP 052000Z 07007KT 9999 BKN030 28/24 Q1011","temp":28,"dewp":24,"wdir":70,"wspd":7,"visib":"6+","altim":1011,"clouds":[{"cover":"BKN","base":3000}],"obsTime":1775419200},"SBJV":{"icaoId":"SBJV","flightCategory":"MVFR","rawOb":"METAR SBJV 052000Z 13010KT 9999 BKN025 OVC040 26/23 Q1016","temp":26,"dewp":23,"wdir":130,"wspd":10,"visib":"6+","altim":1016,"clouds":[{"cover":"BKN","base":2500},{"cover":"OVC","base":4000}],"obsTime":1775419200},"SBTC":{"icaoId":"SBTC","flightCategory":"VFR","rawOb":"METAR SBTC 052000Z 14005KT 9999 SCT020 28/24 Q1013","temp":28,"dewp":24,"wdir":140,"wspd":5,"visib":"6+","altim":1013,"clouds":[{"cover":"SCT","base":2000}],"obsTime":1775419200}}}