{"updated":1773640842,"count":49,"data":{"SBMA":{"icaoId":"SBMA","flightCategory":"VFR","rawOb":"METAR SBMA 160500Z 02006KT 9999 VCTS FEW020CB SCT090 25/25 Q1010","temp":25,"dewp":25,"wdir":20,"wspd":6,"visib":"6+","altim":1010,"clouds":[{"cover":"FEW","base":2000},{"cover":"SCT","base":9000}],"obsTime":1773637200},"SBFZ":{"icaoId":"SBFZ","flightCategory":"VFR","rawOb":"METAR SBFZ 160500Z 27003KT 9999 VCTS FEW020 FEW030CB 26/24 Q1010","temp":26,"dewp":24,"wdir":270,"wspd":3,"visib":"6+","altim":1010,"clouds":[{"cover":"FEW","base":2000},{"cover":"FEW","base":3000}],"obsTime":1773637200},"SBBV":{"icaoId":"SBBV","flightCategory":"VFR","rawOb":"METAR SBBV 160500Z 09014KT 9999 FEW040 FEW040TCU BKN075 27/22 Q1010","temp":27,"dewp":22,"wdir":90,"wspd":14,"visib":"6+","altim":1010,"clouds":[{"cover":"FEW","base":4000},{"cover":"FEW","base":4000},{"cover":"BKN","base":7500}],"obsTime":1773637200},"SBMO":{"icaoId":"SBMO","flightCategory":"VFR","rawOb":"METAR SBMO 160500Z 35004KT CAVOK 24/23 Q1011","temp":24,"dewp":23,"wdir":350,"wspd":4,"visib":"6+","altim":1011,"clouds":[],"obsTime":1773637200},"SBBE":{"icaoId":"SBBE","flightCategory":"MVFR","rawOb":"METAR SBBE 160500Z 07006KT 5000 -RA BR SCT015 SCT030 BKN080 26/25 Q1011","temp":26,"dewp":25,"wdir":70,"wspd":6,"visib":3.11,"altim":1011,"clouds":[{"cover":"SCT","base":1500},{"cover":"SCT","base":3000},{"cover":"BKN","base":8000}],"obsTime":1773637200},"SBMQ":{"icaoId":"SBMQ","flightCategory":"LIFR","rawOb":"SPECI SBMQ 160437Z 32004KT 9999 -RA BKN004 26/25 Q1010","temp":26,"dewp":25,"wdir":320,"wspd":4,"visib":"6+","altim":1010,"clouds":[{"cover":"BKN","base":400}],"obsTime":1773635820},"SBTE":{"icaoId":"SBTE","flightCategory":"VFR","rawOb":"METAR SBTE 160500Z 31005KT CAVOK 24/24 Q1010","temp":24,"dewp":24,"wdir":310,"wspd":5,"visib":"6+","altim":1010,"clouds":[],"obsTime":1773637200},"SBGL":{"icaoId":"SBGL","flightCategory":"VFR","rawOb":"METAR SBGL 160500Z 08002KT 9999 FEW010 24/22 Q1011","temp":24,"dewp":22,"wdir":80,"wspd":2,"visib":"6+","altim":1011,"clouds":[{"cover":"FEW","base":1000}],"obsTime":1773637200},"SBGO":{"icaoId":"SBGO","flightCategory":"VFR","rawOb":"METAR SBGO 160500Z 35003KT 9999 FEW030 BKN080 22/20 Q1015","temp":22,"dewp":20,"wdir":350,"wspd":3,"visib":"6+","altim":1015,"clouds":[{"cover":"FEW","base":3000},{"cover":"BKN","base":8000}],"obsTime":1773637200},"SBSV":{"icaoId":"SBSV","flightCategory":"VFR","rawOb":"METAR SBSV 160500Z 08010KT 9999 FEW024 26/22 Q1011","temp":26,"dewp":22,"wdir":80,"wspd":10,"visib":"6+","altim":1011,"clouds":[{"cover":"FEW","base":2400}],"obsTime":1773637200},"SBCT":{"icaoId":"SBCT","flightCategory":"MVFR","rawOb":"METAR SBCT 160500Z 12004KT 9999 FEW011 BKN020 20/20 Q1017","temp":20,"dewp":20,"wdir":120,"wspd":4,"visib":"6+","altim":1017,"clouds":[{"cover":"FEW","base":1100},{"cover":"BKN","base":2000}],"obsTime":1773637200},"SBPA":{"icaoId":"SBPA","flightCategory":"IFR","rawOb":"SPECI SBPA 160402Z 10009KT 9999 BKN007 24/22 Q1009","temp":24,"dewp":22,"wdir":100,"wspd":9,"visib":"6+","altim":1009,"clouds":[{"cover":"BKN","base":700}],"obsTime":1773633720},"SBBR":{"icaoId":"SBBR","flightCategory":"IFR","rawOb":"METAR SBBR 160500Z 13003KT 8000 RA BKN005 BKN060 20/20 Q1918","temp":20,"dewp":20,"wdir":130,"wspd":3,"visib":4.97,"altim":null,"clouds":[{"cover":"BKN","base":500},{"cover":"BKN","base":6000}],"obsTime":1773637200},"SBPJ":{"icaoId":"SBPJ","flightCategory":"VFR","rawOb":"METAR SBPJ 160500Z 14003KT 9999 SCT010 SCT080 24/24 Q1012","temp":24,"dewp":24,"wdir":140,"wspd":3,"visib":"6+","altim":1012,"clouds":[{"cover":"SCT","base":1000},{"cover":"SCT","base":8000}],"obsTime":1773637200},"SBPV":{"icaoId":"SBPV","flightCategory":"VFR","rawOb":"METAR SBPV 160500Z 00000KT 9999 VCTS FEW035 FEW040CB BKN066 24/23 Q1011","temp":24,"dewp":23,"wdir":0,"wspd":0,"visib":"6+","altim":1011,"clouds":[{"cover":"FEW","base":3500},{"cover":"FEW","base":4000},{"cover":"BKN","base":6600}],"obsTime":1773637200},"SBGR":{"icaoId":"SBGR","flightCategory":"VFR","rawOb":"METAR SBGR 160500Z 06005KT CAVOK 19/18 Q1015","temp":19,"dewp":18,"wdir":60,"wspd":5,"visib":"6+","altim":1015,"clouds":[],"obsTime":1773637200},"SBRB":{"icaoId":"SBRB","flightCategory":"MVFR","rawOb":"METAR SBRB 160500Z 35003KT 7000 NSC 23/22 Q1010","temp":23,"dewp":22,"wdir":350,"wspd":3,"visib":4.35,"altim":1010,"clouds":[],"obsTime":1773637200},"SBEG":{"icaoId":"SBEG","flightCategory":"VFR","rawOb":"METAR SBEG 160500Z 00000KT CAVOK 26/24 Q1010","temp":26,"dewp":24,"wdir":0,"wspd":0,"visib":"6+","altim":1010,"clouds":[],"obsTime":1773637200},"SBKP":{"icaoId":"SBKP","flightCategory":"VFR","rawOb":"METAR SBKP 160500Z 13007KT CAVOK 22/19 Q1014","temp":22,"dewp":19,"wdir":130,"wspd":7,"visib":"6+","altim":1014,"clouds":[],"obsTime":1773637200},"SBRF":{"icaoId":"SBRF","flightCategory":"VFR","rawOb":"METAR SBRF 160500Z 06005KT 020V100 9999 SCT021 28/24 Q1010","temp":28,"dewp":24,"wdir":60,"wspd":5,"visib":"6+","altim":1010,"clouds":[{"cover":"SCT","base":2100}],"obsTime":1773637200},"SBCF":{"icaoId":"SBCF","flightCategory":"VFR","rawOb":"METAR SBCF 160500Z 16002KT 9999 FEW040 SCT060 21/20 Q1016","temp":21,"dewp":20,"wdir":160,"wspd":2,"visib":"6+","altim":1016,"clouds":[{"cover":"FEW","base":4000},{"cover":"SCT","base":6000}],"obsTime":1773637200},"SBSG":{"icaoId":"SBSG","flightCategory":"VFR","rawOb":"METAR SBSG 160500Z 26003KT 220V290 9999 FEW020 24/23 Q1010","temp":24,"dewp":23,"wdir":260,"wspd":3,"visib":"6+","altim":1010,"clouds":[{"cover":"FEW","base":2000}],"obsTime":1773637200},"SBLO":{"icaoId":"SBLO","flightCategory":"VFR","rawOb":"METAR SBLO 160500Z 00000KT CAVOK 23/19 Q1012","temp":23,"dewp":19,"wdir":0,"wspd":0,"visib":"6+","altim":1012,"clouds":[],"obsTime":1773637200},"SBSL":{"icaoId":"SBSL","flightCategory":"VFR","rawOb":"METAR SBSL 160500Z 04004KT 9999 SCT025 SCT090 26/25 Q1010","temp":26,"dewp":25,"wdir":40,"wspd":4,"visib":"6+","altim":1010,"clouds":[{"cover":"SCT","base":2500},{"cover":"SCT","base":9000}],"obsTime":1773637200},"SBSN":{"icaoId":"SBSN","flightCategory":"VFR","rawOb":"METAR SBSN 160500Z 08011KT 9999 SCT014 27/23 Q1010","temp":27,"dewp":23,"wdir":80,"wspd":11,"visib":"6+","altim":1010,"clouds":[{"cover":"SCT","base":1400}],"obsTime":1773637200},"SBCG":{"icaoId":"SBCG","flightCategory":"VFR","rawOb":"METAR SBCG 160500Z 01006KT CAVOK 25/22 Q1011","temp":25,"dewp":22,"wdir":10,"wspd":6,"visib":"6+","altim":1011,"clouds":[],"obsTime":1773637200},"SBFL":{"icaoId":"SBFL","flightCategory":"VFR","rawOb":"METAR SBFL 160500Z 01005KT 9999 FEW030 25/23 Q1011","temp":25,"dewp":23,"wdir":10,"wspd":5,"visib":"6+","altim":1011,"clouds":[{"cover":"FEW","base":3000}],"obsTime":1773637200},"SBSP":{"icaoId":"SBSP","flightCategory":"VFR","rawOb":"METAR SBSP 160500Z AUTO VRB02KT CAVOK 21/17 Q1016","temp":21,"dewp":17,"wdir":"VRB","wspd":2,"visib":"6+","altim":1016,"clouds":[],"obsTime":1773637200},"SBVT":{"icaoId":"SBVT","flightCategory":"VFR","rawOb":"METAR SBVT 160500Z 28003KT 9999 FEW020 22/22 Q1012","temp":22,"dewp":22,"wdir":280,"wspd":3,"visib":"6+","altim":1012,"clouds":[{"cover":"FEW","base":2000}],"obsTime":1773637200},"SBFI":{"icaoId":"SBFI","flightCategory":"VFR","rawOb":"METAR SBFI 160500Z 10007KT 9999 FEW040 SCT100 23/22 Q1008","temp":23,"dewp":22,"wdir":100,"wspd":7,"visib":"6+","altim":1008,"clouds":[{"cover":"FEW","base":4000},{"cover":"SCT","base":10000}],"obsTime":1773637200},"SBJU":{"icaoId":"SBJU","flightCategory":"MVFR","rawOb":"METAR SBJU 160500Z 00000KT 9999 BKN020 24/23 Q1013","temp":24,"dewp":23,"wdir":0,"wspd":0,"visib":"6+","altim":1013,"clouds":[{"cover":"BKN","base":2000}],"obsTime":1773637200},"SBME":{"icaoId":"SBME","flightCategory":"VFR","rawOb":"METAR SBME 160500Z 03003KT CAVOK 24/22 Q1012","temp":24,"dewp":22,"wdir":30,"wspd":3,"visib":"6+","altim":1012,"clouds":[],"obsTime":1773637200},"SBMG":{"icaoId":"SBMG","flightCategory":"VFR","rawOb":"METAR SBMG 160500Z AUTO 03010KT CAVOK 25/18 Q1011","temp":25,"dewp":18,"wdir":30,"wspd":10,"visib":"6+","altim":1011,"clouds":[],"obsTime":1773637200},"SBNT":{"icaoId":"SBNT","flightCategory":"VFR","rawOb":"METAR SBNT 160500Z VRB02KT 9999 SCT018 26/24 Q1010","temp":26,"dewp":24,"wdir":"VRB","wspd":2,"visib":"6+","altim":1010,"clouds":[{"cover":"SCT","base":1800}],"obsTime":1773637200},"SBUR":{"icaoId":"SBUR","flightCategory":"VFR","rawOb":"METAR SBUR 160500Z 36005KT CAVOK 23/19 Q1014","temp":23,"dewp":19,"wdir":360,"wspd":5,"visib":"6+","altim":1014,"clouds":[],"obsTime":1773637200},"SBUL":{"icaoId":"SBUL","flightCategory":"VFR","rawOb":"METAR SBUL 160500Z 09004KT CAVOK 22/19 Q1016 RERA","temp":22,"dewp":19,"wdir":90,"wspd":4,"visib":"6+","altim":1016,"clouds":[],"obsTime":1773637200},"SBAR":{"icaoId":"SBAR","flightCategory":"VFR","rawOb":"METAR SBAR 160500Z 08006KT 9999 FEW020 27/22 Q1011","temp":27,"dewp":22,"wdir":80,"wspd":6,"visib":"6+","altim":1011,"clouds":[{"cover":"FEW","base":2000}],"obsTime":1773637200},"SBPS":{"icaoId":"SBPS","flightCategory":"LIFR","rawOb":"SPECI SBPS 160415Z 21003KT 0800 FG BKN004 OVC019 24/24 Q1012","temp":24,"dewp":24,"wdir":210,"wspd":3,"visib":0.5,"altim":1012,"clouds":[{"cover":"BKN","base":400},{"cover":"OVC","base":1900}],"obsTime":1773634500},"SBOI":{"icaoId":"SBOI","flightCategory":"IFR","rawOb":"SPECI SBOI 160401Z AUTO 04007KT 5000 // BKN005/// BKN007/// OVC023/// 24/23 Q1012","temp":24,"dewp":23,"wdir":40,"wspd":7,"visib":3.11,"altim":1012,"clouds":[{"cover":"BKN","base":500},{"cover":"BKN","base":700},{"cover":"OVC","base":2300}],"obsTime":1773633660},"SBPL":{"icaoId":"SBPL","flightCategory":"VFR","rawOb":"METAR SBPL 160500Z 06008KT 9999 TS SCT022 FEW025CB SCT070 27/22 Q1012","temp":27,"dewp":22,"wdir":60,"wspd":8,"visib":"6+","altim":1012,"clouds":[{"cover":"SCT","base":2200},{"cover":"FEW","base":2500},{"cover":"SCT","base":7000}],"obsTime":1773637200},"SBKG":{"icaoId":"SBKG","flightCategory":"VFR","rawOb":"METAR SBKG 160500Z 08005KT 9999 SCT008 BKN070 23/22 Q1013","temp":23,"dewp":22,"wdir":80,"wspd":5,"visib":"6+","altim":1013,"clouds":[{"cover":"SCT","base":800},{"cover":"BKN","base":7000}],"obsTime":1773637200},"SBAX":{"icaoId":"SBAX","flightCategory":"VFR","rawOb":"METAR SBAX 160500Z AUTO 13002KT CAVOK ///// Q1016","temp":null,"dewp":null,"wdir":130,"wspd":2,"visib":"6+","altim":1016,"clouds":[],"obsTime":1773637200},"SBDN":{"icaoId":"SBDN","flightCategory":"VFR","rawOb":"METAR SBDN 160500Z 06006KT CAVOK 25/18 Q1011","temp":25,"dewp":18,"wdir":60,"wspd":6,"visib":"6+","altim":1011,"clouds":[],"obsTime":1773637200},"SBIP":{"icaoId":"SBIP","flightCategory":"MVFR","rawOb":"METAR SBIP 160500Z AUTO VRB01KT 9999 FEW018 OVC029 22/22 Q1013","temp":22,"dewp":22,"wdir":"VRB","wspd":1,"visib":"6+","altim":1013,"clouds":[{"cover":"FEW","base":1800},{"cover":"OVC","base":2900}],"obsTime":1773637200},"SBSC":{"icaoId":"SBSC","flightCategory":"VFR","rawOb":"METAR SBSC 160500Z COR 03002KT CAVOK 22/21 Q1011","temp":22,"dewp":21,"wdir":30,"wspd":2,"visib":"6+","altim":1011,"clouds":[],"obsTime":1773637200},"SBSR":{"icaoId":"SBSR","flightCategory":"VFR","rawOb":"METAR SBSR 160500Z 00000KT CAVOK 23/19 Q1012","temp":23,"dewp":19,"wdir":0,"wspd":0,"visib":"6+","altim":1012,"clouds":[],"obsTime":1773637200},"SBJP":{"icaoId":"SBJP","flightCategory":"VFR","rawOb":"METAR SBJP 160500Z 00000KT CAVOK 25/24 Q1011","temp":25,"dewp":24,"wdir":0,"wspd":0,"visib":"6+","altim":1011,"clouds":[],"obsTime":1773637200},"SBAN":{"icaoId":"SBAN","flightCategory":"VFR","rawOb":"METAR SBAN 160500Z 33003KT 9999 FEW020 BKN100 20/18 Q1019","temp":20,"dewp":18,"wdir":330,"wspd":3,"visib":"6+","altim":1019,"clouds":[{"cover":"FEW","base":2000},{"cover":"BKN","base":10000}],"obsTime":1773637200},"SBLE":{"icaoId":"SBLE","flightCategory":"MVFR","rawOb":"METAR SBLE 160500Z AUTO 02003KT 9999 SCT024 BKN029 BKN039 ///// Q////","temp":null,"dewp":null,"wdir":20,"wspd":3,"visib":"6+","altim":null,"clouds":[{"cover":"SCT","base":2400},{"cover":"BKN","base":2900},{"cover":"BKN","base":3900}],"obsTime":1773637200}}}