{"updated":1783779321,"count":86,"data":{"SBGR":{"icaoId":"SBGR","flightCategory":"VFR","rawOb":"METAR SBGR 111300Z 06007KT CAVOK 21/11 Q1018","temp":21,"dewp":11,"wdir":60,"wspd":7,"visib":"6+","altim":1018,"clouds":[],"obsTime":1783774800},"SBFZ":{"icaoId":"SBFZ","flightCategory":"MVFR","rawOb":"METAR SBFZ 111300Z 11016KT 9999 BKN025 29/24 Q1015","temp":29,"dewp":24,"wdir":110,"wspd":16,"visib":"6+","altim":1015,"clouds":[{"cover":"BKN","base":2500}],"obsTime":1783774800},"SBBE":{"icaoId":"SBBE","flightCategory":"VFR","rawOb":"METAR SBBE 111300Z 08014KT 9999 SCT025 29/23 Q1014","temp":29,"dewp":23,"wdir":80,"wspd":14,"visib":"6+","altim":1014,"clouds":[{"cover":"SCT","base":2500}],"obsTime":1783774800},"SBPJ":{"icaoId":"SBPJ","flightCategory":"VFR","rawOb":"METAR SBPJ 111300Z 00000KT CAVOK 31/21 Q1016","temp":31,"dewp":21,"wdir":0,"wspd":0,"visib":"6+","altim":1016,"clouds":[],"obsTime":1783774800},"SBCF":{"icaoId":"SBCF","flightCategory":"VFR","rawOb":"METAR SBCF 111300Z 16002KT CAVOK 21/12 Q1022","temp":21,"dewp":12,"wdir":160,"wspd":2,"visib":"6+","altim":1022,"clouds":[],"obsTime":1783774800},"SBPV":{"icaoId":"SBPV","flightCategory":"VFR","rawOb":"METAR SBPV 111300Z 29002KT CAVOK 28/22 Q1013","temp":28,"dewp":22,"wdir":290,"wspd":2,"visib":"6+","altim":1013,"clouds":[],"obsTime":1783774800},"SBMO":{"icaoId":"SBMO","flightCategory":"MVFR","rawOb":"METAR SBMO 111300Z 09008KT 9999 BKN030 28/22 Q1018","temp":28,"dewp":22,"wdir":90,"wspd":8,"visib":"6+","altim":1018,"clouds":[{"cover":"BKN","base":3000}],"obsTime":1783774800},"SBCR":{"icaoId":"SBCR","flightCategory":"VFR","rawOb":"METAR SBCR 111300Z VRB02KT CAVOK 26/21 Q1014","temp":26,"dewp":21,"wdir":"VRB","wspd":2,"visib":"6+","altim":1014,"clouds":[],"obsTime":1783774800},"SBRB":{"icaoId":"SBRB","flightCategory":"VFR","rawOb":"METAR SBRB 111300Z 00000KT 9999 SCT020 BKN080 24/23 Q1015","temp":24,"dewp":23,"wdir":0,"wspd":0,"visib":"6+","altim":1015,"clouds":[{"cover":"SCT","base":2000},{"cover":"BKN","base":8000}],"obsTime":1783774800},"SBSG":{"icaoId":"SBSG","flightCategory":"VFR","rawOb":"METAR SBSG 111300Z 15006KT 090V190 9999 SCT020 28/24 Q1017","temp":28,"dewp":24,"wdir":150,"wspd":6,"visib":"6+","altim":1017,"clouds":[{"cover":"SCT","base":2000}],"obsTime":1783774800},"SBSL":{"icaoId":"SBSL","flightCategory":"MVFR","rawOb":"METAR SBSL 111300Z 06014KT 050V110 9999 BKN025 29/23 Q1014","temp":29,"dewp":23,"wdir":60,"wspd":14,"visib":"6+","altim":1014,"clouds":[{"cover":"BKN","base":2500}],"obsTime":1783774800},"SBFL":{"icaoId":"SBFL","flightCategory":"IFR","rawOb":"METAR SBFL 111300Z 32007KT 3500 RA VCTS FEW013 FEW050CB OVC076 15/14 Q1014 RETSRA","temp":15,"dewp":14,"wdir":320,"wspd":7,"visib":2.17,"altim":1014,"clouds":[{"cover":"FEW","base":1300},{"cover":"FEW","base":5000},{"cover":"OVC","base":7600}],"obsTime":1783774800},"SBEG":{"icaoId":"SBEG","flightCategory":"VFR","rawOb":"METAR SBEG 111300Z 08011KT 9999 SCT020 29/25 Q1013","temp":29,"dewp":25,"wdir":80,"wspd":11,"visib":"6+","altim":1013,"clouds":[{"cover":"SCT","base":2000}],"obsTime":1783774800},"SBBV":{"icaoId":"SBBV","flightCategory":"VFR","rawOb":"METAR SBBV 111300Z 08012KT 9999 SCT030 BKN070 27/23 Q1015","temp":27,"dewp":23,"wdir":80,"wspd":12,"visib":"6+","altim":1015,"clouds":[{"cover":"SCT","base":3000},{"cover":"BKN","base":7000}],"obsTime":1783774800},"SBRF":{"icaoId":"SBRF","flightCategory":"VFR","rawOb":"METAR SBRF 111300Z 15011KT 9999 SCT023 28/23 Q1017","temp":28,"dewp":23,"wdir":150,"wspd":11,"visib":"6+","altim":1017,"clouds":[{"cover":"SCT","base":2300}],"obsTime":1783774800},"SBMA":{"icaoId":"SBMA","flightCategory":"VFR","rawOb":"METAR SBMA 111300Z 01007KT 9999 SCT015 28/23 Q1014","temp":28,"dewp":23,"wdir":10,"wspd":7,"visib":"6+","altim":1014,"clouds":[{"cover":"SCT","base":1500}],"obsTime":1783774800},"SBTE":{"icaoId":"SBTE","flightCategory":"VFR","rawOb":"METAR SBTE 111300Z 10004KT 9999 FEW018 29/22 Q1015","temp":29,"dewp":22,"wdir":100,"wspd":4,"visib":"6+","altim":1015,"clouds":[{"cover":"FEW","base":1800}],"obsTime":1783774800},"SBGL":{"icaoId":"SBGL","flightCategory":"MVFR","rawOb":"METAR SBGL 111300Z 05003KT 8000 NSC 22/17 Q1016","temp":22,"dewp":17,"wdir":50,"wspd":3,"visib":4.97,"altim":1016,"clouds":[],"obsTime":1783774800},"SBMQ":{"icaoId":"SBMQ","flightCategory":"VFR","rawOb":"METAR SBMQ 111300Z 04008KT 9999 SCT025 29/25 Q1014","temp":29,"dewp":25,"wdir":40,"wspd":8,"visib":"6+","altim":1014,"clouds":[{"cover":"SCT","base":2500}],"obsTime":1783774800},"SBLO":{"icaoId":"SBLO","flightCategory":"VFR","rawOb":"METAR SBLO 111300Z 02007KT CAVOK 21/13 Q1017","temp":21,"dewp":13,"wdir":20,"wspd":7,"visib":"6+","altim":1017,"clouds":[],"obsTime":1783774800},"SBAT":{"icaoId":"SBAT","flightCategory":"VFR","rawOb":"METAR SBAT 111300Z 05005KT CAVOK 28/23 Q1015","temp":28,"dewp":23,"wdir":50,"wspd":5,"visib":"6+","altim":1015,"clouds":[],"obsTime":1783774800},"SBHT":{"icaoId":"SBHT","flightCategory":"VFR","rawOb":"METAR SBHT 111300Z 09009KT 9999 SCT012 SCT015 28/25 Q1014","temp":28,"dewp":25,"wdir":90,"wspd":9,"visib":"6+","altim":1014,"clouds":[{"cover":"SCT","base":1200},{"cover":"SCT","base":1500}],"obsTime":1783774800},"SBMG":{"icaoId":"SBMG","flightCategory":"VFR","rawOb":"METAR SBMG 111300Z 02015KT CAVOK 22/14 Q1014","temp":22,"dewp":14,"wdir":20,"wspd":15,"visib":"6+","altim":1014,"clouds":[],"obsTime":1783774800},"SBME":{"icaoId":"SBME","flightCategory":"VFR","rawOb":"METAR SBME 111300Z 23002KT CAVOK 24/17 Q1016","temp":24,"dewp":17,"wdir":230,"wspd":2,"visib":"6+","altim":1016,"clouds":[],"obsTime":1783774800},"SBMK":{"icaoId":"SBMK","flightCategory":"VFR","rawOb":"METAR SBMK 111300Z 12002KT CAVOK 25/15 Q1020","temp":25,"dewp":15,"wdir":120,"wspd":2,"visib":"6+","altim":1020,"clouds":[],"obsTime":1783774800},"SBUL":{"icaoId":"SBUL","flightCategory":"VFR","rawOb":"METAR SBUL 111300Z 08008KT 040V110 CAVOK 23/12 Q1022","temp":23,"dewp":12,"wdir":80,"wspd":8,"visib":"6+","altim":1022,"clouds":[],"obsTime":1783774800},"SBUR":{"icaoId":"SBUR","flightCategory":"VFR","rawOb":"METAR SBUR 111300Z 05005KT CAVOK 25/11 Q1020","temp":25,"dewp":11,"wdir":50,"wspd":5,"visib":"6+","altim":1020,"clouds":[],"obsTime":1783774800},"SBIL":{"icaoId":"SBIL","flightCategory":"VFR","rawOb":"METAR SBIL 111300Z 29005KT 9999 FEW020 24/21 Q1018","temp":24,"dewp":21,"wdir":290,"wspd":5,"visib":"6+","altim":1018,"clouds":[{"cover":"FEW","base":2000}],"obsTime":1783774800},"SBJU":{"icaoId":"SBJU","flightCategory":"VFR","rawOb":"METAR SBJU 111300Z 09007KT CAVOK 28/19 Q1018","temp":28,"dewp":19,"wdir":90,"wspd":7,"visib":"6+","altim":1018,"clouds":[],"obsTime":1783774800},"SBSV":{"icaoId":"SBSV","flightCategory":"MVFR","rawOb":"METAR SBSV 111300Z 07008KT 9999 BKN025 27/22 Q1018","temp":27,"dewp":22,"wdir":70,"wspd":8,"visib":"6+","altim":1018,"clouds":[{"cover":"BKN","base":2500}],"obsTime":1783774800},"SBVT":{"icaoId":"SBVT","flightCategory":"VFR","rawOb":"METAR SBVT 111300Z 17005KT CAVOK 25/17 Q1017","temp":25,"dewp":17,"wdir":170,"wspd":5,"visib":"6+","altim":1017,"clouds":[],"obsTime":1783774800},"SBKP":{"icaoId":"SBKP","flightCategory":"VFR","rawOb":"METAR SBKP 111300Z 04004KT 350V080 CAVOK 21/11 Q1018","temp":21,"dewp":11,"wdir":40,"wspd":4,"visib":"6+","altim":1018,"clouds":[],"obsTime":1783774800},"SBCG":{"icaoId":"SBCG","flightCategory":"VFR","rawOb":"METAR SBCG 111300Z 36008KT CAVOK 28/16 Q1017","temp":28,"dewp":16,"wdir":360,"wspd":8,"visib":"6+","altim":1017,"clouds":[],"obsTime":1783774800},"SBCB":{"icaoId":"SBCB","flightCategory":"VFR","rawOb":"METAR SBCB 111300Z 30006KT CAVOK 23/19 Q1017","temp":23,"dewp":19,"wdir":300,"wspd":6,"visib":"6+","altim":1017,"clouds":[],"obsTime":1783774800},"SBSP":{"icaoId":"SBSP","flightCategory":"VFR","rawOb":"METAR SBSP 111300Z 01004KT 330V060 CAVOK 21/11 Q1019","temp":21,"dewp":11,"wdir":10,"wspd":4,"visib":"6+","altim":1019,"clouds":[],"obsTime":1783774800},"SBBR":{"icaoId":"SBBR","flightCategory":"VFR","rawOb":"METAR SBBR 111300Z 06005KT 020V100 CAVOK 24/13 Q1023","temp":24,"dewp":13,"wdir":60,"wspd":5,"visib":"6+","altim":1023,"clouds":[],"obsTime":1783774800},"SBCP":{"icaoId":"SBCP","flightCategory":"VFR","rawOb":"METAR SBCP 111300Z 23005KT CAVOK 25/16 Q1017","temp":25,"dewp":16,"wdir":230,"wspd":5,"visib":"6+","altim":1017,"clouds":[],"obsTime":1783774800},"SBPA":{"icaoId":"SBPA","flightCategory":"IFR","rawOb":"METAR SBPA 111300Z 08010KT 8000 BKN007 BKN040 FEW045TCU BKN080 15/15 Q1012 RETSRA","temp":15,"dewp":15,"wdir":80,"wspd":10,"visib":4.97,"altim":1012,"clouds":[{"cover":"BKN","base":700},{"cover":"BKN","base":4000},{"cover":"FEW","base":4500},{"cover":"BKN","base":8000}],"obsTime":1783774800},"SBCT":{"icaoId":"SBCT","flightCategory":"VFR","rawOb":"METAR SBCT 111300Z 35006KT CAVOK 18/15 Q1017","temp":18,"dewp":15,"wdir":350,"wspd":6,"visib":"6+","altim":1017,"clouds":[],"obsTime":1783774800},"SBFI":{"icaoId":"SBFI","flightCategory":"MVFR","rawOb":"SPECI SBFI 111223Z 01006KT 8000 RA VCTS BKN020 FEW040CB BKN070 20/19 Q1012","temp":20,"dewp":19,"wdir":10,"wspd":6,"visib":4.97,"altim":1012,"clouds":[{"cover":"BKN","base":2000},{"cover":"FEW","base":4000},{"cover":"BKN","base":7000}],"obsTime":1783772580},"SBGO":{"icaoId":"SBGO","flightCategory":"VFR","rawOb":"METAR SBGO 111300Z VRB02KT CAVOK 26/15 Q1020","temp":26,"dewp":15,"wdir":"VRB","wspd":2,"visib":"6+","altim":1020,"clouds":[],"obsTime":1783774800},"SBSN":{"icaoId":"SBSN","flightCategory":"VFR","rawOb":"METAR SBSN 111300Z 08014KT 9000 SCT020 BKN040 28/23 Q1013","temp":28,"dewp":23,"wdir":80,"wspd":14,"visib":5.59,"altim":1013,"clouds":[{"cover":"SCT","base":2000},{"cover":"BKN","base":4000}],"obsTime":1783774800},"SBCZ":{"icaoId":"SBCZ","flightCategory":"VFR","rawOb":"METAR SBCZ 111300Z 35003KT 290V040 9999 FEW004 BKN080 23/23 Q1015","temp":23,"dewp":23,"wdir":350,"wspd":3,"visib":"6+","altim":1015,"clouds":[{"cover":"FEW","base":400},{"cover":"BKN","base":8000}],"obsTime":1783774800},"SBNT":{"icaoId":"SBNT","flightCategory":"MVFR","rawOb":"METAR SBNT 111300Z 15014KT 9999 BKN025 28/22 Q1016","temp":28,"dewp":22,"wdir":150,"wspd":14,"visib":"6+","altim":1016,"clouds":[{"cover":"BKN","base":2500}],"obsTime":1783774800},"SBPL":{"icaoId":"SBPL","flightCategory":"VFR","rawOb":"METAR SBPL 111300Z 09007KT CAVOK 27/18 Q1018","temp":27,"dewp":18,"wdir":90,"wspd":7,"visib":"6+","altim":1018,"clouds":[],"obsTime":1783774800},"SBES":{"icaoId":"SBES","flightCategory":"VFR","rawOb":"METAR SBES 111300Z 20004KT 170V280 9999 FEW018 22/// Q1016","temp":null,"dewp":null,"wdir":200,"wspd":4,"visib":"6+","altim":1016,"clouds":[{"cover":"FEW","base":1800}],"obsTime":1783774800},"SBTU":{"icaoId":"SBTU","flightCategory":"MVFR","rawOb":"METAR SBTU 111300Z AUTO 24010KT 200V260 9999 // BKN014/// BKN022/// 26/23 Q1016","temp":26,"dewp":23,"wdir":240,"wspd":10,"visib":"6+","altim":1016,"clouds":[{"cover":"BKN","base":1400},{"cover":"BKN","base":2200}],"obsTime":1783774800},"SBPB":{"icaoId":"SBPB","flightCategory":"VFR","rawOb":"METAR SBPB 111300Z 08015KT 9999 SCT020 30/23 Q1014","temp":30,"dewp":23,"wdir":80,"wspd":15,"visib":"6+","altim":1014,"clouds":[{"cover":"SCT","base":2000}],"obsTime":1783774800},"SBAR":{"icaoId":"SBAR","flightCategory":"VFR","rawOb":"METAR SBAR 111300Z 09007KT 9999 SCT025 SCT040 27/22 Q1018","temp":27,"dewp":22,"wdir":90,"wspd":7,"visib":"6+","altim":1018,"clouds":[{"cover":"SCT","base":2500},{"cover":"SCT","base":4000}],"obsTime":1783774800},"SBCJ":{"icaoId":"SBCJ","flightCategory":"VFR","rawOb":"METAR SBCJ 111300Z 04006KT 320V100 9999 SCT009 23/21 Q1017","temp":23,"dewp":21,"wdir":40,"wspd":6,"visib":"6+","altim":1017,"clouds":[{"cover":"SCT","base":900}],"obsTime":1783774800},"SBPP":{"icaoId":"SBPP","flightCategory":"VFR","rawOb":"METAR SBPP 111300Z 34007KT CAVOK 26/17 Q1016","temp":26,"dewp":17,"wdir":340,"wspd":7,"visib":"6+","altim":1016,"clouds":[],"obsTime":1783774800},"SBCC":{"icaoId":"SBCC","flightCategory":"VFR","rawOb":"METAR SBCC 111300Z 35006KT 9999 FEW015 SCT100 25/21 Q1017","temp":25,"dewp":21,"wdir":350,"wspd":6,"visib":"6+","altim":1017,"clouds":[{"cover":"FEW","base":1500},{"cover":"SCT","base":10000}],"obsTime":1783774800},"SBGM":{"icaoId":"SBGM","flightCategory":"MVFR","rawOb":"METAR SBGM 111300Z VRB02KT 9999 BKN020 25/23 Q1014","temp":25,"dewp":23,"wdir":"VRB","wspd":2,"visib":"6+","altim":1014,"clouds":[{"cover":"BKN","base":2000}],"obsTime":1783774800},"SBVH":{"icaoId":"SBVH","flightCategory":"VFR","rawOb":"METAR SBVH 111300Z 02008KT CAVOK 27/19 Q1017","temp":27,"dewp":19,"wdir":20,"wspd":8,"visib":"6+","altim":1017,"clouds":[],"obsTime":1783774800},"SBKG":{"icaoId":"SBKG","flightCategory":"MVFR","rawOb":"METAR SBKG 111300Z 13009KT 9999 BKN023 26/20 Q1019","temp":26,"dewp":20,"wdir":130,"wspd":9,"visib":"6+","altim":1019,"clouds":[{"cover":"BKN","base":2300}],"obsTime":1783774800},"SBCA":{"icaoId":"SBCA","flightCategory":"IFR","rawOb":"METAR SBCA 111300Z 36015KT 3000 -TSRA FEW005 SCT020 FEW040CB BKN100 17/16 Q1017","temp":17,"dewp":16,"wdir":360,"wspd":15,"visib":1.86,"altim":1017,"clouds":[{"cover":"FEW","base":500},{"cover":"SCT","base":2000},{"cover":"FEW","base":4000},{"cover":"BKN","base":10000}],"obsTime":1783774800},"SBCO":{"icaoId":"SBCO","flightCategory":"IFR","rawOb":"METAR SBCO 111300Z 07006KT 030V100 9999 BKN007 FEW020TCU SCT025 15/14 Q1012 RETS","temp":15,"dewp":14,"wdir":70,"wspd":6,"visib":"6+","altim":1012,"clouds":[{"cover":"BKN","base":700},{"cover":"FEW","base":2000},{"cover":"SCT","base":2500}],"obsTime":1783774800},"SBSM":{"icaoId":"SBSM","flightCategory":"MVFR","rawOb":"METAR SBSM 111300Z 08002KT 9999 BKN010 BKN017 14/14 Q1013","temp":14,"dewp":14,"wdir":80,"wspd":2,"visib":"6+","altim":1013,"clouds":[{"cover":"BKN","base":1000},{"cover":"BKN","base":1700}],"obsTime":1783774800},"SBAX":{"icaoId":"SBAX","flightCategory":"VFR","rawOb":"METAR SBAX 111300Z AUTO 06004KT 020V090 CAVOK 21/11 Q1022","temp":21,"dewp":11,"wdir":60,"wspd":4,"visib":"6+","altim":1022,"clouds":[],"obsTime":1783774800},"SBUY":{"icaoId":"SBUY","flightCategory":"MVFR","rawOb":"METAR SBUY 111300Z 29002KT 9999 BKN010 BKN100 23/23 Q1013","temp":23,"dewp":23,"wdir":290,"wspd":2,"visib":"6+","altim":1013,"clouds":[{"cover":"BKN","base":1000},{"cover":"BKN","base":10000}],"obsTime":1783774800},"SBBH":{"icaoId":"SBBH","flightCategory":"VFR","rawOb":"METAR SBBH 111300Z 00000KT CAVOK 21/11 Q1021","temp":21,"dewp":11,"wdir":0,"wspd":0,"visib":"6+","altim":1021,"clouds":[],"obsTime":1783774800},"SBTT":{"icaoId":"SBTT","flightCategory":"VFR","rawOb":"METAR SBTT 111300Z 07004KT 010V110 9999 SCT003 OVC100 23/22 Q1015","temp":23,"dewp":22,"wdir":70,"wspd":4,"visib":"6+","altim":1015,"clouds":[{"cover":"SCT","base":300},{"cover":"OVC","base":10000}],"obsTime":1783774800},"SBBQ":{"icaoId":"SBBQ","flightCategory":"VFR","rawOb":"METAR SBBQ 111300Z VRB02KT CAVOK 21/11 Q1024","temp":21,"dewp":11,"wdir":"VRB","wspd":2,"visib":"6+","altim":1024,"clouds":[],"obsTime":1783774800},"SBBU":{"icaoId":"SBBU","flightCategory":"VFR","rawOb":"METAR SBBU 111300Z 34004KT CAVOK 23/12 Q1018","temp":23,"dewp":12,"wdir":340,"wspd":4,"visib":"6+","altim":1018,"clouds":[],"obsTime":1783774800},"SBDN":{"icaoId":"SBDN","flightCategory":"VFR","rawOb":"METAR SBDN 111300Z 02007KT CAVOK 25/14 Q1016","temp":25,"dewp":14,"wdir":20,"wspd":7,"visib":"6+","altim":1016,"clouds":[],"obsTime":1783774800},"SBIP":{"icaoId":"SBIP","flightCategory":"VFR","rawOb":"METAR SBIP 111300Z AUTO 13004KT 100V160 CAVOK 22/17 Q1019","temp":22,"dewp":17,"wdir":130,"wspd":4,"visib":"6+","altim":1019,"clouds":[],"obsTime":1783774800},"SBSC":{"icaoId":"SBSC","flightCategory":"VFR","rawOb":"METAR SBSC 111300Z 04008KT CAVOK 23/16 Q1016","temp":23,"dewp":16,"wdir":40,"wspd":8,"visib":"6+","altim":1016,"clouds":[],"obsTime":1783774800},"SBTF":{"icaoId":"SBTF","flightCategory":"VFR","rawOb":"METAR SBTF 111300Z 08002KT 9999 FEW009 SCT100 27/25 Q1013","temp":27,"dewp":25,"wdir":80,"wspd":2,"visib":"6+","altim":1013,"clouds":[{"cover":"FEW","base":900},{"cover":"SCT","base":10000}],"obsTime":1783774800},"SBSJ":{"icaoId":"SBSJ","flightCategory":"VFR","rawOb":"METAR SBSJ 111300Z 35002KT CAVOK 18/13 Q1019","temp":18,"dewp":13,"wdir":350,"wspd":2,"visib":"6+","altim":1019,"clouds":[],"obsTime":1783774800},"SBOI":{"icaoId":"SBOI","flightCategory":"MVFR","rawOb":"METAR SBOI 111300Z AUTO 12004KT 080V160 9999 FEW018 SCT021 BKN030 29/24 Q1014","temp":29,"dewp":24,"wdir":120,"wspd":4,"visib":"6+","altim":1014,"clouds":[{"cover":"FEW","base":1800},{"cover":"SCT","base":2100},{"cover":"BKN","base":3000}],"obsTime":1783774800},"SBSR":{"icaoId":"SBSR","flightCategory":"VFR","rawOb":"METAR SBSR 111300Z 07005KT CAVOK 22/11 Q1018","temp":22,"dewp":11,"wdir":70,"wspd":5,"visib":"6+","altim":1018,"clouds":[],"obsTime":1783774800},"SBPS":{"icaoId":"SBPS","flightCategory":"VFR","rawOb":"METAR SBPS 111300Z 34008KT 9999 SCT020 26/21 Q1018","temp":26,"dewp":21,"wdir":340,"wspd":8,"visib":"6+","altim":1018,"clouds":[{"cover":"SCT","base":2000}],"obsTime":1783774800},"SBLE":{"icaoId":"SBLE","flightCategory":"MVFR","rawOb":"METAR SBLE 111300Z AUTO 00000KT 9999 FEW014 BKN030 ///// Q1021","temp":null,"dewp":null,"wdir":0,"wspd":0,"visib":"6+","altim":1021,"clouds":[{"cover":"FEW","base":1400},{"cover":"BKN","base":3000}],"obsTime":1783774800},"SBIH":{"icaoId":"SBIH","flightCategory":"VFR","rawOb":"METAR SBIH 111300Z 03005KT 9999 SCT013 28/24 Q1013","temp":28,"dewp":24,"wdir":30,"wspd":5,"visib":"6+","altim":1013,"clouds":[{"cover":"SCT","base":1300}],"obsTime":1783774800},"SBJV":{"icaoId":"SBJV","flightCategory":"LIFR","rawOb":"METAR SBJV 111300Z 00000KT 1200 R33/1200 -DZ BR OVC001 16/16 Q1014","temp":16,"dewp":16,"wdir":0,"wspd":0,"visib":0.75,"altim":1014,"clouds":[{"cover":"OVC","base":100}],"obsTime":1783774800},"SBNM":{"icaoId":"SBNM","flightCategory":"IFR","rawOb":"METAR SBNM 111400Z 27002KT 2000 BR VCFG FEW007 BKN025 17/17 Q1013","temp":17,"dewp":17,"wdir":270,"wspd":2,"visib":1.24,"altim":1013,"clouds":[{"cover":"FEW","base":700},{"cover":"BKN","base":2500}],"obsTime":1783778400},"SBPF":{"icaoId":"SBPF","flightCategory":"IFR","rawOb":"METAR SBPF 111300Z 30005KT 9999 BKN008 BKN070 16/15 Q1014","temp":16,"dewp":15,"wdir":300,"wspd":5,"visib":"6+","altim":1014,"clouds":[{"cover":"BKN","base":800},{"cover":"BKN","base":7000}],"obsTime":1783774800},"SBAF":{"icaoId":"SBAF","flightCategory":"MVFR","rawOb":"METAR SBAF 111300Z VRB01KT 8000 NSC 23/19 Q1016","temp":23,"dewp":19,"wdir":"VRB","wspd":1,"visib":4.97,"altim":1016,"clouds":[],"obsTime":1783774800},"SBAN":{"icaoId":"SBAN","flightCategory":"VFR","rawOb":"METAR SBAN 111300Z 07004KT CAVOK 25/12 Q1023","temp":25,"dewp":12,"wdir":70,"wspd":4,"visib":"6+","altim":1023,"clouds":[],"obsTime":1783774800},"SBGW":{"icaoId":"SBGW","flightCategory":"VFR","rawOb":"METAR SBGW 111300Z 07003KT 020V130 CAVOK 18/11 Q1018","temp":18,"dewp":11,"wdir":70,"wspd":3,"visib":"6+","altim":1018,"clouds":[],"obsTime":1783774800},"SBJR":{"icaoId":"SBJR","flightCategory":"VFR","rawOb":"METAR SBJR 111300Z 02002KT CAVOK 27/20 Q1015","temp":27,"dewp":20,"wdir":20,"wspd":2,"visib":"6+","altim":1015,"clouds":[],"obsTime":1783774800},"SBLS":{"icaoId":"SBLS","flightCategory":"VFR","rawOb":"METAR SBLS 111300Z VRB02KT CAVOK 21/10 Q1021","temp":21,"dewp":10,"wdir":"VRB","wspd":2,"visib":"6+","altim":1021,"clouds":[],"obsTime":1783774800},"SBMT":{"icaoId":"SBMT","flightCategory":"VFR","rawOb":"METAR SBMT 111300Z 00000KT CAVOK 21/09 Q1018","temp":21,"dewp":9,"wdir":0,"wspd":0,"visib":"6+","altim":1018,"clouds":[],"obsTime":1783774800},"SBJP":{"icaoId":"SBJP","flightCategory":"MVFR","rawOb":"METAR SBJP 111300Z 13011KT 9999 BKN020 28/23 Q1017","temp":28,"dewp":23,"wdir":130,"wspd":11,"visib":"6+","altim":1017,"clouds":[{"cover":"BKN","base":2000}],"obsTime":1783774800},"SBST":{"icaoId":"SBST","flightCategory":"VFR","rawOb":"METAR SBST 111300Z 16002KT CAVOK 21/16 Q1014","temp":21,"dewp":16,"wdir":160,"wspd":2,"visib":"6+","altim":1014,"clouds":[],"obsTime":1783774800},"SBTA":{"icaoId":"SBTA","flightCategory":"VFR","rawOb":"METAR SBTA 111300Z 07003KT 040V110 CAVOK 19/14 Q1018","temp":19,"dewp":14,"wdir":70,"wspd":3,"visib":"6+","altim":1018,"clouds":[],"obsTime":1783774800}}}