{"updated":1783036358,"count":74,"data":{"SBBE":{"icaoId":"SBBE","flightCategory":"VFR","rawOb":"METAR SBBE 022200Z 35008KT 9999 SCT040 30/26 Q1012","temp":30,"dewp":26,"wdir":350,"wspd":8,"visib":"6+","altim":1012,"clouds":[{"cover":"SCT","base":4000}],"obsTime":1783029600},"SBCG":{"icaoId":"SBCG","flightCategory":"VFR","rawOb":"METAR SBCG 022200Z 25007KT 9999 FEW049 21/18 Q1021","temp":21,"dewp":18,"wdir":250,"wspd":7,"visib":"6+","altim":1021,"clouds":[{"cover":"FEW","base":4900}],"obsTime":1783029600},"SBFL":{"icaoId":"SBFL","flightCategory":"IFR","rawOb":"METAR SBFL 022200Z 35005KT 4500 BR OVC008 18/18 Q1017","temp":18,"dewp":18,"wdir":350,"wspd":5,"visib":2.8,"altim":1017,"clouds":[{"cover":"OVC","base":800}],"obsTime":1783029600},"SBMG":{"icaoId":"SBMG","flightCategory":"VFR","rawOb":"METAR SBMG 022200Z 02005KT CAVOK 23/16 Q1019","temp":23,"dewp":16,"wdir":20,"wspd":5,"visib":"6+","altim":1019,"clouds":[],"obsTime":1783029600},"SBIL":{"icaoId":"SBIL","flightCategory":"VFR","rawOb":"METAR SBIL 022200Z 22005KT 9999 FEW025 SCT050 24/22 Q1019","temp":24,"dewp":22,"wdir":220,"wspd":5,"visib":"6+","altim":1019,"clouds":[{"cover":"FEW","base":2500},{"cover":"SCT","base":5000}],"obsTime":1783029600},"SBJU":{"icaoId":"SBJU","flightCategory":"VFR","rawOb":"METAR SBJU 022200Z 16005KT CAVOK 28/12 Q1016","temp":28,"dewp":12,"wdir":160,"wspd":5,"visib":"6+","altim":1016,"clouds":[],"obsTime":1783029600},"SBFI":{"icaoId":"SBFI","flightCategory":"LIFR","rawOb":"METAR SBFI 022200Z 22008KT 2000 -RA BR BKN004 SCT015 14/14 Q1023","temp":14,"dewp":14,"wdir":220,"wspd":8,"visib":1.24,"altim":1023,"clouds":[{"cover":"BKN","base":400},{"cover":"SCT","base":1500}],"obsTime":1783029600},"SBME":{"icaoId":"SBME","flightCategory":"VFR","rawOb":"METAR SBME 022200Z 04003KT CAVOK 23/21 Q1019","temp":23,"dewp":21,"wdir":40,"wspd":3,"visib":"6+","altim":1019,"clouds":[],"obsTime":1783029600},"SBMK":{"icaoId":"SBMK","flightCategory":"VFR","rawOb":"METAR SBMK 022200Z 09006KT CAVOK 22/11 Q1021","temp":22,"dewp":11,"wdir":90,"wspd":6,"visib":"6+","altim":1021,"clouds":[],"obsTime":1783029600},"SBUL":{"icaoId":"SBUL","flightCategory":"VFR","rawOb":"METAR SBUL 022200Z 36003KT CAVOK 23/13 Q1023","temp":23,"dewp":13,"wdir":360,"wspd":3,"visib":"6+","altim":1023,"clouds":[],"obsTime":1783029600},"SBUR":{"icaoId":"SBUR","flightCategory":"VFR","rawOb":"METAR SBUR 022200Z 17003KT CAVOK 23/15 Q1022","temp":23,"dewp":15,"wdir":170,"wspd":3,"visib":"6+","altim":1022,"clouds":[],"obsTime":1783029600},"SBGO":{"icaoId":"SBGO","flightCategory":"VFR","rawOb":"METAR SBGO 022200Z 08009KT CAVOK 25/15 Q1021","temp":25,"dewp":15,"wdir":80,"wspd":9,"visib":"6+","altim":1021,"clouds":[],"obsTime":1783029600},"SBSV":{"icaoId":"SBSV","flightCategory":"MVFR","rawOb":"METAR SBSV 022200Z 13008KT 5000 RA SCT020 BKN050 23/22 Q1018","temp":23,"dewp":22,"wdir":130,"wspd":8,"visib":3.11,"altim":1018,"clouds":[{"cover":"SCT","base":2000},{"cover":"BKN","base":5000}],"obsTime":1783029600},"SBLO":{"icaoId":"SBLO","flightCategory":"VFR","rawOb":"METAR SBLO 022200Z 02003KT CAVOK 23/18 Q1020","temp":23,"dewp":18,"wdir":20,"wspd":3,"visib":"6+","altim":1020,"clouds":[],"obsTime":1783029600},"SBCZ":{"icaoId":"SBCZ","flightCategory":"VFR","rawOb":"METAR SBCZ 022200Z 00000KT 9999 SCT030 26/24 Q1012","temp":26,"dewp":24,"wdir":0,"wspd":0,"visib":"6+","altim":1012,"clouds":[{"cover":"SCT","base":3000}],"obsTime":1783029600},"SBNT":{"icaoId":"SBNT","flightCategory":"VFR","rawOb":"METAR SBNT 022200Z 16011KT 9999 FEW043 SCT090 26/21 Q1014","temp":26,"dewp":21,"wdir":160,"wspd":11,"visib":"6+","altim":1014,"clouds":[{"cover":"FEW","base":4300},{"cover":"SCT","base":9000}],"obsTime":1783029600},"SBPJ":{"icaoId":"SBPJ","flightCategory":"VFR","rawOb":"METAR SBPJ 022200Z 12003KT 9999 FEW045 26/16 Q1015","temp":26,"dewp":16,"wdir":120,"wspd":3,"visib":"6+","altim":1015,"clouds":[{"cover":"FEW","base":4500}],"obsTime":1783029600},"SBSL":{"icaoId":"SBSL","flightCategory":"VFR","rawOb":"METAR SBSL 022200Z 04007KT 9999 FEW027 28/24 Q1012","temp":28,"dewp":24,"wdir":40,"wspd":7,"visib":"6+","altim":1012,"clouds":[{"cover":"FEW","base":2700}],"obsTime":1783029600},"SBSG":{"icaoId":"SBSG","flightCategory":"VFR","rawOb":"METAR SBSG 022200Z 16005KT 110V190 9999 SCT040 25/20 Q1015","temp":25,"dewp":20,"wdir":160,"wspd":5,"visib":"6+","altim":1015,"clouds":[{"cover":"SCT","base":4000}],"obsTime":1783029600},"SBRB":{"icaoId":"SBRB","flightCategory":"VFR","rawOb":"METAR SBRB 022200Z 11004KT 9999 SCT033 30/21 Q1012","temp":30,"dewp":21,"wdir":110,"wspd":4,"visib":"6+","altim":1012,"clouds":[{"cover":"SCT","base":3300}],"obsTime":1783029600},"SBEG":{"icaoId":"SBEG","flightCategory":"VFR","rawOb":"METAR SBEG 022200Z 12007KT 9999 FEW035 31/23 Q1010","temp":31,"dewp":23,"wdir":120,"wspd":7,"visib":"6+","altim":1010,"clouds":[{"cover":"FEW","base":3500}],"obsTime":1783029600},"SBPV":{"icaoId":"SBPV","flightCategory":"VFR","rawOb":"METAR SBPV 022200Z 09004KT 9999 FEW030 32/21 Q1010","temp":32,"dewp":21,"wdir":90,"wspd":4,"visib":"6+","altim":1010,"clouds":[{"cover":"FEW","base":3000}],"obsTime":1783029600},"SBMO":{"icaoId":"SBMO","flightCategory":"VFR","rawOb":"METAR SBMO 022200Z 18003KT 9999 FEW030 25/21 Q1017","temp":25,"dewp":21,"wdir":180,"wspd":3,"visib":"6+","altim":1017,"clouds":[{"cover":"FEW","base":3000}],"obsTime":1783029600},"SBBV":{"icaoId":"SBBV","flightCategory":"VFR","rawOb":"METAR SBBV 022200Z 10005KT 9999 SCT040 FEW045TCU BKN090 31/23 Q1009","temp":31,"dewp":23,"wdir":100,"wspd":5,"visib":"6+","altim":1009,"clouds":[{"cover":"SCT","base":4000},{"cover":"FEW","base":4500},{"cover":"BKN","base":9000}],"obsTime":1783029600},"SBBR":{"icaoId":"SBBR","flightCategory":"VFR","rawOb":"METAR SBBR 022200Z 12006KT 9999 FEW045 21/14 Q1023","temp":21,"dewp":14,"wdir":120,"wspd":6,"visib":"6+","altim":1023,"clouds":[{"cover":"FEW","base":4500}],"obsTime":1783029600},"SBFZ":{"icaoId":"SBFZ","flightCategory":"VFR","rawOb":"METAR SBFZ 022200Z 11012KT 9999 FEW030 BKN060 28/23 Q1013","temp":28,"dewp":23,"wdir":110,"wspd":12,"visib":"6+","altim":1013,"clouds":[{"cover":"FEW","base":3000},{"cover":"BKN","base":6000}],"obsTime":1783029600},"SBSP":{"icaoId":"SBSP","flightCategory":"VFR","rawOb":"METAR SBSP 022200Z 32004KT 270V340 CAVOK 23/13 Q1023","temp":23,"dewp":13,"wdir":320,"wspd":4,"visib":"6+","altim":1023,"clouds":[],"obsTime":1783029600},"SBRF":{"icaoId":"SBRF","flightCategory":"VFR","rawOb":"METAR SBRF 022200Z 16013KT 9999 SCT025 27/22 Q1015","temp":27,"dewp":22,"wdir":160,"wspd":13,"visib":"6+","altim":1015,"clouds":[{"cover":"SCT","base":2500}],"obsTime":1783029600},"SBCF":{"icaoId":"SBCF","flightCategory":"VFR","rawOb":"METAR SBCF 022200Z 12008KT CAVOK 22/14 Q1023","temp":22,"dewp":14,"wdir":120,"wspd":8,"visib":"6+","altim":1023,"clouds":[],"obsTime":1783029600},"SBVT":{"icaoId":"SBVT","flightCategory":"VFR","rawOb":"METAR SBVT 022200Z 36004KT CAVOK 23/21 Q1020","temp":23,"dewp":21,"wdir":360,"wspd":4,"visib":"6+","altim":1020,"clouds":[],"obsTime":1783029600},"SBGL":{"icaoId":"SBGL","flightCategory":"VFR","rawOb":"METAR SBGL 022200Z 13007KT CAVOK 24/20 Q1018","temp":24,"dewp":20,"wdir":130,"wspd":7,"visib":"6+","altim":1018,"clouds":[],"obsTime":1783029600},"SBTE":{"icaoId":"SBTE","flightCategory":"VFR","rawOb":"METAR SBTE 022200Z 23003KT CAVOK 30/19 Q1012","temp":30,"dewp":19,"wdir":230,"wspd":3,"visib":"6+","altim":1012,"clouds":[],"obsTime":1783029600},"SBPA":{"icaoId":"SBPA","flightCategory":"IFR","rawOb":"METAR SBPA 022200Z 24010KT 200V260 3500 -DZ BR OVC009 11/10 Q1023 WS R29","temp":11,"dewp":10,"wdir":240,"wspd":10,"visib":2.17,"altim":1023,"clouds":[{"cover":"OVC","base":900}],"obsTime":1783029600},"SBMA":{"icaoId":"SBMA","flightCategory":"VFR","rawOb":"METAR SBMA 022200Z 06004KT CAVOK 30/17 Q1012","temp":30,"dewp":17,"wdir":60,"wspd":4,"visib":"6+","altim":1012,"clouds":[],"obsTime":1783029600},"SBKP":{"icaoId":"SBKP","flightCategory":"VFR","rawOb":"METAR SBKP 022200Z 00000KT CAVOK 25/13 Q1022","temp":25,"dewp":13,"wdir":0,"wspd":0,"visib":"6+","altim":1022,"clouds":[],"obsTime":1783029600},"SBGR":{"icaoId":"SBGR","flightCategory":"VFR","rawOb":"METAR SBGR 022200Z 21001KT CAVOK 19/15 Q1022","temp":19,"dewp":15,"wdir":210,"wspd":1,"visib":"6+","altim":1022,"clouds":[],"obsTime":1783029600},"SBCT":{"icaoId":"SBCT","flightCategory":"VFR","rawOb":"METAR SBCT 022200Z 35007KT 9999 VCTS FEW040CB 21/16 Q1021","temp":21,"dewp":16,"wdir":350,"wspd":7,"visib":"6+","altim":1021,"clouds":[{"cover":"FEW","base":4000}],"obsTime":1783029600},"SBSN":{"icaoId":"SBSN","flightCategory":"VFR","rawOb":"METAR SBSN 022200Z 12006KT 9999 FEW020 29/23 Q1010","temp":29,"dewp":23,"wdir":120,"wspd":6,"visib":"6+","altim":1010,"clouds":[{"cover":"FEW","base":2000}],"obsTime":1783029600},"SBMQ":{"icaoId":"SBMQ","flightCategory":"VFR","rawOb":"METAR SBMQ 022200Z 02006KT 9999 SCT030 FEW033TCU BKN090 28/25 Q1011","temp":28,"dewp":25,"wdir":20,"wspd":6,"visib":"6+","altim":1011,"clouds":[{"cover":"SCT","base":3000},{"cover":"FEW","base":3300},{"cover":"BKN","base":9000}],"obsTime":1783029600},"SBCP":{"icaoId":"SBCP","flightCategory":"VFR","rawOb":"METAR SBCP 022200Z 07005KT CAVOK 22/20 Q1019","temp":22,"dewp":20,"wdir":70,"wspd":5,"visib":"6+","altim":1019,"clouds":[],"obsTime":1783029600},"SBAR":{"icaoId":"SBAR","flightCategory":"MVFR","rawOb":"METAR SBAR 022200Z 25003KT 8000 -RA SCT009 BKN014 BKN021 23/22 Q1017","temp":23,"dewp":22,"wdir":250,"wspd":3,"visib":4.97,"altim":1017,"clouds":[{"cover":"SCT","base":900},{"cover":"BKN","base":1400},{"cover":"BKN","base":2100}],"obsTime":1783029600},"SBBH":{"icaoId":"SBBH","flightCategory":"VFR","rawOb":"METAR SBBH 022200Z 00000KT CAVOK 19/14 Q1023","temp":19,"dewp":14,"wdir":0,"wspd":0,"visib":"6+","altim":1023,"clouds":[],"obsTime":1783029600},"SBBU":{"icaoId":"SBBU","flightCategory":"VFR","rawOb":"METAR SBBU 022200Z 28002KT CAVOK 26/13 Q1021","temp":26,"dewp":13,"wdir":280,"wspd":2,"visib":"6+","altim":1021,"clouds":[],"obsTime":1783029600},"SBAX":{"icaoId":"SBAX","flightCategory":"VFR","rawOb":"METAR SBAX 022200Z 31002KT CAVOK 23/13 Q1023","temp":23,"dewp":13,"wdir":310,"wspd":2,"visib":"6+","altim":1023,"clouds":[],"obsTime":1783029600},"SBDN":{"icaoId":"SBDN","flightCategory":"VFR","rawOb":"METAR SBDN 022200Z 10003KT CAVOK 26/16 Q1020","temp":26,"dewp":16,"wdir":100,"wspd":3,"visib":"6+","altim":1020,"clouds":[],"obsTime":1783029600},"SBIP":{"icaoId":"SBIP","flightCategory":"VFR","rawOb":"METAR SBIP 022200Z AUTO 00000KT CAVOK 17/15 Q1021","temp":17,"dewp":15,"wdir":0,"wspd":0,"visib":"6+","altim":1021,"clouds":[],"obsTime":1783029600},"SBSC":{"icaoId":"SBSC","flightCategory":"VFR","rawOb":"METAR SBSC 022200Z 24004KT CAVOK 21/20 Q1019","temp":21,"dewp":20,"wdir":240,"wspd":4,"visib":"6+","altim":1019,"clouds":[],"obsTime":1783029600},"SBSR":{"icaoId":"SBSR","flightCategory":"VFR","rawOb":"METAR SBSR 022200Z 25002KT CAVOK 23/11 Q1020","temp":23,"dewp":11,"wdir":250,"wspd":2,"visib":"6+","altim":1020,"clouds":[],"obsTime":1783029600},"SBVH":{"icaoId":"SBVH","flightCategory":"VFR","rawOb":"METAR SBVH 022200Z 11008KT CAVOK 24/17 Q1017","temp":24,"dewp":17,"wdir":110,"wspd":8,"visib":"6+","altim":1017,"clouds":[],"obsTime":1783029600},"SBCA":{"icaoId":"SBCA","flightCategory":"LIFR","rawOb":"METAR SBCA 022200Z 24007KT 0800 FG OVC001 15/14 Q1023","temp":15,"dewp":14,"wdir":240,"wspd":7,"visib":0.5,"altim":1023,"clouds":[{"cover":"OVC","base":100}],"obsTime":1783029600},"SBCO":{"icaoId":"SBCO","flightCategory":"IFR","rawOb":"METAR SBCO 022200Z 22009KT 8000 -RA BKN007 OVC016 11/10 Q1024","temp":11,"dewp":10,"wdir":220,"wspd":9,"visib":4.97,"altim":1024,"clouds":[{"cover":"BKN","base":700},{"cover":"OVC","base":1600}],"obsTime":1783029600},"SBSM":{"icaoId":"SBSM","flightCategory":"IFR","rawOb":"METAR SBSM 022200Z 24004KT 3000 -DZ BR BKN006 OVC011 09/08 Q1027","temp":9,"dewp":8,"wdir":240,"wspd":4,"visib":1.86,"altim":1027,"clouds":[{"cover":"BKN","base":600},{"cover":"OVC","base":1100}],"obsTime":1783029600},"SBKG":{"icaoId":"SBKG","flightCategory":"VFR","rawOb":"METAR SBKG 022200Z 11005KT CAVOK 21/17 Q1017","temp":21,"dewp":17,"wdir":110,"wspd":5,"visib":"6+","altim":1017,"clouds":[],"obsTime":1783029600},"SBPS":{"icaoId":"SBPS","flightCategory":"MVFR","rawOb":"METAR SBPS 022200Z 23004KT 9999 SCT009 OVC022 22/22 Q1020","temp":22,"dewp":22,"wdir":230,"wspd":4,"visib":"6+","altim":1020,"clouds":[{"cover":"SCT","base":900},{"cover":"OVC","base":2200}],"obsTime":1783029600},"SBSJ":{"icaoId":"SBSJ","flightCategory":"VFR","rawOb":"METAR SBSJ 022200Z 15001KT CAVOK 20/15 Q1022","temp":20,"dewp":15,"wdir":150,"wspd":1,"visib":"6+","altim":1022,"clouds":[],"obsTime":1783029600},"SBTT":{"icaoId":"SBTT","flightCategory":"VFR","rawOb":"METAR SBTT 022200Z 18004KT 9999 FEW023 FEW030TCU 26/24 Q1011","temp":26,"dewp":24,"wdir":180,"wspd":4,"visib":"6+","altim":1011,"clouds":[{"cover":"FEW","base":2300},{"cover":"FEW","base":3000}],"obsTime":1783029600},"SBOI":{"icaoId":"SBOI","flightCategory":"VFR","rawOb":"METAR SBOI 022200Z AUTO VRB02KT CAVOK 28/23 Q1012","temp":28,"dewp":23,"wdir":"VRB","wspd":2,"visib":"6+","altim":1012,"clouds":[],"obsTime":1783029600},"SBPL":{"icaoId":"SBPL","flightCategory":"VFR","rawOb":"METAR SBPL 022200Z 14007KT CAVOK 28/12 Q1017","temp":28,"dewp":12,"wdir":140,"wspd":7,"visib":"6+","altim":1017,"clouds":[],"obsTime":1783029600},"SBTU":{"icaoId":"SBTU","flightCategory":"VFR","rawOb":"METAR SBTU 022200Z AUTO 02003KT 9999 // FEW069/// ///// Q1014","temp":null,"dewp":null,"wdir":20,"wspd":3,"visib":"6+","altim":1014,"clouds":[{"cover":"FEW","base":6900}],"obsTime":1783029600},"SBTF":{"icaoId":"SBTF","flightCategory":"VFR","rawOb":"METAR SBTF 022200Z 10003KT 9999 SCT015 FEW025TCU 28/24 Q1010","temp":28,"dewp":24,"wdir":100,"wspd":3,"visib":"6+","altim":1010,"clouds":[{"cover":"SCT","base":1500},{"cover":"FEW","base":2500}],"obsTime":1783029600},"SBUY":{"icaoId":"SBUY","flightCategory":"VFR","rawOb":"METAR SBUY 022200Z 11005KT 9999 FEW030 SCT100 28/24 Q1009","temp":28,"dewp":24,"wdir":110,"wspd":5,"visib":"6+","altim":1009,"clouds":[{"cover":"FEW","base":3000},{"cover":"SCT","base":10000}],"obsTime":1783029600},"SBES":{"icaoId":"SBES","flightCategory":"VFR","rawOb":"METAR SBES 022200Z 04003KT 360V070 CAVOK 18/// Q1019","temp":null,"dewp":null,"wdir":40,"wspd":3,"visib":"6+","altim":1019,"clouds":[],"obsTime":1783029600},"SBAF":{"icaoId":"SBAF","flightCategory":"VFR","rawOb":"METAR SBAF 022200Z 22002KT CAVOK 22/22 Q1019","temp":22,"dewp":22,"wdir":220,"wspd":2,"visib":"6+","altim":1019,"clouds":[],"obsTime":1783029600},"SBPF":{"icaoId":"SBPF","flightCategory":"LIFR","rawOb":"METAR SBPF 022200Z 21005KT 9999 -DZ OVC003 09/08 Q1023","temp":9,"dewp":8,"wdir":210,"wspd":5,"visib":"6+","altim":1023,"clouds":[{"cover":"OVC","base":300}],"obsTime":1783029600},"SBLE":{"icaoId":"SBLE","flightCategory":"VFR","rawOb":"METAR SBLE 022200Z AUTO 00000KT CAVOK ///// Q1020","temp":null,"dewp":null,"wdir":0,"wspd":0,"visib":"6+","altim":1020,"clouds":[],"obsTime":1783029600},"SBJP":{"icaoId":"SBJP","flightCategory":"VFR","rawOb":"METAR SBJP 022200Z 14006KT 9999 FEW025 25/21 Q1015","temp":25,"dewp":21,"wdir":140,"wspd":6,"visib":"6+","altim":1015,"clouds":[{"cover":"FEW","base":2500}],"obsTime":1783029600},"SBLS":{"icaoId":"SBLS","flightCategory":"VFR","rawOb":"METAR SBLS 022200Z 15007KT CAVOK 21/14 Q1023","temp":21,"dewp":14,"wdir":150,"wspd":7,"visib":"6+","altim":1023,"clouds":[],"obsTime":1783029600},"SBMT":{"icaoId":"SBMT","flightCategory":"VFR","rawOb":"METAR SBMT 022200Z VRB02KT CAVOK 16/13 Q1022","temp":16,"dewp":13,"wdir":"VRB","wspd":2,"visib":"6+","altim":1022,"clouds":[],"obsTime":1783029600},"SBTA":{"icaoId":"SBTA","flightCategory":"VFR","rawOb":"METAR SBTA 022200Z VRB01KT CAVOK 18/17 Q1021","temp":18,"dewp":17,"wdir":"VRB","wspd":1,"visib":"6+","altim":1021,"clouds":[],"obsTime":1783029600},"SBAN":{"icaoId":"SBAN","flightCategory":"VFR","rawOb":"METAR SBAN 022200Z 14004KT CAVOK 20/14 Q1023","temp":20,"dewp":14,"wdir":140,"wspd":4,"visib":"6+","altim":1023,"clouds":[],"obsTime":1783029600},"SBJR":{"icaoId":"SBJR","flightCategory":"VFR","rawOb":"METAR SBJR 022200Z 30001KT CAVOK 21/19 Q1018","temp":21,"dewp":19,"wdir":300,"wspd":1,"visib":"6+","altim":1018,"clouds":[],"obsTime":1783029600},"SBJV":{"icaoId":"SBJV","flightCategory":"MVFR","rawOb":"METAR SBJV 022200Z 17003KT 9999 BKN010 BKN030 19/18 Q1018","temp":19,"dewp":18,"wdir":170,"wspd":3,"visib":"6+","altim":1018,"clouds":[{"cover":"BKN","base":1000},{"cover":"BKN","base":3000}],"obsTime":1783029600},"SBNM":{"icaoId":"SBNM","flightCategory":"MVFR","rawOb":"METAR SBNM 022200Z AUTO 18010KT 9999 OVC011 10/08 Q1025","temp":10,"dewp":8,"wdir":180,"wspd":10,"visib":"6+","altim":1025,"clouds":[{"cover":"OVC","base":1100}],"obsTime":1783029600},"SBGW":{"icaoId":"SBGW","flightCategory":"VFR","rawOb":"METAR SBGW 022200Z 00000KT CAVOK 20/13 Q1021","temp":20,"dewp":13,"wdir":0,"wspd":0,"visib":"6+","altim":1021,"clouds":[],"obsTime":1783029600}}}